##########################################################
# Query made at 02/18/2025 01:20:43 UTC
# Time interval: from 07/01/2006 00:00  to 07/31/2006 23:59  UTC
##########################################################

##########################################################
# KSEA, Seattle, Seattle-Tacoma International Airport (United States)
# WMO index: 72793. WIGOS ID: 0-20000-0-72793
# Latitude 47-27-00N. Longitude 122-17-59W. Altitude 130 m.
##########################################################

###################################
#  METAR/SPECI from KSEA
###################################
200607312356 METAR KSEA 312356Z 32010KT 10SM FEW050 SCT100 22/07 A3001 RMK AO2 SLP165 T02170072 10233 20161 56008=
200607312256 METAR KSEA 312256Z 29012KT 10SM SCT050 SCT100 23/08 A3001 RMK AO2 SLP166 T02280083=
200607312156 METAR KSEA 312156Z 28008KT 10SM SCT050 23/08 A3002=
200607312056 METAR KSEA 312056Z 31010KT 10SM SCT040 21/09 A3003 RMK AO2 SLP173 T02110094 58008=
200607311956 METAR KSEA 311956Z 36008KT 10SM SCT035 BKN049 20/09 A3004 RMK AO2 SLP177 T02000089=
200607311856 METAR KSEA 311856Z 35008KT 10SM SCT030 BKN045 18/09 A3005 RMK AO2 SLP180 T01780094=
200607311756 METAR KSEA 311756Z 28007KT 10SM SCT025 BKN045 17/12 A3005 RMK AO2 SLP182 T01720117 10194 20139 58003=
200607311656 METAR KSEA 311656Z 02007KT 10SM SCT020 SCT045 17/10 A3005 RMK AO2 SLP183 T01720100=
200607311556 METAR KSEA 311556Z 01008KT 10SM SCT045 BKN065 16/10 A3006 RMK AO2 SLP184 T01560100=
200607311456 METAR KSEA 311456Z 03009KT 10SM BKN040 BKN065 15/09 A3006 RMK AO2 SLP185 T01500094 52002=
200607311356 METAR KSEA 311356Z 04009KT 10SM BKN065 14/09 A3006 RMK AO2 SLP184 T01440094=
200607311256 METAR KSEA 311256Z 05005KT 10SM FEW055 BKN070 14/10 A3006 RMK AO2 SLP183 T01390100=
200607311156 METAR KSEA 311156Z 04007KT 10SM FEW027 OVC065 14/10 A3006 RMK AO2 SLP183 60000 T01390100 10161 20139 58005=
200607311056 METAR KSEA 311056Z 05006KT 10SM SCT027 SCT050 OVC070 14/11 A3006 RMK AO2 SLP184 T01390106=
200607310956 METAR KSEA 310956Z 06008KT 10SM OVC070 14/12 A3007 RMK AO2 SLP187 T01440117=
200607310856 METAR KSEA 310856Z 03007KT 10SM BKN070 BKN080 14/13 A3007 RMK AO2 SLP187 60000 T01440128 56005=
200607310756 METAR KSEA 310756Z 02005KT 10SM OVC070 15/12 A3007 RMK AO2 SLP189 T01500122 402220128=
200607310656 METAR KSEA 310656Z 06006KT 10SM BKN048 OVC060 15/11 A3008 RMK AO2 RAE54 SLP190 P0000 T01500106=
200607310556 METAR KSEA 310556Z 05006KT 10SM -RA SCT048 BKN060 BKN085 16/08 A3008 RMK AO2 RAB53 SLP193 P0000 60000 T01610083 10222 20161 53008=
200607310518 SPECI KSEA 310518Z 03005KT 10SM FEW050 BKN070 BKN085 17/10 A3008 RMK AO2=
200607310518 SPECI KSEA 310518Z 03005KT 10SM FEW050 BKN070 BKN085 17/10 A3008 RMK AO2=
200607310513 SPECI KSEA 310513Z 07004KT 10SM FEW045CB BKN070 BKN085 17/10 A3008 RMK AO2 DSNT OCNL LTG CG NE=
200607310513 SPECI KSEA 310513Z 07004KT 10SM FEW045CB BKN070 BKN085 17/10 A3008 RMK AO2 DSNT OCNL LTG CG NE=
200607310456 METAR KSEA 310456Z 09004KT 10SM SCT050 BKN060 BKN070 17/11 A3008 RMK AO2 SLP190 T01670106=
200607310356 METAR KSEA 310356Z 06007KT 10SM FEW055 BKN060 BKN075 17/10 A3006 RMK AO2 RAB0258E08 SLP186 P0000 T01670100=
200607310256 METAR KSEA 310256Z 05009KT 10SM SCT055 BKN080 BKN090 17/11 A3006 RMK AO2 SLP184 T01720106 51002=
200607310156 METAR KSEA 310156Z 04011KT 10SM FEW045 SCT050 BKN085 17/12 A3006 RMK AO2 SLP184 T01720117=
200607310056 METAR KSEA 310056Z 31007KT 280V350 10SM SCT045 BKN070 BKN090 21/09 A3006 RMK AO2 SLP183 T02110094=
200607302356 METAR KSEA 302356Z 31006KT 10SM SCT045 SCT080 BKN090 21/10 A3005 RMK AO2 SLP182 T02060100 10217 20167 55002=
200607302256 METAR KSEA 302256Z 22013KT 10SM SCT035 SCT080 21/09 A3005 RMK AO2 SLP181 T02110089=
200607302156 METAR KSEA 302156Z COR 22015G19KT 10SM SCT035CB SCT080 SCT200 21/09 A3006 RMK AO2 SLP183 CB NW VCSH NW T02110094=
200607302056 METAR KSEA 302056Z 22012KT 10SM SCT035 SCT080 SCT200 21/09 A3006 RMK AO2 SLP183 CB DSNT N MOV NE T02060089 53002=
200607301956 METAR KSEA 301956Z 21015KT 10SM SCT030TCU SCT075 BKN090 19/10 A3006 RMK AO2 SLP183 TCU N-NW T01940100=
200607301856 METAR KSEA 301856Z 21016KT 10SM SCT030 SCT070 BKN090 18/09 A3005 RMK AO2 SLP182 VCSH SE-S T01780094=
200607301756 METAR KSEA 301756Z 24013KT 10SM SCT028 SCT043 BKN070 18/09 A3005 RMK AO2 RAB25E34 SLP182 VCSH S P0000 60000 T01780094 10178 20128 51012=
200607301730 SPECI KSEA 301730Z 21011KT 10SM -RA SCT028 BKN043 BKN050 16/09 A3005=
200607301730 SPECI KSEA 301730Z 21011KT 10SM -RA SCT028 BKN043 BKN050 16/09 A3005 RMK AO2 RAB25 P0000=
200607301656 METAR KSEA 301656Z 23014KT 10SM BKN028 BKN033 BKN080 16/09 A3004 RMK AO2 SLP179 T01560094=
200607301646 SPECI KSEA 301646Z 22013KT 10SM BKN028 BKN033 BKN080 17/09 A3004 RMK AO2=
200607301646 SPECI KSEA 301646Z 22013KT 10SM BKN028 BKN033 BKN080 17/09 A3004 RMK AO2=
200607301556 METAR KSEA 301556Z 21012KT 10SM SCT027 BKN060 BKN090 16/09 A3003 RMK AO2 SLP175 T01560094=
200607301456 METAR KSEA 301456Z 20010KT 10SM FEW023 SCT060 SCT100 14/10 A3002 RMK AO2 SLP170 60000 T01440100 51012=
200607301356 METAR KSEA 301356Z 19008KT 10SM FEW023 SCT060 BKN095 13/10 A3001 RMK AO2 SLP166 T01330100=
200607301256 METAR KSEA 301256Z 19010KT 10SM SCT060 BKN100 OVC110 13/10 A2999 RMK AO2 RAE08 SLP162 P0000 T01280100=
200607301156 METAR KSEA 301156Z 21009KT 10SM -RA SCT060 OVC090 13/10 A2998 RMK AO2 RAE01B19 SLP157 P0000 60000 T01330100 10156 20133 52001=
200607301056 METAR KSEA 301056Z 22009KT 10SM -RA BKN065 BKN080 13/10 A2998 RMK AO2 SLP158 P0000 T01330100=
200607300956 METAR KSEA 300956Z 23010KT 10SM -RA SCT070 OVC090 13/09 A2998 RMK AO2 RAB51 SLP156 P0000 T01330094=
200607300856 METAR KSEA 300856Z 21008KT 10SM FEW060 BKN080 14/09 A2998 RMK AO2 SLP156 T01390094 55002=
200607300756 METAR KSEA 300756Z 22007KT 10SM FEW055 BKN080 14/09 A2997 RMK AO2 SLP155 T01390094 402060117=
200607300656 METAR KSEA 300656Z 25006KT 10SM FEW055 BKN080 14/09 A2998 RMK AO2 SLP156 T01440094=
200607300556 METAR KSEA 300556Z 25008KT 10SM FEW050 OVC080 16/09 A2998 RMK AO2 SLP158 T01560094 10194 20156 55001=
200607300456 METAR KSEA 300456Z 23008KT 10SM FEW050 OVC080 16/09 A2998 RMK AO2 SLP156 T01610089=
200607300356 METAR KSEA 300356Z 23005KT 10SM FEW045 OVC075 17/09 A2998 RMK AO2 SLP157 T01670089=
200607300256 METAR KSEA 300256Z 22006KT 10SM BKN075 17/09 A2998 RMK AO2 SLP159 T01720089 56013=
200607300156 METAR KSEA 300156Z 29004KT 10SM SCT060 BKN075 18/09 A2999 RMK AO2 SLP161 T01780089=
200607300056 METAR KSEA 300056Z 23008KT 10SM SCT040 OVC070 19/08 A3001 RMK AO2 SLP167 T01890078=
200607292356 METAR KSEA 292356Z 18006KT 10SM SCT040 OVC065 19/07 A3002 RMK AO2 SLP172 T01890072 10206 20161 58003=
200607292256 METAR KSEA 292256Z 22006KT 10SM SCT040 OVC065 19/07 A3003 RMK AO2 SLP175 T01890072=
200607292156 METAR KSEA 292156Z 21008KT 10SM FEW040 BKN060 19/08 A3003 RMK AO2 SLP175 T01940078=
200607292056 METAR KSEA 292056Z 23010KT 10SM FEW035 BKN050 21/08 A3003 RMK AO2 SLP176 T02060083 53002=
200607291956 METAR KSEA 291956Z 24006KT 10SM SCT035 BKN045 19/09 A3003 RMK AO2 SLP173 T01890094=
200607291856 METAR KSEA 291856Z 23013KT 10SM SCT030 BKN035 18/09 A3003 RMK AO2 SLP174 T01780089=
200607291756 METAR KSEA 291756Z 23006KT 10SM FEW025 BKN033 16/09 A3003 RMK AO2 SLP174 T01560094 10156 20117 51004=
200607291725 SPECI KSEA 291725Z 22009KT 10SM SCT025 OVC031 15/09 A3003 RMK AO2 BINOVC OHD-SE=
200607291725 SPECI KSEA 291725Z 22009KT 10SM SCT025 OVC031 15/09 A3003 RMK AO2 BINOVC OHD-SE=
200607291656 METAR KSEA 291656Z 23009KT 10SM FEW020 OVC027 14/09 A3003 RMK AO2 SLP173 BINOVC SE T01390089=
200607291556 METAR KSEA 291556Z 22010KT 10SM SCT020 OVC025 13/09 A3003 RMK AO2 SLP173 BINOVC SE T01330089=
200607291456 METAR KSEA 291456Z 20009KT 10SM SCT020 BKN025 13/08 A3002 RMK AO2 SLP170 T01280083 51010=
200607291356 METAR KSEA 291356Z 20006KT 10SM SCT017 BKN021 12/08 A3001 RMK AO2 SLP167 T01220083=
200607291256 METAR KSEA 291256Z 18008KT 10SM BKN017 BKN038 12/08 A3000 RMK AO2 SLP164 T01170083=
200607291156 METAR KSEA 291156Z 19007KT 10SM BKN019 BKN037 OVC048 12/09 A2999 RMK AO2 SLP160 T01220089 10139 20122 53005=
200607291056 METAR KSEA 291056Z 18009KT 10SM BKN019 OVC046 12/08 A2998 RMK AO2 SLP157 T01220083=
200607291030 SPECI KSEA 291030Z 19009KT 10SM BKN019 OVC043 12/08 A2998=
200607291030 SPECI KSEA 291030Z 19009KT 10SM BKN019 OVC043 12/08 A2998 RMK AO2=
200607290956 METAR KSEA 290956Z 18008KT 10SM OVC041 12/08 A2997 RMK AO2 SLP155 T01220083=
200607290856 METAR KSEA 290856Z 19009KT 10SM BKN045 BKN130 12/08 A2997 RMK AO2 SLP154 T01220083 56001=
200607290756 METAR KSEA 290756Z 18007KT 10SM FEW130 12/08 A2997 RMK AO2 SLP155 T01220083 402110122=
200607290656 METAR KSEA 290656Z 19006KT 10SM FEW040 SCT130 13/09 A2997 RMK AO2 SLP155 T01330089=
200607290556 METAR KSEA 290556Z 21008KT 10SM FEW040 SCT140 SCT200 14/09 A2997 RMK AO2 SLP155 T01390094 10211 20139 58000=
200607290456 METAR KSEA 290456Z 22008KT 10SM FEW040 SCT140 BKN200 14/09 A2998 RMK AO2 SLP158 T01440089=
200607290356 METAR KSEA 290356Z 24009KT 10SM SCT040 BKN200 15/09 A2997 RMK AO2 SLP155 T01500094=
200607290256 METAR KSEA 290256Z 24011KT 10SM SCT035 SCT200 18/09 A2998 RMK AO2 SLP156 T01780094 56006=
200607290156 METAR KSEA 290156Z 25012KT 10SM FEW035 SCT200 19/09 A2998 RMK AO2 SLP157 T01940089=
200607290056 METAR KSEA 290056Z 24009KT 10SM FEW035 SCT200 21/09 A2999 RMK AO2 SLP159 T02060094=
200607282356 METAR KSEA 282356Z 25009KT 10SM SCT035 SCT200 21/10 A2999 RMK AO2 SLP162 T02060100 10211 20161 58014=
200607282256 METAR KSEA 282256Z 24009KT 210V270 10SM SCT035 21/10 A3001 RMK AO2 SLP169 T02060100=
200607282156 METAR KSEA 282156Z 25009KT 10SM SCT035 20/10 A3003 RMK AO2 SLP174 T02000100=
200607282056 METAR KSEA 282056Z 25012KT 10SM BKN034 19/09 A3004 RMK AO2 SLP176 T01940094 57002=
200607281956 METAR KSEA 281956Z 24013KT 10SM BKN034 18/09 A3004 RMK AO2 SLP176 T01830094=
200607281856 METAR KSEA 281856Z 22012KT 10SM SCT030 BKN032 17/09 A3004 RMK AO2 SLP178 T01720094=
200607281804 SPECI KSEA 281804Z 24009KT 10SM OVC030 16/09 A3004 RMK AO2=
200607281804 SPECI KSEA 281804Z 24009KT 10SM OVC030 16/09 A3004 RMK AO2=
200607281756 METAR KSEA 281756Z 24009KT 10SM BKN028 OVC032 16/09 A3004 RMK AO2 SLP178 OCNL BINOVC OHD T01610094 10161 20133 50001=
200607281656 METAR KSEA 281656Z 20009KT 10SM SCT022 BKN028 OVC032 15/09 A3005 RMK AO2 SLP179 T01500089=
200607281556 METAR KSEA 281556Z 21011KT 10SM OVC022 14/09 A3004 RMK AO2 SLP179 OCNL BINOVC S T01440089=
200607281456 METAR KSEA 281456Z 21010KT 10SM SCT015 BKN017 OVC019 13/09 A3004=
200607281356 METAR KSEA 281356Z 21009KT 10SM OVC015 13/11 A3003 RMK AO2 SLP175 T01330106=
200607281256 METAR KSEA 281256Z 22007KT 10SM OVC015 13/11 A3003 RMK AO2 SLP172 T01330106=
200607281156 METAR KSEA 281156Z 22008KT 10SM OVC015 13/11 A3002 RMK AO2 SLP169 T01330106 10156 20133 51005=
200607281056 METAR KSEA 281056Z 22008KT 10SM BKN015 OVC045 13/11 A3001 RMK AO2 SLP167 T01330106=
200607280956 METAR KSEA 280956Z 23007KT 10SM BKN017 OVC050 13/11 A3001 RMK AO2 SLP167 T01330106=
200607280941 SPECI KSEA 280941Z 22007KT 10SM BKN017 OVC050 14/11 A3001 RMK AO2=
200607280941 SPECI KSEA 280941Z 22007KT 10SM BKN017 OVC050 14/11 A3001 RMK AO2=
200607280856 METAR KSEA 280856Z 23008KT 10SM FEW045 SCT060 13/11 A3000 RMK AO2 SLP164 T01330111 53006=
200607280756 METAR KSEA 280756Z 23010KT 10SM FEW045 SCT150 14/11 A3000 RMK AO2 SLP162 T01390111 402720139=
200607280656 METAR KSEA 280656Z 24005KT 10SM FEW045 SCT150 BKN200 15/12 A2999 RMK AO2 SLP158 T01500117=
200607280556 METAR KSEA 280556Z 23010KT 10SM SCT047 SCT150 BKN200 16/12 A2998 RMK AO2 SLP157 T01560122 10272 20156 50009=
200607280456 METAR KSEA 280456Z 21011KT 10SM FEW050 SCT150 BKN200 17/12 A2999 RMK AO2 SLP158 T01670122=
200607280356 METAR KSEA 280356Z 22009KT 10SM FEW050 SCT150 SCT200 18/13 A2997 RMK AO2 SLP151 T01830133=
200607280256 METAR KSEA 280256Z 22007KT 10SM FEW035 SCT150 SCT200 21/14 A2995 RMK AO2 SLP148 T02060139 55000=
200607280156 METAR KSEA 280156Z 23008KT 10SM FEW035 SCT150 SCT200 24/15 A2994 RMK AO2 SLP144 T02390150=
200607280056 METAR KSEA 280056Z 25009KT 10SM FEW035 SCT150 SCT200 26/16 A2995 RMK AO2 SLP146 T02610156=
200607272356 METAR KSEA 272356Z 26008KT 10SM FEW035 SCT150 SCT200 27/16 A2995 RMK AO2 SLP147 60000 T02720161 10272 20211 58009=
200607272256 METAR KSEA 272256Z 21007KT 10SM FEW035 SCT200 26/15 A2997 RMK AO2 SLP150 T02610150=
200607272156 METAR KSEA 272156Z 23007KT 10SM FEW035 SCT200 26/15 A2997 RMK AO2 SLP153 T02610150=
200607272056 METAR KSEA 272056Z 25007KT 230V290 10SM FEW030 26/15 A2998 RMK AO2 SLP156 60000 T02560150 58006=
200607271956 METAR KSEA 271956Z 24008KT 10SM FEW030 24/14 A2999 RMK AO2 SLP160 T02390144=
200607271856 METAR KSEA 271856Z 24007KT 10SM FEW030 23/15 A3000 RMK AO2 SLP163 T02330150=
200607271756 METAR KSEA 271756Z 25007KT 10SM FEW025 21/14 A3000 RMK AO2 SLP164 T02110144 10217 20139 58002=
200607271656 METAR KSEA 271656Z COR 24004KT 10SM FEW020 19/14 A3000 RMK AO2 SLP164 T01940139=
200607271556 METAR KSEA 271556Z 28005KT 10SM FEW015 18/13 A3001 RMK AO2 SLP165 T01830133=
200607271456 METAR KSEA 271456Z 29004KT 10SM FEW012 16/13 A3001 RMK AO2 SLP166 T01560128 51009=
200607271356 METAR KSEA 271356Z 25005KT 10SM FEW060 SCT130 15/13 A3000=
200607271256 METAR KSEA 271256Z 28003KT 10SM FEW050 SCT160 14/13 A3000 RMK AO2 SLP162 T01390128=
200607271156 METAR KSEA 271156Z 30003KT 10SM SCT050 SCT160 16/13 A2998 RMK AO2 SLP156 T01610128 10211 20161 53003=
200607271056 METAR KSEA 271056Z 35007KT 10SM SCT050 BKN160 17/12 A2998 RMK AO2 SLP156 T01720122=
200607270956 METAR KSEA 270956Z 01007KT 10SM BKN060 BKN150 18/12 A2997 RMK AO2 SLP153 T01780117=
200607270856 METAR KSEA 270856Z 03009KT 10SM BKN060 BKN150 19/12 A2997 RMK AO2 SLP153 T01890117 53001=
200607270756 METAR KSEA 270756Z 03008KT 10SM FEW150 19/13 A2997 RMK AO2 SLP152 T01940128 402890144=
200607270656 METAR KSEA 270656Z 04006KT 10SM FEW150 21/13 A2996 RMK AO2 SLP150 T02060133=
200607270556 METAR KSEA 270556Z 02010KT 10SM CLR 21/14 A2997 RMK AO2 SLP152 T02110139 10289 20211 51005=
200607270456 METAR KSEA 270456Z 04012KT 10SM FEW150 22/14 A2997 RMK AO2 SLP152 T02220144=
200607270356 METAR KSEA 270356Z 01009KT 10SM FEW150 23/14 A2996 RMK AO2 SLP150 T02280139=
200607270256 METAR KSEA 270256Z VRB06KT 10SM CLR 26/14 A2995 RMK AO2 SLP146 T02610144 56009=
200607270156 METAR KSEA 270156Z 36009KT 10SM CLR 27/14 A2996 RMK AO2 SLP147 T02720144=
200607270056 METAR KSEA 270056Z 31005KT 10SM CLR 28/16 A2997 RMK AO2 SLP151 T02830161=
200607262356 METAR KSEA 262356Z 28007KT 10SM CLR 28/16 A2998 RMK AO2 SLP156 T02830161 10289 20217 58010=
200607262256 METAR KSEA 262256Z 28007KT 10SM CLR 28/16 A2999 RMK AO2 SLP159 T02780161=
200607262156 METAR KSEA 262156Z 28007KT 10SM CLR 27/16 A3000 RMK AO2 SLP163 T02720156=
200607262056 METAR KSEA 262056Z 28009KT 10SM CLR 26/16 A3001 RMK AO2 SLP166 T02610161 58012 $=
200607261956 METAR KSEA 261956Z 27007KT 10SM CLR 25/16 A3002 RMK AO2 SLP171 T02500156=
200607261856 METAR KSEA 261856Z 28006KT 10SM CLR 23/16 A3004 RMK AO2 SLP177 T02280156=
200607261756 METAR KSEA 261756Z 29004KT 10SM FEW025 22/15 A3005 RMK AO2 SLP179 T02170150 10217 20144 50002=
200607261656 METAR KSEA 261656Z COR 20005KT 10SM FEW025 19/14 A3006 RMK AO2 SLP182 P0000 T01940139=
200607261556 METAR KSEA 261556Z 24005KT 10SM FEW017 18/14 A3005 RMK AO2 SLP181 T01830144=
200607261456 METAR KSEA 261456Z 00000KT 10SM FEW009 18/14 A3004 RMK AO2 SLP177 T01830144 51015=
200607261356 METAR KSEA 261356Z 00000KT 10SM FEW005 17/14 A3003 RMK AO2 SLP173 T01670139=
200607261256 METAR KSEA 261256Z 00000KT 10SM FEW003 15/13 A3001 RMK AO2 SLP167 T01500133=
200607261156 METAR KSEA 261156Z 03004KT 10SM CLR 17/14 A2999 RMK AO2 SLP161 T01670139 10189 20150 51010=
200607261056 METAR KSEA 261056Z 00000KT 10SM CLR 16/13 A2999 RMK AO2 SLP159 T01560133=
200607260956 METAR KSEA 260956Z 36006KT 10SM CLR 17/14 A2998 RMK AO2 SLP156 T01720139=
200607260856 METAR KSEA 260856Z 03009KT 10SM CLR 18/14 A2996 RMK AO2 SLP151 T01830139 50004=
200607260756 METAR KSEA 260756Z 29004KT 10SM CLR 17/14 A2997 RMK AO2 SLP152 T01670139 402560144=
200607260656 METAR KSEA 260656Z 30003KT 10SM CLR 17/14 A2996 RMK AO2 SLP149 T01670139=
200607260556 METAR KSEA 260556Z 00000KT 10SM CLR 18/14 A2995 RMK AO2 SLP147 T01780139 10256 20178 51006=
200607260456 METAR KSEA 260456Z 36004KT 10SM CLR 21/14 A2995 RMK AO2 SLP146 T02060144=
200607260356 METAR KSEA 260356Z 29004KT 10SM FEW120 21/14 A2994 RMK AO2 SLP144 T02060144=
200607260256 METAR KSEA 260256Z 28005KT 10SM FEW120 23/14 A2993 RMK AO2 SLP140 T02280144 56010=
200607260156 METAR KSEA 260156Z 30005KT 10SM FEW120 SCT200 25/14 A2994 RMK AO2 SLP143 T02500144=
200607260056 METAR KSEA 260056Z VRB04KT 10SM FEW120 SCT200 25/14 A2995 RMK AO2 SLP148 T02500139=
200607252356 METAR KSEA 252356Z 29005KT 10SM FEW120 SCT200 24/14 A2996 RMK AO2 SLP151 T02440139 10250 20178 56015=
200607252256 METAR KSEA 252256Z VRB05KT 10SM FEW120 SCT200 23/14 A2998 RMK AO2 SLP155 T02330144=
200607252156 METAR KSEA 252156Z 27008KT 10SM FEW090 SCT200 23/15 A2999 RMK AO2 SLP160 T02280150=
200607252056 METAR KSEA 252056Z 24009KT 10SM FEW020 SCT200 22/14 A3001 RMK AO2 SLP166 T02170144 56003=
200607252021 SPECI KSEA 252021Z 30007KT 10SM SCT018 SCT250 21/14 A3001 RMK AO2=
200607252021 SPECI KSEA 252021Z 30007KT 10SM SCT018 SCT250 21/14 A3001 RMK AO2=
200607251956 METAR KSEA 251956Z 25009KT 210V280 10SM SCT016 BKN020 21/14 A3001 RMK AO2 SLP168 T02060139=
200607251910 SPECI KSEA 251910Z 23007KT 10SM SCT014 BKN016 OVC020 20/14 A3001 RMK AO2 BINOVC OHD=
200607251910 SPECI KSEA 251910Z 23007KT 10SM SCT014 BKN016 OVC020 20/14 A3001 RMK AO2 BINOVC OHD=
200607251856 METAR KSEA 251856Z 22009KT 10SM BKN014 OVC017 19/14 A3001 RMK AO2 SLP167 BINOVC OHD T01890139=
200607251756 METAR KSEA 251756Z 26007KT 10SM BKN012 OVC015 18/13 A3002 RMK AO2 SLP170 T01780133 10178 20144 51010=
200607251656 METAR KSEA 251656Z 23006KT 10SM FEW007 BKN010 OVC012 17/13 A3001 RMK AO2 SLP164 T01670133=
200607251556 METAR KSEA 251556Z 24006KT 10SM SCT007 BKN010 OVC012 16/13 A3001 RMK AO2 SLP164 T01610133=
200607251456 METAR KSEA 251456Z 22006KT 10SM BKN005 OVC008 16/13 A2999 RMK AO2 SLP159 T01560133 53004=
200607251356 METAR KSEA 251356Z 23009KT 10SM BKN005 15/13 A2999 RMK AO2 SLP158 T01500133=
200607251156 METAR KSEA 251156Z 20006KT 10SM FEW012 15/13 A2997 RMK AO2 SLP150 T01500128 10217 20150 51013=
200607251056 METAR KSEA 251056Z 23003KT 10SM CLR 16/13 A2996 RMK AO2 SLP148 T01560133=
200607250956 METAR KSEA 250956Z 31004KT 10SM CLR 16/13 A2994 RMK AO2 SLP143 T01610133=
200607250856 METAR KSEA 250856Z 28006KT 10SM CLR 18/13 A2993 RMK AO2 SLP137 T01780128 51014=
200607250756 METAR KSEA 250756Z 30004KT 10SM CLR 18/13 A2992 RMK AO2 SLP135 T01830133 403330183=
200607250656 METAR KSEA 250656Z 27005KT 10SM CLR 19/13 A2990 RMK AO2 SLP129 T01940128=
200607250556 METAR KSEA 250556Z 30005KT 10SM CLR 22/13 A2988 RMK AO2 SLP122 T02170128 10333 20211 53011=
200607250456 METAR KSEA 250456Z 35007KT 10SM FEW050 26/12 A2986 RMK AO2 SLP115 T02610122=
200607250356 METAR KSEA 250356Z 35004KT 10SM FEW050 28/13 A2985 RMK AO2 SLP111 T02830128=
200607250256 METAR KSEA 250256Z 36007KT 10SM FEW050 31/12 A2985 RMK AO2 SLP110 T03060117 56012=
200607250156 METAR KSEA 250156Z 29006KT 10SM FEW050 31/13 A2986 RMK AO2 SLP113 T03110128=
200607250056 METAR KSEA 250056Z 03008KT 10SM FEW070 33/09 A2987 RMK AO2 SLP118 T03330094=
200607242356 METAR KSEA 242356Z 03008G14KT 10SM FEW070 33/10 A2989 RMK AO2 SLP123 T03330100 10333 20289 56014=
200607242256 METAR KSEA 242256Z VRB04KT 10SM FEW070 33/12 A2990 RMK AO2 SLP128 T03280122=
200607242156 METAR KSEA 242156Z VRB04KT 10SM FEW070 33/11 A2991 RMK AO2 SLP132 T03280106=
200607242056 METAR KSEA 242056Z 05010KT 10SM CLR 32/11 A2993 RMK AO2 SLP137 T03170106 58003=
200607241956 METAR KSEA 241956Z 03009KT 10SM CLR 31/11 A2993 RMK AO2 SLP138 T03110106=
200607241856 METAR KSEA 241856Z 36008KT 10SM CLR 29/10 A2994 RMK AO2 SLP140 T02940100=
200607241756 METAR KSEA 241756Z 05011G15KT 10SM CLR 29/11 A2994 RMK AO2 SLP140 T02940106 10294 20211 53001=
200607241656 METAR KSEA 241656Z 01011G16KT 10SM CLR 27/12 A2994 RMK AO2 SLP140 T02720122=
200607241556 METAR KSEA 241556Z 03010KT 10SM CLR 27/12 A2993 RMK AO2 SLP139 T02670122=
200607241456 METAR KSEA 241456Z 03010KT 10SM CLR 26/13 A2993 RMK AO2 SLP139 T02560133 51008=
200607241356 METAR KSEA 241356Z 00000KT 10SM CLR 22/14 A2993 RMK AO2 SLP138 T02220144=
200607241256 METAR KSEA 241256Z 34005KT 10SM CLR 22/14 A2993 RMK AO2 SLP136 T02220144=
200607241156 METAR KSEA 241156Z 02004KT 10SM CLR 23/13 A2991 RMK AO2 SLP131 T02330128 10283 20222 51003=
200607241056 METAR KSEA 241056Z 03006KT 10SM CLR 24/13 A2991 RMK AO2 SLP129 T02440128=
200607240956 METAR KSEA 240956Z 34003KT 10SM CLR 22/14 A2991 RMK AO2 SLP132 T02220144=
200607240856 METAR KSEA 240856Z 00000KT 10SM CLR 23/14 A2990 RMK AO2 SLP128 T02280139 53004=
200607240756 METAR KSEA 240756Z 03006KT 10SM CLR 27/13 A2990 RMK AO2 SLP126 T02670128 403500194=
200607240656 METAR KSEA 240656Z 03008KT 10SM CLR 27/13 A2989 RMK AO2 SLP124 T02720128=
200607240556 METAR KSEA 240556Z 03009KT 10SM CLR 28/13 A2989 RMK AO2 SLP124 T02780128 10333 20278 51007=
200607240456 METAR KSEA 240456Z 05007KT 10SM CLR 29/13 A2989 RMK AO2 SLP124 T02890128=
200607240356 METAR KSEA 240356Z 03010KT 10SM CLR 30/13 A2988 RMK AO2 SLP119 T03000128=
200607240256 METAR KSEA 240256Z 02011KT 10SM CLR 32/14 A2987 RMK AO2 SLP117 T03170139 55007=
200607240156 METAR KSEA 240156Z 01009KT 10SM FEW080 33/14 A2987 RMK AO2 SLP116 T03280144=
200607240056 METAR KSEA 240056Z 01009KT 10SM FEW070 33/14 A2988 RMK AO2 SLP120 T03330144=
200607232356 METAR KSEA 232356Z 01010KT 10SM CLR 33/15 A2989 RMK AO2 SLP124 T03330150 10350 20289 58012=
200607232256 METAR KSEA 232256Z 31010KT 10SM CLR 34/16 A2991 RMK AO2 SLP129 T03440156=
200607232156 METAR KSEA 232156Z 35008KT 10SM CLR 34/16 A2992 RMK AO2 SLP133 T03390161=
200607232056 METAR KSEA 232056Z 30012KT 10SM CLR 32/16 A2993 RMK AO2 SLP136 T03220161 58007=
200607231956 METAR KSEA 231956Z 30011KT 10SM CLR 32/16 A2994 RMK AO2 SLP139 T03170161=
200607231856 METAR KSEA 231856Z 35007KT 330V030 10SM CLR 30/16 A2995 RMK AO2 SLP143 T03000156=
200607231756 METAR KSEA 231756Z 34006KT 10SM CLR 29/16 A2995 RMK AO2 SLP144 T02890156 10294 20194 58004=
200607231656 METAR KSEA 231656Z 34008KT 10SM CLR 28/16 A2995 RMK AO2 SLP145 T02780156=
200607231556 METAR KSEA 231556Z 02010KT 10SM CLR 26/15 A2996 RMK AO2 SLP147 T02610150=
200607231456 METAR KSEA 231456Z 04011KT 10SM CLR 24/16 A2996 RMK AO2 SLP147 T02440156 51003=
200607231356 METAR KSEA 231356Z 01006KT 10SM CLR 23/15 A2996 RMK AO2 SLP147 T02280150=
200607231256 METAR KSEA 231256Z 36003KT 10SM CLR 20/16 A2996 RMK AO2 SLP146 T02000156=
200607231156 METAR KSEA 231156Z 00000KT 10SM CLR 21/16 A2995 RMK AO2 SLP144 T02110156 10261 20211 51001=
200607231056 METAR KSEA 231056Z 00000KT 10SM CLR 22/16 A2995 RMK AO2 SLP143 T02170156=
200607230956 METAR KSEA 230956Z 34004KT 10SM CLR 23/16 A2995 RMK AO2 SLP145 T02280156=
200607230856 METAR KSEA 230856Z 04009KT 10SM CLR 26/14 A2995 RMK AO2 SLP143 T02610139 58001=
200607230756 METAR KSEA 230756Z 03008KT 10SM CLR 26/15 A2995 RMK AO2 SLP145 T02610150 403560200=
200607230656 METAR KSEA 230656Z 03007KT 10SM CLR 26/16 A2995 RMK AO2 SLP145 T02560156=
200607230556 METAR KSEA 230556Z 01005KT 10SM CLR 26/16 A2995 RMK AO2 SLP144 T02610161 10356 20256 53010=
200607230456 METAR KSEA 230456Z 01006KT 10SM CLR 28/16 A2994 RMK AO2 SLP142 T02780156=
200607230356 METAR KSEA 230356Z 35008KT 10SM FEW250 29/15 A2993 RMK AO2 SLP136 T02890150=
200607230256 METAR KSEA 230256Z 34007KT 10SM BKN200 31/15 A2992 RMK AO2 SLP134 T03110150 56009=
200607230156 METAR KSEA 230156Z 31007KT 10SM BKN250 32/16 A2992 RMK AO2 SLP134 T03170161=
200607230056 METAR KSEA 230056Z 35006KT 10SM SCT180 BKN250 35/14 A2993 RMK AO2 SLP137 T03500144=
200607222356 METAR KSEA 222356Z 32005KT 10SM FEW060 SCT180 BKN250 34/16 A2995 RMK AO2 SLP143 T03440156 10350 20267 58020=
200607222256 METAR KSEA 222256Z VRB05KT 10SM FEW060 SCT180 BKN250 34/15 A2997 RMK AO2 SLP151 T03390150=
200607222156 METAR KSEA 222156Z 34007KT 310V020 10SM FEW060 SCT180 BKN250 33/17 A2999 RMK AO2 SLP157 T03280172=
200607222056 METAR KSEA 222056Z 31007KT 10SM BKN180 BKN250 32/16 A3001 RMK AO2 SLP163 T03170161 58010=
200607221956 METAR KSEA 221956Z 35008KT 10SM BKN180 BKN250 31/16 A3003 RMK AO2 SLP170 T03060156=
200607221856 METAR KSEA 221856Z VRB04KT 10SM BKN180 BKN250 28/17 A3004 RMK AO2 SLP174 T02830167=
200607221756 METAR KSEA 221756Z 33003KT 10SM FEW140 BKN180 BKN250 27/16 A3004 RMK AO2 SLP174 T02720161 10272 20200 58009=
200607221656 METAR KSEA 221656Z 32003KT 10SM FEW130 BKN160 26/16 A3006 RMK AO2 SLP182 T02610161=
200607221556 METAR KSEA 221556Z 05007KT 10SM FEW130 BKN160 24/16 A3006 RMK AO2 SLP181 T02440161=
200607221456 METAR KSEA 221456Z 35005KT 10SM FEW130 BKN160 OVC250 21/15 A3006 RMK AO2 SLP183 T02060150 51015=
200607221356 METAR KSEA 221356Z 09010KT 10SM SCT130 OVC150 24/16 A3004 RMK AO2 SLP174 T02390156=
200607221256 METAR KSEA 221256Z 31006KT 10SM OVC130 21/16 A3005 RMK AO2 SLP180 T02110161=
200607221156 METAR KSEA 221156Z 35006KT 10SM BKN140 22/16 A3002 RMK AO2 SLP167 T02220156 10283 20217 58001=
200607221056 METAR KSEA 221056Z 00000KT 10SM BKN140 24/16 A3003 RMK AO2 SLP170 T02390161=
200607220956 METAR KSEA 220956Z 31004KT 10SM OVC140 23/16 A3003 RMK AO2 SLP170 T02330161=
200607220856 METAR KSEA 220856Z 02004KT 10SM SCT140 OVC200 25/15 A3002 RMK AO2 SLP168 T02500150 50003=
200607220756 METAR KSEA 220756Z 01003KT 10SM FEW140 27/16 A3002 RMK AO2 SLP169 T02670156 403610189=
200607220656 METAR KSEA 220656Z 01007KT 10SM SCT140 27/14 A3001 RMK AO2 SLP166 T02720144=
200607220556 METAR KSEA 220556Z 02010KT 10SM SCT150 BKN200 28/14 A3001 RMK AO2 SLP165 T02830139 10361 20267 51004=
200607220456 METAR KSEA 220456Z 34003KT 10SM SCT150 BKN200 27/15 A3001 RMK AO2 SLP165 T02720150=
200607220356 METAR KSEA 220356Z 36005KT 10SM SCT150 BKN200 29/14 A3000 RMK AO2 SLP163 T02890144=
200607220256 METAR KSEA 220256Z 36007KT 10SM BKN200 32/14 A3000 RMK AO2 SLP161 T03170144 56006=
200607220156 METAR KSEA 220156Z 01005KT 10SM BKN200 33/13 A3000 RMK AO2 SLP161 T03330133=
200607220056 METAR KSEA 220056Z 36006KT 10SM SCT200 35/13 A3001 RMK AO2 SLP163 T03500128=
200607212356 METAR KSEA 212356Z 32005KT 10SM FEW200 36/15 A3002 RMK AO2 SLP166 T03560150 10361 20283 56017=
200607212256 METAR KSEA 212256Z 34008KT 10SM FEW200 36/13 A3003 RMK AO2 SLP171 T03560133=
200607212156 METAR KSEA 212156Z 01008KT 10SM FEW200 34/14 A3005 RMK AO2 SLP177 T03440144=
200607212056 METAR KSEA 212056Z 31006KT 10SM FEW200 32/16 A3007 RMK AO2 SLP184 T03220156 57012=
200607211956 METAR KSEA 211956Z 35008KT 10SM CLR 31/14 A3008 RMK AO2 SLP188 T03110139=
200607211856 METAR KSEA 211856Z 35006KT 10SM CLR 29/15 A3009 RMK AO2 SLP192 T02890150=
200607211756 METAR KSEA 211756Z 36004KT 10SM CLR 29/14 A3010 RMK AO2 SLP196 T02890139 10289 20189 58004=
200607211656 METAR KSEA 211656Z 02006KT 10SM CLR 26/13 A3011 RMK AO2 SLP198 T02610128=
200607211556 METAR KSEA 211556Z 02008KT 10SM CLR 24/13 A3012 RMK AO2 SLP202 T02390133=
200607211456 METAR KSEA 211456Z 03009KT 10SM CLR 22/13 A3012 RMK AO2 SLP201 T02220133 51004=
200607211356 METAR KSEA 211356Z 03007KT 10SM CLR 22/13 A3011 RMK AO2 SLP200 T02170128=
200607211256 METAR KSEA 211256Z 05007KT 10SM CLR 19/13 A3011 RMK AO2 SLP199 T01940128=
200607211156 METAR KSEA 211156Z 03007KT 10SM CLR 19/12 A3010 RMK AO2 SLP197 T01890117 10239 20189 53002=
200607211056 METAR KSEA 211056Z 05006KT 10SM CLR 19/12 A3010 RMK AO2 SLP195 T01940117=
200607210956 METAR KSEA 210956Z 03007KT 10SM CLR 21/11 A3009 RMK AO2 SLP194 T02060111=
200607210856 METAR KSEA 210856Z 03007KT 10SM CLR 21/11 A3010 RMK AO2 SLP195 T02110106 58005=
200607210756 METAR KSEA 210756Z 02008KT 10SM CLR 22/11 A3010 RMK AO2 SLP197 T02170106 402890150=
200607210656 METAR KSEA 210656Z 03009KT 10SM CLR 23/10 A3011 RMK AO2 SLP199 T02280100=
200607210556 METAR KSEA 210556Z 03008KT 10SM CLR 24/09 A3011 RMK AO2 SLP199 T02390094 10289 20233 52003=
200607210456 METAR KSEA 210456Z 02008KT 10SM CLR 24/09 A3011 RMK AO2 SLP200 T02390094=
200607210356 METAR KSEA 210356Z 01009KT 10SM FEW250 24/11 A3010 RMK AO2 SLP196 T02440106=
200607210256 METAR KSEA 210256Z 36009KT 10SM CLR 26/11 A3010 RMK AO2 SLP196 T02610106 56009=
200607210156 METAR KSEA 210156Z 01008KT 10SM FEW250 28/10 A3010 RMK AO2 SLP197 T02780100=
200607210056 METAR KSEA 210056Z 35010KT 10SM FEW250 28/11 A3011 RMK AO2 SLP201 T02780106=
200607202356 METAR KSEA 202356Z 35009KT 10SM FEW250 29/12 A3013 RMK AO2 SLP205 T02890117 10289 20228 58016=
200607202256 METAR KSEA 202256Z 34009KT 10SM FEW250 28/12 A3015 RMK AO2 SLP212 T02780122=
200607202156 METAR KSEA 202156Z 36008KT 10SM FEW250 28/12 A3016 RMK AO2 SLP217 T02780117=
200607202056 METAR KSEA 202056Z 36010KT 10SM FEW250 26/11 A3017 RMK AO2 SLP221 T02610111 58006=
200607201956 METAR KSEA 201956Z 35010KT 10SM FEW250 25/12 A3018 RMK AO2 SLP224 T02500117=
200607201856 METAR KSEA 201856Z 33007KT 290V040 10SM CLR 24/12 A3019 RMK AO2 SLP227 T02440122=
200607201756 METAR KSEA 201756Z 02011KT 10SM CLR 23/11 A3019 RMK AO2 SLP229 T02330106 10233 20150 50001=
200607201656 METAR KSEA 201656Z 36008KT 10SM CLR 21/11 A3020 RMK AO2 SLP231 T02110106=
200607201556 METAR KSEA 201556Z 01009KT 10SM CLR 19/10 A3020 RMK AO2 SLP232 T01940100=
200607201456 METAR KSEA 201456Z 03009KT 10SM CLR 18/09 A3019 RMK AO2 SLP229 T01830094 51011=
200607201356 METAR KSEA 201356Z 01008KT 10SM CLR 16/09 A3019 RMK AO2 SLP227 T01610089=
200607201256 METAR KSEA 201256Z 04009KT 10SM CLR 15/08 A3017=
200607201156 METAR KSEA 201156Z 02007KT 10SM CLR 15/08 A3016 RMK AO2 SLP217 T01500078 10194 20150 51008=
200607201056 METAR KSEA 201056Z 02007KT 10SM CLR 16/08 A3016 RMK AO2 SLP216 T01610078=
200607200956 METAR KSEA 200956Z 01006KT 10SM CLR 16/09 A3015 RMK AO2 SLP213 T01560089=
200607200856 METAR KSEA 200856Z 01005KT 10SM CLR 17/08 A3014 RMK AO2 SLP209 T01670083 53004=
200607200756 METAR KSEA 200756Z 01006KT 10SM CLR 17/08 A3013 RMK AO2 SLP206 T01720083 402500122=
200607200656 METAR KSEA 200656Z 03006KT 10SM CLR 18/09 A3012 RMK AO2 SLP205 T01830089=
200607200556 METAR KSEA 200556Z 01007KT 10SM CLR 19/08 A3012 RMK AO2 SLP205 T01890078 10250 20183 53010=
200607200456 METAR KSEA 200456Z 36006KT 10SM FEW140 SCT200 19/08 A3012 RMK AO2 SLP202 T01940083=
200607200356 METAR KSEA 200356Z 36006KT 10SM FEW050 SCT200 21/07 A3010 RMK AO2 SLP196 T02060072=
200607200256 METAR KSEA 200256Z 36007KT 10SM FEW050 SCT200 23/07 A3009 RMK AO2 SLP195 T02280067 53001=
200607200156 METAR KSEA 200156Z 34006KT 10SM FEW050 SCT200 24/07 A3008 RMK AO2 SLP191 T02390067=
200607200056 METAR KSEA 200056Z 34007KT 10SM FEW050 SCT150 SCT200 24/10 A3009 RMK AO2 SLP192 T02440100=
200607192356 METAR KSEA 192356Z 28007KT 10SM FEW050 SCT150 BKN200 25/11 A3009 RMK AO2 SLP193 T02500106 10250 20200 56004=
200607192256 METAR KSEA 192256Z 28008KT 10SM FEW050 BKN150 BKN200 23/10 A3009 RMK AO2 SLP195 T02280100=
200607192156 METAR KSEA 192156Z 29007KT 10SM FEW130 BKN150 OVC200 23/10 A3009 RMK AO2 SLP194 T02280100=
200607192056 METAR KSEA 192056Z 30007KT 10SM FEW130 SCT150 BKN200 23/11 A3010 RMK AO2 SLP197 T02280106 56004=
200607191956 METAR KSEA 191956Z 32008KT 10SM FEW130 BKN200 22/12 A3010 RMK AO2 SLP198 T02170117=
200607191856 METAR KSEA 191856Z 00000KT 10SM FEW130 SCT150 SCT200 22/11 A3010 RMK AO2 SLP196 T02220111=
200607191756 METAR KSEA 191756Z 26005KT 10SM FEW150 SCT200 20/12 A3011 RMK AO2 SLP201 T02000117 10206 20122 55003=
200607191656 METAR KSEA 191656Z 29007KT 10SM FEW150 SCT250 18/12 A3011 RMK AO2 SLP201 T01830117=
200607191556 METAR KSEA 191556Z 00000KT 10SM FEW150 BKN250 18/11 A3011 RMK AO2 SLP202 T01780106=
200607191456 METAR KSEA 191456Z 30003KT 10SM BKN250 16/11 A3012 RMK AO2 SLP204 T01560106 51006=
200607191356 METAR KSEA 191356Z 16003KT 10SM SCT250 14/09 A3012 RMK AO2 SLP203 T01390094=
200607191256 METAR KSEA 191256Z 00000KT 10SM FEW200 13/09 A3012 RMK AO2 SLP203 T01280094=
200607191156 METAR KSEA 191156Z 10004KT 10SM CLR 13/11 A3010 RMK AO2 SLP198 T01330106 10172 20133 58000=
200607191056 METAR KSEA 191056Z 06004KT 10SM CLR 14/10 A3011 RMK AO2 SLP199 T01440100=
200607190956 METAR KSEA 190956Z 04006KT 10SM CLR 15/10 A3011 RMK AO2 SLP200 T01500100=
200607190856 METAR KSEA 190856Z 02005KT 10SM CLR 16/09 A3011 RMK AO2 SLP199 T01560094 56005=
200607190756 METAR KSEA 190756Z 04010KT 10SM CLR 16/09 A3011 RMK AO2 SLP200 T01610089 402390128=
200607190656 METAR KSEA 190656Z 02008KT 10SM CLR 17/09 A3012 RMK AO2 SLP203 T01720089=
200607190556 METAR KSEA 190556Z 01007KT 10SM CLR 17/08 A3012 RMK AO2 SLP205 T01720078 10239 20172 56003=
200607190456 METAR KSEA 190456Z 36006KT 10SM FEW060 SCT200 18/07 A3013 RMK AO2 SLP206 T01830072=
200607190356 METAR KSEA 190356Z 34007KT 10SM FEW060 SCT200 19/06 A3012 RMK AO2 SLP204 T01940061=
200607190256 METAR KSEA 190256Z 01009KT 10SM FEW045 SCT200 21/06 A3013 RMK AO2 SLP207 T02110056 56008=
200607190156 METAR KSEA 190156Z 32007KT 10SM FEW045 SCT200 22/06 A3013 RMK AO2 SLP208 T02220061=
200607190056 METAR KSEA 190056Z 36010KT 10SM FEW045 BKN200 23/06 A3014 RMK AO2 SLP211 T02280061=
200607182356 METAR KSEA 182356Z 31007KT 10SM SCT045 BKN200 23/09 A3015 RMK AO2 SLP215 T02280089 10233 20172 56016=
200607182256 METAR KSEA 182256Z 29010KT 10SM SCT045 BKN200 22/09 A3017 RMK AO2 SLP219 T02220094=
200607182156 METAR KSEA 182156Z 28011KT 10SM FEW045 BKN200 23/11 A3018 RMK AO2 SLP225 T02280106=
200607182056 METAR KSEA 182056Z 28009KT 10SM SCT040 BKN200 22/11 A3020 RMK AO2 SLP232 T02170111 57009=
200607181956 METAR KSEA 181956Z 25007KT 10SM SCT036 BKN250 21/11 A3021 RMK AO2 SLP234 T02060111=
200607181856 METAR KSEA 181856Z 25005KT 10SM SCT030 SCT250 18/11 A3022 RMK AO2 SLP240 T01830111=
200607181756 METAR KSEA 181756Z 01005KT 10SM SCT030 SCT250 17/09 A3023 RMK AO2 SLP242 T01720094 10178 20128 58001=
200607181656 METAR KSEA 181656Z VRB04KT 10SM FEW025 SCT250 17/09 A3024 RMK AO2 SLP244 T01670094=
200607181556 METAR KSEA 181556Z 04006KT 10SM FEW019 SCT040 17/09 A3024 RMK AO2 SLP243 T01670094=
200607181456 METAR KSEA 181456Z 05007KT 10SM FEW025 SCT040 15/09 A3023 RMK AO2 SLP243 T01500089 51003=
200607181356 METAR KSEA 181356Z 03006KT 10SM BKN040 14/08 A3023 RMK AO2 SLP243 T01390083=
200607181256 METAR KSEA 181256Z 04006KT 10SM BKN040 BKN060 13/08 A3023 RMK AO2 SLP243 T01330083=
200607181156 METAR KSEA 181156Z 06008KT 10SM SCT040 BKN060 13/08 A3022 RMK AO2 SLP240 T01280083 10161 20128 53000=
200607181056 METAR KSEA 181056Z 06005KT 10SM FEW040 SCT055 13/08 A3022 RMK AO2 SLP240 T01280083=
200607180956 METAR KSEA 180956Z 05008KT 10SM FEW035 SCT055 13/08 A3022 RMK AO2 SLP239 T01330083=
200607180856 METAR KSEA 180856Z 05011KT 10SM FEW035 SCT055 14/08 A3022 RMK AO2 SLP240 T01390083 57001=
200607180756 METAR KSEA 180756Z 03012KT 10SM FEW035 BKN047 BKN055 14/09 A3023 RMK AO2 SLP241 T01440089 402060117=
200607180656 METAR KSEA 180656Z 03010KT 10SM BKN048 BKN100 16/08 A3022 RMK AO2 SLP240 T01560083=
200607180556 METAR KSEA 180556Z 04014KT 10SM BKN048 OVC100 16/08 A3023 RMK AO2 SLP241 T01610083 10206 20161 53002=
200607180456 METAR KSEA 180456Z 02010KT 10SM BKN048 BKN100 17/09 A3022 RMK AO2 SLP240 T01720089=
200607180356 METAR KSEA 180356Z 03009KT 10SM BKN048 BKN100 18/08 A3022 RMK AO2 SLP239 T01830083=
200607180256 METAR KSEA 180256Z 36005KT 10SM FEW040 BKN055 19/09 A3022 RMK AO2 SLP239 T01890094 57008=
200607180156 METAR KSEA 180156Z 34005KT 10SM FEW040 SCT065 19/09 A3023 RMK AO2 SLP241 T01940094=
200607180056 METAR KSEA 180056Z 32007KT 10SM FEW035 20/09 A3024 RMK AO2 SLP246 T02000094=
200607172356 METAR KSEA 172356Z 33008KT 10SM FEW035 19/09 A3025 RMK AO2 SLP247 T01940094 10200 20156 58013=
200607172256 METAR KSEA 172256Z 30008KT 10SM FEW034 19/10 A3026 RMK AO2 SLP254 T01940100=
200607172156 METAR KSEA 172156Z 34007KT 310V020 10SM FEW028 SCT036 19/11 A3028 RMK AO2 SLP258 T01890106=
200607172056 METAR KSEA 172056Z VRB06KT 10SM FEW028 SCT038 18/12 A3028 RMK AO2 SLP260 T01830117 56006=
200607171956 METAR KSEA 171956Z 27008KT 210V310 10SM FEW026 BKN034 18/10 A3029 RMK AO2 SLP261 T01780100=
200607171856 METAR KSEA 171856Z VRB05KT 10SM FEW025 BKN030 17/09 A3030 RMK AO2 SLP265 T01720089=
200607171836 SPECI KSEA 171836Z 30006KT 10SM FEW023 BKN030 16/09 A3030 RMK AO2=
200607171836 SPECI KSEA 171836Z 30006KT 10SM FEW023 BKN030 16/09 A3030 RMK AO2=
200607171756 METAR KSEA 171756Z 27007KT 10SM SCT021 OVC028 16/10 A3030 RMK AO2 SLP267 BINOVC OHD-E T01560100 10156 20117 53004=
200607171656 METAR KSEA 171656Z VRB04KT 10SM FEW015 BKN020 OVC024 14/09 A3029 RMK AO2 SLP264 BINOVC E T01390089=
200607171630 SPECI KSEA 171630Z 22006KT 10SM SCT014 BKN016 OVC024 13/09 A3029 RMK AO2=
200607171630 SPECI KSEA 171630Z 22006KT 10SM SCT014 BKN016 OVC024 13/09 A3029 RMK AO2=
200607171556 METAR KSEA 171556Z 22004KT 10SM BKN014 OVC016 13/09 A3029 RMK AO2 SLP264 BINOVC NW T01330094=
200607171456 METAR KSEA 171456Z VRB04KT 10SM OVC014 12/09 A3029 RMK AO2 SLP261 T01220094 51013=
200607171356 METAR KSEA 171356Z 16005KT 10SM OVC012 12/09 A3028 RMK AO2 SLP257 T01220094=
200607171316 SPECI KSEA 171316Z 19005KT 10SM BKN012 BKN043 12/09 A3027 RMK AO2=
200607171316 SPECI KSEA 171316Z 19005KT 10SM BKN012 BKN043 12/09 A3027 RMK AO2=
200607171256 METAR KSEA 171256Z 19004KT 10SM BKN015 BKN021 BKN043 12/10 A3027 RMK AO2 SLP253 T01220100=
200607171240 SPECI KSEA 171240Z 23003KT 10SM FEW015 BKN021 OVC043 12/10 A3026 RMK AO2=
200607171240 SPECI KSEA 171240Z 23003KT 10SM FEW015 BKN021 OVC043 12/10 A3026 RMK AO2=
200607171156 METAR KSEA 171156Z 20004KT 10SM SCT021 12/09 A3025 RMK AO2 SLP249 T01170094 10167 20117 51009=
200607171056 METAR KSEA 171056Z 25003KT 10SM CLR 12/10 A3025 RMK AO2 SLP247 T01220100=
200607170956 METAR KSEA 170956Z 26004KT 10SM CLR 13/10 A3024 RMK AO2 SLP244 T01330100=
200607170856 METAR KSEA 170856Z 28004KT 10SM CLR 14/11 A3022 RMK AO2 SLP239 T01390106 51008=
200607170756 METAR KSEA 170756Z 27004KT 10SM CLR 14/11 A3022 RMK AO2 SLP237 T01440106 402670128=
200607170656 METAR KSEA 170656Z 29004KT 10SM CLR 15/11 A3021 RMK AO2 SLP235 T01500111=
200607170556 METAR KSEA 170556Z 25004KT 10SM CLR 17/10 A3020 RMK AO2 SLP231 T01670100 10267 20167 51015=
200607170456 METAR KSEA 170456Z 35006KT 10SM CLR 19/09 A3019 RMK AO2 SLP228 T01890089=
200607170356 METAR KSEA 170356Z 33006KT 10SM FEW250 21/08 A3017 RMK AO2 SLP219 T02110078=
200607170256 METAR KSEA 170256Z 36006KT 10SM FEW250 23/07 A3016 RMK AO2 SLP216 T02330067 56004=
200607170156 METAR KSEA 170156Z 29007KT 10SM SCT250 26/08 A3016 RMK AO2 SLP216 T02560078=
200607170056 METAR KSEA 170056Z 29005KT 10SM FEW250 26/07 A3016 RMK AO2 SLP218 T02610072=
200607162356 METAR KSEA 162356Z 29008KT 10SM FEW250 27/07 A3017 RMK AO2 SLP220 T02670067 10267 20206 56007=
200607162256 METAR KSEA 162256Z 31006KT 10SM CLR 26/06 A3017 RMK AO2 SLP222 T02560061=
200607162156 METAR KSEA 162156Z 31008KT 10SM FEW250 26/08 A3018 RMK AO2 SLP225 T02560078=
200607162056 METAR KSEA 162056Z 29010KT 10SM FEW250 25/11 A3019 RMK AO2 SLP228 T02500111 58009=
200607161956 METAR KSEA 161956Z 31009KT 10SM CLR 24/09 A3020 RMK AO2 SLP233 T02440094=
200607161856 METAR KSEA 161856Z 30009KT 10SM CLR 22/10 A3021 RMK AO2 SLP236 T02220100=
200607161756 METAR KSEA 161756Z 30006KT 10SM CLR 21/10 A3022 RMK AO2 SLP236 T02110100 10211 20128 58005=
200607161656 METAR KSEA 161656Z 00000KT 10SM CLR 19/09 A3023 RMK AO2 SLP240 T01890094=
200607161556 METAR KSEA 161556Z 02006KT 10SM CLR 17/08 A3023 RMK AO2 SLP243 T01670083=
200607161456 METAR KSEA 161456Z 01007KT 10SM CLR 16/08 A3023 RMK AO2 SLP241 T01560078 51008=
200607161356 METAR KSEA 161356Z 03008KT 10SM CLR 14/07 A3023 RMK AO2 SLP240 T01390072=
200607161256 METAR KSEA 161256Z 03007KT 10SM CLR 13/07 A3022 RMK AO2 SLP238 T01280072=
200607161156 METAR KSEA 161156Z 04010KT 10SM CLR 13/07 A3021 RMK AO2 SLP233 T01330072 10167 20128 53001=
200607161056 METAR KSEA 161056Z 04010KT 10SM CLR 13/08 A3020 RMK AO2 SLP231 T01330078=
200607160956 METAR KSEA 160956Z 03007KT 10SM CLR 13/08 A3020 RMK AO2 SLP232 T01330078=
200607160856 METAR KSEA 160856Z 04011KT 10SM CLR 14/08 A3020 RMK AO2 SLP232 T01390078 51002=
200607160756 METAR KSEA 160756Z 02011KT 10SM CLR 14/08 A3020 RMK AO2 SLP231 T01440078 402440144=
200607160656 METAR KSEA 160656Z 02011KT 10SM CLR 16/08 A3020 RMK AO2 SLP232 T01560078=
200607160556 METAR KSEA 160556Z 03013KT 10SM CLR 17/08 A3020 RMK AO2 SLP230 T01670078 10239 20167 53007=
200607160456 METAR KSEA 160456Z 03012KT 10SM CLR 18/08 A3019 RMK AO2 SLP228 T01780083=
200607160356 METAR KSEA 160356Z 01010KT 10SM CLR 18/08 A3018 RMK AO2 SLP224 T01830083=
200607160256 METAR KSEA 160256Z 34008KT 10SM FEW050 21/08 A3017 RMK AO2 SLP222 T02110083 55001=
200607160156 METAR KSEA 160156Z 32008KT 10SM FEW050 23/09 A3017 RMK AO2 SLP220 T02280089=
200607160056 METAR KSEA 160056Z 31007KT 10SM FEW050 23/09 A3017 RMK AO2 SLP222 T02330089=
200607152356 METAR KSEA 152356Z 29008KT 10SM FEW030 24/09 A3018 RMK AO2 SLP223 T02390094 10244 20189 58006=
200607152256 METAR KSEA 152256Z 33008KT 10SM FEW040 24/09 A3019 RMK AO2 SLP227 T02390094=
200607152156 METAR KSEA 152156Z 33007KT 10SM FEW040 23/10 A3019 RMK AO2 SLP227 T02330100=
200607152056 METAR KSEA 152056Z 30008KT 10SM FEW037 SCT060 23/12 A3020 RMK AO2 SLP230 T02280117 50002=
200607151956 METAR KSEA 151956Z 32008KT 10SM FEW036 SCT060 22/12 A3020 RMK AO2 SLP230 T02170117=
200607151856 METAR KSEA 151856Z 30007KT 10SM FEW036 BKN060 21/12 A3020 RMK AO2 SLP230 T02060117=
200607151756 METAR KSEA 151756Z 36008KT 10SM FEW026 SCT036 BKN060 19/11 A3019 RMK AO2 SLP228 T01890111 10194 20150 51009=
200607151656 METAR KSEA 151656Z 01009KT 10SM BKN036 BKN060 18/10 A3019 RMK AO2 SLP226 T01780100=
200607151556 METAR KSEA 151556Z 03008KT 10SM BKN035 16/11 A3018 RMK AO2 SLP225 T01610106=
200607151456 METAR KSEA 151456Z 02008KT 10SM OVC035 16/11 A3017 RMK AO2 SLP219 T01560106 53017=
200607151356 METAR KSEA 151356Z 03009KT 10SM SCT039 BKN060 16/11 A3015 RMK AO2 SLP213 T01560106=
200607151256 METAR KSEA 151256Z 04010KT 10SM BKN037 BKN060 15/10 A3013 RMK AO2 SLP208 T01500100=
200607151156 METAR KSEA 151156Z 03007KT 10SM SCT037 BKN055 15/11 A3012 RMK AO2 SLP203 T01500106 10172 20150 53006=
200607151056 METAR KSEA 151056Z 03009KT 10SM BKN060 16/11 A3011 RMK AO2 SLP200 T01560106=
200607150956 METAR KSEA 150956Z 03009KT 10SM BKN050 BKN060 16/11 A3010 RMK AO2 SLP198 T01610106=
200607150856 METAR KSEA 150856Z 02006KT 10SM BKN050 BKN070 17/11 A3010 RMK AO2 SLP196 T01670111 50000=
200607150756 METAR KSEA 150756Z 01004KT 10SM BKN050 BKN070 17/11 A3010 RMK AO2 SLP197 T01670106 402560133=
200607150656 METAR KSEA 150656Z 34004KT 10SM SCT070 16/10 A3010 RMK AO2 SLP197 T01610100=
200607150556 METAR KSEA 150556Z 36005KT 10SM SCT060 17/11 A3010 RMK AO2 SLP196 T01720106 10256 20172 51012=
200607150456 METAR KSEA 150456Z 02009KT 10SM SCT060 18/09 A3009 RMK AO2 SLP194 T01780094=
200607150356 METAR KSEA 150356Z 33006KT 10SM SCT060 18/10 A3007 RMK AO2 SLP188 T01830100=
200607150256 METAR KSEA 150256Z 35009KT 10SM SCT050 21/10 A3006 RMK AO2 SLP184 T02060100 53005=
200607150156 METAR KSEA 150156Z 28008KT 10SM SCT050 23/12 A3004 RMK AO2 SLP178 T02330117=
200607150056 METAR KSEA 150056Z 24008KT 10SM SCT050 24/12 A3005 RMK AO2 SLP179 T02440122=
200607142356 METAR KSEA 142356Z 26010KT 10SM FEW045 SCT080 25/13 A3005 RMK AO2 SLP179 T02500128 10256 20189 56005=
200607142256 METAR KSEA 142256Z 26012KT 10SM FEW045 SCT080 26/13 A3005 RMK AO2 SLP180 T02560133=
200607142156 METAR KSEA 142156Z 25011KT 10SM FEW035 SCT070 24/13 A3005 RMK AO2 SLP181 T02440128=
200607142056 METAR KSEA 142056Z 24010KT 10SM FEW030 SCT060 22/12 A3006 RMK AO2 SLP184 T02220122 58001=
200607141956 METAR KSEA 141956Z 21010KT 10SM FEW030 SCT075 22/11 A3006 RMK AO2 SLP185 T02220111=
200607141856 METAR KSEA 141856Z 20007KT 10SM FEW025 SCT065 SCT080 20/11 A3007 RMK AO2 SLP186 T02000106=
200607141756 METAR KSEA 141756Z 19006KT 10SM FEW025 SCT065 BKN080 19/11 A3006 RMK AO2 SLP185 T01890106 10189 20139 57001=
200607141656 METAR KSEA 141656Z 20007KT 10SM FEW026 SCT055 BKN065 18/11 A3006 RMK AO2 SLP186 T01830111=
200607141556 METAR KSEA 141556Z 18005KT 10SM SCT024 BKN055 BKN090 16/10 A3007 RMK AO2 SLP186 T01610100=
200607141456 METAR KSEA 141456Z 19006KT 10SM FEW025 BKN055 15/10 A3007 RMK AO2 SLP187 T01500100 53004=
200607141432 SPECI KSEA 141432Z 18005KT 10SM SCT027 BKN055 15/10 A3006 RMK AO2=
200607141432 SPECI KSEA 141432Z 18005KT 10SM SCT027 BKN055 15/10 A3006 RMK AO2=
200607141356 METAR KSEA 141356Z 19005KT 10SM BKN027 14/10 A3006 RMK AO2 SLP185 T01440100=
200607141256 METAR KSEA 141256Z 18003KT 10SM OVC027 14/09 A3006 RMK AO2 SLP183 T01390094=
200607141156 METAR KSEA 141156Z 17004KT 10SM OVC027 14/11 A3005 RMK AO2 SLP183 60000 70001 T01390106 10156 20133 55001=
200607141056 METAR KSEA 141056Z 19004KT 10SM OVC029 14/11 A3005 RMK AO2 SLP182 T01390106=
200607141032 SPECI KSEA 141032Z 18005KT 10SM BKN029 OVC060 13/11 A3006=
200607141032 SPECI KSEA 141032Z 18005KT 10SM BKN029 OVC060 13/11 A3006 RMK AO2=
200607140956 METAR KSEA 140956Z 18004KT 10SM FEW048 OVC060 14/11 A3006 RMK AO2 RAB13E27 SLP183 P0000 T01390111=
200607140856 METAR KSEA 140856Z 19004KT 10SM OVC034 14/11 A3006 RMK AO2 RAB17E43 SLP184 P0000 60000 T01440106 58003=
200607140756 METAR KSEA 140756Z 23004KT 10SM OVC036 15/12 A3006 RMK AO2 RAB45E55 SLP186 P0000 T01500117 402000133=
200607140656 METAR KSEA 140656Z 22003KT 10SM OVC038 16/12 A3006 RMK AO2 SLP186 T01560117=
200607140556 METAR KSEA 140556Z 19005KT 10SM OVC038 16/11 A3007 RMK AO2 SLP187 60000 T01560111 10172 20156 57001=
200607140456 METAR KSEA 140456Z 19004KT 10SM OVC034 16/12 A3007 RMK AO2 SLP188 T01610122=
200607140356 METAR KSEA 140356Z 20004KT 10SM OVC034 16/12 A3007 RMK AO2 SLP187 T01610122=
200607140256 METAR KSEA 140256Z 19004KT 10SM BKN034 OVC090 17/12 A3007 RMK AO2 SLP188 60000 T01670117 56010=
200607140156 METAR KSEA 140156Z 19004KT 10SM SCT036 OVC090 17/12 A3007 RMK AO2 RAB06E24 SLP190 P0000 T01670122=
200607140056 METAR KSEA 140056Z 14006KT 10SM FEW035 BKN095 OVC150 17/13 A3008 RMK AO2 RAE07 SLP193 P0000 T01670128=
200607132356 METAR KSEA 132356Z 20004KT 10SM -RA FEW016 SCT032 BKN110 OVC140 17/13 A3010 RMK AO2 SLP199 P0001 60001 T01670128 10200 20161 58005=
200607132256 METAR KSEA 132256Z VRB03KT 8SM -RA SCT017 BKN030 OVC100 17/12 A3011 RMK AO2 SLP203 P0000 T01670122=
200607132156 METAR KSEA 132156Z 21005KT 10SM -RA FEW030 SCT110 BKN130 17/12 A3012 RMK AO2 RAB35 SLP205 P0000 T01670117=
200607132116 SPECI KSEA 132116Z 21006KT 10SM SCT027 SCT032 BKN100 18/10 A3012 RMK AO2=
200607132116 SPECI KSEA 132116Z 21006KT 10SM SCT027 SCT032 BKN100 18/10 A3012 RMK AO2=
200607132056 METAR KSEA 132056Z 21006KT 10SM BKN029 BKN033 BKN110 18/11 A3012 RMK AO2 SLP204 60000 T01830111 58002=
200607132048 SPECI KSEA 132048Z 25007KT 230V030 10SM BKN029 BKN110 19/11 A3012 RMK AO2=
200607132048 SPECI KSEA 132048Z 25007KT 230V030 10SM BKN029 BKN110 19/11 A3012 RMK AO2=
200607132011 SPECI KSEA 132011Z 24008KT 10SM SCT027 BKN050 BKN120 19/12 A3012 RMK AO2=
200607132011 SPECI KSEA 132011Z 24008KT 10SM SCT027 BKN050 BKN120 19/12 A3012 RMK AO2=
200607131956 METAR KSEA 131956Z 25007KT 10SM BKN025 BKN040 BKN110 18/11 A3012 RMK AO2 RAB25E35 SLP204 P0000 T01780111=
200607131856 METAR KSEA 131856Z 22008KT 200V260 10SM BKN027 BKN040 OVC110 17/10 A3013 RMK AO2 SLP207 BINOVC SE-NW T01720100=
200607131843 SPECI KSEA 131843Z 23008KT 10SM BKN027 BKN040 OVC110 18/10 A3013 RMK AO2 BINOVC SE-NW=
200607131843 SPECI KSEA 131843Z 23008KT 10SM BKN027 BKN040 OVC110 18/10 A3013 RMK AO2 BINOVC SE-NW=
200607131818 SPECI KSEA 131818Z 17007KT 10SM FEW020 SCT027 BKN040 18/09 A3012 RMK AO2=
200607131818 SPECI KSEA 131818Z 17007KT 10SM FEW020 SCT027 BKN040 18/09 A3012 RMK AO2=
200607131756 METAR KSEA 131756Z 19008KT 10SM FEW020 BKN027 OVC032 16/09 A3013 RMK AO2 SLP207 BINOVC OHD-NW T01610094 10161 20133 50003=
200607131656 METAR KSEA 131656Z 19007KT 10SM FEW020 BKN027 OVC035 15/11 A3013 RMK AO2 SLP210 T01500106=
200607131603 SPECI KSEA 131603Z 20006KT 10SM BKN029 BKN037 OVC044 15/11 A3012 RMK AO2=
200607131603 SPECI KSEA 131603Z 20006KT 10SM BKN029 BKN037 OVC044 15/11 A3012 RMK AO2=
200607131556 METAR KSEA 131556Z 19005KT 10SM FEW020 BKN034 OVC044 14/11 A3012 RMK AO2 SLP206 T01440106=
200607131456 METAR KSEA 131456Z 20009KT 10SM FEW020 OVC040 14/11 A3011 RMK AO2 SLP203 T01440111 51011=
200607131356 METAR KSEA 131356Z 24007KT 10SM FEW020 BKN043 14/11 A3011 RMK AO2 SLP202 T01440111=
200607131333 SPECI KSEA 131333Z 17007KT 10SM FEW029 BKN037 OVC047 14/11 A3009 RMK AO2=
200607131333 SPECI KSEA 131333Z 17007KT 10SM FEW029 BKN037 OVC047 14/11 A3009 RMK AO2=
200607131308 SPECI KSEA 131308Z 19004KT 10SM OVC029 14/11 A3010 RMK AO2=
200607131308 SPECI KSEA 131308Z 19004KT 10SM OVC029 14/11 A3010 RMK AO2=
200607131256 METAR KSEA 131256Z 22006KT 10SM OVC031 13/11 A3011 RMK AO2 SLP200 T01330111=
200607131156 METAR KSEA 131156Z 20005KT 10SM OVC031 14/12 A3008 RMK AO2 SLP192 70003 T01390117 10150 20133 55000=
200607131056 METAR KSEA 131056Z 18008KT 10SM FEW024 SCT050 13/12 A3008 RMK AO2 SLP191 T01330117=
200607131044 SPECI KSEA 131044Z 20006KT 10SM FEW024 SCT030 BKN050 13/12 A3008 RMK AO2=
200607131044 SPECI KSEA 131044Z 20006KT 10SM FEW024 SCT030 BKN050 13/12 A3008 RMK AO2=
200607130956 METAR KSEA 130956Z 22010KT 10SM BKN020 BKN024 BKN046 14/12 A3008 RMK AO2 SLP192 T01390122=
200607130953 SPECI KSEA 130953Z 23010KT 10SM BKN020 BKN024 BKN046 14/12 A3008=
200607130953 SPECI KSEA 130953Z 23010KT 10SM BKN020 BKN024 BKN046 14/12 A3008 RMK AO2=
200607130856 METAR KSEA 130856Z 21008KT 10SM FEW014 SCT034 14/13 A3007 RMK AO2 SLP189 T01390128 52004=
200607130756 METAR KSEA 130756Z 21005KT 10SM FEW035 SCT070 14/13 A3007 RMK AO2 SLP189 T01440128 402000139=
200607130656 METAR KSEA 130656Z 20007KT 10SM SCT070 SCT150 14/13 A3006 RMK AO2 SLP186 T01440128=
200607130556 METAR KSEA 130556Z 22010KT 10SM FEW025 SCT070 SCT120 15/13 A3006 RMK AO2 SLP185 T01500128 10189 20150 51015=
200607130456 METAR KSEA 130456Z 22007KT 10SM SCT028 SCT120 BKN200 16/13 A3006 RMK AO2 SLP184 T01560128=
200607130445 SPECI KSEA 130445Z 22008KT 10SM SCT023 BKN030 BKN100 16/13 A3006 RMK AO2=
200607130445 SPECI KSEA 130445Z 22008KT 10SM SCT023 BKN030 BKN100 16/13 A3006 RMK AO2=
200607130407 SPECI KSEA 130407Z 23009KT 10SM SCT023 BKN029 16/13 A3004 RMK AO2=
200607130407 SPECI KSEA 130407Z 23009KT 10SM SCT023 BKN029 16/13 A3004 RMK AO2=
200607130356 METAR KSEA 130356Z 24013KT 10SM SCT027 SCT100 BKN200 16/13 A3004 RMK AO2 SLP177 T01610133=
200607130256 METAR KSEA 130256Z 21007KT 10SM FEW019 SCT027 BKN095 17/13 A3002 RMK AO2 SLP170 T01720133 53008=
200607130156 METAR KSEA 130156Z 23014KT 10SM SCT019 BKN032 BKN100 18/14 A3000 RMK AO2 SLP165 T01780139=
200607130153 SPECI KSEA 130153Z 23015KT 10SM SCT017 BKN032 BKN100 18/14 A3000 RMK AO2=
200607130153 SPECI KSEA 130153Z 23015KT 10SM SCT017 BKN032 BKN100 18/14 A3000 RMK AO2=
200607130056 METAR KSEA 130056Z 22013KT 10SM SCT018 BKN029 BKN060 18/15 A2999 RMK AO2 SLP162 T01830150=
200607122356 METAR KSEA 122356Z 21010KT 10SM FEW010 BKN019 OVC030 18/15 A2999 RMK AO2 SLP160 60002 T01830150 10200 20150 51013=
200607122337 SPECI KSEA 122337Z 20011KT 10SM SCT019 BKN025 OVC032 18/14 A2999 RMK AO2=
200607122337 SPECI KSEA 122337Z 20011KT 10SM SCT019 BKN025 OVC032 18/14 A2999 RMK AO2=
200607122314 SPECI KSEA 122314Z 22015G20KT 10SM SCT022 BKN031 BKN080 18/14 A2998 RMK AO2=
200607122314 SPECI KSEA 122314Z 22015G20KT 10SM SCT022 BKN031 BKN080 18/14 A2998 RMK AO2=
200607122256 METAR KSEA 122256Z 23013KT 10SM SCT022 BKN029 BKN080 19/14 A2998 RMK AO2 SLP157 T01890144=
200607122156 METAR KSEA 122156Z 21010KT 10SM FEW007 SCT016 OVC027 18/16 A2997 RMK AO2 RAB07E27 SLP152 BINOVC W P0000 T01830156=
200607122119 SPECI KSEA 122119Z 21010KT 7SM -RA SCT007 BKN016 OVC025 17/16 A2996 RMK AO2 RAB07 BINOVC OHD P0000=
200607122119 SPECI KSEA 122119Z 21010KT 7SM -RA SCT007 BKN016 OVC025 17/16 A2996 RMK AO2 RAB07 BINOVC OHD P0000=
200607122056 METAR KSEA 122056Z 19010KT 10SM BKN007 BKN016 OVC025 17/16 A2995 RMK AO2 RAE49 SLP147 BINOVC OHD P0001 60002 T01670156 51005=
200607122008 SPECI KSEA 122008Z 21010KT 2SM -RA BR BKN005 BKN010 OVC016 17/16 A2995 RMK AO2 SFC VIS 2 1/2 P0000=
200607122008 SPECI KSEA 122008Z 21010KT 2SM -RA BR BKN005 BKN010 OVC016 17/16 A2995 RMK AO2 SFC VIS 2 1/2 P0000=
200607121956 METAR KSEA 121956Z 20009KT 2SM -RA BR SCT005 BKN016 OVC022 16/16 A2995 RMK AO2 SFC VIS 5 SLP147 P0000 T01610156=
200607121924 SPECI KSEA 121924Z 19009KT 2SM -RA BR BKN007 OVC017 16/14 A2994 RMK AO2 SFC VIS 4 P0000=
200607121924 SPECI KSEA 121924Z 19009KT 2SM -RA BR BKN007 OVC017 16/14 A2994 RMK AO2 SFC VIS 4 P0000=
200607121856 METAR KSEA 121856Z 19007KT 1 1/2SM R16R/5500VP6000FT -RA BR SCT007 BKN010 OVC013 15/14 A2994 RMK AO2 SFC VIS 2 1/2 RAB15 SLP145 P0001 T01500144=
200607121823 SPECI KSEA 121823Z 20006KT 3SM -RA BR FEW009 BKN013 OVC018 16/14 A2994 RMK AO2 RAB15 P0000=
200607121823 SPECI KSEA 121823Z 20006KT 3SM -RA BR FEW009 BKN013 OVC018 16/14 A2994 RMK AO2 RAB15 P0000=
200607121813 SPECI KSEA 121813Z 21006KT 5SM BR BKN011 OVC018 16/13 A2994 RMK AO2=
200607121813 SPECI KSEA 121813Z 21006KT 5SM BR BKN011 OVC018 16/13 A2994 RMK AO2=
200607121756 METAR KSEA 121756Z 20007KT 10SM SCT013 OVC021 16/13 A2993 RMK AO2 RAE22 SLP142 P0000 60001 T01610128 10161 20139 51005=
200607121656 METAR KSEA 121656Z 18006KT 9SM -RA SCT017 OVC025 15/12 A2993 RMK AO2 RAB52 SLP141 P0000 T01500117=
200607121556 METAR KSEA 121556Z 26004KT 10SM SCT020 OVC027 15/12 A2993 RMK AO2 RAB18E53 SLP140 P0001 T01500117=
200607121532 SPECI KSEA 121532Z 24004KT 9SM -RA BKN020 OVC029 15/11 A2993 RMK AO2 RAB18 P0001=
200607121532 SPECI KSEA 121532Z 24004KT 9SM -RA BKN020 OVC029 15/11 A2993 RMK AO2 RAB18 P0001=
200607121515 SPECI KSEA 121515Z 19005KT 10SM FEW020 BKN031 OVC060 16/11 A2992 RMK AO2=
200607121515 SPECI KSEA 121515Z 19005KT 10SM FEW020 BKN031 OVC060 16/11 A2992 RMK AO2=
200607121456 METAR KSEA 121456Z 20005KT 10SM FEW020 BKN029 OVC060 15/11 A2992 RMK AO2 SLP137 60000 T01500106 58001=
200607121356 METAR KSEA 121356Z 16007KT 10SM BKN023 OVC060 14/10 A2992 RMK AO2 RAB36E45 SLP137 P0000 T01390100=
200607121303 SPECI KSEA 121303Z 17007KT 10SM BKN026 OVC036 14/10 A2992 RMK AO2=
200607121303 SPECI KSEA 121303Z 17007KT 10SM BKN026 OVC036 14/10 A2992 RMK AO2=
200607121256 METAR KSEA 121256Z 17006KT 10SM SCT026 OVC036 14/10 A2993 RMK AO2 SLP139 T01390100=
200607121156 METAR KSEA 121156Z 18006KT 10SM BKN030 OVC040 14/09 A2992 RMK AO2 SLP138 T01440094 10144 20139 57001=
200607121056 METAR KSEA 121056Z 17006KT 10SM BKN035 OVC045 14/09 A2992 RMK AO2 SLP137 T01440089=
200607120956 METAR KSEA 120956Z 18007KT 10SM FEW035 BKN045 OVC070 14/09 A2993 RMK AO2 SLP139 T01390094=
200607120856 METAR KSEA 120856Z 23006KT 10SM SCT035 BKN070 BKN120 14/10 A2993 RMK AO2 SLP139 T01390100 55001=
200607120756 METAR KSEA 120756Z 19004KT 10SM SCT035 BKN070 BKN100 14/09 A2992 RMK AO2 SLP138 T01390089 402170122=
200607120656 METAR KSEA 120656Z 22009KT 10SM SCT036 OVC075 14/09 A2993 RMK AO2 SLP139 T01390089=
200607120556 METAR KSEA 120556Z 21006KT 10SM BKN036 OVC080 14/10 A2993 RMK AO2 SLP140 T01440100 10183 20144 51007=
200607120456 METAR KSEA 120456Z 22006KT 10SM SCT041 BKN049 OVC080 15/10 A2992 RMK AO2 SLP137 T01500100=
200607120356 METAR KSEA 120356Z 24006KT 10SM SCT040 BKN070 OVC120 16/11 A2992 RMK AO2 SLP137 T01560106=
200607120256 METAR KSEA 120256Z 25008KT 10SM FEW040 BKN100 OVC150 17/11 A2991 RMK AO2 SLP132 T01670111 55002=
200607120156 METAR KSEA 120156Z 22005KT 10SM FEW040 BKN120 OVC200 17/11 A2990 RMK AO2 SLP131 T01720111=
200607120056 METAR KSEA 120056Z 21007KT 10SM FEW040 SCT110 OVC200 18/11 A2990 RMK AO2 SLP132 T01780111=
200607112356 METAR KSEA 112356Z 23009KT 10SM FEW035 BKN120 BKN200 18/12 A2991 RMK AO2 SLP135 T01830117 10217 20183 50002=
200607112256 METAR KSEA 112256Z 25009KT 10SM FEW035 SCT120 BKN200 21/12 A2991 RMK AO2 SLP135 T02110122=
200607112156 METAR KSEA 112156Z 26007KT 230V290 10SM FEW035 BKN120 OVC150 20/12 A2991 RMK AO2 SLP133 T02000117=
200607112056 METAR KSEA 112056Z 23009KT 10SM FEW030 SCT120 BKN150 OVC200 19/12 A2991 RMK AO2 SLP132 T01940117 53006=
200607111956 METAR KSEA 111956Z 25010KT 10SM FEW030 SCT150 BKN200 21/12 A2990 RMK AO2 SLP128 T02060117=
200607111856 METAR KSEA 111856Z 24009KT 10SM FEW030 SCT130 BKN200 20/12 A2989 RMK AO2 SLP126 T02000122=
200607111756 METAR KSEA 111756Z 27006KT 10SM FEW030 SCT130 BKN200 19/12 A2989 RMK AO2 SLP126 T01890122 10194 20122 58006=
200607111656 METAR KSEA 111656Z 00000KT 10SM FEW030 SCT130 OVC200 17/12 A2990 RMK AO2 SLP129 T01720117=
200607111556 METAR KSEA 111556Z 21005KT 10SM FEW032 SCT130 BKN150 BKN200 16/11 A2990 RMK AO2 SLP132 T01560106=
200607111456 METAR KSEA 111456Z 20005KT 10SM FEW009 SCT029 BKN150 BKN200 15/11 A2991 RMK AO2 SLP132 T01500106 51006=
200607111356 METAR KSEA 111356Z 16006KT 10SM SCT006 SCT040 BKN150 BKN200 13/11 A2990 RMK AO2 SLP131 T01330111=
200607111308 SPECI KSEA 111308Z 16003KT 10SM FEW006 SCT040 BKN150 BKN200 12/11 A2989 RMK AO2=
200607111308 SPECI KSEA 111308Z 16003KT 10SM FEW006 SCT040 BKN150 BKN200 12/11 A2989 RMK AO2=
200607111256 METAR KSEA 111256Z 20004KT 10SM FEW040 BKN150 BKN200 12/11 A2989 RMK AO2 SLP128 T01220106=
200607111156 METAR KSEA 111156Z 00000KT 10SM BKN150 BKN200 12/12 A2989 RMK AO2 SLP126 T01220117 10161 20122 53000=
200607111056 METAR KSEA 111056Z 23004KT 10SM BKN150 BKN200 12/12 A2988 RMK AO2 SLP125 T01220117=
200607110956 METAR KSEA 110956Z 00000KT 10SM BKN150 BKN200 13/11 A2988 RMK AO2 SLP123 T01330111=
200607110856 METAR KSEA 110856Z 29003KT 10SM SCT150 SCT200 14/11 A2989 RMK AO2 SLP125 T01390111 56016=
200607110756 METAR KSEA 110756Z 35003KT 10SM SCT150 SCT200 16/11 A2989 RMK AO2 SLP127 T01560111 402000128=
200607110656 METAR KSEA 110656Z 00000KT 10SM FEW150 SCT200 16/11 A2991 RMK AO2 SLP134 T01560106=
200607110556 METAR KSEA 110556Z 00000KT 10SM FEW037 SCT150 BKN200 16/11 A2993 RMK AO2 SLP141 T01560111 10200 20156 58007=
200607110456 METAR KSEA 110456Z 00000KT 10SM SCT037 BKN150 BKN200 17/11 A2994 RMK AO2 SLP145 T01670106=
200607110356 METAR KSEA 110356Z 27004KT 10SM BKN037 BKN150 BKN200 17/11 A2995 RMK AO2 SLP146 T01720106=
200607110256 METAR KSEA 110256Z 22006KT 10SM BKN035 BKN200 18/11 A2995 RMK AO2 SLP148 T01780106 55006=
200607110156 METAR KSEA 110156Z 25005KT 10SM SCT035 BKN200 19/11 A2995 RMK AO2 SLP148 T01890106=
200607110056 METAR KSEA 110056Z 24006KT 10SM BKN034 OVC200 19/11 A2996 RMK AO2 SLP151 T01890106=
200607102356 METAR KSEA 102356Z 24007KT 10SM BKN036 BKN080 OVC200 19/11 A2997 RMK AO2 SLP154 BINOVC OHD-S T01940111 10200 20167 58006=
200607102256 METAR KSEA 102256Z 25009KT 10SM BKN034 BKN080 OVC200 19/11 A2998 RMK AO2 SLP158 T01940111=
200607102156 METAR KSEA 102156Z 23007KT 10SM BKN030 BKN040 BKN200 19/11 A2998 RMK AO2 SLP158 T01940111=
200607102056 METAR KSEA 102056Z 22011KT 10SM FEW025 BKN030 BKN043 BKN200 19/11 A2999 RMK AO2 SLP160 T01940111 50002=
200607101956 METAR KSEA 101956Z 23010KT 10SM BKN030 OVC043 18/11 A3000 RMK AO2 SLP163 BINOVC OHD-S T01830111=
200607101856 METAR KSEA 101856Z 23009KT 10SM BKN033 BKN043 19/11 A2999 RMK AO2 SLP161 T01890106=
200607101756 METAR KSEA 101756Z 25009KT 10SM OVC031 17/11 A2999 RMK AO2 SLP158 T01720106 10172 20128 53005=
200607101747 SPECI KSEA 101747Z 23010KT 10SM OVC031 17/10 A2998=
200607101747 SPECI KSEA 101747Z 23010KT 10SM OVC031 17/10 A2998 RMK AO2 BINOVC OHD=
200607101656 METAR KSEA 101656Z 21008KT 10SM SCT022 OVC027 16/09 A2998 RMK AO2 SLP156 BINOVC OHD-S T01610094=
200607101556 METAR KSEA 101556Z 20007KT 10SM OVC019 15/09 A2998 RMK AO2 SLP155 T01500094=
200607101456 METAR KSEA 101456Z 21006KT 10SM OVC015 14/09 A2997 RMK AO2 SLP153 T01390094 51013=
200607101422 SPECI KSEA 101422Z 19006KT 10SM OVC015 13/09 A2996=
200607101422 SPECI KSEA 101422Z 19006KT 10SM OVC015 13/09 A2996 RMK AO2=
200607101356 METAR KSEA 101356Z 19007KT 10SM OVC013 13/09 A2996 RMK AO2 SLP148 T01330094=
200607101346 SPECI KSEA 101346Z 19006KT 10SM OVC013 13/10 A2996=
200607101346 SPECI KSEA 101346Z 19006KT 10SM OVC013 13/10 A2996 RMK AO2=
200607101330 SPECI KSEA 101330Z 20011KT 10SM BKN016 13/09 A2996 RMK AO2=
200607101330 SPECI KSEA 101330Z 20011KT 10SM BKN016 13/09 A2996 RMK AO2=
200607101256 METAR KSEA 101256Z 22009KT 10SM SCT035 13/10 A2995 RMK AO2 SLP146 T01280100=
200607101156 METAR KSEA 101156Z 24008KT 10SM BKN032 OVC039 13/10 A2993 RMK AO2 SLP139 T01330100 10183 20133 53009=
200607101141 SPECI KSEA 101141Z 24008KT 10SM SCT030 BKN037 OVC046 14/10 A2993 RMK AO2=
200607101141 SPECI KSEA 101141Z 24008KT 10SM SCT030 BKN037 OVC046 14/10 A2993 RMK AO2=
200607101056 METAR KSEA 101056Z 25007KT 10SM BKN025 OVC037 15/10 A2992 RMK AO2 SLP135 T01500100=
200607100956 METAR KSEA 100956Z 25009KT 10SM OVC024 16/10 A2991 RMK AO2 SLP131 T01560100=
200607100856 METAR KSEA 100856Z 25007KT 10SM BKN024 OVC029 17/12 A2990 RMK AO2 SLP130 T01670117 53002=
200607100833 SPECI KSEA 100833Z 23007KT 10SM OVC029 17/12 A2991 RMK AO2=
200607100833 SPECI KSEA 100833Z 23007KT 10SM OVC029 17/12 A2991 RMK AO2=
200607100756 METAR KSEA 100756Z 23004KT 10SM BKN031 BKN120 17/13 A2990 RMK AO2 SLP129 T01720128 403000172=
200607100656 METAR KSEA 100656Z 00000KT 10SM SCT033 BKN120 BKN200 18/13 A2990 RMK AO2 SLP128 T01780128=
200607100556 METAR KSEA 100556Z 05008KT 10SM FEW080 BKN160 BKN200 19/13 A2990 RMK AO2 SLP129 T01890128 10294 20189 51008=
200607100456 METAR KSEA 100456Z 35004KT 10SM FEW040 SCT120 SCT150 BKN200 20/13 A2990 RMK AO2 SLP128 T02000133=
200607100356 METAR KSEA 100356Z 03009KT 10SM FEW040 SCT120 SCT150 BKN200 21/13 A2989 RMK AO2 SLP123 T02110133=
200607100256 METAR KSEA 100256Z 36010KT 10SM SCT040 SCT150 BKN200 22/14 A2988 RMK AO2 SLP121 T02220139 55009=
200607100156 METAR KSEA 100156Z 34007KT 10SM SCT040 SCT150 BKN200 24/14 A2987 RMK AO2 SLP117 T02440139=
200607100056 METAR KSEA 100056Z 29007KT 10SM SCT040 SCT150 SCT200 28/14 A2988 RMK AO2 SLP121 T02830139=
200607092356 METAR KSEA 092356Z 27006KT 10SM FEW040 SCT150 SCT200 29/12 A2990 RMK AO2 SLP129 T02940122 10300 20222 58021=
200607092256 METAR KSEA 092256Z VRB04KT 10SM FEW060 SCT150 SCT200 28/12 A2993 RMK AO2 SLP137 T02830117=
200607092156 METAR KSEA 092156Z 31005KT 10SM FEW060 SCT200 28/11 A2994 RMK AO2 SLP143 T02830111=
200607092056 METAR KSEA 092056Z VRB06KT 10SM FEW060 SCT200 28/12 A2996 RMK AO2 SLP150 T02780117 57014=
200607091956 METAR KSEA 091956Z 29007KT 10SM FEW060 SCT180 SCT230 26/13 A2998 RMK AO2 SLP155 T02610128=
200607091856 METAR KSEA 091856Z VRB03KT 10SM FEW080 SCT180 BKN230 24/12 A2999 RMK AO2 SLP159 T02390122=
200607091756 METAR KSEA 091756Z 30006KT 10SM FEW080 SCT180 BKN230 23/12 A3001 RMK AO2 SLP164 T02280122 10233 20172 58012=
200607091656 METAR KSEA 091656Z 34005KT 10SM FEW100 SCT180 BKN250 22/12 A3002 RMK AO2 SLP169 ACSL DSNT SE T02170117=
200607091556 METAR KSEA 091556Z 04006KT 10SM FEW100 SCT180 BKN250 22/11 A3004 RMK AO2 SLP174 T02170111=
200607091456 METAR KSEA 091456Z 05007KT 10SM FEW120 SCT180 BKN250 19/11 A3004 RMK AO2 SLP176 T01890111 55001=
200607091356 METAR KSEA 091356Z 02006KT 10SM SCT160 BKN190 BKN250 19/11 A3004 RMK AO2 SLP175 T01890111=
200607091256 METAR KSEA 091256Z 03006KT 10SM BKN190 BKN250 18/11 A3005 RMK AO2 SLP177 T01780111=
200607091156 METAR KSEA 091156Z 02005KT 10SM FEW190 BKN250 17/11 A3004 RMK AO2 SLP177 T01720106 10217 20172 56005=
200607091056 METAR KSEA 091056Z 36004KT 10SM FEW190 BKN250 17/09 A3005 RMK AO2 SLP178 T01720094=
200607090956 METAR KSEA 090956Z 01004KT 10SM SCT200 BKN250 18/08 A3005 RMK AO2 SLP181 T01780083=
200607090856 METAR KSEA 090856Z 04008KT 10SM SCT200 BKN250 19/08 A3006 RMK AO2 SLP183 T01890078 58008=
200607090756 METAR KSEA 090756Z 01007KT 10SM SCT200 19/09 A3007 RMK AO2 SLP186 T01890089 402940133=
200607090656 METAR KSEA 090656Z 03009KT 10SM FEW200 20/09 A3008 RMK AO2 SLP189 T02000089=
200607090556 METAR KSEA 090556Z 01006KT 10SM FEW200 22/07 A3009 RMK AO2 SLP191 T02170072 10289 20217 56003=
200607090456 METAR KSEA 090456Z 01008KT 10SM SCT200 22/07 A3009 RMK AO2 SLP192 T02220067=
200607090356 METAR KSEA 090356Z 35009KT 10SM SCT200 23/07 A3009 RMK AO2 SLP192 T02330072=
200607090256 METAR KSEA 090256Z 35010KT 10SM SCT200 26/07 A3010 RMK AO2 SLP195 T02560067 56009=
200607090156 METAR KSEA 090156Z 35011KT 10SM SCT200 27/06 A3010 RMK AO2 SLP195 T02720061=
200607090056 METAR KSEA 090056Z 36011KT 10SM SCT200 28/07 A3011 RMK AO2 SLP199 T02780072=
200607082356 METAR KSEA 082356Z 32007KT 10SM FEW200 29/08 A3012 RMK AO2 SLP203 T02890078 10294 20222 58017=
200607082256 METAR KSEA 082256Z 31008KT 10SM FEW200 29/08 A3014 RMK AO2 SLP210 T02940083=
200607082156 METAR KSEA 082156Z 31007KT 10SM FEW200 28/09 A3016 RMK AO2 SLP216 T02780094=
200607082056 METAR KSEA 082056Z 30007KT 10SM FEW200 27/12 A3017 RMK AO2 SLP222 T02670117 58015=
200607081956 METAR KSEA 081956Z 31008KT 10SM FEW200 25/12 A3019 RMK AO2 SLP227 T02500117=
200607081856 METAR KSEA 081856Z 01006KT 10SM FEW200 24/11 A3021 RMK AO2 SLP233 T02440106=
200607081756 METAR KSEA 081756Z VRB04KT 10SM FEW200 23/12 A3022 RMK AO2 SLP237 T02280117 10228 20139 58009=
200607081656 METAR KSEA 081656Z 26006KT 10SM FEW200 21/12 A3023 RMK AO2 SLP241 T02060122=
200607081556 METAR KSEA 081556Z 00000KT 10SM FEW200 20/12 A3024 RMK AO2 SLP244 T02000117=
200607081456 METAR KSEA 081456Z 06004KT 10SM CLR 18/11 A3024 RMK AO2 SLP246 T01830106 50004=
200607081356 METAR KSEA 081356Z 03005KT 10SM CLR 16/10 A3025 RMK AO2 SLP247 T01610100=
200607081256 METAR KSEA 081256Z 06004KT 10SM CLR 14/11 A3024 RMK AO2 SLP246 T01440106=
200607081156 METAR KSEA 081156Z 07004KT 10SM CLR 14/09 A3023 RMK AO2 SLP242 T01440094 10178 20133 56002=
200607081056 METAR KSEA 081056Z 31004KT 10SM CLR 14/10 A3023 RMK AO2 SLP242 T01390100=
200607080956 METAR KSEA 080956Z 03003KT 10SM CLR 16/10 A3023 RMK AO2 SLP243 T01560100=
200607080856 METAR KSEA 080856Z 32003KT 10SM CLR 15/11 A3024 RMK AO2 SLP244 T01500106 55002=
200607080756 METAR KSEA 080756Z 36007KT 10SM CLR 17/09 A3024 RMK AO2 SLP243 T01670094 402440122=
200607080656 METAR KSEA 080656Z 36004KT 10SM CLR 17/09 A3024 RMK AO2 SLP244 T01720094=
200607080556 METAR KSEA 080556Z 00000KT 10SM CLR 18/09 A3024 RMK AO2 SLP245 T01780094 10244 20178 53003=
200607080456 METAR KSEA 080456Z 36005KT 10SM FEW250 19/08 A3024 RMK AO2 SLP245 T01940078=
200607080356 METAR KSEA 080356Z 33004KT 10SM FEW250 21/08 A3023 RMK AO2 SLP241 T02060083=
200607080256 METAR KSEA 080256Z 30006KT 10SM FEW250 22/07 A3023 RMK AO2 SLP242 T02170072 55007=
200607080156 METAR KSEA 080156Z 30007KT 10SM FEW250 23/07 A3023 RMK AO2 SLP242 T02330067=
200607080056 METAR KSEA 080056Z 29008KT 10SM FEW250 24/06 A3024 RMK AO2 SLP246 T02390061=
200607072356 METAR KSEA 072356Z 30007KT 10SM FEW045 SCT250 24/09 A3026 RMK AO2 SLP250 T02440094 10244 20183 56018=
200607072256 METAR KSEA 072256Z 31005KT 10SM FEW045 SCT250 23/09 A3027 RMK AO2 SLP256 T02280094=
200607072156 METAR KSEA 072156Z 30009KT 10SM FEW045 SCT250 23/10 A3029 RMK AO2 SLP261 T02280100=
200607072056 METAR KSEA 072056Z 27008KT 10SM FEW040 SCT250 22/11 A3031 RMK AO2 SLP268 T02220106 58004=
200607071956 METAR KSEA 071956Z VRB05KT 10SM FEW035 SCT250 21/11 A3031 RMK AO2 SLP270 T02110106=
200607071856 METAR KSEA 071856Z 30007KT 10SM FEW030 BKN250 19/12 A3033 RMK AO2 SLP275 T01940117=
200607071756 METAR KSEA 071756Z 28008KT 10SM SCT027 SCT250 18/11 A3032 RMK AO2 SLP273 T01830111 10189 20122 58003=
200607071656 METAR KSEA 071656Z 27005KT 10SM SCT022 BKN250 16/12 A3033 RMK AO2 SLP276 T01560117=
200607071556 METAR KSEA 071556Z 00000KT 10SM SCT019 SCT250 14/11 A3033 RMK AO2 SLP278 T01440111=
200607071456 METAR KSEA 071456Z 28003KT 10SM FEW011 SCT110 SCT250 13/11 A3033 RMK AO2 SLP276 T01330106 52003=
200607071356 METAR KSEA 071356Z 24003KT 10SM FEW008 BKN110 BKN200 13/10 A3032 RMK AO2 SLP274 T01330100=
200607071318 SPECI KSEA 071318Z 18003KT 10SM FEW008 SCT021 BKN065 12/09 A3032 RMK AO2=
200607071318 SPECI KSEA 071318Z 18003KT 10SM FEW008 SCT021 BKN065 12/09 A3032 RMK AO2=
200607071256 METAR KSEA 071256Z 16004KT 10SM SCT008 BKN021 BKN065 12/09 A3033 RMK AO2 SLP275 T01220094=
200607071242 SPECI KSEA 071242Z 14005KT 10SM SCT008 BKN021 OVC065 12/09 A3033 RMK AO2=
200607071242 SPECI KSEA 071242Z 14005KT 10SM SCT008 BKN021 OVC065 12/09 A3033 RMK AO2=
200607071225 SPECI KSEA 071225Z 13004KT 10SM SCT008 BKN013 OVC065 12/10 A3033 RMK AO2=
200607071225 SPECI KSEA 071225Z 13004KT 10SM SCT008 BKN013 OVC065 12/10 A3033 RMK AO2=
200607071202 SPECI KSEA 071202Z 18004KT 10SM FEW011 BKN016 OVC065 12/11 A3032 RMK AO2=
200607071202 SPECI KSEA 071202Z 18004KT 10SM FEW011 BKN016 OVC065 12/11 A3032 RMK AO2=
200607071156 METAR KSEA 071156Z 18003KT 10SM SCT011 BKN037 BKN065 12/11 A3032 RMK AO2 SLP273 T01220106 10144 20122 50002=
200607071146 SPECI KSEA 071146Z 17004KT 10SM SCT011 BKN037 BKN065 12/11 A3032 RMK AO2=
200607071146 SPECI KSEA 071146Z 17004KT 10SM SCT011 BKN037 BKN065 12/11 A3032 RMK AO2=
200607071056 METAR KSEA 071056Z 21004KT 10SM BKN011 BKN037 12/11 A3033 RMK AO2 SLP276 T01220111=
200607071041 SPECI KSEA 071041Z 22003KT 10SM BKN011 BKN037 12/11 A3033 RMK AO2=
200607071041 SPECI KSEA 071041Z 22003KT 10SM BKN011 BKN037 12/11 A3033 RMK AO2=
200607070956 METAR KSEA 070956Z 08003KT 10SM BKN037 BKN065 13/09 A3032 RMK AO2 SLP272 T01330094=
200607070856 METAR KSEA 070856Z 06006KT 10SM FEW024 SCT035 13/10 A3031 RMK AO2 SLP271 T01330100 51007=
200607070756 METAR KSEA 070756Z 02006KT 10SM FEW024 SCT065 14/10 A3031 RMK AO2 SLP269 T01390100 401830128=
200607070745 SPECI KSEA 070745Z 02007KT 10SM FEW024 SCT065 14/10 A3031=
200607070745 SPECI KSEA 070745Z 02007KT 10SM FEW024 SCT065 14/10 A3031 RMK AO2=
200607070718 SPECI KSEA 070718Z 04009KT 10SM BKN024 BKN065 14/11 A3030 RMK AO2=
200607070718 SPECI KSEA 070718Z 04009KT 10SM BKN024 BKN065 14/11 A3030 RMK AO2=
200607070656 METAR KSEA 070656Z 02005KT 10SM SCT022 BKN065 14/11 A3030 RMK AO2 SLP267 T01390106=
200607070556 METAR KSEA 070556Z 36006KT 10SM FEW020 BKN065 14/12 A3029 RMK AO2 SLP264 T01440117 10183 20144 53016=
200607070456 METAR KSEA 070456Z 32004KT 10SM FEW030 BKN065 14/12 A3027 RMK AO2 SLP257 T01440122=
200607070356 METAR KSEA 070356Z 24003KT 10SM FEW030 BKN065 15/12 A3025 RMK AO2 SLP249 T01500117=
200607070256 METAR KSEA 070256Z 00000KT 10SM SCT030 OVC060 16/11 A3025 RMK AO2 SLP248 BINOVC W T01560111 53009=
200607070156 METAR KSEA 070156Z 27005KT 10SM FEW025 OVC060 16/11 A3023 RMK AO2 SLP243 T01610111=
200607070056 METAR KSEA 070056Z 23009KT 10SM FEW025 OVC055 17/10 A3022 RMK AO2 SLP240 T01720100=
200607062356 METAR KSEA 062356Z 22009KT 10SM FEW025 BKN047 OVC055 18/09 A3022 RMK AO2 SLP239 T01830094 10183 20144 51004=
200607062256 METAR KSEA 062256Z 23009KT 10SM FEW025 OVC044 18/09 A3021 RMK AO2 SLP237 T01830094=
200607062156 METAR KSEA 062156Z 26005KT 10SM FEW025 BKN030 OVC035 17/09 A3021 RMK AO2 SLP236 T01720094=
200607062056 METAR KSEA 062056Z VRB04KT 10SM FEW025 BKN030 OVC035 16/09 A3021 RMK AO2 SLP234 T01610094 53012=
200607062020 SPECI KSEA 062020Z 24007KT 10SM SCT029 BKN035 OVC040 16/09 A3020 RMK AO2=
200607062020 SPECI KSEA 062020Z 24007KT 10SM SCT029 BKN035 OVC040 16/09 A3020 RMK AO2=
200607061956 METAR KSEA 061956Z 23009KT 10SM SCT025 BKN029 OVC035 17/10 A3019 RMK AO2 SLP229 T01670100=
200607061856 METAR KSEA 061856Z 25006KT 10SM BKN025 OVC030 16/10 A3018 RMK AO2 SLP226 T01610100=
200607061756 METAR KSEA 061756Z 23009KT 10SM FEW020 BKN029 OVC035 15/10 A3017 RMK AO2 SLP222 T01500100 10156 20128 51006=
200607061753 SPECI KSEA 061753Z 23008KT 10SM BKN029 OVC035 15/10 A3017 RMK AO2=
200607061753 SPECI KSEA 061753Z 23008KT 10SM BKN029 OVC035 15/10 A3017 RMK AO2=
200607061726 SPECI KSEA 061726Z 23007KT 10SM SCT021 BKN030 OVC035 15/09 A3016 RMK AO2=
200607061726 SPECI KSEA 061726Z 23007KT 10SM SCT021 BKN030 OVC035 15/09 A3016 RMK AO2=
200607061656 METAR KSEA 061656Z VRB04KT 10SM SCT020 BKN028 OVC035 14/10 A3016 RMK AO2 SLP218 T01440100=
200607061556 METAR KSEA 061556Z 24008KT 10SM SCT020 BKN028 OVC033 13/10 A3015 RMK AO2 SLP216 T01330100=
200607061456 METAR KSEA 061456Z 17007KT 10SM BKN017 BKN025 OVC039 14/09 A3015 RMK AO2 SLP214 BINOVC OHD T01390094 51008=
200607061356 METAR KSEA 061356Z 18007KT 10SM BKN017 BKN022 13/09 A3014 RMK AO2 SLP212 T01330089=
200607061256 METAR KSEA 061256Z 18007KT 10SM BKN019 BKN025 BKN038 13/09 A3013=
200607061156 METAR KSEA 061156Z 19006KT 10SM BKN019 BKN024 OVC035 13/09 A3012=
200607061103 SPECI KSEA 061103Z 22005KT 10SM SCT019 BKN024 OVC042 13/09 A3011 RMK AO2=
200607061103 SPECI KSEA 061103Z 22005KT 10SM SCT019 BKN024 OVC042 13/09 A3011 RMK AO2=
200607061056 METAR KSEA 061056Z 20006KT 10SM SCT019 SCT024 OVC042 13/09 A3011 RMK AO2 SLP201 T01280089=
200607060956 METAR KSEA 060956Z 22007KT 10SM SCT024 OVC039 13/09 A3011 RMK AO2 SLP201 T01330094=
200607060856 METAR KSEA 060856Z 23008KT 10SM SCT024 OVC039 13/09 A3011 RMK AO2 SLP200 T01330094 53003=
200607060756 METAR KSEA 060756Z 22005KT 10SM SCT024 OVC039 13/10 A3010 RMK AO2 SLP199 T01330100 401830117=
200607060656 METAR KSEA 060656Z 22006KT 10SM SCT027 BKN039 OVC080 13/09 A3010 RMK AO2 SLP198 T01330094=
200607060556 METAR KSEA 060556Z 23008KT 10SM BKN041 BKN080 14/10 A3010 RMK AO2 SLP198 T01390100 10183 20133 50010=
200607060456 METAR KSEA 060456Z 23008KT 10SM BKN041 BKN080 14/10 A3010 RMK AO2 SLP200 T01440100=
200607060356 METAR KSEA 060356Z 26009KT 10SM OVC039 15/10 A3009 RMK AO2 SLP197 T01500100=
200607060256 METAR KSEA 060256Z 25008KT 10SM BKN035 OVC080 16/11 A3007 RMK AO2 SLP188 BINOVC W T01610106 55000=
200607060156 METAR KSEA 060156Z 24006KT 10SM BKN037 BKN080 17/11 A3007 RMK AO2 SLP186 T01720111=
200607060056 METAR KSEA 060056Z 25008KT 10SM BKN031 BKN060 18/11 A3006 RMK AO2 SLP186 T01780106=
200607052356 METAR KSEA 052356Z 22009KT 10SM BKN031 BKN060 18/10 A3007 RMK AO2 SLP188 T01780100 10178 20133 58008=
200607052346 SPECI KSEA 052346Z 21009KT 10SM BKN031 BKN060 17/10 A3007 RMK AO2=
200607052346 SPECI KSEA 052346Z 21009KT 10SM BKN031 BKN060 17/10 A3007 RMK AO2=
200607052256 METAR KSEA 052256Z 21010KT 10SM OVC027 17/10 A3008 RMK AO2 SLP192 T01670100=
200607052156 METAR KSEA 052156Z 21008KT 10SM BKN023 OVC028 17/11 A3009 RMK AO2 SLP193 T01670106=
200607052056 METAR KSEA 052056Z 23005KT 10SM OVC021 16/10 A3009 RMK AO2 SLP197 T01560100 58002=
200607051956 METAR KSEA 051956Z 21008KT 10SM BKN019 OVC022 16/10 A3010 RMK AO2 SLP199 T01560100=
200607051856 METAR KSEA 051856Z 20007KT 10SM BKN017 OVC020 14/10 A3010 RMK AO2 SLP200 T01440100=
200607051756 METAR KSEA 051756Z 21008KT 10SM BKN015 OVC018 14/09 A3010 RMK AO2 SLP199 T01390094 10139 20117 58003=
200607051656 METAR KSEA 051656Z 24007KT 10SM BKN015 OVC018 13/09 A3011 RMK AO2 SLP200 T01330094=
200607051624 SPECI KSEA 051624Z 23005KT 10SM OVC015 13/09 A3011 RMK AO2=
200607051624 SPECI KSEA 051624Z 23005KT 10SM OVC015 13/09 A3011 RMK AO2=
200607051556 METAR KSEA 051556Z 23008KT 10SM FEW009 BKN011 OVC013 13/09 A3011 RMK AO2 SLP202 T01280094=
200607051520 SPECI KSEA 051520Z 21007KT 10SM SCT009 BKN011 OVC013 12/09 A3011 RMK AO2=
200607051520 SPECI KSEA 051520Z 21007KT 10SM SCT009 BKN011 OVC013 12/09 A3011 RMK AO2=
200607051456 METAR KSEA 051456Z 21007KT 10SM BKN009 BKN011 OVC013 12/09 A3011 RMK AO2 SLP201 T01170094 53010=
200607051447 SPECI KSEA 051447Z 22008KT 10SM BKN009 BKN011 OVC013 12/09 A3010 RMK AO2=
200607051447 SPECI KSEA 051447Z 22008KT 10SM BKN009 BKN011 OVC013 12/09 A3010 RMK AO2=
200607051439 SPECI KSEA 051439Z 23006KT 10SM SCT009 BKN012 OVC014 12/09 A3011=
200607051439 SPECI KSEA 051439Z 23006KT 10SM SCT009 BKN012 OVC014 12/09 A3011 RMK AO2=
200607051356 METAR KSEA 051356Z 21008KT 10SM BKN012 OVC023 12/09 A3009 RMK AO2 SLP196 T01170089=
200607051256 METAR KSEA 051256Z 19007KT 10SM BKN012 OVC023 12/09 A3009 RMK AO2 SLP194 T01170089=
200607051203 SPECI KSEA 051203Z 20009KT 10SM BKN012 BKN023 OVC026 12/09 A3008 RMK AO2=
200607051203 SPECI KSEA 051203Z 20009KT 10SM BKN012 BKN023 OVC026 12/09 A3008 RMK AO2=
200607051156 METAR KSEA 051156Z 21007KT 10SM SCT012 BKN023 OVC030 12/09 A3008 RMK AO2 SLP190 70002 T01220094 10139 20117 56003=
200607051103 SPECI KSEA 051103Z 23006KT 10SM FEW010 BKN023 OVC030 12/09 A3008 RMK AO2=
200607051103 SPECI KSEA 051103Z 23006KT 10SM FEW010 BKN023 OVC030 12/09 A3008 RMK AO2=
200607051056 METAR KSEA 051056Z 22007KT 10SM FEW010 SCT023 OVC030 12/09 A3008 RMK AO2 SLP191 T01170094=
200607050956 METAR KSEA 050956Z 23006KT 10SM SCT026 OVC030 12/09 A3008 RMK AO2 SLP192 T01220094=
200607050856 METAR KSEA 050856Z 23006KT 10SM FEW030 SCT120 BKN200 12/09 A3009 RMK AO2 SLP194 T01170094 50004=
200607050756 METAR KSEA 050756Z 23007KT 10SM FEW120 SCT200 12/10 A3009 RMK AO2 SLP196 T01220100 402390122=
200607050656 METAR KSEA 050656Z 23009KT 10SM FEW120 SCT200 13/10 A3008 RMK AO2 SLP193 T01280100=
200607050556 METAR KSEA 050556Z 22006KT 10SM SCT120 14/11 A3008 RMK AO2 SLP190 60001 T01390106 10239 20139 53008=
200607050456 METAR KSEA 050456Z 22006KT 10SM SCT120 SCT200 15/12 A3007 RMK AO2 SLP187 T01500117=
200607050356 METAR KSEA 050356Z 22008KT 10SM FEW040 SCT120 BKN200 17/12 A3006 RMK AO2 SLP183 CB DSNT NE T01670122=
200607050256 METAR KSEA 050256Z 25008KT 10SM FEW040CB SCT080 BKN200 19/14 A3005 RMK AO2 RAB15E53 SLP182 CB N-NE MOV N SH N P0000 60001 T01890139 53002=
200607050156 METAR KSEA 050156Z 22006KT 10SM SCT040CB BKN080 BKN200 19/14 A3004 RMK AO2 RAB21E55 SLP179 CB N-E MOV N SH N P0001 T01940144=
200607050122 SPECI KSEA 050122Z 27004KT 7SM -RA FEW050CB SCT075 BKN120 BKN200 21/14 A3004 RMK AO2 RAB21 CB NW MOV N CB E MOV N P0001=
200607050122 SPECI KSEA 050122Z 27004KT 7SM -RA FEW050CB SCT075 BKN120 BKN200 21/14 A3004 RMK AO2 RAB21 CB NW MOV N CB E MOV N P0001=
200607050056 METAR KSEA 050056Z 22005KT 10SM FEW040CB SCT120 BKN200 22/12 A3004 RMK AO2 SLP178 CB W MOV N VIRGA OHD T02170117=
200607042356 METAR KSEA 042356Z 27006KT 10SM FEW040 SCT120 BKN200 23/12 A3005 RMK AO2 SLP179 CB DSNT NE-E ACC ALQDS T02330117 10239 20144 57015=
200607042256 METAR KSEA 042256Z VRB05KT 10SM FEW040 SCT120 BKN200 23/12 A3006 RMK AO2 SLP182 CB DSNT E ACC ALQDS T02330122=
200607042156 METAR KSEA 042156Z 21007KT 10SM FEW040 SCT110 SCT200 21/12 A3008 RMK AO2 SLP190 CB DSNT E-SE T02110117=
200607042056 METAR KSEA 042056Z 24006KT 10SM FEW030 SCT200 21/12 A3009 RMK AO2 SLP195 TCU DSNT SE T02060122 58010=
200607041956 METAR KSEA 041956Z 25006KT 10SM FEW020 SCT250 19/12 A3010 RMK AO2 SLP200 T01890117=
200607041922 SPECI KSEA 041922Z 21006KT 10SM SCT013 SCT250 17/12 A3011 RMK AO2=
200607041922 SPECI KSEA 041922Z 21006KT 10SM SCT013 SCT250 17/12 A3011 RMK AO2=
200607041856 METAR KSEA 041856Z 23006KT 10SM BKN013 17/12 A3012 RMK AO2 SLP204 T01720117=
200607041814 SPECI KSEA 041814Z VRB05KT 10SM FEW007 SCT009 OVC011 17/12 A3012 RMK AO2 BINOVC OHD=
200607041814 SPECI KSEA 041814Z VRB05KT 10SM FEW007 SCT009 OVC011 17/12 A3012 RMK AO2 BINOVC OHD=
200607041756 METAR KSEA 041756Z 28003KT 10SM SCT007 BKN009 OVC011 16/12 A3012 RMK AO2 SLP205 BINOVC OHD 60001 T01560117 10156 20128 58000=
200607041656 METAR KSEA 041656Z 22004KT 10SM FEW004 BKN007 OVC009 14/11 A3013 RMK AO2 SLP209 T01390111=
200607041638 SPECI KSEA 041638Z 21005KT 10SM SCT004 BKN007 OVC009 13/11 A3014=
200607041638 SPECI KSEA 041638Z 21005KT 10SM SCT004 BKN007 OVC009 13/11 A3014 RMK AO2=
200607041556 METAR KSEA 041556Z 22007KT 10SM BKN004 OVC007 13/11 A3013 RMK AO2 SLP208 T01280111=
200607041506 SPECI KSEA 041506Z 26004KT 9SM BKN004 OVC007 14/12 A3012 RMK AO2=
200607041506 SPECI KSEA 041506Z 26004KT 9SM BKN004 OVC007 14/12 A3012 RMK AO2=
200607041456 METAR KSEA 041456Z 24006KT 8SM SCT004 BKN007 OVC050 14/12 A3012 RMK AO2 SLP204 BINOVC NE 60001 T01390122 53007=
200607041356 METAR KSEA 041356Z 26005KT 7SM SCT004 BKN009 BKN050 OVC130 13/12 A3011 RMK AO2 RAE28 SLP201 P0000 T01280117=
200607041342 SPECI KSEA 041342Z 33005KT 9SM BKN010 BKN050 BKN120 OVC200 13/12 A3010 RMK AO2 RAE28 P0000=
200607041342 SPECI KSEA 041342Z 33005KT 9SM BKN010 BKN050 BKN120 OVC200 13/12 A3010 RMK AO2 RAE28 P0000=
200607041256 METAR KSEA 041256Z 31011KT 10SM -RA SCT090 BKN120 OVC200 13/12 A3005 RMK AO2 RAB05E33B53 PRESFR SLP181 P0001 T01330122=
200607041156 METAR KSEA 041156Z 18004KT 10SM FEW100 SCT150 BKN200 14/11 A3010 RMK AO2 SLP197 T01390111 10178 20133 50003=
200607041056 METAR KSEA 041056Z 00000KT 10SM FEW200 14/11 A3011 RMK AO2 SLP199 T01390106=
200607040956 METAR KSEA 040956Z 25006KT 10SM FEW200 14/12 A3012 RMK AO2 SLP203 T01390117=
200607040856 METAR KSEA 040856Z 29005KT 10SM FEW200 14/12 A3009 RMK AO2 SLP194 T01390122 53004=
200607040756 METAR KSEA 040756Z 29005KT 10SM FEW200 14/12 A3008 RMK AO2 SLP190 T01440122 402610117=
200607040656 METAR KSEA 040656Z 28005KT 10SM FEW200 17/12 A3008 RMK AO2 SLP189 T01670117=
200607040556 METAR KSEA 040556Z 00000KT 10SM FEW200 18/11 A3008 RMK AO2 SLP191 T01780106 10256 20178 51009=
200607040456 METAR KSEA 040456Z 00000KT 10SM SCT200 19/11 A3007 RMK AO2 SLP188 T01940111=
200607040356 METAR KSEA 040356Z 29005KT 10SM SCT200 22/13 A3006 RMK AO2 SLP184 T02170128=
200607040256 METAR KSEA 040256Z 29004KT 10SM FEW040 SCT200 23/13 A3005 RMK AO2 SLP180 T02330133 55008=
200607040156 METAR KSEA 040156Z VRB04KT 10SM FEW040 SCT200 25/13 A3005 RMK AO2 SLP180 T02500133=
200607040056 METAR KSEA 040056Z 30005KT 10SM FEW040 25/13 A3006 RMK AO2 SLP185 T02500133=
200607032356 METAR KSEA 032356Z 28006KT 10SM FEW040 26/12 A3007 RMK AO2 SLP188 60000 T02560122 10261 20161 56016=
200607032256 METAR KSEA 032256Z 26007KT 220V300 10SM FEW040 24/12 A3009 RMK AO2 SLP194 T02440122=
200607032156 METAR KSEA 032156Z VRB04KT 10SM FEW040 23/12 A3010 RMK AO2 SLP198 P0000 T02280122=
200607032056 METAR KSEA 032056Z 27007KT 10SM FEW040 22/12 A3012 RMK AO2 SLP204 60000 T02220117 57010=
200607031956 METAR KSEA 031956Z VRB05KT 10SM FEW110 19/11 A3013 RMK AO2 SLP208 T01940111=
200607031856 METAR KSEA 031856Z 27006KT 10SM FEW012 SCT070 18/11 A3014 RMK AO2 RAB06E09 SLP211 P0000 T01830111=
200607031812 SPECI KSEA 031812Z 22007KT 10SM SCT009 SCT012 BKN040 17/11 A3015 RMK AO2 RAB06E09 P0000=
200607031812 SPECI KSEA 031812Z 22007KT 10SM SCT009 SCT012 BKN040 17/11 A3015 RMK AO2 RAB06E09 P0000=
200607031756 METAR KSEA 031756Z 23007KT 10SM FEW005 SCT007 BKN009 16/11 A3015 RMK AO2 SLP215 T01610106 10167 20117 51006=
200607031656 METAR KSEA 031656Z 22005KT 10SM FEW003 BKN005 OVC008 13/11 A3015 RMK AO2 SLP214 T01330106=
200607031636 SPECI KSEA 031636Z 23008KT 10SM SCT003 BKN005 OVC008 14/11 A3015 RMK AO2=
200607031636 SPECI KSEA 031636Z 23008KT 10SM SCT003 BKN005 OVC008 14/11 A3015 RMK AO2=
200607031556 METAR KSEA 031556Z 22008KT 10SM BKN003 OVC006 13/11 A3014 RMK AO2 SLP212 T01280106=
200607031456 METAR KSEA 031456Z 23008KT 3SM BR BKN003 OVC006 12/11 A3013 RMK AO2 SFC VIS 6 SLP208 T01220106 53012=
200607031356 METAR KSEA 031356Z 23008KT 3SM BR OVC003 12/11 A3012 RMK AO2 SFC VIS 5 SLP204 T01220106=
200607031256 METAR KSEA 031256Z 23006KT 3SM BR OVC003 12/11 A3011 RMK AO2 SFC VIS 6 SLP200 T01220106=
200607031246 SPECI KSEA 031246Z 22007KT 3SM BR OVC003 12/11 A3011 RMK AO2=
200607031246 SPECI KSEA 031246Z 22007KT 3SM BR OVC003 12/11 A3011 RMK AO2=
200607031156 METAR KSEA 031156Z 21008KT 10SM OVC003 12/11 A3010 RMK AO2 SLP197 T01170106 10183 20117 51016=
200607031114 SPECI KSEA 031114Z 21007KT 10SM OVC003 12/11 A3009 RMK AO2=
200607031114 SPECI KSEA 031114Z 21007KT 10SM OVC003 12/11 A3009 RMK AO2=
200607031056 METAR KSEA 031056Z 21006KT 10SM BKN005 12/11 A3009 RMK AO2 SLP192 T01220111=
200607031047 SPECI KSEA 031047Z 22007KT 10SM SCT005 12/11 A3008 RMK AO2=
200607031047 SPECI KSEA 031047Z 22007KT 10SM SCT005 12/11 A3008 RMK AO2=
200607030956 METAR KSEA 030956Z 20006KT 10SM CLR 13/11 A3007 RMK AO2 SLP186 T01330111=
200607030856 METAR KSEA 030856Z 21007KT 10SM CLR 14/12 A3005 RMK AO2 SLP181 T01440117 53010=
200607030756 METAR KSEA 030756Z 19005KT 10SM CLR 17/12 A3004 RMK AO2 SLP177 T01670117 402890117=
200607030656 METAR KSEA 030656Z 29003KT 10SM SCT030 SCT200 18/11 A3003 RMK AO2 SLP172 T01780111=
200607030556 METAR KSEA 030556Z 29004KT 10SM SCT030 SCT140 SCT200 18/11 A3002 RMK AO2 SLP170 T01830106 10289 20183 51016=
200607030456 METAR KSEA 030456Z 30005KT 10SM SCT030 SCT140 SCT200 21/11 A3001 RMK AO2 SLP166 T02060106=
200607030356 METAR KSEA 030356Z 31003KT 10SM FEW140 SCT200 22/10 A2999 RMK AO2 SLP160 T02220100=
200607030256 METAR KSEA 030256Z 31005KT 10SM FEW140 SCT200 26/09 A2997 RMK AO2 SLP154 T02610094 55002=
200607030156 METAR KSEA 030156Z 30006KT 10SM FEW140 SCT200 28/09 A2996 RMK AO2 SLP149 T02780094=
200607030056 METAR KSEA 030056Z 30008KT 10SM FEW045 SCT140 SCT200 28/08 A2997 RMK AO2 SLP152 T02830083=
200607022356 METAR KSEA 022356Z 35008KT 10SM FEW045 SCT140 29/07 A2998 RMK AO2 SLP156 T02890072 10289 20217 58013=
200607022256 METAR KSEA 022256Z 31008KT 10SM CLR 28/09 A2999 RMK AO2 SLP161 T02780094=
200607022156 METAR KSEA 022156Z 30009KT 10SM FEW150 28/09 A3001 RMK AO2 SLP165 T02780094=
200607022056 METAR KSEA 022056Z 29009KT 10SM FEW150 26/10 A3002 RMK AO2 SLP168 T02610100 58010=
200607021956 METAR KSEA 021956Z 29008KT 10SM FEW130 24/12 A3003 RMK AO2 SLP171 CAP CLD OVR MT RAINIER T02440117=
200607021856 METAR KSEA 021856Z 31007KT 10SM FEW130 23/12 A3004 RMK AO2 SLP176 CAP CLD OVR MT RAINIER T02280117=
200607021756 METAR KSEA 021756Z 30005KT 10SM FEW130 22/13 A3005 RMK AO2 SLP179 CAP CLD OVR MT RAINIER T02170128 10222 20117 58006=
200607021656 METAR KSEA 021656Z 28006KT 10SM FEW007 18/12 A3007 RMK AO2 SLP185 T01830122=
200607021556 METAR KSEA 021556Z 31005KT 10SM FEW007 17/12 A3007 RMK AO2 SLP187 T01720117=
200607021543 SPECI KSEA 021543Z 29004KT 10SM FEW007 17/12 A3007 RMK AO2=
200607021543 SPECI KSEA 021543Z 29004KT 10SM FEW007 17/12 A3007 RMK AO2=
200607021456 METAR KSEA 021456Z 28004KT 10SM FEW040 16/12 A3007 RMK AO2 SLP185 T01610117 50005=
200607021356 METAR KSEA 021356Z 30003KT 10SM CLR 13/12 A3007 RMK AO2 SLP187 T01330117=
200607021256 METAR KSEA 021256Z 00000KT 8SM CLR 12/11 A3007 RMK AO2 SLP186 T01220111=
200607021156 METAR KSEA 021156Z 00000KT 10SM CLR 12/11 A3005 RMK AO2 SLP180 T01170106 10200 20117 53006=
200607021056 METAR KSEA 021056Z 00000KT 10SM CLR 13/11 A3005 RMK AO2 SLP178 T01280106=
200607020956 METAR KSEA 020956Z 00000KT 10SM CLR 16/09 A3003 RMK AO2 SLP174 T01560089=
200607020856 METAR KSEA 020856Z 35006KT 10SM CLR 17/09 A3003 RMK AO2 SLP174 T01670089 55001=
200607020756 METAR KSEA 020756Z 03007KT 10SM CLR 18/07 A3003 RMK AO2 SLP173 T01830072 402830122=
200607020656 METAR KSEA 020656Z 04012KT 10SM CLR 19/06 A3002 RMK AO2 SLP171 T01940061=
200607020556 METAR KSEA 020556Z 36006KT 10SM CLR 19/06 A3003 RMK AO2 SLP175 T01940061 10283 20194 51007=
200607020456 METAR KSEA 020456Z 36005KT 10SM CLR 20/06 A3003 RMK AO2 SLP174 T02000061=
200607020356 METAR KSEA 020356Z 33005KT 10SM CLR 22/06 A3002 RMK AO2 SLP170 T02220061=
200607020256 METAR KSEA 020256Z 35007KT 10SM CLR 25/06 A3001 RMK AO2 SLP168 T02500056 56009=
200607020156 METAR KSEA 020156Z 32006KT 10SM CLR 27/06 A3001 RMK AO2 SLP168 T02670061=
200607020056 METAR KSEA 020056Z 35007KT 10SM CLR 27/07 A3002 RMK AO2 SLP171 T02720072=
200607012356 METAR KSEA 012356Z 29009KT 10SM CLR 28/08 A3004 RMK AO2 SLP177 T02780083 10283 20194 57016=
200607012256 METAR KSEA 012256Z 29008KT 10SM CLR 28/08 A3005 RMK AO2 SLP181 T02780083=
200607012156 METAR KSEA 012156Z VRB05KT 10SM CLR 26/08 A3007 RMK AO2 SLP188 T02610083=
200607012056 METAR KSEA 012056Z 26008KT 10SM CLR 25/12 A3009 RMK AO2 SLP193 T02500117 58015=
200607011956 METAR KSEA 011956Z VRB06KT 10SM CLR 23/11 A3011 RMK AO2 SLP200 T02280111=
200607011856 METAR KSEA 011856Z VRB05KT 10SM CLR 22/10 A3012 RMK AO2 SLP205 T02170100=
200607011756 METAR KSEA 011756Z VRB04KT 10SM CLR 20/09 A3013 RMK AO2 SLP208 T02000094 10200 20122 58001=
200607011656 METAR KSEA 011656Z VRB04KT 10SM CLR 18/10 A3014 RMK AO2 SLP212 T01780100=
200607011556 METAR KSEA 011556Z 22005KT 10SM CLR 16/11 A3014 RMK AO2 SLP212 T01610106=
200607011456 METAR KSEA 011456Z VRB04KT 10SM CLR 15/11 A3013 RMK AO2 SLP209 T01500111 51012=
200607011356 METAR KSEA 011356Z 19006KT 10SM CLR 13/11 A3013 RMK AO2 SLP208 T01280106=
200607011256 METAR KSEA 011256Z 22004KT 10SM CLR 13/11 A3012 RMK AO2 SLP203 T01280111=
200607011156 METAR KSEA 011156Z 20004KT 10SM CLR 13/11 A3010 RMK AO2 SLP197 T01280106 10200 20128 53004=
200607011056 METAR KSEA 011056Z 00000KT 10SM CLR 13/10 A3009 RMK AO2 SLP194 T01330100=
200607010956 METAR KSEA 010956Z 00000KT 10SM CLR 14/09 A3009 RMK AO2 SLP194 T01440094=
200607010856 METAR KSEA 010856Z 29004KT 10SM CLR 16/09 A3009 RMK AO2 SLP193 T01560094 51008=
200607010756 METAR KSEA 010756Z 30004KT 10SM CLR 16/10 A3008 RMK AO2 SLP191 T01560100 402940139=
200607010656 METAR KSEA 010656Z 28003KT 10SM CLR 17/11 A3008 RMK AO2 SLP189 T01670106=
200607010556 METAR KSEA 010556Z 00000KT 10SM FEW250 20/07 A3006 RMK AO2 SLP185 T02000072 10294 20194 53009=
200607010456 METAR KSEA 010456Z 31003KT 10SM FEW250 19/09 A3005 RMK AO2 SLP180 T01940089=
200607010356 METAR KSEA 010356Z 34007KT 10SM FEW250 23/07 A3004 RMK AO2 SLP177 T02280072=
200607010256 METAR KSEA 010256Z 34007KT 10SM FEW250 26/08 A3004 RMK AO2 SLP175 T02610083 55005=
200607010156 METAR KSEA 010156Z 29005KT 10SM FEW250 28/10 A3003 RMK AO2 SLP173 T02780100=
200607010056 METAR KSEA 010056Z 31006KT 10SM FEW250 28/11 A3004 RMK AO2 SLP178 T02830106=

# No short TAF reports from KSEA in databse.

###################################
#  large TAF from KSEA
###################################
200607312320 TAF KSEA 312320Z 010024 32010KT P6SM SCT040 SCT070 FM0600 02006KT
                       P6SM SKC FM1200 VRB04KT P6SM SCT020 BKN200
                       FM1800 32008KT P6SM SCT030 BKN200=
200607311720 TAF KSEA 311720Z 311818 02007KT P6SM SCT030 FM0600 04006KT P6SM
                       SKC=
200607311411 KSEA 311411Z 311412 05006KT P6SM SCT030 BKN050 FM1600 02004KT P6SM
                       SCT050 FM1800 30006KT P6SM SCT070 FM0200
                       34006KT P6SM SKC=
200607311131 TAF KSEA 311131Z 311212 05006KT P6SM SCT027 SCT050 OVC070
                      TEMPO 1216 VRB03KT BKN025 FM1600 02004KT
                       P6SM SCT035 FM1800 30006KT P6SM SCT070 FM0200
                       34006KT P6SM SKC=
200607310522 TAF KSEA 310522Z 310606 03005KT P6SM FEW050 BKN070 BKN090
                      TEMPO 1216 VRB03KT BKN025 FM1600 20004KT
                       P6SM SCT035 FM1800 30006KT P6SM SCT070=
200607302359 KSEA 302359Z 310024 31007KT P6SM VCSH SCT035 SCT045 BKN070
                      TEMPO 0002 -SHRA BKN035 FM0400 33006KT P6SM
                       SCT070 FM0600 06004KT P6SM FEW080
                      TEMPO 1216 VRB03KT BKN025 FM1600 20004KT
                       P6SM SCT035 FM1800 30006KT P6SM SCT070=
200607302320 TAF KSEA 302320Z 310024 22012KT P6SM VCSH SCT035 SCT045 BKN070
                       TEMPO 0002 -SHRA BKN035 FM0400 23006KT P6SM
                       SCT070 FM0600 06004KT P6SM FEW080
                      TEMPO 1216 VRB03KT BKN025 FM1600 20004KT
                       P6SM SCT035 FM1800 30006KT P6SM SCT070=
200607302054 KSEA 302054Z 302118 21014KT P6SM VCSH SCT035 SCT045 BKN060
                      TEMPO 2123 -SHRA SCT025 BKN045 FM0300 24007KT
                       P6SM SCT045 SCT070 FM0600 06004KT P6SM FEW080
                       TEMPO 1216 VRB03KT BKN025 FM1600 20004KT
                       P6SM SCT035=
200607301728 TAF KSEA 301728Z 301818 22012KT P6SM VCSH SCT025 SCT035 BKN060
                       TEMPO 1819 -SHRA BKN025 FM2000 25010KT P6SM
                       VCSH BKN045 BKN070 FM0400 29006KT P6SM SCT070
                       FM0600 06004KT P6SM FEW080
                      TEMPO 1216 VRB03KT BKN025 FM1600 20004KT
                       P6SM SCT035=
200607301657 KSEA 301657Z 301712 22012KT P6SM VCSH SCT025 SCT035 BKN060
                      TEMPO 1719 -SHRA BKN025 FM2000 23010KT P6SM
                       VCSH BKN045 BKN200 FM0300 32006KT P6SM SCT200=
200607301602 KSEA 301602Z 301612 22012KT P6SM VCSH SCT030 BKN060 FM2100 23010KT
                       P6SM VCSH BKN045 BKN200 FM0300 32006KT P6SM
                       SCT200=
200607301134 TAF KSEA 301134Z 301212 22009KT P6SM VCSH BKN060 OVC080
                      TEMPO 1216 -RA OVC050 FM2100 23010KT P6SM
                       BKN045 BKN200 FM0300 32006KT P6SM SCT200=
200607300538 TAF KSEA 300538Z 300606 23008KT P6SM SCT050 OVC080 FM1200 19007KT
                       P6SM VCSH SCT025 OVC050 FM2100 23010KT P6SM
                       BKN045=
200607292320 TAF KSEA 292320Z 300024 22008KT P6SM SCT040 BKN060 FM0600 19005KT
                       P6SM BKN045 BKN120 FM0900 19007KT P6SM BKN025
                       OVC035
                      TEMPO 1317 -SHRA BKN025 FM2100 26010KT P6SM
                       BKN045=
200607292034 KSEA 292034Z 292118 23010KT P6SM SCT035 BKN045 FM0600 19005KT P6SM
                       BKN045 OVC120 FM0900 19007KT P6SM BKN025
                       OVC035
                      TEMPO 1317 -SHRA BKN025=
200607291720 TAF KSEA 291720Z 291818 22010KT P6SM SCT025 OVC035
                      TEMPO 1819 BKN025 FM2100 23010KT P6SM SCT035
                       FM0300 25009KT P6SM BKN200 FM0600 19005KT
                       P6SM BKN080 OVC120 FM0900 19007KT P6SM BKN025
                       OVC035
                      TEMPO 1317 -SHRA BKN025=
200607291458 KSEA 291458Z 291512 19009KT P6SM SCT018 BKN025
                      TEMPO 1516 BKN018 FM1800 22009KT P6SM BKN035
                       FM2000 24010KT P6SM SCT035 FM0300 31005KT
                       P6SM BKN200 FM0800 19005KT P6SM BKN080 OVC120=
200607291131 TAF KSEA 291131Z 291212 18009KT P6SM BKN019 OVC045 FM1600 20005KT
                       P6SM OVC045 FM2000 24010KT P6SM SCT035 FM0300
                       31005KT P6SM BKN200 FM0800 19005KT P6SM
                       BKN080 OVC120=
200607291032 KSEA 291032Z 291106 19009KT P6SM BKN019 OVC045 FM1300 20005KT P6SM
                       OVC030 FM2000 24010KT P6SM SCT035=
200607290538 TAF KSEA 290538Z 290606 22008KT P6SM SCT040 BKN200 FM0900 21006KT
                       P6SM BKN035 FM1300 20005KT P6SM OVC030 FM2000
                       24010KT P6SM SCT035=
200607282320 TAF KSEA 282320Z 290024 24010KT P6SM SCT035
                      TEMPO 0305 34010KT FM0800 21006KT P6SM BKN025
                       FM1200 20005KT P6SM OVC015 FM1600 20008KT
                       P6SM BKN025 OVC035 FM1900 24008KT P6SM BKN035
                       FM2000 25011KT P6SM SCT035=
200607282004 KSEA 282004Z 282018 23012KT P6SM SCT035
                      TEMPO 2022 BKN035 FM2200 29010KT P6SM SCT040
                       FM0600 21006KT P6SM BKN025 FM1000 20006KT
                       P6SM OVC015 FM1600 20008KT P6SM BKN025 OVC035=
200607281720 TAF KSEA 281720Z 281818 21010KT P6SM BKN025 OVC040 FM1900 23010KT
                       P6SM BKN030 OVC045 FM2300 29008KT P6SM SCT030
                       SCT050 FM0600 21006KT P6SM BKN025 FM1000
                       20006KT P6SM OVC015 FM1600 20008KT P6SM
                       BKN025 OVC035=
200607281405 KSEA 281405Z 281412 21008KT P6SM OVC015 FM1700 23010KT P6SM OVC025
                       FM2100 25010KT P6SM BKN030 OVC045 FM2300
                       29008KT P6SM SCT030 SCT050 FM0600 21006KT
                       P6SM BKN025=
200607281138 TAF KSEA 281138Z 281212 22008KT P6SM BKN013 BKN018 OVC045
                      TEMPO 1216 OVC012 FM1800 23010KT P6SM SCT020
                       BKN045 FM2100 25008KT P6SM SCT050 FM0100
                       29006KT P6SM SCT050 FM1000 21006KT P6SM
                       OVC020=
200607281014 KSEA 281014Z 281006 23007KT P6SM BKN017 OVC050
                      TEMPO 1216 OVC014 FM1900 25008KT P6SM SCT020=
200607280540 TAF KSEA 280540Z 280606 21011KT P6SM SCT050 BKN200 FM1200 22006KT
                       P6SM BKN012 FM1900 25008KT P6SM SCT020=
200607272344 TAF KSEA 272344Z 280024 21008KT P6SM SKC FM0300 03006KT P6SM SKC
                       FM1100 23006KT P6SM BKN020 FM1900 29008KT
                       P6SM FEW020=
200607271731 TAF KSEA 271731Z 271818 29008KT P6SM SKC FM0300 03006KT P6SM SKC
                       FM1100 23006KT P6SM BKN020=
200607271142 TAF KSEA 271142Z 271212 35007KT P6SM SCT005 SCT050
                      TEMPO 1316 P6SM BKN005 BKN050 FM1600 24006KT
                       P6SM SCT009 FM1800 29008KT P6SM FEW020 FM1100
                       23006KT P6SM BKN007=
200607270524 TAF KSEA 270524Z 270606 02008KT P6SM SKC FM1300 22005KT P6SM BKN005
                       FM1600 24006KT P6SM SCT009 FM1800 29008KT
                       P6SM FEW020=
200607262326 TAF KSEA 262326Z 270024 28008KT P6SM SKC FM1000 VRB03KT P6SM SKC
                       FM1400 VRB03KT P6SM BKN004 FM1900 29008KT
                       P6SM SKC=
200607261720 TAF KSEA 261720Z 261818 VRB03KT P6SM SKC FM2000 30006KT P6SM SKC
                       FM2300 34009KT P6SM SKC FM1000 VRB03KT P6SM
                       SKC FM1400 VRB03KT P6SM BKN004=
200607261412 KSEA 261412Z 261412 VRB04KT P6SM SCT004
                      TEMPO 1517 1SM BR BKN002 FM1800 32006KT P6SM
                       SCT008 FM1900 32009KT P6SM SKC=
200607261122 TAF KSEA 261122Z 261212 VRB04KT P6SM SCT004
                      TEMPO 1214 BKN004 FM1400 VRB04KT P6SM OVC004
                       FM1800 32006KT P6SM BKN008 FM1900 32009KT
                       P6SM SKC=
200607260530 TAF KSEA 260530Z 260606 VRB04KT P6SM SKC FM1200 21006KT P6SM SCT008
                       TEMPO 1214 BKN008 FM1400 21006KT P6SM OVC008
                       TEMPO 1416 BKN004 OVC008 FM1900 26006KT
                       P6SM SCT015 FM2000 32008KT P6SM SKC=
200607252323 TAF KSEA 252323Z 260024 29006KT P6SM SCT200 FM0600 22005KT P6SM
                       SKC FM1200 21006KT P6SM BKN008 OVC012 FM1600
                       23006KT P6SM BKN012 OVC018 FM1900 25006KT
                       P6SM SCT020 FM2100 31008KT P6SM SKC=
200607251723 TAF KSEA 251723Z 251818 23006KT P6SM BKN012 OVC018
                      TEMPO 1920 SCT012 SCT018 FM2000 30008KT P6SM
                       SKC FM0600 22005KT P6SM SKC FM1200 21007KT
                       P6SM BKN008 OVC012 FM1600 23008KT P6SM BKN012
                       OVC018=
200607251543 KSEA 251543Z 251612 22006KT P6SM BKN005 OVC010
                      TEMPO 1617 SCT005 OVC010 FM1700 23006KT P6SM
                       BKN012 BKN018 FM1900 30008KT P6SM SKC FM0600
                       VRB03KT P6SM SKC=
200607251123 TAF KSEA 251123Z 251212 23006KT P6SM SCT004
                      TEMPO 1317 BKN004 FM1800 27006KT P6SM FEW008
                       FM1900 30008KT P6SM SKC FM0600 VRB03KT P6SM
                       SKC=
200607250530 TAF KSEA 250530Z 250606 35006KT P6SM SKC FM0900 24005KT P6SM SKC
                       FM1400 20005KT P6SM SCT004 FM1800 30009KT
                       P6SM SKC=
200607242335 TAF KSEA 242335Z 250024 35008KT P6SM FEW070 FM0500 02006KT P6SM
                       SKC FM0800 23005KT P6SM SKC FM2000 30010KT
                       P6SM SKC=
200607241725 TAF KSEA 241725Z 241818 35010KT P6SM SKC FM0500 02006KT P6SM SKC
                       FM0800 23005KT P6SM SKC FM1700 30010KT P6SM
                       SKC=
200607241136 TAF KSEA 241136Z 241212 03006KT P6SM SKC FM1400 VRB03KT P6SM SKC
                       FM2000 30010KT P6SM SKC FM0800 23005KT P6SM
                       SKC=
200607240522 TAF KSEA 240522Z 240606 05007KT P6SM SKC FM1000 VRB05KT P6SM SKC
                       FM1200 23006KT P6SM SKC FM2000 30010KT P6SM
                       SKC=
200607232321 TAF KSEA 232321Z 240024 31010KT P6SM SKC FM0400 02008KT P6SM SKC
                       FM1000 VRB05KT P6SM SKC FM1200 23006KT P6SM
                       SKC FM2000 30010KT P6SM SKC=
200607231720 TAF KSEA 231720Z 231818 34008KT P6SM SKC FM0400 02006KT P6SM SKC
                       FM1000 23006KT P6SM SKC=
200607231120 TAF KSEA 231120Z 231212 02004KT P6SM SKC FM1800 32009KT P6SM SKC
                       FM0400 01007KT P6SM SKC FM1000 23006KT P6SM
                       SKC=
200607230523 TAF KSEA 230523Z 230606 01006KT P6SM SKC FM1100 VRB04KT P6SM SKC
                       FM1900 31008KT P6SM SKC=
200607222329 TAF KSEA 222329Z 230024 34007KT P6SM BKN250 FM0300 03005KT P6SM
                       SCT250 FM1100 VRB04KT P6SM SKC FM1900 31008KT
                       P6SM SKC=
200607221720 TAF KSEA 221720Z 221818 34005KT P6SM SCT120 BKN250 FM2300 35008KT
                       P6SM SCT250 FM1100 VRB04KT P6SM SKC=
200607221141 TAF KSEA 221141Z 221212 00000KT P6SM BKN200 FM1800 33007KT P6SM
                       SCT250 FM0400 02006KT P6SM SKC=
200607220530 TAF KSEA 220530Z 220606 02005KT P6SM BKN220 FM1800 34008KT P6SM
                       SCT250=
200607212322 TAF KSEA 212322Z 220024 34008KT P6SM SKC FM0500 02004KT P6SM BKN250
                       FM1800 34008KT P6SM SCT250=
200607211720 TAF KSEA 211720Z 211818 02006KT P6SM SKC FM1900 34008KT P6SM SKC
                       FM0500 02004KT P6SM SCT250=
200607211120 TAF KSEA 211120Z 211212 05006KT P6SM SKC FM1900 34008KT P6SM SKC
                       FM0500 02004KT P6SM SKC=
200607210525 TAF KSEA 210525Z 210606 02006KT P6SM SKC FM1900 34008KT P6SM SKC=
200607202334 TAF KSEA 202334Z 210024 33008KT P6SM SKC FM0400 02006KT P6SM SKC
                       FM1900 34008KT P6SM SKC=
200607201730 TAF KSEA 201730Z 201818 33008KT P6SM SKC FM0400 02006KT P6SM SKC=
200607201128 TAF KSEA 201128Z 201212 02006KT P6SM SKC FM1900 32008KT P6SM SKC
                       FM0400 02006KT P6SM SKC=
200607200521 TAF KSEA 200521Z 200606 02006KT P6SM SKC FM1900 32008KT P6SM SKC=
200607192326 TAF KSEA 192326Z 200024 33006KT P6SM SKC FM0600 01006KT P6SM SCT250
                       FM1900 32008KT P6SM SKC=
200607191723 TAF KSEA 191723Z 191818 33006KT P6SM SCT120 BKN250 FM0200 01006KT
                       P6SM BKN250 FM1700 29006KT P6SM SCT250=
200607191131 TAF KSEA 191131Z 191212 04004KT P6SM SKC FM1900 33008KT P6SM SCT120
                       BKN200 FM0200 01006KT P6SM BKN250=
200607190520 TAF KSEA 190520Z 190606 36006KT P6SM SCT200 FM1900 33008KT P6SM
                       SCT120 BKN200=
200607182338 TAF KSEA 182338Z 190024 32010KT P6SM SCT045 BKN200 FM0600 01006KT
                       P6SM SCT200 FM1900 33008KT P6SM BKN120=
200607181738 TAF KSEA 181738Z 181818 34006KT P6SM SCT040 FM2300 34010KT P6SM
                       SKC FM0600 01006KT P6SM BKN250=
200607181138 TAF KSEA 181138Z 181212 04005KT P6SM SCT045
                      TEMPO 1216 SCT025 BKN045 FM1600 VRB04KT P6SM
                       SCT025 BKN040 FM2000 32006KT P6SM SCT045
                       SCT250 FM0100 35010KT P6SM SCT050 BKN250
                       FM0500 03006KT P6SM SCT250=
200607180539 TAF KSEA 180539Z 180606 02009KT P6SM BKN050 BKN100 FM1000 VRB05KT
                       P6SM SCT045
                      TEMPO 1014 BKN045 FM1400 19006KT P6SM SCT020
                       BKN040 FM1900 33008KT P6SM SCT045 SCT250
                       FM0200 35010KT P6SM SCT050 BKN250=
200607172322 TAF KSEA 172322Z 180024 33008KT P6SM SCT040 FM1000 19006KT P6SM
                       SCT015 FM1200 19006KT P6SM OVC015 FM1800
                       VRB03KT P6SM BKN022 FM1900 33008KT P6SM
                       SKC=
200607171735 TAF KSEA 171735Z 171818 VRB03KT P6SM BKN022 OVC030 FM2000 VRB03KT
                       P6SM BKN025 FM2100 24006KT P6SM SKC FM0000
                       33008KT P6SM SKC FM1000 19006KT P6SM SCT015
                       FM1200 19006KT P6SM OVC015=
200607171620 KSEA 171620Z 171612 22004KT P6SM OVC016 FM1900 22004KT P6SM BKN020
                       FM2100 28008KT P6SM SKC FM0000 30010KT P6SM
                       SKC FM1000 19006KT P6SM SCT013=
200607171309 KSEA 171309Z 171312 20004KT P6SM BKN015 BKN040
                      TEMPO 1315 SCT020 BKN040 FM1700 21006KT P6SM
                       SCT020 FM2100 28008KT P6SM SKC FM0000 30010KT
                       P6SM SKC FM1000 19006KT P6SM SCT013=
200607171224 KSEA 171224Z 171212 20004KT P6SM BKN020
                      TEMPO 1214 SCT020 FM1700 21006KT P6SM SCT025
                       FM2100 28008KT P6SM SKC FM0000 30010KT P6SM
                       SKC FM1000 19006KT P6SM SCT013=
200607171141 TAF KSEA 171141Z 171212 25003KT P6SM SCT009 FM1600 23006KT P6SM
                       SKC FM2100 28008KT P6SM SKC FM0000 30010KT
                       P6SM SKC FM1000 19006KT P6SM SCT013=
200607170537 TAF KSEA 170537Z 170606 35006KT P6SM SKC FM1000 23005KT P6SM SKC
                       FM1300 22006KT P6SM SCT009 FM1600 23006KT
                       P6SM SKC FM2100 28008KT P6SM SKC FM0000
                       30010KT P6SM SKC=
200607162337 TAF KSEA 162337Z 170024 31006KT P6SM SKC=
200607161720 TAF KSEA 161720Z 161818 34007KT P6SM SKC FM0000 35009KT P6SM SKC=
200607161129 TAF KSEA 161129Z 161212 04010KT P6SM SKC FM1800 32007KT P6SM SKC
                       FM0000 35009KT P6SM SKC=
200607160520 TAF KSEA 160520Z 160606 03009KT P6SM SKC FM1200 01004KT P6SM SKC
                       FM1800 32007KT P6SM SKC FM0000 35009KT P6SM
                       SKC=
200607152329 TAF KSEA 152329Z 160024 33008KT P6SM SCT040 FM0300 33007KT P6SM
                       SKC FM1200 00000KT P6SM SCT012 FM1500 32007KT
                       P6SM SKC=
200607151725 TAF KSEA 151725Z 151818 01009KT P6SM SCT035 BKN060 FM2000 30007KT
                       P6SM SCT080 FM0100 35008KT P6SM SKC FM1200
                       00000KT P6SM SCT012=
200607151325 KSEA 151325Z 151312 03006KT P6SM SCT040 BKN060
                      TEMPO 1316 BKN040 BKN060 FM1900 29005KT P6SM
                       SCT080 FM2200 30007KT P6SM SCT080 FM0100
                       35008KT P6SM SKC=
200607151130 TAF KSEA 151130Z 151212 03006KT P6SM BKN060 FM1400 VRB05KT P6SM
                       SCT015 BKN060 FM1900 29005KT P6SM SCT080
                       FM2200 30007KT P6SM SCT080 FM0100 35008KT
                       P6SM SKC=
200607150534 TAF KSEA 150534Z 150606 02006KT P6SM SCT060 FM1100 22004KT P6SM
                       SCT015 SCT200 FM1400 21005KT P6SM BKN015
                       FM1600 23005KT P6SM SCT020 FM1900 25005KT
                       P6SM SCT080 FM2200 29007KT P6SM SCT080=
200607150035 TAF AMD KSEA 150035Z 150124 24010KT P6SM SCT080 FM0130 35013KT
                       P6SM SCT080 FM0300 01008KT P6SM SCT200 FM1200
                       22004KT P6SM SCT012 SCT200 FM1600 27006KT
                       P6SM SCT200=
200607142324 TAF KSEA 142324Z 150024 26012KT P6SM SCT080 FM0300 33008KT P6SM
                       SCT200 FM1200 22004KT P6SM SCT012 SCT200
                       FM1600 27006KT P6SM SCT200=
200607142300 KSEA 150035Z 150124 24010KT P6SM SCT080 FM0130 35013KT P6SM SCT080
                       FM0300 01008KT P6SM SCT200 FM1200 22004KT
                       P6SM SCT012 SCT200 FM1600 27006KT P6SM SCT200=
200607141729 TAF KSEA 141729Z 141818 20007KT P6SM BKN070 FM2200 23007KT P6SM
                       SCT080 FM0300 33006KT P6SM SCT200 FM1200
                       22004KT P6SM SCT012 SCT200=
200607141120 TAF KSEA 141120Z 141212 19005KT P6SM BKN030 OVC060
                      TEMPO 1418 SCT030 BKN070 FM1800 21007KT P6SM
                       SCT040 BKN070 FM2200 23007KT P6SM SCT050
                       BKN100=
200607140520 TAF KSEA 140520Z 140606 18007KT P6SM VCSH SCT020 BKN035 OVC070
                       TEMPO 1216 BKN020 OVC035 FM2100 23007KT
                       P6SM SCT040 BKN100=
200607140259 TAF AMD KSEA 140259Z 140324 VRB04KT P6SM VCSH BKN040 OVC080
                      TEMPO 1216 BKN015 OVC030 FM1800 23006KT P6SM
                       SCT040 BKN120=
200607132320 TAF KSEA 132320Z 140024 VRB03KT P6SM VCSH SCT030 BKN120
                      TEMPO 0002 -RA BKN030 OVC100 FM0400 18005KT
                       P6SM SCT035 BKN120 FM1100 19005KT P6SM BKN015
                       FM1800 23006KT P6SM SCT200=
200607132300 KSEA 140259Z 140324 VRB04KT P6SM VCSH BKN040 OVC080
                      TEMPO 1216 BKN015 OVC030 FM1800 23006KT P6SM
                       SCT040 BKN120=
200607131727 TAF KSEA 131727Z 131818 19007KT P6SM SCT025 OVC040 FM2100 22007KT
                       P6SM SCT040 BKN120 FM1100 19005KT P6SM BKN015=
200607131125 TAF KSEA 131125Z 131212 18008KT P6SM SCT030 SCT060 SCT120
                      TEMPO 1216 BKN030 BKN060 FM1600 22007KT P6SM
                       BKN040 BKN120
                      TEMPO 2024 SCT050 BKN120=
200607130901 KSEA 130901Z 130906 21008KT P6SM SCT030
                      TEMPO 0912 BKN030 FM1200 18008KT P6SM BKN025
                       FM1800 VRB04KT P6SM BKN035 FM2100 27007KT
                       P6SM SCT040=
200607130520 TAF KSEA 130520Z 130606 22010KT P6SM SCT025 SCT060 SCT120
                      TEMPO 0609 BKN025 FM0900 18007KT P6SM BKN020
                       TEMPO 1115 OVC015 FM1800 VRB04KT P6SM BKN035
                       FM2100 27007KT P6SM SCT040=
200607130411 TAF AMD KSEA 130411Z 130424 22012KT P6SM BKN025
                      TEMPO 0406 SCT030 SCT060 FM1100 18007KT P6SM
                       OVC015 FM1500 18007KT P6SM BKN020 FM1800
                       VRB04KT P6SM BKN035 FM2100 27007KT P6SM
                       SCT040=
200607130156 KSEA 130156Z 130224 22012KT P6SM VCSH SCT020 BKN030 FM0400 21010KT
                       P6SM VCSH SCT025 BKN050 FM0900 19006KT P6SM
                       VCSH SCT015 BKN025 FM1300 18005KT P6SM SCT010
                       BKN015 FM1700 19006KT P6SM SCT018 BKN030
                       FM2000 23007KT P6SM SCT030 BKN050=
200607122340 TAF KSEA 122340Z 130024 22012KT P6SM SCT020 BKN030 OVC060
                      TEMPO 0004 5SM -SHRA SCT012 BKN020 OVC030
                       FM0400 21010KT P6SM VCSH SCT025 BKN050 FM0900
                       19006KT P6SM VCSH SCT015 BKN025 FM1300 18005KT
                       P6SM SCT010 BKN015 FM1700 19006KT P6SM SCT018
                       BKN030 FM2000 23007KT P6SM SCT030 BKN050=
200607122300 KSEA 130411Z 130424 22012KT P6SM BKN025
                      TEMPO 0406 SCT030 SCT060 FM1100 18007KT P6SM
                       OVC015 FM1500 18007KT P6SM BKN020 FM1800
                       VRB04KT P6SM BKN035 FM2100 27007KT P6SM
                       SCT040=
200607122143 KSEA 122143Z 122218 21010KT P6SM SCT015 OVC025
                      TEMPO 2202 4SM -SHRA BR SCT007 BKN015 OVC025
                       FM0400 22008KT P6SM VCSH SCT025 BKN050 FM1000
                       19006KT P6SM SCT018 BKN030 FM1400 18005KT
                       P6SM SCT012 BKN018 FM1700 19006KT P6SM SCT018
                       BKN030=
200607121904 KSEA 121904Z 121918 19008KT 3SM -RA BR SCT009 BKN012 OVC020 FM2300
                       21011KT 6SM -SHRA SCT015 BKN025 FM0400 22008KT
                       P6SM VCSH SCT025 BKN050 FM1000 19006KT P6SM
                       SCT018 BKN030 FM1400 18005KT P6SM SCT012
                       BKN018 FM1700 19006KT P6SM SCT018 BKN030=
200607121741 TAF KSEA 121741Z 121818 19008KT 6SM -RA SCT015 OVC025
                      TEMPO 1923 3SM RA BR SCT009 BKN012 OVC020
                       FM2300 21011KT 6SM -SHRA SCT020 BKN035 FM0400
                       22008KT P6SM VCSH SCT035 BKN050 FM1000 19006KT
                       P6SM SCT018 BKN030 FM1400 18005KT P6SM SCT012
                       BKN018 FM1700 19006KT P6SM SCT018 BKN030=
200607121305 KSEA 121305Z 121312 18006KT P6SM SCT025 BKN035 OVC045
                      TEMPO 1316 -SHRA BKN025 OVC035 FM1600 18008KT
                       P6SM BKN025 OVC040
                      TEMPO 1620 -SHRA BKN018 OVC040 FM2100 21012G20KT
                       P6SM VCSH SCT025 BKN040 FM1000 18008KT P6SM
                       BKN025=
200607121300 KSEA 121300Z 121312 18006KT P6SM SCT025 BKN035 OVC045
                      TEMPO 1316 -SHRA FM1600 18008KT P6SM BKN025
                       OVC040
                      TEMPO 1620 -SHRA BKN018 OVC040 FM2100 21012G20KT
                       P6SM VCSH SCT025 BKN040 FM1000 18008KT P6SM
                       BKN025=
200607121120 TAF KSEA 121120Z 121212 18008KT P6SM VCSH SCT025 OVC050
                      TEMPO 1620 -SHRA BKN025 OVC040 FM2100 21012G20KT
                       P6SM VCSH SCT025 BKN040 FM1000 18008KT P6SM
                       BKN025=
200607120523 TAF KSEA 120523Z 120606 21008KT P6SM SCT030 OVC060 FM1000 18008KT
                       P6SM VCSH SCT015 BKN030 OVC060
                      TEMPO 1620 -SHRA BKN015 OVC030 FM2100 21012G20KT
                       P6SM -SHRA SCT025 BKN040=
200607112325 TAF KSEA 112325Z 120024 24009KT P6SM SCT080 OVC130 FM0300 19006KT
                       P6SM SCT080 OVC110 FM0900 17006KT P6SM SCT040
                       OVC080
                      PROB30 0914 -RA OVC040 FM1400 17009KT P6SM
                       SCT018 OVC040
                      TEMPO 1418 -RA FM1800 19012KT P6SM -RA BKN018
                       OVC030 FM2100 22012G20KT P6SM -SHRA SCT025
                       BKN040=
200607111735 TAF KSEA 111735Z 111818 22007KT P6SM FEW035 OVC140 FM0200 19006KT
                       P6SM OVC110 FM0900 17006KT P6SM OVC080
                      PROB30 0914 -RA FM1400 19009KT P6SM SCT018
                       OVC040
                      TEMPO 1418 -RA=
200607111441 KSEA 111441Z 111512 17006KT P6SM SCT006 SCT040 OVC140 FM1800 17006KT
                       P6SM SCT070 OVC140 FM2200 21008KT P6SM BKN050
                       OVC090 FM0400 21012KT P6SM -SHRA BKN030
                       OVC060=
200607111120 TAF KSEA 111120Z 111212 VRB03KT P6SM BKN150 FM2200 21008KT P6SM
                       BKN050 OVC090 FM0400 21012KT P6SM -SHRA
                       BKN030 OVC060=
200607110532 TAF KSEA 110532Z 110606 VRB03KT P6SM SCT035 BKN150
                      TEMPO 1317 BKN035 OVC120 FM2200 21008KT P6SM
                       BKN050 OVC090 FM0400 21012KT P6SM -SHRA
                       BKN030 OVC060=
200607110059 KSEA 110059Z 110124 24006KT P6SM BKN035 OVC120
                      TEMPO 0104 SCT035 FM1200 19007KT P6SM OVC030
                       FM1900 22007KT P6SM FEW040 SCT070 OVC140=
200607102325 TAF KSEA 102325Z 110024 24007KT P6SM BKN040 OVC250 FM0100 22007KT
                       P6SM SCT050 OVC250 FM1200 19007KT P6SM OVC030
                       FM1900 22007KT P6SM FEW040 SCT070 OVC140=
200607102300 KSEA 110059Z 110124 24006KT P6SM BKN035 OVC120
                      TEMPO 0104 SCT035 FM1200 19007KT P6SM OVC030
                       FM1900 22007KT P6SM FEW040 SCT070 OVC140=
200607102238 KSEA 102238Z 102318 22008KT P6SM BKN035 BKN250 FM0100 22008KT P6SM
                       SCT040 BKN250 FM0900 19006KT P6SM SCT030
                       BKN250 FM1200 19009KT P6SM OVC030=
200607102103 KSEA 102103Z 102118 22010KT P6SM BKN035 BKN250 FM2230 22008KT P6SM
                       SCT050 BKN250 FM0900 19006KT P6SM SCT030
                       BKN250 FM1200 19009KT P6SM OVC030=
200607101722 TAF KSEA 101722Z 101818 22008KT P6SM OVC030 FM2000 22008KT P6SM
                       BKN035 BKN250 FM2100 22008KT P6SM SCT050
                       BKN250 FM0900 19006KT P6SM SCT030 BKN250
                       FM1200 19009KT P6SM OVC030=
200607101411 KSEA 101411Z 101412 19007KT P6SM OVC015 FM1800 23009KT P6SM OVC025
                       FM1900 23009KT P6SM BKN030 FM2000 23009KT
                       P6SM SCT030=
200607101132 TAF KSEA 101132Z 101212 22007KT P6SM BKN022 OVC040 FM1400 22007KT
                       P6SM BKN018 OVC025 FM1700 23009KT P6SM OVC025
                       FM1900 23009KT P6SM BKN030 FM2000 23009KT
                       P6SM SCT030=
200607100720 KSEA 100720Z 100706 24005KT P6SM BKN035 BKN120 FM1000 22006KT P6SM
                       BKN025 OVC200 FM1400 21008KT P6SM BKN015
                       OVC025 FM1800 24008KT P6SM BKN022 FM2000
                       24008KT P6SM SCT030=
200607100535 TAF KSEA 100535Z 100606 36004KT P6SM SCT120 BKN200 FM0800 24005KT
                       P6SM SCT030 SCT120 BKN200 FM1000 22006KT
                       P6SM BKN025 OVC200 FM1400 21008KT P6SM BKN015
                       OVC025 FM1800 24008KT P6SM BKN022 FM2000
                       24008KT P6SM SCT030=
200607092320 TAF KSEA 092320Z 100024 28006KT P6SM SCT060 SCT120 FM0600 21006KT
                       P6SM SCT060 SCT120 FM1100 21006KT P6SM SCT015
                       FM1400 21008KT P6SM OVC015 FM1800 24008KT
                       P6SM BKN022 FM1900 24008KT P6SM SCT060=
200607091728 TAF KSEA 091728Z 091818 32008KT P6SM FEW090 SCT130 BKN250 FM0000
                       26006KT P6SM FEW090 SCT130 BKN250 FM0600
                       21006KT P6SM FEW130 SCT250 FM1100 21006KT
                       P6SM SCT015 FM1400 21006KT P6SM OVC015=
200607091134 TAF KSEA 091134Z 091212 01006KT P6SM BKN200 FM1800 29005KT P6SM
                       SCT120 BKN200 FM2200 30007KT P6SM SCT050
                       BKN200 FM0600 24005KT P6SM SCT200 FM1100
                       21006KT P6SM SCT015=
200607090520 TAF KSEA 090520Z 090606 01007KT P6SM SCT200 FM0900 36005KT P6SM
                       SCT120 BKN200 FM1800 26005KT P6SM SCT120
                       SCT200=
200607082325 TAF KSEA 082325Z 090024 32007KT P6SM SCT200 FM0700 36005KT P6SM
                       BKN200 FM1000 VRB05KT P6SM FEW120 BKN200
                       FM1800 25007KT P6SM SCT120 BKN200=
200607081721 TAF KSEA 081721Z 081818 33006KT P6SM SCT200 FM0300 36006KT P6SM
                       SCT200 FM1200 VRB05KT P6SM FEW120 BKN200=
200607081120 TAF KSEA 081120Z 081212 02003KT P6SM SKC FM1800 31007KT P6SM SCT200
                       FM0200 36006KT P6SM SCT200=
200607080520 TAF KSEA 080520Z 080606 02005KT P6SM SKC FM1300 VRB03KT P6SM BKN200
                       FM1800 31006KT P6SM SCT200=
200607072323 TAF KSEA 072323Z 080024 32006KT P6SM SCT200 FM0700 03005KT P6SM
                       SCT200 FM1300 VRB04KT P6SM FEW120 BKN200
                       FM1800 31006KT P6SM SCT200=
200607071721 TAF KSEA 071721Z 071818 VRB05KT P6SM SCT035 SCT200 FM2100 31006KT
                       P6SM SCT040 SCT200 FM0300 35007KT P6SM SCT200
                       FM0900 04005KT P6SM SKC=
200607071125 TAF KSEA 071125Z 071212 VRB03KT P6SM BKN035 BKN060
                      TEMPO 1214 BKN014 OVC035 FM1400 04003KT P6SM
                       BKN035 BKN060
                      TEMPO 1417 SCT035 BKN060 FM1700 29005KT P6SM
                       SCT035 BKN200 FM2000 31006KT P6SM SCT200
                       FM0400 36005KT P6SM SCT200=
200607071047 TAF KSEA 071047Z 071106 VRB03KT P6SM BKN035 BKN060
                      TEMPO 1114 BKN014 OVC035 FM1400 04003KT P6SM
                       BKN035 BKN060
                      TEMPO 1417 SCT035 BKN060 FM1700 29005KT P6SM
                       SCT035 BKN200 FM2000 31006KT P6SM SCT200
                       FM0400 36005KT P6SM SCT200=
200607071046 KSEA 071046Z 071106 VRB03KT P6SM BKN035 BKN060
                      TEMPO 1214 BKN014 OVC035 FM1400 04003KT P6SM
                       BKN035 BKN060
                      TEMPO 1417 SCT035 BKN060 FM1700 29005KT P6SM
                       SCT035 BKN200 FM2000 31006KT P6SM SCT200
                       FM0400 36005KT P6SM SCT200=
200607070952 KSEA 070952Z 071006 04006KT P6SM SCT035 BKN060 FM1700 29005KT P6SM
                       SCT035 FM2000 30006KT P6SM SCT050 FM0000
                       32006KT P6SM SKC=
200607070747 KSEA 070747Z 070806 04006KT P6SM BKN024 BKN060 FM0900 VRB04KT P6SM
                       BKN019 OVC060 FM1300 VRB03KT P6SM BKN020
                       OVC060 FM1700 28005KT P6SM SCT030 FM2000
                       30006KT P6SM SCT050 FM0000 32006KT P6SM
                       SKC=
200607070520 TAF KSEA 070520Z 070606 VRB03KT P6SM BKN060 FM1300 VRB03KT P6SM
                       SCT025 OVC060 FM1700 28005KT P6SM SCT030
                       FM2000 30006KT P6SM SCT050 FM0000 32006KT
                       P6SM SKC=
200607070407 TAF AMD KSEA 070407Z 070424 VRB03KT P6SM BKN060 FM1300 VRB03KT
                       P6SM BKN015 OVC060 FM1700 VRB04KT P6SM SCT025
                       BKN040 FM2000 30006KT P6SM SCT045 FM2200
                       32008KT P6SM SKC=
200607062320 TAF KSEA 062320Z 070024 23009KT P6SM FEW025 OVC045 FM0900 VRB03KT
                       P6SM SCT035 FM1300 VRB03KT P6SM BKN015 OVC035
                       FM1700 VRB04KT P6SM SCT025 BKN040 FM2000
                       30006KT P6SM SCT045 FM2200 32008KT P6SM
                       SKC=
200607062300 KSEA 070407Z 070424 VRB03KT P6SM BKN060 FM1300 VRB03KT P6SM BKN015
                       OVC060 FM1700 VRB04KT P6SM SCT025 BKN040
                       FM2000 30006KT P6SM SCT045 FM2200 32008KT
                       P6SM SKC=
200607061720 TAF KSEA 061720Z 061818 24004KT P6SM SCT018 BKN028 OVC035
                      TEMPO 1821 BKN018 FM2100 21008KT P6SM SCT025
                       OVC035 FM0000 24008KT P6SM SCT035 FM0900
                       VRB03KT P6SM SCT035 FM1300 VRB03KT P6SM
                       BKN015 OVC035 FM1700 VRB04KT P6SM SCT025
                       BKN040=
200607061534 KSEA 061534Z 061612 17007KT P6SM BKN017 BKN025 OVC040 FM2100 21008KT
                       P6SM BKN025 OVC040 FM2300 24008KT P6SM SCT035=
200607061120 TAF KSEA 061120Z 061212 22008KT P6SM BKN020 OVC040
                      TEMPO 1213 BKN014 OVC020 FM1300 20006KT P6SM
                       BKN008 OVC014
                      TEMPO 1317 SCT008 OVC014 FM1700 21007KT P6SM
                       BKN015 OVC022 FM2100 21008KT P6SM OVC025
                       FM2300 21008KT P6SM BKN030 FM0100 25006KT
                       P6SM SCT035=
200607060520 TAF KSEA 060520Z 060606 21008KT P6SM BKN035 BKN080 FM1000 22008KT
                       P6SM OVC020
                      TEMPO 1213 BKN008 OVC014 FM1300 20006KT P6SM
                       BKN008 OVC014
                      TEMPO 1317 SCT008 OVC014 FM1700 21007KT P6SM
                       BKN015 OVC022 FM2100 21008KT P6SM OVC025
                       FM2300 21008KT P6SM BKN030=
200607060257 TAF AMD KSEA 060257Z 060324 21008KT P6SM BKN035 BKN080 FM0800 22008KT
                       P6SM OVC015 FM1900 22008KT P6SM OVC025 FM2100
                       24008KT P6SM SCT030=
200607052327 TAF KSEA 052327Z 060024 21010KT P6SM BKN027 FM0800 22008KT P6SM
                       OVC015 FM1900 22008KT P6SM OVC025 FM2100
                       24008KT P6SM SCT030=
200607052300 KSEA 060257Z 060324 21008KT P6SM BKN035 BKN080 FM0800 22008KT P6SM
                       OVC015 FM1900 22008KT P6SM OVC025 FM2100
                       24008KT P6SM SCT030=
200607052103 KSEA 052103Z 052118 23005KT P6SM OVC021 FM2200 24008KT P6SM BKN025
                       TEMPO 2303 SCT025 FM0800 22008KT P6SM OVC015=
200607051727 TAF KSEA 051727Z 051818 24007KT P6SM OVC016 FM2200 24008KT P6SM
                       SCT025 SCT080 FM0800 22008KT P6SM OVC015=
200607051534 KSEA 051534Z 051612 21007KT P6SM OVC012 FM2200 22008KT P6SM SCT025
                       BKN150 FM0800 22008KT P6SM OVC018=
200607051315 KSEA 051315Z 051312 19007KT P6SM OVC012 FM2000 22008KT P6SM SCT025
                       BKN150 FM0800 22008KT P6SM OVC018=
200607051138 TAF KSEA 051138Z 051212 22008KT P6SM SCT011 OVC022 FM1400 22008KT
                       P6SM OVC011 FM2000 22008KT P6SM SCT025 BKN150
                       FM0800 22008KT P6SM OVC018=
200607050541 TAF KSEA 050541Z 050606 22008KT P6SM SCT120 BKN200 FM1000 22008KT
                       P6SM OVC011 FM2000 22008KT P6SM SCT025=
200607042325 TAF KSEA 042325Z 050024 21007KT P6SM VCTS SCT060CB FM0300 22008KT
                       P6SM SCT060 BKN120 FM0900 22008KT P6SM OVC008
                       FM2000 23008KT P6SM SCT025=
200607042125 KSEA 042125Z 042118 24006KT P6SM SCT060 SCT120 SCT200 FM2300 24006KT
                       P6SM VCTS BKN060CB FM0300 22008KT P6SM SCT060
                       BKN100 FM0900 22008KT P6SM OVC008=
200607041724 TAF KSEA 041724Z 041818 22004KT P6SM FEW004 BKN007 OVC009 FM1930
                       VRB03KT P6SM SCT015 SCT100 FM2100 30008KT
                       P6SM SCT060 BKN100 FM2300 30008KT P6SM VCTS
                       BKN060CB FM0300 22008KT P6SM SCT060 BKN100
                       FM0900 22008KT P6SM OVC008=
200607041616 KSEA 041616Z 041612 22007KT P6SM BKN004 OVC007 FM1800 22006KT P6SM
                       BKN130 FM2100 30008KT P6SM SCT060 BKN100
                       FM0700 22008KT P6SM SCT060 BKN100=
200607041401 KSEA 041401Z 041412 26005KT P6SM BKN009 BKN050 OVC130 FM1800 22006KT
                       P6SM BKN130 FM2100 30008KT P6SM SCT060 BKN100
                       FM0700 22008KT P6SM SCT060 BKN100=
200607041345 KSEA 041345Z 041412 32008KT P6SM SCT010 SCT080 BKN120
                      TEMPO 1415 BKN010 FM1500 20006KT P6SM SCT080
                       BKN100 FM1800 22006KT P6SM SCT100 FM2100
                       30008KT P6SM SCT060 BKN100 FM0700 22008KT
                       P6SM SCT060 BKN100=
200607041326 KSEA 041326Z 041312 31010KT P6SM SCT090 BKN120
                      TEMPO 1314 -SHRA BKN080 FM1400 20008KT P6SM
                       SCT080 BKN120 FM1800 22006KT P6SM SKC FM2200
                       30008KT P6SM SCT060 BKN100 FM0700 22008KT
                       P6SM SCT060 BKN100=
200607041140 TAF KSEA 041140Z 041212 22006KT P6SM BKN120 FM1500 22006KT P6SM
                       SCT008 BKN120
                      TEMPO 1618 BKN008 FM1800 22006KT P6SM SKC
                       FM2200 30008KT P6SM SCT060 BKN100 FM0700
                       22008KT P6SM SCT060 BKN100=
200607040538 TAF KSEA 040538Z 040606 29006KT P6SM SKC FM0900 22006KT P6SM SCT100
                       BKN150 FM1300 22006KT P6SM SCT010 BKN100
                       FM1700 22006KT P6SM SKC FM2200 30008KT P6SM
                       SKC=
200607032322 TAF KSEA 032322Z 040024 29007KT P6SM SKC FM0700 22005KT P6SM SKC
                       FM1200 22005KT P6SM OVC009 FM1800 22005KT
                       P6SM BKN012 FM1900 23005KT P6SM SKC FM2200
                       30005KT P6SM SKC=
200607031722 TAF KSEA 031722Z 031818 22005KT P6SM BKN008 FM1900 22005KT P6SM
                       SCT100 FM2200 33006KT P6SM SKC FM0700 22005KT
                       P6SM SKC FM1200 22005KT P6SM OVC009=
200607031139 TAF KSEA 031139Z 031212 21006KT P6SM OVC002
                      TEMPO 1316 3SM BR FM1700 21006KT P6SM BKN004
                       FM1800 VRB03KT P6SM SKC FM2100 33006KT P6SM
                       SKC=
200607030539 TAF KSEA 030539Z 030606 30006KT P6SM SKC FM1200 21006KT P6SM BKN002
                       FM1300 21006KT 5SM BR OVC002
                      TEMPO 1316 1SM BR FM1700 VRB03KT P6SM BKN004
                       FM1800 VRB03KT P6SM SKC FM1900 33006KT P6SM
                       SKC=
200607022337 TAF KSEA 022337Z 030024 31008KT P6SM SKC FM0400 35006KT P6SM SKC
                       FM1200 20005KT P6SM SCT004 FM1400 21006KT
                       P6SM BKN006 FM1700 28004KT P6SM SCT006 FM1900
                       30006KT P6SM SKC=
200607021738 TAF KSEA 021738Z 021818 28006KT P6SM SKC FM2200 33008KT P6SM SKC
                       FM0400 35006KT P6SM SKC FM1200 20005KT P6SM
                       SCT004 FM1400 21006KT 6SM BR BKN004 FM1700
                       28004KT P6SM SCT006=
200607021137 TAF KSEA 021137Z 021212 00000KT P6SM SKC FM1700 29006KT P6SM SKC
                       FM2200 33008KT P6SM SKC=
200607020532 TAF KSEA 020532Z 020606 36005KT P6SM SKC FM1100 VRB03KT P6SM SKC
                       FM1700 29006KT P6SM SKC FM2200 33008KT P6SM
                       SKC=
200607012324 TAF KSEA 012324Z 020024 30008KT P6SM SKC FM0500 34005KT P6SM SKC
                       FM1400 VRB03KT P6SM FEW009 FM1600 29006KT
                       P6SM SKC FM2200 31007KT P6SM SKC=
200607011722 TAF KSEA 011722Z 011818 VRB05KT P6SM SKC FM2000 33008KT P6SM SKC
                       FM0800 VRB03KT P6SM SKC FM1400 22004KT P6SM
                       FEW009 FM1600 VRB05KT P6SM SKC=
200607011132 TAF KSEA 011132Z 011212 VRB03KT P6SM SKC FM2000 34008KT P6SM SKC=
200607010532 TAF KSEA 010532Z 010606 VRB03KT P6SM SKC FM1200 21005KT P6SM SKC
                       FM1800 28006KT P6SM SKC FM2100 34008KT P6SM
                       SKC=