##########################################################
# Query made at 02/18/2025 01:22:21 UTC
# Time interval: from 08/01/2006 00:00  to 08/31/2006 23:59  UTC
##########################################################

##########################################################
# KSEA, Seattle, Seattle-Tacoma International Airport (United States)
# WMO index: 72793. WIGOS ID: 0-20000-0-72793
# Latitude 47-27-00N. Longitude 122-17-59W. Altitude 130 m.
##########################################################

###################################
#  METAR/SPECI from KSEA
###################################
200608312353 METAR KSEA 312353Z 33015KT 10SM SCT250 21/08 A3017 RMK AO2 SLP221 T02110078 10222 20167 58015=
200608312253 METAR KSEA 312253Z 34013KT 10SM FEW030 SCT250 22/07 A3018 RMK AO2 SLP227 T02170072=
200608312153 METAR KSEA 312153Z 35011KT 10SM FEW030 SCT250 21/08 A3021 RMK AO2 SLP234 T02110078=
200608312053 METAR KSEA 312053Z 34010KT 10SM FEW020 20/08 A3021 RMK AO2 SLP237 T02000078 58011=
200608311953 METAR KSEA 311953Z 01008KT 10SM FEW020 19/08 A3023 RMK AO2 SLP241 T01940083=
200608311853 METAR KSEA 311853Z 33010KT 10SM FEW015 18/08 A3024 RMK AO2 SLP246 T01780083=
200608311753 METAR KSEA 311753Z 04010KT 10SM FEW012 17/08 A3025 RMK AO2 SLP248 T01670078 10167 20106 50001=
200608311653 METAR KSEA 311653Z 03011KT 10SM FEW010 15/08 A3025 RMK AO2 SLP249 T01500078=
200608311553 METAR KSEA 311553Z 03010KT 10SM FEW009 14/08 A3025 RMK AO2 SLP248 T01440083=
200608311545 SPECI KSEA 311545Z 03010KT 10SM FEW009 14/08 A3025 RMK AO2=
200608311545 SPECI KSEA 311545Z 03010KT 10SM FEW009 14/08 A3025 RMK AO2=
200608311453 METAR KSEA 311453Z 05009KT 10SM FEW250 13/08 A3025 RMK AO2 SLP248 T01280083 53009=
200608311353 METAR KSEA 311353Z 04009KT 10SM CLR 12/08 A3023 RMK AO2 SLP243 T01170083=
200608311253 METAR KSEA 311253Z 34003KT 10SM CLR 11/08 A3023 RMK AO2 SLP243 T01060083=
200608311153 METAR KSEA 311153Z 03003KT 10SM CLR 11/08 A3022 RMK AO2 SLP239 T01110083 10139 20106 55002=
200608311053 METAR KSEA 311053Z 03003KT 10SM CLR 12/08 A3022 RMK AO2 SLP238 T01170083=
200608310953 METAR KSEA 310953Z 06003KT 10SM FEW070 12/08 A3022 RMK AO2 SLP238 T01220078=
200608310853 METAR KSEA 310853Z 09003KT 10SM FEW070 12/08 A3023 RMK AO2 SLP241 T01220078 51011=
200608310753 METAR KSEA 310753Z 00000KT 10SM SCT070 13/08 A3022 RMK AO2 SLP237 T01280083 402170117=
200608310653 METAR KSEA 310653Z 22004KT 10SM FEW040 SCT070 13/09 A3021 RMK AO2 SLP234 T01280089=
200608310553 METAR KSEA 310553Z 20006KT 10SM SCT070 14/08 A3019 RMK AO2 SLP231 60000 T01390083 10194 20139 51009=
200608310453 METAR KSEA 310453Z 24008KT 10SM BKN070 15/08 A3018 RMK AO2 SLP227 T01500078=
200608310353 METAR KSEA 310353Z 23008KT 10SM SCT070 BKN200 16/08 A3018 RMK AO2 SLP226 T01560078=
200608310253 METAR KSEA 310253Z 22004KT 10SM FEW035 SCT060 BKN075 BKN200 17/08 A3017 RMK AO2 SLP220 60000 T01670078 51005=
200608310153 METAR KSEA 310153Z 22008KT 10SM FEW035 BKN065 BKN200 18/08 A3016 RMK AO2 RAE27 SLP219 P0000 T01780078=
200608310053 METAR KSEA 310053Z 32007KT 10SM -RA FEW035 BKN050 BKN070 BKN200 17/11 A3016 RMK AO2 RAB35 SLP220 P0000 T01720106=
200608302353 METAR KSEA 302353Z 21008KT 10SM FEW040 SCT070 BKN095 BKN200 20/07 A3015 RMK AO2 SLP215 T02000067 10217 20139 51005=
200608302253 METAR KSEA 302253Z 24008KT 10SM FEW035 SCT065 BKN090 BKN200 20/07 A3015 RMK AO2 SLP214 T02000067=
200608302153 METAR KSEA 302153Z 22010G14KT 10SM SCT035 SCT070 BKN085 22/08 A3014 RMK AO2 SLP212 T02170078=
200608302053 METAR KSEA 302053Z 26007KT 10SM SCT035 SCT080 21/08 A3013 RMK AO2 SLP210 T02060083 51004=
200608301953 METAR KSEA 301953Z VRB05KT 10SM FEW029 SCT035 18/08 A3013 RMK AO2 SLP207 T01780078=
200608301853 METAR KSEA 301853Z 24007KT 10SM FEW020 SCT026 BKN045 17/09 A3013 RMK AO2 SLP210 T01720089=
200608301839 SPECI KSEA 301839Z 23008KT 10SM FEW020 SCT028 BKN060 16/09 A3013 RMK AO2=
200608301839 SPECI KSEA 301839Z 23008KT 10SM FEW020 SCT028 BKN060 16/09 A3013 RMK AO2=
200608301753 METAR KSEA 301753Z 22005KT 10SM BKN018 BKN025 BKN065 14/09 A3012 RMK AO2 SLP207 T01390089 10144 20117 53021=
200608301711 SPECI KSEA 301711Z 20006KT 10SM BKN018 BKN026 BKN075 13/09 A3010 RMK AO2=
200608301711 SPECI KSEA 301711Z 20006KT 10SM BKN018 BKN026 BKN075 13/09 A3010 RMK AO2=
200608301653 METAR KSEA 301653Z 19009KT 10SM FEW016 SCT026 BKN075 13/09 A3009 RMK AO2 SLP197 T01330089=
200608301610 SPECI KSEA 301610Z 19007KT 10SM SCT020 BKN075 BKN200 13/09 A3008 RMK AO2=
200608301610 SPECI KSEA 301610Z 19007KT 10SM SCT020 BKN075 BKN200 13/09 A3008 RMK AO2=
200608301553 METAR KSEA 301553Z 17007KT 10SM BKN020 BKN080 BKN200 13/09 A3008 RMK AO2 SLP191 T01280089=
200608301453 METAR KSEA 301453Z 20005KT 10SM FEW012 BKN022 OVC095 12/09 A3006 RMK AO2 SLP185 T01220094 53017=
200608301353 METAR KSEA 301353Z 19006KT 10SM FEW012 BKN020 BKN095 OVC200 12/09 A3003 RMK AO2 SLP177 T01220089=
200608301253 METAR KSEA 301253Z 18007KT 10SM FEW013 BKN016 OVC095 12/09 A3002 RMK AO2 SLP171 T01170089=
200608301153 METAR KSEA 301153Z 20009KT 10SM BKN018 OVC095 12/09 A3001 RMK AO2 SLP167 70001 T01170089 10133 20117 53008=
200608301053 METAR KSEA 301053Z 19008KT 10SM BKN015 BKN095 OVC120 12/08 A3000 RMK AO2 SLP164 T01170083=
200608300953 METAR KSEA 300953Z 19010KT 10SM BKN016 BKN090 OVC120 12/08 A2999 RMK AO2 SLP160 T01220083=
200608300915 SPECI KSEA 300915Z 19009KT 10SM BKN016 BKN055 OVC085 12/08 A2998 RMK AO2=
200608300915 SPECI KSEA 300915Z 19009KT 10SM BKN016 BKN055 OVC085 12/08 A2998 RMK AO2=
200608300853 METAR KSEA 300853Z 21009KT 10SM FEW035 SCT055 BKN095 BKN200 12/08 A2998 RMK AO2 SLP159 T01220083 50002=
200608300753 METAR KSEA 300753Z 21009KT 10SM SCT038 BKN055 BKN110 BKN200 12/09 A2998 RMK AO2 SLP159 T01220094 402060122=
200608300653 METAR KSEA 300653Z 22006KT 10SM FEW037 SCT075 12/09 A2998 RMK AO2 SLP158 T01220089=
200608300553 METAR KSEA 300553Z 23004KT 10SM FEW017 BKN037 BKN060 OVC200 13/10 A2998 RMK AO2 SLP157 60001 T01330100 10183 20128 51006=
200608300453 METAR KSEA 300453Z 21004KT 10SM SCT024 BKN030 OVC043 14/10 A2998 RMK AO2 SLP156 T01390100=
200608300353 METAR KSEA 300353Z 06007KT 10SM FEW030 BKN041 BKN090 13/10 A2997 RMK AO2 SLP154 T01330100=
200608300253 METAR KSEA 300253Z 03006KT 10SM FEW030 SCT038 BKN080 BKN150 14/10 A2996 RMK AO2 RAE35 SLP152 P0001 60001 T01390100 50001=
200608300153 METAR KSEA 300153Z 02009KT 10SM -RA SCT036 SCT043 OVC070 14/09 A2996 RMK AO2 RAB33 SLP153 P0000 T01440094=
200608300053 METAR KSEA 300053Z 02010KT 10SM FEW048 SCT065 BKN100 OVC200 16/09 A2996 RMK AO2 SLP150 T01610089=
200608292353 METAR KSEA 292353Z 27005KT 10SM FEW020 SCT060 BKN080 BKN200 18/08 A2996 RMK AO2 SLP150 T01830083 10206 20172 58000=
200608292253 METAR KSEA 292253Z 26006KT 10SM FEW020 SCT055 BKN080 18/08 A2996 RMK AO2 SLP149 T01780083=
200608292153 METAR KSEA 292153Z 21010KT 10SM FEW020 SCT045 BKN065 19/06 A2996 RMK AO2 SLP152 T01890056=
200608292053 METAR KSEA 292053Z 20013KT 10SM BKN060 20/06 A2996 RMK AO2 SLP150 T02000061 53002=
200608291953 METAR KSEA 291953Z 23013G21KT 10SM SCT045 BKN055 20/07 A2996 RMK AO2 SLP149 T02000067=
200608291853 METAR KSEA 291853Z 21013G20KT 10SM BKN035 BKN100 18/07 A2995 RMK AO2 SLP147 T01780072=
200608291753 METAR KSEA 291753Z 22016KT 10SM SCT030 BKN040 18/07 A2995 RMK AO2 SLP147 60000 T01780072 10178 20133 53005=
200608291738 SPECI KSEA 291738Z 23011KT 10SM SCT028 BKN036 18/08 A2995 RMK AO2=
200608291738 SPECI KSEA 291738Z 23011KT 10SM SCT028 BKN036 18/08 A2995 RMK AO2=
200608291653 METAR KSEA 291653Z 22012KT 10SM BKN021 BKN027 15/08 A2994 RMK AO2 SLP145 T01500083=
200608291553 METAR KSEA 291553Z 22011KT 10SM SCT015 OVC019 13/08 A2994 RMK AO2 SLP143 T01330083=
200608291453 METAR KSEA 291453Z 20010KT 10SM SCT013 OVC015 13/09 A2994 RMK AO2 RAB06E27 SLP142 P0000 60000 T01330089 53007=
200608291409 SPECI KSEA 291409Z 20008KT 10SM -RA SCT013 OVC015 13/09 A2993 RMK AO2 RAB06 P0000=
200608291409 SPECI KSEA 291409Z 20008KT 10SM -RA SCT013 OVC015 13/09 A2993 RMK AO2 RAB06 P0000=
200608291353 METAR KSEA 291353Z 21011KT 10SM FEW009 OVC013 13/10 A2993 RMK AO2 SLP138 T01330100=
200608291253 METAR KSEA 291253Z 20009KT 10SM BKN013 OVC015 13/11 A2992 RMK AO2 SLP135 T01330111=
200608291207 SPECI KSEA 291207Z 17006KT 10SM BKN013 OVC015 13/11 A2991 RMK AO2=
200608291207 SPECI KSEA 291207Z 17006KT 10SM BKN013 OVC015 13/11 A2991 RMK AO2=
200608291153 METAR KSEA 291153Z 17006KT 10SM OVC015 13/11 A2992 RMK AO2 SLP134 T01330106 10183 20128 51007=
200608291128 SPECI KSEA 291128Z 14007KT 10SM BKN015 OVC140 13/10 A2991 RMK AO2=
200608291128 SPECI KSEA 291128Z 14007KT 10SM BKN015 OVC140 13/10 A2991 RMK AO2=
200608291053 METAR KSEA 291053Z 17007KT 10SM FEW040 SCT140 SCT250 13/10 A2991 RMK AO2 SLP133 T01280100=
200608290953 METAR KSEA 290953Z 18005KT 10SM FEW040 SCT250 13/10 A2991 RMK AO2 SLP131 T01280100=
200608290853 METAR KSEA 290853Z 20004KT 10SM FEW250 13/11 A2990 RMK AO2 SLP127 T01330111 53009=
200608290753 METAR KSEA 290753Z 20004KT 10SM CLR 14/11 A2988 RMK AO2 SLP124 T01440111 403000139=
200608290653 METAR KSEA 290653Z 09005KT 10SM CLR 17/09 A2987 RMK AO2 SLP118 T01720089=
200608290553 METAR KSEA 290553Z 05013KT 10SM CLR 18/09 A2987 RMK AO2 SLP118 T01830089 10294 20178 51015=
200608290453 METAR KSEA 290453Z 04011KT 10SM CLR 18/09 A2986 RMK AO2 SLP115 T01830094=
200608290353 METAR KSEA 290353Z 02007KT 10SM FEW200 19/09 A2985 RMK AO2 SLP113 T01940094=
200608290253 METAR KSEA 290253Z 02009KT 10SM FEW200 23/07 A2982 RMK AO2 SLP103 T02330072 55001=
200608290153 METAR KSEA 290153Z 03012KT 10SM FEW200 26/01 A2981 RMK AO2 SLP099 T02560011=
200608290053 METAR KSEA 290053Z 01006KT 10SM FEW250 28/06 A2982 RMK AO2 SLP100 T02830061=
200608282353 METAR KSEA 282353Z 33006KT 10SM FEW250 29/08 A2982 RMK AO2 SLP103 T02890078 10300 20217 58010=
200608282253 METAR KSEA 282253Z 31004KT 10SM FEW250 29/10 A2984 RMK AO2 SLP106 T02940100=
200608282153 METAR KSEA 282153Z 27005KT 10SM SCT200 29/09 A2985 RMK AO2 SLP110 T02940094=
200608282053 METAR KSEA 282053Z 32007KT 10SM SCT200 27/11 A2985 RMK AO2 SLP113 T02720111 56013=
200608281953 METAR KSEA 281953Z 29007KT 10SM FEW200 27/12 A2986 RMK AO2 SLP114 T02670117=
200608281853 METAR KSEA 281853Z VRB03KT 10SM FEW200 24/11 A2988 RMK AO2 SLP122 T02390111=
200608281753 METAR KSEA 281753Z 33004KT 10SM FEW200 22/11 A2989 RMK AO2 SLP126 T02220111 10228 20139 58004=
200608281653 METAR KSEA 281653Z 30005KT 10SM FEW200 21/11 A2990 RMK AO2 SLP128 T02060111=
200608281553 METAR KSEA 281553Z VRB03KT 10SM FEW200 19/11 A2991 RMK AO2 SLP132 T01940111=
200608281453 METAR KSEA 281453Z 00000KT 10SM FEW200 16/12 A2991 RMK AO2 SLP131 T01610117 51004=
200608281353 METAR KSEA 281353Z 00000KT 10SM FEW200 14/11 A2990 RMK AO2 SLP129 T01440111=
200608281253 METAR KSEA 281253Z 35004KT 10SM CLR 15/11 A2990 RMK AO2 SLP128 T01500106=
200608281153 METAR KSEA 281153Z 01006KT 10SM CLR 16/12 A2990 RMK AO2 SLP126 T01560122 10217 20156 56011=
200608281053 METAR KSEA 281053Z 03007KT 10SM CLR 17/12 A2990 RMK AO2 SLP128 T01670117=
200608280953 METAR KSEA 280953Z 36004KT 10SM CLR 17/11 A2991 RMK AO2 SLP133 T01720111=
200608280853 METAR KSEA 280853Z 02005KT 10SM CLR 18/11 A2993 RMK AO2 SLP138 T01830106 58004=
200608280753 METAR KSEA 280753Z 01006KT 10SM CLR 19/10 A2993 RMK AO2 SLP140 T01890100 403060156=
200608280653 METAR KSEA 280653Z 33003KT 10SM CLR 19/09 A2994 RMK AO2 SLP142 T01940094=
200608280553 METAR KSEA 280553Z 01007KT 10SM CLR 22/09 A2994 RMK AO2 SLP142 T02170094 10300 20217 50001=
200608280453 METAR KSEA 280453Z 01008KT 10SM CLR 22/09 A2995 RMK AO2 SLP145 T02220089=
200608280353 METAR KSEA 280353Z 01007KT 10SM FEW250 23/09 A2995 RMK AO2 SLP145 T02280089=
200608280253 METAR KSEA 280253Z 36009KT 10SM FEW250 25/08 A2994 RMK AO2 SLP141 T02500083 55007=
200608280153 METAR KSEA 280153Z 35010KT 10SM FEW250 28/10 A2994 RMK AO2 SLP140 T02830100=
200608280053 METAR KSEA 280053Z 36008KT 10SM FEW250 29/09 A2994 RMK AO2 SLP143 T02940094=
200608272353 METAR KSEA 272353Z 33008KT 10SM FEW250 30/09 A2996 RMK AO2 SLP148 T03000094 10306 20222 57017=
200608272253 METAR KSEA 272253Z 02008KT 10SM FEW250 29/09 A2997 RMK AO2 SLP153 T02940094=
200608272153 METAR KSEA 272153Z 30008KT 10SM FEW250 30/11 A2999 RMK AO2 SLP160 T03000111=
200608272053 METAR KSEA 272053Z 30008KT 10SM FEW250 28/12 A3001 RMK AO2 SLP165 T02830117 58011=
200608271953 METAR KSEA 271953Z 28007KT 10SM FEW250 26/12 A3002 RMK AO2 SLP169 T02610122=
200608271853 METAR KSEA 271853Z 28007KT 10SM FEW250 24/12 A3004 RMK AO2 SLP175 T02440122=
200608271753 METAR KSEA 271753Z VRB04KT 10SM FEW250 23/12 A3004 RMK AO2 SLP176 T02280122 10228 20156 58002=
200608271653 METAR KSEA 271653Z 29005KT 10SM FEW250 21/12 A3004 RMK AO2 SLP177 T02060122=
200608271553 METAR KSEA 271553Z 29004KT 10SM FEW250 19/12 A3005 RMK AO2 SLP178 T01890117=
200608271453 METAR KSEA 271453Z 33003KT 10SM FEW250 17/11 A3005 RMK AO2 SLP178 T01720111 51012=
200608271353 METAR KSEA 271353Z 34004KT 10SM FEW250 16/11 A3004 RMK AO2 SLP175 T01560111=
200608271253 METAR KSEA 271253Z 01005KT 10SM CLR 17/11 A3003 RMK AO2 SLP171 T01670111=
200608271153 METAR KSEA 271153Z 04003KT 10SM CLR 17/11 A3001 RMK AO2 SLP166 T01670111 10217 20161 51004=
200608271053 METAR KSEA 271053Z 01005KT 10SM CLR 18/12 A3000 RMK AO2 SLP164 T01780117=
200608270953 METAR KSEA 270953Z 36003KT 10SM CLR 18/12 A3001 RMK AO2 SLP164 T01780122=
200608270853 METAR KSEA 270853Z 02005KT 10SM CLR 19/11 A3000 RMK AO2 SLP161 T01890106 50003=
200608270753 METAR KSEA 270753Z 02007KT 10SM CLR 19/09 A3000 RMK AO2 SLP163 T01940094 402940128=
200608270653 METAR KSEA 270653Z 00000KT 10SM CLR 19/12 A3000 RMK AO2 SLP162 T01940117=
200608270553 METAR KSEA 270553Z 01005KT 10SM CLR 22/10 A2999 RMK AO2 SLP158 T02170100 10294 20217 53009=
200608270453 METAR KSEA 270453Z 01007KT 10SM CLR 23/10 A2998 RMK AO2 SLP156 T02280100=
200608270353 METAR KSEA 270353Z 36006KT 10SM FEW250 24/11 A2997 RMK AO2 SLP152 T02390106=
200608270253 METAR KSEA 270253Z 35006KT 10SM SCT250 26/10 A2996 RMK AO2 SLP150 T02560100 56004=
200608270153 METAR KSEA 270153Z 34006KT 10SM FEW250 28/09 A2997 RMK AO2 SLP152 T02780089=
200608270053 METAR KSEA 270053Z 33007KT 10SM FEW250 28/10 A2997 RMK AO2 SLP152 T02830100=
200608262353 METAR KSEA 262353Z 30007KT 10SM SCT250 29/09 A2997 RMK AO2 SLP153 T02940094 10294 20217 58013=
200608262253 METAR KSEA 262253Z 32007KT 280V350 10SM SCT250 29/12 A2999 RMK AO2 SLP158 T02890122=
200608262153 METAR KSEA 262153Z 30010KT 10SM FEW250 29/12 A3000 RMK AO2 SLP162 T02890122=
200608262053 METAR KSEA 262053Z 32007KT 10SM FEW250 27/12 A3001 RMK AO2 SLP166 T02670122 58012=
200608261953 METAR KSEA 261953Z 30007KT 10SM SCT250 26/12 A3002 RMK AO2 SLP170 T02560117=
200608261853 METAR KSEA 261853Z 33008KT 10SM SCT250 23/12 A3004 RMK AO2 SLP176 T02280117=
200608261753 METAR KSEA 261753Z 31004KT 10SM SCT250 22/12 A3005 RMK AO2 SLP178 T02170122 10222 20128 51003=
200608261653 METAR KSEA 261653Z 30005KT 10SM SCT250 21/14 A3004 RMK AO2 SLP178 T02110139=
200608261553 METAR KSEA 261553Z 31003KT 10SM FEW250 19/13 A3005 RMK AO2 SLP179 T01890133=
200608261453 METAR KSEA 261453Z 00000KT 10SM FEW250 17/13 A3004 RMK AO2 SLP176 T01670128 51009=
200608261353 METAR KSEA 261353Z 03005KT 10SM FEW200 14/12 A3003 RMK AO2 SLP173 T01440117=
200608261253 METAR KSEA 261253Z 00000KT 10SM FEW200 13/12 A3002 RMK AO2 SLP171 T01330117=
200608261153 METAR KSEA 261153Z 00000KT 10SM CLR 14/12 A3001 RMK AO2 SLP166 T01390122 10183 20139 58000=
200608261053 METAR KSEA 261053Z 00000KT 10SM CLR 14/12 A3001 RMK AO2 SLP168 T01440122=
200608260953 METAR KSEA 260953Z 00000KT 10SM CLR 16/12 A3002 RMK AO2 SLP169 T01610122=
200608260853 METAR KSEA 260853Z 05006KT 10SM CLR 17/12 A3001 RMK AO2 SLP166 T01720122 56003=
200608260753 METAR KSEA 260753Z 02005KT 10SM FEW250 17/12 A3001 RMK AO2 SLP167 T01720122 402610117=
200608260653 METAR KSEA 260653Z 34003KT 10SM CLR 17/12 A3001 RMK AO2 SLP166 T01670122=
200608260553 METAR KSEA 260553Z 30006KT 10SM CLR 18/12 A3002 RMK AO2 SLP169 T01830122 10261 20183 51007=
200608260453 METAR KSEA 260453Z 02006KT 10SM FEW200 20/12 A3002 RMK AO2 SLP169 T02000117=
200608260353 METAR KSEA 260353Z 35005KT 10SM FEW160 SCT200 21/12 A3001 RMK AO2 SLP165 T02060122=
200608260253 METAR KSEA 260253Z 31005KT 10SM FEW160 SCT200 21/12 A3000 RMK AO2 SLP162 T02110122 56004=
200608260153 METAR KSEA 260153Z 29005KT 10SM SCT200 24/12 A3000 RMK AO2 SLP162 T02390117=
200608260053 METAR KSEA 260053Z 30006KT 10SM SCT200 26/12 A3000 RMK AO2 SLP164 T02560117=
200608252353 METAR KSEA 252353Z 29006KT 10SM SCT200 26/12 A3001 RMK AO2 SLP166 T02560122 10261 20194 56018=
200608252253 METAR KSEA 252253Z 29009KT 10SM FEW200 25/13 A3003 RMK AO2 SLP172 T02500128=
200608252153 METAR KSEA 252153Z 35007KT 10SM CLR 24/11 A3004 RMK AO2 SLP177 T02390111=
200608252053 METAR KSEA 252053Z 36016KT 10SM CLR 23/12 A3006 RMK AO2 SLP185 T02280117 58007=
200608251953 METAR KSEA 251953Z VRB05KT 10SM CLR 22/12 A3007 RMK AO2 SLP187 T02220117=
200608251853 METAR KSEA 251853Z 31007KT 10SM CLR 21/12 A3008 RMK AO2 SLP191 T02110117=
200608251753 METAR KSEA 251753Z 01008KT 10SM CLR 19/11 A3009 RMK AO2 SLP193 T01940106 10194 20117 50001=
200608251653 METAR KSEA 251653Z 01007KT 10SM CLR 17/11 A3009 RMK AO2 SLP195 T01720111=
200608251553 METAR KSEA 251553Z 03004KT 10SM CLR 16/11 A3009 RMK AO2 SLP195 T01560111=
200608251453 METAR KSEA 251453Z 33004KT 10SM CLR 14/11 A3008 RMK AO2 SLP192 T01440111 51006=
200608251353 METAR KSEA 251353Z 01004KT 9SM FEW055 13/11 A3008 RMK AO2 SLP191 T01280111=
200608251253 METAR KSEA 251253Z 00000KT 10SM FEW050 12/11 A3008 RMK AO2 SLP190 T01170106=
200608251153 METAR KSEA 251153Z 05004KT 10SM CLR 13/11 A3006 RMK AO2 SLP186 T01330111 10150 20122 55001=
200608251053 METAR KSEA 251053Z 05006KT 10SM CLR 13/11 A3006 RMK AO2 SLP185 T01330111=
200608250953 METAR KSEA 250953Z 03007KT 10SM FEW050 14/11 A3007 RMK AO2 SLP187 T01390111=
200608250853 METAR KSEA 250853Z 04008KT 10SM FEW050 14/11 A3007 RMK AO2 SLP187 T01440111 53001=
200608250753 METAR KSEA 250753Z 03006KT 10SM SCT050 14/11 A3006 RMK AO2 SLP185 T01390106 402000128=
200608250653 METAR KSEA 250653Z 33003KT 10SM CLR 14/11 A3006 RMK AO2 SLP185 T01440106=
200608250553 METAR KSEA 250553Z 36005KT 10SM CLR 15/11 A3006 RMK AO2 SLP186 T01500106 10194 20150 50001=
200608250453 METAR KSEA 250453Z 34003KT 10SM SCT060 SCT200 16/11 A3007 RMK AO2 SLP187 T01560111=
200608250353 METAR KSEA 250353Z 33006KT 10SM FEW065 SCT120 SCT200 16/11 A3007 RMK AO2 SLP187 T01610111=
200608250253 METAR KSEA 250253Z 32004KT 10SM FEW031 SCT046 BKN200 17/11 A3006 RMK AO2 SLP185 T01720106 55005=
200608250153 METAR KSEA 250153Z 02004KT 10SM SCT031 BKN200 18/10 A3006 RMK AO2 SLP183 T01830100=
200608250053 METAR KSEA 250053Z VRB04KT 10SM BKN032 18/10 A3007 RMK AO2 SLP187 T01830100=
200608242353 METAR KSEA 242353Z 29007KT 10SM BKN030 18/11 A3008 RMK AO2 SLP190 T01830106 10200 20144 58012=
200608242324 SPECI KSEA 242324Z 30007KT 10SM BKN030 19/11 A3009 RMK AO2=
200608242324 SPECI KSEA 242324Z 30007KT 10SM BKN030 19/11 A3009 RMK AO2=
200608242253 METAR KSEA 242253Z VRB04KT 10SM BKN028 19/11 A3009 RMK AO2 SLP195 T01890106=
200608242153 METAR KSEA 242153Z 00000KT 10SM OVC026 18/11 A3010 RMK AO2 SLP200 T01830111=
200608242053 METAR KSEA 242053Z 00000KT 10SM OVC024 17/11 A3011 RMK AO2 SLP202 T01670106 58006 $=
200608242033 SPECI KSEA 242033Z VRB03KT 10SM OVC022 17/11 A3011 RMK AO2 $=
200608242033 SPECI KSEA 242033Z VRB03KT 10SM OVC022 17/11 A3011 RMK AO2 $=
200608241953 METAR KSEA 241953Z 00000KT 10SM OVC015 16/11 A3011 RMK AO2 SLP203 T01560111 $=
200608241918 SPECI KSEA 241918Z 28004KT 10SM BKN017 OVC022 15/11 A3013 RMK AO2 $=
200608241918 SPECI KSEA 241918Z 28004KT 10SM BKN017 OVC022 15/11 A3013 RMK AO2 $=
200608241853 METAR KSEA 241853Z 00000KT 9SM BKN014 OVC020 14/11 A3014 RMK AO2 SLP210 T01440106 $=
200608241753 METAR KSEA 241753Z 00000KT 10SM OVC010 14/11 A3013 RMK AO2 SLP209 T01440106 10144 20128 51002 $=
200608241653 METAR KSEA 241653Z 29003KT 10SM OVC010 14/10 A3013 RMK AO2 SLP209 T01390100 $=
200608241553 METAR KSEA 241553Z 27004KT 10SM OVC014 13/11 A3013 RMK AO2 SLP209 T01330106 $=
200608241453 METAR KSEA 241453Z 28003KT 10SM OVC014 13/10 A3013 RMK AO2 SLP207 T01330100 52002 $=
200608241417 SPECI KSEA 241417Z 29004KT 10SM OVC014 13/11 A3012 RMK AO2 $=
200608241417 SPECI KSEA 241417Z 29004KT 10SM OVC014 13/11 A3012 RMK AO2 $=
200608241353 METAR KSEA 241353Z 28004KT 10SM BKN016 OVC020 13/10 A3012 RMK AO2 SLP205 T01330100 $=
200608241333 SPECI KSEA 241333Z 23004KT 10SM FEW014 BKN016 OVC020 13/10 A3012 RMK AO2 $=
200608241333 SPECI KSEA 241333Z 23004KT 10SM FEW014 BKN016 OVC020 13/10 A3012 RMK AO2 $=
200608241253 METAR KSEA 241253Z 00000KT 10SM BKN014 BKN016 OVC020 13/10 A3013 RMK AO2 SLP207 T01330100 $=
200608241215 SPECI KSEA 241215Z 00000KT 10SM BKN014 OVC016 13/10 A3012 RMK AO2 $=
200608241215 SPECI KSEA 241215Z 00000KT 10SM BKN014 OVC016 13/10 A3012 RMK AO2 $=
200608241153 METAR KSEA 241153Z 29004KT 10SM BKN016 OVC020 13/10 A3012 RMK AO2 SLP205 T01330100 10144 20133 58009 $=
200608241053 METAR KSEA 241053Z 29003KT 10SM OVC016 13/10 A3013 RMK AO2 SLP208 T01330100 $=
200608240953 METAR KSEA 240953Z 30003KT 10SM BKN016 OVC035 13/11 A3014 RMK AO2 SLP213 T01330106 $=
200608240853 METAR KSEA 240853Z 24006KT 10SM BKN019 OVC036 13/10 A3015 RMK AO2 SLP214 T01330100 57004 $=
200608240753 METAR KSEA 240753Z 21005KT 10SM BKN025 OVC033 14/11 A3015 RMK AO2 SLP216 T01390106 402000111 $=
200608240653 METAR KSEA 240653Z 24007KT 10SM BKN029 OVC031 14/11 A3015 RMK AO2 SLP215 T01440106 $=
200608240553 METAR KSEA 240553Z 22007KT 10SM BKN027 OVC035 14/11 A3016 RMK AO2 SLP218 T01440106 10183 20144 58002 $=
200608240527 SPECI KSEA 240527Z 22007KT 10SM BKN027 OVC040 15/11 A3016 RMK AO2 $=
200608240527 SPECI KSEA 240527Z 22007KT 10SM BKN027 OVC040 15/11 A3016 RMK AO2 $=
200608240453 METAR KSEA 240453Z 24007KT 10SM SCT025 OVC032 16/11 A3016 RMK AO2 SLP220 T01560106 $=
200608240412 SPECI KSEA 240412Z 25007KT 10SM OVC032 16/11 A3017 RMK AO2 $=
200608240412 SPECI KSEA 240412Z 25007KT 10SM OVC032 16/11 A3017 RMK AO2 $=
200608240353 METAR KSEA 240353Z 24007KT 10SM BKN027 OVC060 16/11 A3017 RMK AO2 SLP220 T01610106 $=
200608240253 METAR KSEA 240253Z 23005KT 10SM BKN027 OVC060 16/11 A3016 RMK AO2 SLP220 T01610111 55005 $=
200608240153 METAR KSEA 240153Z 23009KT 10SM FEW020 BKN031 OVC065 17/11 A3016 RMK AO2 SLP218 T01670111 $=
200608240053 METAR KSEA 240053Z 26008KT 10SM BKN035 BKN065 17/12 A3017 RMK AO2 SLP222 T01720117 $=
200608232353 METAR KSEA 232353Z 25010KT 10SM FEW022 BKN033 19/12 A3018 RMK AO2 SLP225 T01890117 10200 20150 58005 $=
200608232253 METAR KSEA 232253Z 21009KT 10SM FEW022 OVC031 18/11 A3018 RMK AO2 SLP227 T01830111 $=
200608232229 SPECI KSEA 232229Z 22009KT 10SM SCT025 BKN031 20/11 A3018 RMK AO2 $=
200608232229 SPECI KSEA 232229Z 22009KT 10SM SCT025 BKN031 20/11 A3018 RMK AO2 $=
200608232153 METAR KSEA 232153Z 21010KT 10SM OVC027 18/11 A3019 RMK AO2 SLP229 T01830111 $=
200608232053 METAR KSEA 232053Z 22007KT 10SM OVC025 17/11 A3019 RMK AO2 SLP230 T01720106 58000 $=
200608231953 METAR KSEA 231953Z 25007KT 10SM OVC017 17/11 A3020 RMK AO2 SLP232 T01670111 $=
200608231853 METAR KSEA 231853Z 22007KT 10SM OVC015 16/11 A3020 RMK AO2 SLP232 T01560111 $=
200608231753 METAR KSEA 231753Z 23009KT 10SM OVC017 15/11 A3019 RMK AO2 SLP230 T01500106 10156 20117 51009 $=
200608231653 METAR KSEA 231653Z 18007KT 10SM BKN015 OVC017 14/11 A3018 RMK AO2 SLP227 T01390106 $=
200608231553 METAR KSEA 231553Z 21005KT 10SM BKN012 OVC016 13/10 A3018 RMK AO2 SLP225 T01330100 $=
200608231534 SPECI KSEA 231534Z 20004KT 10SM BKN013 OVC016 13/10 A3018 RMK AO2=
200608231534 SPECI KSEA 231534Z 20004KT 10SM BKN013 OVC016 13/10 A3018 RMK AO2=
200608231500 METAR KSEA NIL=
200608231453 METAR KSEA 231453Z 00000KT 9SM OVC006 12/10 A3017 RMK AO2 SLP221 T01220100 51014=
200608231443 SPECI KSEA 231443Z 20003KT 9SM OVC006 12/10 A3017=
200608231443 SPECI KSEA 231443Z 20003KT 9SM OVC006 12/10 A3017 RMK AO2=
200608231353 METAR KSEA 231353Z 15003KT 10SM OVC004 12/11 A3015 RMK AO2 SLP216 T01170106=
200608231312 SPECI KSEA 231312Z 19004KT 10SM OVC004 12/11 A3015 RMK AO2=
200608231312 SPECI KSEA 231312Z 19004KT 10SM OVC004 12/11 A3015 RMK AO2=
200608231256 METAR KSEA 231256Z 18005KT 10SM BKN004 OVC006 12/11 A3014 RMK AO2 SLP213 T01170106=
200608231203 SPECI KSEA 231203Z 22006KT 10SM BKN004 OVC006 12/11 A3013 RMK AO2=
200608231203 SPECI KSEA 231203Z 22006KT 10SM BKN004 OVC006 12/11 A3013 RMK AO2=
200608231156 METAR KSEA 231156Z 24005KT 10SM BKN006 OVC008 12/11 A3013 RMK AO2 SLP207 T01170106 10139 20111 50003=
200608231120 SPECI KSEA 231120Z 22003KT 10SM BKN006 BKN009 11/10 A3013=
200608231120 SPECI KSEA 231120Z 22003KT 10SM BKN006 BKN009 11/10 A3013 RMK AO2=
200608231056 METAR KSEA 231056Z 23003KT 10SM FEW005 SCT009 11/10 A3013 RMK AO2 SLP208 T01110100=
200608230956 METAR KSEA 230956Z 23004KT 10SM CLR 12/10 A3012 RMK AO2 SLP205 T01170100=
200608230856 METAR KSEA 230856Z 21004KT 10SM CLR 12/10 A3012 RMK AO2 SLP204 T01220100 58001=
200608230756 METAR KSEA 230756Z 22003KT 10SM CLR 13/11 A3012 RMK AO2 SLP206 T01280106 402060122=
200608230656 METAR KSEA 230656Z 21004KT 10SM CLR 13/11 A3012 RMK AO2 SLP207 T01330111=
200608230556 METAR KSEA 230556Z 21007KT 10SM CLR 14/11 A3012 RMK AO2 SLP205 T01390106 10206 20139 51010=
200608230456 METAR KSEA 230456Z 21004KT 10SM CLR 16/11 A3011 RMK AO2 SLP203 T01560106=
200608230356 METAR KSEA 230356Z 24006KT 10SM FEW200 17/11 A3010 RMK AO2 SLP199 T01720106=
200608230256 METAR KSEA 230256Z 28003KT 10SM FEW200 19/10 A3009 RMK AO2 SLP194 T01890100 56005=
200608230156 METAR KSEA 230156Z 24007KT 10SM FEW200 20/10 A3009 RMK AO2 SLP194 T02000100=
200608230056 METAR KSEA 230056Z 21007KT 10SM FEW200 20/10 A3010 RMK AO2 SLP197 T02000100=
200608222356 METAR KSEA 222356Z 25009KT 10SM FEW200 20/11 A3010 RMK AO2 SLP199 T02000106 10206 20139 58010=
200608222256 METAR KSEA 222256Z 27008KT 10SM FEW024 SCT250 20/11 A3012 RMK AO2 SLP204 T02000106=
200608222230 SPECI KSEA 222230Z 26011G15KT 10SM SCT024 19/11 A3012=
200608222230 SPECI KSEA 222230Z 26011G15KT 10SM SCT024 19/11 A3012 RMK AO2=
200608222156 METAR KSEA 222156Z 25009KT 10SM OVC022 19/11 A3013 RMK AO2 SLP208 T01890106=
200608222056 METAR KSEA 222056Z 24010KT 10SM OVC020 17/11 A3013 RMK AO2 SLP209 T01670106 50002=
200608221956 METAR KSEA 221956Z 22010KT 10SM SCT014 OVC020 15/11 A3014 RMK AO2 SLP212 T01500106=
200608221856 METAR KSEA 221856Z 23010KT 10SM OVC016 14/10 A3014 RMK AO2 SLP212 T01440100=
200608221844 SPECI KSEA 221844Z 23009KT 10SM OVC016 14/11 A3014=
200608221844 SPECI KSEA 221844Z 23009KT 10SM OVC016 14/11 A3014 RMK AO2=
200608221819 SPECI KSEA 221819Z 23009KT 10SM OVC014 14/10 A3013 RMK AO2=
200608221819 SPECI KSEA 221819Z 23009KT 10SM OVC014 14/10 A3013=
200608221756 METAR KSEA 221756Z 23008KT 10SM OVC016 14/10 A3013 RMK AO2 SLP207 T01440100 10144 20122 51013=
200608221656 METAR KSEA 221656Z 22008KT 10SM FEW010 OVC016 13/10 A3012 RMK AO2 SLP203 T01330100=
200608221610 SPECI KSEA 221610Z 21006KT 10SM SCT010 OVC016 13/10 A3011=
200608221610 SPECI KSEA 221610Z 21006KT 10SM SCT010 OVC016 13/10 A3011 RMK AO2=
200608221556 METAR KSEA 221556Z 23008KT 10SM BKN010 OVC014 13/10 A3011 RMK AO2 SLP200 T01330100=
200608221456 METAR KSEA 221456Z 23008KT 10SM BKN010 OVC014 13/11 A3009 RMK AO2 SLP194 T01280106 51012=
200608221356 METAR KSEA 221356Z 17006KT 10SM BKN010 OVC012 13/10 A3008 RMK AO2 SLP191 T01280100=
200608221256 METAR KSEA 221256Z 17006KT 10SM FEW010 OVC012 12/10 A3007 RMK AO2 SLP187 T01220100=
200608221156 METAR KSEA 221156Z 18006KT 10SM FEW010 OVC012 12/10 A3005 RMK AO2 SLP181 T01220100 10144 20122 53002=
200608221056 METAR KSEA 221056Z 19006KT 10SM BKN012 OVC200 13/10 A3005 RMK AO2 SLP179 T01280100=
200608221049 SPECI KSEA 221049Z 20007KT 10SM BKN012 BKN200 13/10 A3005=
200608221049 SPECI KSEA 221049Z 20007KT 10SM BKN012 BKN200 13/10 A3005 RMK AO2=
200608220956 METAR KSEA 220956Z 21005KT 10SM SCT012 SCT200 12/10 A3005 RMK AO2 SLP179 T01220100=
200608220856 METAR KSEA 220856Z 23006KT 10SM FEW015 SCT200 13/10 A3005 RMK AO2 SLP179 T01280100 51002=
200608220756 METAR KSEA 220756Z 22006KT 10SM FEW200 13/11 A3005 RMK AO2 SLP180 T01280106 402610122=
200608220656 METAR KSEA 220656Z 21007KT 10SM FEW150 BKN200 13/10 A3004 RMK AO2 SLP178 T01330100=
200608220556 METAR KSEA 220556Z 19007KT 10SM SCT150 OVC200 14/10 A3004 RMK AO2 SLP177 T01440100 10250 20144 53018=
200608220456 METAR KSEA 220456Z 22008KT 10SM FEW160 OVC250 16/10 A3002 RMK AO2 SLP172 T01610100=
200608220356 METAR KSEA 220356Z 27007KT 10SM FEW160 BKN250 18/11 A3000 RMK AO2 SLP164 T01830106=
200608220256 METAR KSEA 220256Z 26010KT 10SM FEW160 BKN250 21/12 A2999 RMK AO2 SLP160 T02060117 52008=
200608220156 METAR KSEA 220156Z 23007KT 10SM FEW160 BKN250 23/12 A2998 RMK AO2 SLP156 T02280117=
200608220056 METAR KSEA 220056Z 21010KT 10SM BKN250 23/11 A2997 RMK AO2 SLP154 T02330111=
200608212356 METAR KSEA 212356Z 22007KT 10SM BKN250 24/11 A2996 RMK AO2 SLP151 T02390111 10261 20178 58009=
200608212256 METAR KSEA 212256Z 22004KT 10SM BKN250 25/11 A2997 RMK AO2 SLP153 T02500111=
200608212156 METAR KSEA 212156Z 21007KT 10SM FEW100 BKN250 23/11 A2998 RMK AO2 SLP158 T02330106=
200608212056 METAR KSEA 212056Z 23008KT 10SM BKN250 24/11 A2999 RMK AO2 SLP160 T02390106 58006=
200608211956 METAR KSEA 211956Z 20005KT 10SM BKN250 21/11 A3000 RMK AO2 SLP162 T02110111=
200608211856 METAR KSEA 211856Z 22007KT 10SM BKN250 20/12 A3001 RMK AO2 SLP165 T02000117=
200608211756 METAR KSEA 211756Z 22007KT 200V270 10SM SCT200 18/11 A3001 RMK AO2 SLP166 T01830111 10183 20122 55002=
200608211656 METAR KSEA 211656Z 21006KT 10SM FEW005 SCT200 16/11 A3000 RMK AO2 SLP165 T01610111=
200608211556 METAR KSEA 211556Z 23003KT 10SM R16R/3500VP6000FT FEW005 SCT200 14/11 A3001 RMK AO2 SLP167 T01440111=
200608211532 SPECI KSEA 211532Z 23005KT 10SM SCT005 14/11 A3001 RMK AO2=
200608211532 SPECI KSEA 211532Z 23005KT 10SM SCT005 14/11 A3001 RMK AO2=
200608211505 SPECI KSEA 211505Z 22006KT 10SM BKN005 13/11 A3001 RMK AO2=
200608211505 SPECI KSEA 211505Z 22006KT 10SM BKN005 13/11 A3001 RMK AO2=
200608211456 METAR KSEA 211456Z 22006KT 10SM SCT005 SCT160 13/11 A3001 RMK AO2 SLP168 T01330111 53013=
200608211440 SPECI KSEA 211440Z 20005KT 10SM SCT005 SCT160 13/11 A3001=
200608211440 SPECI KSEA 211440Z 20005KT 10SM SCT005 SCT160 13/11 A3001 RMK AO2=
200608211356 METAR KSEA 211356Z 21005KT 10SM FEW160 SCT190 12/11 A3000 RMK AO2 SLP163 T01220111=
200608211256 METAR KSEA 211256Z 21003KT 10SM SCT190 12/11 A2999 RMK AO2 SLP159 T01220111=
200608211156 METAR KSEA 211156Z 19004KT 10SM FEW200 13/11 A2998 RMK AO2 SLP154 T01330111 10206 20133 53006=
200608211056 METAR KSEA 211056Z 20004KT 10SM FEW250 14/11 A2997 RMK AO2 SLP151 T01390111=
200608210956 METAR KSEA 210956Z 19004KT 10SM FEW250 14/11 A2996 RMK AO2 SLP149 T01440106=
200608210856 METAR KSEA 210856Z 00000KT 10SM CLR 16/11 A2996 RMK AO2 SLP148 T01610111 51011=
200608210756 METAR KSEA 210756Z 23003KT 10SM CLR 17/11 A2995 RMK AO2 SLP145 T01720111 403000133=
200608210656 METAR KSEA 210656Z 31004KT 10SM FEW250 19/11 A2994 RMK AO2 SLP141 T01890111=
200608210556 METAR KSEA 210556Z 35005KT 10SM FEW250 20/11 A2992 RMK AO2 SLP137 T02000106 10300 20200 53010=
200608210456 METAR KSEA 210456Z 36006KT 10SM FEW250 21/09 A2991 RMK AO2 SLP133 T02110094=
200608210356 METAR KSEA 210356Z 36008KT 10SM SCT250 22/08 A2990 RMK AO2 SLP130 T02220083=
200608210256 METAR KSEA 210256Z 35008KT 10SM FEW120 SCT250 24/06 A2989 RMK AO2 SLP127 T02440056 55010=
200608210156 METAR KSEA 210156Z 35010KT 10SM SCT250 27/08 A2989 RMK AO2 SLP126 T02720078=
200608210056 METAR KSEA 210056Z 36010KT 10SM SCT250 28/09 A2991 RMK AO2 SLP131 T02830089=
200608202356 METAR KSEA 202356Z 32008KT 10SM FEW250 29/09 A2992 RMK AO2 SLP136 T02940094 10300 20222 56015=
200608202256 METAR KSEA 202256Z 29010KT 10SM FEW250 30/11 A2993 RMK AO2 SLP139 T03000106=
200608202156 METAR KSEA 202156Z 31006KT 10SM FEW250 28/11 A2995 RMK AO2 SLP145 T02830111=
200608202056 METAR KSEA 202056Z 30007KT 10SM FEW250 28/12 A2997 RMK AO2 SLP150 T02780122 56007=
200608201956 METAR KSEA 201956Z 29006KT 10SM FEW250 26/12 A2997 RMK AO2 SLP152 T02610117=
200608201856 METAR KSEA 201856Z 28006KT 10SM FEW250 24/12 A2998 RMK AO2 SLP156 T02390122=
200608201756 METAR KSEA 201756Z 30007KT 10SM FEW250 22/13 A2999 RMK AO2 SLP159 T02220128 10228 20133 52001=
200608201656 METAR KSEA 201656Z 30005KT 10SM FEW250 21/13 A2998 RMK AO2 SLP158 T02060128=
200608201556 METAR KSEA 201556Z 29004KT 10SM FEW250 19/13 A2999 RMK AO2 SLP159 T01890128=
200608201456 METAR KSEA 201456Z 00000KT 10SM FEW200 17/12 A2998 RMK AO2 SLP158 T01670117 51009=
200608201356 METAR KSEA 201356Z 00000KT 10SM FEW200 14/12 A2998 RMK AO2 SLP157 T01390117=
200608201256 METAR KSEA 201256Z 18004KT 10SM CLR 13/11 A2997 RMK AO2 SLP153 T01330106=
200608201156 METAR KSEA 201156Z 00000KT 10SM CLR 14/11 A2996 RMK AO2 SLP148 T01440111 10200 20144 53003=
200608201056 METAR KSEA 201056Z 09003KT 10SM CLR 16/12 A2995 RMK AO2 SLP146 T01610117=
200608200956 METAR KSEA 200956Z 03003KT 10SM CLR 17/12 A2995 RMK AO2 SLP145 T01670117=
200608200856 METAR KSEA 200856Z 00000KT 10SM CLR 17/12 A2995 RMK AO2 SLP144 T01670117 50001=
200608200756 METAR KSEA 200756Z 00000KT 10SM CLR 17/12 A2995 RMK AO2 SLP146 T01720117 402890139=
200608200656 METAR KSEA 200656Z 01005KT 10SM CLR 19/11 A2995 RMK AO2 SLP144 T01940111=
200608200556 METAR KSEA 200556Z 00000KT 10SM CLR 19/10 A2994 RMK AO2 SLP144 T01940100 10278 20194 51005=
200608200456 METAR KSEA 200456Z 02006KT 10SM CLR 22/09 A2994 RMK AO2 SLP142 T02170094=
200608200356 METAR KSEA 200356Z 01007KT 10SM FEW250 23/09 A2993 RMK AO2 SLP141 T02280094=
200608200256 METAR KSEA 200256Z 36008KT 10SM FEW250 24/09 A2993 RMK AO2 SLP138 T02390089 56007=
200608200156 METAR KSEA 200156Z 35007KT 10SM SCT250 26/08 A2993 RMK AO2 SLP138 T02560083=
200608200056 METAR KSEA 200056Z 01011KT 10SM SCT250 27/08 A2994 RMK AO2 SLP142 T02670078=
200608192356 METAR KSEA 192356Z 02009KT 10SM SCT250 28/08 A2995 RMK AO2 SLP145 T02780078 10289 20222 56014=
200608192256 METAR KSEA 192256Z 36007KT 10SM BKN250 28/09 A2996 RMK AO2 SLP148 T02830094=
200608192156 METAR KSEA 192156Z 31009KT 10SM SCT250 28/11 A2998 RMK AO2 SLP154 T02830106=
200608192056 METAR KSEA 192056Z 31008KT 10SM FEW250 27/12 A2999 RMK AO2 SLP159 T02670117 58013=
200608191956 METAR KSEA 191956Z 35009KT 10SM FEW250 24/10 A3000 RMK AO2 SLP163 T02440100=
200608191856 METAR KSEA 191856Z 31007KT 280V350 10SM FEW250 24/12 A3002 RMK AO2 SLP169 T02390122=
200608191756 METAR KSEA 191756Z 31006KT 10SM FEW250 23/13 A3003 RMK AO2 SLP173 T02280128 10228 20139 58003=
200608191656 METAR KSEA 191656Z 33004KT 9SM FEW250 21/12 A3003 RMK AO2 SLP173 T02060122=
200608191556 METAR KSEA 191556Z VRB05KT 10SM FEW250 18/12 A3004 RMK AO2 SLP176 T01830122=
200608191456 METAR KSEA 191456Z 35005KT 10SM FEW250 16/12 A3004 RMK AO2 SLP176 T01610122 51006=
200608191356 METAR KSEA 191356Z 33003KT 9SM FEW200 14/12 A3003 RMK AO2 SLP175 T01440122=
200608191256 METAR KSEA 191256Z 36006KT 10SM CLR 14/12 A3003 RMK AO2 SLP173 T01440117=
200608191156 METAR KSEA 191156Z 36004KT 10SM CLR 14/12 A3002 RMK AO2 SLP170 T01440117 10194 20144 56002=
200608191056 METAR KSEA 191056Z 36004KT 10SM CLR 15/12 A3002 RMK AO2 SLP171 T01500117=
200608190956 METAR KSEA 190956Z 35003KT 10SM CLR 16/12 A3002 RMK AO2 SLP170 T01560122=
200608190856 METAR KSEA 190856Z 04006KT 10SM CLR 17/12 A3002 RMK AO2 SLP172 T01720122 56005=
200608190756 METAR KSEA 190756Z 03008KT 10SM CLR 18/12 A3003 RMK AO2 SLP173 T01830117 402720117=
200608190656 METAR KSEA 190656Z 03009KT 10SM FEW250 19/12 A3003 RMK AO2 SLP174 T01890117=
200608190556 METAR KSEA 190556Z 01007KT 10SM CLR 19/12 A3004 RMK AO2 SLP177 T01940117 10267 20194 50003=
200608190456 METAR KSEA 190456Z 01008KT 10SM FEW250 20/12 A3004 RMK AO2 SLP177 T02000117=
200608190356 METAR KSEA 190356Z 36008KT 10SM SCT250 22/11 A3004 RMK AO2 SLP176 T02170106=
200608190256 METAR KSEA 190256Z 36007KT 10SM SCT250 24/08 A3003 RMK AO2 SLP174 T02390083 56009=
200608190156 METAR KSEA 190156Z 35011KT 10SM FEW250 25/09 A3004 RMK AO2 SLP176 T02500089=
200608190056 METAR KSEA 190056Z 35010KT 10SM FEW250 26/10 A3005 RMK AO2 SLP179 T02610100=
200608182356 METAR KSEA 182356Z 35009KT 10SM CLR 27/11 A3006 RMK AO2 SLP183 T02670111 10272 20211 56021=
200608182256 METAR KSEA 182256Z 35010KT 10SM CLR 26/12 A3008 RMK AO2 SLP190 T02610117=
200608182156 METAR KSEA 182156Z 36008KT 330V040 10SM CLR 26/12 A3010 RMK AO2 SLP198 T02560117=
200608182056 METAR KSEA 182056Z 34007KT 10SM CLR 24/12 A3012 RMK AO2 SLP205 T02440117 58018=
200608181956 METAR KSEA 181956Z 36009KT 10SM CLR 24/12 A3015 RMK AO2 SLP214 T02390117=
200608181856 METAR KSEA 181856Z 01008KT 10SM CLR 22/12 A3017 RMK AO2 SLP220 T02170117=
200608181756 METAR KSEA 181756Z 31004KT 10SM FEW250 21/12 A3018 RMK AO2 SLP223 T02110122 10217 20117 58003=
200608181656 METAR KSEA 181656Z 02004KT 9SM FEW250 18/12 A3019 RMK AO2 SLP226 T01830117=
200608181556 METAR KSEA 181556Z 36006KT 10SM FEW250 16/12 A3019 RMK AO2 SLP228 T01610117=
200608181456 METAR KSEA 181456Z 05007KT 10SM FEW250 14/12 A3018 RMK AO2 SLP227 T01440117 51004=
200608181356 METAR KSEA 181356Z 01005KT 8SM FEW250 13/11 A3018 RMK AO2 SLP226 T01280111=
200608181256 METAR KSEA 181256Z 36004KT 9SM CLR 12/11 A3018 RMK AO2 SLP224 T01220111=
200608181156 METAR KSEA 181156Z 31003KT 8SM FEW002 12/11 A3017 RMK AO2 SLP222 T01170106 10156 20117 56002=
200608181151 SPECI KSEA 181151Z 31003KT 9SM FEW002 12/11 A3017 RMK AO2=
200608181151 SPECI KSEA 181151Z 31003KT 9SM FEW002 12/11 A3017 RMK AO2=
200608181056 METAR KSEA 181056Z 36003KT 9SM CLR 13/11 A3017 RMK AO2 SLP222 T01280111=
200608180956 METAR KSEA 180956Z 33003KT 10SM CLR 13/12 A3017 RMK AO2 SLP223 T01280117=
200608180856 METAR KSEA 180856Z 00000KT 10SM CLR 14/12 A3018 RMK AO2 SLP224 T01440117 57008=
200608180756 METAR KSEA 180756Z 00000KT 10SM CLR 14/12 A3019 RMK AO2 SLP228 T01440122 402220122=
200608180656 METAR KSEA 180656Z 00000KT 10SM CLR 15/12 A3019 RMK AO2 SLP230 T01500117=
200608180556 METAR KSEA 180556Z 00000KT 10SM CLR 16/12 A3020 RMK AO2 SLP233 T01560117 10222 20156 50004=
200608180456 METAR KSEA 180456Z 00000KT 10SM CLR 17/12 A3020 RMK AO2 SLP233 T01670117=
200608180356 METAR KSEA 180356Z 31004KT 10SM CLR 17/12 A3020 RMK AO2 SLP232 T01720117=
200608180256 METAR KSEA 180256Z 30004KT 10SM CLR 19/12 A3019 RMK AO2 SLP229 T01940117 55004=
200608180156 METAR KSEA 180156Z 30004KT 10SM CLR 22/12 A3019 RMK AO2 SLP228 T02170117=
200608180056 METAR KSEA 180056Z 00000KT 10SM FEW050 22/11 A3019 RMK AO2 SLP230 T02170111=
200608172356 METAR KSEA 172356Z VRB04KT 10SM FEW050 22/11 A3020 RMK AO2 SLP233 T02170111 10217 20144 58012=
200608172256 METAR KSEA 172256Z 00000KT 10SM FEW050 20/11 A3022 RMK AO2 SLP237 T02000111=
200608172156 METAR KSEA 172156Z VRB04KT 10SM FEW040 19/11 A3023 RMK AO2 SLP242 T01940111=
200608172056 METAR KSEA 172056Z 26007KT 230V300 10SM FEW020 20/11 A3024 RMK AO2 SLP245 T02000111 58003=
200608172019 SPECI KSEA 172019Z VRB04KT 10SM FEW016 SCT020 18/11 A3024 RMK AO2=
200608172019 SPECI KSEA 172019Z VRB04KT 10SM FEW016 SCT020 18/11 A3024 RMK AO2=
200608171956 METAR KSEA 171956Z 26006KT 10SM SCT016 BKN020 18/11 A3025 RMK AO2 SLP248 T01830106=
200608171942 SPECI KSEA 171942Z 26008KT 10SM BKN016 OVC020 17/11 A3025=
200608171942 SPECI KSEA 171942Z 26008KT 10SM BKN016 OVC020 17/11 A3025 RMK AO2 BINOVC OHD=
200608171856 METAR KSEA 171856Z 26007KT 10SM BKN014 OVC017 16/11 A3025 RMK AO2 SLP250 OCNL BINOVC OHD T01610106=
200608171756 METAR KSEA 171756Z VRB04KT 10SM BKN012 OVC015 14/10 A3025 RMK AO2 SLP249 T01440100 10144 20128 51007=
200608171656 METAR KSEA 171656Z 23004KT 10SM BKN010 OVC013 14/10 A3024 RMK AO2 SLP247 T01390100=
200608171556 METAR KSEA 171556Z 22005KT 10SM BKN010 OVC013 13/10 A3024 RMK AO2 SLP245 T01330100=
200608171456 METAR KSEA 171456Z 22004KT 10SM BKN010 OVC013 13/10 A3023 RMK AO2 SLP242 T01330100 51016=
200608171356 METAR KSEA 171356Z 21007KT 10SM BKN010 OVC012 13/11 A3022 RMK AO2 SLP238 T01280106=
200608171256 METAR KSEA 171256Z 20006KT 10SM BKN010 OVC014 13/11 A3020 RMK AO2 SLP232 T01280106=
200608171156 METAR KSEA 171156Z 22006KT 10SM OVC010 13/11 A3018 RMK AO2 SLP224 T01280106 10144 20122 52010=
200608171056 METAR KSEA 171056Z 23007KT 10SM BKN010 13/11 A3017 RMK AO2 SLP221 T01280106=
200608171021 SPECI KSEA 171021Z 23006KT 10SM FEW008 BKN010 12/11 A3017 RMK AO2=
200608171021 SPECI KSEA 171021Z 23006KT 10SM FEW008 BKN010 12/11 A3017 RMK AO2=
200608170956 METAR KSEA 170956Z 22007KT 10SM FEW008 SCT010 12/11 A3016 RMK AO2 SLP219 T01220106=
200608170856 METAR KSEA 170856Z 18007KT 10SM CLR 12/11 A3015 RMK AO2 SLP216 T01220106 52009=
200608170756 METAR KSEA 170756Z 17006KT 10SM CLR 13/11 A3014 RMK AO2 SLP213 T01280106 402390117=
200608170656 METAR KSEA 170656Z 21006KT 10SM CLR 13/11 A3013 RMK AO2 SLP208 T01330106=
200608170556 METAR KSEA 170556Z 22007KT 10SM CLR 14/11 A3012 RMK AO2 SLP206 T01440111 10233 20144 51020=
200608170456 METAR KSEA 170456Z 23008KT 10SM FEW050 SCT200 17/11 A3011 RMK AO2 SLP201 T01670106=
200608170356 METAR KSEA 170356Z 25011KT 10SM FEW050 SCT200 19/11 A3009 RMK AO2 SLP193 T01890106=
200608170256 METAR KSEA 170256Z 19004KT 10SM SCT049 SCT200 21/09 A3006 RMK AO2 SLP185 T02060094 53001=
200608170156 METAR KSEA 170156Z 18007KT 10SM SCT049 SCT200 21/09 A3006 RMK AO2 SLP184 T02110094=
200608170056 METAR KSEA 170056Z 25004KT 10SM SCT045 SCT200 23/09 A3005 RMK AO2 SLP182 T02280094=
200608162356 METAR KSEA 162356Z 27006KT 10SM SCT045 SCT200 23/09 A3006 RMK AO2 SLP184 T02280094 10239 20167 56008=
200608162256 METAR KSEA 162256Z 29005KT 10SM SCT042 BKN200 23/09 A3007 RMK AO2 SLP186 T02280094=
200608162156 METAR KSEA 162156Z 28009KT 10SM FEW040 SCT200 22/09 A3007 RMK AO2 SLP189 T02220094=
200608162056 METAR KSEA 162056Z 00000KT 10SM FEW035 SCT200 20/09 A3008 RMK AO2 SLP193 T02000089 56003=
200608161956 METAR KSEA 161956Z 24007KT 10SM FEW030 SCT200 19/09 A3008 RMK AO2 SLP193 T01890089=
200608161856 METAR KSEA 161856Z 21008KT 170V260 10SM FEW025 SCT200 19/09 A3009 RMK AO2 SLP194 T01940089=
200608161756 METAR KSEA 161756Z 20009KT 10SM FEW022 SCT110 BKN200 17/08 A3009 RMK AO2 SLP196 T01670083 10172 20117 51004=
200608161656 METAR KSEA 161656Z 25006KT 10SM FEW019 SCT050 SCT110 BKN200 16/09 A3009 RMK AO2 SLP195 T01610089=
200608161556 METAR KSEA 161556Z 17005KT 10SM FEW015 SCT045 SCT110 BKN200 14/09 A3009 RMK AO2 SLP194 T01390089=
200608161456 METAR KSEA 161456Z 18003KT 10SM BKN055 BKN080 BKN200 13/09 A3008 RMK AO2 SLP192 T01280089 52010=
200608161356 METAR KSEA 161356Z 21003KT 10SM SCT046 BKN060 BKN100 BKN200 12/09 A3007 RMK AO2 SLP188 T01220094=
200608161256 METAR KSEA 161256Z 17004KT 10SM SCT044 BKN055 12/09 A3006 RMK AO2 SLP184 T01170094=
200608161156 METAR KSEA 161156Z 21003KT 10SM SCT044 OVC060 12/09 A3005 RMK AO2 SLP181 T01220094 10144 20122 51006=
200608161056 METAR KSEA 161056Z 21004KT 10SM BKN045 BKN070 12/09 A3005 RMK AO2 SLP180 T01220094=
200608160956 METAR KSEA 160956Z 22007KT 10SM BKN045 BKN080 BKN200 13/09 A3004 RMK AO2 SLP177 T01280094=
200608160856 METAR KSEA 160856Z 21007KT 10SM BKN045 BKN080 OVC200 13/09 A3003 RMK AO2 SLP175 T01280094 53001=
200608160756 METAR KSEA 160756Z 22007KT 10SM BKN047 BKN080 BKN200 13/09 A3003 RMK AO2 SLP173 T01330094 402170122=
200608160656 METAR KSEA 160656Z 21006KT 10SM FEW080 SCT200 13/09 A3003 RMK AO2 SLP174 T01330094=
200608160556 METAR KSEA 160556Z 22006KT 10SM FEW200 14/09 A3003 RMK AO2 SLP174 T01440094 10217 20144 51007=
200608160456 METAR KSEA 160456Z 26007KT 10SM SCT200 16/09 A3002 RMK AO2 SLP172 T01560094=
200608160356 METAR KSEA 160356Z 26006KT 10SM FEW050 SCT200 17/09 A3002 RMK AO2 SLP170 T01670094=
200608160256 METAR KSEA 160256Z 23006KT 10SM FEW050 BKN200 19/09 A3001 RMK AO2 SLP167 T01890089 55006=
200608160156 METAR KSEA 160156Z 24008KT 10SM FEW050 BKN200 20/09 A3001 RMK AO2 SLP166 T02000089=
200608160056 METAR KSEA 160056Z 24007KT 10SM FEW050 BKN200 21/09 A3001 RMK AO2 SLP169 T02110089=
200608152356 METAR KSEA 152356Z 23007KT 10SM FEW060 BKN200 21/09 A3003 RMK AO2 SLP173 T02110089 10217 20156 58014=
200608152256 METAR KSEA 152256Z 23011KT 10SM FEW060 BKN200 20/09 A3004 RMK AO2 SLP178 T02000094=
200608152156 METAR KSEA 152156Z 25010KT 10SM FEW035 BKN200 21/09 A3006 RMK AO2 SLP182 T02110094=
200608152056 METAR KSEA 152056Z 25007G14KT 210V290 10SM FEW030 SCT200 20/09 A3007 RMK AO2 SLP187 T02000094 58006=
200608151956 METAR KSEA 151956Z 24008KT 10SM SCT024 BKN030 BKN200 19/10 A3008 RMK AO2 SLP191 T01890100=
200608151856 METAR KSEA 151856Z 23008KT 10SM BKN020 OVC025 17/09 A3008 RMK AO2 SLP192 OCNL BINOVC OHD T01670094=
200608151756 METAR KSEA 151756Z 24008KT 10SM BKN016 OVC018 16/10 A3009 RMK AO2 SLP193 T01560100 10156 20122 51006=
200608151656 METAR KSEA 151656Z 23006KT 10SM BKN016 OVC018 14/10 A3009 RMK AO2 SLP192 T01440100=
200608151631 SPECI KSEA 151631Z 23008KT 10SM BKN016 OVC018 14/10 A3009 RMK AO2=
200608151631 SPECI KSEA 151631Z 23008KT 10SM BKN016 OVC018 14/10 A3009 RMK AO2=
200608151556 METAR KSEA 151556Z 23006KT 10SM BKN014 OVC016 13/09 A3008 RMK AO2 SLP191 T01330094=
200608151456 METAR KSEA 151456Z 19007KT 10SM OVC010 13/09 A3007 RMK AO2 SLP187 T01280094 51010=
200608151356 METAR KSEA 151356Z 21008KT 10SM BKN010 OVC070 13/10 A3006 RMK AO2 SLP184 T01280100=
200608151256 METAR KSEA 151256Z 22007KT 10SM BKN010 BKN070 13/10 A3005 RMK AO2 SLP181 T01280100=
200608151234 SPECI KSEA 151234Z 23007KT 10SM BKN012 BKN070 13/11 A3004 RMK AO2=
200608151234 SPECI KSEA 151234Z 23007KT 10SM BKN012 BKN070 13/11 A3004 RMK AO2=
200608151156 METAR KSEA 151156Z 21006KT 10SM FEW070 SCT200 12/11 A3004 RMK AO2 SLP176 T01220106 10200 20122 53009=
200608151056 METAR KSEA 151056Z 21006KT 10SM SCT070 SCT200 13/10 A3003 RMK AO2 SLP171 T01330100=
200608150956 METAR KSEA 150956Z 22006KT 10SM SCT070 SCT200 14/11 A3002 RMK AO2 SLP169 T01390106=
200608150856 METAR KSEA 150856Z 21007KT 10SM SCT070 SCT200 14/11 A3001 RMK AO2 SLP167 T01440106 51009=
200608150756 METAR KSEA 150756Z 20005KT 10SM SCT070 SCT200 16/11 A3001 RMK AO2 SLP166 T01560111 403000133=
200608150656 METAR KSEA 150656Z 08006KT 10SM SCT070 SCT200 19/07 A3000 RMK AO2 SLP161 T01890072=
200608150556 METAR KSEA 150556Z 03008KT 10SM BKN070 BKN200 20/08 A2998 RMK AO2 SLP157 T02000083 10300 20200 51018=
200608150456 METAR KSEA 150456Z 03007KT 10SM FEW060 21/09 A2997 RMK AO2 SLP153 T02110094=
200608150356 METAR KSEA 150356Z 03011KT 10SM FEW060 23/09 A2995 RMK AO2 SLP144 T02330089=
200608150256 METAR KSEA 150256Z 02010KT 10SM FEW200 24/09 A2993 RMK AO2 SLP140 T02440094 55002=
200608150156 METAR KSEA 150156Z 36009KT 10SM FEW200 27/09 A2993 RMK AO2 SLP139 T02670089=
200608150056 METAR KSEA 150056Z 35006KT 10SM FEW045 SCT200 28/11 A2993 RMK AO2 SLP137 T02830106=
200608142356 METAR KSEA 142356Z VRB06KT 10SM FEW045 SCT200 29/10 A2994 RMK AO2 SLP140 T02890100 10300 20228 57011=
200608142256 METAR KSEA 142256Z 27007KT 10SM FEW045 SCT200 29/09 A2995 RMK AO2 SLP144 T02940094=
200608142156 METAR KSEA 142156Z 28005KT 10SM FEW045 SCT150 SCT200 28/09 A2996 RMK AO2 SLP148 T02830089=
200608142056 METAR KSEA 142056Z 30009KT 10SM FEW040 SCT200 28/11 A2997 RMK AO2 SLP151 T02780106 56010=
200608141956 METAR KSEA 141956Z 31008KT 10SM FEW040 SCT200 27/12 A2997 RMK AO2 SLP152 T02670117=
200608141856 METAR KSEA 141856Z VRB04KT 10SM FEW200 25/12 A2999 RMK AO2 SLP158 T02500117=
200608141756 METAR KSEA 141756Z 29005KT 10SM FEW200 23/12 A3000 RMK AO2 SLP161 T02330122 10233 20133 50002=
200608141656 METAR KSEA 141656Z VRB04KT 10SM FEW200 21/13 A3000 RMK AO2 SLP163 T02110133=
200608141556 METAR KSEA 141556Z VRB03KT 10SM CLR 19/13 A3000 RMK AO2 SLP162 T01940128=
200608141456 METAR KSEA 141456Z 00000KT 10SM CLR 17/12 A2999 RMK AO2 SLP160 T01720122 51006=
200608141356 METAR KSEA 141356Z 00000KT 9SM CLR 14/12 A2999 RMK AO2 SLP159 T01440122=
200608141256 METAR KSEA 141256Z 00000KT 10SM CLR 15/12 A2999 RMK AO2 SLP158 T01500122=
200608141156 METAR KSEA 141156Z 00000KT 10SM CLR 15/12 A2997 RMK AO2 SLP153 T01500122 10200 20150 55002=
200608141056 METAR KSEA 141056Z 02003KT 10SM CLR 17/12 A2997 RMK AO2 SLP152 T01670117=
200608140956 METAR KSEA 140956Z 04007KT 10SM CLR 17/12 A2997 RMK AO2 SLP153 T01720117=
200608140856 METAR KSEA 140856Z 02006KT 10SM CLR 18/12 A2998 RMK AO2 SLP155 T01780117 56005=
200608140756 METAR KSEA 140756Z 03009KT 10SM CLR 19/12 A2998 RMK AO2 SLP157 T01890117 402780128=
200608140656 METAR KSEA 140656Z 01006KT 10SM CLR 19/12 A2999 RMK AO2 SLP158 T01940117=
200608140556 METAR KSEA 140556Z 01006KT 10SM CLR 20/11 A2999 RMK AO2 SLP161 T02000111 10261 20194 51008=
200608140456 METAR KSEA 140456Z 36006KT 10SM CLR 21/11 A2999 RMK AO2 SLP159 T02060106=
200608140356 METAR KSEA 140356Z 36005KT 10SM CLR 22/09 A2998 RMK AO2 SLP155 T02170094=
200608140256 METAR KSEA 140256Z 35007KT 10SM CLR 23/10 A2997 RMK AO2 SLP152 T02330100 56006=
200608140156 METAR KSEA 140156Z 36010KT 10SM FEW055 24/11 A2997 RMK AO2 SLP152 T02440106=
200608140056 METAR KSEA 140056Z 35011KT 10SM FEW050 26/11 A2998 RMK AO2 SLP155 T02560106=
200608132356 METAR KSEA 132356Z 36011KT 10SM FEW050 27/10 A2999 RMK AO2 SLP159 T02670100 10278 20211 56019=
200608132256 METAR KSEA 132256Z 01008KT 10SM FEW050 27/10 A3000 RMK AO2 SLP164 T02720100=
200608132156 METAR KSEA 132156Z 35006KT 10SM FEW050 26/11 A3002 RMK AO2 SLP171 T02610106=
200608132056 METAR KSEA 132056Z 02010KT 340V040 10SM CLR 25/11 A3004 RMK AO2 SLP178 T02500111 58017=
200608131956 METAR KSEA 131956Z 34009KT 10SM CLR 23/11 A3006 RMK AO2 SLP184 T02330111=
200608131856 METAR KSEA 131856Z 32007KT 290V010 10SM CLR 23/12 A3008 RMK AO2 SLP191 T02330122=
200608131756 METAR KSEA 131756Z 31007KT 10SM CLR 22/12 A3009 RMK AO2 SLP195 T02170122 10217 20128 58005=
200608131656 METAR KSEA 131656Z 02006KT 10SM CLR 19/11 A3010 RMK AO2 SLP198 T01940111=
200608131556 METAR KSEA 131556Z 02006KT 10SM CLR 18/11 A3011 RMK AO2 SLP199 T01780111=
200608131456 METAR KSEA 131456Z 02006KT 10SM CLR 16/11 A3011 RMK AO2 SLP200 T01560111 52007=
200608131356 METAR KSEA 131356Z 03004KT 10SM CLR 14/11 A3010 RMK AO2 SLP197 T01390111=
200608131256 METAR KSEA 131256Z 36004KT 10SM CLR 13/11 A3010 RMK AO2 SLP196 T01330111=
200608131156 METAR KSEA 131156Z 00000KT 10SM CLR 13/11 A3009 RMK AO2 SLP193 T01330111 10183 20133 57003=
200608131056 METAR KSEA 131056Z 02007KT 10SM CLR 14/11 A3009 RMK AO2 SLP195 T01440111=
200608130956 METAR KSEA 130956Z 36007KT 10SM CLR 14/11 A3009 RMK AO2 SLP195 T01440111=
200608130856 METAR KSEA 130856Z 35006KT 10SM CLR 15/11 A3010 RMK AO2 SLP197 T01500111 51003=
200608130756 METAR KSEA 130756Z 01006KT 10SM CLR 16/11 A3010 RMK AO2 SLP195 T01610111 402440106=
200608130656 METAR KSEA 130656Z 05006KT 10SM CLR 18/11 A3009 RMK AO2 SLP195 T01780111=
200608130556 METAR KSEA 130556Z 06004KT 10SM FEW200 18/11 A3009 RMK AO2 SLP193 T01830106 10233 20183 51003=
200608130456 METAR KSEA 130456Z 04006KT 10SM FEW200 19/09 A3009 RMK AO2 SLP193 T01940094=
200608130356 METAR KSEA 130356Z 36005KT 10SM FEW050 SCT200 19/09 A3009 RMK AO2 SLP194 T01940094=
200608130256 METAR KSEA 130256Z 36008KT 10SM FEW045 SCT200 21/09 A3008 RMK AO2 SLP191 T02110094 56005=
200608130156 METAR KSEA 130156Z 36008KT 10SM FEW040 SCT200 22/09 A3008 RMK AO2 SLP191 T02220094=
200608130056 METAR KSEA 130056Z 35013KT 10SM FEW040 SCT200 23/09 A3008 RMK AO2 SLP193 T02330094=
200608122356 METAR KSEA 122356Z 35012KT 10SM FEW040 SCT100 BKN200 23/09 A3010 RMK AO2 SLP196 T02330089 10244 20178 58013=
200608122348 METAR KSEA 122348Z 25007KT 10SM FEW030 FEW230 22/12 A3011=
200608122256 METAR KSEA 122256Z VRB04KT 10SM FEW040 SCT100 BKN200 23/11 A3011 RMK AO2 SLP199 T02330106=
200608122156 METAR KSEA 122156Z 30010KT 10SM FEW030 SCT250 23/11 A3013 RMK AO2 SLP206 T02330106=
200608122056 METAR KSEA 122056Z 30009KT 10SM FEW025 SCT250 23/12 A3014 RMK AO2 SLP209 T02280117 56008=
200608121956 METAR KSEA 121956Z 30008KT 10SM FEW025 SCT250 21/12 A3014 RMK AO2 SLP211 T02110117=
200608121856 METAR KSEA 121856Z 29006KT 10SM FEW020 21/12 A3015 RMK AO2 SLP215 T02060117=
200608121756 METAR KSEA 121756Z 33005KT 10SM FEW015 18/10 A3016 RMK AO2 SLP218 T01830100 10189 20106 50001=
200608121656 METAR KSEA 121656Z VRB03KT 10SM FEW014 18/11 A3016 RMK AO2 SLP219 T01780106=
200608121556 METAR KSEA 121556Z 03004KT 10SM FEW012 16/10 A3016 RMK AO2 SLP219 T01560100=
200608121456 METAR KSEA 121456Z 00000KT 10SM FEW012 13/10 A3016 RMK AO2 SLP217 T01330100 53010=
200608121356 METAR KSEA 121356Z 00000KT 10SM FEW040 12/10 A3014 RMK AO2 SLP213 T01220100=
200608121256 METAR KSEA 121256Z 00000KT 10SM CLR 11/09 A3013 RMK AO2 SLP210 T01110094=
200608121156 METAR KSEA 121156Z 08004KT 10SM FEW150 12/09 A3013 RMK AO2 SLP207 T01170094 10150 20117 53002=
200608121056 METAR KSEA 121056Z 06004KT 10SM FEW150 12/10 A3012 RMK AO2 SLP206 T01220100=
200608120956 METAR KSEA 120956Z 04005KT 10SM FEW035 SCT150 13/10 A3012 RMK AO2 SLP204 T01280100=
200608120856 METAR KSEA 120856Z 00000KT 10SM SCT033 SCT160 12/11 A3012 RMK AO2 SLP205 T01220106 53003=
200608120756 METAR KSEA 120756Z 00000KT 10SM FEW250 13/11 A3012 RMK AO2 SLP204 T01330106 402110122=
200608120656 METAR KSEA 120656Z 34004KT 10SM FEW040 SCT160 14/11 A3011 RMK AO2 SLP202 T01390106=
200608120556 METAR KSEA 120556Z 00000KT 10SM SCT039 14/11 A3011 RMK AO2 SLP202 T01440111 10206 20144 50002=
200608120456 METAR KSEA 120456Z 34004KT 10SM FEW040 16/11 A3011 RMK AO2 SLP203 T01560106=
200608120356 METAR KSEA 120356Z 33004KT 10SM FEW040 16/11 A3011 RMK AO2 SLP202 T01610111=
200608120256 METAR KSEA 120256Z 30004KT 10SM FEW035 18/11 A3011 RMK AO2 SLP200 T01780106 56009=
200608120156 METAR KSEA 120156Z VRB05KT 10SM SCT035 19/10 A3011 RMK AO2 SLP203 T01890100=
200608120056 METAR KSEA 120056Z COR 28006KT 10SM SCT035 20/10 A3012 RMK AO2 SLP206 T02000100=
200608112356 METAR KSEA 112356Z 23007KT 190V270 10SM SCT031 SCT250 20/09 A3013 RMK AO2 SLP209 T02000094 10211 20144 56011=
200608112256 METAR KSEA 112256Z 29009KT 10SM BKN031 BKN250 21/12 A3014 RMK AO2 SLP213 T02060117=
200608112156 METAR KSEA 112156Z 28010KT 10SM FEW025 BKN031 BKN250 21/09 A3015 RMK AO2 SLP216 T02060094=
200608112143 SPECI KSEA 112143Z 27006KT 10SM FEW025 BKN031 BKN250 19/09 A3016 RMK AO2=
200608112143 SPECI KSEA 112143Z 27006KT 10SM FEW025 BKN031 BKN250 19/09 A3016 RMK AO2=
200608112056 METAR KSEA 112056Z 26006KT 10SM SCT025 BKN029 BKN250 19/10 A3017 RMK AO2 SLP220 T01940100 50000=
200608111956 METAR KSEA 111956Z VRB05KT 10SM FEW020 BKN025 OVC030 17/09 A3017 RMK AO2 SLP223 T01670094=
200608111856 METAR KSEA 111856Z 25005KT 10SM FEW018 OVC023 16/10 A3017 RMK AO2 SLP223 T01560100=
200608111756 METAR KSEA 111756Z 27005KT 10SM OVC019 15/11 A3017 RMK AO2 SLP221 T01500106 10150 20122 53003=
200608111656 METAR KSEA 111656Z 21005KT 10SM OVC017 14/11 A3016 RMK AO2 SLP219 T01440106=
200608111556 METAR KSEA 111556Z 17005KT 10SM OVC015 13/10 A3015 RMK AO2 SLP216 T01330100=
200608111456 METAR KSEA 111456Z 16004KT 10SM OVC017 13/09 A3016 RMK AO2 SLP217 T01330094 51010=
200608111356 METAR KSEA 111356Z 22005KT 10SM OVC015 13/10 A3015 RMK AO2 SLP215 T01280100=
200608111327 SPECI KSEA 111327Z 19005KT 10SM BKN015 OVC019 13/09 A3014 RMK AO2=
200608111327 SPECI KSEA 111327Z 19005KT 10SM BKN015 OVC019 13/09 A3014 RMK AO2=
200608111256 METAR KSEA 111256Z 17004KT 10SM BKN014 OVC019 13/09 A3014 RMK AO2 SLP211 T01280094=
200608111156 METAR KSEA 111156Z 17005KT 10SM OVC013 12/10 A3013 RMK AO2 SLP207 BINOVC OHD T01220100 10144 20122 51005=
200608111056 METAR KSEA 111056Z 19006KT 10SM BKN011 OVC035 12/10 A3012 RMK AO2 SLP205 T01220100=
200608111007 SPECI KSEA 111007Z 20006KT 10SM BKN013 OVC038 13/10 A3012 RMK AO2=
200608111007 SPECI KSEA 111007Z 20006KT 10SM BKN013 OVC038 13/10 A3012 RMK AO2=
200608110956 METAR KSEA 110956Z 22007KT 10SM FEW013 BKN034 13/10 A3012 RMK AO2 SLP203 T01280100=
200608110856 METAR KSEA 110856Z 22009KT 10SM SCT034 13/10 A3011 RMK AO2 SLP201 T01280100 53005=
200608110756 METAR KSEA 110756Z 20006KT 10SM SCT035 SCT080 13/11 A3010 RMK AO2 SLP199 T01330106 402280133=
200608110656 METAR KSEA 110656Z 23008KT 10SM FEW035 13/11 A3009 RMK AO2 SLP195 T01330106=
200608110556 METAR KSEA 110556Z 22008KT 10SM SCT035 14/11 A3009 RMK AO2 SLP196 T01440111 10228 20144 51013=
200608110456 METAR KSEA 110456Z 23006KT 10SM SCT033 SCT090 16/11 A3008 RMK AO2 SLP192 T01610111=
200608110356 METAR KSEA 110356Z 29004KT 10SM FEW050 SCT080 SCT100 17/12 A3007 RMK AO2 SLP188 T01720117=
200608110256 METAR KSEA 110256Z 31004KT 10SM SCT050 BKN080 BKN095 19/11 A3006 RMK AO2 SLP182 T01890111 55006=
200608110156 METAR KSEA 110156Z 28004KT 10SM FEW030 SCT050 BKN070 20/11 A3005 RMK AO2 SLP181 T02000111=
200608110056 METAR KSEA 110056Z 00000KT 10SM FEW030 SCT055 BKN070 22/11 A3006 RMK AO2 SLP184 T02170106=
200608102356 METAR KSEA 102356Z VRB03KT 10SM FEW038 BKN080 19/11 A3007 RMK AO2 SLP189 T01940106 10217 20161 58007=
200608102256 METAR KSEA 102256Z 24005KT 10SM FEW025 BKN038 19/11 A3009 RMK AO2 SLP193 T01940111=
200608102156 METAR KSEA 102156Z VRB05KT 10SM FEW021 BKN034 19/13 A3009 RMK AO2 SLP195 T01940128=
200608102123 SPECI KSEA 102123Z 29007KT 10SM FEW021 OVC036 19/13 A3010 RMK AO2=
200608102123 SPECI KSEA 102123Z 29007KT 10SM FEW021 OVC036 19/13 A3010 RMK AO2=
200608102056 METAR KSEA 102056Z 30007KT 10SM SCT019 BKN024 OVC036 19/13 A3009 RMK AO2 SLP195 BINOVC OHD T01940128 51003=
200608102048 SPECI KSEA 102048Z 28007KT 10SM BKN019 BKN024 OVC036 20/13 A3009=
200608102048 SPECI KSEA 102048Z 28007KT 10SM BKN019 BKN024 OVC036 20/13 A3009 RMK AO2=
200608101956 METAR KSEA 101956Z 30007KT 10SM SCT019 BKN040 OVC060 18/12 A3009 RMK AO2 SLP193 T01830122=
200608101906 SPECI KSEA 101906Z 33008KT 10SM SCT019 BKN038 OVC060 17/12 A3009 RMK AO2=
200608101906 SPECI KSEA 101906Z 33008KT 10SM SCT019 BKN038 OVC060 17/12 A3009 RMK AO2=
200608101856 METAR KSEA 101856Z 32007KT 10SM BKN019 BKN038 OVC060 17/12 A3009 RMK AO2 SLP196 T01720117=
200608101848 SPECI KSEA 101848Z 33008KT 10SM BKN019 BKN036 OVC060 17/12 A3009=
200608101848 SPECI KSEA 101848Z 33008KT 10SM BKN019 BKN036 OVC060 17/12 A3009 RMK AO2=
200608101756 METAR KSEA 101756Z 34011KT 10SM FEW025 BKN034 OVC060 17/11 A3009 RMK AO2 RAE06 SLP193 P0000 60000 T01670111 10172 20156 53003=
200608101656 METAR KSEA 101656Z 31007KT 10SM -RA BKN034 BKN110 OVC130 17/12 A3008 RMK AO2 RAB39 SLP191 P0000 T01670122=
200608101607 SPECI KSEA 101607Z 31004KT 10SM SCT028 BKN030 OVC035 17/11 A3008 RMK AO2 SH DSNT W BINOVC E=
200608101607 SPECI KSEA 101607Z 31004KT 10SM SCT028 BKN030 OVC035 17/11 A3008 RMK AO2 SH DSNT W BINOVC E=
200608101556 METAR KSEA 101556Z VRB05KT 10SM BKN028 OVC035 17/11 A3008 RMK AO2 SLP191 SH DSNT W BINOVC E T01670106=
200608101515 SPECI KSEA 101515Z 02006KT 10SM BKN026 OVC038 16/09 A3008 RMK AO2=
200608101515 SPECI KSEA 101515Z 02006KT 10SM BKN026 OVC038 16/09 A3008 RMK AO2=
200608101456 METAR KSEA 101456Z 03005KT 10SM SCT026 BKN038 OVC060 16/09 A3008 RMK AO2 SLP189 BINOVC NW T01610094 53003=
200608101356 METAR KSEA 101356Z 05005KT 10SM FEW025 SCT033 BKN055 BKN140 16/09 A3007 RMK AO2 SLP187 T01560094=
200608101256 METAR KSEA 101256Z 06006KT 10SM SCT034 BKN040 OVC055 16/11 A3007 RMK AO2 SLP187 T01560106=
200608101156 METAR KSEA 101156Z 01007KT 10SM SCT040 BKN055 OVC140 16/11 A3007 RMK AO2 SLP186 70001 T01560106 10172 20156 55002=
200608101056 METAR KSEA 101056Z 01008KT 10SM BKN036 BKN050 BKN140 OVC250 16/11 A3007 RMK AO2 SLP185 T01610106=
200608100956 METAR KSEA 100956Z 01007KT 10SM BKN030 BKN050 OVC140 16/11 A3007 RMK AO2 SLP185 T01610111=
200608100856 METAR KSEA 100856Z VRB04KT 10SM FEW030 BKN050 OVC140 16/12 A3007 RMK AO2 SLP188 T01610117 56009=
200608100756 METAR KSEA 100756Z 35006KT 10SM BKN050 BKN140 OVC250 17/12 A3008 RMK AO2 SLP190 T01670117 402440150=
200608100656 METAR KSEA 100656Z 32005KT 10SM BKN050 BKN140 OVC250 17/12 A3009 RMK AO2 SLP195 T01670117=
200608100556 METAR KSEA 100556Z 33005KT 10SM BKN055 OVC140 17/12 A3010 RMK AO2 SLP198 T01720117 10228 20172 58002=
200608100456 METAR KSEA 100456Z 36007KT 10SM BKN055 OVC140 18/12 A3011 RMK AO2 SLP201 T01830122=
200608100356 METAR KSEA 100356Z 34006KT 10SM BKN042 BKN140 BKN200 19/13 A3011 RMK AO2 SLP200 T01940128=
200608100256 METAR KSEA 100256Z 31006KT 10SM FEW038 SCT070 BKN140 BKN200 19/13 A3011 RMK AO2 SLP199 T01940133 56012=
200608100156 METAR KSEA 100156Z VRB04KT 10SM FEW040 SCT080 BKN140 BKN200 22/13 A3011 RMK AO2 SLP202 T02170133=
200608100056 METAR KSEA 100056Z 33004KT 10SM BKN037 BKN080 23/13 A3013 RMK AO2 SLP208 T02280133=
200608092356 METAR KSEA 092356Z 28007KT 10SM SCT033 BKN042 BKN080 22/13 A3014 RMK AO2 SLP211 T02220133 10244 20161 58009=
200608092256 METAR KSEA 092256Z 33006KT 10SM FEW029 BKN042 BKN080 23/13 A3015 RMK AO2 SLP215 T02280133=
200608092156 METAR KSEA 092156Z VRB03KT 10SM FEW025 SCT030 22/12 A3016 RMK AO2 SLP219 T02170122=
200608092123 SPECI KSEA 092123Z 33007KT 10SM SCT022 SCT026 22/14 A3017 RMK AO2=
200608092123 SPECI KSEA 092123Z 33007KT 10SM SCT022 SCT026 22/14 A3017 RMK AO2=
200608092056 METAR KSEA 092056Z 29006KT 10SM SCT020 BKN025 22/14 A3017 RMK AO2 SLP221 T02220139 58003=
200608092021 SPECI KSEA 092021Z 00000KT 10SM FEW012 SCT014 BKN016 19/13 A3018 RMK AO2=
200608092021 SPECI KSEA 092021Z 00000KT 10SM FEW012 SCT014 BKN016 19/13 A3018 RMK AO2=
200608091956 METAR KSEA 091956Z 33005KT 9SM SCT010 BKN012 OVC015 18/14 A3018 RMK AO2 SLP225 T01830139=
200608091934 SPECI KSEA 091934Z VRB05KT 10SM OVC010 17/14 A3018=
200608091934 SPECI KSEA 091934Z VRB05KT 10SM OVC010 17/14 A3018 RMK AO2=
200608091856 METAR KSEA 091856Z 02006KT 10SM SCT004 BKN006 OVC008 16/14 A3018 RMK AO2 SLP226 T01610139=
200608091819 SPECI KSEA 091819Z 01006KT 10SM SCT004 BKN006 OVC009 16/14 A3018=
200608091819 SPECI KSEA 091819Z 01006KT 10SM SCT004 BKN006 OVC009 16/14 A3018 RMK AO2=
200608091756 METAR KSEA 091756Z 01006KT 8SM BKN004 OVC006 16/14 A3018 RMK AO2 SLP225 60001 T01610144 10172 20150 53002=
200608091656 METAR KSEA 091656Z 01004KT 10SM BKN004 BKN006 OVC010 17/14 A3018 RMK AO2 SLP223 T01720144=
200608091633 SPECI KSEA 091633Z 26004KT 10SM BKN004 BKN006 OVC010 17/15 A3017 RMK AO2=
200608091633 SPECI KSEA 091633Z 26004KT 10SM BKN004 BKN006 OVC010 17/15 A3017 RMK AO2=
200608091614 SPECI KSEA 091614Z 29004KT 10SM BKN006 OVC010 17/15 A3017=
200608091614 SPECI KSEA 091614Z 29004KT 10SM BKN006 OVC010 17/15 A3017 RMK AO2=
200608091556 METAR KSEA 091556Z 00000KT 10SM FEW008 SCT012 OVC017 17/15 A3017 RMK AO2 RAB23E36 SLP221 P0001 T01670150=
200608091535 SPECI KSEA 091535Z 00000KT 9SM -RA FEW008 SCT012 OVC017 16/14 A3017 RMK AO2 RAB23 P0001=
200608091535 SPECI KSEA 091535Z 00000KT 9SM -RA FEW008 SCT012 OVC017 16/14 A3017 RMK AO2 RAB23 P0001=
200608091513 SPECI KSEA 091513Z 00000KT 10SM SCT005 BKN010 OVC015 16/14 A3017 RMK AO2 P0001=
200608091513 SPECI KSEA 091513Z 00000KT 10SM SCT005 BKN010 OVC015 16/14 A3017 RMK AO2 P0001=
200608091456 METAR KSEA 091456Z 28003KT 10SM FEW003 BKN005 OVC008 16/14 A3017 RMK AO2 SLP222 T01560144 53009=
200608091356 METAR KSEA 091356Z VRB03KT 10SM SCT003 OVC005 16/14 A3016 RMK AO2 SLP217 T01560144=
200608091256 METAR KSEA 091256Z 30003KT 10SM BKN005 OVC009 16/14 A3015 RMK AO2 SLP215 T01560139=
200608091156 METAR KSEA 091156Z 25005KT 10SM BKN007 OVC010 16/14 A3015 RMK AO2 SLP213 60000 T01560139 10172 20156 56002=
200608091056 METAR KSEA 091056Z 23004KT 10SM BKN007 BKN015 OVC020 16/14 A3015 RMK AO2 SLP214 T01560144=
200608091003 SPECI KSEA 091003Z 23006KT 10SM BKN007 BKN011 OVC015 16/14 A3015=
200608091003 SPECI KSEA 091003Z 23006KT 10SM BKN007 BKN011 OVC015 16/14 A3015 RMK AO2=
200608090956 METAR KSEA 090956Z 23006KT 10SM SCT007 BKN011 OVC015 16/14 A3015 RMK AO2 SLP214 T01560144=
200608090856 METAR KSEA 090856Z 23007KT 10SM SCT011 BKN015 OVC027 16/14 A3015 RMK AO2 SLP215 60000 T01560144 58001=
200608090756 METAR KSEA 090756Z 24005KT 10SM SCT017 BKN026 OVC070 16/14 A3015 RMK AO2 RAE20 SLP215 P0000 T01610144 402390128=
200608090720 SPECI KSEA 090720Z 23005KT 10SM SCT024 BKN050 OVC070 16/15 A3015=
200608090720 SPECI KSEA 090720Z 23005KT 10SM SCT024 BKN050 OVC070 16/15 A3015 RMK AO2 RAE20 P0000=
200608090656 METAR KSEA 090656Z 25005KT 8SM -RA FEW011 BKN021 OVC055 16/15 A3016 RMK AO2 RAB25 SLP216 P0000 T01610150=
200608090615 SPECI KSEA 090615Z 23007KT 10SM SCT016 BKN026 OVC050 17/14 A3016=
200608090615 SPECI KSEA 090615Z 23007KT 10SM SCT016 BKN026 OVC050 17/14 A3016 RMK AO2=
200608090556 METAR KSEA 090556Z 25005KT 10SM SCT016 BKN033 OVC047 17/14 A3016 RMK AO2 SLP216 T01720144 10239 20172 51005=
200608090537 SPECI KSEA 090537Z 24007KT 10SM BKN016 OVC045 17/14 A3016=
200608090537 SPECI KSEA 090537Z 24007KT 10SM BKN016 OVC045 17/14 A3016 RMK AO2=
200608090456 METAR KSEA 090456Z 22007KT 10SM FEW020 SCT049 OVC065 18/14 A3015 RMK AO2 SLP216 T01780139=
200608090356 METAR KSEA 090356Z 22008KT 10SM FEW044 BKN060 OVC075 18/14 A3014 RMK AO2 SLP212 T01830139=
200608090256 METAR KSEA 090256Z 25008KT 10SM SCT048 BKN065 OVC140 19/14 A3012 RMK AO2 SLP206 T01940139 53003=
200608090156 METAR KSEA 090156Z 25011KT 10SM FEW040 BKN070 OVC140 20/14 A3012 RMK AO2 SLP204 T02000139=
200608090056 METAR KSEA 090056Z 22010KT 10SM FEW040 SCT080 BKN140 BKN200 22/14 A3011 RMK AO2 SLP200 T02170139=
200608082356 METAR KSEA 082356Z 23007KT 10SM FEW040 SCT090 SCT140 BKN200 24/13 A3011 RMK AO2 SLP201 T02390128 10239 20183 58007=
200608082256 METAR KSEA 082256Z 20008KT 10SM FEW040 SCT120 BKN200 22/12 A3012 RMK AO2 SLPNO T02170117=
200608082156 METAR KSEA 082156Z 23009KT 10SM FEW040 SCT120 BKN200 21/12 A3013 RMK AO2 SLP208 T02110117=
200608082056 METAR KSEA 082056Z 26009KT 10SM FEW035 SCT100 SCT200 21/12 A3013 RMK AO2 SLP210 T02110117 55001=
200608081956 METAR KSEA 081956Z 24010KT 10SM FEW035 SCT100 SCT200 21/11 A3013 RMK AO2 SLP206 T02110106=
200608081856 METAR KSEA 081856Z 23009KT 10SM FEW030 SCT200 20/10 A3013 RMK AO2 SLP208 T02000100=
200608081656 METAR KSEA 081656Z 18010KT 10SM FEW021 SCT026 17/09 A3014 RMK AO2 SLP210 T01670094=
200608081629 SPECI KSEA 081629Z 20006KT 10SM SCT026 16/10 A3013=
200608081629 SPECI KSEA 081629Z 20006KT 10SM SCT026 16/10 A3013 RMK AO2 $=
200608081556 METAR KSEA 081556Z 19009KT 10SM FEW020 BKN026 15/09 A3013 RMK AO2 SLP208 T01500094 $=
200608081551 SPECI KSEA 081551Z 20009KT 10SM FEW020 BKN026 15/09 A3013=
200608081551 SPECI KSEA 081551Z 20009KT 10SM FEW020 BKN026 15/09 A3013 RMK AO2 $=
200608081546 SPECI KSEA 081546Z 19008KT 10SM FEW020 SCT026 15/09 A3013=
200608081546 SPECI KSEA 081546Z 19008KT 10SM FEW020 SCT026 15/09 A3013 RMK AO2 $=
200608081456 METAR KSEA 081456Z 19009KT 10SM BKN019 14/09 A3012 RMK AO2 SLP203 T01390094 51016 $=
200608081356 METAR KSEA 081356Z 20009KT 10SM FEW015 BKN017 BKN250 14/09 A3010 RMK AO2 SLP198 T01390094 $=
200608081256 METAR KSEA 081256Z 20007KT 10SM FEW010 OVC015 13/09 A3009 RMK AO2 SLP193 T01330094 $=
200608081156 METAR KSEA 081156Z 22008KT 10SM SCT010 OVC015 13/09 A3007 RMK AO2 SLP187 6//// 7//// T01330094 10167 20128 $=
200608081119 SPECI KSEA 081119Z 19006KT 10SM FEW010 BKN020 OVC200 13/09 A3007=
200608081119 SPECI KSEA 081119Z 19006KT 10SM FEW010 BKN020 OVC200 13/09 A3007 RMK AO2 $=
200608081056 METAR KSEA 081056Z 20006KT 10SM BKN020 BKN250 13/09 A3005 RMK AO2 SLP180 T01280094=
200608080956 METAR KSEA 080956Z 20005KT 10SM FEW120 SCT250 13/09 A3006 RMK AO2 SLP182 T01280094=
200608080856 METAR KSEA 080856Z 19007KT 10SM SCT250 13/09 A3005 RMK AO2 SLP180 T01330094 51011=
200608080756 METAR KSEA 080756Z 21007KT 10SM SCT250 14/09 A3005 RMK AO2 SLP179 T01390094 402830128=
200608080656 METAR KSEA 080656Z 22012KT 10SM FEW180 SCT250 14/10 A3004 RMK AO2 SLP176 T01440100=
200608080556 METAR KSEA 080556Z 24005KT 10SM FEW150 BKN200 16/11 A3002 RMK AO2 SLP169 T01610111 10278 20161 51028=
200608080456 METAR KSEA 080456Z 28005KT 10SM FEW150 BKN200 17/11 A3000 RMK AO2 SLP161 T01670111=
200608080356 METAR KSEA 080356Z 30007KT 10SM FEW150 SCT200 18/12 A2997 RMK AO2 SLP153 T01780117=
200608080256 METAR KSEA 080256Z 29005KT 10SM FEW200 22/12 A2993 RMK AO2 SLP140 T02170122 53006=
200608080156 METAR KSEA 080156Z 31005KT 10SM FEW200 24/13 A2991 RMK AO2 SLP134 T02440128=
200608080056 METAR KSEA 080056Z VRB06KT 10SM FEW150 26/12 A2991 RMK AO2 SLP133 T02610122=
200608072356 METAR KSEA 072356Z 20007KT 10SM FEW150 27/12 A2992 RMK AO2 SLP134 T02670117 10283 20200 58008=
200608072256 METAR KSEA 072256Z 25006KT 10SM CLR 27/12 A2992 RMK AO2 SLP137 T02720122=
200608072156 METAR KSEA 072156Z 23008KT 10SM CLR 27/14 A2994 RMK AO2 SLP142 T02670139=
200608072056 METAR KSEA 072056Z 30007KT 10SM CLR 24/12 A2994 RMK AO2 SLP142 T02440122 58009=
200608071956 METAR KSEA 071956Z 29006KT 10SM CLR 23/13 A2995 RMK AO2 SLP146 T02330128=
200608071856 METAR KSEA 071856Z 31006KT 10SM FEW250 21/13 A2996 RMK AO2 SLP150 T02110133=
200608071756 METAR KSEA 071756Z 30007KT 10SM FEW001 SCT250 20/13 A2997 RMK AO2 SLP152 T02000128 10200 20128 53003=
200608071656 METAR KSEA 071656Z 28006KT 10SM FEW001 18/13 A2997 RMK AO2 SLP151 T01830128=
200608071556 METAR KSEA 071556Z 27004KT 10SM FEW010 SCT250 17/12 A2996 RMK AO2 SLP150 T01670122=
200608071456 METAR KSEA 071456Z 28004KT 10SM FEW010 SCT250 16/13 A2996 RMK AO2 SLP149 T01560128 51009=
200608071356 METAR KSEA 071356Z 00000KT 10SM FEW250 14/12 A2995 RMK AO2 SLP147 T01390122=
200608071256 METAR KSEA 071256Z 30005KT 10SM SCT025 13/12 A2994 RMK AO2 SLP144 T01330122=
200608071156 METAR KSEA 071156Z 29004KT 10SM SCT250 14/12 A2993 RMK AO2 SLP139 T01390122 10206 20139 58001=
200608071056 METAR KSEA 071056Z 00000KT 10SM SCT250 14/12 A2994 RMK AO2 SLP140 T01440122=
200608070956 METAR KSEA 070956Z 00000KT 10SM SCT250 15/12 A2993 RMK AO2 SLP138 T01500122=
200608070856 METAR KSEA 070856Z 00000KT 10SM FEW250 16/12 A2993 RMK AO2 SLP140 T01560122 53005=
200608070756 METAR KSEA 070756Z 00000KT 10SM FEW250 18/12 A2992 RMK AO2 SLP136 T01830122 403000139=
200608070656 METAR KSEA 070656Z 36005KT 10SM FEW025 19/12 A2992 RMK AO2 SLP135 T01940122=
200608070556 METAR KSEA 070556Z 01006KT 10SM FEW250 21/11 A2992 RMK AO2 SLP134 T02060111 10294 20206 50003=
200608070456 METAR KSEA 070456Z 04009KT 10SM FEW250 22/10 A2992 RMK AO2 SLP136 T02220100=
200608070356 METAR KSEA 070356Z 36005KT 10SM FEW250 23/09 A2992 RMK AO2 SLP135 T02280094=
200608070256 METAR KSEA 070256Z 32005KT 10SM FEW250 24/11 A2991 RMK AO2 SLP132 T02440106 55008=
200608070156 METAR KSEA 070156Z 36008KT 10SM FEW250 28/07 A2991 RMK AO2 SLP131 T02780072=
200608070056 METAR KSEA 070056Z 36007KT 10SM SCT250 29/07 A2992 RMK AO2 SLP135 T02890072=
200608062356 METAR KSEA 062356Z 01007KT 10SM FEW050 SCT250 29/06 A2993 RMK AO2 SLP140 T02890056 10300 20233 58012=
200608062256 METAR KSEA 062256Z 36007KT 340V040 10SM FEW050 SCT250 30/07 A2995 RMK AO2 SLP144 T03000067=
200608062156 METAR KSEA 062156Z 29010KT 10SM FEW250 29/08 A2996 RMK AO2 SLP148 T02890078=
200608062056 METAR KSEA 062056Z 29009KT 10SM FEW250 28/08 A2997 RMK AO2 SLP152 T02780078 58011=
200608061956 METAR KSEA 061956Z 30009KT 10SM FEW250 27/11 A2998 RMK AO2 SLP156 T02720106=
200608061856 METAR KSEA 061856Z 30006KT 10SM FEW250 24/11 A3000 RMK AO2 SLP161 T02440111=
200608061756 METAR KSEA 061756Z 28005KT 10SM FEW250 23/11 A3000 RMK AO2 SLP163 60000 T02330111 10233 20139 58003=
200608061656 METAR KSEA 061656Z VRB04KT 10SM FEW250 22/11 A3001 RMK AO2 SLP165 T02170111=
200608061556 METAR KSEA 061556Z 16003KT 10SM FEW250 19/11 A3001 RMK AO2 SLP168 T01940106=
200608061456 METAR KSEA 061456Z 00000KT 10SM FEW250 18/11 A3001 RMK AO2 SLP167 60000 T01780106 53009=
200608061356 METAR KSEA 061356Z 00000KT 10SM FEW250 15/11 A3000 RMK AO2 RAB09E14 SLP163 P0000 T01500111=
200608061256 METAR KSEA 061256Z 00000KT 10SM CLR 14/11 A2999 RMK AO2 SLP161 T01390106=
200608061156 METAR KSEA 061156Z 00000KT 10SM CLR 16/09 A2998 RMK AO2 SLP157 T01560094 10206 20150 53001=
200608061056 METAR KSEA 061056Z 00000KT 10SM CLR 16/09 A2998 RMK AO2 SLP154 T01610094=
200608060956 METAR KSEA 060956Z 02004KT 10SM CLR 17/08 A2998 RMK AO2 SLP156 T01720083=
200608060856 METAR KSEA 060856Z 05007KT 10SM CLR 19/08 A2998 RMK AO2 SLP155 T01890078 56002=
200608060756 METAR KSEA 060756Z 04008KT 10SM CLR 19/08 A2998 RMK AO2 SLP155 T01940083 402780128=
200608060656 METAR KSEA 060656Z 04009KT 10SM FEW250 21/08 A2998 RMK AO2 SLP156 T02060083=
200608060556 METAR KSEA 060556Z 03008KT 10SM FEW250 21/08 A2998 RMK AO2 SLP158 T02060078 10278 20206 51006=
200608060456 METAR KSEA 060456Z 01006KT 10SM FEW250 21/08 A2998 RMK AO2 SLP156 T02110083=
200608060356 METAR KSEA 060356Z 36007KT 10SM FEW250 22/08 A2997 RMK AO2 SLP154 T02220078=
200608060256 METAR KSEA 060256Z 35010KT 10SM FEW250 24/07 A2997 RMK AO2 SLP151 T02440072 56008=
200608060156 METAR KSEA 060156Z 35011KT 10SM FEW250 26/06 A2997 RMK AO2 SLP153 T02610056=
200608060056 METAR KSEA 060056Z 33011KT 10SM FEW250 27/07 A2998 RMK AO2 SLP156 T02720072=
200608052356 METAR KSEA 052356Z 02008KT 10SM FEW250 28/07 A2999 RMK AO2 SLP159 T02780072 10278 20200 58016=
200608052256 METAR KSEA 052256Z 31007KT 10SM FEW250 27/08 A3001 RMK AO2 SLP164 T02720083=
200608052156 METAR KSEA 052156Z 35007KT 10SM FEW250 27/08 A3002 RMK AO2 SLP170 T02670078=
200608052056 METAR KSEA 052056Z 01009KT 10SM FEW250 26/08 A3004 RMK AO2 SLP176 T02560083 58013=
200608051956 METAR KSEA 051956Z 31008KT 10SM FEW250 24/11 A3006 RMK AO2 SLP182 T02390106=
200608051856 METAR KSEA 051856Z 29007KT 10SM FEW250 23/11 A3007 RMK AO2 SLP186 T02280111=
200608051756 METAR KSEA 051756Z VRB04KT 10SM FEW250 20/12 A3008 RMK AO2 SLP189 T02000117 10206 20128 58001=
200608051656 METAR KSEA 051656Z 28005KT 10SM FEW250 20/11 A3008 RMK AO2 SLP191 T02000111=
200608051556 METAR KSEA 051556Z VRB03KT 10SM FEW250 18/11 A3008 RMK AO2 SLP191 T01830106=
200608051456 METAR KSEA 051456Z VRB03KT 10SM FEW250 16/09 A3008 RMK AO2 SLP190 T01610094 51011=
200608051356 METAR KSEA 051356Z 13004KT 10SM FEW250 14/09 A3007 RMK AO2 SLP186 T01390094=
200608051256 METAR KSEA 051256Z 00000KT 10SM CLR 13/09 A3006 RMK AO2 SLP184 T01330094=
200608051156 METAR KSEA 051156Z 00000KT 10SM CLR 13/09 A3005 RMK AO2 SLP179 T01330094 10189 20128 53000=
200608051056 METAR KSEA 051056Z 00000KT 10SM CLR 16/09 A3004 RMK AO2 SLP177 T01560094=
200608050956 METAR KSEA 050956Z 01003KT 10SM CLR 15/09 A3004 RMK AO2 SLP177 T01500094=
200608050856 METAR KSEA 050856Z 02003KT 10SM CLR 16/09 A3004 RMK AO2 SLP178 T01610089 53003=
200608050756 METAR KSEA 050756Z 05008KT 10SM CLR 18/08 A3004 RMK AO2 SLP175 T01830083 402500117=
200608050656 METAR KSEA 050656Z 03006KT 10SM CLR 18/08 A3004 RMK AO2 SLP175 T01780078=
200608050556 METAR KSEA 050556Z 34003KT 10SM CLR 18/07 A3004 RMK AO2 SLP176 T01780072 10250 20178 50007=
200608050456 METAR KSEA 050456Z 01006KT 10SM FEW250 19/05 A3004 RMK AO2 SLP177 T01940050=
200608050356 METAR KSEA 050356Z 36005KT 10SM FEW050 SCT250 21/08 A3003 RMK AO2 SLP173 T02060078=
200608050256 METAR KSEA 050256Z 01009KT 10SM FEW050 SCT250 23/06 A3001 RMK AO2 SLP168 T02280056 55004=
200608050156 METAR KSEA 050156Z 36010KT 10SM FEW050 SCT250 24/04 A3001 RMK AO2 SLP167 T02390044=
200608050056 METAR KSEA 050056Z 31007KT 10SM FEW050 SCT250 24/07 A3002 RMK AO2 SLP170 T02440067=
200608042356 METAR KSEA 042356Z COR 30008KT 10SM FEW050 SCT250 24/09 A3003 RMK AO2 SLP172 T02440094 10244 20161 57009=
200608042256 METAR KSEA 042256Z VRB06KT 10SM FEW050 SCT250 23/10 A3004 RMK AO2 SLP177 T02330100=
200608042156 METAR KSEA 042156Z 31005KT 10SM FEW050 SCT250 23/08 A3004 RMK AO2 SLP178 T02330083=
200608042056 METAR KSEA 042056Z 26006KT 10SM FEW040 SCT250 22/09 A3006 RMK AO2 SLP182 T02170094 58008=
200608041956 METAR KSEA 041956Z VRB05KT 10SM FEW030 SCT250 21/11 A3007 RMK AO2 SLP188 T02060106=
200608041856 METAR KSEA 041856Z VRB04KT 10SM FEW015 BKN250 18/10 A3008 RMK AO2 SLP192 T01830100=
200608041756 METAR KSEA 041756Z 20005KT 10SM FEW012 BKN250 17/10 A3008 RMK AO2 SLP192 T01670100 10172 20117 53002=
200608041656 METAR KSEA 041656Z 25005KT 10SM FEW009 BKN250 15/11 A3008 RMK AO2 SLP191 T01500106=
200608041609 SPECI KSEA 041609Z VRB05KT 10SM SCT007 BKN250 13/10 A3007=
200608041609 SPECI KSEA 041609Z VRB05KT 10SM SCT007 BKN250 13/10 A3007 RMK AO2=
200608041556 METAR KSEA 041556Z 18007KT 10SM BKN007 OVC250 13/10 A3008 RMK AO2 SLP190 T01280100=
200608041456 METAR KSEA 041456Z 24007KT 10SM BKN007 OVC250 12/11 A3008 RMK AO2 SLP190 T01220106 53007=
200608041424 SPECI KSEA 041424Z 23007KT 10SM BKN007 BKN250 12/10 A3007=
200608041424 SPECI KSEA 041424Z 23007KT 10SM BKN007 BKN250 12/10 A3007 RMK AO2=
200608041356 METAR KSEA 041356Z 23006KT 10SM SCT007 BKN250 12/10 A3006 RMK AO2 SLP185 T01170100=
200608041351 SPECI KSEA 041351Z 23005KT 10SM SCT007 BKN250 12/10 A3006=
200608041351 SPECI KSEA 041351Z 23005KT 10SM SCT007 BKN250 12/10 A3006 RMK AO2=
200608041256 METAR KSEA 041256Z 22006KT 10SM BKN060 12/10 A3005 RMK AO2 SLP182 T01220100=
200608041156 METAR KSEA 041156Z 26005KT 10SM OVC060 13/10 A3004 RMK AO2 SLP177 T01280100 10172 20122 53008=
200608041056 METAR KSEA 041056Z 22004KT 10SM BKN060 12/10 A3002 RMK AO2 SLP171 T01220100=
200608040956 METAR KSEA 040956Z 26004KT 10SM CLR 13/10 A3002 RMK AO2 SLP170 T01280100=
200608040856 METAR KSEA 040856Z 30003KT 10SM CLR 13/11 A3002 RMK AO2 SLP169 T01330106 58001=
200608040756 METAR KSEA 040756Z 29003KT 10SM CLR 14/11 A3002 RMK AO2 SLP170 T01440106 402440128=
200608040656 METAR KSEA 040656Z 03009KT 10SM CLR 17/10 A3002 RMK AO2 SLP170 T01670100=
200608040556 METAR KSEA 040556Z 32004KT 10SM FEW250 17/11 A3002 RMK AO2 SLP170 T01670106 10244 20167 51006=
200608040456 METAR KSEA 040456Z 01007KT 10SM SCT250 18/09 A3002 RMK AO2 SLP169 T01780094=
200608040356 METAR KSEA 040356Z 35004KT 10SM SCT250 19/09 A3001 RMK AO2 SLP166 T01940094=
200608040256 METAR KSEA 040256Z 30005KT 10SM SCT250 21/10 A3000 RMK AO2 SLP164 T02110100 56008=
200608040156 METAR KSEA 040156Z 34006KT 10SM FEW250 23/07 A3001 RMK AO2 SLP166 T02330072=
200608040056 METAR KSEA 040056Z 35007KT 10SM FEW050 24/07 A3002 RMK AO2 SLP169 FU S T02390072=
200608032356 METAR KSEA 032356Z 35008KT 10SM FEW050 24/07 A3003 RMK AO2 SLP173 FU S T02390072 10244 20189 58018=
200608032256 METAR KSEA 032256Z 29010KT 10SM FEW250 24/09 A3005 RMK AO2 SLP180 T02440094=
200608032156 METAR KSEA 032156Z 29008KT 10SM FEW050 23/09 A3007 RMK AO2 SLP186 T02330094=
200608032056 METAR KSEA 032056Z 30010KT 10SM CLR 23/10 A3008 RMK AO2 SLP190 T02280100 58012=
200608031956 METAR KSEA 031956Z 32009KT 10SM CLR 22/11 A3010 RMK AO2 SLP196 T02170111=
200608031856 METAR KSEA 031856Z 31008KT 10SM CLR 20/11 A3011 RMK AO2 SLP199 T02000106=
200608031756 METAR KSEA 031756Z 29006KT 10SM CLR 19/10 A3012 RMK AO2 SLP203 T01890100 10189 20128 58002=
200608031656 METAR KSEA 031656Z VRB04KT 10SM SCT250 18/10 A3012 RMK AO2 SLP204 T01780100=
200608031556 METAR KSEA 031556Z VRB03KT 10SM BKN250 16/09 A3013 RMK AO2 SLP207 T01610089=
200608031456 METAR KSEA 031456Z 08003KT 10SM BKN250 15/08 A3012 RMK AO2 SLP205 T01500083 51007=
200608031356 METAR KSEA 031356Z 05006KT 10SM FEW180 BKN250 14/08 A3012 RMK AO2 SLP203 T01390078=
200608031256 METAR KSEA 031256Z 04005KT 10SM FEW180 BKN250 13/08 A3011 RMK AO2 SLP201 T01280078=
200608031156 METAR KSEA 031156Z 04009KT 10SM SCT250 14/08 A3010 RMK AO2 SLP198 T01390078 10167 20133 55002=
200608031056 METAR KSEA 031056Z 03008KT 10SM FEW250 13/08 A3010 RMK AO2 SLP196 T01330083=
200608030956 METAR KSEA 030956Z 04008KT 10SM FEW250 14/09 A3010 RMK AO2 SLP197 T01390089=
200608030856 METAR KSEA 030856Z 03007KT 10SM FEW250 14/09 A3011 RMK AO2 SLP200 T01440089 58008=
200608030756 METAR KSEA 030756Z 03007KT 10SM FEW250 15/09 A3012 RMK AO2 SLP203 T01500089 402280128=
200608030656 METAR KSEA 030656Z 04009KT 10SM FEW250 16/09 A3012 RMK AO2 SLP206 T01610089=
200608030556 METAR KSEA 030556Z 03011KT 10SM FEW250 17/09 A3013 RMK AO2 SLP209 T01670094 10222 20167 50001=
200608030456 METAR KSEA 030456Z 01007KT 10SM SCT250 17/10 A3014 RMK AO2 SLP211 T01720100=
200608030356 METAR KSEA 030356Z 36007KT 10SM FEW040 SCT250 18/09 A3013 RMK AO2 SLP209 T01830089=
200608030256 METAR KSEA 030256Z 35008KT 10SM FEW040 BKN250 20/09 A3013 RMK AO2 SLP206 T02000089 56010=
200608030156 METAR KSEA 030156Z 29006KT 10SM FEW040 SCT250 21/10 A3013 RMK AO2 SLP207 T02110100=
200608030056 METAR KSEA 030056Z 32007KT 10SM FEW040 SCT250 22/11 A3015 RMK AO2 SLP213 T02220106=
200608022356 METAR KSEA 022356Z 31010KT 10SM FEW040 22/11 A3016 RMK AO2 SLP217 T02220111 10228 20172 58016=
200608022256 METAR KSEA 022256Z 30008KT 10SM SCT037 22/11 A3018 RMK AO2 SLP225 T02220106=
200608022156 METAR KSEA 022156Z 31012KT 10SM BKN033 22/11 A3019 RMK AO2 SLP229 T02220111=
200608022056 METAR KSEA 022056Z 24005KT 10SM SCT031 21/11 A3021 RMK AO2 SLP233 T02110111 58007=
200608021956 METAR KSEA 021956Z 33008KT 10SM SCT029 BKN033 18/12 A3022 RMK AO2 SLP236 T01830117=
200608021915 SPECI KSEA 021915Z 29006KT 10SM SCT024 BKN031 BKN200 18/12 A3022 RMK AO2=
200608021915 SPECI KSEA 021915Z 29006KT 10SM SCT024 BKN031 BKN200 18/12 A3022 RMK AO2=
200608021856 METAR KSEA 021856Z 33004KT 10SM SCT024 BKN029 18/12 A3022 RMK AO2 SLP239 T01830117=
200608021756 METAR KSEA 021756Z VRB03KT 10SM SCT022 BKN026 BKN031 17/12 A3023 RMK AO2 SLP241 T01720117 10172 20128 50005=
200608021656 METAR KSEA 021656Z 01005KT 10SM BKN015 OVC023 16/11 A3023 RMK AO2 SLP242 BINOVC SE T01610111=
200608021556 METAR KSEA 021556Z 05005KT 10SM BKN015 BKN050 16/11 A3022 RMK AO2 SLP240 T01560106=
200608021456 METAR KSEA 021456Z 04009KT 10SM BKN015 BKN055 15/11 A3021 RMK AO2 SLP236 T01500106 52014=
200608021437 SPECI KSEA 021437Z 04007KT 10SM BKN017 BKN055 15/11 A3021=
200608021437 SPECI KSEA 021437Z 04007KT 10SM BKN017 BKN055 15/11 A3021 RMK AO2=
200608021356 METAR KSEA 021356Z 05006KT 10SM SCT018 OVC055 14/10 A3020 RMK AO2 SLP230 T01440100=
200608021256 METAR KSEA 021256Z 35004KT 10SM FEW050 SCT070 SCT120 13/11 A3019 RMK AO2 SLP228 T01280106=
200608021156 METAR KSEA 021156Z 18003KT 10SM SCT050 SCT070 13/11 A3017 RMK AO2 SLP222 T01280111 10178 20128 51004=
200608021056 METAR KSEA 021056Z 00000KT 10SM FEW055 SCT070 13/11 A3017 RMK AO2 SLP221 T01280111=
200608020956 METAR KSEA 020956Z 19003KT 10SM FEW070 14/11 A3017 RMK AO2 SLP222 T01390111=
200608020856 METAR KSEA 020856Z 12005KT 10SM FEW070 16/10 A3016 RMK AO2 SLP218 T01560100 51007=
200608020756 METAR KSEA 020756Z 04006KT 10SM BKN075 17/10 A3016 RMK AO2 SLP218 T01670100 402330122=
200608020656 METAR KSEA 020656Z 04006KT 10SM BKN080 18/10 A3015 RMK AO2 SLP215 T01780100=
200608020556 METAR KSEA 020556Z 27007KT 10SM BKN080 16/11 A3014 RMK AO2 SLP212 T01610111 10233 20161 53013=
200608020456 METAR KSEA 020456Z 30004KT 10SM BKN080 17/12 A3013 RMK AO2 SLP208 T01720117=
200608020356 METAR KSEA 020356Z 30004KT 10SM FEW040 BKN085 19/12 A3011 RMK AO2 SLP203 T01890117=
200608020256 METAR KSEA 020256Z 32005KT 10SM FEW040 BKN085 21/11 A3010 RMK AO2 SLP199 T02060106 55001=
200608020156 METAR KSEA 020156Z 27005KT 10SM FEW040 SCT085 22/09 A3009 RMK AO2 SLP196 T02170094=
200608020056 METAR KSEA 020056Z VRB03KT 10SM FEW040 SCT080 23/10 A3010 RMK AO2 SLP195 T02280100=
200608012356 METAR KSEA 012356Z 22004KT 10SM FEW040 SCT080 22/09 A3011 RMK AO2 SLP199 T02220089 10233 20167 58003=
200608012256 METAR KSEA 012256Z 20009KT 10SM FEW040 SCT080 23/09 A3011 RMK AO2 SLP202 T02280094=
200608012156 METAR KSEA 012156Z 19008KT 10SM SCT030 SCT200 21/09 A3012 RMK AO2 SLP203 T02060094=
200608012056 METAR KSEA 012056Z 22010KT 10SM FEW025 SCT150 SCT200 21/12 A3012 RMK AO2 SLP202 T02110117 58001=
200608011956 METAR KSEA 011956Z 22008KT 10SM FEW025 SCT150 BKN200 21/11 A3011 RMK AO2 SLP202 T02060106=
200608011856 METAR KSEA 011856Z 23007KT 10SM FEW020 SCT040 SCT150 BKN200 18/11 A3012 RMK AO2 SLP206 T01830106=
200608011756 METAR KSEA 011756Z 00000KT 10SM FEW016 SCT040 BKN080 BKN150 OVC200 16/10 A3012 RMK AO2 SLP205 T01610100 10167 20122 51010=
200608011656 METAR KSEA 011656Z 19004KT 10SM FEW012 SCT040 BKN150 OVC200 15/11 A3011 RMK AO2 SLP202 T01500106=
200608011556 METAR KSEA 011556Z 20005KT 10SM SCT040 BKN150 BKN200 14/11 A3010 RMK AO2 SLP199 T01390106=
200608011456 METAR KSEA 011456Z 18004KT 10SM FEW050 SCT150 BKN200 13/09 A3009 RMK AO2 SLP194 T01280089 51017=
200608011356 METAR KSEA 011356Z 16004KT 10SM FEW045 SCT060 BKN150 BKN200 13/08 A3007 RMK AO2 SLP188 T01280083=
200608011256 METAR KSEA 011256Z 15003KT 10SM SCT040 SCT060 BKN150 13/09 A3006 RMK AO2 SLP183 T01280089=
200608011156 METAR KSEA 011156Z 08003KT 10SM SCT045 SCT060 14/09 A3004 RMK AO2 SLP176 T01390094 10167 20133 52003=
200608011056 METAR KSEA 011056Z 00000KT 10SM BKN042 13/10 A3004 RMK AO2 SLP175 T01330100=
200608010956 METAR KSEA 010956Z 03006KT 10SM FEW050 SCT150 13/09 A3003 RMK AO2 SLP173 T01330094=
200608010856 METAR KSEA 010856Z 04004KT 10SM CLR 14/09 A3003 RMK AO2 SLP172 T01390094 53003=
200608010756 METAR KSEA 010756Z 04011KT 10SM CLR 14/09 A3002 RMK AO2 SLP172 T01440089 402330139=
200608010656 METAR KSEA 010656Z 04014KT 10SM CLR 16/09 A3001 RMK AO2 SLP169 T01610089=
200608010556 METAR KSEA 010556Z 04010KT 10SM FEW160 17/09 A3002 RMK AO2 SLP171 T01670094 10222 20167 53008=
200608010456 METAR KSEA 010456Z 36005KT 10SM FEW060 SCT150 17/08 A3001 RMK AO2 SLP168 T01720078=
200608010356 METAR KSEA 010356Z 35006KT 10SM FEW060 SCT150 18/07 A3000 RMK AO2 SLP164 T01830067=
200608010256 METAR KSEA 010256Z 36007KT 10SM FEW060 21/06 A3000 RMK AO2 SLP162 T02060061 56003=
200608010156 METAR KSEA 010156Z 32006KT 10SM FEW050 SCT080 21/08 A3000 RMK AO2 SLP163 T02110083=
200608010056 METAR KSEA 010056Z 30009KT 10SM FEW050 SCT080 22/08 A3000 RMK AO2 SLP162 T02170078=

# No short TAF reports from KSEA in databse.

###################################
#  large TAF from KSEA
###################################
200608312320 TAF KSEA 312320Z 010024 35011KT P6SM SKC FM0400 03007KT P6SM SKC
                       FM0800 07007KT P6SM SKC FM1800 35011KT P6SM
                       SKC=
200608311722 TAF KSEA 311722Z 311818 03011KT P6SM SKC FM2100 36011KT P6SM SKC
                       FM0400 05007KT P6SM SKC=
200608311137 TAF KSEA 311137Z 311212 03003KT P6SM SKC FM1600 02006KT P6SM SKC
                       FM2000 35010KT P6SM SKC FM0500 05006KT P6SM
                       SKC=
200608310533 TAF KSEA 310533Z 310606 24006KT P6SM SCT070
                      TEMPO 0609 BKN070 FM1100 04003KT P6SM VCFG
                       SKC FM1600 02006KT P6SM SKC FM2000 35010KT
                       P6SM SKC=
200608302320 TAF KSEA 302320Z 310024 22010KT P6SM VCSH FEW030 SCT080
                      TEMPO 0002 -SHRA BKN025 FM0300 28006KT P6SM
                       FEW080 FM0600 03004KT P6SM SKC FM1100 04003KT
                       P6SM VCFG SKC FM1500 04005KT P6SM SKC FM1900
                       35007KT P6SM SKC=
200608302240 KSEA 302240Z 302318 22010KT P6SM VCSH FEW030 SCT080
                      TEMPO 0002 -SHRA BKN025 FM0300 28006KT P6SM
                       FEW080 FM0600 03004KT P6SM SKC FM1100 04003KT
                       P6SM VCFG SKC FM1500 04005KT P6SM SKC=
200608301759 KSEA 301759Z 301818 22008KT P6SM BKN018 BKN025 FM1900 22008KT P6SM
                       SCT018 SCT025 BKN080
                      TEMPO 1921 BKN025 FM2200 22009KT P6SM FEW030
                       SCT080 FM0100 30006KT P6SM FEW080 FM0600
                       03004KT P6SM SKC FM1100 04003KT P6SM VCFG
                       SKC FM1500 04005KT P6SM SKC=
200608301720 TAF KSEA 301720Z 301818 20009KT P6SM SCT025 SCT080
                      TEMPO 1819 BKN025 BKN080 FM2100 22011KT P6SM
                       FEW030 SCT080 FM0100 30006KT P6SM FEW080
                       FM0600 03004KT P6SM SKC FM1100 04003KT P6SM
                       VCFG SKC FM1500 04005KT P6SM SKC=
200608301604 TAF AMD KSEA 301604Z 301612 19008KT P6SM SCT020 BKN080
                      TEMPO 1617 BKN020 FM1800 22011KT P6SM SCT030
                       SCT080 FM0100 30006KT P6SM FEW070 FM0600
                       03005KT P6SM SKC FM1100 02006KT P6SM FEW010=
200608301124 TAF KSEA 301124Z 301212 20009KT P6SM BKN016 OVC080 FM1300 20008KT
                       P6SM -SHRA BKN020 OVC060 FM1800 25011KT
                       P6SM VCSH SCT030 BKN060 FM0600 03006KT P6SM
                       SKC FM1100 02006KT P6SM FEW010=
200608300524 TAF KSEA 300524Z 300606 21006KT P6SM BKN030 OVC040
                      TEMPO 0610 P6SM -SHRA OVC030 FM1000 20007KT
                       P6SM -SHRA OVC025
                      TEMPO 1215 OVC015 FM2100 25011KT P6SM VCSH
                       SCT030 BKN040=
200608300008 TAF AMD KSEA 300008Z 300024 36010KT P6SM SCT025 BKN045
                      TEMPO 0001 27010KT FM0600 20007KT P6SM SCT025
                       OVC040 FM1000 20007KT P6SM -SHRA OVC025
                       TEMPO 1215 OVC015 FM2100 25011KT P6SM VCSH
                       SCT030 BKN040=
200608292320 TAF KSEA 292320Z 300024 22012G22KT P6SM SCT025 BKN045 FM0600 20007KT
                       P6SM SCT025 OVC040 FM1000 20007KT P6SM -SHRA
                       OVC025
                      TEMPO 1215 OVC015 FM2100 25011KT P6SM VCSH
                       SCT030 BKN040=
200608292300 KSEA 300008Z 300024 36010KT P6SM SCT025 BKN045
                      TEMPO 0001 27010KT FM0600 20007KT P6SM SCT025
                       OVC040 FM1000 20007KT P6SM -SHRA OVC025
                       TEMPO 1215 OVC015 FM2100 25011KT P6SM VCSH
                       SCT030 BKN040=
200608292002 KSEA 292002Z 292018 22012G22KT P6SM SCT035 BKN045 FM0600 20007KT
                       P6SM OVC040 FM1200 20006KT P6SM -SHRA OVC025=
200608291720 TAF KSEA 291720Z 291818 22012KT P6SM VCSH SCT018 OVC025
                      TEMPO 1820 -RA OVC018 FM2200 22012KT P6SM
                       SCT025 BKN040 FM0600 20007KT P6SM OVC040
                       FM1200 20006KT P6SM -SHRA OVC025=
200608291127 TAF KSEA 291127Z 291212 18006KT P6SM BKN012 FM1300 19006KT P6SM
                       OVC012 FM2100 22010KT P6SM SCT020 BKN040
                       FM0600 20006KT P6SM OVC040=
200608290818 KSEA 290818Z 290806 02006KT P6SM SKC FM1100 22006KT P6SM BKN060
                       FM1200 21006KT P6SM OVC012 FM2100 22010KT
                       P6SM VCSH SCT020 BKN040=
200608290523 TAF KSEA 290523Z 290606 02006KT P6SM FEW200 FM0600 02006KT P6SM
                       SCT060 FM0800 22006KT P6SM BKN040 FM1200
                       21006KT P6SM OVC012 FM2100 22010KT P6SM
                       VCSH SCT020 BKN040=
200608282325 TAF KSEA 282325Z 290024 30009KT P6SM SCT200 FM0600 28006KT P6SM
                       FEW060 SCT200 FM0800 22006KT P6SM BKN060
                       FM1200 21006KT P6SM OVC012 FM2100 22010KT
                       P6SM VCSH SCT020 BKN040=
200608281720 TAF KSEA 281720Z 281818 29005KT P6SM SCT200 FM1900 30006KT P6SM
                       SCT200 FM2200 30009KT P6SM SCT200 FM0600
                       28006KT P6SM FEW060 SCT200 FM1000 26006KT
                       P6SM BKN060 FM1200 21006KT P6SM OVC015=
200608281135 TAF KSEA 281135Z 281212 02008KT P6SM SKC FM1800 29006KT P6SM SCT250
                       FM0400 28006KT P6SM FEW060 FM0900 26006KT
                       P6SM BKN060 FM1000 21006KT P6SM OVC020=
200608280721 KSEA 280721Z 280706 02008KT P6SM FEW250 FM1400 29006KT P6SM FEW250
                       FM1900 28006KT P6SM SKC FM0400 26006KT P6SM
                       BKN060=
200608280531 TAF KSEA 280531Z 280606 02008KT P6SM FEW250 FM1200 20004KT P6SM
                       FEW006 SCT250 FM1900 28006KT P6SM SCT060
                       BKN250 FM0400 26006KT P6SM BKN060=
200608272326 TAF KSEA 272326Z 280024 02008KT P6SM SCT250 FM0700 VRB03KT P6SM
                       SCT250 FM1200 20004KT P6SM VCFG FEW003 SCT250
                       FM1400 20006KT P6SM BKN006 FM1800 24006KT
                       P6SM BKN010 FM1900 28006KT P6SM SCT060 BKN250=
200608271728 TAF KSEA 271728Z 271818 32008KT P6SM SCT250 FM0300 02008KT P6SM
                       SCT250 FM0700 VRB03KT P6SM SCT250 FM1200
                       20004KT P6SM VCFG FEW003 SCT250 FM1400 20006KT
                       P6SM OVC006=
200608271122 TAF KSEA 271122Z 271212 02005KT P6SM SKC FM1800 32008KT P6SM SKC
                       FM0500 02006KT P6SM SKC=
200608270520 TAF KSEA 270520Z 270606 01005KT P6SM SKC FM1200 05005KT P6SM SKC
                       FM1800 32008KT P6SM SKC=
200608262320 TAF KSEA 262320Z 270024 32008KT P6SM FEW250 FM0600 01005KT P6SM
                       SKC FM1200 05005KT P6SM SKC FM1800 32008KT
                       P6SM SKC=
200608261730 TAF KSEA 261730Z 261818 31007KT P6SM SCT250 FM0600 01005KT P6SM
                       SKC=
200608261123 TAF KSEA 261123Z 261212 02004KT P6SM SCT250 FM2000 33008KT P6SM
                       SKC FM0700 02005KT P6SM SKC=
200608260521 TAF KSEA 260521Z 260606 02005KT P6SM SCT250 FM1900 33008KT P6SM
                       SKC=
200608252324 TAF KSEA 252324Z 260024 32010KT P6SM SCT250 FM0400 03006KT P6SM
                       SCT250 FM1900 32008KT P6SM SKC=
200608252129 KSEA 252129Z 252118 36013KT P6SM SKC FM0400 03007KT P6SM SKC=
200608251737 TAF KSEA 251737Z 251818 03006KT P6SM SKC FM1900 36009KT P6SM SKC
                       FM0400 03006KT P6SM SKC=
200608251133 TAF KSEA 251133Z 251212 03006KT P6SM SKC FM1400 03006KT P6SM SCT060
                       FM1900 36008KT P6SM SKC=
200608250533 TAF KSEA 250533Z 250606 VRB03KT P6SM BKN060 BKN200 FM0800 VRB03KT
                       P6SM SKC FM1400 03005KT P6SM SCT005
                      TEMPO 1416 BKN005 FM1700 36008KT P6SM SKC=
200608242335 TAF KSEA 242335Z 250024 30007KT P6SM BKN030
                      TEMPO 0003 P6SM SCT030 FM0300 34005KT P6SM
                       SCT030 FM1300 03005KT P6SM SCT005
                      TEMPO 1316 BKN005=
200608241733 TAF KSEA 241733Z 241818 29003KT P6SM OVC010 FM2000 35006KT P6SM
                       OVC020 FM2300 33007KT P6SM BKN025
                      TEMPO 2301 P6SM SCT030 FM0100 VRB03KT P6SM
                       SKC FM1300 03005KT P6SM SCT005
                      TEMPO 1316 BKN005=
200608241555 KSEA 241555Z 241612 29003KT P6SM OVC015 FM1900 35005KT P6SM OVC020
                       FM2000 35006KT P6SM BKN025 FM2300 33007KT
                       P6SM SCT025 FM0400 VRB03KT P6SM SCT120=
200608241127 TAF KSEA 241127Z 241212 29003KT P6SM OVC016 FM1900 35006KT P6SM
                       BKN020 BKN090 FM2300 33007KT P6SM SCT025
                       SCT090 FM0400 VRB03KT P6SM SCT120=
200608240540 TAF KSEA 240540Z 240606 24007KT P6SM OVC025 FM1200 18005KT P6SM
                       OVC015 FM1900 35006KT P6SM BKN020 BKN090
                       FM2300 33007KT P6SM SCT025 BKN090=
200608232336 TAF KSEA 232336Z 240024 21005KT P6SM BKN030
                      TEMPO 0204 P6SM SCT030 FM0900 20006KT P6SM
                       OVC020 FM1200 18005KT P6SM OVC010
                      TEMPO 1216 4SM BR OVC006 FM1900 35006KT P6SM
                       SCT012 BKN020=
200608232031 KSEA 232031Z 232118 20005KT P6SM SCT020 BKN030
                      TEMPO 2123 BKN020 OVC030 FM0900 20006KT P6SM
                       OVC020 FM1200 18005KT P6SM OVC010
                      TEMPO 1216 4SM BR OVC006=
200608231735 TAF KSEA 231735Z 231818 18007KT P6SM BKN015 OVC020
                      TEMPO 1820 SCT015 BKN020 FM2000 20005KT P6SM
                       SCT025 BKN030 FM0900 20006KT P6SM OVC020
                       FM1200 18005KT P6SM OVC010
                      TEMPO 1216 4SM BR OVC006=
200608231320 KSEA 231320Z 231312 19004KT P6SM OVC009
                      TEMPO 1316 OVC004 FM2000 20005KT P6SM OVC012
                       FM2200 23008KT P6SM SCT020 BKN120 FM0300
                       21005KT P6SM BKN120=
200608231120 TAF KSEA 231120Z 231212 23003KT P6SM OVC009 FM2200 23008KT P6SM
                       SCT020 BKN120 FM0300 21005KT P6SM BKN120=
200608230523 TAF KSEA 230523Z 230606 21004KT P6SM SKC FM1100 21006KT P6SM OVC020
                       FM2200 29008KT P6SM SCT020 BKN200=
200608222335 TAF KSEA 222335Z 230024 25008KT P6SM SKC FM1100 21006KT P6SM OVC020
                       FM2200 29008KT P6SM SCT020=
200608221737 TAF KSEA 221737Z 221818 22008KT P6SM FEW010 OVC016 FM2200 23007KT
                       P6SM SCT020 SCT250 FM0100 23009KT P6SM SCT250
                       FM1000 24006KT P6SM OVC020=
200608221120 TAF KSEA 221120Z 221212 19006KT P6SM OVC012 FM2100 23007KT P6SM
                       SCT020 SCT250 FM0000 23005KT P6SM SCT250=
200608220529 TAF KSEA 220529Z 220606 22008KT P6SM BKN250 FM1200 22008KT P6SM
                       OVC006 FM1700 25006KT P6SM SCT008 OVC010
                       FM2000 26007KT P6SM SCT020 FM0000 28005KT
                       P6SM SCT250=
200608212331 TAF KSEA 212331Z 220024 24006KT P6SM BKN250 FM1200 22008KT P6SM
                       OVC006 FM1700 25006KT P6SM SCT008 OVC010
                       FM2000 26007KT P6SM SCT020=
200608211738 TAF KSEA 211738Z 211818 21006KT P6SM SCT250 FM2000 30006KT P6SM
                       SCT250 FM1200 22008KT P6SM OVC006 FM1700
                       25006KT P6SM SCT008 OVC010=
200608211513 KSEA 211513Z 211512 22006KT P6SM BKN005
                      TEMPO 1517 SCT005 FM1700 24005KT P6SM SCT250
                       FM1800 VRB03KT P6SM SCT250 FM2000 33008KT
                       P6SM SCT250 FM1100 22008KT P6SM OVC006=
200608211130 TAF KSEA 211130Z 211212 20004KT P6SM SCT250 FM1800 VRB03KT P6SM
                       SCT250 FM2000 33008KT P6SM SCT250 FM1100
                       22008KT P6SM OVC006=
200608210532 TAF KSEA 210532Z 210606 36006KT P6SM SCT250 FM1000 VRB03KT P6SM
                       SCT250 FM2000 33008KT P6SM SCT250=
200608202322 TAF KSEA 202322Z 210024 31008KT P6SM SKC FM0700 VRB03KT P6SM SCT250
                       FM2000 31006KT P6SM SCT250=
200608201725 TAF KSEA 201725Z 201818 VRB05KT P6SM SKC FM2000 35008KT P6SM SKC
                       FM0800 VRB03KT P6SM SKC=
200608201134 TAF KSEA 201134Z 201212 VRB03KT P6SM SKC FM1900 36008KT P6SM SKC=
200608200526 TAF KSEA 200526Z 200606 36008KT P6SM SKC=
200608192320 TAF KSEA 192320Z 200024 36007KT P6SM SCT250 FM0400 01005KT P6SM
                       SKC FM1900 34009KT P6SM SKC=
200608191733 TAF KSEA 191733Z 191818 34008KT P6SM FEW250 FM0400 01005KT P6SM
                       SKC=
200608191137 TAF KSEA 191137Z 191212 36008KT P6SM SKC=
200608190524 TAF KSEA 190524Z 190606 36008KT P6SM SKC=
200608182327 TAF KSEA 182327Z 190024 35010KT P6SM SKC FM0400 04006KT P6SM SKC
                       FM1900 36008KT P6SM SKC=
200608181720 TAF KSEA 181720Z 181818 35006KT P6SM FEW250 FM0400 04006KT P6SM
                       SKC=
200608181132 TAF KSEA 181132Z 181212 34004KT P6SM SKC FM1900 34008KT P6SM SKC=
200608180526 TAF KSEA 180526Z 180606 VRB03KT P6SM SKC FM1900 34008KT P6SM SKC=
200608172328 TAF KSEA 172328Z 180024 32005KT P6SM SKC FM0500 02004KT P6SM SKC
                       FM1900 32007KT P6SM SKC=
200608171739 TAF KSEA 171739Z 171818 23004KT P6SM OVC013 FM2000 25004KT P6SM
                       SCT018
                      TEMPO 2021 BKN018 FM2200 33006KT P6SM SKC
                       FM0500 02005KT P6SM SKC=
200608171641 KSEA 171641Z 171712 23006KT P6SM OVC012 FM2000 25004KT P6SM SCT015
                       FM2200 33006KT P6SM SKC=
200608171138 TAF KSEA 171138Z 171212 23006KT P6SM OVC009 FM1500 23006KT P6SM
                       OVC011 FM1800 25004KT P6SM SCT015 FM2000
                       33006KT P6SM SKC=
200608171028 KSEA 171028Z 171006 23006KT P6SM OVC009 FM1600 23006KT P6SM OVC011
                       FM1800 25004KT P6SM SCT015 FM2000 33006KT
                       P6SM SKC=
200608170540 TAF KSEA 170540Z 170606 23008KT P6SM SCT200 FM1300 23008KT P6SM
                       OVC011 FM1800 26004KT P6SM SCT020 FM2000
                       33006KT P6SM SKC=
200608162329 TAF KSEA 162329Z 170024 30005KT P6SM SCT045 FM0300 23004KT P6SM
                       SKC FM1100 22003KT P6SM SCT015
                      TEMPO 1317 BKN015 FM1800 26004KT P6SM SCT025
                       FM2000 30005KT P6SM SKC=
200608161737 TAF KSEA 161737Z 161818 25006KT P6SM SCT025 SCT050 BKN200 FM2000
                       26008KT P6SM SCT050 SCT200 FM0200 23004KT
                       P6SM SKC FM1100 22003KT P6SM SCT015
                      TEMPO 1317 BKN015=
200608161120 TAF KSEA 161120Z 161212 22005KT P6SM SCT025 BKN045
                      TEMPO 1316 BKN025 FM2000 26008KT P6SM SCT050
                       SCT200 FM0600 21004KT P6SM SCT200=
200608160827 KSEA 160827Z 160806 22006KT P6SM BKN045 FM1200 VRB03KT P6SM OVC025
                       FM1800 23006KT P6SM SCT025 SCT200
                      TEMPO 1819 BKN025 FM2000 25007KT P6SM SCT200=
200608160520 TAF KSEA 160520Z 160606 24004KT P6SM SCT200 FM0900 VRB03KT P6SM
                       SCT040 SCT200 FM1200 VRB03KT P6SM OVC015
                       FM1800 23006KT P6SM SCT018 SCT200
                      TEMPO 1819 BKN018 FM2000 25007KT P6SM SCT200=
200608152331 TAF KSEA 152331Z 160024 23009KT P6SM BKN200 FM0900 VRB03KT P6SM
                       SCT200
                      TEMPO 1216 SCT020 FM1800 23005KT P6SM SCT200=
200608151729 TAF KSEA 151729Z 151818 23006KT P6SM OVC018 FM2000 25007KT P6SM
                       SCT200 FM0900 VRB03KT P6SM SCT200=
200608151120 TAF KSEA 151120Z 151212 21006KT P6SM OVC012 FM1700 23007KT P6SM
                       SCT025 SCT200
                      TEMPO 1718 BKN025 FM1900 27007KT P6SM SCT200
                       FM0500 21005KT P6SM SCT200=
200608150839 KSEA 150839Z 150906 20005KT P6SM SCT070 SCT200 FM1300 20005KT P6SM
                       SCT025 SCT200
                      TEMPO 1316 BKN025 FM1800 23007KT P6SM SCT200
                       FM0300 27007KT P6SM SCT200=
200608150520 TAF KSEA 150520Z 150606 02006KT P6SM SKC FM0700 20006KT P6SM SKC
                       FM1100 21006KT P6SM OVC025 FM1800 22006KT
                       P6SM SCT025 SCT200 FM2000 23007KT P6SM SCT200
                       FM0300 27007KT P6SM SCT200=
200608142322 TAF KSEA 142322Z 150024 31007KT P6SM SCT200 FM0800 21007KT P6SM
                       SCT200 FM1100 20006KT P6SM OVC015 FM2100
                       23005KT P6SM SCT025 SCT200=
200608141729 TAF KSEA 141729Z 141818 VRB04KT P6SM SCT200 FM2100 30008KT P6SM
                       SCT200 FM0800 21007KT P6SM SCT200 FM1100
                       20006KT P6SM OVC015=
200608141120 TAF KSEA 141120Z 141212 04006KT P6SM SKC FM1800 27007KT P6SM SCT200
                       FM2100 30008KT P6SM SCT200 FM0800 21007KT
                       P6SM FEW015 SCT200 FM1000 20006KT P6SM OVC015=
200608140520 TAF KSEA 140520Z 140606 36005KT P6SM SKC FM1800 27008KT P6SM SCT200
                       FM2100 30008KT P6SM SCT200=
200608132325 TAF KSEA 132325Z 140024 34007KT P6SM SKC FM0400 02004KT P6SM SKC
                       FM1800 31008KT P6SM SCT200=
200608131720 TAF KSEA 131720Z 131818 02005KT P6SM SKC FM1900 34007KT P6SM SKC
                       FM1200 02004KT P6SM SCT030=
200608131127 TAF KSEA 131127Z 131212 01005KT P6SM SKC FM1900 34007KT P6SM SKC
                       FM0500 03005KT P6SM SKC=
200608130520 TAF KSEA 130520Z 130606 03005KT P6SM SKC FM1900 34007KT P6SM SKC
                       FM0500 03005KT P6SM SKC=
200608122333 TAF KSEA 122333Z 130024 35006KT P6SM SKC FM0900 VRB03KT P6SM SKC
                       FM1900 35007KT P6SM SKC=
200608121724 TAF KSEA 121724Z 121818 34004KT P6SM SKC FM2100 35006KT P6SM SKC
                       FM0600 01005KT P6SM SKC FM0900 VRB03KT P6SM
                       SKC=
200608121120 TAF KSEA 121120Z 121212 VRB03KT P6SM SCT035
                      TEMPO 1216 BKN035 FM1700 29007KT P6SM SCT040
                       FM0100 35005KT P6SM SKC=
200608120521 TAF KSEA 120521Z 120606 34004KT P6SM FEW040
                      TEMPO 0913 BKN040 FM1300 19004KT P6SM BKN020
                       OVC040 FM1700 29007KT P6SM SCT030 FM0100
                       35005KT P6SM SKC=
200608112333 TAF KSEA 112333Z 120024 29009KT P6SM SCT035 FM0600 31005KT P6SM
                       SKC FM1300 VRB03KT P6SM BKN020 FM1700 29007KT
                       P6SM SCT030=
200608111726 TAF KSEA 111726Z 111818 21005KT P6SM OVC020 FM2000 22006KT P6SM
                       BKN025 FM2200 28006KT P6SM SCT045 FM0600
                       31005KT P6SM SKC=
200608111124 TAF KSEA 111124Z 111212 19006KT P6SM BKN012 OVC035 FM1800 19004KT
                       P6SM SCT020 BKN040 FM2100 28006KT P6SM SCT045=
200608111013 KSEA 111013Z 111006 21005KT P6SM BKN013 OVC040 FM1800 19004KT P6SM
                       SCT025 BKN040 FM2000 28006KT P6SM SCT045=
200608110526 TAF KSEA 110526Z 110606 23005KT P6SM SCT035 SCT090 FM1200 20004KT
                       P6SM BKN025 BKN045 FM1800 19004KT P6SM SCT025
                       BKN035 FM2000 28006KT P6SM SCT045=
200608102320 TAF KSEA 102320Z 110024 25004KT P6SM SCT025 BKN040 FM0100 21005KT
                       P6SM SCT045 FM1200 VRB03KT P6SM BKN025 BKN045
                       FM1800 19004KT P6SM SCT025 BKN035 FM2000
                       28006KT P6SM SCT045=
200608101852 KSEA 101852Z 101918 30006KT P6SM SCT018 BKN040
                      TEMPO 1920 BKN018 OVC040 FM2200 32007KT P6SM
                       SCT045 FM0800 21005KT P6SM BKN045 FM1200
                       VRB03KT P6SM BKN025 BKN045=
200608101720 TAF KSEA 101720Z 101818 29006KT P6SM BKN040 FM2200 32007KT P6SM
                       SCT045 FM0800 21005KT P6SM BKN045 FM1200
                       VRB03KT P6SM BKN025 BKN045=
200608101600 KSEA 101600Z 101612 01005KT P6SM SCT018 OVC035
                      TEMPO 1618 4SM -RA BR OVC018 FM1800 29006KT
                       P6SM BKN040 BKN200 FM2200 32007KT P6SM SCT060
                       BKN200 FM0800 21005KT P6SM BKN060 BKN200=
200608101126 TAF KSEA 101126Z 101212 01005KT P6SM BKN035 OVC060
                      TEMPO 1317 OVC030 FM1800 29006KT P6SM BKN060
                       BKN200 FM2200 32007KT P6SM SCT060 BKN200
                       FM0800 21005KT P6SM BKN060 BKN200=
200608100520 TAF KSEA 100520Z 100606 01006KT P6SM BKN050 BKN200
                      TEMPO 0812 BKN035 OVC050 FM1200 VRB04KT P6SM
                       OVC035 FM1800 30006KT P6SM BKN050 BKN200
                       FM2200 32007KT P6SM SCT060 BKN200=
200608092339 TAF KSEA 092339Z 100024 29007KT P6SM BKN035 BKN080 FM0400 02004KT
                       P6SM SCT040 BKN200 FM1200 VRB04KT P6SM OVC030
                       FM1800 33007KT P6SM BKN030=
200608091736 TAF KSEA 091736Z 091818 30003KT P6SM BKN005 OVC010 FM2000 29006KT
                       P6SM SCT016 OVC030 FM2200 29007KT P6SM SCT025
                       BKN050 FM0300 02004KT P6SM SCT060=
200608091346 KSEA 091346Z 091412 30003KT P6SM VCSH BKN005 OVC009
                      TEMPO 1416 4SM BR OVC005 FM1700 19006KT P6SM
                       VCSH SCT008 OVC016 FM2000 23006KT P6SM SCT016
                       OVC023 FM2200 24007KT P6SM SCT030 BKN060
                       FM0200 30005KT P6SM SCT060=
200608091120 TAF KSEA 091120Z 091212 20005KT P6SM VCSH SCT008 OVC015
                      TEMPO 1215 OVC008 FM1700 18006KT P6SM SCT018
                       BKN025 FM1800 24006KT P6SM FEW035 BKN060
                       FM0200 30005KT P6SM SCT060=
200608090729 KSEA 090729Z 090706 22005KT P6SM VCSH SCT015 OVC025
                      TEMPO 0711 OVC015 FM1100 20005KT P6SM OVC015
                       TEMPO 1115 OVC008 FM1700 18006KT P6SM SCT018
                       BKN025 FM1900 24006KT P6SM SCT035 BKN060
                       FM0200 30005KT P6SM SCT060=
200608090542 KSEA 090542Z 090606 20006KT P6SM VCSH OVC015
                      TEMPO 1115 OVC008 FM1700 18006KT P6SM SCT018
                       BKN025 FM1900 24006KT P6SM SCT035 BKN060
                       FM0200 30005KT P6SM SCT060=
200608090520 TAF KSEA 090520Z 090606 21008KT P6SM VCSH SCT035 BKN045 OVC070
                       TEMPO 0608 BKN035 FM0800 21006KT P6SM VCSH
                       BKN025 OVC040 FM1100 20004KT P6SM VCSH OVC015
                       FM1700 18006KT P6SM SCT018 BKN025 FM1900
                       24006KT P6SM SCT035 BKN060 FM0200 30005KT
                       P6SM SCT060=
200608082332 TAF KSEA 082332Z 090024 22008KT P6SM SCT050 SCT120 BKN200
                      TEMPO 0003 BKN050 BKN120 FM0300 22006KT P6SM
                       VCSH BKN050 OVC100 FM1000 VRB04KT P6SM BKN028
                       BKN100 FM1300 18006KT P6SM BKN026 FM1900
                       23006KT P6SM SCT025 BKN050=
200608082231 KSEA 082231Z 082318 23009KT P6SM SCT050 SCT120 BKN200 FM0200 22006KT
                       P6SM BKN050 OVC100 FM1000 VRB04KT P6SM BKN028
                       BKN100 FM1500 18006KT P6SM BKN026=
200608081618 KSEA 081618Z 081612 20006KT P6SM SCT028 BKN090
                      TEMPO 1619 BKN028 BKN090 FM1900 21008KT P6SM
                       SCT030 BKN050 BKN100 FM0300 30006KT P6SM
                       BKN045 FM1000 VRB04KT P6SM BKN030=
200608081125 TAF KSEA 081125Z 081212 20006KT P6SM BKN020 BKN120
                      TEMPO 1215 BKN015 FM1600 20007KT P6SM FEW040
                       BKN120 OVC200 FM2100 23008KT P6SM VCSH BKN045
                       BKN100 FM0300 30006KT P6SM BKN045 FM1000
                       VRB04KT P6SM BKN030=
200608081038 KSEA 081038Z 081106 20006KT P6SM SCT018 SCT150 BKN250
                      TEMPO 1115 BKN018 FM1700 20008KT P6SM VCSH
                       FEW040 BKN120 OVC200=
200608080522 TAF KSEA 080522Z 080606 30006KT P6SM SCT250 FM0800 21006KT P6SM
                       SCT150 BKN250 FM1100 20006KT P6SM SCT012
                       SCT150 BKN250
                      TEMPO 1216 BKN012 FM1700 20008KT P6SM VCSH
                       FEW040 BKN120 OVC200=
200608080203 KSEA 080203Z 080224 32008KT P6SM SKC FM0600 VRB03KT P6SM SCT250
                       FM0800 21006KT P6SM SCT150 BKN250 FM1400
                       20006KT P6SM SCT030 SCT120 BKN200 FM1800
                       20008KT P6SM SCT040 BKN120 OVC200=
200608072353 TAF KSEA 072353Z 080024 25005KT P6SM SKC FM0400 23005KT P6SM SCT250
                       FM0800 21006KT P6SM SCT150 BKN250 FM1400
                       20006KT P6SM SCT030 SCT120 BKN200 FM1800
                       20008KT P6SM SCT040 BKN120 OVC200=
200608072300 KSEA 080203Z 080224 32008KT P6SM SKC FM0600 VRB03KT P6SM SCT250
                       FM0800 21006KT P6SM SCT150 BKN250 FM1400
                       20006KT P6SM SCT030 SCT120 BKN200 FM1800
                       20008KT P6SM SCT040 BKN120 OVC200=
200608071740 TAF KSEA 071740Z 071818 28006KT P6SM SKC FM2100 32006KT P6SM SKC
                       FM0800 21006KT P6SM BKN150 BKN250 FM1600
                       20008KT P6SM BKN120 OVC200=
200608071140 TAF KSEA 071140Z 071212 00000KT P6SM BKN250 FM1400 21006KT P6SM
                       SCT002 FM1700 24006KT P6SM SCT250 FM2100
                       32006KT P6SM SCT250 FM0900 16006KT P6SM
                       BKN150=
200608070532 TAF KSEA 070532Z 070606 02006KT P6SM SCT250 FM1100 VRB03KT P6SM
                       SCT250 FM1400 21006KT P6SM SCT006 FM1700
                       24006KT P6SM SCT250 FM2100 32006KT P6SM
                       SCT250=
200608062325 TAF KSEA 062325Z 070024 32009KT P6SM SKC FM0300 01006KT P6SM SKC
                       FM1300 21005KT P6SM SCT007 FM1700 26006KT
                       P6SM SCT250=
200608061728 TAF KSEA 061728Z 061818 31009KT P6SM SKC FM0300 01006KT P6SM SKC
                       FM1300 21005KT P6SM SCT007=
200608061120 TAF KSEA 061120Z 061212 00000KT P6SM SKC FM1400 21004KT P6SM SKC
                       FM1900 31007KT P6SM SKC FM0300 01006KT P6SM
                       SKC FM0800 20006KT P6SM SKC=
200608060521 TAF KSEA 060521Z 060606 02006KT P6SM FEW250 FM1400 21004KT P6SM
                       SKC FM1900 31007KT P6SM SKC FM0300 01006KT
                       P6SM SKC=
200608052320 TAF KSEA 052320Z 060024 32008KT P6SM SKC FM0400 36005KT P6SM SKC
                       FM1400 21004KT P6SM SKC FM1800 26005KT P6SM
                       SKC=
200608051720 TAF KSEA 051720Z 051818 28005KT P6SM SKC FM1900 32008KT P6SM SKC
                       FM0400 01005KT P6SM SCT250 FM1400 VRB03KT
                       P6SM SCT250=
200608051120 TAF KSEA 051120Z 051212 00000KT P6SM SKC FM1800 33008KT P6SM SCT250
                       FM0300 02005KT P6SM SCT250=
200608050520 TAF KSEA 050520Z 050606 02006KT P6SM FEW250 FM1400 VRB03KT P6SM
                       SCT250 FM1800 33008KT P6SM SCT250 FM0300
                       02007KT P6SM SCT250=
200608042320 TAF KSEA 042320Z 050024 31006KT P6SM SCT250 FM0300 33006KT P6SM
                       SCT250 FM0600 01005KT P6SM SCT250 FM1400
                       VRB03KT P6SM SCT005 SCT250 FM1700 31005KT
                       P6SM SCT250=
200608041741 TAF KSEA 041741Z 041818 27005KT P6SM SCT250 FM2000 31008KT P6SM
                       SCT250 FM0300 33006KT P6SM SCT250=
200608041529 KSEA 041529Z 041512 24007KT P6SM SCT007 SCT250
                      TEMPO 1517 BKN007 BKN250 FM1700 25005KT P6SM
                       SCT007 SCT250 FM1800 27005KT P6SM SCT250
                       FM2000 31008KT P6SM SCT250=
200608041315 KSEA 041315Z 041312 22006KT P6SM SCT005 BKN060
                      TEMPO 1416 BKN005 BKN060 FM1600 VRB04KT P6SM
                       FEW060 SCT250 FM1900 31008KT P6SM SKC=
200608041121 TAF KSEA 041121Z 041212 22004KT P6SM BKN060 FM1600 VRB04KT P6SM
                       FEW060 SCT250 FM1900 31008KT P6SM SKC=
200608040522 TAF KSEA 040522Z 040606 01007KT P6SM SCT250 FM1500 VRB03KT P6SM
                       SCT250 FM1900 31008KT P6SM SKC=
200608032323 TAF KSEA 032323Z 040024 31009KT P6SM BKN250 FM0200 35009KT P6SM
                       BKN250 FM0600 04007KT P6SM BKN250 FM1500
                       VRB03KT P6SM SCT250 FM1800 31008KT P6SM
                       SKC=
200608031725 TAF KSEA 031725Z 031818 35006KT P6SM BKN250 FM2000 31009KT P6SM
                       BKN250 FM0200 35009KT P6SM SCT250 FM0600
                       04007KT P6SM SCT250 FM1500 VRB03KT P6SM
                       BKN250=
200608031122 TAF KSEA 031122Z 031212 03008KT P6SM SCT250 FM1900 31008KT P6SM
                       SKC=
200608030528 TAF KSEA 030528Z 030606 01007KT P6SM SCT250 FM1200 04006KT P6SM
                       SCT025 FM1700 30008KT P6SM SKC=
200608022337 TAF KSEA 022337Z 030024 30008KT P6SM FEW035 FM0600 04008KT P6SM
                       SCT200 FM1200 04006KT P6SM SCT025 FM1700
                       30008KT P6SM SKC=
200608021734 TAF KSEA 021734Z 021818 05006KT P6SM BKN015 BKN040
                      TEMPO 1819 OVC020 FM2000 35007KT P6SM SCT060
                       FM0600 04008KT P6SM BKN200=
200608021133 TAF KSEA 021133Z 021212 VRB05KT P6SM FEW020 SCT060
                      TEMPO 1317 BKN020 BKN060 FM2000 35007KT P6SM
                       SCT080=
200608020531 TAF KSEA 020531Z 020606 32006KT P6SM BKN080 FM0900 03006KT P6SM
                       SCT080 FM1200 VRB04KT P6SM FEW015 SCT080
                       TEMPO 1317 BKN015 BKN080 FM2000 35007KT
                       P6SM SCT100=
200608020316 TAF AMD KSEA 020316Z 020324 32006KT P6SM FEW040 BKN080 FM0800 03006KT
                       P6SM SCT080 FM1300 VRB04KT P6SM FEW015 SCT080
                       FM2000 35007KT P6SM SCT120=
200608012327 TAF KSEA 012327Z 020024 21008KT P6SM SCT030 SCT200 FM0600 04006KT
                       P6SM SKC FM1200 VRB03KT P6SM SCT040=
200608012300 KSEA 020316Z 020324 32006KT P6SM FEW040 BKN080 FM0800 03006KT P6SM
                       SCT080 FM1300 VRB04KT P6SM FEW015 SCT080
                       FM2000 35007KT P6SM SCT120=
200608011726 TAF KSEA 011726Z 011818 19004KT P6SM SCT040 BKN150 FM2000 34008KT
                       P6SM BKN200 FM0000 33006KT P6SM SCT200 FM1200
                       VRB03KT P6SM BKN030=
200608011120 TAF KSEA 011120Z 011212 00000KT P6SM BKN040 BKN200 FM1800 24006KT
                       P6SM SCT040 BKN200 FM0000 33006KT P6SM SCT200=
200608010530 TAF KSEA 010530Z 010606 36005KT P6SM FEW060 SCT150 FM1200 VRB04KT
                       P6SM SCT020 BKN200 FM1800 32008KT P6SM SCT030
                       BKN200 FM2100 33006KT P6SM SCT200=