##########################################################
# Query made at 02/18/2025 01:14:09 UTC
# Time interval: from 03/01/2006 00:00  to 03/31/2006 23:59  UTC
##########################################################

##########################################################
# KSEA, Seattle, Seattle-Tacoma International Airport (United States)
# WMO index: 72793. WIGOS ID: 0-20000-0-72793
# Latitude 47-27-00N. Longitude 122-17-59W. Altitude 130 m.
##########################################################

###################################
#  METAR/SPECI from KSEA
###################################
200603312356 METAR KSEA 312356Z VRB04KT 10SM FEW040 SCT070 BKN100 BKN200 13/04 A2974 RMK AO2 SLP079 T01330039 10156 20111 56011=
200603312256 METAR KSEA 312256Z 23005KT 10SM FEW040 SCT080 SCT100 OVC200 13/04 A2975 RMK AO2 SLP081 SH DSNT SE-S T01330039=
200603312156 METAR KSEA 312156Z VRB03KT 10SM SCT040 SCT090 BKN200 14/03 A2976 RMK AO2 SLP082 SH DSNT S-SW T01440033=
200603312056 METAR KSEA 312056Z 28007KT 10SM SCT036 SCT045 BKN200 14/06 A2978 RMK AO2 SLP089 T01440056 58010=
200603311956 METAR KSEA 311956Z VRB03KT 10SM BKN034 BKN200 13/04 A2979 RMK AO2 SLP094 T01280039=
200603311856 METAR KSEA 311856Z VRB06KT 10SM SCT030 BKN045 BKN200 13/05 A2980 RMK AO2 SLP097 T01280050=
200603311756 METAR KSEA 311756Z 25004KT 10SM SCT024 BKN031 12/05 A2981 RMK AO2 SLP099 60001 T01170050 10117 20067 51008=
200603311656 METAR KSEA 311656Z 16004KT 10SM FEW018 SCT040 11/06 A2980 RMK AO2 SLP098 T01060061=
200603311556 METAR KSEA 311556Z 17004KT 10SM SCT030 BKN040 09/07 A2979 RMK AO2 SLP096 T00890067=
200603311456 METAR KSEA 311456Z 17003KT 10SM FEW005 SCT031 BKN042 BKN200 08/07 A2978 RMK AO2 SLP092 60001 T00780067 55000=
200603311356 METAR KSEA 311356Z 15004KT 10SM FEW005 SCT036 SCT080 OVC200 07/06 A2977 RMK AO2 RAE18 SLP089 P0000 T00670061=
200603311346 SPECI KSEA 311346Z 14005KT 10SM FEW005 SCT036 SCT080 OVC200 07/06 A2977 RMK AO2 RAE18 P0000=
200603311346 SPECI KSEA 311346Z 14005KT 10SM FEW005 SCT036 SCT080 OVC200 07/06 A2977 RMK AO2 RAE18 P0000=
200603311256 METAR KSEA 311256Z 15006KT 10SM -RA SCT036 OVC070 08/07 A2978 RMK AO2 RAE27B53 SLP090 P0001 T00780067=
200603311156 METAR KSEA 311156Z 16005KT 8SM -RA FEW005 BKN036 OVC070 08/07 A2978 RMK AO2 SLP092 P0002 60005 70005 T00780067 10111 20072 58006=
200603311111 SPECI KSEA 311111Z 15005KT 7SM -RA FEW005 OVC036 08/07 A2979 RMK AO2 P0001=
200603311111 SPECI KSEA 311111Z 15005KT 7SM -RA FEW005 OVC036 08/07 A2979 RMK AO2 P0001=
200603311056 METAR KSEA 311056Z 18004KT 8SM -RA FEW020 OVC038 07/07 A2979 RMK AO2 SLP095 P0002 T00720067=
200603310956 METAR KSEA 310956Z 22006KT 10SM -RA FEW026 BKN038 OVC070 08/07 A2980 RMK AO2 RAB14 SLP097 P0001 T00780067=
200603310856 METAR KSEA 310856Z 23006KT 10SM BKN070 OVC150 08/06 A2980 RMK AO2 RAE0758 SLP099 P0000 60000 T00830061 53000=
200603310756 METAR KSEA 310756Z 24004KT 10SM -RA FEW050 BKN070 OVC150 08/06 A2979 RMK AO2 RAB39 SLP094 P0000 T00830061 401390056=
200603310656 METAR KSEA 310656Z 00000KT 10SM SCT060 BKN090 OVC150 09/06 A2979 RMK AO2 SLP095 T00940056=
200603310556 METAR KSEA 310556Z 02006KT 10SM FEW060 BKN100 OVC130 11/04 A2980 RMK AO2 SLP097 T01110044 10122 20100 58005=
200603310456 METAR KSEA 310456Z 35003KT 10SM BKN070 OVC100 11/06 A2982 RMK AO2 SLP104 T01060056=
200603310356 METAR KSEA 310356Z 35004KT 10SM OVC070 11/06 A2982 RMK AO2 SLP105 T01060056=
200603310256 METAR KSEA 310256Z 29004KT 10SM BKN070 OVC200 11/06 A2982 RMK AO2 SLP103 T01110056 56017=
200603310156 METAR KSEA 310156Z 00000KT 10SM SCT080 SCT120 OVC200 11/06 A2982 RMK AO2 SLP104 T01110056=
200603310056 METAR KSEA 310056Z 29005KT 10SM FEW040 SCT100 BKN140 OVC200 12/06 A2985 RMK AO2 SLP114 T01170056=
200603302356 METAR KSEA 302356Z 25004KT 10SM FEW040 BKN070 OVC150 12/05 A2987 RMK AO2 SLP120 T01220050 10139 20106 56019=
200603302256 METAR KSEA 302256Z 24005KT 10SM FEW049 SCT070 BKN100 OVC150 13/05 A2988 RMK AO2 SLP127 VIRGA SE T01280050=
200603302156 METAR KSEA 302156Z 29005KT 10SM FEW045 BKN070 OVC200 13/05 A2990 RMK AO2 SLP133 T01280050=
200603302056 METAR KSEA 302056Z VRB05KT 10SM FEW040 SCT070 OVC200 13/04 A2992 RMK AO2 SLP140 T01280039 58012=
200603301956 METAR KSEA 301956Z 25007KT 10SM FEW040 SCT070 OVC200 13/05 A2994 RMK AO2 SLP145 T01330050=
200603301856 METAR KSEA 301856Z VRB04KT 10SM SCT055 BKN065 BKN100 OVC200 12/03 A2995 RMK AO2 SLP149 T01220033=
200603301756 METAR KSEA 301756Z VRB04KT 10SM SCT048 BKN100 OVC200 11/04 A2996 RMK AO2 SLP152 60000 T01060044 10106 20056 57001=
200603301656 METAR KSEA 301656Z 00000KT 10SM BKN045 BKN060 OVC200 08/04 A2996 RMK AO2 RAB36E54 SLP152 VCSH W P0000 T00830039=
200603301556 METAR KSEA 301556Z 14005KT 10SM BKN070 OVC200 08/04 A2996 RMK AO2 SLP151 T00780044=
200603301456 METAR KSEA 301456Z 14004KT 10SM FEW028 SCT065 SCT120 BKN200 07/04 A2996 RMK AO2 SLP152 T00670044 56001=
200603301356 METAR KSEA 301356Z 15005KT 10SM SCT019 SCT050 BKN100 06/04 A2996 RMK AO2 SLP153 T00610039=
200603301256 METAR KSEA 301256Z 13005KT 10SM SCT055 BKN100 07/04 A2996 RMK AO2 SLP153 T00670044=
200603301156 METAR KSEA 301156Z 19004KT 10SM OVC100 07/05 A2996 RMK AO2 SLP153 T00670050 10083 20067 52003=
200603301056 METAR KSEA 301056Z 20005KT 10SM BKN100 07/05 A2996 RMK AO2 SLP153 T00720050=
200603300956 METAR KSEA 300956Z 20005KT 10SM OVC100 08/05 A2995 RMK AO2 SLP150 T00780050=
200603300856 METAR KSEA 300856Z 18006KT 10SM OVC100 07/05 A2995 RMK AO2 SLP150 T00720050 53008=
200603300756 METAR KSEA 300756Z 21007KT 10SM BKN100 07/06 A2994 RMK AO2 SLP148 T00720056 401170067=
200603300656 METAR KSEA 300656Z 21012KT 10SM BKN100 08/06 A2993 RMK AO2 SLP144 T00830056=
200603300556 METAR KSEA 300556Z 21009KT 10SM FEW070 OVC100 08/06 A2993 RMK AO2 SLP143 60000 T00830056 10111 20083 51016=
200603300456 METAR KSEA 300456Z 20010KT 10SM BKN095 09/05 A2992 RMK AO2 SLP139 T00890050=
200603300356 METAR KSEA 300356Z 18009KT 10SM OVC100 09/06 A2990 RMK AO2 SLP132 T00940056=
200603300256 METAR KSEA 300256Z 18009KT 10SM FEW032 BKN100 BKN200 09/06 A2988 RMK AO2 SLP126 60000 T00940056 53007=
200603300220 SPECI KSEA 300220Z VRB06KT 10SM SCT029 BKN095 BKN200 10/04 A2987 RMK AO2=
200603300220 SPECI KSEA 300220Z VRB06KT 10SM SCT029 BKN095 BKN200 10/04 A2987 RMK AO2=
200603300156 METAR KSEA 300156Z 18010KT 10SM SCT023 BKN027 BKN095 OVC200 10/06 A2987 RMK AO2 RAE05 SLP122 P0000 T01000061=
200603300145 SPECI KSEA 300145Z 20013KT 10SM BKN023 BKN095 OVC200 10/06 A2987 RMK AO2 RAE05 P0000=
200603300145 SPECI KSEA 300145Z 20013KT 10SM BKN023 BKN095 OVC200 10/06 A2987 RMK AO2 RAE05 P0000=
200603300056 METAR KSEA 300056Z 18014KT 10SM -RA SCT043 BKN060 BKN080 BKN200 11/06 A2986 RMK AO2 RAB50 SLP117 P0000 T01060061=
200603292356 METAR KSEA 292356Z 19009KT 10SM FEW022 SCT075 BKN130 OVC200 11/06 A2986 RMK AO2 SLP119 T01110061 10117 20072 53005=
200603292256 METAR KSEA 292256Z 21010KT 10SM FEW025 SCT035 BKN100 BKN130 OVC200 12/06 A2985 RMK AO2 SLP116 T01170061=
200603292156 METAR KSEA 292156Z 18009KT 10SM FEW020 SCT031 BKN085 BKN130 OVC150 11/06 A2985 RMK AO2 SLP115 T01110061=
200603292126 SPECI KSEA 292126Z 19008KT 10SM FEW020 SCT026 BKN090 OVC200 11/06 A2985 RMK AO2=
200603292126 SPECI KSEA 292126Z 19008KT 10SM FEW020 SCT026 BKN090 OVC200 11/06 A2985 RMK AO2=
200603292056 METAR KSEA 292056Z 20009KT 10SM SCT015 BKN022 BKN100 OVC200 11/06 A2985 RMK AO2 SLP114 T01060061 51015=
200603292043 SPECI KSEA 292043Z 22008KT 10SM SCT012 BKN022 BKN100 OVC200 10/06 A2985=
200603292043 SPECI KSEA 292043Z 22008KT 10SM SCT012 BKN022 BKN100 OVC200 10/06 A2985 RMK AO2=
200603291956 METAR KSEA 291956Z 19005KT 8SM FEW009 BKN012 OVC015 08/06 A2984 RMK AO2 SLP111 T00830056=
200603291914 SPECI KSEA 291914Z 23005KT 7SM SCT008 BKN012 OVC015 08/06 A2982 RMK AO2=
200603291914 SPECI KSEA 291914Z 23005KT 7SM SCT008 BKN012 OVC015 08/06 A2982 RMK AO2=
200603291856 METAR KSEA 291856Z 16004KT 7SM BKN008 OVC012 08/05 A2982 RMK AO2 SLP105 T00780050=
200603291832 SPECI KSEA 291832Z 15004KT 7SM BKN008 OVC012 08/05 A2980 RMK AO2=
200603291832 SPECI KSEA 291832Z 15004KT 7SM BKN008 OVC012 08/05 A2980 RMK AO2=
200603291756 METAR KSEA 291756Z 16005KT 7SM SCT008 OVC012 07/05 A2980 RMK AO2 SLP100 T00720050 10072 20067 51019=
200603291727 SPECI KSEA 291727Z 15007KT 6SM BR SCT007 OVC010 07/05 A2980 RMK AO2=
200603291727 SPECI KSEA 291727Z 15007KT 6SM BR SCT007 OVC010 07/05 A2980 RMK AO2=
200603291656 METAR KSEA 291656Z 14006KT 8SM BKN007 OVC010 07/04 A2979 RMK AO2 SLP095 T00670044=
200603291556 METAR KSEA 291556Z VRB04KT 8SM OVC007 07/05 A2977 RMK AO2 SLP087 T00670050=
200603291456 METAR KSEA 291456Z 04006KT 8SM OVC007 07/05 A2975 RMK AO2 SLP080 T00670050 53021=
200603291356 METAR KSEA 291356Z 05008KT 10SM BKN007 OVC010 07/05 A2972 RMK AO2 SLP071 T00670050=
200603291256 METAR KSEA 291256Z 03007KT 10SM OVC005 07/05 A2970 RMK AO2 SLP065 T00670050=
200603291156 METAR KSEA 291156Z 03007KT 10SM OVC005 07/05 A2968 RMK AO2 SLP058 70009 T00670050 10078 20067 53005=
200603291056 METAR KSEA 291056Z 04005KT 9SM OVC005 07/06 A2967 RMK AO2 SLP055 T00670056=
200603290956 METAR KSEA 290956Z 02007KT 10SM BKN005 OVC010 07/06 A2967 RMK AO2 SLP053 T00670056=
200603290952 SPECI KSEA 290952Z 02007KT 10SM BKN005 OVC010 07/05 A2967 RMK AO2=
200603290952 SPECI KSEA 290952Z 02007KT 10SM BKN005 OVC010 07/05 A2967 RMK AO2=
200603290856 METAR KSEA 290856Z 03006KT 10SM FEW005 SCT250 07/05 A2967 RMK AO2 SLP054 T00670050 53002=
200603290756 METAR KSEA 290756Z 03011KT 10SM SCT250 07/06 A2967 RMK AO2 SLP052 T00720056 401390067=
200603290656 METAR KSEA 290656Z 02010KT 10SM SCT250 08/06 A2966 RMK AO2 SLP052 T00780056=
200603290556 METAR KSEA 290556Z 36009KT 10SM SCT250 08/06 A2966 RMK AO2 SLP052 T00780056 10139 20078 50001=
200603290456 METAR KSEA 290456Z 01010KT 10SM SCT250 08/04 A2967 RMK AO2 SLP053 T00830044=
200603290356 METAR KSEA 290356Z 01011KT 10SM SCT250 09/04 A2967 RMK AO2 SLP053 T00940044=
200603290256 METAR KSEA 290256Z 36009KT 10SM FEW120 SCT250 09/06 A2966 RMK AO2 SLP051 T00940056 55008=
200603290156 METAR KSEA 290156Z 36012KT 10SM FEW045 SCT120 SCT250 11/05 A2966 RMK AO2 SLP051 T01110050=
200603290056 METAR KSEA 290056Z 35011KT 10SM FEW045 SCT120 SCT250 13/04 A2968 RMK AO2 SLP056 T01280044=
200603282356 METAR KSEA 282356Z 04010KT 10SM FEW045 SCT120 BKN250 13/02 A2969 RMK AO2 SLP060 T01330022 10139 20094 56023=
200603282256 METAR KSEA 282256Z 06008KT 10SM FEW045 SCT110 SCT200 BKN250 14/03 A2971 RMK AO2 SLP066 T01390033=
200603282156 METAR KSEA 282156Z VRB04KT 10SM FEW040 SCT110 BKN200 OVC250 13/03 A2973 RMK AO2 SLP075 T01330028=
200603282056 METAR KSEA 282056Z 09004KT 10SM FEW030 SCT070 BKN150 OVC200 12/02 A2976 RMK AO2 SLP083 T01220022 58006=
200603281956 METAR KSEA 281956Z 11005KT 10SM FEW020 SCT100 BKN130 OVC150 11/04 A2977 RMK AO2 SLP088 T01110039=
200603281856 METAR KSEA 281856Z 14007KT 10SM FEW020 SCT070 SCT090 BKN130 OVC150 11/06 A2978 RMK AO2 SLP090 T01060061=
200603281756 METAR KSEA 281756Z 12009KT 10SM FEW010 SCT060 BKN080 OVC130 09/07 A2978 RMK AO2 SLP090 VIRGA SE 60009 T00940067 10094 20067 51005=
200603281656 METAR KSEA 281656Z 13009KT 10SM FEW005 SCT050 OVC090 08/07 A2977 RMK AO2 RAE19 SLP089 P0000 T00830067=
200603281556 METAR KSEA 281556Z 14009KT 8SM -RA FEW004 SCT040 OVC055 07/06 A2977 RMK AO2 RAB26 SLP089 BINOVC W P0001 T00720061=
200603281535 SPECI KSEA 281535Z 15008KT 6SM -RA BR SCT004 BKN040 OVC060 07/06 A2977 RMK AO2 RAB26 P0001=
200603281535 SPECI KSEA 281535Z 15008KT 6SM -RA BR SCT004 BKN040 OVC060 07/06 A2977 RMK AO2 RAB26 P0001=
200603281519 SPECI KSEA 281519Z 15007KT 1/2SM BR FEW002 BKN004 OVC009 07/06 A2977 RMK AO2 SFC VIS 6=
200603281519 SPECI KSEA 281519Z 15007KT 1/2SM BR FEW002 BKN004 OVC009 07/06 A2977 RMK AO2 SFC VIS 6=
200603281507 SPECI KSEA 281507Z 17005KT 1 1/2SM FEW002 BKN004 OVC035 07/06 A2977 RMK AO2 SFC VIS 7=
200603281507 SPECI KSEA 281507Z 17005KT 1 1/2SM FEW002 BKN004 OVC035 07/06 A2977 RMK AO2 SFC VIS 7=
200603281456 METAR KSEA 281456Z 18006KT 1 1/2SM BR SCT004 BKN038 OVC055 07/06 A2976 RMK AO2 SFC VIS 4 RAE10B26E36 SLP085 P0000 60008 T00670061 51030=
200603281449 SPECI KSEA 281449Z 21006KT 1 1/2SM BR FEW004 BKN038 OVC055 07/06 A2976=
200603281449 SPECI KSEA 281449Z 21006KT 1 1/2SM BR FEW004 BKN038 OVC055 07/06 A2976 RMK AO2 SFC VIS 6 RAE10B26E36 P0000=
200603281356 METAR KSEA 281356Z 14007KT 10SM -RA SCT030 SCT040 OVC049 07/06 A2974 RMK AO2 SLP076 P0005 T00670061=
200603281256 METAR KSEA 281256Z 29007KT 10SM -RA BKN040 OVC045 07/06 A2972 RMK AO2 SLP070 P0003 T00670056=
200603281156 METAR KSEA 281156Z 33005KT 8SM -RA OVC048 07/06 A2967 RMK AO2 SLP054 P0005 60007 70007 T00720056 10094 20072 51019=
200603281056 METAR KSEA 281056Z 34006KT 10SM -RA OVC055 08/05 A2966 RMK AO2 SLP048 P0001 T00780050=
200603280956 METAR KSEA 280956Z 34007KT 10SM -RA OVC055 08/04 A2964 RMK AO2 RAB28 SLP043 P0001 T00780044=
200603280856 METAR KSEA 280856Z 35007KT 10SM BKN065 BKN080 OVC120 09/04 A2961 RMK AO2 RAB28E45 SLP034 P0000 60000 T00890039 53004=
200603280756 METAR KSEA 280756Z 01009KT 10SM BKN120 OVC200 09/03 A2960 RMK AO2 SLP029 T00890033 401670039=
200603280656 METAR KSEA 280656Z 03010KT 10SM SCT120 OVC200 09/03 A2960 RMK AO2 SLP029 T00890033=
200603280556 METAR KSEA 280556Z 36010KT 10SM FEW120 OVC200 09/03 A2960 RMK AO2 SLP031 T00890033 10156 20089 56017=
200603280456 METAR KSEA 280456Z 01010KT 10SM FEW120 OVC200 09/03 A2962 RMK AO2 SLP036 T00940033=
200603280356 METAR KSEA 280356Z 03009KT 10SM SCT120 OVC200 10/03 A2963 RMK AO2 SLP042 T01000028=
200603280256 METAR KSEA 280256Z 02007KT 10SM SCT150 BKN250 11/02 A2965 RMK AO2 SLP049 T01060022 56012=
200603280156 METAR KSEA 280156Z 36010KT 10SM SCT150 BKN250 12/03 A2966 RMK AO2 SLP051 ACSL DSNT SE T01170028=
200603280056 METAR KSEA 280056Z 36011KT 10SM FEW150 BKN250 14/03 A2967 RMK AO2 SLP054 T01390028=
200603272356 METAR KSEA 272356Z 35011KT 10SM FEW150 BKN250 16/02 A2969 RMK AO2 SLP061 T01560022 10167 20100 56027=
200603272256 METAR KSEA 272256Z 36011KT 10SM FEW150 BKN250 16/01 A2971 RMK AO2 SLP069 ACSL DSNT SE T01610011=
200603272156 METAR KSEA 272156Z 01010KT 10SM OVC250 16/01 A2974 RMK AO2 SLP079 T01610006=
200603272056 METAR KSEA 272056Z 07006KT 10SM OVC250 16/00 A2977 RMK AO2 SLP088 T01560000 58029=
200603271956 METAR KSEA 271956Z 01008KT 10SM OVC250 14/01 A2980 RMK AO2 SLP100 T01390006=
200603271856 METAR KSEA 271856Z 01010KT 10SM FEW150 OVC250 12/02 A2984 RMK AO2 SLP113 T01170017=
200603271756 METAR KSEA 271756Z 35010KT 10SM FEW150 BKN200 10/02 A2986 RMK AO2 SLP118 T01000022 10100 20039 56017=
200603271656 METAR KSEA 271656Z 02012KT 10SM SCT150 BKN200 08/02 A2987 RMK AO2 SLP124 T00780017=
200603271556 METAR KSEA 271556Z 01008KT 10SM BKN150 OVC200 06/01 A2988 RMK AO2 SLP127 T00610011=
200603271456 METAR KSEA 271456Z 01009KT 10SM OVC150 04/01 A2991 RMK AO2 SLP136 T00440011 56017=
200603271356 METAR KSEA 271356Z 02009KT 10SM FEW120 OVC140 04/01 A2992 RMK AO2 SLP140 T00390011=
200603271256 METAR KSEA 271256Z 02008KT 10SM SCT120 OVC140 04/02 A2993 RMK AO2 SLP144 T00440017=
200603271156 METAR KSEA 271156Z 01009KT 10SM OVC150 04/01 A2996 RMK AO2 SLP153 70004 T00440011 10061 20039 56036=
200603271056 METAR KSEA 271056Z 02008KT 10SM OVC140 04/02 A2999 RMK AO2 SLP162 T00390017=
200603270956 METAR KSEA 270956Z 03008KT 10SM OVC140 05/02 A3003=
200603270856 METAR KSEA 270856Z 04007KT 10SM OVC130 05/03 A3006 RMK AO2 SLP189 T00500028 58022=
200603270756 METAR KSEA 270756Z 07005KT 10SM BKN110 05/03 A3009 RMK AO2 SLP199 T00500028 400940039=
200603270656 METAR KSEA 270656Z 12005KT 10SM FEW100 SCT180 06/03 A3012 RMK AO2 SLP208 T00560033=
200603270556 METAR KSEA 270556Z 13007KT 10SM FEW110 SCT130 06/03 A3013 RMK AO2 SLP212 60000 T00610033 10083 20056 58009=
200603270456 METAR KSEA 270456Z 14007KT 10SM FEW060 BKN110 OVC130 06/03 A3015 RMK AO2 SLP218 T00610033=
200603270356 METAR KSEA 270356Z 19005KT 10SM SCT050 BKN070 OVC130 07/04 A3015 RMK AO2 SLP220 T00670044=
200603270256 METAR KSEA 270256Z 21006KT 10SM SCT055 BKN070 OVC130 07/04 A3016 RMK AO2 SLP221 60000 T00670039 56007=
200603270156 METAR KSEA 270156Z 22005KT 10SM FEW040 SCT050 OVC130 07/04 A3016 RMK AO2 SLP223 T00720039=
200603270056 METAR KSEA 270056Z 22009KT 10SM SCT037 BKN049 BKN065 BKN130 08/03 A3017 RMK AO2 RAB2359E33 SLP225 P0000 T00780028=
200603262356 METAR KSEA 262356Z 22011KT 10SM FEW032 BKN049 OVC220 08/03 A3018 RMK AO2 SLP228 60004 T00830028 10094 20061 56006=
200603262256 METAR KSEA 262256Z 24010KT 10SM SCT032 BKN250 09/03 A3019 RMK AO2 SLP231 T00940033=
200603262156 METAR KSEA 262156Z 23012KT 10SM FEW017 SCT032 SCT065 BKN250 09/04 A3019 RMK AO2 SLP232 T00890044=
200603262056 METAR KSEA 262056Z 21011KT 7SM FEW016 BKN031 BKN065 07/04 A3020 RMK AO2 RAE50 SLP234 VCSH S P0002 60004 T00720044 50001=
200603262046 SPECI KSEA 262046Z 22012KT 7SM -RA FEW016 BKN031 BKN065 07/05 A3020=
200603262046 SPECI KSEA 262046Z 22012KT 7SM -RA FEW016 BKN031 BKN065 07/05 A3020 RMK AO2 P0002=
200603262020 SPECI KSEA 262020Z 24009KT 7SM -RA FEW016 BKN027 OVC080 07/04 A3021 RMK AO2 P0001=
200603262020 SPECI KSEA 262020Z 24009KT 7SM -RA FEW016 BKN027 OVC080 07/04 A3021 RMK AO2 P0001=
200603261956 METAR KSEA 261956Z 22007KT 7SM -RA FEW021 BKN033 OVC120 07/04 A3020 RMK AO2 SLP235 P0001 T00720039=
200603261856 METAR KSEA 261856Z 22014G19KT 7SM -RA SCT020 BKN033 OVC200 07/03 A3020 RMK AO2 RAB03E17B52 SLP234 P0001 T00670028=
200603261756 METAR KSEA 261756Z 20010KT 10SM SCT019 BKN032 OVC200 07/03 A3020 RMK AO2 RAB11E41 SLP234 P0000 60000 T00720028 10072 20044 51011=
200603261751 SPECI KSEA 261751Z 21011G18KT 10SM SCT019 BKN032 OVC200 07/03 A3019 RMK AO2 RAB11E41 P0000=
200603261751 SPECI KSEA 261751Z 21011G18KT 10SM SCT019 BKN032 OVC200 07/03 A3019 RMK AO2 RAB11E41 P0000=
200603261656 METAR KSEA 261656Z 20011KT 10SM BKN019 BKN027 BKN200 06/02 A3018 RMK AO2 RAB17E30 SLP229 BINOVC W P0000 T00610017=
200603261556 METAR KSEA 261556Z 20013KT 10SM BKN018 BKN025 OVC200 05/01 A3016 RMK AO2 SLP222 BINOVC W T00500011=
200603261456 METAR KSEA 261456Z 20012KT 10SM FEW016 BKN025 BKN030 BKN200 04/01 A3014 RMK AO2 SLP214 T00440011 51020=
200603261356 METAR KSEA 261356Z 19013KT 10SM BKN021 OVC031 04/01 A3012 RMK AO2 SLP208 T00440011=
200603261256 METAR KSEA 261256Z 21011KT 10SM BKN021 BKN037 04/01 A3010 RMK AO2 SLP201 T00440011=
200603261156 METAR KSEA 261156Z 20011KT 10SM BKN021 BKN065 04/01 A3008 RMK AO2 SLP194 T00440011 10056 20039 51025=
200603261056 METAR KSEA 261056Z 21011G18KT 10SM BKN025 BKN033 BKN065 04/01 A3006 RMK AO2 SLP187 T00440011=
200603260956 METAR KSEA 260956Z 20008G16KT 10SM SCT025 BKN060 BKN100 04/01 A3004=
200603260856 METAR KSEA 260856Z 18008KT 10SM FEW026 SCT039 SCT100 04/00 A3001=
200603260756 METAR KSEA 260756Z 19010KT 10SM SCT035 BKN042 BKN080 04/M01 A2998 RMK AO2 SLP159 T00441006 401170022=
200603260656 METAR KSEA 260656Z 21011KT 10SM BKN065 05/01 A2995 RMK AO2 SLP150 T00500006=
200603260556 METAR KSEA 260556Z 22011KT 10SM BKN043 BKN060 BKN100 06/01 A2993 RMK AO2 SLP142 60000 T00560006 10106 20056 53040=
200603260456 METAR KSEA 260456Z 23007KT 10SM BKN060 BKN080 06/01 A2989 RMK AO2 SLP130 T00610006=
200603260356 METAR KSEA 260356Z 00000KT 10SM BKN050 07/00 A2984 RMK AO2 SLP112 T00670000=
200603260256 METAR KSEA 260256Z 36007KT 10SM SCT055 BKN075 08/M01 A2981 RMK AO2 RAB29E41 SLP102 P0000 60000 T00781006 53019=
200603260156 METAR KSEA 260156Z 35008KT 10SM FEW075 BKN090 09/M03 A2978 RMK AO2 SLP094 T00891033=
200603260056 METAR KSEA 260056Z 36007KT 10SM FEW035 SCT060 BKN200 11/M03 A2977 RMK AO2 SLP087 T01061028=
200603252356 METAR KSEA 252356Z 35009KT 10SM SCT035 SCT060 BKN200 10/M01 A2975 RMK AO2 SLP082 T01001006 10117 20067 53016=
200603252256 METAR KSEA 252256Z 02010KT 10SM SCT030 SCT080 BKN200 11/M01 A2973 RMK AO2 SLP075 T01111006=
200603252156 METAR KSEA 252156Z 36009KT 10SM FEW025 BKN200 11/01 A2971 RMK AO2 SLP070 T01110006=
200603252056 METAR KSEA 252056Z 35008KT 10SM FEW022 BKN200 11/02 A2970 RMK AO2 SLP066 T01060017 55002=
200603251956 METAR KSEA 251956Z 36011G16KT 10SM FEW015 SCT022 BKN200 09/03 A2970 RMK AO2 SLP064 T00940028=
200603251856 METAR KSEA 251856Z 36008KT 10SM FEW008 SCT018 BKN200 08/03 A2971 RMK AO2 SLP068 T00830033=
200603251852 SPECI KSEA 251852Z 36011KT 10SM FEW008 SCT018 BKN200 09/03 A2971 RMK AO2=
200603251852 SPECI KSEA 251852Z 36011KT 10SM FEW008 SCT018 BKN200 09/03 A2971 RMK AO2=
200603251756 METAR KSEA 251756Z 35010KT 10SM FEW008 BKN015 BKN200 07/03 A2971 RMK AO2 SLP068 T00720033 10078 20022 56010=
200603251749 SPECI KSEA 251749Z 35011KT 10SM FEW008 BKN015 BKN200 07/03 A2971 RMK AO2=
200603251749 SPECI KSEA 251749Z 35011KT 10SM FEW008 BKN015 BKN200 07/03 A2971 RMK AO2=
200603251723 SPECI KSEA 251723Z 03009KT 10SM FEW007 BKN013 BKN200 07/04 A2971 RMK AO2=
200603251723 SPECI KSEA 251723Z 03009KT 10SM FEW007 BKN013 BKN200 07/04 A2971 RMK AO2=
200603251706 SPECI KSEA 251706Z 02008KT 10SM FEW006 SCT012 BKN200 07/04 A2971 RMK AO2=
200603251706 SPECI KSEA 251706Z 02008KT 10SM FEW006 SCT012 BKN200 07/04 A2971 RMK AO2=
200603251656 METAR KSEA 251656Z 04010KT 10SM FEW006 BKN011 BKN200 07/04 A2971 RMK AO2 SLP069 T00670039=
200603251611 SPECI KSEA 251611Z 02010KT 10SM SCT005 BKN200 04/03 A2972 RMK AO2=
200603251611 SPECI KSEA 251611Z 02010KT 10SM SCT005 BKN200 04/03 A2972 RMK AO2=
200603251605 SPECI KSEA 251605Z 02012KT 10SM BKN005 BKN200 04/03 A2973 RMK AO2=
200603251605 SPECI KSEA 251605Z 02012KT 10SM BKN005 BKN200 04/03 A2973 RMK AO2=
200603251556 METAR KSEA 251556Z 03013KT 10SM BKN004 BKN010 04/03 A2972 RMK AO2 SLP073 T00440028=
200603251550 SPECI KSEA 251550Z 03012KT 10SM SCT004 BKN010 04/03 A2973 RMK AO2=
200603251550 SPECI KSEA 251550Z 03012KT 10SM SCT004 BKN010 04/03 A2973 RMK AO2=
200603251517 SPECI KSEA 251517Z 02013KT 8SM BKN004 OVC010 04/03 A2974 RMK AO2=
200603251517 SPECI KSEA 251517Z 02013KT 8SM BKN004 OVC010 04/03 A2974 RMK AO2=
200603251505 SPECI KSEA 251505Z 02008KT 9SM BKN006 BKN180 03/02 A2974 RMK AO2=
200603251505 SPECI KSEA 251505Z 02008KT 9SM BKN006 BKN180 03/02 A2974 RMK AO2=
200603251456 METAR KSEA 251456Z 01007KT 9SM FEW011 SCT180 03/02 A2974 RMK AO2 SLP080 T00330022 56016=
200603251356 METAR KSEA 251356Z 36007KT 10SM FEW011 SCT180 03/02 A2975 RMK AO2 SLP083 T00280017=
200603251256 METAR KSEA 251256Z 36005KT 10SM FEW180 03/02 A2977 RMK AO2 SLP088 T00280017=
200603251156 METAR KSEA 251156Z 36006KT 10SM SCT180 02/01 A2979 RMK AO2 SLP095 60001 70038 T00220011 10061 20022 58023=
200603251056 METAR KSEA 251056Z 00000KT 10SM FEW130 03/01 A2982 RMK AO2 SLP104 T00280011=
200603250956 METAR KSEA 250956Z 03004KT 10SM FEW080 SCT120 04/02 A2984 RMK AO2 SLP111 T00390022=
200603250856 METAR KSEA 250856Z 00000KT 10SM FEW080 04/03 A2986 RMK AO2 RAE0757 SLP118 60001 T00390028 58017=
200603250756 METAR KSEA 250756Z 16003KT 10SM -RA SCT030 BKN039 OVC048 06/03 A2988 RMK AO2 RAB05 SLP128 P0001 T00560033 401170056=
200603250656 METAR KSEA 250656Z 16007KT 10SM OVC049 06/03 A2990 RMK AO2 SLP134 T00560033=
200603250556 METAR KSEA 250556Z 15007KT 10SM SCT045 BKN055 BKN100 OVC200 06/03 A2991 RMK AO2 SLP135 60015 T00610033 10100 20056 55004=
200603250456 METAR KSEA 250456Z 00000KT 10SM SCT060 BKN085 OVC200 06/03 A2990 RMK AO2 RAE39 SLP133 P0004 T00560033=
200603250453 SPECI KSEA 250453Z 00000KT 10SM FEW029 BKN047 BKN060 OVC200 06/03 A2990 RMK AO2 RAE39 P0004=
200603250453 SPECI KSEA 250453Z 00000KT 10SM FEW029 BKN047 BKN060 OVC200 06/03 A2990 RMK AO2 RAE39 P0004=
200603250431 SPECI KSEA 250431Z 24004KT 10SM -RA BKN029 OVC045 06/03 A2991=
200603250431 SPECI KSEA 250431Z 24004KT 10SM -RA BKN029 OVC045 06/03 A2991 RMK AO2 P0004=
200603250356 METAR KSEA 250356Z 18008KT 10SM -RA BKN046 OVC090 07/03 A2992 RMK AO2 RAE24B56 SLP140 P0000 T00670033=
200603250312 SPECI KSEA 250312Z 25007KT 10SM -RA FEW028 BKN040 OVC050 07/03 A2992=
200603250312 SPECI KSEA 250312Z 25007KT 10SM -RA FEW028 BKN040 OVC050 07/03 A2992 RMK AO2 P0000=
200603250256 METAR KSEA 250256Z 14003KT 7SM -RA BKN026 BKN038 OVC090 07/03 A2993 RMK AO2 GRB0159E10 SLP142 P0008 60011 T00670033 50001 $=
200603250253 SPECI KSEA 250253Z 00000KT 5SM -RA BKN026 BKN038 BKN090 OVC200 07/04 A2993 RMK AO2 GRB0159E10 P0008 $=
200603250253 SPECI KSEA 250253Z 00000KT 5SM -RA BKN026 BKN038 BKN090 OVC200 07/04 A2993 RMK AO2 GRB0159E10 P0008 $=
200603250210 SPECI KSEA 250210Z 14008KT 100V200 10SM -RA SCT030CB BKN045 BKN200 07/02 A2993=
200603250210 SPECI KSEA 250210Z 14008KT 100V200 10SM -RA SCT030CB BKN045 BKN200 07/02 A2993 RMK AO2 GRB0159E10 CB OHD MOV NE P0003=
200603250159 SPECI KSEA 250159Z 15014KT 10SM -GRRA SCT030CB BKN045 BKN200 07/03 A2993 RMK AO2 GRB59 CB OHD MOV NE P0000=
200603250159 SPECI KSEA 250159Z 15014KT 10SM -GRRA SCT030CB BKN045 BKN200 07/03 A2993 RMK AO2 GRB59 CB OHD MOV NE P0000=
200603250156 METAR KSEA 250156Z 15014KT 10SM -RA FEW030CB SCT040 SCT090 BKN200 08/03 A2993 RMK AO2 RAB14E26B46 SLP142 CB OHD MOV NE CB DSNT E P0003 T00780028=
200603250056 METAR KSEA 250056Z 18007KT 10SM FEW025CB SCT050 SCT090 BKN200 10/04 A2992 RMK AO2 RAE03 SLP140 CB NE MOV NE CB DSNT SE P0000 T01000044=
200603242356 METAR KSEA 242356Z 18006KT 5SM -RA FEW024CB SCT039 BKN050 BKN200 09/04 A2994 RMK AO2 RAE2257B38 SLP145 CB OHD MOV NE CB DSNT W P0007 60012 T00940039 10117 20078 50004=
200603242256 METAR KSEA 242256Z 17014KT 10SM -RA SCT040 SCT050 BKN150 09/06 A2994 RMK AO2 RAB00 SLP146 P0002 T00940056=
200603242156 METAR KSEA 242156Z 21011G17KT 10SM SCT035 SCT060 BKN200 10/03 A2993 RMK AO2 RAB42E51 SLP144 CB DSNT NE-E MOV NE P0000 T01000028=
200603242056 METAR KSEA 242056Z 21015G21KT 10SM FEW030TCU SCT050 SCT100 BKN150 11/04 A2993 RMK AO2 RAE21 SLP141 TCU N MOV NE SH DSNT S P0001 60003 T01110044 50008=
200603241956 METAR KSEA 241956Z 20013G19KT 8SM -RA FEW017 SCT030 BKN043 BKN130 BKN150 08/04 A2993 RMK AO2 PK WND 22026/1915 SLP143 CB DSNT ALQDS P0002 T00830044=
200603241856 METAR KSEA 241856Z 21012KT 10SM -RA FEW030TCU SCT040 BKN100 09/04 A2992 RMK AO2 PK WND 17030/1807 RAB45 SLP139 TCU NE-S MOV NE CB DSNT N P0000 T00940039=
200603241756 METAR KSEA 241756Z 17016G24KT 10SM SCT025 SCT035 BKN070 BKN130 11/03 A2990 RMK AO2 SLP133 CB DSNT NE-NW MOV NE 60010 T01060028 10111 20078 50018=
200603241656 METAR KSEA 241656Z 19011KT 10SM FEW025 SCT035 BKN100 08/04 A2990 RMK AO2 SLP133 T00830044=
200603241556 METAR KSEA 241556Z 22011KT 10SM FEW020 SCT060 BKN080 09/06 A2988 RMK AO2 SLP123 T00890056=
200603241456 METAR KSEA 241456Z 19013KT 10SM FEW035 SCT080 SCT200 09/05 A2985 RMK AO2 SLP114 60010 T00890050 51006=
200603241356 METAR KSEA 241356Z 16007KT 10SM SCT036 BKN045 BKN080 08/06 A2985 RMK AO2 RAE25 SLP113 P0001 T00780061=
200603241256 METAR KSEA 241256Z 18010KT 7SM -RA FEW020 BKN036 OVC045 08/06 A2985 RMK AO2 SLP114 P0009 T00830061=
200603241156 METAR KSEA 241156Z 18005KT 6SM RA BR FEW022 BKN041 OVC055 08/07 A2983 RMK AO2 SLP107 P0009 60011 70011 T00780067 10106 20078 55005=
200603241056 METAR KSEA 241056Z 00000KT 8SM -RA FEW022 BKN041 OVC090 08/07 A2982 RMK AO2 RAB16 SLP105 P0002 T00830067=
200603240956 METAR KSEA 240956Z 00000KT 10SM SCT065 BKN090 OVC200 09/06 A2983 RMK AO2 SLP107 T00890056=
200603240856 METAR KSEA 240856Z 00000KT 10SM BKN090 OVC200 09/06 A2984 RMK AO2 SLPNO T00890056 58008=
200603240756 METAR KSEA 240756Z 18004KT 10SM OVC090 09/06 A2986 RMK AO2 SLPNO T00890056 401780072=
200603240656 METAR KSEA 240656Z 24004KT 10SM OVC090 10/05 A2986 RMK AO2 SLP117 T01000050=
200603240556 METAR KSEA 240556Z 25007KT 10SM OVC085 11/05 A2987 RMK AO2 SLP120 60000 T01060050 10161 20106 53002=
200603240456 METAR KSEA 240456Z 27010G20KT 10SM OVC110 11/04 A2987 RMK AO2 SLP121 T01110044=
200603240356 METAR KSEA 240356Z 12010KT 10SM FEW075 OVC110 15/00 A2982 RMK AO2 SLP105 T01500000=
200603240256 METAR KSEA 240256Z VRB04KT 10SM BKN075 OVC090 15/00 A2986 RMK AO2 SLP118 60000 T01500000 58005=
200603240156 METAR KSEA 240156Z 18006KT 10SM BKN075 OVC130 16/00 A2989 RMK AO2 RAB15E24 SLP127 P0000 T01560000=
200603240056 METAR KSEA 240056Z 15006KT 10SM SCT070 BKN080 OVC130 14/03 A2990 RMK AO2 SLP133 T01440028=
200603232356 METAR KSEA 232356Z 12009KT 10SM FEW120 OVC200 16/01 A2988 RMK AO2 SLP123 T01610006=
200603232256 METAR KSEA 232256Z 11009KT 10SM FEW110 BKN130 OVC150 16/01 A2989 RMK AO2 SLP126 T01610011=
200603232156 METAR KSEA 232156Z 12008KT 10SM SCT110 BKN130 OVC150 17/01 A2991 RMK AO2 SLP135 SH DSNT NW T01670006=
200603232056 METAR KSEA 232056Z 11010KT 10SM SCT110 BKN130 OVC150 18/03 A2992 RMK AO2 SLP137 SH DSNT SW T01790031 56019 $=
200603231956 METAR KSEA 231956Z 13010KT 10SM FEW110 SCT130 OVC150 18/02 A2993 RMK AO2 SLP142 T01770018 $=
200603231856 METAR KSEA 231856Z 13012KT 10SM FEW110 BKN150 OVC200 17/03 A2995 RMK AO2 SLP147 T01670033 $=
200603231756 METAR KSEA 231756Z 10010KT 10SM FEW100 SCT150 OVC200 16/06 A2997 RMK AO2 SLP156 T01560061 10156 20072 58024=
200603231656 METAR KSEA 231656Z 10007KT 10SM FEW100 SCT150 OVC200 12/06 A3001 RMK AO2 SLP169 T01220056=
200603231556 METAR KSEA 231556Z 06007KT 10SM FEW095 BKN150 OVC200 09/07 A3003 RMK AO2 SLP177 T00890072=
200603231456 METAR KSEA 231456Z 05007KT 10SM FEW060 SCT110 BKN180 08/07 A3005 RMK AO2 SLP182 T00830067 56007=
200603231356 METAR KSEA 231356Z 31004KT 10SM FEW045 SCT060 BKN080 OVC130 07/07 A3006 RMK AO2 SLP185 T00720072=
200603231256 METAR KSEA 231256Z 00000KT 10SM BKN070 OVC130 08/07 A3005 RMK AO2 SLP182 T00780072=
200603231156 METAR KSEA 231156Z 00000KT 10SM FEW050 BKN065 OVC100 08/07 A3007 RMK AO2 RAE29 SLP190 P0000 60001 70005 T00780072 10100 20072 58009=
200603231056 METAR KSEA 231056Z 08005KT 10SM -RA BKN048 BKN060 OVC130 08/08 A3009 RMK AO2 RAB17 SLP198 P0001 T00780078=
200603230956 METAR KSEA 230956Z 26004KT 10SM BKN070 OVC130 08/07 A3010 RMK AO2 SLP201 T00830067=
200603230856 METAR KSEA 230856Z 00000KT 10SM BKN070 OVC130 08/07 A3010 RMK AO2 SLP198 T00780067 56012=
200603230756 METAR KSEA 230756Z 16003KT 10SM BKN070 OVC130 08/07 A3011 RMK AO2 SLP203 T00830067 401220072=
200603230656 METAR KSEA 230656Z 09006KT 10SM BKN060 OVC080 09/06 A3011 RMK AO2 SLP204 T00940061=
200603230556 METAR KSEA 230556Z 12004KT 10SM BKN060 OVC120 09/07 A3013 RMK AO2 SLP210 60003 T00890067 10117 20089 55006=
200603230456 METAR KSEA 230456Z 09008KT 10SM BKN060 OVC080 09/07 A3013 RMK AO2 SLP209 T00940067=
200603230356 METAR KSEA 230356Z 12005KT 10SM FEW050 BKN070 OVC090 09/07 A3014 RMK AO2 RAE43 SLP213 P0000 T00940067=
200603230256 METAR KSEA 230256Z 14007KT 10SM -RA FEW037 BKN050 OVC120 09/07 A3015 RMK AO2 SLP217 P0001 60003 T00890072 51007=
200603230156 METAR KSEA 230156Z 13008KT 6SM -RA BR BKN037 OVC048 09/08 A3015 RMK AO2 SLP216 P0002 T00940078=
200603230056 METAR KSEA 230056Z 24006KT 10SM -RA BKN035 OVC048 10/07 A3014 RMK AO2 SLP213 P0000 T01000067=
200603222356 METAR KSEA 222356Z 22006KT 10SM -RA BKN048 OVC070 12/06 A3013 RMK AO2 RAE07B30 SLP209 P0000 60001 T01170056 10122 20106 53001=
200603222256 METAR KSEA 222256Z 12005KT 10SM -RA FEW040 BKN050 OVC070 12/06 A3012 RMK AO2 RAB43 SLP207 P0000 T01170056=
200603222156 METAR KSEA 222156Z VRB03KT 10SM SCT040 BKN055 OVC070 12/06 A3011 RMK AO2 RAB2057E08 SLP204 P0000 T01170061=
200603222056 METAR KSEA 222056Z 20010G14KT 10SM SCT040 BKN050 OVC070 12/04 A3012 RMK AO2 RAE16 SLP207 P0000 60001 T01170044 51009=
200603221956 METAR KSEA 221956Z 19011KT 10SM -RA FEW040 BKN046 OVC055 11/04 A3012 RMK AO2 SLP206 P0001 T01110044=
200603221856 METAR KSEA 221856Z 18014KT 10SM -RA FEW035 BKN045 OVC060 11/04 A3011 RMK AO2 RAB34 SLP203 P0000 T01060039=
200603221756 METAR KSEA 221756Z 18012KT 10SM SCT047 BKN060 OVC120 11/04 A3009 RMK AO2 RAB12E23 SLP198 P0000 60000 T01060039 10106 20078 51017=
200603221656 METAR KSEA 221656Z 18009KT 10SM OVC055 10/04 A3007 RMK AO2 SLP191 T01000044=
200603221556 METAR KSEA 221556Z 17007KT 10SM BKN049 BKN100 OVC130 09/04 A3006 RMK AO2 RAB06E41 SLP186 P0000 T00890044=
200603221456 METAR KSEA 221456Z 18012KT 10SM BKN048 BKN060 OVC080 09/03 A3004 RMK AO2 SLP180 60000 T00940033 53019=
200603221356 METAR KSEA 221356Z 17013KT 10SM SCT047 BKN075 OVC150 09/03 A3002 RMK AO2 SLP173 T00890033=
200603221256 METAR KSEA 221256Z 18010KT 10SM FEW038 SCT047 OVC110 09/03 A3000 RMK AO2 RAB20E33 SLP166 P0000 T00890033=
200603221156 METAR KSEA 221156Z 16010KT 10SM FEW044 BKN090 OVC110 08/04 A2998 RMK AO2 SLP160 60001 70004 T00780039 10089 20072 51012=
200603221056 METAR KSEA 221056Z 18011KT 10SM SCT050 BKN080 OVC150 08/04 A2997 RMK AO2 SLP157 T00830039=
200603220956 METAR KSEA 220956Z 17008KT 10SM BKN043 BKN055 OVC080 08/04 A2996 RMK AO2 RAB29E41 SLP152 P0000 T00830039=
200603220856 METAR KSEA 220856Z 16009KT 10SM FEW049 BKN060 BKN070 OVC150 08/05 A2995 RMK AO2 RAB01E12 SLP148 P0000 60001 T00780050 52003=
200603220756 METAR KSEA 220756Z 14009KT 10SM OVC050 08/05 A2995 RMK AO2 RAE03 SLP148 P0000 T00780050 401060056=
200603220656 METAR KSEA 220656Z 13009KT 10SM -RA BKN041 OVC055 08/05 A2994 RMK AO2 SLP147 P0001 T00780050=
200603220556 METAR KSEA 220556Z 15008KT 10SM -RA OVC037 07/06 A2994 RMK AO2 RAE02B26 SLP147 P0000 60002 T00720061 10094 20072 53016=
200603220456 METAR KSEA 220456Z 18007KT 10SM -RA FEW039 BKN050 OVC070 07/06 A2993 RMK AO2 RAB22 SLP143 P0000 T00720061=
200603220356 METAR KSEA 220356Z 20009KT 10SM BKN035 BKN070 OVC120 08/06 A2990 RMK AO2 RAB0257E08 SLP134 P0000 T00780056=
200603220256 METAR KSEA 220256Z 20008KT 10SM SCT033 BKN044 BKN100 OVC200 07/06 A2989 RMK AO2 RAE55 SLP131 BINOVC W P0002 60002 T00720056 53015=
200603220156 METAR KSEA 220156Z 23015G18KT 10SM -RA BKN036 OVC080 08/06 A2988 RMK AO2 RAB02 SLP126 P0000 T00830056=
200603220056 METAR KSEA 220056Z 22009KT 10SM BKN041 OVC090 09/05 A2985 RMK AO2 SLP118 T00940050=
200603212356 METAR KSEA 212356Z 24006KT 10SM FEW038 SCT090 BKN130 BKN200 09/07 A2985 RMK AO2 RAE04B26E40 SLP116 P0000 60001 T00940067 10106 20072 53008=
200603212256 METAR KSEA 212256Z 27005KT 10SM -RA FEW021 BKN038 BKN047 OVC130 08/07 A2984 RMK AO2 RAB21 SLP114 P0000 T00830072=
200603212156 METAR KSEA 212156Z 20005KT 10SM FEW030 SCT060 BKN080 OVC130 10/05 A2982 RMK AO2 SLP106 T01000050=
200603212056 METAR KSEA 212056Z 19008KT 10SM SCT024 BKN060 BKN090 09/05 A2983 RMK AO2 SLP107 60001 T00940050 50004=
200603212015 SPECI KSEA 212015Z 19008KT 10SM SCT023 BKN031 BKN041 08/06 A2983 RMK AO2=
200603212015 SPECI KSEA 212015Z 19008KT 10SM SCT023 BKN031 BKN041 08/06 A2983 RMK AO2=
200603211956 METAR KSEA 211956Z 20009KT 10SM FEW025 BKN029 OVC035 08/06 A2983 RMK AO2 RAB23E47 SLP108 P0001 T00830056=
200603211914 SPECI KSEA 211914Z 19008KT 10SM FEW020 BKN029 OVC038 08/06 A2982 RMK AO2=
200603211914 SPECI KSEA 211914Z 19008KT 10SM FEW020 BKN029 OVC038 08/06 A2982 RMK AO2=
200603211856 METAR KSEA 211856Z 19007KT 10SM FEW020 SCT030 OVC040 07/06 A2982 RMK AO2 RAB04E50 SLP105 P0000 T00720056=
200603211756 METAR KSEA 211756Z 22009KT 10SM FEW015 SCT025 BKN034 OVC130 07/06 A2981 RMK AO2 RAE53 SLP102 P0000 60000 T00720056 10072 20056 53015=
200603211656 METAR KSEA 211656Z 21012KT 10SM -RA FEW015 SCT030 BKN095 OVC130 06/06 A2980 RMK AO2 RAB40 SLP098 P0000 T00610056=
200603211556 METAR KSEA 211556Z 20009KT 10SM FEW020 BKN060 BKN085 OVC130 06/04 A2978 RMK AO2 RAB47E56 SLP091 P0000 T00610039=
200603211456 METAR KSEA 211456Z 17005KT 10SM FEW080 BKN100 BKN180 06/04 A2977 RMK AO2 SLP087 T00560039 53014=
200603211356 METAR KSEA 211356Z 17006KT 10SM FEW050 SCT080 BKN110 OVC180 06/04 A2975 RMK AO2 SLP082 T00560039=
200603211256 METAR KSEA 211256Z 20009KT 10SM FEW120 06/04 A2974 RMK AO2 SLP077 T00560039=
200603211156 METAR KSEA 211156Z 21009KT 10SM BKN065 OVC120 06/04 A2973 RMK AO2 SLP073 T00610039 10089 20061 52005=
200603211056 METAR KSEA 211056Z 21005KT 10SM FEW080 OVC110 07/05 A2972 RMK AO2 SLP071 T00670050=
200603210956 METAR KSEA 210956Z 18005KT 10SM OVC100 07/04 A2972 RMK AO2 SLP070 T00720039=
200603210856 METAR KSEA 210856Z 00000KT 10SM SCT080 BKN110 OVC180 07/04 A2971 RMK AO2 SLP068 T00720044 50001=
200603210756 METAR KSEA 210756Z 24005KT 10SM FEW080 BKN110 OVC180 07/04 A2971 RMK AO2 SLP069 T00720044 401500017=
200603210656 METAR KSEA 210656Z 36003KT 10SM OVC090 08/03 A2971 RMK AO2 SLP067 T00830033=
200603210556 METAR KSEA 210556Z 36006KT 10SM FEW090 OVC110 09/04 A2971 RMK AO2 SLP067 T00890039 10144 20089 53009=
200603210456 METAR KSEA 210456Z 36006KT 10SM OVC100 09/04 A2970 RMK AO2 SLP064 T00940044=
200603210356 METAR KSEA 210356Z 01006KT 10SM OVC095 11/03 A2969 RMK AO2 SLP060 T01060033=
200603210256 METAR KSEA 210256Z 01007KT 10SM FEW070 BKN100 11/03 A2968 RMK AO2 SLP059 T01110028 53003=
200603210156 METAR KSEA 210156Z COR 36007KT 10SM SCT075 BKN095 12/03 A2968 RMK AO2 SLP057 T01170033=
200603210056 METAR KSEA 210056Z 35008KT 10SM FEW060 BKN090 14/02 A2967 RMK AO2 SLP054 T01390022=
200603202356 METAR KSEA 202356Z 01008KT 10SM FEW060 BKN090 14/01 A2967 RMK AO2 SLP055 T01390006 10150 20083 56009=
200603202256 METAR KSEA 202256Z 32005KT 10SM FEW060 SCT090 14/02 A2967 RMK AO2 SLP055 T01390022=
200603202156 METAR KSEA 202156Z 34008KT 10SM FEW060 SCT090 14/04 A2969 RMK AO2 SLP059 T01390044=
200603202056 METAR KSEA 202056Z 31008KT 10SM FEW060 12/05 A2970 RMK AO2 SLP064 T01220050 58013=
200603201956 METAR KSEA 201956Z VRB04KT 10SM FEW050 12/05 A2971 RMK AO2 SLP069 T01170050=
200603201856 METAR KSEA 201856Z 36004KT 10SM FEW050 10/04 A2973 RMK AO2 SLP075 T01000039=
200603201756 METAR KSEA 201756Z 02005KT 10SM FEW050 08/02 A2974 RMK AO2 SLP078 T00830022 10089 20017 58001=
200603201656 METAR KSEA 201656Z 01007KT 10SM FEW040 07/02 A2974 RMK AO2 SLP079 T00670017=
200603201556 METAR KSEA 201556Z 02009KT 10SM FEW030 SCT090 04/02 A2974 RMK AO2 SLP079 T00440017=
200603201456 METAR KSEA 201456Z 01005KT 10SM CLR 02/02 A2974 RMK AO2 SLP080 T00220017 55006=
200603201356 METAR KSEA 201356Z 00000KT 10SM CLR 02/01 A2974 RMK AO2 SLP079 T00170011=
200603201256 METAR KSEA 201256Z 03007KT 10SM CLR 02/02 A2975 RMK AO2 SLP081 T00220017=
200603201156 METAR KSEA 201156Z 01005KT 10SM CLR 02/01 A2976 RMK AO2 SLP085 T00220011 10072 20017 56015=
200603201056 METAR KSEA 201056Z 03008KT 10SM FEW200 03/01 A2977 RMK AO2 SLP089 T00280011=
200603200956 METAR KSEA 200956Z 06004KT 10SM FEW200 04/01 A2979 RMK AO2 SLP094 T00390006=
200603200856 METAR KSEA 200856Z 35004KT 10SM CLR 04/01 A2980 RMK AO2 SLP100 T00390006 56019=
200603200756 METAR KSEA 200756Z 01004KT 10SM CLR 05/00 A2982 RMK AO2 SLP107 T00500000 401170006=
200603200656 METAR KSEA 200656Z 00000KT 10SM CLR 05/00 A2984 RMK AO2 SLP112 T00500000=
200603200556 METAR KSEA 200556Z 04010KT 10SM CLR 07/M01 A2986 RMK AO2 SLP120 T00721011 10111 20067 58014=
200603200456 METAR KSEA 200456Z 04006KT 10SM FEW080 07/M01 A2988 RMK AO2 SLP127 T00721011=
200603200356 METAR KSEA 200356Z 03004KT 10SM CLR 08/M02 A2989 RMK AO2 SLP130 T00781022=
200603200256 METAR KSEA 200256Z 35003KT 10SM FEW045 08/02 A2990 RMK AO2 SLP135 T00780022 56017=
200603200156 METAR KSEA 200156Z 32004KT 10SM FEW040 09/M02 A2992 RMK AO2 SLP138 T00941017=
200603200056 METAR KSEA 200056Z 31004KT 10SM SCT040 11/01 A2993 RMK AO2 SLP143 T01060006=
200603192356 METAR KSEA 192356Z 33005KT 10SM FEW035 11/00 A2995 RMK AO2 SLP152 T01110000 10117 20056 56027=
200603192256 METAR KSEA 192256Z 32004KT 10SM FEW030 11/01 A2997 RMK AO2 SLP158 T01110006=
200603192156 METAR KSEA 192156Z 31004KT 10SM FEW030 10/02 A3000 RMK AO2 SLP168 T01000017=
200603192056 METAR KSEA 192056Z 29007KT 10SM FEW025 09/03 A3004 RMK AO2 SLP180 T00940033 58022=
200603191956 METAR KSEA 191956Z VRB04KT 10SM FEW020 09/03 A3006 RMK AO2 SLP189 T00890028=
200603191856 METAR KSEA 191856Z 35005KT 10SM FEW020 07/02 A3008 RMK AO2 SLP195 T00720022=
200603191756 METAR KSEA 191756Z 02006KT 10SM FEW015 06/02 A3010 RMK AO2 SLP202 T00560017 10061 20006 58008=
200603191656 METAR KSEA 191656Z 35006KT 10SM FEW015 06/02 A3012 RMK AO2 SLP207 T00560017=
200603191556 METAR KSEA 191556Z 00000KT 7SM FEW010 04/02 A3012 RMK AO2 SLP209 T00390022=
200603191456 METAR KSEA 191456Z 10005KT 3SM BR FEW060 02/02 A3013 RMK AO2 SLP211 T00170017 58001=
200603191356 METAR KSEA 191356Z 12005KT 9SM SCT200 01/01 A3013 RMK AO2 SLP213 T00110011=
200603191256 METAR KSEA 191256Z 12004KT 10SM FEW031 SCT200 01/01 A3013 RMK AO2 SLP214 T00060006=
200603191156 METAR KSEA 191156Z 08004KT 10SM BKN026 OVC350 02/02 A3013 RMK AO2 SLP211 70015 T00220022 10050 20022 55001=
200603191056 METAR KSEA 191056Z 02006KT 10SM OVC026 03/03 A3012 RMK AO2 SLP209 T00330028=
200603190956 METAR KSEA 190956Z 03006KT 10SM BKN029 BKN035 03/02 A3014 RMK AO2 SLP214 T00330022=
200603190937 SPECI KSEA 190937Z 02006KT 10SM FEW021 BKN029 03/02 A3014 RMK AO2=
200603190937 SPECI KSEA 190937Z 02006KT 10SM FEW021 BKN029 03/02 A3014 RMK AO2=
200603190856 METAR KSEA 190856Z 04005KT 10SM FEW045 SCT100 03/02 A3013 RMK AO2 SLP213 T00280017 55001=
200603190756 METAR KSEA 190756Z 36005KT 10SM SCT020 SCT035 03/02 A3013 RMK AO2 SLP212 T00330017 400940028=
200603190656 METAR KSEA 190656Z 01003KT 10SM SCT035 04/02 A3013 RMK AO2 SLP213 T00440022=
200603190556 METAR KSEA 190556Z 02003KT 10SM BKN036 BKN070 05/03 A3014 RMK AO2 SLP215 60000 T00500028 10083 20044 51009=
200603190456 METAR KSEA 190456Z 05006KT 10SM FEW045 BKN070 BKN180 06/02 A3014 RMK AO2 SLP214 T00560022=
200603190356 METAR KSEA 190356Z 05006KT 10SM FEW040 BKN065 BKN180 06/02 A3012 RMK AO2 SLP209 T00610022=
200603190256 METAR KSEA 190256Z 03005KT 10SM SCT040 BKN060 OVC180 07/03 A3011 RMK AO2 RAE30 SLP205 P0000 60000 T00670033 55000=
200603190156 METAR KSEA 190156Z VRB03KT 10SM -RA BKN039 BKN060 OVC180 07/03 A3011 RMK AO2 RAB43 SLP204 P0000 T00670033=
200603190056 METAR KSEA 190056Z 00000KT 10SM FEW035 BKN070 OVC200 08/01 A3011 RMK AO2 SLP204 T00830011=
200603182356 METAR KSEA 182356Z 22007KT 10SM SCT035 BKN085 BKN200 08/01 A3011 RMK AO2 SLP205 60000 T00830011 10094 20039 56012=
200603182256 METAR KSEA 182256Z 19007KT 10SM SCT035 BKN080 BKN200 08/02 A3012 RMK AO2 SLP208 T00830017=
200603182156 METAR KSEA 182156Z VRB06KT 10SM FEW016 SCT025 BKN045 BKN250 08/03 A3013 RMK AO2 SLP212 T00780033=
200603182115 SPECI KSEA 182115Z 13005KT 10SM FEW014 SCT022 BKN040 07/03 A3015 RMK AO2=
200603182115 SPECI KSEA 182115Z 13005KT 10SM FEW014 SCT022 BKN040 07/03 A3015 RMK AO2=
200603182056 METAR KSEA 182056Z 12004KT 10SM SCT014 BKN022 BKN040 06/03 A3015 RMK AO2 SLP217 60000 T00610028 58004=
200603182021 SPECI KSEA 182021Z 00000KT 10SM SCT014 OVC022 06/04 A3015 RMK AO2=
200603182021 SPECI KSEA 182021Z 00000KT 10SM SCT014 OVC022 06/04 A3015 RMK AO2=
200603181956 METAR KSEA 181956Z 00000KT 8SM FEW008 BKN014 OVC022 05/03 A3015 RMK AO2 SLP220 T00500033=
200603181856 METAR KSEA 181856Z 17004KT 5SM BR SCT006 OVC012 04/04 A3016 RMK AO2 RAE08 SLP221 P0000 T00440039=
200603181851 SPECI KSEA 181851Z 16003KT 3SM BR SCT006 OVC012 04/03 A3016 RMK AO2 SFC VIS 5 RAE08 P0000=
200603181851 SPECI KSEA 181851Z 16003KT 3SM BR SCT006 OVC012 04/03 A3016 RMK AO2 SFC VIS 5 RAE08 P0000=
200603181756 METAR KSEA 181756Z 17004KT 3SM -RA BR BKN005 OVC009 04/04 A3016 RMK AO2 SFC VIS 4 RAB15E29B48 SLP222 P0000 60015 T00390039 10044 20028 51009=
200603181747 SPECI KSEA 181747Z 19004KT 3SM BR BKN005 OVC009 04/04 A3016=
200603181747 SPECI KSEA 181747Z 19004KT 3SM BR BKN005 OVC009 04/04 A3016 RMK AO2 SFC VIS 4 RAB15E29 P0000=
200603181702 SPECI KSEA 181702Z 15006KT 1 1/2SM BR BKN005 OVC028 04/04 A3016 RMK AO2 SFC VIS 4=
200603181702 SPECI KSEA 181702Z 15006KT 1 1/2SM BR BKN005 OVC028 04/04 A3016 RMK AO2 SFC VIS 4=
200603181656 METAR KSEA 181656Z 15006KT 1 1/2SM BR BKN004 OVC028 04/04 A3015 RMK AO2 SFC VIS 3 SLP220 T00390039=
200603181630 SPECI KSEA 181630Z 16005KT 1 1/2SM BR BKN004 OVC024 04/04 A3015 RMK AO2 SFC VIS 2 1/2 BINOVC OHD=
200603181630 SPECI KSEA 181630Z 16005KT 1 1/2SM BR BKN004 OVC024 04/04 A3015 RMK AO2 SFC VIS 2 1/2 BINOVC OHD=
200603181622 SPECI KSEA 181622Z 17005KT 3/4SM BR BKN004 OVC024 03/03 A3015 RMK AO2 SFC VIS 2 1/2 BINOVC OHD=
200603181622 SPECI KSEA 181622Z 17005KT 3/4SM BR BKN004 OVC024 03/03 A3015 RMK AO2 SFC VIS 2 1/2 BINOVC OHD=
200603181556 METAR KSEA 181556Z 14005KT 3/4SM R16R/P6000FT BR BKN002 BKN025 03/03 A3014 RMK AO2 SFC VIS 1 SLP217 T00330033=
200603181526 SPECI KSEA 181526Z 18005KT 3/4SM BR BKN002 OVC017 03/03 A3014 RMK AO2 SFC VIS 1 1/2=
200603181526 SPECI KSEA 181526Z 18005KT 3/4SM BR BKN002 OVC017 03/03 A3014 RMK AO2 SFC VIS 1 1/2=
200603181517 SPECI KSEA 181517Z 17006KT 3/4SM BR FEW002 BKN017 OVC025 03/03 A3013 RMK AO2 SFC VIS 1 1/2=
200603181517 SPECI KSEA 181517Z 17006KT 3/4SM BR FEW002 BKN017 OVC025 03/03 A3013 RMK AO2 SFC VIS 1 1/2=
200603181501 SPECI KSEA 181501Z 21005KT 1 1/2SM BR FEW004 BKN020 OVC038 03/03 A3013 RMK AO2 SFC VIS 3=
200603181501 SPECI KSEA 181501Z 21005KT 1 1/2SM BR FEW004 BKN020 OVC038 03/03 A3013 RMK AO2 SFC VIS 3=
200603181456 METAR KSEA 181456Z 21006KT 7SM FEW004 BKN025 OVC044 04/04 A3013 RMK AO2 SLP212 P0001 60015 T00390039 51013=
200603181424 SPECI KSEA 181424Z 24003KT 10SM FEW016 SCT035 OVC045 04/04 A3012=
200603181424 SPECI KSEA 181424Z 24003KT 10SM FEW016 SCT035 OVC045 04/04 A3012 RMK AO2=
200603181356 METAR KSEA 181356Z 00000KT 10SM SCT008 BKN016 OVC039 04/04 A3012 RMK AO2 RAE31 SLP207 P0005 T00440039=
200603181304 SPECI KSEA 181304Z 36004KT 4SM -RA BR SCT007 OVC017 04/04 A3011 RMK AO2 P0002=
200603181304 SPECI KSEA 181304Z 36004KT 4SM -RA BR SCT007 OVC017 04/04 A3011 RMK AO2 P0002=
200603181256 METAR KSEA 181256Z 33003KT 6SM -RA BR FEW010 OVC017 04/04 A3011 RMK AO2 SLP203 P0009 T00390039=
200603181156 METAR KSEA 181156Z 00000KT 7SM -RA BKN017 OVC036 04/03 A3009 RMK AO2 SLP198 P0011 60031 70038 T00440033 10056 20039 51012=
200603181056 METAR KSEA 181056Z 04005KT 4SM R16R/2400VP6000FT RA BR BKN015 OVC022 04/03 A3008 RMK AO2 SLP195 P0015 T00440033=
200603181042 SPECI KSEA 181042Z 05005KT 4SM RA BR FEW001 BKN017 OVC022 05/05 A3008 RMK AO2 P0010=
200603181042 SPECI KSEA 181042Z 05005KT 4SM RA BR FEW001 BKN017 OVC022 05/05 A3008 RMK AO2 P0010=
200603181034 SPECI KSEA 181034Z 00000KT 2 1/2SM R16R/4500VP6000FT RA BR FEW001 BKN008 OVC020 04/04 A3008 RMK AO2 VIS 1 1/4V4 P0008=
200603181034 SPECI KSEA 181034Z 00000KT 2 1/2SM R16R/4500VP6000FT RA BR FEW001 BKN008 OVC020 04/04 A3008 RMK AO2 VIS 1 1/4V4 P0008=
200603181020 SPECI KSEA 181020Z 00000KT 2SM RA BR FEW001 SCT011 OVC017 04/04 A3007=
200603181020 SPECI KSEA 181020Z 00000KT 2SM RA BR FEW001 SCT011 OVC017 04/04 A3007 RMK AO2 P0006=
200603180956 METAR KSEA 180956Z 28003KT 4SM RA BR SCT014 OVC020 04/04 A3007 RMK AO2 SLP191 P0005 T00440044=
200603180905 SPECI KSEA 180905Z VRB04KT 5SM -RA BR FEW005 SCT013 OVC020 05/05 A3006 RMK AO2 P0001=
200603180905 SPECI KSEA 180905Z VRB04KT 5SM -RA BR FEW005 SCT013 OVC020 05/05 A3006 RMK AO2 P0001=
200603180856 METAR KSEA 180856Z 36004KT 5SM RA BR SCT005 BKN012 OVC029 06/06 A3005 RMK AO2 RAB18 SLP186 P0000 60000 T00560056 53010=
200603180849 SPECI KSEA 180849Z 00000KT 7SM -RA SCT005 BKN012 OVC029 06/06 A3005=
200603180849 SPECI KSEA 180849Z 00000KT 7SM -RA SCT005 BKN012 OVC029 06/06 A3005 RMK AO2 RAB18 P0000=
200603180832 SPECI KSEA 180832Z 21004KT 7SM -RA SCT005 BKN016 OVC055 05/05 A3004 RMK AO2 RAB18 CIG 012V024 P0000=
200603180832 SPECI KSEA 180832Z 21004KT 7SM -RA SCT005 BKN016 OVC055 05/05 A3004 RMK AO2 RAB18 CIG 012V024 P0000=
200603180818 SPECI KSEA 180818Z 00000KT 7SM -RA FEW013 BKN018 OVC055 05/05 A3004 RMK AO2 RAB18 P0000=
200603180818 SPECI KSEA 180818Z 00000KT 7SM -RA FEW013 BKN018 OVC055 05/05 A3004 RMK AO2 RAB18 P0000=
200603180756 METAR KSEA 180756Z 00000KT 10SM FEW024 OVC055 05/05 A3004 RMK AO2 SLP180 T00500050 400890022=
200603180717 SPECI KSEA 180717Z 17003KT 10SM FEW009 BKN046 OVC070 06/06 A3004 RMK AO2=
200603180717 SPECI KSEA 180717Z 17003KT 10SM FEW009 BKN046 OVC070 06/06 A3004 RMK AO2=
200603180656 METAR KSEA 180656Z 20003KT 10SM SCT018 BKN042 OVC090 05/05 A3004 RMK AO2 SLP179 T00500050=
200603180556 METAR KSEA 180556Z 18003KT 10SM BKN024 BKN028 OVC055 05/05 A3002 RMK AO2 RAE15 SLP175 P0000 60000 T00500050 10072 20044 51017=
200603180541 SPECI KSEA 180541Z 00000KT 10SM BKN024 OVC034 05/05 A3002=
200603180541 SPECI KSEA 180541Z 00000KT 10SM BKN024 OVC034 05/05 A3002 RMK AO2 RAE15 P0000=
200603180456 METAR KSEA 180456Z 00000KT 10SM -RA BKN030 BKN055 OVC100 06/06 A3001 RMK AO2 RAB56 SLP171 P0000 T00560056=
200603180356 METAR KSEA 180356Z 00000KT 10SM SCT038 BKN045 BKN120 05/05 A2999 RMK AO2 SLP165 T00500050=
200603180256 METAR KSEA 180256Z 00000KT 10SM FEW080 BKN095 BKN200 05/05 A2997 RMK AO2 SLP159 60000 T00500050 51012=
200603180156 METAR KSEA 180156Z 00000KT 10SM FEW043 SCT060 BKN080 BKN200 06/06 A2996 RMK AO2 RAE03 SLP154 P0000 T00610056=
200603180056 METAR KSEA 180056Z 23004KT 10SM -RA FEW025TCU SCT050 BKN090 BKN200 07/05 A2995 RMK AO2 RAB53 SLP151 TCU N AND S P0000 T00670050=
200603172356 METAR KSEA 172356Z 21006KT 10SM SCT020TCU BKN035 BKN110 BKN200 07/04 A2994 RMK AO2 SLP147 TCU S-W SH W MOV N 60005 T00720044 10089 20050 51014=
200603172256 METAR KSEA 172256Z 21007KT 10SM FEW030 BKN045 BKN090 BKN200 07/04 A2992 RMK AO2 SLP142 CB DSNT NW MOV NE T00670039=
200603172222 SPECI KSEA 172222Z 19006KT 10SM SCT025 BKN032 OVC041 06/04 A2992 RMK AO2 VIRGA SW BINOVC OHD-NW=
200603172222 SPECI KSEA 172222Z 19006KT 10SM SCT025 BKN032 OVC041 06/04 A2992 RMK AO2 VIRGA SW BINOVC OHD-NW=
200603172156 METAR KSEA 172156Z 19009KT 10SM FEW018 BKN025 OVC030 05/04 A2991 RMK AO2 WSHFT 2118 RAB33E34 SLP138 VCSH SE-S MOV NE BINOVC NW P0000 T00500039=
200603172132 SPECI KSEA 172132Z 19013G20KT 10SM FEW018 BKN026 OVC033 05/03 A2991 RMK AO2 WSHFT 2118=
200603172132 SPECI KSEA 172132Z 19013G20KT 10SM FEW018 BKN026 OVC033 05/03 A2991 RMK AO2 WSHFT 2118=
200603172056 METAR KSEA 172056Z 28003KT 10SM FEW025 SCT035 SCT070 BKN200 09/05 A2990 RMK AO2 RAE14 SLP131 CB DSNT NW P0000 60005 T00890050 51010=
200603171956 METAR KSEA 171956Z 19003KT 10SM -RA FEW020 SCT025 OVC035 07/04 A2989 RMK AO2 SLP131 P0001 T00670044=
200603171856 METAR KSEA 171856Z VRB03KT 10SM -RA FEW020 BKN025 OVC030 06/03 A2988 RMK AO2 SLP127 P0004 T00610033=
200603171756 METAR KSEA 171756Z 23003KT 8SM -RA OVC024 06/05 A2986 RMK AO2 RAB06 SLP121 P0002 60002 T00610050 10061 20022 53020=
200603171739 SPECI KSEA 171739Z 17003KT 9SM -RA OVC028 06/04 A2986 RMK AO2 RAB06 P0001=
200603171739 SPECI KSEA 171739Z 17003KT 9SM -RA OVC028 06/04 A2986 RMK AO2 RAB06 P0001=
200603171656 METAR KSEA 171656Z VRB04KT 10SM FEW040 BKN070 BKN120 06/04 A2984 RMK AO2 SLP112 T00610044=
200603171556 METAR KSEA 171556Z 32004KT 10SM FEW040 SCT060 OVC075 04/04 A2981 RMK AO2 SLP104 BINOVC SW T00440044=
200603171456 METAR KSEA 171456Z 03005KT 10SM FEW026 BKN060 OVC100 04/04 A2980 RMK AO2 RAE16 SLP101 BINOVC S P0000 60000 T00440039 51007=
200603171418 SPECI KSEA 171418Z 33005KT 10SM SCT026 BKN045 OVC100 04/04 A2980 RMK AO2 RAE16 P0000=
200603171418 SPECI KSEA 171418Z 33005KT 10SM SCT026 BKN045 OVC100 04/04 A2980 RMK AO2 RAE16 P0000=
200603171356 METAR KSEA 171356Z 04004KT 8SM -RA BKN028 OVC045 04/04 A2979 RMK AO2 RAB34 SLP097 P0000 T00390039=
200603171351 SPECI KSEA 171351Z 04004KT 8SM -RA BKN028 OVC045 04/04 A2980 RMK AO2 RAB34 P0000=
200603171351 SPECI KSEA 171351Z 04004KT 8SM -RA BKN028 OVC045 04/04 A2980 RMK AO2 RAB34 P0000=
200603171256 METAR KSEA 171256Z 01005KT 9SM BKN070 BKN250 03/03 A2978 RMK AO2 SLP093 T00330033=
200603171156 METAR KSEA 171156Z 05005KT 10SM FEW070 SCT250 03/02 A2977 RMK AO2 SLP089 60000 70003 T00280022 10061 20022 58006=
200603171056 METAR KSEA 171056Z 13005KT 10SM FEW070 02/02 A2978 RMK AO2 SLP093 T00220022=
200603170956 METAR KSEA 170956Z 13005KT 10SM FEW070 04/03 A2979 RMK AO2 SLP096 T00390033=
200603170856 METAR KSEA 170856Z 16003KT 10SM FEW047 SCT070 SCT200 04/04 A2979 RMK AO2 RAB22E37 SLP096 P0000 60000 T00440039 53002=
200603170756 METAR KSEA 170756Z 13004KT 10SM BKN050 OVC080 06/04 A2979 RMK AO2 SLP095 T00560044 401000033=
200603170656 METAR KSEA 170656Z 00000KT 10SM SCT080 BKN250 05/04 A2979 RMK AO2 SLP094 T00500039=
200603170556 METAR KSEA 170556Z 13003KT 10SM BKN070 OVC100 06/04 A2978 RMK AO2 SLP094 T00610044 10083 20056 53009=
200603170456 METAR KSEA 170456Z 00000KT 10SM FEW075 BKN090 OVC200 06/04 A2977 RMK AO2 SLP089 T00560044=
200603170356 METAR KSEA 170356Z 06006KT 10SM BKN100 BKN200 07/03 A2976 RMK AO2 SLP085 T00670033=
200603170256 METAR KSEA 170256Z 00000KT 10SM FEW045 SCT140 BKN200 06/02 A2976 RMK AO2 SLP084 T00610022 55000=
200603170156 METAR KSEA 170156Z 23003KT 10SM FEW045 SCT080 BKN140 BKN200 07/02 A2975 RMK AO2 SLP083 T00720022=
200603170056 METAR KSEA 170056Z 22006KT 10SM FEW046 SCT060 BKN080 BKN200 08/02 A2975 RMK AO2 SLP081 SH DSNT N T00780022=
200603162356 METAR KSEA 162356Z 22013G20KT 10SM FEW047 BKN060 BKN200 08/02 A2976 RMK AO2 SLP084 VIRGA SW 60001 T00830017 10100 20072 58003=
200603162256 METAR KSEA 162256Z 19012KT 10SM FEW040 SCT050 BKN080 BKN130 09/01 A2976 RMK AO2 SLP086 SH DSTN NE T00890011=
200603162156 METAR KSEA 162156Z 20014G22KT 10SM FEW040 SCT060 BKN090 BKN130 BKN150 09/02 A2976 RMK AO2 SLP086 SH DSNT NE T00890017=
200603162056 METAR KSEA 162056Z 21016G21KT 10SM BKN042 BKN065 BKN110 OVC130 09/03 A2977 RMK AO2 SLP087 BINOVC SW 60001 T00890028 53017=
200603161956 METAR KSEA 161956Z 19016G24KT 10SM FEW040 SCT065 BKN110 OVC130 09/03 A2974 RMK AO2 PK WND 19027/1905 SLP080 T00890033=
200603161856 METAR KSEA 161856Z 18015G20KT 10SM FEW030 SCT045 BKN075 OVC130 09/04 A2974 RMK AO2 PK WND 20027/1809 RAE27 SLP077 SH DSNT E P0001 T00890044=
200603161756 METAR KSEA 161756Z 19008KT 10SM -RA SCT030 BKN040 OVC050 07/04 A2971 RMK AO2 SLP070 P0000 60002 T00720044 10089 20033 53015=
200603161656 METAR KSEA 161656Z 12009KT 10SM -RA FEW030 BKN045 OVC060 08/03 A2968 RMK AO2 SLP057 P0002 T00780028=
200603161556 METAR KSEA 161556Z 23008KT 8SM -RA SCT030 BKN038 OVC046 06/03 A2969 RMK AO2 RAB30 SLP061 P0000 T00610033=
200603161456 METAR KSEA 161456Z 13008KT 10SM SCT045 BKN065 OVC130 07/02 A2967 RMK AO2 SLP055 T00720017 56023=
200603161356 METAR KSEA 161356Z 08005KT 10SM FEW070 SCT090 BKN100 BKN200 04/03 A2969 RMK AO2 SLP061 T00440033=
200603161256 METAR KSEA 161256Z 09003KT 10SM FEW065 BKN120 BKN200 05/02 A2971 RMK AO2 SLP069 T00500017=
200603161156 METAR KSEA 161156Z 06005KT 10SM FEW050 OVC070 05/04 A2974 RMK AO2 SLP079 60003 70009 T00500039 10061 20050 58032=
200603161056 METAR KSEA 161056Z 03008KT 10SM BKN040 BKN085 OVC180 05/04 A2978 RMK AO2 RAE25 PRESFR SLP091 P0000 T00500044=
200603160956 METAR KSEA 160956Z 32003KT 10SM -RA BKN033 OVC042 05/05 A2983 RMK AO2 SLP109 P0001 T00500050=
200603160856 METAR KSEA 160856Z 11005KT 10SM -RA SCT030 OVC035 06/03 A2984 RMK AO2 SLP112 P0002 60002 T00610033 58015=
200603160756 METAR KSEA 160756Z VRB03KT 10SM -RA BKN033 OVC047 06/04 A2986 RMK AO2 RAB27 SLP120 P0000 T00560044 400830039=
200603160656 METAR KSEA 160656Z 00000KT 10SM SCT070 BKN090 OVC200 05/05 A2988 RMK AO2 SLP125 T00500050=
200603160556 METAR KSEA 160556Z 06005KT 10SM SCT130 BKN200 06/05 A2988 RMK AO2 SLP127 60001 T00560050 10078 20050 58016=
200603160456 METAR KSEA 160456Z 05006KT 10SM BKN200 06/04 A2990 RMK AO2 SLP133 T00610044=
200603160356 METAR KSEA 160356Z 07005KT 10SM FEW070 OVC200 06/04 A2992 RMK AO2 SLP142 T00560044=
200603160256 METAR KSEA 160256Z 00000KT 10SM BKN050 OVC090 07/04 A2993 RMK AO2 RAE17 SLP143 P0000 60001 T00670044 58007=
200603160156 METAR KSEA 160156Z 25007G14KT 7SM -RA FEW021 BKN046 OVC120 06/05 A2994 RMK AO2 RAB44 SLP149 P0001 T00610050=
200603160056 METAR KSEA 160056Z 16004KT 10SM FEW030 SCT050 BKN130 BKN200 07/05 A2994 RMK AO2 RAE06 SLP147 P0000 T00720050=
200603152356 METAR KSEA 152356Z 22008KT 10SM -RA SCT028 BKN032 BKN130 BKN200 07/06 A2995 RMK AO2 RAE2257B17 SLP151 P0001 60004 T00670056 10083 20061 55002=
200603152256 METAR KSEA 152256Z 22007KT 10SM -RA FEW025TCU SCT040 SCT130 BKN200 07/05 A2995 RMK AO2 RAB36 SLP150 TCU E MOV NE P0000 T00720050=
200603152156 METAR KSEA 152156Z 21013G19KT 10SM FEW025 SCT045 BKN130 OVC150 08/05 A2995 RMK AO2 RAE31 SLP148 VCSH SW MOV NE P0000 T00780050=
200603152118 SPECI KSEA 152118Z 21012KT 10SM -RA SCT025 BKN034 OVC043 07/04 A2995 RMK AO2 P0000=
200603152118 SPECI KSEA 152118Z 21012KT 10SM -RA SCT025 BKN034 OVC043 07/04 A2995 RMK AO2 P0000=
200603152056 METAR KSEA 152056Z 21009KT 9SM -RA BKN026 BKN030 OVC060 07/05 A2996 RMK AO2 SLP153 P0002 60003 T00670050 53017=
200603152042 SPECI KSEA 152042Z 20015KT 10SM SCT026 BKN032 BKN060 OVC130 07/04 A2995 RMK AO2 RAE41 P0001=
200603152042 SPECI KSEA 152042Z 20015KT 10SM SCT026 BKN032 BKN060 OVC130 07/04 A2995 RMK AO2 RAE41 P0001=
200603151956 METAR KSEA 151956Z 22018G25KT 8SM -RA BKN023 OVC037 06/04 A2994 RMK AO2 RAE09B38 SLP147 P0001 T00610044=
200603151856 METAR KSEA 151856Z 20012KT 10SM -RA FEW030 BKN040 BKN110 OVC130 07/02 A2991 RMK AO2 RAB20E33B52 SLP137 P0000 T00720022=
200603151756 METAR KSEA 151756Z COR 17006KT 10SM R16R/P6000FT FEW040 BKN050 BKN110 OVC130 06/03 A2991 RMK AO2 SLP136 60001 T00610028 10061 20039 51007=
200603151656 METAR KSEA 151656Z 15007KT 10SM SCT035 BKN045 OVC055 06/02 A2991 RMK AO2 SLP136 T00560017=
200603151556 METAR KSEA 151556Z 16006KT 10SM FEW030 BKN040 OVC080 04/02 A2990 RMK AO2 SLP133 VIRGA SE T00440022 $=
200603151456 METAR KSEA 151456Z 16007KT 10SM BKN042 BKN055 OVC080 04/02 A2989 RMK AO2 RAE02B20E41 SLP130 P0000 60001 T00390022 55001 $=
200603151356 METAR KSEA 151356Z 16006KT 10SM -RA FEW042 BKN060 BKN080 04/03 A2989 RMK AO2 RAB07E17B44 SLP129 P0001 T00390028=
200603151256 METAR KSEA 151256Z 17006KT 10SM FEW049 BKN075 04/02 A2989 RMK AO2 SLP129 T00390022=
200603151156 METAR KSEA 151156Z 17006KT 10SM BKN037 BKN080 04/03 A2989 RMK AO2 SLP130 7//// T00390028 10050 20039 58000=
200603151056 METAR KSEA 151056Z 18007KT 10SM BKN055 BKN070 05/03 A2989 RMK AO2 SLP130 T00500028=
200603150956 METAR KSEA 150956Z 19006KT 10SM FEW045 SCT050 BKN070 04/03 A2990 RMK AO2 SLP132 T00440033=
200603150856 METAR KSEA 150856Z 16006KT 10SM BKN034 BKN044 BKN200 04/04 A2989 RMK AO2 SLP131 T00440044 52007=
200603150756 METAR KSEA 150756Z 20005KT 10SM BKN038 BKN044 05/04 A2988 RMK AO2 SLP127 T00500039 401060039=
200603150715 SPECI KSEA 150715Z 18008KT 10SM SCT024 BKN030 BKN038 BKN130 05/04 A2988 RMK AO2=
200603150715 SPECI KSEA 150715Z 18008KT 10SM SCT024 BKN030 BKN038 BKN130 05/04 A2988 RMK AO2=
200603150656 METAR KSEA 150656Z 19008KT 10SM BKN024 OVC050 05/04 A2988 RMK AO2 SLP127 T00500039=
200603150628 SPECI KSEA 150628Z 20006KT 10SM SCT022 BKN027 OVC060 05/04 A2988 RMK AO2=
200603150628 SPECI KSEA 150628Z 20006KT 10SM SCT022 BKN027 OVC060 05/04 A2988 RMK AO2=
200603150556 METAR KSEA 150556Z 17006KT 10SM FEW021 BKN030 OVC050 05/04 A2987 RMK AO2 RAE36 SLPNO P0000 60001 T00500044 10094 20039 53012=
200603150456 METAR KSEA 150456Z 18007KT 7SM -RA FEW019 BKN034 OVC043 05/04 A2987 RMK AO2 RAB43 SLPNO P0001 T00500044=
200603150356 METAR KSEA 150356Z 16004KT 10SM FEW040 SCT085 SCT200 04/03 A2984 RMK AO2 SLPNO T00440033=
200603150256 METAR KSEA 150256Z 19005KT 10SM FEW032CB SCT050 SCT100 BKN200 05/04 A2984 RMK AO2 RAE05 SLPNO CB S MOV NE P0000 60000 T00500039 53011=
200603150156 METAR KSEA 150156Z 21007KT 10SM -RA FEW038CB SCT045 BKN065 BKN200 07/04 A2983 RMK AO2 RAB21 SLPNO CB SE MOV NE CB NW MOV N P0000 T00670039=
200603150056 METAR KSEA 150056Z COR 23008KT 10SM FEW029 SCT039CB BKN120 BKN200 08/03 A2982 RMK AO2 SLPNO CB N-E MOV NE CB DSNT W T00780033=
200603142356 METAR KSEA 142356Z 21011KT 10SM FEW049CB SCT060 BKN120 BKN200 09/03 A2980 RMK AO2 SLPNO CB SE-SW MOV NE VIRGA SE W 60000 T00940028 10106 20072 53001=
200603142256 METAR KSEA 142256Z 21009KT 10SM SCT055 BKN070 BKN150 BKN200 10/03 A2980 RMK AO2 SLPNO CB DSNT SE-SW T01000028=
200603142156 METAR KSEA 142156Z 22010KT 10SM SCT050TCU SCT120 BKN200 11/04 A2979 RMK AO2 SLPNO TCU E MOV NE CB DSNT SE-S-SW T01060039=
200603142056 METAR KSEA 142056Z 25010KT 10SM SCT050 BKN070 BKN200 10/04 A2980 RMK AO2 RAB03E12 SLPNO SH DSNT SE-S P0000 60000 T01000039=
200603141956 METAR KSEA 141956Z 23010KT 10SM SCT040 BKN055 BKN200 08/04 A2981 RMK AO2 RAB23E32 SLPNO P0000 T00780039=
200603141856 METAR KSEA 141856Z 20008KT 10SM BKN030 BKN050 BKN200 08/02 A2980 RMK VIRGA S-SW=
200603141756 METAR KSEA 141756Z 22012KT 10SM FEW028 SCT037 BKN047 BKN200 08/04 A2980 RMK AO2 RAE45 SLP099 P0001 60001 T00780039 10078 20033 51012=
200603141747 SPECI KSEA 141747Z 22008KT 10SM SCT028 SCT037 BKN047 BKN200 07/04 A2980 RMK AO2 RAE45 P0001=
200603141747 SPECI KSEA 141747Z 22008KT 10SM SCT028 SCT037 BKN047 BKN200 07/04 A2980 RMK AO2 RAE45 P0001=
200603141706 SPECI KSEA 141706Z 21010KT 10SM -RA BKN024 BKN045 OVC070 06/03 A2981 RMK AO2 P0000=
200603141706 SPECI KSEA 141706Z 21010KT 10SM -RA BKN024 BKN045 OVC070 06/03 A2981 RMK AO2 P0000=
200603141656 METAR KSEA 141656Z 22011KT 10SM -RA FEW025 SCT045 BKN070 07/03 A2980 RMK AO2 RAB54 SLP099 P0000 T00670028=
200603141556 METAR KSEA 141556Z 22014KT 10SM FEW025 SCT040 BKN070 06/02 A2978 RMK AO2 SLP092 T00610022=
200603141456 METAR KSEA 141456Z 22007KT 10SM BKN041 BKN060 BKN090 06/03 A2977 RMK AO2 RAB55E56 SLP088 P0000 60000 T00560028 53013=
200603141356 METAR KSEA 141356Z 23005KT 10SM BKN045 BKN060 BKN090 04/03 A2975 RMK AO2 SLP082 T00440033=
200603141256 METAR KSEA 141256Z 18003KT 10SM SCT045 BKN090 03/03 A2974 RMK AO2 SLP078 T00330028=
200603141156 METAR KSEA 141156Z 22005KT 10SM FEW025 BKN046 OVC090 05/03 A2973 RMK AO2 RAB09E48 SLP074 P0002 60003 70003 T00500033 10072 20044 58004=
200603141056 METAR KSEA 141056Z 20006KT 10SM BKN045 BKN055 BKN090 06/01 A2973 RMK AO2 SLP075 T00610011=
200603140956 METAR KSEA 140956Z 19005KT 10SM BKN070 BKN090 06/03 A2974 RMK AO2 RAE34 SLP077 P0000 T00560028=
200603140856 METAR KSEA 140856Z 20003KT 10SM -RA SCT035 BKN055 BKN090 OVC200 06/03 A2974 RMK AO2 RAB52 SLP078 P0000 60001 T00610028 55009=
200603140803 SPECI KSEA 140803Z 17007KT 10SM SCT030 BKN050 OVC080 07/01 A2974 RMK AO2=
200603140803 SPECI KSEA 140803Z 17007KT 10SM SCT030 BKN050 OVC080 07/01 A2974 RMK AO2=
200603140756 METAR KSEA 140756Z 12006KT 10SM BKN029 BKN050 BKN080 07/01 A2974 RMK AO2 RAE48 SLP077 P0000 T00720006 401220006=
200603140656 METAR KSEA 140656Z 09009KT 7SM -RA BKN025 BKN035 OVC080 06/03 A2975 RMK AO2 SLP084 P0001 T00560028=
200603140556 METAR KSEA 140556Z 17010G18KT 8SM -RA BKN025 OVC036 07/02 A2977 RMK AO2 SLP088 P0000 60000 T00670017 10117 20067 53005=
200603140526 SPECI KSEA 140526Z 09005G17KT 10SM -RA BKN029 OVC041 07/01 A2976 RMK AO2 P0000=
200603140526 SPECI KSEA 140526Z 09005G17KT 10SM -RA BKN029 OVC041 07/01 A2976 RMK AO2 P0000=
200603140456 METAR KSEA 140456Z 19010G19KT 10SM -RA BKN044 OVC070 07/00 A2976 RMK AO2 RAB51 SLP087 P0000 T00720000=
200603140356 METAR KSEA 140356Z 21010KT 10SM BKN075 OVC200 09/M04 A2975 RMK AO2 SLP084 T00891039=
200603140256 METAR KSEA 140256Z 14008KT 10SM BKN100 OVC200 09/M04 A2975 RMK AO2 SLP084 T00891044 56020=
200603140156 METAR KSEA 140156Z 11006KT 10SM FEW050 SCT110 BKN200 11/M06 A2976 RMK AO2 SLP084 T01061061=
200603140056 METAR KSEA 140056Z 28003KT 10SM FEW050 SCT160 BKN230 10/M03 A2979 RMK AO2 SLP094 T01001033=
200603132356 METAR KSEA 132356Z 17009KT 10SM FEW050 SCT150 BKN230 12/M07 A2981 RMK AO2 SLP104 SH DSNT N T01171067 10122 20072 58038=
200603132256 METAR KSEA 132256Z 14006KT 10SM FEW060 SCT130 BKN150 BKN200 11/M06 A2985 RMK AO2 SLP117 T01061061=
200603132156 METAR KSEA 132156Z VRB06KT 10SM FEW060 SCT150 BKN200 11/M05 A2989 RMK AO2 SLP130 T01111050=
200603132056 METAR KSEA 132056Z COR VRB03KT 10SM FEW055 SCT150 BKN200 11/M04 A2993 RMK AO2 SLP142 T01061039 58032=
200603131956 METAR KSEA 131956Z 14008KT 10SM FEW045 SCT150 BKN200 10/M05 A2997 RMK AO2 SLP156 T01001050=
200603131856 METAR KSEA 131856Z 19007KT 10SM FEW035 SCT150 OVC200 08/M03 A3000 RMK AO2 SLP166 T00831028=
200603131756 METAR KSEA 131756Z 15005KT 10SM FEW025 SCT080 BKN200 07/M01 A3002 RMK AO2 SLP175 T00721011 10072 20006 58007=
200603131656 METAR KSEA 131656Z 16004KT 10SM FEW020 SCT080 SCT200 06/00 A3004 RMK AO2 SLP181 T00560000=
200603131556 METAR KSEA 131556Z 17004KT 10SM FEW070 SCT200 03/00 A3004 RMK AO2 SLP183 T00330000=
200603131456 METAR KSEA 131456Z 16006KT 10SM FEW060 BKN070 BKN120 02/00 A3004 RMK AO2 SLP183 T00220000 56009=
200603131356 METAR KSEA 131356Z 20003KT 10SM BKN070 BKN170 02/00 A3005 RMK AO2 SLP185 T00220000 $=
200603131256 METAR KSEA 131256Z 13004KT 10SM BKN070 BKN170 02/00 A3006 RMK AO2 SLP188 T00170000 $=
200603131156 METAR KSEA 131156Z 15006KT 10SM FEW025 SCT060 SCT170 02/00 A3007 RMK AO2 SLP192 T00170000 10039 20006 58004 $=
200603131056 METAR KSEA 131056Z 15005KT 10SM FEW055 SCT170 01/00 A3008 RMK AO2 SLP196 T00060000 $=
200603130956 METAR KSEA 130956Z 18006KT 10SM FEW017 SCT050 SCT170 02/02 A3009 RMK AO2 SLP199 T00220017 $=
200603130856 METAR KSEA 130856Z 19008KT 10SM SCT180 03/01 A3009 RMK AO2 SLP196 T00330011 51003 $=
200603130756 METAR KSEA 130756Z 19008KT 10SM FEW110 SCT190 03/01 A3008 RMK AO2 SLP195 T00280011 401061006 $=
200603130656 METAR KSEA 130656Z 19005KT 10SM FEW100 SCT200 03/01 A3008 RMK AO2 SLP196 T00330011 $=
200603130556 METAR KSEA 130556Z 20006KT 10SM SCT080 SCT200 04/01 A3008 RMK AO2 SLP194 T00390011 10089 20033 53012 $=
200603130456 METAR KSEA 130456Z 21005KT 10SM SCT075 SCT200 04/02 A3006 RMK AO2 SLP190 T00440022 $=
200603130356 METAR KSEA 130356Z 16003KT 10SM BKN075 BKN200 05/01 A3005 RMK AO2 SLP186 T00500011 $=
200603130256 METAR KSEA 130256Z 00000KT 10SM SCT065 SCT200 07/01 A3004 RMK AO2 SLP182 T00670006 53007 $=
200603130156 METAR KSEA 130156Z 35003KT 10SM FEW050 SCT150 BKN200 07/01 A3003 RMK AO2 SLP179 T00720006 $=
200603130056 METAR KSEA 130056Z 30005KT 10SM FEW040 SCT150 BKN200 08/01 A3002 RMK AO2 SLP176 T00780011 $=
200603122356 METAR KSEA 122356Z 27004KT 10SM FEW035 SCT150 BKN230 08/00 A3002 RMK AO2 SLP175 VCSH W T00830000 10106 20061 53006 $=
200603122256 METAR KSEA 122256Z 28006KT 10SM FEW035 SCT250 10/M01 A3001 RMK AO2 SLP171 VCSH W T01001011 $=
200603122156 METAR KSEA 122156Z VRB06KT 10SM FEW030 SCT250 10/00 A3001 RMK AO2 SLP169 T01000000 $=
200603122056 METAR KSEA 122056Z 33005KT 10SM FEW030 SCT250 09/02 A3000 RMK AO2 SLP168 T00940022 50004 $=
200603121956 METAR KSEA 121956Z VRB05KT 10SM FEW030 SCT250 08/M01 A3000 RMK AO2 SLP168 T00781011 $=
200603121856 METAR KSEA 121856Z 36008KT 10SM FEW030 SCT250 07/00 A3000 RMK AO2 SLP166 T00670000 $=
200603121756 METAR KSEA 121756Z 02009KT 350V060 10SM FEW250 06/M01 A2999 RMK AO2 SLP163 T00611006 10061 21006 51013 $=
200603121656 METAR KSEA 121656Z 00000KT 10SM FEW250 04/M01 A2998 RMK AO2 SLP163 T00441011 $=
200603121556 METAR KSEA 121556Z 14003KT 10SM FEW150 SCT250 02/M02 A2997 RMK AO2 SLP157 T00221017 $=
200603121456 METAR KSEA 121456Z 00000KT 10SM SCT150 01/M02 A2995 RMK AO2 SLP151 T00061017 51015 $=
200603121356 METAR KSEA 121356Z 08007KT 10SM FEW140 SCT190 00/M02 A2994 RMK AO2 SLP146 T00001017 $=
200603121256 METAR KSEA 121256Z 06008KT 10SM SCT190 00/M01 A2992 RMK AO2 SLP142 T00001011 $=
200603121156 METAR KSEA 121156Z 03008KT 10SM FEW150 SCT200 01/M01 A2990 RMK AO2 SLP135 T00111006 10044 20011 53007 $=
200603121056 METAR KSEA 121056Z 04009KT 10SM FEW140 SCT190 01/01 A2989 RMK AO2 SLP131 T00110006 $=
200603120956 METAR KSEA 120956Z 01009KT 10SM SCT180 02/01 A2989 RMK AO2 SLP131 T00170011 $=
200603120856 METAR KSEA 120856Z 01004KT 10SM FEW110 SCT190 02/01 A2988 RMK AO2 SLP128 T00220011 51011 $=
200603120756 METAR KSEA 120756Z 06004KT 10SM SCT180 03/01 A2987 RMK AO2 SLP124 T00280011 400890011 $=
200603120656 METAR KSEA 120656Z 03008KT 10SM FEW100 SCT200 04/01 A2986 RMK AO2 SLP121 T00390011 $=
200603120556 METAR KSEA 120556Z 03008KT 10SM SCT100 SCT200 04/03 A2985 RMK AO2 SLP117 T00440028 10072 20044 51014 $=
200603120456 METAR KSEA 120456Z 04013KT 10SM FEW100 SCT200 05/02 A2984 RMK AO2 SLP114 T00500022 $=
200603120356 METAR KSEA 120356Z 03009KT 10SM FEW100 SCT200 05/02 A2983 RMK AO2 SLP109 T00500017 $=
200603120256 METAR KSEA 120256Z 01010KT 10SM FEW050 BKN100 BKN200 06/01 A2981 RMK AO2 SLP102 T00560011 53013 $=
200603120156 METAR KSEA 120156Z 36009KT 10SM FEW045 SCT100 BKN160 BKN200 07/00 A2979 RMK AO2 SLP095 T00670000 $=
200603120056 METAR KSEA 120056Z 36009KT 10SM FEW045 SCT070 BKN080 BKN200 07/01 A2977 RMK AO2 SLP091 T00720006 $=
200603112356 METAR KSEA 112356Z 36009KT 10SM FEW044 SCT070 BKN130 BKN200 08/01 A2977 RMK AO2 SLP089 T00780006 10089 20033 53006 $=
200603112256 METAR KSEA 112256Z 36009KT 10SM FEW025 SCT120 BKN220 08/00 A2976 RMK AO2 SLP085 T00780000 $=
200603112156 METAR KSEA 112156Z 36009KT 10SM FEW020 SCT150 BKN230 08/00 A2975 RMK AO2 SLP082 T00830000 $=
200603112056 METAR KSEA 112056Z 36009KT 10SM FEW020 SCT150 BKN250 08/01 A2975 RMK AO2 SLP083 T00780006 50001 $=
200603111956 METAR KSEA 111956Z 02007KT 10SM FEW020 SCT120 BKN250 07/01 A2975 RMK AO2 SLP084 T00670006 $=
200603111856 METAR KSEA 111856Z 03005KT 7SM FEW006 SCT020 BKN250 05/02 A2975 RMK AO2 SLP083 T00500022 $=
200603111848 SPECI KSEA 111848Z 34005KT 7SM FEW005 SCT020 BKN250 04/02 A2975 RMK AO2 $=
200603111848 SPECI KSEA 111848Z 34005KT 7SM FEW005 SCT020 BKN250 04/02 A2975 RMK AO2 $=
200603111759 SPECI KSEA 111759Z 01004KT 7SM SCT005 BKN020 BKN250 03/02 A2975 RMK AO2 $=
200603111759 SPECI KSEA 111759Z 01004KT 7SM SCT005 BKN020 BKN250 03/02 A2975 RMK AO2 $=
200603111756 METAR KSEA 111756Z 36004KT 5SM BR BKN005 BKN020 BKN250 03/02 A2975 RMK AO2 SLP082 BKN005 V SCT T00330022 10033 20011 51016 $=
200603111656 METAR KSEA 111656Z 03006KT 4SM BR BKN005 BKN020 02/02 A2974 RMK AO2 SLP079 T00220017 $=
200603111556 METAR KSEA 111556Z 00000KT 3SM BR FEW003 BKN005 OVC080 02/02 A2972 RMK AO2 SLP074 T00220017 $=
200603111534 SPECI KSEA 111534Z 00000KT 4SM BR SCT003 BKN005 BKN080 01/01 A2971 RMK AO2 $=
200603111534 SPECI KSEA 111534Z 00000KT 4SM BR SCT003 BKN005 BKN080 01/01 A2971 RMK AO2 $=
200603111530 SPECI KSEA 111530Z 00000KT 4SM BR BKN003 BKN080 01/01 A2971 RMK AO2 $=
200603111530 SPECI KSEA 111530Z 00000KT 4SM BR BKN003 BKN080 01/01 A2971 RMK AO2 $=
200603111504 SPECI KSEA 111504Z 00000KT 3SM BR FEW002 BKN080 BKN110 01/01 A2970 RMK AO2 $=
200603111504 SPECI KSEA 111504Z 00000KT 3SM BR FEW002 BKN080 BKN110 01/01 A2970 RMK AO2 $=
200603111456 METAR KSEA 111456Z 00000KT 2 1/2SM BR SCT002 BKN080 BKN110 01/01 A2970 RMK AO2 SLP067 T00110011 53013 $=
200603111439 SPECI KSEA 111439Z 00000KT 2 1/2SM BR SCT002 BKN110 01/01 A2969=
200603111439 SPECI KSEA 111439Z 00000KT 2 1/2SM BR SCT002 BKN110 01/01 A2969 RMK AO2 $=
200603111356 METAR KSEA 111356Z 00000KT 4SM BR BKN004 OVC008 02/02 A2968 RMK AO2 SLP061 T00170017 $=
200603111303 SPECI KSEA 111303Z 00000KT 4SM BR BKN004 OVC110 01/01 A2967 RMK AO2 $=
200603111303 SPECI KSEA 111303Z 00000KT 4SM BR BKN004 OVC110 01/01 A2967 RMK AO2 $=
200603111256 METAR KSEA 111256Z 00000KT 4SM BR SCT004 BKN008 OVC110 02/02 A2967 RMK AO2 SLP057 T00170017 $=
200603111232 SPECI KSEA 111232Z 06003KT 6SM BR FEW004 BKN008 OVC110 02/02 A2966 RMK AO2 $=
200603111232 SPECI KSEA 111232Z 06003KT 6SM BR FEW004 BKN008 OVC110 02/02 A2966 RMK AO2 $=
200603111156 METAR KSEA 111156Z 07003KT 4SM BR BKN010 BKN100 02/02 A2966 RMK AO2 SLP053 7//// T00170017 10022 20011 51002 $=
200603111146 SPECI KSEA 111146Z 06004KT 4SM BR FEW005 SCT010 BKN100 01/01 A2966 RMK AO2 $=
200603111146 SPECI KSEA 111146Z 06004KT 4SM BR FEW005 SCT010 BKN100 01/01 A2966 RMK AO2 $=
200603111135 SPECI KSEA 111135Z 05003KT 2SM BR OVC003 02/02 A2966 RMK AO2 VIS 1 1/2V3 $=
200603111135 SPECI KSEA 111135Z 05003KT 2SM BR OVC003 02/02 A2966 RMK AO2 VIS 1 1/2V3 $=
200603111056 METAR KSEA 111056Z 00000KT 4SM BR FEW001 OVC003 02/02 A2966 RMK AO2 SLP052 T00170017 $=
200603111033 SPECI KSEA 111033Z 05004KT 2 1/2SM BR BKN003 OVC016 02/02 A2966 RMK AO2 $=
200603111033 SPECI KSEA 111033Z 05004KT 2 1/2SM BR BKN003 OVC016 02/02 A2966 RMK AO2 $=
200603110956 METAR KSEA 110956Z 06004KT 3SM BR BKN006 BKN018 OVC110 02/02 A2966 RMK AO2 SLP053 T00220022 $=
200603110921 SPECI KSEA 110921Z 00000KT 8SM FEW008 BKN018 BKN110 02/02 A2966 RMK AO2 $=
200603110921 SPECI KSEA 110921Z 00000KT 8SM FEW008 BKN018 BKN110 02/02 A2966 RMK AO2 $=
200603110856 METAR KSEA 110856Z 00000KT 10SM BKN008 BKN075 02/02 A2965 RMK AO2 SLP051 T00220017 51014 $=
200603110756 METAR KSEA 110756Z 00000KT 9SM BKN008 BKN070 OVC080 02/02 A2965 RMK AO2 SLP048 T00170017 400830000 $=
200603110656 METAR KSEA 110656Z 00000KT 6SM BR FEW006 OVC060 02/02 A2963 RMK AO2 SLP044 T00220017 $=
200603110556 METAR KSEA 110556Z 03009KT 6SM BR FEW007 SCT045 OVC070 02/02 A2961 RMK AO2 SLP036 6//// T00220022 10056 20011 53010 $=
200603110456 METAR KSEA 110456Z 01005KT 6SM BR SCT004 SCT060 OVC085 02/02 A2960 RMK AO2 SLP031 T00220022 $=
200603110414 SPECI KSEA 110414Z 04007KT 9SM FEW006 BKN055 OVC070 02/02 A2959 RMK AO2 $=
200603110414 SPECI KSEA 110414Z 04007KT 9SM FEW006 BKN055 OVC070 02/02 A2959 RMK AO2 $=
200603110356 METAR KSEA 110356Z 05004KT 9SM FEW010 SCT060 OVC080 02/02 A2959 RMK AO2 SLP030 P0000 T00220022 $=
200603110256 METAR KSEA 110256Z 01004KT 9SM FEW030 SCT060 BKN085 BKN200 02/02 A2958 RMK AO2 SLP027 CB DSNT N 6//// T00170017 51014 $=
200603110156 METAR KSEA 110156Z 36004KT 10SM FEW011 SCT020CB SCT040 BKN200 02/02 A2957 RMK AO2 RAE45SNE42 SLP022 CB NW-N-E MOV N CB DSNT W T00170017 $=
200603110142 SPECI KSEA 110142Z 35007KT 9SM -RA FEW006 SCT012CB BKN040 BKN200 02/02 A2956 RMK AO2 SNE42 CB N-E-SE MOV N CB DSNT W $=
200603110142 SPECI KSEA 110142Z 35007KT 9SM -RA FEW006 SCT012CB BKN040 BKN200 02/02 A2956 RMK AO2 SNE42 CB N-E-SE MOV N CB DSNT W $=
200603110124 SPECI KSEA 110124Z 34007KT 3SM -RASN BR SCT006 BKN014CB OVC035 02/02 A2956 RMK AO2 CB N MOV N PNO $=
200603110124 SPECI KSEA 110124Z 34007KT 3SM -RASN BR SCT006 BKN014CB OVC035 02/02 A2956 RMK AO2 CB N MOV N PNO $=
200603110056 METAR KSEA 110056Z 28007KT 7SM -RASN FEW015 BKN020CB OVC035 02/02 A2957 RMK AO2 TSB03E20B31E56SNE20B56 SLP022 TS OHD MOV N CB OHD MOV N T00220017 $=
200603110031 SPECI KSEA 110031Z 24012KT 10SM -TSRA FEW015 BKN029 OVC041 03/02 A2955 RMK AO2 TSB03E20B31SNE20 TS OHD MOV NE OCNL LTGIC OHD VIRGA ALQDS PNO $=
200603110031 SPECI KSEA 110031Z 24012KT 10SM -TSRA FEW015 BKN029 OVC041 03/02 A2955 RMK AO2 TSB03E20B31SNE20 TS OHD MOV NE OCNL LTGIC OHD VIRGA ALQDS PNO $=
200603110026 SPECI KSEA 110026Z 23010KT 10SM FEW015 BKN029 OVC041 03/02 A2955 RMK AO2 TSB03E20RAE26SNE20 TS SW MOV NW VIRGA ALQDS PNO $=
200603110026 SPECI KSEA 110026Z 23010KT 10SM FEW015 BKN029 OVC041 03/02 A2955 RMK AO2 TSB03E20RAE26SNE20 TS SW MOV NW VIRGA ALQDS PNO $=
200603110009 SPECI KSEA 110009Z 28008KT 6SM -TSRASN FEW015 BKN025 OVC037 04/01 A2954 RMK AO2 TSB03 TS SW MOV N OCNL LTGCG SSW PNO $=
200603110009 SPECI KSEA 110009Z 28008KT 6SM -TSRASN FEW015 BKN025 OVC037 04/01 A2954 RMK AO2 TSB03 TS SW MOV N OCNL LTGCG SSW PNO $=
200603102356 METAR KSEA 102356Z VRB04KT 7SM -RASN FEW016 BKN032 OVC041 06/M01 A2954 RMK AO2 RAB36SNB56 SLP011 P0000 60000 T00561011 10083 20039 53008=
200603102256 METAR KSEA 102256Z 31009KT 10SM SCT030CB SCT050 BKN110 OVC200 07/M01 A2951 RMK AO2 SLP003 CB NE-E-SE CB DSNT S-SW-NW T00671006=
200603102156 METAR KSEA 102156Z 32009KT 10SM FEW030TCU SCT040 SCT070 BKN200 08/01 A2951 RMK AO2 SLP001 TCU SE T00780011=
200603102056 METAR KSEA 102056Z VRB04KT 10SM SCT037 BKN045 BKN055 BKN200 07/00 A2952 RMK AO2 SLP003 T00670000 58005=
200603101956 METAR KSEA 101956Z 35006KT 10SM SCT028 SCT033 BKN200 05/02 A2952 RMK AO2 SLP006 T00500017=
200603101856 METAR KSEA 101856Z 35003KT 10SM FEW020 BKN200 05/01 A2953 RMK AO2 SLP007 T00500006=
200603101756 METAR KSEA 101756Z 00000KT 10SM SCT014 SCT200 04/01 A2953 RMK AO2 SLP009 T00390011 10044 20000 53008=
200603101721 SPECI KSEA 101721Z 31003KT 10SM FEW008 SCT011 SCT018 BKN200 03/01 A2953=
200603101721 SPECI KSEA 101721Z 31003KT 10SM FEW008 SCT011 SCT018 BKN200 03/01 A2953 RMK AO2=
200603101656 METAR KSEA 101656Z 00000KT 10SM FEW008 SCT011 BKN018 BKN200 03/01 A2952 RMK AO2 SLP007 T00280011=
200603101640 SPECI KSEA 101640Z 00000KT 9SM FEW008 BKN011 BKN200 02/01 A2952 RMK AO2=
200603101640 SPECI KSEA 101640Z 00000KT 9SM FEW008 BKN011 BKN200 02/01 A2952 RMK AO2=
200603101630 SPECI KSEA 101630Z 00000KT 9SM BKN011 BKN200 02/01 A2952 RMK AO2=
200603101630 SPECI KSEA 101630Z 00000KT 9SM BKN011 BKN200 02/01 A2952 RMK AO2=
200603101556 METAR KSEA 101556Z 00000KT 10SM SCT013 SCT150 SCT200 02/01 A2951 RMK AO2 SLP002 T00170006=
200603101456 METAR KSEA 101456Z 17003KT 7SM FEW005 BKN010 OVC120 01/01 A2951 RMK AO2 SLP001 T00060006 52010=
200603101440 SPECI KSEA 101440Z 18004KT 7SM SCT005 OVC012 01/01 A2950 RMK AO2=
200603101440 SPECI KSEA 101440Z 18004KT 7SM SCT005 OVC012 01/01 A2950 RMK AO2=
200603101418 SPECI KSEA 101418Z 17004KT 7SM BKN005 OVC012 01/01 A2950 RMK AO2=
200603101418 SPECI KSEA 101418Z 17004KT 7SM BKN005 OVC012 01/01 A2950 RMK AO2=
200603101356 METAR KSEA 101356Z 17003KT 7SM SCT005 OVC010 01/01 A2950 RMK AO2 SLP998 T00060006=
200603101317 SPECI KSEA 101317Z 17005KT 7SM SCT008 OVC014 01/01 A2949 RMK AO2=
200603101317 SPECI KSEA 101317Z 17005KT 7SM SCT008 OVC014 01/01 A2949 RMK AO2=
200603101256 METAR KSEA 101256Z 17005KT 7SM FEW005 OVC008 01/01 A2948 RMK AO2 SLP994 T00060006=
200603101228 SPECI KSEA 101228Z 17003KT 7SM FEW005 BKN008 01/01 A2948 RMK AO2=
200603101228 SPECI KSEA 101228Z 17003KT 7SM FEW005 BKN008 01/01 A2948 RMK AO2=
200603101156 METAR KSEA 101156Z 16003KT 7SM SCT005 BKN010 00/00 A2948 RMK AO2 SLP991 60000 70010 T00000000 10022 20000 50001=
200603101148 SPECI KSEA 101148Z 17003KT 7SM SCT005 BKN010 01/01 A2948=
200603101148 SPECI KSEA 101148Z 17003KT 7SM SCT005 BKN010 01/01 A2948 RMK AO2=
200603101120 SPECI KSEA 101120Z 15004KT 7SM BKN005 BKN010 01/01 A2947 RMK AO2=
200603101120 SPECI KSEA 101120Z 15004KT 7SM BKN005 BKN010 01/01 A2947 RMK AO2=
200603101056 METAR KSEA 101056Z 16004KT 2SM BR OVC005 01/01 A2948 RMK AO2 SFC VIS 3 SLP992 T00060006=
200603100956 METAR KSEA 100956Z 18007KT 2SM BR BKN005 OVC012 01/01 A2948 RMK AO2 SFC VIS 4 SLP990 T00110011=
200603100856 METAR KSEA 100856Z 17007KT 10SM FEW005 BKN012 01/01 A2947 RMK AO2 SLP989 60000 T00060006 58004=
200603100828 SPECI KSEA 100828Z 19009KT 10SM FEW005 BKN011 01/01 A2947=
200603100828 SPECI KSEA 100828Z 19009KT 10SM FEW005 BKN011 01/01 A2947 RMK AO2=
200603100807 SPECI KSEA 100807Z 18010KT 10SM FEW005 OVC008 02/02 A2947 RMK AO2=
200603100807 SPECI KSEA 100807Z 18010KT 10SM FEW005 OVC008 02/02 A2947 RMK AO2=
200603100756 METAR KSEA 100756Z 18009KT 10SM FEW006 OVC010 02/02 A2948 RMK AO2 RAE18SNB0658E05 SLP990 P0000 T00170017 400500011=
200603100703 SPECI KSEA 100703Z 20007KT 7SM -RASN FEW006 BKN011 OVC018 02/02 A2949 RMK AO2 SNB0658 P0000=
200603100703 SPECI KSEA 100703Z 20007KT 7SM -RASN FEW006 BKN011 OVC018 02/02 A2949 RMK AO2 SNB0658 P0000=
200603100656 METAR KSEA 100656Z 19008KT 7SM -RA BKN010 OVC016 02/02 A2949 RMK AO2 RAE02B30 SLP995 P0000 T00170017=
200603100556 METAR KSEA 100556Z 19008KT 10SM -RA FEW012 BKN020 OVC030 02/02 A2949 RMK AO2 RAE02B50 SLP995 P0001 60005 T00170017 10028 20011 56011=
200603100536 SPECI KSEA 100536Z 20011KT 10SM SCT012 BKN018 OVC031 02/01 A2949 RMK AO2 RAE02 P0001=
200603100536 SPECI KSEA 100536Z 20011KT 10SM SCT012 BKN018 OVC031 02/01 A2949 RMK AO2 RAE02 P0001=
200603100520 SPECI KSEA 100520Z 17008KT 10SM FEW012 SCT022 OVC031 02/02 A2949 RMK AO2 RAE02 P0001=
200603100520 SPECI KSEA 100520Z 17008KT 10SM FEW012 SCT022 OVC031 02/02 A2949 RMK AO2 RAE02 P0001=
200603100456 METAR KSEA 100456Z 19007KT 10SM -RA FEW009 BKN012 OVC024 02/02 A2950 RMK AO2 RAB02 SLP997 P0000 T00170017=
200603100430 SPECI KSEA 100430Z 19009KT 10SM -RA FEW010 BKN015 OVC022 02/02 A2950 RMK AO2 RAB02 P0000=
200603100430 SPECI KSEA 100430Z 19009KT 10SM -RA FEW010 BKN015 OVC022 02/02 A2950 RMK AO2 RAB02 P0000=
200603100356 METAR KSEA 100356Z 19007KT 10SM SCT028 BKN037 OVC090 02/01 A2950 RMK AO2 SLP000 T00170011=
200603100333 SPECI KSEA 100333Z 17008KT 10SM SCT010 BKN024 BKN037 02/02 A2952 RMK AO2=
200603100333 SPECI KSEA 100333Z 17008KT 10SM SCT010 BKN024 BKN037 02/02 A2952 RMK AO2=
200603100311 SPECI KSEA 100311Z 18009KT 10SM FEW007 BKN012 BKN022 02/02 A2952 RMK AO2=
200603100311 SPECI KSEA 100311Z 18009KT 10SM FEW007 BKN012 BKN022 02/02 A2952 RMK AO2=
200603100256 METAR KSEA 100256Z 19009KT 10SM SCT010 BKN017 OVC050 01/01 A2952 RMK AO2 RAE56SNE52 SLP006 BINOVC P0002 60004 T00110011 56013=
200603100231 SPECI KSEA 100231Z 18010KT 2SM -RASN SCT008 BKN023 OVC050 01/01 A2952 RMK AO2 SFC VIS 7 P0002=
200603100231 SPECI KSEA 100231Z 18010KT 2SM -RASN SCT008 BKN023 OVC050 01/01 A2952 RMK AO2 SFC VIS 7 P0002=
200603100216 SPECI KSEA 100216Z 18009KT 2SM -RASN BR SCT008 BKN011 OVC038 01/01 A2952 RMK AO2 SFC VIS 6 P0001=
200603100216 SPECI KSEA 100216Z 18009KT 2SM -RASN BR SCT008 BKN011 OVC038 01/01 A2952 RMK AO2 SFC VIS 6 P0001=
200603100156 METAR KSEA 100156Z 19011KT 6SM -RASN BR BKN008 BKN012 OVC017 02/02 A2953 RMK AO2 SNB49 SLP010 P0002 T00170017=
200603100056 METAR KSEA 100056Z 20008G18KT 6SM -RA BR FEW015 BKN029 OVC065 03/02 A2954 RMK AO2 SLP013 RAB2357E03B21E31B50SNE2357 P0000 T00280022=
200603100016 SPECI KSEA 100016Z 20010KT 10SM FEW008 SCT032 BKN080 BKN200 02/02 A2955 RMK AO2 RAB2357E03SNE2357 P0000 $=
200603100016 SPECI KSEA 100016Z 20010KT 10SM FEW008 SCT032 BKN080 BKN200 02/02 A2955 RMK AO2 RAB2357E03SNE2357 P0000 $=
200603100004 SPECI KSEA 100004Z 20009KT 10SM SCT018 BKN055 OVC075 02/02 A2956 RMK AO2 RAB2357E03SNE2357 P0000=
200603100004 SPECI KSEA 100004Z 20009KT 10SM SCT018 BKN055 OVC075 02/02 A2956 RMK AO2 RAB2357E03SNE2357 P0000=
200603092356 METAR KSEA 092356Z 20009KT 3SM -SN BR FEW005 BKN010 BKN090 BKN200 02/02 A2956 RMK AO2 SFC VIS 6 RAE29SNB18 SLP019 P0004 60004 T00170017 10050 20011 58005=
200603092331 SPECI KSEA 092331Z 24011KT 2SM R16R/4000VP6000FT -SN BR FEW003 BKN008 OVC015 02/01 A2957 RMK AO2 RAE29SNB18 P0002=
200603092331 SPECI KSEA 092331Z 24011KT 2SM R16R/4000VP6000FT -SN BR FEW003 BKN008 OVC015 02/01 A2957 RMK AO2 RAE29SNB18 P0002=
200603092315 SPECI KSEA 092315Z 23011G18KT 2SM -RA BR SCT008 BKN013 OVC021 02/01 A2958 RMK AO2 SFC VIS 6 P0000=
200603092315 SPECI KSEA 092315Z 23011G18KT 2SM -RA BR SCT008 BKN013 OVC021 02/01 A2958 RMK AO2 SFC VIS 6 P0000=
200603092256 METAR KSEA 092256Z 24016G21KT 10SM -RA FEW019 BKN025 BKN070 BKN130 OVC150 03/01 A2958 RMK AO2 RAB53 SLP024 VCSH SW MOV NE P0000 T00280011=
200603092241 SPECI KSEA 092241Z 23015G20KT 10SM SCT022 BKN090 04/01 A2957 RMK AO2=
200603092241 SPECI KSEA 092241Z 23015G20KT 10SM SCT022 BKN090 04/01 A2957 RMK AO2=
200603092229 SPECI KSEA 092229Z 22012G19KT 10SM BKN024 04/02 A2956 RMK AO2=
200603092229 SPECI KSEA 092229Z 22012G19KT 10SM BKN024 04/02 A2956 RMK AO2=
200603092156 METAR KSEA 092156Z 23018G26KT 10SM SCT021 BKN080 BKN150 OVC200 04/01 A2956 RMK AO2 PK WND 21026/2151 SLP020 T00440011=
200603092056 METAR KSEA 092056Z 22015G22KT 10SM SCT018 BKN025 BKN032 BKN200 04/02 A2957 RMK AO2 PK WND 20026/2037 SLP023 60000 T00440017 58014=
200603092013 SPECI KSEA 092013Z 21016G24KT 10SM SCT014 BKN017 BKN025 OVC200 04/02 A2959 RMK AO2=
200603092013 SPECI KSEA 092013Z 21016G24KT 10SM SCT014 BKN017 BKN025 OVC200 04/02 A2959 RMK AO2=
200603091956 METAR KSEA 091956Z 21012KT 10SM BKN014 BKN023 OVC200 03/02 A2960 RMK AO2 SLP031 T00330017=
200603091915 SPECI KSEA 091915Z 20017G22KT 10SM SCT009 BKN014 OVC022 03/02 A2960 RMK AO2 BINOVC SE=
200603091915 SPECI KSEA 091915Z 20017G22KT 10SM SCT009 BKN014 OVC022 03/02 A2960 RMK AO2 BINOVC SE=
200603091856 METAR KSEA 091856Z 20012G19KT 10SM BKN009 BKN016 OVC020 03/02 A2960 RMK AO2 RAE08SNE08 CIG 007V012 SLP034 BINOVC SE P0000 T00280017=
200603091756 METAR KSEA 091756Z 20014KT 3SM -SNRA BKN007 OVC011 02/02 A2962 RMK AO2 SFC VIS 9 RAE13B51UPB38E40SNE38B40 CIG 005V010 SLP038 OCNL BINOVC SE P0001 60001 T00170017 10017 20011 56013=
200603091656 METAR KSEA 091656Z 20014KT 10SM -SNRA BKN007 BKN012 02/01 A2963 RMK AO2 RAB54SNB54 SLP044 P0000 T00170011=
200603091629 SPECI KSEA 091629Z 21014KT 10SM FEW006 BKN009 BKN017 OVC150 02/01 A2963 RMK AO2=
200603091629 SPECI KSEA 091629Z 21014KT 10SM FEW006 BKN009 BKN017 OVC150 02/01 A2963 RMK AO2=
200603091556 METAR KSEA 091556Z 22018G23KT 10SM FEW006 SCT009 BKN014 BKN150 OVC200 02/01 A2964 RMK AO2 SLP045 T00170011=
200603091456 METAR KSEA 091456Z 22018G24KT 10SM FEW008 BKN014 BKN050 BKN180 02/00 A2965 RMK AO2 SLP051 T00170000 58012=
200603091449 SPECI KSEA 091449Z 22017G21KT 10SM SCT008 BKN014 BKN050 OVC180 02/00 A2966=
200603091449 SPECI KSEA 091449Z 22017G21KT 10SM SCT008 BKN014 BKN050 OVC180 02/00 A2966 RMK AO2=
200603091424 SPECI KSEA 091424Z 18009KT 10SM BKN008 BKN014 BKN050 OVC180 02/01 A2967 RMK AO2=
200603091424 SPECI KSEA 091424Z 18009KT 10SM BKN008 BKN014 BKN050 OVC180 02/01 A2967 RMK AO2=
200603091356 METAR KSEA 091356Z 20012G19KT 10SM SCT008 BKN012 BKN020 01/01 A2967 RMK AO2 SLP055 T00110011=
200603091256 METAR KSEA 091256Z 23010KT 10SM BKN014 OVC026 02/01 A2968 RMK AO2 SLP061 T00170011=
200603091156 METAR KSEA 091156Z 23014G18KT 10SM SCT014 BKN023 BKN130 01/00 A2969 RMK AO2 SLP063 70038 T00110000 10022 20011 58004=
200603091100 SPECI KSEA 091100Z 22014G20KT 10SM SCT014 BKN020 BKN130 02/01 A2970 RMK AO2=
200603091100 SPECI KSEA 091100Z 22014G20KT 10SM SCT014 BKN020 BKN130 02/01 A2970 RMK AO2=
200603091056 METAR KSEA 091056Z 23012G20KT 10SM BKN013 BKN022 BKN130 02/01 A2970 RMK AO2 SLP065 T00220006=
200603091003 SPECI KSEA 091003Z 21007KT 10SM BKN013 BKN021 BKN060 OVC130 02/01 A2971 RMK AO2 $=
200603091003 SPECI KSEA 091003Z 21007KT 10SM BKN013 BKN021 BKN060 OVC130 02/01 A2971 RMK AO2 $=
200603090956 METAR KSEA 090956Z 24009KT 10SM BKN015 BKN023 BKN060 OVC130 02/01 A2971 RMK AO2 SLP068 T00170006 $=
200603090903 SPECI KSEA 090903Z 23018G24KT 10SM BKN020 02/00 A2970 RMK AO2=
200603090903 SPECI KSEA 090903Z 23018G24KT 10SM BKN020 02/00 A2970 RMK AO2=
200603090856 METAR KSEA 090856Z 23018G22KT 10SM SCT018 SCT040 BKN100 02/00 A2970 RMK AO2 PK WND 22027/0833 SLP067 T00220000 51013=
200603090756 METAR KSEA 090756Z 24016G22KT 10SM FEW020 SCT100 02/M01 A2969 RMK AO2 SLP062 T00221006 400560011=
200603090656 METAR KSEA 090656Z 25011G20KT 10SM SCT020 02/M01 A2968 RMK AO2 SLP059 T00171006=
200603090556 METAR KSEA 090556Z 25011KT 10SM SCT017 SCT130 02/M01 A2966 RMK AO2 SLP053 60003 T00221006 10050 20017 53037=
200603090534 SPECI KSEA 090534Z 24010G19KT 10SM BKN017 BKN130 02/00 A2964 RMK AO2=
200603090534 SPECI KSEA 090534Z 24010G19KT 10SM BKN017 BKN130 02/00 A2964 RMK AO2=
200603090456 METAR KSEA 090456Z 23011G25KT 10SM SCT019 BKN130 02/01 A2962 RMK AO2 PK WND 23028/0358 SLP038 T00220006=
200603090356 METAR KSEA 090356Z 23017G29KT 10SM FEW020 BKN130 02/00 A2959 RMK AO2 PK WND 23031/0258 SLP030 CB DSNT N T00220000=
200603090325 SPECI KSEA 090325Z 23016G28KT 10SM SCT019 SCT030 SCT120 03/00 A2957 RMK AO2 PK WND 23031/0258 CB DSNT N=
200603090325 SPECI KSEA 090325Z 23016G28KT 10SM SCT019 SCT030 SCT120 03/00 A2957 RMK AO2 PK WND 23031/0258 CB DSNT N=
200603090256 METAR KSEA 090256Z 24018G29KT 10SM FEW020CB BKN021 BKN120 03/01 A2955 RMK AO2 PK WND 24037/0210 RAB14E23 SLP016 CB NW MOV NE P0000 60003 T00280011 51020=
200603090216 SPECI KSEA 090216Z 23024G37KT 10SM -RA SCT021 BKN027 BKN100 03/02 A2954=
200603090216 SPECI KSEA 090216Z 23024G37KT 10SM -RA SCT021 BKN027 BKN100 03/02 A2954 RMK AO2 PK WND 24037/0210 RAB14 P0000=
200603090156 METAR KSEA 090156Z 22022G32KT 10SM FEW015 SCT025 SCT100 04/02 A2954 RMK AO2 PK WND 24032/0151 RAB21E36 SLP012 CB DSNT N-E P0001 T00390022=
200603090145 SPECI KSEA 090145Z 22020G30KT 10SM FEW014 SCT024 BKN100 04/03 A2954=
200603090145 SPECI KSEA 090145Z 22020G30KT 10SM FEW014 SCT024 BKN100 04/03 A2954 RMK AO2 PK WND 22030/0143 RAB21E36 CB DSNT N-E P0001=
200603090119 SPECI KSEA 090119Z 22015G27KT 10SM SCT018 BKN026 BKN120 04/04 A2954=
200603090119 SPECI KSEA 090119Z 22015G27KT 10SM SCT018 BKN026 BKN120 04/04 A2954 RMK AO2 PK WND 23030/0100 PRESRR=
200603090105 SPECI KSEA 090105Z 22023G30KT 10SM FEW009 SCT022 05/03 A2953 RMK AO2 PK WND 23030/0100=
200603090105 SPECI KSEA 090105Z 22023G30KT 10SM FEW009 SCT022 05/03 A2953 RMK AO2 PK WND 23030/0100=
200603090056 METAR KSEA 090056Z 21015G25KT 10SM FEW011 SCT015 BKN021 BKN200 04/04 A2951 RMK AO2 PK WND 22038/0000 RAE48 SLP002 CB DSNT N P0002 T00440039=
200603082356 METAR KSEA 082356Z 21027G46KT 4SM -RA BR BKN015 OVC021 04/04 A2949 RMK AO2 PK WND 23046/2348 SLP996 P0009 60030 T00440039 10056 20044 55041=
200603082256 METAR KSEA 082256Z 19016G26KT 7SM -RA SCT020 OVC025 06/05 A2947 RMK AO2 PK WND 18026/2247 SLP988 P0005 T00560050=
200603082156 METAR KSEA 082156Z 19013KT 7SM -RA SCT020 OVC025 06/04 A2954 RMK AO2 PRESFR SLP012 P0005 T00560044=
200603082056 METAR KSEA 082056Z 18014G20KT 9SM -RA SCT020 BKN025 OVC030 06/04 A2962 RMK AO2 PRESFR SLP037 P0004 60011 T00560044 58073=
200603081956 METAR KSEA 081956Z 17015G22KT 6SM -RA BR SCT015 OVC023 06/04 A2971 RMK AO2 PRESFR SLP068 P0005 T00560044=
200603081856 METAR KSEA 081856Z 17019KT 9SM -RA SCT020 BKN025 OVC030 05/04 A2977 RMK AO2 SLP090 P0002 T00500039=
200603081756 METAR KSEA 081756Z 18011KT 10SM -RA FEW015 BKN025 OVC030 05/03 A2984 RMK AO2 RAB22 SLP112 P0001 60005 T00500033 10050 20028 58048=
200603081733 SPECI KSEA 081733Z 19008KT 10SM -RA FEW015 BKN028 OVC032 05/03 A2986 RMK AO2 RAB22 PRESFR P0000=
200603081733 SPECI KSEA 081733Z 19008KT 10SM -RA FEW015 BKN028 OVC032 05/03 A2986 RMK AO2 RAB22 PRESFR P0000=
200603081656 METAR KSEA 081656Z 19010KT 10SM FEW015 SCT025 OVC032 05/02 A2989 RMK AO2 SLP130 T00500022=
200603081556 METAR KSEA 081556Z 19009KT 10SM FEW015 SCT025 OVC032 04/02 A2993 RMK AO2 RAE14 SLP144 P0000 T00440022=
200603081546 SPECI KSEA 081546Z 19012KT 10SM FEW025 OVC032 04/02 A2994 RMK AO2 RAE14 P0000=
200603081546 SPECI KSEA 081546Z 19012KT 10SM FEW025 OVC032 04/02 A2994 RMK AO2 RAE14 P0000=
200603081521 SPECI KSEA 081521Z 18013KT 10SM BKN025 OVC030 04/02 A2997 RMK AO2 RAE14 P0000=
200603081521 SPECI KSEA 081521Z 18013KT 10SM BKN025 OVC030 04/02 A2997 RMK AO2 RAE14 P0000=
200603081456 METAR KSEA 081456Z 17009KT 10SM -RA BKN037 OVC045 04/02 A2998 RMK AO2 SLP161 P0000 60004 T00390022 58038=
200603081356 METAR KSEA 081356Z 17008KT 10SM -RA SCT025 BKN030 OVC037 03/03 A3003 RMK AO2 SLP177 P0001 T00280028=
200603081256 METAR KSEA 081256Z 17010KT 10SM -RA BKN018 BKN025 OVC033 03/02 A3006 RMK AO2 SLP189 P0003 T00330022=
200603081207 SPECI KSEA 081207Z 19010KT 10SM -RA SCT020 BKN028 OVC035 04/02 A3009 RMK AO2 P0001=
200603081207 SPECI KSEA 081207Z 19010KT 10SM -RA SCT020 BKN028 OVC035 04/02 A3009 RMK AO2 P0001=
200603081156 METAR KSEA 081156Z 19011KT 10SM -RA FEW020 SCT028 OVC035 04/02 A3009 RMK AO2 SLP199 P0000 60000 70004 T00390017 10044 20033 58020=
200603081056 METAR KSEA 081056Z 21012KT 10SM -RA BKN035 OVC060 04/02 A3011 RMK AO2 RAB24 SLP206 P0000 T00390017=
200603080956 METAR KSEA 080956Z 20007KT 10SM FEW025 SCT035 BKN045 OVC130 04/01 A3014 RMK AO2 SLP215 T00390011=
200603080856 METAR KSEA 080856Z 20009KT 10SM FEW015 BKN055 BKN110 BKN200 04/01 A3015 RMK AO2 SLP219 T00390011 50000=
200603080756 METAR KSEA 080756Z 18009KT 10SM FEW060 SCT200 03/01 A3016 RMK AO2 SLP220 T00330011 401000033=
200603080656 METAR KSEA 080656Z 20011KT 10SM SCT065 SCT130 03/02 A3016 RMK AO2 SLP221 T00330017=
200603080556 METAR KSEA 080556Z 19012KT 10SM BKN065 04/01 A3015 RMK AO2 SLP218 T00440011 10094 20039 51009=
200603080456 METAR KSEA 080456Z 20009KT 10SM FEW031 SCT060 04/01 A3015 RMK AO2 SLP217 T00440011=
200603080356 METAR KSEA 080356Z 23013G17KT 10SM SCT050 05/01 A3013 RMK AO2 SLP212 T00500006=
200603080256 METAR KSEA 080256Z 23010G16KT 10SM SCT045 SCT200 06/M01 A3012 RMK AO2 SLP208 T00561006 53018=
200603080156 METAR KSEA 080156Z 22013KT 10SM SCT043 SCT090 SCT200 07/01 A3010 RMK AO2 SLP202 CB DSNT N T00670006=
200603080056 METAR KSEA 080056Z 23014G21KT 10SM FEW025CB SCT040 SCT090 BKN200 08/01 A3008 RMK AO2 SLP195 CB N MOV N CB E MOV NE T00780006=
200603072356 METAR KSEA 072356Z 24015G22KT 10SM FEW025CB SCT040 SCT090 BKN200 09/02 A3007 RMK AO2 SLP190 CB N MOV N CB SE MOV NE 60004 T00940017 10100 20067 53006=
200603072256 METAR KSEA 072256Z 20016KT 10SM FEW025CB SCT040 SCT090 SCT200 09/05 A3005 RMK AO2 SLP184 CB N-NW T00940050=
200603072222 SPECI KSEA 072222Z 21016G22KT 10SM SCT023TCU BKN035 BKN250 10/06 A3004 RMK AO2 TCU N-NE=
200603072222 SPECI KSEA 072222Z 21016G22KT 10SM SCT023TCU BKN035 BKN250 10/06 A3004 RMK AO2 TCU N-NE=
200603072156 METAR KSEA 072156Z 20014KT 10SM SCT023 BKN029 BKN037 BKN250 08/05 A3004 RMK AO2 SLP182 T00830050=
200603072056 METAR KSEA 072056Z 22013KT 10SM OVC022 07/05 A3005 RMK AO2 SLP184 BINOVC SW 60004 T00720050 51013=
200603071956 METAR KSEA 071956Z 23010KT 10SM BKN020 BKN025 OVC030 08/06 A3004 RMK AO2 RAE22 SLP181 P0001 T00780061=
200603071856 METAR KSEA 071856Z 21010KT 10SM -RA BKN022 OVC026 07/05 A3002 RMK AO2 RAB1759 SLP175 P0003 T00670050=
200603071816 SPECI KSEA 071816Z 20009KT 10SM -RA SCT022 BKN027 OVC032 07/05 A3002 RMK AO2 RAB1759 P0000=
200603071816 SPECI KSEA 071816Z 20009KT 10SM -RA SCT022 BKN027 OVC032 07/05 A3002 RMK AO2 RAB1759 P0000=
200603071756 METAR KSEA 071756Z 20012KT 10SM FEW020 BKN045 OVC060 07/04 A3001 RMK AO2 SLP171 T00720044 10083 20050 51017=
200603071656 METAR KSEA 071656Z 21011KT 10SM FEW014 SCT035 SCT070 BKN200 07/04 A3000 RMK AO2 SLP166 T00720044=
200603071556 METAR KSEA 071556Z 20011KT 10SM FEW014 SCT030 SCT035 BKN200 06/04 A2998 RMK AO2 SLP159 T00560044=
200603071547 SPECI KSEA 071547Z 19011KT 10SM FEW014 SCT028 BKN033 BKN200 05/04 A2997 RMK AO2=
200603071547 SPECI KSEA 071547Z 19011KT 10SM FEW014 SCT028 BKN033 BKN200 05/04 A2997 RMK AO2=
200603071532 SPECI KSEA 071532Z 20010KT 10SM FEW014 BKN024 BKN029 BKN200 06/04 A2997 RMK AO2=
200603071532 SPECI KSEA 071532Z 20010KT 10SM FEW014 BKN024 BKN029 BKN200 06/04 A2997 RMK AO2=
200603071456 METAR KSEA 071456Z 20008KT 10SM SCT026 BKN035 BKN090 BKN200 05/04 A2996 RMK AO2 SLP153 T00500044 51017=
200603071441 SPECI KSEA 071441Z 20008KT 10SM SCT024 BKN030 BKN080 BKN200 05/04 A2995 RMK AO2=
200603071441 SPECI KSEA 071441Z 20008KT 10SM SCT024 BKN030 BKN080 BKN200 05/04 A2995 RMK AO2=
200603071356 METAR KSEA 071356Z 21010KT 10SM FEW015 BKN029 BKN075 BKN200 06/04 A2995 RMK AO2 SLP148 T00560044=
200603071338 SPECI KSEA 071338Z 20010KT 10SM SCT014 BKN029 OVC075 06/04 A2994 RMK AO2=
200603071338 SPECI KSEA 071338Z 20010KT 10SM SCT014 BKN029 OVC075 06/04 A2994 RMK AO2=
200603071256 METAR KSEA 071256Z 21009KT 10SM FEW014 SCT024 BKN035 06/04 A2993 RMK AO2 SLP143 T00560044=
200603071156 METAR KSEA 071156Z 21012KT 10SM FEW014 SCT028 BKN034 BKN200 06/05 A2991 RMK AO2 SLP137 60000 70004 T00560050 10061 20056 53012=
200603071056 METAR KSEA 071056Z 21009KT 10SM SCT028 BKN034 BKN080 BKN200 06/04 A2990 RMK AO2 SLP132 T00560044=
200603070956 METAR KSEA 070956Z 20011KT 10SM BKN030 BKN080 BKN200 06/04 A2989 RMK AO2 SLP127 T00560044=
200603070949 SPECI KSEA 070949Z 20008KT 10SM BKN030 BKN080 BKN200 06/04 A2988 RMK AO2=
200603070949 SPECI KSEA 070949Z 20008KT 10SM BKN030 BKN080 BKN200 06/04 A2988 RMK AO2=
200603070856 METAR KSEA 070856Z 20009KT 10SM SCT016 BKN029 BKN034 OVC130 06/04 A2988 RMK AO2 SLP125 60000 T00560044 51013=
200603070756 METAR KSEA 070756Z 18010KT 10SM BKN016 BKN036 OVC080 06/05 A2987 RMK AO2 RAB0657E53 SLP122 P0000 T00560050 401280056=
200603070656 METAR KSEA 070656Z 20009KT 10SM SCT020 BKN025 OVC034 06/04 A2986 RMK AO2 RAB22E43 SLP117 P0000 T00610044=
200603070556 METAR KSEA 070556Z 19008KT 10SM SCT026 BKN034 OVC040 06/04 A2984 RMK AO2 SLP111 BINOVC 60003 T00610044 10100 20061 53016=
200603070456 METAR KSEA 070456Z 19008KT 10SM SCT030 OVC036 07/04 A2982 RMK AO2 RAB00E14B30E41 SLP105 P0000 T00670044=
200603070356 METAR KSEA 070356Z 18007KT 10SM OVC033 06/05 A2981 RMK AO2 RAB17E49 SLP101 P0001 T00610050=
200603070332 SPECI KSEA 070332Z 17009KT 10SM -RA BKN028 OVC036 06/05 A2980 RMK AO2 RAB17 P0001=
200603070332 SPECI KSEA 070332Z 17009KT 10SM -RA BKN028 OVC036 06/05 A2980 RMK AO2 RAB17 P0001=
200603070256 METAR KSEA 070256Z 18012KT 10SM FEW031 SCT048 BKN080 BKN200 06/05 A2979 RMK AO2 RAE34 SLP095 P0000 60002 T00610050 53019=
200603070234 SPECI KSEA 070234Z 18011KT 10SM FEW019 SCT029 BKN045 BKN200 06/06 A2979 RMK AO2 RAE34 P0000=
200603070234 SPECI KSEA 070234Z 18011KT 10SM FEW019 SCT029 BKN045 BKN200 06/06 A2979 RMK AO2 RAE34 P0000=
200603070156 METAR KSEA 070156Z 21013G18KT 6SM -RA BR FEW021 BKN028 OVC035 07/06 A2978 RMK AO2 RAB32 SLP091 P0002 T00670061=
200603070056 METAR KSEA 070056Z 20016G23KT 10SM FEW030 SCT044 BKN070 BKN200 09/02 A2975 RMK AO2 PK WND 20026/0008 SLP080 T00940017=
200603062356 METAR KSEA 062356Z 20017G23KT 10SM FEW028 SCT040 SCT120 BKN200 09/02 A2974 RMK AO2 PK WND 20027/2334 SLP076 60001 T00940017 10128 20083 53005=
200603062256 METAR KSEA 062256Z 20020G25KT 10SM FEW024 SCT029 SCT035 BKN200 09/05 A2972 RMK AO2 PK WND 21029/2232 SLP072 T00940050=
200603062156 METAR KSEA 062156Z 21025G32KT 10SM FEW030 SCT060 SCT120 BKN200 11/05 A2971 RMK AO2 PK WND 21032/2156 RAE02 SLP068 SH DSNT SE P0000 T01060050=
200603062056 METAR KSEA 062056Z 22014G20KT 10SM -RA FEW030 SCT040 BKN060 BKN130 08/06 A2972 RMK AO2 PK WND 22033/1958 SLP072 P0001 60001 T00830061 53016=
200603061956 METAR KSEA 061956Z 22023G34KT 10SM -RA SCT030 OVC050 10/03 A2970 RMK AO2 PK WND 21034/1956 RAB52 SLP064 BINOVC SE P0000 T01000033=
200603061856 METAR KSEA 061856Z 20016G24KT 10SM SCT050 BKN070 BKN080 BKN200 12/02 A2968 RMK AO2 SLP056 T01170022=
200603061756 METAR KSEA 061756Z 20018G27KT 10SM BKN050 BKN060 BKN120 12/02 A2967 RMK AO2 PK WND 20027/1750 SLP055 T01170022 10122 20089 51011=
200603061656 METAR KSEA 061656Z 19015G23KT 10SM FEW040 SCT120 SCT150 11/02 A2967 RMK AO2 SLP053 T01110022=
200603061556 METAR KSEA 061556Z 20011KT 10SM FEW040 SCT090 BKN120 BKN150 09/03 A2966 RMK AO2 SLP051 T00940028=
200603061456 METAR KSEA 061456Z 19014KT 10SM BKN065 BKN095 OVC160 10/02 A2964 RMK AO2 SLP044 T01000022 53002=
200603061356 METAR KSEA 061356Z 20010KT 10SM BKN075 BKN095 OVC120 11/02 A2964 RMK AO2 SLP044 T01060022=
200603061256 METAR KSEA 061256Z 13005KT 10SM BKN070 BKN080 OVC120 09/02 A2964 RMK AO2 SLP042 T00940017=
200603061156 METAR KSEA 061156Z 13003KT 10SM BKN075 OVC085 10/01 A2964 RMK AO2 SLP042 70003 T01000011 10106 20089 56008=
200603061056 METAR KSEA 061056Z 12008KT 10SM OVC070 10/02 A2964 RMK AO2 SLP044 T01000017=
200603060956 METAR KSEA 060956Z 12011KT 10SM BKN080 OVC090 11/02 A2965 RMK AO2 SLP046 T01060017=
200603060856 METAR KSEA 060856Z 12010KT 10SM BKN090 OVC110 10/01 A2966 RMK AO2 SLP049 T01000011 58014=
200603060756 METAR KSEA 060756Z 11010KT 10SM BKN100 BKN200 09/01 A2968 RMK AO2 SLP056 T00940006 401220072=
200603060656 METAR KSEA 060656Z 13011KT 10SM BKN100 BKN200 09/00 A2969 RMK AO2 SLP060 T00940000=
200603060556 METAR KSEA 060556Z 12014KT 10SM SCT095 SCT110 BKN200 09/00 A2970 RMK AO2 SLP064 T00940000 10122 20089 56010=
200603060456 METAR KSEA 060456Z 12013KT 10SM FEW095 SCT110 BKN200 09/00 A2971 RMK AO2 SLP068 T00940000=
200603060356 METAR KSEA 060356Z 12011KT 10SM SCT090 BKN110 BKN200 10/00 A2972 RMK AO2 SLP070 T01000000=
200603060256 METAR KSEA 060256Z 12010KT 10SM FEW080 SCT200 11/00 A2973 RMK AO2 SLP075 T01060000 58007=
200603060156 METAR KSEA 060156Z 04005KT 10SM SCT100 BKN200 11/01 A2974 RMK AO2 SLP077 T01060011=
200603060056 METAR KSEA 060056Z 08006KT 10SM BKN095 BKN200 12/02 A2975 RMK AO2 SLP080 T01170017=
200603052356 METAR KSEA 052356Z 30003KT 10SM FEW050 SCT080 BKN100 11/04 A2975 RMK AO2 SLP082 T01060044 10122 20089 58002=
200603052256 METAR KSEA 052256Z 29004KT 10SM SCT050 BKN080 11/04 A2976 RMK AO2 SLP084 T01060044=
200603052156 METAR KSEA 052156Z 14005KT 10SM FEW050 BKN085 OVC180 12/01 A2976 RMK AO2 SLP083 T01170006=
200603052056 METAR KSEA 052056Z 14006KT 10SM FEW050 BKN085 BKN200 12/01 A2976 RMK AO2 SLP083 T01170006 56001=
200603051956 METAR KSEA 051956Z 13011KT 10SM SCT050 OVC085 10/00 A2976 RMK AO2 SLP085 T01000000=
200603051856 METAR KSEA 051856Z 12013KT 10SM SCT050 OVC095 10/01 A2975 RMK AO2 SLP083 T01000006=
200603051756 METAR KSEA 051756Z 14015KT 10SM FEW030 SCT050 OVC090 09/01 A2976 RMK AO2 PK WND 12028/1657 SLP086 60003 T00890006 10106 20072 53001=
200603051656 METAR KSEA 051656Z 12015G23KT 10SM FEW028 BKN050 BKN090 08/02 A2975 RMK AO2 PK WND 12030/1641 RAE53 SLP081 P0000 T00780017=
200603051556 METAR KSEA 051556Z 13011KT 10SM -RA BKN033 OVC045 08/02 A2976 RMK AO2 PK WND 13026/1504 SLP084 P0003 T00780017=
200603051456 METAR KSEA 051456Z 21004KT 10SM -RA BKN036 OVC050 08/03 A2976 RMK AO2 RAB1358 SLP085 P0000 60000 T00780028 58002=
200603051356 METAR KSEA 051356Z 16008KT 10SM BKN055 BKN075 OVC100 09/00 A2977 RMK AO2 SLP087 T00940000=
200603051256 METAR KSEA 051256Z 13015G23KT 10SM OVC080 10/M04 A2977 RMK AO2 SLP087 T01001044=
200603051156 METAR KSEA 051156Z 14012KT 10SM OVC100 10/M04 A2977 RMK AO2 SLP086 T01001044 10106 20067 56010=
200603051056 METAR KSEA 051056Z 13016G20KT 10SM OVC120 11/M04 A2978 RMK AO2 SLP090 T01061044=
200603050956 METAR KSEA 050956Z 14014KT 10SM BKN130 OVC160 11/M04 A2979 RMK AO2 SLP092 T01061039=
200603050856 METAR KSEA 050856Z 12013KT 10SM OVC130 10/M04 A2980 RMK AO2 SLP098 T01001039 56019=
200603050756 METAR KSEA 050756Z 12016G21KT 10SM OVC130 11/M03 A2982 RMK AO2 SLP104 T01061033 401220039=
200603050656 METAR KSEA 050656Z 10011G17KT 10SM FEW150 OVC250 09/M03 A2984 RMK AO2 SLP110 T00941033=
200603050556 METAR KSEA 050556Z 06008KT 10SM BKN250 07/M01 A2986 RMK AO2 SLP118 T00671006 10122 20067 56017=
200603050456 METAR KSEA 050456Z 04010KT 10SM FEW150 BKN250 07/00 A2987 RMK AO2 SLP122 T00720000=
200603050356 METAR KSEA 050356Z 03010KT 10SM SCT150 BKN250 08/00 A2989 RMK AO2 SLP130 T00780000=
200603050256 METAR KSEA 050256Z 03010KT 10SM SCT150 BKN250 09/M01 A2991 RMK AO2 SLP135 T00891006 57008=
200603050156 METAR KSEA 050156Z 03008KT 10SM SCT150 BKN250 09/M01 A2991 RMK AO2 SLP136 T00941006=
200603050056 METAR KSEA 050056Z 31005KT 10SM FEW050 SCT150 BKN250 11/01 A2993 RMK AO2 SLP142 T01060006=
200603042356 METAR KSEA 042356Z VRB04KT 10SM SCT045 BKN250 12/M02 A2993 RMK AO2 SLP142 T01171022 10122 20072 56016=
200603042256 METAR KSEA 042256Z VRB04KT 10SM FEW030 BKN250 12/M02 A2994 RMK AO2 SLP146 T01171017=
200603042156 METAR KSEA 042156Z VRB03KT 10SM FEW030 BKN250 12/01 A2996 RMK AO2 SLP151 T01170011=
200603042056 METAR KSEA 042056Z 00000KT 10SM FEW028 SCT250 11/01 A2998 RMK AO2 SLP158 T01060011 58004=
200603041956 METAR KSEA 041956Z VRB06KT 10SM FEW028 SCT250 09/01 A2999 RMK AO2 SLP163 T00940006=
200603041856 METAR KSEA 041856Z 21005KT 10SM FEW028 BKN250 09/01 A2999 RMK AO2 SLP162 T00890011=
200603041756 METAR KSEA 041756Z 16006KT 10SM FEW028 BKN250 07/01 A2999 RMK AO2 SLP163 T00720011 10078 20039 51013=
200603041656 METAR KSEA 041656Z 15009KT 10SM FEW025 BKN250 06/03 A2999 RMK AO2 SLP163 T00610028=
200603041556 METAR KSEA 041556Z 13010KT 10SM FEW055 SCT085 BKN250 04/03 A2997 RMK AO2 SLP157 T00440033=
200603041456 METAR KSEA 041456Z 16007KT 10SM BKN055 OVC060 04/03 A2995 RMK AO2 SLP150 T00440033 51020=
200603041356 METAR KSEA 041356Z 16006KT 10SM SCT045 OVC060 04/04 A2993 RMK AO2 SLP144 T00440039=
200603041256 METAR KSEA 041256Z 18007KT 10SM SCT049 BKN075 OVC085 05/04 A2991 RMK AO2 SLP138 T00500039=
200603041156 METAR KSEA 041156Z 21006KT 10SM SCT033 BKN060 OVC080 06/04 A2989 RMK AO2 RAB29E38 SLP129 P0000 60000 T00560044 10067 20056 51015=
200603041056 METAR KSEA 041056Z 20005KT 10SM SCT038 BKN050 OVC060 06/04 A2988 RMK AO2 RAB01E16 SLP124 P0000 T00560039=
200603040956 METAR KSEA 040956Z 22006KT 10SM SCT055 OVC085 06/03 A2987 RMK AO2 SLP120 T00560028=
200603040856 METAR KSEA 040856Z 20007KT 10SM FEW050 BKN060 OVC075 06/03 A2984 RMK AO2 SLP113 T00610028 53017=
200603040756 METAR KSEA 040756Z 22009KT 10SM FEW080 SCT110 06/03 A2983 RMK AO2 SLP107 T00610033 401220011=
200603040656 METAR KSEA 040656Z 22010KT 10SM FEW085 SCT110 SCT150 06/02 A2981 RMK AO2 SLP103 T00560022=
200603040556 METAR KSEA 040556Z 24008KT 10SM SCT085 BKN130 BKN200 07/02 A2979 RMK AO2 SLP096 T00670017 10117 20067 52022=
200603040456 METAR KSEA 040456Z 24009KT 10SM BKN085 BKN130 BKN200 08/02 A2977 RMK AO2 SLP089 T00780022=
200603040356 METAR KSEA 040356Z 23008KT 10SM BKN080 OVC150 08/02 A2975 RMK AO2 SLP082 T00830022=
200603040256 METAR KSEA 040256Z 00000KT 10SM SCT095 BKN150 OVC200 08/02 A2973 RMK AO2 SLP075 T00830022 53008=
200603040156 METAR KSEA 040156Z 00000KT 10SM FEW050 SCT150 OVC200 10/00 A2971 RMK AO2 SLP069 T01000000=
200603040056 METAR KSEA 040056Z 01008KT 10SM FEW050 SCT150 OVC200 11/02 A2970 RMK AO2 SLP066 T01060017=
200603032356 METAR KSEA 032356Z 35009KT 10SM FEW050 SCT150 OVC200 12/01 A2970 RMK AO2 SLP066 T01170006 10122 20094 55001=
200603032256 METAR KSEA 032256Z 34010KT 10SM FEW050 SCT150 OVC200 12/02 A2969 RMK AO2 SLP063 T01220017=
200603032156 METAR KSEA 032156Z 32011KT 10SM FEW050 SCT150 OVC200 11/03 A2970 RMK AO2 SLP065 T01110028=
200603032056 METAR KSEA 032056Z 34008KT 10SM FEW030 BKN150 OVC200 11/02 A2971 RMK AO2 SLP067 T01110017 58021=
200603031956 METAR KSEA 031956Z 35008KT 10SM SCT150 BKN200 11/01 A2973 RMK AO2 SLP075 T01060011=
200603031856 METAR KSEA 031856Z 35010KT 10SM SCT150 BKN200 10/01 A2975 RMK AO2 SLP083 T01000011=
200603031756 METAR KSEA 031756Z 04009KT 10SM FEW150 SCT250 09/00 A2977 RMK AO2 SLP088 T00940000 10094 20011 58012=
200603031656 METAR KSEA 031656Z 03007KT 360V080 10SM FEW080 BKN250 07/01 A2979 RMK AO2 SLP094 T00720006=
200603031556 METAR KSEA 031556Z 02008KT 10SM BKN250 05/01 A2979 RMK AO2 SLP097 T00500011=
200603031456 METAR KSEA 031456Z 36009KT 10SM FEW080 BKN250 02/01 A2980 RMK AO2 SLP101 T00170006 58009=
200603031356 METAR KSEA 031356Z 02005KT 10SM FEW120 BKN250 02/01 A2981 RMK AO2 SLP104 T00220006=
200603031256 METAR KSEA 031256Z 01007KT 10SM SCT250 02/01 A2983 RMK AO2 SLP109 T00170006=
200603031156 METAR KSEA 031156Z 01007KT 10SM CLR 02/01 A2983 RMK AO2 SLP110 70001 T00170011 10050 20011 58019=
200603031056 METAR KSEA 031056Z 01008KT 10SM CLR 02/01 A2986 RMK AO2 SLP119 T00170011=
200603030956 METAR KSEA 030956Z 36005KT 10SM CLR 02/02 A2988 RMK AO2 SLP127 T00220017=
200603030856 METAR KSEA 030856Z 05006KT 10SM CLR 03/02 A2989 RMK AO2 SLP130 T00280017 58015=
200603030756 METAR KSEA 030756Z 05006KT 10SM CLR 03/02 A2990 RMK AO2 SLP135 T00330022 401280028=
200603030656 METAR KSEA 030656Z 03008KT 10SM CLR 04/02 A2993 RMK AO2 SLP142 T00440022=
200603030556 METAR KSEA 030556Z 36007KT 10SM FEW120 04/01 A2994 RMK AO2 SLP145 T00440011 10094 20044 58008=
200603030456 METAR KSEA 030456Z 05006KT 10SM FEW120 SCT200 06/01 A2995 RMK AO2 SLP149 T00560011=
200603030356 METAR KSEA 030356Z 00000KT 10SM FEW120 SCT200 06/01 A2996 RMK AO2 SLP154 T00560006=
200603030256 METAR KSEA 030256Z 34003KT 10SM FEW060 SCT120 BKN200 06/01 A2996 RMK AO2 SLP154 T00610011 53004=
200603030156 METAR KSEA 030156Z 24006KT 10SM FEW060 SCT120 BKN200 07/01 A2995 RMK AO2 SLP150 T00670006=
200603030056 METAR KSEA 030056Z COR 25010KT 10SM FEW040 SCT060 BKN120 BKN200 08/02 A2994 RMK AO2 SLP147 T00830017=
200603022356 METAR KSEA 022356Z 23012KT 10SM SCT044 BKN050 BKN120 BKN200 09/02 A2995 RMK AO2 SLP148 T00940017 10117 20089 53017=
200603022256 METAR KSEA 022256Z 23015G20KT 10SM FEW060 SCT150 BKN200 10/02 A2991 RMK AO2 SLP137 CB DSNT NE-SE-NW T01000022=
200603022156 METAR KSEA 022156Z 23015KT 10SM FEW050 BKN150 09/02 A2991 RMK AO2 SLP135 T00940017=
200603022056 METAR KSEA 022056Z 22013KT 10SM FEW040 SCT060 BKN150 09/01 A2990 RMK AO2 SLP130 T00940011 51022=
200603021956 METAR KSEA 021956Z 23012KT 10SM FEW040 SCT060 BKN150 10/02 A2989 RMK AO2 SLP128 T01000017=
200603021856 METAR KSEA 021856Z 23010G17KT 10SM BKN060 09/00 A2986 RMK AO2 SLP118 T00890000=
200603021756 METAR KSEA 021756Z 20016G21KT 10SM BKN055 BKN110 09/M01 A2983 RMK AO2 SLP109 60001 T00891006 10094 20061 53030=
200603021656 METAR KSEA 021656Z 19012KT 10SM FEW030 SCT050 BKN130 08/01 A2980 RMK AO2 SLP098 T00830006=
200603021556 METAR KSEA 021556Z 17010KT 10SM FEW030 SCT110 BKN130 07/02 A2975 RMK AO2 SLP083 T00670017=
200603021456 METAR KSEA 021456Z 14008KT 10SM FEW030 BKN060 BKN090 BKN200 07/03 A2974 RMK AO2 SLP079 60001 T00670033 53013=
200603021356 METAR KSEA 021356Z 19007KT 10SM SCT040 OVC055 07/04 A2973 RMK AO2 RAE04 SLP076 P0000 T00670039=
200603021256 METAR KSEA 021256Z 19007KT 10SM -RA SCT025 BKN030 OVC040 07/03 A2970 RMK AO2 SLP065 P0001 T00720033=
200603021156 METAR KSEA 021156Z 23015G19KT 10SM -RA SCT030 BKN041 OVC050 07/06 A2970 RMK AO2 WSHFT 1043 RAB1059 SLP065 P0001 60001 70001 T00670056 10128 20067 53034=
200603021056 METAR KSEA 021056Z 23017G46KT 10SM SQ SCT080 BKN095 OVC110 09/04 A2966 RMK AO2 PK WND 18046/1049 WSHFT 1040 PRESRR SLP050 T00890039=
200603020956 METAR KSEA 020956Z 13013KT 10SM OVC110 12/01 A2960 RMK AO2 SLP029 T01170006=
200603020856 METAR KSEA 020856Z 12013KT 10SM BKN110 OVC180 12/00 A2960 RMK AO2 PK WND 12027/0759 SLP030 T01220000 55007=
200603020756 METAR KSEA 020756Z 13019G27KT 10SM BKN110 OVC180 13/M01 A2960 RMK AO2 PK WND 11029/0720 SLP028 T01281006 401440028=
200603020656 METAR KSEA 020656Z 13022G31KT 10SM OVC090 13/00 A2962 RMK AO2 PK WND 14032/0628 SLP035 T01280000=
200603020556 METAR KSEA 020556Z 12014G24KT 10SM BKN110 OVC200 12/01 A2963 RMK AO2 PK WND 12032/0539 SLP039 T01220006 10144 20111 56024=
200603020456 METAR KSEA 020456Z 12025G34KT 10SM FEW090 SCT130 BKN200 12/01 A2964 RMK AO2 PK WND 13037/0424 SLP045 T01170006=
200603020356 METAR KSEA 020356Z 13022G31KT 10SM FEW090 SCT130 BKN200 12/M01 A2967 RMK AO2 PK WND 12035/0346 SLP055 T01171006=
200603020256 METAR KSEA 020256Z 12023G34KT 10SM FEW090 SCT150 BKN200 12/M01 A2970 RMK AO2 PK WND 12034/0249 SLP064 T01171006 56016=
200603020156 METAR KSEA 020156Z 12019G28KT 10SM FEW050 SCT090 SCT150 BKN200 12/M01 A2971 RMK AO2 PK WND 12028/0148 SLP068 T01171006=
200603020056 METAR KSEA 020056Z 12015KT 10SM FEW050 SCT090 SCT150 BKN200 12/M01 A2973 RMK AO2 SLP073 T01221006=
200603012356 METAR KSEA 012356Z 13011KT 10SM FEW050 SCT080 BKN200 14/M01 A2975 RMK AO2 SLP080 T01391006 10144 20083 56028=
200603012256 METAR KSEA 012256Z 13012KT 10SM FEW050 SCT080 SCT150 BKN200 14/00 A2976 RMK AO2 SLP086 ACSL S T01390000=
200603012156 METAR KSEA 012156Z 11014KT 10SM FEW040 SCT080 SCT150 BKN200 14/01 A2979 RMK AO2 SLP096 T01390006=
200603012056 METAR KSEA 012056Z 12008KT 10SM FEW080 SCT150 BKN200 14/01 A2983 RMK AO2 SLP108 T01440011 58020=
200603011956 METAR KSEA 011956Z 14012KT 10SM FEW090 BKN150 BKN200 12/01 A2986 RMK AO2 SLP118 T01220006=
200603011856 METAR KSEA 011856Z 13009KT 10SM SCT090 BKN150 BKN200 11/02 A2988 RMK AO2 SLP125 SH DSNT W T01060017=
200603011756 METAR KSEA 011756Z 12009KT 10SM FEW085 BKN130 OVC200 08/01 A2989 RMK AO2 SLP130 SH DSNT W T00830011 10083 20028 58005=
200603011656 METAR KSEA 011656Z 13009KT 10SM BKN080 OVC250 06/01 A2991 RMK AO2 SLP137 T00560006=
200603011556 METAR KSEA 011556Z 13007KT 10SM BKN080 OVC250 04/01 A2990 RMK AO2 SLP135 T00440006=
200603011456 METAR KSEA 011456Z 13010KT 10SM FEW040 SCT060 SCT120 BKN200 03/01 A2991 RMK AO2 SLP136 T00330011 58005=
200603011356 METAR KSEA 011356Z 12006KT 10SM SCT055 SCT065 03/01 A2992 RMK AO2 SLP140 T00330011=
200603011256 METAR KSEA 011256Z 12007KT 10SM BKN050 BKN065 BKN150 04/02 A2991 RMK AO2 SLP139 T00390017=
200603011156 METAR KSEA 011156Z 15005KT 10SM SCT047 OVC065 04/02 A2992 RMK AO2 SLP141 70030 T00390017 10044 20028 52004=
200603011056 METAR KSEA 011056Z 16004KT 10SM SCT050 BKN065 OVC150 04/02 A2992 RMK AO2 SLP139 T00390017=
200603010956 METAR KSEA 010956Z 14004KT 10SM BKN070 03/01 A2991 RMK AO2 SLP139 T00330011=
200603010856 METAR KSEA 010856Z 12007KT 10SM BKN070 OVC160 04/02 A2991 RMK AO2 SLP137 T00390017 50004=
200603010756 METAR KSEA 010756Z 16005KT 10SM BKN070 OVC180 04/02 A2991 RMK AO2 SLP139 T00390017 400670033=
200603010656 METAR KSEA 010656Z 12007KT 10SM FEW055 BKN075 04/02 A2991 RMK AO2 SLP137 T00440022=
200603010556 METAR KSEA 010556Z 11006KT 10SM OVC070 04/02 A2990 RMK AO2 SLP133 T00440022 10056 20039 51012=
200603010456 METAR KSEA 010456Z 15005KT 10SM OVC075 04/03 A2988 RMK AO2 SLP128 T00390028=
200603010356 METAR KSEA 010356Z 14006KT 10SM OVC065 04/03 A2988 RMK AO2 SLP127 T00440028=
200603010256 METAR KSEA 010256Z 15008KT 10SM BKN065 OVC200 05/02 A2986 RMK AO2 SLP121 T00500022 53023=
200603010156 METAR KSEA 010156Z 18012KT 10SM FEW035 BKN065 BKN200 04/02 A2983 RMK AO2 SLP111 T00440017=
200603010056 METAR KSEA 010056Z 21014KT 10SM FEW029 BKN060 BKN200 05/01 A2981 RMK AO2 SLP104 T00500011=

# No short TAF reports from KSEA in databse.

###################################
#  large TAF from KSEA
###################################
200603312341 TAF KSEA 312341Z 010024 23005KT P6SM SCT040 BKN100 FM0400 VRB03KT
                       P6SM VCSH SCT040 BKN070 FM1000 18006KT P6SM
                       -SHRA BKN035 OVC060 FM2000 21009KT P6SM
                       VCSH SCT040 BKN070=
200603311731 TAF KSEA 311731Z 311818 16004KT P6SM SCT040 BKN080
                      TEMPO 1821 BKN040 BKN080 FM2100 23006KT P6SM
                       -SHRA BKN040 BKN080 FM0300 13003KT P6SM
                       SCT050 BKN080 FM1200 19006KT P6SM VCSH BKN040
                       OVC070=
200603311128 TAF KSEA 311128Z 311212 18008KT P6SM -SHRA SCT020 BKN035 OVC070
                       FM1600 18004KT P6SM SCT050 BKN080 BKN120
                       FM2200 VRB03KT P6SM -SHRA BKN050 BKN080
                       FM0200 VRB03KT P6SM SCT050 BKN080=
200603310530 TAF KSEA 310530Z 310606 VRB03KT P6SM BKN070 OVC100 FM1000 VRB03KT
                       P6SM -RA BKN050 OVC080 FM1900 VRB03KT P6SM
                       SCT050 BKN080 BKN120=
200603302333 TAF KSEA 302333Z 310024 20006KT P6SM SCT050 BKN110
                      TEMPO 0004 -SHRA BKN050 OVC110 FM0400 VRB03KT
                       P6SM OVC050
                      TEMPO 0408 -SHRA FM1800 VRB03KT P6SM SCT050
                       BKN110
                      PROB30 2024 -SHRA BKN050 OVC110=
200603302116 KSEA 302116Z 302118 VRB03KT P6SM SCT050 OVC200 FM0600 VRB03KT P6SM
                       OVC040
                      PROB30 0612 -SHRA FM1200 VRB03KT P6SM BKN030
                       OVC060
                      PROB30 1218 -RA=
200603301748 TAF KSEA 301748Z 301818 VRB03KT P6SM BKN050 OVC110 FM0000 VRB03KT
                       P6SM OVC040
                      TEMPO 0004 -RA FM0400 VRB03KT P6SM -RA OVC030
                       FM1200 VRB03KT P6SM BKN030 OVC060
                      PROB30 1218 -RA=
200603301135 TAF KSEA 301135Z 301212 20006KT P6SM BKN100 FM1800 16006KT P6SM
                       BKN050 OVC080 FM0600 16006KT P6SM -RA OVC040=
200603300535 TAF KSEA 300535Z 300606 18008KT P6SM SCT050 OVC100 FM1000 16006KT
                       P6SM SCT025 BKN045 OVC070 FM1400 16006KT
                       P6SM BKN025 OVC040 FM2000 16006KT P6SM SCT025
                       BKN040 OVC070=
200603300401 KSEA 300401Z 300424 18008KT P6SM SCT050 OVC100 FM1000 16006KT P6SM
                       OVC020
                      TEMPO 1216 5SM -DZ BR FM1800 16010KT P6SM
                       BKN025 BKN050
                      TEMPO 2024 -RA=
200603292320 TAF KSEA 292320Z 300024 20012KT P6SM SCT025 BKN080
                      TEMPO 0004 BKN025 OVC080 FM0400 18008KT P6SM
                       VCSH BKN025 BKN050 FM1000 16006KT P6SM OVC020
                       TEMPO 1216 5SM -DZ BR FM1800 16010KT P6SM
                       BKN025 BKN050
                      TEMPO 2024 -RA=
200603292300 KSEA 300401Z 300424 18008KT P6SM SCT050 OVC100 FM1000 16006KT P6SM
                       OVC020
                      TEMPO 1216 5SM -DZ BR FM1800 16010KT P6SM
                       BKN025 BKN050
                      TEMPO 2024 -RA=
200603292015 KSEA 292015Z 292018 19005KT P6SM FEW009 BKN012 OVC015 FM2200 19006KT
                       P6SM SCT020 SCT200 FM0200 19005KT P6SM SCT120
                       BKN200 FM1200 16005KT P6SM VCSH BKN080 OVC120=
200603291727 TAF KSEA 291727Z 291818 14006KT P6SM SCT007 OVC010 FM2000 24008KT
                       P6SM SCT025 SCT250 FM0200 19005KT P6SM SCT120
                       BKN200 FM1200 16005KT P6SM VCSH BKN080 OVC120=
200603291518 KSEA 291518Z 291512 04006KT P6SM OVC007 FM1800 VRB03KT P6SM BKN050
                       BKN250 FM2100 24008KT P6SM SCT070 SCT250
                       FM0400 19005KT P6SM BKN060=
200603291120 TAF KSEA 291120Z 291212 02006KT P6SM SCT006 BKN012
                      TEMPO 1215 00000KT 4SM BR OVC006 FM1500 02004KT
                       P6SM SCT012 SCT250
                      TEMPO 1516 BKN012 FM1600 VRB03KT P6SM FEW070
                       SCT250 FM2100 24008KT P6SM SCT070 SCT250
                       FM0400 19005KT P6SM BKN060
                      TEMPO 1012 -RA=
200603290942 KSEA 290942Z 291006 03005KT P6SM SCT250
                      TEMPO 1011 SCT006 BKN012 FM1100 03004KT P6SM
                       BKN012
                      TEMPO 1115 00000KT 5SM BR OVC006 FM1500 VRB03KT
                       P6SM SCT250 FM2100 24008KT P6SM SCT060 SCT250=
200603290520 TAF KSEA 290520Z 290606 01010KT P6SM SCT250 FM1000 03004KT P6SM
                       SCT250 FM2100 24008KT P6SM SCT060 SCT250=
200603282334 TAF KSEA 282334Z 290024 06006KT P6SM SCT035 SCT120 BKN250 FM0400
                       VRB03KT P6SM SCT120 SCT250 FM2100 24008KT
                       P6SM SCT250=
200603281724 TAF KSEA 281724Z 281818 13009KT P6SM VCSH FEW005 SCT050 OVC090
                       TEMPO 1820 5SM BR BKN005 OVC035 FM2000 23006KT
                       P6SM VCSH SCT060 SCT100 FM0400 VRB03KT P6SM
                       SCT100=
200603281606 KSEA 281606Z 281612 14009KT P6SM -RA FEW004 SCT040 OVC060
                      TEMPO 1620 5SM BR BKN005 OVC035 FM2000 23006KT
                       P6SM VCSH SCT060 SCT100 FM0400 VRB03KT P6SM
                       SCT100=
200603281510 KSEA 281510Z 281512 17005KT 5SM BR VCSH SCT005 OVC035
                      TEMPO 1516 -RA BKN004 OVC035 FM2000 23006KT
                       P6SM VCSH SCT060 SCT100 FM0400 VRB03KT P6SM
                       SCT100=
200603281120 TAF KSEA 281120Z 281212 34006KT P6SM BKN060 OVC100
                      TEMPO 1213 6SM -RA BR BKN050 FM1300 19005KT
                       P6SM VCSH BKN050 BKN100
                      TEMPO 1416 -RA FM2000 23006KT P6SM SCT060
                       SCT100
                      TEMPO 2202 -SHRA BKN060 FM0400 VRB03KT P6SM
                       SCT100=
200603281010 KSEA 281010Z 281006 34007KT P6SM -RA BKN050 OVC080 FM1200 16005KT
                       P6SM BKN060 OVC120
                      TEMPO 1216 -RA BKN050 FM1800 19008KT P6SM
                       VCSH BKN060 BKN090 FM2000 23006KT P6SM SCT060
                       BKN120
                      TEMPO 2202 -SHRA BKN060=
200603280526 TAF KSEA 280526Z 280606 03005KT P6SM SCT120 BKN200 FM1100 16005KT
                       P6SM BKN070 OVC120
                      TEMPO 1216 -RA BKN060 FM1800 19008KT P6SM
                       VCSH BKN060 BKN090 FM2000 23006KT P6SM SCT060
                       BKN120
                      TEMPO 2202 -SHRA BKN060=
200603272331 TAF KSEA 272331Z 280024 36011KT P6SM BKN250 FM0500 03005KT P6SM
                       SCT120 BKN200 FM1000 16005KT P6SM -RA BKN070
                       OVC120 FM1800 19008KT P6SM VCSH BKN050 BKN090=
200603271732 TAF KSEA 271732Z 271818 02012KT P6SM SCT200 FM0500 03005KT P6SM
                       SCT120 BKN200 FM1000 06005KT P6SM VCSH BKN070
                       OVC120=
200603271123 TAF KSEA 271123Z 271212 04008KT P6SM SCT120 BKN200 FM1900 01008KT
                       P6SM BKN200 FM0500 03005KT P6SM SCT120 BKN200
                       FM1000 06005KT P6SM BKN100=
200603270530 TAF KSEA 270530Z 270606 13007KT P6SM SCT060 BKN120 FM1000 04005KT
                       P6SM SCT120 BKN200 FM2000 01008KT P6SM BKN200
                       FM0500 VRB04KT P6SM BKN200=
200603270133 TAF AMD KSEA 270133Z 270224 22010KT P6SM SCT045 BKN070 BKN200
                      TEMPO 0206 BKN045 BKN070 BKN200 FM1200 VRB04KT
                       P6SM SCT120 BKN200=
200603262320 TAF KSEA 262320Z 270024 22010KT P6SM SCT040 BKN120 BKN200 FM1200
                       VRB04KT P6SM SCT120 BKN200=
200603262300 KSEA 270133Z 270224 22010KT P6SM SCT045 BKN070 BKN200
                      TEMPO 0206 BKN045 BKN070 BKN200 FM1200 VRB04KT
                       P6SM SCT120 BKN200=
200603261736 TAF KSEA 261736Z 261818 20012G22KT P6SM SCT020 BKN100
                      TEMPO 1822 -SHRA BKN020 OVC060 FM2200 20014KT
                       P6SM SCT030 BKN060 FM0400 18007KT P6SM SCT060
                       BKN120=
200603261120 TAF KSEA 261120Z 261212 20010G18KT P6SM SCT025 BKN040
                      TEMPO 1215 BKN025 FM1500 20012G20KT P6SM
                       OVC025
                      TEMPO 1518 -RA FM1800 18014G20KT P6SM OVC025
                       TEMPO 1922 -RA FM2200 16009KT P6SM SCT030
                       BKN045 FM0400 16005KT P6SM SCT060 BKN120
                       FM0800 VRB03KT P6SM BKN120=
200603260536 TAF KSEA 260536Z 260606 23007KT P6SM VCSH BKN060 BKN080 FM0800
                       22007KT P6SM BKN050 FM1100 20008KT P6SM
                       BKN040
                      TEMPO 1620 -RA OVC030 FM2000 18008KT P6SM
                       -RA OVC030 FM0100 16005KT P6SM BKN050 FM0400
                       16005KT P6SM SCT060=
200603260212 TAF AMD KSEA 260212Z 260224 36005KT P6SM BKN090 FM0315 24007KT
                       P6SM FEW090 FM0600 21008KT P6SM SCT040 FM1000
                       20008KT P6SM BKN040 FM1200 18008KT P6SM
                       OVC030
                      TEMPO 1822 -RA=
200603252320 TAF KSEA 252320Z 260024 36010KT P6SM SCT040 SCT200 FM0600 VRB04KT
                       P6SM BKN040 FM1200 18008KT P6SM OVC030
                      TEMPO 1822 -RA=
200603252300 KSEA 260212Z 260224 36005KT P6SM BKN090 FM0315 24007KT P6SM FEW090
                       FM0600 21008KT P6SM SCT040 FM1000 20008KT
                       P6SM BKN040 FM1200 18008KT P6SM OVC030
                      TEMPO 1822 -RA=
200603251720 TAF KSEA 251720Z 251818 36010KT P6SM SCT015 SCT120 FM0600 VRB04KT
                       P6SM BKN040=
200603251427 KSEA 251427Z 251412 36007KT P6SM SCT008 SCT180
                      TEMPO 1417 BKN008 BKN180 FM1800 29006KT P6SM
                       SCT050 BKN080 FM2100 21007KT P6SM SCT100
                       FM0400 18009KT P6SM SCT050 BKN080 FM0800
                       20009KT P6SM -RA OVC035=
200603251120 TAF KSEA 251120Z 251212 03004KT P6SM FEW050 SCT080
                      TEMPO 1418 BKN050 FM1800 29006KT P6SM SCT050
                       BKN080 FM2100 21007KT P6SM SCT100 FM0400
                       18009KT P6SM SCT050 BKN080 FM0800 20009KT
                       P6SM -RA OVC035=
200603250533 TAF KSEA 250533Z 250606 VRB03KT P6SM VCSH SCT035 BKN080
                      TEMPO 0610 -SHRA BKN025 FM1800 29006KT P6SM
                       SCT050 BKN080 FM2100 21007KT P6SM SCT100
                       FM0400 18009KT P6SM SCT050 BKN080=
200603250302 TAF AMD KSEA 250302Z 250324 15005KT P6SM SCT025 BKN035 BKN150
                      TEMPO 0305 6SM -RA BR BKN025 FM0600 18010KT
                       P6SM SCT035 SCT100 FM1200 18006KT P6SM BKN100
                       FM1800 VRB05KT P6SM BKN070=
200603242326 TAF KSEA 242326Z 250024 18012G22KT P6SM SCT040 BKN150 FM0600 18010KT
                       P6SM SCT040 SCT100 FM1200 18006KT P6SM BKN100
                       FM1800 VRB05KT P6SM BKN070=
200603242300 KSEA 250302Z 250324 15005KT P6SM SCT025 BKN035 BKN150
                      TEMPO 0305 6SM -RA BR BKN025 FM0600 18010KT
                       P6SM SCT035 SCT100 FM1200 18006KT P6SM BKN100
                       FM1800 VRB05KT P6SM BKN070=
200603241730 TAF KSEA 241730Z 241818 20012G22KT P6SM VCSH SCT040 SCT100
                      TEMPO 2202 -SHRA BKN040 BKN100 FM0500 18008KT
                       P6SM SCT040 SCT100=
200603241122 TAF KSEA 241122Z 241212 18004KT P6SM -RA SCT025 BKN040 OVC090
                      TEMPO 1215 5SM -RA BR OVC025 FM1500 21009KT
                       P6SM -SHRA BKN040 BKN080 FM1900 20012G18KT
                       P6SM BKN045 BKN060 FM0100 18008KT P6SM SCT060
                       BKN100=
200603240521 TAF KSEA 240521Z 240606 18006KT P6SM SCT070 OVC100
                      TEMPO 0709 -RA OVC070 FM0900 16009KT P6SM
                       -RA BKN050 OVC070
                      TEMPO 1115 5SM RA OVC035 FM1500 21009KT P6SM
                       -SHRA BKN040 BKN080 FM1900 20012G18KT P6SM
                       BKN045 BKN060
                      PROB30 1924 -SHRA=
200603232326 TAF KSEA 232326Z 240024 12009KT P6SM SCT100 BKN130 OVC150 FM0600
                       15008KT P6SM BKN070 OVC110 FM0900 16009KT
                       P6SM -RA BKN050 OVC070
                      TEMPO 1115 5SM RA OVC035 FM1500 21009KT P6SM
                       -SHRA BKN040 BKN080 FM1900 20012G18KT P6SM
                       BKN045 BKN060
                      PROB30 1924 -SHRA=
200603231737 TAF KSEA 231737Z 231818 10007KT P6SM SCT090 BKN150 FM2200 15006KT
                       P6SM BKN100 BKN200 FM0400 15008KT P6SM BKN070
                       OVC110 FM0900 16009KT P6SM -RA BKN045 OVC060
                       FM1600 21009KT P6SM -SHRA BKN040 BKN080=
200603231130 TAF KSEA 231130Z 231212 10005KT P6SM BKN050 OVC120
                      TEMPO 1216 -RA FM1600 10006KT P6SM SCT060
                       BKN120 FM0400 12006KT P6SM -RA BKN050 OVC100=
200603230523 TAF KSEA 230523Z 230606 12006KT P6SM BKN060 OVC090
                      TEMPO 0610 -RA FM1000 11005KT P6SM SCT070
                       BKN100 OVC150=
200603222321 TAF KSEA 222321Z 230024 14008KT P6SM -RA BKN050 OVC070 FM1500 14007KT
                       P6SM -SHRA BKN050 BKN090=
200603221732 TAF KSEA 221732Z 221818 17010KT P6SM -RA OVC050 FM1200 14007KT
                       P6SM -SHRA BKN050 BKN090=
200603221120 TAF KSEA 221120Z 221212 18010KT P6SM -RA SCT050 BKN080 OVC150
                      TEMPO 1216 -RA BKN040 OVC060=
200603220522 TAF KSEA 220522Z 220606 18009KT P6SM -RA BKN040 BKN070 OVC120
                      TEMPO 1216 -RA BKN025 OVC040=
200603212334 TAF KSEA 212334Z 220024 19006KT P6SM -RA SCT030 BKN045 OVC130
                      TEMPO 0004 -RA BKN030 OVC050 FM0500 16008KT
                       P6SM VCSH BKN050 OVC100 FM1300 16010KT P6SM
                       BKN045 OVC070
                      TEMPO 1317 -RA FM1700 18012KT P6SM BKN040
                       OVC070
                      TEMPO 1721 -RA=
200603211744 TAF KSEA 211744Z 211818 20010KT P6SM SCT030 BKN100 OVC130
                      TEMPO 1821 -RA BKN030 OVC080 FM2100 19007KT
                       P6SM SCT035 BKN080 OVC120
                      TEMPO 2101 -RA FM0100 18008KT P6SM VCSH BKN035
                       BKN120 FM0500 16008KT P6SM BKN050 BKN100
                       PROB30 0513 -RA FM1300 16010KT P6SM -RA
                       BKN045 OVC070=
200603211613 KSEA 211613Z 211612 19010KT P6SM SCT022 BKN060 OVC090
                      TEMPO 1619 -RA BKN022 OVC060 FM1900 18007KT
                       P6SM BKN028 OVC050 FM0000 21008KT P6SM -RA
                       OVC035 FM0600 16008KT P6SM VCSH BKN050 OVC090=
200603211129 TAF KSEA 211129Z 211212 21005KT P6SM FEW080 OVC110 FM1800 18007KT
                       P6SM BKN050 OVC080 FM0000 21008KT P6SM -RA
                       OVC045 FM0600 16008KT P6SM VCSH BKN050 OVC090=
200603210538 TAF KSEA 210538Z 210606 36006KT P6SM OVC100 FM1200 16006KT P6SM
                       SCT050 OVC080 FM1800 18007KT P6SM BKN050
                       OVC080 FM0000 21008KT P6SM -RA OVC045=
200603202338 TAF KSEA 202338Z 210024 32006KT P6SM FEW060 SCT090
                      TEMPO 0004 BKN090 FM0400 VRB03KT P6SM SCT100
                       TEMPO 0408 BKN100 FM0800 15003KT P6SM SCT060
                       BKN100 FM1200 16006KT P6SM SCT050 OVC080
                       PROB30 1218 -RA FM1800 18007KT P6SM BKN050
                       OVC080
                      PROB30 1824 -RA=
200603201752 TAF KSEA 201752Z 201818 01007KT P6SM FEW040 FM2100 34010KT P6SM
                       SCT200 FM0200 02005KT P6SM SCT100 BKN250
                       FM0800 VRB02KT P6SM SCT060 BKN120 FM1200
                       16006KT P6SM BKN050 OVC080
                      PROB30 1218 -RA=
200603201120 TAF KSEA 201120Z 201212 03008KT P6SM FEW200 FM2100 34004KT P6SM
                       SCT080 SCT200 FM0200 04004KT P6SM BKN070
                       OVC150 FM0900 08004KT P6SM OVC045=
200603200520 TAF KSEA 200520Z 200606 04006KT P6SM FEW080 FM2100 34004KT P6SM
                       SCT080 SCT200 FM0200 04004KT P6SM BKN070
                       OVC150=
200603192320 TAF KSEA 192320Z 200024 34005KT P6SM SKC FM0500 05005KT P6SM SKC
                       FM1800 VRB03KT P6SM SCT080 SCT200=
200603191720 TAF KSEA 191720Z 191818 36006KT P6SM SKC
                      TEMPO 2101 SCT040 FM0400 04004KT P6SM SCT200=
200603191120 TAF KSEA 191120Z 191212 02006KT P6SM SCT025
                      TEMPO 1214 BKN025 FM1500 02006KT P6SM SKC
                       FM2200 34006KT P6SM SCT050 FM0300 04004KT
                       P6SM SCT200=
200603190940 KSEA 190940Z 191006 02006KT P6SM BKN029 FM1200 02006KT P6SM SCT035
                       FM2200 34006KT P6SM SCT050 FM0300 04004KT
                       P6SM FEW050=
200603190520 TAF KSEA 190520Z 190606 05006KT P6SM FEW045 BKN070 BKN180 FM1000
                       03006KT P6SM SCT050 FM2200 34006KT P6SM
                       SCT050 FM0300 04004KT P6SM FEW050=
200603190159 KSEA 190159Z 190224 VRB05KT P6SM SCT035 BKN060
                      TEMPO 0204 -SHRA BKN035 FM1000 03006KT P6SM
                       SCT050=
200603182320 TAF KSEA 182320Z 190024 VRB05KT P6SM SCT035 BKN060 FM1000 03006KT
                       P6SM SCT050=
200603182300 KSEA 190159Z 190224 VRB05KT P6SM SCT035 BKN060
                      TEMPO 0204 -SHRA BKN035 FM1000 03006KT P6SM
                       SCT050=
200603181735 TAF KSEA 181735Z 181818 VRB05KT P6SM SCT006 BKN025
                      TEMPO 1820 3SM -SHRA BR BKN006 OVC015 FM2200
                       VRB05KT P6SM SCT030 BKN050 FM0700 05007KT
                       P6SM SCT050=
200603181726 TAF KSEA 181726Z 181818 VRB05KT 5SM BR SCT006 BKN025
                      TEMPO 1820 3SM -SHRA BR BKN006 OVC015 FM2200
                       VRB05KT P6SM SCT030 BKN050 FM0700 05007KT
                       P6SM SCT050=
200603181559 KSEA 181559Z 181612 VRB05KT 1SM -DZ BR BKN002 OVC020
                      TEMPO 1618 3SM BR SCT003 BKN025 FM1800 VRB05KT
                       P6SM VCSH BKN020 BKN040 FM2100 VRB05KT P6SM
                       SCT030 BKN050 FM0700 06006KT P6SM SCT050=
200603181120 TAF KSEA 181120Z 181212 04005KT 4SM SHRA BR BKN015 OVC022 FM1500
                       VRB04KT P6SM SCT015 OVC040
                      TEMPO 1517 -SHRA BKN015 OVC040 FM1800 20004KT
                       P6SM VCSH BKN035 BKN060 FM0200 VRB03KT P6SM
                       SCT035 SCT060 FM0700 06006KT P6SM SKC=
200603180840 KSEA 180840Z 180906 VRB04KT P6SM -SHRA SCT005 BKN015 OVC040
                      TEMPO 0913 4SM -SHRA BR BKN005 OVC015 FM1300
                       VRB04KT P6SM -SHRA SCT005 BKN015 OVC040
                       TEMPO 1316 4SM -SHRA BR BKN005 OVC015 FM1800
                       20004KT P6SM VCSH BKN035 BKN060 FM0200 20004KT
                       P6SM SCT035 SCT060=
200603180558 KSEA 180558Z 180606 18003KT P6SM -SHRA BKN024 OVC060 FM1200 VRB04KT
                       P6SM VCSH BKN035 BKN060 FM1800 20004KT P6SM
                       VCSH BKN035 BKN060 FM0200 20004KT P6SM SCT035
                       SCT060=
200603180520 TAF KSEA 180520Z 180606 00000KT P6SM -SHRA BKN035 BKN120 FM1000
                       VRB04KT P6SM VCSH BKN035 BKN060 FM1800 20004KT
                       P6SM VCSH BKN035 BKN060 FM0200 20004KT P6SM
                       SCT035 SCT060=
200603180438 TAF AMD KSEA 180438Z 180524 00000KT P6SM -SHRA BKN035 BKN120 FM1000
                       VRB04KT P6SM VCSH BKN035 BKN060 FM1300 20004KT
                       P6SM VCSH BKN035 BKN070=
200603172346 TAF KSEA 172346Z 180024 21007KT P6SM -SHRA SCT030 BKN050
                      TEMPO 0002 BKN030CB BKN050 FM0200 23006KT
                       P6SM SCT035 BKN060
                      TEMPO 0204 -SHRA BKN035 BKN060 FM0400 23006KT
                       P6SM VCSH SCT040 BKN070 FM1300 20006KT P6SM
                       VCSH BKN035 BKN070=
200603172300 KSEA 180438Z 180524 00000KT P6SM -SHRA BKN035 BKN120 FM1000 VRB04KT
                       P6SM VCSH BKN035 BKN060 FM1300 20004KT P6SM
                       VCSH BKN035 BKN070=
200603172146 KSEA 172146Z 172218 19011G20KT P6SM -SHRA SCT025 BKN050
                      TEMPO 2223 BKN025 BKN050 FM2300 23010KT P6SM
                       -SHRA SCT030 BKN050
                      TEMPO 2301 BKN030CB BKN050 FM0100 24007KT
                       P6SM -SHRA SCT035 BKN060 FM0300 21006KT
                       P6SM SCT040 BKN070=
200603171738 TAF KSEA 171738Z 171818 VRB05KT P6SM -SHRA SCT025 BKN060
                      TEMPO 1820 BKN025 OVC060 FM2000 23006KT P6SM
                       -SHRA SCT025 BKN060 FM2200 24007KT P6SM
                       -SHRA SCT035CB BKN060 FM0300 21006KT P6SM
                       SCT040 BKN070=
200603171354 KSEA 171354Z 171412 VRB05KT P6SM -SHRA SCT025 OVC050
                      TEMPO 1416 BKN025 OVC050 FM1600 07005KT P6SM
                       -SHRA BKN035 OVC050 FM2000 24010KT P6SM
                       -SHRA SCT035 BKN050 FM0200 24006KT P6SM
                       VCSH SCT035 BKN050 FM0700 VRB03KT P6SM BKN030
                       BKN050=
200603171312 KSEA 171312Z 171312 VRB05KT P6SM -SHRA OVC070 FM1600 07005KT P6SM
                       -SHRA BKN035 OVC050 FM2000 24010KT P6SM
                       -SHRA SCT035 BKN050 FM0200 24006KT P6SM
                       VCSH SCT035 BKN050 FM0700 VRB03KT P6SM BKN030
                       BKN050=
200603171125 TAF KSEA 171125Z 171212 13005KT P6SM SCT050 SCT070 FM1400 07005KT
                       P6SM -SHRA BKN035 OVC050 FM2000 24010KT
                       P6SM -SHRA SCT035 BKN050
                      PROB30 2124 36006KT 5SM TSRA BKN030CB BKN050
                       FM0200 24006KT P6SM VCSH SCT035 BKN050 FM0700
                       VRB03KT P6SM BKN030 BKN050=
200603170829 KSEA 170829Z 170806 13004KT P6SM VCSH BKN050 OVC080
                      TEMPO 1418 -SHRA BKN025 OVC035 FM2000 24010KT
                       P6SM -SHRA BKN035 OVC060=
200603170520 TAF KSEA 170520Z 170606 VRB03KT P6SM VCSH SCT040 BKN070 BKN120
                       FM0800 13005KT P6SM VCSH BKN035 OVC060
                      TEMPO 1418 -SHRA BKN025 OVC035 FM2000 24010KT
                       P6SM -SHRA BKN035 OVC060=
200603170313 KSEA 170313Z 170324 VRB03KT P6SM VCSH SCT040 BKN070 BKN120 FM0800
                       13005KT P6SM VCSH BKN035 OVC060 FM2000 24010KT
                       P6SM -SHRA BKN035 OVC060=
200603162331 TAF KSEA 162331Z 170024 19013G20KT P6SM -SHRA SCT040 BKN080 BKN130
                       TEMPO 0004 BKN035 OVC060 FM0400 16007KT
                       P6SM VCSH SCT040 OVC070 FM0800 13005KT P6SM
                       VCSH BKN035 OVC060 FM2000 24010KT P6SM -SHRA
                       BKN035 OVC060=
200603162300 KSEA 170313Z 170324 VRB03KT P6SM VCSH SCT040 BKN070 BKN120 FM0800
                       13005KT P6SM VCSH BKN035 OVC060 FM2000 24010KT
                       P6SM -SHRA BKN035 OVC060=
200603161742 TAF KSEA 161742Z 161818 12010KT P6SM -RA SCT030 BKN045 OVC060
                      TEMPO 1821 -RA BKN030 OVC045 FM2100 18013G20KT
                       P6SM -SHRA BKN040 BKN090 FM0300 15006KT
                       P6SM VCSH SCT040 OVC070=
200603161326 KSEA 161326Z 161312 03008KT P6SM VCSH SCT035 BKN070 OVC120 FM1500
                       VRB03KT P6SM -SHRA BKN035 OVC050 FM2000
                       14010KT P6SM -SHRA BKN040 BKN090
                      PROB30 2204 5SM TSRA BKN030CB OVC050=
200603161120 TAF KSEA 161120Z 161212 03008KT P6SM VCSH BKN040 BKN090 OVC180
                       FM1500 VRB03KT P6SM -SHRA BKN035 OVC050
                       FM2000 14010KT P6SM -SHRA BKN040 BKN090
                       PROB30 2204 5SM TSRA BKN030CB OVC050=
200603160833 KSEA 160833Z 160906 VRB03KT P6SM -RA BKN035 OVC045 FM1300 VRB03KT
                       P6SM -SHRA BKN035 BKN050 FM2000 16012KT
                       P6SM -SHRA BKN040 BKN090
                      PROB30 2002 5SM TSRA BKN035CB OVC050=
200603160522 TAF KSEA 160522Z 160606 05006KT P6SM VCSH SCT050 BKN100 FM0900
                       09006KT 6SM -RA BKN035 OVC050 FM1300 VRB03KT
                       P6SM -SHRA BKN035 BKN050 FM2000 16012KT
                       P6SM -SHRA BKN040 BKN090
                      PROB30 2002 5SM TSRA BKN035CB OVC050=
200603160333 TAF AMD KSEA 160333Z 160424 00000KT P6SM VCSH BKN050 OVC090 FM1200
                       14004KT P6SM -SHRA BKN035 OVC050 FM2000
                       16012KT P6SM -RA BKN050 OVC090=
200603152329 TAF KSEA 152329Z 160024 22012KT P6SM VCSH SCT050 BKN120
                      TEMPO 0004 BKN050 OVC100 FM1000 18008KT P6SM
                       SCT050 BKN120 FM1800 16012KT P6SM -RA BKN050
                       OVC090=
200603152300 KSEA 160333Z 160424 00000KT P6SM VCSH BKN050 OVC090 FM1200 14004KT
                       P6SM -SHRA BKN035 OVC050 FM2000 16012KT
                       P6SM -RA BKN050 OVC090=
200603151729 TAF KSEA 151729Z 151818 15007KT P6SM -RA SCT035 BKN045 OVC060 FM2200
                       20012KT P6SM -RA BKN035 OVC050 FM0200 13008KT
                       P6SM SCT040 OVC060
                      TEMPO 0610 -RA=
200603151139 TAF KSEA 151139Z 151212 18008KT P6SM BKN060 OVC100 FM1800 18012KT
                       P6SM -RA BKN040 OVC060 FM2300 16008KT P6SM
                       SCT040 BKN060=
200603150539 TAF KSEA 150539Z 150606 18008KT P6SM SCT035 BKN050
                      TEMPO 0608 -SHRA BKN035 OVC050 FM1300 15008KT
                       P6SM SCT050 BKN200 FM1600 15008KT P6SM SCT050
                       BKN100 FM2000 18008KT P6SM -RA BKN040 OVC060=
200603142342 TAF KSEA 142342Z 150024 20009KT P6SM SCT060 BKN070 BKN150
                      TEMPO 0003 -SHRA BKN045 OVC080 FM0300 17007KT
                       P6SM SCT040 BKN090 FM1600 17010KT P6SM BKN045
                       OVC070
                      PROB30 1619 -RA FM1900 19009KT P6SM -RA BKN040
                       OVC060=
200603141734 TAF KSEA 141734Z 141818 21010KT P6SM SCT025 BKN050 BKN070
                      TEMPO 1822 -SHRA BKN025 BKN070 FM2200 18008KT
                       P6SM SCT035 BKN060
                      TEMPO 2202 -SHRA BKN035 OVC060 FM0200 17007KT
                       P6SM SCT040 BKN090 FM1600 17010KT P6SM VCSH
                       BKN035 OVC070=
200603141605 KSEA 141605Z 141612 22012KT P6SM SCT040 BKN070
                      TEMPO 1619 -SHRA BKN040 BKN070 FM1900 20010KT
                       P6SM SCT040 BKN060 BKN080 FM2200 18008KT
                       P6SM -SHRA BKN040 BKN060=
200603141135 TAF KSEA 141135Z 141212 20006KT P6SM -SHRA BKN040 BKN060 FM1600
                       18008KT P6SM SCT040 BKN060 BKN080 FM2200
                       18008KT P6SM -SHRA BKN040 BKN060=
200603140538 TAF KSEA 140538Z 140606 13008KT P6SM SCT030 BKN045 OVC070
                      TEMPO 0608 -RA BKN030 OVC045 FM2000 15006KT
                       P6SM -SHRA BKN045 BKN070=
200603132341 TAF KSEA 132341Z 140024 35006KT P6SM FEW060 BKN150 BKN200 FM0300
                       VRB05KT P6SM BKN090 OVC120 FM0500 12006KT
                       P6SM SCT050 OVC090 FM1000 11007KT P6SM BKN040
                       OVC080
                      PROB30 1016 -RA FM1600 15006KT P6SM -SHRA
                       BKN045 BKN090=
200603131826 TAF KSEA 131826Z 131818 16005KT P6SM SCT080 SCT200 FM0200 11008KT
                       P6SM BKN090 OVC120
                      PROB30 0610 -RA FM1000 11007KT P6SM BKN040
                       OVC080
                      PROB30 1018 -RA=
200603131130 TAF KSEA 131130Z 131212 15006KT P6SM SCT070 SCT200
                      TEMPO 1315 BKN070 FM0200 11008KT P6SM BKN070
                       OVC120 FM0800 11008KT P6SM OVC040
                      PROB30 0812 -RA=
200603130525 TAF KSEA 130525Z 130606 19006KT P6SM SCT200 FM0500 17006KT P6SM
                       BKN100 BKN200=
200603122322 TAF KSEA 122322Z 130024 27007KT P6SM VCTS FEW035CB SCT250 FM0100
                       24005KT P6SM FEW035 SCT250 FM0300 VRB03KT
                       P6SM FEW040 SCT250 FM1900 18008KT P6SM SCT100
                       BKN200=
200603121732 TAF KSEA 121732Z 121818 VRB03KT P6SM SCT200 FM2000 31005KT P6SM
                       SCT200 FM0400 VRB03KT P6SM SCT070 SCT200=
200603121135 TAF KSEA 121135Z 121212 04009KT P6SM SCT200 FM1900 VRB03KT P6SM
                       SCT200=
200603120540 TAF KSEA 120540Z 120606 04012KT P6SM SCT100 BKN200 FM1200 04006KT
                       P6SM SCT100 BKN200 FM1400 00000KT P6SM SCT002
                       BKN100
                      TEMPO 1417 4SM BR BKN002 BKN100 FM1700 VRB03KT
                       P6SM SCT100 BKN200 FM2100 VRB03KT P6SM SCT060=
200603120051 TAF KSEA 120051Z 120124 36006KT P6SM FEW030 SCT120 FM0900 VRB03KT
                       5SM BR SCT004 FM1000 00000KT 3SM BR BKN004
                       TEMPO 1216 1SM BR VV002 FM1700 00000KT 3SM
                       BR SCT004 BKN009 FM1800 VRB03KT P6SM FEW009
                       SCT030 FM1900 VRB03KT P6SM FEW050=
200603112320 TAF KSEA 112320Z 120024 36006KT P6SM FEW030 SCT120 FM0900 VRB03KT
                       5SM BR SCT004 FM1000 00000KT 3SM BR BKN004
                       TEMPO 1216 1SM BR VV002 FM1700 00000KT 3SM
                       BR SCT004 BKN009=
200603112300 TAF KSEA 120051Z 120124 36006KT P6SM FEW030 SCT120 FM0900 VRB03KT
                       5SM BR SCT004 FM1000 00000KT 3SM BR BKN004
                       TEMPO 1216 1SM BR VV002 FM1700 00000KT 3SM
                       BR SCT004 BKN009 FM1800 VRB03KT P6SM FEW009
                       SCT030 FM1900 VRB03KT P6SM FEW050=
200603111720 TAF KSEA 111720Z 111818 00000KT P6SM SCT006 SCT015 BKN080
                      TEMPO 1819 4SM BR BKN006 FM1900 01005KT P6SM
                       SCT018 SCT040
                      TEMPO 1920 BKN018 FM2200 01006KT P6SM VCSH
                       BKN045 FM0900 VRB03KT 5SM BR SCT004 FM1000
                       00000KT 3SM BR BKN004
                      TEMPO 1216 1SM BR VV002 FM1700 00000KT 3SM
                       BR SCT004 BKN009=
200603111606 KSEA 111606Z 111612 00000KT P6SM SCT006 SCT015 BKN080
                      TEMPO 1618 3SM BR BKN006 FM1900 01004KT P6SM
                       SCT030 SCT060 FM2300 01008KT P6SM VCSH BKN050
                       FM0900 01004KT 4SM BR BKN004=
200603111402 KSEA 111402Z 111412 00000KT P6SM SCT004 BKN008 OVC018
                      TEMPO 1416 4SM BR BKN004 OVC008 FM1600 00000KT
                       P6SM SCT009 BKN018 BKN060 FM1900 01004KT
                       P6SM SCT030 SCT060 FM2300 01008KT P6SM VCSH
                       BKN050 FM0900 01004KT 4SM BR BKN004=
200603111141 TAF KSEA 111141Z 111212 00000KT P6SM SCT003 BKN009 OVC018
                      TEMPO 1214 4SM BR BKN003 OVC009 FM1500 00000KT
                       P6SM SCT009 BKN018 BKN060 FM1800 01004KT
                       P6SM SCT030 SCT060 FM2300 01008KT P6SM VCSH
                       BKN050 FM0900 01004KT 4SM BR BKN004=
200603110903 KSEA 110903Z 110906 00000KT P6SM BKN008 BKN060 FM1100 00000KT P6SM
                       SCT010 BKN060
                      TEMPO 1114 5SM BR FM1400 01005KT P6SM SCT060
                       FM2300 01005KT P6SM VCSH BKN050=
200603110535 TAF KSEA 110535Z 110606 01005KT P6SM SCT006 BKN060
                      TEMPO 0608 4SM BR BKN006 BKN060 FM0900 01005KT
                       P6SM SCT030 BKN060 FM1400 01005KT P6SM SCT060
                       FM2300 01005KT P6SM VCSH BKN050=
200603110006 TAF AMD KSEA 110006Z 110024 32008KT P6SM VCSH SCT030 BKN045
                      TEMPO 0001 VRB15KT 2SM -TSSN BR BKN008 BKN020CB
                       FM0500 VRB03KT P6SM SCT050=
200603102328 TAF KSEA 102328Z 110024 32008KT P6SM VCSH SCT030 BKN045
                      TEMPO 0003 5SM SHRAGS BR BKN025 FM0500 VRB03KT
                       P6SM SCT050=
200603102300 KSEA 110006Z 110024 32008KT P6SM VCSH SCT030 BKN045
                      TEMPO 0001 VRB15KT 2SM -TSSN BR BKN008 BKN020CB
                       FM0500 VRB03KT P6SM SCT050=
200603101720 TAF KSEA 101720Z 101818 VRB03KT P6SM SCT020 SCT045 FM2000 VRB03KT
                       P6SM FEW030 SCT050
                      TEMPO 2202 BKN050 FM0200 VRB03KT P6SM SCT050
                       SCT120 FM1200 VRB03KT P6SM BKN015 FM1700
                       VRB03KT P6SM SCT015 SCT045=
200603101602 KSEA 101602Z 101612 17006KT P6SM SCT012 BKN030
                      TEMPO 1618 BKN012 FM1800 VRB03KT P6SM FEW015
                       SCT025 BKN045 FM2000 VRB03KT P6SM SCT025
                       BKN050 FM0200 VRB03KT P6SM SCT050 BKN130=
200603101141 TAF KSEA 101141Z 101212 17006KT 6SM BR SCT005 BKN012 OVC030
                      TEMPO 1216 2SM BR BKN005 OVC012 FM1800 VRB03KT
                       P6SM BKN025 BKN050 FM2000 VRB03KT P6SM SCT025
                       BKN050
                      PROB30 2102 -SHRA FM0200 VRB03KT P6SM SCT050
                       BKN130=
200603101045 KSEA 101045Z 101106 17007KT 6SM BR SCT005 OVC012
                      TEMPO 1113 2SM BR BKN005 FM2000 VRB04KT P6SM
                       SCT025 BKN050
                      PROB30 2002 -SHRASN BKN025 OVC050 FM0200
                       VRB04KT P6SM SCT050 BKN130=
200603100824 KSEA 100824Z 100806 17007KT P6SM VCSH FEW008 SCT012 BKN050
                      TEMPO 0812 -SHRASN BKN008 OVC012 FM2000 VRB04KT
                       P6SM SCT025 BKN050
                      PROB30 2002 -SHRASN BKN025 OVC050 FM0200
                       VRB04KT P6SM SCT050 BKN130=
200603100534 TAF KSEA 100534Z 100606 17007KT P6SM FEW009 SCT012 BKN050
                      TEMPO 0610 -SHRASN FEW009 BKN012 OVC030 FM2000
                       VRB04KT P6SM SCT025 BKN050
                      PROB30 2002 -SHRASN BKN025 OVC050 FM0200
                       VRB04KT P6SM SCT050 BKN130=
200603100344 TAF AMD KSEA 100344Z 100424 17010KT P6SM SCT010 BKN040
                      TEMPO 0406 2SM RASN BKN010 OVC040 FM0600
                       18010KT P6SM BKN030 FM1800 VRB05KT P6SM
                       BKN030 BKN100
                      TEMPO 2024 SCT030 BKN100=
200603100100 TAF AMD KSEA 100100Z 100124 20010G20KT P6SM VCSH SCT020 BKN050
                       TEMPO 0104 3SM -SHRASN OVC015 FM0600 18010KT
                       P6SM BKN030 FM1800 VRB05KT P6SM BKN030 BKN100
                       TEMPO 2024 SCT030 BKN100=
200603100010 TAF AMD KSEA 100010Z 100024 20010G20KT P6SM VCSH SCT020 BKN050
                       TEMPO 0204 3SM -SHRASN OVC015 FM0600 18010KT
                       P6SM BKN030 FM1800 VRB05KT P6SM BKN030 BKN100
                       TEMPO 2024 SCT030 BKN100=
200603092329 TAF KSEA 092329Z 100024 23010G20KT P6SM VCSH BKN015 OVC030
                      TEMPO 0002 2SM -RASN OVC012 FM0200 23010G20KT
                       P6SM VCSH BKN020 BKN100
                      TEMPO 0206 SCT020 SCT100 FM0600 18010KT P6SM
                       BKN030=
200603092300 KSEA 100344Z 100424 17010KT P6SM SCT010 BKN040
                      TEMPO 0406 2SM RASN BKN010 OVC040 FM0600
                       18010KT P6SM BKN030 FM1800 VRB05KT P6SM
                       BKN030 BKN100
                      TEMPO 2024 SCT030 BKN100=
200603092116 KSEA 092116Z 092118 22012G22KT P6SM BKN025
                      TEMPO 2101 SCT025 BKN040 FM0600 18010KT P6SM
                       BKN030=
200603091720 TAF KSEA 091720Z 091818 20012G20KT P6SM VCSH SCT007 BKN015 BKN050
                       TEMPO 1820 3SM -SHRASN BKN007 OVC015 FM2100
                       19010KT P6SM SCT025 BKN050
                      TEMPO 2101 SCT050=
200603091126 TAF KSEA 091126Z 091212 22012KT P6SM SCT015 SCT040 BKN130
                      TEMPO 1216 22010G20KT BKN015 BKN040 OVC130
                       FM1600 22012KT P6SM VCSH SCT015 BKN040 BKN130
                       TEMPO 1620 BKN015 OVC040 FM2100 19010KT
                       P6SM FEW022 SCT040 BKN130
                      PROB30 2102 -SHRA SCT022 OVC040 FM0600 14006KT
                       P6SM FEW022 BKN040 OVC130=
200603090918 KSEA 090918Z 090906 23013G22KT P6SM SCT020 SCT040 BKN130
                      TEMPO 0912 5SM -SHSN BKN020 OVC040 FM1200
                       23013KT P6SM -SHRASN BKN020 OVC040
                      TEMPO 1214 23013G20KT FM1800 23012KT P6SM
                       SCT020 BKN040
                      TEMPO 1822 -SHRA=
200603090858 KSEA 090858Z 090906 23013KT P6SM SCT020 SCT040 BKN130
                      TEMPO 0912 5SM -SHSN BKN020 OVC040 FM1200
                       23013KT P6SM -SHRASN BKN020 OVC040
                      TEMPO 1214 23013G20KT FM1800 23012KT P6SM
                       SCT020 BKN040
                      TEMPO 1822 -SHRA=
200603090626 KSEA 090626Z 090606 24013KT P6SM SCT020 SCT040 BKN130
                      TEMPO 0609 24010G20KT BKN020 BKN040 OVC130
                       FM0900 23013KT P6SM SCT020 OVC040
                      TEMPO 0912 6SM SHRASN BKN020 OVC040 FM1200
                       23013KT P6SM -SHRASN BKN020 OVC040
                      TEMPO 1214 23013G20KT FM1800 23012KT P6SM
                       SCT020 BKN040
                      TEMPO 1822 -SHRA=
200603090537 TAF KSEA 090537Z 090606 23013G23KT P6SM SCT020 SCT040 BKN130
                      TEMPO 0609 SCT020 BKN040 OVC130 FM0900 23013G23KT
                       P6SM SCT020 OVC040
                      TEMPO 0912 6SM SHRASN BKN020 OVC040 FM1200
                       23013KT P6SM -SHRASN BKN020 OVC040
                      TEMPO 1214 23013G20KT FM1800 23012KT P6SM
                       SCT020 BKN040
                      TEMPO 1822 -SHRA=
200603090148 TAF AMD KSEA 090148Z 090224 22020G30KT P6SM FEW014 SCT024 BKN100
                       TEMPO 0206 4SM SHRA OVC020 FM0600 24014KT
                       P6SM VCSH SCT030 BKN060
                      TEMPO 0610 -SHRASN BKN030 OVC060 FM1800 22012KT
                       P6SM VCSH BKN040=
200603082320 TAF KSEA 082320Z 090024 22020G30KT P6SM -RA BKN025 OVC050
                      TEMPO 0004 4SM RA OVC020 FM0600 24014KT P6SM
                       VCSH SCT030 BKN060
                      TEMPO 0610 -SHRASN BKN030 OVC060 FM1800 22012KT
                       P6SM VCSH BKN040=
200603082300 KSEA 090148Z 090224 22020G30KT P6SM FEW014 SCT024 BKN100
                      TEMPO 0206 4SM SHRA OVC020 FM0600 24014KT
                       P6SM VCSH SCT030 BKN060
                      TEMPO 0610 -SHRASN BKN030 OVC060 FM1800 22012KT
                       P6SM VCSH BKN040=
200603081722 TAF KSEA 081722Z 081818 18012G22KT P6SM -RA SCT022 OVC035 FM2100
                       18020G30KT 4SM RA BR OVC020 FM0000 22020G30KT
                       4SM SHRA BKN015 BKN030 FM0300 22015G25KT
                       P6SM -SHRA BKN025 OVC040 FM0800 VRB06KT
                       P6SM -SHRASN BKN030 BKN060=
200603081233 KSEA 081233Z 081312 18015KT P6SM -RA BKN025 OVC040 FM1900 18020G30KT
                       5SM -RA BR OVC025 FM0030 22020G30KT 4SM
                       SHRA SCT009 OVC015 FM0300 22015G25KT P6SM
                       -SHRA BKN025 OVC040 FM0600 22015G25KT P6SM
                       -SHRA SCT025 OVC040=
200603081150 TAF KSEA 081150Z 081212 20012KT P6SM -RA FEW025 OVC040 FM1500 18015KT
                       P6SM -RA BKN025 OVC040 FM1900 18020G30KT
                       5SM -RA BR OVC025 FM0030 22020G30KT 4SM
                       SHRA SCT009 OVC015 FM0300 22015G25KT P6SM
                       -SHRA BKN025 OVC040 FM0600 22015G25KT P6SM
                       -SHRA SCT025 OVC040=
200603081028 KSEA 081028Z 081006 19009KT P6SM FEW028 OVC050
                      TEMPO 1214 -RA FM1400 17012KT P6SM -RA SCT028
                       OVC040 FM1800 17012G22KT 6SM -RA BR OVC025
                       FM0000 20020G30KT 4SM RA BR SCT009 OVC015
                       FM0300 23020G30KT 6SM -RA BKN025 OVC040=
200603080553 TAF KSEA 080553Z 080606 19009KT P6SM SCT060 SCT130 OVC200 FM0900
                       19009KT P6SM SCT060 OVC130 FM1200 17012KT
                       P6SM FEW028 OVC060
                      TEMPO 1214 -RA FM1400 17012KT P6SM -RA SCT028
                       OVC040 FM1800 17012G22KT 6SM -RA BR OVC025
                       FM0000 20020G30KT 4SM RA BR SCT009 OVC015
                       FM0300 23020G30KT 6SM -RA BKN025 OVC040=
200603080317 KSEA 080317Z 080324 22012KT P6SM SCT050 SCT130 BKN200 FM0600 19010KT
                       P6SM BKN040 OVC100 FM1200 16012KT P6SM -RA
                       OVC040 FM2000 16012G22KT P6SM -RA OVC025=
200603072320 TAF KSEA 072320Z 080024 21012KT P6SM VCSH SCT025 BKN040 FM0600
                       19010KT P6SM BKN040 OVC100 FM1200 16012KT
                       P6SM -RA OVC040 FM2000 16012G22KT P6SM -RA
                       OVC025=
200603072300 KSEA 080317Z 080324 22012KT P6SM SCT050 SCT130 BKN200 FM0600 19010KT
                       P6SM BKN040 OVC100 FM1200 16012KT P6SM -RA
                       OVC040 FM2000 16012G22KT P6SM -RA OVC025=
200603072012 KSEA 072012Z 072018 23012KT P6SM VCSH SCT025 BKN040
                      TEMPO 2024 -SHRA BKN025 OVC040 FM0400 19010KT
                       P6SM BKN040 OVC100 FM1000 16012KT P6SM -RA
                       OVC040 FM1700 16012G22KT P6SM -RA OVC025=
200603071720 TAF KSEA 071720Z 071818 21012G20KT P6SM VCSH BKN040 BKN080 FM0400
                       19010KT P6SM BKN040 OVC100 FM1000 16012KT
                       P6SM -RA OVC040 FM1700 16012G22KT P6SM -RA
                       OVC025=
200603071148 TAF KSEA 071148Z 071212 20010KT P6SM VCSH SCT020 BKN040 BKN080
                       TEMPO 1215 BKN020 OVC040 FM1500 22010KT
                       P6SM SCT020 OVC040
                      TEMPO 1518 -SHRA FM1800 22010KT P6SM VCSH
                       BKN050 FM2100 22010KT P6SM SCT050 SCT130
                       BKN200 FM0600 19006KT P6SM SCT050 OVC130
                       FM1000 16009KT P6SM -RA SCT028 OVC050=
200603070835 KSEA 070835Z 070906 19010KT P6SM VCSH SCT015 OVC040
                      TEMPO 0911 BKN015 OVC040 FM1100 19010KT P6SM
                       VCSH BKN015 OVC040 FM1600 22013KT P6SM -SHRA
                       BKN025 OVC040
                      TEMPO 1618 22013G22KT FM1800 22013KT P6SM
                       FEW030 BKN050
                      PROB30 1824 -SHRA=
200603070552 TAF KSEA 070552Z 070606 19010KT P6SM SCT025 OVC040
                      TEMPO 0711 -SHRA BKN025 OVC040 FM1100 19010KT
                       P6SM -SHRA BKN025 OVC040 FM1600 22013KT
                       P6SM -SHRA BKN025 OVC040
                      TEMPO 1618 22013G22KT FM1800 22013KT P6SM
                       FEW030 BKN050
                      PROB30 1824 -SHRA=
200603070310 TAF AMD KSEA 070310Z 070324 19013KT P6SM SCT030 BKN060 OVC200
                      TEMPO 0306 5SM -SHRA BKN030 OVC060 FM0600
                       19012KT P6SM VCSH BKN040 BKN080=
200603070200 KSEA 070200Z 070224 21013G18KT P6SM SCT030 BKN045 BKN070
                      TEMPO 0206 5SM -SHRA SCT020 BKN028 OVC035
                       FM0600 19012KT P6SM VCSH BKN040 BKN080=
200603062320 TAF KSEA 062320Z 070024 20017G27KT P6SM BKN050 BKN100
                      TEMPO 0105 -SHRA BKN040 OVC090 FM0600 19015G25KT
                       P6SM VCSH BKN040 BKN080=
200603062300 KSEA 070310Z 070324 19013KT P6SM SCT030 BKN060 OVC200
                      TEMPO 0306 5SM -SHRA BKN030 OVC060 FM0600
                       19012KT P6SM VCSH BKN040 BKN080=
200603061738 TAF KSEA 061738Z 061818 21015G25KT P6SM VCSH BKN050 BKN100 FM0400
                       19012KT P6SM VCSH BKN040 BKN080=
200603061140 TAF KSEA 061140Z 061212 12011KT P6SM SCT040 OVC070
                      TEMPO 1216 -SHRA BKN040 OVC070 FM1600 16013KT
                       P6SM BKN040 OVC070
                      TEMPO 1620 -SHRA FM2000 20016G24KT P6SM -SHRA
                       BKN035 OVC050 FM0200 19012KT P6SM -SHRA
                       BKN040 OVC070=
200603060529 TAF KSEA 060529Z 060606 12013KT P6SM SCT100 BKN200 FM1000 13015KT
                       P6SM -SHRA BKN050 OVC090 FM1800 20016G24KT
                       P6SM -SHRA BKN040 OVC070 FM0200 19012KT
                       P6SM -SHRA BKN040 OVC070=
200603052326 TAF KSEA 052326Z 060024 VRB04KT P6SM SCT050 BKN090 FM0200 09005KT
                       P6SM SCT050 BKN100 FM1200 13008KT P6SM -SHRA
                       BKN050 OVC090 FM1800 18014G20KT P6SM -SHRA
                       BKN040 OVC070=
200603051725 TAF KSEA 051725Z 051818 12015G23KT P6SM SCT035 BKN050 BKN090
                      TEMPO 1822 -SHRA BKN035 OVC050 FM2200 10008KT
                       P6SM BKN050 OVC100 FM0200 09008KT P6SM SCT050
                       OVC100 FM1200 13008KT P6SM -SHRA BKN040
                       OVC080=
200603051140 TAF KSEA 051140Z 051212 13016G24KT P6SM SCT040 OVC080 FM1500 12016G24KT
                       P6SM SCT025 OVC045
                      TEMPO 1519 -RA FM1900 12008KT P6SM BKN045
                       OVC080
                      TEMPO 1923 -RA FM0200 09009KT P6SM VCSH SCT050
                       OVC100=
200603050537 TAF KSEA 050537Z 050606 04010KT P6SM FEW150 BKN250 FM1000 05008KT
                       P6SM SCT060 OVC120 FM1500 07006KT P6SM -RA
                       BKN050 OVC090 FM2000 12008KT P6SM -SHRA
                       BKN050 BKN090=
200603042324 TAF KSEA 042324Z 050024 36004KT P6SM BKN250 FM0200 05008KT P6SM
                       SCT120 BKN250 FM1000 05008KT P6SM SCT060
                       OVC120 FM1500 07006KT P6SM -RA BKN050 OVC090
                       FM2000 12008KT P6SM -SHRA BKN050 BKN090=
200603041720 TAF KSEA 041720Z 041818 16007KT P6SM SCT030 BKN250 FM0200 05008KT
                       P6SM SCT130 FM0800 05008KT P6SM SCT060 OVC130
                       FM1400 07006KT P6SM -RA BKN050 OVC090=
200603041138 TAF KSEA 041138Z 041212 20005KT P6SM VCSH OVC050 FM1800 22007KT
                       P6SM SCT070 BKN150 FM0200 05008KT P6SM SCT130
                       FM0800 05008KT P6SM SCT060 OVC130=
200603040532 TAF KSEA 040532Z 040606 24009KT P6SM SCT060 OVC100 FM0800 17004KT
                       P6SM BKN060 OVC120
                      TEMPO 0812 -RA OVC050 FM1800 18006KT P6SM
                       SCT070 BKN150 FM0200 05006KT P6SM SCT130=
200603032326 TAF KSEA 032326Z 040024 34010KT P6SM BKN200 FM0300 04004KT P6SM
                       SCT060 BKN130 FM0900 17004KT P6SM BKN060
                       OVC120
                      PROB30 0915 -RA OVC050 FM1800 18006KT P6SM
                       SCT070 BKN150=
200603031731 TAF KSEA 031731Z 031818 02007KT P6SM BKN250 FM2000 32006KT P6SM
                       FEW060 BKN200 FM0300 04003KT P6SM SCT060
                       BKN130 FM0900 17004KT P6SM BKN060 OVC120
                       PROB30 0915 -RA OVC050=
200603031120 TAF KSEA 031120Z 031212 01006KT P6SM SKC FM2000 32006KT P6SM SCT040
                       FM0300 04003KT P6SM SCT060 BKN130=
200603030533 TAF KSEA 030533Z 030606 05006KT P6SM FEW120 SCT200 FM2000 32006KT
                       P6SM SCT040 FM0200 04003KT P6SM SCT130=
200603022334 TAF KSEA 022334Z 030024 23014G20KT P6SM SCT060 BKN200 FM0400 19010KT
                       P6SM SCT040 BKN060 FM0900 04006KT P6SM SCT060=
200603021739 TAF KSEA 021739Z 021818 19014G24KT P6SM SCT050 BKN120 FM2000 19014G24KT
                       P6SM -SHRA SCT030 BKN050 BKN080 FM0400 12006KT
                       P6SM SCT040 BKN060 FM0800 04006KT P6SM SCT060=
200603021501 KSEA 021501Z 021512 15014G22KT P6SM VCSH SCT035 OVC060 FM2000 20012KT
                       P6SM -SHRA SCT040 BKN070 FM0200 05005KT
                       P6SM SCT080=
200603021135 TAF KSEA 021135Z 021212 14022G33KT P6SM BKN040 OVC070
                      TEMPO 1216 -RA FM1400 16014G22KT P6SM -RA
                       BKN035 OVC060 FM2000 20012KT P6SM -SHRA
                       SCT040 BKN070 FM0200 05005KT P6SM SCT080=
200603020539 TAF KSEA 020539Z 020606 12024G36KT P6SM FEW080 SCT120 BKN200 FM1200
                       14014G22KT P6SM BKN060 OVC120
                      PROB40 1420 -RA FM2000 20012KT P6SM -RA BKN040
                       OVC070 }=
200603012339 TAF KSEA 012339Z 020024 11012G18KT P6SM SCT080 BKN200 FM1200 13008KT
                       P6SM SCT040 BKN080 BKN120 FM1900 13008KT
                       P6SM BKN040 OVC070=
200603011738 TAF KSEA 011738Z 011818 13010KT P6SM BKN080 BKN200 FM0900 11006KT
                       P6SM BKN040 OVC070 FM1200 16006KT P6SM BKN025
                       OVC040=
200603011137 TAF KSEA 011137Z 011212 14007KT P6SM VCSH SCT050 OVC070 FM1800
                       12008KT P6SM VCSH OVC080 FM0200 07008KT
                       P6SM BKN090=
200603010539 TAF KSEA 010539Z 010606 14007KT P6SM BKN070 FM2200 12008KT P6SM
                       VCSH OVC060 FM0300 07008KT P6SM BKN100=
200603010201 TAF AMD KSEA 010201Z 010224 20012KT P6SM SCT030 BKN060 BKN200 FM0500
                       17009KT P6SM SCT060 BKN200 FM0700 14006KT
                       P6SM SCT060 BKN120 FM1700 12008KT P6SM SCT040
                       BKN070 OVC120 FM2200 12008KT P6SM -RA OVC045=