##########################################################
# Query made at 02/18/2025 01:19:05 UTC
# Time interval: from 06/01/2006 00:00  to 06/30/2006 23:59  UTC
##########################################################

##########################################################
# KSEA, Seattle, Seattle-Tacoma International Airport (United States)
# WMO index: 72793. WIGOS ID: 0-20000-0-72793
# Latitude 47-27-00N. Longitude 122-17-59W. Altitude 130 m.
##########################################################

###################################
#  METAR/SPECI from KSEA
###################################
200606302356 METAR KSEA 302356Z VRB05KT 10SM FEW250 29/10 A3005 RMK AO2 SLP180 T02890100 10289 20222 58014=
200606302256 METAR KSEA 302256Z VRB06KT 10SM FEW250 29/09 A3007 RMK AO2 SLP185 T02890089=
200606302156 METAR KSEA 302156Z 29006KT 10SM FEW040 28/11 A3008 RMK AO2 SLP189 T02780111=
200606302056 METAR KSEA 302056Z VRB04KT 10SM CLR 27/11 A3009 RMK AO2 SLP195 T02670111 57013=
200606301956 METAR KSEA 301956Z 28006KT 10SM CLR 26/12 A3011 RMK AO2 SLP199 T02560117=
200606301856 METAR KSEA 301856Z VRB03KT 10SM CLR 23/11 A3012 RMK AO2 SLP204 T02330111=
200606301756 METAR KSEA 301756Z VRB04KT 10SM CLR 22/11 A3013 RMK AO2 SLP208 T02220111 10228 20139 58005=
200606301656 METAR KSEA 301656Z VRB04KT 10SM CLR 21/12 A3014 RMK AO2 SLP212 T02060117=
200606301556 METAR KSEA 301556Z 23004KT 10SM CLR 18/10 A3015 RMK AO2 SLP214 T01830100=
200606301456 METAR KSEA 301456Z 19004KT 10SM FEW120 17/10 A3015 RMK AO2 SLP213 T01670100 51009=
200606301356 METAR KSEA 301356Z 18004KT 10SM FEW120 16/10 A3014 RMK AO2 SLP211 T01560100=
200606301256 METAR KSEA 301256Z 18004KT 10SM FEW100 SCT150 14/09 A3014 RMK AO2 SLP209 T01390089=
200606301156 METAR KSEA 301156Z 00000KT 10SM FEW100 14/09 A3012 RMK AO2 SLP203 T01440094 10200 20144 53003=
200606301056 METAR KSEA 301056Z 00000KT 10SM FEW150 15/09 A3012 RMK AO2 SLP202 T01500089=
200606300956 METAR KSEA 300956Z 00000KT 10SM FEW150 15/10 A3011 RMK AO2 SLP200 T01500100=
200606300856 METAR KSEA 300856Z 00000KT 10SM FEW120 SCT150 16/09 A3011 RMK AO2 SLP200 T01560094 53002=
200606300756 METAR KSEA 300756Z 31003KT 10SM FEW120 17/08 A3011 RMK AO2 SLP200 T01670083 402670128=
200606300656 METAR KSEA 300656Z 00000KT 10SM FEW120 17/09 A3010 RMK AO2 SLP198 T01670094=
200606300556 METAR KSEA 300556Z 00000KT 10SM FEW120 SCT150 18/11 A3010 RMK AO2 SLP198 T01830111 10267 20183 51008=
200606300456 METAR KSEA 300456Z 00000KT 10SM FEW120 SCT150 BKN250 21/07 A3010 RMK AO2 SLP198 T02060072=
200606300356 METAR KSEA 300356Z 31003KT 10SM FEW120 SCT150 BKN250 21/07 A3009 RMK AO2 SLP193 ACSL SE T02110072=
200606300256 METAR KSEA 300256Z 29003KT 10SM SCT120 SCT150 BKN250 23/08 A3008 RMK AO2 SLP190 ACSL SE T02280078 55000=
200606300156 METAR KSEA 300156Z 30003KT 10SM FEW100 SCT180 BKN250 26/06 A3007 RMK AO2 SLP186 ACSL SE T02560061=
200606300056 METAR KSEA 300056Z 27004KT 10SM FEW100 SCT180 BKN250 26/07 A3007 RMK AO2 SLP187 T02610072=
200606292356 METAR KSEA 292356Z 28006KT 10SM SCT180 BKN250 26/08 A3008 RMK AO2 SLP189 T02610078 10267 20200 56005=
200606292256 METAR KSEA 292256Z 30006KT 10SM BKN200 25/08 A3008 RMK AO2 SLP191 T02500083=
200606292156 METAR KSEA 292156Z 28008KT 10SM BKN200 25/09 A3009 RMK AO2 SLP193 T02500094=
200606292056 METAR KSEA 292056Z 28007KT 10SM BKN200 23/10 A3009 RMK AO2 SLP195 T02330100 58004=
200606291956 METAR KSEA 291956Z 29006KT 10SM BKN200 22/11 A3010 RMK AO2 SLP198 T02220106=
200606291856 METAR KSEA 291856Z 29007KT 9SM BKN200 21/11 A3010 RMK AO2 SLP198 T02060106=
200606291756 METAR KSEA 291756Z 30007KT 10SM BKN200 21/11 A3011 RMK AO2 SLP199 T02060111 10206 20128 56006=
200606291656 METAR KSEA 291656Z 29006KT 10SM BKN200 18/11 A3011 RMK AO2 SLP202 T01830111=
200606291556 METAR KSEA 291556Z 01008KT 10SM BKN200 17/08 A3012 RMK AO2 SLP203 T01720083=
200606291456 METAR KSEA 291456Z 02007KT 10SM BKN200 16/08 A3012 RMK AO2 SLP205 T01610078 51010=
200606291356 METAR KSEA 291356Z 02006KT 10SM BKN250 14/08 A3011 RMK AO2 SLP200 T01390078=
200606291256 METAR KSEA 291256Z 06004KT 10SM BKN250 13/08 A3012 RMK AO2 SLP203 T01330078=
200606291156 METAR KSEA 291156Z 02007KT 10SM SCT250 13/07 A3009 RMK AO2 SLP195 T01280067 10172 20128 51006=
200606291056 METAR KSEA 291056Z 34004KT 10SM CLR 13/08 A3009 RMK AO2 SLP194 T01330078=
200606290956 METAR KSEA 290956Z 04013KT 10SM CLR 14/08 A3009 RMK AO2 SLP193 T01440078=
200606290856 METAR KSEA 290856Z 03011KT 10SM CLR 15/07 A3008 RMK AO2 SLP189 T01500072 58002=
200606290756 METAR KSEA 290756Z 03011KT 10SM CLR 16/07 A3008 RMK AO2 SLP190 T01610067 402330100=
200606290656 METAR KSEA 290656Z 02008KT 10SM CLR 17/04 A3008 RMK AO2 SLP191 T01720044=
200606290556 METAR KSEA 290556Z 36007KT 10SM FEW200 17/03 A3008 RMK AO2 SLP192 T01720033 10233 20172 53008=
200606290456 METAR KSEA 290456Z 35005KT 10SM FEW200 18/00 A3007 RMK AO2 SLP188 T01830000=
200606290356 METAR KSEA 290356Z 34006KT 10SM FEW200 20/01 A3007 RMK AO2 SLP187 T02000006=
200606290256 METAR KSEA 290256Z 31006KT 10SM FEW200 22/09 A3006 RMK AO2 SLP183 T02170094 55001=
200606290156 METAR KSEA 290156Z 29008KT 10SM FEW200 22/10 A3005 RMK AO2 SLP180 T02220100=
200606290056 METAR KSEA 290056Z 30007KT 10SM FEW200 23/10 A3005 RMK AO2 SLP181 T02330100=
200606282356 METAR KSEA 282356Z 25004KT 10SM FEW200 23/09 A3006 RMK AO2 SLP185 T02330089 10233 20161 58012=
200606282256 METAR KSEA 282256Z 28005KT 10SM FEW200 22/09 A3008 RMK AO2 SLP191 T02220094=
200606282156 METAR KSEA 282156Z 27006KT 10SM FEW200 22/10 A3009 RMK AO2 SLP196 T02170100 $=
200606282056 METAR KSEA 282056Z 29007KT 10SM FEW200 21/11 A3010 RMK AO2 SLP197 T02110106 $=
200606281956 METAR KSEA 281956Z 27007KT 10SM FEW200 19/09 A3011 RMK AO2 SLP200 T01940094 $=
200606281856 METAR KSEA 281856Z VRB05KT 10SM FEW025 SCT200 18/09 A3011 RMK AO2 SLP203 T01830089 $=
200606281756 METAR KSEA 281756Z 30005KT 10SM FEW020 SCT200 17/10 A3012 RMK AO2 SLP204 T01670100 10167 20100 51001=
200606281656 METAR KSEA 281656Z VRB04KT 10SM FEW015 SCT200 15/09 A3012 RMK AO2 SLP203 T01500089=
200606281556 METAR KSEA 281556Z 21005KT 10SM SCT013 13/08 A3012 RMK AO2 SLP204 T01330083=
200606281456 METAR KSEA 281456Z VRB03KT 10SM SCT011 13/09 A3011 RMK AO2 SLP201 T01330094 51006=
200606281356 METAR KSEA 281356Z VRB03KT 10SM FEW010 SCT200 12/08 A3011 RMK AO2 SLP200 T01170083=
200606281256 METAR KSEA 281256Z 19005KT 10SM FEW008 SCT200 11/08 A3011 RMK AO2 SLP201 T01060083=
200606281214 SPECI KSEA 281214Z 20004KT 10SM FEW008 SCT010 11/09 A3010 RMK AO2=
200606281214 SPECI KSEA 281214Z 20004KT 10SM FEW008 SCT010 11/09 A3010 RMK AO2=
200606281156 METAR KSEA 281156Z 20004KT 10SM FEW015 11/09 A3010 RMK AO2 SLP196 T01060089 10156 20106 51012=
200606281056 METAR KSEA 281056Z 22004KT 10SM CLR 11/09 A3009 RMK AO2 SLP193 T01060089=
200606280956 METAR KSEA 280956Z 22005KT 10SM CLR 11/09 A3008 RMK AO2 SLP190 T01110089=
200606280856 METAR KSEA 280856Z 22005KT 10SM CLR 12/09 A3006 RMK AO2 SLP183 T01220094 51012=
200606280756 METAR KSEA 280756Z 23005KT 10SM CLR 13/09 A3005 RMK AO2 SLP180 T01280094 402940128=
200606280656 METAR KSEA 280656Z 21006KT 10SM FEW070 14/09 A3004 RMK AO2 SLP176 T01390094=
200606280556 METAR KSEA 280556Z 23007KT 10SM FEW060 16/10 A3003 RMK AO2 SLP172 T01560100 10278 20156 53021=
200606280456 METAR KSEA 280456Z 30005KT 10SM FEW060 17/12 A3000 RMK AO2 SLP165 T01720117=
200606280356 METAR KSEA 280356Z 21003KT 10SM FEW060 19/11 A2998 RMK AO2 SLP155 T01940111=
200606280256 METAR KSEA 280256Z 28005KT 10SM FEW250 22/12 A2996 RMK AO2 SLP149 T02220122 53008=
200606280156 METAR KSEA 280156Z 28005KT 10SM FEW250 25/13 A2995 RMK AO2 SLP145 T02500133=
200606280056 METAR KSEA 280056Z 22009KT 10SM SCT250 27/14 A2994 RMK AO2 SLP143 T02670144=
200606272356 METAR KSEA 272356Z 23011KT 10SM SCT250 28/14 A2994 RMK AO2 SLP141 T02780144 10294 20222 56005=
200606272256 METAR KSEA 272256Z 24009KT 10SM SCT250 28/14 A2995 RMK AO2 SLP144 T02830139=
200606272156 METAR KSEA 272156Z 22009KT 10SM FEW250 28/14 A2995 RMK AO2 SLP145 T02780139=
200606272056 METAR KSEA 272056Z VRB06KT 10SM FEW250 28/14 A2996 RMK AO2 SLP147 T02780139 50000=
200606271956 METAR KSEA 271956Z 30007KT 10SM FEW250 27/12 A2996 RMK AO2 SLP149 T02670117=
200606271856 METAR KSEA 271856Z 31009KT 10SM FEW250 24/13 A2996 RMK AO2 SLP148 T02440133=
200606271756 METAR KSEA 271756Z 28009KT 10SM FEW250 22/14 A2995 RMK AO2 SLP147 T02220139 10233 20161 53002=
200606271656 METAR KSEA 271656Z 30006KT 10SM FEW250 23/14 A2995 RMK AO2 SLP146 T02280139=
200606271556 METAR KSEA 271556Z 06005KT 10SM FEW250 23/11 A2995 RMK AO2 SLP145 T02280106=
200606271456 METAR KSEA 271456Z 01007KT 10SM FEW250 21/12 A2995 RMK AO2 SLP144 T02110117 51010=
200606271356 METAR KSEA 271356Z 36005KT 10SM FEW200 19/11 A2994 RMK AO2 SLP140 T01940106=
200606271256 METAR KSEA 271256Z 36004KT 10SM FEW200 18/11 A2993 RMK AO2 SLP139 T01780111=
200606271156 METAR KSEA 271156Z 29003KT 10SM FEW170 17/11 A2992 RMK AO2 SLP135 T01670111 10250 20167 51001=
200606271056 METAR KSEA 271056Z 36003KT 10SM CLR 19/11 A2992 RMK AO2 SLP134 T01890111=
200606270956 METAR KSEA 270956Z 34003KT 10SM CLR 19/11 A2992 RMK AO2 SLP134 T01940106=
200606270856 METAR KSEA 270856Z 35003KT 10SM CLR 21/09 A2992 RMK AO2 SLP133 T02110094 50001=
200606270756 METAR KSEA 270756Z 03008KT 10SM CLR 23/08 A2992 RMK AO2 SLP133 T02330083 403220194=
200606270656 METAR KSEA 270656Z 06006KT 10SM CLR 24/07 A2992 RMK AO2 SLP133 T02440072=
200606270556 METAR KSEA 270556Z 06007KT 10SM CLR 26/08 A2991 RMK AO2 SLP131 T02560083 10317 20250 50005=
200606270456 METAR KSEA 270456Z 02007KT 10SM CLR 26/09 A2991 RMK AO2 SLP132 T02560094=
200606270356 METAR KSEA 270356Z 36007KT 10SM CLR 27/11 A2990 RMK AO2 SLP127 T02720106=
200606270256 METAR KSEA 270256Z 01007KT 10SM CLR 30/09 A2990 RMK AO2 SLP127 T03000089 56010=
200606270156 METAR KSEA 270156Z 02009KT 10SM CLR 31/11 A2990 RMK AO2 SLP129 T03110106=
200606270056 METAR KSEA 270056Z 35008KT 10SM FEW050 31/13 A2991 RMK AO2 SLP132 T03110128=
200606262356 METAR KSEA 262356Z 35009KT 9SM FEW050 32/14 A2993 RMK AO2 SLP137 T03170139 10322 20267 57022=
200606262256 METAR KSEA 262256Z 36007KT 10SM CLR 32/14 A2995 RMK AO2 SLP145 T03170139=
200606262156 METAR KSEA 262156Z 34006KT 10SM CLR 31/14 A2997 RMK AO2 SLP152 T03060139=
200606262056 METAR KSEA 262056Z 35009KT 10SM CLR 30/13 A2999 RMK AO2 SLP159 T03000133 58018=
200606261956 METAR KSEA 261956Z 01009KT 10SM CLR 29/13 A3002 RMK AO2 SLP167 T02890128=
200606261856 METAR KSEA 261856Z 36009KT 10SM CLR 28/13 A3003 RMK AO2 SLP173 T02780133=
200606261756 METAR KSEA 261756Z 01008KT 10SM CLR 27/13 A3005 RMK AO2 SLP177 T02670133 10272 20194 58014=
200606261656 METAR KSEA 261656Z 01011KT 10SM CLR 26/13 A3006 RMK AO2 SLP182 T02560128=
200606261556 METAR KSEA 261556Z 02009KT 10SM CLR 24/13 A3008 RMK AO2 SLP187 T02440128=
200606261456 METAR KSEA 261456Z 02011KT 10SM CLR 22/12 A3009 RMK AO2 SLP192 T02220122 58000=
200606261356 METAR KSEA 261356Z 02011KT 10SM CLR 21/11 A3009 RMK AO2 SLP193 T02060111=
200606261256 METAR KSEA 261256Z 04008KT 10SM CLR 20/10 A3009 RMK AO2 SLP193 T02000100=
200606261156 METAR KSEA 261156Z 06005KT 10SM CLR 20/10 A3009 RMK AO2 SLP191 T02000100 10244 20200 58002=
200606261056 METAR KSEA 261056Z 03007KT 10SM CLR 21/08 A3009 RMK AO2 SLP193 T02060083=
200606260956 METAR KSEA 260956Z 03007KT 10SM CLR 21/08 A3009 RMK AO2 SLP193 T02110083=
200606260856 METAR KSEA 260856Z 02008KT 10SM CLR 22/08 A3010 RMK AO2 SLP194 T02220078 58007=
200606260756 METAR KSEA 260756Z 03008KT 10SM CLR 23/07 A3011 RMK AO2 SLP198 T02330072 403110167=
200606260656 METAR KSEA 260656Z 35007KT 10SM CLR 24/07 A3011 RMK AO2 SLP200 T02390067=
200606260556 METAR KSEA 260556Z 36008KT 10SM CLR 24/08 A3012 RMK AO2 SLP202 T02440078 10311 20244 53002=
200606260456 METAR KSEA 260456Z 36007KT 10SM CLR 26/09 A3012 RMK AO2 SLP202 T02560089=
200606260356 METAR KSEA 260356Z 02008KT 10SM CLR 27/09 A3011 RMK AO2 SLP199 T02720089=
200606260256 METAR KSEA 260256Z 35009KT 10SM CLR 28/10 A3011 RMK AO2 SLP200 T02780100 56008=
200606260156 METAR KSEA 260156Z 35011KT 10SM CLR 29/11 A3011 RMK AO2 SLP201 T02940106=
200606260056 METAR KSEA 260056Z 36010KT 10SM CLR 30/11 A3012 RMK AO2 SLP204 T03000106=
200606252356 METAR KSEA 252356Z 36010KT 10SM CLR 31/11 A3014 RMK AO2 SLP208 T03060111 10311 20250 56016=
200606252256 METAR KSEA 252256Z 36011KT 10SM CLR 31/10 A3015 RMK AO2 SLP213 T03060100=
200606252156 METAR KSEA 252156Z 36013KT 10SM CLR 29/09 A3017 RMK AO2 SLP219 T02940094=
200606252056 METAR KSEA 252056Z 35015G19KT 10SM CLR 29/11 A3018 RMK AO2 SLP225 T02940111 58014=
200606251956 METAR KSEA 251956Z 36012KT 10SM CLR 28/12 A3020 RMK AO2 SLP232 T02780117=
200606251856 METAR KSEA 251856Z 36010KT 10SM CLR 26/11 A3022 RMK AO2 SLP236 T02610111=
200606251756 METAR KSEA 251756Z 02012KT 10SM CLR 25/11 A3023 RMK AO2 SLP239 T02500111 10250 20167 58004=
200606251656 METAR KSEA 251656Z 01010KT 10SM CLR 24/11 A3024 RMK AO2 SLP243 T02390111=
200606251556 METAR KSEA 251556Z 02012KT 10SM CLR 22/10 A3024 RMK AO2 SLP243 T02220100=
200606251456 METAR KSEA 251456Z 01009KT 10SM CLR 21/11 A3024 RMK AO2 SLP243 T02060106 51005=
200606251356 METAR KSEA 251356Z 03008KT 10SM CLR 19/11 A3024 RMK AO2 SLP242 T01890106=
200606251256 METAR KSEA 251256Z 05007KT 10SM CLR 18/10 A3023 RMK AO2 SLP241 T01780100=
200606251156 METAR KSEA 251156Z 03009KT 10SM CLR 17/09 A3022 RMK AO2 SLP238 T01720089 10217 20167 52001=
200606251056 METAR KSEA 251056Z 04008KT 10SM CLR 18/08 A3022 RMK AO2 SLP237 T01780078=
200606250956 METAR KSEA 250956Z 02006KT 10SM CLR 18/07 A3022 RMK AO2 SLP237 T01830072=
200606250856 METAR KSEA 250856Z 04004KT 10SM CLR 19/08 A3022 RMK AO2 SLP237 T01890078 56002=
200606250756 METAR KSEA 250756Z 02007KT 10SM CLR 19/07 A3022 RMK AO2 SLP237 T01940072 402780128=
200606250656 METAR KSEA 250656Z 02007KT 10SM CLR 21/07 A3023 RMK AO2 SLP239 T02060072=
200606250556 METAR KSEA 250556Z 03010KT 10SM CLR 22/07 A3023 RMK AO2 SLP239 T02170072 10272 20217 53005=
200606250456 METAR KSEA 250456Z 03010KT 10SM CLR 23/08 A3022 RMK AO2 SLP237 T02280083=
200606250356 METAR KSEA 250356Z 36010KT 10SM CLR 23/09 A3021 RMK AO2 SLP234 T02330094=
200606250256 METAR KSEA 250256Z 01011KT 10SM CLR 26/09 A3021 RMK AO2 SLP235 T02560094 56008=
200606250156 METAR KSEA 250156Z 36011KT 10SM CLR 26/10 A3022 RMK AO2 SLP236 T02610100=
200606250056 METAR KSEA 250056Z 36012KT 10SM CLR 27/09 A3022 RMK AO2 SLP237 T02720094=
200606242356 METAR KSEA 242356Z 35010KT 10SM CLR 27/10 A3023 RMK AO2 SLP243 T02720100 10278 20211 56012=
200606242256 METAR KSEA 242256Z 36012KT 10SM CLR 27/10 A3024 RMK AO2 SLP246 T02720100=
200606242156 METAR KSEA 242156Z 36009KT 10SM CLR 26/09 A3026 RMK AO2 SLP251 T02610094=
200606242056 METAR KSEA 242056Z 35008KT 320V020 10SM CLR 26/09 A3027 RMK AO2 SLP255 T02560094 56009=
200606241956 METAR KSEA 241956Z VRB06G14KT 10SM CLR 25/09 A3027 RMK AO2 SLP257 T02500094=
200606241856 METAR KSEA 241856Z 01007KT 330V040 10SM CLR 24/10 A3029 RMK AO2 SLP262 T02390100=
200606241756 METAR KSEA 241756Z 02007KT 10SM CLR 21/09 A3030 RMK AO2 SLP264 T02110094 10211 20128 58001=
200606241656 METAR KSEA 241656Z 35008KT 10SM CLR 21/10 A3030 RMK AO2 SLP265 T02060100=
200606241556 METAR KSEA 241556Z 01005KT 10SM CLR 18/09 A3030 RMK AO2 SLP266 T01780089=
200606241456 METAR KSEA 241456Z 05008KT 10SM CLR 17/07 A3030 RMK AO2 SLP265 T01670072 50002=
200606241356 METAR KSEA 241356Z 35006KT 10SM CLR 16/08 A3030 RMK AO2 SLP266 T01560078=
200606241256 METAR KSEA 241256Z 05005KT 10SM CLR 14/07 A3030 RMK AO2 SLP265 T01390072=
200606241156 METAR KSEA 241156Z 04004KT 10SM CLR 13/07 A3029 RMK AO2 SLP263 T01330067 10172 20133 55001=
200606241056 METAR KSEA 241056Z 06004KT 10SM CLR 14/07 A3029 RMK AO2 SLP262 T01440067=
200606240956 METAR KSEA 240956Z 06008KT 10SM CLR 14/07 A3029 RMK AO2 SLP261 T01440072=
200606240856 METAR KSEA 240856Z 04013KT 10SM CLR 15/07 A3030 RMK AO2 SLP264 T01500067 57001=
200606240756 METAR KSEA 240756Z 04010KT 10SM CLR 16/07 A3030 RMK AO2 SLP264 T01560067 402330111=
200606240656 METAR KSEA 240656Z 03008KT 10SM CLR 17/08 A3030 RMK AO2 SLP265 T01670078=
200606240556 METAR KSEA 240556Z 02007KT 10SM CLR 17/08 A3030 RMK AO2 SLP265 T01720083 10233 20167 53004=
200606240456 METAR KSEA 240456Z 36005KT 10SM FEW250 17/08 A3029 RMK AO2 SLP264 T01720078=
200606240356 METAR KSEA 240356Z 36007KT 10SM FEW250 19/04 A3029 RMK AO2 SLP261 T01940044=
200606240256 METAR KSEA 240256Z 34009KT 10SM FEW250 21/06 A3029 RMK AO2 SLP260 T02110061 56008=
200606240156 METAR KSEA 240156Z 35011KT 10SM FEW250 22/07 A3029 RMK AO2 SLP260 T02220072=
200606240056 METAR KSEA 240056Z 35011KT 10SM FEW250 23/06 A3029 RMK AO2 SLP264 T02280056=
200606232356 METAR KSEA 232356Z 34010KT 10SM FEW250 23/08 A3031 RMK AO2 SLP269 T02330078 10233 20178 58013=
200606232256 METAR KSEA 232256Z 33005KT 10SM FEW250 23/08 A3032 RMK AO2 SLP274 T02280083=
200606232156 METAR KSEA 232156Z 35007G15KT 320V030 10SM FEW250 22/08 A3034 RMK AO2 SLP279 T02220078=
200606232056 METAR KSEA 232056Z 30011KT 10SM FEW040 SCT250 21/09 A3035 RMK AO2 SLP283 T02110094 56006=
200606231956 METAR KSEA 231956Z VRB06KT 10SM SCT250 21/08 A3035 RMK AO2 SLP284 T02060083=
200606231856 METAR KSEA 231856Z 01009KT 10SM SCT250 19/08 A3036 RMK AO2 SLP286 T01890078=
200606231756 METAR KSEA 231756Z 32005KT 10SM FEW250 18/09 A3037 RMK AO2 SLP289 T01780094 10178 20111 56005=
200606231656 METAR KSEA 231656Z 36008KT 10SM FEW250 16/07 A3037 RMK AO2 SLP289 T01610072=
200606231556 METAR KSEA 231556Z 05007KT 360V070 10SM FEW250 16/07 A3037 RMK AO2 SLP289 T01560067=
200606231456 METAR KSEA 231456Z 05006KT 10SM FEW250 14/06 A3038 RMK AO2 SLP294 T01390061 51009=
200606231356 METAR KSEA 231356Z 04009KT 10SM FEW039 13/06 A3038 RMK AO2 SLP292 T01280056=
200606231256 METAR KSEA 231256Z 06004KT 10SM FEW200 12/06 A3037 RMK AO2 SLP288 T01170056=
200606231156 METAR KSEA 231156Z 04006KT 10SM FEW200 11/06 A3036 RMK AO2 SLP285 T01110056 10144 20111 53002=
200606231056 METAR KSEA 231056Z 05008KT 10SM CLR 12/06 A3035 RMK AO2 SLP282 T01170061=
200606230956 METAR KSEA 230956Z 06009KT 10SM CLR 12/06 A3035 RMK AO2 SLP282 T01170056=
200606230856 METAR KSEA 230856Z 04009KT 10SM CLR 12/06 A3035 RMK AO2 SLP283 T01220056 51003=
200606230756 METAR KSEA 230756Z 04008KT 10SM FEW150 13/05 A3035 RMK AO2 SLP282 T01280050 402220106=
200606230656 METAR KSEA 230656Z 03007KT 10SM FEW180 13/05 A3034 RMK AO2 SLP281 T01330050=
200606230556 METAR KSEA 230556Z 03008KT 10SM FEW050 14/05 A3034 RMK AO2 SLP280 T01440050 10222 20144 53009=
200606230456 METAR KSEA 230456Z 02011KT 10SM FEW050 15/06 A3033 RMK AO2 SLP277 T01500056=
200606230356 METAR KSEA 230356Z 01011KT 10SM FEW050 16/06 A3032 RMK AO2 SLP272 T01610061=
200606230256 METAR KSEA 230256Z 36008KT 10SM FEW050 SCT250 18/06 A3031 RMK AO2 SLP270 T01780061 56004=
200606230156 METAR KSEA 230156Z 03006KT 10SM FEW045 SCT250 21/07 A3032 RMK AO2 SLP272 T02060072=
200606230056 METAR KSEA 230056Z 00000KT 10SM SCT045 SCT250 21/07 A3032 RMK AO2 SLP272 T02110067=
200606222356 METAR KSEA 222356Z VRB03KT 10SM SCT045 SCT250 21/05 A3032 RMK AO2 SLP274 T02110050 10217 20156 58010=
200606222256 METAR KSEA 222256Z VRB04KT 10SM SCT045 21/07 A3034 RMK AO2 SLP280 T02060072=
200606222156 METAR KSEA 222156Z 26006KT 10SM SCT045 21/10 A3035 RMK AO2 SLP284 T02110100=
200606222056 METAR KSEA 222056Z 29008KT 10SM SCT041 20/10 A3036 RMK AO2 SLP285 T02000100 50000=
200606221956 METAR KSEA 221956Z VRB04KT 10SM SCT038 SCT050 18/08 A3036 RMK AO2 SLP288 T01830083=
200606221856 METAR KSEA 221856Z VRB06KT 10SM FEW030 BKN040 17/09 A3037 RMK AO2 SLP290 T01720094=
200606221756 METAR KSEA 221756Z 26006KT 10SM SCT030 BKN035 16/10 A3036 RMK AO2 SLP285 T01560100 10172 20106 51002=
200606221656 METAR KSEA 221656Z VRB04KT 10SM SCT025 SCT080 16/08 A3036 RMK AO2 SLP285 T01610083=
200606221556 METAR KSEA 221556Z 05004KT 10SM FEW020 SCT080 15/08 A3037 RMK AO2 SLP290 T01500078=
200606221456 METAR KSEA 221456Z VRB04KT 10SM FEW020 SCT080 13/08 A3035 RMK AO2 SLP282 T01330078 53009=
200606221356 METAR KSEA 221356Z 12004KT 10SM FEW045 SCT100 12/08 A3034 RMK AO2 SLP279 T01170078=
200606221256 METAR KSEA 221256Z 13004KT 10SM FEW045 11/08 A3033 RMK AO2 SLP275 T01060078=
200606221156 METAR KSEA 221156Z 04006KT 10SM SCT047 11/07 A3032 RMK AO2 SLP273 T01110072 10144 20111 50002=
200606221056 METAR KSEA 221056Z 03004KT 10SM BKN047 12/08 A3032 RMK AO2 SLP274 T01220078=
200606220956 METAR KSEA 220956Z 04004KT 10SM FEW045 12/08 A3032 RMK AO2 SLP273 T01220078=
200606220856 METAR KSEA 220856Z 06006KT 10SM BKN045 12/08 A3031 RMK AO2 SLP271 T01220083 57003=
200606220756 METAR KSEA 220756Z 04010KT 10SM BKN045 13/08 A3032 RMK AO2 SLP272 T01280078 402060111=
200606220656 METAR KSEA 220656Z 04009KT 10SM FEW050 13/08 A3032 RMK AO2 SLP272 T01330078=
200606220556 METAR KSEA 220556Z 05009KT 10SM FEW060 14/07 A3032 RMK AO2 SLP274 T01440067 10200 20144 53001=
200606220456 METAR KSEA 220456Z 02007KT 10SM FEW060 SCT250 15/08 A3032 RMK AO2 SLP272 T01500078=
200606220356 METAR KSEA 220356Z 35007KT 10SM FEW060 SCT250 16/08 A3031 RMK AO2 SLP271 T01560083=
200606220256 METAR KSEA 220256Z 35008KT 10SM FEW060 SCT250 18/08 A3032 RMK AO2 SLP273 T01780083 56008=
200606220156 METAR KSEA 220156Z 31007KT 10SM SCT065 SCT250 19/09 A3032 RMK AO2 SLP274 T01890089=
200606220056 METAR KSEA 220056Z 30009KT 10SM FEW045 SCT065 SCT250 19/08 A3033 RMK AO2 SLP276 T01940083=
200606212356 METAR KSEA 212356Z 32007KT 10SM SCT044 SCT060 BKN250 21/08 A3034 RMK AO2 SLP281 T02060083 10206 20144 58010=
200606212256 METAR KSEA 212256Z VRB03KT 10SM FEW036 SCT046 BKN060 18/09 A3036 RMK AO2 SLP285 T01830089=
200606212156 METAR KSEA 212156Z 36005KT 10SM FEW031 SCT038 SCT060 17/08 A3036 RMK AO2 SLP288 T01720083=
200606212056 METAR KSEA 212056Z 23008KT 190V250 10SM FEW030 SCT040 BKN065 19/11 A3037 RMK AO2 SLP291 T01890111 51003=
200606211956 METAR KSEA 211956Z 29005KT 10SM FEW028 SCT035 BKN065 17/10 A3037 RMK AO2 SLP290 T01670100=
200606211856 METAR KSEA 211856Z VRB04KT 10SM SCT023 BKN065 16/08 A3037 RMK AO2 SLP291 T01560083=
200606211756 METAR KSEA 211756Z VRB03KT 10SM SCT019 OVC065 15/08 A3036 RMK AO2 SLP288 BINOVC OHD T01500083 10150 20117 51003=
200606211656 METAR KSEA 211656Z VRB05KT 10SM SCT019 OVC065 14/08 A3036 RMK AO2 SLP287 OCNL BINOVC OHD T01390078=
200606211556 METAR KSEA 211556Z 04007KT 10SM FEW019 BKN045 OVC065 13/08 A3036 RMK AO2 SLP287 T01280078=
200606211456 METAR KSEA 211456Z 08007KT 10SM FEW030 SCT040 OVC060 12/07 A3035 RMK AO2 SLP284 T01220072 51014=
200606211356 METAR KSEA 211356Z 05007KT 10SM BKN042 BKN060 12/07 A3034 RMK AO2 SLP280 T01170072=
200606211256 METAR KSEA 211256Z 05008KT 10SM BKN040 OVC060 12/07 A3033 RMK AO2 SLP275 T01170072=
200606211156 METAR KSEA 211156Z 06006KT 10SM SCT040 OVC055 12/07 A3031 RMK AO2 SLP270 T01170072 10139 20111 53005=
200606211056 METAR KSEA 211056Z 06006KT 10SM BKN045 BKN050 11/07 A3031 RMK AO2 SLP268 T01110072=
200606210956 METAR KSEA 210956Z 07008KT 10SM BKN044 BKN050 11/08 A3030 RMK AO2 SLP266 T01110078=
200606210856 METAR KSEA 210856Z 05012KT 10SM FEW200 11/07 A3030 RMK AO2 SLP265 T01110072 53005=
200606210756 METAR KSEA 210756Z 04014KT 10SM FEW055 SCT200 12/07 A3029 RMK AO2 SLP263 T01170072 402000117=
200606210656 METAR KSEA 210656Z 03012KT 10SM FEW055 12/07 A3028 RMK AO2 SLP262 T01220072=
200606210556 METAR KSEA 210556Z 04014KT 10SM BKN055 14/07 A3028 RMK AO2 SLP260 T01390072 10200 20139 53004=
200606210456 METAR KSEA 210456Z 04012KT 10SM FEW050 15/07 A3027 RMK AO2 SLP257 T01500067=
200606210356 METAR KSEA 210356Z 03011KT 10SM FEW050 SCT250 16/08 A3026 RMK AO2 SLP252 T01610078=
200606210256 METAR KSEA 210256Z 01010KT 10SM FEW050 SCT250 17/08 A3027 RMK AO2 SLP256 T01670078 56004=
200606210156 METAR KSEA 210156Z 32007KT 10SM SCT050 BKN250 18/07 A3027 RMK AO2 SLP256 T01830072=
200606210056 METAR KSEA 210056Z 30008KT 10SM SCT050 BKN250 19/08 A3027 RMK AO2 SLP255 T01940078=
200606202356 METAR KSEA 202356Z 29008KT 10SM SCT050 BKN250 20/08 A3028 RMK AO2 SLP260 T02000078 10200 20144 56011=
200606202256 METAR KSEA 202256Z 29009KT 10SM SCT043 BKN250 19/07 A3029 RMK AO2 SLP263 T01940072=
200606202156 METAR KSEA 202156Z VRB05KT 10SM FEW040 SCT050 18/07 A3030 RMK AO2 SLP267 T01830072=
200606202056 METAR KSEA 202056Z 30006KT 10SM SCT035 BKN045 17/09 A3031 RMK AO2 SLP271 T01720089 51001=
200606201956 METAR KSEA 201956Z 32006KT 10SM SCT031 BKN041 17/09 A3031 RMK AO2 SLP270 T01670094=
200606201856 METAR KSEA 201856Z 30006KT 10SM SCT028 SCT037 BKN060 16/09 A3032 RMK AO2 SLP272 T01560089=
200606201756 METAR KSEA 201756Z VRB05KT 10SM FEW028 SCT035 BKN050 14/09 A3031 RMK AO2 SLP271 T01440089 10150 20117 51002=
200606201656 METAR KSEA 201656Z VRB05KT 10SM SCT021 BKN050 14/08 A3031 RMK AO2 SLP270 T01390078=
200606201556 METAR KSEA 201556Z 05008KT 10SM FEW023 SCT040 BKN050 13/07 A3032 RMK AO2 SLP271 T01330072=
200606201456 METAR KSEA 201456Z 05008KT 10SM FEW020 SCT040 BKN050 13/07 A3030 RMK AO2 SLP268 T01280072 50007=
200606201356 METAR KSEA 201356Z 07008KT 10SM FEW018 SCT040 BKN050 12/07 A3031 RMK AO2 SLP268 T01220072=
200606201256 METAR KSEA 201256Z 07006KT 10SM FEW018 BKN036 OVC070 12/07 A3030 RMK AO2 SLP267 T01170072=
200606201156 METAR KSEA 201156Z 07008KT 10SM BKN036 OVC050 12/07 A3028 RMK AO2 SLP260 T01170072 10133 20117 55001=
200606201056 METAR KSEA 201056Z 06007KT 10SM OVC036 12/07 A3028 RMK AO2 SLP259 T01170072=
200606200956 METAR KSEA 200956Z 06009KT 10SM BKN036 OVC060 12/07 A3028 RMK AO2 SLP260 T01170072=
200606200856 METAR KSEA 200856Z 03007KT 10SM BKN035 OVC046 12/07 A3028 RMK AO2 SLP261 T01220072 51007=
200606200756 METAR KSEA 200756Z 05008KT 10SM BKN046 OVC050 13/07 A3028 RMK AO2 SLP259 T01280072 401940117=
200606200656 METAR KSEA 200656Z 36004KT 10SM FEW048 SCT200 13/08 A3027 RMK AO2 SLP257 T01330078=
200606200556 METAR KSEA 200556Z 30003KT 10SM FEW046 SCT075 SCT200 13/10 A3026 RMK AO2 SLP255 T01280100 10183 20128 53010=
200606200456 METAR KSEA 200456Z 00000KT 10SM SCT046 BKN075 BKN200 14/10 A3025 RMK AO2 SLP250 T01440100=
200606200356 METAR KSEA 200356Z 28004KT 10SM BKN050 BKN080 BKN200 16/09 A3023 RMK AO2 SLP243 T01610089=
200606200256 METAR KSEA 200256Z 00000KT 10SM BKN055 BKN080 17/07 A3023 RMK AO2 SLP244 T01720072 57004=
200606200156 METAR KSEA 200156Z 00000KT 10SM BKN055 BKN075 18/07 A3024 RMK AO2 SLP245 T01780067=
200606200056 METAR KSEA 200056Z 00000KT 10SM BKN055 BKN075 18/06 A3024 RMK AO2 SLP247 T01780061=
200606192356 METAR KSEA 192356Z VRB04KT 10SM BKN050 BKN075 18/07 A3025 RMK AO2 SLP248 T01830067 10194 20144 58003=
200606192256 METAR KSEA 192256Z VRB03KT 10SM FEW040 BKN070 19/08 A3025 RMK AO2 SLP250 T01890078=
200606192156 METAR KSEA 192156Z VRB05KT 10SM FEW040 SCT070 19/08 A3026 RMK AO2 SLP251 T01890083=
200606192056 METAR KSEA 192056Z VRB03KT 10SM FEW035 SCT045 SCT070 18/09 A3026 RMK AO2 SLP252 T01830089 50002=
200606191956 METAR KSEA 191956Z 00000KT 10SM SCT028 BKN037 BKN070 17/09 A3026 RMK AO2 SLP253 T01670089=
200606191856 METAR KSEA 191856Z 30005KT 10SM SCT026 BKN045 BKN070 16/09 A3026 RMK AO2 SLP252 T01610094=
200606191813 SPECI KSEA 191813Z VRB04KT 10SM SCT026 BKN036 OVC044 15/09 A3025 RMK AO2 BINOVC OHD=
200606191813 SPECI KSEA 191813Z VRB04KT 10SM SCT026 BKN036 OVC044 15/09 A3025 RMK AO2 BINOVC OHD=
200606191756 METAR KSEA 191756Z 26005KT 10SM BKN025 BKN030 OVC035 14/09 A3025 RMK AO2 SLP251 T01440089 10144 20117 53006=
200606191738 SPECI KSEA 191738Z 29004KT 10SM BKN025 BKN030 OVC035 13/08 A3025=
200606191738 SPECI KSEA 191738Z 29004KT 10SM BKN025 BKN030 OVC035 13/08 A3025 RMK AO2=
200606191656 METAR KSEA 191656Z VRB03KT 10SM SCT025 BKN035 OVC070 13/08 A3024 RMK AO2 SLP248 BINOVC OHD T01330083=
200606191644 SPECI KSEA 191644Z 24003KT 10SM SCT022 BKN035 OVC070 13/08 A3024=
200606191644 SPECI KSEA 191644Z 24003KT 10SM SCT022 BKN035 OVC070 13/08 A3024 RMK AO2=
200606191620 SPECI KSEA 191620Z 29004KT 10SM BKN020 OVC033 13/08 A3024 RMK AO2=
200606191620 SPECI KSEA 191620Z 29004KT 10SM BKN020 OVC033 13/08 A3024 RMK AO2=
200606191556 METAR KSEA 191556Z 31003KT 10SM SCT020 OVC033 13/08 A3024 RMK AO2 SLP246 T01280083=
200606191456 METAR KSEA 191456Z 06004KT 10SM FEW020 OVC030 12/07 A3024 RMK AO2 SLP244 T01220072 51009=
200606191356 METAR KSEA 191356Z 05004KT 10SM OVC032 12/07 A3023 RMK AO2 SLP241 T01170072=
200606191256 METAR KSEA 191256Z 04006KT 10SM BKN032 OVC065 12/07 A3022 RMK AO2 SLP239 T01170067=
200606191156 METAR KSEA 191156Z 03008KT 10SM SCT032 OVC050 12/07 A3021 RMK AO2 SLP234 T01170067 10133 20117 51003=
200606191141 SPECI KSEA 191141Z 04007KT 10SM FEW026 BKN037 OVC050 12/07 A3020=
200606191141 SPECI KSEA 191141Z 04007KT 10SM FEW026 BKN037 OVC050 12/07 A3020 RMK AO2=
200606191056 METAR KSEA 191056Z 06005KT 10SM BKN026 OVC050 12/07 A3021 RMK AO2 SLP234 T01170067=
200606191046 SPECI KSEA 191046Z 04008KT 10SM BKN026 BKN050 OVC070 12/07 A3021=
200606191046 SPECI KSEA 191046Z 04008KT 10SM BKN026 BKN050 OVC070 12/07 A3021 RMK AO2=
200606190956 METAR KSEA 190956Z 05008KT 10SM BKN055 OVC075 12/07 A3020 RMK AO2 SLP233 T01220072=
200606190856 METAR KSEA 190856Z 04008KT 10SM OVC049 13/07 A3020 RMK AO2 SLP231 T01280067 53001=
200606190756 METAR KSEA 190756Z 04011KT 10SM BKN045 OVC055 13/07 A3019 RMK AO2 SLP229 T01280067 402000117=
200606190656 METAR KSEA 190656Z 05011KT 10SM BKN044 13/06 A3019 RMK AO2 SLP229 T01280061=
200606190556 METAR KSEA 190556Z 04008KT 10SM FEW041 BKN055 13/07 A3019 RMK AO2 SLP230 T01330067 10194 20133 53003=
200606190456 METAR KSEA 190456Z 04012KT 10SM BKN050 14/07 A3019 RMK AO2 SLP229 T01440072=
200606190356 METAR KSEA 190356Z 02008KT 10SM BKN042 15/07 A3018 RMK AO2 SLP227 T01500072=
200606190256 METAR KSEA 190256Z 02009KT 10SM CLR 16/07 A3018 RMK AO2 SLP227 T01610072 58004=
200606190156 METAR KSEA 190156Z 02009KT 10SM FEW040 SCT070 BKN080 17/07 A3019 RMK AO2 SLP228 T01720072=
200606190056 METAR KSEA 190056Z 34005KT 10SM FEW045 SCT070 BKN085 18/08 A3019 RMK AO2 SLP229 T01830078=
200606182356 METAR KSEA 182356Z 02008KT 10SM FEW035 SCT070 BKN080 18/07 A3019 RMK AO2 SLP230 T01830067 10200 20156 56003=
200606182256 METAR KSEA 182256Z 35007KT 10SM FEW035 BKN075 18/07 A3020 RMK AO2 SLP232 T01830067=
200606182156 METAR KSEA 182156Z 32007KT 10SM SCT033 BKN075 20/10 A3020 RMK AO2 SLP232 T02000100=
200606182056 METAR KSEA 182056Z 30007KT 10SM SCT034 BKN070 19/10 A3021 RMK AO2 SLP234 T01940100 58001=
200606181956 METAR KSEA 181956Z 25003KT 10SM SCT032 BKN070 BKN200 17/09 A3021 RMK AO2 SLP235 T01670089=
200606181911 SPECI KSEA 181911Z VRB04KT 10SM BKN030 BKN070 OVC200 17/08 A3021 RMK AO2=
200606181911 SPECI KSEA 181911Z VRB04KT 10SM BKN030 BKN070 OVC200 17/08 A3021 RMK AO2=
200606181856 METAR KSEA 181856Z VRB03KT 10SM BKN028 BKN070 OVC200 17/09 A3021 RMK AO2 SLP236 T01670089=
200606181812 SPECI KSEA 181812Z 30006KT 10SM BKN028 BKN070 BKN200 16/09 A3021 RMK AO2=
200606181812 SPECI KSEA 181812Z 30006KT 10SM BKN028 BKN070 BKN200 16/09 A3021 RMK AO2=
200606181756 METAR KSEA 181756Z 27006KT 10SM FEW023 BKN035 BKN070 BKN200 16/09 A3021 RMK AO2 SLP234 T01560094 10161 20117 51002=
200606181656 METAR KSEA 181656Z 02004KT 10SM FEW021 SCT050 BKN070 BKN200 15/08 A3021 RMK AO2 SLP234 T01500083=
200606181556 METAR KSEA 181556Z 34005KT 10SM SCT045 SCT200 14/08 A3021 RMK AO2 SLP235 T01440083=
200606181456 METAR KSEA 181456Z 02005KT 10SM FEW048 SCT120 BKN200 13/07 A3020 RMK AO2 SLP232 T01280072 53006=
200606181356 METAR KSEA 181356Z 07005KT 10SM SCT048 BKN120 OVC160 12/08 A3019 RMK AO2 SLP230 T01220078=
200606181256 METAR KSEA 181256Z 05004KT 10SM SCT050 BKN120 12/08 A3019 RMK AO2 SLP228 T01170078=
200606181156 METAR KSEA 181156Z 05004KT 10SM BKN050 12/08 A3018 RMK AO2 SLP226 T01170078 10144 20117 58000=
200606181056 METAR KSEA 181056Z 06004KT 10SM SCT048 12/08 A3019 RMK AO2 SLP227 T01170083=
200606180956 METAR KSEA 180956Z 06006KT 10SM FEW160 SCT200 12/08 A3019 RMK AO2 SLP228 T01170083=
200606180856 METAR KSEA 180856Z 03010KT 10SM FEW160 12/09 A3018 RMK AO2 SLP227 T01220089 56010=
200606180756 METAR KSEA 180756Z 04009KT 10SM FEW075 SCT160 13/09 A3019 RMK AO2 SLP230 T01280089 402060117=
200606180656 METAR KSEA 180656Z 04007KT 10SM FEW075 14/08 A3020 RMK AO2 SLP233 T01390083=
200606180556 METAR KSEA 180556Z 02008KT 10SM SCT075 14/08 A3021 RMK AO2 SLP237 T01440083 10206 20144 53001=
200606180456 METAR KSEA 180456Z 36008KT 10SM BKN075 15/08 A3022 RMK AO2 SLP239 T01500083=
200606180356 METAR KSEA 180356Z 35006KT 10SM FEW045 BKN075 16/08 A3021 RMK AO2 SLP235 T01610083=
200606180256 METAR KSEA 180256Z 35008KT 10SM SCT050 SCT070 18/08 A3021 RMK AO2 SLP236 T01780083 56008=
200606180156 METAR KSEA 180156Z 29007KT 10SM SCT048 BKN070 20/08 A3022 RMK AO2 SLP238 T02000078=
200606180056 METAR KSEA 180056Z 29005KT 10SM BKN045 BKN055 20/08 A3023 RMK AO2 SLP242 T02000083=
200606172356 METAR KSEA 172356Z 25005KT 10SM SCT044 BKN070 20/08 A3024 RMK AO2 SLP245 T02000083 10206 20144 58007=
200606172256 METAR KSEA 172256Z 26007KT 230V300 10SM SCT040 BKN070 21/08 A3025 RMK AO2 SLP248 T02060083=
200606172156 METAR KSEA 172156Z 28008KT 10SM FEW032 BKN070 20/10 A3026 RMK AO2 SLP251 T02000100=
200606172056 METAR KSEA 172056Z VRB04KT 10SM FEW028 BKN070 17/08 A3026 RMK AO2 SLP252 T01670078 58005=
200606171956 METAR KSEA 171956Z VRB04KT 10SM FEW024 BKN070 BKN200 17/09 A3026 RMK AO2 SLP254 T01720094=
200606171903 SPECI KSEA 171903Z 27005KT 10SM SCT021 BKN070 16/10 A3028 RMK AO2=
200606171903 SPECI KSEA 171903Z 27005KT 10SM SCT021 BKN070 16/10 A3028 RMK AO2=
200606171856 METAR KSEA 171856Z VRB04KT 10SM BKN021 BKN070 16/09 A3028 RMK AO2 SLP259 T01610094=
200606171756 METAR KSEA 171756Z 22006KT 10SM BKN019 BKN060 14/10 A3028 RMK AO2 SLP259 T01440100 10150 20117 51006=
200606171656 METAR KSEA 171656Z 21008KT 10SM OVC016 13/09 A3028 RMK AO2 SLP259 T01280094=
200606171556 METAR KSEA 171556Z 22010KT 10SM OVC015 12/09 A3027 RMK AO2 SLP256 T01220094=
200606171456 METAR KSEA 171456Z 23007KT 10SM OVC016 12/09 A3026 RMK AO2 SLP253 T01220089 52011=
200606171356 METAR KSEA 171356Z 23007KT 10SM OVC018 12/09 A3025 RMK AO2 SLP250 T01170089=
200606171256 METAR KSEA 171256Z 21007KT 10SM BKN020 OVC026 12/09 A3024 RMK AO2 SLP245 T01170089=
200606171156 METAR KSEA 171156Z 20007KT 10SM FEW012 OVC018 12/09 A3023 RMK AO2 SLP241 70001 T01170089 10122 20111 51009=
200606171056 METAR KSEA 171056Z 19009KT 10SM SCT012 BKN018 OVC024 12/09 A3022 RMK AO2 SLP239 T01170089=
200606170956 METAR KSEA 170956Z 22009KT 10SM BKN018 BKN060 12/09 A3021 RMK AO2 SLP236 T01170094=
200606170856 METAR KSEA 170856Z 21008KT 10SM BKN060 BKN075 12/09 A3020 RMK AO2 SLP232 T01170094 51007=
200606170756 METAR KSEA 170756Z 21009KT 10SM FEW025 SCT060 11/09 A3019 RMK AO2 SLP230 T01110094 401890111=
200606170656 METAR KSEA 170656Z 21010KT 10SM FEW025 12/09 A3019 RMK AO2 SLP228 T01170094=
200606170556 METAR KSEA 170556Z 24011KT 10SM FEW030 SCT060 12/09 A3018 RMK AO2 SLP224 T01220094 10183 20122 53021=
200606170456 METAR KSEA 170456Z VRB05KT 10SM FEW030 SCT080 13/09 A3016 RMK AO2 SLP218 T01280094=
200606170356 METAR KSEA 170356Z 24008KT 10SM FEW030 SCT060 SCT100 14/09 A3013 RMK AO2 SLP209 T01390094=
200606170256 METAR KSEA 170256Z 22015G19KT 10SM FEW035 SCT060 15/11 A3011 RMK AO2 SLP203 T01500106 53008=
200606170156 METAR KSEA 170156Z 23016KT 10SM FEW035 SCT060 16/11 A3010 RMK AO2 SLP198 T01610106=
200606170056 METAR KSEA 170056Z 22012G20KT 10SM FEW035 SCT060 17/10 A3010 RMK AO2 SLP198 T01720100=
200606162356 METAR KSEA 162356Z 22018G23KT 10SM FEW025 SCT042 18/10 A3009 RMK AO2 SLP194 60001 T01780100 10189 20172 53014=
200606162256 METAR KSEA 162256Z 21018G22KT 10SM FEW035 SCT050 19/09 A3008 RMK AO2 PK WND 24027/2210 SLP190 T01890094=
200606162156 METAR KSEA 162156Z 22015G22KT 10SM SCT035 SCT045 18/11 A3006 RMK AO2 PK WND 24026/2128 SLP183 T01830106=
200606162056 METAR KSEA 162056Z 23019G25KT 10SM SCT029 18/12 A3005 RMK AO2 PK WND 23027/2046 SLP180 60001 T01830117 53020=
200606162034 SPECI KSEA 162034Z 24015G22KT 10SM FEW020 SCT027 18/12 A3004 RMK AO2=
200606162034 SPECI KSEA 162034Z 24015G22KT 10SM FEW020 SCT027 18/12 A3004 RMK AO2=
200606162018 SPECI KSEA 162018Z 26016G22KT 10SM SCT018 BKN026 BKN032 18/13 A3003 RMK AO2=
200606162018 SPECI KSEA 162018Z 26016G22KT 10SM SCT018 BKN026 BKN032 18/13 A3003 RMK AO2=
200606161956 METAR KSEA 161956Z 25015G22KT 10SM FEW018 SCT024 BKN031 18/13 A3002 RMK AO2 SLP171 VCSH N-S P0001 T01780133=
200606161856 METAR KSEA 161856Z 24008KT 10SM FEW030 OVC038 18/13 A2999 RMK AO2 SLP160 VCSH SW-W BINOVC N-NW T01830133=
200606161814 SPECI KSEA 161814Z 21009KT 10SM SCT026 BKN036 BKN044 17/14 A2999 RMK AO2=
200606161814 SPECI KSEA 161814Z 21009KT 10SM SCT026 BKN036 BKN044 17/14 A2999 RMK AO2=
200606161756 METAR KSEA 161756Z 19007KT 10SM SCT020 BKN026 BKN035 18/14 A2999 RMK AO2 RAB27E38 SLP160 P0000 60000 T01780139 10178 20133 58006=
200606161656 METAR KSEA 161656Z 19009KT 10SM FEW008 SCT021 OVC029 16/13 A3000 RMK AO2 SLP163 BINOVC NE T01610133=
200606161606 SPECI KSEA 161606Z 19007KT 10SM SCT008 SCT014 BKN027 15/14 A3000 RMK AO2=
200606161606 SPECI KSEA 161606Z 19007KT 10SM SCT008 SCT014 BKN027 15/14 A3000 RMK AO2=
200606161556 METAR KSEA 161556Z 18009KT 10SM SCT006 BKN014 BKN027 15/14 A3001 RMK AO2 RAE49 SLP166 P0000 T01500139=
200606161528 SPECI KSEA 161528Z 18009KT 7SM -RA SCT009 BKN014 OVC024 14/13 A3001 RMK AO2 P0000=
200606161528 SPECI KSEA 161528Z 18009KT 7SM -RA SCT009 BKN014 OVC024 14/13 A3001 RMK AO2 P0000=
200606161456 METAR KSEA 161456Z 18006KT 7SM -RA FEW007 BKN024 OVC030 14/13 A3001 RMK AO2 RAB46 SLP166 P0000 60000 T01390133 56004=
200606161440 SPECI KSEA 161440Z 18006KT 10SM FEW007 BKN022 OVC030 14/13 A3001 RMK AO2=
200606161440 SPECI KSEA 161440Z 18006KT 10SM FEW007 BKN022 OVC030 14/13 A3001 RMK AO2=
200606161356 METAR KSEA 161356Z 17007KT 7SM SCT007 BKN022 OVC030 13/13 A3001 RMK AO2 SLP167 T01330128=
200606161321 SPECI KSEA 161321Z 16006KT 7SM SCT007 OVC022 13/13 A3001 RMK AO2=
200606161321 SPECI KSEA 161321Z 16006KT 7SM SCT007 OVC022 13/13 A3001 RMK AO2=
200606161302 SPECI KSEA 161302Z 16008KT 1 3/4SM BR OVC007 13/13 A3001 RMK AO2 SFC VIS 5=
200606161302 SPECI KSEA 161302Z 16008KT 1 3/4SM BR OVC007 13/13 A3001 RMK AO2 SFC VIS 5=
200606161256 METAR KSEA 161256Z 16008KT 7SM OVC007 13/13 A3001 RMK AO2 SLP167 T01330128=
200606161156 METAR KSEA 161156Z 16005KT 7SM BKN007 OVC015 13/13 A3002 RMK AO2 RAE52 SLP170 P0002 60009 70009 T01330128 10150 20122 55003=
200606161147 SPECI KSEA 161147Z 17005KT 6SM -RA BR BKN006 OVC012 13/12 A3002 RMK AO2 P0002=
200606161147 SPECI KSEA 161147Z 17005KT 6SM -RA BR BKN006 OVC012 13/12 A3002 RMK AO2 P0002=
200606161123 SPECI KSEA 161123Z 18006KT 2 1/2SM -RA BR FEW005 OVC012 13/12 A3002 RMK AO2 SFC VIS 3 P0001=
200606161123 SPECI KSEA 161123Z 18006KT 2 1/2SM -RA BR FEW005 OVC012 13/12 A3002 RMK AO2 SFC VIS 3 P0001=
200606161105 SPECI KSEA 161105Z 16005KT 2 1/2SM -RA BR SCT004 OVC018 13/12 A3002 RMK AO2 P0000=
200606161105 SPECI KSEA 161105Z 16005KT 2 1/2SM -RA BR SCT004 OVC018 13/12 A3002 RMK AO2 P0000=
200606161056 METAR KSEA 161056Z 16005KT 2 1/2SM -RA BR BKN004 OVC014 13/12 A3001 RMK AO2 SLP169 P0004 T01280122=
200606160956 METAR KSEA 160956Z 21006KT 2 1/2SM -RA BR BKN004 OVC007 13/12 A3002 RMK AO2 SLP172 P0002 T01280122=
200606160950 SPECI KSEA 160950Z 22006KT 2 1/2SM -RA BR BKN004 BKN007 OVC020 13/12 A3002=
200606160950 SPECI KSEA 160950Z 22006KT 2 1/2SM -RA BR BKN004 BKN007 OVC020 13/12 A3002 RMK AO2 P0002=
200606160925 SPECI KSEA 160925Z 21004KT 2 1/2SM -RA BR BKN007 OVC011 13/12 A3003 RMK AO2 P0001=
200606160925 SPECI KSEA 160925Z 21004KT 2 1/2SM -RA BR BKN007 OVC011 13/12 A3003 RMK AO2 P0001=
200606160901 SPECI KSEA 160901Z 24005KT 4SM -RA BR FEW007 BKN011 OVC028 13/12 A3003 RMK AO2 P0000=
200606160901 SPECI KSEA 160901Z 24005KT 4SM -RA BR FEW007 BKN011 OVC028 13/12 A3003 RMK AO2 P0000=
200606160856 METAR KSEA 160856Z 24006KT 4SM -RA BR SCT013 OVC028 13/12 A3003 RMK AO2 DZE08RAB08 SLP175 P0001 60001 T01280122 56002=
200606160847 SPECI KSEA 160847Z 23005KT 4SM BR SCT013 OVC028 13/12 A3003=
200606160847 SPECI KSEA 160847Z 23005KT 4SM BR SCT013 OVC028 13/12 A3003 RMK AO2 DZE08RAB08E36 P0001=
200606160814 SPECI KSEA 160814Z 22006KT 4SM -RA BR OVC031 13/12 A3003=
200606160814 SPECI KSEA 160814Z 22006KT 4SM -RA BR OVC031 13/12 A3003 RMK AO2 DZE08RAB08 P0001=
200606160756 METAR KSEA 160756Z 22008KT 5SM -DZ BR BKN028 OVC036 14/12 A3004 RMK AO2 DZB54 SLP176 P0000 T01390117 402110117=
200606160732 SPECI KSEA 160732Z 22007KT 10SM BKN028 OVC050 14/12 A3003 RMK AO2=
200606160732 SPECI KSEA 160732Z 22007KT 10SM BKN028 OVC050 14/12 A3003 RMK AO2=
200606160656 METAR KSEA 160656Z 22008KT 10SM SCT040 OVC065 14/11 A3003 RMK AO2 SLP176 T01440111=
200606160556 METAR KSEA 160556Z 24006KT 10SM FEW050 BKN080 15/11 A3004 RMK AO2 SLP178 T01500111 10200 20150 51003=
200606160456 METAR KSEA 160456Z 22005KT 10SM FEW030 SCT060 BKN100 16/11 A3004 RMK AO2 SLP177 T01560111=
200606160356 METAR KSEA 160356Z 24008KT 10SM FEW030 SCT060 BKN100 16/11 A3004 RMK AO2 SLP176 T01610111=
200606160256 METAR KSEA 160256Z 25010KT 10SM FEW030 SCT080 BKN120 17/12 A3003 RMK AO2 SLP175 T01720117 51000=
200606160156 METAR KSEA 160156Z 23011KT 10SM FEW030 SCT070 SCT120 19/12 A3003 RMK AO2 SLP175 T01890117=
200606160056 METAR KSEA 160056Z 21010KT 10SM FEW030 BKN065 19/12 A3003 RMK AO2 SLP176 T01940122=
200606152356 METAR KSEA 152356Z 21011KT 10SM SCT030 BKN070 19/12 A3003 RMK AO2 SLP175 T01890122 10211 20167 57004=
200606152256 METAR KSEA 152256Z 22011KT 10SM FEW040 SCT060 BKN100 21/12 A3003 RMK AO2 SLP176 T02060122=
200606152156 METAR KSEA 152156Z 21013KT 10SM SCT040 BKN060 BKN080 21/11 A3004 RMK AO2 SLP178 T02060111=
200606152110 SPECI KSEA 152110Z 22010KT 10SM SCT029 BKN035 BKN045 21/12 A3004 RMK AO2=
200606152110 SPECI KSEA 152110Z 22010KT 10SM SCT029 BKN035 BKN045 21/12 A3004 RMK AO2=
200606152056 METAR KSEA 152056Z 19011KT 10SM BKN029 BKN040 19/10 A3004 RMK AO2 SLP179 T01940100 58006=
200606151956 METAR KSEA 151956Z 22010KT 10SM BKN023 19/12 A3005 RMK AO2 SLP183 T01890122=
200606151856 METAR KSEA 151856Z 23013KT 10SM BKN021 18/12 A3006 RMK AO2 SLP184 T01830117=
200606151756 METAR KSEA 151756Z 24012KT 10SM FEW016 BKN021 BKN040 17/12 A3006 RMK AO2 SLP185 T01720117 10178 20117 50000=
200606151656 METAR KSEA 151656Z 22010KT 10SM SCT013 BKN019 16/11 A3007 RMK AO2 SLP188 T01560111=
200606151614 SPECI KSEA 151614Z 23010KT 10SM FEW008 SCT011 OVC015 14/11 A3007 RMK AO2 OCNL BINOVC OHD=
200606151614 SPECI KSEA 151614Z 23010KT 10SM FEW008 SCT011 OVC015 14/11 A3007 RMK AO2 OCNL BINOVC OHD=
200606151556 METAR KSEA 151556Z 24007KT 10SM FEW008 BKN011 OVC015 14/11 A3007 RMK AO2 SLP190 T01390111=
200606151456 METAR KSEA 151456Z 21007KT 10SM SCT008 OVC012 13/11 A3006 RMK AO2 SLP186 BINOVC SW T01280111 53007=
200606151439 SPECI KSEA 151439Z VRB06KT 10SM SCT006 OVC010 13/11 A3006=
200606151439 SPECI KSEA 151439Z VRB06KT 10SM SCT006 OVC010 13/11 A3006 RMK AO2=
200606151356 METAR KSEA 151356Z 21007KT 10SM BKN006 BKN008 BKN011 13/11 A3005 RMK AO2 SLP182 T01280111=
200606151310 SPECI KSEA 151310Z 22007KT 10SM SCT006 BKN008 BKN011 12/11 A3005 RMK AO2=
200606151310 SPECI KSEA 151310Z 22007KT 10SM SCT006 BKN008 BKN011 12/11 A3005 RMK AO2=
200606151256 METAR KSEA 151256Z 21006KT 10SM SCT006 BKN011 BKN080 12/11 A3005 RMK AO2 SLP180 T01220111=
200606151156 METAR KSEA 151156Z 22007KT 10SM FEW006 BKN011 OVC060 12/11 A3004 RMK AO2 SLP178 60000 70002 T01170111 10133 20117 58004=
200606151056 METAR KSEA 151056Z 21006KT 10SM SCT008 BKN014 BKN090 12/11 A3005 RMK AO2 RAB16E40 SLP180 P0000 T01220111=
200606150956 METAR KSEA 150956Z 19007KT 10SM BKN012 BKN025 OVC080 12/11 A3005 RMK AO2 RAB18E34 SLP182 P0000 T01220111=
200606150856 METAR KSEA 150856Z 21006KT 10SM BKN014 OVC021 13/11 A3005 RMK AO2 SLP183 T01280106 55002=
200606150756 METAR KSEA 150756Z 20007KT 10SM BKN021 OVC050 13/11 A3005 RMK AO2 SLP182 T01280106 401780122=
200606150746 SPECI KSEA 150746Z 20007KT 10SM BKN021 BKN050 BKN070 13/11 A3005 RMK AO2=
200606150746 SPECI KSEA 150746Z 20007KT 10SM BKN021 BKN050 BKN070 13/11 A3005 RMK AO2=
200606150656 METAR KSEA 150656Z 22007KT 10SM FEW019 BKN050 BKN070 13/10 A3005 RMK AO2 SLP183 T01280100=
200606150645 SPECI KSEA 150645Z 22007KT 10SM SCT019 BKN050 BKN070 13/10 A3005 RMK AO2=
200606150645 SPECI KSEA 150645Z 22007KT 10SM SCT019 BKN050 BKN070 13/10 A3005 RMK AO2=
200606150556 METAR KSEA 150556Z 21008KT 10SM BKN023 OVC070 13/11 A3006 RMK AO2 SLP186 T01280106 10178 20128 53005=
200606150544 SPECI KSEA 150544Z 22009KT 10SM FEW015 BKN023 OVC070 13/11 A3006 RMK AO2=
200606150544 SPECI KSEA 150544Z 22009KT 10SM FEW015 BKN023 OVC070 13/11 A3006 RMK AO2=
200606150456 METAR KSEA 150456Z 22008KT 10SM FEW025 BKN070 BKN120 13/11 A3006 RMK AO2 SLP184 T01280106=
200606150356 METAR KSEA 150356Z 21008KT 10SM FEW019 SCT044 BKN070 BKN200 14/11 A3005 RMK AO2 SLP180 T01390106=
200606150256 METAR KSEA 150256Z 21009KT 10SM FEW031 BKN065 OVC200 13/10 A3005 RMK AO2 SLP181 T01330100 51003=
200606150156 METAR KSEA 150156Z 21011KT 10SM FEW034 BKN044 BKN070 OVC200 14/10 A3004 RMK AO2 SLP180 T01390100=
200606150056 METAR KSEA 150056Z 22012KT 10SM FEW029 SCT040 BKN070 BKN200 16/09 A3004 RMK AO2 SLP178 T01560094=
200606142356 METAR KSEA 142356Z 22015KT 10SM FEW025 SCT045 BKN055 BKN200 17/09 A3004 RMK AO2 SLP177 60000 T01670094 10172 20133 58000=
200606142256 METAR KSEA 142256Z 23014G18KT 10SM FEW029 BKN036 BKN060 16/11 A3004 RMK AO2 SLP178 T01610106=
200606142156 METAR KSEA 142156Z 20008KT 10SM FEW030 BKN046 BKN060 16/12 A3004 RMK AO2 RAB31E47 SLP177 P0000 T01610117=
200606142056 METAR KSEA 142056Z 22009KT 10SM FEW025 BKN040 OVC050 16/11 A3004 RMK AO2 RAB14E24 SLP177 BINOVC W-NW P0000 60000 T01610111 52002=
200606141956 METAR KSEA 141956Z 20012KT 10SM FEW015 SCT025 OVC040 14/10 A3003 RMK AO2 RAB09E21 SLP177 VCSH S BINOVC NW P0000 T01440100=
200606141856 METAR KSEA 141856Z 22009KT 10SM FEW009 SCT014 OVC040 15/12 A3003 RMK AO2 RAE19 SLP176 VCSH S-SW BINOVC NW P0000 T01500117=
200606141824 SPECI KSEA 141824Z 24008KT 10SM FEW006 SCT012 OVC040 15/12 A3003 RMK AO2 RAE19 BINOVC W P0000=
200606141824 SPECI KSEA 141824Z 24008KT 10SM FEW006 SCT012 OVC040 15/12 A3003 RMK AO2 RAE19 BINOVC W P0000=
200606141756 METAR KSEA 141756Z 24009KT 5SM -RA BR SCT009 BKN012 OVC015 13/13 A3003 RMK AO2 RAB09 SLP175 P0002 60002 T01330128 10161 20122 53004=
200606141750 SPECI KSEA 141750Z 26008KT 3SM -RA BR OVC012 13/12 A3003=
200606141750 SPECI KSEA 141750Z 26008KT 3SM -RA BR OVC012 13/12 A3003 RMK AO2 RAB09 P0002=
200606141741 SPECI KSEA 141741Z 25011KT 1 3/4SM R16R/4000VP6000FT RA BR BKN009 OVC015 13/12 A3003 RMK AO2 TWR VIS 2 RAB09 P0002=
200606141741 SPECI KSEA 141741Z 25011KT 1 3/4SM R16R/4000VP6000FT RA BR BKN009 OVC015 13/12 A3003 RMK AO2 TWR VIS 2 RAB09 P0002=
200606141737 SPECI KSEA 141737Z 24009KT 200V280 2SM R16R/5000VP6000FT RA BR SCT009 BKN015 OVC024 13/12 A3003=
200606141737 SPECI KSEA 141737Z 24009KT 200V280 2SM R16R/5000VP6000FT RA BR SCT009 BKN015 OVC024 13/12 A3003 RMK AO2 SFC VIS 3 RAB09 P0001=
200606141729 SPECI KSEA 141729Z 24008KT 10SM FEW009 BKN015 OVC029 15/11 A3002 RMK AO2 RAB09E24 VCSH SE-S-SW P0000=
200606141729 SPECI KSEA 141729Z 24008KT 10SM FEW009 BKN015 OVC029 15/11 A3002 RMK AO2 RAB09E24 VCSH SE-S-SW P0000=
200606141724 SPECI KSEA 141724Z 27008KT 10SM SCT015 BKN023 OVC029 16/11 A3002 RMK AO2 RAB09E24 P0000=
200606141724 SPECI KSEA 141724Z 27008KT 10SM SCT015 BKN023 OVC029 16/11 A3002 RMK AO2 RAB09E24 P0000=
200606141656 METAR KSEA 141656Z 22012KT 10SM SCT025 BKN033 OVC060 15/11 A3002 RMK AO2 RAB07E16 SLP171 VCSH SE-S MOV NE BINOVC N P0000 T01500111=
200606141628 SPECI KSEA 141628Z 23012KT 10SM SCT025 OVC033 16/11 A3002 RMK AO2 RAB07E16 BINOVC OHD P0000=
200606141628 SPECI KSEA 141628Z 23012KT 10SM SCT025 OVC033 16/11 A3002 RMK AO2 RAB07E16 BINOVC OHD P0000=
200606141610 SPECI KSEA 141610Z 23009KT 10SM -RA BKN025 OVC030 15/11 A3002 RMK AO2 RAB07 P0000=
200606141610 SPECI KSEA 141610Z 23009KT 10SM -RA BKN025 OVC030 15/11 A3002 RMK AO2 RAB07 P0000=
200606141556 METAR KSEA 141556Z 24010KT 10SM SCT025 BKN030 OVC040 15/11 A3002 RMK AO2 SLP171 BINOVC OHD T01500106=
200606141456 METAR KSEA 141456Z 24008KT 10SM FEW019 BKN036 BKN050 14/11 A3002 RMK AO2 RAB28E34 SLP170 P0000 60000 T01390111 50000=
200606141422 SPECI KSEA 141422Z 22007KT 10SM FEW017 BKN036 BKN050 14/11 A3002 RMK AO2=
200606141422 SPECI KSEA 141422Z 22007KT 10SM FEW017 BKN036 BKN050 14/11 A3002 RMK AO2=
200606141356 METAR KSEA 141356Z 21006KT 10SM FEW017 BKN025 BKN050 13/11 A3002 RMK AO2 SLP171 T01330106=
200606141345 SPECI KSEA 141345Z 21007KT 10SM FEW017 BKN025 BKN050 13/11 A3002 RMK AO2=
200606141345 SPECI KSEA 141345Z 21007KT 10SM FEW017 BKN025 BKN050 13/11 A3002 RMK AO2=
200606141256 METAR KSEA 141256Z 20005KT 10SM FEW027 BKN055 13/11 A3002 RMK AO2 SLP170 T01330106=
200606141156 METAR KSEA 141156Z 18004KT 10SM FEW025 BKN060 12/11 A3002 RMK AO2 SLP170 T01220106 10144 20122 56004=
200606141056 METAR KSEA 141056Z 22006KT 10SM SCT021 BKN060 13/11 A3002 RMK AO2 SLP171 T01280106=
200606140956 METAR KSEA 140956Z 19006KT 10SM BKN049 13/11 A3003 RMK AO2 SLP173 T01330106=
200606140856 METAR KSEA 140856Z 20006KT 10SM BKN049 13/11 A3003 RMK AO2 SLP175 T01330106 55001=
200606140756 METAR KSEA 140756Z 24007KT 10SM BKN050 13/11 A3003 RMK AO2 SLP174 T01330106 402000133=
200606140656 METAR KSEA 140656Z 25009KT 10SM BKN048 14/11 A3003 RMK AO2 SLP175 T01390106=
200606140556 METAR KSEA 140556Z 23010KT 10SM SCT060 SCT120 14/11 A3003 RMK AO2 SLP175 T01440106 10200 20144 53007=
200606140456 METAR KSEA 140456Z 23008KT 10SM SCT060 SCT120 BKN200 15/11 A3002 RMK AO2 SLP172 T01500111=
200606140356 METAR KSEA 140356Z 23008KT 10SM FEW030 SCT070 BKN120 BKN200 16/12 A3001 RMK AO2 SLP168 T01610117=
200606140256 METAR KSEA 140256Z 22010KT 10SM FEW025 BKN065 BKN200 18/12 A3001 RMK AO2 SLP168 T01780117 53004=
200606140156 METAR KSEA 140156Z 21011KT 10SM FEW025 SCT050 BKN095 BKN200 18/12 A3001 RMK AO2 SLP167 T01830117=
200606140056 METAR KSEA 140056Z 21011KT 10SM FEW030 SCT060 BKN095 BKN200 19/11 A3000 RMK AO2 SLP163 T01940111=
200606132356 METAR KSEA 132356Z 20008KT 10SM FEW030 BKN050 BKN110 BKN200 19/12 A3000 RMK AO2 SLP164 T01940122 10200 20144 53002=
200606132256 METAR KSEA 132256Z 21009KT 10SM FEW024 BKN046 BKN090 BKN200 19/13 A2999 RMK AO2 SLP161 T01890128=
200606132156 METAR KSEA 132156Z 17008KT 10SM FEW025 BKN040 BKN070 BKN200 18/13 A2999 RMK AO2 SLP160 SH DSNT S MOV NE T01780128=
200606132056 METAR KSEA 132056Z 18005KT 10SM FEW025 BKN040 BKN080 BKN200 17/12 A2999 RMK AO2 SLP162 T01670122 58004=
200606131956 METAR KSEA 131956Z 13006KT 10SM SCT022 BKN036 BKN080 BKN200 17/12 A3000 RMK AO2 SLP163 T01670117=
200606131856 METAR KSEA 131856Z VRB04KT 10SM FEW015 SCT035 BKN080 BKN200 16/12 A3000 RMK AO2 SLP165 T01610117=
200606131756 METAR KSEA 131756Z 18004KT 10SM FEW010 BKN035 BKN060 15/12 A3001 RMK AO2 RAE27 SLP166 P0000 60000 T01500122 10150 20133 58001=
200606131743 SPECI KSEA 131743Z 18004KT 10SM FEW010 SCT029 OVC060 15/12 A3000=
200606131743 SPECI KSEA 131743Z 18004KT 10SM FEW010 SCT029 OVC060 15/12 A3000 RMK AO2 RAE27 P0000=
200606131656 METAR KSEA 131656Z 22005KT 10SM -RA FEW010 BKN029 OVC032 14/12 A3001 RMK AO2 RAB48 SLP169 BINOVC W-NW P0000 T01390117=
200606131556 METAR KSEA 131556Z 24007KT 10SM FEW010 OVC027 14/12 A3002 RMK AO2 SLP170 BINOVC NW T01390117=
200606131456 METAR KSEA 131456Z 17004KT 10SM FEW010 BKN027 BKN032 13/12 A3001 RMK AO2 SLP167 60000 T01330117 53004=
200606131356 METAR KSEA 131356Z 23005KT 10SM BKN023 BKN045 OVC070 13/12 A3000 RMK AO2 RAE17 SLP164 P0000 T01330117=
200606131256 METAR KSEA 131256Z 23008KT 10SM -RA BKN025 BKN045 OVC070 13/12 A3000 RMK AO2 RAB44 SLP165 P0000 T01330117=
200606131156 METAR KSEA 131156Z 21006KT 10SM OVC023 13/12 A3000 RMK AO2 RAB10E19 SLP163 P0000 60001 70008 T01330117 10139 20133 51008=
200606131056 METAR KSEA 131056Z 22007KT 10SM OVC025 13/12 A3000 RMK AO2 RAB47E56 SLP162 P0000 T01330117=
200606130956 METAR KSEA 130956Z 20007KT 10SM BKN025 OVC070 13/12 A2998 RMK AO2 RAB00E32 SLP157 P0001 T01330122=
200606130856 METAR KSEA 130856Z 22006KT 10SM BKN025 BKN065 13/12 A2997 RMK AO2 SLP155 T01330122 53002=
200606130803 SPECI KSEA 130803Z 19007KT 10SM FEW009 SCT027 BKN065 13/12 A2997 RMK AO2=
200606130803 SPECI KSEA 130803Z 19007KT 10SM FEW009 SCT027 BKN065 13/12 A2997 RMK AO2=
200606130756 METAR KSEA 130756Z 21007KT 10SM SCT009 BKN027 BKN065 13/12 A2996 RMK AO2 SLP152 T01330122 402220133=
200606130739 SPECI KSEA 130739Z 21006KT 10SM SCT009 BKN027 BKN060 13/12 A2996 RMK AO2=
200606130739 SPECI KSEA 130739Z 21006KT 10SM SCT009 BKN027 BKN060 13/12 A2996 RMK AO2=
200606130656 METAR KSEA 130656Z 20006KT 10SM BKN009 BKN012 OVC030 13/13 A2997 RMK AO2 SLP154 T01330128=
200606130556 METAR KSEA 130556Z 21005KT 10SM SCT009 BKN046 OVC060 14/13 A2997 RMK AO2 RAB12E29 SLP153 P0000 60004 T01390128 10206 20139 51014=
200606130456 METAR KSEA 130456Z 21008KT 10SM SCT007 BKN050 OVC090 14/13 A2996 RMK AO2 RAE48 SLP149 P0001 T01390133=
200606130452 SPECI KSEA 130452Z 21008KT 10SM SCT007 BKN050 OVC090 14/13 A2995 RMK AO2 RAE48 P0001=
200606130452 SPECI KSEA 130452Z 21008KT 10SM SCT007 BKN050 OVC090 14/13 A2995 RMK AO2 RAE48 P0001=
200606130436 SPECI KSEA 130436Z 21008KT 10SM -RA SCT024 BKN050 OVC095 14/14 A2995=
200606130436 SPECI KSEA 130436Z 21008KT 10SM -RA SCT024 BKN050 OVC095 14/14 A2995 RMK AO2 P0001=
200606130356 METAR KSEA 130356Z 22007KT 8SM -RA BKN017 BKN032 OVC090 15/14 A2992 RMK AO2 SLP138 P0003 T01500139=
200606130256 METAR KSEA 130256Z 27008KT 10SM -RA SCT013 BKN020 OVC080 17/15 A2991 RMK AO2 RAE01B51 SLP132 P0000 60000 T01720150 53021=
200606130244 SPECI KSEA 130244Z 27009KT 10SM SCT015 BKN020 OVC080 18/15 A2990=
200606130244 SPECI KSEA 130244Z 27009KT 10SM SCT015 BKN020 OVC080 18/15 A2990 RMK AO2 RAE01 P0000=
200606130156 METAR KSEA 130156Z 20004KT 10SM -RA FEW035 SCT075 BKN095 OVC200 19/14 A2988 RMK AO2 RAB03E19B51 SLP122 P0000 T01890144=
200606130056 METAR KSEA 130056Z 23005KT 10SM FEW035 SCT060 BKN090 OVC200 19/15 A2986 RMK AO2 RAB19E53 SLP117 P0000 T01940150=
200606122356 METAR KSEA 122356Z 21007KT 10SM FEW035 SCT100 OVC200 21/14 A2984 RMK AO2 RAB27E49 SLP111 P0000 60000 T02060144 10222 20167 53006=
200606122256 METAR KSEA 122256Z 29005KT 10SM FEW035 BKN100 OVC200 21/14 A2983 RMK AO2 SLP104 T02110144=
200606122156 METAR KSEA 122156Z 28005KT 10SM FEW035 SCT090 BKN130 OVC150 22/14 A2982 RMK AO2 SLP100 BINOVC OHD-NW T02170144=
200606122056 METAR KSEA 122056Z 26006KT 10SM FEW035 SCT080 SCT110 BKN150 BKN200 21/14 A2982 RMK AO2 SLP103 60000 T02060144 58004=
200606121956 METAR KSEA 121956Z VRB03KT 10SM FEW030 SCT070 BKN100 BKN200 21/15 A2984 RMK AO2 SLP107 T02110150=
200606121856 METAR KSEA 121856Z 00000KT 10SM FEW025 BKN065 BKN090 OVC130 18/13 A2984 RMK AO2 RAE1759 SLP109 BINOVC W P0000 T01780133=
200606121756 METAR KSEA 121756Z 06005KT 8SM -RA FEW018 BKN085 BKN130 OVC150 17/14 A2984 RMK AO2 RAE20B36 SLP109 P0001 60003 T01670144 10167 20133 50007=
200606121656 METAR KSEA 121656Z 00000KT 5SM -RA BR SCT024 BKN035 BKN085 OVC130 16/14 A2984 RMK AO2 SLP109 P0001 T01560139=
200606121644 SPECI KSEA 121644Z 00000KT 5SM -RA BR BKN024 BKN035 BKN085 OVC130 16/14 A2984 RMK AO2 P0001=
200606121644 SPECI KSEA 121644Z 00000KT 5SM -RA BR BKN024 BKN035 BKN085 OVC130 16/14 A2984 RMK AO2 P0001=
200606121556 METAR KSEA 121556Z 20003KT 8SM -RA SCT055 BKN090 14/13 A2984 RMK AO2 RAE11B33 SLP109 P0000 T01440133=
200606121456 METAR KSEA 121456Z 30003KT 9SM -RA FEW030 SCT045 BKN090 14/13 A2982 RMK AO2 RAB1357 SLP102 P0001 60001 T01440133 53010=
200606121356 METAR KSEA 121356Z VRB03KT 9SM BKN075 BKN120 14/12 A2980 RMK AO2 SLP097 T01440122=
200606121256 METAR KSEA 121256Z 00000KT 10SM FEW080 BKN120 14/12 A2979 RMK AO2 SLP092 T01390122=
200606121156 METAR KSEA 121156Z 00000KT 10SM FEW110 BKN250 13/12 A2978 RMK AO2 SLP090 T01330117 10167 20133 51003=
200606121056 METAR KSEA 121056Z 36006KT 10SM FEW130 BKN250 14/12 A2978 RMK AO2 SLP089 T01390117=
200606120956 METAR KSEA 120956Z 35005KT 10SM SCT250 14/12 A2978 RMK AO2 SLP088 T01390117=
200606120856 METAR KSEA 120856Z 02006KT 10SM SCT250 15/12 A2977 RMK AO2 SLP086 T01500117 58002=
200606120756 METAR KSEA 120756Z 01006KT 10SM FEW200 BKN250 15/11 A2978 RMK AO2 SLP087 T01500111 402440117=
200606120656 METAR KSEA 120656Z 36006KT 10SM SCT200 16/11 A2978 RMK AO2 SLP090 T01610111=
200606120556 METAR KSEA 120556Z 35006KT 10SM FEW120 SCT200 17/12 A2978 RMK AO2 SLP089 T01670117 10239 20167 53005=
200606120456 METAR KSEA 120456Z 36007KT 10SM FEW050 SCT120 BKN200 17/12 A2978 RMK AO2 SLP089 T01720122=
200606120356 METAR KSEA 120356Z 05011KT 10SM FEW050 BKN120 BKN200 18/12 A2976 RMK AO2 SLP083 T01830117=
200606120256 METAR KSEA 120256Z 02009KT 10SM SCT035 BKN120 BKN200 19/11 A2976 RMK AO2 SLP084 T01890111 50002=
200606120156 METAR KSEA 120156Z 01011KT 10SM FEW035 SCT120 BKN200 20/12 A2977 RMK AO2 SLP085 T02000117=
200606120056 METAR KSEA 120056Z 35016KT 10SM FEW035 SCT120 BKN200 21/11 A2978 RMK AO2 SLP088 TCU DSNT E T02110111=
200606112356 METAR KSEA 112356Z 01009KT 10SM FEW030 SCT120 SCT200 23/11 A2976 RMK AO2 SLP080 TCU DSNT E T02330111 10244 20156 56013=
200606112256 METAR KSEA 112256Z 35010KT 10SM FEW030 SCT120 SCT200 23/11 A2976 RMK AO2 SLP082 TCU DSNT E T02330106=
200606112156 METAR KSEA 112156Z 35006KT 10SM FEW030 23/12 A2978 RMK AO2 SLP090 T02330117=
200606112056 METAR KSEA 112056Z 30009KT 10SM FEW030 22/13 A2979 RMK AO2 SLP093 T02220133 56020=
200606111956 METAR KSEA 111956Z 34005KT 10SM FEW009 SCT250 20/13 A2981 RMK AO2 SLP100 T02000128=
200606111856 METAR KSEA 111856Z VRB04KT 7SM FEW006 SCT250 18/13 A2983 RMK AO2 SLP107 T01780128=
200606111758 SPECI KSEA 111758Z 32005KT 6SM BR SCT004 BKN250 16/12 A2985 RMK AO2=
200606111758 SPECI KSEA 111758Z 32005KT 6SM BR SCT004 BKN250 16/12 A2985 RMK AO2=
200606111756 METAR KSEA 111756Z 35005KT 1 1/2SM BR BKN004 15/12 A2985 RMK AO2 SFC VIS 5 SLP115 T01500122 10156 20117 58007=
200606111656 METAR KSEA 111656Z 29005KT 1 1/2SM BR OVC003 13/12 A2987 RMK AO2 SLP119 T01330122=
200606111618 SPECI KSEA 111618Z 31006KT 1 1/2SM BR OVC004 14/12 A2988 RMK AO2 SFC VIS 2=
200606111618 SPECI KSEA 111618Z 31006KT 1 1/2SM BR OVC004 14/12 A2988 RMK AO2 SFC VIS 2=
200606111556 METAR KSEA 111556Z 29005KT 3SM BR OVC004 13/12 A2987 RMK AO2 SLP120 T01330122=
200606111456 METAR KSEA 111456Z 36005KT 3SM BR OVC004 14/12 A2987 RMK AO2 SFC VIS 4 SLP122 T01390117 56002=
200606111421 SPECI KSEA 111421Z 35005KT 3SM BR BKN004 14/12 A2988 RMK AO2 SFC VIS 4=
200606111421 SPECI KSEA 111421Z 35005KT 3SM BR BKN004 14/12 A2988 RMK AO2 SFC VIS 4=
200606111356 METAR KSEA 111356Z 06004KT 3SM BR BKN004 BKN200 13/11 A2988 RMK AO2 SFC VIS 5 SLP122 T01280111=
200606111332 SPECI KSEA 111332Z 35004KT 3SM BR BKN004 BKN200 12/11 A2988=
200606111332 SPECI KSEA 111332Z 35004KT 3SM BR BKN004 BKN200 12/11 A2988 RMK AO2 SFC VIS 4=
200606111256 METAR KSEA 111256Z 05008KT 6SM BR FEW200 12/11 A2988 RMK AO2 SLP122 T01220106=
200606111156 METAR KSEA 111156Z 36007KT 9SM FEW200 12/11 A2988 RMK AO2 SLP123 T01170106 10156 20117 58008=
200606111056 METAR KSEA 111056Z 03005KT 10SM FEW200 12/11 A2989 RMK AO2 SLP127 T01220106=
200606110956 METAR KSEA 110956Z 00000KT 9SM SCT200 12/11 A2990 RMK AO2 SLP131 T01220111=
200606110856 METAR KSEA 110856Z 35005KT 10SM FEW200 13/11 A2990 RMK AO2 SLP131 T01280111 56011=
200606110756 METAR KSEA 110756Z 03007KT 10SM SCT200 14/11 A2991 RMK AO2 SLP134 T01440106 401940117=
200606110656 METAR KSEA 110656Z 02005KT 10SM SCT200 15/11 A2992 RMK AO2 SLP138 T01500106=
200606110556 METAR KSEA 110556Z 01005KT 10SM FEW200 16/11 A2994 RMK AO2 SLP143 T01560106 10194 20144 53001=
200606110456 METAR KSEA 110456Z 28003KT 10SM FEW040 SCT200 15/11 A2993 RMK AO2 SLP140 T01500106=
200606110356 METAR KSEA 110356Z 36004KT 10SM FEW040 SCT200 17/09 A2993 RMK AO2 SLP139 T01720094=
200606110256 METAR KSEA 110256Z 30004KT 10SM FEW030 BKN200 18/10 A2993 RMK AO2 SLP142 T01780100 55002=
200606110156 METAR KSEA 110156Z 29004KT 10SM SCT030 BKN200 18/10 A2993 RMK AO2 SLP140 T01830100=
200606110056 METAR KSEA 110056Z 32008KT 290V360 10SM FEW030 SCT050 BKN200 19/11 A2993 RMK AO2 SLP141 T01940106=
200606102356 METAR KSEA 102356Z VRB05KT 10SM SCT032 SCT050 BKN200 19/12 A2994 RMK AO2 SLP144 T01940117 10194 20150 58013=
200606102256 METAR KSEA 102256Z VRB03KT 10SM SCT025 SCT030 BKN047 BKN200 18/11 A2996 RMK AO2 SLP150 T01830111=
200606102230 SPECI KSEA 102230Z 31006KT 10SM SCT025 BKN035 BKN047 BKN200 18/11 A2996 RMK AO2=
200606102230 SPECI KSEA 102230Z 31006KT 10SM SCT025 BKN035 BKN047 BKN200 18/11 A2996 RMK AO2=
200606102156 METAR KSEA 102156Z 30008KT 10SM BKN025 BKN035 BKN200 18/12 A2996 RMK AO2 SLP152 T01780117=
200606102125 SPECI KSEA 102125Z 29008KT 10SM BKN025 BKN033 BKN200 18/12 A2997 RMK AO2=
200606102125 SPECI KSEA 102125Z 29008KT 10SM BKN025 BKN033 BKN200 18/12 A2997 RMK AO2=
200606102056 METAR KSEA 102056Z 35005KT 10SM SCT025 BKN033 OVC080 17/12 A2998 RMK AO2 SLP157 T01720117 58002=
200606101956 METAR KSEA 101956Z VRB04KT 10SM SCT024 BKN032 OVC050 16/11 A2998 RMK AO2 SLP160 T01560111=
200606101944 SPECI KSEA 101944Z 29006KT 10SM SCT024 BKN032 OVC050 16/12 A2998 RMK AO2=
200606101944 SPECI KSEA 101944Z 29006KT 10SM SCT024 BKN032 OVC050 16/12 A2998 RMK AO2=
200606101856 METAR KSEA 101856Z 29005KT 10SM FEW018 BKN024 OVC038 15/12 A2999 RMK AO2 SLP161 T01500117=
200606101814 SPECI KSEA 101814Z 36005KT 10SM FEW015 BKN026 OVC038 16/10 A2998 RMK AO2=
200606101814 SPECI KSEA 101814Z 36005KT 10SM FEW015 BKN026 OVC038 16/10 A2998 RMK AO2=
200606101756 METAR KSEA 101756Z 01005KT 10SM SCT014 BKN034 BKN100 16/10 A2998 RMK AO2 SLP159 T01560100 10156 20117 58001=
200606101747 SPECI KSEA 101747Z 03004KT 10SM SCT014 BKN034 BKN100 16/10 A2999 RMK AO2=
200606101747 SPECI KSEA 101747Z 03004KT 10SM SCT014 BKN034 BKN100 16/10 A2999 RMK AO2=
200606101656 METAR KSEA 101656Z VRB04KT 10SM FEW009 SCT014 OVC025 14/10 A2999 RMK AO2 SLP161 T01440100=
200606101556 METAR KSEA 101556Z 04005KT 10SM FEW009 SCT014 OVC029 14/10 A2999 RMK AO2 SLP159 T01390100=
200606101538 SPECI KSEA 101538Z 05007KT 10SM FEW009 SCT014 OVC029 14/10 A2999=
200606101538 SPECI KSEA 101538Z 05007KT 10SM FEW009 SCT014 OVC029 14/10 A2999 RMK AO2=
200606101456 METAR KSEA 101456Z 00000KT 10SM FEW008 BKN014 OVC034 12/11 A2999 RMK AO2 SLP161 T01220111 55000=
200606101444 SPECI KSEA 101444Z 00000KT 10SM FEW008 BKN014 OVC034 12/11 A2999=
200606101444 SPECI KSEA 101444Z 00000KT 10SM FEW008 BKN014 OVC034 12/11 A2999 RMK AO2=
200606101356 METAR KSEA 101356Z VRB03KT 10SM SCT003 OVC038 12/11 A2998 RMK AO2 SLP157 T01220111=
200606101338 SPECI KSEA 101338Z 00000KT 9SM FEW003 BKN038 OVC060 12/11 A2998 RMK AO2=
200606101338 SPECI KSEA 101338Z 00000KT 9SM FEW003 BKN038 OVC060 12/11 A2998 RMK AO2=
200606101322 SPECI KSEA 101322Z 00000KT 8SM FEW018 BKN038 OVC060 12/11 A2998 RMK AO2=
200606101322 SPECI KSEA 101322Z 00000KT 8SM FEW018 BKN038 OVC060 12/11 A2998 RMK AO2=
200606101256 METAR KSEA 101256Z 00000KT 9SM BKN018 OVC036 12/11 A2998 RMK AO2 SLP160 T01170111=
200606101229 SPECI KSEA 101229Z 24003KT 10SM BKN016 BKN024 OVC042 12/11 A2999 RMK AO2=
200606101229 SPECI KSEA 101229Z 24003KT 10SM BKN016 BKN024 OVC042 12/11 A2999 RMK AO2=
200606101156 METAR KSEA 101156Z 26003KT 10SM SCT005 BKN013 OVC047 12/11 A2999 RMK AO2 SLP161 T01170111 10133 20117 58010=
200606101056 METAR KSEA 101056Z 00000KT 10SM BKN005 BKN030 OVC042 12/11 A3000 RMK AO2 SLP163 T01220111=
200606100956 METAR KSEA 100956Z 24003KT 10SM BKN005 BKN032 OVC055 12/11 A3001 RMK AO2 SLP169 T01170111=
200606100922 SPECI KSEA 100922Z 23003KT 10SM SCT005 BKN032 OVC055 12/11 A3002=
200606100922 SPECI KSEA 100922Z 23003KT 10SM SCT005 BKN032 OVC055 12/11 A3002 RMK AO2=
200606100856 METAR KSEA 100856Z 23004KT 10SM BKN005 BKN030 OVC065 12/11 A3002 RMK AO2 SLP171 T01220111 58005=
200606100842 SPECI KSEA 100842Z 27004KT 10SM BKN007 BKN030 OVC065 12/11 A3002=
200606100842 SPECI KSEA 100842Z 27004KT 10SM BKN007 BKN030 OVC065 12/11 A3002 RMK AO2=
200606100815 SPECI KSEA 100815Z 24004KT 10SM FEW007 SCT030 OVC070 12/11 A3002 RMK AO2=
200606100815 SPECI KSEA 100815Z 24004KT 10SM FEW007 SCT030 OVC070 12/11 A3002 RMK AO2=
200606100756 METAR KSEA 100756Z 22005KT 10SM FEW030 SCT070 OVC085 12/11 A3003 RMK AO2 SLP174 T01220111 401780106=
200606100656 METAR KSEA 100656Z 25004KT 10SM SCT032 BKN070 OVC085 13/11 A3003 RMK AO2 SLP176 T01280111=
200606100556 METAR KSEA 100556Z 27004KT 10SM BKN030 OVC055 13/11 A3004 RMK AO2 SLP177 T01280111 10172 20128 50000=
200606100456 METAR KSEA 100456Z 28004KT 10SM SCT028 SCT060 BKN200 13/11 A3004 RMK AO2 SLP178 T01330106=
200606100356 METAR KSEA 100356Z 30004KT 10SM SCT027 BKN032 BKN048 BKN200 14/11 A3004 RMK AO2 SLP178 T01440106=
200606100256 METAR KSEA 100256Z 26004KT 10SM FEW025 BKN050 BKN120 BKN200 15/11 A3004 RMK AO2 SLP177 T01500106 56007=
200606100156 METAR KSEA 100156Z 32005KT 10SM FEW024 BKN034 BKN043 BKN200 16/10 A3004 RMK AO2 SLP178 T01610100=
200606100056 METAR KSEA 100056Z VRB05KT 10SM SCT024 BKN032 BKN200 16/11 A3005 RMK AO2 SLP182 T01610106=
200606092356 METAR KSEA 092356Z 25007KT 10SM FEW022 BKN048 BKN200 16/10 A3006 RMK AO2 SLP185 T01610100 10178 20122 56010=
200606092256 METAR KSEA 092256Z 26008KT 230V300 10SM SCT022 BKN048 BKN200 17/12 A3006 RMK AO2 SLP187 T01720117=
200606092156 METAR KSEA 092156Z VRB06KT 10SM FEW025 BKN042 BKN090 17/11 A3007 RMK AO2 SLP190 T01670111=
200606092056 METAR KSEA 092056Z 29010KT 10SM FEW015 BKN035 BKN085 16/11 A3009 RMK AO2 SLP196 T01610111 58005=
200606092016 SPECI KSEA 092016Z 26008KT 10SM FEW012 BKN034 BKN080 15/11 A3009 RMK AO2=
200606092016 SPECI KSEA 092016Z 26008KT 10SM FEW012 BKN034 BKN080 15/11 A3009 RMK AO2=
200606091956 METAR KSEA 091956Z 25008KT 10SM FEW012 BKN029 BKN080 16/11 A3010 RMK AO2 SLP198 T01560111=
200606091856 METAR KSEA 091856Z 23004KT 10SM FEW012 BKN020 OVC027 13/10 A3010 RMK AO2 SLP200 T01330100=
200606091756 METAR KSEA 091756Z 23005KT 10SM FEW014 BKN021 OVC027 12/09 A3010 RMK AO2 RAB24E33 SLP201 P0000 60000 T01220094 10128 20106 58000=
200606091738 SPECI KSEA 091738Z VRB03KT 10SM SCT014 BKN018 OVC025 12/09 A3010 RMK AO2 RAB24E33 P0000=
200606091738 SPECI KSEA 091738Z VRB03KT 10SM SCT014 BKN018 OVC025 12/09 A3010 RMK AO2 RAB24E33 P0000=
200606091713 SPECI KSEA 091713Z 26004KT 10SM BKN014 BKN020 OVC027 12/10 A3011 RMK AO2=
200606091713 SPECI KSEA 091713Z 26004KT 10SM BKN014 BKN020 OVC027 12/10 A3011 RMK AO2=
200606091656 METAR KSEA 091656Z 24006KT 10SM SCT014 BKN021 OVC027 12/10 A3011 RMK AO2 SLP201 T01220100=
200606091556 METAR KSEA 091556Z 17007KT 10SM FEW009 SCT014 OVC016 12/09 A3011 RMK AO2 SLP201 T01170089=
200606091535 SPECI KSEA 091535Z 19005KT 10SM FEW009 SCT014 OVC016 12/09 A3010 RMK AO2=
200606091535 SPECI KSEA 091535Z 19005KT 10SM FEW009 SCT014 OVC016 12/09 A3010 RMK AO2=
200606091508 SPECI KSEA 091508Z 20007KT 10SM FEW007 BKN010 OVC014 11/09 A3011 RMK AO2=
200606091508 SPECI KSEA 091508Z 20007KT 10SM FEW007 BKN010 OVC014 11/09 A3011 RMK AO2=
200606091456 METAR KSEA 091456Z 18005KT 10SM BKN010 BKN014 OVC020 11/09 A3011 RMK AO2 SLP201 T01110094 55000=
200606091356 METAR KSEA 091356Z 16007KT 10SM BKN010 OVC015 11/09 A3010 RMK AO2 SLP200 T01110094=
200606091256 METAR KSEA 091256Z 17005KT 7SM OVC010 11/09 A3010 RMK AO2 SLP200 T01110094=
200606091156 METAR KSEA 091156Z 17005KT 6SM BR FEW005 OVC010 11/10 A3011 RMK AO2 RAE18 SLP201 P0000 60006 70008 T01060100 10122 20106 51000=
200606091056 METAR KSEA 091056Z 21005KT 3SM -RA BR SCT005 OVC010 11/10 A3011 RMK AO2 SLP201 VIS W 2 P0002 T01060100=
200606091014 SPECI KSEA 091014Z 21006KT 3SM -RA BR SCT007 OVC010 11/10 A3011=
200606091014 SPECI KSEA 091014Z 21006KT 3SM -RA BR SCT007 OVC010 11/10 A3011 RMK AO2 P0001=
200606090956 METAR KSEA 090956Z 22005KT 3SM -RA BR SCT004 OVC007 11/10 A3011 RMK AO2 RAB23 SLP202 P0001 T01060100=
200606090856 METAR KSEA 090856Z 23007KT 10SM BKN007 OVC012 11/10 A3011 RMK AO2 SLP201 60003 T01060100 53001=
200606090819 SPECI KSEA 090819Z 22008KT 10SM BKN007 OVC011 11/11 A3010=
200606090819 SPECI KSEA 090819Z 22008KT 10SM BKN007 OVC011 11/11 A3010 RMK AO2=
200606090756 METAR KSEA 090756Z 22010KT 8SM FEW007 OVC010 11/10 A3010 RMK AO2 RAE12 SLP199 P0000 T01110100 401780106=
200606090656 METAR KSEA 090656Z 22008KT 7SM -RA SCT007 OVC014 12/11 A3010 RMK AO2 SLP199 P0003 T01170106=
200606090556 METAR KSEA 090556Z 24007KT 6SM -RA BR SCT007 BKN012 OVC016 12/11 A3010 RMK AO2 RAB15 SLP200 P0002 60002 T01220111 10167 20122 51007=
200606090553 SPECI KSEA 090553Z 24007KT 7SM -RA BKN007 OVC016 12/11 A3010 RMK AO2 RAB15 CIG 005V011 P0002=
200606090553 SPECI KSEA 090553Z 24007KT 7SM -RA BKN007 OVC016 12/11 A3010 RMK AO2 RAB15 CIG 005V011 P0002=
200606090530 SPECI KSEA 090530Z 27005KT 10SM -RA SCT008 OVC018 13/12 A3010 RMK AO2 RAB15 P0001=
200606090530 SPECI KSEA 090530Z 27005KT 10SM -RA SCT008 OVC018 13/12 A3010 RMK AO2 RAB15 P0001=
200606090456 METAR KSEA 090456Z 25007KT 10SM BKN022 OVC060 13/10 A3010 RMK AO2 SLP199 T01330100=
200606090451 SPECI KSEA 090451Z 26007KT 10SM BKN022 OVC060 14/10 A3010 RMK AO2=
200606090451 SPECI KSEA 090451Z 26007KT 10SM BKN022 OVC060 14/10 A3010 RMK AO2=
200606090356 METAR KSEA 090356Z 25009KT 10SM FEW027 BKN065 OVC080 14/11 A3008 RMK AO2 SLP193 T01440106=
200606090256 METAR KSEA 090256Z 21009KT 10SM FEW039 BKN060 BKN090 BKN200 16/10 A3008 RMK AO2 SLP191 T01560100 56003=
200606090156 METAR KSEA 090156Z 24007KT 10SM FEW040 BKN060 BKN090 16/09 A3008 RMK AO2 SLP191 T01610094=
200606090056 METAR KSEA 090056Z 20008KT 10SM FEW045 OVC060 16/09 A3008 RMK AO2 SLP192 T01610089=
200606082356 METAR KSEA 082356Z 23007KT 10SM FEW045 OVC060 17/08 A3009 RMK AO2 SLP195 T01670083 10178 20139 58004=
200606082256 METAR KSEA 082256Z 22007KT 10SM SCT045 OVC070 17/08 A3009 RMK AO2 SLP196 BINOVC T01720083=
200606082156 METAR KSEA 082156Z 20009KT 10SM FEW035 BKN045 OVC065 17/09 A3010 RMK AO2 SLP199 BINOVC S T01670089=
200606082056 METAR KSEA 082056Z 22010KT 10SM FEW030 BKN040 OVC055 16/09 A3010 RMK AO2 SLP199 BINOVC NW T01560089 56001=
200606081956 METAR KSEA 081956Z 21010KT 10SM FEW029 BKN045 OVC055 15/08 A3010 RMK AO2 SLP200 T01500083=
200606081856 METAR KSEA 081856Z 22009KT 10SM SCT025 BKN045 17/09 A3010 RMK AO2 SLP199 T01670094=
200606081756 METAR KSEA 081756Z 22008KT 10SM FEW020 SCT025 OVC045 14/09 A3010 RMK AO2 SLP200 BINOVC SW T01390089 10144 20106 51005=
200606081710 SPECI KSEA 081710Z 20009KT 10SM FEW017 SCT025 OVC045 14/09 A3010 RMK AO2 BINOVC OHD=
200606081710 SPECI KSEA 081710Z 20009KT 10SM FEW017 SCT025 OVC045 14/09 A3010 RMK AO2 BINOVC OHD=
200606081656 METAR KSEA 081656Z 22009KT 10SM SCT019 BKN023 OVC046 14/09 A3010 RMK AO2 SLP199 T01390089=
200606081556 METAR KSEA 081556Z 21008KT 10SM BKN017 BKN020 OVC025 13/09 A3010 RMK AO2 SLP198 T01280089=
200606081456 METAR KSEA 081456Z 21010KT 10SM FEW015 OVC020 12/09 A3009 RMK AO2 SLP194 T01220089 51003=
200606081356 METAR KSEA 081356Z 18009KT 10SM BKN022 BKN038 OVC080 12/08 A3009 RMK AO2 SLP193 T01170083=
200606081256 METAR KSEA 081256Z 17007KT 10SM BKN024 BKN035 BKN085 11/08 A3008 RMK AO2 SLP193 T01110083=
200606081249 SPECI KSEA 081249Z 18007KT 10SM BKN024 BKN035 BKN085 11/08 A3008 RMK AO2=
200606081249 SPECI KSEA 081249Z 18007KT 10SM BKN024 BKN035 BKN085 11/08 A3008 RMK AO2=
200606081156 METAR KSEA 081156Z 18009KT 10SM FEW040 BKN080 11/08 A3008 RMK AO2 SLP191 T01060078 10128 20106 50000=
200606081056 METAR KSEA 081056Z 18007KT 10SM SCT040 OVC070 11/08 A3008 RMK AO2 SLP191 T01110078=
200606080956 METAR KSEA 080956Z 18008KT 10SM SCT042 BKN065 11/08 A3008 RMK AO2 SLP191 T01110078=
200606080856 METAR KSEA 080856Z 18009KT 10SM BKN040 OVC060 12/08 A3008 RMK AO2 SLP190 T01170078 51003=
200606080756 METAR KSEA 080756Z 17008KT 10SM FEW060 12/08 A3008 RMK AO2 SLP190 T01170078 402110106=
200606080656 METAR KSEA 080656Z 20009KT 10SM FEW050 SCT060 12/08 A3007 RMK AO2 SLP190 T01220083=
200606080556 METAR KSEA 080556Z 22010KT 10SM SCT050 BKN060 13/09 A3007 RMK AO2 SLP189 T01280089 10211 20128 53010=
200606080456 METAR KSEA 080456Z 22009KT 10SM SCT049 SCT120 13/09 A3006 RMK AO2 SLP186 T01330089=
200606080356 METAR KSEA 080356Z 24008KT 10SM SCT060 SCT250 16/09 A3004 RMK AO2 SLP178 T01560089=
200606080256 METAR KSEA 080256Z 24009KT 10SM BKN060 17/09 A3004 RMK AO2 SLP177 T01720094 53002=
200606080156 METAR KSEA 080156Z 24011KT 10SM FEW060 SCT250 18/09 A3003 RMK AO2 SLP174 T01830094=
200606080056 METAR KSEA 080056Z 24010KT 10SM SCT055 SCT140 20/10 A3002 RMK AO2 SLP173 T02000100=
200606072356 METAR KSEA 072356Z 22010KT 10SM SCT055 SCT140 BKN250 21/11 A3003 RMK AO2 SLP175 T02110106 10211 20144 56009=
200606072256 METAR KSEA 072256Z 22008KT 10SM SCT050 SCT140 BKN250 21/11 A3004 RMK AO2 SLP177 T02060106=
200606072156 METAR KSEA 072156Z 20007KT 10SM FEW035 SCT050 SCT250 19/10 A3005 RMK AO2 SLP181 T01890100=
200606072056 METAR KSEA 072056Z 19007KT 10SM FEW035 BKN050 BKN060 18/10 A3006 RMK AO2 SLP184 T01780100 58005=
200606071956 METAR KSEA 071956Z 19008KT 10SM FEW030 BKN050 BKN060 17/09 A3007 RMK AO2 SLP187 T01670094=
200606071856 METAR KSEA 071856Z 20007KT 10SM FEW025 BKN050 BKN250 16/09 A3007 RMK AO2 SLP189 T01560089=
200606071756 METAR KSEA 071756Z 21005KT 10SM FEW025 BKN044 BKN200 15/10 A3007 RMK AO2 SLP189 T01500100 10150 20106 53000=
200606071656 METAR KSEA 071656Z 20008KT 10SM FEW020 BKN040 BKN200 14/09 A3007 RMK AO2 SLP189 T01390089=
200606071556 METAR KSEA 071556Z 22005KT 10SM FEW020 SCT040 SCT110 BKN200 13/09 A3007 RMK AO2 SLP188 T01280089=
200606071456 METAR KSEA 071456Z 17005KT 10SM FEW017 SCT037 BKN110 BKN200 11/09 A3007 RMK AO2 SLP189 T01110089 50004=
200606071356 METAR KSEA 071356Z 23004KT 10SM FEW017 SCT023 SCT060 BKN150 BKN200 11/08 A3007 RMK AO2 SLP189 T01060083=
200606071256 METAR KSEA 071256Z 24003KT 10SM SCT014 BKN060 BKN150 BKN200 11/09 A3007 RMK AO2 SLP189 T01060089=
200606071156 METAR KSEA 071156Z 22004KT 10SM SCT013 OVC055 11/09 A3006 RMK AO2 SLP185 T01060089 10150 20106 53001=
200606071056 METAR KSEA 071056Z 26004KT 10SM FEW013 SCT020 OVC050 11/09 A3006 RMK AO2 SLP183 T01110094=
200606070956 METAR KSEA 070956Z 28003KT 10SM SCT050 BKN250 12/09 A3006 RMK AO2 SLP184 T01220094=
200606070856 METAR KSEA 070856Z 31003KT 10SM SCT050 SCT250 12/10 A3006 RMK AO2 SLP184 T01220100 51005=
200606070756 METAR KSEA 070756Z 29005KT 10SM CLR 12/10 A3006 RMK AO2 SLP183 T01220100 402280100=
200606070656 METAR KSEA 070656Z 22004KT 10SM FEW250 13/11 A3005 RMK AO2 SLP181 T01280106=
200606070556 METAR KSEA 070556Z VRB05KT 10SM SCT250 15/10 A3004 RMK AO2 SLP179 T01500100 10222 20150 53005=
200606070456 METAR KSEA 070456Z 36005KT 10SM FEW040 SCT200 SCT250 16/10 A3004 RMK AO2 SLP176 T01610100=
200606070356 METAR KSEA 070356Z 34003KT 10SM FEW040 SCT200 BKN250 18/11 A3003 RMK AO2 SLP173 T01780106=
200606070256 METAR KSEA 070256Z 30005KT 10SM FEW040 SCT250 19/11 A3003 RMK AO2 SLP174 T01940106 56005=
200606070156 METAR KSEA 070156Z 33005KT 10SM SCT040 SCT250 21/11 A3003 RMK AO2 SLP174 T02060106=
200606070056 METAR KSEA 070056Z VRB06KT 10SM SCT040 BKN250 22/11 A3004 RMK AO2 SLP176 T02170111=
200606062356 METAR KSEA 062356Z 27008KT 10SM SCT040 SCT250 22/11 A3004 RMK AO2 SLP179 T02220106 10228 20172 56015=
200606062256 METAR KSEA 062256Z 28006KT 10SM SCT040 SCT250 22/11 A3006 RMK AO2 SLP183 T02170111=
200606062156 METAR KSEA 062156Z 21004KT 10SM SCT040 SCT250 21/11 A3007 RMK AO2 SLP188 T02060111=
200606062056 METAR KSEA 062056Z 31006KT 10SM SCT035 SCT250 21/12 A3009 RMK AO2 SLP194 T02060117 58007=
200606061956 METAR KSEA 061956Z 32008KT 10SM SCT035 BKN250 20/11 A3009 RMK AO2 SLP196 T02000111=
200606061856 METAR KSEA 061856Z 28006KT 10SM SCT030 BKN250 19/11 A3010 RMK AO2 SLP199 T01890111=
200606061756 METAR KSEA 061756Z VRB05KT 10SM SCT025 SCT050 BKN250 18/11 A3011 RMK AO2 SLP201 T01780106 10178 20100 58002=
200606061656 METAR KSEA 061656Z 00000KT 10SM FEW025 SCT050 SCT250 17/08 A3011 RMK AO2 SLP202 T01670083=
200606061556 METAR KSEA 061556Z VRB05KT 10SM FEW070 SCT250 16/08 A3011 RMK AO2 SLP203 T01560083=
200606061456 METAR KSEA 061456Z 05003KT 10SM SCT065 14/08 A3011 RMK AO2 SLP203 T01440083 53010=
200606061356 METAR KSEA 061356Z 02004KT 10SM SCT050 SCT200 13/08 A3010 RMK AO2 SLP198 T01280078=
200606061256 METAR KSEA 061256Z 04005KT 10SM SCT050 12/08 A3009 RMK AO2 SLP196 T01170083=
200606061156 METAR KSEA 061156Z 33003KT 10SM FEW050 11/08 A3008 RMK AO2 SLP192 T01110083 10139 20106 53012=
200606061056 METAR KSEA 061056Z 35004KT 10SM CLR 12/08 A3007 RMK AO2 SLP188 T01170083=
200606060956 METAR KSEA 060956Z 04005KT 10SM CLR 12/08 A3006 RMK AO2 SLP184 T01220078=
200606060856 METAR KSEA 060856Z 36005KT 10SM CLR 13/08 A3005 RMK AO2 SLP181 T01280083 53004=
200606060756 METAR KSEA 060756Z 02006KT 10SM SCT200 13/08 A3004 RMK AO2 SLP178 T01330083 402000128=
200606060656 METAR KSEA 060656Z 36006KT 10SM FEW140 13/08 A3004 RMK AO2 SLP177 T01330083=
200606060556 METAR KSEA 060556Z 34007KT 10SM FEW180 14/09 A3004 RMK AO2 SLP177 T01390089 10200 20139 53001=
200606060456 METAR KSEA 060456Z 34006KT 10SM FEW050 14/09 A3004 RMK AO2 SLP177 T01440089=
200606060356 METAR KSEA 060356Z 36008KT 10SM FEW060 16/09 A3003 RMK AO2 SLP174 T01610094=
200606060256 METAR KSEA 060256Z 35008KT 10SM FEW060 18/09 A3003 RMK AO2 SLP175 T01780094 55003=
200606060156 METAR KSEA 060156Z 32006KT 10SM FEW060 19/09 A3003 RMK AO2 SLP173 T01940094=
200606060056 METAR KSEA 060056Z VRB05KT 10SM FEW060 20/10 A3003 RMK AO2 SLP174 T02000100=
200606052356 METAR KSEA 052356Z 30007KT 10SM FEW035 SCT250 20/11 A3004 RMK AO2 SLP178 T02000111 10200 20161 56006=
200606052256 METAR KSEA 052256Z 31009KT 10SM FEW028 SCT060 BKN250 18/11 A3005 RMK AO2 SLP181 T01830111=
200606052156 METAR KSEA 052156Z 31006KT 10SM FEW028 SCT060 OVC250 19/12 A3005 RMK AO2 SLP181 T01940122=
200606052056 METAR KSEA 052056Z 31007KT 10SM FEW025 SCT055 OVC200 18/12 A3006 RMK AO2 SLP184 T01830122 58005=
200606051956 METAR KSEA 051956Z 31008KT 10SM FEW025 BKN055 BKN070 BKN200 18/12 A3007 RMK AO2 SLP188 T01780117=
200606051856 METAR KSEA 051856Z 30006KT 10SM FEW020 BKN055 17/12 A3007 RMK AO2 SLP187 T01670122=
200606051756 METAR KSEA 051756Z 31005KT 10SM FEW020 OVC050 17/12 A3007 RMK AO2 SLP189 BINOVC OHD-N T01670117 10172 20133 51005=
200606051656 METAR KSEA 051656Z 30006KT 10SM FEW014 SCT018 BKN044 BKN200 17/12 A3007 RMK AO2 SLP188 T01670122=
200606051644 SPECI KSEA 051644Z VRB04KT 10SM FEW014 SCT018 BKN044 BKN200 17/12 A3007 RMK AO2=
200606051644 SPECI KSEA 051644Z VRB04KT 10SM FEW014 SCT018 BKN044 BKN200 17/12 A3007 RMK AO2=
200606051556 METAR KSEA 051556Z VRB05KT 10SM FEW014 BKN020 BKN070 OVC200 16/12 A3007 RMK AO2 SLP189 T01560122=
200606051456 METAR KSEA 051456Z 00000KT 10SM BKN016 BKN070 OVC200 14/12 A3006 RMK AO2 SLP184 T01440117 52000=
200606051356 METAR KSEA 051356Z 23003KT 10SM BKN016 BKN070 14/12 A3006 RMK AO2 SLP185 T01440117=
200606051334 SPECI KSEA 051334Z 00000KT 10SM BKN017 BKN070 14/11 A3006=
200606051334 SPECI KSEA 051334Z 00000KT 10SM BKN017 BKN070 14/11 A3006 RMK AO2=
200606051256 METAR KSEA 051256Z 21003KT 10SM FEW026 BKN070 13/11 A3006 RMK AO2 SLP183 T01330111=
200606051156 METAR KSEA 051156Z 19003KT 10SM SCT022 OVC065 13/11 A3006 RMK AO2 SLP184 70014 T01330111 10139 20133 58001=
200606051056 METAR KSEA 051056Z 21003KT 10SM BKN022 OVC060 13/12 A3006 RMK AO2 SLP185 T01330117=
200606050956 METAR KSEA 050956Z 21005KT 10SM BKN018 OVC070 14/12 A3006 RMK AO2 SLP185 T01390117=
200606050856 METAR KSEA 050856Z 18005KT 10SM BKN020 OVC075 14/12 A3006 RMK AO2 SLP184 T01390117 51004=
200606050756 METAR KSEA 050756Z 21005KT 10SM BKN018 BKN045 BKN075 14/11 A3006 RMK AO2 SLP184 T01390111 402000117=
200606050736 SPECI KSEA 050736Z 21006KT 10SM BKN018 BKN045 BKN075 14/11 A3006=
200606050736 SPECI KSEA 050736Z 21006KT 10SM BKN018 BKN045 BKN075 14/11 A3006 RMK AO2=
200606050656 METAR KSEA 050656Z 22007KT 10SM FEW010 SCT032 BKN080 14/11 A3005 RMK AO2 SLP183 T01390111=
200606050556 METAR KSEA 050556Z 22009KT 10SM FEW030 BKN045 BKN080 14/11 A3005 RMK AO2 SLP180 T01390111 10178 20139 51017=
200606050456 METAR KSEA 050456Z 23010KT 10SM SCT025 BKN045 BKN075 14/10 A3004 RMK AO2 SLP177 T01440100=
200606050356 METAR KSEA 050356Z 23011KT 10SM FEW025 SCT045 BKN075 BKN200 14/11 A3001 RMK AO2 SLP169 T01440111=
200606050256 METAR KSEA 050256Z 23013KT 10SM FEW025 SCT045 BKN075 BKN200 15/12 A3000 RMK AO2 SLP164 T01500117 53016=
200606050156 METAR KSEA 050156Z 24015G22KT 10SM FEW025 SCT045 BKN075 BKN200 16/12 A2998 RMK AO2 SLP158 T01610117=
200606050056 METAR KSEA 050056Z 26013G19KT 10SM FEW025 SCT070 BKN090 BKN200 17/12 A2996 RMK AO2 SLP151 T01670122=
200606042356 METAR KSEA 042356Z 22012KT 10SM FEW025 BKN075 BKN100 BKN200 17/13 A2995 RMK AO2 SLP146 60000 T01720133 10200 20167 51012=
200606042256 METAR KSEA 042256Z 25011KT 10SM FEW025 SCT045 BKN075 BKN200 18/13 A2994 RMK AO2 SLP142 T01830128=
200606042156 METAR KSEA 042156Z 26011G17KT 10SM FEW025 BKN044 BKN080 BKN200 18/13 A2993 RMK AO2 RAE30 SLP139 P0000 T01830128=
200606042056 METAR KSEA 042056Z 23012G21KT 8SM -RA FEW020 BKN050 BKN080 18/13 A2991 RMK AO2 RAB53 SLP134 P0000 60000 T01780128 52015=
200606041956 METAR KSEA 041956Z 24012KT 10SM FEW020 BKN049 BKN080 18/13 A2990 RMK AO2 SLP130 T01830128=
200606041856 METAR KSEA 041856Z 24012KT 10SM FEW015 SCT055 BKN080 18/14 A2988 RMK AO2 SLP124 T01830139=
200606041756 METAR KSEA 041756Z 23010KT 10SM FEW012 BKN055 BKN200 17/14 A2987 RMK AO2 SLP119 60014 T01670139 10167 20117 51014=
200606041734 SPECI KSEA 041734Z 24010KT 10SM FEW005 SCT018 BKN045 16/14 A2986 RMK AO2=
200606041734 SPECI KSEA 041734Z 24010KT 10SM FEW005 SCT018 BKN045 16/14 A2986 RMK AO2=
200606041656 METAR KSEA 041656Z 21008KT 7SM SCT004 OVC018 14/13 A2986 RMK AO2 SLP116 T01440133=
200606041641 SPECI KSEA 041641Z 22006KT 7SM SCT004 BKN018 14/13 A2986=
200606041641 SPECI KSEA 041641Z 22006KT 7SM SCT004 BKN018 14/13 A2986 RMK AO2=
200606041634 SPECI KSEA 041634Z 21006KT 7SM BKN004 OVC015 14/13 A2986=
200606041634 SPECI KSEA 041634Z 21006KT 7SM BKN004 OVC015 14/13 A2986 RMK AO2=
200606041605 SPECI KSEA 041605Z 20007KT 1 1/2SM BR OVC002 13/13 A2984 RMK AO2 SFC VIS 2=
200606041605 SPECI KSEA 041605Z 20007KT 1 1/2SM BR OVC002 13/13 A2984 RMK AO2 SFC VIS 2=
200606041556 METAR KSEA 041556Z 22006KT 1/4SM BR OVC002 13/13 A2984 RMK AO2 SFC VIS 1 1/4 RAE39 SLP111 P0000 T01280128=
200606041508 SPECI KSEA 041508Z 24006KT 1/4SM R16R/3500VP6000FT BR OVC002 12/12 A2983 RMK AO2 SFC VIS 1 RAE07 P0000=
200606041508 SPECI KSEA 041508Z 24006KT 1/4SM R16R/3500VP6000FT BR OVC002 12/12 A2983 RMK AO2 SFC VIS 1 RAE07 P0000=
200606041504 SPECI KSEA 041504Z 25004KT 1 1/4SM R16R/3500VP6000FT -RA BR OVC002 12/12 A2983 RMK AO2 P0000=
200606041504 SPECI KSEA 041504Z 25004KT 1 1/4SM R16R/3500VP6000FT -RA BR OVC002 12/12 A2983 RMK AO2 P0000=
200606041456 METAR KSEA 041456Z 27004KT 3/4SM R16R/2800VP6000FT -RA BR OVC002 12/12 A2983 RMK AO2 SLP105 P0004 60014 T01220122 53015=
200606041427 SPECI KSEA 041427Z 27005KT 1SM R16R/P6000FT -RA BR OVC002 12/12 A2982 RMK AO2 P0003=
200606041427 SPECI KSEA 041427Z 27005KT 1SM R16R/P6000FT -RA BR OVC002 12/12 A2982 RMK AO2 P0003=
200606041422 SPECI KSEA 041422Z VRB03KT 1 3/4SM -RA BR OVC002 12/12 A2981 RMK AO2 P0003=
200606041422 SPECI KSEA 041422Z VRB03KT 1 3/4SM -RA BR OVC002 12/12 A2981 RMK AO2 P0003=
200606041410 SPECI KSEA 041410Z 27004KT 1SM R16R/5500VP6000FT -RA BR OVC002 12/12 A2981 RMK AO2 P0002=
200606041410 SPECI KSEA 041410Z 27004KT 1SM R16R/5500VP6000FT -RA BR OVC002 12/12 A2981 RMK AO2 P0002=
200606041356 METAR KSEA 041356Z 31003KT 1SM R16R/5000VP6000FT -RA BR OVC002 12/12 A2980 RMK AO2 RAB04E24B42 SLP096 P0002 T01170117=
200606041324 SPECI KSEA 041324Z 32004KT 1 1/4SM R16R/4000VP6000FT BR OVC002 12/12 A2980 RMK AO2 RAB04E24 P0000=
200606041324 SPECI KSEA 041324Z 32004KT 1 1/4SM R16R/4000VP6000FT BR OVC002 12/12 A2980 RMK AO2 RAB04E24 P0000=
200606041310 SPECI KSEA 041310Z 35003KT 1 3/4SM R16R/2200VP6000FT -RA BR OVC002 13/12 A2980 RMK AO2 RAB04 P0000=
200606041310 SPECI KSEA 041310Z 35003KT 1 3/4SM R16R/2200VP6000FT -RA BR OVC002 13/12 A2980 RMK AO2 RAB04 P0000=
200606041256 METAR KSEA 041256Z 35003KT 5SM BR BKN002 OVC010 13/13 A2979 RMK AO2 RAE46 SLP091 P0008 T01330128=
200606041156 METAR KSEA 041156Z 01006KT 2SM +RA BR BKN002 OVC010 13/12 A2978 RMK AO2 SLP090 P0018 60039 70039 T01280122 10167 20128 58019=
200606041114 SPECI KSEA 041114Z 35007KT 2 1/2SM RA BR BKN002 OVC046 13/12 A2979 RMK AO2 P0003=
200606041114 SPECI KSEA 041114Z 35007KT 2 1/2SM RA BR BKN002 OVC046 13/12 A2979 RMK AO2 P0003=
200606041056 METAR KSEA 041056Z 01008KT 4SM -RA BR SCT002 BKN039 OVC055 13/12 A2979 RMK AO2 SLP094 P0009 T01280122=
200606040956 METAR KSEA 040956Z 00000KT 5SM -RA BR SCT041 OVC050 13/12 A2983 RMK AO2 SLP107 P0007 T01280122=
200606040856 METAR KSEA 040856Z 01007KT 9SM -RA SCT060 OVC085 13/12 A2984 RMK AO2 SLP110 P0003 60005 T01330117 58025=
200606040756 METAR KSEA 040756Z 33003KT 10SM -RA SCT060 OVC080 14/12 A2987 RMK AO2 SLP118 P0002 T01390117 402060122=
200606040656 METAR KSEA 040656Z 31003KT 10SM -RA BKN065 OVC090 15/11 A2989 RMK AO2 RAB51 SLP126 P0000 T01500106=
200606040556 METAR KSEA 040556Z 32004KT 10SM BKN070 OVC110 16/09 A2991 RMK AO2 SLP135 T01610094 10194 20161 56025=
200606040456 METAR KSEA 040456Z 36005KT 10SM FEW070 BKN110 BKN200 18/07 A2994 RMK AO2 SLP143 T01780072=
200606040356 METAR KSEA 040356Z 36005KT 10SM FEW040 BKN110 BKN200 18/07 A2996 RMK AO2 SLP151 T01830067=
200606040256 METAR KSEA 040256Z 30003KT 10SM FEW040 BKN110 BKN200 18/08 A2999 RMK AO2 SLP161 T01830083 58021=
200606040156 METAR KSEA 040156Z 29003KT 10SM FEW040 BKN120 BKN200 19/07 A3002 RMK AO2 SLP171 T01890067=
200606040056 METAR KSEA 040056Z 30004KT 10SM FEW040 SCT120 BKN200 19/08 A3004 RMK AO2 SLP176 T01940078=
200606032356 METAR KSEA 032356Z 30005KT 10SM FEW040 BKN200 19/08 A3005 RMK AO2 SLP181 T01940083 10206 20167 58023=
200606032256 METAR KSEA 032256Z 29006KT 10SM FEW040 BKN200 19/09 A3008 RMK AO2 SLP190 T01940089=
200606032156 METAR KSEA 032156Z 25007KT 10SM FEW040 BKN200 19/09 A3010 RMK AO2 SLP199 T01940094=
200606032056 METAR KSEA 032056Z VRB06KT 10SM FEW040 BKN250 20/09 A3012 RMK AO2 SLP205 T02000094 56022=
200606031956 METAR KSEA 031956Z 25006KT 10SM FEW035 BKN250 19/09 A3014 RMK AO2 SLP212 T01940094=
200606031856 METAR KSEA 031856Z VRB03KT 10SM FEW028 BKN250 18/09 A3016 RMK AO2 SLP220 T01780089=
200606031756 METAR KSEA 031756Z 29008KT 10SM FEW028 OVC250 17/11 A3019 RMK AO2 SLP227 T01720106 10172 20122 58002=
200606031656 METAR KSEA 031656Z VRB04KT 10SM FEW028 BKN250 16/09 A3019 RMK AO2 SLP230 T01610089=
200606031556 METAR KSEA 031556Z 00000KT 10SM FEW040 BKN250 15/08 A3019 RMK AO2 SLP230 T01500083=
200606031456 METAR KSEA 031456Z 12005KT 10SM FEW046 BKN250 13/09 A3019 RMK AO2 SLP229 T01330089 51008=
200606031356 METAR KSEA 031356Z 15006KT 10SM FEW035 SCT046 BKN250 12/09 A3019 RMK AO2 SLP228 T01220089=
200606031256 METAR KSEA 031256Z 14006KT 10SM OVC046 12/09 A3018 RMK AO2 SLP226 T01220089=
200606031156 METAR KSEA 031156Z 14004KT 10SM FEW050 BKN070 12/08 A3017 RMK AO2 SLP221 70004 T01220083 10133 20122 50000=
200606031056 METAR KSEA 031056Z 16005KT 10SM OVC070 12/08 A3017 RMK AO2 SLP220 T01220083=
200606030956 METAR KSEA 030956Z 16005KT 10SM OVC065 13/08 A3017 RMK AO2 SLP223 T01280078=
200606030856 METAR KSEA 030856Z 20003KT 10SM OVC065 13/08 A3017 RMK AO2 SLP221 T01280083 51005=
200606030756 METAR KSEA 030756Z 18005KT 10SM OVC065 13/08 A3017 RMK AO2 SLP220 T01280078 401940122=
200606030656 METAR KSEA 030656Z 16006KT 10SM OVC065 13/08 A3016 RMK AO2 SLP219 T01280078=
200606030556 METAR KSEA 030556Z 20006KT 10SM FEW200 12/08 A3015 RMK AO2 SLP215 T01220078 10183 20122 51025=
200606030456 METAR KSEA 030456Z 19007KT 10SM SCT060 13/08 A3014 RMK AO2 SLP210 T01330078=
200606030356 METAR KSEA 030356Z 23008KT 10SM SCT060 SCT090 14/08 A3010 RMK AO2 SLP199 T01390078=
200606030256 METAR KSEA 030256Z 24011KT 10SM SCT048 SCT080 BKN120 16/08 A3008 RMK AO2 SLP190 T01560083 53018=
200606030156 METAR KSEA 030156Z 23010KT 10SM CLR 17/08 A3006 RMK AO2 SLP184 T01670083=
200606030056 METAR KSEA 030056Z 25013G19KT 10SM FEW045 SCT080 BKN120 18/09 A3004 RMK AO2 SLP177 T01780089=
200606022356 METAR KSEA 022356Z 24012KT 10SM FEW046 SCT060 BKN075 BKN200 18/10 A3002 RMK AO2 SLP172 60004 T01780100 10194 20161 51015=
200606022256 METAR KSEA 022256Z 24011KT 10SM FEW029 BKN035 BKN120 18/12 A3001 RMK AO2 SLP167 T01780117=
200606022156 METAR KSEA 022156Z 24009KT 10SM FEW025 SCT040 BKN070 18/13 A3000 RMK AO2 SLP165 T01780133=
200606022056 METAR KSEA 022056Z 25011KT 10SM FEW015 SCT045 BKN080 18/16 A2998 RMK AO2 RAE33 SLP157 P0003 60004 T01830156 53003=
200606022021 SPECI KSEA 022021Z 25009KT 10SM FEW009 SCT021 OVC033 17/16 A2997 RMK AO2 RAE20 BINOVC OHD-SW P0003=
200606022021 SPECI KSEA 022021Z 25009KT 10SM FEW009 SCT021 OVC033 17/16 A2997 RMK AO2 RAE20 BINOVC OHD-SW P0003=
200606022006 SPECI KSEA 022006Z 27008KT 4SM RA BR FEW009 BKN021 OVC028 16/15 A2997 RMK AO2 P0003=
200606022006 SPECI KSEA 022006Z 27008KT 4SM RA BR FEW009 BKN021 OVC028 16/15 A2997 RMK AO2 P0003=
200606021956 METAR KSEA 021956Z 25008KT 5SM -RA BR FEW013 BKN018 OVC036 17/14 A2997 RMK AO2 RAB40 SLP154 P0001 T01670144=
200606021856 METAR KSEA 021856Z 25004KT 10SM SCT016 BKN020 BKN040 18/14 A2996 RMK AO2 SLP151 T01830144=
200606021814 SPECI KSEA 021814Z VRB05KT 10SM SCT013 BKN016 OVC038 18/14 A2997 RMK AO2 BINOVC OHD=
200606021814 SPECI KSEA 021814Z VRB05KT 10SM SCT013 BKN016 OVC038 18/14 A2997 RMK AO2 BINOVC OHD=
200606021756 METAR KSEA 021756Z 22005KT 10SM BKN013 BKN022 OVC037 17/14 A2997 RMK AO2 RAE03 SLP154 BINOVC OHD-NE P0000 60000 T01670139 10167 20133 51005=
200606021656 METAR KSEA 021656Z 16005KT 10SM -RA FEW008 BKN011 OVC020 16/13 A2997 RMK AO2 RAB12E23B50 SLP153 P0000 T01560133=
200606021643 SPECI KSEA 021643Z 15004KT 10SM FEW008 BKN011 OVC020 15/13 A2996 RMK AO2 RAB12E23 P0000=
200606021643 SPECI KSEA 021643Z 15004KT 10SM FEW008 BKN011 OVC020 15/13 A2996 RMK AO2 RAB12E23 P0000=
200606021556 METAR KSEA 021556Z 00000KT 10SM FEW008 BKN022 OVC030 16/14 A2996 RMK AO2 SLP151 T01560139=
200606021533 SPECI KSEA 021533Z VRB04KT 10SM FEW007 BKN026 OVC034 15/14 A2996 RMK AO2=
200606021533 SPECI KSEA 021533Z VRB04KT 10SM FEW007 BKN026 OVC034 15/14 A2996 RMK AO2=
200606021456 METAR KSEA 021456Z 15006KT 10SM FEW006 SCT021 BKN030 OVC130 14/13 A2995 RMK AO2 SLP148 BINOVC NW 60000 T01440133 58001=
200606021447 SPECI KSEA 021447Z 14004KT 10SM FEW006 SCT021 OVC030 14/13 A2995 RMK AO2=
200606021447 SPECI KSEA 021447Z 14004KT 10SM FEW006 SCT021 OVC030 14/13 A2995 RMK AO2=
200606021423 SPECI KSEA 021423Z 16005KT 10SM R16R/4500VP6000FT FEW006 BKN023 OVC035 14/13 A2996 RMK AO2=
200606021356 METAR KSEA 021356Z 13005KT 10SM FEW006 SCT023 OVC035 14/13 A2996 RMK AO2 RAE31 SLP150 P0000 T01390133=
200606021256 METAR KSEA 021256Z 14007KT 10SM -RA FEW020 BKN035 OVC060 14/13 A2996 RMK AO2 RAE07B23E32B55 SLP150 P0000 T01390133=
200606021156 METAR KSEA 021156Z 17007KT 4SM -RA BR FEW020 BKN040 OVC060 13/13 A2996 RMK AO2 SLP149 P0000 60023 70082 T01330128 10150 20133 51001=
200606021056 METAR KSEA 021056Z 17006KT 10SM -RA SCT020 BKN035 OVC060 14/13 A2995 RMK AO2 SLP149 P0001 T01390133=
200606021016 SPECI KSEA 021016Z 16005KT 10SM -RA SCT020 BKN035 OVC060 14/14 A2996 RMK AO2 P0001=
200606021016 SPECI KSEA 021016Z 16005KT 10SM -RA SCT020 BKN035 OVC060 14/14 A2996 RMK AO2 P0001=
200606020956 METAR KSEA 020956Z 18005KT 10SM RA FEW004 BKN020 OVC035 14/14 A2996 RMK AO2 SLP150 P0004 T01440139=
200606020856 METAR KSEA 020856Z 21005KT 10SM -RA SCT004 BKN020 OVC035 14/14 A2995 RMK AO2 RAE13B36 SLP149 P0002 60018 T01440139 53002=
200606020756 METAR KSEA 020756Z 00000KT 9SM -RA SCT004 BKN020 OVC035 14/14 A2995 RMK AO2 SLP146 P0005 T01440144 402060128=
200606020749 SPECI KSEA 020749Z 00000KT 10SM -RA SCT004 BKN020 OVC035 14/14 A2995 RMK AO2 P0004=
200606020749 SPECI KSEA 020749Z 00000KT 10SM -RA SCT004 BKN020 OVC035 14/14 A2995 RMK AO2 P0004=
200606020734 SPECI KSEA 020734Z COR 22003KT 10SM -RA SCT004 BKN020 OVC035 14/14 A2995 RMK AO2 P0003=
200606020734 SPECI KSEA 020734Z COR 22003KT 10SM -RA SCT004 BKN020 OVC035 14/14 A2995 RMK AO2 P0003=
200606020656 METAR KSEA 020656Z 24003KT 8SM -RA BKN004 OVC010 15/14 A2994 RMK AO2 SLP144 P0011 T01500144=
200606020648 SPECI KSEA 020648Z 23003KT 9SM -RA SCT004 BKN010 OVC021 15/14 A2994 RMK AO2 P0010=
200606020648 SPECI KSEA 020648Z 23003KT 9SM -RA SCT004 BKN010 OVC021 15/14 A2994 RMK AO2 P0010=
200606020630 SPECI KSEA 020630Z 00000KT 7SM -RA BKN006 BKN013 OVC021 15/14 A2994 RMK AO2 CIG 002V010 P0009=
200606020630 SPECI KSEA 020630Z 00000KT 7SM -RA BKN006 BKN013 OVC021 15/14 A2994 RMK AO2 CIG 002V010 P0009=
200606020607 SPECI KSEA 020607Z 00000KT 3SM +RA BR SCT007 BKN019 OVC044 15/14 A2995 RMK AO2 P0005=
200606020607 SPECI KSEA 020607Z 00000KT 3SM +RA BR SCT007 BKN019 OVC044 15/14 A2995 RMK AO2 P0005=
200606020556 METAR KSEA 020556Z 22004KT 9SM -RA SCT008 SCT019 OVC042 15/14 A2995 RMK AO2 RAB13 SLP146 P0004 60026 T01500144 10178 20150 51009=
200606020546 SPECI KSEA 020546Z 19003KT 10SM -RA FEW006 SCT019 OVC042 15/14 A2994 RMK AO2 RAB13 P0004=
200606020546 SPECI KSEA 020546Z 19003KT 10SM -RA FEW006 SCT019 OVC042 15/14 A2994 RMK AO2 RAB13 P0004=
200606020456 METAR KSEA 020456Z 18004KT 10SM SCT005 BKN015 OVC030 15/14 A2994 RMK AO2 SLP145 RAE22 P0008 T01500144 $=
200606020428 SPECI KSEA 020428Z 20003KT 10SM SCT005 BKN010 OVC032 16/15 A2994=
200606020428 SPECI KSEA 020428Z 20003KT 10SM SCT005 BKN010 OVC032 16/15 A2994 RMK AO2 RAE22 P0008 $=
200606020412 SPECI KSEA 020412Z 22004KT 4SM RA BR SCT008 BKN015 OVC038 16/15 A2993 RMK AO2 P0007=
200606020412 SPECI KSEA 020412Z 22004KT 4SM RA BR SCT008 BKN015 OVC038 16/15 A2993 RMK AO2 P0007=
200606020356 METAR KSEA 020356Z 19005KT 3SM +RA BR SCT008 BKN014 OVC038 16/15 A2993 RMK AO2 RAB30 SLP141 P0011 T01560150=
200606020334 SPECI KSEA 020334Z 00000KT 2 1/2SM RA BR FEW011 BKN027 OVC043 16/15 A2993 RMK AO2 RAB30 P0002=
200606020334 SPECI KSEA 020334Z 00000KT 2 1/2SM RA BR FEW011 BKN027 OVC043 16/15 A2993 RMK AO2 RAB30 P0002=
200606020256 METAR KSEA 020256Z 24003KT 10SM SCT006 SCT043 OVC090 16/15 A2992 RMK AO2 SLP137 60003 T01610150 55002=
200606020156 METAR KSEA 020156Z 24003KT 10SM FEW008 SCT060 BKN110 BKN200 17/15 A2992 RMK AO2 SLP135 T01670150=
200606020056 METAR KSEA 020056Z 26004KT 10SM SCT004 BKN050 BKN090 BKN200 17/15 A2993 RMK AO2 RAE30 SLP139 P0003 T01670150=
200606020032 SPECI KSEA 020032Z 26003KT 6SM BR SCT005 BKN011 OVC060 16/16 A2993 RMK AO2 RAE30 P0003=
200606020032 SPECI KSEA 020032Z 26003KT 6SM BR SCT005 BKN011 OVC060 16/16 A2993 RMK AO2 RAE30 P0003=
200606020014 SPECI KSEA 020014Z 24007KT 1 1/2SM -RA BR SCT005 BKN013 OVC021 16/15 A2993 RMK AO2 SFC VIS 3 P0002=
200606020014 SPECI KSEA 020014Z 24007KT 1 1/2SM -RA BR SCT005 BKN013 OVC021 16/15 A2993 RMK AO2 SFC VIS 3 P0002=
200606012356 METAR KSEA 012356Z 21006KT 1 1/2SM R16R/5000VP6000FT +RA BR FEW005 SCT017 OVC026 16/16 A2993 RMK AO2 SFC VIS 2 SLP141 P0021 60033 T01610156 10206 20161 50004=
200606012345 SPECI KSEA 012345Z 23008KT 6SM -RA BR FEW005 BKN025 OVC031 16/16 A2993 RMK AO2 P0014=
200606012345 SPECI KSEA 012345Z 23008KT 6SM -RA BR FEW005 BKN025 OVC031 16/16 A2993 RMK AO2 P0014=
200606012320 SPECI KSEA 012320Z 24003KT 3SM R16R/4500VP6000FT +RA BR BKN024 OVC035 16/16 A2993 RMK AO2 P0010=
200606012320 SPECI KSEA 012320Z 24003KT 3SM R16R/4500VP6000FT +RA BR BKN024 OVC035 16/16 A2993 RMK AO2 P0010=
200606012256 METAR KSEA 012256Z 27006KT 4SM RA BR SCT026 BKN031 OVC043 16/16 A2993 RMK AO2 SLP139 P0007 T01610156=
200606012156 METAR KSEA 012156Z 26004KT 6SM -RA BR FEW025 BKN035 OVC050 17/15 A2992 RMK AO2 SLP137 P0002 T01720150=
200606012056 METAR KSEA 012056Z 27005KT 10SM -RA FEW012 SCT040 BKN090 OVC130 19/16 A2992 RMK AO2 SLP137 P0001 60003 T01940156 58004=
200606012010 SPECI KSEA 012010Z 31004KT 10SM -RA SCT018 BKN090 OVC130 18/16 A2992 RMK AO2 P0001=
200606012010 SPECI KSEA 012010Z 31004KT 10SM -RA SCT018 BKN090 OVC130 18/16 A2992 RMK AO2 P0001=
200606011956 METAR KSEA 011956Z 30004KT 8SM -RA BKN021 BKN080 OVC130 18/16 A2992 RMK AO2 SLP138 P0002 T01780156=
200606011944 SPECI KSEA 011944Z 30004KT 7SM -RA BKN019 BKN075 OVC130 18/16 A2992=
200606011944 SPECI KSEA 011944Z 30004KT 7SM -RA BKN019 BKN075 OVC130 18/16 A2992 RMK AO2 P0002=
200606011856 METAR KSEA 011856Z 26003KT 10SM -RA BKN085 BKN110 OVC130 19/14 A2993 RMK AO2 RAB53 SLP140 P0000 T01890144=
200606011756 METAR KSEA 011756Z 00000KT 10SM FEW025 SCT090 BKN130 OVC150 19/13 A2993 RMK AO2 SLP141 T01940133 10200 20128 56013=
200606011656 METAR KSEA 011656Z 05004KT 10SM FEW020 SCT050 SCT090 OVC150 18/14 A2993 RMK AO2 SLP141 T01830139=
200606011556 METAR KSEA 011556Z VRB04KT 10SM FEW009 SCT050 SCT090 BKN200 18/13 A2995 RMK AO2 SLP148 T01780133=
200606011456 METAR KSEA 011456Z 15007KT 10SM FEW004 BKN045 BKN080 OVC200 16/13 A2997 RMK AO2 SLP153 T01610133 58005=
200606011356 METAR KSEA 011356Z 14005KT 10SM SCT046 BKN150 OVC200 15/13 A2998 RMK AO2 SLP156 T01500133=
200606011256 METAR KSEA 011256Z 00000KT 9SM FEW035 SCT150 BKN200 13/13 A2998 RMK AO2 SLP158 T01330128=
200606011156 METAR KSEA 011156Z 00000KT 6SM BR FEW045 SCT150 SCT200 13/13 A2998 RMK AO2 SLP159 60000 70009 T01330128 10150 20133 56014=
200606011056 METAR KSEA 011056Z 08004KT 5SM BR SCT045 SCT065 14/13 A2999 RMK AO2 SLP161 T01390133=
200606010956 METAR KSEA 010956Z 14004KT 10SM FEW045 SCT065 14/13 A3002 RMK AO2 SLP168 T01440128=
200606010856 METAR KSEA 010856Z 09007KT 10SM BKN046 OVC065 14/13 A3002 RMK AO2 SLP171 60000 T01440133 58004=
200606010756 METAR KSEA 010756Z 00000KT 10SM BKN050 OVC090 14/13 A3003 RMK AO2 RAB30E39 SLP175 P0000 T01390128 402220122=
200606010656 METAR KSEA 010656Z 26005KT 6SM BR FEW030 OVC090 14/13 A3003 RMK AO2 RAB19E39 SLP175 P0000 T01390133=
200606010556 METAR KSEA 010556Z 00000KT 10SM OVC095 15/14 A3004 RMK AO2 RAE50 SLP176 P0000 60009 T01500139 10206 20144 58007=
200606010456 METAR KSEA 010456Z 09006KT 10SM -RA OVC080 15/13 A3005 RMK AO2 SLP181 P0002 T01500133=
200606010356 METAR KSEA 010356Z 12006KT 10SM -RA BKN070 OVC090 15/13 A3005 RMK AO2 SLP183 P0004 T01500128=
200606010256 METAR KSEA 010256Z 14005KT 10SM -RA BKN044 BKN070 OVC090 14/12 A3006 RMK AO2 SLP184 P0003 60003 T01440122 53031=
200606010156 METAR KSEA 010156Z 23010KT 10SM -RA SCT065 BKN090 OVC150 17/12 A3003 RMK AO2 RAB49 SLP174 P0000 T01670117=
200606010056 METAR KSEA 010056Z 24011KT 10SM BKN095 OVC150 19/11 A2999 RMK AO2 RAE01 SLP162 P0000 T01940111=

# No short TAF reports from KSEA in databse.

###################################
#  large TAF from KSEA
###################################
200606302324 TAF KSEA 302324Z 010024 30006KT P6SM FEW250 FM0600 VRB03KT P6SM
                       SKC FM1100 21005KT P6SM SKC FM1800 28006KT
                       P6SM SKC=
200606301729 TAF KSEA 301729Z 301818 VRB04KT P6SM SKC FM1900 29007KT P6SM SKC
                       FM0000 34006KT P6SM SKC FM0600 VRB03KT P6SM
                       SKC=
200606301120 TAF KSEA 301120Z 301212 VRB03KT P6SM FEW100 FM1900 31007KT P6SM
                       SCT100 FM0000 36006KT P6SM SCT100 FM0600
                       VRB03KT P6SM SKC=
200606300533 TAF KSEA 300533Z 300606 34004KT P6SM SCT100 FM0900 VRB03KT P6SM
                       FEW100 FM1900 31007KT P6SM SCT100 FM0000
                       36006KT P6SM SCT100=
200606292320 TAF KSEA 292320Z 300024 30006KT P6SM BKN200 FM0500 02004KT P6SM
                       SKC FM1100 VRB03KT P6SM SKC FM1900 30007KT
                       P6SM SKC=
200606291725 TAF KSEA 291725Z 291818 31007KT P6SM BKN220 FM0500 02004KT P6SM
                       SKC FM1100 VRB03KT P6SM SKC=
200606291120 TAF KSEA 291120Z 291212 02007KT P6SM SKC FM1800 31006KT P6SM SKC
                       FM2200 34007KT P6SM SKC FM0600 02005KT P6SM
                       SKC=
200606290520 TAF KSEA 290520Z 290606 36006KT P6SM SKC FM0800 02004KT P6SM SKC
                       FM1800 31006KT P6SM SKC FM2200 35007KT P6SM
                       SKC=
200606282320 TAF KSEA 282320Z 290024 31007KT P6SM SKC FM0500 02006KT P6SM SKC
                       FM1300 VRB03KT P6SM SCT013 FM1700 31007KT
                       P6SM SKC=
200606281739 TAF KSEA 281739Z 281818 VRB04KT P6SM FEW015 SCT200 FM2000 31008KT
                       P6SM SKC FM0500 02006KT P6SM SKC FM1300
                       VRB03KT P6SM SCT013 FM1700 31007KT P6SM
                       SKC=
200606281438 KSEA 281438Z 281512 VRB03KT P6SM SCT010
                      TEMPO 1516 BKN010 FM1800 28008KT P6SM SKC=
200606281348 KSEA 281348Z 281412 19005KT P6SM BKN009 FM1800 28008KT P6SM SKC=
200606281120 TAF KSEA 281120Z 281212 20006KT P6SM FEW009
                      TEMPO 1216 BKN009 FM1700 28008KT P6SM SKC=
200606280520 TAF KSEA 280520Z 280606 21005KT P6SM SCT200
                      TEMPO 0607 30005KT FM1200 20006KT P6SM SCT011
                       TEMPO 1316 BKN011 FM1700 28008KT P6SM SKC=
200606272331 TAF KSEA 272331Z 280024 24009KT P6SM SCT250 FM0600 22006KT P6SM
                       SCT250 FM1200 22006KT P6SM SCT011
                      TEMPO 1316 BKN011 FM1700 30008KT P6SM SKC=
200606271720 TAF KSEA 271720Z 271818 30010KT P6SM SKC FM0600 22006KT P6SM SCT250
                       FM1200 22006KT P6SM SCT011
                      TEMPO 1316 BKN011=
200606271140 TAF KSEA 271140Z 271212 35004KT P6SM SKC FM1800 28006KT P6SM SKC
                       FM2100 23008KT P6SM SCT250 FM0600 21005KT
                       P6SM SCT250
                      TEMPO 1112 SCT018=
200606270520 TAF KSEA 270520Z 270606 01006KT P6SM SKC FM1300 VRB04KT P6SM SKC
                       FM1900 28006KT P6SM SKC FM2300 23008KT P6SM
                       SCT250=
200606262332 TAF KSEA 262332Z 270024 36008KT P6SM SKC FM1300 23004KT P6SM SKC
                       FM1800 30008KT P6SM SKC=
200606261720 TAF KSEA 261720Z 261818 34011KT P6SM SKC FM0500 36008KT P6SM SKC
                       FM1200 23006KT P6SM SKC=
200606261125 TAF KSEA 261125Z 261212 03006KT P6SM SKC FM1800 33009KT P6SM SKC
                       FM0900 23006KT P6SM SKC=
200606260524 TAF KSEA 260524Z 260606 03006KT P6SM SKC FM1800 33009KT P6SM SKC=
200606252320 TAF KSEA 252320Z 260024 36012KT P6SM SKC FM0600 03006KT P6SM SKC=
200606251720 TAF KSEA 251720Z 251818 36012KT P6SM SKC FM0600 03006KT P6SM SKC=
200606251128 TAF KSEA 251128Z 251212 04006KT P6SM SKC FM1800 35010KT P6SM SKC
                       FM0600 02005KT P6SM SKC=
200606250532 TAF KSEA 250532Z 250606 04006KT P6SM SKC FM1800 35010KT P6SM SKC=
200606242320 TAF KSEA 242320Z 250024 36012KT P6SM SKC FM0600 04006KT P6SM SKC
                       FM1800 35010KT P6SM SKC=
200606241720 TAF KSEA 241720Z 241818 35012KT P6SM SKC FM0600 02006KT P6SM SKC=
200606241130 TAF KSEA 241130Z 241212 VRB03KT P6SM SKC FM1800 35012KT P6SM SKC
                       FM0600 02006KT P6SM SKC=
200606240525 TAF KSEA 240525Z 240606 02005KT P6SM SKC FM1200 VRB03KT P6SM SKC
                       FM1800 35012KT P6SM SKC FM0400 02008KT P6SM
                       SKC=
200606232320 TAF KSEA 232320Z 240024 34010KT P6SM SKC FM0600 03007KT P6SM SKC
                       FM1200 VRB04KT P6SM SKC FM1800 35012KT P6SM
                       SKC=
200606231720 TAF KSEA 231720Z 231818 35012KT P6SM SKC FM0400 03008KT P6SM SKC=
200606231120 TAF KSEA 231120Z 231212 05006KT P6SM FEW050 FM1900 33008KT P6SM
                       SKC FM0300 03008KT P6SM SKC=
200606230520 TAF KSEA 230520Z 230606 04008KT P6SM FEW050 FM1300 VRB03KT P6SM
                       FEW020 SCT050 FM2100 30007KT P6SM SCT050=
200606222328 TAF KSEA 222328Z 230024 30007KT P6SM SCT045 FM0300 36006KT P6SM
                       SKC FM0700 VRB04KT P6SM SKC FM1600 VRB05KT
                       P6SM SCT021 FM2100 30007KT P6SM SCT045=
200606221732 TAF KSEA 221732Z 221818 VRB05KT P6SM SCT025 SCT080
                      TEMPO 1820 BKN025 FM2000 29008KT P6SM SCT030
                       SCT060 FM0000 35010KT P6SM SCT060 FM0300
                       03006KT P6SM SCT050 FM0700 VRB04KT P6SM
                       SCT050 FM1600 VRB05KT P6SM SCT021=
200606221434 KSEA 221434Z 221512 13004KT P6SM SCT050 FM2000 29008KT P6SM SCT060
                       FM0000 35008KT P6SM FEW060 FM0300 03006KT
                       P6SM SCT050=
200606221120 TAF KSEA 221120Z 221212 03004KT P6SM BKN045 FM2000 29008KT P6SM
                       SCT060 FM0000 35008KT P6SM FEW060 FM0300
                       03006KT P6SM SCT050=
200606220900 KSEA 220900Z 220906 05006KT P6SM BKN045 FM1200 VRB04KT P6SM OVC040
                       FM2000 29008KT P6SM SCT060 FM0000 35008KT
                       P6SM FEW060=
200606220534 TAF KSEA 220534Z 220606 02008KT P6SM SCT050 FM1100 VRB03KT P6SM
                       SCT040
                      TEMPO 1113 BKN040 FM1300 19006KT P6SM SCT020
                       SCT050
                      TEMPO 1317 SCT020 BKN050 FM2000 29008KT P6SM
                       SCT060 FM0000 35008KT P6SM FEW060=
200606212320 TAF KSEA 212320Z 220024 34006KT P6SM SCT045 SCT060 FM0300 35008KT
                       P6SM FEW050 FM0500 04007KT P6SM SCT050 FM1100
                       06002KT P6SM FEW020 BKN060 FM1300 19006KT
                       P6SM SCT020 OVC050 FM2000 28008KT P6SM BKN060=
200606211740 TAF KSEA 211740Z 211818 VRB05KT P6SM SCT019 OVC060
                      TEMPO 1820 BKN020 FM2000 30009KT P6SM SCT025
                       BKN050 FM2300 32011KT P6SM SCT050 FM0300
                       35008KT P6SM FEW050 FM0500 04007KT P6SM
                       SCT050 FM1200 06002KT P6SM FEW020 BKN060=
200606211123 TAF KSEA 211123Z 211212 05006KT P6SM OVC045 FM1800 31008KT P6SM
                       SCT050
                      TEMPO 1821 BKN050 FM0100 35008KT P6SM FEW050
                       FM0500 04008KT P6SM SCT050=
200606210530 TAF KSEA 210530Z 210606 04008KT P6SM FEW050 FM0800 04006KT P6SM
                       BKN040
                      TEMPO 1216 OVC025 FM1900 31007KT P6SM SCT040=
200606202320 TAF KSEA 202320Z 210024 31007KT P6SM SCT040 SCT250 FM0800 02006KT
                       P6SM BKN040
                      TEMPO 1216 OVC030 FM1900 31007KT P6SM SCT040=
200606201905 KSEA 201905Z 201918 30006KT P6SM SCT030 BKN050 FM2200 33008KT P6SM
                       SCT050 FM0800 04004KT P6SM BKN040
                      TEMPO 1216 OVC030=
200606201725 TAF KSEA 201725Z 201818 VRB04KT P6SM SCT025 BKN050
                      TEMPO 1820 BKN025 OVC040 FM0000 34006KT P6SM
                       SCT050 FM0800 04004KT P6SM BKN040
                      TEMPO 1216 OVC030=
200606201129 TAF KSEA 201129Z 201212 06007KT P6SM SCT022 OVC035
                      TEMPO 1317 BKN022 OVC035 FM1900 24006KT P6SM
                       SCT025 BKN045 FM2200 31006KT P6SM SCT050
                       FM0400 03006KT P6SM SKC=
200606200531 TAF KSEA 200531Z 200606 03003KT P6SM SCT040 BKN070 FM0800 03003KT
                       P6SM BKN040 FM1100 17004KT P6SM SCT022 OVC040
                       TEMPO 1317 BKN022 OVC040 FM1900 24006KT
                       P6SM SCT025 BKN045 FM2200 31006KT P6SM SCT050=
200606192320 TAF KSEA 192320Z 200024 VRB04KT P6SM SCT040 SCT070 FM0800 VRB04KT
                       P6SM BKN040 FM2000 31007KT P6SM SCT050=
200606192125 KSEA 192125Z 192118 VRB04KT P6SM SCT040 SCT070 FM0800 VRB04KT P6SM
                       BKN040=
200606191720 TAF KSEA 191720Z 191818 VRB04KT P6SM BKN040 BKN070
                      TEMPO 1922 SCT040 SCT070 FM2200 31007KT P6SM
                       SCT050 FM0800 VRB04KT P6SM BKN040=
200606191626 KSEA 191626Z 191612 30006KT P6SM SCT022 BKN050
                      TEMPO 1618 BKN022 OVC035 FM2100 30008KT P6SM
                       SCT050 FM0800 VRB04KT P6SM BKN040=
200606191140 TAF KSEA 191140Z 191212 04006KT P6SM SCT025 OVC045
                      TEMPO 1213 BKN025 OVC045 FM1700 VRB03KT P6SM
                       SCT050
                      TEMPO 1719 BKN050 FM2100 32008KT P6SM SCT060=
200606190523 TAF KSEA 190523Z 190606 02008KT P6SM BKN060 FM1400 VRB03KT P6SM
                       SCT060 FM2000 32008KT P6SM BKN050=
200606182320 TAF KSEA 182320Z 190024 34008KT P6SM SCT035 BKN070
                      TEMPO 0408 BKN035 OVC060 FM0800 VRB05KT P6SM
                       OVC030
                      TEMPO 1216 OVC025 FM2000 32008KT P6SM BKN040
                       BKN070=
200606182108 KSEA 182108Z 182118 32008KT P6SM SCT035 BKN070
                      TEMPO 0408 BKN035 OVC060 FM0800 VRB05KT P6SM
                       OVC030
                      TEMPO 1216 OVC025=
200606181905 KSEA 181905Z 181918 VRB04KT P6SM SCT035 BKN070
                      TEMPO 1923 BKN035 OVC060 FM2300 23010KT P6SM
                       BKN035 OVC050 FM0800 18005KT P6SM OVC030
                       TEMPO 1216 OVC025=
200606181720 TAF KSEA 181720Z 181818 VRB04KT P6SM SCT040 BKN070 FM0000 23010KT
                       P6SM BKN050 FM0800 VRB04KT P6SM BKN040
                      TEMPO 1216 OVC030=
200606181136 TAF KSEA 181136Z 181212 06004KT P6SM BKN050 FM1500 VRB03KT P6SM
                       SCT030 BKN050 FM2200 24008KT P6SM BKN050
                       FM0500 33006KT P6SM SCT050=
200606180536 TAF KSEA 180536Z 180606 36008KT P6SM BKN070 FM1000 VRB03KT P6SM
                       SCT070 FM1400 VRB03KT P6SM SCT025 BKN040
                       FM1800 22012KT P6SM SCT035 BKN050=
200606172320 TAF KSEA 172320Z 180024 VRB04KT P6SM SCT040 BKN070
                      TEMPO 0004 SCT040 SCT070 FM1000 VRB04KT P6SM
                       SCT025 BKN040
                      TEMPO 1216 BKN025 OVC040=
200606171720 TAF KSEA 171720Z 171818 22007KT P6SM SCT020 BKN050
                      TEMPO 1821 BKN020 OVC050 FM2200 VRB04KT P6SM
                       SCT030 BKN050
                      TEMPO 0004 SCT050 FM1000 VRB04KT P6SM BKN030
                       OVC050
                      TEMPO 1216 OVC020=
200606171135 TAF KSEA 171135Z 171212 19008KT P6SM SCT012 BKN018 OVC024 FM1600
                       19008KT P6SM SCT018 BKN025 OVC040 FM1900
                       19008KT P6SM SCT025 BKN040 FM2100 VRB03KT
                       P6SM BKN050 FM2300 34006KT P6SM SCT050=
200606170534 TAF KSEA 170534Z 170606 23008KT P6SM SCT060 FM1000 20008KT P6SM
                       SCT025 BKN040 FM1300 20008KT P6SM BKN025
                       OVC040 FM1800 20008KT P6SM SCT025 BKN040
                       FM2100 32006KT P6SM SCT050=
200606170417 TAF AMD KSEA 170417Z 170424 24010KT P6SM SCT060 SCT100 FM0900 20008KT
                       P6SM SCT025 BKN040
                      TEMPO 1216 OVC025 FM2000 24006KT P6SM SCT040=
200606162320 TAF KSEA 162320Z 170024 22015G22KT P6SM SCT040 FM0300 22012KT P6SM
                       BKN040 FM0900 20008KT P6SM BKN030
                      TEMPO 1216 OVC025 FM2000 24006KT P6SM SCT040=
200606162300 KSEA 170417Z 170424 24010KT P6SM SCT060 SCT100 FM0900 20008KT P6SM
                       SCT025 BKN040
                      TEMPO 1216 OVC025 FM2000 24006KT P6SM SCT040=
200606162123 KSEA 162123Z 162118 22015G22KT P6SM SCT040 FM0200 22012KT P6SM
                       BKN040 FM0900 18008KT P6SM BKN018 OVC030=
200606161720 TAF KSEA 161720Z 161818 20012KT P6SM BKN030 FM2100 23012KT P6SM
                       SCT030 BKN050
                      TEMPO 2202 SCT050 FM0900 18008KT P6SM BKN018
                       OVC030=
200606161140 TAF KSEA 161140Z 161212 18008KT P6SM SCT006 BKN012 OVC020
                      TEMPO 1215 3SM -RA BKN006 OVC012 FM1500 18008KT
                       P6SM SCT015 BKN025 OVC035
                      TEMPO 1518 5SM -RA BKN015 OVC025 FM2000 23008KT
                       P6SM SCT025 BKN045 BKN070 FM0900 18008KT
                       P6SM BKN018 OVC030=
200606160934 KSEA 160934Z 161006 21008KT P6SM SCT006 BKN011 OVC025
                      TEMPO 1013 4SM -RA BKN006 OVC011 FM1300 20008KT
                       P6SM SCT006 BKN011 OVC025
                      TEMPO 1317 -RA FM1700 23008KT P6SM VCSH SCT015
                       BKN025 OVC040 FM2100 23008KT P6SM SCT025
                       BKN045 BKN070=
200606160531 TAF KSEA 160531Z 160606 20008KT P6SM SCT060 OVC100 FM1000 20008KT
                       P6SM BKN045 OVC070 FM1200 20008KT P6SM SCT012
                       BKN018 OVC030
                      TEMPO 1317 -RA FM1700 23008KT P6SM VCSH SCT015
                       BKN025 OVC040 FM2100 23008KT P6SM SCT025
                       BKN045 BKN070=
200606152320 TAF KSEA 152320Z 160024 22010KT P6SM SCT035 BKN060 BKN090 FM0300
                       18007KT P6SM BKN040 OVC060 FM1000 17008KT
                       P6SM BKN025 OVC050
                      TEMPO 1012 -RA FM1200 20009KT 6SM -RA BKN018
                       OVC025 FM2200 22010KT P6SM VCSH SCT015 BKN028
                       OVC035=
200606152245 KSEA 152245Z 152318 22010KT P6SM SCT035 BKN060 BKN090 FM0300 18007KT
                       P6SM BKN040 OVC060 FM1000 17008KT P6SM BKN025
                       OVC050
                      TEMPO 1012 -RA FM1200 20009KT 6SM -RA BKN018
                       OVC025=
200606152154 KSEA 152154Z 152218 22010KT P6SM SCT025 BKN040 OVC060 FM0300 18007KT
                       P6SM BKN040 OVC060 FM1000 17008KT P6SM BKN025
                       OVC050
                      TEMPO 1012 -RA FM1200 20009KT 6SM -RA BKN018
                       OVC025=
200606151725 TAF KSEA 151725Z 151818 21009KT P6SM SCT011 BKN022 OVC035
                      TEMPO 1819 FEW008 BKN015 OVC025 FM1900 22007KT
                       P6SM SCT016 BKN023 OVC035 FM2100 22008KT
                       P6SM SCT025 BKN060 OVC090 FM0300 18007KT
                       P6SM BKN040 OVC060 FM1000 17008KT P6SM BKN025
                       OVC050
                      TEMPO 1012 -RA FM1200 20009KT 6SM -RA BKN018
                       OVC025=
200606151613 KSEA 151613Z 151612 21006KT P6SM SCT011 BKN022 OVC035
                      TEMPO 1619 FEW008 BKN011 OVC015 FM1900 22007KT
                       P6SM SCT016 BKN023 OVC035 FM2100 22008KT
                       P6SM SCT025 BKN045 OVC070 FM0300 18007KT
                       P6SM BKN040 OVC060 FM1000 17008KT P6SM BKN027
                       OVC050
                      TEMPO 1012 -RA=
200606151410 KSEA 151410Z 151412 21006KT P6SM SCT008 BKN018 OVC035
                      TEMPO 1417 -RA BKN008 OVC015 FM1700 22007KT
                       P6SM SCT016 BKN023 OVC035 FM2100 22008KT
                       P6SM SCT025 BKN045 OVC070 FM0300 18007KT
                       P6SM BKN040 OVC060 FM1000 17008KT P6SM BKN027
                       OVC050
                      TEMPO 1012 -RA=
200606151134 TAF KSEA 151134Z 151212 21006KT P6SM SCT008 BKN014 BKN090
                      TEMPO 1214 -RA BKN021 OVC040 FM1400 21006KT
                       P6SM BKN020 OVC045
                      TEMPO 1416 -RA FM1600 22007KT P6SM SCT016
                       BKN023 OVC035 FM2100 22008KT P6SM SCT025
                       BKN045 OVC070 FM0300 18007KT P6SM BKN040
                       OVC060 FM1000 17008KT P6SM BKN027 OVC050
                       TEMPO 1012 -RA=
200606150603 KSEA 150603Z 150606 22008KT P6SM BKN025 OVC070 FM0900 18006KT P6SM
                       BKN022 OVC050
                      TEMPO 0913 5SM -RA BR BKN018 OVC040 FM1300
                       18006KT P6SM BKN025 OVC045
                      TEMPO 1316 -RA FM1600 22007KT P6SM SCT020
                       BKN028 OVC035 FM2100 22008KT P6SM SCT025
                       BKN045 OVC070=
200606150524 TAF KSEA 150524Z 150606 22008KT P6SM SCT025 OVC070 FM0900 18006KT
                       P6SM SCT022 OVC050
                      TEMPO 0913 5SM -RA BR BKN022 OVC040 FM1300
                       18006KT P6SM BKN025 OVC045
                      TEMPO 1316 -RA FM1600 22007KT P6SM SCT020
                       BKN028 OVC035 FM2100 22008KT P6SM SCT025
                       BKN045 OVC070=
200606142321 TAF KSEA 142321Z 150024 20012KT P6SM SCT030 BKN045 BKN060 FM0600
                       19009KT P6SM VCSH SCT020 OVC045 FM1000 18006KT
                       P6SM SCT015 BKN022 OVC035
                      TEMPO 1216 3SM -RA BR BKN015 FM1600 22007KT
                       P6SM VCSH SCT020 BKN028 OVC035 FM2100 22008KT
                       P6SM SCT025 BKN045 OVC070=
200606141721 TAF KSEA 141721Z 141818 24008KT P6SM SCT022 BKN035 BKN050
                      TEMPO 1820 3SM -RA BR BKN022 OVC050 FM2000
                       21008KT P6SM SCT029 BKN050 FM2300 22008KT
                       P6SM BKN050 BKN100 FM0400 19009KT P6SM BKN045
                       OVC080
                      PROB30 0408 -RA FM0800 18006KT P6SM BKN028
                       OVC050
                      TEMPO 0812 -RA=
200606141713 KSEA 141713Z 141712 24008KT P6SM SCT022 BKN035 BKN050
                      TEMPO 1720 3SM -RA BR BKN022 OVC050 FM2000
                       21008KT P6SM SCT029 BKN050 FM2300 22008KT
                       P6SM BKN050 BKN100 FM0400 19009KT P6SM BKN045
                       OVC080
                      PROB30 0408 -RA FM0800 18006KT P6SM BKN028
                       OVC050
                      TEMPO 0812 -RA=
200606141524 KSEA 141524Z 141512 24008KT P6SM SCT022 BKN035 BKN050 FM1900 21008KT
                       P6SM SCT029 BKN050 FM2300 22008KT P6SM BKN050
                       BKN100 FM0400 19009KT P6SM BKN045 OVC080
                       PROB30 0408 -RA FM0800 18006KT P6SM BKN028
                       OVC050
                      TEMPO 0812 -RA=
200606141131 TAF KSEA 141131Z 141212 22006KT P6SM SCT021 BKN060
                      TEMPO 1215 BKN020 OVC060 FM1500 20005KT P6SM
                       BKN022 BKN050 FM1900 21008KT P6SM SCT029
                       BKN050 FM2300 22008KT P6SM BKN050 BKN100
                       FM0400 19009KT P6SM BKN045 OVC080
                      PROB30 0408 -RA FM0800 18006KT P6SM BKN028
                       OVC050
                      TEMPO 0812 -RA=
200606140540 TAF KSEA 140540Z 140606 23008KT P6SM SCT060 SCT120 BKN200 FM0900
                       20005KT P6SM SCT025 BKN060
                      TEMPO 1014 BKN022 OVC060 FM1400 18005KT P6SM
                       BKN020 BKN050 FM1900 21008KT P6SM SCT029
                       BKN050 FM2300 22008KT P6SM BKN050 BKN100
                       FM0500 18009KT P6SM BKN045 OVC080=
200606132320 TAF KSEA 132320Z 140024 18006KT P6SM VCSH SCT025 BKN045 FM0900
                       20004KT P6SM BKN025 BKN060 FM1100 VRB03KT
                       P6SM OVC020
                      TEMPO 1216 5SM -DZ BR BKN012 FM1800 19005KT
                       P6SM BKN025 BKN035 FM2100 20006KT P6SM BKN040=
200606131720 TAF KSEA 131720Z 131818 21006KT P6SM VCSH SCT025 BKN035 BKN070
                       TEMPO 1819 BKN025 FM2000 22007KT P6SM -SHRA
                       BKN040 BKN060 FM2300 23008KT P6SM -SHRA
                       BKN045 BKN080 FM1000 20006KT P6SM VCSH BKN025
                       BKN060=
200606131127 TAF KSEA 131127Z 131212 22007KT P6SM BKN025 OVC060
                      TEMPO 1216 -SHRA FM1700 21006KT P6SM VCSH
                       BKN028 BKN060 FM2000 22007KT P6SM -SHRA
                       BKN035 BKN060 FM2300 23007KT P6SM -SHRA
                       BKN045 BKN080 FM0300 20006KT P6SM BKN040
                       BKN070
                      PROB30 0308 -SHRA FM1000 20006KT P6SM VCSH
                       BKN023 BKN060=
200606130546 TAF KSEA 130546Z 130606 21008KT P6SM SCT007 BKN050 OVC090
                      TEMPO 0610 SCT007 BKN015 OVC030 FM1000 19004KT
                       P6SM VCSH BKN020 OVC040
                      TEMPO 1014 BKN012 FM1700 21006KT P6SM BKN030
                       BKN060 FM2100 22007KT P6SM VCSH BKN040 BKN060=
200606130404 TAF AMD KSEA 130404Z 130424 23007KT 6SM -RA BKN017 BKN030 OVC090
                       FM0600 20007KT P6SM -SHRA SCT015 BKN030
                       OVC060
                      TEMPO 0609 BKN015 OVC030 FM0900 19004KT P6SM
                       VCSH OVC019
                      TEMPO 1216 BKN012 FM1900 21006KT P6SM BKN030
                       BKN060 FM2100 22007KT P6SM VCSH SCT040 BKN060=
200606122320 TAF KSEA 122320Z 130024 18009KT P6SM -SHRA VCTS SCT035 BKN070CB
                       TEMPO 0004 VRB15KT -TSRA SCT030 BKN040CB
                       FM0600 19007KT P6SM -SHRA BKN040 OVC060
                       FM0900 19004KT P6SM VCSH OVC020
                      TEMPO 1216 BKN012 FM1900 21006KT P6SM BKN030
                       BKN060 FM2100 22007KT P6SM VCSH SCT040 BKN060=
200606122300 KSEA 130404Z 130424 23007KT 6SM -RA BKN017 BKN030 OVC090 FM0600
                       20007KT P6SM -SHRA SCT015 BKN030 OVC060
                       TEMPO 0609 BKN015 OVC030 FM0900 19004KT
                       P6SM VCSH OVC019
                      TEMPO 1216 BKN012 FM1900 21006KT P6SM BKN030
                       BKN060 FM2100 22007KT P6SM VCSH SCT040 BKN060=
200606121720 TAF KSEA 121720Z 121818 VRB03KT P6SM -SHRA FEW025 BKN035 BKN070
                       TEMPO 1819 5SM -SHRA BR BKN025 FM2200 20006KT
                       P6SM -SHRA VCTS BKN035 BKN070CB FM0000 18010KT
                       P6SM -SHRA BKN035 BKN060
                      TEMPO 0004 VRB15KT -TSRA SCT030 BKN040CB
                       FM0600 19007KT P6SM -SHRA BKN040 OVC060
                       FM0900 19004KT P6SM VCSH OVC020=
200606121529 KSEA 121529Z 121512 30005KT P6SM -SHRA SCT045 BKN070 FM2200 20006KT
                       P6SM VCTS SCT045 BKN070CB FM0000 17006KT
                       P6SM -SHRA BKN040 BKN070CB OVC120
                      PROB30 0004 VRB20KT -TSRA SCT030 OVC040CB
                       FM0400 19009KT P6SM -SHRA BKN040 OVC060
                       FM0900 19009KT P6SM OVC020
                      PROB30 0912 -SHRA=
200606121131 TAF KSEA 121131Z 121212 03007KT P6SM SCT120 BKN200 FM1800 VRB03KT
                       P6SM FEW070 BKN120 BKN200 FM0000 17006KT
                       P6SM BKN070CB OVC120
                      PROB30 0004 19025KT 3SM +TSRAGS OVC040CB
                       FM0400 19009KT P6SM -SHRA OVC050 FM0900
                       19009KT P6SM OVC020
                      PROB30 0912 -SHRA=
200606120542 TAF KSEA 120542Z 120606 03008KT P6SM SCT120 BKN200 FM1200 06008KT
                       P6SM SCT120 BKN200 FM1800 10006KT P6SM FEW070
                       BKN120 BKN200 FM0000 16006KT P6SM BKN070CB
                       OVC120
                      PROB30 0006 -SHRA=
200606120219 KSEA 120219Z 120224 36012KT P6SM FEW070CB SCT120 BKN200 FM0400
                       03009KT P6SM FEW070 SCT120 BKN200 FM0600
                       VRB03KT P6SM SCT060 BKN100 FM1600 VRB03KT
                       P6SM SCT060 BKN100 FM2200 28005KT P6SM -SHRA
                       BKN060 OVC100=
200606120112 TAF AMD KSEA 120112Z 120124 35016KT P6SM SCT035 SCT120 BKN200 FM0600
                       VRB03KT P6SM SCT060 BKN100 FM1600 VRB03KT
                       P6SM SCT060 BKN100 FM2200 28005KT P6SM -SHRA
                       BKN060 OVC100=
200606112320 TAF KSEA 112320Z 120024 36010KT P6SM VCTS SCT060CB SCT120 FM0100
                       03010KT P6SM VCTS BKN060CB FM0600 VRB03KT
                       P6SM VCSH SCT060 BKN100 FM1600 VRB03KT P6SM
                       SCT060 BKN100 FM2200 28005KT P6SM -SHRA
                       BKN060 OVC100=
200606112300 KSEA 120219Z 120224 36012KT P6SM FEW070CB SCT120 BKN200 FM0400
                       03009KT P6SM FEW070 SCT120 BKN200 FM0600
                       VRB03KT P6SM SCT060 BKN100 FM1600 VRB03KT
                       P6SM SCT060 BKN100 FM2200 28005KT P6SM -SHRA
                       BKN060 OVC100=
200606111720 TAF KSEA 111720Z 111818 30005KT 6SM BR SCT006 BKN020
                      TEMPO 1819 3SM BR BKN006 FM1900 35006KT P6SM
                       SCT020 SCT070 SCT120 FM2200 35006KT P6SM
                       VCSH SCT070 SCT120 FM0400 05004KT P6SM SCT070
                       SCT120 FM1200 VRB03KT P6SM BKN060 BKN120
                       FM1600 22005KT P6SM SCT020 BKN050 OVC100=
200606111616 KSEA 111616Z 111612 30005KT 3SM BR OVC004 FM1700 31006KT 6SM BR
                       SCT006 BKN012
                      TEMPO 1718 3SM BR BKN006 FM1900 35008KT P6SM
                       SCT070 BKN200 FM0400 VRB03KT P6SM SCT070
                       BKN200=
200606111343 KSEA 111343Z 111412 01005KT P6SM OVC004
                      TEMPO 1416 3SM BR FM1700 VRB03KT P6SM SCT200
                       FM2000 35008KT P6SM SCT070 BKN200
                      PROB30 2302 -SHRA BKN070 BKN200 FM0400 VRB03KT
                       P6SM SCT070 BKN200=
200606111159 KSEA 111159Z 111212 01005KT P6SM VCFG SCT004
                      TEMPO 1214 BKN004 FM1400 01005KT P6SM VCFG
                       BKN004 FM1700 VRB03KT P6SM SCT200 FM2000
                       35008KT P6SM SCT070 BKN200
                      PROB30 2202 -SHRA BKN070 BKN200 FM0400 VRB03KT
                       P6SM SCT070 BKN200=
200606111121 TAF KSEA 111121Z 111212 03005KT P6SM VCFG FEW004
                      TEMPO 1316 BKN004 FM1700 VRB03KT P6SM SCT200
                       FM2000 35008KT P6SM SCT070 BKN200
                      PROB30 2202 -SHRA BKN070 BKN200 FM0400 VRB03KT
                       P6SM SCT070 BKN200=
200606110539 TAF KSEA 110539Z 110606 03004KT P6SM SCT200 FM2000 35008KT P6SM
                       SCT070 BKN200 FM0400 VRB03KT P6SM SCT070
                       BKN200=
200606102359 KSEA 102359Z 110024 32005KT P6SM SCT030 SCT050 BKN200 FM0600 VRB03KT
                       P6SM SCT040 BKN060 FM1100 VRB03KT P6SM BKN030
                       FM1700 28005KT P6SM SCT030 SCT050=
200606102320 TAF KSEA 102320Z 110024 30006KT P6SM SCT030 BKN040 BKN100
                      TEMPO 0002 BKN030 FM0600 VRB03KT P6SM SCT040
                       BKN060 FM1100 VRB03KT P6SM BKN030 FM1700
                       28005KT P6SM SCT030 SCT050=
200606101937 KSEA 101937Z 102018 30006KT P6SM SCT025 OVC040
                      TEMPO 2023 -SHRA BKN025 FM2300 33006KT P6SM
                       SCT030 BKN060 BKN100 FM0600 VRB03KT P6SM
                       SCT060 SCT120=
200606101720 TAF KSEA 101720Z 101818 VRB03KT P6SM SCT015 BKN030 OVC050
                      TEMPO 1820 -SHRA SCT015 BKN025 FM2000 29005KT
                       P6SM SCT035 BKN060 BKN120 FM2200 33006KT
                       P6SM SCT060 SCT120 FM0600 VRB03KT P6SM SCT060
                       SCT120=
200606101307 KSEA 101307Z 101312 VRB03KT P6SM SCT018 OVC035
                      TEMPO 1316 BKN018 OVC035 FM1800 VRB03KT P6SM
                       BKN025 OVC050 FM2000 VRB03KT P6SM BKN060
                       BKN140 FM0000 33006KT P6SM SCT060 BKN140
                       FM0600 VRB03KT P6SM SCT060 SCT140=
200606101120 TAF KSEA 101120Z 101212 VRB03KT P6SM BKN005 BKN028 OVC040 FM1400
                       VRB03KT P6SM SCT005 BKN015 OVC040
                      TEMPO 1416 BKN005 OVC015 FM1800 VRB03KT P6SM
                       BKN025 OVC050 FM2000 VRB03KT P6SM BKN060
                       BKN140 FM0000 33006KT P6SM SCT060 BKN140
                       FM0600 VRB03KT P6SM SCT060 SCT140=
200606101027 KSEA 101027Z 101006 VRB03KT P6SM SCT005 BKN025 OVC060
                      TEMPO 1013 BKN005 OVC025 FM1300 VRB03KT P6SM
                       OVC015 FM1800 VRB03KT P6SM OVC025 FM2000
                       31006KT P6SM BKN060 BKN200 FM0000 35006KT
                       P6SM SCT060 BKN200=
200606100850 KSEA 100850Z 100906 VRB03KT P6SM SCT007 BKN025 OVC060
                      TEMPO 0912 BKN007 OVC025 FM1200 VRB03KT P6SM
                       OVC015 FM1800 VRB03KT P6SM OVC025 FM2000
                       31006KT P6SM BKN060 BKN200 FM0000 35006KT
                       P6SM SCT060 BKN200=
200606100524 TAF KSEA 100524Z 100606 VRB03KT P6SM SCT025 BKN050 FM1000 VRB03KT
                       P6SM OVC025 FM1200 VRB03KT P6SM OVC015 FM1800
                       VRB03KT P6SM OVC025 FM2000 31006KT P6SM
                       BKN060 BKN200 FM0000 35006KT P6SM SCT060
                       BKN200=
200606100320 TAF AMD KSEA 100320Z 100324 VRB03KT P6SM FEW025 BKN050 BKN120 FM1000
                       VRB03KT P6SM BKN025 FM1200 VRB03KT P6SM
                       BKN015 OVC025 FM1800 25004KT P6SM SCT020
                       BKN035 FM2000 31007KT P6SM SCT035 BKN050=
200606100132 TAF AMD KSEA 100132Z 100224 VRB03KT P6SM SCT024 BKN035 BKN200 FM1000
                       VRB03KT P6SM BKN025 FM1200 VRB03KT P6SM
                       BKN015 OVC025 FM1800 25004KT P6SM SCT020
                       BKN035 FM2000 31007KT P6SM SCT035 BKN050=
200606092320 TAF KSEA 092320Z 100024 27008KT P6SM SCT025 BKN045 BKN060 FM0600
                       VRB03KT P6SM SCT025 BKN050 FM1000 VRB03KT
                       P6SM BKN025 FM1200 VRB03KT P6SM BKN015 OVC025
                       FM1800 25004KT P6SM SCT020 BKN035 FM2000
                       31007KT P6SM SCT035 BKN050=
200606092300 KSEA 100320Z 100324 VRB03KT P6SM FEW025 BKN050 BKN120 FM1000 VRB03KT
                       P6SM BKN025 FM1200 VRB03KT P6SM BKN015 OVC025
                       FM1800 25004KT P6SM SCT020 BKN035 FM2000
                       31007KT P6SM SCT035 BKN050=
200606091720 TAF KSEA 091720Z 091818 19007KT P6SM SCT015 BKN025 OVC060
                      TEMPO 1822 OVC015 FM2200 25008KT P6SM SCT025
                       BKN035 BKN130
                      TEMPO 2224 BKN025 FM0600 34006KT P6SM SCT060
                       BKN140 FM1100 VRB03KT P6SM BKN025 FM1700
                       20004KT P6SM SCT030 BKN045=
200606091120 TAF KSEA 091120Z 091212 20006KT P6SM -RA SCT004 BKN012 OVC028
                      TEMPO 1216 3SM -RA BR SCT004 OVC007 FM1800
                       VRB03KT P6SM SCT020 BKN040 OVC060
                      TEMPO 1821 -SHRA BKN020 OVC040 FM2100 23008KT
                       P6SM SCT040 BKN060 BKN130
                      PROB30 2124 -SHRA FM0600 VRB03KT P6SM SCT060
                       BKN140=
200606090959 KSEA 090959Z 091006 20006KT 6SM -RA BR SCT004 BKN012 OVC030
                      TEMPO 1013 2SM RA BR SCT004 OVC007 FM1800
                       VRB03KT P6SM SCT020 BKN040 OVC060 FM2200
                       VRB03KT P6SM SCT040 BKN060 BKN130=
200606090605 KSEA 090605Z 090606 20006KT P6SM -RA SCT007 BKN015 OVC040
                      TEMPO 0610 3SM RA BR BKN007 OVC015 FM1800
                       VRB03KT P6SM SCT020 BKN040 OVC060
                      PROB30 1822 -SHRA FM2200 VRB03KT P6SM SCT040
                       BKN060 BKN130=
200606090527 TAF KSEA 090527Z 090606 20006KT P6SM SCT020 OVC040
                      TEMPO 0608 -RA BKN020 OVC040 FM0800 VRB03KT
                       P6SM -RA BKN015 OVC040
                      TEMPO 0812 4SM -RA BR BKN008 OVC015 FM1800
                       VRB03KT P6SM SCT020 BKN040 OVC060
                      PROB30 1822 -SHRA FM2200 VRB03KT P6SM SCT040
                       BKN060 BKN130=
200606090331 KSEA 090331Z 090424 20008KT P6SM VCSH SCT040 OVC060
                      TEMPO 0405 BKN040 OVC060 FM0500 20006KT P6SM
                       -RA SCT020 OVC040
                      TEMPO 0507 4SM -RA BR BKN020 OVC040 FM0700
                       20006KT 6SM -RA BR SCT010 OVC020
                      TEMPO 0711 3SM RA BR BKN010 OVC020 FM1200
                       19005KT P6SM SCT015 BKN023 OVC035=
200606090132 TAF AMD KSEA 090132Z 090224 20008KT P6SM FEW045 OVC060 FM0400 19007KT
                       P6SM VCSH OVC045 FM1200 19005KT P6SM SCT015
                       BKN023 OVC035=
200606082321 TAF KSEA 082321Z 090024 23008KT P6SM SCT045 BKN060 BKN080 FM0800
                       19007KT P6SM OVC040 FM1200 19005KT P6SM
                       SCT015 BKN023 OVC035=
200606082300 KSEA 090331Z 090424 20008KT P6SM VCSH SCT040 OVC060
                      TEMPO 0405 BKN040 OVC060 FM0500 20006KT P6SM
                       -RA SCT020 OVC040
                      TEMPO 0507 4SM -RA BR BKN020 OVC040 FM0700
                       20006KT 6SM -RA BR SCT010 OVC020
                      TEMPO 0711 3SM RA BR BKN010 OVC020 FM1200
                       19005KT P6SM SCT015 BKN023 OVC035=
200606082221 KSEA 082221Z 082218 19008KT P6SM SCT025 BKN045 OVC070 FM0400 23008KT
                       P6SM BKN060 BKN130 FM0800 19007KT P6SM OVC040
                       FM1200 19005KT P6SM SCT015 BKN023 OVC035=
200606082005 KSEA 082005Z 082018 19008KT P6SM SCT025 BKN045 OVC070 FM2200 23008KT
                       P6SM BKN060 BKN130 FM0800 19007KT P6SM OVC040
                       FM1200 19005KT P6SM SCT015 BKN023 OVC035=
200606081851 KSEA 081851Z 081918 19008KT P6SM SCT025 BKN045 OVC070
                      TEMPO 1921 P6SM BKN025 OVC045 FM0300 23008KT
                       P6SM BKN060 BKN130 FM0800 19007KT P6SM OVC040
                       FM1200 19005KT P6SM SCT015 BKN023 OVC035=
200606081726 TAF KSEA 081726Z 081818 19008KT P6SM SCT015 BKN025 OVC040
                      TEMPO 1819 6SM -DZ BR BKN015 OVC025 FM2300
                       23008KT P6SM SCT025 BKN045 OVC060 FM0300
                       23008KT P6SM BKN060 BKN130 FM0800 19007KT
                       P6SM OVC040 FM1200 19005KT P6SM SCT015 BKN023
                       OVC035=
200606081529 KSEA 081529Z 081512 19008KT P6SM SCT015 BKN025 OVC040
                      TEMPO 1619 5SM -DZ BR BKN015 OVC025 FM2100
                       23008KT P6SM BKN060 FM0000 23008KT P6SM
                       SCT060 BKN130 FM0800 19007KT P6SM OVC040=
200606081301 KSEA 081301Z 081312 19008KT P6SM SCT024 BKN035 OVC060
                      TEMPO 1317 BKN024 OVC035 FM2000 23008KT P6SM
                       BKN060 FM0000 23008KT P6SM SCT060 BKN130
                       FM0800 19007KT P6SM OVC040=
200606081121 TAF KSEA 081121Z 081212 19008KT P6SM SCT020 SCT040 OVC060
                      TEMPO 1214 SCT020 BKN040 OVC060 FM1400 19008KT
                       P6SM OVC020 FM1800 19008KT P6SM OVC030 FM2000
                       23008KT P6SM BKN060 FM0000 23008KT P6SM
                       SCT060 BKN130 FM0800 19007KT P6SM OVC040=
200606081001 KSEA 081001Z 081006 19008KT P6SM SCT040 BKN060
                      TEMPO 1012 BKN040 OVC060 FM1200 20006KT P6SM
                       OVC020 FM1800 20008KT P6SM OVC030 FM2000
                       23008KT P6SM BKN050
                      PROB30 2024 -SHRA FM0000 23008KT P6SM SCT050
                       PROB30 0004 -SHRA BKN050=
200606080521 TAF KSEA 080521Z 080606 22008KT P6SM SCT050
                      TEMPO 0609 BKN050 FM0900 20006KT P6SM BKN040
                       FM1200 20006KT P6SM OVC020 FM1800 20008KT
                       P6SM OVC030 FM2000 23008KT P6SM BKN050
                      PROB30 2024 -SHRA FM0000 23008KT P6SM SCT050
                       PROB30 0004 -SHRA BKN050=
200606072323 TAF KSEA 072323Z 080024 22008KT P6SM SCT035 BKN050 BKN200 FM0800
                       21004KT P6SM BKN018 OVC035 FM1700 21010KT
                       P6SM BKN023 OVC040 FM2200 23007KT P6SM SCT025
                       BKN040 OVC070=
200606072023 KSEA 072023Z 072018 22006KT P6SM SCT035 BKN050 BKN200 FM0800 21004KT
                       P6SM BKN018 OVC035 FM1700 21010KT P6SM BKN023
                       OVC040=
200606071721 TAF KSEA 071721Z 071818 22006KT P6SM SCT025 BKN040 BKN200 FM0800
                       21004KT P6SM BKN018 OVC035 FM1700 21010KT
                       P6SM BKN023 OVC040=
200606071133 TAF KSEA 071133Z 071212 VRB03KT P6SM SCT008 BKN050
                      TEMPO 1316 BKN008 FM1700 24006KT P6SM SCT025
                       BKN200 FM2000 27006KT P6SM SCT040 OVC200
                       FM0800 21004KT P6SM BKN018 OVC035=
200606070539 TAF KSEA 070539Z 070606 01004KT P6SM SCT250 FM1100 04004KT P6SM
                       SCT009 BKN250
                      TEMPO 1316 BKN009 FM1700 24006KT P6SM SCT035
                       OVC200=
200606062320 TAF KSEA 062320Z 070024 24004KT P6SM FEW045 FM0500 24004KT P6SM
                       SKC FM1100 25005KT P6SM OVC025 FM1700 25005KT
                       P6SM SCT030 SCT050 FM1900 27006KT P6SM SCT060
                       SCT100=
200606061720 TAF KSEA 061720Z 061818 05004KT P6SM FEW060 FM1900 27006KT P6SM
                       SKC FM2100 31007KT P6SM SKC FM0000 33008KT
                       P6SM SKC FM1100 25005KT P6SM OVC030 FM1700
                       25005KT P6SM SCT030 SCT050=
200606061134 TAF KSEA 061134Z 061212 VRB04KT P6SM SCT015 SCT050 FM1800 30005KT
                       P6SM SCT030 SCT050 FM0000 32010KT P6SM BKN050
                       FM0800 34007KT P6SM OVC030=
200606060520 TAF KSEA 060520Z 060606 36006KT P6SM FEW050 FM1200 VRB04KT P6SM
                       SCT010 SCT050 FM1800 30005KT P6SM SCT030
                       SCT050 FM0000 32010KT P6SM BKN050=
200606052320 TAF KSEA 052320Z 060024 31008KT P6SM SCT060 BKN200 FM0200 36005KT
                       P6SM SCT200 FM0600 02004KT P6SM SKC FM1800
                       27006KT P6SM SKC FM2000 31007KT P6SM SKC=
200606051720 TAF KSEA 051720Z 051818 23005KT P6SM FEW020 SCT040 BKN070
                      TEMPO 1819 BKN040 FM2000 29006KT P6SM SCT050
                       BKN070 FM0200 33005KT P6SM SCT070 FM0600
                       02004KT P6SM SKC=
200606051405 KSEA 051405Z 051412 21005KT P6SM SCT015 BKN070
                      TEMPO 1416 BKN015 FM1600 21005KT P6SM BKN025
                       BKN070 FM1700 23005KT P6SM SCT030 BKN070
                       FM2000 29006KT P6SM SCT035 BKN070 FM0200
                       33005KT P6SM SCT070 FM0600 02004KT P6SM
                       SKC=
200606051301 KSEA 051301Z 051312 21005KT P6SM SCT025 BKN070 FM2000 29006KT P6SM
                       SCT035 BKN070 FM0200 33005KT P6SM SCT070
                       FM0600 02004KT P6SM SKC=
200606051139 TAF KSEA 051139Z 051212 21003KT P6SM SCT012 BKN022 OVC050
                      TEMPO 1316 BKN012 OVC022 FM2000 29006KT P6SM
                       SCT035 BKN070 FM0200 33005KT P6SM SCT070
                       FM0600 02004KT P6SM SKC=
200606050536 TAF KSEA 050536Z 050606 23010KT P6SM SCT022 BKN045 BKN080 FM1000
                       19004KT P6SM SCT012 BKN022 OVC040
                      TEMPO 1215 BKN012 OVC025 FM2000 29006KT P6SM
                       SCT035 BKN070 FM0200 33005KT P6SM SCT070=
200606042322 TAF KSEA 042322Z 050024 25011KT P6SM SCT025 BKN045 BKN080 FM0400
                       19004KT P6SM SCT035 OVC050 FM1000 19004KT
                       P6SM BKN025 OVC040 FM2000 29006KT P6SM SCT035
                       BKN050=
200606041837 KSEA 041837Z 041918 23014KT P6SM SCT018 BKN045 BKN060
                      TEMPO 1922 4SM -SHRA BKN018 OVC045 FM2200
                       23013G20KT P6SM VCSH SCT025 BKN045 FM0400
                       19004KT P6SM VCSH SCT035 OVC060 FM0800 19004KT
                       P6SM VCSH BKN015 OVC025=
200606041720 TAF KSEA 041720Z 041818 21008KT P6SM SCT004 BKN018 OVC025
                      TEMPO 1821 3SM SHRA BKN004 OVC018 FM2100
                       23013G20KT P6SM VCSH BKN025 OVC035 FM2300
                       23013G20KT P6SM VCSH SCT025 BKN035 OVC050
                       FM0400 19004KT P6SM VCSH SCT035 OVC060 FM0800
                       19004KT P6SM VCSH BKN015 OVC025=
200606041604 KSEA 041604Z 041612 22006KT 1SM BR OVC002 FM1730 20009KT P6SM BKN020
                       OVC035 FM2000 23013G20KT P6SM VCSH BKN025
                       OVC035 FM2300 23013G20KT P6SM VCSH SCT025
                       BKN035 OVC050 FM0400 19004KT P6SM VCSH SCT035
                       OVC060 FM0800 19004KT P6SM VCSH BKN015 OVC025=
200606041135 TAF KSEA 041135Z 041212 03008KT 5SM -RA BR SCT002 BKN025 OVC050
                       TEMPO 1216 1SM RA BR BKN002 OVC015 FM1600
                       21010KT P6SM -SHRA SCT013 BKN023 OVC040
                       TEMPO 1620 BKN013 OVC023 FM2000 23013G20KT
                       P6SM VCSH BKN035 OVC060 FM0400 19004KT P6SM
                       VCSH SCT035 OVC060=
200606040533 TAF KSEA 040533Z 040606 36005KT P6SM SCT060 OVC100 FM0900 04005KT
                       P6SM -RA BKN025 OVC050 FM1200 17005KT 4SM
                       -RA BR SCT008 OVC015
                      TEMPO 1216 1SM +RA BKN008 OVC015 FM1600 21013G20KT
                       P6SM -SHRA BKN015 OVC025 FM2200 22013G20KT
                       P6SM VCSH SCT022 OVC050=
200606032320 TAF KSEA 032320Z 040024 32006KT P6SM FEW040 BKN200 FM0400 04005KT
                       P6SM SCT040 OVC090 FM0900 04005KT P6SM -RA
                       BKN025 OVC050 FM1200 17005KT 4SM -RA BR
                       SCT008 OVC015
                      TEMPO 1216 1SM +RA BKN008 OVC015 FM1600 22014G20KT
                       P6SM -SHRA BKN015 OVC025 FM2200 22012G22KT
                       P6SM -SHRA SCT015 BKN025 OVC050=
200606031725 TAF KSEA 031725Z 031818 VRB04KT P6SM SCT035 BKN250 FM2200 34004KT
                       P6SM SCT040 BKN200 FM0400 04003KT P6SM SCT040
                       OVC090 FM0800 14006KT P6SM -RA BKN025 OVC050
                       FM1100 17005KT P6SM -RA BKN015 OVC025
                      TEMPO 1216 4SM -RA BR SCT008 OVC015 FM1600
                       22014KT P6SM -SHRA BKN015 OVC025=
200606031430 KSEA 031430Z 031512 15006KT P6SM SCT045 BKN070 BKN250 FM1700 24006KT
                       P6SM SCT040 BKN200 FM2200 34004KT P6SM SCT040
                       BKN200 FM0400 04003KT P6SM SCT040 OVC090
                       FM1000 14006KT P6SM -SHRA BKN025 OVC050=
200606031134 TAF KSEA 031134Z 031212 16005KT P6SM SCT013 OVC070
                      TEMPO 1316 BKN013 OVC070 FM1700 24006KT P6SM
                       SCT030 BKN200 FM2200 34004KT P6SM SCT040
                       BKN200 FM0400 04003KT P6SM SCT040 OVC090
                       FM1000 14006KT P6SM -SHRA BKN025 OVC050=
200606030535 TAF KSEA 030535Z 030606 19008KT P6SM SCT060 FM1000 18006KT P6SM
                       BKN011 OVC025 FM1700 24006KT P6SM BKN030
                       BKN200 FM2000 34004KT P6SM SCT045 BKN200=
200606022322 TAF KSEA 022322Z 030024 24011KT P6SM SCT025 BKN035 BKN120 FM0300
                       21006KT P6SM SCT025 BKN040 FM1000 VRB03KT
                       P6SM BKN011 OVC025 FM1700 VRB03KT P6SM BKN040
                       BKN200 FM2000 34004KT P6SM FEW050 BKN200=
200606022033 KSEA 022033Z 022118 25009KT P6SM -SHRA SCT025 BKN040 FM0300 21006KT
                       P6SM SCT030 BKN045 FM1000 VRB03KT P6SM BKN011
                       OVC025=
200606022002 KSEA 022002Z 022018 25008KT 5SM -SHRA FEW013 BKN018 OVC035 FM2130
                       20008KT P6SM -SHRA SCT020 BKN035 FM0300
                       21006KT P6SM SCT030 BKN045 FM1000 VRB03KT
                       P6SM BKN011 OVC025=
200606021723 TAF KSEA 021723Z 021818 16005KT P6SM -SHRA FEW008 BKN011 OVC020
                       FM2000 19006KT P6SM -SHRA SCT015 BKN025
                       OVC040 FM2200 20008KT P6SM -SHRA SCT020
                       BKN035 FM0300 21006KT P6SM SCT030 BKN045
                       FM1000 VRB03KT P6SM BKN011 OVC025=
200606021120 TAF KSEA 021120Z 021212 18006KT P6SM SCT006 SCT020 BKN035
                      TEMPO 1216 3SM -SHRA BR BKN006 OVC018 FM1600
                       20006KT P6SM -SHRA SCT007 BKN020 OVC040
                       TEMPO 1619 4SM SHRA BR BKN007 OVC018 FM1900
                       21006KT P6SM -SHRA SCT015 BKN025 OVC040
                       FM2100 21008KT P6SM VCTS SCT020CB BKN035
                       FM0300 21006KT P6SM SCT030 BKN045=
200606020520 TAF KSEA 020520Z 020606 18006KT P6SM -SHRA SCT007 BKN020 OVC040
                       TEMPO 0610 3SM SHRA BR BKN007 OVC018 FM1000
                       VRB03KT P6SM -SHRA SCT006 BKN020 OVC035
                       TEMPO 1014 3SM SHRA BR BKN006 OVC018 FM1400
                       20006KT P6SM -SHRA SCT007 BKN020 OVC040
                       TEMPO 1418 4SM SHRA BR BKN007 OVC018 FM1800
                       21006KT P6SM -SHRA SCT015 BKN025 OVC040
                       FM2100 21008KT P6SM VCTS SCT020CB BKN035
                       FM0300 21006KT P6SM SCT030 BKN045=
200606020217 KSEA 020217Z 020224 VRB03KT P6SM SCT008 BKN045 FM0300 VRB03KT P6SM
                       SCT006 BKN020 OVC045
                      TEMPO 0306 5SM -RA BKN006 OVC018 FM0600 18006KT
                       P6SM -SHRA SCT015 BKN025 OVC040 FM0800 VRB03KT
                       P6SM SCT025 BKN040 OVC060 FM1800 VRB03KT
                       P6SM -SHRA SCT015 BKN025 OVC040=
200606012342 TAF KSEA 012342Z 020024 VRB03KT P6SM -RA SCT006 BKN015 OVC035
                      TEMPO 0003 3SM -RA BKN006 OVC015 FM0300 18006KT
                       P6SM -SHRA SCT006 BKN015 OVC025 FM0500 18006KT
                       P6SM -SHRA SCT015 BKN025 OVC040 FM0800 VRB03KT
                       P6SM SCT025 BKN040 OVC060 FM1800 VRB03KT
                       P6SM -SHRA SCT015 BKN025 OVC040=
200606012300 KSEA 020217Z 020224 VRB03KT P6SM SCT008 BKN045 FM0300 VRB03KT P6SM
                       SCT006 BKN020 OVC045
                      TEMPO 0306 5SM -RA BKN006 OVC018 FM0600 18006KT
                       P6SM -SHRA SCT015 BKN025 OVC040 FM0800 VRB03KT
                       P6SM SCT025 BKN040 OVC060 FM1800 VRB03KT
                       P6SM -SHRA SCT015 BKN025 OVC040=
200606012234 KSEA 012234Z 012318 VRB03KT P6SM -RA SCT006 BKN015 OVC035
                      TEMPO 2303 3SM -RA BKN006 OVC015 FM0500 16006KT
                       P6SM SCT006 BKN015 OVC025 FM0800 16006KT
                       P6SM SCT015 BKN025 OVC040=
200606011753 TAF KSEA 011753Z 011818 VRB03KT P6SM SCT060 BKN120 FM1900 16006KT
                       P6SM -RA SCT035 OVC060 FM2300 16006KT P6SM
                       -RA BKN035 OVC060 FM0400 21006KT P6SM -SHRA
                       SCT030 BKN050 FM0900 21006KT P6SM VCSH SCT015
                       OVC025=
200606011300 KSEA 011300Z 011312 VRB03KT P6SM SCT045 BKN060 FM1400 11003KT P6SM
                       SCT060 BKN120 FM2000 23005KT P6SM -RA SCT045
                       OVC060 FM2200 22005KT 6SM -RA SCT020 OVC030
                       FM0100 21006KT P6SM -SHRA SCT030 BKN050
                       FM0600 19004KT P6SM VCSH SCT025 OVC040=
200606011143 TAF KSEA 011143Z 011212 07003KT 4SM BR SCT045 BKN060 FM1400 11003KT
                       P6SM SCT060 BKN120 FM2000 23005KT P6SM -RA
                       SCT045 OVC060 FM2200 22005KT 6SM -RA SCT020
                       OVC030 FM0100 21006KT P6SM -SHRA SCT030
                       BKN050 FM0600 19004KT P6SM VCSH SCT025 OVC040=
200606010544 TAF KSEA 010544Z 010606 15006KT P6SM -SHRA SCT025 BKN045 OVC080
                       FM1000 16003KT P6SM VCSH BKN025 OVC045 FM1700
                       23005KT P6SM VCSH SCT040 BKN060 FM0000 21008KT
                       6SM -RA SCT030 OVC040=