##########################################################
# Query made at 02/18/2025 01:25:37 UTC
# Time interval: from 10/01/2006 00:00  to 10/31/2006 23:59  UTC
##########################################################

##########################################################
# KSEA, Seattle, Seattle-Tacoma International Airport (United States)
# WMO index: 72793. WIGOS ID: 0-20000-0-72793
# Latitude 47-27-00N. Longitude 122-17-59W. Altitude 130 m.
##########################################################

###################################
#  METAR/SPECI from KSEA
###################################
200610312353 METAR KSEA 312353Z 01011KT 10SM FEW250 08/M04 A3021 RMK AO2 SLP241 T00831039 10083 20044 58006=
200610312253 METAR KSEA 312253Z 36010KT 10SM FEW250 08/M01 A3022 RMK AO2 SLP244 T00781006=
200610312153 METAR KSEA 312153Z 35010KT 10SM CLR 08/M02 A3023 RMK AO2 SLP246 T00781022=
200610312053 METAR KSEA 312053Z 03012KT 10SM CLR 07/M04 A3023 RMK AO2 SLP247 T00721044 56012=
200610311953 METAR KSEA 311953Z 36010KT 10SM CLR 07/M04 A3025 RMK AO2 SLP252 T00671039=
200610311853 METAR KSEA 311853Z 01012KT 10SM CLR 06/M03 A3026 RMK AO2 SLP255 T00561033=
200610311753 METAR KSEA 311753Z 35009KT 10SM FEW015 04/M03 A3027 RMK AO2 SLP259 T00441028 10044 21011 50005=
200610311653 METAR KSEA 311653Z 02006KT 10SM FEW010 03/M02 A3027 RMK AO2 SLP261 T00281022=
200610311553 METAR KSEA 311553Z 01006KT 10SM FEW005 01/M01 A3027 RMK AO2 SLP259 T00061011=
200610311459 SPECI KSEA 311459Z 02008KT 7SM FEW002 M01/M01 A3026 RMK AO2=
200610311459 SPECI KSEA 311459Z 02008KT 7SM FEW002 M01/M01 A3026 RMK AO2=
200610311453 METAR KSEA 311453Z 02008KT 1 1/2SM BR SCT002 00/M01 A3025 RMK AO2 SFC VIS 6 SLP256 T00001011 51005=
200610311449 SPECI KSEA 311449Z 03009KT 8SM FEW002 00/M01 A3025 RMK AO2=
200610311449 SPECI KSEA 311449Z 03009KT 8SM FEW002 00/M01 A3025 RMK AO2=
200610311353 METAR KSEA 311353Z 04009KT 10SM CLR 00/M02 A3025 RMK AO2 SLP252 T00001022=
200610311301 SPECI KSEA 311301Z 04008KT 10SM FEW002 M01/M02 A3024 RMK AO2=
200610311301 SPECI KSEA 311301Z 04008KT 10SM FEW002 M01/M02 A3024 RMK AO2=
200610311253 METAR KSEA 311253Z 04008KT 1/2SM BR FEW001 BKN002 BKN003 M01/M02 A3024 RMK AO2 SFC VIS 3 SLP250 VIS S 3/4 T10111017=
200610311251 SPECI KSEA 311251Z 04008KT 1/2SM BR FEW001 BKN002 BKN003 M01/M01 A3024 RMK AO2 SFC VIS 3 VIS S 3/4=
200610311251 SPECI KSEA 311251Z 04008KT 1/2SM BR FEW001 BKN002 BKN003 M01/M01 A3024 RMK AO2 SFC VIS 3 VIS S 3/4=
200610311239 SPECI KSEA 311239Z 04011KT 1/2SM BR BKN001 BKN002 OVC003 M01/M02 A3024 RMK AO2 SFC VIS 1 1/2 VIS S 3/4=
200610311239 SPECI KSEA 311239Z 04011KT 1/2SM BR BKN001 BKN002 OVC003 M01/M02 A3024 RMK AO2 SFC VIS 1 1/2 VIS S 3/4=
200610311233 SPECI KSEA 311233Z 05010KT 1/2SM BR SCT002 BKN004 M01/M02 A3024 RMK AO2 SFC VIS 6=
200610311233 SPECI KSEA 311233Z 05010KT 1/2SM BR SCT002 BKN004 M01/M02 A3024 RMK AO2 SFC VIS 6=
200610311153 METAR KSEA 311153Z 05008KT 10SM FEW012 00/M02 A3023 RMK AO2 SLP246 T00001017 10028 21006 58004=
200610311053 METAR KSEA 311053Z 05009KT 10SM CLR 00/M02 A3024 RMK AO2 SLP250 T00001017=
200610310953 METAR KSEA 310953Z 05009KT 10SM CLR 01/M02 A3024 RMK AO2 SLP249 T00061022=
200610310853 METAR KSEA 310853Z 03007KT 10SM CLR 01/M03 A3024 RMK AO2 SLP250 T00111028 56002=
200610310753 METAR KSEA 310753Z 02009KT 10SM CLR 01/M03 A3024 RMK AO2 SLP250 T00111033 400720000=
200610310653 METAR KSEA 310653Z 03013KT 10SM CLR 03/M04 A3025 RMK AO2 SLP252 T00281044=
200610310553 METAR KSEA 310553Z 03010KT 10SM CLR 03/M04 A3025 RMK AO2 SLP252 T00281039 10072 20028 57001=
200610310453 METAR KSEA 310453Z 03009KT 10SM CLR 03/M02 A3025 RMK AO2 SLP253 T00281022=
200610310353 METAR KSEA 310353Z 04012KT 10SM CLR 03/M03 A3025 RMK AO2 SLP253 T00331028=
200610310253 METAR KSEA 310253Z 02011KT 10SM CLR 04/M04 A3025 RMK AO2 SLP254 T00391039 55003=
200610310153 METAR KSEA 310153Z 36007KT 10SM CLR 04/M02 A3025 RMK AO2 SLP254 T00391017=
200610310053 METAR KSEA 310053Z 35009KT 10SM FEW040 05/M02 A3025 RMK AO2 SLP253 T00501022=
200610302353 METAR KSEA 302353Z 03009KT 10SM FEW040 07/M03 A3026 RMK AO2 SLP256 T00671028 10072 20039 56008=
200610302253 METAR KSEA 302253Z 04008KT 10SM FEW040 07/M01 A3027 RMK AO2 SLP258 T00721011=
200610302153 METAR KSEA 302153Z 02009KT 10SM FEW035 07/M02 A3027 RMK AO2 SLP259 T00721017=
200610302053 METAR KSEA 302053Z 02009KT 10SM FEW030 07/M03 A3028 RMK AO2 SLP264 T00671028 58008=
200610301953 METAR KSEA 301953Z 01010KT 10SM FEW030 06/M03 A3030 RMK AO2 SLP267 T00561028=
200610301853 METAR KSEA 301853Z 02009KT 10SM FEW030 05/M03 A3030 RMK AO2 SLP272 T00501028=
200610301753 METAR KSEA 301753Z 07006KT 10SM FEW250 04/M02 A3031 RMK AO2 SLP272 T00441017 10044 20000 51011=
200610301653 METAR KSEA 301653Z 03008KT 10SM FEW250 03/M02 A3030 RMK AO2 SLP269 T00281017=
200610301553 METAR KSEA 301553Z 04009KT 10SM CLR 02/M01 A3028 RMK AO2 SLP265 T00171011=
200610301453 METAR KSEA 301453Z 03006KT 10SM CLR 01/M02 A3027 RMK AO2 SLP261 T00061017 53007=
200610301353 METAR KSEA 301353Z 06005KT 10SM CLR 01/M02 A3027 RMK AO2 SLP258 T00061022=
200610301253 METAR KSEA 301253Z 07006KT 10SM CLR 01/M02 A3026 RMK AO2 SLP255 T00111022=
200610301153 METAR KSEA 301153Z 00000KT 10SM CLR 01/M01 A3025 RMK AO2 SLP253 70055 T00061006 10056 20000 51015=
200610301053 METAR KSEA 301053Z 17005KT 10SM CLR 01/M01 A3024 RMK AO2 SLP250 T00061006=
200610300953 METAR KSEA 300953Z 04007KT 10SM CLR 03/M03 A3022 RMK AO2 SLP242 T00331028=
200610300853 METAR KSEA 300853Z 03007KT 10SM CLR 03/M01 A3021 RMK AO2 SLP237 T00281011 51018=
200610300753 METAR KSEA 300753Z 36009KT 10SM CLR 05/M01 A3019 RMK AO2 SLP231 T00501006 401110039=
200610300653 METAR KSEA 300653Z 02008KT 10SM CLR 05/00 A3017 RMK AO2 SLP226 T00500000=
200610300553 METAR KSEA 300553Z 36008KT 10SM FEW030 SCT090 06/01 A3015 RMK AO2 SLP219 60000 T00560011 10067 20039 51023=
200610300453 METAR KSEA 300453Z 36004KT 10SM FEW090 04/02 A3013 RMK AO2 SLP211 T00440017=
200610300353 METAR KSEA 300353Z 18006KT 10SM SCT090 04/01 A3011 RMK AO2 SLP204 T00390011=
200610300253 METAR KSEA 300253Z 01009KT 10SM SCT030 BKN090 05/02 A3008 RMK AO2 RAB14E29 SLP195 P0000 60000 T00500017 51019=
200610300153 METAR KSEA 300153Z 03007KT 10SM SCT080 06/02 A3007 RMK AO2 SLP190 T00560022=
200610300053 METAR KSEA 300053Z 36010KT 10SM FEW040 SCT080 06/02 A3004 RMK AO2 SLP182 T00610022=
200610292353 METAR KSEA 292353Z 01011KT 10SM SCT035 BKN080 BKN150 07/02 A3002 RMK AO2 PK WND 35026/2257 RAE2259 SLP174 P0000 60000 T00670017 10111 20056 51038=
200610292253 METAR KSEA 292253Z 36020G28KT 8SM -RA SCT025 BKN047 06/03 A3001 RMK AO2 PK WND 36029/2238 RAE13B38 SLP169 P0000 T00610028=
200610292153 METAR KSEA 292153Z 01017G21KT 10SM -RA SCT040 BKN070 07/03 A2995 RMK AO2 RAB51 SLP148 P0000 T00720028=
200610292053 METAR KSEA 292053Z 06008KT 10SM FEW030 SCT045 09/04 A2991 RMK AO2 SLP136=
200610291953 METAR KSEA 291953Z 08007KT 10SM FEW047 08/04 A2993 RMK AO2 SLP141 T00780044=
200610291913 SPECI KSEA 291913Z 09012KT 10SM FEW023 BKN031 07/04 A2993 RMK AO2=
200610291913 SPECI KSEA 291913Z 09012KT 10SM FEW023 BKN031 07/04 A2993 RMK AO2=
200610291853 METAR KSEA 291853Z 09011KT 10SM FEW023 BKN029 07/03 A2993 RMK AO2 RAE28 SLP143 P0000 T00670033=
200610291753 METAR KSEA 291753Z 10011KT 10SM -RA FEW013 BKN023 07/03 A2994 RMK AO2 RAE1654B46 SLP144 P0000 60055 T00670033 10100 20067 50008=
200610291653 METAR KSEA 291653Z 12010KT 10SM -RA FEW007 SCT013 BKN021 08/06 A2994 RMK AO2 SLP145 P0001 T00780056=
200610291553 METAR KSEA 291553Z 17008KT 3SM RA BR FEW005 SCT012 BKN024 07/06 A2992 RMK AO2 TWR VIS 5 SLP141 P0013 T00720061=
200610291551 SPECI KSEA 291551Z 15008KT 2SM R16C/6000VP6000FT RA BR SCT005 BKN012 OVC025 07/06 A2992 RMK AO2 TWR VIS 5 P0013=
200610291551 SPECI KSEA 291551Z 15008KT 2SM R16C/6000VP6000FT RA BR SCT005 BKN012 OVC025 07/06 A2992 RMK AO2 TWR VIS 5 P0013=
200610291545 SPECI KSEA 291545Z 12006KT 1 1/2SM R16C/6000VP6000FT RA BR SCT007 OVC011 07/06 A2993 RMK AO2 TWR VIS 5 P0011=
200610291545 SPECI KSEA 291545Z 12006KT 1 1/2SM R16C/6000VP6000FT RA BR SCT007 OVC011 07/06 A2993 RMK AO2 TWR VIS 5 P0011=
200610291537 SPECI KSEA 291537Z 16007KT 2SM RA BR SCT004 BKN007 OVC015 07/06 A2993 RMK AO2 TWR VIS 5 P0008=
200610291537 SPECI KSEA 291537Z 16007KT 2SM RA BR SCT004 BKN007 OVC015 07/06 A2993 RMK AO2 TWR VIS 5 P0008=
200610291530 SPECI KSEA 291530Z 14006KT 1SM -RA BR SCT004 BKN007 OVC015 07/07 A2992 RMK AO2 SFC VIS 2 P0006=
200610291530 SPECI KSEA 291530Z 14006KT 1SM -RA BR SCT004 BKN007 OVC015 07/07 A2992 RMK AO2 SFC VIS 2 P0006=
200610291511 SPECI KSEA 291511Z 13009KT 1SM RA BR BKN004 OVC011 07/07 A2992 RMK AO2 SFC VIS 2 P0003=
200610291511 SPECI KSEA 291511Z 13009KT 1SM RA BR BKN004 OVC011 07/07 A2992 RMK AO2 SFC VIS 2 P0003=
200610291453 METAR KSEA 291453Z 13007KT 1SM -RA BR BKN005 BKN011 OVC019 08/07 A2991 RMK AO2 SFC VIS 2 1/2 CIG 002V008 SLP135 P0016 60041 T00780067 51005=
200610291448 SPECI KSEA 291448Z 12009KT 1SM -RA BR SCT003 BKN006 OVC026 08/07 A2990 RMK AO2 SFC VIS 2 1/2 P0016=
200610291448 SPECI KSEA 291448Z 12009KT 1SM -RA BR SCT003 BKN006 OVC026 08/07 A2990 RMK AO2 SFC VIS 2 1/2 P0016=
200610291353 METAR KSEA 291353Z 06014KT 3SM -RA BR FEW007 OVC016 08/07 A2990 RMK AO2 SLP133 P0011 T00830072=
200610291346 SPECI KSEA 291346Z 09010KT 2 1/2SM RA BR FEW004 SCT007 OVC016 08/07 A2990 RMK AO2 P0010=
200610291346 SPECI KSEA 291346Z 09010KT 2 1/2SM RA BR FEW004 SCT007 OVC016 08/07 A2990 RMK AO2 P0010=
200610291253 METAR KSEA 291253Z 06005KT 2 1/2SM RA BR SCT004 OVC012 08/08 A2990 RMK AO2 SLP130 P0014 T00830078=
200610291225 SPECI KSEA 291225Z VRB05KT 3SM RA BR OVC004 09/09 A2990 RMK AO2 CIG 002V007 P0005=
200610291225 SPECI KSEA 291225Z VRB05KT 3SM RA BR OVC004 09/09 A2990 RMK AO2 CIG 002V007 P0005=
200610291207 SPECI KSEA 291207Z 27007KT 2 1/2SM RA BR OVC006 09/09 A2990 RMK AO2 CIG 004V009 P0001=
200610291207 SPECI KSEA 291207Z 27007KT 2 1/2SM RA BR OVC006 09/09 A2990 RMK AO2 CIG 004V009 P0001=
200610291153 METAR KSEA 291153Z 27007G15KT 5SM RA BR OVC006 10/08 A2990 RMK AO2 RAB38 SLP132 P0000 60000 T01000083 10106 20083 55009=
200610291131 SPECI KSEA 291131Z 21013KT 10SM BKN008 OVC012 10/08 A2990 RMK AO2=
200610291131 SPECI KSEA 291131Z 21013KT 10SM BKN008 OVC012 10/08 A2990 RMK AO2=
200610291053 METAR KSEA 291053Z 20014KT 10SM BKN012 OVC019 11/08 A2990 RMK AO2 SLP130 T01060078=
200610291040 SPECI KSEA 291040Z 20016G20KT 10SM BKN012 OVC018 11/08 A2991 RMK AO2=
200610291040 SPECI KSEA 291040Z 20016G20KT 10SM BKN012 OVC018 11/08 A2991 RMK AO2=
200610290953 METAR KSEA 290953Z 19011KT 10SM BKN017 11/06 A2993 RMK AO2 SLP141 T01060061=
200610290949 SPECI KSEA 290949Z 19011KT 10SM BKN017 11/06 A2993 RMK AO2=
200610290949 SPECI KSEA 290949Z 19011KT 10SM BKN017 11/06 A2993 RMK AO2=
200610290853 METAR KSEA 290853Z 20015KT 10SM FEW050 09/07 A2994 RMK AO2 SLP146 T00940067 57034=
200610290753 METAR KSEA 290753Z 20012KT 10SM FEW070 09/07 A2998 RMK AO2 SLP159 T00940067 401390072=
200610290653 METAR KSEA 290653Z 19010KT 9SM FEW080 09/08 A3001 RMK AO2 SLP168 T00940078=
200610290553 METAR KSEA 290553Z 15005KT 8SM BKN050 OVC080 09/08 A3004 RMK AO2 SLP181 T00940083 10122 20083 57016=
200610290453 METAR KSEA 290453Z 17006KT 7SM BKN050 08/08 A3006 RMK AO2 SLP186 T00830078=
200610290419 SPECI KSEA 290419Z 16006KT 3SM BR FEW001 BKN050 08/08 A3007 RMK AO2 SFC VIS 4=
200610290419 SPECI KSEA 290419Z 16006KT 3SM BR FEW001 BKN050 08/08 A3007 RMK AO2 SFC VIS 4=
200610290406 SPECI KSEA 290406Z 16005KT 2SM BR SCT001 BKN050 08/08 A3007 RMK AO2 SFC VIS 3=
200610290406 SPECI KSEA 290406Z 16005KT 2SM BR SCT001 BKN050 08/08 A3007 RMK AO2 SFC VIS 3=
200610290353 METAR KSEA 290353Z 17005KT 2SM R16C/1000VP6000FT BR BKN001 BKN050 08/08 A3008 RMK AO2 SFC VIS 2 1/2 SLP192 T00830078=
200610290351 SPECI KSEA 290351Z 17005KT 1SM R16C/1000VP6000FT BR BKN001 OVC050 08/08 A3008 RMK AO2 TWR VIS 2=
200610290351 SPECI KSEA 290351Z 17005KT 1SM R16C/1000VP6000FT BR BKN001 OVC050 08/08 A3008 RMK AO2 TWR VIS 2=
200610290337 SPECI KSEA 290337Z 18005KT 1/4SM R16C/1000V2000FT FG VV001 08/08 A3008 RMK AO2=
200610290337 SPECI KSEA 290337Z 18005KT 1/4SM R16C/1000V2000FT FG VV001 08/08 A3008 RMK AO2=
200610290322 SPECI KSEA 290322Z 19005KT 1/4SM R16C/1400V6000FT FG BKN001 OVC048 08/08 A3009 RMK AO2 SFC VIS 1/2=
200610290322 SPECI KSEA 290322Z 19005KT 1/4SM R16C/1400V6000FT FG BKN001 OVC048 08/08 A3009 RMK AO2 SFC VIS 1/2=
200610290318 SPECI KSEA 290318Z 19005KT 1 1/2SM R16C/1400V6000FT BR SCT001 BKN049 08/08 A3009 RMK AO2 VIS S 1/2=
200610290318 SPECI KSEA 290318Z 19005KT 1 1/2SM R16C/1400V6000FT BR SCT001 BKN049 08/08 A3009 RMK AO2 VIS S 1/2=
200610290304 SPECI KSEA 290304Z 17005KT 2 1/2SM BR SCT001 BKN049 09/08 A3009 RMK AO2 VIS S 3/4=
200610290304 SPECI KSEA 290304Z 17005KT 2 1/2SM BR SCT001 BKN049 09/08 A3009 RMK AO2 VIS S 3/4=
200610290253 METAR KSEA 290253Z 19005KT 1 1/2SM R16C/4000VP6000FT BR SCT001 BKN045 09/08 A3009 RMK AO2 SLP197 T00890083 56008=
200610290248 SPECI KSEA 290248Z 18003KT 1 1/2SM R16C/4000VP6000FT BR SCT001 BKN045 09/08 A3009 RMK AO2=
200610290248 SPECI KSEA 290248Z 18003KT 1 1/2SM R16C/4000VP6000FT BR SCT001 BKN045 09/08 A3009 RMK AO2=
200610290238 SPECI KSEA 290238Z 18004KT 3/4SM R16C/3000VP6000FT BR SCT001 BKN045 09/08 A3009 RMK AO2=
200610290238 SPECI KSEA 290238Z 18004KT 3/4SM R16C/3000VP6000FT BR SCT001 BKN045 09/08 A3009 RMK AO2=
200610290217 SPECI KSEA 290217Z 22003KT 3/4SM R16C/1600V5500FT BR BKN001 BKN120 09/08 A3010 RMK AO2=
200610290217 SPECI KSEA 290217Z 22003KT 3/4SM R16C/1600V5500FT BR BKN001 BKN120 09/08 A3010 RMK AO2=
200610290212 SPECI KSEA 290212Z 23003KT 1 1/2SM R16C/1600VP6000FT BR SCT001 BKN120 09/08 A3010 RMK AO2=
200610290212 SPECI KSEA 290212Z 23003KT 1 1/2SM R16C/1600VP6000FT BR SCT001 BKN120 09/08 A3010 RMK AO2=
200610290204 SPECI KSEA 290204Z 24003KT 2 1/2SM BR SCT001 SCT120 09/08 A3010 RMK AO2=
200610290204 SPECI KSEA 290204Z 24003KT 2 1/2SM BR SCT001 SCT120 09/08 A3010 RMK AO2=
200610290159 SPECI KSEA 290159Z 25003KT 5SM BR FEW001 SCT008 SCT120 09/08 A3010 RMK AO2=
200610290159 SPECI KSEA 290159Z 25003KT 5SM BR FEW001 SCT008 SCT120 09/08 A3010 RMK AO2=
200610290153 METAR KSEA 290153Z 23004KT 8SM FEW010 SCT120 09/08 A3010 RMK AO2 SLP201 T00890083=
200610290053 METAR KSEA 290053Z 00000KT 8SM FEW120 10/08 A3012 RMK AO2 SLP206 T01000083=
200610282353 METAR KSEA 282353Z 27006KT 10SM CLR 12/09 A3013 RMK AO2 SLP210 T01220089 10139 20078 56022=
200610282253 METAR KSEA 282253Z 29005KT 10SM CLR 13/09 A3014 RMK AO2 SLP213 T01330089=
200610282153 METAR KSEA 282153Z 29005KT 10SM FEW028 13/08 A3017 RMK AO2 SLP222 T01330083=
200610282053 METAR KSEA 282053Z 28005KT 10SM FEW003 13/08 A3020 RMK AO2 SLP232 T01280078 58018=
200610281953 METAR KSEA 281953Z 23003KT 10SM FEW004 12/07 A3022 RMK AO2 SLP240 T01170072=
200610281853 METAR KSEA 281853Z 21004KT 7SM FEW002 10/08 A3024 RMK AO2 SLP247 T01000078=
200610281842 SPECI KSEA 281842Z 00000KT 7SM FEW002 10/08 A3024 RMK AO2=
200610281842 SPECI KSEA 281842Z 00000KT 7SM FEW002 10/08 A3024 RMK AO2=
200610281821 SPECI KSEA 281821Z 00000KT 2SM BR FEW002 SCT010 09/08 A3024 RMK AO2 SFC VIS 2 1/2=
200610281821 SPECI KSEA 281821Z 00000KT 2SM BR FEW002 SCT010 09/08 A3024 RMK AO2 SFC VIS 2 1/2=
200610281753 METAR KSEA 281753Z 00000KT 1/4SM R16C/2800VP6000FT FG SCT001 BKN010 08/07 A3025 RMK AO2 SFC VIS 3/4 SLP251 T00780072 10089 20078 56006=
200610281726 SPECI KSEA 281726Z 23004KT 1/4SM R16C/4000VP6000FT BR SCT003 BKN010 08/08 A3025 RMK AO2 SFC VIS 3/4=
200610281726 SPECI KSEA 281726Z 23004KT 1/4SM R16C/4000VP6000FT BR SCT003 BKN010 08/08 A3025 RMK AO2 SFC VIS 3/4=
200610281722 SPECI KSEA 281722Z 23004KT 3/4SM R16C/5000VP6000FT BR SCT003 BKN010 08/08 A3026 RMK AO2=
200610281722 SPECI KSEA 281722Z 23004KT 3/4SM R16C/5000VP6000FT BR SCT003 BKN010 08/08 A3026 RMK AO2=
200610281718 SPECI KSEA 281718Z 22004KT 1SM R16C/5000VP6000FT BR SCT003 BKN010 08/07 A3026 RMK AO2=
200610281718 SPECI KSEA 281718Z 22004KT 1SM R16C/5000VP6000FT BR SCT003 BKN010 08/07 A3026 RMK AO2=
200610281709 SPECI KSEA 281709Z 20004KT 2SM R16C/5500VP6000FT BR SCT003 BKN010 08/08 A3026 RMK AO2=
200610281709 SPECI KSEA 281709Z 20004KT 2SM R16C/5500VP6000FT BR SCT003 BKN010 08/08 A3026 RMK AO2=
200610281653 METAR KSEA 281653Z 22004KT 5SM BR FEW003 SCT010 BKN250 08/08 A3026 RMK AO2 SLP254 T00830078=
200610281642 SPECI KSEA 281642Z 22003KT 5SM BR FEW003 SCT010 BKN250 09/08 A3026 RMK AO2=
200610281642 SPECI KSEA 281642Z 22003KT 5SM BR FEW003 SCT010 BKN250 09/08 A3026 RMK AO2=
200610281553 METAR KSEA 281553Z 17005KT 3SM BR FEW002 BKN010 BKN200 08/07 A3026 RMK AO2 TWR VIS 5 SLP253 T00780072=
200610281541 SPECI KSEA 281541Z 17005KT 2SM BR SCT002 BKN010 08/07 A3026 RMK AO2 SFC VIS 2 1/2=
200610281541 SPECI KSEA 281541Z 17005KT 2SM BR SCT002 BKN010 08/07 A3026 RMK AO2 SFC VIS 2 1/2=
200610281511 SPECI KSEA 281511Z 17004KT 2SM BR BKN002 BKN010 08/07 A3026 RMK AO2=
200610281511 SPECI KSEA 281511Z 17004KT 2SM BR BKN002 BKN010 08/07 A3026 RMK AO2=
200610281457 SPECI KSEA 281457Z 16004KT 1 1/2SM BR BKN002 OVC010 08/08 A3027 RMK AO2 TWR VIS 2=
200610281457 SPECI KSEA 281457Z 16004KT 1 1/2SM BR BKN002 OVC010 08/08 A3027 RMK AO2 TWR VIS 2=
200610281453 METAR KSEA 281453Z 00000KT 1SM R16C/P6000FT BR BKN002 OVC010 08/08 A3027 RMK AO2 TWR VIS 2 SLP257 T00830078 58005=
200610281444 SPECI KSEA 281444Z 16003KT 1/4SM R16C/1400VP6000FT FG VV001 08/08 A3027 RMK AO2 SFC VIS 1/2=
200610281444 SPECI KSEA 281444Z 16003KT 1/4SM R16C/1400VP6000FT FG VV001 08/08 A3027 RMK AO2 SFC VIS 1/2=
200610281353 METAR KSEA 281353Z 00000KT 1/4SM R16C/1200V1800FT FG VV001 09/09 A3028 RMK AO2 SLP260 T00890089=
200610281341 SPECI KSEA 281341Z 24003KT 1/4SM R16C/1400V1600FT FG VV001 09/09 A3028 RMK AO2=
200610281341 SPECI KSEA 281341Z 24003KT 1/4SM R16C/1400V1600FT FG VV001 09/09 A3028 RMK AO2=
200610281311 SPECI KSEA 281311Z 00000KT 1/4SM R16C/1200V3500FT FG VV001 09/09 A3028 RMK AO2=
200610281311 SPECI KSEA 281311Z 00000KT 1/4SM R16C/1200V3500FT FG VV001 09/09 A3028 RMK AO2=
200610281253 METAR KSEA 281253Z 00000KT 1/4SM R16C/1000V1400FT FG VV001 09/08 A3028 RMK AO2 SLP261 T00890083=
200610281153 METAR KSEA 281153Z 00000KT 1/4SM R16C/1000V1200FT FG VV001 09/09 A3028 RMK AO2 SLP261 T00890089 10100 20072 58007=
200610281053 METAR KSEA 281053Z 00000KT 1/4SM R16C/1200V1400FT FG VV001 09/09 A3030 RMK AO2 SLP266 T00940089=
200610281032 SPECI KSEA 281032Z 20003KT 1/4SM R16C/1400V2000FT FG VV001 09/09 A3030 RMK AO2=
200610281032 SPECI KSEA 281032Z 20003KT 1/4SM R16C/1400V2000FT FG VV001 09/09 A3030 RMK AO2=
200610281006 SPECI KSEA 281006Z 00000KT 3/4SM R16C/P6000FT BR OVC001 08/08 A3031 RMK AO2=
200610281006 SPECI KSEA 281006Z 00000KT 3/4SM R16C/P6000FT BR OVC001 08/08 A3031 RMK AO2=
200610281003 SPECI KSEA 281003Z 00000KT 1 3/4SM BR SCT001 BKN003 08/08 A3031 RMK AO2=
200610281003 SPECI KSEA 281003Z 00000KT 1 3/4SM BR SCT001 BKN003 08/08 A3031 RMK AO2=
200610280953 METAR KSEA 280953Z 19004KT 5SM BR FEW001 BKN003 08/07 A3031 RMK AO2 SLP269 T00780072=
200610280948 SPECI KSEA 280948Z 18004KT 6SM BR BKN003 08/07 A3031 RMK AO2=
200610280948 SPECI KSEA 280948Z 18004KT 6SM BR BKN003 08/07 A3031 RMK AO2=
200610280908 SPECI KSEA 280908Z 00000KT 1SM BKN002 08/07 A3031 RMK AO2 SFC VIS 8=
200610280908 SPECI KSEA 280908Z 00000KT 1SM BKN002 08/07 A3031 RMK AO2 SFC VIS 8=
200610280853 METAR KSEA 280853Z 16003KT 10SM FEW003 SCT005 08/07 A3032 RMK AO2 SLP272 T00830072 56008=
200610280753 METAR KSEA 280753Z 15006KT 10SM CLR 09/08 A3033 RMK AO2 SLP276 T00890078 401670089=
200610280653 METAR KSEA 280653Z 14008KT 10SM CLR 10/08 A3034 RMK AO2 SLP280 T01000083=
200610280553 METAR KSEA 280553Z 16005KT 10SM CLR 09/08 A3035 RMK AO2 SLP283 T00940083 10156 20094 58004=
200610280453 METAR KSEA 280453Z 17004KT 10SM CLR 10/08 A3035 RMK AO2 SLP286 T01000078=
200610280353 METAR KSEA 280353Z 00000KT 10SM CLR 11/08 A3036 RMK AO2 SLP287 T01110078=
200610280253 METAR KSEA 280253Z 00000KT 10SM CLR 13/08 A3036 RMK AO2 SLP287 T01280083 56006=
200610280153 METAR KSEA 280153Z 28003KT 10SM FEW050 12/09 A3036 RMK AO2 SLP289 T01220089=
200610280053 METAR KSEA 280053Z 28004KT 10SM SCT050 SCT200 14/09 A3037 RMK AO2 SLP290 T01390089=
200610272353 METAR KSEA 272353Z 26007KT 10SM FEW030 SCT050 SCT200 16/09 A3038 RMK AO2 SLP293 T01560089 10167 20128 56012=
200610272253 METAR KSEA 272253Z 27007KT 10SM FEW030 SCT045 SCT200 17/09 A3039 RMK AO2 SLP295 T01670094=
200610272153 METAR KSEA 272153Z 22010KT 10SM FEW030 SCT050 SCT200 16/09 A3039 RMK AO2 SLP299 T01610094=
200610272053 METAR KSEA 272053Z 23010KT 10SM FEW025 SCT030 BKN050 BKN200 16/10 A3041 RMK AO2 SLP304 T01610100 58002=
200610271953 METAR KSEA 271953Z 21011KT 10SM SCT023 BKN031 BKN038 15/10 A3042 RMK AO2 SLP308 T01500100=
200610271933 SPECI KSEA 271933Z 25013KT 10SM SCT025 BKN031 BKN038 16/11 A3042 RMK AO2=
200610271933 SPECI KSEA 271933Z 25013KT 10SM SCT025 BKN031 BKN038 16/11 A3042 RMK AO2=
200610271853 METAR KSEA 271853Z 21008KT 10SM BKN021 BKN200 14/10 A3042 RMK AO2 SLP307 T01440100=
200610271753 METAR KSEA 271753Z 18010KT 10SM BKN019 BKN060 BKN200 13/09 A3042 RMK AO2 SLP308 T01280089 10128 20117 51011=
200610271725 SPECI KSEA 271725Z 19011KT 10SM SCT014 SCT060 BKN200 12/09 A3042 RMK AO2=
200610271725 SPECI KSEA 271725Z 19011KT 10SM SCT014 SCT060 BKN200 12/09 A3042 RMK AO2=
200610271653 METAR KSEA 271653Z 19009KT 10SM BKN014 BKN016 OVC200 12/09 A3042 RMK AO2 SLP307 T01220089=
200610271553 METAR KSEA 271553Z 20011KT 10SM BKN012 BKN015 OVC200 12/09 A3040 RMK AO2 SLP302 T01170089=
200610271453 METAR KSEA 271453Z 20011KT 10SM OVC014 12/09 A3039 RMK AO2 SLP296 T01170094 51003=
200610271353 METAR KSEA 271353Z 20010KT 10SM OVC012 12/09 A3039 RMK AO2 SLP297 T01220094=
200610271253 METAR KSEA 271253Z 20008KT 10SM OVC012 12/09 A3039 RMK AO2 SLP297 T01220094=
200610271153 METAR KSEA 271153Z 19012KT 10SM OVC012 12/09 A3038 RMK AO2 SLP293 T01220094 10122 20117 58002=
200610271053 METAR KSEA 271053Z 21012KT 10SM OVC012 12/09 A3038 RMK AO2 SLP294 T01220094=
200610270953 METAR KSEA 270953Z 20011KT 10SM OVC014 12/09 A3039 RMK AO2 SLP297 T01170089=
200610270907 SPECI KSEA 270907Z 20014KT 10SM OVC014 12/09 A3039 RMK AO2=
200610270907 SPECI KSEA 270907Z 20014KT 10SM OVC014 12/09 A3039 RMK AO2=
200610270853 METAR KSEA 270853Z 20014KT 10SM OVC016 12/09 A3038 RMK AO2 SLP295 T01220089 50001=
200610270753 METAR KSEA 270753Z 21013KT 10SM OVC016 12/09 A3039 RMK AO2 SLP296 T01220089 401280094=
200610270653 METAR KSEA 270653Z 20012KT 10SM OVC018 12/08 A3038 RMK AO2 SLP293 BINOVC S T01220083=
200610270553 METAR KSEA 270553Z 20013KT 10SM OVC018 12/08 A3038 RMK AO2 SLP294 T01220078 10128 20122 50003=
200610270453 METAR KSEA 270453Z 20010KT 10SM OVC020 12/08 A3038 RMK AO2 SLP294 T01220078=
200610270353 METAR KSEA 270353Z 20012KT 10SM BKN020 OVC040 12/08 A3037 RMK AO2 SLP291 T01220078=
200610270253 METAR KSEA 270253Z 19015KT 10SM BKN025 BKN030 OVC070 13/08 A3037 RMK AO2 SLP290 T01280078 56005=
200610270153 METAR KSEA 270153Z 21010KT 10SM BKN022 BKN028 OVC060 12/08 A3038 RMK AO2 SLP293 T01220083=
200610270053 METAR KSEA 270053Z 21012KT 10SM BKN022 OVC060 13/08 A3036 RMK AO2 SLP289 T01280083=
200610262353 METAR KSEA 262353Z 20012KT 10SM BKN022 OVC060 13/08 A3038 RMK AO2 SLP295 T01280078 10128 20106 55003=
200610262253 METAR KSEA 262253Z 21013KT 10SM BKN024 BKN060 BKN150 13/08 A3038 RMK AO2 SLP293 T01280078=
200610262153 METAR KSEA 262153Z 19014KT 10SM BKN021 BKN030 OVC150 12/08 A3038 RMK AO2 SLP293 BINOVC SE T01220078=
200610262053 METAR KSEA 262053Z 19014KT 10SM OVC021 12/07 A3039 RMK AO2 SLP298 T01170072 50000=
200610261953 METAR KSEA 261953Z 19014KT 10SM OVC017 12/07 A3039 RMK AO2 SLP298 T01220072=
200610261853 METAR KSEA 261853Z 21014KT 10SM OVC023 12/07 A3041 RMK AO2 SLP303 T01170067=
200610261753 METAR KSEA 261753Z 20014G20KT 10SM BKN021 BKN032 BKN130 OVC200 11/06 A3039 RMK AO2 SLP299 T01060061 10111 20100 51008=
200610261653 METAR KSEA 261653Z 18010KT 10SM OVC028 10/06 A3039 RMK AO2 SLP299 T01000056=
200610261641 SPECI KSEA 261641Z 20008KT 10SM BKN026 OVC032 10/06 A3039 RMK AO2=
200610261641 SPECI KSEA 261641Z 20008KT 10SM BKN026 OVC032 10/06 A3039 RMK AO2=
200610261553 METAR KSEA 261553Z 20011KT 10SM SCT025 BKN041 BKN130 OVC200 10/05 A3038 RMK AO2 SLP296 T01000050=
200610261453 METAR KSEA 261453Z 18009KT 10SM FEW020 SCT045 BKN130 OVC200 10/05 A3037 RMK AO2 SLP291 T01000050 53000=
200610261353 METAR KSEA 261353Z 17013KT 10SM SCT021 BKN043 OVC120 10/04 A3036 RMK AO2 SLP289 T01000044=
200610261253 METAR KSEA 261253Z 17012KT 10SM FEW023 BKN039 OVC120 10/04 A3036 RMK AO2 SLP289 T01000044=
200610261153 METAR KSEA 261153Z 18011KT 10SM SCT043 BKN050 BKN120 10/04 A3037 RMK AO2 SLP290 T01000044 10106 20094 56008=
200610261053 METAR KSEA 261053Z 19014G18KT 10SM FEW029 BKN050 BKN150 11/04 A3038 RMK AO2 SLP294 T01060044=
200610260953 METAR KSEA 260953Z 16009KT 10SM BKN050 OVC070 10/04 A3037 RMK AO2 SLP293 T01000044=
200610260853 METAR KSEA 260853Z 17009KT 10SM SCT025 OVC047 10/05 A3039 RMK AO2 SLP298 T01000050 57006=
200610260753 METAR KSEA 260753Z 18008KT 10SM FEW027 BKN047 OVC110 10/05 A3039 RMK AO2 SLP300 T01000050 401110056=
200610260653 METAR KSEA 260653Z 17008KT 10SM BKN033 BKN048 OVC120 10/06 A3040 RMK AO2 SLP303 T01000056=
200610260553 METAR KSEA 260553Z 17008KT 10SM BKN045 OVC090 10/06 A3041 RMK AO2 SLP305 60000 T01000056 10111 20094 50001=
200610260453 METAR KSEA 260453Z 18008KT 10SM BKN049 OVC090 10/06 A3042 RMK AO2 SLP307 T01000056=
200610260353 METAR KSEA 260353Z 18005KT 10SM FEW028 BKN070 BKN100 10/06 A3041 RMK AO2 SLP306 T01000056=
200610260253 METAR KSEA 260253Z 18005KT 10SM FEW029 BKN075 BKN090 OVC140 10/06 A3040 RMK AO2 SLP304 60000 T01000056 55004=
200610260153 METAR KSEA 260153Z 16008KT 10SM FEW040 BKN090 OVC140 10/05 A3040 RMK AO2 SLP303 T01000050=
200610260053 METAR KSEA 260053Z 15007KT 10SM SCT031 SCT049 BKN075 OVC140 11/06 A3040 RMK AO2 RAB30E49 SLP303 P0000 T01060056=
200610252353 METAR KSEA 252353Z 16003KT 10SM FEW030 BKN080 OVC140 11/04 A3042 RMK AO2 SLP308 T01060044 10111 20089 50000=
200610252253 METAR KSEA 252253Z 17003KT 10SM FEW030 BKN080 OVC150 11/04 A3042 RMK AO2 SLP309 T01060039=
200610252153 METAR KSEA 252153Z 20005KT 10SM FEW030 SCT085 BKN130 OVC150 11/05 A3042 RMK AO2 SLP308 T01060050=
200610252053 METAR KSEA 252053Z 00000KT 10SM FEW025 SCT035 OVC085 10/04 A3042 RMK AO2 SLP308 T01000039 50000=
200610251953 METAR KSEA 251953Z 22006KT 10SM FEW020 BKN035 OVC090 10/06 A3042 RMK AO2 SLP310 BINOVC S-NW T01000056=
200610251853 METAR KSEA 251853Z 20004KT 10SM FEW020 BKN037 09/04 A3042 RMK AO2 SLP310 T00890044=
200610251753 METAR KSEA 251753Z 22006KT 10SM FEW016 SCT100 09/05 A3042 RMK AO2 SLP307 T00940050 10094 20056 51022=
200610251653 METAR KSEA 251653Z 21004KT 10SM FEW015 SCT100 08/04 A3040 RMK AO2 SLP304 T00780044=
200610251553 METAR KSEA 251553Z 18007KT 10SM FEW055 BKN110 07/04 A3037 RMK AO2 SLP293 T00670039=
200610251453 METAR KSEA 251453Z 17007KT 10SM FEW010 SCT055 SCT200 06/03 A3035 RMK AO2 SLP286 T00560033 53021=
200610251353 METAR KSEA 251353Z 18005KT 10SM FEW040 BKN055 BKN070 06/04 A3033 RMK AO2 SLP279 T00610039=
200610251253 METAR KSEA 251253Z 18006KT 10SM FEW025 BKN044 07/04 A3030 RMK AO2 SLP269 T00670039=
200610251208 SPECI KSEA 251208Z 15005KT 10SM SCT018 BKN040 06/04 A3029 RMK AO2=
200610251208 SPECI KSEA 251208Z 15005KT 10SM SCT018 BKN040 06/04 A3029 RMK AO2=
200610251153 METAR KSEA 251153Z 17006KT 10SM SCT016 BKN029 BKN070 06/04 A3029 RMK AO2 SLP264 70003 T00610039 10067 20050 51022=
200610251053 METAR KSEA 251053Z 16006KT 10SM SCT014 BKN029 BKN070 06/04 A3027 RMK AO2 SLP256 T00610044=
200610250953 METAR KSEA 250953Z 16006KT 10SM BKN023 OVC075 07/04 A3025 RMK AO2 SLP250 T00670044=
200610250942 SPECI KSEA 250942Z 17007KT 10SM BKN023 BKN070 OVC140 07/04 A3025 RMK AO2=
200610250942 SPECI KSEA 250942Z 17007KT 10SM BKN023 BKN070 OVC140 07/04 A3025 RMK AO2=
200610250853 METAR KSEA 250853Z 15006KT 10SM BKN065 OVC140 07/04 A3022 RMK AO2 SLP241 T00670044 53021=
200610250753 METAR KSEA 250753Z 15005KT 10SM SCT070 06/04 A3020 RMK AO2 SLP233 T00560039 401280056=
200610250653 METAR KSEA 250653Z 15006KT 10SM FEW080 06/04 A3017 RMK AO2 SLP223 T00560039=
200610250553 METAR KSEA 250553Z 14008KT 10SM CLR 07/04 A3016 RMK AO2 SLP220 T00670044 10111 20067 52022=
200610250453 METAR KSEA 250453Z 16004KT 10SM CLR 07/04 A3013 RMK AO2 SLP212 T00720044=
200610250353 METAR KSEA 250353Z 21007KT 10SM FEW060 08/06 A3012 RMK AO2 SLP206 T00830056=
200610250253 METAR KSEA 250253Z 22006KT 10SM FEW060 SCT100 09/06 A3009 RMK AO2 SLP198 T00890056 53017=
200610250153 METAR KSEA 250153Z 23010KT 10SM FEW030 SCT060 BKN100 BKN200 10/06 A3007 RMK AO2 SLP190 T01000061=
200610250053 METAR KSEA 250053Z 21008KT 10SM FEW032 SCT060 BKN090 BKN200 11/07 A3005 RMK AO2 SLP183 T01060067=
200610242353 METAR KSEA 242353Z 22010KT 10SM SCT030 BKN065 BKN130 BKN200 11/07 A3004 RMK AO2 SLP180 T01110072 10128 20100 53016=
200610242253 METAR KSEA 242253Z 24012KT 10SM FEW032 SCT041 BKN070 BKN200 11/07 A3002 RMK AO2 SLP173 T01110067=
200610242153 METAR KSEA 242153Z 22011KT 10SM BKN032 BKN075 BKN090 BKN130 11/07 A3000 RMK AO2 SLP167 T01110067=
200610242053 METAR KSEA 242053Z 24010KT 10SM SCT032 BKN050 BKN090 BKN130 12/07 A2999 RMK AO2 SLP164 T01220067 58005=
200610242038 SPECI KSEA 242038Z 24012KT 10SM R16C/5500VP6000FT SCT029 BKN036 BKN050 12/07 A3000 RMK AO2=
200610242038 SPECI KSEA 242038Z 24012KT 10SM R16C/5500VP6000FT SCT029 BKN036 BKN050 12/07 A3000 RMK AO2=
200610241953 METAR KSEA 241953Z 24010KT 10SM FEW022 BKN029 OVC040 12/07 A3000 RMK AO2 SLP166 BINOVC OHD-S T01220072=
200610241944 SPECI KSEA 241944Z 24008KT 10SM FEW022 BKN029 OVC040 12/07 A3000 RMK AO2 BINOVC OHD-S=
200610241944 SPECI KSEA 241944Z 24008KT 10SM FEW022 BKN029 OVC040 12/07 A3000 RMK AO2 BINOVC OHD-S=
200610241919 SPECI KSEA 241919Z 24009KT 10SM FEW020 SCT027 BKN035 BKN200 11/07 A3000 RMK AO2=
200610241919 SPECI KSEA 241919Z 24009KT 10SM FEW020 SCT027 BKN035 BKN200 11/07 A3000 RMK AO2=
200610241853 METAR KSEA 241853Z 25005KT 10SM FEW011 BKN020 BKN027 11/08 A3000 RMK AO2 SLP167 T01060078=
200610241753 METAR KSEA 241753Z 28003KT 10SM SCT011 BKN020 BKN027 10/08 A3001 RMK AO2 SLP169 60003 T01000078 10100 20072 51010=
200610241724 SPECI KSEA 241724Z 25007KT 10SM SCT011 BKN018 BKN023 09/08 A3001 RMK AO2=
200610241724 SPECI KSEA 241724Z 25007KT 10SM SCT011 BKN018 BKN023 09/08 A3001 RMK AO2=
200610241653 METAR KSEA 241653Z 23007KT 10SM SCT010 BKN013 OVC015 09/07 A3001 RMK AO2 SLP168 T00890072=
200610241553 METAR KSEA 241553Z 21005KT 10SM FEW007 BKN011 OVC013 08/07 A3000 RMK AO2 RAE36 SLP165 P0001 T00830072=
200610241453 METAR KSEA 241453Z 21008KT 9SM -RA FEW005 BKN013 OVC019 08/07 A2998 RMK AO2 RAE21B50 SLP158 P0002 60002 T00780067 58002=
200610241426 SPECI KSEA 241426Z 17007KT 6SM BR FEW005 OVC016 07/07 A2997 RMK AO2 RAE21 P0002=
200610241426 SPECI KSEA 241426Z 17007KT 6SM BR FEW005 OVC016 07/07 A2997 RMK AO2 RAE21 P0002=
200610241407 SPECI KSEA 241407Z 18006KT 2 1/2SM -RA BR BKN014 OVC019 07/06 A2997 RMK AO2 P0001=
200610241407 SPECI KSEA 241407Z 18006KT 2 1/2SM -RA BR BKN014 OVC019 07/06 A2997 RMK AO2 P0001=
200610241353 METAR KSEA 241353Z 22004KT 6SM -RA BR SCT019 BKN025 OVC044 07/06 A2998 RMK AO2 RAB30 SLP158 P0000 T00720061=
200610241342 SPECI KSEA 241342Z 21004KT 7SM -RA BKN026 BKN042 OVC080 07/06 A2998 RMK AO2 RAB30 P0000=
200610241342 SPECI KSEA 241342Z 21004KT 7SM -RA BKN026 BKN042 OVC080 07/06 A2998 RMK AO2 RAB30 P0000=
200610241253 METAR KSEA 241253Z 20009KT 10SM FEW020 BKN080 BKN140 08/05 A2998 RMK AO2 SLP160 T00780050=
200610241153 METAR KSEA 241153Z 21011KT 10SM FEW007 SCT140 08/06 A2998 RMK AO2 SLP160 T00780056 10078 20056 56023=
200610241105 SPECI KSEA 241105Z 20012KT 8SM FEW007 SCT009 SCT140 07/06 A3000 RMK AO2=
200610241105 SPECI KSEA 241105Z 20012KT 8SM FEW007 SCT009 SCT140 07/06 A3000 RMK AO2=
200610241100 SPECI KSEA 241100Z 21011KT 8SM SCT007 BKN012 07/06 A3001 RMK AO2=
200610241100 SPECI KSEA 241100Z 21011KT 8SM SCT007 BKN012 07/06 A3001 RMK AO2=
200610241053 METAR KSEA 241053Z 18009KT 8SM FEW012 SCT140 07/06 A3001 RMK AO2 SLP169 T00670056=
200610240953 METAR KSEA 240953Z 14011KT 7SM FEW140 06/05 A3002 RMK AO2 SLP173 T00610050=
200610240853 METAR KSEA 240853Z 13007KT 7SM FEW140 SCT200 06/05 A3005 RMK AO2 SLP184 T00610050 58014=
200610240753 METAR KSEA 240753Z 20003KT 9SM FEW140 SCT200 07/06 A3007 RMK AO2 SLP189 T00670056 401330050=
200610240653 METAR KSEA 240653Z 18004KT 10SM FEW140 SCT200 07/06 A3008 RMK AO2 SLP193 T00720056=
200610240553 METAR KSEA 240553Z 18004KT 10SM FEW200 07/06 A3009 RMK AO2 SLP198 T00720056 10117 20067 58018=
200610240453 METAR KSEA 240453Z 14006KT 10SM FEW220 08/06 A3011 RMK AO2 SLP205 T00830061=
200610240353 METAR KSEA 240353Z 16003KT 10SM SCT220 08/06 A3014 RMK AO2 SLP214 T00780061=
200610240253 METAR KSEA 240253Z 00000KT 10SM FEW160 BKN220 09/07 A3015 RMK AO2 SLP216 T00890072 55004=
200610240153 METAR KSEA 240153Z 00000KT 10SM SCT160 BKN220 09/07 A3014 RMK AO2 SLP216 T00940072=
200610240053 METAR KSEA 240053Z 00000KT 10SM SCT160 BKN220 11/07 A3014 RMK AO2 SLP213 T01060067=
200610232353 METAR KSEA 232353Z 28005KT 10SM SCT160 BKN220 12/07 A3016 RMK AO2 SLP219 T01170072 10133 20072 56020=
200610232253 METAR KSEA 232253Z 31005KT 10SM FEW020 SCT160 BKN220 12/08 A3017 RMK AO2 SLP225 T01220078=
200610232153 METAR KSEA 232153Z 32005KT 10SM FEW020 SCT150 BKN200 13/08 A3019 RMK AO2 SLP230 T01280078=
200610232053 METAR KSEA 232053Z 27006KT 10SM FEW014 BKN200 12/08 A3022 RMK AO2 SLP240 T01170083 58014=
200610232021 SPECI KSEA 232021Z 29003KT 9SM SCT014 BKN200 11/08 A3023 RMK AO2=
200610232021 SPECI KSEA 232021Z 29003KT 9SM SCT014 BKN200 11/08 A3023 RMK AO2=
200610231953 METAR KSEA 231953Z 23003KT 8SM SCT012 BKN014 BKN016 11/08 A3024 RMK AO2 SLP246 T01110078=
200610231853 METAR KSEA 231853Z VRB03KT 8SM FEW007 BKN010 OVC015 09/07 A3025 RMK AO2 SLP249 BINOVC OHD T00890067=
200610231819 SPECI KSEA 231819Z 19004KT 9SM SCT006 BKN012 09/07 A3025 RMK AO2=
200610231819 SPECI KSEA 231819Z 19004KT 9SM SCT006 BKN012 09/07 A3025 RMK AO2=
200610231753 METAR KSEA 231753Z 13004KT 8SM BKN006 OVC012 07/06 A3026 RMK AO2 CIG 004V009 SLP253 BINOVC OHD T00720061 10083 20050 51007=
200610231734 SPECI KSEA 231734Z 13006KT 8SM OVC006 07/06 A3025 RMK AO2 CIG 004V009 BINOVC OHD=
200610231734 SPECI KSEA 231734Z 13006KT 8SM OVC006 07/06 A3025 RMK AO2 CIG 004V009 BINOVC OHD=
200610231653 METAR KSEA 231653Z 13004KT 10SM FEW008 SCT013 07/06 A3025 RMK AO2 SLP252 T00670056=
200610231638 SPECI KSEA 231638Z 15004KT 10SM FEW008 SCT013 07/05 A3025 RMK AO2=
200610231638 SPECI KSEA 231638Z 15004KT 10SM FEW008 SCT013 07/05 A3025 RMK AO2=
200610231603 SPECI KSEA 231603Z 13004KT 10SM FEW006 BKN013 07/06 A3025 RMK AO2=
200610231603 SPECI KSEA 231603Z 13004KT 10SM FEW006 BKN013 07/06 A3025 RMK AO2=
200610231553 METAR KSEA 231553Z 13003KT 9SM FEW006 BKN015 07/06 A3025 RMK AO2 SLP250 T00670056=
200610231541 SPECI KSEA 231541Z 14005KT 8SM FEW006 BKN015 06/05 A3025 RMK AO2=
200610231541 SPECI KSEA 231541Z 14005KT 8SM FEW006 BKN015 06/05 A3025 RMK AO2=
200610231453 METAR KSEA 231453Z 16003KT 10SM FEW001 SCT004 06/04 A3023 RMK AO2 SLP246 T00610044 51009=
200610231426 SPECI KSEA 231426Z 00000KT 7SM FEW001 SCT004 06/05 A3023 RMK AO2=
200610231426 SPECI KSEA 231426Z 00000KT 7SM FEW001 SCT004 06/05 A3023 RMK AO2=
200610231353 METAR KSEA 231353Z 00000KT 4SM BR FEW120 06/06 A3022 RMK AO2 SLP242 T00610056=
200610231253 METAR KSEA 231253Z 00000KT 9SM CLR 06/05 A3022 RMK AO2 SLP241 T00610050=
200610231153 METAR KSEA 231153Z 01003KT 10SM CLR 07/06 A3021 RMK AO2 SLP235 T00720061 10100 20072 51009=
200610231053 METAR KSEA 231053Z 06004KT 10SM CLR 08/06 A3021 RMK AO2 SLP235 T00780061=
200610230953 METAR KSEA 230953Z 07004KT 10SM CLR 07/06 A3019 RMK AO2 SLP231 T00720056=
200610230853 METAR KSEA 230853Z 07005KT 10SM CLR 08/06 A3018 RMK AO2 SLP226 T00830061 51019=
200610230753 METAR KSEA 230753Z 01005KT 10SM CLR 09/06 A3016 RMK AO2 SLP219 T00890061 401830056=
200610230653 METAR KSEA 230653Z 01006KT 10SM FEW120 09/06 A3015 RMK AO2 SLP215 T00940061=
200610230553 METAR KSEA 230553Z 36006KT 10SM FEW120 SCT250 10/06 A3012 RMK AO2 SLP207 T01000061 10178 20100 51014=
200610230453 METAR KSEA 230453Z 01009KT 10SM SCT110 BKN250 11/06 A3012 RMK AO2 SLP205 T01110056=
200610230353 METAR KSEA 230353Z 04014KT 10SM CLR SCT250 12/04 A3010 RMK AO2 SLP199 T01220039=
200610230253 METAR KSEA 230253Z 02007KT 10SM SCT250 13/05 A3008 RMK AO2 SLP194 T01280050 53019=
200610230153 METAR KSEA 230153Z 02008KT 10SM SCT250 13/06 A3006 RMK AO2 SLP185 T01280056=
200610230053 METAR KSEA 230053Z 30008KT 10SM SCT250 13/09 A3004 RMK AO2 SLP180 T01330094=
200610222353 METAR KSEA 222353Z 22003KT 10SM BKN250 18/08 A3003 RMK AO2 SLP174 T01780078 10183 20139 56003=
200610222253 METAR KSEA 222253Z 30005KT 10SM BKN250 18/09 A3003 RMK AO2 SLP175 T01780089=
200610222153 METAR KSEA 222153Z 27005KT 10SM FEW250 18/09 A3003 RMK AO2 SLP174 T01780089=
200610222053 METAR KSEA 222053Z VRB04KT 10SM SCT250 17/06 A3003 RMK AO2 SLP177 T01720061 58008=
200610221953 METAR KSEA 221953Z 28004KT 10SM FEW250 16/07 A3005 RMK AO2 SLP182 T01560072=
200610221853 METAR KSEA 221853Z 28004KT 10SM FEW250 15/09 A3006 RMK AO2 SLP184 T01500094=
200610221753 METAR KSEA 221753Z VRB03KT 10SM FEW005 SCT250 14/09 A3006 RMK AO2 SLP185 T01440089 10144 20056 58001=
200610221653 METAR KSEA 221653Z 00000KT 10SM FEW004 SCT250 12/07 A3007 RMK AO2 SLP188 T01170072=
200610221553 METAR KSEA 221553Z 00000KT 10SM FEW002 SCT250 08/06 A3006 RMK AO2 SLP186 T00830056=
200610221453 METAR KSEA 221453Z 00000KT 10SM FEW002 BKN250 06/06 A3006 RMK AO2 SLP186 T00610056 57000=
200610221450 SPECI KSEA 221450Z 00000KT 10SM FEW002 BKN250 07/05 A3006 RMK AO2=
200610221450 SPECI KSEA 221450Z 00000KT 10SM FEW002 BKN250 07/05 A3006 RMK AO2=
200610221353 METAR KSEA 221353Z 01005KT 9SM SCT250 07/06 A3006 RMK AO2 SLP187 T00670056=
200610221253 METAR KSEA 221253Z 33004KT 9SM CLR 07/06 A3006 RMK AO2 SLP186 T00720056=
200610221153 METAR KSEA 221153Z 01004KT 10SM CLR 08/06 A3006 RMK AO2 SLP186 T00780056 10106 20072 58012=
200610221053 METAR KSEA 221053Z 05006KT 10SM CLR 08/06 A3008 RMK AO2 SLP192 T00830056=
200610220953 METAR KSEA 220953Z 05007KT 10SM CLR 09/05 A3009 RMK AO2 SLP194 T00940050=
200610220853 METAR KSEA 220853Z 05010KT 10SM CLR 10/05 A3009 RMK AO2 SLP197 T01000050 58008=
200610220753 METAR KSEA 220753Z 03010KT 10SM CLR 09/07 A3011 RMK AO2 SLP202 T00940067 401610067=
200610220653 METAR KSEA 220653Z 02009KT 10SM CLR 09/07 A3012 RMK AO2 SLP205 T00940072=
200610220553 METAR KSEA 220553Z 04010KT 10SM CLR 11/08 A3012 RMK AO2 SLP207 T01060078 10161 20100 58008=
200610220453 METAR KSEA 220453Z 02012KT 10SM CLR 10/08 A3013 RMK AO2 SLP211 T01000078=
200610220353 METAR KSEA 220353Z 03012KT 10SM CLR 11/08 A3014 RMK AO2 SLP214 T01110078=
200610220253 METAR KSEA 220253Z 03013KT 10SM FEW200 12/08 A3014 RMK AO2 SLP214 T01220078 56008=
200610220153 METAR KSEA 220153Z 02013KT 10SM FEW200 13/07 A3014 RMK AO2 SLP214 T01280072=
200610220053 METAR KSEA 220053Z 02013KT 10SM SCT200 14/07 A3015 RMK AO2 SLP217 T01390072=
200610212353 METAR KSEA 212353Z 03015KT 10SM FEW200 16/08 A3017 RMK AO2 SLP221 T01610078 10161 20083 56016=
200610212253 METAR KSEA 212253Z 02012KT 10SM FEW200 16/08 A3018 RMK AO2 SLP226 T01610078=
200610212153 METAR KSEA 212153Z 01010KT 10SM FEW200 14/08 A3019 RMK AO2 SLP230 T01440078=
200610212100 METAR KSEA NIL=
200610212000 METAR KSEA NIL=
200610211900 METAR KSEA NIL=
200610211800 METAR KSEA NIL=
200610211728 SPECI KSEA 211728Z 36008KT 11/2 BR BKN002 08/07 A3028 RMK AO2 SFC VIS 2=
200610211728 SPECI KSEA 211728Z 36008KT 11/2 BR BKN002 08/07 A3028 RMK AO2 SFC VIS 2=
200610211653 METAR KSEA 211653Z 04010KT 3 BR BKN002 08/07 A3028 RMK AO2 SLP262 T00830067=
200610211604 SPECI KSEA 211604Z 02007KT 11/2SM BR SCT002 07/07 A3027 RMK A02 SFC VIS 2=
200610211604 SPECI KSEA 211604Z 02007KT 11/2SM BR SCT002 07/07 A3027 RMK A02 SFC VIS 2=
200610211600 METAR KSEA NIL=
200610211557 SPECI KSEA 211557Z 03006KT 1/2SM R16C/P6000FT BR BKN002 07/07 A3027 RMK AO2 SFC VIS 1=
200610211557 SPECI KSEA 211557Z 03006KT 1/2SM R16C/P6000FT BR BKN002 07/07 A3027 RMK AO2 SFC VIS 1=
200610211500 METAR KSEA NIL=
200610211453 METAR KSEA 211453Z 02006KT 1/4SM R16C/1000V1600FT FG VV001 07/07 A3027 RMK AO2 SLP258 T00720072 51003=
200610211400 METAR KSEA NIL=
200610211353 METAR KSEA 211353Z 36008KT 1/4SM R16C/1400V2000FT FG VV001 07/07 A3027 RMK AO2 SLP258 T00720072=
200610211300 METAR KSEA NIL=
200610211200 METAR KSEA NIL=
200610211100 METAR KSEA NIL=
200610211000 METAR KSEA NIL=
200610210900 METAR KSEA NIL=
200610210800 METAR KSEA NIL=
200610210700 METAR KSEA NIL=
200610210600 METAR KSEA NIL=
200610210500 METAR KSEA NIL=
200610210400 METAR KSEA NIL=
200610210300 METAR KSEA NIL=
200610210200 METAR KSEA NIL=
200610210100 METAR KSEA NIL=
200610210000 METAR KSEA NIL=
200610202300 METAR KSEA NIL=
200610202200 METAR KSEA NIL=
200610202053 METAR KSEA 202053Z 34006KT 10SM FEW023 SCT029 BKN032 BKN200 13/07 A3032 RMK AO2 SLP272 T01280072 56003=
200610201953 METAR KSEA 201953Z 02007KT 10SM SCT020 BKN029 BKN033 12/07 A3032 RMK AO2 SLP275 T01220072=
200610201933 SPECI KSEA 201933Z 02008KT 10SM SCT020 BKN029 BKN033 12/07 A3033 RMK AO2=
200610201933 SPECI KSEA 201933Z 02008KT 10SM SCT020 BKN029 BKN033 12/07 A3033 RMK AO2=
200610201853 METAR KSEA 201853Z 30005KT 10SM FEW019 SCT025 BKN033 13/09 A3033 RMK AO2 SLP276 T01330094=
200610201753 METAR KSEA 201753Z 02006KT 10SM BKN019 13/07 A3033 RMK AO2 SLP276 T01280072 10128 20083 51008=
200610201700 METAR KSEA NIL=
200610201653 METAR KSEA 201653Z 36004KT 10SM FEW025 SCT035 BKN043 11/08 A3032 RMK AO2 SLP275 T01110083=
200610201553 METAR KSEA 201553Z 00000KT 10SM FEW025 SCT035 BKN045 10/08 A3031 RMK AO2 SLP271 T01000083=
200610201453 METAR KSEA 201453Z 00000KT 10SM FEW025 SCT035 BKN040 10/07 A3030 RMK AO2 SLP267 T01000072 51014=
200610201353 METAR KSEA 201353Z 16004KT 10SM FEW026 BKN035 BKN055 09/08 A3029 RMK AO2 SLP263 T00940078=
200610201305 SPECI KSEA 201305Z 00000KT 10SM SCT026 BKN039 OVC055 09/07 A3028 RMK AO2=
200610201305 SPECI KSEA 201305Z 00000KT 10SM SCT026 BKN039 OVC055 09/07 A3028 RMK AO2=
200610201253 METAR KSEA 201253Z 13003KT 10SM BKN026 OVC040 09/07 A3028 RMK AO2 SLP259 T00940072=
200610201241 SPECI KSEA 201241Z 00000KT 10SM BKN026 OVC040 09/07 A3027 RMK AO2=
200610201241 SPECI KSEA 201241Z 00000KT 10SM BKN026 OVC040 09/07 A3027 RMK AO2=
200610201153 METAR KSEA 201153Z 13004KT 10SM FEW020 BKN040 BKN065 09/07 A3026 RMK AO2 SLP253 70001 T00890072 10106 20089 51006=
200610201053 METAR KSEA 201053Z 17004KT 10SM SCT016 BKN035 09/08 A3025 RMK AO2 SLP251 T00940078=
200610201046 SPECI KSEA 201046Z 16005KT 10SM SCT016 BKN035 09/08 A3025 RMK AO2=
200610201046 SPECI KSEA 201046Z 16005KT 10SM SCT016 BKN035 09/08 A3025 RMK AO2=
200610200953 METAR KSEA 200953Z 15004KT 10SM BKN016 OVC029 09/08 A3025 RMK AO2 SLP249 T00940078=
200610200853 METAR KSEA 200853Z 16004KT 10SM BKN016 BKN035 09/07 A3024 RMK AO2 SLP247 T00940072 51009=
200610200841 SPECI KSEA 200841Z 15005KT 10SM BKN016 BKN035 09/07 A3024 RMK AO2=
200610200841 SPECI KSEA 200841Z 15005KT 10SM BKN016 BKN035 09/07 A3024 RMK AO2=
200610200817 SPECI KSEA 200817Z 17004KT 10SM FEW015 BKN035 10/07 A3023 RMK AO2=
200610200817 SPECI KSEA 200817Z 17004KT 10SM FEW015 BKN035 10/07 A3023 RMK AO2=
200610200753 METAR KSEA 200753Z 17005KT 10SM SCT015 OVC029 10/08 A3023 RMK AO2 SLP244 T01000078 401500100=
200610200653 METAR KSEA 200653Z 16007KT 10SM BKN015 OVC028 11/08 A3022 RMK AO2 SLP241 T01060078=
200610200553 METAR KSEA 200553Z 19006KT 10SM BKN022 OVC030 11/08 A3021 RMK AO2 SLP237 60000 T01060078 10150 20106 51008=
200610200453 METAR KSEA 200453Z 16007KT 10SM BKN024 BKN028 OVC038 11/09 A3021 RMK AO2 SLP237 T01060089=
200610200353 METAR KSEA 200353Z 23011KT 10SM FEW016 OVC024 11/09 A3020 RMK AO2 SLP235 T01110089=
200610200253 METAR KSEA 200253Z 26003KT 10SM FEW015 BKN022 OVC032 12/10 A3019 RMK AO2 SLP229 60000 T01170100 53019=
200610200229 SPECI KSEA 200229Z 00000KT 10SM BKN015 BKN021 OVC028 12/10 A3017 RMK AO2=
200610200229 SPECI KSEA 200229Z 00000KT 10SM BKN015 BKN021 OVC028 12/10 A3017 RMK AO2=
200610200153 METAR KSEA 200153Z 03009KT 10SM BKN013 OVC021 12/10 A3015 RMK AO2 WSHFT 0049 RAB27E40 SLP216 P0000 T01220100=
200610200109 SPECI KSEA 200109Z 04010KT 10SM BKN013 OVC022 13/11 A3013 RMK AO2 WSHFT 0049=
200610200109 SPECI KSEA 200109Z 04010KT 10SM BKN013 OVC022 13/11 A3013 RMK AO2 WSHFT 0049=
200610200053 METAR KSEA 200053Z 04013KT 10SM SCT010 BKN015 OVC023 14/12 A3013 RMK AO2 SLP209 T01390117=
200610192353 METAR KSEA 192353Z 22012KT 10SM BKN019 BKN023 OVC031 15/13 A3010 RMK AO2 SLP200 60000 T01500128 10150 20133 53000=
200610192253 METAR KSEA 192253Z 22011G17KT 10SM BKN015 OVC030 15/13 A3009 RMK AO2 SLP197 T01500128=
200610192244 SPECI KSEA 192244Z 22010KT 10SM BKN015 OVC030 15/13 A3009 RMK AO2=
200610192244 SPECI KSEA 192244Z 22010KT 10SM BKN015 OVC030 15/13 A3009 RMK AO2=
200610192153 METAR KSEA 192153Z 20007KT 10SM SCT011 BKN013 OVC016 15/13 A3009 RMK AO2 SLP196 T01500128=
200610192111 SPECI KSEA 192111Z 18005KT 10SM SCT009 BKN011 OVC013 15/13 A3010 RMK AO2=
200610192111 SPECI KSEA 192111Z 18005KT 10SM SCT009 BKN011 OVC013 15/13 A3010 RMK AO2=
200610192053 METAR KSEA 192053Z 19008KT 10SM OVC009 14/13 A3010 RMK AO2 RAE01 SLP200 P0000 60000 T01440128 56003=
200610191953 METAR KSEA 191953Z 23008KT 4SM -RA BR SCT007 OVC009 14/13 A3011 RMK AO2 RAB10 SLP201 P0000 T01440128=
200610191853 METAR KSEA 191853Z 22006KT 10SM SCT007 BKN009 OVC011 14/13 A3010 RMK AO2 SLP199 T01390128=
200610191753 METAR KSEA 191753Z 27005KT 10SM SCT007 OVC009 13/12 A3011 RMK AO2 SLP202 60001 T01330122 10133 20111 53012=
200610191653 METAR KSEA 191653Z 21008KT 10SM BKN007 OVC009 13/12 A3008 RMK AO2 SLP194 T01330122=
200610191553 METAR KSEA 191553Z 22006KT 10SM FEW007 BKN009 OVC011 13/12 A3009 RMK AO2 SLP196 T01280117=
200610191537 SPECI KSEA 191537Z 20007KT 10SM FEW007 BKN009 OVC011 13/12 A3008 RMK AO2=
200610191537 SPECI KSEA 191537Z 20007KT 10SM FEW007 BKN009 OVC011 13/12 A3008 RMK AO2=
200610191453 METAR KSEA 191453Z 19008KT 10SM FEW007 SCT009 OVC011 12/12 A3007 RMK AO2 DZE14 SLP190 P0000 60001 T01220117 55005=
200610191435 SPECI KSEA 191435Z 17009KT 10SM FEW007 SCT009 OVC011 12/11 A3006 RMK AO2 DZE14 P0000=
200610191435 SPECI KSEA 191435Z 17009KT 10SM FEW007 SCT009 OVC011 12/11 A3006 RMK AO2 DZE14 P0000=
200610191353 METAR KSEA 191353Z 18011G17KT 9SM -DZ FEW005 SCT007 OVC009 12/11 A3007 RMK AO2 RAE1258DZB52 SLP188 P0000 T01220111=
200610191253 METAR KSEA 191253Z 19009KT 10SM -RA SCT005 BKN007 OVC012 12/11 A3008 RMK AO2 RAE1155B29 SLP191 P0001 T01170111=
200610191153 METAR KSEA 191153Z 18009KT 9SM -RA BKN005 OVC007 12/11 A3009 RMK AO2 SLP195 P0004 60020 70046 T01170111 10117 20106 56013 $=
200610191053 METAR KSEA 191053Z 20007KT 4SM -RA BR SCT003 BKN005 OVC012 11/11 A3010 RMK AO2 DZE49RAB49 SLP198 P0011 T01110111=
200610190953 METAR KSEA 190953Z 18006KT 2SM -DZ BR OVC003 11/11 A3012 RMK AO2 RAE12DZB50 CIG 002V006 SLP205 P0002 T01110111=
200610190853 METAR KSEA 190853Z 17007KT 2 1/2SM -RA BR OVC003 11/11 A3013 RMK AO2 DZE48RAB48 CIG 001V006 SLP208 P0002 60003 T01110106 56010=
200610190753 METAR KSEA 190753Z 17009KT 2 1/2SM -DZ BR FEW002 OVC003 11/11 A3013 RMK AO2 SLP211 P0001 T01110106 401170094=
200610190712 SPECI KSEA 190712Z 18008KT 3SM -DZ BR OVC003 11/11 A3014 RMK AO2 P0001=
200610190712 SPECI KSEA 190712Z 18008KT 3SM -DZ BR OVC003 11/11 A3014 RMK AO2 P0001=
200610190653 METAR KSEA 190653Z 18008KT 3SM -DZ BR FEW003 BKN005 OVC015 11/11 A3015 RMK AO2 DZE22B50RAB22E32 SLP216 P0000 T01060106=
200610190553 METAR KSEA 190553Z 18010KT 4SM -DZ BR FEW003 BKN005 OVC013 11/10 A3016 RMK AO2 RAB14E50DZB53 SLP219 P0001 60006 T01060100 10106 20100 58006=
200610190536 SPECI KSEA 190536Z 17008KT 4SM -RA BR FEW005 BKN013 OVC018 11/10 A3016 RMK AO2 RAB14 P0001=
200610190536 SPECI KSEA 190536Z 17008KT 4SM -RA BR FEW005 BKN013 OVC018 11/10 A3016 RMK AO2 RAB14 P0001=
200610190500 SPECI KSEA 190500Z 17007KT 7SM FEW007 OVC016 11/09 A3017 RMK AO2=
200610190500 SPECI KSEA 190500Z 17007KT 7SM FEW007 OVC016 11/09 A3017 RMK AO2=
200610190453 METAR KSEA 190453Z 18008KT 8SM SCT012 OVC016 11/09 A3017 RMK AO2 RAE39 SLP224 P0002 T01060094=
200610190353 METAR KSEA 190353Z 19006KT 10SM -RA BKN018 OVC040 11/09 A3017 RMK AO2 RAB33 SLP224 P0001 T01060094=
200610190253 METAR KSEA 190253Z 20010KT 10SM BKN020 OVC055 11/09 A3017 RMK AO2 SLP225 60002 T01060089 56010=
200610190226 SPECI KSEA 190226Z 19008KT 10SM SCT018 BKN030 OVC060 11/09 A3017 RMK AO2=
200610190226 SPECI KSEA 190226Z 19008KT 10SM SCT018 BKN030 OVC060 11/09 A3017 RMK AO2=
200610190153 METAR KSEA 190153Z 20008KT 10SM FEW009 BKN018 OVC065 11/09 A3018 RMK AO2 RAE48 SLP226 P0000 T01060089=
200610190103 SPECI KSEA 190103Z 18009KT 5SM -RA BR SCT005 SCT009 OVC018 10/09 A3019 RMK AO2 P0000=
200610190103 SPECI KSEA 190103Z 18009KT 5SM -RA BR SCT005 SCT009 OVC018 10/09 A3019 RMK AO2 P0000=
200610190053 METAR KSEA 190053Z 17008KT 3/4SM -RA BR BKN007 OVC018 10/09 A3019 RMK AO2 SFC VIS 5 CIG 004V011 SLP232 P0002 T01000094=
200610190018 SPECI KSEA 190018Z 17010KT 6SM -RA BR BKN007 BKN013 OVC020 10/09 A3020 RMK AO2 CIG 005V010 P0001=
200610190018 SPECI KSEA 190018Z 17010KT 6SM -RA BR BKN007 BKN013 OVC020 10/09 A3020 RMK AO2 CIG 005V010 P0001=
200610182353 METAR KSEA 182353Z 18009KT 3SM -RA BR SCT008 OVC014 10/09 A3021 RMK AO2 SLP236 P0003 60011 T01000094 10117 20100 58007=
200610182253 METAR KSEA 182253Z 18009KT 5SM -RA BR SCT005 BKN012 OVC023 11/09 A3022 RMK AO2 SLP240 P0006 T01060094=
200610182229 SPECI KSEA 182229Z 19008KT 3SM -RA BR SCT005 BKN012 OVC021 11/10 A3022 RMK AO2 P0004=
200610182229 SPECI KSEA 182229Z 19008KT 3SM -RA BR SCT005 BKN012 OVC021 11/10 A3022 RMK AO2 P0004=
200610182156 SPECI KSEA 182156Z 19011KT 3SM -RA BR FEW007 BKN023 OVC033 11/09 A3022 RMK AO2 P0000=
200610182156 SPECI KSEA 182156Z 19011KT 3SM -RA BR FEW007 BKN023 OVC033 11/09 A3022 RMK AO2 P0000=
200610182153 METAR KSEA 182153Z 19010KT 3SM -RA BR FEW012 BKN025 OVC035 11/09 A3022 RMK AO2 SLP242 P0001 T01060094=
200610182146 SPECI KSEA 182146Z 19009KT 5SM -RA BR FEW012 BKN025 OVC035 11/09 A3023 RMK AO2 P0000=
200610182146 SPECI KSEA 182146Z 19009KT 5SM -RA BR FEW012 BKN025 OVC035 11/09 A3023 RMK AO2 P0000=
200610182053 METAR KSEA 182053Z 21011KT 10SM -RA FEW009 SCT020 OVC060 11/09 A3023 RMK AO2 RAB1959 SLP243 P0000 60001 T01110094 58005=
200610182017 SPECI KSEA 182017Z 21011KT 10SM -RA FEW007 SCT021 OVC065 11/09 A3023 RMK AO2 RAB1959 P0000=
200610182017 SPECI KSEA 182017Z 21011KT 10SM -RA FEW007 SCT021 OVC065 11/09 A3023 RMK AO2 RAB1959 P0000=
200610181953 METAR KSEA 181953Z 21011KT 10SM FEW007 BKN021 OVC070 11/09 A3023 RMK AO2 RAE14 SLP244 P0000 T01110094=
200610181932 SPECI KSEA 181932Z 20008KT 10SM FEW007 BKN021 OVC070 11/09 A3023 RMK AO2 RAE14 P0000=
200610181932 SPECI KSEA 181932Z 20008KT 10SM FEW007 BKN021 OVC070 11/09 A3023 RMK AO2 RAE14 P0000=
200610181911 SPECI KSEA 181911Z 20009KT 10SM -RA SCT021 SCT025 OVC070 11/09 A3023 RMK AO2 P0000=
200610181911 SPECI KSEA 181911Z 20009KT 10SM -RA SCT021 SCT025 OVC070 11/09 A3023 RMK AO2 P0000=
200610181853 METAR KSEA 181853Z 19009KT 8SM -RA FEW007 BKN021 BKN070 OVC130 11/09 A3024 RMK AO2 RAE02B40 SLP248 P0001 T01060094=
200610181847 SPECI KSEA 181847Z 19010KT 9SM -RA FEW007 BKN021 BKN070 OVC130 11/09 A3024 RMK AO2 RAE02B40 P0000=
200610181847 SPECI KSEA 181847Z 19010KT 9SM -RA FEW007 BKN021 BKN070 OVC130 11/09 A3024 RMK AO2 RAE02B40 P0000=
200610181753 METAR KSEA 181753Z 19008KT 9SM -RA FEW007 SCT021 OVC080 10/09 A3025 RMK AO2 SLP250 P0002 60009 T01000089 10106 20094 50002=
200610181745 SPECI KSEA 181745Z 18008KT 7SM -RA FEW007 SCT021 OVC080 10/09 A3025 RMK AO2 P0002=
200610181745 SPECI KSEA 181745Z 18008KT 7SM -RA FEW007 SCT021 OVC080 10/09 A3025 RMK AO2 P0002=
200610181653 METAR KSEA 181653Z 19006KT 8SM -RA FEW006 BKN019 OVC027 10/09 A3026 RMK AO2 SLP253 P0004 T01000089=
200610181553 METAR KSEA 181553Z 18006KT 5SM -RA BR FEW008 BKN025 OVC035 10/09 A3024 RMK AO2 SLP249 P0003 T01000089=
200610181540 SPECI KSEA 181540Z 19007KT 6SM -RA BR FEW008 BKN027 OVC045 10/09 A3024 RMK AO2 P0002=
200610181540 SPECI KSEA 181540Z 19007KT 6SM -RA BR FEW008 BKN027 OVC045 10/09 A3024 RMK AO2 P0002=
200610181453 METAR KSEA 181453Z 16004KT 8SM -RA FEW010 SCT055 OVC080 10/08 A3024 RMK AO2 RAB27 SLP247 P0000 60000 T01000083 50006=
200610181410 SPECI KSEA 181410Z 19005KT 10SM SCT028 BKN040 OVC075 11/08 A3025 RMK AO2=
200610181410 SPECI KSEA 181410Z 19005KT 10SM SCT028 BKN040 OVC075 11/08 A3025 RMK AO2=
200610181353 METAR KSEA 181353Z 22004KT 10SM FEW025 BKN028 OVC038 11/09 A3025 RMK AO2 SLP250 T01060089=
200610181253 METAR KSEA 181253Z 23004KT 10SM BKN025 OVC030 10/09 A3024 RMK AO2 SLP247 T01000089=
200610181153 METAR KSEA 181153Z 19006KT 10SM BKN025 BKN030 OVC039 10/08 A3022 RMK AO2 SLP240 T01000083 10111 20100 58007=
200610181114 SPECI KSEA 181114Z 20005KT 10SM BKN028 OVC040 11/08 A3023 RMK AO2=
200610181114 SPECI KSEA 181114Z 20005KT 10SM BKN028 OVC040 11/08 A3023 RMK AO2=
200610181100 SPECI KSEA 181100Z 19003KT 10SM SCT028 OVC038 10/08 A3023 RMK AO2=
200610181100 SPECI KSEA 181100Z 19003KT 10SM SCT028 OVC038 10/08 A3023 RMK AO2=
200610181053 METAR KSEA 181053Z 19003KT 10SM FEW025 BKN028 OVC038 10/08 A3023 RMK AO2 SLP242 T01000083=
200610181037 SPECI KSEA 181037Z 16007KT 10SM SCT025 BKN028 OVC038 10/08 A3022 RMK AO2=
200610181037 SPECI KSEA 181037Z 16007KT 10SM SCT025 BKN028 OVC038 10/08 A3022 RMK AO2=
200610180953 METAR KSEA 180953Z 13006KT 9SM SCT023 BKN030 OVC040 10/08 A3024 RMK AO2 SLP246 T01000078=
200610180853 METAR KSEA 180853Z 19003KT 10SM FEW023 SCT028 OVC032 10/08 A3024 RMK AO2 SLP247 T01000083 55000=
200610180753 METAR KSEA 180753Z 16005KT 10SM FEW025 SCT040 OVC200 10/08 A3023 RMK AO2 SLP243 T01000078 401560100=
200610180653 METAR KSEA 180653Z 16005KT 10SM FEW028 BKN036 OVC060 11/08 A3023 RMK AO2 SLP244 T01060078=
200610180635 SPECI KSEA 180635Z 16005KT 10SM SCT028 BKN036 OVC060 10/08 A3024 RMK AO2=
200610180635 SPECI KSEA 180635Z 16005KT 10SM SCT028 BKN036 OVC060 10/08 A3024 RMK AO2=
200610180553 METAR KSEA 180553Z 15003KT 10SM BKN028 OVC034 11/08 A3024 RMK AO2 SLP249 T01060078 10139 20100 51011=
200610180549 SPECI KSEA 180549Z 17003KT 10SM BKN028 OVC060 11/08 A3024 RMK AO2=
200610180549 SPECI KSEA 180549Z 17003KT 10SM BKN028 OVC060 11/08 A3024 RMK AO2=
200610180453 METAR KSEA 180453Z 16004KT 10SM SCT035 BKN065 11/07 A3023 RMK AO2 SLP243 T01110072=
200610180353 METAR KSEA 180353Z 15003KT 10SM FEW070 SCT200 11/08 A3021 RMK AO2 SLP238 T01060078=
200610180253 METAR KSEA 180253Z 17005KT 10SM SCT065 SCT200 11/08 A3021 RMK AO2 SLP238 T01110083 51003=
200610180153 METAR KSEA 180153Z 00000KT 10SM BKN065 BKN200 12/08 A3021 RMK AO2 SLP236 T01220083=
200610180053 METAR KSEA 180053Z 24005KT 10SM FEW030 BKN070 BKN200 13/09 A3021 RMK AO2 SLP235 T01330094=
200610172353 METAR KSEA 172353Z 23005KT 10SM FEW027 SCT035 SCT120 BKN200 14/09 A3020 RMK AO2 SLP233 T01390089 10156 20106 53005=
200610172253 METAR KSEA 172253Z 26005KT 10SM SCT027 BKN035 BKN200 15/09 A3020 RMK AO2 SLP232 T01500094=
200610172153 METAR KSEA 172153Z 27005KT 10SM FEW021 SCT026 SCT034 SCT200 15/09 A3019 RMK AO2 SLP230 T01500094=
200610172053 METAR KSEA 172053Z 27003KT 10SM FEW020 SCT035 14/09 A3019 RMK AO2 SLP229 T01440094 53007=
200610171953 METAR KSEA 171953Z 25003KT 10SM FEW015 SCT020 14/10 A3018 RMK AO2 SLP227 T01390100=
200610171853 METAR KSEA 171853Z 29003KT 10SM FEW008 SCT012 13/10 A3017 RMK AO2 SLP223 T01280100=
200610171830 SPECI KSEA 171830Z 30004KT 10SM FEW005 BKN010 BKN014 11/10 A3017 RMK AO2=
200610171830 SPECI KSEA 171830Z 30004KT 10SM FEW005 BKN010 BKN014 11/10 A3017 RMK AO2=
200610171753 METAR KSEA 171753Z 28004KT 8SM SCT006 BKN008 OVC012 11/09 A3016 RMK AO2 SLP222 BINOVC OHD T01060094 10111 20100 53016=
200610171715 SPECI KSEA 171715Z 22004KT 10SM SCT004 BKN006 OVC010 11/10 A3015 RMK AO2 BINOVC OHD=
200610171715 SPECI KSEA 171715Z 22004KT 10SM SCT004 BKN006 OVC010 11/10 A3015 RMK AO2 BINOVC OHD=
200610171653 METAR KSEA 171653Z 26003KT 10SM BKN004 OVC007 11/10 A3014 RMK AO2 SLP215 OCNL BINOVC OHD T01060100=
200610171647 SPECI KSEA 171647Z 24004KT 10SM BKN004 OVC007 11/10 A3014 RMK AO2 OCNL BINOVC OHD=
200610171647 SPECI KSEA 171647Z 24004KT 10SM BKN004 OVC007 11/10 A3014 RMK AO2 OCNL BINOVC OHD=
200610171600 SPECI KSEA 171600Z 00000KT 2SM BR BKN002 OVC005 10/09 A3012 RMK AO2 SFC VIS 6=
200610171600 SPECI KSEA 171600Z 00000KT 2SM BR BKN002 OVC005 10/09 A3012 RMK AO2 SFC VIS 6=
200610171553 METAR KSEA 171553Z 30003KT 1 1/2SM BR FEW001 BKN002 OVC005 10/09 A3012 RMK AO2 SFC VIS 6 SLP206 T01000094=
200610171543 SPECI KSEA 171543Z 30003KT 1 1/2SM BR FEW001 BKN002 OVC005 10/09 A3012 RMK AO2 SFC VIS 6=
200610171543 SPECI KSEA 171543Z 30003KT 1 1/2SM BR FEW001 BKN002 OVC005 10/09 A3012 RMK AO2 SFC VIS 6=
200610171453 METAR KSEA 171453Z 30003KT 1/2SM BR SCT001 OVC002 10/09 A3010 RMK AO2 SFC VIS 2 SLP199 T01000094 51019=
200610171427 SPECI KSEA 171427Z 28003KT 1/2SM BR SCT001 OVC002 10/09 A3009 RMK AO2 SFC VIS 5=
200610171427 SPECI KSEA 171427Z 28003KT 1/2SM BR SCT001 OVC002 10/09 A3009 RMK AO2 SFC VIS 5=
200610171422 SPECI KSEA 171422Z 27003KT 2SM BR BKN002 OVC045 10/09 A3009 RMK AO2 SFC VIS 6=
200610171422 SPECI KSEA 171422Z 27003KT 2SM BR BKN002 OVC045 10/09 A3009 RMK AO2 SFC VIS 6=
200610171353 METAR KSEA 171353Z 00000KT 7SM FEW002 SCT005 BKN043 10/09 A3008 RMK AO2 SLP194 CIG LWR S T01000094=
200610171343 SPECI KSEA 171343Z 00000KT 7SM FEW005 SCT026 OVC043 10/09 A3008 RMK AO2=
200610171343 SPECI KSEA 171343Z 00000KT 7SM FEW005 SCT026 OVC043 10/09 A3008 RMK AO2=
200610171312 SPECI KSEA 171312Z 00000KT 8SM SCT005 BKN026 OVC045 11/09 A3007 RMK AO2=
200610171312 SPECI KSEA 171312Z 00000KT 8SM SCT005 BKN026 OVC045 11/09 A3007 RMK AO2=
200610171253 METAR KSEA 171253Z 00000KT 8SM BKN005 BKN026 OVC045 11/09 A3007 RMK AO2 SLP188 T01060094=
200610171204 SPECI KSEA 171204Z 14004KT 10SM BKN005 BKN029 OVC040 10/09 A3005 RMK AO2=
200610171204 SPECI KSEA 171204Z 14004KT 10SM BKN005 BKN029 OVC040 10/09 A3005 RMK AO2=
200610171153 METAR KSEA 171153Z 15003KT 10SM SCT005 BKN029 OVC040 11/10 A3004 RMK AO2 SLP179 70001 T01060100 10111 20100 51019=
200610171100 SPECI KSEA 171100Z 17003KT 10SM FEW005 BKN027 OVC040 11/09 A3003 RMK AO2=
200610171100 SPECI KSEA 171100Z 17003KT 10SM FEW005 BKN027 OVC040 11/09 A3003 RMK AO2=
200610171053 METAR KSEA 171053Z 00000KT 10SM FEW005 SCT027 OVC040 11/09 A3003 RMK AO2 SLP174 T01060094=
200610171026 SPECI KSEA 171026Z 00000KT 10SM FEW005 SCT027 OVC045 10/09 A3002 RMK AO2=
200610171026 SPECI KSEA 171026Z 00000KT 10SM FEW005 SCT027 OVC045 10/09 A3002 RMK AO2=
200610170953 METAR KSEA 170953Z 00000KT 10SM FEW027 BKN045 OVC100 11/10 A3001 RMK AO2 SLP168 T01060100=
200610170853 METAR KSEA 170853Z 00000KT 10SM SCT027 BKN034 OVC047 11/10 A2998 RMK AO2 SLP160 T01060100 51015=
200610170753 METAR KSEA 170753Z 00000KT 10SM BKN031 OVC045 11/09 A2998 RMK AO2 SLP157 T01110094 401220094=
200610170653 METAR KSEA 170653Z 00000KT 10SM FEW026 OVC044 11/10 A2996 RMK AO2 SLP150 T01060100=
200610170553 METAR KSEA 170553Z 00000KT 10SM OVC046 11/09 A2994 RMK AO2 SLP144 T01060094 10117 20100 51019=
200610170453 METAR KSEA 170453Z 00000KT 10SM BKN048 11/09 A2992 RMK AO2 SLP139 T01060089=
200610170353 METAR KSEA 170353Z 03004KT 10SM FEW030 BKN046 11/08 A2990 RMK AO2 SLP132 T01110083=
200610170253 METAR KSEA 170253Z 00000KT 10SM SCT030 BKN046 11/09 A2988 RMK AO2 SLP126 T01110094 53016=
200610170153 METAR KSEA 170153Z 01004KT 10SM FEW015 SCT036 BKN046 12/08 A2986 RMK AO2 SLP117 T01170083=
200610170053 METAR KSEA 170053Z 35007KT 10SM FEW012 BKN045 12/09 A2985 RMK AO2 SLP113 T01170089=
200610162353 METAR KSEA 162353Z 35007KT 10SM SCT012 BKN036 OVC044 12/09 A2984 RMK AO2 SLP109 BINOVC W 60000 T01170094 10122 20111 53018=
200610162253 METAR KSEA 162253Z 32004KT 10SM SCT009 BKN015 OVC040 12/10 A2982 RMK AO2 RAB2158E25 SLP102 BINOVC P0000 T01170100=
200610162235 SPECI KSEA 162235Z 31004KT 10SM SCT015 BKN022 OVC038 11/10 A2981 RMK AO2 RAB2158E25 P0000=
200610162235 SPECI KSEA 162235Z 31004KT 10SM SCT015 BKN022 OVC038 11/10 A2981 RMK AO2 RAB2158E25 P0000=
200610162211 SPECI KSEA 162211Z 32005KT 3SM R16C/6000VP6000FT -RA BKN015 OVC030 12/09 A2980 RMK AO2 RAB2158 P0000=
200610162211 SPECI KSEA 162211Z 32005KT 3SM R16C/6000VP6000FT -RA BKN015 OVC030 12/09 A2980 RMK AO2 RAB2158 P0000=
200610162153 METAR KSEA 162153Z 00000KT 10SM FEW014 BKN019 OVC032 12/09 A2979 RMK AO2 SLP095 T01170089=
200610162053 METAR KSEA 162053Z 27003KT 10SM FEW015 BKN030 OVC034 12/09 A2978 RMK AO2 SLP091 BINOVC SW RAB00E07 P0000 60000 T01170089 51016 $=
200610162041 SPECI KSEA 162041Z 25004KT 10SM FEW015 BKN030 OVC034 12/09 A2978 RMK AO2 BINOVC SW RAB00E07 P0000 $=
200610162041 SPECI KSEA 162041Z 25004KT 10SM FEW015 BKN030 OVC034 12/09 A2978 RMK AO2 BINOVC SW RAB00E07 P0000 $=
200610162006 SPECI KSEA 162006Z 27004KT 6SM -RA BR SCT018 BKN028 OVC034 11/10 A2978 RMK AO2 RAB00 P0000=
200610162006 SPECI KSEA 162006Z 27004KT 6SM -RA BR SCT018 BKN028 OVC034 11/10 A2978 RMK AO2 RAB00 P0000=
200610161953 METAR KSEA 161953Z 25004KT 10SM FEW018 SCT026 OVC034 12/09 A2978 RMK AO2 RAB05E41 SLP089 P0000 T01170094=
200610161921 SPECI KSEA 161921Z 26004KT 10SM FEW009 SCT018 OVC036 12/09 A2976 RMK AO2 RAB05E17 P0000=
200610161921 SPECI KSEA 161921Z 26004KT 10SM FEW009 SCT018 OVC036 12/09 A2976 RMK AO2 RAB05E17 P0000=
200610161853 METAR KSEA 161853Z 24005KT 10SM FEW009 SCT014 OVC022 12/09 A2975 RMK AO2 SLP081 T01170094=
200610161753 METAR KSEA 161753Z 24005KT 10SM SCT008 BKN012 OVC020 11/09 A2973 RMK AO2 RAB05E14 SLP075 BINOVC W P0000 60001 T01110089 10111 20094 51020=
200610161732 SPECI KSEA 161732Z 26003KT 10SM SCT008 BKN012 OVC020 11/09 A2973 RMK AO2 RAB05E14 P0000=
200610161732 SPECI KSEA 161732Z 26003KT 10SM SCT008 BKN012 OVC020 11/09 A2973 RMK AO2 RAB05E14 P0000=
200610161653 METAR KSEA 161653Z 25005KT 10SM BKN008 BKN012 OVC030 11/09 A2972 RMK AO2 RAE1558 SLP069 BINOVC W P0000 T01060089=
200610161615 SPECI KSEA 161615Z 26005KT 10SM BKN008 BKN012 OVC034 10/09 A2970 RMK AO2 RAE1558 BINOVC W P0000=
200610161615 SPECI KSEA 161615Z 26005KT 10SM BKN008 BKN012 OVC034 10/09 A2970 RMK AO2 RAE1558 BINOVC W P0000=
200610161553 METAR KSEA 161553Z 23005KT 10SM -RA SCT008 BKN012 OVC034 10/09 A2969 RMK AO2 RAB41 SLP062 BINOVC W P0001 T01000089=
200610161520 SPECI KSEA 161520Z 20004KT 10SM SCT008 BKN015 OVC034 09/08 A2968 RMK AO2=
200610161520 SPECI KSEA 161520Z 20004KT 10SM SCT008 BKN015 OVC034 09/08 A2968 RMK AO2=
200610161453 METAR KSEA 161453Z 20004KT 10SM BKN006 BKN015 OVC036 10/09 A2967 RMK AO2 SLP054 BINOVC SW 60000 T01000089 51020=
200610161438 SPECI KSEA 161438Z 23005KT 10SM BKN008 BKN017 OVC065 10/09 A2967 RMK AO2 CIG 005V014=
200610161438 SPECI KSEA 161438Z 23005KT 10SM BKN008 BKN017 OVC065 10/09 A2967 RMK AO2 CIG 005V014=
200610161401 SPECI KSEA 161401Z 21006KT 10SM FEW008 SCT013 OVC023 09/09 A2966 RMK AO2=
200610161401 SPECI KSEA 161401Z 21006KT 10SM FEW008 SCT013 OVC023 09/09 A2966 RMK AO2=
200610161353 METAR KSEA 161353Z 22005KT 10SM FEW008 BKN013 OVC023 10/09 A2966 RMK AO2 RAB00E45 SLP048 P0000 T01000089=
200610161323 SPECI KSEA 161323Z 22006KT 10SM -RA FEW004 BKN008 OVC013 10/09 A2965 RMK AO2 RAB00 P0000=
200610161323 SPECI KSEA 161323Z 22006KT 10SM -RA FEW004 BKN008 OVC013 10/09 A2965 RMK AO2 RAB00 P0000=
200610161253 METAR KSEA 161253Z 22006KT 10SM SCT004 SCT011 BKN016 10/09 A2964 RMK AO2 SLP041 T01000089=
200610161153 METAR KSEA 161153Z 20008KT 10SM FEW009 BKN014 BKN025 10/08 A2961 RMK AO2 RAB04E28 SLP034 P0000 60000 70038 T01000083 10111 20100 51010=
200610161053 METAR KSEA 161053Z 22008KT 10SM BKN009 OVC015 10/08 A2961 RMK AO2 SLP032 T01000083=
200610160953 METAR KSEA 160953Z 20009KT 10SM SCT003 BKN009 OVC015 10/08 A2959 RMK AO2 SLP026 T01000083=
200610160934 SPECI KSEA 160934Z 19010KT 10SM FEW009 BKN018 BKN055 10/08 A2959 RMK AO2=
200610160934 SPECI KSEA 160934Z 19010KT 10SM FEW009 BKN018 BKN055 10/08 A2959 RMK AO2=
200610160853 METAR KSEA 160853Z 20010KT 10SM FEW002 SCT010 SCT050 10/08 A2958 RMK AO2 SLP023 60000 T01000083 53004=
200610160819 SPECI KSEA 160819Z 21012KT 10SM FEW003 SCT013 BKN050 10/08 A2958 RMK AO2=
200610160819 SPECI KSEA 160819Z 21012KT 10SM FEW003 SCT013 BKN050 10/08 A2958 RMK AO2=
200610160753 METAR KSEA 160753Z 20012KT 10SM SCT003 BKN016 OVC050 10/09 A2958 RMK AO2 RAE01 SLP022 P0000 T01000089 401280094=
200610160715 SPECI KSEA 160715Z 21010KT 10SM FEW004 BKN016 OVC024 11/09 A2957 RMK AO2 RAE01 P0000=
200610160715 SPECI KSEA 160715Z 21010KT 10SM FEW004 BKN016 OVC024 11/09 A2957 RMK AO2 RAE01 P0000=
200610160653 METAR KSEA 160653Z 21012KT 10SM -RA SCT004 OVC013 11/09 A2957 RMK AO2 RAB49 SLP020 P0000 T01110089=
200610160558 SPECI KSEA 160558Z 20011KT 10SM BKN013 BKN015 OVC019 11/09 A2957 RMK AO2=
200610160558 SPECI KSEA 160558Z 20011KT 10SM BKN013 BKN015 OVC019 11/09 A2957 RMK AO2=
200610160553 METAR KSEA 160553Z 20009KT 10SM SCT013 BKN015 OVC019 11/09 A2957 RMK AO2 SLP019 T01110094 10128 20111 51008=
200610160453 METAR KSEA 160453Z 21011KT 10SM BKN015 OVC021 11/09 A2956 RMK AO2 SLP018 T01110094=
200610160353 METAR KSEA 160353Z 19012KT 10SM SCT012 BKN015 OVC022 11/09 A2956 RMK AO2 SLP016 T01110094=
200610160253 METAR KSEA 160253Z 21012G22KT 10SM BKN016 BKN019 OVC065 12/09 A2955 RMK AO2 SLP011 T01170094 51009=
200610160153 METAR KSEA 160153Z 21012KT 10SM BKN017 BKN023 BKN050 12/09 A2954 RMK AO2 SLP010 T01170094=
200610160053 METAR KSEA 160053Z 22015G22KT 10SM BKN021 BKN050 12/09 A2953 RMK AO2 SLP005 T01220094=
200610152353 METAR KSEA 152353Z 20012KT 10SM FEW012 BKN018 BKN025 BKN140 12/10 A2952 RMK AO2 RAE17 SLP002 P0000 60020 T01220100 10122 20100 56009=
200610152320 SPECI KSEA 152320Z 21015KT 7SM FEW010 BKN015 BKN020 BKN140 12/11 A2952 RMK AO2 RAE17 P0000=
200610152320 SPECI KSEA 152320Z 21015KT 7SM FEW010 BKN015 BKN020 BKN140 12/11 A2952 RMK AO2 RAE17 P0000=
200610152302 SPECI KSEA 152302Z 21014KT 7SM -RA FEW008 OVC014 12/11 A2952 RMK AO2 P0000=
200610152302 SPECI KSEA 152302Z 21014KT 7SM -RA FEW008 OVC014 12/11 A2952 RMK AO2 P0000=
200610152253 METAR KSEA 152253Z 21012KT 6SM -RA BR FEW008 OVC016 12/11 A2952 RMK AO2 RAB45 SLP002 P0000 T01220106=
200610152209 SPECI KSEA 152209Z 19008KT 7SM FEW007 SCT014 OVC027 12/11 A2952 RMK AO2=
200610152209 SPECI KSEA 152209Z 19008KT 7SM FEW007 SCT014 OVC027 12/11 A2952 RMK AO2=
200610152153 METAR KSEA 152153Z 19009KT 7SM SCT007 BKN014 OVC024 12/11 A2953 RMK AO2 SLP006 T01170106=
200610152142 SPECI KSEA 152142Z 20007KT 7SM SCT007 BKN014 OVC024 12/11 A2954 RMK AO2=
200610152142 SPECI KSEA 152142Z 20007KT 7SM SCT007 BKN014 OVC024 12/11 A2954 RMK AO2=
200610152053 METAR KSEA 152053Z 18007KT 7SM FEW006 OVC024 12/11 A2955 RMK AO2 RAE1954 SLP013 60020 T01170106 58022=
200610151953 METAR KSEA 151953Z 14009KT 6SM -RA BR FEW005 BKN028 OVC035 11/10 A2957 RMK AO2 SLP019 BINOVC N P0008 T01110100=
200610151905 SPECI KSEA 151905Z 20004KT 3SM RA BR FEW008 OVC024 10/10 A2960 RMK AO2 P0002=
200610151905 SPECI KSEA 151905Z 20004KT 3SM RA BR FEW008 OVC024 10/10 A2960 RMK AO2 P0002=
200610151853 METAR KSEA 151853Z 19004KT 2 1/2SM RA BR FEW007 OVC024 10/09 A2960 RMK AO2 TWR VIS 3 SLP031 P0012 T01000094=
200610151832 SPECI KSEA 151832Z 15006KT 2 1/2SM RA BR FEW007 OVC023 10/09 A2960 RMK AO2 TWR VIS 3 P0006=
200610151832 SPECI KSEA 151832Z 15006KT 2 1/2SM RA BR FEW007 OVC023 10/09 A2960 RMK AO2 TWR VIS 3 P0006=
200610151753 METAR KSEA 151753Z 13008KT 3SM -RA BR FEW006 BKN026 OVC035 11/09 A2961 RMK AO2 SLP035 P0003 60018 T01060094 10106 20094 58018=
200610151653 METAR KSEA 151653Z 13007KT 4SM -RA BR SCT006 OVC022 10/09 A2965 RMK AO2 SLP046 P0005 T01000094=
200610151645 SPECI KSEA 151645Z 14008KT 4SM -RA BR SCT006 OVC022 10/09 A2965 RMK AO2 P0004=
200610151645 SPECI KSEA 151645Z 14008KT 4SM -RA BR SCT006 OVC022 10/09 A2965 RMK AO2 P0004=
200610151625 SPECI KSEA 151625Z 14008KT 4SM -RA BR BKN006 OVC022 10/09 A2966 RMK AO2 P0003=
200610151625 SPECI KSEA 151625Z 14008KT 4SM -RA BR BKN006 OVC022 10/09 A2966 RMK AO2 P0003=
200610151553 METAR KSEA 151553Z 17007KT 4SM -RA BR FEW008 OVC024 10/09 A2966 RMK AO2 SLP052 P0009 T01000089=
200610151512 SPECI KSEA 151512Z 18005KT 4SM RA BR FEW008 OVC024 10/09 A2967 RMK AO2 P0003=
200610151512 SPECI KSEA 151512Z 18005KT 4SM RA BR FEW008 OVC024 10/09 A2967 RMK AO2 P0003=
200610151453 METAR KSEA 151453Z 17007KT 5SM -RA BR FEW005 OVC030 10/09 A2967 RMK AO2 RAB33 SLP053 P0001 60001 T01000089 58013=
200610151353 METAR KSEA 151353Z 17005KT 10SM FEW003 OVC034 09/09 A2969 RMK AO2 SLP059 T00940089=
200610151335 SPECI KSEA 151335Z 19006KT 10SM FEW003 SCT009 OVC034 10/09 A2969 RMK AO2=
200610151335 SPECI KSEA 151335Z 19006KT 10SM FEW003 SCT009 OVC034 10/09 A2969 RMK AO2=
200610151253 METAR KSEA 151253Z 21006KT 10SM FEW003 BKN009 OVC031 09/09 A2970 RMK AO2 RAE00 SLP062 P0000 T00940089 $=
200610151153 METAR KSEA 151153Z 23007KT 3SM -RA BR BKN005 OVC022 09/09 A2971 RMK AO2 RAB44 CIG 002V007 SLP067 P0000 60009 70009 T00940094 10100 20094 58020=
200610151053 METAR KSEA 151053Z 15004KT 7SM FEW008 OVC018 09/09 A2973 RMK AO2 RAE18 SLP073 P0002 T00940089=
200610151021 SPECI KSEA 151021Z 14009KT 7SM FEW008 OVC014 09/09 A2974 RMK AO2 RAE18 P0002=
200610151021 SPECI KSEA 151021Z 14009KT 7SM FEW008 OVC014 09/09 A2974 RMK AO2 RAE18 P0002=
200610150953 METAR KSEA 150953Z 15006KT 6SM -RA BR OVC006 09/09 A2976 RMK AO2 CIG 005V009 SLP085 P0001 T00940089=
200610150853 METAR KSEA 150853Z 16010KT 8SM -RA OVC006 09/09 A2977 RMK AO2 CIG 005V009 SLP087 P0002 60006 T00940089 58016=
200610150816 SPECI KSEA 150816Z 17007KT 7SM -RA OVC007 09/09 A2979 RMK AO2 CIG 005V010 P0001=
200610150816 SPECI KSEA 150816Z 17007KT 7SM -RA OVC007 09/09 A2979 RMK AO2 CIG 005V010 P0001=
200610150753 METAR KSEA 150753Z 19006KT 10SM -RA SCT004 SCT009 OVC012 09/09 A2979 RMK AO2 RAE08B47 SLP096 P0000 T00940089 401060083=
200610150653 METAR KSEA 150653Z 18006KT 10SM -RA FEW004 BKN012 OVC016 09/08 A2980 RMK AO2 SLP099 P0004 T00940083=
200610150553 METAR KSEA 150553Z 18004KT 10SM -RA FEW004 SCT006 OVC010 10/08 A2982 RMK AO2 RAE10B50 SLP104 P0000 60000 T01000083 10100 20100 53003=
200610150453 METAR KSEA 150453Z 24011KT 7SM -RA SCT004 BKN006 OVC010 10/08 A2981 RMK AO2 RAB47 PRESRR SLP103 P0000 T01000083=
200610150353 METAR KSEA 150353Z 23008KT 6SM BR BKN004 OVC006 10/08 A2980 RMK AO2 SLP096 T01000083=
200610150253 METAR KSEA 150253Z 21006KT 3SM BR FEW003 OVC004 10/08 A2981 RMK AO2 SFC VIS 5 SLP101 T01000083 56004=
200610150153 METAR KSEA 150153Z 22007KT 3SM BR SCT003 OVC004 10/09 A2981 RMK AO2 SFC VIS 4 SLP103 T01000089=
200610150053 METAR KSEA 150053Z 19007KT 3SM BR FEW002 OVC004 10/08 A2981 RMK AO2 SFC VIS 4 SLP102 T01000083=
200610142353 METAR KSEA 142353Z 23004KT 3SM BR SCT002 OVC004 10/08 A2982 RMK AO2 SFC VIS 4 SLP105 T01000083 10106 20089 56007=
200610142253 METAR KSEA 142253Z 24005KT 1 1/2SM BR BKN002 OVC004 11/09 A2982 RMK AO2 SFC VIS 2 SLP106 T01060089=
200610142247 SPECI KSEA 142247Z 00000KT 1 1/2SM BR OVC002 10/09 A2982 RMK AO2 SFC VIS 2=
200610142247 SPECI KSEA 142247Z 00000KT 1 1/2SM BR OVC002 10/09 A2982 RMK AO2 SFC VIS 2=
200610142153 METAR KSEA 142153Z VRB03KT 1/2SM R16C/P6000FT FG OVC002 09/09 A2984 RMK AO2 SFC VIS 1 SLP111 T00940089=
200610142053 METAR KSEA 142053Z 17006KT 1/2SM R16C/P6000FT FG OVC002 09/09 A2986 RMK AO2 SFC VIS 3/4 SLP120 T00940089 58005=
200610142045 SPECI KSEA 142045Z 18008KT 1/2SM R16C/P6000FT FG OVC001 09/09 A2987 RMK AO2 SFC VIS 3/4=
200610142045 SPECI KSEA 142045Z 18008KT 1/2SM R16C/P6000FT FG OVC001 09/09 A2987 RMK AO2 SFC VIS 3/4=
200610141953 METAR KSEA 141953Z 19005KT 1/4SM R16C/1600V4500FT FG OVC001 09/09 A2989 RMK AO2 SFC VIS 1/2 SLP129 T00890089=
200610141924 SPECI KSEA 141924Z 20006KT 1/4SM R16C/2200V5500FT FG OVC001 09/09 A2990 RMK AO2 SFC VIS 1/2=
200610141924 SPECI KSEA 141924Z 20006KT 1/4SM R16C/2200V5500FT FG OVC001 09/09 A2990 RMK AO2 SFC VIS 1/2=
200610141853 METAR KSEA 141853Z 26006KT 1/4SM R16C/1400V2200FT FG OVC001 09/09 A2989 RMK AO2 SLP127 T00940094=
200610141753 METAR KSEA 141753Z 23005KT 1/4SM R16C/0800V1200FT FG VV001 09/09 A2988 RMK AO2 SLP125 T00890089 10094 20083 56002=
200610141653 METAR KSEA 141653Z 17005KT 1/4SM R16C/1200V1800FT FG VV001 09/09 A2988 RMK AO2 SLP126 T00890089=
200610141627 SPECI KSEA 141627Z 19005KT 1/4SM R16C/0800FT FG VV001 09/09 A2988 RMK AO2=
200610141627 SPECI KSEA 141627Z 19005KT 1/4SM R16C/0800FT FG VV001 09/09 A2988 RMK AO2=
200610141622 SPECI KSEA 141622Z 20003KT 1/4SM R16C/0800V3000FT FG VV001 09/09 A2988 RMK AO2=
200610141622 SPECI KSEA 141622Z 20003KT 1/4SM R16C/0800V3000FT FG VV001 09/09 A2988 RMK AO2=
200610141553 METAR KSEA 141553Z 21004KT 1/4SM R16C/0800V1200FT FG VV001 09/09 A2988 RMK AO2 SLP125 T00890089=
200610141534 SPECI KSEA 141534Z 22005KT 1/4SM R16C/1400V1800FT FG VV001 09/09 A2988 RMK AO2=
200610141534 SPECI KSEA 141534Z 22005KT 1/4SM R16C/1400V1800FT FG VV001 09/09 A2988 RMK AO2=
200610141526 SPECI KSEA 141526Z 27003KT 1/4SM R16C/1600V2400FT FG VV001 09/09 A2988 RMK AO2=
200610141526 SPECI KSEA 141526Z 27003KT 1/4SM R16C/1600V2400FT FG VV001 09/09 A2988 RMK AO2=
200610141453 METAR KSEA 141453Z 26003KT 1/4SM R16C/1400V1800FT FG VV001 09/09 A2989 RMK AO2 SLP127 T00890089 53003=
200610141442 SPECI KSEA 141442Z 00000KT 1/4SM R16C/1600V5000FT FG VV001 09/08 A2988 RMK AO2 SFC VIS 1/2=
200610141442 SPECI KSEA 141442Z 00000KT 1/4SM R16C/1600V5000FT FG VV001 09/08 A2988 RMK AO2 SFC VIS 1/2=
200610141353 METAR KSEA 141353Z 25005KT 1/4SM R16C/1600V2000FT FG VV001 09/09 A2987 RMK AO2 SLP122 T00890089=
200610141335 SPECI KSEA 141335Z 29005KT 1/4SM R16C/1600V1800FT FG VV001 09/09 A2988 RMK AO2=
200610141335 SPECI KSEA 141335Z 29005KT 1/4SM R16C/1600V1800FT FG VV001 09/09 A2988 RMK AO2=
200610141253 METAR KSEA 141253Z 00000KT 1/2SM R16C/1600V3500FT FG VV001 09/09 A2987 RMK AO2 SLP122 T00890089=
200610141153 METAR KSEA 141153Z 03003KT 1/4SM R16C/1000V1600FT FG VV001 08/08 A2988 RMK AO2 SLP123 T00830083 10100 20083 51007=
200610141053 METAR KSEA 141053Z 00000KT 1/4SM R16C/0800V1000FT FG OVC001 09/08 A2988 RMK AO2 SLP123 T00890083=
200610140953 METAR KSEA 140953Z 28007KT 1/4SM R16C/0800V1000FT FG OVC001 09/09 A2988 RMK AO2 SLP124 T00940089=
200610140853 METAR KSEA 140853Z 00000KT 1/4SM R16C/0800V1000FT FG OVC001 09/09 A2986 RMK AO2 SLP116 T00890089 58005=
200610140837 SPECI KSEA 140837Z 00000KT 1/4SM R16C/0700V0800FT FG OVC001 09/09 A2986 RMK AO2=
200610140837 SPECI KSEA 140837Z 00000KT 1/4SM R16C/0700V0800FT FG OVC001 09/09 A2986 RMK AO2=
200610140822 SPECI KSEA 140822Z 00000KT M1/4SM R16C/0700V0800FT FG OVC001 09/09 A2986 RMK AO2=
200610140822 SPECI KSEA 140822Z 00000KT M1/4SM R16C/0700V0800FT FG OVC001 09/09 A2986 RMK AO2=
200610140753 METAR KSEA 140753Z 31003KT 1/4SM R16C/0800V1000FT FG OVC001 09/09 A2986 RMK AO2 SLP119 T00890089 401830083=
200610140716 SPECI KSEA 140716Z 00000KT 1/2SM R16C/1200V2000FT FG VV001 09/09 A2986 RMK AO2=
200610140716 SPECI KSEA 140716Z 00000KT 1/2SM R16C/1200V2000FT FG VV001 09/09 A2986 RMK AO2=
200610140712 SPECI KSEA 140712Z 00000KT 1SM R16C/1400VP6000FT BR VV001 09/09 A2987 RMK AO2=
200610140712 SPECI KSEA 140712Z 00000KT 1SM R16C/1400VP6000FT BR VV001 09/09 A2987 RMK AO2=
200610140710 SPECI KSEA 140710Z 00000KT 1 3/4SM R16C/1400VP6000FT BR FEW001 09/09 A2987 RMK AO2=
200610140710 SPECI KSEA 140710Z 00000KT 1 3/4SM R16C/1400VP6000FT BR FEW001 09/09 A2987 RMK AO2=
200610140653 METAR KSEA 140653Z 00000KT 4SM BR SCT200 09/08 A2987 RMK AO2 SLP121 T00890083=
200610140553 METAR KSEA 140553Z 31005KT 7SM CLR 10/09 A2987 RMK AO2 SLP121 T01000089 10178 20100 51007=
200610140453 METAR KSEA 140453Z 31004KT 9SM CLR 11/08 A2986 RMK AO2 SLP119 T01060083=
200610140353 METAR KSEA 140353Z 36004KT 10SM CLR 12/09 A2986 RMK AO2 SLP117 T01170089=
200610140253 METAR KSEA 140253Z 29003KT 10SM FEW200 11/09 A2985 RMK AO2 SLP115 T01110094 53001=
200610140153 METAR KSEA 140153Z 30003KT 10SM SCT200 13/09 A2984 RMK AO2 SLP109 T01280094=
200610140053 METAR KSEA 140053Z 36004KT 10SM SCT200 16/08 A2984 RMK AO2 SLP110 T01610078=
200610132353 METAR KSEA 132353Z 01006KT 10SM SCT200 17/08 A2985 RMK AO2 SLP112 T01720078 10183 20133 56005=
200610132253 METAR KSEA 132253Z VRB05KT 10SM SCT200 18/08 A2985 RMK AO2 SLP112 T01830083=
200610132153 METAR KSEA 132153Z 30009KT 10SM FEW200 18/09 A2985 RMK AO2 SLP114 T01830089=
200610132053 METAR KSEA 132053Z 30009KT 10SM FEW200 17/09 A2986 RMK AO2 SLP117 T01720094 58009=
200610131953 METAR KSEA 131953Z 29007KT 9SM FEW200 16/10 A2987 RMK AO2 SLP122 T01610100=
200610131853 METAR KSEA 131853Z 31004KT 7SM FEW010 SCT200 14/10 A2988 RMK AO2 SLP125 T01440100=
200610131753 METAR KSEA 131753Z 00000KT 6SM HZ FEW008 13/10 A2989 RMK AO2 SLP127 T01330100 10139 20083 51006=
200610131653 METAR KSEA 131653Z 00000KT 2SM BR FEW003 SCT006 12/10 A2989 RMK AO2 SFC VIS 5 SLP127 T01170100=
200610131633 SPECI KSEA 131633Z 30004KT 2SM BR FEW002 SCT004 11/10 A2989 RMK AO2 SFC VIS 5=
200610131633 SPECI KSEA 131633Z 30004KT 2SM BR FEW002 SCT004 11/10 A2989 RMK AO2 SFC VIS 5=
200610131620 SPECI KSEA 131620Z 00000KT 1 1/4SM BR FEW002 SCT004 11/09 A2989 RMK AO2 SFC VIS 3=
200610131620 SPECI KSEA 131620Z 00000KT 1 1/4SM BR FEW002 SCT004 11/09 A2989 RMK AO2 SFC VIS 3=
200610131605 SPECI KSEA 131605Z 00000KT 1 1/4SM BR SCT002 BKN004 11/09 A2989 RMK AO2 SFC VIS 2=
200610131605 SPECI KSEA 131605Z 00000KT 1 1/4SM BR SCT002 BKN004 11/09 A2989 RMK AO2 SFC VIS 2=
200610131553 METAR KSEA 131553Z 33003KT M1/4SM R16C/4000VP6000FT FG BKN002 11/09 A2988 RMK AO2 SFC VIS 1/2 SLP125 T01060094=
200610131539 SPECI KSEA 131539Z 33003KT M1/4SM R16C/1000VP6000FT FG BKN002 10/09 A2988 RMK AO2 SFC VIS 1/2 VIS E-SE 3=
200610131539 SPECI KSEA 131539Z 33003KT M1/4SM R16C/1000VP6000FT FG BKN002 10/09 A2988 RMK AO2 SFC VIS 1/2 VIS E-SE 3=
200610131537 SPECI KSEA 131537Z 00000KT 1/2SM R16C/0700VP6000FT FG BKN002 10/09 A2988 RMK AO2 TWR VIS 3 VIS E-SE 3=
200610131537 SPECI KSEA 131537Z 00000KT 1/2SM R16C/0700VP6000FT FG BKN002 10/09 A2988 RMK AO2 TWR VIS 3 VIS E-SE 3=
200610131516 SPECI KSEA 131516Z 00000KT 3SM BR SCT002 BKN003 09/08 A2987 RMK AO2 VIS NW 2=
200610131516 SPECI KSEA 131516Z 00000KT 3SM BR SCT002 BKN003 09/08 A2987 RMK AO2 VIS NW 2=
200610131459 SPECI KSEA 131459Z 00000KT 3SM BR FEW002 08/08 A2987 RMK AO2 VIS NW 2=
200610131459 SPECI KSEA 131459Z 00000KT 3SM BR FEW002 08/08 A2987 RMK AO2 VIS NW 2=
200610131455 SPECI KSEA 131455Z 23003KT 1 1/2SM R16C/3500VP6000FT BR SCT002 08/08 A2987 RMK AO2 TWR VIS 3=
200610131455 SPECI KSEA 131455Z 23003KT 1 1/2SM R16C/3500VP6000FT BR SCT002 08/08 A2987 RMK AO2 TWR VIS 3=
200610131453 METAR KSEA 131453Z 00000KT 1SM R16C/3500VP6000FT BR SCT002 08/08 A2987 RMK AO2 TWR VIS 3 SLP120 T00830078 50007=
200610131424 SPECI KSEA 131424Z 13004KT 1/4SM R16C/4000VP6000FT BR BKN002 09/08 A2987 RMK AO2 SFC VIS 4=
200610131424 SPECI KSEA 131424Z 13004KT 1/4SM R16C/4000VP6000FT BR BKN002 09/08 A2987 RMK AO2 SFC VIS 4=
200610131419 SPECI KSEA 131419Z 13004KT 1SM BR SCT002 09/08 A2987 RMK AO2 SFC VIS 4=
200610131419 SPECI KSEA 131419Z 13004KT 1SM BR SCT002 09/08 A2987 RMK AO2 SFC VIS 4=
200610131353 METAR KSEA 131353Z 00000KT 6SM BR FEW005 09/07 A2987 RMK AO2 SLP121 T00890072=
200610131342 SPECI KSEA 131342Z 00000KT 6SM BR FEW005 08/07 A2987 RMK AO2=
200610131342 SPECI KSEA 131342Z 00000KT 6SM BR FEW005 08/07 A2987 RMK AO2=
200610131253 METAR KSEA 131253Z 00000KT 6SM BR FEW200 09/07 A2986 RMK AO2 SLP116 T00890072=
200610131153 METAR KSEA 131153Z 00000KT 6SM BR FEW200 09/08 A2985 RMK AO2 SLP113 T00940083 10133 20089 55005=
200610131053 METAR KSEA 131053Z 10004KT 7SM SCT200 11/08 A2984 RMK AO2 SLP109 T01060083=
200610130953 METAR KSEA 130953Z 03007KT 10SM BKN200 10/08 A2987 RMK AO2 SLP119 T01000083=
200610130853 METAR KSEA 130853Z 30006KT 8SM SCT250 11/09 A2986 RMK AO2 SLP118 T01060089 50002=
200610130753 METAR KSEA 130753Z 07004KT 10SM SCT250 11/08 A2987 RMK AO2 SLP119 T01110083 402220078=
200610130653 METAR KSEA 130653Z 31005KT 10SM CLR 11/09 A2986 RMK AO2 SLP118 T01110089=
200610130553 METAR KSEA 130553Z 33003KT 10SM CLR 12/08 A2986 RMK AO2 SLP117 T01220083 10211 20117 55002=
200610130453 METAR KSEA 130453Z 00000KT 10SM CLR 14/08 A2985 RMK AO2 SLP114 T01390078=
200610130353 METAR KSEA 130353Z 00000KT 10SM CLR 15/08 A2986 RMK AO2 SLP118 T01500078=
200610130253 METAR KSEA 130253Z 01004KT 10SM CLR 16/08 A2987 RMK AO2 SLP119 T01560083 55009=
200610130153 METAR KSEA 130153Z 00000KT 10SM FEW250 17/09 A2986 RMK AO2 SLP118 T01720089=
200610130053 METAR KSEA 130053Z 34003KT 10SM FEW250 20/07 A2988 RMK AO2 SLP122 T02000072=
200610122353 METAR KSEA 122353Z 34004KT 10SM FEW250 21/08 A2989 RMK AO2 SLP128 T02110083 10222 20156 56016=
200610122253 METAR KSEA 122253Z 31006KT 10SM FEW250 21/08 A2991 RMK AO2 SLP134 T02110083=
200610122153 METAR KSEA 122153Z 32003KT 10SM FEW250 21/09 A2992 RMK AO2 SLP137 T02110089=
200610122053 METAR KSEA 122053Z 29005KT 10SM CLR 21/10 A2994 RMK AO2 SLP144 T02060100 58014=
200610121953 METAR KSEA 121953Z 30005KT 10SM CLR 18/11 A2996 RMK AO2 SLP151 T01830106=
200610121853 METAR KSEA 121853Z 29004KT 10SM CLR 17/10 A2998 RMK AO2 SLP156 T01670100=
200610121753 METAR KSEA 121753Z 00000KT 10SM CLR 16/09 A2998 RMK AO2 SLP159 T01560094 10156 20078 58003=
200610121653 METAR KSEA 121653Z 00000KT 9SM CLR 13/10 A2999 RMK AO2 SLP163 T01330100=
200610121553 METAR KSEA 121553Z 00000KT 4SM BR FEW002 11/09 A3000 RMK AO2 SLP164 T01060094=
200610121535 SPECI KSEA 121535Z 00000KT 3SM BR FEW002 10/09 A3000=
200610121535 SPECI KSEA 121535Z 00000KT 3SM BR FEW002 10/09 A3000 RMK AO2 TWR VIS 4=
200610121526 SPECI KSEA 121526Z 00000KT 2SM R16C/2200VP6000FT BR FEW002 09/09 A2999 RMK AO2 TWR VIS 4=
200610121526 SPECI KSEA 121526Z 00000KT 2SM R16C/2200VP6000FT BR FEW002 09/09 A2999 RMK AO2 TWR VIS 4=
200610121459 SPECI KSEA 121459Z 36004KT 1SM R16C/5500VP6000FT BR FEW002 09/08 A2999 RMK AO2 TWR VIS 4 VIS E 1/4=
200610121459 SPECI KSEA 121459Z 36004KT 1SM R16C/5500VP6000FT BR FEW002 09/08 A2999 RMK AO2 TWR VIS 4 VIS E 1/4=
200610121453 METAR KSEA 121453Z 35004KT 3/4SM R16C/5500VP6000FT BR FEW002 08/08 A2999 RMK AO2 TWR VIS 4 SLP163 T00830083 52000=
200610121440 SPECI KSEA 121440Z 35003KT 1/2SM R16C/1200V4500FT FG SCT002 09/08 A2999 RMK AO2=
200610121440 SPECI KSEA 121440Z 35003KT 1/2SM R16C/1200V4500FT FG SCT002 09/08 A2999 RMK AO2=
200610121421 SPECI KSEA 121421Z 00000KT 6SM BR FEW002 08/07 A2999 RMK AO2=
200610121421 SPECI KSEA 121421Z 00000KT 6SM BR FEW002 08/07 A2999 RMK AO2=
200610121353 METAR KSEA 121353Z 00000KT 9SM CLR 08/08 A2999 RMK AO2 SLP163 T00830078=
200610121253 METAR KSEA 121253Z 00000KT 10SM CLR 09/08 A2999 RMK AO2 SLP162 T00890078=
200610121153 METAR KSEA 121153Z 00000KT 10SM CLR 09/08 A2999 RMK AO2 SLP161 T00940083 10133 20089 58009=
200610121053 METAR KSEA 121053Z 00000KT 10SM CLR 10/08 A3000 RMK AO2 SLP165 T01000078=
200610120953 METAR KSEA 120953Z 00000KT 10SM CLR 10/08 A3002 RMK AO2 SLP169 T01000078=
200610120853 METAR KSEA 120853Z 00000KT 10SM CLR 11/08 A3002 RMK AO2 SLP170 T01060078 55005=
200610120753 METAR KSEA 120753Z 10003KT 10SM CLR 12/08 A3002 RMK AO2 SLP170 T01170083 402110067=
200610120653 METAR KSEA 120653Z 03003KT 10SM CLR 12/08 A3002 RMK AO2 SLP173 T01170083=
200610120553 METAR KSEA 120553Z 00000KT 10SM CLR 13/08 A3003 RMK AO2 SLP176 T01330083 10200 20128 55003=
200610120453 METAR KSEA 120453Z 08003KT 10SM CLR 14/07 A3003 RMK AO2 SLP176 T01390067=
200610120353 METAR KSEA 120353Z 00000KT 10SM CLR 14/07 A3004 RMK AO2 SLP178 T01390067=
200610120253 METAR KSEA 120253Z 35003KT 10SM CLR 16/06 A3004 RMK AO2 SLP180 T01560056 56005=
200610120153 METAR KSEA 120153Z 01004KT 10SM CLR 17/06 A3004 RMK AO2 SLP180 T01720061=
200610120053 METAR KSEA 120053Z 01005KT 10SM CLR 19/06 A3005 RMK AO2 SLP181 T01890061=
200610112353 METAR KSEA 112353Z 30005KT 10SM CLR 20/07 A3006 RMK AO2 SLP185 T02000067 10211 20144 56016=
200610112253 METAR KSEA 112253Z 33004KT 10SM CLR 21/07 A3007 RMK AO2 SLP188 T02060067=
200610112153 METAR KSEA 112153Z VRB04KT 10SM CLR 20/08 A3009 RMK AO2 SLP194 T02000083=
200610112053 METAR KSEA 112053Z 30004KT 10SM CLR 19/09 A3011 RMK AO2 SLP200 T01940089 58011=
200610111953 METAR KSEA 111953Z 30005KT 10SM CLR 18/09 A3012 RMK AO2 SLP206 T01830089=
200610111853 METAR KSEA 111853Z 28003KT 10SM CLR 17/09 A3013 RMK AO2 SLP209 T01670089=
200610111753 METAR KSEA 111753Z VRB04KT 10SM FEW002 14/08 A3014 RMK AO2 SLP212 T01440078 10144 20067 58001=
200610111653 METAR KSEA 111653Z 00000KT 10SM FEW008 12/08 A3014 RMK AO2 SLP213 T01220083=
200610111553 METAR KSEA 111553Z 00000KT 10SM FEW008 11/07 A3014 RMK AO2 SLP213 T01060072=
200610111453 METAR KSEA 111453Z 00000KT 10SM FEW002 08/06 A3014 RMK AO2 SLP214 T00780056 53002=
200610111418 SPECI KSEA 111418Z 00000KT 10SM FEW002 07/05 A3014 RMK AO2=
200610111418 SPECI KSEA 111418Z 00000KT 10SM FEW002 07/05 A3014 RMK AO2=
200610111353 METAR KSEA 111353Z 00000KT 10SM CLR 07/04 A3014 RMK AO2 SLP213 T00670044=
200610111253 METAR KSEA 111253Z 00000KT 10SM CLR 08/05 A3014 RMK AO2 SLP212 T00780050=
200610111153 METAR KSEA 111153Z 00000KT 10SM CLR 08/05 A3013 RMK AO2 SLP210 T00780050 10117 20078 58001=
200610111053 METAR KSEA 111053Z 00000KT 10SM CLR 09/06 A3013 RMK AO2 SLP211 T00940056=
200610110953 METAR KSEA 110953Z 00000KT 10SM CLR 09/06 A3014 RMK AO2 SLP213 T00940056=
200610110853 METAR KSEA 110853Z 00000KT 10SM CLR 09/06 A3014 RMK AO2 SLP212 T00940056 58000=
200610110753 METAR KSEA 110753Z 00000KT 10SM CLR 11/06 A3014 RMK AO2 SLP213 T01060056 401830061=
200610110653 METAR KSEA 110653Z 00000KT 10SM CLR 10/06 A3014 RMK AO2 SLP212 T01000061=
200610110553 METAR KSEA 110553Z 00000KT 10SM CLR 11/06 A3014 RMK AO2 SLP212 T01060061 10178 20106 58003=
200610110453 METAR KSEA 110453Z 06003KT 10SM CLR 13/05 A3015 RMK AO2 SLP216 T01280050=
200610110353 METAR KSEA 110353Z 03007KT 10SM CLR 14/04 A3015 RMK AO2 SLP215 T01390044=
200610110253 METAR KSEA 110253Z 35003KT 10SM FEW200 13/05 A3015 RMK AO2 SLP216 T01330050 55000=
200610110153 METAR KSEA 110153Z 31005KT 10SM SCT200 14/08 A3015 RMK AO2 SLP216 T01390078=
200610110053 METAR KSEA 110053Z 31005KT 10SM SCT200 16/07 A3014 RMK AO2 SLP214 T01560072=
200610102353 METAR KSEA 102353Z 28006KT 10SM SCT200 18/08 A3015 RMK AO2 SLP215 T01780078 10183 20122 56010=
200610102253 METAR KSEA 102253Z 30006KT 10SM BKN200 18/07 A3016 RMK AO2 SLP219 T01780067=
200610102153 METAR KSEA 102153Z 25004KT 10SM BKN200 17/07 A3016 RMK AO2 SLP221 T01720072=
200610102053 METAR KSEA 102053Z 30006KT 10SM BKN200 17/08 A3018 RMK AO2 SLP226 T01720078 58012=
200610101953 METAR KSEA 101953Z 26004KT 10SM BKN200 15/08 A3020 RMK AO2 SLP232 T01500078=
200610101853 METAR KSEA 101853Z 28004KT 10SM BKN200 14/07 A3021 RMK AO2 SLP236 T01390072=
200610101753 METAR KSEA 101753Z 01006KT 10SM BKN200 12/06 A3021 RMK AO2 SLP238 T01220056 10122 20061 58004=
200610101653 METAR KSEA 101653Z 00000KT 10SM OVC200 10/03 A3022 RMK AO2 SLP241 T01000033=
200610101553 METAR KSEA 101553Z 11003KT 10SM OVC200 08/02 A3023 RMK AO2 SLP246 T00830022=
200610101453 METAR KSEA 101453Z 00000KT 10SM BKN200 06/04 A3023 RMK AO2 SLP243 T00610039 53002=
200610101353 METAR KSEA 101353Z 05004KT 10SM FEW200 07/06 A3022 RMK AO2 SLP242 T00720056=
200610101253 METAR KSEA 101253Z 07005KT 10SM CLR 07/06 A3022 RMK AO2 SLP240 T00720056=
200610101153 METAR KSEA 101153Z 05004KT 10SM CLR 08/06 A3022 RMK AO2 SLP240 T00780061 10111 20078 58005=
200610101053 METAR KSEA 101053Z 07004KT 10SM CLR 09/07 A3023 RMK AO2 SLP243 T00890067=
200610100953 METAR KSEA 100953Z 07007KT 10SM CLR 08/07 A3024 RMK AO2 SLP245 T00830067=
200610100853 METAR KSEA 100853Z 03007KT 10SM FEW200 09/07 A3023 RMK AO2 SLP245 T00890067 56007=
200610100753 METAR KSEA 100753Z 01005KT 10SM FEW200 09/06 A3024 RMK AO2 SLP246 T00940056 401830083=
200610100653 METAR KSEA 100653Z 36007KT 10SM FEW200 11/06 A3025 RMK AO2 SLP250 T01060056=
200610100553 METAR KSEA 100553Z 02010KT 10SM CLR 11/06 A3025 RMK AO2 SLP252 T01110056 10178 20111 51002=
200610100453 METAR KSEA 100453Z 36007KT 10SM CLR 12/06 A3025 RMK AO2 SLP251 T01170061=
200610100353 METAR KSEA 100353Z 01008KT 10SM CLR 12/06 A3025 RMK AO2 SLP252 T01220061=
200610100253 METAR KSEA 100253Z 02014KT 10SM FEW250 13/06 A3025 RMK AO2 SLP250 T01330061 56008=
200610100153 METAR KSEA 100153Z 03015KT 10SM FEW250 14/06 A3025 RMK AO2 SLP252 T01390061=
200610100053 METAR KSEA 100053Z 01011KT 10SM FEW250 16/05 A3026 RMK AO2 SLP253 T01610050=
200610092353 METAR KSEA 092353Z 01013KT 10SM FEW250 18/05 A3027 RMK AO2 SLP258 T01780050 10183 20128 56023=
200610092253 METAR KSEA 092253Z 36013KT 10SM FEW250 18/06 A3029 RMK AO2 SLP265 T01780056=
200610092153 METAR KSEA 092153Z 36013KT 10SM FEW250 18/04 A3032 RMK AO2 SLP272 T01780044=
200610092053 METAR KSEA 092053Z 35012KT 10SM SCT250 17/07 A3034 RMK AO2 SLP281 T01720072 58017=
200610091953 METAR KSEA 091953Z 01012KT 10SM SCT250 16/07 A3036 RMK AO2 SLP288 T01610072=
200610091853 METAR KSEA 091853Z 36010KT 10SM SCT250 15/07 A3038 RMK AO2 SLP293 T01500067=
200610091753 METAR KSEA 091753Z 01011KT 10SM FEW010 SCT250 13/07 A3039 RMK AO2 SLP298 T01280072 10128 20083 58003=
200610091653 METAR KSEA 091653Z 01009KT 10SM FEW010 SCT250 11/07 A3040 RMK AO2 SLP301 T01110072=
200610091553 METAR KSEA 091553Z 01012KT 7SM FEW003 SCT200 09/07 A3041 RMK AO2 SLP304 T00890072=
200610091544 SPECI KSEA 091544Z 02012KT 5SM BR SCT003 09/07 A3040 RMK AO2=
200610091544 SPECI KSEA 091544Z 02012KT 5SM BR SCT003 09/07 A3040 RMK AO2=
200610091540 SPECI KSEA 091540Z 02011KT 1 1/2SM BR BKN003 09/08 A3040 RMK AO2 SFC VIS 5=
200610091540 SPECI KSEA 091540Z 02011KT 1 1/2SM BR BKN003 09/08 A3040 RMK AO2 SFC VIS 5=
200610091526 SPECI KSEA 091526Z 01012KT 1/4SM BR SCT001 BKN002 OVC003 08/08 A3040 RMK AO2 SFC VIS 4 BINOVC OHD=
200610091526 SPECI KSEA 091526Z 01012KT 1/4SM BR SCT001 BKN002 OVC003 08/08 A3040 RMK AO2 SFC VIS 4 BINOVC OHD=
200610091453 METAR KSEA 091453Z 01012KT 1/4SM R16C/2600V5000FT BR VV001 08/08 A3040 RMK AO2 SFC VIS 3/4 SLP302 T00830078 53008=
200610091353 METAR KSEA 091353Z 36010KT 1/4SM BR OVC001 08/08 A3039 RMK AO2 SFC VIS 2 SLP298 T00830083=
200610091253 METAR KSEA 091253Z 36010KT 1/4SM R16C/2000V3500FT FG VV001 08/08 A3038 RMK AO2 SLP296 T00830083=
200610091240 SPECI KSEA 091240Z 01012KT 1/4SM R16C/1800V2200FT FG VV001 08/08 A3038 RMK AO2=
200610091240 SPECI KSEA 091240Z 01012KT 1/4SM R16C/1800V2200FT FG VV001 08/08 A3038 RMK AO2=
200610091153 METAR KSEA 091153Z 02012KT 1/4SM R16C/1800V2800FT FG VV001 08/08 A3037 RMK AO2 SFC VIS 1/2 SLP292 T00830078 10100 20083 53002=
200610091115 SPECI KSEA 091115Z 02013KT 1/4SM R16C/3500VP6000FT BR OVC001 08/08 A3037=
200610091115 SPECI KSEA 091115Z 02013KT 1/4SM R16C/3500VP6000FT BR OVC001 08/08 A3037 RMK AO2 SFC VIS 1 1/4=
200610091053 METAR KSEA 091053Z 02013KT 2 1/2SM BR OVC001 09/08 A3037 RMK AO2 SLP292 T00890083=
200610091033 SPECI KSEA 091033Z 02012KT 2 1/2SM BR OVC003 09/08 A3037 RMK AO2 SFC VIS 4=
200610091033 SPECI KSEA 091033Z 02012KT 2 1/2SM BR OVC003 09/08 A3037 RMK AO2 SFC VIS 4=
200610091007 SPECI KSEA 091007Z 03011KT 6SM BR BKN003 09/08 A3037 RMK AO2=
200610091007 SPECI KSEA 091007Z 03011KT 6SM BR BKN003 09/08 A3037 RMK AO2=
200610090953 METAR KSEA 090953Z 03011KT 6SM BR SCT003 09/08 A3036 RMK AO2 SLP289 T00940083=
200610090946 SPECI KSEA 090946Z 02011KT 7SM BKN003 09/08 A3036 RMK AO2=
200610090946 SPECI KSEA 090946Z 02011KT 7SM BKN003 09/08 A3036 RMK AO2=
200610090933 SPECI KSEA 090933Z 02011KT 7SM BKN005 09/08 A3037 RMK AO2=
200610090933 SPECI KSEA 090933Z 02011KT 7SM BKN005 09/08 A3037 RMK AO2=
200610090853 METAR KSEA 090853Z 01012KT 10SM SCT005 09/08 A3037 RMK AO2 SLP290 T00940083 51007=
200610090849 SPECI KSEA 090849Z 02011KT 10SM SCT005 09/08 A3036 RMK AO2=
200610090849 SPECI KSEA 090849Z 02011KT 10SM SCT005 09/08 A3036 RMK AO2=
200610090753 METAR KSEA 090753Z 02011KT 10SM CLR 09/08 A3036 RMK AO2 SLP287 T00940078 401390094=
200610090653 METAR KSEA 090653Z 02009KT 10SM FEW050 10/08 A3034 RMK AO2 SLP282 T01000078=
200610090553 METAR KSEA 090553Z 03009KT 10SM FEW030 11/08 A3034 RMK AO2 SLP281 T01060083 10133 20100 51006=
200610090453 METAR KSEA 090453Z 02009KT 10SM SCT029 11/08 A3033 RMK AO2 SLP278 T01110078=
200610090353 METAR KSEA 090353Z 01008KT 10SM SCT029 BKN030 12/08 A3033 RMK AO2 SLP278 T01170083=
200610090253 METAR KSEA 090253Z 01009KT 10SM SCT029 OVC035 12/09 A3032 RMK AO2 SLP275 T01220089 53006=
200610090153 METAR KSEA 090153Z 36011KT 10SM FEW026 BKN030 BKN180 12/08 A3031 RMK AO2 SLP269 T01220083=
200610090053 METAR KSEA 090053Z 36008KT 10SM SCT025 BKN030 BKN100 13/09 A3030 RMK AO2 SLP268 T01280089=
200610082353 METAR KSEA 082353Z 01009KT 10SM SCT023 BKN030 BKN100 13/09 A3031 RMK AO2 SLP269 T01330089 10139 20117 56005=
200610082253 METAR KSEA 082253Z 35009KT 10SM SCT023 BKN033 13/09 A3031 RMK AO2 SLP269 T01330089=
200610082247 SPECI KSEA 082247Z 01006KT 10SM SCT023 BKN033 14/08 A3031 RMK AO2=
200610082247 SPECI KSEA 082247Z 01006KT 10SM SCT023 BKN033 14/08 A3031 RMK AO2=
200610082153 METAR KSEA 082153Z 35006KT 10SM BKN019 OVC025 13/08 A3031 RMK AO2 SLP271 T01330083=
200610082053 METAR KSEA 082053Z 02004KT 10SM BKN017 OVC025 13/08 A3032 RMK AO2 SLP274 T01280083 50000=
200610081953 METAR KSEA 081953Z 02005KT 10SM FEW015 OVC021 12/08 A3032 RMK AO2 SLP275 T01220083=
200610081853 METAR KSEA 081853Z 02003KT 10SM FEW015 OVC021 13/08 A3033 RMK AO2 SLP277 T01280083=
200610081753 METAR KSEA 081753Z 11004KT 10SM OVC023 12/08 A3032 RMK AO2 SLP274 60000 T01170083 10117 20100 51007=
200610081715 SPECI KSEA 081715Z 10004KT 10SM FEW018 OVC027 12/08 A3032 RMK AO2=
200610081715 SPECI KSEA 081715Z 10004KT 10SM FEW018 OVC027 12/08 A3032 RMK AO2=
200610081653 METAR KSEA 081653Z 15003KT 10SM FEW016 OVC030 11/08 A3032 RMK AO2 SLP273 T01110083=
200610081553 METAR KSEA 081553Z 00000KT 10SM OVC034 11/08 A3031 RMK AO2 RAE40 SLP270 P0000 T01060083=
200610081453 METAR KSEA 081453Z 19003KT 8SM -RA OVC038 10/08 A3030 RMK AO2 RAB50 SLP267 P0000 60000 T01000078 53003=
200610081353 METAR KSEA 081353Z 14006KT 10SM OVC040 11/07 A3029 RMK AO2 SLP262 T01060067=
200610081253 METAR KSEA 081253Z 16005KT 10SM OVC046 11/07 A3030 RMK AO2 RAB19E43 SLP266 P0000 T01060067=
200610081153 METAR KSEA 081153Z 15005KT 10SM BKN050 OVC070 11/07 A3029 RMK AO2 SLP264 T01060067 10111 20100 58008=
200610081053 METAR KSEA 081053Z 14007KT 10SM BKN055 OVC075 10/07 A3030 RMK AO2 SLP267 T01000067=
200610080953 METAR KSEA 080953Z 15007KT 10SM OVC060 11/07 A3032 RMK AO2 SLP273 T01060067=
200610080853 METAR KSEA 080853Z 14007KT 10SM OVC065 11/07 A3032 RMK AO2 SLP272 T01060067 50001=
200610080753 METAR KSEA 080753Z 16004KT 10SM OVC085 11/07 A3032 RMK AO2 SLP274 T01060072 401560072=
200610080653 METAR KSEA 080653Z 14004KT 10SM OVC110 11/07 A3032 RMK AO2 SLP275 T01060067=
200610080553 METAR KSEA 080553Z 14007KT 10SM BKN090 BKN150 OVC200 11/07 A3031 RMK AO2 SLP271 T01110067 10144 20111 58004=
200610080453 METAR KSEA 080453Z 17004KT 10SM BKN100 BKN150 BKN200 12/07 A3032 RMK AO2 SLP274 T01170067=
200610080353 METAR KSEA 080353Z 15004KT 10SM FEW150 BKN200 12/07 A3032 RMK AO2 SLP274 T01170067=
200610080253 METAR KSEA 080253Z 17003KT 10SM FEW140 SCT200 12/07 A3032 RMK AO2 SLP275 T01220067 50002=
200610080153 METAR KSEA 080153Z 00000KT 10SM SCT120 SCT200 13/07 A3033 RMK AO2 SLP277 T01280067=
200610080053 METAR KSEA 080053Z 19003KT 10SM FEW043 SCT200 13/07 A3032 RMK AO2 SLP275 T01330067=
200610072353 METAR KSEA 072353Z 25005KT 10SM FEW040 SCT200 14/07 A3032 RMK AO2 SLP273 T01440067 10156 20111 56005=
200610072253 METAR KSEA 072253Z 27006KT 10SM SCT040 SCT200 15/07 A3032 RMK AO2 SLP274 T01500067=
200610072153 METAR KSEA 072153Z 25008KT 10SM SCT031 SCT200 15/07 A3033 RMK AO2 SLP276 T01500067=
200610072101 SPECI KSEA 072101Z 30008KT 10SM SCT028 14/06 A3033 RMK AO2=
200610072101 SPECI KSEA 072101Z 30008KT 10SM SCT028 14/06 A3033 RMK AO2=
200610072053 METAR KSEA 072053Z 33005KT 10SM BKN027 14/06 A3034 RMK AO2 SLP279 T01390061 51002=
200610071953 METAR KSEA 071953Z VRB03KT 10SM FEW018 BKN027 BKN040 12/07 A3033 RMK AO2 SLP278 T01220072=
200610071853 METAR KSEA 071853Z 24004KT 10SM BKN015 BKN022 BKN035 11/08 A3034 RMK AO2 SLP279 T01110083=
200610071845 SPECI KSEA 071845Z 26004KT 10SM SCT014 BKN022 OVC035 11/08 A3034 RMK AO2=
200610071845 SPECI KSEA 071845Z 26004KT 10SM SCT014 BKN022 OVC035 11/08 A3034 RMK AO2=
200610071820 SPECI KSEA 071820Z 03003KT 10SM BKN014 OVC025 11/07 A3033 RMK AO2=
200610071820 SPECI KSEA 071820Z 03003KT 10SM BKN014 OVC025 11/07 A3033 RMK AO2=
200610071753 METAR KSEA 071753Z 05004KT 10SM FEW015 BKN021 OVC030 11/07 A3033 RMK AO2 SLP277 T01110072 10111 20072 51019=
200610071653 METAR KSEA 071653Z 13004KT 9SM BKN015 BKN025 10/07 A3031 RMK AO2 SLP271 T01000072=
200610071641 SPECI KSEA 071641Z 11005KT 8SM BKN015 10/08 A3030 RMK AO2=
200610071641 SPECI KSEA 071641Z 11005KT 8SM BKN015 10/08 A3030 RMK AO2=
200610071553 METAR KSEA 071553Z 17003KT 7SM FEW015 09/08 A3029 RMK AO2 SLP265 T00890078=
200610071453 METAR KSEA 071453Z 06003KT 6SM BR FEW015 09/08 A3027 RMK AO2 SLP257 T00940078 53020=
200610071353 METAR KSEA 071353Z 00000KT 6SM BR FEW140 08/07 A3025 RMK AO2 SLP251 T00830072=
200610071253 METAR KSEA 071253Z 00000KT 7SM CLR 08/07 A3022 RMK AO2 SLP242 T00780067=
200610071153 METAR KSEA 071153Z 34005KT 9SM CLR 08/08 A3021 RMK AO2 SLP237 70002 T00830078 10111 20083 53015=
200610071053 METAR KSEA 071053Z 33003KT 10SM FEW065 09/07 A3019 RMK AO2 SLP231 T00890072=
200610070953 METAR KSEA 070953Z 33004KT 10SM SCT065 09/07 A3018 RMK AO2 SLP228 T00940072=
200610070853 METAR KSEA 070853Z 36005KT 10SM OVC060 11/07 A3017 RMK AO2 SLP223 T01060072 53008=
200610070753 METAR KSEA 070753Z 33004KT 10SM OVC060 11/08 A3016 RMK AO2 SLP219 T01060078 401390106=
200610070653 METAR KSEA 070653Z 34003KT 10SM OVC060 11/08 A3015 RMK AO2 SLP216 T01110083=
200610070553 METAR KSEA 070553Z 33004KT 10SM BKN060 11/09 A3015 RMK AO2 SLP215 T01060089 10139 20106 51009=
200610070453 METAR KSEA 070453Z 33005KT 10SM FEW030 SCT050 BKN065 11/09 A3014 RMK AO2 SLP212 T01110089=
200610070353 METAR KSEA 070353Z 36005KT 10SM FEW014 BKN060 12/09 A3013 RMK AO2 SLP208 T01220094=
200610070253 METAR KSEA 070253Z 01005KT 10SM FEW025 BKN055 13/09 A3012 RMK AO2 SLP205 T01280094 53011=
200610070209 SPECI KSEA 070209Z 01005KT 10SM SCT024 BKN065 13/09 A3011 RMK AO2=
200610070209 SPECI KSEA 070209Z 01005KT 10SM SCT024 BKN065 13/09 A3011 RMK AO2=
200610070153 METAR KSEA 070153Z 36006KT 10SM FEW017 BKN024 BKN070 13/09 A3011 RMK AO2 SLP202 T01280094=
200610070107 SPECI KSEA 070107Z 36006KT 10SM SCT019 BKN024 BKN048 13/10 A3010 RMK AO2=
200610070107 SPECI KSEA 070107Z 36006KT 10SM SCT019 BKN024 BKN048 13/10 A3010 RMK AO2=
200610070053 METAR KSEA 070053Z 35008KT 10SM FEW022 BKN048 BKN080 13/10 A3010 RMK AO2 SLP198 T01330100=
200610070010 SPECI KSEA 070010Z 33007KT 10SM FEW022 SCT029 BKN046 14/09 A3009 RMK AO2=
200610070010 SPECI KSEA 070010Z 33007KT 10SM FEW022 SCT029 BKN046 14/09 A3009 RMK AO2=
200610062353 METAR KSEA 062353Z 36005KT 10SM FEW020 BKN028 BKN046 14/09 A3009 RMK AO2 SLP194 60001 T01390094 10139 20122 55000=
200610062253 METAR KSEA 062253Z 01006KT 10SM FEW009 BKN016 OVC028 13/09 A3008 RMK AO2 SLP194 T01330094=
200610062237 SPECI KSEA 062237Z 01005KT 10SM FEW009 BKN016 OVC025 13/09 A3008 RMK AO2=
200610062237 SPECI KSEA 062237Z 01005KT 10SM FEW009 BKN016 OVC025 13/09 A3008 RMK AO2=
200610062153 METAR KSEA 062153Z 32005KT 9SM SCT008 BKN011 OVC015 13/11 A3008 RMK AO2 RAB13E22 SLP193 P0000 T01280111=
200610062132 SPECI KSEA 062132Z 02004KT 9SM SCT006 BKN011 OVC015 13/11 A3008 RMK AO2 RAB13E22 P0000=
200610062132 SPECI KSEA 062132Z 02004KT 9SM SCT006 BKN011 OVC015 13/11 A3008 RMK AO2 RAB13E22 P0000=
200610062120 SPECI KSEA 062120Z VRB04KT 6SM -RA BR BKN008 OVC011 13/11 A3009 RMK AO2 RAB13 P0000=
200610062120 SPECI KSEA 062120Z VRB04KT 6SM -RA BR BKN008 OVC011 13/11 A3009 RMK AO2 RAB13 P0000=
200610062053 METAR KSEA 062053Z 00000KT 10SM SCT008 BKN011 OVC015 13/12 A3009 RMK AO2 RAE16 SLP195 P0000 60001 T01280117 58001=
200610062025 SPECI KSEA 062025Z 31004KT 10SM SCT008 BKN011 OVC015 13/11 A3009 RMK AO2 RAE16 P0000=
200610062025 SPECI KSEA 062025Z 31004KT 10SM SCT008 BKN011 OVC015 13/11 A3009 RMK AO2 RAE16 P0000=
200610061953 METAR KSEA 061953Z 00000KT 4SM -RA BR BKN008 BKN013 OVC016 13/11 A3009 RMK AO2 RAE1858B29 SLP196 P0000 T01280111=
200610061931 SPECI KSEA 061931Z 31003KT 4SM -RA BR BKN008 BKN018 OVC025 13/12 A3009 RMK AO2 RAE1858B29 P0000=
200610061931 SPECI KSEA 061931Z 31003KT 4SM -RA BR BKN008 BKN018 OVC025 13/12 A3009 RMK AO2 RAE1858B29 P0000=
200610061915 SPECI KSEA 061915Z 28005KT 10SM SCT006 BKN018 OVC025 13/12 A3009 RMK AO2 RAE1858 P0000=
200610061915 SPECI KSEA 061915Z 28005KT 10SM SCT006 BKN018 OVC025 13/12 A3009 RMK AO2 RAE1858 P0000=
200610061853 METAR KSEA 061853Z 29005KT 10SM -RA FEW004 BKN006 OVC018 13/12 A3009 RMK AO2 SLP196 P0001 T01280117=
200610061753 METAR KSEA 061753Z 23005KT 6SM -RA BR BKN006 BKN010 OVC015 12/11 A3009 RMK AO2 RAE14B44 SLP195 P0000 60001 T01220111 10122 20111 51012=
200610061708 SPECI KSEA 061708Z 23006KT 10SM -RA SCT004 BKN006 OVC008 12/11 A3008 RMK AO2 P0000=
200610061708 SPECI KSEA 061708Z 23006KT 10SM -RA SCT004 BKN006 OVC008 12/11 A3008 RMK AO2 P0000=
200610061653 METAR KSEA 061653Z 22005KT 10SM -RA BKN004 OVC006 12/11 A3008 RMK AO2 RAB37 SLP193 P0000 T01170111=
200610061638 SPECI KSEA 061638Z 23007KT 10SM -RA BKN004 OVC006 12/11 A3008 RMK AO2 RAB37 P0000=
200610061638 SPECI KSEA 061638Z 23007KT 10SM -RA BKN004 OVC006 12/11 A3008 RMK AO2 RAB37 P0000=
200610061553 METAR KSEA 061553Z 23007KT 10SM FEW004 BKN006 OVC008 12/11 A3007 RMK AO2 RAB06E50 SLP189 P0000 T01170111=
200610061508 SPECI KSEA 061508Z 20009KT 8SM -RA BKN008 BKN015 OVC055 11/11 A3006 RMK AO2 RAB06 CIG 004V009 OCNL BINOVC OHD P0000=
200610061508 SPECI KSEA 061508Z 20009KT 8SM -RA BKN008 BKN015 OVC055 11/11 A3006 RMK AO2 RAB06 CIG 004V009 OCNL BINOVC OHD P0000=
200610061453 METAR KSEA 061453Z 20008KT 10SM FEW008 BKN011 OVC015 12/11 A3006 RMK AO2 RAE27 SLP184 P0000 60001 T01170106 51013=
200610061432 SPECI KSEA 061432Z 21008KT 10SM SCT008 BKN011 OVC013 12/11 A3005 RMK AO2 RAE27 P0000=
200610061432 SPECI KSEA 061432Z 21008KT 10SM SCT008 BKN011 OVC013 12/11 A3005 RMK AO2 RAE27 P0000=
200610061357 SPECI KSEA 061357Z 19007KT 10SM -RA BKN013 OVC019 12/09 A3005 RMK AO2 P0000=
200610061357 SPECI KSEA 061357Z 19007KT 10SM -RA BKN013 OVC019 12/09 A3005 RMK AO2 P0000=
200610061353 METAR KSEA 061353Z 19006KT 10SM -RA BKN015 OVC022 12/09 A3004 RMK AO2 SLP179 P0001 T01170094=
200610061253 METAR KSEA 061253Z 18006KT 10SM -RA BKN015 OVC022 12/09 A3003 RMK AO2 RAB50 SLP176 P0000 T01220089=
200610061153 METAR KSEA 061153Z 16006KT 10SM BKN016 OVC022 12/08 A3002 RMK AO2 SLP170 T01170083 10122 20106 50000=
200610061149 SPECI KSEA 061149Z 16006KT 10SM BKN016 OVC022 12/08 A3002 RMK AO2=
200610061149 SPECI KSEA 061149Z 16006KT 10SM BKN016 OVC022 12/08 A3002 RMK AO2=
200610061053 METAR KSEA 061053Z 16006KT 10SM BKN014 OVC022 12/08 A3002 RMK AO2 SLP172 T01170078=
200610061014 SPECI KSEA 061014Z 15007KT 10SM BKN014 OVC025 12/08 A3003 RMK AO2=
200610061014 SPECI KSEA 061014Z 15007KT 10SM BKN014 OVC025 12/08 A3003 RMK AO2=
200610060953 METAR KSEA 060953Z 14007KT 10SM BKN016 OVC035 12/08 A3002 RMK AO2 SLP172 T01170078=
200610060933 SPECI KSEA 060933Z 14006KT 10SM BKN016 OVC040 11/08 A3002 RMK AO2=
200610060933 SPECI KSEA 060933Z 14006KT 10SM BKN016 OVC040 11/08 A3002 RMK AO2=
200610060853 METAR KSEA 060853Z 16006KT 10SM SCT016 OVC040 11/08 A3002 RMK AO2 SLP170 T01110078 51010=
200610060753 METAR KSEA 060753Z 21006KT 10SM FEW070 BKN140 BKN200 12/07 A3001 RMK AO2 SLP166 T01170072 402170100=
200610060653 METAR KSEA 060653Z 24006KT 10SM FEW070 BKN140 BKN200 12/08 A3000 RMK AO2 SLP164 T01170078=
200610060553 METAR KSEA 060553Z 00000KT 10SM FEW070 SCT140 BKN200 12/08 A2999 RMK AO2 SLP160 T01220078 10200 20122 53017=
200610060453 METAR KSEA 060453Z 29004KT 10SM FEW100 BKN200 12/08 A2997 RMK AO2 SLP155 T01220083=
200610060353 METAR KSEA 060353Z 23004KT 10SM FEW140 SCT200 14/07 A2995 RMK AO2 SLP148 T01390072=
200610060253 METAR KSEA 060253Z 26004KT 10SM SCT140 SCT200 15/08 A2994 RMK AO2 SLP144 T01500078 53005=
200610060153 METAR KSEA 060153Z 00000KT 10SM SCT140 BKN200 18/04 A2992 RMK AO2 SLP138 T01830044=
200610060053 METAR KSEA 060053Z 00000KT 10SM FEW050 SCT140 BKN200 20/04 A2992 RMK AO2 SLP138 T02000044=
200610052353 METAR KSEA 052353Z 21004KT 10SM FEW050 SCT140 BKN200 20/00 A2992 RMK AO2 SLP138 CB DSNT E T02000000 10217 20161 56012=
200610052253 METAR KSEA 052253Z 30004KT 10SM FEW050 SCT140 BKN200 20/04 A2993 RMK AO2 SLP140 CB DSNT E T02000044=
200610052153 METAR KSEA 052153Z 00000KT 10SM FEW050 SCT100 BKN200 21/04 A2994 RMK AO2 SLP145 T02060039=
200610052053 METAR KSEA 052053Z 29004KT 10SM SCT095 BKN200 19/05 A2996 RMK AO2 SLP150 T01940050 57016=
200610051953 METAR KSEA 051953Z 27004KT 10SM FEW095 BKN200 19/06 A2997 RMK AO2 SLP155 T01890061=
200610051853 METAR KSEA 051853Z VRB04KT 10SM FEW120 SCT200 18/09 A2999 RMK AO2 SLP161 T01780094=
200610051753 METAR KSEA 051753Z VRB03KT 10SM FEW120 SCT200 17/11 A3001 RMK AO2 SLP166 T01670106 10167 20100 50001=
200610051653 METAR KSEA 051653Z 30003KT 10SM FEW120 16/11 A3001 RMK AO2 SLP169 T01560106=
200610051553 METAR KSEA 051553Z 19004KT 10SM FEW120 13/10 A3001 RMK AO2 SLP168 T01330100=
200610051453 METAR KSEA 051453Z 00000KT 10SM FEW110 11/09 A3000 RMK AO2 SLP166 T01060089 58001=
200610051353 METAR KSEA 051353Z 00000KT 10SM SCT120 11/09 A3001 RMK AO2 SLP168 T01060094=
200610051253 METAR KSEA 051253Z 00000KT 10SM BKN120 12/09 A3001 RMK AO2 SLP167 T01170094=
200610051153 METAR KSEA 051153Z 07004KT 10SM BKN110 12/09 A3001 RMK AO2 SLP166 T01220089 10156 20122 56007=
200610051053 METAR KSEA 051053Z 31003KT 10SM BKN110 12/10 A3001 RMK AO2 SLP168 T01220100=
200610050953 METAR KSEA 050953Z 00000KT 10SM BKN100 OVC130 13/09 A3002 RMK AO2 SLP170 T01330089=
200610050853 METAR KSEA 050853Z 00000KT 10SM BKN130 14/08 A3003 RMK AO2 SLP173 T01390083 58005=
200610050753 METAR KSEA 050753Z 00000KT 10SM BKN130 14/08 A3004 RMK AO2 SLP177 T01440078 401830100=
200610050653 METAR KSEA 050653Z 00000KT 10SM BKN130 14/07 A3004 RMK AO2 SLP177 T01440072=
200610050553 METAR KSEA 050553Z 00000KT 10SM OVC130 15/07 A3004 RMK AO2 SLP179 T01500067 10183 20139 51007=
200610050453 METAR KSEA 050453Z 12003KT 10SM OVC130 16/07 A3004 RMK AO2 SLP179 T01610067=
200610050353 METAR KSEA 050353Z 05006KT 10SM OVC120 16/06 A3004 RMK AO2 SLP179 T01610056=
200610050253 METAR KSEA 050253Z 01005KT 10SM BKN120 16/06 A3002 RMK AO2 SLP173 T01560056 53001=
200610050153 METAR KSEA 050153Z 34005KT 10SM BKN120 BKN200 16/06 A3001 RMK AO2 SLP168 T01610061=
200610050053 METAR KSEA 050053Z 35005KT 10SM FEW120 SCT200 18/06 A3001 RMK AO2 SLP169 T01780061=
200610042353 METAR KSEA 042353Z 34005KT 10SM FEW100 SCT200 18/07 A3002 RMK AO2 SLP171 T01830067 10183 20128 56013=
200610042253 METAR KSEA 042253Z 34008KT 10SM FEW080 SCT200 18/07 A3003 RMK AO2 SLP175 T01830072=
200610042153 METAR KSEA 042153Z 03010KT 10SM FEW110 SCT200 18/08 A3004 RMK AO2 SLP179 T01830078=
200610042053 METAR KSEA 042053Z 01010KT 10SM FEW200 17/08 A3006 RMK AO2 SLP185 T01720083 58010=
200610041953 METAR KSEA 041953Z 01010KT 10SM FEW200 15/08 A3007 RMK AO2 SLP189 T01500083=
200610041853 METAR KSEA 041853Z 04011KT 10SM FEW015 SCT200 14/09 A3008 RMK AO2 SLP192 T01440089=
200610041753 METAR KSEA 041753Z 03012KT 10SM SCT013 SCT200 13/08 A3009 RMK AO2 SLP195 T01330083 10133 20100 51001=
200610041705 SPECI KSEA 041705Z 05010KT 10SM FEW008 SCT012 SCT014 12/09 A3009 RMK AO2=
200610041705 SPECI KSEA 041705Z 05010KT 10SM FEW008 SCT012 SCT014 12/09 A3009 RMK AO2=
200610041653 METAR KSEA 041653Z 04010KT 10SM SCT008 BKN010 BKN014 11/08 A3009 RMK AO2 SLP195 T01110083=
200610041553 METAR KSEA 041553Z 04009KT 9SM SCT009 BKN012 BKN015 OVC200 11/09 A3009 RMK AO2 SLP196 T01110089=
200610041518 SPECI KSEA 041518Z 05009KT 8SM SCT008 BKN010 BKN014 OVC200 11/09 A3009 RMK AO2=
200610041518 SPECI KSEA 041518Z 05009KT 8SM SCT008 BKN010 BKN014 OVC200 11/09 A3009 RMK AO2=
200610041453 METAR KSEA 041453Z 04010KT 9SM BKN008 BKN010 OVC200 11/09 A3009 RMK AO2 SLP194 T01060089 53006=
200610041436 SPECI KSEA 041436Z 03011KT 10SM OVC008 11/08 A3008 RMK AO2 CIG 007V011=
200610041436 SPECI KSEA 041436Z 03011KT 10SM OVC008 11/08 A3008 RMK AO2 CIG 007V011=
200610041427 SPECI KSEA 041427Z 03008KT 10SM SCT007 BKN010 OVC012 11/08 A3008 RMK AO2=
200610041427 SPECI KSEA 041427Z 03008KT 10SM SCT007 BKN010 OVC012 11/08 A3008 RMK AO2=
200610041400 SPECI KSEA 041400Z 04010KT 10SM BKN014 BKN100 OVC200 10/08 A3007 RMK AO2=
200610041400 SPECI KSEA 041400Z 04010KT 10SM BKN014 BKN100 OVC200 10/08 A3007 RMK AO2=
200610041353 METAR KSEA 041353Z 04012KT 10SM SCT014 BKN200 10/08 A3007 RMK AO2 SLP189 T01000083=
200610041253 METAR KSEA 041253Z 05008KT 10SM FEW015 SCT200 10/08 A3008 RMK AO2 SLP191 T01000078=
200610041153 METAR KSEA 041153Z 04009KT 10SM FEW200 10/08 A3007 RMK AO2 SLP188 T01000078 10111 20100 58005=
200610041053 METAR KSEA 041053Z 03009KT 10SM FEW015 SCT200 11/08 A3007 RMK AO2 SLP189 T01060083=
200610041022 SPECI KSEA 041022Z 03009KT 10SM SCT015 SCT100 SCT200 11/08 A3008 RMK AO2=
200610041022 SPECI KSEA 041022Z 03009KT 10SM SCT015 SCT100 SCT200 11/08 A3008 RMK AO2=
200610040956 SPECI KSEA 040956Z 02010KT 10SM BKN015 BKN100 BKN200 11/08 A3008 RMK AO2=
200610040956 SPECI KSEA 040956Z 02010KT 10SM BKN015 BKN100 BKN200 11/08 A3008 RMK AO2=
200610040953 METAR KSEA 040953Z 02010KT 10SM SCT013 BKN100 BKN200 11/08 A3009 RMK AO2 SLP194 T01060083=
200610040853 METAR KSEA 040853Z 02006KT 10SM FEW100 SCT200 10/08 A3008 RMK AO2 SLP193 T01000083 56008=
200610040753 METAR KSEA 040753Z 02008KT 10SM SCT200 11/09 A3009 RMK AO2 SLP195 T01110089 401440100=
200610040653 METAR KSEA 040653Z 03008KT 10SM SCT200 11/09 A3009 RMK AO2 SLP195 T01110089=
200610040553 METAR KSEA 040553Z 36005KT 10SM SCT200 11/09 A3011 RMK AO2 SLP201 60000 T01110089 10133 20111 58002=
200610040453 METAR KSEA 040453Z 36005KT 10SM BKN085 12/09 A3011 RMK AO2 SLP203 T01220089=
200610040353 METAR KSEA 040353Z 36005KT 10SM SCT085 BKN150 BKN200 12/09 A3011 RMK AO2 SLP204 T01220089=
200610040253 METAR KSEA 040253Z 36006KT 10SM FEW050 BKN090 BKN140 12/09 A3011 RMK AO2 SLP203 60000 T01220094 56002=
200610040153 METAR KSEA 040153Z 36006KT 10SM FEW050 BKN080 BKN140 13/09 A3011 RMK AO2 SLP203 T01280094=
200610040053 METAR KSEA 040053Z 01006KT 10SM FEW050 BKN070 BKN140 13/09 A3011 RMK AO2 RAE49 SLP203 P0000 T01280094=
200610032353 METAR KSEA 032353Z 01006KT 10SM -RA FEW040 OVC070 13/09 A3012 RMK AO2 RAE02B22 SLP205 P0000 60000 T01330094 10144 20128 56004=
200610032253 METAR KSEA 032253Z 35008KT 10SM -RA FEW041 BKN075 OVC130 13/09 A3012 RMK AO2 RAE07B33 SLP207 P0000 T01330089=
200610032153 METAR KSEA 032153Z 36008KT 10SM -RA FEW035 SCT050 BKN070 OVC130 14/09 A3012 RMK AO2 RAE2057B40 SLP206 P0000 T01390089=
200610032100 METAR KSEA NIL=
200610031953 METAR KSEA 031953Z 29006KT 10SM FEW030 SCT100 BKN130 OVC150 14/09 A3014 RMK AO2 SLP213 T01390089=
200610031853 METAR KSEA 031853Z 30006KT 10SM FEW030 SCT130 BKN150 OVC200 14/09 A3014 RMK AO2 SLP213 T01390089=
200610031753 METAR KSEA 031753Z 36005KT 10SM FEW025 SCT130 OVC150 13/07 A3014 RMK AO2 SLP212 T01330067 10133 20100 50002=
200610031653 METAR KSEA 031653Z 01006KT 10SM FEW110 BKN150 OVC200 12/07 A3014 RMK AO2 SLP213 T01170067=
200610031553 METAR KSEA 031553Z 05008KT 10SM FEW110 BKN150 OVC200 11/06 A3014 RMK AO2 SLP211 T01110061=
200610031453 METAR KSEA 031453Z 04007KT 10SM SCT110 BKN150 OVC200 10/07 A3013 RMK AO2 SLP209 T01000067 53008=
200610031353 METAR KSEA 031353Z 03005KT 10SM BKN120 OVC200 10/07 A3012 RMK AO2 SLP205 T01000072=
200610031253 METAR KSEA 031253Z 10003KT 10SM SCT120 OVC200 10/07 A3012 RMK AO2 SLP204 T01000072=
200610031153 METAR KSEA 031153Z 01004KT 10SM SCT120 OVC200 10/08 A3011 RMK AO2 SLP201 T01000078 10128 20100 53002=
200610031053 METAR KSEA 031053Z 34003KT 10SM FEW120 OVC200 11/08 A3010 RMK AO2 SLP199 T01060083=
200610030953 METAR KSEA 030953Z 36005KT 10SM FEW120 OVC200 11/08 A3010 RMK AO2 SLP197 T01110083=
200610030853 METAR KSEA 030853Z 31003KT 10SM SCT120 OVC200 11/08 A3010 RMK AO2 SLP199 T01110078 53003=
200610030800 METAR KSEA NIL=
200610030753 METAR KSEA 030753Z 00000KT 10SM SCT120 OVC200 12/06 A3009 RMK AO2 SLP196 T01170061 401780072=
200610030700 METAR KSEA NIL=
200610030653 METAR KSEA 030653Z 00000KT 10SM SCT120 OVC200 12/07 A3009 RMK AO2 SLP196 T01170067=
200610030553 METAR KSEA 030553Z 05007KT 10SM SCT200 12/06 A3009 RMK AO2 SLP196 T01220061 10167 20122 51006=
200610030453 METAR KSEA 030453Z 02005KT 10SM SCT200 13/07 A3009 RMK AO2 SLP196 T01280067=
200610030353 METAR KSEA 030353Z 01003KT 10SM FEW120 BKN200 13/06 A3009 RMK AO2 SLP196 T01280056=
200610030253 METAR KSEA 030253Z 34003KT 10SM FEW120 BKN200 13/06 A3007 RMK AO2 SLP191 T01330061 53004=
200610030153 METAR KSEA 030153Z 01005KT 10SM FEW040 SCT120 OVC200 14/04 A3006 RMK AO2 SLP188 T01390044=
200610030053 METAR KSEA 030053Z 30005KT 10SM FEW035 SCT120 OVC200 15/07 A3006 RMK AO2 SLP186 T01500067=
200610022353 METAR KSEA 022353Z 30007KT 10SM FEW035 SCT120 OVC200 17/07 A3006 RMK AO2 SLP186 T01670067 10178 20106 55002=
200610022253 METAR KSEA 022253Z 32005KT 10SM FEW035 SCT120 BKN200 17/06 A3006 RMK AO2 SLP184 T01720061=
200610022153 METAR KSEA 022153Z VRB06KT 10SM FEW035 BKN200 17/08 A3006 RMK AO2 SLP186 T01720083=
200610022053 METAR KSEA 022053Z VRB03KT 10SM FEW030 OVC200 15/08 A3007 RMK AO2 SLP188 T01500083 58004=
200610021953 METAR KSEA 021953Z 24004KT 10SM FEW025 SCT150 BKN200 15/08 A3008 RMK AO2 SLP192 T01500083=
200610021853 METAR KSEA 021853Z 26004KT 10SM FEW020 BKN150 OVC200 13/08 A3007 RMK AO2 SLP191 T01330083=
200610021753 METAR KSEA 021753Z 14004KT 10SM FEW015 SCT130 BKN150 11/08 A3008 RMK AO2 SLP192 T01110078 10111 20072 51006=
200610021653 METAR KSEA 021653Z 12004KT 10SM FEW015 SCT060 BKN150 BKN200 09/07 A3008 RMK AO2 SLP192 T00940072=
200610021553 METAR KSEA 021553Z 14004KT 10SM SCT055 SCT130 BKN150 OVC200 08/06 A3007 RMK AO2 SLP189 T00830061=
200610021453 METAR KSEA 021453Z 12004KT 10SM SCT050 BKN150 08/06 A3006 RMK AO2 SLP187 T00780061 53013=
200610021353 METAR KSEA 021353Z 15003KT 10SM FEW060 BKN170 07/06 A3005 RMK AO2 SLP182 T00720061=
200610021253 METAR KSEA 021253Z 13004KT 10SM SCT060 08/06 A3003 RMK AO2 SLP177 T00780061=
200610021153 METAR KSEA 021153Z 15004KT 10SM SCT050 BKN060 BKN170 08/07 A3002 RMK AO2 SLP173 T00830067 10122 20083 50004=
200610021053 METAR KSEA 021053Z 00000KT 10SM SCT006 OVC060 10/08 A3003 RMK AO2 SLP174 T01000078=
200610021009 SPECI KSEA 021009Z 14003KT 10SM BKN006 BKN060 10/08 A3002 RMK AO2=
200610021009 SPECI KSEA 021009Z 14003KT 10SM BKN006 BKN060 10/08 A3002 RMK AO2=
200610021000 METAR KSEA NIL=
200610020953 METAR KSEA 020953Z 06003KT 10SM SCT055 10/08 A3002 RMK AO2 SLP173 T01000083=
200610020853 METAR KSEA 020853Z 00000KT 10SM FEW050 10/08 A3001=
200610020753 METAR KSEA 020753Z 01004KT 10SM SCT050 SCT170 11/08 A3001 RMK AO2 SLP168 T01060078 401890100=
200610020653 METAR KSEA 020653Z 30004KT 10SM SCT170 10/08 A3001 RMK AO2 SLP167 T01000083=
200610020553 METAR KSEA 020553Z 05006KT 10SM CLR 12/08 A3000 RMK AO2 SLP165 T01220083 10178 20122 58001=
200610020453 METAR KSEA 020453Z 03006KT 10SM FEW200 13/09 A3001 RMK AO2 SLP167 T01280089=
200610020353 METAR KSEA 020353Z 04008KT 10SM FEW200 13/08 A3001 RMK AO2 SLP167 T01330083=
200610020253 METAR KSEA 020253Z 01008KT 10SM SCT140 SCT200 13/08 A3000 RMK AO2 SLP166 T01280078 53001=
200610020153 METAR KSEA 020153Z 36007KT 10SM FEW045 SCT140 SCT200 14/08 A3000 RMK AO2 SLP164 T01390078=
200610020053 METAR KSEA 020053Z 32006KT 10SM FEW040 SCT200 16/07 A2999 RMK AO2 SLP162 T01610067=
200610012353 METAR KSEA 012353Z 31005KT 10SM FEW040 SCT200 17/06 A3000 RMK AO2 SLP163 T01720061 10189 20128 56010=
200610012253 METAR KSEA 012253Z VRB03KT 10SM FEW040 SCT070 SCT200 18/05 A3000 RMK AO2 SLP165 T01780050=
200610012153 METAR KSEA 012153Z 32005KT 10SM SCT032 SCT048 18/06 A3001 RMK AO2 SLP168 T01780061=
200610012053 METAR KSEA 012053Z 32007KT 10SM SCT025 SCT050 18/08 A3003 RMK AO2 SLP173 T01780083 58007=
200610011953 METAR KSEA 011953Z 00000KT 10SM SCT023 SCT050 15/09 A3004 RMK AO2 SLP176 T01500089=
200610011853 METAR KSEA 011853Z 35004KT 10SM FEW025 BKN050 14/08 A3004 RMK AO2 SLP180 T01390083=
200610011753 METAR KSEA 011753Z 36007KT 10SM FEW030 BKN048 13/08 A3005 RMK AO2 SLP181 T01280083 10128 20111 53008=
200610011653 METAR KSEA 011653Z 02007KT 10SM FEW025 BKN047 12/08 A3004 RMK AO2 SLP178 T01220078=
200610011553 METAR KSEA 011553Z 36006KT 10SM BKN047 12/08 A3003 RMK AO2 SLP175 T01220078=
200610011453 METAR KSEA 011453Z 02006KT 10SM BKN047 12/07 A3002 RMK AO2 SLP172 T01170072 53009=
200610011353 METAR KSEA 011353Z 03006KT 10SM BKN049 11/07 A3001 RMK AO2 SLP168 T01110067=
200610011253 METAR KSEA 011253Z 01005KT 10SM BKN049 12/07 A3000 RMK AO2 SLP166 T01170072=
200610011153 METAR KSEA 011153Z 03008KT 10SM OVC049 12/07 A2999 RMK AO2 SLP162 T01170067 10139 20117 53001=
200610011053 METAR KSEA 011053Z 02007KT 10SM OVC049 12/07 A2999 RMK AO2 SLP161 T01170067=
200610010953 METAR KSEA 010953Z 04010KT 10SM OVC047 12/07 A2999 RMK AO2 SLP161 T01220067=
200610010853 METAR KSEA 010853Z 05011KT 10SM OVC047 13/07 A2999 RMK AO2 SLP161 T01280067 53000=
200610010753 METAR KSEA 010753Z 05010KT 10SM BKN039 13/06 A2999 RMK AO2 SLP161 T01330061 401560111=
200610010653 METAR KSEA 010653Z 04010KT 10SM OVC039 14/07 A2999 RMK AO2 SLP161 T01390067=
200610010553 METAR KSEA 010553Z 04008KT 10SM OVC039 14/06 A2999 RMK AO2 SLP161 T01390061 10156 20139 52002=
200610010453 METAR KSEA 010453Z 03005KT 10SM BKN039 OVC200 14/06 A2998 RMK AO2 SLP160 T01390061=
200610010353 METAR KSEA 010353Z 02006KT 10SM BKN041 OVC200 14/07 A2999 RMK AO2 SLP161 T01390067=
200610010253 METAR KSEA 010253Z 01007KT 10SM BKN041 BKN200 14/06 A2998 RMK AO2 SLP159 T01390061 55002=
200610010153 METAR KSEA 010153Z 03006KT 10SM BKN055 BKN140 BKN200 14/07 A2998 RMK AO2 SLP159 T01390067=
200610010053 METAR KSEA 010053Z 04013KT 10SM BKN050 BKN200 15/08 A2998 RMK AO2 SLP160 T01500078=

# No short TAF reports from KSEA in databse.

###################################
#  large TAF from KSEA
###################################
200610312338 TAF KSEA 312338Z 010024 36010KT P6SM SKC FM0400 04006KT P6SM SKC
                       FM1200 06005KT P6SM VCFG SKC FM1700 07006KT
                       P6SM FEW010 FM1900 02006KT P6SM SCT250 FM2200
                       02006KT P6SM SCT120 BKN200=
200610311720 TAF KSEA 311720Z 311818 02008KT P6SM SKC FM2100 01011KT P6SM SKC
                       FM0400 04006KT P6SM SKC FM1200 06005KT 6SM
                       BR SCT003
                      TEMPO 1216 3/4SM BR BKN003 FM1700 07006KT
                       P6SM FEW009=
200610311603 KSEA 311603Z 311612 03009KT P6SM FEW005 FM1700 01010KT P6SM SKC
                       FM2000 01011KT P6SM SKC FM0400 04006KT P6SM
                       SKC=
200610311250 KSEA 311250Z 311312 05009KT 4SM BR SCT002
                      TEMPO 1317 1/2SM FG BKN001 FM2000 01011KT
                       P6SM SKC FM0400 04006KT P6SM SKC=
200610311137 TAF KSEA 311137Z 311212 05009KT P6SM SKC FM2000 01011KT P6SM SKC
                       FM0400 04006KT P6SM SKC=
200610310530 TAF KSEA 310530Z 310606 03009KT P6SM SKC FM1900 01007KT P6SM SKC=
200610302343 TAF KSEA 302343Z 310024 04008KT P6SM SKC FM0500 05006KT P6SM SKC
                       FM1900 01007KT P6SM SKC=
200610301720 TAF KSEA 301720Z 301818 03008KT P6SM FEW250 FM2100 36012KT P6SM
                       SKC FM0200 04007KT P6SM SKC=
200610301124 TAF KSEA 301124Z 301212 02007KT P6SM VCFG SKC FM1600 02009KT P6SM
                       SKC FM1900 36012KT P6SM SKC FM0200 04007KT
                       P6SM SKC=
200610300529 TAF KSEA 300529Z 300606 03007KT P6SM SKC FM1900 36010KT P6SM SKC
                       FM0200 04007KT P6SM SKC=
200610300320 TAF AMD KSEA 300320Z 300324 01009KT P6SM VCSH FEW030 BKN080 FM0500
                       03008KT P6SM FEW080=
200610300130 TAF AMD KSEA 300130Z 300224 36010KT P6SM FEW040 SCT080 FM0400 03008KT
                       P6SM SKC=
200610292334 TAF KSEA 292334Z 300024 36014G22KT P6SM VCSH SCT025 BKN045 FM0200
                       01012G20KT P6SM SCT045 FM0400 03008KT P6SM
                       SKC=
200610292300 KSEA 300320Z 300324 01009KT P6SM VCSH FEW030 BKN080 FM0500 03008KT
                       P6SM FEW080=
200610292111 KSEA 292111Z 292118 06008KT P6SM SCT025 BKN045
                      TEMPO 2123 4SM SHRA SCT015 OVC025 FM2300
                       34015G24KT P6SM VCSH SCT020 BKN050 FM0100
                       36015G22KT P6SM SCT060 FM0300 02011G19KT
                       P6SM SKC FM0800 05007KT P6SM SKC=
200610291903 KSEA 291903Z 291918 10008KT P6SM VCSH SCT020 BKN030 FM2100 32012G20KT
                       P6SM VCSH SCT020 BKN060 FM2300 36015G22KT
                       P6SM SCT060 FM0100 02011G19KT P6SM SKC FM0800
                       05007KT P6SM SKC=
200610291737 TAF KSEA 291737Z 291818 03005KT 5SM -SHRA BR SCT007 BKN015 BKN025
                       FM1900 32012G20KT P6SM VCSH SCT020 BKN060
                       FM2100 36015G22KT P6SM SCT060 FM0000 02011G19KT
                       P6SM SKC FM0800 05007KT P6SM SKC=
200610291517 KSEA 291517Z 291512 16007KT 1SM SHRA BR BKN005 BKN010 OVC020 FM1600
                       19007KT 5SM -SHRA BR SCT005 BKN012 OVC025
                       FM1700 23008KT P6SM VCSH BKN020 FM1800 26009KT
                       P6SM SCT020 BKN060
                      TEMPO 1820 2SM SHRA BR SCT010 BKN018 FM2000
                       35013KT P6SM SCT060 FM0000 01009KT P6SM
                       FEW060 FM0600 04007KT P6SM SKC=
200610291231 KSEA 291231Z 291312 26009KT 5SM SHRA SCT004 OVC015
                      TEMPO 1314 2SM +RA BKN004 OVC015 FM1400 26009KT
                       P6SM SCT025 BKN040 BKN060 FM1600 26009KT
                       P6SM SCT060 FM1800 32013KT P6SM SCT060
                      TEMPO 1822 32013G20KT FM0000 01009KT P6SM
                       FEW060 FM0600 04007KT P6SM SKC=
200610291139 TAF KSEA 291139Z 291212 23015G23KT 6SM RA SCT007 OVC015
                      TEMPO 1214 2SM +RA BKN007 OVC015 FM1400 26009KT
                       P6SM SCT025 BKN040 BKN060 FM1600 26009KT
                       P6SM SCT060 FM1800 32013KT P6SM SCT060
                      TEMPO 1822 32013G20KT FM0000 01009KT P6SM
                       FEW060 FM0600 04007KT P6SM SKC=
200610291046 KSEA 291046Z 291106 21015G23KT P6SM -RA FEW008 BKN015 OVC040
                      TEMPO 1113 3SM RA BKN008 OVC015 FM1300 24018G25KT
                       P6SM -RA BKN022 OVC040 FM1500 24013G22KT
                       P6SM SCT022 BKN040 FM1800 24013G22KT P6SM
                       SCT040 FM2100 32013KT P6SM SCT040 FM0000
                       01011KT P6SM SCT040=
200610290807 KSEA 290807Z 290806 20011KT P6SM SCT050 SCT100 FM0900 20011KT P6SM
                       BKN050 BKN100 FM1100 20013G20KT P6SM -RA
                       SCT025 OVC050
                      TEMPO 1113 BKN025 OVC050 FM1300 24018G25KT
                       P6SM -RA BKN022 OVC040 FM1500 24013G22KT
                       P6SM SCT022 BKN040 FM1800 24013G22KT P6SM
                       SCT040 FM2100 32013KT P6SM SCT040 FM0000
                       01011KT P6SM SCT040=
200610290545 TAF KSEA 290545Z 290606 17009KT P6SM BKN050 BKN100 FM0900 19011KT
                       P6SM BKN050 BKN100 FM1100 19013G20KT P6SM
                       -RA SCT025 OVC050
                      TEMPO 1113 BKN025 OVC050 FM1300 24018G25KT
                       P6SM -RA BKN022 OVC040 FM1500 24013G22KT
                       P6SM SCT022 BKN040
                      PROB30 1518 -SHRA FM1800 24013G22KT P6SM
                       SCT040 FM2100 32013KT P6SM SCT040 FM0000
                       01011KT P6SM SCT040=
200610290355 TAF AMD KSEA 290355Z 290424 19005KT 2SM BR SCT003 BKN050 BKN100
                       TEMPO 0406 1/4SM FG VV001 FM0600 19009KT
                       5SM BR SCT010 BKN050 OVC100 FM0900 21012KT
                       P6SM BKN050 OVC100 FM1200 21013G20KT P6SM
                       -RA BKN025 OVC050 FM1600 21009KT P6SM -SHRA
                       BKN040 BKN080 FM1800 24008KT P6SM BKN040
                       BKN080=
200610290309 TAF AMD KSEA 290309Z 290324 21005KT 3SM BR SCT003 BKN050 BKN100
                       TEMPO 0305 1SM BR FM0500 21009KT 5SM BR
                       SCT010 BKN050 OVC100 FM0600 21012KT P6SM
                       BKN050 OVC100 FM0900 21013G20KT P6SM -RA
                       BKN025 OVC050 FM1600 21009KT P6SM -SHRA
                       BKN040 BKN080 FM1800 24008KT P6SM BKN040
                       BKN080=
200610290222 TAF AMD KSEA 290222Z 290224 21005KT 2SM BR BKN003 BKN100
                      TEMPO 0205 1/2SM FG VV001 FM0500 21009KT
                       4SM BR SCT010 BKN050 OVC100 FM0600 21012KT
                       P6SM BKN050 OVC100 FM0900 21013G20KT P6SM
                       -RA BKN025 OVC050 FM1600 21009KT P6SM -SHRA
                       BKN040 BKN080 FM1800 24008KT P6SM BKN040
                       BKN080=
200610290214 TAF AMD KSEA 290214Z 290224 23005KT 4SM BR SCT001 SCT100
                      TEMPO 0205 2SM BR VV001 FM0500 21009KT P6SM
                       SCT050 BKN100 FM0900 21013G20KT P6SM -RA
                       BKN025 OVC050 FM1600 21009KT P6SM -SHRA
                       BKN040 BKN080 FM1800 24008KT P6SM BKN040
                       BKN080=
200610282348 TAF KSEA 282348Z 290024 27006KT P6SM SKC FM0200 23006KT P6SM SCT050
                       BKN100 FM0900 21013G20KT P6SM -RA BKN025
                       OVC050 FM1600 21009KT P6SM -SHRA BKN040
                       BKN080 FM1800 24008KT P6SM BKN040 BKN080=
200610282300 KSEA 290355Z 290424 19005KT 2SM BR SCT003 BKN050 BKN100
                      TEMPO 0406 1/4SM FG VV001 FM0600 19009KT
                       5SM BR SCT010 BKN050 OVC100 FM0900 21012KT
                       P6SM BKN050 OVC100 FM1200 21013G20KT P6SM
                       -RA BKN025 OVC050 FM1600 21009KT P6SM -SHRA
                       BKN040 BKN080 FM1800 24008KT P6SM BKN040
                       BKN080=
200610281720 TAF KSEA 281720Z 281818 21006KT 2SM BR SCT003 BKN010 FM1900 21006KT
                       P6SM BKN010 BKN100 FM2000 21008KT P6SM FEW050
                       SCT100 FM0200 19011KT P6SM SCT050 BKN100
                       PROB30 0609 -RA OVC050 FM0900 19013G20KT
                       P6SM -RA SCT025 OVC050 FM1600 21009KT P6SM
                       -SHRA BKN040 BKN080=
200610281423 KSEA 281423Z 281412 VRB03KT 1/4SM FG VV001 FM1600 21006KT 2SM BR
                       OVC004 FM1900 21006KT P6SM BKN009 BKN100
                       FM2000 21008KT P6SM FEW050 SCT100 FM0200
                       19011KT P6SM SCT050 BKN100
                      PROB30 0609 -RA OVC050 FM0900 19013G20KT
                       P6SM -RA SCT025 OVC050=
200610281126 TAF KSEA 281126Z 281212 VRB03KT 1/2SM FG VV001 FM1800 21006KT 3SM
                       BR OVC004 FM1900 21006KT P6SM BKN009 BKN100
                       FM2000 21008KT P6SM FEW050 SCT100 FM0200
                       19011KT P6SM SCT050 BKN100
                      PROB30 0609 -RA OVC050 FM0900 19013G20KT
                       P6SM -RA SCT025 OVC050=
200610281041 KSEA 281041Z 281106 VRB03KT 3/4SM BR VV001
                      TEMPO 1115 1/4SM FG FM1800 21006KT 4SM BR
                       OVC005 FM1900 21006KT P6SM BKN010 BKN100
                       FM2000 21009KT P6SM FEW050 SCT100 FM0200
                       19012KT P6SM SCT050 BKN100=
200610280943 KSEA 280943Z 281006 00000KT 3SM BR SCT002
                      TEMPO 1012 1SM BR BKN002 FM1200 VRB03KT 1SM
                       BR VV002
                      TEMPO 1216 1/2SM FG FM1800 21006KT 4SM BR
                       OVC005 FM1900 21006KT P6SM BKN010 BKN100
                       FM2000 21009KT P6SM FEW050 SCT100 FM0200
                       19012KT P6SM SCT050 BKN100=
200610280543 TAF KSEA 280543Z 280606 00000KT P6SM SKC FM1000 00000KT 3SM BR
                       SCT002 FM1200 VRB03KT 1SM BR VV002
                      TEMPO 1216 1/2SM FG FM1800 21006KT 4SM BR
                       OVC005 FM1900 21006KT P6SM BKN010 BKN100
                       FM2000 21009KT P6SM FEW050 SCT100 FM0200
                       19012KT P6SM SCT050 BKN100=
200610272336 TAF KSEA 272336Z 280024 20007KT P6SM SCT030 SCT060 SCT200
                      TEMPO 0911 3SM BR SCT003 FM1100 16004KT 3SM
                       BR BKN003
                      TEMPO 1216 1SM BR OVC002 FM1800 16008KT P6SM
                       SCT080 FM2200 16010KT P6SM BKN080=
200610271729 TAF KSEA 271729Z 271818 18008KT P6SM BKN018 BKN200
                      TEMPO 1821 SCT020 BKN200 FM2100 20006KT P6SM
                       BKN200 FM1000 VRB03KT 1SM BR BKN002
                      TEMPO 1216 1/2SM FG VV002=
200610270635 TAF AMD KSEA 270635Z 270706 19010KT P6SM OVC012 FM1200 19006KT
                       P6SM OVC012 FM1900 21006KT P6SM BKN020 BKN200
                       FM2000 23008KT P6SM BKN200 FM0100 19005KT
                       P6SM SCT200=
200610270541 TAF KSEA 270541Z 270606 19009KT P6SM OVC020 FM1200 19006KT P6SM
                       OVC012 FM1900 21006KT P6SM BKN020 BKN200
                       FM2000 23008KT P6SM BKN200 FM0100 19005KT
                       P6SM SCT200=
200610270318 TAF AMD KSEA 270318Z 270324 19011KT P6SM BKN025 OVC050 FM1000 18006KT
                       P6SM SCT009 BKN015 OVC100 FM1700 19006KT
                       P6SM SCT012 BKN025 FM2000 21006KT P6SM SCT025
                       FM2300 24005KT P6SM SCT250=
200610262340 TAF KSEA 262340Z 270024 21011KT P6SM VCSH SCT015 BKN025 OVC050
                       FM0400 19008KT P6SM SCT020 BKN100 FM1000
                       18006KT P6SM SCT009 BKN015 OVC100 FM1700
                       19006KT P6SM SCT012 BKN025 FM2000 21006KT
                       P6SM SCT025 FM2300 24005KT P6SM SCT250=
200610262300 KSEA 270318Z 270324 19011KT P6SM BKN025 OVC050 FM1000 18006KT P6SM
                       SCT009 BKN015 OVC100 FM1700 19006KT P6SM
                       SCT012 BKN025 FM2000 21006KT P6SM SCT025
                       FM2300 24005KT P6SM SCT250=
200610261739 TAF KSEA 261739Z 261818 19012KT P6SM VCSH SCT015 BKN025 OVC035
                       FM0600 20008KT P6SM VCSH SCT015 BKN025 OVC035
                       FM1200 18006KT P6SM SCT009 BKN015 OVC100
                       FM1700 19006KT P6SM SCT012 BKN025=
200610261138 TAF KSEA 261138Z 261212 18012KT P6SM SCT025 OVC050 FM1800 20012KT
                       P6SM BKN050 OVC090 FM0100 19008KT P6SM BKN050
                       OVC090=
200610261033 KSEA 261033Z 261106 18008KT P6SM SCT025 OVC050
                      TEMPO 1317 BKN025 OVC035 FM1800 21011KT P6SM
                       SCT030 OVC050 FM0200 19008KT P6SM SCT030
                       OVC050=
200610260536 TAF KSEA 260536Z 260606 18008KT P6SM FEW028 BKN045 BKN090 FM1100
                       18008KT P6SM SCT025 OVC035
                      TEMPO 1317 BKN025 OVC035 FM1800 21011KT P6SM
                       SCT030 OVC050 FM0200 19008KT P6SM SCT030
                       OVC050=
200610252331 TAF KSEA 252331Z 260024 17003KT P6SM SCT030 BKN080 OVC150 FM0600
                       17008KT P6SM SCT030 OVC050 FM1100 18009KT
                       P6SM BKN030 OVC050 FM1800 21011KT P6SM SCT030
                       OVC060=
200610251730 TAF KSEA 251730Z 251818 21004KT P6SM SCT100
                      TEMPO 1820 FEW020 BKN100 FM2300 18008KT P6SM
                       BKN050 OVC100 FM0600 17008KT P6SM OVC060
                       FM1100 18009KT P6SM BKN035 OVC050=
200610251435 KSEA 251435Z 251512 18006KT P6SM SCT040 BKN060
                      TEMPO 1518 BKN040 FM1800 22007KT P6SM SCT040
                       OVC120 FM0200 18006KT P6SM BKN040 OVC060
                       PROB30 0612 -RA=
200610251142 TAF KSEA 251142Z 251212 16006KT P6SM SCT014 BKN028 BKN060
                      TEMPO 1316 5SM BR BKN014 OVC028 FM1800 22007KT
                       P6SM SCT035 OVC070 FM0200 18006KT P6SM BKN040
                       OVC060
                      PROB30 0612 -RA=
200610251025 KSEA 251025Z 251006 16006KT P6SM SCT023 BKN060
                      TEMPO 1012 BKN023 OVC060 FM1200 16004KT P6SM
                       SCT008 OVC017
                      TEMPO 1315 4SM BR BKN008 OVC017 FM1700 21007KT
                       P6SM SCT022 BKN040 BKN060=
200610250538 TAF KSEA 250538Z 250606 16004KT P6SM SCT080 FM1000 16004KT P6SM
                       SCT008 OVC017
                      TEMPO 1215 4SM BR BKN008 OVC017 FM1700 21007KT
                       P6SM SCT022 BKN040 BKN060=
200610242337 TAF KSEA 242337Z 250024 22010KT P6SM VCSH BKN040 BKN070 FM0200
                       20007KT P6SM BKN035 BKN060
                      TEMPO 0205 -SHRA BKN025 BKN060 FM0600 20006KT
                       P6SM VCSH BKN040 BKN070 FM1400 18004KT P6SM
                       BKN020 BKN040 FM1700 20006KT P6SM SCT025
                       BKN045=
200610242112 KSEA 242112Z 242118 24012KT P6SM VCSH BKN045 BKN070 FM0000 22008KT
                       P6SM BKN035 BKN060
                      TEMPO 0004 -SHRA FM0400 21010KT P6SM VCSH
                       BKN040 BKN070=
200610241733 TAF KSEA 241733Z 241818 20008KT P6SM BKN045 BKN070
                      TEMPO 1821 -SHRA BKN022 OVC045 FM2100 22016G24KT
                       P6SM -SHRA BKN035 BKN060 FM0200 21010KT
                       P6SM VCSH BKN040 BKN070=
200610241641 KSEA 241641Z 241712 20008KT P6SM BKN045 BKN080
                      TEMPO 1718 -SHRA BKN015 BKN050 FM2000 22016G24KT
                       P6SM -SHRA BKN035 BKN060 FM0200 21010KT
                       P6SM VCSH BKN040 BKN070=
200610241135 TAF KSEA 241135Z 241212 19012KT P6SM SCT008 BKN070 FM1300 19012KT
                       P6SM -RA SCT008 SCT018 OVC060
                      TEMPO 1316 5SM -RA BR BKN018 OVC060 FM1600
                       20012KT P6SM -SHRA BKN035 OVC050 FM2000
                       22016G24KT P6SM -SHRA BKN035 BKN060 FM0200
                       21010KT P6SM VCSH BKN040 BKN070=
200610240540 TAF KSEA 240540Z 240606 17006KT P6SM SCT220 FM1000 17008KT P6SM
                       BKN040 OVC070 FM1200 18008KT P6SM -RA SCT020
                       OVC035
                      TEMPO 1216 5SM -RA BKN020 OVC035 FM1600 20012KT
                       P6SM -SHRA BKN035 OVC050 FM2000 22016G24KT
                       P6SM -SHRA BKN035 BKN060 FM0200 21010KT
                       P6SM VCSH BKN040 BKN070=
200610232323 TAF KSEA 232323Z 240024 32005KT P6SM BKN180 FM0400 18006KT P6SM
                       SCT050 BKN180 FM0900 18010KT P6SM -RA OVC040
                       FM1200 20010KT P6SM -RA BKN020 OVC035 FM1400
                       20010KT P6SM BKN025 OVC040 FM1800 21014KT
                       P6SM VCSH SCT025 BKN040=
200610231928 KSEA 231928Z 231918 VRB03KT P6SM BKN012 BKN180
                      TEMPO 1921 SCT015 BKN180 FM2100 28004KT P6SM
                       FEW015 OVC180 FM0400 18006KT P6SM BKN040
                       FM0900 18010KT P6SM -RA OVC020=
200610231742 TAF KSEA 231742Z 231818 13004KT P6SM SCT013
                      TEMPO 1819 BKN013 FM1900 28004KT P6SM SCT015
                       BKN180 FM2100 28004KT P6SM OVC180 FM0400
                       18006KT P6SM BKN040 FM0900 18010KT P6SM
                       -RA OVC020=
200610231625 KSEA 231625Z 231612 13004KT P6SM BKN013
                      TEMPO 1619 SCT013 FM1900 VRB04KT P6SM SCT015
                       FM2100 VRB04KT P6SM SCT030 FM0400 18008KT
                       P6SM BKN030=
200610231127 TAF KSEA 231127Z 231212 VRB04KT P6SM SKC
                      TEMPO 1214 4SM BR SCT005 FM1400 VRB04KT 4SM
                       BR BKN005
                      TEMPO 1418 P6SM NSW SCT010 FM1800 VRB04KT
                       P6SM SCT015 FM2100 VRB04KT P6SM SCT030 FM0400
                       18008KT P6SM BKN030=
200610230520 TAF KSEA 230520Z 230606 02008KT P6SM SCT100 BKN200 FM1200 VRB04KT
                       5SM BR BKN005 FM1800 25004KT P6SM SCT015
                       FM2100 30006KT P6SM SCT030=
200610230201 TAF AMD KSEA 230201Z 230224 36008KT P6SM SCT090 BKN200 FM0900 VRB04KT
                       P6SM BKN010 BKN060 FM1400 22004KT 5SM BR
                       BKN008 FM1800 25004KT P6SM SCT025=
200610222320 TAF KSEA 222320Z 230024 30005KT P6SM BKN250 FM0300 22007KT P6SM
                       SCT090 BKN200 FM0900 20006KT P6SM BKN010
                       BKN060 FM1400 22004KT 5SM BR BKN008 FM1800
                       25004KT P6SM SCT025=
200610222300 KSEA 230201Z 230224 36008KT P6SM SCT090 BKN200 FM0900 VRB04KT P6SM
                       BKN010 BKN060 FM1400 22004KT 5SM BR BKN008
                       FM1800 25004KT P6SM SCT025=
200610221720 TAF KSEA 221720Z 221818 VRB03KT P6SM SCT250 FM0300 22007KT P6SM
                       SCT090 BKN200 FM0900 20006KT P6SM BKN010
                       BKN060 FM1400 22004KT 5SM BR BKN008=
200610221120 TAF KSEA 221120Z 221212 05006KT P6SM SCT200 FM1800 VRB05KT P6SM
                       BKN200 FM0900 20006KT P6SM BKN010=
200610220520 TAF KSEA 220520Z 220606 04008KT P6SM SCT200
                      TEMPO 1114 2SM BR SCT002 FM1800 VRB05KT P6SM
                       BKN200=
200610212320 TAF KSEA 212320Z 220024 02012KT P6SM FEW200 FM0700 09008KT P6SM
                       BKN200 FM1800 35005KT P6SM BKN200=
200610212259 KSEA 212259Z 212318 02012KT P6SM FEW200 FM0700 09006KT P6SM SCT200=
200610211920 KSEA 211920Z 211918 04008KT P6SM FEW005 FM2000 35005KT P6SM SCT200
                       FM0700 09006KT P6SM SCT200=
200610211730 TAF KSEA 211730Z 211818 04010KT 4SM BR SCT004
                      TEMPO 1820 2SM BR BKN002 FM2000 35005KT P6SM
                       SCT200 FM0700 09006KT P6SM SCT200=
200610211650 KSEA 211650Z 211712 02007KT 3SM BR SCT002
                      TEMPO 1719 1SM BR BKN002 FM1900 36006KT 4SM
                       BR SCT005 FM2100 34005KT P6SM BKN200 FM1000
                       04004KT 1SM BR BKN002=
200610211517 KSEA 211517Z 211512 02006KT 1/2SM FG VV001
                      TEMPO 1518 1/4SM FG VV001 FM1800 36006KT
                       2SM BR BKN003 FM2200 34005KT P6SM BKN200
                       FM1000 04004KT 1SM BR BKN002=
200610211454 KSEA 211454Z 211512 36008KT 1/4SM FG VV001 FM1900 36007KT 2SM BR
                       BKN003 FM2200 34005KT P6SM BKN200 FM1000
                       04004KT 1SM BR BKN002=
200610211405 TAF AMD KSEA 211405Z 211412 04008KT 1/4SM FG VV001 FM1800 04004KT
                       3SM BR BKN005 FM1900 36006KT P6SM BKN200
                       FM1000 04004KT 1SM BR BKN002=
200610211120 TAF KSEA 211120Z 211212 04004KT 1SM BR BKN002
                      TEMPO 1216 1/2SM FG VV002 FM1900 36006KT
                       P6SM BKN200 FM1000 04004KT 1SM BR BKN002=
200610211030 KSEA 211030Z 211106 04006KT 1/2SM FG VV002 FM1800 04006KT 4SM BR
                       BKN005 FM2000 34005KT P6SM FEW020=
200610210520 TAF KSEA 210520Z 210606 02005KT P6SM SCT200 FM1200 04006KT P6SM
                       VCFG SCT001 SCT200 FM1400 04006KT 1SM BR
                       BKN001
                      TEMPO 1418 1/4SM FG VV001 FM1800 04006KT
                       4SM BR BKN005 FM2000 34005KT P6SM FEW020=
200610202320 TAF KSEA 202320Z 210024 34010KT P6SM SCT030 BKN200 FM0400 02005KT
                       P6SM SCT200 FM1200 04006KT P6SM VCFG SCT001
                       SCT200 FM1400 04006KT 1SM BR BKN001
                      TEMPO 1418 1/4SM FG VV001 FM1800 04006KT
                       4SM BR BKN005 FM2000 34005KT P6SM FEW020=
200610202024 KSEA 202024Z 202018 02007KT P6SM SCT020 BKN030 FM2200 36006KT P6SM
                       SCT045 SCT200 FM0400 02005KT P6SM SCT200
                       FM1200 04006KT P6SM VCFG SCT001 SCT200 FM1400
                       04006KT 1SM BR BKN001
                      TEMPO 1418 1/4SM FG VV001=
200610201724 TAF KSEA 201724Z 201818 00000KT P6SM FEW025 SCT035 BKN045 FM2100
                       36006KT P6SM SCT045 SCT200 FM0400 02005KT
                       P6SM SCT200 FM1200 04006KT P6SM VCFG SCT001
                       SCT200 FM1400 04006KT 1SM BR BKN001
                      TEMPO 1418 1/4SM FG VV001=
200610201614 KSEA 201614Z 201612 00000KT P6SM FEW025 SCT035 BKN045 FM2200 36006KT
                       P6SM SCT045 BKN200 FM1000 04006KT 1SM BR
                       SKC=
200610201120 TAF KSEA 201120Z 201212 VRB04KT P6SM SCT015 BKN035
                      TEMPO 1216 BKN015 OVC030 FM1600 VRB04KT P6SM
                       BKN020 FM2200 36006KT P6SM SCT030 BKN200
                       FM1000 04006KT 1SM BR SKC=
200610200520 TAF KSEA 200520Z 200606 18006KT P6SM BKN020 FM1000 VRB03KT P6SM
                       OVC012 FM1800 33006KT P6SM BKN020 FM2200
                       36008KT P6SM SCT030=
200610200037 TAF AMD KSEA 200037Z 200124 36010KT 5SM -RA SCT002 BKN006 OVC011
                       FM0200 03004KT P6SM VCSH SCT006 BKN018 FM0400
                       24010KT P6SM VCSH SCT010 BKN018 FM1000 VRB03KT
                       P6SM OVC008 FM1500 VRB03KT P6SM BKN011 FM1800
                       35006KT P6SM SKC=
200610192339 TAF KSEA 192339Z 200024 26008KT 5SM -RA SCT002 BKN006 OVC011
                      TEMPO 0105 1SM -RA BKN002 OVC008 FM0500 26006KT
                       P6SM OVC004 FM1000 VRB03KT P6SM OVC008 FM1500
                       VRB03KT P6SM BKN011 FM1800 35006KT P6SM
                       SKC=
200610192300 KSEA 200037Z 200124 36010KT 5SM -RA SCT002 BKN006 OVC011 FM0200
                       03004KT P6SM VCSH SCT006 BKN018 FM0400 24010KT
                       P6SM VCSH SCT010 BKN018 FM1000 VRB03KT P6SM
                       OVC008 FM1500 VRB03KT P6SM BKN011 FM1800
                       35006KT P6SM SKC=
200610191740 TAF KSEA 191740Z 191818 21008KT P6SM OVC006 FM2200 21008KT P6SM
                       SCT006 OVC012 FM0100 VRB03KT P6SM SCT006
                       BKN015 OVC025
                      TEMPO 0105 4SM BR BKN006 OVC015 FM0500 21006KT
                       P6SM OVC006 FM1600 VRB03KT P6SM SCT006 OVC015=
200610191453 KSEA 191453Z 191512 18008KT P6SM -DZ SCT003 OVC008
                      TEMPO 1519 2SM -DZ BKN003 OVC008 FM2000 21006KT
                       P6SM -SHRA SCT008 BKN015 OVC030 FM0200 VRB05KT
                       P6SM VCSH BKN025 BKN050 FM0800 36006KT P6SM
                       BKN015=
200610191120 TAF KSEA 191120Z 191212 18006KT 5SM -RA BR SCT003 OVC012
                      TEMPO 1216 2SM -RA BR OVC003 FM1800 21006KT
                       P6SM -SHRA BKN015 OVC030 FM2200 VRB05KT
                       P6SM VCSH BKN025 BKN050
                      TEMPO 0004 SCT030 BKN050 FM0800 36006KT P6SM
                       BKN015=
200610190603 KSEA 190603Z 190606 18010KT 4SM -DZ BR BKN005 OVC015 FM1200 18008KT
                       P6SM -RA SCT005 OVC015 FM1900 22008KT P6SM
                       SCT015 OVC025=
200610190520 TAF KSEA 190520Z 190606 18008KT P6SM -RA SCT006 OVC015
                      TEMPO 1216 4SM -RA BKN006 OVC012 FM1900 22008KT
                       P6SM SCT015 OVC025=
200610182320 TAF KSEA 182320Z 190024 18010KT P6SM -RA SCT006 BKN012 OVC020
                      TEMPO 0004 2SM -RA BKN006 OVC012 FM0400 18010KT
                       P6SM SCT006 BKN018 OVC030
                      TEMPO 0406 4SM -RA BKN006 OVC018 FM1000 18006KT
                       P6SM -RA SCT006 OVC012
                      TEMPO 1216 4SM -RA BKN006 OVC012 FM1900 22008KT
                       P6SM SCT012 BKN022 OVC035=
200610181737 TAF KSEA 181737Z 181818 18006KT P6SM -RA SCT006 BKN018 OVC030
                      TEMPO 2024 4SM -RA BKN006 OVC018 FM0000 18008KT
                       P6SM -RA BKN006 OVC012=
200610181621 KSEA 181621Z 181612 18006KT P6SM -RA SCT008 BKN025 OVC035
                      TEMPO 1620 4SM -RA BKN008 FM2300 18008KT
                       5SM -RA BKN008 OVC015=
200610181141 TAF KSEA 181141Z 181212 20005KT P6SM BKN028 OVC040 FM1700 18007KT
                       P6SM SCT015 BKN024 OVC100 FM2000 18004KT
                       P6SM SCT013 BKN025 OVC050 FM2300 17008KT
                       P6SM -RA SCT012 OVC025 FM0200 18007KT 6SM
                       -RA SCT007 OVC013 FM0500 18006KT 6SM -RA
                       BKN007 OVC013=
200610181045 KSEA 181045Z 181106 16007KT P6SM SCT025 BKN028 OVC040 FM1700 18007KT
                       P6SM SCT012 BKN024 OVC100 FM2000 18004KT
                       P6SM SCT010 BKN025 OVC050 FM2300 17008KT
                       P6SM -RA OVC025 FM0400 19007KT 6SM -RA OVC013=
200610180541 TAF KSEA 180541Z 180606 16004KT P6SM SCT035 BKN070 FM1100 20004KT
                       P6SM SCT006 BKN035 OVC080
                      TEMPO 1316 BKN007 OVC040 FM1700 20007KT P6SM
                       SCT012 BKN030 OVC100 FM2000 20004KT P6SM
                       SCT010 BKN025 OVC050 FM2300 17008KT P6SM
                       -RA OVC025 FM0400 19007KT 6SM -RA OVC013=
200610172333 TAF KSEA 172333Z 180024 29006KT P6SM SCT040
                      TEMPO 0001 BKN040 FM0400 VRB03KT P6SM SKC
                       FM1100 20004KT P6SM OVC003
                      TEMPO 1316 4SM BR FM1700 20004KT P6SM OVC008
                       FM1900 20004KT P6SM SCT010 BKN025 OVC050
                       FM2300 17008KT P6SM -RA OVC025=
200610171745 TAF KSEA 171745Z 171818 VRB03KT P6SM BKN008 FM1900 VRB03KT P6SM
                       SCT010
                      TEMPO 1920 BKN010 FM2000 VRB03KT P6SM SKC
                       FM1100 20004KT P6SM OVC003
                      TEMPO 1316 4SM BR FM1700 20004KT P6SM OVC008=
200610171505 KSEA 171505Z 171512 VRB03KT 1/2SM FG OVC002 FM1700 VRB03KT 3SM
                       BR OVC002 FM1900 VRB03KT P6SM SCT025 BKN040
                       FM2100 VRB05KT P6SM SCT045 FM1000 VRB02KT
                       P6SM BKN200=
200610171128 TAF KSEA 171128Z 171212 VRB03KT P6SM SCT005 BKN027 OVC040
                      TEMPO 1216 4SM BR BKN004 OVC025 FM1600 VRB03KT
                       P6SM SCT025 BKN040 FM2100 VRB05KT P6SM SCT045
                       FM1000 VRB02KT P6SM BKN200=
200610170541 TAF KSEA 170541Z 170606 00000KT P6SM BKN045 FM1200 VRB03KT P6SM
                       SCT002 BKN040
                      TEMPO 1316 4SM BR BKN002 FM1800 VRB03KT P6SM
                       SCT050=
200610170105 TAF AMD KSEA 170105Z 170124 35006KT P6SM FEW015 BKN040 FM0400 VRB03KT
                       P6SM SCT040 FM1000 VRB03KT P6SM BKN002
                      TEMPO 1316 4SM BR BKN002 FM1700 VRB03KT P6SM
                       SKC=
200610162338 TAF KSEA 162338Z 170024 32004KT P6SM SCT020 BKN040
                      TEMPO 0002 BKN020 OVC040 FM0400 VRB03KT P6SM
                       SCT040 FM1000 VRB03KT P6SM BKN002
                      TEMPO 1316 4SM BR BKN002 FM1700 VRB03KT P6SM
                       SKC=
200610162300 KSEA 170105Z 170124 35006KT P6SM FEW015 BKN040 FM0400 VRB03KT P6SM
                       SCT040 FM1000 VRB03KT P6SM BKN002
                      TEMPO 1316 4SM BR BKN002 FM1700 VRB03KT P6SM
                       SKC=
200610161739 TAF KSEA 161739Z 161818 VRB03KT P6SM SCT008 BKN015 OVC025
                      TEMPO 1820 BKN008 OVC015 FM2200 VRB03KT P6SM
                       SCT020 BKN035
                      TEMPO 2201 BKN020 BKN035 FM0700 VRB03KT P6SM
                       BKN006 OVC012 FM1700 VRB03KT P6SM SCT006
                       OVC012=
200610161622 KSEA 161622Z 161612 23006KT P6SM SCT008 BKN015 OVC035 FM2100 VRB05KT
                       P6SM SCT020 BKN040 FM1000 36006KT P6SM BKN010=
200610161342 KSEA 161342Z 161412 22008KT P6SM SCT008 BKN015 OVC040
                      TEMPO 1417 BKN008 BKN015 OVC040 FM1700 VRB05KT
                       P6SM SCT020 BKN040
                      TEMPO 2202 SCT040 FM1000 36006KT P6SM BKN010=
200610161125 TAF KSEA 161125Z 161212 22008KT P6SM SCT008 BKN015 OVC040
                      TEMPO 1317 SCT020 BKN040 FM1700 VRB05KT P6SM
                       BKN040
                      TEMPO 2202 SCT040 FM1000 36006KT P6SM BKN010=
200610160520 TAF KSEA 160520Z 160606 20008KT P6SM OVC015 FM1800 24007KT P6SM
                       BKN025 BKN050 FM2100 VRB05KT P6SM BKN040=
200610152338 TAF KSEA 152338Z 160024 21013G20KT P6SM -SHRA SCT008 BKN014 OVC022
                       TEMPO 0004 SCT014 BKN022 OVC060 FM0400 22012KT
                       P6SM -SHRA SCT016 BKN025 OVC040 FM0800 18006KT
                       P6SM OVC016 FM1200 18006KT P6SM BKN007 OVC020
                       FM1800 24007KT P6SM SCT030 BKN070=
200610152220 KSEA 152220Z 152218 22012KT P6SM VCSH SCT010 BKN015 OVC025
                      TEMPO 2202 4SM -SHRA BR BKN010 OVC015 FM0200
                       22012KT P6SM -SHRA BKN030 BKN060 FM0800
                       18006KT P6SM BKN012 FM1200 18006KT P6SM
                       BKN007 OVC020=
200610151720 TAF KSEA 151720Z 151818 14008KT 5SM -RA BR SCT006 OVC022
                      TEMPO 1821 3SM RA BR BKN006 OVC020 FM2100
                       22012KT P6SM -SHRA BKN030 BKN060 FM0800
                       18006KT P6SM BKN012 FM1200 18006KT P6SM
                       BKN007 OVC020=
200610151639 KSEA 151639Z 151712 14008KT 5SM -RA BR SCT006 OVC022
                      TEMPO 1721 3SM RA BR BKN006 OVC020 FM2100
                       22012KT P6SM -SHRA BKN030 BKN060 FM0800
                       18006KT P6SM BKN012=
200610151233 KSEA 151233Z 151312 18008KT P6SM -RA SCT005 BKN015 OVC025
                      TEMPO 1317 3SM -RA BR BKN005 OVC015 FM2100
                       22012KT P6SM -SHRA BKN030 BKN060 FM0800
                       18006KT P6SM BKN012=
200610151120 TAF KSEA 151120Z 151212 16012KT P6SM -RA BKN015 OVC030 FM2100 22012KT
                       P6SM -SHRA BKN030 BKN060 FM0800 18006KT
                       P6SM BKN012=
200610151003 KSEA 151003Z 151006 16010KT 5SM -RA BR OVC006 FM1500 18015KT P6SM
                       -RA BKN015 OVC030 FM2100 22012KT P6SM -SHRA
                       BKN030=
200610150523 TAF KSEA 150523Z 150606 21012KT P6SM -RA SCT007 BKN012 OVC030
                      TEMPO 0610 4SM -RA BR BKN007 OVC012 FM1500
                       18015KT P6SM -RA BKN015 OVC030 FM2100 22012KT
                       P6SM -SHRA BKN030=
200610150209 TAF AMD KSEA 150209Z 150224 22007KT 3SM BR OVC005 FM0400 18010KT
                       5SM -RA BR BKN010 OVC030 FM1000 18014KT
                       P6SM -RA BKN015 OVC030 FM2100 21014KT P6SM
                       -SHRA BKN025 BKN050=
200610142327 TAF KSEA 142327Z 150024 24005KT 2SM BR BKN002 OVC004
                      TEMPO 0003 4SM BR BKN005 FM0300 16007KT P6SM
                       SCT008 BKN080 OVC150 FM0700 18012KT 4SM
                       -RA BR OVC030 FM2100 21014KT P6SM -SHRA
                       BKN025 BKN050=
200610142300 KSEA 150209Z 150224 22007KT 3SM BR OVC005 FM0400 18010KT 5SM -RA
                       BR BKN010 OVC030 FM1000 18014KT P6SM -RA
                       BKN015 OVC030 FM2100 21014KT P6SM -SHRA
                       BKN025 BKN050=
200610142116 KSEA 142116Z 142118 17006KT 1/2SM FG OVC002
                      TEMPO 2202 3SM BR OVC005 FM0300 16007KT P6SM
                       SCT030 BKN080 OVC150 FM0700 18012KT 4SM
                       -RA BR OVC030=
200610141732 TAF KSEA 141732Z 141818 17005KT 1/4SM FG VV001
                      TEMPO 1821 2SM BR BKN002 FM2100 VRB03KT P6SM
                       SCT010 BKN200 FM0300 16007KT P6SM SCT030
                       BKN080 OVC150 FM0700 18012KT 4SM -RA BR
                       OVC030=
200610141120 TAF KSEA 141120Z 141212 00000KT 1/4SM FG VV001
                      TEMPO 1719 2SM BR BKN002 FM1900 VRB03KT P6SM
                       SCT010 OVC150 FM0000 21007KT P6SM SCT030
                       OVC100 FM0600 18012KT 5SM -RA BR OVC030=
200610140733 KSEA 140733Z 140806 00000KT 1/2SM FG VV001
                      TEMPO 1719 2SM BR BKN002 FM1900 VRB03KT P6SM
                       SCT010 OVC150 FM0000 21007KT P6SM SCT030
                       OVC100=
200610140533 TAF KSEA 140533Z 140606 31004KT 5SM BR SCT002
                      TEMPO 0710 2SM BR BKN002 FM1000 VRB03KT 1/4SM
                       FG VV001
                      TEMPO 1719 2SM BR BKN002 FM1900 VRB03KT P6SM
                       SCT010 OVC150 FM0000 21007KT P6SM SCT030
                       OVC100=
200610132328 TAF KSEA 132328Z 140024 34005KT P6SM SCT200 FM1000 VRB03KT 2SM
                       BR BKN002 FM1800 VRB03KT P6SM BKN200=
200610131726 TAF KSEA 131726Z 131818 00000KT 2SM BR FEW003 SCT006 FM1900 34004KT
                       P6SM SKC FM1000 21005KT 2SM BR BKN002=
200610131401 KSEA 131401Z 131412 00000KT 6SM BR FEW005
                      TEMPO 1418 2SM BR BKN005 FM1800 VRB04KT P6SM
                       SKC FM1000 21005KT 2SM BR BKN002=
200610131120 TAF KSEA 131120Z 131212 VRB04KT 4SM BR SCT002 FM1400 VRB04KT 1SM
                       BR BKN002 FM1800 VRB04KT P6SM SKC FM1000
                       21005KT 2SM BR BKN002=
200610130520 TAF KSEA 130520Z 130606 00000KT P6SM SKC FM1400 VRB03KT 4SM BR
                       SCT002
                      TEMPO 1518 1SM BR BKN002 FM1800 34004KT P6SM
                       SCT200=
200610122320 TAF KSEA 122320Z 130024 31006KT P6SM FEW250 FM0300 VRB03KT P6SM
                       SKC FM1100 VRB03KT P6SM VCFG SKC FM1300
                       00000KT 1/2SM FG VV001 FM1800 00000KT 4SM
                       BR BKN003 FM2000 34004KT P6SM SCT200=
200610121720 TAF KSEA 121720Z 121818 00000KT P6SM SKC FM1900 33004KT P6SM SKC
                       FM0300 VRB03KT P6SM SKC FM1100 VRB03KT P6SM
                       VCFG SKC FM1300 00000KT 1/2SM FG VV001 FM1700
                       00000KT 4SM BR BKN003=
200610121447 KSEA 121447Z 121512 35003KT P6SM VCFG SCT002
                      TEMPO 1517 1/2SM FG OVC001 FM1900 VRB05KT
                       P6SM SKC=
200610121120 TAF KSEA 121120Z 121212 00000KT P6SM SKC
                      TEMPO 1517 4SM BR SCT002 FM1900 VRB05KT P6SM
                       SKC=
200610120520 TAF KSEA 120520Z 120606 VRB03KT P6SM SKC FM1200 VRB03KT P6SM VCFG
                       SKC
                      TEMPO 1416 2SM BR SCT002 FM1900 VRB05KT P6SM
                       SKC=
200610112320 TAF KSEA 112320Z 120024 33004KT P6SM SKC FM0100 VRB03KT P6SM SKC
                       FM1000 VRB03KT P6SM VCFG SKC FM1400 VRB03KT
                       1/2SM FG VV001 FM1800 VRB03KT 4SM BR SCT002
                       FM1900 33004KT P6SM SKC=
200610112006 TAF KSEA 112006Z 111818 30004KT P6SM SKC FM0100 VRB03KT P6SM SKC
                       FM1000 VRB03KT P6SM VCFG SKC FM1400 VRB03KT
                       1/2SM FG VV001 FM1700 VRB03KT 4SM BR SCT002=
200610111720 TAF KSEA 111720Z 111818 VRB03KT P6SM SKC FM1900 33005KT P6SM SKC
                       FM1700 VRB03KT 4SM BR SCT002=
200610111133 TAF KSEA 111133Z 111212 VRB03KT P6SM SKC FM1900 33005KT P6SM SCT250=
200610110520 TAF KSEA 110520Z 110606 02005KT P6SM SCT250 FM1300 03004KT P6SM
                       VCFG SKC FM1700 33005KT P6SM SKC=
200610102320 TAF KSEA 102320Z 110024 30006KT P6SM BKN250 FM0300 03004KT P6SM
                       SCT250 FM1200 03004KT P6SM SCT002 SCT250
                       TEMPO 1316 1SM BR BKN002 FM1800 33005KT
                       P6SM SKC=
200610101720 TAF KSEA 101720Z 101818 VRB03KT P6SM BKN250 FM2100 34006KT P6SM
                       BKN250 FM0300 03004KT P6SM SCT250 FM1200
                       03004KT P6SM SCT002 SCT250
                      TEMPO 1316 1SM BR BKN002=
200610101124 TAF KSEA 101124Z 101212 05005KT P6SM SKC FM1400 05004KT P6SM VCFG
                       SKC FM1700 35006KT P6SM SCT250=
200610100539 TAF KSEA 100539Z 100606 02006KT P6SM SCT250 FM1400 02004KT P6SM
                       VCFG SCT250 FM1700 35007KT P6SM SCT250=
200610092320 TAF KSEA 092320Z 100024 36010KT P6SM SCT250 FM0400 03006KT P6SM
                       SCT250 FM1700 35008KT P6SM SCT250=
200610091725 TAF KSEA 091725Z 091818 36010KT P6SM SCT250 FM0400 03007KT P6SM
                       SKC FM1000 02005KT 4SM BR SCT001
                      TEMPO 1216 1/2SM FG VV001 FM1700 35008KT
                       P6SM SKC=
200610091505 KSEA 091505Z 091512 36010KT 1/4SM FG VV001
                      TEMPO 1516 1SM BR OVC001 FM1600 01010KT 3SM
                       BR OVC003
                      TEMPO 1617 1/2SM FG OVC001 FM1700 01008KT
                       P6SM OVC006 FM1800 35008KT P6SM SKC FM0400
                       03007KT P6SM SKC=
200610091319 KSEA 091319Z 091312 36012KT 1SM BR OVC001
                      TEMPO 1315 1/4SM FG VV001 FM1500 01010KT
                       3SM BR OVC003
                      TEMPO 1517 1/2SM FG OVC001 FM1700 01008KT
                       P6SM OVC006 FM1800 35008KT P6SM SKC FM0400
                       03007KT P6SM SKC=
200610091127 KSEA 091127Z 091106 02012KT 2SM BR BKN003
                      TEMPO 1215 1/4SM FG VV001 FM1500 02010KT
                       P6SM SCT003
                      TEMPO 1516 3SM BR BKN003 FM1800 35008KT P6SM
                       SKC FM0400 03007KT P6SM SKC=
200610091120 TAF KSEA 091120Z 091212 02010KT P6SM BKN003
                      TEMPO 1215 2SM BR OVC003 FM1500 02009KT P6SM
                       SCT006
                      TEMPO 1516 BKN006 FM1800 35008KT P6SM SKC
                       FM0400 03007KT P6SM SKC FM1000 VRB03KT 5SM
                       BR SCT001
                      TEMPO 1012 1SM BR BKN001=
200610090942 KSEA 090942Z 091006 02010KT P6SM BKN005
                      TEMPO 1014 6SM BR OVC005 FM1500 02009KT P6SM
                       SCT007
                      TEMPO 1516 BKN007 FM1800 35008KT P6SM SKC
                       FM0400 03007KT P6SM SKC=
200610090520 TAF KSEA 090520Z 090606 03007KT P6SM SCT035 FM0900 03007KT P6SM
                       SKC FM2000 35008KT P6SM SKC FM0400 03007KT
                       P6SM SKC=
200610090207 TAF AMD KSEA 090207Z 090224 36009KT P6SM SCT025 BKN035 FM0600 03007KT
                       P6SM SCT035 FM0800 03007KT P6SM SKC FM2000
                       35008KT P6SM SKC=
200610082320 TAF KSEA 082320Z 090024 02006KT P6SM SCT025 BKN040 FM0200 02006KT
                       P6SM SCT045 FM0300 02006KT P6SM SKC FM2000
                       35008KT P6SM SKC=
200610082300 KSEA 090207Z 090224 36009KT P6SM SCT025 BKN035 FM0600 03007KT P6SM
                       SCT035 FM0800 03007KT P6SM SKC FM2000 35008KT
                       P6SM SKC=
200610082116 KSEA 082116Z 082118 02005KT P6SM BKN020 OVC028
                      TEMPO 2124 SCT020 OVC030 FM0000 02006KT P6SM
                       BKN030 OVC045
                      TEMPO 0002 SCT030 BKN045 FM0200 02006KT P6SM
                       SCT045 FM0400 02006KT P6SM SKC=
200610081903 KSEA 081903Z 081918 VRB03KT P6SM VCSH SCT015 OVC020 FM2200 01004KT
                       P6SM SCT030 BKN045 OVC070
                      TEMPO 2224 BKN030 OVC045 FM0200 01006KT P6SM
                       SCT070 SCT150 FM1500 03006KT P6SM SKC=
200610081722 TAF KSEA 081722Z 081818 VRB03KT P6SM VCSH SCT015 OVC028 FM2200
                       01004KT P6SM SCT030 BKN045 OVC070
                      TEMPO 2224 BKN030 OVC045 FM0200 01006KT P6SM
                       SCT070 SCT150 FM1500 03006KT P6SM SKC=
200610081125 TAF KSEA 081125Z 081212 15007KT P6SM OVC050 FM1500 15007KT P6SM
                       OVC040
                      TEMPO 1620 -RA FM2100 16006KT P6SM BKN050
                       OVC070 FM0200 01005KT P6SM SCT070 BKN150
                       FM0400 01007KT P6SM SCT150=
200610080533 TAF KSEA 080533Z 080606 15003KT P6SM BKN080 FM1200 14003KT P6SM
                       BKN060 OVC090 FM1500 13003KT P6SM BKN045
                       OVC070
                      PROB30 1519 -RA FM1900 15003KT P6SM BKN030
                       OVC050
                      PROB30 1922 -RA FM0200 01005KT P6SM SCT030
                       BKN045 OVC070=
200610072337 TAF KSEA 072337Z 080024 27005KT P6SM BKN250 FM0400 VRB04KT P6SM
                       BKN130 OVC200 FM1000 VRB03KT P6SM SCT050
                       OVC100
                      PROB30 1015 -RA FM1500 17004KT P6SM BKN045
                       OVC080
                      PROB30 1521 -RA FM2200 VRB05KT P6SM BKN045
                       BKN100=
200610071730 TAF KSEA 071730Z 071818 13004KT P6SM BKN015 BKN025
                      TEMPO 1820 P6SM SCT015 BKN025 FM2000 35004KT
                       P6SM BKN025
                      TEMPO 2022 SCT025 FM2200 35004KT P6SM SCT200
                       FM0300 02005KT P6SM BKN150 FM1200 VRB03KT
                       P6SM SCT050 OVC120=
200610071648 KSEA 071648Z 071712 11004KT P6SM BKN015
                      TEMPO 1820 P6SM SCT015 FM2000 35004KT P6SM
                       SKC FM0300 02005KT P6SM BKN200=
200610071608 KSEA 071608Z 071612 17003KT P6SM FEW015 FM1900 34005KT P6SM SKC
                       FM0300 02005KT P6SM BKN200=
200610071129 TAF KSEA 071129Z 071212 36004KT P6SM VCFG FEW001 SCT060
                      TEMPO 1314 2SM BR BKN001 BKN060 FM1400 36004KT
                       4SM BCFG SCT001
                      TEMPO 1417 1/2SM BCFG VV001 FM1700 01005KT
                       2SM BR BKN003 FM1900 34005KT P6SM FEW020
                       SCT200=
200610070527 TAF KSEA 070527Z 070606 36005KT P6SM SCT030 BKN060 FM0800 02004KT
                       P6SM SCT030 SCT050 FM1000 03004KT P6SM VCFG
                       FEW003 SCT050 FM1100 03004KT 2SM BCFG SCT001
                       FM1300 03004KT 1/2SM FG VV001 FM1700 01005KT
                       2SM BR BKN003 FM1900 34005KT P6SM FEW020
                       SCT200=
200610062324 TAF KSEA 062324Z 070024 01006KT P6SM FEW009 BKN016 OVC028 FM0100
                       01006KT P6SM SCT020 BKN030 BKN050 FM0300
                       02004KT P6SM SCT035 SCT050 FM1000 04004KT
                       P6SM VCFG FEW003 SCT050 FM1300 04004KT 2SM
                       BR OVC002 FM1500 04004KT 1/2SM FG VV001
                       FM1900 04004KT 4SM BR BKN003 FM2100 34005KT
                       P6SM FEW020 SCT200=
200610062101 KSEA 062101Z 062118 31004KT P6SM VCSH SCT008 BKN011 OVC015 FM2300
                       36004KT P6SM VCSH SCT025 BKN050
                      TEMPO 2303 BKN025 OVC050 FM0300 02004KT P6SM
                       SCT050 FM1000 04004KT P6SM VCFG FEW003 SCT050
                       FM1300 04004KT 2SM BR OVC002
                      TEMPO 1317 1/2SM FG VV001=
200610061944 KSEA 061944Z 062018 31003KT 3SM -RA BR BKN007 BKN015 OVC025 FM2200
                       36004KT P6SM VCSH SCT015 BKN025 OVC050 FM0000
                       36004KT P6SM VCSH SCT025 BKN050
                      TEMPO 0003 BKN025 OVC050 FM0300 02004KT P6SM
                       SCT050 FM1000 04004KT P6SM VCFG FEW003 SCT050
                       FM1300 04004KT 2SM BR OVC002
                      TEMPO 1317 1/2SM FG VV001=
200610061720 TAF KSEA 061720Z 061818 22005KT P6SM VCSH SCT005 BKN010 OVC030
                       TEMPO 1819 BKN005 OVC010 FM2000 VRB04KT
                       P6SM VCSH SCT015 BKN025 BKN050
                      TEMPO 2024 BKN015 OVC025 FM0000 36004KT P6SM
                       VCSH SCT025 BKN050
                      TEMPO 0003 BKN025 OVC050 FM0300 02004KT P6SM
                       SCT050 FM1000 04004KT P6SM VCFG FEW003 SCT050
                       FM1300 04004KT 2SM BR OVC002
                      TEMPO 1317 1/2SM FG VV001=
200610061519 KSEA 061519Z 061512 20009KT P6SM -RA BKN008 BKN015 OVC060 FM1700
                       24008KT P6SM VCSH SCT015 BKN025 OVC045 FM2200
                       31006KT P6SM SCT025 BKN050 FM0200 35006KT
                       P6SM SCT050=
200610061120 TAF KSEA 061120Z 061212 16008KT P6SM SCT008 BKN015 OVC025
                      TEMPO 1416 -RA FM1700 24008KT P6SM SCT015
                       BKN025 OVC045 FM2000 31006KT P6SM SCT025
                       BKN050 FM0200 35006KT P6SM SCT050=
200610060540 TAF KSEA 060540Z 060606 VRB03KT P6SM BKN100 OVC200 FM1200 21006KT
                       P6SM BKN050 OVC080 FM1400 24006KT P6SM SCT025
                       OVC050
                      TEMPO 1418 BKN025 OVC050 FM2000 31006KT P6SM
                       SCT025 BKN050 FM0200 35006KT P6SM SCT050=
200610052331 TAF KSEA 052331Z 060024 30004KT P6SM SCT120 BKN200 FM0300 VRB03KT
                       P6SM SCT050 BKN150 FM0800 23005KT P6SM BKN050
                       OVC120
                      PROB30 0913 -SHRA FM1300 21006KT P6SM BKN024
                       OVC045
                      PROB30 1319 -SHRA FM1900 25006KT P6SM SCT027
                       BKN050=
200610051730 TAF KSEA 051730Z 051818 30005KT P6SM SCT120 FM0300 VRB03KT P6SM
                       SCT050 BKN120 FM0800 21005KT P6SM BKN050
                       OVC120
                      PROB30 0912 -SHRA FM1200 22006KT P6SM BKN024
                       OVC045
                      PROB30 1218 -SHRA=
200610051129 TAF KSEA 051129Z 051212 VRB03KT P6SM BKN100 FM1800 26006KT P6SM
                       SCT120 SCT200 FM0700 20005KT P6SM BKN050
                       OVC120=
200610050531 TAF KSEA 050531Z 050606 VRB03KT P6SM BKN120 FM1800 26006KT P6SM
                       SCT120=
200610050020 TAF KSEA 050020Z 050024 34007KT P6SM FEW130 FM0200 03004KT P6SM
                       FEW130 FM1200 VRB03KT P6SM BCFG FEW001 FM1800
                       19005KT P6SM FEW005 SCT200 FM1900 23007KT
                       P6SM BKN200=
200610042300 TAF KSEA 050020Z 050024 34007KT P6SM FEW130 FM0200 03004KT P6SM
                       FEW130 FM1200 VRB03KT P6SM BCFG FEW001 FM1800
                       19005KT P6SM FEW005 SCT200 FM1900 23007KT
                       P6SM BKN200=
200610041939 KSEA 041939Z 042018 03012KT P6SM SCT130 FM2200 34008KT P6SM SCT130
                       FM0200 03004KT P6SM SCT130 FM1200 VRB03KT
                       P6SM BCFG FEW001 SCT200=
200610041720 TAF KSEA 041720Z 041818 04012KT P6SM SCT015 FM1900 01012KT P6SM
                       SCT130 FM2200 34008KT P6SM SCT130 FM0200
                       03004KT P6SM SCT130 FM1200 VRB03KT P6SM
                       BCFG FEW001 SCT200=
200610041639 KSEA 041639Z 041712 04012KT P6SM BKN012 FM1900 36012KT P6SM SCT130
                       FM2100 36008KT P6SM SCT130 FM0600 36006KT
                       P6SM BKN120=
200610041455 KSEA 041455Z 041512 04012KT P6SM SCT009
                      TEMPO 1517 BKN009 FM1800 36012KT P6SM SCT200
                       FM0600 36006KT P6SM BKN120=
200610041400 KSEA 041400Z 041412 04012KT P6SM SCT012 SCT200
                      TEMPO 1416 BKN012 FM1800 36012KT P6SM SCT200
                       FM0600 36006KT P6SM BKN120=
200610041130 TAF KSEA 041130Z 041212 36010KT P6SM SCT150 FM0600 36006KT P6SM
                       BKN120=
200610040536 TAF KSEA 040536Z 040606 36006KT P6SM BKN080 BKN150 FM1400 36006KT
                       P6SM SCT080 BKN150 FM1700 36010KT P6SM SCT150=
200610032329 TAF KSEA 032329Z 040024 35007KT P6SM -RA BKN070 OVC110 FM0600 02007KT
                       P6SM SCT090 OVC130 FM1000 02009KT P6SM SCT090
                       SCT130 FM1700 02013KT P6SM FEW130 FM2100
                       35010KT P6SM FEW130=
200610032215 KSEA 032215Z 032218 35007KT P6SM BKN090 OVC130
                      TEMPO 2202 -RA BKN070 OVC130 FM0200 02007KT
                       P6SM SCT090 BKN130 OVC200 FM0900 02009KT
                       P6SM SCT090 SCT130=
200610031738 TAF KSEA 031738Z 031818 35006KT P6SM SCT130 OVC200 FM0000 02006KT
                       P6SM SCT090 BKN130 OVC200 FM0900 02009KT
                       P6SM SCT090 SCT130=
200610031132 TAF KSEA 031132Z 031212 36006KT P6SM SCT120 BKN200 FM2100 VRB03KT
                       P6SM BKN120 OVC200 FM0700 VRB03KT P6SM BKN060
                       OVC100=
200610030526 TAF KSEA 030526Z 030606 02004KT P6SM SCT120 BKN200 FM1800 VRB03KT
                       P6SM BKN120 OVC200 FM0400 VRB03KT P6SM BKN060
                       OVC100=
200610022333 TAF KSEA 022333Z 030024 32005KT P6SM FEW035 SCT120 BKN200 FM0300
                       VRB03KT P6SM SCT070 OVC120 FM1200 03005KT
                       P6SM BKN070 OVC120=
200610021730 TAF KSEA 021730Z 021818 14004KT P6SM FEW015 FEW070 OVC140 FM1900
                       17004KT P6SM FEW070 OVC140 FM2000 28006KT
                       P6SM FEW070 OVC140 FM0200 VRB03KT P6SM FEW070
                       OVC140=
200610021120 TAF KSEA 021120Z 021212 VRB03KT P6SM VCFG FEW002 SCT060 SCT200
                       TEMPO 1216 2SM BR BKN002 FM1700 VRB03KT
                       P6SM SCT200 FM1900 30006KT P6SM BKN200 FM0100
                       36006KT P6SM BKN200 FM0400 03004KT P6SM
                       SCT120 BKN200 FM0800 VRB04KT P6SM SCT090
                       BKN120=
200610021023 KSEA 021023Z 021006 VRB03KT P6SM VCFG SCT006 SCT060 SCT200
                      TEMPO 1012 4SM BR BKN006 FM1200 VRB03KT P6SM
                       VCFG FEW002 SCT060 SCT200
                      TEMPO 1216 2SM BR BKN002 FM1700 VRB03KT P6SM
                       SCT200 FM1900 30006KT P6SM BKN200 FM0100
                       36006KT P6SM BKN200 FM0400 03004KT P6SM
                       SCT120 BKN200=
200610020533 TAF KSEA 020533Z 020606 04006KT P6SM SKC FM1200 05004KT P6SM VCFG
                       FEW002 FM1700 VRB03KT P6SM SCT200 FM1900
                       30006KT P6SM BKN200 FM0100 36006KT P6SM
                       BKN200 FM0400 03004KT P6SM SCT120 BKN200=
200610012325 TAF KSEA 012325Z 020024 33006KT P6SM SCT060 FM0200 01004KT P6SM
                       SKC FM1200 05004KT P6SM VCFG FEW002 FM1700
                       VRB03KT P6SM SCT200 FM1900 30006KT P6SM
                       BKN200=
200610011737 TAF KSEA 011737Z 011818 35006KT P6SM SCT025 BKN050 FM2000 31009KT
                       P6SM SCT060 FM0200 01005KT P6SM FEW200 FM1200
                       05004KT P6SM VCFG FEW002 FEW200=
200610011523 KSEA 011523Z 011512 03006KT P6SM BKN045 FM1800 28006KT P6SM SCT050
                       TEMPO 1820 BKN050 FM2100 34007KT P6SM SCT050
                       FM0500 05006KT P6SM SCT060=
200610011125 TAF KSEA 011125Z 011212 04008KT P6SM BKN045
                      TEMPO 1316 BKN012 FM1800 28006KT P6SM BKN030
                       FM2100 34007KT P6SM SCT050 FM0500 05006KT
                       P6SM SCT060=
200610010530 TAF KSEA 010530Z 010606 02004KT P6SM BKN040 FM1000 03004KT P6SM
                       BKN030 OVC080 FM1300 VRB03KT P6SM SCT009
                       BKN012
                      TEMPO 1317 4SM BR OVC009 FM1800 28006KT P6SM
                       BKN040 FM2100 31007KT P6SM SCT050=