##########################################################
# Query made at 02/18/2025 01:10:48 UTC
# Time interval: from 01/01/2006 00:00  to 01/31/2006 23:59  UTC
##########################################################

##########################################################
# KSEA, Seattle, Seattle-Tacoma International Airport (United States)
# WMO index: 72793. WIGOS ID: 0-20000-0-72793
# Latitude 47-27-00N. Longitude 122-17-59W. Altitude 130 m.
##########################################################

###################################
#  METAR/SPECI from KSEA
###################################
200601312356 METAR KSEA 312356Z 15009KT 4SM RA BR OVC021 05/03 A2957 RMK AO2 PRESFR SLP021 P0006 60012 T00500028 10100 20050 58072=
200601312256 METAR KSEA 312256Z 13014KT 4SM RA BKN017 OVC023 06/03 A2963 RMK AO2 PRESFR SLP042 P0006 T00560028=
200601312156 METAR KSEA 312156Z 18015G23KT 7SM RA BKN019 OVC025 06/02 A2973 RMK AO2 PRESFR SLP075 P0000 T00610022=
200601312113 SPECI KSEA 312113Z 19015G24KT 10SM -RA BKN027 OVC040 07/02 A2977 RMK AO2 PRESFR P0000=
200601312113 SPECI KSEA 312113Z 19015G24KT 10SM -RA BKN027 OVC040 07/02 A2977 RMK AO2 PRESFR P0000=
200601312056 METAR KSEA 312056Z 20020G27KT 10SM -RA SCT030 BKN040 OVC060 09/00 A2979 RMK AO2 PK WND 21027/2055 RAB56 SLP094 P0000 60000 T00890000 58043=
200601311956 METAR KSEA 311956Z 20011G19KT 10SM SCT080 BKN110 OVC130 10/00 A2984 RMK AO2 SLP111 T01000000=
200601311856 METAR KSEA 311856Z 19014KT 10SM FEW050 BKN110 OVC130 09/01 A2989 RMK AO2 SLP129 T00940006=
200601311756 METAR KSEA 311756Z 20005KT 10SM BKN049 OVC120 08/02 A2992 RMK AO2 SLP138 T00830017 10083 20061 58025=
200601311656 METAR KSEA 311656Z 14007KT 10SM SCT030 BKN041 OVC055 07/02 A2994 RMK AO2 SLP145 T00720017=
200601311556 METAR KSEA 311556Z 18009KT 10SM OVC035 07/02 A2997 RMK AO2 SLP158 T00670022=
200601311456 METAR KSEA 311456Z 18007KT 10SM SCT030 BKN050 BKN150 BKN200 07/02 A2999 RMK AO2 SLP164 T00670022 58011=
200601311403 SPECI KSEA 311403Z 18008KT 10SM SCT028 BKN050 BKN150 OVC200 06/02 A3001 RMK AO2=
200601311403 SPECI KSEA 311403Z 18008KT 10SM SCT028 BKN050 BKN150 OVC200 06/02 A3001 RMK AO2=
200601311356 METAR KSEA 311356Z 18008KT 10SM BKN028 BKN050 BKN150 OVC200 06/02 A3001 RMK AO2 SLP169 T00610022=
200601311303 SPECI KSEA 311303Z 19007KT 10SM BKN028 BKN035 BKN050 OVC150 07/03 A3002 RMK AO2=
200601311303 SPECI KSEA 311303Z 19007KT 10SM BKN028 BKN035 BKN050 OVC150 07/03 A3002 RMK AO2=
200601311256 METAR KSEA 311256Z 19007KT 10SM SCT028 BKN040 OVC150 07/03 A3003 RMK AO2 SLP176 T00670028=
200601311156 METAR KSEA 311156Z 21012G19KT 10SM FEW025 SCT030 BKN038 OVC150 07/03 A3002 RMK AO2 SLP174 70026 T00720028 10072 20061 58003=
200601311056 METAR KSEA 311056Z 21014KT 10SM FEW020 SCT038 BKN150 07/03 A3005 RMK AO2 SLP182 T00720033=
200601310956 METAR KSEA 310956Z 20013G18KT 10SM SCT019 BKN150 07/04 A3004 RMK AO2 SLP179 T00670039=
200601310947 SPECI KSEA 310947Z 20013KT 10SM SCT019 BKN150 07/03 A3003 RMK AO2=
200601310947 SPECI KSEA 310947Z 20013KT 10SM SCT019 BKN150 07/03 A3003 RMK AO2=
200601310911 SPECI KSEA 310911Z 19010KT 10SM BKN019 07/03 A3003 RMK AO2=
200601310911 SPECI KSEA 310911Z 19010KT 10SM BKN019 07/03 A3003 RMK AO2=
200601310856 METAR KSEA 310856Z 19010KT 10SM SCT019 07/03 A3003 RMK AO2 SLP178 T00670033 51015=
200601310756 METAR KSEA 310756Z 21011KT 10SM SCT021 07/03 A3003 RMK AO2 SLP178 T00670033 401220061=
200601310737 SPECI KSEA 310737Z 20012KT 10SM BKN021 07/03 A3004 RMK AO2=
200601310737 SPECI KSEA 310737Z 20012KT 10SM BKN021 07/03 A3004 RMK AO2=
200601310656 METAR KSEA 310656Z 19012KT 10SM FEW020 SCT090 07/03 A3000 RMK AO2 SLP166 T00670033=
200601310556 METAR KSEA 310556Z 20016G22KT 10SM SCT020 SCT090 07/04 A2999 RMK AO2 SLP164 T00720039 10106 20072 50019=
200601310530 SPECI KSEA 310530Z 20017KT 10SM SCT019 07/03 A2999=
200601310530 SPECI KSEA 310530Z 20017KT 10SM SCT019 07/03 A2999 RMK AO2=
200601310456 METAR KSEA 310456Z 19017KT 10SM BKN017 BKN100 08/04 A2999 RMK AO2 SLP163 T00780039=
200601310411 SPECI KSEA 310411Z 20014KT 10SM BKN020 08/04 A2998 RMK AO2=
200601310411 SPECI KSEA 310411Z 20014KT 10SM BKN020 08/04 A2998 RMK AO2=
200601310356 METAR KSEA 310356Z 21014KT 10SM SCT020 08/04 A2997 RMK AO2 SLP155 T00780039=
200601310256 METAR KSEA 310256Z 22016G22KT 10SM FEW020 SCT200 08/04 A2993 RMK AO2 PK WND 22027/0238 SLP143 T00780044 53026=
200601310156 METAR KSEA 310156Z 22012G20KT 10SM FEW024 08/04 A2990 RMK AO2 SLP132 T00830044=
200601310056 METAR KSEA 310056Z 22013G18KT 10SM SCT024 SCT200 09/04 A2988 RMK AO2 SLP126 T00890044=
200601302356 METAR KSEA 302356Z VRB06G14KT 10SM SCT025 SCT050 11/05 A2985 RMK AO2 SLP116 SH DSNT NW-N 60001 T01060050 10111 20078 51031=
200601302256 METAR KSEA 302256Z 21008KT 10SM SCT025 SCT030 SCT050 11/05 A2983 RMK AO2 SLP106 T01110050=
200601302238 SPECI KSEA 302238Z 21012KT 10SM FEW020 SCT025 SCT035 10/06 A2982=
200601302238 SPECI KSEA 302238Z 21012KT 10SM FEW020 SCT025 SCT035 10/06 A2982 RMK AO2=
200601302156 METAR KSEA 302156Z 23011KT 10SM BKN017 BKN025 BKN040 09/06 A2979 RMK AO2 SLP095 T00940056=
200601302056 METAR KSEA 302056Z 21011KT 10SM FEW013 BKN015 OVC020 09/05 A2976 RMK AO2 SLP085 BINOVC SW 60001 T00890050 51039=
200601301956 METAR KSEA 301956Z 23011G19KT 10SM BKN015 OVC035 08/05 A2974 RMK AO2 SLP077 T00830050=
200601301939 SPECI KSEA 301939Z 22011G18KT 10SM BKN015 OVC035 09/05 A2973 RMK AO2=
200601301939 SPECI KSEA 301939Z 22011G18KT 10SM BKN015 OVC035 09/05 A2973 RMK AO2=
200601301856 METAR KSEA 301856Z 23013G21KT 10SM FEW009 SCT015 BKN040 08/05 A2970 RMK AO2 RAE44 SLP064 P0001 T00830050=
200601301826 SPECI KSEA 301826Z 23012G20KT 10SM -RA FEW009 SCT015 OVC035 08/06 A2967 RMK AO2 BINOVC W P0001 $=
200601301826 SPECI KSEA 301826Z 23012G20KT 10SM -RA FEW009 SCT015 OVC035 08/06 A2967 RMK AO2 BINOVC W P0001 $=
200601301756 METAR KSEA 301756Z 22011G18KT 10SM -RA FEW009 BKN015 OVC033 08/06 A2965 RMK AO2 SLP046 P0000 60025 T00830056 10122 20083 51049 $=
200601301656 METAR KSEA 301656Z 23014G20KT 10SM -RA FEW009 BKN017 OVC030 09/06 A2961 RMK AO2 RAB23 SLP034 P0000 T00890061 $=
200601301610 SPECI KSEA 301610Z 23012G17KT 10SM FEW009 BKN015 OVC050 09/06 A2958 RMK AO2 $=
200601301610 SPECI KSEA 301610Z 23012G17KT 10SM FEW009 BKN015 OVC050 09/06 A2958 RMK AO2 $=
200601301556 METAR KSEA 301556Z 22010G18KT 10SM FEW009 SCT015 OVC050 09/06 A2956 RMK AO2 RAE1457 PRESRR SLP018 T00890061 $=
200601301456 METAR KSEA 301456Z 22010KT 10SM -RA FEW007 SCT014 BKN043 OVC130 09/07 A2950 RMK AO2 RAB48 SLP996 P0000 60025 T00940072 51035 $=
200601301356 METAR KSEA 301356Z 22011G19KT 10SM SCT055 BKN075 BKN095 10/07 A2947 RMK AO2 RAE50 PRESRR SLP986 P0001 T01000072 $=
200601301343 SPECI KSEA 301343Z 23009KT 10SM -RA SCT013 BKN055 OVC070 10/07 A2945 RMK AO2 P0001 $=
200601301343 SPECI KSEA 301343Z 23009KT 10SM -RA SCT013 BKN055 OVC070 10/07 A2945 RMK AO2 P0001 $=
200601301256 METAR KSEA 301256Z 23011KT 7SM -RA BKN005 BKN013 OVC038 12/10 A2943 RMK AO2 SLP972 P0024 T01170100 $=
200601301220 SPECI KSEA 301220Z 23011G17KT 3SM +RA BR BKN013 BKN019 OVC027 12/10 A2941 RMK AO2 P0004 $=
200601301220 SPECI KSEA 301220Z 23011G17KT 3SM +RA BR BKN013 BKN019 OVC027 12/10 A2941 RMK AO2 P0004 $=
200601301156 METAR KSEA 301156Z 19012KT 10SM -RA BKN018 OVC026 12/10 A2939 RMK AO2 SLP960 P0007 6//// 7//// T01220100 10122 20100 56014 $=
200601301056 METAR KSEA 301056Z 20015G22KT 10SM -RA FEW011 BKN019 OVC024 12/09 A2940 RMK AO2 SLP961 P0005 T01170094 $=
200601301024 SPECI KSEA 301024Z 18011KT 9SM -RA FEW009 BKN016 OVC024 12/10 A2941=
200601301024 SPECI KSEA 301024Z 18011KT 9SM -RA FEW009 BKN016 OVC024 12/10 A2941 RMK AO2 P0004 $=
200601300956 METAR KSEA 300956Z 18010KT 6SM RA BR SCT011 BKN016 OVC024 11/10 A2942 RMK AO2 SLP970 P0020 T01110100 $=
200601300940 SPECI KSEA 300940Z 19006KT 4SM +RA BR SCT011 BKN014 OVC050 11/09 A2943 RMK AO2 P0016 $=
200601300940 SPECI KSEA 300940Z 19006KT 4SM +RA BR SCT011 BKN014 OVC050 11/09 A2943 RMK AO2 P0016 $=
200601300922 SPECI KSEA 300922Z 17010KT 5SM RA BR SCT013 BKN035 OVC055 11/09 A2942 RMK AO2 P0010 $=
200601300922 SPECI KSEA 300922Z 17010KT 5SM RA BR SCT013 BKN035 OVC055 11/09 A2942 RMK AO2 P0010 $=
200601300856 METAR KSEA 300856Z 20009KT 6SM RA BR BKN013 OVC019 11/09 A2944 RMK AO2 SLP975 P0015 6//// T01110094 55009 $=
200601300826 SPECI KSEA 300826Z 20010KT 6SM RA BR BKN027 OVC033 11/09 A2944=
200601300826 SPECI KSEA 300826Z 20010KT 6SM RA BR BKN027 OVC033 11/09 A2944 RMK AO2 P0005 $=
200601300756 METAR KSEA 300756Z 19010KT 7SM RA SCT033 BKN039 OVC050 11/09 A2944 RMK AO2 SLP974 T01110094 401110044 $=
200601300656 METAR KSEA 300656Z 18013KT 6SM -RA BR OVC033 11/09 A2945 RMK AO2 SLP978 P0011 T01060089 $=
200601300556 METAR KSEA 300556Z 18015KT 5SM -RA BR OVC035 10/08 A2947 RMK AO2 SLP984 P0014 6//// T01000083 10100 20061 55016 $=
200601300456 METAR KSEA 300456Z 18018G24KT 7SM -RA OVC037 10/08 A2946 RMK AO2 PK WND 18028/0432 SLP983 P0009 T01000078 $=
200601300356 METAR KSEA 300356Z 18020G23KT 7SM -RA FEW029 BKN031 OVC035 09/07 A2948 RMK AO2 PK WND 19026/0342 SLP990 T00940072 $=
200601300256 METAR KSEA 300256Z 19013G20KT 8SM -RA BKN029 OVC035 09/07 A2951 RMK AO2 SLP001 6//// T00890067 56037 $=
200601300156 METAR KSEA 300156Z 19013G20KT 6SM -RA BR OVC027 08/06 A2953 RMK AO2 SLP009 P0013 T00830061=
200601300056 METAR KSEA 300056Z 15008KT 4SM -RA BR OVC027 07/05 A2957 RMK AO2 SLP022 P0009 T00670050=
200601300027 SPECI KSEA 300027Z 16007KT 4SM -RA BR OVC027 07/05 A2961 RMK AO2 P0004=
200601300027 SPECI KSEA 300027Z 16007KT 4SM -RA BR OVC027 07/05 A2961 RMK AO2 P0004=
200601292356 METAR KSEA 292356Z 14009KT 4SM -RA BR OVC030 06/04 A2962 RMK AO2 SLP039 P0009 60033 T00610044 10072 20061 56051=
200601292339 SPECI KSEA 292339Z 13009KT 4SM RA BR OVC030 06/04 A2964 RMK AO2 P0007=
200601292339 SPECI KSEA 292339Z 13009KT 4SM RA BR OVC030 06/04 A2964 RMK AO2 P0007=
200601292256 METAR KSEA 292256Z 12007KT 4SM RA BR OVC025 07/04 A2966 RMK AO2 SLP053 P0010 T00670044=
200601292156 METAR KSEA 292156Z 11012KT 4SM RA OVC024 06/03 A2971 RMK AO2 SLP067 P0011 T00610033=
200601292056 METAR KSEA 292056Z 13007KT 5SM -RA OVC022 07/03 A2978 RMK AO2 PRESFR SLP091 P0003 60003 T00670033 58060=
200601291956 METAR KSEA 291956Z 11008KT 10SM -RA OVC028 07/03 A2986 RMK AO2 PRESFR SLP120 P0000 T00720028=
200601291938 SPECI KSEA 291938Z 10008KT 10SM -RA BKN027 OVC033 07/03 A2989 RMK AO2 PRESFR P0000=
200601291938 SPECI KSEA 291938Z 10008KT 10SM -RA BKN027 OVC033 07/03 A2989 RMK AO2 PRESFR P0000=
200601291924 SPECI KSEA 291924Z 12007KT 10SM -RA OVC030 07/02 A2991 RMK AO2 P0000=
200601291924 SPECI KSEA 291924Z 12007KT 10SM -RA OVC030 07/02 A2991 RMK AO2 P0000=
200601291900 SPECI KSEA 291900Z 15009KT 10SM -RA OVC028 07/02 A2993 RMK AO2 P0000=
200601291900 SPECI KSEA 291900Z 15009KT 10SM -RA OVC028 07/02 A2993 RMK AO2 P0000=
200601291856 METAR KSEA 291856Z 16009KT 10SM R16R/1200VP6000FT -RA BKN030 OVC038 07/02 A2993 RMK AO2 RAB44 SLP144 P0000 T00720017=
200601291756 METAR KSEA 291756Z 18005KT 10SM FEW030 OVC055 07/02 A2996 RMK AO2 SLP153 T00670017 10067 20044 58018=
200601291656 METAR KSEA 291656Z 15006KT 10SM SCT040 BKN080 OVC095 07/01 A2998 RMK AO2 SLP160 T00670011=
200601291556 METAR KSEA 291556Z 17006KT 10SM FEW030 SCT044 OVC100 06/02 A3000 RMK AO2 SLP168 T00560017=
200601291456 METAR KSEA 291456Z 17007KT 10SM SCT033 BKN044 OVC160 05/02 A3001 RMK AO2 SLP170 T00500022 58009=
200601291448 SPECI KSEA 291448Z 18006KT 10SM SCT033 BKN044 OVC160 05/02 A3001 RMK AO2=
200601291448 SPECI KSEA 291448Z 18006KT 10SM SCT033 BKN044 OVC160 05/02 A3001 RMK AO2=
200601291356 METAR KSEA 291356Z 19008KT 10SM BKN026 BKN034 OVC130 06/02 A3002 RMK AO2 SLP173 T00560017=
200601291256 METAR KSEA 291256Z 19009KT 10SM FEW008 BKN022 BKN130 06/02 A3003 RMK AO2 SLP179 T00560022=
200601291156 METAR KSEA 291156Z 19011KT 10SM FEW006 SCT014 BKN022 BKN130 06/03 A3004 RMK AO2 SLP179 70065 T00560028 10067 20056 51012=
200601291056 METAR KSEA 291056Z 20012KT 10SM FEW006 SCT014 BKN022 BKN130 06/03 A3002 RMK AO2 SLP175 T00560028=
200601290956 METAR KSEA 290956Z 20011KT 10SM SCT011 BKN017 06/03 A3002 RMK AO2 SLP174 T00560028=
200601290935 SPECI KSEA 290935Z 19012KT 10SM FEW013 BKN017 OVC110 06/03 A3001 RMK AO2=
200601290935 SPECI KSEA 290935Z 19012KT 10SM FEW013 BKN017 OVC110 06/03 A3001 RMK AO2=
200601290856 METAR KSEA 290856Z 20012G19KT 10SM BKN013 BKN019 OVC110 06/03 A3000 RMK AO2 SLP168 T00610033 51020=
200601290756 METAR KSEA 290756Z 18013KT 10SM SCT013 BKN019 OVC110 06/03 A2998 RMK AO2 SLP162 T00610033 400830044=
200601290656 METAR KSEA 290656Z 20012G20KT 10SM BKN015 BKN018 OVC040 07/03 A2997 RMK AO2 SLP158 T00670033=
200601290629 SPECI KSEA 290629Z 20012KT 10SM BKN013 BKN019 OVC090 07/03 A2995 RMK AO2=
200601290629 SPECI KSEA 290629Z 20012KT 10SM BKN013 BKN019 OVC090 07/03 A2995 RMK AO2=
200601290556 METAR KSEA 290556Z 20014KT 10SM BKN019 OVC029 07/04 A2994 RMK AO2 SLP148 T00670039 10078 20067 51030=
200601290456 METAR KSEA 290456Z 18013KT 10SM BKN015 BKN021 07/04 A2991 RMK AO2 SLP137 T00670039=
200601290356 METAR KSEA 290356Z 20012G18KT 10SM BKN016 OVC025 07/04 A2989 RMK AO2 SLP131 T00670039=
200601290256 METAR KSEA 290256Z 20013G19KT 10SM BKN019 BKN090 07/04 A2985 RMK AO2 SLP117 T00670044 51025=
200601290242 SPECI KSEA 290242Z 19013G20KT 10SM BKN019 BKN090 OVC200 07/04 A2985 RMK AO2=
200601290242 SPECI KSEA 290242Z 19013G20KT 10SM BKN019 BKN090 OVC200 07/04 A2985 RMK AO2=
200601290156 METAR KSEA 290156Z 21010KT 10SM FEW015 SCT022 BKN090 BKN200 07/04 A2984 RMK AO2 SLP113 T00670039=
200601290056 METAR KSEA 290056Z 20009KT 10SM FEW015 SCT020 SCT065 BKN200 07/04 A2981=
200601282356 METAR KSEA 282356Z 19011KT 10SM FEW026 SCT030 BKN100 BKN200 07/04 A2978 RMK AO2 RAE10B28E37 SLP092 P0001 60052 T00720044 10078 20044 53022=
200601282313 SPECI KSEA 282313Z 21012G20KT 10SM SCT024 BKN030 BKN100 BKN200 06/04 A2976 RMK AO2 RAE10 P0001=
200601282313 SPECI KSEA 282313Z 21012G20KT 10SM SCT024 BKN030 BKN100 BKN200 06/04 A2976 RMK AO2 RAE10 P0001=
200601282256 METAR KSEA 282256Z 19013KT 7SM -RA SCT013 BKN025 BKN200 06/04 A2975 RMK AO2 RAB34 SLP083 P0003 T00610039=
200601282249 SPECI KSEA 282249Z 19015KT 10SM -RA SCT013 BKN025 BKN200 07/04 A2975=
200601282249 SPECI KSEA 282249Z 19015KT 10SM -RA SCT013 BKN025 BKN200 07/04 A2975 RMK AO2 RAB34 P0001=
200601282156 METAR KSEA 282156Z 19010G16KT 10SM FEW007 BKN013 OVC019 06/04 A2974 RMK AO2 RAE39 SLP077 P0003 T00610039=
200601282056 METAR KSEA 282056Z 20009KT 4SM RA BR FEW007 BKN013 OVC020 06/04 A2971 RMK AO2 SLP069 P0015 60045 T00560039 53011=
200601282023 SPECI KSEA 282023Z 21014G23KT 4SM RA FEW007 BKN012 OVC018 06/03 A2970=
200601282023 SPECI KSEA 282023Z 21014G23KT 4SM RA FEW007 BKN012 OVC018 06/03 A2970 RMK AO2 P0009=
200601282014 SPECI KSEA 282014Z 20013G17KT 170V230 4SM RA BR FEW007 SCT013 OVC018 06/04 A2970 RMK AO2 P0007=
200601282014 SPECI KSEA 282014Z 20013G17KT 170V230 4SM RA BR FEW007 SCT013 OVC018 06/04 A2970 RMK AO2 P0007=
200601281956 METAR KSEA 281956Z 19008KT 5SM RA BR FEW007 BKN013 OVC022 06/04 A2969 RMK AO2 SLP062 P0007 T00610044=
200601281907 SPECI KSEA 281907Z 22008G20KT 6SM -RA BR FEW007 OVC013 06/04 A2969 RMK AO2 P0000=
200601281907 SPECI KSEA 281907Z 22008G20KT 6SM -RA BR FEW007 OVC013 06/04 A2969 RMK AO2 P0000=
200601281856 METAR KSEA 281856Z 22008KT 5SM RA BR FEW007 OVC015 06/03 A2969 RMK AO2 SLP062 P0023 T00560033=
200601281837 SPECI KSEA 281837Z 21008KT 3SM RA BR FEW007 OVC019 05/03 A2969 RMK AO2 SFC VIS 4 P0017=
200601281837 SPECI KSEA 281837Z 21008KT 3SM RA BR FEW007 OVC019 05/03 A2969 RMK AO2 SFC VIS 4 P0017=
200601281756 METAR KSEA 281756Z 22014G23KT 3SM +RA BR SCT013 OVC019 06/03 A2968 RMK AO2 PK WND 21031/1734 RAB35 SLP058 P0009 60013 T00560033 10072 20056 53026=
200601281656 METAR KSEA 281656Z 17012KT 10SM BKN015 BKN024 OVC200 07/04 A2964 RMK AO2 SLP046 T00670039=
200601281622 SPECI KSEA 281622Z 18010KT 10SM FEW015 BKN026 BKN250 06/04 A2963 RMK AO2=
200601281622 SPECI KSEA 281622Z 18010KT 10SM FEW015 BKN026 BKN250 06/04 A2963 RMK AO2=
200601281556 METAR KSEA 281556Z 20012G17KT 10SM FEW015 SCT032 SCT110 BKN250 06/02 A2961 RMK AO2 RAB07E52 SLP035 P0000 T00610022=
200601281543 SPECI KSEA 281543Z 23010G24KT 7SM -RA SCT015 BKN032 OVC110 06/03 A2961 RMK AO2 RAB07 P0000=
200601281543 SPECI KSEA 281543Z 23010G24KT 7SM -RA SCT015 BKN032 OVC110 06/03 A2961 RMK AO2 RAB07 P0000=
200601281456 METAR KSEA 281456Z 21009KT 10SM SCT013 BKN017 OVC025 07/04 A2960 RMK AO2 SLP031 60004 T00720044 53057=
200601281356 METAR KSEA 281356Z 21016G28KT 10SM BKN009 BKN013 OVC022 07/04 A2953 RMK AO2 PK WND 21030/1316 RAE32 SLP006 P0002 T00670044=
200601281256 METAR KSEA 281256Z 21021G28KT 8SM -RA FEW015 BKN019 OVC024 07/04 A2949 RMK AO2 PK WND 20028/1255 SLP994 P0002 T00720044=
200601281156 METAR KSEA 281156Z 19016G26KT 10SM -RA OVC029 07/04 A2943 RMK AO2 PK WND 19027/1140 SLP974 P0003 60018 70021 T00720044 10083 20056 55046=
200601281133 SPECI KSEA 281133Z 19017G25KT 10SM -RA OVC029 08/04 A2942 RMK AO2 PK WND 19026/1126 P0002=
200601281133 SPECI KSEA 281133Z 19017G25KT 10SM -RA OVC029 08/04 A2942 RMK AO2 PK WND 19026/1126 P0002=
200601281056 METAR KSEA 281056Z 19016G25KT 10SM -RA OVC033 08/04 A2943 RMK AO2 PK WND 18027/1036 SLP972 P0002 T00830039=
200601280956 METAR KSEA 280956Z 17014KT 10SM -RA OVC039 07/03 A2948 RMK AO2 SLP990 P0001 T00720033=
200601280856 METAR KSEA 280856Z 14010G22KT 10SM -RA OVC035 06/03 A2957 RMK AO2 PRESFR SLP020 P0005 60012 T00610033 58078=
200601280756 METAR KSEA 280756Z 14012KT 7SM RA OVC028 06/03 A2966 RMK AO2 PRESFR SLP052 P0006 T00610028 400890044=
200601280739 SPECI KSEA 280739Z 14011KT 8SM -RA OVC028 06/03 A2969 RMK AO2 PRESFR P0004=
200601280739 SPECI KSEA 280739Z 14011KT 8SM -RA OVC028 06/03 A2969 RMK AO2 PRESFR P0004=
200601280656 METAR KSEA 280656Z 13012KT 10SM -RA OVC031 06/03 A2974 RMK AO2 SLP079 P0001 T00610028=
200601280645 SPECI KSEA 280645Z 13008KT 10SM -RA OVC031 06/02 A2975 RMK AO2 PRESFR P0001=
200601280645 SPECI KSEA 280645Z 13008KT 10SM -RA OVC031 06/02 A2975 RMK AO2 PRESFR P0001=
200601280556 METAR KSEA 280556Z 17012KT 10SM -RA BKN026 OVC035 06/02 A2980 RMK AO2 SLP100 P0000 60002 T00610022 10072 20061 58044=
200601280547 SPECI KSEA 280547Z 17011KT 10SM -RA BKN026 OVC035 06/02 A2981=
200601280547 SPECI KSEA 280547Z 17011KT 10SM -RA BKN026 OVC035 06/02 A2981 RMK AO2 P0000=
200601280456 METAR KSEA 280456Z 16006KT 10SM -RA FEW028 OVC042 06/03 A2986 RMK AO2 RAE15B50 SLP120 P0000 T00610028=
200601280419 SPECI KSEA 280419Z 18009KT 10SM FEW018 SCT034 OVC055 06/02 A2988 RMK AO2 RAE15 P0000=
200601280419 SPECI KSEA 280419Z 18009KT 10SM FEW018 SCT034 OVC055 06/02 A2988 RMK AO2 RAE15 P0000=
200601280356 METAR KSEA 280356Z 19012KT 10SM -RA SCT019 BKN023 OVC045 06/03 A2991 RMK AO2 SLP135 P0001 T00610028=
200601280256 METAR KSEA 280256Z 22011G18KT 9SM -RA SCT022 BKN027 OVC060 07/03 A2994 RMK AO2 RAB38 SLP145 P0000 60001 T00670028 56023=
200601280156 METAR KSEA 280156Z 18011KT 10SM SCT031 BKN049 OVC065 07/03 A2995 RMK AO2 RAB0057E10B40E49 SLP151 P0001 T00720028=
200601280056 METAR KSEA 280056Z 22009KT 10SM SCT026 BKN039 OVC060 07/03 A2998 RMK AO2 RAB19E31 SLP162 P0000 T00670028=
200601272356 METAR KSEA 272356Z 21012KT 10SM FEW021 BKN043 OVC060 07/03 A3000 RMK AO2 SLP169 T00720028 10089 20061 51002=
200601272338 SPECI KSEA 272338Z 21012G18KT 10SM SCT021 BKN032 OVC110 08/03 A3001 RMK AO2=
200601272338 SPECI KSEA 272338Z 21012G18KT 10SM SCT021 BKN032 OVC110 08/03 A3001 RMK AO2=
200601272256 METAR KSEA 272256Z 20011KT 10SM FEW015 BKN025 BKN040 OVC200 08/03 A3000 RMK AO2 SLP169 T00780028=
200601272156 METAR KSEA 272156Z 20013KT 10SM BKN021 BKN040 OVC200 08/03 A3000 RMK AO2 SLP168 T00830033=
200601272056 METAR KSEA 272056Z 21014G20KT 10SM BKN020 BKN040 OVC200 08/03 A3000 RMK AO2 SLP167 T00830033 51016=
200601271956 METAR KSEA 271956Z 21011KT 10SM BKN016 BKN024 08/03 A2999 RMK AO2 SLP163 T00780033=
200601271856 METAR KSEA 271856Z 21013KT 10SM SCT014 OVC018 07/03 A2998 RMK AO2 SLP161 BINOVC OHD-SE T00670033=
200601271822 SPECI KSEA 271822Z 20014KT 10SM FEW010 BKN014 OVC023 06/03 A2997 RMK AO2 BINOVC S=
200601271822 SPECI KSEA 271822Z 20014KT 10SM FEW010 BKN014 OVC023 06/03 A2997 RMK AO2 BINOVC S=
200601271756 METAR KSEA 271756Z 21013KT 10SM FEW008 SCT014 BKN023 06/03 A2995 RMK AO2 RAE1658 SLP150 P0000 60001 T00610033 10061 20044 51013=
200601271728 SPECI KSEA 271728Z 19010KT 10SM FEW008 SCT012 OVC021 06/03 A2994 RMK AO2 RAE1658 BINOVC OHD-S P0000=
200601271728 SPECI KSEA 271728Z 19010KT 10SM FEW008 SCT012 OVC021 06/03 A2994 RMK AO2 RAE1658 BINOVC OHD-S P0000=
200601271656 METAR KSEA 271656Z 21011G18KT 10SM -RA SCT008 BKN012 OVC019 05/03 A2995 RMK AO2 RAB32 SLP150 BINOVC S P0000 T00500028=
200601271556 METAR KSEA 271556Z 21009KT 10SM SCT008 BKN012 OVC019 05/03 A2993 RMK AO2 RAE13 SLP144 P0000 T00500028=
200601271456 METAR KSEA 271456Z 20012KT 8SM -RA BKN008 OVC015 04/03 A2991 RMK AO2 RAB45 SLP137 P0001 60001 T00440028 53009=
200601271443 SPECI KSEA 271443Z 21010KT 8SM BKN008 OVC013 05/03 A2991=
200601271443 SPECI KSEA 271443Z 21010KT 8SM BKN008 OVC013 05/03 A2991 RMK AO2=
200601271356 METAR KSEA 271356Z 21007KT 10SM FEW007 BKN012 OVC023 05/03 A2990 RMK AO2 RAB15E24 SLP132 P0000 T00500028=
200601271256 METAR KSEA 271256Z 19008KT 10SM FEW007 OVC014 04/03 A2989 RMK AO2 RAE34 SLP131 P0000 T00440028=
200601271234 SPECI KSEA 271234Z 19008KT 8SM FEW007 BKN014 OVC028 04/03 A2989 RMK AO2 RAE34 P0000=
200601271234 SPECI KSEA 271234Z 19008KT 8SM FEW007 BKN014 OVC028 04/03 A2989 RMK AO2 RAE34 P0000=
200601271211 SPECI KSEA 271211Z 19008KT 8SM -RA FEW006 SCT011 OVC027 04/03 A2989 RMK AO2 P0000=
200601271211 SPECI KSEA 271211Z 19008KT 8SM -RA FEW006 SCT011 OVC027 04/03 A2989 RMK AO2 P0000=
200601271156 METAR KSEA 271156Z 19011KT 8SM -RA BKN011 OVC034 04/03 A2989 RMK AO2 RAB31 SLP128 P0001 60011 70020 T00440028 10061 20044 53006=
200601271142 SPECI KSEA 271142Z 19011KT 7SM -RA BKN011 OVC017 04/03 A2988=
200601271142 SPECI KSEA 271142Z 19011KT 7SM -RA BKN011 OVC017 04/03 A2988 RMK AO2 RAB31 P0001=
200601271056 METAR KSEA 271056Z 21006KT 10SM FEW009 BKN019 OVC045 05/03 A2988 RMK AO2 RAE46 SLP126 P0006 T00500028=
200601271003 SPECI KSEA 271003Z 20011KT 8SM -RA FEW009 BKN025 OVC080 05/03 A2987 RMK AO2 P0000=
200601271003 SPECI KSEA 271003Z 20011KT 8SM -RA FEW009 BKN025 OVC080 05/03 A2987 RMK AO2 P0000=
200601270956 METAR KSEA 270956Z 21011KT 8SM -RA FEW011 BKN025 OVC085 05/03 A2987 RMK AO2 RAE25B51 SLP122 P0002 T00500033=
200601270856 METAR KSEA 270856Z 23009KT 6SM -RA BR FEW011 OVC019 05/03 A2987 RMK AO2 RAB31 SLP123 P0002 60002 T00500028 53011=
200601270824 SPECI KSEA 270824Z 22009KT 10SM FEW011 BKN025 BKN037 06/02 A2987 RMK AO2=
200601270824 SPECI KSEA 270824Z 22009KT 10SM FEW011 BKN025 BKN037 06/02 A2987 RMK AO2=
200601270756 METAR KSEA 270756Z 20011KT 10SM FEW011 SCT024 BKN037 06/02 A2986 RMK AO2 SLP118 T00560022 400890050=
200601270656 METAR KSEA 270656Z 19013KT 10SM FEW011 SCT027 BKN034 06/03 A2984 RMK AO2 RAB01E16 SLP113 P0000 T00560028=
200601270649 SPECI KSEA 270649Z 20013KT 10SM FEW011 SCT027 OVC034 06/03 A2984 RMK AO2 RAB01E16 P0000=
200601270649 SPECI KSEA 270649Z 20013KT 10SM FEW011 SCT027 OVC034 06/03 A2984 RMK AO2 RAB01E16 P0000=
200601270628 SPECI KSEA 270628Z 19011KT 10SM SCT011 BKN016 OVC027 06/03 A2984 RMK AO2 RAB01E16 P0000=
200601270628 SPECI KSEA 270628Z 19011KT 10SM SCT011 BKN016 OVC027 06/03 A2984 RMK AO2 RAB01E16 P0000=
200601270556 METAR KSEA 270556Z 19009KT 10SM FEW009 BKN013 OVC035 06/03 A2984 RMK AO2 RAE43 SLP111 P0000 60004 T00560033 10078 20050 51015=
200601270537 SPECI KSEA 270537Z 20009KT 10SM -RA SCT009 OVC023 06/03 A2983 RMK AO2 P0000=
200601270537 SPECI KSEA 270537Z 20009KT 10SM -RA SCT009 OVC023 06/03 A2983 RMK AO2 P0000=
200601270523 SPECI KSEA 270523Z 19009KT 10SM -RA BKN009 BKN015 OVC023 06/03 A2983 RMK AO2 P0000=
200601270523 SPECI KSEA 270523Z 19009KT 10SM -RA BKN009 BKN015 OVC023 06/03 A2983 RMK AO2 P0000=
200601270456 METAR KSEA 270456Z 19011KT 10SM -RA FEW016 SCT027 OVC035 05/03 A2982 RMK AO2 SLP106 P0003 T00500028=
200601270428 SPECI KSEA 270428Z 19013KT 10SM -RA FEW013 SCT017 OVC039 05/03 A2981 RMK AO2 P0003=
200601270428 SPECI KSEA 270428Z 19013KT 10SM -RA FEW013 SCT017 OVC039 05/03 A2981 RMK AO2 P0003=
200601270356 METAR KSEA 270356Z 21015G20KT 10SM -RA FEW013 OVC019 06/03 A2981 RMK AO2 SLP102 P0001 T00610033=
200601270344 SPECI KSEA 270344Z 22014G19KT 10SM -RA BKN019 BKN032 OVC042 07/03 A2980 RMK AO2 P0000=
200601270344 SPECI KSEA 270344Z 22014G19KT 10SM -RA BKN019 BKN032 OVC042 07/03 A2980 RMK AO2 P0000=
200601270336 SPECI KSEA 270336Z 22013KT 10SM -RA SCT019 BKN030 OVC044 07/03 A2980 RMK AO2 P0000=
200601270336 SPECI KSEA 270336Z 22013KT 10SM -RA SCT019 BKN030 OVC044 07/03 A2980 RMK AO2 P0000=
200601270256 METAR KSEA 270256Z 22012KT 10SM -RA FEW020 BKN025 OVC075 07/03 A2979 RMK AO2 SLP096 P0000 60000 T00720028 53007=
200601270156 METAR KSEA 270156Z 18012G19KT 10SM -RA BKN030 BKN037 OVC045 07/03 A2976 RMK AO2 SLP085 P0000 T00720028=
200601270056 METAR KSEA 270056Z 18014KT 10SM -RA BKN034 OVC044 07/02 A2975 RMK AO2 SLP083 P0000 T00720022=
200601262356 METAR KSEA 262356Z 18012KT 10SM -RA OVC030 08/02 A2977 RMK AO2 SLP088 P0000 60002 T00780022 10089 20061 56026=
200601262256 METAR KSEA 262256Z 19013KT 10SM -RA FEW020 SCT035 BKN070 OVC130 09/02 A2978 RMK AO2 RAB51 SLP093 P0000 T00890017=
200601262218 SPECI KSEA 262218Z 18011KT 10SM FEW015 SCT026 OVC036 08/02 A2979 RMK AO2=
200601262218 SPECI KSEA 262218Z 18011KT 10SM FEW015 SCT026 OVC036 08/02 A2979 RMK AO2=
200601262156 METAR KSEA 262156Z 19011KT 10SM FEW015 BKN026 OVC033 08/03 A2981 RMK AO2 RAB18E54 SLP102 P0001 T00830033=
200601262138 SPECI KSEA 262138Z 20010KT 10SM -RA FEW010 BKN026 OVC033 07/03 A2982 RMK AO2 RAB18 P0000=
200601262138 SPECI KSEA 262138Z 20010KT 10SM -RA FEW010 BKN026 OVC033 07/03 A2982 RMK AO2 RAB18 P0000=
200601262056 METAR KSEA 262056Z 20012KT 10SM FEW010 SCT025 OVC033 08/03 A2985 RMK AO2 RAE52 SLP114 P0000 60001 T00780028 58027=
200601261956 METAR KSEA 261956Z 19014KT 10SM -RA FEW009 BKN020 OVC029 07/03 A2988 RMK AO2 SLP126 P0000 T00670028=
200601261938 SPECI KSEA 261938Z 19011KT 10SM -RA FEW009 SCT015 OVC022 07/03 A2989 RMK AO2 P0000=
200601261938 SPECI KSEA 261938Z 19011KT 10SM -RA FEW009 SCT015 OVC022 07/03 A2989 RMK AO2 P0000=
200601261856 METAR KSEA 261856Z 19013KT 10SM -RA SCT018 BKN023 OVC029 07/03 A2991 RMK AO2 SLP137 P0001 T00670028=
200601261756 METAR KSEA 261756Z 20010KT 10SM -RA FEW012 BKN024 OVC037 06/03 A2993 RMK AO2 RAB07 SLP142 P0001 60003 T00610028 10067 20056 53003=
200601261747 SPECI KSEA 261747Z 21010KT 10SM -RA FEW012 BKN024 OVC037 07/02 A2992 RMK AO2 RAB07 P0000=
200601261747 SPECI KSEA 261747Z 21010KT 10SM -RA FEW012 BKN024 OVC037 07/02 A2992 RMK AO2 RAB07 P0000=
200601261656 METAR KSEA 261656Z 20012KT 10SM FEW009 BKN035 BKN045 OVC150 07/02 A2992 RMK AO2 SLP141 T00670022=
200601261556 METAR KSEA 261556Z 19011G17KT 10SM FEW009 SCT023 OVC080 06/02 A2992 RMK AO2 RAE31 SLP138 P0000 T00610022=
200601261544 SPECI KSEA 261544Z 20010KT 10SM SCT023 BKN032 OVC100 06/03 A2991 RMK AO2 RAE31 P0000=
200601261544 SPECI KSEA 261544Z 20010KT 10SM SCT023 BKN032 OVC100 06/03 A2991 RMK AO2 RAE31 P0000=
200601261456 METAR KSEA 261456Z 20012G19KT 10SM -RA BKN021 BKN027 OVC033 06/03 A2992 RMK AO2 RAB09 SLP139 P0002 60002 T00560028 55004=
200601261356 METAR KSEA 261356Z 20015G21KT 10SM SCT021 BKN027 OVC034 07/02 A2992 RMK AO2 RAB00E35 SLP139 P0000 T00670022=
200601261256 METAR KSEA 261256Z 19012G17KT 10SM BKN025 BKN033 OVC050 07/02 A2993 RMK AO2 RAB32E41 SLP142 P0000 T00670017=
200601261156 METAR KSEA 261156Z 20012KT 10SM SCT023 BKN029 BKN039 OVC150 07/02 A2993 RMK AO2 RAB44E54 SLP143 P0000 60001 70008 T00670022 10067 20061 52006=
200601261056 METAR KSEA 261056Z 19011G17KT 10SM BKN029 BKN035 BKN070 07/03 A2993 RMK AO2 SLP142 T00670028=
200601261035 SPECI KSEA 261035Z 19012KT 10SM BKN029 BKN035 OVC050 07/03 A2992 RMK AO2=
200601261035 SPECI KSEA 261035Z 19012KT 10SM BKN029 BKN035 OVC050 07/03 A2992 RMK AO2=
200601260956 METAR KSEA 260956Z 19014KT 10SM FEW021 BKN034 BKN041 07/03 A2991 RMK AO2 SLP138 T00670028=
200601260856 METAR KSEA 260856Z 20013G22KT 10SM SCT028 BKN036 OVC047 07/02 A2991 RMK AO2 SLP137 60001 T00670022 53009=
200601260843 SPECI KSEA 260843Z 20012KT 10SM SCT028 BKN036 OVC047 07/02 A2991 RMK AO2=
200601260843 SPECI KSEA 260843Z 20012KT 10SM SCT028 BKN036 OVC047 07/02 A2991 RMK AO2=
200601260756 METAR KSEA 260756Z 18013KT 10SM FEW020 BKN026 BKN032 07/02 A2990 RMK AO2 RAE0658 SLP132 P0000 T00670022 401110033=
200601260656 METAR KSEA 260656Z 18011KT 10SM -RA SCT020 BKN026 OVC055 07/03 A2989 RMK AO2 RAB10 SLP129 P0001 T00670033=
200601260633 SPECI KSEA 260633Z 19013G19KT 10SM -RA SCT021 BKN026 OVC044 07/03 A2988 RMK AO2 RAB10 P0001=
200601260633 SPECI KSEA 260633Z 19013G19KT 10SM -RA SCT021 BKN026 OVC044 07/03 A2988 RMK AO2 RAB10 P0001=
200601260556 METAR KSEA 260556Z 19013G18KT 10SM SCT032 BKN047 OVC110 07/03 A2988 RMK AO2 SLP127 60001 T00670028 10078 20067 51004=
200601260456 METAR KSEA 260456Z 19013KT 10SM FEW020 BKN110 OVC200 07/03 A2988 RMK AO2 RAE05 SLP125 P0000 T00670033=
200601260436 SPECI KSEA 260436Z 19013KT 10SM SCT019 BKN100 07/03 A2987 RMK AO2 RAE05 P0000=
200601260436 SPECI KSEA 260436Z 19013KT 10SM SCT019 BKN100 07/03 A2987 RMK AO2 RAE05 P0000=
200601260356 METAR KSEA 260356Z 22007KT 8SM -RA BKN019 OVC023 07/04 A2989 RMK AO2 RAB0257 SLP128 P0001 T00720039=
200601260328 SPECI KSEA 260328Z 19010KT 10SM -RA FEW022 BKN029 OVC046 07/04 A2987 RMK AO2 RAB0257 P0001=
200601260328 SPECI KSEA 260328Z 19010KT 10SM -RA FEW022 BKN029 OVC046 07/04 A2987 RMK AO2 RAB0257 P0001=
200601260256 METAR KSEA 260256Z 22013KT 10SM FEW022 BKN034 OVC095 08/03 A2987 RMK AO2 SLP124 60000 T00780033 53013=
200601260156 METAR KSEA 260156Z 19009KT 10SM FEW029 SCT037 OVC095 08/04 A2986 RMK AO2 SLP119 T00780039=
200601260056 METAR KSEA 260056Z 19011KT 10SM SCT027 BKN070 OVC085 08/04 A2985 RMK AO2 RAE06B26E45 SLP116 P0000 T00780044=
200601252356 METAR KSEA 252356Z 18011KT 10SM -RA FEW009 SCT029 OVC040 08/05 A2984 RMK AO2 SLP111 P0001 60006 T00780050 10111 20078 53003=
200601252256 METAR KSEA 252256Z 18011KT 10SM -RA FEW006 SCT025 OVC032 08/05 A2982 RMK AO2 SLP107 P0001 T00780050=
200601252156 METAR KSEA 252156Z 18010KT 7SM -RA FEW006 SCT025 OVC032 08/06 A2982 RMK AO2 SLP107 P0003 T00780061=
200601252114 SPECI KSEA 252114Z 22010KT 5SM -RA BR FEW008 BKN029 OVC038 08/06 A2983 RMK AO2 P0001=
200601252114 SPECI KSEA 252114Z 22010KT 5SM -RA BR FEW008 BKN029 OVC038 08/06 A2983 RMK AO2 P0001=
200601252056 METAR KSEA 252056Z 24010KT 10SM -RA FEW008 BKN040 OVC050 08/06 A2983 RMK AO2 SLP108 P0001 60001 T00780056 50004=
200601252012 SPECI KSEA 252012Z 25011G15KT 10SM -RA FEW008 SCT025 OVC038 08/06 A2983 RMK AO2 P0001=
200601252012 SPECI KSEA 252012Z 25011G15KT 10SM -RA FEW008 SCT025 OVC038 08/06 A2983 RMK AO2 P0001=
200601251956 METAR KSEA 251956Z 25016G21KT 7SM -RA FEW017 SCT025 OVC038 08/06 A2983 RMK AO2 RAB27 SLP109 P0000 T00830056=
200601251856 METAR KSEA 251856Z 24010G16KT 10SM FEW040 BKN060 BKN090 09/06 A2983 RMK AO2 SLP110 SH DSNT SW T00940061 $=
200601251756 METAR KSEA 251756Z 19006KT 10SM FEW045 SCT090 SCT200 10/07 A2982 RMK AO2 SLP104 T01000067 10100 20033 58003 $=
200601251656 METAR KSEA 251656Z 17004KT 10SM FEW030 SCT090 SCT150 08/07 A2982 RMK AO2 SLP106 T00830067 $=
200601251556 METAR KSEA 251556Z COR 18003KT 10SM FEW090 SCT150 07/06 A2982 RMK AO2 SLP107 T00670056 $=
200601251456 METAR KSEA 251456Z 14009KT 10SM BKN090 BKN200 08/06 A2983 RMK AO2 SLP107 T00780061 50001 $=
200601251356 METAR KSEA 251356Z 15007KT 10SM OVC090 07/06 A2983 RMK AO2 SLP108 T00720061 $=
200601251256 METAR KSEA 251256Z 16005KT 10SM SCT100 04/04 A2984 RMK AO2 SLP111 T00390039 $=
200601251156 METAR KSEA 251156Z 16004KT 10SM CLR 03/03 A2982 RMK AO2 SLP107 T00330033 10083 20033 56006 $=
200601251056 METAR KSEA 251056Z 00000KT 10SM CLR 07/05 A2983 RMK AO2 SLP107 T00670050 $=
200601250956 METAR KSEA 250956Z 15003KT 10SM CLR 06/05 A2983 RMK AO2 SLP108 T00610050 $=
200601250856 METAR KSEA 250856Z 00000KT 10SM CLR 06/05 A2984 RMK AO2 SLP112 T00610050 58010 $=
200601250756 METAR KSEA 250756Z 00000KT 10SM CLR 06/06 A2985 RMK AO2 SLP116 T00610061 401330050 $=
200601250656 METAR KSEA 250656Z 28006KT 10SM CLR 06/06 A2986 RMK AO2 SLP120 T00610061 $=
200601250632 SPECI KSEA 250632Z 34004KT 3SM R16R/1200VP6000FT BR SCT001 SCT005 05/05 A2986 RMK AO2 VIS N 1/2 $=
200601250632 SPECI KSEA 250632Z 34004KT 3SM R16R/1200VP6000FT BR SCT001 SCT005 05/05 A2986 RMK AO2 VIS N 1/2 $=
200601250622 SPECI KSEA 250622Z 00000KT 3/4SM R16R/0400V1200FT BR SCT001 06/06 A2986 RMK AO2 VIS NW-NE 1/4 $=
200601250622 SPECI KSEA 250622Z 00000KT 3/4SM R16R/0400V1200FT BR SCT001 06/06 A2986 RMK AO2 VIS NW-NE 1/4 $=
200601250556 METAR KSEA 250556Z 00000KT M1/4SM R16R/0500V0600FT FG VV001 06/06 A2987 RMK AO2 SLP123 T00610061 10111 20056 55002 $=
200601250549 SPECI KSEA 250549Z 00000KT 1/4SM R16R/0500V0600FT FG VV001 06/06 A2987=
200601250549 SPECI KSEA 250549Z 00000KT 1/4SM R16R/0500V0600FT FG VV001 06/06 A2987 RMK AO2 $=
200601250536 SPECI KSEA 250536Z 27006KT 3/4SM R16R/0700VP6000FT BR VV001 06/06 A2988 RMK AO2 $=
200601250536 SPECI KSEA 250536Z 27006KT 3/4SM R16R/0700VP6000FT BR VV001 06/06 A2988 RMK AO2 $=
200601250456 METAR KSEA 250456Z 14006KT 4SM BR SCT001 07/07 A2986 RMK AO2 SLP120 T00670067 $=
200601250449 SPECI KSEA 250449Z 14007KT 1/4SM R16R/1000VP6000FT FG VV001 07/07 A2987=
200601250449 SPECI KSEA 250449Z 14007KT 1/4SM R16R/1000VP6000FT FG VV001 07/07 A2987 RMK AO2 $=
200601250437 SPECI KSEA 250437Z 16004KT 1/4SM R16R/1000V2000FT FG VV001 07/07 A2988 RMK AO2=
200601250437 SPECI KSEA 250437Z 16004KT 1/4SM R16R/1000V2000FT FG VV001 07/07 A2988 RMK AO2=
200601250428 SPECI KSEA 250428Z 24003KT 1/4SM R16R/1000VP6000FT BR VV001 07/07 A2989 RMK AO2 SFC VIS 1 VIS 1/2V4=
200601250428 SPECI KSEA 250428Z 24003KT 1/4SM R16R/1000VP6000FT BR VV001 07/07 A2989 RMK AO2 SFC VIS 1 VIS 1/2V4=
200601250426 SPECI KSEA 250426Z 24003KT 1 1/2SM R16R/1000VP6000FT BR FEW001 07/07 A2989 RMK AO2 VIS 1/2V5=
200601250426 SPECI KSEA 250426Z 24003KT 1 1/2SM R16R/1000VP6000FT BR FEW001 07/07 A2989 RMK AO2 VIS 1/2V5=
200601250356 METAR KSEA 250356Z 15005KT 10SM CLR 07/07 A2988 RMK AO2 SLP125 T00670067=
200601250256 METAR KSEA 250256Z 00000KT 10SM SCT250 08/07 A2988 RMK AO2 SLP125 T00830067 56012=
200601250156 METAR KSEA 250156Z 00000KT 10SM BKN250 08/08 A2989 RMK AO2 SLP128 T00780078=
200601250056 METAR KSEA 250056Z 17004KT 1/4SM FG VV000 03/03 A2991 RMK SLP130=
200601242356 METAR KSEA 242356Z 24004KT 10SM BKN250 11/08 A2991 RMK AO2 SLP136 T01110083 10133 20067 56016=
200601242256 METAR KSEA 242256Z VRB03KT 10SM BKN250 12/09 A2992 RMK AO2 SLP138 T01220089=
200601242156 METAR KSEA 242156Z 00000KT 10SM FEW150 BKN250 12/06 A2993 RMK AO2 SLP143 T01220061=
200601242056 METAR KSEA 242056Z 00000KT 10SM FEW008 SCT150 OVC250 12/06 A2996 RMK AO2 SLP152 T01170056 56036=
200601241956 METAR KSEA 241956Z 36007KT 10SM FEW005 BKN250 11/06 A2999 RMK AO2 SLP163 T01060056=
200601241856 METAR KSEA 241856Z 01011KT 10SM FEW005 OVC250 09/06 A3002 RMK AO2 SLP173 T00940056=
200601241807 SPECI KSEA 241807Z 01014KT 4SM BR FEW001 SCT003 OVC200 07/05 A3006=
200601241807 SPECI KSEA 241807Z 01014KT 4SM BR FEW001 SCT003 OVC200 07/05 A3006 RMK AO2=
200601241802 SPECI KSEA 241802Z 01011KT 2SM BR SCT001 BKN003 07/05 A3006 RMK AO2 BINOVC OHD=
200601241802 SPECI KSEA 241802Z 01011KT 2SM BR SCT001 BKN003 07/05 A3006 RMK AO2 BINOVC OHD=
200601241756 METAR KSEA 241756Z 01009KT 1/4SM R16R/4000VP6000FT FG SCT001 OVC003 07/05 A3007 RMK AO2 SFC VIS 1/2 SLP190 BINOVC OHD T00670050 10067 20050 58031=
200601241716 SPECI KSEA 241716Z 01008KT 1/4SM R16R/3500VP6000FT FG SCT001 BKN003 06/04 A3010 RMK AO2 SFC VIS 1/2=
200601241716 SPECI KSEA 241716Z 01008KT 1/4SM R16R/3500VP6000FT FG SCT001 BKN003 06/04 A3010 RMK AO2 SFC VIS 1/2=
200601241656 METAR KSEA 241656Z 36008KT 1/4SM R16R/1800V5500FT FG VV001 06/04 A3011 RMK AO2 TWR VIS 1/4 SLP205 T00560044=
200601241611 SPECI KSEA 241611Z 36006KT 1/4SM R16R/1200V5500FT FG OVC001 06/04 A3012=
200601241611 SPECI KSEA 241611Z 36006KT 1/4SM R16R/1200V5500FT FG OVC001 06/04 A3012 RMK AO2=
200601241556 METAR KSEA 241556Z 01007KT M1/4SM R16R/1000V1200FT FG OVC001 05/04 A3013 RMK AO2 TWR VIS 1/4 SLP211 T00500039=
200601241456 METAR KSEA 241456Z 36005KT 1/4SM R16R/1600VP6000FT FG OVC001 06/04 A3016 RMK AO2 TWR VIS 1/4 SLP222 T00560044 58030=
200601241448 SPECI KSEA 241448Z 01006KT 1/4SM R16R/1200V2800FT FG OVC001 06/04 A3017 RMK AO2 TWR VIS 1/2=
200601241448 SPECI KSEA 241448Z 01006KT 1/4SM R16R/1200V2800FT FG OVC001 06/04 A3017 RMK AO2 TWR VIS 1/2=
200601241356 METAR KSEA 241356Z 02004KT 1/4SM R16R/1000V1200FT FG VV001 05/04 A3020 RMK AO2 TWR VIS 1/2 SLP234 T00500044=
200601241347 SPECI KSEA 241347Z 36005KT 1/4SM R16R/1200V1400FT FG VV001 05/04 A3020 RMK AO2 TWR VIS 1/2=
200601241347 SPECI KSEA 241347Z 36005KT 1/4SM R16R/1200V1400FT FG VV001 05/04 A3020 RMK AO2 TWR VIS 1/2=
200601241337 SPECI KSEA 241337Z 02004KT 1/4SM R16R/1200V2400FT FG VV001 05/04 A3020 RMK AO2 TWR VIS 1/2=
200601241337 SPECI KSEA 241337Z 02004KT 1/4SM R16R/1200V2400FT FG VV001 05/04 A3020 RMK AO2 TWR VIS 1/2=
200601241256 METAR KSEA 241256Z 35005KT 1/4SM R16R/1600V1800FT FG VV001 05/04 A3022 RMK AO2 TWR VIS 1/2 SLP243 T00500044=
200601241232 SPECI KSEA 241232Z 01005KT 1/4SM R16R/1600V1800FT FG VV001 06/04 A3023 RMK AO2 TWR VIS 1/2=
200601241232 SPECI KSEA 241232Z 01005KT 1/4SM R16R/1600V1800FT FG VV001 06/04 A3023 RMK AO2 TWR VIS 1/2=
200601241209 SPECI KSEA 241209Z 01005KT 1/4SM R16R/1800V2800FT FG VV001 06/04 A3024 RMK AO2 TWR VIS 1/2=
200601241209 SPECI KSEA 241209Z 01005KT 1/4SM R16R/1800V2800FT FG VV001 06/04 A3024 RMK AO2 TWR VIS 1/2=
200601241156 METAR KSEA 241156Z 36008KT 1/4SM R16R/1200V1800FT FG VV001 06/04 A3025 RMK AO2 TWR VIS 1/2 SLP252 70001 T00560044 10083 20056 58029=
200601241142 SPECI KSEA 241142Z 01005KT 1/4SM R16R/0800V1200FT FG OVC001 06/04 A3026 RMK AO2 TWR VIS 1/2=
200601241142 SPECI KSEA 241142Z 01005KT 1/4SM R16R/0800V1200FT FG OVC001 06/04 A3026 RMK AO2 TWR VIS 1/2=
200601241132 SPECI KSEA 241132Z 01007KT 1/4SM R16R/1200V2400FT FG VV001 06/05 A3026 RMK AO2 TWR VIS 1/2=
200601241132 SPECI KSEA 241132Z 01007KT 1/4SM R16R/1200V2400FT FG VV001 06/05 A3026 RMK AO2 TWR VIS 1/2=
200601241056 METAR KSEA 241056Z 01005KT 1/4SM R16R/1000V1200FT FG OVC001 06/06 A3028 RMK AO2 TWR VIS 1/2 SLP262 T00610056=
200601241023 SPECI KSEA 241023Z 03004KT 1/4SM R16R/0800V1400FT FG OVC001 06/05 A3030 RMK AO2 TWR VIS 1/2=
200601241023 SPECI KSEA 241023Z 03004KT 1/4SM R16R/0800V1400FT FG OVC001 06/05 A3030 RMK AO2 TWR VIS 1/2=
200601240956 METAR KSEA 240956Z 06005KT 1/2SM R16R/1800V4000FT FG OVC001 06/05 A3031 RMK AO2 SLP273 T00560050=
200601240917 SPECI KSEA 240917Z 00000KT 1/2SM R16R/1600V5000FT FG OVC001 07/06 A3033=
200601240917 SPECI KSEA 240917Z 00000KT 1/2SM R16R/1600V5000FT FG OVC001 07/06 A3033 RMK AO2=
200601240856 METAR KSEA 240856Z 05004KT 1/4SM R16R/0800V1000FT FG OVC001 07/06 A3034 RMK AO2 TWR VIS 1/2 SLP281 T00720061 58021=
200601240756 METAR KSEA 240756Z 00000KT 1/4SM R16R/0800V1000FT FG OVC001 07/07 A3037 RMK AO2 TWR VIS 1/2 SLP291 T00720067 401280072=
200601240718 SPECI KSEA 240718Z 06003KT 1/4SM R16R/0800V1400FT FG VV001 08/07 A3038 RMK AO2 TWR VIS 1/2=
200601240718 SPECI KSEA 240718Z 06003KT 1/4SM R16R/0800V1400FT FG VV001 08/07 A3038 RMK AO2 TWR VIS 1/2=
200601240656 METAR KSEA 240656Z 07004KT 1/2SM R16R/6000VP6000FT BR OVC001 08/07 A3039 RMK AO2 SFC VIS 2 SLP298 T00830072=
200601240642 SPECI KSEA 240642Z 06004KT 1/2SM BR OVC001 08/07 A3039=
200601240642 SPECI KSEA 240642Z 06004KT 1/2SM BR OVC001 08/07 A3039 RMK AO2 SFC VIS 5=
200601240630 SPECI KSEA 240630Z 04006KT 1/2SM BR BKN003 08/07 A3040 RMK AO2 SFC VIS 6=
200601240630 SPECI KSEA 240630Z 04006KT 1/2SM BR BKN003 08/07 A3040 RMK AO2 SFC VIS 6=
200601240604 SPECI KSEA 240604Z 01003KT 2 1/2SM BR BKN003 07/06 A3040 RMK AO2 SFC VIS 6=
200601240604 SPECI KSEA 240604Z 01003KT 2 1/2SM BR BKN003 07/06 A3040 RMK AO2 SFC VIS 6=
200601240556 METAR KSEA 240556Z 01004KT 7SM FEW003 SCT024 08/06 A3040 RMK AO2 SLP302 T00780061 10117 20072 58017=
200601240456 METAR KSEA 240456Z 03005KT 9SM FEW024 08/07 A3042 RMK AO2 SLP308 T00830067=
200601240356 METAR KSEA 240356Z 02006KT 10SM FEW022 08/07 A3044 RMK AO2 SLP315 T00830067=
200601240256 METAR KSEA 240256Z 02007KT 10SM SCT022 09/07 A3045 RMK AO2 SLP320 T00890067 58002=
200601240156 METAR KSEA 240156Z 36007KT 10SM SCT022 09/07 A3046 RMK AO2 SLP322 T00890067=
200601240056 METAR KSEA 240056Z 32005KT 10SM FEW010 BKN022 BKN150 11/07 A3046 RMK AO2 SLP323 T01060072=
200601232356 METAR KSEA 232356Z 30005KT 10SM BKN022 BKN150 12/07 A3046 RMK AO2 SLP322 60000 T01170072 10128 20094 56010=
200601232256 METAR KSEA 232256Z 00000KT 10SM SCT020 BKN025 BKN150 12/06 A3046 RMK AO2 SLP322 T01220061=
200601232156 METAR KSEA 232156Z 23003KT 10SM FEW015 BKN021 12/07 A3047 RMK AO2 SLP325 T01170067=
200601232056 METAR KSEA 232056Z 19003KT 10SM FEW012 BKN019 11/07 A3049 RMK AO2 RAE28 SLP333 P0000 60000 T01110072 58015=
200601231956 METAR KSEA 231956Z 18007KT 10SM -RA FEW008 SCT015 OVC020 10/07 A3051 RMK AO2 RAB54 SLP340 PCPN VRY LGT BINOVC W P0000 T01000072=
200601231856 METAR KSEA 231856Z 19008KT 10SM FEW006 SCT012 OVC018 09/07 A3054 RMK AO2 SLP348 T00940072=
200601231756 METAR KSEA 231756Z 18003KT 10SM FEW004 SCT015 OVC020 09/07 A3054 RMK AO2 SLP348 BINOVC OHD-SW 60001 T00940072 10094 20083 51009=
200601231656 METAR KSEA 231656Z 00000KT 5SM BR SCT008 SCT013 OVC020 08/07 A3053 RMK AO2 DZE55 SLP345 VIS W-NW 2 1/2 P0000 T00830072=
200601231620 SPECI KSEA 231620Z 00000KT 2SM -DZ BR SCT003 BKN006 OVC011 08/07 A3052 RMK AO2 P0000=
200601231620 SPECI KSEA 231620Z 00000KT 2SM -DZ BR SCT003 BKN006 OVC011 08/07 A3052 RMK AO2 P0000=
200601231556 METAR KSEA 231556Z 21005KT 3SM -DZ BR SCT004 BKN008 OVC011 08/07 A3052 RMK AO2 RAB00E03DZB54 SLP343 P0001 T00830067=
200601231456 METAR KSEA 231456Z 19010KT 4SM BR BKN008 OVC011 08/07 A3051 RMK AO2 SLP339 T00830067 55003=
200601231413 SPECI KSEA 231413Z 19008KT 4SM BR BKN008 OVC014 08/07 A3051 RMK AO2=
200601231413 SPECI KSEA 231413Z 19008KT 4SM BR BKN008 OVC014 08/07 A3051 RMK AO2=
200601231356 METAR KSEA 231356Z 18010KT 4SM BR OVC012 08/06 A3051 RMK AO2 SLP338 T00830061=
200601231334 SPECI KSEA 231334Z 18012KT 9SM OVC014 08/06 A3051 RMK AO2=
200601231334 SPECI KSEA 231334Z 18012KT 9SM OVC014 08/06 A3051 RMK AO2=
200601231256 METAR KSEA 231256Z 20014KT 10SM OVC016 09/06 A3051 RMK AO2 SLP339 T00890056=
200601231156 METAR KSEA 231156Z 19008KT 10SM OVC018 09/04 A3052 RMK AO2 SLP341 60000 T00890044 10094 20083 52008=
200601231056 METAR KSEA 231056Z 19014KT 10SM OVC018 09/04 A3051 RMK AO2 SLP339 T00940044=
200601230956 METAR KSEA 230956Z 19011KT 10SM OVC018 09/04 A3050 RMK AO2 SLP336 T00890039=
200601230856 METAR KSEA 230856Z 19010KT 10SM BKN018 OVC024 09/04 A3049 RMK AO2 SLP334 60000 T00890039 53002=
200601230756 METAR KSEA 230756Z 20011KT 10SM BKN016 OVC020 08/04 A3049 RMK AO2 SLP333 T00830039 401060067=
200601230656 METAR KSEA 230656Z 20015KT 10SM BKN016 OVC020 08/04 A3048 RMK AO2 RAE00 SLP330 P0000 T00830044=
200601230556 METAR KSEA 230556Z 21012KT 10SM -RA BKN022 OVC030 09/04 A3049 RMK AO2 RAB56 SLP332 P0000 60000 T00890039 10100 20083 53005=
200601230456 METAR KSEA 230456Z 20012KT 10SM BKN020 OVC028 09/04 A3047 RMK AO2 SLP327 T00890039=
200601230403 SPECI KSEA 230403Z 19015KT 10SM SCT020 BKN025 OVC030 09/04 A3046 RMK AO2=
200601230403 SPECI KSEA 230403Z 19015KT 10SM SCT020 BKN025 OVC030 09/04 A3046 RMK AO2=
200601230356 METAR KSEA 230356Z 20013KT 10SM FEW020 SCT025 OVC030 09/03 A3046 RMK AO2 SLP323 T00890033=
200601230256 METAR KSEA 230256Z 18013KT 10SM SCT029 BKN036 BKN100 09/03 A3047 RMK AO2 SLP328 T00890033 58003=
200601230156 METAR KSEA 230156Z 19010KT 10SM FEW022 SCT035 BKN100 BKN200 09/04 A3048 RMK AO2 SLP332 T00890039=
200601230056 METAR KSEA 230056Z 19012KT 10SM SCT025 BKN035 BKN100 BKN200 09/04 A3047 RMK AO2 SLP328 T00890039=
200601222356 METAR KSEA 222356Z 20013KT 10SM BKN025 BKN250 10/04 A3048 RMK AO2 SLP330 T01000044 10106 20078 56014=
200601222256 METAR KSEA 222256Z 20011KT 10SM BKN023 BKN200 10/04 A3049 RMK AO2 SLP332 T01000044=
200601222156 METAR KSEA 222156Z 19010KT 10SM BKN022 BKN050 10/04 A3051 RMK AO2 SLP338 T01000044=
200601222056 METAR KSEA 222056Z 20011KT 10SM BKN022 OVC050 10/04 A3052 RMK AO2 SLP344 T01000044 56005=
200601221956 METAR KSEA 221956Z 20012KT 10SM BKN022 OVC040 09/04 A3053 RMK AO2 SLP345 T00940039=
200601221856 METAR KSEA 221856Z 18013KT 10SM FEW012 BKN024 OVC040 08/03 A3053 RMK AO2 SLP347 T00830033=
200601221756 METAR KSEA 221756Z 19009KT 10SM FEW010 BKN026 OVC100 08/04 A3054 RMK AO2 SLP350 T00780039 10078 20067 53014=
200601221656 METAR KSEA 221656Z 20005KT 10SM FEW008 OVC024 07/04 A3053 RMK AO2 SLP346 T00720039=
200601221556 METAR KSEA 221556Z 19003KT 10SM FEW008 OVC028 07/04 A3051 RMK AO2 SLP339 T00720039=
200601221456 METAR KSEA 221456Z 16008KT 10SM FEW008 OVC020 07/04 A3050 RMK AO2 SLP336 T00670039 50003=
200601221356 METAR KSEA 221356Z 14005KT 10SM FEW008 BKN022 OVC040 07/04 A3050 RMK AO2 SLP338 T00670039=
200601221256 METAR KSEA 221256Z 23003KT 10SM BKN008 OVC028 07/04 A3050 RMK AO2 SLP338 T00670039=
200601221230 SPECI KSEA 221230Z 19008KT 10SM BKN008 OVC028 07/04 A3049 RMK AO2 CIG 006V011=
200601221230 SPECI KSEA 221230Z 19008KT 10SM BKN008 OVC028 07/04 A3049 RMK AO2 CIG 006V011=
200601221156 METAR KSEA 221156Z 19008KT 10SM SCT008 BKN019 OVC033 07/04 A3049 RMK AO2 SLP333 70008 T00670044 10078 20067 50008=
200601221112 SPECI KSEA 221112Z 18007KT 10SM FEW008 BKN031 OVC120 07/04 A3049 RMK AO2=
200601221112 SPECI KSEA 221112Z 18007KT 10SM FEW008 BKN031 OVC120 07/04 A3049 RMK AO2=
200601221056 METAR KSEA 221056Z 20004KT 10SM BKN008 OVC019 07/04 A3049 RMK AO2 SLP335 T00670044=
200601220956 METAR KSEA 220956Z 20006KT 10SM BKN008 BKN019 OVC024 07/05 A3047 RMK AO2 SLP328 T00720050=
200601220913 SPECI KSEA 220913Z 20007KT 10SM BKN008 OVC013 07/05 A3045 RMK AO2=
200601220913 SPECI KSEA 220913Z 20007KT 10SM BKN008 OVC013 07/05 A3045 RMK AO2=
200601220856 METAR KSEA 220856Z 22007KT 10SM BKN012 OVC030 08/05 A3046 RMK AO2 SLP324 T00780050 51015=
200601220756 METAR KSEA 220756Z 19003KT 10SM FEW008 BKN014 OVC030 07/05 A3044 RMK AO2 SLP318 T00720050 400940056=
200601220656 METAR KSEA 220656Z 19004KT 10SM SCT008 BKN014 OVC030 08/06 A3044 RMK AO2 SLP317 T00780056=
200601220608 SPECI KSEA 220608Z 18004KT 10SM SCT010 BKN014 OVC033 08/06 A3042 RMK AO2=
200601220608 SPECI KSEA 220608Z 18004KT 10SM SCT010 BKN014 OVC033 08/06 A3042 RMK AO2=
200601220556 METAR KSEA 220556Z 18004KT 10SM SCT010 BKN033 BKN050 07/06 A3042 RMK AO2 SLP310 T00720056 10083 20072 53016=
200601220456 METAR KSEA 220456Z 00000KT 10SM FEW025 BKN030 BKN038 OVC200 08/05 A3040 RMK AO2 SLP304 T00780050=
200601220356 METAR KSEA 220356Z 14005KT 10SM FEW025 SCT030 BKN037 07/05 A3039 RMK AO2 SLP298 T00720050=
200601220256 METAR KSEA 220256Z 17003KT 10SM SCT028 BKN037 08/05 A3037 RMK AO2 SLP294 T00780050 51023=
200601220156 METAR KSEA 220156Z 00000KT 10SM FEW017 SCT029 BKN037 BKN200 08/05 A3035 RMK AO2 SLP286 T00780050=
200601220103 SPECI KSEA 220103Z 00000KT 10SM FEW017 SCT029 BKN037 BKN200 08/05 A3034 RMK AO2=
200601220103 SPECI KSEA 220103Z 00000KT 10SM FEW017 SCT029 BKN037 BKN200 08/05 A3034 RMK AO2=
200601220056 METAR KSEA 220056Z 00000KT 10SM FEW017 BKN029 BKN037 BKN200 08/05 A3034 RMK AO2 SLP281 T00780050=
200601212356 METAR KSEA 212356Z 25005KT 10SM SCT011 BKN017 BKN028 BKN200 08/05 A3031 RMK AO2 SLP271 60005 T00830050 10094 20067 53008=
200601212256 METAR KSEA 212256Z 19007KT 10SM FEW012 BKN022 BKN200 08/05 A3028 RMK AO2 SLP263 T00830050=
200601212203 SPECI KSEA 212203Z 21006KT 10SM FEW007 SCT013 OVC021 08/05 A3028 RMK AO2=
200601212203 SPECI KSEA 212203Z 21006KT 10SM FEW007 SCT013 OVC021 08/05 A3028 RMK AO2=
200601212156 METAR KSEA 212156Z 20008KT 10SM BKN011 OVC025 08/06 A3028 RMK AO2 SLP262 T00830056=
200601212142 SPECI KSEA 212142Z 20005KT 10SM FEW007 BKN013 OVC035 08/06 A3028 RMK AO2=
200601212142 SPECI KSEA 212142Z 20005KT 10SM FEW007 BKN013 OVC035 08/06 A3028 RMK AO2=
200601212115 SPECI KSEA 212115Z 19007KT 10SM FEW007 BKN015 OVC040 08/06 A3028 RMK AO2=
200601212115 SPECI KSEA 212115Z 19007KT 10SM FEW007 BKN015 OVC040 08/06 A3028 RMK AO2=
200601212056 METAR KSEA 212056Z 17007KT 10SM FEW006 SCT018 OVC040 08/06 A3028 RMK AO2 SLP262 60005 T00830056 51007=
200601211956 METAR KSEA 211956Z 16008KT 10SM FEW006 BKN018 OVC027 07/06 A3028 RMK AO2 RAE55 SLP261 P0004 T00720056=
200601211856 METAR KSEA 211856Z 17006KT 8SM -RA FEW006 BKN018 OVC026 07/05 A3027 RMK AO2 RAE33B52 SLP260 P0001 T00720050=
200601211828 SPECI KSEA 211828Z 17005KT 10SM -RA FEW006 SCT018 OVC026 07/04 A3027 RMK AO2 P0001=
200601211828 SPECI KSEA 211828Z 17005KT 10SM -RA FEW006 SCT018 OVC026 07/04 A3027 RMK AO2 P0001=
200601211756 METAR KSEA 211756Z 19007KT 7SM -RA FEW006 SCT022 OVC032 07/04 A3026 RMK AO2 SLP255 P0003 60003 T00670044 10067 20061 53021=
200601211737 SPECI KSEA 211737Z 20008KT 7SM -RA FEW006 SCT022 OVC030 07/04 A3025 RMK AO2 P0003=
200601211737 SPECI KSEA 211737Z 20008KT 7SM -RA FEW006 SCT022 OVC030 07/04 A3025 RMK AO2 P0003=
200601211656 METAR KSEA 211656Z 21007KT 7SM -RA FEW006 BKN022 OVC030 07/04 A3024 RMK AO2 RAB1557 SLP249 P0000 T00670044=
200601211556 METAR KSEA 211556Z 20006KT 10SM FEW006 BKN021 OVC060 07/04 A3022 RMK AO2 SLP241 T00670039=
200601211522 SPECI KSEA 211522Z 20004KT 10SM FEW006 BKN025 OVC065 07/04 A3021 RMK AO2=
200601211522 SPECI KSEA 211522Z 20004KT 10SM FEW006 BKN025 OVC065 07/04 A3021 RMK AO2=
200601211456 METAR KSEA 211456Z 18008KT 10SM FEW005 SCT029 OVC070 06/04 A3020 RMK AO2 SLP234 T00610039 55002=
200601211356 METAR KSEA 211356Z 20007KT 10SM FEW004 SCT013 OVC055 06/04 A3019 RMK AO2 SLP233 T00610044=
200601211333 SPECI KSEA 211333Z 19007KT 10SM SCT009 BKN014 OVC032 06/04 A3019 RMK AO2=
200601211333 SPECI KSEA 211333Z 19007KT 10SM SCT009 BKN014 OVC032 06/04 A3019 RMK AO2=
200601211256 METAR KSEA 211256Z 20007KT 10SM SCT007 OVC043 06/04 A3020 RMK AO2 SLP235 T00610044=
200601211156 METAR KSEA 211156Z 20008KT 10SM BKN007 BKN038 OVC050 06/04 A3020 RMK AO2 CIG 005V011 SLP237 60004 70006 T00610044 10067 20039 51011=
200601211056 METAR KSEA 211056Z 20005KT 10SM OVC005 07/05 A3020 RMK AO2 CIG 004V011 SLP235 T00670050=
200601210956 METAR KSEA 210956Z 22007KT 2SM BKN007 BKN010 OVC027 06/05 A3019 RMK AO2 SFC VIS 10 RAB11E42 CIG 005V008 SLP230 P0001 T00610050=
200601210940 SPECI KSEA 210940Z 22006KT 2SM -RA SCT004 BKN010 OVC027 07/05 A3018 RMK AO2 SFC VIS 10 RAB11 CIG 007V013 P0001=
200601210940 SPECI KSEA 210940Z 22006KT 2SM -RA SCT004 BKN010 OVC027 07/05 A3018 RMK AO2 SFC VIS 10 RAB11 CIG 007V013 P0001=
200601210914 SPECI KSEA 210914Z 21006KT 2SM -RA BR BKN004 OVC011 07/05 A3018 RMK AO2 SFC VIS 5 RAB11 P0000=
200601210914 SPECI KSEA 210914Z 21006KT 2SM -RA BR BKN004 OVC011 07/05 A3018 RMK AO2 SFC VIS 5 RAB11 P0000=
200601210856 METAR KSEA 210856Z 16005KT 2SM BKN006 BKN016 OVC030 06/04 A3017 RMK AO2 SFC VIS 8 RAB01E47 CIG 005V010 SLP225 P0003 60003 T00610044 51012=
200601210832 SPECI KSEA 210832Z 14004KT 2SM -RA BR FEW001 SCT026 OVC035 06/04 A3017 RMK AO2 SFC VIS 5 RAB01 P0003=
200601210832 SPECI KSEA 210832Z 14004KT 2SM -RA BR FEW001 SCT026 OVC035 06/04 A3017 RMK AO2 SFC VIS 5 RAB01 P0003=
200601210756 METAR KSEA 210756Z 19003KT 2SM BR BKN001 BKN040 OVC048 06/04 A3016 RMK AO2 SFC VIS 3 SLP223 T00560044 400780039=
200601210729 SPECI KSEA 210729Z 14006KT 2SM BR SCT001 BKN010 OVC046 06/04 A3015 RMK AO2=
200601210729 SPECI KSEA 210729Z 14006KT 2SM BR SCT001 BKN010 OVC046 06/04 A3015 RMK AO2=
200601210708 SPECI KSEA 210708Z 13007KT 2SM BR BKN010 OVC048 06/04 A3015 RMK AO2 SFC VIS 5=
200601210708 SPECI KSEA 210708Z 13007KT 2SM BR BKN010 OVC048 06/04 A3015 RMK AO2 SFC VIS 5=
200601210656 METAR KSEA 210656Z 15007KT 6SM BR OVC048 06/04 A3015 RMK AO2 SLP217 T00560039=
200601210556 METAR KSEA 210556Z 14003KT 6SM BR BKN048 04/03 A3014 RMK AO2 SLP213 T00390028 10072 20039 51023=
200601210456 METAR KSEA 210456Z 12006KT 8SM FEW002 05/04 A3011 RMK AO2 SLP206 FG BNK E-S T00500039=
200601210356 METAR KSEA 210356Z 04004KT 10SM FEW030 05/03 A3009 RMK AO2 SLP199 T00500028=
200601210256 METAR KSEA 210256Z 00000KT 10SM FEW030 05/03 A3007 RMK AO2 SLP190 T00500033 51019=
200601210156 METAR KSEA 210156Z 00000KT 10SM FEW020 SCT040 07/05 A3005 RMK AO2 SLP184 T00670050=
200601210148 SPECI KSEA 210148Z 00000KT 10SM FEW020 BKN040 07/05 A3005 RMK AO2=
200601210148 SPECI KSEA 210148Z 00000KT 10SM FEW020 BKN040 07/05 A3005 RMK AO2=
200601210114 SPECI KSEA 210114Z 00000KT 10SM BKN018 BKN039 07/05 A3004=
200601210114 SPECI KSEA 210114Z 00000KT 10SM BKN018 BKN039 07/05 A3004 RMK AO2=
200601210056 METAR KSEA 210056Z 00000KT 10SM FEW022 BKN039 BKN120 07/05 A3003 RMK AO2 SLP178 T00720050=
200601210023 SPECI KSEA 210023Z 00000KT 10SM SCT026 BKN037 07/05 A3002 RMK AO2=
200601210023 SPECI KSEA 210023Z 00000KT 10SM SCT026 BKN037 07/05 A3002 RMK AO2=
200601202356 METAR KSEA 202356Z 00000KT 9SM FEW009 BKN026 BKN035 07/05 A3001 RMK AO2 RAE10 SLP171 P0001 60002 T00720050 10078 20067 53019=
200601202256 METAR KSEA 202256Z 25003KT 10SM -RA SCT009 BKN018 OVC025 07/05 A2999 RMK AO2 RAB52 SLP163 PCPN VRY LGT P0000 T00720050=
200601202244 SPECI KSEA 202244Z VRB04KT 10SM SCT009 BKN017 OVC025 08/05 A2998 RMK AO2=
200601202244 SPECI KSEA 202244Z VRB04KT 10SM SCT009 BKN017 OVC025 08/05 A2998 RMK AO2=
200601202156 METAR KSEA 202156Z 22009KT 10SM BKN009 BKN017 OVC025 08/05 A2997 RMK AO2 RAE26 SLP155 P0000 T00780050=
200601202146 SPECI KSEA 202146Z 23008KT 10SM BKN009 BKN017 OVC025 08/05 A2996 RMK AO2 RAE26 P0000=
200601202146 SPECI KSEA 202146Z 23008KT 10SM BKN009 BKN017 OVC025 08/05 A2996 RMK AO2 RAE26 P0000=
200601202056 METAR KSEA 202056Z 23009KT 10SM -RA SCT009 BKN021 OVC032 07/05 A2995 RMK AO2 SLP151 P0001 60001 T00720050 51011=
200601202041 SPECI KSEA 202041Z 23008KT 10SM -RA FEW009 SCT013 OVC021 07/05 A2995=
200601202041 SPECI KSEA 202041Z 23008KT 10SM -RA FEW009 SCT013 OVC021 07/05 A2995 RMK AO2 P0001=
200601202017 SPECI KSEA 202017Z 23009KT 10SM -RA FEW009 BKN013 OVC019 07/04 A2995 RMK AO2 P0000=
200601202017 SPECI KSEA 202017Z 23009KT 10SM -RA FEW009 BKN013 OVC019 07/04 A2995 RMK AO2 P0000=
200601201956 METAR KSEA 201956Z 23009KT 10SM -RA FEW009 SCT013 OVC017 07/04 A2994 RMK AO2 RAB31 SLP148 P0000 T00720044=
200601201947 SPECI KSEA 201947Z 23007KT 10SM FEW009 SCT013 OVC017 07/04 A2994 RMK AO2 RAB31E44 P0000=
200601201947 SPECI KSEA 201947Z 23007KT 10SM FEW009 SCT013 OVC017 07/04 A2994 RMK AO2 RAB31E44 P0000=
200601201923 SPECI KSEA 201923Z 23008KT 10SM SCT009 BKN011 OVC018 07/04 A2994=
200601201923 SPECI KSEA 201923Z 23008KT 10SM SCT009 BKN011 OVC018 07/04 A2994 RMK AO2=
200601201856 METAR KSEA 201856Z 22009KT 10SM BKN009 BKN013 OVC040 07/04 A2994 RMK AO2 RAB28E38 SLP146 P0000 T00720039=
200601201756 METAR KSEA 201756Z 22008KT 10SM BKN009 OVC013 07/04 A2992 RMK AO2 SLP140 60000 T00670039 10067 20056 51020=
200601201711 SPECI KSEA 201711Z 21012KT 10SM SCT009 BKN013 OVC040 07/03 A2991=
200601201711 SPECI KSEA 201711Z 21012KT 10SM SCT009 BKN013 OVC040 07/03 A2991 RMK AO2=
200601201656 METAR KSEA 201656Z 21010KT 10SM BKN011 BKN015 OVC040 07/04 A2990 RMK AO2 SLP135 T00670039=
200601201556 METAR KSEA 201556Z 21010KT 10SM BKN013 BKN017 OVC040 06/03 A2989 RMK AO2 SLP128 BINOVC S T00610033=
200601201527 SPECI KSEA 201527Z 21014KT 10SM BKN011 BKN019 OVC050 06/03 A2988 RMK AO2=
200601201527 SPECI KSEA 201527Z 21014KT 10SM BKN011 BKN019 OVC050 06/03 A2988 RMK AO2=
200601201456 METAR KSEA 201456Z 20015KT 10SM FEW007 SCT012 BKN021 06/03 A2986 RMK AO2 SLP119 60000 T00560028 50012=
200601201416 SPECI KSEA 201416Z 19015KT 10SM FEW007 SCT012 OVC021 06/03 A2986 RMK AO2=
200601201416 SPECI KSEA 201416Z 19015KT 10SM FEW007 SCT012 OVC021 06/03 A2986 RMK AO2=
200601201409 SPECI KSEA 201409Z 19011G21KT 10SM FEW007 BKN012 OVC021 06/03 A2986 RMK AO2=
200601201409 SPECI KSEA 201409Z 19011G21KT 10SM FEW007 BKN012 OVC021 06/03 A2986 RMK AO2=
200601201356 METAR KSEA 201356Z 19013KT 10SM BKN012 OVC023 06/03 A2986 RMK AO2 SLP120 T00560033=
200601201256 METAR KSEA 201256Z 20016KT 10SM BKN011 OVC023 06/03 A2986 RMK AO2 PK WND 19029/1158 RAE11 SLP118 P0000 T00610033=
200601201156 METAR KSEA 201156Z 19024G30KT 8SM -RA FEW007 BKN012 OVC028 06/04 A2983 RMK AO2 PK WND 20030/1148 SLP108 P0007 60032 70037 T00610039 10072 20061 58017=
200601201148 SPECI KSEA 201148Z 19022G30KT 8SM -RA FEW007 BKN012 OVC028 06/04 A2984 RMK AO2 PK WND 20030/1148 PRESFR P0007=
200601201148 SPECI KSEA 201148Z 19022G30KT 8SM -RA FEW007 BKN012 OVC028 06/04 A2984 RMK AO2 PK WND 20030/1148 PRESFR P0007=
200601201056 METAR KSEA 201056Z 22010KT 5SM RA BR FEW011 OVC018 07/04 A2988 RMK AO2 SLP125 P0009 T00670044=
200601200956 METAR KSEA 200956Z 20010G17KT 8SM -RA BKN020 OVC028 07/04 A2986 RMK AO2 SLP119 P0002 T00670044=
200601200856 METAR KSEA 200856Z 19012KT 8SM -RA BKN021 OVC030 06/04 A2987 RMK AO2 SLP124 P0004 60014 T00610039 56036=
200601200756 METAR KSEA 200756Z 18011KT 7SM -RA OVC021 06/04 A2990 RMK AO2 PRESFR SLP134 P0004 T00610039 400830061=
200601200656 METAR KSEA 200656Z 18015KT 7SM -RA OVC023 07/04 A2994 RMK AO2 SLP148 P0006 T00670039=
200601200556 METAR KSEA 200556Z 18012G20KT 9SM -RA OVC023 07/04 A2998 RMK AO2 SLP161 P0004 60004 T00670039 10078 20067 58024=
200601200526 SPECI KSEA 200526Z 19012KT 8SM RA OVC025 07/04 A3001=
200601200526 SPECI KSEA 200526Z 19012KT 8SM RA OVC025 07/04 A3001 RMK AO2 P0001=
200601200456 METAR KSEA 200456Z 19014KT 10SM -RA BKN031 OVC038 07/04 A3002 RMK AO2 RAB14 SLP173 P0000 T00720039=
200601200356 METAR KSEA 200356Z 17012KT 10SM FEW029 BKN070 OVC090 08/03 A3003 RMK AO2 SLP178 T00780028=
200601200256 METAR KSEA 200256Z 19011KT 10SM FEW031 BKN090 OVC110 08/03 A3005 RMK AO2 RAE10 SLP186 P0000 60000 T00780033 56017=
200601200217 SPECI KSEA 200217Z 19012KT 10SM FEW021 SCT027 OVC090 08/04 A3006 RMK AO2 RAE10 P0000=
200601200217 SPECI KSEA 200217Z 19012KT 10SM FEW021 SCT027 OVC090 08/04 A3006 RMK AO2 RAE10 P0000=
200601200156 METAR KSEA 200156Z 20011KT 9SM -RA FEW021 BKN026 OVC034 08/04 A3007 RMK AO2 RAB53 SLP191 P0000 T00780039=
200601200121 SPECI KSEA 200121Z 20010KT 10SM SCT020 BKN033 OVC100 08/04 A3008=
200601200121 SPECI KSEA 200121Z 20010KT 10SM SCT020 BKN033 OVC100 08/04 A3008 RMK AO2=
200601200056 METAR KSEA 200056Z 19008KT 10SM SCT014 BKN022 OVC100 08/04 A3009 RMK AO2 SLP196 T00780044=
200601192356 METAR KSEA 192356Z 22009KT 10SM FEW003 BKN028 OVC080 08/04 A3011 RMK AO2 SLP203 T00780039 10083 20078 56002 $=
200601192256 METAR KSEA 192256Z 21008KT 10SM FEW003 SCT020 SCT050 OVC130 08/04 A3011 RMK AO2 SLP204 T00830044 $=
200601192246 SPECI KSEA 192246Z 21010KT 10SM FEW003 SCT020 SCT050 OVC130 08/04 A3011 RMK AO2 $=
200601192246 SPECI KSEA 192246Z 21010KT 10SM FEW003 SCT020 SCT050 OVC130 08/04 A3011 RMK AO2 $=
200601192243 SPECI KSEA 192243Z 20009KT 10SM FEW010 SCT020 SCT050 OVC130 08/04 A3011=
200601192243 SPECI KSEA 192243Z 20009KT 10SM FEW010 SCT020 SCT050 OVC130 08/04 A3011 RMK AO2 $=
200601192239 SPECI KSEA 192239Z 20009KT 10SM BKN001 BKN005 OVC010 08/04 A3011 RMK AO2 $=
200601192239 SPECI KSEA 192239Z 20009KT 10SM BKN001 BKN005 OVC010 08/04 A3011 RMK AO2 $=
200601192156 METAR KSEA 192156Z 21014G18KT 10SM FEW020 SCT050 BKN130 OVC200 08/04 A3010 RMK AO2 SLP202 T00830044=
200601192056 METAR KSEA 192056Z 22010KT 10SM FEW012 SCT025 BKN055 OVC130 08/04 A3011 RMK AO2 SLP206 BINOVC W T00830044 58007=
200601191956 METAR KSEA 191956Z 21011KT 10SM SCT012 SCT020 OVC050 08/05 A3013 RMK AO2 SLP211 T00830050=
200601191934 SPECI KSEA 191934Z 21012KT 10SM SCT012 SCT020 OVC045 08/05 A3013 RMK AO2=
200601191934 SPECI KSEA 191934Z 21012KT 10SM SCT012 SCT020 OVC045 08/05 A3013 RMK AO2=
200601191856 METAR KSEA 191856Z 22007KT 10SM SCT009 BKN014 OVC018 08/05 A3014 RMK AO2 SLP214 T00780050=
200601191756 METAR KSEA 191756Z 22010KT 10SM SCT008 BKN010 OVC016 08/05 A3013 RMK AO2 SLP213 60001 T00780050 10078 20061 51007=
200601191656 METAR KSEA 191656Z 22010KT 10SM SCT006 BKN008 OVC012 07/05 A3013 RMK AO2 SLP212 T00720050=
200601191556 METAR KSEA 191556Z 21008KT 10SM SCT006 BKN009 OVC014 07/04 A3012 RMK AO2 SLP207 P0001 T00670044=
200601191541 SPECI KSEA 191541Z 20007KT 10SM BKN009 BKN014 OVC020 07/04 A3012 RMK AO2 P0001=
200601191541 SPECI KSEA 191541Z 20007KT 10SM BKN009 BKN014 OVC020 07/04 A3012 RMK AO2 P0001=
200601191456 METAR KSEA 191456Z 19009KT 10SM FEW006 BKN020 OVC075 07/04 A3011 RMK AO2 SLP206 60000 T00670044 57004=
200601191402 SPECI KSEA 191402Z 17008KT 7SM SCT006 BKN015 OVC033 07/05 A3011 RMK AO2=
200601191402 SPECI KSEA 191402Z 17008KT 7SM SCT006 BKN015 OVC033 07/05 A3011 RMK AO2=
200601191356 METAR KSEA 191356Z 16007KT 7SM SCT006 BKN010 OVC027 07/05 A3011 RMK AO2 RAE17 SLP205 P0000 T00670050=
200601191331 SPECI KSEA 191331Z 17006KT 6SM BR SCT006 BKN010 OVC021 07/05 A3012 RMK AO2 RAE17 P0000=
200601191331 SPECI KSEA 191331Z 17006KT 6SM BR SCT006 BKN010 OVC021 07/05 A3012 RMK AO2 RAE17 P0000=
200601191256 METAR KSEA 191256Z 16004KT 6SM -RA BR SCT005 BKN017 OVC060 06/05 A3013 RMK AO2 SLP210 P0000 T00610050=
200601191156 METAR KSEA 191156Z 17004KT 8SM -RA SCT006 BKN020 OVC045 06/05 A3013 RMK AO2 RAB54 SLP210 P0000 60000 70007 T00610050 10067 20061 51011=
200601191147 SPECI KSEA 191147Z 17004KT 9SM SCT006 BKN026 OVC049 06/05 A3013 RMK AO2=
200601191147 SPECI KSEA 191147Z 17004KT 9SM SCT006 BKN026 OVC049 06/05 A3013 RMK AO2=
200601191129 SPECI KSEA 191129Z 15003KT 5SM BR SCT006 BKN030 OVC049 06/05 A3012=
200601191129 SPECI KSEA 191129Z 15003KT 5SM BR SCT006 BKN030 OVC049 06/05 A3012 RMK AO2=
200601191056 METAR KSEA 191056Z 15005KT 8SM BKN030 OVC049 07/05 A3012 RMK AO2 SLP206 T00670050=
200601190956 METAR KSEA 190956Z 18003KT 7SM SCT005 OVC049 07/05 A3011 RMK AO2 SLP203 T00670050=
200601190856 METAR KSEA 190856Z 17005KT 9SM SCT007 SCT030 OVC049 06/04 A3009 RMK AO2 SLP199 T00610044 50009=
200601190803 SPECI KSEA 190803Z AUTO 00000KT 10SM FEW009 SCT029 OVC049 07/05 A3010 RMK AO2=
200601190803 SPECI KSEA 190803Z AUTO 00000KT 10SM FEW009 SCT029 OVC049 07/05 A3010 RMK AO2=
200601190756 METAR KSEA 190756Z 00000KT 10SM FEW008 BKN029 OVC049 07/05 A3010 RMK AO2 SLP200 T00670050 400780056=
200601190656 METAR KSEA 190656Z 00000KT 10SM SCT008 BKN026 OVC046 07/05 A3009 RMK AO2 SLP197 T00670050=
200601190644 SPECI KSEA 190644Z 00000KT 10SM SCT008 BKN026 OVC046 07/05 A3009 RMK AO2=
200601190644 SPECI KSEA 190644Z 00000KT 10SM SCT008 BKN026 OVC046 07/05 A3009 RMK AO2=
200601190556 METAR KSEA 190556Z 16005KT 10SM BKN044 06/04 A3007 RMK AO2 RAE08 SLP189 P0000 60000 T00610044 10078 20061 51019=
200601190456 METAR KSEA 190456Z 00000KT 10SM -RA FEW025 OVC040 07/05 A3005 RMK AO2 RAB04 SLP183 P0000 T00670050=
200601190417 SPECI KSEA 190417Z 00000KT 7SM -RA FEW022 OVC031 07/05 A3004 RMK AO2 RAB04 P0000=
200601190417 SPECI KSEA 190417Z 00000KT 7SM -RA FEW022 OVC031 07/05 A3004 RMK AO2 RAB04 P0000=
200601190356 METAR KSEA 190356Z 00000KT 10SM FEW010 BKN021 OVC035 07/05 A3003 RMK AO2 SLP178 T00720050=
200601190256 METAR KSEA 190256Z 00000KT 10SM FEW010 OVC019 07/05 A3001 RMK AO2 SLP170 T00720050 53017=
200601190156 METAR KSEA 190156Z 00000KT 10SM FEW010 BKN019 OVC032 07/04 A2999 RMK AO2 SLP163 T00720044=
200601190056 METAR KSEA 190056Z 00000KT 10SM BKN019 BKN032 BKN065 07/04 A2997 RMK AO2 SLP156 T00720044=
200601190011 SPECI KSEA 190011Z 23003KT 10SM FEW016 SCT029 OVC041 07/04 A2996 RMK AO2=
200601190011 SPECI KSEA 190011Z 23003KT 10SM FEW016 SCT029 OVC041 07/04 A2996 RMK AO2=
200601182356 METAR KSEA 182356Z 25003KT 10SM FEW012 BKN029 OVC041 08/04 A2996 RMK AO2 RAE04 SLP153 P0000 60007 T00780044 10078 20067 53023=
200601182313 SPECI KSEA 182313Z 22004KT 10SM FEW019 BKN023 BKN033 07/05 A2994 RMK AO2 RAE04 P0000=
200601182313 SPECI KSEA 182313Z 22004KT 10SM FEW019 BKN023 BKN033 07/05 A2994 RMK AO2 RAE04 P0000=
200601182256 METAR KSEA 182256Z 24004KT 10SM -RA FEW005 SCT019 OVC033 07/05 A2993 RMK AO2 SLP142 PCPN VRY LGT P0000 T00720050=
200601182156 METAR KSEA 182156Z 24006KT 6SM -RA BR FEW005 SCT012 OVC016 07/04 A2991 RMK AO2 SLP135 P0003 T00670044=
200601182143 SPECI KSEA 182143Z 25006KT 5SM -RA BR FEW002 SCT005 OVC012 07/05 A2990=
200601182143 SPECI KSEA 182143Z 25006KT 5SM -RA BR FEW002 SCT005 OVC012 07/05 A2990 RMK AO2 P0003=
200601182129 SPECI KSEA 182129Z 25006KT 6SM -RA BR SCT002 BKN005 OVC012 07/04 A2990 RMK AO2 P0002=
200601182129 SPECI KSEA 182129Z 25006KT 6SM -RA BR SCT002 BKN005 OVC012 07/04 A2990 RMK AO2 P0002=
200601182113 SPECI KSEA 182113Z 29004KT 1 1/2SM -RA BR BKN005 BKN008 OVC012 07/06 A2989 RMK AO2 SFC VIS 6 CIG 002V007 P0001=
200601182113 SPECI KSEA 182113Z 29004KT 1 1/2SM -RA BR BKN005 BKN008 OVC012 07/06 A2989 RMK AO2 SFC VIS 6 CIG 002V007 P0001=
200601182056 METAR KSEA 182056Z 29004KT 8SM -RA SCT003 BKN006 OVC012 07/06 A2989 RMK AO2 SLP129 P0003 60004 T00720061 51012=
200601181956 METAR KSEA 181956Z 00000KT 10SM -RA BKN007 BKN012 OVC025 08/05 A2988 RMK AO2 SLP127 PCPN VRY LGT P0000 T00780050=
200601181856 METAR KSEA 181856Z 00000KT 9SM -RA BKN007 BKN013 OVC016 08/05 A2988 RMK AO2 SLP126 P0001 T00780050=
200601181845 SPECI KSEA 181845Z 00000KT 9SM -RA SCT007 BKN013 OVC016 08/05 A2988 RMK AO2 P0001=
200601181845 SPECI KSEA 181845Z 00000KT 9SM -RA SCT007 BKN013 OVC016 08/05 A2988 RMK AO2 P0001=
200601181814 SPECI KSEA 181814Z 00000KT 10SM -RA FEW009 BKN016 OVC025 08/05 A2986 RMK AO2 P0000=
200601181814 SPECI KSEA 181814Z 00000KT 10SM -RA FEW009 BKN016 OVC025 08/05 A2986 RMK AO2 P0000=
200601181756 METAR KSEA 181756Z 00000KT 10SM -RA FEW010 BKN016 OVC025 08/05 A2985 RMK AO2 RAB51 SLP117 P0000 60000 T00780050 10078 20061 53019=
200601181656 METAR KSEA 181656Z 00000KT 10SM BKN016 OVC028 07/05 A2983 RMK AO2 SLP109 T00720050=
200601181631 SPECI KSEA 181631Z 00000KT 10SM BKN019 BKN028 OVC040 07/04 A2982=
200601181631 SPECI KSEA 181631Z 00000KT 10SM BKN019 BKN028 OVC040 07/04 A2982 RMK AO2=
200601181556 METAR KSEA 181556Z 00000KT 10SM SCT030 BKN039 OVC090 07/04 A2981 RMK AO2 SLP102 T00670044=
200601181546 SPECI KSEA 181546Z 00000KT 10SM FEW025 SCT030 OVC038 07/04 A2981 RMK AO2=
200601181546 SPECI KSEA 181546Z 00000KT 10SM FEW025 SCT030 OVC038 07/04 A2981 RMK AO2=
200601181527 SPECI KSEA 181527Z 00000KT 10SM BKN028 OVC043 07/04 A2980 RMK AO2=
200601181527 SPECI KSEA 181527Z 00000KT 10SM BKN028 OVC043 07/04 A2980 RMK AO2=
200601181456 METAR KSEA 181456Z 00000KT 10SM FEW026 BKN040 BKN049 OVC180 07/04 A2980 RMK AO2 RAB41E51 SLP098 P0000 60000 T00670039 53003=
200601181435 SPECI KSEA 181435Z 00000KT 10SM SCT028 BKN038 BKN045 BKN180 07/04 A2979 RMK AO2=
200601181435 SPECI KSEA 181435Z 00000KT 10SM SCT028 BKN038 BKN045 BKN180 07/04 A2979 RMK AO2=
200601181356 METAR KSEA 181356Z 10006KT 10SM BKN027 BKN035 OVC180 07/04 A2978 RMK AO2 RAB20E45 SLP093 P0000 T00670039=
200601181256 METAR KSEA 181256Z 14006KT 10SM BKN027 BKN035 OVC180 07/03 A2978 RMK AO2 SLP092 T00670033=
200601181156 METAR KSEA 181156Z 15005KT 10SM BKN032 BKN070 OVC150 07/04 A2979 RMK AO2 SLP094 60000 70010 T00670044 10078 20056 58004=
200601181056 METAR KSEA 181056Z 13004KT 10SM SCT030 BKN055 BKN080 BKN130 06/04 A2980 RMK AO2 SLP098 T00610044=
200601180956 METAR KSEA 180956Z 00000KT 10SM FEW025 SCT050 BKN070 BKN130 07/05 A2980 RMK AO2 SLP097 T00670050=
200601180856 METAR KSEA 180856Z 23003KT 10SM FEW008 BKN060 BKN100 07/05 A2980 RMK AO2 RAB15E26 SLP098 P0000 60000 T00720050 50003=
200601180756 METAR KSEA 180756Z 22005KT 10SM SCT023 OVC048 07/04 A2980 RMK AO2 SLP099 T00720044 401170072=
200601180656 METAR KSEA 180656Z 00000KT 10SM SCT042 BKN130 07/04 A2980 RMK AO2 SLP097 T00720044=
200601180556 METAR KSEA 180556Z 19008KT 10SM BKN046 BKN130 07/04 A2979 RMK AO2 SLP094 60008 T00720044 10100 20072 55003=
200601180456 METAR KSEA 180456Z 19009KT 10SM FEW033 SCT049 BKN130 08/05 A2979 RMK AO2 SLP093 T00830050=
200601180356 METAR KSEA 180356Z 20010KT 10SM FEW030 SCT070 SCT130 BKN200 08/06 A2979 RMK AO2 RAE18PLE06 SLP093 P0000 T00830056=
200601180317 SPECI KSEA 180317Z 21006KT 10SM -RA FEW018 SCT031 BKN060 OVC130 08/06 A2979 RMK AO2 PLE06 P0000=
200601180317 SPECI KSEA 180317Z 21006KT 10SM -RA FEW018 SCT031 BKN060 OVC130 08/06 A2979 RMK AO2 PLE06 P0000=
200601180308 SPECI KSEA 180308Z VRB05KT 6SM -RA BR FEW010 BKN020 OVC027 08/06 A2979 RMK AO2 PLE06 P0000=
200601180308 SPECI KSEA 180308Z VRB05KT 6SM -RA BR FEW010 BKN020 OVC027 08/06 A2979 RMK AO2 PLE06 P0000=
200601180256 METAR KSEA 180256Z 24006KT 3SM +PLRA BR FEW010 BKN019 OVC030 08/06 A2980 RMK AO2 RAB22PLB50 SLP098 P0008 60008 T00780056 53001=
200601180156 METAR KSEA 180156Z 20008KT 10SM FEW060 BKN110 BKN200 09/06 A2979 RMK AO2 SLP094 LTG DSNT W T00890061=
200601180056 METAR KSEA 180056Z 17005KT 10SM FEW020 SCT060 BKN120 BKN200 08/06 A2979 RMK AO2 SLP093 T00780056=
200601172356 METAR KSEA 172356Z 22007KT 10SM FEW020 SCT055 BKN100 BKN200 10/07 A2980 RMK AO2 SLP097 60000 T01000067 10117 20094 56014=
200601172256 METAR KSEA 172256Z 19007KT 10SM FEW012 SCT018 SCT048 BKN200 11/07 A2980 RMK AO2 RAB2158E07 SLP097 P0000 T01060072=
200601172213 SPECI KSEA 172213Z 24007KT 10SM FEW016 BKN022 BKN050 10/07 A2980 RMK AO2 RAB2158E07 SH DSNT SE P0000=
200601172213 SPECI KSEA 172213Z 24007KT 10SM FEW016 BKN022 BKN050 10/07 A2980 RMK AO2 RAB2158E07 SH DSNT SE P0000=
200601172156 METAR KSEA 172156Z 22005KT 10SM FEW017 BKN033 BKN050 BKN200 10/06 A2980 RMK AO2 SLP097 VCSH SE MOV NE T01000061=
200601172056 METAR KSEA 172056Z 21006KT 10SM FEW025 SCT050 SCT200 11/06 A2984 RMK AO2 SLP111 T01060061 58028=
200601171956 METAR KSEA 171956Z 21006KT 10SM FEW035 BKN050 BKN150 10/06 A2987 RMK AO2 SLP123 T01000061=
200601171856 METAR KSEA 171856Z 20008KT 10SM FEW034 BKN150 OVC200 10/06 A2990 RMK AO2 SLP132 T01000061=
200601171756 METAR KSEA 171756Z 20009KT 10SM FEW040 BKN150 OVC200 09/06 A2992 RMK AO2 SLP139 60002 T00940061 10094 20072 58009=
200601171656 METAR KSEA 171656Z 19008KT 10SM FEW030 SCT050 BKN150 BKN200 08/06 A2993 RMK AO2 RAE02 SLP142 P0000 T00830056=
200601171556 METAR KSEA 171556Z 19006KT 9SM -RA FEW025 BKN035 OVC045 08/06 A2995 RMK AO2 RAB34 SLP149 P0002 T00830061=
200601171456 METAR KSEA 171456Z 20007KT 10SM FEW026 SCT040 08/06 A2995 RMK AO2 SLP149 60000 T00830056 58006=
200601171356 METAR KSEA 171356Z 18008KT 10SM FEW025 SCT038 SCT050 BKN150 08/06 A2996 RMK AO2 RAE1257 SLP151 T00830056=
200601171256 METAR KSEA 171256Z 00000KT 10SM -RA SCT019 BKN025 OVC060 09/05 A2997 RMK AO2 RAB32 SLP157 P0000 T00890050=
200601171244 SPECI KSEA 171244Z 24004KT 10SM -RA FEW019 BKN027 OVC039 09/05 A2997 RMK AO2 RAB32 P0000=
200601171244 SPECI KSEA 171244Z 24004KT 10SM -RA FEW019 BKN027 OVC039 09/05 A2997 RMK AO2 RAB32 P0000=
200601171156 METAR KSEA 171156Z 18009G16KT 10SM FEW035 BKN055 09/06 A2997 RMK AO2 SLP155 60019 70074 T00940061 10117 20094 51017=
200601171056 METAR KSEA 171056Z 19011KT 10SM FEW020 SCT100 09/07 A2995 RMK AO2 RAE35 SLP151 P0002 T00940072=
200601170956 METAR KSEA 170956Z 22013KT 10SM -RA FEW015 SCT020 SCT120 11/07 A2995 RMK AO2 RAB49 SLP149 P0000 T01060072=
200601170926 SPECI KSEA 170926Z 20012KT 10SM FEW015 SCT020 SCT120 10/08 A2994=
200601170926 SPECI KSEA 170926Z 20012KT 10SM FEW015 SCT020 SCT120 10/08 A2994 RMK AO2=
200601170856 METAR KSEA 170856Z 20013G18KT 10SM FEW011 BKN019 BKN023 BKN180 11/08 A2992 RMK AO2 SLP138 60017 T01060078 51035=
200601170803 SPECI KSEA 170803Z 21017G23KT 10SM BKN020 BKN090 OVC200 11/08 A2989 RMK AO2=
200601170803 SPECI KSEA 170803Z 21017G23KT 10SM BKN020 BKN090 OVC200 11/08 A2989 RMK AO2=
200601170756 METAR KSEA 170756Z 21017G22KT 10SM SCT019 BKN080 BKN100 OVC200 11/08 A2989 RMK AO2 PK WND 23028/0708 RAE37 SLP128 P0001 T01060078 401170050=
200601170656 METAR KSEA 170656Z 23018G24KT 6SM -RA FEW012 OVC042 11/08 A2988 RMK AO2 PK WND 25031/0638 WSHFT 0616 SLP126 P0016 T01110078=
200601170643 SPECI KSEA 170643Z 23016G31KT 4SM RA BR FEW016 OVC040 11/08 A2987=
200601170643 SPECI KSEA 170643Z 23016G31KT 4SM RA BR FEW016 OVC040 11/08 A2987 RMK AO2 PK WND 25031/0638 WSHFT 0616 P0015=
200601170641 SPECI KSEA 170641Z 24016G31KT 1 1/2SM +RA BR FEW016 BKN040 OVC047 11/08 A2987=
200601170641 SPECI KSEA 170641Z 24016G31KT 1 1/2SM +RA BR FEW016 BKN040 OVC047 11/08 A2987 RMK AO2 PK WND 25031/0638 WSHFT 0616 P0015=
200601170636 SPECI KSEA 170636Z 24017G24KT 1 1/2SM +RA FEW005 OVC019 11/08 A2987=
200601170636 SPECI KSEA 170636Z 24017G24KT 1 1/2SM +RA FEW005 OVC019 11/08 A2987 RMK AO2 WSHFT 0616 PRESRR P0014=
200601170630 SPECI KSEA 170630Z 27013G24KT 230V290 2 1/2SM RA BR FEW005 BKN025 OVC042 12/09 A2987 RMK AO2 WSHFT 0616 P0005=
200601170630 SPECI KSEA 170630Z 27013G24KT 230V290 2 1/2SM RA BR FEW005 BKN025 OVC042 12/09 A2987 RMK AO2 WSHFT 0616 P0005=
200601170603 SPECI KSEA 170603Z 18011KT 4SM -RA BR BKN028 OVC041 11/09 A2981 RMK AO2 P0000=
200601170603 SPECI KSEA 170603Z 18011KT 4SM -RA BR BKN028 OVC041 11/09 A2981 RMK AO2 P0000=
200601170556 METAR KSEA 170556Z 18012KT 5SM -RA BR SCT030 OVC041 11/09 A2981 RMK AO2 SLP103 P0010 60040 T01110089 10111 20072 56017=
200601170456 METAR KSEA 170456Z 18014KT 5SM RA BR BKN032 OVC050 11/09 A2983 RMK AO2 SLP108 P0006 T01110089=
200601170356 METAR KSEA 170356Z 15010KT 5SM RA BR FEW002 OVC045 09/07 A2982 RMK AO2 SLP107 P0007 T00890072=
200601170256 METAR KSEA 170256Z 16009KT 5SM RA BR SCT021 OVC035 09/07 A2986 RMK AO2 SLP121 P0007 60017 T00890072 58024=
200601170225 SPECI KSEA 170225Z 16010KT 4SM -RA BR FEW002 SCT021 OVC035 08/07 A2987=
200601170225 SPECI KSEA 170225Z 16010KT 4SM -RA BR FEW002 SCT021 OVC035 08/07 A2987 RMK AO2 PRESFR P0004=
200601170209 SPECI KSEA 170209Z 16008KT 2SM RA BR FEW002 OVC021 08/07 A2989 RMK AO2 TWR VIS 3 P0003=
200601170209 SPECI KSEA 170209Z 16008KT 2SM RA BR FEW002 OVC021 08/07 A2989 RMK AO2 TWR VIS 3 P0003=
200601170156 METAR KSEA 170156Z 22005KT 4SM RA BR BKN024 OVC033 08/07 A2991 RMK AO2 SLP136 P0007 T00780067=
200601170056 METAR KSEA 170056Z 14007KT 4SM -RA BR FEW006 OVC025 08/06 A2991 RMK AO2 PRESFR SLP136 P0003 T00780061=
200601162356 METAR KSEA 162356Z 17006KT 6SM -RA BR FEW006 OVC023 07/06 A2994 RMK AO2 SLP145 P0001 60010 T00720056 10072 20050 58021=
200601162324 SPECI KSEA 162324Z 16007KT 5SM -RA BR SCT006 OVC023 07/06 A2995=
200601162324 SPECI KSEA 162324Z 16007KT 5SM -RA BR SCT006 OVC023 07/06 A2995 RMK AO2 P0001=
200601162307 SPECI KSEA 162307Z 16005KT 5SM BR BKN006 OVC023 07/05 A2996 RMK AO2 RAE07 CIG 004V010 P0000=
200601162307 SPECI KSEA 162307Z 16005KT 5SM BR BKN006 OVC023 07/05 A2996 RMK AO2 RAE07 CIG 004V010 P0000=
200601162256 METAR KSEA 162256Z 16005KT 1 1/2SM -RA BR FEW003 BKN006 OVC009 07/05 A2997 RMK AO2 SFC VIS 3 SLP156 P0002 T00670050=
200601162235 SPECI KSEA 162235Z 17006KT 1 1/2SM -RA BR BKN009 OVC018 07/05 A2998 RMK AO2 SFC VIS 4 CIG 005V012 P0002=
200601162235 SPECI KSEA 162235Z 17006KT 1 1/2SM -RA BR BKN009 OVC018 07/05 A2998 RMK AO2 SFC VIS 4 CIG 005V012 P0002=
200601162213 SPECI KSEA 162213Z 16007KT 1SM -RA BR SCT005 BKN009 OVC012 06/04 A2998 RMK AO2 SFC VIS 2 P0002=
200601162213 SPECI KSEA 162213Z 16007KT 1SM -RA BR SCT005 BKN009 OVC012 06/04 A2998 RMK AO2 SFC VIS 2 P0002=
200601162209 SPECI KSEA 162209Z 15009KT 2SM -RA BR SCT005 BKN009 OVC012 06/04 A2998 RMK AO2 P0002=
200601162209 SPECI KSEA 162209Z 15009KT 2SM -RA BR SCT005 BKN009 OVC012 06/04 A2998 RMK AO2 P0002=
200601162156 METAR KSEA 162156Z 15007KT 2SM -RA BR FEW005 SCT009 OVC012 06/04 A2999 RMK AO2 SLP162 P0001 T00610044=
200601162139 SPECI KSEA 162139Z 17005KT 2SM -RA BR SCT005 BKN009 OVC012 06/04 A2999 RMK AO2 P0001=
200601162139 SPECI KSEA 162139Z 17005KT 2SM -RA BR SCT005 BKN009 OVC012 06/04 A2999 RMK AO2 P0001=
200601162119 SPECI KSEA 162119Z 15006KT 3SM -RA BR FEW008 BKN014 OVC020 06/04 A2999 RMK AO2 P0000=
200601162119 SPECI KSEA 162119Z 15006KT 3SM -RA BR FEW008 BKN014 OVC020 06/04 A2999 RMK AO2 P0000=
200601162056 METAR KSEA 162056Z 16006KT 6SM -RA BR FEW008 BKN016 OVC025 06/04 A3000 RMK AO2 SLP167 P0001 60006 T00610044 58015=
200601161956 METAR KSEA 161956Z 14005KT 8SM -RA FEW008 BKN020 OVC025 06/04 A3002 RMK AO2 SLP172 P0001 T00610039=
200601161856 METAR KSEA 161856Z 13005KT 6SM -RA FEW010 BKN025 OVC030 06/03 A3004 RMK AO2 SLP180 P0004 T00610033=
200601161821 SPECI KSEA 161821Z 10005KT 9SM -RA FEW010 BKN026 OVC035 06/03 A3004 RMK AO2 P0001=
200601161821 SPECI KSEA 161821Z 10005KT 9SM -RA FEW010 BKN026 OVC035 06/03 A3004 RMK AO2 P0001=
200601161756 METAR KSEA 161756Z 00000KT 7SM -RA SCT028 OVC035 05/03 A3005 RMK AO2 SLP182 P0004 60005 T00500033 10061 20050 58013=
200601161656 METAR KSEA 161656Z 00000KT 8SM -RA SCT026 OVC034 05/03 A3006 RMK AO2 SLP188 P0001 T00500033=
200601161556 METAR KSEA 161556Z 34003KT 10SM -RA OVC047 05/02 A3007 RMK AO2 RAB12 SLP190 P0000 T00500022=
200601161456 METAR KSEA 161456Z 00000KT 10SM OVC036 06/02 A3008 RMK AO2 SLP195 T00560017 56024=
200601161356 METAR KSEA 161356Z 00000KT 10SM BKN050 BKN085 05/02 A3010 RMK AO2 SLP201 T00500017=
200601161256 METAR KSEA 161256Z 00000KT 10SM BKN060 OVC085 06/02 A3012 RMK AO2 SLP207 T00560017=
200601161156 METAR KSEA 161156Z 17003KT 10SM FEW035 SCT055 OVC080 06/02 A3015 RMK AO2 RAE27 SLP219 P0000 60000 T00560022 10061 20056 58018=
200601161056 METAR KSEA 161056Z 19006KT 10SM -RA BKN031 OVC050 06/02 A3019 RMK AO2 RAB39 SLP233 P0000 T00560017=
200601160956 METAR KSEA 160956Z 00000KT 10SM BKN042 BKN050 OVC065 06/01 A3021 RMK AO2 SLP237 T00560011=
200601160856 METAR KSEA 160856Z 17003KT 10SM SCT050 OVC095 06/01 A3021 RMK AO2 SLP238 T00610011 56014=
200601160756 METAR KSEA 160756Z 15005KT 10SM BKN050 OVC100 06/01 A3022 RMK AO2 SLP240 T00610011 400830028=
200601160656 METAR KSEA 160656Z 16007KT 10SM BKN038 OVC045 06/01 A3024 RMK AO2 SLP247 T00560011=
200601160556 METAR KSEA 160556Z 17006KT 10SM BKN037 OVC045 06/02 A3025 RMK AO2 SLP251 T00560017 10072 20056 58006=
200601160456 METAR KSEA 160456Z 18007KT 10SM BKN033 OVC046 06/02 A3026 RMK AO2 SLP255 T00610017=
200601160356 METAR KSEA 160356Z 19007KT 10SM BKN043 BKN100 OVC200 06/01 A3026 RMK AO2 SLP254 T00610011=
200601160256 METAR KSEA 160256Z 19007KT 10SM FEW032 BKN055 BKN100 OVC200 06/01 A3027 RMK AO2 SLP257 T00610011 51006=
200601160156 METAR KSEA 160156Z 19007KT 10SM FEW025 SCT049 BKN110 OVC200 06/02 A3027 RMK AO2 SLP258 T00560017=
200601160056 METAR KSEA 160056Z 19009KT 10SM FEW025 BKN060 BKN100 OVC250 06/02 A3026 RMK AO2 SLP256 T00610017=
200601152356 METAR KSEA 152356Z 23010KT 10SM FEW015 SCT060 BKN250 07/02 A3025 RMK AO2 SLP251 VCSH S T00720017 10083 20050 53004=
200601152322 SPECI KSEA 152322Z 23007KT 10SM SCT026 BKN065 BKN250 08/02 A3024=
200601152322 SPECI KSEA 152322Z 23007KT 10SM SCT026 BKN065 BKN250 08/02 A3024 RMK AO2=
200601152256 METAR KSEA 152256Z 24011KT 10SM BKN024 BKN250 08/01 A3024 RMK AO2 SLP247 T00780011=
200601152243 SPECI KSEA 152243Z 22009KT 10SM BKN023 BKN250 08/02 A3023 RMK AO2=
200601152243 SPECI KSEA 152243Z 22009KT 10SM BKN023 BKN250 08/02 A3023 RMK AO2=
200601152156 METAR KSEA 152156Z 19009KT 10SM FEW017 SCT035 SCT250 08/02 A3023 RMK AO2 SLP244 T00830022=
200601152149 SPECI KSEA 152149Z 21008KT 10SM SCT017 BKN035 BKN250 08/02 A3023 RMK AO2=
200601152149 SPECI KSEA 152149Z 21008KT 10SM SCT017 BKN035 BKN250 08/02 A3023 RMK AO2=
200601152056 METAR KSEA 152056Z 21013KT 10SM BKN017 OVC025 07/03 A3023 RMK AO2 SLP247 T00670028 51017=
200601151956 METAR KSEA 151956Z 18006KT 10SM SCT015 OVC021 06/02 A3023 RMK AO2 SLP245 T00610022=
200601151856 METAR KSEA 151856Z 20006KT 10SM BKN015 OVC021 06/02 A3021 RMK AO2 SLP241 T00560022=
200601151837 SPECI KSEA 151837Z 21007KT 10SM BKN015 OVC021 06/02 A3021 RMK AO2=
200601151837 SPECI KSEA 151837Z 21007KT 10SM BKN015 OVC021 06/02 A3021 RMK AO2=
200601151756 METAR KSEA 151756Z 19008KT 10SM BKN013 OVC020 05/02 A3018 RMK AO2 SLP230 T00500017 10050 20039 51026=
200601151747 SPECI KSEA 151747Z 18008KT 10SM BKN013 OVC020 05/02 A3018 RMK AO2=
200601151747 SPECI KSEA 151747Z 18008KT 10SM BKN013 OVC020 05/02 A3018 RMK AO2=
200601151656 METAR KSEA 151656Z 19010KT 10SM BKN015 OVC021 05/02 A3016 RMK AO2 SLP222 T00500017=
200601151634 SPECI KSEA 151634Z 17009KT 10SM BKN015 OVC021 04/02 A3015=
200601151634 SPECI KSEA 151634Z 17009KT 10SM BKN015 OVC021 04/02 A3015 RMK AO2=
200601151556 METAR KSEA 151556Z 19005KT 10SM BKN013 OVC020 04/02 A3013 RMK AO2 SLP213 T00440022 $=
200601151456 METAR KSEA 151456Z 19006KT 10SM BKN011 OVC019 04/02 A3010 RMK AO2 SLP203 T00440017 53022 $=
200601151356 METAR KSEA 151356Z 17008KT 10SM BKN008 OVC015 04/02 A3007 RMK AO2 SLP193 T00390017 $=
200601151256 METAR KSEA 151256Z 18007KT 10SM BKN008 OVC016 04/02 A3005 RMK AO2 SLP186 T00390017 $=
200601151214 SPECI KSEA 151214Z 21009KT 10SM BKN009 OVC016 04/02 A3004 RMK AO2 $=
200601151214 SPECI KSEA 151214Z 21009KT 10SM BKN009 OVC016 04/02 A3004 RMK AO2 $=
200601151156 METAR KSEA 151156Z 21011KT 10SM BKN011 OVC018 04/02 A3004 RMK AO2 SLP180 70026 T00440017 10044 20028 51019 $=
200601151056 METAR KSEA 151056Z 20006KT 10SM FEW013 BKN026 OVC090 04/02 A3002 RMK AO2 SLP174 T00390017 $=
200601151011 SPECI KSEA 151011Z 19006KT 10SM BKN013 OVC021 03/01 A3001 RMK AO2 $=
200601151011 SPECI KSEA 151011Z 19006KT 10SM BKN013 OVC021 03/01 A3001 RMK AO2 $=
200601150956 METAR KSEA 150956Z 18006KT 10SM BKN016 OVC070 04/01 A3000 RMK AO2 SLP169 T00390011 $=
200601150856 METAR KSEA 150856Z 18007KT 10SM SCT016 BKN024 03/01 A2998 RMK AO2 SLP162 T00330011 51014 $=
200601150756 METAR KSEA 150756Z 15004KT 10SM FEW018 SCT024 BKN190 03/01 A2997 RMK AO2 SLP158 T00330011 400780033 $=
200601150656 METAR KSEA 150656Z 12008KT 10SM FEW010 BKN022 BKN030 OVC180 04/01 A2996 RMK AO2 SLP153 T00440011 $=
200601150556 METAR KSEA 150556Z 11008KT 10SM BKN024 BKN031 OVC120 04/02 A2994 RMK AO2 RAE07 SLP147 P0000 6//// T00390017 10061 20033 51023 $=
200601150456 METAR KSEA 150456Z 12009KT 10SM -RA FEW004 OVC020 03/02 A2992 RMK AO2 RAB0357E38B55 SLP141 T00330017 $=
200601150356 METAR KSEA 150356Z COR 13010KT 10SM BKN022 OVC055 04/02 A2990 RMK AO2 RAE37 SLP132 T00390017 P0001 $=
200601150256 METAR KSEA 150256Z COR 10006KT 10SM -RA SCT005 BKN019 OVC024 04/02 A2987 RMK AO2 SLP124 P0005 60015 T00440022 53025 PNO $=
200601150156 METAR KSEA 150156Z 04011KT 3SM -RA BR FEW007 BKN023 OVC038 05/03 A2985 RMK AO2 RAB14 SLP116 P0005 T00500028=
200601150125 SPECI KSEA 150125Z 08010KT 10SM -RA FEW007 BKN023 OVC038 06/03 A2983 RMK AO2 RAB14 P0000=
200601150125 SPECI KSEA 150125Z 08010KT 10SM -RA FEW007 BKN023 OVC038 06/03 A2983 RMK AO2 RAB14 P0000=
200601150056 METAR KSEA 150056Z 09009KT 10SM FEW005 SCT020 BKN030 BKN200 06/04 A2982 RMK AO2 RAB03E54 SLP105 P0003 T00610039=
200601142356 METAR KSEA 142356Z 07008KT 10SM FEW009 SCT021 BKN027 OVC180 06/04 A2980 RMK AO2 RAB30E51 SLP099 P0001 60016 T00610039 10078 20061 53013=
200601142256 METAR KSEA 142256Z 12006KT 10SM SCT030 BKN060 BKN075 BKN180 07/03 A2977 RMK AO2 RAE27 SLP090 P0000 T00720033=
200601142232 SPECI KSEA 142232Z 08006KT 10SM FEW008 BKN030 BKN060 07/04 A2977=
200601142232 SPECI KSEA 142232Z 08006KT 10SM FEW008 BKN030 BKN060 07/04 A2977 RMK AO2 RAE27 P0000=
200601142205 SPECI KSEA 142205Z 10007KT 3SM -RA FEW008 OVC028 06/03 A2977 RMK AO2 P0000=
200601142205 SPECI KSEA 142205Z 10007KT 3SM -RA FEW008 OVC028 06/03 A2977 RMK AO2 P0000=
200601142158 SPECI KSEA 142158Z 09007KT 3SM -RA SCT021 OVC030 06/03 A2977 RMK AO2 P0000=
200601142158 SPECI KSEA 142158Z 09007KT 3SM -RA SCT021 OVC030 06/03 A2977 RMK AO2 P0000=
200601142156 METAR KSEA 142156Z 09008KT 3SM RA FEW007 BKN024 OVC035 06/03 A2977 RMK AO2 SLP089 P0007 T00610033=
200601142056 METAR KSEA 142056Z 16005KT 7SM -RA FEW007 BKN018 OVC035 07/04 A2976 RMK AO2 SLP086 P0005 60008 T00670044 50002=
200601142024 SPECI KSEA 142024Z 07008KT 4SM -RA FEW007 OVC021 07/03 A2976=
200601142024 SPECI KSEA 142024Z 07008KT 4SM -RA FEW007 OVC021 07/03 A2976 RMK AO2 P0003=
200601141956 METAR KSEA 141956Z 16005KT 2 1/2SM RA SCT006 OVC015 07/04 A2976 RMK AO2 RAB25 SLP086 P0003 T00720044=
200601141942 SPECI KSEA 141942Z 00000KT 7SM -RA SCT006 OVC015 07/04 A2976 RMK AO2 RAB25 P0000=
200601141942 SPECI KSEA 141942Z 00000KT 7SM -RA SCT006 OVC015 07/04 A2976 RMK AO2 RAB25 P0000=
200601141913 SPECI KSEA 141913Z 05009KT 8SM SCT006 OVC010 07/05 A2976 RMK AO2=
200601141913 SPECI KSEA 141913Z 05009KT 8SM SCT006 OVC010 07/05 A2976 RMK AO2=
200601141856 METAR KSEA 141856Z 05008KT 8SM SCT006 OVC015 07/05 A2976 RMK AO2 SLP084 T00720050=
200601141756 METAR KSEA 141756Z 05007KT 8SM SCT008 OVC018 07/05 A2975 RMK AO2 RAB00E35 SLP083 P0001 60001 T00720050 10078 20072 50004=
200601141724 SPECI KSEA 141724Z 02007KT 4SM -RA BR SCT007 OVC015 07/05 A2975 RMK AO2 RAB00 P0001=
200601141724 SPECI KSEA 141724Z 02007KT 4SM -RA BR SCT007 OVC015 07/05 A2975 RMK AO2 RAB00 P0001=
200601141708 SPECI KSEA 141708Z 34006KT 3SM -RA BR BKN007 OVC013 07/06 A2976 RMK AO2 RAB00 P0000=
200601141708 SPECI KSEA 141708Z 34006KT 3SM -RA BR BKN007 OVC013 07/06 A2976 RMK AO2 RAB00 P0000=
200601141656 METAR KSEA 141656Z 22003KT 10SM SCT007 BKN013 OVC020 08/06 A2975 RMK AO2 SLP083 T00780056=
200601141632 SPECI KSEA 141632Z 00000KT 10SM SCT008 OVC013 07/06 A2975 RMK AO2=
200601141632 SPECI KSEA 141632Z 00000KT 10SM SCT008 OVC013 07/06 A2975 RMK AO2=
200601141556 METAR KSEA 141556Z 00000KT 10SM BKN008 OVC013 07/06 A2974 RMK AO2 SLP080 T00720056=
200601141456 METAR KSEA 141456Z VRB03KT 10SM BKN005 OVC011 08/06 A2974 RMK AO2 SLP078 T00780056 53002=
200601141356 METAR KSEA 141356Z 22004KT 10SM BKN007 OVC019 08/06 A2973 RMK AO2 SLP073 T00780056=
200601141324 SPECI KSEA 141324Z 18007KT 10SM BKN009 OVC019 08/05 A2973 RMK AO2=
200601141324 SPECI KSEA 141324Z 18007KT 10SM BKN009 OVC019 08/05 A2973 RMK AO2=
200601141256 METAR KSEA 141256Z 19005KT 10SM SCT010 OVC019 07/05 A2973 RMK AO2 SLP074 T00720050=
200601141156 METAR KSEA 141156Z 19005KT 10SM SCT021 BKN026 OVC090 07/06 A2974 RMK AO2 SLP077 60006 70052 T00720056 10078 20067 50005=
200601141123 SPECI KSEA 141123Z 16007KT 10SM SCT029 BKN090 07/05 A2973 RMK AO2=
200601141123 SPECI KSEA 141123Z 16007KT 10SM SCT029 BKN090 07/05 A2973 RMK AO2=
200601141056 METAR KSEA 141056Z 17006KT 10SM SCT020 OVC029 07/05 A2974 RMK AO2 SLP079 T00720050=
200601141042 SPECI KSEA 141042Z 17004KT 10SM SCT020 OVC029 07/05 A2974=
200601141042 SPECI KSEA 141042Z 17004KT 10SM SCT020 OVC029 07/05 A2974 RMK AO2=
200601140956 METAR KSEA 140956Z 18006KT 10SM SCT022 BKN031 OVC085 07/05 A2973 RMK AO2 SLP076 T00720050=
200601140856 METAR KSEA 140856Z 15009KT 10SM BKN025 BKN070 OVC100 07/05 A2972 RMK AO2 RAE11 SLP072 P0000 60006 T00720050 58007=
200601140756 METAR KSEA 140756Z 15013KT 10SM -RA FEW004 SCT029 OVC046 07/06 A2973 RMK AO2 SLP075 P0003 T00720056 401000072=
200601140717 SPECI KSEA 140717Z 17009KT 8SM -RA FEW005 BKN028 OVC033 08/06 A2974 RMK AO2 P0002=
200601140717 SPECI KSEA 140717Z 17009KT 8SM -RA FEW005 BKN028 OVC033 08/06 A2974 RMK AO2 P0002=
200601140656 METAR KSEA 140656Z 16009KT 8SM -RA FEW005 SCT026 OVC034 08/06 A2974 RMK AO2 SLP078 P0003 T00780061=
200601140556 METAR KSEA 140556Z 16008KT 10SM -RA FEW005 OVC034 08/06 A2974 RMK AO2 SLP079 P0002 60025 T00780061 10094 20078 53006=
200601140456 METAR KSEA 140456Z 17010KT 10SM -RA FEW003 OVC043 08/07 A2973 RMK AO2 SLP076 P0002 T00830067=
200601140441 SPECI KSEA 140441Z 16010KT 9SM -RA OVC039 08/07 A2973=
200601140441 SPECI KSEA 140441Z 16010KT 9SM -RA OVC039 08/07 A2973 RMK AO2 P0002=
200601140356 METAR KSEA 140356Z 15010KT 1/2SM -RA BR FEW003 OVC037 08/07 A2973 RMK AO2 SFC VIS 6 SLP075 P0003 T00830067=
200601140327 SPECI KSEA 140327Z 15009KT 1/2SM -RA BR FEW004 OVC035 08/07 A2973=
200601140327 SPECI KSEA 140327Z 15009KT 1/2SM -RA BR FEW004 OVC035 08/07 A2973 RMK AO2 SFC VIS 5 P0002=
200601140256 METAR KSEA 140256Z 16009KT 7SM -RA BKN035 OVC047 08/07 A2973 RMK AO2 SLP073 P0004 60018 T00830067 53006=
200601140156 METAR KSEA 140156Z 18005KT 6SM RA BR FEW015 OVC035 08/07 A2971 RMK AO2 SLP069 P0004 T00830072=
200601140056 METAR KSEA 140056Z 21006KT 9SM -RA FEW012 OVC030 09/07 A2971 RMK AO2 SLP069 P0010 T00890067=
200601140031 SPECI KSEA 140031Z 23005KT 5SM RA BR SCT006 BKN022 OVC026 09/07 A2972 RMK AO2 P0007=
200601140031 SPECI KSEA 140031Z 23005KT 5SM RA BR SCT006 BKN022 OVC026 09/07 A2972 RMK AO2 P0007=
200601140005 SPECI KSEA 140005Z 20005KT 3SM RA BR BKN008 BKN015 OVC026 09/08 A2971 RMK AO2 CIG 006V012 P0002=
200601140005 SPECI KSEA 140005Z 20005KT 3SM RA BR BKN008 BKN015 OVC026 09/08 A2971 RMK AO2 CIG 006V012 P0002=
200601132356 METAR KSEA 132356Z 20003KT 4SM RA BR FEW010 BKN020 OVC026 09/08 A2971 RMK AO2 SLP067 P0007 60012 T00940078 10100 20094 55002=
200601132344 SPECI KSEA 132344Z 22003KT 3SM RA BR BKN026 OVC032 09/08 A2971=
200601132344 SPECI KSEA 132344Z 22003KT 3SM RA BR BKN026 OVC032 09/08 A2971 RMK AO2 P0005=
200601132256 METAR KSEA 132256Z 21009KT 10SM -RA SCT030 OVC040 10/07 A2970 RMK AO2 SLP063 P0001 T01000072=
200601132156 METAR KSEA 132156Z 19005KT 8SM -RA OVC032 10/08 A2971 RMK AO2 SLP069 P0001 T01000078=
200601132056 METAR KSEA 132056Z 22006KT 10SM -RA OVC035 10/07 A2971 RMK AO2 SLP068 P0000 60003 T01000072 56008=
200601131956 METAR KSEA 131956Z 21006KT 10SM -RA FEW025 OVC035 10/07 A2971 RMK AO2 SLP069 P0000 T01000067=
200601131856 METAR KSEA 131856Z 18011KT 10SM -RA SCT038 OVC050 10/06 A2972 RMK AO2 SLP071 P0003 T01000061=
200601131756 METAR KSEA 131756Z 20010KT 9SM RA FEW025 OVC034 10/06 A2974 RMK AO2 SLP077 P0002 60009 T01000061 10100 20100 53005=
200601131656 METAR KSEA 131656Z 20009KT 10SM -RA BKN038 OVC050 10/06 A2973 RMK AO2 SLP074 P0001 T01000056=
200601131556 METAR KSEA 131556Z 18016KT 10SM -RA BKN045 OVC055 10/06 A2972 RMK AO2 SLP071 P0002 T01000061=
200601131456 METAR KSEA 131456Z 18012KT 10SM -RA FEW032 OVC050 10/06 A2972 RMK AO2 SLP072 P0002 60004 T01000061 53005=
200601131356 METAR KSEA 131356Z 18012KT 10SM -RA FEW032 OVC055 10/06 A2972 RMK AO2 SLP070 P0001 T01000061=
200601131256 METAR KSEA 131256Z 19010KT 10SM -RA SCT032 OVC055 10/06 A2970 RMK AO2 SLP064 P0001 T01000061=
200601131156 METAR KSEA 131156Z 18011KT 10SM -RA SCT032 OVC070 10/06 A2971 RMK AO2 SLP066 P0001 60005 70059 T01000061 10100 20083 58003=
200601131056 METAR KSEA 131056Z 19012KT 10SM -RA BKN032 OVC045 10/06 A2973 RMK AO2 SLP073 P0001 T01000061=
200601130956 METAR KSEA 130956Z 18010KT 10SM -RA BKN034 OVC047 10/07 A2971 RMK AO2 SLP068 P0000 T01000067=
200601130856 METAR KSEA 130856Z 17007KT 10SM -RA BKN034 OVC046 09/07 A2972 RMK AO2 SLP070 P0001 60003 T00890072 55001=
200601130756 METAR KSEA 130756Z 17008KT 10SM -RA BKN038 OVC049 09/07 A2971 RMK AO2 SLP068 P0001 T00890067 400890067=
200601130656 METAR KSEA 130656Z 15008KT 10SM -RA OVC038 08/06 A2971 RMK AO2 SLP070 P0001 T00830061=
200601130556 METAR KSEA 130556Z 15006KT 10SM -RA OVC036 08/06 A2972 RMK AO2 SLP072 P0002 60016 T00830061 10083 20072 55004=
200601130456 METAR KSEA 130456Z 15006KT 10SM -RA BKN040 OVC048 08/06 A2972 RMK AO2 SLP072 P0002 T00780061=
200601130356 METAR KSEA 130356Z 14008KT 7SM -RA OVC032 08/06 A2972 RMK AO2 SLP073 P0003 T00780061=
200601130256 METAR KSEA 130256Z 15007KT 9SM -RA OVC030 08/06 A2973 RMK AO2 SLP076 P0003 60009 T00780056 56019=
200601130246 SPECI KSEA 130246Z 15006KT 8SM -RA OVC028 07/06 A2973=
200601130246 SPECI KSEA 130246Z 15006KT 8SM -RA OVC028 07/06 A2973 RMK AO2 P0003=
200601130156 METAR KSEA 130156Z 12006KT 10SM -RA OVC030 08/05 A2974 RMK AO2 SLP080 P0003 T00780050=
200601130056 METAR KSEA 130056Z 11008KT 9SM -RA FEW027 OVC032 08/05 A2977 RMK AO2 SLP088 P0003 T00780050=
200601130038 SPECI KSEA 130038Z 10007KT 10SM -RA SCT027 OVC032 08/05 A2978 RMK AO2 P0002=
200601130038 SPECI KSEA 130038Z 10007KT 10SM -RA SCT027 OVC032 08/05 A2978 RMK AO2 P0002=
200601122356 METAR KSEA 122356Z 12006KT 10SM -RA BKN027 OVC032 08/05 A2979 RMK AO2 SLP096 P0001 60038 T00780050 10078 20072 56020=
200601122256 METAR KSEA 122256Z 11007KT 10SM -RA FEW025 BKN030 OVC035 08/05 A2980 RMK AO2 SLP100 P0003 T00780050=
200601122156 METAR KSEA 122156Z 11006KT 7SM -RA SCT025 OVC032 08/05 A2982 RMK AO2 SLP107 P0009 T00780050=
200601122133 SPECI KSEA 122133Z 09008KT 5SM -RA BR FEW020 SCT025 OVC030 07/05 A2982 RMK AO2 P0007=
200601122133 SPECI KSEA 122133Z 09008KT 5SM -RA BR FEW020 SCT025 OVC030 07/05 A2982 RMK AO2 P0007=
200601122056 METAR KSEA 122056Z 12007KT 3SM RA BKN020 OVC025 07/04 A2985 RMK AO2 SLP116 P0014 60025 T00720044 58036=
200601121956 METAR KSEA 121956Z 12009KT 3SM RA BKN023 OVC030 07/04 A2989 RMK AO2 SLP129 P0009 T00720044=
200601121918 SPECI KSEA 121918Z 13008KT 5SM -RA BKN025 OVC030 07/04 A2992=
200601121918 SPECI KSEA 121918Z 13008KT 5SM -RA BKN025 OVC030 07/04 A2992 RMK AO2 P0003=
200601121856 METAR KSEA 121856Z 14006KT 6SM -RA OVC031 07/04 A2993 RMK AO2 SLP144 P0002 T00720039=
200601121756 METAR KSEA 121756Z 13006KT 10SM -RA SCT038 BKN055 OVC070 07/03 A2996 RMK AO2 RAB33 SLP152 P0000 60000 T00720028 10078 20067 57010=
200601121656 METAR KSEA 121656Z 14007KT 10SM FEW041 SCT080 BKN110 OVC130 07/02 A2997 RMK AO2 SLP156 T00720022=
200601121556 METAR KSEA 121556Z 15007KT 10SM BKN080 BKN100 OVC130 07/03 A2998 RMK AO2 SLP159 T00670028=
200601121456 METAR KSEA 121456Z 16008KT 10SM FEW050 SCT120 BKN200 07/03 A2999 RMK AO2 SLP163 T00670028 56016=
200601121356 METAR KSEA 121356Z 17008KT 10SM SCT040 SCT100 OVC200 07/03 A3000 RMK AO2 SLP167 T00670028=
200601121256 METAR KSEA 121256Z 17006KT 10SM BKN038 BKN120 OVC200 07/03 A3001 RMK AO2 SLP171 T00720033=
200601121156 METAR KSEA 121156Z 18010KT 10SM BKN044 BKN100 OVC200 07/04 A3003 RMK AO2 RAB01E15 SLP178 P0001 60001 70077 T00670039 10078 20067 50006=
200601121139 SPECI KSEA 121139Z 18008KT 10SM SCT024 BKN042 OVC100 07/04 A3004 RMK AO2 RAB01E15 P0001=
200601121139 SPECI KSEA 121139Z 18008KT 10SM SCT024 BKN042 OVC100 07/04 A3004 RMK AO2 RAB01E15 P0001=
200601121056 METAR KSEA 121056Z 19009KT 10SM BKN027 BKN033 OVC100 07/04 A3005 RMK AO2 SLP183 T00720039=
200601121037 SPECI KSEA 121037Z 20011KT 10SM BKN027 BKN033 OVC100 07/04 A3004 RMK AO2=
200601121037 SPECI KSEA 121037Z 20011KT 10SM BKN027 BKN033 OVC100 07/04 A3004 RMK AO2=
200601120956 METAR KSEA 120956Z 20012KT 10SM SCT023 SCT028 OVC110 07/04 A3002 RMK AO2 SLP175 T00720044=
200601120856 METAR KSEA 120856Z 19011KT 10SM SCT021 SCT026 OVC110 07/04 A3002 RMK AO2 RAB44E54 SLP172 P0000 60000 T00720044 51020=
200601120756 METAR KSEA 120756Z 19013KT 10SM SCT024 BKN100 OVC200 08/04 A2999 RMK AO2 SLP164 T00780039 400940067=
200601120656 METAR KSEA 120656Z 20013KT 10SM FEW023 SCT036 BKN120 BKN200 07/04 A2998 RMK AO2 SLP160 T00720044=
200601120556 METAR KSEA 120556Z 20012G20KT 10SM SCT022 SCT100 BKN200 07/04 A2996 RMK AO2 SLP152 60001 T00720044 10078 20067 53016=
200601120534 SPECI KSEA 120534Z 20013KT 10SM SCT022 BKN026 BKN075 07/04 A2995=
200601120534 SPECI KSEA 120534Z 20013KT 10SM SCT022 BKN026 BKN075 07/04 A2995 RMK AO2=
200601120456 METAR KSEA 120456Z 20013KT 10SM FEW021 BKN090 BKN110 07/04 A2993 RMK AO2 SLP145 T00720044=
200601120420 SPECI KSEA 120420Z 18013KT 10SM FEW013 BKN070 BKN085 BKN200 07/04 A2993 RMK AO2=
200601120420 SPECI KSEA 120420Z 18013KT 10SM FEW013 BKN070 BKN085 BKN200 07/04 A2993 RMK AO2=
200601120356 METAR KSEA 120356Z 19013KT 10SM BKN017 BKN070 BKN090 BKN200 07/04 A2993 RMK AO2 SLP142 T00720044=
200601120256 METAR KSEA 120256Z 19013KT 10SM BKN018 OVC110 07/04 A2991 RMK AO2 SLP136 60001 T00720044 51018=
200601120156 METAR KSEA 120156Z 21014G20KT 10SM SCT019 BKN070 BKN100 BKN200 08/04 A2990 RMK AO2 SLP132 T00780044=
200601120134 SPECI KSEA 120134Z 22011KT 10SM SCT019 BKN085 BKN100 BKN200 08/04 A2988=
200601120134 SPECI KSEA 120134Z 22011KT 10SM SCT019 BKN085 BKN100 BKN200 08/04 A2988 RMK AO2=
200601120056 METAR KSEA 120056Z 21012KT 10SM BKN019 BKN060 OVC110 08/05 A2987 RMK AO2 RAE10 SLP123 P0001 T00780050=
200601120044 SPECI KSEA 120044Z 21012KT 10SM BKN019 BKN027 OVC100 08/05 A2987=
200601120044 SPECI KSEA 120044Z 21012KT 10SM BKN019 BKN027 OVC100 08/05 A2987 RMK AO2 RAE10 P0001=
200601120016 SPECI KSEA 120016Z 21011G17KT 10SM SCT022 BKN060 BKN085 08/04 A2986 RMK AO2 RAE10 P0001=
200601120016 SPECI KSEA 120016Z 21011G17KT 10SM SCT022 BKN060 BKN085 08/04 A2986 RMK AO2 RAE10 P0001=
200601112356 METAR KSEA 112356Z 23014G20KT 8SM -RA BKN020 BKN025 OVC055 08/05 A2985 RMK AO2 RAB18 SLP117 P0006 60030 T00780050 10089 20067 53021=
200601112256 METAR KSEA 112256Z 21014G23KT 10SM FEW012 SCT018 BKN025 08/06 A2983 RMK AO2 RAB40E54 SLP109 P0000 T00830056=
200601112232 SPECI KSEA 112232Z 20013G18KT 10SM SCT018 BKN027 OVC035 08/05 A2982 RMK AO2 BINOVC N-NE=
200601112232 SPECI KSEA 112232Z 20013G18KT 10SM SCT018 BKN027 OVC035 08/05 A2982 RMK AO2 BINOVC N-NE=
200601112156 METAR KSEA 112156Z 20010G19KT 10SM FEW016 SCT050 SCT070 BKN200 08/05 A2980 RMK AO2 RAE26 SLP100 P0002 T00780050=
200601112134 SPECI KSEA 112134Z 20010KT 10SM FEW015 SCT020 SCT030 08/04 A2979 RMK AO2 RAE26 P0002=
200601112134 SPECI KSEA 112134Z 20010KT 10SM FEW015 SCT020 SCT030 08/04 A2979 RMK AO2 RAE26 P0002=
200601112056 METAR KSEA 112056Z 24011G18KT 3SM R16R/6000VP6000FT -RA BR FEW012 BKN019 OVC024 07/05 A2979 RMK AO2 SLP095 P0014 60022 T00720050 51015=
200601111956 METAR KSEA 111956Z 19013G20KT 10SM -RA SCT016 BKN025 OVC033 08/05 A2978 RMK AO2 RAE10B31 SLP091 OCNL BINOVC OHD P0000 T00780050=
200601111856 METAR KSEA 111856Z 20015G22KT 10SM -RA FEW009 SCT015 OVC025 08/05 A2977 RMK AO2 RAE27B56 SLP086 BINOVC OHD VCSH S MOV NE P0008 T00780050=
200601111756 METAR KSEA 111756Z 21014G19KT 5SM RA SCT009 BKN016 OVC025 08/05 A2975 RMK AO2 SLP081 VIS W 2 VCSH W MOV N P0018 60045 T00780050 10083 20072 51017=
200601111735 SPECI KSEA 111735Z 22008G20KT 3SM RA BR FEW009 SCT016 OVC022 08/06 A2975 RMK AO2 P0016=
200601111735 SPECI KSEA 111735Z 22008G20KT 3SM RA BR FEW009 SCT016 OVC022 08/06 A2975 RMK AO2 P0016=
200601111724 SPECI KSEA 111724Z 27012G16KT 1 1/2SM +RA FEW009 SCT016 OVC022 08/05 A2975 RMK AO2 P0014=
200601111724 SPECI KSEA 111724Z 27012G16KT 1 1/2SM +RA FEW009 SCT016 OVC022 08/05 A2975 RMK AO2 P0014=
200601111718 SPECI KSEA 111718Z 19007KT 110V310 2SM RA BR FEW009 SCT016 OVC022 07/05 A2974=
200601111718 SPECI KSEA 111718Z 19007KT 110V310 2SM RA BR FEW009 SCT016 OVC022 07/05 A2974 RMK AO2 P0009=
200601111709 SPECI KSEA 111709Z 22010G18KT 1 1/2SM +RA FEW009 SCT016 OVC022 07/04 A2974 RMK AO2 P0005=
200601111709 SPECI KSEA 111709Z 22010G18KT 1 1/2SM +RA FEW009 SCT016 OVC022 07/04 A2974 RMK AO2 P0005=
200601111656 METAR KSEA 111656Z 20010KT 10SM -RA FEW009 BKN016 OVC032 08/06 A2974 RMK AO2 SLP077 BINOVC NE P0006 T00780056=
200601111630 SPECI KSEA 111630Z 20010KT 10SM -RA FEW009 BKN018 OVC037 08/05 A2973 RMK AO2 BINOVC OHD-N P0005=
200601111630 SPECI KSEA 111630Z 20010KT 10SM -RA FEW009 BKN018 OVC037 08/05 A2973 RMK AO2 BINOVC OHD-N P0005=
200601111616 SPECI KSEA 111616Z 21013G19KT 4SM RA BR FEW009 BKN013 OVC020 07/06 A2973 RMK AO2 P0005=
200601111616 SPECI KSEA 111616Z 21013G19KT 4SM RA BR FEW009 BKN013 OVC020 07/06 A2973 RMK AO2 P0005=
200601111556 METAR KSEA 111556Z 23007KT 6SM RA BR FEW012 BKN020 OVC025 07/05 A2972 RMK AO2 SLP072 P0004 T00720050=
200601111456 METAR KSEA 111456Z 19012KT 10SM -RA FEW015 BKN027 OVC040 07/05 A2970 RMK AO2 RAE39B55 SLP063 P0002 60017 T00720050 53012=
200601111356 METAR KSEA 111356Z 20013G22KT 10SM -RA FEW007 SCT017 OVC029 07/04 A2968 RMK AO2 SLP058 P0006 T00720044=
200601111256 METAR KSEA 111256Z 19015KT 10SM -RA SCT019 BKN029 OVC055 07/05 A2966 RMK AO2 SLP051 P0009 T00720050=
200601111156 METAR KSEA 111156Z 21013KT 10SM -RA FEW017 BKN026 OVC033 08/06 A2966 RMK AO2 RAB55 SLP051 P0000 60002 70064 T00830056 10094 20078 51052=
200601111148 SPECI KSEA 111148Z 20011KT 10SM FEW015 SCT024 BKN030 08/06 A2965 RMK AO2=
200601111148 SPECI KSEA 111148Z 20011KT 10SM FEW015 SCT024 BKN030 08/06 A2965 RMK AO2=
200601111056 METAR KSEA 111056Z 22016G22KT 10SM BKN021 BKN030 09/05 A2963 RMK AO2 PK WND 24027/1035 SLP041 T00890050=
200601110956 METAR KSEA 110956Z 22015G24KT 10SM BKN016 BKN035 09/06 A2957 RMK AO2 PRESRR SLP020 T00940061=
200601110943 SPECI KSEA 110943Z 22013G24KT 10SM SCT014 BKN016 BKN035 09/06 A2955 RMK AO2=
200601110943 SPECI KSEA 110943Z 22013G24KT 10SM SCT014 BKN016 BKN035 09/06 A2955 RMK AO2=
200601110856 METAR KSEA 110856Z 22014G24KT 10SM SCT005 BKN014 OVC024 09/07 A2951 RMK AO2 RAE08B38E51 SLP998 P0001 60002 T00940072 51035=
200601110803 SPECI KSEA 110803Z 20010G17KT 5SM -RA BR FEW007 BKN011 OVC017 09/07 A2947 RMK AO2 P0000=
200601110803 SPECI KSEA 110803Z 20010G17KT 5SM -RA BR FEW007 BKN011 OVC017 09/07 A2947 RMK AO2 P0000=
200601110756 METAR KSEA 110756Z 21010G17KT 4SM -RA BR FEW003 BKN015 OVC021 09/07 A2947 RMK AO2 SLP987 P0000 T00890067 401280078=
200601110710 SPECI KSEA 110710Z 22012G15KT 7SM -RA FEW003 BKN015 OVC021 08/07 A2945=
200601110710 SPECI KSEA 110710Z 22012G15KT 7SM -RA FEW003 BKN015 OVC021 08/07 A2945 RMK AO2 P0000=
200601110656 METAR KSEA 110656Z 20008KT 2 1/2SM -RA BR FEW003 BKN017 OVC023 08/07 A2945 RMK AO2 SFC VIS 6 RAE30B46 SLP978 P0001 T00830067=
200601110649 SPECI KSEA 110649Z 18008KT 2 1/2SM -RA BR BKN017 OVC023 08/07 A2944 RMK AO2 SFC VIS 6 RAE30B46 P0001=
200601110649 SPECI KSEA 110649Z 18008KT 2 1/2SM -RA BR BKN017 OVC023 08/07 A2944 RMK AO2 SFC VIS 6 RAE30B46 P0001=
200601110639 SPECI KSEA 110639Z 16010KT 3/4SM FEW003 BKN022 OVC028 08/06 A2943 RMK AO2 SFC VIS 8 RAE30 P0001=
200601110639 SPECI KSEA 110639Z 16010KT 3/4SM FEW003 BKN022 OVC028 08/06 A2943 RMK AO2 SFC VIS 8 RAE30 P0001=
200601110627 SPECI KSEA 110627Z 16007KT 2SM -RA SCT022 BKN027 OVC046 08/06 A2942 RMK AO2 SFC VIS 10 P0001=
200601110627 SPECI KSEA 110627Z 16007KT 2SM -RA SCT022 BKN027 OVC046 08/06 A2942 RMK AO2 SFC VIS 10 P0001=
200601110556 METAR KSEA 110556Z 17005KT 10SM -RA BKN030 OVC035 08/06 A2940 RMK AO2 SLP963 P0004 60037 T00780061 10094 20078 55016=
200601110456 METAR KSEA 110456Z 09005KT 8SM -RA OVC037 08/06 A2936 RMK AO2 SLP948 P0007 T00830061=
200601110356 METAR KSEA 110356Z 12010KT 10SM -RA FEW008 SCT032 OVC041 08/07 A2938 RMK AO2 SLP955 P0005 T00830067=
200601110256 METAR KSEA 110256Z 13012KT 5SM RA BR FEW005 SCT020 OVC034 09/07 A2945 RMK AO2 SLP979 P0006 60021 T00890067 58049=
200601110242 SPECI KSEA 110242Z 15012KT 7SM -RA FEW005 SCT020 OVC034 09/07 A2946=
200601110242 SPECI KSEA 110242Z 15012KT 7SM -RA FEW005 SCT020 OVC034 09/07 A2946 RMK AO2 P0004=
200601110217 SPECI KSEA 110217Z 16009KT 8SM -RA FEW012 BKN035 OVC044 09/07 A2949=
200601110217 SPECI KSEA 110217Z 16009KT 8SM -RA FEW012 BKN035 OVC044 09/07 A2949 RMK AO2 P0001=
200601110156 METAR KSEA 110156Z 16007KT 10SM -RA FEW009 BKN024 OVC043 09/07 A2950 RMK AO2 SLP994 P0007 T00890072=
200601110056 METAR KSEA 110056Z 17004KT 3SM -RA SCT018 SCT026 OVC032 09/07 A2955 RMK AO2 SFC VIS 8 SLP012 P0008 T00890072=
200601102356 METAR KSEA 102356Z 20008KT 3SM -RA FEW008 SCT025 OVC034 09/08 A2959 RMK AO2 SFC VIS 10 SLP027 P0005 60013 T00940078 10106 20094 58027=
200601102318 SPECI KSEA 102318Z 18008KT 3SM -RA BR SCT005 BKN020 OVC041 09/08 A2961 RMK AO2 SFC VIS 6 P0002=
200601102318 SPECI KSEA 102318Z 18008KT 3SM -RA BR SCT005 BKN020 OVC041 09/08 A2961 RMK AO2 SFC VIS 6 P0002=
200601102256 METAR KSEA 102256Z 18006KT 3SM -RA BR BKN005 BKN012 OVC020 09/08 A2962 RMK AO2 SFC VIS 4 CIG 004V008 SLP037 P0006 T00940078=
200601102239 SPECI KSEA 102239Z 17005KT 5SM -RA BR SCT007 BKN012 OVC036 09/08 A2964=
200601102239 SPECI KSEA 102239Z 17005KT 5SM -RA BR SCT007 BKN012 OVC036 09/08 A2964 RMK AO2 P0004=
200601102156 METAR KSEA 102156Z 17006KT 10SM -RA BKN005 BKN010 OVC024 09/08 A2965 RMK AO2 RAB07 SLP048 P0002 T00940078=
200601102128 SPECI KSEA 102128Z 19006KT 10SM -RA FEW005 BKN008 OVC020 09/08 A2967 RMK AO2 RAB07 P0001=
200601102128 SPECI KSEA 102128Z 19006KT 10SM -RA FEW005 BKN008 OVC020 09/08 A2967 RMK AO2 RAB07 P0001=
200601102116 SPECI KSEA 102116Z 18007KT 9SM -RA FEW005 SCT008 OVC020 09/08 A2967 RMK AO2 RAB07 P0001=
200601102116 SPECI KSEA 102116Z 18007KT 9SM -RA FEW005 SCT008 OVC020 09/08 A2967 RMK AO2 RAB07 P0001=
200601102056 METAR KSEA 102056Z 20006KT 10SM SCT004 BKN008 OVC014 09/08 A2968 RMK AO2 RAB31E41 SLP056 P0000 60000 T00940078 50000=
200601102048 SPECI KSEA 102048Z 20006KT 10SM SCT008 OVC014 09/07 A2967 RMK AO2 RAB31E41 P0000=
200601102048 SPECI KSEA 102048Z 20006KT 10SM SCT008 OVC014 09/07 A2967 RMK AO2 RAB31E41 P0000=
200601102022 SPECI KSEA 102022Z 22008KT 10SM FEW010 BKN014 OVC025 10/07 A2968 RMK AO2=
200601102022 SPECI KSEA 102022Z 22008KT 10SM FEW010 BKN014 OVC025 10/07 A2968 RMK AO2=
200601102004 SPECI KSEA 102004Z 23010KT 10SM BKN016 BKN020 OVC030 10/06 A2969 RMK AO2=
200601102004 SPECI KSEA 102004Z 23010KT 10SM BKN016 BKN020 OVC030 10/06 A2969 RMK AO2=
200601101956 METAR KSEA 101956Z 23009KT 10SM SCT019 BKN034 OVC050 10/06 A2970 RMK AO2 SLP063 T01000061=
200601101856 METAR KSEA 101856Z 21010G20KT 10SM FEW015 BKN050 BKN130 OVC150 11/07 A2971 RMK AO2 SLP066 T01060067=
200601101756 METAR KSEA 101756Z 22012G18KT 10SM FEW019 SCT060 BKN130 OVC200 11/07 A2968 RMK AO2 SLP056 60012 T01060067 10128 20106 53042=
200601101729 SPECI KSEA 101729Z 22012G20KT 10SM FEW019 SCT025 BKN070 OVC200 11/07 A2966 RMK AO2 SH DSNT SE=
200601101729 SPECI KSEA 101729Z 22012G20KT 10SM FEW019 SCT025 BKN070 OVC200 11/07 A2966 RMK AO2 SH DSNT SE=
200601101656 METAR KSEA 101656Z 22014G22KT 10SM SCT017 BKN023 OVC200 11/08 A2963 RMK AO2 RAB17E37 SLP040 VCSH SE P0000 T01110078=
200601101556 METAR KSEA 101556Z 21016G20KT 10SM BKN021 OVC027 12/08 A2958 RMK AO2 PK WND 22029/1510 SLP024 T01170083=
200601101456 METAR KSEA 101456Z 22020G23KT 10SM SCT017 BKN022 OVC029 12/09 A2955 RMK AO2 PK WND 22028/1406 SLP011 60012 T01220089 53028=
200601101356 METAR KSEA 101356Z 21019G28KT 10SM FEW009 BKN017 OVC028 13/10 A2949 RMK AO2 PK WND 21031/1343 RAE20B40E48 SLP992 P0000 T01280100=
200601101258 SPECI KSEA 101258Z 21019G27KT 7SM -RA SCT009 BKN015 OVC030 12/11 A2947 RMK AO2 P0000=
200601101258 SPECI KSEA 101258Z 21019G27KT 7SM -RA SCT009 BKN015 OVC030 12/11 A2947 RMK AO2 P0000=
200601101256 METAR KSEA 101256Z 21015G27KT 8SM -RA BKN009 BKN015 OVC025 12/11 A2947 RMK AO2 PK WND 22027/1251 SLP985 P0012 T01220106=
200601101205 SPECI KSEA 101205Z 19017G24KT 4SM -RA BR SCT015 BKN023 OVC030 12/10 A2945 RMK AO2 P0001=
200601101205 SPECI KSEA 101205Z 19017G24KT 4SM -RA BR SCT015 BKN023 OVC030 12/10 A2945 RMK AO2 P0001=
200601101156 METAR KSEA 101156Z 19013G23KT 5SM -RA BR FEW017 SCT023 OVC030 12/10 A2946 RMK AO2 PK WND 18028/1146 SLP983 P0004 60054 70113 T01220100 10122 20083 55021=
200601101056 METAR KSEA 101056Z 19018G23KT 9SM -RA FEW027 BKN035 OVC045 12/10 A2946 RMK AO2 PK WND 17028/1043 SLP981 P0010 T01220100=
200601100956 METAR KSEA 100956Z 18012KT 4SM -RA BR SCT027 OVC030 11/09 A2951 RMK AO2 SLP997 P0015 T01110089=
200601100856 METAR KSEA 100856Z 16011KT 7SM RA FEW028 OVC035 11/08 A2953 RMK AO2 PRESFR SLP005 P0002 60025 T01060083 58062=
200601100756 METAR KSEA 100756Z 15010KT 7SM -RA SCT025 BKN035 OVC046 09/08 A2959 RMK AO2 PRESFR SLP026 P0011 T00890078 401110078=
200601100724 SPECI KSEA 100724Z 13007KT 4SM -RA BR BKN025 BKN033 OVC048 09/07 A2963 RMK AO2 P0005=
200601100724 SPECI KSEA 100724Z 13007KT 4SM -RA BR BKN025 BKN033 OVC048 09/07 A2963 RMK AO2 P0005=
200601100656 METAR KSEA 100656Z 11010KT 2 1/2SM -RA BR FEW008 BKN021 OVC043 09/07 A2965 RMK AO2 SFC VIS 5 SLP048 P0012 T00890072=
200601100637 SPECI KSEA 100637Z 10005KT 2 1/2SM RA BR FEW004 BKN012 OVC034 09/07 A2967=
200601100637 SPECI KSEA 100637Z 10005KT 2 1/2SM RA BR FEW004 BKN012 OVC034 09/07 A2967 RMK AO2 SFC VIS 4 P0010=
200601100556 METAR KSEA 100556Z 36006KT 6SM -RA BR FEW007 OVC024 09/07 A2971 RMK AO2 SLP068 P0006 60021 T00890067 10111 20083 56044=
200601100456 METAR KSEA 100456Z 00000KT 4SM -RA BR FEW004 BKN019 OVC046 08/07 A2975 RMK AO2 SLP083 P0005 T00830067=
200601100356 METAR KSEA 100356Z 17007KT 8SM -RA FEW035 OVC044 09/07 A2979 RMK AO2 SLP095 P0007 T00890067=
200601100256 METAR KSEA 100256Z 22007KT 8SM RA FEW020 OVC041 09/07 A2984 RMK AO2 SLP113 P0002 60003 T00940072 58012=
200601100216 SPECI KSEA 100216Z 18010KT 10SM -RA FEW017 OVC060 10/07 A2984 RMK AO2 P0000=
200601100216 SPECI KSEA 100216Z 18010KT 10SM -RA FEW017 OVC060 10/07 A2984 RMK AO2 P0000=
200601100156 METAR KSEA 100156Z 19010KT 10SM -RA SCT017 BKN025 OVC038 11/08 A2985 RMK AO2 SLP114 P0001 T01060078=
200601100148 SPECI KSEA 100148Z 19009KT 10SM -RA FEW012 BKN017 OVC039 11/08 A2985=
200601100148 SPECI KSEA 100148Z 19009KT 10SM -RA FEW012 BKN017 OVC039 11/08 A2985 RMK AO2 P0001=
200601100126 SPECI KSEA 100126Z 19008KT 10SM -RA BKN012 OVC017 11/08 A2987 RMK AO2 P0001=
200601100126 SPECI KSEA 100126Z 19008KT 10SM -RA BKN012 OVC017 11/08 A2987 RMK AO2 P0001=
200601100056 METAR KSEA 100056Z 24007KT 10SM -RA FEW013 OVC015 11/08 A2988 RMK AO2 RAB11E26B51 SLP125 P0000 T01060083=
200601100021 SPECI KSEA 100021Z 20007KT 5SM -RA BR BKN015 OVC021 11/08 A2987 RMK AO2 RAB11 P0000=
200601100021 SPECI KSEA 100021Z 20007KT 5SM -RA BR BKN015 OVC021 11/08 A2987 RMK AO2 RAB11 P0000=
200601092356 METAR KSEA 092356Z COR 20011KT 10SM BKN015 OVC020 11/08 A2988 RMK AO2 RAB2258E15 SLP124 P0000 60016 T01060083 10111 20089 50006=
200601092256 METAR KSEA 092256Z 23011G21KT 10SM FEW010 BKN016 OVC025 11/08 A2988 RMK AO2 RAB41E54 SLP127 P0000 T01110083=
200601092156 METAR KSEA 092156Z 18010KT 10SM FEW015 BKN020 OVC025 11/08 A2985 RMK AO2 RAE09B46E56 SLP117 P0001 T01060083=
200601092056 METAR KSEA 092056Z 17007KT 10SM -RA FEW015 BKN022 OVC026 10/08 A2986 RMK AO2 SLP118 P0004 60015 T01000078 58013=
200601091956 METAR KSEA 091956Z 17006KT 6SM -RA BR OVC028 09/08 A2988 RMK AO2 SLP124 P0008 T00940078=
200601091856 METAR KSEA 091856Z 19004KT 8SM -RA OVC026 09/07 A2989 RMK AO2 SLP128 P0003 T00940072=
200601091811 SPECI KSEA 091811Z 18006KT 9SM -RA OVC028 09/07 A2990 RMK AO2 P0001=
200601091811 SPECI KSEA 091811Z 18006KT 9SM -RA OVC028 09/07 A2990 RMK AO2 P0001=
200601091756 METAR KSEA 091756Z 18007KT 10SM -RA OVC030 09/07 A2990 RMK AO2 SLP131 P0003 60022 T00890067 10089 20083 55005=
200601091656 METAR KSEA 091656Z 18009KT 7SM -RA OVC033 09/06 A2990 RMK AO2 SLP131 P0004 T00890061=
200601091556 METAR KSEA 091556Z 19006KT 8SM -RA OVC031 08/06 A2990 RMK AO2 SLP134 P0004 T00830061 $=
200601091456 METAR KSEA 091456Z 18007KT 10SM -RA OVC031 08/06 A2991 RMK AO2 SLP137 P0003 60011 T00830061 56030 $=
200601091356 METAR KSEA 091356Z 18009KT 9SM -RA BKN035 OVC049 08/06 A2994 RMK AO2 SLP146 P0005 T00830056 $=
200601091256 METAR KSEA 091256Z 16011KT 10SM -RA BKN032 OVC038 08/06 A2997 RMK AO2 SLP155 P0003 T00830056 $=
200601091156 METAR KSEA 091156Z 16013KT 10SM -RA OVC038 08/06 A3000 RMK AO2 SLP168 P0005 60041 70043 T00830056 10089 20078 58026 $=
200601091056 METAR KSEA 091056Z 16012KT 8SM RA OVC032 08/06 A3005 RMK AO2 SLP183 P0010 T00830061 $=
200601090956 METAR KSEA 090956Z 16009KT 6SM RA SCT028 OVC032 08/06 A3007 RMK AO2 SLP190 P0010 T00830056 $=
200601090912 SPECI KSEA 090912Z 16010KT 5SM RA SCT027 OVC035 08/06 A3008 RMK AO2 P0003 $=
200601090912 SPECI KSEA 090912Z 16010KT 5SM RA SCT027 OVC035 08/06 A3008 RMK AO2 P0003 $=
200601090856 METAR KSEA 090856Z 16012KT 6SM RA BKN027 OVC037 08/06 A3008 RMK AO2 SLP194 P0008 60016 T00830056 58017 $=
200601090756 METAR KSEA 090756Z 18012KT 8SM -RA BKN030 OVC037 08/06 A3010 RMK AO2 SLP200 P0006 T00830056 400940039 $=
200601090656 METAR KSEA 090656Z 18011KT 7SM -RA BKN034 BKN070 OVC085 08/06 A3013 RMK AO2 RAB40 SLP210 P0002 T00830056 $=
200601090556 METAR KSEA 090556Z 20008KT 10SM OVC035 08/06 A3013 RMK AO2 SLP212 60002 T00830056 10089 20078 56018 $=
200601090456 METAR KSEA 090456Z 17007KT 10SM BKN037 OVC045 08/06 A3013 RMK AO2 RAB02E17 SLP213 P0000 T00780056 $=
200601090356 METAR KSEA 090356Z 17006KT 10SM BKN035 OVC045 08/06 A3017 RMK AO2 RAE07 SLP224 P0000 T00780056 $=
200601090256 METAR KSEA 090256Z 14008KT 8SM -RA BKN033 OVC050 08/05 A3019 RMK AO2 SLP231 P0002 60002 T00780050 58014 $=
200601090156 METAR KSEA 090156Z 15006KT 10SM -RA BKN050 OVC070 08/05 A3020 RMK AO2 RAB06 SLP237 P0000 T00780050 $=
200601090056 METAR KSEA 090056Z 21005KT 10SM FEW035 BKN046 OVC075 08/05 A3021 RMK AO2 RAB2358E36 SLP240 P0000 T00830050 $=
200601082356 METAR KSEA 082356Z 23006KT 10SM FEW030 BKN050 OVC100 09/04 A3023 RMK AO2 RAB26E38 SLP244 P0000 60000 T00890044 10094 20072 55003 $=
200601082256 METAR KSEA 082256Z 19006KT 10SM FEW030 BKN055 OVC110 09/03 A3021 RMK AO2 SLP239 T00940033 $=
200601082156 METAR KSEA 082156Z 18010KT 10SM FEW034 BKN120 OVC200 09/03 A3021 RMK AO2 SLP237 T00940033 $=
200601082056 METAR KSEA 082056Z 20008KT 10SM SCT034 SCT120 OVC200 09/04 A3024 RMK AO2 SLP247 T00890039 50001 $=
200601081956 METAR KSEA 081956Z 20008KT 10SM FEW025 SCT034 SCT120 BKN200 09/04 A3025 RMK AO2 SLP252 T00890039 $=
200601081856 METAR KSEA 081856Z 20007KT 10SM FEW020 BKN032 BKN200 08/04 A3025 RMK AO2 SLP251 T00830039 $=
200601081756 METAR KSEA 081756Z 20008KT 10SM SCT022 BKN120 BKN250 07/03 A3023 RMK AO2 SLP246 T00720033 10072 20039 51022 $=
200601081656 METAR KSEA 081656Z 21007KT 10SM SCT022 BKN120 BKN250 06/03 A3022 RMK AO2 SLP242 T00610033 $=
200601081648 SPECI KSEA 081648Z 20006KT 10SM BKN022 BKN120 06/03 A3021 RMK AO2 $=
200601081648 SPECI KSEA 081648Z 20006KT 10SM BKN022 BKN120 06/03 A3021 RMK AO2 $=
200601081556 METAR KSEA 081556Z 20005KT 10SM FEW025 SCT120 04/02 A3018 RMK AO2 SLP228 T00440022 $=
200601081456 METAR KSEA 081456Z 19005KT 10SM FEW120 SCT160 04/02 A3017 RMK AO2 SLP223 T00440022 51012 $=
200601081356 METAR KSEA 081356Z 19006KT 10SM FEW020 SCT120 05/02 A3016 RMK AO2 SLP221 T00500022 $=
200601081346 SPECI KSEA 081346Z 19007KT 10SM FEW020 SCT160 05/02 A3015 RMK AO2 $=
200601081346 SPECI KSEA 081346Z 19007KT 10SM FEW020 SCT160 05/02 A3015 RMK AO2 $=
200601081256 METAR KSEA 081256Z 16007KT 10SM SCT015 OVC022 06/03 A3014 RMK AO2 SLP216 T00560028 $=
200601081220 SPECI KSEA 081220Z 16004KT 10SM FEW009 SCT015 BKN022 06/03 A3014 RMK AO2 $=
200601081220 SPECI KSEA 081220Z 16004KT 10SM FEW009 SCT015 BKN022 06/03 A3014 RMK AO2 $=
200601081156 METAR KSEA 081156Z 15006KT 10SM BKN009 BKN015 05/03 A3013 RMK AO2 SLP211 70027 T00500028 10061 20050 51030 $=
200601081056 METAR KSEA 081056Z 16007KT 10SM BKN009 BKN014 05/03 A3011 RMK AO2 SLP205 T00500028 $=
200601080956 METAR KSEA 080956Z 18008KT 10SM BKN009 BKN014 06/03 A3007 RMK AO2 SLP192 T00560033 $=
200601080856 METAR KSEA 080856Z 22011KT 10SM BKN010 BKN015 06/03 A3004 RMK AO2 SLP180 T00610033 51033 $=
200601080756 METAR KSEA 080756Z 22008KT 10SM BKN011 BKN024 06/03 A3001 RMK AO2 SLP171 T00610033 401170061 $=
200601080656 METAR KSEA 080656Z 22009KT 10SM BKN010 BKN110 06/03 A2998 RMK AO2 SLP160 T00610033 $=
200601080618 SPECI KSEA 080618Z 21017G22KT 10SM BKN012 BKN100 06/03 A2995 RMK AO2 $=
200601080618 SPECI KSEA 080618Z 21017G22KT 10SM BKN012 BKN100 06/03 A2995 RMK AO2 $=
200601080556 METAR KSEA 080556Z 21017G23KT 10SM SCT080 OVC100 06/03 A2994 RMK AO2 SLP146 60001 T00610033 10078 20061 51021 $=
200601080456 METAR KSEA 080456Z 21013KT 10SM SCT031 SCT110 06/03 A2993 RMK AO2 SLP142 T00610033 $=
200601080356 METAR KSEA 080356Z 22012KT 10SM SCT018 BKN034 BKN120 07/03 A2990 RMK AO2 SLP133 T00670033 $=
200601080256 METAR KSEA 080256Z 20012KT 10SM FEW028 SCT035 BKN042 07/03 A2988 RMK AO2 SLP125 60001 T00670033 51020 $=
200601080156 METAR KSEA 080156Z 19014KT 10SM BKN034 BKN042 BKN130 07/04 A2986 RMK AO2 RAE23 SLP117 P0001 T00720039 $=
200601080134 SPECI KSEA 080134Z 18012KT 10SM FEW015 BKN036 BKN070 OVC130 07/04 A2985 RMK AO2 RAE23 P0001 $=
200601080134 SPECI KSEA 080134Z 18012KT 10SM FEW015 BKN036 BKN070 OVC130 07/04 A2985 RMK AO2 RAE23 P0001 $=
200601080056 METAR KSEA 080056Z 20010KT 10SM -RA SCT020 BKN026 OVC032 07/04 A2985 RMK AO2 RAB30 SLP114 P0000 T00720044 $=
200601072356 METAR KSEA 072356Z 20014KT 10SM BKN015 BKN022 OVC030 08/04 A2982 RMK AO2 RAE48 SLP105 P0001 60023 T00780044 10117 20078 53038 $=
200601072256 METAR KSEA 072256Z 23012G19KT 7SM -RA BKN016 BKN021 OVC045 08/05 A2979 RMK AO2 SLP094 P0002 T00780050 $=
200601072245 SPECI KSEA 072245Z 22015G23KT 7SM -RA FEW006 BKN016 OVC030 08/05 A2978 RMK AO2 PRESRR P0002 $=
200601072245 SPECI KSEA 072245Z 22015G23KT 7SM -RA FEW006 BKN016 OVC030 08/05 A2978 RMK AO2 PRESRR P0002 $=
200601072236 SPECI KSEA 072236Z 22013G22KT 7SM -RA FEW006 BKN014 OVC030 08/06 A2977 RMK AO2 PRESRR P0002 $=
200601072236 SPECI KSEA 072236Z 22013G22KT 7SM -RA FEW006 BKN014 OVC030 08/06 A2977 RMK AO2 PRESRR P0002 $=
200601072212 SPECI KSEA 072212Z 21015G19KT 7SM -RA SCT009 BKN022 OVC031 08/07 A2974 RMK AO2 P0001 $=
200601072212 SPECI KSEA 072212Z 21015G19KT 7SM -RA SCT009 BKN022 OVC031 08/07 A2974 RMK AO2 P0001 $=
200601072156 METAR KSEA 072156Z 23011G20KT 5SM -RA BR BKN009 OVC030 08/06 A2973 RMK AO2 SLP075 P0004 T00830061 $=
200601072138 SPECI KSEA 072138Z 22010KT 7SM -RA BKN009 OVC033 08/07 A2972 RMK AO2 P0002 $=
200601072138 SPECI KSEA 072138Z 22010KT 7SM -RA BKN009 OVC033 08/07 A2972 RMK AO2 P0002 $=
200601072127 SPECI KSEA 072127Z 22007KT 10SM -RA SCT009 BKN021 OVC033 08/07 A2971 RMK AO2 P0001 $=
200601072127 SPECI KSEA 072127Z 22007KT 10SM -RA SCT009 BKN021 OVC033 08/07 A2971 RMK AO2 P0001 $=
200601072056 METAR KSEA 072056Z 23010KT 7SM -RA FEW012 OVC031 08/06 A2971 RMK AO2 SLP066 P0008 60016 T00830061 55000 $=
200601072027 SPECI KSEA 072027Z 24007KT 4SM -RA BR FEW014 OVC031 08/06 A2970 RMK AO2 P0006 $=
200601072027 SPECI KSEA 072027Z 24007KT 4SM -RA BR FEW014 OVC031 08/06 A2970 RMK AO2 P0006 $=
200601072018 SPECI KSEA 072018Z 23009KT 2SM -RA FEW014 OVC031 09/06 A2971=
200601072018 SPECI KSEA 072018Z 23009KT 2SM -RA FEW014 OVC031 09/06 A2971 RMK AO2 SFC VIS 3 P0004=
200601072011 SPECI KSEA 072011Z 24011G16KT 200V260 2SM RA FEW014 OVC032 09/06 A2970 RMK AO2 P0003=
200601072011 SPECI KSEA 072011Z 24011G16KT 200V260 2SM RA FEW014 OVC032 09/06 A2970 RMK AO2 P0003=
200601071958 SPECI KSEA 071958Z 26010G17KT 2SM RA FEW014 BKN028 OVC038 10/07 A2970 RMK AO2 P0001=
200601071958 SPECI KSEA 071958Z 26010G17KT 2SM RA FEW014 BKN028 OVC038 10/07 A2970 RMK AO2 P0001=
200601071956 METAR KSEA 071956Z 26011G17KT 220V280 2SM RA BR SCT018 OVC033 10/08 A2970 RMK AO2 RAB35 SLP064 P0008 T01000078=
200601071945 SPECI KSEA 071945Z 22010KT 2SM +RA BR FEW018 OVC034 11/08 A2969=
200601071945 SPECI KSEA 071945Z 22010KT 2SM +RA BR FEW018 OVC034 11/08 A2969 RMK AO2 RAB35 P0005=
200601071941 SPECI KSEA 071941Z 22007KT 2SM R16R/6000VP6000FT RA SCT026 OVC038 11/08 A2968 RMK AO2 RAB35 P0004=
200601071941 SPECI KSEA 071941Z 22007KT 2SM R16R/6000VP6000FT RA SCT026 OVC038 11/08 A2968 RMK AO2 RAB35 P0004=
200601071856 METAR KSEA 071856Z 15008KT 10SM FEW032 BKN050 BKN200 11/08 A2969 RMK AO2 SLP061 T01110078=
200601071756 METAR KSEA 071756Z 15009KT 10SM FEW030 SCT055 SCT100 BKN200 11/07 A2971 RMK AO2 SLP065 60003 T01110072 10111 20094 58003=
200601071656 METAR KSEA 071656Z 18009KT 10SM SCT026 BKN039 BKN100 BKN200 10/07 A2971 RMK AO2 RAE1559 SLP069 P0000 T01000072=
200601071607 SPECI KSEA 071607Z 19010KT 10SM SCT029 BKN055 BKN100 10/07 A2971 RMK AO2 RAE1559 P0000=
200601071607 SPECI KSEA 071607Z 19010KT 10SM SCT029 BKN055 BKN100 10/07 A2971 RMK AO2 RAE1559 P0000=
200601071556 METAR KSEA 071556Z 17010KT 8SM -RA FEW024 BKN029 OVC060 10/07 A2971 RMK AO2 RAB23 SLP069 P0000 T01000067=
200601071537 SPECI KSEA 071537Z 19010KT 8SM -RA FEW023 BKN029 OVC060 10/07 A2971 RMK AO2 RAB23 P0000=
200601071537 SPECI KSEA 071537Z 19010KT 8SM -RA FEW023 BKN029 OVC060 10/07 A2971 RMK AO2 RAB23 P0000=
200601071502 SPECI KSEA 071502Z 18010KT 10SM SCT027 SCT035 BKN065 10/07 A2972 RMK AO2=
200601071502 SPECI KSEA 071502Z 18010KT 10SM SCT027 SCT035 BKN065 10/07 A2972 RMK AO2=
200601071456 METAR KSEA 071456Z 19009KT 10SM BKN027 BKN035 OVC065 10/07 A2972 RMK AO2 RAE44 SLP069 P0001 60003 T01000067 58004=
200601071439 SPECI KSEA 071439Z 17009KT 10SM -RA BKN027 OVC035 09/07 A2972=
200601071439 SPECI KSEA 071439Z 17009KT 10SM -RA BKN027 OVC035 09/07 A2972 RMK AO2 P0001=
200601071356 METAR KSEA 071356Z 18009KT 10SM -RA SCT048 OVC060 09/08 A2973 RMK AO2 SLP073 P0002 T00940078=
200601071314 SPECI KSEA 071314Z 19010KT 10SM -RA FEW006 SCT012 OVC034 10/08 A2972 RMK AO2 P0001=
200601071314 SPECI KSEA 071314Z 19010KT 10SM -RA FEW006 SCT012 OVC034 10/08 A2972 RMK AO2 P0001=
200601071256 METAR KSEA 071256Z 21008KT 10SM -RA FEW013 BKN021 OVC028 10/08 A2973 RMK AO2 RAE01B37 SLP072 P0000 T01000083=
200601071245 SPECI KSEA 071245Z 21012KT 10SM -RA FEW007 SCT011 OVC023 10/08 A2973 RMK AO2 RAE01B37 P0000=
200601071245 SPECI KSEA 071245Z 21012KT 10SM -RA FEW007 SCT011 OVC023 10/08 A2973 RMK AO2 RAE01B37 P0000=
200601071156 METAR KSEA 071156Z 20008KT 8SM -RA BKN005 OVC010 11/09 A2973 RMK AO2 RAE10B51 CIG 004V007 SLP073 P0000 60004 70013 T01060094 10111 20106 58013=
200601071130 SPECI KSEA 071130Z 19003KT 8SM OVC006 11/09 A2974 RMK AO2 RAE10 CIG 002V009 P0000=
200601071130 SPECI KSEA 071130Z 19003KT 8SM OVC006 11/09 A2974 RMK AO2 RAE10 CIG 002V009 P0000=
200601071108 SPECI KSEA 071108Z 19003KT 7SM -RA BKN003 OVC008 11/09 A2975 RMK AO2 CIG 002V007 P0000=
200601071108 SPECI KSEA 071108Z 19003KT 7SM -RA BKN003 OVC008 11/09 A2975 RMK AO2 CIG 002V007 P0000=
200601071056 METAR KSEA 071056Z 19003KT 9SM -RA OVC006 11/09 A2975 RMK AO2 RAB18E28B50 CIG 003V009 SLP080 P0001 T01060094=
200601070956 METAR KSEA 070956Z 20005KT 9SM BKN006 OVC011 11/09 A2976 RMK AO2 RAE05B21E42 CIG 003V009 SLP084 P0002 T01060094=
200601070918 SPECI KSEA 070918Z 20003KT 7SM OVC006 11/09 A2977 RMK AO2 RAE05 CIG 001V010 P0000=
200601070918 SPECI KSEA 070918Z 20003KT 7SM OVC006 11/09 A2977 RMK AO2 RAE05 CIG 001V010 P0000=
200601070856 METAR KSEA 070856Z 18006KT 4SM -RA BR OVC004 11/09 A2977 RMK AO2 RAE03B33 CIG 001V006 SLP086 P0000 60001 T01060094 56015=
200601070824 SPECI KSEA 070824Z 18005KT 2SM OVC004 11/09 A2977 RMK AO2 SFC VIS 8 RAE03 CIG 002V006 P0000=
200601070824 SPECI KSEA 070824Z 18005KT 2SM OVC004 11/09 A2977 RMK AO2 SFC VIS 8 RAE03 CIG 002V006 P0000=
200601070815 SPECI KSEA 070815Z 19005KT 9SM OVC004 11/09 A2977 RMK AO2 RAE03 CIG 003V008 P0000=
200601070815 SPECI KSEA 070815Z 19005KT 9SM OVC004 11/09 A2977 RMK AO2 RAE03 CIG 003V008 P0000=
200601070756 METAR KSEA 070756Z 18003KT 5SM -RA BR OVC006 11/09 A2978 RMK AO2 RAB04 SLP089 P0001 T01060094 401330100=
200601070712 SPECI KSEA 070712Z 21005KT 10SM -RA BKN008 OVC025 11/09 A2979 RMK AO2 RAB04 CIG 006V012 P0000=
200601070712 SPECI KSEA 070712Z 21005KT 10SM -RA BKN008 OVC025 11/09 A2979 RMK AO2 RAB04 CIG 006V012 P0000=
200601070656 METAR KSEA 070656Z 21003KT 10SM FEW008 OVC025 11/09 A2980 RMK AO2 RAB21E32 SLP096 P0000 T01060094=
200601070621 SPECI KSEA 070621Z 22003KT 8SM -RA FEW009 OVC025 11/09 A2981 RMK AO2 RAB21 P0000=
200601070621 SPECI KSEA 070621Z 22003KT 8SM -RA FEW009 OVC025 11/09 A2981 RMK AO2 RAB21 P0000=
200601070556 METAR KSEA 070556Z 24003KT 10SM FEW014 BKN023 OVC028 11/09 A2981 RMK AO2 SLP102 60001 T01110089 10122 20100 58015=
200601070456 METAR KSEA 070456Z 00000KT 10SM FEW026 BKN065 OVC085 11/09 A2983 RMK AO2 SLP108 T01110089=
200601070356 METAR KSEA 070356Z 21003KT 10SM FEW022 BKN030 OVC055 11/09 A2984 RMK AO2 SLP112 T01110089=
200601070256 METAR KSEA 070256Z 21003KT 10SM FEW035 SCT065 SCT090 OVC150 11/09 A2986 RMK AO2 RAE07 SLP116 P0000 60001 T01060089 56015=
200601070156 METAR KSEA 070156Z 20004KT 8SM -RA SCT025 BKN038 OVC075 12/09 A2987 RMK AO2 RAB10 SLP120 P0001 T01170094=
200601070103 SPECI KSEA 070103Z 23003KT 10SM BKN025 OVC070 12/09 A2988 RMK AO2=
200601070103 SPECI KSEA 070103Z 23003KT 10SM BKN025 OVC070 12/09 A2988 RMK AO2=
200601070056 METAR KSEA 070056Z 00000KT 10SM SCT025 BKN035 OVC070 12/09 A2988 RMK AO2 SLP125 T01220089=
200601062356 METAR KSEA 062356Z 19003KT 10SM FEW015 BKN031 OVC070 12/09 A2990 RMK AO2 SLP131 T01220089 10133 20122 56013=
200601062256 METAR KSEA 062256Z 23006KT 10SM FEW025 BKN045 BKN075 OVC150 13/09 A2991 RMK AO2 SLP135 T01280089=
200601062156 METAR KSEA 062156Z 23006KT 10SM FEW040 BKN065 BKN090 OVC150 13/09 A2992 RMK AO2 SLP139 T01280094=
200601062056 METAR KSEA 062056Z 23005KT 10SM SCT060 BKN090 OVC130 13/09 A2994 RMK AO2 SLP144 T01280094 58019=
200601061956 METAR KSEA 061956Z 22010KT 10SM SCT060 BKN100 OVC130 13/09 A2996 RMK AO2 SLP151 T01280089=
200601061856 METAR KSEA 061856Z 21007KT 10SM FEW020 SCT050 BKN100 OVC130 12/08 A2998 RMK AO2 SLP158 T01220083=
200601061756 METAR KSEA 061756Z 21009KT 10SM BKN055 BKN090 OVC130 12/08 A3000 RMK AO2 RAE06 SLP164 P0000 60008 T01220083 10122 20111 53004=
200601061656 METAR KSEA 061656Z 20007KT 10SM -RA BKN045 BKN055 OVC075 12/09 A3000 RMK AO2 RAB37 SLP164 P0000 T01170089=
200601061556 METAR KSEA 061556Z 20010KT 10SM FEW035 BKN095 OVC120 12/09 A2998 RMK AO2 SLP157 T01220089=
200601061456 METAR KSEA 061456Z 21008KT 10SM SCT038 BKN100 OVC200 12/09 A2998 RMK AO2 RAE12 SLP160 P0000 60008 T01170094 58014=
200601061356 METAR KSEA 061356Z 17011KT 8SM -RA FEW039 BKN055 OVC080 12/10 A3000 RMK AO2 SLP166 P0004 T01170100=
200601061256 METAR KSEA 061256Z 19009KT 8SM -RA FEW015 BKN040 OVC075 12/10 A3003 RMK AO2 SLP176 P0004 T01170100=
200601061156 METAR KSEA 061156Z 19007KT 4SM -RA BR BKN034 OVC042 12/10 A3003 RMK AO2 SLP174 P0006 60019 70149 T01170100 10117 20106 55005=
200601061056 METAR KSEA 061056Z 18009KT 5SM RA BR SCT034 BKN042 11/09 A3002 RMK AO2 RAB14 SLP173 P0003 T01110094=
200601060956 METAR KSEA 060956Z 17008KT 10SM OVC040 11/09 A3002 RMK AO2 RAE47 SLP173 P0003 T01110089=
200601060856 METAR KSEA 060856Z 15010KT 10SM -RA FEW001 OVC047 11/09 A3004 RMK AO2 SLP179 P0004 60007 T01060089 58002=
200601060756 METAR KSEA 060756Z 16006KT 6SM -RA BR FEW030 OVC050 11/09 A3006 RMK AO2 SLP186 P0002 T01110089 401280089=
200601060656 METAR KSEA 060656Z 03003KT 5SM -RA BR FEW001 OVC060 11/09 A3004 RMK AO2 RAE28B50 SLP181 P0001 T01060089=
200601060647 SPECI KSEA 060647Z 35004KT 6SM BR FEW001 BKN060 OVC075 11/09 A3005 RMK AO2 RAE28 P0000=
200601060647 SPECI KSEA 060647Z 35004KT 6SM BR FEW001 BKN060 OVC075 11/09 A3005 RMK AO2 RAE28 P0000=
200601060556 METAR KSEA 060556Z 06007KT 10SM -RA BKN055 OVC075 11/09 A3005 RMK AO2 SLP182 P0002 60038 T01110089 10111 20100 56022=
200601060456 METAR KSEA 060456Z 02005KT 6SM -RA BR OVC060 11/09 A3006 RMK AO2 SLP187 P0006 T01060089=
200601060356 METAR KSEA 060356Z 13012KT 7SM -RA BKN049 OVC065 11/08 A3007 RMK AO2 SLP191 P0013 T01060083=
200601060256 METAR KSEA 060256Z 13010KT 6SM -RA BR BKN049 OVC065 11/08 A3011 RMK AO2 SLP204 P0007 60017 T01060083 58021=
200601060156 METAR KSEA 060156Z 16008KT 9SM -RA SCT040 OVC050 11/09 A3014 RMK AO2 SLP215 P0006 T01110094=
200601060056 METAR KSEA 060056Z 14013KT 7SM -RA BKN037 OVC049 11/09 A3017 RMK AO2 SLP223 P0004 T01110089=
200601052356 METAR KSEA 052356Z 12010KT 7SM -RA BKN050 OVC070 11/09 A3018 RMK AO2 SLP225 P0005 60052 T01060089 10111 20100 58008=
200601052256 METAR KSEA 052256Z 14009KT 3SM RA BR FEW031 BKN041 OVC047 11/09 A3020 RMK AO2 SLP233 P0014 T01060089=
200601052238 SPECI KSEA 052238Z 15009KT 2SM RA BR OVC035 11/09 A3020 RMK AO2 P0010=
200601052238 SPECI KSEA 052238Z 15009KT 2SM RA BR OVC035 11/09 A3020 RMK AO2 P0010=
200601052224 SPECI KSEA 052224Z 15009KT 3SM -RA BR OVC035 11/09 A3020=
200601052224 SPECI KSEA 052224Z 15009KT 3SM -RA BR OVC035 11/09 A3020 RMK AO2 P0006=
200601052156 METAR KSEA 052156Z 14009KT 2SM RA BR BKN033 OVC042 11/08 A3019 RMK AO2 SLP231 P0005 T01060083=
200601052056 METAR KSEA 052056Z 15008KT 7SM -RA BKN040 OVC047 11/09 A3020 RMK AO2 SLP233 P0006 60028 T01110089 58010=
200601052036 SPECI KSEA 052036Z 13008KT 4SM -RA BR OVC040 10/08 A3020 RMK AO2 P0004=
200601052036 SPECI KSEA 052036Z 13008KT 4SM -RA BR OVC040 10/08 A3020 RMK AO2 P0004=
200601052022 SPECI KSEA 052022Z 13008KT 2SM -RA BR OVC040 10/08 A3021 RMK AO2 SFC VIS 4 P0003=
200601052022 SPECI KSEA 052022Z 13008KT 2SM -RA BR OVC040 10/08 A3021 RMK AO2 SFC VIS 4 P0003=
200601051956 METAR KSEA 051956Z 13008KT 5SM RA BR OVC040 10/08 A3022 RMK AO2 SLP240 P0006 T01000083=
200601051909 SPECI KSEA 051909Z 14007KT 3SM -RA BR FEW015 OVC045 10/08 A3024 RMK AO2 P0001=
200601051909 SPECI KSEA 051909Z 14007KT 3SM -RA BR FEW015 OVC045 10/08 A3024 RMK AO2 P0001=
200601051856 METAR KSEA 051856Z 15006KT 2SM RA BR FEW013 OVC045 10/08 A3024 RMK AO2 SLP245 P0016 T01000083=
200601051837 SPECI KSEA 051837Z 16005KT 3SM RA BR FEW013 OVC045 10/08 A3024 RMK AO2 P0012=
200601051837 SPECI KSEA 051837Z 16005KT 3SM RA BR FEW013 OVC045 10/08 A3024 RMK AO2 P0012=
200601051756 METAR KSEA 051756Z 15006KT 2SM RA BR FEW034 OVC048 10/08 A3023 RMK AO2 SLP243 P0016 60040 T01000083 10111 20089 51033=
200601051731 SPECI KSEA 051731Z 16005KT 2SM RA BR OVC048 10/08 A3022 RMK AO2 PRESRR P0007=
200601051731 SPECI KSEA 051731Z 16005KT 2SM RA BR OVC048 10/08 A3022 RMK AO2 PRESRR P0007=
200601051656 METAR KSEA 051656Z 16009KT 5SM RA BR OVC050 10/08 A3019 RMK AO2 SLP229 P0015 T01000078=
200601051556 METAR KSEA 051556Z 20005KT 5SM +RA SCT046 OVC060 10/07 A3018 RMK AO2 RAB17 SLP226 P0009 T01000072=
200601051456 METAR KSEA 051456Z 00000KT 10SM BKN060 OVC100 10/04 A3013 RMK AO2 SLP210 T01000044 53003=
200601051356 METAR KSEA 051356Z 29005KT 10SM BKN060 BKN100 OVC200 10/04 A3012 RMK AO2 SLP207 T01000039=
200601051256 METAR KSEA 051256Z 17005KT 10SM BKN100 OVC180 09/05 A3012 RMK AO2 SLP208 T00890050=
200601051156 METAR KSEA 051156Z 20004KT 10SM SCT100 OVC180 11/02 A3012 RMK AO2 SLP206 70001 T01110017 10128 20094 50000=
200601051056 METAR KSEA 051056Z 00000KT 10SM SCT090 BKN110 OVC180 10/03 A3013 RMK AO2 SLP211 T01000033=
200601050956 METAR KSEA 050956Z 00000KT 10SM BKN085 OVC140 11/02 A3013 RMK AO2 SLP209 T01110022=
200601050856 METAR KSEA 050856Z 00000KT 10SM BKN090 BKN140 OVC200 12/01 A3012 RMK AO2 SLP205 T01220006 55005=
200601050756 METAR KSEA 050756Z 12008KT 10SM SCT110 OVC200 12/01 A3011 RMK AO2 SLP201 T01220006 401220056=
200601050656 METAR KSEA 050656Z 14011KT 10SM FEW140 OVC200 12/01 A3012 RMK AO2 SLP207 T01170011=
200601050556 METAR KSEA 050556Z 13011KT 10SM SCT070 SCT140 OVC200 12/01 A3013 RMK AO2 SLP212 60000 T01170011 10122 20094 56031=
200601050456 METAR KSEA 050456Z 12012KT 10SM BKN070 OVC100 12/01 A3016 RMK AO2 SLP222 T01220011=
200601050356 METAR KSEA 050356Z 12017KT 10SM SCT055 OVC085 11/01 A3019 RMK AO2 SLP230 T01110011=
200601050256 METAR KSEA 050256Z 12010KT 10SM OVC060 11/01 A3023 RMK AO2 RAE01 SLP244 P0000 60000 T01110011 58001=
200601050156 METAR KSEA 050156Z 12008KT 10SM -RA BKN065 OVC110 11/01 A3024 RMK AO2 RAB27 SLP248 P0000 T01110006=
200601050056 METAR KSEA 050056Z VRB03KT 10SM FEW075 SCT090 BKN110 OVC200 09/03 A3024 RMK AO2 SLP248 T00940033=
200601042356 METAR KSEA 042356Z 13006KT 10SM SCT100 BKN150 OVC200 11/00 A3023 RMK AO2 SLP244 T01110000 10111 20072 56030=
200601042256 METAR KSEA 042256Z 11007KT 10SM FEW090 SCT110 BKN130 OVC150 11/01 A3025 RMK AO2 SLP252 T01110006=
200601042156 METAR KSEA 042156Z 10008KT 10SM BKN110 OVC130 11/02 A3028 RMK AO2 SLP262 T01060022=
200601042056 METAR KSEA 042056Z 09005KT 10SM SCT110 BKN130 OVC150 11/02 A3032 RMK AO2 SLP275 T01060022 56012=
200601041956 METAR KSEA 041956Z 00000KT 10SM SCT110 BKN130 OVC150 10/02 A3034 RMK AO2 SLP281 T01000022=
200601041856 METAR KSEA 041856Z 10009KT 10SM FEW110 BKN130 OVC150 09/02 A3034 RMK AO2 SLP282 BINOVC N-W T00890022=
200601041756 METAR KSEA 041756Z 14006KT 10SM SCT110 BKN130 OVC150 07/03 A3036 RMK AO2 SLP289 60001 T00720028 10089 20056 51016=
200601041656 METAR KSEA 041656Z 12008KT 10SM SCT110 OVC130 07/03 A3035 RMK AO2 SLP286 BINOVC OHD T00720028=
200601041556 METAR KSEA 041556Z 13007KT 10SM FEW070 SCT110 BKN130 07/03 A3033 RMK AO2 SLP280 T00670028=
200601041456 METAR KSEA 041456Z COR 17005KT 10SM FEW060 SCT110 06/03 A3031 RMK AO2 SLP273 60001 T00610028 53007=
200601041356 METAR KSEA 041356Z 20005KT 10SM SCT060 SCT100 06/02 A3031 RMK AO2 SLP272 T00610022=
200601041256 METAR KSEA 041256Z 17005KT 10SM SCT047 BKN060 BKN100 07/03 A3028 RMK AO2 RAB1159E40 SLP262 P0001 T00670033=
200601041156 METAR KSEA 041156Z 19009KT 10SM BKN045 BKN055 OVC100 08/03 A3029 RMK AO2 SLP266 60000 70015 T00830028 10089 20067 51037=
200601041056 METAR KSEA 041056Z 19011KT 10SM SCT037 BKN060 08/03 A3026 RMK AO2 SLP256 T00830033=
200601040956 METAR KSEA 040956Z 18011KT 10SM FEW043 BKN055 OVC080 08/03 A3022 RMK AO2 SLP243 T00780033=
200601040856 METAR KSEA 040856Z 18011KT 10SM SCT028 BKN031 BKN070 07/03 A3018 RMK AO2 SLP228 60000 T00720033 51035=
200601040809 SPECI KSEA 040809Z 18012KT 10SM SCT028 BKN031 BKN070 07/03 A3015 RMK AO2=
200601040809 SPECI KSEA 040809Z 18012KT 10SM SCT028 BKN031 BKN070 07/03 A3015 RMK AO2=
200601040756 METAR KSEA 040756Z 18013KT 10SM BKN028 BKN045 OVC100 07/03 A3015 RMK AO2 SLP218 T00720033 400830033=
200601040734 SPECI KSEA 040734Z 18010KT 10SM BKN028 BKN045 OVC100 07/04 A3014=
200601040734 SPECI KSEA 040734Z 18010KT 10SM BKN028 BKN045 OVC100 07/04 A3014 RMK AO2=
200601040656 METAR KSEA 040656Z 18011KT 10SM BKN036 OVC043 07/04 A3012 RMK AO2 RAE02B31E42 PRESRR SLP208 P0000 T00670044=
200601040556 METAR KSEA 040556Z 19016G22KT 10SM -RA FEW030 OVC050 07/04 A3007 RMK AO2 RAB02 SLP192 P0005 60009 T00720044 10078 20061 53039=
200601040456 METAR KSEA 040456Z 20012KT 10SM BKN031 OVC041 07/04 A3003 RMK AO2 PRESRR SLP178 T00720044=
200601040356 METAR KSEA 040356Z 16011KT 10SM BKN032 OVC048 07/04 A2998 RMK AO2 SLP160 T00720044=
200601040256 METAR KSEA 040256Z 15010KT 10SM SCT030 BKN034 OVC047 07/04 A2996 RMK AO2 RAE19 SLP152 P0000 60004 T00670044 51034=
200601040156 METAR KSEA 040156Z 15005KT 10SM -RA FEW020 OVC034 07/05 A2992 RMK AO2 SLP141 P0002 T00670050=
200601040056 METAR KSEA 040056Z 22004KT 10SM -RA SCT023 BKN032 OVC041 07/04 A2990 RMK AO2 SLP132 P0002 T00670044=
200601032356 METAR KSEA 032356Z 09006KT 9SM -RA BKN032 OVC041 07/04 A2986 RMK AO2 SLP118 P0004 60006 T00720039 10083 20061 53016=
200601032256 METAR KSEA 032256Z 00000KT 9SM -RA BKN036 OVC043 07/04 A2983 RMK AO2 RAB2158 SLP111 P0000 T00720039=
200601032156 METAR KSEA 032156Z 13007KT 10SM SCT035 OVC045 08/03 A2980 RMK AO2 RAE22 SLP098 P0000 T00780028=
200601032104 SPECI KSEA 032104Z 12008KT 10SM -RA SCT029 BKN038 OVC045 08/02 A2981 RMK AO2 P0000=
200601032104 SPECI KSEA 032104Z 12008KT 10SM -RA SCT029 BKN038 OVC045 08/02 A2981 RMK AO2 P0000=
200601032056 METAR KSEA 032056Z 13009KT 10SM -RA BKN029 OVC038 08/02 A2981 RMK AO2 SLP102 P0001 60002 T00780022 58016=
200601031956 METAR KSEA 031956Z 15006KT 10SM -RA BKN027 OVC035 07/02 A2983 RMK AO2 SLP108 P0001 T00720022=
200601031928 SPECI KSEA 031928Z 14008KT 9SM -RA BKN029 OVC038 07/02 A2984 RMK AO2 P0001=
200601031928 SPECI KSEA 031928Z 14008KT 9SM -RA BKN029 OVC038 07/02 A2984 RMK AO2 P0001=
200601031856 METAR KSEA 031856Z 18007KT 10SM -RA SCT025 BKN035 OVC045 07/01 A2985 RMK AO2 RAB16 SLP117 P0000 T00720011=
200601031756 METAR KSEA 031756Z 15007KT 10SM SCT040 BKN060 BKN100 BKN130 OVC200 06/01 A2986 RMK AO2 SLP118 T00610011 10067 20033 53007=
200601031656 METAR KSEA 031656Z 12008KT 10SM FEW080 SCT110 BKN150 OVC200 06/01 A2984 RMK AO2 SLP111 T00610011=
200601031556 METAR KSEA 031556Z 15005KT 10SM SCT050 BKN150 04/01 A2984 RMK AO2 SLP112 T00390011 $=
200601031456 METAR KSEA 031456Z 15006KT 10SM SCT150 04/02 A2983 RMK AO2 SLP111 T00440017 50000 $=
200601031356 METAR KSEA 031356Z COR 12008KT 10SM FEW065 SCT150 05/02 A2984 RMK AO2 SLP111 T00500022 $=
200601031256 METAR KSEA 031256Z 14004KT 10SM FEW065 SCT150 04/02 A2984 RMK AO2 SLP112 T00390017 $=
200601031156 METAR KSEA 031156Z 13006KT 10SM SCT065 SCT150 04/02 A2983 RMK AO2 SLP111 70027 T00440017 10061 20039 50007 $=
200601031056 METAR KSEA 031056Z 14007KT 10SM FEW041 BKN065 05/03 A2984 RMK AO2 SLP114 T00500028 $=
200601030956 METAR KSEA 030956Z 13005KT 10SM BKN060 BKN150 05/03 A2983 RMK AO2 SLP109 T00500028 $=
200601030856 METAR KSEA 030856Z 13004KT 10SM FEW029 BKN065 05/03 A2981 RMK AO2 SLP104 T00500028 51018 $=
200601030756 METAR KSEA 030756Z 18003KT 10SM FEW022 SCT060 05/03 A2980 RMK AO2 SLP100 T00500028 400940050 $=
200601030734 SPECI KSEA 030734Z 16003KT 10SM SCT025 SCT060 06/03 A2980 RMK AO2 $=
200601030734 SPECI KSEA 030734Z 16003KT 10SM SCT025 SCT060 06/03 A2980 RMK AO2 $=
200601030656 METAR KSEA 030656Z 18004KT 10SM BKN021 06/03 A2979 RMK AO2 SLP094 T00560033 $=
200601030646 SPECI KSEA 030646Z 20004KT 10SM BKN021 06/03 A2978 RMK AO2 $=
200601030646 SPECI KSEA 030646Z 20004KT 10SM BKN021 06/03 A2978 RMK AO2 $=
200601030626 SPECI KSEA 030626Z 19004KT 10SM SCT021 05/03 A2977 RMK AO2 $=
200601030626 SPECI KSEA 030626Z 19004KT 10SM SCT021 05/03 A2977 RMK AO2 $=
200601030556 METAR KSEA 030556Z 16004KT 10SM FEW008 BKN019 06/04 A2976 RMK AO2 SLP086 60000 T00610039 10072 20056 52019 $=
200601030456 METAR KSEA 030456Z 21005KT 10SM FEW008 OVC017 07/05 A2974 RMK AO2 SLP079 T00720050 $=
200601030356 METAR KSEA 030356Z 18006KT 10SM FEW007 OVC017 07/05 A2972 RMK AO2 SLP073 T00720050 $=
200601030320 SPECI KSEA 030320Z 18006KT 10SM SCT007 OVC015 07/05 A2971 RMK AO2 $=
200601030320 SPECI KSEA 030320Z 18006KT 10SM SCT007 OVC015 07/05 A2971 RMK AO2 $=
200601030256 METAR KSEA 030256Z 18006KT 10SM SCT006 OVC013 07/05 A2970 RMK AO2 SLP066 60000 T00720050 51012 $=
200601030241 SPECI KSEA 030241Z 18006KT 10SM SCT008 OVC013 07/05 A2970 RMK AO2 $=
200601030241 SPECI KSEA 030241Z 18006KT 10SM SCT008 OVC013 07/05 A2970 RMK AO2 $=
200601030159 SPECI KSEA 030159Z 18006KT 10SM BKN008 OVC016 07/06 A2969 RMK AO2 $=
200601030159 SPECI KSEA 030159Z 18006KT 10SM BKN008 OVC016 07/06 A2969 RMK AO2 $=
200601030156 METAR KSEA 030156Z 18006KT 10SM SCT008 OVC016 07/06 A2969 RMK AO2 SLP062 T00720056 $=
200601030135 SPECI KSEA 030135Z 18006KT 10SM SCT008 OVC016 07/06 A2969 RMK AO2 $=
200601030135 SPECI KSEA 030135Z 18006KT 10SM SCT008 OVC016 07/06 A2969 RMK AO2 $=
200601030056 METAR KSEA 030056Z 18007KT 10SM SCT007 OVC012 07/06 A2969 RMK AO2 RAB08E17 SLP061 P0000 T00720056 $=
200601030016 SPECI KSEA 030016Z 18006KT 8SM -RA FEW006 BKN013 OVC055 07/05 A2968 RMK AO2 RAB08 P0000 $=
200601030016 SPECI KSEA 030016Z 18006KT 8SM -RA FEW006 BKN013 OVC055 07/05 A2968 RMK AO2 RAB08 P0000 $=
200601022356 METAR KSEA 022356Z 19006KT 10SM FEW006 BKN023 OVC055 07/05 A2967 RMK AO2 RAE18 SLP053 P0001 60021 T00720050 10078 20072 53015 $=
200601022256 METAR KSEA 022256Z 20007KT 9SM -RA FEW005 SCT009 OVC022 07/05 A2965 RMK AO2 SLP047 P0004 T00720050 $=
200601022241 SPECI KSEA 022241Z 22005KT 8SM -RA SCT009 BKN020 OVC027 07/05 A2964 RMK AO2 P0003 $=
200601022241 SPECI KSEA 022241Z 22005KT 8SM -RA SCT009 BKN020 OVC027 07/05 A2964 RMK AO2 P0003 $=
200601022156 METAR KSEA 022156Z 22006KT 9SM -RA SCT007 BKN013 OVC037 07/05 A2963 RMK AO2 SLP040 P0002 T00720050 $=
200601022145 SPECI KSEA 022145Z 21005KT 10SM -RA FEW005 BKN010 OVC034 08/06 A2963 RMK AO2 P0001 $=
200601022145 SPECI KSEA 022145Z 21005KT 10SM -RA FEW005 BKN010 OVC034 08/06 A2963 RMK AO2 P0001 $=
200601022113 SPECI KSEA 022113Z 19006KT 9SM -RA SCT005 SCT009 OVC022 07/06 A2963 RMK AO2 P0000 $=
200601022113 SPECI KSEA 022113Z 19006KT 9SM -RA SCT005 SCT009 OVC022 07/06 A2963 RMK AO2 P0000 $=
200601022056 METAR KSEA 022056Z 19005KT 8SM -RA SCT005 SCT013 OVC035 07/06 A2962 RMK AO2 SLP039 P0004 60014 T00720056 51004 $=
200601022018 SPECI KSEA 022018Z 20007KT 7SM -RA SCT005 BKN015 OVC032 07/06 A2963 RMK AO2 P0002 $=
200601022018 SPECI KSEA 022018Z 20007KT 7SM -RA SCT005 BKN015 OVC032 07/06 A2963 RMK AO2 P0002 $=
200601021956 METAR KSEA 021956Z 20006KT 2SM -RA BR SCT002 BKN005 OVC029 07/06 A2962 RMK AO2 SFC VIS 6 SLP038 P0007 T00720056 $=
200601021946 SPECI KSEA 021946Z 20008KT 2SM RA BR FEW002 SCT007 OVC029 07/06 A2962 RMK AO2 SFC VIS 4 P0006 $=
200601021946 SPECI KSEA 021946Z 20008KT 2SM RA BR FEW002 SCT007 OVC029 07/06 A2962 RMK AO2 SFC VIS 4 P0006 $=
200601021930 SPECI KSEA 021930Z 22004KT 2SM -RA SCT002 SCT010 OVC031 08/06 A2963 RMK AO2 SFC VIS 8 P0004 $=
200601021930 SPECI KSEA 021930Z 22004KT 2SM -RA SCT002 SCT010 OVC031 08/06 A2963 RMK AO2 SFC VIS 8 P0004 $=
200601021914 SPECI KSEA 021914Z 24004KT 2SM -RA SCT002 BKN021 OVC033 08/06 A2963 RMK AO2 SFC VIS 8 P0002 $=
200601021914 SPECI KSEA 021914Z 24004KT 2SM -RA SCT002 BKN021 OVC033 08/06 A2963 RMK AO2 SFC VIS 8 P0002 $=
200601021856 METAR KSEA 021856Z 23004KT 2SM -RA BR SCT001 BKN002 OVC007 08/06 A2963 RMK AO2 SFC VIS 5 SLP039 P0003 T00780061 $=
200601021825 SPECI KSEA 021825Z 22007KT 10SM -RA FEW002 BKN004 OVC009 08/06 A2962 RMK AO2 P0001 $=
200601021825 SPECI KSEA 021825Z 22007KT 10SM -RA FEW002 BKN004 OVC009 08/06 A2962 RMK AO2 P0001 $=
200601021756 METAR KSEA 021756Z 23006KT 10SM -RA FEW004 BKN009 OVC031 08/06 A2961 RMK AO2 SLP035 P0002 60006 T00780061 10089 20067 53022 $=
200601021656 METAR KSEA 021656Z 21005KT 10SM -RA FEW005 SCT009 OVC035 08/06 A2959 RMK AO2 SLP027 P0002 T00780061 $=
200601021611 SPECI KSEA 021611Z 17005KT 10SM BKN007 BKN035 OVC050 07/06 A2957 RMK AO2 RAE10 P0000 $=
200601021611 SPECI KSEA 021611Z 17005KT 10SM BKN007 BKN035 OVC050 07/06 A2957 RMK AO2 RAE10 P0000 $=
200601021556 METAR KSEA 021556Z 16004KT 10SM -RA SCT007 BKN048 OVC085 07/06 A2957 RMK AO2 RAE33B53 SLP019 P0000 T00720056 $=
200601021543 SPECI KSEA 021543Z 17004KT 10SM FEW007 BKN055 OVC080 07/06 A2956 RMK AO2 RAE33 P0000 $=
200601021543 SPECI KSEA 021543Z 17004KT 10SM FEW007 BKN055 OVC080 07/06 A2956 RMK AO2 RAE33 P0000 $=
200601021456 METAR KSEA 021456Z 00000KT 10SM -RA OVC042 07/05 A2955 RMK AO2 RAE20B38 SLP012 P0001 60002 T00720050 53013 $=
200601021356 METAR KSEA 021356Z 00000KT 10SM -RA BKN036 OVC044 07/04 A2954 RMK AO2 RAB17 SLP008 P0001 T00720039 $=
200601021256 METAR KSEA 021256Z 15004KT 10SM OVC085 08/04 A2951 RMK AO2 RAE05 SLP000 P0000 T00780039 $=
200601021156 METAR KSEA 021156Z 13007KT 10SM -RA BKN042 OVC055 09/04 A2951 RMK AO2 RAB31 SLP997 P0001 60005 70010 T00890044 10094 20078 51009 $=
200601021056 METAR KSEA 021056Z 16004KT 10SM BKN080 OVC090 08/05 A2950 RMK AO2 RAE38 SLP997 P0001 T00780050 $=
200601020956 METAR KSEA 020956Z 18014KT 9SM -RA BKN038 BKN050 OVC065 09/05 A2949 RMK AO2 RAB33 SLP993 P0001 T00890050 $=
200601020856 METAR KSEA 020856Z 16008KT 10SM SCT080 OVC095 08/05 A2948 RMK AO2 RAE20 SLP989 P0001 60002 T00830050 53009 $=
200601020756 METAR KSEA 020756Z 23007KT 10SM -RA BKN040 BKN049 OVC060 09/05 A2947 RMK AO2 RAB26 SLP985 P0001 T00940050 401440078 $=
200601020656 METAR KSEA 020656Z 21007KT 10SM FEW050 SCT090 BKN110 09/05 A2945 RMK AO2 SLP981 T00890050 $=
200601020556 METAR KSEA 020556Z 17005KT 10SM SCT039 BKN049 BKN060 09/05 A2945 RMK AO2 SLP980 60003 T00890050 10128 20089 51020 $=
200601020456 METAR KSEA 020456Z 22004KT 10SM BKN041 OVC100 10/04 A2944 RMK AO2 RAB18E44 SLP976 P0001 T01000044 $=
200601020356 METAR KSEA 020356Z 20010KT 10SM BKN045 BKN055 OVC100 11/03 A2942 RMK AO2 SLP970 T01110033 $=
200601020256 METAR KSEA 020256Z 19011KT 10SM SCT060 BKN090 BKN150 12/03 A2939 RMK AO2 SLP960 60002 T01170028 51034 $=
200601020156 METAR KSEA 020156Z 19011G18KT 10SM SCT050 BKN070 BKN095 BKN150 12/03 A2936 RMK AO2 PK WND 16027/0106 RAE19 SLP950 P0000 T01170028 $=
200601020056 METAR KSEA 020056Z 16013KT 10SM -RA BKN038 BKN049 BKN060 BKN150 11/04 A2933 RMK AO2 PK WND 17038/0042 RAB27 SLP937 P0002 T01110044 $=
200601012356 METAR KSEA 012356Z 18016G21KT 10SM FEW027 BKN055 BKN080 BKN150 13/02 A2929 RMK AO2 PK WND 16028/2338 SLP925 60000 T01280022 10144 20106 51017 $=
200601012256 METAR KSEA 012256Z 18021G29KT 10SM FEW025 SCT060 BKN200 13/03 A2927 RMK AO2 PK WND 18029/2253 SLP919 VCSH SW-W-N T01280028 $=
200601012156 METAR KSEA 012156Z 19016G26KT 10SM FEW035 SCT060 BKN200 14/03 A2927 RMK AO2 PK WND 19043/2104 RAB06E15 SLP917 VCSH SW P0000 T01440033 $=
200601012056 METAR KSEA 012056Z 16013KT 10SM SCT035 OVC060 12/02 A2924 RMK AO2 RAB25E45 SLP908 VCSH S-W P0000 60000 T01220022 55007 $=
200601011956 METAR KSEA 011956Z 14014KT 10SM FEW035 BKN080 BKN200 12/02 A2922 RMK AO2 SLP901 T01220022 $=
200601011856 METAR KSEA 011856Z 12016KT 10SM SCT040 BKN095 BKN150 11/02 A2925 RMK AO2 SLP912 T01110017 $=
200601011756 METAR KSEA 011756Z 11018G25KT 10SM FEW035 BKN050 BKN100 11/02 A2926 RMK AO2 PK WND 12028/1732 RAE00B34E52 SLP915 P0000 60002 T01060017 10106 20078 56046 $=
200601011656 METAR KSEA 011656Z 11015G18KT 10SM -RA BKN050 OVC075 10/02 A2930 RMK AO2 RAB50 SLP928 P0000 T01000022 $=
200601011556 METAR KSEA 011556Z 11014KT 10SM BKN045 OVC075 09/03 A2934 RMK AO2 RAE41 SLP943 P0001 T00890033 $=
200601011456 METAR KSEA 011456Z 11009KT 10SM -RA OVC045 08/03 A2940 RMK AO2 RAB12 SLP962 P0001 60001 T00830033 58029 $=
200601011356 METAR KSEA 011356Z 14011KT 10SM OVC055 08/04 A2943 RMK AO2 RAB16E26 SLP972 P0000 T00780039 $=
200601011256 METAR KSEA 011256Z 12010KT 10SM FEW047 BKN055 OVC110 08/04 A2946 RMK AO2 SLP982 T00830039 $=
200601011156 METAR KSEA 011156Z 13009KT 10SM SCT055 08/04 A2948 RMK AO2 SLP991 60008 70022 T00830044 10089 20078 58009 $=
200601011056 METAR KSEA 011056Z 15008KT 10SM SCT050 08/06 A2951 RMK AO2 SLP999 T00830056 $=
200601010956 METAR KSEA 010956Z 15006KT 10SM FEW037 BKN046 BKN060 08/06 A2951 RMK AO2 RAB00E39 SLP999 P0002 T00830056 $=
200601010856 METAR KSEA 010856Z 20008KT 10SM FEW032 BKN047 09/06 A2951 RMK AO2 SLP000 60006 T00890056 51022 $=
200601010756 METAR KSEA 010756Z 19010KT 10SM FEW027 BKN038 08/07 A2950 RMK AO2 RAE36 SLP995 P0002 T00830072 401060083 $=
200601010656 METAR KSEA 010656Z 21010KT 9SM -RA FEW017 SCT023 OVC039 09/07 A2947 RMK AO2 SLP986 P0004 T00890067 $=
200601010634 SPECI KSEA 010634Z 20009KT 9SM -RA FEW017 SCT024 OVC039 09/07 A2946 RMK AO2 P0003 $=
200601010634 SPECI KSEA 010634Z 20009KT 9SM -RA FEW017 SCT024 OVC039 09/07 A2946 RMK AO2 P0003 $=
200601010556 METAR KSEA 010556Z 20008KT 5SM -RA BR FEW013 BKN029 OVC043 09/07 A2945 RMK AO2 RAB19 SLP978 P0007 60007 T00890067 10100 20089 53029 $=
200601010534 SPECI KSEA 010534Z 22010KT 8SM -RA SCT020 BKN026 OVC035 09/06 A2943=
200601010534 SPECI KSEA 010534Z 22010KT 8SM -RA SCT020 BKN026 OVC035 09/06 A2943 RMK AO2 RAB19 P0001 $=
200601010456 METAR KSEA 010456Z 19013KT 10SM FEW030 BKN040 09/06 A2940 RMK AO2 RAE09 SLP964 P0000 T00940061 $=
200601010356 METAR KSEA 010356Z 19011KT 10SM -RA SCT024 SCT044 OVC050 09/07 A2939 RMK AO2 RAB53 SLP958 P0000 T00940067 $=
200601010256 METAR KSEA 010256Z 18009KT 10SM FEW027 BKN050 OVC070 10/07 A2936 RMK AO2 SLP948 T01000067 51034 $=
200601010156 METAR KSEA 010156Z 20007KT 10SM FEW008 SCT023 BKN040 OVC130 10/08 A2932 RMK AO2 SLP936 T01000078 $=
200601010056 METAR KSEA 010056Z 20007KT 10SM FEW008 SCT021 BKN055 OVC130 10/08 A2930 RMK AO2 SLP927 T01000078 $=
200601010004 SPECI KSEA 010004Z 20006KT 10SM FEW008 SCT024 OVC046 10/08 A2926 RMK AO2 $=
200601010004 SPECI KSEA 010004Z 20006KT 10SM FEW008 SCT024 OVC046 10/08 A2926 RMK AO2 $=

# No short TAF reports from KSEA in databse.

###################################
#  large TAF from KSEA
###################################
200601312327 TAF KSEA 312327Z 010024 16014G22KT P6SM -RA SCT017 OVC030
                      TEMPO 0002 4SM RA OVC017 FM0200 18012KT 5SM
                       RA BKN020 OVC035 FM0600 20017G25KT P6SM
                       -SHRA BKN025 OVC045 FM1200 21013KT P6SM
                       SCT030 BKN060
                      TEMPO 1216 -SHRA BKN030 OVC060=
200601312300 KSEA 010428Z 010424 22015G19KT 6SM -RA BR BKN019 OVC025 WS020/20050KT
                       FM0600 20017G25KT P6SM -SHRA BKN025 OVC045
                       FM1200 21013KT P6SM SCT030 BKN060
                      TEMPO 1216 -SHRA BKN030 OVC060=
200601312213 KSEA 312213Z 312218 18014G22KT P6SM -RA BKN025 OVC040
                      TEMPO 2202 5SM RA OVC020 FM0200 18012KT 5SM
                       RA BKN020 OVC035 FM0600 20015G23KT P6SM
                       -SHRA BKN025 OVC045=
200601311729 TAF KSEA 311729Z 311818 14007KT P6SM -RA SCT030 BKN040 OVC060
                      TEMPO 1822 -RA BKN025 OVC040 FM2200 17008KT
                       P6SM -RA BKN020 OVC035 FM0200 18010KT 5SM
                       RA BKN020 OVC035 FM0600 20015G23KT P6SM
                       -SHRA BKN025 OVC045=
200601311226 KSEA 311226Z 311212 21012G19KT P6SM SCT025 BKN040 OVC150 FM1800
                       17008KT P6SM -RA BKN035 OVC060 FM2200 17012KT
                       P6SM -RA BKN020 OVC035 FM0200 18012G20KT
                       5SM RA BKN020 OVC035 FM0800 20022G32KT 5SM
                       SHRA BKN015 OVC030=
200601311124 TAF KSEA 311124Z 311212 18012KT P6SM SCT019 BKN150 FM1800 17008KT
                       P6SM -RA BKN035 OVC060 FM2200 17012KT P6SM
                       -RA BKN020 OVC035 FM0200 18012G20KT 5SM
                       RA BKN020 OVC035 FM0800 20022G32KT 5SM SHRA
                       BKN015 OVC030=
200601310918 KSEA 310918Z 310906 21011KT P6SM SCT019 BKN200
                      TEMPO 0912 BKN019 BKN200 FM1200 17009KT P6SM
                       SCT020 BKN060 FM1800 17008KT P6SM -RA BKN035
                       OVC060 FM2200 17012KT P6SM -RA BKN020 OVC035
                       FM0200 18012G20KT 5SM RA BKN020 OVC035=
200601310801 KSEA 310801Z 310806 21011KT P6SM SCT021 BKN200 FM1200 17009KT P6SM
                       SCT020 BKN060 FM1800 17008KT P6SM -RA BKN035
                       OVC060 FM2200 17012KT P6SM -RA BKN020 OVC035
                       FM0200 18012G20KT 5SM RA BKN020 OVC035=
200601310527 TAF KSEA 310527Z 310606 19017KT P6SM SCT017 BKN100
                      TEMPO 0610 BKN016 BKN100 FM1200 17009KT P6SM
                       SCT020 BKN060 FM1800 17008KT P6SM -RA BKN035
                       OVC060 FM2200 17012KT P6SM -RA BKN020 OVC035
                       FM0200 18012G20KT 5SM RA BKN020 OVC035=
200601302326 TAF KSEA 302326Z 310024 21008KT P6SM SCT025 SCT050
                      TEMPO 0002 BKN025 BKN050 FM0200 18006KT P6SM
                       SCT025 BKN060 FM1800 17008KT P6SM -RA BKN035
                       OVC060 FM2200 17012KT P6SM -RA BKN020 OVC035=
200601302200 KSEA 302200Z 302218 23012G18KT P6SM SCT017 OVC050
                      TEMPO 2202 BKN017 OVC030 FM0200 20010KT P6SM
                       SCT025 BKN060=
200601301733 TAF KSEA 301733Z 301818 23014G22KT P6SM SCT017 OVC050
                      TEMPO 1822 -SHRA BKN017 OVC030 FM0100 20012KT
                       P6SM SCT025 BKN060=
200601301613 KSEA 301613Z 301612 23012G18KT P6SM SCT008 SCT015 OVC050
                      TEMPO 1618 -SHRA SCT008 OVC015 FM1800 22013G23KT
                       P6SM -SHRA SCT025 BKN040 FM0000 22012KT
                       P6SM -SHRA SCT025 BKN040 FM0600 18009KT
                       P6SM VCSH SCT025 OVC040=
200601301353 KSEA 301353Z 301412 23012KT P6SM -SHRA SCT013 OVC050
                      TEMPO 1416 4SM SHRA FEW005 BKN013 OVC030
                       FM1800 22013G23KT P6SM -SHRA SCT025 BKN040
                       FM0000 22012KT P6SM -SHRA SCT025 BKN040
                       FM0600 18009KT P6SM VCSH SCT025 OVC040=
200601301223 KSEA 301223Z 301212 23011G17KT P6SM SCT013 OVC025
                      TEMPO 1215 3SM +SHRA BKN013 BKN019 OVC027
                       FM1800 22013G23KT P6SM -SHRA SCT025 BKN040
                       FM0000 22012KT P6SM -SHRA SCT025 BKN040
                       FM0600 18009KT P6SM VCSH SCT025 OVC040=
200601301120 TAF KSEA 301120Z 301212 20015G22KT P6SM -SHRA FEW011 BKN019 OVC027
                       FM1800 22013G23KT P6SM -SHRA SCT025 BKN040
                       FM0000 22012KT P6SM -SHRA SCT025 BKN040
                       FM0600 18009KT P6SM VCSH SCT025 OVC040=
200601300926 KSEA 300926Z 300906 17010KT P6SM -SHRA SCT013 BKN035 OVC060
                      TEMPO 0912 5SM -SHRA BKN013 OVC035 FM1200
                       20012KT P6SM -SHRA BKN013 BKN022 BKN035
                       FM1500 21012KT P6SM -SHRA SCT015 BKN025
                       BKN040 FM1800 22013G23KT P6SM -SHRA SCT025
                       BKN040 FM0000 22012KT P6SM -SHRA SCT025
                       BKN040=
200601300601 TAF KSEA 300601Z 300606 18018G24KT P6SM -RA OVC035 WS020/20060KT
                       FM0900 21012G20KT P6SM -SHRA BKN012 BKN022
                       BKN040 FM1500 21012KT P6SM -SHRA SCT015
                       BKN025 BKN040 FM1800 22013G23KT P6SM -SHRA
                       SCT025 BKN040 FM0000 22012KT P6SM -SHRA
                       SCT025 BKN040=
200601292341 TAF KSEA 292341Z 300024 14008KT 4SM RA SCT015 OVC025 WS020/20060KT
                       FM0600 18014KT 4SM -RA SCT006 BKN015 OVC025
                       WS020/20060KT
                      TEMPO 0609 2SM -RA BKN006 OVC015 FM0900 21012KT
                       P6SM -SHRA BKN012 BKN022 BKN040 FM1500 21012KT
                       P6SM -SHRA SCT015 BKN025 BKN040=
200601291740 TAF KSEA 291740Z 291818 15008KT P6SM SCT040 OVC080 FM2000 15008KT
                       P6SM -RA SCT025 OVC040
                      TEMPO 2024 5SM -RA BKN025 OVC040 FM0000 19012KT
                       5SM -RA SCT006 BKN012 OVC022 FM0900 19008KT
                       P6SM VCSH SCT012 BKN022 BKN040=
200601291426 KSEA 291426Z 291412 19008KT P6SM SCT025 OVC040
                      TEMPO 1416 BKN025 OVC040 FM1600 17008KT P6SM
                       SCT025 SCT040 OVC100
                      TEMPO 1620 -RA SCT025 OVC040 FM2000 16008KT
                       P6SM -RA SCT012 BKN018 OVC030 FM0000 19012G22KT
                       5SM RA BR BKN015 OVC025 FM0400 20012G20KT
                       P6SM -SHRA BKN015 BKN025 OVC050 FM1000 20010KT
                       P6SM VCSH SCT015 BKN025 BKN050=
200601291126 TAF KSEA 291126Z 291212 20012KT P6SM SCT014 BKN022 BKN130 FM1400
                       17008KT P6SM SCT020 OVC040
                      TEMPO 1620 -RA FM2000 16008KT P6SM -RA SCT012
                       BKN018 OVC030 FM0000 19012G22KT 5SM RA BR
                       BKN015 OVC025 FM0400 20012G20KT P6SM -SHRA
                       BKN015 BKN025 OVC050 FM1000 20010KT P6SM
                       VCSH SCT015 BKN025 BKN050=
200601290520 TAF KSEA 290520Z 290606 18013KT P6SM VCSH BKN019 BKN090 FM0700
                       18008KT P6SM BKN019 BKN045 FM1400 15008KT
                       P6SM -RA SCT020 OVC040
                      TEMPO 1418 BKN020 OVC040 FM1800 16008KT P6SM
                       -RA SCT012 BKN018 OVC030 FM0000 19012G22KT
                       5SM RA BR BKN015 OVC025=
200601290322 KSEA 290322Z 290324 20013G19KT P6SM VCSH BKN019 BKN090 FM0700 18008KT
                       P6SM BKN019 BKN045 FM1400 15008KT P6SM -RA
                       SCT020 OVC040
                      TEMPO 1418 BKN020 OVC040 FM1800 15008KT P6SM
                       -RA SCT012 BKN018 OVC030=
200601290232 TAF AMD KSEA 290232Z 290324 21012KT P6SM VCSH SCT025 BKN080
                      TEMPO 0306 BKN025 FM0700 18008KT P6SM SCT025
                       BKN045 FM1400 15008KT P6SM -RA OVC040 FM1900
                       15008KT P6SM -RA SCT012 BKN018 OVC030=
200601282340 TAF KSEA 282340Z 290024 21012KT P6SM VCSH BKN025 BKN050 FM0300
                       18008KT P6SM SCT025 BKN045 FM1400 15008KT
                       P6SM -RA OVC040 FM1900 15008KT P6SM -RA
                       SCT012 BKN018 OVC030=
200601282300 KSEA 290322Z 290324 20013G19KT P6SM VCSH BKN019 BKN090 FM0700 18008KT
                       P6SM BKN019 BKN045 FM1400 15008KT P6SM -RA
                       SCT020 OVC040
                      TEMPO 1418 BKN020 OVC040 FM1800 15008KT P6SM
                       -RA SCT012 BKN018 OVC030=
200601281740 TAF KSEA 281740Z 281818 20012G18KT P6SM -SHRA SCT015 BKN025 BKN040
                       TEMPO 1821 BKN015 OVC025 FM0000 20010KT
                       P6SM VCSH SCT015 SCT025 BKN040 FM0900 15008KT
                       P6SM SCT025 BKN040 BKN150 FM1600 15008KT
                       P6SM -RA OVC040=
200601281407 KSEA 281407Z 281412 21016G26KT P6SM -SHRA SCT009 OVC025
                      TEMPO 1416 BKN009 OVC025 FM1600 21016G26KT
                       P6SM SCT015 BKN040
                      TEMPO 1620 -SHRA BKN015 OVC040 FM2000 21010KT
                       P6SM VCSH SCT015 SCT025 BKN040
                      TEMPO 2024 -SHRA SCT015 BKN025 BKN040 FM0500
                       18008KT P6SM VCSH SCT015 BKN025 BKN040=
200601281252 KSEA 281252Z 281312 19016G26KT P6SM -SHRA BKN022 OVC035 FM2000
                       21010KT P6SM VCSH SCT015 SCT025 BKN040
                      TEMPO 2024 -SHRA SCT015 BKN025 BKN040 FM0500
                       18008KT P6SM VCSH SCT015 BKN025 BKN040=
200601281120 TAF KSEA 281120Z 281212 19017G27KT P6SM -RA SCT025 OVC035 FM1300
                       21012G18KT P6SM -SHRA SCT006 BKN012 OVC020
                       FM2000 21010KT P6SM VCSH SCT015 SCT025 BKN040
                       TEMPO 2024 -SHRA SCT015 BKN025 BKN040 FM0500
                       18008KT P6SM VCSH SCT015 BKN025 BKN040=
200601280521 TAF KSEA 280521Z 280606 17011KT P6SM -RA SCT028 OVC040
                      TEMPO 0609 BKN025 OVC050 FM0900 18014G25KT
                       5SM -RA SCT012 OVC022 FM1400 21012G18KT
                       P6SM -SHRA SCT006 BKN012 OVC020 FM2100 21010KT
                       P6SM -SHRA SCT015 BKN025 BKN040 FM0200 18008KT
                       P6SM VCSH SCT015 BKN025 BKN040=
200601280337 TAF AMD KSEA 280337Z 280424 22011G18KT P6SM -RA SCT022 BKN027 OVC060
                       FM0900 18014G25KT 5SM -RA SCT012 OVC022
                       FM1400 21012G18KT P6SM -SHRA SCT006 BKN012
                       OVC020 FM2100 21010KT P6SM -SHRA SCT015
                       BKN025 BKN040=
200601272339 TAF KSEA 272339Z 280024 20010KT P6SM SCT025 BKN045 OVC150
                      TEMPO 0002 BKN025 FM0800 14008KT P6SM -RA
                       OVC045 FM1300 18014KT 5SM -RA SCT012 OVC022
                       FM1600 21012G18KT P6SM -SHRA SCT006 BKN012
                       OVC020 FM2100 21010KT P6SM -SHRA SCT015
                       BKN025 BKN040=
200601272300 KSEA 280337Z 280424 22011G18KT P6SM -RA SCT022 BKN027 OVC060 FM0900
                       18014G25KT 5SM -RA SCT012 OVC022 FM1400
                       21012G18KT P6SM -SHRA SCT006 BKN012 OVC020
                       FM2100 21010KT P6SM -SHRA SCT015 BKN025
                       BKN040=
200601271743 TAF KSEA 271743Z 271818 21012KT P6SM VCSH SCT015 BKN025 OVC040
                       FM2300 18006KT P6SM SCT030 BKN045 OVC090
                       FM0800 14008KT P6SM -RA OVC040 FM1200 14008KT
                       5SM -RA SCT012 OVC022 FM1600 21008KT P6SM
                       -SHRA SCT006 BKN012 OVC020=
200601271607 KSEA 271607Z 271612 21009KT P6SM VCSH SCT008 BKN012 OVC020 FM1900
                       21009KT P6SM SCT015 BKN025 OVC040 FM2300
                       18007KT P6SM SCT030 BKN050 OVC090 FM0600
                       18007KT P6SM -RA BKN025 OVC050=
200601271137 TAF KSEA 271137Z 271212 21011KT P6SM SCT015 BKN040 OVC080
                      TEMPO 1216 -SHRA FEW009 BKN019 OVC045 FM1600
                       20009KT P6SM VCSH BKN035 BKN050 FM2300 18007KT
                       P6SM BKN050 OVC090 FM0600 18007KT P6SM -RA
                       BKN025 OVC050=
200601270540 TAF KSEA 270540Z 270606 20012KT P6SM SCT010 BKN020 BKN040
                      TEMPO 0609 -SHRA BKN010 OVC020 FM0900 20011KT
                       P6SM -SHRA BKN025 OVC050 FM1700 20009KT
                       P6SM VCSH BKN035 BKN050 FM0400 18007KT P6SM
                       -RA BKN040 OVC080=
200601262337 TAF KSEA 262337Z 270024 19013KT P6SM -SHRA SCT035 BKN070 OVC120
                       FM0200 18010KT P6SM -RA SCT025 OVC035 FM0800
                       19012KT P6SM -SHRA SCT024 BKN035 OVC060
                       FM1500 21010KT P6SM VCSH BKN035 BKN050 FM2000
                       21008KT P6SM BKN045=
200601261739 TAF KSEA 261739Z 261818 20012KT P6SM -SHRA BKN030 BKN045 OVC150
                       FM0100 18010KT P6SM -RA SCT025 OVC035 FM0800
                       19012KT P6SM -SHRA SCT024 BKN035 OVC060
                       FM1500 21010KT P6SM VCSH BKN035 BKN050=
200601261137 TAF KSEA 261137Z 261212 19011G17KT P6SM SCT025 BKN035 BKN070
                      TEMPO 1216 -SHRA BKN025 OVC035 FM1600 19008KT
                       P6SM VCSH BKN035 BKN100 OVC200 FM2000 18010KT
                       P6SM -RA SCT024 OVC035 FM0200 17011KT 6SM
                       RA BKN024 OVC040 FM0700 19012G18KT P6SM
                       -SHRA SCT024 BKN035 OVC060=
200601260538 TAF KSEA 260538Z 260606 19012KT P6SM SCT020 BKN110 OVC200
                      TEMPO 0609 -SHRA BKN020 OVC080 FM0900 22012G20KT
                       P6SM -SHRA BKN035 OVC060 FM1500 19008KT
                       P6SM VCSH BKN045 BKN140 FM1900 18008KT 6SM
                       -RA SCT024 OVC040 FM0200 17009KT 5SM RA
                       BKN024 OVC040=
200601252341 TAF KSEA 252341Z 260024 18011KT P6SM -RA FEW006 SCT025 OVC030 FM0200
                       21010KT P6SM -SHRA BKN030 BKN050 FM0800
                       22010G20KT P6SM -RA BKN045 OVC060 FM1500
                       19008KT P6SM VCSH BKN045=
200601251736 TAF KSEA 251736Z 251818 17004KT P6SM FEW030 SCT090 SCT150 FM2200
                       17010KT P6SM -RA BKN045 OVC090 FM0300 21012KT
                       P6SM -SHRA BKN040 BKN080 FM0600 20010KT
                       P6SM VCSH BKN045 BKN060=
200601251135 TAF KSEA 251135Z 251212 15007KT P6SM BKN200 FM1700 16009KT P6SM
                       SCT050 OVC150 FM2000 17010KT P6SM -RA BKN045
                       OVC090 FM0100 21012KT P6SM -SHRA BKN040
                       BKN080 FM0600 20010KT P6SM BKN045 BKN060
                       PROB30 0612 -SHRA=
200601250544 TAF KSEA 250544Z 250606 14006KT 4SM BR SCT001
                      TEMPO 0609 1/4SM FG BKN001 FM0900 15006KT
                       6SM BR SCT003 BKN150
                      TEMPO 0912 1SM BR BKN003 OVC150 FM1400 16009KT
                       P6SM SCT060 OVC150 FM1900 17010KT P6SM -RA
                       OVC045 FM0100 21012KT P6SM -SHRA OVC040=
200601250432 TAF AMD KSEA 250432Z 250524 VRB03KT 1/4SM FG OVC001
                      TEMPO 0507 1SM BR SCT001 SCT150 FM1100 15006KT
                       3SM BR SCT003 BKN150
                      TEMPO 1115 1SM BR BKN003 OVC150 FM1500 16007KT
                       P6SM SCT060 OVC150 FM2100 17008KT P6SM -RA
                       OVC045=
200601242342 TAF KSEA 242342Z 250024 VRB03KT P6SM BKN250 FM0200 00000KT P6SM
                       SCT090 SCT200 FM1500 16007KT P6SM SCT060
                       OVC150 FM2100 17008KT P6SM -RA OVC045=
200601242300 KSEA 250432Z 250524 VRB03KT 1/4SM FG OVC001
                      TEMPO 0507 1SM BR SCT001 SCT150 FM1100 15006KT
                       3SM BR SCT003 BKN150
                      TEMPO 1115 1SM BR BKN003 OVC150 FM1500 16007KT
                       P6SM SCT060 OVC150 FM2100 17008KT P6SM -RA
                       OVC045=
200601241732 TAF KSEA 241732Z 241818 01008KT 3SM BR SCT005 BKN250
                      TEMPO 1819 1/2SM FG BKN003 FM2000 01007KT
                       P6SM BKN250 FM0200 00000KT P6SM SCT090 SCT200
                       FM1500 16007KT P6SM SCT060 OVC150=
200601241139 TAF KSEA 241139Z 241212 03004KT 1/4SM FG OVC001 FM1800 03003KT
                       3/4SM BR OVC003 FM1900 05003KT 3SM BR SCT003
                       BKN005 FM2000 09003KT P6SM SCT250 FM0000
                       14006KT P6SM SCT050 SCT250 FM0800 16007KT
                       P6SM SCT045 BKN150=
200601240722 KSEA 240722Z 240706 VRB03KT 1/4SM FG VV001
                      TEMPO 0710 1SM BR SCT001 OVC003 FM1700 03003KT
                       1SM BR OVC002 FM1900 05003KT 3SM BR SCT003
                       BKN005 FM2100 09003KT P6SM SCT045 FM0200
                       13004KT P6SM SCT050 BKN250=
200601240609 KSEA 240609Z 240606 02003KT 2SM BR SCT001 BKN005
                      TEMPO 0812 1SM BR OVC002 FM1200 03003KT 1SM
                       BR OVC002
                      TEMPO 1216 1/2SM FG OVC001 FM1700 05003KT
                       3SM BR SCT003 BKN005 FM2100 09003KT P6SM
                       SCT045 FM0200 13004KT P6SM SCT050 BKN250=
200601240540 TAF KSEA 240540Z 240606 03005KT P6SM FEW024 FM0900 04003KT 5SM
                       BR SCT006 FM1200 05003KT 2SM BR SCT001 OVC005
                       TEMPO 1317 1SM BR OVC002 FM1700 05003KT
                       4SM BR SCT003 BKN005 FM2100 09003KT P6SM
                       SCT045 FM0200 13004KT P6SM SCT050 BKN250=
200601232339 TAF KSEA 232339Z 240024 VRB03KT P6SM SCT025 BKN150
                      TEMPO 0001 BKN025 FM0700 02003KT 5SM BR SCT006
                       FM1000 02003KT 1SM BR SCT001 OVC003 FM1300
                       03003KT 1/4SM FG VV001 FM1800 02003KT 1SM
                       BR SCT001 OVC003 FM1900 02003KT 4SM BR SCT003
                       BKN005 FM2100 09003KT P6SM SCT045=
200601232136 KSEA 232136Z 232218 21003KT P6SM VCSH SCT012 BKN020 FM0000 VRB03KT
                       P6SM SCT020 FM0700 02003KT 5SM BR SCT006
                       FM1000 02003KT 3/4SM BR SCT001 OVC003
                      TEMPO 1317 1/4SM FG VV001=
200601231740 TAF KSEA 231740Z 231818 19005KT P6SM SCT012 BKN020 OVC200
                      TEMPO 1819 5SM BR SCT008 BKN012 OVC020 FM2200
                       23003KT P6SM SCT020 BKN080 OVC200 FM0700
                       02003KT 5SM BR SCT006 FM1000 02003KT 3/4SM
                       BR SCT001 OVC003
                      TEMPO 1317 1/4SM FG VV001=
200601231544 KSEA 231544Z 231612 18010KT 3SM -DZ BR BKN008 OVC012 FM1800 18008KT
                       5SM BR SCT008 BKN012 FM2000 18005KT P6SM
                       SCT014 BKN020 FM0100 18004KT P6SM BKN050
                       FM0500 VRB05KT P6SM SCT050=
200601231131 TAF KSEA 231131Z 231212 18010KT P6SM SCT008 OVC015
                      TEMPO 1720 SCT015 BKN030 FM2000 18005KT P6SM
                       SCT017 BKN030 FM0100 18004KT P6SM BKN050
                       FM0500 VRB05KT P6SM SCT050=
200601230532 TAF KSEA 230532Z 230606 20011KT P6SM VCSH SCT020 OVC035
                      TEMPO 0610 BKN018 OVC030 FM1000 20006KT P6SM
                       SCT010 OVC017 FM2000 18005KT P6SM SCT025
                       BKN035 FM0100 18009KT P6SM BKN050=
200601230216 KSEA 230216Z 230224 19010KT P6SM SCT022 SCT035 BKN100
                      TEMPO 0206 BKN022 OVC035 FM0600 19005KT P6SM
                       BKN022 OVC035 FM1000 VRB03KT P6SM SCT012
                       OVC022
                      TEMPO 1215 OVC012 FM2100 18006KT P6SM SCT025
                       BKN035 FM2300 18009KT P6SM BKN040=
200601222320 TAF KSEA 222320Z 230024 19010KT P6SM BKN025 OVC050
                      TEMPO 0002 BKN050 FM0600 19005KT P6SM BKN025
                       FM1000 VRB03KT P6SM SCT012 OVC025
                      TEMPO 1215 OVC012 FM2100 18006KT P6SM SCT025
                       BKN035 FM2300 18009KT P6SM BKN040=
200601222300 KSEA 230216Z 230224 19010KT P6SM SCT022 SCT035 BKN100
                      TEMPO 0206 BKN022 OVC035 FM0600 19005KT P6SM
                       BKN022 OVC035 FM1000 VRB03KT P6SM SCT012
                       OVC022
                      TEMPO 1215 OVC012 FM2100 18006KT P6SM SCT025
                       BKN035 FM2300 18009KT P6SM BKN040=
200601222101 KSEA 222101Z 222118 22006KT P6SM BKN025 OVC050 FM0100 20005KT P6SM
                       BKN050 FM0600 VRB03KT P6SM BKN035 FM1000
                       VRB03KT P6SM SCT008 OVC025
                      TEMPO 1215 OVC008=
200601221720 TAF KSEA 221720Z 221818 20006KT P6SM SCT008 OVC025 FM2100 22006KT
                       P6SM BKN040 FM0100 20005KT P6SM BKN080 FM0600
                       VRB03KT P6SM BKN035 FM1000 VRB03KT P6SM
                       SCT008 OVC025
                      TEMPO 1215 OVC008=
200601221235 KSEA 221235Z 221312 19007KT P6SM SCT012 BKN025
                      TEMPO 1317 BKN008 OVC022 FM1700 20006KT P6SM
                       BKN012 OVC025 FM2100 22006KT P6SM BKN040
                       FM0100 20005KT P6SM BKN080=
200601221137 TAF KSEA 221137Z 221212 19007KT P6SM SCT017 BKN035
                      TEMPO 1216 BKN015 OVC025 FM1600 20006KT P6SM
                       SCT015 BKN025 FM2100 22006KT P6SM BKN040
                       FM0100 20005KT P6SM BKN080=
200601220916 KSEA 220916Z 220906 17005KT P6SM SCT012 BKN030
                      TEMPO 0913 BKN008 OVC020 FM1300 18004KT P6SM
                       BKN012 OVC040 FM1800 20004KT P6SM SCT015
                       BKN025 FM2200 22006KT P6SM BKN040 FM0200
                       20005KT P6SM BKN070=
200601220521 TAF KSEA 220521Z 220606 17005KT P6SM SCT020 BKN035
                      TEMPO 0610 BKN020 OVC035 FM1000 18004KT P6SM
                       BKN022 OVC040 FM1800 20004KT P6SM SCT015
                       BKN025 FM2200 22006KT P6SM BKN040 FM0200
                       20005KT P6SM BKN070=
200601220247 TAF AMD KSEA 220247Z 220324 00000KT P6SM SCT017 SCT029 BKN035 FM0500
                       VRB03KT P6SM OVC015
                      TEMPO 1014 4SM BR FM1800 20004KT P6SM SCT015
                       BKN025 FM2000 20005KT P6SM SCT035=
200601212320 TAF KSEA 212320Z 220024 22006KT P6SM SCT012 BKN020 OVC040
                      TEMPO 0004 BKN012 OVC020 FM0400 VRB03KT P6SM
                       OVC012
                      TEMPO 1014 4SM BR FM1800 20004KT P6SM SCT015
                       BKN025 FM2000 20005KT P6SM SCT035=
200601212300 KSEA 220247Z 220324 00000KT P6SM SCT017 SCT029 BKN035 FM0500 VRB03KT
                       P6SM OVC015
                      TEMPO 1014 4SM BR FM1800 20004KT P6SM SCT015
                       BKN025 FM2000 20005KT P6SM SCT035=
200601211720 TAF KSEA 211720Z 211818 20007KT P6SM -SHRA BKN020 OVC040
                      TEMPO 1822 SCT006 OVC012 FM2200 22006KT P6SM
                       -SHRA BKN020 OVC040 FM0300 VRB03KT P6SM
                       BKN025=
200601211435 KSEA 211435Z 211512 20007KT P6SM VCSH SCT004 SCT013 OVC030
                      TEMPO 1519 3SM -SHRA BR BKN004 OVC013 FM1900
                       22006KT P6SM -SHRA BKN020 OVC040 FM0300
                       22003KT P6SM BKN035
                      PROB30 0309 -SHRA=
200601211134 TAF KSEA 211134Z 211212 19006KT P6SM SCT010 BKN022
                      TEMPO 1216 3SM -SHRA BR BKN007 OVC017 FM1600
                       18005KT 5SM -SHRA BR SCT006 BKN014 OVC030
                       FM2100 22006KT P6SM -SHRA BKN020 OVC040
                       FM0300 22003KT P6SM BKN035
                      PROB30 0309 -SHRA=
200601210525 TAF KSEA 210525Z 210606 VRB04KT 4SM BR SCT005 BKN040
                      TEMPO 0610 2SM BR BKN005 FM1000 VRB03KT 3SM
                       BR OVC010 FM1600 18004KT 4SM BR SCT006 BKN012
                       OVC030 FM2000 20006KT P6SM -SHRA BKN022
                       OVC040 FM0200 22003KT P6SM VCSH BKN040=
200601210209 TAF AMD KSEA 210209Z 210224 00000KT P6SM SCT020 BKN040 FM0800 VRB03KT
                       P6SM OVC015
                      TEMPO 1215 4SM BR FM1800 VRB03KT P6SM SCT020
                       BKN035 FM2000 18005KT P6SM -SHRA OVC030=
200601202331 TAF KSEA 202331Z 210024 23006KT P6SM SCT018 BKN040
                      TEMPO 0002 -SHRA BKN018 FM0200 20004KT P6SM
                       BKN020 FM1000 VRB03KT P6SM OVC015
                      TEMPO 1215 4SM BR FM1800 VRB03KT P6SM SCT020
                       BKN035 FM2000 18005KT P6SM -SHRA OVC030=
200601202300 KSEA 210209Z 210224 00000KT P6SM SCT020 BKN040 FM0800 VRB03KT P6SM
                       OVC015
                      TEMPO 1215 4SM BR FM1800 VRB03KT P6SM SCT020
                       BKN035 FM2000 18005KT P6SM -SHRA OVC030=
200601202207 KSEA 202207Z 202218 23008KT P6SM -SHRA BKN018 BKN040
                      TEMPO 2224 BKN009 FM0200 21006KT P6SM BKN025
                       FM0500 18004KT P6SM OVC020=
200601202110 KSEA 202110Z 202118 23008KT P6SM -SHRA SCT020 BKN040
                      TEMPO 2124 SCT009 BKN020 FM0200 21006KT P6SM
                       BKN030 FM0500 18004KT P6SM OVC025=
200601201729 TAF KSEA 201729Z 201818 22010KT P6SM -SHRA SCT009 BKN012 OVC035
                       TEMPO 1820 BKN009 FM2100 23008KT P6SM -SHRA
                       BKN040 BKN060 FM0200 21006KT P6SM BKN030
                       FM0500 18004KT P6SM OVC025=
200601201159 KSEA 201159Z 201212 22012G22KT P6SM -SHRA SCT015 OVC030
                      TEMPO 1216 BKN014 OVC022 FM1600 22010KT P6SM
                       -SHRA BKN020 OVC035 FM2100 23008KT P6SM
                       -SHRA BKN030 BKN060 FM0200 21005KT P6SM
                       BKN040
                      PROB30 0207 -SHRA=
200601201134 TAF KSEA 201134Z 201212 22011KT P6SM -SHRA SCT015 OVC030
                      TEMPO 1216 BKN014 OVC022 FM1600 22010KT P6SM
                       -SHRA BKN020 OVC035 FM2100 23008KT P6SM
                       -SHRA BKN030 BKN060 FM0200 21005KT P6SM
                       BKN040
                      PROB30 0207 -SHRA=
200601200522 TAF KSEA 200522Z 200606 18014KT P6SM -RA SCT025 OVC050
                      TEMPO 0610 RA BKN020 OVC050 FM1000 19014G24KT
                       P6SM -RA OVC020 FM1500 22012KT P6SM -SHRA
                       BKN015 OVC027 FM2200 23008KT P6SM -SHRA
                       BKN027 BKN050 FM0100 21005KT P6SM BKN050
                       PROB30 0106 -SHRA=
200601200158 TAF AMD KSEA 200158Z 200224 20010KT P6SM SCT020 BKN035 OVC100
                      TEMPO 0407 -RA FM0700 19010KT P6SM -RA OVC025
                       FM1000 19015G22KT P6SM -RA OVC012 FM1400
                       21015G22KT P6SM -SHRA BKN009 OVC020=
200601200033 TAF AMD KSEA 200033Z 200124 21008KT P6SM SCT025 BKN060
                      TEMPO 0103 BKN025 OVC060 FM0300 19010KT P6SM
                       SCT025 OVC045
                      TEMPO 0407 -RA FM0700 19010KT P6SM -RA OVC025
                       FM1000 19015G22KT P6SM -RA OVC012 FM1400
                       21015G22KT P6SM -SHRA BKN009 OVC020=
200601192347 TAF KSEA 192347Z 200024 21008KT P6SM SCT025 BKN060 FM0300 19010KT
                       P6SM SCT025 OVC045
                      TEMPO 0407 -RA FM0700 19010KT P6SM -RA OVC025
                       FM1000 19015G22KT P6SM -RA OVC012 FM1400
                       21015G22KT P6SM -SHRA BKN009 OVC020=
200601192300 KSEA 200158Z 200224 20010KT P6SM SCT020 BKN035 OVC100
                      TEMPO 0407 -RA FM0700 19010KT P6SM -RA OVC025
                       FM1000 19015G22KT P6SM -RA OVC012 FM1400
                       21015G22KT P6SM -SHRA BKN009 OVC020=
200601191742 TAF KSEA 191742Z 191818 20008KT P6SM BKN009 OVC020
                      TEMPO 1820 SCT009 OVC020 FM2000 20010KT P6SM
                       SCT020 OVC040
                      TEMPO 2022 BKN020 OVC040 FM2200 21006KT P6SM
                       SCT025 OVC050
                      TEMPO 0206 -RA BKN025 OVC050 FM0600 19010KT
                       P6SM -RA OVC020=
200601191556 KSEA 191556Z 191612 19007KT P6SM BKN009 OVC020
                      TEMPO 1619 SCT009 OVC020 FM1900 20007KT P6SM
                       BKN020 OVC040 FM2200 21006KT P6SM SCT025
                       OVC050
                      TEMPO 0206 -RA BKN025 OVC050 FM0600 19010KT
                       P6SM -RA OVC020=
200601191228 KSEA 191228Z 191212 VRB03KT P6SM SCT020 OVC040
                      TEMPO 1214 -SHRA BKN020 OVC040 FM1400 VRB03KT
                       P6SM BKN020 OVC040 FM2200 21006KT P6SM SCT025
                       OVC050
                      TEMPO 0206 -RA BKN025 OVC050 FM0600 19010KT
                       P6SM -RA OVC020=
200601191138 TAF KSEA 191138Z 191212 VRB03KT P6SM SCT020 OVC040
                      TEMPO 1214 BKN020 OVC040 FM1400 VRB03KT P6SM
                       BKN020 OVC040 FM2200 21006KT P6SM SCT025
                       OVC050
                      TEMPO 0206 -RA BKN025 OVC050 FM0600 19010KT
                       P6SM -RA OVC020=
200601190906 KSEA 190906Z 190906 VRB03KT P6SM FEW007 SCT025 OVC050 FM1200 VRB03KT
                       P6SM FEW007 OVC025 FM1800 20006KT P6SM BKN025
                       OVC050 FM2300 17008KT P6SM SCT025 OVC050
                       TEMPO 0206 -RA OVC025=
200601190544 TAF KSEA 190544Z 190606 VRB03KT P6SM SCT025 OVC040
                      TEMPO 0608 -SHRA BKN025 OVC040 FM0800 VRB03KT
                       P6SM OVC025 FM1200 VRB03KT P6SM OVC015 FM1800
                       20006KT P6SM BKN025 OVC050 FM2300 17008KT
                       P6SM SCT025 OVC050
                      TEMPO 0206 -RA OVC025=
200601190102 TAF AMD KSEA 190102Z 190124 20004KT P6SM VCSH BKN019 BKN030 BKN070
                       FM0600 20006KT P6SM SCT007 BKN018 OVC028
                       FM1500 19005KT P6SM SCT018 BKN025 OVC035=
200601190041 KSEA 190041Z 190124 23005KT P6SM SCT020 BKN040 OVC060
                      TEMPO 0102 6SM -SHRA SCT015 BKN025 FM0200
                       23006KT P6SM VCSH SCT015 BKN035 BKN060 FM0600
                       20006KT P6SM SCT007 BKN018 OVC028 FM1500
                       19005KT P6SM SCT018 BKN025 OVC035=
200601182331 TAF KSEA 182331Z 190024 14006KT P6SM SCT015 BKN025 OVC060
                      TEMPO 0002 6SM -SHRA SCT006 BKN015 FM0200
                       23006KT P6SM VCSH SCT015 BKN035 BKN060 FM0600
                       20006KT P6SM SCT007 BKN018 OVC028 FM1500
                       19005KT P6SM SCT018 BKN025 OVC035=
200601182300 KSEA 190102Z 190124 20004KT P6SM VCSH BKN019 BKN030 BKN070 FM0600
                       20006KT P6SM SCT007 BKN018 OVC028 FM1500
                       19005KT P6SM SCT018 BKN025 OVC035=
200601182059 KSEA 182059Z 182118 14006KT P6SM BKN015 BKN025 OVC060
                      TEMPO 2124 6SM -SHRA BKN006 OVC015 FM0300
                       23006KT P6SM VCSH SCT025 BKN060 FM0600 20006KT
                       P6SM VCSH SCT018 OVC030 FM0900 20005KT P6SM
                       SCT012 BKN022 OVC035=
200601181724 TAF KSEA 181724Z 181818 14006KT P6SM VCSH SCT025 BKN035 OVC080
                       TEMPO 1822 SCT010 BKN017 OVC025 FM2200 23006KT
                       P6SM VCSH SCT025 BKN060 FM0400 20006KT P6SM
                       VCSH SCT018 OVC030=
200601181609 KSEA 181609Z 181612 14006KT P6SM VCSH SCT027 BKN035 OVC080
                      TEMPO 1620 SCT017 OVC024 FM2200 23006KT P6SM
                       VCSH SCT025 BKN060 FM0400 20006KT P6SM VCSH
                       SCT018 OVC030=
200601181304 KSEA 181304Z 181312 14006KT P6SM VCSH BKN027 OVC080 FM1400 18003KT
                       P6SM VCSH SCT010 BKN023 OVC045
                      TEMPO 1418 BKN010 OVC023 FM1900 23006KT P6SM
                       VCSH SCT025 BKN060 FM0400 20006KT P6SM VCSH
                       SCT018 OVC030=
200601181137 TAF KSEA 181137Z 181212 13004KT P6SM VCSH SCT025 OVC060 FM1400
                       18003KT P6SM VCSH SCT010 SCT022 OVC045
                      TEMPO 1418 SCT010 BKN022 OVC045 FM1900 23006KT
                       P6SM VCSH SCT025 BKN060 FM0400 20006KT P6SM
                       VCSH SCT018 OVC030=
200601180538 TAF KSEA 180538Z 180606 19009KT P6SM VCSH SCT030 SCT050 BKN130
                       FM0900 18005KT P6SM VCSH SCT022 OVC050 FM1300
                       18003KT P6SM VCSH BKN022 OVC035 FM1900 23006KT
                       P6SM VCSH SCT025 BKN060=
200601172340 TAF KSEA 172340Z 180024 20006KT P6SM VCSH SCT020 BKN050 FM1400
                       18005KT P6SM VCSH SCT020 BKN040
                      TEMPO 1418 BKN020 BKN040 FM2000 21005KT P6SM
                       VCSH SCT020 BKN060=
200601171737 TAF KSEA 171737Z 171818 19008KT P6SM SCT025 SCT050
                      TEMPO 1821 SCT025 BKN050 FM2100 21006KT P6SM
                       VCSH SCT025 BKN050 FM0300 18006KT P6SM VCSH
                       SCT025 BKN050=
200601171140 TAF KSEA 171140Z 171212 19010KT P6SM VCSH SCT020 SCT050
                      TEMPO 1216 BKN020 OVC050 FM1800 21006KT P6SM
                       VCSH SCT025 BKN070 FM0300 15004KT P6SM SCT060
                       BKN130=
200601170536 TAF KSEA 170536Z 170606 19013KT 5SM -RA BR SCT012 OVC035
                      TEMPO 0610 3SM RA BR SCT008 BKN018 OVC027
                       FM1000 20010KT P6SM -SHRA BKN017 OVC030
                       FM1500 20007KT P6SM -SHRA SCT015 OVC035
                       FM2200 22006KT P6SM VCSH SCT020 BKN040=
200601170217 KSEA 170217Z 170224 19011KT 4SM RA BR SCT006 OVC025
                      TEMPO 0206 1SM +RA BR BKN006 OVC012 FM0700
                       20012KT P6SM SCT015 OVC035
                      TEMPO 0711 -SHRA BKN015 OVC035 FM1100 20008KT
                       P6SM -SHRA BKN015 OVC035 FM1500 20007KT
                       P6SM -SHRA SCT015 OVC035=
200601162345 TAF KSEA 162345Z 170024 16007KT P6SM SCT006 OVC018
                      TEMPO 0002 5SM -RA BR BKN006 OVC018 FM0400
                       19014G22KT 5SM -RA BR SCT006 OVC012
                      TEMPO 0407 2SM RA BR BKN006 OVC012 FM0700
                       20012KT P6SM SCT015 OVC035
                      TEMPO 0711 -SHRA BKN015 OVC035 FM1100 20008KT
                       P6SM -SHRA BKN015 OVC035 FM1500 20007KT
                       P6SM -SHRA SCT015 OVC035=
200601162300 KSEA 170217Z 170224 19011KT 4SM RA BR SCT006 OVC025
                      TEMPO 0206 1SM +RA BR BKN006 OVC012 FM0700
                       20012KT P6SM SCT015 OVC035
                      TEMPO 0711 -SHRA BKN015 OVC035 FM1100 20008KT
                       P6SM -SHRA BKN015 OVC035 FM1500 20007KT
                       P6SM -SHRA SCT015 OVC035=
200601162218 KSEA 162218Z 162218 16007KT 4SM -RA BR SCT005 OVC012
                      TEMPO 2224 1SM RA BR BKN006 OVC012 FM0000
                       19008KT 5SM -RA BR BKN010 OVC020 FM0400
                       19010KT 5SM RA BR OVC012 FM0700 20012KT
                       P6SM -SHRA SCT020 OVC040=
200601161747 TAF KSEA 161747Z 161818 VRB03KT P6SM -RA SCT015 OVC025 FM2000 16005KT
                       5SM -RA BR BKN015 OVC025 FM2200 18007KT
                       4SM RA BR OVC012 FM0000 19008KT P6SM -RA
                       BKN015 OVC025 FM0400 19010KT 5SM RA BR OVC012
                       FM0700 20012KT P6SM -SHRA SCT020 OVC040=
200601161141 TAF KSEA 161141Z 161212 19006KT P6SM -RA SCT025 BKN040 OVC060
                      TEMPO 1216 -RA BKN025 OVC040 FM1600 16008KT
                       4SM -RA BR BKN016 OVC025 FM2300 19013G20KT
                       3SM RA BR OVC012 FM0900 20012KT P6SM -SHRA
                       SCT020 OVC040=
200601160539 TAF KSEA 160539Z 160606 18007KT P6SM BKN040 OVC060 FM1000 14008KT
                       P6SM -RA OVC040 FM1800 16008KT 4SM -RA BR
                       BKN013 OVC025 FM0000 19013G20KT 4SM RA BR
                       OVC016=
200601152326 TAF KSEA 152326Z 160024 24011KT P6SM SCT025 BKN250
                      TEMPO 0002 BKN025 BKN250 FM0400 14006KT P6SM
                       SCT040 OVC080 FM0800 14006KT P6SM -RA OVC040
                       FM1600 14008KT 4SM -RA BR BKN010 OVC030=
200601152012 KSEA 152012Z 152018 18006KT P6SM BKN020 OVC035 FM2200 18006KT P6SM
                       SCT020 BKN050 FM0000 18006KT P6SM SCT045
                       OVC120 FM0600 14006KT P6SM SCT040 OVC080
                       PROB30 1012 -RA FM1200 14006KT P6SM -RA
                       OVC035=
200601151734 TAF KSEA 151734Z 151818 19010KT P6SM BKN015 OVC021 FM1930 19010KT
                       P6SM SCT020 BKN050 FM0000 18006KT P6SM SCT045
                       OVC120 FM0600 14006KT P6SM SCT040 OVC080
                       PROB30 1012 -RA FM1200 14006KT P6SM -RA
                       OVC035=
200601151251 KSEA 151251Z 151312 21009KT P6SM VCSH SCT008 OVC016
                      TEMPO 1316 BKN008 OVC016 FM1800 22007KT P6SM
                       SCT016 BKN050 FM0000 18006KT P6SM SCT045
                       OVC120 FM0600 14006KT P6SM SCT040 OVC080
                       PROB30 1012 -RA=
200601151140 TAF KSEA 151140Z 151212 20006KT P6SM VCSH SCT011 BKN020 OVC090
                       TEMPO 1216 BKN011 OVC020 FM1900 22007KT
                       P6SM SCT016 BKN050 FM0000 18006KT P6SM SCT045
                       OVC120 FM0600 14006KT P6SM SCT040 OVC080
                       PROB30 1012 -RA=
200601150535 TAF KSEA 150535Z 150606 12009KT P6SM -SHRA SCT004 SCT012 OVC020
                       TEMPO 0610 4SM SHRA BR BKN004 OVC012 FM1000
                       15007KT P6SM -SHRA SCT004 OVC020
                      TEMPO 1014 2SM -SHRA BR BKN004 OVC012 FM2000
                       22007KT P6SM VCSH SCT025 BKN045 FM0000 16006KT
                       P6SM SCT045 OVC120=
200601142327 TAF KSEA 142327Z 150024 20006KT P6SM VCSH SCT030 BKN060 BKN080
                       TEMPO 0004 04008KT 4SM SHRA SCT006 OVC015
                       FM0800 VRB04KT 5SM -SHRA SCT008 BKN018 OVC030
                       TEMPO 1014 2SM -SHRA BR BKN007 OVC012 FM2100
                       VRB03KT P6SM VCSH SCT025 BKN045=
200601142052 KSEA 142052Z 142118 07008KT P6SM VCSH SCT015 BKN035
                      TEMPO 2101 4SM SHRA SCT006 OVC015 FM0800
                       20007KT P6SM VCSH BKN020 OVC040=
200601142011 KSEA 142011Z 142018 17006KT P6SM VCSH SCT006 OVC015
                      TEMPO 2022 2SM SHRA OVC006 FM0800 20007KT
                       P6SM VCSH BKN020 OVC040=
200601141726 TAF KSEA 141726Z 141818 VRB04KT P6SM VCSH SCT008 BKN015 OVC030
                       TEMPO 1820 3SM -SHRA BR BKN007 OVC015 FM2000
                       22010KT P6SM VCSH SCT025 BKN045 FM0800 20007KT
                       P6SM VCSH BKN020 OVC040=
200601141440 KSEA 141440Z 141512 22004KT P6SM BKN007 OVC019 FM1700 22004KT P6SM
                       SCT007 OVC020 FM1900 22010KT P6SM VCSH SCT025
                       BKN045 FM0800 20007KT P6SM VCSH BKN020 OVC040=
200601141131 TAF KSEA 141131Z 141212 17006KT P6SM SCT017 OVC030
                      TEMPO 1317 BKN017 OVC030 FM1800 22010KT P6SM
                       VCSH SCT025 BKN045 FM0800 20007KT P6SM VCSH
                       BKN020 OVC040=
200601140532 TAF KSEA 140532Z 140606 17010KT P6SM -RA SCT003 OVC045
                      TEMPO 0608 2SM -RA BR BKN003 OVC045 FM0800
                       20008KT P6SM -SHRA SCT025 OVC045
                      TEMPO 1418 -SHRA BKN025 OVC045 FM1800 22012KT
                       P6SM VCSH BKN045=
200601140405 TAF AMD KSEA 140405Z 140424 15010KT 4SM -RA BR SCT003 OVC035
                      TEMPO 0408 1/2SM -RA FG BKN003 OVC035 FM0800
                       22008KT P6SM VCSH BKN025 FM1900 22012KT
                       P6SM VCSH BKN040=
200601140024 TAF AMD KSEA 140024Z 140024 21009KT P6SM -SHRA SCT025 OVC040
                      TEMPO 0004 3SM SHRA BKN008 BKN015 OVC025
                       FM0600 22008KT P6SM VCSH BKN025 FM1900 22012KT
                       P6SM VCSH BKN040=
200601132351 KSEA 132351Z 140024 21009KT P6SM -SHRA SCT025 OVC040
                      TEMPO 0004 3SM SHRA SCT015 BKN025 OVC035
                       FM0600 22008KT P6SM VCSH BKN025 FM1900 22012KT
                       P6SM VCSH BKN040=
200601132330 TAF KSEA 132330Z 140024 21009KT P6SM -SHRA OVC040 FM0600 22008KT
                       P6SM VCSH BKN025 FM1900 22012KT P6SM VCSH
                       BKN040=
200601132300 KSEA 140405Z 140424 15010KT 4SM -RA BR SCT003 OVC035
                      TEMPO 0408 1/2SM -RA FG BKN003 OVC035 FM0800
                       22008KT P6SM VCSH BKN025 FM1900 22012KT
                       P6SM VCSH BKN040=
200601131738 TAF KSEA 131738Z 131818 20009KT P6SM -RA BKN035 OVC050 FM0000 20010KT
                       P6SM -SHRA BKN030 FM0600 22008KT P6SM VCSH
                       BKN025=
200601131121 TAF KSEA 131121Z 131212 18012G20KT P6SM -RA OVC040
                      TEMPO 1418 5SM RA BR OVC030 FM1800 18012KT
                       5SM RA BR OVC030 FM0000 20010KT P6SM -SHRA
                       BKN030=
200601130529 TAF KSEA 130529Z 130606 16008KT P6SM -RA SCT020 OVC035
                      TEMPO 0711 4SM RA BR OVC020 FM1800 18010KT
                       6SM -RA BR OVC025
                      TEMPO 1821 3SM RA BR OVC020 FM2300 20010KT
                       P6SM -SHRA BKN030=
200601122333 TAF KSEA 122333Z 130024 13009KT P6SM -RA SCT020 OVC030
                      TEMPO 0004 4SM -RA BR BKN020 FM0800 16008KT
                       P6SM -RA SCT020 OVC035 FM1800 18010KT 6SM
                       -RA BR OVC025
                      TEMPO 1821 3SM RA BR OVC020 FM2300 20010KT
                       P6SM -SHRA BKN030=
200601122010 KSEA 122010Z 122018 13009KT 4SM RA SCT020 OVC030
                      TEMPO 2024 2SM +RA BR OVC020 FM0200 15011KT
                       5SM RA BR SCT020 OVC030 FM0800 16010KT P6SM
                       -RA SCT015 OVC035=
200601121720 TAF KSEA 121720Z 121818 14008KT P6SM -RA SCT025 OVC040 FM2200 14009KT
                       6SM RA SCT020 OVC035 FM0200 15011KT 4SM
                       RA BR SCT020 OVC030 FM0800 16010KT P6SM
                       -RA SCT015 OVC030=
200601121615 KSEA 121615Z 121612 15007KT P6SM SCT040 BKN100
                      TEMPO 1718 -RA BKN040 FM1800 14008KT P6SM
                       -RA SCT025 OVC040 FM2200 14009KT P6SM RA
                       SCT020 OVC035 FM0200 15011KT 4SM RA BR OVC030
                       FM0700 16010KT P6SM -RA SCT015 OVC025=
200601121138 TAF KSEA 121138Z 121212 19010KT P6SM SCT025 OVC120
                      TEMPO 1214 6SM -SHRA SCT015 BKN025 FM1500
                       16007KT P6SM SCT060 BKN120 FM2000 14007KT
                       P6SM BKN050 OVC100 FM0000 12008KT P6SM -RA
                       OVC040 FM0200 15010KT 4SM RA BR OVC030 FM0700
                       16010KT P6SM -RA SCT015 OVC025=
200601121026 KSEA 121026Z 121006 19010KT P6SM SCT025 OVC120
                      TEMPO 1013 6SM -SHRA SCT018 BKN025 FM1400
                       16007KT P6SM SCT050 BKN150 FM1700 14007KT
                       P6SM BKN050 OVC100 FM2300 12008KT P6SM -RA
                       OVC040 FM0200 15010KT 5SM RA BR OVC025=
200601120542 TAF KSEA 120542Z 120606 19010KT P6SM SCT020 BKN080
                      TEMPO 0610 6SM -SHRA BR SCT015 BKN020 OVC080
                       FM1400 16007KT P6SM SCT050 BKN150 FM1700
                       14007KT P6SM BKN050 OVC100 FM2300 12008KT
                       P6SM -RA OVC040 FM0200 15010KT 5SM RA BR
                       OVC025=
200601112338 TAF KSEA 112338Z 120024 21014G20KT P6SM -SHRA SCT015 BKN025 BKN040
                       TEMPO 0004 5SM SHRA FM0400 21012KT P6SM
                       -SHRA SCT025 BKN040
                      TEMPO 0408 5SM -SHRA BKN025 BKN040 FM0800
                       17006KT P6SM SCT020 BKN040 FM1800 14008KT
                       P6SM -RA SCT025 OVC040 FM2300 14008KT 5SM
                       RA OVC035=
200601111735 TAF KSEA 111735Z 111818 22012G18KT P6SM -SHRA SCT015 BKN025 OVC040
                       TEMPO 1820 3SM SHRA FM2000 22012KT P6SM
                       -SHRA SCT025 BKN040
                      TEMPO 2024 5SM -SHRA BKN025 BKN040 FM0800
                       17006KT P6SM SCT020 BKN035 FM1700 14008KT
                       P6SM -RA SCT025 OVC040=
200601111130 TAF KSEA 111130Z 111212 22015G25KT P6SM VCSH BKN025 BKN060
                      TEMPO 1418 SCT030 BKN060 FM1800 23012G22KT
                       P6SM VCSH BKN040
                      TEMPO 2024 SCT040 FM0000 22012KT P6SM VCSH
                       BKN030=
200601111003 KSEA 111003Z 111006 21017G27KT P6SM SCT015 BKN035
                      TEMPO 1014 BKN015 BKN035 FM1800 23012G22KT
                       P6SM VCSH BKN040
                      TEMPO 2024 SCT040 FM0000 22012KT P6SM VCSH
                       BKN030=
200601110527 TAF KSEA 110527Z 110606 VRB06KT P6SM -SHRA SCT015 BKN040
                      TEMPO 0609 4SM SHRA BKN015 OVC030 FM0900
                       20017G27KT P6SM -SHRA BKN030 FM0000 22012KT
                       P6SM VCSH BKN030=
200601102340 TAF KSEA 102340Z 110024 18006KT P6SM -RA SCT006 BKN018 OVC030
                      TEMPO 0002 3SM -RA BR BKN006 OVC012 FM0400
                       16008KT P6SM -RA SCT012 BKN022 OVC040
                      TEMPO 0408 3SM -RA BKN012 OVC022 FM1000 20010KT
                       4SM -RA SCT006 OVC012 FM1600 20010KT P6SM
                       -SHRA SCT015 BKN025 OVC050=
200601101747 TAF KSEA 101747Z 101818 22014G22KT P6SM SCT015 BKN025 BKN080 FM2200
                       20012KT P6SM SCT025 BKN040 FM0600 16008KT
                       P6SM -RA BKN030 OVC050=
200601101124 TAF KSEA 101124Z 101212 20017G27KT P6SM -SHRA BKN030 OVC050
                      TEMPO 1216 5SM SHRA OVC020 FM2000 20012G20KT
                       P6SM -SHRA BKN030 BKN060 FM0400 16008KT
                       P6SM -RA BKN030 OVC050=
200601100535 TAF KSEA 100535Z 100606 07007KT 5SM -RA BR OVC025
                      TEMPO 0812 3SM RA BR OVC015 FM1200 20012G22KT
                       P6SM -SHRA BKN020 BKN040 FM2000 22012KT
                       P6SM VCSH BKN040=
200601100122 TAF AMD KSEA 100122Z 100124 22009KT P6SM BKN016 OVC025 FM0200 20007KT
                       P6SM SCT025 BKN045
                      TEMPO 0204 BKN025 FM1000 17008KT P6SM -RA
                       OVC035 FM1700 21008KT P6SM SCT015 BKN025
                       BKN045 FM2200 17008KT P6SM -RA OVC035=
200601092338 TAF KSEA 092338Z 100024 22012G18KT P6SM BKN016 OVC025 FM0200 20010KT
                       P6SM SCT025 BKN045
                      TEMPO 0204 BKN025 FM1000 17008KT P6SM -RA
                       OVC035 FM1700 21008KT P6SM SCT015 BKN025
                       BKN045 FM2200 17008KT P6SM -RA OVC035=
200601092300 KSEA 100122Z 100124 22009KT P6SM BKN016 OVC025 FM0200 20007KT P6SM
                       SCT025 BKN045
                      TEMPO 0204 BKN025 FM1000 17008KT P6SM -RA
                       OVC035 FM1700 21008KT P6SM SCT015 BKN025
                       BKN045 FM2200 17008KT P6SM -RA OVC035=
200601091741 TAF KSEA 091741Z 091818 18012KT P6SM -RA OVC030 FM2000 18012KT
                       P6SM -RA SCT008 OVC018
                      TEMPO 2023 3SM -RA BKN008 OVC018 FM0400 17008KT
                       P6SM SCT012 BKN022 OVC035 FM1000 17008KT
                       P6SM -RA OVC025=
200601091120 TAF KSEA 091120Z 091212 16015G25KT 5SM RA BR OVC030
                      TEMPO 1216 3SM RA BR OVC020 FM1800 19012G22KT
                       P6SM -SHRA BKN020 OVC040 FM2200 21010KT
                       P6SM VCSH BKN040 BKN080=
200601090528 TAF KSEA 090528Z 090606 16012KT P6SM -RA OVC040 FM0900 16015KT
                       4SM RA BR OVC030 FM1200 16015G25KT 3SM RA
                       BR OVC020 FM1800 19012G22KT P6SM -SHRA BKN020
                       OVC040 FM2200 21010KT P6SM VCSH BKN040 BKN080=
200601082341 TAF KSEA 082341Z 090024 19006KT P6SM VCSH SCT030 BKN060 OVC110
                       FM0200 16010KT P6SM -RA BKN030 OVC050 FM0800
                       16015KT 4SM RA BR OVC025 FM1800 19010KT
                       P6SM -SHRA BKN020 OVC040=
200601081741 TAF KSEA 081741Z 081818 21007KT P6SM SCT025 BKN120 BKN250 FM2200
                       16008KT P6SM SCT060 OVC120 FM0400 16010KT
                       P6SM -RA OVC040 FM0800 16015KT 4SM RA BR
                       OVC025=
200601081450 KSEA 081450Z 081512 18007KT P6SM SCT060 BKN120 FM1800 18008KT P6SM
                       SCT040 BKN090 FM0400 16010KT P6SM -RA OVC040
                       FM0800 16015KT 4SM RA BR OVC025=
200601081120 TAF KSEA 081120Z 081212 18008KT P6SM OVC012 FM1400 18010KT P6SM
                       BKN015 BKN040
                      TEMPO 1418 SCT010 BKN040 FM1800 18008KT P6SM
                       BKN040 BKN090 FM0400 16010KT P6SM -RA OVC040
                       FM0800 16015KT 4SM RA BR OVC025=
200601080733 KSEA 080733Z 080806 22012KT P6SM BKN012 BKN080 FM1200 20010KT P6SM
                       VCSH SCT015 BKN035 BKN080
                      TEMPO 1216 BKN015 OVC030 FM1800 18006KT P6SM
                       BKN040 BKN150=
200601080544 TAF KSEA 080544Z 080606 21012KT P6SM VCSH BKN035 BKN080
                      TEMPO 0610 SCT035 SCT100 FM1800 18006KT P6SM
                       BKN040 BKN150=
200601072338 TAF KSEA 072338Z 080024 23012G22KT P6SM -SHRA SCT015 BKN025 OVC045
                       TEMPO 0002 BKN015 OVC025 FM0200 22012KT
                       P6SM VCSH SCT020 BKN035 BKN120 FM1000 20010KT
                       P6SM BKN030 BKN050 FM1800 18006KT P6SM BKN050=
200601072240 KSEA 072240Z 072318 22013G22KT P6SM -SHRA BKN014 OVC030 FM0100
                       22012KT P6SM VCSH SCT020 BKN035 BKN120 FM1000
                       20010KT P6SM BKN030 OVC050=
200601072016 KSEA 072016Z 072018 24010G20KT P6SM -RA SCT025 BKN040 BKN120
                      TEMPO 2022 2SM -RA OVC025 FM1000 20010KT
                       P6SM -RA BKN030 OVC050=
200601071738 TAF KSEA 071738Z 071818 18009KT P6SM VCSH SCT025 BKN040 BKN120
                       TEMPO 1822 -SHRA BKN020 OVC040 FM1000 20010KT
                       P6SM -RA BKN030 OVC050=
200601071445 KSEA 071445Z 071512 18009KT P6SM SCT025 OVC060
                      TEMPO 1518 -RA BKN025 OVC060 FM1800 18012KT
                       P6SM -RA BKN025 OVC050 FM0000 20010KT P6SM
                       -SHRA BKN030 FM0600 VRB05KT P6SM VCSH BKN030=
200601071434 KSEA 071434Z 071512 18009KT P6SM SCT035 OVC060
                      TEMPO 1618 -RA BKN035 OVC060 FM1800 18012KT
                       P6SM -RA BKN025 OVC050 FM0000 20010KT P6SM
                       -SHRA BKN030 FM0600 VRB05KT P6SM VCSH BKN030=
200601071346 KSEA 071346Z 071412 18009KT P6SM SCT012 OVC035
                      TEMPO 1416 -RA BKN012 OVC035 FM1800 18012KT
                       P6SM -RA BKN025 OVC050 FM0000 20010KT P6SM
                       -SHRA BKN030 FM0600 VRB05KT P6SM VCSH BKN030=
200601071135 TAF KSEA 071135Z 071212 18007KT 5SM -RA BR SCT008 OVC030
                      TEMPO 1216 3SM RA BR OVC008 FM1800 18012KT
                       P6SM -RA BKN025 OVC050 FM0000 20010KT P6SM
                       -SHRA BKN030 FM0600 VRB05KT P6SM VCSH BKN030=
200601070829 KSEA 070829Z 070806 20006KT 5SM BR BKN005 OVC025
                      TEMPO 0812 -SHRA OVC004 FM1800 18012KT P6SM
                       -RA BKN025 OVC050
                      TEMPO 0004 4SM RA BR OVC020=
200601070715 KSEA 070715Z 070706 20006KT P6SM SCT008 OVC025
                      TEMPO 0711 -RA BKN008 OVC020 FM1800 18012KT
                       P6SM -RA BKN025 OVC050
                      TEMPO 0004 4SM RA BR OVC020=
200601070525 TAF KSEA 070525Z 070606 00000KT P6SM SCT025 BKN070
                      TEMPO 0609 -SHRA BKN025 OVC050 FM0900 16006KT
                       P6SM VCSH OVC020 FM1800 18012KT P6SM -RA
                       BKN025 OVC150
                      TEMPO 0004 4SM RA BR OVC020=
200601062325 TAF KSEA 062325Z 070024 23006KT P6SM VCSH BKN045 BKN080 OVC150
                       FM0300 27004KT P6SM BKN050 BKN200 FM0900
                       00000KT P6SM OVC020 FM1800 18004KT P6SM
                       BKN025 OVC120 FM2200 17007KT P6SM VCSH BKN035
                       OVC090=
200601061736 TAF KSEA 061736Z 061818 20007KT P6SM VCSH BKN045 BKN060 OVC100
                       FM0000 16008KT P6SM VCSH BKN045 BKN200 FM0900
                       00000KT P6SM OVC020=
200601061530 KSEA 061530Z 061612 21008KT P6SM VCSH SCT040 BKN100 OVC200 FM1800
                       18012KT P6SM -SHRA OVC030 FM0000 16008KT
                       P6SM VCSH BKN030=
200601061120 TAF KSEA 061120Z 061212 18014KT 6SM -RA OVC040
                      TEMPO 1216 4SM RA BR OVC030 FM1800 18012KT
                       P6SM -SHRA OVC030 FM0000 16008KT P6SM VCSH
                       BKN030=
200601060520 TAF KSEA 060520Z 060606 VRB05KT 6SM -RA OVC050
                      TEMPO 0610 4SM RA BR OVC040 FM1000 16012G22KT
                       P6SM -RA BKN025 BKN040
                      TEMPO 1014 4SM RA BR OVC025 FM1400 18012KT
                       P6SM -SHRA BKN025 BKN040 FM1800 16008KT
                       P6SM VCSH BKN040=
200601060312 TAF AMD KSEA 060312Z 060324 13010KT 6SM -RA BR BKN050 OVC070
                      TEMPO 0307 4SM RA BR OVC040 FM0700 18012G22KT
                       P6SM -SHRA BKN025 BKN040 FM1400 18010KT
                       P6SM -SHRA BKN025 BKN040=
200601060043 TAF AMD KSEA 060043Z 060124 12010KT P6SM -RA BKN050 OVC070 FM0200
                       12010KT 3SM RA BR BKN009 OVC030 FM0700 18012G22KT
                       P6SM -SHRA BKN025 BKN040 FM1400 18010KT
                       P6SM -SHRA BKN025 BKN040=
200601052320 TAF KSEA 052320Z 060024 14009KT 3SM RA BR BKN030 OVC045 FM0100
                       15008KT 3SM RA BR BKN009 OVC030 FM0700 18012G22KT
                       P6SM -SHRA BKN025 BKN040 FM1400 18010KT
                       P6SM -SHRA BKN025 BKN040=
200601052300 KSEA 060312Z 060324 13010KT 6SM -RA BR BKN050 OVC070
                      TEMPO 0307 4SM RA BR OVC040 FM0700 18012G22KT
                       P6SM -SHRA BKN025 BKN040 FM1400 18010KT
                       P6SM -SHRA BKN025 BKN040=
200601052246 KSEA 052246Z 052318 15009KT 3SM RA BR OVC035 FM0100 15005KT 3SM
                       -RA BR BKN009 OVC030 FM0600 18012G22KT P6SM
                       -SHRA BKN030 BKN050=
200601052123 KSEA 052123Z 052118 15008KT P6SM -RA OVC040 FM0000 15005KT 3SM
                       -RA BR BKN009 OVC030 FM0600 18012G22KT P6SM
                       -SHRA BKN030 BKN050=
200601051806 KSEA 051806Z 051818 15006KT 3SM RA BR BKN035 OVC050 FM2200 15005KT
                       3SM -RA BR BKN009 OVC030 FM0600 18012G22KT
                       P6SM -SHRA BKN030 BKN050=
200601051720 TAF KSEA 051720Z 051818 20005KT 5SM +RA SCT045 OVC060 FM1900 16012KT
                       5SM RA BKN035 OVC050 FM2200 15005KT 3SM
                       -RA BR BKN009 OVC030 FM0600 18012G22KT P6SM
                       -SHRA BKN030 BKN050=
200601051132 TAF KSEA 051132Z 051212 12008KT P6SM BKN080 OVC120 FM2000 16012KT
                       P6SM -RA BKN050 OVC090 FM0600 18012KT P6SM
                       -RA OVC040=
200601050531 TAF KSEA 050531Z 050606 12012G20KT P6SM OVC050 FM1100 14012G20KT
                       P6SM -RA SCT010 OVC035
                      TEMPO 1619 4SM -RA BR BKN010 OVC035 FM2000
                       17006KT P6SM BKN030 OVC050
                      TEMPO 2024 -RA=
200601042320 TAF KSEA 042320Z 050024 11007KT P6SM OVC100 FM0600 10010KT P6SM
                       OVC060 FM1100 12010KT P6SM -RA SCT010 OVC035
                       TEMPO 1619 4SM -RA BR BKN010 OVC035 FM2000
                       17006KT P6SM BKN030 OVC050
                      TEMPO 2024 -RA=
200601041733 TAF KSEA 041733Z 041818 12008KT P6SM OVC120 FM0000 10010KT P6SM
                       OVC080 FM0600 10010KT P6SM OVC050
                      TEMPO 0610 -RA FM1000 12010KT P6SM -RA SCT010
                       OVC035
                      TEMPO 1418 5SM -RA BR BKN010 OVC035=
200601041149 TAF KSEA 041149Z 041212 18010KT P6SM SCT035 BKN060 FM1800 12006KT
                       P6SM SCT060 BKN100 FM0000 10007KT P6SM SCT060
                       BKN080=
200601040540 TAF KSEA 040540Z 040606 18008KT P6SM BKN035 OVC050
                      TEMPO 0812 SCT035 BKN050 FM1600 14006KT P6SM
                       BKN060 BKN100=
200601032324 TAF KSEA 032324Z 040024 16005KT P6SM -RA SCT025 BKN035 OVC045
                      TEMPO 0004 -RA BKN025 OVC035 FM0400 16006KT
                       P6SM BKN035 BKN060
                      TEMPO 0408 -SHRA FM1400 12006KT P6SM BKN060
                       BKN100=
200601032143 KSEA 032143Z 032218 14008KT P6SM -RA SCT025 OVC050
                      TEMPO 2224 -RA BKN025 OVC050 FM0000 19010KT
                       P6SM -RA SCT030 OVC050 FM0400 16006KT P6SM
                       BKN035 BKN060
                      TEMPO 0408 -SHRA=
200601031720 TAF KSEA 031720Z 031818 12008KT P6SM SCT080 BKN150 FM1900 14008KT
                       P6SM -RA BKN050 OVC080 FM2100 17008KT 5SM
                       -RA BR BKN025 OVC050 FM0000 19010KT P6SM
                       -RA BKN025 OVC040 FM0400 16006KT P6SM BKN035
                       BKN060
                      TEMPO 0408 -SHRA=
200601031141 TAF KSEA 031141Z 031212 14007KT P6SM BKN060 OVC150 FM2100 14008KT
                       P6SM -RA BKN050 OVC080 FM0000 17008KT P6SM
                       -RA BKN035 OVC050 FM0200 19008KT P6SM -RA
                       BKN025 OVC040 FM0400 20014KT P6SM BKN025
                       BKN040
                      TEMPO 0408 -SHRA=
200601030546 TAF KSEA 030546Z 030606 20005KT P6SM SCT008 OVC017
                      TEMPO 0913 BKN008 OVC017 FM1500 14004KT P6SM
                       SCT020 BKN070 OVC120 FM1900 14007KT P6SM
                       -RA BKN050 OVC070 FM2200 15008KT P6SM -RA
                       BKN035 OVC050 FM0100 19008KT P6SM -RA BKN020
                       OVC040=
200601030205 KSEA 030205Z 030224 20006KT P6SM -SHRA SCT009 OVC019
                      TEMPO 0204 -SHRA BKN009 OVC022 FM0400 18005KT
                       P6SM SCT021 BKN060
                      TEMPO 0406 OVC021 FM0600 17005KT P6SM SCT040
                       BKN070 FM2000 13008KT P6SM -RA BKN030 OVC060=
200601022325 TAF KSEA 022325Z 030024 20006KT P6SM -SHRA SCT009 SCT022 OVC035
                       TEMPO 0003 -SHRA SCT009 OVC022 FM0400 18005KT
                       P6SM SCT030 BKN060
                      TEMPO 0406 -SHRA OVC030 FM0600 17005KT P6SM
                       SCT040 BKN070 FM2000 13008KT P6SM -RA BKN030
                       OVC060=
200601022300 KSEA 030205Z 030224 20006KT P6SM -SHRA SCT009 OVC019
                      TEMPO 0204 -SHRA BKN009 OVC022 FM0400 18005KT
                       P6SM SCT021 BKN060
                      TEMPO 0406 OVC021 FM0600 17005KT P6SM SCT040
                       BKN070 FM2000 13008KT P6SM -RA BKN030 OVC060=
200601021901 KSEA 021901Z 021918 21005KT P6SM -SHRA SCT002 SCT009 OVC035
                      TEMPO 1921 2SM -SHRA BKN002 OVC009 FM2100
                       21005KT P6SM -SHRA SCT007 SCT015 OVC040
                       TEMPO 2124 -SHRA BKN007 OVC015 FM0000 21005KT
                       P6SM -SHRA BKN040 BKN070 FM0400 17006KT
                       P6SM SCT045 BKN070=
200601021733 TAF KSEA 021733Z 021818 21005KT P6SM -SHRA SCT009 OVC035
                      TEMPO 1820 -SHRA BKN009 OVC035 FM0000 21005KT
                       P6SM -SHRA BKN040 BKN070 FM0400 17006KT
                       P6SM SCT045 BKN070=
200601021616 KSEA 021616Z 021612 16004KT P6SM -SHRA SCT007 SCT035 OVC050
                      TEMPO 1619 -SHRA BKN007 OVC035 FM1900 18004KT
                       P6SM -SHRA BKN035 OVC050
                      TEMPO 1923 BKN020 OVC035 FM0000 21005KT P6SM
                       -SHRA BKN040 BKN070 FM0400 17006KT P6SM
                       VCSH SCT045 BKN070=
200601021200 KSEA 021200Z 021212 16004KT P6SM SCT050 BKN080
                      TEMPO 1216 -SHRA BKN040 BKN080 FM1600 16004KT
                       P6SM -SHRA BKN045 OVC070 FM2000 18004KT
                       P6SM -SHRA BKN030 OVC050
                      TEMPO 2023 BKN020 OVC040 FM0000 21005KT P6SM
                       -SHRA BKN040 BKN070 FM0400 17006KT P6SM
                       VCSH SCT045 BKN070=
200601021149 TAF KSEA 021149Z 021212 16004KT P6SM VCSH SCT050 BKN080 FM1600
                       16004KT P6SM -SHRA BKN045 OVC070 FM2000
                       18004KT P6SM -SHRA BKN030 OVC050
                      TEMPO 2023 BKN020 OVC040 FM0000 21005KT P6SM
                       -SHRA BKN040 BKN070 FM0400 17006KT P6SM
                       VCSH SCT045 BKN070=
200601020540 TAF KSEA 020540Z 020606 20006KT P6SM VCSH BKN040 OVC070 FM0800
                       16006KT P6SM SCT040 OVC070
                      TEMPO 0812 -SHRA BKN040 OVC070 FM1600 15004KT
                       P6SM -SHRA BKN040 OVC070=
200601012340 TAF KSEA 012340Z 020024 18020G30KT P6SM SCT025 BKN060 OVC100
                      TEMPO 0003 -SHRA BKN025 OVC060 FM0300 18012KT
                       P6SM VCSH BKN040 OVC070 FM0800 16006KT P6SM
                       VCSH SCT040 OVC070=
200601011752 TAF KSEA 011752Z 011818 11015G22KT P6SM -RA BKN050 OVC080
                      TEMPO 1821 -RA BKN035 OVC050 FM2100 14016G24KT
                       P6SM -RA BKN030 OVC050 FM0000 18018G27KT
                       P6SM -SHRA BKN035 OVC050 FM0400 18012KT
                       P6SM -SHRA BKN040 OVC070=
200601011141 TAF KSEA 011141Z 011212 15008KT P6SM SCT045 BKN080 FM1400 11012KT
                       P6SM SCT050 BKN080 OVC120 FM1800 11014KT
                       P6SM BKN050 OVC080
                      TEMPO 1820 -RA FM2000 11014KT P6SM -RA BKN050
                       OVC080 FM2200 13012KT P6SM -RA BKN030 OVC050
                       FM0000 18014KT P6SM -SHRA BKN035 OVC050=
200601010544 TAF KSEA 010544Z 010606 18011KT P6SM SCT022 BKN040 OVC070
                      TEMPO 0608 -SHRA BKN022 OVC040 FM0800 18008KT
                       P6SM SCT040 BKN080 FM1400 11014KT P6SM BKN090
                       OVC150 FM1900 11014KT P6SM BKN070 OVC120
                       TEMPO 1921 -RA FM2100 11014KT P6SM -RA BKN050
                       OVC080=