##########################################################
# Query made at 02/18/2025 01:30:43 UTC
# Time interval: from 01/01/2007 00:00  to 01/31/2007 23:59  UTC
##########################################################

##########################################################
# KSEA, Seattle, Seattle-Tacoma International Airport (United States)
# WMO index: 72793. WIGOS ID: 0-20000-0-72793
# Latitude 47-27-00N. Longitude 122-17-59W. Altitude 130 m.
##########################################################

###################################
#  METAR/SPECI from KSEA
###################################
200701312353 METAR KSEA 312353Z 36007KT 10SM CLR 08/M02 A3008 RMK AO2 SLP194 T00831017 10089 20022 55009=
200701312253 METAR KSEA 312253Z 31007KT 10SM CLR 08/00 A3007 RMK AO2 SLP191 T00830000=
200701312153 METAR KSEA 312153Z 30007KT 10SM CLR 08/02 A3009 RMK AO2 SLP198 T00830022=
200701312053 METAR KSEA 312053Z 30005KT 10SM CLR 08/02 A3010 RMK AO2 SLP203 T00830017 58008=
200701311953 METAR KSEA 311953Z 00000KT 10SM FEW009 07/03 A3012 RMK AO2 SLP208 T00670028=
200701311853 METAR KSEA 311853Z 00000KT 10SM FEW005 06/02 A3013 RMK AO2 SLP214 T00610022=
200701311753 METAR KSEA 311753Z 36005KT 9SM FEW002 02/01 A3013 RMK AO2 SLP211 T00220006 10022 21022 58005=
200701311728 SPECI KSEA 311728Z 00000KT 3SM BR FEW001 SCT005 01/01 A3013 RMK AO2 VIS NE-E-SE 1/2=
200701311728 SPECI KSEA 311728Z 00000KT 3SM BR FEW001 SCT005 01/01 A3013 RMK AO2 VIS NE-E-SE 1/2=
200701311722 SPECI KSEA 311722Z 35004KT 1SM R16C/2000VP6000FT BR FEW001 SCT005 01/00 A3013 RMK AO2 TWR VIS 2=
200701311722 SPECI KSEA 311722Z 35004KT 1SM R16C/2000VP6000FT BR FEW001 SCT005 01/00 A3013 RMK AO2 TWR VIS 2=
200701311718 SPECI KSEA 311718Z 02003KT 3/4SM R16C/1200VP6000FT BR SCT001 SCT005 01/01 A3013 RMK AO2=
200701311718 SPECI KSEA 311718Z 02003KT 3/4SM R16C/1200VP6000FT BR SCT001 SCT005 01/01 A3013 RMK AO2=
200701311715 SPECI KSEA 311715Z 35003KT 1/4SM R16C/1200VP6000FT FG BKN001 01/01 A3013 RMK AO2=
200701311715 SPECI KSEA 311715Z 35003KT 1/4SM R16C/1200VP6000FT FG BKN001 01/01 A3013 RMK AO2=
200701311700 SPECI KSEA 311700Z 00000KT M1/4SM R16C/1000V2400FT FG BKN001 01/01 A3013 RMK AO2=
200701311700 SPECI KSEA 311700Z 00000KT M1/4SM R16C/1000V2400FT FG BKN001 01/01 A3013 RMK AO2=
200701311653 METAR KSEA 311653Z 02003KT M1/4SM R16C/1200V2200FT FG BKN001 01/00 A3014 RMK AO2 SLP214 T00060000=
200701311639 SPECI KSEA 311639Z 35003KT M1/4SM R16C/1000VP6000FT FG BKN001 00/00 A3014 RMK AO2=
200701311639 SPECI KSEA 311639Z 35003KT M1/4SM R16C/1000VP6000FT FG BKN001 00/00 A3014 RMK AO2=
200701311553 METAR KSEA 311553Z 01006KT M1/4SM R16C/0800V1000FT FG OVC001 00/M01 A3014 RMK AO2 SLP216 T00001006=
200701311549 SPECI KSEA 311549Z 02007KT M1/4SM R16C/0800V1000FT FG VV001 00/M01 A3014 RMK AO2=
200701311549 SPECI KSEA 311549Z 02007KT M1/4SM R16C/0800V1000FT FG VV001 00/M01 A3014 RMK AO2=
200701311535 SPECI KSEA 311535Z 02005KT M1/4SM R16C/2200VP6000FT FG BKN001 00/M01 A3014=
200701311535 SPECI KSEA 311535Z 02005KT M1/4SM R16C/2200VP6000FT FG BKN001 00/M01 A3014 RMK AO2=
200701311531 SPECI KSEA 311531Z 36004KT 1/2SM R16C/P6000FT FG BKN001 00/M01 A3014 RMK AO2=
200701311531 SPECI KSEA 311531Z 36004KT 1/2SM R16C/P6000FT FG BKN001 00/M01 A3014 RMK AO2=
200701311529 SPECI KSEA 311529Z 36004KT 2SM BR SCT001 01/M01 A3014 RMK AO2 VIS NE-E 1/4=
200701311529 SPECI KSEA 311529Z 36004KT 2SM BR SCT001 01/M01 A3014 RMK AO2 VIS=
200701311453 METAR KSEA 311453Z 01003KT 6SM BR FEW006 M01/M01 A3014 RMK AO2 SLP216 T10111011 53004=
200701311353 METAR KSEA 311353Z 00000KT 4SM BR SCT001 SCT006 M01/M01 A3013 RMK AO2 SLP212 VIS LWR N AND S T10061006=
200701311309 SPECI KSEA 311309Z 03006KT 5SM BR FEW001 01/00 A3013=
200701311309 SPECI KSEA 311309Z 03006KT 5SM BR FEW001 01/00 A3013 RMK AO2=
200701311253 METAR KSEA 311253Z 03008KT 7SM CLR 01/M01 A3013 RMK AO2 SLP211 T00111006=
200701311153 METAR KSEA 311153Z 03008KT 10SM CLR 02/M01 A3012 RMK AO2 SLP209 T00171011 10033 20006 58004=
200701311053 METAR KSEA 311053Z 01004KT 10SM CLR 01/M01 A3014 RMK AO2 SLP217 T00111011=
200701310953 METAR KSEA 310953Z 02006KT 10SM CLR 02/M01 A3014 RMK AO2 SLP215 T00171006=
200701310853 METAR KSEA 310853Z 03008KT 10SM CLR 02/M01 A3014 RMK AO2 SLP213 T00221006 56002=
200701310753 METAR KSEA 310753Z 01009KT 10SM CLR 02/01 A3014 RMK AO2 SLP215 T00220006 400890006=
200701310653 METAR KSEA 310653Z 02010KT 10SM CLR 03/01 A3014 RMK AO2 SLP214 T00330011=
200701310553 METAR KSEA 310553Z 03009KT 10SM CLR 03/01 A3014 RMK AO2 SLP216 T00330011 10089 20033 51004=
200701310453 METAR KSEA 310453Z 04010KT 10SM CLR 04/01 A3014 RMK AO2 SLP216 T00440011=
200701310353 METAR KSEA 310353Z 03012KT 10SM CLR 05/00 A3013 RMK AO2 SLP212 T00500000=
200701310253 METAR KSEA 310253Z 01009KT 10SM CLR 05/00 A3013 RMK AO2 SLP211 T00500000 58002=
200701310153 METAR KSEA 310153Z 02010KT 10SM CLR 07/M02 A3013 RMK AO2 SLP213 T00671017=
200701310053 METAR KSEA 310053Z 01009KT 10SM FEW150 07/M01 A3013 RMK AO2 SLP214 ACSL SE T00721006=
200701302353 METAR KSEA 302353Z 36009KT 10SM CLR 09/00 A3013 RMK AO2 SLP214 T00890000 10089 20039 58008=
200701302253 METAR KSEA 302253Z 35010KT 10SM CLR 08/01 A3015 RMK AO2 SLP217 T00830006=
200701302153 METAR KSEA 302153Z 36013KT 10SM CLR 08/M01 A3015 RMK AO2 SLP219 T00831006=
200701302053 METAR KSEA 302053Z 01008KT 10SM CLR 08/01 A3016 RMK AO2 SLP222 T00830006 58015=
200701301953 METAR KSEA 301953Z 01009KT 10SM FEW250 07/01 A3018 RMK AO2 SLP230 T00670011=
200701301853 METAR KSEA 301853Z 36009KT 10SM FEW009 SCT250 06/M01 A3021 RMK AO2 SLP238 T00561006=
200701301753 METAR KSEA 301753Z 04009KT 10SM FEW005 SCT250 04/00 A3020 RMK AO2 SLP237 T00390000 10039 20006 58002=
200701301653 METAR KSEA 301653Z 02011KT 7SM FEW002 SCT250 02/00 A3022 RMK AO2 SLP242 T00170000=
200701301553 METAR KSEA 301553Z 03013KT 6SM BR FEW001 SCT250 01/00 A3022 RMK AO2 SLP242 T00110000=
200701301453 METAR KSEA 301453Z 03012KT 5SM BR FEW001 SCT250 01/00 A3021 RMK AO2 SLP240 T00060000 55003=
200701301353 METAR KSEA 301353Z 03012KT 6SM BR FEW001 SCT250 01/00 A3021 RMK AO2 SLP240 VIS LWR S T00110000=
200701301326 SPECI KSEA 301326Z 03013KT 6SM BR FEW001 SCT250 01/00 A3021 RMK AO2 VIS LWR S=
200701301326 SPECI KSEA 301326Z 03013KT 6SM BR FEW001 SCT250 01/00 A3021 RMK AO2 VIS LWR S=
200701301253 METAR KSEA 301253Z 03010KT 7SM FEW250 01/00 A3021 RMK AO2 SLP241 T00110000=
200701301153 METAR KSEA 301153Z 04012KT 8SM FEW250 01/00 A3022 RMK AO2 SLP242 T00110000 10017 20006 58003=
200701301053 METAR KSEA 301053Z 04013KT 7SM CLR 01/00 A3023 RMK AO2 SLP248 T00110000=
200701300953 METAR KSEA 300953Z 03013KT 8SM CLR 01/M01 A3024 RMK AO2 SLP248 T00111006=
200701300853 METAR KSEA 300853Z 02010KT 8SM FEW250 01/00 A3023 RMK AO2 SLP245 T00110000 53007=
200701300753 METAR KSEA 300753Z 01010KT 8SM SCT250 01/M01 A3022 RMK AO2 SLP242 T00061011 400441022=
200701300653 METAR KSEA 300653Z 01010KT 7SM SCT250 01/M01 A3021 RMK AO2 SLP239 T00111006=
200701300553 METAR KSEA 300553Z 02010KT 5SM BR FEW250 01/00 A3021 RMK AO2 SLP239 T00110000 10044 20011 56005=
200701300453 METAR KSEA 300453Z 02009KT 5SM BR FEW250 02/00 A3021 RMK AO2 SLP240 T00220000=
200701300353 METAR KSEA 300353Z 34004KT 5SM BR FEW250 02/01 A3020 RMK AO2 SLP238 T00170006=
200701300253 METAR KSEA 300253Z 03006KT 5SM BR FEW250 01/00 A3022 RMK AO2 SLP244 T00110000 50002=
200701300153 METAR KSEA 300153Z 35004KT 6SM BR FEW180 SCT250 03/01 A3022 RMK AO2 SLP245 T00280011=
200701300053 METAR KSEA 300053Z 36004KT 6SM HZ SCT180 SCT250 04/00 A3022 RMK AO2 SLP244 T00390000=
200701292353 METAR KSEA 292353Z 34003KT 6SM BR FEW130 OVC180 04/02 A3022 RMK AO2 SLP242 T00390017 10044 20006 55015=
200701292253 METAR KSEA 292253Z 00000KT 7SM OVC130 04/01 A3020 RMK AO2 SLP238 T00390011=
200701292153 METAR KSEA 292153Z 00000KT 7SM BKN130 OVC150 04/01 A3023 RMK AO2 SLP248 T00390011=
200701292053 METAR KSEA 292053Z 19003KT 3SM BR FEW009 SCT150 OVC200 04/02 A3026 RMK AO2 SFC VIS 6 SLP257 T00390017 58004 $=
200701292021 SPECI KSEA 292021Z 00000KT 3SM BR SCT006 BKN150 OVC200 03/01 A3027=
200701292017 SPECI KSEA 292017Z 20004KT 3SM BR BKN006 03/01 A3027 RMK AO2 SFC VIS 6=
200701292017 SPECI KSEA 292017Z 20004KT 3SM BR BKN006 03/01 A3027 RMK AO2 SFC VIS 6=
200701291953 METAR KSEA 291953Z 18003KT 2SM BR SCT006 BKN120 OVC200 03/01 A3027 RMK AO2 SFC VIS 5 SLP260 T00330011=
200701291941 SPECI KSEA 291941Z 23004KT 2SM BR SCT006 BKN120 OVC200 03/02 A3028 RMK AO2 SFC VIS 5=
200701291941 SPECI KSEA 291941Z 23004KT 2SM BR SCT006 BKN120 OVC200 03/02 A3028 RMK AO2 SFC VIS 5=
200701291927 SPECI KSEA 291927Z 00000KT 2SM BR SCT004 BKN006 OVC009 03/01 A3028 RMK AO2 SFC VIS 4 BINOVC OHD=
200701291927 SPECI KSEA 291927Z 00000KT 2SM BR SCT004 BKN006 OVC009 03/01 A3028 RMK AO2 SFC VIS 4 BINOVC OHD=
200701291853 METAR KSEA 291853Z 00000KT 2SM BR BKN004 OVC007 02/01 A3029 RMK AO2 SFC VIS 3 SLP265 T00220011=
200701291753 METAR KSEA 291753Z 16003KT 2SM BR SCT002 BKN004 OVC007 01/00 A3027 RMK AO2 SFC VIS 3 SLP262 T00060000 10011 21022 53002=
200701291733 SPECI KSEA 291733Z 00000KT 2SM BR FEW001 BKN002 OVC120 01/01 A3027 RMK AO2=
200701291733 SPECI KSEA 291733Z 00000KT 2SM BR FEW001 BKN002 OVC120 01/01 A3027 RMK AO2=
200701291712 SPECI KSEA 291712Z 00000KT 1 1/2SM BR FEW001 BKN002 OVC120 00/M01 A3027=
200701291700 SPECI KSEA 291700Z 00000KT 1SM R16C/P6000FT BR SCT001 BKN002 BKN120 M01/M01 A3027 RMK AO2 TWR VIS 2=
200701291700 SPECI KSEA 291700Z 00000KT 1SM R16C/P6000FT BR SCT001 BKN002 BKN120 M01/M01 A3027 RMK AO2 TWR VIS 2=
200701291653 METAR KSEA 291653Z 00000KT 1/2SM R16C/1200VP6000FT FZFG SCT001 BKN002 BKN120 M01/M01 A3027 RMK AO2 TWR VIS 1 1/2 SLP260 T10061011=
200701291651 SPECI KSEA 291651Z 17003KT 1/2SM R16C/1200VP6000FT FZFG SCT001 BKN002 BKN120 M01/M01 A3027 RMK AO2 TWR VIS 1 1/2=
200701291651 SPECI KSEA 291651Z 17003KT 1/2SM R16C/1200VP6000FT FZFG SCT001 BKN002 BKN120 M01/M01 A3027 RMK AO2 TWR VIS 1 1/2=
200701291638 SPECI KSEA 291638Z 06003KT M1/4SM R16C/0700VP6000FT FZFG BKN001 OVC110 M01/M01 A3027 RMK AO2 TWR VIS 1 1/2=
200701291638 SPECI KSEA 291638Z 06003KT M1/4SM R16C/0700VP6000FT FZFG BKN001 OVC110 M01/M01 A3027 RMK AO2 TWR VIS 1 1/2=
200701291636 SPECI KSEA 291636Z 03003KT 1/4SM R16C/1200VP6000FT FZFG BKN001 BKN110 M01/M02 A3027 RMK AO2 TWR VIS 1 1/2=
200701291636 SPECI KSEA 291636Z 03003KT 1/4SM R16C/1200VP6000FT FZFG BKN001 BKN110 M01/M02 A3027 RMK AO2 TWR VIS 1 1/2=
200701291610 SPECI KSEA 291610Z 00000KT 1/2SM R16C/1400V5000FT FZFG SCT001 BKN100 M01/M01 A3026 RMK AO2=
200701291610 SPECI KSEA 291610Z 00000KT 1/2SM R16C/1400V5000FT FZFG SCT001 BKN100 M01/M01 A3026 RMK AO2=
200701291602 SPECI KSEA 291602Z 00000KT 1/4SM R16C/1400V2000FT FZFG SCT001 BKN100 M01/M01 A3026 RMK AO2=
200701291602 SPECI KSEA 291602Z 00000KT 1/4SM R16C/1400V2000FT FZFG SCT001 BKN100 M01/M01 A3026 RMK AO2=
200701291600 SPECI KSEA 291600Z 00000KT 1/4SM R16C/1400V2600FT FZFG BKN001 OVC100 M01/M01 A3026 RMK AO2=
200701291600 SPECI KSEA 291600Z 00000KT 1/4SM R16C/1400V2600FT FZFG BKN001 OVC100 M01/M01 A3026 RMK AO2=
200701291553 METAR KSEA 291553Z 00000KT M1/4SM R16C/1200V2800FT FZFG BKN001 OVC100 M01/M01 A3026 RMK AO2 SLP258 T10061011=
200701291549 SPECI KSEA 291549Z 00000KT M1/4SM R16C/1200V2800FT FZFG OVC001 M01/M01 A3027 RMK AO2=
200701291549 SPECI KSEA 291549Z 00000KT M1/4SM R16C/1200V2800FT FZFG OVC001 M01/M01 A3027 RMK AO2=
200701291453 METAR KSEA 291453Z 22003KT 1/4SM R16C/1200V2000FT FZFG VV001 M01/M01 A3027 RMK AO2 SLP260 T10061011 58005=
200701291420 SPECI KSEA 291420Z 03007KT 3/4SM R16C/4500VP6000FT BR VV001 M01/M02 A3028 RMK AO2=
200701291420 SPECI KSEA 291420Z 03007KT 3/4SM R16C/4500VP6000FT BR VV001 M01/M02 A3028 RMK AO2=
200701291353 METAR KSEA 291353Z 00000KT 4SM BR FEW006 SCT100 M02/M03 A3028 RMK AO2 SLP263 T10171028=
200701291312 SPECI KSEA 291312Z 13003KT 3SM BR FEW001 SCT006 M02/M03 A3027 RMK AO2=
200701291312 SPECI KSEA 291312Z 13003KT 3SM BR FEW001 SCT006 M02/M03 A3027 RMK AO2=
200701291253 METAR KSEA 291253Z 08003KT 2SM R16C/1600VP6000FT BR SCT001 BKN006 M02/M03 A3028 RMK AO2 SLP262 T10171028=
200701291153 METAR KSEA 291153Z 04006KT 1/2SM R16C/1800VP6000FT FZFG VV001 M01/M02 A3028 RMK AO2 SLP263 T10061022 10033 21011 50002=
200701291149 SPECI KSEA 291149Z 04005KT 1SM R16C/P6000FT BR VV001 M01/M03 A3028 RMK AO2=
200701291149 SPECI KSEA 291149Z 04005KT 1SM R16C/P6000FT BR VV001 M01/M03 A3028 RMK AO2=
200701291053 METAR KSEA 291053Z 05005KT 10SM CLR M01/M02 A3028 RMK AO2 SLP265 T10061022=
200701290953 METAR KSEA 290953Z 02003KT 8SM CLR 01/M01 A3028 RMK AO2 SLP263 T00061011=
200701290853 METAR KSEA 290853Z 05008KT 10SM CLR 01/M01 A3027 RMK AO2 SLP261 T00111011 53002=
200701290753 METAR KSEA 290753Z 04008KT 10SM CLR 02/M01 A3027 RMK AO2 SLP260 T00221006 401001022=
200701290653 METAR KSEA 290653Z 03008KT 10SM CLR 03/M01 A3027 RMK AO2 SLP259 T00281006=
200701290553 METAR KSEA 290553Z 02009KT 10SM CLR 02/M01 A3027 RMK AO2 SLP259 T00221006 10089 20022 50001=
200701290453 METAR KSEA 290453Z 02008KT 10SM CLR 03/M01 A3027 RMK AO2 SLP261 T00331006=
200701290353 METAR KSEA 290353Z 03011KT 10SM CLR 04/M01 A3027 RMK AO2 SLP262 T00441011=
200701290253 METAR KSEA 290253Z 02010KT 10SM SCT250 05/M01 A3026 RMK AO2 SLP259 T00501006 53008=
200701290153 METAR KSEA 290153Z 33003KT 10SM BKN250 06/00 A3025 RMK AO2 SLP252 T00560000=
200701290053 METAR KSEA 290053Z 00000KT 10SM FEW170 SCT250 07/02 A3024=
200701282353 METAR KSEA 282353Z 31004KT 10SM SCT250 09/02 A3024 RMK AO2 SLP250 T00890017 10100 20028 56014=
200701282253 METAR KSEA 282253Z 32004KT 10SM BKN250 09/M01 A3025 RMK AO2 SLP253 T00941006=
200701282153 METAR KSEA 282153Z 01006KT 10SM SCT250 09/M03 A3026 RMK AO2 SLP258 T00891033=
200701282053 METAR KSEA 282053Z 05006KT 10SM FEW250 08/M02 A3028 RMK AO2 SLP264 T00831022 58007=
200701281953 METAR KSEA 281953Z 36005KT 10SM FEW150 07/M01 A3031 RMK AO2 SLP273 ACSL DSNT SE T00671011=
200701281853 METAR KSEA 281853Z 02005KT 10SM FEW250 04/M01 A3032 RMK AO2 SLP278 T00441011=
200701281753 METAR KSEA 281753Z 05004KT 10SM FEW250 03/M01 A3030 RMK AO2 SLP271 T00281006 10028 21022 51018=
200701281653 METAR KSEA 281653Z 03004KT 10SM FEW250 02/M01 A3029 RMK AO2 SLP266 T00171011=
200701281553 METAR KSEA 281553Z 00000KT 10SM SCT250 M01/M03 A3027 RMK AO2 SLP260 T10061028=
200701281453 METAR KSEA 281453Z 00000KT 10SM FEW250 M02/M03 A3025 RMK AO2 SLP254 T10171028 55001=
200701281353 METAR KSEA 281353Z 00000KT 10SM CLR 01/M02 A3024 RMK AO2 SLP250 T00061017=
200701281253 METAR KSEA 281253Z 04009KT 10SM CLR 01/M01 A3025 RMK AO2 SLP252 T00111011=
200701281153 METAR KSEA 281153Z 05007KT 9SM CLR 00/M01 A3025 RMK AO2 SLP254 T00001011 10044 21011 57002=
200701281053 METAR KSEA 281053Z 00000KT 10SM CLR 01/M01 A3026 RMK AO2 SLP254 T00061011=
200701280953 METAR KSEA 280953Z 00000KT 10SM CLR 01/M01 A3025 RMK AO2 SLP253 T00061011=
200701280853 METAR KSEA 280853Z 00000KT 10SM CLR 02/M01 A3026 RMK AO2 SLP255 T00171006 51007=
200701280753 METAR KSEA 280753Z 04007KT 10SM CLR 03/M01 A3025 RMK AO2 SLP253 T00331006 401110000=
200701280653 METAR KSEA 280653Z 02007KT 10SM FEW250 04/M01 A3024=
200701280453 METAR KSEA 280453Z 01006KT 10SM SCT250 05/M02 A3023 RMK AO2 SLP247 T00501017=
200701280353 METAR KSEA 280353Z 35005KT 10SM FEW250 06/M01 A3022 RMK AO2 SLP242 T00561006=
200701280253 METAR KSEA 280253Z 35005KT 10SM FEW250 05/00 A3021 RMK AO2 SLP240 T00500000 55000=
200701280153 METAR KSEA 280153Z 36005KT 10SM SCT250 06/00 A3021 RMK AO2 SLP240 T00560000=
200701280053 METAR KSEA 280053Z 31004KT 10SM FEW200 SCT250 08/02 A3021 RMK AO2 SLP239 T00780022=
200701272353 METAR KSEA 272353Z 30006KT 10SM FEW250 10/02 A3021 RMK AO2 SLP239 T01000022 10111 20033 55004=
200701272253 METAR KSEA 272253Z 31007KT 10SM FEW250 10/02 A3021 RMK AO2 SLP239 T01000017=
200701272153 METAR KSEA 272153Z 31004KT 10SM FEW250 11/02 A3021 RMK AO2 SLP238 T01060022=
200701272053 METAR KSEA 272053Z 35005KT 10SM FEW250 10/M01 A3022 RMK AO2 SLP243 T01001006 58004=
200701271953 METAR KSEA 271953Z 00000KT 10SM FEW002 BKN250 08/00 A3023 RMK AO2 SLP247 T00780000=
200701271853 METAR KSEA 271853Z 00000KT 10SM FEW002 BKN250 06/01 A3024 RMK AO2 SLP248 T00560011=
200701271753 METAR KSEA 271753Z 00000KT 7SM FEW002 SCT250 03/01 A3024 RMK AO2 SLP248 T00330006 10033 20000 51011=
200701271653 METAR KSEA 271653Z 00000KT 4SM BR FEW001 SCT250 01/00 A3023 RMK AO2 SLP246 T00110000=
200701271648 SPECI KSEA 271648Z 01003KT 3SM BR FEW001 SCT250 01/00 A3022 RMK AO2 TWR VIS 7=
200701271648 SPECI KSEA 271648Z 01003KT 3SM BR FEW001 SCT250 01/00 A3022 RMK AO2 TWR VIS 7=
200701271553 METAR KSEA 271553Z 04006KT 2 1/2SM BR FEW001 SCT250 00/M01 A3022 RMK AO2 TWR VIS 7 SLP243 T00001006=
200701271534 SPECI KSEA 271534Z 04010KT 1 1/2SM BR FEW001 SCT250 00/M01 A3021 RMK AO2 TWR VIS 2=
200701271534 SPECI KSEA 271534Z 04010KT 1 1/2SM BR FEW001 SCT250 00/M01 A3021 RMK AO2 TWR VIS 2=
200701271530 SPECI KSEA 271530Z 03011KT 1SM R16C/P6000FT BR SCT001 00/M01 A3021=
200701271509 SPECI KSEA 271509Z 03008KT 1/2SM R16C/2000V3500FT FG OVC001 00/00 A3021 RMK AO2=
200701271509 SPECI KSEA 271509Z 03008KT 1/2SM R16C/2000V3500FT FG OVC001 00/00 A3021 RMK AO2=
200701271453 METAR KSEA 271453Z 02007KT 3/4SM R16C/5000VP6000FT BR BKN001 00/00 A3020 RMK AO2 TWR VIS 1 1/2 SLP238 T00000000 53001=
200701271448 SPECI KSEA 271448Z 03005KT 1/4SM R16C/2000FT FG VV001 00/00 A3020 RMK AO2=
200701271448 SPECI KSEA 271448Z 03005KT 1/4SM R16C/2000FT FG VV001 00/00 A3020 RMK AO2=
200701271353 METAR KSEA 271353Z 02005KT 1/4SM R16C/1200V2400FT FG VV001 01/01 A3020 RMK AO2 TWR VIS 1/4 SLP236 T00060006=
200701271253 METAR KSEA 271253Z VRB04KT 1/4SM R16C/3000VP6000FT FG OVC001 01/01 A3020 RMK AO2 SFC VIS 1/2 SLP237 T00060006=
200701271153 METAR KSEA 271153Z 02012KT 1/4SM R16C/1600V4000FT FG OVC001 01/01 A3020 RMK AO2 SLP236 T00110006 10039 20006 50003=
200701271053 METAR KSEA 271053Z 03012KT 1/4SM R16C/2000V3500FT FG VV001 01/01 A3020 RMK AO2 SLP236 T00110006=
200701270953 METAR KSEA 270953Z 04009KT 1/4SM R16C/1000V1400FT FG VV001 02/01 A3020 RMK AO2 TWR VIS 1/4 SLP236 T00170011=
200701270853 METAR KSEA 270853Z 01007KT 1/4SM R16C/1800V2200FT FG VV001 02/02 A3019 RMK AO2 SLP233 T00220017 58002=
200701270753 METAR KSEA 270753Z 03012KT 1/4SM R16C/2000V3500FT FG VV001 02/02 A3020 RMK AO2 SLP236 T00220017 400670022=
200701270705 SPECI KSEA 270705Z 05014KT 1/4SM R16C/1400V2000FT FG VV001 02/02 A3020 RMK AO2=
200701270653 METAR KSEA 270653Z 04013KT 1/4SM R16C/1200V2800FT FG VV001 02/02 A3020 RMK AO2 SLP236 T00220017=
200701270651 SPECI KSEA 270651Z 04014KT 1/4SM R16C/1600V3500FT FG VV001 02/02 A3020 RMK AO2=
200701270651 SPECI KSEA 270651Z 04014KT 1/4SM R16C/1600V3500FT FG VV001 02/02 A3020 RMK AO2=
200701270640 SPECI KSEA 270640Z 04014KT 1SM R16C/6000VP6000FT BR BKN001 03/02 A3020 RMK AO2 SFC VIS 3=
200701270640 SPECI KSEA 270640Z 04014KT 1SM R16C/6000VP6000FT BR BKN001 03/02 A3020 RMK AO2 SFC VIS 3=
200701270634 SPECI KSEA 270634Z 04014KT 7SM SCT003 03/02 A3019 RMK AO2=
200701270634 SPECI KSEA 270634Z 04014KT 7SM SCT003 03/02 A3019 RMK AO2=
200701270553 METAR KSEA 270553Z 04012KT 10SM CLR 04/02 A3019 RMK AO2 SLP231 T00390017 10067 20028 55002=
200701270453 METAR KSEA 270453Z 05010KT 10SM CLR 03/02 A3018 RMK AO2 SLP228 T00330017=
200701270353 METAR KSEA 270353Z 02007KT 10SM CLR 03/02 A3020 RMK AO2 SLP235 T00280017=
200701270253 METAR KSEA 270253Z 03009KT 10SM CLR 04/02 A3019 RMK AO2 SLP233 T00390017 53003=
200701270153 METAR KSEA 270153Z 04010KT 10SM FEW020 04/02 A3018 RMK AO2 SLP231 T00390017=
200701270053 METAR KSEA 270053Z 04010KT 10SM CLR 05/02 A3018 RMK AO2 SLP229 T00500017=
200701262353 METAR KSEA 262353Z 03009KT 10SM CLR 07/02 A3018 RMK AO2 SLP229 T00670017 10067 20028 55010=
200701262253 METAR KSEA 262253Z 03008KT 10SM CLR 07/02 A3018 RMK AO2 SLP228 T00670022=
200701262153 METAR KSEA 262153Z 03013KT 10SM FEW015 06/02 A3020 RMK AO2 SLP235 T00560017=
200701262053 METAR KSEA 262053Z 03012KT 10SM FEW011 06/02 A3021 RMK AO2 SLP240 T00560022 58012=
200701262003 SPECI KSEA 262003Z 02014KT 10SM FEW004 SCT007 04/02 A3023 RMK AO2=
200701262003 SPECI KSEA 262003Z 02014KT 10SM FEW004 SCT007 04/02 A3023 RMK AO2=
200701261953 METAR KSEA 261953Z 03016G23KT 10SM BKN004 BKN007 04/02 A3023 RMK AO2 SLP246 T00440022=
200701261934 SPECI KSEA 261934Z 03018KT 10SM BKN004 BKN007 04/02 A3024 RMK AO2=
200701261934 SPECI KSEA 261934Z 03018KT 10SM BKN004 BKN007 04/02 A3024 RMK AO2=
200701261853 METAR KSEA 261853Z 03018KT 2 1/2SM BR BKN004 OVC007 03/02 A3025 RMK AO2 SFC VIS 6 SLP253 T00280017=
200701261847 SPECI KSEA 261847Z 03016G23KT 2 1/2SM BR BKN004 OVC007 03/02 A3025 RMK AO2 SFC VIS 6=
200701261847 SPECI KSEA 261847Z 03016G23KT 2 1/2SM BR BKN004 OVC007 03/02 A3025 RMK AO2 SFC VIS 6=
200701261801 SPECI KSEA 261801Z 03012KT 1SM BR BKN002 OVC004 03/02 A3024 RMK AO2 SFC VIS 5=
200701261801 SPECI KSEA 261801Z 03012KT 1SM BR BKN002 OVC004 03/02 A3024 RMK AO2 SFC VIS 5=
200701261753 METAR KSEA 261753Z 03015G21KT 1/4SM BR BKN002 OVC004 03/02 A3024 RMK AO2 SFC VIS 3 SLP251 T00280022 10044 20028 53004=
200701261714 SPECI KSEA 261714Z 03017KT 3/4SM BR OVC004 03/02 A3024 RMK AO2 SFC VIS 5=
200701261714 SPECI KSEA 261714Z 03017KT 3/4SM BR OVC004 03/02 A3024 RMK AO2 SFC VIS 5=
200701261653 METAR KSEA 261653Z 02015G23KT 1 1/2SM BR BKN004 OVC007 03/02 A3023 RMK AO2 PK WND 04026/1630 SFC VIS 6 SLP247 T00330022=
200701261553 METAR KSEA 261553Z 03015KT 1 1/2SM BR OVC002 03/02 A3023 RMK AO2 SFC VIS 4 SLP246 T00280022=
200701261509 SPECI KSEA 261509Z 02015KT 1SM BR OVC004 03/03 A3023 RMK AO2 SFC VIS 6=
200701261509 SPECI KSEA 261509Z 02015KT 1SM BR OVC004 03/03 A3023 RMK AO2 SFC VIS 6=
200701261453 METAR KSEA 261453Z 02012KT 6SM BR BKN004 OVC008 04/03 A3023 RMK AO2 SLP246 T00390028 58009=
200701261443 SPECI KSEA 261443Z 02014KT 6SM BR BKN004 OVC008 04/03 A3023 RMK AO2=
200701261353 METAR KSEA 261353Z 03013KT 7SM BKN006 OVC010 04/03 A3024 RMK AO2 SLP251 T00440028=
200701261342 SPECI KSEA 261342Z 03013KT 6SM BR OVC006 04/03 A3024 RMK AO2=
200701261342 SPECI KSEA 261342Z 03013KT 6SM BR OVC006 04/03 A3024 RMK AO2=
200701261253 METAR KSEA 261253Z 03013KT 5SM BR OVC004 04/03 A3026 RMK AO2 SLP256 T00440033=
200701261153 METAR KSEA 261153Z 02017G24KT 5SM BR BKN004 OVC008 04/03 A3026 RMK AO2 SLP254 70002 T00440033 10056 20044 53000=
200701261115 SPECI KSEA 261115Z 03018KT 6SM BR OVC004 04/03 A3025 RMK AO2=
200701261115 SPECI KSEA 261115Z 03018KT 6SM BR OVC004 04/03 A3025 RMK AO2=
200701261053 METAR KSEA 261053Z 02016KT 6SM BR OVC006 05/03 A3026 RMK AO2 SLP254 T00500033=
200701260953 METAR KSEA 260953Z 03012KT 6SM BR BKN006 04/03 A3025 RMK AO2 SLP252 T00440033=
200701260853 METAR KSEA 260853Z 03011KT 6SM BR BKN006 OVC010 05/04 A3026 RMK AO2 SLP255 T00500039 58001=
200701260753 METAR KSEA 260753Z 02009KT 6SM BR BKN006 OVC012 06/04 A3026 RMK AO2 SLP256 T00560044 400610006=
200701260743 SPECI KSEA 260743Z 02011KT 6SM BR BKN006 OVC012 06/04 A3026 RMK AO2 CIG 004V009=
200701260743 SPECI KSEA 260743Z 02011KT 6SM BR BKN006 OVC012 06/04 A3026 RMK AO2 CIG 004V009=
200701260733 SPECI KSEA 260733Z 02012KT 7SM FEW003 BKN010 OVC017 06/04 A3026 RMK AO2=
200701260733 SPECI KSEA 260733Z 02012KT 7SM FEW003 BKN010 OVC017 06/04 A3026 RMK AO2=
200701260653 METAR KSEA 260653Z 03008KT 6SM BR FEW003 BKN017 OVC029 06/04 A3026 RMK AO2 SLP256 T00560044=
200701260645 SPECI KSEA 260645Z 03008KT 6SM BR SCT003 OVC017 06/04 A3026 RMK AO2=
200701260645 SPECI KSEA 260645Z 03008KT 6SM BR SCT003 OVC017 06/04 A3026 RMK AO2=
200701260553 METAR KSEA 260553Z 01006KT 3SM BR OVC004 06/05 A3026 RMK AO2 SFC VIS 4 SLP256 60000 T00560050 10061 20056 50001=
200701260453 METAR KSEA 260453Z 01009KT 3SM BR SCT003 BKN006 OVC016 06/05 A3026 RMK AO2 SFC VIS 4 RAE0355B30E40 CIG 005V009 SLP256 P0000 T00560050=
200701260451 SPECI KSEA 260451Z 02008KT 3SM BR SCT003 BKN008 OVC016 06/05 A3026 RMK AO2 SFC VIS 4 RAE0355B30E40 CIG 008V011 P0000=
200701260451 SPECI KSEA 260451Z 02008KT 3SM BR SCT003 BKN008 OVC016 06/05 A3026 RMK AO2 SFC VIS 4 RAE0355B30E40 CIG 008V011 P0000=
200701260426 SPECI KSEA 260426Z 01008KT 1 1/4SM BR BKN001 OVC005 06/05 A3027 RMK AO2 SFC VIS 2 RAE0355 P0000=
200701260426 SPECI KSEA 260426Z 01008KT 1 1/4SM BR BKN001 OVC005 06/05 A3027 RMK AO2 SFC VIS 2 RAE0355 P0000=
200701260423 SPECI KSEA 260423Z 01009KT 2SM BR OVC003 06/05 A3027 RMK AO2 RAE0355 CIG 001V005 P0000=
200701260401 SPECI KSEA 260401Z 01007KT 2SM BR OVC005 06/05 A3026 RMK AO2 SFC VIS 2 1/2 RAE0355 CIG 002V009 P0000=
200701260401 SPECI KSEA 260401Z 01007KT 2SM BR OVC005 06/05 A3026 RMK AO2 SFC VIS 2 1/2 RAE0355 CIG 002V009 P0000=
200701260353 METAR KSEA 260353Z 36006KT 3SM -RA BR OVC005 06/05 A3026 RMK AO2 RAB46 CIG 002V007 SLP256 P0000 T00560050=
200701260253 METAR KSEA 260253Z 35003KT 9SM OVC006 06/04 A3025 RMK AO2 SLP253 T00560044 53009=
200701260153 METAR KSEA 260153Z 00000KT 9SM OVC006 06/04 A3024 RMK AO2 SLP250 T00560044=
200701260053 METAR KSEA 260053Z 00000KT 8SM BKN006 BKN039 OVC048 06/04 A3023 RMK AO2 SLP246 T00560044=
200701252353 METAR KSEA 252353Z 00000KT 8SM BKN006 OVC018 06/04 A3022 RMK AO2 RAE21 SLP244 P0000 60002 T00610044 10061 20044 55003=
200701252328 SPECI KSEA 252328Z 15009KT 9SM SCT006 BKN016 OVC090 06/05 A3020 RMK AO2 RAE21 P0000=
200701252328 SPECI KSEA 252328Z 15009KT 9SM SCT006 BKN016 OVC090 06/05 A3020 RMK AO2 RAE21 P0000=
200701252307 SPECI KSEA 252307Z 18006KT 10SM -RA FEW007 BKN035 BKN070 06/04 A3021 RMK AO2 P0000=
200701252307 SPECI KSEA 252307Z 18006KT 10SM -RA FEW007 BKN035 BKN070 06/04 A3021 RMK AO2 P0000=
200701252253 METAR KSEA 252253Z 17005KT 7SM -RA FEW007 BKN026 BKN035 06/04 A3021 RMK AO2 SLP239 P0001 T00560044=
200701252243 SPECI KSEA 252243Z 17004KT 6SM -RA BR FEW007 OVC026 05/04 A3021 RMK AO2 P0001=
200701252153 METAR KSEA 252153Z 23003KT 4SM -RA BR OVC024 06/04 A3022 RMK AO2 RAE2058B35 SLP243 P0000 T00560039=
200701252122 SPECI KSEA 252122Z 00000KT 10SM BKN028 BKN033 OVC040 05/03 A3023 RMK AO2 RAE2058 P0000=
200701252053 METAR KSEA 252053Z 20004KT 9SM -RA OVC038 05/03 A3023 RMK AO2 RAB12 SLP247 P0001 60001 T00500028 50001=
200701251953 METAR KSEA 251953Z 00000KT 10SM FEW030 BKN050 06/03 A3024 RMK AO2 SLP249 T00560028=
200701251853 METAR KSEA 251853Z 18004KT 10SM FEW030 BKN050 BKN070 05/03 A3024 RMK AO2 SLP249 T00500028=
200701251753 METAR KSEA 251753Z 16006KT 10SM FEW007 SCT030 SCT050 04/02 A3023 RMK AO2 SLP246 T00440022 10044 20006 53009=
200701251653 METAR KSEA 251653Z 14008KT 10SM FEW002 SCT028 02/02 A3021 RMK AO2 SLP240 T00220017=
200701251603 SPECI KSEA 251603Z 18006KT 10SM FEW002 SCT028 02/01 A3021 RMK AO2=
200701251603 SPECI KSEA 251603Z 18006KT 10SM FEW002 SCT028 02/01 A3021 RMK AO2=
200701251553 METAR KSEA 251553Z 18007KT 10SM FEW028 01/00 A3021 RMK AO2 SLP240 T00110000=
200701251453 METAR KSEA 251453Z 17007KT 10SM FEW150 02/01 A3020 RMK AO2 SLP236 T00170006 56001=
200701251353 METAR KSEA 251353Z 15008KT 10SM FEW200 02/02 A3020 RMK AO2 SLP238 T00220017=
200701251256 SPECI KSEA 251256Z 14010KT 5SM R16C/5000VP6000FT BR SCT002 02/02 A3020 RMK AO2=
200701251256 SPECI KSEA 251256Z 14010KT 5SM R16C/5000VP6000FT BR SCT002 02/02 A3020 RMK AO2=
200701251253 METAR KSEA 251253Z 14010KT 2SM R16C/4000VP6000FT BR FEW001 BKN002 02/02 A3020 RMK AO2 TWR VIS 5 SLP236 T00220017=
200701251248 SPECI KSEA 251248Z 14010KT 1 1/2SM R16C/2800V5500FT BR BKN002 02/02 A3020 RMK AO2 TWR VIS 5=
200701251248 SPECI KSEA 251248Z 14010KT 1 1/2SM R16C/2800V5500FT BR BKN002 02/02 A3020 RMK AO2 TWR VIS 5=
200701251224 SPECI KSEA 251224Z 15010KT 1/4SM R16C/6000VP6000FT BR SCT001 BKN002 03/02 A3021 RMK AO2 SFC VIS 5=
200701251224 SPECI KSEA 251224Z 15010KT 1/4SM R16C/6000VP6000FT BR SCT001 BKN002 03/02 A3021 RMK AO2 SFC VIS 5=
200701251218 SPECI KSEA 251218Z 15009KT 1 1/2SM SCT001 BKN002 02/02 A3021 RMK AO2 SFC VIS 9=
200701251153 METAR KSEA 251153Z 14009KT 9SM CLR 03/02 A3021 RMK AO2 SLP237 T00280017 10056 20017 50003=
200701251053 METAR KSEA 251053Z 15004KT 10SM SCT015 02/02 A3021 RMK AO2 SLP237 T00220017=
200701251038 SPECI KSEA 251038Z 12006KT 10SM SCT015 03/02 A3021 RMK AO2=
200701251038 SPECI KSEA 251038Z 12006KT 10SM SCT015 03/02 A3021 RMK AO2=
200701250953 METAR KSEA 250953Z 16005KT 10SM FEW010 BKN015 03/02 A3020 RMK AO2 SLP235 T00280022=
200701250938 SPECI KSEA 250938Z 15004KT 10SM FEW010 BKN015 03/02 A3020 RMK AO2=
200701250938 SPECI KSEA 250938Z 15004KT 10SM FEW010 BKN015 03/02 A3020 RMK AO2=
200701250853 METAR KSEA 250853Z 17005KT 10SM CLR 03/03 A3020 RMK AO2 SLP234 T00330028 58003=
200701250753 METAR KSEA 250753Z 22008KT 10SM FEW015 05/04 A3021 RMK AO2 SLP237 T00500039 401060017=
200701250653 METAR KSEA 250653Z 20008KT 10SM CLR 05/04 A3021 RMK AO2 SLP238 T00500039=
200701250553 METAR KSEA 250553Z 22007KT 10SM CLR 05/04 A3021 RMK AO2 SLP237 T00500039 10089 20050 51014=
200701250453 METAR KSEA 250453Z 23008KT 10SM CLR 06/04 A3021 RMK AO2 SLP238 T00560044=
200701250353 METAR KSEA 250353Z 20009KT 10SM FEW140 07/04 A3019 RMK AO2 SLP231 T00720039=
200701250253 METAR KSEA 250253Z 18006KT 10SM FEW140 06/02 A3016 RMK AO2 SLP224 T00610022 53014=
200701250153 METAR KSEA 250153Z 17005KT 10SM FEW140 SCT200 07/03 A3014 RMK AO2 SLP216 T00720028=
200701250053 METAR KSEA 250053Z 17008KT 10SM FEW140 SCT200 08/04 A3013 RMK AO2 SLP211 T00780039=
200701242353 METAR KSEA 242353Z 15004KT 10SM FEW120 SCT200 09/05 A3012 RMK AO2 SLP208 T00890050 10106 20067 50003=
200701242253 METAR KSEA 242253Z 19005KT 10SM FEW120 SCT200 09/05 A3013 RMK AO2 SLP211 T00890050=
200701242153 METAR KSEA 242153Z 17006KT 10SM FEW110 SCT200 09/05 A3011 RMK AO2 SLP205 T00940050=
200701242053 METAR KSEA 242053Z 26007KT 10SM FEW120 SCT200 11/06 A3011 RMK AO2 SLP204 T01060056 58021=
200701241953 METAR KSEA 241953Z 01003KT 10SM FEW110 SCT200 10/03 A3013 RMK AO2 SLP211 T01000028=
200701241853 METAR KSEA 241853Z 01006KT 10SM FEW110 SCT250 08/03 A3016 RMK AO2 SLP220 T00830028=
200701241753 METAR KSEA 241753Z 02005KT 10SM FEW110 SCT250 07/02 A3017 RMK AO2 SLP226 T00670022 10067 20017 58008=
200701241653 METAR KSEA 241653Z 35005KT 10SM FEW130 BKN250 03/02 A3019 RMK AO2 SLP230 T00330022=
200701241553 METAR KSEA 241553Z 03004KT 10SM FEW130 BKN250 02/01 A3019 RMK AO2 SLP232 T00220006=
200701241453 METAR KSEA 241453Z 35003KT 10SM FEW200 03/02 A3020 RMK AO2 SLP234 T00280017 57011=
200701241353 METAR KSEA 241353Z 05005KT 10SM FEW200 03/02 A3021 RMK AO2 SLP238 T00280017=
200701241253 METAR KSEA 241253Z 32003KT 10SM FEW200 03/01 A3022 RMK AO2 SLP243 T00280011=
200701241153 METAR KSEA 241153Z 07003KT 10SM CLR 03/02 A3023 RMK AO2 SLP246 T00330017 10078 20033 58016=
200701241053 METAR KSEA 241053Z 14004KT 10SM CLR 04/02 A3025 RMK AO2 SLP253 T00390017=
200701240953 METAR KSEA 240953Z 13007KT 10SM FEW250 06/02 A3026 RMK AO2 SLP256 T00560022=
200701240853 METAR KSEA 240853Z 13007KT 10SM FEW250 06/03 A3028 RMK AO2 SLP262 T00560033 58007=
200701240753 METAR KSEA 240753Z 13005KT 10SM CLR 06/04 A3029 RMK AO2 SLP267 T00610039 401110061=
200701240653 METAR KSEA 240653Z 13007KT 10SM CLR 07/04 A3030 RMK AO2 SLP268 T00670039=
200701240553 METAR KSEA 240553Z 14007KT 10SM FEW200 07/04 A3030 RMK AO2 SLP269 T00720039 10106 20061 56005=
200701240453 METAR KSEA 240453Z 14007KT 10SM FEW200 08/04 A3030 RMK AO2 SLP269 T00780039=
200701240353 METAR KSEA 240353Z 14007KT 10SM FEW150 SCT200 08/04 A3031 RMK AO2 SLP271 T00780039=
200701240253 METAR KSEA 240253Z 17006KT 10SM SCT075 BKN150 BKN200 08/04 A3032 RMK AO2 SLP274 T00830044 55001=
200701240153 METAR KSEA 240153Z 24005KT 10SM BKN080 BKN150 BKN200 09/05 A3031 RMK AO2 SLP273 T00890050=
200701240053 METAR KSEA 240053Z 25004KT 10SM FEW050 BKN095 BKN150 BKN200 11/04 A3031=
200701232353 METAR KSEA 232353Z 21006KT 10SM FEW025 SCT055 BKN095 11/05 A3032 RMK AO2 SLP274 T01110050 10111 20078 55000=
200701232300 METAR KSEA NIL=
200701232253 METAR KSEA 232253Z 20008KT 10SM FEW025 BKN055 BKN100 11/05 A3032 RMK AO2 SLP274 T01110050=
200701232153 METAR KSEA 232153Z 19006KT 10SM FEW035 BKN050 BKN120 11/05 A3032 RMK AO2 SLP274 T01060050=
200701232100 METAR KSEA NIL=
200701232053 METAR KSEA 232053Z 19007KT 10SM SCT039 BKN120 10/04 A3032 RMK AO2 SLP274 T01000044 50001=
200701231953 METAR KSEA 231953Z 20007KT 10SM FEW120 BKN150 09/04 A3033 RMK AO2 SLP277 ACSL SE T00890044=
200701231853 METAR KSEA 231853Z 20012KT 10SM FEW060 SCT130 SCT150 08/04 A3032=
200701231753 METAR KSEA 231753Z 22008KT 10SM FEW040 SCT130 BKN150 08/06 A3032 RMK AO2 SLP274 T00780056 10083 20067 51003=
200701231653 METAR KSEA 231653Z 17006KT 10SM BKN039 BKN055 OVC150 08/05 A3032 RMK AO2 SLP273 BINOVC SW T00780050=
200701231553 METAR KSEA 231553Z 18006KT 10SM BKN039 BKN048 OVC130 07/06 A3031 RMK AO2 SLP273 T00720056=
200701231453 METAR KSEA 231453Z 16003KT 10SM BKN043 OVC060 07/05 A3031 RMK AO2 SLP271 T00720050 53009=
200701231353 METAR KSEA 231353Z 26003KT 10SM BKN049 OVC060 07/06 A3030 RMK AO2 SLP268 T00670056=
200701231253 METAR KSEA 231253Z 15004KT 10SM SCT031 BKN041 OVC055 08/06 A3028 RMK AO2 SLP261 T00780056=
200701231153 METAR KSEA 231153Z 17006KT 10SM SCT027 OVC031 08/06 A3028 RMK AO2 SLP261 60000 T00780056 10089 20072 55003=
200701231053 METAR KSEA 231053Z 16007KT 10SM SCT025 OVC035 08/06 A3028 RMK AO2 SLP260 T00780056=
200701230953 METAR KSEA 230953Z 14004KT 10SM BKN025 OVC030 08/06 A3028 RMK AO2 DZE08RAB08E28 SLP260 P0000 T00780061=
200701230914 SPECI KSEA 230914Z 20007G15KT 6SM -RA BR BKN025 OVC030 08/06 A3029 RMK AO2 DZE08RAB08 P0000=
200701230914 SPECI KSEA 230914Z 20007G15KT 6SM -RA BR BKN025 OVC030 08/06 A3029 RMK AO2 DZE08RAB08 P0000=
200701230853 METAR KSEA 230853Z 21011KT 10SM -DZ SCT025 OVC030 09/06 A3029 RMK AO2 DZB51 SLP264 P0000 60000 T00890056 51004=
200701230753 METAR KSEA 230753Z 20009KT 10SM BKN030 OVC033 09/04 A3029 RMK AO2 SLP264 T00890044 401000044=
200701230653 METAR KSEA 230653Z 20007KT 10SM BKN030 OVC035 08/04 A3028 RMK AO2 SLP263 T00830044=
200701230553 METAR KSEA 230553Z 19003KT 10SM OVC036 07/04 A3028 RMK AO2 SLP261 60000 T00720044 10100 20072 53001=
200701230453 METAR KSEA 230453Z 20005KT 10SM BKN038 OVC120 09/04 A3028 RMK AO2 SLP261 T00890044=
200701230353 METAR KSEA 230353Z 16007KT 10SM BKN038 OVC120 09/04 A3027 RMK AO2 SLP258 T00890044=
200701230253 METAR KSEA 230253Z 15008KT 10SM SCT038 SCT120 BKN200 09/04 A3027 RMK AO2 SLP260 60000 T00890044 58006=
200701230153 METAR KSEA 230153Z 18007KT 10SM BKN035 BKN120 BKN200 09/05 A3029 RMK AO2 SLP265 T00940050=
200701230053 METAR KSEA 230053Z 20005KT 10SM FEW030 SCT060 BKN100 OVC200 09/04 A3029 RMK AO2 RAB06E43 SLP267 P0000 T00890044=
200701222353 METAR KSEA 222353Z 19008KT 10SM FEW030 SCT060 OVC080 09/04 A3029 RMK AO2 SLP267 T00940039 10100 20067 53005=
200701222253 METAR KSEA 222253Z 26005KT 10SM SCT030 BKN038 OVC050 10/04 A3029 RMK AO2 SLP267 T01000044=
200701222153 METAR KSEA 222153Z 21006KT 10SM BKN040 BKN050 OVC150 09/05 A3026 RMK AO2 SLP256 T00940050=
200701222053 METAR KSEA 222053Z 14004KT 10SM FEW040 BKN047 OVC150 08/04 A3028 RMK AO2 SLP262 T00830044 58002=
200701221953 METAR KSEA 221953Z 27008KT 10SM FEW040 BKN049 OVC150 07/04 A3029 RMK AO2 SLP265 T00720044=
200701221853 METAR KSEA 221853Z 22006KT 10SM FEW040 BKN049 OVC150 07/05 A3029 RMK AO2 SLP266 T00720050=
200701221753 METAR KSEA 221753Z 22006KT 10SM SCT035 BKN045 OVC130 07/05 A3028 RMK AO2 SLP263 BINOVC SE 60000 T00670050 10067 20050 55003=
200701221653 METAR KSEA 221653Z 19006KT 10SM FEW037 OVC047 06/04 A3028 RMK AO2 RAE18 SLP262 BINOVC S P0000 T00610044=
200701221553 METAR KSEA 221553Z 20004KT 10SM -RA BKN041 OVC049 06/04 A3029 RMK AO2 RAB48 SLP265 BINOVC S P0000 T00560039=
200701221453 METAR KSEA 221453Z 18006KT 10SM FEW035 BKN043 OVC080 06/03 A3029 RMK AO2 RAE1357 SLP266 P0000 60000 T00560033 58007=
200701221353 METAR KSEA 221353Z 21005KT 10SM -RA OVC041 05/03 A3031 RMK AO2 RAB48 SLP275 P0000 T00500033=
200701221253 METAR KSEA 221253Z 20005KT 10SM OVC044 05/03 A3031 RMK AO2 SLP273 T00500028=
200701221153 METAR KSEA 221153Z 19007KT 10SM FEW027 OVC055 05/03 A3031 RMK AO2 SLP273 60000 T00500028 10056 20044 58011=
200701221053 METAR KSEA 221053Z 19007KT 10SM SCT027 BKN070 OVC090 05/03 A3034 RMK AO2 RAB09E23 SLP281 P0000 T00500028=
200701220953 METAR KSEA 220953Z 18007KT 10SM SCT029 BKN041 OVC075 05/03 A3035 RMK AO2 RAB22E50 SLP284 P0000 T00500028=
200701220853 METAR KSEA 220853Z 19006KT 10SM OVC022 06/02 A3034 RMK AO2 SLP284 T00560022 58004=
200701220753 METAR KSEA 220753Z 17006KT 10SM OVC020 05/02 A3034 RMK AO2 SLP283 T00500022 400560028=
200701220653 METAR KSEA 220653Z 23005KT 10SM OVC020 05/02 A3036 RMK AO2 SLP291 T00500022=
200701220553 METAR KSEA 220553Z 18006KT 10SM OVC022 06/02 A3036 RMK AO2 SLP289 T00560017 10056 20050 58006=
200701220453 METAR KSEA 220453Z 19005KT 10SM OVC026 06/02 A3037 RMK AO2 SLP293 T00560017=
200701220353 METAR KSEA 220353Z 16007KT 10SM OVC026 06/02 A3036 RMK AO2 SLP292 T00560017=
200701220253 METAR KSEA 220253Z 18005KT 10SM BKN026 OVC030 06/01 A3037 RMK AO2 SLP295 T00560011 55005=
200701220153 METAR KSEA 220153Z 16005KT 10SM BKN026 OVC034 05/01 A3037 RMK AO2 SLP293 T00500011=
200701220146 SPECI KSEA 220146Z 18004KT 10SM BKN026 BKN034 OVC100 05/02 A3037 RMK AO2=
200701220146 SPECI KSEA 220146Z 18004KT 10SM BKN026 BKN034 OVC100 05/02 A3037 RMK AO2=
200701220053 METAR KSEA 220053Z 16006KT 10SM SCT028 BKN034 BKN100 BKN250 06/01 A3037 RMK AO2 SLP293 T00560011=
200701220022 SPECI KSEA 220022Z 16005KT 10SM BKN032 BKN100 BKN250 06/02 A3038 RMK AO2=
200701220022 SPECI KSEA 220022Z 16005KT 10SM BKN032 BKN100 BKN250 06/02 A3038 RMK AO2=
200701212353 METAR KSEA 212353Z 17007KT 10SM BKN028 BKN100 OVC250 06/01 A3039 RMK AO2 SLP299 BINOVC W T00560011 10056 20039 58008=
200701212313 SPECI KSEA 212313Z 15007KT 10SM FEW020 BKN028 OVC250 06/01 A3040 RMK AO2 BINOVC W=
200701212313 SPECI KSEA 212313Z 15007KT 10SM FEW020 BKN028 OVC250 06/01 A3040 RMK AO2 BINOVC W=
200701212253 METAR KSEA 212253Z 17006KT 10SM FEW020 BKN033 OVC250 06/01 A3040 RMK AO2 SLP305 T00560011=
200701212153 METAR KSEA 212153Z 19006KT 10SM FEW020 BKN039 OVC250 06/02 A3041 RMK AO2 SLP308 T00560017=
200701212053 METAR KSEA 212053Z 20003KT 10SM FEW020 BKN039 OVC250 05/01 A3041 RMK AO2 SLP308 T00500011 58012=
200701211953 METAR KSEA 211953Z 18005KT 10SM FEW020 OVC047 06/00 A3043 RMK AO2 SLP315 T00560000=
200701211853 METAR KSEA 211853Z 18004KT 10SM FEW020 OVC047 04/M01 A3044 RMK AO2 SLP317 T00441006=
200701211753 METAR KSEA 211753Z 15005KT 10SM BKN048 OVC080 04/M01 A3045 RMK AO2 SLP320 T00391006 10039 20028 53003=
200701211653 METAR KSEA 211653Z 15007KT 10SM FEW015 BKN050 BKN100 03/M01 A3045 RMK AO2 SLP319 T00331011=
200701211553 METAR KSEA 211553Z 16008KT 10SM FEW015 BKN075 BKN100 03/M01 A3043 RMK AO2 SLP313 T00281011=
200701211453 METAR KSEA 211453Z 14004KT 10SM FEW025 OVC075 03/M01 A3044 RMK AO2 SLP317 T00331011 56009=
200701211353 METAR KSEA 211353Z 15005KT 10SM OVC085 03/M01 A3044 RMK AO2 SLP319 T00281011=
200701211253 METAR KSEA 211253Z 16003KT 10SM BKN080 OVC100 03/M01 A3045 RMK AO2 SLP321 T00281011=
200701211153 METAR KSEA 211153Z 14006KT 10SM SCT020 SCT070 OVC100 03/M01 A3046 RMK AO2 SLP326 T00331011 10039 20028 50004=
200701211053 METAR KSEA 211053Z 15008KT 10SM FEW022 BKN075 OVC095 03/M01 A3047 RMK AO2 SLP327 T00281006=
200701211032 SPECI KSEA 211032Z 15007KT 10SM SCT022 OVC075 03/M01 A3047 RMK AO2=
200701211032 SPECI KSEA 211032Z 15007KT 10SM SCT022 OVC075 03/M01 A3047 RMK AO2=
200701210953 METAR KSEA 210953Z 16005KT 10SM BKN022 BKN035 OVC095 03/00 A3047 RMK AO2 SLP327 T00330000=
200701210853 METAR KSEA 210853Z 15005KT 10SM SCT020 SCT031 OVC095 03/00 A3045 RMK AO2 SLP321 T00330000 50001=
200701210753 METAR KSEA 210753Z 15005KT 10SM BKN025 OVC100 03/01 A3045 RMK AO2 SLP322 T00330006 400720028=
200701210653 METAR KSEA 210653Z 15006KT 10SM BKN100 OVC200 03/01 A3046 RMK AO2 SLP323 T00330006=
200701210553 METAR KSEA 210553Z 14007KT 10SM SCT080 BKN200 03/01 A3045 RMK AO2 SLP321 T00330011 10067 20033 51018=
200701210453 METAR KSEA 210453Z 15007KT 10SM FEW050 SCT080 SCT200 04/01 A3043 RMK AO2 SLP314 T00390006=
200701210353 METAR KSEA 210353Z 12007KT 10SM FEW040 SCT050 SCT200 04/01 A3041 RMK AO2 SLP309 T00440006=
200701210253 METAR KSEA 210253Z 11006KT 10SM FEW038 SCT046 BKN200 06/01 A3040 RMK AO2 SLP303 T00560006 51011=
200701210153 METAR KSEA 210153Z 07005KT 10SM BKN034 BKN043 BKN050 06/01 A3039 RMK AO2 SLP301 T00560006=
200701210053 METAR KSEA 210053Z 00000KT 10SM SCT030 SCT200 06/00 A3037 RMK AO2 SLP295 T00560000=
200701202353 METAR KSEA 202353Z 22004KT 10SM SCT030 SCT200 07/01 A3036 RMK AO2 SLP291 T00670011 10072 20039 53008=
200701202253 METAR KSEA 202253Z 22006KT 10SM SCT026 07/02 A3034 RMK AO2 SLP284 T00720017=
200701202153 METAR KSEA 202153Z 21006KT 10SM SCT022 07/02 A3034 RMK AO2 SLP282 T00670017=
200701202053 METAR KSEA 202053Z 23008KT 10SM SCT020 SCT250 06/02 A3034 RMK AO2 SLP281 T00610022 51010=
200701201953 METAR KSEA 201953Z 21005KT 10SM BKN018 06/02 A3034 RMK AO2 SLP281 T00560017=
200701201853 METAR KSEA 201853Z 20007KT 10SM BKN017 BKN250 05/02 A3032 RMK AO2 SLP278 T00500017=
200701201753 METAR KSEA 201753Z 15005KT 10SM BKN016 04/02 A3031 RMK AO2 SLP272 T00440022 10044 20028 53021=
200701201653 METAR KSEA 201653Z 17006KT 10SM BKN016 03/02 A3029 RMK AO2 SLP265 T00330017=
200701201553 METAR KSEA 201553Z 15006KT 10SM OVC016 03/02 A3026 RMK AO2 SLP255 T00330017=
200701201518 SPECI KSEA 201518Z 15008KT 10SM OVC016 03/02 A3025 RMK AO2=
200701201518 SPECI KSEA 201518Z 15008KT 10SM OVC016 03/02 A3025 RMK AO2=
200701201453 METAR KSEA 201453Z 17009KT 10SM OVC014 03/02 A3024 RMK AO2 SLP250 T00330017 51017=
200701201353 METAR KSEA 201353Z 15009KT 10SM BKN012 03/02 A3023 RMK AO2 SLP245 T00280017=
200701201253 METAR KSEA 201253Z 18006KT 10SM BKN015 BKN100 03/02 A3021 RMK AO2 SLP238 T00280017=
200701201153 METAR KSEA 201153Z 21005KT 10SM BKN015 BKN100 03/02 A3019 RMK AO2 SLP232 70021 T00330022 10050 20033 53014=
200701201053 METAR KSEA 201053Z 17006KT 10SM BKN016 OVC021 04/02 A3017 RMK AO2 SLP227 T00390022=
200701200953 METAR KSEA 200953Z 18007KT 10SM BKN013 OVC019 04/03 A3015 RMK AO2 SLP219 T00390028=
200701200930 SPECI KSEA 200930Z 23010KT 10SM BKN016 OVC044 04/03 A3015 RMK AO2=
200701200930 SPECI KSEA 200930Z 23010KT 10SM BKN016 OVC044 04/03 A3015 RMK AO2=
200701200853 METAR KSEA 200853Z 24012KT 10SM BKN014 OVC020 04/03 A3015 RMK AO2 SLP218 T00440028 51024=
200701200753 METAR KSEA 200753Z 22010G18KT 10SM BKN012 OVC019 05/03 A3013 RMK AO2 SLP213 T00500033 400560033=
200701200653 METAR KSEA 200653Z 24012KT 10SM FEW009 OVC012 05/03 A3010 RMK AO2 SLP202 T00500033=
200701200633 SPECI KSEA 200633Z 23015G20KT 10SM BKN009 OVC016 05/04 A3008 RMK AO2 CIG 007V012=
200701200633 SPECI KSEA 200633Z 23015G20KT 10SM BKN009 OVC016 05/04 A3008 RMK AO2 CIG 007V012=
200701200553 METAR KSEA 200553Z 21015KT 10SM FEW009 BKN012 OVC100 05/04 A3007 RMK AO2 RAE42 SLP193 P0007 60013 T00500039 10056 20050 58008=
200701200453 METAR KSEA 200453Z 21010KT 6SM RA BR SCT005 BKN010 OVC024 05/04 A3010 RMK AO2 SLP202 P0006 T00500044=
200701200435 SPECI KSEA 200435Z 20011KT 7SM RA SCT006 OVC010 05/04 A3010 RMK AO2 P0003=
200701200435 SPECI KSEA 200435Z 20011KT 7SM RA SCT006 OVC010 05/04 A3010 RMK AO2 P0003=
200701200406 SPECI KSEA 200406Z 21009KT 10SM -RA SCT008 OVC016 06/04 A3010 RMK AO2 P0000=
200701200406 SPECI KSEA 200406Z 21009KT 10SM -RA SCT008 OVC016 06/04 A3010 RMK AO2 P0000=
200701200353 METAR KSEA 200353Z 20012KT 10SM -RA BKN016 OVC060 06/04 A3010 RMK AO2 RAB51 SLP203 P0000 T00560044=
200701200316 SPECI KSEA 200316Z 20013KT 10SM BKN016 BKN065 OVC110 06/04 A3010 RMK AO2=
200701200316 SPECI KSEA 200316Z 20013KT 10SM BKN016 BKN065 OVC110 06/04 A3010 RMK AO2=
200701200253 METAR KSEA 200253Z 19013KT 10SM FEW009 SCT014 OVC110 06/04 A3010 RMK AO2 SLP201 T00560039 50002=
200701200227 SPECI KSEA 200227Z 20012G17KT 10SM SCT007 BKN014 OVC120 06/04 A3009 RMK AO2=
200701200227 SPECI KSEA 200227Z 20012G17KT 10SM SCT007 BKN014 OVC120 06/04 A3009 RMK AO2=
200701200153 METAR KSEA 200153Z 22012KT 10SM OVC007 06/04 A3011 RMK AO2 CIG 006V011 SLP204 T00560044=
200701200053 METAR KSEA 200053Z 24012KT 7SM OVC005 06/05 A3010 RMK AO2 CIG 004V009 SLP202 T00560050=
200701200021 SPECI KSEA 200021Z 23010KT 7SM BR OVC005 06/05 A3010 RMK AO2 CIG 002V008=
200701200021 SPECI KSEA 200021Z 23010KT 7SM BR OVC005 06/05 A3010 RMK AO2 CIG 002V008=
200701192353 METAR KSEA 192353Z 22016KT 1 1/4SM BR OVC003 06/05 A3009 RMK AO2 SFC VIS 6 RAE15 CIG 002V007 SLP199 P0001 60004 T00560050 10056 20039 56018=
200701192253 METAR KSEA 192253Z 21012KT 1 1/4SM -RA BR SCT001 BKN003 OVC007 05/05 A3010 RMK AO2 SFC VIS 2 RAB02 SLP203 VIS S 3/4 P0002 T00500050=
200701192153 METAR KSEA 192153Z 21007KT 1 1/4SM BR SCT001 BKN003 OVC008 05/04 A3012 RMK AO2 SFC VIS 4 RAE11 SLP209 P0000 T00500044=
200701192053 METAR KSEA 192053Z 20009KT 1 1/4SM -RA BR SCT001 BKN003 OVC008 04/04 A3015 RMK AO2 SFC VIS 3 RAB24 SLP217 P0000 60001 T00440039 58013=
200701192046 SPECI KSEA 192046Z 21008KT 1 1/4SM -RA BR SCT001 BKN003 OVC008 04/04 A3015 RMK AO2 SFC VIS 3 RAB24 P0000=
200701192046 SPECI KSEA 192046Z 21008KT 1 1/4SM -RA BR SCT001 BKN003 OVC008 04/04 A3015 RMK AO2 SFC VIS 3 RAB24 P0000=
200701192039 SPECI KSEA 192039Z 21008KT 1 1/4SM -RA BR BKN001 OVC008 04/04 A3015 RMK AO2 SFC VIS 4 RAB24 CIG 001V006 P0000=
200701192039 SPECI KSEA 192039Z 21008KT 1 1/4SM -RA BR BKN001 OVC008 04/04 A3015 RMK AO2 SFC VIS 4 RAB24 CIG 001V006 P0000=
200701192030 SPECI KSEA 192030Z 21007KT 1/2SM -RA BR OVC001 04/04 A3015 RMK AO2 SFC VIS 2 RAB24 P0000=
200701192030 SPECI KSEA 192030Z 21007KT 1/2SM -RA BR OVC001 04/04 A3015 RMK AO2 SFC VIS 2 RAB24 P0000=
200701192015 SPECI KSEA 192015Z 22006KT 1 1/4SM BR BKN003 OVC007 04/04 A3016 RMK AO2 SFC VIS 4=
200701192015 SPECI KSEA 192015Z 22006KT 1 1/4SM BR BKN003 OVC007 04/04 A3016 RMK AO2 SFC VIS 4=
200701191957 SPECI KSEA 191957Z 22006KT 2SM BR BKN003 OVC007 04/04 A3017 RMK AO2 SFC VIS 4=
200701191957 SPECI KSEA 191957Z 22006KT 2SM BR BKN003 OVC007 04/04 A3017 RMK AO2 SFC VIS 4=
200701191953 METAR KSEA 191953Z 21005KT 1 1/2SM BR BKN003 OVC007 04/04 A3016 RMK AO2 SFC VIS 3 RAB39E51 SLP223 P0000 T00440039=
200701191917 SPECI KSEA 191917Z 21006KT 1 1/2SM BR BKN003 BKN007 OVC015 04/04 A3017 RMK AO2 SFC VIS 2 1/2=
200701191917 SPECI KSEA 191917Z 21006KT 1 1/2SM BR BKN003 BKN007 OVC015 04/04 A3017 RMK AO2 SFC VIS 2 1/2=
200701191910 SPECI KSEA 191910Z 21006KT 1 1/2SM BR SCT002 BKN005 OVC010 04/04 A3017 RMK AO2 SFC VIS 2=
200701191910 SPECI KSEA 191910Z 21006KT 1 1/2SM BR SCT002 BKN005 OVC010 04/04 A3017 RMK AO2 SFC VIS 2=
200701191908 SPECI KSEA 191908Z 20006KT 2SM BR BKN005 OVC018 04/04 A3017 RMK AO2 TWR VIS 2 1/2 CIG 002V007=
200701191908 SPECI KSEA 191908Z 20006KT 2SM BR BKN005 OVC018 04/04 A3017 RMK AO2 TWR VIS 2 1/2 CIG 002V007=
200701191853 METAR KSEA 191853Z 19006KT 2 1/2SM BR BKN005 OVC020 04/04 A3018 RMK AO2 SFC VIS 3 RAB30E46 SLP227 VIS SW 2 P0001 T00440039=
200701191800 METAR KSEA NIL=
200701191653 METAR KSEA 191653Z 14005KT 7SM -RA FEW010 SCT020 OVC034 04/03 A3018 RMK AO2 SLP230 P0001 T00390028=
200701191553 METAR KSEA 191553Z 20005KT 10SM -RA FEW010 SCT037 OVC045 03/02 A3019 RMK AO2 SLP233 P0003 T00330022=
200701191453 METAR KSEA 191453Z 19008KT 10SM -RA SCT030 BKN047 OVC060 04/01 A3020 RMK AO2 RAB49 SLP235 P0000 60000 T00390011 55007=
200701191353 METAR KSEA 191353Z 21011KT 10SM SCT030 BKN050 OVC080 04/01 A3019 RMK AO2 SLP232 T00440011=
200701191253 METAR KSEA 191253Z 15007KT 10SM BKN030 OVC095 04/02 A3019 RMK AO2 SLP234 T00390017=
200701191153 METAR KSEA 191153Z 17004KT 10SM BKN030 OVC095 04/02 A3022 RMK AO2 SLP244 70004 T00390017 10061 20033 58014=
200701191053 METAR KSEA 191053Z 16005KT 10SM OVC100 04/02 A3024 RMK AO2 SLP249 T00390017=
200701190953 METAR KSEA 190953Z 21010KT 10SM SCT035 OVC110 04/01 A3025 RMK AO2 SLP254 T00440011=
200701190853 METAR KSEA 190853Z 14010KT 10SM SCT035 OVC110 04/02 A3026 RMK AO2 SLP258 T00440017 58021=
200701190753 METAR KSEA 190753Z 20011KT 10SM SCT035 OVC110 05/01 A3030 RMK AO2 SLP271 T00500011 400670011=
200701190653 METAR KSEA 190653Z 19007KT 10SM SCT035 BKN140 06/02 A3031 RMK AO2 SLP275 T00610017=
200701190553 METAR KSEA 190553Z 17007KT 10SM BKN033 05/03 A3033 RMK AO2 SLP279 T00500028 10067 20050 56010=
200701190546 SPECI KSEA 190546Z 19006KT 10SM SCT030 OVC035 06/03 A3033 RMK AO2=
200701190546 SPECI KSEA 190546Z 19006KT 10SM SCT030 OVC035 06/03 A3033 RMK AO2=
200701190453 METAR KSEA 190453Z 20010KT 10SM OVC027 06/02 A3033 RMK AO2 SLP281 T00610022=
200701190353 METAR KSEA 190353Z 20011KT 10SM OVC023 07/02 A3035 RMK AO2 SLP287 T00670022=
200701190253 METAR KSEA 190253Z 18011KT 10SM OVC021 07/03 A3036 RMK AO2 SLP289 T00670028 55002=
200701190153 METAR KSEA 190153Z 18007KT 10SM OVC021 06/03 A3035 RMK AO2 SLP287 T00560028=
200701190053 METAR KSEA 190053Z 21009KT 10SM OVC021 05/03 A3035 RMK AO2 SLP287 T00500028=
200701182353 METAR KSEA 182353Z 19008KT 10SM OVC021 06/03 A3036 RMK AO2 SLP291 60000 T00560033 10056 20028 56006=
200701182253 METAR KSEA 182253Z 21008KT 10SM OVC019 04/03 A3037 RMK AO2 SLP292 T00440028=
200701182153 METAR KSEA 182153Z 18006KT 10SM FEW015 OVC021 04/03 A3037 RMK AO2 RAB39E50 SLP293 P0000 T00390028=
200701182053 METAR KSEA 182053Z 19004KT 10SM FEW015 OVC021 04/02 A3038 RMK AO2 SLP297 T00390022 58007=
200701181953 METAR KSEA 181953Z 18006KT 10SM FEW008 SCT015 OVC021 03/02 A3039 RMK AO2 SLP300 T00330022=
200701181930 SPECI KSEA 181930Z 19007KT 8SM FEW008 SCT020 OVC025 03/03 A3039 RMK AO2=
200701181930 SPECI KSEA 181930Z 19007KT 8SM FEW008 SCT020 OVC025 03/03 A3039 RMK AO2=
200701181853 METAR KSEA 181853Z 21007KT 7SM FEW010 SCT022 OVC028 03/02 A3040 RMK AO2 SLP305 T00280022=
200701181753 METAR KSEA 181753Z 20005KT 10SM BKN017 OVC028 03/02 A3040 RMK AO2 RAE02 SLP304 P0000 60004 T00280017 10028 20011 56005=
200701181738 SPECI KSEA 181738Z 16007KT 9SM FEW017 OVC028 03/02 A3040 RMK AO2 RAE02 P0000=
200701181738 SPECI KSEA 181738Z 16007KT 9SM FEW017 OVC028 03/02 A3040 RMK AO2 RAE02 P0000=
200701181653 METAR KSEA 181653Z 15009KT 8SM -RA SCT019 OVC030 02/02 A3040 RMK AO2 RAB28 SLP306 P0000 T00220017=
200701181643 SPECI KSEA 181643Z 15007KT 6SM BR SCT019 OVC030 02/02 A3040 RMK AO2 RAB28E43 P0000=
200701181643 SPECI KSEA 181643Z 15007KT 6SM BR SCT019 OVC030 02/02 A3040 RMK AO2 RAB28E43 P0000=
200701181553 METAR KSEA 181553Z 16007KT 7SM OVC023 02/01 A3041 RMK AO2 RAE45 SLP308 P0001 T00220011=
200701181453 METAR KSEA 181453Z 16006KT 10SM -RA FEW005 OVC023 02/01 A3041 RMK AO2 SLP310 P0001 60003 T00170011 55005=
200701181353 METAR KSEA 181353Z 15007KT 10SM -RA FEW005 BKN025 OVC034 02/01 A3040 RMK AO2 SLP306 P0002 T00170011=
200701181253 METAR KSEA 181253Z 16007KT 9SM -RA SCT019 OVC023 02/01 A3042 RMK AO2 RAB42 SLP312 P0000 T00170011=
200701181153 METAR KSEA 181153Z 16006KT 10SM SCT015 BKN017 OVC050 01/01 A3043 RMK AO2 SLP315 RAE37 P0001 60021 70028 T00110006 10022 20011 58013=
200701181135 SPECI KSEA 181135Z 16006KT 10SM -RA FEW006 BKN015 OVC017 01/01 A3043 RMK AO2 P0001=
200701181135 SPECI KSEA 181135Z 16006KT 10SM -RA FEW006 BKN015 OVC017 01/01 A3043 RMK AO2 P0001=
200701181126 SPECI KSEA 181126Z 16006KT 9SM -RA FEW006 BKN010 OVC017 01/01 A3043 RMK AO2 P0001=
200701181126 SPECI KSEA 181126Z 16006KT 9SM -RA FEW006 BKN010 OVC017 01/01 A3043 RMK AO2 P0001=
200701181053 METAR KSEA 181053Z 16006KT 10SM -RA FEW005 BKN007 OVC013 01/01 A3044 RMK AO2 SLP320 P0003 T00110006=
200701180953 METAR KSEA 180953Z 15008KT 10SM -RA FEW005 BKN007 OVC012 01/01 A3046 RMK AO2 SLP324 P0004 T00110006=
200701180853 METAR KSEA 180853Z 17007KT 8SM -RA SCT003 BKN005 OVC018 02/01 A3047 RMK AO2 SLP328 P0005 60013 T00170006 50001=
200701180753 METAR KSEA 180753Z 21008KT 10SM -RA SCT003 BKN005 OVC011 02/01 A3047 RMK AO2 SLP329 P0005 T00170011 400390006=
200701180653 METAR KSEA 180653Z 18007KT 5SM -RA BR SCT004 BKN007 OVC010 02/02 A3046 RMK AO2 SLP326 P0003 T00220017=
200701180628 SPECI KSEA 180628Z 17006KT 5SM -RA BR BKN007 OVC010 02/02 A3047 RMK AO2 CIG 004V009 P0002=
200701180628 SPECI KSEA 180628Z 17006KT 5SM -RA BR BKN007 OVC010 02/02 A3047 RMK AO2 CIG 004V009 P0002=
200701180553 METAR KSEA 180553Z 17005KT 4SM -RA BR SCT007 OVC010 02/02 A3046 RMK AO2 SLP327 P0002 60007 T00220017 10028 20017 53002=
200701180536 SPECI KSEA 180536Z 18005KT 6SM -RA BR FEW007 OVC010 02/02 A3046 RMK AO2 P0001=
200701180536 SPECI KSEA 180536Z 18005KT 6SM -RA BR FEW007 OVC010 02/02 A3046 RMK AO2 P0001=
200701180453 METAR KSEA 180453Z 17005KT 6SM -RA BR OVC011 02/02 A3046 RMK AO2 SLP326 P0002 T00220017=
200701180433 SPECI KSEA 180433Z 17004KT 5SM -RA BR FEW007 OVC014 02/01 A3046 RMK AO2 P0002=
200701180433 SPECI KSEA 180433Z 17004KT 5SM -RA BR FEW007 OVC014 02/01 A3046 RMK AO2 P0002=
200701180353 METAR KSEA 180353Z 00000KT 7SM -RA SCT014 OVC022 02/02 A3046 RMK AO2 SLP326 P0003 T00220017=
200701180314 SPECI KSEA 180314Z 16005KT 7SM -RA BKN016 OVC020 02/02 A3046 RMK AO2 P0002=
200701180314 SPECI KSEA 180314Z 16005KT 7SM -RA BKN016 OVC020 02/02 A3046 RMK AO2 P0002=
200701180253 METAR KSEA 180253Z 22003KT 6SM -RA BR OVC014 02/01 A3046 RMK AO2 RAB39 SLP325 P0000 60000 T00220006 56003=
200701180153 METAR KSEA 180153Z 17004KT 10SM OVC019 03/01 A3046 RMK AO2 SLP325 T00280006=
200701180053 METAR KSEA 180053Z 18004KT 10SM FEW016 OVC025 03/01 A3046 RMK AO2 SLP327 T00280006=
200701172353 METAR KSEA 172353Z 00000KT 10SM SCT016 BKN026 OVC200 03/01 A3047 RMK AO2 SLP328 T00280006 10039 20011 51003=
200701172253 METAR KSEA 172253Z 22003KT 10SM SCT017 BKN026 OVC200 03/00 A3047 RMK AO2 SLP328 T00330000=
200701172213 SPECI KSEA 172213Z 20004KT 10SM FEW017 BKN024 OVC200 03/00 A3046 RMK AO2=
200701172213 SPECI KSEA 172213Z 20004KT 10SM FEW017 BKN024 OVC200 03/00 A3046 RMK AO2=
200701172153 METAR KSEA 172153Z 00000KT 10SM FEW018 SCT024 OVC200 03/00 A3046 RMK AO2 SLP325 T00330000=
200701172053 METAR KSEA 172053Z 21003KT 10SM SCT022 OVC200 02/00 A3046 RMK AO2 SLP325 T00220000 58003=
200701172047 SPECI KSEA 172047Z 21003KT 10SM SCT022 OVC200 03/00 A3046 RMK AO2=
200701172047 SPECI KSEA 172047Z 21003KT 10SM SCT022 OVC200 03/00 A3046 RMK AO2=
200701171953 METAR KSEA 171953Z 15005KT 10SM FEW007 BKN018 OVC025 02/00 A3047 RMK AO2 SLP328 T00170000=
200701171907 SPECI KSEA 171907Z 19004KT 7SM SCT005 SCT009 OVC016 01/00 A3047 RMK AO2=
200701171907 SPECI KSEA 171907Z 19004KT 7SM SCT005 SCT009 OVC016 01/00 A3047 RMK AO2=
200701171853 METAR KSEA 171853Z 18005KT 3SM BR FEW003 BKN005 OVC008 01/00 A3047 RMK AO2 SFC VIS 6 SLP330 T00110000=
200701171819 SPECI KSEA 171819Z 19007KT 3SM BR BKN005 BKN008 OVC012 01/00 A3047 RMK AO2 SFC VIS 5=
200701171819 SPECI KSEA 171819Z 19007KT 3SM BR BKN005 BKN008 OVC012 01/00 A3047 RMK AO2 SFC VIS 5=
200701171753 METAR KSEA 171753Z 19004KT 7SM FEW008 BKN012 OVC015 01/00 A3047 RMK AO2 SLP328 T00110000 10011 20006 53007=
200701171653 METAR KSEA 171653Z 18004KT 7SM FEW008 BKN010 OVC012 01/00 A3046 RMK AO2 SLP324 T00110000=
200701171632 SPECI KSEA 171632Z 20004KT 7SM SCT008 BKN010 OVC012 01/00 A3045 RMK AO2=
200701171632 SPECI KSEA 171632Z 20004KT 7SM SCT008 BKN010 OVC012 01/00 A3045 RMK AO2=
200701171553 METAR KSEA 171553Z 16004KT 9SM FEW004 BKN008 OVC010 01/00 A3045 RMK AO2 SLP322 T00060000=
200701171453 METAR KSEA 171453Z 18005KT 9SM FEW004 BKN006 OVC009 01/00 A3045 RMK AO2 SLP321 T00060000 50001=
200701171353 METAR KSEA 171353Z 16004KT 8SM SCT004 BKN006 OVC008 01/00 A3045 RMK AO2 SLP322 T00060000=
200701171253 METAR KSEA 171253Z 17003KT 10SM SCT004 BKN005 OVC006 01/00 A3044 RMK AO2 SLP319 T00110000=
200701171210 SPECI KSEA 171210Z 17004KT 10SM SCT004 BKN005 OVC006 01/00 A3044 RMK AO2=
200701171210 SPECI KSEA 171210Z 17004KT 10SM SCT004 BKN005 OVC006 01/00 A3044 RMK AO2=
200701171153 METAR KSEA 171153Z 18005KT 9SM SCT004 BKN005 OVC006 01/00 A3044 RMK AO2 SLP320 4/002 70018 T00060000 10011 20006 51008=
200701171147 SPECI KSEA 171147Z 18006KT 9SM SCT004 BKN005 OVC006 01/00 A3044 RMK AO2=
200701171147 SPECI KSEA 171147Z 18006KT 9SM SCT004 BKN005 OVC006 01/00 A3044 RMK AO2=
200701171143 SPECI KSEA 171143Z 19006KT 2SM SCT004 BKN005 OVC006 01/00 A3044 RMK AO2 SFC VIS 9=
200701171143 SPECI KSEA 171143Z 19006KT 2SM SCT004 BKN005 OVC006 01/00 A3044 RMK AO2 SFC VIS 9=
200701171053 METAR KSEA 171053Z 18006KT 2SM BR OVC004 01/00 A3044 RMK AO2 SFC VIS 6 SLP319 T00060000=
200701170953 METAR KSEA 170953Z 18006KT 2SM BR OVC002 01/01 A3042 RMK AO2 SFC VIS 3 SLP312 T00110006=
200701170853 METAR KSEA 170853Z 18005KT 6SM BR OVC004 01/01 A3042 RMK AO2 SLP311 T00110006 51007=
200701170753 METAR KSEA 170753Z 17003KT 5SM BR BKN003 OVC005 01/01 A3042 RMK AO2 SLP311 T00110006 400171022=
200701170653 METAR KSEA 170653Z 20004KT 5SM BR OVC003 01/01 A3040 RMK AO2 SLP306 T00110006=
200701170553 METAR KSEA 170553Z 19003KT 8SM OVC006 01/00 A3040 RMK AO2 SLP304 T00110000 10017 20006 53008=
200701170453 METAR KSEA 170453Z 00000KT 10SM BKN008 OVC050 02/00 A3039 RMK AO2 SLP301 T00170000=
200701170353 METAR KSEA 170353Z 19003KT 10SM BKN007 OVC055 01/00 A3038 RMK AO2 SLP297 T00060000=
200701170253 METAR KSEA 170253Z 00000KT 10SM OVC007 01/M01 A3037 RMK AO2 SLP296 T00111006 52013=
200701170153 METAR KSEA 170153Z 15005KT 9SM OVC007 01/00 A3036 RMK AO2 SLP291 T00110000=
200701170053 METAR KSEA 170053Z COR 12004KT 7SM OVC007 01/00 A3035 RMK AO2 SLP289 T00110000=
200701162353 METAR KSEA 162353Z 13003KT 6SM BR OVC007 02/00 A3034 RMK AO2 SLP283 4/003 T00170000 10017 21006 53010=
200701162253 METAR KSEA 162253Z 14005KT 9SM BKN007 BKN010 OVC015 01/M01 A3031 RMK AO2 SLP276 T00111006=
200701162153 METAR KSEA 162153Z 15004KT 9SM BKN009 BKN015 OVC025 01/M01 A3030 RMK AO2 SLP271 T00111006=
200701162144 SPECI KSEA 162144Z 15005KT 9SM BKN009 BKN015 OVC025 01/M01 A3030 RMK AO2 BINOVC S=
200701162144 SPECI KSEA 162144Z 15005KT 9SM BKN009 BKN015 OVC025 01/M01 A3030 RMK AO2 BINOVC S=
200701162053 METAR KSEA 162053Z 00000KT 8SM SCT005 BKN015 OVC021 01/M01 A3030 RMK AO2 SLP272 BINOVC NW T00111006 50005=
200701162043 SPECI KSEA 162043Z 00000KT 8SM SCT005 BKN015 OVC021 01/M01 A3031 RMK AO2 BINOVC OHD=
200701162043 SPECI KSEA 162043Z 00000KT 8SM SCT005 BKN015 OVC021 01/M01 A3031 RMK AO2 BINOVC OHD=
200701161953 METAR KSEA 161953Z 05003KT 8SM BKN005 BKN007 OVC010 01/M01 A3030 RMK AO2 SLP273 T00111006=
200701161853 METAR KSEA 161853Z 08003KT 8SM BKN005 BKN007 OVC010 00/M01 A3030 RMK AO2 SLP272 T00001011=
200701161753 METAR KSEA 161753Z 15007KT 5SM R16C/6000VP6000FT BR SCT005 BKN007 OVC010 M01/M01 A3029 RMK AO2 SNE19 SLP268 4/003 P0000 60018 T10061011 10006 21022 51007=
200701161718 SPECI KSEA 161718Z 16004KT 3SM -SN BR SCT005 BKN007 OVC010 M01/M01 A3028 RMK AO2 P0000=
200701161718 SPECI KSEA 161718Z 16004KT 3SM -SN BR SCT005 BKN007 OVC010 M01/M01 A3028 RMK AO2 P0000=
200701161701 SPECI KSEA 161701Z 15005KT 2SM R16C/4500VP6000FT -SN BR SCT005 BKN007 OVC010 M01/M01 A3028 RMK AO2 P0000=
200701161701 SPECI KSEA 161701Z 15005KT 2SM R16C/4500VP6000FT -SN BR SCT005 BKN007 OVC010 M01/M01 A3028 RMK AO2 P0000=
200701161653 METAR KSEA 161653Z 16003KT 5SM -SN BR OVC007 M01/M01 A3028 RMK AO2 CIG 005V010 SLP263 P0005 T10061011=
200701161651 SPECI KSEA 161651Z 16003KT 4SM -SN BR BKN007 OVC025 M01/M01 A3028 RMK AO2 CIG 005V010 P0005=
200701161651 SPECI KSEA 161651Z 16003KT 4SM -SN BR BKN007 OVC025 M01/M01 A3028 RMK AO2 CIG 005V010 P0005=
200701161639 SPECI KSEA 161639Z 11005KT 2SM R16C/5000VP6000FT -SN BR BKN007 BKN020 OVC025 M01/M01 A3027 RMK AO2 P0005=
200701161639 SPECI KSEA 161639Z 11005KT 2SM R16C/5000VP6000FT -SN BR BKN007 BKN020 OVC025 M01/M01 A3027 RMK AO2 P0005=
200701161627 SPECI KSEA 161627Z 12008KT 2SM -SN BR FEW007 BKN016 OVC031 M01/M02 A3027 RMK AO2 P0003=
200701161627 SPECI KSEA 161627Z 12008KT 2SM -SN BR FEW007 BKN016 OVC031 M01/M02 A3027 RMK AO2 P0003=
200701161620 SPECI KSEA 161620Z 12008KT 2SM -SN BR FEW007 BKN014 OVC031 M01/M02 A3027 RMK AO2 P0003=
200701161620 SPECI KSEA 161620Z 12008KT 2SM -SN BR FEW007 BKN014 OVC031 M01/M02 A3027 RMK AO2 P0003=
200701161613 SPECI KSEA 161613Z 12010KT 1 1/2SM R16C/5000VP6000FT -SN BR SCT005 BKN014 OVC029 M01/M02 A3026 RMK AO2 P0002=
200701161613 SPECI KSEA 161613Z 12010KT 1 1/2SM R16C/5000VP6000FT -SN BR SCT005 BKN014 OVC029 M01/M02 A3026 RMK AO2 P0002=
200701161600 SPECI KSEA 161600Z 12009KT 1 1/2SM R16C/5000VP6000FT -SN BR SCT005 BKN008 OVC014 M01/M02 A3026 RMK AO2 P0001=
200701161600 SPECI KSEA 161600Z 12009KT 1 1/2SM R16C/5000VP6000FT -SN BR SCT005 BKN008 OVC014 M01/M02 A3026 RMK AO2 P0001=
200701161558 SPECI KSEA 161558Z 12008KT 1 1/4SM R16C/5000VP6000FT -SN BR SCT005 OVC010 M01/M02 A3026 RMK AO2 P0001=
200701161558 SPECI KSEA 161558Z 12008KT 1 1/4SM R16C/5000VP6000FT -SN BR SCT005 OVC010 M01/M02 A3026 RMK AO2 P0001=
200701161553 METAR KSEA 161553Z 12007KT 1 1/4SM R16C/5000VP6000FT -SN BR SCT005 BKN008 OVC014 M01/M02 A3027 RMK AO2 SLP259 P0004 T10061017=
200701161544 SPECI KSEA 161544Z 11003KT 1 1/2SM R16C/5500VP6000FT -SN BR SCT005 BKN008 OVC014 M01/M02 A3027 RMK AO2 P0004=
200701161544 SPECI KSEA 161544Z 11003KT 1 1/2SM R16C/5500VP6000FT -SN BR SCT005 BKN008 OVC014 M01/M02 A3027 RMK AO2 P0004=
200701161535 SPECI KSEA 161535Z 14003KT 1 1/2SM -SN BR FEW005 BKN014 OVC020 M01/M02 A3027 RMK AO2 P0003=
200701161535 SPECI KSEA 161535Z 14003KT 1 1/2SM -SN BR FEW005 BKN014 OVC020 M01/M02 A3027 RMK AO2 P0003=
200701161503 SPECI KSEA 161503Z 14003KT 1 1/2SM -SN BR BKN012 OVC019 M02/M02 A3026 RMK AO2 P0000=
200701161503 SPECI KSEA 161503Z 14003KT 1 1/2SM -SN BR BKN012 OVC019 M02/M02 A3026 RMK AO2 P0000=
200701161453 METAR KSEA 161453Z 12004KT 2 1/2SM -SN BR FEW008 BKN012 OVC041 M02/M03 A3027 RMK AO2 SLP260 SNINCR 1/3 P0004 60009 T10171028 56016 $=
200701161445 SPECI KSEA 161445Z 12004KT 2SM -SN BR SCT008 BKN012 OVC041 M02/M03 A3027 RMK AO2 P0004 $=
200701161445 SPECI KSEA 161445Z 12004KT 2SM -SN BR SCT008 BKN012 OVC041 M02/M03 A3027 RMK AO2 P0004 $=
200701161431 SPECI KSEA 161431Z 11006KT 1 1/2SM -SN BR BKN010 BKN017 OVC041 M02/M03 A3026 RMK AO2 P0003 $=
200701161431 SPECI KSEA 161431Z 11006KT 1 1/2SM -SN BR BKN010 BKN017 OVC041 M02/M03 A3026 RMK AO2 P0003 $=
200701161353 METAR KSEA 161353Z 12010KT 3/4SM -SN BR BKN008 OVC014 M02/M03 A3028 RMK AO2 SFC VIS 1 1/4 SLP266 SNINCR 1/2 P0004 T10171033 $=
200701161322 SPECI KSEA 161322Z 12007KT 3/4SM R16C/5000VP6000FT -SN BR FEW005 OVC008 M02/M03 A3029 RMK AO2 SFC VIS 1 P0001=
200701161322 SPECI KSEA 161322Z 12007KT 3/4SM R16C/5000VP6000FT -SN BR FEW005 OVC008 M02/M03 A3029 RMK AO2 SFC VIS 1 P0001=
200701161317 SPECI KSEA 161317Z 12007KT 1 1/2SM R16C/5500VP6000FT -SN BR FEW007 OVC013 M02/M03 A3030 RMK AO2 SFC VIS 2 P0000=
200701161317 SPECI KSEA 161317Z 12007KT 1 1/2SM R16C/5500VP6000FT -SN BR FEW007 OVC013 M02/M03 A3030 RMK AO2 SFC VIS 2 P0000=
200701161306 SPECI KSEA 161306Z 12009KT 2SM -SN BR FEW008 OVC013 M02/M03 A3029 RMK AO2 P0000=
200701161306 SPECI KSEA 161306Z 12009KT 2SM -SN BR FEW008 OVC013 M02/M03 A3029 RMK AO2 P0000=
200701161303 SPECI KSEA 161303Z 13009KT 2SM -SN BR OVC015 M01/M03 A3029 RMK AO2 P0000=
200701161303 SPECI KSEA 161303Z 13009KT 2SM -SN BR OVC015 M01/M03 A3029 RMK AO2 P0000=
200701161253 METAR KSEA 161253Z 13009KT 3SM -SN BR BKN019 OVC045 M01/M03 A3029 RMK AO2 SNB11 SLP270 P0001 T10111033=
200701161244 SPECI KSEA 161244Z 12008KT 3SM -SN BR BKN025 OVC045 M01/M03 A3030 RMK AO2 SNB11 P0001=
200701161244 SPECI KSEA 161244Z 12008KT 3SM -SN BR BKN025 OVC045 M01/M03 A3030 RMK AO2 SNB11 P0001=
200701161153 METAR KSEA 161153Z 15008KT 10SM FEW045 OVC060 M01/M06 A3031 RMK AO2 SLP275 4/001 T10111056 10000 21022 55007=
200701161053 METAR KSEA 161053Z 17003KT 10SM BKN070 OVC110 M01/M06 A3031 RMK AO2 SLP273 T10111061=
200701160953 METAR KSEA 160953Z 14006KT 10SM BKN085 BKN110 OVC250 M01/M07 A3032 RMK AO2 SLP276 T10061067=
200701160853 METAR KSEA 160853Z 14005KT 10SM BKN110 BKN250 M02/M06 A3033 RMK AO2 SLP283 T10171056 58012=
200701160753 METAR KSEA 160753Z 13004KT 10SM FEW110 SCT250 M01/M08 A3036 RMK AO2 SLP291 T10061078 400171050=
200701160653 METAR KSEA 160653Z 14006KT 10SM SCT110 BKN250 M01/M08 A3036 RMK AO2 SLP294 T10061078=
200701160553 METAR KSEA 160553Z 15005KT 10SM FEW100 SCT250 M02/M07 A3037 RMK AO2 SLP295 T10221067 10017 21022 56013=
200701160453 METAR KSEA 160453Z 14003KT 10SM FEW070 BKN100 OVC200 00/M07 A3037 RMK AO2 SLP296 T00001072=
200701160353 METAR KSEA 160353Z 10007KT 10SM FEW080 BKN120 OVC200 01/M06 A3038 RMK AO2 SLP299 T00111056=
200701160253 METAR KSEA 160253Z 14004KT 10SM FEW150 OVC200 00/M04 A3041 RMK AO2 SLP309 T00001039 58013=
200701160153 METAR KSEA 160153Z 00000KT 10SM OVC200 M01/M04 A3042 RMK AO2 SLP314 T10061039=
200701160053 METAR KSEA 160053Z 00000KT 10SM FEW160 OVC200 M01/M03 A3044 RMK AO2 SLP321 T10061033=
200701152353 METAR KSEA 152353Z 18005KT 10SM FEW160 OVC200 01/M03 A3045 RMK AO2 SLP322 ACSL OMTNS SE 4/001 T00061033 10017 21039 55007=
200701152253 METAR KSEA 152253Z 23005KT 9SM OVC200 01/M02 A3044 RMK AO2 SLP320 T00061022=
200701152153 METAR KSEA 152153Z 22003KT 9SM OVC250 01/M02 A3044 RMK AO2 SLP321 T00111022=
200701152053 METAR KSEA 152053Z 23004KT 10SM FEW020 OVC250 00/M03 A3047 RMK AO2 SLP330 T00001033 58008=
200701151953 METAR KSEA 151953Z 17006KT 10SM BKN250 M01/M04 A3049 RMK AO2 SLP336 T10061039=
200701151853 METAR KSEA 151853Z 00000KT 10SM BKN250 M01/M07 A3051 RMK AO2 SLP344 T10111067=
200701151753 METAR KSEA 151753Z 15004KT 10SM FEW010 BKN250 M04/M07 A3049 RMK AO2 SLP338 T10391067 11022 21050 58005=
200701151653 METAR KSEA 151653Z 00000KT 10SM FEW010 SCT250 M03/M06 A3050 RMK AO2 SLP339 T10281061=
200701151553 METAR KSEA 151553Z 05006KT 10SM FEW010 BKN250 M04/M07 A3051 RMK AO2 SLP344 T10391067=
200701151453 METAR KSEA 151453Z 01005KT 10SM CLR M04/M07 A3051 RMK AO2 SLP343 T10391072 55009=
200701151353 METAR KSEA 151353Z 06007KT 10SM CLR M04/M06 A3051 RMK AO2 SLP342 T10441061=
200701151253 METAR KSEA 151253Z 06007KT 10SM CLR M05/M07 A3053 RMK AO2 SLP348 T10501067=
200701151153 METAR KSEA 151153Z 09003KT 10SM CLR M04/M07 A3053 RMK AO2 SLP352 4/001 T10441072 11017 21050 58002=
200701151053 METAR KSEA 151053Z 08004KT 10SM CLR M04/M08 A3054 RMK AO2 SLP354 T10391078=
200701150953 METAR KSEA 150953Z VRB04KT 10SM CLR M03/M08 A3054 RMK AO2 SLP353 T10331083=
200701150853 METAR KSEA 150853Z 09004KT 10SM CLR M04/M08 A3054 RMK AO2 SLP354 T10441083 56009=
200701150753 METAR KSEA 150753Z 10003KT 10SM CLR M03/M08 A3055 RMK AO2 SLP357 T10331083 400171067=
200701150653 METAR KSEA 150653Z 12005KT 10SM CLR M02/M08 A3056 RMK AO2 SLP359 T10221083=
200701150553 METAR KSEA 150553Z 12007KT 10SM CLR M02/M06 A3057 RMK AO2 SLP365 4/001 T10221061 10006 21033 58006=
200701150453 METAR KSEA 150453Z 10005KT 10SM CLR M02/M05 A3060 RMK AO2 SLP376 T10171050=
200701150353 METAR KSEA 150353Z 06006KT 10SM CLR M02/M06 A3061 RMK AO2 SLP380 T10221056=
200701150253 METAR KSEA 150253Z 06005KT 10SM CLR M02/M06 A3059 RMK AO2 SLP370 T10171061 53012=
200701150153 METAR KSEA 150153Z 36005KT 10SM FEW250 M02/M06 A3057 RMK AO2 SLP364 T10171061=
200701150053 METAR KSEA 150053Z 36005KT 10SM FEW170 SCT250 M01/M06 A3054 RMK AO2 SLP356 T10111056=
200701142353 METAR KSEA 142353Z 04005KT 10SM FEW250 01/M06 A3055 RMK AO2 SLP357 4/001 T00061056 10017 21044 58012=
200701142253 METAR KSEA 142253Z 00000KT 10SM FEW250 02/M06 A3057 RMK AO2 SLP364 T00171056=
200701142153 METAR KSEA 142153Z 00000KT 10SM FEW015 01/M06 A3058 RMK AO2 SLP366 T00061056=
200701142053 METAR KSEA 142053Z 00000KT 10SM FEW015 00/M06 A3059 RMK AO2 SLP369 T00001061 58009=
200701141953 METAR KSEA 141953Z 14005KT 10SM FEW010 SCT250 M02/M05 A3061 RMK AO2 SLP377 T10221050=
200701141853 METAR KSEA 141853Z 14003KT 10SM FEW008 BKN250 M03/M06 A3063 RMK AO2 SLP385 T10281061=
200701141753 METAR KSEA 141753Z 14006KT 10SM FEW005 SCT250 M04/M07 A3061 RMK AO2 SLP380 T10441072 11044 21067 53014=
200701141750 SPECI KSEA 141750Z 15006KT 10SM FEW005 SCT250 M04/M07 A3061 RMK AO2=
200701141750 SPECI KSEA 141750Z 15006KT 10SM FEW005 SCT250 M04/M07 A3061 RMK AO2=
200701141653 METAR KSEA 141653Z 13006KT 10SM FEW012 BKN250 M06/M08 A3060 RMK AO2 SLP374 T10561083=
200701141553 METAR KSEA 141553Z 13005KT 10SM FEW012 BKN250 M06/M08 A3058 RMK AO2 SLP369 T10611083=
200701141453 METAR KSEA 141453Z 12007KT 10SM CLR M06/M08 A3057 RMK AO2 SLP366 T10611078 52012=
200701141353 METAR KSEA 141353Z 13006KT 10SM CLR M06/M08 A3056 RMK AO2 SLP361 T10611078=
200701141253 METAR KSEA 141253Z 13006KT 10SM CLR M06/M07 A3055 RMK AO2 SLP358 T10561072=
200701141153 METAR KSEA 141153Z 12006KT 10SM CLR M05/M07 A3054 RMK AO2 SLP354 4/001 T10501067 11028 21067 51011=
200701141053 METAR KSEA 141053Z 12005KT 8SM CLR M06/M07 A3053 RMK AO2 SLP351 T10561072=
200701140953 METAR KSEA 140953Z 09004KT 5SM BR CLR M05/M06 A3052 RMK AO2 SLP346 T10501061=
200701140853 METAR KSEA 140853Z 06004KT 6SM BR CLR M05/M06 A3051 RMK AO2 SLP343 T10501061 53007=
200701140753 METAR KSEA 140753Z 03005KT 9SM FEW035 M04/M06 A3049 RMK AO2 SLP338 T10441061 410171061=
200701140653 METAR KSEA 140653Z 02006KT 10SM FEW035 M04/M06 A3049 RMK AO2 SLP339 T10391056=
200701140553 METAR KSEA 140553Z 04005KT 10SM FEW035 M03/M05 A3049 RMK AO2 SLP336 60000 T10331050 11017 21033 53008=
200701140453 METAR KSEA 140453Z 05009KT 10SM BKN034 M02/M04 A3047 RMK AO2 SLP331 T10221044=
200701140353 METAR KSEA 140353Z 04008KT 9SM FEW008 OVC034 M02/M04 A3047 RMK AO2 SLP331 T10171039=
200701140300 SPECI KSEA 140300Z 03006KT 9SM FEW008 SCT034 OVC045 M02/M04 A3046 RMK AO2=
200701140300 SPECI KSEA 140300Z 03006KT 9SM FEW008 SCT034 OVC045 M02/M04 A3046 RMK AO2=
200701140253 METAR KSEA 140253Z 04006KT 9SM SCT034 BKN041 OVC090 M02/M04 A3046 RMK AO2 SLP327 60000 T10221039 51004=
200701140153 METAR KSEA 140153Z 06003KT 8SM BKN034 OVC045 M02/M03 A3046 RMK AO2 SLP326 T10171033=
200701140053 METAR KSEA 140053Z 05003KT 5SM BR BKN044 OVC049 M02/M04 A3046 RMK AO2 SNE14 SLP327 P0000 60000 4/001 T10171039=
200701132353 METAR KSEA 132353Z COR 05005KT 4SM -SN BR BKN044 OVC049 M02/M04 A3045 RMK AO2 SLP324 P0000 60000 4/001 T10221044 11017 21039 53004=
200701132253 METAR KSEA 132253Z 00000KT 3SM -SN BR BKN034 BKN043 OVC049 M02/M04 A3044 RMK AO2 SLP319 P0000 T10171039=
200701132153 METAR KSEA 132153Z 00000KT 6SM -SN FEW009 BKN036 OVC100 M02/M04 A3043 RMK AO2 SNE32B52 SLP318 P0000 T10171044=
200701132104 SPECI KSEA 132104Z 18003KT 3SM -SN BR FEW009 OVC035 M02/M04 A3043 RMK AO2 P0000=
200701132104 SPECI KSEA 132104Z 18003KT 3SM -SN BR FEW009 OVC035 M02/M04 A3043 RMK AO2 P0000=
200701132053 METAR KSEA 132053Z 00000KT 2 1/2SM -SN BR FEW009 OVC034 M02/M04 A3044 RMK AO2 TWR VIS 3 SNB16 SLP319 P0000 60000 T10221044 56007=
200701132048 SPECI KSEA 132048Z 16003KT 1 3/4SM -SN BR FEW009 OVC034 M02/M04 A3044 RMK AO2 TWR VIS 3 SNB16 P0000=
200701132048 SPECI KSEA 132048Z 16003KT 1 3/4SM -SN BR FEW009 OVC034 M02/M04 A3044 RMK AO2 TWR VIS 3 SNB16 P0000=
200701132038 SPECI KSEA 132038Z 00000KT 2 1/2SM -SN FEW009 OVC032 M02/M05 A3044 RMK AO2 TWR VIS 3 SNB16 P0000=
200701132038 SPECI KSEA 132038Z 00000KT 2 1/2SM -SN FEW009 OVC032 M02/M05 A3044 RMK AO2 TWR VIS 3 SNB16 P0000=
200701131953 METAR KSEA 131953Z 00000KT 9SM FEW009 BKN032 OVC080 M02/M06 A3044 RMK AO2 SLP322 T10221056=
200701131853 METAR KSEA 131853Z 18003KT 10SM SCT007 BKN032 OVC100 M03/M06 A3046 RMK AO2 SLP327 T10331056=
200701131807 SPECI KSEA 131807Z 14003KT 10SM SCT006 BKN032 OVC100 M04/M07 A3045 RMK AO2=
200701131807 SPECI KSEA 131807Z 14003KT 10SM SCT006 BKN032 OVC100 M04/M07 A3045 RMK AO2=
200701131753 METAR KSEA 131753Z 16004KT 10SM BKN006 OVC032 M04/M07 A3045 RMK AO2 SLP324 T10391067 11039 21061 56002=
200701131710 SPECI KSEA 131710Z 16005KT 10SM BKN006 BKN035 OVC100 M04/M07 A3045 RMK AO2=
200701131710 SPECI KSEA 131710Z 16005KT 10SM BKN006 BKN035 OVC100 M04/M07 A3045 RMK AO2=
200701131701 SPECI KSEA 131701Z 16006KT 10SM FEW006 BKN035 OVC100 M04/M07 A3045 RMK AO2=
200701131701 SPECI KSEA 131701Z 16006KT 10SM FEW006 BKN035 OVC100 M04/M07 A3045 RMK AO2=
200701131653 METAR KSEA 131653Z 15007KT 10SM BKN035 OVC100 M04/M07 A3045 RMK AO2 SLP325 T10441072=
200701131553 METAR KSEA 131553Z 13008KT 10SM BKN037 OVC100 M05/M07 A3045 RMK AO2 SLP324 T10501072=
200701131453 METAR KSEA 131453Z 15005KT 10SM FEW041 BKN100 OVC200 M04/M07 A3046 RMK AO2 SLP326 T10441072 56004=
200701131353 METAR KSEA 131353Z 14005KT 10SM BKN120 BKN200 M06/M08 A3046 RMK AO2 SLP326 T10561083=
200701131253 METAR KSEA 131253Z 13003KT 10SM FEW032 OVC120 M06/M08 A3046 RMK AO2 SLP328 T10561078=
200701131153 METAR KSEA 131153Z 13004KT 10SM OVC032 M06/M08 A3047 RMK AO2 SLP331 4/001 T10561078 11033 21061 58006=
200701131053 METAR KSEA 131053Z 16005KT 10SM BKN032 OVC100 M06/M08 A3048 RMK AO2 SLP333 T10611078=
200701130953 METAR KSEA 130953Z 14003KT 10SM SCT036 BKN200 M06/M08 A3049 RMK AO2 SLP337 T10561078=
200701130853 METAR KSEA 130853Z 11006KT 10SM SCT036 BKN100 BKN200 M04/M07 A3049 RMK AO2 SLP336 T10391072 58003=
200701130753 METAR KSEA 130753Z 12006KT 10SM FEW110 BKN200 M04/M07 A3049 RMK AO2 SLP339 T10441072 410061072=
200701130653 METAR KSEA 130653Z 13006KT 10SM FEW030 M04/M07 A3050 RMK AO2 SLP340 T10441072=
200701130553 METAR KSEA 130553Z 00000KT 10SM CLR M04/M08 A3050 RMK AO2 SLP340 T10441078 11011 21050 53001=
200701130453 METAR KSEA 130453Z 06003KT 10SM FEW030 M03/M08 A3049 RMK AO2 SLP338 T10331078=
200701130353 METAR KSEA 130353Z 05005KT 10SM FEW031 M04/M07 A3050 RMK AO2 SLP340 T10391072=
200701130253 METAR KSEA 130253Z 07005KT 10SM FEW033 M03/M07 A3049 RMK AO2 SLP339 T10281067 58006=
200701130153 METAR KSEA 130153Z 07006KT 10SM SCT033 M02/M06 A3051 RMK AO2 SLP343 T10221061=
200701130053 METAR KSEA 130053Z 03007KT 10SM SCT035 M03/M07 A3051 RMK AO2 SLP344 T10281067=
200701122353 METAR KSEA 122353Z 36004KT 10SM SCT035 M01/M06 A3051 RMK AO2 SLP345 4/001 T10111056 11006 21050 56002=
200701122253 METAR KSEA 122253Z 01004KT 10SM FEW035 M01/M06 A3051 RMK AO2 SLP345 T10061056=
200701122153 METAR KSEA 122153Z 00000KT 10SM FEW030 M01/M07 A3051 RMK AO2 SLP343 T10111067 $=
200701122053 METAR KSEA 122053Z 02006KT 10SM FEW025 M01/M06 A3052 RMK AO2 SLP346 T10111061 56010 $=
200701121953 METAR KSEA 121953Z 00000KT 10SM FEW020 M02/M07 A3053 RMK AO2 SLP349 T10221072 $=
200701121853 METAR KSEA 121853Z 16005KT 10SM FEW019 M04/M08 A3054 RMK AO2 SLP355 T10391078 $=
200701121753 METAR KSEA 121753Z 13005KT 10SM FEW010 M05/M09 A3055 RMK AO2 SLP358 T10501089 11050 21072 53013 $=
200701121653 METAR KSEA 121653Z 15005KT 10SM FEW010 M07/M09 A3053 RMK AO2 SLP350 T10671094 $=
200701121553 METAR KSEA 121553Z 15007KT 10SM FEW010 M07/M10 A3051 RMK AO2 SLP344 T10721100 $=
200701121453 METAR KSEA 121453Z 15007KT 8SM FEW100 M07/M09 A3051 RMK AO2 SLP345 T10721094 58000 $=
200701121400 METAR KSEA NIL=
200701121353 METAR KSEA 121353Z 14005KT 10SM CLR M07/M09 A3053=
200701121253 METAR KSEA 121253Z 13008KT 10SM CLR M06/M09 A3052 RMK AO2 SLP347 T10611089 $=
200701121153 METAR KSEA 121153Z 15004KT 10SM CLR M06/M09 A3051 RMK AO2 SLP345 4/002 T10611089 11033 21061 51010 $=
200701121053 METAR KSEA 121053Z 10004KT 10SM CLR M06/M09 A3050 RMK AO2 SLP342 T10611089 $=
200701120953 METAR KSEA 120953Z 08005KT 10SM CLR M06/M08 A3050 RMK AO2 SLP338 T10561078 $=
200701120853 METAR KSEA 120853Z 07006KT 10SM CLR M05/M08 A3048 RMK AO2 SLP334 T10501078 51003 $=
200701120753 METAR KSEA 120753Z 04010KT 10SM CLR M04/M08 A3048 RMK AO2 SLP333 T10391078 410061056 $=
200701120653 METAR KSEA 120653Z 04009KT 10SM CLR M03/M08 A3048 RMK AO2 SLP333 T10331078 $=
200701120553 METAR KSEA 120553Z 02006KT 10SM CLR M05/M09 A3047 RMK AO2 SLP332 T10501089 11011 21050 51011 $=
200701120453 METAR KSEA 120453Z 04009KT 10SM CLR M03/M07 A3046 RMK AO2 SLP328 T10331072 $=
200701120353 METAR KSEA 120353Z 05008KT 10SM CLR M03/M08 A3045 RMK AO2 SLP324 T10331083 $=
200701120253 METAR KSEA 120253Z 04005KT 10SM CLR M03/M07 A3044 RMK AO2 SLP320 T10281072 51013 $=
200701120153 METAR KSEA 120153Z 04013KT 10SM CLR M02/M07 A3044 RMK AO2 SLP319 T10221067 $=
200701120053 METAR KSEA 120053Z 02013KT 10SM FEW030 M02/M07 A3042 RMK AO2 SLP313 T10171072 $=
200701112353 METAR KSEA 112353Z 01013KT 10SM FEW030 M01/M07 A3040 RMK AO2 SLP306 4/002 T10111067 11006 21022 53027 $=
200701112253 METAR KSEA 112253Z 02016G22KT 10SM FEW030 M01/M07 A3037 RMK AO2 SLP295 T10111067 $=
200701112153 METAR KSEA 112153Z 02015KT 10SM FEW030 M01/M07 A3034 RMK AO2 SLP285 T10061067 $=
200701112053 METAR KSEA 112053Z 02012KT 10SM FEW025 M01/M06 A3032 RMK AO2 SLP279 T10061061 50013 $=
200701111953 METAR KSEA 111953Z 01013KT 10SM FEW025 M01/M06 A3032 RMK AO2 SLP280 T10111061 $=
200701111853 METAR KSEA 111853Z 36017G20KT 10SM FEW023 M02/M07 A3032 RMK AO2 SLP278 T10221067 $=
200701111753 METAR KSEA 111753Z 01009KT 10SM FEW020 M02/M06 A3028 RMK AO2 SLP266 60000 T10221061 11006 21028 51045 $=
200701111653 METAR KSEA 111653Z 01008KT 10SM FEW021 M02/M06 A3025 RMK AO2 UPB21E31 SLP253 P0000 T10221056 $=
200701111553 METAR KSEA 111553Z 03012KT 10SM SCT015 M02/M04 A3019 RMK AO2 SLP236 T10221044 $=
200701111509 SPECI KSEA 111509Z 01007KT 10SM SCT017 M02/M04 A3016 RMK AO2 $=
200701111509 SPECI KSEA 111509Z 01007KT 10SM SCT017 M02/M04 A3016 RMK AO2 $=
200701111453 METAR KSEA 111453Z 01008KT 10SM SCT005 BKN017 BKN021 M02/M03 A3015 RMK AO2 SLP220 T10171028 53030 $=
200701111446 SPECI KSEA 111446Z 01008KT 10SM SCT005 BKN017 BKN021 M01/M03 A3014 RMK AO2 $=
200701111446 SPECI KSEA 111446Z 01008KT 10SM SCT005 BKN017 BKN021 M01/M03 A3014 RMK AO2 $=
200701111430 SPECI KSEA 111430Z 03011KT 10SM SCT006 BKN014 BKN021 M01/M03 A3013 RMK AO2 $=
200701111430 SPECI KSEA 111430Z 03011KT 10SM SCT006 BKN014 BKN021 M01/M03 A3013 RMK AO2 $=
200701111353 METAR KSEA 111353Z 04004KT 10SM FEW003 BKN006 M02/M03 A3011 RMK AO2 SLP207 T10171028 $=
200701111333 SPECI KSEA 111333Z 36004KT 10SM BKN008 M02/M03 A3010 RMK AO2 CIG 007V013 $=
200701111333 SPECI KSEA 111333Z 36004KT 10SM BKN008 M02/M03 A3010 RMK AO2 CIG 007V013 $=
200701111253 METAR KSEA 111253Z 02005KT 10SM FEW008 SCT037 M02/M03 A3007 RMK AO2 SLP193 T10221033 $=
200701111153 METAR KSEA 111153Z COR 05006KT 10SM FEW018 BKN030 BKN050 M03/M03 A3006 RMK AO2 SLP188 60002 70026 4/003 T10281033 11006 21028 52020 $=
200701111100 SPECI KSEA 111100Z 06004KT 10SM SCT008 SCT023 BKN042 M01/M02 A3004 RMK AO2 $=
200701111100 SPECI KSEA 111100Z 06004KT 10SM SCT008 SCT023 BKN042 M01/M02 A3004 RMK AO2 $=
200701111053 METAR KSEA 111053Z 07004KT 6SM BR SCT008 BKN023 OVC042 M01/M02 A3004 RMK AO2 SNE18 SLP183 P0000 T10111022 $=
200701111013 SPECI KSEA 111013Z 05007KT 6SM -SN BR BKN005 BKN008 OVC010 M01/M02 A3002 RMK AO2 P0000 $=
200701111013 SPECI KSEA 111013Z 05007KT 6SM -SN BR BKN005 BKN008 OVC010 M01/M02 A3002 RMK AO2 P0000 $=
200701111004 SPECI KSEA 111004Z 04007KT 2 1/2SM -SN BR SCT003 BKN005 OVC010 M01/M02 A3002 RMK AO2 SFC VIS 5 P0000 $=
200701111004 SPECI KSEA 111004Z 04007KT 2 1/2SM -SN BR SCT003 BKN005 OVC010 M01/M02 A3002 RMK AO2 SFC VIS 5 P0000 $=
200701110953 METAR KSEA 110953Z 03006KT 2SM -SN BR BKN003 OVC010 M01/M02 A3001 RMK AO2 TWR VIS 2 1/2 SLP173 P0000 T10111017 $=
200701110936 SPECI KSEA 110936Z 02005KT 1 1/2SM -SN BR BKN003 OVC013 M01/M02 A3001 RMK AO2 SFC VIS 2 P0000 $=
200701110936 SPECI KSEA 110936Z 02005KT 1 1/2SM -SN BR BKN003 OVC013 M01/M02 A3001 RMK AO2 SFC VIS 2 P0000 $=
200701110853 METAR KSEA 110853Z 00000KT 2SM -SN BR BKN006 BKN024 OVC047 M01/M02 A3000 RMK AO2 TWR VIS 2 1/2 SNB27 SLP168 P0000 60002 T10111017 51014 $=
200701110809 SPECI KSEA 110809Z 00000KT 2SM R16C/3000VP6000FT BR BKN005 BKN035 OVC100 M02/M03 A2998 RMK AO2 TWR VIS 2 1/2 $=
200701110809 SPECI KSEA 110809Z 00000KT 2SM R16C/3000VP6000FT BR BKN005 BKN035 OVC100 M02/M03 A2998 RMK AO2 TWR VIS 2 1/2 $=
200701110753 METAR KSEA 110753Z 00000KT 2 1/2SM R16C/3000VP6000FT BR SCT005 BKN060 OVC100 M02/M03 A2998 RMK AO2 SFC VIS 4 SNB11E45 SLP164 P0000 T10221028 400221022 $=
200701110653 METAR KSEA 110653Z 00000KT 2 1/2SM BR FEW007 BKN038 OVC055 M01/M02 A2997 RMK AO2 SFC VIS 6 SNE53 SLP160 P0002 T10111017 $=
200701110640 SPECI KSEA 110640Z 00000KT 2 1/2SM FEW007 SCT015 OVC040 M01/M02 A2997 RMK AO2 SFC VIS 7 SNE36 P0001=
200701110640 SPECI KSEA 110640Z 00000KT 2 1/2SM FEW007 SCT015 OVC040 M01/M02 A2997 RMK AO2 SFC VIS 7 SNE36 P0001=
200701110625 SPECI KSEA 110625Z 00000KT 2SM -SN BR FEW007 BKN025 OVC050 M01/M01 A2996 RMK AO2 P0001=
200701110625 SPECI KSEA 110625Z 00000KT 2SM -SN BR FEW007 BKN025 OVC050 M01/M01 A2996 RMK AO2 P0001=
200701110611 SPECI KSEA 110611Z 00000KT 1 3/4SM -SN BR SCT007 BKN014 OVC048 M01/M02 A2996 RMK AO2 TWR VIS 2 P0001=
200701110611 SPECI KSEA 110611Z 00000KT 1 3/4SM -SN BR SCT007 BKN014 OVC048 M01/M02 A2996 RMK AO2 TWR VIS 2 P0001=
200701110553 METAR KSEA 110553Z 30003KT 2SM -SN BR BKN005 BKN020 OVC055 M01/M01 A2995 RMK AO2 SFC VIS 3 SLP154 4/003 P0002 60023 T10111011 10022 21011 53009=
200701110538 SPECI KSEA 110538Z 00000KT 2SM -SN BR SCT005 OVC013 M01/M02 A2995 RMK AO2 P0001=
200701110538 SPECI KSEA 110538Z 00000KT 2SM -SN BR SCT005 OVC013 M01/M02 A2995 RMK AO2 P0001=
200701110521 SPECI KSEA 110521Z 00000KT 2SM -SN BR SCT005 BKN021 OVC027 M01/M02 A2994 RMK AO2 P0000=
200701110521 SPECI KSEA 110521Z 00000KT 2SM -SN BR SCT005 BKN021 OVC027 M01/M02 A2994 RMK AO2 P0000=
200701110453 METAR KSEA 110453Z 18004KT 1/2SM -SN BR FEW003 BKN031 OVC055 M01/M02 A2994 RMK AO2 SFC VIS 2 1/2 SLP148 P0005 T10111017=
200701110450 SPECI KSEA 110450Z 18005KT 1/2SM -SN BR FEW003 BKN015 OVC055 M01/M02 A2994 RMK AO2 SFC VIS 2 P0005=
200701110450 SPECI KSEA 110450Z 18005KT 1/2SM -SN BR FEW003 BKN015 OVC055 M01/M02 A2994 RMK AO2 SFC VIS 2 P0005=
200701110433 SPECI KSEA 110433Z 14004KT 1/2SM R16C/4000VP6000FT -SN BR SCT003 OVC011 M01/M02 A2993 RMK AO2 SFC VIS 1 P0005=
200701110433 SPECI KSEA 110433Z 14004KT 1/2SM R16C/4000VP6000FT -SN BR SCT003 OVC011 M01/M02 A2993 RMK AO2 SFC VIS 1 P0005=
200701110410 SPECI KSEA 110410Z 14004KT 1/2SM R16C/4500VP6000FT -SN BR VV003 M01/M02 A2993 RMK AO2 SFC VIS 3/4 P0002=
200701110410 SPECI KSEA 110410Z 14004KT 1/2SM R16C/4500VP6000FT -SN BR VV003 M01/M02 A2993 RMK AO2 SFC VIS 3/4 P0002=
200701110353 METAR KSEA 110353Z 14004KT 1/2SM R16C/4500VP6000FT -SN BR OVC006 M01/M02 A2993 RMK AO2 SFC VIS 3/4 SLP144 P0005 T10111017=
200701110338 SPECI KSEA 110338Z 17004KT 1/2SM R16C/P6000FT -SN BR BKN006 OVC013 M01/M02 A2992 RMK AO2 SFC VIS 1 P0004=
200701110338 SPECI KSEA 110338Z 17004KT 1/2SM R16C/P6000FT -SN BR BKN006 OVC013 M01/M02 A2992 RMK AO2 SFC VIS 1 P0004=
200701110253 METAR KSEA 110253Z 36003KT 1/2SM R16C/3500V6000FT SN FZFG VV004 M01/M02 A2992 RMK AO2 SLP141 P0011 60011 T10111017 51011=
200701110158 SPECI KSEA 110158Z 02011KT 1/2SM R16C/3000VP6000FT SN FZFG OVC004 M01/M01 A2991 RMK AO2 CIG 001V008 P0000=
200701110158 SPECI KSEA 110158Z 02011KT 1/2SM R16C/3000VP6000FT SN FZFG OVC004 M01/M01 A2991 RMK AO2 CIG 001V008 P0000=
200701110153 METAR KSEA 110153Z 36008KT 2SM R16C/6000VP6000FT -SN BR BKN004 OVC017 00/M01 A2991 RMK AO2 SNB05 CIG 001V008 SLP139 P0000 T00001011=
200701110149 SPECI KSEA 110149Z 36008KT 2 1/2SM -SN BR BKN004 OVC019 00/M01 A2991 RMK AO2 SNB05 P0000=
200701110149 SPECI KSEA 110149Z 36008KT 2 1/2SM -SN BR BKN004 OVC019 00/M01 A2991 RMK AO2 SNB05 P0000=
200701110140 SPECI KSEA 110140Z 33009KT 6SM -SN BR SCT006 BKN019 OVC024 00/M02 A2991 RMK AO2 SNB05 P0000=
200701110140 SPECI KSEA 110140Z 33009KT 6SM -SN BR SCT006 BKN019 OVC024 00/M02 A2991 RMK AO2 SNB05 P0000=
200701110053 METAR KSEA 110053Z 23010KT 10SM SCT019 BKN028 OVC060 02/M02 A2989 RMK AO2 SLP133 T00171017=
200701102353 METAR KSEA 102353Z 24012KT 10SM BKN025 BKN032 BKN120 02/M02 A2988 RMK AO2 SLP130 T00221017 10022 20006 53007=
200701102253 METAR KSEA 102253Z 21012KT 10SM BKN020 BKN027 BKN120 02/M02 A2986 RMK AO2 SLP123 T00171017=
200701102153 METAR KSEA 102153Z 22012KT 10SM BKN017 BKN025 BKN120 02/M02 A2987 RMK AO2 SLP124 T00171017=
200701102053 METAR KSEA 102053Z 20014G20KT 10SM BKN015 OVC024 02/M01 A2986 RMK AO2 SLP123 BINOVC OHD-SW-NW T00171011 58008=
200701101953 METAR KSEA 101953Z 21016G21KT 10SM BKN015 OVC021 01/M01 A2989 RMK AO2 SLP131 T00111011=
200701101853 METAR KSEA 101853Z 22014G21KT 10SM SCT012 BKN017 BKN023 BKN130 02/M01 A2990 RMK AO2 SLP134 T00171011=
200701101807 SPECI KSEA 101807Z 21019G23KT 10SM SCT010 BKN015 BKN120 01/M01 A2989 RMK AO2=
200701101807 SPECI KSEA 101807Z 21019G23KT 10SM SCT010 BKN015 BKN120 01/M01 A2989 RMK AO2=
200701101753 METAR KSEA 101753Z 20017G23KT 10SM FEW009 BKN011 BKN017 01/M01 A2989 RMK AO2 SLP131 60001 T00111011 10011 20000 51006=
200701101734 SPECI KSEA 101734Z 21017G23KT 10SM FEW009 BKN011 BKN017 01/M01 A2989 RMK AO2=
200701101734 SPECI KSEA 101734Z 21017G23KT 10SM FEW009 BKN011 BKN017 01/M01 A2989 RMK AO2=
200701101653 METAR KSEA 101653Z 19017G21KT 10SM SCT009 BKN015 BKN090 01/M01 A2988 RMK AO2 SLP129 T00061011=
200701101618 SPECI KSEA 101618Z 22016KT 10SM SCT009 BKN016 BKN095 01/M01 A2989 RMK AO2=
200701101618 SPECI KSEA 101618Z 22016KT 10SM SCT009 BKN016 BKN095 01/M01 A2989 RMK AO2=
200701101553 METAR KSEA 101553Z 22015KT 10SM SCT009 BKN013 BKN021 01/M01 A2988 RMK AO2 SLP129 T00111011=
200701101532 SPECI KSEA 101532Z 22013G21KT 10SM SCT009 OVC013 01/M01 A2988 RMK AO2=
200701101532 SPECI KSEA 101532Z 22013G21KT 10SM SCT009 OVC013 01/M01 A2988 RMK AO2=
200701101453 METAR KSEA 101453Z 20016G24KT 10SM BKN009 BKN010 OVC013 01/M01 A2987 RMK AO2 PK WND 20027/1428 SLP125 60001 T00061011 55003=
200701101353 METAR KSEA 101353Z 19018G23KT 10SM BKN008 BKN011 BKN019 01/M01 A2987 RMK AO2 PK WND 21027/1338 SNE08 SLP123 P0000 T00061006=
200701101309 SPECI KSEA 101309Z 20020G26KT 7SM BKN004 BKN010 OVC015 00/M01 A2988 RMK AO2 PK WND 22026/1309 SNE08 P0000=
200701101309 SPECI KSEA 101309Z 20020G26KT 7SM BKN004 BKN010 OVC015 00/M01 A2988 RMK AO2 PK WND 22026/1309 SNE08 P0000=
200701101303 SPECI KSEA 101303Z 19017G22KT 3SM R16C/6000VP6000FT -SN SCT004 BKN010 OVC015 00/M01 A2988 RMK AO2 P0000=
200701101303 SPECI KSEA 101303Z 19017G22KT 3SM R16C/6000VP6000FT -SN SCT004 BKN010 OVC015 00/M01 A2988 RMK AO2 P0000=
200701101300 SPECI KSEA 101300Z 20015G24KT 1 1/2SM R16C/4500VP6000FT -SN SCT004 BKN010 OVC017 00/M01 A2988 RMK AO2 P0000=
200701101300 SPECI KSEA 101300Z 20015G24KT 1 1/2SM R16C/4500VP6000FT -SN SCT004 BKN010 OVC017 00/M01 A2988 RMK AO2 P0000=
200701101253 METAR KSEA 101253Z 20019G25KT 1 1/2SM R16C/4000VP6000FT -SN BKN008 BKN012 OVC020 00/M01 A2988 RMK AO2 SNB23 SLP128 P0001 T00001006=
200701101248 SPECI KSEA 101248Z 20012KT 2SM R16C/6000VP6000FT -SN BKN008 BKN012 OVC020 00/M01 A2988 RMK AO2 SNB23 P0001=
200701101248 SPECI KSEA 101248Z 20012KT 2SM R16C/6000VP6000FT -SN BKN008 BKN012 OVC020 00/M01 A2988 RMK AO2 SNB23 P0001=
200701101242 SPECI KSEA 101242Z 22011KT 3SM R16C/5000VP6000FT -SN FEW008 BKN012 OVC020 00/M01 A2989 RMK AO2 SNB23 P0001=
200701101242 SPECI KSEA 101242Z 22011KT 3SM R16C/5000VP6000FT -SN FEW008 BKN012 OVC020 00/M01 A2989 RMK AO2 SNB23 P0001=
200701101233 SPECI KSEA 101233Z 21015KT 3SM R16C/5000VP6000FT -SN BKN012 BKN015 OVC020 01/M01 A2990 RMK AO2 SFC VIS 4 SNB23 P0000=
200701101233 SPECI KSEA 101233Z 21015KT 3SM R16C/5000VP6000FT -SN BKN012 BKN015 OVC020 01/M01 A2990 RMK AO2 SFC VIS 4 SNB23 P0000=
200701101214 SPECI KSEA 101214Z 22011KT 10SM SCT018 BKN026 BKN050 OVC130 01/M02 A2990 RMK AO2=
200701101214 SPECI KSEA 101214Z 22011KT 10SM SCT018 BKN026 BKN050 OVC130 01/M02 A2990 RMK AO2=
200701101153 METAR KSEA 101153Z 18009KT 10SM SCT017 BKN100 OVC200 00/M03 A2991 RMK AO2 SLP138 70016 T00001028 10028 20000 58009=
200701101053 METAR KSEA 101053Z 22008KT 10SM FEW030 SCT100 01/M02 A2993 RMK AO2 SLP145 T00111022=
200701100953 METAR KSEA 100953Z 19008KT 10SM FEW050 SCT100 01/M03 A2993 RMK AO2 SLP144 T00061028=
200701100853 METAR KSEA 100853Z 22010KT 10SM FEW100 01/M03 A2994 RMK AO2 SLP147 T00111028 50020=
200701100753 METAR KSEA 100753Z 23010KT 10SM FEW070 01/M02 A2995 RMK AO2 SLP149 T00111022 401060011=
200701100653 METAR KSEA 100653Z 25012KT 10SM FEW030 SCT070 02/M02 A2993 RMK AO2 SLP143 T00221017=
200701100553 METAR KSEA 100553Z 23019G23KT 10SM FEW020 SCT100 03/M01 A2988 RMK AO2 SLP126 60001 T00281011 10067 20028 51020=
200701100453 METAR KSEA 100453Z 22009KT 10SM FEW017 SCT022 OVC110 03/00 A2987 RMK AO2 SLP123 T00280000=
200701100353 METAR KSEA 100353Z 23013G21KT 10SM FEW020 BKN100 03/01 A2984 RMK AO2 PK WND 23027/0326 SLP112 T00330006=
200701100253 METAR KSEA 100253Z 22015G25KT 10SM FEW020 SCT110 04/01 A2982 RMK AO2 SLP106 60001 T00390011 51026=
200701100153 METAR KSEA 100153Z 22019G24KT 10SM FEW016 SCT060 SCT110 04/02 A2980 RMK AO2 PK WND 23028/0139 SLP100 T00440017=
200701100053 METAR KSEA 100053Z 22022G30KT 10SM SCT019 SCT045 BKN085 05/03 A2977 RMK AO2 PK WND 23032/0027 RAE13 SLP090 P0001 T00500028=
200701100008 SPECI KSEA 100008Z 22020G31KT 10SM -RA FEW015 SCT023 BKN043 07/04 A2973 RMK AO2 PK WND 23031/0005 P0001=
200701100008 SPECI KSEA 100008Z 22020G31KT 10SM -RA FEW015 SCT023 BKN043 07/04 A2973 RMK AO2 PK WND 23031/0005 P0001=
200701092353 METAR KSEA 092353Z 25021G36KT 3SM -RA BR SCT015 BKN021 OVC034 07/06 A2974 RMK AO2 PK WND 25036/2344 SFC VIS 4 PRESRR SLP080 BINOVC W P0010 60015 T00720056 10106 20072 55022=
200701092330 SPECI KSEA 092330Z 21019G32KT 7SM -RA FEW019 BKN026 OVC033 08/06 A2971 RMK AO2 PK WND 20032/2327 P0005=
200701092330 SPECI KSEA 092330Z 21019G32KT 7SM -RA FEW019 BKN026 OVC033 08/06 A2971 RMK AO2 PK WND 20032/2327 P0005=
200701092253 METAR KSEA 092253Z 21022G29KT 5SM RA OVC034 09/06 A2972 RMK AO2 PK WND 22039/2222 RAB21 SLP072 P0005 T00890056 $=
200701092153 METAR KSEA 092153Z 20024G33KT 10SM BKN040 BKN130 OVC150 11/03 A2973 RMK AO2 PK WND 20033/2153 PRESFR SLP073 T01060033=
200701092053 METAR KSEA 092053Z 20012KT 10SM FEW020 SCT130 BKN150 09/06 A2981 RMK AO2 SLP101 T00890056 58064=
200701091953 METAR KSEA 091953Z 20009KT 10SM FEW020 BKN150 OVC200 08/06 A2989 RMK AO2 PRESFR SLP128 BINOVC N T00830056=
200701091853 METAR KSEA 091853Z COR 21012KT 10SM FEW015 SCT041 BKN150 OVC200 08/06 A2997 RMK AO2 SLP157 T00830061=
200701091753 METAR KSEA 091753Z 20008KT 10SM FEW015 SCT040 SCT150 BKN200 09/06 A3000 RMK AO2 SLP166 T00890061 10089 20078 58037=
200701091653 METAR KSEA 091653Z 19007KT 10SM FEW015 BKN045 BKN110 08/05 A3004 RMK AO2 SLP180 T00830050=
200701091553 METAR KSEA 091553Z 18008KT 10SM FEW015 SCT045 BKN090 08/05 A3007 RMK AO2 SLP191 T00780050=
200701091453 METAR KSEA 091453Z 20010KT 10SM BKN041 BKN090 08/06 A3011 RMK AO2 SLP204 T00830056 56034=
200701091353 METAR KSEA 091353Z 20011KT 10SM FEW028 SCT041 OVC200 08/06 A3014 RMK AO2 SLP213 T00830061=
200701091253 METAR KSEA 091253Z 20012KT 10SM BKN043 BKN140 OVC200 08/06 A3017 RMK AO2 SLP223 T00830061=
200701091153 METAR KSEA 091153Z 19013KT 10SM BKN055 OVC140 08/06 A3021 RMK AO2 SLP238 60000 T00830061 10089 20078 58023=
200701091053 METAR KSEA 091053Z 19012KT 10SM SCT026 BKN033 OVC060 09/07 A3025 RMK AO2 SLP252 T00890067=
200701090953 METAR KSEA 090953Z 19012KT 10SM SCT015 BKN022 OVC040 09/07 A3028 RMK AO2 SLP261 T00890067=
200701090948 SPECI KSEA 090948Z 19012KT 10SM FEW011 SCT014 OVC022 09/07 A3028 RMK AO2=
200701090948 SPECI KSEA 090948Z 19012KT 10SM FEW011 SCT014 OVC022 09/07 A3028 RMK AO2=
200701090853 METAR KSEA 090853Z 19012KT 10SM SCT008 BKN014 OVC024 09/07 A3029 RMK AO2 SLP264 60000 T00890072 58021=
200701090800 SPECI KSEA 090800Z 19010KT 10SM BKN012 BKN015 OVC060 08/07 A3033 RMK AO2=
200701090800 SPECI KSEA 090800Z 19010KT 10SM BKN012 BKN015 OVC060 08/07 A3033 RMK AO2=
200701090753 METAR KSEA 090753Z 19009KT 10SM SCT012 BKN015 BKN060 OVC150 08/07 A3033 RMK AO2 SLP278 T00830067 400890033=
200701090653 METAR KSEA 090653Z 19010KT 10SM FEW005 SCT019 BKN060 OVC140 08/07 A3035 RMK AO2 RAB16E28 SLP287 P0000 T00830072=
200701090648 SPECI KSEA 090648Z 19009KT 10SM FEW005 BKN019 BKN060 OVC140 08/07 A3035 RMK AO2 RAB16E28 P0000=
200701090648 SPECI KSEA 090648Z 19009KT 10SM FEW005 BKN019 BKN060 OVC140 08/07 A3035 RMK AO2 RAB16E28 P0000=
200701090625 SPECI KSEA 090625Z 20012KT 8SM -RA SCT007 BKN013 OVC019 08/07 A3036 RMK AO2 RAB16 P0000=
200701090625 SPECI KSEA 090625Z 20012KT 8SM -RA SCT007 BKN013 OVC019 08/07 A3036 RMK AO2 RAB16 P0000=
200701090553 METAR KSEA 090553Z 21010KT 10SM BKN021 OVC040 09/07 A3037 RMK AO2 SLP294 60000 T00890067 10089 20078 58009=
200701090453 METAR KSEA 090453Z 20008KT 10SM OVC019 09/06 A3039 RMK AO2 RAB04E14 SLP299 P0000 T00890061=
200701090353 METAR KSEA 090353Z 20011KT 10SM OVC017 09/06 A3040 RMK AO2 SLP303 T00890056=
200701090253 METAR KSEA 090253Z 19011KT 10SM SCT017 OVC023 08/05 A3040 RMK AO2 SLP304 T00830050 56025=
200701090153 METAR KSEA 090153Z 18008KT 10SM BKN022 OVC050 08/04 A3043 RMK AO2 SLP312 T00830039=
200701090053 METAR KSEA 090053Z 18008KT 10SM BKN024 OVC070 08/03 A3045 RMK AO2 SLP318 T00830033=
200701082353 METAR KSEA 082353Z 17005KT 10SM BKN028 OVC090 08/04 A3048 RMK AO2 RAE2257 SLP329 P0000 60000 T00780039 10078 20061 56029=
200701082334 SPECI KSEA 082334Z 19003KT 10SM BKN028 OVC090 08/04 A3048 RMK AO2 RAE2257 P0000=
200701082334 SPECI KSEA 082334Z 19003KT 10SM BKN028 OVC090 08/04 A3048 RMK AO2 RAE2257 P0000=
200701082253 METAR KSEA 082253Z 18005KT 10SM -RA SCT025 BKN038 OVC100 07/04 A3050 RMK AO2 RAB38 PRESFR SLP336 P0000 T00720039=
200701082153 METAR KSEA 082153Z 21005KT 10SM FEW010 SCT025 OVC031 07/04 A3053 RMK AO2 SLP346 T00720039=
200701082053 METAR KSEA 082053Z 15006KT 10SM FEW010 BKN035 OVC050 07/03 A3057 RMK AO2 SLP359 SH DSNT SW T00720028 58019=
200701081953 METAR KSEA 081953Z 19006KT 10SM FEW015 SCT037 BKN070 OVC150 07/02 A3059 RMK AO2 SLP368 T00720022=
200701081853 METAR KSEA 081853Z 18008KT 10SM FEW015 SCT040 SCT090 OVC150 07/03 A3061 RMK AO2 SLP376 BINOVC OHD T00670028=
200701081753 METAR KSEA 081753Z 18009KT 10SM FEW012 SCT030 BKN090 06/03 A3062 RMK AO2 SLP379 T00610033 10061 20033 50002=
200701081653 METAR KSEA 081653Z 17006KT 10SM FEW009 SCT030 OVC090 05/03 A3063 RMK AO2 SLP380 T00500033=
200701081553 METAR KSEA 081553Z 16006KT 10SM FEW009 SCT030 BKN095 OVC200 04/03 A3062 RMK AO2 SLP376 T00390028=
200701081453 METAR KSEA 081453Z 16006KT 10SM FEW009 SCT032 BKN110 03/03 A3062 RMK AO2 SLP376 T00330028 51006=
200701081353 METAR KSEA 081353Z 14007KT 10SM BKN009 OVC014 06/04 A3061 RMK AO2 SLP374 T00560039=
200701081253 METAR KSEA 081253Z 14005KT 10SM BKN014 OVC110 06/04 A3061 RMK AO2 SLP376 T00560039=
200701081153 METAR KSEA 081153Z 12006KT 10SM BKN028 OVC036 06/04 A3060 RMK AO2 SLP370 70089 T00560039 10072 20050 50008=
200701081129 SPECI KSEA 081129Z 06004KT 10SM BKN028 OVC036 06/04 A3061 RMK AO2=
200701081129 SPECI KSEA 081129Z 06004KT 10SM BKN028 OVC036 06/04 A3061 RMK AO2=
200701081053 METAR KSEA 081053Z 17007KT 10SM BKN032 05/03 A3060 RMK AO2 SLP371 T00500033=
200701081025 SPECI KSEA 081025Z 16007KT 10SM SCT023 OVC032 06/04 A3059 RMK AO2=
200701081025 SPECI KSEA 081025Z 16007KT 10SM SCT023 OVC032 06/04 A3059 RMK AO2=
200701080953 METAR KSEA 080953Z 18006KT 10SM BKN019 OVC023 06/04 A3058 RMK AO2 SLP363 T00610039=
200701080853 METAR KSEA 080853Z 17004KT 10SM SCT016 OVC021 07/04 A3057 RMK AO2 SLP362 T00670039 51018=
200701080753 METAR KSEA 080753Z 18006KT 8SM SCT012 BKN015 OVC020 07/04 A3056 RMK AO2 SLP357 T00670044 400940044=
200701080653 METAR KSEA 080653Z 19007KT 10SM BKN015 OVC022 07/04 A3054 RMK AO2 SLP350 T00670044=
200701080553 METAR KSEA 080553Z 20009KT 10SM SCT015 BKN019 OVC025 07/04 A3052 RMK AO2 SLP343 T00720044 10089 20072 51034=
200701080453 METAR KSEA 080453Z 23011KT 10SM FEW010 BKN015 OVC019 07/05 A3048 RMK AO2 SLP330 T00720050=
200701080353 METAR KSEA 080353Z 21012KT 10SM BKN023 OVC120 07/04 A3046 RMK AO2 PRESRR SLP324 T00720044=
200701080344 SPECI KSEA 080344Z 23012KT 10SM BKN023 OVC120 07/04 A3045 RMK AO2=
200701080344 SPECI KSEA 080344Z 23012KT 10SM BKN023 OVC120 07/04 A3045 RMK AO2=
200701080253 METAR KSEA 080253Z 23015G19KT 10SM SCT022 BKN060 BKN120 OVC200 08/04 A3042 RMK AO2 SLP309 T00780044 53038=
200701080207 SPECI KSEA 080207Z 23013G25KT 10SM BKN023 BKN060 BKN120 OVC200 08/04 A3038 RMK AO2=
200701080207 SPECI KSEA 080207Z 23013G25KT 10SM BKN023 BKN060 BKN120 OVC200 08/04 A3038 RMK AO2=
200701080153 METAR KSEA 080153Z 23018G25KT 10SM FEW025 SCT060 SCT120 BKN200 08/05 A3036 RMK AO2 PK WND 23027/0110 PRESRR SLP290 T00780050=
200701080053 METAR KSEA 080053Z 23019G25KT 10SM FEW025 SCT055 BKN120 BKN200 08/04 A3033 RMK AO2 PK WND 23034/0025 SLP278 T00830044=
200701072353 METAR KSEA 072353Z 22020G32KT 10SM FEW020 SCT026 BKN100 OVC200 09/06 A3030 RMK AO2 PK WND 21032/2349 SLP270 60005 T00890056 10094 20083 53011=
200701072336 SPECI KSEA 072336Z 22017G27KT 10SM SCT022 BKN100 OVC200 09/07 A3031 RMK AO2 PK WND 22030/2307=
200701072336 SPECI KSEA 072336Z 22017G27KT 10SM SCT022 BKN100 OVC200 09/07 A3031 RMK AO2 PK WND 22030/2307=
200701072253 METAR KSEA 072253Z 22017G29KT 10SM FEW013 BKN024 OVC100 09/06 A3029 RMK AO2 PK WND 23031/2159 RAE2155 SLP263 P0000 T00940061=
200701072208 SPECI KSEA 072208Z 22019G31KT 10SM SCT013 BKN018 OVC033 09/07 A3026 RMK AO2 PK WND 23031/2159 RAE2155 P0000=
200701072208 SPECI KSEA 072208Z 22019G31KT 10SM SCT013 BKN018 OVC033 09/07 A3026 RMK AO2 PK WND 23031/2159 RAE2155 P0000=
200701072153 METAR KSEA 072153Z 22019G24KT 10SM -RA BKN013 OVC025 09/08 A3026 RMK AO2 PK WND 22027/2105 RAB17 SLP256 P0000 T00890078=
200701072053 METAR KSEA 072053Z 21018G26KT 10SM BKN013 OVC022 09/07 A3027 RMK AO2 PK WND 22026/2053 SLP258 60005 T00890072 51004=
200701072028 SPECI KSEA 072028Z 21018KT 10SM FEW008 BKN013 OVC022 09/07 A3027 RMK AO2=
200701072028 SPECI KSEA 072028Z 21018KT 10SM FEW008 BKN013 OVC022 09/07 A3027 RMK AO2=
200701071953 METAR KSEA 071953Z 22015G27KT 10SM BKN011 OVC022 08/08 A3026 RMK AO2 PK WND 21030/1859 RAE22 SLP256 P0001 T00830078=
200701071930 SPECI KSEA 071930Z 22018G27KT 10SM BKN011 OVC021 08/08 A3027 RMK AO2 PK WND 21030/1859 RAE22 P0000=
200701071930 SPECI KSEA 071930Z 22018G27KT 10SM BKN011 OVC021 08/08 A3027 RMK AO2 PK WND 21030/1859 RAE22 P0000=
200701071853 METAR KSEA 071853Z 20018G26KT 6SM -RA BR SCT008 OVC021 08/08 A3026 RMK AO2 PK WND 20031/1815 SLP256 P0004 T00830078=
200701071838 SPECI KSEA 071838Z 21018G24KT 5SM -RA BR SCT008 OVC022 08/08 A3027 RMK AO2 PK WND 20031/1815 P0003=
200701071838 SPECI KSEA 071838Z 21018G24KT 5SM -RA BR SCT008 OVC022 08/08 A3027 RMK AO2 PK WND 20031/1815 P0003=
200701071753 METAR KSEA 071753Z 21018KT 6SM -RA BR SCT015 BKN021 OVC031 08/08 A3026 RMK AO2 PK WND 22029/1735 SLP254 P0008 60084 T00830078 10083 20067 55003=
200701071653 METAR KSEA 071653Z 21020G27KT 4SM RA BR FEW009 BKN016 OVC032 08/07 A3024 RMK AO2 PK WND 20028/1609 SLP248 P0013 T00830072=
200701071621 SPECI KSEA 071621Z 21017G24KT 6SM RA BR SCT009 BKN015 OVC035 08/07 A3023 RMK AO2 PK WND 20028/1609 P0006=
200701071621 SPECI KSEA 071621Z 21017G24KT 6SM RA BR SCT009 BKN015 OVC035 08/07 A3023 RMK AO2 PK WND 20028/1609 P0006=
200701071553 METAR KSEA 071553Z 20020G29KT 5SM RA BR BKN009 OVC014 08/07 A3022 RMK AO2 PK WND 18029/1550 SLP243 P0023 T00780067=
200701071542 SPECI KSEA 071542Z 20018G26KT 4SM RA BR SCT009 BKN014 OVC035 08/07 A3022 RMK AO2 PK WND 19028/1521 P0021=
200701071542 SPECI KSEA 071542Z 20018G26KT 4SM RA BR SCT009 BKN014 OVC035 08/07 A3022 RMK AO2 PK WND 19028/1521 P0021=
200701071453 METAR KSEA 071453Z 21016KT 4SM +RA BR SCT009 OVC023 07/07 A3026 RMK AO2 SLP257 P0022 60040 T00670067 53005=
200701071447 SPECI KSEA 071447Z 21013KT 5SM RA BR SCT009 OVC023 07/07 A3026 RMK AO2 P0019=
200701071447 SPECI KSEA 071447Z 21013KT 5SM RA BR SCT009 OVC023 07/07 A3026 RMK AO2 P0019=
200701071406 SPECI KSEA 071406Z 19018G23KT 4SM RA BR FEW005 BKN013 OVC029 07/06 A3024 RMK AO2 P0003=
200701071406 SPECI KSEA 071406Z 19018G23KT 4SM RA BR FEW005 BKN013 OVC029 07/06 A3024 RMK AO2 P0003=
200701071355 SPECI KSEA 071355Z 20016G23KT 2 1/2SM RA BR SCT005 BKN011 OVC029 07/06 A3024 RMK AO2 P0001=
200701071355 SPECI KSEA 071355Z 20016G23KT 2 1/2SM RA BR SCT005 BKN011 OVC029 07/06 A3024 RMK AO2 P0001=
200701071353 METAR KSEA 071353Z 20015G23KT 2 1/2SM RA BR BKN005 OVC010 07/06 A3024 RMK AO2 SLP249 P0015 T00670061=
200701071326 SPECI KSEA 071326Z 19015G23KT 2SM -RA BR BKN007 OVC010 07/06 A3025 RMK AO2 P0007=
200701071326 SPECI KSEA 071326Z 19015G23KT 2SM -RA BR BKN007 OVC010 07/06 A3025 RMK AO2 P0007=
200701071253 METAR KSEA 071253Z 18017G26KT 3SM -RA BR BKN009 OVC017 07/06 A3025 RMK AO2 PK WND 19029/1234 SLP251 P0003 T00670056=
200701071239 SPECI KSEA 071239Z 20019G29KT 2 1/2SM -RA BR BKN007 OVC011 07/06 A3026 RMK AO2 PK WND 19029/1234 P0002=
200701071239 SPECI KSEA 071239Z 20019G29KT 2 1/2SM -RA BR BKN007 OVC011 07/06 A3026 RMK AO2 PK WND 19029/1234 P0002=
200701071153 METAR KSEA 071153Z 18019G24KT 4SM -RA BR BKN017 OVC027 07/05 A3024 RMK AO2 SLP250 P0001 60007 70007 T00670050 10067 20044 56028=
200701071053 METAR KSEA 071053Z 18021G27KT 10SM -RA FEW004 BKN014 OVC022 07/05 A3027 RMK AO2 PK WND 18027/1053 SLP257 P0001 T00670050=
200701071028 SPECI KSEA 071028Z 19018G22KT 9SM -RA BKN014 OVC022 06/04 A3028 RMK AO2 P0001=
200701071028 SPECI KSEA 071028Z 19018G22KT 9SM -RA BKN014 OVC022 06/04 A3028 RMK AO2 P0001=
200701070953 METAR KSEA 070953Z 18010KT 8SM -RA SCT015 OVC018 05/03 A3029 RMK AO2 SLP267 P0001 T00500033=
200701070853 METAR KSEA 070853Z 15010KT 10SM -RA OVC022 05/02 A3033 RMK AO2 SLP278 P0001 60004 T00500022 56025=
200701070753 METAR KSEA 070753Z 17009KT 8SM -RA BKN027 OVC035 04/02 A3034 RMK AO2 SLP284 P0003 T00440022 400670022=
200701070734 SPECI KSEA 070734Z 16009KT 8SM -RA BKN027 OVC040 04/02 A3035 RMK AO2 P0002=
200701070734 SPECI KSEA 070734Z 16009KT 8SM -RA BKN027 OVC040 04/02 A3035 RMK AO2 P0002=
200701070653 METAR KSEA 070653Z 20009KT 10SM -RA SCT027 BKN030 OVC075 06/01 A3038 RMK AO2 RAB51 SLP297 P0000 T00560011=
200701070600 SPECI KSEA 070600Z 19013G18KT 10SM BKN025 OVC033 06/01 A3040 RMK AO2=
200701070600 SPECI KSEA 070600Z 19013G18KT 10SM BKN025 OVC033 06/01 A3040 RMK AO2=
200701070553 METAR KSEA 070553Z 18010KT 10SM SCT025 BKN030 OVC100 06/01 A3040 RMK AO2 SLP305 60000 T00610006 10061 20050 57008=
200701070453 METAR KSEA 070453Z 19010KT 10SM SCT031 SCT080 BKN120 OVC200 06/01 A3041 RMK AO2 SLP306 T00560006=
200701070353 METAR KSEA 070353Z 19010KT 10SM FEW024 SCT045 OVC085 05/01 A3043 RMK AO2 SLP313 T00500006=
200701070253 METAR KSEA 070253Z 18009KT 10SM SCT024 BKN031 OVC100 05/01 A3043 RMK AO2 SLP314 60000 T00500011 58001=
200701070153 METAR KSEA 070153Z 19010KT 10SM SCT026 BKN030 OVC043 05/02 A3043 RMK AO2 RAB22E51 SLP314 P0000 T00500017=
200701070053 METAR KSEA 070053Z 18010KT 10SM FEW030 BKN065 OVC150 05/02 A3043 RMK AO2 SLP315 T00500017=
200701062353 METAR KSEA 062353Z 20012G18KT 10SM FEW028 BKN050 BKN080 OVC180 05/02 A3043 RMK AO2 SLP315 T00500017 10056 20033 53012=
200701062253 METAR KSEA 062253Z 20014KT 10SM SCT022 BKN100 OVC180 06/02 A3040 RMK AO2 SLP305 T00560017=
200701062223 SPECI KSEA 062223Z 19014G20KT 10SM BKN022 OVC100 06/02 A3039 RMK AO2=
200701062223 SPECI KSEA 062223Z 19014G20KT 10SM BKN022 OVC100 06/02 A3039 RMK AO2=
200701062208 SPECI KSEA 062208Z 21014KT 10SM SCT022 BKN100 OVC200 06/02 A3040 RMK AO2=
200701062208 SPECI KSEA 062208Z 21014KT 10SM SCT022 BKN100 OVC200 06/02 A3040 RMK AO2=
200701062153 METAR KSEA 062153Z 22010KT 10SM BKN022 OVC095 06/02 A3040 RMK AO2 SLP303 T00560017=
200701062119 SPECI KSEA 062119Z 20010KT 10SM BKN024 OVC095 06/02 A3040 RMK AO2=
200701062119 SPECI KSEA 062119Z 20010KT 10SM BKN024 OVC095 06/02 A3040 RMK AO2=
200701062053 METAR KSEA 062053Z 22012KT 10SM SCT023 BKN100 OVC140 06/02 A3040 RMK AO2 SLP302 T00560017 51020=
200701061953 METAR KSEA 061953Z 18009KT 10SM FEW030 SCT150 OVC200 06/01 A3038 RMK AO2 SLP297 T00560011=
200701061853 METAR KSEA 061853Z 16009KT 10SM FEW030 SCT160 OVC200 04/01 A3037 RMK AO2 SLP292 T00390011=
200701061753 METAR KSEA 061753Z 13010KT 10SM FEW030 SCT180 BKN250 03/01 A3034 RMK AO2 SLP282 T00330006 10039 20022 51045=
200701061653 METAR KSEA 061653Z 19008KT 10SM FEW025 SCT250 03/00 A3029 RMK AO2 SLP268 T00330000=
200701061553 METAR KSEA 061553Z VRB03KT 10SM FEW025 SCT120 SCT200 03/M01 A3025 RMK AO2 SLP251 T00331006=
200701061453 METAR KSEA 061453Z 27007KT 10SM FEW080 SCT120 03/00 A3020 RMK AO2 SLP237 T00280000 51050=
200701061353 METAR KSEA 061353Z 24007KT 10SM FEW120 03/00 A3016 RMK AO2 PRESRR SLP222 T00330000=
200701061253 METAR KSEA 061253Z 26012KT 10SM FEW120 03/M01 A3010 RMK AO2 SLP202 T00331006=
200701061153 METAR KSEA 061153Z 26015G20KT 10SM FEW100 04/00 A3005 RMK AO2 SLP186 60009 70077 T00390000 10067 20039 51044=
200701061053 METAR KSEA 061053Z 26011KT 10SM FEW020 SCT110 04/01 A3002 RMK AO2 SLP175 T00390006=
200701060953 METAR KSEA 060953Z 27013G19KT 10SM CLR 05/01 A2998 RMK AO2 SLP163 T00500011=
200701060853 METAR KSEA 060853Z 25017G29KT 10SM FEW016 06/02 A2992 RMK AO2 PK WND 24031/0811 PRESRR SLP140 60009 T00610022 53013=
200701060753 METAR KSEA 060753Z 22017G24KT 10SM FEW016 SCT100 06/04 A2986 RMK AO2 PK WND 22034/0729 RAB0656E17 SLP121 P0003 T00560044 400611006=
200701060705 SPECI KSEA 060705Z 21025G31KT 6SM -RA BR FEW008 SCT014 OVC022 05/04 A2984 RMK AO2 PK WND 22031/0703 RAB0656 P0003=
200701060705 SPECI KSEA 060705Z 21025G31KT 6SM -RA BR FEW008 SCT014 OVC022 05/04 A2984 RMK AO2 PK WND 22031/0703 RAB0656 P0003=
200701060653 METAR KSEA 060653Z 20021G32KT 5SM BR SCT016 OVC022 04/03 A2983 RMK AO2 PK WND 20040/0623 RAE19B36E47 SLP112 P0006 T00440033=
200701060553 METAR KSEA 060553Z 20022G32KT 6SM RA BR FEW013 OVC017 04/02 A2988 RMK AO2 PK WND 22036/0520 PRESFR SLP128 P0014 60060 T00390022 10044 20039 58040=
200701060546 SPECI KSEA 060546Z 20022G33KT 5SM RA BR SCT013 OVC017 04/02 A2990 RMK AO2 PK WND 22036/0520 P0013=
200701060546 SPECI KSEA 060546Z 20022G33KT 5SM RA BR SCT013 OVC017 04/02 A2990 RMK AO2 PK WND 22036/0520 P0013=
200701060529 SPECI KSEA 060529Z 20028G36KT 4SM RA BR BKN013 OVC019 04/03 A2992 RMK AO2 PK WND 22036/0520 P0010=
200701060529 SPECI KSEA 060529Z 20028G36KT 4SM RA BR BKN013 OVC019 04/03 A2992 RMK AO2 PK WND 22036/0520 P0010=
200701060514 SPECI KSEA 060514Z 20024G33KT 6SM RA BR SCT010 OVC015 04/03 A2992 RMK AO2 PK WND 20033/0512 P0005=
200701060514 SPECI KSEA 060514Z 20024G33KT 6SM RA BR SCT010 OVC015 04/03 A2992 RMK AO2 PK WND 20033/0512 P0005=
200701060453 METAR KSEA 060453Z 20019G28KT 6SM RA BR BKN009 OVC017 04/03 A2993 RMK AO2 PK WND 20029/0438 CIG 007V014 SLP144 P0009 T00440033=
200701060433 SPECI KSEA 060433Z 20019G27KT 8SM -RA BKN009 OVC014 04/03 A2995 RMK AO2 PK WND 20029/0400 CIG 007V011 P0007=
200701060433 SPECI KSEA 060433Z 20019G27KT 8SM -RA BKN009 OVC014 04/03 A2995 RMK AO2 PK WND 20029/0400 CIG 007V011 P0007=
200701060403 SPECI KSEA 060403Z 20021G29KT 10SM -RA SCT009 OVC013 04/03 A2997 RMK AO2 PK WND 20029/0400 P0002=
200701060403 SPECI KSEA 060403Z 20021G29KT 10SM -RA SCT009 OVC013 04/03 A2997 RMK AO2 PK WND 20029/0400 P0002=
200701060353 METAR KSEA 060353Z 20022G29KT 8SM -RA OVC011 04/03 A2998 RMK AO2 PK WND 21031/0321 SLP161 P0006 T00440028=
200701060253 METAR KSEA 060253Z 20019G26KT 8SM -RA OVC013 04/03 A3000 RMK AO2 PK WND 20026/0251 SLP169 P0011 60031 T00440028 58049=
200701060244 SPECI KSEA 060244Z 20017G25KT 6SM RA BR OVC013 04/03 A3001 RMK AO2 PK WND 20026/0227 P0009=
200701060244 SPECI KSEA 060244Z 20017G25KT 6SM RA BR OVC013 04/03 A3001 RMK AO2 PK WND 20026/0227 P0009=
200701060153 METAR KSEA 060153Z 20014G23KT 6SM RA BR SCT015 BKN019 OVC028 04/03 A3005 RMK AO2 SLP186 P0010 T00440028=
200701060053 METAR KSEA 060053Z 18020G25KT 6SM RA BR SCT014 OVC022 04/02 A3010 RMK AO2 PK WND 19027/0018 SLP202 P0010 T00440022=
200701052353 METAR KSEA 052353Z 20017G23KT 6SM RA BR BKN018 OVC024 04/03 A3015 RMK AO2 PK WND 20029/2330 SLP219 P0004 60007 T00440028 10061 20039 58023=
200701052253 METAR KSEA 052253Z 19014G28KT 9SM -RA BKN018 OVC025 04/02 A3017 RMK AO2 PK WND 20032/2220 SLP226 P0002 T00440022=
200701052153 METAR KSEA 052153Z 21023G29KT 10SM -RA BKN022 OVC028 05/02 A3020 RMK AO2 PK WND 21029/2153 SLP237 P0001 T00500022=
200701052053 METAR KSEA 052053Z 21022G27KT 10SM -RA BKN028 BKN035 OVC040 06/02 A3022 RMK AO2 PK WND 22031/2020 RAB06 SLP243 P0000 60000 T00610017 58029=
200701052007 SPECI KSEA 052007Z 21022G28KT 10SM -RA BKN028 BKN034 OVC040 06/01 A3024 RMK AO2 PK WND 20028/2007 RAB06 P0000=
200701052007 SPECI KSEA 052007Z 21022G28KT 10SM -RA BKN028 BKN034 OVC040 06/01 A3024 RMK AO2 PK WND 20028/2007 RAB06 P0000=
200701051953 METAR KSEA 051953Z 21021G27KT 10SM SCT028 OVC032 06/01 A3024 RMK AO2 PK WND 21027/1945 SLP251 T00560011=
200701051853 METAR KSEA 051853Z 19012KT 10SM OVC032 04/00 A3028 RMK AO2 SLP264 T00440000=
200701051832 SPECI KSEA 051832Z 19014KT 10SM BKN030 OVC044 04/00 A3029 RMK AO2=
200701051832 SPECI KSEA 051832Z 19014KT 10SM BKN030 OVC044 04/00 A3029 RMK AO2=
200701051753 METAR KSEA 051753Z 19015KT 10SM OVC028 04/M01 A3031 RMK AO2 SLP273 60001 T00391006 10039 20006 56020=
200701051743 SPECI KSEA 051743Z 18013G19KT 10SM BKN028 OVC042 04/M01 A3031 RMK AO2=
200701051743 SPECI KSEA 051743Z 18013G19KT 10SM BKN028 OVC042 04/M01 A3031 RMK AO2=
200701051719 SPECI KSEA 051719Z 18013KT 10SM SCT026 BKN038 OVC045 03/M01 A3031 RMK AO2=
200701051719 SPECI KSEA 051719Z 18013KT 10SM SCT026 BKN038 OVC045 03/M01 A3031 RMK AO2=
200701051653 METAR KSEA 051653Z 19011KT 7SM SCT026 BKN029 OVC038 03/M01 A3032 RMK AO2 SLP279 T00331006=
200701051643 SPECI KSEA 051643Z 18011KT 7SM BKN029 OVC038 03/M01 A3032 RMK AO2=
200701051643 SPECI KSEA 051643Z 18011KT 7SM BKN029 OVC038 03/M01 A3032 RMK AO2=
200701051553 METAR KSEA 051553Z 19014G21KT 7SM FEW020 OVC060 03/00 A3034 RMK AO2 SLP284 T00330000=
200701051453 METAR KSEA 051453Z 17010KT 10SM SCT020 BKN043 OVC060 02/00 A3036 RMK AO2 RAE12 SLP292 P0000 60001 T00220000 58010=
200701051446 SPECI KSEA 051446Z 17010KT 10SM SCT026 BKN043 OVC060 02/00 A3036 RMK AO2 RAE12 P0000=
200701051446 SPECI KSEA 051446Z 17010KT 10SM SCT026 BKN043 OVC060 02/00 A3036 RMK AO2 RAE12 P0000=
200701051434 SPECI KSEA 051434Z 16008KT 10SM FEW015 BKN026 OVC041 02/01 A3037 RMK AO2 RAE12 P0000=
200701051434 SPECI KSEA 051434Z 16008KT 10SM FEW015 BKN026 OVC041 02/01 A3037 RMK AO2 RAE12 P0000=
200701051425 SPECI KSEA 051425Z 16009KT 10SM SCT026 BKN041 OVC048 02/00 A3038 RMK AO2 RAE12 P0000=
200701051425 SPECI KSEA 051425Z 16009KT 10SM SCT026 BKN041 OVC048 02/00 A3038 RMK AO2 RAE12 P0000=
200701051353 METAR KSEA 051353Z 18014KT 7SM -RA FEW015 BKN028 OVC040 02/00 A3038 RMK AO2 SLP296 P0001 T00220000=
200701051259 SPECI KSEA 051259Z 19012KT 7SM -RA FEW018 BKN024 OVC060 02/00 A3038 RMK AO2 P0001=
200701051259 SPECI KSEA 051259Z 19012KT 7SM -RA FEW018 BKN024 OVC060 02/00 A3038 RMK AO2 P0001=
200701051253 METAR KSEA 051253Z 19011KT 7SM -RA FEW018 BKN030 OVC080 02/00 A3038 RMK AO2 RAB39 SLP298 P0000 T00220000=
200701051153 METAR KSEA 051153Z 18010KT 10SM BKN090 OVC200 01/M01 A3039 RMK AO2 SLP302 70006 T00061011 10006 21011 50008=
200701051053 METAR KSEA 051053Z 15007KT 10SM BKN100 OVC200 00/M02 A3040 RMK AO2 SLP303 T00001017=
200701050953 METAR KSEA 050953Z 16008KT 10SM FEW100 BKN200 00/M02 A3038 RMK AO2 SLP299 T00001022=
200701050853 METAR KSEA 050853Z 13009KT 10SM BKN200 M01/M02 A3037 RMK AO2 SLP295 T10061022 51025=
200701050753 METAR KSEA 050753Z 16008KT 10SM FEW200 00/M02 A3035 RMK AO2 SLP288 T00001022 400561011=
200701050653 METAR KSEA 050653Z 14009KT 10SM FEW070 01/M02 A3033 RMK AO2 SLP280 T00061022=
200701050553 METAR KSEA 050553Z 15005KT 10SM FEW070 00/M02 A3030 RMK AO2 SLP270 T00001017 10050 20000 53033=
200701050453 METAR KSEA 050453Z 21006KT 10SM FEW070 01/M01 A3026 RMK AO2 SLP258 T00111011=
200701050353 METAR KSEA 050353Z 24007KT 10SM FEW025 SCT060 02/M01 A3023 RMK AO2 SLP245 T00171011=
200701050253 METAR KSEA 050253Z 24006KT 10SM FEW025 SCT100 03/M01 A3020 RMK AO2 SLP235 T00281011 53033=
200701050153 METAR KSEA 050153Z 25006KT 10SM FEW024 SCT060 03/01 A3016 RMK AO2 SLP222 T00280006=
200701050053 METAR KSEA 050053Z 12005KT 10SM FEW018 SCT024 BKN060 03/00 A3013 RMK AO2 SLP213 T00330000=
200701042353 METAR KSEA 042353Z 03006KT 10SM FEW035 BKN048 BKN075 05/02 A3010 RMK AO2 SLP202 T00500017 10056 20033 53029=
200701042253 METAR KSEA 042253Z 00000KT 10SM FEW009 SCT025 BKN038 04/02 A3007 RMK AO2 SLP191 T00390017=
200701042240 SPECI KSEA 042240Z 24003KT 10SM FEW009 SCT026 BKN038 04/02 A3007 RMK AO2=
200701042240 SPECI KSEA 042240Z 24003KT 10SM FEW009 SCT026 BKN038 04/02 A3007 RMK AO2=
200701042215 SPECI KSEA 042215Z 20004KT 10SM FEW011 SCT016 BKN090 04/02 A3005 RMK AO2=
200701042215 SPECI KSEA 042215Z 20004KT 10SM FEW011 SCT016 BKN090 04/02 A3005 RMK AO2=
200701042153 METAR KSEA 042153Z 22009KT 10SM BKN010 BKN013 04/02 A3004 RMK AO2 SLP183 T00390017=
200701042053 METAR KSEA 042053Z 24007KT 10SM BKN012 OVC034 04/03 A3001 RMK AO2 SLP172 T00440028 51021=
200701041953 METAR KSEA 041953Z 22005KT 10SM FEW009 BKN012 OVC017 04/02 A3000 RMK AO2 SLP167 T00390017=
200701041853 METAR KSEA 041853Z 23005KT 10SM SCT009 BKN012 BKN100 04/02 A2998 RMK AO2 SLP161 T00390017=
200701041818 SPECI KSEA 041818Z 28006KT 10SM SCT009 BKN014 OVC017 03/02 A2997 RMK AO2=
200701041818 SPECI KSEA 041818Z 28006KT 10SM SCT009 BKN014 OVC017 03/02 A2997 RMK AO2=
200701041753 METAR KSEA 041753Z 24008KT 10SM BKN009 BKN014 OVC017 03/02 A2995 RMK AO2 SLP151 60006 T00330017 10039 20028 53026=
200701041733 SPECI KSEA 041733Z 20006KT 10SM BKN009 BKN014 OVC017 04/02 A2994 RMK AO2=
200701041733 SPECI KSEA 041733Z 20006KT 10SM BKN009 BKN014 OVC017 04/02 A2994 RMK AO2=
200701041653 METAR KSEA 041653Z 24006KT 10SM SCT007 BKN015 OVC022 03/02 A2992 RMK AO2 SLP142 T00330017=
200701041611 SPECI KSEA 041611Z 23006KT 10SM SCT009 BKN017 OVC095 03/02 A2990 RMK AO2=
200701041611 SPECI KSEA 041611Z 23006KT 10SM SCT009 BKN017 OVC095 03/02 A2990 RMK AO2=
200701041553 METAR KSEA 041553Z 25007KT 10SM BKN009 BKN015 OVC021 03/02 A2989 RMK AO2 SLP131 T00330022=
200701041532 SPECI KSEA 041532Z 24010KT 10SM FEW005 BKN009 OVC012 04/02 A2989 RMK AO2=
200701041532 SPECI KSEA 041532Z 24010KT 10SM FEW005 BKN009 OVC012 04/02 A2989 RMK AO2=
200701041511 SPECI KSEA 041511Z 22005KT 10SM SCT009 OVC013 03/02 A2988 RMK AO2=
200701041511 SPECI KSEA 041511Z 22005KT 10SM SCT009 OVC013 03/02 A2988 RMK AO2=
200701041453 METAR KSEA 041453Z 17006KT 10SM FEW005 BKN009 OVC013 03/02 A2987 RMK AO2 SLP125 60006 T00330022 53004=
200701041353 METAR KSEA 041353Z 19011KT 10SM BKN009 OVC015 03/02 A2986 RMK AO2 SLP120 T00330022=
200701041336 SPECI KSEA 041336Z 20010KT 10SM BKN009 BKN020 OVC075 03/02 A2986 RMK AO2=
200701041336 SPECI KSEA 041336Z 20010KT 10SM BKN009 BKN020 OVC075 03/02 A2986 RMK AO2=
200701041253 METAR KSEA 041253Z 21011KT 10SM SCT009 BKN030 BKN075 03/02 A2986 RMK AO2 RAE41 SLP119 P0006 T00280022=
200701041241 SPECI KSEA 041241Z 21012KT 10SM SCT008 SCT025 BKN037 BKN130 03/02 A2986 RMK AO2 RAE41 P0006=
200701041241 SPECI KSEA 041241Z 21012KT 10SM SCT008 SCT025 BKN037 BKN130 03/02 A2986 RMK AO2 RAE41 P0006=
200701041217 SPECI KSEA 041217Z 21014KT 8SM -RA SCT010 BKN022 OVC030 03/02 A2985 RMK AO2 P0003=
200701041217 SPECI KSEA 041217Z 21014KT 8SM -RA SCT010 BKN022 OVC030 03/02 A2985 RMK AO2 P0003=
200701041153 METAR KSEA 041153Z 24011KT 6SM -RA BR SCT014 SCT019 OVC030 04/03 A2986 RMK AO2 SLP120 P0009 60009 70020 T00390028 10056 20039 53001=
200701041053 METAR KSEA 041053Z 20010KT 10SM -RA SCT026 SCT032 OVC038 05/01 A2986 RMK AO2 RAB48 SLP119 P0000 T00500011=
200701040953 METAR KSEA 040953Z 19007KT 10SM SCT036 BKN095 BKN120 04/01 A2985 RMK AO2 SLP117 T00440011=
200701040853 METAR KSEA 040853Z 21013KT 10SM SCT080 04/02 A2986 RMK AO2 SLP119 T00440017 50007=
200701040753 METAR KSEA 040753Z 19008KT 10SM BKN085 05/02 A2986 RMK AO2 SLP120 T00500022 400890044=
200701040653 METAR KSEA 040653Z 21009KT 10SM FEW019 SCT026 04/02 A2986 RMK AO2 SLP118 T00440022=
200701040553 METAR KSEA 040553Z 20009KT 10SM BKN021 BKN027 06/03 A2984 RMK AO2 SLP112 T00560028 10078 20050 53024=
200701040453 METAR KSEA 040453Z 23015KT 10SM BKN019 BKN025 06/03 A2980 RMK AO2 SLP100 T00560028=
200701040432 SPECI KSEA 040432Z 21014KT 10SM SCT019 BKN024 06/03 A2980 RMK AO2=
200701040432 SPECI KSEA 040432Z 21014KT 10SM SCT019 BKN024 06/03 A2980 RMK AO2=
200701040353 METAR KSEA 040353Z 21016G22KT 10SM SCT017 06/03 A2979 RMK AO2 SLP094 T00560033=
200701040323 SPECI KSEA 040323Z 21018KT 10SM SCT017 06/03 A2977 RMK AO2=
200701040323 SPECI KSEA 040323Z 21018KT 10SM SCT017 06/03 A2977 RMK AO2=
200701040253 METAR KSEA 040253Z 21015KT 10SM SCT017 BKN022 06/03 A2976 RMK AO2 SLP087 T00610033 51017=
200701040239 SPECI KSEA 040239Z 19013KT 10SM BKN020 06/04 A2976 RMK AO2=
200701040239 SPECI KSEA 040239Z 19013KT 10SM BKN020 06/04 A2976 RMK AO2=
200701040153 METAR KSEA 040153Z 21014G18KT 10SM SCT020 BKN080 07/04 A2976 RMK AO2 SLP085 T00670044=
200701040130 SPECI KSEA 040130Z 20014G20KT 10SM SCT020 BKN080 07/04 A2975 RMK AO2=
200701040130 SPECI KSEA 040130Z 20014G20KT 10SM SCT020 BKN080 07/04 A2975 RMK AO2=
200701040053 METAR KSEA 040053Z 21011KT 10SM BKN020 BKN070 07/04 A2974 RMK AO2 SLP078 T00720044=
200701040023 SPECI KSEA 040023Z 21011KT 10SM SCT016 BKN020 BKN070 07/04 A2973 RMK AO2=
200701040023 SPECI KSEA 040023Z 21011KT 10SM SCT016 BKN020 BKN070 07/04 A2973 RMK AO2=
200701032353 METAR KSEA 032353Z 20012KT 10SM FEW016 SCT022 BKN075 07/04 A2971 RMK AO2 SLP069 T00720044 10089 20072 53014=
200701032253 METAR KSEA 032253Z 21013KT 10SM FEW014 SCT025 SCT075 07/04 A2970 RMK AO2 PK WND 23026/2213 SLP066 T00720044=
200701032153 METAR KSEA 032153Z 23011KT 10SM FEW015 SCT025 SCT080 BKN130 08/04 A2967 RMK AO2 SLP056 T00830044=
200701032135 SPECI KSEA 032135Z 23008KT 10SM FEW012 SCT020 BKN070 08/05 A2967 RMK AO2 SH DSNT S=
200701032135 SPECI KSEA 032135Z 23008KT 10SM FEW012 SCT020 BKN070 08/05 A2967 RMK AO2 SH DSNT S=
200701032053 METAR KSEA 032053Z 23012KT 10SM FEW014 BKN018 OVC024 08/06 A2967 RMK AO2 SLP054 SH DSNT SW BINOVC OHD-S T00830056 50004=
200701032022 SPECI KSEA 032022Z 23009KT 10SM SCT012 BKN016 OVC020 08/06 A2967 RMK AO2 BINOVC S=
200701032022 SPECI KSEA 032022Z 23009KT 10SM SCT012 BKN016 OVC020 08/06 A2967 RMK AO2 BINOVC S=
200701031953 METAR KSEA 031953Z 24010G17KT 10SM SCT010 BKN014 OVC018 08/05 A2968 RMK AO2 SLP057 BINOVC S-SW T00780050=
200701031853 METAR KSEA 031853Z 23011KT 10SM FEW009 BKN012 BKN016 08/06 A2968 RMK AO2 SLP057 T00780056=
200701031753 METAR KSEA 031753Z 24013KT 10SM SCT007 BKN010 OVC015 07/06 A2966 RMK AO2 RAB28E39 SLP051 BINOVC OHD-SW P0000 60011 T00720056 10072 20061 53023=
200701031708 SPECI KSEA 031708Z 22011KT 10SM SCT009 BKN012 OVC018 07/06 A2962 RMK AO2=
200701031708 SPECI KSEA 031708Z 22011KT 10SM SCT009 BKN012 OVC018 07/06 A2962 RMK AO2=
200701031653 METAR KSEA 031653Z 22011KT 9SM FEW009 BKN015 OVC020 07/06 A2962 RMK AO2 RAB05E14 SLP036 P0000 T00720061=
200701031616 SPECI KSEA 031616Z 20010KT 10SM SCT009 BKN016 OVC027 07/06 A2959 RMK AO2 RAB05E14 P0000=
200701031616 SPECI KSEA 031616Z 20010KT 10SM SCT009 BKN016 OVC027 07/06 A2959 RMK AO2 RAB05E14 P0000=
200701031553 METAR KSEA 031553Z 19010KT 10SM FEW009 BKN014 OVC022 07/06 A2959 RMK AO2 RAE47 SLP026 P0002 T00720056=
200701031544 SPECI KSEA 031544Z 18013KT 10SM -RA FEW009 BKN014 OVC022 07/06 A2959 RMK AO2 P0002=
200701031544 SPECI KSEA 031544Z 18013KT 10SM -RA FEW009 BKN014 OVC022 07/06 A2959 RMK AO2 P0002=
200701031453 METAR KSEA 031453Z 16009KT 10SM -RA SCT020 BKN025 OVC035 06/06 A2959 RMK AO2 SLP028 P0002 60009 T00610056 56023=
200701031353 METAR KSEA 031353Z 16009KT 6SM -RA BR FEW008 BKN020 OVC025 07/06 A2961 RMK AO2 SLP032 P0002 T00670056=
200701031300 SPECI KSEA 031300Z 16009KT 8SM -RA FEW008 BKN025 OVC034 07/06 A2962 RMK AO2 P0000=
200701031300 SPECI KSEA 031300Z 16009KT 8SM -RA FEW008 BKN025 OVC034 07/06 A2962 RMK AO2 P0000=
200701031253 METAR KSEA 031253Z 17010KT 7SM -RA FEW005 SCT021 OVC036 07/06 A2963 RMK AO2 SLP039 P0005 T00670061=
200701031235 SPECI KSEA 031235Z 17011KT 8SM RA FEW003 SCT021 OVC034 07/06 A2964 RMK AO2 P0003=
200701031235 SPECI KSEA 031235Z 17011KT 8SM RA FEW003 SCT021 OVC034 07/06 A2964 RMK AO2 P0003=
200701031153 METAR KSEA 031153Z 16005KT 9SM -RA FEW005 BKN021 OVC030 07/06 A2966 RMK AO2 SLP050 P0006 60090 70197 T00670061 10089 20067 58020=
200701031128 SPECI KSEA 031128Z 16007KT 9SM -RA BR SCT005 BKN015 OVC035 07/06 A2967 RMK AO2 P0004=
200701031128 SPECI KSEA 031128Z 16007KT 9SM -RA BR SCT005 BKN015 OVC035 07/06 A2967 RMK AO2 P0004=
200701031053 METAR KSEA 031053Z 17008KT 5SM -RA BR FEW009 BKN012 OVC030 07/06 A2969 RMK AO2 SLP061 P0023 T00720061=
200701031000 SPECI KSEA 031000Z 24006KT 3SM -RA BR SCT012 BKN020 OVC027 07/07 A2970 RMK AO2 P0006=
200701031000 SPECI KSEA 031000Z 24006KT 3SM -RA BR SCT012 BKN020 OVC027 07/07 A2970 RMK AO2 P0006=
200701030953 METAR KSEA 030953Z 23008KT 3SM -RA BR SCT010 SCT015 OVC033 07/07 A2970 RMK AO2 SLP064 P0060 T00720067=
200701030853 METAR KSEA 030853Z 18006KT 8SM RA SCT020 BKN050 OVC075 08/07 A2972 RMK AO2 SLP070 P0001 60001 T00830072 58016=
200701030753 METAR KSEA 030753Z 19009KT 10SM -RA SCT027 BKN036 OVC095 09/07 A2975 RMK AO2 RAB52 SLP081 P0000 T00890072 401330072=
200701030653 METAR KSEA 030653Z 17010KT 10SM FEW020 SCT080 OVC100 08/07 A2975 RMK AO2 SLP081 T00830067=
200701030634 SPECI KSEA 030634Z 19010KT 10SM BKN020 BKN080 OVC095 09/07 A2976 RMK AO2=
200701030634 SPECI KSEA 030634Z 19010KT 10SM BKN020 BKN080 OVC095 09/07 A2976 RMK AO2=
200701030553 METAR KSEA 030553Z 20011KT 10SM SCT016 OVC090 08/07 A2976 RMK AO2 SLP085 60000 T00830067 10100 20083 56001=
200701030514 SPECI KSEA 030514Z 20016KT 10SM FEW012 SCT018 OVC090 09/07 A2977 RMK AO2=
200701030514 SPECI KSEA 030514Z 20016KT 10SM FEW012 SCT018 OVC090 09/07 A2977 RMK AO2=
200701030453 METAR KSEA 030453Z 20016KT 10SM FEW015 BKN019 OVC120 09/07 A2977 RMK AO2 SLP088 T00890072=
200701030353 METAR KSEA 030353Z 19015KT 10SM FEW018 SCT120 BKN200 09/07 A2974 RMK AO2 SLP078 T00890067=
200701030253 METAR KSEA 030253Z 21014G23KT 10SM FEW017 OVC110 09/07 A2977 RMK AO2 SLP087 60000 T00890072 50013=
200701030244 SPECI KSEA 030244Z 22018G23KT 10SM SCT017 OVC120 09/07 A2977 RMK AO2=
200701030244 SPECI KSEA 030244Z 22018G23KT 10SM SCT017 OVC120 09/07 A2977 RMK AO2=
200701030215 SPECI KSEA 030215Z 21015G22KT 10SM BKN017 BKN120 OVC200 09/08 A2977 RMK AO2=
200701030215 SPECI KSEA 030215Z 21015G22KT 10SM BKN017 BKN120 OVC200 09/08 A2977 RMK AO2=
200701030153 METAR KSEA 030153Z 22016G22KT 10SM FEW015 BKN110 OVC200 09/08 A2977 RMK AO2 SLP088 T00940078=
200701030053 METAR KSEA 030053Z 23015G21KT 10SM FEW015 SCT070 BKN110 BKN200 10/08 A2975 RMK AO2 PK WND 23027/0016 RAE04 SLP082 P0000 T01000078=
200701022353 METAR KSEA 022353Z 20016G22KT 10SM -RA FEW009 SCT013 BKN060 BKN200 10/09 A2973 RMK AO2 SLP075 P0006 60090 T01000089 10133 20100 50002=
200701022253 METAR KSEA 022253Z 23018G25KT 10SM -RA FEW009 BKN047 OVC055 10/09 A2975 RMK AO2 PK WND 22029/2212 SLP080 P0006 T01000089=
200701022246 SPECI KSEA 022246Z 23019KT 10SM -RA FEW009 BKN047 OVC055 10/09 A2975 RMK AO2 PK WND 22029/2212 P0006=
200701022246 SPECI KSEA 022246Z 23019KT 10SM -RA FEW009 BKN047 OVC055 10/09 A2975 RMK AO2 PK WND 22029/2212 P0006=
200701022223 SPECI KSEA 022223Z 24019G26KT 8SM -RA SCT016 BKN041 OVC055 10/09 A2974 RMK AO2 PK WND 22029/2212 P0004=
200701022223 SPECI KSEA 022223Z 24019G26KT 8SM -RA SCT016 BKN041 OVC055 10/09 A2974 RMK AO2 PK WND 22029/2212 P0004=
200701022207 SPECI KSEA 022207Z 23016G24KT 6SM RA BR SCT012 BKN019 OVC034 10/09 A2973 RMK AO2 P0002=
200701022207 SPECI KSEA 022207Z 23016G24KT 6SM RA BR SCT012 BKN019 OVC034 10/09 A2973 RMK AO2 P0002=
200701022153 METAR KSEA 022153Z 22017G23KT 7SM -RA SCT006 BKN012 OVC031 11/09 A2973 RMK AO2 PK WND 21029/2130 SLP075 P0029 T01060094=
200701022146 SPECI KSEA 022146Z 22016G22KT 5SM -RA BR SCT006 BKN012 OVC031 11/09 A2974 RMK AO2 PK WND 21029/2130 P0027=
200701022146 SPECI KSEA 022146Z 22016G22KT 5SM -RA BR SCT006 BKN012 OVC031 11/09 A2974 RMK AO2 PK WND 21029/2130 P0027=
200701022139 SPECI KSEA 022139Z 23019G29KT 3SM RA BR BKN008 BKN014 OVC031 11/10 A2974 RMK AO2 PK WND 21029/2130 P0026=
200701022139 SPECI KSEA 022139Z 23019G29KT 3SM RA BR BKN008 BKN014 OVC031 11/10 A2974 RMK AO2 PK WND 21029/2130 P0026=
200701022136 SPECI KSEA 022136Z 24017G29KT 2 1/2SM RA BR FEW006 BKN012 OVC031 11/10 A2975 RMK AO2 PK WND 21029/2130 P0025=
200701022136 SPECI KSEA 022136Z 24017G29KT 2 1/2SM RA BR FEW006 BKN012 OVC031 11/10 A2975 RMK AO2 PK WND 21029/2130 P0025=
200701022125 SPECI KSEA 022125Z 25014G18KT 1 3/4SM R16C/5000VP6000FT +RA BR SCT009 BKN021 OVC027 11/10 A2974 RMK AO2 PK WND 20028/2106 P0023=
200701022125 SPECI KSEA 022125Z 25014G18KT 1 3/4SM R16C/5000VP6000FT +RA BR SCT009 BKN021 OVC027 11/10 A2974 RMK AO2 PK WND 20028/2106 P0023=
200701022056 SPECI KSEA 022056Z 20021G27KT 2SM +RA BR SCT007 BKN020 OVC037 11/10 A2973 RMK AO2 PK WND 20027/2054 P0001=
200701022056 SPECI KSEA 022056Z 20021G27KT 2SM +RA BR SCT007 BKN020 OVC037 11/10 A2973 RMK AO2 PK WND 20027/2054 P0001=
200701022053 METAR KSEA 022053Z 20018G27KT 3SM RA BR SCT007 BKN020 OVC035 11/10 A2973 RMK AO2 PK WND 19030/2040 SLP073 P0020 60049 T01060100 58004=
200701022033 SPECI KSEA 022033Z 19019G26KT 3SM RA BR FEW007 BKN011 OVC023 11/10 A2972 RMK AO2 PK WND 19029/2017 P0012=
200701022033 SPECI KSEA 022033Z 19019G26KT 3SM RA BR FEW007 BKN011 OVC023 11/10 A2972 RMK AO2 PK WND 19029/2017 P0012=
200701022022 SPECI KSEA 022022Z 20020G29KT 3SM RA BR FEW009 BKN015 OVC023 11/10 A2972 RMK AO2 PK WND 19029/2017 P0011=
200701022022 SPECI KSEA 022022Z 20020G29KT 3SM RA BR FEW009 BKN015 OVC023 11/10 A2972 RMK AO2 PK WND 19029/2017 P0011=
200701022012 SPECI KSEA 022012Z 20021G27KT 3SM RA BR SCT011 BKN019 OVC029 11/10 A2973 RMK AO2 PK WND 20027/2005 P0008=
200701022012 SPECI KSEA 022012Z 20021G27KT 3SM RA BR SCT011 BKN019 OVC029 11/10 A2973 RMK AO2 PK WND 20027/2005 P0008=
200701021953 METAR KSEA 021953Z 20021G30KT 2 1/2SM -RA BR FEW015 BKN024 OVC048 11/10 A2975 RMK AO2 PK WND 20030/1947 SLP080 P0021 T01110100=
200701021922 SPECI KSEA 021922Z 22020G28KT 2SM +RA BR SCT018 OVC025 11/10 A2977 RMK AO2 PK WND 23029/1911 P0007=
200701021922 SPECI KSEA 021922Z 22020G28KT 2SM +RA BR SCT018 OVC025 11/10 A2977 RMK AO2 PK WND 23029/1911 P0007=
200701021912 SPECI KSEA 021912Z 22023G29KT 1 1/2SM R16C/5000VP6000FT +RA BR FEW013 BKN025 OVC029 11/10 A2977 RMK AO2 PK WND 23029/1911 P0004=
200701021912 SPECI KSEA 021912Z 22023G29KT 1 1/2SM R16C/5000VP6000FT +RA BR FEW013 BKN025 OVC029 11/10 A2977 RMK AO2 PK WND 23029/1911 P0004=
200701021906 SPECI KSEA 021906Z 22018G28KT 2SM R16C/5000VP6000FT RA BR FEW016 OVC027 12/09 A2977 RMK AO2 PK WND 22028/1902 P0002=
200701021906 SPECI KSEA 021906Z 22018G28KT 2SM R16C/5000VP6000FT RA BR FEW016 OVC027 12/09 A2977 RMK AO2 PK WND 22028/1902 P0002=
200701021853 METAR KSEA 021853Z 22019G26KT 6SM -RA BR SCT025 BKN031 OVC035 12/09 A2975 RMK AO2 PK WND 20037/1755 RAB01 SLP083 P0008 T01170094=
200701021816 SPECI KSEA 021816Z 21020G29KT 5SM R16C/5000VP6000FT -RA FEW025 SCT029 OVC034 12/08 A2974 RMK AO2 PK WND 20037/1755 RAB01 OCNL LGT DSNT W P0002=
200701021816 SPECI KSEA 021816Z 21020G29KT 5SM R16C/5000VP6000FT -RA FEW025 SCT029 OVC034 12/08 A2974 RMK AO2 PK WND 20037/1755 RAB01 OCNL LGT DSNT W P0002=
200701021811 SPECI KSEA 021811Z 21021G34KT 2 1/2SM R16C/5000VP6000FT RA FEW025 SCT029 OVC034 13/08 A2974 RMK AO2 PK WND 20037/1755 RAB01 OCNL LGT DSNT W P0002=
200701021811 SPECI KSEA 021811Z 21021G34KT 2 1/2SM R16C/5000VP6000FT RA FEW025 SCT029 OVC034 13/08 A2974 RMK AO2 PK WND 20037/1755 RAB01 OCNL LGT DSNT W P0002=
200701021753 METAR KSEA 021753Z 20024G36KT 10SM SCT025 BKN029 OVC040 13/08 A2974 RMK AO2 PK WND 17040/1730 SLP076 60017 T01330078 10133 20083 58040=
200701021653 METAR KSEA 021653Z 19020G29KT 10SM FEW015 BKN025 OVC035 12/08 A2979 RMK AO2 PK WND 20033/1631 RAB07E15 SLP096 P0000 T01220078=
200701021553 METAR KSEA 021553Z 19020G28KT 10SM OVC025 12/08 A2983 RMK AO2 PK WND 19035/1520 SLP110 T01220078=
200701021453 METAR KSEA 021453Z 20013KT 10SM BKN025 OVC035 12/08 A2986 RMK AO2 RAE1359 SLP118 P0001 60017 T01170083 56019=
200701021353 METAR KSEA 021353Z 19009KT 7SM -RA FEW015 BKN025 OVC033 10/08 A2986 RMK AO2 SLP118 P0000 T01000083=
200701021253 METAR KSEA 021253Z 14006KT 3SM -RA BR FEW007 SCT019 OVC025 08/08 A2986 RMK AO2 SLP121 P0016 T00830078=
200701021153 METAR KSEA 021153Z 17004KT 3SM -RA BR FEW010 BKN022 OVC028 08/08 A2991 RMK AO2 SLP138 P0018 60083 70111 T00830078 10089 20072 58020=
200701021053 METAR KSEA 021053Z 14008KT 3SM -RA BR FEW006 BKN025 OVC030 08/08 A2993 RMK AO2 SLP144 P0019 T00830078=
200701021031 SPECI KSEA 021031Z 18007KT 3SM -RA BR FEW012 BKN025 OVC030 08/07 A2996 RMK AO2 P0013=
200701021031 SPECI KSEA 021031Z 18007KT 3SM -RA BR FEW012 BKN025 OVC030 08/07 A2996 RMK AO2 P0013=
200701020953 METAR KSEA 020953Z 20005KT 4SM -RA BR FEW010 SCT025 OVC031 08/07 A2998 RMK AO2 SLP159 P0017 T00780072 $=
200701020853 METAR KSEA 020853Z 21003KT 4SM -RA BR FEW018 OVC033 08/07 A2997 RMK AO2 SLP158 P0016 60029 T00780072 56015=
200701020753 METAR KSEA 020753Z 23004KT 6SM RA BR OVC042 08/07 A2999 RMK AO2 SLP164 P0010 T00780072 400890011=
200701020653 METAR KSEA 020653Z 17010KT 7SM -RA FEW034 BKN046 OVC080 08/08 A3000 RMK AO2 RAB01 PRESFR SLP167 P0003 T00830078=
200701020553 METAR KSEA 020553Z 18009KT 10SM SCT034 BKN090 OVC150 08/07 A3002 RMK AO2 SLP173 60019 T00830067 10089 20050 56023=
200701020505 SPECI KSEA 020505Z 21006KT 10SM BKN030 OVC050 08/07 A3005 RMK AO2=
200701020505 SPECI KSEA 020505Z 21006KT 10SM BKN030 OVC050 08/07 A3005 RMK AO2=
200701020453 METAR KSEA 020453Z 19007KT 10SM BKN029 OVC050 09/07 A3004 RMK AO2 SLP181 T00890067=
200701020353 METAR KSEA 020353Z 18009KT 7SM BKN028 OVC050 08/07 A3004 RMK AO2 RAE38 SLP179 P0003 T00830072=
200701020253 METAR KSEA 020253Z 19009KT 3SM RA BR FEW004 OVC023 08/07 A3009 RMK AO2 SLP196 VIS W 2 P0008 60016 T00780067 58019=
200701020201 SPECI KSEA 020201Z 16006KT 4SM -RA BR FEW004 BKN023 OVC050 06/06 A3012 RMK AO2 VIS W 2 P0001=
200701020201 SPECI KSEA 020201Z 16006KT 4SM -RA BR FEW004 BKN023 OVC050 06/06 A3012 RMK AO2 VIS W 2 P0001=
200701020153 METAR KSEA 020153Z 17006KT 2SM -RA BR SCT004 BKN023 OVC050 06/06 A3013 RMK AO2 SFC VIS 2 1/2 SLP214 P0005 T00610056=
200701020130 SPECI KSEA 020130Z 19007KT 2SM -RA BR SCT004 BKN015 OVC040 06/06 A3014 RMK AO2 P0004=
200701020130 SPECI KSEA 020130Z 19007KT 2SM -RA BR SCT004 BKN015 OVC040 06/06 A3014 RMK AO2 P0004=
200701020103 SPECI KSEA 020103Z 19007KT 2SM -RA BR BKN004 OVC010 06/05 A3015 RMK AO2 P0001=
200701020103 SPECI KSEA 020103Z 19007KT 2SM -RA BR BKN004 OVC010 06/05 A3015 RMK AO2 P0001=
200701020056 SPECI KSEA 020056Z 22006KT 1SM -RA BR BKN004 OVC008 06/05 A3016 RMK AO2 SFC VIS 2 P0000=
200701020056 SPECI KSEA 020056Z 22006KT 1SM -RA BR BKN004 OVC008 06/05 A3016 RMK AO2 SFC VIS 2 P0000=
200701020053 METAR KSEA 020053Z 23007KT 1 1/2SM -RA BR SCT004 BKN008 OVC014 06/05 A3016 RMK AO2 SFC VIS 2 1/2 SLP222 P0003 T00560050=
200701020044 SPECI KSEA 020044Z 22003KT 1 1/2SM -RA BR SCT006 BKN010 OVC016 06/06 A3015 RMK AO2 SFC VIS 2 1/2 P0003=
200701020044 SPECI KSEA 020044Z 22003KT 1 1/2SM -RA BR SCT006 BKN010 OVC016 06/06 A3015 RMK AO2 SFC VIS 2 1/2 P0003=
200701012353 METAR KSEA 012353Z 15006KT 1 1/2SM -RA BR BKN011 OVC016 05/04 A3014 RMK AO2 SFC VIS 1 3/4 SLP217 P0003 60009 T00500044 10061 20044 58016=
200701012330 SPECI KSEA 012330Z 17006KT 1 1/2SM -RA BR BKN011 OVC014 05/05 A3015 RMK AO2 SFC VIS 2 P0002=
200701012330 SPECI KSEA 012330Z 17006KT 1 1/2SM -RA BR BKN011 OVC014 05/05 A3015 RMK AO2 SFC VIS 2 P0002=
200701012258 SPECI KSEA 012258Z 14006KT 2SM -RA BR BKN013 OVC020 06/05 A3017 RMK AO2 P0000=
200701012258 SPECI KSEA 012258Z 14006KT 2SM -RA BR BKN013 OVC020 06/05 A3017 RMK AO2 P0000=
200701012253 METAR KSEA 012253Z 12007KT 1 3/4SM R16C/5500VP6000FT -RA BR BKN013 OVC020 06/05 A3017 RMK AO2 TWR VIS 2 SLP227 P0004 T00610050=
200701012245 SPECI KSEA 012245Z 13009KT 1 3/4SM R16C/5500VP6000FT -RA BR BKN013 OVC018 06/04 A3017 RMK AO2 TWR VIS 2 P0003=
200701012245 SPECI KSEA 012245Z 13009KT 1 3/4SM R16C/5500VP6000FT -RA BR BKN013 OVC018 06/04 A3017 RMK AO2 TWR VIS 2 P0003=
200701012237 SPECI KSEA 012237Z 15007KT 2SM -RA BR BKN013 BKN018 OVC027 06/04 A3017 RMK AO2 SFC VIS 2 1/2 P0002=
200701012237 SPECI KSEA 012237Z 15007KT 2SM -RA BR BKN013 BKN018 OVC027 06/04 A3017 RMK AO2 SFC VIS 2 1/2 P0002=
200701012233 SPECI KSEA 012233Z 10003KT 3SM -RA BR BKN013 OVC020 06/04 A3018 RMK AO2 P0001=
200701012233 SPECI KSEA 012233Z 10003KT 3SM -RA BR BKN013 OVC020 06/04 A3018 RMK AO2 P0001=
200701012153 METAR KSEA 012153Z 12005KT 5SM -RA BR SCT016 OVC028 06/03 A3018 RMK AO2 SLP231 P0001 T00560033=
200701012143 SPECI KSEA 012143Z 13004KT 6SM -RA FEW016 OVC028 06/03 A3018 RMK AO2 P0000=
200701012143 SPECI KSEA 012143Z 13004KT 6SM -RA FEW016 OVC028 06/03 A3018 RMK AO2 P0000=
200701012053 METAR KSEA 012053Z 00000KT 10SM -RA OVC032 06/02 A3019 RMK AO2 SLP233 P0001 60001 T00560017 55012=
200701011953 METAR KSEA 011953Z 00000KT 9SM -RA OVC036 04/02 A3017 RMK AO2 RAB30 SLP225 P0000 T00440017=
200701011853 METAR KSEA 011853Z 16006KT 10SM OVC040 04/01 A3020 RMK AO2 RAE04 SLP237 P0000 T00440011=
200701011753 METAR KSEA 011753Z 24007KT 10SM -RA OVC046 04/01 A3023 RMK AO2 RAB49 SLP245 P0000 60000 T00440006 10044 20022 56015=
200701011653 METAR KSEA 011653Z 13010KT 10SM OVC048 03/M01 A3023 RMK AO2 SLP245 T00331006=
200701011553 METAR KSEA 011553Z 22009KT 10SM OVC060 04/00 A3027 RMK AO2 SLP258 T00390000=
200701011453 METAR KSEA 011453Z 18005KT 10SM BKN060 OVC080 03/M01 A3027 RMK AO2 SLP259 T00281006 58014=
200701011353 METAR KSEA 011353Z 13008KT 9SM FEW065 BKN080 OVC110 02/M01 A3028 RMK AO2 SLP264 T00221006=
200701011253 METAR KSEA 011253Z 16007KT 10SM OVC075 02/M01 A3031 RMK AO2 SLP272 T00221006=
200701011153 METAR KSEA 011153Z 16005KT 8SM OVC085 03/01 A3031 RMK AO2 SLP274 T00280006 10033 20011 55000=
200701011053 METAR KSEA 011053Z 23004KT 10SM FEW049 03/00 A3031 RMK AO2 SLP273 T00280000=
200701010953 METAR KSEA 010953Z 20004KT 10SM FEW050 BKN200 02/M02 A3030 RMK AO2 SLP271 T00221022=
200701010853 METAR KSEA 010853Z 14009KT 10SM FEW080 BKN200 03/M02 A3031 RMK AO2 SLP274 T00281022 58004=
200701010753 METAR KSEA 010753Z 16005KT 10SM CLR 01/M02 A3032 RMK AO2 SLP276 T00111022 400780011=
200701010653 METAR KSEA 010653Z 13006KT 10SM CLR 02/M02 A3032 RMK AO2 SLP278 T00221022=
200701010553 METAR KSEA 010553Z 15005KT 10SM CLR 01/M02 A3032 RMK AO2 SLP279 T00111022 10061 20011 53006=
200701010453 METAR KSEA 010453Z 13003KT 10SM FEW080 02/M02 A3030 RMK AO2 SLP270 T00221017=
200701010353 METAR KSEA 010353Z 13007KT 10SM FEW030 SCT080 03/M01 A3030 RMK AO2 SLP271 T00331006=
200701010253 METAR KSEA 010253Z 17003KT 10SM FEW030 SCT080 SCT250 04/00 A3031 RMK AO2 SLP273 T00440000 51002=
200701010153 METAR KSEA 010153Z 19003KT 10SM FEW030 SCT080 SCT250 04/01 A3031 RMK AO2 SLP272 T00440011=
200701010053 METAR KSEA 010053Z 00000KT 10SM SCT080 BKN095 BKN140 BKN250 04/00 A3032 RMK AO2 SLP275 CAP CLD OVR MT RAINIER T00440000=

# No short TAF reports from KSEA in databse.

###################################
#  large TAF from KSEA
###################################
200701312330 TAF KSEA 312330Z 010024 32006KT P6SM SKC FM0500 02006KT P6SM SKC
                       FM1400 04004KT P6SM SKC
                      TEMPO 1416 1/2SM FG BKN001 FM1600 02007KT
                       P6SM SKC=
200701311732 TAF KSEA 311732Z 311818 02004KT 4SM BR HZ SCT001 FM1900 33005KT
                       P6SM SKC FM0600 02009KT P6SM VCFG SKC=
200701311140 TAF KSEA 311140Z 311212 02004KT 6SM BR SKC FM1400 02004KT 2SM BR
                       SCT001
                      TEMPO 1418 1/4SM FG VV001 FM1800 02004KT
                       4SM BR HZ SCT003 FM2000 33005KT P6SM SKC
                       FM0600 02009KT P6SM VCFG SKC=
200701310527 TAF KSEA 310527Z 310606 04008KT P6SM SKC FM0900 04008KT P6SM VCFG
                       SKC FM1200 04006KT 6SM BR SKC FM1400 04006KT
                       2SM BR FEW001 FM1800 02004KT 6SM HZ SKC
                       FM2000 34006KT P6SM SKC=
200701310409 TAF AMD KSEA 310409Z 310424 03010KT P6SM SKC FM0800 04008KT P6SM
                       SKC
                      TEMPO 1317 3SM BR SCT002=
200701302320 TAF KSEA 302320Z 310024 36012KT P6SM SKC FM0800 04008KT P6SM SKC
                       TEMPO 1317 3SM BR SCT002=
200701302300 KSEA 310409Z 310424 03010KT P6SM SKC FM0800 04008KT P6SM SKC
                      TEMPO 1317 3SM BR SCT002=
200701301732 TAF KSEA 301732Z 301818 02011KT P6SM FEW002 FM1900 36012KT P6SM
                       SKC FM0600 03006KT P6SM SKC FM1200 04006KT
                       P6SM VCFG SCT002=
200701301542 TAF AMD KSEA 301542Z 301612 03012KT P6SM SCT002 SCT250
                      TEMPO 1617 1SM BR BKN001 FM1700 01012KT P6SM
                       SKC FM0000 36010KT P6SM SKC FM0600 03006KT
                       P6SM SKC=
200701301140 TAF KSEA 301140Z 301212 03013KT P6SM VCFG SKC FM1400 03013KT P6SM
                       SKC
                      TEMPO 1720 03012G22KT FM0000 36010KT P6SM
                       SKC FM0600 03006KT P6SM SKC=
200701301058 KSEA 301058Z 301106 03013KT 6SM BR HZ BKN200 FM1200 03013KT P6SM
                       VCFG SKC FM1700 03013KT P6SM SKC
                      TEMPO 1720 03012G22KT FM0000 36010KT P6SM
                       SKC=
200701300713 KSEA 300713Z 300706 01010KT 6SM BR HZ BKN200 FM1200 03012KT P6SM
                       VCFG SKC FM1700 03012KT P6SM SKC
                      TEMPO 1720 03012G22KT FM0000 36010KT P6SM
                       SKC=
200701300539 TAF KSEA 300539Z 300606 03009KT 5SM BR HZ BKN200
                      TEMPO 0610 2SM BR FM1200 03012KT 6SM HZ SCT200
                       FM1400 03012KT P6SM VCFG SKC FM1700 03012KT
                       P6SM SKC
                      TEMPO 1720 03012G22KT FM0000 36010KT P6SM
                       SKC=
200701292320 TAF KSEA 292320Z 300024 VRB03KT 5SM HZ BKN120 FM0500 04004KT 3SM
                       BR SCT120
                      TEMPO 0609 1SM BR FM0900 04006KT 1/2SM FG
                       VV002
                      TEMPO 1619 2SM BR SCT002 FM1900 04010KT P6SM
                       SKC=
200701292024 KSEA 292024Z 292018 VRB04KT 5SM HZ SCT006 BKN150
                      TEMPO 2022 3SM BR BKN006 FM2200 VRB04KT P6SM
                       BKN150 FM0600 02008KT P6SM SCT150=
200701291720 TAF KSEA 291720Z 291818 VRB03KT 5SM HZ SCT002 BKN150
                      TEMPO 1820 2SM BR BKN002 FM2200 36005KT P6SM
                       BKN150 FM0600 02008KT P6SM SCT150=
200701291308 KSEA 291308Z 291312 05005KT 2SM BR BKN005
                      TEMPO 1317 1/4SM FZFG VV001 FM1800 36005KT
                       2SM BR BKN003 BKN130 OVC200 FM1900 32005KT
                       6SM BR HZ SCT130 OVC200 FM2000 32005KT P6SM
                       SCT130 OVC200 FM0300 03009KT P6SM SCT130
                       SCT200=
200701291206 KSEA 291206Z 291212 03005KT 1SM BR BKN200
                      TEMPO 1214 1/4SM FZFG VV001 FM1400 03005KT
                       1/4SM FZFG VV001 FM1800 36005KT 2SM BR BKN003
                       BKN130 OVC200 FM1900 32005KT 6SM BR HZ SCT130
                       OVC200 FM2000 32005KT P6SM SCT130 OVC200
                       FM0300 03009KT P6SM SCT130 SCT200=
200701291131 TAF KSEA 291131Z 291212 03005KT 6SM BR BKN200
                      TEMPO 1214 2SM BR FM1400 03005KT 2SM BR BKN003
                       OVC200
                      TEMPO 1418 1/4SM FZFG VV001 FM1800 36005KT
                       5SM BR HZ FEW005 SCT130 OVC200 FM1900 32005KT
                       P6SM SCT130 OVC200 FM0300 03009KT P6SM SCT130
                       SCT200=
200701290527 TAF KSEA 290527Z 290606 03010KT P6SM SCT200 FM1200 04008KT P6SM
                       BKN200 FM1800 36006KT P6SM SCT130 OVC200
                       FM0300 03008KT P6SM SCT130 SCT200=
200701282333 TAF KSEA 282333Z 290024 02004KT P6SM SCT250=
200701281733 TAF KSEA 281733Z 281818 04006KT P6SM SKC=
200701281302 KSEA 281302Z 281312 03005KT P6SM VCFG SKC
                      TEMPO 1316 2SM BR VV001 FM1800 36006KT P6SM
                       SKC FM0600 VRB03KT P6SM VCFG SKC=
200701281123 TAF KSEA 281123Z 281212 03005KT P6SM VCFG SKC
                      TEMPO 1216 3/4SM BR VV001 FM1800 36006KT
                       P6SM SKC FM0600 VRB03KT P6SM VCFG SKC=
200701280523 TAF KSEA 280523Z 280606 01005KT P6SM SKC FM0900 04005KT P6SM VCFG
                       SKC
                      TEMPO 1216 3/4SM BR VV001 FM1800 36006KT
                       P6SM SKC=
200701272326 TAF KSEA 272326Z 280024 01005KT P6SM SCT250 FM0900 05004KT P6SM
                       VCFG SKC
                      TEMPO 1216 3/4SM BR SCT001 BKN003 FM1800
                       02005KT P6SM SKC=
200701271721 TAF KSEA 271721Z 271818 06006KT P6SM SKC=
200701271601 KSEA 271601Z 271612 07007KT P6SM SKC
                      TEMPO 1618 2SM BR=
200701271426 TAF AMD KSEA 271426Z 271412 03012KT 1/4SM FG VV001 FM1600 05012KT
                       1 1/2SM BR BKN003 FM1700 07012KT 3SM BR
                       SCT004 FM1800 07012KT P6SM SKC FM2000 03010KT
                       P6SM SKC FM0300 06010KT P6SM SKC=
200701271128 TAF KSEA 271128Z 271212 03012KT 1/4SM FG VV001 FM1400 05012KT 1
                       1/2SM BR BKN004
                      TEMPO 1416 1/2SM FG VV001 FM1700 07012KT
                       P6SM VCFG SKC FM1800 07012KT P6SM SKC FM2000
                       03010KT P6SM SKC FM0300 06010KT P6SM SKC=
200701270859 KSEA 270859Z 270906 03009KT 1/4SM FZFG VV001 FM1200 06009KT 1 1/2SM
                       BR SCT001
                      TEMPO 1214 1/2SM FG VV001 FM1700 07009KT
                       P6SM VCFG SKC FM1800 03010KT P6SM SKC FM0000
                       06007KT P6SM SKC=
200701270705 TAF AMD KSEA 270705Z 270706 04011KT 1 1/2SM BR SKC
                      TEMPO 0711 1/4SM FG VV001 FM1200 07009KT
                       3SM BR SKC
                      TEMPO 1216 3/4SM BR FM1700 07009KT P6SM VCFG
                       SKC FM1800 03010KT P6SM SKC FM0000 06007KT
                       P6SM SKC=
200701270535 TAF KSEA 270535Z 270606 04008KT P6SM SKC FM1200 07008KT P6SM SKC
                       FM1800 03010KT P6SM SKC FM0000 06007KT P6SM
                       SKC=
200701262325 TAF KSEA 262325Z 270024 03012KT P6SM SKC FM0500 04007KT P6SM SKC
                       FM1800 03010KT P6SM SKC=
200701261735 TAF KSEA 261735Z 261818 02012G20KT 5SM BR BKN008 FM2000 02012G20KT
                       P6SM SCT010 FM2200 02012G20KT P6SM SKC FM0500
                       04007KT P6SM SKC=
200701261137 TAF KSEA 261137Z 261212 03012KT 6SM BR OVC004
                      TEMPO 1216 4SM BR FM1800 02012KT P6SM BKN009
                       FM2000 01008KT P6SM SKC=
200701260540 TAF KSEA 260540Z 260606 01009KT 5SM BR SCT006 OVC016
                      TEMPO 0610 2SM BR OVC006 FM1000 03005KT 4SM
                       BR SCT002 BKN006
                      TEMPO 1216 1/2SM FG VV002 FM1800 02006KT
                       P6SM SCT006
                      TEMPO 1819 5SM BR FM2000 01006KT P6SM SKC=
200701260402 KSEA 260402Z 260424 36006KT 5SM BR OVC005
                      TEMPO 0406 2SM -SHRA BR FM0600 03005KT P6SM
                       SCT006 SCT045 FM1000 03005KT 4SM BR SCT002
                       BKN006
                      TEMPO 1216 1/2SM FG VV002 FM1800 03005KT
                       P6SM SCT006
                      TEMPO 1819 5SM BR FM2000 01006KT P6SM SKC=
200701260023 TAF AMD KSEA 260023Z 260024 00000KT P6SM BKN006 OVC018
                      TEMPO 0002 4SM -RA BR OVC018 FM0500 03005KT
                       P6SM SCT006 SCT045 FM1100 03005KT 4SM BR
                       SCT002 BKN006
                      TEMPO 1216 1/2SM FG VV002 FM1800 03005KT
                       P6SM SCT006
                      TEMPO 1819 5SM BR FM2000 01006KT P6SM SKC=
200701252332 KSEA 252332Z 260024 19004KT P6SM SCT018 BKN035
                      TEMPO 0002 4SM -RA BR OVC018 FM0500 03005KT
                       P6SM SCT006 SCT045 FM1100 03005KT 4SM BR
                       SCT002 BKN006
                      TEMPO 1216 1/2SM FG VV002 FM1800 03005KT
                       P6SM SCT006
                      TEMPO 1819 5SM BR FM2000 01006KT P6SM SKC=
200701252320 TAF KSEA 252320Z 260024 19004KT P6SM SCT025 BKN035
                      TEMPO 0002 4SM -RA BR OVC025 FM0500 03005KT
                       P6SM SCT006 SCT045 FM1100 03005KT 4SM BR
                       SCT002 BKN006
                      TEMPO 1216 1/2SM FG VV002 FM1800 03005KT
                       P6SM SCT006
                      TEMPO 1819 5SM BR FM2000 01006KT P6SM SKC=
200701252300 KSEA 260023Z 260024 00000KT P6SM BKN006 OVC018
                      TEMPO 0002 4SM -RA BR OVC018 FM0500 03005KT
                       P6SM SCT006 SCT045 FM1100 03005KT 4SM BR
                       SCT002 BKN006
                      TEMPO 1216 1/2SM FG VV002 FM1800 03005KT
                       P6SM SCT006
                      TEMPO 1819 5SM BR FM2000 01006KT P6SM SKC=
200701252203 KSEA 252203Z 252218 19004KT P6SM SCT025 OVC035
                      TEMPO 2224 4SM -RA BR OVC025 FM0400 03005KT
                       P6SM SCT250
                      TEMPO 1216 4SM BR=
200701252011 KSEA 252011Z 252018 19004KT P6SM SCT030 OVC045
                      TEMPO 2024 5SM -RA BR OVC030 FM0400 03005KT
                       P6SM SCT250
                      TEMPO 1216 4SM BR=
200701251721 TAF KSEA 251721Z 251818 14008KT P6SM SCT002 SCT025
                      TEMPO 1819 SCT025 BKN050 FM1900 19004KT P6SM
                       SCT025 OVC040 FM0400 03005KT P6SM SCT250
                       TEMPO 1216 4SM BR=
200701251706 KSEA 251706Z 251712 14008KT P6SM SCT002 SCT012
                      TEMPO 1819 BKN050 FM1900 19004KT P6SM SCT025
                       OVC040 FM0400 03005KT P6SM SCT250=
200701251300 KSEA 251300Z 251312 14008KT 4SM BR SCT012
                      TEMPO 1316 1/4SM FG BKN002 FM1800 19004KT
                       P6SM OVC050 FM0400 03005KT P6SM SCT250=
200701251141 TAF KSEA 251141Z 251212 15004KT P6SM SCT012
                      TEMPO 1216 3SM BR BKN012 FM1800 19004KT P6SM
                       OVC050 FM0400 03005KT P6SM SCT250=
200701250534 TAF KSEA 250534Z 250606 23008KT P6SM SKC
                      TEMPO 1215 2SM BR FM1800 00000KT P6SM OVC050
                       FM0200 00000KT P6SM BKN250=
200701242331 TAF KSEA 242331Z 250024 18005KT P6SM SCT120 BKN200 FM0300 18004KT
                       P6SM SCT200
                      TEMPO 1215 2SM BR FM1600 18005KT P6SM BKN100
                       BKN200=
200701241742 TAF KSEA 241742Z 241818 VRB04KT P6SM SCT120 BKN200 FM2000 14005KT
                       P6SM SCT120 BKN200 FM2100 18007KT P6SM SCT120
                       BKN200 FM0500 18004KT P6SM SCT200
                      TEMPO 1215 4SM BR FM1600 18005KT P6SM BKN100
                       BKN200=
200701241143 TAF KSEA 241143Z 241212 14004KT P6SM SKC
                      TEMPO 1316 2SM BR SCT002 FM2000 11004KT P6SM
                       BKN250 FM1000 16006KT P6SM OVC060=
200701240521 TAF KSEA 240521Z 240606 14007KT P6SM SKC
                      TEMPO 1216 2SM BR SCT002 FM1800 04005KT P6SM
                       SCT150=
200701232347 TAF KSEA 232347Z 240024 18007KT P6SM BKN060 BKN150 FM0600 VRB03KT
                       P6SM BKN150
                      TEMPO 1216 2SM BR SCT002 FM1800 04005KT P6SM
                       SCT150=
200701231729 TAF KSEA 231729Z 231818 18007KT P6SM FEW035 BKN060
                      TEMPO 1819 BKN035 FM0000 16007KT P6SM FEW060
                       BKN150 FM0400 VRB03KT P6SM BKN150
                      TEMPO 1216 2SM BR SCT002 FM1700 05004KT P6SM
                       SCT150=
200701231137 TAF KSEA 231137Z 231212 16008KT P6SM -RA SCT022 OVC035
                      TEMPO 1519 5SM -RA BR OVC022 FM2200 16006KT
                       P6SM SCT035 OVC060
                      PROB30 2204 -RA FM0400 13004KT P6SM SCT050
                       BKN130=
200701230553 TAF KSEA 230553Z 230606 20005KT P6SM BKN040 OVC120
                      TEMPO 0608 OVC040 FM0800 18006KT P6SM SCT030
                       OVC040
                      TEMPO 0812 -RA FM1200 18006KT P6SM -RA OVC025
                       TEMPO 1418 5SM -RA BR FM2200 16005KT P6SM
                       SCT035 OVC060=
200701222337 TAF KSEA 222337Z 230024 21008KT P6SM SCT025 OVC035
                      TEMPO 0002 -RA BKN025 FM0200 17006KT P6SM
                       -RA OVC025
                      TEMPO 0911 5SM -RA BR OVC018 FM1600 16006KT
                       P6SM SCT035 BKN045
                      TEMPO 1620 -RA BKN035=
200701221744 TAF KSEA 221744Z 221818 18008KT P6SM SCT035 OVC050 FM2000 18009KT
                       P6SM SCT025 OVC040
                      TEMPO 2122 -RA BKN035 FM2300 16007KT P6SM
                       -RA BKN025 OVC035
                      TEMPO 1113 5SM -RA BR OVC018 FM1600 16006KT
                       P6SM SCT025 BKN045=
200701221140 TAF KSEA 221140Z 221212 19008KT P6SM SCT025 BKN070 OVC090
                      TEMPO 1216 -SHRA BKN025 OVC070 FM2000 18009KT
                       P6SM SCT035 OVC060 FM0100 16007KT P6SM BKN022
                       OVC040
                      PROB30 0112 -RA=
200701220535 TAF KSEA 220535Z 220606 19007KT P6SM OVC026 FM1200 17010KT P6SM
                       BKN022 OVC070 FM2000 18009KT P6SM SCT035
                       OVC060
                      PROB30 0006 -RA=
200701220153 KSEA 220153Z 220224 17006KT P6SM SCT025 BKN035 OVC100
                      TEMPO 0204 BKN025 BKN035 OVC100 FM1200 17006KT
                       P6SM BKN022 OVC070 FM2000 18008KT P6SM SCT035
                       OVC060
                      PROB30 2024 -RA=
200701212320 TAF KSEA 212320Z 220024 17006KT P6SM FEW020 BKN035 OVC250 FM1200
                       17006KT P6SM BKN022 OVC070 FM2000 18008KT
                       P6SM SCT035 OVC060
                      PROB30 2024 -RA=
200701212300 KSEA 220153Z 220224 17006KT P6SM SCT025 BKN035 OVC100
                      TEMPO 0204 BKN025 BKN035 OVC100 FM1200 17006KT
                       P6SM BKN022 OVC070 FM2000 18008KT P6SM SCT035
                       OVC060
                      PROB30 2024 -RA=
200701211722 TAF KSEA 211722Z 211818 15007KT P6SM OVC045 FM2200 18008KT P6SM
                       OVC045 FM0400 15005KT P6SM BKN030 OVC070=
200701211136 TAF KSEA 211136Z 211212 15008KT P6SM SCT025 BKN060 OVC100
                      TEMPO 1216 -RA BKN025 OVC060 FM1600 16007KT
                       P6SM SCT030 OVC060
                      TEMPO 1620 -RA BKN020 OVC060 FM2300 20007KT
                       P6SM BKN050 BKN120
                      PROB30 2312 -RA=
200701210832 KSEA 210832Z 210906 14005KT P6SM BKN025 OVC100 FM1000 16006KT P6SM
                       BKN030 OVC070 FM1400 16007KT P6SM BKN035
                       OVC050 FM2300 20007KT P6SM BKN045 BKN120=
200701210534 TAF KSEA 210534Z 210606 15007KT P6SM FEW050 SCT080 OVC200 FM1000
                       16006KT P6SM OVC070 FM1400 16007KT P6SM
                       BKN035 OVC050
                      PROB30 1520 -RA FM2300 20007KT P6SM BKN045
                       BKN120=
200701210152 TAF AMD KSEA 210152Z 210224 22004KT P6SM SCT040 SCT200
                      TEMPO 0204 BKN040 BKN200 FM0400 18007KT P6SM
                       BKN200 FM0800 18007KT P6SM OVC070 FM1200
                       18007KT P6SM OVC030
                      PROB30 1218 -RA FM1800 20007KT P6SM BKN035
                       OVC200=
200701202320 TAF KSEA 202320Z 210024 22006KT P6SM SCT026 FM0300 18007KT P6SM
                       BKN200 FM0800 18007KT P6SM OVC070 FM1200
                       18007KT P6SM OVC030
                      PROB30 1218 -RA FM1800 20007KT P6SM BKN035
                       OVC200=
200701202300 KSEA 210152Z 210224 22004KT P6SM SCT040 SCT200
                      TEMPO 0204 BKN040 BKN200 FM0400 18007KT P6SM
                       BKN200 FM0800 18007KT P6SM OVC070 FM1200
                       18007KT P6SM OVC030
                      PROB30 1218 -RA FM1800 20007KT P6SM BKN035
                       OVC200=
200701202054 KSEA 202054Z 202118 21005KT P6SM BKN018 FM2230 21005KT P6SM SCT020
                       FM0300 18007KT P6SM BKN200 FM0800 18007KT
                       P6SM OVC070 FM1200 18007KT P6SM OVC040
                      PROB30 1218 -RA=
200701201726 TAF KSEA 201726Z 201818 17006KT P6SM SCT016
                      TEMPO 1820 BKN016 FM2000 22008KT P6SM SCT025
                       FM0300 18007KT P6SM BKN200 FM0800 18007KT
                       P6SM OVC070 FM1200 18007KT P6SM OVC040
                      PROB30 1218 -RA=
200701201559 KSEA 201559Z 201612 17006KT P6SM OVC016 FM2000 22008KT P6SM SCT025
                       BKN040 FM0300 18007KT P6SM SCT030 BKN070=
200701201132 TAF KSEA 201132Z 201212 21008KT P6SM SCT020 BKN040
                      TEMPO 1216 -SHRA BKN017 OVC030 FM2000 22008KT
                       P6SM SCT025 BKN040 FM0300 18007KT P6SM SCT030
                       BKN070=
200701200522 TAF KSEA 200522Z 200606 22012KT P6SM SCT012 BKN030
                      TEMPO 0609 4SM -SHRA BR BKN010 OVC025 FM0900
                       21008KT P6SM -SHRA SCT012 BKN025 FM2000
                       22008KT P6SM VCSH SCT025 BKN040 FM0300 19007KT
                       P6SM SCT030 BKN060=
200701200309 KSEA 200309Z 200324 22012KT P6SM SCT010 BKN030
                      TEMPO 0307 4SM -SHRA BR BKN007 OVC020 FM0700
                       22008KT P6SM -SHRA SCT012 BKN025 FM2000
                       22008KT P6SM SCT025 BKN040=
200701200205 KSEA 200205Z 200224 22012KT P6SM OVC010
                      TEMPO 0204 3SM -SHRA BR OVC007 FM0400 22012KT
                       P6SM BKN015 OVC040
                      TEMPO 0406 5SM -SHRA BR OVC010 FM0600 22008KT
                       P6SM -SHRA SCT012 BKN025 FM2000 22008KT
                       P6SM SCT025 BKN040=
200701200042 TAF AMD KSEA 200042Z 200124 23010KT 6SM BR OVC005 FM0200 21010G19KT
                       P6SM -SHRA BKN012 OVC020 FM0600 22008KT
                       P6SM -SHRA SCT012 BKN025 FM2000 22008KT
                       P6SM SCT025 BKN040=
200701192320 TAF KSEA 192320Z 200024 22010KT 2SM BR BKN003 OVC007 FM0200 21010G19KT
                       P6SM -SHRA BKN012 OVC020 FM0600 22008KT
                       P6SM -SHRA SCT012 BKN025 FM2000 22008KT
                       P6SM SCT025 BKN040=
200701192300 KSEA 200309Z 200324 22012KT P6SM SCT010 BKN030
                      TEMPO 0307 4SM -SHRA BR BKN007 OVC020 FM0700
                       22008KT P6SM -SHRA SCT012 BKN025 FM2000
                       22008KT P6SM SCT025 BKN040=
200701192022 KSEA 192022Z 192018 22006KT 3SM BR BKN003 OVC007 FM0000 21010G19KT
                       P6SM -SHRA SCT012 OVC020 FM0600 22008KT
                       P6SM -SHRA SCT012 BKN020=
200701191857 KSEA 191857Z 191918 20008KT P6SM -SHRA SCT010 BKN035 OVC045
                      TEMPO 1921 3SM -SHRA BKN005 OVC020 FM0000
                       21010G19KT P6SM -SHRA SCT012 OVC020 FM0600
                       22008KT P6SM -SHRA SCT012 BKN020=
200701191721 TAF KSEA 191721Z 191818 20008KT P6SM -SHRA SCT010 BKN035 OVC045
                       TEMPO 1821 BKN010 OVC035 FM0000 21010G19KT
                       P6SM -SHRA SCT012 OVC020 FM0600 22008KT
                       P6SM -SHRA SCT012 BKN020=
200701191126 TAF KSEA 191126Z 191212 18010KT P6SM SCT030 OVC060
                      TEMPO 1216 -RA BKN025 OVC050 FM1600 17008KT
                       P6SM -RA BKN022 OVC040 FM2100 21012KT P6SM
                       -RA SCT012 OVC020 FM0400 22008KT P6SM -SHRA
                       BKN022=
200701191005 KSEA 191005Z 191006 19011KT P6SM SCT030 OVC080
                      TEMPO 1014 BKN025 OVC050 FM1400 17008KT P6SM
                       -RA BKN022 OVC040 FM2100 21012KT P6SM -RA
                       SCT010 OVC018 FM0400 22008KT P6SM -RA OVC020=
200701190521 TAF KSEA 190521Z 190606 19011KT P6SM BKN022 OVC050
                      TEMPO 0610 SCT025 BKN050 FM1400 17008KT P6SM
                       -RA BKN022 OVC040 FM2100 21012KT P6SM -RA
                       SCT010 OVC018 FM0400 22008KT P6SM -RA OVC020=
200701190402 KSEA 190402Z 190424 18011KT P6SM BKN022 OVC050
                      TEMPO 0509 SCT025 BKN050 FM1400 17008KT P6SM
                       -RA BKN025 OVC045 FM2000 18008KT P6SM -RA
                       OVC020=
200701182323 TAF KSEA 182323Z 190024 20007KT P6SM OVC020
                      TEMPO 0004 SCT020 OVC050 FM0400 18006KT P6SM
                       SCT025 BKN050 OVC120 FM1400 17008KT P6SM
                       -RA BKN025 OVC045 FM2000 18008KT P6SM -RA
                       OVC020=
200701182300 KSEA 190402Z 190424 18011KT P6SM BKN022 OVC050
                      TEMPO 0509 SCT025 BKN050 FM1400 17008KT P6SM
                       -RA BKN025 OVC045 FM2000 18008KT P6SM -RA
                       OVC020=
200701181723 TAF KSEA 181723Z 181818 16008KT P6SM -RA SCT020 OVC030
                      TEMPO 1822 P6SM NSW SCT030 OVC050 FM2200
                       18008KT P6SM SCT030 BKN050
                      TEMPO 2202 -SHRA BKN030 OVC050 FM0200 18008KT
                       P6SM SCT030 BKN050 OVC120=
200701181246 KSEA 181246Z 181312 16008KT P6SM FEW005 BKN017 OVC045
                      TEMPO 1315 4SM -RASN FM1700 18010KT P6SM
                       SCT025 OVC050
                      TEMPO 1721 -RA BKN025 OVC050 FM0200 18008KT
                       P6SM SCT030 BKN050 OVC120
                      PROB30 0206 -RA=
200701181144 TAF KSEA 181144Z 181212 16008KT P6SM -RA FEW005 BKN007 OVC013
                      TEMPO 1215 4SM -RASN FM1700 18010KT P6SM
                       -RA SCT015 BKN025 OVC050 FM0200 18008KT
                       P6SM SCT030 BKN050 OVC120
                      PROB30 0206 -RA=
200701180525 TAF KSEA 180525Z 180606 16005KT P6SM SCT009 OVC018
                      TEMPO 0610 5SM -RA BKN009 OVC018 FM1300 16006KT
                       5SM -RA BR BKN012 OVC020 FM1800 18005KT
                       P6SM -RA BKN025 OVC050=
200701180453 TAF AMD KSEA 180453Z 180524 16005KT P6SM SCT015 OVC030
                      TEMPO 0508 5SM -RA OVC015 FM0800 17004KT
                       5SM -RA BKN018 OVC035 FM1300 16004KT 5SM
                       -RA BR BKN012 OVC020 FM1800 18005KT P6SM
                       -RA BKN025 OVC050=
200701180200 TAF AMD KSEA 180200Z 180224 19004KT P6SM BKN020 OVC070
                      TEMPO 0204 SCT020 SCT070 OVC120 FM1000 17004KT
                       P6SM -RA BKN020 OVC035 FM1300 16004KT 5SM
                       -RASN BR BKN012 OVC020 FM1800 18005KT P6SM
                       -RA BKN025 OVC050=
200701172333 TAF KSEA 172333Z 180024 19004KT P6SM BKN025 OVC200
                      TEMPO 0004 SCT025 SCT050 OVC200 FM1000 17004KT
                       P6SM -RA BKN020 OVC035 FM1300 16004KT 5SM
                       -RASN BR BKN012 OVC020 FM1800 18005KT P6SM
                       -RA BKN025 OVC050=
200701172300 KSEA 180453Z 180524 16005KT P6SM SCT015 OVC030
                      TEMPO 0508 5SM -RA OVC015 FM0800 17004KT
                       5SM -RA BKN018 OVC035 FM1300 16004KT 5SM
                       -RA BR BKN012 OVC020 FM1800 18005KT P6SM
                       -RA BKN025 OVC050=
200701172140 KSEA 172140Z 172218 20004KT P6SM SCT025 SCT050 OVC200
                      TEMPO 2202 BKN025 OVC050 FM0200 18004KT P6SM
                       SCT020 OVC040 FM1000 17004KT P6SM -RA BKN020
                       OVC035 FM1300 16004KT 5SM -RASN BR BKN012
                       OVC020=
200701171738 TAF KSEA 171738Z 171818 18004KT P6SM BKN012 OVC018 FM2000 18004KT
                       P6SM BKN015 OVC020 FM2300 18004KT P6SM SCT020
                       OVC040 FM1000 17004KT P6SM -RA BKN020 OVC035
                       FM1300 16004KT 5SM -RASN BR BKN012 OVC020=
200701171318 KSEA 171318Z 171312 18004KT P6SM BKN006 OVC012
                      TEMPO 1317 4SM BR FM2000 18004KT P6SM BKN012
                       OVC020 FM2300 20004KT P6SM SCT020 OVC040=
200701171133 TAF KSEA 171133Z 171212 18007KT 2SM BR OVC004
                      TEMPO 1216 4SM BR SCT004 OVC015 FM1600 18007KT
                       P6SM SCT010 OVC025
                      TEMPO 1619 3SM BR OVC010 FM2100 20007KT P6SM
                       SCT025 OVC040=
200701170709 KSEA 170709Z 170706 20004KT 5SM BR OVC003 FM1000 VRB04KT P6SM SCT003
                       OVC008
                      TEMPO 1013 3SM BR OVC003 FM1800 16005KT P6SM
                       SCT009 OVC015 FM2200 21005KT P6SM OVC025=
200701170538 TAF KSEA 170538Z 170606 00000KT P6SM BKN008 OVC050 FM0800 VRB04KT
                       P6SM SCT008 OVC045
                      TEMPO 0913 3SM BR OVC006 FM1800 16005KT P6SM
                       SCT009 OVC015 FM2200 21005KT P6SM OVC025=
200701162347 TAF KSEA 162347Z 170024 15005KT P6SM SCT007 OVC012
                      TEMPO 0004 3SM BR BKN007 OVC015 FM0800 VRB04KT
                       5SM BR BKN007 OVC015
                      TEMPO 1216 2SM BR OVC004 FM1900 16005KT P6SM
                       SCT009 BKN015 FM2200 21005KT P6SM OVC020=
200701162346 TAF KSEA 162346Z 170024 15005KT P6SM SCT007 OVC012
                      TEMPO 0004 BKN007 OVC015 FM0800 VRB04KT 5SM
                       BR BKN007 OVC015
                      TEMPO 1216 2SM BR OVC004 FM1900 16005KT P6SM
                       SCT009 BKN015 FM2200 21005KT P6SM OVC020=
200701162147 KSEA 162147Z 162218 15005KT P6SM SCT006 BKN015 OVC025 FM2300 16005KT
                       P6SM VCSH SCT015 BKN025 BKN035 FM0800 14004KT
                       4SM BR BKN012
                      TEMPO 1216 1SM BR OVC006=
200701161929 KSEA 161929Z 161918 12005KT 6SM BR OVC009
                      TEMPO 2022 04005KT 2SM -SN OVC006 FM2300
                       16005KT P6SM VCSH SCT009 BKN015 FM0100 21006KT
                       P6SM BKN025 FM0800 14004KT 4SM BR BKN012
                       TEMPO 1216 1SM BR OVC006=
200701161740 TAF KSEA 161740Z 161818 16004KT 5SM BR OVC009
                      TEMPO 1819 3SM -SHSN BR FM2000 16005KT P6SM
                       VCSH SCT009 BKN015
                      TEMPO 2022 5SM BR BKN009 FM0100 21006KT P6SM
                       BKN025 FM0800 14004KT 4SM BR BKN012
                      TEMPO 1216 1SM BR OVC006=
200701161705 KSEA 161705Z 161712 16004KT 5SM BR OVC007
                      TEMPO 1718 2SM -SHSN FM1900 16005KT P6SM
                       VCSH SCT007 BKN015
                      TEMPO 1921 5SM BR BKN007 FM2100 VRB05KT P6SM
                       VCSH BKN025 FM0200 36004KT 4SM BR BKN010=
200701161520 KSEA 161520Z 161512 13006KT 3SM -SN BR BKN012 BKN018
                      TEMPO 1516 1SM -SN OVC006 FM1700 23007KT
                       5SM -SHRASN BR BKN020 FM1900 VRB05KT P6SM
                       VCSH BKN030
                      TEMPO 2202 SCT030 FM0200 36004KT 4SM BR BKN010=
200701161306 KSEA 161306Z 161312 13009KT 3SM -SN BR OVC015
                      TEMPO 1417 1/2SM SN OVC005 FM1900 23007KT
                       5SM BR BKN020 FM2200 VRB05KT P6SM BKN030
                       TEMPO 2202 SCT030 FM0200 36004KT 4SM BR
                       BKN010=
200701161120 TAF KSEA 161120Z 161212 16010KT P6SM -SN OVC040 FM1400 16010KT
                       3SM -SN SCT005 OVC020
                      TEMPO 1417 1/2SM SN OVC005 FM1900 23007KT
                       5SM BR BKN020 FM2200 VRB05KT P6SM BKN030
                       TEMPO 2202 SCT030 FM0200 36004KT 4SM BR
                       BKN010=
200701160520 TAF KSEA 160520Z 160606 12008KT P6SM OVC070 FM1000 16010KT P6SM
                       -SN OVC040 FM1200 16010KT 3SM -SN SCT005
                       OVC020
                      TEMPO 1216 1/2SM SN OVC005 FM1800 23007KT
                       5SM BR BKN020 FM2200 VRB05KT P6SM BKN030=
200701152320 TAF KSEA 152320Z 160024 VRB04KT P6SM SCT100 OVC200 FM0600 12004KT
                       P6SM OVC080 FM1100 16004KT 6SM -SN OVC035
                       FM1200 16004KT 3SM -SN SCT006 OVC015
                      TEMPO 1316 1/4SM SN FG OVC006 FM1700 16007KT
                       P6SM -SHRASN BKN025 BKN035 FM2000 23007KT
                       P6SM VCSH BKN035=
200701151739 TAF KSEA 151739Z 151818 08006KT P6SM SCT200 FM0000 09006KT P6SM
                       SCT120 BKN200 FM0800 12004KT P6SM OVC080
                       FM1200 14004KT 4SM -SN SCT020 OVC035 FM1400
                       16005KT 1SM -SN OVC020 FM1700 16007KT 6SM
                       -SHRASN BKN020 BKN030=
200701151120 TAF KSEA 151120Z 151212 09006KT P6SM SCT200 FM1800 10010KT P6SM
                       BKN200 FM0000 12012KT P6SM BKN120 FM0400
                       14012KT P6SM OVC080 FM1000 16012KT 4SM -RASN
                       OVC030=
200701150521 TAF KSEA 150521Z 150606 10005KT P6SM SCT200 FM2200 12006KT P6SM
                       BKN150 FM0400 12008KT P6SM OVC100=
200701142335 TAF KSEA 142335Z 150024 VRB03KT P6SM BKN200 FM0900 VRB03KT P6SM
                       VCFG BKN200 FM1900 VRB03KT P6SM BKN130 OVC200=
200701141740 TAF KSEA 141740Z 141818 VRB03KT P6SM VCFG BKN200 FM1900 VRB03KT
                       P6SM BKN200=
200701141404 KSEA 141404Z 141412 12005KT P6SM SKC
                      TEMPO 1416 5SM BR SCT002 FM1800 VRB03KT P6SM
                       BKN200 FM0300 VRB03KT P6SM BKN090 BKN150=
200701141124 TAF KSEA 141124Z 141212 12005KT 5SM BR SKC
                      TEMPO 1216 2SM BR FM1800 VRB03KT P6SM BKN200
                       FM0300 VRB03KT P6SM BKN090 BKN150=
200701140520 TAF KSEA 140520Z 140606 05008KT P6SM SCT035
                      TEMPO 0610 4SM BR FM1000 06006KT 4SM BR SCT200
                       TEMPO 1014 2SM BR FM1800 VRB03KT P6SM BKN200
                       FM0300 VRB03KT P6SM BKN090 BKN150=
200701140059 KSEA 140059Z 140124 VRB03KT 5SM BR OVC045 FM0300 VRB03KT P6SM SCT045
                       SCT200 FM1000 VRB03KT P6SM VCFG SCT200 FM1800
                       VRB03KT P6SM BKN200=
200701132336 TAF KSEA 132336Z 140024 VRB03KT 4SM -SN FEW010 OVC035
                      TEMPO 0002 1 1/2SM -SN BKN010 OVC035 FM0300
                       VRB03KT P6SM VCSH BKN040 FM0400 VRB03KT
                       P6SM SCT040 SCT200 FM1000 VRB03KT P6SM VCFG
                       SCT200 FM1800 VRB03KT P6SM BKN200=
200701132300 KSEA 140059Z 140124 VRB03KT 5SM BR OVC045 FM0300 VRB03KT P6SM SCT045
                       SCT200 FM1000 VRB03KT P6SM VCFG SCT200 FM1800
                       VRB03KT P6SM BKN200=
200701132240 KSEA 132240Z 132318 VRB04KT 6SM -SN SCT009 OVC035
                      TEMPO 2301 2SM -SN BKN009 OVC035 FM0200 14005KT
                       P6SM SCT035 BKN070 FM0600 10005KT P6SM SCT070
                       SCT200 FM1200 07005KT P6SM VCFG SCT200=
200701132044 KSEA 132044Z 132118 VRB04KT 6SM -SN SCT009 OVC035
                      TEMPO 2123 2SM -SN BKN009 OVC035 FM0000 14005KT
                       P6SM SCT035 BKN070 FM0600 10005KT P6SM SCT070
                       SCT200 FM1200 07005KT P6SM VCFG SCT200=
200701131946 KSEA 131946Z 132018 VRB04KT P6SM SCT010 OVC035
                      TEMPO 2023 6SM -SN BKN010 OVC035 FM0000 14005KT
                       P6SM SCT035 BKN070 FM0600 10005KT P6SM SCT070
                       SCT200 FM1200 07005KT P6SM VCFG SCT200=
200701131743 TAF KSEA 131743Z 131818 14005KT P6SM SCT006 BKN035 OVC100
                      TEMPO 1820 BKN006 OVC035 FM2000 14005KT P6SM
                       OVC035 FM0000 14005KT P6SM SCT035 BKN070
                       FM0600 10005KT P6SM SCT070 SCT200 FM1200
                       07005KT P6SM VCFG SCT200=
200701131501 KSEA 131501Z 131512 14005KT P6SM SCT040 BKN100 OVC200
                      TEMPO 1517 BKN040 OVC100 FM1700 14005KT P6SM
                       OVC040
                      TEMPO 2024 4SM BR BKN010 OVC030 FM0000 VRB03KT
                       4SM BR OVC010=
200701131123 TAF KSEA 131123Z 131212 15005KT P6SM SCT010 OVC035
                      TEMPO 2024 4SM BR BKN010 OVC030 FM0000 VRB03KT
                       4SM BR OVC010=
200701130723 KSEA 130723Z 130706 VRB03KT P6SM SCT010 BKN035 FM1200 14005KT 5SM
                       BR SCT010 OVC035 FM0000 VRB03KT 4SM BR OVC010=
200701130525 TAF KSEA 130525Z 130606 VRB03KT P6SM SCT200 FM1200 VRB03KT 5SM
                       BR SCT010 SCT040 BKN120 FM1800 VRB03KT P6SM
                       SCT010 BKN040 BKN080
                      TEMPO 2124 BKN010 OVC040 FM0000 VRB03KT 4SM
                       BR OVC010=
200701122320 TAF KSEA 122320Z 130024 VRB03KT P6SM SCT030 FM0600 VRB03KT P6SM
                       SCT200 FM1200 VRB03KT P6SM SCT025 BKN200
                       FM1800 VRB03KT P6SM BKN090 OVC150 FM2200
                       VRB03KT P6SM OVC060=
200701121726 TAF KSEA 121726Z 121818 13005KT P6SM FEW010 FM2000 03005KT P6SM
                       SKC FM0000 VRB03KT P6SM SCT200=
200701121120 TAF KSEA 121120Z 121212 VRB04KT P6SM SKC=
200701120520 TAF KSEA 120520Z 120606 05007KT P6SM SKC FM1100 05003KT P6SM SKC=
200701120305 KSEA 120305Z 120324 04008KT P6SM SKC=
200701112333 TAF KSEA 112333Z 120024 02016G22KT P6SM SKC FM0400 04008KT P6SM
                       SKC=
200701112300 KSEA 120305Z 120324 04008KT P6SM SKC=
200701111734 TAF KSEA 111734Z 111818 01008KT P6SM FEW021 FM2000 03010KT P6SM
                       SKC=
200701111144 TAF KSEA 111144Z 111212 06004KT P6SM SCT023 OVC040
                      TEMPO 1214 BKN023 OVC040 FM1600 04007KT P6SM
                       BKN050 FM1800 03009KT P6SM SCT060 FM2000
                       03010KT P6SM SKC=
200701110847 KSEA 110847Z 110906 VRB03KT 5SM BR SCT006 BKN035
                      TEMPO 0911 1SM -SN BR OVC005 FM1200 02005KT
                       P6SM SCT006 BKN015 BKN035
                      TEMPO 1214 BKN006 OVC015 FM1600 04007KT P6SM
                       SCT050 FM1800 03012KT P6SM SKC=
200701110549 TAF KSEA 110549Z 110606 VRB03KT 5SM -SN BR SCT006 OVC012
                      TEMPO 0608 1SM -SN BR OVC006 FM0900 02005KT
                       P6SM SCT006 OVC012
                      TEMPO 0912 2SM BR BKN006 OVC012 FM1600 04007KT
                       P6SM SCT050 FM1800 03012KT P6SM SKC=
200701110400 TAF AMD KSEA 110400Z 110424 VRB04KT 3SM -SN BR SCT005 OVC020
                      TEMPO 0406 1/2SM SN OVC006 FM0600 02013KT
                       P6SM SCT015 BKN045 FM0800 04007KT P6SM SKC=
200701110203 TAF AMD KSEA 110203Z 110224 36012KT 3SM -SN BR SCT005 OVC020
                      TEMPO 0204 1/2SM SN OVC004 FM0500 02013KT
                       P6SM SCT015 BKN045 FM0800 04007KT P6SM SKC=
200701102337 TAF KSEA 102337Z 110024 21012KT P6SM VCSH BKN020 OVC035
                      TEMPO 0004 1SM -SHSN OVC012 FM0800 04007KT
                       P6SM SKC=
200701102300 KSEA 110400Z 110424 VRB04KT 3SM -SN BR SCT005 OVC020
                      TEMPO 0406 1/2SM SN OVC006 FM0600 02013KT
                       P6SM SCT015 BKN045 FM0800 04007KT P6SM SKC=
200701101750 TAF KSEA 101750Z 101818 19015KT P6SM VCSH SCT009 BKN015 BKN090
                       TEMPO 2024 SCT030 FM0000 34008KT P6SM SCT030
                       TEMPO 0004 3SM -SHSN BKN025 FM0800 04007KT
                       P6SM SKC=
200701101519 KSEA 101519Z 101512 20018G26KT P6SM VCSH SCT008 SCT020 BKN040
                      TEMPO 1518 3SM -SHSN BKN008 OVC040 FM1800
                       27010KT P6SM VCSH BKN030
                      TEMPO 2024 SCT030 FM0000 34008KT P6SM SCT030=
200701101259 KSEA 101259Z 101312 20018G26KT P6SM VCSH SCT008 SCT020 BKN040
                      TEMPO 1315 3SM -SHSN BKN008 OVC040 FM1800
                       27010KT P6SM VCSH BKN030
                      TEMPO 2024 SCT030 FM0000 34008KT P6SM SCT030=
200701101126 TAF KSEA 101126Z 101212 22012KT P6SM VCSH SCT020 BKN040
                      TEMPO 1216 3SM -SHSN BKN015 OVC040 FM2000
                       27010KT P6SM VCSH BKN030
                      TEMPO 2024 SCT030 FM0000 34008KT P6SM SCT030=
200701100521 TAF KSEA 100521Z 100606 22012G22KT P6SM VCSH SCT020 BKN040 BKN100
                       TEMPO 0610 BKN020 OVC040 FM1000 19012G22KT
                       P6SM -SHRASN BKN020 BKN050
                      TEMPO 1418 4SM -SN OVC015 FM2200 25014KT
                       P6SM VCSH BKN030 FM0400 33008KT P6SM VCSH
                       BKN030=
200701100202 TAF AMD KSEA 100202Z 100224 22015G24KT P6SM SCT060 SCT110
                      TEMPO 0205 -SHRA BKN060 OVC100 FM0900 21011KT
                       5SM -RASN BR SCT015 OVC035 FM1800 16007KT
                       P6SM VCSH BKN045=
200701092338 TAF KSEA 092338Z 100024 21022G29KT 5SM RA OVC035 WS020/22045KT
                       FM0200 22015G25KT P6SM -SHRA OVC020 FM0900
                       21011KT 5SM -RASN BR BKN015 OVC030 FM1800
                       16007KT P6SM VCSH BKN045=
200701092300 KSEA 100202Z 100224 22015G24KT P6SM SCT060 SCT110
                      TEMPO 0205 -SHRA BKN060 OVC100 FM0900 21011KT
                       5SM -RASN BR SCT015 OVC035 FM1800 16007KT
                       P6SM VCSH BKN045=
200701092142 KSEA 092142Z 092218 20012KT P6SM FEW020 SCT130 BKN150 FM2300 22020G30KT
                       P6SM -RA BKN030 OVC050 FM0100 22020G30KT
                       5SM -RA BR OVC020 FM0900 21011KT 5SM -RASN
                       BR BKN015 OVC030=
200701091723 TAF KSEA 091723Z 091818 19007KT P6SM VCSH FEW015 BKN045 OVC110
                       FM2000 17015G25KT P6SM -RA OVC025 FM0100
                       22020G30KT 5SM -RA BR OVC020 FM0900 21011KT
                       5SM -RASN BR BKN015 OVC030=
200701091139 TAF KSEA 091139Z 091212 16012KT P6SM VCSH BKN025 OVC045
                      TEMPO 1216 SCT027 BKN040 FM1600 19014KT P6SM
                       VCSH BKN030 BKN050 FM2100 20015G25KT P6SM
                       -RA OVC025 FM0100 20018G28KT 5SM -RA BR
                       OVC020 FM0900 21011KT 5SM -RASN BR BKN015=
200701090732 KSEA 090732Z 090806 16010KT P6SM VCSH BKN015 OVC030
                      TEMPO 0812 SCT020 BKN050 FM1200 16012KT P6SM
                       VCSH BKN025 OVC045 FM1700 19014KT P6SM BKN035
                       BKN050 FM2100 20015G25KT P6SM -RA OVC030
                       FM0100 20018G28KT 5SM -RA BR OVC025=
200701090539 TAF KSEA 090539Z 090606 16010KT P6SM VCSH BKN018 OVC030 FM1000
                       16012KT P6SM VCSH BKN025 OVC045 FM1700 19014KT
                       P6SM BKN035 BKN050 FM2100 20015G25KT P6SM
                       -RA OVC030 FM0100 20018G28KT 5SM -RA BR
                       OVC025=
200701090316 TAF AMD KSEA 090316Z 090324 15007KT P6SM -SHRA SCT015 OVC030
                      TEMPO 0306 BKN020 OVC030 FM0600 16008KT P6SM
                       VCSH BKN020 OVC030 FM0900 16012KT P6SM VCSH
                       BKN030 OVC050 FM2100 20015G25KT 5SM -RA
                       BR OVC030=
200701090001 TAF AMD KSEA 090001Z 090024 16007KT P6SM -RA SCT015 BKN035 OVC080
                       TEMPO 0004 P6SM -RA SCT015 OVC030 FM0600
                       16008KT P6SM -RA SCT015 OVC030 FM0900 16012KT
                       P6SM VCSH BKN030 OVC050 FM2100 20015G25KT
                       5SM -RA BR OVC030=
200701082321 TAF KSEA 082321Z 090024 14007KT P6SM -RA SCT015 OVC035 FM0900 16012KT
                       P6SM VCSH BKN030 OVC050 FM2100 20015G25KT
                       5SM -RA BR OVC030=
200701082300 KSEA 090316Z 090324 15007KT P6SM -SHRA SCT015 OVC030
                      TEMPO 0306 BKN020 OVC030 FM0600 16008KT P6SM
                       VCSH BKN020 OVC030 FM0900 16012KT P6SM VCSH
                       BKN030 OVC050 FM2100 20015G25KT 5SM -RA
                       BR OVC030=
200701081821 KSEA 081821Z 081818 18009KT P6SM SCT015 SCT030 BKN090 FM2300 17010KT
                       P6SM -RA SCT015 OVC030
                      TEMPO 0912 BKN009 FM1200 16012G18KT P6SM
                       VCSH BKN030 OVC050=
200701081743 TAF KSEA 081743Z 081818 15005KT P6SM FEW009 SCT015 BKN030 FM2300
                       17010KT P6SM -RA SCT015 OVC030
                      TEMPO 0912 BKN009 FM1200 16012G18KT P6SM
                       VCSH BKN030 OVC050=
200701081142 TAF KSEA 081142Z 081212 17006KT P6SM BKN015 OVC030 FM1500 17006KT
                       P6SM SCT020 OVC035
                      TEMPO 1518 BKN020 FM1800 17006KT P6SM SCT030
                       BKN045 OVC100 FM2300 17006KT P6SM -RA SCT015
                       BKN022 OVC035 FM0600 19010KT P6SM BKN015
                       OVC025=
200701080541 TAF KSEA 080541Z 080606 25010KT P6SM BKN015 OVC022 FM0800 25010KT
                       P6SM SCT015 BKN022 OVC035 FM1100 19008KT
                       P6SM SCT025 BKN035 OVC050 FM1300 16006KT
                       P6SM SCT030 OVC050 FM1900 18012KT P6SM -RA
                       SCT015 BKN022 OVC035=
200701072320 TAF KSEA 072320Z 080024 22015G25KT P6SM SCT030 OVC100
                      TEMPO 0004 -SHRA BKN030 OVC080 FM0400 22012KT
                       P6SM VCSH BKN030
                      TEMPO 0408 SCT030 FM1200 16006KT P6SM SCT030
                       OVC060 FM1600 18012KT P6SM -RA OVC030=
200701071737 TAF KSEA 071737Z 071818 21020G30KT 5SM -RA BR SCT009 BKN016 OVC030
                       TEMPO 1821 3SM RA BR BKN009 OVC016 FM2100
                       23016G26KT P6SM -SHRA SCT012 BKN022 OVC040
                       FM0100 21010KT P6SM BKN025 OVC050 FM1000
                       12005KT P6SM SCT030 OVC060=
200701071427 KSEA 071427Z 071412 18018G28KT P6SM -RA SCT006 BKN012 OVC020
                      TEMPO 1418 2SM RA BR BKN006 OVC012 FM2100
                       23014KT P6SM -SHRA SCT012 BKN022 OVC040
                       FM0100 21010KT P6SM SCT025 BKN050=
200701071141 TAF KSEA 071141Z 071212 18018G28KT P6SM -RA SCT006 BKN012 OVC020
                       TEMPO 1519 5SM -RA BKN006 OVC012 FM2100
                       23014KT P6SM -SHRA SCT012 BKN022 OVC040
                       FM0100 21010KT P6SM SCT025 BKN050=
200701070541 TAF KSEA 070541Z 070606 18012KT P6SM SCT030 BKN080 OVC120 FM0900
                       18012KT P6SM -RA OVC030 FM1200 18012KT P6SM
                       -RA SCT012 OVC020 FM1600 20018G28KT 5SM
                       -RA SCT006 OVC012 FM2300 22014KT P6SM -SHRA
                       BKN022 OVC040 FM0300 22010KT P6SM SCT025
                       BKN050=
200701062339 TAF KSEA 062339Z 070024 20014KT P6SM VCSH SCT022 BKN100 OVC180
                       TEMPO 0003 BKN022 OVC100 FM0300 18012KT
                       P6SM -RA SCT020 BKN030 OVC045 FM0800 18014KT
                       P6SM -RA SCT012 OVC020 FM1200 20018G28KT
                       5SM -RA SCT006 OVC012 FM2000 22018G28KT
                       P6SM -SHRA BKN023 OVC040=
200701062236 KSEA 062236Z 062318 19014G20KT P6SM VCSH BKN022 OVC100
                      TEMPO 2303 SCT022 OVC100 FM0300 18010KT P6SM
                       -RA SCT015 BKN025 OVC040 FM0900 18010KT
                       5SM -RA SCT006 OVC012 FM1400 20016G24KT
                       5SM -RA SCT006 OVC012=
200701061736 TAF KSEA 061736Z 061818 19008KT P6SM SCT025 FM2200 18010KT P6SM
                       VCSH SCT030 BKN050 OVC100 FM0300 18010KT
                       P6SM -RA SCT015 BKN025 OVC040 FM0900 18010KT
                       5SM -RA SCT006 OVC012 FM1400 20016G24KT
                       5SM -RA SCT006 OVC012=
200701061141 TAF KSEA 061141Z 061212 26012KT P6SM SCT070 FM1600 22012KT P6SM
                       SCT040 BKN070 FM2300 18010KT P6SM SCT030
                       BKN050 OVC100 FM0300 18010KT P6SM -RA SCT015
                       BKN025 OVC040 FM0900 18010KT 5SM -RA SCT006
                       OVC012=
200701060540 TAF KSEA 060540Z 060606 20020G30KT P6SM -RA SCT006 OVC015
                      TEMPO 0609 4SM RA BKN006 OVC015 FM0900 22014KT
                       P6SM -SHRA SCT010 BKN020 OVC030 FM1800 22010KT
                       P6SM VCSH BKN035 BKN070 FM0300 18008KT P6SM
                       -RA SCT015 BKN025 OVC040=
200701052328 TAF KSEA 052328Z 060024 19018G28KT P6SM -RA SCT014 OVC025
                      TEMPO 0002 4SM -RA BR OVC014 FM0200 20020G30KT
                       5SM -RA SCT006 OVC012 FM0900 22014KT P6SM
                       -SHRA SCT010 BKN020 OVC030 FM1600 21010KT
                       P6SM VCSH BKN035 BKN070=
200701051734 TAF KSEA 051734Z 051818 19014G22KT P6SM -RA SCT016 BKN030 OVC045
                       FM2200 19014G22KT P6SM -RA SCT014 OVC025
                       TEMPO 2202 4SM -RA BR OVC014 FM0200 20020G30KT
                       5SM -RA SCT006 OVC012 FM0900 22014KT P6SM
                       -SHRA SCT010 BKN020 OVC030=
200701051408 KSEA 051408Z 051412 18010KT P6SM -RA SCT015 BKN028 OVC050 FM1600
                       18010KT P6SM SCT020 BKN045 OVC060 FM1900
                       18010KT P6SM -RA SCT020 OVC035 FM2300 18010KT
                       P6SM -RA SCT012 OVC020 FM0300 19018G28KT
                       5SM -RA SCT006 OVC012 FM0900 22014KT P6SM
                       -SHRA SCT010 BKN020 OVC030=
200701051140 TAF KSEA 051140Z 051212 16008KT P6SM BKN100 OVC200 FM1700 16008KT
                       P6SM BKN060 OVC100 FM2000 16008KT P6SM -RA
                       SCT020 OVC035 FM2300 16010KT P6SM -RA SCT012
                       OVC020 FM0300 19018G28KT 5SM -RA SCT006
                       OVC012 FM0900 22014KT P6SM -SHRA SCT010
                       BKN020 OVC030=
200701050542 TAF KSEA 050542Z 050606 19006KT P6SM SCT070 FM1100 16006KT P6SM
                       SCT070 BKN120 FM1700 16006KT P6SM BKN060
                       OVC100 FM2000 16006KT P6SM -RA SCT020 OVC035
                       FM2200 17010KT P6SM -RA SCT012 OVC020=
200701050031 TAF KSEA 050031Z 050124 VRB03KT P6SM VCTS SCT020CB BKN040
                      TEMPO 0104 -SHRA BKN020 OVC040 FM0400 22009KT
                       P6SM BKN050 BKN130 FM0600 19007KT P6SM SCT050
                       BKN130 FM1200 17009KT P6SM BKN050 OVC130
                       PROB30 1218 -RA FM1800 17013KT P6SM -RA
                       SCT015 OVC030=
200701042348 KSEA 042348Z 050024 VRB03KT P6SM VCTS SCT020CB BKN040
                      TEMPO 0004 -SHRA BKN020 OVC040 FM0400 22009KT
                       P6SM BKN050 BKN130 FM0600 19007KT P6SM SCT050
                       BKN130 FM1200 17009KT P6SM BKN050 OVC130
                       PROB30 1218 -RA FM1800 17013KT P6SM -RA
                       SCT015 OVC030=
200701042300 TAF KSEA 050031Z 050124 VRB03KT P6SM VCTS SCT020CB BKN040
                      TEMPO 0104 -SHRA BKN020 OVC040 FM0400 22009KT
                       P6SM BKN050 BKN130 FM0600 19007KT P6SM SCT050
                       BKN130 FM1200 17009KT P6SM BKN050 OVC130
                       PROB30 1218 -RA FM1800 17013KT P6SM -RA
                       SCT015 OVC030=
200701042257 KSEA 042257Z 042318 23006KT P6SM VCTS FEW015CB BKN040 FM0200 23012KT
                       P6SM SCT050 SCT130 FM0600 19007KT P6SM SCT050
                       BKN130 FM1200 17009KT P6SM BKN050 OVC130
                       PROB30 1218 -RA=
200701042114 KSEA 042114Z 042118 24007KT P6SM VCSH BKN012 OVC035
                      TEMPO 2123 SCT012 BKN035 FM2300 23012KT P6SM
                       VCSH BKN040 FM0000 23012KT P6SM SCT050 SCT130
                       FM0600 19007KT P6SM SCT050 BKN130 FM1200
                       17009KT P6SM BKN050 OVC130
                      PROB30 1218 -RA=
200701042003 TAF AMD KSEA 042003Z 042018 23005KT P6SM VCSH BKN012 OVC017 FM2100
                       23012KT P6SM VCSH BKN040 FM0000 23012KT
                       P6SM SCT050 SCT130 FM0600 19007KT P6SM SCT050
                       BKN130 FM1200 17009KT P6SM BKN050 OVC130
                       PROB30 1218 -RA=
200701041745 TAF KSEA 041745Z 041818 23008KT P6SM VCSH BKN015 OVC030 FM2000
                       23012KT P6SM VCSH BKN040 FM0000 23012KT
                       P6SM SCT050 SCT130 FM0600 19007KT P6SM SCT050
                       BKN130 FM1200 17009KT P6SM BKN050 OVC130
                       PROB30 1218 -RA=
200701041518 KSEA 041518Z 041512 19008KT P6SM SCT009 OVC015
                      TEMPO 1518 -SHRA BKN009 OVC015 FM1800 20008KT
                       P6SM SCT022 BKN040
                      TEMPO 1820 -SHRA BKN022 OVC040 FM2100 20008KT
                       P6SM -SHRA BKN035 BKN050 FM0200 18008KT
                       P6SM SCT030 BKN050=
200701041401 KSEA 041401Z 041412 19008KT P6SM SCT009 SCT020 OVC070
                      TEMPO 1416 -SHRA BKN009 OVC020 FM1600 20008KT
                       P6SM SCT022 BKN040
                      TEMPO 1620 -SHRA BKN022 OVC040 FM2100 20008KT
                       P6SM -SHRA BKN035 BKN050 FM0200 18008KT
                       P6SM SCT030 BKN050=
200701041138 TAF KSEA 041138Z 041212 20008KT P6SM SCT022 BKN040
                      TEMPO 1216 -SHRA BKN022 OVC040 FM1600 20008KT
                       P6SM SCT022 BKN040
                      TEMPO 1620 -SHRA BKN022 OVC040 FM2100 20008KT
                       P6SM -SHRA BKN035 BKN050 FM0200 18008KT
                       P6SM SCT030 BKN050=
200701040536 TAF KSEA 040536Z 040606 20012KT P6SM BKN020 BKN040 FM1000 20008KT
                       P6SM SCT020 BKN040
                      TEMPO 1519 -SHRA BKN020 OVC040 FM1900 20008KT
                       P6SM -SHRA BKN030 BKN050=
200701040045 TAF AMD KSEA 040045Z 040124 22011KT P6SM VCSH SCT020 SCT060
                      TEMPO 0104 BKN020 BKN060 FM0600 20009KT P6SM
                       BKN050 FM0900 19007KT P6SM OVC030 FM1500
                       19009KT P6SM -SHRA BKN015 OVC030 FM2100
                       23013KT P6SM -SHRA BKN025 BKN040=
200701032342 TAF KSEA 032342Z 040024 22011KT P6SM VCSH SCT025 SCT060
                      TEMPO 0004 BKN060 FM0600 20009KT P6SM BKN050
                       FM0900 19007KT P6SM OVC030 FM1500 19009KT
                       P6SM -SHRA BKN015 OVC030 FM2100 23013KT
                       P6SM -SHRA BKN025 BKN040=
200701032300 KSEA 040045Z 040124 22011KT P6SM VCSH SCT020 SCT060
                      TEMPO 0104 BKN020 BKN060 FM0600 20009KT P6SM
                       BKN050 FM0900 19007KT P6SM OVC030 FM1500
                       19009KT P6SM -SHRA BKN015 OVC030 FM2100
                       23013KT P6SM -SHRA BKN025 BKN040=
200701032200 KSEA 032200Z 032218 22011KT P6SM SCT020 SCT060 BKN130
                      TEMPO 2224 -SHRA BKN020 OVC060 FM0000 21009KT
                       P6SM BKN070 FM0900 19007KT P6SM OVC030=
200701032052 KSEA 032052Z 032118 22011KT P6SM BKN015 OVC050
                      TEMPO 2124 5SM SHRA FM0000 21009KT P6SM BKN070
                       FM0900 19007KT P6SM OVC030=
200701031950 KSEA 031950Z 032018 22011KT P6SM BKN015 BKN050
                      TEMPO 2022 -SHRA FM2200 22011KT P6SM SCT022
                       BKN050
                      TEMPO 2224 -SHRA FM0000 21009KT P6SM BKN070
                       FM0900 19007KT P6SM OVC030=
200701031827 KSEA 031827Z 031818 22011KT P6SM SCT018 BKN045
                      TEMPO 1820 -SHRA BKN018 OVC045 FM2000 22011KT
                       P6SM BKN050 FM0000 21009KT P6SM BKN070 FM0900
                       19007KT P6SM OVC030=
200701031737 TAF KSEA 031737Z 031818 21011KT P6SM SCT018 BKN045
                      TEMPO 1820 -SHRA BKN018 OVC045 FM2000 21011KT
                       P6SM BKN050 FM0000 21009KT P6SM BKN070 FM0900
                       19007KT P6SM OVC030=
200701031525 KSEA 031525Z 031512 17008KT P6SM -RA FEW008 BKN022 OVC040 FM1800
                       18008KT P6SM BKN035 BKN045 FM2000 19008KT
                       P6SM VCSH SCT025 BKN045 FM0300 18006KT P6SM
                       BKN050 FM1000 18010KT P6SM -SHRA BKN035=
200701031120 TAF KSEA 031120Z 031212 18008KT P6SM -RA SCT012 BKN035
                      TEMPO 1216 3SM RA BR OVC012 FM1800 18008KT
                       P6SM BKN035 BKN045 FM2000 19008KT P6SM VCSH
                       SCT025 BKN045 FM0300 18006KT P6SM BKN050
                       FM1000 18010KT P6SM -SHRA BKN035=
200701030900 KSEA 030900Z 030906 18010KT P6SM -RA FEW015 SCT025 BKN035
                      TEMPO 0912 5SM RA BR OVC025 FM1200 18005KT
                       P6SM BKN025 BKN045 FM2100 19007KT P6SM VCSH
                       SCT025 BKN045=
200701030624 KSEA 030624Z 030606 20015G25KT P6SM VCSH SCT025 BKN080 FM0800 18010KT
                       P6SM -RA OVC015 FM1200 18005KT P6SM BKN025
                       BKN045 FM2100 19007KT P6SM VCSH SCT025 BKN045=
200701030536 TAF KSEA 030536Z 030606 20015G25KT P6SM VCSH SCT018 OVC025 FM0700
                       18010KT P6SM -RA OVC015 FM1200 18005KT P6SM
                       BKN025 BKN045 FM2100 19007KT P6SM VCSH SCT025
                       BKN045=
200701030505 TAF AMD KSEA 030505Z 030524 20015G25KT P6SM VCSH BKN018 OVC025
                       FM1000 18010KT P6SM -SHRA OVC015 FM1800
                       18005KT P6SM BKN025 BKN045 FM2100 19007KT
                       P6SM VCSH SCT025 BKN045=
200701022357 KSEA 022357Z 030024 23018G25KT P6SM SCT009 BKN045 OVC060 WS020/22040KT
                       TEMPO 0004 5SM -SHRA BR BKN009 OVC030 FM0800
                       20008KT P6SM VCSH OVC025 FM1600 18005KT
                       P6SM BKN025 BKN045 FM2100 19007KT P6SM VCSH
                       SCT025 BKN045=
200701022337 TAF KSEA 022337Z 030024 23018G25KT P6SM SCT009 BKN045 OVC060
                      TEMPO 0004 5SM -SHRA BR BKN009 OVC030 FM0800
                       20008KT P6SM VCSH OVC025 FM1600 18005KT
                       P6SM BKN025 BKN045 FM2100 19007KT P6SM VCSH
                       SCT025 BKN045=
200701022300 KSEA 030505Z 030524 20015G25KT P6SM VCSH BKN018 OVC025 FM1000 18010KT
                       P6SM -SHRA OVC015 FM1800 18005KT P6SM BKN025
                       BKN045 FM2100 19007KT P6SM VCSH SCT025 BKN045=
200701021911 KSEA 021911Z 021918 19020G30KT P6SM SCT015 OVC025
                      TEMPO 1923 2SM +RA BR OVC006 FM2300 20012G22KT
                       P6SM -SHRA SCT015 BKN025 FM0800 20008KT
                       P6SM VCSH OVC025=
200701021733 TAF KSEA 021733Z 021818 19020G30KT P6SM SCT015 OVC025
                      TEMPO 2101 2SM +RA BR OVC006 FM0100 20012G22KT
                       P6SM -SHRA SCT015 BKN025 FM0800 20008KT
                       P6SM VCSH OVC025=
200701021126 TAF KSEA 021126Z 021212 19009KT P6SM -RA BKN025 OVC050
                      TEMPO 1216 2SM -RA BR SCT006 OVC015 FM1600
                       18011KT 4SM -RA BR SCT006 OVC015
                      TEMPO 2101 2SM +RA BR OVC006 FM0100 20012G22KT
                       P6SM -SHRA SCT015 BKN025=
200701021120 TAF KSEA 021120Z 021212 19009KT P6SM -RA BKN025 OVC050
                      TEMPO 1216 3SM -RA BR SCT006 OVC015 FM1600
                       18011KT 4SM -RA BR SCT006 OVC015
                      TEMPO 2101 2SM +RA BR OVC006 FM0100 20012G22KT
                       P6SM -SHRA SCT015 BKN025=
200701020520 TAF KSEA 020520Z 020606 19009KT P6SM -RA BKN025 OVC050 FM0200 21012G22KT
                       P6SM -SHRA BKN015 OVC025=
200701020210 TAF AMD KSEA 020210Z 020224 16006KT 5SM -RA BR SCT004 BKN022 OVC050
                       WS003/15030KT
                      TEMPO 0204 2SM -RA BR BKN006 OVC022 FM0400
                       19009KT P6SM -RA OVC020 FM2100 21012G22KT
                       P6SM -SHRA BKN015 OVC025=
200701020104 KSEA 020104Z 020124 22006KT 3SM -RA BR SCT004 BKN008 OVC020 WS003/15030KT
                       TEMPO 0104 1SM -RA BR BKN004 OVC008 FM0400
                       19009KT P6SM -RA OVC020 FM2100 21012G22KT
                       P6SM -SHRA BKN015 OVC025=
200701020000 TAF AMD KSEA 020000Z 020024 14006KT P6SM -RA SCT015 OVC025 WS003/15030KT
                       TEMPO 0004 2SM -RA BR BKN013 OVC020 FM0400
                       19009KT P6SM -RA OVC020 FM2100 21012G22KT
                       P6SM -SHRA BKN015 OVC025=
200701012337 TAF KSEA 012337Z 020024 14006KT P6SM -RA SCT015 OVC025 WS003/15030KT
                       TEMPO 0004 3SM -RA BR BKN013 OVC020 FM0400
                       19009KT P6SM -RA OVC020 FM2100 21012G22KT
                       P6SM -SHRA BKN015 OVC025=
200701012300 KSEA 020210Z 020224 16006KT 5SM -RA BR SCT004 BKN022 OVC050 WS003/15030KT
                       TEMPO 0204 2SM -RA BR BKN006 OVC022 FM0400
                       19009KT P6SM -RA OVC020 FM2100 21012G22KT
                       P6SM -SHRA BKN015 OVC025=
200701012203 KSEA 012203Z 012218 12005KT 5SM -RA BR SCT016 OVC028 WS003/15030KT
                       FM0300 19009KT P6SM -RA OVC015=
200701011748 TAF KSEA 011748Z 011818 13010KT P6SM -RA OVC050 FM2100 17014KT
                       P6SM -RA OVC025 FM0300 19009KT P6SM -RA
                       OVC015=
200701011122 TAF KSEA 011122Z 011212 16008KT P6SM SCT050 OVC100 FM2000 17014KT
                       P6SM -RA BKN040 OVC080=
200701010534 TAF KSEA 010534Z 010606 13004KT P6SM SCT080 FM1000 15007KT P6SM
                       BKN080 OVC150 FM2000 17014KT P6SM -RA BKN040
                       OVC080=