##########################################################
# Query made at 02/18/2025 01:38:58 UTC
# Time interval: from 06/01/2007 00:00  to 06/30/2007 23:59  UTC
##########################################################

##########################################################
# KSEA, Seattle, Seattle-Tacoma International Airport (United States)
# WMO index: 72793. WIGOS ID: 0-20000-0-72793
# Latitude 47-27-00N. Longitude 122-17-59W. Altitude 130 m.
##########################################################

###################################
#  METAR/SPECI from KSEA
###################################
200706302353 METAR KSEA 302353Z 30011KT 10SM FEW050 SCT200 22/07 A3013 RMK AO2 SLP208 T02220067 10228 20172 58017 $=
200706302253 METAR KSEA 302253Z 30012KT 10SM FEW050 SCT200 22/07 A3015 RMK AO2 SLP216 T02220067 $=
200706302153 METAR KSEA 302153Z 28009KT 10SM SCT050 SCT200 22/07 A3016 RMK AO2 SLP219 T02220067 $=
200706302053 METAR KSEA 302053Z 29007KT 270V330 10SM SCT048 SCT200 21/08 A3018 RMK AO2 SLP225 T02110083 58004 $=
200706301953 METAR KSEA 301953Z 26006KT 10SM SCT035 SCT200 21/08 A3019 RMK AO2 SLP227 T02060083 $=
200706301853 METAR KSEA 301853Z 27006KT 10SM BKN035 19/10 A3019 RMK AO2 SLP229 T01940100 $=
200706301827 SPECI KSEA 301827Z 28005KT 10SM BKN030 19/09 A3019 RMK AO2 $=
200706301827 SPECI KSEA 301827Z 28005KT 10SM BKN030 19/09 A3019 RMK AO2 $=
200706301753 METAR KSEA 301753Z 00000KT 10SM BKN027 18/09 A3019 RMK AO2 SLP230 T01780094 10178 20106 56004 $=
200706301743 SPECI KSEA 301743Z 29003KT 10SM BKN027 17/09 A3019 RMK AO2 $=
200706301743 SPECI KSEA 301743Z 29003KT 10SM BKN027 17/09 A3019 RMK AO2 $=
200706301653 METAR KSEA 301653Z 27003KT 10SM SCT025 16/11 A3020 RMK AO2 SLP230 T01560106 $=
200706301553 METAR KSEA 301553Z 00000KT 10SM SCT020 16/10 A3020 RMK AO2 SLP232 T01610100 $=
200706301453 METAR KSEA 301453Z 16005KT 10SM FEW065 14/09 A3021 RMK AO2 SLP234 T01390094 51006 $=
200706301353 METAR KSEA 301353Z 13004KT 10SM SCT065 13/10 A3020 RMK AO2 SLP232 T01280100 $=
200706301253 METAR KSEA 301253Z 15003KT 10SM FEW065 11/09 A3020 RMK AO2 SLP232 T01060094 $=
200706301153 METAR KSEA 301153Z 12004KT 10SM FEW044 SCT065 SCT100 11/09 A3019 RMK AO2 SLP229 70010 T01110094 10128 20106 50001 $=
200706301053 METAR KSEA 301053Z 11003KT 10SM BKN065 BKN100 11/10 A3019 RMK AO2 SLP230 T01110100 $=
200706300953 METAR KSEA 300953Z 15006KT 10SM CLR 12/09 A3019 RMK AO2 SLP228 T01170094 $=
200706300853 METAR KSEA 300853Z 16005KT 10SM BKN060 11/09 A3018 RMK AO2 SLP228 T01110089 53003 $=
200706300838 SPECI KSEA 300838Z 17004KT 10SM SCT001 11/09 A3018 RMK AO2 $=
200706300838 SPECI KSEA 300838Z 17004KT 10SM SCT001 11/09 A3018 RMK AO2 $=
200706300753 METAR KSEA 300753Z 20005KT 10SM FEW070 12/09 A3018 RMK AO2 SLP225 T01170094 401940111 $=
200706300653 METAR KSEA 300653Z 21004KT 10SM FEW043 SCT070 12/09 A3018 RMK AO2 SLP224 T01220094 $=
200706300553 METAR KSEA 300553Z 21004KT 10SM FEW043 SCT070 13/09 A3018 RMK AO2 SLP224 60002 T01280094 10167 20128 51020 $=
200706300453 METAR KSEA 300453Z 19005KT 10SM FEW035 SCT070 13/10 A3016 RMK AO2 SLP219 T01330100 $=
200706300353 METAR KSEA 300353Z 21006KT 10SM FEW035 SCT060 SCT100 14/09 A3013 RMK AO2 SLP209 T01440094=
200706300253 METAR KSEA 300253Z 18006KT 10SM FEW037 SCT060 BKN100 16/11 A3012 RMK AO2 SLP204 60002 T01560106 51009=
200706300153 METAR KSEA 300153Z 16007KT 10SM FEW015 BKN037 BKN070 16/11 A3011 RMK AO2 RAB0054E06B28E53 SLP201 P0000 T01560111=
200706300126 SPECI KSEA 300126Z 18008KT 10SM SCT013 BKN020 BKN055 16/11 A3011 RMK AO2 RAB0054E06 P0000=
200706300126 SPECI KSEA 300126Z 18008KT 10SM SCT013 BKN020 BKN055 16/11 A3011 RMK AO2 RAB0054E06 P0000=
200706300053 METAR KSEA 300053Z 17008KT 10SM FEW015 SCT035 BKN075 16/12 A3010 RMK AO2 RAE17 SLP200 P0002 T01560122=
200706292353 METAR KSEA 292353Z 15010KT 7SM RA SCT014 BKN060 OVC085 14/13 A3009 RMK AO2 RAB46 SLP196 P0001 60008 T01440128 10194 20133 53021=
200706292253 METAR KSEA 292253Z 15013KT 10SM SCT025 BKN085 BKN130 16/12 A3006 RMK AO2 RAB41E50 SLP186 P0000 T01610117=
200706292153 METAR KSEA 292153Z 20009KT 10SM SCT024 SCT065 BKN095 15/12 A3004 RMK AO2 RAB07E51 SLP178 VCSH N-E-S P0004 T01500122=
200706292127 SPECI KSEA 292127Z 19010KT 8SM -RA BKN024 BKN050 14/11 A3004 RMK AO2 RAB07 P0002=
200706292127 SPECI KSEA 292127Z 19010KT 8SM -RA BKN024 BKN050 14/11 A3004 RMK AO2 RAB07 P0002=
200706292053 METAR KSEA 292053Z 22010KT 10SM SCT024 BKN040 BKN055 16/12 A3003 RMK AO2 RAE06 SLP173 VCSH SE-SW P0001 60003 T01610117 53013=
200706291953 METAR KSEA 291953Z 25007KT 7SM -RA SCT028 BKN034 BKN055 14/12 A3001 RMK AO2 WSHFT 1917 RAB36 SLP169 P0002 T01440117=
200706291944 SPECI KSEA 291944Z 26008G16KT 7SM -RA BKN028 BKN042 BKN055 14/12 A3002 RMK AO2 WSHFT 1917 RAB36 P0001=
200706291944 SPECI KSEA 291944Z 26008G16KT 7SM -RA BKN028 BKN042 BKN055 14/12 A3002 RMK AO2 WSHFT 1917 RAB36 P0001=
200706291937 SPECI KSEA 291937Z 28009G17KT 9SM -RA SCT028 BKN042 BKN080 15/11 A3001 RMK AO2 WSHFT 1917 RAB36 CB SW-W MOV NE P0000=
200706291937 SPECI KSEA 291937Z 28009G17KT 9SM -RA SCT028 BKN042 BKN080 15/11 A3001 RMK AO2 WSHFT 1917 RAB36 CB SW-W MOV NE P0000=
200706291853 METAR KSEA 291853Z 21008KT 10SM FEW020 BKN065 BKN110 18/13 A2999 RMK AO2 RAE15 SLP161 P0000 T01830128=
200706291753 METAR KSEA 291753Z 21006KT 10SM -RA FEW020 BKN060 BKN110 16/13 A2999 RMK AO2 RAB51 SLP160 P0000 60000 T01610128 10172 20117 53008 $=
200706291653 METAR KSEA 291653Z 21006KT 10SM FEW018 BKN070 OVC110 17/12 A2998 RMK AO2 SLP156 SH DSNT S T01670122=
200706291553 METAR KSEA 291553Z 19007KT 10SM FEW017 BKN085 BKN120 16/11 A2997 RMK AO2 SLP155 T01610111=
200706291453 METAR KSEA 291453Z 17004KT 10SM FEW015 BKN085 BKN120 15/11 A2996 RMK AO2 SLP151 T01500111 50004=
200706291353 METAR KSEA 291353Z 15005KT 10SM FEW019 BKN070 BKN110 14/12 A2996 RMK AO2 SLP152 T01390117 $=
200706291253 METAR KSEA 291253Z 15003KT 10SM BKN060 12/11 A2996 RMK AO2 SLP150 T01220111 $=
200706291153 METAR KSEA 291153Z 15004KT 10SM FEW040 SCT200 12/11 A2995 RMK AO2 SLP147 60006 70030 T01170106 10150 20117 58000 $=
200706291053 METAR KSEA 291053Z 16005KT 10SM SCT041 12/11 A2995 RMK AO2 SLP147 T01220106 $=
200706291041 SPECI KSEA 291041Z 19004KT 10SM SCT041 13/11 A2995 RMK AO2 $=
200706291041 SPECI KSEA 291041Z 19004KT 10SM SCT041 13/11 A2995 RMK AO2 $=
200706291006 SPECI KSEA 291006Z 19006KT 10SM BKN019 OVC048 13/11 A2996 RMK AO2 $=
200706291006 SPECI KSEA 291006Z 19006KT 10SM BKN019 OVC048 13/11 A2996 RMK AO2 $=
200706290953 METAR KSEA 290953Z 19005KT 10SM SCT019 OVC048 13/12 A2996 RMK AO2 SLP149 T01280117 $=
200706290931 SPECI KSEA 290931Z 19006KT 10SM FEW021 OVC048 13/12 A2996 RMK AO2 $=
200706290931 SPECI KSEA 290931Z 19006KT 10SM FEW021 OVC048 13/12 A2996 RMK AO2 $=
200706290853 METAR KSEA 290853Z 21007KT 10SM BKN019 OVC060 13/12 A2995 RMK AO2 SLP148 60006 T01330117 53001 $=
200706290843 SPECI KSEA 290843Z 21007KT 10SM BKN019 OVC060 14/12 A2995 RMK AO2=
200706290843 SPECI KSEA 290843Z 21007KT 10SM BKN019 OVC060 14/12 A2995 RMK AO2=
200706290753 METAR KSEA 290753Z 22007KT 10SM FEW009 SCT035 BKN110 14/13 A2995 RMK AO2 SLP146 T01390128 402110139=
200706290723 SPECI KSEA 290723Z 24008KT 10SM FEW009 BKN031 BKN085 14/13 A2994 RMK AO2=
200706290723 SPECI KSEA 290723Z 24008KT 10SM FEW009 BKN031 BKN085 14/13 A2994 RMK AO2=
200706290653 METAR KSEA 290653Z 24007KT 10SM FEW009 BKN028 OVC100 14/13 A2995 RMK AO2 RAE13 SLP146 P0006 T01440133=
200706290642 SPECI KSEA 290642Z 24008KT 10SM SCT009 BKN026 OVC100 14/13 A2995 RMK AO2 RAE13 P0006=
200706290642 SPECI KSEA 290642Z 24008KT 10SM SCT009 BKN026 OVC100 14/13 A2995 RMK AO2 RAE13 P0006=
200706290621 SPECI KSEA 290621Z 24007KT 10SM BKN009 BKN017 OVC034 15/14 A2994 RMK AO2 RAE13 P0006=
200706290621 SPECI KSEA 290621Z 24007KT 10SM BKN009 BKN017 OVC034 15/14 A2994 RMK AO2 RAE13 P0006=
200706290553 METAR KSEA 290553Z 22007KT 4SM -RA BR FEW007 SCT012 OVC017 15/14 A2995 RMK AO2 SLP147 P0011 60018 T01500139 10200 20150 53004=
200706290536 SPECI KSEA 290536Z 27007KT 6SM -RA BR SCT007 SCT011 OVC018 16/14 A2994 RMK AO2 P0008=
200706290536 SPECI KSEA 290536Z 27007KT 6SM -RA BR SCT007 SCT011 OVC018 16/14 A2994 RMK AO2 P0008=
200706290517 SPECI KSEA 290517Z 21004KT 7SM -RA SCT015 BKN025 OVC075 16/15 A2994 RMK AO2 P0004=
200706290517 SPECI KSEA 290517Z 21004KT 7SM -RA SCT015 BKN025 OVC075 16/15 A2994 RMK AO2 P0004=
200706290453 METAR KSEA 290453Z 28004KT 10SM -RA FEW020 BKN065 OVC090 17/16 A2993 RMK AO2 RAB37 SLP141 P0000 T01670156=
200706290353 METAR KSEA 290353Z 00000KT 10SM FEW015 SCT045 BKN085 18/15 A2993 RMK AO2 RAB01E21 SLP141 P0001 T01780150=
200706290253 METAR KSEA 290253Z 17003KT 10SM FEW020 SCT050 BKN100 17/14 A2994 RMK AO2 SLP143 60006 T01720144 50001=
200706290153 METAR KSEA 290153Z 21005KT 10SM FEW020 SCT050 BKN100 BKN200 18/14 A2994 RMK AO2 RAE32 SLP143 P0002 T01780144 $=
200706290103 SPECI KSEA 290103Z 22004KT 4SM -RA BR SCT021 BKN032 OVC070 17/16 A2993 RMK AO2 P0002=
200706290103 SPECI KSEA 290103Z 22004KT 4SM -RA BR SCT021 BKN032 OVC070 17/16 A2993 RMK AO2 P0002=
200706290053 METAR KSEA 290053Z 24005KT 4SM -RA BR SCT021 BKN032 OVC070 17/15 A2994 RMK AO2 RAB38 SLP143 P0004 T01720150=
200706282353 METAR KSEA 282353Z 27005KT 10SM FEW015 BKN055 BKN140 20/14 A2993 RMK AO2 SLP142 60005 T02000144 10211 20167 58010=
200706282253 METAR KSEA 282253Z VRB04KT 10SM FEW015 BKN041 BKN120 BKN200 20/14 A2995 RMK AO2 RAE23 SLP145 P0000 T02000144=
200706282153 METAR KSEA 282153Z 21005KT 10SM -RA FEW020 SCT050 BKN120 BKN200 18/15 A2996 RMK AO2 SLP151 P0003 T01780150=
200706282053 METAR KSEA 282053Z 22005KT 7SM -RA SCT016 BKN050 OVC120 17/14 A2997 RMK AO2 SLP152 P0002 60002 T01670144 53007=
200706282033 SPECI KSEA 282033Z 22007KT 7SM -RA BKN016 BKN060 OVC120 17/14 A2996 RMK AO2 P0002=
200706282033 SPECI KSEA 282033Z 22007KT 7SM -RA BKN016 BKN060 OVC120 17/14 A2996 RMK AO2 P0002=
200706281953 METAR KSEA 281953Z 25007KT 10SM -RA FEW026 SCT085 BKN180 18/13 A2995 RMK AO2 RAB39 SLP148 P0000 T01830133=
200706281853 METAR KSEA 281853Z 23007KT 10SM FEW026 BKN085 BKN180 19/12 A2995 RMK AO2 SLP145 T01940117=
200706281753 METAR KSEA 281753Z 00000KT 10SM FEW020 SCT095 BKN200 18/12 A2995 RMK AO2 RAE03 SLP145 P0000 60001 T01780122 10183 20144 58004=
200706281653 METAR KSEA 281653Z 00000KT 10SM -RA FEW040 BKN095 OVC150 16/12 A2995 RMK AO2 SLP146 P0001 T01610122=
200706281553 METAR KSEA 281553Z 21003KT 10SM -RA FEW050 BKN095 OVC150 16/11 A2996 RMK AO2 RAB01 SLP150 P0000 T01610106=
200706281453 METAR KSEA 281453Z 25003KT 10SM FEW060 BKN095 OVC180 16/11 A2996 RMK AO2 SLP149 T01610106 50000=
200706281353 METAR KSEA 281353Z 00000KT 10SM BKN090 OVC200 16/11 A2996 RMK AO2 SLP150 T01560106=
200706281253 METAR KSEA 281253Z 00000KT 10SM FEW075 OVC095 15/09 A2996 RMK AO2 SLP150 T01500094=
200706281153 METAR KSEA 281153Z 29003KT 10SM FEW120 OVC200 14/10 A2996 RMK AO2 SLP149 60000 T01440100 10183 20144 56004=
200706281053 METAR KSEA 281053Z 24003KT 10SM FEW110 OVC200 15/10 A2996 RMK AO2 RAB29E38 SLP149 P0000 T01500100=
200706280953 METAR KSEA 280953Z 24003KT 10SM SCT070 BKN100 16/11 A2996 RMK AO2 RAB36E53 SLP150 P0000 T01560106=
200706280853 METAR KSEA 280853Z 19007KT 10SM SCT100 OVC200 16/10 A2997 RMK AO2 SLP153 T01560100 55002=
200706280753 METAR KSEA 280753Z 18005KT 10SM FEW110 OVC200 16/09 A2997 RMK AO2 SLP152 T01610094 402330117=
200706280653 METAR KSEA 280653Z 18003KT 10SM OVC200 17/08 A2997 RMK AO2 SLP153 T01720083=
200706280553 METAR KSEA 280553Z 00000KT 10SM SCT120 OVC180 18/07 A2998 RMK AO2 SLP155 T01830072 10233 20183 53004=
200706280453 METAR KSEA 280453Z 00000KT 10SM BKN140 OVC200 18/06 A2998 RMK AO2 SLP155 T01830061=
200706280353 METAR KSEA 280353Z 24004KT 10SM BKN140 OVC200 20/05 A2996 RMK AO2 SLP150 T02000050=
200706280253 METAR KSEA 280253Z 00000KT 10SM SCT140 OVC200 21/04 A2996 RMK AO2 SLP152 T02060039 56018=
200706280153 METAR KSEA 280153Z 30003KT 10SM FEW140 SCT160 OVC200 22/04 A2997 RMK AO2 SLP153 T02170039=
200706280053 METAR KSEA 280053Z 20003KT 10SM SCT140 BKN180 BKN220 22/02 A2999 RMK AO2 SLP161 T02220017=
200706272353 METAR KSEA 272353Z 19005KT 10SM SCT140 OVC220 22/04 A3002 RMK AO2 SLP170 T02220044 10228 20172 57017=
200706272253 METAR KSEA 272253Z VRB03KT 10SM SCT160 OVC220 22/04 A3003 RMK AO2 SLP175 T02170044=
200706272153 METAR KSEA 272153Z 24003KT 10SM SCT180 OVC220 21/06 A3005 RMK AO2 SLP182 T02060056=
200706272053 METAR KSEA 272053Z 23005KT 10SM FEW160 BKN220 21/06 A3007 RMK AO2 SLP186 T02110061 58013=
200706271953 METAR KSEA 271953Z 27007KT 10SM FEW160 BKN220 21/07 A3008 RMK AO2 SLP191 T02110072=
200706271853 METAR KSEA 271853Z 23005KT 10SM SCT160 OVC220 19/07 A3010 RMK AO2 SLP196 T01890067=
200706271753 METAR KSEA 271753Z VRB05KT 10SM FEW160 OVC220 18/08 A3011 RMK AO2 SLP200 T01780078 10183 20117 58009=
200706271653 METAR KSEA 271653Z 23005KT 10SM FEW020 OVC220 17/07 A3012 RMK AO2 SLP203 T01670072=
200706271553 METAR KSEA 271553Z 18005KT 10SM FEW020 SCT160 OVC220 16/07 A3013 RMK AO2 SLP206 T01560072=
200706271453 METAR KSEA 271453Z 19006KT 10SM FEW150 SCT180 OVC220 14/08 A3013 RMK AO2 SLP209 T01390078 51010 $=
200706271353 METAR KSEA 271353Z 19005KT 10SM FEW120 BKN180 OVC220 13/08 A3013 RMK AO2 SLP206 T01280078=
200706271253 METAR KSEA 271253Z 17006KT 10SM FEW120 BKN170 OVC200 12/07 A3011 RMK AO2 SLP202 T01220072=
200706271153 METAR KSEA 271153Z 17006KT 10SM FEW120 SCT200 12/07 A3010 RMK AO2 SLP198 7//// T01220072 10178 20122 51007=
200706271053 METAR KSEA 271053Z 18005KT 10SM FEW200 13/07 A3009 RMK AO2 SLP195 T01330072=
200706270953 METAR KSEA 270953Z 20006KT 10SM FEW120 SCT200 14/07 A3009 RMK AO2 SLP193 T01390067=
200706270853 METAR KSEA 270853Z 18005KT 10SM SCT150 BKN200 14/07 A3008 RMK AO2 SLP190 T01390067 51009=
200706270753 METAR KSEA 270753Z 17005KT 10SM FEW120 SCT150 SCT200 14/07 A3007 RMK AO2 SLP188 T01440067 402780106=
200706270653 METAR KSEA 270653Z 22004KT 10SM FEW120 SCT150 BKN200 16/08 A3007 RMK AO2 SLP186 T01610078=
200706270553 METAR KSEA 270553Z 00000KT 10SM SCT120 BKN200 18/08 A3005 RMK AO2 SLP181 T01780083 10267 20178 51030=
200706270453 METAR KSEA 270453Z 24004KT 10SM FEW120 BKN250 18/09 A3003 RMK AO2 SLP173 T01830089=
200706270353 METAR KSEA 270353Z 23007KT 10SM FEW120 OVC250 19/09 A3000 RMK AO2 SLP161 T01940094=
200706270253 METAR KSEA 270253Z 35007KT 10SM FEW100 OVC250 23/07 A2996 RMK AO2 SLP151 T02280072 53002=
200706270153 METAR KSEA 270153Z 30006KT 10SM FEW100 OVC250 24/08 A2995 RMK AO2 SLP148 T02440083=
200706270053 METAR KSEA 270053Z 31009KT 10SM FEW120 OVC250 26/08 A2995 RMK AO2 SLP146 T02610078=
200706262353 METAR KSEA 262353Z 32007KT 10SM FEW120 OVC250 26/08 A2996 RMK AO2 SLP149 T02560078 10278 20206=
200706262253 METAR KSEA 262253Z 30011KT 10SM FEW100 BKN250 27/08 A2997 RMK AO2 SLP154 T02670078=
200706262153 METAR KSEA 262153Z 31010KT 10SM FEW180 BKN250 26/08 A2999 RMK AO2 SLP161 T02610083 $=
200706262053 METAR KSEA 262053Z 30009KT 10SM FEW180 BKN250 27/09 A3002 RMK AO2 SLP169 T02670089 $=
200706261953 METAR KSEA 261953Z 31007KT 10SM FEW180 SCT250 24/08 A3004 RMK AO2 SLP178 T02390078 $=
200706261853 METAR KSEA 261853Z 30008KT 10SM FEW200 22/09 A3007 RMK AO2 SLP188 T02220094=
200706261753 METAR KSEA 261753Z 31004KT 10SM FEW200 21/09 A3009 RMK AO2 SLP194 T02060089 10206 20106 58015=
200706261653 METAR KSEA 261653Z 35007KT 10SM FEW200 18/08 A3012 RMK AO2 SLP204 T01780078 $=
200706261553 METAR KSEA 261553Z 01007KT 10SM FEW200 16/08 A3013 RMK AO2 SLP210 T01610078 $=
200706261453 METAR KSEA 261453Z 34006KT 10SM CLR 14/08 A3014 RMK AO2 SLP211 T01390078 56006=
200706261353 METAR KSEA 261353Z 01009KT 10SM FEW200 12/08 A3014 RMK AO2 SLP212 T01220078=
200706261253 METAR KSEA 261253Z 36005KT 10SM FEW200 11/08 A3015 RMK AO2 SLP215 T01060078 $=
200706261153 METAR KSEA 261153Z 01005KT 10SM FEW200 11/07 A3016 RMK AO2 SLP217 T01060067 10150 20106 56010 $=
200706261053 METAR KSEA 261053Z 02003KT 10SM FEW200 11/07 A3016 RMK AO2 SLP218 T01110067 $=
200706260953 METAR KSEA 260953Z 03006KT 10SM FEW200 12/06 A3017 RMK AO2 SLP221 T01220061 $=
200706260853 METAR KSEA 260853Z 34006KT 10SM FEW200 13/07 A3019 RMK AO2 SLP227 T01280067 58018 $=
200706260753 METAR KSEA 260753Z 02009KT 10SM FEW200 14/06 A3020 RMK AO2 SLP234 T01390056 402060083 $=
200706260653 METAR KSEA 260653Z 03010KT 10SM FEW200 15/06 A3023 RMK AO2 SLP241 T01500056 $=
200706260553 METAR KSEA 260553Z 02009KT 10SM FEW200 15/06 A3024 RMK AO2 SLP246 T01500056 10200 20150 56004 $=
200706260453 METAR KSEA 260453Z 36006KT 10SM FEW200 15/05 A3024 RMK AO2 SLP246 T01500050 $=
200706260353 METAR KSEA 260353Z 33005KT 10SM FEW120 SCT200 17/05 A3024 RMK AO2 SLP246 T01670050 $=
200706260253 METAR KSEA 260253Z 33008KT 10SM BKN200 18/05 A3025 RMK AO2 SLP250 T01780050 58012 $=
200706260153 METAR KSEA 260153Z 30008KT 10SM FEW060 SCT210 19/05 A3026 RMK AO2 SLP253 T01940050 $=
200706260053 METAR KSEA 260053Z 29006KT 10SM FEW060 SCT210 19/04 A3028 RMK AO2 SLP259 T01940039 $=
200706252353 METAR KSEA 252353Z 25007KT 10SM FEW060 SCT210 19/04 A3029 RMK AO2 SLP262 T01940044 10206 20150 58012 $=
200706252253 METAR KSEA 252253Z 24008G15KT 10SM FEW040 SCT210 20/04 A3030 RMK AO2 SLP266 T02000044 $=
200706252153 METAR KSEA 252153Z VRB03KT 10SM FEW040 19/04 A3031 RMK AO2 SLP272 T01890039 $=
200706252053 METAR KSEA 252053Z 28005KT 10SM FEW040 18/05 A3032 RMK AO2 SLP275 T01830050 50007=
200706251953 METAR KSEA 251953Z 18008KT 10SM FEW035 SCT050 17/05 A3032 RMK AO2 SLP275 T01720050=
200706251853 METAR KSEA 251853Z 18006KT 10SM FEW028 SCT035 16/06 A3032 RMK AO2 SLP273 T01560061=
200706251753 METAR KSEA 251753Z 22006KT 10SM SCT025 16/08 A3030 RMK AO2 SLP268 T01560078 10156 20089 51012 $=
200706251653 METAR KSEA 251653Z 18007KT 10SM SCT020 14/08 A3029 RMK AO2 SLP265 T01390078 $=
200706251553 METAR KSEA 251553Z 20009KT 10SM FEW020 SCT035 13/08 A3028 RMK AO2 SLP260 T01280083=
200706251453 METAR KSEA 251453Z 21005KT 10SM SCT020 BKN035 BKN100 11/08 A3027 RMK AO2 SLP256 T01110078 51021=
200706251411 SPECI KSEA 251411Z 21005KT 10SM FEW020 SCT060 11/08 A3025 RMK AO2=
200706251411 SPECI KSEA 251411Z 21005KT 10SM FEW020 SCT060 11/08 A3025 RMK AO2=
200706251353 METAR KSEA 251353Z 21005KT 10SM BKN020 BKN060 10/08 A3025 RMK AO2 SLP250 T01000078=
200706251308 SPECI KSEA 251308Z 22007KT 10SM BKN017 BKN060 OVC200 09/07 A3023 RMK AO2 $=
200706251308 SPECI KSEA 251308Z 22007KT 10SM BKN017 BKN060 OVC200 09/07 A3023 RMK AO2 $=
200706251253 METAR KSEA 251253Z 21005KT 10SM SCT017 BKN100 09/07 A3022 RMK AO2 SLP242 T00940072 $=
200706251153 METAR KSEA 251153Z 18008KT 10SM OVC019 09/07 A3020 RMK AO2 SLP235 70018 T00940072 10111 20083 53015 $=
200706251053 METAR KSEA 251053Z 18007KT 10SM SCT020 BKN100 09/07 A3019 RMK AO2 SLP230 T00890067 $=
200706250953 METAR KSEA 250953Z 18005KT 10SM SCT020 BKN100 09/07 A3017 RMK AO2 SLP223 T00890072 $=
200706250853 METAR KSEA 250853Z 18004KT 10SM BKN020 BKN075 09/07 A3016 RMK AO2 SLP220 T00890072 53013 $=
200706250753 METAR KSEA 250753Z 19006KT 10SM SCT020 BKN100 10/08 A3014 RMK AO2 SLP213 T01000078 401500100 $=
200706250653 METAR KSEA 250653Z 20008KT 10SM SCT200 11/07 A3013 RMK AO2 SLP210 T01060072 $=
200706250553 METAR KSEA 250553Z 21010KT 10SM FEW060 SCT200 11/08 A3012 RMK AO2 SLP207 60008 T01110078 10144 20111 51016 $=
200706250453 METAR KSEA 250453Z 20008KT 10SM FEW020 SCT100 BKN200 12/08 A3011 RMK AO2 SLP203 T01170083 $=
200706250353 METAR KSEA 250353Z 20007KT 10SM FEW020 SCT100 OVC200 12/08 A3009 RMK AO2 SLP197 T01220078 $=
200706250253 METAR KSEA 250253Z 19006KT 10SM SCT090 BKN200 13/09 A3008 RMK AO2 RAB15E26 SLP191 P0000 60008 T01280089 51006 $=
200706250153 METAR KSEA 250153Z 15009KT 10SM FEW020 SCT035 BKN055 12/08 A3007 RMK AO2 RAE07 SLP190 P0000 T01220083 $=
200706250053 METAR KSEA 250053Z 19007KT 10SM -RA SCT012 BKN031 BKN050 12/08 A3007 RMK AO2 RAB24PLB26E31 SLP188 P0008 T01170078 $=
200706242353 METAR KSEA 242353Z 19008KT 10SM FEW015 BKN055 BKN095 14/10 A3006 RMK AO2 RAE29 SLP185 P0002 60005 T01390100 10150 20117 53005 $=
200706242253 METAR KSEA 242253Z 19007KT 10SM -RA SCT028 BKN055 BKN070 13/07 A3005 RMK AO2 RAB51 SLP182 CB DSNT S MOV NE P0000 T01280072 $=
200706242153 METAR KSEA 242153Z 19009KT 10SM SCT029 BKN042 BKN060 13/09 A3005 RMK AO2 RAE39 SLP181 P0002 T01330089 $=
200706242142 SPECI KSEA 242142Z 18009KT 10SM BKN031 BKN042 BKN055 13/08 A3004 RMK AO2 RAE39 P0002 $=
200706242142 SPECI KSEA 242142Z 18009KT 10SM BKN031 BKN042 BKN055 13/08 A3004 RMK AO2 RAE39 P0002 $=
200706242126 SPECI KSEA 242126Z 19011KT 10SM -RA BKN028 BKN042 BKN055 12/08 A3004 RMK AO2 P0002 $=
200706242126 SPECI KSEA 242126Z 19011KT 10SM -RA BKN028 BKN042 BKN055 12/08 A3004 RMK AO2 P0002 $=
200706242053 METAR KSEA 242053Z 21013G21KT 10SM -RA SCT029 BKN039 BKN050 12/09 A3004 RMK AO2 RAB33 SLP180 P0001 60001 T01220089 53008 $=
200706241953 METAR KSEA 241953Z 23010KT 10SM SCT019 BKN065 15/10 A3002 RMK AO2 SLP173 SHRA SW AND NW T01500100 $=
200706241853 METAR KSEA 241853Z 19008KT 10SM SCT016 BKN032 BKN047 13/10 A3003 RMK AO2 RAB20E42 SLP174 P0000 T01280100 $=
200706241753 METAR KSEA 241753Z 19009KT 10SM FEW011 SCT022 BKN070 14/10 A3002 RMK AO2 RAE18 SLP172 P0000 60005 T01390100 10139 20100 56001 $=
200706241740 SPECI KSEA 241740Z 19010KT 10SM SCT011 BKN020 BKN065 13/09 A3002 RMK AO2 RAE18 P0000 $=
200706241740 SPECI KSEA 241740Z 19010KT 10SM SCT011 BKN020 BKN065 13/09 A3002 RMK AO2 RAE18 P0000 $=
200706241653 METAR KSEA 241653Z 19007KT 10SM -RA SCT011 BKN015 OVC050 12/10 A3002 RMK AO2 SLP173 P0001 T01170100 $=
200706241621 SPECI KSEA 241621Z 18008KT 10SM -RA FEW009 BKN015 OVC050 12/10 A3002 RMK AO2 P0000 $=
200706241621 SPECI KSEA 241621Z 18008KT 10SM -RA FEW009 BKN015 OVC050 12/10 A3002 RMK AO2 P0000 $=
200706241608 SPECI KSEA 241608Z 18009KT 9SM -RA BKN009 BKN015 OVC048 12/09 A3002 RMK AO2 P0000 $=
200706241608 SPECI KSEA 241608Z 18009KT 9SM -RA BKN009 BKN015 OVC048 12/09 A3002 RMK AO2 P0000 $=
200706241553 METAR KSEA 241553Z 18006KT 10SM -RA BKN014 BKN029 OVC048 11/09 A3002 RMK AO2 RAB39 SLP173 P0000 T01110094 $=
200706241543 SPECI KSEA 241543Z 17007KT 10SM -RA FEW012 BKN029 OVC048 12/09 A3002 RMK AO2 RAB39 P0000 $=
200706241543 SPECI KSEA 241543Z 17007KT 10SM -RA FEW012 BKN029 OVC048 12/09 A3002 RMK AO2 RAB39 P0000 $=
200706241453 METAR KSEA 241453Z 15008KT 10SM FEW006 SCT030 BKN055 11/09 A3002 RMK AO2 SLP170 60004 T01110094 52003 $=
200706241403 SPECI KSEA 241403Z 15007KT 10SM FEW006 SCT027 BKN050 11/09 A3001 RMK AO2 $=
200706241403 SPECI KSEA 241403Z 15007KT 10SM FEW006 SCT027 BKN050 11/09 A3001 RMK AO2 $=
200706241353 METAR KSEA 241353Z 15006KT 10SM FEW006 BKN027 BKN060 11/09 A3001 RMK AO2 RAB10E44 SLP170 P0001 T01060094 $=
200706241333 SPECI KSEA 241333Z 16004KT 10SM -RA FEW006 SCT024 OVC029 11/09 A3001 RMK AO2 RAB10 P0001 $=
200706241333 SPECI KSEA 241333Z 16004KT 10SM -RA FEW006 SCT024 OVC029 11/09 A3001 RMK AO2 RAB10 P0001 $=
200706241316 SPECI KSEA 241316Z 16005KT 10SM -RA FEW006 SCT024 OVC060 11/09 A3001 RMK AO2 RAB10 P0000 $=
200706241316 SPECI KSEA 241316Z 16005KT 10SM -RA FEW006 SCT024 OVC060 11/09 A3001 RMK AO2 RAB10 P0000 $=
200706241253 METAR KSEA 241253Z 16007KT 10SM FEW035 OVC065 11/09 A3001 RMK AO2 RAE39 SLP168 P0003 T01060094 $=
200706241153 METAR KSEA 241153Z 21006KT 9SM -RA BKN049 OVC060 11/09 A3001 RMK AO2 SLP166 P0013 60020 70020 T01060094 10128 20100 53001 $=
200706241053 METAR KSEA 241053Z 20007KT 6SM RA BR SCT050 OVC060 11/09 A3001 RMK AO2 RAB0957 SLP166 P0007 T01060094=
200706240953 METAR KSEA 240953Z 14004KT 10SM SCT055 BKN070 OVC110 12/07 A3000 RMK AO2 SLP163 T01220067=
200706240853 METAR KSEA 240853Z 17005KT 10SM FEW065 OVC110 12/07 A3000 RMK AO2 SLP165 T01220072 58003=
200706240753 METAR KSEA 240753Z 21010KT 10SM OVC100 12/07 A3001 RMK AO2 SLP167 T01220072 402110111=
200706240653 METAR KSEA 240653Z 21008KT 10SM SCT200 12/07 A3001 RMK AO2 SLP169 T01220072=
200706240553 METAR KSEA 240553Z 22007KT 10SM SCT200 13/06 A3001 RMK AO2 SLP168 T01280061 10194 20128 50003=
200706240453 METAR KSEA 240453Z 24006KT 10SM FEW044 SCT120 BKN200 14/06 A3001 RMK AO2 SLP168 T01390061=
200706240353 METAR KSEA 240353Z 25007KT 10SM FEW046 BKN060 16/06 A3001 RMK AO2 SLP166 T01560061=
200706240253 METAR KSEA 240253Z 21006KT 10SM FEW045 SCT110 16/07 A3000 RMK AO2 SLP165 T01610067 56008=
200706240153 METAR KSEA 240153Z 23010KT 10SM FEW045 SCT090 SCT200 17/07 A3001 RMK AO2 SLP168 T01670067=
200706240053 METAR KSEA 240053Z 22010KT 10SM FEW045 BKN090 BKN200 17/07 A3002 RMK AO2 SLP170 T01720072=
200706232353 METAR KSEA 232353Z 24014G20KT 10SM SCT047 BKN085 BKN200 18/06 A3003 RMK AO2 SLP173 T01830061 10211 20167 56007=
200706232253 METAR KSEA 232253Z 28008G15KT 10SM FEW030 SCT080 BKN180 BKN250 21/07 A3003 RMK AO2 SLP175 T02060067=
200706232153 METAR KSEA 232153Z 23009KT 10SM FEW030 SCT070 BKN180 20/06 A3004 RMK AO2 SLP177 T02000056=
200706232053 METAR KSEA 232053Z 23009G14KT 10SM FEW030 SCT070 BKN180 20/05 A3005 RMK AO2 SLP181 T02000050 56009=
200706231953 METAR KSEA 231953Z VRB05KT 10SM SCT030 SCT080 BKN180 19/04 A3005 RMK AO2 SLP181 T01940039=
200706231853 METAR KSEA 231853Z VRB06KT 10SM FEW027 BKN070 BKN180 18/07 A3007 RMK AO2 SLP186 T01830067=
200706231753 METAR KSEA 231753Z VRB04KT 10SM SCT023 BKN070 BKN130 OVC160 17/08 A3008 RMK AO2 SLP190 T01670078 10178 20111 58009=
200706231653 METAR KSEA 231653Z 19005KT 10SM SCT023 BKN070 OVC130 16/08 A3009 RMK AO2 SLP195 T01560078=
200706231553 METAR KSEA 231553Z 19006KT 10SM FEW030 OVC070 13/08 A3010 RMK AO2 SLP199 T01330083=
200706231453 METAR KSEA 231453Z 19007KT 10SM FEW047 OVC065 13/08 A3010 RMK AO2 SLP199 T01330083 55004=
200706231353 METAR KSEA 231353Z 17004KT 10SM FEW020 BKN065 12/08 A3010 RMK AO2 SLP199 T01220083=
200706231253 METAR KSEA 231253Z 17003KT 10SM FEW020 BKN070 11/08 A3011 RMK AO2 SLP201 T01110083=
200706231153 METAR KSEA 231153Z 20006KT 10SM FEW026 BKN070 OVC080 12/08 A3012 RMK AO2 SLP203 T01170078 10128 20117 51001=
200706231053 METAR KSEA 231053Z 19006KT 10SM BKN075 12/08 A3012 RMK AO2 SLP203 T01220078=
200706230953 METAR KSEA 230953Z 22005KT 10SM OVC070 12/08 A3011 RMK AO2 SLP203 T01220083=
200706230853 METAR KSEA 230853Z 22007KT 10SM BKN075 12/08 A3011 RMK AO2 SLP202 T01220078 58003=
200706230753 METAR KSEA 230753Z 21008KT 10SM SCT075 12/07 A3012 RMK AO2 SLP203 T01220072 402000122=
200706230653 METAR KSEA 230653Z 19007KT 10SM FEW050 BKN075 12/08 A3012 RMK AO2 SLP204 T01220078=
200706230553 METAR KSEA 230553Z 19005KT 10SM FEW050 SCT070 13/07 A3012 RMK AO2 SLP205 T01280072 10189 20122 50009=
200706230453 METAR KSEA 230453Z 21005KT 10SM FEW050 SCT080 13/07 A3012 RMK AO2 SLP206 T01330067=
200706230353 METAR KSEA 230353Z 21004KT 10SM FEW050 SCT090 14/05 A3010 RMK AO2 SLP200 T01440050=
200706230253 METAR KSEA 230253Z 23008KT 10SM FEW050 SCT090 17/05 A3010 RMK AO2 SLP196 T01670050 56003=
200706230153 METAR KSEA 230153Z 22010KT 10SM FEW045 BKN090 18/06 A3010 RMK AO2 SLP197 T01780061=
200706230053 METAR KSEA 230053Z 19010KT 10SM FEW030 SCT045 BKN080 17/06 A3010 RMK AO2 SLP197 T01720061=
200706222353 METAR KSEA 222353Z 20010KT 10SM FEW046 SCT070 BKN085 18/07 A3011 RMK AO2 SLP200 60000 T01830067 10200 20161 58007=
200706222253 METAR KSEA 222253Z 20010KT 10SM FEW030 BKN060 BKN090 17/07 A3011 RMK AO2 SLP202 T01720067=
200706222153 METAR KSEA 222153Z 21009KT 10SM FEW030 BKN065 18/08 A3012 RMK AO2 SLP205=
200706222053 METAR KSEA 222053Z 23009KT 10SM FEW028 SCT060 SCT085 18/08 A3013 RMK AO2 SLP207 VCSH S 60000 T01830078 58002=
200706221953 METAR KSEA 221953Z 24009KT 10SM SCT035 BKN060 18/08 A3013 RMK AO2 RAB47E52 SLP209 P0000 T01780078=
200706221853 METAR KSEA 221853Z 23008KT 10SM FEW030 BKN050 17/07 A3013 RMK AO2 SLP209 T01720072=
200706221753 METAR KSEA 221753Z 20006KT 10SM SCT030 OVC060 16/07 A3013 RMK AO2 SLP209 BINOVC OHD T01610067 10172 20122 58002=
200706221653 METAR KSEA 221653Z 24008KT 10SM FEW024 SCT075 17/08 A3013 RMK AO2 SLP210 T01720078=
200706221553 METAR KSEA 221553Z 21007KT 10SM SCT024 BKN070 16/09 A3014 RMK AO2 SLP212 T01560089=
200706221453 METAR KSEA 221453Z 17007KT 10SM FEW021 BKN075 14/08 A3014 RMK AO2 SLP210 T01390083 51004=
200706221353 METAR KSEA 221353Z 18009KT 10SM FEW021 BKN065 BKN080 13/08 A3014 RMK AO2 SLP210 T01280083=
200706221253 METAR KSEA 221253Z 19008KT 10SM BKN060 OVC075 13/08 A3014 RMK AO2 SLP210 T01280083=
200706221153 METAR KSEA 221153Z 22008KT 10SM OVC055 13/09 A3012 RMK AO2 SLP205 T01280089 10161 20128 53003=
200706221053 METAR KSEA 221053Z 21009KT 10SM BKN045 BKN075 13/09 A3012 RMK AO2 SLP204 T01280094=
200706220953 METAR KSEA 220953Z 21010KT 10SM OVC045 13/10 A3011 RMK AO2 SLP202 T01330100=
200706220906 SPECI KSEA 220906Z 22010KT 10SM FEW024 OVC032 14/11 A3012 RMK AO2=
200706220906 SPECI KSEA 220906Z 22010KT 10SM FEW024 OVC032 14/11 A3012 RMK AO2=
200706220853 METAR KSEA 220853Z 22009KT 10SM BKN026 OVC032 14/11 A3012 RMK AO2 SLP202 T01440111 52003=
200706220753 METAR KSEA 220753Z 20008KT 10SM BKN025 OVC042 15/11 A3011 RMK AO2 SLP201 T01500111 402390133=
200706220748 SPECI KSEA 220748Z 21007KT 10SM BKN027 OVC042 15/11 A3011 RMK AO2 402390133=
200706220748 SPECI KSEA 220748Z 21007KT 10SM BKN027 OVC042 15/11 A3011 RMK AO2 402390133=
200706220653 METAR KSEA 220653Z 22007KT 10SM SCT040 OVC049 16/11 A3011 RMK AO2 SLP199 T01560106=
200706220553 METAR KSEA 220553Z 24008KT 10SM BKN050 BKN085 16/11 A3010 RMK AO2 SLP198 T01610106 10239 20161 53008=
200706220453 METAR KSEA 220453Z 24011KT 10SM FEW040 BKN085 17/11 A3009 RMK AO2 SLP196 T01720106=
200706220353 METAR KSEA 220353Z 28005KT 10SM FEW040 SCT080 18/11 A3008 RMK AO2 SLP192 T01830111=
200706220253 METAR KSEA 220253Z 24007KT 10SM FEW040 SCT080 21/09 A3008 RMK AO2 SLP191 T02110094 56009=
200706220153 METAR KSEA 220153Z 28006KT 10SM FEW040 SCT080 22/09 A3008 RMK AO2 SLP192 T02220089=
200706220053 METAR KSEA 220053Z 24006KT 10SM SCT040 SCT080 23/09 A3009 RMK AO2 SLP194 T02330089=
200706212353 METAR KSEA 212353Z 29008KT 10SM SCT030 SCT080 23/08 A3011 RMK AO2 SLP199 T02330083 10239 20183 58013=
200706212253 METAR KSEA 212253Z 28007KT 10SM FEW030 BKN080 22/08 A3013 RMK AO2 SLP206 T02220083=
200706212153 METAR KSEA 212153Z 23007KT 10SM FEW030 BKN080 BKN250 22/08 A3013 RMK AO2 SLP209 T02220083=
200706212053 METAR KSEA 212053Z 22006KT 10SM FEW030 BKN080 21/08 A3015 RMK AO2 SLP213 T02110083 58008=
200706211953 METAR KSEA 211953Z 21011KT 10SM FEW028 BKN070 22/08 A3016 RMK AO2 SLP217 T02170083=
200706211853 METAR KSEA 211853Z 23008KT 10SM FEW028 BKN070 19/09 A3017 RMK AO2 SLP221 T01940089=
200706211753 METAR KSEA 211753Z 18009KT 10SM FEW027 BKN070 19/09 A3017 RMK AO2 SLP222 60000 T01890089 10189 20133 50001=
200706211653 METAR KSEA 211653Z 20008KT 10SM SCT027 BKN032 16/10 A3018 RMK AO2 SLP224=
200706211627 SPECI KSEA 211627Z 18003KT 10SM SCT027 BKN032 BKN060 15/11 A3018 RMK AO2 $=
200706211627 SPECI KSEA 211627Z 18003KT 10SM SCT027 BKN032 BKN060 15/11 A3018 RMK AO2 $=
200706211618 SPECI KSEA 211618Z 19005KT 10SM BKN026 BKN060 15/11 A3018 RMK AO2=
200706211618 SPECI KSEA 211618Z 19005KT 10SM BKN026 BKN060 15/11 A3018 RMK AO2=
200706211553 METAR KSEA 211553Z 19004KT 10SM FEW026 BKN033 BKN060 14/11 A3018 RMK AO2 RAE02 SLP224 P0000 T01440111=
200706211516 SPECI KSEA 211516Z 23005KT 9SM FEW019 SCT026 BKN035 14/12 A3017 RMK AO2 RAE02 P0000=
200706211516 SPECI KSEA 211516Z 23005KT 9SM FEW019 SCT026 BKN035 14/12 A3017 RMK AO2 RAE02 P0000=
200706211504 SPECI KSEA 211504Z 22005KT 7SM FEW019 BKN028 OVC035 13/12 A3017 RMK AO2 RAE02 P0000=
200706211504 SPECI KSEA 211504Z 22005KT 7SM FEW019 BKN028 OVC035 13/12 A3017 RMK AO2 RAE02 P0000=
200706211453 METAR KSEA 211453Z 19004KT 6SM -RA BR SCT024 OVC035 13/11 A3017 RMK AO2 RAB02E11B27 SLP220 P0000 60000 T01330111 53008=
200706211353 METAR KSEA 211353Z 18006KT 10SM BKN031 OVC042 14/10 A3016 RMK AO2 RAB30E43 SLP218 P0000 T01440100=
200706211253 METAR KSEA 211253Z 13007KT 10SM BKN031 BKN035 OVC060 14/10 A3015 RMK AO2 SLP214 T01390100=
200706211222 SPECI KSEA 211222Z 12008KT 10SM SCT028 OVC035 14/11 A3014 RMK AO2=
200706211222 SPECI KSEA 211222Z 12008KT 10SM SCT028 OVC035 14/11 A3014 RMK AO2=
200706211212 SPECI KSEA 211212Z 13008KT 10SM BKN028 OVC035 14/11 A3015 RMK AO2=
200706211212 SPECI KSEA 211212Z 13008KT 10SM BKN028 OVC035 14/11 A3015 RMK AO2=
200706211153 METAR KSEA 211153Z 14004KT 10SM OVC030 14/10 A3014 RMK AO2 SLP212 T01390100 10150 20133 53006=
200706211053 METAR KSEA 211053Z 18007KT 10SM OVC034 14/09 A3013 RMK AO2 SLP208 T01390094=
200706210953 METAR KSEA 210953Z 20006KT 10SM FEW038 14/09 A3013 RMK AO2 SLP208 T01390094=
200706210853 METAR KSEA 210853Z 21010KT 10SM FEW020 OVC032 14/10 A3013 RMK AO2 SLP206 T01440100 51008=
200706210826 SPECI KSEA 210826Z 20010KT 10SM OVC032 14/09 A3012 RMK AO2=
200706210826 SPECI KSEA 210826Z 20010KT 10SM OVC032 14/09 A3012 RMK AO2=
200706210753 METAR KSEA 210753Z 21011KT 10SM BKN029 OVC035 14/09 A3012 RMK AO2 SLP204 T01440094 402720100=
200706210653 METAR KSEA 210653Z 20011G18KT 10SM OVC022 14/09 A3011 RMK AO2 SLP201 T01440094=
200706210639 SPECI KSEA 210639Z 20008KT 10SM BKN024 OVC060 14/09 A3011 RMK AO2=
200706210639 SPECI KSEA 210639Z 20008KT 10SM BKN024 OVC060 14/09 A3011 RMK AO2=
200706210553 METAR KSEA 210553Z 19008KT 10SM OVC060 15/09 A3010 RMK AO2 SLP199 T01500094 10267 20150 53037=
200706210453 METAR KSEA 210453Z 23008KT 10SM OVC060 16/11 A3006 RMK AO2 SLP186 T01610106=
200706210353 METAR KSEA 210353Z 24008KT 10SM FEW060 19/11 A3002 RMK AO2 SLP172 T01890106=
200706210253 METAR KSEA 210253Z 25007KT 10SM FEW060 23/10 A2999 RMK AO2 SLP161 T02280100 53001=
200706210153 METAR KSEA 210153Z 22006KT 10SM FEW060 SCT200 26/10 A2998 RMK AO2 SLP156 T02610100=
200706210053 METAR KSEA 210053Z 19005KT 10SM FEW060 SCT200 26/09 A2998 RMK AO2 SLP157 T02560094=
200706202353 METAR KSEA 202353Z VRB04KT 10SM FEW050 SCT120 SCT200 26/09 A2999 RMK AO2 SLP160 T02610094 10272 20178 58009=
200706202253 METAR KSEA 202253Z VRB04KT 10SM FEW050 SCT120 BKN200 26/09 A3000 RMK AO2 SLP163 T02560094=
200706202153 METAR KSEA 202153Z 28004KT 10SM FEW055 BKN200 25/10 A3001 RMK AO2 SLP166 T02500100=
200706202053 METAR KSEA 202053Z 28006KT 10SM FEW050 SCT200 23/09 A3002 RMK AO2 SLP169 T02330094 58009=
200706201953 METAR KSEA 201953Z VRB04KT 10SM FEW200 22/09 A3003 RMK AO2 SLP173 T02170094=
200706201853 METAR KSEA 201853Z 27004KT 10SM FEW180 SCT250 21/09 A3004 RMK AO2 SLP178 T02110094=
200706201753 METAR KSEA 201753Z 28005KT 10SM FEW180 BKN250 19/09 A3004 RMK AO2 SLP179 T01890089 10194 20100 58002=
200706201653 METAR KSEA 201653Z 27004KT 10SM BKN250 18/08 A3005 RMK AO2 SLP180 T01780078=
200706201553 METAR KSEA 201553Z 27004KT 10SM SCT250 16/09 A3006 RMK AO2 SLP182 T01560089=
200706201453 METAR KSEA 201453Z 20003KT 10SM FEW200 14/09 A3005 RMK AO2 SLP180 T01440089 53012=
200706201353 METAR KSEA 201353Z 00000KT 10SM FEW200 13/09 A3003 RMK AO2 SLP174 T01280089=
200706201253 METAR KSEA 201253Z 00000KT 10SM FEW200 11/09 A3003 RMK AO2 SLP172 T01110089=
200706201153 METAR KSEA 201153Z 00000KT 10SM FEW200 11/08 A3001 RMK AO2 SLP168 T01110083 10150 20111 53006=
200706201053 METAR KSEA 201053Z 00000KT 10SM FEW200 11/08 A3001 RMK AO2 SLP166 T01110083=
200706200953 METAR KSEA 200953Z 00000KT 10SM CLR 12/08 A3000 RMK AO2 SLP164 T01220083=
200706200853 METAR KSEA 200853Z 00000KT 10SM CLR 13/08 A2999 RMK AO2 SLP162 T01280083 52006=
200706200753 METAR KSEA 200753Z 00000KT 10SM FEW200 13/09 A2999 RMK AO2 SLP160 T01330094 402440089=
200706200653 METAR KSEA 200653Z 00000KT 10SM SCT200 14/09 A2998 RMK AO2 SLP157 T01440089=
200706200553 METAR KSEA 200553Z 28005KT 10SM SCT200 15/09 A2998 RMK AO2 SLP156 T01500089 10244 20150 53008=
200706200453 METAR KSEA 200453Z 00000KT 10SM FEW200 BKN250 18/09 A2997 RMK AO2 SLP153 T01830094=
200706200353 METAR KSEA 200353Z 16004KT 10SM FEW200 BKN250 21/09 A2995 RMK AO2 SLP147 T02060089=
200706200253 METAR KSEA 200253Z 00000KT 10SM FEW200 BKN250 23/08 A2995 RMK AO2 SLP147 T02280083 56007=
200706200053 METAR KSEA 200053Z 22004KT 10SM FEW200 BKN250 24/07 A2996 RMK AO2 SLP149 T02440072=
200706192353 METAR KSEA 192353Z 21004KT 10SM FEW200 BKN250 23/07 A2997 RMK AO2 SLP154 T02330072 10233 20167 58006=
200706192253 METAR KSEA 192253Z 22003KT 10SM FEW200 BKN250 23/07 A2998 RMK AO2 SLP157 T02280067=
200706192153 METAR KSEA 192153Z 23006KT 10SM FEW200 BKN250 22/08 A2998 RMK AO2 SLP159 T02220078=
200706192053 METAR KSEA 192053Z 28006KT 10SM BKN250 22/09 A2999 RMK AO2 SLP160 T02170089 58005=
200706191953 METAR KSEA 191953Z 00000KT 10SM BKN250 20/06 A2999 RMK AO2 SLP162 T02000056=
200706191853 METAR KSEA 191853Z VRB05KT 10SM BKN250 19/08 A3000 RMK AO2 SLP165 T01890078=
200706191753 METAR KSEA 191753Z 26003KT 10SM BKN250 17/07 A3001 RMK AO2 SLP166 T01670072 10167 20089 55003=
200706191653 METAR KSEA 191653Z 26003KT 10SM BKN250 14/09 A3000 RMK AO2 SLP166 T01440089=
200706191553 METAR KSEA 191553Z 00000KT 10SM BKN250 13/08 A3001 RMK AO2 SLP169 T01280078=
200706191453 METAR KSEA 191453Z 13003KT 10SM BKN250 11/07 A3001 RMK AO2 SLP170 T01110072 57002=
200706191353 METAR KSEA 191353Z 00000KT 10SM FEW180 BKN250 10/07 A3002 RMK AO2 SLP172 T01000072=
200706191253 METAR KSEA 191253Z 09005KT 10SM SCT120 BKN200 09/07 A3001 RMK AO2 SLP170 T00940072=
200706191153 METAR KSEA 191153Z 00000KT 10SM SCT120 OVC200 09/07 A3002 RMK AO2 SLP172 T00890072 10122 20089 56008=
200706191053 METAR KSEA 191053Z 36004KT 10SM SCT200 10/07 A3002 RMK AO2 SLP172 T01000072=
200706190953 METAR KSEA 190953Z 35003KT 10SM FEW200 10/07 A3004 RMK AO2 SLP177 T01000067=
200706190853 METAR KSEA 190853Z 00000KT 10SM FEW200 11/07 A3005 RMK AO2 SLP181 T01060072 56012=
200706190753 METAR KSEA 190753Z 36006KT 10SM FEW120 SCT200 11/07 A3006 RMK AO2 SLP184 T01110072 401830094=
200706190653 METAR KSEA 190653Z 36005KT 10SM FEW120 BKN200 12/07 A3007 RMK AO2 SLP189 T01220072=
200706190553 METAR KSEA 190553Z 01007KT 10SM SCT200 12/07 A3008 RMK AO2 SLP193 T01220067 10183 20122 56011=
200706190453 METAR KSEA 190453Z 36006KT 10SM SCT200 13/07 A3009 RMK AO2 SLP197 T01280067=
200706190353 METAR KSEA 190353Z 01008KT 10SM FEW045 SCT200 14/08 A3010 RMK AO2 SLP199 T01390078=
200706190253 METAR KSEA 190253Z 30005KT 10SM FEW045 SCT200 16/06 A3011 RMK AO2 SLP204 T01560061 56006=
200706190153 METAR KSEA 190153Z 30006KT 10SM SCT047 SCT140 BKN200 17/06 A3012 RMK AO2 SLP206 T01670061=
200706190053 METAR KSEA 190053Z VRB04KT 10SM FEW035 BKN047 BKN200 17/07 A3012 RMK AO2 SLP204 T01720067=
200706182353 METAR KSEA 182353Z 31005KT 10SM FEW035 BKN049 BKN200 18/07 A3013 RMK AO2 SLP209 T01830072 10183 20128 58008=
200706182253 METAR KSEA 182253Z 32004KT 10SM SCT035 BKN049 BKN200 16/06 A3014 RMK AO2 SLP214 T01610061=
200706182153 METAR KSEA 182153Z 27008KT 10SM SCT035 BKN049 BKN200 17/06 A3015 RMK AO2 SLP216 T01670061=
200706182053 METAR KSEA 182053Z 32004KT 10SM SCT032 BKN046 16/06 A3016 RMK AO2 SLP218 T01610061 58001=
200706181953 METAR KSEA 181953Z VRB05KT 10SM FEW028 BKN034 16/06 A3016 RMK AO2 SLP219 T01560061=
200706181853 METAR KSEA 181853Z 19006KT 10SM SCT028 BKN035 14/06 A3016 RMK AO2 SLP219 T01390056=
200706181849 SPECI KSEA 181849Z 18006KT 10SM SCT028 BKN035 14/06 A3016 RMK AO2=
200706181849 SPECI KSEA 181849Z 18006KT 10SM SCT028 BKN035 14/06 A3016 RMK AO2=
200706181840 SPECI KSEA 181840Z 00000KT 10SM BKN027 OVC033 14/06 A3016 RMK AO2 BINOVC W=
200706181840 SPECI KSEA 181840Z 00000KT 10SM BKN027 OVC033 14/06 A3016 RMK AO2 BINOVC W=
200706181753 METAR KSEA 181753Z 17007KT 10SM FEW027 BKN032 BKN080 13/06 A3016 RMK AO2 SLP218 T01330061 10139 20094 51002=
200706181704 SPECI KSEA 181704Z 26003KT 10SM SCT027 BKN032 BKN046 13/06 A3015 RMK AO2=
200706181704 SPECI KSEA 181704Z 26003KT 10SM SCT027 BKN032 BKN046 13/06 A3015 RMK AO2=
200706181653 METAR KSEA 181653Z 25003KT 10SM BKN027 BKN042 13/06 A3015 RMK AO2 SLP217 T01280061=
200706181618 SPECI KSEA 181618Z 22006KT 10SM BKN025 OVC042 12/06 A3015 RMK AO2=
200706181618 SPECI KSEA 181618Z 22006KT 10SM BKN025 OVC042 12/06 A3015 RMK AO2=
200706181553 METAR KSEA 181553Z 20008KT 10SM FEW023 BKN042 OVC060 12/06 A3015 RMK AO2 SLP217 BINOVC OHD T01170056=
200706181453 METAR KSEA 181453Z 18007KT 10SM SCT020 BKN035 OVC050 11/06 A3015 RMK AO2 SLP216 BINOVC SW T01110061 55000=
200706181445 SPECI KSEA 181445Z 20008KT 10SM SCT020 OVC035 11/06 A3015 RMK AO2 BINOVC SW=
200706181445 SPECI KSEA 181445Z 20008KT 10SM SCT020 OVC035 11/06 A3015 RMK AO2 BINOVC SW=
200706181353 METAR KSEA 181353Z 19006KT 10SM BKN018 OVC025 10/06 A3015 RMK AO2 SLP214 T01000056=
200706181253 METAR KSEA 181253Z 16006KT 10SM OVC016 10/06 A3015 RMK AO2 SLP215 T01000061=
200706181218 SPECI KSEA 181218Z 18003KT 9SM BKN013 OVC020 09/07 A3015 RMK AO2=
200706181218 SPECI KSEA 181218Z 18003KT 9SM BKN013 OVC020 09/07 A3015 RMK AO2=
200706181153 METAR KSEA 181153Z 20007KT 10SM BKN016 BKN021 OVC029 10/07 A3015 RMK AO2 SLP216 70001 T01000072 10122 20100 57004=
200706181053 METAR KSEA 181053Z 19007KT 10SM OVC019 11/07 A3015 RMK AO2 SLP218 T01060067=
200706180953 METAR KSEA 180953Z 21006KT 10SM BKN018 OVC023 11/07 A3016 RMK AO2 SLP218 T01060072=
200706180916 SPECI KSEA 180916Z 24006KT 10SM BKN018 BKN030 OVC037 11/07 A3016 RMK AO2=
200706180916 SPECI KSEA 180916Z 24006KT 10SM BKN018 BKN030 OVC037 11/07 A3016 RMK AO2=
200706180853 METAR KSEA 180853Z 21005KT 10SM FEW018 BKN030 OVC034 11/07 A3016 RMK AO2 SLP220 T01060072 56005=
200706180850 SPECI KSEA 180850Z 21006KT 10SM OVC030 11/07 A3016 RMK AO2=
200706180850 SPECI KSEA 180850Z 21006KT 10SM OVC030 11/07 A3016 RMK AO2=
200706180753 METAR KSEA 180753Z 23008KT 10SM OVC026 11/08 A3017 RMK AO2 SLP223 T01110078 401440111=
200706180653 METAR KSEA 180653Z 22009KT 10SM OVC024 12/08 A3018 RMK AO2 SLP225 T01170078=
200706180553 METAR KSEA 180553Z 22008KT 10SM OVC026 12/08 A3018 RMK AO2 SLP226 T01220083 10144 20122 50002=
200706180453 METAR KSEA 180453Z 22008KT 10SM BKN028 OVC044 13/08 A3018 RMK AO2 SLP227 T01280083=
200706180418 SPECI KSEA 180418Z 22008KT 10SM OVC028 13/09 A3018 RMK AO2=
200706180418 SPECI KSEA 180418Z 22008KT 10SM OVC028 13/09 A3018 RMK AO2=
200706180353 METAR KSEA 180353Z 21007KT 10SM OVC031 13/09 A3018 RMK AO2 SLP225 T01330089=
200706180253 METAR KSEA 180253Z 21008KT 10SM OVC025 14/09 A3017 RMK AO2 SLP224 T01390094 56005=
200706180153 METAR KSEA 180153Z 16006KT 10SM BKN025 OVC033 14/09 A3018 RMK AO2 SLP227 T01440094=
200706180148 SPECI KSEA 180148Z 16008KT 10SM BKN025 OVC033 14/09 A3018 RMK AO2=
200706180148 SPECI KSEA 180148Z 16008KT 10SM BKN025 OVC033 14/09 A3018 RMK AO2=
200706180053 METAR KSEA 180053Z 15009KT 10SM FEW023 OVC033 14/09 A3019 RMK AO2 SLP230 T01440094=
200706180004 SPECI KSEA 180004Z 16009KT 10SM SCT028 OVC035 14/09 A3020 RMK AO2=
200706180004 SPECI KSEA 180004Z 16009KT 10SM SCT028 OVC035 14/09 A3020 RMK AO2=
200706172353 METAR KSEA 172353Z 16007KT 10SM BKN028 OVC033 14/09 A3021 RMK AO2 SLP236 T01440094 10144 20122 53001=
200706172253 METAR KSEA 172253Z 18008KT 10SM BKN022 OVC025 14/09 A3021 RMK AO2 SLP235 T01390089=
200706172153 METAR KSEA 172153Z 19007KT 10SM BKN021 OVC025 14/09 A3021 RMK AO2 SLP235 T01390089=
200706172053 METAR KSEA 172053Z 17009KT 10SM BKN019 OVC023 14/09 A3021 RMK AO2 SLP235 T01390089 50002=
200706171953 METAR KSEA 171953Z 18009KT 10SM OVC017 13/09 A3021 RMK AO2 SLP237 T01280089=
200706171853 METAR KSEA 171853Z 18010KT 10SM BKN017 OVC020 13/08 A3021 RMK AO2 SLP236 T01280083=
200706171753 METAR KSEA 171753Z 21008KT 10SM BKN017 OVC020 12/09 A3020 RMK AO2 SLP234 60001 T01220089 10122 20111 51012=
200706171653 METAR KSEA 171653Z 20010KT 10SM OVC015 12/08 A3019 RMK AO2 SLP230 T01170083=
200706171553 METAR KSEA 171553Z 21007KT 10SM OVC015 12/08 A3018 RMK AO2 SLP225 T01170083=
200706171520 SPECI KSEA 171520Z 22009KT 10SM OVC015 12/09 A3017 RMK AO2=
200706171520 SPECI KSEA 171520Z 22009KT 10SM OVC015 12/09 A3017 RMK AO2=
200706171453 METAR KSEA 171453Z 21009KT 10SM OVC013 11/08 A3017 RMK AO2 SLP222 60001 T01110083 53006=
200706171353 METAR KSEA 171353Z 19010KT 10SM OVC013 11/08 A3016 RMK AO2 RAE12 SLP218 P0001 T01110083=
200706171317 SPECI KSEA 171317Z 21013KT 10SM OVC013 11/09 A3015 RMK AO2 RAE12 P0001=
200706171317 SPECI KSEA 171317Z 21013KT 10SM OVC013 11/09 A3015 RMK AO2 RAE12 P0001=
200706171253 METAR KSEA 171253Z 20012KT 10SM -RA OVC015 11/09 A3015 RMK AO2 SLP215 P0000 T01110089=
200706171153 METAR KSEA 171153Z 21010G16KT 10SM -RA OVC015 11/09 A3015 RMK AO2 RAB31 SLP214 P0000 60000 T01110089 10122 20111 50005=
200706171053 METAR KSEA 171053Z 22011KT 10SM OVC015 12/08 A3015 RMK AO2 SLP215 T01170083=
200706170953 METAR KSEA 170953Z 22011G18KT 10SM OVC015 12/08 A3014 RMK AO2 SLP212 T01170083=
200706170922 SPECI KSEA 170922Z 21012KT 10SM OVC015 12/08 A3014 RMK AO2=
200706170922 SPECI KSEA 170922Z 21012KT 10SM OVC015 12/08 A3014 RMK AO2=
200706170853 METAR KSEA 170853Z 21012KT 10SM OVC013 11/08 A3013 RMK AO2 SLP209 60000 T01110083 53002=
200706170811 SPECI KSEA 170811Z 21011G18KT 10SM OVC013 12/08 A3013 RMK AO2=
200706170811 SPECI KSEA 170811Z 21011G18KT 10SM OVC013 12/08 A3013 RMK AO2=
200706170753 METAR KSEA 170753Z 22014KT 10SM OVC015 12/08 A3013 RMK AO2 SLP208 T01170083 401940106=
200706170653 METAR KSEA 170653Z 21011G19KT 10SM OVC015 12/09 A3013 RMK AO2 RAE15 SLP208 P0000 T01170089=
200706170553 METAR KSEA 170553Z 21012G19KT 10SM -RA OVC017 12/09 A3013 RMK AO2 RAB52 SLP207 P0000 60000 T01220089 10189 20122 51010=
200706170453 METAR KSEA 170453Z 21012KT 10SM OVC021 13/08 A3012 RMK AO2 SLP206 T01280083=
200706170428 SPECI KSEA 170428Z 21013KT 10SM BKN021 OVC075 13/09 A3011 RMK AO2=
200706170428 SPECI KSEA 170428Z 21013KT 10SM BKN021 OVC075 13/09 A3011 RMK AO2=
200706170353 METAR KSEA 170353Z 21014KT 10SM OVC080 13/09 A3010 RMK AO2 RAE06 SLP200 P0000 T01330089=
200706170253 METAR KSEA 170253Z 25012G19KT 9SM -RA SCT033 BKN050 OVC060 14/09 A3009 RMK AO2 RAB31 SLP197 P0000 60000 T01390094 53010=
200706170153 METAR KSEA 170153Z 23011KT 10SM OVC060 16/08 A3008 RMK AO2 RAB05E18 SLP193 VCSH NW P0000 T01610083=
200706170053 METAR KSEA 170053Z 25012KT 10SM FEW030 BKN070 18/08 A3007 RMK AO2 SLP188=
200706162353 METAR KSEA 162353Z 20008KT 10SM FEW025 BKN075 17/08 A3006 RMK AO2 SLP187 SH DSNT SE AND W T01720083 10194 20156 50001=
200706162253 METAR KSEA 162253Z 21013KT 10SM FEW025 SCT060 BKN080 18/09 A3007 RMK AO2 SLP187 T01780094=
200706162153 METAR KSEA 162153Z 21013KT 10SM FEW025 BKN060 BKN100 17/08 A3006 RMK AO2 SLP186 SH DSNT SE T01670078=
200706162053 METAR KSEA 162053Z 24011G15KT 10SM FEW025 SCT040 BKN070 18/07 A3006 RMK AO2 SLP185 SHRA S T01830072 51003=
200706161953 METAR KSEA 161953Z 23011KT 10SM SCT030 BKN065 18/08 A3006 RMK AO2 SLP184 SHRA S T01780078=
200706161853 METAR KSEA 161853Z 22006G14KT 10SM SCT035 BKN055 BKN200 16/06 A3006 RMK AO2 SLP183 T01610061=
200706161753 METAR KSEA 161753Z 23011KT 10SM FEW027 BKN034 BKN049 17/07 A3005 RMK AO2 SLP182 T01670072 10167 20106 51003=
200706161748 SPECI KSEA 161748Z 23011KT 10SM FEW027 BKN034 OVC049 16/07 A3005 RMK AO2=
200706161748 SPECI KSEA 161748Z 23011KT 10SM FEW027 BKN034 OVC049 16/07 A3005 RMK AO2=
200706161728 SPECI KSEA 161728Z 20011G15KT 10SM BKN029 BKN035 OVC049 15/08 A3005 RMK AO2=
200706161728 SPECI KSEA 161728Z 20011G15KT 10SM BKN029 BKN035 OVC049 15/08 A3005 RMK AO2=
200706161653 METAR KSEA 161653Z 19007KT 10SM FEW031 BKN055 BKN080 14/07 A3005 RMK AO2 SLP181 T01440072=
200706161553 METAR KSEA 161553Z 17008KT 10SM FEW025 BKN039 13/07 A3004 RMK AO2 SLP179 T01330072=
200706161453 METAR KSEA 161453Z 19010KT 10SM BKN033 OVC050 12/07 A3004 RMK AO2 SLP178 T01170072 51008=
200706161353 METAR KSEA 161353Z 21007KT 10SM BKN031 OVC050 11/07 A3003 RMK AO2 SLP176 T01110072=
200706161334 SPECI KSEA 161334Z 20008KT 10SM BKN031 OVC050 11/08 A3003 RMK AO2=
200706161334 SPECI KSEA 161334Z 20008KT 10SM BKN031 OVC050 11/08 A3003 RMK AO2=
200706161253 METAR KSEA 161253Z 20009KT 10SM OVC023 11/08 A3003 RMK AO2 SLP173 T01110078=
200706161153 METAR KSEA 161153Z 21009KT 10SM OVC019 11/08 A3002 RMK AO2 SLP170 70012 T01060083 10161 20106 51005=
200706161119 SPECI KSEA 161119Z 21007KT 10SM OVC015 11/08 A3002 RMK AO2=
200706161119 SPECI KSEA 161119Z 21007KT 10SM OVC015 11/08 A3002 RMK AO2=
200706161100 SPECI KSEA 161100Z 21006KT 10SM SCT008 OVC013 11/08 A3002 RMK AO2=
200706161100 SPECI KSEA 161100Z 21006KT 10SM SCT008 OVC013 11/08 A3002 RMK AO2=
200706161053 METAR KSEA 161053Z 20008KT 10SM SCT008 BKN044 BKN075 11/08 A3002 RMK AO2 SLP171 T01060083=
200706161008 SPECI KSEA 161008Z 21005KT 10SM SCT008 BKN044 BKN075 11/09 A3001 RMK AO2=
200706161008 SPECI KSEA 161008Z 21005KT 10SM SCT008 BKN044 BKN075 11/09 A3001 RMK AO2=
200706160953 METAR KSEA 160953Z 23005KT 10SM BKN042 BKN075 12/09 A3001 RMK AO2 SLP168 T01170094=
200706160853 METAR KSEA 160853Z 26003KT 10SM SCT060 BKN075 12/10 A3000 RMK AO2 SLP166 T01220100 58001=
200706160753 METAR KSEA 160753Z 19003KT 10SM FEW045 BKN075 13/11 A3000 RMK AO2 SLP166 T01280106 401940106=
200706160653 METAR KSEA 160653Z 00000KT 10SM BKN045 BKN080 15/11 A3001 RMK AO2 SLP168 T01500106=
200706160553 METAR KSEA 160553Z 34003KT 10SM FEW045 BKN060 BKN080 15/11 A3000 RMK AO2 SLP167 T01500106 10194 20150 56004=
200706160453 METAR KSEA 160453Z 02005KT 10SM FEW045 BKN060 16/09 A3001 RMK AO2 SLP168 T01610094=
200706160353 METAR KSEA 160353Z 05005KT 10SM SCT048 BKN085 17/09 A3000 RMK AO2 SLP166 T01670089=
200706160253 METAR KSEA 160253Z 04008KT 10SM FEW050 BKN075 17/09 A3002 RMK AO2 SLP170 T01720089 57007=
200706160153 METAR KSEA 160153Z 00000KT 10SM FEW046 BKN060 17/09 A3002 RMK AO2 SLP172 T01720094=
200706160053 METAR KSEA 160053Z 00000KT 10SM SCT034 BKN044 BKN090 19/08 A3003 RMK AO2 SLP174 T01890083=
200706152353 METAR KSEA 152353Z 27006KT 10SM SCT032 BKN060 18/10 A3004 RMK AO2 SLP176 60001 T01830100 10183 20111 58011=
200706152253 METAR KSEA 152253Z 00000KT 10SM FEW026 BKN037 17/09 A3005 RMK AO2 SLP180 T01670094=
200706152153 METAR KSEA 152153Z 05004KT 10SM FEW019 BKN034 16/10 A3006 RMK AO2 SLP184 T01560100=
200706152135 SPECI KSEA 152135Z 00000KT 10SM SCT020 BKN030 BKN036 16/10 A3006 RMK AO2=
200706152135 SPECI KSEA 152135Z 00000KT 10SM SCT020 BKN030 BKN036 16/10 A3006 RMK AO2=
200706152053 METAR KSEA 152053Z 31004KT 10SM SCT012 BKN020 OVC040 14/11 A3007 RMK AO2 SLP188 60001 T01440111 51003=
200706152004 SPECI KSEA 152004Z 17003KT 10SM SCT009 BKN016 BKN050 13/10 A3007 RMK AO2=
200706152004 SPECI KSEA 152004Z 17003KT 10SM SCT009 BKN016 BKN050 13/10 A3007 RMK AO2=
200706151953 METAR KSEA 151953Z 27003KT 10SM SCT008 BKN014 BKN050 13/11 A3007 RMK AO2 SLP188 T01330106=
200706151922 SPECI KSEA 151922Z 27003KT 10SM SCT007 BKN011 OVC100 13/11 A3006 RMK AO2 BINOVC W=
200706151922 SPECI KSEA 151922Z 27003KT 10SM SCT007 BKN011 OVC100 13/11 A3006 RMK AO2 BINOVC W=
200706151853 METAR KSEA 151853Z 00000KT 10SM SCT005 BKN009 OVC120 12/11 A3006 RMK AO2 RAE45 SLP185 BINOVC W P0001 T01220106=
200706151800 SPECI KSEA 151800Z 29003KT 6SM -RA BR OVC005 11/10 A3006 RMK AO2 P0000=
200706151800 SPECI KSEA 151800Z 29003KT 6SM -RA BR OVC005 11/10 A3006 RMK AO2 P0000=
200706151753 METAR KSEA 151753Z 28003KT 7SM -RA BKN004 OVC007 11/10 A3006 RMK AO2 SLP185 P0002 60011 T01110100 10117 20106 50006=
200706151716 SPECI KSEA 151716Z 29004KT 6SM -RA BR BKN004 OVC007 11/10 A3006 RMK AO2 P0000=
200706151716 SPECI KSEA 151716Z 29004KT 6SM -RA BR BKN004 OVC007 11/10 A3006 RMK AO2 P0000=
200706151653 METAR KSEA 151653Z 29003KT 6SM -RA BR BKN006 OVC012 12/10 A3006 RMK AO2 SLP186 P0002 T01170100=
200706151649 SPECI KSEA 151649Z 32003KT 6SM -RA BR BKN006 OVC012 11/09 A3006 RMK AO2 P0001=
200706151649 SPECI KSEA 151649Z 32003KT 6SM -RA BR BKN006 OVC012 11/09 A3006 RMK AO2 P0001=
200706151636 SPECI KSEA 151636Z 32004KT 7SM -RA SCT006 BKN010 OVC040 11/09 A3006 RMK AO2 P0001=
200706151636 SPECI KSEA 151636Z 32004KT 7SM -RA SCT006 BKN010 OVC040 11/09 A3006 RMK AO2 P0001=
200706151609 SPECI KSEA 151609Z 36004KT 6SM -RA BR BKN006 OVC040 11/09 A3005 RMK AO2 P0001=
200706151609 SPECI KSEA 151609Z 36004KT 6SM -RA BR BKN006 OVC040 11/09 A3005 RMK AO2 P0001=
200706151600 SPECI KSEA 151600Z 35005KT 7SM -RA SCT006 OVC042 11/09 A3005 RMK AO2 P0000=
200706151600 SPECI KSEA 151600Z 35005KT 7SM -RA SCT006 OVC042 11/09 A3005 RMK AO2 P0000=
200706151553 METAR KSEA 151553Z 33004KT 7SM -RA FEW012 BKN040 OVC070 11/09 A3005 RMK AO2 SLP183 P0001 T01110094=
200706151453 METAR KSEA 151453Z 02006KT 7SM -RA BKN042 OVC070 11/08 A3004 RMK AO2 SLP179 P0003 60006 T01060083 53004=
200706151353 METAR KSEA 151353Z 01007KT 7SM -RA BKN050 OVC070 11/08 A3003 RMK AO2 RAB01 SLP174 P0000 T01110083=
200706151253 METAR KSEA 151253Z 05007KT 10SM BKN060 OVC075 11/08 A3003 RMK AO2 RAE52 SLP173 P0003 T01060078=
200706151153 METAR KSEA 151153Z 02007KT 10SM -RA OVC070 12/08 A3003 RMK AO2 SLP173 P0002 60003 70003 T01170083 10139 20111 58000=
200706151053 METAR KSEA 151053Z 00000KT 10SM -RA OVC070 12/08 A3003 RMK AO2 RAB08 SLP175 P0001 T01170078=
200706150953 METAR KSEA 150953Z 36005KT 10SM BKN085 OVC100 13/06 A3002 RMK AO2 RAE06 SLP172 P0000 T01330061=
200706150853 METAR KSEA 150853Z 32005KT 10SM -RA BKN060 OVC090 13/07 A3003 RMK AO2 RAB45 SLP174 P0000 60000 T01280072 58004=
200706150753 METAR KSEA 150753Z 02007KT 10SM BKN100 13/04 A3003 RMK AO2 SLP176 T01330044 401940106=
200706150653 METAR KSEA 150653Z 32005KT 10SM BKN100 BKN200 13/06 A3004 RMK AO2 SLP177 T01330061=
200706150553 METAR KSEA 150553Z 33006KT 10SM BKN150 BKN200 14/06 A3004 RMK AO2 SLP177 T01390061 10194 20139 58009=
200706150453 METAR KSEA 150453Z 35011KT 10SM BKN150 BKN200 14/06 A3005 RMK AO2 SLP183 T01440061=
200706150353 METAR KSEA 150353Z 34009KT 10SM FEW050 BKN150 BKN200 16/06 A3005 RMK AO2 SLP184 T01560061=
200706150253 METAR KSEA 150253Z 34008KT 10SM FEW050 BKN150 OVC200 17/05 A3007 RMK AO2 SLP187 T01670050 57022=
200706150153 METAR KSEA 150153Z 33007KT 10SM FEW050 BKN150 OVC200 18/06 A3009 RMK AO2 SLP194 T01780061=
200706150053 METAR KSEA 150053Z 32006G16KT 10SM FEW050 SCT150 BKN200 18/05 A3011 RMK AO2 SLP201 T01830050=
200706142353 METAR KSEA 142353Z 30010KT 10SM SCT050 SCT150 BKN200 19/06 A3013 RMK AO2 SLP209 T01940061 10194 20144 58019=
200706142253 METAR KSEA 142253Z 28004KT 10SM FEW050 SCT060 BKN150 BKN200 18/06 A3015 RMK AO2 SLP215 T01780056=
200706142153 METAR KSEA 142153Z VRB05KT 10SM FEW041 SCT050 BKN200 18/06 A3017 RMK AO2 SLP223 T01780061=
200706142053 METAR KSEA 142053Z VRB04KT 10SM SCT035 SCT200 18/07 A3019 RMK AO2 SLP227 T01780067 58016=
200706141953 METAR KSEA 141953Z 26006KT 10SM SCT035 BKN200 17/05 A3021 RMK AO2 SLP235 T01720050=
200706141853 METAR KSEA 141853Z 26008KT 10SM FEW025 SCT055 BKN200 15/06 A3022 RMK AO2 SLP241 T01500056=
200706141753 METAR KSEA 141753Z 23006KT 10SM FEW020 BKN055 14/06 A3023 RMK AO2 SLP244 T01440061 10144 20106 58000=
200706141653 METAR KSEA 141653Z VRB04KT 10SM SCT017 BKN046 BKN060 13/07 A3023 RMK AO2 SLP245 T01330072=
200706141626 SPECI KSEA 141626Z 19005KT 10SM SCT016 BKN040 BKN060 13/07 A3024 RMK AO2=
200706141626 SPECI KSEA 141626Z 19005KT 10SM SCT016 BKN040 BKN060 13/07 A3024 RMK AO2=
200706141553 METAR KSEA 141553Z VRB04KT 10SM FEW012 BKN016 BKN060 12/07 A3024 RMK AO2 SLP247 T01220072=
200706141453 METAR KSEA 141453Z 24005KT 10SM FEW012 BKN017 BKN050 11/07 A3023 RMK AO2 SLP245 T01110072 53006=
200706141353 METAR KSEA 141353Z 20006KT 10SM BKN015 OVC040 11/07 A3023 RMK AO2 SLP242 BINOVC SW T01060072=
200706141253 METAR KSEA 141253Z 22005KT 10SM FEW013 BKN015 OVC050 11/07 A3022 RMK AO2 SLP241 T01060067=
200706141153 METAR KSEA 141153Z 19006KT 10SM OVC015 11/07 A3022 RMK AO2 SLP238 70001 T01060067 10117 20106 56003=
200706141053 METAR KSEA 141053Z 20006KT 10SM BKN017 OVC060 11/07 A3022 RMK AO2 SLP239 T01060067=
200706140953 METAR KSEA 140953Z 18007KT 10SM BKN017 OVC060 11/07 A3022 RMK AO2 SLP239 T01060067=
200706140853 METAR KSEA 140853Z 20005KT 10SM FEW013 BKN017 BKN060 11/07 A3023 RMK AO2 SLP242 T01060067 50002=
200706140753 METAR KSEA 140753Z 23007KT 10SM FEW019 SCT060 SCT200 11/07 A3023 RMK AO2 SLP244 T01110067 401890106=
200706140653 METAR KSEA 140653Z 22003KT 10SM FEW035 SCT060 BKN200 11/07 A3023 RMK AO2 SLP244 T01110072=
200706140553 METAR KSEA 140553Z 22007KT 10SM FEW060 SCT200 12/07 A3022 RMK AO2 SLP240 T01170067 10183 20117 53003=
200706140453 METAR KSEA 140453Z 23006KT 10SM FEW060 SCT200 13/06 A3022 RMK AO2 SLP240 T01280061=
200706140353 METAR KSEA 140353Z 23008KT 10SM FEW035 SCT060 BKN200 14/07 A3021 RMK AO2 SLP236 T01390067=
200706140253 METAR KSEA 140253Z 24011KT 10SM FEW040 SCT070 BKN200 16/07 A3021 RMK AO2 SLP238 T01560067 55000=
200706140153 METAR KSEA 140153Z 22010KT 10SM FEW040 SCT070 BKN200 16/07 A3021 RMK AO2 SLP236 T01610072=
200706140053 METAR KSEA 140053Z 24010G16KT 10SM FEW040 SCT070 BKN200 17/06 A3021 RMK AO2 SLP236 T01670061=
200706132353 METAR KSEA 132353Z 21011KT 190V250 10SM FEW039 SCT070 BKN200 18/07 A3021 RMK AO2 SLP237 T01780072 10189 20150 56001=
200706132253 METAR KSEA 132253Z 23012KT 10SM SCT039 BKN200 18/07 A3022 RMK AO2 SLP238 T01780067=
200706132153 METAR KSEA 132153Z 19011G17KT 10SM FEW035 BKN200 18/07 A3021 RMK AO2 SLP235 T01780072=
200706132053 METAR KSEA 132053Z 22012KT 10SM FEW032 SCT050 BKN200 17/07 A3022 RMK AO2 SLP238 T01720072 53007=
200706131953 METAR KSEA 131953Z 22012G24KT 10SM FEW032 SCT050 BKN200 17/07 A3021 RMK AO2 PK WND 22026/1938 SLP235 T01670072=
200706131853 METAR KSEA 131853Z 21018G23KT 10SM FEW031 BKN200 16/07 A3021 RMK AO2 SLP234 T01610072=
200706131753 METAR KSEA 131753Z 20014G19KT 10SM FEW025 BKN250 15/08 A3020 RMK AO2 SLP231 60001 T01500078 10150 20106 51009=
200706131653 METAR KSEA 131653Z 21010G18KT 10SM SCT014 BKN032 BKN060 BKN200 13/09 A3020 RMK AO2 SLP231 T01330089=
200706131638 SPECI KSEA 131638Z 21012KT 10SM SCT013 BKN032 BKN060 13/09 A3020 RMK AO2=
200706131638 SPECI KSEA 131638Z 21012KT 10SM SCT013 BKN032 BKN060 13/09 A3020 RMK AO2=
200706131624 SPECI KSEA 131624Z 21011KT 10SM SCT012 BKN017 BKN060 BKN200 13/09 A3020 RMK AO2=
200706131624 SPECI KSEA 131624Z 21011KT 10SM SCT012 BKN017 BKN060 BKN200 13/09 A3020 RMK AO2=
200706131614 SPECI KSEA 131614Z 21011KT 10SM BKN012 BKN025 OVC060 13/09 A3019 RMK AO2 BINOVC W-NW=
200706131614 SPECI KSEA 131614Z 21011KT 10SM BKN012 BKN025 OVC060 13/09 A3019 RMK AO2 BINOVC W-NW=
200706131553 METAR KSEA 131553Z 21011KT 10SM FEW010 BKN025 BKN055 12/10 A3019 RMK AO2 RAE00 SLP228 BINOVC W-NW P0001 T01220100=
200706131453 METAR KSEA 131453Z 20010G18KT 8SM -RA FEW008 BKN019 OVC025 12/10 A3017 RMK AO2 RAB51 SLP222 P0000 60000 T01170100 53009=
200706131353 METAR KSEA 131353Z 18004KT 10SM FEW006 BKN017 OVC035 11/11 A3016 RMK AO2 RAE01DZB01E13B35E50 SLP217 P0000 T01110106=
200706131320 SPECI KSEA 131320Z 17007KT 10SM FEW006 SCT013 BKN017 11/10 A3015 RMK AO2 RAE01DZB01E13 P0000=
200706131320 SPECI KSEA 131320Z 17007KT 10SM FEW006 SCT013 BKN017 11/10 A3015 RMK AO2 RAE01DZB01E13 P0000=
200706131307 SPECI KSEA 131307Z 17008KT 10SM -DZ FEW008 BKN013 OVC030 11/09 A3015 RMK AO2 RAE01DZB01 P0000=
200706131307 SPECI KSEA 131307Z 17008KT 10SM -DZ FEW008 BKN013 OVC030 11/09 A3015 RMK AO2 RAE01DZB01 P0000=
200706131253 METAR KSEA 131253Z 19007KT 10SM -RA SCT013 BKN022 BKN034 11/09 A3015 RMK AO2 RAB37 SLP215 P0000 T01110094=
200706131153 METAR KSEA 131153Z 17008KT 10SM FEW017 BKN023 BKN035 11/09 A3014 RMK AO2 RAB12E17 SLP213 SHRA S P0000 60000 T01110089 10167 20111 53006=
200706131128 SPECI KSEA 131128Z 18008KT 10SM FEW019 BKN029 OVC035 11/09 A3014 RMK AO2 RAB12E17 SHRA S P0000=
200706131128 SPECI KSEA 131128Z 18008KT 10SM FEW019 BKN029 OVC035 11/09 A3014 RMK AO2 RAB12E17 SHRA S P0000=
200706131053 METAR KSEA 131053Z 21010KT 10SM SCT036 BKN050 OVC100 13/06 A3013 RMK AO2 RAB15E24 SLP209 P0000 T01280056=
200706130953 METAR KSEA 130953Z 20008KT 10SM FEW030 BKN050 OVC100 13/04 A3012 RMK AO2 SLP206 T01330044=
200706130853 METAR KSEA 130853Z 22011KT 10SM BKN050 OVC100 14/04 A3012 RMK AO2 SLP206 T01390044 56003=
200706130753 METAR KSEA 130753Z 22008KT 10SM OVC055 15/03 A3013 RMK AO2 SLP207 T01500028 402110078=
200706130653 METAR KSEA 130653Z 21007KT 10SM BKN060 OVC120 16/08 A3013 RMK AO2 SLP207 T01560078=
200706130553 METAR KSEA 130553Z 26006KT 10SM BKN060 OVC120 17/08 A3013 RMK AO2 SLP209 60000 T01670078 10200 20167 53006=
200706130453 METAR KSEA 130453Z 20003KT 10SM BKN060 OVC120 18/06 A3012 RMK AO2 SLP203 BINOVC NW T01830061=
200706130353 METAR KSEA 130353Z 17003KT 10SM SCT060 BKN075 OVC120 18/06 A3011 RMK AO2 SLP201 T01780056=
200706130253 METAR KSEA 130253Z 00000KT 10SM BKN065 BKN100 OVC200 18/05 A3011 RMK AO2 RAB29E39 SLP202 P0000 60000 T01830050 56008=
200706130153 METAR KSEA 130153Z 20007KT 10SM FEW090 BKN100 OVC200 19/05 A3012 RMK AO2 SLP204 T01890050=
200706130053 METAR KSEA 130053Z VRB05KT 10SM FEW120 SCT150 OVC250 19/04 A3013 RMK AO2 SLP209 T01940044=
200706122353 METAR KSEA 122353Z 22007KT 10SM FEW120 SCT150 OVC250 20/06 A3014 RMK AO2 SLP211 T02000056 10211 20156 58010=
200706122253 METAR KSEA 122253Z VRB05KT 10SM FEW120 SCT150 BKN250 21/04 A3015 RMK AO2 SLP215 T02060039=
200706122153 METAR KSEA 122153Z 20007KT 10SM FEW120 SCT250 19/04 A3016 RMK AO2 SLP218 T01890039=
200706122053 METAR KSEA 122053Z 26008KT 10SM FEW035 SCT250 19/05 A3017 RMK AO2 SLP222 T01890050 58011=
200706121953 METAR KSEA 121953Z 28008KT 10SM FEW035 SCT250 17/05 A3018 RMK AO2 SLP228 T01720050=
200706121853 METAR KSEA 121853Z 00000KT 10SM FEW032 SCT250 17/04 A3019 RMK AO2 SLP229 T01670044=
200706121753 METAR KSEA 121753Z 25007KT 10SM FEW032 SCT250 16/06 A3020 RMK AO2 SLP233 T01560061 10161 20078 53001=
200706121653 METAR KSEA 121653Z VRB03KT 10SM FEW025 14/06 A3019 RMK AO2 SLP231 T01440061=
200706121553 METAR KSEA 121553Z 00000KT 10SM FEW025 13/06 A3019 RMK AO2 SLP230 T01280056=
200706121453 METAR KSEA 121453Z 00000KT 10SM FEW025 SCT050 12/07 A3020 RMK AO2 SLP232 T01170067 53008=
200706121353 METAR KSEA 121353Z 00000KT 10SM FEW025 10/06 A3019 RMK AO2 SLP228 T01000061=
200706121253 METAR KSEA 121253Z 13003KT 10SM FEW025 08/06 A3018 RMK AO2 SLP225 T00830056=
200706121153 METAR KSEA 121153Z 00000KT 10SM FEW023 08/06 A3017 RMK AO2 SLP223 T00830056 10117 20078 53008=
200706121053 METAR KSEA 121053Z 00000KT 10SM FEW025 09/07 A3016 RMK AO2 SLP220 T00890067=
200706120953 METAR KSEA 120953Z 00000KT 10SM FEW070 09/07 A3015 RMK AO2 SLP216 T00890067=
200706120853 METAR KSEA 120853Z 00000KT 10SM FEW070 09/07 A3015 RMK AO2 SLP215 T00890067 51007=
200706120753 METAR KSEA 120753Z 00000KT 10SM FEW070 10/07 A3014 RMK AO2 SLP213 T01000067 401670094=
200706120653 METAR KSEA 120653Z 27003KT 10SM FEW035 SCT070 10/07 A3014 RMK AO2 SLP212 T01000067=
200706120553 METAR KSEA 120553Z 26004KT 10SM FEW035 BKN065 12/07 A3013 RMK AO2 SLP208 T01170067 10156 20117 53010=
200706120453 METAR KSEA 120453Z 22004KT 10SM FEW035 SCT070 BKN110 13/07 A3012 RMK AO2 SLP205 T01280067=
200706120353 METAR KSEA 120353Z 22005KT 10SM FEW035 BKN070 BKN110 13/06 A3010 RMK AO2 SLP199 T01330061=
200706120253 METAR KSEA 120253Z 20010KT 10SM FEW035 SCT075 BKN110 14/06 A3010 RMK AO2 SLP198 T01390061 50003=
200706120153 METAR KSEA 120153Z 23008KT 10SM FEW030 BKN080 BKN200 14/06 A3010 RMK AO2 SLP199 T01390056=
200706120053 METAR KSEA 120053Z 23010KT 10SM FEW030 SCT080 BKN110 OVC200 15/06 A3009 RMK AO2 SLP195 T01500056=
200706112353 METAR KSEA 112353Z 20012KT 10SM FEW030 BKN080 BKN200 16/05 A3009 RMK AO2 SLP194 T01560050 10167 20139 53002=
200706112253 METAR KSEA 112253Z 22012KT 10SM FEW030 SCT095 BKN200 16/05 A3008 RMK AO2 SLP194 T01610050=
200706112153 METAR KSEA 112153Z 21012G19KT 10SM FEW030 SCT080 BKN200 16/05 A3008 RMK AO2 SLP192 SH DSNT SE-SW-NW T01610050=
200706112053 METAR KSEA 112053Z COR 23011KT 10SM FEW030 BKN080 BKN200 15/04 A3008 RMK AO2 SLP192 SH DSNT S-W-NW T01500044 50002=
200706111953 METAR KSEA 111953Z 22012KT 10SM FEW030 BKN075 BKN200 15/04 A3008 RMK AO2 SLP192 SH DSNT SW T01500039=
200706111853 METAR KSEA 111853Z 23008KT 10SM FEW030 BKN070 14/04 A3008 RMK AO2 SLP191 T01390044=
200706111753 METAR KSEA 111753Z 22013KT 10SM FEW030 BKN080 14/04 A3007 RMK AO2 SLP189 T01390039 10144 20094 50004=
200706111653 METAR KSEA 111653Z 22014KT 10SM FEW025 SCT070 13/05 A3007 RMK AO2 SLP190 T01280050=
200706111553 METAR KSEA 111553Z 19009G15KT 10SM FEW025 BKN075 12/06 A3007 RMK AO2 SLP190 T01170056=
200706111453 METAR KSEA 111453Z 21010KT 10SM FEW025 SCT075 10/06 A3006 RMK AO2 SLP186 T01000056 51009=
200706111353 METAR KSEA 111353Z 21007KT 10SM FEW020 BKN070 10/06 A3006 RMK AO2 SLP184 T01000061=
200706111253 METAR KSEA 111253Z 21008KT 10SM OVC070 09/06 A3004 RMK AO2 SLP179 T00940061=
200706111153 METAR KSEA 111153Z AUTO 22006KT 10SM BKN070 09/06 A3003 RMK AO2 SLP176 T00940061 10111 20094 53000 TSNO=
200706111053 METAR KSEA 111053Z AUTO 20008KT 10SM SCT065 09/06 A3003 RMK AO2 SLP176 T00940061 TSNO=
200706110953 METAR KSEA 110953Z 19006KT 10SM OVC065 10/06 A3003 RMK AO2 SLP175 T01000061=
200706110853 METAR KSEA 110853Z 21006KT 10SM BKN070 10/06 A3003 RMK AO2 SLP175 T01000061 51003=
200706110753 METAR KSEA 110753Z 21010KT 10SM OVC070 11/06 A3003 RMK AO2 SLP175 T01060061 401780106=
200706110653 METAR KSEA 110653Z 21010KT 10SM OVC070 11/06 A3003 RMK AO2 SLP174 T01060061=
200706110553 METAR KSEA 110553Z 21008KT 10SM SCT070 11/06 A3002 RMK AO2 SLP172 T01060061 10161 20106 52009=
200706110453 METAR KSEA 110453Z 21010KT 10SM FEW065 SCT200 11/06 A3001 RMK AO2 SLP170 T01110061=
200706110353 METAR KSEA 110353Z 21010KT 10SM FEW030 OVC065 12/06 A3000 RMK AO2 SLP166 T01220061=
200706110253 METAR KSEA 110253Z 22013KT 10SM FEW030 SCT050 OVC070 14/06 A2999 RMK AO2 SLP163 T01390056 53009=
200706110153 METAR KSEA 110153Z 22012G19KT 10SM SCT030 BKN060 BKN075 16/07 A2998 RMK AO2 SLP158 T01560067=
200706110053 METAR KSEA 110053Z 21012G18KT 10SM SCT030 BKN075 15/07 A2997 RMK AO2 SLP154 T01500067=
200706102353 METAR KSEA 102353Z 25017G22KT 10SM FEW020 SCT030 BKN060 16/07 A2997 RMK AO2 SLP154 T01610072 10178 20144 53011=
200706102253 METAR KSEA 102253Z 23012G18KT 10SM FEW013 SCT036 SCT060 17/08 A2995 RMK AO2 SLP147 T01720083=
200706102153 METAR KSEA 102153Z 24013G20KT 10SM SCT036 BKN060 17/08 A2994 RMK AO2 SLP143 T01720083=
200706102053 METAR KSEA 102053Z 21009KT 10SM SCT025 BKN036 BKN047 17/09 A2993 RMK AO2 SLP142 T01670089 51006=
200706101953 METAR KSEA 101953Z 25010KT 10SM SCT023 BKN041 BKN060 16/09 A2993 RMK AO2 SLP141 TCU DSNT NW T01610094=
200706101853 METAR KSEA 101853Z 23013G19KT 10SM FEW025 BKN033 16/09 A2992 RMK AO2 SLP139 VCSH S T01560094=
200706101753 METAR KSEA 101753Z 21014KT 10SM SCT023 14/09 A2991 RMK AO2 SLP135 60000 T01440094 10150 20106 58000=
200706101653 METAR KSEA 101653Z 20011KT 10SM FEW015 SCT028 BKN042 13/10 A2992 RMK AO2 SLP138 T01330100=
200706101637 SPECI KSEA 101637Z 22009KT 10SM FEW015 BKN031 BKN070 14/11 A2992 RMK AO2=
200706101637 SPECI KSEA 101637Z 22009KT 10SM FEW015 BKN031 BKN070 14/11 A2992 RMK AO2=
200706101553 METAR KSEA 101553Z 19008KT 10SM FEW013 BKN023 BKN065 13/09 A2992 RMK AO2 SLP137 T01280094=
200706101453 METAR KSEA 101453Z 22007KT 10SM FEW016 SCT044 BKN060 12/10 A2992 RMK AO2 RAB28E33 SLP136 P0000 60000 T01170100 51011=
200706101408 SPECI KSEA 101408Z 20008KT 10SM FEW016 BKN041 BKN060 12/09 A2991 RMK AO2=
200706101408 SPECI KSEA 101408Z 20008KT 10SM FEW016 BKN041 BKN060 12/09 A2991 RMK AO2=
200706101353 METAR KSEA 101353Z 21010KT 10SM BKN016 BKN038 OVC060 12/10 A2991 RMK AO2 SLP134 T01170100=
200706101340 SPECI KSEA 101340Z 20007KT 10SM BKN016 BKN060 12/10 A2991 RMK AO2=
200706101340 SPECI KSEA 101340Z 20007KT 10SM BKN016 BKN060 12/10 A2991 RMK AO2=
200706101253 METAR KSEA 101253Z 18006KT 10SM BKN046 11/09 A2989 RMK AO2 SLP129 T01110094=
200706101153 METAR KSEA 101153Z 20007KT 10SM FEW043 BKN060 11/10 A2988 RMK AO2 SLP125 60000 70028 T01110100 10139 20111 51010=
200706101053 METAR KSEA 101053Z 21008KT 10SM FEW012 SCT050 BKN060 11/10 A2987 RMK AO2 SLP122 T01110100=
200706100953 METAR KSEA 100953Z 22009KT 10SM OVC037 12/10 A2987 RMK AO2 SLP121 T01170100=
200706100931 SPECI KSEA 100931Z 23007KT 10SM SCT027 BKN032 12/10 A2986 RMK AO2=
200706100931 SPECI KSEA 100931Z 23007KT 10SM SCT027 BKN032 12/10 A2986 RMK AO2=
200706100853 METAR KSEA 100853Z 24009KT 10SM BKN022 BKN027 OVC034 12/10 A2985 RMK AO2 SLP115 60000 T01220100 52004=
200706100753 METAR KSEA 100753Z 23006KT 10SM BKN008 BKN011 OVC018 13/12 A2984 RMK AO2 RAB01E18 SLP110 P0000 T01330122 401440117=
200706100716 SPECI KSEA 100716Z 23005KT 10SM -RA BKN011 BKN024 OVC080 13/12 A2984 RMK AO2 RAB01 P0000=
200706100716 SPECI KSEA 100716Z 23005KT 10SM -RA BKN011 BKN024 OVC080 13/12 A2984 RMK AO2 RAB01 P0000=
200706100653 METAR KSEA 100653Z 22006KT 10SM FEW026 BKN037 BKN075 14/12 A2984 RMK AO2 RAE0557 SLP109 P0000 T01390122=
200706100627 SPECI KSEA 100627Z 22004KT 10SM FEW026 BKN035 OVC075 14/12 A2983 RMK AO2 RAE0557 P0000=
200706100627 SPECI KSEA 100627Z 22004KT 10SM FEW026 BKN035 OVC075 14/12 A2983 RMK AO2 RAE0557 P0000=
200706100553 METAR KSEA 100553Z 00000KT 10SM -RA OVC028 14/12 A2983 RMK AO2 RAB48 SLP107 P0000 60003 T01390122 10139 20122 50003=
200706100453 METAR KSEA 100453Z 00000KT 10SM OVC028 14/13 A2983 RMK AO2 SLP108 T01390128=
200706100410 SPECI KSEA 100410Z 00000KT 10SM OVC028 13/13 A2982 RMK AO2=
200706100410 SPECI KSEA 100410Z 00000KT 10SM OVC028 13/13 A2982 RMK AO2=
200706100353 METAR KSEA 100353Z 00000KT 7SM FEW002 OVC030 13/13 A2982 RMK AO2 RAB06E15 SLP105 P0000 T01330128=
200706100333 SPECI KSEA 100333Z 00000KT 7SM FEW002 BKN025 OVC031 13/13 A2983 RMK AO2 RAB06E15 P0000=
200706100333 SPECI KSEA 100333Z 00000KT 7SM FEW002 BKN025 OVC031 13/13 A2983 RMK AO2 RAB06E15 P0000=
200706100329 SPECI KSEA 100329Z 00000KT 1 3/4SM R16C/3000VP6000FT BR FEW002 BKN012 OVC034 13/13 A2982 RMK AO2 RAB06E15 P0000=
200706100329 SPECI KSEA 100329Z 00000KT 1 3/4SM R16C/3000VP6000FT BR FEW002 BKN012 OVC034 13/13 A2982 RMK AO2 RAB06E15 P0000=
200706100326 SPECI KSEA 100326Z 15003KT 3/4SM R16C/1400VP6000FT BR BKN002 BKN006 OVC027 13/13 A2982 RMK AO2 RAB06E15 P0000=
200706100326 SPECI KSEA 100326Z 15003KT 3/4SM R16C/1400VP6000FT BR BKN002 BKN006 OVC027 13/13 A2982 RMK AO2 RAB06E15 P0000=
200706100253 METAR KSEA 100253Z 00000KT 2SM BR BKN004 OVC009 13/13 A2983 RMK AO2 SFC VIS 3 RAE0155 CIG 002V007 SLP106 P0000 60003 T01330128 56006=
200706100153 METAR KSEA 100153Z 19003KT 2SM -RA BR BKN002 OVC006 13/12 A2983 RMK AO2 SFC VIS 3 SLP107 P0001 T01280122=
200706100138 SPECI KSEA 100138Z 19004KT 1SM R16C/P6000FT -RA BR BKN002 OVC007 13/12 A2983 RMK AO2 TWR VIS 2 P0001=
200706100138 SPECI KSEA 100138Z 19004KT 1SM R16C/P6000FT -RA BR BKN002 OVC007 13/12 A2983 RMK AO2 TWR VIS 2 P0001=
200706100053 METAR KSEA 100053Z 20005KT 2SM -RA BR OVC002 13/12 A2984 RMK AO2 SFC VIS 3 SLP109 P0002 T01280122=
200706092353 METAR KSEA 092353Z 23007KT 2SM -RA BR OVC003 12/12 A2984 RMK AO2 SFC VIS 4 SLP112 P0001 60021 T01220117 10133 20117 58004=
200706092253 METAR KSEA 092253Z 20008KT 2SM -RA BR OVC004 12/12 A2985 RMK AO2 SFC VIS 3 CIG 001V006 SLP114 P0004 T01220117=
200706092153 METAR KSEA 092153Z 26006KT 2SM R16C/4500VP6000FT -RA BR SCT002 BKN007 OVC019 12/12 A2986 RMK AO2 SFC VIS 2 1/2 SLP117 P0004 T01220117=
200706092141 SPECI KSEA 092141Z 26006KT 1 3/4SM R16C/3500VP6000FT -RA BR SCT002 BKN007 OVC018 12/12 A2985 RMK AO2 TWR VIS 2 P0003=
200706092141 SPECI KSEA 092141Z 26006KT 1 3/4SM R16C/3500VP6000FT -RA BR SCT002 BKN007 OVC018 12/12 A2985 RMK AO2 TWR VIS 2 P0003=
200706092122 SPECI KSEA 092122Z 22005KT 1 3/4SM R16C/5500VP6000FT -RA BR FEW002 BKN010 OVC019 13/12 A2985 RMK AO2 TWR VIS 2 P0001=
200706092122 SPECI KSEA 092122Z 22005KT 1 3/4SM R16C/5500VP6000FT -RA BR FEW002 BKN010 OVC019 13/12 A2985 RMK AO2 TWR VIS 2 P0001=
200706092114 SPECI KSEA 092114Z 21005KT 3SM -RA BR FEW003 BKN008 OVC019 13/12 A2985 RMK AO2 CIG 006V012 P0001=
200706092114 SPECI KSEA 092114Z 21005KT 3SM -RA BR FEW003 BKN008 OVC019 13/12 A2985 RMK AO2 CIG 006V012 P0001=
200706092053 METAR KSEA 092053Z 16003KT 3SM -RA BR SCT008 BKN014 OVC019 13/12 A2985 RMK AO2 SLP115 P0003 60012 T01280117 57013=
200706092023 SPECI KSEA 092023Z 14004KT 4SM -RA BR SCT008 BKN012 OVC044 13/12 A2986 RMK AO2 P0001=
200706092023 SPECI KSEA 092023Z 14004KT 4SM -RA BR SCT008 BKN012 OVC044 13/12 A2986 RMK AO2 P0001=
200706091953 METAR KSEA 091953Z 19004KT 10SM -RA FEW008 SCT016 OVC048 12/11 A2986 RMK AO2 SLP118 P0003 T01220106=
200706091944 SPECI KSEA 091944Z 18004KT 9SM -RA FEW008 BKN016 OVC048 12/11 A2986 RMK AO2 P0003=
200706091944 SPECI KSEA 091944Z 18004KT 9SM -RA FEW008 BKN016 OVC048 12/11 A2986 RMK AO2 P0003=
200706091911 SPECI KSEA 091911Z 21003KT 6SM -RA BR FEW006 BKN010 OVC030 12/11 A2988 RMK AO2 P0001=
200706091911 SPECI KSEA 091911Z 21003KT 6SM -RA BR FEW006 BKN010 OVC030 12/11 A2988 RMK AO2 P0001=
200706091853 METAR KSEA 091853Z 21004KT 5SM RA BR SCT009 BKN019 OVC055 12/11 A2988 RMK AO2 SLP125 P0006 T01220106=
200706091844 SPECI KSEA 091844Z 20004KT 10SM -RA SCT009 BKN019 OVC055 12/11 A2989 RMK AO2 P0005=
200706091844 SPECI KSEA 091844Z 20004KT 10SM -RA SCT009 BKN019 OVC055 12/11 A2989 RMK AO2 P0005=
200706091822 SPECI KSEA 091822Z 19003KT 7SM -RA BKN019 OVC040 12/10 A2989 RMK AO2 P0004=
200706091822 SPECI KSEA 091822Z 19003KT 7SM -RA BKN019 OVC040 12/10 A2989 RMK AO2 P0004=
200706091753 METAR KSEA 091753Z 20004KT 6SM -RA BR SCT019 OVC046 12/10 A2989 RMK AO2 SLP128 P0004 60004 T01170100 10139 20117 53005=
200706091653 METAR KSEA 091653Z 23006KT 10SM -RA FEW033 BKN060 OVC130 13/09 A2989 RMK AO2 SLP125 P0000 T01280094=
200706091553 METAR KSEA 091553Z 00000KT 10SM -RA FEW055 BKN085 OVC130 14/08 A2987 RMK AO2 RAB51 SLP121 P0000 T01390083=
200706091453 METAR KSEA 091453Z 12005KT 10SM FEW050 OVC085 14/08 A2988 RMK AO2 SLP122 T01390083 58005=
200706091353 METAR KSEA 091353Z 17003KT 10SM FEW050 BKN070 OVC090 13/08 A2989 RMK AO2 SLP127 T01280083=
200706091253 METAR KSEA 091253Z 00000KT 10SM BKN080 OVC110 12/08 A2989 RMK AO2 SLP127 T01220083=
200706091153 METAR KSEA 091153Z 00000KT 10SM OVC095 13/08 A2989 RMK AO2 SLP127 T01280083 10156 20122 58012=
200706091053 METAR KSEA 091053Z 17003KT 10SM OVC100 13/08 A2991 RMK AO2 SLP132 T01280078=
200706090953 METAR KSEA 090953Z 20005KT 10SM BKN120 13/07 A2992 RMK AO2 SLP135 T01280072=
200706090853 METAR KSEA 090853Z 20004KT 10SM CLR 13/08 A2993 RMK AO2 SLP139 T01330078 58010=
200706090753 METAR KSEA 090753Z 19004KT 10SM FEW055 BKN180 14/08 A2994 RMK AO2 SLP143 T01440078 402060100=
200706090653 METAR KSEA 090653Z 16004KT 10SM CLR 14/09 A2995 RMK AO2 SLP146 T01440089=
200706090553 METAR KSEA 090553Z 24005KT 10SM BKN055 16/09 A2996 RMK AO2 SLP149 T01560089 10206 20156 56002=
200706090453 METAR KSEA 090453Z 14008KT 10SM SCT055 BKN160 OVC210 17/08 A2996 RMK AO2 SLP149 T01670083=
200706090353 METAR KSEA 090353Z 16006KT 10SM SCT050 SCT140 OVC210 17/08 A2996 RMK AO2 SLP151 T01670083=
200706090253 METAR KSEA 090253Z 16007KT 10SM SCT045 SCT140 OVC210 18/07 A2996 RMK AO2 SLP151 T01780072 56012=
200706090153 METAR KSEA 090153Z 18006KT 10SM SCT050 OVC200 18/06 A2997 RMK AO2 SLP154 T01830056=
200706090053 METAR KSEA 090053Z 24008KT 10SM SCT050 BKN200 20/06 A2998 RMK AO2 SLP157 T02000056=
200706082353 METAR KSEA 082353Z 16003KT 10SM SCT048 SCT200 19/06 A3000 RMK AO2 SLP163 T01940061 10206 20150 58013=
200706082253 METAR KSEA 082253Z VRB06KT 10SM SCT035 BKN200 20/07 A3002 RMK AO2 SLP171 T02000067=
200706082153 METAR KSEA 082153Z 30008KT 10SM SCT035 BKN200 19/07 A3003 RMK AO2 SLP173 T01940067=
200706082053 METAR KSEA 082053Z 29007KT 10SM SCT035 SCT200 19/07 A3004 RMK AO2 SLP176 T01890067 58006=
200706081953 METAR KSEA 081953Z 28008KT 10SM SCT035 SCT200 18/07 A3005 RMK AO2 SLP181 T01780067=
200706081853 METAR KSEA 081853Z 28007KT 10SM SCT030 SCT060 17/06 A3006 RMK AO2 SLP183 T01670061=
200706081753 METAR KSEA 081753Z 27003KT 10SM SCT030 BKN060 16/07 A3006 RMK AO2 SLP183 T01610072 10167 20100 58010=
200706081653 METAR KSEA 081653Z 04004KT 10SM FEW020 BKN035 15/07 A3007 RMK AO2 SLP187 T01500072=
200706081553 METAR KSEA 081553Z 01006KT 10SM FEW020 BKN033 14/07 A3008 RMK AO2 SLP192 T01390067=
200706081453 METAR KSEA 081453Z 01009KT 10SM BKN033 12/07 A3009 RMK AO2 SLP194 T01170067 53001=
200706081353 METAR KSEA 081353Z 02009KT 10SM BKN035 10/07 A3008 RMK AO2 SLP194 T01000067=
200706081253 METAR KSEA 081253Z 01006KT 10SM BKN033 10/06 A3008 RMK AO2 SLP193 T01000061=
200706081153 METAR KSEA 081153Z 01007KT 10SM OVC031 10/06 A3008 RMK AO2 SLP193 T01000061 10128 20100 56007=
200706081053 METAR KSEA 081053Z 03010KT 10SM FEW031 OVC050 10/06 A3008 RMK AO2 SLP194 T01000061=
200706080953 METAR KSEA 080953Z 03012KT 10SM OVC048 11/06 A3010 RMK AO2 SLP198 T01060061=
200706080853 METAR KSEA 080853Z 03011KT 10SM SCT120 11/07 A3010 RMK AO2 SLP200 T01060067 58007=
200706080753 METAR KSEA 080753Z 04011KT 10SM BKN033 12/07 A3011 RMK AO2 SLP203 T01170067 401720100=
200706080653 METAR KSEA 080653Z 03010KT 10SM SCT028 BKN041 BKN065 12/07 A3011 RMK AO2 SLP204 T01220072=
200706080553 METAR KSEA 080553Z 36006KT 10SM FEW047 BKN065 13/08 A3012 RMK AO2 SLP207 T01280083 10167 20128 50001=
200706080453 METAR KSEA 080453Z 32004KT 10SM SCT044 BKN055 BKN065 BKN200 13/08 A3013 RMK AO2 SLP208 T01330083=
200706080353 METAR KSEA 080353Z 35005KT 10SM SCT046 BKN065 13/08 A3012 RMK AO2 SLP206 T01330078=
200706080253 METAR KSEA 080253Z 33005KT 10SM FEW030 BKN045 OVC065 14/08 A3012 RMK AO2 SLP206 T01440078 57004=
200706080153 METAR KSEA 080153Z 30006KT 10SM SCT030 BKN050 15/08 A3013 RMK AO2 SLP209 T01500078=
200706080053 METAR KSEA 080053Z 31006KT 10SM SCT030 BKN048 16/08 A3013 RMK AO2 SLP208 T01560078=
200706072353 METAR KSEA 072353Z 30005KT 10SM FEW018 SCT030 BKN055 14/08 A3013 RMK AO2 SLP210 T01440078 10172 20117 56005=
200706072253 METAR KSEA 072253Z VRB04KT 10SM FEW032 BKN050 16/06 A3013 RMK AO2 SLP210 T01610056=
200706072153 METAR KSEA 072153Z VRB04KT 10SM BKN032 BKN050 BKN100 16/07 A3014 RMK AO2 SLP212 T01560067=
200706072053 METAR KSEA 072053Z 27003KT 10SM SCT025 BKN055 17/07 A3015 RMK AO2 SLP215 T01670072 58004=
200706072047 SPECI KSEA 072047Z 24003KT 10SM SCT025 BKN055 17/07 A3015 RMK AO2=
200706072047 SPECI KSEA 072047Z 24003KT 10SM SCT025 BKN055 17/07 A3015 RMK AO2=
200706072009 SPECI KSEA 072009Z 27004KT 10SM BKN023 BKN055 15/08 A3016 RMK AO2=
200706072009 SPECI KSEA 072009Z 27004KT 10SM BKN023 BKN055 15/08 A3016 RMK AO2=
200706071953 METAR KSEA 071953Z 00000KT 10SM SCT023 BKN055 14/08 A3016 RMK AO2 SLP220 T01440078=
200706071935 SPECI KSEA 071935Z 00000KT 10SM FEW017 SCT023 BKN050 13/08 A3016 RMK AO2=
200706071935 SPECI KSEA 071935Z 00000KT 10SM FEW017 SCT023 BKN050 13/08 A3016 RMK AO2=
200706071853 METAR KSEA 071853Z 00000KT 10SM BKN019 OVC025 13/08 A3016 RMK AO2 SLP221 BINOVC SW T01280083=
200706071830 SPECI KSEA 071830Z 29004KT 10SM FEW012 BKN016 OVC022 12/08 A3016 RMK AO2=
200706071830 SPECI KSEA 071830Z 29004KT 10SM FEW012 BKN016 OVC022 12/08 A3016 RMK AO2=
200706071753 METAR KSEA 071753Z 17003KT 10SM BKN012 OVC018 12/08 A3016 RMK AO2 SLP220 T01170078 10117 20100 50002=
200706071653 METAR KSEA 071653Z 00000KT 10SM OVC012 11/08 A3016 RMK AO2 SLP221 T01110078=
200706071553 METAR KSEA 071553Z 15003KT 10SM OVC012 11/08 A3016 RMK AO2 SLP221 T01060078=
200706071453 METAR KSEA 071453Z 16005KT 10SM OVC012 11/08 A3015 RMK AO2 SLP217 T01060078 51013=
200706071353 METAR KSEA 071353Z 16004KT 10SM OVC012 10/08 A3014 RMK AO2 SLP215 T01000078=
200706071253 METAR KSEA 071253Z 16004KT 10SM OVC012 10/08 A3013 RMK AO2 SLP210 T01000078=
200706071153 METAR KSEA 071153Z 18004KT 10SM OVC012 10/08 A3012 RMK AO2 SLP204 60000 70001 T01000078 10106 20094 53006=
200706071053 METAR KSEA 071053Z 17003KT 10SM OVC014 10/08 A3010 RMK AO2 SLP201 T01000078=
200706071022 SPECI KSEA 071022Z 17004KT 10SM OVC014 10/08 A3010 RMK AO2=
200706071022 SPECI KSEA 071022Z 17004KT 10SM OVC014 10/08 A3010 RMK AO2=
200706070953 METAR KSEA 070953Z 17004KT 10SM OVC016 10/08 A3010 RMK AO2 SLP199 T01000083=
200706070853 METAR KSEA 070853Z 13004KT 10SM OVC016 10/09 A3010 RMK AO2 SLP198 60000 T01000089 55001=
200706070814 SPECI KSEA 070814Z 13005KT 10SM FEW004 BKN018 OVC031 10/09 A3010 RMK AO2=
200706070814 SPECI KSEA 070814Z 13005KT 10SM FEW004 BKN018 OVC031 10/09 A3010 RMK AO2=
200706070803 SPECI KSEA 070803Z 13007KT 10SM FEW004 SCT018 OVC031 10/09 A3009 RMK AO2=
200706070803 SPECI KSEA 070803Z 13007KT 10SM FEW004 SCT018 OVC031 10/09 A3009 RMK AO2=
200706070753 METAR KSEA 070753Z 14006KT 10SM FEW018 OVC031 10/09 A3009 RMK AO2 SLP197 T01000089 401720089=
200706070743 SPECI KSEA 070743Z 13005KT 10SM FEW004 OVC031 10/09 A3009 RMK AO2=
200706070743 SPECI KSEA 070743Z 13005KT 10SM FEW004 OVC031 10/09 A3009 RMK AO2=
200706070718 SPECI KSEA 070718Z 10005KT 10SM SCT004 OVC029 10/09 A3010 RMK AO2=
200706070718 SPECI KSEA 070718Z 10005KT 10SM SCT004 OVC029 10/09 A3010 RMK AO2=
200706070653 METAR KSEA 070653Z 12004KT 10SM OVC027 10/08 A3010 RMK AO2 DZE0557 SLP198 P0000 T01000083=
200706070607 SPECI KSEA 070607Z 12007KT 4SM BR FEW005 OVC027 09/08 A3010 RMK AO2 DZE0557 P0000=
200706070607 SPECI KSEA 070607Z 12007KT 4SM BR FEW005 OVC027 09/08 A3010 RMK AO2 DZE0557 P0000=
200706070553 METAR KSEA 070553Z 12007KT 4SM -DZ BR SCT015 OVC025 10/08 A3010 RMK AO2 DZB51 SLP199 P0000 60001 T01000083 10128 20100 51012=
200706070453 METAR KSEA 070453Z 12008KT 9SM FEW015 BKN025 OVC035 10/08 A3009 RMK AO2 SLP196 VIS LWR S T01000083=
200706070353 METAR KSEA 070353Z 14007KT 10SM FEW015 BKN027 OVC035 11/08 A3008 RMK AO2 SLP191 T01060078=
200706070253 METAR KSEA 070253Z 09004KT 10SM FEW015 BKN025 OVC035 11/08 A3006 RMK AO2 RAB38E50 SLP188 P0000 60001 T01110078 53012=
200706070153 METAR KSEA 070153Z 06006KT 10SM FEW015 BKN027 OVC032 11/08 A3005 RMK AO2 RAB0055E53 SLP183 P0001 T01110078=
200706070053 METAR KSEA 070053Z 05011KT 10SM FEW027 BKN035 OVC044 12/07 A3004 RMK AO2 SLP179 T01170067=
200706062353 METAR KSEA 062353Z 03011KT 10SM FEW029 BKN037 OVC046 13/08 A3003 RMK AO2 RAE15 SLP174 P0000 60000 T01280078 10172 20128 52020=
200706062253 METAR KSEA 062253Z 36006KT 10SM -RA SCT034 BKN050 OVC120 14/06 A3001 RMK AO2 RAB33 SLP168 P0000 T01390061=
200706062153 METAR KSEA 062153Z 28009KT 10SM FEW035 OVC050 16/04 A2998 RMK AO2 SLP160 T01560044=
200706062053 METAR KSEA 062053Z 25007KT 10SM FEW035 BKN050 OVC080 16/04 A2997 RMK AO2 SLP154 T01560039 53005=
200706061953 METAR KSEA 061953Z 21009KT 10SM SCT035 BKN095 16/04 A2996 RMK AO2 SLP150 T01610044=
200706061853 METAR KSEA 061853Z 24008KT 10SM FEW028 BKN095 16/06 A2995 RMK AO2 SLP149 T01560056=
200706061753 METAR KSEA 061753Z 26005KT 10SM FEW020 SCT040 BKN110 14/05 A2995 RMK AO2 SLP149 T01440050 10144 20089 50004=
200706061653 METAR KSEA 061653Z 21008G16KT 10SM FEW020 SCT042 BKN110 13/06 A2996 RMK AO2 SLP150 T01280061=
200706061553 METAR KSEA 061553Z 20015KT 10SM SCT018 BKN120 BKN200 12/07 A2995 RMK AO2 SLP147 T01220067=
200706061530 SPECI KSEA 061530Z 21011KT 10SM SCT017 SCT200 12/07 A2994 RMK AO2=
200706061530 SPECI KSEA 061530Z 21011KT 10SM SCT017 SCT200 12/07 A2994 RMK AO2=
200706061453 METAR KSEA 061453Z 19006KT 10SM BKN015 BKN040 10/06 A2994 RMK AO2 SLP144 T01000061 53013=
200706061434 SPECI KSEA 061434Z 20007KT 10SM BKN015 10/06 A2993 RMK AO2=
200706061434 SPECI KSEA 061434Z 20007KT 10SM BKN015 10/06 A2993 RMK AO2=
200706061420 SPECI KSEA 061420Z 20009KT 10SM BKN013 BKN040 09/06 A2993 RMK AO2=
200706061420 SPECI KSEA 061420Z 20009KT 10SM BKN013 BKN040 09/06 A2993 RMK AO2=
200706061353 METAR KSEA 061353Z 18007KT 10SM BKN015 BKN025 09/06 A2992 RMK AO2 SLP139 T00940061=
200706061253 METAR KSEA 061253Z 19006KT 10SM BKN015 BKN020 09/06 A2991 RMK AO2 SLP136 T00890056=
200706061153 METAR KSEA 061153Z 16006KT 10SM BKN015 09/06 A2990 RMK AO2 SLP132 70004 T00940061 10122 20094 53006=
200706061053 METAR KSEA 061053Z 16009KT 10SM OVC016 09/06 A2989 RMK AO2 SLP128 T00940056=
200706060953 METAR KSEA 060953Z 17009KT 10SM BKN016 BKN060 OVC080 09/06 A2988 RMK AO2 SLP126 T00940056=
200706060944 SPECI KSEA 060944Z 16006KT 10SM BKN016 OVC080 09/06 A2989 RMK AO2=
200706060944 SPECI KSEA 060944Z 16006KT 10SM BKN016 OVC080 09/06 A2989 RMK AO2=
200706060853 METAR KSEA 060853Z 20007KT 10SM BKN040 BKN070 10/06 A2988 RMK AO2 SLP125 T01000061 55000=
200706060810 SPECI KSEA 060810Z 21008KT 10SM FEW026 BKN037 BKN060 10/07 A2988 RMK AO2=
200706060810 SPECI KSEA 060810Z 21008KT 10SM FEW026 BKN037 BKN060 10/07 A2988 RMK AO2=
200706060753 METAR KSEA 060753Z 21008KT 10SM BKN026 BKN060 11/07 A2988 RMK AO2 SLP125 T01060067 401720106=
200706060723 SPECI KSEA 060723Z 21007KT 10SM BKN024 OVC060 11/07 A2988 RMK AO2=
200706060723 SPECI KSEA 060723Z 21007KT 10SM BKN024 OVC060 11/07 A2988 RMK AO2=
200706060700 METAR KSEA NIL=
200706060653 METAR KSEA 060653Z 22006KT 10SM SCT024 BKN032 11/07 A2988 RMK AO2 SLP125 T01110067=
200706060553 METAR KSEA 060553Z 00000KT 10SM BKN031 12/07 A2988 RMK AO2 SLP125 60001 T01220072 10139 20122 53007=
200706060453 METAR KSEA 060453Z 06004KT 10SM FEW039 SCT047 BKN075 12/06 A2987 RMK AO2 SLP121 T01220061=
200706060353 METAR KSEA 060353Z 05005KT 10SM SCT049 BKN065 BKN100 BKN250 12/06 A2986 RMK AO2 SLP117 T01220061=
200706060253 METAR KSEA 060253Z 07005KT 10SM FEW025 SCT050 BKN080 BKN250 13/07 A2986 RMK AO2 SLP118 60001 T01330067 57003=
200706060153 METAR KSEA 060153Z 03009KT 10SM FEW025 BKN065 BKN250 14/08 A2986 RMK AO2 RAB07E40 SLP118 SH DSNT E-SE P0001 T01390078 $=
200706060053 METAR KSEA 060053Z 04008KT 10SM FEW025 SCT065 SCT200 13/06 A2987 RMK AO2 SLP121 VCSH W T01330061=
200706052353 METAR KSEA 052353Z 03010KT 10SM FEW022 SCT035 BKN065 BKN200 13/10 A2987 RMK AO2 RAB20E44 SLP121 VCSH N-E-SE P0001 60002 T01330100 10172 20117 53006=
200706052253 METAR KSEA 052253Z 01012KT 8SM SCT022 BKN035 BKN200 12/09 A2986 RMK AO2 WSHFT 2157 RAB16E52 SLP119 VCSH W-N-E P0001 T01220094=
200706052245 SPECI KSEA 052245Z 02013KT 7SM -RA SCT022 BKN035 BKN200 12/10 A2986 RMK AO2 WSHFT 2157 RAB16 P0001=
200706052245 SPECI KSEA 052245Z 02013KT 7SM -RA SCT022 BKN035 BKN200 12/10 A2986 RMK AO2 WSHFT 2157 RAB16 P0001=
200706052217 SPECI KSEA 052217Z 34018G22KT 7SM -RA BKN022 BKN032 BKN200 13/08 A2987 RMK AO2 WSHFT 2157 RAB16 PRESRR P0000=
200706052217 SPECI KSEA 052217Z 34018G22KT 7SM -RA BKN022 BKN032 BKN200 13/08 A2987 RMK AO2 WSHFT 2157 RAB16 PRESRR P0000=
200706052214 SPECI KSEA 052214Z 32015G21KT 7SM SCT020 BKN032 OVC050 13/07 A2987 RMK AO2 WSHFT 2157 PRESRR VCSH W-N=
200706052214 SPECI KSEA 052214Z 32015G21KT 7SM SCT020 BKN032 OVC050 13/07 A2987 RMK AO2 WSHFT 2157 PRESRR VCSH W-N=
200706052153 METAR KSEA 052153Z 01011KT 10SM FEW020 SCT035 BKN200 14/08 A2985 RMK AO2 SLP113 VCSH W-NW T01440078=
200706052053 METAR KSEA 052053Z 03014KT 10SM FEW019 SCT036 BKN200 15/09 A2985 RMK AO2 SLP115 T01500089 58003=
200706051953 METAR KSEA 051953Z 20008KT 10SM FEW020 SCT050 BKN200 16/07 A2985 RMK AO2 SLP115 SH DSNT NW-N T01560072=
200706051853 METAR KSEA 051853Z 22009G17KT 10SM FEW019 BKN180 13/08 A2986 RMK AO2 SLP118 T01330083=
200706051753 METAR KSEA 051753Z 20011KT 10SM FEW019 BKN085 OVC120 13/09 A2986 RMK AO2 RAE1654 SLP118 BINOVC SW 60001 T01330089 10133 20117 58004=
200706051653 METAR KSEA 051653Z 21010KT 10SM -RA FEW020 BKN060 OVC080 12/09 A2987 RMK AO2 SLP120 P0001 T01170089=
200706051553 METAR KSEA 051553Z 21010KT 7SM -RA FEW020 BKN055 OVC080 12/09 A2987 RMK AO2 RAB27 SLP121 P0000 T01170094=
200706051453 METAR KSEA 051453Z 21008KT 10SM FEW020 BKN055 OVC100 12/09 A2987 RMK AO2 SLP122 T01220094 58006=
200706051353 METAR KSEA 051353Z 21009KT 10SM FEW020 BKN045 OVC110 12/09 A2988 RMK AO2 SLP124 T01220094 $=
200706051253 METAR KSEA 051253Z 17005KT 10SM FEW017 BKN075 OVC110 12/09 A2988 RMK AO2 SLP125 T01220094 $=
200706051153 METAR KSEA 051153Z 21005KT 10SM BKN065 OVC080 12/10 A2989 RMK AO2 SLP127 70006 T01220100 10133 20122 58001 $=
200706051053 METAR KSEA 051053Z 19009KT 10SM FEW010 BKN060 OVC080 12/10 A2989 RMK AO2 SLP126 T01220100 $=
200706050953 METAR KSEA 050953Z 19008KT 10SM OVC050 12/09 A2990 RMK AO2 SLP130 T01220094 $=
200706050853 METAR KSEA 050853Z 20008KT 10SM BKN046 OVC060 12/10 A2989 RMK AO2 SLP128 T01220100 58007 $=
200706050753 METAR KSEA 050753Z 21010KT 10SM FEW005 BKN047 OVC060 13/11 A2991 RMK AO2 SLP132 T01280106 402060128 $=
200706050653 METAR KSEA 050653Z 21009KT 10SM FEW005 OVC065 13/12 A2991 RMK AO2 SLP132 T01330117 $=
200706050553 METAR KSEA 050553Z 21009KT 10SM FEW002 SCT030 BKN065 13/12 A2991=
200706050453 METAR KSEA 050453Z 21009KT 10SM FEW002 SCT020 OVC075 14/13 A2991 RMK AO2 SLP135 T01390128 $=
200706050406 SPECI KSEA 050406Z 20007KT 10SM SCT002 SCT012 BKN070 14/13 A2991 RMK AO2 $=
200706050406 SPECI KSEA 050406Z 20007KT 10SM SCT002 SCT012 BKN070 14/13 A2991 RMK AO2 $=
200706050353 METAR KSEA 050353Z 20006KT 10SM BKN002 OVC022 14/14 A2992 RMK AO2 DZE52 SLP136 VIS SE-SW 1 P0002 T01440139 $=
200706050331 SPECI KSEA 050331Z 20009KT 7SM -DZ FEW002 SCT021 OVC040 14/14 A2992 RMK AO2 P0002 $=
200706050331 SPECI KSEA 050331Z 20009KT 7SM -DZ FEW002 SCT021 OVC040 14/14 A2992 RMK AO2 P0002 $=
200706050315 SPECI KSEA 050315Z 21008KT 4SM -DZ BR SCT021 OVC038 14/14 A2992 RMK AO2 P0002 $=
200706050315 SPECI KSEA 050315Z 21008KT 4SM -DZ BR SCT021 OVC038 14/14 A2992 RMK AO2 P0002 $=
200706050253 METAR KSEA 050253Z 21007KT 2 1/2SM -DZ BR SCT020 OVC035 15/14 A2993 RMK AO2 RAB36E50DZB53 SLP140 VIS NW-N 3 P0001 60001 T01500139 53008 $=
200706050247 SPECI KSEA 050247Z 23009KT 2 1/2SM -RA BR BKN031 OVC045 15/14 A2993 RMK AO2 RAB36 VIS NW-N 3 P0000 $=
200706050247 SPECI KSEA 050247Z 23009KT 2 1/2SM -RA BR BKN031 OVC045 15/14 A2993 RMK AO2 RAB36 VIS NW-N 3 P0000 $=
200706050153 METAR KSEA 050153Z 21009KT 10SM SCT022 BKN031 BKN060 OVC150 17/12 A2992 RMK AO2 SLP136 SH DSNT S T01670122 $=
200706050145 SPECI KSEA 050145Z 21007KT 10SM SCT022 BKN031 OVC065 17/12 A2992 RMK AO2 SH DSNT S $=
200706050145 SPECI KSEA 050145Z 21007KT 10SM SCT022 BKN031 OVC065 17/12 A2992 RMK AO2 SH DSNT S $=
200706050118 SPECI KSEA 050118Z 24009KT 10SM BKN020 BKN075 OVC120 17/13 A2992 RMK AO2 SH DSNT S $=
200706050118 SPECI KSEA 050118Z 24009KT 10SM BKN020 BKN075 OVC120 17/13 A2992 RMK AO2 SH DSNT S $=
200706050053 METAR KSEA 050053Z 23011KT 10SM FEW035 BKN080 BKN200 18/12 A2991 RMK AO2 SLP133 SH DSNT W-NW T01830117 $=
200706042353 METAR KSEA 042353Z 25007KT 10SM FEW035 BKN090 OVC200 19/12 A2991 RMK AO2 SLP132 SH DSNT SW-W 60003 T01890117 10206 20156 56006 $=
200706042253 METAR KSEA 042253Z 21006KT 10SM FEW035 SCT110 BKN200 19/11 A2991 RMK AO2 SLP131 T01940111 $=
200706042153 METAR KSEA 042153Z 26003KT 10SM FEW030 SCT100 BKN200 18/11 A2991 RMK AO2 RAE2055 SLP133 P0000 T01830111 $=
200706042053 METAR KSEA 042053Z 28004KT 9SM -RA FEW030 BKN090 OVC140 17/14 A2992 RMK AO2 RAB00E18B48 SLP137 P0001 60003 T01720139 56012=
200706041953 METAR KSEA 041953Z 31004KT 10SM FEW030 SCT075 OVC150 17/13 A2993 RMK AO2 RAB12E32 SLP141 P0000 T01670133=
200706041853 METAR KSEA 041853Z 28003KT 10SM FEW023 SCT075 OVC110 16/13 A2995 RMK AO2 RAB00E50 SLP147 P0002 T01610133=
200706041849 SPECI KSEA 041849Z 30004KT 10SM -RA SCT023 SCT075 OVC110 16/13 A2995 RMK AO2 RAB00 P0002=
200706041849 SPECI KSEA 041849Z 30004KT 10SM -RA SCT023 SCT075 OVC110 16/13 A2995 RMK AO2 RAB00 P0002=
200706041825 SPECI KSEA 041825Z 28003KT 5SM -RA BKN026 BKN075 OVC110 16/13 A2995 RMK AO2 RAB00 P0002=
200706041825 SPECI KSEA 041825Z 28003KT 5SM -RA BKN026 BKN075 OVC110 16/13 A2995 RMK AO2 RAB00 P0002=
200706041753 METAR KSEA 041753Z 18006KT 10SM FEW025 SCT075 OVC120 17/11 A2996 RMK AO2 RAE03 SLP149 VCSH S-W P0000 60000 T01720106 10172 20144 53010=
200706041653 METAR KSEA 041653Z 18007KT 10SM -RA FEW030 BKN075 OVC120 17/11 A2995 RMK AO2 RAB49 SLP148 P0000 T01670106=
200706041553 METAR KSEA 041553Z 15005KT 10SM FEW050 BKN150 OVC220 17/11 A2992 RMK AO2 SLP134 SH DSNT SW-NW T01670106=
200706041453 METAR KSEA 041453Z 21011KT 10SM FEW050 BKN160 BKN250 15/11 A2993 RMK AO2 SLP139 T01500111 53015=
200706041353 METAR KSEA 041353Z 20010KT 10SM FEW080 SCT150 BKN250 15/11 A2989 RMK AO2 SLP127 T01500106=
200706041253 METAR KSEA 041253Z 16008KT 10SM FEW150 OVC200 16/10 A2989 RMK AO2 SLP123 T01560100=
200706041153 METAR KSEA 041153Z 17004KT 10SM FEW120 OVC200 16/10 A2988 RMK AO2 SLP122 T01560100 10183 20156 57015=
200706041053 METAR KSEA 041053Z 32003KT 10SM FEW100 OVC200 16/09 A2989 RMK AO2 SLP126 T01560094=
200706040953 METAR KSEA 040953Z 29003KT 10SM FEW100 OVC200 17/12 A2992 RMK AO2 SLP134 T01720117=
200706040853 METAR KSEA 040853Z 12004KT 10SM FEW100 OVC200 18/12 A2993 RMK AO2 SLP137 T01780117 58016=
200706040753 METAR KSEA 040753Z 16003KT 10SM OVC200 18/11 A2995 RMK AO2 SLP145 T01780111 402890133=
200706040653 METAR KSEA 040653Z 14007KT 10SM SCT110 OVC200 18/10 A2999 RMK AO2 SLP161 T01780100=
200706040553 METAR KSEA 040553Z 22006KT 10SM BKN110 OVC200 18/07 A2998 RMK AO2 RAB23E39 SLP155 FRQ LTGIC DSNT E P0000 60000 T01780072 10283 20172 51024=
200706040453 METAR KSEA 040453Z 20009G15KT 10SM SCT110 OVC200 17/11 A2997 RMK AO2 TSE18 SLP152 T01720106=
200706040424 SPECI KSEA 040424Z 22012KT 10SM BKN110 OVC200 18/11 A2995 RMK AO2 TSE18 OCNL LTGCCCG DSNT E TS DSNT E CB DSNT E=
200706040424 SPECI KSEA 040424Z 22012KT 10SM BKN110 OVC200 18/11 A2995 RMK AO2 TSE18 OCNL LTGCCCG DSNT E TS DSNT E CB DSNT E=
200706040353 METAR KSEA 040353Z 20014KT 10SM TS FEW070CB BKN095 OVC200 18/11 A2994 RMK AO2 TSB01RAE09 SLP143 OCNL LTGCCCG E MOV N TS E MOV N CB E MOV N P0000 T01830106=
200706040307 SPECI KSEA 040307Z 21012KT 10SM -TSRA FEW065CB BKN090 BKN110 OVC200 21/11 A2991 RMK AO2 TSB01 OCNL LTGCG SE TS SE MOV E CB SE MOV E P0000=
200706040307 SPECI KSEA 040307Z 21012KT 10SM -TSRA FEW065CB BKN090 BKN110 OVC200 21/11 A2991 RMK AO2 TSB01 OCNL LTGCG SE TS SE MOV E CB SE MOV E P0000=
200706040253 METAR KSEA 040253Z 21009KT 10SM -RA FEW060 BKN090 OVC200 21/12 A2990 RMK AO2 RAB38 SLP131 CB DSNT E P0000 60000 T02110122 53022=
200706040153 METAR KSEA 040153Z 23014KT 10SM FEW060 SCT110 BKN200 24/11 A2988 RMK AO2 SLP123 CB DSNT E T02440111=
200706040053 METAR KSEA 040053Z 24009KT 10SM FEW060 SCT140 BKN200 27/11 A2986 RMK AO2 SLP114 CB DSNT E T02720111=
200706032353 METAR KSEA 032353Z 22013G19KT 10SM FEW050 SCT140 BKN200 28/12 A2984 RMK AO2 SLP108 CB DSNT E T02830117 10289 20233 56004=
200706032253 METAR KSEA 032253Z AUTO 19009KT 10SM FEW050 SCT140 BKN200 29/11 A2984 RMK AO2 SLP108 CB DSNT E T02890111 TSNO=
200706032153 METAR KSEA 032153Z 19006KT 10SM FEW050 SCT140 BKN200 28/11 A2984 RMK AO2 SLP109 T02830106=
200706032053 METAR KSEA 032053Z 23005KT 10SM FEW050 SCT140 BKN200 27/11 A2985 RMK AO2 SLP112 T02720111 58012=
200706031953 METAR KSEA 031953Z 26007KT 10SM FEW050 SCT200 27/13 A2987 RMK AO2 SLP119 T02670128=
200706031853 METAR KSEA 031853Z 24005KT 10SM FEW080 SCT200 24/12 A2989 RMK AO2 SLP124 T02440122=
200706031753 METAR KSEA 031753Z 28005KT 10SM FEW080 SCT200 23/11 A2989 RMK AO2 SLP124 T02330111 10233 20133 58002=
200706031653 METAR KSEA 031653Z 00000KT 10SM FEW080 SCT200 21/11 A2990 RMK AO2 SLP130 T02060106=
200706031553 METAR KSEA 031553Z 19003KT 10SM FEW140 SCT200 19/11 A2990 RMK AO2 SLP130 T01890111=
200706031453 METAR KSEA 031453Z 00000KT 10SM FEW060 SCT200 18/12 A2989 RMK AO2 SLP127 T01780117 51003=
200706031353 METAR KSEA 031353Z 00000KT 10SM FEW060 SCT200 16/12 A2989 RMK AO2 SLP125 T01610117=
200706031253 METAR KSEA 031253Z 00000KT 10SM FEW050 SCT200 14/11 A2989 RMK AO2 SLP127 T01440111=
200706031153 METAR KSEA 031153Z 00000KT 10SM CLR 13/11 A2988 RMK AO2 SLP123 T01330106 10200 20133 51003=
200706031053 METAR KSEA 031053Z 00000KT 10SM CLR 16/11 A2988 RMK AO2 SLP122 T01610106=
200706030953 METAR KSEA 030953Z 01003KT 10SM CLR 17/10 A2988 RMK AO2 SLP120 T01720100=
200706030853 METAR KSEA 030853Z 36006KT 10SM SCT200 18/09 A2987 RMK AO2 SLP119 T01780094 56003=
200706030753 METAR KSEA 030753Z 36006KT 10SM SCT200 18/09 A2988 RMK AO2 SLP120 T01830094 402720122=
200706030653 METAR KSEA 030653Z 03007KT 10SM CLR 19/09 A2988 RMK AO2 SLP121 T01940089=
200706030553 METAR KSEA 030553Z 36008KT 10SM CLR 20/09 A2988 RMK AO2 SLP123 T02000094 10272 20200 52005=
200706030453 METAR KSEA 030453Z 02009KT 10SM FEW050 SCT100 SCT200 21/11 A2988 RMK AO2 SLP122 T02110106=
200706030353 METAR KSEA 030353Z 36006KT 10SM FEW050 SCT100 22/09 A2987 RMK AO2 SLP119 T02220089=
200706030253 METAR KSEA 030253Z 34008KT 10SM FEW050 SCT100 SCT200 24/07 A2987 RMK AO2 SLP118 CB DSNT SE T02440072 56003=
200706030153 METAR KSEA 030153Z 35009KT 10SM FEW050 SCT200 26/08 A2987 RMK AO2 SLP118 T02610078=
200706030053 METAR KSEA 030053Z 36006KT 10SM FEW050 SCT150 BKN200 27/08 A2987 RMK AO2 SLP119 CB DSNT SE T02670078=
200706022353 METAR KSEA 022353Z 29006KT 10SM FEW050 SCT150 BKN200 26/09 A2988 RMK AO2 SLP121 CB DSNT SE T02560094 10267 20217 58019=
200706022253 METAR KSEA 022253Z 34008KT 10SM FEW050 SCT150 BKN200 27/08 A2990 RMK AO2 SLP129 CB DSNT E T02670078=
200706022153 METAR KSEA 022153Z 33008KT 10SM FEW050 SCT150 SCT200 26/07 A2992 RMK AO2 SLP134 T02610067=
200706022053 METAR KSEA 022053Z 35009KT 10SM FEW050 SCT150 SCT200 25/08 A2994 RMK AO2 SLP141 T02500078 58007=
200706021953 METAR KSEA 021953Z 28007KT 10SM FEW150 SCT200 24/09 A2995 RMK AO2 SLP145 T02440094=
200706021853 METAR KSEA 021853Z 34007KT 310V010 10SM FEW150 SCT200 22/08 A2995 RMK AO2 SLP146 T02220083=
200706021753 METAR KSEA 021753Z 33004KT 10SM FEW150 SCT200 22/09 A2996 RMK AO2 SLP148 T02170094 10217 20122 58002=
200706021653 METAR KSEA 021653Z 31007KT 10SM FEW150 SCT200 20/09 A2996 RMK AO2 SLP149 T02000094=
200706021553 METAR KSEA 021553Z 02005KT 10SM FEW150 SCT200 19/08 A2996 RMK AO2 SLP149 T01890083=
200706021453 METAR KSEA 021453Z 04004KT 10SM FEW150 SCT200 17/08 A2996 RMK AO2 SLP149 T01720083 51010=
200706021353 METAR KSEA 021353Z 00000KT 10SM FEW200 14/09 A2995 RMK AO2 SLP147 T01390089=
200706021253 METAR KSEA 021253Z 00000KT 10SM CLR 12/08 A2994 RMK AO2 SLP144 T01220083=
200706021153 METAR KSEA 021153Z 00000KT 10SM CLR 13/08 A2993 RMK AO2 SLP139 T01330078 10194 20133 58001=
200706021053 METAR KSEA 021053Z 00000KT 10SM FEW200 16/07 A2993 RMK AO2 SLP141 T01560067=
200706020953 METAR KSEA 020953Z 04005KT 10SM SCT200 16/06 A2994 RMK AO2 SLP142 T01610056=
200706020853 METAR KSEA 020853Z 03009KT 10SM SCT250 17/07 A2993 RMK AO2 SLP140 T01720067 51008=
200706020753 METAR KSEA 020753Z 03008KT 10SM BKN250 18/06 A2992 RMK AO2 SLP137 T01780056 402610111=
200706020653 METAR KSEA 020653Z 01006KT 10SM BKN250 17/04 A2992 RMK AO2 SLP136 T01720044=
200706020553 METAR KSEA 020553Z 03011KT 10SM SCT250 19/03 A2991 RMK AO2 SLP132 T01940033 10256 20194 51011=
200706020453 METAR KSEA 020453Z 06009KT 10SM SCT250 21/06 A2990 RMK AO2 SLP131 T02060056=
200706020353 METAR KSEA 020353Z 03007KT 10SM BKN250 22/01 A2989 RMK AO2 SLP124 T02170011=
200706020253 METAR KSEA 020253Z 36008KT 10SM BKN250 23/02 A2988 RMK AO2 SLP121 T02330017 56004=
200706020153 METAR KSEA 020153Z 34010KT 10SM BKN250 24/07 A2988 RMK AO2 SLP122 T02440067=
200706020053 METAR KSEA 020053Z 34009KT 10SM FEW050 BKN250 23/08 A2988 RMK AO2 SLP121 T02330078=
200706012353 METAR KSEA 012353Z 36011KT 10SM FEW050 SCT250 25/07 A2989 RMK AO2 SLP125 T02500067 10261 20178 56014=
200706012253 METAR KSEA 012253Z 32008KT 10SM FEW050 SCT250 25/08 A2990 RMK AO2 SLP130 T02500083=
200706012153 METAR KSEA 012153Z 33008KT 10SM FEW050 SCT250 24/09 A2991 RMK AO2 SLP133 T02440089=
200706012053 METAR KSEA 012053Z 30009KT 10SM FEW050 BKN250 23/11 A2993 RMK AO2 SLP139 T02330111 56011=
200706011953 METAR KSEA 011953Z 31006KT 10SM FEW050 BKN250 23/11 A2993 RMK AO2 SLP141 T02280111=
200706011853 METAR KSEA 011853Z 26006KT 10SM BKN250 20/11 A2995 RMK AO2 SLP147 T02000111=
200706011753 METAR KSEA 011753Z 29007KT 10SM BKN250 18/11 A2996 RMK AO2 SLP150 T01780111 10183 20111 58007=
200706011653 METAR KSEA 011653Z 28006KT 10SM BKN250 16/11 A2998 RMK AO2 SLP155 T01610106=
200706011553 METAR KSEA 011553Z 00000KT 10SM FEW003 BKN250 16/11 A2998 RMK AO2 SLP156 T01560106=
200706011531 SPECI KSEA 011531Z 24004KT 10SM FEW003 BKN250 14/11 A2999 RMK AO2=
200706011531 SPECI KSEA 011531Z 24004KT 10SM FEW003 BKN250 14/11 A2999 RMK AO2=
200706011453 METAR KSEA 011453Z 00000KT 10SM BKN250 15/11 A2998 RMK AO2 SLP157 T01500106 51003=
200706011353 METAR KSEA 011353Z 00000KT 10SM BKN250 13/10 A2998 RMK AO2 SLP156 T01280100=
200706011253 METAR KSEA 011253Z 00000KT 10SM FEW250 12/10 A2998 RMK AO2 SLP157 T01170100=
200706011153 METAR KSEA 011153Z 30003KT 10SM CLR 12/10 A2997 RMK AO2 SLP153 T01170100 10183 20117 53001=
200706011053 METAR KSEA 011053Z 00000KT 10SM CLR 13/10 A2997 RMK AO2 SLP153 T01280100=
200706010953 METAR KSEA 010953Z 36006KT 10SM CLR 14/09 A2997 RMK AO2 SLP153 T01440094=
200706010853 METAR KSEA 010853Z 36007KT 10SM CLR 16/10 A2997 RMK AO2 SLP153 T01560100 53000=
200706010753 METAR KSEA 010753Z 36006KT 10SM FEW250 17/09 A2997 RMK AO2 SLP152 T01670094 402780117=
200706010653 METAR KSEA 010653Z 01006KT 10SM CLR 17/10 A2997 RMK AO2 SLP151 T01720100=
200706010553 METAR KSEA 010553Z 01008KT 10SM SCT250 18/09 A2997 RMK AO2 SLP153 T01830094 10278 20183 53006=
200706010453 METAR KSEA 010453Z 03009KT 10SM SCT250 20/09 A2996 RMK AO2 SLP150 T02000094=
200706010353 METAR KSEA 010353Z 02011KT 10SM BKN250 21/09 A2995 RMK AO2 SLP147 T02110094=
200706010253 METAR KSEA 010253Z 02011KT 10SM BKN250 23/10 A2995 RMK AO2 SLP146 T02330100 58008=
200706010153 METAR KSEA 010153Z 36008KT 10SM BKN250 24/11 A2996 RMK AO2 SLP150 T02390106=
200706010053 METAR KSEA 010053Z 36008KT 10SM SCT250 26/08 A2996 RMK AO2 SLP151 T02610083=

# No short TAF reports from KSEA in databse.

###################################
#  large TAF from KSEA
###################################
200706302324 TAF KSEA 302324Z 010024 32008KT P6SM SKC FM0600 VRB03KT P6SM SKC
                       FM1200 VRB03KT P6SM BKN200 FM1800 22006KT
                       P6SM SCT120 BKN200 FM2200 24006KT P6SM BKN120
                       BKN200=
200706301720 TAF KSEA 301720Z 301818 VRB03KT P6SM SCT025 FM2000 30006KT P6SM
                       SCT030 FM2200 32006KT P6SM SKC FM0600 VRB03KT
                       P6SM SKC FM1200 VRB03KT P6SM BKN200=
200706301516 KSEA 301516Z 301512 VRB03KT P6SM SCT045 FM1800 30006KT P6SM SCT050
                       SCT070 FM2100 33006KT P6SM FEW100 FM0600
                       36004KT P6SM SCT040 SCT200=
200706301120 TAF KSEA 301120Z 301212 14004KT P6SM BKN060 BKN100 FM1500 VRB04KT
                       P6SM BKN050 FM1800 30006KT P6SM SCT050 SCT070
                       FM2100 33006KT P6SM FEW100 FM0600 36004KT
                       P6SM SCT040 SCT200=
200706300526 TAF KSEA 300526Z 300606 20006KT P6SM FEW035 SCT070 FM1200 17004KT
                       P6SM BKN030 FM1500 VRB04KT P6SM BKN040 FM1800
                       30006KT P6SM SCT040 FM2200 33006KT P6SM
                       SCT070=
200706292320 TAF KSEA 292320Z 300024 22012G20KT P6SM VCTS SCT025CB BKN045
                      TEMPO 0002 -SHRA BKN025CB OVC045 FM0200 22008KT
                       P6SM VCSH SCT035 BKN050 FM0600 20006KT P6SM
                       SCT035 BKN050 FM1200 18004KT P6SM BKN025
                       FM1500 VRB03KT P6SM BKN035 FM1900 30006KT
                       P6SM SCT040=
200706292025 KSEA 292025Z 292018 21012G20KT P6SM VCTS SCT025CB BKN045
                      TEMPO 2022 -SHRA BKN025CB OVC045 FM2200 22012G20KT
                       P6SM VCTS SCT025CB BKN045
                      TEMPO 2202 -SHRA BKN025CB OVC045 FM0200 22008KT
                       P6SM VCSH SCT035 BKN050 FM0600 22006KT P6SM
                       SCT035 BKN050 FM1200 18004KT P6SM BKN025=
200706291720 TAF KSEA 291720Z 291818 21012G20KT P6SM SCT025 BKN045
                      TEMPO 1822 -SHRA BKN025 OVC045 FM2200 22012G20KT
                       P6SM SCT025 BKN045
                      TEMPO 2202 -SHRA BKN025 OVC045 FM0200 22008KT
                       P6SM VCSH SCT035 BKN050 FM0600 22006KT P6SM
                       SCT035 BKN050 FM1200 18004KT P6SM BKN025=
200706291422 KSEA 291422Z 291412 16006KT P6SM BKN060 BKN110 FM1800 22012G20KT
                       P6SM -SHRA SCT035 BKN050 FM0100 22008KT
                       P6SM VCSH SCT035 BKN050 FM0600 22004KT P6SM
                       BKN030=
200706291124 TAF KSEA 291124Z 291212 16005KT P6SM VCSH SCT015 SCT030
                      TEMPO 1214 BKN015 OVC030 FM1400 18006KT P6SM
                       VCSH BKN015 OVC030 FM1800 22012G20KT P6SM
                       -SHRA SCT035 BKN050 FM0100 22008KT P6SM
                       VCSH SCT035 BKN050 FM0600 22004KT P6SM BKN030=
200706290848 KSEA 290848Z 290906 21007KT P6SM VCSH BKN019 OVC060 FM1800 22012G20KT
                       P6SM -SHRA SCT035 BKN050 FM0100 22008KT
                       P6SM VCSH SCT035 BKN050=
200706290520 TAF KSEA 290520Z 290606 VRB04KT P6SM -SHRA FEW020 BKN070 OVC090
                       TEMPO 0608 4SM -SHRA BKN015 OVC040 FM0800
                       18007KT P6SM VCSH BKN030 BKN080 FM1300 18007KT
                       P6SM VCSH BKN015 OVC030 FM1800 22012G20KT
                       P6SM -SHRA SCT035 BKN050 FM0100 22008KT
                       P6SM VCSH SCT035 BKN050=
200706290415 TAF AMD KSEA 290415Z 290424 00000KT P6SM SCT020 SCT045 BKN090
                      TEMPO 0408 4SM -SHRA BKN015 OVC040 FM0800
                       18007KT P6SM VCSH BKN030 BKN080 FM1800 22012G20KT
                       P6SM VCSH BKN040=
200706282320 TAF KSEA 282320Z 290024 20012KT P6SM VCSH SCT030 BKN080 BKN150
                       TEMPO 0104 5SM SHRA BKN025CB FM0800 18007KT
                       P6SM VCSH BKN030 BKN080 FM1800 22012G20KT
                       P6SM VCSH BKN040=
200706282300 KSEA 290415Z 290424 00000KT P6SM SCT020 SCT045 BKN090
                      TEMPO 0408 4SM -SHRA BKN015 OVC040 FM0800
                       18007KT P6SM VCSH BKN030 BKN080 FM1800 22012G20KT
                       P6SM VCSH BKN040=
200706281731 TAF KSEA 281731Z 281818 VRB03KT P6SM VCSH SCT050 BKN080 BKN150
                       FM2000 16008KT P6SM -RA SCT030 OVC050
                      TEMPO 2024 5SM RA OVC030 FM0000 20012KT P6SM
                       SCT030 BKN050 BKN090
                      TEMPO 0004 5SM SHRA BKN030CB FM0800 VRB03KT
                       P6SM BKN030 BKN050 BKN100=
200706281359 KSEA 281359Z 281412 VRB03KT P6SM -RA OVC080
                      TEMPO 1519 -RA OVC050 FM1900 16008KT P6SM
                       -RA SCT030 OVC050
                      TEMPO 1922 5SM RA OVC030 FM2200 20012G20KT
                       P6SM VCSH SCT030 BKN050 BKN090 FM0200 18006KT
                       P6SM -SHRA SCT025 OVC040=
200706281120 TAF KSEA 281120Z 281212 24003KT P6SM OVC120 FM1330 18005KT P6SM
                       -RA OVC070 FM1500 18007KT P6SM -RA SCT020
                       OVC035 FM2100 20012G20KT P6SM -SHRA SCT025
                       BKN040 OVC090 FM0200 18006KT P6SM -SHRA
                       SCT025 OVC040=
200706280532 TAF KSEA 280532Z 280606 00000KT P6SM OVC120 FM1000 18007KT P6SM
                       OVC100 FM1200 18007KT P6SM OVC050 FM1500
                       18007KT P6SM SCT025 OVC040
                      TEMPO 1519 -RA BKN025 OVC040 FM1900 20012KT
                       P6SM -RA SCT025 OVC040=
200706272320 TAF KSEA 272320Z 280024 VRB05KT P6SM BKN150 FM1000 18007KT P6SM
                       OVC100
                      TEMPO 1620 -RA OVC070 FM2000 18012KT P6SM
                       -RA OVC050=
200706271720 TAF KSEA 271720Z 271818 24005KT P6SM SCT150 OVC200 FM0200 VRB04KT
                       P6SM OVC120 FM0800 18006KT P6SM OVC080 FM1200
                       16008KT P6SM OVC050
                      PROB30 1218 -RA=
200706271120 TAF KSEA 271120Z 271212 18005KT P6SM SCT200 FM2000 26006KT P6SM
                       OVC150 FM0400 22006KT P6SM SCT050 OVC100
                       FM1000 18005KT P6SM BKN040 OVC090
                      PROB30 1012 -RA=
200706270520 TAF KSEA 270520Z 270606 24007KT P6SM SCT120 BKN250 FM1000 21007KT
                       P6SM SCT012 SCT060 BKN120 FM2000 26006KT
                       P6SM SCT060 OVC150 FM0400 22006KT P6SM SCT050
                       OVC100=
200706270322 TAF AMD KSEA 270322Z 270324 35007KT P6SM FEW100 OVC250 FM0530 23010G18KT
                       P6SM SCT100 OVC200 FM1000 21007KT P6SM SCT012
                       SCT060 BKN120 FM2000 26006KT P6SM SCT060
                       OVC150=
200706262320 TAF KSEA 262320Z 270024 30010KT P6SM SCT120 BKN200 FM0500 VRB05KT
                       P6SM BKN120 FM1200 21007KT P6SM SCT012 SCT060
                       BKN120
                      TEMPO 1317 BKN012 BKN060=
200706262300 KSEA 270322Z 270324 35007KT P6SM FEW100 OVC250 FM0530 23010G18KT
                       P6SM SCT100 OVC200 FM1000 21007KT P6SM SCT012
                       SCT060 BKN120 FM2000 26006KT P6SM SCT060
                       OVC150=
200706261720 TAF KSEA 261720Z 261818 34012KT P6SM SCT150 FM0500 VRB05KT P6SM
                       BKN120 FM1200 21007KT P6SM SCT012 SCT060
                       BKN120
                      TEMPO 1317 BKN012 BKN060=
200706261120 TAF KSEA 261120Z 261212 02003KT P6SM FEW200 FM1900 35008KT P6SM
                       BKN160 FM0500 24006KT P6SM BKN120=
200706260520 TAF KSEA 260520Z 260606 02006KT P6SM SCT200 FM0900 04009KT P6SM
                       SCT200 FM1900 35009KT P6SM BKN160 FM0500
                       24006KT P6SM BKN120=
200706252320 TAF KSEA 252320Z 260024 VRB05KT P6SM FEW040 FM0600 02006KT P6SM
                       SCT250 FM1200 09007KT P6SM BKN250=
200706251720 TAF KSEA 251720Z 251818 VRB05KT P6SM SCT030 FM0100 34006KT P6SM
                       SKC=
200706251302 KSEA 251302Z 251312 18007KT P6SM SCT017 BKN120
                      TEMPO 1317 BKN017 BKN120 FM1800 24006KT P6SM
                       SCT025 SCT120 FM2100 VRB05KT P6SM SKC FM0100
                       32006KT P6SM SKC=
200706251121 TAF KSEA 251121Z 251212 18007KT P6SM SCT020 BKN120
                      TEMPO 1215 BKN020 FM1500 19005KT P6SM BKN007
                       FM1800 24006KT P6SM BKN025 FM2100 VRB05KT
                       P6SM SKC FM0100 32006KT P6SM SKC=
200706250930 KSEA 250930Z 251006 18004KT P6SM VCSH BKN020 BKN080 FM1800 33006KT
                       P6SM SCT060 FM2100 34006KT P6SM SKC=
200706250540 TAF KSEA 250540Z 250606 20008KT P6SM VCSH SCT030 BKN070 BKN200
                       FM1100 VRB03KT P6SM SCT025
                      TEMPO 1114 BKN025 FM1800 33006KT P6SM SCT060
                       FM2100 34006KT P6SM SKC=
200706242340 TAF KSEA 242340Z 250024 20010G16KT P6SM SCT025 BKN050
                      TEMPO 0003 4SM -SHRA BKN025 OVC050 FM0300
                       20008KT P6SM SCT030 BKN060 FM1100 VRB03KT
                       P6SM SCT025
                      TEMPO 1114 BKN025 FM1800 33006KT P6SM SCT060=
200706241745 TAF KSEA 241745Z 241818 20008KT P6SM SCT022 BKN050
                      TEMPO 1822 -SHRA BKN022 OVC050 FM2200 20008KT
                       P6SM SCT022 BKN050
                      TEMPO 2202 -SHRA BKN022 OVC050 FM0200 20008KT
                       P6SM VCSH SCT025 BKN050
                      TEMPO 1216 BKN025 OVC050=
200706241120 TAF KSEA 241120Z 241212 20007KT P6SM -SHRA SCT040 OVC060
                      TEMPO 1216 4SM SHRA BR OVC035 FM1600 20008KT
                       P6SM -RA BKN025 BKN040 OVC060 FM0300 23008KT
                       P6SM VCSH SCT025 OVC050=
200706240532 TAF KSEA 240532Z 240606 24006KT P6SM SCT045 OVC120 FM1200 20008KT
                       P6SM VCSH BKN040 OVC090 FM1500 20008KT P6SM
                       -RA BKN025 BKN040 OVC060 FM0300 23008KT
                       P6SM VCSH SCT025 OVC050=
200706232340 TAF KSEA 232340Z 240024 28008KT P6SM SCT060 BKN200 FM0300 24008KT
                       P6SM SCT060 BKN200 FM0800 20008KT P6SM VCSH
                       SCT040 BKN070 OVC120 FM1400 20008KT P6SM
                       -SHRA SCT025 BKN040 OVC060
                      TEMPO 1418 BKN025 OVC040=
200706231741 TAF KSEA 231741Z 231818 20008KT P6SM SCT030 BKN060 FM0100 30006KT
                       P6SM SCT030 BKN060 FM0700 20008KT P6SM OVC050
                       FM1400 20008KT P6SM -SHRA BKN025 OVC040=
200706231133 TAF KSEA 231133Z 231212 19006KT P6SM BKN080
                      TEMPO 1216 BKN030 FM1600 21010KT P6SM VCSH
                       SCT030 BKN060 FM0600 23007KT P6SM OVC050=
200706230525 TAF KSEA 230525Z 230606 21005KT P6SM SCT080 FM1000 16006KT P6SM
                       SCT030 BKN060
                      TEMPO 1014 BKN030 FM1900 21010KT P6SM SCT030
                       BKN060=
200706222338 TAF KSEA 222338Z 230024 23008KT P6SM SCT030 BKN060 FM1000 16006KT
                       P6SM SCT030 BKN060
                      TEMPO 1014 BKN030 FM1900 21010KT P6SM SCT030
                       BKN060=
200706221728 TAF KSEA 221728Z 221818 23008KT P6SM SCT030 BKN060 FM0100 28006KT
                       P6SM SCT030 BKN060 FM0400 23008KT P6SM SCT030
                       BKN060
                      TEMPO 1014 BKN030=
200706221302 KSEA 221302Z 221312 20009KT P6SM SCT020 BKN050 OVC080 FM1900 24008KT
                       P6SM SCT030 BKN050 FM0600 31005KT P6SM SCT120
                       BKN200=
200706221136 TAF KSEA 221136Z 221212 21009KT P6SM SCT020 BKN045 OVC080
                      TEMPO 1317 OVC020 FM1900 24008KT P6SM SCT030
                       BKN050 FM0600 31005KT P6SM SCT120 BKN200=
200706220530 TAF KSEA 220530Z 220606 24011KT P6SM FEW040 BKN090
                      TEMPO 0608 BKN040 FM0800 20007KT P6SM BKN040
                       FM1200 18008KT P6SM BKN030
                      TEMPO 1317 OVC020 FM1900 24007KT P6SM SCT030
                       BKN050=
200706212320 TAF KSEA 212320Z 220024 VRB05KT P6SM SCT040 BKN070
                      TEMPO 0408 BKN040 FM0800 20007KT P6SM BKN040
                       FM1200 18008KT P6SM BKN030
                      TEMPO 1317 OVC020 FM1900 24007KT P6SM SCT030
                       BKN050=
200706211720 TAF KSEA 211720Z 211818 21010KT P6SM SCT035 BKN050 FM0700 18008KT
                       P6SM BKN035=
200706211121 TAF KSEA 211121Z 211212 19008KT P6SM SCT030 BKN045
                      TEMPO 1216 -SHRA BKN025 FM1600 21007KT P6SM
                       VCSH BKN027 FM2100 25007KT P6SM SCT030 BKN060
                       FM0700 20006KT P6SM BKN040=
200706211001 KSEA 211001Z 211006 20008KT P6SM SCT030 BKN050
                      TEMPO 1014 BKN030 FM1400 21007KT P6SM VCSH
                       BKN030 FM2100 25007KT P6SM BKN050=
200706210520 TAF KSEA 210520Z 210606 23008KT P6SM SCT030 BKN060
                      TEMPO 0609 BKN025 FM0900 20007KT P6SM OVC022
                       TEMPO 1216 -DZ OVC018 FM1600 21007KT P6SM
                       BKN018 OVC030 FM2100 25007KT P6SM BKN035=
200706202320 TAF KSEA 202320Z 210024 VRB04KT P6SM FEW040 SCT120 BKN200 FM0400
                       22010KT P6SM SCT030 SCT100 BKN200 FM0800
                       18008KT P6SM BKN030
                      TEMPO 1418 -DZ OVC025=
200706201720 TAF KSEA 201720Z 201818 VRB04KT P6SM SCT200 FM0000 22010KT P6SM
                       SCT120 BKN200 FM0500 18007KT P6SM SCT030
                       BKN060 FM0900 18007KT P6SM BKN030 OVC050
                       PROB30 1218 -SHRA OVC025=
200706201123 TAF KSEA 201123Z 201212 VRB04KT P6SM SCT200 FM1800 23008KT P6SM
                       SCT200 FM0100 22007KT P6SM SCT120 BKN200
                       FM0900 20007KT P6SM BKN040 OVC120
                      PROB30 0912 -SHRA=
200706200520 TAF KSEA 200520Z 200606 VRB04KT P6SM BKN250 FM1800 23008KT P6SM
                       SCT120 OVC200 FM0000 22007KT P6SM BKN120
                       FM0500 20007KT P6SM BKN070 OVC120=
200706192320 TAF KSEA 192320Z 200024 VRB04KT P6SM BKN250 FM1800 21007KT P6SM
                       BKN120=
200706191720 TAF KSEA 191720Z 191818 VRB05KT P6SM SCT200 FM1100 20008KT P6SM
                       SCT005 BKN200
                      TEMPO 1317 4SM BR BKN005=
200706191121 TAF KSEA 191121Z 191212 VRB04KT P6SM BKN200 FM1900 28006KT P6SM
                       SCT120 SCT200 FM0500 23006KT P6SM SCT200=
200706190521 TAF KSEA 190521Z 190606 01007KT P6SM SCT200 FM1100 VRB03KT P6SM
                       BKN200 FM2000 32008KT P6SM SCT120 BKN200=
200706182320 TAF KSEA 182320Z 190024 34007KT P6SM BKN050 FM0400 02005KT P6SM
                       SCT050 FM1200 VRB03KT P6SM SCT200 FM2000
                       34007KT P6SM BKN120 BKN200=
200706182103 KSEA 182103Z 182118 VRB04KT P6SM SCT030 BKN050 FM0400 34007KT P6SM
                       SCT050=
200706181720 TAF KSEA 181720Z 181818 VRB04KT P6SM BKN035 OVC060 FM2100 27007KT
                       P6SM SCT030 BKN060 FM0200 34007KT P6SM SCT060=
200706181121 TAF KSEA 181121Z 181212 21007KT P6SM SCT018 OVC025
                      TEMPO 1216 BKN017 FM1800 23005KT P6SM BKN030
                       BKN060 FM2100 26008KT P6SM SCT030 BKN060
                       FM0200 34007KT P6SM SCT060=
200706180954 KSEA 180954Z 181006 21007KT P6SM SCT018 OVC025
                      TEMPO 1014 BKN017 FM1800 23005KT P6SM BKN035
                       BKN060 FM2100 24008KT P6SM SCT030 BKN060
                       FM0200 33007KT P6SM SCT060=
200706180904 KSEA 180904Z 180906 21007KT P6SM OVC030 FM1800 23005KT P6SM BKN035
                       BKN060 FM2100 24008KT P6SM SCT030 BKN060
                       FM0200 33007KT P6SM SCT060=
200706180520 TAF KSEA 180520Z 180606 21007KT P6SM OVC024 FM0900 18005KT P6SM
                       OVC018 FM1800 23005KT P6SM BKN027 BKN050
                       FM2100 24008KT P6SM SCT030 BKN060 FM0200
                       33007KT P6SM SCT060=
200706180030 TAF AMD KSEA 180030Z 180124 16009KT P6SM SCT028 OVC035 FM0600 20006KT
                       P6SM OVC030 FM0900 18005KT P6SM OVC015 FM1800
                       23005KT P6SM BKN030 BKN050 FM2100 24008KT
                       P6SM BKN060=
200706172320 TAF KSEA 172320Z 180024 18010KT P6SM BKN020 OVC025 FM0600 20006KT
                       P6SM OVC030 FM0900 18005KT P6SM OVC015 FM1800
                       23005KT P6SM BKN030 BKN050 FM2100 24008KT
                       P6SM BKN060=
200706172300 KSEA 180030Z 180124 16009KT P6SM SCT028 OVC035 FM0600 20006KT P6SM
                       OVC030 FM0900 18005KT P6SM OVC015 FM1800
                       23005KT P6SM BKN030 BKN050 FM2100 24008KT
                       P6SM BKN060=
200706172100 KSEA 172100Z 172118 18010KT P6SM BKN020 OVC025 FM0000 19010KT P6SM
                       OVC030 FM0600 20006KT P6SM BKN030 OVC040
                       FM0900 18005KT P6SM OVC020 FM1700 23005KT
                       P6SM BKN030 BKN050=
200706171731 TAF KSEA 171731Z 171818 22012KT P6SM OVC015 FM2100 23012KT P6SM
                       SCT035 BKN050 FM0600 20006KT P6SM BKN030
                       OVC040 FM0900 18005KT P6SM OVC020 FM1700
                       23005KT P6SM BKN030 BKN050=
200706171133 TAF KSEA 171133Z 171212 22012KT P6SM OVC012
                      TEMPO 1216 6SM -RADZ FM1900 22012KT P6SM
                       VCSH BKN022 OVC060 FM2100 22012KT P6SM SCT035
                       BKN060
                      PROB30 2102 -SHRA FM0600 22006KT P6SM SCT025
                       BKN060=
200706170956 KSEA 170956Z 171006 21012KT P6SM OVC012
                      TEMPO 1012 6SM -DZ FM1900 23012KT P6SM BKN022
                       OVC060 FM2100 23012KT P6SM SCT035 BKN060=
200706170520 TAF KSEA 170520Z 170606 20010KT P6SM -SHRA BKN020 OVC050 FM0800
                       20008KT 6SM -RADZ SCT012 OVC020
                      TEMPO 0810 BKN012 OVC020 FM1000 20008KT P6SM
                       OVC012
                      TEMPO 1012 6SM -DZ FM1900 23012KT P6SM BKN022
                       OVC060 FM2100 23012KT P6SM SCT035 BKN060=
200706170247 TAF AMD KSEA 170247Z 170324 22011KT P6SM SCT040 OVC060
                      TEMPO 0306 -SHRA BKN040 OVC060 FM0600 20007KT
                       P6SM VCSH SCT030 OVC050 FM1000 20007KT P6SM
                       VCSH OVC012 FM1400 21008KT P6SM BKN015 OVC030
                       FM2000 24009KT P6SM BKN050 BKN070=
200706162322 TAF KSEA 162322Z 170024 22013KT P6SM VCSH SCT030 BKN040 BKN070
                       TEMPO 0206 -SHRA BKN030 FM0600 20007KT P6SM
                       VCSH SCT030 OVC050 FM1000 20007KT P6SM VCSH
                       OVC012 FM1400 21008KT P6SM BKN015 OVC030
                       FM2000 24009KT P6SM BKN050 BKN070=
200706162300 KSEA 170247Z 170324 22011KT P6SM SCT040 OVC060
                      TEMPO 0306 -SHRA BKN040 OVC060 FM0600 20007KT
                       P6SM VCSH SCT030 OVC050 FM1000 20007KT P6SM
                       VCSH OVC012 FM1400 21008KT P6SM BKN015 OVC030
                       FM2000 24009KT P6SM BKN050 BKN070=
200706161727 TAF KSEA 161727Z 161818 19010KT P6SM BKN030 BKN050 FM2000 22013KT
                       P6SM VCSH BKN040
                      TEMPO 0004 -SHRA BKN020 FM0600 20007KT P6SM
                       VCSH SCT030 OVC050 FM1000 20007KT P6SM VCSH
                       OVC012 FM1400 21008KT P6SM BKN015 OVC030=
200706161506 KSEA 161506Z 161512 19010KT P6SM BKN030 OVC050 FM2000 22013KT P6SM
                       VCSH BKN050 FM0600 20007KT P6SM VCSH SCT012
                       OVC050 FM0900 20007KT P6SM VCSH OVC012=
200706161120 TAF KSEA 161120Z 161212 19006KT P6SM SCT008 OVC015 FM1800 22008KT
                       P6SM VCSH BKN025 OVC050 FM2000 22013KT P6SM
                       VCSH BKN050
                      PROB30 0006 -SHRA FM0600 20007KT P6SM SCT012
                       OVC050
                      PROB30 0609 6SM -DZ BKN012 OVC050 FM0900
                       20007KT P6SM OVC012
                      PROB30 0912 6SM -DZ=
200706160527 TAF KSEA 160527Z 160606 04005KT P6SM BKN060 FM0900 VRB03KT P6SM
                       SCT022 BKN040
                      TEMPO 1012 BKN022 OVC040 FM1200 19006KT P6SM
                       OVC015 FM1800 22008KT P6SM BKN025 OVC050
                       FM2000 22013KT P6SM BKN050
                      PROB30 0006 -SHRA=
200706160022 TAF AMD KSEA 160022Z 160024 27006KT P6SM SCT030 BKN060 FM1000 20009KT
                       P6SM BKN030 OVC050 FM1200 22008KT P6SM BKN015
                       OVC030 FM1600 24007KT P6SM BKN025 OVC050
                       FM2000 22012KT P6SM BKN040 OVC060=
200706152320 TAF KSEA 152320Z 160024 35006KT P6SM BKN040 FM1000 20009KT P6SM
                       BKN030 OVC050 FM1200 22008KT P6SM BKN015
                       OVC030 FM1600 24007KT P6SM BKN025 OVC050
                       FM2000 22012KT P6SM BKN040 OVC060=
200706152300 KSEA 160022Z 160024 27006KT P6SM SCT030 BKN060 FM1000 20009KT P6SM
                       BKN030 OVC050 FM1200 22008KT P6SM BKN015
                       OVC030 FM1600 24007KT P6SM BKN025 OVC050
                       FM2000 22012KT P6SM BKN040 OVC060=
200706152103 KSEA 152103Z 152118 31005KT P6SM VCSH BKN020 BKN045 OVC070 FM0000
                       30008KT P6SM SCT045 BKN070 FM0900 20009KT
                       P6SM BKN030 OVC050 FM1200 22008KT P6SM BKN015
                       OVC030 FM1700 24012KT P6SM BKN030 OVC050=
200706151725 TAF KSEA 151725Z 151818 34007KT P6SM -RA BKN010 BKN040 OVC070 FM1900
                       29006KT P6SM VCSH BKN045 OVC070 FM2300 30008KT
                       P6SM SCT045 BKN070 FM0900 20009KT P6SM BKN030
                       OVC050 FM1200 22008KT P6SM BKN015 OVC030
                       FM1700 24012KT P6SM BKN030 OVC050=
200706151504 KSEA 151504Z 151512 02007KT P6SM -RA BKN040 OVC070
                      TEMPO 1519 BKN030 FM1900 29006KT P6SM VCSH
                       BKN045 OVC070 FM2200 30008KT P6SM VCSH SCT045
                       BKN070 FM0300 02005KT P6SM SCT080 BKN130=
200706151135 TAF KSEA 151135Z 151212 36003KT P6SM OVC070
                      TEMPO 1216 -SHRA FM1600 29006KT P6SM VCSH
                       BKN045 OVC070 FM2100 30008KT P6SM VCSH SCT045
                       BKN070 FM0300 02005KT P6SM SCT080 BKN130=
200706150540 TAF KSEA 150540Z 150606 35008KT P6SM SCT060 BKN150 FM1100 02006KT
                       P6SM SCT050 OVC090 FM1600 22006KT P6SM VCSH
                       BKN045 OVC070 FM2100 30008KT P6SM VCSH SCT045
                       BKN070 FM0300 02005KT P6SM SCT080=
200706142320 TAF KSEA 142320Z 150024 33007KT P6SM SCT045 BKN200 FM0400 02006KT
                       P6SM SCT060 BKN160 FM1100 02006KT P6SM SCT060
                       OVC100 FM1600 18006KT P6SM VCSH SCT045 OVC060
                       FM1900 22007KT P6SM VCSH BKN045 OVC060=
200706141720 TAF KSEA 141720Z 141818 18006KT P6SM SCT015 BKN045 BKN060 FM2000
                       25006KT P6SM BKN045 FM2200 32007KT P6SM
                       SCT045 BKN200 FM0400 02006KT P6SM SCT060
                       BKN160=
200706141432 KSEA 141432Z 141512 20006KT P6SM SCT014 OVC040
                      TEMPO 1517 BKN014 OVC040 FM1900 25006KT P6SM
                       SCT018 OVC045 FM2200 32007KT P6SM SCT040
                       BKN200 FM0400 02006KT P6SM SCT060 BKN160=
200706141134 TAF KSEA 141134Z 141212 20006KT P6SM SCT009 BKN017 OVC060
                      TEMPO 1216 BKN009 OVC017 FM1900 25006KT P6SM
                       SCT018 OVC040 FM2200 32007KT P6SM SCT040
                       BKN200 FM0400 02006KT P6SM SCT060 BKN160=
200706140937 KSEA 140937Z 141006 20005KT P6SM SCT013 BKN017 OVC060
                      TEMPO 1013 SCT017 OVC060 FM1900 31007KT P6SM
                       BKN060 FM2300 31007KT P6SM SCT050=
200706140528 TAF KSEA 140528Z 140606 23006KT P6SM SCT060 FM0900 20005KT P6SM
                       SCT025 SCT060 FM1100 20005KT P6SM OVC025
                       FM1900 31007KT P6SM BKN050 FM2300 31007KT
                       P6SM SCT050=
200706132320 TAF KSEA 132320Z 140024 23013G20KT P6SM SCT030 BKN050 BKN200 FM0500
                       20006KT P6SM BKN060 FM0900 20005KT P6SM
                       SCT025 SCT060 FM1100 20005KT P6SM OVC025
                       FM1900 31007KT P6SM BKN050 FM2300 31007KT
                       P6SM SCT050=
200706131822 KSEA 131822Z 131818 21014KT P6SM VCSH SCT025 BKN060 FM2100 23013KT
                       P6SM VCSH BKN060 OVC100 FM0400 20006KT P6SM
                       BKN060 FM1200 20005KT P6SM OVC018=
200706131720 TAF KSEA 131720Z 131818 21011KT P6SM VCSH SCT018 BKN025 BKN050
                       TEMPO 1820 BKN018 FM2100 23013KT P6SM VCSH
                       SCT030 BKN050 OVC100
                      TEMPO 2124 BKN030 OVC050 FM0400 20006KT P6SM
                       SCT018 OVC035 FM1200 20005KT P6SM OVC018=
200706131140 TAF KSEA 131140Z 131212 21010KT P6SM VCSH SCT018 BKN030 OVC045
                       TEMPO 1216 BKN018 OVC030 FM2000 23013KT
                       P6SM VCSH SCT030 BKN050 OVC100
                      TEMPO 2024 BKN030 OVC050 FM0400 20006KT P6SM
                       SCT018 OVC035=
200706130540 TAF KSEA 130540Z 130606 20003KT P6SM BKN060 OVC120 FM1000 18006KT
                       P6SM VCSH SCT030 OVC050 FM1300 19007KT P6SM
                       VCSH BKN025 OVC040 FM2000 23012KT P6SM VCSH
                       SCT030 BKN050 OVC100
                      TEMPO 2024 BKN030 OVC050=
200706122320 TAF KSEA 122320Z 130024 20008KT P6SM SCT120 BKN200 FM0600 20009KT
                       P6SM SCT040 BKN080 FM1100 19011KT P6SM VCSH
                       BKN025 BKN080
                      TEMPO 1215 -RA OVC015 FM1900 20014KT P6SM
                       VCSH OVC035=
200706121720 TAF KSEA 121720Z 121818 20005KT P6SM FEW025 SCT250 FM2200 24008KT
                       P6SM BKN200 FM0600 20005KT P6SM SCT040 BKN080
                       FM1100 18008KT P6SM VCSH BKN040 FM1300 18012KT
                       P6SM -RA BKN035=
200706121136 TAF KSEA 121136Z 121212 00000KT P6SM SCT012 FM1300 VRB03KT P6SM
                       SCT007 SCT110 FM1600 24004KT P6SM SCT110
                       FM2300 30006KT P6SM BKN110 FM0700 20006KT
                       P6SM SCT040 OVC070 FM1100 18008KT P6SM VCSH
                       OVC035=
200706120535 TAF KSEA 120535Z 120606 VRB04KT P6SM SCT035 BKN070 BKN110 FM1200
                       VRB03KT P6SM SCT007 SCT110 FM1600 VRB03KT
                       P6SM SCT110 FM2200 30006KT P6SM BKN110=
200706112320 TAF KSEA 112320Z 120024 23012KT P6SM VCSH SCT030 BKN070 FM0300
                       28008KT P6SM VCSH SCT030 BKN060
                      TEMPO 0306 -SHRA BKN030 FM0800 VRB04KT P6SM
                       SCT060 FM1700 18005KT P6SM SCT060 FM2100
                       24008KT P6SM SCT060=
200706111720 TAF KSEA 111720Z 111818 22014KT P6SM SCT030 BKN060 FM2100 23014KT
                       P6SM VCSH SCT030 BKN060 FM0300 34008KT P6SM
                       VCSH SCT030 BKN060
                      TEMPO 0306 -SHRA BKN030 FM0800 VRB04KT P6SM
                       SCT060 FM1700 18005KT P6SM SCT060=
200706111120 TAF KSEA 111120Z 111212 20008KT P6SM SCT030 BKN060 FM1800 23008KT
                       P6SM VCSH BKN050 FM0600 VRB03KT P6SM BKN040=
200706110520 TAF KSEA 110520Z 110606 21010KT P6SM BKN060 FM1200 18008KT P6SM
                       BKN040 FM2000 23008KT P6SM BKN050=
200706102325 TAF KSEA 102325Z 110024 23012G18KT P6SM FEW013 SCT035 SCT060 FM0300
                       20007KT P6SM SCT025 BKN060 FM1200 20006KT
                       P6SM SCT020 BKN040 FM1800 22012KT P6SM SCT035
                       SCT060=
200706102209 KSEA 102209Z 102218 24013G20KT P6SM VCSH SCT035 BKN060 FM0300 20007KT
                       P6SM VCSH SCT025 BKN060 FM1200 20006KT P6SM
                       SCT020 BKN040=
200706101908 KSEA 101908Z 101918 20012G20KT P6SM VCSH SCT025 BKN040 FM0300 20007KT
                       P6SM VCSH SCT025 BKN040 FM1200 20006KT P6SM
                       VCSH BKN020 OVC040 FM1700 20010KT P6SM VCSH
                       SCT025 BKN045=
200706101728 TAF KSEA 101728Z 101818 20012KT P6SM VCSH SCT025 BKN040 FM0300
                       20007KT P6SM VCSH SCT025 BKN040 FM1200 20006KT
                       P6SM VCSH BKN020 OVC040 FM1700 20010KT P6SM
                       VCSH SCT025 BKN045=
200706101349 KSEA 101349Z 101412 20007KT P6SM SCT016 BKN050
                      TEMPO 1418 BKN016 BKN050=
200706101120 TAF KSEA 101120Z 101212 22010KT P6SM BKN040
                      TEMPO 2024 SCT040=
200706101009 KSEA 101009Z 101006 22010KT P6SM BKN035
                      TEMPO 2024 SCT040=
200706100520 TAF KSEA 100520Z 100606 18008KT P6SM BKN015 OVC030
                      TEMPO 0610 SCT015 BKN035 FM1700 22012KT P6SM
                       VCSH SCT020 BKN035=
200706100304 TAF AMD KSEA 100304Z 100324 VRB05KT 5SM -DZ BR SCT004 BKN012 BKN020
                       TEMPO 0305 2SM BR BKN004 OVC010 FM0800 22008KT
                       P6SM -SHRA BKN015 OVC025 FM1900 22012KT
                       P6SM VCSH SCT020 BKN035=
200706092321 TAF KSEA 092321Z 100024 20008KT 2SM -RA BR OVC004 FM0300 22012KT
                       P6SM -SHRA BKN025
                      TEMPO 0509 SCT025 FM1200 22008KT P6SM -SHRA
                       BKN015 OVC025 FM1900 22012KT P6SM VCSH SCT020
                       BKN035=
200706092302 KSEA 092302Z 092318 20008KT 2SM -RA BR OVC004 FM0300 22012KT P6SM
                       -SHRA BKN025
                      TEMPO 0509 SCT025 FM1200 22008KT P6SM -SHRA
                       BKN015 OVC025=
200706092300 KSEA 100304Z 100324 VRB05KT 5SM -DZ BR SCT004 BKN012 BKN020
                      TEMPO 0305 2SM BR BKN004 OVC010 FM0800 22008KT
                       P6SM -SHRA BKN015 OVC025 FM1900 22012KT
                       P6SM VCSH SCT020 BKN035=
200706092100 KSEA 092100Z 092118 16003KT 4SM -RA BR SCT008 BKN014 OVC019
                      TEMPO 2101 2SM -RA BR BKN008 OVC014 FM0300
                       22012KT P6SM -SHRA BKN025
                      TEMPO 0509 SCT025 FM1200 22008KT P6SM -SHRA
                       BKN015 OVC025=
200706091826 KSEA 091826Z 091818 19003KT P6SM -RA BKN019 OVC040
                      TEMPO 2024 4SM -RA BR OVC015 FM0300 22012KT
                       P6SM -SHRA BKN025
                      TEMPO 0509 SCT025 FM1200 22008KT P6SM -SHRA
                       BKN015 OVC025=
200706091720 TAF KSEA 091720Z 091818 20008KT P6SM -RA FEW035 BKN050 OVC100 FM2200
                       18012KT 5SM -RA BR OVC025 FM0300 22012KT
                       P6SM -SHRA BKN025
                      TEMPO 0509 SCT025 FM1200 22008KT P6SM -SHRA
                       BKN015 OVC025=
200706091552 KSEA 091552Z 091612 12005KT P6SM FEW050 OVC090 FM1730 18008KT P6SM
                       -RA OVC040 FM2200 18012KT 5SM -RA OVC025
                       FM0600 20012KT P6SM -SHRA BKN025=
200706091120 TAF KSEA 091120Z 091212 16006KT P6SM SCT040 OVC090 FM1500 16008KT
                       P6SM BKN040 OVC080 FM1800 18012KT P6SM -RA
                       OVC040 FM2200 18015KT 5SM -RA OVC025 FM0600
                       20012KT P6SM -SHRA BKN025=
200706090524 TAF KSEA 090524Z 090606 16006KT P6SM SCT050 OVC150 FM1200 16008KT
                       P6SM BKN050 OVC100 FM1800 18012KT P6SM -RA
                       OVC040 FM2200 18015KT 5SM -RA OVC025 FM0400
                       20012G22KT P6SM -SHRA BKN025=
200706082323 TAF KSEA 082323Z 090024 29005KT P6SM SCT035 BKN200 FM0300 VRB03KT
                       P6SM OVC200 FM0900 20005KT P6SM OVC100 FM1500
                       20007KT P6SM OVC060 FM1900 20012KT P6SM
                       -RA OVC045 FM2200 20012KT P6SM -RA SCT020
                       OVC035
                      TEMPO 2224 5SM -RA BR BKN020 OVC035=
200706081721 TAF KSEA 081721Z 081818 04004KT P6SM FEW020 BKN035 FM1900 32007KT
                       P6SM SCT035 FM0900 20005KT P6SM SCT100 BKN200
                       FM1200 20007KT P6SM OVC100 FM1600 20007KT
                       P6SM OVC060=
200706081544 KSEA 081544Z 081612 01009KT P6SM BKN035 FM1900 32007KT P6SM SCT035
                       FM0900 20005KT P6SM SCT100 BKN200=
200706081128 TAF KSEA 081128Z 081212 03008KT P6SM SCT030 BKN045 FM1500 04006KT
                       P6SM SCT020 BKN035 FM1800 26005KT P6SM SCT035
                       BKN050 FM2100 32006KT P6SM SCT050 SCT200
                       TEMPO 0205 BKN050 FM0900 20005KT P6SM SCT100
                       BKN200=
200706080535 TAF KSEA 080535Z 080606 36004KT P6SM SCT045 BKN060 FM1200 06003KT
                       P6SM SCT025 BKN035 FM1800 23006KT P6SM SCT035
                       BKN050 FM2100 25006KT P6SM SCT045 SCT200
                       FM0200 33006KT P6SM BKN045 BKN200 FM0500
                       VRB03KT P6SM SCT050 BKN200=
200706072320 TAF KSEA 072320Z 080024 22005KT P6SM BKN030 BKN060 FM0500 01005KT
                       P6SM BKN030 BKN050 FM1200 05003KT P6SM OVC030
                       FM1600 23005KT P6SM BKN030 FM1900 25007KT
                       P6SM BKN050=
200706071941 KSEA 071941Z 072018 22005KT P6SM SCT020 BKN030 OVC060 FM0500 01005KT
                       P6SM OVC030 FM1200 05003KT 5SM BR OVC020
                       FM1600 20005KT P6SM BKN030 BKN060=
200706071720 TAF KSEA 071720Z 071818 17005KT P6SM OVC015 FM2200 22006KT P6SM
                       BKN020 OVC040 FM0500 01005KT P6SM OVC030
                       FM1200 05003KT 5SM BR OVC020 FM1600 20005KT
                       P6SM BKN030 BKN060=
200706071120 TAF KSEA 071120Z 071212 VRB04KT P6SM BKN015 OVC040 FM1900 VRB04KT
                       P6SM SCT025 BKN050 FM1000 00000KT 5SM BR
                       BKN010=
200706071002 KSEA 071002Z 071006 18005KT P6SM OVC015 FM1500 VRB04KT P6SM BKN015
                       OVC040 FM1900 VRB04KT P6SM SCT025 BKN050
                       FM0000 30006KT P6SM SCT030 BKN060=
200706070608 KSEA 070608Z 070606 17007KT P6SM SCT015 OVC025
                      TEMPO 0610 3SM -DZ BR OVC015 FM1700 22007KT
                       P6SM SCT030 BKN050=
200706070526 TAF KSEA 070526Z 070606 17007KT P6SM OVC025 FM1700 22007KT P6SM
                       SCT030 BKN050=
200706070433 TAF AMD KSEA 070433Z 070524 14007KT P6SM OVC027 FM1600 22007KT
                       P6SM BKN050=
200706062321 TAF KSEA 062321Z 070024 36008KT P6SM VCSH SCT035 BKN050 OVC120
                       TEMPO 0004 -RA BKN025 FM0400 03005KT P6SM
                       VCSH BKN030 OVC050 FM1200 20006KT P6SM VCSH
                       BKN020 OVC040 FM1600 22007KT P6SM BKN040
                       OVC100 FM2000 25008KT P6SM BKN060 OVC120=
200706062300 KSEA 070433Z 070524 14007KT P6SM OVC027 FM1600 22007KT P6SM BKN050=
200706061738 TAF KSEA 061738Z 061818 22013KT P6SM SCT020 BKN040 OVC100 FM2300
                       22013KT P6SM VCSH SCT020 BKN040 OVC120 FM1200
                       20006KT P6SM VCSH BKN020 OVC040 FM1700 22007KT
                       P6SM BKN040 BKN080=
200706061154 TAF KSEA 061154Z 061212 18008KT P6SM BKN015 OVC030
                      TEMPO 1216 SCT020 BKN040 OVC060 FM1800 21008KT
                       P6SM -RA BKN025 OVC050 FM0200 23008KT P6SM
                       VCSH BKN030 BKN060=
200706060800 KSEA 060800Z 060806 21008KT P6SM BKN025 BKN050 FM1800 21008KT P6SM
                       -SHRA BKN025 OVC050=
200706060520 TAF KSEA 060520Z 060606 05005KT P6SM BKN040 BKN080 FM1000 VRB04KT
                       P6SM BKN025 BKN050 FM1800 20008KT P6SM -SHRA
                       BKN025 OVC050=
200706060426 TAF AMD KSEA 060426Z 060424 05005KT P6SM SCT025 BKN050 BKN100 FM0900
                       VRB04KT P6SM BKN025 BKN050 FM1700 20008KT
                       P6SM -RA BKN025 OVC050=
200706052320 TAF KSEA 052320Z 060024 36013G22KT P6SM -SHRA SCT025 BKN060
                      TEMPO 0003 4SM RA BR OVC025 FM0300 20010KT
                       P6SM BKN025 FM0900 20006KT P6SM OVC015 FM1600
                       20008KT P6SM BKN025 FM1800 21012KT P6SM
                       -RA OVC025=
200706052300 KSEA 060426Z 060424 05005KT P6SM SCT025 BKN050 BKN100 FM0900 VRB04KT
                       P6SM BKN025 BKN050 FM1700 20008KT P6SM -RA
                       BKN025 OVC050=
200706052114 KSEA 052114Z 052118 03014KT P6SM VCSH SCT025 BKN050
                      TEMPO 2124 BKN025 FM0000 34009KT P6SM VCSH
                       SCT025 BKN050 FM0300 20005KT P6SM BKN025
                       FM0900 VRB03KT P6SM OVC015 FM1600 20006KT
                       P6SM BKN025=
200706052002 KSEA 052002Z 052018 21010KT P6SM -SHRA SCT025 BKN050 FM2100 36006KT
                       P6SM VCSH SCT025 BKN050
                      TEMPO 2124 BKN025 FM0300 20005KT P6SM BKN025
                       FM0900 VRB03KT P6SM OVC015 FM1600 20006KT
                       P6SM BKN025=
200706051907 KSEA 051907Z 051918 22010KT P6SM -SHRA SCT025 BKN050 OVC080
                      TEMPO 1923 BKN025 FM2300 27008KT P6SM -SHRA
                       BKN030 FM0000 34006KT P6SM -SHRA BKN030
                       OVC060 FM0500 VRB03KT P6SM BKN025 FM0900
                       VRB03KT P6SM OVC015 FM1600 20006KT P6SM
                       BKN025=
200706051720 TAF KSEA 051720Z 051818 20009KT P6SM SCT025 BKN050 OVC080
                      TEMPO 1820 -RA BKN025 FM2000 23010KT P6SM
                       -SHRA BKN035 OVC060 FM0600 VRB03KT P6SM
                       BKN030 FM0900 VRB03KT P6SM OVC015 FM1600
                       20006KT P6SM BKN025=
200706051120 TAF KSEA 051120Z 051212 19010KT P6SM SCT012 BKN050 OVC080
                      TEMPO 1216 BKN012 OVC050 FM2000 23008KT P6SM
                       -SHRA BKN030 OVC060 FM0600 VRB03KT P6SM
                       BKN030=
200706050525 TAF KSEA 050525Z 050606 20008KT P6SM SCT020 BKN050 BKN100
                      TEMPO 1014 BKN020 OVC050 FM2000 23008KT P6SM
                       -SHRA BKN025 OVC050=
200706041831 KSEA 041831Z 041918 19008KT P6SM SCT025 BKN070 OVC100
                      TEMPO 1920 5SM -SHRA BKN025 BKN050 FM2000
                       22011KT P6SM SCT035 BKN070 OVC100 FM0100
                       21007KT P6SM SCT030 OVC050
                      TEMPO 0105 -SHRA BKN030 FM0500 20006KT P6SM
                       VCSH BKN030 OVC050 FM1400 20006KT P6SM OVC035=
200706041740 TAF KSEA 041740Z 041818 19008KT P6SM SCT050 BKN070CB OVC100
                      TEMPO 1820 5SM -SHRA SCT035 BKN050 FM2000
                       22011KT P6SM SCT035 BKN070 OVC100 FM0100
                       21007KT P6SM SCT030 OVC050
                      TEMPO 0105 -SHRA BKN030 FM0500 20006KT P6SM
                       VCSH BKN030 OVC050 FM1400 20006KT P6SM OVC035=
200706041533 KSEA 041533Z 041612 20011KT P6SM VCSH SCT050 BKN100 BKN200 FM1700
                       20011KT P6SM -SHRA BKN050 BKN100 FM1800
                       21012KT P6SM VCTS BKN050CB OVC100
                      TEMPO 1822 -SHRA BKN040 FM0000 22013G20KT
                       P6SM VCSH BKN030 OVC050=
200706041120 TAF KSEA 041120Z 041212 VRB03KT P6SM SCT100 BKN200 FM1600 VRB03KT
                       P6SM VCSH BKN100 BKN200 FM2000 23007KT P6SM
                       -SHRA BKN050 OVC100 FM0600 18008KT P6SM
                       VCSH BKN030 OVC050=
200706041000 KSEA 041000Z 041006 VRB03KT P6SM VCSH BKN100 BKN200 FM1800 23006KT
                       P6SM VCSH BKN050 BKN100 FM2200 23008KT P6SM
                       -SHRA BKN050 OVC100=
200706040520 TAF KSEA 040520Z 040606 20012KT P6SM VCSH SCT050 BKN100 FM1200
                       18008KT P6SM VCSH SCT025 BKN050 BKN100
                      TEMPO 1216 BKN025 OVC050=
200706040309 TAF AMD KSEA 040309Z 040324 21012KT P6SM -TSRA BKN050CB OVC090
                       FM0600 20012KT P6SM VCSH BKN050 BKN120 FM1200
                       20008KT P6SM VCSH BKN025 BKN050=
200706040006 KSEA 040006Z 040024 22011KT P6SM FEW090 SCT130 BKN200 FM0600 20008KT
                       P6SM FEW090 BKN130 OVC200 FM1200 20006KT
                       P6SM SCT015 BKN060 OVC110
                      PROB30 1218 -SHRA BKN015 OVC060 FM1800 20009KT
                       P6SM -SHRA BKN025 OVC060=
200706032320 TAF KSEA 032320Z 040024 20009KT P6SM FEW090 SCT130 BKN200 FM0600
                       20006KT P6SM FEW090 BKN130 OVC200 FM1200
                       20006KT P6SM SCT015 BKN060 OVC110
                      PROB30 1218 -SHRA BKN015 OVC060 FM1800 20009KT
                       P6SM -SHRA BKN025 OVC060=
200706032300 KSEA 040309Z 040324 21012KT P6SM -TSRA BKN050CB OVC090 FM0600 20012KT
                       P6SM VCSH BKN050 BKN120 FM1200 20008KT P6SM
                       VCSH BKN025 BKN050=
200706032105 KSEA 032105Z 032118 23007KT P6SM SCT130 BKN200 FM0600 23007KT P6SM
                       BKN130 OVC200 FM1200 20009KT P6SM SCT025
                       SCT060 OVC110
                      PROB30 1218 -SHRA SCT025 OVC060=
200706031743 TAF KSEA 031743Z 031818 VRB03KT P6SM FEW130 SCT200 FM1900 32007KT
                       P6SM SCT130 SCT200 FM0000 23007KT P6SM SCT130
                       BKN200 FM0600 23007KT P6SM BKN130 OVC200
                       FM1200 20009KT P6SM SCT025 SCT060 OVC110
                       PROB30 1218 -SHRA SCT025 OVC060=
200706031120 TAF KSEA 031120Z 031212 VRB03KT P6SM SCT120 BKN200 FM1900 21010KT
                       P6SM SCT060 BKN120 FM0000 21012KT P6SM BKN060
                       BKN120 FM0900 18008KT P6SM -SHRA BKN040
                       OVC080=
200706030520 TAF KSEA 030520Z 030606 03007KT P6SM SCT120 SCT200 FM1100 VRB03KT
                       P6SM SCT120 BKN200 FM2000 21010KT P6SM SCT060
                       BKN120 FM0500 21012KT P6SM BKN060 BKN120=
200706022322 TAF KSEA 022322Z 030024 33007KT P6SM SCT120 SCT250 FM0600 VRB05KT
                       P6SM SCT250 FM1400 23006KT P6SM SCT010 BKN250
                       FM2100 22007KT P6SM SCT050 SCT080 BKN250=
200706021721 TAF KSEA 021721Z 021818 33007KT P6SM BKN250 FM0600 VRB05KT P6SM
                       SCT250 FM1200 23006KT P6SM SCT100 BKN250=
200706021123 TAF KSEA 021123Z 021212 VRB05KT P6SM SCT250 FM1900 34007KT P6SM
                       BKN250 FM0600 VRB05KT P6SM SCT250=
200706020526 TAF KSEA 020526Z 020606 04006KT P6SM BKN250 FM1500 25005KT P6SM
                       SCT250 FM2100 32007KT P6SM SCT250=
200706012320 TAF KSEA 012320Z 020024 30006KT P6SM SCT250 FM1500 30006KT P6SM
                       SCT008 BKN250 FM1800 31006KT P6SM BKN250=
200706011738 TAF KSEA 011738Z 011818 30006KT P6SM BKN250 FM1500 30006KT P6SM
                       SCT008=
200706011311 KSEA 011311Z 011312 VRB03KT P6SM SKC
                      TEMPO 1516 SCT004 FM1800 33006KT P6SM SCT250=
200706011120 TAF KSEA 011120Z 011212 00000KT P6SM SKC FM1300 VRB05KT P6SM SCT007
                       TEMPO 1316 BKN007 FM1800 33006KT P6SM SCT250=
200706010521 TAF KSEA 010521Z 010606 03009KT P6SM SCT250 FM1200 19005KT P6SM
                       SCT007
                      TEMPO 1216 BKN007 FM1800 28006KT P6SM SCT250=