##########################################################
# Query made at 02/18/2025 01:57:14 UTC
# Time interval: from 05/01/2008 00:00  to 05/31/2008 23:59  UTC
##########################################################

##########################################################
# KSEA, Seattle, Seattle-Tacoma International Airport (United States)
# WMO index: 72793. WIGOS ID: 0-20000-0-72793
# Latitude 47-27-00N. Longitude 122-17-59W. Altitude 130 m.
##########################################################

###################################
#  METAR/SPECI from KSEA
###################################
200805312353 METAR KSEA 312353Z 13004KT 10SM FEW020 SCT050 BKN100 15/11 A3010 RMK AO2 RAE49 SLP198 ACC DSNT W P0002 60003 T01500106 10150 20122 57012=
200805312314 SPECI KSEA 312314Z 14004KT 9SM -RA SCT015 BKN040 BKN100 14/09 A3011 RMK AO2 P0001=
200805312314 SPECI KSEA 312314Z 14004KT 9SM -RA SCT015 BKN040 BKN100 14/09 A3011 RMK AO2 P0001=
200805312253 METAR KSEA 312253Z 12005KT 8SM -RA BKN021 BKN050 BKN100 14/10 A3011 RMK AO2 RAB2156 SLP201 ACC DSNT SW-W P0001 T01390100=
200805312241 SPECI KSEA 312241Z 12006KT 8SM -RA BKN028 BKN050 BKN100 14/10 A3011 RMK AO2 RAB2156 ACC DSNT W P0000=
200805312241 SPECI KSEA 312241Z 12006KT 8SM -RA BKN028 BKN050 BKN100 14/10 A3011 RMK AO2 RAB2156 ACC DSNT W P0000=
200805312153 METAR KSEA 312153Z 12006KT 10SM SCT038 BKN080 BKN160 14/09 A3012 RMK AO2 RAE2057 SLP207 P0000 T01440089=
200805312053 METAR KSEA 312053Z 18005KT 10SM -RA SCT041 BKN170 14/08 A3013 RMK AO2 SLP210 P0000 60000 T01440078 55003=
200805311953 METAR KSEA 311953Z 29004KT 10SM -RA FEW040 SCT090 BKN180 14/08 A3013 RMK AO2 RAB46 SLP208 P0000 T01440078=
200805311853 METAR KSEA 311853Z VRB03KT 10SM SCT031 BKN180 14/07 A3013 RMK AO2 SLP210 T01390072=
200805311753 METAR KSEA 311753Z 30003KT 10SM SCT032 BKN180 12/09 A3014 RMK AO2 RAB17E52 SLP213 P0001 60001 T01220089 10128 20094 53004=
200805311653 METAR KSEA 311653Z 28003KT 10SM SCT037 BKN100 BKN190 12/07 A3013 RMK AO2 RAB27E39 SLP210 P0000 T01220072=
200805311553 METAR KSEA 311553Z 36006KT 10SM SCT100 BKN210 13/07 A3013 RMK AO2 SLP209 T01280067=
200805311453 METAR KSEA 311453Z 01008KT 10SM FEW110 SCT220 12/06 A3013 RMK AO2 SLP209 T01170061 50004=
200805311353 METAR KSEA 311353Z 03007KT 10SM FEW100 SCT200 10/06 A3013 RMK AO2 SLP209 T01000056=
200805311253 METAR KSEA 311253Z 03006KT 10SM FEW150 SCT200 09/06 A3012 RMK AO2 SLP206 T00940056=
200805311153 METAR KSEA 311153Z 02005KT 10SM FEW150 SCT200 09/05 A3012 RMK AO2 SLP204 T00940050 10122 20094 56003=
200805311053 METAR KSEA 311053Z 01005KT 10SM CLR 10/06 A3012 RMK AO2 SLP204 T01000056=
200805310953 METAR KSEA 310953Z 02007KT 10SM CLR 10/06 A3012 RMK AO2 SLP206 T01000061=
200805310853 METAR KSEA 310853Z 01008KT 10SM CLR 11/06 A3013 RMK AO2 SLP208 T01060056 56005=
200805310753 METAR KSEA 310753Z 02009KT 10SM CLR 12/06 A3013 RMK AO2 SLP208 T01170061 401670094=
200805310653 METAR KSEA 310653Z 01007KT 10SM CLR 12/06 A3014 RMK AO2 SLP211 T01170061=
200805310553 METAR KSEA 310553Z 02009KT 10SM CLR 12/06 A3014 RMK AO2 SLP213 T01220056 10167 20122 50003=
200805310453 METAR KSEA 310453Z 35008KT 10SM CLR 13/06 A3014 RMK AO2 SLP213 T01280061=
200805310353 METAR KSEA 310353Z 32004KT 10SM FEW035 14/07 A3014 RMK AO2 SLP211 T01390067=
200805310253 METAR KSEA 310253Z 29006KT 10SM FEW035 16/06 A3013 RMK AO2 SLP210 T01560061 56008=
200805310153 METAR KSEA 310153Z 28005KT 10SM FEW035 16/06 A3014 RMK AO2 SLP211 T01610061=
200805310053 METAR KSEA 310053Z 29007KT 10SM FEW035 16/06 A3014 RMK AO2 SLP214 T01610061=
200805302353 METAR KSEA 302353Z 30005KT 10SM FEW035 16/06 A3016 RMK AO2 SLP218 T01610061 10161 20111 58012=
200805302253 METAR KSEA 302253Z 26005KT 10SM SCT033 16/06 A3017 RMK AO2 SLP224 T01560056=
200805302153 METAR KSEA 302153Z 25007KT 10SM SCT034 15/05 A3018 RMK AO2 SLP227 T01500050=
200805302053 METAR KSEA 302053Z 29008KT 10SM FEW028 BKN035 15/05 A3019 RMK AO2 SLP230 T01500050 58004=
200805301953 METAR KSEA 301953Z 25006KT 10SM FEW025 BKN032 13/04 A3020 RMK AO2 SLP234 T01330039=
200805301853 METAR KSEA 301853Z 00000KT 10SM FEW025 BKN035 13/05 A3021 RMK AO2 SLP235 T01280050=
200805301753 METAR KSEA 301753Z 27004KT 10SM FEW020 OVC037 12/04 A3020 RMK AO2 SLP234 T01170044 10117 20094 51004=
200805301653 METAR KSEA 301653Z 27004KT 10SM FEW020 BKN037 OVC045 11/04 A3020 RMK AO2 SLP234 T01060039=
200805301553 METAR KSEA 301553Z 28003KT 10SM BKN037 OVC045 10/05 A3020 RMK AO2 SLP233 T01000050=
200805301453 METAR KSEA 301453Z 00000KT 10SM BKN037 OVC045 10/05 A3019 RMK AO2 SLP230 T01000050 50000=
200805301353 METAR KSEA 301353Z 23003KT 10SM BKN037 OVC050 09/05 A3019 RMK AO2 SLP231 T00940050=
200805301253 METAR KSEA 301253Z 17004KT 10SM BKN037 OVC050 09/05 A3019 RMK AO2 SLP231 T00940050=
200805301153 METAR KSEA 301153Z 16003KT 10SM OVC039 10/05 A3019 RMK AO2 SLP230 T01000050 10106 20094 50000=
200805301053 METAR KSEA 301053Z 00000KT 10SM SCT032 OVC043 09/05 A3019 RMK AO2 SLP230 T00940050=
200805300953 METAR KSEA 300953Z 22003KT 10SM BKN032 OVC040 10/05 A3019 RMK AO2 SLP231 T01000050=
200805300853 METAR KSEA 300853Z 22003KT 10SM OVC040 10/05 A3019 RMK AO2 SLP229 T01000050 51002=
200805300753 METAR KSEA 300753Z 22006KT 10SM OVC040 10/04 A3019 RMK AO2 SLP229 T01000044 401500089=
200805300653 METAR KSEA 300653Z 24005KT 10SM OVC040 11/04 A3019 RMK AO2 SLP230 T01060039=
200805300553 METAR KSEA 300553Z 23005KT 10SM BKN038 OVC045 11/04 A3018 RMK AO2 SLP229 T01060044 10144 20106 51015=
200805300453 METAR KSEA 300453Z 24005KT 10SM BKN045 12/04 A3018 RMK AO2 SLP225 T01170039=
200805300353 METAR KSEA 300353Z 23007KT 10SM BKN045 12/04 A3016 RMK AO2 SLP218 T01220044=
200805300253 METAR KSEA 300253Z 23008KT 10SM BKN043 13/04 A3014 RMK AO2 SLP213 T01330039 53004=
200805300153 METAR KSEA 300153Z 23007KT 10SM BKN041 14/03 A3013 RMK AO2 SLP211 T01390028=
200805300053 METAR KSEA 300053Z 23007KT 10SM SCT040 14/03 A3013 RMK AO2 SLP209 T01440033=
200805292353 METAR KSEA 292353Z 27010G14KT 10SM SCT036 SCT250 14/03 A3013 RMK AO2 SLP209 T01440033 10150 20106 58001=
200805292253 METAR KSEA 292253Z 22009KT 10SM SCT036 BKN250 14/03 A3013 RMK AO2 SLP211 T01390033=
200805292153 METAR KSEA 292153Z 26010KT 10SM BKN036 BKN250 14/03 A3013 RMK AO2 SLP211 T01390033=
200805292053 METAR KSEA 292053Z 21011G16KT 10SM BKN034 14/03 A3013 RMK AO2 SLP210 T01390033 51002=
200805291953 METAR KSEA 291953Z 21009G18KT 10SM BKN030 BKN037 12/03 A3013 RMK AO2 SLP210 T01170033=
200805291944 SPECI KSEA 291944Z 23011KT 10SM BKN030 BKN037 12/03 A3013 RMK AO2=
200805291944 SPECI KSEA 291944Z 23011KT 10SM BKN030 BKN037 12/03 A3013 RMK AO2=
200805291853 METAR KSEA 291853Z 22010KT 10SM BKN028 BKN035 12/03 A3013 RMK AO2 SLP210 T01170033=
200805291753 METAR KSEA 291753Z 21010KT 10SM BKN025 OVC030 11/03 A3013 RMK AO2 SLP208 T01060028 10106 20089 51008=
200805291653 METAR KSEA 291653Z 23011KT 10SM BKN023 OVC028 10/03 A3012 RMK AO2 SLP207 T01000033=
200805291553 METAR KSEA 291553Z 22011G16KT 10SM BKN022 OVC028 10/03 A3011 RMK AO2 SLP204 T01000033=
200805291453 METAR KSEA 291453Z 23007KT 10SM BKN020 OVC027 09/04 A3010 RMK AO2 SLP199 T00940039 53014 $=
200805291353 METAR KSEA 291353Z 21009KT 10SM OVC020 09/04 A3009 RMK AO2 SLP194 T00890039 $=
200805291253 METAR KSEA 291253Z 22010KT 10SM OVC017 09/04 A3007 RMK AO2 SLP189 T00890039 $=
200805291153 METAR KSEA 291153Z 21009KT 10SM OVC015 09/04 A3006 RMK AO2 SLP186 T00890044 10111 20089 51005 $=
200805291121 SPECI KSEA 291121Z 23007KT 10SM OVC015 09/05 A3006 RMK AO2 $=
200805291121 SPECI KSEA 291121Z 23007KT 10SM OVC015 09/05 A3006 RMK AO2 $=
200805291053 METAR KSEA 291053Z 22008KT 10SM OVC013 09/05 A3006 RMK AO2 SLP184 T00940050 $=
200805290953 METAR KSEA 290953Z 23010KT 10SM OVC011 09/06 A3005 RMK AO2 SLP183 T00940056 $=
200805290853 METAR KSEA 290853Z 23008KT 10SM OVC011 10/06 A3005 RMK AO2 SLP180 T01000061 51008 $=
200805290753 METAR KSEA 290753Z 23008KT 10SM OVC011 10/07 A3004 RMK AO2 SLP180 T01000067 401890100 $=
200805290653 METAR KSEA 290653Z 23009KT 10SM OVC011 11/07 A3004 RMK AO2 SLP177 T01060067 $=
200805290553 METAR KSEA 290553Z 23010KT 10SM OVC013 11/07 A3002 RMK AO2 SLP172 T01110072 10183 20111 51016 $=
200805290537 SPECI KSEA 290537Z 23008G16KT 10SM OVC013 11/07 A3002 RMK AO2 $=
200805290537 SPECI KSEA 290537Z 23008G16KT 10SM OVC013 11/07 A3002 RMK AO2 $=
200805290516 SPECI KSEA 290516Z 22007KT 10SM BKN015 OVC070 11/07 A3002 RMK AO2 $=
200805290516 SPECI KSEA 290516Z 22007KT 10SM BKN015 OVC070 11/07 A3002 RMK AO2 $=
200805290453 METAR KSEA 290453Z 23008KT 10SM SCT018 SCT045 BKN070 12/08 A3001 RMK AO2 SLP169 T01170078 $=
200805290353 METAR KSEA 290353Z 23010KT 10SM BKN050 BKN100 13/08 A2999 RMK AO2 SLP161 T01280083 $=
200805290253 METAR KSEA 290253Z 21008KT 10SM BKN050 BKN100 15/09 A2997 RMK AO2 SLP157 T01500094 53009 $=
200805290153 METAR KSEA 290153Z 21010KT 10SM BKN050 BKN100 17/10 A2996 RMK AO2 SLP151 T01670100 $=
200805290053 METAR KSEA 290053Z 21009KT 10SM FEW026 BKN044 BKN100 17/11 A2995 RMK AO2 SLP148 T01720111=
200805282353 METAR KSEA 282353Z 21009KT 10SM FEW026 BKN040 BKN090 18/11 A2995 RMK AO2 SLP146 T01830111 10189 20139 58002=
200805282253 METAR KSEA 282253Z 19010KT 10SM SCT026 SCT037 BKN045 18/11 A2995 RMK AO2 SLP146 T01830111=
200805282241 SPECI KSEA 282241Z 21010KT 10SM SCT026 BKN043 BKN100 18/11 A2995 RMK AO2=
200805282241 SPECI KSEA 282241Z 21010KT 10SM SCT026 BKN043 BKN100 18/11 A2995 RMK AO2=
200805282217 SPECI KSEA 282217Z 21008KT 10SM BKN021 BKN043 BKN100 18/11 A2995 RMK AO2=
200805282217 SPECI KSEA 282217Z 21008KT 10SM BKN021 BKN043 BKN100 18/11 A2995 RMK AO2=
200805282153 METAR KSEA 282153Z 20006KT 10SM SCT018 BKN035 BKN100 17/11 A2995 RMK AO2 SLP148 T01720106=
200805282145 SPECI KSEA 282145Z 21005KT 10SM FEW018 BKN035 BKN100 17/11 A2995 RMK AO2=
200805282145 SPECI KSEA 282145Z 21005KT 10SM FEW018 BKN035 BKN100 17/11 A2995 RMK AO2=
200805282125 SPECI KSEA 282125Z 18005KT 10SM SCT017 BKN025 BKN100 17/11 A2995 RMK AO2=
200805282125 SPECI KSEA 282125Z 18005KT 10SM SCT017 BKN025 BKN100 17/11 A2995 RMK AO2=
200805282053 METAR KSEA 282053Z 19005KT 10SM SCT017 BKN031 OVC100 16/11 A2995 RMK AO2 SLP148 T01610106 51002=
200805282036 SPECI KSEA 282036Z 16007KT 10SM FEW017 BKN031 OVC100 17/11 A2995 RMK AO2=
200805282036 SPECI KSEA 282036Z 16007KT 10SM FEW017 BKN031 OVC100 17/11 A2995 RMK AO2=
200805281953 METAR KSEA 281953Z 26003KT 10SM SCT015 BKN027 OVC100 16/11 A2995 RMK AO2 SLP148 T01560106=
200805281853 METAR KSEA 281853Z 25003KT 10SM FEW012 BKN025 OVC090 15/11 A2995 RMK AO2 SLP147 T01500111=
200805281816 SPECI KSEA 281816Z 26003KT 10SM SCT012 BKN023 OVC090 14/11 A2995 RMK AO2=
200805281816 SPECI KSEA 281816Z 26003KT 10SM SCT012 BKN023 OVC090 14/11 A2995 RMK AO2=
200805281753 METAR KSEA 281753Z 25006KT 10SM BKN012 BKN025 OVC090 14/11 A2995 RMK AO2 SLP146 T01440106 10144 20117 53004=
200805281737 SPECI KSEA 281737Z 24003KT 10SM BKN011 BKN023 OVC090 14/11 A2994 RMK AO2=
200805281737 SPECI KSEA 281737Z 24003KT 10SM BKN011 BKN023 OVC090 14/11 A2994 RMK AO2=
200805281653 METAR KSEA 281653Z 31003KT 10SM FEW009 BKN023 OVC090 14/11 A2994 RMK AO2 SLP144 T01390106=
200805281553 METAR KSEA 281553Z 29003KT 10SM FEW008 BKN023 OVC090 14/10 A2994 RMK AO2 SLP142 T01390100=
200805281533 SPECI KSEA 281533Z 00000KT 10SM FEW007 BKN023 OVC095 13/10 A2993 RMK AO2=
200805281533 SPECI KSEA 281533Z 00000KT 10SM FEW007 BKN023 OVC095 13/10 A2993 RMK AO2=
200805281453 METAR KSEA 281453Z 28003KT 10SM FEW007 SCT021 BKN095 13/10 A2993 RMK AO2 SLP142 T01280100 50003=
200805281416 SPECI KSEA 281416Z 29004KT 10SM FEW004 SCT019 BKN095 12/10 A2994 RMK AO2=
200805281416 SPECI KSEA 281416Z 29004KT 10SM FEW004 SCT019 BKN095 12/10 A2994 RMK AO2=
200805281353 METAR KSEA 281353Z 27005KT 10SM SCT019 BKN100 12/10 A2994 RMK AO2 SLP143 T01220100=
200805281253 METAR KSEA 281253Z 00000KT 10SM OVC100 12/11 A2993 RMK AO2 SLP139 T01220106=
200805281153 METAR KSEA 281153Z 35003KT 10SM OVC100 13/10 A2993 RMK AO2 SLP139 T01330100 10150 20133 56006=
200805281053 METAR KSEA 281053Z 35006KT 10SM BKN110 13/10 A2993 RMK AO2 SLP141 T01330100=
200805280953 METAR KSEA 280953Z 01007KT 10SM BKN120 14/10 A2993 RMK AO2 SLP141 T01390100=
200805280853 METAR KSEA 280853Z 36007KT 10SM OVC049 14/10 A2994 RMK AO2 SLP145 T01440100 56002=
200805280753 METAR KSEA 280753Z 32003KT 10SM OVC120 14/11 A2995 RMK AO2 SLP146 T01390106 402060117=
200805280653 METAR KSEA 280653Z 32004KT 10SM BKN120 14/11 A2995 RMK AO2 SLP147 T01440106=
200805280553 METAR KSEA 280553Z 30004KT 10SM SCT110 15/12 A2995 RMK AO2 SLP148 T01500117 10206 20150 53001=
200805280453 METAR KSEA 280453Z 33003KT 10SM SCT110 SCT200 16/12 A2995 RMK AO2 SLP146 T01610117=
200805280353 METAR KSEA 280353Z 30003KT 10SM SCT100 SCT200 17/12 A2995 RMK AO2 SLP145 T01720117 $=
200805280253 METAR KSEA 280253Z 32005KT 10SM FEW035 SCT110 SCT200 18/11 A2995 RMK AO2 SLP146 T01830111 56004=
200805280153 METAR KSEA 280153Z 25006KT 10SM FEW035 SCT110 SCT200 19/11 A2995 RMK AO2 SLP147 T01940111=
200805280053 METAR KSEA 280053Z 26004KT 10SM SCT032 SCT110 BKN200 20/11 A2995 RMK AO2 SLP148 T02000106=
200805272353 METAR KSEA 272353Z 28005KT 10SM SCT030 BKN200 20/11 A2996 RMK AO2 SLP151 T02000106 10206 20144 58016=
200805272253 METAR KSEA 272253Z 00000KT 10SM SCT025 SCT100 BKN200 19/11 A2998 RMK AO2 SLP156 T01940111=
200805272212 SPECI KSEA 272212Z 26003KT 10SM SCT025 BKN100 BKN200 18/11 A2999 RMK AO2=
200805272212 SPECI KSEA 272212Z 26003KT 10SM SCT025 BKN100 BKN200 18/11 A2999 RMK AO2=
200805272153 METAR KSEA 272153Z 00000KT 10SM BKN025 BKN120 BKN200 18/11 A2999 RMK AO2 SLP162 T01780106=
200805272053 METAR KSEA 272053Z VRB05KT 10SM BKN022 BKN120 17/11 A3001 RMK AO2 SLP167 T01720106 58008=
200805271953 METAR KSEA 271953Z 18006KT 10SM BKN019 BKN037 BKN120 17/11 A3002 RMK AO2 SLP171 T01720111=
200805271920 SPECI KSEA 271920Z 22006KT 10SM BKN016 BKN037 BKN120 16/11 A3002 RMK AO2=
200805271920 SPECI KSEA 271920Z 22006KT 10SM BKN016 BKN037 BKN120 16/11 A3002 RMK AO2=
200805271853 METAR KSEA 271853Z VRB04KT 10SM SCT012 BKN037 BKN120 16/11 A3003 RMK AO2 SLP173 T01610106=
200805271753 METAR KSEA 271753Z 00000KT 10SM SCT010 SCT017 BKN037 14/11 A3003 RMK AO2 SLP175 60000 T01440106 10144 20117 50003=
200805271729 SPECI KSEA 271729Z 27005KT 10SM SCT009 SCT019 BKN037 14/10 A3003 RMK AO2=
200805271729 SPECI KSEA 271729Z 27005KT 10SM SCT009 SCT019 BKN037 14/10 A3003 RMK AO2=
200805271653 METAR KSEA 271653Z VRB04KT 10SM BKN009 OVC017 13/10 A3003 RMK AO2 SLP176 T01330100=
200805271553 METAR KSEA 271553Z 24004KT 10SM BKN007 BKN015 OVC035 13/10 A3003 RMK AO2 SLP175 T01280100=
200805271533 SPECI KSEA 271533Z 24004KT 10SM BKN006 BKN015 OVC032 12/10 A3003 RMK AO2=
200805271533 SPECI KSEA 271533Z 24004KT 10SM BKN006 BKN015 OVC032 12/10 A3003 RMK AO2=
200805271453 METAR KSEA 271453Z 22003KT 10SM SCT006 BKN010 OVC032 12/10 A3002 RMK AO2 RAB12E24 SLP172 P0000 60000 T01170100 51004 $=
200805271448 SPECI KSEA 271448Z 21003KT 10SM SCT006 BKN010 OVC032 12/10 A3002 RMK AO2 RAB12E24 P0000 $=
200805271448 SPECI KSEA 271448Z 21003KT 10SM SCT006 BKN010 OVC032 12/10 A3002 RMK AO2 RAB12E24 P0000 $=
200805271438 SPECI KSEA 271438Z 00000KT 10SM FEW006 BKN015 OVC032 12/10 A3002 RMK AO2 RAB12E24 P0000 $=
200805271438 SPECI KSEA 271438Z 00000KT 10SM FEW006 BKN015 OVC032 12/10 A3002 RMK AO2 RAB12E24 P0000 $=
200805271429 SPECI KSEA 271429Z 00000KT 10SM FEW006 SCT015 OVC032 12/10 A3002 RMK AO2 RAB12E24 P0000 $=
200805271429 SPECI KSEA 271429Z 00000KT 10SM FEW006 SCT015 OVC032 12/10 A3002 RMK AO2 RAB12E24 P0000 $=
200805271353 METAR KSEA 271353Z 19003KT 9SM SCT015 OVC032 12/10 A3002 RMK AO2 RAB39E50 SLP170 P0000 T01170100 $=
200805271253 METAR KSEA 271253Z 22005KT 10SM SCT014 OVC032 12/09 A3001 RMK AO2 SLP168 T01170089 $=
200805271153 METAR KSEA 271153Z 22004KT 10SM FEW010 SCT014 OVC032 12/09 A3000 RMK AO2 SLP164 T01170089 10144 20117 53007 $=
200805271053 METAR KSEA 271053Z 19007KT 10SM FEW012 BKN030 OVC100 12/09 A3000 RMK AO2 SLP163 T01170089 $=
200805270953 METAR KSEA 270953Z 20004KT 10SM BKN028 BKN043 OVC100 12/09 A2998 RMK AO2 SLP158 T01220089 $=
200805270918 SPECI KSEA 270918Z 20004KT 10SM BKN028 OVC045 13/09 A2998 RMK AO2 $=
200805270918 SPECI KSEA 270918Z 20004KT 10SM BKN028 OVC045 13/09 A2998 RMK AO2 $=
200805270853 METAR KSEA 270853Z 21006KT 10SM FEW028 OVC045 13/08 A2998 RMK AO2 SLP157 T01280083 50006 $=
200805270829 SPECI KSEA 270829Z 22006KT 10SM SCT028 OVC045 13/09 A2998 RMK AO2 $=
200805270829 SPECI KSEA 270829Z 22006KT 10SM SCT028 OVC045 13/09 A2998 RMK AO2 $=
200805270753 METAR KSEA 270753Z 18004KT 10SM OVC028 13/09 A2998 RMK AO2 SLP158 T01330094 402000106 $=
200805270653 METAR KSEA 270653Z 24005KT 10SM BKN030 OVC037 14/08 A2997 RMK AO2 SLP155 T01390078 $=
200805270553 METAR KSEA 270553Z 25005KT 10SM FEW037 SCT090 BKN200 14/11 A2996 RMK AO2 SLP151 T01440111 10200 20144 52015 $=
200805270453 METAR KSEA 270453Z 00000KT 10SM FEW037 BKN085 BKN200 16/12 A2995 RMK AO2 SLP148 T01560117 $=
200805270353 METAR KSEA 270353Z 29007KT 10SM FEW050 BKN080 BKN200 16/12 A2993 RMK AO2 SLP140 T01610117 $=
200805270253 METAR KSEA 270253Z 26005KT 10SM FEW050 SCT120 BKN200 19/12 A2992 RMK AO2 SLP136 T01890117 53010 $=
200805270153 METAR KSEA 270153Z 21008KT 10SM FEW035 SCT120 BKN200 19/12 A2990 RMK AO2 SLP131 T01890117 $=
200805270053 METAR KSEA 270053Z 20006KT 10SM FEW035 SCT120 BKN200 19/12 A2989 RMK AO2 SLP128 T01940117 $=
200805262353 METAR KSEA 262353Z 20005KT 10SM FEW035 SCT120 BKN200 19/12 A2989 RMK AO2 SLP125 T01940117 10194 20128 55004 $=
200805262253 METAR KSEA 262253Z 21007KT 10SM FEW035 SCT100 BKN200 19/12 A2988 RMK AO2 SLP125 T01940117 $=
200805262153 METAR KSEA 262153Z 21005KT 10SM BKN090 BKN120 BKN200 17/11 A2989 RMK AO2 SLP128 T01670111 $=
200805262053 METAR KSEA 262053Z 25005KT 10SM BKN080 BKN110 16/11 A2990 RMK AO2 SLP129 T01610106 50000 $=
200805261953 METAR KSEA 261953Z 24006KT 10SM FEW020 BKN075 16/11 A2990 RMK AO2 SLP130 T01560106 $=
200805261853 METAR KSEA 261853Z 21007KT 10SM FEW009 BKN075 14/10 A2990 RMK AO2 SLP129 T01440100 $=
200805261843 SPECI KSEA 261843Z 23007KT 10SM FEW006 SCT009 BKN075 14/10 A2990 RMK AO2 $=
200805261843 SPECI KSEA 261843Z 23007KT 10SM FEW006 SCT009 BKN075 14/10 A2990 RMK AO2 $=
200805261753 METAR KSEA 261753Z 21007KT 7SM BKN006 OVC009 13/10 A2990 RMK AO2 SLP129 T01280100 10128 20106 53003 $=
200805261748 SPECI KSEA 261748Z 21007KT 7SM BKN006 OVC009 13/10 A2990 RMK AO2 $=
200805261748 SPECI KSEA 261748Z 21007KT 7SM BKN006 OVC009 13/10 A2990 RMK AO2 $=
200805261728 SPECI KSEA 261728Z 21006KT 2 1/2SM BR BKN005 OVC008 12/10 A2989 RMK AO2 SFC VIS 3 $=
200805261728 SPECI KSEA 261728Z 21006KT 2 1/2SM BR BKN005 OVC008 12/10 A2989 RMK AO2 SFC VIS 3 $=
200805261656 SPECI KSEA 261656Z 20005KT 2 1/2SM BR OVC004 12/10 A2989 RMK AO2 $=
200805261656 SPECI KSEA 261656Z 20005KT 2 1/2SM BR OVC004 12/10 A2989 RMK AO2 $=
200805261653 METAR KSEA 261653Z 20006KT 3/4SM BR OVC004 12/10 A2989 RMK AO2 SFC VIS 2 1/2 SLP129 T01170100 $=
200805261553 METAR KSEA 261553Z 20004KT 3/4SM BR OVC002 11/10 A2989 RMK AO2 SFC VIS 1 1/4 SLP129 T01110100 $=
200805261453 METAR KSEA 261453Z 19004KT 1 1/2SM BR OVC002 11/10 A2989 RMK AO2 SLP126 T01110100 53001 $=
200805261439 SPECI KSEA 261439Z 21004KT 1 1/2SM BR OVC002 11/10 A2989 RMK AO2 $=
200805261439 SPECI KSEA 261439Z 21004KT 1 1/2SM BR OVC002 11/10 A2989 RMK AO2 $=
200805261353 METAR KSEA 261353Z 21003KT 1/4SM R16C/5500VP6000FT BR OVC001 11/10 A2989 RMK AO2 SFC VIS 1 SLP126 T01060100 $=
200805261253 METAR KSEA 261253Z 00000KT 1/4SM R16C/1600V3000FT FG VV001 11/09 A2989 RMK AO2 SLP125 T01060094 $=
200805261212 SPECI KSEA 261212Z 00000KT 3/4SM R16C/2200VP6000FT BR OVC001 11/10 A2989 RMK AO2=
200805261212 SPECI KSEA 261212Z 00000KT 3/4SM R16C/2200VP6000FT BR OVC001 11/10 A2989 RMK AO2=
200805261153 METAR KSEA 261153Z 26003KT 1SM R16C/5500VP6000FT BR OVC001 11/10 A2989 RMK AO2 SLP125 T01060100 10156 20106 58001=
200805261144 SPECI KSEA 261144Z 25003KT 1 1/4SM R16C/4500VP6000FT BR OVC001 11/09 A2989 RMK AO2=
200805261144 SPECI KSEA 261144Z 25003KT 1 1/4SM R16C/4500VP6000FT BR OVC001 11/09 A2989 RMK AO2=
200805261116 SPECI KSEA 261116Z 21003KT 2SM R16C/2800VP6000FT BR OVC001 11/09 A2988 RMK AO2=
200805261116 SPECI KSEA 261116Z 21003KT 2SM R16C/2800VP6000FT BR OVC001 11/09 A2988 RMK AO2=
200805261114 SPECI KSEA 261114Z 20004KT 2 1/2SM BR OVC003 11/09 A2988 RMK AO2=
200805261114 SPECI KSEA 261114Z 20004KT 2 1/2SM BR OVC003 11/09 A2988 RMK AO2=
200805261053 METAR KSEA 261053Z 21004KT 8SM OVC003 11/09 A2989 RMK AO2 SLP126 T01060094=
200805261016 SPECI KSEA 261016Z 19006KT 10SM BKN003 OVC100 11/09 A2989 RMK AO2=
200805261016 SPECI KSEA 261016Z 19006KT 10SM BKN003 OVC100 11/09 A2989 RMK AO2=
200805260953 METAR KSEA 260953Z 19004KT 10SM SCT003 OVC110 12/10 A2989 RMK AO2 SLP126 T01170100=
200805260949 SPECI KSEA 260949Z 19004KT 10SM SCT003 OVC110 12/10 A2989 RMK AO2=
200805260949 SPECI KSEA 260949Z 19004KT 10SM SCT003 OVC110 12/10 A2989 RMK AO2=
200805260853 METAR KSEA 260853Z 20003KT 10SM SCT200 12/11 A2989 RMK AO2 SLP128 T01220106 58008=
200805260753 METAR KSEA 260753Z 18005KT 10SM SCT200 13/11 A2990 RMK AO2 SLP131 T01280111 401890117=
200805260653 METAR KSEA 260653Z 00000KT 10SM SCT120 15/12 A2991 RMK AO2 SLP134 T01500117=
200805260553 METAR KSEA 260553Z 31004KT 10SM SCT042 BKN130 BKN200 16/12 A2992 RMK AO2 SLP137 T01560117 10189 20156 58003=
200805260453 METAR KSEA 260453Z 32004KT 10SM SCT040 BKN130 BKN200 16/11 A2993 RMK AO2 SLP140 T01610111=
200805260353 METAR KSEA 260353Z 18005KT 10SM FEW030 SCT100 BKN200 17/11 A2993 RMK AO2 SLP141 T01670111=
200805260253 METAR KSEA 260253Z 19006KT 10SM FEW030 SCT150 SCT200 18/11 A2993 RMK AO2 SLP140 T01780111 56008=
200805260153 METAR KSEA 260153Z 26006KT 10SM FEW025 SCT160 SCT250 19/11 A2993 RMK AO2 SLP139 T01890111=
200805260053 METAR KSEA 260053Z 22007KT 10SM FEW025 SCT160 SCT250 19/12 A2994 RMK AO2 SLP142 T01890117=
200805252353 METAR KSEA 252353Z 23006KT 10SM FEW025 SCT130 SCT250 19/11 A2995 RMK AO2 SLP147 T01890111 10189 20144 58013=
200805252253 METAR KSEA 252253Z 22007KT 10SM FEW022 SCT130 BKN250 18/11 A2997 RMK AO2 SLP152 T01780111=
200805252153 METAR KSEA 252153Z 22008KT 10SM SCT019 SCT130 BKN250 18/11 A2998 RMK AO2 SLP156 T01780111=
200805252120 SPECI KSEA 252120Z 19005KT 10SM SCT019 SCT130 BKN250 17/11 A2998 RMK AO2=
200805252120 SPECI KSEA 252120Z 19005KT 10SM SCT019 SCT130 BKN250 17/11 A2998 RMK AO2=
200805252053 METAR KSEA 252053Z 18006KT 10SM BKN019 17/11 A2999 RMK AO2 SLP160 T01720111 58010=
200805251953 METAR KSEA 251953Z 21006KT 10SM OVC017 16/11 A3001 RMK AO2 SLP166 T01610111=
200805251853 METAR KSEA 251853Z VRB04KT 10SM SCT013 BKN019 16/12 A3001 RMK AO2 SLP169 T01560117=
200805251753 METAR KSEA 251753Z 22005KT 10SM BKN011 OVC021 14/11 A3002 RMK AO2 SLP171 60000 T01440111 10144 20117 58001=
200805251653 METAR KSEA 251653Z 22005KT 10SM OVC011 13/10 A3002 RMK AO2 SLP172 T01330100=
200805251646 SPECI KSEA 251646Z 23005KT 10SM OVC011 13/10 A3003 RMK AO2=
200805251646 SPECI KSEA 251646Z 23005KT 10SM OVC011 13/10 A3003 RMK AO2=
200805251553 METAR KSEA 251553Z 20006KT 10SM BKN008 OVC016 13/11 A3003 RMK AO2 SLP173 T01280106=
200805251453 METAR KSEA 251453Z 21006KT 10SM OVC008 12/11 A3002 RMK AO2 SLP170 60000 T01220106 53014=
200805251353 METAR KSEA 251353Z 20007KT 10SM SCT008 OVC085 12/10 A3001 RMK AO2 RAE02B23E39 SLP166 P0000 T01170100=
200805251338 SPECI KSEA 251338Z 21005KT 10SM -RA SCT008 OVC090 12/10 A3000 RMK AO2 RAE02B23 P0000=
200805251338 SPECI KSEA 251338Z 21005KT 10SM -RA SCT008 OVC090 12/10 A3000 RMK AO2 RAE02B23 P0000=
200805251253 METAR KSEA 251253Z 20008KT 10SM -RA OVC080 12/10 A2999 RMK AO2 RAE15B31 SLP159 P0000 T01170100=
200805251220 SPECI KSEA 251220Z 21008KT 10SM SCT011 OVC065 12/10 A2998 RMK AO2 RAE15 P0000=
200805251220 SPECI KSEA 251220Z 21008KT 10SM SCT011 OVC065 12/10 A2998 RMK AO2 RAE15 P0000=
200805251205 SPECI KSEA 251205Z 21007KT 10SM -RA BKN011 OVC070 12/10 A2998 RMK AO2 P0000=
200805251205 SPECI KSEA 251205Z 21007KT 10SM -RA BKN011 OVC070 12/10 A2998 RMK AO2 P0000=
200805251153 METAR KSEA 251153Z 21007KT 10SM -RA SCT011 OVC070 12/10 A2998 RMK AO2 RAB14 SLP156 P0000 60017 70017 T01170100 10194 20117 51015=
200805251127 SPECI KSEA 251127Z 20007KT 10SM -RA FEW011 OVC075 12/10 A2997 RMK AO2 RAB14 P0000=
200805251127 SPECI KSEA 251127Z 20007KT 10SM -RA FEW011 OVC075 12/10 A2997 RMK AO2 RAB14 P0000=
200805251053 METAR KSEA 251053Z 19005KT 10SM BKN011 OVC080 12/10 A2997 RMK AO2 RAB24E46 SLP152 P0000 T01220100=
200805251045 SPECI KSEA 251045Z 19008KT 10SM -RA SCT009 OVC080 12/10 A2997 RMK AO2 RAB24 P0000=
200805251045 SPECI KSEA 251045Z 19008KT 10SM -RA SCT009 OVC080 12/10 A2997 RMK AO2 RAB24 P0000=
200805250953 METAR KSEA 250953Z 20008KT 10SM OVC085 12/11 A2995 RMK AO2 RAE34 SLP145 P0008 T01220106=
200805250936 SPECI KSEA 250936Z 20007KT 10SM SCT026 OVC090 13/11 A2995 RMK AO2 RAE34 P0008=
200805250936 SPECI KSEA 250936Z 20007KT 10SM SCT026 OVC090 13/11 A2995 RMK AO2 RAE34 P0008=
200805250912 SPECI KSEA 250912Z 19008KT 4SM RA BR OVC028 13/11 A2993 RMK AO2 P0005 $=
200805250912 SPECI KSEA 250912Z 19008KT 4SM RA BR OVC028 13/11 A2993 RMK AO2 P0005 $=
200805250853 METAR KSEA 250853Z 20006KT 5SM RA BR OVC033 13/12 A2993 RMK AO2 SLP141 P0006 60009 T01330117 51024=
200805250753 METAR KSEA 250753Z 21005KT 5SM RA BKN036 OVC075 14/12 A2992 RMK AO2 RAE14B35 SLP135 P0003 T01440117 402500100=
200805250653 METAR KSEA 250653Z 00000KT 10SM -RA OVC080 17/12 A2990 RMK AO2 RAB49 SLP128 P0000 T01670117=
200805250553 METAR KSEA 250553Z 00000KT 10SM BKN090 19/10 A2986 RMK AO2 SLP116 T01940100 10250 20189 53019=
200805250453 METAR KSEA 250453Z 35004KT 10SM FEW060 BKN120 BKN200 19/09 A2984 RMK AO2 SLP108 T01940089=
200805250353 METAR KSEA 250353Z 35007KT 10SM FEW070 SCT100 SCT200 21/09 A2982 RMK AO2 SLP101 T02060089=
200805250253 METAR KSEA 250253Z 34009KT 10SM FEW070 SCT110 SCT200 23/06 A2980 RMK AO2 SLP097 T02280056 53010=
200805250153 METAR KSEA 250153Z 34008KT 10SM FEW065 SCT100 BKN200 24/08 A2979 RMK AO2 SLP092 VIRGA DSNT SE T02440078=
200805250053 METAR KSEA 250053Z 29008KT 10SM FEW065 SCT200 24/07 A2978 RMK AO2 SLP087 CB DSNT S TCU DSNT E VIRGA DSNT SE T02440072=
200805242353 METAR KSEA 242353Z 31008KT 10SM FEW065 SCT200 24/07 A2977 RMK AO2 SLP087 TCU DSNT S T02440072 10250 20189 53002=
200805242253 METAR KSEA 242253Z 30009KT 10SM FEW060 SCT200 24/07 A2977 RMK AO2 SLP084 TCU DSNT SE-S T02390072=
200805242153 METAR KSEA 242153Z 31007KT 10SM FEW060 SCT200 23/08 A2977 RMK AO2 SLP084 TCU DSNT E-SE T02330083=
200805242053 METAR KSEA 242053Z 31008KT 10SM SCT180 23/10 A2977 RMK AO2 SLP084 T02280100 57005=
200805241953 METAR KSEA 241953Z 34008KT 10SM SCT190 23/09 A2977 RMK AO2 SLP086 T02280089=
200805241853 METAR KSEA 241853Z 30007KT 10SM SCT200 21/10 A2978 RMK AO2 SLP089 T02060100=
200805241753 METAR KSEA 241753Z 30005KT 10SM FEW120 BKN220 19/11 A2978 RMK AO2 SLP091 T01890106 10189 20100 50005=
200805241653 METAR KSEA 241653Z 00000KT 10SM FEW110 BKN230 17/11 A2979 RMK AO2 SLP091 T01720111=
200805241553 METAR KSEA 241553Z 32003KT 10SM FEW090 BKN220 16/10 A2978 RMK AO2 SLP088 T01560100=
200805241453 METAR KSEA 241453Z 03003KT 10SM FEW090 BKN220 14/10 A2977 RMK AO2 SLP086 T01440100 53012=
200805241353 METAR KSEA 241353Z 00000KT 10SM FEW110 BKN200 12/10 A2975 RMK AO2 SLP081 T01220100=
200805241253 METAR KSEA 241253Z 00000KT 6SM BR FEW120 BKN200 11/09 A2974 RMK AO2 SLP076 T01060089=
200805241153 METAR KSEA 241153Z 00000KT 10SM SCT110 12/09 A2973 RMK AO2 SLP074 60000 70003 T01170094 10128 20117 55004=
200805241053 METAR KSEA 241053Z 05005KT 10SM OVC100 12/10 A2973 RMK AO2 SLP073 T01220100=
200805240953 METAR KSEA 240953Z 05007KT 10SM OVC100 12/11 A2974 RMK AO2 SLP076 T01220106=
200805240853 METAR KSEA 240853Z 36005KT 10SM BKN095 OVC120 12/10 A2975 RMK AO2 SLP079 60000 T01220100 53005=
200805240753 METAR KSEA 240753Z 00000KT 10SM OVC090 13/10 A2974 RMK AO2 SLP076 T01280100 401500106=
200805240653 METAR KSEA 240653Z 31003KT 10SM OVC080 13/10 A2972 RMK AO2 RAE07B41E52 SLP071 P0000 T01280100=
200805240553 METAR KSEA 240553Z 01005KT 10SM -RA OVC070 13/10 A2973 RMK AO2 RAB34 SLP074 P0000 60000 T01280100 10139 20128 53005=
200805240453 METAR KSEA 240453Z 04005KT 10SM SCT075 BKN100 BKN160 13/09 A2973 RMK AO2 SLP072 T01280094=
200805240353 METAR KSEA 240353Z 03006KT 10SM FEW060 SCT100 OVC150 13/09 A2972 RMK AO2 SLP070 T01330094=
200805240253 METAR KSEA 240253Z 02008KT 10SM FEW060 SCT090 OVC140 13/09 A2972 RMK AO2 SLP069 60000 T01330094 51005=
200805240153 METAR KSEA 240153Z 02009KT 10SM SCT080 OVC140 14/09 A2972 RMK AO2 RAE21 SLP069 P0000 T01390089=
200805240053 METAR KSEA 240053Z 03009KT 10SM -RA FEW080 SCT100 OVC140 14/09 A2971 RMK AO2 RAB47 SLP066 P0000 T01390089=
200805232353 METAR KSEA 232353Z 03007KT 10SM BKN100 OVC150 14/08 A2970 RMK AO2 SLP064 T01390083 10150 20111 53003=
200805232253 METAR KSEA 232253Z 04008KT 10SM FEW060 SCT110 OVC150 14/08 A2969 RMK AO2 SLP061 T01440083=
200805232153 METAR KSEA 232153Z 03010KT 10SM FEW014 SCT060 OVC120 15/09 A2969 RMK AO2 SLP060 T01500094=
200805232134 SPECI KSEA 232134Z 01010KT 10SM SCT014 SCT060 OVC100 14/08 A2969 RMK AO2=
200805232134 SPECI KSEA 232134Z 01010KT 10SM SCT014 SCT060 OVC100 14/08 A2969 RMK AO2=
200805232053 METAR KSEA 232053Z 35010KT 10SM FEW009 BKN014 OVC100 13/09 A2969 RMK AO2 SLP060 T01330089 56013=
200805231953 METAR KSEA 231953Z 03009KT 10SM SCT006 BKN010 OVC100 12/08 A2970 RMK AO2 SLP063 T01220083=
200805231946 SPECI KSEA 231946Z 03006KT 10SM SCT006 BKN011 OVC100 12/09 A2970 RMK AO2=
200805231946 SPECI KSEA 231946Z 03006KT 10SM SCT006 BKN011 OVC100 12/09 A2970 RMK AO2=
200805231934 SPECI KSEA 231934Z 05009KT 10SM BKN006 OVC016 12/09 A2970 RMK AO2=
200805231934 SPECI KSEA 231934Z 05009KT 10SM BKN006 OVC016 12/09 A2970 RMK AO2=
200805231853 METAR KSEA 231853Z 35008KT 10SM BKN010 OVC018 12/09 A2971 RMK AO2 SLP066 T01170089=
200805231753 METAR KSEA 231753Z 01010KT 10SM FEW007 OVC010 11/08 A2973 RMK AO2 SLP073 60003 T01110083 10111 20106 56006=
200805231653 METAR KSEA 231653Z 02009KT 10SM SCT008 BKN014 OVC025 11/08 A2973 RMK AO2 RAE12B34E43 SLP074 P0001 T01110083=
200805231643 SPECI KSEA 231643Z 01009KT 8SM FEW007 BKN014 OVC025 11/08 A2973 RMK AO2 RAE12B34E43 P0001=
200805231643 SPECI KSEA 231643Z 01009KT 8SM FEW007 BKN014 OVC025 11/08 A2973 RMK AO2 RAE12B34E43 P0001=
200805231553 METAR KSEA 231553Z 05007KT 6SM -RA BKN014 OVC025 11/08 A2974 RMK AO2 RAB27 SLP077 P0002 T01060078=
200805231516 SPECI KSEA 231516Z 36009KT 10SM BKN014 BKN029 OVC100 11/07 A2974 RMK AO2=
200805231516 SPECI KSEA 231516Z 36009KT 10SM BKN014 BKN029 OVC100 11/07 A2974 RMK AO2=
200805231453 METAR KSEA 231453Z 01009KT 10SM BKN018 BKN029 BKN100 11/07 A2975 RMK AO2 SLP079 T01110067 58006=
200805231353 METAR KSEA 231353Z 01010KT 10SM FEW017 BKN027 OVC100 11/07 A2976 RMK AO2 SLP083 T01060067=
200805231347 SPECI KSEA 231347Z 01009KT 10SM SCT017 BKN037 OVC100 11/06 A2976 RMK AO2=
200805231347 SPECI KSEA 231347Z 01009KT 10SM SCT017 BKN037 OVC100 11/06 A2976 RMK AO2=
200805231316 SPECI KSEA 231316Z 02013KT 10SM BKN019 OVC030 11/06 A2977 RMK AO2=
200805231316 SPECI KSEA 231316Z 02013KT 10SM BKN019 OVC030 11/06 A2977 RMK AO2=
200805231300 SPECI KSEA 231300Z 02012G17KT 10SM SCT025 BKN030 OVC037 11/06 A2977 RMK AO2=
200805231300 SPECI KSEA 231300Z 02012G17KT 10SM SCT025 BKN030 OVC037 11/06 A2977 RMK AO2=
200805231253 METAR KSEA 231253Z 02009G17KT 10SM SCT025 BKN029 OVC038 11/06 A2977 RMK AO2 SLP085 T01110061=
200805231153 METAR KSEA 231153Z 03006KT 10SM OVC038 11/06 A2977 RMK AO2 SLP087 T01060061 10117 20106 56017=
200805231053 METAR KSEA 231053Z 02009KT 10SM OVC038 11/06 A2978 RMK AO2 SLP092 T01110056=
200805230953 METAR KSEA 230953Z 03008KT 10SM OVC040 11/06 A2980 RMK AO2 SLP098 T01110056=
200805230853 METAR KSEA 230853Z 05006KT 10SM OVC046 11/06 A2982 RMK AO2 SLP104 T01110056 58004=
200805230753 METAR KSEA 230753Z 05005KT 10SM OVC046 11/06 A2983 RMK AO2 SLP109 T01110056 401390078=
200805230653 METAR KSEA 230653Z 05005KT 10SM OVC044 12/06 A2984 RMK AO2 SLP110 T01170056=
200805230553 METAR KSEA 230553Z 02006KT 10SM SCT029 OVC042 12/06 A2983 RMK AO2 SLP108 T01170061 10122 20117 58010=
200805230535 SPECI KSEA 230535Z 03004KT 10SM BKN029 OVC042 12/07 A2984 RMK AO2=
200805230535 SPECI KSEA 230535Z 03004KT 10SM BKN029 OVC042 12/07 A2984 RMK AO2=
200805230453 METAR KSEA 230453Z 07004KT 10SM FEW031 BKN042 12/07 A2985 RMK AO2 SLP117 T01170067=
200805230353 METAR KSEA 230353Z 35005KT 10SM BKN038 12/06 A2986 RMK AO2 SLP117 T01220061=
200805230253 METAR KSEA 230253Z 31004KT 10SM SCT042 BKN050 12/06 A2986 RMK AO2 SLP120 T01220061 57012=
200805230153 METAR KSEA 230153Z 28005KT 10SM BKN045 BKN080 12/07 A2988 RMK AO2 SLP124 T01170067=
200805230053 METAR KSEA 230053Z VRB05KT 10SM SCT029 OVC050 12/06 A2989 RMK AO2 SLP128 T01220061=
200805230020 SPECI KSEA 230020Z 23006KT 10SM BKN029 BKN045 12/06 A2990 RMK AO2=
200805230020 SPECI KSEA 230020Z 23006KT 10SM BKN029 BKN045 12/06 A2990 RMK AO2=
200805222353 METAR KSEA 222353Z 24006KT 10SM BKN033 BKN050 12/06 A2990 RMK AO2 SLP132 T01170061 10139 20100 57024=
200805222253 METAR KSEA 222253Z 27008KT 10SM SCT027 BKN039 BKN049 13/06 A2992 RMK AO2 SLP140 T01280061=
200805222213 SPECI KSEA 222213Z 23004KT 10SM SCT025 BKN036 OVC055 12/07 A2994 RMK AO2=
200805222213 SPECI KSEA 222213Z 23004KT 10SM SCT025 BKN036 OVC055 12/07 A2994 RMK AO2=
200805222153 METAR KSEA 222153Z 28006KT 10SM BKN025 BKN040 12/07 A2995 RMK AO2 SLP148 T01220067=
200805222053 METAR KSEA 222053Z 01005KT 10SM FEW020 BKN028 BKN042 13/06 A2997 RMK AO2 SLP156 T01280061 58017=
200805221953 METAR KSEA 221953Z 00000KT 10SM FEW012 BKN021 BKN040 12/07 A2999 RMK AO2 SLP162 T01220067=
200805221853 METAR KSEA 221853Z 00000KT 10SM FEW008 BKN017 BKN040 11/07 A3001 RMK AO2 SLP171 T01060067=
200805221753 METAR KSEA 221753Z 26004KT 10SM FEW006 BKN015 BKN040 11/06 A3002 RMK AO2 SLP174 60000 T01060061 10106 20078 56015=
200805221653 METAR KSEA 221653Z 24005KT 10SM SCT005 BKN015 BKN035 09/06 A3003 RMK AO2 SLP177 T00890061=
200805221553 METAR KSEA 221553Z 26003KT 10SM SCT007 BKN015 OVC023 08/06 A3005 RMK AO2 SLP184 T00830061=
200805221546 SPECI KSEA 221546Z 25004KT 10SM SCT007 BKN015 OVC023 08/07 A3006 RMK AO2=
200805221546 SPECI KSEA 221546Z 25004KT 10SM SCT007 BKN015 OVC023 08/07 A3006 RMK AO2=
200805221453 METAR KSEA 221453Z 22003KT 10SM SCT007 BKN012 OVC020 08/06 A3007 RMK AO2 SLP189 60000 T00830061 55003=
200805221448 SPECI KSEA 221448Z 24003KT 10SM SCT007 BKN012 OVC020 08/06 A3007 RMK AO2=
200805221448 SPECI KSEA 221448Z 24003KT 10SM SCT007 BKN012 OVC020 08/06 A3007 RMK AO2=
200805221407 SPECI KSEA 221407Z 21004KT 10SM FEW004 BKN008 OVC020 08/06 A3007 RMK AO2=
200805221407 SPECI KSEA 221407Z 21004KT 10SM FEW004 BKN008 OVC020 08/06 A3007 RMK AO2=
200805221405 SPECI KSEA 221405Z 21004KT 10SM FEW010 BKN015 OVC020 08/06 A3007 RMK AO2=
200805221405 SPECI KSEA 221405Z 21004KT 10SM FEW010 BKN015 OVC020 08/06 A3007 RMK AO2=
200805221353 METAR KSEA 221353Z 19003KT 8SM BKN010 OVC015 08/06 A3007 RMK AO2 RAB37E53 SLP190 P0000 T00780061=
200805221322 SPECI KSEA 221322Z 20004KT 10SM SCT006 OVC011 08/06 A3008 RMK AO2=
200805221322 SPECI KSEA 221322Z 20004KT 10SM SCT006 OVC011 08/06 A3008 RMK AO2=
200805221253 METAR KSEA 221253Z 19004KT 10SM BKN006 OVC009 08/06 A3008 RMK AO2 CIG 004V007 SLP192 T00780061=
200805221246 SPECI KSEA 221246Z 21003KT 10SM BKN006 OVC010 08/07 A3007 RMK AO2 CIG 004V008=
200805221246 SPECI KSEA 221246Z 21003KT 10SM BKN006 OVC010 08/07 A3007 RMK AO2 CIG 004V008=
200805221224 SPECI KSEA 221224Z 00000KT 10SM BKN004 BKN011 OVC017 08/06 A3007 RMK AO2 CIG 004V009=
200805221224 SPECI KSEA 221224Z 00000KT 10SM BKN004 BKN011 OVC017 08/06 A3007 RMK AO2 CIG 004V009=
200805221209 SPECI KSEA 221209Z 00000KT 10SM FEW007 BKN017 OVC032 08/07 A3007 RMK AO2=
200805221209 SPECI KSEA 221209Z 00000KT 10SM FEW007 BKN017 OVC032 08/07 A3007 RMK AO2=
200805221153 METAR KSEA 221153Z 16005KT 10SM BKN017 OVC032 08/06 A3006 RMK AO2 SLP188 60000 70010 T00780061 10089 20078 58008=
200805221100 SPECI KSEA 221100Z 25003KT 10SM FEW013 OVC019 08/06 A3008 RMK AO2=
200805221100 SPECI KSEA 221100Z 25003KT 10SM FEW013 OVC019 08/06 A3008 RMK AO2=
200805221053 METAR KSEA 221053Z 00000KT 10SM BKN013 OVC019 08/07 A3008 RMK AO2 SLP193 T00780067=
200805221040 SPECI KSEA 221040Z 00000KT 10SM BKN013 OVC017 08/06 A3008 RMK AO2=
200805221040 SPECI KSEA 221040Z 00000KT 10SM BKN013 OVC017 08/06 A3008 RMK AO2=
200805221016 SPECI KSEA 221016Z 16004KT 10SM FEW007 OVC016 08/06 A3008 RMK AO2=
200805221016 SPECI KSEA 221016Z 16004KT 10SM FEW007 OVC016 08/06 A3008 RMK AO2=
200805220953 METAR KSEA 220953Z 19003KT 10SM FEW005 BKN012 OVC023 08/07 A3009 RMK AO2 SLP197 T00780067=
200805220942 SPECI KSEA 220942Z 14005KT 10SM SCT008 BKN014 OVC023 08/06 A3009 RMK AO2=
200805220942 SPECI KSEA 220942Z 14005KT 10SM SCT008 BKN014 OVC023 08/06 A3009 RMK AO2=
200805220915 SPECI KSEA 220915Z 20004KT 10SM BKN006 BKN010 OVC022 08/07 A3009 RMK AO2=
200805220915 SPECI KSEA 220915Z 20004KT 10SM BKN006 BKN010 OVC022 08/07 A3009 RMK AO2=
200805220907 SPECI KSEA 220907Z 19003KT 10SM FEW006 SCT011 OVC022 08/06 A3009 RMK AO2=
200805220907 SPECI KSEA 220907Z 19003KT 10SM FEW006 SCT011 OVC022 08/06 A3009 RMK AO2=
200805220853 METAR KSEA 220853Z 20005KT 10SM OVC020 08/07 A3009 RMK AO2 SLP195 60000 T00830067 56001=
200805220824 SPECI KSEA 220824Z 15003KT 10SM FEW008 OVC016 08/07 A3009 RMK AO2=
200805220824 SPECI KSEA 220824Z 15003KT 10SM FEW008 OVC016 08/07 A3009 RMK AO2=
200805220753 METAR KSEA 220753Z 16004KT 10SM OVC018 08/07 A3009 RMK AO2 SLP195 T00830067 401390083=
200805220653 METAR KSEA 220653Z 09005KT 10SM OVC018 09/08 A3009 RMK AO2 RAE22 SLP197 P0000 T00890078=
200805220553 METAR KSEA 220553Z 09008KT 10SM -RA FEW007 OVC014 09/07 A3009 RMK AO2 SLP198 P0001 60010 T00890067 10117 20089 50007=
200805220515 SPECI KSEA 220515Z 13006KT 4SM -RA BR FEW008 OVC012 09/07 A3010 RMK AO2 P0000=
200805220515 SPECI KSEA 220515Z 13006KT 4SM -RA BR FEW008 OVC012 09/07 A3010 RMK AO2 P0000=
200805220453 METAR KSEA 220453Z 12006KT 4SM -RA BR OVC012 09/07 A3010 RMK AO2 SLP199 P0000 T00890067=
200805220411 SPECI KSEA 220411Z 12010KT 7SM -RA FEW009 OVC014 09/08 A3009 RMK AO2 P0000=
200805220411 SPECI KSEA 220411Z 12010KT 7SM -RA FEW009 OVC014 09/08 A3009 RMK AO2 P0000=
200805220353 METAR KSEA 220353Z 15007KT 6SM -RA BR OVC016 09/07 A3008 RMK AO2 SLP195 P0002 T00940072=
200805220253 METAR KSEA 220253Z 22008KT 9SM -RA BKN018 BKN033 OVC045 11/07 A3007 RMK AO2 SLP190 P0002 60007 T01060072 55000=
200805220153 METAR KSEA 220153Z 25006KT 8SM -RA FEW025 BKN040 OVC080 11/08 A3007 RMK AO2 SLP188 P0003 T01060083=
200805220053 METAR KSEA 220053Z 24004KT 6SM -RA FEW028 BKN039 OVC055 11/08 A3007 RMK AO2 SLP189 P0002 T01110083=
200805220022 SPECI KSEA 220022Z 26005KT 9SM -RA SCT028 BKN036 OVC043 12/08 A3007 RMK AO2 P0001=
200805220022 SPECI KSEA 220022Z 26005KT 9SM -RA SCT028 BKN036 OVC043 12/08 A3007 RMK AO2 P0001=
200805212353 METAR KSEA 212353Z 25004KT 10SM -RA BKN028 OVC036 12/07 A3007 RMK AO2 RAB52 SLP191 P0000 60000 T01170072 10139 20111 58001=
200805212323 SPECI KSEA 212323Z 27005KT 10SM BKN035 OVC042 12/08 A3007 RMK AO2=
200805212323 SPECI KSEA 212323Z 27005KT 10SM BKN035 OVC042 12/08 A3007 RMK AO2=
200805212253 METAR KSEA 212253Z 24007KT 10SM SCT021 OVC029 12/08 A3007 RMK AO2 RAE15 SLP191 P0000 T01170083=
200805212153 METAR KSEA 212153Z 23007KT 9SM -RA FEW015 BKN023 OVC040 13/07 A3008 RMK AO2 RAB42 SLP191 P0000 T01280067=
200805212124 SPECI KSEA 212124Z 23007KT 10SM BKN023 BKN042 OVC070 13/07 A3007 RMK AO2 SH DSNT SW-W=
200805212124 SPECI KSEA 212124Z 23007KT 10SM BKN023 BKN042 OVC070 13/07 A3007 RMK AO2 SH DSNT SW-W=
200805212053 METAR KSEA 212053Z 20009KT 10SM SCT023 BKN041 BKN070 14/07 A3007 RMK AO2 SLP190 T01390072 58002=
200805212047 SPECI KSEA 212047Z 20010KT 10SM SCT023 BKN041 BKN070 13/07 A3008 RMK AO2=
200805212047 SPECI KSEA 212047Z 20010KT 10SM SCT023 BKN041 BKN070 13/07 A3008 RMK AO2=
200805212023 SPECI KSEA 212023Z 24009KT 10SM BKN023 BKN037 BKN065 14/07 A3008 RMK AO2=
200805212023 SPECI KSEA 212023Z 24009KT 10SM BKN023 BKN037 BKN065 14/07 A3008 RMK AO2=
200805211953 METAR KSEA 211953Z 23008KT 10SM SCT020 BKN035 BKN070 14/07 A3009 RMK AO2 SLP194 T01390072=
200805211853 METAR KSEA 211853Z VRB05KT 10SM SCT015 BKN035 BKN080 12/07 A3008 RMK AO2 SLP193 T01220072=
200805211849 SPECI KSEA 211849Z 23005KT 10SM SCT015 BKN035 BKN080 12/07 A3008 RMK AO2=
200805211849 SPECI KSEA 211849Z 23005KT 10SM SCT015 BKN035 BKN080 12/07 A3008 RMK AO2=
200805211753 METAR KSEA 211753Z 20004KT 10SM BKN015 BKN025 BKN100 11/07 A3009 RMK AO2 SLP196 60000 T01110067 10117 20089 50006=
200805211653 METAR KSEA 211653Z 18006KT 10SM BKN015 OVC022 11/07 A3009 RMK AO2 SLP198 T01060072=
200805211553 METAR KSEA 211553Z 18006KT 10SM BKN015 OVC020 10/07 A3008 RMK AO2 SLP195 T01000072=
200805211545 SPECI KSEA 211545Z 20006KT 10SM OVC015 10/07 A3009 RMK AO2=
200805211545 SPECI KSEA 211545Z 20006KT 10SM OVC015 10/07 A3009 RMK AO2=
200805211453 METAR KSEA 211453Z 22006KT 10SM OVC013 09/06 A3007 RMK AO2 SLP190 60000 T00940061 52000=
200805211418 SPECI KSEA 211418Z 21007KT 10SM BKN013 OVC020 09/06 A3007 RMK AO2=
200805211418 SPECI KSEA 211418Z 21007KT 10SM BKN013 OVC020 09/06 A3007 RMK AO2=
200805211353 METAR KSEA 211353Z 20006KT 10SM BKN015 BKN020 OVC060 09/07 A3007 RMK AO2 RAB1256E18 SLP189 P0000 T00940067=
200805211319 SPECI KSEA 211319Z 22006KT 10SM BKN015 OVC020 09/07 A3007 RMK AO2 RAB1256E18 P0000=
200805211319 SPECI KSEA 211319Z 22006KT 10SM BKN015 OVC020 09/07 A3007 RMK AO2 RAB1256E18 P0000=
200805211253 METAR KSEA 211253Z 21008KT 10SM BKN013 OVC020 09/07 A3007 RMK AO2 SLP188 T00890067=
200805211251 SPECI KSEA 211251Z 21008KT 10SM BKN013 OVC020 09/07 A3007 RMK AO2=
200805211251 SPECI KSEA 211251Z 21008KT 10SM BKN013 OVC020 09/07 A3007 RMK AO2=
200805211210 SPECI KSEA 211210Z 21009KT 10SM BKN016 OVC020 09/07 A3006 RMK AO2=
200805211210 SPECI KSEA 211210Z 21009KT 10SM BKN016 OVC020 09/07 A3006 RMK AO2=
200805211153 METAR KSEA 211153Z 21010KT 10SM BKN014 OVC020 09/07 A3006 RMK AO2 SLP185 70015 T00890067 10094 20089 53002=
200805211129 SPECI KSEA 211129Z 21009KT 10SM BKN014 OVC020 09/07 A3006 RMK AO2=
200805211129 SPECI KSEA 211129Z 21009KT 10SM BKN014 OVC020 09/07 A3006 RMK AO2=
200805211053 METAR KSEA 211053Z 20010KT 10SM BKN016 OVC020 09/07 A3005 RMK AO2 SLP183 T00890067=
200805210953 METAR KSEA 210953Z 21010KT 10SM BKN016 OVC020 09/06 A3005 RMK AO2 SLP182 T00890061=
200805210853 METAR KSEA 210853Z 21012KT 10SM SCT016 BKN020 OVC025 09/06 A3005 RMK AO2 SLP183 T00940061 51005=
200805210753 METAR KSEA 210753Z 21010KT 10SM BKN017 OVC025 09/06 A3005 RMK AO2 SLP182 T00940061 401500094=
200805210653 METAR KSEA 210653Z 22011KT 10SM OVC017 09/06 A3005 RMK AO2 SLP181 T00940056=
200805210553 METAR KSEA 210553Z 21013G18KT 10SM OVC019 09/06 A3004 RMK AO2 SLP179 T00940056 10144 20094 51018=
200805210453 METAR KSEA 210453Z 21010KT 10SM BKN024 OVC060 10/06 A3003 RMK AO2 SLP175 T01000056=
200805210428 SPECI KSEA 210428Z 21011KT 10SM BKN025 OVC060 10/06 A3002 RMK AO2=
200805210428 SPECI KSEA 210428Z 21011KT 10SM BKN025 OVC060 10/06 A3002 RMK AO2=
200805210353 METAR KSEA 210353Z 22013KT 10SM FEW025 BKN070 OVC100 10/05 A3001 RMK AO2 SLP169 T01000050=
200805210253 METAR KSEA 210253Z 21014G20KT 10SM SCT025 BKN075 BKN200 11/05 A2998 RMK AO2 SLP160 T01060050 53010=
200805210153 METAR KSEA 210153Z 22016G24KT 10SM FEW035 SCT100 BKN200 12/05 A2997 RMK AO2 SLP154 T01170050=
200805210053 METAR KSEA 210053Z 23017G23KT 10SM FEW035 SCT100 SCT200 13/04 A2996 RMK AO2 SLP150 T01330044=
200805202353 METAR KSEA 202353Z 24017G26KT 10SM SCT034 SCT200 14/06 A2995 RMK AO2 PK WND 23026/2352 SLP149 60000 T01390056 10150 20111 51012=
200805202253 METAR KSEA 202253Z 22012G19KT 10SM FEW028 SCT050 SCT200 14/07 A2994 RMK AO2 SLP144 T01440067=
200805202153 METAR KSEA 202153Z 23013G23KT 10SM FEW028 SCT045 SCT200 14/07 A2994 RMK AO2 RAB32E42 SLP143 SH DSNT SE-S P0000 T01390072=
200805202053 METAR KSEA 202053Z 21017G22KT 10SM SCT028 SCT040 14/08 A2992 RMK AO2 RAE16 SLP136 P0000 60000 T01440078 55003=
200805201953 METAR KSEA 201953Z 21014G20KT 10SM -RA FEW018 SCT027 BKN040 14/09 A2991 RMK AO2 RAB51 SLP134 P0000 T01390089=
200805201916 SPECI KSEA 201916Z 19013KT 10SM FEW018 BKN034 BKN200 13/09 A2992 RMK AO2=
200805201916 SPECI KSEA 201916Z 19013KT 10SM FEW018 BKN034 BKN200 13/09 A2992 RMK AO2=
200805201853 METAR KSEA 201853Z 20009KT 10SM FEW018 BKN029 BKN200 12/08 A2992 RMK AO2 SLP139 T01220083=
200805201753 METAR KSEA 201753Z 21006KT 10SM FEW006 BKN018 BKN029 11/09 A2993 RMK AO2 SLP140 60015 T01110089 10133 20111 51013=
200805201705 SPECI KSEA 201705Z 21007KT 10SM FEW003 BKN016 OVC042 11/09 A2992 RMK AO2=
200805201705 SPECI KSEA 201705Z 21007KT 10SM FEW003 BKN016 OVC042 11/09 A2992 RMK AO2=
200805201653 METAR KSEA 201653Z 24006KT 10SM SCT003 BKN007 OVC042 11/09 A2992 RMK AO2 RAE49 SLP138 P0002 T01110094=
200805201632 SPECI KSEA 201632Z 23008KT 8SM -RA SCT003 BKN007 OVC018 11/10 A2991 RMK AO2 P0002=
200805201632 SPECI KSEA 201632Z 23008KT 8SM -RA SCT003 BKN007 OVC018 11/10 A2991 RMK AO2 P0002=
200805201627 SPECI KSEA 201627Z 23008KT 8SM -RA SCT007 BKN015 OVC025 11/10 A2991 RMK AO2 P0002=
200805201627 SPECI KSEA 201627Z 23008KT 8SM -RA SCT007 BKN015 OVC025 11/10 A2991 RMK AO2 P0002=
200805201553 METAR KSEA 201553Z 21009KT 10SM -RA FEW007 BKN012 OVC036 11/10 A2991 RMK AO2 SLP132 P0002 T01110100=
200805201522 SPECI KSEA 201522Z 21013KT 8SM -RA FEW007 BKN010 OVC035 11/10 A2990 RMK AO2 P0001=
200805201522 SPECI KSEA 201522Z 21013KT 8SM -RA FEW007 BKN010 OVC035 11/10 A2990 RMK AO2 P0001=
200805201500 SPECI KSEA 201500Z 22013G18KT 10SM -RA FEW007 SCT012 OVC035 11/09 A2990 RMK AO2 P0000=
200805201500 SPECI KSEA 201500Z 22013G18KT 10SM -RA FEW007 SCT012 OVC035 11/09 A2990 RMK AO2 P0000=
200805201453 METAR KSEA 201453Z 22011KT 9SM -RA FEW007 BKN012 OVC041 12/10 A2989 RMK AO2 SLP127 P0004 60011 T01170100 51006=
200805201440 SPECI KSEA 201440Z 22012KT 10SM -RA FEW006 BKN012 OVC049 12/10 A2989 RMK AO2 P0003=
200805201440 SPECI KSEA 201440Z 22012KT 10SM -RA FEW006 BKN012 OVC049 12/10 A2989 RMK AO2 P0003=
200805201416 SPECI KSEA 201416Z 25009KT 10SM -RA FEW006 BKN020 OVC049 12/10 A2989 RMK AO2 P0001=
200805201416 SPECI KSEA 201416Z 25009KT 10SM -RA FEW006 BKN020 OVC049 12/10 A2989 RMK AO2 P0001=
200805201353 METAR KSEA 201353Z 24010KT 10SM -RA FEW006 BKN010 OVC015 12/11 A2989 RMK AO2 SLP127 P0003 T01220106=
200805201259 SPECI KSEA 201259Z 22009KT 4SM RA BR FEW006 BKN012 OVC021 13/12 A2989 RMK AO2 P0002=
200805201259 SPECI KSEA 201259Z 22009KT 4SM RA BR FEW006 BKN012 OVC021 13/12 A2989 RMK AO2 P0002=
200805201253 METAR KSEA 201253Z 22009KT 6SM -RA BR FEW005 SCT012 OVC021 13/12 A2989 RMK AO2 SLP126 P0004 T01280117=
200805201235 SPECI KSEA 201235Z 20007KT 9SM -RA SCT003 OVC021 13/12 A2988 RMK AO2 P0001=
200805201235 SPECI KSEA 201235Z 20007KT 9SM -RA SCT003 OVC021 13/12 A2988 RMK AO2 P0001=
200805201214 SPECI KSEA 201214Z 22008KT 10SM -RA OVC003 13/12 A2988 RMK AO2 P0000=
200805201214 SPECI KSEA 201214Z 22008KT 10SM -RA OVC003 13/12 A2988 RMK AO2 P0000=
200805201153 METAR KSEA 201153Z 21007KT 8SM -RA SCT004 BKN006 OVC035 13/12 A2987 RMK AO2 RAE12B34 SLP120 P0001 60014 70014 T01330122 10178 20133 55006=
200805201141 SPECI KSEA 201141Z 23008KT 10SM -RA SCT004 BKN007 OVC038 13/12 A2987 RMK AO2 RAE12B34 P0000=
200805201141 SPECI KSEA 201141Z 23008KT 10SM -RA SCT004 BKN007 OVC038 13/12 A2987 RMK AO2 RAE12B34 P0000=
200805201124 SPECI KSEA 201124Z 23006KT 10SM FEW007 BKN021 OVC100 13/12 A2987 RMK AO2 RAE12 P0000=
200805201124 SPECI KSEA 201124Z 23006KT 10SM FEW007 BKN021 OVC100 13/12 A2987 RMK AO2 RAE12 P0000=
200805201110 SPECI KSEA 201110Z 23005KT 10SM -RA SCT007 BKN060 OVC100 13/12 A2987 RMK AO2 P0000=
200805201110 SPECI KSEA 201110Z 23005KT 10SM -RA SCT007 BKN060 OVC100 13/12 A2987 RMK AO2 P0000=
200805201053 METAR KSEA 201053Z 17004KT 10SM -RA FEW021 BKN060 OVC075 13/12 A2986 RMK AO2 RAE0959B18 SLP115 P0002 T01330122=
200805201037 SPECI KSEA 201037Z 23005KT 9SM -RA FEW011 BKN050 OVC075 13/12 A2987 RMK AO2 RAE0959B18 P0000=
200805201037 SPECI KSEA 201037Z 23005KT 9SM -RA FEW011 BKN050 OVC075 13/12 A2987 RMK AO2 RAE0959B18 P0000=
200805201007 SPECI KSEA 201007Z 28007KT 10SM FEW009 BKN022 OVC090 13/12 A2987 RMK AO2 RAE0959 P0000=
200805201007 SPECI KSEA 201007Z 28007KT 10SM FEW009 BKN022 OVC090 13/12 A2987 RMK AO2 RAE0959 P0000=
200805201001 SPECI KSEA 201001Z 27007KT 10SM FEW013 BKN022 OVC090 14/12 A2987 RMK AO2 RAE0959 P0000=
200805201001 SPECI KSEA 201001Z 27007KT 10SM FEW013 BKN022 OVC090 14/12 A2987 RMK AO2 RAE0959 P0000=
200805200953 METAR KSEA 200953Z 24006KT 10SM -RA SCT015 OVC090 14/12 A2987 RMK AO2 RAE31B48 SLP119 P0001 T01440122=
200805200853 METAR KSEA 200853Z 15007KT 10SM -RA BKN075 OVC095 14/11 A2989 RMK AO2 RAE02B35 SLP125 P0000 60010 T01390111 58000=
200805200753 METAR KSEA 200753Z 21009KT 10SM -RA FEW055 BKN075 OVC090 14/12 A2991 RMK AO2 SLP133 P0003 T01440117 402390133=
200805200653 METAR KSEA 200653Z 21011KT 10SM -RA BKN042 BKN055 OVC085 15/12 A2991 RMK AO2 RAB01 SLP131 P0007 T01500117=
200805200553 METAR KSEA 200553Z 23008KT 10SM SCT044 SCT055 BKN110 18/10 A2989 RMK AO2 SLP126 60000 T01780100 10228 20178 55000=
200805200453 METAR KSEA 200453Z 23007KT 10SM SCT046 BKN110 19/10 A2989 RMK AO2 SLP126 T01890100=
200805200353 METAR KSEA 200353Z 22005KT 10SM SCT050 BKN070 BKN150 19/09 A2989 RMK AO2 SLP126 T01890094=
200805200253 METAR KSEA 200253Z 00000KT 10SM FEW070 BKN110 OVC150 20/11 A2989 RMK AO2 RAE03 SLP126 P0000 60000 T02000111 58012=
200805200153 METAR KSEA 200153Z 22004KT 10SM -RA SCT070 BKN085 OVC150 21/13 A2991 RMK AO2 RAB15 SLP131 P0000 T02110128=
200805200053 METAR KSEA 200053Z 26008KT 10SM FEW060 SCT110 OVC200 22/11 A2992 RMK AO2 SLP136 T02170111=
200805192353 METAR KSEA 192353Z 28008KT 10SM FEW060 SCT140 OVC200 23/12 A2993 RMK AO2 SLP138 T02280117 10239 20194 56010=
200805192253 METAR KSEA 192253Z 25006KT 10SM FEW080 SCT120 OVC200 23/11 A2993 RMK AO2 SLP139 VIRGA W T02330111=
200805192153 METAR KSEA 192153Z 26008KT 10SM FEW080 BKN120 OVC200 23/11 A2994 RMK AO2 SLP143 T02330106=
200805192053 METAR KSEA 192053Z 24006KT 10SM FEW080 BKN120 OVC200 23/11 A2996 RMK AO2 SLP148 T02280111 58008=
200805191953 METAR KSEA 191953Z 23006KT 10SM FEW080 SCT120 OVC200 21/11 A2996 RMK AO2 SLP150 T02110111=
200805191853 METAR KSEA 191853Z 20008KT 10SM FEW080 BKN120 OVC200 21/11 A2998 RMK AO2 SLP155 T02060106=
200805191753 METAR KSEA 191753Z 17006KT 10SM FEW080 BKN120 OVC200 19/11 A2998 RMK AO2 SLP157 T01940106 10194 20133 50000=
200805191653 METAR KSEA 191653Z 17007KT 10SM FEW110 BKN200 18/11 A2998 RMK AO2 SLP157 T01830111=
200805191553 METAR KSEA 191553Z 19007KT 10SM FEW110 BKN250 18/11 A2999 RMK AO2 SLP159 T01830111=
200805191453 METAR KSEA 191453Z 17007KT 10SM FEW110 BKN250 16/11 A2998 RMK AO2 SLP157 T01610111 50004=
200805191353 METAR KSEA 191353Z 17005KT 10SM SCT110 BKN200 14/11 A2998 RMK AO2 SLP158 T01390106=
200805191253 METAR KSEA 191253Z 21004KT 10SM OVC110 13/10 A2998 RMK AO2 SLP158 T01330100=
200805191153 METAR KSEA 191153Z 00000KT 10SM OVC140 14/11 A2997 RMK AO2 SLP152 T01390111 10194 20139 58006=
200805191053 METAR KSEA 191053Z 11004KT 10SM CLR 15/11 A2998 RMK AO2 SLP155 T01500111=
200805190953 METAR KSEA 190953Z 04007KT 10SM FEW200 16/09 A2999 RMK AO2 SLP160 T01610094=
200805190853 METAR KSEA 190853Z 02005KT 10SM FEW200 17/10 A2999 RMK AO2 SLP158 T01720100 58001=
200805190753 METAR KSEA 190753Z 01005KT 10SM FEW200 18/10 A2999 RMK AO2 SLP161 T01780100 402330117=
200805190653 METAR KSEA 190653Z 04011KT 10SM BKN200 18/10 A2999 RMK AO2 SLP158 T01830100=
200805190553 METAR KSEA 190553Z 04009KT 10SM BKN150 BKN200 19/09 A2999 RMK AO2 SLP159 T01940094 10228 20194 50000=
200805190453 METAR KSEA 190453Z 03011KT 10SM BKN150 BKN200 20/10 A3000 RMK AO2 SLP162 T02000100=
200805190353 METAR KSEA 190353Z 02008KT 10SM FEW120 BKN160 OVC220 21/10 A2998 RMK AO2 SLP157 T02110100=
200805190253 METAR KSEA 190253Z 36006KT 10SM BKN150 BKN200 22/11 A2999 RMK AO2 SLP160 T02170106 56008=
200805190153 METAR KSEA 190153Z 34005KT 10SM FEW120 BKN160 BKN200 22/10 A2999 RMK AO2 SLP161 T02220100=
200805190053 METAR KSEA 190053Z 31003KT 10SM FEW055 BKN150 BKN200 22/09 A3000 RMK AO2 SLP164 T02220089=
200805182353 METAR KSEA 182353Z 30006KT 10SM FEW055 BKN150 BKN200 23/10 A3001 RMK AO2 SLP168 T02280100 10233 20172 58016=
200805182253 METAR KSEA 182253Z 29007KT 10SM FEW050 SCT150 BKN200 22/09 A3003 RMK AO2 SLP174 T02220094=
200805182153 METAR KSEA 182153Z 31004KT 10SM FEW040 SCT160 BKN220 22/10 A3005 RMK AO2 SLP180 T02170100=
200805182053 METAR KSEA 182053Z 21006KT 10SM BKN200 21/10 A3006 RMK AO2 SLP184 T02110100 58009=
200805181953 METAR KSEA 181953Z 19008KT 10SM FEW100 21/09 A3007 RMK AO2 SLP188 T02060094=
200805181853 METAR KSEA 181853Z 23007G14KT 10SM SCT100 18/09 A3008 RMK AO2 SLP191 T01830089=
200805181753 METAR KSEA 181753Z 19008KT 10SM FEW100 17/08 A3009 RMK AO2 SLP193 T01720083 10172 20117 51004=
200805181653 METAR KSEA 181653Z 23006KT 10SM SCT110 BKN210 16/09 A3008 RMK AO2 SLP191 T01560089=
200805181553 METAR KSEA 181553Z 20009KT 10SM FEW200 14/09 A3008 RMK AO2 SLP192 T01440089=
200805181453 METAR KSEA 181453Z 21006KT 10SM FEW030 SCT200 13/09 A3008 RMK AO2 SLP189 T01280094 51010=
200805181353 METAR KSEA 181353Z 21007KT 10SM FEW025 SCT150 12/09 A3007 RMK AO2 SLP188 T01220094=
200805181253 METAR KSEA 181253Z 20007KT 10SM FEW025 SCT170 BKN250 12/09 A3006 RMK AO2 SLP184 T01170094=
200805181153 METAR KSEA 181153Z 20008KT 10SM SCT250 12/09 A3005 RMK AO2 SLP178 T01220089 10194 20122 53006=
200805181053 METAR KSEA 181053Z 22006KT 10SM BKN250 13/09 A3003 RMK AO2 SLP174 T01330089=
200805180953 METAR KSEA 180953Z 19005KT 10SM SCT250 14/09 A3003 RMK AO2 SLP172 T01390094=
200805180853 METAR KSEA 180853Z 23004KT 10SM FEW250 15/09 A3003 RMK AO2 SLP172 T01500089 51006=
200805180753 METAR KSEA 180753Z 21006KT 10SM SCT250 16/09 A3003 RMK AO2 SLP172 T01610089 403220139=
200805180653 METAR KSEA 180653Z VRB05KT 10SM FEW250 17/09 A3003 RMK AO2 SLP171 T01670094=
200805180553 METAR KSEA 180553Z 22014G19KT 10SM FEW250 19/10 A3001 RMK AO2 SLP166 T01940100 10306 20189 51012=
200805180453 METAR KSEA 180453Z 19015KT 10SM SCT250 20/11 A3001 RMK AO2 SLP165 T02000106=
200805180353 METAR KSEA 180353Z 22009G15KT 10SM SCT250 22/11 A3000 RMK AO2 SLP161 T02220111=
200805180253 METAR KSEA 180253Z 22010KT 10SM BKN250 26/10 A2998 RMK AO2 SLP154 T02560100 55005=
200805180153 METAR KSEA 180153Z 24009KT 10SM BKN250 27/10 A2997 RMK AO2 SLP152 T02720100=
200805180053 METAR KSEA 180053Z 24009G17KT 10SM BKN250 29/09 A2998 RMK AO2 SLP155 T02940094=
200805172353 METAR KSEA 172353Z 25011G19KT 10SM BKN250 31/11 A2999 RMK AO2 SLP159 T03060106 10322 20272 55010=
200805172253 METAR KSEA 172253Z 24009KT 10SM SCT250 31/12 A2999 RMK AO2 SLP158 T03110122=
200805172153 METAR KSEA 172153Z 24008KT 10SM SCT200 31/11 A3000 RMK AO2 SLP164 T03110111=
200805172053 METAR KSEA 172053Z 24007KT 10SM CLR 31/12 A3002 RMK AO2 SLP169 T03110122 58011=
200805171953 METAR KSEA 171953Z 24009KT 10SM CLR 29/12 A3003 RMK AO2 SLP173 T02940122=
200805171853 METAR KSEA 171853Z 22010KT 10SM CLR 28/12 A3005 RMK AO2 SLP179 T02830117=
200805171753 METAR KSEA 171753Z 19005KT 10SM CLR 27/12 A3005 RMK AO2 SLP180 T02720122 10272 20139 58008=
200805171653 METAR KSEA 171653Z 20005KT 10SM CLR 25/11 A3006 RMK AO2 SLP184 T02500106=
200805171553 METAR KSEA 171553Z 13008KT 10SM CLR 22/12 A3007 RMK AO2 SLP186 T02170122=
200805171453 METAR KSEA 171453Z 15006KT 10SM CLR 19/12 A3008 RMK AO2 SLP188 T01940122 51015=
200805171353 METAR KSEA 171353Z 16004KT 10SM FEW170 SCT250 16/12 A3007 RMK AO2 SLP187 T01560117=
200805171253 METAR KSEA 171253Z 16004KT 10SM FEW170 SCT250 15/12 A3005 RMK AO2 SLP179 T01500122=
200805171153 METAR KSEA 171153Z 10003KT 10SM FEW150 17/12 A3003 RMK AO2 SLP173 T01670117 10194 20156 55002=
200805171053 METAR KSEA 171053Z 00000KT 10SM CLR 17/11 A3003 RMK AO2 SLP173 T01670111=
200805170953 METAR KSEA 170953Z 00000KT 10SM CLR 16/12 A3003 RMK AO2 SLP174 T01610117=
200805170853 METAR KSEA 170853Z 00000KT 10SM FEW250 17/12 A3004 RMK AO2 SLP176 T01720117 58004=
200805170753 METAR KSEA 170753Z 00000KT 10SM FEW250 19/11 A3005 RMK AO2 SLP178 T01890111 402890117=
200805170653 METAR KSEA 170653Z 07003KT 10SM FEW250 19/11 A3005 RMK AO2 SLP180 T01890111=
200805170553 METAR KSEA 170553Z 30003KT 10SM FEW250 19/11 A3005 RMK AO2 SLP180 T01890111 10289 20189 53010=
200805170453 METAR KSEA 170453Z 33004KT 10SM FEW160 SCT250 19/11 A3004 RMK AO2 SLP176 T01940111=
200805170353 METAR KSEA 170353Z 00000KT 10SM FEW160 SCT250 22/12 A3003 RMK AO2 SLP172 T02220117=
200805170253 METAR KSEA 170253Z 30003KT 10SM SCT250 24/12 A3002 RMK AO2 SLP170 T02390122 56013=
200805170153 METAR KSEA 170153Z 31005KT 10SM SCT250 27/12 A3002 RMK AO2 SLP171 T02670122=
200805170053 METAR KSEA 170053Z 35007KT 10SM SCT250 28/13 A3004 RMK AO2 SLP175 T02830128=
200805162353 METAR KSEA 162353Z 34006KT 10SM BKN250 28/12 A3006 RMK AO2 SLP183 T02830117 10289 20206 58017=
200805162253 METAR KSEA 162253Z 30007KT 10SM BKN250 26/11 A3008 RMK AO2 SLP190 T02560106=
200805162153 METAR KSEA 162153Z 31008KT 10SM FEW200 BKN250 24/11 A3010 RMK AO2 SLP197 T02390111=
200805162053 METAR KSEA 162053Z 31005KT 10SM SCT200 BKN250 24/12 A3011 RMK AO2 SLP200 T02390117 58016=
200805161953 METAR KSEA 161953Z 33007KT 10SM BKN250 24/11 A3013 RMK AO2 SLP208 T02440111=
200805161853 METAR KSEA 161853Z 35007KT 10SM BKN250 22/10 A3015 RMK AO2 SLP214 T02220100=
200805161753 METAR KSEA 161753Z 01007KT 10SM SCT250 21/10 A3016 RMK AO2 SLP216 T02060100 10206 20117 58008=
200805161653 METAR KSEA 161653Z 02006KT 10SM BKN250 18/11 A3017 RMK AO2 SLP221 T01830106=
200805161553 METAR KSEA 161553Z 01010KT 10SM SCT250 16/10 A3018 RMK AO2 SLP225 T01610100=
200805161453 METAR KSEA 161453Z 36011KT 10SM BKN250 14/09 A3018 RMK AO2 SLP225 T01440094 55005=
200805161353 METAR KSEA 161353Z 36011KT 10SM BKN250 13/10 A3018 RMK AO2 SLP225 T01280100=
200805161253 METAR KSEA 161253Z 01012KT 10SM SCT250 12/09 A3019 RMK AO2 SLP229 T01170094=
200805161153 METAR KSEA 161153Z 02008KT 10SM FEW250 12/10 A3019 RMK AO2 SLP230 T01220100 10150 20122 56008=
200805161053 METAR KSEA 161053Z 01010KT 10SM FEW250 12/10 A3020 RMK AO2 SLP232 T01220100=
200805160953 METAR KSEA 160953Z 02009KT 10SM FEW250 13/10 A3021 RMK AO2 SLP234 T01280100=
200805160853 METAR KSEA 160853Z 36008KT 10SM FEW250 13/11 A3022 RMK AO2 SLP238 T01330106 58014=
200805160753 METAR KSEA 160753Z 01010KT 10SM FEW250 14/11 A3024 RMK AO2 SLP245 T01390106 402170117=
200805160653 METAR KSEA 160653Z 02012KT 10SM FEW250 14/11 A3025 RMK AO2 SLP248 T01440106=
200805160553 METAR KSEA 160553Z 02010KT 10SM FEW250 15/11 A3026 RMK AO2 SLP253 T01500106 10217 20150 58004=
200805160453 METAR KSEA 160453Z 02010KT 10SM FEW250 16/11 A3027 RMK AO2 SLP256 T01560106=
200805160353 METAR KSEA 160353Z 36010KT 10SM SCT250 16/11 A3027 RMK AO2 SLP255 T01610106=
200805160253 METAR KSEA 160253Z 35009KT 10SM CLR 18/11 A3027 RMK AO2 SLP257 T01830111 56017=
200805160153 METAR KSEA 160153Z 35009KT 10SM CLR 20/11 A3028 RMK AO2 SLP260 T02000111=
200805160053 METAR KSEA 160053Z 36009KT 10SM CLR 21/11 A3030 RMK AO2 SLP267 T02060111=
200805152353 METAR KSEA 152353Z 35009KT 10SM CLR 22/12 A3032 RMK AO2 SLP274 T02170117 10217 20150 58025=
200805152253 METAR KSEA 152253Z 36010KT 10SM CLR 21/12 A3035 RMK AO2 SLP283 T02110117=
200805152153 METAR KSEA 152153Z 34011KT 10SM CLR 21/12 A3038 RMK AO2 SLP292 T02060117=
200805152053 METAR KSEA 152053Z 36013G17KT 10SM CLR 19/12 A3040 RMK AO2 SLP299 T01940117 58020=
200805151953 METAR KSEA 151953Z 01011G16KT 10SM FEW017 18/11 A3042 RMK AO2 SLP308 T01830111=
200805151930 SPECI KSEA 151930Z 01011G16KT 10SM SCT015 18/11 A3043 RMK AO2=
200805151930 SPECI KSEA 151930Z 01011G16KT 10SM SCT015 18/11 A3043 RMK AO2=
200805151853 METAR KSEA 151853Z 01011KT 10SM BKN015 17/11 A3045 RMK AO2 SLP315 T01720111=
200805151843 SPECI KSEA 151843Z 02012KT 10SM SCT013 BKN017 17/11 A3045 RMK AO2=
200805151843 SPECI KSEA 151843Z 02012KT 10SM SCT013 BKN017 17/11 A3045 RMK AO2=
200805151801 SPECI KSEA 151801Z 36011KT 10SM BKN010 BKN014 16/11 A3046 RMK AO2=
200805151801 SPECI KSEA 151801Z 36011KT 10SM BKN010 BKN014 16/11 A3046 RMK AO2=
200805151753 METAR KSEA 151753Z 35010KT 8SM BKN008 BKN013 15/11 A3046 RMK AO2 SLP320 T01500106 10150 20117 56010=
200805151653 METAR KSEA 151653Z 36007KT 6SM BR OVC005 13/11 A3047 RMK AO2 SLP323 T01280111=
200805151553 METAR KSEA 151553Z 04010KT 6SM BR OVC005 13/11 A3048 RMK AO2 SLP327 T01280106=
200805151543 SPECI KSEA 151543Z 03010KT 5SM BR OVC005 13/11 A3048 RMK AO2=
200805151543 SPECI KSEA 151543Z 03010KT 5SM BR OVC005 13/11 A3048 RMK AO2=
200805151521 SPECI KSEA 151521Z 01009KT 2SM BR FEW003 OVC005 12/11 A3048 RMK AO2 SFC VIS 4=
200805151521 SPECI KSEA 151521Z 01009KT 2SM BR FEW003 OVC005 12/11 A3048 RMK AO2 SFC VIS 4=
200805151453 METAR KSEA 151453Z 36007KT 2SM BR OVC003 12/11 A3049 RMK AO2 SLP330 T01220111 53004=
200805151426 SPECI KSEA 151426Z 36007KT 1 1/2SM BR FEW001 OVC003 12/11 A3049 RMK AO2 SFC VIS 2=
200805151426 SPECI KSEA 151426Z 36007KT 1 1/2SM BR FEW001 OVC003 12/11 A3049 RMK AO2 SFC VIS 2=
200805151400 SPECI KSEA 151400Z 35006KT 2SM BR FEW001 OVC003 12/11 A3048 RMK AO2=
200805151400 SPECI KSEA 151400Z 35006KT 2SM BR FEW001 OVC003 12/11 A3048 RMK AO2=
200805151353 METAR KSEA 151353Z 35007KT 2SM BR OVC001 12/11 A3048 RMK AO2 SLP327 T01220111=
200805151343 SPECI KSEA 151343Z 35007KT 2SM BR OVC001 12/11 A3048 RMK AO2 CIG 001V005=
200805151343 SPECI KSEA 151343Z 35007KT 2SM BR OVC001 12/11 A3048 RMK AO2 CIG 001V005=
200805151333 SPECI KSEA 151333Z 35007KT 1 3/4SM BR OVC001 12/11 A3048 RMK AO2=
200805151333 SPECI KSEA 151333Z 35007KT 1 3/4SM BR OVC001 12/11 A3048 RMK AO2=
200805151311 SPECI KSEA 151311Z 35008KT 1 1/4SM BR OVC001 12/11 A3048 RMK AO2=
200805151311 SPECI KSEA 151311Z 35008KT 1 1/4SM BR OVC001 12/11 A3048 RMK AO2=
200805151303 SPECI KSEA 151303Z 34010KT 1 1/2SM BR OVC001 12/11 A3048 RMK AO2=
200805151303 SPECI KSEA 151303Z 34010KT 1 1/2SM BR OVC001 12/11 A3048 RMK AO2=
200805151253 METAR KSEA 151253Z 35009KT 2SM BR OVC001 12/11 A3048 RMK AO2 SLP327 T01170106=
200805151236 SPECI KSEA 151236Z 35010KT 2SM BR OVC001 12/11 A3048 RMK AO2=
200805151236 SPECI KSEA 151236Z 35010KT 2SM BR OVC001 12/11 A3048 RMK AO2=
200805151153 METAR KSEA 151153Z 36009KT 4SM BR OVC001 13/12 A3048 RMK AO2 SLP326 T01280117 10150 20128 58001=
200805151122 SPECI KSEA 151122Z 34008KT 3SM BR BKN001 OVC007 13/12 A3048 RMK AO2 CIG 001V004=
200805151122 SPECI KSEA 151122Z 34008KT 3SM BR BKN001 OVC007 13/12 A3048 RMK AO2 CIG 001V004=
200805151100 METAR KSEA NIL=
200805151053 METAR KSEA 151053Z 35006KT 2SM BR OVC001 13/12 A3048 RMK AO2 SLP328 T01280117=
200805151030 SPECI KSEA 151030Z 36006KT 2SM BR OVC001 13/12 A3048 RMK AO2=
200805151030 SPECI KSEA 151030Z 36006KT 2SM BR OVC001 13/12 A3048 RMK AO2=
200805150959 SPECI KSEA 150959Z 36005KT 1 3/4SM BR OVC001 13/12 A3048 RMK AO2=
200805150959 SPECI KSEA 150959Z 36005KT 1 3/4SM BR OVC001 13/12 A3048 RMK AO2=
200805150953 METAR KSEA 150953Z 01005KT 3SM BR OVC001 13/12 A3048 RMK AO2 CIG 001V006 SLP327 T01330122=
200805150949 SPECI KSEA 150949Z 01006KT 3SM BR OVC001 13/12 A3048 RMK AO2 CIG 001V006=
200805150949 SPECI KSEA 150949Z 01006KT 3SM BR OVC001 13/12 A3048 RMK AO2 CIG 001V006=
200805150937 SPECI KSEA 150937Z 01007KT 2SM BR OVC001 13/12 A3048 RMK AO2=
200805150937 SPECI KSEA 150937Z 01007KT 2SM BR OVC001 13/12 A3048 RMK AO2=
200805150924 SPECI KSEA 150924Z 01008KT 1SM R16C/4500VP6000FT BR OVC001 13/12 A3048 RMK AO2=
200805150924 SPECI KSEA 150924Z 01008KT 1SM R16C/4500VP6000FT BR OVC001 13/12 A3048 RMK AO2=
200805150910 SPECI KSEA 150910Z 02009KT 1 1/2SM R16C/4500VP6000FT BR OVC001 13/12 A3048 RMK AO2=
200805150910 SPECI KSEA 150910Z 02009KT 1 1/2SM R16C/4500VP6000FT BR OVC001 13/12 A3048 RMK AO2=
200805150853 METAR KSEA 150853Z 01009KT 1/2SM R16C/2600V4000FT FG VV001 13/12 A3048 RMK AO2 SLP328 T01330122 58001=
200805150843 SPECI KSEA 150843Z 01009KT 1/2SM R16C/2600V3000FT FG VV001 13/12 A3048 RMK AO2=
200805150843 SPECI KSEA 150843Z 01009KT 1/2SM R16C/2600V3000FT FG VV001 13/12 A3048 RMK AO2=
200805150825 SPECI KSEA 150825Z 02010KT 3/4SM R16C/2200VP6000FT BR OVC002 13/12 A3048 RMK AO2=
200805150825 SPECI KSEA 150825Z 02010KT 3/4SM R16C/2200VP6000FT BR OVC002 13/12 A3048 RMK AO2=
200805150753 METAR KSEA 150753Z 01008KT 2SM BR BKN002 14/12 A3048 RMK AO2 SFC VIS 5 SLP328 T01390122 401890106=
200805150747 SPECI KSEA 150747Z 02009KT 2SM BR BKN002 13/12 A3048 RMK AO2 SFC VIS 5 401890106=
200805150747 SPECI KSEA 150747Z 02009KT 2SM BR BKN002 13/12 A3048 RMK AO2 SFC VIS 5 401890106=
200805150735 SPECI KSEA 150735Z 01006KT 6SM BR FEW002 14/12 A3049 RMK AO2=
200805150735 SPECI KSEA 150735Z 01006KT 6SM BR FEW002 14/12 A3049 RMK AO2=
200805150720 SPECI KSEA 150720Z 34003KT 1SM BR FEW002 BKN008 13/12 A3049 RMK AO2 SFC VIS 6=
200805150720 SPECI KSEA 150720Z 34003KT 1SM BR FEW002 BKN008 13/12 A3049 RMK AO2 SFC VIS 6=
200805150653 METAR KSEA 150653Z 36005KT 9SM FEW040 14/13 A3049 RMK AO2 SLP331 T01390128=
200805150553 METAR KSEA 150553Z 03004KT 10SM SCT040 14/13 A3049 RMK AO2 SLP329 T01440128 10189 20144 55001=
200805150453 METAR KSEA 150453Z VRB04KT 10SM BKN036 16/13 A3048 RMK AO2 SLP328 T01610133=
200805150353 METAR KSEA 150353Z 03006KT 10SM BKN038 17/13 A3048 RMK AO2 SLP328 T01670133=
200805150253 METAR KSEA 150253Z 04006KT 10SM OVC036 17/14 A3049 RMK AO2 SLP330 T01720139 53011=
200805150216 SPECI KSEA 150216Z 05008KT 10SM SCT025 BKN038 17/13 A3048 RMK AO2=
200805150216 SPECI KSEA 150216Z 05008KT 10SM SCT025 BKN038 17/13 A3048 RMK AO2=
200805150153 METAR KSEA 150153Z 01008KT 10SM BKN025 BKN040 18/13 A3048 RMK AO2 SLP327 T01780133=
200805150132 SPECI KSEA 150132Z 01008KT 10SM BKN025 BKN042 18/13 A3047 RMK AO2=
200805150132 SPECI KSEA 150132Z 01008KT 10SM BKN025 BKN042 18/13 A3047 RMK AO2=
200805150114 SPECI KSEA 150114Z 06004KT 10SM SCT025 BKN041 19/13 A3047 RMK AO2=
200805150114 SPECI KSEA 150114Z 06004KT 10SM SCT025 BKN041 19/13 A3047 RMK AO2=
200805150053 METAR KSEA 150053Z 00000KT 10SM BKN025 BKN037 19/13 A3046 RMK AO2 SLP321 T01890128=
200805142353 METAR KSEA 142353Z 00000KT 10SM BKN023 OVC031 18/13 A3046 RMK AO2 SLP319 T01830128 10189 20139 51007=
200805142253 METAR KSEA 142253Z 00000KT 10SM BKN024 OVC050 18/12 A3045 RMK AO2 SLP317 T01830122=
200805142153 METAR KSEA 142153Z 11005KT 10SM BKN020 OVC028 18/13 A3044 RMK AO2 SLP315 T01780128=
200805142053 METAR KSEA 142053Z 00000KT 10SM BKN017 OVC024 17/12 A3044 RMK AO2 SLP313 T01670117 53017=
200805142012 SPECI KSEA 142012Z 21005KT 10SM BKN016 OVC024 16/12 A3042 RMK AO2=
200805142012 SPECI KSEA 142012Z 21005KT 10SM BKN016 OVC024 16/12 A3042 RMK AO2=
200805141953 METAR KSEA 141953Z 18006KT 10SM BKN014 OVC020 16/12 A3041 RMK AO2 SLP306 T01610117=
200805141853 METAR KSEA 141853Z 19005KT 6SM HZ BKN010 OVC014 14/12 A3041 RMK AO2 SLP303 T01440117=
200805141753 METAR KSEA 141753Z 19005KT 10SM SCT007 OVC012 14/11 A3039 RMK AO2 SLP296 T01390111 10139 20117 52019=
200805141742 SPECI KSEA 141742Z 19005KT 10SM SCT007 OVC012 14/11 A3038 RMK AO2=
200805141742 SPECI KSEA 141742Z 19005KT 10SM SCT007 OVC012 14/11 A3038 RMK AO2=
200805141653 METAR KSEA 141653Z 18007KT 10SM BKN007 OVC012 13/11 A3037 RMK AO2 SLP290 T01280106=
200805141637 SPECI KSEA 141637Z 19008KT 10SM BKN007 OVC012 13/10 A3036 RMK AO2=
200805141637 SPECI KSEA 141637Z 19008KT 10SM BKN007 OVC012 13/10 A3036 RMK AO2=
200805141625 SPECI KSEA 141625Z 20008KT 10SM FEW007 OVC012 12/10 A3036 RMK AO2=
200805141625 SPECI KSEA 141625Z 20008KT 10SM FEW007 OVC012 12/10 A3036 RMK AO2=
200805141553 METAR KSEA 141553Z 20010KT 10SM BKN010 OVC014 12/09 A3035 RMK AO2 SLP284 T01220094=
200805141453 METAR KSEA 141453Z 22010KT 10SM BKN010 OVC014 12/09 A3033 RMK AO2 SLP277 T01220094 53022=
200805141353 METAR KSEA 141353Z 20008KT 10SM OVC010 12/09 A3030 RMK AO2 SLP268 T01170094=
200805141253 METAR KSEA 141253Z 21006KT 10SM OVC010 12/09 A3029 RMK AO2 SLP264 T01170094=
200805141153 METAR KSEA 141153Z 21007KT 10SM OVC010 12/09 A3027 RMK AO2 CIG 008V014 SLP255 70013 T01170094 10117 20106 53023=
200805141115 SPECI KSEA 141115Z 21010KT 10SM OVC010 12/09 A3025 RMK AO2 CIG 007V013=
200805141115 SPECI KSEA 141115Z 21010KT 10SM OVC010 12/09 A3025 RMK AO2 CIG 007V013=
200805141053 METAR KSEA 141053Z 21008KT 10SM OVC008 12/09 A3024 RMK AO2 CIG 007V011 SLP247 T01170094=
200805140953 METAR KSEA 140953Z 21008KT 10SM OVC006 11/10 A3022 RMK AO2 CIG 004V010 SLP239 T01060100=
200805140853 METAR KSEA 140853Z 22010KT 5SM BR OVC004 11/10 A3020 RMK AO2 CIG 003V007 SLP232 T01110100 53011=
200805140753 METAR KSEA 140753Z 22014KT 10SM BKN008 OVC013 11/09 A3017 RMK AO2 SLP225 T01110094 401220089=
200805140653 METAR KSEA 140653Z 21010KT 10SM OVC013 12/09 A3017 RMK AO2 SLP223 T01170094=
200805140553 METAR KSEA 140553Z 21013G20KT 10SM OVC013 12/09 A3016 RMK AO2 SLP222 60000 T01170094 10122 20117 51010=
200805140453 METAR KSEA 140453Z 21007KT 10SM OVC011 12/09 A3016 RMK AO2 SLP221 T01170094=
200805140353 METAR KSEA 140353Z 20007KT 10SM OVC011 12/09 A3014 RMK AO2 RAB08E35 SLP214 P0000 T01170094=
200805140253 METAR KSEA 140253Z 19009KT 10SM OVC013 12/09 A3013 RMK AO2 RAB36E47 SLP211 P0000 60000 T01220094 53004=
200805140240 SPECI KSEA 140240Z 20012KT 10SM -RA OVC013 12/09 A3013 RMK AO2 RAB36 P0000=
200805140240 SPECI KSEA 140240Z 20012KT 10SM -RA OVC013 12/09 A3013 RMK AO2 RAB36 P0000=
200805140153 METAR KSEA 140153Z 20011KT 10SM OVC016 12/09 A3013 RMK AO2 SLP210 T01170094=
200805140053 METAR KSEA 140053Z 19011KT 10SM OVC016 12/09 A3012 RMK AO2 RAE30 SLP208 P0000 T01170094=
200805132353 METAR KSEA 132353Z 20008KT 10SM -RA FEW009 BKN015 OVC021 12/09 A3012 RMK AO2 DZE18RAB50 SLP207 P0000 60008 T01170089 10117 20094 53006=
200805132323 SPECI KSEA 132323Z 21010KT 10SM FEW008 BKN016 OVC023 11/09 A3012 RMK AO2 DZE18 P0000=
200805132323 SPECI KSEA 132323Z 21010KT 10SM FEW008 BKN016 OVC023 11/09 A3012 RMK AO2 DZE18 P0000=
200805132253 METAR KSEA 132253Z 21008KT 7SM -DZ SCT007 OVC014 11/09 A3012 RMK AO2 RAB09E11DZB14 SLP208 P0000 T01110089=
200805132153 METAR KSEA 132153Z 18008KT 7SM FEW007 BKN013 OVC019 11/09 A3010 RMK AO2 RAE05B44E53 SLP201 P0000 T01110089=
200805132147 SPECI KSEA 132147Z 19007KT 7SM -RA FEW007 BKN013 OVC022 11/09 A3010 RMK AO2 RAE05B44 P0000=
200805132147 SPECI KSEA 132147Z 19007KT 7SM -RA FEW007 BKN013 OVC022 11/09 A3010 RMK AO2 RAE05B44 P0000=
200805132124 SPECI KSEA 132124Z 18007KT 8SM FEW006 BKN016 OVC022 11/09 A3010 RMK AO2 RAE05 P0000=
200805132124 SPECI KSEA 132124Z 18007KT 8SM FEW006 BKN016 OVC022 11/09 A3010 RMK AO2 RAE05 P0000=
200805132053 METAR KSEA 132053Z 18009KT 7SM -RA FEW006 BKN014 OVC022 11/09 A3010 RMK AO2 SLP198 P0002 60008 T01060089 58008=
200805132043 SPECI KSEA 132043Z 17008KT 7SM -RA FEW006 OVC014 11/09 A3010 RMK AO2 P0001=
200805132043 SPECI KSEA 132043Z 17008KT 7SM -RA FEW006 OVC014 11/09 A3010 RMK AO2 P0001=
200805131953 METAR KSEA 131953Z 17006KT 6SM -RA BR SCT006 OVC016 10/08 A3011 RMK AO2 SLP204 P0002 T01000083=
200805131853 METAR KSEA 131853Z 19006KT 5SM -RA BR SCT008 OVC025 10/08 A3012 RMK AO2 SLP206 P0004 T01000083=
200805131841 SPECI KSEA 131841Z 18006KT 6SM -RA BR SCT008 BKN025 OVC033 10/08 A3012 RMK AO2 P0003=
200805131841 SPECI KSEA 131841Z 18006KT 6SM -RA BR SCT008 BKN025 OVC033 10/08 A3012 RMK AO2 P0003=
200805131753 METAR KSEA 131753Z 20004KT 7SM -RA FEW008 BKN030 OVC038 09/08 A3012 RMK AO2 SLP207 P0004 60005 T00940078 10100 20089 51002=
200805131746 SPECI KSEA 131746Z 19005KT 7SM -RA FEW008 BKN030 OVC038 09/08 A3012 RMK AO2 P0003=
200805131746 SPECI KSEA 131746Z 19005KT 7SM -RA FEW008 BKN030 OVC038 09/08 A3012 RMK AO2 P0003=
200805131740 SPECI KSEA 131740Z 19004KT 7SM -RA FEW008 BKN020 OVC030 09/08 A3012 RMK AO2 P0003=
200805131740 SPECI KSEA 131740Z 19004KT 7SM -RA FEW008 BKN020 OVC030 09/08 A3012 RMK AO2 P0003=
200805131730 SPECI KSEA 131730Z 20005KT 6SM -RA BR FEW008 BKN014 OVC035 09/07 A3012 RMK AO2 P0002=
200805131730 SPECI KSEA 131730Z 20005KT 6SM -RA BR FEW008 BKN014 OVC035 09/07 A3012 RMK AO2 P0002=
200805131722 SPECI KSEA 131722Z 20006KT 6SM -RA BR SCT008 BKN016 OVC035 09/08 A3012 RMK AO2 P0002=
200805131722 SPECI KSEA 131722Z 20006KT 6SM -RA BR SCT008 BKN016 OVC035 09/08 A3012 RMK AO2 P0002=
200805131712 SPECI KSEA 131712Z 21006KT 7SM -RA FEW008 BKN032 OVC040 10/07 A3012 RMK AO2 P0001=
200805131712 SPECI KSEA 131712Z 21006KT 7SM -RA FEW008 BKN032 OVC040 10/07 A3012 RMK AO2 P0001=
200805131702 SPECI KSEA 131702Z 19006KT 7SM -RA FEW018 BKN032 OVC045 10/08 A3012 RMK AO2 P0001=
200805131702 SPECI KSEA 131702Z 19006KT 7SM -RA FEW018 BKN032 OVC045 10/08 A3012 RMK AO2 P0001=
200805131653 METAR KSEA 131653Z 19006KT 7SM -RA FEW020 BKN028 OVC045 09/07 A3012 RMK AO2 SLP205 P0001 T00940072=
200805131617 SPECI KSEA 131617Z 23008KT 7SM -RA BKN028 OVC043 10/07 A3013 RMK AO2 P0000=
200805131617 SPECI KSEA 131617Z 23008KT 7SM -RA BKN028 OVC043 10/07 A3013 RMK AO2 P0000=
200805131553 METAR KSEA 131553Z 18005KT 6SM -RA BKN032 OVC045 10/06 A3013 RMK AO2 RAB03E23B44 SLP210 P0000 T01000061=
200805131453 METAR KSEA 131453Z 15007KT 10SM BKN044 OVC060 10/06 A3011 RMK AO2 SLP204 T01000056 58000=
200805131353 METAR KSEA 131353Z 18004KT 10SM SCT045 BKN060 OVC200 09/06 A3012 RMK AO2 SLP204 T00940056=
200805131253 METAR KSEA 131253Z 18003KT 10SM OVC060 09/05 A3012 RMK AO2 SLP205 T00940050=
200805131153 METAR KSEA 131153Z 16004KT 10SM OVC060 09/05 A3012 RMK AO2 SLP204 T00890050 10111 20089 58006=
200805131053 METAR KSEA 131053Z 00000KT 10SM OVC065 09/05 A3012 RMK AO2 SLP207 T00940050=
200805130953 METAR KSEA 130953Z 14006KT 10SM OVC065 09/04 A3013 RMK AO2 SLP208 T00940044=
200805130853 METAR KSEA 130853Z 12005KT 10SM OVC075 10/04 A3013 RMK AO2 SLP210 T01000044 58005=
200805130753 METAR KSEA 130753Z 12003KT 10SM OVC090 11/04 A3014 RMK AO2 SLP214 T01060039 401500056=
200805130653 METAR KSEA 130653Z 00000KT 10SM FEW100 BKN120 OVC200 11/04 A3015 RMK AO2 SLP215 T01060044=
200805130553 METAR KSEA 130553Z 22004KT 10SM SCT110 OVC200 11/04 A3015 RMK AO2 SLP217 T01110039 10150 20111 50000=
200805130453 METAR KSEA 130453Z 08005KT 10SM SCT110 BKN200 12/02 A3016 RMK AO2 SLP219 T01220022=
200805130353 METAR KSEA 130353Z 08006KT 10SM SCT150 OVC200 12/02 A3015 RMK AO2 SLP216 T01220017=
200805130253 METAR KSEA 130253Z 00000KT 10SM FEW050 SCT150 BKN200 13/M01 A3015 RMK AO2 SLP217 T01331006 58011=
200805130153 METAR KSEA 130153Z 00000KT 10SM SCT050 OVC200 14/M01 A3017 RMK AO2 SLP223 T01391006=
200805130053 METAR KSEA 130053Z 19004KT 10SM SCT050 OVC200 14/01 A3018 RMK AO2 SLP227 T01390006=
200805122353 METAR KSEA 122353Z 26004KT 10SM SCT050 OVC200 14/M02 A3018 RMK AO2 SLP228 T01441017 10150 20100 58004=
200805122253 METAR KSEA 122253Z VRB03KT 10SM SCT049 OVC200 14/02 A3019 RMK AO2 SLP231 T01390017=
200805122153 METAR KSEA 122153Z 00000KT 10SM SCT045 OVC200 13/02 A3020 RMK AO2 SLP234 T01280017=
200805122053 METAR KSEA 122053Z 00000KT 10SM BKN042 BKN250 12/02 A3020 RMK AO2 SLP232 T01220017 56004=
200805121953 METAR KSEA 121953Z 00000KT 10SM BKN040 BKN250 13/02 A3020 RMK AO2 SLP233 T01330017=
200805121853 METAR KSEA 121853Z 13003KT 10SM BKN040 BKN250 12/03 A3020 RMK AO2 SLP234 T01170033=
200805121753 METAR KSEA 121753Z 31005KT 10SM BKN038 BKN250 10/04 A3021 RMK AO2 SLP237 T01000044 10117 20056 58003=
200805121711 SPECI KSEA 121711Z 27005KT 10SM SCT023 BKN032 BKN200 10/05 A3022 RMK AO2=
200805121711 SPECI KSEA 121711Z 27005KT 10SM SCT023 BKN032 BKN200 10/05 A3022 RMK AO2=
200805121653 METAR KSEA 121653Z 28003KT 10SM BKN023 BKN200 10/04 A3022 RMK AO2 SLP239 T01000044=
200805121622 SPECI KSEA 121622Z VRB03KT 10SM FEW018 BKN023 BKN200 11/04 A3022 RMK AO2=
200805121622 SPECI KSEA 121622Z VRB03KT 10SM FEW018 BKN023 BKN200 11/04 A3022 RMK AO2=
200805121553 METAR KSEA 121553Z 00000KT 10SM FEW023 08/04 A3022 RMK AO2 SLP241 T00830039=
200805121453 METAR KSEA 121453Z 17003KT 10SM FEW010 BKN046 07/04 A3022 RMK AO2 SLP240 T00670044 51005=
200805121353 METAR KSEA 121353Z 00000KT 10SM FEW025 BKN050 06/04 A3021 RMK AO2 SLP240 T00560044=
200805121341 SPECI KSEA 121341Z 18003KT 10SM SCT023 OVC050 06/04 A3022 RMK AO2 $=
200805121341 SPECI KSEA 121341Z 18003KT 10SM SCT023 OVC050 06/04 A3022 RMK AO2 $=
200805121253 METAR KSEA 121253Z 00000KT 10SM BKN018 BKN044 06/04 A3021 RMK AO2 SLP239 T00560044 $=
200805121208 SPECI KSEA 121208Z 17004KT 10SM FEW026 06/04 A3020 RMK AO2 $=
200805121208 SPECI KSEA 121208Z 17004KT 10SM FEW026 06/04 A3020 RMK AO2 $=
200805121153 METAR KSEA 121153Z COR 17004KT 10SM BKN026 06/04 A3020 RMK AO2 SLP236 60001 7/0003 T00560044 10078 20056 50001 $=
200805121053 METAR KSEA 121053Z 14005KT 10SM OVC020 07/05 A3020 RMK AO2 SLP235 T00670050 $=
200805121014 SPECI KSEA 121014Z 13005KT 10SM BKN020 BKN035 07/05 A3021 RMK AO2 $=
200805121014 SPECI KSEA 121014Z 13005KT 10SM BKN020 BKN035 07/05 A3021 RMK AO2 $=
200805120953 METAR KSEA 120953Z 15003KT 10SM SCT020 06/05 A3021 RMK AO2 RAE14 SLP236 P0001 T00610050 $=
200805120853 METAR KSEA 120853Z 15005KT 9SM -RA BKN023 OVC032 07/05 A3020 RMK AO2 RAB48 SLP234 P0000 60000 T00720050 51006 $=
200805120819 SPECI KSEA 120819Z 13005KT 10SM BKN022 OVC030 07/05 A3020 RMK AO2 $=
200805120819 SPECI KSEA 120819Z 13005KT 10SM BKN022 OVC030 07/05 A3020 RMK AO2 $=
200805120753 METAR KSEA 120753Z 15005KT 10SM BKN030 OVC034 07/05 A3019 RMK AO2 SLP232 T00720050 401330067 $=
200805120749 SPECI KSEA 120749Z 14004KT 10SM BKN030 BKN034 OVC047 07/05 A3019 RMK AO2 401330067 $=
200805120749 SPECI KSEA 120749Z 14004KT 10SM BKN030 BKN034 OVC047 07/05 A3019 RMK AO2 401330067 $=
200805120653 METAR KSEA 120653Z 13008KT 10SM BKN026 07/04 A3018 RMK AO2 SLP228 T00720044 $=
200805120648 SPECI KSEA 120648Z 13008KT 10SM BKN026 BKN032 07/04 A3018 RMK AO2 $=
200805120648 SPECI KSEA 120648Z 13008KT 10SM BKN026 BKN032 07/04 A3018 RMK AO2 $=
200805120553 METAR KSEA 120553Z 17005KT 10SM SCT030 BKN043 BKN080 08/06 A3018 RMK AO2 SLP226 6//// T00780056 10111 20078 52012 $=
200805120453 METAR KSEA 120453Z 13006KT 10SM BKN035 BKN060 08/05 A3017 RMK AO2 RAE31 SLP222 P0001 T00830050 $=
200805120353 METAR KSEA 120353Z 06009KT 10SM -RA FEW030 BKN037 OVC060 09/03 A3015 RMK AO2 RAB52 SLP218 T00940033 PNO $=
200805120253 METAR KSEA 120253Z 05008KT 10SM BKN037 BKN060 BKN085 10/04 A3014 RMK AO2 SLP214 VIRGA N-NE 6//// T01000039 53004 PNO $=
200805120153 METAR KSEA 120153Z 08009KT 10SM SCT035 BKN060 10/04 A3013 RMK AO2 SLP211 T01000039 PNO $=
200805120053 METAR KSEA 120053Z 03009KT 10SM FEW030 BKN040 BKN050 11/04 A3013 RMK AO2 RAE00 SLP210 SH DSNT SW T01060039 PNO $=
200805112359 SPECI KSEA 112359Z 03007KT 10SM -RA FEW024 BKN031 BKN041 11/06 A3013 RMK AO2 PNO $=
200805112359 SPECI KSEA 112359Z 03007KT 10SM -RA FEW024 BKN031 BKN041 11/06 A3013 RMK AO2 PNO $=
200805112353 METAR KSEA 112353Z 02008KT 7SM -RA BKN026 BKN041 10/05 A3013 RMK AO2 RAB29 SLP210 VCSH S VIS N 3 P0000 6//// T01000050 10133 20100 53003 PNO $=
200805112341 SPECI KSEA 112341Z 35008KT 7SM RA BKN025 OVC032 10/05 A3013 RMK AO2 RAB29 VIS NW-N 3 P0000 PNO $=
200805112341 SPECI KSEA 112341Z 35008KT 7SM RA BKN025 OVC032 10/05 A3013 RMK AO2 RAB29 VIS NW-N 3 P0000 PNO $=
200805112336 SPECI KSEA 112336Z 35005KT 2 1/2SM R16C/5000VP6000FT RA FEW017 BKN028 OVC034 10/05 A3013 RMK AO2 RAB29 VIS NW 2 P0000=
200805112336 SPECI KSEA 112336Z 35005KT 2 1/2SM R16C/5000VP6000FT RA FEW017 BKN028 OVC034 10/05 A3013 RMK AO2 RAB29 VIS NW 2 P0000=
200805112320 SPECI KSEA 112320Z 22007KT 10SM BKN028 OVC045 11/03 A3013 RMK AO2 VIRGA W=
200805112320 SPECI KSEA 112320Z 22007KT 10SM BKN028 OVC045 11/03 A3013 RMK AO2 VIRGA W=
200805112253 METAR KSEA 112253Z 00000KT 10SM SCT035 BKN043 BKN090 11/04 A3012 RMK AO2 SLP208 VCSH SW T01110039=
200805112153 METAR KSEA 112153Z 23007KT 10SM BKN039 BKN055 12/03 A3012 RMK AO2 SLP208 VIRGA SW-W SH DSNT NW T01170033=
200805112053 METAR KSEA 112053Z 18004KT 10SM FEW026 SCT043 BKN055 11/04 A3012 RMK AO2 RAB1956E19 SLP206 P0001 60001 T01060039 51009=
200805111953 METAR KSEA 111953Z 22010KT 10SM OVC037 11/03 A3011 RMK AO2 RAB06E15 SLP205 P0000 T01110033=
200805111853 METAR KSEA 111853Z 20012G21KT 10SM BKN050 BKN060 12/02 A3010 RMK AO2 SLP200 T01170022=
200805111753 METAR KSEA 111753Z 21015KT 10SM BKN035 BKN060 11/02 A3009 RMK AO2 SLP197 T01060022 10111 20067 53008=
200805111700 SPECI KSEA 111700Z 21015G21KT 10SM BKN032 BKN060 10/03 A3008 RMK AO2=
200805111700 SPECI KSEA 111700Z 21015G21KT 10SM BKN032 BKN060 10/03 A3008 RMK AO2=
200805111653 METAR KSEA 111653Z 21014G25KT 10SM BKN025 BKN060 10/03 A3008 RMK AO2 SLP193 T01000028=
200805111553 METAR KSEA 111553Z 20015KT 10SM SCT022 BKN029 BKN060 09/03 A3007 RMK AO2 SLP189 T00890028=
200805111535 SPECI KSEA 111535Z 21014G19KT 10SM SCT022 BKN029 BKN060 09/03 A3007 RMK AO2=
200805111535 SPECI KSEA 111535Z 21014G19KT 10SM SCT022 BKN029 BKN060 09/03 A3007 RMK AO2=
200805111512 SPECI KSEA 111512Z 21011G17KT 10SM SCT024 09/03 A3007 RMK AO2=
200805111512 SPECI KSEA 111512Z 21011G17KT 10SM SCT024 09/03 A3007 RMK AO2=
200805111500 SPECI KSEA 111500Z 21009KT 10SM BKN024 08/03 A3007 RMK AO2=
200805111500 SPECI KSEA 111500Z 21009KT 10SM BKN024 08/03 A3007 RMK AO2=
200805111453 METAR KSEA 111453Z 20010KT 10SM FEW019 SCT060 08/03 A3007 RMK AO2 SLP189 T00830033 53012=
200805111353 METAR KSEA 111353Z 21011KT 10SM SCT017 SCT060 BKN150 07/03 A3005 RMK AO2 SLP184 T00720033=
200805111325 SPECI KSEA 111325Z 20011KT 10SM SCT017 BKN050 BKN100 07/03 A3004 RMK AO2=
200805111325 SPECI KSEA 111325Z 20011KT 10SM SCT017 BKN050 BKN100 07/03 A3004 RMK AO2=
200805111253 METAR KSEA 111253Z 20013G19KT 10SM BKN015 BKN020 BKN050 07/04 A3004 RMK AO2 SLP179 T00670039=
200805111153 METAR KSEA 111153Z 20007KT 10SM BKN014 OVC025 07/04 A3003 RMK AO2 SLP177 70001 T00720044 10083 20072 53008=
200805111053 METAR KSEA 111053Z 21013KT 10SM OVC013 08/04 A3002 RMK AO2 SLP171 T00780044=
200805110953 METAR KSEA 110953Z 21016G20KT 10SM OVC018 08/04 A3001 RMK AO2 SLP168 T00780044=
200805110853 METAR KSEA 110853Z 22019G26KT 10SM BKN018 OVC023 08/04 A3000 RMK AO2 PK WND 22028/0831 SLP163 T00780039 51016=
200805110753 METAR KSEA 110753Z 20015G22KT 10SM OVC020 08/04 A2998 RMK AO2 PK WND 21026/0729 SLP159 T00830039 401560078=
200805110653 METAR KSEA 110653Z 21013G23KT 10SM BKN020 BKN120 08/04 A2996 RMK AO2 PK WND 19030/0640 SLP153 T00780044=
200805110553 METAR KSEA 110553Z 21018G25KT 10SM SCT090 08/05 A2995 RMK AO2 PK WND 20028/0532 SLP148 60000 T00830050 10150 20083 53019=
200805110453 METAR KSEA 110453Z 22014G21KT 10SM FEW017 SCT075 SCT100 09/06 A2992 RMK AO2 SLP138 T00940061=
200805110410 SPECI KSEA 110410Z 22015G22KT 10SM FEW022 BKN095 10/06 A2990 RMK AO2=
200805110410 SPECI KSEA 110410Z 22015G22KT 10SM FEW022 BKN095 10/06 A2990 RMK AO2=
200805110353 METAR KSEA 110353Z 24012G19KT 10SM FEW015 BKN023 OVC095 11/07 A2990 RMK AO2 RAB09E27 SLP131 P0000 T01060072=
200805110334 SPECI KSEA 110334Z 23008KT 10SM SCT015 BKN021 OVC044 11/09 A2989 RMK AO2 RAB09E27 P0000=
200805110334 SPECI KSEA 110334Z 23008KT 10SM SCT015 BKN021 OVC044 11/09 A2989 RMK AO2 RAB09E27 P0000=
200805110323 SPECI KSEA 110323Z 22008KT 10SM -RA SCT014 BKN031 OVC044 11/09 A2989 RMK AO2 RAB09 P0000=
200805110323 SPECI KSEA 110323Z 22008KT 10SM -RA SCT014 BKN031 OVC044 11/09 A2989 RMK AO2 RAB09 P0000=
200805110301 SPECI KSEA 110301Z 23008KT 10SM SCT012 BKN027 OVC034 11/09 A2989 RMK AO2=
200805110301 SPECI KSEA 110301Z 23008KT 10SM SCT012 BKN027 OVC034 11/09 A2989 RMK AO2=
200805110253 METAR KSEA 110253Z 24007KT 10SM BKN012 OVC027 11/09 A2989 RMK AO2 RAE02B41E50 SLP127 P0000 60000 T01110089 56013=
200805110232 SPECI KSEA 110232Z 21005KT 10SM BKN012 BKN023 OVC028 11/09 A2990 RMK AO2 RAE02 P0000=
200805110232 SPECI KSEA 110232Z 21005KT 10SM BKN012 BKN023 OVC028 11/09 A2990 RMK AO2 RAE02 P0000=
200805110221 SPECI KSEA 110221Z 20007KT 10SM SCT014 BKN025 OVC090 12/09 A2990 RMK AO2 RAE02 P0000=
200805110221 SPECI KSEA 110221Z 20007KT 10SM SCT014 BKN025 OVC090 12/09 A2990 RMK AO2 RAE02 P0000=
200805110153 METAR KSEA 110153Z 20005KT 10SM -RA FEW031 BKN065 OVC095 12/09 A2989 RMK AO2 SLP129 P0000 T01170089=
200805110053 METAR KSEA 110053Z 26008KT 10SM -RA SCT036 BKN045 OVC060 13/08 A2992 RMK AO2 RAB30 SLP137 P0000 T01280083=
200805102353 METAR KSEA 102353Z 26008KT 10SM FEW040 SCT060 OVC080 15/07 A2993 RMK AO2 SLP140 T01500067 10156 20122 58012=
200805102253 METAR KSEA 102253Z 24010G15KT 10SM OVC041 16/06 A2994 RMK AO2 SLP145 T01560061=
200805102153 METAR KSEA 102153Z 24006KT 10SM OVC045 14/06 A2996 RMK AO2 SLP152 T01390061=
200805102053 METAR KSEA 102053Z 22006KT 10SM BKN043 OVC050 15/06 A2996 RMK AO2 SLP152 T01500061 58010=
200805101953 METAR KSEA 101953Z 19008KT 10SM OVC045 13/05 A2997 RMK AO2 SLP156 T01330050=
200805101853 METAR KSEA 101853Z 23008KT 10SM BKN046 OVC055 13/06 A2999 RMK AO2 SLP162 T01330061=
200805101753 METAR KSEA 101753Z 15005KT 10SM SCT046 BKN070 12/07 A2999 RMK AO2 SLP162 60001 T01220067 10122 20094 58003=
200805101653 METAR KSEA 101653Z 13005KT 10SM OVC045 11/06 A2999 RMK AO2 SLP162 T01110061=
200805101553 METAR KSEA 101553Z 22004KT 10SM OVC060 11/07 A3001 RMK AO2 RAE31 SLP167 P0001 T01060067=
200805101457 METAR KSEA 101457Z 00000KT 40SMSM OVC100 05/=
200805101453 METAR KSEA 101453Z 15004KT 10SM -RA OVC055 11/04 A3000 RMK AO2 RAB47 SLP164 P0000 60000 T01060044 57007=
200805101353 METAR KSEA 101353Z 00000KT 10SM BKN060 BKN080 OVC110 11/05 A3001 RMK AO2 SLP169 T01060050=
200805101253 METAR KSEA 101253Z 17005KT 10SM BKN070 OVC090 10/05 A3001 RMK AO2 SLP167 T01000050=
200805101153 METAR KSEA 101153Z 13006KT 10SM OVC080 10/04 A3002 RMK AO2 SLP172 T01000044 10122 20094 58005=
200805101053 METAR KSEA 101053Z 16005KT 10SM OVC095 09/05 A3003 RMK AO2 SLP174 T00940050=
200805100953 METAR KSEA 100953Z 22004KT 10SM FEW075 OVC100 11/04 A3004 RMK AO2 SLP177 T01060044=
200805100853 METAR KSEA 100853Z 00000KT 10SM OVC110 11/04 A3003 RMK AO2 SLP177 T01060044 56004=
200805100753 METAR KSEA 100753Z 16004KT 10SM BKN120 OVC200 11/04 A3003 RMK AO2 SLP177 T01110039 401610056=
200805100653 METAR KSEA 100653Z 17004KT 10SM BKN110 OVC200 12/02 A3004 RMK AO2 SLP180 T01170022=
200805100553 METAR KSEA 100553Z 18003KT 10SM SCT150 OVC200 12/03 A3005 RMK AO2 SLP181 T01220033 10161 20122 58001=
200805100453 METAR KSEA 100453Z 00000KT 10SM SCT150 BKN220 12/03 A3006 RMK AO2 SLP185 T01220028=
200805100353 METAR KSEA 100353Z 20003KT 10SM SCT150 BKN250 13/01 A3005 RMK AO2 SLP184 T01280011=
200805100253 METAR KSEA 100253Z 17005KT 10SM SCT150 BKN250 13/01 A3005 RMK AO2 SLP183 T01330006 58011=
200805100153 METAR KSEA 100153Z 16004KT 10SM FEW150 BKN250 14/01 A3006 RMK AO2 SLP188 T01390011=
200805100053 METAR KSEA 100053Z 00000KT 10SM FEW050 BKN250 15/01 A3008 RMK AO2 SLP194 T01500011=
200805092353 METAR KSEA 092353Z 25004KT 10SM FEW040 OVC250 15/02 A3008 RMK AO2 SLP194 T01500017 10161 20094 58015=
200805092253 METAR KSEA 092253Z 00000KT 10SM FEW040 BKN250 15/01 A3010 RMK AO2 SLP200 T01500011=
200805092153 METAR KSEA 092153Z 24005KT 10SM FEW040 SCT250 15/02 A3012 RMK AO2 SLP206 T01500017=
200805092053 METAR KSEA 092053Z 25006KT 10SM FEW035 SCT048 14/01 A3013 RMK AO2 SLP209 T01440006 57011=
200805091953 METAR KSEA 091953Z VRB06KT 10SM SCT035 BKN048 13/03 A3013 RMK AO2 SLP212 T01280028=
200805091853 METAR KSEA 091853Z VRB03KT 10SM SCT028 BKN047 12/02 A3015 RMK AO2 SLP217 T01170022=
200805091753 METAR KSEA 091753Z 18005KT 10SM SCT025 BKN055 11/03 A3016 RMK AO2 SLP220 T01110033 10117 20056 58001=
200805091653 METAR KSEA 091653Z 15005KT 10SM FEW020 BKN055 09/03 A3016 RMK AO2 SLP221 T00940033=
200805091553 METAR KSEA 091553Z 14005KT 10SM FEW020 SCT034 08/03 A3017 RMK AO2 SLP223 T00780028=
200805091453 METAR KSEA 091453Z 12004KT 10SM FEW020 BKN032 BKN055 07/03 A3016 RMK AO2 SLP221 T00670028 51008=
200805091353 METAR KSEA 091353Z 17003KT 10SM FEW025 BKN030 BKN055 06/03 A3016 RMK AO2 SLP219 T00610028=
200805091253 METAR KSEA 091253Z 17003KT 10SM FEW025 BKN031 OVC055 06/02 A3015 RMK AO2 SLP217 T00560022=
200805091153 METAR KSEA 091153Z 17003KT 10SM BKN032 OVC055 06/02 A3014 RMK AO2 SLP213 T00560022 10078 20056 53002=
200805091053 METAR KSEA 091053Z 00000KT 10SM FEW040 BKN055 06/02 A3014 RMK AO2 SLP213 T00560022=
200805090953 METAR KSEA 090953Z 17004KT 10SM FEW045 BKN060 06/02 A3013 RMK AO2 SLP209 T00610017=
200805090853 METAR KSEA 090853Z 18006KT 10SM SCT045 OVC055 07/02 A3013 RMK AO2 SLP211 T00670022 50003=
200805090753 METAR KSEA 090753Z 21006KT 10SM OVC045 07/03 A3014 RMK AO2 SLP212 T00670028 401500061=
200805090653 METAR KSEA 090653Z 24007KT 10SM OVC040 07/02 A3013 RMK AO2 SLP210 T00720022=
200805090553 METAR KSEA 090553Z 24005KT 10SM SCT075 07/02 A3012 RMK AO2 SLP208 T00720022 10133 20072 51005=
200805090453 METAR KSEA 090453Z 24007KT 10SM SCT075 08/03 A3012 RMK AO2 SLP208 T00830028=
200805090353 METAR KSEA 090353Z 24007KT 10SM FEW035 BKN080 10/03 A3012 RMK AO2 SLP206 T01000028=
200805090253 METAR KSEA 090253Z 20003KT 10SM FEW035 BKN075 11/02 A3011 RMK AO2 SLP203 T01110022 53001=
200805090153 METAR KSEA 090153Z 24006KT 10SM FEW035 BKN070 12/01 A3010 RMK AO2 SLP200 T01170011=
200805090053 METAR KSEA 090053Z 25009KT 10SM FEW035 BKN065 12/02 A3011 RMK AO2 SLP202 T01220017=
200805082353 METAR KSEA 082353Z 24008KT 10SM FEW045 BKN070 13/01 A3011 RMK AO2 SLP202 T01330011 10150 20089 58012=
200805082253 METAR KSEA 082253Z 26008KT 10SM FEW047 BKN070 13/01 A3012 RMK AO2 SLP206 T01330011=
200805082153 METAR KSEA 082153Z 19007KT 10SM FEW035 SCT060 13/01 A3013 RMK AO2 SLP211 T01280011=
200805082053 METAR KSEA 082053Z 21006KT 10SM FEW035 SCT070 12/02 A3014 RMK AO2 SLP214 T01220017 58010=
200805081953 METAR KSEA 081953Z 22012KT 10SM FEW035 SCT065 12/02 A3015 RMK AO2 SLP218 T01220022=
200805081853 METAR KSEA 081853Z 19008KT 10SM SCT035 BKN045 10/02 A3016 RMK AO2 SLP222 T01000017=
200805081753 METAR KSEA 081753Z 22009KT 10SM FEW027 BKN034 BKN045 09/02 A3017 RMK AO2 SLP224 T00890017 10089 20061 58003=
200805081712 SPECI KSEA 081712Z 21008KT 10SM SCT025 BKN032 BKN045 09/02 A3017 RMK AO2=
200805081712 SPECI KSEA 081712Z 21008KT 10SM SCT025 BKN032 BKN045 09/02 A3017 RMK AO2=
200805081653 METAR KSEA 081653Z 20009KT 10SM BKN025 OVC043 08/02 A3017 RMK AO2 SLP225 T00830017=
200805081553 METAR KSEA 081553Z 20011G16KT 10SM BKN023 OVC035 07/01 A3018 RMK AO2 SLP227 T00720011=
200805081453 METAR KSEA 081453Z 19012KT 10SM BKN023 OVC030 07/01 A3018 RMK AO2 SLP227 T00670011 56002=
200805081353 METAR KSEA 081353Z 18008KT 10SM BKN023 OVC041 06/01 A3018 RMK AO2 SLP228 T00610006=
200805081253 METAR KSEA 081253Z 17008KT 10SM SCT023 BKN047 OVC055 06/01 A3018 RMK AO2 SLP227 T00610006=
200805081240 SPECI KSEA 081240Z 17008KT 10SM SCT023 BKN047 OVC060 06/01 A3018 RMK AO2=
200805081240 SPECI KSEA 081240Z 17008KT 10SM SCT023 BKN047 OVC060 06/01 A3018 RMK AO2=
200805081153 METAR KSEA 081153Z 19009KT 10SM BKN025 OVC045 06/00 A3018 RMK AO2 SLP229 T00610000 10072 20061 56003=
200805081102 SPECI KSEA 081102Z 18006KT 10SM SCT024 OVC038 07/01 A3019 RMK AO2=
200805081102 SPECI KSEA 081102Z 18006KT 10SM SCT024 OVC038 07/01 A3019 RMK AO2=
200805081053 METAR KSEA 081053Z 20009KT 10SM BKN024 OVC036 07/01 A3019 RMK AO2 SLP229 T00670006=
200805081023 SPECI KSEA 081023Z 19007KT 10SM BKN024 OVC034 07/01 A3019 RMK AO2=
200805081023 SPECI KSEA 081023Z 19007KT 10SM BKN024 OVC034 07/01 A3019 RMK AO2=
200805080953 METAR KSEA 080953Z 19009KT 10SM BKN032 OVC060 07/01 A3019 RMK AO2 SLP229 T00670006=
200805080853 METAR KSEA 080853Z 19009KT 10SM OVC030 07/01 A3019 RMK AO2 SLP232 T00670006 51001=
200805080753 METAR KSEA 080753Z 19012KT 10SM BKN026 07/01 A3019 RMK AO2 SLP231 T00670006 401280067=
200805080653 METAR KSEA 080653Z 20010KT 10SM BKN043 07/01 A3019 RMK AO2 SLP232 T00720011=
200805080553 METAR KSEA 080553Z 20011G19KT 10SM FEW065 07/01 A3019 RMK AO2 SLP231 T00720011 10128 20072 51008=
200805080453 METAR KSEA 080453Z 22016G21KT 10SM FEW050 BKN065 08/01 A3018 RMK AO2 SLP228 T00780011=
200805080353 METAR KSEA 080353Z 22010G18KT 10SM BKN043 BKN070 09/02 A3018 RMK AO2 SLP227 T00890017=
200805080253 METAR KSEA 080253Z 22014KT 10SM BKN043 BKN080 10/02 A3017 RMK AO2 SLP222 T01000022 53001=
200805080153 METAR KSEA 080153Z 22011KT 10SM SCT055 BKN075 BKN200 11/02 A3016 RMK AO2 SLP219 T01110022=
200805080053 METAR KSEA 080053Z 22013KT 10SM BKN050 BKN200 12/02 A3016 RMK AO2 SLP219 T01170017=
200805072353 METAR KSEA 072353Z 21012G18KT 10SM FEW035 BKN049 13/03 A3016 RMK AO2 SLP221 T01280028 10128 20089 56006=
200805072253 METAR KSEA 072253Z 22012G20KT 10SM FEW035 BKN049 OVC200 12/03 A3017 RMK AO2 SLP223 T01170028=
200805072153 METAR KSEA 072153Z 21009KT 10SM SCT035 BKN043 BKN200 12/03 A3017 RMK AO2 SLP223 T01220033=
200805072053 METAR KSEA 072053Z 18009KT 10SM SCT028 OVC034 11/03 A3018 RMK AO2 SLP227 T01060033 58001=
200805072031 SPECI KSEA 072031Z 20010KT 10SM SCT025 OVC032 11/04 A3018 RMK AO2=
200805072031 SPECI KSEA 072031Z 20010KT 10SM SCT025 OVC032 11/04 A3018 RMK AO2=
200805071953 METAR KSEA 071953Z 21010KT 10SM BKN020 OVC026 09/04 A3019 RMK AO2 SLP231 T00940044=
200805071853 METAR KSEA 071853Z 22010KT 10SM OVC017 09/04 A3019 RMK AO2 SLP232 T00890044=
200805071753 METAR KSEA 071753Z 21011KT 10SM OVC017 09/04 A3018 RMK AO2 SLP227 T00940044 10094 20072 50002=
200805071723 SPECI KSEA 071723Z 20012KT 10SM OVC016 09/05 A3018 RMK AO2=
200805071723 SPECI KSEA 071723Z 20012KT 10SM OVC016 09/05 A3018 RMK AO2=
200805071653 METAR KSEA 071653Z 21009KT 10SM BKN014 OVC018 08/05 A3018 RMK AO2 SLP228 T00830050=
200805071553 METAR KSEA 071553Z 20010KT 10SM BKN012 OVC018 08/04 A3018 RMK AO2 SLP229 T00830044=
200805071453 METAR KSEA 071453Z 21008KT 10SM OVC012 08/05 A3017 RMK AO2 SLP225 T00830050 53010=
200805071353 METAR KSEA 071353Z 22006KT 10SM BKN014 OVC023 08/05 A3016 RMK AO2 SLP222 T00780050=
200805071346 SPECI KSEA 071346Z 22006KT 10SM BKN014 OVC023 08/05 A3016 RMK AO2=
200805071346 SPECI KSEA 071346Z 22006KT 10SM BKN014 OVC023 08/05 A3016 RMK AO2=
200805071334 SPECI KSEA 071334Z 20007KT 10SM SCT014 OVC025 08/05 A3015 RMK AO2=
200805071334 SPECI KSEA 071334Z 20007KT 10SM SCT014 OVC025 08/05 A3015 RMK AO2=
200805071253 METAR KSEA 071253Z 22008KT 10SM OVC010 07/05 A3015 RMK AO2 SLP216 T00720050=
200805071153 METAR KSEA 071153Z 20007KT 10SM OVC010 08/05 A3014 RMK AO2 SLP215 T00780050 10094 20078 51004=
200805071053 METAR KSEA 071053Z 21007KT 10SM OVC010 08/06 A3014 RMK AO2 SLP213 T00780056=
200805070953 METAR KSEA 070953Z 22006KT 10SM BKN010 OVC030 08/06 A3014 RMK AO2 SLP213 T00830056=
200805070853 METAR KSEA 070853Z 21006KT 10SM OVC011 08/06 A3013 RMK AO2 SLP211 T00830061 53003=
200805070753 METAR KSEA 070753Z 20005KT 10SM BKN013 BKN029 OVC065 09/06 A3013 RMK AO2 SLP210 T00890061 401280083=
200805070743 SPECI KSEA 070743Z 21004KT 10SM BKN013 OVC031 09/06 A3013 RMK AO2=
200805070743 SPECI KSEA 070743Z 21004KT 10SM BKN013 OVC031 09/06 A3013 RMK AO2=
200805070653 METAR KSEA 070653Z 21005KT 10SM SCT031 OVC055 09/06 A3012 RMK AO2 SLP208 T00890061=
200805070553 METAR KSEA 070553Z 21005KT 10SM FEW033 OVC046 09/07 A3012 RMK AO2 SLP207 T00940067 10128 20094 51007=
200805070453 METAR KSEA 070453Z 23005KT 10SM BKN030 OVC039 10/07 A3012 RMK AO2 SLP206 T01000067=
200805070353 METAR KSEA 070353Z 24006KT 10SM OVC037 10/07 A3011 RMK AO2 SLP202 T01000067=
200805070253 METAR KSEA 070253Z 24005KT 10SM FEW028 OVC039 11/07 A3010 RMK AO2 SLP200 T01110072 55003=
200805070239 SPECI KSEA 070239Z 25006KT 10SM SCT028 OVC039 11/07 A3010 RMK AO2=
200805070239 SPECI KSEA 070239Z 25006KT 10SM SCT028 OVC039 11/07 A3010 RMK AO2=
200805070153 METAR KSEA 070153Z 24008KT 10SM BKN028 OVC038 12/07 A3010 RMK AO2 SLP200 T01170072=
200805070138 SPECI KSEA 070138Z 23006KT 10SM BKN028 OVC036 12/07 A3010 RMK AO2=
200805070138 SPECI KSEA 070138Z 23006KT 10SM BKN028 OVC036 12/07 A3010 RMK AO2=
200805070107 SPECI KSEA 070107Z 21009KT 10SM FEW021 OVC036 12/07 A3010 RMK AO2=
200805070107 SPECI KSEA 070107Z 21009KT 10SM FEW021 OVC036 12/07 A3010 RMK AO2=
200805070053 METAR KSEA 070053Z 20007KT 10SM BKN029 OVC038 12/07 A3010 RMK AO2 SLP200 T01220067=
200805062353 METAR KSEA 062353Z 23004KT 10SM BKN028 OVC045 12/07 A3011 RMK AO2 SLP202 T01220067 10128 20100 58003=
200805062253 METAR KSEA 062253Z 24005KT 10SM BKN022 OVC045 12/07 A3011 RMK AO2 SLP204 T01220072=
200805062200 METAR KSEA NIL=
200805062153 METAR KSEA 062153Z 18004KT 10SM BKN020 BKN035 12/07 A3012 RMK AO2 SLP205 T01220067=
200805062053 METAR KSEA 062053Z 21004KT 10SM BKN019 OVC023 12/07 A3012 RMK AO2 SLP206 T01170067 50001=
200805061953 METAR KSEA 061953Z 00000KT 10SM BKN016 OVC022 11/06 A3012 RMK AO2 SLP207 T01110061=
200805061853 METAR KSEA 061853Z 00000KT 10SM FEW009 BKN016 OVC025 11/07 A3012 RMK AO2 SLP206 T01110067=
200805061831 SPECI KSEA 061831Z 25005KT 10SM FEW009 BKN016 OVC023 11/07 A3012 RMK AO2=
200805061831 SPECI KSEA 061831Z 25005KT 10SM FEW009 BKN016 OVC023 11/07 A3012 RMK AO2=
200805061753 METAR KSEA 061753Z 25003KT 10SM SCT009 OVC014 10/07 A3012 RMK AO2 SLP204 T01000067 10100 20083 53005=
200805061738 SPECI KSEA 061738Z 26004KT 10SM SCT009 OVC012 10/07 A3011 RMK AO2=
200805061738 SPECI KSEA 061738Z 26004KT 10SM SCT009 OVC012 10/07 A3011 RMK AO2=
200805061653 METAR KSEA 061653Z 24003KT 10SM BKN009 OVC013 10/07 A3011 RMK AO2 SLP203 T01000067=
200805061553 METAR KSEA 061553Z 24003KT 10SM BKN009 OVC015 09/07 A3010 RMK AO2 SLP200 T00940067=
200805061547 SPECI KSEA 061547Z 26003KT 10SM BKN009 OVC015 09/07 A3010 RMK AO2=
200805061547 SPECI KSEA 061547Z 26003KT 10SM BKN009 OVC015 09/07 A3010 RMK AO2=
200805061541 SPECI KSEA 061541Z 00000KT 10SM SCT009 OVC015 09/07 A3010 RMK AO2=
200805061541 SPECI KSEA 061541Z 00000KT 10SM SCT009 OVC015 09/07 A3010 RMK AO2=
200805061453 METAR KSEA 061453Z 24003KT 10SM FEW009 OVC012 09/07 A3010 RMK AO2 SLP199 T00940067 53004=
200805061353 METAR KSEA 061353Z 00000KT 10SM FEW007 OVC010 09/07 A3010 RMK AO2 SLP198 T00890067=
200805061315 SPECI KSEA 061315Z 22003KT 10SM SCT008 OVC013 09/07 A3009 RMK AO2=
200805061315 SPECI KSEA 061315Z 22003KT 10SM SCT008 OVC013 09/07 A3009 RMK AO2=
200805061306 SPECI KSEA 061306Z 22003KT 10SM OVC013 09/07 A3009 RMK AO2=
200805061306 SPECI KSEA 061306Z 22003KT 10SM OVC013 09/07 A3009 RMK AO2=
200805061253 METAR KSEA 061253Z 20003KT 10SM BKN015 OVC031 09/07 A3009 RMK AO2 SLP195 T00890067=
200805061238 SPECI KSEA 061238Z 00000KT 10SM FEW008 SCT015 OVC031 09/07 A3009 RMK AO2=
200805061238 SPECI KSEA 061238Z 00000KT 10SM FEW008 SCT015 OVC031 09/07 A3009 RMK AO2=
200805061213 SPECI KSEA 061213Z 21003KT 10SM FEW008 OVC015 09/07 A3009 RMK AO2=
200805061213 SPECI KSEA 061213Z 21003KT 10SM FEW008 OVC015 09/07 A3009 RMK AO2=
200805061153 METAR KSEA 061153Z 22003KT 10SM OVC015 09/07 A3008 RMK AO2 SLP194 T00890067 10122 20083 53005=
200805061128 SPECI KSEA 061128Z 22003KT 10SM BKN015 OVC050 09/06 A3008 RMK AO2=
200805061128 SPECI KSEA 061128Z 22003KT 10SM BKN015 OVC050 09/06 A3008 RMK AO2=
200805061053 METAR KSEA 061053Z 20004KT 10SM FEW017 OVC050 09/06 A3007 RMK AO2 SLP190 T00890061=
200805060953 METAR KSEA 060953Z 00000KT 10SM SCT043 OVC050 08/07 A3007 RMK AO2 SLP188 T00830067=
200805060853 METAR KSEA 060853Z 22003KT 10SM FEW042 BKN080 09/06 A3007 RMK AO2 SLP188 T00890056 51007=
200805060753 METAR KSEA 060753Z 00000KT 10SM OVC080 09/06 A3006 RMK AO2 SLP184 T00940061 401890089=
200805060653 METAR KSEA 060653Z 32005KT 10SM BKN080 11/05 A3006 RMK AO2 SLP186 T01060050=
200805060553 METAR KSEA 060553Z 02011KT 10SM FEW045 SCT080 12/04 A3005 RMK AO2 SLP181 T01220044 10183 20117 51008=
200805060453 METAR KSEA 060453Z 01010KT 10SM SCT045 13/04 A3005 RMK AO2 SLP182 T01280044=
200805060353 METAR KSEA 060353Z 34005KT 10SM BKN042 14/07 A3004 RMK AO2 SLP178 T01440067=
200805060253 METAR KSEA 060253Z 36007KT 10SM SCT046 BKN120 BKN200 16/06 A3002 RMK AO2 SLP173 T01560061 56005=
200805060153 METAR KSEA 060153Z 35008KT 10SM FEW040 SCT120 SCT200 17/06 A3002 RMK AO2 SLP173 T01720061=
200805060053 METAR KSEA 060053Z 01006KT 10SM FEW040 SCT080 SCT110 BKN200 18/06 A3003 RMK AO2 SLP176 T01830056=
200805052353 METAR KSEA 052353Z 01007KT 10SM FEW030 SCT070 BKN090 BKN200 17/07 A3004 RMK AO2 SLP179 60000 T01720067 10189 20156 56008=
200805052253 METAR KSEA 052253Z 31003KT 10SM FEW030 BKN070 OVC200 17/08 A3005 RMK AO2 RAE2154 SLP182 T01670078=
200805052153 METAR KSEA 052153Z VRB03KT 10SM -RA FEW035 BKN080 BKN200 18/05 A3005 RMK AO2 RAB43 SLP182 P0000 T01780050=
200805052053 METAR KSEA 052053Z 31009KT 10SM FEW035 BKN090 BKN200 17/07 A3006 RMK AO2 SLP186 T01720067 53003=
200805051953 METAR KSEA 051953Z 30006KT 10SM FEW035 SCT090 BKN250 19/08 A3006 RMK AO2 SLP183 T01890083=
200805051853 METAR KSEA 051853Z 30009KT 10SM FEW030 BKN250 17/09 A3006 RMK AO2 SLP184 T01670089=
200805051753 METAR KSEA 051753Z 27004KT 10SM FEW150 SCT250 16/09 A3005 RMK AO2 SLP183 T01560089 10161 20100 58006=
200805051653 METAR KSEA 051653Z 08006KT 10SM FEW150 BKN250 15/07 A3006 RMK AO2 SLP186 T01500067=
200805051553 METAR KSEA 051553Z 04004KT 10SM FEW150 SCT250 13/08 A3007 RMK AO2 SLP188 T01330078=
200805051453 METAR KSEA 051453Z 32004KT 10SM FEW120 BKN250 11/08 A3007 RMK AO2 SLP190 T01110078 53003=
200805051353 METAR KSEA 051353Z 00000KT 10SM FEW120 BKN250 11/07 A3007 RMK AO2 SLP189 T01060072=
200805051253 METAR KSEA 051253Z 06005KT 10SM FEW120 BKN200 10/07 A3006 RMK AO2 SLP185 T01000067=
200805051153 METAR KSEA 051153Z 02003KT 10SM BKN200 10/07 A3006 RMK AO2 SLP187 T01000067 10117 20089 50002=
200805051053 METAR KSEA 051053Z 01003KT 10SM BKN200 10/07 A3007 RMK AO2 SLP187 T01000072=
200805050953 METAR KSEA 050953Z 00000KT 10SM BKN200 10/07 A3007 RMK AO2 SLP187 T01000072=
200805050853 METAR KSEA 050853Z 04007KT 10SM BKN200 11/07 A3006 RMK AO2 SLP185 T01110072 58009=
200805050753 METAR KSEA 050753Z 36003KT 10SM BKN200 10/07 A3008 RMK AO2 SLP192 T01000072 401780078=
200805050653 METAR KSEA 050653Z 35004KT 10SM FEW120 BKN200 12/07 A3008 RMK AO2 SLP193 T01170072=
200805050553 METAR KSEA 050553Z 34006KT 10SM FEW120 BKN200 12/07 A3009 RMK AO2 SLP195 T01170072 10178 20117 58005=
200805050453 METAR KSEA 050453Z 01007KT 10SM BKN200 13/07 A3010 RMK AO2 SLP199 T01280067=
200805050353 METAR KSEA 050353Z 36006KT 10SM BKN200 14/07 A3009 RMK AO2 SLP197 T01390067=
200805050253 METAR KSEA 050253Z 35007KT 10SM FEW120 OVC200 15/06 A3010 RMK AO2 SLP199 T01500061 56007=
200805050153 METAR KSEA 050153Z 35009KT 10SM FEW040 OVC200 16/07 A3010 RMK AO2 SLP200 T01610072=
200805050053 METAR KSEA 050053Z 33010KT 10SM FEW030 BKN200 17/07 A3011 RMK AO2 SLP203 T01720067=
200805042353 METAR KSEA 042353Z 31009KT 10SM FEW030 BKN200 17/08 A3012 RMK AO2 SLP206 T01720083 10178 20122 56015=
200805042253 METAR KSEA 042253Z VRB03KT 10SM FEW030 BKN200 17/07 A3013 RMK AO2 SLP210 T01720072=
200805042153 METAR KSEA 042153Z 29009KT 10SM FEW025 BKN200 17/09 A3015 RMK AO2 SLP216 T01720089=
200805042053 METAR KSEA 042053Z 28006KT 10SM FEW025 16/08 A3017 RMK AO2 SLP221 T01610083 58011=
200805041953 METAR KSEA 041953Z 31008KT 10SM SCT025 15/08 A3018 RMK AO2 SLP227 T01500083=
200805041942 SPECI KSEA 041942Z 30008KT 10SM SCT025 15/08 A3019 RMK AO2=
200805041942 SPECI KSEA 041942Z 30008KT 10SM SCT025 15/08 A3019 RMK AO2=
200805041912 SPECI KSEA 041912Z VRB03KT 10SM BKN025 14/08 A3019 RMK AO2=
200805041912 SPECI KSEA 041912Z VRB03KT 10SM BKN025 14/08 A3019 RMK AO2=
200805041900 SPECI KSEA 041900Z 00000KT 10SM SCT025 14/08 A3019 RMK AO2=
200805041900 SPECI KSEA 041900Z 00000KT 10SM SCT025 14/08 A3019 RMK AO2=
200805041853 METAR KSEA 041853Z 29004KT 10SM BKN025 14/08 A3019 RMK AO2 SLP231 T01390078=
200805041808 SPECI KSEA 041808Z 27005KT 10SM BKN021 14/08 A3020 RMK AO2=
200805041808 SPECI KSEA 041808Z 27005KT 10SM BKN021 14/08 A3020 RMK AO2=
200805041753 METAR KSEA 041753Z 30004KT 10SM SCT019 13/07 A3020 RMK AO2 SLP232 T01330072 10139 20078 58002=
200805041653 METAR KSEA 041653Z 00000KT 10SM SCT031 12/07 A3020 RMK AO2 SLP235 T01170072=
200805041553 METAR KSEA 041553Z 00000KT 10SM FEW004 SCT031 10/06 A3020 RMK AO2 SLP235 T01000061=
200805041537 SPECI KSEA 041537Z 00000KT 9SM FEW004 BKN031 09/06 A3021 RMK AO2=
200805041537 SPECI KSEA 041537Z 00000KT 9SM FEW004 BKN031 09/06 A3021 RMK AO2=
200805041453 METAR KSEA 041453Z 30004KT 10SM BKN031 08/07 A3020 RMK AO2 SLP235 T00830067 53002=
200805041353 METAR KSEA 041353Z 02004KT 10SM BKN031 09/06 A3020 RMK AO2 SLP233 T00890056=
200805041253 METAR KSEA 041253Z 35004KT 10SM OVC031 08/06 A3020 RMK AO2 SLP234 T00830056=
200805041153 METAR KSEA 041153Z 33003KT 10SM OVC031 08/07 A3020 RMK AO2 SLP233 70009 T00780067 10089 20078 53004=
200805041108 SPECI KSEA 041108Z 00000KT 10SM OVC031 08/07 A3019 RMK AO2=
200805041108 SPECI KSEA 041108Z 00000KT 10SM OVC031 08/07 A3019 RMK AO2=
200805041053 METAR KSEA 041053Z 00000KT 10SM OVC029 08/07 A3019 RMK AO2 SLP231 T00780067=
200805040953 METAR KSEA 040953Z 00000KT 7SM OVC029 08/07 A3019 RMK AO2 SLP231 T00830067=
200805040910 SPECI KSEA 040910Z 02003KT 5SM BR BKN027 08/07 A3018 RMK AO2=
200805040910 SPECI KSEA 040910Z 02003KT 5SM BR BKN027 08/07 A3018 RMK AO2=
200805040900 METAR KSEA NIL=
200805040853 METAR KSEA 040853Z 05005KT 7SM FEW032 08/07 A3018 RMK AO2 SLP229 T00780067 58001=
200805040828 SPECI KSEA 040828Z 04006KT 8SM FEW008 SCT034 BKN110 08/07 A3019 RMK AO2=
200805040828 SPECI KSEA 040828Z 04006KT 8SM FEW008 SCT034 BKN110 08/07 A3019 RMK AO2=
200805040758 SPECI KSEA 040758Z 00000KT 6SM BR FEW008 BKN019 BKN110 08/07 A3019 RMK AO2=
200805040758 SPECI KSEA 040758Z 00000KT 6SM BR FEW008 BKN019 BKN110 08/07 A3019 RMK AO2=
200805040753 METAR KSEA 040753Z 36003KT 6SM BR SCT017 BKN110 08/07 A3019 RMK AO2 SLP232 T00830067 401060078=
200805040741 SPECI KSEA 040741Z 00000KT 6SM BR FEW006 BKN110 08/06 A3019 RMK AO2=
200805040741 SPECI KSEA 040741Z 00000KT 6SM BR FEW006 BKN110 08/06 A3019 RMK AO2=
200805040653 METAR KSEA 040653Z 34003KT 7SM BKN008 BKN050 OVC110 08/07 A3019 RMK AO2 SLP229 T00830067=
200805040623 SPECI KSEA 040623Z 00000KT 9SM BKN008 OVC032 09/07 A3019 RMK AO2=
200805040623 SPECI KSEA 040623Z 00000KT 9SM BKN008 OVC032 09/07 A3019 RMK AO2=
200805040614 SPECI KSEA 040614Z 35003KT 10SM SCT008 BKN032 OVC050 09/07 A3019 RMK AO2=
200805040614 SPECI KSEA 040614Z 35003KT 10SM SCT008 BKN032 OVC050 09/07 A3019 RMK AO2=
200805040553 METAR KSEA 040553Z 34003KT 10SM BKN034 OVC050 09/07 A3019 RMK AO2 SLP230 60001 T00890072 10100 20089 51007=
200805040453 METAR KSEA 040453Z 35006KT 10SM BKN034 OVC050 09/07 A3018 RMK AO2 SLP229 T00890067=
200805040353 METAR KSEA 040353Z 01006KT 10SM BKN055 OVC070 09/07 A3018 RMK AO2 SLP226 T00890067=
200805040253 METAR KSEA 040253Z 36005KT 10SM FEW009 BKN043 OVC060 09/06 A3017 RMK AO2 RAE0158 SLP222 P0000 60001 T00940061 58001=
200805040200 SPECI KSEA 040200Z 36007KT 10SM FEW009 BKN034 OVC050 09/07 A3016 RMK AO2 RAE0158 P0000=
200805040200 SPECI KSEA 040200Z 36007KT 10SM FEW009 BKN034 OVC050 09/07 A3016 RMK AO2 RAE0158 P0000=
200805040153 METAR KSEA 040153Z 36008KT 10SM -RA BKN009 BKN032 OVC070 09/07 A3017 RMK AO2 RAB49 SLP222 BKN009 V SCT P0000 T00940072=
200805040127 SPECI KSEA 040127Z 35007KT 10SM BKN009 OVC029 09/07 A3017 RMK AO2=
200805040127 SPECI KSEA 040127Z 35007KT 10SM BKN009 OVC029 09/07 A3017 RMK AO2=
200805040106 SPECI KSEA 040106Z 35009KT 10SM SCT008 OVC028 09/07 A3017 RMK AO2=
200805040106 SPECI KSEA 040106Z 35009KT 10SM SCT008 OVC028 09/07 A3017 RMK AO2=
200805040102 SPECI KSEA 040102Z 35009KT 10SM BKN008 OVC028 09/08 A3017 RMK AO2 BKN V SCT=
200805040102 SPECI KSEA 040102Z 35009KT 10SM BKN008 OVC028 09/08 A3017 RMK AO2 BKN V SCT=
200805040053 METAR KSEA 040053Z 35009KT 10SM BKN010 OVC026 09/07 A3017 RMK AO2 RAE26 SLP224 P0001 T00940072=
200805032353 METAR KSEA 032353Z 29004KT 8SM -RA BKN011 OVC018 09/08 A3017 RMK AO2 RAE01B33 SLP223 VIS LWR SW-W P0001 60008 T00940083 10106 20089 53001=
200805032333 SPECI KSEA 032333Z 28004KT 8SM -RA FEW008 BKN011 OVC018 09/08 A3017 RMK AO2 RAE01B33 VIS LWR S-W P0000=
200805032333 SPECI KSEA 032333Z 28004KT 8SM -RA FEW008 BKN011 OVC018 09/08 A3017 RMK AO2 RAE01B33 VIS LWR S-W P0000=
200805032253 METAR KSEA 032253Z 29004KT 6SM -RA BR BKN009 OVC013 09/08 A3017 RMK AO2 RAB26 SLP223 VIS LWR SE-W P0002 T00940083=
200805032212 SPECI KSEA 032212Z 27004KT 4SM BR BKN006 OVC012 09/08 A3017 RMK AO2 VIS SW-NW 2 1/2 P0001=
200805032212 SPECI KSEA 032212Z 27004KT 4SM BR BKN006 OVC012 09/08 A3017 RMK AO2 VIS SW-NW 2 1/2 P0001=
200805032201 SPECI KSEA 032201Z 26005KT 4SM BR SCT006 OVC012 09/08 A3017 RMK AO2 VIS=
200805032201 SPECI KSEA 032201Z 26005KT 4SM BR SCT006 OVC012 09/08 A3017 RMK AO2 VIS SW-W 2 1/2 P0001=
200805032153 METAR KSEA 032153Z 25005KT 4SM BR BKN008 OVC012 09/08 A3017 RMK AO2 SLP222 VIS SW-NW 3 T00940083=
200805032053 METAR KSEA 032053Z 04004KT 5SM BR BKN006 BKN010 OVC019 09/08 A3017 RMK AO2 RAE41 SLP223 P0002 60005 T00940078 58002=
200805031953 METAR KSEA 031953Z 00000KT 4SM -RA BR BKN006 BKN010 OVC017 10/08 A3017 RMK AO2 SLP225 P0002 T01000078=
200805031942 SPECI KSEA 031942Z 05004KT 5SM -RA BKN003 BKN010 OVC024 10/07 A3017 RMK AO2 P0002=
200805031942 SPECI KSEA 031942Z 05004KT 5SM -RA BKN003 BKN010 OVC024 10/07 A3017 RMK AO2 P0002=
200805031927 SPECI KSEA 031927Z 00000KT 5SM -RA BR BKN010 BKN018 OVC024 10/08 A3018 RMK AO2 P0001=
200805031927 SPECI KSEA 031927Z 00000KT 5SM -RA BR BKN010 BKN018 OVC024 10/08 A3018 RMK AO2 P0001=
200805031853 METAR KSEA 031853Z 00000KT 6SM -RA BR SCT014 OVC019 10/08 A3018 RMK AO2 RAB09 SLP226 P0001 T01000078=
200805031753 METAR KSEA 031753Z 00000KT 10SM BKN018 OVC025 11/06 A3017 RMK AO2 SLP225 T01060061 10106 20083 53002=
200805031653 METAR KSEA 031653Z 00000KT 10SM OVC016 10/06 A3017 RMK AO2 SLP224 T01000056=
200805031553 METAR KSEA 031553Z 16004KT 10SM BKN019 OVC031 09/06 A3017 RMK AO2 SLP222 T00940061=
200805031453 METAR KSEA 031453Z 00000KT 10SM BKN019 OVC034 10/06 A3017 RMK AO2 SLP221 T01000061 51010=
200805031353 METAR KSEA 031353Z 00000KT 10SM OVC019 09/07 A3016 RMK AO2 SLP219 T00890067=
200805031336 SPECI KSEA 031336Z 00000KT 10SM BKN019 OVC065 09/06 A3016 RMK AO2=
200805031336 SPECI KSEA 031336Z 00000KT 10SM BKN019 OVC065 09/06 A3016 RMK AO2=
200805031253 METAR KSEA 031253Z 00000KT 10SM OVC065 08/06 A3015 RMK AO2 SLP215 T00830061=
200805031153 METAR KSEA 031153Z 00000KT 10SM BKN070 OVC095 08/06 A3014 RMK AO2 SLP211 T00830061 10100 20078 52002=
200805031053 METAR KSEA 031053Z 00000KT 10SM BKN090 08/06 A3013 RMK AO2 SLP210 T00830061=
200805030953 METAR KSEA 030953Z 00000KT 10SM SCT080 BKN200 08/06 A3013 RMK AO2 SLP210 T00830056=
200805030853 METAR KSEA 030853Z 02003KT 10SM OVC200 09/05 A3013 RMK AO2 SLP209 T00890050 50003=
200805030753 METAR KSEA 030753Z 32004KT 10SM OVC200 08/05 A3013 RMK AO2 SLP211 T00830050 401670061=
200805030653 METAR KSEA 030653Z 34007KT 10SM BKN200 09/05 A3012 RMK AO2 SLP206 T00940050=
200805030553 METAR KSEA 030553Z 33007KT 10SM SCT120 BKN200 10/05 A3012 RMK AO2 SLP206 T01000050 10167 20094 52007=
200805030453 METAR KSEA 030453Z 32004KT 10SM BKN110 OVC200 11/06 A3011 RMK AO2 SLP203 T01060061=
200805030353 METAR KSEA 030353Z 01006KT 10SM SCT100 OVC200 13/05 A3011 RMK AO2 SLP201 T01280050=
200805030253 METAR KSEA 030253Z 36007KT 10SM SCT120 BKN200 14/05 A3010 RMK AO2 SLP199 T01390050 56007=
200805030153 METAR KSEA 030153Z 35007KT 10SM FEW080 SCT110 BKN200 15/04 A3010 RMK AO2 SLP199 T01500044=
200805030053 METAR KSEA 030053Z 36006KT 10SM BKN080 BKN140 BKN200 16/03 A3011 RMK AO2 SLP201 T01610028=
200805022353 METAR KSEA 022353Z 01008KT 10SM BKN075 OVC140 16/03 A3012 RMK AO2 SLP206 T01610033 10167 20128 56008=
200805022253 METAR KSEA 022253Z VRB03KT 10SM SCT070 BKN080 OVC140 16/02 A3012 RMK AO2 SLP207 T01610022=
200805022153 METAR KSEA 022153Z 34005KT 10SM BKN070 OVC140 16/03 A3013 RMK AO2 SLP210 T01610033=
200805022053 METAR KSEA 022053Z VRB04KT 10SM SCT065 BKN140 OVC200 16/05 A3014 RMK AO2 SLP213 T01610050 58006=
200805021953 METAR KSEA 021953Z 31005KT 10SM SCT065 OVC120 14/06 A3015 RMK AO2 SLP217 T01440056=
200805021853 METAR KSEA 021853Z 26008KT 10SM SCT065 OVC180 14/04 A3016 RMK AO2 SLP220 T01390039=
200805021753 METAR KSEA 021753Z 00000KT 10SM SCT090 OVC180 13/04 A3016 RMK AO2 SLP220 T01280039 10128 20067 51007=
200805021653 METAR KSEA 021653Z 00000KT 10SM SCT090 OVC200 11/04 A3016 RMK AO2 SLP218 T01110039=
200805021553 METAR KSEA 021553Z 00000KT 10SM BKN090 OVC200 09/03 A3015 RMK AO2 SLP217 T00940033=
200805021453 METAR KSEA 021453Z 28005KT 10SM BKN090 OVC200 08/04 A3014 RMK AO2 SLP214 T00780039 55000=
200805021353 METAR KSEA 021353Z 00000KT 10SM BKN090 BKN120 OVC200 08/03 A3013 RMK AO2 SLP211 T00780033=
200805021253 METAR KSEA 021253Z 06003KT 10SM BKN100 OVC200 07/02 A3013 RMK AO2 SLP211 T00720022=
200805021153 METAR KSEA 021153Z 00000KT 10SM OVC110 07/02 A3014 RMK AO2 SLP213 T00720017 10100 20061 58010=
200805021053 METAR KSEA 021053Z 13004KT 10SM SCT100 07/02 A3015 RMK AO2 SLP219 T00670022=
200805020953 METAR KSEA 020953Z 00000KT 10SM SCT150 BKN200 07/02 A3016 RMK AO2 SLP222 T00720017=
200805020853 METAR KSEA 020853Z 11004KT 10SM SCT150 08/01 A3017 RMK AO2 SLP224 T00780011 58007=
200805020753 METAR KSEA 020753Z 05003KT 10SM SCT150 08/01 A3018 RMK AO2 SLP229 T00830006 401440039=
200805020653 METAR KSEA 020653Z 05005KT 10SM SCT100 09/00 A3018 RMK AO2 SLP228 T00940000=
200805020553 METAR KSEA 020553Z 03006KT 10SM FEW100 10/M01 A3019 RMK AO2 SLP231 T01001006 10144 20100 58007=
200805020453 METAR KSEA 020453Z 02005KT 10SM SCT110 SCT250 11/M01 A3020 RMK AO2 SLP235 T01111011=
200805020353 METAR KSEA 020353Z 36005KT 10SM SCT110 SCT250 11/00 A3020 RMK AO2 SLP235 T01110000=
200805020253 METAR KSEA 020253Z 29003KT 10SM FEW050 SCT110 SCT250 12/02 A3021 RMK AO2 SLP238 T01170017 56009=
200805020153 METAR KSEA 020153Z 00000KT 10SM FEW050 SCT110 BKN250 13/01 A3022 RMK AO2 SLP240 T01280006=
200805020053 METAR KSEA 020053Z 27007KT 230V300 10SM FEW050 SCT110 SCT250 13/01 A3023 RMK AO2 SLP244 T01330011=
200805012353 METAR KSEA 012353Z 29009KT 10SM FEW045 SCT110 BKN250 14/02 A3024 RMK AO2 SLP248 T01440022 10144 20089 57010=
200805012253 METAR KSEA 012253Z 27007KT 10SM FEW045 SCT100 BKN250 14/03 A3025 RMK AO2 SLP252 T01440028=
200805012153 METAR KSEA 012153Z 24005KT 10SM FEW035 SCT049 BKN250 13/02 A3026 RMK AO2 SLP254 T01330017=
200805012053 METAR KSEA 012053Z 25007KT 10SM FEW035 SCT050 BKN250 13/03 A3027 RMK AO2 SLP258 T01330033 58007=
200805011953 METAR KSEA 011953Z 00000KT 10SM FEW035 SCT055 BKN250 11/00 A3028 RMK AO2 SLP261 T01060000=
200805011853 METAR KSEA 011853Z 19004KT 10SM FEW028 BKN055 BKN250 09/02 A3029 RMK AO2 SLP265 T00940017=
200805011753 METAR KSEA 011753Z 23007KT 10SM FEW027 BKN055 BKN250 09/03 A3029 RMK AO2 SLP265 T00940033 10094 20039 53007=
200805011653 METAR KSEA 011653Z 21008KT 10SM SCT033 BKN055 BKN250 09/03 A3028 RMK AO2 SLP263 T00890028=
200805011600 METAR KSEA NIL=
200805011553 METAR KSEA 011553Z 20008KT 10SM SCT031 BKN050 BKN250 07/02 A3028 RMK AO2 SLP261 T00720022=
200805011453 METAR KSEA 011453Z 20008KT 10SM FEW020 SCT050 BKN250 07/02 A3027 RMK AO2 SLP259 T00670022 53008=
200805011353 METAR KSEA 011353Z 18006KT 10SM FEW020 SCT180 BKN250 06/02 A3026 RMK AO2 SLP255 T00560017 $=
200805011253 METAR KSEA 011253Z 18007KT 10SM FEW025 BKN150 OVC200 05/02 A3025 RMK AO2 SLP251 T00500017 $=
200805011153 METAR KSEA 011153Z COR 17006KT 10SM SCT022 BKN160 04/02 A3025 RMK AO2 SLP250 60008 70008 T00440017 10067 20044 53007 $=
200805011053 METAR KSEA 011053Z 16005KT 10SM FEW030 BKN160 04/02 A3024 RMK AO2 SLP247 T00440017 $=
200805010953 METAR KSEA 010953Z 18007KT 10SM FEW020 SCT045 BKN160 05/02 A3023 RMK AO2 SLP244 T00500017 $=
200805010932 SPECI KSEA 010932Z 17006KT 10SM FEW018 SCT045 05/02 A3023 RMK AO2 $=
200805010932 SPECI KSEA 010932Z 17006KT 10SM FEW018 SCT045 05/02 A3023 RMK AO2 $=
200805010853 METAR KSEA 010853Z 18007KT 10SM BKN018 OVC050 06/02 A3022 RMK AO2 RAE04 SLP242 P0000 60008 T00610022 53010 $=
200805010753 METAR KSEA 010753Z 22005KT 7SM -RA SCT014 BKN019 OVC025 06/03 A3021 RMK AO2 SLP237 P0006 T00610033 401390044 $=
200805010653 METAR KSEA 010653Z 15005KT 4SM -RA BR BKN019 OVC026 06/04 A3021 RMK AO2 RAB0554 SLP237 P0002 T00610039 $=
200805010553 METAR KSEA 010553Z COR 11007KT 10SM OVC024 07/04 A3020 RMK AO2 RAE21 SLP234 60000 T00670039 10111 20067 51017 PNO $=
200805010523 SPECI KSEA 010523Z 10008KT 10SM BKN022 OVC050 07/04 A3019 RMK AO2 RAE21 PNO $=
200805010523 SPECI KSEA 010523Z 10008KT 10SM BKN022 OVC050 07/04 A3019 RMK AO2 RAE21 PNO $=
200805010453 METAR KSEA 010453Z 11009KT 10SM -RA SCT033 BKN042 OVC060 07/03 A3018 RMK AO2 RAE07B50 SLP228 T00670033 PNO $=
200805010353 METAR KSEA 010353Z 07008KT 9SM -RA BKN033 07/04 A3016 RMK AO2 SLP222 P0000 T00670044 PNO $=
200805010253 METAR KSEA 010253Z 00000KT 4SM RA FEW023 BKN031 BKN070 08/03 A3014 RMK AO2 SLP216 P0000 60008 T00780028 51010=
200805010214 SPECI KSEA 010214Z 05008KT 10SM -RA SCT023 BKN033 08/03 A3013 RMK AO2 P0000=
200805010214 SPECI KSEA 010214Z 05008KT 10SM -RA SCT023 BKN033 08/03 A3013 RMK AO2 P0000=
200805010153 METAR KSEA 010153Z 04009KT 10SM -RA BKN025 BKN035 08/04 A3013 RMK AO2 SLP212 P0005 T00780039=
200805010135 SPECI KSEA 010135Z 04007KT 5SM RA BKN025 BKN050 08/03 A3014 RMK AO2 P0003=
200805010135 SPECI KSEA 010135Z 04007KT 5SM RA BKN025 BKN050 08/03 A3014 RMK AO2 P0003=
200805010109 SPECI KSEA 010109Z 28006KT 10SM -RA SCT020 BKN032 BKN060 08/03 A3014 RMK AO2 P0000=
200805010109 SPECI KSEA 010109Z 28006KT 10SM -RA SCT020 BKN032 BKN060 08/03 A3014 RMK AO2 P0000=
200805010053 METAR KSEA 010053Z 01006KT 6SM -RA SCT018 BKN023 BKN049 08/03 A3013 RMK AO2 RAB24 SLP212 P0003 T00830033=

# No short TAF reports from KSEA in databse.

###################################
#  large TAF from KSEA
###################################
200805312324 TAF KSEA 312324Z 010024 VRB04KT P6SM SCT050 SCT100 FM0200 25005KT
                       P6SM SCT050 SCT100 FM0900 21007KT P6SM BKN025
                       OVC040 FM1200 20006KT P6SM OVC015 FM1800
                       20006KT P6SM OVC022 FM2200 22007KT P6SM
                       BKN035=
200805312311 KSEA 312311Z 312318 12005KT P6SM -SHRA BKN021 BKN050 BKN100 FM0000
                       VRB04KT P6SM SCT050 SCT100 FM0200 25005KT
                       P6SM SCT050 SCT100 FM0900 21007KT P6SM BKN025
                       OVC040 FM1200 20006KT P6SM OVC015=
200805312204 KSEA 312204Z 312218 VRB05KT P6SM VCSH SCT040 BKN080 FM0000 27005KT
                       P6SM SCT050 SCT100 FM0200 25005KT P6SM SCT050
                       BKN100 FM0900 21007KT P6SM BKN025 OVC040
                       FM1200 20006KT P6SM OVC015 FM1700 20006KT
                       P6SM OVC030=
200805311741 TAF KSEA 311741Z 311818 30005KT P6SM VCSH SCT045 BKN100 FM0000
                       27007KT P6SM BKN050 BKN080
                      TEMPO 0002 -SHRA FM0200 24007KT P6SM BKN050
                       BKN080
                      TEMPO 0206 -SHRA FM0900 21007KT P6SM BKN025
                       OVC040 FM1200 20006KT P6SM OVC015 FM1700
                       20006KT P6SM OVC030=
200805311137 TAF KSEA 311137Z 311212 35007KT P6SM SCT120 SCT250 FM1900 34006KT
                       P6SM SCT040 SCT100 FM0000 20005KT P6SM BKN040
                       FM0900 22005KT P6SM BKN025=
200805310539 TAF KSEA 310539Z 310606 35007KT P6SM SKC FM1900 34006KT P6SM SCT040
                       FM2200 VRB05KT P6SM BKN040=
200805302320 TAF KSEA 302320Z 310024 32006KT P6SM FEW040 FM0400 02004KT P6SM
                       SKC FM1000 VRB03KT P6SM BKN030
                      TEMPO 1418 OVC025 FM2000 30006KT P6SM SCT040=
200805302002 KSEA 302002Z 302018 VRB05KT P6SM BKN035 FM2200 31006KT P6SM SCT040
                       FM0800 VRB03KT P6SM BKN030=
200805301737 TAF KSEA 301737Z 301818 27004KT P6SM BKN035 OVC045 FM2000 27006KT
                       P6SM SCT040 SCT250 FM2200 31006KT P6SM FEW050
                       SCT250 FM0200 36004KT P6SM FEW050 SCT250
                       FM1200 02003KT P6SM BKN030=
200805301120 TAF KSEA 301120Z 301212 22004KT P6SM SCT020 OVC035
                      TEMPO 1216 BKN020 OVC035 FM1800 27006KT P6SM
                       SCT040 SCT250 FM2200 31006KT P6SM FEW050
                       SCT250 FM0200 36004KT P6SM FEW050 SCT250=
200805301001 KSEA 301001Z 301006 22004KT P6SM SCT020 OVC035
                      TEMPO 1112 BKN020 FM1200 21004KT P6SM BKN020
                       OVC030 FM1800 27006KT P6SM SCT040 SCT250
                       FM2200 31006KT P6SM FEW050 SCT250 FM0200
                       36004KT P6SM FEW050 SCT250=
200805300525 TAF KSEA 300525Z 300606 23006KT P6SM BKN045 FM1000 20004KT P6SM
                       OVC015 FM1700 22005KT P6SM BKN020 FM1900
                       27006KT P6SM SCT040 SCT250 FM2200 31006KT
                       P6SM FEW050 SCT250 FM0200 36004KT P6SM FEW050
                       SCT250=
200805292334 TAF KSEA 292334Z 300024 23010KT P6SM BKN035 BKN250
                      TEMPO 0003 29006KT SCT030 BKN250 FM0500 22006KT
                       P6SM SCT015 OVC035 FM1000 20004KT P6SM OVC015
                       FM1700 22005KT P6SM BKN018 BKN250 FM1900
                       30006KT P6SM SCT040 BKN250=
200805291737 TAF KSEA 291737Z 291818 23012KT P6SM BKN023 OVC028 FM2200 23010KT
                       P6SM BKN030
                      TEMPO 2303 SCT030 FM0500 22006KT P6SM SCT015
                       OVC030 FM1000 20004KT P6SM OVC015=
200805291120 TAF KSEA 291120Z 291212 23009KT P6SM OVC012 FM2000 23009KT P6SM
                       BKN025 OVC035 FM2200 23007KT P6SM BKN040=
200805290535 TAF KSEA 290535Z 290606 21008KT P6SM BKN015 OVC060 FM0900 20006KT
                       P6SM OVC012 FM2000 23008KT P6SM VCSH BKN022
                       OVC035 FM2200 23008KT P6SM VCSH BKN040=
200805282329 TAF KSEA 282329Z 290024 19010KT P6SM VCSH SCT026 BKN045 BKN090
                       TEMPO 0004 BKN026 OVC045 FM0400 21008KT
                       P6SM SCT035 OVC060 FM1000 20006KT P6SM VCSH
                       OVC012 FM2100 23008KT P6SM VCSH BKN022 OVC035=
200805281730 TAF KSEA 281730Z 281818 31003KT P6SM SCT009 BKN024 OVC090 FM2100
                       24008KT P6SM VCSH SCT030 BKN045 BKN090 FM0400
                       21008KT P6SM SCT035 OVC060 FM1000 20006KT
                       P6SM OVC012=
200805281304 KSEA 281304Z 281312 00000KT P6SM VCFG SCT003 OVC100
                      TEMPO 1317 2SM BR OVC003 FM1700 VRB03KT P6SM
                       SCT020 BKN030 FM2000 22008KT P6SM SCT040
                       FM0500 24008KT P6SM OVC012=
200805281132 TAF KSEA 281132Z 281212 36005KT P6SM SCT012 SCT045 BKN120
                      TEMPO 1216 BKN015 FM1600 36005KT P6SM BKN025
                       FM2000 22008KT P6SM SCT040 FM0500 24008KT
                       P6SM OVC012=
200805280520 TAF KSEA 280520Z 280606 32005KT P6SM FEW035 SCT100 SCT200 FM1200
                       20004KT P6SM BKN012 OVC018 FM1900 23007KT
                       P6SM BKN025 FM2200 24008KT P6SM SCT030 FM0500
                       24008KT P6SM OVC012=
200805272329 TAF KSEA 272329Z 280024 33006KT P6SM SCT030 FM0500 01004KT P6SM
                       SCT045 BKN100 FM1300 20004KT P6SM BKN011
                       OVC018 FM1900 23007KT P6SM BKN025 FM2200
                       24008KT P6SM SCT030=
200805271728 TAF KSEA 271728Z 271818 VRB04KT P6SM VCSH BKN009 OVC017
                      TEMPO 1819 SCT009 BKN017 OVC035 FM1900 24006KT
                       P6SM VCSH SCT030 BKN060 OVC100
                      TEMPO 1921 BKN030 OVC060 FM2100 25006KT P6SM
                       VCSH SCT040 BKN070 BKN120 FM0000 33006KT
                       P6SM VCSH SCT040 BKN070 BKN120 FM0500 01004KT
                       P6SM SCT045 BKN100 FM1200 20005KT P6SM OVC011=
200805271613 KSEA 271613Z 271612 24004KT P6SM VCSH BKN007 BKN015 OVC035
                      TEMPO 1619 SCT007 BKN015 OVC035 FM1900 24006KT
                       P6SM VCSH SCT030 SCT070 BKN100
                      TEMPO 1921 BKN030 FM0000 34005KT P6SM SCT045
                       BKN100 FM0600 20005KT P6SM SCT025 BKN100
                       FM1000 20005KT P6SM OVC015=
200805271120 TAF KSEA 271120Z 271212 23006KT P6SM VCSH BKN025 BKN045 OVC100
                       TEMPO 1216 -SHRA OVC015 FM1800 24006KT P6SM
                       VCSH SCT030 SCT070 BKN100
                      TEMPO 1821 BKN030 FM0200 34005KT P6SM SCT045
                       BKN100 FM0600 20005KT P6SM SCT025 BKN100
                       FM1000 20005KT P6SM OVC015=
200805270730 KSEA 270730Z 270806 23006KT P6SM VCSH BKN030 BKN070 OVC120
                      TEMPO 0812 BKN020 FM1800 24006KT P6SM VCSH
                       SCT040 SCT070 SCT120 FM0200 34005KT P6SM
                       VCSH SCT040 BKN070=
200805270520 TAF KSEA 270520Z 270606 23006KT P6SM VCSH SCT030 BKN070 OVC120
                       TEMPO 0607 33006KT -SHRA BKN030 FM1000 17003KT
                       P6SM SCT030 BKN070 OVC120
                      TEMPO 1216 BKN030 FM1800 24006KT P6SM VCSH
                       SCT040 SCT070 SCT120 FM0200 34005KT P6SM
                       VCSH SCT040 BKN070=
200805261733 TAF KSEA 261733Z 261818 20005KT 2SM BR OVC004
                      TEMPO 1820 P6SM NSW SCT007 BKN040 OVC100
                       FM2000 24007KT P6SM VCSH SCT022 BKN045 OVC100
                       FM0400 21006KT P6SM SCT040 BKN070 OVC110=
200805261603 KSEA 261603Z 261612 20004KT 1SM BR OVC002
                      TEMPO 1618 4SM BR BKN005 OVC040 FM1800 20005KT
                       4SM BR BKN005 OVC040
                      TEMPO 1819 P6SM NSW SCT007 BKN040 OVC100
                       FM1900 21007KT P6SM BKN050 BKN100 FM0300
                       23007KT P6SM BKN070=
200805261456 KSEA 261456Z 261512 21004KT 3SM BR OVC003
                      TEMPO 1516 1/2SM FG VV001 FM1600 21004KT
                       P6SM BKN005 OVC040
                      TEMPO 1617 SCT007 BKN040 OVC100 FM1700 20006KT
                       P6SM SCT030 BKN100 FM2000 21007KT P6SM BKN050
                       BKN100 FM0300 23007KT P6SM BKN070=
200805261246 KSEA 261246Z 261312 18003KT 2SM BR OVC003
                      TEMPO 1315 1/2SM FG OVC001 FM1500 19006KT
                       P6SM BKN008 BKN100 FM1700 20006KT P6SM SCT030
                       BKN100 FM2000 21007KT P6SM BKN050 BKN100
                       FM0300 23007KT P6SM BKN070=
200805261139 TAF KSEA 261139Z 261212 18007KT P6SM OVC003
                      TEMPO 1215 2SM BR OVC001 FM1500 19006KT P6SM
                       BKN008 BKN100 FM1700 20006KT P6SM SCT030
                       BKN100 FM2000 21007KT P6SM BKN050 BKN100
                       FM0300 23007KT P6SM BKN070=
200805261022 KSEA 261022Z 261006 18007KT P6SM BKN003 OVC100
                      TEMPO 1014 OVC003 FM1500 19006KT P6SM BKN008
                       OVC100 FM1700 19006KT P6SM SCT020 BKN100
                       FM2000 21007KT P6SM SCT050 BKN100=
200805260532 TAF KSEA 260532Z 260606 VRB05KT P6SM SCT040 BKN130 BKN200 FM0900
                       18007KT P6SM BKN025 BKN060 BKN120 FM2000
                       21007KT P6SM SCT030 BKN060=
200805252320 TAF KSEA 252320Z 260024 22007KT P6SM SCT120 SCT200 FM0400 VRB04KT
                       P6SM SCT025 BKN120 FM0800 18007KT P6SM VCSH
                       BKN025 BKN060 BKN120 FM2000 21007KT P6SM
                       SCT030 BKN060=
200805252006 KSEA 252006Z 252018 22007KT P6SM SCT020 SCT200
                      TEMPO 2022 BKN020 FM0000 VRB04KT P6SM SCT020
                       SCT080 FM0600 18006KT P6SM VCSH SCT020 BKN060
                       FM1000 18008KT P6SM VCSH BKN020 BKN060=
200805251720 TAF KSEA 251720Z 251818 22007KT P6SM SCT015 SCT200
                      TEMPO 1820 BKN015 FM0000 VRB04KT P6SM BKN080
                       FM1000 18006KT P6SM VCSH SCT020 BKN050
                      TEMPO 1216 BKN020 OVC050=
200805251504 KSEA 251504Z 251512 20008KT P6SM BKN008
                      TEMPO 1518 SCT010 BKN080 FM1800 23007KT P6SM
                       SCT020 BKN080 FM0000 VRB04KT P6SM BKN080=
200805251120 TAF KSEA 251120Z 251212 20005KT P6SM VCSH SCT010 BKN035 OVC080
                       TEMPO 1215 BKN010 FM1500 23007KT P6SM SCT040
                       BKN100 OVC150 FM1800 22007KT P6SM BKN050
                       OVC100 FM0000 24005KT P6SM OVC070=
200805250834 KSEA 250834Z 250906 21005KT P6SM -SHRA BKN035 BKN090 FM1000 23007KT
                       P6SM SCT040 BKN100 OVC150 FM1800 22007KT
                       P6SM BKN060 OVC100=
200805250557 KSEA 250557Z 250606 35005KT P6SM -SHRA BKN090 FM0800 VRB04KT P6SM
                       BKN100 OVC150 FM1800 22007KT P6SM BKN060
                       OVC100=
200805250520 TAF KSEA 250520Z 250606 35005KT P6SM BKN110 BKN200 FM1000 VRB04KT
                       P6SM BKN100 OVC150 FM1800 22007KT P6SM BKN060
                       OVC100=
200805242321 TAF KSEA 242321Z 250024 33010KT P6SM FEW060 SCT200 FM0500 05005KT
                       P6SM BKN200 FM1200 VRB03KT P6SM BKN120=
200805241736 TAF KSEA 241736Z 241818 VRB04KT P6SM SCT100 BKN200
                      TEMPO 2202 36007KT P6SM BKN100=
200805241123 TAF KSEA 241123Z 241212 04006KT P6SM BKN100 FM1900 35006KT P6SM
                       SCT060 SCT120 FM0400 VRB05KT P6SM BKN100=
200805240527 TAF KSEA 240527Z 240606 04006KT P6SM SCT070 BKN100 BKN150 FM1700
                       35006KT P6SM SCT070 SCT120=
200805232328 TAF KSEA 232328Z 240024 03010KT P6SM SCT060 OVC120 FM0800 VRB04KT
                       P6SM SCT020 BKN060 OVC120 FM1700 VRB04KT
                       P6SM BKN080=
200805232213 KSEA 232213Z 232218 03010KT P6SM SCT020 BKN060 OVC120 FM0600 VRB04KT
                       P6SM SCT020 OVC060
                      TEMPO 0812 -RA FM1700 VRB04KT P6SM BKN080=
200805232036 KSEA 232036Z 232118 03008KT P6SM BKN015 OVC080 FM0000 02008KT P6SM
                       SCT025 BKN080 FM0400 VRB04KT P6SM BKN080=
200805231720 TAF KSEA 231720Z 231818 02010KT P6SM BKN015 OVC060
                      TEMPO 1820 -RA OVC010 FM2100 02008KT P6SM
                       SCT025 BKN060 OVC100 FM0400 VRB04KT P6SM
                       BKN070 BKN100=
200805231322 KSEA 231322Z 231312 02012KT P6SM BKN018 OVC030
                      TEMPO 1316 OVC014 FM1800 35007KT P6SM BKN050
                       OVC100 FM2300 36005KT P6SM BKN070 BKN100=
200805231133 TAF KSEA 231133Z 231212 02009KT P6SM OVC040 FM1800 35007KT P6SM
                       BKN050 OVC100 FM2300 36005KT P6SM BKN070
                       BKN100=
200805230521 TAF KSEA 230521Z 230606 VRB05KT P6SM SCT030 BKN040 FM1000 02006KT
                       P6SM BKN025 OVC040 FM1700 35007KT P6SM BKN050
                       BKN120 FM2200 36009KT P6SM VCSH BKN050 OVC100=
200805222332 TAF KSEA 222332Z 230024 30007KT P6SM SCT027 BKN035 BKN050
                      TEMPO 0205 SCT035 BKN050 FM0500 VRB04KT P6SM
                       SCT025 BKN050 FM1200 20006KT P6SM SCT012
                       BKN022 BKN050 FM1700 30007KT P6SM SCT030
                       BKN080 BKN120 FM2100 32009KT P6SM BKN090
                       OVC180
                      PROB30 2124 -SHRA=
200805221727 TAF KSEA 221727Z 221818 25003KT P6SM SCT007 BKN015 OVC023 FM1900
                       VRB03KT P6SM SCT012 BKN022 OVC035 FM2100
                       VRB03KT P6SM SCT020 BKN035 BKN050 FM2300
                       34008KT P6SM SCT035 BKN050 FM0600 19006KT
                       P6SM SCT025 BKN050 FM1500 33006KT P6SM SCT012
                       BKN022 OVC035=
200805221646 KSEA 221646Z 221712 25003KT P6SM SCT007 BKN015 OVC023 FM1900 VRB03KT
                       P6SM SCT012 BKN022 OVC035 FM2100 VRB03KT
                       P6SM SCT020 BKN035 BKN050 FM2300 34008KT
                       P6SM SCT035 BKN050=
200805221253 KSEA 221253Z 221312 21003KT P6SM BKN006 OVC010
                      TEMPO 1316 SCT010 OVC018 FM1600 VRB03KT P6SM
                       SCT012 BKN022 OVC035 FM2000 VRB03KT P6SM
                       SCT020 BKN035 BKN050 FM2300 34008KT P6SM
                       SCT035 BKN050=
200805221130 TAF KSEA 221130Z 221212 VRB03KT P6SM SCT009 BKN016 OVC030 FM1600
                       VRB03KT P6SM SCT012 BKN022 OVC035 FM2000
                       VRB03KT P6SM SCT020 BKN035 BKN050 FM2300
                       34008KT P6SM SCT035 BKN050=
200805220539 TAF KSEA 220539Z 220606 14006KT P6SM SCT006 BKN012 OVC020
                      TEMPO 0609 VRB05KT 4SM -SHRA BKN006 OVC012
                       FM0900 VRB03KT P6SM VCSH SCT008 BKN015 OVC030
                       FM1600 VRB03KT P6SM SCT012 BKN022 OVC035
                       FM1900 VRB03KT P6SM SCT020 BKN035 BKN050
                       FM2200 34008KT P6SM SCT035 BKN050=
200805220259 TAF AMD KSEA 220259Z 220324 25007KT P6SM -SHRA BKN030 OVC040
                      TEMPO 0307 VRB05KT BKN018 FM0700 24006KT
                       P6SM VCSH BKN030 OVC050 FM1500 25005KT P6SM
                       SCT035 OVC050 FM1900 30008KT P6SM BKN050=
200805212335 TAF KSEA 212335Z 220024 25007KT P6SM -SHRA BKN035 OVC040
                      TEMPO 0004 VRB06KT BKN030 FM0700 24006KT
                       P6SM VCSH BKN030 OVC050 FM1500 25005KT P6SM
                       SCT035 OVC050 FM1900 30008KT P6SM BKN050=
200805212300 KSEA 220259Z 220324 25007KT P6SM -SHRA BKN030 OVC040
                      TEMPO 0307 VRB05KT BKN018 FM0700 24006KT
                       P6SM VCSH BKN030 OVC050 FM1500 25005KT P6SM
                       SCT035 OVC050 FM1900 30008KT P6SM BKN050=
200805211720 TAF KSEA 211720Z 211818 20006KT P6SM BKN015 OVC020
                      TEMPO 1820 BKN025 OVC045 FM2000 23010KT P6SM
                       VCSH BKN030 BKN050 FM2300 30007KT P6SM BKN023
                       OVC040
                      TEMPO 2303 -SHRA FM0500 24006KT P6SM BKN030
                       OVC050 FM1500 25005KT P6SM SCT035 BKN050=
200805211609 KSEA 211609Z 211612 18006KT P6SM VCSH BKN015 OVC020
                      TEMPO 1620 BKN020 OVC045 FM2000 23010KT P6SM
                       BKN030 BKN060 FM2300 30007KT P6SM BKN023
                       OVC040
                      TEMPO 2303 -SHRA FM0500 22008KT P6SM BKN030
                       OVC050=
200805211128 TAF KSEA 211128Z 211212 20010KT P6SM BKN015 OVC020
                      TEMPO 1216 -SHRA SCT015 OVC030 FM1600 21008KT
                       P6SM VCSH SCT020 OVC045
                      TEMPO 1620 BKN020 OVC045 FM2100 23010KT P6SM
                       SCT030 BKN060 FM0500 20008KT P6SM BKN030
                       OVC050=
200805210719 KSEA 210719Z 210706 21010KT P6SM OVC017 FM1000 21010KT P6SM VCSH
                       BKN015 OVC030
                      TEMPO 1014 SCT015 OVC030 FM1400 21008KT P6SM
                       SCT020 OVC045
                      TEMPO 1418 BKN020 OVC045 FM2100 23008KT P6SM
                       SCT030 BKN060=
200805210521 TAF KSEA 210521Z 210606 21010KT P6SM SCT024 OVC060
                      TEMPO 0610 -SHRA BKN024 OVC060 FM1000 21010KT
                       P6SM VCSH BKN025 BKN050 FM1300 21008KT P6SM
                       SCT020 OVC045
                      TEMPO 1317 BKN020 OVC045 FM2100 23008KT P6SM
                       SCT030 BKN060=
200805202321 TAF KSEA 202321Z 210024 21012G18KT P6SM VCSH SCT025 BKN050 BKN120
                       FM0400 20010KT P6SM VCSH BKN050 OVC070 FM0800
                       22006KT P6SM VCSH BKN030 BKN045 FM1200 21010KT
                       P6SM VCSH SCT015 BKN025 OVC035 FM2100 22009KT
                       P6SM SCT025 BKN040 BKN070=
200805202005 KSEA 202005Z 202018 21012G18KT P6SM VCSH SCT025 BKN040 FM0200 22008KT
                       P6SM VCSH SCT030 BKN045 FM0800 22006KT P6SM
                       VCSH BKN030 BKN045 FM1200 21010KT P6SM SCT015
                       BKN025 OVC035=
200805201733 TAF KSEA 201733Z 201818 21008KT P6SM SCT010 BKN025 OVC050
                      TEMPO 1819 -SHRA SCT007 BKN015 OVC045 FM2100
                       21012G18KT P6SM VCSH SCT025 BKN040 FM0200
                       22008KT P6SM VCSH SCT030 BKN045 FM0800 22006KT
                       P6SM VCSH BKN030 BKN045 FM1200 21010KT P6SM
                       SCT015 BKN025 OVC035=
200805201644 KSEA 201644Z 201712 21008KT P6SM -SHRA SCT010 BKN017 OVC050
                      TEMPO 1720 BKN007 BKN025 OVC060 FM2000 21012G18KT
                       P6SM VCSH SCT025 BKN040 FM0200 22008KT P6SM
                       VCSH SCT030 BKN045 FM0800 22006KT P6SM VCSH
                       BKN030 BKN045=
200805201603 KSEA 201603Z 201612 21008KT P6SM -SHRA SCT010 BKN035 OVC050
                      TEMPO 1618 BKN010 BKN025 OVC060 FM1800 21012G18KT
                       P6SM VCSH SCT020 BKN035 FM2100 22014G21KT
                       P6SM VCSH SCT030 BKN045 FM0200 22008KT P6SM
                       VCSH SCT030 BKN045 FM0800 22006KT P6SM VCSH
                       BKN030 BKN045=
200805201120 TAF KSEA 201120Z 201212 17004KT P6SM -SHRA SCT010 BKN060 OVC080
                       TEMPO 1216 BKN010 BKN025 OVC060 FM1600 21012G18KT
                       P6SM VCSH SCT020 BKN035 FM2100 22014G21KT
                       P6SM VCSH SCT030 BKN045 FM0200 22008KT P6SM
                       VCSH SCT030 BKN045 FM0800 22006KT P6SM VCSH
                       BKN030 BKN045=
200805200520 TAF KSEA 200520Z 200606 23007KT P6SM SCT045 BKN110 FM0800 20008KT
                       P6SM -RA SCT030 OVC050 FM1000 20008KT P6SM
                       -RA SCT018 OVC030 FM1200 21008KT 5SM -RA
                       BR SCT012 BKN018 OVC030 FM1700 21012G18KT
                       P6SM VCSH SCT020 BKN035 FM2100 22014G21KT
                       P6SM VCSH SCT030 BKN045 FM0200 22008KT P6SM
                       VCSH SCT030 BKN045=
200805200432 TAF AMD KSEA 200432Z 200524 22005KT P6SM SCT050 BKN070 BKN150 FM0700
                       20008KT P6SM -RA SCT030 OVC050 FM0900 20008KT
                       5SM -RA BR SCT018 BKN030 OVC045 FM1200 21008KT
                       P6SM -RA SCT012 BKN018 OVC030 FM1700 21012G18KT
                       P6SM VCSH SCT020 BKN035 FM2100 22014G21KT
                       P6SM VCSH SCT030 BKN045=
200805192330 TAF KSEA 192330Z 200024 24007KT P6SM SCT045 BKN070 OVC100 FM0400
                       22010KT P6SM -RA SCT030 BKN045 OVC060
                      TEMPO 0610 5SM -RA BR BKN030 OVC045 FM1000
                       21008KT P6SM -RA SCT018 OVC025 FM1300 20012KT
                       P6SM -RA SCT012 BKN018 OVC030 FM1700 21012G18KT
                       P6SM VCSH SCT020 BKN035 FM2100 22014G21KT
                       P6SM VCSH SCT030 BKN045=
200805192300 KSEA 200432Z 200524 22005KT P6SM SCT050 BKN070 BKN150 FM0700 20008KT
                       P6SM -RA SCT030 OVC050 FM0900 20008KT 5SM
                       -RA BR SCT018 BKN030 OVC045 FM1200 21008KT
                       P6SM -RA SCT012 BKN018 OVC030 FM1700 21012G18KT
                       P6SM VCSH SCT020 BKN035 FM2100 22014G21KT
                       P6SM VCSH SCT030 BKN045=
200805191741 TAF KSEA 191741Z 191818 19010KT P6SM SCT070 BKN120 FM2100 20011KT
                       P6SM SCT045 BKN070 OVC100 FM0400 22010KT
                       P6SM -RA SCT030 BKN045 OVC060
                      TEMPO 0609 5SM -RA BR BKN030 OVC045 FM0900
                       21008KT P6SM -RA SCT018 OVC025 FM1300 20012KT
                       P6SM -SHRA BKN018 OVC030 FM1700 21012G18KT
                       P6SM VCSH SCT020 BKN030=
200805191120 TAF KSEA 191120Z 191212 16005KT P6SM BKN120 FM0000 22006KT P6SM
                       BKN045 OVC080 FM0400 22010KT P6SM -RA OVC040
                       FM1000 22012KT 5SM -RA BR OVC020=
200805190520 TAF KSEA 190520Z 190606 04008KT P6SM BKN120 BKN200 FM1200 16006KT
                       P6SM BKN080 BKN200 FM2200 22006KT P6SM BKN045
                       OVC080 FM0400 22008KT P6SM -RA OVC040=
200805182338 TAF KSEA 182338Z 190024 29006KT P6SM BKN250 FM0500 19006KT P6SM
                       BKN250 FM1200 16006KT P6SM BKN080 BKN200
                       FM2300 16006KT P6SM BKN045 OVC080=
200805181737 TAF KSEA 181737Z 181818 25008KT P6SM SCT250 FM0500 19006KT P6SM
                       SCT250 FM1200 16006KT P6SM BKN080 BKN200=
200805181514 KSEA 181514Z 181512 20008KT P6SM SCT008 SCT250 FM1800 20008KT P6SM
                       BKN250 FM2200 25006KT P6SM BKN250 FM0300
                       22005KT P6SM BKN250 FM0800 18004KT P6SM
                       BKN080=
200805181250 KSEA 181250Z 181312 20009KT P6SM FEW005 BKN250 FM1430 20009KT P6SM
                       OVC005 FM1800 20008KT P6SM SCT010 BKN250
                       FM2200 25006KT P6SM BKN250 FM0300 22005KT
                       P6SM BKN250 FM0800 18004KT P6SM BKN080=
200805181120 TAF KSEA 181120Z 181212 22006KT P6SM BKN250 FM1300 20004KT P6SM
                       OVC007 FM1700 20008KT P6SM SCT020 SCT250
                       FM2200 25006KT P6SM SCT250 FM0300 22005KT
                       P6SM SCT250 FM0800 18004KT P6SM BKN080=
200805180949 KSEA 180949Z 181006 23004KT P6SM FEW250 FM1300 19004KT P6SM OVC007
                       FM1700 20008KT P6SM SCT020 SCT250 FM2200
                       25006KT P6SM SCT250 FM0300 22005KT P6SM
                       SCT250=
200805180524 TAF KSEA 180524Z 180606 19012KT P6SM SCT250 FM1300 19008KT P6SM
                       OVC010 FM1700 20008KT P6SM SCT020 SCT250
                       FM2200 25006KT P6SM SCT250 FM0300 22005KT
                       P6SM SCT250=
200805172320 TAF KSEA 172320Z 180024 23010G22KT P6SM BKN200 FM0200 23013KT P6SM
                       BKN200 FM0600 20008KT P6SM SCT200
                      TEMPO 1216 BKN012=
200805171733 TAF KSEA 171733Z 171818 20009KT P6SM SCT200 FM2000 23014KT P6SM
                       SCT200 FM0600 20008KT P6SM SCT200
                      TEMPO 1216 BKN012=
200805171728 TAF KSEA 171728Z 171818 20008KT P6SM SCT200 FM2000 23014KT P6SM
                       SCT200 FM0600 20008KT P6SM SCT200
                      TEMPO 1216 SCT015=
200805171120 TAF KSEA 171120Z 171212 00000KT P6SM SKC FM1600 18006KT P6SM SCT200
                       FM2000 22013KT P6SM SCT200 FM0700 20008KT
                       P6SM SCT200=
200805170528 TAF KSEA 170528Z 170606 VRB04KT P6SM SCT200 FM1200 19008KT P6SM
                       SCT200 FM2000 22013KT P6SM SCT200=
200805162326 TAF KSEA 162326Z 170024 34008KT P6SM SCT250 FM0600 VRB03KT P6SM
                       SKC FM1200 19008KT P6SM SKC=
200805161722 TAF KSEA 161722Z 161818 36010KT P6SM SCT250 FM0600 VRB03KT P6SM
                       SKC FM1200 19008KT P6SM SKC=
200805161120 TAF KSEA 161120Z 161212 01010KT P6SM SKC FM1800 36007KT P6SM SKC=
200805160524 TAF KSEA 160524Z 160606 02008KT P6SM SKC FM1800 36008KT P6SM SKC=
200805152320 TAF KSEA 152320Z 160024 36011KT P6SM SKC FM0800 02006KT P6SM SKC
                       FM1800 36008KT P6SM SKC=
200805151914 KSEA 151914Z 151918 36012KT P6SM BKN014 FM2000 36012KT P6SM SCT015
                       FM2100 36012KT P6SM SKC FM0200 02007KT P6SM
                       SKC=
200805151728 TAF KSEA 151728Z 151818 36008KT P6SM OVC007 FM1900 36008KT P6SM
                       OVC011 FM2000 36008KT P6SM BKN014 FM2100
                       36009KT P6SM SKC FM0200 02007KT P6SM SKC=
200805151434 KSEA 151434Z 151512 35006KT 2SM BR OVC003 FM1600 35006KT 5SM BR
                       OVC008 FM1800 36007KT P6SM BKN014 FM1900
                       36007KT P6SM SKC FM2100 36009KT P6SM SKC
                       FM0200 02007KT P6SM SKC=
200805151123 TAF KSEA 151123Z 151212 35006KT 2SM BR OVC001
                      TEMPO 1215 1/4SM FG OVC001 FM1600 03004KT
                       P6SM SCT005 FM1800 35006KT P6SM SKC=
200805150828 KSEA 150828Z 150806 02010KT 3/4SM BR OVC002 FM1500 03004KT P6SM
                       SCT005 FM1800 35006KT P6SM SKC=
200805150534 TAF KSEA 150534Z 150606 03004KT P6SM BKN035 FM0900 03004KT P6SM
                       SCT040 FM1800 35006KT P6SM SKC=
200805142321 TAF KSEA 142321Z 150024 VRB03KT P6SM BKN025 BKN050 FM0200 03004KT
                       P6SM SCT025 SCT050 FM0900 03004KT P6SM SCT020
                       FM1500 01005KT P6SM FEW025 FM1800 36008KT
                       P6SM SKC=
200805142032 KSEA 142032Z 142118 21005KT P6SM BKN016 OVC024
                      TEMPO 2124 BKN025 FM0100 VRB04KT P6SM SCT020
                       SCT040 FM0600 02004KT P6SM FEW020 FM1500
                       01007KT P6SM SKC=
200805141729 TAF KSEA 141729Z 141818 18007KT P6SM OVC012
                      TEMPO 1820 BKN007 OVC012 FM2000 21007KT P6SM
                       BKN020 FM0100 VRB04KT P6SM SCT020 SCT040
                       FM0600 02004KT P6SM FEW020 FM1500 01007KT
                       P6SM SKC=
200805141601 KSEA 141601Z 141612 20010KT P6SM BKN010 OVC014 FM2000 21007KT P6SM
                       BKN030 FM0100 35004KT P6SM SCT045 FM0900
                       02004KT P6SM SKC=
200805141129 TAF KSEA 141129Z 141212 21010KT P6SM VCSH OVC010 FM1600 21009KT
                       P6SM OVC020 FM2000 21007KT P6SM BKN030 FM0100
                       35004KT P6SM SCT045 FM0900 02004KT P6SM
                       SKC=
200805140857 KSEA 140857Z 140906 22010KT 5SM BR VCSH OVC012
                      TEMPO 0913 OVC004 FM1800 21009KT P6SM BKN020
                       FM2200 21007KT P6SM BKN030 FM0100 35004KT
                       P6SM SCT045=
200805140528 TAF KSEA 140528Z 140606 21007KT P6SM VCSH OVC011 FM1800 21009KT
                       P6SM BKN020 FM2200 21007KT P6SM BKN030 FM0100
                       35004KT P6SM SCT045=
200805132337 TAF KSEA 132337Z 140024 21011KT P6SM BKN013 OVC023
                      TEMPO 0002 5SM -RA BR OVC010 FM0600 21009KT
                       P6SM VCSH BKN015 FM1800 21009KT P6SM BKN020
                       FM2200 21007KT P6SM BKN030=
200805132034 KSEA 132034Z 132118 17008KT P6SM -RA OVC025
                      TEMPO 2124 5SM -RA BR OVC015 FM0000 21012KT
                       P6SM -SHRA BKN016 OVC035 FM0600 19008KT
                       P6SM VCSH BKN020=
200805131758 KSEA 131758Z 131818 18007KT P6SM -RA BKN030 OVC045
                      TEMPO 1820 BKN010 OVC040 FM2100 20008KT P6SM
                       -SHRA OVC025 FM0000 21012KT P6SM -SHRA BKN016
                       OVC035 FM0600 19008KT P6SM VCSH BKN020=
200805131733 TAF KSEA 131733Z 131818 18007KT P6SM -RA BKN030 OVC045 FM2100 20008KT
                       P6SM -SHRA OVC025 FM0000 21012KT P6SM -SHRA
                       BKN016 OVC035 FM0600 19008KT P6SM VCSH BKN020=
200805131609 KSEA 131609Z 131612 18005KT 6SM -RA BKN030 OVC045 FM1800 19007KT
                       6SM -RA BKN018 OVC040 FM2200 21012KT P6SM
                       -SHRA BKN025 OVC045 FM0300 20005KT P6SM
                       VCSH BKN025 OVC045=
200805131120 TAF KSEA 131120Z 131212 00000KT P6SM OVC070 FM1400 19007KT P6SM
                       SCT015 BKN040 OVC070 FM1800 19007KT 6SM
                       -RA BKN018 OVC040 FM2200 21012KT P6SM -SHRA
                       BKN025 OVC045 FM0300 20005KT P6SM VCSH BKN025
                       OVC045=
200805130524 TAF KSEA 130524Z 130606 08005KT P6SM SCT110 OVC200 FM1000 20007KT
                       P6SM SCT040 OVC090 FM1400 19007KT P6SM SCT015
                       BKN040 OVC080
                      TEMPO 1418 -RA FM1800 19007KT 6SM -RA BKN018
                       OVC040 FM2200 21012KT P6SM -SHRA BKN025
                       OVC045=
200805122322 TAF KSEA 122322Z 130024 VRB03KT P6SM SCT050 OVC200 FM0400 20004KT
                       P6SM SCT040 SCT120 OVC200 FM1000 20007KT
                       P6SM SCT040 OVC090
                      PROB30 1214 -RA FM1400 19007KT P6SM SCT015
                       BKN040 OVC080
                      TEMPO 1418 -RA FM1800 21007KT 6SM -RA BKN018
                       OVC040=
200805121744 TAF KSEA 121744Z 121818 VRB03KT P6SM SCT028 BKN200
                      TEMPO 1821 BKN030 BKN200 FM2100 VRB06KT P6SM
                       SCT040 BKN200 FM0400 20004KT P6SM SCT120
                       OVC200 FM1000 20007KT P6SM SCT040 OVC120
                       PROB30 1214 -RA FM1400 19007KT P6SM BKN040
                       OVC080
                      TEMPO 1418 -RA=
200805121123 TAF KSEA 121123Z 121212 13005KT P6SM BKN019 BKN040
                      TEMPO 1216 SCT022 BKN045 FM1600 16004KT P6SM
                       SCT030 BKN050
                      TEMPO 1618 BKN025 FM2000 VRB06KT P6SM SCT040
                       SCT200 FM0400 VRB04KT P6SM SCT120 OVC200=
200805120520 TAF KSEA 120520Z 120606 13006KT P6SM VCSH SCT035 BKN050
                      TEMPO 0610 BKN030 FM1000 VRB05KT P6SM BKN035
                       BKN050
                      TEMPO 1014 BKN025 FM1800 21007KT P6SM SCT040
                       SCT200 FM0100 24006KT P6SM SCT045 BKN200=
200805112353 KSEA 112353Z 120024 35006KT P6SM -SHRA SCT025 SCT035 BKN050
                      TEMPO 0004 3SM -SHRA BR OVC025 FM0600 21006KT
                       P6SM BKN030 FM1800 23008KT P6SM SCT040 SCT200=
200805112320 TAF KSEA 112320Z 120024 VRB06KT P6SM -SHRA SCT035 BKN050
                      TEMPO 0004 06006KT 5SM -SHRA BR OVC030 FM0600
                       21006KT P6SM BKN030 FM1800 23008KT P6SM
                       SCT040 SCT200=
200805112214 KSEA 112214Z 112218 23008KT P6SM -SHRA BKN035 BKN060
                      TEMPO 2224 06008KT 5SM SHRA OVC030 FM0000
                       06006KT P6SM -SHRA BKN030 BKN045 FM0800
                       18006KT P6SM BKN030=
200805112103 KSEA 112103Z 112118 18006KT P6SM -SHRA SCT025 BKN040
                      TEMPO 2122 03006KT 4SM -SHRA OVC025 FM2200
                       06005KT P6SM -SHRA BKN030 BKN060
                      TEMPO 2202 4SM -SHRA BR OVC025 FM0800 18006KT
                       P6SM BKN030=
200805111842 KSEA 111842Z 111918 20014G22KT P6SM VCSH SCT025 BKN035 BKN060
                      TEMPO 1920 VRB10KT -SHRA BKN025 FM2000 03008KT
                       P6SM -SHRA SCT020 OVC030
                      TEMPO 2303 VRB08KT 3SM SHRA OVC020 FM0300
                       06005KT P6SM VCSH BKN030 BKN060
                      TEMPO 0307 -SHRA OVC025 FM0800 18006KT P6SM
                       BKN030=
200805111720 TAF KSEA 111720Z 111818 20012KT P6SM SCT025 BKN035 BKN060
                      TEMPO 2023 -SHRA BKN025 FM2300 03008KT P6SM
                       -SHRA SCT020 OVC030
                      TEMPO 2303 VRB08KT 3SM SHRA OVC020 FM0300
                       06005KT P6SM VCSH BKN030 BKN060
                      TEMPO 0307 -SHRA OVC025 FM0800 18006KT P6SM
                       BKN030=
200805111121 TAF KSEA 111121Z 111212 22012G20KT P6SM VCSH BKN022 OVC035
                      TEMPO 1216 OVC015 FM1600 22012KT P6SM VCSH
                       BKN022 BKN040
                      TEMPO 1922 SCT025 BKN040 FM2200 23009KT P6SM
                       BKN035 BKN060 FM0400 19006KT P6SM BKN040=
200805110521 TAF KSEA 110521Z 110606 24012G20KT P6SM VCSH SCT022 BKN045
                      TEMPO 0610 -SHRA BKN020 OVC035 FM1000 22012KT
                       P6SM VCSH BKN030 BKN045
                      TEMPO 1014 OVC022 FM1800 22011KT P6SM VCSH
                       BKN040 OVC060 FM0100 23009KT P6SM BKN045
                       BKN070=
200805110248 KSEA 110248Z 110324 24011KT P6SM VCSH SCT017 BKN035
                      TEMPO 0307 -SHRA BKN015 OVC027 FM0800 22010KT
                       P6SM BKN027 BKN045
                      TEMPO 0812 OVC020 FM1800 22012KT P6SM BKN040
                       OVC060=
200805102320 TAF KSEA 102320Z 110024 24012KT P6SM VCSH OVC045
                      TEMPO 0004 -SHRA OVC035 FM0800 22010KT P6SM
                       OVC030
                      TEMPO 1014 OVC020 FM1800 22012KT P6SM BKN040
                       OVC060=
200805102300 KSEA 110248Z 110324 24011KT P6SM VCSH SCT017 BKN035
                      TEMPO 0307 -SHRA BKN015 OVC027 FM0800 22010KT
                       P6SM BKN027 BKN045
                      TEMPO 0812 OVC020 FM1800 22012KT P6SM BKN040
                       OVC060=
200805102049 KSEA 102049Z 102118 20010KT P6SM VCSH OVC040 FM0800 22010KT P6SM
                       BKN040 BKN060=
200805101733 TAF KSEA 101733Z 101818 20009KT P6SM VCSH OVC040 FM2000 21011KT
                       P6SM VCSH SCT025 OVC040
                      TEMPO 2024 -SHRA BKN025 FM0000 22012KT P6SM
                       -SHRA BKN025 OVC040 FM0800 22010KT P6SM
                       BKN040 BKN060=
200805101121 TAF KSEA 101121Z 101212 18006KT P6SM OVC070 FM1800 20009KT P6SM
                       OVC040
                      TEMPO 1822 -RA FM2200 22013KT P6SM -RA BKN025
                       OVC040 FM0200 22013G20KT P6SM -SHRA BKN025
                       OVC040 FM0800 22013KT P6SM BKN040 BKN090
                       PROB30 0812 -SHRA=
200805100537 TAF KSEA 100537Z 100606 VRB03KT P6SM FEW110 OVC200 FM0900 17006KT
                       P6SM FEW070 OVC110 FM1500 19006KT P6SM FEW040
                       OVC070
                      PROB30 1519 -RA FM1900 22009KT P6SM -RA SCT025
                       OVC040
                      TEMPO 2024 BKN025 OVC040 FM0000 22013G20KT
                       P6SM -SHRA BKN025 OVC040=
200805092320 TAF KSEA 092320Z 100024 28007KT P6SM FEW050 SCT200 FM0300 VRB03KT
                       P6SM FEW120 BKN200 FM0900 15006KT P6SM SCT050
                       OVC120 FM1500 18008KT P6SM BKN050 FM1900
                       18008KT P6SM VCSH BKN035 OVC050
                      TEMPO 2124 -SHRA BKN025=
200805091720 TAF KSEA 091720Z 091818 14005KT P6SM SCT035 FM2100 32007KT P6SM
                       SCT200 FM0300 VRB03KT P6SM FEW120 BKN200
                       FM0900 15006KT P6SM SCT050 OVC120 FM1500
                       18008KT P6SM BKN050=
200805091134 TAF KSEA 091134Z 091212 19005KT P6SM BKN050 FM1800 22007KT P6SM
                       SCT200 FM2100 32007KT P6SM SCT200 FM0300
                       VRB03KT P6SM FEW120 BKN200 FM0900 15006KT
                       P6SM SCT050 OVC120=
200805091003 KSEA 091003Z 091006 21006KT P6SM BKN050 FM1800 23007KT P6SM SCT060
                       SCT200 FM0000 31007KT P6SM BKN200=
200805090841 KSEA 090841Z 090906 21006KT P6SM BKN040 FM1800 23007KT P6SM SCT060
                       SCT200 FM0000 31007KT P6SM BKN200=
200805090658 KSEA 090658Z 090706 23006KT P6SM BKN040 FM0900 VRB03KT P6SM BKN040
                       FM1200 VRB03KT P6SM FEW012 SCT030 FM1800
                       23007KT P6SM SCT200 FM0000 31007KT P6SM
                       BKN200=
200805090535 TAF KSEA 090535Z 090606 23006KT P6SM SCT070 FM0900 VRB03KT P6SM
                       SCT050 FM1200 VRB03KT P6SM FEW012 SCT030
                       FM1800 23007KT P6SM SCT200 FM0000 31007KT
                       P6SM BKN200=
200805090241 TAF AMD KSEA 090241Z 090324 24006KT P6SM FEW035 BKN070 FM0600 14004KT
                       P6SM SCT070 FM1300 16004KT P6SM SCT018 BKN025
                       FM1700 21005KT P6SM SCT030 SCT200 FM1900
                       26007KT P6SM SCT200=
200805082332 TAF KSEA 082332Z 090024 26008KT P6SM SCT045 BKN060 FM0200 34006KT
                       P6SM VCSH BKN045
                      TEMPO 0206 SCT045 FM0600 14004KT P6SM SCT050
                       FM1300 16004KT P6SM SCT018 BKN025 FM1700
                       21005KT P6SM SCT030 SCT200 FM1900 26007KT
                       P6SM SCT200=
200805082300 KSEA 090241Z 090324 24006KT P6SM FEW035 BKN070 FM0600 14004KT P6SM
                       SCT070 FM1300 16004KT P6SM SCT018 BKN025
                       FM1700 21005KT P6SM SCT030 SCT200 FM1900
                       26007KT P6SM SCT200=
200805081738 TAF KSEA 081738Z 081818 20009KT P6SM VCSH SCT030 OVC040
                      TEMPO 1819 BKN030 OVC040 FM2100 22011KT P6SM
                       VCSH SCT040 BKN050
                      TEMPO 2101 SCT050 FM0100 34006KT P6SM VCSH
                       BKN045 FM0700 14004KT P6SM SCT050 FM1300
                       16004KT P6SM SCT018 BKN025 FM1700 21005KT
                       P6SM SCT028 SCT200=
200805081120 TAF KSEA 081120Z 081212 19008KT P6SM SCT025 OVC035
                      TEMPO 1216 BKN025 OVC035 FM1900 23012KT P6SM
                       BKN050 BKN200 FM0200 21008KT P6SM SCT060
                       BKN200 FM0600 19006KT P6SM BKN200 FM1000
                       19006KT P6SM SCT012 BKN200=
200805081020 KSEA 081020Z 081006 20010KT P6SM SCT030 OVC060
                      TEMPO 1012 BKN030 OVC060 FM1200 20010KT P6SM
                       OVC028 FM1900 23013KT P6SM BKN050 BKN200
                       FM0200 21009KT P6SM SCT060 SCT200=
200805080821 KSEA 080821Z 080806 20010KT P6SM OVC028 FM1900 23013KT P6SM BKN050
                       BKN200 FM0200 21009KT P6SM SCT060 SCT200=
200805080535 TAF KSEA 080535Z 080606 22013KT P6SM BKN060 FM0900 20010KT P6SM
                       BKN045 FM1200 20010KT P6SM OVC030 FM1900
                       23013KT P6SM BKN050 BKN200 FM0200 21009KT
                       P6SM SCT060 SCT200=
200805080258 KSEA 080258Z 080324 22011KT P6SM SCT040 BKN080
                      TEMPO 0306 BKN040 BKN080 FM0600 17005KT P6SM
                       BKN045 FM1000 19007KT P6SM SCT018 BKN030
                       FM1300 19007KT P6SM SCT012 BKN018 FM1700
                       21008KT P6SM SCT020 BKN030 FM2000 24010KT
                       P6SM SCT030 SCT045 FM2300 31005KT P6SM VCSH
                       SCT040 BKN050=
200805080235 KSEA 080235Z 080324 22009KT P6SM BKN060 BKN200 FM0600 17005KT P6SM
                       BKN045 FM1000 19007KT P6SM SCT018 BKN030
                       FM1300 19007KT P6SM SCT012 BKN018 FM1700
                       21008KT P6SM SCT020 BKN030 FM2000 24010KT
                       P6SM SCT030 SCT045 FM2300 31005KT P6SM VCSH
                       SCT040 BKN050=
200805072336 TAF KSEA 072336Z 080024 23012G20KT P6SM SCT035 BKN050 FM0200 VRB04KT
                       P6SM SCT030 BKN045 FM0500 17005KT P6SM BKN045
                       FM1000 19007KT P6SM SCT018 BKN030 FM1300
                       19007KT P6SM SCT012 BKN018 FM1700 21008KT
                       P6SM SCT020 BKN030 FM2000 24010KT P6SM SCT030
                       SCT045 FM2300 31005KT P6SM VCSH SCT040 BKN050=
200805072300 KSEA 080258Z 080324 22011KT P6SM SCT040 BKN080
                      TEMPO 0306 BKN040 BKN080 FM0600 17005KT P6SM
                       BKN045 FM1000 19007KT P6SM SCT018 BKN030
                       FM1300 19007KT P6SM SCT012 BKN018 FM1700
                       21008KT P6SM SCT020 BKN030 FM2000 24010KT
                       P6SM SCT030 SCT045 FM2300 31005KT P6SM VCSH
                       SCT040 BKN050=
200805071739 TAF KSEA 071739Z 071818 22010KT P6SM SCT015 OVC020 FM2100 23010KT
                       P6SM SCT020 BKN035 FM0000 30006KT P6SM SCT025
                       BKN045
                      TEMPO 0004 -SHRA BKN025 OVC035 FM0400 19008KT
                       P6SM SCT030 SCT050 FM1000 19007KT P6SM SCT018
                       BKN030 FM1300 19007KT P6SM SCT012 BKN018
                       FM1700 21008KT P6SM SCT020 BKN030=
200805071141 TAF KSEA 071141Z 071212 21007KT P6SM OVC010
                      TEMPO 1317 OVC007 FM1700 22010KT P6SM OVC013
                       FM1900 22012KT P6SM BKN016 OVC025 FM2000
                       24014G22KT P6SM VCSH SCT025 BKN045 FM0100
                       25010KT P6SM SCT045 BKN130 FM0400 21008KT
                       P6SM BKN080=
200805070539 TAF KSEA 070539Z 070606 23005KT P6SM BKN030 OVC040
                      TEMPO 0610 SCT030 OVC040 FM1200 20007KT P6SM
                       SCT015 OVC025
                      TEMPO 1216 BKN015 OVC025 FM1900 24013G20KT
                       P6SM VCSH SCT025 BKN045=
200805062333 TAF KSEA 062333Z 070024 25005KT P6SM BKN025 OVC045 FM0300 25004KT
                       P6SM SCT025 OVC045 FM0700 21005KT P6SM BKN025
                       OVC045 FM1200 20007KT P6SM SCT015 OVC025
                       TEMPO 1216 BKN015 OVC025 FM1900 24006KT
                       P6SM VCSH SCT025 BKN045=
200805061730 TAF KSEA 061730Z 061818 24003KT P6SM BKN009 OVC015 FM1900 23005KT
                       P6SM BKN015 OVC040
                      TEMPO 2022 -SHRA SCT015 OVC040 FM2200 VRB04KT
                       P6SM BKN025 OVC040
                      TEMPO 2201 -SHRA FM0100 29005KT P6SM SCT030
                       BKN045 OVC070 FM0600 22006KT P6SM SCT045
                       BKN060=
200805061140 TAF KSEA 061140Z 061212 20004KT P6SM BKN013 OVC050 FM1300 20006KT
                       P6SM BKN010 OVC050
                      TEMPO 1316 OVC006 FM1700 24006KT P6SM BKN013
                       OVC050 FM1800 24006KT P6SM SCT016 BKN045
                       OVC130 FM1900 29009KT P6SM SCT045 BKN130
                       FM0800 20007KT P6SM SCT130 BKN250 FM1000
                       20007KT P6SM BKN015=
200805060539 TAF KSEA 060539Z 060606 02008KT P6SM SCT045 BKN090
                      TEMPO 0608 BKN045 BKN090 FM1300 20006KT P6SM
                       SCT011 BKN060 OVC130
                      TEMPO 1316 BKN011 OVC060 FM1700 24006KT P6SM
                       BKN045 OVC130 FM2100 29009KT P6SM SCT045
                       BKN130=
200805060407 TAF AMD KSEA 060407Z 060424 34005KT P6SM SCT040 BKN120
                      TEMPO 0408 BKN040 BKN120 FM0800 02004KT P6SM
                       SCT050 BKN200 FM1300 VRB03KT P6SM SCT015
                       BKN200 FM1700 29006KT P6SM SCT050 BKN200=
200805052320 TAF KSEA 052320Z 060024 34007KT P6SM SCT080 BKN200 FM0900 02004KT
                       P6SM SCT050 BKN200 FM1300 VRB03KT P6SM SCT015
                       BKN200 FM1700 29006KT P6SM SCT050 BKN200=
200805052300 KSEA 060407Z 060424 34005KT P6SM SCT040 BKN120
                      TEMPO 0408 BKN040 BKN120 FM0800 02004KT P6SM
                       SCT050 BKN200 FM1300 VRB03KT P6SM SCT015
                       BKN200 FM1700 29006KT P6SM SCT050 BKN200=
200805051742 TAF KSEA 051742Z 051818 VRB04KT P6SM SCT120 BKN250 FM1900 30008KT
                       P6SM BKN120 BKN250 FM0200 35006KT P6SM SCT050
                       SCT120 BKN250 FM1300 VRB03KT P6SM SCT015
                       BKN200 FM1500 24005KT P6SM BKN025 BKN200=
200805051145 TAF KSEA 051145Z 051212 VRB03KT P6SM BKN120 OVC200 FM1900 30010KT
                       P6SM SCT100 BKN250 FM0300 35006KT P6SM SCT250
                       FM0900 18005KT P6SM SCT250=
200805050539 TAF KSEA 050539Z 050606 02006KT P6SM BKN200 FM1300 VRB04KT P6SM
                       BKN120 OVC200 FM1900 30009KT P6SM SCT100
                       BKN250=
200805042320 TAF KSEA 042320Z 050024 30007KT P6SM FEW030 BKN200 FM0400 02005KT
                       P6SM BKN250 FM1300 VRB04KT P6SM BKN120 FM1900
                       30008KT P6SM SCT100=
200805041720 TAF KSEA 041720Z 041818 00000KT P6SM SCT030 FM2000 32006KT P6SM
                       SCT250 FM0400 02005KT P6SM SCT250 FM1300
                       VRB04KT P6SM BKN120=
200805041635 KSEA 041635Z 041712 00000KT P6SM FEW010 SCT030 FM2000 32006KT P6SM
                       SCT250 FM0400 02005KT P6SM SCT250=
200805041137 TAF KSEA 041137Z 041212 00000KT P6SM OVC030 FM1300 VRB03KT P6SM
                       SCT008 OVC030
                      TEMPO 1316 BKN008 OVC030 FM1700 32006KT P6SM
                       SCT035 FM2000 32006KT P6SM SCT250 FM0400
                       02005KT P6SM SCT250=
200805040527 TAF KSEA 040527Z 040606 35006KT P6SM BKN035 OVC060
                      TEMPO 0608 SCT035 BKN060 FM0800 02007KT P6SM
                       SCT035 BKN060 BKN120
                      TEMPO 0810 SCT060 BKN120 FM1000 01006KT P6SM
                       BKN008 FM1600 VRB04KT P6SM SCT015 FM1900
                       32006KT P6SM SCT250=
200805040423 TAF AMD KSEA 040423Z 040424 01006KT P6SM SCT040 OVC060 FM0600 02007KT
                       P6SM SCT025 SCT040 SCT120 FM1100 01006KT
                       P6SM BKN008 FM1600 VRB04KT P6SM SCT015 FM1900
                       32006KT P6SM SCT250=
200805032320 TAF KSEA 032320Z 040024 29004KT P6SM -SHRA BKN009 OVC015 FM0100
                       35005KT P6SM BKN025 BKN040 BKN120 FM0500
                       02007KT P6SM SCT025 SCT040 SCT120 FM1100
                       01006KT P6SM BKN008 FM1600 VRB04KT P6SM
                       SCT015 FM1900 32006KT P6SM SCT250=
200805032300 KSEA 040423Z 040424 01006KT P6SM SCT040 OVC060 FM0600 02007KT P6SM
                       SCT025 SCT040 SCT120 FM1100 01006KT P6SM
                       BKN008 FM1600 VRB04KT P6SM SCT015 FM1900
                       32006KT P6SM SCT250=
200805032220 KSEA 032220Z 032218 27004KT 4SM -SHRA BR BKN006 OVC012 FM0000 33006KT
                       P6SM BKN025 BKN040 FM0200 35005KT P6SM SCT040
                       FM0400 02007KT P6SM SCT060 FM1100 01006KT
                       P6SM BKN008 FM1600 VRB04KT P6SM SCT015=
200805031957 TAF KSEA 031957Z 032018 03005KT 4SM -RA BR BKN006 BKN010 OVC017
                       FM2200 36004KT P6SM VCSH SCT015 BKN035 FM0000
                       33006KT P6SM SCT040 FM0400 02007KT P6SM
                       SCT060 FM1100 01006KT P6SM BKN008 FM1600
                       VRB04KT P6SM SCT015=
200805031955 KSEA 031955Z 032018 05004KT 5SM -RA BKN003 BKN010 OVC024 FM2200
                       36004KT P6SM SCT015 BKN035 FM0000 33006KT
                       P6SM SCT040 FM0400 02007KT P6SM SCT060 FM1100
                       01006KT P6SM BKN008 FM1600 VRB04KT P6SM
                       SCT015=
200805031720 TAF KSEA 031720Z 031818 VRB03KT P6SM OVC016
                      TEMPO 1820 4SM -RA BR SCT005 OVC011 FM2000
                       VRB04KT P6SM SCT020 BKN035 FM2300 33006KT
                       P6SM SCT040 FM0400 02007KT P6SM SCT060 FM1100
                       01006KT P6SM BKN008 FM1600 VRB04KT P6SM
                       SCT015=
200805031342 KSEA 031342Z 031412 00000KT P6SM VCSH BKN019 OVC070 FM1700 24006KT
                       P6SM VCSH SCT025 BKN045 FM2000 30006KT P6SM
                       SCT030 BKN050 FM0400 02006KT P6SM SCT060
                       BKN120 FM1000 15003KT P6SM SCT120 BKN250=
200805031129 TAF KSEA 031129Z 031212 00000KT P6SM SCT050 BKN090 FM1300 16006KT
                       P6SM VCSH SCT025 OVC045
                      TEMPO 1418 BKN025 OVC045 FM1800 24006KT P6SM
                       VCSH SCT025 BKN045 FM2000 30006KT P6SM SCT030
                       BKN050 FM0400 02006KT P6SM SCT060 BKN120
                       FM1000 15003KT P6SM SCT120 BKN250=
200805030537 TAF KSEA 030537Z 030606 32004KT P6SM SCT050 BKN100 OVC200
                      TEMPO 0913 -RA BKN050 OVC100 FM1300 16006KT
                       P6SM VCSH SCT025 OVC045
                      TEMPO 1418 BKN025 OVC045 FM1800 24006KT P6SM
                       VCSH SCT025 BKN045 FM2000 30006KT P6SM SCT030
                       BKN050=
200805022320 TAF KSEA 022320Z 030024 VRB03KT P6SM BKN060 OVC100 FM0400 VRB04KT
                       P6SM -SHRA SCT035 OVC050 FM1000 VRB04KT
                       P6SM -SHRA BKN021 BKN030 OVC045 FM1700 VRB04KT
                       P6SM VCSH SCT025 BKN045 FM1900 36005KT P6SM
                       VCSH SCT045
                      TEMPO 1923 BKN045=
200805021724 TAF KSEA 021724Z 021818 VRB03KT P6SM BKN090 OVC200 FM2200 29005KT
                       P6SM BKN060 OVC100 FM0200 VRB04KT P6SM -SHRA
                       SCT025 BKN035 OVC050 FM0900 VRB04KT P6SM
                       VCSH BKN021 BKN030 BKN045=
200805021638 KSEA 021638Z 021712 VRB03KT P6SM BKN090 OVC200 FM2200 29005KT P6SM
                       BKN060 OVC100 FM0200 VRB04KT P6SM -SHRA
                       SCT025 BKN035 OVC050 FM0900 VRB04KT P6SM
                       VCSH BKN021 BKN030 BKN045=
200805021120 TAF KSEA 021120Z 021212 VRB04KT P6SM BKN120 OVC200 FM1600 16006KT
                       P6SM BKN070 OVC120 FM2200 21008KT P6SM VCSH
                       BKN040 OVC070 FM0200 21010KT P6SM -RA OVC040=
200805020520 TAF KSEA 020520Z 020606 VRB04KT P6SM SCT120 BKN200 FM1000 12006KT
                       P6SM BKN120 OVC200 FM1600 16008KT P6SM BKN070
                       OVC120 FM2200 21008KT P6SM VCSH BKN040 OVC070
                       FM0200 21010KT P6SM -RA OVC040=
200805012322 TAF KSEA 012322Z 020024 23008KT P6SM FEW050 SCT100 BKN200 FM0400
                       15006KT P6SM SCT100 BKN200 FM1500 12008KT
                       P6SM BKN070 BKN120 FM2200 24007KT P6SM VCSH
                       BKN040 OVC060=
200805011730 TAF KSEA 011730Z 011818 21008KT P6SM SCT030 BKN050 BKN200 FM2000
                       20008KT P6SM SCT060 BKN200 FM0000 23008KT
                       P6SM BKN150 FM0600 15006KT P6SM BKN050 OVC100
                       FM1500 12008KT P6SM OVC040=
200805011120 TAF KSEA 011120Z 011212 16006KT P6SM SCT025 BKN150
                      TEMPO 1215 BKN025 FM2000 18008KT P6SM SCT040
                       OVC120 FM0400 18008KT P6SM SCT040 OVC070
                       FM0900 18010KT P6SM -RA OVC040=
200805011000 KSEA 011000Z 011006 18007KT P6SM SCT030 BKN150
                      TEMPO 1014 BKN030=
200805010726 KSEA 010726Z 010706 12007KT P6SM BKN030
                      TEMPO 0711 4SM -DZ BR OVC020 FM1200 16007KT
                       P6SM BKN025 BKN200 FM1800 18007KT P6SM SCT040
                       BKN150=
200805010637 KSEA 010637Z 010706 12007KT P6SM BKN030
                      TEMPO 0711 -DZ OVC025 FM1200 16007KT P6SM
                       BKN025 BKN200 FM1800 18007KT P6SM SCT040
                       BKN150=
200805010520 TAF KSEA 010520Z 010606 12007KT P6SM BKN040 FM1200 16007KT P6SM
                       BKN025 BKN200 FM1800 18007KT P6SM SCT040
                       BKN150=
200805010100 KSEA 010100Z 010124 36007KT P6SM -RA SCT020 BKN050
                      TEMPO 0103 5SM SHRA BKN020 OVC050 FM0300
                       33007KT P6SM VCSH BKN040 FM0700 17006KT
                       P6SM SCT050 FM1400 19008KT P6SM SCT150=