##########################################################
# Query made at 02/18/2025 01:52:13 UTC
# Time interval: from 02/01/2008 00:00  to 02/29/2008 23:59  UTC
##########################################################

##########################################################
# KSEA, Seattle, Seattle-Tacoma International Airport (United States)
# WMO index: 72793. WIGOS ID: 0-20000-0-72793
# Latitude 47-27-00N. Longitude 122-17-59W. Altitude 130 m.
##########################################################

###################################
#  METAR/SPECI from KSEA
###################################
200802292353 METAR KSEA 292353Z 24009KT 6SM -RA BR FEW020 SCT042 OVC049 09/08 A2975 RMK AO2 PK WND 24027/2303 RAB04 SLP082 P0004 60004 T00940078 10144 20094 55003=
200802292253 METAR KSEA 292253Z 22012KT 10SM BKN050 BKN100 OVC180 14/06 A2972 RMK AO2 SLP071 VCSH SW-NW T01390056=
200802292153 METAR KSEA 292153Z 22013G21KT 10SM SCT065 BKN120 BKN200 14/05 A2973 RMK AO2 PK WND 24026/2134 SLP074 T01390050=
200802292053 METAR KSEA 292053Z 22015G21KT 10SM FEW080 SCT140 SCT200 14/06 A2976 RMK AO2 SLP085 T01390061 56016=
200802291953 METAR KSEA 291953Z 22009KT 10SM FEW080 SCT140 BKN200 12/06 A2978 RMK AO2 SLP092 T01220061=
200802291853 METAR KSEA 291853Z 14006KT 10SM FEW080 SCT120 SCT250 12/07 A2978 RMK AO2 SLP091 T01220067=
200802291753 METAR KSEA 291753Z 12007KT 7SM FEW070 SCT120 BKN250 09/07 A2981 RMK AO2 SLP102 T00940067 10094 20067 58012=
200802291733 SPECI KSEA 291733Z 14008KT 5SM BR FEW003 SCT120 BKN250 09/07 A2982 RMK AO2=
200802291733 SPECI KSEA 291733Z 14008KT 5SM BR FEW003 SCT120 BKN250 09/07 A2982 RMK AO2=
200802291653 METAR KSEA 291653Z 16005KT 1 1/4SM BR SCT003 BKN120 BKN200 07/06 A2984 RMK AO2 SFC VIS 2 SLP112 T00720061=
200802291642 SPECI KSEA 291642Z 16006KT 1SM BR SCT003 BKN120 BKN200 07/06 A2984 RMK AO2 SFC VIS 2 1/2=
200802291642 SPECI KSEA 291642Z 16006KT 1SM BR SCT003 BKN120 BKN200 07/06 A2984 RMK AO2 SFC VIS 2 1/2=
200802291623 SPECI KSEA 291623Z 20003KT 1SM BR BKN003 BKN120 OVC200 07/06 A2985 RMK AO2 SFC VIS 2 1/2=
200802291623 SPECI KSEA 291623Z 20003KT 1SM BR BKN003 BKN120 OVC200 07/06 A2985 RMK AO2 SFC VIS 2 1/2=
200802291615 SPECI KSEA 291615Z 25003KT 1SM BR SCT003 BKN120 OVC200 07/06 A2984 RMK AO2 SFC VIS 2 1/2=
200802291615 SPECI KSEA 291615Z 25003KT 1SM BR SCT003 BKN120 OVC200 07/06 A2984 RMK AO2 SFC VIS 2 1/2=
200802291553 METAR KSEA 291553Z 00000KT 7SM FEW090 SCT140 BKN200 07/06 A2984 RMK AO2 SLP112 T00720061=
200802291453 METAR KSEA 291453Z 26004KT 10SM SCT090 BKN120 BKN200 07/06 A2985 RMK AO2 SLP114 T00720056 58021=
200802291353 METAR KSEA 291353Z 00000KT 10SM FEW002 BKN095 OVC200 07/06 A2988 RMK AO2 SLP124 T00720056=
200802291256 SPECI KSEA 291256Z 10006KT 4SM BR SCT001 SCT008 BKN045 07/06 A2988 RMK AO2=
200802291256 SPECI KSEA 291256Z 10006KT 4SM BR SCT001 SCT008 BKN045 07/06 A2988 RMK AO2=
200802291253 METAR KSEA 291253Z 10005KT 2SM BR SCT001 BKN008 BKN130 07/06 A2989 RMK AO2 SLP129 T00670056=
200802291237 SPECI KSEA 291237Z 00000KT 2SM R16C/2800VP6000FT BR SCT001 BKN140 OVC200 07/06 A2990 RMK AO2=
200802291237 SPECI KSEA 291237Z 00000KT 2SM R16C/2800VP6000FT BR SCT001 BKN140 OVC200 07/06 A2990 RMK AO2=
200802291227 SPECI KSEA 291227Z 00000KT 3SM R16C/3000VP6000FT BR SCT001 BKN140 OVC200 07/06 A2991 RMK AO2=
200802291227 SPECI KSEA 291227Z 00000KT 3SM R16C/3000VP6000FT BR SCT001 BKN140 OVC200 07/06 A2991 RMK AO2=
200802291223 SPECI KSEA 291223Z 24003KT 1 1/4SM R16C/3500VP6000FT BR SCT001 SCT140 OVC200 07/06 A2992 RMK AO2=
200802291223 SPECI KSEA 291223Z 24003KT 1 1/4SM R16C/3500VP6000FT BR SCT001 SCT140 OVC200 07/06 A2992 RMK AO2=
200802291153 METAR KSEA 291153Z 00000KT 4SM BR FEW002 SCT140 OVC200 07/06 A2991 RMK AO2 SLP135 70001 T00670056 10094 20067 56024=
200802291136 SPECI KSEA 291136Z 00000KT 4SM BR FEW002 SCT140 OVC200 07/06 A2991 RMK AO2=
200802291136 SPECI KSEA 291136Z 00000KT 4SM BR FEW002 SCT140 OVC200 07/06 A2991 RMK AO2=
200802291131 SPECI KSEA 291131Z 00000KT 1 3/4SM BR FEW001 07/06 A2991 RMK AO2 VIS 3/4V5=
200802291131 SPECI KSEA 291131Z 00000KT 1 3/4SM BR FEW001 07/06 A2991 RMK AO2 VIS 3/4V5=
200802291053 METAR KSEA 291053Z 00000KT 10SM SCT140 BKN200 07/06 A2992 RMK AO2 SLP138 T00720056=
200802290953 METAR KSEA 290953Z 11004KT 10SM SCT140 BKN200 08/06 A2996 RMK AO2 SLP153 T00780056=
200802290853 METAR KSEA 290853Z 00000KT 10SM SCT140 OVC200 07/06 A2998 RMK AO2 SLP160 T00720056 56020=
200802290753 METAR KSEA 290753Z 29003KT 10SM SCT140 OVC200 07/05 A3000 RMK AO2 SLP165 T00670050 401390067=
200802290653 METAR KSEA 290653Z 00000KT 10SM SCT140 OVC200 09/06 A3002 RMK AO2 SLP171 T00890061=
200802290553 METAR KSEA 290553Z 14003KT 10SM SCT140 BKN200 09/06 A3004 RMK AO2 SLP180 T00940061 10133 20078 58011=
200802290453 METAR KSEA 290453Z 00000KT 10SM SCT200 09/06 A3006 RMK AO2 SLP185 T00890056=
200802290353 METAR KSEA 290353Z 00000KT 10SM SCT200 09/06 A3007 RMK AO2 SLP188 T00940056=
200802290253 METAR KSEA 290253Z 36003KT 10SM SCT200 BKN250 09/06 A3007 RMK AO2 SLP191 T00940056 56019=
200802290153 METAR KSEA 290153Z 29004KT 10SM FEW030 SCT200 BKN250 10/07 A3008 RMK AO2 SLP195 T01000067=
200802290053 METAR KSEA 290053Z 31003KT 10SM FEW030 SCT200 13/07 A3010 RMK AO2 SLP199 T01280067=
200802282353 METAR KSEA 282353Z 26004KT 10SM SCT030 SCT200 13/07 A3013 RMK AO2 SLP209 60000 T01330072 10139 20094 57022=
200802282253 METAR KSEA 282253Z 00000KT 10SM SCT028 SCT200 13/07 A3015 RMK AO2 SLP217 T01280067=
200802282218 SPECI KSEA 282218Z 27006KT 10SM FEW010 SCT028 SCT200 13/08 A3017 RMK AO2=
200802282218 SPECI KSEA 282218Z 27006KT 10SM FEW010 SCT028 SCT200 13/08 A3017 RMK AO2=
200802282153 METAR KSEA 282153Z 27006KT 10SM FEW008 BKN025 BKN200 12/08 A3018 RMK AO2 SLP226 T01220083=
200802282148 SPECI KSEA 282148Z VRB04KT 10SM FEW007 BKN025 BKN200 12/08 A3018 RMK AO2=
200802282148 SPECI KSEA 282148Z VRB04KT 10SM FEW007 BKN025 BKN200 12/08 A3018 RMK AO2=
200802282105 SPECI KSEA 282105Z 01004KT 10SM SCT007 BKN030 11/08 A3019 RMK AO2=
200802282105 SPECI KSEA 282105Z 01004KT 10SM SCT007 BKN030 11/08 A3019 RMK AO2=
200802282053 METAR KSEA 282053Z 02003KT 7SM FEW005 SCT009 BKN029 11/08 A3020 RMK AO2 RAB02E13 SLP233 P0000 60000 T01060078 58010=
200802282001 SPECI KSEA 282001Z 25003KT 4SM BR FEW005 OVC009 10/08 A3023 RMK AO2=
200802282001 SPECI KSEA 282001Z 25003KT 4SM BR FEW005 OVC009 10/08 A3023 RMK AO2=
200802281953 METAR KSEA 281953Z 00000KT 5SM BR SCT005 OVC011 10/08 A3023 RMK AO2 RAE17 SLP243 P0000 T01000078=
200802281940 SPECI KSEA 281940Z 00000KT 5SM BR SCT005 OVC011 09/07 A3023 RMK AO2 RAE17 P0000=
200802281940 SPECI KSEA 281940Z 00000KT 5SM BR SCT005 OVC011 09/07 A3023 RMK AO2 RAE17 P0000=
200802281853 METAR KSEA 281853Z 00000KT 4SM R16C/6000VP6000FT -RA BR BKN007 OVC011 09/08 A3023 RMK AO2 RAB44 SLP245 P0000 T00940078=
200802281753 METAR KSEA 281753Z 00000KT 7SM BKN007 OVC012 09/07 A3023 RMK AO2 SLP244 60001 T00940072 10094 20078 51006=
200802281653 METAR KSEA 281653Z 00000KT 3SM BR FEW003 BKN005 OVC017 09/07 A3023 RMK AO2 SFC VIS 4 DZE28 SLP243 P0000 T00890072=
200802281630 SPECI KSEA 281630Z 00000KT 3SM BR SCT003 BKN007 OVC017 08/07 A3022 RMK AO2 DZE28 P0000=
200802281630 SPECI KSEA 281630Z 00000KT 3SM BR SCT003 BKN007 OVC017 08/07 A3022 RMK AO2 DZE28 P0000=
200802281553 METAR KSEA 281553Z 00000KT 1SM R16C/P6000FT -DZ BR OVC003 08/07 A3022 RMK AO2 SLP242 P0001 T00830072=
200802281545 SPECI KSEA 281545Z 00000KT 1SM R16C/4500VP6000FT BR OVC003 08/07 A3022 RMK AO2 DZE45 P0001=
200802281545 SPECI KSEA 281545Z 00000KT 1SM R16C/4500VP6000FT BR OVC003 08/07 A3022 RMK AO2 DZE45 P0001=
200802281453 METAR KSEA 281453Z 27004KT 3/4SM R16C/P6000FT -DZ BR OVC003 08/07 A3021 RMK AO2 TWR VIS 1 CIG 001V006 SLP238 P0000 60000 T00780072 56002=
200802281451 SPECI KSEA 281451Z 27004KT 1/2SM R16C/P6000FT -DZ FG BKN003 OVC010 08/07 A3021 RMK AO2 TWR VIS 1 P0000=
200802281451 SPECI KSEA 281451Z 27004KT 1/2SM R16C/P6000FT -DZ FG BKN003 OVC010 08/07 A3021 RMK AO2 TWR VIS 1 P0000=
200802281432 SPECI KSEA 281432Z 00000KT 1SM R16C/5000VP6000FT -DZ BR BKN003 OVC010 08/07 A3020 RMK AO2 P0000=
200802281432 SPECI KSEA 281432Z 00000KT 1SM R16C/5000VP6000FT -DZ BR BKN003 OVC010 08/07 A3020 RMK AO2 P0000=
200802281400 SPECI KSEA 281400Z 22003KT 2SM -DZ BR BKN006 OVC010 08/07 A3021 RMK AO2 P0000=
200802281400 SPECI KSEA 281400Z 22003KT 2SM -DZ BR BKN006 OVC010 08/07 A3021 RMK AO2 P0000=
200802281353 METAR KSEA 281353Z 00000KT 1 1/2SM -DZ BR BKN004 OVC010 08/07 A3021 RMK AO2 SLP238 P0000 T00830072=
200802281315 SPECI KSEA 281315Z 00000KT 1 1/2SM -DZ BR BKN004 OVC010 08/07 A3022 RMK AO2 P0000=
200802281315 SPECI KSEA 281315Z 00000KT 1 1/2SM -DZ BR BKN004 OVC010 08/07 A3022 RMK AO2 P0000=
200802281309 SPECI KSEA 281309Z 00000KT 3SM -DZ BR BKN004 OVC010 08/07 A3022 RMK AO2 P0000=
200802281309 SPECI KSEA 281309Z 00000KT 3SM -DZ BR BKN004 OVC010 08/07 A3022 RMK AO2 P0000=
200802281253 METAR KSEA 281253Z 21004KT 8SM -DZ OVC006 08/07 A3022 RMK AO2 DZB50 CIG 004V010 SLP240 P0000 T00830072=
200802281153 METAR KSEA 281153Z 22005KT 10SM BKN008 OVC012 08/07 A3023 RMK AO2 SLP243 70008 T00830072 10089 20083 58001=
200802281122 SPECI KSEA 281122Z 21005KT 10SM BKN008 OVC012 08/07 A3023 RMK AO2=
200802281122 SPECI KSEA 281122Z 21005KT 10SM BKN008 OVC012 08/07 A3023 RMK AO2=
200802281053 METAR KSEA 281053Z 22006KT 10SM SCT004 OVC010 09/07 A3023 RMK AO2 SLP244 T00890072=
200802281037 SPECI KSEA 281037Z 20005KT 10SM SCT004 OVC010 09/07 A3023 RMK AO2=
200802281037 SPECI KSEA 281037Z 20005KT 10SM SCT004 OVC010 09/07 A3023 RMK AO2=
200802280953 METAR KSEA 280953Z 21005KT 10SM SCT003 BKN008 OVC012 09/07 A3023 RMK AO2 SLP245 T00890072=
200802280905 SPECI KSEA 280905Z 20007KT 6SM BR BKN005 BKN010 OVC015 08/08 A3023 RMK AO2=
200802280905 SPECI KSEA 280905Z 20007KT 6SM BR BKN005 BKN010 OVC015 08/08 A3023 RMK AO2=
200802280853 METAR KSEA 280853Z 20007KT 1SM BR BKN003 OVC015 08/08 A3023 RMK AO2 SFC VIS 4 SLP244 VIS S 2 T00830078 50001=
200802280840 SPECI KSEA 280840Z 20005KT 1SM BR BKN003 OVC015 08/08 A3023 RMK AO2 SFC VIS 5 VIS S 2=
200802280840 SPECI KSEA 280840Z 20005KT 1SM BR BKN003 OVC015 08/08 A3023 RMK AO2 SFC VIS 5 VIS S 2=
200802280753 METAR KSEA 280753Z 22007KT 10SM BKN005 OVC015 09/08 A3024 RMK AO2 CIG 002V008 SLP247 T00890078 401170056=
200802280653 METAR KSEA 280653Z 20006KT 10SM BKN005 OVC017 09/08 A3023 RMK AO2 CIG 004V008 SLP244 T00890078=
200802280553 METAR KSEA 280553Z 20007KT 10SM BKN005 OVC010 09/08 A3023 RMK AO2 CIG 002V007 SLP243 T00890078 10117 20083 55000=
200802280543 SPECI KSEA 280543Z 21008KT 10SM BKN005 OVC010 09/08 A3022 RMK AO2=
200802280543 SPECI KSEA 280543Z 21008KT 10SM BKN005 OVC010 09/08 A3022 RMK AO2=
200802280453 METAR KSEA 280453Z 21008KT 10SM SCT005 BKN011 BKN030 09/07 A3022 RMK AO2 SLP242 T00890072=
200802280435 SPECI KSEA 280435Z 22009KT 10SM FEW005 SCT032 BKN060 09/07 A3022 RMK AO2=
200802280435 SPECI KSEA 280435Z 22009KT 10SM FEW005 SCT032 BKN060 09/07 A3022 RMK AO2=
200802280416 SPECI KSEA 280416Z 21009KT 10SM FEW010 SCT031 OVC060 09/07 A3022 RMK AO2=
200802280416 SPECI KSEA 280416Z 21009KT 10SM FEW010 SCT031 OVC060 09/07 A3022 RMK AO2=
200802280353 METAR KSEA 280353Z 22008KT 10SM FEW011 BKN029 OVC055 09/07 A3022 RMK AO2 SLP242 T00890067=
200802280327 SPECI KSEA 280327Z 18007KT 10SM FEW011 BKN028 OVC060 09/07 A3021 RMK AO2=
200802280327 SPECI KSEA 280327Z 18007KT 10SM FEW011 BKN028 OVC060 09/07 A3021 RMK AO2=
200802280253 METAR KSEA 280253Z 20006KT 10SM FEW030 OVC055 09/07 A3023 RMK AO2 SLP243 T00890067 53006=
200802280153 METAR KSEA 280153Z 22008KT 10SM FEW030 BKN037 OVC080 10/06 A3021 RMK AO2 SLP238 T01000061=
200802280053 METAR KSEA 280053Z 18003KT 10SM BKN030 BKN060 11/06 A3021 RMK AO2 SLP239 T01060061=
200802272353 METAR KSEA 272353Z 21009KT 10SM SCT034 BKN047 BKN060 12/07 A3021 RMK AO2 SLP237 60001 T01170067 10117 20078 58004=
200802272253 METAR KSEA 272253Z 21009KT 10SM FEW030 BKN065 BKN090 11/06 A3021 RMK AO2 SLP239 T01110061=
200802272153 METAR KSEA 272153Z 20007KT 10SM FEW025 BKN070 11/06 A3022 RMK AO2 SLP242 T01110061=
200802272053 METAR KSEA 272053Z 19009KT 10SM FEW025 BKN080 11/06 A3022 RMK AO2 SLP241 60001 T01060056 58009=
200802271953 METAR KSEA 271953Z 17005KT 10SM FEW060 BKN095 BKN200 09/05 A3024 RMK AO2 SLP249 T00940050=
200802271853 METAR KSEA 271853Z 17005KT 10SM FEW010 BKN060 BKN200 08/06 A3025 RMK AO2 RAE09 SLP251 P0001 T00830056=
200802271753 METAR KSEA 271753Z 13006KT 10SM -RA FEW036 BKN048 OVC070 08/05 A3025 RMK AO2 SLP250 P0002 60007 T00780050 10078 20061 51008=
200802271653 METAR KSEA 271653Z 12006KT 7SM -RA BKN037 OVC048 08/04 A3024 RMK AO2 SLP249 P0002 T00780044=
200802271553 METAR KSEA 271553Z 22007KT 7SM -RA BKN035 OVC048 07/04 A3025 RMK AO2 RAB23 SLP250 P0003 T00670044=
200802271453 METAR KSEA 271453Z 20005KT 10SM OVC085 07/03 A3022 RMK AO2 SLP241 T00720028 51014=
200802271353 METAR KSEA 271353Z 14009KT 10SM FEW080 SCT120 OVC200 06/03 A3021 RMK AO2 SLP237 T00610028=
200802271253 METAR KSEA 271253Z 16007KT 10SM OVC200 07/04 A3020 RMK AO2 SLP233 T00720039=
200802271153 METAR KSEA 271153Z 17005KT 10SM BKN200 07/03 A3018 RMK AO2 SLP227 T00720033 10094 20056 55007=
200802271053 METAR KSEA 271053Z 13007KT 10SM BKN200 07/03 A3017 RMK AO2 SLP224 T00720033=
200802270953 METAR KSEA 270953Z 15006KT 10SM BKN200 07/03 A3019 RMK AO2 SLP232 T00670033=
200802270853 METAR KSEA 270853Z 17003KT 10SM BKN200 08/03 A3020 RMK AO2 SLP234 T00780028 56008=
200802270753 METAR KSEA 270753Z 16003KT 10SM FEW150 BKN200 08/03 A3020 RMK AO2 SLP234 T00830033 401330039=
200802270653 METAR KSEA 270653Z 14007KT 10SM FEW150 BKN200 09/03 A3021 RMK AO2 SLP238 T00940033=
200802270553 METAR KSEA 270553Z 13006KT 10SM FEW150 BKN200 09/03 A3022 RMK AO2 SLP243 T00890033 10128 20089 58008=
200802270453 METAR KSEA 270453Z 14003KT 10SM SCT150 OVC200 10/02 A3024 RMK AO2 SLP247 T01000022=
200802270353 METAR KSEA 270353Z 13004KT 10SM BKN150 OVC200 10/02 A3024 RMK AO2 SLP250 T01000022=
200802270253 METAR KSEA 270253Z 00000KT 10SM BKN150 OVC200 09/03 A3025 RMK AO2 SLP252 T00940028 55009=
200802270153 METAR KSEA 270153Z 00000KT 10SM SCT120 BKN150 OVC200 10/03 A3025 RMK AO2 SLP251 T01000028=
200802270053 METAR KSEA 270053Z 27003KT 10SM BKN120 BKN150 BKN200 12/04 A3025 RMK AO2 SLP252 T01170044=
200802262353 METAR KSEA 262353Z 00000KT 10SM BKN110 BKN200 12/03 A3028 RMK AO2 SLP261 ACSL SE T01170028 10133 20061 56017=
200802262253 METAR KSEA 262253Z 27003KT 10SM FEW120 BKN180 OVC250 12/04 A3029 RMK AO2 SLP265 ACSL OVR MT RAINIER T01170039=
200802262153 METAR KSEA 262153Z 29005KT 10SM FEW120 SCT180 BKN250 13/05 A3031 RMK AO2 SLP270 ACSL OVR MT RAINIER T01280050=
200802262053 METAR KSEA 262053Z 28005KT 10SM FEW100 SCT180 BKN250 12/04 A3033 RMK AO2 SLP278 T01170044 58016=
200802261953 METAR KSEA 261953Z 00000KT 10SM FEW110 BKN180 BKN250 11/04 A3036 RMK AO2 SLP288 T01060044=
200802261853 METAR KSEA 261853Z 00000KT 10SM FEW110 BKN160 BKN220 08/03 A3036 RMK AO2 SLP290 T00830033=
200802261753 METAR KSEA 261753Z 00000KT 10SM BKN110 BKN200 06/03 A3038 RMK AO2 SLP296 T00610028 10067 20039 55001=
200802261653 METAR KSEA 261653Z 15004KT 10SM BKN100 OVC200 06/03 A3037 RMK AO2 SLP294 T00560033=
200802261553 METAR KSEA 261553Z 00000KT 10SM SCT120 OVC200 06/03 A3038 RMK AO2 SLP297 T00560033=
200802261453 METAR KSEA 261453Z 00000KT 10SM FEW120 BKN200 04/03 A3038 RMK AO2 SLP297 T00440028 55007=
200802261353 METAR KSEA 261353Z 10004KT 10SM SCT120 BKN200 06/02 A3037 RMK AO2 SLP294 T00560022=
200802261253 METAR KSEA 261253Z 12004KT 10SM CLR 04/02 A3038 RMK AO2 SLP297 T00440022=
200802261153 METAR KSEA 261153Z 12004KT 10SM CLR 04/02 A3040 RMK AO2 SLP304 T00440022 10067 20044 58010=
200802261053 METAR KSEA 261053Z 14005KT 10SM CLR 05/03 A3042 RMK AO2 SLP309 T00500028=
200802260953 METAR KSEA 260953Z 12005KT 10SM CLR 06/03 A3043 RMK AO2 SLP314 T00560033=
200802260853 METAR KSEA 260853Z 13003KT 10SM CLR 06/03 A3043 RMK AO2 SLP314 T00560033 55002=
200802260753 METAR KSEA 260753Z 00000KT 10SM CLR 06/03 A3043 RMK AO2 SLP313 T00610033 401280056=
200802260653 METAR KSEA 260653Z 00000KT 10SM FEW085 06/03 A3044 RMK AO2 SLP316 T00610033=
200802260553 METAR KSEA 260553Z 00000KT 10SM FEW085 06/03 A3044 RMK AO2 SLP317 T00610033 10122 20061 53004=
200802260453 METAR KSEA 260453Z 00000KT 10SM FEW040 SCT080 08/04 A3044 RMK AO2 SLP317 T00780039=
200802260353 METAR KSEA 260353Z 17005KT 10SM FEW040 BKN080 08/04 A3043 RMK AO2 SLP312 T00780039=
200802260253 METAR KSEA 260253Z 18003KT 10SM FEW040 BKN080 BKN250 09/04 A3043 RMK AO2 SLP312 T00890044 51013=
200802260153 METAR KSEA 260153Z 22007KT 10SM FEW040 BKN080 BKN250 10/04 A3042 RMK AO2 SLP307 T01000044=
200802260053 METAR KSEA 260053Z 21006KT 10SM FEW030 SCT080 BKN250 11/04 A3041 RMK AO2 SLP305 T01110039=
200802252353 METAR KSEA 252353Z 20006KT 10SM FEW030 SCT080 BKN250 11/03 A3039 RMK AO2 SLP300 T01110033 10128 20083 51002=
200802252253 METAR KSEA 252253Z 21007KT 10SM FEW030 SCT060 SCT250 13/04 A3039 RMK AO2 SLP299 T01280044=
200802252153 METAR KSEA 252153Z 21010KT 10SM SCT028 SCT070 BKN250 11/04 A3039 RMK AO2 SLP300 T01110039=
200802252053 METAR KSEA 252053Z 22011KT 10SM FEW025 BKN250 12/04 A3039 RMK AO2 SLP297 T01220039 51017=
200802251953 METAR KSEA 251953Z 21010KT 10SM FEW022 SCT085 BKN250 11/05 A3038 RMK AO2 SLP294 T01110050=
200802251853 METAR KSEA 251853Z 18010KT 10SM FEW014 SCT085 BKN250 11/05 A3035 RMK AO2 SLP286 T01060050=
200802251753 METAR KSEA 251753Z 19007KT 10SM FEW012 BKN046 BKN250 08/05 A3034 RMK AO2 SLP280 60000 T00830050 10083 20061 53034=
200802251653 METAR KSEA 251653Z 18005KT 10SM SCT044 BKN075 BKN250 08/06 A3030 RMK AO2 RAE17 SLP268 P0000 T00780056=
200802251553 METAR KSEA 251553Z 19008KT 10SM -RA FEW045 BKN070 BKN250 07/05 A3026 RMK AO2 RAB15E25B50 SLP255 P0000 T00720050=
200802251453 METAR KSEA 251453Z 20007KT 10SM OVC049 07/04 A3023 RMK AO2 SLP246 T00720039 51034=
200802251408 SPECI KSEA 251408Z 19006KT 10SM FEW020 BKN049 OVC100 07/03 A3021 RMK AO2=
200802251408 SPECI KSEA 251408Z 19006KT 10SM FEW020 BKN049 OVC100 07/03 A3021 RMK AO2=
200802251353 METAR KSEA 251353Z 19006KT 10SM SCT021 BKN026 OVC080 07/03 A3020 RMK AO2 SLP236 T00670028=
200802251253 METAR KSEA 251253Z 17006KT 10SM BKN050 OVC085 06/03 A3017 RMK AO2 SLP223 T00610028=
200802251153 METAR KSEA 251153Z 14004KT 10SM SCT060 BKN090 OVC120 06/03 A3013 RMK AO2 SLP210 T00610033 10083 20056 51039=
200802251053 METAR KSEA 251053Z 19004KT 10SM FEW060 SCT075 BKN120 06/03 A3009 RMK AO2 SLP197 T00610033=
200802250953 METAR KSEA 250953Z 00000KT 10SM SCT120 07/03 A3006 RMK AO2 SLP185 T00670028=
200802250853 METAR KSEA 250853Z 00000KT 10SM FEW085 SCT120 07/02 A3002 RMK AO2 SLP171 T00670017 53034=
200802250753 METAR KSEA 250753Z 04005KT 10SM BKN095 OVC120 08/02 A2998 RMK AO2 SLP159 T00830017 401330050=
200802250653 METAR KSEA 250653Z 36005KT 10SM BKN090 08/02 A2995 RMK AO2 SLP149 T00780022=
200802250553 METAR KSEA 250553Z 36005KT 10SM BKN090 08/02 A2991 RMK AO2 SLP138 T00830022 10133 20083 53030=
200802250453 METAR KSEA 250453Z 03005KT 10SM BKN095 09/02 A2988 RMK AO2 SLP125 T00940017=
200802250353 METAR KSEA 250353Z 36006KT 10SM BKN100 BKN200 08/02 A2985 RMK AO2 SLP117 T00830017=
200802250253 METAR KSEA 250253Z 35006KT 10SM SCT100 SCT200 08/02 A2982 RMK AO2 SLP107 T00830022 53028=
200802250153 METAR KSEA 250153Z 31005KT 10SM CLR SCT200 09/02 A2978 RMK AO2 SLP094 T00940022=
200802250053 METAR KSEA 250053Z 34009KT 10SM FEW050 SCT095 SCT200 12/02 A2976 RMK AO2 SLP083 T01220022=
200802242353 METAR KSEA 242353Z 35008KT 10SM FEW050 SCT100 BKN200 13/02 A2974 RMK AO2 SLP077 T01330022 10133 20072 53006=
200802242253 METAR KSEA 242253Z 36009KT 10SM FEW100 13/01 A2973 RMK AO2 SLP073 T01330011=
200802242153 METAR KSEA 242153Z 01010KT 10SM BKN110 12/02 A2972 RMK AO2 SLP071 T01220017=
200802242053 METAR KSEA 242053Z 34009KT 10SM SCT100 12/03 A2972 RMK AO2 SLP071 T01170028 58005=
200802241953 METAR KSEA 241953Z 01008KT 10SM SCT065 BKN100 11/02 A2973 RMK AO2 SLP074 T01060022=
200802241853 METAR KSEA 241853Z 35008KT 10SM BKN110 08/03 A2973 RMK AO2 SLP076 T00830028=
200802241753 METAR KSEA 241753Z 36010KT 10SM BKN095 07/03 A2973 RMK AO2 SLP077 T00720028 10072 20056 51011=
200802241653 METAR KSEA 241653Z 03011KT 10SM OVC046 06/02 A2973 RMK AO2 SLP074 T00610022=
200802241553 METAR KSEA 241553Z 03012KT 10SM OVC060 06/02 A2972 RMK AO2 SLP071 T00560022=
200802241453 METAR KSEA 241453Z 35007KT 10SM SCT060 OVC090 06/02 A2970 RMK AO2 SLP066 T00560022 53010=
200802241353 METAR KSEA 241353Z 04009KT 10SM SCT095 BKN120 OVC200 06/02 A2968 RMK AO2 SLP060 T00560022=
200802241253 METAR KSEA 241253Z 03011KT 10SM OVC120 06/02 A2968 RMK AO2 SLP056 T00560022=
200802241153 METAR KSEA 241153Z 02012KT 10SM FEW120 OVC200 06/02 A2967 RMK AO2 SLP055 T00610022 10067 20050 58007=
200802241053 METAR KSEA 241053Z 02014KT 10SM FEW120 OVC200 06/02 A2968 RMK AO2 SLP058 T00610017=
200802240953 METAR KSEA 240953Z 03011KT 10SM FEW120 BKN200 06/01 A2970 RMK AO2 SLP063 T00610011=
200802240853 METAR KSEA 240853Z 02010KT 10SM FEW120 BKN200 06/02 A2969 RMK AO2 SLP062 T00560017 58020=
200802240753 METAR KSEA 240753Z 02013KT 10SM FEW120 SCT200 06/02 A2971 RMK AO2 SLP068 T00610017 401220033=
200802240653 METAR KSEA 240653Z 03013KT 10SM SCT120 SCT200 07/02 A2974 RMK AO2 SLP077 T00670017=
200802240553 METAR KSEA 240553Z 02016G21KT 10SM SCT100 BKN200 07/02 A2975 RMK AO2 SLP083 T00670017 10117 20061 56016=
200802240453 METAR KSEA 240453Z 02012KT 10SM FEW080 BKN200 07/02 A2976 RMK AO2 SLP087 T00720017=
200802240353 METAR KSEA 240353Z 02016KT 10SM FEW080 SCT200 08/02 A2979 RMK AO2 SLP094 T00780017=
200802240253 METAR KSEA 240253Z 01014KT 10SM FEW080 SCT200 08/02 A2980 RMK AO2 SLP100 T00780022 56018=
200802240153 METAR KSEA 240153Z 36011KT 10SM FEW080 SCT200 09/01 A2981 RMK AO2 SLP104 T00890011=
200802240053 METAR KSEA 240053Z 36013KT 10SM FEW100 SCT200 11/M01 A2982 RMK AO2 SLP107 T01061006=
200802232353 METAR KSEA 232353Z 35013KT 10SM FEW100 12/00 A2986 RMK AO2 SLP117 T01170000 10122 20083 58031=
200802232253 METAR KSEA 232253Z 35008KT 10SM FEW060 SCT120 SCT200 12/01 A2989 RMK AO2 SLP128 CAP CLD OVR MT RAINIER T01220006=
200802232153 METAR KSEA 232153Z 35007KT 10SM FEW080 12/00 A2992 RMK AO2 SLP138 CAP CLD OVR MT RAINIER T01170000=
200802232053 METAR KSEA 232053Z 36005KT 10SM CLR 11/00 A2995 RMK AO2 SLP149 T01110000 58019=
200802231953 METAR KSEA 231953Z VRB04KT 10SM CLR 10/01 A2998 RMK AO2 SLP159 T01000006=
200802231853 METAR KSEA 231853Z 28005KT 10SM FEW025 09/02 A3000 RMK AO2 SLP167 T00940017=
200802231753 METAR KSEA 231753Z 00000KT 10SM FEW050 08/01 A3000 RMK AO2 SLP169 T00830011 10083 20033 58004=
200802231653 METAR KSEA 231653Z 14006KT 10SM FEW050 SCT100 06/01 A3002 RMK AO2 SLP173 T00610006=
200802231553 METAR KSEA 231553Z 12005KT 10SM FEW045 04/01 A3003 RMK AO2 SLP177 T00440006=
200802231453 METAR KSEA 231453Z 22006KT 10SM FEW041 SCT200 03/00 A3002 RMK AO2 SLP173 T00330000 53005=
200802231353 METAR KSEA 231353Z 00000KT 10SM FEW060 SCT200 04/M01 A3001 RMK AO2 SLP169 T00391006=
200802231253 METAR KSEA 231253Z 21004KT 10SM FEW047 SCT060 SCT200 05/01 A3000 RMK AO2 SLP166 T00500006=
200802231153 METAR KSEA 231153Z 20006KT 10SM SCT040 BKN049 BKN060 06/01 A3000 RMK AO2 SLP167 60000 T00610011 10067 20044 51010=
200802231053 METAR KSEA 231053Z COR 21005KT 10SM BKN038 BKN045 OVC060 07/01 A3000 RMK AO2 RAE10 SLP166 P0000 T00670011=
200802230953 METAR KSEA 230953Z 19004KT 10SM -RA SCT043 OVC060 06/01 A2999 RMK AO2 RAB41 SLP164 P0000 T00610006=
200802230853 METAR KSEA 230853Z 18005KT 10SM BKN080 BKN200 06/01 A2997 RMK AO2 SLP157 T00560011 53014=
200802230753 METAR KSEA 230753Z 16005KT 10SM SCT070 SCT200 04/01 A2996 RMK AO2 SLP151 T00440006 401440028=
200802230653 METAR KSEA 230653Z 20007KT 10SM FEW070 SCT200 06/02 A2995 RMK AO2 SLP148 T00610017=
200802230553 METAR KSEA 230553Z 20008KT 10SM FEW050 SCT100 07/03 A2993 RMK AO2 SLP143 T00670028 10133 20067 51029=
200802230453 METAR KSEA 230453Z 22011KT 10SM FEW025 SCT050 BKN090 08/03 A2991 RMK AO2 SLP135 T00780033=
200802230353 METAR KSEA 230353Z 21011KT 10SM SCT044 BKN075 08/03 A2988 RMK AO2 SLP125 T00830028=
200802230253 METAR KSEA 230253Z 23010KT 10SM FEW070 09/03 A2984 RMK AO2 SLP114 T00890028 53023=
200802230153 METAR KSEA 230153Z 24010KT 10SM FEW080 SCT120 BKN200 09/04 A2982 RMK AO2 SLP105 T00890039=
200802230053 METAR KSEA 230053Z 24010G19KT 10SM SCT075 BKN095 BKN200 12/01 A2979 RMK AO2 SLP095 T01170011=
200802222353 METAR KSEA 222353Z 25006KT 10SM SCT070 BKN090 BKN200 13/03 A2978 RMK AO2 SLP090 T01330033 10144 20106 53004=
200802222253 METAR KSEA 222253Z 23007KT 10SM FEW050 SCT095 SCT200 12/03 A2977 RMK AO2 SLP087 SH DSNT SE T01220033=
200802222153 METAR KSEA 222153Z 17008KT 10SM FEW095 SCT200 13/03 A2976 RMK AO2 SLP086 T01330028=
200802222053 METAR KSEA 222053Z 22005KT 10SM FEW090 SCT200 14/04 A2976 RMK AO2 SLP085 T01390039 50003=
200802221953 METAR KSEA 221953Z 22007KT 10SM FEW080 SCT200 13/03 A2977 RMK AO2 SLP086 T01330033=
200802221853 METAR KSEA 221853Z VRB03KT 10SM FEW050 SCT200 12/03 A2976 RMK AO2 SLP085 T01220028=
200802221753 METAR KSEA 221753Z 15006KT 10SM FEW050 SCT080 SCT200 11/04 A2975 RMK AO2 SLP083 T01060039 10106 20028 51014=
200802221653 METAR KSEA 221653Z 12006KT 10SM FEW050 SCT080 BKN200 08/03 A2974 RMK AO2 SLP080 T00830028=
200802221553 METAR KSEA 221553Z 13003KT 10SM FEW060 SCT080 BKN200 04/02 A2973 RMK AO2 SLP076 T00440022=
200802221453 METAR KSEA 221453Z 00000KT 10SM BKN065 BKN200 03/02 A2971 RMK AO2 SLP070 T00330022 53011=
200802221353 METAR KSEA 221353Z 00000KT 8SM BKN075 BKN200 04/02 A2970 RMK AO2 SLP064 T00390022=
200802221253 METAR KSEA 221253Z 00000KT 10SM SCT070 SCT200 04/02 A2969 RMK AO2 SLP061 T00440022=
200802221153 METAR KSEA 221153Z 09003KT 10SM SCT065 BKN200 07/02 A2968 RMK AO2 SLP057 60001 70001 T00670022 10067 20039 58005=
200802221053 METAR KSEA 221053Z 06003KT 9SM SCT075 BKN100 OVC120 06/04 A2968 RMK AO2 RAE17 SLP058 P0000 T00560039=
200802220953 METAR KSEA 220953Z 07004KT 7SM -RA OVC055 06/03 A2970 RMK AO2 RAE12B40 SLP064 P0001 T00560033=
200802220853 METAR KSEA 220853Z 04003KT 8SM -RA SCT045 OVC060 06/03 A2969 RMK AO2 RAB29 SLP063 P0000 60000 T00560033 56001=
200802220753 METAR KSEA 220753Z 00000KT 10SM BKN080 BKN200 05/03 A2970 RMK AO2 SLP064 T00500028 401170011=
200802220653 METAR KSEA 220653Z 34003KT 10SM BKN090 BKN200 05/03 A2969 RMK AO2 SLP063 T00500028=
200802220553 METAR KSEA 220553Z 00000KT 10SM SCT090 05/02 A2970 RMK AO2 SLP065 T00500022 10111 20050 53008=
200802220453 METAR KSEA 220453Z 00000KT 10SM BKN085 07/03 A2969 RMK AO2 SLP061 T00720028=
200802220353 METAR KSEA 220353Z 02009KT 10SM BKN085 08/02 A2968 RMK AO2 SLP059 T00780022=
200802220253 METAR KSEA 220253Z 01008KT 10SM FEW100 SCT250 07/03 A2967 RMK AO2 SLP057 T00670028 55008=
200802220153 METAR KSEA 220153Z 35010KT 10SM FEW100 SCT250 08/03 A2967 RMK AO2 SLP055 T00780033=
200802220053 METAR KSEA 220053Z 35008KT 10SM FEW045 SCT100 SCT250 10/04 A2967 RMK AO2 SLP056 T01000039=
200802212353 METAR KSEA 212353Z 35008KT 10SM FEW045 SCT100 SCT250 11/04 A2970 RMK AO2 SLP064 T01110039 10117 20039 56029=
200802212253 METAR KSEA 212253Z 36007KT 10SM FEW095 SCT250 11/03 A2972 RMK AO2 SLP073 T01110028=
200802212153 METAR KSEA 212153Z 35007KT 10SM FEW095 SCT200 11/03 A2975 RMK AO2 SLP083 T01060028=
200802212053 METAR KSEA 212053Z 36005KT 10SM FEW035 BKN095 BKN200 08/03 A2978 RMK AO2 SLP093 T00830033 58020=
200802211953 METAR KSEA 211953Z 34003KT 6SM HZ FEW004 BKN090 BKN200 06/02 A2981 RMK AO2 SLP104 T00610022 $=
200802211853 METAR KSEA 211853Z 33004KT 5SM BR FEW003 BKN095 BKN200 04/03 A2983 RMK AO2 SLP110 VIS LWR S-W T00440033=
200802211849 SPECI KSEA 211849Z 33005KT 5SM BR FEW003 BKN095 BKN200 04/03 A2983 RMK AO2 VIS LWR S-W=
200802211849 SPECI KSEA 211849Z 33005KT 5SM BR FEW003 BKN095 BKN200 04/03 A2983 RMK AO2 VIS LWR S-W=
200802211816 SPECI KSEA 211816Z 04003KT 1 1/2SM BR SCT002 BKN095 BKN200 04/03 A2984 RMK AO2 SFC VIS 2 VIS E-SE 1=
200802211816 SPECI KSEA 211816Z 04003KT 1 1/2SM BR SCT002 BKN095 BKN200 04/03 A2984 RMK AO2 SFC VIS 2 VIS E-SE 1=
200802211804 SPECI KSEA 211804Z 02004KT 1 1/2SM BR BKN002 BKN120 BKN200 04/03 A2984 RMK AO2 VIS NE-SE 3/4=
200802211804 SPECI KSEA 211804Z 02004KT 1 1/2SM BR BKN002 BKN120 BKN200 04/03 A2984 RMK AO2 VIS NE-SE 3/4=
200802211753 METAR KSEA 211753Z 01005KT 1/4SM R16C/3500VP6000FT FG BKN002 BKN200 04/03 A2984 RMK AO2 SFC VIS 3/4 SLP115 T00390028 10039 20011 58002=
200802211736 SPECI KSEA 211736Z 33004KT 1/4SM R16C/1200V2600FT FG VV001 03/03 A2984 RMK AO2 TWR VIS 1/4=
200802211736 SPECI KSEA 211736Z 33004KT 1/4SM R16C/1200V2600FT FG VV001 03/03 A2984 RMK AO2 TWR VIS 1/4=
200802211730 SPECI KSEA 211730Z 33005KT 1/4SM R16C/1000V1600FT FG VV001 03/03 A2985 RMK AO2=
200802211730 SPECI KSEA 211730Z 33005KT 1/4SM R16C/1000V1600FT FG VV001 03/03 A2985 RMK AO2=
200802211653 METAR KSEA 211653Z 35005KT M1/4SM R16C/0600V1000FT FG VV001 03/02 A2985 RMK AO2 TWR VIS 1/4 SLP114 T00280022=
200802211553 METAR KSEA 211553Z 35004KT M1/4SM R16C/0400V0800FT FG VV001 03/02 A2985 RMK AO2 TWR VIS 1/4 SLP117 T00280022=
200802211511 SPECI KSEA 211511Z 31003KT M1/4SM R16C/0500V0600FT FG VV001 03/03 A2985 RMK AO2 TWR VIS 1/4=
200802211511 SPECI KSEA 211511Z 31003KT M1/4SM R16C/0500V0600FT FG VV001 03/03 A2985 RMK AO2 TWR VIS 1/4=
200802211453 METAR KSEA 211453Z 00000KT 1/4SM R16C/0500V0600FT FG VV001 03/02 A2985 RMK AO2 SLP116 T00280022 56010=
200802211441 SPECI KSEA 211441Z 32003KT 1/4SM R16C/0700V1600FT FG VV001 03/02 A2985 RMK AO2 TWR VIS 5 $=
200802211441 SPECI KSEA 211441Z 32003KT 1/4SM R16C/0700V1600FT FG VV001 03/02 A2985 RMK AO2 TWR VIS 5 $=
200802211425 SPECI KSEA 211425Z 33004KT 1/4SM R16C/1400V2800FT FG VV001 03/02 A2985 RMK AO2 TWR VIS 5 $=
200802211425 SPECI KSEA 211425Z 33004KT 1/4SM R16C/1400V2800FT FG VV001 03/02 A2985 RMK AO2 TWR VIS 5 $=
200802211413 SPECI KSEA 211413Z 33003KT 1/4SM R16C/0600V1200FT FG VV001 03/02 A2985 RMK AO2 TWR VIS 5=
200802211413 SPECI KSEA 211413Z 33003KT 1/4SM R16C/0600V1200FT FG VV001 03/02 A2985 RMK AO2 TWR VIS 5=
200802211407 SPECI KSEA 211407Z 32003KT 1/2SM R16C/0700V1400FT FG BKN001 02/01 A2985 RMK AO2=
200802211407 SPECI KSEA 211407Z 32003KT 1/2SM R16C/0700V1400FT FG BKN001 02/01 A2985 RMK AO2=
200802211353 METAR KSEA 211353Z 00000KT 10SM FEW200 02/01 A2985 RMK AO2 SLP117 T00170006=
200802211253 METAR KSEA 211253Z 00000KT 10SM FEW200 02/01 A2987 RMK AO2 SLP121 T00170006=
200802211153 METAR KSEA 211153Z 00000KT 10SM CLR 03/01 A2988 RMK AO2 SLP126 T00280006 10067 20022 58013=
200802211053 METAR KSEA 211053Z 00000KT 10SM CLR 03/01 A2989 RMK AO2 SLP131 T00280011=
200802210953 METAR KSEA 210953Z 00000KT 10SM CLR 04/02 A2991 RMK AO2 SLP136 T00390017=
200802210853 METAR KSEA 210853Z 00000KT 10SM CLR 04/02 A2992 RMK AO2 SLP139 T00390017 56008=
200802210753 METAR KSEA 210753Z 13006KT 10SM CLR 04/02 A2993 RMK AO2 SLP142 T00440017 401170044=
200802210653 METAR KSEA 210653Z 00000KT 10SM CLR 06/02 A2993 RMK AO2 SLP144 T00560017=
200802210553 METAR KSEA 210553Z 00000KT 10SM CLR 06/02 A2994 RMK AO2 SLP148 T00610022 10117 20061 56007=
200802210453 METAR KSEA 210453Z 00000KT 10SM SCT039 08/02 A2994 RMK AO2 SLP148 T00780017=
200802210353 METAR KSEA 210353Z 00000KT 10SM FEW200 08/02 A2995 RMK AO2 SLP151 T00780022=
200802210253 METAR KSEA 210253Z 12003KT 10SM FEW045 SCT250 08/02 A2996 RMK AO2 SLP154 T00830017 58004=
200802210153 METAR KSEA 210153Z 00000KT 10SM SCT045 SCT250 09/02 A2997 RMK AO2 SLP157 T00940017=
200802210053 METAR KSEA 210053Z 00000KT 10SM SCT044 BKN250 11/03 A2997 RMK AO2 SLP156 T01060028=
200802202353 METAR KSEA 202353Z 23005KT 10SM SCT033 SCT250 11/03 A2997 RMK AO2 SLP157 T01110028 10117 20078 56015=
200802202253 METAR KSEA 202253Z 21005KT 10SM FEW035 SCT250 11/03 A2999 RMK AO2 SLP162 T01110028=
200802202153 METAR KSEA 202153Z 25004KT 10SM FEW034 BKN250 11/04 A3000 RMK AO2 SLP167 T01110044=
200802202053 METAR KSEA 202053Z 27005KT 10SM FEW034 BKN250 10/04 A3002 RMK AO2 SLP172 T01000044 58014=
200802201953 METAR KSEA 201953Z 26005KT 10SM FEW020 BKN032 BKN250 09/04 A3004 RMK AO2 SLP180 T00890044=
200802201853 METAR KSEA 201853Z 21003KT 10SM FEW020 SCT039 BKN250 09/04 A3005 RMK AO2 SLP184 T00940044=
200802201753 METAR KSEA 201753Z 18003KT 10SM FEW012 SCT020 BKN042 08/04 A3006 RMK AO2 SLP187 T00780044 10083 20044 55002=
200802201744 SPECI KSEA 201744Z 23003KT 10SM FEW010 BKN020 BKN042 08/04 A3006 RMK AO2=
200802201744 SPECI KSEA 201744Z 23003KT 10SM FEW010 BKN020 BKN042 08/04 A3006 RMK AO2=
200802201653 METAR KSEA 201653Z 22003KT 10SM FEW010 SCT028 BKN042 08/05 A3006 RMK AO2 SLP186 T00780050=
200802201553 METAR KSEA 201553Z 12003KT 10SM FEW010 BKN044 07/04 A3006 RMK AO2 SLP186 T00670044=
200802201453 METAR KSEA 201453Z 15005KT 10SM FEW010 BKN044 BKN100 06/04 A3007 RMK AO2 SLP190 T00610044 50000=
200802201353 METAR KSEA 201353Z 00000KT 10SM BKN044 05/04 A3008 RMK AO2 SLP194 T00500039=
200802201253 METAR KSEA 201253Z 19004KT 9SM BKN046 06/04 A3006 RMK AO2 SLP189 T00560044=
200802201153 METAR KSEA 201153Z 13004KT 9SM FEW022 OVC050 07/04 A3007 RMK AO2 SLP189 T00670044 10089 20061 50001=
200802201053 METAR KSEA 201053Z 14004KT 10SM FEW038 OVC049 07/06 A3007 RMK AO2 SLP190 T00720056=
200802201025 SPECI KSEA 201025Z 16004KT 10SM FEW016 BKN030 OVC038 07/05 A3007 RMK AO2=
200802201025 SPECI KSEA 201025Z 16004KT 10SM FEW016 BKN030 OVC038 07/05 A3007 RMK AO2=
200802200953 METAR KSEA 200953Z 18005KT 10SM FEW016 OVC028 08/04 A3007 RMK AO2 SLP188 T00780044=
200802200904 SPECI KSEA 200904Z 22005KT 10SM SCT020 BKN027 OVC033 08/04 A3007 RMK AO2=
200802200904 SPECI KSEA 200904Z 22005KT 10SM SCT020 BKN027 OVC033 08/04 A3007 RMK AO2=
200802200853 METAR KSEA 200853Z 22003KT 10SM SCT026 OVC035 08/04 A3006 RMK AO2 SLP189 T00780039 51003=
200802200753 METAR KSEA 200753Z 00000KT 10SM OVC039 09/03 A3006 RMK AO2 SLP188 T00890028 401060022=
200802200653 METAR KSEA 200653Z 18003KT 10SM FEW043 OVC055 09/02 A3007 RMK AO2 SLP189 T00890022=
200802200553 METAR KSEA 200553Z 16003KT 10SM OVC050 09/02 A3005 RMK AO2 SLP185 T00890022 10106 20083 53016=
200802200453 METAR KSEA 200453Z 17004KT 10SM BKN055 OVC100 09/02 A3004 RMK AO2 SLP179 T00890017=
200802200353 METAR KSEA 200353Z 15005KT 10SM SCT055 OVC100 09/02 A3002 RMK AO2 SLP172 T00940017=
200802200253 METAR KSEA 200253Z 14006KT 10SM SCT060 BKN120 OVC220 09/01 A3001 RMK AO2 SLP170 T00940011 53009=
200802200153 METAR KSEA 200153Z 00000KT 10SM BKN095 OVC220 09/01 A3000 RMK AO2 SLP166 T00940011=
200802200053 METAR KSEA 200053Z 21003KT 10SM SCT110 BKN250 10/02 A2999 RMK AO2 SLP163 T01000022=
200802192353 METAR KSEA 192353Z 18005KT 10SM SCT150 BKN250 10/02 A2998 RMK AO2 SLP160 T01000017 10106 20028 53001=
200802192253 METAR KSEA 192253Z 18005KT 10SM FEW180 BKN250 10/04 A2997 RMK AO2 SLP159 T01000044=
200802192153 METAR KSEA 192153Z 27005KT 10SM FEW180 SCT250 11/05 A2997 RMK AO2 SLP158 T01060050=
200802192053 METAR KSEA 192053Z 00000KT 7SM FEW180 07/03 A2998 RMK AO2 SLP159 T00720033 58006=
200802192017 SPECI KSEA 192017Z 29005KT 4SM BR FEW001 SCT004 SCT150 06/04 A2998 RMK AO2 $=
200802192017 SPECI KSEA 192017Z 29005KT 4SM BR FEW001 SCT004 SCT150 06/04 A2998 RMK AO2 $=
200802192001 SPECI KSEA 192001Z 00000KT 1 1/4SM BR FEW001 BKN003 05/03 A2998 RMK AO2 SFC VIS 1 1/2=
200802192001 SPECI KSEA 192001Z 00000KT 1 1/4SM BR FEW001 BKN003 05/03 A2998 RMK AO2 SFC VIS 1 1/2=
200802191958 SPECI KSEA 191958Z 24003KT 1/2SM FG FEW001 OVC003 05/03 A2998 RMK AO2 SFC VIS 1 1/4=
200802191958 SPECI KSEA 191958Z 24003KT 1/2SM FG FEW001 OVC003 05/03 A2998 RMK AO2 SFC VIS 1 1/4=
200802191953 METAR KSEA 191953Z 00000KT M1/4SM FG SCT001 OVC003 05/03 A2998 RMK AO2 SFC VIS 1 1/4 SLP163 T00510033=
200802191853 METAR KSEA 191853Z 13005KT M1/4SM R16C/1400V3000FT FG OVC001 04/03 A2999 RMK AO2 SFC VIS 1/2 SLP165 T00360027=
200802191753 METAR KSEA 191753Z 14004KT M1/4SM R16C/4500VP6000FT FG OVC001 03/02 A2999 RMK AO2 SFC VIS 1/2 SLP166 T00280022 10033 20022 52018=
200802191712 SPECI KSEA 191712Z 18004KT M1/4SM R16C/1400V2600FT FG VV001 03/02 A2998 RMK AO2 SFC VIS 1/4=
200802191712 SPECI KSEA 191712Z 18004KT M1/4SM R16C/1400V2600FT FG VV001 03/02 A2998 RMK AO2 SFC VIS 1/4=
200802191653 METAR KSEA 191653Z 18004KT M1/4SM R16C/1000V1200FT FG VV001 03/02 A2998 RMK AO2 SLP161 T00280022=
200802191553 METAR KSEA 191553Z 20004KT M1/4SM R16C/0700V0800FT FG VV001 02/02 A2996 RMK AO2 SLP152 T00240021=
200802191453 METAR KSEA 191453Z 23005KT M1/4SM R16C/0600V0700FT FG VV001 03/03 A2994 RMK AO2 SLP146 T00280028 53004 $=
200802191436 SPECI KSEA 191436Z 23006KT M1/4SM R16C/0700V0800FT FG VV001 03/03 A2994 RMK AO2 $=
200802191436 SPECI KSEA 191436Z 23006KT M1/4SM R16C/0700V0800FT FG VV001 03/03 A2994 RMK AO2 $=
200802191425 SPECI KSEA 191425Z 22006KT 1/4SM R16C/0700V1000FT FG VV001 03/03 A2994 RMK AO2 $=
200802191425 SPECI KSEA 191425Z 22006KT 1/4SM R16C/0700V1000FT FG VV001 03/03 A2994 RMK AO2 $=
200802191353 METAR KSEA 191353Z 21004KT M1/4SM R16C/0600V0700FT FG VV001 03/03 A2993 RMK AO2 SLP142 T00330033 $=
200802191253 METAR KSEA 191253Z 00000KT M1/4SM R16C/0700V0800FT FG VV001 03/02 A2993 RMK AO2 TWR VIS 5 SLP144 T00280022 $=
200802191241 SPECI KSEA 191241Z 16003KT 1/4SM R16C/1000V1400FT FG BKN001 03/01 A2993 RMK AO2 TWR VIS 5 $=
200802191241 SPECI KSEA 191241Z 16003KT 1/4SM R16C/1000V1400FT FG BKN001 03/01 A2993 RMK AO2 TWR VIS 5 $=
200802191234 SPECI KSEA 191234Z 18004KT 1 1/2SM R16C/1000VP6000FT FEW001 03/01 A2993 RMK AO2 $=
200802191234 SPECI KSEA 191234Z 18004KT 1 1/2SM R16C/1000VP6000FT FEW001 03/01 A2993 RMK AO2 $=
200802191153 METAR KSEA 191153Z 13005KT 9SM CLR 03/01 A2993 RMK AO2 SLP141 T00330011 10056 20022 56001 $=
200802191105 SPECI KSEA 191105Z 14004KT 3SM BR FEW001 03/02 A2993 RMK AO2 TWR VIS 7 $=
200802191105 SPECI KSEA 191105Z 14004KT 3SM BR FEW001 03/02 A2993 RMK AO2 TWR VIS 7 $=
200802191100 SPECI KSEA 191100Z 14005KT 1 3/4SM R16C/3500VP6000FT BR VV001 03/02 A2993 RMK AO2 TWR VIS 7 $=
200802191100 SPECI KSEA 191100Z 14005KT 1 3/4SM R16C/3500VP6000FT BR VV001 03/02 A2993 RMK AO2 TWR VIS 7 $=
200802191053 METAR KSEA 191053Z 14005KT 1/2SM R16C/1200VP6000FT FG VV001 03/02 A2993 RMK AO2 TWR VIS 7 SLP142 T00280017 $=
200802191049 SPECI KSEA 191049Z 14005KT 1/4SM R16C/1200VP6000FT FG VV001 03/02 A2993 RMK AO2 TWR VIS 10 $=
200802191049 SPECI KSEA 191049Z 14005KT 1/4SM R16C/1200VP6000FT FG VV001 03/02 A2993 RMK AO2 TWR VIS 10 $=
200802191038 SPECI KSEA 191038Z 15004KT 1/4SM R16C/1600V2600FT FG FEW001 04/01 A2993 RMK AO2 TWR VIS 10 $=
200802191038 SPECI KSEA 191038Z 15004KT 1/4SM R16C/1600V2600FT FG FEW001 04/01 A2993 RMK AO2 TWR VIS 10 $=
200802191014 SPECI KSEA 191014Z 18004KT 1SM R16C/2000V2800FT MIFG CLR 04/01 A2993 RMK AO2 TWR VIS 10 $=
200802191014 SPECI KSEA 191014Z 18004KT 1SM R16C/2000V2800FT MIFG CLR 04/01 A2993 RMK AO2 TWR VIS 10 $=
200802191004 SPECI KSEA 191004Z 17003KT 1SM R16C/1600V2200FT MIFG CLR 04/01 A2993 RMK AO2 TWR VIS 10 $=
200802191004 SPECI KSEA 191004Z 17003KT 1SM R16C/1600V2200FT MIFG CLR 04/01 A2993 RMK AO2 TWR VIS 10 $=
200802190953 METAR KSEA 190953Z 20003KT 1/4SM R16C/1400V3500FT MIFG VV001 04/01 A2993 RMK AO2 TWR VIS 10 SLP143 T00440006 $=
200802190949 SPECI KSEA 190949Z 19003KT 1/4SM R16C/1000V3000FT MIFG CLR 04/01 A2993 RMK AO2 TWR VIS 10 $=
200802190949 SPECI KSEA 190949Z 19003KT 1/4SM R16C/1000V3000FT MIFG CLR 04/01 A2993 RMK AO2 TWR VIS 10 $=
200802190945 SPECI KSEA 190945Z 19003KT 1/4SM R16C/1000V2000FT HZ VV001 04/01 A2993 RMK AO2 $=
200802190945 SPECI KSEA 190945Z 19003KT 1/4SM R16C/1000V2000FT HZ VV001 04/01 A2993 RMK AO2 $=
200802190853 METAR KSEA 190853Z 00000KT 10SM CLR 04/01 A2993 RMK AO2 SLP142 T00440011 58003 $=
200802190753 METAR KSEA 190753Z 00000KT 10SM CLR 05/02 A2993 RMK AO2 SLP145 T00500022 401330006 $=
200802190653 METAR KSEA 190653Z 00000KT 10SM CLR 05/02 A2994 RMK AO2 SLP147 T00540022 $=
200802190553 METAR KSEA 190553Z 00000KT 10SM CLR 05/02 A2993 RMK AO2 SLP146 T00540022 10133 20056 55000 $=
200802190453 METAR KSEA 190453Z 19003KT 10SM CLR 06/02 A2993 RMK AO2 SLP144 T00580022 $=
200802190353 METAR KSEA 190353Z 19003KT 10SM CLR 08/02 A2993 RMK AO2 SLP144 T00820017 $=
200802190253 METAR KSEA 190253Z 00000KT 10SM CLR 09/02 A2994 RMK AO2 SLP146 T00900022 56015 $=
200802190153 METAR KSEA 190153Z 00000KT 10SM FEW250 10/02 A2995 RMK AO2 SLP149 T00960022 $=
200802190053 METAR KSEA 190053Z 30004KT 10SM FEW250 12/04 A2996 RMK AO2 SLP153 T01150036 $=
200802182353 METAR KSEA 182353Z 27004KT 10SM FEW250 13/04 A2998 RMK AO2 SLP159 T01320041 10133 20033 58019 $=
200802182253 METAR KSEA 182253Z 28004KT 10SM FEW250 12/04 A3000 RMK AO2 SLP168 T01180038 $=
200802182153 METAR KSEA 182153Z 27004KT 10SM FEW200 11/03 A3002 RMK AO2 SLP173 T01080034 $=
200802182053 METAR KSEA 182053Z 00000KT 10SM FEW200 10/04 A3004 RMK AO2 SLP180 T00960043 58022 $=
200802181953 METAR KSEA 181953Z 00000KT 10SM CLR 08/03 A3007 RMK AO2 SLP192 T00760025 $=
200802181853 METAR KSEA 181853Z 03003KT 10SM FEW001 07/02 A3009 RMK AO2 SLP198 T00670022 $=
200802181753 METAR KSEA 181753Z 35004KT 5SM BR FEW001 03/02 A3010 RMK AO2 SLP203 T00330022 10033 20006 58001 $=
200802181708 SPECI KSEA 181708Z 03004KT 4SM BR FEW001 02/01 A3010 RMK AO2 VIS SE-SW 2 $=
200802181708 SPECI KSEA 181708Z 03004KT 4SM BR FEW001 02/01 A3010 RMK AO2 VIS SE-SW 2 $=
200802181653 METAR KSEA 181653Z 00000KT 2SM BR FEW001 02/01 A3010 RMK AO2 SLP202 VIS N 4 T00150007 $=
200802181647 SPECI KSEA 181647Z 00000KT 2SM BR FEW001 02/01 A3010 RMK AO2 VIS N 4 $=
200802181647 SPECI KSEA 181647Z 00000KT 2SM BR FEW001 02/01 A3010 RMK AO2 VIS N 4 $=
200802181637 SPECI KSEA 181637Z 34003KT 1SM R16C/P6000FT BR FEW001 01/01 A3011 RMK AO2 $=
200802181637 SPECI KSEA 181637Z 34003KT 1SM R16C/P6000FT BR FEW001 01/01 A3011 RMK AO2 $=
200802181559 SPECI KSEA 181559Z 36004KT 1/2SM R16C/1200V1400FT FG SCT001 01/00 A3011 RMK AO2 $=
200802181559 SPECI KSEA 181559Z 36004KT 1/2SM R16C/1200V1400FT FG SCT001 01/00 A3011 RMK AO2 $=
200802181553 METAR KSEA 181553Z 35004KT 1/4SM R16C/1200V1600FT FG BKN001 01/00 A3011 RMK AO2 SLP205 T00080001 $=
200802181545 SPECI KSEA 181545Z 34003KT 1/4SM R16C/1000V1600FT FG BKN001 01/00 A3011 RMK AO2 $=
200802181545 SPECI KSEA 181545Z 34003KT 1/4SM R16C/1000V1600FT FG BKN001 01/00 A3011 RMK AO2 $=
200802181453 METAR KSEA 181453Z 00000KT 1/4SM R16C/1600V2800FT FG VV001 01/00 A3010 RMK AO2 SLP203 T00060000 58001 $=
200802181434 SPECI KSEA 181434Z 04003KT 1/4SM R16C/0800V1600FT FG OVC001 02/00 A3010 RMK AO2 $=
200802181434 SPECI KSEA 181434Z 04003KT 1/4SM R16C/0800V1600FT FG OVC001 02/00 A3010 RMK AO2 $=
200802181418 SPECI KSEA 181418Z 00000KT 1/2SM R16C/2000VP6000FT FG VV001 02/00 A3010 RMK AO2 $=
200802181418 SPECI KSEA 181418Z 00000KT 1/2SM R16C/2000VP6000FT FG VV001 02/00 A3010 RMK AO2 $=
200802181353 METAR KSEA 181353Z 00000KT 1/4SM R16C/1200V2000FT FG OVC001 02/01 A3011 RMK AO2 SLP204 T00170011 $=
200802181253 METAR KSEA 181253Z 03006KT 1/2SM R16C/0800V1000FT FG OVC001 02/M00 A3010 RMK AO2 SLP202 T00171005 $=
200802181226 SPECI KSEA 181226Z 35004KT 3/4SM R16C/1000V2200FT BR VV001 01/M00 A3010 RMK AO2 TWR VIS 4 $=
200802181226 SPECI KSEA 181226Z 35004KT 3/4SM R16C/1000V2200FT BR VV001 01/M00 A3010 RMK AO2 TWR VIS 4 $=
200802181214 SPECI KSEA 181214Z 02004KT 1SM R16C/3500VP6000FT BR VV001 01/M00 A3010 RMK AO2 TWR VIS 5 $=
200802181214 SPECI KSEA 181214Z 02004KT 1SM R16C/3500VP6000FT BR VV001 01/M00 A3010 RMK AO2 TWR VIS 5 $=
200802181212 SPECI KSEA 181212Z 03004KT 2SM BR SCT001 01/M00 A3010 RMK AO2 TWR VIS 5 $=
200802181212 SPECI KSEA 181212Z 03004KT 2SM BR SCT001 01/M00 A3010 RMK AO2 TWR VIS 5 $=
200802181153 METAR KSEA 181153Z 03005KT 5SM BR CLR 03/M00 A3011 RMK AO2 SLP203 T00281005 58020 $=
200802181053 METAR KSEA 181053Z 35005KT 7SM CLR 03/01 A3012 RMK AO2 SLP209 T00280006 $=
200802180953 METAR KSEA 180953Z 34004KT 7SM CLR 03/01 A3015 RMK AO2 SLP217 T00300011 $=
200802180853 METAR KSEA 180853Z 03009KT 10SM CLR 03/01 A3016 RMK AO2 SLP223 T00330011 58008 $=
200802180753 METAR KSEA 180753Z 03005KT 10SM CLR 04/02 A3018 RMK AO2 SLP231 T00400017 $=
200802180653 METAR KSEA 180653Z 36004KT 10SM CLR 05/01 A3018 RMK AO2 SLP230 T00500011 $=
200802180553 METAR KSEA 180553Z 36007KT 10SM CLR 06/01 A3019 RMK AO2 SLP232 T00560011 56009 $=
200802180453 METAR KSEA 180453Z 02011KT 10SM CLR 05/01 A3020 RMK AO2 SLP236 T00500006 $=
200802180353 METAR KSEA 180353Z 36007KT 10SM CLR 06/02 A3021 RMK AO2 SLP238 T00610017 $=
200802180253 METAR KSEA 180253Z 34006KT 10SM CLR 06/02 A3022 RMK AO2 SLP242 T00610017 58010 $=
200802180153 METAR KSEA 180153Z 35006KT 10SM FEW200 07/02 A3023 RMK AO2 SLP245 T00720022 $=
200802180053 METAR KSEA 180053Z 35007KT 10SM FEW200 09/02 A3024 RMK AO2 SLP249 T00890022 $=
200802172353 METAR KSEA 172353Z 34008KT 10SM SCT200 09/02 A3025 RMK AO2 SLP251 T00940017 56014 $=
200802172253 METAR KSEA 172253Z 36008KT 10SM SCT210 09/02 A3026 RMK AO2 SLP255 T00940017 $=
200802172153 METAR KSEA 172153Z 36008KT 10SM SCT200 09/01 A3027 RMK AO2 SLP260 T00940011 $=
200802172053 METAR KSEA 172053Z 36009KT 10SM FEW200 08/01 A3029 RMK AO2 SLP266 T00780011 58016 $=
200802171953 METAR KSEA 171953Z 36009KT 10SM CLR 06/01 A3031 RMK AO2 SLP272 T00610011 $=
200802171853 METAR KSEA 171853Z 02011KT 10SM CLR 03/01 A3033 RMK AO2 SLP280 T00330011 $=
200802171753 METAR KSEA 171753Z 01009KT 10SM CLR 03/01 A3034 RMK AO2 SLP283 T00330006 10033 20011 50003 $=
200802171653 METAR KSEA 171653Z 03013KT 10SM SCT003 03/01 A3034 RMK AO2 SLP283 T00280006 $=
200802171621 SPECI KSEA 171621Z 01011KT 8SM SCT003 02/01 A3034 RMK AO2 $=
200802171621 SPECI KSEA 171621Z 01011KT 8SM SCT003 02/01 A3034 RMK AO2 $=
200802171558 SPECI KSEA 171558Z 01009KT 1/2SM BR BKN003 02/01 A3034 RMK AO2 SFC VIS 6 $=
200802171558 SPECI KSEA 171558Z 01009KT 1/2SM BR BKN003 02/01 A3034 RMK AO2 SFC VIS 6 $=
200802171553 METAR KSEA 171553Z 02009KT 8SM SCT005 02/00 A3034 RMK AO2 SLP283 T00170000 $=
200802171453 METAR KSEA 171453Z 04008KT 10SM CLR 02/00 A3033 RMK AO2 SLP279 T00220000 56007 $=
200802171353 METAR KSEA 171353Z 36009KT 10SM SCT200 02/00 A3033 RMK AO2 SLP280 T00190000 $=
200802171253 METAR KSEA 171253Z 01010KT 10SM BKN200 02/01 A3033 RMK AO2 SLP279 T00210011 $=
200802171153 METAR KSEA 171153Z 02008KT 8SM BKN200 02/01 A3035 RMK AO2 SLP285 T00210011 10056 20022 58005 $=
200802171053 METAR KSEA 171053Z 03007KT 10SM SCT200 03/01 A3036 RMK AO2 SLP289 T00270011 $=
200802170953 METAR KSEA 170953Z 36009KT 10SM SCT200 03/01 A3037 RMK AO2 SLP291 T00290011 $=
200802170853 METAR KSEA 170853Z 01007KT 10SM BKN200 03/01 A3036 RMK AO2 SLP290 T00340011 55001 $=
200802170753 METAR KSEA 170753Z 01008KT 10SM SCT200 04/01 A3035 RMK AO2 SLP286 T00430011 401060044 $=
200802170653 METAR KSEA 170653Z 01006KT 10SM SCT200 05/01 A3035 RMK AO2 SLP286 T00500011 $=
200802170553 METAR KSEA 170553Z 03007KT 10SM SCT200 06/01 A3036 RMK AO2 SLP291 T00560006 10106 20056 58001 $=
200802170453 METAR KSEA 170453Z 03010KT 10SM SCT200 06/01 A3037 RMK AO2 SLP293 T00580006 $=
200802170353 METAR KSEA 170353Z 04007KT 10SM BKN200 06/M00 A3037 RMK AO2 SLP292 T00641005 $=
200802170253 METAR KSEA 170253Z 02005KT 10SM FEW050 BKN200 07/01 A3037 RMK AO2 SLP292 T00670006 51007 $=
200802170153 METAR KSEA 170153Z 36006KT 10SM SCT050 BKN200 08/02 A3036 RMK AO2 SLP291 T00780017 $=
200802170053 METAR KSEA 170053Z 03007KT 10SM BKN050 BKN200 11/02 A3035 RMK AO2 SLP286 T01060022 $=
200802162353 METAR KSEA 162353Z 02008KT 10SM SCT033 BKN050 BKN200 10/01 A3035 RMK AO2 SLP285 60000 T00990011 55003 $=
200802162253 METAR KSEA 162253Z 00000KT 10SM SCT028 BKN048 BKN200 09/03 A3034 RMK AO2 SLP283 T00940028 $=
200802162153 METAR KSEA 162153Z 00000KT 10SM SCT025 SCT040 BKN200 09/02 A3034 RMK AO2 SLP284 T00910017 $=
200802162139 SPECI KSEA 162139Z 02005KT 10SM FEW018 SCT030 BKN200 09/02 A3034 RMK AO2 $=
200802162139 SPECI KSEA 162139Z 02005KT 10SM FEW018 SCT030 BKN200 09/02 A3034 RMK AO2 $=
200802162053 METAR KSEA 162053Z 00000KT 10SM SCT016 BKN029 BKN038 08/04 A3036 RMK AO2 SLP288 60000 T00750044 58001 $=
200802162037 SPECI KSEA 162037Z 00000KT 10SM SCT014 BKN028 BKN038 08/04 A3036 RMK AO2 $=
200802162037 SPECI KSEA 162037Z 00000KT 10SM SCT014 BKN028 BKN038 08/04 A3036 RMK AO2 $=
200802162025 SPECI KSEA 162025Z 28004KT 10SM BKN014 BKN026 BKN050 08/04 A3037 RMK AO2 $=
200802162025 SPECI KSEA 162025Z 28004KT 10SM BKN014 BKN026 BKN050 08/04 A3037 RMK AO2 $=
200802162012 SPECI KSEA 162012Z 27005KT 10SM SCT017 BKN028 BKN048 09/04 A3037 RMK AO2 $=
200802162012 SPECI KSEA 162012Z 27005KT 10SM SCT017 BKN028 BKN048 09/04 A3037 RMK AO2 $=
200802161953 METAR KSEA 161953Z 00000KT 10SM SCT013 BKN032 08/04 A3037 RMK AO2 SLP294 SCT V BKN T00820036 $=
200802161912 SPECI KSEA 161912Z 33003KT 10SM FEW009 SCT013 BKN032 08/04 A3037 RMK AO2 $=
200802161912 SPECI KSEA 161912Z 33003KT 10SM FEW009 SCT013 BKN032 08/04 A3037 RMK AO2 $=
200802161853 METAR KSEA 161853Z 34003KT 10SM FEW009 BKN013 BKN034 07/04 A3037 RMK AO2 RAB19E37 SLP292 P0000 T00720044 $=
200802161753 METAR KSEA 161753Z 34004KT 8SM SCT006 BKN011 OVC036 07/04 A3036 RMK AO2 SLP290 60000 T00670044 10067 20056 53009=
200802161742 SPECI KSEA 161742Z 33004KT 8SM SCT004 BKN011 OVC036 07/04 A3036 RMK AO2=
200802161742 SPECI KSEA 161742Z 33004KT 8SM SCT004 BKN011 OVC036 07/04 A3036 RMK AO2=
200802161733 SPECI KSEA 161733Z 00000KT 8SM BKN004 BKN011 OVC036 07/04 A3035 RMK AO2=
200802161733 SPECI KSEA 161733Z 00000KT 8SM BKN004 BKN011 OVC036 07/04 A3035 RMK AO2=
200802161720 SPECI KSEA 161720Z 00000KT 9SM FEW004 SCT012 OVC036 06/04 A3035 RMK AO2=
200802161720 SPECI KSEA 161720Z 00000KT 9SM FEW004 SCT012 OVC036 06/04 A3035 RMK AO2=
200802161705 SPECI KSEA 161705Z 00000KT 9SM FEW011 SCT030 OVC036 06/04 A3035 RMK AO2=
200802161705 SPECI KSEA 161705Z 00000KT 9SM FEW011 SCT030 OVC036 06/04 A3035 RMK AO2=
200802161653 METAR KSEA 161653Z 36003KT 8SM FEW011 BKN029 OVC036 06/04 A3035 RMK AO2 SLP284 T00610039=
200802161553 METAR KSEA 161553Z 01003KT 6SM BR FEW008 SCT011 OVC022 06/04 A3034 RMK AO2 RAB21E44 SLP282 SCT V BKN P0000 T00560039=
200802161510 SPECI KSEA 161510Z 01004KT 10SM FEW009 OVC020 06/04 A3034 RMK AO2=
200802161510 SPECI KSEA 161510Z 01004KT 10SM FEW009 OVC020 06/04 A3034 RMK AO2=
200802161453 METAR KSEA 161453Z 04003KT 10SM BKN009 OVC018 06/04 A3033 RMK AO2 SLP280 T00560039 53014=
200802161445 SPECI KSEA 161445Z 03003KT 10SM BKN009 OVC018 06/04 A3033 RMK AO2=
200802161445 SPECI KSEA 161445Z 03003KT 10SM BKN009 OVC018 06/04 A3033 RMK AO2=
200802161420 SPECI KSEA 161420Z 03003KT 10SM SCT009 OVC016 06/04 A3033 RMK AO2=
200802161420 SPECI KSEA 161420Z 03003KT 10SM SCT009 OVC016 06/04 A3033 RMK AO2=
200802161353 METAR KSEA 161353Z 01005KT 5SM BR OVC005 06/04 A3032 RMK AO2 SLP277 T00560039=
200802161253 METAR KSEA 161253Z 00000KT 4SM BR BKN003 OVC010 06/04 A3029 RMK AO2 SLP266 T00560044=
200802161238 SPECI KSEA 161238Z 12003KT 4SM BR BKN003 OVC010 06/04 A3028 RMK AO2=
200802161238 SPECI KSEA 161238Z 12003KT 4SM BR BKN003 OVC010 06/04 A3028 RMK AO2=
200802161153 METAR KSEA 161153Z 15004KT 10SM OVC007 06/04 A3029 RMK AO2 SLP266 60000 70001 T00560039 10061 20056 50009=
200802161100 SPECI KSEA 161100Z 00000KT 10SM BKN009 OVC020 06/04 A3030 RMK AO2=
200802161100 SPECI KSEA 161100Z 00000KT 10SM BKN009 OVC020 06/04 A3030 RMK AO2=
200802161053 METAR KSEA 161053Z 00000KT 10SM BKN011 OVC020 06/04 A3030 RMK AO2 SLP268 T00560039=
200802161012 SPECI KSEA 161012Z 00000KT 10SM BKN011 OVC020 06/04 A3028 RMK AO2=
200802161012 SPECI KSEA 161012Z 00000KT 10SM BKN011 OVC020 06/04 A3028 RMK AO2=
200802160953 METAR KSEA 160953Z 00000KT 10SM SCT011 OVC020 06/04 A3027 RMK AO2 RAE07DZB07E42 SLP259 P0000 T00560039=
200802160921 SPECI KSEA 160921Z 00000KT 9SM -DZ BKN013 OVC020 06/04 A3027 RMK AO2 RAE07DZB07 P0000=
200802160921 SPECI KSEA 160921Z 00000KT 9SM -DZ BKN013 OVC020 06/04 A3027 RMK AO2 RAE07DZB07 P0000=
200802160853 METAR KSEA 160853Z 00000KT 10SM -RA BKN015 OVC020 06/03 A3026 RMK AO2 RAB43 SLP257 P0000 60000 T00560033 53009=
200802160753 METAR KSEA 160753Z 00000KT 10SM OVC019 06/03 A3025 RMK AO2 SLP252 T00560028 400720022=
200802160653 METAR KSEA 160653Z 00000KT 10SM OVC019 06/03 A3023 RMK AO2 SLP247 T00610028=
200802160553 METAR KSEA 160553Z 24007KT 10SM SCT023 OVC029 06/02 A3024 RMK AO2 SLP247 60000 T00610022 10072 20050 53028=
200802160453 METAR KSEA 160453Z 20004KT 10SM SCT023 BKN033 06/03 A3020 RMK AO2 SLP235 T00560033=
200802160353 METAR KSEA 160353Z 22006KT 10SM FEW060 SCT090 06/03 A3017 RMK AO2 SLP225 T00560028=
200802160253 METAR KSEA 160253Z 21011KT 10SM FEW060 OVC085 07/03 A3015 RMK AO2 RAE30 SLP220 P0000 60000 T00670033 53013=
200802160153 METAR KSEA 160153Z 22009KT 10SM -RA SCT047 OVC060 07/03 A3014 RMK AO2 RAB47 SLP216 P0000 T00670033=
200802160053 METAR KSEA 160053Z 22009KT 10SM FEW050 SCT080 BKN120 07/03 A3012 RMK AO2 RAE2355 SLP209 P0000 T00670033=
200802152353 METAR KSEA 152353Z 15010KT 10SM -RA SCT050 BKN100 06/03 A3011 RMK AO2 SLP207 P0001 60001 T00610033 10067 20050 58030=
200802152253 METAR KSEA 152253Z 18007KT 8SM -RA FEW041 BKN055 OVC100 06/03 A3015 RMK AO2 RAB18 SLP219 P0000 T00610028=
200802152153 METAR KSEA 152153Z 17005KT 10SM FEW060 BKN075 OVC150 07/02 A3018 RMK AO2 SLP228 T00670022=
200802152053 METAR KSEA 152053Z 13007KT 10SM FEW060 BKN085 OVC180 06/02 A3020 RMK AO2 SLP236 60000 T00610017 58022=
200802151953 METAR KSEA 151953Z 29003KT 10SM SCT070 BKN120 OVC200 06/03 A3024 RMK AO2 RAB1854E09 SLP249 P0000 T00610028=
200802151853 METAR KSEA 151853Z 00000KT 10SM BKN070 BKN110 OVC200 06/02 A3025 RMK AO2 SLP253 T00560017=
200802151753 METAR KSEA 151753Z 00000KT 10SM SCT070 SCT120 OVC200 05/02 A3027 RMK AO2 SLP258 T00500022 10050 20022 56012=
200802151653 METAR KSEA 151653Z 00000KT 10SM FEW120 BKN200 04/01 A3027 RMK AO2 SLP260 T00390006=
200802151553 METAR KSEA 151553Z 00000KT 10SM FEW055 SCT120 OVC200 03/00 A3028 RMK AO2 SLP263 T00280000=
200802151453 METAR KSEA 151453Z 09003KT 10SM BKN055 BKN180 03/01 A3030 RMK AO2 SLP271 T00330011 50002=
200802151353 METAR KSEA 151353Z 09004KT 10SM FEW040 SCT130 OVC200 03/01 A3031 RMK AO2 SLP273 T00330011=
200802151253 METAR KSEA 151253Z 36003KT 10SM FEW130 OVC200 03/02 A3031 RMK AO2 SLP275 T00330017=
200802151153 METAR KSEA 151153Z 36003KT 10SM OVC130 03/01 A3030 RMK AO2 SLP270 T00330011 10061 20022 58007=
200802151053 METAR KSEA 151053Z 36004KT 10SM FEW065 BKN130 03/01 A3031 RMK AO2 SLP273 T00330011=
200802150953 METAR KSEA 150953Z 00000KT 10SM FEW065 SCT130 03/01 A3031 RMK AO2 SLP273 T00330006=
200802150853 METAR KSEA 150853Z 07003KT 10SM BKN065 04/01 A3032 RMK AO2 SLP276 T00440006 58013=
200802150753 METAR KSEA 150753Z 05003KT 10SM OVC055 05/01 A3034 RMK AO2 SLP283 T00500011 400890006=
200802150653 METAR KSEA 150653Z 04005KT 10SM OVC055 06/01 A3035 RMK AO2 SLP286 T00610011=
200802150600 METAR KSEA NIL=
200802150553 METAR KSEA 150553Z 36005KT 10SM OVC060 06/02 A3036 RMK AO2 SLP290 T00610017 10072 20056 53001=
200802150453 METAR KSEA 150453Z 35004KT 10SM BKN065 06/01 A3035 RMK AO2 SLP288 T00560011=
200802150353 METAR KSEA 150353Z 35005KT 10SM BKN075 06/02 A3035 RMK AO2 SLP286 T00560022=
200802150253 METAR KSEA 150253Z 00000KT 10SM SCT065 BKN140 BKN200 06/01 A3035 RMK AO2 SLP288 T00560006 58003=
200802150153 METAR KSEA 150153Z 28003KT 10SM BKN070 BKN090 BKN200 06/01 A3035 RMK AO2 SLP289 T00610011=
200802150053 METAR KSEA 150053Z 30004KT 10SM FEW044 BKN085 BKN200 07/01 A3037 RMK AO2 SLP292 T00670011=
200802142353 METAR KSEA 142353Z 28005KT 10SM FEW030 BKN055 BKN150 BKN200 07/01 A3036 RMK AO2 SLP291 T00670011 10089 20033 58005=
200802142253 METAR KSEA 142253Z 28005KT 10SM FEW030 SCT085 BKN200 08/02 A3036 RMK AO2 SLP291 T00780017=
200802142153 METAR KSEA 142153Z 00000KT 10SM FEW025 SCT110 BKN200 08/01 A3038 RMK AO2 SLP298 T00830006=
200802142053 METAR KSEA 142053Z 00000KT 10SM FEW018 BKN200 08/00 A3038 RMK AO2 SLP296 T00780000 58005=
200802141953 METAR KSEA 141953Z 28005KT 10SM FEW015 SCT110 BKN200 06/01 A3039 RMK AO2 SLP299 T00610011 $=
200802141853 METAR KSEA 141853Z 00000KT 10SM FEW010 SCT110 BKN200 05/M01 A3040 RMK AO2 SLP303 T00501006 $=
200802141753 METAR KSEA 141753Z 00000KT 10SM FEW010 SCT110 BKN200 03/M01 A3039 RMK AO2 SLP301 ACSL OVR MT RAINIER T00331006 10033 20006 50003=
200802141653 METAR KSEA 141653Z 14003KT 10SM FEW010 SCT100 BKN200 02/M01 A3039 RMK AO2 SLP302 CAP CLD OVR MT RAINIER T00221011=
200802141553 METAR KSEA 141553Z 15004KT 10SM FEW010 SCT095 BKN200 01/M02 A3039 RMK AO2 SLP299 CAP CLD OVR MT RAINIER T00111022=
200802141453 METAR KSEA 141453Z 00000KT 10SM FEW060 BKN100 01/M02 A3038 RMK AO2 SLP298 T00111017 53008=
200802141353 METAR KSEA 141353Z 17003KT 10SM BKN042 01/M02 A3037 RMK AO2 SLP293 T00061017=
200802141253 METAR KSEA 141253Z 11004KT 10SM BKN040 01/M02 A3037 RMK AO2 SLP293 T00111017=
200802141153 METAR KSEA 141153Z 00000KT 10SM OVC040 01/M01 A3036 RMK AO2 SLP289 T00111011 10044 20006 53004=
200802141053 METAR KSEA 141053Z 13003KT 10SM BKN040 01/M02 A3035 RMK AO2 SLP285 T00061017=
200802140953 METAR KSEA 140953Z 13004KT 10SM CLR 01/M01 A3035 RMK AO2 SLP286 T00111011=
200802140853 METAR KSEA 140853Z 00000KT 10SM FEW060 02/M01 A3034 RMK AO2 SLP285 T00221011 53007=
200802140753 METAR KSEA 140753Z 05004KT 10SM FEW060 02/M01 A3033 RMK AO2 SLP281 T00221011 400940017=
200802140653 METAR KSEA 140653Z 00000KT 10SM FEW060 04/M01 A3033 RMK AO2 SLP280 T00391011=
200802140553 METAR KSEA 140553Z 00000KT 10SM FEW060 04/M01 A3032 RMK AO2 SLP278 T00441006 10078 20039 53006=
200802140453 METAR KSEA 140453Z 11003KT 10SM FEW060 05/M01 A3031 RMK AO2 SLP274 T00501011=
200802140353 METAR KSEA 140353Z 06003KT 10SM FEW060 05/M01 A3031 RMK AO2 SLP273 T00501011=
200802140253 METAR KSEA 140253Z 06004KT 10SM FEW040 BKN060 06/M01 A3030 RMK AO2 SLP271 T00611006 53010=
200802140153 METAR KSEA 140153Z 08005KT 10SM FEW045 BKN060 07/00 A3029 RMK AO2 SLP266 T00670000=
200802140053 METAR KSEA 140053Z 08003KT 10SM FEW045 BKN055 07/00 A3028 RMK AO2 SLP263 T00720000=
200802132353 METAR KSEA 132353Z 29005KT 10SM BKN055 08/00 A3027 RMK AO2 SLP260 T00780000 10094 20044 53008=
200802132253 METAR KSEA 132253Z VRB06KT 10SM FEW032 BKN070 08/01 A3026 RMK AO2 SLP254 T00830006=
200802132153 METAR KSEA 132153Z 00000KT 10SM SCT030 BKN070 08/00 A3025 RMK AO2 SLP251 T00830000=
200802132053 METAR KSEA 132053Z 26003KT 10SM SCT027 SCT033 07/02 A3025 RMK AO2 SLP252 T00720017 55000=
200802131953 METAR KSEA 131953Z 00000KT 10SM FEW025 07/01 A3025 RMK AO2 SLP252 T00720011=
200802131853 METAR KSEA 131853Z 23005KT 10SM FEW020 06/02 A3025 RMK AO2 SLP251 T00610017=
200802131753 METAR KSEA 131753Z 23004KT 10SM SCT018 SCT070 04/02 A3025 RMK AO2 SLP253 T00440017 10044 20017 51022=
200802131653 METAR KSEA 131653Z 00000KT 10SM FEW018 04/01 A3024 RMK AO2 SLP249 T00390011=
200802131553 METAR KSEA 131553Z 18003KT 10SM FEW015 SCT040 02/01 A3022 RMK AO2 SLP242 T00220006=
200802131453 METAR KSEA 131453Z 16007KT 10SM FEW015 02/01 A3018 RMK AO2 SLP231 T00220006 51005=
200802131353 METAR KSEA 131353Z 17007KT 10SM FEW015 03/01 A3018 RMK AO2 SLP229 T00280006=
200802131253 METAR KSEA 131253Z 17006KT 10SM OVC015 04/01 A3018 RMK AO2 SLP227 T00390011=
200802131153 METAR KSEA 131153Z 15004KT 10SM BKN015 OVC070 04/01 A3017 RMK AO2 SLP225 T00390011 10050 20039 53011=
200802131053 METAR KSEA 131053Z 14008KT 10SM OVC015 04/01 A3015 RMK AO2 SLP218 T00440011=
200802130953 METAR KSEA 130953Z 23004KT 10SM BKN019 04/02 A3014 RMK AO2 SLP216 T00440017=
200802130853 METAR KSEA 130853Z 20007KT 10SM SCT015 04/02 A3014 RMK AO2 SLP214 T00440017 53014=
200802130753 METAR KSEA 130753Z 23006KT 10SM FEW022 BKN036 05/01 A3013 RMK AO2 SLP211 T00500011 401000050=
200802130653 METAR KSEA 130653Z 21013KT 10SM SCT038 BKN140 05/01 A3010 RMK AO2 SLP202 T00500011=
200802130553 METAR KSEA 130553Z 21008KT 10SM SCT035 SCT065 BKN120 05/02 A3010 RMK AO2 SLP200 T00500017 10094 20050 51016=
200802130453 METAR KSEA 130453Z 21011KT 10SM SCT019 BKN100 06/02 A3008 RMK AO2 SLP195 T00560022=
200802130417 SPECI KSEA 130417Z 22010KT 10SM OVC021 06/02 A3008 RMK AO2=
200802130417 SPECI KSEA 130417Z 22010KT 10SM OVC021 06/02 A3008 RMK AO2=
200802130353 METAR KSEA 130353Z 22008KT 10SM SCT023 06/02 A3007 RMK AO2 SLP190 T00610022=
200802130253 METAR KSEA 130253Z 23009KT 10SM FEW022 06/03 A3005 RMK AO2 SLP184 T00610028 51003=
200802130153 METAR KSEA 130153Z 22011KT 10SM SCT022 SCT060 SCT200 07/03 A3005 RMK AO2 SLP183 T00720033=
200802130139 SPECI KSEA 130139Z 20011KT 10SM SCT022 SCT060 BKN200 08/04 A3004 RMK AO2=
200802130139 SPECI KSEA 130139Z 20011KT 10SM SCT022 SCT060 BKN200 08/04 A3004 RMK AO2=
200802130053 METAR KSEA 130053Z 22009KT 10SM BKN018 BKN055 BKN200 09/06 A3005 RMK AO2 SLP184 T00890056=
200802130033 SPECI KSEA 130033Z 22016G21KT 10SM BKN015 09/06 A3004 RMK AO2=
200802130033 SPECI KSEA 130033Z 22016G21KT 10SM BKN015 09/06 A3004 RMK AO2=
200802122353 METAR KSEA 122353Z 21020G26KT 10SM FEW009 BKN014 09/06 A3004 RMK AO2 PK WND 21029/2342 RAE2257 SLP180 P0000 60000 T00890061 10100 20078 56012=
200802122253 METAR KSEA 122253Z 21016G25KT 10SM -RA SCT006 BKN013 OVC018 08/07 A3005 RMK AO2 PK WND 20029/2235 SLP181 P0000 T00830067=
200802122243 SPECI KSEA 122243Z 21018G29KT 10SM SCT006 BKN012 OVC020 08/07 A3004 RMK AO2 PK WND 20029/2235 RAE41 P0000=
200802122243 SPECI KSEA 122243Z 21018G29KT 10SM SCT006 BKN012 OVC020 08/07 A3004 RMK AO2 PK WND 20029/2235 RAE41 P0000=
200802122214 SPECI KSEA 122214Z 21017G25KT 8SM BKN006 OVC016 08/07 A3006 RMK AO2 RAE10 P0000=
200802122214 SPECI KSEA 122214Z 21017G25KT 8SM BKN006 OVC016 08/07 A3006 RMK AO2 RAE10 P0000=
200802122202 SPECI KSEA 122202Z 21014G25KT 6SM -RA BR SCT006 BKN018 OVC027 08/07 A3006 RMK AO2 P0000=
200802122202 SPECI KSEA 122202Z 21014G25KT 6SM -RA BR SCT006 BKN018 OVC027 08/07 A3006 RMK AO2 P0000=
200802122153 METAR KSEA 122153Z 21016G23KT 2 1/2SM -RA BR FEW013 BKN018 OVC027 08/07 A3007 RMK AO2 PK WND 21027/2138 SFC VIS 4 RAB19 SLP188 P0000 T00830067=
200802122143 SPECI KSEA 122143Z 21015G27KT 2 1/2SM -RA BKN022 OVC028 09/06 A3007 RMK AO2 PK WND 21027/2138 SFC VIS 3 RAB19 P0000=
200802122143 SPECI KSEA 122143Z 21015G27KT 2 1/2SM -RA BKN022 OVC028 09/06 A3007 RMK AO2 PK WND 21027/2138 SFC VIS 3 RAB19 P0000=
200802122119 SPECI KSEA 122119Z 22011KT 10SM -RA BKN028 OVC035 09/05 A3007 RMK AO2 RAB19 P0000=
200802122119 SPECI KSEA 122119Z 22011KT 10SM -RA BKN028 OVC035 09/05 A3007 RMK AO2 RAB19 P0000=
200802122053 METAR KSEA 122053Z 21010KT 10SM BKN033 BKN060 OVC200 09/05 A3008 RMK AO2 SLP192 T00940050 58027=
200802121953 METAR KSEA 121953Z 20012KT 10SM FEW025 BKN085 OVC200 09/05 A3012 RMK AO2 SLP206 T00940050=
200802121853 METAR KSEA 121853Z 18011KT 10SM SCT070 BKN200 09/04 A3014 RMK AO2 SLP214 T00940044=
200802121753 METAR KSEA 121753Z 16009KT 10SM SCT070 BKN200 08/04 A3016 RMK AO2 SLP219 T00780044 10078 20061 58017=
200802121653 METAR KSEA 121653Z 13005KT 10SM FEW012 BKN070 BKN200 07/05 A3018 RMK AO2 SLP230 T00670050=
200802121553 METAR KSEA 121553Z 18006KT 10SM BKN080 OVC200 07/05 A3020 RMK AO2 SLP235 T00670050=
200802121453 METAR KSEA 121453Z 21003KT 10SM OVC080 07/04 A3021 RMK AO2 SLP237 T00670044 56024=
200802121353 METAR KSEA 121353Z 18004KT 10SM OVC085 07/04 A3022 RMK AO2 SLP242 T00670044=
200802121253 METAR KSEA 121253Z 00000KT 10SM OVC095 07/05 A3025 RMK AO2 SLP253 T00670050=
200802121153 METAR KSEA 121153Z 12003KT 10SM OVC090 08/05 A3028 RMK AO2 SLP260 T00780050 10089 20072 58017=
200802121053 METAR KSEA 121053Z 00000KT 10SM OVC090 08/05 A3030 RMK AO2 SLP267 T00780050=
200802120953 METAR KSEA 120953Z 05003KT 10SM OVC100 08/05 A3032 RMK AO2 SLP274 T00780050=
200802120853 METAR KSEA 120853Z 00000KT 10SM OVC100 08/05 A3033 RMK AO2 SLP278 T00830050 56010=
200802120753 METAR KSEA 120753Z 14004KT 10SM OVC110 08/05 A3033 RMK AO2 SLP280 T00830050 400940056=
200802120653 METAR KSEA 120653Z 16005KT 10SM SCT024 SCT050 OVC110 08/06 A3034 RMK AO2 SLP283 T00830056=
200802120553 METAR KSEA 120553Z 19005KT 10SM BKN022 OVC027 08/06 A3036 RMK AO2 SLP289 T00830056 10094 20083 53006=
200802120453 METAR KSEA 120453Z 18005KT 10SM OVC017 08/06 A3035 RMK AO2 SLP286 T00830056=
200802120353 METAR KSEA 120353Z 19005KT 10SM BKN015 OVC021 09/06 A3034 RMK AO2 SLP284 T00890056=
200802120253 METAR KSEA 120253Z 21005KT 10SM OVC013 09/06 A3034 RMK AO2 SLP283 T00890061 58003=
200802120222 SPECI KSEA 120222Z 21003KT 10SM OVC013 09/06 A3035 RMK AO2=
200802120222 SPECI KSEA 120222Z 21003KT 10SM OVC013 09/06 A3035 RMK AO2=
200802120153 METAR KSEA 120153Z 20004KT 10SM OVC016 09/06 A3035 RMK AO2 SLP285 T00890056=
200802120053 METAR KSEA 120053Z 19008KT 10SM OVC018 09/06 A3035 RMK AO2 SLP284 T00940056=
200802112353 METAR KSEA 112353Z 19009KT 10SM OVC018 09/06 A3035 RMK AO2 SLP285 T00940056 10094 20072 53001=
200802112253 METAR KSEA 112253Z 19010KT 10SM BKN018 OVC025 09/06 A3035 RMK AO2 SLP284 T00940056=
200802112153 METAR KSEA 112153Z 20011KT 10SM BKN018 BKN200 09/06 A3034 RMK AO2 SLP283 T00890056=
200802112053 METAR KSEA 112053Z 19008KT 10SM FEW008 BKN015 OVC040 09/06 A3035 RMK AO2 SLP284 T00890061 58010=
200802112029 SPECI KSEA 112029Z 18006KT 10SM FEW006 BKN018 OVC028 08/06 A3036 RMK AO2=
200802112029 SPECI KSEA 112029Z 18006KT 10SM FEW006 BKN018 OVC028 08/06 A3036 RMK AO2=
200802112019 SPECI KSEA 112019Z 18007KT 10SM FEW005 BKN012 OVC028 08/06 A3036 RMK AO2=
200802112019 SPECI KSEA 112019Z 18007KT 10SM FEW005 BKN012 OVC028 08/06 A3036 RMK AO2=
200802111953 METAR KSEA 111953Z 17007KT 10SM BKN007 OVC015 08/06 A3037 RMK AO2 SLP292 T00780061=
200802111904 SPECI KSEA 111904Z 19007KT 10SM BKN009 OVC015 08/05 A3039 RMK AO2=
200802111904 SPECI KSEA 111904Z 19007KT 10SM BKN009 OVC015 08/05 A3039 RMK AO2=
200802111853 METAR KSEA 111853Z 19009KT 10SM SCT009 OVC015 08/05 A3039 RMK AO2 SLP299 T00780050=
200802111753 METAR KSEA 111753Z 18008KT 10SM FEW009 BKN017 OVC035 07/05 A3038 RMK AO2 SLP296 T00720050 10072 20056 53011=
200802111710 SPECI KSEA 111710Z 19007KT 10SM SCT009 BKN015 OVC023 07/04 A3037 RMK AO2=
200802111710 SPECI KSEA 111710Z 19007KT 10SM SCT009 BKN015 OVC023 07/04 A3037 RMK AO2=
200802111653 METAR KSEA 111653Z 18008KT 10SM FEW015 BKN022 OVC035 07/04 A3036 RMK AO2 SLP289 T00670044=
200802111553 METAR KSEA 111553Z 21006KT 10SM BKN021 OVC035 07/04 A3035 RMK AO2 SLP286 T00670044=
200802111529 SPECI KSEA 111529Z 18005KT 10SM BKN019 OVC060 06/04 A3034 RMK AO2=
200802111529 SPECI KSEA 111529Z 18005KT 10SM BKN019 OVC060 06/04 A3034 RMK AO2=
200802111515 SPECI KSEA 111515Z 17007KT 10SM SCT019 BKN040 OVC100 06/04 A3034 RMK AO2=
200802111515 SPECI KSEA 111515Z 17007KT 10SM SCT019 BKN040 OVC100 06/04 A3034 RMK AO2=
200802111453 METAR KSEA 111453Z 18005KT 10SM BKN020 BKN033 OVC065 06/04 A3034 RMK AO2 SLP284 T00610044 50005=
200802111447 SPECI KSEA 111447Z 18004KT 10SM BKN020 BKN033 OVC065 07/04 A3035 RMK AO2=
200802111447 SPECI KSEA 111447Z 18004KT 10SM BKN020 BKN033 OVC065 07/04 A3035 RMK AO2=
200802111353 METAR KSEA 111353Z 16004KT 10SM FEW075 OVC095 06/04 A3034 RMK AO2 SLP283 T00560044=
200802111253 METAR KSEA 111253Z 17004KT 10SM OVC080 06/04 A3033 RMK AO2 SLP279 T00610044=
200802111153 METAR KSEA 111153Z 18003KT 10SM BKN080 OVC100 07/05 A3033 RMK AO2 SLP280 70014 T00670050 10072 20067 53003=
200802111053 METAR KSEA 111053Z 21005KT 10SM FEW010 OVC075 07/04 A3033 RMK AO2 SLP278 T00670044=
200802111041 SPECI KSEA 111041Z 19006KT 10SM FEW010 SCT020 OVC075 07/04 A3033 RMK AO2=
200802111041 SPECI KSEA 111041Z 19006KT 10SM FEW010 SCT020 OVC075 07/04 A3033 RMK AO2=
200802111005 SPECI KSEA 111005Z 20004KT 10SM SCT010 SCT014 BKN022 07/05 A3032 RMK AO2=
200802111005 SPECI KSEA 111005Z 20004KT 10SM SCT010 SCT014 BKN022 07/05 A3032 RMK AO2=
200802111000 SPECI KSEA 111000Z 19005KT 10SM SCT010 BKN014 OVC022 07/05 A3032 RMK AO2=
200802111000 SPECI KSEA 111000Z 19005KT 10SM SCT010 BKN014 OVC022 07/05 A3032 RMK AO2=
200802110953 METAR KSEA 110953Z 20005KT 10SM BKN008 BKN014 OVC022 07/05 A3032 RMK AO2 CIG 007V010 SLP277 T00670050=
200802110853 METAR KSEA 110853Z 19004KT 10SM BKN008 OVC012 07/05 A3032 RMK AO2 SLP277 T00720050 51018=
200802110837 SPECI KSEA 110837Z 18004KT 10SM FEW008 BKN012 OVC021 07/05 A3031 RMK AO2=
200802110837 SPECI KSEA 110837Z 18004KT 10SM FEW008 BKN012 OVC021 07/05 A3031 RMK AO2=
200802110753 METAR KSEA 110753Z 20009KT 10SM BKN019 OVC027 07/05 A3031 RMK AO2 SLP272 T00720050 400830072=
200802110653 METAR KSEA 110653Z 19007KT 10SM FEW012 BKN019 OVC026 07/04 A3029 RMK AO2 SLP264 T00720044=
200802110623 SPECI KSEA 110623Z 20006KT 10SM OVC013 07/05 A3028 RMK AO2=
200802110623 SPECI KSEA 110623Z 20006KT 10SM OVC013 07/05 A3028 RMK AO2=
200802110553 METAR KSEA 110553Z 22006KT 10SM BKN019 OVC022 07/04 A3027 RMK AO2 SLP258 60000 T00720044 10083 20072 51036=
200802110453 METAR KSEA 110453Z 22007KT 10SM FEW019 BKN025 OVC045 07/04 A3026 RMK AO2 SLP254 T00720039=
200802110353 METAR KSEA 110353Z 21012KT 10SM OVC016 07/05 A3021 RMK AO2 SLP239 T00720050=
200802110253 METAR KSEA 110253Z 21012KT 10SM BKN015 OVC020 07/05 A3016 RMK AO2 RAB0159E09 PRESRR SLP221 P0000 60000 T00720050 53017=
200802110153 METAR KSEA 110153Z 22013G19KT 10SM OVC022 08/04 A3013 RMK AO2 SLP211 T00780039=
200802110053 METAR KSEA 110053Z 22015G21KT 10SM OVC024 08/04 A3013 RMK AO2 SLP209 T00830039=
200802102353 METAR KSEA 102353Z 22018G25KT 10SM OVC028 08/03 A3011 RMK AO2 SLP203 T00830033 10083 20078 53003=
200802102334 SPECI KSEA 102334Z 21016G24KT 10SM OVC030 08/04 A3010 RMK AO2=
200802102334 SPECI KSEA 102334Z 21016G24KT 10SM OVC030 08/04 A3010 RMK AO2=
200802102253 METAR KSEA 102253Z 21020G25KT 10SM BKN026 OVC034 08/04 A3010 RMK AO2 PK WND 22027/2205 SLP200 T00830039=
200802102153 METAR KSEA 102153Z 22016G26KT 10SM BKN024 OVC032 08/04 A3009 RMK AO2 PK WND 21027/2112 SLP196 T00830039=
200802102053 METAR KSEA 102053Z 21014G21KT 10SM FEW018 BKN033 OVC041 08/05 A3010 RMK AO2 PK WND 22026/2035 SLP200 T00830050 58000=
200802102051 SPECI KSEA 102051Z 21013G22KT 10SM FEW014 BKN031 OVC041 08/05 A3010 RMK AO2 PK WND 22026/2035=
200802102051 SPECI KSEA 102051Z 21013G22KT 10SM FEW014 BKN031 OVC041 08/05 A3010 RMK AO2 PK WND 22026/2035=
200802102012 SPECI KSEA 102012Z 21011KT 10SM FEW019 BKN026 OVC035 08/05 A3010 RMK AO2=
200802102012 SPECI KSEA 102012Z 21011KT 10SM FEW019 BKN026 OVC035 08/05 A3010 RMK AO2=
200802101953 METAR KSEA 101953Z 20014G21KT 10SM FEW008 SCT020 BKN110 08/04 A3010 RMK AO2 SLP201 T00780044=
200802101900 SPECI KSEA 101900Z 21014G20KT 10SM FEW008 SCT020 BKN110 08/05 A3010 RMK AO2=
200802101900 SPECI KSEA 101900Z 21014G20KT 10SM FEW008 SCT020 BKN110 08/05 A3010 RMK AO2=
200802101853 METAR KSEA 101853Z 21012G22KT 10SM SCT008 BKN014 08/05 A3010 RMK AO2 SLP201 T00780050=
200802101803 SPECI KSEA 101803Z 21010KT 10SM SCT008 BKN014 08/06 A3007 RMK AO2 PRESRR=
200802101803 SPECI KSEA 101803Z 21010KT 10SM SCT008 BKN014 08/06 A3007 RMK AO2 PRESRR=
200802101753 METAR KSEA 101753Z 19012KT 10SM SCT008 SCT014 08/06 A3006 RMK AO2 SLP185 P0001 60014 T00780061 10083 20078 50010=
200802101717 SPECI KSEA 101717Z 19010KT 10SM FEW005 SCT008 08/07 A3005 RMK AO2 P0001=
200802101717 SPECI KSEA 101717Z 19010KT 10SM FEW005 SCT008 08/07 A3005 RMK AO2 P0001=
200802101653 METAR KSEA 101653Z 22009KT 10SM BKN005 BKN015 OVC020 08/07 A3007 RMK AO2 RAE49 CIG 003V009 SLP188 P0001 T00830072=
200802101641 SPECI KSEA 101641Z 22013KT 7SM -RA BKN005 BKN012 OVC019 08/07 A3006 RMK AO2 CIG 003V007 P0001=
200802101641 SPECI KSEA 101641Z 22013KT 7SM -RA BKN005 BKN012 OVC019 08/07 A3006 RMK AO2 CIG 003V007 P0001=
200802101553 METAR KSEA 101553Z 22010KT 1 1/2SM R16C/6000VP6000FT -RA BR BKN005 OVC008 08/07 A3005 RMK AO2 SFC VIS 2 1/2 RAB1454 CIG 002V007 SLP184 P0004 T00830072=
200802101536 SPECI KSEA 101536Z 22010KT 1 1/2SM -RA BR BKN005 OVC013 08/07 A3005 RMK AO2 SFC VIS 4 RAB1454 CIG 002V009 P0003=
200802101536 SPECI KSEA 101536Z 22010KT 1 1/2SM -RA BR BKN005 OVC013 08/07 A3005 RMK AO2 SFC VIS 4 RAB1454 CIG 002V009 P0003=
200802101453 METAR KSEA 101453Z 19009KT 1 1/2SM BR OVC003 08/07 A3003 RMK AO2 SFC VIS 5 RAE50 CIG 001V008 SLP175 P0002 60008 T00780072 58001=
200802101441 SPECI KSEA 101441Z 20011KT 1 1/2SM -RA BR BKN003 OVC008 08/07 A3003 RMK AO2 SFC VIS 3 CIG 001V005 P0002=
200802101441 SPECI KSEA 101441Z 20011KT 1 1/2SM -RA BR BKN003 OVC008 08/07 A3003 RMK AO2 SFC VIS 3 CIG 001V005 P0002=
200802101423 SPECI KSEA 101423Z 21009KT 2SM -RA BR BKN003 OVC006 08/07 A3004 RMK AO2 P0002=
200802101423 SPECI KSEA 101423Z 21009KT 2SM -RA BR BKN003 OVC006 08/07 A3004 RMK AO2 P0002=
200802101353 METAR KSEA 101353Z 21009KT 5SM -RA BR BKN003 OVC007 08/07 A3004 RMK AO2 SLP181 P0002 T00830072=
200802101346 SPECI KSEA 101346Z 20008KT 5SM BR BKN003 OVC007 08/07 A3004 RMK AO2 RAE45 P0002=
200802101346 SPECI KSEA 101346Z 20008KT 5SM BR BKN003 OVC007 08/07 A3004 RMK AO2 RAE45 P0002=
200802101327 SPECI KSEA 101327Z 19009KT 5SM -RA BR OVC003 08/07 A3003 RMK AO2 CIG 002V006 P0002=
200802101327 SPECI KSEA 101327Z 19009KT 5SM -RA BR OVC003 08/07 A3003 RMK AO2 CIG 002V006 P0002=
200802101300 SPECI KSEA 101300Z 18011KT 3/4SM R16C/P6000FT -RA BR BKN005 OVC010 08/07 A3003 RMK AO2 CIG 002V008 P0000=
200802101300 SPECI KSEA 101300Z 18011KT 3/4SM R16C/P6000FT -RA BR BKN005 OVC010 08/07 A3003 RMK AO2 CIG 002V008 P0000=
200802101253 METAR KSEA 101253Z 19010KT 1SM R16C/P6000FT -RA BR BKN005 OVC011 08/07 A3003 RMK AO2 CIG 002V008 SLP176 P0004 T00830072=
200802101245 SPECI KSEA 101245Z 19008KT 1SM R16C/P6000FT -RA BR OVC005 08/07 A3003 RMK AO2 CIG 002V008 P0003=
200802101245 SPECI KSEA 101245Z 19008KT 1SM R16C/P6000FT -RA BR OVC005 08/07 A3003 RMK AO2 CIG 002V008 P0003=
200802101153 METAR KSEA 101153Z 19011KT 2SM -RA BR BKN005 OVC009 08/07 A3003 RMK AO2 CIG 002V007 SLP176 P0003 60022 70024 T00830072 10089 20083 58008=
200802101059 SPECI KSEA 101059Z 19010KT 2SM -RA BR BKN005 OVC010 08/07 A3004 RMK AO2 CIG 001V009 P0001=
200802101059 SPECI KSEA 101059Z 19010KT 2SM -RA BR BKN005 OVC010 08/07 A3004 RMK AO2 CIG 001V009 P0001=
200802101053 METAR KSEA 101053Z 19010KT 1/2SM -RA BR BKN003 OVC010 08/07 A3005 RMK AO2 SFC VIS 1 1/2 CIG 001V009 SLP182 P0004 T00830072=
200802101049 SPECI KSEA 101049Z 20011KT 1/2SM -RA BR BKN003 BKN008 OVC016 08/07 A3005 RMK AO2 SFC VIS 1 1/2 CIG 001V005 P0004=
200802101049 SPECI KSEA 101049Z 20011KT 1/2SM -RA BR BKN003 BKN008 OVC016 08/07 A3005 RMK AO2 SFC VIS 1 1/2 CIG 001V005 P0004=
200802101027 SPECI KSEA 101027Z 19011KT 1/2SM R16C/P6000FT -RA BR BKN001 OVC005 08/07 A3005 RMK AO2 SFC VIS 3/4 P0003=
200802101027 SPECI KSEA 101027Z 19011KT 1/2SM R16C/P6000FT -RA BR BKN001 OVC005 08/07 A3005 RMK AO2 SFC VIS 3/4 P0003=
200802100953 METAR KSEA 100953Z 21007KT 1/2SM R16C/P6000FT -RA BR BKN003 OVC007 08/07 A3005 RMK AO2 SFC VIS 1 SLP184 P0003 T00830072=
200802100943 SPECI KSEA 100943Z 21008KT 1/2SM R16C/P6000FT -RA BR BKN003 OVC007 08/07 A3005 RMK AO2 SFC VIS 1 P0002=
200802100943 SPECI KSEA 100943Z 21008KT 1/2SM R16C/P6000FT -RA BR BKN003 OVC007 08/07 A3005 RMK AO2 SFC VIS 1 P0002=
200802100926 SPECI KSEA 100926Z 20007KT 7SM -RA BKN003 OVC007 08/07 A3005 RMK AO2 P0002=
200802100926 SPECI KSEA 100926Z 20007KT 7SM -RA BKN003 OVC007 08/07 A3005 RMK AO2 P0002=
200802100853 METAR KSEA 100853Z 18008KT 6SM -RA BR SCT005 BKN008 OVC017 08/07 A3004 RMK AO2 CIG 006V012 SLP181 P0009 60012 T00830072 55003=
200802100848 SPECI KSEA 100848Z 18008KT 6SM -RA BR FEW005 BKN009 OVC028 08/07 A3004 RMK AO2 CIG 006V012 P0008=
200802100848 SPECI KSEA 100848Z 18008KT 6SM -RA BR FEW005 BKN009 OVC028 08/07 A3004 RMK AO2 CIG 006V012 P0008=
200802100840 SPECI KSEA 100840Z 18007KT 5SM RA BR SCT007 BKN016 OVC024 08/07 A3005 RMK AO2 P0007=
200802100840 SPECI KSEA 100840Z 18007KT 5SM RA BR SCT007 BKN016 OVC024 08/07 A3005 RMK AO2 P0007=
200802100753 METAR KSEA 100753Z 22006KT 5SM -RA BR OVC018 08/07 A3005 RMK AO2 SLP184 P0003 T00830067 401060072=
200802100653 METAR KSEA 100653Z 18004KT 10SM -RA OVC022 09/06 A3005 RMK AO2 RAB23 SLP184 P0000 T00890061=
200802100553 METAR KSEA 100553Z 21003KT 10SM BKN026 OVC034 08/07 A3007 RMK AO2 SLP190 60000 T00830067 10106 20083 55011=
200802100509 SPECI KSEA 100509Z 21004KT 10SM BKN028 OVC039 08/07 A3007 RMK AO2=
200802100509 SPECI KSEA 100509Z 21004KT 10SM BKN028 OVC039 08/07 A3007 RMK AO2=
200802100453 METAR KSEA 100453Z 20004KT 10SM SCT026 BKN033 OVC042 08/07 A3007 RMK AO2 RAB0357E08B27E37 SLP190 P0000 T00830072=
200802100353 METAR KSEA 100353Z 21005KT 10SM SCT022 BKN033 OVC048 09/07 A3009 RMK AO2 SLP198 T00890067=
200802100339 SPECI KSEA 100339Z 22008KT 10SM FEW024 BKN035 OVC050 09/07 A3009 RMK AO2=
200802100339 SPECI KSEA 100339Z 22008KT 10SM FEW024 BKN035 OVC050 09/07 A3009 RMK AO2=
200802100259 SPECI KSEA 100259Z 22006KT 10SM BKN024 BKN035 OVC050 09/07 A3010 RMK AO2 VIS LWR W=
200802100259 SPECI KSEA 100259Z 22006KT 10SM BKN024 BKN035 OVC050 09/07 A3010 RMK AO2 VIS LWR W=
200802100253 METAR KSEA 100253Z 23006KT 10SM SCT024 BKN035 OVC050 09/07 A3010 RMK AO2 SLP201 T00940067 57013=
200802100153 METAR KSEA 100153Z 22006KT 10SM FEW022 BKN038 OVC055 09/07 A3011 RMK AO2 SLP204 T00940067=
200802100121 SPECI KSEA 100121Z 21008KT 10SM FEW020 SCT028 OVC038 09/07 A3013 RMK AO2=
200802100121 SPECI KSEA 100121Z 21008KT 10SM FEW020 SCT028 OVC038 09/07 A3013 RMK AO2=
200802100053 METAR KSEA 100053Z 22008KT 10SM BKN024 OVC038 10/07 A3013 RMK AO2 SLP211 T01000067=
200802100034 SPECI KSEA 100034Z 21006KT 10SM BKN026 OVC035 10/07 A3014 RMK AO2=
200802100034 SPECI KSEA 100034Z 21006KT 10SM BKN026 OVC035 10/07 A3014 RMK AO2=
200802092353 METAR KSEA 092353Z 19006KT 10SM SCT031 BKN040 OVC048 10/06 A3014 RMK AO2 SLP214 T01000061 10106 20083 56018=
200802092253 METAR KSEA 092253Z 22008KT 10SM SCT028 OVC035 11/07 A3016 RMK AO2 SLP220 SCT V BKN T01060067=
200802092153 METAR KSEA 092153Z 21008KT 10SM FEW020 BKN044 OVC140 11/07 A3017 RMK AO2 SLP225 T01060067=
200802092053 METAR KSEA 092053Z 23011KT 10SM FEW020 BKN048 OVC140 11/07 A3020 RMK AO2 SLP232 T01060072 58005=
200802092029 SPECI KSEA 092029Z 22009KT 10SM FEW020 SCT029 BKN043 10/07 A3020 RMK AO2=
200802092029 SPECI KSEA 092029Z 22009KT 10SM FEW020 SCT029 BKN043 10/07 A3020 RMK AO2=
200802091953 METAR KSEA 091953Z 20009KT 10SM SCT017 OVC024 10/07 A3021 RMK AO2 SLP238 T01000067=
200802091853 METAR KSEA 091853Z 18008KT 10SM OVC024 09/06 A3021 RMK AO2 SLP239 T00890061=
200802091753 METAR KSEA 091753Z 20011KT 10SM FEW005 BKN019 OVC026 08/06 A3021 RMK AO2 RAE00 SLP238 P0000 60002 T00830061 10083 20072 53005=
200802091742 SPECI KSEA 091742Z 19013KT 10SM SCT005 BKN017 OVC028 08/06 A3021 RMK AO2 RAE00 P0000=
200802091742 SPECI KSEA 091742Z 19013KT 10SM SCT005 BKN017 OVC028 08/06 A3021 RMK AO2 RAE00 P0000=
200802091732 SPECI KSEA 091732Z 20011KT 4SM BR BKN005 BKN011 OVC028 08/06 A3021 RMK AO2 RAE00 CIG 003V006 P0000=
200802091732 SPECI KSEA 091732Z 20011KT 4SM BR BKN005 BKN011 OVC028 08/06 A3021 RMK AO2 RAE00 CIG 003V006 P0000=
200802091719 SPECI KSEA 091719Z 20013KT 4SM BR OVC003 08/06 A3021 RMK AO2 RAE00 P0000=
200802091719 SPECI KSEA 091719Z 20013KT 4SM BR OVC003 08/06 A3021 RMK AO2 RAE00 P0000=
200802091705 SPECI KSEA 091705Z 20012KT 2SM BR OVC003 07/06 A3021 RMK AO2 SFC VIS 3 RAE00 CIG 002V006 P0000=
200802091705 SPECI KSEA 091705Z 20012KT 2SM BR OVC003 07/06 A3021 RMK AO2 SFC VIS 3 RAE00 CIG 002V006 P0000=
200802091653 METAR KSEA 091653Z 20012G20KT 1 1/4SM -RA BR OVC003 07/06 A3020 RMK AO2 SFC VIS 3 CIG 002V008 SLP236 P0000 T00720061=
200802091553 METAR KSEA 091553Z 19015G22KT 1 1/4SM -RA BR OVC003 07/06 A3020 RMK AO2 SFC VIS 2 1/2 RAB1455 CIG 001V005 SLP233 P0002 T00720061=
200802091517 SPECI KSEA 091517Z 19011KT 1 1/4SM -RA BR OVC003 07/06 A3020 RMK AO2 SFC VIS 3 RAB1455 CIG 001V007 P0000=
200802091517 SPECI KSEA 091517Z 19011KT 1 1/4SM -RA BR OVC003 07/06 A3020 RMK AO2 SFC VIS 3 RAB1455 CIG 001V007 P0000=
200802091453 METAR KSEA 091453Z 19015KT 9SM OVC005 08/06 A3019 RMK AO2 CIG 004V009 SLP233 T00780061 53007=
200802091353 METAR KSEA 091353Z 21011KT 10SM BKN009 OVC012 08/06 A3019 RMK AO2 SLP231 T00780056=
200802091253 METAR KSEA 091253Z 21010KT 10SM BKN007 OVC012 08/06 A3018 RMK AO2 SLP228 T00780056=
200802091153 METAR KSEA 091153Z 22013KT 10SM BKN006 OVC010 08/06 A3017 RMK AO2 SLP226 60005 70034 T00780056 10078 20072 51011=
200802091053 METAR KSEA 091053Z 22014G20KT 10SM BKN006 OVC010 08/06 A3017 RMK AO2 SLP224 T00780061=
200802090953 METAR KSEA 090953Z 22012G19KT 10SM BKN008 OVC012 08/06 A3016 RMK AO2 RAB32E48 SLP220 P0000 T00780061=
200802090909 SPECI KSEA 090909Z 22016G21KT 10SM FEW003 SCT006 OVC010 08/06 A3015 RMK AO2=
200802090909 SPECI KSEA 090909Z 22016G21KT 10SM FEW003 SCT006 OVC010 08/06 A3015 RMK AO2=
200802090853 METAR KSEA 090853Z 20015G20KT 10SM SCT002 OVC006 07/06 A3014 RMK AO2 RAE46 SLP215 P0000 60005 T00720061 50002=
200802090849 SPECI KSEA 090849Z 20013KT 10SM SCT002 OVC006 07/06 A3014 RMK AO2 RAE46 P0000=
200802090849 SPECI KSEA 090849Z 20013KT 10SM SCT002 OVC006 07/06 A3014 RMK AO2 RAE46 P0000=
200802090753 METAR KSEA 090753Z 19014G20KT 8SM -RA OVC004 07/06 A3014 RMK AO2 SLP214 P0001 T00720061 400720044=
200802090653 METAR KSEA 090653Z 20011KT 10SM -RA OVC004 07/06 A3014 RMK AO2 SLP213 P0004 T00720061=
200802090620 SPECI KSEA 090620Z 20010KT 10SM -RA BKN003 OVC010 07/06 A3014 RMK AO2 P0001=
200802090620 SPECI KSEA 090620Z 20010KT 10SM -RA BKN003 OVC010 07/06 A3014 RMK AO2 P0001=
200802090606 SPECI KSEA 090606Z 19011KT 10SM -RA BKN005 OVC014 07/06 A3014 RMK AO2 CIG 003V008 P0001=
200802090606 SPECI KSEA 090606Z 19011KT 10SM -RA BKN005 OVC014 07/06 A3014 RMK AO2 CIG 003V008 P0001=
200802090553 METAR KSEA 090553Z 19012G19KT 10SM -RA SCT005 OVC012 07/06 A3013 RMK AO2 SLP212 P0002 60023 T00670056 10067 20050 53006=
200802090534 SPECI KSEA 090534Z 19013KT 10SM -RA BKN005 OVC012 07/06 A3013 RMK AO2 P0002=
200802090534 SPECI KSEA 090534Z 19013KT 10SM -RA BKN005 OVC012 07/06 A3013 RMK AO2 P0002=
200802090515 SPECI KSEA 090515Z 18013KT 10SM -RA SCT005 OVC012 07/06 A3012 RMK AO2 P0001=
200802090515 SPECI KSEA 090515Z 18013KT 10SM -RA SCT005 OVC012 07/06 A3012 RMK AO2 P0001=
200802090453 METAR KSEA 090453Z 18012KT 6SM -RA BR BKN003 OVC010 07/06 A3012 RMK AO2 CIG 002V006 SLP207 P0004 T00670056=
200802090353 METAR KSEA 090353Z 17012KT 3SM -RA BR OVC003 06/05 A3011 RMK AO2 SLP205 P0004 T00610050=
200802090348 SPECI KSEA 090348Z 17011KT 3SM RA BR OVC003 06/05 A3011 RMK AO2 P0003=
200802090348 SPECI KSEA 090348Z 17011KT 3SM RA BR OVC003 06/05 A3011 RMK AO2 P0003=
200802090253 METAR KSEA 090253Z 14006KT 4SM -RA BR OVC007 06/04 A3011 RMK AO2 CIG 004V010 SLP206 P0004 60013 T00560044 56005=
200802090233 SPECI KSEA 090233Z 14006KT 4SM -RA BR OVC009 05/04 A3012 RMK AO2 P0003=
200802090233 SPECI KSEA 090233Z 14006KT 4SM -RA BR OVC009 05/04 A3012 RMK AO2 P0003=
200802090153 METAR KSEA 090153Z 16008KT 4SM -RA BR OVC013 05/04 A3012 RMK AO2 SLP207 P0003 T00500039=
200802090132 SPECI KSEA 090132Z 14008KT 6SM -RA BR BKN013 OVC022 05/04 A3012 RMK AO2 P0002=
200802090132 SPECI KSEA 090132Z 14008KT 6SM -RA BR BKN013 OVC022 05/04 A3012 RMK AO2 P0002=
200802090053 METAR KSEA 090053Z 15008KT 3SM -RA BR FEW014 BKN024 OVC030 05/04 A3012 RMK AO2 SLP210 P0006 T00500039=
200802082353 METAR KSEA 082353Z 16013KT 7SM -RA SCT014 OVC022 05/03 A3013 RMK AO2 SLP212 P0003 60006 T00500033 10050 20044 53001=
200802082316 SPECI KSEA 082316Z 17010KT 9SM -RA FEW014 BKN020 OVC028 05/03 A3013 RMK AO2 P0001=
200802082316 SPECI KSEA 082316Z 17010KT 9SM -RA FEW014 BKN020 OVC028 05/03 A3013 RMK AO2 P0001=
200802082253 METAR KSEA 082253Z 18013KT 7SM -RA FEW011 SCT020 OVC032 05/03 A3012 RMK AO2 SLP210 P0003 T00500028=
200802082219 SPECI KSEA 082219Z 18014KT 10SM -RA FEW010 SCT019 OVC041 05/03 A3012 RMK AO2 P0001=
200802082219 SPECI KSEA 082219Z 18014KT 10SM -RA FEW010 SCT019 OVC041 05/03 A3012 RMK AO2 P0001=
200802082153 METAR KSEA 082153Z 18013KT 8SM -RA BKN010 OVC019 05/03 A3013 RMK AO2 RAB17 SLP211 P0000 T00500028=
200802082053 METAR KSEA 082053Z 20018KT 10SM BKN011 OVC014 05/02 A3013 RMK AO2 PK WND 20026/2016 SLP211 60000 T00500022 50005=
200802081953 METAR KSEA 081953Z 20018G27KT 10SM BKN010 OVC014 05/03 A3013 RMK AO2 PK WND 22027/1947 RAE25 SLP212 P0000 T00500028=
200802081853 METAR KSEA 081853Z 21017G24KT 10SM -RA BKN010 OVC014 05/03 A3012 RMK AO2 PK WND 20027/1816 RAB43 SLP209 P0000 T00500028=
200802081753 METAR KSEA 081753Z 21017G27KT 10SM FEW010 OVC014 05/03 A3011 RMK AO2 PK WND 24031/1659 SLP205 60000 T00500028 10056 20044 53012=
200802081653 METAR KSEA 081653Z 21019G25KT 10SM FEW010 BKN014 OVC020 05/03 A3010 RMK AO2 PK WND 23029/1610 SLP202 T00500028=
200802081553 METAR KSEA 081553Z 21019G24KT 10SM BKN014 OVC020 05/03 A3008 RMK AO2 PK WND 20032/1525 SLP196 T00500028=
200802081453 METAR KSEA 081453Z 21020G26KT 10SM FEW009 BKN014 OVC021 05/03 A3008 RMK AO2 PK WND 22030/1414 SLP193 60000 T00500033 53002=
200802081353 METAR KSEA 081353Z 21019G27KT 10SM FEW010 BKN014 OVC020 05/03 A3008 RMK AO2 PK WND 21029/1309 DZE01 SLP193 P0000 T00500028=
200802081253 METAR KSEA 081253Z 20018G29KT 10SM -DZ FEW009 BKN014 OVC021 04/03 A3007 RMK AO2 PK WND 20030/1211 DZB50 SLP192 P0000 T00440028=
200802081217 SPECI KSEA 081217Z 20018G30KT 10SM FEW009 BKN014 OVC021 04/03 A3008 RMK AO2 PK WND 20030/1211=
200802081217 SPECI KSEA 081217Z 20018G30KT 10SM FEW009 BKN014 OVC021 04/03 A3008 RMK AO2 PK WND 20030/1211=
200802081153 METAR KSEA 081153Z 20018G26KT 10SM BKN012 OVC021 05/03 A3007 RMK AO2 PK WND 21026/1144 RAB08E33 SLP192 P0000 60000 T00500028 10056 20044 58005=
200802081053 METAR KSEA 081053Z 21016G27KT 10SM BKN011 BKN019 OVC024 05/03 A3009 RMK AO2 PK WND 20032/0954 SLP197 T00500028=
200802080953 METAR KSEA 080953Z 21022G33KT 10SM BKN011 OVC018 04/02 A3008 RMK AO2 PK WND 23033/0944 SLP195 T00440022=
200802080853 METAR KSEA 080853Z 21021G27KT 10SM BKN010 OVC018 05/02 A3009 RMK AO2 PK WND 20029/0838 SLP197 60000 T00500022 58002=
200802080753 METAR KSEA 080753Z 20019G28KT 10SM BKN012 OVC020 05/03 A3009 RMK AO2 PK WND 20028/0749 RAB29E50 SLP199 P0000 T00500028 400720050=
200802080701 SPECI KSEA 080701Z 21014G21KT 10SM OVC012 05/03 A3011 RMK AO2=
200802080701 SPECI KSEA 080701Z 21014G21KT 10SM OVC012 05/03 A3011 RMK AO2=
200802080653 METAR KSEA 080653Z 20016G21KT 10SM FEW010 OVC015 05/03 A3011 RMK AO2 PK WND 20028/0618 SLP205 T00500028=
200802080553 METAR KSEA 080553Z 20018G27KT 10SM BKN015 OVC021 06/03 A3009 RMK AO2 PK WND 19027/0549 RAB38E53 SLP199 P0000 60000 T00560028 10067 20050 51008=
200802080453 METAR KSEA 080453Z 19015G23KT 10SM BKN015 OVC021 06/03 A3009 RMK AO2 SLP199 T00560028=
200802080409 SPECI KSEA 080409Z 21015G25KT 10SM SCT010 BKN016 OVC029 05/03 A3008 RMK AO2=
200802080409 SPECI KSEA 080409Z 21015G25KT 10SM SCT010 BKN016 OVC029 05/03 A3008 RMK AO2=
200802080353 METAR KSEA 080353Z 21016G21KT 10SM BKN010 OVC016 05/03 A3008 RMK AO2 CIG 008V012 SLP194 T00500033=
200802080253 METAR KSEA 080253Z 21016G23KT 10SM OVC018 06/03 A3007 RMK AO2 RAE0157 SLP191 P0000 60000 T00560028 51017=
200802080153 METAR KSEA 080153Z 19017G23KT 10SM -RA SCT017 BKN022 OVC033 06/03 A3005 RMK AO2 PK WND 19031/0135 RAB46 SLP185 P0000 T00560028=
200802080125 SPECI KSEA 080125Z 20016G26KT 10SM FEW016 BKN021 BKN090 BKN200 06/02 A3004 RMK AO2 PK WND 21028/0103=
200802080125 SPECI KSEA 080125Z 20016G26KT 10SM FEW016 BKN021 BKN090 BKN200 06/02 A3004 RMK AO2 PK WND 21028/0103=
200802080053 METAR KSEA 080053Z 22015G26KT 10SM SCT022 BKN090 BKN200 06/02 A3005 RMK AO2 PK WND 22030/0042 SLP183 T00610022=
200802080031 SPECI KSEA 080031Z 21015G26KT 10SM BKN025 BKN100 BKN180 07/03 A3003 RMK AO2 PK WND 20026/0026=
200802080031 SPECI KSEA 080031Z 21015G26KT 10SM BKN025 BKN100 BKN180 07/03 A3003 RMK AO2 PK WND 20026/0026=
200802072353 METAR KSEA 072353Z 21021G28KT 10SM SCT024 SCT120 BKN180 07/03 A3002 RMK AO2 PK WND 21032/2321 SLP174 T00670028 10072 20061 51026=
200802072253 METAR KSEA 072253Z 21014G27KT 10SM FEW022 SCT120 BKN180 07/02 A2999 RMK AO2 PK WND 21033/2213 SLP165 T00670022=
200802072153 METAR KSEA 072153Z 22018G27KT 10SM FEW024 SCT110 BKN160 06/03 A2997 RMK AO2 PK WND 23034/2125 SLP156 SH DSNT S T00610028=
200802072053 METAR KSEA 072053Z 23023G34KT 10SM FEW023 BKN180 07/02 A2994 RMK AO2 PK WND 22034/2049 SLP148 T00670017 51026=
200802072034 SPECI KSEA 072034Z 23017G28KT 10SM SCT023 BKN180 07/02 A2993 RMK AO2 PK WND 21029/1954=
200802072034 SPECI KSEA 072034Z 23017G28KT 10SM SCT023 BKN180 07/02 A2993 RMK AO2 PK WND 21029/1954=
200802071953 METAR KSEA 071953Z 23015G25KT 10SM BKN022 BKN180 07/02 A2993 RMK AO2 PK WND 21036/1913 SLP143 T00670022=
200802071949 SPECI KSEA 071949Z 22014G23KT 10SM BKN022 BKN180 07/02 A2993 RMK AO2 PK WND 21036/1913=
200802071949 SPECI KSEA 071949Z 22014G23KT 10SM BKN022 BKN180 07/02 A2993 RMK AO2 PK WND 21036/1913=
200802071924 SPECI KSEA 071924Z 22019G27KT 10SM SCT022 BKN180 07/02 A2992 RMK AO2 PK WND 21036/1913=
200802071924 SPECI KSEA 071924Z 22019G27KT 10SM SCT022 BKN180 07/02 A2992 RMK AO2 PK WND 21036/1913=
200802071853 METAR KSEA 071853Z 22017G26KT 10SM BKN021 BKN180 07/02 A2990 RMK AO2 PK WND 23034/1840 SLP134 T00670022=
200802071814 SPECI KSEA 071814Z 23019G32KT 10SM BKN021 BKN200 06/02 A2988 RMK AO2 PK WND 23032/1809=
200802071814 SPECI KSEA 071814Z 23019G32KT 10SM BKN021 BKN200 06/02 A2988 RMK AO2 PK WND 23032/1809=
200802071753 METAR KSEA 071753Z 23021G33KT 10SM SCT019 BKN200 06/02 A2987 RMK AO2 PK WND 23033/1753 SLP122 T00610022 10061 20050 51034=
200802071748 SPECI KSEA 071748Z 23024G33KT 10SM SCT019 BKN200 06/02 A2986 RMK AO2 PK WND 23033/1739=
200802071748 SPECI KSEA 071748Z 23024G33KT 10SM SCT019 BKN200 06/02 A2986 RMK AO2 PK WND 23033/1739=
200802071713 SPECI KSEA 071713Z 22019G28KT 10SM BKN018 BKN200 06/02 A2985 RMK AO2 PK WND 21028/1704=
200802071713 SPECI KSEA 071713Z 22019G28KT 10SM BKN018 BKN200 06/02 A2985 RMK AO2 PK WND 21028/1704=
200802071653 METAR KSEA 071653Z 23017G25KT 10SM SCT017 BKN200 06/02 A2984 RMK AO2 PK WND 23036/1603 SLP112 T00560022=
200802071649 SPECI KSEA 071649Z 23019G25KT 10SM SCT017 BKN200 06/02 A2983 RMK AO2 PK WND 23036/1603=
200802071649 SPECI KSEA 071649Z 23019G25KT 10SM SCT017 BKN200 06/02 A2983 RMK AO2 PK WND 23036/1603=
200802071553 METAR KSEA 071553Z 22020G30KT 10SM BKN017 BKN080 06/02 A2980 RMK AO2 PK WND 22034/1459 SLP099 T00560022=
200802071453 METAR KSEA 071453Z 22018G29KT 10SM BKN017 OVC080 05/04 A2976 RMK AO2 PK WND 23029/1449 SLP088 T00500039 51037=
200802071425 SPECI KSEA 071425Z 21012G20KT 10SM BKN019 OVC080 06/04 A2976 RMK AO2 PK WND 23027/1409=
200802071425 SPECI KSEA 071425Z 21012G20KT 10SM BKN019 OVC080 06/04 A2976 RMK AO2 PK WND 23027/1409=
200802071353 METAR KSEA 071353Z 23016G26KT 10SM FEW020 05/04 A2974 RMK AO2 PK WND 22033/1322 PRESRR SLP080 T00500039=
200802071253 METAR KSEA 071253Z 23021G27KT 10SM FEW030 06/04 A2969 RMK AO2 PK WND 25036/1205 SLP063 T00560039=
200802071211 SPECI KSEA 071211Z 23020G36KT 10SM FEW017 SCT022 06/04 A2966 RMK AO2 PK WND 25036/1205=
200802071211 SPECI KSEA 071211Z 23020G36KT 10SM FEW017 SCT022 06/04 A2966 RMK AO2 PK WND 25036/1205=
200802071153 METAR KSEA 071153Z 23022G34KT 10SM BKN021 06/04 A2965 RMK AO2 PK WND 22036/1117 SLP050 60007 70031 T00610044 10061 20028 53025=
200802071053 METAR KSEA 071053Z 21018G30KT 10SM BKN015 BKN090 06/05 A2961 RMK AO2 PK WND 21037/1015 RAE36 SLP036 P0001 T00560050=
200802071038 SPECI KSEA 071038Z 21022G30KT 10SM SCT015 BKN050 OVC090 06/05 A2961 RMK AO2 PK WND 21037/1015 RAE36 P0001=
200802071038 SPECI KSEA 071038Z 21022G30KT 10SM SCT015 BKN050 OVC090 06/05 A2961 RMK AO2 PK WND 21037/1015 RAE36 P0001=
200802071006 SPECI KSEA 071006Z 21021G31KT 10SM -RA SCT008 BKN015 OVC020 06/05 A2961 RMK AO2 PK WND 20031/1004 P0000=
200802071006 SPECI KSEA 071006Z 21021G31KT 10SM -RA SCT008 BKN015 OVC020 06/05 A2961 RMK AO2 PK WND 20031/1004 P0000=
200802070953 METAR KSEA 070953Z 21021G32KT 9SM -RA SCT013 OVC020 06/05 A2960 RMK AO2 PK WND 22043/0858 SLP032 P0003 T00560050=
200802070926 SPECI KSEA 070926Z 22024G39KT 7SM -RA SCT017 BKN028 OVC037 06/04 A2960 RMK AO2 PK WND 22043/0858 P0002=
200802070926 SPECI KSEA 070926Z 22024G39KT 7SM -RA SCT017 BKN028 OVC037 06/04 A2960 RMK AO2 PK WND 22043/0858 P0002=
200802070853 METAR KSEA 070853Z 20029G42KT 8SM -RA FEW016 BKN032 OVC070 06/04 A2958 RMK AO2 PK WND 22046/0802 SLP023 P0000 60003 T00560044 56051=
200802070845 SPECI KSEA 070845Z 21027G41KT 10SM -RA FEW018 OVC038 06/04 A2957 RMK AO2 PK WND 22046/0802 P0000=
200802070845 SPECI KSEA 070845Z 21027G41KT 10SM -RA FEW018 OVC038 06/04 A2957 RMK AO2 PK WND 22046/0802 P0000=
200802070753 METAR KSEA 070753Z 21027G38KT 10SM -RA BKN021 OVC025 06/04 A2959 RMK AO2 PK WND 21040/0742 RAE16B53 SLP027 P0000 T00560039 400560022=
200802070707 SPECI KSEA 070707Z 19010KT 10SM -RA OVC017 04/03 A2963 RMK AO2 PRESFR P0000=
200802070707 SPECI KSEA 070707Z 19010KT 10SM -RA OVC017 04/03 A2963 RMK AO2 PRESFR P0000=
200802070653 METAR KSEA 070653Z 17008G15KT 10SM -RA OVC014 03/02 A2965 RMK AO2 RAB01 PRESFR SLP050 P0003 T00330017=
200802070625 SPECI KSEA 070625Z 20009KT 10SM -RA BKN014 OVC023 03/02 A2971 RMK AO2 RAB01 P0001=
200802070625 SPECI KSEA 070625Z 20009KT 10SM -RA BKN014 OVC023 03/02 A2971 RMK AO2 RAB01 P0001=
200802070553 METAR KSEA 070553Z 16012G18KT 10SM FEW009 BKN016 OVC023 03/02 A2973 RMK AO2 PK WND 17031/0456 RAE51 SLP076 P0002 60020 T00280017 10039 20022 58069=
200802070546 SPECI KSEA 070546Z 16014KT 10SM -RA SCT008 BKN012 OVC038 03/02 A2973 RMK AO2 PK WND 17031/0456 P0002=
200802070546 SPECI KSEA 070546Z 16014KT 10SM -RA SCT008 BKN012 OVC038 03/02 A2973 RMK AO2 PK WND 17031/0456 P0002=
200802070453 METAR KSEA 070453Z 16022G26KT 5SM RA BR BKN006 OVC011 02/01 A2979 RMK AO2 PK WND 17026/0452 PRESFR SLP095 P0008 T00220006=
200802070353 METAR KSEA 070353Z 18011G20KT 7SM RA BKN009 OVC014 03/02 A2993 RMK AO2 SLP145 P0006 T00280017=
200802070350 SPECI KSEA 070350Z 18013G20KT 6SM RA BR BKN009 OVC014 03/01 A2993 RMK AO2 P0005=
200802070350 SPECI KSEA 070350Z 18013G20KT 6SM RA BR BKN009 OVC014 03/01 A2993 RMK AO2 P0005=
200802070321 SPECI KSEA 070321Z 18010G20KT 8SM -RA BKN011 OVC023 03/01 A2995 RMK AO2 P0002=
200802070321 SPECI KSEA 070321Z 18010G20KT 8SM -RA BKN011 OVC023 03/01 A2995 RMK AO2 P0002=
200802070253 METAR KSEA 070253Z 17013KT 10SM -RA BKN022 OVC031 03/02 A2997 RMK AO2 SLP157 P0001 60004 T00280017 58045=
200802070153 METAR KSEA 070153Z 17013KT 10SM -RA FEW011 BKN028 OVC045 03/02 A3002 RMK AO2 SLP174 P0000 T00280022=
200802070121 SPECI KSEA 070121Z 17013KT 10SM -RA FEW009 BKN028 OVC036 03/01 A3004 RMK AO2 PRESFR P0000=
200802070121 SPECI KSEA 070121Z 17013KT 10SM -RA FEW009 BKN028 OVC036 03/01 A3004 RMK AO2 PRESFR P0000=
200802070053 METAR KSEA 070053Z 18012G18KT 10SM -RA SCT007 OVC012 03/02 A3006 RMK AO2 SLP189 P0003 T00330017=
200802062353 METAR KSEA 062353Z 20016G24KT 5SM RA BR BKN012 OVC020 04/02 A3010 RMK AO2 RAB03 SLP203 P0003 60004 T00390017 10050 20033 56020=
200802062253 METAR KSEA 062253Z 19011G19KT 10SM FEW018 BKN026 OVC080 04/01 A3011 RMK AO2 RAB39E51 SLP205 P0001 T00440011=
200802062153 METAR KSEA 062153Z 20014KT 10SM FEW015 BKN023 OVC040 05/01 A3014 RMK AO2 SLP216 VCSH W-N T00500006=
200802062053 METAR KSEA 062053Z 20009G18KT 8SM FEW013 BKN022 OVC050 05/02 A3016 RMK AO2 RAB26E40 SLP223 P0000 60000 T00500017 58007=
200802062020 SPECI KSEA 062020Z 21011KT 10SM SCT015 BKN023 OVC080 04/01 A3018 RMK AO2=
200802062020 SPECI KSEA 062020Z 21011KT 10SM SCT015 BKN023 OVC080 04/01 A3018 RMK AO2=
200802061953 METAR KSEA 061953Z 20011G17KT 10SM BKN013 OVC080 04/01 A3019 RMK AO2 SLP233 T00440011=
200802061853 METAR KSEA 061853Z 19011G17KT 10SM BKN013 OVC018 04/01 A3019 RMK AO2 SLP232 T00390011=
200802061847 SPECI KSEA 061847Z 19009KT 10SM BKN013 OVC018 04/01 A3019 RMK AO2=
200802061847 SPECI KSEA 061847Z 19009KT 10SM BKN013 OVC018 04/01 A3019 RMK AO2=
200802061827 SPECI KSEA 061827Z 19012KT 10SM SCT010 OVC016 04/01 A3018 RMK AO2=
200802061827 SPECI KSEA 061827Z 19012KT 10SM SCT010 OVC016 04/01 A3018 RMK AO2=
200802061753 METAR KSEA 061753Z 18011KT 10SM BKN010 BKN016 OVC080 03/01 A3018 RMK AO2 SLP231 T00330006 10033 20022 50003=
200802061653 METAR KSEA 061653Z 20014G18KT 10SM FEW010 BKN014 OVC025 03/01 A3020 RMK AO2 SLP236 T00330006=
200802061553 METAR KSEA 061553Z 19010KT 10SM BKN014 OVC020 03/01 A3020 RMK AO2 SLP237 T00280006=
200802061453 METAR KSEA 061453Z 18008KT 10SM OVC012 02/00 A3017 RMK AO2 SLP227 T00220000 53017=
200802061353 METAR KSEA 061353Z 18008KT 10SM OVC012 02/00 A3015 RMK AO2 SLP220 T00220000=
200802061253 METAR KSEA 061253Z 21007KT 10SM BKN010 OVC018 03/01 A3014 RMK AO2 CIG 008V015 SLP215 T00280006=
200802061153 METAR KSEA 061153Z 22011KT 10SM OVC010 03/01 A3012 RMK AO2 CIG 009V013 SLP210 70016 T00280006 10039 20028 51025=
200802061053 METAR KSEA 061053Z 21011KT 10SM OVC010 03/01 A3009 RMK AO2 SLP200 T00330011=
200802060953 METAR KSEA 060953Z 23012KT 10SM BKN012 03/01 A3010 RMK AO2 SLP201 T00330011=
200802060942 SPECI KSEA 060942Z 21014KT 10SM FEW008 BKN012 BKN017 03/01 A3009 RMK AO2 PRESRR=
200802060942 SPECI KSEA 060942Z 21014KT 10SM FEW008 BKN012 BKN017 03/01 A3009 RMK AO2 PRESRR=
200802060853 METAR KSEA 060853Z 21014KT 10SM SCT013 OVC110 03/01 A3005 RMK AO2 SLP184 T00330011 50002=
200802060819 SPECI KSEA 060819Z 20012G21KT 10SM OVC011 03/01 A3006 RMK AO2=
200802060819 SPECI KSEA 060819Z 20012G21KT 10SM OVC011 03/01 A3006 RMK AO2=
200802060753 METAR KSEA 060753Z 18010KT 10SM OVC017 03/00 A3005 RMK AO2 SLP185 T00330000 400720028=
200802060741 SPECI KSEA 060741Z 17010KT 10SM BKN017 04/00 A3006 RMK AO2=
200802060741 SPECI KSEA 060741Z 17010KT 10SM BKN017 04/00 A3006 RMK AO2=
200802060720 SPECI KSEA 060720Z 19009KT 10SM SCT021 BKN110 04/00 A3005 RMK AO2=
200802060720 SPECI KSEA 060720Z 19009KT 10SM SCT021 BKN110 04/00 A3005 RMK AO2=
200802060653 METAR KSEA 060653Z 16009KT 10SM BKN023 03/01 A3005 RMK AO2 SLP184 T00330006=
200802060619 SPECI KSEA 060619Z 24004KT 10SM BKN023 04/00 A3005 RMK AO2=
200802060619 SPECI KSEA 060619Z 24004KT 10SM BKN023 04/00 A3005 RMK AO2=
200802060553 METAR KSEA 060553Z 20009G17KT 10SM FEW023 BKN140 04/00 A3004 RMK AO2 SLP182 T00390000 10056 20039 53015=
200802060526 SPECI KSEA 060526Z 20013KT 10SM FEW020 BKN140 04/00 A3002 RMK AO2=
200802060526 SPECI KSEA 060526Z 20013KT 10SM FEW020 BKN140 04/00 A3002 RMK AO2=
200802060453 METAR KSEA 060453Z 20013G21KT 10SM BKN020 04/01 A3002 RMK AO2 SLP174 T00440006=
200802060436 SPECI KSEA 060436Z 20013G20KT 10SM BKN022 04/01 A3002 RMK AO2=
200802060436 SPECI KSEA 060436Z 20013G20KT 10SM BKN022 04/01 A3002 RMK AO2=
200802060409 SPECI KSEA 060409Z 20012KT 10SM SCT020 BKN120 04/01 A3002 RMK AO2=
200802060409 SPECI KSEA 060409Z 20012KT 10SM SCT020 BKN120 04/01 A3002 RMK AO2=
200802060353 METAR KSEA 060353Z 21011G16KT 10SM BKN020 BKN120 04/01 A3002 RMK AO2 SLP174 T00390006=
200802060326 SPECI KSEA 060326Z 20016G22KT 10SM SCT018 BKN025 04/01 A3001 RMK AO2=
200802060326 SPECI KSEA 060326Z 20016G22KT 10SM SCT018 BKN025 04/01 A3001 RMK AO2=
200802060253 METAR KSEA 060253Z 20013KT 10SM SCT021 BKN030 BKN120 04/01 A3000 RMK AO2 PK WND 23028/0154 SLP167 T00440006 51021=
200802060209 SPECI KSEA 060209Z 24014G22KT 10SM SCT018 BKN120 04/01 A3000 RMK AO2 PK WND 23028/0154=
200802060209 SPECI KSEA 060209Z 24014G22KT 10SM SCT018 BKN120 04/01 A3000 RMK AO2 PK WND 23028/0154=
200802060153 METAR KSEA 060153Z 23016G27KT 10SM SCT018 BKN022 BKN120 04/02 A2999 RMK AO2 PK WND 21028/0136 SLP163 CB DSNT N T00390022=
200802060127 SPECI KSEA 060127Z 23016G23KT 10SM SCT016 BKN021 OVC110 04/03 A2998 RMK AO2 PK WND 23027/0115 CB DSNT N=
200802060127 SPECI KSEA 060127Z 23016G23KT 10SM SCT016 BKN021 OVC110 04/03 A2998 RMK AO2 PK WND 23027/0115 CB DSNT N=
200802060113 SPECI KSEA 060113Z 23015G23KT 10SM SCT019 BKN110 BKN180 04/03 A2996 RMK AO2 CB DSNT N=
200802060113 SPECI KSEA 060113Z 23015G23KT 10SM SCT019 BKN110 BKN180 04/03 A2996 RMK AO2 CB DSNT N=
200802060053 METAR KSEA 060053Z 23016G26KT 10SM SCT019 BKN024 BKN180 04/03 A2995 RMK AO2 PK WND 24032/0038 SLP152 T00440033=
200802052353 METAR KSEA 052353Z 22020G28KT 10SM BKN019 OVC025 06/04 A2993 RMK AO2 PK WND 21031/2341 RAB07E44 SLP146 BINOVC NW P0000 60006 T00560039 10072 20044 58007=
200802052253 METAR KSEA 052253Z 20019G27KT 10SM BKN016 BKN025 05/03 A2995 RMK AO2 PK WND 18031/2234 RAB11E49 SLP152 P0003 T00500028=
200802052212 SPECI KSEA 052212Z 19016G23KT 7SM -RA FEW009 BKN027 OVC044 05/03 A2995 RMK AO2 PK WND 19026/2158 RAB11 P0000=
200802052212 SPECI KSEA 052212Z 19016G23KT 7SM -RA FEW009 BKN027 OVC044 05/03 A2995 RMK AO2 PK WND 19026/2158 RAB11 P0000=
200802052153 METAR KSEA 052153Z 19019G30KT 10SM FEW009 SCT028 BKN045 06/03 A2995 RMK AO2 PK WND 22033/2102 RAB2059E11 SLP150 P0000 T00560028=
200802052132 SPECI KSEA 052132Z 20019G32KT 10SM FEW009 SCT026 BKN048 06/04 A2994 RMK AO2 PK WND 22033/2102 RAB2059E11 P0000=
200802052132 SPECI KSEA 052132Z 20019G32KT 10SM FEW009 SCT026 BKN048 06/04 A2994 RMK AO2 PK WND 22033/2102 RAB2059E11 P0000=
200802052104 SPECI KSEA 052104Z 21021G33KT 7SM -RA FEW007 BKN026 OVC034 04/04 A2996 RMK AO2 PK WND 22033/2102 RAB2059 P0000=
200802052104 SPECI KSEA 052104Z 21021G33KT 7SM -RA FEW007 BKN026 OVC034 04/04 A2996 RMK AO2 PK WND 22033/2102 RAB2059 P0000=
200802052053 METAR KSEA 052053Z 21021G32KT 5SM BR FEW011 BKN021 OVC034 04/04 A2996 RMK AO2 PK WND 22039/2027 RAE52 SLP153 P0002 60003 T00440039 53002=
200802052020 SPECI KSEA 052020Z 22021G33KT 5SM RA BR FEW013 BKN024 OVC032 06/05 A2995 RMK AO2 PK WND 22034/2010 P0001=
200802052020 SPECI KSEA 052020Z 22021G33KT 5SM RA BR FEW013 BKN024 OVC032 06/05 A2995 RMK AO2 PK WND 22034/2010 P0001=
200802051953 METAR KSEA 051953Z 19017G26KT 7SM -RA BKN032 OVC042 07/03 A2991 RMK AO2 PK WND 20026/1947 SLP136 P0000 T00720028=
200802051853 METAR KSEA 051853Z 18013G21KT 10SM -RA BKN032 OVC050 06/02 A2993 RMK AO2 RAB16 SLP145 P0001 T00610022=
200802051813 SPECI KSEA 051813Z 19014G20KT 10SM FEW020 BKN031 OVC050 06/02 A2996 RMK AO2=
200802051813 SPECI KSEA 051813Z 19014G20KT 10SM FEW020 BKN031 OVC050 06/02 A2996 RMK AO2=
200802051753 METAR KSEA 051753Z 17016KT 10SM FEW020 BKN029 OVC050 06/03 A2995 RMK AO2 RAE10 SLP151 P0000 60010 T00610033 10061 20033 58050=
200802051653 METAR KSEA 051653Z 18012KT 10SM -RA FEW020 OVC027 05/04 A3001 RMK AO2 SLP173 P0000 T00500039=
200802051553 METAR KSEA 051553Z 16016KT 10SM -RA BKN021 OVC027 04/03 A3005 RMK AO2 SLP184 P0005 T00440033=
200802051453 METAR KSEA 051453Z 17008KT 7SM -RA BKN023 OVC033 04/02 A3010 RMK AO2 SLP203 P0004 60005 T00390022 56025=
200802051353 METAR KSEA 051353Z 17007KT 10SM -RA OVC023 04/02 A3013 RMK AO2 SLP211 P0001 T00390022=
200802051253 METAR KSEA 051253Z 19009KT 10SM -RA SCT018 OVC028 03/02 A3014 RMK AO2 RAB36 SLP217 P0000 T00330022=
200802051153 METAR KSEA 051153Z 15005KT 7SM OVC018 03/02 A3017 RMK AO2 SLP227 60001 70001 T00330017 10033 20028 56021=
200802051113 SPECI KSEA 051113Z 15005KT 7SM OVC016 03/02 A3018 RMK AO2=
200802051113 SPECI KSEA 051113Z 15005KT 7SM OVC016 03/02 A3018 RMK AO2=
200802051053 METAR KSEA 051053Z 16007KT 6SM BR OVC014 03/02 A3019 RMK AO2 RAB0958E32 SLP233 P0000 T00280017=
200802051025 SPECI KSEA 051025Z 15009KT 4SM -RA BR SCT014 OVC019 03/02 A3020 RMK AO2 RAB0958 P0000=
200802051025 SPECI KSEA 051025Z 15009KT 4SM -RA BR SCT014 OVC019 03/02 A3020 RMK AO2 RAB0958 P0000=
200802050953 METAR KSEA 050953Z 16008KT 5SM BR BKN013 OVC022 03/01 A3022 RMK AO2 SLP242 T00280011=
200802050853 METAR KSEA 050853Z 17009KT 10SM FEW018 BKN029 OVC050 03/01 A3024 RMK AO2 RAB15E47 SLP249 P0001 60001 T00330011 58014=
200802050830 SPECI KSEA 050830Z 18011KT 10SM -RA SCT031 OVC055 03/01 A3025 RMK AO2 RAB15 P0001=
200802050830 SPECI KSEA 050830Z 18011KT 10SM -RA SCT031 OVC055 03/01 A3025 RMK AO2 RAB15 P0001=
200802050753 METAR KSEA 050753Z 18006KT 10SM FEW018 BKN029 OVC050 03/01 A3026 RMK AO2 SLP258 T00330006 400501006=
200802050708 SPECI KSEA 050708Z 18009KT 10SM SCT023 BKN028 OVC065 03/01 A3027 RMK AO2=
200802050708 SPECI KSEA 050708Z 18009KT 10SM SCT023 BKN028 OVC065 03/01 A3027 RMK AO2=
200802050653 METAR KSEA 050653Z 19009KT 10SM FEW025 SCT033 OVC065 03/01 A3027 RMK AO2 SLP258 T00330006=
200802050640 SPECI KSEA 050640Z 18007KT 10SM SCT023 BKN031 OVC065 03/01 A3027 RMK AO2=
200802050640 SPECI KSEA 050640Z 18007KT 10SM SCT023 BKN031 OVC065 03/01 A3027 RMK AO2=
200802050608 SPECI KSEA 050608Z 17008KT 10SM BKN023 BKN029 OVC036 03/01 A3028 RMK AO2=
200802050608 SPECI KSEA 050608Z 17008KT 10SM BKN023 BKN029 OVC036 03/01 A3028 RMK AO2=
200802050553 METAR KSEA 050553Z 17007KT 10SM FEW009 BKN013 OVC035 03/01 A3028 RMK AO2 RAB08E29 SLP263 P0000 60000 T00330011 10050 20033 53005=
200802050453 METAR KSEA 050453Z 20009KT 10SM OVC013 03/01 A3027 RMK AO2 RAE0355B20E52 SLP262 P0000 T00330011=
200802050353 METAR KSEA 050353Z 19009KT 10SM -RA BKN012 OVC019 03/01 A3027 RMK AO2 RAB21 SLP261 P0000 T00330011=
200802050334 SPECI KSEA 050334Z 20011KT 10SM -RA BKN014 OVC021 04/01 A3027 RMK AO2 RAB21 P0000=
200802050334 SPECI KSEA 050334Z 20011KT 10SM -RA BKN014 OVC021 04/01 A3027 RMK AO2 RAB21 P0000=
200802050253 METAR KSEA 050253Z 20011KT 10SM BKN017 OVC022 04/01 A3027 RMK AO2 SLP260 T00390011 51010=
200802050153 METAR KSEA 050153Z 23011KT 10SM OVC022 04/01 A3027 RMK AO2 SLP258 T00390006=
200802050053 METAR KSEA 050053Z 21012KT 10SM BKN022 OVC028 04/01 A3025 RMK AO2 SLP253 T00440006=
200802042353 METAR KSEA 042353Z 21010KT 10SM BKN020 OVC025 05/01 A3024 RMK AO2 SLP248 T00500006 10050 20017 53006=
200802042253 METAR KSEA 042253Z 21011KT 10SM BKN016 OVC023 05/01 A3023 RMK AO2 SLP246 T00500011=
200802042153 METAR KSEA 042153Z 21009KT 10SM BKN016 OVC025 04/01 A3022 RMK AO2 SLP241 T00440011=
200802042146 SPECI KSEA 042146Z 23012KT 10SM BKN015 OVC025 04/01 A3022 RMK AO2=
200802042146 SPECI KSEA 042146Z 23012KT 10SM BKN015 OVC025 04/01 A3022 RMK AO2=
200802042053 METAR KSEA 042053Z 19006KT 10SM BKN012 BKN021 04/02 A3022 RMK AO2 SLP242 T00440017 50000=
200802041953 METAR KSEA 041953Z 19006KT 10SM BKN010 OVC018 04/01 A3023 RMK AO2 SLP245 T00390006=
200802041918 SPECI KSEA 041918Z 20007KT 10SM BKN010 OVC015 03/01 A3023 RMK AO2=
200802041918 SPECI KSEA 041918Z 20007KT 10SM BKN010 OVC015 03/01 A3023 RMK AO2=
200802041853 METAR KSEA 041853Z 21006KT 10SM BKN009 OVC013 03/00 A3023 RMK AO2 SLP248 T00280000=
200802041753 METAR KSEA 041753Z 20008KT 10SM BKN009 OVC012 02/M01 A3022 RMK AO2 SLP243 60000 T00171006 10017 21006 53015=
200802041653 METAR KSEA 041653Z 17006KT 10SM BKN009 OVC013 01/M01 A3020 RMK AO2 SLP237 T00111006=
200802041615 SPECI KSEA 041615Z 17003KT 10SM BKN007 BKN250 01/M01 A3020 RMK AO2=
200802041615 SPECI KSEA 041615Z 17003KT 10SM BKN007 BKN250 01/M01 A3020 RMK AO2=
200802041553 METAR KSEA 041553Z 16005KT 10SM FEW007 BKN250 00/M01 A3019 RMK AO2 SLP233 T00001011=
200802041524 SPECI KSEA 041524Z 16004KT 10SM FEW009 BKN250 01/M01 A3018 RMK AO2=
200802041524 SPECI KSEA 041524Z 16004KT 10SM FEW009 BKN250 01/M01 A3018 RMK AO2=
200802041453 METAR KSEA 041453Z 15004KT 10SM FEW030 00/M02 A3017 RMK AO2 SLP227 60000 T00001017 53021=
200802041353 METAR KSEA 041353Z 19006KT 10SM SCT030 01/M01 A3014 RMK AO2 RAB1258E11 SLP218 P0000 T00111006=
200802041304 SPECI KSEA 041304Z 18005KT 10SM -RA FEW018 SCT024 OVC031 02/00 A3013 RMK AO2 RAB1258 P0000=
200802041304 SPECI KSEA 041304Z 18005KT 10SM -RA FEW018 SCT024 OVC031 02/00 A3013 RMK AO2 RAB1258 P0000=
200802041253 METAR KSEA 041253Z 19004KT 10SM SCT018 BKN026 OVC031 02/00 A3013 RMK AO2 SLP212 T00170000=
200802041153 METAR KSEA 041153Z 14004KT 10SM OVC020 02/00 A3011 RMK AO2 SLP206 70002 T00170000 10022 20011 53025=
200802041053 METAR KSEA 041053Z 17006KT 10SM OVC018 02/00 A3008 RMK AO2 SLP196 T00220000=
200802041023 SPECI KSEA 041023Z 17004KT 10SM SCT008 OVC015 02/01 A3008 RMK AO2=
200802041023 SPECI KSEA 041023Z 17004KT 10SM SCT008 OVC015 02/01 A3008 RMK AO2=
200802040953 METAR KSEA 040953Z 16004KT 10SM FEW009 OVC012 02/01 A3006 RMK AO2 SLP187 T00170006=
200802040927 SPECI KSEA 040927Z 19005KT 10SM OVC010 02/01 A3005 RMK AO2 CIG 007V013=
200802040927 SPECI KSEA 040927Z 19005KT 10SM OVC010 02/01 A3005 RMK AO2 CIG 007V013=
200802040853 METAR KSEA 040853Z 16003KT 10SM OVC008 02/01 A3003 RMK AO2 SLP180 T00170006 51018=
200802040844 SPECI KSEA 040844Z 17004KT 10SM OVC008 02/01 A3003 RMK AO2=
200802040844 SPECI KSEA 040844Z 17004KT 10SM OVC008 02/01 A3003 RMK AO2=
200802040813 SPECI KSEA 040813Z 16005KT 10SM BKN011 BKN038 OVC055 02/00 A3003 RMK AO2=
200802040813 SPECI KSEA 040813Z 16005KT 10SM BKN011 BKN038 OVC055 02/00 A3003 RMK AO2=
200802040753 METAR KSEA 040753Z 15005KT 10SM SCT015 BKN030 OVC075 02/00 A3003 RMK AO2 SLP177 T00170000 400390011=
200802040715 SPECI KSEA 040715Z 15004KT 10SM SCT019 BKN024 OVC080 01/00 A3001 RMK AO2=
200802040715 SPECI KSEA 040715Z 15004KT 10SM SCT019 BKN024 OVC080 01/00 A3001 RMK AO2=
200802040653 METAR KSEA 040653Z 13006KT 10SM BKN080 02/00 A3000 RMK AO2 SLP169 T00170000=
200802040553 METAR KSEA 040553Z 15005KT 10SM BKN070 BKN090 01/00 A2998 RMK AO2 SLP162 60000 T00110000 10028 20011 51020=
200802040453 METAR KSEA 040453Z 13004KT 10SM SCT032 BKN090 01/M01 A2996 RMK AO2 SLP156 T00111006=
200802040353 METAR KSEA 040353Z 16004KT 10SM FEW012 BKN035 BKN090 02/00 A2994 RMK AO2 SLP149 T00170000=
200802040253 METAR KSEA 040253Z 17004KT 10SM BKN032 OVC080 02/00 A2992 RMK AO2 RAB21E30 SLP142 P0000 60000 T00170000 51029=
200802040211 SPECI KSEA 040211Z 17003KT 9SM FEW009 BKN032 OVC080 02/01 A2991 RMK AO2=
200802040211 SPECI KSEA 040211Z 17003KT 9SM FEW009 BKN032 OVC080 02/01 A2991 RMK AO2=
200802040153 METAR KSEA 040153Z 17004KT 9SM FEW009 BKN028 OVC075 02/00 A2990 RMK AO2 SLP134 T00170000=
200802040143 SPECI KSEA 040143Z 17004KT 10SM FEW009 BKN028 OVC090 02/01 A2989 RMK AO2=
200802040143 SPECI KSEA 040143Z 17004KT 10SM FEW009 BKN028 OVC090 02/01 A2989 RMK AO2=
200802040053 METAR KSEA 040053Z 19004KT 10SM FEW004 BKN032 OVC080 02/01 A2986 RMK AO2 SLP122 T00170006=
200802040022 SPECI KSEA 040022Z 19006KT 9SM FEW006 BKN032 OVC080 02/01 A2985 RMK AO2=
200802040022 SPECI KSEA 040022Z 19006KT 9SM FEW006 BKN032 OVC080 02/01 A2985 RMK AO2=
200802040001 SPECI KSEA 040001Z 19005KT 9SM FEW006 BKN026 OVC090 02/01 A2984 RMK AO2=
200802040001 SPECI KSEA 040001Z 19005KT 9SM FEW006 BKN026 OVC090 02/01 A2984 RMK AO2=
200802032353 METAR KSEA 032353Z 20006KT 9SM SCT024 BKN028 OVC090 03/01 A2983 RMK AO2 RAE09B40E51 SLP113 P0000 60002 T00280011 10039 20028 53024=
200802032253 METAR KSEA 032253Z 00000KT 8SM -RA OVC020 03/01 A2981 RMK AO2 RAB27 SLP105 P0002 T00280006=
200802032153 METAR KSEA 032153Z 20005KT 10SM FEW018 BKN023 OVC029 03/M01 A2978 RMK AO2 RAE2059 SLP094 P0000 T00331006=
200802032053 METAR KSEA 032053Z 18003KT 10SM -RA BKN019 OVC080 03/M01 A2976 RMK AO2 RAB50 SLP087 P0000 60000 T00331006 51026=
200802032000 SPECI KSEA 032000Z 17003KT 10SM BKN026 BKN031 OVC080 03/M01 A2975 RMK AO2=
200802032000 SPECI KSEA 032000Z 17003KT 10SM BKN026 BKN031 OVC080 03/M01 A2975 RMK AO2=
200802031953 METAR KSEA 031953Z 17004KT 10SM SCT024 OVC080 03/M01 A2974 RMK AO2 SLP082 T00331011=
200802031853 METAR KSEA 031853Z 00000KT 10SM FEW029 SCT060 BKN080 03/M01 A2972 RMK AO2 SLP072 T00331011=
200802031753 METAR KSEA 031753Z 00000KT 10SM FEW021 OVC075 03/M02 A2968 RMK AO2 SLP061 T00281017 10028 20011 53036=
200802031653 METAR KSEA 031653Z 09003KT 10SM SCT026 OVC075 02/M01 A2965 RMK AO2 SLP049 T00221011=
200802031553 METAR KSEA 031553Z 05003KT 10SM OVC075 02/M01 A2961 RMK AO2 SLP036 T00221011=
200802031453 METAR KSEA 031453Z 00000KT 10SM OVC070 02/M01 A2958 RMK AO2 SLP024 T00171011 53025=
200802031353 METAR KSEA 031353Z 00000KT 10SM OVC070 02/M01 A2955 RMK AO2 SLP015 T00171011=
200802031253 METAR KSEA 031253Z 06004KT 10SM OVC070 01/M01 A2952 RMK AO2 SLP005 T00111006=
200802031153 METAR KSEA 031153Z 01006KT 10SM BKN065 02/M01 A2950 RMK AO2 SLP998 T00171006 10022 20011 53023=
200802031053 METAR KSEA 031053Z 01003KT 10SM BKN070 02/M01 A2947 RMK AO2 SLP989 T00171006=
200802030953 METAR KSEA 030953Z 02010KT 10SM BKN070 02/M01 A2945 RMK AO2 SLP982 T00221006=
200802030853 METAR KSEA 030853Z 02010KT 10SM BKN065 02/M01 A2943 RMK AO2 SLP975 T00171006 53005=
200802030753 METAR KSEA 030753Z 02009KT 10SM FEW080 01/M01 A2942 RMK AO2 SLP972 T00111006 400560011=
200802030653 METAR KSEA 030653Z 36011KT 10SM CLR 02/M01 A2942 RMK AO2 SLP972 T00221006=
200802030553 METAR KSEA 030553Z 36010KT 10SM FEW080 02/M01 A2942 RMK AO2 SLP970 T00221011 10050 20017 55001=
200802030453 METAR KSEA 030453Z 35008KT 10SM SCT080 03/00 A2942 RMK AO2 SLP970 T00280000=
200802030353 METAR KSEA 030353Z 02009KT 10SM OVC080 04/M01 A2942 RMK AO2 SLP969 T00391006=
200802030253 METAR KSEA 030253Z 01009KT 10SM OVC070 04/M01 A2942 RMK AO2 SLP972 T00391006 56013=
200802030153 METAR KSEA 030153Z 01008KT 10SM OVC060 04/M01 A2943 RMK AO2 SLP974 T00441006=
200802030053 METAR KSEA 030053Z 01010KT 10SM BKN050 OVC060 05/M01 A2944 RMK AO2 SLP979 T00501011=
200802022353 METAR KSEA 022353Z 35006KT 10SM FEW025 BKN050 OVC070 05/M01 A2946 RMK AO2 SLP985 60000 T00501006 10056 20033 56030=
200802022253 METAR KSEA 022253Z 01007KT 10SM FEW015 BKN032 OVC060 06/M01 A2948 RMK AO2 SLP993 T00561006=
200802022212 SPECI KSEA 022212Z 02005KT 10SM OVC032 06/M01 A2950 RMK AO2=
200802022212 SPECI KSEA 022212Z 02005KT 10SM OVC032 06/M01 A2950 RMK AO2=
200802022153 METAR KSEA 022153Z 01005KT 10SM OVC029 05/M01 A2951 RMK AO2 SLP003 T00501011=
200802022138 SPECI KSEA 022138Z VRB03KT 10SM BKN027 OVC039 05/M01 A2952 RMK AO2=
200802022138 SPECI KSEA 022138Z VRB03KT 10SM BKN027 OVC039 05/M01 A2952 RMK AO2=
200802022053 METAR KSEA 022053Z 03006KT 10SM FEW021 BKN038 OVC045 04/00 A2955 RMK AO2 RAB22E39 SLP015 P0000 60000 T00440000 58036=
200802022030 SPECI KSEA 022030Z 08004KT 10SM -RA SCT021 OVC029 04/00 A2957 RMK AO2 RAB22 P0000=
200802022030 SPECI KSEA 022030Z 08004KT 10SM -RA SCT021 OVC029 04/00 A2957 RMK AO2 RAB22 P0000=
200802021953 METAR KSEA 021953Z 03003KT 10SM OVC039 04/M01 A2960 RMK AO2 SLP030 T00441006=
200802021853 METAR KSEA 021853Z 36005KT 10SM BKN060 BKN075 04/01 A2963 RMK AO2 SLP042 T00390006=
200802021753 METAR KSEA 021753Z 36006KT 10SM SCT060 BKN065 03/01 A2966 RMK AO2 SLP051 60000 T00330006 10033 20011 58028=
200802021653 METAR KSEA 021653Z 05008KT 10SM SCT030 BKN070 02/00 A2969 RMK AO2 SLP064 T00220000=
200802021553 METAR KSEA 021553Z 08007KT 10SM BKN055 OVC075 02/00 A2974 RMK AO2 SLP079 P0000 T00220000=
200802021453 METAR KSEA 021453Z 07006KT 10SM BKN029 OVC095 02/00 A2977 RMK AO2 RAE1356 SLP091 P0000 60000 T00170000 58026=
200802021434 SPECI KSEA 021434Z 10004KT 10SM BKN029 OVC090 02/00 A2978 RMK AO2 RAE1356 P0000=
200802021434 SPECI KSEA 021434Z 10004KT 10SM BKN029 OVC090 02/00 A2978 RMK AO2 RAE1356 P0000=
200802021427 SPECI KSEA 021427Z 10005KT 10SM FEW010 BKN037 OVC100 02/00 A2979 RMK AO2 RAE1356 P0000=
200802021427 SPECI KSEA 021427Z 10005KT 10SM FEW010 BKN037 OVC100 02/00 A2979 RMK AO2 RAE1356 P0000=
200802021417 SPECI KSEA 021417Z 10005KT 10SM SCT012 BKN028 OVC085 02/00 A2979 RMK AO2 RAE1356 P0000=
200802021417 SPECI KSEA 021417Z 10005KT 10SM SCT012 BKN028 OVC085 02/00 A2979 RMK AO2 RAE1356 P0000=
200802021404 SPECI KSEA 021404Z 10004KT 10SM BKN012 OVC028 02/00 A2980 RMK AO2 RAE1356 P0000=
200802021404 SPECI KSEA 021404Z 10004KT 10SM BKN012 OVC028 02/00 A2980 RMK AO2 RAE1356 P0000=
200802021353 METAR KSEA 021353Z 11005KT 10SM -RA SCT012 BKN028 OVC037 02/00 A2980 RMK AO2 SLP101 P0000 T00220000=
200802021341 SPECI KSEA 021341Z 11004KT 10SM -RA BKN028 OVC037 02/00 A2981 RMK AO2 P0000=
200802021341 SPECI KSEA 021341Z 11004KT 10SM -RA BKN028 OVC037 02/00 A2981 RMK AO2 P0000=
200802021253 METAR KSEA 021253Z 13003KT 10SM -RA SCT028 OVC038 02/00 A2983 RMK AO2 RAB51 SLP110 P0000 T00170000=
200802021238 SPECI KSEA 021238Z 00000KT 10SM FEW017 SCT030 OVC038 02/01 A2984 RMK AO2=
200802021238 SPECI KSEA 021238Z 00000KT 10SM FEW017 SCT030 OVC038 02/01 A2984 RMK AO2=
200802021153 METAR KSEA 021153Z 16003KT 10SM BKN019 OVC024 01/00 A2985 RMK AO2 RAB20E36 SLP117 P0000 60000 T00110000 10028 20011 58021=
200802021123 SPECI KSEA 021123Z 17004KT 10SM -RA FEW013 BKN020 OVC033 01/00 A2986 RMK AO2 RAB20 P0000=
200802021123 SPECI KSEA 021123Z 17004KT 10SM -RA FEW013 BKN020 OVC033 01/00 A2986 RMK AO2 RAB20 P0000=
200802021053 METAR KSEA 021053Z 17006KT 10SM BKN013 BKN020 OVC030 02/00 A2988 RMK AO2 SLP126 T00170000=
200802021003 SPECI KSEA 021003Z 17007KT 10SM BKN013 BKN020 OVC034 02/00 A2990 RMK AO2=
200802021003 SPECI KSEA 021003Z 17007KT 10SM BKN013 BKN020 OVC034 02/00 A2990 RMK AO2=
200802020953 METAR KSEA 020953Z 17007KT 10SM SCT013 BKN020 OVC033 02/00 A2990 RMK AO2 RAB41E52 SLP133 P0000 T00220000=
200802020943 SPECI KSEA 020943Z 16007KT 10SM -RA FEW019 BKN027 OVC035 02/00 A2990 RMK AO2 RAB41 P0000=
200802020943 SPECI KSEA 020943Z 16007KT 10SM -RA FEW019 BKN027 OVC035 02/00 A2990 RMK AO2 RAB41 P0000=
200802020853 METAR KSEA 020853Z 18007KT 10SM BKN012 OVC070 02/00 A2991 RMK AO2 SLP139 60000 T00220000 58010=
200802020753 METAR KSEA 020753Z 18008KT 10SM OVC010 02/01 A2994 RMK AO2 CIG 008V014 SLP147 T00220006 400500022=
200802020653 METAR KSEA 020653Z 19010G18KT 10SM BKN012 OVC020 03/01 A2995 RMK AO2 RAB0555E51 SLP149 P0000 T00280006=
200802020553 METAR KSEA 020553Z 19010KT 10SM BKN010 OVC017 03/01 A2995 RMK AO2 SLP150 T00280011 10044 20028 50003=
200802020453 METAR KSEA 020453Z 19009KT 10SM SCT009 OVC016 03/01 A2995 RMK AO2 SLP150 T00330011=
200802020417 SPECI KSEA 020417Z 19010KT 10SM SCT009 BKN016 OVC085 03/01 A2995 RMK AO2=
200802020417 SPECI KSEA 020417Z 19010KT 10SM SCT009 BKN016 OVC085 03/01 A2995 RMK AO2=
200802020353 METAR KSEA 020353Z 18009KT 10SM SCT007 BKN014 OVC110 03/01 A2994 RMK AO2 SLP148 T00330011=
200802020346 SPECI KSEA 020346Z 19011KT 10SM SCT007 BKN012 OVC110 03/01 A2994 RMK AO2=
200802020346 SPECI KSEA 020346Z 19011KT 10SM SCT007 BKN012 OVC110 03/01 A2994 RMK AO2=
200802020253 METAR KSEA 020253Z 19011KT 10SM SCT010 OVC100 03/01 A2994 RMK AO2 SLP147 T00280011 50008=
200802020220 SPECI KSEA 020220Z 20013KT 10SM SCT014 BKN100 OVC120 03/01 A2993 RMK AO2=
200802020220 SPECI KSEA 020220Z 20013KT 10SM SCT014 BKN100 OVC120 03/01 A2993 RMK AO2=
200802020153 METAR KSEA 020153Z 22016G20KT 10SM SCT015 SCT110 03/01 A2994 RMK AO2 SLP148 T00330006=
200802020053 METAR KSEA 020053Z 20017G21KT 10SM SCT018 SCT120 BKN200 04/01 A2993 RMK AO2 SLP143 T00390006=
200802020018 SPECI KSEA 020018Z 20016G24KT 10SM SCT018 BKN090 BKN200 04/01 A2992 RMK AO2=
200802020018 SPECI KSEA 020018Z 20016G24KT 10SM SCT018 BKN090 BKN200 04/01 A2992 RMK AO2=
200802012353 METAR KSEA 012353Z 21016G23KT 10SM BKN018 BKN110 BKN200 04/01 A2991 RMK AO2 PK WND 22027/2305 SLP139 T00440011 10050 20039 55003=
200802012253 METAR KSEA 012253Z 20012G21KT 10SM SCT014 BKN019 OVC110 05/02 A2991 RMK AO2 SLP137 SH DSNT SE T00500017=
200802012248 SPECI KSEA 012248Z 19014G20KT 10SM FEW013 BKN020 BKN100 05/02 A2991 RMK AO2 SH DSNT SE=
200802012248 SPECI KSEA 012248Z 19014G20KT 10SM FEW013 BKN020 BKN100 05/02 A2991 RMK AO2 SH DSNT SE=
200802012225 SPECI KSEA 012225Z 19016G24KT 10SM SCT015 BKN100 BKN200 04/01 A2991 RMK AO2 SH DSNT SE=
200802012225 SPECI KSEA 012225Z 19016G24KT 10SM SCT015 BKN100 BKN200 04/01 A2991 RMK AO2 SH DSNT SE=
200802012153 METAR KSEA 012153Z 20015G22KT 10SM BKN015 BKN100 BKN200 05/02 A2992 RMK AO2 PK WND 20027/2132 SLP139 T00500017=
200802012149 SPECI KSEA 012149Z 19017G23KT 10SM SCT015 BKN100 BKN200 04/02 A2991 RMK AO2 PK WND 20027/2132=
200802012149 SPECI KSEA 012149Z 19017G23KT 10SM SCT015 BKN100 BKN200 04/02 A2991 RMK AO2 PK WND 20027/2132=
200802012111 SPECI KSEA 012111Z 20011G20KT 10SM BKN015 OVC050 05/02 A2992 RMK AO2=
200802012111 SPECI KSEA 012111Z 20011G20KT 10SM BKN015 OVC050 05/02 A2992 RMK AO2=
200802012053 METAR KSEA 012053Z 20013G22KT 10SM BKN014 BKN050 05/02 A2992 RMK AO2 SLP142 T00500017 51007=
200802012041 SPECI KSEA 012041Z 21014G22KT 10SM BKN013 BKN050 05/02 A2993 RMK AO2=
200802012041 SPECI KSEA 012041Z 21014G22KT 10SM BKN013 BKN050 05/02 A2993 RMK AO2=
200802011953 METAR KSEA 011953Z 20016KT 10SM BKN017 BKN050 05/02 A2992 RMK AO2 SLP140 T00500017=
200802011929 SPECI KSEA 011929Z 21018G24KT 10SM BKN015 BKN050 BKN120 05/02 A2992 RMK AO2=
200802011929 SPECI KSEA 011929Z 21018G24KT 10SM BKN015 BKN050 BKN120 05/02 A2992 RMK AO2=
200802011907 SPECI KSEA 011907Z 21014G20KT 10SM BKN014 BKN050 BKN120 05/02 A2992 RMK AO2=
200802011907 SPECI KSEA 011907Z 21014G20KT 10SM BKN014 BKN050 BKN120 05/02 A2992 RMK AO2=
200802011853 METAR KSEA 011853Z 20014G20KT 10SM BKN016 BKN050 BKN120 04/01 A2992 RMK AO2 SLP141 T00440011=
200802011826 SPECI KSEA 011826Z 19016G25KT 10SM BKN015 BKN050 BKN120 04/01 A2990 RMK AO2=
200802011826 SPECI KSEA 011826Z 19016G25KT 10SM BKN015 BKN050 BKN120 04/01 A2990 RMK AO2=
200802011753 METAR KSEA 011753Z 20014G22KT 10SM BKN013 BKN050 04/01 A2990 RMK AO2 SLP134 T00390011 10039 20028 51023=
200802011724 SPECI KSEA 011724Z 20013G20KT 10SM BKN011 BKN050 03/01 A2989 RMK AO2=
200802011724 SPECI KSEA 011724Z 20013G20KT 10SM BKN011 BKN050 03/01 A2989 RMK AO2=
200802011653 METAR KSEA 011653Z 18012KT 10SM BKN009 BKN050 03/01 A2988 RMK AO2 SLP128 T00330011=
200802011553 METAR KSEA 011553Z 19011G21KT 10SM BKN008 OVC012 03/01 A2986 RMK AO2 SLP121 T00280011=
200802011526 SPECI KSEA 011526Z 19011G19KT 10SM BKN008 OVC012 03/01 A2984 RMK AO2=
200802011526 SPECI KSEA 011526Z 19011G19KT 10SM BKN008 OVC012 03/01 A2984 RMK AO2=
200802011453 METAR KSEA 011453Z 20013G22KT 10SM BKN012 OVC025 03/01 A2983 RMK AO2 SLP110 T00330011 53021=
200802011353 METAR KSEA 011353Z 20010G18KT 10SM OVC012 03/01 A2981 RMK AO2 SLP103 T00330011=
200802011315 SPECI KSEA 011315Z 20013G21KT 10SM BKN009 OVC014 03/01 A2979 RMK AO2=
200802011315 SPECI KSEA 011315Z 20013G21KT 10SM BKN009 OVC014 03/01 A2979 RMK AO2=
200802011311 SPECI KSEA 011311Z 20014G20KT 10SM BKN011 OVC016 03/01 A2979 RMK AO2=
200802011311 SPECI KSEA 011311Z 20014G20KT 10SM BKN011 OVC016 03/01 A2979 RMK AO2=
200802011253 METAR KSEA 011253Z 20016G22KT 10SM BKN009 OVC012 03/01 A2978 RMK AO2 SLP094 T00330011=
200802011153 METAR KSEA 011153Z 20013G18KT 10SM BKN009 OVC013 03/02 A2977 RMK AO2 RAE07 CIG 006V010 SLP089 P0000 60000 70029 T00330017 10033 20028 53018=
200802011053 METAR KSEA 011053Z 20013G20KT 10SM -RA OVC007 03/02 A2975 RMK AO2 RAB51 CIG 006V012 SLP083 P0000 T00330017=
200802010953 METAR KSEA 010953Z 19014G23KT 10SM BKN009 OVC014 03/01 A2973 RMK AO2 CIG 007V012 SLP075 T00330011=
200802010853 METAR KSEA 010853Z 19013G21KT 10SM BKN008 OVC016 03/01 A2971 RMK AO2 PK WND 20027/0816 CIG 006V012 SLP070 60000 T00280011 53021=
200802010825 SPECI KSEA 010825Z 20017G27KT 10SM BKN008 OVC012 03/01 A2970 RMK AO2 PK WND 20027/0816=
200802010825 SPECI KSEA 010825Z 20017G27KT 10SM BKN008 OVC012 03/01 A2970 RMK AO2 PK WND 20027/0816=
200802010753 METAR KSEA 010753Z 19017G23KT 10SM OVC010 03/01 A2968 RMK AO2 RAE50 CIG 007V014 SLP060 P0000 T00330011 400560022=
200802010727 SPECI KSEA 010727Z 19013G22KT 10SM -RA BKN010 OVC015 03/02 A2968 RMK AO2 CIG 007V013 P0000=
200802010727 SPECI KSEA 010727Z 19013G22KT 10SM -RA BKN010 OVC015 03/02 A2968 RMK AO2 CIG 007V013 P0000=
200802010717 SPECI KSEA 010717Z 19014G20KT 10SM BKN008 BKN013 OVC020 03/02 A2967 RMK AO2 RAE12 CIG 007V011 P0000=
200802010717 SPECI KSEA 010717Z 19014G20KT 10SM BKN008 BKN013 OVC020 03/02 A2967 RMK AO2 RAE12 CIG 007V011 P0000=
200802010653 METAR KSEA 010653Z 18015G23KT 10SM -RA BKN012 BKN020 OVC024 03/02 A2967 RMK AO2 SLP054 P0000 T00330017=
200802010553 METAR KSEA 010553Z 18010G19KT 10SM -RA SCT011 OVC014 03/02 A2965 RMK AO2 SLP048 P0003 60020 T00330017 10039 20028 53010=
200802010453 METAR KSEA 010453Z 18016G21KT 10SM -RA BKN020 OVC027 03/01 A2963 RMK AO2 SLP043 P0001 T00330011=
200802010436 SPECI KSEA 010436Z 18012G19KT 10SM -RA FEW011 OVC021 03/02 A2963 RMK AO2 P0001=
200802010436 SPECI KSEA 010436Z 18012G19KT 10SM -RA FEW011 OVC021 03/02 A2963 RMK AO2 P0001=
200802010353 METAR KSEA 010353Z 19011KT 10SM -RA FEW008 BKN013 OVC029 03/02 A2962 RMK AO2 SLP040 P0000 T00330017=
200802010328 SPECI KSEA 010328Z 17007KT 10SM -RA FEW009 BKN013 OVC031 03/02 A2962 RMK AO2 P0000=
200802010328 SPECI KSEA 010328Z 17007KT 10SM -RA FEW009 BKN013 OVC031 03/02 A2962 RMK AO2 P0000=
200802010253 METAR KSEA 010253Z 17012KT 10SM -RA BKN008 OVC013 03/01 A2962 RMK AO2 SLP038 P0009 60016 T00280011 55002=
200802010237 SPECI KSEA 010237Z 18015KT 8SM -RA SCT008 OVC013 03/01 A2961 RMK AO2 P0008=
200802010237 SPECI KSEA 010237Z 18015KT 8SM -RA SCT008 OVC013 03/01 A2961 RMK AO2 P0008=
200802010153 METAR KSEA 010153Z 18010KT 10SM -RA FEW009 BKN017 OVC023 03/01 A2961 RMK AO2 SLP037 P0004 T00330011=
200802010116 SPECI KSEA 010116Z 16009KT 10SM -RA FEW009 BKN023 OVC033 03/02 A2961 RMK AO2 P0001=
200802010116 SPECI KSEA 010116Z 16009KT 10SM -RA FEW009 BKN023 OVC033 03/02 A2961 RMK AO2 P0001=
200802010053 METAR KSEA 010053Z 17008KT 8SM -RA SCT009 BKN014 OVC032 03/02 A2961 RMK AO2 SLP036 P0003 T00330017=
200802010020 SPECI KSEA 010020Z 17008KT 10SM -RA SCT009 BKN013 OVC028 03/02 A2962 RMK AO2 P0001=
200802010020 SPECI KSEA 010020Z 17008KT 10SM -RA SCT009 BKN013 OVC028 03/02 A2962 RMK AO2 P0001=

# No short TAF reports from KSEA in databse.

###################################
#  large TAF from KSEA
###################################
200802292339 TAF KSEA 292339Z 010024 22012G20KT P6SM -RA BKN040 OVC090 FM0200
                       22012G20KT P6SM -RA SCT008 OVC025 FM0500
                       20012G20KT P6SM -SHRA SCT008 BKN015 OVC030
                       FM1200 19007KT P6SM VCSH BKN015 OVC030 FM1800
                       20010KT P6SM VCSH BKN025 BKN045=
200802292300 KSEA 010312Z 010324 22014G20KT P6SM -SHRA SCT012 BKN050 FM0500
                       20012G20KT P6SM -SHRA SCT008 BKN015 OVC030
                       FM1200 19007KT P6SM VCSH BKN015 OVC030 FM1800
                       20010KT P6SM VCSH BKN025 BKN045=
200802291735 TAF KSEA 291735Z 291818 16005KT P6SM BKN120 BKN200
                      TEMPO 1819 3SM BR SCT004 BKN120 BKN200 FM2000
                       14006KT P6SM SCT040 OVC080 FM2300 16008KT
                       P6SM -RA SCT020 OVC040 FM0200 18012G20KT
                       P6SM -RA SCT008 OVC018 FM0400 20012G20KT
                       P6SM -SHRA SCT008 BKN015 BKN030=
200802291142 TAF KSEA 291142Z 291212 00000KT P6SM SCT002 OVC200
                      TEMPO 1215 3SM BR BKN002 FM1600 12006KT P6SM
                       SCT080 OVC150 FM2000 14006KT P6SM SCT040
                       OVC080 FM2300 16008KT P6SM -RA SCT020 OVC040
                       FM0200 18012G20KT P6SM -RA SCT008 OVC018
                       FM0400 20012G20KT P6SM -SHRA SCT008 BKN015
                       BKN030=
200802290528 TAF KSEA 290528Z 290606 00000KT P6SM OVC200 FM1500 12006KT P6SM
                       SCT080 OVC150 FM2000 14006KT P6SM SCT040
                       OVC080 FM2200 16008KT P6SM -RA SCT020 OVC040
                       FM0300 18012KT P6SM -RA SCT008 OVC018=
200802282339 TAF KSEA 282339Z 290024 VRB03KT P6SM SCT035 SCT200 FM0600 05005KT
                       P6SM BKN200 FM1500 10007KT P6SM SCT080 OVC150
                       FM1900 15007KT P6SM SCT040 OVC080
                      TEMPO 1921 -RA FM2100 17011KT P6SM -RA OVC040=
200802282104 KSEA 282104Z 282118 36005KT P6SM SCT010 BKN030 BKN200 FM2200 33005KT
                       P6SM FEW018 SCT030 SCT200 FM0000 33005KT
                       P6SM SCT200 FM0600 05005KT P6SM BKN200 FM1200
                       10006KT P6SM OVC200=
200802281740 TAF KSEA 281740Z 281818 00000KT 4SM BR BKN006 OVC020 FM2000 VRB03KT
                       6SM HZ SCT010 BKN020 FM2100 33005KT P6SM
                       SCT030 SCT200 FM0000 33005KT P6SM SCT200
                       FM0600 05005KT P6SM BKN200 FM1200 10006KT
                       P6SM OVC200=
200802281646 KSEA 281646Z 281712 VRB03KT 3SM BR BKN008 OVC015 FM1900 VRB03KT
                       5SM BR HZ BKN015 OVC022 FM2000 VRB03KT 6SM
                       HZ BKN022 FM2130 VRB03KT P6SM FEW030 SCT200
                       FM2300 VRB03KT P6SM SCT030 BKN200=
200802281501 KSEA 281501Z 281512 VRB03KT 1 1/2SM -DZ BR OVC008
                      TEMPO 1518 3/4SM -DZ BR OVC003 FM1800 VRB03KT
                       4SM BR BKN008 OVC015 FM2000 VRB03KT 6SM
                       HZ OVC015 FM2100 VRB03KT P6SM BKN020 BKN200
                       FM2300 VRB03KT P6SM SCT030 BKN200=
200802281450 KSEA 281450Z 281512 VRB03KT P6SM SCT007 OVC015
                      TEMPO 1518 3SM BR BKN005 OVC012 FM2100 VRB03KT
                       P6SM BKN020 BKN200 FM2300 VRB03KT P6SM SCT030
                       BKN200=
200802281140 TAF KSEA 281140Z 281212 20006KT P6SM BKN006 OVC012 FM1400 VRB03KT
                       P6SM SCT008 OVC015
                      TEMPO 1417 BKN008 OVC015 FM2100 VRB03KT P6SM
                       BKN020 BKN200 FM2300 VRB03KT P6SM SCT030
                       BKN200=
200802280537 TAF KSEA 280537Z 280606 20006KT P6SM SCT006 BKN015 OVC030
                      TEMPO 0610 BKN006 OVC015 FM1000 VRB03KT P6SM
                       OVC006 FM1700 VRB03KT P6SM SCT006 OVC012
                       FM2100 VRB03KT P6SM BKN020 BKN200 FM0000
                       VRB03KT P6SM SCT030 BKN200=
200802272332 TAF KSEA 272332Z 280024 21009KT P6SM FEW030 BKN070 FM0300 19005KT
                       P6SM FEW030 BKN050 FM0900 VRB03KT P6SM OVC025
                       FM1200 VRB03KT P6SM OVC012 FM1900 VRB03KT
                       P6SM BKN020 BKN200 FM2100 VRB03KT P6SM SCT030
                       BKN200=
200802272203 KSEA 272203Z 272218 21009KT P6SM BKN070 BKN130 FM0200 21006KT P6SM
                       BKN040 BKN070 FM0800 VRB03KT P6SM BKN020
                       FM1000 VRB03KT P6SM OVC011=
200802271913 KSEA 271913Z 271918 17006KT P6SM BKN060 BKN130 FM2200 21008KT P6SM
                       OVC060
                      TEMPO 2202 -SHRA FM0200 21006KT P6SM BKN040
                       BKN070 FM0800 VRB03KT P6SM BKN020 FM1000
                       VRB03KT P6SM OVC011=
200802271738 TAF KSEA 271738Z 271818 14006KT P6SM BKN040 OVC090
                      TEMPO 1820 -RA FM2000 17006KT P6SM BKN040
                       OVC090
                      TEMPO 2022 -RA FM2200 21008KT P6SM BKN040
                       OVC090
                      TEMPO 2202 -SHRA FM0200 21006KT P6SM BKN040
                       BKN070 FM0800 VRB03KT P6SM BKN020 FM1000
                       VRB03KT P6SM OVC011=
200802271605 KSEA 271605Z 271612 21009KT P6SM -RA OVC040 FM0300 18006KT P6SM
                       VCSH FEW025 SCT050 SCT100 FM0800 16005KT
                       P6SM BKN025=
200802271449 KSEA 271449Z 271512 14008KT P6SM SCT080 OVC120 FM1600 21011KT P6SM
                       -SHRA BKN050 BKN100 FM0300 18006KT P6SM
                       VCSH FEW025 SCT050 SCT100 FM0800 16005KT
                       P6SM BKN025=
200802271122 TAF KSEA 271122Z 271212 13006KT P6SM SCT120 OVC200 FM1600 14008KT
                       P6SM BKN120 OVC200 FM1800 16008KT P6SM SCT060
                       OVC120 FM2000 21011KT P6SM -SHRA BKN050
                       BKN100 FM0300 18006KT P6SM VCSH FEW025 SCT050
                       SCT100 FM0800 16005KT P6SM BKN025=
200802270520 TAF KSEA 270520Z 270606 13006KT P6SM SCT150 OVC200 FM1500 16008KT
                       P6SM -RA BKN060 OVC120 FM2300 21011KT P6SM
                       -SHRA BKN040 BKN080=
200802262334 TAF KSEA 262334Z 270024 27003KT P6SM BKN120 OVC180 FM1200 16008KT
                       P6SM -RA BKN040 OVC070 FM2100 21012KT P6SM
                       -SHRA BKN035 BKN050=
200802261740 TAF KSEA 261740Z 261818 16006KT P6SM BKN100 BKN200 FM1200 16008KT
                       P6SM -RA BKN040 OVC070=
200802261133 TAF KSEA 261133Z 261212 16004KT P6SM BKN120 BKN200=
200802260520 TAF KSEA 260520Z 260606 00000KT P6SM FEW040 SCT080 FM1200 12004KT
                       P6SM SCT050 BKN100 BKN200 FM2200 19007KT
                       P6SM SCT040 BKN080 OVC200=
200802252322 TAF KSEA 252322Z 260024 20010KT P6SM SCT045 BKN080 BKN200 FM0600
                       15006KT P6SM FEW040 SCT120 BKN200 FM1200
                       12004KT P6SM SCT050 SCT100 BKN200 FM2100
                       19007KT P6SM SCT040 BKN080 OVC200=
200802251724 TAF KSEA 251724Z 251818 18007KT P6SM VCSH SCT045 BKN070 BKN200
                       TEMPO 1820 -SHRA BKN040 FM2000 20010KT P6SM
                       SCT045 BKN080 BKN200 FM0600 15006KT P6SM
                       FEW040 SCT120 BKN200 FM1200 12004KT P6SM
                       SCT050 BKN100 BKN200=
200802251142 TAF KSEA 251142Z 251212 VRB03KT P6SM VCSH SCT060 BKN080
                      TEMPO 1216 -SHRA BKN060 FM1600 18006KT P6SM
                       VCSH SCT040 BKN080
                      TEMPO 1618 -SHRA BKN040 FM1800 21008KT P6SM
                       VCSH BKN040 BKN080 FM0600 15006KT P6SM FEW040
                       SCT120=
200802250527 TAF KSEA 250527Z 250606 03008KT P6SM SCT080 BKN200 FM0900 03006KT
                       P6SM SCT060 BKN080 FM1600 21010KT P6SM SCT040
                       BKN080
                      TEMPO 2024 BKN040=
200802242320 TAF KSEA 242320Z 250024 36010KT P6SM SCT070 SCT120 BKN200 FM0800
                       04006KT P6SM SCT050 BKN080 FM1600 VRB03KT
                       P6SM SCT040 SCT080=
200802241920 KSEA 241920Z 241918 35008KT P6SM SCT050 BKN100 FM1200 VRB03KT P6SM
                       BKN050 BKN100=
200802241720 TAF KSEA 241720Z 241818 02010KT P6SM BKN050 OVC090 FM0300 05005KT
                       P6SM SCT050 BKN100 FM1200 VRB03KT P6SM BKN050
                       BKN100=
200802241129 TAF KSEA 241129Z 241212 02013KT P6SM SCT080 BKN200
                      TEMPO 1216 BKN080 FM1800 02008KT P6SM FEW080
                       SCT200 FM0300 05005KT P6SM SCT200=
200802240520 TAF KSEA 240520Z 240606 02014KT P6SM FEW080 SCT100 BKN200 FM0800
                       02015KT P6SM BKN100 BKN200 FM1800 02008KT
                       P6SM SCT200=
200802232320 TAF KSEA 232320Z 240024 35008KT P6SM FEW060 SCT120 SCT200 FM0800
                       04008KT P6SM SCT060 SCT120 BKN200=
200802231720 TAF KSEA 231720Z 231818 VRB04KT P6SM SCT050 SCT100 FM0000 03007KT
                       P6SM BKN100=
200802231120 TAF KSEA 231120Z 231212 20005KT P6SM SCT040 BKN100
                      TEMPO 1216 BKN040 FM1800 VRB04KT P6SM SCT060
                       SCT200 FM0000 03006KT P6SM SCT120 BKN200
                       FM0800 05008KT P6SM BKN120=
200802230839 KSEA 230839Z 230906 18005KT P6SM SCT050 BKN100
                      TEMPO 0913 BKN050 FM1800 VRB04KT P6SM SCT060
                       BKN200=
200802230520 TAF KSEA 230520Z 230606 21011KT P6SM SCT025 SCT050 BKN100
                      TEMPO 0610 BKN025 FM1000 18008KT P6SM SCT025
                       BKN045
                      TEMPO 1014 BKN025 FM1800 VRB04KT P6SM SCT060
                       BKN200=
200802222320 TAF KSEA 222320Z 230024 18010KT P6SM SCT050 BKN120 FM0400 18012KT
                       P6SM VCSH BKN050 BKN100
                      TEMPO 0812 -SHRA BKN030 FM1800 VRB04KT P6SM
                       SCT030 BKN200=
200802221720 TAF KSEA 221720Z 221818 15005KT P6SM SCT050 SCT100 SCT200 FM0000
                       18008KT P6SM VCSH BKN050 BKN100=
200802221138 TAF KSEA 221138Z 221212 VRB04KT P6SM SCT070 BKN100 FM1700 14005KT
                       P6SM VCSH BKN050 BKN100 FM2100 20010KT P6SM
                       VCSH BKN035 BKN100=
200802220538 TAF KSEA 220538Z 220606 36005KT P6SM BKN080 BKN200 FM0900 04005KT
                       P6SM SCT050 BKN100 BKN200 FM1200 14005KT
                       P6SM VCSH BKN050 OVC080 FM2100 20009KT P6SM
                       VCSH BKN040 OVC060=
200802212327 TAF KSEA 212327Z 220024 36007KT P6SM FEW100 SCT250 FM0800 04005KT
                       P6SM SCT050 BKN100 BKN200 FM1200 14005KT
                       P6SM BKN050 OVC080
                      PROB30 1521 -RA FM2100 16007KT P6SM BKN040
                       OVC070
                      PROB30 2124 -RA=
200802211904 KSEA 211904Z 211918 33004KT 5SM HZ FEW003 BKN100 BKN200 FM2000
                       36005KT 6SM HZ BKN090 BKN200 FM2200 01006KT
                       P6SM SCT050 BKN120 FM0500 04005KT P6SM BKN050
                       OVC100 FM1500 14005KT P6SM BKN040 OVC070
                       PROB30 1518 -RA=
200802211740 TAF KSEA 211740Z 211818 35005KT 1/4SM FG VV001
                      TEMPO 1920 1SM BR BKN002 FM2000 36005KT P6SM
                       SCT005 SCT050 SCT250 FM2100 01006KT P6SM
                       SCT050 BKN200 FM0500 04005KT P6SM BKN050
                       OVC100 FM1500 14005KT P6SM BKN040 OVC070
                       PROB30 1518 -RA=
200802211523 KSEA 211523Z 211512 31003KT 1/4SM FG VV001
                      TEMPO 1618 1/2SM FG BKN001 FM1800 11005KT
                       P6SM SCT020 SCT200 FM2200 12006KT P6SM SCT050
                       BKN200 FM0400 14005KT P6SM BKN040 OVC100=
200802211358 KSEA 211358Z 211412 00000KT P6SM VCFG SCT001 SCT200
                      TEMPO 1418 1/2SM FG BKN001 FM1800 11005KT
                       P6SM SCT020 SCT200 FM2200 12006KT P6SM SCT050
                       BKN200 FM0400 14005KT P6SM BKN040 OVC100=
200802211141 TAF KSEA 211141Z 211212 VRB03KT P6SM SKC FM1300 VRB03KT 2SM BR
                       VCFG SCT005
                      TEMPO 1316 1/2SM FG BKN001 FM1800 11005KT
                       P6SM SCT020 SCT200 FM2200 12006KT P6SM SCT050
                       BKN200 FM0400 14005KT P6SM BKN040 OVC100=
200802210526 TAF KSEA 210526Z 210606 13004KT P6SM SCT040 FM0900 VRB03KT P6SM
                       VCFG FEW010
                      TEMPO 1216 2SM BR SCT005 FM1800 11005KT P6SM
                       BKN060 FM0000 13006KT P6SM BKN040 BKN200=
200802202332 TAF KSEA 202332Z 210024 25004KT P6SM FEW035 FM0300 13004KT P6SM
                       SCT040
                      TEMPO 1216 2SM BR VV001 FM1800 11005KT P6SM
                       BKN060=
200802202151 KSEA 202151Z 202218 27005KT P6SM SCT035
                      TEMPO 2223 BKN035 FM0300 15004KT P6SM SCT030
                       FM0900 13004KT P6SM BKN050
                      TEMPO 1014 4SM HZ BKN050=
200802201734 TAF KSEA 201734Z 201818 18003KT P6SM BKN045
                      TEMPO 1820 BKN035 BKN045 FM0300 15004KT P6SM
                       SCT030 FM0900 13004KT P6SM BKN050
                      TEMPO 1014 4SM HZ BKN050=
200802201140 TAF KSEA 201140Z 201212 15004KT P6SM SCT030 OVC050
                      TEMPO 1317 2SM BR OVC020 FM1800 20005KT P6SM
                       BKN030 FM2100 23005KT P6SM BKN050 FM0300
                       15005KT P6SM BKN030=
200802200540 TAF KSEA 200540Z 200606 17004KT P6SM BKN050 OVC100 FM0900 VRB03KT
                       4SM BR BKN025 OVC050
                      TEMPO 1216 2SM BR OVC020 FM1900 20006KT P6SM
                       SCT025 SCT050 FM2100 23005KT P6SM BKN040=
200802192337 TAF KSEA 192337Z 200024 27005KT P6SM SCT120 SCT250 FM0300 19004KT
                       P6SM BKN050 BKN120 FM0800 VRB04KT 4SM -SHRA
                       BR OVC035 FM1300 VRB03KT 4SM BR VCSH BKN025
                       TEMPO 1316 2SM BR OVC020 FM2100 20006KT
                       P6SM SCT025 SCT050=
200802192038 KSEA 192038Z 192118 VRB03KT 4SM BR SCT003 SCT200 FM2200 18004KT
                       P6SM SCT200 FM0000 20005KT P6SM BKN045 BKN150
                       FM0400 19008KT P6SM VCSH OVC040=
200802192014 KSEA 192014Z 192018 VRB03KT 1 1/2SM BR OVC003 FM2100 18004KT P6SM
                       SCT200 FM2200 20005KT P6SM BKN045 BKN150
                       FM0400 19008KT P6SM VCSH OVC040=
200802191903 KSEA 191903Z 191918 VRB03KT 1/2SM FG OVC001
                      TEMPO 1920 1SM BR BKN003 FM2000 18004KT P6SM
                       SCT200
                      TEMPO 2021 4SM BR SCT200 FM2200 20005KT P6SM
                       BKN045 BKN150 FM0400 19008KT P6SM VCSH OVC040=
200802191819 TAF KSEA 191819Z 191818 VRB03KT 1/2SM FG OVC001
                      TEMPO 1819 1SM BR BKN003 FM1900 18004KT P6SM
                       SCT200
                      TEMPO 1920 4SM BR SCT200 FM2200 20005KT P6SM
                       BKN045 BKN150 FM0400 19008KT P6SM VCSH OVC040=
200802191701 KSEA 191701Z 191712 VRB04KT 1/4SM FG VV001 FM1800 VRB03KT 1SM BR
                       SCT005 FM1900 18004KT P6SM SCT200
                      TEMPO 1920 4SM BR SCT200 FM2200 20005KT P6SM
                       BKN045 BKN150 FM0400 19008KT P6SM VCSH OVC040=
200802191534 KSEA 191534Z 191612 VRB04KT 1/4SM FG VV001 FM1700 VRB03KT 1SM BR
                       SCT005 FM1800 18004KT P6SM SCT200
                      TEMPO 1819 4SM BR SCT200 FM2200 20005KT P6SM
                       BKN045 BKN150 FM0400 19008KT P6SM VCSH OVC040=
200802191344 KSEA 191344Z 191412 16003KT 2SM BR SCT001
                      TEMPO 1416 1/4SM FG VV001 FM1600 VRB03KT
                       2SM BR SCT010 FM1800 18004KT P6SM SCT200
                       FM0000 20005KT P6SM BKN050 BKN150 FM0400
                       19008KT P6SM VCSH OVC040=
200802191142 TAF KSEA 191142Z 191212 16004KT 2SM BR SCT001
                      TEMPO 1216 1/2SM FG VV001 FM1600 VRB03KT
                       2SM BR SCT010 FM1800 18004KT P6SM SCT200
                       FM0000 20005KT P6SM BKN050 BKN150 FM0400
                       19008KT P6SM VCSH OVC040=
200802191002 KSEA 191002Z 191006 20003KT 1/4SM FG VV001
                      TEMPO 1014 1SM BR SCT005 FM1600 VRB03KT 2SM
                       BR SCT010 FM1800 10004KT P6SM SCT200 FM0000
                       13005KT P6SM BKN050 BKN150=
200802190525 TAF KSEA 190525Z 190606 VRB04KT P6SM SKC
                      TEMPO 0711 2SM BR FEW010 FM1100 VRB03KT 1SM
                       BR VV001 FM1500 VRB03KT 4SM BR SCT010 FM1700
                       10004KT P6SM SCT200 FM0000 13005KT P6SM
                       BKN050 BKN150=
200802182340 TAF KSEA 182340Z 190024 VRB04KT P6SM SKC FM0900 VRB03KT 1SM BR
                       VV001 FM1500 VRB03KT 4SM BR SCT002 FM1800
                       09004KT P6SM FEW060 SCT200 FM2300 13005KT
                       P6SM BKN050 BKN150=
200802181739 TAF KSEA 181739Z 181818 03004KT P6SM FEW001
                      TEMPO 1819 4SM BR VV001 FM1900 06005KT P6SM
                       SKC FM0900 04004KT 1SM BR VV001 FM1700 14004KT
                       P6SM SCT060 SCT200=
200802181545 KSEA 181545Z 181612 00000KT 1/4SM FG VV001 FM1700 00000KT P6SM
                       BCFG SCT005
                      TEMPO 1719 1SM BR BKN001 FM1900 10006KT P6SM
                       SKC FM0800 14006KT P6SM SKC=
200802181215 KSEA 181215Z 181212 03004KT 3SM BR SCT001
                      TEMPO 1216 1/2SM FG VV001 FM1600 04005KT
                       P6SM SKC FM2000 10006KT P6SM SKC FM0800
                       14006KT P6SM SKC=
200802181120 TAF KSEA 181120Z 181212 35005KT P6SM SKC FM1400 03005KT 6SM BR
                       FEW002
                      TEMPO 1416 2SM BR BKN002 FM1600 04005KT P6SM
                       SKC FM2000 10006KT P6SM SKC FM0800 14006KT
                       P6SM SKC=
200802180520 TAF KSEA 180520Z 180606 02009KT P6SM SKC FM1400 03005KT P6SM FEW003
                       FM1600 08005KT P6SM SKC=
200802172320 TAF KSEA 172320Z 180024 36008KT P6SM SCT200 FM0400 02005KT P6SM
                       SKC FM1400 03003KT P6SM FEW003 FM1600 08005KT
                       P6SM SKC=
200802171736 TAF KSEA 171736Z 171818 02011KT P6SM SKC FM0200 02008KT P6SM SKC
                       FM0600 02005KT P6SM SKC FM1400 03003KT P6SM
                       FEW003 FM1700 02004KT P6SM SKC=
200802171606 KSEA 171606Z 171612 01009KT P6SM SKC
                      TEMPO 1618 1/2SM BCFG BKN003 FM1800 01009KT
                       P6SM FEW006 FM1900 01009KT P6SM SKC FM0400
                       04008KT P6SM SKC=
200802171120 TAF KSEA 171120Z 171212 03007KT P6SM SCT200 FM1900 01008KT P6SM
                       SKC FM0400 04008KT P6SM SKC=
200802170520 TAF KSEA 170520Z 170606 03008KT P6SM SCT200 FM1900 01008KT P6SM
                       SKC FM0400 04008KT P6SM SKC=
200802162324 TAF KSEA 162324Z 170024 36003KT P6SM SCT030 BKN050 FM0400 04003KT
                       P6SM FEW030 SCT050 FM1000 04004KT P6SM SCT200
                       FM1200 03004KT P6SM VCFG SCT001 SCT200 FM1600
                       01006KT P6SM SKC=
200802161802 KSEA 161802Z 161818 01003KT P6SM SCT011 BKN030 BKN045
                      TEMPO 1820 BKN011 OVC030 FM2100 29003KT P6SM
                       BKN035 BKN200 FM0000 34004KT P6SM BKN045
                       FM0400 05004KT P6SM FEW050 SCT200 FM1000
                       05004KT P6SM SKC=
200802161734 TAF KSEA 161734Z 161818 01003KT P6SM SCT020 BKN030 BKN045
                      TEMPO 1820 BKN020 OVC030 FM2100 29003KT P6SM
                       BKN035 BKN200 FM0000 34004KT P6SM BKN045
                       FM0400 05004KT P6SM FEW050 SCT200 FM1000
                       05004KT P6SM SKC=
200802161604 KSEA 161604Z 161612 01003KT P6SM SCT011 BKN022 BKN045
                      TEMPO 1618 BKN011 OVC022 FM1800 01003KT P6SM
                       BKN022 BKN045 FM2100 29003KT P6SM BKN030
                       BKN045 FM0000 34004KT P6SM BKN045 FM0400
                       05004KT P6SM SCT020 FM1000 05004KT P6SM
                       SKC=
200802161518 KSEA 161518Z 161512 00000KT P6SM BKN009 OVC020
                      TEMPO 1518 SCT009 OVC020 FM1800 00000KT P6SM
                       BKN014 OVC025 FM2100 30003KT P6SM SCT025
                       BKN050 FM0400 05004KT P6SM SCT020 FM1000
                       05004KT P6SM SKC=
200802161120 TAF KSEA 161120Z 161212 00000KT P6SM BKN009 OVC018 FM1600 00000KT
                       P6SM BKN014 OVC022 FM2100 30003KT P6SM SCT025
                       BKN050 FM0400 05004KT P6SM SCT020 FM1000
                       05004KT P6SM SKC=
200802160657 KSEA 160657Z 160706 00000KT P6SM OVC015 FM2100 30003KT P6SM SCT025
                       BKN090 BKN200 FM0200 05004KT P6SM SKC=
200802160520 TAF KSEA 160520Z 160606 20004KT P6SM SCT022 BKN035 FM1000 18003KT
                       P6SM OVC022 FM2100 30003KT P6SM SCT025 BKN090
                       BKN200 FM0200 05004KT P6SM SKC=
200802152326 TAF KSEA 152326Z 160024 18006KT P6SM VCSH OVC060 FM0500 18010KT
                       6SM -RA OVC040 FM0800 22008KT P6SM VCSH
                       BKN040 FM1200 18005KT P6SM OVC022 FM2000
                       23005KT P6SM SCT020 BKN090 BKN200=
200802151735 TAF KSEA 151735Z 151818 VRB04KT P6SM SCT070 BKN120 FM2000 18006KT
                       P6SM OVC060 FM2300 18010KT 6SM -RA OVC040
                       FM0400 22008KT P6SM VCSH BKN040 FM0800 18005KT
                       P6SM OVC025=
200802151120 TAF KSEA 151120Z 151212 VRB04KT P6SM SCT070 BKN120 FM1600 18006KT
                       P6SM OVC060 FM2200 18010KT P6SM -RA OVC040
                       FM0200 22008KT P6SM VCSH BKN040 FM0600 18005KT
                       P6SM OVC025=
200802150524 TAF KSEA 150524Z 150606 VRB04KT P6SM BKN070 FM1000 17007KT P6SM
                       BKN050 OVC070 FM2000 18010KT P6SM -RA OVC040
                       FM0000 22012KT P6SM VCSH BKN040 FM0500 20006KT
                       P6SM OVC030=
200802142320 TAF KSEA 142320Z 150024 VRB03KT P6SM SCT050 BKN100 BKN200 FM1000
                       17007KT P6SM BKN050 OVC100 FM2000 18010KT
                       5SM -RA BR OVC040=
200802141724 TAF KSEA 141724Z 141818 VRB03KT P6SM SCT050 BKN120 BKN200 FM0000
                       VRB03KT P6SM SCT050 BKN100 FM1200 17007KT
                       P6SM BKN050 OVC100=
200802141523 KSEA 141523Z 141512 VRB03KT P6SM SCT060 BKN100 BKN200 FM0900 10005KT
                       P6SM BKN050 OVC100=
200802141120 TAF KSEA 141120Z 141212 13003KT P6SM BKN040 FM1800 30003KT P6SM
                       SCT040 BKN060 FM0500 10005KT P6SM OVC035=
200802140520 TAF KSEA 140520Z 140606 07003KT P6SM SCT060 SCT200 FM1800 30003KT
                       P6SM BKN100=
200802132320 TAF KSEA 132320Z 140024 36007KT P6SM SCT040 FM0600 04004KT P6SM
                       SKC FM1200 00000KT 3SM BR BKN005 FM1800
                       VRB04KT P6SM SCT015 BKN200=
200802131720 TAF KSEA 131720Z 131818 VRB04KT P6SM SCT040 FM1200 00000KT P6SM
                       VCFG SCT002
                      TEMPO 1216 3SM BR=
200802131125 TAF KSEA 131125Z 131212 16006KT P6SM SCT022 BKN050
                      TEMPO 1215 BKN022 BKN050 FM2200 VRB03KT P6SM
                       SCT050=
200802130536 TAF KSEA 130536Z 130606 21008KT P6SM SCT050
                      TEMPO 0609 BKN050 FM1300 18006KT P6SM SCT030
                       BKN050
                      TEMPO 1517 BKN030 FM0000 VRB03KT P6SM SCT050=
200802122327 TAF KSEA 122327Z 130024 22012G22KT P6SM -SHRA BKN015 BKN030 FM0100
                       VRB07KT P6SM -SHRA SCT015 BKN030
                      TEMPO 0103 4SM SHRA BKN015 OVC030 FM0300
                       VRB05KT P6SM VCSH BKN030
                      TEMPO 0307 SCT030=
200802122158 KSEA 122158Z 122218 23015G25KT 3SM -RA BR BKN015 OVC030 FM0000
                       VRB06KT P6SM -SHRA BKN020 BKN040 FM0600
                       22010KT P6SM VCSH BKN020=
200802121720 TAF KSEA 121720Z 121818 14012KT P6SM SCT030 BKN070 FM2100 19014KT
                       P6SM -RA SCT020 OVC040 FM0000 22012G22KT
                       P6SM -SHRA BKN020 BKN040 FM0600 22010KT
                       P6SM VCSH BKN020=
200802121131 TAF KSEA 121131Z 121212 VRB03KT P6SM OVC090 FM1800 15006KT P6SM
                       OVC060 FM2100 19010KT P6SM -RA SCT015 OVC025
                       FM0000 22012G22KT P6SM -SHRA SCT015 BKN022
                       BKN040 FM0600 22010KT P6SM SCT008 OVC015=
200802120540 TAF KSEA 120540Z 120606 18008KT P6SM OVC016 FM0900 18008KT P6SM
                       SCT015 BKN022 OVC035
                      TEMPO 1923 5SM -RA BKN015 OVC022 FM2300 22012G22KT
                       P6SM -SHRA SCT020 BKN030=
200802112320 TAF KSEA 112320Z 120024 19012KT P6SM BKN020 OVC050 FM1200 17014KT
                       5SM -RA BR OVC025 FM2000 22012G22KT P6SM
                       -SHRA BKN030=
200802112206 KSEA 112206Z 112218 20012KT P6SM BKN020 OVC050 FM1200 17014KT 5SM
                       -RA BR OVC025=
200802111720 TAF KSEA 111720Z 111818 18008KT P6SM SCT012 BKN022 OVC035
                      TEMPO 2024 4SM -RA OVC012 FM0200 19008KT
                       P6SM SCT015 BKN025 OVC040 FM1600 18014KT
                       5SM -RA BR OVC020=
200802111139 TAF KSEA 111139Z 111212 18008KT P6SM SCT025 OVC070 FM1400 16006KT
                       P6SM -RA SCT015 BKN025 OVC040 FM1800 16006KT
                       P6SM -RA SCT006 BKN012 OVC020
                      TEMPO 2024 4SM -RA BKN006 OVC012 FM0200 19008KT
                       P6SM SCT015 BKN025 OVC040=
200802110540 TAF KSEA 110540Z 110606 18008KT P6SM SCT025 BKN045 OVC070
                      TEMPO 0609 -RA BKN025 OVC045 FM1300 16006KT
                       P6SM -RA SCT012 OVC022 FM1800 16006KT P6SM
                       -RA SCT008 BKN012 OVC020 FM0200 19008KT
                       P6SM SCT015 BKN025 OVC040=
200802110417 TAF AMD KSEA 110417Z 110424 21012KT P6SM BKN012 OVC020
                      TEMPO 0408 -RA FM0800 18010KT P6SM -RA SCT012
                       OVC022 FM2000 18011KT P6SM SCT040 BKN080=
200802102320 TAF KSEA 102320Z 110024 21015G25KT P6SM SCT025 BKN035
                      TEMPO 0004 -SHRA OVC025 FM0800 16011KT P6SM
                       -RA OVC025 FM2000 18011KT P6SM SCT040 BKN080=
200802102300 KSEA 110417Z 110424 21012KT P6SM BKN012 OVC020
                      TEMPO 0408 -RA FM0800 18010KT P6SM -RA SCT012
                       OVC022 FM2000 18011KT P6SM SCT040 BKN080=
200802102209 KSEA 102209Z 102218 21015G25KT P6SM SCT025 BKN035
                      TEMPO 2202 -SHRA BKN025 FM0600 16011KT P6SM
                       -RA OVC025=
200802101932 KSEA 101932Z 102018 21012KT P6SM SCT020 BKN100 FM0600 20012KT P6SM
                       SCT020 BKN050 FM0800 16009KT P6SM -RA OVC025=
200802101720 TAF KSEA 101720Z 101818 21012KT P6SM SCT006 BKN018
                      TEMPO 1820 4SM -RA BR OVC006 FM2100 21013G22KT
                       P6SM VCSH SCT020 BKN045 FM0800 16009KT P6SM
                       -RA OVC025=
200802101713 KSEA 101713Z 101712 21011KT P6SM SCT006 BKN018
                      TEMPO 1821 4SM -RA BR OVC006 FM2100 21013G22KT
                       P6SM VCSH SCT020 BKN045 FM0800 16009KT P6SM
                       -RA OVC025=
200802101433 KSEA 101433Z 101512 21009KT 2SM -RA BR BKN003 OVC006 FM1700 21008KT
                       P6SM SCT012 BKN022 OVC040 FM2000 21008KT
                       P6SM SCT025 BKN040 FM2300 19008KT P6SM -SHRA
                       BKN030 OVC050 FM0600 16006KT P6SM SCT030
                       BKN050 OVC100=
200802101333 KSEA 101333Z 101412 19009KT 5SM -RA BR OVC004 FM1600 21008KT P6SM
                       SCT012 BKN022 OVC040 FM2000 21008KT P6SM
                       SCT025 BKN040 FM2300 19008KT P6SM -SHRA
                       BKN030 OVC050 FM0600 16006KT P6SM SCT030
                       BKN050 OVC100=
200802101144 TAF KSEA 101144Z 101212 19008KT P6SM -RA SCT006 BKN011 OVC020
                      TEMPO 1214 2SM -RA BKN006 OVC011 FM1400 21008KT
                       P6SM BKN012 BKN022 OVC035 FM1700 21008KT
                       P6SM SCT012 BKN022 OVC040 FM2000 21008KT
                       P6SM SCT025 BKN040 FM2300 19008KT P6SM -SHRA
                       BKN030 OVC050 FM0600 16006KT P6SM SCT030
                       BKN050 OVC100=
200802100541 TAF KSEA 100541Z 100606 19008KT P6SM -RA SCT012 BKN022 OVC035
                      TEMPO 0913 5SM -RA BKN012 OVC022 FM1300 21008KT
                       P6SM SCT012 BKN022 OVC035 FM1700 21008KT
                       P6SM SCT025 BKN040 FM2200 19008KT P6SM -SHRA
                       BKN030 OVC050=
200802092320 TAF KSEA 092320Z 100024 21011KT P6SM SCT025 BKN045
                      TEMPO 0004 BKN025 FM0400 18011KT P6SM -RA
                       OVC025 FM0800 21014G24KT P6SM BKN025
                      TEMPO 1014 5SM BR OVC015 FM1900 19012KT P6SM
                       -SHRA BKN030 OVC050=
200802092033 KSEA 092033Z 092118 21012G18KT P6SM SCT025 BKN045
                      TEMPO 2124 BKN025 FM0500 17008KT P6SM -RA
                       OVC025 FM0800 21014G24KT P6SM BKN025
                      TEMPO 1014 5SM BR OVC015=
200802091758 KSEA 091758Z 091818 19011KT P6SM BKN012 OVC025
                      TEMPO 1821 4SM -DZ BR SCT008 OVC012 FM2100
                       19012G18KT P6SM SCT008 BKN015 OVC050
                      TEMPO 2124 2SM -DZ BR OVC008 FM0500 17008KT
                       P6SM -RA OVC025 FM0800 21014G24KT P6SM BKN025
                       TEMPO 1014 5SM BR OVC015=
200802091722 TAF KSEA 091722Z 091818 19013G22KT 4SM -DZ BR OVC003 FM2100 19012G18KT
                       P6SM SCT008 BKN015 OVC050
                      TEMPO 2124 2SM -DZ BR OVC008 FM0500 17008KT
                       P6SM -RA OVC025 FM0800 21014G24KT P6SM BKN025
                       TEMPO 1014 5SM BR OVC015=
200802091523 KSEA 091523Z 091512 19010KT P6SM SCT003 BKN012 OVC020
                      TEMPO 1518 2SM -RA BR BKN003 OVC012 FM2100
                       19008KT P6SM SCT015 BKN025 OVC050 FM0600
                       17008KT P6SM -RA SCT012 OVC022=
200802091140 TAF KSEA 091140Z 091212 19014KT P6SM BKN006 OVC012 FM1400 19010KT
                       P6SM SCT006 BKN012 OVC020
                      TEMPO 1418 BKN006 OVC012 FM2100 19008KT P6SM
                       SCT015 BKN025 OVC050 FM0600 17008KT P6SM
                       -RA SCT012 OVC022=
200802090543 TAF KSEA 090543Z 090606 19014G20KT P6SM -RA SCT004 BKN010 OVC025
                       TEMPO 0610 3SM -RA OVC004 FM1000 19014KT
                       P6SM SCT006 BKN012 OVC020
                      TEMPO 1013 4SM -RA BKN006 OVC012 FM1700 19012KT
                       P6SM SCT012 BKN022 OVC050 FM2300 19012KT
                       P6SM SCT025 BKN035 BKN050=
200802090336 TAF AMD KSEA 090336Z 090424 15008KT 3SM -RA OVC006 FM0600 22014G20KT
                       P6SM -RA SCT006 BKN012 OVC025
                      TEMPO 0610 3SM -RA OVC006 FM1000 22015G25KT
                       P6SM VCSH BKN018 OVC030 FM1400 21014G22KT
                       P6SM VCSH BKN025 OVC035 FM1800 20014G22KT
                       P6SM BKN035 BKN050=
200802082325 TAF KSEA 082325Z 090024 17011KT P6SM -RA SCT012 BKN025 OVC035 FM0200
                       18011KT P6SM -RA BKN012 OVC025
                      TEMPO 0206 4SM -RA BR OVC012 FM0600 22018G28KT
                       P6SM -RA BKN012 OVC025 FM1000 22015G25KT
                       P6SM VCSH BKN018 OVC030 FM1400 21014G22KT
                       P6SM VCSH BKN025 OVC035 FM1800 20014G22KT
                       P6SM BKN035 BKN050=
200802082300 KSEA 090336Z 090424 15008KT 3SM -RA OVC006 FM0600 22014G20KT P6SM
                       -RA SCT006 BKN012 OVC025
                      TEMPO 0610 3SM -RA OVC006 FM1000 22015G25KT
                       P6SM VCSH BKN018 OVC030 FM1400 21014G22KT
                       P6SM VCSH BKN025 OVC035 FM1800 20014G22KT
                       P6SM BKN035 BKN050=
200802081720 TAF KSEA 081720Z 081818 20018G28KT P6SM VCSH BKN015 OVC025 FM2100
                       20012KT P6SM VCSH BKN020 OVC035 FM0500 22018G28KT
                       P6SM -RA BKN015 OVC030 FM1000 21015G25KT
                       P6SM VCSH SCT006 OVC015 FM1400 20012G20KT
                       P6SM VCSH SCT006 OVC020=
200802081134 TAF KSEA 081134Z 081212 20015G25KT P6SM -RA BKN012 OVC022
                      TEMPO 1216 SCT014 BKN025 FM1600 20012G22KT
                       P6SM -RA BKN018 OVC027 FM2100 20012KT P6SM
                       -RA BKN020 OVC035 FM0400 20010KT P6SM -RA
                       BKN018 OVC030=
200802080521 TAF KSEA 080521Z 080606 20015G25KT P6SM VCSH SCT017 BKN035
                      TEMPO 0610 -SHRA BKN015 OVC027 FM1000 20015G25KT
                       P6SM VCSH BKN020 OVC040 FM1500 20012G20KT
                       P6SM -RA BKN022 OVC040 FM2200 20011KT P6SM
                       -RA BKN025 OVC040=
200802080319 TAF AMD KSEA 080319Z 080324 21015G25KT P6SM VCSH SCT020 BKN050
                       BKN090
                      TEMPO 0307 -SHRA BKN018 OVC040 FM0700 20014G24KT
                       P6SM VCSH BKN030 BKN050 FM1200 20014KT P6SM
                       -RA BKN025 OVC040 FM2100 20010KT P6SM -SHRA
                       BKN025 BKN045=
200802072322 TAF KSEA 072322Z 080024 21014G27KT P6SM VCSH SCT022 SCT120 BKN180
                       TEMPO 0004 -SHRA BKN020 OVC050 FM1200 20014KT
                       P6SM -RA BKN025 OVC040 FM2100 20010KT P6SM
                       -SHRA BKN025 BKN045=
200802072300 KSEA 080319Z 080324 21015G25KT P6SM VCSH SCT020 BKN050 BKN090
                      TEMPO 0307 -SHRA BKN018 OVC040 FM0700 20014G24KT
                       P6SM VCSH BKN030 BKN050 FM1200 20014KT P6SM
                       -RA BKN025 OVC040 FM2100 20010KT P6SM -SHRA
                       BKN025 BKN045=
200802071735 TAF KSEA 071735Z 071818 22019G28KT P6SM VCSH BKN018 BKN200
                      TEMPO 1822 SCT018 BKN060 BKN200 FM2200 20014G24KT
                       P6SM VCSH SCT020 BKN040 FM1200 20014KT P6SM
                       -RA BKN025 OVC040=
200802071140 TAF KSEA 071140Z 071212 21020G30KT P6SM VCSH SCT015 BKN035 BKN060
                       TEMPO 1216 -SHRA BKN015 OVC030 FM1600 21017G27KT
                       P6SM VCSH SCT015 BKN025 BKN050 FM2200 20014G24KT
                       P6SM VCSH SCT025 BKN040 FM0500 20014KT P6SM
                       -SHRA BKN027 BKN040=
200802070912 KSEA 070912Z 070906 21020G32KT P6SM -SHRA SCT015 BKN027 OVC040
                       TEMPO 0913 BKN015 OVC025 FM1500 21015G25KT
                       P6SM VCSH SCT015 BKN025 BKN040 FM2000 20012KT
                       P6SM SCT025 BKN040=
200802070520 TAF KSEA 070520Z 070606 18017G27KT 6SM -RA BR SCT007 BKN014 OVC025
                       TEMPO 0609 4SM RA BR BKN006 FM0900 21020G32KT
                       P6SM -SHRA BKN012 BKN022 OVC040 FM1500 21015G25KT
                       P6SM VCSH SCT015 BKN025 BKN040 FM2000 20012KT
                       P6SM SCT025 BKN040=
200802062340 TAF KSEA 062340Z 070024 18012G20KT P6SM -RA SCT015 BKN022 OVC035
                       FM0600 18014G24KT P6SM -RA SCT006 BKN012
                       OVC025
                      TEMPO 0711 5SM RA FM1100 20018G28KT P6SM
                       -SHRA BKN012 BKN022 OVC040 FM1500 20012KT
                       P6SM SCT015 BKN025 BKN040 FM2000 20012KT
                       P6SM SCT025 BKN040=
200802061741 TAF KSEA 061741Z 061818 20010KT P6SM BKN012 OVC020 FM2100 18010KT
                       P6SM -RA SCT015 BKN022 OVC035 FM0700 20016G26KT
                       P6SM -RA SCT006 BKN012 OVC025
                      TEMPO 0711 5SM RA FM1100 20012G20KT P6SM
                       -SHRA SCT012 BKN022 OVC040=
200802061137 TAF KSEA 061137Z 061212 21010KT P6SM VCSH SCT015 BKN027
                      TEMPO 1216 BKN012 BKN025 FM1600 19010KT P6SM
                       VCSH SCT018 BKN027 FM2200 17012KT P6SM -RA
                       SCT017 OVC035 FM0300 17014G24KT 5SM -RA
                       SCT012 OVC020=
200802060537 TAF KSEA 060537Z 060606 22012G20KT P6SM VCSH SCT020 BKN035 BKN050
                       TEMPO 0610 BKN018 OVC030 FM1000 20010KT
                       P6SM VCSH BKN020 OVC040 FM2100 17010KT P6SM
                       -RA SCT020 OVC035 FM0300 17012G22KT P6SM
                       -RA SCT015 OVC025=
200802052340 TAF KSEA 052340Z 060024 22015G25KT P6SM -SHRA SCT015 BKN025 BKN040
                       TEMPO 0206 -SHRA SCT025 BKN040 FM0800 20010KT
                       P6SM VCSH SCT015 BKN025 OVC040 FM2100 17008KT
                       P6SM -RA SCT020 OVC035=
200802051740 TAF KSEA 051740Z 051818 19014KT P6SM -RA SCT015 OVC025
                      TEMPO 1820 5SM -RA OVC015 FM2000 22015G25KT
                       P6SM -SHRA BKN015 OVC025 FM0200 22012G18KT
                       P6SM VCSH SCT015 BKN022 BKN035 FM1000 20010KT
                       P6SM SCT012 OVC022=
200802051140 TAF KSEA 051140Z 051212 17012KT P6SM -RA SCT008 OVC015
                      TEMPO 1317 4SM RA BR BKN007 OVC012 FM1700
                       19013G22KT 5SM -RA BR SCT008 OVC013 FM2100
                       22014G24KT P6SM -SHRA BKN018 OVC027 FM0300
                       21013G20KT P6SM VCSH BKN022 BKN040=
200802050524 TAF KSEA 050524Z 050606 19010KT P6SM SCT015 BKN025 OVC040
                      TEMPO 0610 -RA BKN012 FM1000 17012KT P6SM
                       -RA BKN015 OVC025 FM1500 19012G22KT P6SM
                       -RA SCT008 OVC015 FM2100 22012G22KT P6SM
                       -SHRA BKN017 OVC025=
200802042342 TAF KSEA 042342Z 050024 19010KT P6SM SCT015 BKN025 OVC040
                      TEMPO 0307 -RA FM0700 17010KT P6SM -RA BKN015
                       OVC025 FM1400 19012G20KT P6SM -RA SCT008
                       OVC015 FM2100 22012KT P6SM -SHRA BKN008
                       OVC015=
200802041740 TAF KSEA 041740Z 041818 18006KT P6SM SCT008 BKN015 BKN200
                      TEMPO 1821 BKN008 FM2100 18006KT P6SM SCT015
                       BKN040 BKN120
                      TEMPO 2123 BKN015 FM0300 18006KT P6SM -RA
                       SCT025 OVC040 FM0900 18012KT P6SM -RA SCT015
                       OVC025 FM1400 18012KT P6SM -RA SCT006 OVC012=
200802041140 TAF KSEA 041140Z 041212 17006KT P6SM OVC017
                      TEMPO 1216 SCT017 BKN035 OVC060 FM1700 20006KT
                       P6SM BKN023 BKN100 FM2100 20006KT P6SM SCT025
                       OVC050
                      PROB30 2202 -RA FM0200 18007KT P6SM -RA SCT030
                       OVC050 FM1000 17012G18KT P6SM -RA OVC025=
200802041003 KSEA 041003Z 041006 16004KT P6SM OVC012
                      TEMPO 1014 SCT012 BKN035 OVC060 FM1400 20006KT
                       P6SM BKN025 BKN120 FM1800 20006KT P6SM SCT025
                       OVC090 FM2200 20006KT P6SM SCT025 OVC050
                       PROB30 2202 -RA FM0200 18007KT P6SM -RA
                       SCT030 OVC050=
200802040536 TAF KSEA 040536Z 040606 13004KT P6SM SCT030 BKN090 FM1100 20006KT
                       P6SM BKN025 BKN120 FM1700 20006KT P6SM SCT025
                       OVC090 FM2200 20006KT P6SM SCT025 OVC050
                       PROB30 2202 -RA FM0200 18007KT P6SM -RA
                       SCT030 OVC050=
200802032333 TAF KSEA 032333Z 040024 VRB03KT P6SM VCSH SCT020 OVC070
                      TEMPO 0002 BKN020 OVC070 FM0200 VRB03KT P6SM
                       SCT025 SCT080 FM0600 20006KT P6SM SCT025
                       BKN120 FM1100 20006KT P6SM BKN025 BKN120
                       FM1700 20006KT P6SM SCT025 OVC090 FM2200
                       20006KT P6SM SCT025 OVC050
                      PROB30 2224 -RA=
200802032109 KSEA 032109Z 032118 01006KT P6SM SCT025 OVC070
                      TEMPO 2101 BKN025 OVC070 FM0200 VRB03KT P6SM
                       BKN120 FM0600 20006KT P6SM BKN120=
200802031720 TAF KSEA 031720Z 031818 01006KT P6SM SCT025 OVC070 FM0200 VRB03KT
                       P6SM BKN120 FM0600 20006KT P6SM BKN120=
200802031121 TAF KSEA 031121Z 031212 01006KT P6SM OVC080 FM0200 20005KT P6SM
                       BKN130=
200802030527 TAF KSEA 030527Z 030606 35008KT P6SM BKN080 FM1200 34005KT P6SM
                       SCT012 BKN050 FM0000 23005KT P6SM BKN130=
200802022345 TAF KSEA 022345Z 030024 02007KT P6SM VCSH SCT025 BKN035 OVC060
                       TEMPO 0002 -RA BKN025 OVC035 FM0700 01006KT
                       P6SM SCT030 BKN050 FM1200 01005KT P6SM SCT012
                       BKN050 FM2000 33006KT P6SM SCT030 SCT060=
200802022144 KSEA 022144Z 022218 03007KT P6SM VCSH SCT025 BKN035 OVC050
                      TEMPO 2202 -RA BKN025 OVC035 FM0500 03006KT
                       P6SM VCSH SCT035 BKN050=
200802021742 TAF KSEA 021742Z 021818 04007KT P6SM VCSH SCT035 BKN060 OVC080
                       TEMPO 2303 -RA BKN035 OVC060=
200802021630 KSEA 021630Z 021712 06005KT P6SM SCT040 BKN060 OVC080
                      TEMPO 2303 -RA BKN040 OVC060=
200802021140 TAF KSEA 021140Z 021212 17006KT P6SM VCSH BKN013 OVC020
                      TEMPO 1418 SCT013 BKN023 OVC040 FM1800 12006KT
                       P6SM VCSH BKN025 OVC045 FM2200 06006KT P6SM
                       BKN035 OVC060 FM0200 04006KT P6SM SCT050
                       OVC080=
200802020539 TAF KSEA 020539Z 020606 19009KT P6SM VCSH SCT009 OVC016
                      TEMPO 0913 BKN009 OVC014 FM1300 12006KT P6SM
                       -SHRA BKN025 OVC040 FM2000 07006KT P6SM
                       VCSH BKN040 OVC060 FM0200 04005KT P6SM OVC080=
200802012344 TAF KSEA 012344Z 020024 21012G18KT P6SM VCSH SCT018 BKN035 FM0300
                       21009KT P6SM VCSH SCT025 BKN045 FM0900 17006KT
                       P6SM -SHRA BKN025 OVC040 FM1400 12006KT
                       P6SM -SHRA BKN025 OVC040 FM2100 07006KT
                       P6SM VCSH BKN040 OVC060=
200802011748 TAF KSEA 011748Z 011818 20012G18KT P6SM VCSH SCT009 BKN015 OVC050
                       FM2200 23010KT P6SM VCSH SCT018 BKN030 OVC040
                       FM0100 21009KT P6SM VCSH SCT030 BKN045 FM0700
                       17006KT P6SM -SHRA BKN025 OVC040 FM1400
                       12006KT P6SM VCSH SCT025 OVC045=
200802011141 TAF KSEA 011141Z 011212 19012G20KT P6SM -SHRA SCT006 OVC012
                      TEMPO 1216 -SHRA BKN006 OVC012 FM1600 22012KT
                       P6SM -SHRA SCT006 BKN015 OVC030 FM2300 22008KT
                       P6SM -SHRA SCT015 BKN025 OVC040 FM0600 14006KT
                       P6SM -SHRA BKN025 OVC040=
200802010540 TAF KSEA 010540Z 010606 19012G20KT P6SM SCT012 BKN022 OVC035
                      TEMPO 0610 -SHRA BKN012 OVC022 FM1000 19012G20KT
                       P6SM -SHRA SCT012 BKN022 OVC035 FM1900 22012KT
                       P6SM VCSH SCT020 BKN030 OVC045 FM2300 22012KT
                       P6SM VCSH SCT030 BKN045=