##########################################################
# Query made at 02/18/2025 02:20:26 UTC
# Time interval: from 07/01/2009 00:00  to 07/31/2009 23:59  UTC
##########################################################

##########################################################
# KSEA, Seattle, Seattle-Tacoma International Airport (United States)
# WMO index: 72793. WIGOS ID: 0-20000-0-72793
# Latitude 47-27-00N. Longitude 122-17-59W. Altitude 130 m.
##########################################################

###################################
#  METAR/SPECI from KSEA
###################################
200907312353 METAR KSEA 312353Z 28006KT 10SM FEW060 SCT250 28/15 A2992 RMK AO2 SLP136 CB DSNT SE T02830150 10289 20183 58013=
200907312253 METAR KSEA 312253Z 00000KT 10SM FEW060 SCT250 28/14 A2994 RMK AO2 SLP141 CB DSNT SE T02780139=
200907312153 METAR KSEA 312153Z 29006KT 10SM FEW050 BKN250 26/14 A2995 RMK AO2 PK WND 09029/2151 SLP147 CB DSNT SE T02610139=
200907312053 METAR KSEA 312053Z 20005KT 10SM FEW040 SCT250 24/14 A2996 RMK AO2 SLP151 T02440139 57008=
200907311953 METAR KSEA 311953Z 00000KT 10SM FEW250 23/14 A2997 RMK AO2 SLP153 T02280139=
200907311853 METAR KSEA 311853Z 24005KT 10SM FEW250 21/14 A2998 RMK AO2 SLP156 T02060139=
200907311753 METAR KSEA 311753Z 28005KT 10SM FEW010 19/13 A2999 RMK AO2 SLP159 T01890133 10189 20144 58002=
200907311733 SPECI KSEA 311733Z 27005KT 10SM SCT009 SCT200 18/13 A2999 RMK AO2=
200907311733 SPECI KSEA 311733Z 27005KT 10SM SCT009 SCT200 18/13 A2999 RMK AO2=
200907311653 METAR KSEA 311653Z 22004KT 10SM BKN006 17/13 A2999 RMK AO2 SLP160 T01720133=
200907311609 SPECI KSEA 311609Z 23003KT 10SM OVC005 16/13 A3000 RMK AO2=
200907311609 SPECI KSEA 311609Z 23003KT 10SM OVC005 16/13 A3000 RMK AO2=
200907311553 METAR KSEA 311553Z 22003KT 10SM OVC004 16/13 A2999 RMK AO2 SLP161 T01560133=
200907311453 METAR KSEA 311453Z 20006KT 10SM OVC004 15/13 A2999 RMK AO2 SLP161 T01500128 53009=
200907311353 METAR KSEA 311353Z 21006KT 10SM OVC004 15/13 A2998 RMK AO2 SLP157 T01500128 $=
200907311253 METAR KSEA 311253Z 21006KT 10SM FEW002 OVC004 15/13 A2997 RMK AO2 SLP153 T01500128 $=
200907311153 METAR KSEA 311153Z 22005KT 10SM SCT002 OVC004 15/13 A2996 RMK AO2 SLP150 T01500133 10206 20150 53014 $=
200907311137 SPECI KSEA 311137Z 21006KT 10SM SCT002 OVC004 15/13 A2996 RMK AO2 $=
200907311137 SPECI KSEA 311137Z 21006KT 10SM SCT002 OVC004 15/13 A2996 RMK AO2 $=
200907311053 METAR KSEA 311053Z 22006KT 10SM SCT004 OVC006 15/13 A2995 RMK AO2 SLP146 T01500133 $=
200907310953 METAR KSEA 310953Z 20007KT 10SM BKN006 16/13 A2993 RMK AO2 SLP138 T01560133 $=
200907310853 METAR KSEA 310853Z 20007KT 10SM FEW008 16/13 A2992 RMK AO2 SLP136 T01610133 53012 $=
200907310753 METAR KSEA 310753Z 19008KT 10SM CLR 17/14 A2991 RMK AO2 SLP133 T01670139 403560167 $=
200907310653 METAR KSEA 310653Z 21009KT 10SM CLR 18/14 A2989 RMK AO2 SLP126 T01830139 $=
200907310553 METAR KSEA 310553Z 20009KT 10SM CLR 21/14 A2989 RMK AO2 SLP124 T02060139 10350 20206 51024 $=
200907310453 METAR KSEA 310453Z 22005KT 10SM CLR 23/14 A2988 RMK AO2 SLP120 T02330144 $=
200907310353 METAR KSEA 310353Z 26006KT 10SM FEW200 26/15 A2985 RMK AO2 SLP110 T02610150 $=
200907310253 METAR KSEA 310253Z 28004KT 10SM FEW060 27/16 A2982 RMK AO2 SLP100 CB DSNT SE T02720156 53010 $=
200907310153 METAR KSEA 310153Z 28005KT 10SM FEW060 31/16 A2980 RMK AO2 SLP092 CB DSNT SE T03060156 $=
200907310053 METAR KSEA 310053Z 24005KT 10SM FEW060 33/16 A2979 RMK AO2 SLP090 TCU DSNT SE T03280156 $=
200907302353 METAR KSEA 302353Z 25005KT 10SM FEW050 35/14 A2979 RMK AO2 SLP089 TCU DSNT SE T03500139 10356 20261 56016 $=
200907302253 METAR KSEA 302253Z VRB05KT 10SM FEW050 35/15 A2980 RMK AO2 SLP094 TCU DSNT SE T03500150 $=
200907302153 METAR KSEA 302153Z 26004KT 10SM FEW050 33/16 A2982 RMK AO2 SLP100 T03330161 $=
200907302053 METAR KSEA 302053Z 29004KT 10SM FEW050 32/16 A2984 RMK AO2 SLP105 T03220161 58010 $=
200907301953 METAR KSEA 301953Z 28006KT 10SM FEW050 29/16 A2985 RMK AO2 SLP111 T02940161 $=
200907301853 METAR KSEA 301853Z 30005KT 10SM FEW050 28/16 A2986 RMK AO2 SLP114 T02830156 $=
200907301753 METAR KSEA 301753Z 29005KT 10SM FEW045 26/16 A2987 RMK AO2 SLP116 T02610156 10267 20194 50002 $=
200907301653 METAR KSEA 301653Z 22005KT 10SM FEW040 24/14 A2987 RMK AO2 SLP116 T02390144 $=
200907301553 METAR KSEA 301553Z 21004KT 10SM FEW200 22/14 A2987 RMK AO2 SLP116 T02220144 $=
200907301453 METAR KSEA 301453Z 20003KT 10SM FEW200 21/14 A2986 RMK AO2 SLP114 T02060144 53014 $=
200907301353 METAR KSEA 301353Z 20006KT 10SM FEW200 20/14 A2984 RMK AO2 SLP108 T02000144 $=
200907301253 METAR KSEA 301253Z 18007KT 10SM FEW200 19/14 A2983 RMK AO2 SLP104 T01940144 $=
200907301153 METAR KSEA 301153Z 17004KT 10SM SCT200 21/16 A2982 RMK AO2 SLP099 T02110156 10328 20211 51008 $=
200907301053 METAR KSEA 301053Z 22004KT 10SM CLR 23/16 A2982 RMK AO2 SLP098 T02280161 $=
200907300953 METAR KSEA 300953Z 21004KT 10SM CLR 23/16 A2981 RMK AO2 SLP095 T02330161 $=
200907300853 METAR KSEA 300853Z 00000KT 10SM CLR 24/16 A2980 RMK AO2 SLP091 T02440161 51005 $=
200907300753 METAR KSEA 300753Z 00000KT 10SM CLR 27/16 A2979 RMK AO2 SLP090 T02720156 403940217 $=
200907300653 METAR KSEA 300653Z 00000KT 10SM FEW200 31/13 A2979 RMK AO2 SLP088 T03060128 $=
200907300553 METAR KSEA 300553Z 13008KT 10SM SCT200 33/12 A2978 RMK AO2 SLP927 T03280122 10394 20317 53008 $=
200907300453 METAR KSEA 300453Z 15007KT 10SM BKN200 33/14 A2977 RMK AO2 SLP925 T03280139 $=
200907300353 METAR KSEA 300353Z 12009KT 10SM FEW070 BKN200 35/13 A2976 RMK AO2 SLP919 T03500133 $=
200907300253 METAR KSEA 300253Z 14009KT 10SM FEW060 SCT120 BKN200 37/14 A2976 RMK AO2 SLP077 CB DSNT NE T03670139 53002 $=
200907300153 METAR KSEA 300153Z 17010KT 10SM FEW060 BKN200 38/14 A2975 RMK AO2 SLP076 CB DSNT NE T03830139 $=
200907300053 METAR KSEA 300053Z 21006KT 10SM FEW060 SCT200 39/11 A2975 RMK AO2 SLP074 CB DSNT NE W T03890111 $=
200907292353 METAR KSEA 292353Z 28005KT 10SM FEW060 SCT200 39/12 A2975 RMK AO2 SLP076 CB DSNT NE W T03940122 10394 20322 58018 $=
200907292253 METAR KSEA 292253Z 30005KT 10SM FEW060 SCT200 39/13 A2977 RMK AO2 SLP081 CB DSNT NE-E T03890128 $=
200907292153 METAR KSEA 292153Z 29008KT 10SM FEW060 38/14 A2979 RMK AO2 SLP089 CB DSNT SE T03830139 $=
200907292053 METAR KSEA 292053Z 29007KT 10SM FEW060 37/15 A2980 RMK AO2 SLP093 CB DSNT SE T03720150 58009 $=
200907291953 METAR KSEA 291953Z 28007KT 10SM FEW060 36/16 A2981 RMK AO2 SLP097 CB DSNT SE T03560161 $=
200907291853 METAR KSEA 291853Z 29005KT 10SM FEW060 34/17 A2982 RMK AO2 SLP101 T03390172 $=
200907291753 METAR KSEA 291753Z 28005KT 10SM FEW060 32/17 A2983 RMK AO2 SLP102 T03220172 10350 20222 58001 $=
200907291653 METAR KSEA 291653Z 04004KT 10SM FEW060 34/14 A2983 RMK AO2 SLP103 T03390144 $=
200907291553 METAR KSEA 291553Z 05008KT 10SM FEW050 31/16 A2983 RMK AO2 SLP103 T03110161 $=
200907291453 METAR KSEA 291453Z 04006KT 10SM FEW050 28/18 A2983 RMK AO2 SLP104 T02780178 53007 $=
200907291353 METAR KSEA 291353Z 01006KT 9SM CLR 24/19 A2983 RMK AO2 SLP103 T02390189 $=
200907291253 METAR KSEA 291253Z 03007KT 10SM FEW200 24/19 A2982 RMK AO2 SLP098 T02440189 $=
200907291153 METAR KSEA 291153Z 00000KT 10SM CLR 24/18 A2981 RMK AO2 SLP097 T02440183 10306 20217 51000 $=
200907291053 METAR KSEA 291053Z 00000KT 10SM CLR 23/18 A2981 RMK AO2 SLP098 T02280178 $=
200907290953 METAR KSEA 290953Z 00000KT 10SM CLR 26/18 A2982 RMK AO2 SLP098 T02560178 $=
200907290853 METAR KSEA 290853Z 00000KT 10SM CLR 26/18 A2981 RMK AO2 SLP097 T02610178 58002 $=
200907290753 METAR KSEA 290753Z 03003KT 10SM CLR 28/18 A2982 RMK AO2 SLP098 T02780178 403610206 $=
200907290653 METAR KSEA 290653Z 04006KT 10SM CLR 29/18 A2982 RMK AO2 SLP098 T02890178 $=
200907290553 METAR KSEA 290553Z 03011KT 10SM CLR 30/18 A2982 RMK AO2 SLP098 T03000178 10361 20294 52005 $=
200907290453 METAR KSEA 290453Z 36006KT 10SM FEW200 29/17 A2981 RMK AO2 SLP097 T02940172 $=
200907290353 METAR KSEA 290353Z 35005KT 10SM SCT200 31/17 A2981 RMK AO2 SLP096 T03060167 $=
200907290253 METAR KSEA 290253Z 32008KT 10SM SCT200 33/15 A2980 RMK AO2 SLP094 T03330150 56007 $=
200907290153 METAR KSEA 290153Z 35008KT 10SM FEW050 35/16 A2981 RMK AO2 SLP096 TCU DSNT SE T03500156 $=
200907290053 METAR KSEA 290053Z 33007KT 10SM FEW050 36/16 A2981 RMK AO2 SLP098 TCU DSNT E-S T03560156 $=
200907282353 METAR KSEA 282353Z 35012KT 10SM FEW050 36/16 A2982 RMK AO2 SLP101 CB DSNT E-SE T03560156 10361 20294 58021 $=
200907282253 METAR KSEA 282253Z 01011KT 10SM FEW050 35/16 A2985 RMK AO2 SLP110 CB DSNT E-SE T03500156 $=
200907282153 METAR KSEA 282153Z 31010KT 10SM FEW050 35/16 A2987 RMK AO2 SLP116 CB DSNT E-SE T03500156 $=
200907282053 METAR KSEA 282053Z 29009KT 10SM FEW050 33/17 A2989 RMK AO2 SLP123 CB DSNT E T03330172 58012 $=
200907281953 METAR KSEA 281953Z 29007KT 10SM FEW050 32/18 A2990 RMK AO2 SLP126 T03170183 $=
200907281853 METAR KSEA 281853Z VRB06KT 10SM FEW050 31/18 A2991 RMK AO2 SLP132 T03060183=
200907281753 METAR KSEA 281753Z 29005KT 10SM FEW250 29/18 A2992 RMK AO2 SLP135 T02940178 10294 20206 58006=
200907281653 METAR KSEA 281653Z 28004KT 10SM FEW250 28/18 A2993 RMK AO2 SLP137 T02780183=
200907281553 METAR KSEA 281553Z 28005KT 10SM FEW250 26/18 A2994 RMK AO2 SLP139 T02560183=
200907281453 METAR KSEA 281453Z 30003KT 10SM FEW250 24/18 A2994 RMK AO2 SLP141 T02390183 50001=
200907281353 METAR KSEA 281353Z 00000KT 10SM CLR 22/18 A2995 RMK AO2 SLP143 T02220178=
200907281253 METAR KSEA 281253Z 00000KT 10SM CLR 22/18 A2994 RMK AO2 SLP140 T02220178 $=
200907281153 METAR KSEA 281153Z 02003KT 10SM CLR 23/18 A2994 RMK AO2 SLP140 T02280178 10289 20211 56009 $=
200907281053 METAR KSEA 281053Z 00000KT 10SM CLR 24/18 A2994 RMK AO2 SLP142 T02390178 $=
200907280953 METAR KSEA 280953Z 00000KT 10SM CLR 23/17 A2995 RMK AO2 SLP145 T02330172 $=
200907280853 METAR KSEA 280853Z 00000KT 10SM CLR 24/17 A2996 RMK AO2 SLP149 T02390172 58003 $=
200907280753 METAR KSEA 280753Z 36005KT 10SM CLR 24/17 A2997 RMK AO2 SLP152 T02440172 403440183 $=
200907280653 METAR KSEA 280653Z 34007KT 10SM CLR 26/17 A2997 RMK AO2 SLP150 T02610167 $=
200907280553 METAR KSEA 280553Z 01007KT 10SM CLR 29/17 A2997 RMK AO2 SLP152 T02890172 10344 20278 52003 $=
200907280453 METAR KSEA 280453Z 34005KT 10SM FEW060 28/17 A2997 RMK AO2 SLP151 T02830172 $=
200907280353 METAR KSEA 280353Z 34004KT 10SM FEW060 30/17 A2997 RMK AO2 SLP150 CB DSNT E-SE T03000172 $=
200907280253 METAR KSEA 280253Z 33005KT 10SM FEW060 32/17 A2996 RMK AO2 SLP149 CB DSNT E-SE T03220172 56011 $=
200907280153 METAR KSEA 280153Z 34007KT 10SM FEW060 33/17 A2997 RMK AO2 SLP150 CB DSNT E-SE T03330172 $=
200907280053 METAR KSEA 280053Z 34012KT 10SM FEW060 34/17 A2998 RMK AO2 SLP154 CB DSNT NE-SE T03390167 $=
200907272353 METAR KSEA 272353Z 34009G15KT 300V010 10SM FEW050 34/16 A3000 RMK AO2 SLP160 TCU DSNT NE-SE T03440161 10344 20278 58018 $=
200907272253 METAR KSEA 272253Z 33009KT 10SM FEW050 34/17 A3002 RMK AO2 SLP167 TCU DSNT E-S T03390167 $=
200907272153 METAR KSEA 272153Z 36007KT 10SM FEW050 33/17 A3004 RMK AO2 SLP174 T03330167 $=
200907272053 METAR KSEA 272053Z 28008KT 10SM FEW050 31/17 A3005 RMK AO2 SLP179 T03110167 58017=
200907271953 METAR KSEA 271953Z 30007KT 10SM FEW050 30/16 A3007 RMK AO2 SLP185 T03000161=
200907271853 METAR KSEA 271853Z 35004KT 10SM FEW040 29/16 A3009 RMK AO2 SLP191 T02940156=
200907271753 METAR KSEA 271753Z VRB06KT 10SM CLR 28/16 A3010 RMK AO2 SLP196 T02780156 10283 20183 58004=
200907271653 METAR KSEA 271653Z 01008KT 10SM CLR 27/16 A3011 RMK AO2 SLP198 T02720161=
200907271553 METAR KSEA 271553Z 03007KT 10SM CLR 26/16 A3011 RMK AO2 SLP199 T02560161=
200907271453 METAR KSEA 271453Z 00000KT 10SM CLR 22/16 A3011 RMK AO2 SLP200 T02170161 53001=
200907271353 METAR KSEA 271353Z 30003KT 10SM CLR 19/16 A3011 RMK AO2 SLP200 T01940161=
200907271253 METAR KSEA 271253Z 00000KT 10SM CLR 19/16 A3010 RMK AO2 SLP197 T01940156=
200907271153 METAR KSEA 271153Z 00000KT 10SM CLR 20/16 A3011 RMK AO2 SLP199 T02000161 10239 20194 52001=
200907271053 METAR KSEA 271053Z 00000KT 10SM CLR 21/17 A3011 RMK AO2 SLP198 T02110167=
200907270953 METAR KSEA 270953Z 36005KT 10SM CLR 22/17 A3011 RMK AO2 SLP198 T02220167=
200907270853 METAR KSEA 270853Z 00000KT 10SM CLR 22/16 A3011 RMK AO2 SLP199 T02220161 50004=
200907270753 METAR KSEA 270753Z 36003KT 10SM CLR 23/16 A3011 RMK AO2 SLP198 T02330161 403170161=
200907270653 METAR KSEA 270653Z 27003KT 10SM CLR 23/16 A3010 RMK AO2 SLP195 T02280161=
200907270553 METAR KSEA 270553Z 32003KT 10SM CLR 24/17 A3010 RMK AO2 SLP195 T02390167 10317 20239 51006=
200907270453 METAR KSEA 270453Z 36007KT 10SM CLR 26/17 A3009 RMK AO2 SLP194 T02610167=
200907270353 METAR KSEA 270353Z 35004KT 10SM CLR 27/17 A3008 RMK AO2 SLP190 T02720167=
200907270253 METAR KSEA 270253Z 36008KT 10SM CLR 29/16 A3008 RMK AO2 SLP188 T02940161 55004=
200907270153 METAR KSEA 270153Z 32007KT 10SM CLR 30/16 A3007 RMK AO2 SLP186 T03000161=
200907270053 METAR KSEA 270053Z 01008KT 10SM CLR 31/16 A3007 RMK AO2 SLP187 T03110161=
200907262353 METAR KSEA 262353Z 36009KT 10SM FEW060 31/16 A3009 RMK AO2 SLP193 T03110156 10317 20233 56013=
200907262253 METAR KSEA 262253Z VRB05KT 10SM FEW060 31/16 A3010 RMK AO2 SLP197 T03060161=
200907262153 METAR KSEA 262153Z 29006KT 10SM FEW060 28/17 A3011 RMK AO2 SLP200 T02830167=
200907262053 METAR KSEA 262053Z 30009KT 10SM CLR 28/17 A3013 RMK AO2 SLP206 T02780167 58006=
200907261953 METAR KSEA 261953Z 30008KT 10SM CLR 27/17 A3014 RMK AO2 SLP209 T02720167=
200907261853 METAR KSEA 261853Z 28007KT 10SM CLR 26/16 A3014 RMK AO2 SLP211 T02560161=
200907261753 METAR KSEA 261753Z VRB04KT 10SM CLR 24/16 A3015 RMK AO2 SLP212 T02390156 10239 20161 58001=
200907261653 METAR KSEA 261653Z 27005KT 10SM CLR 21/14 A3015 RMK AO2 SLP214 T02110144=
200907261553 METAR KSEA 261553Z 35003KT 10SM FEW120 21/15 A3016 RMK AO2 SLP215 T02110150=
200907261453 METAR KSEA 261453Z 00000KT 10SM FEW050 SCT110 18/14 A3015 RMK AO2 SLP213 T01830144 53010=
200907261353 METAR KSEA 261353Z 00000KT 10SM FEW045 SCT100 17/14 A3013 RMK AO2 SLP208 T01670139=
200907261253 METAR KSEA 261253Z 20003KT 10SM SCT060 SCT100 17/14 A3013 RMK AO2 SLP206 T01670139=
200907261153 METAR KSEA 261153Z 00000KT 10SM FEW065 BKN120 OVC200 17/14 A3012 RMK AO2 SLP203 T01670139 10250 20167 53010=
200907261053 METAR KSEA 261053Z 20003KT 10SM FEW030 BKN120 OVC200 17/14 A3010 RMK AO2 SLP197 T01720144=
200907260953 METAR KSEA 260953Z 27003KT 10SM FEW030 SCT070 17/15 A3010 RMK AO2 SLP195 T01720150=
200907260853 METAR KSEA 260853Z 32004KT 10SM FEW070 18/15 A3009 RMK AO2 SLP192 T01830150 53008=
200907260753 METAR KSEA 260753Z 29007KT 10SM CLR 18/14 A3007 RMK AO2 SLP186 T01780144 403000167=
200907260653 METAR KSEA 260653Z 00000KT 10SM FEW070 22/16 A3006 RMK AO2 SLP184 T02220156=
200907260553 METAR KSEA 260553Z 02006KT 10SM FEW070 SCT120 24/17 A3006 RMK AO2 SLP184 60000 T02390167 10294 20233 50010=
200907260453 METAR KSEA 260453Z 29004KT 10SM SCT070 BKN120 24/17 A3007 RMK AO2 SLP184 T02390172=
200907260353 METAR KSEA 260353Z 01006KT 10SM SCT060 BKN110 OVC200 27/16 A3004 RMK AO2 RAE45 SLP175 P0000 T02670161=
200907260253 METAR KSEA 260253Z 02008KT 10SM -RA FEW070 BKN110 BKN200 28/14 A3003 RMK AO2 RAB49 SLP173 P0000 60000 T02830144 53008=
200907260153 METAR KSEA 260153Z 00000KT 10SM BKN110 BKN200 29/14 A3000 RMK AO2 TSB04E24RAB04E24 SLP163 P0000 T02940144 $=
200907260126 SPECI KSEA 260126Z 00000KT 10SM FEW080CB SCT110 BKN200 28/15 A3001 RMK AO2 TSB04E24RAB04E24 CB S MOV S P0000 $=
200907260126 SPECI KSEA 260126Z 00000KT 10SM FEW080CB SCT110 BKN200 28/15 A3001 RMK AO2 TSB04E24RAB04E24 CB S MOV S P0000 $=
200907260106 SPECI KSEA 260106Z 00000KT 10SM -TSRA FEW080CB SCT110 BKN230 28/14 A3001 RMK AO2 TSB04RAB04 OCNL LTGCG OHD TS OHD MOV S P0000=
200907260106 SPECI KSEA 260106Z 00000KT 10SM -TSRA FEW080CB SCT110 BKN230 28/14 A3001 RMK AO2 TSB04RAB04 OCNL LTGCG OHD TS OHD MOV S P0000=
200907260053 METAR KSEA 260053Z 00000KT 10SM SCT130 BKN230 28/14 A3001 RMK AO2 SLP166 T02830144=
200907252353 METAR KSEA 252353Z 27007KT 10SM SCT120 BKN230 29/14 A3001 RMK AO2 SLP164 T02940144 10300 20233 56011=
200907252253 METAR KSEA 252253Z 00000KT 10SM FEW110 SCT230 29/14 A3002 RMK AO2 SLP168 T02890139=
200907252153 METAR KSEA 252153Z 26006KT 10SM FEW110 BKN230 28/13 A3002 RMK AO2 SLP170 T02830133=
200907252053 METAR KSEA 252053Z 27005KT 10SM FEW110 BKN220 27/13 A3004 RMK AO2 SLP175 T02720133 58003=
200907251953 METAR KSEA 251953Z 25007KT 10SM FEW100 BKN220 26/14 A3004 RMK AO2 SLP177 T02610144=
200907251853 METAR KSEA 251853Z 27005KT 10SM FEW080 SCT150 25/14 A3005 RMK AO2 SLP180 T02500144=
200907251753 METAR KSEA 251753Z 28006KT 10SM FEW080 SCT150 23/14 A3005 RMK AO2 SLP179 T02330144 10233 20167 50000=
200907251653 METAR KSEA 251653Z 29006KT 10SM SCT150 22/14 A3004 RMK AO2 SLP176 T02220144=
200907251553 METAR KSEA 251553Z 03004KT 10SM FEW080 SCT140 22/14 A3006 RMK AO2 SLP181 T02170139=
200907251453 METAR KSEA 251453Z 00000KT 10SM FEW070 SCT130 19/14 A3005 RMK AO2 SLP179 T01940139 53005=
200907251353 METAR KSEA 251353Z 13004KT 10SM FEW070 SCT120 18/14 A3004 RMK AO2 SLP174 T01780139=
200907251253 METAR KSEA 251253Z 36003KT 10SM FEW070 SCT120 17/13 A3004 RMK AO2 SLP177 T01720133=
200907251153 METAR KSEA 251153Z 00000KT 10SM FEW010 SCT070 BKN120 17/13 A3003 RMK AO2 SLP174 T01720133 10211 20167 53004=
200907251053 METAR KSEA 251053Z 00000KT 10SM BKN120 18/13 A3003 RMK AO2 SLP172 T01780128=
200907250953 METAR KSEA 250953Z 28004KT 10SM BKN110 17/13 A3002 RMK AO2 SLP171 T01670128=
200907250853 METAR KSEA 250853Z 00000KT 10SM FEW120 17/13 A3002 RMK AO2 SLP170 T01670128 53003=
200907250753 METAR KSEA 250753Z 23003KT 10SM FEW080 SCT200 18/13 A3001 RMK AO2 SLP168 T01830133 402610128=
200907250653 METAR KSEA 250653Z 00000KT 10SM SCT080 21/13 A3000 RMK AO2 SLP163 T02060133=
200907250553 METAR KSEA 250553Z 35004KT 10SM FEW080 SCT200 21/13 A3001 RMK AO2 SLP167 T02110128 10261 20206 51005=
200907250453 METAR KSEA 250453Z 00000KT 10SM FEW060 BKN200 21/13 A3001 RMK AO2 SLP165 T02110128=
200907250353 METAR KSEA 250353Z 32005KT 10SM FEW060 SCT200 22/13 A3001 RMK AO2 SLP165 CB DSNT NE T02170128=
200907250253 METAR KSEA 250253Z 30007KT 10SM FEW050 SCT200 23/13 A3000 RMK AO2 SLP162 CB DSNT SE T02330128 56007=
200907250153 METAR KSEA 250153Z 30007KT 10SM FEW200 25/13 A3000 RMK AO2 SLP163 T02500133=
200907250053 METAR KSEA 250053Z 30007KT 10SM FEW200 24/13 A3000 RMK AO2 SLP165 T02440128=
200907242353 METAR KSEA 242353Z 30008KT 10SM FEW040 24/13 A3002 RMK AO2 SLP169 T02440128 10244 20156 58015=
200907242253 METAR KSEA 242253Z 30008KT 10SM FEW040 23/12 A3003 RMK AO2 SLP173 T02280122=
200907242153 METAR KSEA 242153Z 30009KT 10SM FEW035 22/12 A3005 RMK AO2 SLP181 T02220122=
200907242053 METAR KSEA 242053Z 30007KT 10SM FEW020 21/13 A3006 RMK AO2 SLP184 T02110128 58011=
200907241953 METAR KSEA 241953Z 26004KT 10SM FEW015 20/13 A3008 RMK AO2 SLP190 T02000128=
200907241853 METAR KSEA 241853Z 28007KT 10SM FEW013 18/12 A3008 RMK AO2 SLP193 T01780122=
200907241833 SPECI KSEA 241833Z 26007KT 10SM SCT012 17/12 A3009 RMK AO2=
200907241833 SPECI KSEA 241833Z 26007KT 10SM SCT012 17/12 A3009 RMK AO2=
200907241814 SPECI KSEA 241814Z 30004KT 10SM BKN010 17/12 A3009 RMK AO2=
200907241814 SPECI KSEA 241814Z 30004KT 10SM BKN010 17/12 A3009 RMK AO2=
200907241753 METAR KSEA 241753Z VRB03KT 10SM OVC007 16/12 A3009 RMK AO2 SLP196 T01560117 10156 20128 58006=
200907241653 METAR KSEA 241653Z 00000KT 10SM OVC006 14/12 A3011 RMK AO2 SLP200 T01390117=
200907241645 SPECI KSEA 241645Z 00000KT 10SM OVC005 14/12 A3011 RMK AO2=
200907241645 SPECI KSEA 241645Z 00000KT 10SM OVC005 14/12 A3011 RMK AO2=
200907241553 METAR KSEA 241553Z 20003KT 10SM OVC004 14/12 A3011 RMK AO2 SLP202 T01390117=
200907241453 METAR KSEA 241453Z 20003KT 10SM OVC004 13/12 A3011 RMK AO2 SLP203 T01330117 51007=
200907241353 METAR KSEA 241353Z 22004KT 10SM OVC004 13/12 A3011 RMK AO2 SLP203 T01280117=
200907241253 METAR KSEA 241253Z 19005KT 10SM OVC005 13/12 A3009 RMK AO2 SLP196 T01280117=
200907241153 METAR KSEA 241153Z 22004KT 10SM FEW002 OVC005 13/12 A3009 RMK AO2 SLP196 T01330117 10161 20133 50000=
200907241124 SPECI KSEA 241124Z 22005KT 10SM BKN005 OVC028 13/12 A3009 RMK AO2=
200907241124 SPECI KSEA 241124Z 22005KT 10SM BKN005 OVC028 13/12 A3009 RMK AO2=
200907241053 METAR KSEA 241053Z 22005KT 10SM SCT007 OVC028 13/12 A3009 RMK AO2 SLP196 T01330117=
200907241047 SPECI KSEA 241047Z 23006KT 10SM SCT007 OVC028 13/12 A3010 RMK AO2=
200907241047 SPECI KSEA 241047Z 23006KT 10SM SCT007 OVC028 13/12 A3010 RMK AO2=
200907241034 SPECI KSEA 241034Z 22005KT 10SM FEW007 OVC028 13/12 A3009 RMK AO2=
200907241034 SPECI KSEA 241034Z 22005KT 10SM FEW007 OVC028 13/12 A3009 RMK AO2=
200907240953 METAR KSEA 240953Z 20004KT 10SM FEW030 SCT055 BKN070 13/12 A3009 RMK AO2 SLP196 T01330117=
200907240853 METAR KSEA 240853Z 19003KT 10SM SCT060 BKN120 14/12 A3009 RMK AO2 SLP196 T01390117 53001=
200907240753 METAR KSEA 240753Z 00000KT 10SM FEW030 SCT100 14/12 A3010 RMK AO2 SLP198 T01440117 402060133=
200907240653 METAR KSEA 240653Z 21005KT 10SM SCT029 15/12 A3008 RMK AO2 SLP192 T01500122=
200907240613 SPECI KSEA 240613Z 22004KT 10SM FEW029 16/12 A3008 RMK AO2=
200907240613 SPECI KSEA 240613Z 22004KT 10SM FEW029 16/12 A3008 RMK AO2=
200907240553 METAR KSEA 240553Z 21004KT 10SM BKN029 16/13 A3009 RMK AO2 SLP195 T01610128 10206 20161 53005=
200907240542 SPECI KSEA 240542Z 25006KT 10SM BKN029 17/13 A3009 RMK AO2=
200907240542 SPECI KSEA 240542Z 25006KT 10SM BKN029 17/13 A3009 RMK AO2=
200907240453 METAR KSEA 240453Z 20003KT 10SM SCT029 BKN080 BKN250 18/13 A3008 RMK AO2 SLP190 T01780128=
200907240353 METAR KSEA 240353Z 00000KT 10SM FEW025 SCT100 SCT250 18/12 A3007 RMK AO2 SLP188 T01830122=
200907240253 METAR KSEA 240253Z 22004KT 10SM FEW025 SCT080 SCT250 19/12 A3007 RMK AO2 SLP189 T01940122 55005=
200907240153 METAR KSEA 240153Z 20005KT 10SM FEW025 SCT080 SCT250 19/12 A3006 RMK AO2 SLP186 T01940122=
200907240104 SPECI KSEA 240104Z 15007KT 10SM SCT023 SCT080 BKN250 19/12 A3008 RMK AO2=
200907240104 SPECI KSEA 240104Z 15007KT 10SM SCT023 SCT080 BKN250 19/12 A3008 RMK AO2=
200907240053 METAR KSEA 240053Z 14005KT 10SM BKN023 BKN250 19/12 A3008 RMK AO2 SLP193 T01940122=
200907232353 METAR KSEA 232353Z 23006KT 10SM OVC023 18/12 A3009 RMK AO2 SLP194 T01830117 10189 20144 56003=
200907232253 METAR KSEA 232253Z 24006KT 10SM OVC023 18/12 A3009 RMK AO2 SLP195 T01780117=
200907232153 METAR KSEA 232153Z 23008KT 10SM BKN019 OVC025 17/11 A3009 RMK AO2 SLP196 T01720111=
200907232053 METAR KSEA 232053Z 23007KT 190V260 10SM BKN016 OVC022 16/11 A3010 RMK AO2 SLP198 T01610111 50000=
200907231953 METAR KSEA 231953Z 22009KT 10SM BKN015 OVC022 17/11 A3010 RMK AO2 SLP197 T01670106=
200907231910 SPECI KSEA 231910Z 22009KT 10SM FEW011 OVC015 16/11 A3010 RMK AO2=
200907231910 SPECI KSEA 231910Z 22009KT 10SM FEW011 OVC015 16/11 A3010 RMK AO2=
200907231853 METAR KSEA 231853Z 22010KT 10SM FEW010 OVC014 16/11 A3010 RMK AO2 SLP199 T01610111=
200907231753 METAR KSEA 231753Z 26005KT 10SM BKN010 OVC016 15/11 A3010 RMK AO2 SLP198 T01500111 10150 20133 53007=
200907231653 METAR KSEA 231653Z 22007KT 10SM FEW008 BKN011 OVC016 14/11 A3009 RMK AO2 SLP195 T01440106=
200907231618 SPECI KSEA 231618Z 22007KT 10SM SCT009 OVC013 14/11 A3009 RMK AO2=
200907231618 SPECI KSEA 231618Z 22007KT 10SM SCT009 OVC013 14/11 A3009 RMK AO2=
200907231553 METAR KSEA 231553Z 20005KT 10SM SCT009 OVC015 14/11 A3008 RMK AO2 SLP190 T01440106=
200907231547 SPECI KSEA 231547Z 22006KT 10SM SCT009 OVC015 14/11 A3008 RMK AO2=
200907231547 SPECI KSEA 231547Z 22006KT 10SM SCT009 OVC015 14/11 A3008 RMK AO2=
200907231529 SPECI KSEA 231529Z 23007KT 10SM R16C/6000VP6000FT BKN009 OVC014 14/11 A3008 RMK AO2=
200907231529 SPECI KSEA 231529Z 23007KT 10SM R16C/6000VP6000FT BKN009 OVC014 14/11 A3008 RMK AO2=
200907231453 METAR KSEA 231453Z 22007KT 10SM SCT009 OVC014 14/11 A3007 RMK AO2 SLP189 T01390111 50004=
200907231446 SPECI KSEA 231446Z 20005KT 10SM SCT009 OVC014 14/11 A3007 RMK AO2=
200907231446 SPECI KSEA 231446Z 20005KT 10SM SCT009 OVC014 14/11 A3007 RMK AO2=
200907231420 SPECI KSEA 231420Z 18005KT 10SM BKN009 OVC014 13/11 A3008 RMK AO2=
200907231420 SPECI KSEA 231420Z 18005KT 10SM BKN009 OVC014 13/11 A3008 RMK AO2=
200907231412 SPECI KSEA 231412Z 19005KT 10SM FEW008 OVC012 13/11 A3008 RMK AO2=
200907231412 SPECI KSEA 231412Z 19005KT 10SM FEW008 OVC012 13/11 A3008 RMK AO2=
200907231353 METAR KSEA 231353Z 21005KT 10SM OVC013 13/11 A3008 RMK AO2 SLP189 T01330111=
200907231326 SPECI KSEA 231326Z 21005KT 10SM OVC011 13/11 A3008 RMK AO2=
200907231326 SPECI KSEA 231326Z 21005KT 10SM OVC011 13/11 A3008 RMK AO2=
200907231253 METAR KSEA 231253Z 23006KT 10SM OVC009 13/11 A3007 RMK AO2 SLP188 T01330111=
200907231153 METAR KSEA 231153Z 20007KT 10SM OVC009 13/11 A3006 RMK AO2 SLP184 T01330111 10139 20133 53003=
200907231053 METAR KSEA 231053Z 22007KT 10SM OVC009 13/11 A3006 RMK AO2 SLP182 T01330111=
200907230953 METAR KSEA 230953Z 23006KT 10SM OVC007 14/11 A3005 RMK AO2 SLP181 T01390111=
200907230853 METAR KSEA 230853Z 22006KT 10SM OVC007 14/12 A3005 RMK AO2 SLP182 T01390117 51008=
200907230753 METAR KSEA 230753Z 22009KT 10SM OVC007 14/12 A3005 RMK AO2 SLP181 T01390117 402280133=
200907230653 METAR KSEA 230653Z 21007KT 10SM OVC007 14/12 A3004 RMK AO2 SLP179 T01390117=
200907230601 SPECI KSEA 230601Z 21008KT 10SM BKN007 14/12 A3003 RMK AO2=
200907230601 SPECI KSEA 230601Z 21008KT 10SM BKN007 14/12 A3003 RMK AO2=
200907230553 METAR KSEA 230553Z 21008KT 10SM SCT007 14/12 A3003 RMK AO2 SLP174 T01390117 10228 20139 53012=
200907230453 METAR KSEA 230453Z 21007KT 10SM CLR 15/12 A3002 RMK AO2 SLP171 T01500122=
200907230353 METAR KSEA 230353Z 22007KT 10SM CLR 17/13 A3000 RMK AO2 SLP164 T01720128=
200907230253 METAR KSEA 230253Z 23008KT 10SM CLR 20/13 A2999 RMK AO2 SLP162 T02000128 55003=
200907230153 METAR KSEA 230153Z 25006KT 10SM CLR 22/13 A2999 RMK AO2 SLP159 T02170133=
200907230053 METAR KSEA 230053Z 26009KT 10SM FEW050 22/13 A3000 RMK AO2 SLP162 T02220133=
200907222353 METAR KSEA 222353Z 23006KT 10SM FEW040 22/13 A3000 RMK AO2 SLP164 T02220128 10222 20167 58013=
200907222253 METAR KSEA 222253Z 21005KT 10SM R16C/5000VP6000FT FEW040 22/13 A3002 RMK AO2 SLP170 T02170128=
200907222153 METAR KSEA 222153Z VRB05KT 10SM FEW030 21/12 A3003 RMK AO2 SLP174 T02110122=
200907222053 METAR KSEA 222053Z 24008KT 10SM FEW025 19/12 A3004 RMK AO2 SLP179 T01940122 58007=
200907221953 METAR KSEA 221953Z 26009KT 10SM FEW015 18/12 A3005 RMK AO2 SLP182 T01780117=
200907221853 METAR KSEA 221853Z 27010KT 10SM FEW009 SCT014 17/12 A3006 RMK AO2 SLP184 T01720117=
200907221840 SPECI KSEA 221840Z 22006KT 10SM FEW009 SCT014 17/12 A3006 RMK AO2=
200907221840 SPECI KSEA 221840Z 22006KT 10SM FEW009 SCT014 17/12 A3006 RMK AO2=
200907221826 SPECI KSEA 221826Z 24008KT 10SM SCT009 BKN014 17/12 A3006 RMK AO2=
200907221826 SPECI KSEA 221826Z 24008KT 10SM SCT009 BKN014 17/12 A3006 RMK AO2=
200907221753 METAR KSEA 221753Z 25008KT 10SM BKN009 BKN013 17/12 A3007 RMK AO2 SLP185 T01670117 10167 20133 51003=
200907221653 METAR KSEA 221653Z 23005KT 10SM OVC006 14/12 A3006 RMK AO2 SLP185 T01440117=
200907221553 METAR KSEA 221553Z 21007KT 10SM OVC005 14/12 A3006 RMK AO2 SLP184 T01390117=
200907221523 SPECI KSEA 221523Z 22009KT 10SM OVC005 14/12 A3006 RMK AO2=
200907221523 SPECI KSEA 221523Z 22009KT 10SM OVC005 14/12 A3006 RMK AO2=
200907221453 METAR KSEA 221453Z 20008KT 10SM OVC004 14/12 A3006 RMK AO2 SLP183 T01390117 51010=
200907221353 METAR KSEA 221353Z 22008KT 10SM OVC004 13/12 A3005 RMK AO2 SLP179 T01330117=
200907221253 METAR KSEA 221253Z 22005KT 10SM OVC004 13/12 A3004 RMK AO2 SLP175 T01330117=
200907221153 METAR KSEA 221153Z 22008KT 10SM OVC004 13/12 A3003 RMK AO2 SLP171 T01330117 10206 20133 52015=
200907221053 METAR KSEA 221053Z 20006KT 10SM BKN004 14/12 A3001 RMK AO2 SLP166 T01390122=
200907221035 SPECI KSEA 221035Z 20008KT 10SM SCT004 14/12 A3001 RMK AO2=
200907221035 SPECI KSEA 221035Z 20008KT 10SM SCT004 14/12 A3001 RMK AO2=
200907220953 METAR KSEA 220953Z 20007KT 10SM CLR 14/12 A3000 RMK AO2 SLP162 T01390122=
200907220853 METAR KSEA 220853Z 19008KT 10SM CLR 14/12 A2998 RMK AO2 SLP156 T01440122 50005=
200907220753 METAR KSEA 220753Z 21009KT 10SM CLR 15/12 A2999 RMK AO2 SLP157 T01500122 403060150=
200907220653 METAR KSEA 220653Z 20009KT 10SM CLR 17/13 A2998 RMK AO2 SLP154 T01720133=
200907220553 METAR KSEA 220553Z 26003KT 10SM CLR 21/12 A2997 RMK AO2 SLP152 T02060117 10306 20206 53012=
200907220453 METAR KSEA 220453Z 23003KT 10SM CLR 22/11 A2995 RMK AO2 SLP146 T02170106=
200907220353 METAR KSEA 220353Z 28003KT 10SM CLR 25/11 A2994 RMK AO2 SLP141 T02500106=
200907220253 METAR KSEA 220253Z 28004KT 10SM CLR 28/12 A2993 RMK AO2 SLP140 T02780117 56003=
200907220153 METAR KSEA 220153Z 26006KT 10SM CLR 29/12 A2994 RMK AO2 SLP140 T02940117=
200907220053 METAR KSEA 220053Z 27004KT 10SM CLR 30/12 A2994 RMK AO2 SLP141 T03000122=
200907212353 METAR KSEA 212353Z VRB04KT 10SM CLR 30/13 A2994 RMK AO2 SLP143 T03000128 10306 20244 56013=
200907212253 METAR KSEA 212253Z 27004KT 10SM CLR 30/12 A2996 RMK AO2 SLP147 T03000122=
200907212153 METAR KSEA 212153Z VRB05KT 10SM CLR 29/12 A2997 RMK AO2 SLP151 T02940122=
200907212053 METAR KSEA 212053Z VRB05KT 10SM CLR 28/09 A2998 RMK AO2 SLP156 T02830094 58008=
200907211953 METAR KSEA 211953Z 01003KT 10SM CLR 28/11 A2999 RMK AO2 SLP159 T02780106=
200907211853 METAR KSEA 211853Z 28007KT 10SM CLR 26/12 A3000 RMK AO2 SLP163 T02560117=
200907211753 METAR KSEA 211753Z 28005KT 10SM CLR 25/12 A3001 RMK AO2 SLP164 T02500117 10250 20156 50001=
200907211653 METAR KSEA 211653Z 28004KT 10SM CLR 23/13 A3001 RMK AO2 SLP166 T02330133=
200907211553 METAR KSEA 211553Z 00000KT 10SM CLR 22/13 A3001 RMK AO2 SLP167 T02170133=
200907211453 METAR KSEA 211453Z 00000KT 10SM CLR 19/13 A3000 RMK AO2 SLP163 T01890128 53006=
200907211353 METAR KSEA 211353Z 00000KT 10SM CLR 17/13 A3000 RMK AO2 SLP161 T01670133=
200907211253 METAR KSEA 211253Z 00000KT 10SM CLR 17/13 A2998 RMK AO2 SLP158 T01670133=
200907211153 METAR KSEA 211153Z 12004KT 10SM CLR 17/13 A2998 RMK AO2 SLP156 T01720133 10233 20167 53002=
200907211053 METAR KSEA 211053Z 00000KT 10SM CLR 18/12 A2998 RMK AO2 SLP155 T01780122=
200907210953 METAR KSEA 210953Z 00000KT 10SM CLR 18/12 A2998 RMK AO2 SLP154 T01830117=
200907210853 METAR KSEA 210853Z 03004KT 10SM CLR 20/11 A2998 RMK AO2 SLP154 T02000111 58001=
200907210753 METAR KSEA 210753Z 00000KT 10SM CLR 20/12 A2998 RMK AO2 SLP156 T02000117 402720150=
200907210653 METAR KSEA 210653Z 04006KT 10SM CLR 22/11 A2998 RMK AO2 SLP156 T02220111=
200907210553 METAR KSEA 210553Z 01005KT 10SM CLR 23/11 A2998 RMK AO2 SLP155 T02280111 10272 20222 53004=
200907210453 METAR KSEA 210453Z 01007KT 10SM FEW200 23/11 A2997 RMK AO2 SLP153 T02280111=
200907210353 METAR KSEA 210353Z 35008KT 10SM FEW180 SCT250 23/12 A2997 RMK AO2 SLP152 T02330117=
200907210253 METAR KSEA 210253Z 35008KT 10SM FEW180 BKN250 26/12 A2997 RMK AO2 SLP151 T02560117 56009=
200907210153 METAR KSEA 210153Z 34010KT 10SM SCT180 BKN250 26/13 A2997 RMK AO2 SLP154 T02610128=
200907210053 METAR KSEA 210053Z 31006KT 10SM SCT180 BKN250 26/13 A2999 RMK AO2 SLP159 T02560133=
200907202353 METAR KSEA 202353Z 35008KT 10SM SCT180 BKN250 26/12 A3000 RMK AO2 SLP162 T02610122 10267 20222 57019=
200907202253 METAR KSEA 202253Z 35008KT 10SM BKN180 BKN250 26/13 A3002 RMK AO2 SLP169 T02610128=
200907202153 METAR KSEA 202153Z 36008KT 10SM BKN180 BKN250 26/13 A3003 RMK AO2 SLP174 T02610128=
200907202053 METAR KSEA 202053Z 34008KT 310V020 10SM BKN200 26/12 A3005 RMK AO2 SLP180 T02610117 56012=
200907201953 METAR KSEA 201953Z 35008KT 10SM BKN250 26/12 A3006 RMK AO2 SLP183 T02560122=
200907201853 METAR KSEA 201853Z 01011KT 10SM SCT250 23/12 A3007 RMK AO2 SLP188 T02330117=
200907201753 METAR KSEA 201753Z 01010KT 2SM HZ BKN250 22/12 A3009 RMK AO2 SLP193 T02220117 10222 20150 58010=
200907201653 METAR KSEA 201653Z 02013KT 10SM BKN250 21/11 A3010 RMK AO2 SLP198 T02060106=
200907201553 METAR KSEA 201553Z 36010KT 10SM FEW250 19/11 A3012 RMK AO2 SLP203 T01890111 $=
200907201453 METAR KSEA 201453Z 36007KT 10SM FEW250 17/10 A3012 RMK AO2 SLP204 T01720100 56003 $=
200907201353 METAR KSEA 201353Z 01008KT 10SM FEW090 16/10 A3012 RMK AO2 SLP205 T01610100 $=
200907201253 METAR KSEA 201253Z 03009KT 10SM FEW070 16/09 A3012 RMK AO2 SLP204 T01560094 $=
200907201153 METAR KSEA 201153Z 03008KT 10SM CLR 16/09 A3013 RMK AO2 SLP206 T01560094 10189 20156 55003 $=
200907201053 METAR KSEA 201053Z 03013KT 10SM CLR 16/09 A3012 RMK AO2 SLP205 T01610089 $=
200907200953 METAR KSEA 200953Z 02012KT 10SM CLR 16/09 A3013 RMK AO2 SLP207 T01610094 $=
200907200853 METAR KSEA 200853Z 05008KT 10SM CLR 17/09 A3014 RMK AO2 SLP209 T01720094 58008 $=
200907200753 METAR KSEA 200753Z 03011KT 10SM CLR 17/09 A3015 RMK AO2 SLP213 T01720094 402500128 $=
200907200653 METAR KSEA 200653Z 02010KT 10SM CLR 18/09 A3015 RMK AO2 SLP215 T01780094 $=
200907200553 METAR KSEA 200553Z 04010KT 10SM CLR 19/09 A3016 RMK AO2 SLP218 T01890089 10250 20189 53001 $=
200907200453 METAR KSEA 200453Z 02009KT 10SM CLR 21/08 A3015 RMK AO2 SLP216 T02060083 $=
200907200353 METAR KSEA 200353Z 35008KT 10SM CLR 21/08 A3015 RMK AO2 SLP214 T02110078 $=
200907200253 METAR KSEA 200253Z 34010KT 10SM CLR 23/07 A3016 RMK AO2 SLP216 T02280067 56006 $=
200907200153 METAR KSEA 200153Z 35008KT 10SM CLR 24/08 A3016 RMK AO2 SLP218 T02440078 $=
200907200053 METAR KSEA 200053Z 34007KT 10SM FEW035 24/08 A3017 RMK AO2 SLP219 T02440078 $=
200907192353 METAR KSEA 192353Z 35009KT 10SM FEW040 25/08 A3017 RMK AO2 SLP222 T02500078 10250 20189 58012 $=
200907192253 METAR KSEA 192253Z 34008KT 300V010 10SM FEW040 24/10 A3019 RMK AO2 SLP226 T02390100 $=
200907192153 METAR KSEA 192153Z 29009KT 10SM FEW040 23/10 A3020 RMK AO2 SLP231 T02330100 $=
200907192053 METAR KSEA 192053Z 32009KT 10SM FEW040 22/10 A3021 RMK AO2 SLP234 T02220100 58006 $=
200907191953 METAR KSEA 191953Z 31008KT 10SM FEW060 21/09 A3022 RMK AO2 SLP237 T02110094 $=
200907191853 METAR KSEA 191853Z 30007KT 10SM FEW090 20/10 A3022 RMK AO2 SLP239 T02000100 $=
200907191753 METAR KSEA 191753Z 26006KT 10SM FEW130 19/11 A3023 RMK AO2 SLP240 T01890106 10189 20128 56002 $=
200907191653 METAR KSEA 191653Z 29006KT 10SM FEW050 18/10 A3023 RMK AO2 SLP240 T01830100 $=
200907191553 METAR KSEA 191553Z 04006KT 10SM CLR 17/10 A3023 RMK AO2 SLP242 T01720100 $=
200907191453 METAR KSEA 191453Z 19003KT 10SM CLR 15/11 A3023 RMK AO2 SLP242 T01500106 51010 $=
200907191353 METAR KSEA 191353Z 19004KT 10SM FEW060 13/11 A3022 RMK AO2 SLP239 T01330106 $=
200907191253 METAR KSEA 191253Z 17003KT 10SM FEW060 13/10 A3021 RMK AO2 SLP235 T01280100 $=
200907191153 METAR KSEA 191153Z 00000KT 10SM BKN060 BKN250 14/11 A3020 RMK AO2 SLP231 T01390106 10178 20139 52007 $=
200907191053 METAR KSEA 191053Z 04009KT 10SM OVC060 16/09 A3019 RMK AO2 SLP229 T01560089 $=
200907190953 METAR KSEA 190953Z 04008KT 10SM BKN050 BKN060 16/09 A3019 RMK AO2 SLP226 T01560094 $=
200907190853 METAR KSEA 190853Z 03010KT 10SM SCT050 BKN070 16/09 A3018 RMK AO2 SLP224 T01610094 52010 $=
200907190753 METAR KSEA 190753Z 03010KT 10SM SCT040 BKN060 17/09 A3017 RMK AO2 SLP220 T01670094 402560139 $=
200907190653 METAR KSEA 190653Z 02007KT 10SM SCT040 BKN060 18/10 A3016 RMK AO2 SLP217 T01780100 $=
200907190553 METAR KSEA 190553Z 33005KT 10SM SCT040 17/10 A3015 RMK AO2 SLP214 T01720100 10256 20172 53011 $=
200907190453 METAR KSEA 190453Z 02008KT 10SM FEW040 20/10 A3014 RMK AO2 SLP210 T02000100 $=
200907190353 METAR KSEA 190353Z 02009KT 10SM FEW040 22/11 A3012 RMK AO2 SLP204 T02170111 $=
200907190253 METAR KSEA 190253Z 35009KT 10SM SCT040 23/12 A3011 RMK AO2 SLP202 T02330122 55001 $=
200907190153 METAR KSEA 190153Z 34011KT 10SM FEW040 25/13 A3011 RMK AO2 SLP200 T02500128 $=
200907190053 METAR KSEA 190053Z 28007KT 10SM SCT040 25/13 A3011 RMK AO2 SLP200 T02500133 $=
200907182353 METAR KSEA 182353Z 29004KT 10SM SCT040 25/13 A3012 RMK AO2 SLP203 T02500133 10256 20167 58011 $=
200907182253 METAR KSEA 182253Z 29008KT 10SM FEW040 SCT240 25/13 A3013 RMK AO2 SLP207 T02500133 $=
200907182153 METAR KSEA 182153Z VRB04KT 10SM FEW240 23/13 A3014 RMK AO2 SLP211 T02330128 $=
200907182053 METAR KSEA 182053Z 22004KT 10SM SCT240 22/13 A3015 RMK AO2 SLP214 T02220133 57006 $=
200907181953 METAR KSEA 181953Z 20008KT 10SM FEW030 BKN240 21/12 A3015 RMK AO2 SLP215 T02060122 $=
200907181853 METAR KSEA 181853Z 22006KT 10SM FEW030 BKN240 19/13 A3016 RMK AO2 SLP218 T01890128 $=
200907181753 METAR KSEA 181753Z 23004KT 10SM FEW006 SCT030 BKN230 16/13 A3017 RMK AO2 SLP220 T01610133 10167 20139 50005 $=
200907181653 METAR KSEA 181653Z 23006KT 10SM BR SCT004 BKN030 BKN210 15/13 A3017 RMK AO2 SLP221 T01500128 $=
200907181642 SPECI KSEA 181642Z 20007KT 3SM BR SCT004 BKN030 BKN210 16/13 A3017 RMK AO2 SFC VIS 10 $=
200907181642 SPECI KSEA 181642Z 20007KT 3SM BR SCT004 BKN030 BKN210 16/13 A3017 RMK AO2 SFC VIS 10 $=
200907181627 SPECI KSEA 181627Z 21005KT 1 1/2SM BR OVC004 15/13 A3017 RMK AO2 SFC VIS 7 $=
200907181627 SPECI KSEA 181627Z 21005KT 1 1/2SM BR OVC004 15/13 A3017 RMK AO2 SFC VIS 7 $=
200907181553 METAR KSEA 181553Z 20005KT 1/2SM BR OVC002 14/13 A3016 RMK AO2 SFC VIS 4 SLP219 T01440128 $=
200907181537 SPECI KSEA 181537Z 19005KT 1/2SM BR OVC002 14/13 A3016 RMK AO2 SFC VIS 5 $=
200907181537 SPECI KSEA 181537Z 19005KT 1/2SM BR OVC002 14/13 A3016 RMK AO2 SFC VIS 5 $=
200907181508 SPECI KSEA 181508Z 20005KT 1SM BR BKN004 BKN220 14/13 A3016 RMK AO2 SFC VIS 10 TWR VIS N 10 $=
200907181508 SPECI KSEA 181508Z 20005KT 1SM BR BKN004 BKN220 14/13 A3016 RMK AO2 SFC VIS 10 TWR VIS N 10 $=
200907181506 SPECI KSEA 181506Z 20003KT 1SM BKN004 BKN220 14/13 A3016 RMK AO2 SFC VIS 10 TWR VIS N 10 $=
200907181506 SPECI KSEA 181506Z 20003KT 1SM BKN004 BKN220 14/13 A3016 RMK AO2 SFC VIS 10 TWR VIS N 10 $=
200907181453 METAR KSEA 181453Z 19006KT 10SM BKN004 BKN210 14/13 A3015 RMK AO2 SLP215 T01440128 53010 $=
200907181431 SPECI KSEA 181431Z 19004KT 10SM SCT004 SCT030 BKN200 15/13 A3015 RMK AO2 $=
200907181431 SPECI KSEA 181431Z 19004KT 10SM SCT004 SCT030 BKN200 15/13 A3015 RMK AO2 $=
200907181353 METAR KSEA 181353Z 20003KT 10SM FEW030 SCT120 OVC250 15/13 A3014 RMK AO2 SLP209 T01500133 $=
200907181253 METAR KSEA 181253Z 23003KT 10SM FEW120 BKN250 15/13 A3013 RMK AO2 SLP207 T01500128 $=
200907181153 METAR KSEA 181153Z 27003KT 10SM BKN250 15/13 A3012 RMK AO2 SLP203 T01500128 10228 20144 51005 $=
200907181053 METAR KSEA 181053Z 00000KT 10SM FEW250 15/13 A3012 RMK AO2 SLP202 T01500128 $=
200907180953 METAR KSEA 180953Z 00000KT 10SM CLR 16/13 A3012 RMK AO2 SLP202 T01610128 $=
200907180853 METAR KSEA 180853Z 00000KT 10SM CLR 17/13 A3011 RMK AO2 SLP198 T01720128 50003 $=
200907180753 METAR KSEA 180753Z 32004KT 10SM FEW015 SCT250 19/13 A3011 RMK AO2 SLP200 T01890128 403220161 $=
200907180653 METAR KSEA 180653Z 35007KT 10SM FEW015 SCT250 21/13 A3011 RMK AO2 SLP198 T02060128 $=
200907180553 METAR KSEA 180553Z 01009KT 10SM FEW150 SCT250 23/13 A3010 RMK AO2 SLP195 T02280128 10322 20222 51004 $=
200907180453 METAR KSEA 180453Z 35006KT 10SM SCT250 23/13 A3010 RMK AO2 SLP195 T02280128 $=
200907180353 METAR KSEA 180353Z 35006KT 10SM BKN250 24/13 A3009 RMK AO2 SLP192 T02440128 $=
200907180253 METAR KSEA 180253Z 34006KT 10SM BKN250 28/13 A3008 RMK AO2 SLP190 T02780128 55003 $=
200907180153 METAR KSEA 180153Z 29005KT 10SM BKN250 29/13 A3008 RMK AO2 SLP188 T02890128 $=
200907180053 METAR KSEA 180053Z 21007KT 10SM FEW060 BKN250 32/11 A3008 RMK AO2 SLP190 T03170111 $=
200907172353 METAR KSEA 172353Z 28004KT 10SM FEW060 SCT250 31/11 A3009 RMK AO2 SLP193 T03110111 10317 20244 58010 $=
200907172253 METAR KSEA 172253Z VRB05KT 10SM FEW060 SCT250 31/12 A3010 RMK AO2 SLP198 T03110122 $=
200907172153 METAR KSEA 172153Z 25007KT 10SM FEW050 BKN250 31/13 A3011 RMK AO2 SLP200 T03060128=
200907172053 SPECI KSEA 172053Z VRB05KT 10SM FEW050 BKN250 29/12 A3012 RMK AO2 SLP203 T02940117 58006=
200907171953 METAR KSEA 171953Z 27007KT 10SM FEW050 SCT200 27/13 A3013 RMK AO2 SLP207 T02720133=
200907171853 METAR KSEA 171853Z 28006KT 10SM FEW200 26/13 A3014 RMK AO2 SLP209 T02610128=
200907171753 METAR KSEA 171753Z 26006KT 10SM FEW200 24/13 A3014 RMK AO2 SLP210 T02440128 10250 20161 58001=
200907171653 METAR KSEA 171653Z 28003KT 10SM FEW200 24/13 A3014 RMK AO2 SLP211 T02390133=
200907171553 METAR KSEA 171553Z 19004KT 10SM FEW250 22/12 A3015 RMK AO2 SLP213 T02220122=
200907171453 METAR KSEA 171453Z 13003KT 10SM FEW250 21/12 A3014 RMK AO2 SLP211 T02060122 51011=
200907171353 METAR KSEA 171353Z 11003KT 10SM FEW060 SCT250 19/13 A3013 RMK AO2 SLP208 T01890128=
200907171253 METAR KSEA 171253Z 00000KT 10SM FEW060 SCT250 16/12 A3013 RMK AO2 SLP206 T01610122=
200907171153 METAR KSEA 171153Z 00000KT 10SM FEW250 19/12 A3011 RMK AO2 SLP200 T01890122 10222 20178 55002=
200907171053 METAR KSEA 171053Z 03004KT 10SM FEW250 19/13 A3010 RMK AO2 SLP198 T01890128=
200907170953 METAR KSEA 170953Z 03005KT 10SM BKN250 19/12 A3011 RMK AO2 SLP199 T01940122=
200907170853 METAR KSEA 170853Z 35004KT 10SM BKN250 19/12 A3012 RMK AO2 SLP202 T01890122 53002=
200907170753 METAR KSEA 170753Z 34005KT 10SM SCT250 20/12 A3011 RMK AO2 SLP200 T02000117 403060150=
200907170653 METAR KSEA 170653Z 02008KT 10SM SCT250 22/12 A3011 RMK AO2 SLP200 T02170117=
200907170553 METAR KSEA 170553Z 02005KT 10SM CLR 22/12 A3011 RMK AO2 SLP200 T02220117 10306 20222 53004=
200907170453 METAR KSEA 170453Z 02007KT 10SM FEW250 23/11 A3011 RMK AO2 SLP199 T02280106=
200907170353 METAR KSEA 170353Z 01009KT 10SM SCT250 25/10 A3010 RMK AO2 SLP196 T02500100=
200907170253 METAR KSEA 170253Z 36008KT 10SM FEW060 SCT250 27/09 A3010 RMK AO2 SLP196 T02720094 56006=
200907170153 METAR KSEA 170153Z 35010KT 10SM FEW060 SCT250 29/08 A3010 RMK AO2 SLP196 T02890078=
200907170053 METAR KSEA 170053Z 01010KT 10SM FEW060 SCT250 30/08 A3010 RMK AO2 SLP196 T03000078=
200907162353 METAR KSEA 162353Z 01009KT 10SM FEW060 SCT250 31/09 A3012 RMK AO2 SLP202 T03060089 10306 20239 58011=
200907162253 METAR KSEA 162253Z 31007KT 10SM FEW060 30/11 A3013 RMK AO2 SLP206 T03000106=
200907162153 METAR KSEA 162153Z 30009KT 10SM FEW050 28/12 A3015 RMK AO2 SLP212 T02830117=
200907162053 METAR KSEA 162053Z 30009KT 10SM FEW050 28/13 A3015 RMK AO2 SLP213 T02780133 58008=
200907161953 METAR KSEA 161953Z VRB05KT 10SM FEW050 27/12 A3016 RMK AO2 SLP216 T02720117=
200907161853 METAR KSEA 161853Z 03004KT 10SM FEW045 26/12 A3017 RMK AO2 SLP219 T02560122=
200907161753 METAR KSEA 161753Z VRB06KT 10SM CLR 24/12 A3017 RMK AO2 SLP221 T02440117 10244 20150 50004=
200907161653 METAR KSEA 161653Z 28006KT 10SM CLR 21/13 A3018 RMK AO2 SLP223 T02060133=
200907161553 METAR KSEA 161553Z 00000KT 10SM CLR 21/13 A3017 RMK AO2 SLP219 T02060128=
200907161453 METAR KSEA 161453Z 00000KT 10SM CLR 18/12 A3016 RMK AO2 SLP217 T01830122 53011=
200907161353 METAR KSEA 161353Z 00000KT 10SM CLR 16/12 A3015 RMK AO2 SLP214 T01610122=
200907161253 METAR KSEA 161253Z 03003KT 10SM CLR 15/11 A3013 RMK AO2 SLP209 T01500111=
200907161153 METAR KSEA 161153Z 36004KT 10SM CLR 15/11 A3013 RMK AO2 SLP207 T01500111 10200 20150 53008=
200907161053 METAR KSEA 161053Z 03004KT 10SM CLR 17/11 A3011 RMK AO2 SLP201 T01670111=
200907160953 METAR KSEA 160953Z 01005KT 10SM CLR 17/11 A3011 RMK AO2 SLP199 T01670111=
200907160853 METAR KSEA 160853Z 01008KT 10SM CLR 17/11 A3010 RMK AO2 SLP198 T01720111 51005=
200907160753 METAR KSEA 160753Z 35005KT 10SM CLR 17/11 A3010 RMK AO2 SLP197 T01720111 402720111=
200907160653 METAR KSEA 160653Z 01007KT 10SM CLR 20/11 A3010 RMK AO2 SLP196 T02000111=
200907160553 METAR KSEA 160553Z 01007KT 10SM CLR 21/11 A3009 RMK AO2 SLP193 T02060106 10272 20206 53002=
200907160453 METAR KSEA 160453Z 01007KT 10SM FEW250 21/10 A3009 RMK AO2 SLP192 T02110100=
200907160353 METAR KSEA 160353Z 35007KT 10SM FEW150 SCT250 23/10 A3008 RMK AO2 SLP191 T02280100=
200907160253 METAR KSEA 160253Z 35008KT 10SM FEW150 SCT250 24/10 A3008 RMK AO2 SLP191 T02440100 57000=
200907160153 METAR KSEA 160153Z 36010KT 10SM FEW060 SCT150 SCT250 26/10 A3008 RMK AO2 SLP191 T02610100=
200907160053 METAR KSEA 160053Z 34009KT 10SM FEW060 SCT150 SCT250 27/10 A3008 RMK AO2 SLP191 ACSL E T02720100=
200907152353 METAR KSEA 152353Z 32009KT 10SM FEW050 SCT150 SCT250 26/11 A3008 RMK AO2 SLP191 ACSL E T02610106 10267 20178 57007=
200907152253 METAR KSEA 152253Z 28008KT 10SM FEW050 SCT150 BKN250 25/11 A3009 RMK AO2 SLP194 T02500111=
200907152153 METAR KSEA 152153Z 30008KT 10SM FEW050 SCT250 24/10 A3010 RMK AO2 SLP196 T02440100=
200907152053 METAR KSEA 152053Z 29009KT 10SM FEW050 SCT250 23/10 A3010 RMK AO2 SLP198 T02280100 58004=
200907151953 METAR KSEA 151953Z 31008KT 10SM BKN250 23/11 A3011 RMK AO2 SLP202 T02280111=
200907151853 METAR KSEA 151853Z 31005KT 10SM BCFG FEW001 SCT250 21/12 A3011 RMK AO2 SLP202 FG FEW001 T02110117=
200907151753 METAR KSEA 151753Z 30005KT 10SM BCFG FEW001 SCT250 18/12 A3012 RMK AO2 SLP204 FG FEW001 T01780122 10178 20111 58002=
200907151653 METAR KSEA 151653Z 29006KT 7SM BCFG FEW001 16/12 A3012 RMK AO2 SLP205 VIS W 2 1/2 FG FEW001 T01610117=
200907151553 METAR KSEA 151553Z 32003KT 7SM BCFG FEW001 17/12 A3012 RMK AO2 SLP205 FG FEW001 T01670117=
200907151453 METAR KSEA 151453Z 33005KT 7SM BCFG FEW001 SCT250 14/12 A3012 RMK AO2 SLP206 FG FEW001 T01390117 51005=
200907151353 METAR KSEA 151353Z 33004KT 7SM BCFG FEW001 SCT003 BKN250 13/11 A3012 RMK AO2 SLP204 FG FEW001 FG BNK W-N T01280111=
200907151333 SPECI KSEA 151333Z 35004KT 6SM BR FEW001 SCT003 BKN250 12/11 A3012 RMK AO2 FG FEW001 FG BNK W-N $=
200907151333 SPECI KSEA 151333Z 35004KT 6SM BR FEW001 SCT003 BKN250 12/11 A3012 RMK AO2 FG FEW001 FG BNK W-N $=
200907151330 SPECI KSEA 151330Z 34004KT 6SM BR FEW001 BKN003 BKN250 12/11 A3012 RMK AO2 FG FEW001 FG BNK W-N $=
200907151330 SPECI KSEA 151330Z 34004KT 6SM BR FEW001 BKN003 BKN250 12/11 A3012 RMK AO2 FG FEW001 FG BNK W-N $=
200907151259 SPECI KSEA 151259Z 33003KT 6SM BR FEW001 SCT006 SCT200 11/10 A3012 RMK AO2 FG FEW001 FG BNK S-W-N=
200907151259 SPECI KSEA 151259Z 33003KT 6SM BR FEW001 SCT006 SCT200 11/10 A3012 RMK AO2 FG FEW001 FG BNK S-W-N=
200907151253 METAR KSEA 151253Z COR 00000KT 7SM BCFG FEW001 SCT200 11/10 A3012 RMK AO2 SLP204 FG FEW001 FG BNK S-W-N T01110100=
200907151238 SPECI KSEA 151238Z 00000KT 7SM BCFG FEW001 SCT200 12/11 A3011 RMK AO2 FG FEW001 FG BNK S-W-N=
200907151238 SPECI KSEA 151238Z 00000KT 7SM BCFG FEW001 SCT200 12/11 A3011 RMK AO2 FG FEW001 FG BNK S-W-N=
200907151153 METAR KSEA 151153Z 34004KT 10SM CLR 12/11 A3011 RMK AO2 SLP201 T01220106 10172 20122 55001=
200907151053 METAR KSEA 151053Z 02004KT 10SM CLR 14/11 A3010 RMK AO2 SLP198 T01390111=
200907150953 METAR KSEA 150953Z 03008KT 10SM CLR 14/12 A3011 RMK AO2 SLP201 T01440117=
200907150853 METAR KSEA 150853Z 36007KT 10SM CLR 15/11 A3011 RMK AO2 SLP202 T01500111 55000=
200907150753 METAR KSEA 150753Z 36005KT 10SM CLR 16/11 A3010 RMK AO2 SLP199 T01560106 402170117=
200907150653 METAR KSEA 150653Z 02007KT 10SM CLR 17/11 A3010 RMK AO2 SLP200 T01670106=
200907150553 METAR KSEA 150553Z 35006KT 10SM CLR 17/11 A3011 RMK AO2 SLP202 T01670106 10217 20167 56000=
200907150453 METAR KSEA 150453Z 34005KT 10SM CLR 18/09 A3011 RMK AO2 SLP203 T01780094=
200907150353 METAR KSEA 150353Z 30005KT 10SM FEW040 18/09 A3011 RMK AO2 SLP201 T01830094=
200907150253 METAR KSEA 150253Z 31004KT 10SM FEW040 20/09 A3011 RMK AO2 SLP202 T02000089 56009=
200907150153 METAR KSEA 150153Z 27008KT 10SM FEW035 21/09 A3012 RMK AO2 SLP205 T02110089=
200907150053 METAR KSEA 150053Z 28007KT 10SM FEW035 21/10 A3013 RMK AO2 SLP207 T02110100=
200907142353 METAR KSEA 142353Z 29009KT 10SM FEW035 21/10 A3014 RMK AO2 SLP212 T02110100 10217 20144 56013=
200907142253 METAR KSEA 142253Z 33010KT 10SM FEW032 22/11 A3015 RMK AO2 SLP217 T02170106=
200907142153 METAR KSEA 142153Z 30008KT 10SM FEW030 20/11 A3016 RMK AO2 SLP219 T02000106=
200907142053 METAR KSEA 142053Z 29009KT 10SM SCT028 19/10 A3018 RMK AO2 SLP225 T01940100 58013=
200907141953 METAR KSEA 141953Z 29009KT 10SM SCT025 18/11 A3019 RMK AO2 SLP230 T01830106=
200907141915 SPECI KSEA 141915Z 31006KT 10SM R16C/3500VP6000FT FEW020 SCT028 SCT050 18/11 A3020 RMK AO2=
200907141915 SPECI KSEA 141915Z 31006KT 10SM R16C/3500VP6000FT FEW020 SCT028 SCT050 18/11 A3020 RMK AO2=
200907141853 METAR KSEA 141853Z 29007KT 10SM FEW018 BKN025 BKN050 16/11 A3021 RMK AO2 SLP235 T01610106=
200907141753 METAR KSEA 141753Z 29005KT 10SM SCT017 BKN025 BKN040 14/11 A3022 RMK AO2 SLP237 T01440106 10150 20122 57007=
200907141717 SPECI KSEA 141717Z 30004KT 10SM BKN016 BKN025 13/11 A3022 RMK AO2=
200907141717 SPECI KSEA 141717Z 30004KT 10SM BKN016 BKN025 13/11 A3022 RMK AO2=
200907141653 METAR KSEA 141653Z 29004KT 10SM BKN011 BKN021 14/11 A3022 RMK AO2 SLP240 T01390111=
200907141553 METAR KSEA 141553Z 00000KT 10SM BKN011 OVC021 14/11 A3023 RMK AO2 SLP242 T01440111=
200907141453 METAR KSEA 141453Z 00000KT 10SM BKN013 BKN019 OVC060 13/11 A3024 RMK AO2 SLP244 T01280111 58001=
200907141441 SPECI KSEA 141441Z 00000KT 10SM BKN011 BKN055 13/11 A3024 RMK AO2=
200907141441 SPECI KSEA 141441Z 00000KT 10SM BKN011 BKN055 13/11 A3024 RMK AO2=
200907141353 METAR KSEA 141353Z 21003KT 10SM FEW016 SCT025 BKN055 12/11 A3024 RMK AO2 SLP245 T01220106=
200907141253 METAR KSEA 141253Z 00000KT 10SM FEW016 SCT025 OVC042 12/11 A3024 RMK AO2 SLP246 T01220106=
200907141153 METAR KSEA 141153Z 00000KT 10SM FEW028 OVC042 12/11 A3024 RMK AO2 SLP246 70002 T01220111 10144 20117 58002=
200907141130 SPECI KSEA 141130Z 00000KT 10SM SCT028 OVC042 12/11 A3024 RMK AO2 $=
200907141130 SPECI KSEA 141130Z 00000KT 10SM SCT028 OVC042 12/11 A3024 RMK AO2 $=
200907141053 METAR KSEA 141053Z 00000KT 10SM FEW019 BKN028 12/11 A3024 RMK AO2 SLP246 T01220106=
200907140953 METAR KSEA 140953Z 00000KT 10SM FEW019 SCT045 12/11 A3024 RMK AO2 SLP247 T01220106=
200907140853 METAR KSEA 140853Z 22004KT 10SM SCT045 13/10 A3025 RMK AO2 SLP248 T01280100 58004=
200907140753 METAR KSEA 140753Z 17003KT 10SM BKN045 13/11 A3025 RMK AO2 SLP249 T01330106 401780122=
200907140653 METAR KSEA 140653Z 22003KT 10SM OVC047 14/11 A3026 RMK AO2 SLP252 T01440106=
200907140553 METAR KSEA 140553Z 00000KT 10SM BKN047 14/11 A3026 RMK AO2 SLP252 T01440106 10178 20144 52007=
200907140453 METAR KSEA 140453Z 22005KT 10SM FEW030 BKN043 15/11 A3025 RMK AO2 SLP251 T01500106=
200907140353 METAR KSEA 140353Z 21004KT 10SM FEW030 BKN045 16/11 A3024 RMK AO2 SLP246 T01560106=
200907140253 METAR KSEA 140253Z 23007KT 10SM FEW035 BKN045 BKN090 16/11 A3024 RMK AO2 SLP245 T01610111 55003=
200907140153 METAR KSEA 140153Z 22007KT 10SM FEW035 BKN043 16/11 A3024 RMK AO2 SLP245 T01610106=
200907140053 METAR KSEA 140053Z 22009KT 10SM SCT034 BKN042 18/11 A3024 RMK AO2 SLP244 T01780106=
200907132353 METAR KSEA 132353Z 22010KT 10SM BKN033 BKN045 17/11 A3025 RMK AO2 SLP248 60000 T01720106 10178 20144 52001=
200907132253 METAR KSEA 132253Z 21012KT 10SM SCT033 OVC043 17/11 A3025 RMK AO2 SLP248 T01720106=
200907132209 SPECI KSEA 132209Z 22011G17KT 10SM FEW020 BKN035 OVC045 17/11 A3025 RMK AO2=
200907132209 SPECI KSEA 132209Z 22011G17KT 10SM FEW020 BKN035 OVC045 17/11 A3025 RMK AO2=
200907132153 METAR KSEA 132153Z 22009KT 10SM FEW018 BKN028 BKN045 17/11 A3024 RMK AO2 SLP246 T01720106=
200907132053 METAR KSEA 132053Z 23007KT 10SM FEW018 BKN029 OVC040 16/11 A3024 RMK AO2 RAB17E30 SLP246 SHRA DSNT SW P0000 60000 T01610111 53008=
200907132046 SPECI KSEA 132046Z 25006KT 9SM FEW021 OVC026 16/12 A3024 RMK AO2 RAB17E30 SHRA SW-W P0000=
200907132046 SPECI KSEA 132046Z 25006KT 9SM FEW021 OVC026 16/12 A3024 RMK AO2 RAB17E30 SHRA SW-W P0000=
200907132017 SPECI KSEA 132017Z 25009KT 210V270 7SM -RA FEW015 BKN025 OVC036 16/11 A3024 RMK AO2 RAB17 SHRA SW-W P0000=
200907132017 SPECI KSEA 132017Z 25009KT 210V270 7SM -RA FEW015 BKN025 OVC036 16/11 A3024 RMK AO2 RAB17 SHRA SW-W P0000=
200907131953 METAR KSEA 131953Z 22011KT 10SM FEW020 BKN036 17/09 A3023 RMK AO2 SLP243 T01720094=
200907131853 METAR KSEA 131853Z 21009KT 10SM FEW015 OVC035 17/09 A3022 RMK AO2 SLP241 T01670094=
200907131753 METAR KSEA 131753Z 21010G16KT 10SM FEW012 BKN030 14/10 A3022 RMK AO2 SLP238 60002 T01440100 10150 20122 53009=
200907131653 METAR KSEA 131653Z 22007KT 10SM FEW010 BKN040 BKN200 13/11 A3021 RMK AO2 SLP236 T01330106=
200907131553 METAR KSEA 131553Z 20010KT 10SM FEW009 BKN035 BKN200 13/11 A3019 RMK AO2 SLP230 T01330111=
200907131542 SPECI KSEA 131542Z 21011KT 10SM FEW009 BKN032 BKN180 13/11 A3019 RMK AO2=
200907131542 SPECI KSEA 131542Z 21011KT 10SM FEW009 BKN032 BKN180 13/11 A3019 RMK AO2=
200907131453 METAR KSEA 131453Z 20008KT 10SM FEW009 BKN026 OVC035 13/11 A3019 RMK AO2 SLP230 60002 T01280106 51011=
200907131353 METAR KSEA 131353Z 19008KT 10SM FEW009 BKN025 OVC030 13/11 A3018 RMK AO2 RAE20 SLP227 P0000 T01280111=
200907131345 SPECI KSEA 131345Z 20007KT 10SM FEW009 BKN022 OVC030 12/11 A3018 RMK AO2 RAE20 P0000=
200907131345 SPECI KSEA 131345Z 20007KT 10SM FEW009 BKN022 OVC030 12/11 A3018 RMK AO2 RAE20 P0000=
200907131253 METAR KSEA 131253Z 21007KT 10SM -RA SCT012 OVC020 12/11 A3017 RMK AO2 SLP222 P0002 T01220111=
200907131245 SPECI KSEA 131245Z 21007KT 10SM -RA SCT012 OVC020 12/11 A3017 RMK AO2 P0002=
200907131245 SPECI KSEA 131245Z 21007KT 10SM -RA SCT012 OVC020 12/11 A3017 RMK AO2 P0002=
200907131153 METAR KSEA 131153Z 20007KT 10SM -RA FEW008 BKN018 OVC025 13/11 A3016 RMK AO2 RAB52 SLP217 P0000 60001 70004 T01280111 10144 20128 51011=
200907131053 METAR KSEA 131053Z 21008KT 10SM FEW008 OVC022 13/11 A3014 RMK AO2 SLP212 T01280106=
200907130953 METAR KSEA 130953Z 21006KT 10SM FEW005 OVC015 13/11 A3014 RMK AO2 SLP212 T01280111=
200907130853 METAR KSEA 130853Z 21009KT 8SM FEW005 BKN013 OVC021 13/12 A3012 RMK AO2 RAE30 SLP206 P0000 60001 T01280117 58000=
200907130753 METAR KSEA 130753Z 22007KT 6SM -RA BR FEW005 OVC013 13/12 A3014 RMK AO2 SLP210 P0001 T01330117 401830133=
200907130719 SPECI KSEA 130719Z 22007KT 7SM -RA FEW005 BKN010 OVC015 14/12 A3014 RMK AO2 P0001=
200907130719 SPECI KSEA 130719Z 22007KT 7SM -RA FEW005 BKN010 OVC015 14/12 A3014 RMK AO2 P0001=
200907130653 METAR KSEA 130653Z 22005KT 10SM -RA SCT013 OVC019 14/12 A3013 RMK AO2 RAB53 SLP209 P0000 T01440117=
200907130553 METAR KSEA 130553Z 20009KT 10SM OVC019 14/12 A3012 RMK AO2 SLP207 60000 T01440117 10161 20144 53003=
200907130453 METAR KSEA 130453Z 20009KT 10SM OVC021 14/12 A3012 RMK AO2 SLP205 T01440117=
200907130353 METAR KSEA 130353Z 20008KT 10SM OVC019 15/12 A3012 RMK AO2 RAE0257 SLP205 P0000 T01500122=
200907130253 METAR KSEA 130253Z 22011KT 10SM -RA BKN017 OVC024 15/12 A3011 RMK AO2 RAB50 SLP203 P0000 60000 T01500122 51005=
200907130210 SPECI KSEA 130210Z 22008KT 10SM BKN017 OVC024 15/13 A3011 RMK AO2 SHRA N-E-S=
200907130210 SPECI KSEA 130210Z 22008KT 10SM BKN017 OVC024 15/13 A3011 RMK AO2 SHRA N-E-S=
200907130153 METAR KSEA 130153Z 23006KT 10SM BKN014 OVC022 15/13 A3011 RMK AO2 RAE15 SLP202 P0000 T01500133 $=
200907130117 SPECI KSEA 130117Z 21008KT 10SM BKN014 OVC020 15/13 A3011 RMK AO2 RAE15 P0000=
200907130117 SPECI KSEA 130117Z 21008KT 10SM BKN014 OVC020 15/13 A3011 RMK AO2 RAE15 P0000=
200907130053 METAR KSEA 130053Z 22009KT 10SM -RA FEW014 BKN018 OVC023 15/13 A3010 RMK AO2 RAB00E13B51 SLP199 P0000 T01500128=
200907122353 METAR KSEA 122353Z 23012KT 10SM BKN017 OVC021 16/12 A3010 RMK AO2 SLP197 60003 T01610122 10183 20150 53008=
200907122253 METAR KSEA 122253Z 22012G16KT 10SM BKN018 OVC026 17/12 A3009 RMK AO2 SLP194 T01720122=
200907122153 METAR KSEA 122153Z 23011G17KT 10SM BKN021 OVC080 18/12 A3007 RMK AO2 SLP189 T01830122=
200907122053 METAR KSEA 122053Z 21012KT 10SM FEW014 BKN020 OVC026 17/13 A3007 RMK AO2 SLP189 60003 T01720128 50000=
200907122036 SPECI KSEA 122036Z 20012KT 10SM BKN018 OVC026 17/13 A3007 RMK AO2=
200907122036 SPECI KSEA 122036Z 20012KT 10SM BKN018 OVC026 17/13 A3007 RMK AO2=
200907121953 METAR KSEA 121953Z 22007KT 10SM BKN014 OVC020 16/13 A3008 RMK AO2 RAE37 SLP191 P0002 T01610133=
200907121853 METAR KSEA 121853Z VRB04KT 10SM -RA BKN014 OVC019 15/12 A3008 RMK AO2 RAB1759 SLP191 P0001 T01500122=
200907121833 SPECI KSEA 121833Z 17004KT 10SM -RA OVC018 15/12 A3008 RMK AO2 RAB1759 P0000=
200907121833 SPECI KSEA 121833Z 17004KT 10SM -RA OVC018 15/12 A3008 RMK AO2 RAB1759 P0000=
200907121753 METAR KSEA 121753Z 22005KT 10SM OVC014 15/12 A3007 RMK AO2 SLP189 T01500117 10150 20133 51013=
200907121653 METAR KSEA 121653Z 24008KT 10SM OVC011 15/12 A3006 RMK AO2 SLP185 T01500117=
200907121632 SPECI KSEA 121632Z 20008KT 10SM OVC011 15/12 A3008 RMK AO2=
200907121632 SPECI KSEA 121632Z 20008KT 10SM OVC011 15/12 A3008 RMK AO2=
200907121553 METAR KSEA 121553Z 21008KT 10SM OVC007 14/12 A3006 RMK AO2 SLP184 T01390117=
200907121453 METAR KSEA 121453Z 20008KT 10SM OVC007 14/12 A3004 RMK AO2 SLP175 T01390117 53003=
200907121353 METAR KSEA 121353Z 19007KT 10SM OVC007 14/11 A3003 RMK AO2 SLP174 T01390111=
200907121253 METAR KSEA 121253Z 22007KT 10SM OVC005 13/12 A3002 RMK AO2 SLP170 T01330117=
200907121153 METAR KSEA 121153Z 20009KT 10SM OVC005 13/12 A3003 RMK AO2 SLP172 T01330117 10156 20133 50000=
200907121053 METAR KSEA 121053Z 21009KT 10SM OVC005 13/12 A3004 RMK AO2 SLP174 T01330117=
200907120953 METAR KSEA 120953Z 20010KT 10SM OVC005 13/12 A3003 RMK AO2 SLP175 T01330117=
200907120853 METAR KSEA 120853Z 20008KT 10SM OVC005 13/12 A3003 RMK AO2 SLP172 T01330117 51005=
200907120835 SPECI KSEA 120835Z 22007KT 10SM BKN005 13/12 A3003 RMK AO2=
200907120835 SPECI KSEA 120835Z 22007KT 10SM BKN005 13/12 A3003 RMK AO2=
200907120813 SPECI KSEA 120813Z 20008KT 10SM SCT005 14/12 A3003 RMK AO2=
200907120813 SPECI KSEA 120813Z 20008KT 10SM SCT005 14/12 A3003 RMK AO2=
200907120753 METAR KSEA 120753Z 20008KT 10SM FEW030 SCT150 13/12 A3003 RMK AO2 SLP172 T01330117 402940133=
200907120653 METAR KSEA 120653Z 20010KT 10SM FEW030 SCT150 14/12 A3002 RMK AO2 SLP170 T01440117=
200907120553 METAR KSEA 120553Z 20010KT 10SM BKN150 16/12 A3001 RMK AO2 SLP166 T01560122 10294 20156 53014=
200907120453 METAR KSEA 120453Z 20007KT 10SM FEW060 BKN150 20/12 A3000 RMK AO2 SLP162 T02000117=
200907120353 METAR KSEA 120353Z 23007KT 10SM FEW060 BKN160 22/12 A2998 RMK AO2 SLP156 OCNL LTGCG DSNT W-NW CB DSNT W-NW T02170122=
200907120253 METAR KSEA 120253Z 26004KT 10SM FEW060 BKN170 24/11 A2997 RMK AO2 SLP152 SHRA NW T02440106 53003=
200907120153 METAR KSEA 120153Z 28005KT 10SM FEW060 BKN170 24/11 A2996 RMK AO2 SLP150 T02440106=
200907120053 METAR KSEA 120053Z 33012KT 10SM FEW060 BKN160 28/08 A2996 RMK AO2 SLP148 T02830083=
200907112353 METAR KSEA 112353Z 36014KT 10SM FEW060 BKN160 28/09 A2996 RMK AO2 SLP149 T02830089 10294 20228 56005=
200907112253 METAR KSEA 112253Z 34013G20KT 10SM FEW060 BKN200 29/09 A2996 RMK AO2 SLP149 T02940094=
200907112153 METAR KSEA 112153Z 35014KT 10SM FEW060 SCT200 29/09 A2996 RMK AO2 SLP150 T02890089=
200907112053 METAR KSEA 112053Z 32014KT 10SM R16C/4500VP6000FT FEW120 28/11 A2997 RMK AO2 SLP153 T02830111 56012=
200907111953 METAR KSEA 111953Z 34008KT 10SM FEW080 27/12 A2998 RMK AO2 SLP157 T02670117=
200907111853 METAR KSEA 111853Z 01012G18KT 10SM FEW080 25/11 A3000 RMK AO2 SLP161 T02500111=
200907111753 METAR KSEA 111753Z 28006KT 10SM FEW080 23/13 A3001 RMK AO2 SLP166 T02280128 10228 20150 58008=
200907111653 METAR KSEA 111653Z 26005KT 10SM FEW100 21/12 A3002 RMK AO2 SLP171 T02110122=
200907111553 METAR KSEA 111553Z 00000KT 10SM FEW100 20/12 A3003 RMK AO2 SLP173 T02000122=
200907111453 METAR KSEA 111453Z 35005KT 10SM FEW090 18/12 A3003 RMK AO2 SLP175 T01830122 53002=
200907111353 METAR KSEA 111353Z 01006KT 10SM FEW090 17/12 A3003 RMK AO2 SLP172 T01720117=
200907111253 METAR KSEA 111253Z 33003KT 10SM FEW090 15/11 A3003 RMK AO2 SLP171 T01500111=
200907111153 METAR KSEA 111153Z 04004KT 10SM FEW050 17/11 A3003 RMK AO2 SLP171 T01670111 10200 20167 58002=
200907111053 METAR KSEA 111053Z 03006KT 10SM FEW120 17/11 A3002 RMK AO2 SLP170 T01720111=
200907110953 METAR KSEA 110953Z 36004KT 10SM FEW120 17/11 A3004 RMK AO2 SLP176 T01720111=
200907110853 METAR KSEA 110853Z 35005KT 10SM CLR 17/11 A3003 RMK AO2 SLP174 T01720111 50003=
200907110753 METAR KSEA 110753Z 04010KT 10SM CLR 19/11 A3004 RMK AO2 SLP174 T01940111 402780139=
200907110653 METAR KSEA 110653Z 02008KT 10SM CLR 19/11 A3004 RMK AO2 SLP175 T01940111=
200907110553 METAR KSEA 110553Z 01007KT 10SM CLR 20/11 A3003 RMK AO2 SLP172 T02000111 10278 20200 53008=
200907110453 METAR KSEA 110453Z 36007KT 10SM FEW250 21/11 A3002 RMK AO2 SLP169 T02110106=
200907110353 METAR KSEA 110353Z 36008KT 10SM FEW250 23/09 A3001 RMK AO2 SLP166 T02280094=
200907110253 METAR KSEA 110253Z 34010KT 10SM FEW250 24/11 A3000 RMK AO2 SLP164 T02390106 56006=
200907110153 METAR KSEA 110153Z 35010KT 10SM FEW060 26/11 A3000 RMK AO2 SLP164 T02610106=
200907110053 METAR KSEA 110053Z 35010KT 10SM FEW060 28/09 A3001 RMK AO2 SLP167 T02780094=
200907102353 METAR KSEA 102353Z 34009G16KT 10SM FEW050 28/09 A3002 RMK AO2 SLP170 T02780094 10278 20211 56018=
200907102253 METAR KSEA 102253Z 36011KT 10SM FEW050 27/10 A3004 RMK AO2 SLP176 T02720100=
200907102153 METAR KSEA 102153Z 34011KT 10SM FEW050 26/11 A3006 RMK AO2 SLP182 T02610106=
200907102053 METAR KSEA 102053Z 34010KT 10SM FEW045 SCT250 26/11 A3007 RMK AO2 SLP188 T02560111 58013=
200907101953 METAR KSEA 101953Z 01007G15KT 10SM FEW045 24/11 A3009 RMK AO2 SLP194 T02390111=
200907101853 METAR KSEA 101853Z 01007KT 350V050 10SM FEW200 22/11 A3010 RMK AO2 SLP198 T02220106=
200907101753 METAR KSEA 101753Z 02006KT 10SM FEW200 22/11 A3011 RMK AO2 SLP202 T02170111 10217 20139 58004=
200907101653 METAR KSEA 101653Z 01007KT 10SM FEW200 19/11 A3012 RMK AO2 SLP204 T01940106=
200907101553 METAR KSEA 101553Z 01007KT 10SM FEW200 17/10 A3013 RMK AO2 SLP206 T01720100=
200907101453 METAR KSEA 101453Z 02008KT 10SM FEW200 16/10 A3012 RMK AO2 SLP206 T01610100 53005=
200907101353 METAR KSEA 101353Z 04008KT 10SM FEW090 15/10 A3012 RMK AO2 SLP204 T01500100=
200907101253 METAR KSEA 101253Z 02010KT 10SM FEW200 14/10 A3011 RMK AO2 SLP201 T01390100=
200907101153 METAR KSEA 101153Z 02010KT 10SM FEW200 14/10 A3011 RMK AO2 SLP201 T01440100 10167 20144 58003=
200907101053 METAR KSEA 101053Z 03011KT 10SM FEW200 14/10 A3012 RMK AO2 SLP205 T01440100=
200907100953 METAR KSEA 100953Z 03012KT 10SM FEW200 15/10 A3012 RMK AO2 SLP205 T01500100=
200907100853 METAR KSEA 100853Z 03010KT 10SM CLR 16/10 A3012 RMK AO2 SLP204 T01560100 58001=
200907100753 METAR KSEA 100753Z 02011KT 10SM CLR 16/10 A3012 RMK AO2 SLP205 T01610100 402330128=
200907100653 METAR KSEA 100653Z 01007KT 10SM CLR 16/09 A3012 RMK AO2 SLP205 T01610094=
200907100553 METAR KSEA 100553Z 35006KT 10SM CLR 16/09 A3012 RMK AO2 SLP206 T01560089 10233 20156 52006=
200907100453 METAR KSEA 100453Z 36007KT 10SM FEW250 18/09 A3012 RMK AO2 SLP205 T01780094=
200907100353 METAR KSEA 100353Z 34010KT 10SM FEW050 SCT250 19/09 A3010 RMK AO2 SLP200 T01890089=
200907100253 METAR KSEA 100253Z 34010KT 10SM FEW050 SCT250 21/09 A3010 RMK AO2 SLP198 T02060089 56003=
200907100153 METAR KSEA 100153Z 34008KT 10SM FEW048 SCT250 23/09 A3010 RMK AO2 SLP199 T02280089=
200907100053 METAR KSEA 100053Z 28010KT 10SM SCT048 SCT250 23/09 A3011 RMK AO2 SLP200 T02280094=
200907092353 METAR KSEA 092353Z 31008KT 10SM FEW040 SCT250 22/09 A3011 RMK AO2 SLP202 T02220089 10233 20167 56003=
200907092348 SPECI KSEA 092348Z 30007KT 10SM FEW040 SCT250 23/08 A3011 RMK AO2=
200907092348 SPECI KSEA 092348Z 30007KT 10SM FEW040 SCT250 23/08 A3011 RMK AO2=
200907092339 SPECI KSEA 092339Z 33008KT 2 1/2SM HZ CLR 23/08 A3011 RMK AO2=
200907092339 SPECI KSEA 092339Z 33008KT 2 1/2SM HZ CLR 23/08 A3011 RMK AO2=
200907092253 METAR KSEA 092253Z 27009KT 10SM SCT040 SCT250 22/09 A3012 RMK AO2 SLP204 T02220089=
200907092153 METAR KSEA 092153Z 27006KT 10SM SCT040 SCT250 22/09 A3012 RMK AO2 SLP205 T02220089=
200907092053 METAR KSEA 092053Z 28007KT 10SM FEW030 SCT039 22/08 A3013 RMK AO2 SLP207 T02170083 58000=
200907091953 METAR KSEA 091953Z 31005KT 10SM FEW030 BKN045 19/09 A3014 RMK AO2 SLP210 T01940089=
200907091853 METAR KSEA 091853Z 29004KT 10SM FEW020 BKN034 BKN043 18/12 A3013 RMK AO2 SLP210 T01780117=
200907091753 METAR KSEA 091753Z 28006KT 10SM SCT018 BKN045 17/12 A3013 RMK AO2 SLP208 T01720117 10178 20133 51007=
200907091653 METAR KSEA 091653Z 00000KT 10SM FEW012 BKN045 16/12 A3013 RMK AO2 SLP208 T01610122=
200907091626 SPECI KSEA 091626Z 28003KT 10SM FEW012 OVC044 16/12 A3013 RMK AO2=
200907091626 SPECI KSEA 091626Z 28003KT 10SM FEW012 OVC044 16/12 A3013 RMK AO2=
200907091553 METAR KSEA 091553Z 21003KT 10SM BKN012 OVC043 15/12 A3012 RMK AO2 SLP205 T01500122=
200907091549 SPECI KSEA 091549Z 20003KT 10SM BKN012 OVC043 15/12 A3012 RMK AO2=
200907091549 SPECI KSEA 091549Z 20003KT 10SM BKN012 OVC043 15/12 A3012 RMK AO2=
200907091453 METAR KSEA 091453Z 00000KT 10SM FEW030 OVC044 15/12 A3011 RMK AO2 SLP201 T01500117 53009=
200907091353 METAR KSEA 091353Z 00000KT 10SM FEW030 OVC046 13/12 A3010 RMK AO2 SLP197 T01330117=
200907091253 METAR KSEA 091253Z 00000KT 10SM BKN032 OVC044 13/12 A3009 RMK AO2 SLP194 T01330117=
200907091153 METAR KSEA 091153Z 00000KT 10SM OVC030 13/11 A3008 RMK AO2 SLP191 T01330111 10161 20128 53001=
200907091053 METAR KSEA 091053Z 00000KT 10SM BKN030 BKN070 13/11 A3008 RMK AO2 SLP190 T01330106=
200907090953 METAR KSEA 090953Z 00000KT 10SM BKN044 14/11 A3008 RMK AO2 SLP190 T01440111=
200907090853 METAR KSEA 090853Z 00000KT 10SM OVC046 15/11 A3008 RMK AO2 SLP191 T01500111 58002=
200907090753 METAR KSEA 090753Z 00000KT 10SM SCT033 BKN120 14/11 A3008 RMK AO2 SLP192 T01440111 401830117=
200907090653 METAR KSEA 090653Z 00000KT 10SM OVC042 16/11 A3008 RMK AO2 SLP193 T01610111=
200907090553 METAR KSEA 090553Z 00000KT 10SM BKN033 16/11 A3008 RMK AO2 SLP193 T01560106 10172 20156 56000=
200907090453 METAR KSEA 090453Z 23003KT 10SM BKN033 BKN080 16/11 A3008 RMK AO2 SLP193 T01610106=
200907090353 METAR KSEA 090353Z 23003KT 10SM BKN035 BKN080 17/10 A3008 RMK AO2 SLP191 T01670100=
200907090253 METAR KSEA 090253Z 21004KT 10SM OVC035 17/10 A3008 RMK AO2 SLP193 T01670100 53002=
200907090153 METAR KSEA 090153Z 25004KT 10SM OVC033 17/09 A3008 RMK AO2 SLP191 T01720094=
200907090053 METAR KSEA 090053Z 21005KT 10SM BKN033 OVC060 17/09 A3008 RMK AO2 SLP191 T01720094=
200907082353 METAR KSEA 082353Z 22006KT 10SM BKN030 OVC070 17/09 A3008 RMK AO2 SLP190 T01670094 10183 20156 51003=
200907082253 METAR KSEA 082253Z 22008KT 10SM SCT043 OVC075 18/09 A3007 RMK AO2 SLP190 T01780094=
200907082153 METAR KSEA 082153Z 22009KT 10SM FEW020 BKN036 BKN070 17/09 A3007 RMK AO2 SLP189 T01720094=
200907082053 METAR KSEA 082053Z 22011KT 10SM FEW025 BKN055 OVC200 17/09 A3007 RMK AO2 SLP187 T01720089 51002=
200907081953 METAR KSEA 081953Z 22008KT 10SM FEW020 BKN036 OVC055 17/09 A3007 RMK AO2 SLP186 T01720089=
200907081853 METAR KSEA 081853Z 21008KT 10SM FEW020 BKN033 OVC055 16/09 A3007 RMK AO2 SLP187 T01610094=
200907081846 SPECI KSEA 081846Z 21007KT 10SM FEW020 BKN033 OVC055 16/09 A3007 RMK AO2=
200907081846 SPECI KSEA 081846Z 21007KT 10SM FEW020 BKN033 OVC055 16/09 A3007 RMK AO2=
200907081753 METAR KSEA 081753Z 23008KT 10SM FEW018 BKN026 OVC035 16/09 A3006 RMK AO2 SLP185 T01560089 10161 20117 51009=
200907081739 SPECI KSEA 081739Z 22006KT 10SM FEW018 BKN026 OVC035 16/09 A3006 RMK AO2=
200907081739 SPECI KSEA 081739Z 22006KT 10SM FEW018 BKN026 OVC035 16/09 A3006 RMK AO2=
200907081653 METAR KSEA 081653Z 22007KT 10SM FEW023 BKN055 OVC200 16/09 A3005 RMK AO2 SLP182 T01610089=
200907081553 METAR KSEA 081553Z 20006KT 10SM FEW036 SCT050 BKN250 15/09 A3005 RMK AO2 SLP180 T01500094=
200907081453 METAR KSEA 081453Z 18005KT 10SM BKN036 BKN075 BKN250 14/09 A3004 RMK AO2 SLP176 T01440094 53007=
200907081353 METAR KSEA 081353Z 18006KT 10SM SCT040 BKN075 OVC200 13/09 A3003 RMK AO2 SLP174 T01330094=
200907081253 METAR KSEA 081253Z 14006KT 10SM FEW041 BKN100 13/09 A3001 RMK AO2 SLP169 T01280089=
200907081153 METAR KSEA 081153Z 16003KT 10SM FEW041 BKN100 12/09 A3001 RMK AO2 SLP169 T01220089 10144 20117 51003=
200907081053 METAR KSEA 081053Z 19004KT 10SM OVC041 13/09 A3001 RMK AO2 SLP168 T01330089=
200907080953 METAR KSEA 080953Z 17005KT 10SM OVC041 13/09 A3001 RMK AO2 SLP168 T01280089=
200907080853 METAR KSEA 080853Z 19004KT 10SM FEW041 SCT110 12/09 A3001 RMK AO2 SLP166 T01220089 50001=
200907080753 METAR KSEA 080753Z 20005KT 10SM SCT110 13/09 A3001 RMK AO2 SLP167 T01280089 402000122=
200907080653 METAR KSEA 080653Z 19005KT 10SM FEW041 SCT110 13/09 A3001 RMK AO2 SLP166 T01330089=
200907080553 METAR KSEA 080553Z 22005KT 10SM SCT041 BKN110 BKN200 14/09 A3000 RMK AO2 SLP165 T01440089 10200 20144 53007=
200907080453 METAR KSEA 080453Z 24007KT 10SM FEW043 SCT090 BKN200 16/09 A3000 RMK AO2 SLP163 T01560089=
200907080353 METAR KSEA 080353Z 24010KT 10SM FEW035 SCT060 BKN200 16/08 A2999 RMK AO2 SLP160 T01610083=
200907080253 METAR KSEA 080253Z 22009KT 10SM FEW034 SCT055 BKN090 BKN200 18/10 A2998 RMK AO2 SLP158 T01780100 55003=
200907080153 METAR KSEA 080153Z 21011KT 10SM SCT055 BKN090 BKN200 18/10 A2998 RMK AO2 SLP158 T01830100=
200907080053 METAR KSEA 080053Z 21009KT 10SM SCT049 BKN080 BKN200 18/09 A2999 RMK AO2 SLP159 T01830094=
200907072353 METAR KSEA 072353Z 20012KT 10SM FEW035 SCT055 BKN150 19/09 A2999 RMK AO2 SLP161 T01940094 10200 20150 58006=
200907072253 METAR KSEA 072253Z 22010KT 10SM FEW035 BKN055 19/09 A3000 RMK AO2 SLP166 T01890089=
200907072153 METAR KSEA 072153Z 22011KT 10SM FEW035 BKN048 19/09 A3001 RMK AO2 SLP168 T01890089=
200907072053 METAR KSEA 072053Z 23013G18KT 10SM FEW035 BKN049 BKN075 19/08 A3001 RMK AO2 SLP167 T01940083 58004=
200907071953 METAR KSEA 071953Z 21010G15KT 10SM FEW028 BKN046 BKN075 18/09 A3002 RMK AO2 SLP170 T01830089=
200907071853 METAR KSEA 071853Z 23009KT 10SM SCT028 BKN044 17/08 A3002 RMK AO2 SLP171 T01670083=
200907071753 METAR KSEA 071753Z 22012KT 10SM SCT025 BKN039 16/09 A3002 RMK AO2 SLP172 60000 T01560089 10161 20122 55003=
200907071653 METAR KSEA 071653Z 17012G16KT 10SM SCT018 BKN037 16/09 A3002 RMK AO2 SLP170 T01560089=
200907071641 SPECI KSEA 071641Z 19009KT 10SM SCT018 BKN037 15/09 A3002 RMK AO2=
200907071641 SPECI KSEA 071641Z 19009KT 10SM SCT018 BKN037 15/09 A3002 RMK AO2=
200907071553 METAR KSEA 071553Z 19009KT 10SM BKN017 OVC030 14/09 A3002 RMK AO2 SLP172 T01440094=
200907071453 METAR KSEA 071453Z 18008KT 8SM R16C/5000VP6000FT FEW014 BKN028 OVC035 12/10 A3003 RMK AO2 RAB39E53 SLP176 P0000 60000 T01220100 53002=
200907071428 SPECI KSEA 071428Z 19010KT 10SM BKN028 OVC035 13/09 A3003 RMK AO2=
200907071428 SPECI KSEA 071428Z 19010KT 10SM BKN028 OVC035 13/09 A3003 RMK AO2=
200907071353 METAR KSEA 071353Z 18007KT 10SM SCT022 OVC033 13/09 A3003 RMK AO2 SLP173 T01280094=
200907071313 SPECI KSEA 071313Z 22006KT 10SM SCT019 BKN027 OVC034 13/09 A3003 RMK AO2 $=
200907071313 SPECI KSEA 071313Z 22006KT 10SM SCT019 BKN027 OVC034 13/09 A3003 RMK AO2 $=
200907071253 METAR KSEA 071253Z 22004KT 10SM FEW008 OVC034 12/09 A3003 RMK AO2 SLP173 T01220094=
200907071153 METAR KSEA 071153Z 21004KT 10SM OVC030 13/09 A3002 RMK AO2 SLP172 T01280089 10128 20122 56007=
200907071053 METAR KSEA 071053Z 21004KT 10SM OVC032 13/09 A3003 RMK AO2 SLP173 T01280094=
200907070953 METAR KSEA 070953Z 20007KT 10SM FEW015 BKN034 OVC055 13/10 A3003 RMK AO2 SLP175 T01280100=
200907070853 METAR KSEA 070853Z 20005KT 10SM FEW025 BKN038 13/09 A3005 RMK AO2 SLP180 T01280094 58012=
200907070753 METAR KSEA 070753Z 21008KT 10SM SCT033 BKN060 12/09 A3006 RMK AO2 SLP186 T01220094 401940122=
200907070653 METAR KSEA 070653Z 21008KT 10SM BKN033 13/09 A3008 RMK AO2 SLP190 T01280094=
200907070553 METAR KSEA 070553Z 21008KT 10SM SCT045 13/09 A3008 RMK AO2 SLP193 T01280094 10183 20128 50005=
200907070453 METAR KSEA 070453Z 23008KT 10SM FEW025 SCT045 SCT200 13/10 A3008 RMK AO2 SLP192 T01330100=
200907070353 METAR KSEA 070353Z 22011KT 10SM FEW025 SCT045 SCT200 14/10 A3007 RMK AO2 SLP188 T01440100=
200907070253 METAR KSEA 070253Z 20012KT 10SM SCT045 SCT200 16/11 A3007 RMK AO2 SLP186 T01560106 53000=
200907070153 METAR KSEA 070153Z 22011KT 10SM SCT040 BKN200 16/10 A3006 RMK AO2 PK WND 21026/0117 SLP184 T01610100=
200907070053 METAR KSEA 070053Z 23020G26KT 10SM FEW030 SCT050 BKN200 18/10 A3006 RMK AO2 PK WND 22026/0051 SLP184 T01780100=
200907062353 METAR KSEA 062353Z 24018G23KT 10SM FEW030 BKN048 BKN200 17/11 A3006 RMK AO2 SLP186 60000 T01720106 10194 20144 53007=
200907062253 METAR KSEA 062253Z 21014G20KT 10SM SCT025 BKN049 BKN120 19/11 A3005 RMK AO2 SLP182 T01890111=
200907062153 METAR KSEA 062153Z 21016G21KT 10SM SCT021 SCT042 BKN120 18/11 A3005 RMK AO2 RAB31E38 SLP180 P0000 T01830111=
200907062142 SPECI KSEA 062142Z 23015G20KT 10SM SCT021 BKN040 BKN120 18/11 A3005 RMK AO2 RAB31E38 P0000=
200907062142 SPECI KSEA 062142Z 23015G20KT 10SM SCT021 BKN040 BKN120 18/11 A3005 RMK AO2 RAB31E38 P0000=
200907062053 METAR KSEA 062053Z 21013G20KT 10SM BKN028 BKN055 BKN120 18/11 A3004 RMK AO2 SLP179 T01780106 51009=
200907062000 METAR KSEA NIL=
200907061953 METAR KSEA 061953Z 22015KT 10SM BKN025 BKN049 18/11 A3004 RMK AO2 SLP179 T01780106=
200907061853 METAR KSEA 061853Z 20015G19KT 10SM FEW018 BKN025 BKN040 16/11 A3003 RMK AO2 SLP175 T01610106=
200907061753 METAR KSEA 061753Z 21014G20KT 8SM BKN021 OVC027 14/11 A3002 RMK AO2 SLP169 T01440106 10156 20144 53009=
200907061653 METAR KSEA 061653Z 19014G20KT 10SM FEW017 BKN029 BKN050 16/09 A3000 RMK AO2 SLP165 T01560094=
200907061553 METAR KSEA 061553Z 20017G25KT 7SM SCT021 BKN029 OVC040 14/09 A2999 RMK AO2 SLP162 T01440094=
200907061503 SPECI KSEA 061503Z 21013G22KT 10SM BKN029 OVC050 14/09 A2999 RMK AO2=
200907061503 SPECI KSEA 061503Z 21013G22KT 10SM BKN029 OVC050 14/09 A2999 RMK AO2=
200907061453 METAR KSEA 061453Z 21016G23KT 10SM BKN031 OVC050 14/09 A2999 RMK AO2 SLP160 T01440089 51015=
200907061353 METAR KSEA 061353Z 21010G16KT 10SM BKN035 OVC050 15/08 A2998 RMK AO2 SLP157 T01500083=
200907061253 METAR KSEA 061253Z 21011KT 10SM BKN040 OVC055 15/08 A2997 RMK AO2 SLP151 T01500083=
200907061153 METAR KSEA 061153Z 19010KT 10SM OVC040 15/09 A2995 RMK AO2 SLP144 T01500089 10156 20144 53003=
200907061053 METAR KSEA 061053Z 19009KT 10SM SCT048 BKN090 15/09 A2994 RMK AO2 SLP141 T01500089=
200907060953 METAR KSEA 060953Z 20013KT 10SM FEW036 OVC046 15/10 A2994 RMK AO2 SLP141 T01500100=
200907060853 METAR KSEA 060853Z 19013KT 10SM OVC036 16/09 A2994 RMK AO2 SLP141 T01560094 51011=
200907060753 METAR KSEA 060753Z 19009KT 10SM OVC032 16/10 A2993 RMK AO2 SLP139 T01560100 402720144=
200907060653 METAR KSEA 060653Z 18012KT 10SM OVC032 15/10 A2993 RMK AO2 SLP140 T01500100=
200907060612 SPECI KSEA 060612Z 19009KT 10SM OVC030 15/09 A2991 RMK AO2=
200907060612 SPECI KSEA 060612Z 19009KT 10SM OVC030 15/09 A2991 RMK AO2=
200907060553 METAR KSEA 060553Z 21006G19KT 10SM OVC028 15/09 A2990 RMK AO2 SLP130 T01500094 10233 20150 51011=
200907060544 SPECI KSEA 060544Z 21008G17KT 10SM BKN028 BKN150 16/09 A2991 RMK AO2=
200907060544 SPECI KSEA 060544Z 21008G17KT 10SM BKN028 BKN150 16/09 A2991 RMK AO2=
200907060453 METAR KSEA 060453Z 23008KT 10SM FEW090 BKN200 16/10 A2990 RMK AO2 SLP128 T01560100=
200907060353 METAR KSEA 060353Z 21007KT 10SM SCT180 BKN250 16/11 A2988 RMK AO2 SLP124 T01610106=
200907060253 METAR KSEA 060253Z 24009KT 10SM BKN150 17/11 A2987 RMK AO2 SLP119 T01720106 53009=
200907060153 METAR KSEA 060153Z 25009KT 10SM SCT150 BKN240 19/11 A2986 RMK AO2 SLP115 T01940111=
200907060053 METAR KSEA 060053Z 22008KT 10SM FEW150 BKN240 21/12 A2984 RMK AO2 SLP110 T02060122=
200907052353 METAR KSEA 052353Z 24010KT 10SM BKN240 23/13 A2984 RMK AO2 SLP109 T02330133 10272 20228 50002=
200907052253 METAR KSEA 052253Z 22010KT 10SM FEW150 BKN240 26/12 A2984 RMK AO2 SLP109 T02560122=
200907052153 METAR KSEA 052153Z 22009KT 10SM BKN240 26/12 A2984 RMK AO2 SLP107 T02610122=
200907052053 METAR KSEA 052053Z 25007KT 10SM BKN230 27/12 A2984 RMK AO2 SLP107 T02670122 56011=
200907051953 METAR KSEA 051953Z 30006KT 10SM BKN220 26/12 A2984 RMK AO2 SLP107 T02560122=
200907051853 METAR KSEA 051853Z 29006KT 10SM BKN200 26/12 A2986 RMK AO2 SLP113 T02560117=
200907051753 METAR KSEA 051753Z 21004KT 6SM HZ BKN190 23/12 A2987 RMK AO2 SLP118 T02280117 10228 20156 58005=
200907051653 METAR KSEA 051653Z 20005KT 5SM HZ BKN190 21/12 A2988 RMK AO2 SLP121 T02110122=
200907051553 METAR KSEA 051553Z 19004KT 7SM BKN200 20/12 A2988 RMK AO2 SLP123 T02000122=
200907051453 METAR KSEA 051453Z 00000KT 7SM BKN200 18/12 A2988 RMK AO2 SLP123 T01830122 53004=
200907051353 METAR KSEA 051353Z 19003KT 6SM HZ OVC200 18/12 A2987 RMK AO2 SLP119 T01780117=
200907051253 METAR KSEA 051253Z 00000KT 5SM HZ BKN200 17/12 A2987 RMK AO2 SLP117 T01670117=
200907051153 METAR KSEA 051153Z 00000KT 6SM HZ FEW200 17/12 A2987 RMK AO2 SLP118 T01670117 10217 20167 58004=
200907051053 METAR KSEA 051053Z 06003KT 6SM HZ FEW200 18/12 A2987 RMK AO2 SLP119 T01830122=
200907050953 METAR KSEA 050953Z 00000KT 7SM BKN200 19/11 A2989 RMK AO2 SLP123 T01890111=
200907050853 METAR KSEA 050853Z 35004KT 8SM BKN200 19/11 A2988 RMK AO2 SLP122 T01890106 55002=
200907050753 METAR KSEA 050753Z 02006KT 9SM BKN200 21/11 A2988 RMK AO2 SLP120 T02110106 403060139=
200907050736 SPECI KSEA 050736Z 01004KT 10SM BKN200 21/10 A2988 RMK AO2=
200907050736 SPECI KSEA 050736Z 01004KT 10SM BKN200 21/10 A2988 RMK AO2=
200907050653 METAR KSEA 050653Z 36005KT 10SM FEW002 BKN200 22/10 A2988 RMK AO2 SLP121 FU FEW002 T02170100=
200907050553 METAR KSEA 050553Z 01006KT 9SM FEW005 BKN200 22/10 A2989 RMK AO2 SLP125 FU FEW005 T02170100 10306 20211 53001=
200907050543 SPECI KSEA 050543Z 35005KT 9SM FEW005 BKN200 22/10 A2989 RMK AO2 FU FEW005=
200907050543 SPECI KSEA 050543Z 35005KT 9SM FEW005 BKN200 22/10 A2989 RMK AO2 FU FEW005=
200907050453 METAR KSEA 050453Z 34006KT 10SM BKN250 22/10 A2989 RMK AO2 SLP126 T02220100=
200907050353 METAR KSEA 050353Z 35006KT 10SM BKN250 24/11 A2988 RMK AO2 SLP123 T02440106=
200907050253 METAR KSEA 050253Z 36008KT 10SM BKN250 27/09 A2989 RMK AO2 SLP124 T02720089 56009=
200907050153 METAR KSEA 050153Z 35012KT 10SM BKN250 28/06 A2989 RMK AO2 SLP126 T02830061=
200907050053 METAR KSEA 050053Z 01010KT 10SM BKN250 30/06 A2990 RMK AO2 SLP128 T03000056=
200907042353 METAR KSEA 042353Z 01010G14KT 10SM BKN240 31/08 A2992 RMK AO2 SLP134 T03060083 10306 20217 58015=
200907042253 METAR KSEA 042253Z 32009KT 10SM BKN240 29/10 A2993 RMK AO2 SLP139 T02890100=
200907042153 METAR KSEA 042153Z 29008KT 10SM BKN240 28/09 A2995 RMK AO2 SLP144 T02830094=
200907042053 METAR KSEA 042053Z 28007KT 10SM BKN240 27/10 A2996 RMK AO2 SLP149 T02720100 58013=
200907041953 METAR KSEA 041953Z 27007KT 10SM BKN240 25/11 A2997 RMK AO2 SLP154 T02500111=
200907041853 METAR KSEA 041853Z 28004KT 10SM SCT210 23/11 A2999 RMK AO2 SLP160 T02330111=
200907041753 METAR KSEA 041753Z 28004KT 10SM SCT200 22/10 A3000 RMK AO2 SLP162 T02170100 10217 20139 58003=
200907041653 METAR KSEA 041653Z 25003KT 10SM SCT200 19/11 A3001 RMK AO2 SLP165 T01940106=
200907041553 METAR KSEA 041553Z VRB05KT 10SM SCT220 18/10 A3001 RMK AO2 SLP165 T01830100=
200907041453 METAR KSEA 041453Z 18005KT 10SM BKN250 16/11 A3001 RMK AO2 SLP166 T01560106 51008=
200907041353 METAR KSEA 041353Z 00000KT 10SM BKN250 15/11 A3000 RMK AO2 SLP163 T01500106=
200907041253 METAR KSEA 041253Z 18003KT 10SM BKN250 14/11 A2999 RMK AO2 SLP160 T01440106=
200907041153 METAR KSEA 041153Z 18004KT 10SM FEW250 14/11 A2998 RMK AO2 SLP157 T01440111 10228 20144 51005=
200907041053 METAR KSEA 041053Z 19004KT 10SM CLR 16/11 A2998 RMK AO2 SLP156 T01560111=
200907040953 METAR KSEA 040953Z 19004KT 10SM CLR 16/11 A2998 RMK AO2 SLP154 T01610111=
200907040853 METAR KSEA 040853Z 16004KT 10SM CLR 17/11 A2997 RMK AO2 SLP151 T01720106 51004=
200907040753 METAR KSEA 040753Z 00000KT 10SM CLR 19/10 A2996 RMK AO2 SLP150 T01890100 403110139=
200907040653 METAR KSEA 040653Z 00000KT 10SM CLR 20/09 A2996 RMK AO2 SLP149 T02000094=
200907040553 METAR KSEA 040553Z 26003KT 10SM CLR 22/08 A2995 RMK AO2 SLP147 T02170083 10306 20217 53008=
200907040453 METAR KSEA 040453Z 33004KT 10SM FEW250 23/07 A2995 RMK AO2 SLP144 T02330067=
200907040353 METAR KSEA 040353Z 35008KT 10SM FEW250 26/06 A2993 RMK AO2 SLP139 T02560061=
200907040253 METAR KSEA 040253Z 30004KT 10SM FEW250 28/08 A2993 RMK AO2 SLP139 T02830078 55003=
200907040153 METAR KSEA 040153Z 30006KT 10SM SCT250 29/07 A2993 RMK AO2 SLP137 T02940072=
200907040053 METAR KSEA 040053Z 28007KT 10SM SCT250 30/07 A2993 RMK AO2 SLP138 T03000072=
200907032353 METAR KSEA 032353Z 29005KT 10SM FEW060 SCT250 30/07 A2994 RMK AO2 SLP142 T03000072 10311 20228 58009=
200907032253 METAR KSEA 032253Z 04005KT 10SM FEW060 SCT250 31/05 A2995 RMK AO2 SLP146 T03060050=
200907032153 METAR KSEA 032153Z 35007KT 10SM FEW250 30/06 A2996 RMK AO2 SLP147 T03000061=
200907032053 METAR KSEA 032053Z 36007KT 10SM FEW250 28/07 A2997 RMK AO2 SLP151 T02830067 58003=
200907031953 METAR KSEA 031953Z 36006KT 10SM FEW250 28/08 A2998 RMK AO2 SLP154 T02780083=
200907031853 METAR KSEA 031853Z 30006KT 10SM FEW250 25/10 A2998 RMK AO2 SLP155 T02500100=
200907031753 METAR KSEA 031753Z 30004KT 10SM FEW250 23/09 A2998 RMK AO2 SLP154 T02280094 10228 20139 51001=
200907031653 METAR KSEA 031653Z 28005KT 10SM FEW250 21/10 A2998 RMK AO2 SLP156 T02110100=
200907031553 METAR KSEA 031553Z 26003KT 10SM FEW250 19/11 A2998 RMK AO2 SLP155 T01940106=
200907031453 METAR KSEA 031453Z 29004KT 10SM CLR 17/11 A2998 RMK AO2 SLP154 T01720106 53009=
200907031353 METAR KSEA 031353Z 00000KT 10SM CLR 17/09 A2997 RMK AO2 SLP151 T01670094=
200907031253 METAR KSEA 031253Z 00000KT 10SM FEW050 14/08 A2996 RMK AO2 SLP148 T01440083=
200907031153 METAR KSEA 031153Z 00000KT 10SM CLR 15/08 A2995 RMK AO2 SLP145 T01500078 10222 20144 51005=
200907031053 METAR KSEA 031053Z 00000KT 10SM CLR 16/08 A2995 RMK AO2 SLP144 T01560083=
200907030953 METAR KSEA 030953Z 00000KT 10SM CLR 16/08 A2994 RMK AO2 SLP142 T01610078=
200907030853 METAR KSEA 030853Z 36003KT 10SM CLR 18/07 A2993 RMK AO2 SLP140 T01830067 51001=
200907030753 METAR KSEA 030753Z 00000KT 10SM CLR 19/07 A2993 RMK AO2 SLP139 T01940067 402830150=
200907030653 METAR KSEA 030653Z 03007KT 10SM CLR 21/06 A2993 RMK AO2 SLP140 T02110061=
200907030553 METAR KSEA 030553Z 02007KT 10SM CLR 22/07 A2993 RMK AO2 SLP138 T02170072 10283 20206 51006=
200907030453 METAR KSEA 030453Z 36007KT 10SM CLR 21/08 A2993 RMK AO2 SLP139 T02110078=
200907030353 METAR KSEA 030353Z 36006KT 10SM CLR 24/06 A2991 RMK AO2 SLP133 T02390061=
200907030253 METAR KSEA 030253Z 34009KT 10SM CLR 26/04 A2991 RMK AO2 SLP132 T02560044 55002=
200907030153 METAR KSEA 030153Z 34013KT 10SM CLR 27/04 A2991 RMK AO2 SLP130 T02670044=
200907030053 METAR KSEA 030053Z 33009KT 10SM CLR 27/07 A2991 RMK AO2 SLP132 T02720072=
200907022353 METAR KSEA 022353Z 33007KT 300V010 10SM FEW250 28/09 A2992 RMK AO2 SLP133 T02830094 10283 20222 56013=
200907022253 METAR KSEA 022253Z 30007KT 10SM FEW250 28/09 A2993 RMK AO2 SLP137 T02780089=
200907022153 METAR KSEA 022153Z 36007KT 310V020 10SM FEW250 27/08 A2994 RMK AO2 SLP142 T02720083=
200907022053 METAR KSEA 022053Z 36007KT 10SM SCT250 27/08 A2995 RMK AO2 SLP147 T02670083 58013=
200907021953 METAR KSEA 021953Z 34008KT 10SM SCT250 26/09 A2997 RMK AO2 SLP151 T02560089=
200907021853 METAR KSEA 021853Z 33009G15KT 10SM FEW250 24/09 A2998 RMK AO2 SLP155 T02440089=
200907021753 METAR KSEA 021753Z 36006KT 10SM FEW250 22/09 A2999 RMK AO2 SLP160 T02220094 10222 20156 57008=
200907021653 METAR KSEA 021653Z 04009KT 10SM FEW250 21/09 A3000 RMK AO2 SLP163 T02110094=
200907021553 METAR KSEA 021553Z 02011KT 10SM FEW250 19/09 A3001 RMK AO2 SLP166 T01890089=
200907021453 METAR KSEA 021453Z 02009KT 10SM FEW250 17/08 A3002 RMK AO2 SLP169 T01720083 50002=
200907021353 METAR KSEA 021353Z 02008KT 10SM CLR 16/08 A3002 RMK AO2 SLP169 T01610078=
200907021253 METAR KSEA 021253Z 03007KT 10SM CLR 16/07 A3001 RMK AO2 SLP168 T01560072=
200907021153 METAR KSEA 021153Z 04010KT 10SM CLR 16/06 A3001 RMK AO2 SLP166 T01560061 10194 20150 53001=
200907021053 METAR KSEA 021053Z 04006KT 10SM CLR 16/06 A3001 RMK AO2 SLP166 T01560056=
200907020953 METAR KSEA 020953Z 02009KT 10SM CLR 17/05 A3001 RMK AO2 SLP165 T01670050=
200907020853 METAR KSEA 020853Z 01010KT 10SM CLR 17/04 A3001 RMK AO2 SLP165 T01670039 58003=
200907020753 METAR KSEA 020753Z 02008KT 10SM CLR 18/04 A3001 RMK AO2 SLP168 T01780039 402610133=
200907020653 METAR KSEA 020653Z 05005KT 10SM CLR 18/04 A3002 RMK AO2 SLP169 T01830044=
200907020553 METAR KSEA 020553Z 01009KT 10SM CLR 19/05 A3002 RMK AO2 SLP169 T01940050 10256 20189 55000=
200907020453 METAR KSEA 020453Z 03009KT 10SM CLR 21/06 A3001 RMK AO2 SLP168 T02060061=
200907020353 METAR KSEA 020353Z 02009KT 10SM CLR 22/04 A3001 RMK AO2 SLP166 T02170044=
200907020253 METAR KSEA 020253Z 36011KT 10SM CLR 23/06 A3002 RMK AO2 SLP169 T02330061 56008=
200907020153 METAR KSEA 020153Z 35011KT 10SM CLR 24/06 A3002 RMK AO2 SLP170 T02390061=
200907020053 METAR KSEA 020053Z 34011KT 10SM CLR 25/06 A3003 RMK AO2 SLP173 T02500056=
200907012353 METAR KSEA 012353Z 35008KT 10SM CLR 26/07 A3004 RMK AO2 SLP177 T02560067 10261 20206 58013=
200907012253 METAR KSEA 012253Z 36010G20KT 10SM CLR 26/08 A3006 RMK AO2 SLP182 T02560078=
200907012153 METAR KSEA 012153Z 35013KT 10SM CLR 25/07 A3007 RMK AO2 SLP187 T02500067=
200907012053 METAR KSEA 012053Z 01011KT 10SM CLR 24/07 A3008 RMK AO2 SLP191 T02440072 58009=
200907011953 METAR KSEA 011953Z 35007G14KT 10SM CLR 23/07 A3009 RMK AO2 SLP194 T02330072=
200907011853 METAR KSEA 011853Z 02008KT 10SM CLR 22/08 A3010 RMK AO2 SLP197 T02170078=
200907011753 METAR KSEA 011753Z 02007KT 10SM CLR 21/09 A3011 RMK AO2 SLP200 T02060089 10206 20133 58007=
200907011653 METAR KSEA 011653Z 03010KT 10SM CLR 19/09 A3011 RMK AO2 SLP202 T01890089=
200907011553 METAR KSEA 011553Z 02010KT 10SM CLR 17/08 A3013 RMK AO2 SLP206 T01670083=
200907011453 METAR KSEA 011453Z 03011KT 10SM CLR 16/08 A3013 RMK AO2 SLP207 T01610078 53005=
200907011353 METAR KSEA 011353Z 04012KT 10SM CLR 15/06 A3012 RMK AO2 SLP204 T01500061=
200907011253 METAR KSEA 011253Z 04010KT 10SM CLR 14/06 A3012 RMK AO2 SLP203 T01390061=
200907011153 METAR KSEA 011153Z 06007KT 10SM FEW200 13/06 A3011 RMK AO2 SLP202 T01330061 10161 20133 51002=
200907011053 METAR KSEA 011053Z 05005KT 10SM CLR 13/06 A3011 RMK AO2 SLP202 T01330056=
200907010953 METAR KSEA 010953Z 04005KT 10SM CLR 14/05 A3011 RMK AO2 SLP200 T01440050=
200907010853 METAR KSEA 010853Z 05004KT 10SM CLR 14/06 A3011 RMK AO2 SLP199 T01440056 57001=
200907010753 METAR KSEA 010753Z 04007KT 10SM CLR 16/06 A3011 RMK AO2 SLP200 T01560056 402390106=
200907010653 METAR KSEA 010653Z 35004KT 10SM CLR 15/04 A3011 RMK AO2 SLP200 T01500044=
200907010553 METAR KSEA 010553Z 01007KT 10SM CLR 16/03 A3011 RMK AO2 SLP201 T01560033 10239 20156 53006=
200907010453 METAR KSEA 010453Z 36006KT 10SM FEW005 17/04 A3010 RMK AO2 SLP200 FU FEW005 T01720044=
200907010353 METAR KSEA 010353Z 34009KT 10SM FEW250 19/03 A3009 RMK AO2 SLP195 T01890028=
200907010253 METAR KSEA 010253Z 34012KT 10SM FEW250 21/01 A3009 RMK AO2 SLP194 T02060011 56006=
200907010153 METAR KSEA 010153Z 33012KT 10SM FEW250 22/02 A3009 RMK AO2 SLP194 T02220017=
200907010053 METAR KSEA 010053Z 34010G18KT 10SM FEW250 23/01 A3010 RMK AO2 SLP198 T02330006=

# No short TAF reports from KSEA in databse.

###################################
#  large TAF from KSEA
###################################
200907312320 TAF KSEA 312320Z 0100/0206 32006KT P6SM SCT250 FM010600 01004KT
                       P6SM SKC FM011200 VRB03KT P6SM SCT005 FM011800
                       28005KT P6SM SKC FM012100 32008KT P6SM SKC=
200907312142 KSEA 312142Z 3122/0124 24006KT P6SM SCT250 FM010000 30006KT P6SM
                       SKC FM011200 22004KT P6SM BKN007 FM011800
                       27004KT P6SM SKC=
200907311741 TAF KSEA 311741Z 3118/0124 27006KT P6SM FEW010 SCT250 FM311830
                       31006KT P6SM SCT250 FM010000 36006KT P6SM
                       SKC FM011200 22004KT P6SM BKN007 FM011800
                       27004KT P6SM SKC=
200907311120 TAF KSEA 311120Z 3112/0118 22006KT P6SM SCT004 OVC006 FM311800
                       24007KT P6SM SCT015 FM312100 31005KT P6SM
                       SKC FM011200 21007KT P6SM BKN012=
200907310524 TAF KSEA 310524Z 3106/0112 22005KT P6SM SKC FM311100 23007KT 4SM
                       BR OVC004 FM311800 24007KT P6SM SCT015 FM312000
                       25007KT P6SM SKC=
200907302331 TAF KSEA 302331Z 3100/0106 26005KT P6SM FEW050 FM310100 24010G16KT
                       P6SM FEW050 SCT200 FM310500 24008KT P6SM
                       SCT200 FM311300 23007KT 2SM BR OVC002 FM311800
                       24007KT 6SM BR SCT015 FM312000 25007KT P6SM
                       SKC=
200907301800 KSEA 301800Z 3018/3124 30006KT P6SM FEW045 SCT200 FM310100 24008KT
                       P6SM SCT050 SCT200 FM311300 23007KT 2SM
                       BR OVC002 FM311800 24007KT 6SM BR SCT015
                       FM312000 25007KT P6SM SKC=
200907301730 TAF KSEA 301730Z 3018/3124 22005KT P6SM FEW050 SCT200 FM302200
                       24008KT P6SM SCT050 SCT200 FM311300 23007KT
                       2SM BR OVC002 FM311800 24007KT 6SM BR SCT015
                       FM312000 25007KT P6SM SKC=
200907301120 TAF KSEA 301120Z 3012/3118 22004KT P6SM SKC FM302300 24008KT P6SM
                       SCT050 FM311300 23007KT P6SM OVC007=
200907300536 TAF KSEA 300536Z 3006/3112 15007KT P6SM SCT200 FM302300 24008KT
                       P6SM SCT050=
200907292335 TAF KSEA 292335Z 3000/3106 30005KT P6SM FEW060 SCT200 FM300400
                       VRB04KT P6SM SKC FM302300 24008KT P6SM SCT050=
200907291726 TAF KSEA 291726Z 2918/3024 04004KT P6SM FEW060 FM292100 01006KT
                       P6SM SCT060 SCT120 FM300400 04004KT P6SM
                       SKC FM301200 VRB04KT P6SM SKC FM302300 24008KT
                       P6SM SCT050=
200907291120 TAF KSEA 291120Z 2912/3018 VRB03KT P6SM SKC FM292100 01006KT P6SM
                       SCT050 FM300600 04007KT P6SM SKC=
200907290520 TAF KSEA 290520Z 2906/3012 01006KT P6SM SKC FM292100 01006KT P6SM
                       FEW050 FM300400 04007KT P6SM SKC=
200907282320 TAF KSEA 282320Z 2900/3006 01011KT P6SM FEW050 FM290300 04007KT
                       P6SM SKC FM292200 36005KT P6SM SCT050 FM300400
                       04006KT P6SM SKC=
200907281720 TAF KSEA 281720Z 2818/2924 32005KT P6SM FEW250 FM290300 04007KT
                       P6SM SKC FM292000 36005KT P6SM SKC=
200907281120 TAF KSEA 281120Z 2812/2918 00000KT P6SM SKC FM281800 35007KT P6SM
                       SKC FM290300 04006KT P6SM SKC=
200907280520 TAF KSEA 280520Z 2806/2912 02004KT P6SM SKC FM281900 35004KT P6SM
                       SKC FM290300 04006KT P6SM SKC=
200907272320 TAF KSEA 272320Z 2800/2906 33009KT P6SM FEW050 FM280300 03007KT
                       P6SM SKC FM281900 35004KT P6SM SKC FM290300
                       04006KT P6SM SKC=
200907271720 TAF KSEA 271720Z 2718/2824 01008KT P6SM SKC FM272000 36006KT P6SM
                       SKC FM280300 03007KT P6SM SKC FM281900 35004KT
                       P6SM SKC=
200907271120 TAF KSEA 271120Z 2712/2818 03004KT P6SM SKC FM272000 36006KT P6SM
                       SKC FM280300 03005KT P6SM SKC=
200907270520 TAF KSEA 270520Z 2706/2812 01005KT P6SM SCT120 FM270800 03004KT
                       P6SM SKC FM272000 36006KT P6SM SKC FM280300
                       03005KT P6SM SKC=
200907262320 TAF KSEA 262320Z 2700/2806 32006KT P6SM FEW060 FM270300 01005KT
                       P6SM SCT120 FM270800 03004KT P6SM SKC FM272000
                       36006KT P6SM SKC=
200907261739 TAF KSEA 261739Z 2618/2724 VRB05KT P6SM SKC FM262100 36007KT P6SM
                       SKC FM270300 01005KT P6SM SCT120 FM270800
                       03004KT P6SM SKC FM272000 36006KT P6SM SKC=
200907261132 TAF KSEA 261132Z 2612/2718 VRB03KT P6SM SCT120 FM261900 36006KT
                       P6SM SCT120 FM270800 03006KT P6SM SKC=
200907260540 TAF KSEA 260540Z 2606/2712 32006KT P6SM SCT080 BKN120 FM260900
                       VRB03KT P6SM SCT120 FM261900 36006KT P6SM
                       SCT120=
200907260239 KSEA 260239Z 2603/2706 36008KT P6SM -SHRA BKN070CB OVC120 FM260600
                       VRB05KT P6SM VCTS BKN080CB FM261000 VRB05KT
                       P6SM BKN150=
200907260104 KSEA 260104Z 2601/2706 VRB05KT P6SM VCTS BKN080CB FM260200 VRB05KT
                       P6SM SCT080 SCT120 FM260500 VRB05KT P6SM
                       VCTS BKN080CB FM261000 VRB05KT P6SM BKN150=
200907252320 TAF KSEA 252320Z 2600/2706 VRB05KT P6SM SCT080 SCT120 FM260400
                       VRB05KT P6SM VCTS BKN080CB FM261000 VRB05KT
                       P6SM BKN150=
200907252251 KSEA 252251Z 2523/2624 VRB04KT P6SM SCT080 SCT120 FM260400 VRB06KT
                       P6SM VCTS BKN090CB FM261000 VRB04KT P6SM
                       BKN150=
200907251742 TAF KSEA 251742Z 2518/2624 29006KT P6SM SCT150 FM252000 31006KT
                       P6SM VCTS BKN150CB FM252200 34005KT P6SM
                       BKN150 FM260300 35006KT P6SM VCTS BKN150CB
                       FM261200 11004KT P6SM BKN150=
200907251138 TAF KSEA 251138Z 2512/2618 VRB03KT P6SM BKN120 FM251900 34006KT
                       P6SM BKN120=
200907250536 TAF KSEA 250536Z 2506/2612 VRB03KT P6SM BKN200 FM251900 34006KT
                       P6SM SKC=
200907242320 TAF KSEA 242320Z 2500/2606 32008KT P6SM SCT080 FM250600 03003KT
                       P6SM SKC FM251900 34006KT P6SM SKC=
200907241838 KSEA 241838Z 2419/2524 26007KT P6SM SCT012 FM242000 31008KT P6SM
                       SCT050 FM250600 03003KT P6SM SKC FM251900
                       34006KT P6SM SKC=
200907241740 TAF KSEA 241740Z 2418/2524 32005KT P6SM OVC008
                      TEMPO 2419/2420 SCT010 SCT030 FM242000 31008KT
                       P6SM SCT050 FM250600 03003KT P6SM SKC FM251900
                       34006KT P6SM SKC=
200907241445 KSEA 241445Z 2415/2518 22004KT P6SM OVC004 FM241600 23004KT P6SM
                       OVC008 FM241900 31006KT P6SM BKN011 BKN030
                       FM242100 31008KT P6SM SCT035 FM250400 VRB03KT
                       P6SM SKC=
200907241120 TAF KSEA 241120Z 2412/2518 20004KT P6SM OVC007 FM241800 31006KT
                       P6SM SCT015 FM241900 31008KT P6SM SKC FM250400
                       VRB03KT P6SM SKC=
200907241031 KSEA 241031Z 2411/2512 20004KT P6SM SCT010 FM241200 20004KT P6SM
                       OVC010 FM241800 31008KT P6SM SCT250 FM250400
                       21006KT P6SM SKC=
200907240520 TAF KSEA 240520Z 2406/2512 25006KT P6SM FEW025 SCT080 FM241000
                       20006KT P6SM OVC010 FM241800 31008KT P6SM
                       SCT250 FM250400 21006KT P6SM SKC=
200907232338 TAF KSEA 232338Z 2400/2506 24006KT P6SM BKN025
                      TEMPO 2400/2402 SCT025 FM240200 25006KT P6SM
                       SCT250 FM241000 20006KT P6SM OVC010 FM241800
                       31008KT P6SM SCT250=
200907232110 KSEA 232110Z 2321/2424 23007KT P6SM BKN016 OVC022 FM232300 24008KT
                       P6SM SCT025
                      TEMPO 2323/2403 BKN025 FM240600 28005KT P6SM
                       BKN250 FM240900 20006KT P6SM OVC009 FM241900
                       31006KT P6SM SCT250=
200907231720 TAF KSEA 231720Z 2318/2424 22007KT P6SM BKN011 OVC016 FM232000
                       23006KT P6SM BKN020 FM232100 24006KT P6SM
                       SCT020 FM232200 25008KT P6SM SCT030
                      TEMPO 2323/2403 31007KT FM240900 20006KT
                       P6SM OVC009 FM241900 31006KT P6SM SCT250=
200907231618 KSEA 231618Z 2316/2418 20005KT P6SM SCT009 OVC015 FM231900 23006KT
                       P6SM BKN018 FM232000 24006KT P6SM SCT020
                       FM232100 25008KT P6SM SCT250
                      TEMPO 2323/2403 31007KT FM240900 20006KT
                       P6SM OVC009=
200907231134 TAF KSEA 231134Z 2312/2418 21007KT P6SM OVC008 FM231900 24005KT
                       P6SM SCT010 FM232000 25007KT P6SM SCT250
                       FM240900 20006KT P6SM OVC006=
200907230520 TAF KSEA 230520Z 2306/2412 20007KT P6SM OVC006 FM231900 24005KT
                       P6SM SCT010 FM232000 25007KT P6SM SCT250
                       FM240900 20006KT P6SM OVC006=
200907230316 KSEA 230316Z 2303/2406 23006KT P6SM SKC FM230600 19004KT P6SM OVC008
                       FM231900 24005KT P6SM SCT010 FM232000 25007KT
                       P6SM SCT250=
200907230056 KSEA 230056Z 2301/2406 23006KT P6SM SKC FM231100 19004KT P6SM OVC006
                       FM231800 24005KT P6SM SCT010 FM231900 25007KT
                       P6SM SCT250=
200907222330 TAF KSEA 222330Z 2300/2406 23006KT P6SM SKC
                      TEMPO 2301/2305 30006KT FM231100 19004KT
                       P6SM OVC006 FM231800 24005KT P6SM SCT010
                       FM231900 25007KT P6SM SCT250=
200907221741 TAF KSEA 221741Z 2218/2324 23005KT P6SM OVC006
                      TEMPO 2218/2219 SCT006 FM221900 24006KT P6SM
                       SCT006 FM222000 24008KT P6SM SKC FM230000
                       30008KT P6SM SKC FM230400 21006KT P6SM SKC
                       FM231100 19004KT P6SM OVC006 FM231800 24005KT
                       P6SM BKN010 FM231900 25007KT P6SM SKC=
200907221255 KSEA 221255Z 2213/2318 22008KT P6SM OVC003 FM221800 24006KT P6SM
                       SCT006 FM221900 30007KT P6SM SKC FM230400
                       20005KT P6SM SKC FM231200 20005KT P6SM OVC006=
200907221133 TAF KSEA 221133Z 2212/2318 21005KT P6SM BKN004
                      TEMPO 2213/2216 1SM BR OVC001 FM221800 24006KT
                       P6SM SCT006 FM221900 30007KT P6SM SKC FM230400
                       20005KT P6SM SKC FM231200 20005KT P6SM OVC006=
200907220520 TAF KSEA 220520Z 2206/2312 27004KT P6SM SKC FM220900 23005KT P6SM
                       SKC FM221200 21005KT P6SM BKN004
                      TEMPO 2212/2216 1/2SM FG OVC001 FM221700
                       24006KT P6SM SKC FM222000 30007KT P6SM SKC
                       FM230400 20005KT P6SM SKC FM231100 20005KT
                       P6SM OVC006=
200907212338 TAF KSEA 212338Z 2200/2306 27004KT P6SM SKC FM220900 23005KT P6SM
                       SKC FM221300 21005KT P6SM BKN006 FM221700
                       24006KT P6SM SKC FM222000 30007KT P6SM SKC=
200907211742 TAF KSEA 211742Z 2118/2224 28004KT P6SM SKC FM212000 30006KT P6SM
                       SKC FM220900 23005KT P6SM SKC FM221300 21005KT
                       P6SM BKN006 FM221700 24006KT P6SM SKC FM222000
                       30007KT P6SM SKC=
200907211123 TAF KSEA 211123Z 2112/2218 00000KT P6SM SKC FM212000 32007KT P6SM
                       SKC FM220800 VRB04KT P6SM SKC FM221200 22006KT
                       P6SM SCT009
                      TEMPO 2213/2216 BKN009=
200907210522 TAF KSEA 210522Z 2106/2212 01007KT P6SM FEW200 FM211200 VRB04KT
                       P6SM SKC FM212000 32007KT P6SM SKC FM220800
                       VRB04KT P6SM SKC=
200907202341 TAF KSEA 202341Z 2100/2206 35008KT P6SM BKN250 FM210400 01006KT
                       P6SM SKC FM211200 VRB03KT P6SM SKC FM212000
                       31007KT P6SM SKC=
200907201845 TAF KSEA 201845Z 2019/2124 01010KT P6SM BKN250=
200907201120 TAF KSEA 201120Z 2012/2118 36010KT P6SM SKC=
200907200532 TAF KSEA 200532Z 2006/2112 36008KT P6SM SKC=
200907192320 TAF KSEA 192320Z 2000/2106 34010KT P6SM FEW040 FM200600 06006KT
                       P6SM SKC FM201900 34008KT P6SM SCT250=
200907191720 TAF KSEA 191720Z 1918/2024 33007KT P6SM SKC FM200600 06006KT P6SM
                       SKC=
200907191128 TAF KSEA 191128Z 1912/2018 04009KT P6SM SCT060
                      TEMPO 1912/1916 BKN060 FM191900 34008KT P6SM
                       SCT050 FM192300 36010KT P6SM SKC FM200400
                       03006KT P6SM SKC=
200907190538 TAF KSEA 190538Z 1906/2012 02007KT P6SM SCT040 FM191000 03006KT
                       P6SM SCT023
                      TEMPO 1912/1916 BKN023 FM191900 33008KT P6SM
                       SCT040 FM192300 36010KT P6SM SKC FM200400
                       03006KT P6SM SKC=
200907182320 TAF KSEA 182320Z 1900/2006 34008KT P6SM SCT040
                      TEMPO 1904/1908 BKN040 FM190800 VRB04KT P6SM
                       BKN020 OVC035 FM191900 30008KT P6SM SCT040=
200907181725 TAF KSEA 181725Z 1818/1924 VRB04KT P6SM SCT015 SCT250 FM182100
                       34008KT P6SM FEW030 SCT250 FM190600 VRB04KT
                       P6SM BKN015=
200907181504 KSEA 181504Z 1815/1918 20006KT P6SM SCT004 BKN200
                      TEMPO 1815/1817 3SM BR BKN004 FM182000 32008KT
                       P6SM SCT250 FM190900 VRB05KT P6SM BKN008=
200907181137 TAF KSEA 181137Z 1812/1918 VRB03KT P6SM FEW250 FM182000 32008KT
                       P6SM FEW250 FM190400 36009KT P6SM FEW250
                       FM191200 21006KT P6SM BKN008=
200907180541 TAF KSEA 180541Z 1806/1912 35006KT P6SM SCT250 FM180800 02004KT
                       P6SM FEW250 FM181500 VRB03KT P6SM SCT250
                       FM182100 32008KT P6SM FEW250 FM190400 36009KT
                       P6SM FEW250=
200907172320 TAF KSEA 172320Z 1800/1906 36007KT P6SM FEW250=
200907171720 TAF KSEA 171720Z 1718/1824 VRB03KT P6SM FEW250 FM172100 33008KT
                       P6SM FEW250 FM180500 01006KT P6SM SCT250=
200907171122 TAF KSEA 171122Z 1712/1818 02005KT P6SM SCT250 FM172000 33008KT
                       P6SM FEW250 FM180300 01006KT P6SM SKC=
200907170527 TAF KSEA 170527Z 1706/1812 02007KT P6SM SCT250 FM172000 33008KT
                       P6SM FEW250 FM180300 01006KT P6SM SKC=
200907162331 TAF KSEA 162331Z 1700/1806 31007KT P6SM SKC FM170600 02005KT P6SM
                       SKC FM172000 33008KT P6SM SKC=
200907161817 TAF KSEA 161817Z 1618/1724 28006KT P6SM SKC FM162100 33008KT P6SM
                       SKC FM170600 02005KT P6SM SKC FM172000 33008KT
                       P6SM SKC=
200907161120 TAF KSEA 161120Z 1612/1718 02006KT P6SM SKC FM161900 33007KT P6SM
                       SKC FM170600 02005KT P6SM SKC=
200907160521 TAF KSEA 160521Z 1606/1712 02006KT P6SM SCT250 FM161900 33007KT
                       P6SM SCT250 FM170500 02005KT P6SM SKC=
200907152320 TAF KSEA 152320Z 1600/1706 28008KT P6SM SCT250 FM160500 04006KT
                       P6SM SKC FM161900 33007KT P6SM SKC=
200907151720 TAF KSEA 151720Z 1518/1624 29006KT P6SM SKC FM152000 34008KT P6SM
                       SKC FM160500 04006KT P6SM SKC FM161900 33007KT
                       P6SM SKC=
200907151120 TAF KSEA 151120Z 1512/1618 02004KT P6SM SKC FM151700 36006KT P6SM
                       SKC FM152000 34008KT P6SM SKC FM160500 04006KT
                       P6SM SKC=
200907150520 TAF KSEA 150520Z 1506/1612 34005KT P6SM SKC FM150800 04006KT P6SM
                       SKC FM151700 36006KT P6SM SKC FM152000 34008KT
                       P6SM SKC FM160500 04006KT P6SM SKC=
200907142325 TAF KSEA 142325Z 1500/1606 33010KT P6SM FEW035
                      TEMPO 1501/1505 BKN035 FM150500 03008KT P6SM
                       SKC FM151100 04006KT P6SM FEW010 FM151600
                       36006KT P6SM SKC=
200907141730 TAF KSEA 141730Z 1418/1524 30004KT P6SM SCT015 BKN025 FM141900
                       29006KT P6SM SCT035 SCT060 FM142200 32008KT
                       P6SM SCT070 FM150500 03008KT P6SM SKC FM151100
                       04006KT P6SM FEW010 FM151500 36006KT P6SM
                       SKC=
200907141358 KSEA 141358Z 1414/1518 21003KT P6SM FEW016 SCT025 BKN060
                      TEMPO 1414/1416 SCT015 BKN025 OVC060 FM141700
                       VRB03KT P6SM SCT020 BKN060 FM142000 29006KT
                       P6SM FEW035 SCT060 FM142200 32008KT P6SM
                       FEW060 FM150500 03008KT P6SM SKC FM151100
                       04006KT P6SM FEW010=
200907141120 TAF KSEA 141120Z 1412/1518 00000KT P6SM SCT019 BKN028 FM141400
                       VRB03KT P6SM BKN016 FM141700 VRB03KT P6SM
                       SCT020 BKN035 FM142000 29006KT P6SM FEW035
                       SCT060 FM142200 32008KT P6SM FEW060 FM150500
                       03008KT P6SM SKC FM151100 04006KT P6SM FEW010=
200907140520 TAF KSEA 140520Z 1406/1512 22005KT P6SM FEW030 BKN045 FM140900
                       22003KT P6SM SCT015 BKN025 FM141200 VRB03KT
                       P6SM BKN011 OVC020 FM141800 VRB03KT P6SM
                       BKN022 FM141900 29006KT P6SM FEW035 SCT060
                       FM142100 32008KT P6SM FEW060 FM150500 03008KT
                       P6SM SKC FM151100 04006KT P6SM FEW010=
200907132322 TAF KSEA 132322Z 1400/1506 21012KT P6SM SCT025 BKN045 FM141200
                       VRB03KT P6SM OVC008 FM141600 VRB03KT P6SM
                       BKN015 FM141900 29006KT P6SM SCT250=
200907131725 TAF KSEA 131725Z 1318/1424 22007KT P6SM FEW012 BKN040 BKN200 FM132300
                       20006KT P6SM BKN040 FM141200 VRB03KT P6SM
                       OVC008 FM141600 VRB03KT P6SM BKN015 FM141900
                       29006KT P6SM SCT250=
200907131542 KSEA 131542Z 1316/1418 20008KT P6SM VCSH FEW009 BKN026 OVC035 FM131700
                       21006KT P6SM BKN030 OVC040 FM132300 20006KT
                       P6SM BKN040 FM141200 VRB03KT P6SM OVC008
                       FM141600 VRB03KT P6SM BKN015=
200907131120 TAF KSEA 131120Z 1312/1418 21008KT P6SM -SHRA SCT008 OVC015
                      TEMPO 1312/1315 5SM -SHRA BKN008 OVC015 FM131500
                       20006KT P6SM VCSH OVC008 FM131700 21006KT
                       P6SM OVC012 FM132000 22008KT P6SM BKN025
                       FM140400 20006KT P6SM OVC015 FM141200 VRB03KT
                       P6SM OVC008 FM141600 VRB03KT P6SM BKN015=
200907130822 KSEA 130822Z 1308/1412 22007KT 6SM -SHRA BR FEW005 OVC013 FM131000
                       20007KT P6SM VCSH SCT005 OVC010 FM131300
                       20006KT P6SM VCSH OVC008 FM131600 21006KT
                       P6SM OVC012 FM132000 22008KT P6SM BKN022
                       FM140400 20006KT P6SM OVC015 FM141100 20006KT
                       P6SM OVC010=
200907130520 TAF KSEA 130520Z 1306/1412 20009KT P6SM VCSH OVC020 FM131000 20007KT
                       P6SM VCSH OVC012 FM131300 20006KT P6SM VCSH
                       OVC008 FM131600 21006KT P6SM OVC012 FM132000
                       22008KT P6SM BKN022 FM140400 20006KT P6SM
                       OVC015 FM141100 20006KT P6SM OVC010=
200907130435 KSEA 130435Z 1305/1406 20008KT P6SM OVC019 FM130600 22008KT P6SM
                       VCSH OVC015
                      TEMPO 1312/1316 OVC008 FM131900 21006KT P6SM
                       VCSH OVC012 FM132200 22008KT P6SM BKN020
                       FM140400 21010KT P6SM OVC015=
200907130218 KSEA 130218Z 1302/1406 22008KT P6SM -SHRA VCTS BKN015CB OVC025
                       FM130600 22008KT P6SM VCSH OVC015
                      TEMPO 1312/1316 OVC008 FM131900 21006KT P6SM
                       VCSH OVC012 FM132200 22008KT P6SM BKN020
                       FM140400 21010KT P6SM OVC015=
200907130009 KSEA 130009Z 1300/1406 24012KT P6SM -TSRA BKN018 OVC080CB FM130130
                       23012KT P6SM -SHRA VCTS BKN020 OVC040CB
                       FM130600 22008KT P6SM VCSH OVC015
                      TEMPO 1312/1316 OVC008 FM131900 21006KT P6SM
                       VCSH OVC012 FM132200 22008KT P6SM BKN020
                       FM140400 21010KT P6SM OVC015=
200907122320 TAF KSEA 122320Z 1300/1406 24012KT P6SM -SHRA VCTS BKN020 OVC080CB
                       FM130600 22008KT P6SM VCSH OVC015
                      TEMPO 1312/1316 OVC008 FM131900 21006KT P6SM
                       VCSH OVC012 FM132200 22008KT P6SM BKN020
                       FM140400 21010KT P6SM OVC015=
200907121720 TAF KSEA 121720Z 1218/1324 20006KT P6SM -SHRA VCTS BKN007 OVC080CB
                       FM122100 24012KT P6SM -SHRA VCTS BKN020
                       OVC080CB FM130800 22006KT P6SM VCSH OVC008
                       FM131900 22006KT P6SM VCSH OVC012 FM132100
                       24010KT P6SM BKN020=
200907121123 TAF KSEA 121123Z 1212/1318 21009KT P6SM OVC004 FM121500 21009KT
                       P6SM -SHRA OVC006 FM121800 20006KT P6SM
                       -SHRA OVC010 FM122100 24012KT P6SM -SHRA
                       OVC020 FM130800 24006KT P6SM OVC008 FM131600
                       24006KT P6SM OVC010=
200907120936 KSEA 120936Z 1210/1312 20008KT P6SM OVC004 FM121700 20006KT P6SM
                       -SHRA OVC010 FM122100 24012KT P6SM -SHRA
                       OVC020 FM130500 24008KT P6SM -SHRA OVC010=
200907120614 KSEA 120614Z 1206/1312 20010KT P6SM SCT060 BKN150 FM120900 20008KT
                       3SM BR OVC003 FM121700 20006KT P6SM -SHRA
                       OVC010 FM122100 24012KT P6SM -SHRA OVC020
                       FM130500 24008KT P6SM -SHRA OVC010=
200907120529 TAF KSEA 120529Z 1206/1312 20007KT P6SM VCTS SCT060CB BKN150 FM120900
                       20008KT 3SM BR OVC003 FM121700 20006KT P6SM
                       -SHRA OVC010 FM122100 24012KT P6SM -SHRA
                       OVC020 FM130500 24008KT P6SM -SHRA OVC010=
200907120257 KSEA 120257Z 1203/1306 26004KT P6SM VCTS SCT060CB BKN170 FM120600
                       24005KT P6SM BKN100 FM121000 21006KT P6SM
                       SCT010 OVC100 FM121500 22008KT P6SM BKN015
                       OVC080 FM122100 24012KT P6SM OVC020=
200907112327 TAF KSEA 112327Z 1200/1306 35011KT P6SM FEW060 SCT100 FM120200
                       30007KT P6SM SCT100 FM120700 24005KT P6SM
                       BKN100 FM121000 21006KT P6SM SCT010 OVC100
                       PROB30 1210/1215 -TSRA BKN060CB FM121500
                       22008KT P6SM BKN015 OVC080 FM122100 24012KT
                       P6SM OVC020=
200907111943 KSEA 111943Z 1120/1224 34012KT P6SM FEW080 FM120200 34007KT P6SM
                       BKN100 FM120600 24005KT P6SM BKN100
                      PROB30 1209/1215 -TSRA BKN060CB FM121500
                       24007KT P6SM SCT010 OVC100
                      PROB30 1215/1218 -TSRA BKN060CB FM121800
                       24012KT P6SM BKN025 OVC100=
200907111739 TAF KSEA 111739Z 1118/1224 30005KT P6SM FEW100 FM112000 34010KT
                       P6SM SCT100 FM120200 34007KT P6SM BKN100
                       FM120600 24005KT P6SM BKN100
                      PROB30 1209/1215 -TSRA BKN060CB FM121500
                       24007KT P6SM SCT010 OVC100
                      PROB30 1215/1218 -TSRA BKN060CB FM121800
                       24012KT P6SM BKN025 OVC100=
200907111121 TAF KSEA 111121Z 1112/1218 03006KT P6SM SCT120 FM112000 34008KT
                       P6SM SCT100 FM120000 34010KT P6SM BKN100
                       PROB30 1200/1206 -TSRA BKN060CB FM120600
                       24007KT P6SM BKN100
                      PROB30 1206/1212 -TSRA BKN060CB FM121200
                       24007KT P6SM OVC010=
200907110536 TAF KSEA 110536Z 1106/1212 36007KT P6SM FEW250 FM112000 34008KT
                       P6SM SCT100
                      PROB30 1120/1124 -TSRA BKN060CB FM120000
                       34010KT P6SM BKN100
                      PROB30 1200/1206 -TSRA BKN060CB FM120600
                       24007KT P6SM BKN100
                      PROB30 1206/1209 -TSRA BKN060CB FM120900
                       24007KT P6SM SCT012 OVC080=
200907102320 TAF KSEA 102320Z 1100/1206 34010KT P6SM SKC FM110600 02008KT P6SM
                       SKC FM111400 03008KT P6SM FEW100 FM111800
                       34008KT P6SM SCT100
                      PROB30 1118/1124 -TSRA BKN060CB FM120000
                       34010KT P6SM BKN100
                      PROB30 1200/1206 -TSRA BKN060CB=
200907101739 TAF KSEA 101739Z 1018/1124 36008KT P6SM SKC FM111400 03008KT P6SM
                       BKN100
                      PROB30 1118/1124 -TSRA BKN060CB=
200907101121 TAF KSEA 101121Z 1012/1118 03011KT P6SM FEW250 FM101400 02005KT
                       P6SM FEW020 SCT250 FM101700 36008KT P6SM
                       SCT120 SCT250=
200907100524 TAF KSEA 100524Z 1006/1112 36007KT P6SM SCT250 FM101400 02005KT
                       P6SM FEW020 SCT250 FM101700 36008KT P6SM
                       SCT120 SCT250=
200907092325 TAF KSEA 092325Z 1000/1106 32005KT P6SM SCT045 FM100200 36008KT
                       P6SM SCT200 FM100500 02006KT P6SM SCT200
                       FM101400 02005KT P6SM FEW020 SCT200 FM101700
                       36008KT P6SM SCT200=
200907091720 TAF KSEA 091720Z 0918/1024 28004KT P6SM SCT020 BKN050 FM092000
                       32005KT P6SM SCT030 SCT050 FM100000 36010KT
                       P6SM SCT200 FM100400 02006KT P6SM SCT200
                       FM101400 02005KT P6SM FEW020 SCT200 FM101700
                       36008KT P6SM SCT200=
200907091553 KSEA 091553Z 0916/1018 00000KT P6SM SCT012 OVC045
                      TEMPO 0916/0917 BKN012 OVC045 FM091800 28004KT
                       P6SM BKN050 FM092000 31005KT P6SM SCT050
                       SCT200 FM092200 34006KT P6SM SCT050 SCT200=
200907091544 KSEA 091544Z 0916/1018 00000KT P6SM OVC045 FM091800 28004KT P6SM
                       BKN050 FM092000 31005KT P6SM SCT050 SCT200
                       FM092200 34006KT P6SM SCT050 SCT200=
200907091120 TAF KSEA 091120Z 0912/1018 00000KT P6SM BKN030 BKN070 FM091700
                       21004KT P6SM SCT035 BKN070 FM091900 31005KT
                       P6SM SCT045 BKN200 FM092200 34006KT P6SM
                       SCT050 SCT200=
200907090532 TAF KSEA 090532Z 0906/1012 23003KT P6SM BKN035 BKN080 FM090800
                       VRB03KT P6SM BKN030 BKN060 FM091700 28004KT
                       P6SM BKN060 FM091900 31005KT P6SM SCT045
                       BKN200 FM092200 34006KT P6SM SCT050 SCT200=
200907082327 TAF KSEA 082327Z 0900/1006 22009KT P6SM SCT035 BKN060
                      TEMPO 0900/0903 BKN035 BKN060 FM090800 VRB03KT
                       P6SM BKN035 BKN060 FM091700 28004KT P6SM
                       BKN060 FM091900 31005KT P6SM SCT045 BKN200
                       FM092200 34006KT P6SM SCT050 SCT200=
200907082133 KSEA 082133Z 0822/0924 22010KT P6SM VCSH SCT030 BKN050
                      TEMPO 0822/0901 BKN030 BKN050 FM090800 VRB03KT
                       P6SM BKN035 BKN050 FM091600 28004KT P6SM
                       BKN050 FM091900 31005KT P6SM SCT050 BKN200=
200907081739 TAF KSEA 081739Z 0818/0924 22007KT P6SM VCSH BKN030 OVC050 FM082000
                       22007KT P6SM SCT025 BKN030 OVC050
                      TEMPO 0820/0824 -SHRA BKN025 OVC030 FM090000
                       24007KT P6SM VCSH BKN035 OVC050 FM090800
                       VRB03KT P6SM OVC030 FM091800 28004KT P6SM
                       BKN050=
200907081413 KSEA 081413Z 0814/0918 18006KT P6SM BKN050 OVC070 FM081700 18006KT
                       P6SM VCSH SCT025 OVC040
                      TEMPO 0817/0819 -SHRA BKN025 OVC040 FM081900
                       17005KT P6SM -SHRA BKN025 OVC035 FM082200
                       15007KT P6SM BKN045 OVC070 FM090800 VRB03KT
                       P6SM OVC045=
200907081132 TAF KSEA 081132Z 0812/0918 19004KT P6SM VCSH BKN040 OVC110 FM081500
                       18006KT P6SM VCSH BKN025 OVC045 FM081900
                       17005KT P6SM VCSH SCT020 OVC035 FM082200
                       15007KT P6SM BKN045 OVC070 FM090800 VRB03KT
                       P6SM OVC045=
200907080927 KSEA 080927Z 0809/0912 19004KT P6SM FEW040 SCT110 FM081200 18007KT
                       P6SM VCSH SCT025 OVC070 FM081500 19008KT
                       P6SM VCSH BKN025 OVC045 FM081900 22009KT
                       P6SM VCSH SCT020 OVC035 FM082200 25009KT
                       P6SM BKN045 OVC070=
200907080525 TAF KSEA 080525Z 0806/0912 24007KT P6SM FEW045 SCT090 BKN200 FM080900
                       19007KT P6SM VCSH OVC030 FM081200 18007KT
                       P6SM -SHRA SCT015 OVC025 FM081500 19008KT
                       P6SM -SHRA BKN015 OVC025 FM081900 22009KT
                       P6SM VCSH SCT020 OVC035 FM082200 25009KT
                       P6SM BKN045 OVC070=
200907072320 TAF KSEA 072320Z 0800/0906 22010KT P6SM BKN050 FM080600 20005KT
                       P6SM OVC035 FM080900 19007KT P6SM VCSH OVC030
                       FM081200 18007KT P6SM -SHRA SCT015 OVC025
                       FM081500 19008KT P6SM -SHRA BKN015 OVC025
                       FM081900 22009KT P6SM VCSH SCT020 OVC035
                       FM082200 25009KT P6SM BKN045 OVC070=
200907071741 TAF KSEA 071741Z 0718/0824 19012KT P6SM SCT020 OVC035 FM072100
                       23012KT P6SM BKN045 FM080300 23007KT P6SM
                       BKN050 FM080600 20005KT P6SM OVC035 FM080900
                       19007KT P6SM VCSH OVC030 FM081200 18007KT
                       P6SM -SHRA SCT015 OVC025 FM081500 19008KT
                       P6SM -SHRA BKN015 OVC025=
200907071547 KSEA 071547Z 0716/0818 18008KT P6SM OVC030 FM071900 23009KT P6SM
                       SCT020 OVC035 FM072200 24009KT P6SM BKN040
                       FM080900 19007KT P6SM OVC020=
200907071120 TAF KSEA 071120Z 0712/0818 21004KT P6SM OVC030 FM071700 20007KT
                       P6SM OVC020 FM071900 23009KT P6SM SCT020
                       OVC035 FM072200 24009KT P6SM BKN040 FM080900
                       19007KT P6SM OVC020=
200907070527 TAF KSEA 070527Z 0706/0812 23008KT P6SM FEW025 SCT045 SCT200 FM070900
                       19007KT P6SM OVC020 FM071200 18006KT P6SM
                       OVC012 FM071700 20007KT P6SM OVC020 FM071900
                       23009KT P6SM SCT020 OVC035 FM072200 24009KT
                       P6SM BKN040=
200907062325 TAF KSEA 062325Z 0700/0806 22012G22KT P6SM SCT025 BKN045 FM070200
                       22010KT P6SM SCT025 BKN045 FM070500 21008KT
                       P6SM OVC030 FM070900 19007KT P6SM OVC020
                       FM071200 18006KT P6SM OVC012 FM071700 20007KT
                       P6SM OVC020 FM071900 23009KT P6SM SCT020
                       OVC035 FM072200 24009KT P6SM BKN040=
200907062233 KSEA 062233Z 0623/0724 22012G22KT P6SM SCT040 BKN120 FM070200 22010KT
                       P6SM SCT040 SCT120
                      TEMPO 0702/0705 BKN040 BKN120 FM070500 21008KT
                       P6SM BKN030 FM070900 19007KT P6SM OVC012
                       FM071700 20007KT P6SM OVC020 FM072100 23009KT
                       P6SM OVC030=
200907061727 TAF KSEA 061727Z 0618/0724 21014G24KT P6SM BKN025 OVC040 FM062200
                       23012G22KT P6SM OVC030 FM070100 22010KT
                       P6SM OVC030 FM070500 21008KT P6SM OVC025
                       FM070900 19007KT P6SM OVC012 FM071700 20007KT
                       P6SM OVC020 FM072100 23009KT P6SM OVC030=
200907061503 KSEA 061503Z 0615/0718 21014G24KT P6SM BKN030 OVC050 FM061700 21012G22KT
                       P6SM BKN025 OVC040 FM062000 23013G20KT P6SM
                       OVC030 FM070400 21010KT P6SM OVC025 FM070900
                       19007KT P6SM OVC012=
200907061430 KSEA 061430Z 0615/0718 21011G20KT P6SM BKN035 OVC050 FM061800 23013G20KT
                       P6SM BKN035 OVC050
                      TEMPO 0618/0622 -SHRA FM070400 21010KT P6SM
                       BKN050 FM070900 19007KT P6SM OVC025=
200907061159 TAF KSEA 061159Z 0612/0718 19013KT P6SM SCT050 BKN090
                      TEMPO 0612/0616 BKN050 BKN090 FM061600 21013G20KT
                       P6SM BKN050CB BKN090
                      TEMPO 0617/0621 4SM SHRA OVC030CB FM062100
                       23013G20KT P6SM BKN050CB BKN090
                      PROB30 0621/0702 4SM SHRA OVC030CB FM070400
                       21010KT P6SM BKN050 FM070900 19007KT P6SM
                       OVC025=
200907061010 KSEA 061010Z 0610/0712 19013KT P6SM OVC040 FM062100 23013G20KT
                       P6SM BKN035 BKN070
                      PROB30 0621/0702 -SHRA FM070400 21010KT P6SM
                       OVC035 FM070800 21008KT P6SM OVC022=
200907060657 KSEA 060657Z 0607/0712 19013KT P6SM OVC030 FM061200 19013KT P6SM
                       OVC025
                      PROB30 0618/0621 -SHRA FM062100 23013G20KT
                       P6SM BKN035 BKN070
                      PROB30 0621/0702 -SHRA FM070400 21010KT P6SM
                       OVC035 FM070800 21008KT P6SM OVC022=
200907060547 KSEA 060547Z 0606/0712 21013KT P6SM OVC025
                      TEMPO 0608/0610 21015G25KT FM061200 21013KT
                       P6SM OVC025
                      PROB30 0618/0621 -SHRA FM062100 23013G20KT
                       P6SM BKN035 BKN070
                      PROB30 0621/0702 -SHRA FM070400 21010KT P6SM
                       OVC035 FM070800 21008KT P6SM OVC022=
200907060540 KSEA 060540Z 0606/0712 21010KT P6SM SCT035 SCT090
                      TEMPO 0606/0608 BKN035 BKN090 FM060800 21013KT
                       P6SM OVC025
                      TEMPO 0608/0610 21015G25KT FM061200 21013KT
                       P6SM OVC025
                      PROB30 0618/0621 -SHRA FM062100 23013G20KT
                       P6SM BKN035 BKN070
                      PROB30 0621/0702 -SHRA FM070400 21010KT P6SM
                       OVC035 FM070800 21008KT P6SM OVC022=
200907060404 KSEA 060404Z 0604/0706 21010KT P6SM OVC200 FM060600 21013KT P6SM
                       SCT011 OVC150
                      TEMPO 0606/0609 21015G25KT BKN011 OVC150
                       FM060900 21013KT P6SM OVC011 FM061500 21013KT
                       P6SM OVC020 FM062300 21015KT P6SM BKN030
                       FM070400 21012KT P6SM OVC015=
200907052320 TAF KSEA 052320Z 0600/0706 23009KT P6SM BKN150 OVC250 FM060300
                       21020G30KT P6SM SCT011 OVC150 FM060500 21013KT
                       P6SM SCT011 OVC150
                      TEMPO 0605/0609 BKN011 OVC150 FM060900 21013KT
                       P6SM OVC011 FM061500 21013KT P6SM OVC020
                       FM062300 21015KT P6SM BKN030 FM070400 21012KT
                       P6SM OVC015=
200907051720 TAF KSEA 051720Z 0518/0624 32006KT P6SM SCT150 OVC250 FM060000
                       25006KT P6SM BKN150 OVC250 FM060300 21020G30KT
                       P6SM SCT011 OVC150 FM060500 21013KT P6SM
                       SCT011 OVC150
                      TEMPO 0605/0609 BKN011 OVC150 FM060900 21012KT
                       P6SM OVC011 FM061500 21012KT P6SM OVC020
                       FM062100 21012KT P6SM SCT025=
200907051126 TAF KSEA 051126Z 0512/0618 VRB04KT 6SM HZ BKN250 FM051800 32006KT
                       P6SM SCT150 OVC250 FM060000 25006KT P6SM
                       BKN150 OVC250 FM060300 21020G30KT P6SM SCT011
                       OVC150 FM060500 21013KT P6SM SCT011 OVC150
                       TEMPO 0605/0609 BKN011 OVC150 FM060900 21013KT
                       P6SM OVC011 FM061500 21013KT P6SM OVC020=
200907051100 KSEA 051100Z 0511/0612 VRB04KT 6SM HZ BKN250 FM051900 32008KT P6SM
                       SCT150 OVC250 FM060000 25006KT P6SM BKN150
                       OVC250 FM060300 21020G30KT P6SM SCT011 OVC150
                       FM060500 21013KT P6SM SCT011 OVC150
                      TEMPO 0605/0609 BKN011 OVC150 FM060900 21013KT
                       P6SM OVC011=
200907050544 TAF KSEA 050544Z 0506/0612 VRB04KT P6SM BKN250 FM051900 32008KT
                       P6SM SCT150 OVC250 FM060000 25006KT P6SM
                       BKN150 OVC250 FM060300 21020G30KT P6SM SCT011
                       OVC150 FM060500 21013KT P6SM SCT011 OVC150
                       TEMPO 0605/0609 BKN011 OVC150 FM060900 21013KT
                       P6SM OVC011=
200907050217 KSEA 050217Z 0502/0606 36011KT P6SM BKN250 FM050600 02005KT P6SM
                       BKN250 FM051200 VRB03KT P6SM BKN250 FM051900
                       29005KT P6SM BKN250 FM060300 35005KT P6SM
                       BKN250=
200907042320 TAF KSEA 042320Z 0500/0606 30009KT P6SM SCT250 FM050600 02005KT
                       P6SM SCT250 FM051200 VRB03KT P6SM BKN250
                       FM051900 29005KT P6SM BKN250 FM060300 35005KT
                       P6SM BKN250=
200907041720 TAF KSEA 041720Z 0418/0524 18004KT P6SM FEW250 FM041900 28006KT
                       P6SM SCT250 FM042100 32009KT P6SM SCT250
                       FM050600 02005KT P6SM SCT250 FM051200 VRB03KT
                       P6SM BKN250 FM051900 29005KT P6SM BKN250=
200907041126 TAF KSEA 041126Z 0412/0518 19004KT P6SM FEW250 FM041900 28006KT
                       P6SM SCT250 FM042100 32009KT P6SM SCT250
                       FM050600 02005KT P6SM SCT250 FM051200 VRB03KT
                       P6SM BKN250=
200907040521 TAF KSEA 040521Z 0406/0512 VRB04KT P6SM FEW250 FM041900 32009KT
                       P6SM SCT250 FM050300 36009KT P6SM SCT250
                       FM050600 02005KT P6SM SCT250=
200907032320 TAF KSEA 032320Z 0400/0506 02006KT P6SM FEW200 FM041800 30007KT
                       P6SM SKC=
200907031720 TAF KSEA 031720Z 0318/0424 34009KT P6SM SKC FM040600 02006KT P6SM
                       SKC FM041800 30008KT P6SM SKC=
200907031123 TAF KSEA 031123Z 0312/0418 02005KT P6SM SKC FM031800 34010KT P6SM
                       SKC FM040600 02006KT P6SM SKC=
200907030520 TAF KSEA 030520Z 0306/0412 02006KT P6SM SKC FM031800 34010KT P6SM
                       SKC FM040600 02006KT P6SM SKC=
200907030210 KSEA 030210Z 0302/0406 34010KT P6SM SKC FM030500 02006KT P6SM SKC
                       FM031100 03004KT P6SM SKC FM032100 31008KT
                       P6SM SKC=
200907022335 TAF KSEA 022335Z 0300/0406 30007KT P6SM SKC FM030400 02006KT P6SM
                       SKC FM031100 03004KT P6SM SKC FM032100 31008KT
                       P6SM SKC=
200907021730 TAF KSEA 021730Z 0218/0324 04009KT P6SM SKC FM022000 35010KT P6SM
                       SKC FM030400 02006KT P6SM SKC FM031100 03004KT
                       P6SM SKC FM032100 31008KT P6SM SKC=
200907021120 TAF KSEA 021120Z 0212/0318 05005KT P6SM SKC FM021800 34009KT P6SM
                       SKC FM030400 02006KT P6SM SKC FM031100 VRB04KT
                       P6SM SKC=
200907020520 TAF KSEA 020520Z 0206/0312 02009KT P6SM SKC FM021200 05005KT P6SM
                       SKC FM021800 34009KT P6SM SKC FM030400 02006KT
                       P6SM SKC=
200907012330 TAF KSEA 012330Z 0200/0306 36010G18KT P6SM SKC FM020400 02011KT
                       P6SM SKC FM021200 05005KT P6SM SKC FM021800
                       33008KT P6SM SKC FM030400 02006KT P6SM SKC=
200907011727 TAF KSEA 011727Z 0118/0224 03010KT P6SM SKC FM011900 36010G18KT
                       P6SM SKC FM020400 02011KT P6SM SKC FM021200
                       05005KT P6SM SKC FM021800 33008KT P6SM SKC=
200907011134 TAF KSEA 011134Z 0112/0218 05005KT P6SM SKC FM011800 36010G18KT
                       P6SM SKC FM020400 02011KT P6SM SKC FM021200
                       05005KT P6SM SKC=
200907010520 TAF KSEA 010520Z 0106/0212 01006KT P6SM SKC FM010900 03008KT P6SM
                       SKC FM011800 36010G18KT P6SM SKC=