##########################################################
# Query made at 02/18/2025 02:22:03 UTC
# Time interval: from 08/01/2009 00:00  to 08/31/2009 23:59  UTC
##########################################################

##########################################################
# KSEA, Seattle, Seattle-Tacoma International Airport (United States)
# WMO index: 72793. WIGOS ID: 0-20000-0-72793
# Latitude 47-27-00N. Longitude 122-17-59W. Altitude 130 m.
##########################################################

###################################
#  METAR/SPECI from KSEA
###################################
200908312353 METAR KSEA 312353Z 21006KT 10SM FEW030 21/14 A2987 RMK AO2 SLP120 T02060139 10206 20144 58010=
200908312253 METAR KSEA 312253Z 21008KT 10SM FEW012 19/14 A2988 RMK AO2 SLP123 T01890139=
200908312153 METAR KSEA 312153Z VRB06KT 10SM SCT009 18/14 A2989 RMK AO2 SLP127 T01830139=
200908312139 SPECI KSEA 312139Z 22006KT 10SM SCT008 17/14 A2990 RMK AO2=
200908312139 SPECI KSEA 312139Z 22006KT 10SM SCT008 17/14 A2990 RMK AO2=
200908312053 METAR KSEA 312053Z VRB05KT 7SM OVC006 16/14 A2990 RMK AO2 SLP130 T01610139 58003=
200908312014 SPECI KSEA 312014Z VRB04KT 3SM OVC005 16/14 A2990 RMK AO2 SFC VIS 7=
200908312014 SPECI KSEA 312014Z VRB04KT 3SM OVC005 16/14 A2990 RMK AO2 SFC VIS 7=
200908311953 METAR KSEA 311953Z 18004KT 3SM BR OVC004 16/14 A2990 RMK AO2 SFC VIS 6 SLP131 T01560139=
200908311853 METAR KSEA 311853Z 26004KT 1 1/2SM BR OVC002 15/13 A2991 RMK AO2 SFC VIS 3 SLP133 T01500133=
200908311842 SPECI KSEA 311842Z 24003KT 1 1/4SM BR OVC002 14/13 A2991 RMK AO2 SFC VIS 2 1/2=
200908311842 SPECI KSEA 311842Z 24003KT 1 1/4SM BR OVC002 14/13 A2991 RMK AO2 SFC VIS 2 1/2=
200908311810 SPECI KSEA 311810Z 23003KT 1SM BR OVC002 15/13 A2991 RMK AO2 SFC VIS 2=
200908311810 SPECI KSEA 311810Z 23003KT 1SM BR OVC002 15/13 A2991 RMK AO2 SFC VIS 2=
200908311753 METAR KSEA 311753Z VRB03KT 1/2SM BR OVC002 14/13 A2991 RMK AO2 SFC VIS 2 SLP133 T01440133 10144 20133 51001=
200908311701 SPECI KSEA 311701Z 00000KT 1/2SM BR OVC002 14/13 A2990 RMK AO2 SFC VIS 1 1/2=
200908311701 SPECI KSEA 311701Z 00000KT 1/2SM BR OVC002 14/13 A2990 RMK AO2 SFC VIS 1 1/2=
200908311653 METAR KSEA 311653Z 00000KT 1/2SM R16C/P6000FT BR OVC001 14/13 A2991 RMK AO2 SFC VIS 1 SLP132 T01390133=
200908311553 METAR KSEA 311553Z 00000KT 1/4SM R16C/4000VP6000FT FG VV001 14/13 A2991 RMK AO2 SLP133 T01390133=
200908311453 METAR KSEA 311453Z 29003KT 1/8SM R16C/1600V5000FT FG VV001 13/13 A2990 RMK AO2 SFC VIS 1/4 SLP132 T01330128 52007=
200908311411 SPECI KSEA 311411Z 00000KT 1/8SM R16C/1000V2000FT FG VV001 13/13 A2990 RMK AO2=
200908311411 SPECI KSEA 311411Z 00000KT 1/8SM R16C/1000V2000FT FG VV001 13/13 A2990 RMK AO2=
200908311353 METAR KSEA 311353Z 31003KT 1/8SM R16C/1200V5000FT FG VV001 13/13 A2990 RMK AO2 SLP129 T01330133=
200908311345 SPECI KSEA 311345Z 00000KT 1/8SM R16C/1600VP6000FT FG VV001 13/13 A2990 RMK AO2=
200908311339 SPECI KSEA 311339Z 00000KT 1/4SM R16C/2600VP6000FT FG VV001 13/13 A2990 RMK AO2 TWR VIS 1/2=
200908311339 SPECI KSEA 311339Z 00000KT 1/4SM R16C/2600VP6000FT FG VV001 13/13 A2990 RMK AO2 TWR VIS 1/2=
200908311253 METAR KSEA 311253Z 00000KT 9SM FEW001 SCT003 14/13 A2989 RMK AO2 SLP126 VIS S 3/4 FG FEW001 T01390133=
200908311153 METAR KSEA 311153Z 00000KT 10SM FEW006 14/12 A2988 RMK AO2 SLP124 T01390122 10189 20133 50001=
200908311053 METAR KSEA 311053Z 00000KT 10SM CLR 14/12 A2989 RMK AO2 SLP125 T01390122=
200908310953 METAR KSEA 310953Z 00000KT 10SM CLR 15/13 A2988 RMK AO2 SLP122 T01500128=
200908310853 METAR KSEA 310853Z 00000KT 10SM CLR 17/13 A2988 RMK AO2 SLP123 T01670133 58005=
200908310753 METAR KSEA 310753Z 00000KT 10SM CLR 17/13 A2988 RMK AO2 SLP124 T01720133 402440128=
200908310653 METAR KSEA 310653Z 00000KT 10SM CLR 18/14 A2989 RMK AO2 SLP127 T01780139=
200908310553 METAR KSEA 310553Z 00000KT 10SM CLR 18/14 A2990 RMK AO2 SLP128 T01830139 10244 20178 50005=
200908310453 METAR KSEA 310453Z 00000KT 10SM CLR 20/14 A2990 RMK AO2 SLP128 T02000139=
200908310353 METAR KSEA 310353Z 00000KT 10SM CLR 21/13 A2989 RMK AO2 SLP126 T02060133=
200908310253 METAR KSEA 310253Z 28004KT 10SM CLR 21/13 A2988 RMK AO2 SLP123 T02110133 56006=
200908310153 METAR KSEA 310153Z 26005KT 10SM CLR 23/14 A2989 RMK AO2 SLP124 T02280139=
200908310053 METAR KSEA 310053Z 33006KT 10SM CLR 24/13 A2989 RMK AO2 SLP125 T02440133=
200908302353 METAR KSEA 302353Z 30007KT 10SM CLR 24/13 A2990 RMK AO2 SLP129 T02390128 10244 20178 57021=
200908302253 METAR KSEA 302253Z 31004KT 10SM FEW250 23/13 A2992 RMK AO2 SLP136 T02330128=
200908302153 METAR KSEA 302153Z 29005KT 10SM FEW020 22/13 A2994 RMK AO2 SLP143 T02220128=
200908302053 METAR KSEA 302053Z 29005KT 10SM FEW020 22/14 A2996 RMK AO2 SLP150 T02170139 58017=
200908301953 METAR KSEA 301953Z 27005KT 10SM FEW011 20/14 A2998 RMK AO2 SLP156 T02000139=
200908301853 METAR KSEA 301853Z 27005KT 10SM SCT011 19/14 A3000 RMK AO2 SLP164 T01890139=
200908301753 METAR KSEA 301753Z 00000KT 10SM SCT011 17/13 A3001 RMK AO2 SLP168 T01720133 10183 20128 58010=
200908301653 METAR KSEA 301653Z VRB03KT 10SM OVC005 16/13 A3002 RMK AO2 SLP173 T01560133=
200908301553 METAR KSEA 301553Z 34006KT 10SM BKN005 16/13 A3004 RMK AO2 SLP177 T01560133=
200908301453 METAR KSEA 301453Z 00000KT 7SM FEW005 SCT020 14/13 A3004 RMK AO2 SLP179 T01390128 56005=
200908301353 METAR KSEA 301353Z 00000KT 6SM BR FEW008 14/12 A3005 RMK AO2 SLP180 T01390122=
200908301253 METAR KSEA 301253Z 00000KT 10SM FEW008 13/12 A3005 RMK AO2 SLP180 T01330122=
200908301153 METAR KSEA 301153Z 29003KT 10SM FEW030 13/13 A3006 RMK AO2 SLP183 70021 T01330128 10172 20133 58006=
200908301053 METAR KSEA 301053Z 01005KT 10SM CLR 16/13 A3007 RMK AO2 SLP186 T01560128=
200908300953 METAR KSEA 300953Z 00000KT 10SM CLR 15/13 A3007 RMK AO2 SLP187 T01500133=
200908300853 METAR KSEA 300853Z 00000KT 10SM CLR 15/14 A3008 RMK AO2 SLP190 T01500139 58009=
200908300753 METAR KSEA 300753Z 02004KT 10SM CLR 17/14 A3009 RMK AO2 SLP194 T01670139 402170150=
200908300653 METAR KSEA 300653Z 00000KT 10SM CLR 17/14 A3010 RMK AO2 SLP197 T01720139=
200908300553 METAR KSEA 300553Z 01003KT 10SM FEW035 17/14 A3010 RMK AO2 SLP200 T01670139 10217 20161 51001=
200908300453 METAR KSEA 300453Z 29003KT 10SM BKN033 18/14 A3010 RMK AO2 SLP199 T01780139=
200908300353 METAR KSEA 300353Z 00000KT 10SM SCT035 19/14 A3011 RMK AO2 SLP201 T01890139=
200908300253 METAR KSEA 300253Z 26003KT 10SM FEW036 19/14 A3010 RMK AO2 SLP199 T01940139 56009=
200908300153 METAR KSEA 300153Z 27004KT 10SM SCT036 21/14 A3011 RMK AO2 SLP201 T02060139=
200908300053 METAR KSEA 300053Z 28005KT 10SM SCT032 21/13 A3012 RMK AO2 SLP203 T02110133=
200908292353 METAR KSEA 292353Z 29005KT 10SM BKN032 22/14 A3013 RMK AO2 SLP207 T02170139 10217 20161 58008=
200908292253 METAR KSEA 292253Z 24006KT 10SM FEW020 BKN036 21/14 A3014 RMK AO2 SLP210 T02060144=
200908292153 METAR KSEA 292153Z 25007KT 10SM FEW010 SCT020 BKN030 20/14 A3015 RMK AO2 SLP213 T02000144=
200908292114 SPECI KSEA 292114Z 22004KT 10SM SCT020 BKN030 18/14 A3015 RMK AO2=
200908292114 SPECI KSEA 292114Z 22004KT 10SM SCT020 BKN030 18/14 A3015 RMK AO2=
200908292053 METAR KSEA 292053Z 23006KT 10SM BKN020 OVC030 18/14 A3016 RMK AO2 SLP217 T01780144 58003=
200908291953 METAR KSEA 291953Z 00000KT 10SM BKN013 OVC020 17/15 A3016 RMK AO2 SLP218 CIG LWR N AND S T01720150=
200908291901 SPECI KSEA 291901Z 21003KT 10SM SCT006 BKN013 BKN040 17/16 A3016 RMK AO2 CIG LWR N AND S=
200908291901 SPECI KSEA 291901Z 21003KT 10SM SCT006 BKN013 BKN040 17/16 A3016 RMK AO2 CIG LWR N AND S=
200908291853 METAR KSEA 291853Z 24003KT 7SM BKN006 OVC011 16/16 A3017 RMK AO2 SLP221 T01610156=
200908291822 SPECI KSEA 291822Z 27005KT 3SM BR BKN006 OVC017 16/16 A3017 RMK AO2 CIG 004V011=
200908291822 SPECI KSEA 291822Z 27005KT 3SM BR BKN006 OVC017 16/16 A3017 RMK AO2 CIG 004V011=
200908291753 METAR KSEA 291753Z 15003KT 2SM BR OVC006 16/15 A3017 RMK AO2 TWR VIS 3 CIG 005V011 SLP220 60021 T01610150 10161 20150 53001=
200908291727 SPECI KSEA 291727Z 00000KT 2SM BR BKN006 OVC025 16/15 A3016 RMK AO2 TWR VIS 3=
200908291727 SPECI KSEA 291727Z 00000KT 2SM BR BKN006 OVC025 16/15 A3016 RMK AO2 TWR VIS 3=
200908291719 SPECI KSEA 291719Z 00000KT 1 1/2SM BR BKN004 OVC026 16/15 A3016 RMK AO2 SFC VIS 2 CIG 002V008=
200908291719 SPECI KSEA 291719Z 00000KT 1 1/2SM BR BKN004 OVC026 16/15 A3016 RMK AO2 SFC VIS 2 CIG 002V008=
200908291653 METAR KSEA 291653Z 16004KT 1 1/2SM BR BKN004 OVC009 16/15 A3015 RMK AO2 SLP216 T01560150=
200908291620 SPECI KSEA 291620Z 00000KT 1 1/2SM BR BKN002 OVC009 15/14 A3016 RMK AO2=
200908291620 SPECI KSEA 291620Z 00000KT 1 1/2SM BR BKN002 OVC009 15/14 A3016 RMK AO2=
200908291553 METAR KSEA 291553Z 00000KT 1SM R16C/P6000FT BR BKN002 OVC009 15/14 A3016 RMK AO2 RAE28 SLP219 P0003 T01500144=
200908291453 METAR KSEA 291453Z 00000KT 1/2SM R16C/P6000FT -RA BR BKN002 OVC009 15/14 A3016 RMK AO2 SFC VIS 1 SLP219 P0005 60018 T01500144 53007=
200908291422 SPECI KSEA 291422Z 00000KT 1/2SM R16C/P6000FT -RA BR OVC002 15/14 A3016 RMK AO2 SFC VIS 1 P0001=
200908291422 SPECI KSEA 291422Z 00000KT 1/2SM R16C/P6000FT -RA BR OVC002 15/14 A3016 RMK AO2 SFC VIS 1 P0001=
200908291408 SPECI KSEA 291408Z 27003KT 1/2SM R16C/2200VP6000FT FG OVC002 15/14 A3015 RMK AO2 RAE02 P0000=
200908291408 SPECI KSEA 291408Z 27003KT 1/2SM R16C/2200VP6000FT FG OVC002 15/14 A3015 RMK AO2 RAE02 P0000=
200908291353 METAR KSEA 291353Z 25004KT 1/2SM R16C/4000VP6000FT -RA BR OVC002 15/14 A3015 RMK AO2 SFC VIS 1 CIG 001V005 SLP215 P0009 T01500144=
200908291323 SPECI KSEA 291323Z 22004KT 1 1/2SM -RA BR BKN002 OVC004 15/14 A3015 RMK AO2 P0009=
200908291323 SPECI KSEA 291323Z 22004KT 1 1/2SM -RA BR BKN002 OVC004 15/14 A3015 RMK AO2 P0009=
200908291302 SPECI KSEA 291302Z 19003KT 2SM RA BR SCT002 BKN004 OVC010 15/14 A3015 RMK AO2 P0004=
200908291302 SPECI KSEA 291302Z 19003KT 2SM RA BR SCT002 BKN004 OVC010 15/14 A3015 RMK AO2 P0004=
200908291253 METAR KSEA 291253Z 19003KT 1 1/2SM +RA BR SCT002 BKN004 OVC008 15/14 A3015 RMK AO2 SLP213 VIS S 3/4 P0004 T01500144=
200908291247 SPECI KSEA 291247Z 18003KT 1 1/2SM +RA BR SCT002 BKN004 OVC008 15/14 A3015 RMK AO2 VIS S 3/4 P0002=
200908291247 SPECI KSEA 291247Z 18003KT 1 1/2SM +RA BR SCT002 BKN004 OVC008 15/14 A3015 RMK AO2 VIS S 3/4 P0002=
200908291153 METAR KSEA 291153Z 16005KT 10SM -RA SCT002 OVC004 15/14 A3014 RMK AO2 SLP211 VIS S LWR P0007 60015 70016 T01500144 10178 20150 55001=
200908291053 METAR KSEA 291053Z 18005KT 4SM RA BR OVC002 15/14 A3014 RMK AO2 SLP209 VIS S 1 1/2 P0005 T01500144=
200908291043 SPECI KSEA 291043Z 19005KT 1 1/2SM -RA BR OVC002 15/14 A3014 RMK AO2 VIS S 1/2 P0003=
200908291043 SPECI KSEA 291043Z 19005KT 1 1/2SM -RA BR OVC002 15/14 A3014 RMK AO2 VIS S 1/2 P0003=
200908291020 SPECI KSEA 291020Z 19005KT 6SM -RA BR BKN002 OVC005 15/14 A3014 RMK AO2 VIS S 1 P0003=
200908291020 SPECI KSEA 291020Z 19005KT 6SM -RA BR BKN002 OVC005 15/14 A3014 RMK AO2 VIS S 1 P0003=
200908291002 SPECI KSEA 291002Z 20006KT 6SM -RA BR SCT002 BKN006 OVC010 15/14 A3013 RMK AO2 VIS S 2 P0002=
200908291002 SPECI KSEA 291002Z 20006KT 6SM -RA BR SCT002 BKN006 OVC010 15/14 A3013 RMK AO2 VIS S 2 P0002=
200908290953 METAR KSEA 290953Z 20007KT 6SM RA BR SCT006 BKN012 OVC030 15/14 A3013 RMK AO2 RAB22 SLP208 VIS S 2 P0003 T01500139=
200908290946 SPECI KSEA 290946Z 20005KT 9SM -RA SCT006 BKN015 OVC090 15/14 A3013 RMK AO2 RAB22 P0002=
200908290946 SPECI KSEA 290946Z 20005KT 9SM -RA SCT006 BKN015 OVC090 15/14 A3013 RMK AO2 RAB22 P0002=
200908290853 METAR KSEA 290853Z 23003KT 10SM OVC095 16/13 A3014 RMK AO2 SLP211 T01560128 55003=
200908290753 METAR KSEA 290753Z 20003KT 10SM OVC090 16/13 A3014 RMK AO2 SLP210 T01610133 402560139=
200908290653 METAR KSEA 290653Z 00000KT 10SM BKN100 17/13 A3014 RMK AO2 SLP211 T01670128=
200908290553 METAR KSEA 290553Z 17003KT 10SM FEW070 BKN100 17/13 A3015 RMK AO2 RAE0455 SLP215 P0000 60001 T01670128 10228 20161 50006=
200908290453 METAR KSEA 290453Z 16007KT 10SM -RA SCT060 BKN090 OVC110 17/13 A3016 RMK AO2 RAB0354 SLP219 P0001 T01670133=
200908290353 METAR KSEA 290353Z 17006KT 10SM FEW050 OVC110 18/11 A3016 RMK AO2 RAE0257B37E50 SLP217 P0000 T01780111=
200908290253 METAR KSEA 290253Z 23005KT 10SM -RA FEW050 BKN100 OVC150 19/09 A3013 RMK AO2 RAB37 SLP209 P0000 60000 T01890089 53002=
200908290153 METAR KSEA 290153Z 22005KT 10SM FEW070 BKN140 OVC200 21/08 A3012 RMK AO2 SLP204 T02060078=
200908290053 METAR KSEA 290053Z 25005KT 10SM FEW060 BKN140 OVC200 22/06 A3012 RMK AO2 SLP202 T02220061=
200908282353 METAR KSEA 282353Z 24004KT 10SM BKN140 BKN200 23/04 A3013 RMK AO2 SLP207 T02280044 10256 20189 58001=
200908282253 METAR KSEA 282253Z 24008KT 10SM SCT140 BKN200 23/04 A3014 RMK AO2 SLP209 T02330039=
200908282153 METAR KSEA 282153Z 26008KT 10SM BKN120 BKN200 24/03 A3014 RMK AO2 SLP211 T02440028=
200908282053 METAR KSEA 282053Z 16006KT 10SM BKN120 OVC200 23/04 A3013 RMK AO2 SLP208 T02330044 50000=
200908281953 METAR KSEA 281953Z 20007KT 10SM BKN120 BKN200 21/11 A3015 RMK AO2 SLP215 T02110111=
200908281853 METAR KSEA 281853Z 18005KT 10SM SCT120 BKN200 21/11 A3015 RMK AO2 SLP214 T02060111=
200908281753 METAR KSEA 281753Z VRB03KT 10SM BKN120 BKN200 19/12 A3013 RMK AO2 SLP208 T01890117 10194 20139 51005=
200908281653 METAR KSEA 281653Z 00000KT 10SM BKN120 BKN200 18/11 A3013=
200908281553 METAR KSEA 281553Z 25004KT 10SM BKN120 BKN200 17/10 A3014 RMK AO2 SLP209 T01670100=
200908281453 METAR KSEA 281453Z 00000KT 10SM SCT120 BKN200 15/10 A3012 RMK AO2 SLP203 T01500100 53003=
200908281353 METAR KSEA 281353Z 00000KT 8SM BKN120 BKN200 14/09 A3011 RMK AO2 SLP200 T01440089=
200908281253 METAR KSEA 281253Z 00000KT 10SM FEW120 SCT200 14/09 A3010 RMK AO2 SLP198 T01440089=
200908281153 METAR KSEA 281153Z 00000KT 10SM FEW200 17/08 A3011 RMK AO2 SLP199 T01670078 10206 20144 57005=
200908281053 METAR KSEA 281053Z 00000KT 10SM CLR 17/07 A3012 RMK AO2 SLP202 T01670072=
200908280953 METAR KSEA 280953Z 00000KT 10SM CLR 17/08 A3012 RMK AO2 SLP202 T01720083=
200908280853 METAR KSEA 280853Z 12005KT 10SM CLR 19/08 A3012 RMK AO2 SLP205 T01890078 58003=
200908280753 METAR KSEA 280753Z 00000KT 10SM FEW200 19/08 A3013 RMK AO2 SLP207 T01890078 403110122=
200908280653 METAR KSEA 280653Z 17005KT 10SM FEW200 19/07 A3014 RMK AO2 SLP210 T01940072=
200908280553 METAR KSEA 280553Z 00000KT 10SM SCT200 19/09 A3013 RMK AO2 SLP208 T01890094 10311 20189 51018=
200908280453 METAR KSEA 280453Z 00000KT 10SM SCT200 20/11 A3011 RMK AO2 SLP201 T02000111=
200908280353 METAR KSEA 280353Z 00000KT 10SM SCT200 24/09 A3010 RMK AO2 SLP198 T02440094=
200908280253 METAR KSEA 280253Z 00000KT 10SM SCT200 25/10 A3008 RMK AO2 SLP190 T02500100 53005 $=
200908280153 METAR KSEA 280153Z 21003KT 10SM SCT200 30/07 A3007 RMK AO2 SLP185 T03000072 $=
200908280053 METAR KSEA 280053Z 17005KT 10SM FEW200 31/07 A3006 RMK AO2 SLP183 T03110067=
200908272353 METAR KSEA 272353Z 19003KT 10SM FEW200 30/10 A3006 RMK AO2 SLP184 T03000100 10300 20206 56003=
200908272253 METAR KSEA 272253Z 25003KT 10SM FEW200 29/08 A3007 RMK AO2 SLP185 T02890078=
200908272153 METAR KSEA 272153Z 27005KT 10SM FEW200 28/06 A3007 RMK AO2 SLP186 T02830061=
200908272053 METAR KSEA 272053Z 29005KT 10SM FEW200 27/09 A3008 RMK AO2 SLP188 T02670089 57012=
200908271953 METAR KSEA 271953Z 29006KT 10SM FEW250 24/11 A3009 RMK AO2 SLP193 T02440106=
200908271853 METAR KSEA 271853Z 00000KT 10SM FEW250 22/12 A3010 RMK AO2 SLP196 T02220117=
200908271753 METAR KSEA 271753Z 28005KT 10SM FEW250 21/12 A3011 RMK AO2 SLP201 T02060122 10206 20122 51005=
200908271653 METAR KSEA 271653Z VRB03KT 10SM FEW250 19/12 A3011 RMK AO2 SLP199 T01890117=
200908271553 METAR KSEA 271553Z 29003KT 10SM FEW200 17/12 A3011 RMK AO2 SLP199 T01670117=
200908271453 METAR KSEA 271453Z 00000KT 10SM FEW200 14/11 A3010 RMK AO2 SLP197 T01390106 51009=
200908271353 METAR KSEA 271353Z 00000KT 10SM FEW200 13/10 A3009 RMK AO2 SLP194 T01280100=
200908271253 METAR KSEA 271253Z 00000KT 10SM FEW200 14/10 A3008 RMK AO2 SLP190 T01390100=
200908271153 METAR KSEA 271153Z 00000KT 10SM CLR 13/10 A3007 RMK AO2 SLP187 T01330100 10172 20128 51007=
200908271053 METAR KSEA 271053Z 00000KT 10SM CLR 14/10 A3007 RMK AO2 SLP186 T01390100=
200908270953 METAR KSEA 270953Z 00000KT 10SM CLR 15/10 A3006 RMK AO2 SLP183 T01500100=
200908270853 METAR KSEA 270853Z 02004KT 10SM CLR 16/09 A3005 RMK AO2 SLP180 T01610094 50001=
200908270753 METAR KSEA 270753Z 06003KT 10SM CLR 17/09 A3005 RMK AO2 SLP181 T01670089 402440128=
200908270653 METAR KSEA 270653Z 02004KT 10SM CLR 17/09 A3005 RMK AO2 SLP181 T01670089=
200908270553 METAR KSEA 270553Z 33003KT 10SM FEW200 17/09 A3005 RMK AO2 SLP179 T01670089 10233 20161 51008=
200908270453 METAR KSEA 270453Z 33007KT 10SM BKN200 17/09 A3004 RMK AO2 SLP176 T01720094=
200908270353 METAR KSEA 270353Z 35006KT 10SM BKN200 18/09 A3003 RMK AO2 SLP176 T01830089=
200908270253 METAR KSEA 270253Z 35006KT 10SM SCT200 BKN250 21/07 A3002 RMK AO2 SLP171 T02060072 58004=
200908270153 METAR KSEA 270153Z 34006KT 10SM SCT200 BKN250 23/07 A3002 RMK AO2 SLP171 T02280072=
200908270053 METAR KSEA 270053Z 30005KT 10SM SCT200 BKN250 22/09 A3003 RMK AO2 SLP175 T02220094=
200908262353 METAR KSEA 262353Z 31006KT 10SM BKN250 22/09 A3003 RMK AO2 SLP174 T02220089 10244 20183 57013=
200908262253 METAR KSEA 262253Z 30008KT 10SM FEW180 BKN250 23/08 A3004 RMK AO2 SLP178 T02280083=
200908262153 METAR KSEA 262153Z 31008KT 10SM FEW180 BKN250 24/07 A3006 RMK AO2 SLP184 T02390072=
200908262053 METAR KSEA 262053Z 29006KT 10SM FEW150 BKN250 23/09 A3007 RMK AO2 SLP187 T02280094 58009=
200908261953 METAR KSEA 261953Z 29007KT 10SM FEW150 BKN250 21/11 A3009 RMK AO2 SLP192 T02110106=
200908261853 METAR KSEA 261853Z 30006KT 10SM FEW150 SCT250 19/10 A3009 RMK AO2 SLP194 T01940100=
200908261753 METAR KSEA 261753Z 01006KT 10SM FEW150 BKN250 19/08 A3010 RMK AO2 SLP197 ACSL DSNT SE T01940083 10194 20128 50002=
200908261653 METAR KSEA 261653Z 00000KT 10SM FEW150 BKN250 18/09 A3010 RMK AO2 SLP199 ACSL DSNT SE T01780089=
200908261553 METAR KSEA 261553Z 05007KT 10SM FEW150 SCT250 16/09 A3010 RMK AO2 SLP197 ACSL DSNT SE T01610089=
200908261453 METAR KSEA 261453Z 07004KT 10SM FEW150 SCT250 14/09 A3009 RMK AO2 SLP196 ACSL DSNT SE T01440089 51010=
200908261353 METAR KSEA 261353Z 06003KT 10SM FEW150 SCT250 13/08 A3009 RMK AO2 SLP194 T01330083=
200908261253 METAR KSEA 261253Z 01004KT 10SM FEW150 SCT200 13/08 A3007 RMK AO2 SLP187 T01330083=
200908261153 METAR KSEA 261153Z 05006KT 10SM SCT200 14/08 A3006 RMK AO2 SLP185 70003 T01390083 10156 20139 53000=
200908261053 METAR KSEA 261053Z 04007KT 10SM SCT200 14/09 A3005 RMK AO2 SLP181 T01440089=
200908260953 METAR KSEA 260953Z 02006KT 10SM SCT200 14/09 A3006 RMK AO2 SLP185 T01440089=
200908260853 METAR KSEA 260853Z 03004KT 10SM SCT200 15/09 A3006 RMK AO2 SLP184 T01500094 55002=
200908260753 METAR KSEA 260753Z 03007KT 10SM SCT200 16/09 A3006 RMK AO2 SLP184 T01560094 402170122=
200908260653 METAR KSEA 260653Z 03008KT 10SM SCT250 16/10 A3006 RMK AO2 SLP186 T01560100=
200908260553 METAR KSEA 260553Z 01006KT 10SM FEW035 SCT250 16/09 A3007 RMK AO2 SLP188 T01560094 10217 20150 53004=
200908260453 METAR KSEA 260453Z 35006KT 10SM FEW035 SCT250 15/09 A3007 RMK AO2 SLP187 T01500094=
200908260353 METAR KSEA 260353Z 36007KT 10SM FEW035 SCT250 17/09 A3006 RMK AO2 SLP185 T01670094=
200908260253 METAR KSEA 260253Z 35009KT 10SM FEW035 SCT150 BKN250 18/09 A3006 RMK AO2 SLP184 T01830089 56008=
200908260153 METAR KSEA 260153Z 00000KT 10SM FEW035 SCT150 SCT250 21/07 A3006 RMK AO2 SLP185 T02060067=
200908260053 METAR KSEA 260053Z 33005KT 10SM FEW035 SCT250 22/07 A3007 RMK AO2 SLP189 T02170072=
200908252353 METAR KSEA 252353Z VRB06KT 10SM FEW030 BKN250 22/07 A3008 RMK AO2 SLP192 T02170072 10217 20161 58007=
200908252253 METAR KSEA 252253Z 26007KT 10SM FEW030 BKN250 21/07 A3010 RMK AO2 SLP197 T02110072=
200908252153 METAR KSEA 252153Z 27008KT 10SM FEW030 BKN250 21/07 A3011 RMK AO2 SLP201 T02110067=
200908252053 METAR KSEA 252053Z 22011G17KT 10SM SCT025 BKN250 20/08 A3011 RMK AO2 SLP200 T02000078 51003=
200908251953 METAR KSEA 251953Z 19008KT 10SM SCT020 SCT250 19/12 A3010 RMK AO2 SLP199 T01940117=
200908251853 METAR KSEA 251853Z 19009KT 10SM SCT015 SCT250 18/12 A3010 RMK AO2 SLP200 T01780122=
200908251753 METAR KSEA 251753Z 19008KT 10SM SCT008 BKN250 16/12 A3010 RMK AO2 SLP197 60003 T01610122 10161 20122 53009=
200908251747 SPECI KSEA 251747Z 18009KT 10SM SCT008 BKN250 16/12 A3009 RMK AO2=
200908251747 SPECI KSEA 251747Z 18009KT 10SM SCT008 BKN250 16/12 A3009 RMK AO2=
200908251709 SPECI KSEA 251709Z 19008KT 8SM SCT008 BKN015 15/13 A3009 RMK AO2=
200908251709 SPECI KSEA 251709Z 19008KT 8SM SCT008 BKN015 15/13 A3009 RMK AO2=
200908251653 METAR KSEA 251653Z 15008KT 7SM BKN008 BKN016 14/12 A3008 RMK AO2 SLP193 T01390122=
200908251553 METAR KSEA 251553Z 16011KT 5SM BR BKN005 OVC011 13/12 A3008 RMK AO2 SLP190 T01280117=
200908251533 SPECI KSEA 251533Z 16009KT 3SM BR BKN005 OVC012 13/12 A3007 RMK AO2=
200908251533 SPECI KSEA 251533Z 16009KT 3SM BR BKN005 OVC012 13/12 A3007 RMK AO2=
200908251511 SPECI KSEA 251511Z 15009KT 2 1/2SM BR BKN005 OVC011 12/12 A3007 RMK AO2=
200908251511 SPECI KSEA 251511Z 15009KT 2 1/2SM BR BKN005 OVC011 12/12 A3007 RMK AO2=
200908251453 METAR KSEA 251453Z 15010KT 2SM BR SCT004 OVC010 13/11 A3007 RMK AO2 RAE12 SLP187 VIS E-SE 1 1/4 P0000 60003 T01280111 51015=
200908251435 SPECI KSEA 251435Z 17008KT 2 1/2SM BR FEW004 BKN010 OVC015 12/12 A3007 RMK AO2 RAE12 P0000=
200908251435 SPECI KSEA 251435Z 17008KT 2 1/2SM BR FEW004 BKN010 OVC015 12/12 A3007 RMK AO2 RAE12 P0000=
200908251353 METAR KSEA 251353Z 17009KT 1 1/2SM -RA BR BKN012 BKN024 OVC030 12/11 A3005 RMK AO2 SLP182 P0001 T01220111=
200908251346 SPECI KSEA 251346Z 17010KT 1 1/2SM -RA BR BKN012 OVC028 12/11 A3005 RMK AO2 P0001=
200908251346 SPECI KSEA 251346Z 17010KT 1 1/2SM -RA BR BKN012 OVC028 12/11 A3005 RMK AO2 P0001=
200908251331 SPECI KSEA 251331Z 17011KT 2SM -RA BR FEW004 OVC028 12/11 A3005 RMK AO2 P0001=
200908251331 SPECI KSEA 251331Z 17011KT 2SM -RA BR FEW004 OVC028 12/11 A3005 RMK AO2 P0001=
200908251313 SPECI KSEA 251313Z 18009KT 3SM -RA BR SCT004 OVC026 12/11 A3004 RMK AO2 P0000=
200908251313 SPECI KSEA 251313Z 18009KT 3SM -RA BR SCT004 OVC026 12/11 A3004 RMK AO2 P0000=
200908251253 METAR KSEA 251253Z 21007KT 5SM -RA BR FEW006 OVC034 12/11 A3004 RMK AO2 SLP178 P0002 T01220111=
200908251223 SPECI KSEA 251223Z 20009KT 7SM -RA FEW006 SCT016 OVC038 13/11 A3004 RMK AO2 P0001=
200908251223 SPECI KSEA 251223Z 20009KT 7SM -RA FEW006 SCT016 OVC038 13/11 A3004 RMK AO2 P0001=
200908251153 METAR KSEA 251153Z 18005KT 10SM -RA BKN047 BKN060 OVC070 13/10 A3002 RMK AO2 RAB43 SLP171 P0000 60000 T01330100 10167 20133 53012=
200908251053 METAR KSEA 251053Z 16009KT 10SM FEW070 13/09 A3001 RMK AO2 SLP166 T01330094=
200908250953 METAR KSEA 250953Z 17008KT 10SM SCT070 13/09 A3000 RMK AO2 SLP162 T01330094=
200908250853 METAR KSEA 250853Z 20006KT 10SM FEW065 14/09 A2999 RMK AO2 SLP159 T01390089 51018=
200908250753 METAR KSEA 250753Z 18009KT 10SM FEW065 15/08 A2997 RMK AO2 SLP153 T01500083 402390111=
200908250653 METAR KSEA 250653Z 21009KT 10SM FEW200 16/09 A2995 RMK AO2 SLP148 T01610089=
200908250553 METAR KSEA 250553Z 21008KT 10SM FEW200 17/09 A2994 RMK AO2 SLP142 T01670094 10239 20167 52023=
200908250453 METAR KSEA 250453Z 23008KT 10SM CLR 19/10 A2992 RMK AO2 SLP135 T01890100=
200908250353 METAR KSEA 250353Z 17003KT 10SM SCT200 22/06 A2988 RMK AO2 SLP124 T02170056=
200908250253 METAR KSEA 250253Z 21004KT 10SM FEW200 22/05 A2987 RMK AO2 SLP117 T02220050 56012=
200908250153 METAR KSEA 250153Z VRB04KT 10SM FEW200 23/06 A2987 RMK AO2 SLP118 T02330061=
200908250053 METAR KSEA 250053Z 22006KT 10SM FEW200 24/07 A2988 RMK AO2 SLP123 T02390067=
200908242353 METAR KSEA 242353Z 25005KT 10SM FEW200 24/07 A2990 RMK AO2 SLP129 T02390072 10239 20167 58019=
200908242253 METAR KSEA 242253Z 26004KT 10SM FEW200 23/07 A2992 RMK AO2 SLP137 T02330072=
200908242153 METAR KSEA 242153Z 26006KT 10SM FEW200 22/07 A2994 RMK AO2 SLP143 T02220072=
200908242053 METAR KSEA 242053Z 27006KT 10SM FEW200 22/08 A2996 RMK AO2 SLP148 T02170078 58014=
200908241953 METAR KSEA 241953Z 27006KT 10SM CLR 20/09 A2997 RMK AO2 SLP153 T02000089=
200908241853 METAR KSEA 241853Z 27006KT 10SM FEW200 18/09 A2999 RMK AO2 SLP160 T01780089=
200908241753 METAR KSEA 241753Z 28004KT 10SM FEW200 17/09 A3000 RMK AO2 SLP164 T01670094 10172 20111 58013=
200908241653 METAR KSEA 241653Z 00000KT 10SM CLR 17/08 A3001 RMK AO2 SLP168 T01670083=
200908241553 METAR KSEA 241553Z 13004KT 10SM CLR 14/09 A3003 RMK AO2 SLP175 T01440089=
200908241453 METAR KSEA 241453Z 16004KT 10SM CLR 13/08 A3004 RMK AO2 SLP177 T01330083 53001=
200908241353 METAR KSEA 241353Z 12004KT 10SM CLR 12/08 A3003 RMK AO2 SLP175 T01170078=
200908241253 METAR KSEA 241253Z 00000KT 10SM CLR 12/08 A3003 RMK AO2 SLP175 T01220083=
200908241153 METAR KSEA 241153Z 08003KT 10SM CLR 13/09 A3004 RMK AO2 SLP176 T01280089 10161 20128 58004=
200908241053 METAR KSEA 241053Z 06003KT 10SM CLR 13/09 A3004 RMK AO2 SLP179 T01280094=
200908240953 METAR KSEA 240953Z 01003KT 10SM CLR 13/09 A3004 RMK AO2 SLP179 T01330089=
200908240853 METAR KSEA 240853Z 04003KT 10SM CLR 14/09 A3005 RMK AO2 SLP180 T01390089 55001=
200908240753 METAR KSEA 240753Z 04011KT 10SM CLR 15/09 A3005 RMK AO2 SLP179 T01500089 402110139=
200908240653 METAR KSEA 240653Z 03010KT 10SM CLR 16/09 A3005 RMK AO2 SLP180 T01560089=
200908240553 METAR KSEA 240553Z 02010KT 10SM CLR 16/09 A3005 RMK AO2 SLP181 T01560089 10211 20156 58002=
200908240453 METAR KSEA 240453Z 35007KT 10SM FEW050 16/09 A3005 RMK AO2 SLP183 T01610089=
200908240353 METAR KSEA 240353Z 35005KT 10SM FEW050 18/09 A3005 RMK AO2 SLP182 T01780089=
200908240253 METAR KSEA 240253Z 32004KT 10SM FEW050 18/09 A3005 RMK AO2 SLP182 T01780089 56006=
200908240153 METAR KSEA 240153Z 31007KT 10SM FEW050 19/09 A3006 RMK AO2 SLP185 T01940094=
200908240053 METAR KSEA 240053Z 30006KT 10SM FEW050 21/09 A3006 RMK AO2 SLP186 T02060089=
200908232353 METAR KSEA 232353Z 31007KT 10SM SCT050 21/08 A3007 RMK AO2 SLP188 T02060083 10211 20161 58005=
200908232253 METAR KSEA 232253Z 32007KT 10SM SCT050 21/07 A3009 RMK AO2 SLP193 T02110072=
200908232153 METAR KSEA 232153Z 30008KT 10SM FEW040 SCT060 21/08 A3009 RMK AO2 SLP193 T02060078=
200908232053 METAR KSEA 232053Z 31006KT 10SM FEW032 19/08 A3009 RMK AO2 SLP194 T01940083 58004=
200908231953 METAR KSEA 231953Z 30005KT 10SM SCT031 SCT060 18/09 A3010 RMK AO2 SLP197 T01830094=
200908231853 METAR KSEA 231853Z 29004KT 10SM SCT028 BKN037 BKN060 17/10 A3010 RMK AO2 SLP198 T01720100=
200908231753 METAR KSEA 231753Z 01007KT 10SM FEW028 SCT041 BKN060 17/09 A3010 RMK AO2 SLP198 T01720089 10172 20139 53009=
200908231653 METAR KSEA 231653Z 07004KT 10SM SCT027 BKN034 16/09 A3009 RMK AO2 SLP195 T01610089=
200908231642 SPECI KSEA 231642Z 01004KT 10SM SCT027 BKN034 16/08 A3009 RMK AO2=
200908231642 SPECI KSEA 231642Z 01004KT 10SM SCT027 BKN034 16/08 A3009 RMK AO2=
200908231553 METAR KSEA 231553Z 05005KT 10SM BKN027 BKN034 15/09 A3008 RMK AO2 SLP191 T01500089=
200908231453 METAR KSEA 231453Z 00000KT 10SM BKN027 OVC060 14/09 A3007 RMK AO2 SLP189 T01390094 53012=
200908231425 SPECI KSEA 231425Z 17004KT 10SM BKN027 BKN060 14/09 A3007 RMK AO2=
200908231425 SPECI KSEA 231425Z 17004KT 10SM BKN027 BKN060 14/09 A3007 RMK AO2=
200908231353 METAR KSEA 231353Z 10004KT 10SM FEW027 SCT036 BKN065 14/08 A3006 RMK AO2 SLP184 T01440083=
200908231253 METAR KSEA 231253Z 07008KT 10SM BKN065 14/08 A3005 RMK AO2 SLP180 T01390083=
200908231153 METAR KSEA 231153Z 05007KT 10SM BKN065 14/08 A3004 RMK AO2 SLP176 T01440083 10172 20139 53010=
200908231053 METAR KSEA 231053Z 03004KT 10SM BKN065 15/08 A3003 RMK AO2 SLP172 T01500083=
200908230953 METAR KSEA 230953Z 04003KT 10SM BKN065 15/08 A3001 RMK AO2 SLP168 T01500083=
200908230853 METAR KSEA 230853Z 00000KT 10SM BKN065 15/08 A3001 RMK AO2 SLP166 T01500083 53005=
200908230753 METAR KSEA 230753Z 04004KT 10SM SCT055 16/09 A3001=
200908230653 METAR KSEA 230653Z 04010KT 10SM BKN055 16/09 A2999 RMK AO2 SLP160 T01610089=
200908230553 METAR KSEA 230553Z 04009KT 10SM SCT050 17/08 A2999 RMK AO2 SLP161 T01720078 10222 20172 58000=
200908230453 METAR KSEA 230453Z 03009KT 10SM SCT050 18/08 A3000 RMK AO2 SLP162 T01780083=
200908230353 METAR KSEA 230353Z 02011KT 10SM FEW045 BKN250 18/07 A2999 RMK AO2 SLP162 T01780072=
200908230253 METAR KSEA 230253Z 01009KT 10SM FEW045 BKN250 19/07 A2999 RMK AO2 SLP162 T01890067 56008=
200908230153 METAR KSEA 230153Z 36010KT 10SM FEW045 BKN250 20/07 A3000 RMK AO2 SLP162 T02000072=
200908230053 METAR KSEA 230053Z 34008KT 10SM FEW045 SCT250 21/08 A3001 RMK AO2 SLP166 T02060078=
200908222353 METAR KSEA 222353Z 34008KT 10SM FEW045 SCT250 23/09 A3002 RMK AO2 SLP170 T02280089 10228 20183 58018=
200908222253 METAR KSEA 222253Z 29007KT 10SM FEW045 SCT250 22/08 A3004 RMK AO2 SLP177 T02220083=
200908222153 METAR KSEA 222153Z 29012KT 10SM FEW045 SCT250 22/09 A3006 RMK AO2 SLP182 T02220089=
200908222053 METAR KSEA 222053Z 30009KT 10SM FEW045 BKN250 22/09 A3007 RMK AO2 SLP188 T02170089 56013=
200908221953 METAR KSEA 221953Z 28007KT 10SM FEW040 BKN250 21/10 A3008 RMK AO2 SLP191 T02060100=
200908221853 METAR KSEA 221853Z 36006KT 10SM FEW040 BKN250 20/09 A3010 RMK AO2 SLP199 T02000089=
200908221753 METAR KSEA 221753Z 01009KT 10SM FEW048 BKN250 19/09 A3011 RMK AO2 SLP202 T01890089 10194 20144 58007=
200908221653 METAR KSEA 221653Z 04007KT 10SM BKN046 17/09 A3013 RMK AO2 SLP208 T01720089=
200908221553 METAR KSEA 221553Z 03008KT 10SM BKN044 16/09 A3014 RMK AO2 SLP211 T01560094=
200908221453 METAR KSEA 221453Z 04009KT 10SM BKN036 15/09 A3014 RMK AO2 SLP210 T01500089 53005=
200908221353 METAR KSEA 221353Z 03008KT 10SM OVC035 15/09 A3013 RMK AO2 SLP207 T01500089=
200908221253 METAR KSEA 221253Z 01010KT 10SM OVC031 15/09 A3012 RMK AO2 SLP206 T01500089=
200908221153 METAR KSEA 221153Z 03013KT 10SM SCT020 OVC025 16/08 A3012 RMK AO2 SLP204 T01560083 10172 20150 58007=
200908221053 METAR KSEA 221053Z 03010KT 10SM FEW016 BKN025 16/09 A3013 RMK AO2 SLP207 T01610094=
200908220953 METAR KSEA 220953Z 02007KT 10SM OVC019 16/11 A3014 RMK AO2 SLP210 T01610106=
200908220853 METAR KSEA 220853Z 00000KT 10SM BKN016 OVC020 15/12 A3014 RMK AO2 SLP213 T01500122 50003=
200908220753 METAR KSEA 220753Z 23003KT 10SM SCT018 BKN025 16/13 A3015 RMK AO2 SLP213 T01610133 402060144=
200908220734 SPECI KSEA 220734Z 00000KT 10SM SCT018 OVC025 16/13 A3015=
200908220653 METAR KSEA 220653Z 00000KT 10SM BKN035 16/13 A3014 RMK AO2 SLP212 T01610128=
200908220553 METAR KSEA 220553Z 26005KT 10SM OVC036 17/13 A3014 RMK AO2 SLP210 T01720133 10194 20172 53003=
200908220453 METAR KSEA 220453Z 26003KT 10SM BKN049 17/13 A3013 RMK AO2 SLP209 T01720128=
200908220353 METAR KSEA 220353Z 17003KT 10SM BKN035 18/13 A3013 RMK AO2 SLP207 T01780128=
200908220253 METAR KSEA 220253Z 24005KT 10SM FEW020 BKN035 18/13 A3013 RMK AO2 SLP207 T01830128 58002=
200908220153 METAR KSEA 220153Z 24005KT 10SM FEW020 BKN033 19/13 A3013 RMK AO2 SLP208 T01890128=
200908220053 METAR KSEA 220053Z 25005KT 10SM OVC033 19/13 A3013 RMK AO2 SLP208 T01940128=
200908212353 METAR KSEA 212353Z VRB06KT 10SM OVC033 19/12 A3013 RMK AO2 SLP208 T01940122 10206 20167 55001=
200908212253 METAR KSEA 212253Z 21005KT 10SM OVC033 20/12 A3013 RMK AO2 SLP208 T02000122=
200908212153 METAR KSEA 212153Z 19006KT 10SM FEW024 OVC033 19/12 A3014 RMK AO2 SLP209 T01940122=
200908212053 METAR KSEA 212053Z 21010KT 10SM FEW024 BKN033 19/12 A3014 RMK AO2 SLP210 T01940122 55000=
200908211953 METAR KSEA 211953Z 20011KT 10SM SCT014 OVC035 19/13 A3014 RMK AO2 SLP209 T01890128=
200908211921 SPECI KSEA 211921Z 22008KT 10SM SCT014 OVC033 18/13 A3014 RMK AO2=
200908211921 SPECI KSEA 211921Z 22008KT 10SM SCT014 OVC033 18/13 A3014 RMK AO2=
200908211853 METAR KSEA 211853Z 20009KT 10SM BKN012 OVC031 18/13 A3014 RMK AO2 SLP210 T01830133=
200908211833 SPECI KSEA 211833Z 21010KT 10SM BKN012 OVC031 18/13 A3014 RMK AO2=
200908211833 SPECI KSEA 211833Z 21010KT 10SM BKN012 OVC031 18/13 A3014 RMK AO2=
200908211818 SPECI KSEA 211818Z 21009KT 10SM SCT012 BKN016 OVC031 18/13 A3014 RMK AO2=
200908211753 METAR KSEA 211753Z 20010KT 10SM BKN010 BKN016 OVC031 17/13 A3014 RMK AO2 SLP211 60000 T01670133 10167 20144 51014=
200908211714 SPECI KSEA 211714Z 21009KT 10SM FEW010 BKN014 OVC031 16/13 A3013 RMK AO2=
200908211714 SPECI KSEA 211714Z 21009KT 10SM FEW010 BKN014 OVC031 16/13 A3013 RMK AO2=
200908211653 METAR KSEA 211653Z 20009KT 10SM SCT010 BKN019 OVC032 16/13 A3013 RMK AO2 SLP207 T01610133=
200908211644 SPECI KSEA 211644Z 19010KT 10SM BKN010 BKN017 OVC034 16/13 A3012 RMK AO2=
200908211644 SPECI KSEA 211644Z 19010KT 10SM BKN010 BKN017 OVC034 16/13 A3012 RMK AO2=
200908211616 SPECI KSEA 211616Z 19009KT 10SM FEW006 SCT017 OVC034 16/14 A3012 RMK AO2=
200908211616 SPECI KSEA 211616Z 19009KT 10SM FEW006 SCT017 OVC034 16/14 A3012 RMK AO2=
200908211553 METAR KSEA 211553Z 18010KT 7SM SCT006 BKN017 OVC030 15/14 A3012 RMK AO2 DZE26 SLP203 P0000 T01500139=
200908211519 SPECI KSEA 211519Z 19009KT 4SM -DZ BR BKN006 BKN011 OVC030 15/14 A3010 RMK AO2 CIG 004V009 P0000=
200908211519 SPECI KSEA 211519Z 19009KT 4SM -DZ BR BKN006 BKN011 OVC030 15/14 A3010 RMK AO2 CIG 004V009 P0000=
200908211453 METAR KSEA 211453Z 19006KT 4SM -DZ BR FEW006 BKN013 OVC030 15/14 A3010 RMK AO2 SLP197 P0000 60000 T01500139 53013=
200908211444 SPECI KSEA 211444Z 18007KT 5SM -DZ BR FEW007 BKN015 OVC030 14/13 A3010 RMK AO2 P0000=
200908211444 SPECI KSEA 211444Z 18007KT 5SM -DZ BR FEW007 BKN015 OVC030 14/13 A3010 RMK AO2 P0000=
200908211353 METAR KSEA 211353Z 16006KT 8SM -DZ BR OVC019 14/13 A3008 RMK AO2 SLP192 P0000 T01440133=
200908211253 METAR KSEA 211253Z 19008KT 10SM -DZ SCT022 OVC028 16/12 A3006 RMK AO2 DZB16 SLP184 P0000 T01560122=
200908211153 METAR KSEA 211153Z 18006KT 10SM OVC022 16/12 A3006 RMK AO2 SLP183 T01610117 10167 20161 50006=
200908211053 METAR KSEA 211053Z 23008KT 10SM OVC020 16/12 A3006 RMK AO2 SLP184 T01610117=
200908210953 METAR KSEA 210953Z 23008KT 10SM OVC020 16/12 A3006 RMK AO2 SLP183 T01610117=
200908210853 METAR KSEA 210853Z 21008KT 10SM OVC018 17/12 A3004 RMK AO2 SLP178 T01670122 52007=
200908210753 METAR KSEA 210753Z 20008KT 10SM OVC022 17/12 A3004 RMK AO2 SLP175 T01670122 402560156=
200908210653 METAR KSEA 210653Z 22008KT 10SM BKN020 17/12 A3003 RMK AO2 SLP173 T01670122=
200908210553 METAR KSEA 210553Z 20008KT 10SM BKN022 17/13 A3002 RMK AO2 SLP171 T01670128 10228 20161 51021=
200908210528 SPECI KSEA 210528Z 21007KT 10SM BKN022 17/13 A3002 RMK AO2=
200908210528 SPECI KSEA 210528Z 21007KT 10SM BKN022 17/13 A3002 RMK AO2=
200908210453 METAR KSEA 210453Z 19006KT 10SM SCT022 17/13 A3002 RMK AO2 SLP168 T01670128=
200908210353 METAR KSEA 210353Z 20009KT 10SM FEW030 17/13 A2999 RMK AO2 SLP161 T01670128=
200908210253 METAR KSEA 210253Z 18008KT 10SM CLR 18/13 A2996 RMK AO2 SLP150 T01830128 53021=
200908210153 METAR KSEA 210153Z 21011KT 10SM BKN150 19/12 A2994 RMK AO2 SLP141 T01940122=
200908210053 METAR KSEA 210053Z 21011KT 10SM BKN150 22/13 A2991 RMK AO2 SLP133 T02170128=
200908202353 METAR KSEA 202353Z 19007KT 10SM BKN150 23/14 A2990 RMK AO2 SLP128 T02280139 10256 20194 53001=
200908202253 METAR KSEA 202253Z 19009KT 10SM FEW140 SCT200 25/14 A2989 RMK AO2 SLP123 T02500144=
200908202153 METAR KSEA 202153Z 21011KT 10SM FEW200 26/14 A2989 RMK AO2 SLP124 T02560139=
200908202053 METAR KSEA 202053Z 21011KT 10SM FEW250 24/14 A2989 RMK AO2 SLP125 T02440139 58004=
200908201953 METAR KSEA 201953Z 18009KT 10SM FEW250 23/14 A2989 RMK AO2 SLP126 T02280144=
200908201853 METAR KSEA 201853Z 21009KT 10SM FEW250 21/14 A2990 RMK AO2 SLP129 T02060139=
200908201753 METAR KSEA 201753Z 19009KT 10SM FEW250 20/14 A2990 RMK AO2 SLP130 T02000139 10200 20156 51006=
200908201653 METAR KSEA 201653Z 20011KT 10SM BKN006 19/13 A2990 RMK AO2 SLP128 T01890133 $=
200908201553 METAR KSEA 201553Z 19009KT 10SM OVC005 16/13 A2990 RMK AO2 SLP128 T01560133=
200908201453 METAR KSEA 201453Z 20009KT 10SM OVC006 16/14 A2989 RMK AO2 SLP124 T01560139 53019=
200908201433 SPECI KSEA 201433Z 21009KT 10SM BKN006 BKN250 16/14 A2988 RMK AO2=
200908201433 SPECI KSEA 201433Z 21009KT 10SM BKN006 BKN250 16/14 A2988 RMK AO2=
200908201431 SPECI KSEA 201431Z 21008KT 10SM BKN006 BKN250 16/14 A2988 RMK AO2=
200908201431 SPECI KSEA 201431Z 21008KT 10SM BKN006 BKN250 16/14 A2988 RMK AO2=
200908201353 METAR KSEA 201353Z 20007KT 10SM FEW009 SCT120 BKN220 16/14 A2986 RMK AO2 SLP116 T01560139=
200908201253 METAR KSEA 201253Z 22004KT 10SM FEW009 SCT120 17/14 A2985 RMK AO2 SLP111 T01720144=
200908201153 METAR KSEA 201153Z 20004KT 10SM CLR 18/14 A2983 RMK AO2 SLP105 T01830144 10250 20183 51015=
200908201053 METAR KSEA 201053Z 17004KT 10SM CLR 18/14 A2982 RMK AO2 SLP100 T01830144=
200908200953 METAR KSEA 200953Z 16007KT 10SM CLR 19/15 A2980 RMK AO2 SLP096 T01890150=
200908200853 METAR KSEA 200853Z 20003KT 10SM CLR 19/15 A2979 RMK AO2 SLP090 T01940150 53006=
200908200753 METAR KSEA 200753Z 21003KT 10SM CLR 21/16 A2977 RMK AO2 SLP085 T02060161 403060161=
200908200653 METAR KSEA 200653Z 00000KT 10SM CLR 24/16 A2976 RMK AO2 SLP081 T02440156=
200908200553 METAR KSEA 200553Z 00000KT 10SM CLR 24/16 A2977 RMK AO2 SLP083 T02440156 10306 20239 50003=
200908200453 METAR KSEA 200453Z 03004KT 10SM CLR 26/14 A2977 RMK AO2 SLP084 T02610144=
200908200353 METAR KSEA 200353Z 35003KT 10SM FEW250 26/14 A2977 RMK AO2 SLP083 T02610144=
200908200253 METAR KSEA 200253Z 00000KT 10SM FEW250 27/15 A2976 RMK AO2 SLP080 T02720150 58002=
200908200153 METAR KSEA 200153Z 31003KT 10SM FEW250 29/14 A2976 RMK AO2 SLP080 T02890144=
200908200053 METAR KSEA 200053Z 28007KT 10SM SCT250 29/14 A2977 RMK AO2 SLP083 T02890144 $=
200908192353 METAR KSEA 192353Z 29006KT 10SM SCT250 31/15 A2977 RMK AO2 SLP082 T03060150 10306 20244 58019=
200908192253 METAR KSEA 192253Z 29006KT 10SM SCT250 30/16 A2979 RMK AO2 SLP091 T03000156=
200908192153 METAR KSEA 192153Z 30008KT 10SM SCT250 28/15 A2981 RMK AO2 SLP097 T02780150=
200908192053 METAR KSEA 192053Z 29008KT 10SM BKN250 27/15 A2982 RMK AO2 SLP102 T02670150 56010=
200908191953 METAR KSEA 191953Z 36004KT 10SM BKN250 28/15 A2983 RMK AO2 SLP104 T02780150=
200908191853 METAR KSEA 191853Z 34008KT 10SM SCT250 26/15 A2984 RMK AO2 SLP108 T02610150=
200908191753 METAR KSEA 191753Z 36009KT 10SM SCT250 24/15 A2985 RMK AO2 SLP112 T02440150 10244 20161 58002=
200908191653 METAR KSEA 191653Z 35007KT 10SM FEW250 23/15 A2986 RMK AO2 SLP113 T02330150=
200908191553 METAR KSEA 191553Z 01010KT 10SM FEW250 21/14 A2986 RMK AO2 SLP114 T02060144=
200908191453 METAR KSEA 191453Z 36009KT 10SM FEW250 20/14 A2986 RMK AO2 SLP114 T02000139 57006=
200908191353 METAR KSEA 191353Z 35004KT 10SM CLR 17/13 A2987 RMK AO2 SLP117 T01720133=
200908191253 METAR KSEA 191253Z 33004KT 10SM CLR 16/14 A2987 RMK AO2 SLP116 T01610139=
200908191153 METAR KSEA 191153Z 03005KT 10SM CLR 19/14 A2988 RMK AO2 SLP120 T01940144 10244 20194 56008=
200908191053 METAR KSEA 191053Z 02007KT 10SM CLR 20/14 A2988 RMK AO2 SLP121 T02000144=
200908190953 METAR KSEA 190953Z 02006KT 10SM CLR 21/14 A2989 RMK AO2 SLP125 T02060144=
200908190853 METAR KSEA 190853Z 02006KT 10SM CLR 22/14 A2990 RMK AO2 SLP128 T02170144 55006=
200908190753 METAR KSEA 190753Z 02007KT 10SM CLR 23/14 A2990 RMK AO2 SLP127 T02280144 402890150=
200908190653 METAR KSEA 190653Z 02006KT 10SM CLR 23/14 A2991 RMK AO2 SLP131 T02330139=
200908190553 METAR KSEA 190553Z 02007KT 10SM CLR 26/14 A2992 RMK AO2 SLP134 T02560139 10289 20233 56005=
200908190453 METAR KSEA 190453Z 35006KT 10SM CLR 24/14 A2992 RMK AO2 SLP136 T02390139=
200908190353 METAR KSEA 190353Z 36005KT 10SM SCT250 25/14 A2992 RMK AO2 SLP135 T02500139=
200908190253 METAR KSEA 190253Z 36006KT 10SM SCT250 27/13 A2993 RMK AO2 SLP139 T02670133 56015=
200908190153 METAR KSEA 190153Z 32005KT 10SM SCT250 28/13 A2994 RMK AO2 SLP140 T02780128=
200908190053 METAR KSEA 190053Z 29007KT 10SM SCT250 28/13 A2995 RMK AO2 SLP146 T02780128=
200908182353 METAR KSEA 182353Z VRB05KT 10SM SCT250 28/13 A2997 RMK AO2 SLP154 T02830128 10289 20233 56016=
200908182253 METAR KSEA 182253Z 30010KT 10SM SCT250 28/13 A2999 RMK AO2 SLP158 T02780128=
200908182153 METAR KSEA 182153Z VRB06G20KT 10SM SCT250 27/13 A3001 RMK AO2 SLP165 T02720128=
200908182053 METAR KSEA 182053Z 33016G22KT 10SM FEW250 26/12 A3002 RMK AO2 SLP170 T02610122 58009=
200908181953 METAR KSEA 181953Z 35013G20KT 10SM SCT250 26/12 A3004 RMK AO2 SLP174 T02610122=
200908181853 METAR KSEA 181853Z 01010KT 10SM SCT250 26/12 A3004 RMK AO2 SLP177 T02560122=
200908181753 METAR KSEA 181753Z 04011KT 10SM BKN250 23/12 A3005 RMK AO2 SLP180 T02330117 10233 20150 56005=
200908181653 METAR KSEA 181653Z 01011KT 10SM BKN250 21/13 A3005 RMK AO2 SLP180 T02110133=
200908181553 METAR KSEA 181553Z 01009KT 10SM BKN250 19/13 A3006 RMK AO2 SLP183 T01940128=
200908181453 METAR KSEA 181453Z 36006KT 10SM SCT250 18/13 A3007 RMK AO2 SLP184 T01780133 56003=
200908181353 METAR KSEA 181353Z 36006KT 10SM FEW150 BKN230 16/13 A3007 RMK AO2 SLP187 T01560133=
200908181253 METAR KSEA 181253Z 36005KT 10SM SCT200 16/12 A3007 RMK AO2 SLP185 T01560122=
200908181153 METAR KSEA 181153Z 01007KT 10SM CLR 17/13 A3007 RMK AO2 SLP187 7//// T01670128 10222 20167 58002=
200908181053 METAR KSEA 181053Z 02010KT 10SM CLR 18/13 A3008 RMK AO2 SLP189 T01780128=
200908180953 METAR KSEA 180953Z 02008KT 10SM CLR 18/12 A3008 RMK AO2 SLP190 T01830122=
200908180853 METAR KSEA 180853Z 35004KT 10SM CLR 18/11 A3008 RMK AO2 SLP190 T01780111 58003=
200908180753 METAR KSEA 180753Z 36005KT 10SM FEW150 SCT200 19/12 A3008 RMK AO2 SLP191 T01940117 402780144=
200908180653 METAR KSEA 180653Z 01008KT 10SM CLR 21/11 A3009 RMK AO2 SLP194 T02060111=
200908180553 METAR KSEA 180553Z 02007KT 10SM CLR 22/11 A3009 RMK AO2 SLP193 T02220111 10278 20217 50002=
200908180453 METAR KSEA 180453Z 02008KT 10SM CLR 23/11 A3010 RMK AO2 SLP196 T02280111=
200908180353 METAR KSEA 180353Z 36005KT 10SM SCT200 23/12 A3009 RMK AO2 SLP193 T02280117=
200908180253 METAR KSEA 180253Z 36006KT 10SM BKN200 25/12 A3008 RMK AO2 SLP191 T02500117 58010=
200908180153 METAR KSEA 180153Z 28005KT 10SM BKN200 26/13 A3009 RMK AO2 SLP195 T02560128=
200908180053 METAR KSEA 180053Z 36008KT 10SM BKN200 28/12 A3011 RMK AO2 SLP199 T02780122=
200908172353 METAR KSEA 172353Z 36009KT 10SM BKN200 28/12 A3011 RMK AO2 SLP201 T02780122 10278 20206 58011=
200908172253 METAR KSEA 172253Z VRB06KT 10SM BKN200 27/13 A3013 RMK AO2 SLP205 T02670133=
200908172153 METAR KSEA 172153Z 29007KT 10SM FEW180 BKN250 25/13 A3014 RMK AO2 SLP211 T02500128=
200908172053 METAR KSEA 172053Z 27006KT 10SM FEW180 BKN250 26/13 A3015 RMK AO2 SLP213 T02560128 58013=
200908171953 METAR KSEA 171953Z 30006KT 10SM FEW180 BKN250 23/12 A3016 RMK AO2 SLP219 T02280122=
200908171853 METAR KSEA 171853Z 32004KT 10SM FEW180 SCT250 22/12 A3017 RMK AO2 SLP222 T02220122=
200908171753 METAR KSEA 171753Z 32003KT 10SM FEW180 SCT250 21/12 A3019 RMK AO2 SLP226 6//// T02060122 10211 20144 58001=
200908171653 METAR KSEA 171653Z 00000KT 10SM FEW180 SCT250 20/12 A3019 RMK AO2 SLP227 T02000117=
200908171553 METAR KSEA 171553Z 00000KT 10SM FEW180 SCT250 18/12 A3019 RMK AO2 SLP227 T01830117=
200908171453 METAR KSEA 171453Z 04004KT 10SM FEW180 SCT250 16/11 A3019 RMK AO2 SLP227 6//// T01610111 53008=
200908171353 METAR KSEA 171353Z 35003KT 10SM FEW120 SCT250 16/11 A3018 RMK AO2 SLP224 T01560106 PNO $=
200908171253 METAR KSEA 171253Z 01004KT 10SM SCT250 15/11 A3017 RMK AO2 SLP220 T01500106 PNO $=
200908171153 METAR KSEA 171153Z 02005KT 10SM CLR 16/11 A3016 RMK AO2 SLP219 6//// 7//// T01560106 10189 20156 53003 PNO $=
200908171053 METAR KSEA 171053Z 04007KT 10SM CLR 16/11 A3015 RMK AO2 SLP215 T01610106 PNO $=
200908170953 METAR KSEA 170953Z 02008KT 10SM CLR 16/11 A3015 RMK AO2 SLP214 T01610111 PNO $=
200908170853 METAR KSEA 170853Z 02006KT 10SM CLR 17/11 A3016 RMK AO2 SLP216 6//// T01670111 50002 PNO $=
200908170753 METAR KSEA 170753Z 35004KT 10SM CLR 17/12 A3016 RMK AO2 SLP216 T01670117 402390122 PNO $=
200908170653 METAR KSEA 170653Z 02007KT 10SM CLR 18/11 A3015 RMK AO2 SLP214 T01780111 PNO $=
200908170553 METAR KSEA 170553Z 36007KT 10SM CLR 18/11 A3015 RMK AO2 SLP214 6//// T01780111 10239 20178 52008 PNO $=
200908170453 METAR KSEA 170453Z 35005KT 10SM SCT250 19/11 A3014 RMK AO2 SLP211 T01890111 PNO $=
200908170353 METAR KSEA 170353Z 35007KT 10SM SCT250 20/11 A3013 RMK AO2 SLP209 T02000111 PNO $=
200908170253 METAR KSEA 170253Z 34004KT 10SM SCT025 21/11 A3013 RMK AO2 SLP206 6//// T02110111 55005 PNO $=
200908170153 METAR KSEA 170153Z 34006KT 10SM SCT250 23/10 A3012 RMK AO2 SLP205 T02330100 PNO $=
200908170053 METAR KSEA 170053Z 33010KT 10SM SCT250 23/09 A3013 RMK AO2 SLP208 T02330094 PNO $=
200908162353 METAR KSEA 162353Z 32008G16KT 10SM FEW040 SCT200 24/10 A3014 RMK AO2 SLP211 6//// T02390100 10239 20172 56008 PNO $=
200908162253 METAR KSEA 162253Z 34010G15KT 10SM FEW040 23/10 A3015 RMK AO2 SLP212 T02330100 PNO $=
200908162153 METAR KSEA 162153Z 35008KT 10SM FEW040 23/11 A3016 RMK AO2 SLP216 T02280111 PNO $=
200908162053 METAR KSEA 162053Z 35006KT 10SM FEW040 22/11 A3017 RMK AO2 SLP219 6//// T02220111 58010 PNO $=
200908161953 METAR KSEA 161953Z 30005KT 10SM SCT029 21/12 A3018 RMK AO2 SLP223 T02060117 PNO $=
200908161853 METAR KSEA 161853Z 29006KT 10SM SCT020 19/12 A3019 RMK AO2 SLP228 T01890117 PNO $=
200908161753 METAR KSEA 161753Z 29004KT 10SM SCT020 18/12 A3020 RMK AO2 SLP230 6//// T01780117 10183 20122 50001 PNO $=
200908161653 METAR KSEA 161653Z 02008KT 10SM SCT013 17/12 A3020 RMK AO2 SLP232 T01670117 PNO $=
200908161641 SPECI KSEA 161641Z 01007KT 10SM SCT013 16/11 A3020 RMK AO2 PNO $=
200908161641 SPECI KSEA 161641Z 01007KT 10SM SCT013 16/11 A3020 RMK AO2 PNO $=
200908161616 SPECI KSEA 161616Z 03006KT 10SM BKN011 17/12 A3020 RMK AO2 PNO $=
200908161616 SPECI KSEA 161616Z 03006KT 10SM BKN011 17/12 A3020 RMK AO2 PNO $=
200908161553 METAR KSEA 161553Z VRB04KT 10SM FEW012 16/12 A3020 RMK AO2 SLP233 T01560117 PNO $=
200908161453 METAR KSEA 161453Z 06006KT 10SM FEW030 14/11 A3019 RMK AO2 SLP230 6//// T01440111 50003 PNO $=
200908161353 METAR KSEA 161353Z 00000KT 10SM FEW030 13/11 A3020 RMK AO2 SLP230 T01280111 PNO $=
200908161253 METAR KSEA 161253Z 00000KT 10SM SCT025 12/11 A3019 RMK AO2 SLP228 T01220111 PNO $=
200908161153 METAR KSEA 161153Z 00000KT 10SM BKN025 13/12 A3018 RMK AO2 SLP227 6//// 7//// T01280117 10150 20122 53001 PNO $=
200908161120 SPECI KSEA 161120Z 00000KT 10SM BKN025 13/12 A3018 RMK AO2 PNO $=
200908161120 SPECI KSEA 161120Z 00000KT 10SM BKN025 13/12 A3018 RMK AO2 PNO $=
200908161053 METAR KSEA 161053Z 00000KT 10SM SCT025 13/11 A3018 RMK AO2 SLP227 T01280111 PNO $=
200908160953 METAR KSEA 160953Z 00000KT 10SM FEW040 13/11 A3018 RMK AO2 SLP224 T01280106 PNO $=
200908160853 METAR KSEA 160853Z 00000KT 10SM SCT040 13/11 A3018 RMK AO2 SLP226 6//// T01330106 55000 PNO $=
200908160753 METAR KSEA 160753Z 00000KT 10SM SCT040 14/11 A3018 RMK AO2 SLP226 T01440106 402000111 PNO $=
200908160653 METAR KSEA 160653Z 17003KT 10SM SCT040 BKN065 14/11 A3018 RMK AO2 SLP226 T01390106 PNO $=
200908160553 METAR KSEA 160553Z 00000KT 10SM FEW035 15/11 A3018 RMK AO2 SLP226 6//// T01500106 10183 20150 50001 PNO $=
200908160453 METAR KSEA 160453Z 22003KT 10SM FEW035 15/10 A3018 RMK AO2 SLP227 T01500100 PNO $=
200908160353 METAR KSEA 160353Z 21003KT 10SM SCT070 SCT200 16/10 A3018 RMK AO2 SLP227 T01560100 PNO $=
200908160253 METAR KSEA 160253Z 20004KT 10SM FEW030 SCT065 BKN200 17/10 A3018 RMK AO2 SLP226 6//// T01670100 56007 PNO $=
200908160153 METAR KSEA 160153Z 22007KT 10SM FEW030 BKN060 BKN200 18/11 A3018 RMK AO2 SLP226 T01780106 PNO $=
200908160053 METAR KSEA 160053Z VRB06KT 10SM FEW030 BKN060 18/11 A3020 RMK AO2 SLP230 T01780106 PNO $=
200908152353 METAR KSEA 152353Z 21009KT 10SM FEW030 BKN060 18/11 A3020 RMK AO2 SLP233 6//// T01830106 10200 20161 58004 PNO $=
200908152253 METAR KSEA 152253Z 23008KT 10SM FEW030 BKN060 18/10 A3021 RMK AO2 SLP235 T01830100 PNO $=
200908152153 METAR KSEA 152153Z 20007KT 160V240 10SM SCT040 BKN160 18/10 A3021 RMK AO2 SLP237 T01830100 PNO $=
200908152053 METAR KSEA 152053Z 23009KT 10SM SCT030 BKN130 19/10 A3021 RMK AO2 SLP237 6//// T01890100 58001 PNO $=
200908151953 METAR KSEA 151953Z 22007KT 10SM BKN030 BKN120 17/09 A3022 RMK AO2 SLP237 T01720089 PNO $=
200908151853 METAR KSEA 151853Z 21007KT 10SM FEW018 BKN027 BKN110 17/10 A3022 RMK AO2 SLP238 T01670100 PNO $=
200908151753 METAR KSEA 151753Z 22006KT 10SM FEW018 BKN027 BKN100 16/09 A3022 RMK AO2 SLP238 6//// T01610094 10161 20111 58001 PNO $=
200908151653 METAR KSEA 151653Z 16005KT 10SM BKN031 BKN100 15/09 A3022 RMK AO2 SLP240 T01500094 PNO $=
200908151553 METAR KSEA 151553Z 17004KT 10SM BKN029 BKN090 13/10 A3022 RMK AO2 SLP239 T01330100 PNO $=
200908151453 METAR KSEA 151453Z 19003KT 10SM BKN029 BKN100 12/10 A3022 RMK AO2 SLP240 6//// T01220100 53007 PNO $=
200908151421 SPECI KSEA 151421Z 17004KT 10SM BKN029 BKN100 12/10 A3022 RMK AO2 PNO $=
200908151421 SPECI KSEA 151421Z 17004KT 10SM BKN029 BKN100 12/10 A3022 RMK AO2 PNO $=
200908151353 METAR KSEA 151353Z 17004KT 10SM FEW015 SCT100 12/10 A3021 RMK AO2 SLP236 T01170100 PNO $=
200908151253 METAR KSEA 151253Z 15004KT 10SM SCT015 11/09 A3020 RMK AO2 SLP233 T01110094 PNO $=
200908151153 METAR KSEA 151153Z 14003KT 10SM SCT015 12/10 A3020 RMK AO2 SLP232 6//// 7//// T01170100 10144 20111 55003 PNO $=
200908151053 METAR KSEA 151053Z 19003KT 10SM FEW020 12/10 A3020 RMK AO2 SLP232 T01220100 PNO $=
200908150953 METAR KSEA 150953Z 00000KT 10SM FEW020 12/10 A3021 RMK AO2 SLP234 T01220100 PNO $=
200908150853 METAR KSEA 150853Z 17004KT 10SM FEW024 13/10 A3021 RMK AO2 SLP235 6//// T01280100 57002 PNO $=
200908150753 METAR KSEA 150753Z 22003KT 10SM SCT020 OVC060 14/10 A3021 RMK AO2 SLP236 T01390100 402060128 PNO $=
200908150653 METAR KSEA 150653Z 19005KT 10SM BKN060 14/10 A3021 RMK AO2 SLP236 T01390100 PNO $=
200908150553 METAR KSEA 150553Z 20006KT 10SM SCT060 14/10 A3022 RMK AO2 SLP237 6//// T01440100 10189 20144 52012 PNO $=
200908150453 METAR KSEA 150453Z 22006KT 10SM SCT060 16/10 A3020 RMK AO2 SLP233 T01560100 PNO $=
200908150353 METAR KSEA 150353Z 21007KT 10SM SCT038 BKN060 16/10 A3019 RMK AO2 SLP229 T01610100 PNO $=
200908150253 METAR KSEA 150253Z 23009KT 10SM FEW030 SCT065 BKN090 17/11 A3018 RMK AO2 SLP225 6//// T01670106 53002 PNO $=
200908150153 METAR KSEA 150153Z 24007KT 10SM FEW030 SCT060 17/11 A3017 RMK AO2 SLP223 T01720111 PNO $=
200908150053 METAR KSEA 150053Z 20009KT 10SM FEW030 BKN065 18/11 A3018 RMK AO2 SLP224 T01780111 PNO $=
200908142353 METAR KSEA 142353Z 23011KT 10SM FEW030 BKN060 19/11 A3017 RMK AO2 SLP223 6//// T01890106 10206 20144 55000 PNO $=
200908142253 METAR KSEA 142253Z 21010KT 10SM FEW035 BKN060 21/10 A3017 RMK AO2 SLP222 T02060100 PNO $=
200908142153 METAR KSEA 142153Z 23008KT 10SM SCT035 SCT065 19/09 A3017 RMK AO2 SLP222 T01890094 PNO $=
200908142053 METAR KSEA 142053Z 25007KT 10SM FEW025 SCT065 19/10 A3017 RMK AO2 SLP223 6//// T01890100 56001 PNO $=
200908141953 METAR KSEA 141953Z VRB06KT 10SM SCT020 BKN060 18/11 A3017 RMK AO2 SLP223 T01780111 PNO $=
200908141853 METAR KSEA 141853Z 19007KT 10SM FEW012 BKN037 BKN080 17/11 A3017 RMK AO2 SLP223 T01670111 PNO $=
200908141833 SPECI KSEA 141833Z 24005KT 10SM SCT012 BKN036 BKN080 15/11 A3018 RMK AO2 PNO $=
200908141833 SPECI KSEA 141833Z 24005KT 10SM SCT012 BKN036 BKN080 15/11 A3018 RMK AO2 PNO $=
200908141753 METAR KSEA 141753Z 22006KT 10SM BKN012 BKN035 14/11 A3018 RMK AO2 SLP225 6//// T01440111 10150 20128 53013 PNO $=
200908141726 SPECI KSEA 141726Z 19008KT 10SM BKN012 BKN033 14/11 A3017 RMK AO2 PNO $=
200908141726 SPECI KSEA 141726Z 19008KT 10SM BKN012 BKN033 14/11 A3017 RMK AO2 PNO $=
200908141653 METAR KSEA 141653Z 21006KT 10SM SCT010 BKN031 BKN080 14/11 A3016 RMK AO2 SLP219 T01390111 PNO $=
200908141553 METAR KSEA 141553Z 22007KT 10SM FEW007 BKN031 BKN080 13/11 A3015 RMK AO2 SLP216 T01330111 PNO $=
200908141521 SPECI KSEA 141521Z 23004KT 10SM FEW007 SCT022 BKN080 13/11 A3015 RMK AO2 PNO $=
200908141521 SPECI KSEA 141521Z 23004KT 10SM FEW007 SCT022 BKN080 13/11 A3015 RMK AO2 PNO $=
200908141453 METAR KSEA 141453Z 22006KT 10SM FEW007 BKN021 BKN080 13/11 A3014 RMK AO2 SLP212 6//// T01330111 53012 PNO $=
200908141444 SPECI KSEA 141444Z 22005KT 10SM FEW007 BKN020 BKN085 13/11 A3014 RMK AO2 PNO $=
200908141444 SPECI KSEA 141444Z 22005KT 10SM FEW007 BKN020 BKN085 13/11 A3014 RMK AO2 PNO $=
200908141359 SPECI KSEA 141359Z 20005KT 10SM SCT007 BKN014 BKN250 13/12 A3013 RMK AO2 PNO $=
200908141359 SPECI KSEA 141359Z 20005KT 10SM SCT007 BKN014 BKN250 13/12 A3013 RMK AO2 PNO $=
200908141353 METAR KSEA 141353Z 19005KT 10SM SCT007 SCT014 BKN250 13/12 A3012 RMK AO2 SLP207 T01280117 PNO $=
200908141253 METAR KSEA 141253Z 23005KT 10SM SCT014 BKN021 OVC027 13/12 A3011 RMK AO2 RAE08 SLP204 T01280117 PNO $=
200908141216 SPECI KSEA 141216Z 23005KT 9SM SCT016 OVC026 13/12 A3010 RMK AO2 RAE08 PNO $=
200908141216 SPECI KSEA 141216Z 23005KT 9SM SCT016 OVC026 13/12 A3010 RMK AO2 RAE08 PNO $=
200908141153 METAR KSEA 141153Z 22005KT 2SM -RA BR SCT009 BKN014 OVC024 13/12 A3010 RMK AO2 RAB02 SLP199 P0000 6//// 7//// T01280117 10139 20128 50001 PNO $=
200908141141 SPECI KSEA 141141Z 24006KT 2 1/2SM +RA BR SCT006 OVC012 13/12 A3011 RMK AO2 RAB02 P0000 PNO $=
200908141141 SPECI KSEA 141141Z 24006KT 2 1/2SM +RA BR SCT006 OVC012 13/12 A3011 RMK AO2 RAB02 P0000 PNO $=
200908141103 SPECI KSEA 141103Z VRB04KT 1 1/2SM -RA BR SCT004 OVC010 13/12 A3011 RMK AO2 SFC VIS 3 RAB02 P0000 $=
200908141103 SPECI KSEA 141103Z VRB04KT 1 1/2SM -RA BR SCT004 OVC010 13/12 A3011 RMK AO2 SFC VIS 3 RAB02 P0000 $=
200908141053 METAR KSEA 141053Z 24003KT 5SM BR BKN004 BKN011 OVC015 13/12 A3011 RMK AO2 RAE28 SLP201 P0000 T01330122 $=
200908140953 METAR KSEA 140953Z 19003KT 10SM -RA BKN006 BKN015 13/12 A3010 RMK AO2 RAB34 SLP198 P0000 T01330122 $=
200908140853 METAR KSEA 140853Z 13004KT 10SM BKN008 BKN100 13/12 A3010 RMK AO2 SLP198 T01330117 56001 $=
200908140753 METAR KSEA 140753Z 12004KT 10SM BKN008 BKN100 13/12 A3010 RMK AO2 SLP200 T01330122 401830128 $=
200908140653 METAR KSEA 140653Z 00000KT 10SM SCT008 BKN019 BKN100 14/12 A3010 RMK AO2 SLP199 T01390122 $=
200908140607 SPECI KSEA 140607Z 16004KT 10SM BKN008 OVC085 13/12 A3010 RMK AO2 $=
200908140607 SPECI KSEA 140607Z 16004KT 10SM BKN008 OVC085 13/12 A3010 RMK AO2 $=
200908140553 METAR KSEA 140553Z 18003KT 10SM BKN080 13/12 A3010 RMK AO2 SLP200 60016 T01330122 10172 20128 51003 $=
200908140453 METAR KSEA 140453Z 00000KT 10SM FEW025 BKN075 13/12 A3011 RMK AO2 SLP200 T01330122 $=
200908140353 METAR KSEA 140353Z 22003KT 10SM FEW025 BKN080 BKN180 14/12 A3010 RMK AO2 SLP199 T01390117 $=
200908140253 METAR KSEA 140253Z 23003KT 9SM FEW020 BKN090 BKN180 14/12 A3010 RMK AO2 RAE23 SLP198 P0000 60016 T01390122 53006 $=
200908140153 METAR KSEA 140153Z 07004KT 10SM -RA FEW020 SCT041 BKN065 14/12 A3008 RMK AO2 TSE13 SLP191 P0010 T01440122 $=
200908140119 SPECI KSEA 140119Z 04009KT 4SM RA BR BKN031 OVC060 14/12 A3008 RMK AO2 TSE13 P0006 $=
200908140119 SPECI KSEA 140119Z 04009KT 4SM RA BR BKN031 OVC060 14/12 A3008 RMK AO2 TSE13 P0006 $=
200908140053 METAR KSEA 140053Z 35012KT 4SM -TSRA BKN042CB BKN065 14/13 A3008 RMK AO2 TSB43 SLP192 OCNL LTGCG S TS OHD MOV E P0006 T01440128=
200908140043 SPECI KSEA 140043Z 34010KT 4SM TSRA BR BKN040CB BKN065 14/13 A3009 RMK AO2 TSB43 TS OHD MOV E P0005=
200908140043 SPECI KSEA 140043Z 34010KT 4SM TSRA BR BKN040CB BKN065 14/13 A3009 RMK AO2 TSB43 TS OHD MOV E P0005=
200908132353 METAR KSEA 132353Z 01007KT 9SM -RA SCT047 BKN055 17/12 A3008 RMK AO2 RAB42 SLP191 P0000 60000 T01720117 10183 20144 56010=
200908132253 METAR KSEA 132253Z 00000KT 10SM SCT036 BKN045 18/11 A3009 RMK AO2 SLP193 T01780106=
200908132153 METAR KSEA 132153Z 00000KT 10SM SCT022 SCT047 SCT200 17/11 A3010 RMK AO2 SLP198 SHRA DSNT W-N T01670106=
200908132147 SPECI KSEA 132147Z 00000KT 10SM SCT022 SCT047 BKN200 17/11 A3010 RMK AO2=
200908132147 SPECI KSEA 132147Z 00000KT 10SM SCT022 SCT047 BKN200 17/11 A3010 RMK AO2=
200908132053 METAR KSEA 132053Z 21004KT 10SM BKN015 OVC023 16/11 A3011 RMK AO2 SLP201 T01560111 50001=
200908131953 METAR KSEA 131953Z 16006KT 10SM BKN015 OVC025 14/11 A3011 RMK AO2 SLP202 T01440106=
200908131853 METAR KSEA 131853Z 21006KT 10SM BKN022 OVC040 14/10 A3012 RMK AO2 SLP204 T01440100=
200908131753 METAR KSEA 131753Z 19008KT 10SM BKN021 OVC045 16/10 A3011 RMK AO2 SLP200 T01560100 10161 20133 53004=
200908131653 METAR KSEA 131653Z 20005KT 10SM BKN016 BKN045 BKN200 15/10 A3009 RMK AO2 SLP196 T01500100=
200908131553 METAR KSEA 131553Z 19006KT 10SM BKN015 BKN037 OVC200 14/10 A3010 RMK AO2 SLP197 T01390100=
200908131529 SPECI KSEA 131529Z 18005KT 10SM BKN015 BKN037 BKN200 14/10 A3010 RMK AO2=
200908131529 SPECI KSEA 131529Z 18005KT 10SM BKN015 BKN037 BKN200 14/10 A3010 RMK AO2=
200908131453 METAR KSEA 131453Z 21004KT 10SM BKN011 BKN040 OVC200 13/10 A3009 RMK AO2 SLP196 T01330100 53006=
200908131353 METAR KSEA 131353Z 19005KT 10SM BKN010 OVC030 13/11 A3009 RMK AO2 SLP192 T01330106=
200908131253 METAR KSEA 131253Z 19005KT 10SM BKN010 OVC040 13/11 A3008 RMK AO2 SLP189 T01330111=
200908131240 SPECI KSEA 131240Z 21004KT 10SM BKN010 OVC040 13/11 A3008 RMK AO2=
200908131240 SPECI KSEA 131240Z 21004KT 10SM BKN010 OVC040 13/11 A3008 RMK AO2=
200908131153 METAR KSEA 131153Z 22003KT 10SM FEW008 OVC040 13/11 A3007 RMK AO2 SLP188 70010 T01330111 10172 20133 55001=
200908131053 METAR KSEA 131053Z 20005KT 10SM FEW008 OVC035 14/12 A3007 RMK AO2 SLP188 T01390117=
200908131042 SPECI KSEA 131042Z 20004KT 10SM FEW008 OVC035 14/12 A3007 RMK AO2=
200908130953 METAR KSEA 130953Z 19003KT 10SM OVC037 14/12 A3007 RMK AO2 SLP189 T01440117=
200908130853 METAR KSEA 130853Z 18004KT 10SM OVC033 14/12 A3008 RMK AO2 SLP189 T01440122 50001=
200908130753 METAR KSEA 130753Z 21004KT 10SM OVC033 16/12 A3008 RMK AO2 SLP190 T01610122 402280139=
200908130653 METAR KSEA 130653Z 17004KT 10SM OVC033 17/13 A3007 RMK AO2 SLP188 T01670128=
200908130553 METAR KSEA 130553Z 00000KT 10SM OVC029 17/13 A3007 RMK AO2 SLP189 T01720128 10228 20167 53007=
200908130453 METAR KSEA 130453Z 35006KT 10SM OVC027 18/12 A3006 RMK AO2 SLP186 T01830122=
200908130433 SPECI KSEA 130433Z 01005KT 10SM OVC027 19/13 A3006 RMK AO2=
200908130353 METAR KSEA 130353Z 35005KT 10SM SCT025 BKN050 19/12 A3006 RMK AO2 SLP184 T01890117=
200908130253 METAR KSEA 130253Z 31003KT 10SM BKN050 BKN080 20/13 A3005 RMK AO2 SLP181 T02000128 55001=
200908130153 METAR KSEA 130153Z 24004KT 10SM SCT038 SCT080 22/13 A3005 RMK AO2 SLP179 T02170128=
200908130053 METAR KSEA 130053Z 22004KT 10SM FEW038 SCT080 22/12 A3005 RMK AO2 SLP180 T02220122=
200908122353 METAR KSEA 122353Z 24004KT 10SM FEW037 SCT070 BKN200 22/12 A3005 RMK AO2 SLP181 60000 T02170122 10228 20172 58007=
200908122253 METAR KSEA 122253Z 21005KT 10SM FEW037 SCT080 BKN200 22/13 A3006 RMK AO2 SLP185 T02220128=
200908122153 METAR KSEA 122153Z VRB04KT 10SM SCT032 SCT100 SCT200 22/12 A3007 RMK AO2 SLP188 T02170122=
200908122053 METAR KSEA 122053Z 25003KT 10SM SCT026 BKN070 21/13 A3007 RMK AO2 SLP188 60000 T02060128 50001=
200908122048 SPECI KSEA 122048Z 28004KT 10SM SCT026 BKN070 21/13 A3008 RMK AO2=
200908122048 SPECI KSEA 122048Z 28004KT 10SM SCT026 BKN070 21/13 A3008 RMK AO2=
200908121953 METAR KSEA 121953Z 00000KT 10SM FEW017 BKN026 BKN070 19/13 A3007 RMK AO2 RAB1856E09 SLP189 P0000 T01890133=
200908121920 SPECI KSEA 121920Z 28004KT 10SM SCT016 BKN024 BKN070 18/13 A3008 RMK AO2 RAB1856E09 P0000=
200908121920 SPECI KSEA 121920Z 28004KT 10SM SCT016 BKN024 BKN070 18/13 A3008 RMK AO2 RAB1856E09 P0000=
200908121853 METAR KSEA 121853Z 26004KT 10SM FEW009 SCT016 BKN070 18/14 A3008 RMK AO2 SLP190 T01830139=
200908121753 METAR KSEA 121753Z 00000KT 8SM FEW004 SCT012 OVC060 17/14 A3007 RMK AO2 RAE41 SLP187 P0000 60010 T01720139 10172 20139 53006=
200908121653 METAR KSEA 121653Z 00000KT 6SM -RA BR FEW005 BKN055 OVC070 16/14 A3007 RMK AO2 RAB41 SLP187 P0000 T01560139=
200908121553 METAR KSEA 121553Z 00000KT 7SM FEW002 OVC070 15/14 A3006 RMK AO2 RAE03 SLP183 P0000 T01500139=
200908121453 METAR KSEA 121453Z 00000KT 6SM -RA BR FEW014 OVC060 14/13 A3005 RMK AO2 SLP182 P0007 60010 T01440133 53007=
200908121444 SPECI KSEA 121444Z 00000KT 5SM -RA BR FEW006 SCT014 OVC060 14/13 A3005 RMK AO2 P0007=
200908121444 SPECI KSEA 121444Z 00000KT 5SM -RA BR FEW006 SCT014 OVC060 14/13 A3005 RMK AO2 P0007=
200908121426 SPECI KSEA 121426Z 00000KT 2SM -RA BR FEW004 BKN012 OVC060 14/13 A3005 RMK AO2 SFC VIS 2 1/2 P0005=
200908121426 SPECI KSEA 121426Z 00000KT 2SM -RA BR FEW004 BKN012 OVC060 14/13 A3005 RMK AO2 SFC VIS 2 1/2 P0005=
200908121353 METAR KSEA 121353Z 00000KT 1 3/4SM -RA BR FEW001 OVC010 14/13 A3005 RMK AO2 RAE03B19 SLP179 P0002 T01390133 $=
200908121337 SPECI KSEA 121337Z 28004KT 1SM R16C/4500VP6000FT -RA BR FEW003 BKN010 OVC060 14/14 A3004 RMK AO2 TWR VIS 1 1/2 RAE03B19 P0001=
200908121337 SPECI KSEA 121337Z 28004KT 1SM R16C/4500VP6000FT -RA BR FEW003 BKN010 OVC060 14/14 A3004 RMK AO2 TWR VIS 1 1/2 RAE03B19 P0001=
200908121332 SPECI KSEA 121332Z 28004KT 4SM -RA BR FEW003 BKN010 OVC060 15/14 A3004 RMK AO2 RAE03B19 P0001=
200908121332 SPECI KSEA 121332Z 28004KT 4SM -RA BR FEW003 BKN010 OVC060 15/14 A3004 RMK AO2 RAE03B19 P0001=
200908121311 SPECI KSEA 121311Z 00000KT 6SM BR FEW006 OVC055 14/14 A3003 RMK AO2 RAE03 P0000=
200908121311 SPECI KSEA 121311Z 00000KT 6SM BR FEW006 OVC055 14/14 A3003 RMK AO2 RAE03 P0000=
200908121253 METAR KSEA 121253Z 15003KT 6SM -RA BR FEW038 BKN045 OVC060 14/14 A3003 RMK AO2 RAE31B47 SLP174 P0001 T01440139=
200908121153 METAR KSEA 121153Z 00000KT 5SM -RA BR FEW006 OVC055 15/14 A3003 RMK AO2 RAB1059 SLP174 P0005 60006 70030 T01500144 10183 20150 55001=
200908121053 METAR KSEA 121053Z 00000KT 10SM OVC060 16/14 A3003 RMK AO2 SLP173 T01610144=
200908120953 METAR KSEA 120953Z 02003KT 10SM OVC060 17/14 A3003 RMK AO2 RAB43E52 SLP174 P0000 T01720139=
200908120853 METAR KSEA 120853Z 00000KT 10SM BKN065 OVC095 17/14 A3004 RMK AO2 RAE03 SLP175 P0000 60001 T01720139 58005=
200908120753 METAR KSEA 120753Z 00000KT 10SM -RA SCT060 BKN075 OVC100 17/14 A3004 RMK AO2 RAB23 SLP178 P0001 T01720139 402110150=
200908120653 METAR KSEA 120653Z 00000KT 10SM BKN075 BKN110 18/13 A3005 RMK AO2 SLP179 T01780128=
200908120553 METAR KSEA 120553Z 00000KT 10SM FEW080 BKN110 18/13 A3005 RMK AO2 SLP182 T01780128 10211 20178 51000=
200908120453 METAR KSEA 120453Z 35003KT 10SM BKN110 19/12 A3005 RMK AO2 SLP182 T01890122=
200908120353 METAR KSEA 120353Z 29003KT 10SM FEW040 BKN110 BKN200 18/12 A3005 RMK AO2 SLP182 T01830122=
200908120253 METAR KSEA 120253Z 20003KT 10SM FEW040 SCT120 BKN200 20/11 A3005 RMK AO2 SLP180 T02000111 58011=
200908120153 METAR KSEA 120153Z 22004KT 10SM FEW040 BKN110 21/12 A3006 RMK AO2 SLP183 T02060117=
200908120053 METAR KSEA 120053Z 24003KT 10SM FEW025 BKN100 21/12 A3008 RMK AO2 SLP190 T02110117=
200908112353 METAR KSEA 112353Z 23004KT 10SM SCT031 BKN110 21/12 A3008 RMK AO2 SLP192 T02060117 10211 20167 56007=
200908112327 SPECI KSEA 112327Z 25004KT 10SM BKN031 BKN100 21/12 A3008 RMK AO2=
200908112327 SPECI KSEA 112327Z 25004KT 10SM BKN031 BKN100 21/12 A3008 RMK AO2=
200908112253 METAR KSEA 112253Z VRB03KT 10SM BKN029 BKN100 21/12 A3009 RMK AO2 SLP193 T02060122=
200908112153 METAR KSEA 112153Z VRB03KT 10SM SCT025 BKN038 BKN200 21/12 A3010 RMK AO2 SLP197 T02060122=
200908112053 METAR KSEA 112053Z 27004KT 10SM SCT020 BKN032 19/12 A3011 RMK AO2 SLP199 T01890122 58001=
200908112031 SPECI KSEA 112031Z 00000KT 10SM SCT018 BKN032 19/13 A3011 RMK AO2=
200908112031 SPECI KSEA 112031Z 00000KT 10SM SCT018 BKN032 19/13 A3011 RMK AO2=
200908111953 METAR KSEA 111953Z 24003KT 10SM BKN017 BKN028 18/13 A3011 RMK AO2 SLP200 T01780133=
200908111853 METAR KSEA 111853Z 00000KT 10SM SCT016 BKN027 BKN200 17/13 A3012 RMK AO2 SLP203 T01720133=
200908111833 SPECI KSEA 111833Z 21006KT 10SM FEW008 BKN016 BKN200 18/13 A3012 RMK AO2=
200908111833 SPECI KSEA 111833Z 21006KT 10SM FEW008 BKN016 BKN200 18/13 A3012 RMK AO2=
200908111753 METAR KSEA 111753Z 18004KT 10SM FEW006 BKN010 BKN200 17/14 A3011 RMK AO2 SLP201 60024 T01670139 10172 20150 51012=
200908111739 SPECI KSEA 111739Z 17004KT 10SM BKN010 BKN080 BKN200 17/14 A3011 RMK AO2=
200908111739 SPECI KSEA 111739Z 17004KT 10SM BKN010 BKN080 BKN200 17/14 A3011 RMK AO2=
200908111653 METAR KSEA 111653Z 13005KT 10SM SCT007 BKN080 BKN200 16/14 A3010 RMK AO2 SLP199 T01560139=
200908111635 SPECI KSEA 111635Z 13007KT 10SM SCT007 BKN080 BKN200 16/14 A3010 RMK AO2=
200908111635 SPECI KSEA 111635Z 13007KT 10SM SCT007 BKN080 BKN200 16/14 A3010 RMK AO2=
200908111553 METAR KSEA 111553Z 15007KT 7SM FEW005 BKN015 BKN080 16/13 A3010 RMK AO2 RAE50 SLP197 P0002 T01560133=
200908111531 SPECI KSEA 111531Z 16005KT 7SM -RA FEW004 SCT014 BKN041 15/14 A3010 RMK AO2 P0002=
200908111531 SPECI KSEA 111531Z 16005KT 7SM -RA FEW004 SCT014 BKN041 15/14 A3010 RMK AO2 P0002=
200908111453 METAR KSEA 111453Z 11006KT 7SM -RA SCT004 BKN012 OVC100 15/14 A3007 RMK AO2 PRESFR SLP189 P0003 60022 T01500139 58005=
200908111424 SPECI KSEA 111424Z 14008KT 7SM -RA FEW004 BKN010 OVC018 15/14 A3009 RMK AO2 P0002=
200908111424 SPECI KSEA 111424Z 14008KT 7SM -RA FEW004 BKN010 OVC018 15/14 A3009 RMK AO2 P0002=
200908111353 METAR KSEA 111353Z 15006KT 5SM -RA BR SCT006 BKN015 OVC043 15/14 A3009 RMK AO2 SLP194 P0008 T01500139 $=
200908111347 SPECI KSEA 111347Z 14006KT 5SM -RA BR SCT006 BKN015 OVC043 15/14 A3009 RMK AO2 P0008 $=
200908111347 SPECI KSEA 111347Z 14006KT 5SM -RA BR SCT006 BKN015 OVC043 15/14 A3009 RMK AO2 P0008 $=
200908111333 SPECI KSEA 111333Z 15007KT 5SM -RA BR BKN015 BKN022 OVC043 15/14 A3009 RMK AO2 P0007=
200908111333 SPECI KSEA 111333Z 15007KT 5SM -RA BR BKN015 BKN022 OVC043 15/14 A3009 RMK AO2 P0007=
200908111326 SPECI KSEA 111326Z 17007KT 8SM -RA BKN013 BKN022 OVC043 15/14 A3009 RMK AO2 P0007=
200908111326 SPECI KSEA 111326Z 17007KT 8SM -RA BKN013 BKN022 OVC043 15/14 A3009 RMK AO2 P0007=
200908111305 SPECI KSEA 111305Z 15008KT 5SM RA BR BKN016 BKN041 OVC075 15/14 A3008 RMK AO2 P0003=
200908111305 SPECI KSEA 111305Z 15008KT 5SM RA BR BKN016 BKN041 OVC075 15/14 A3008 RMK AO2 P0003=
200908111253 METAR KSEA 111253Z 16007KT 6SM RA BR FEW018 BKN050 OVC080 15/13 A3009 RMK AO2 SLP194 P0011 T01500133=
200908111153 METAR KSEA 111153Z 15006KT 6SM RA BR FEW006 OVC060 15/14 A3007 RMK AO2 SLP188 P0005 60008 70020 T01500144 10167 20150 53003=
200908111053 METAR KSEA 111053Z 15008KT 10SM -RA OVC070 16/14 A3006 RMK AO2 SLP183 P0002 T01560144=
200908110953 METAR KSEA 110953Z 17006KT 10SM -RA OVC055 16/14 A3007 RMK AO2 RAB12E28B44 SLP187 P0000 T01560144=
200908110853 METAR KSEA 110853Z 15006KT 10SM FEW006 OVC055 16/14 A3006 RMK AO2 RAE16 SLP185 P0000 60001 T01610144 50001=
200908110753 METAR KSEA 110753Z 16007KT 10SM -RA FEW006 SCT015 OVC050 16/14 A3007 RMK AO2 RAB14 SLP186 P0001 T01610144 401940133=
200908110653 METAR KSEA 110653Z 13010KT 10SM FEW006 OVC044 16/15 A3006 RMK AO2 RAB23E33 SLP183 P0000 T01610150=
200908110553 METAR KSEA 110553Z 17007KT 10SM FEW006 OVC035 16/14 A3006 RMK AO2 RAB19E34 SLP184 P0000 60010 T01610144 10183 20161 50007=
200908110541 SPECI KSEA 110541Z 20004KT 10SM FEW006 OVC035 17/15 A3006 RMK AO2 RAB19E34 P0000=
200908110541 SPECI KSEA 110541Z 20004KT 10SM FEW006 OVC035 17/15 A3006 RMK AO2 RAB19E34 P0000=
200908110453 METAR KSEA 110453Z 19008KT 10SM FEW006 BKN012 OVC035 17/15 A3006 RMK AO2 RAE11B27E41 SLP184 P0002 T01670150=
200908110353 METAR KSEA 110353Z 19007KT 8SM -RA BKN006 OVC026 17/16 A3005 RMK AO2 RAB00 SLP181 P0006 T01670156=
200908110334 SPECI KSEA 110334Z 21006KT 10SM -RA BKN006 OVC026 17/16 A3005 RMK AO2 RAB00 P0004=
200908110334 SPECI KSEA 110334Z 21006KT 10SM -RA BKN006 OVC026 17/16 A3005 RMK AO2 RAB00 P0004=
200908110321 SPECI KSEA 110321Z 18007KT 7SM -RA SCT006 BKN029 OVC042 17/16 A3004 RMK AO2 RAB00 P0004=
200908110321 SPECI KSEA 110321Z 18007KT 7SM -RA SCT006 BKN029 OVC042 17/16 A3004 RMK AO2 RAB00 P0004=
200908110253 METAR KSEA 110253Z 16007KT 10SM SCT006 OVC040 17/16 A3004 RMK AO2 RAE32 SLP176 P0001 60002 T01670156 58006=
200908110153 METAR KSEA 110153Z COR 17007KT 6SM -RA BR SCT008 BKN038 17/16 A3005 RMK AO2 RAE05B36 SLP181 P0000 T01670156=
200908110053 METAR KSEA 110053Z 22006KT 6SM -RA BR FEW008 BKN040 OVC050 17/16 A3005 RMK AO2 DZB48E52RAB52 SLP183 P0001 T01720156=
200908110015 SPECI KSEA 110015Z 26003KT 7SM FEW008 BKN040 OVC060 18/14 A3006 RMK AO2=
200908110015 SPECI KSEA 110015Z 26003KT 7SM FEW008 BKN040 OVC060 18/14 A3006 RMK AO2=
200908102353 METAR KSEA 102353Z 25003KT 10SM BKN029 OVC060 18/14 A3005 RMK AO2 SLP183 P0002 60002 T01830144 10194 20167 56009=
200908102253 METAR KSEA 102253Z 24006KT 10SM BKN029 OVC045 19/13 A3007 RMK AO2 RAB31E50 SLP186 P0000 T01890133=
200908102153 METAR KSEA 102153Z 22007KT 10SM FEW020 BKN029 OVC045 19/13 A3007 RMK AO2 RAE2057 SLP187 P0000 T01890133=
200908102117 SPECI KSEA 102117Z 20007KT 10SM BKN028 OVC050 18/13 A3008 RMK AO2 RAE2057 P0000=
200908102117 SPECI KSEA 102117Z 20007KT 10SM BKN028 OVC050 18/13 A3008 RMK AO2 RAE2057 P0000=
200908102053 METAR KSEA 102053Z 22009KT 10SM -RA BKN035 OVC085 18/13 A3008 RMK AO2 RAB28 SLP192 P0000 60000 T01830128 55002=
200908101953 METAR KSEA 101953Z 21007KT 10SM FEW025 OVC036 19/11 A3008 RMK AO2 SLP191 T01890111=
200908101853 METAR KSEA 101853Z 18006KT 10SM FEW025 OVC041 18/11 A3008 RMK AO2 SLP191 T01830106=
200908101753 METAR KSEA 101753Z 25004KT 10SM FEW020 OVC041 17/11 A3009 RMK AO2 SLP194 T01670106 10172 20133 50003=
200908101653 METAR KSEA 101653Z 19009KT 10SM FEW020 OVC050 16/10 A3009 RMK AO2 SLP194 T01610100=
200908101553 METAR KSEA 101553Z VRB06KT 10SM BKN060 BKN200 17/10 A3008 RMK AO2 SLP191 T01670100=
200908101453 METAR KSEA 101453Z 20006KT 10SM BKN060 BKN200 16/09 A3008 RMK AO2 SLP189 T01560094 51007=
200908101353 METAR KSEA 101353Z 17006KT 10SM BKN060 OVC100 15/09 A3007 RMK AO2 SLP187 APRNT CAP CLD OVR MT RAINIER T01500089=
200908101253 METAR KSEA 101253Z 15005KT 10SM FEW065 BKN110 14/09 A3006 RMK AO2 SLP185 T01390094=
200908101153 METAR KSEA 101153Z 16007KT 10SM BKN030 14/09 A3006 RMK AO2 SLP182 T01390089 10172 20139 56009=
200908101053 METAR KSEA 101053Z 16006KT 10SM OVC032 14/11 A3007 RMK AO2 SLP186 T01440106=
200908100953 METAR KSEA 100953Z 16007KT 10SM OVC034 14/11 A3007 RMK AO2 SLP188 T01440106=
200908100853 METAR KSEA 100853Z 22005KT 10SM SCT038 15/10 A3008 RMK AO2 SLP192 T01500100 51000=
200908100753 METAR KSEA 100753Z 18005KT 10SM SCT041 BKN120 15/11 A3008 RMK AO2 SLP191 T01500106 402440150=
200908100653 METAR KSEA 100653Z 21007KT 10SM BKN041 17/11 A3009 RMK AO2 SLP193 T01670106=
200908100553 METAR KSEA 100553Z 21005KT 10SM FEW055 SCT100 BKN200 17/11 A3008 RMK AO2 SLP191 T01670111 10239 20167 51007=
200908100453 METAR KSEA 100453Z 25008KT 10SM FEW060 SCT100 SCT200 18/11 A3008 RMK AO2 SLP191 T01780111=
200908100353 METAR KSEA 100353Z 25006KT 10SM FEW060 SCT100 SCT200 18/11 A3007 RMK AO2 SLP188 T01830111=
200908100253 METAR KSEA 100253Z 25007KT 10SM FEW040 SCT090 BKN200 21/12 A3006 RMK AO2 SLP184 T02060117 55006=
200908100153 METAR KSEA 100153Z 25008KT 10SM FEW040 SCT200 22/12 A3006 RMK AO2 SLP184 T02220117=
200908100053 METAR KSEA 100053Z 22010KT 10SM FEW040 SCT070 23/12 A3007 RMK AO2 SLP188 T02280122=
200908092353 METAR KSEA 092353Z 27009KT 210V290 10SM FEW040 SCT060 BKN200 23/13 A3008 RMK AO2 SLP191 60000 T02330128 10244 20183 58009=
200908092253 METAR KSEA 092253Z 23008KT 10SM FEW040 SCT070 BKN200 24/13 A3009 RMK AO2 SLP193 T02390133=
200908092153 METAR KSEA 092153Z 25005KT 10SM SCT040 BKN070 BKN200 23/13 A3010 RMK AO2 SLP198 T02330128=
200908092053 METAR KSEA 092053Z 18004KT 10SM FEW021 SCT060 23/13 A3011 RMK AO2 SLP200 60000 T02330128 58010=
200908091953 METAR KSEA 091953Z 24007KT 10SM SCT019 BKN025 BKN060 22/13 A3013 RMK AO2 SLP207 T02170133=
200908091941 SPECI KSEA 091941Z 21006KT 10SM SCT019 BKN025 BKN060 21/13 A3013 RMK AO2=
200908091941 SPECI KSEA 091941Z 21006KT 10SM SCT019 BKN025 BKN060 21/13 A3013 RMK AO2=
200908091853 METAR KSEA 091853Z 20006KT 10SM SCT016 BKN055 BKN090 20/14 A3013 RMK AO2 RAB1755E05 SLP209 P0000 T02000139=
200908091753 METAR KSEA 091753Z 23003KT 8SM BKN016 OVC025 18/15 A3014 RMK AO2 SLP210 60000 T01830150 10183 20156 51006=
200908091740 SPECI KSEA 091740Z 20006KT 10SM OVC016 18/14 A3014 RMK AO2=
200908091740 SPECI KSEA 091740Z 20006KT 10SM OVC016 18/14 A3014 RMK AO2=
200908091653 METAR KSEA 091653Z 13003KT 8SM OVC012 17/14 A3013 RMK AO2 RAB27E37 SLP209 P0000 T01720144=
200908091553 METAR KSEA 091553Z 17004KT 3SM BR OVC010 17/14 A3013 RMK AO2 CIG 009V012 SLP208 T01670139=
200908091453 METAR KSEA 091453Z 17006KT 10SM OVC012 16/14 A3012 RMK AO2 SLP205 60000 T01610144 55000=
200908091353 METAR KSEA 091353Z 17004KT 10SM BKN014 BKN025 OVC030 16/15 A3011 RMK AO2 SLP202 T01560150=
200908091253 METAR KSEA 091253Z 16003KT 9SM SCT005 OVC010 16/14 A3012 RMK AO2 DZE50 SLP204 P0000 T01560144=
200908091236 SPECI KSEA 091236Z 16004KT 5SM DZ BR FEW005 OVC010 16/14 A3012 RMK AO2 P0000=
200908091236 SPECI KSEA 091236Z 16004KT 5SM DZ BR FEW005 OVC010 16/14 A3012 RMK AO2 P0000=
200908091226 SPECI KSEA 091226Z 15004KT 3SM DZ BR FEW003 BKN007 OVC012 16/15 A3012 RMK AO2 CIG 005V010 P0000=
200908091226 SPECI KSEA 091226Z 15004KT 3SM DZ BR FEW003 BKN007 OVC012 16/15 A3012 RMK AO2 CIG 005V010 P0000=
200908091220 SPECI KSEA 091220Z 16004KT 1 1/2SM DZ BR BKN005 OVC010 16/14 A3012=
200908091153 METAR KSEA 091153Z 15006KT 1 1/2SM DZ BR OVC003 16/15 A3012 RMK AO2 SLP205 P0000 60000 T01560150 10183 20156 58004=
200908091140 SPECI KSEA 091140Z 15005KT 1 1/2SM DZ BR OVC003 16/15 A3012 RMK AO2 P0000=
200908091140 SPECI KSEA 091140Z 15005KT 1 1/2SM DZ BR OVC003 16/15 A3012 RMK AO2 P0000=
200908091132 SPECI KSEA 091132Z 14004KT 1 1/2SM DZ BR OVC005 16/14 A3012 RMK AO2 P0000=
200908091132 SPECI KSEA 091132Z 14004KT 1 1/2SM DZ BR OVC005 16/14 A3012 RMK AO2 P0000=
200908091053 METAR KSEA 091053Z 16003KT 10SM DZ BKN007 OVC017 16/14 A3012 RMK AO2 CIG 006V012 SLP206 P0000 T01610144=
200908091030 SPECI KSEA 091030Z 15004KT 8SM DZ BKN007 OVC014 16/14 A3013 RMK AO2 CIG 007V011 P0000=
200908091030 SPECI KSEA 091030Z 15004KT 8SM DZ BKN007 OVC014 16/14 A3013 RMK AO2 CIG 007V011 P0000=
200908090953 METAR KSEA 090953Z 19004KT 10SM DZ BKN013 OVC018 17/14 A3013 RMK AO2 DZB50 SLP207 P0000 T01670139=
200908090853 METAR KSEA 090853Z 20003KT 10SM OVC020 17/13 A3013 RMK AO2 SLP208 T01670133 58005=
200908090753 METAR KSEA 090753Z 24004KT 10SM OVC020 17/13 A3014 RMK AO2 SLP210 T01720128 401890128=
200908090653 METAR KSEA 090653Z 00000KT 10SM OVC022 18/13 A3014 RMK AO2 SLP210 T01780128=
200908090553 METAR KSEA 090553Z 15003KT 10SM OVC022 18/12 A3015 RMK AO2 SLP212 T01830122 10183 20172 58001=
200908090453 METAR KSEA 090453Z 19003KT 10SM OVC024 18/12 A3015 RMK AO2 SLP215 T01780122=
200908090409 SPECI KSEA 090409Z 00000KT 10SM OVC026 17/12 A3015 RMK AO2=
200908090409 SPECI KSEA 090409Z 00000KT 10SM OVC026 17/12 A3015 RMK AO2=
200908090353 METAR KSEA 090353Z 00000KT 10SM OVC030 17/12 A3015 RMK AO2 SLP215 T01720122=
200908090351 SPECI KSEA 090351Z 00000KT 10SM OVC030 17/12 A3015 RMK AO2=
200908090351 SPECI KSEA 090351Z 00000KT 10SM OVC030 17/12 A3015 RMK AO2=
200908090253 METAR KSEA 090253Z 20003KT 10SM OVC029 18/12 A3015 RMK AO2 SLP215 T01780122 56008=
200908090153 METAR KSEA 090153Z VRB03KT 10SM OVC025 18/12 A3016 RMK AO2 SLP218 T01780122=
200908090053 METAR KSEA 090053Z 22005KT 10SM OVC027 18/12 A3017 RMK AO2 SLP221 T01780122=
200908082353 METAR KSEA 082353Z 26004KT 10SM FEW025 OVC029 18/12 A3018 RMK AO2 SLP224 T01780122 10189 20172 58004=
200908082334 SPECI KSEA 082334Z VRB04KT 10SM FEW023 OVC029 18/12 A3018 RMK AO2=
200908082334 SPECI KSEA 082334Z VRB04KT 10SM FEW023 OVC029 18/12 A3018 RMK AO2=
200908082253 METAR KSEA 082253Z 25006KT 10SM FEW028 OVC033 18/12 A3018 RMK AO2 SLP226 T01780122=
200908082153 METAR KSEA 082153Z 27007KT 10SM SCT028 OVC035 18/12 A3019 RMK AO2 SLP229 T01830122=
200908082053 METAR KSEA 082053Z 26006KT 10SM BKN028 OVC035 18/12 A3019 RMK AO2 SLP228 T01780117 55001=
200908081953 METAR KSEA 081953Z 19007KT 10SM BKN028 OVC035 18/11 A3019 RMK AO2 SLP228 T01830111=
200908081853 METAR KSEA 081853Z 20007KT 10SM OVC022 18/11 A3019 RMK AO2 SLP227 T01780111=
200908081753 METAR KSEA 081753Z 16008KT 10SM BKN020 BKN070 17/11 A3019=
200908081653 METAR KSEA 081653Z 19009KT 10SM OVC022 16/11 A3019 RMK AO2 SLP230 T01610106=
200908081614 SPECI KSEA 081614Z 21005KT 9SM BKN024 OVC030 16/11 A3020 RMK AO2=
200908081614 SPECI KSEA 081614Z 21005KT 9SM BKN024 OVC030 16/11 A3020 RMK AO2=
200908081553 METAR KSEA 081553Z 19008KT 9SM BKN031 BKN100 16/10 A3019 RMK AO2 SLP229 T01560100=
200908081453 METAR KSEA 081453Z 18005KT 7SM BKN031 BKN100 15/10 A3019 RMK AO2 SLP229 T01500100 51005=
200908081353 METAR KSEA 081353Z 16005KT 10SM OVC031 14/10 A3019 RMK AO2 SLP228 T01440100=
200908081314 SPECI KSEA 081314Z 16004KT 9SM OVC031 14/10 A3019 RMK AO2=
200908081314 SPECI KSEA 081314Z 16004KT 9SM OVC031 14/10 A3019 RMK AO2=
200908081253 METAR KSEA 081253Z 16004KT 10SM BKN025 OVC035 13/10 A3018 RMK AO2 SLP226 T01330100=
200908081153 METAR KSEA 081153Z 17006KT 10SM FEW009 BKN020 BKN025 13/10 A3018 RMK AO2 SLP224 T01330100 10139 20128 50000=
200908081053 METAR KSEA 081053Z 17005KT 10SM SCT009 BKN019 13/10 A3018 RMK AO2 SLP225 T01330100=
200908081043 SPECI KSEA 081043Z 16005KT 10SM SCT009 BKN019 13/10 A3018 RMK AO2=
200908081043 SPECI KSEA 081043Z 16005KT 10SM SCT009 BKN019 13/10 A3018 RMK AO2=
200908080953 METAR KSEA 080953Z 16004KT 10SM FEW009 SCT021 13/10 A3018 RMK AO2 SLP224 T01330100=
200908080946 SPECI KSEA 080946Z 17005KT 10SM FEW009 SCT021 13/10 A3017 RMK AO2=
200908080946 SPECI KSEA 080946Z 17005KT 10SM FEW009 SCT021 13/10 A3017 RMK AO2=
200908080853 METAR KSEA 080853Z 18004KT 10SM BKN021 14/11 A3017 RMK AO2 SLP223 T01390106 51004=
200908080753 METAR KSEA 080753Z 19008KT 10SM FEW020 SCT040 14/11 A3017 RMK AO2 SLP223 T01390106 401830133=
200908080653 METAR KSEA 080653Z 19007KT 10SM FEW020 SCT040 14/11 A3017 RMK AO2 SLP222 T01390106=
200908080553 METAR KSEA 080553Z 20007KT 10SM FEW021 SCT049 14/11 A3016 RMK AO2 SLP220 T01390106 10183 20139 51013=
200908080523 SPECI KSEA 080523Z 20007KT 10SM SCT023 BKN046 14/11 A3016 RMK AO2=
200908080523 SPECI KSEA 080523Z 20007KT 10SM SCT023 BKN046 14/11 A3016 RMK AO2=
200908080453 METAR KSEA 080453Z 22006KT 10SM BKN021 OVC046 15/11 A3016 RMK AO2 SLP217 T01500111=
200908080353 METAR KSEA 080353Z 22008KT 10SM FEW022 BKN034 BKN041 15/12 A3014 RMK AO2 SLP212 T01500122=
200908080336 SPECI KSEA 080336Z 21007KT 10SM FEW022 BKN031 15/12 A3013 RMK AO2=
200908080336 SPECI KSEA 080336Z 21007KT 10SM FEW022 BKN031 15/12 A3013 RMK AO2=
200908080253 METAR KSEA 080253Z 20008KT 10SM BKN022 BKN050 15/12 A3013 RMK AO2 SLP207 T01500122 53011=
200908080153 METAR KSEA 080153Z 23010KT 10SM FEW025 BKN049 16/12 A3011 RMK AO2 SLP202 T01610122=
200908080053 METAR KSEA 080053Z 24009KT 10SM FEW025 BKN049 17/12 A3010 RMK AO2 SLP199 T01720122=
200908072353 METAR KSEA 072353Z 23012KT 10SM FEW025 BKN039 18/12 A3009 RMK AO2 SLP195 T01780117 10183 20156 50002=
200908072253 METAR KSEA 072253Z 21008KT 10SM SCT028 OVC039 17/11 A3009 RMK AO2 SLP196 T01720111=
200908072235 SPECI KSEA 072235Z 21011KT 10SM SCT028 OVC041 18/12 A3009 RMK AO2=
200908072235 SPECI KSEA 072235Z 21011KT 10SM SCT028 OVC041 18/12 A3009 RMK AO2=
200908072153 METAR KSEA 072153Z 23011KT 10SM BKN028 OVC040 18/11 A3009 RMK AO2 SLP194 T01780106=
200908072053 METAR KSEA 072053Z 23007KT 10SM BKN028 OVC040 18/11 A3008 RMK AO2 SLP193 T01780106 51003=
200908071953 METAR KSEA 071953Z 20010KT 10SM FEW020 BKN027 18/11 A3008 RMK AO2 SLP190 T01830106=
200908071853 METAR KSEA 071853Z 21007KT 10SM FEW017 OVC025 17/11 A3008 RMK AO2 SLP192 T01670106=
200908071753 METAR KSEA 071753Z 20006KT 10SM FEW016 BKN027 OVC045 16/11 A3007 RMK AO2 SLP189 T01560106 10156 20133 53008=
200908071653 METAR KSEA 071653Z 23006KT 10SM BKN015 OVC045 16/11 A3007 RMK AO2 SLP187 T01560106=
200908071648 SPECI KSEA 071648Z 20007KT 10SM BKN015 OVC045 15/10 A3007 RMK AO2=
200908071648 SPECI KSEA 071648Z 20007KT 10SM BKN015 OVC045 15/10 A3007 RMK AO2=
200908071621 SPECI KSEA 071621Z 22009KT 10SM SCT013 BKN045 15/10 A3006 RMK AO2=
200908071621 SPECI KSEA 071621Z 22009KT 10SM SCT013 BKN045 15/10 A3006 RMK AO2=
200908071553 METAR KSEA 071553Z 21008KT 10SM BKN013 OVC045 14/10 A3006 RMK AO2 SLP183 T01440100=
200908071453 METAR KSEA 071453Z 21007KT 10SM BKN012 OVC043 14/10 A3005 RMK AO2 SLP181 T01390100 51012=
200908071426 SPECI KSEA 071426Z 23007KT 10SM BKN012 OVC042 14/10 A3005 RMK AO2=
200908071426 SPECI KSEA 071426Z 23007KT 10SM BKN012 OVC042 14/10 A3005 RMK AO2=
200908071353 METAR KSEA 071353Z 22007KT 10SM SCT015 OVC042 14/10 A3004 RMK AO2 SLP178 T01390100=
200908071253 METAR KSEA 071253Z 23006G15KT 10SM FEW016 OVC044 14/10 A3003 RMK AO2 SLP175 T01390100=
200908071153 METAR KSEA 071153Z 19007KT 10SM OVC048 14/11 A3002 RMK AO2 SLP169 T01440106 10156 20144 51004=
200908071053 METAR KSEA 071053Z 20004KT 10SM OVC050 15/11 A3001 RMK AO2 SLP167 T01500106=
200908070953 METAR KSEA 070953Z 21004KT 10SM OVC055 15/11 A3001 RMK AO2 SLP167 T01500106=
200908070853 METAR KSEA 070853Z 20006KT 10SM OVC055 15/11 A3000 RMK AO2 SLP165 T01500106 50002=
200908070753 METAR KSEA 070753Z 19007KT 10SM OVC055 15/11 A3001 RMK AO2 SLP166 T01500106 402110133=
200908070653 METAR KSEA 070653Z 18006KT 10SM BKN055 15/11 A3000 RMK AO2 SLP163 T01500111=
200908070553 METAR KSEA 070553Z 21006KT 10SM SCT050 15/11 A3000 RMK AO2 SLP163 T01500111 10211 20150 51009=
200908070453 METAR KSEA 070453Z 22006KT 10SM SCT050 17/11 A2999 RMK AO2 SLP161 T01670111=
200908070353 METAR KSEA 070353Z 21006KT 10SM BKN049 18/11 A2998 RMK AO2 SLP158 T01780106=
200908070253 METAR KSEA 070253Z 23006KT 10SM BKN047 19/11 A2997=
200908070153 METAR KSEA 070153Z 24007KT 10SM BKN045 19/09 A2997 RMK AO2 SLP152 T01890094=
200908070053 METAR KSEA 070053Z 24009KT 10SM SCT047 20/08 A2996 RMK AO2 SLP152 T02000083=
200908062353 METAR KSEA 062353Z COR 21008KT 10SM SCT045 21/08 A2996 RMK AO2 SLP150 T02060078 10211 20167 55000=
200908062253 METAR KSEA 062253Z 21007G14KT 10SM SCT043 21/08 A2996 RMK AO2 SLP150 T02060078=
200908062153 METAR KSEA 062153Z 21007KT 10SM BKN041 BKN050 21/08 A2996 RMK AO2 SLP150 T02060078=
200908062053 METAR KSEA 062053Z 00000KT 10SM FEW029 BKN038 BKN050 19/09 A2996 RMK AO2 SLP150 T01890089 58003=
200908061953 METAR KSEA 061953Z 29005KT 10SM FEW027 BKN035 OVC045 18/09 A2997 RMK AO2 SLP153 T01780094 $=
200908061853 METAR KSEA 061853Z 26003KT 10SM BKN036 OVC045 17/09 A2997 RMK AO2 SLP155 T01720089 $=
200908061753 METAR KSEA 061753Z 27005KT 10SM FEW020 BKN031 BKN040 17/09 A2997 RMK AO2 SLP153 T01720094 10172 20139 58001 $=
200908061744 SPECI KSEA 061744Z 00000KT 10SM FEW020 BKN031 BKN040 17/10 A2997 RMK AO2 $=
200908061744 SPECI KSEA 061744Z 00000KT 10SM FEW020 BKN031 BKN040 17/10 A2997 RMK AO2 $=
200908061719 SPECI KSEA 061719Z 19003KT 10SM BKN028 BKN040 16/11 A2997 RMK AO2=
200908061719 SPECI KSEA 061719Z 19003KT 10SM BKN028 BKN040 16/11 A2997 RMK AO2=
200908061653 METAR KSEA 061653Z 23004KT 10SM BKN033 BKN045 16/11 A2997 RMK AO2 SLP155 T01610111=
200908061553 METAR KSEA 061553Z 14004KT 9SM BKN030 OVC040 15/11 A2997 RMK AO2 SLP155 T01500106=
200908061547 SPECI KSEA 061547Z 13004KT 9SM BKN030 OVC040 14/11 A2998 RMK AO2=
200908061547 SPECI KSEA 061547Z 13004KT 9SM BKN030 OVC040 14/11 A2998 RMK AO2=
200908061453 METAR KSEA 061453Z 15006KT 9SM BKN028 OVC035 14/11 A2997 RMK AO2 SLP155 T01390106 51004=
200908061353 METAR KSEA 061353Z 14007KT 8SM FEW011 OVC027 14/11 A2997 RMK AO2 SLP154 T01390106=
200908061253 METAR KSEA 061253Z 16003KT 10SM FEW011 OVC023 14/11 A2996 RMK AO2 SLP151 T01390106=
200908061217 SPECI KSEA 061217Z 18003KT 10SM SCT011 OVC025 14/11 A2996 RMK AO2=
200908061217 SPECI KSEA 061217Z 18003KT 10SM SCT011 OVC025 14/11 A2996 RMK AO2=
200908061153 METAR KSEA 061153Z 20004KT 10SM BKN011 BKN015 OVC027 14/11 A2996 RMK AO2 SLP150 T01390106 10150 20133 56003=
200908061053 METAR KSEA 061053Z 17003KT 10SM OVC011 14/11 A2996 RMK AO2 SLP152 T01390111=
200908061026 SPECI KSEA 061026Z 17004KT 10SM BKN011 OVC025 14/11 A2996 RMK AO2=
200908061026 SPECI KSEA 061026Z 17004KT 10SM BKN011 OVC025 14/11 A2996 RMK AO2=
200908060953 METAR KSEA 060953Z 20003KT 10SM SCT012 OVC025 14/12 A2996 RMK AO2 SLP152 T01390117=
200908060932 SPECI KSEA 060932Z 18003KT 10SM BKN012 OVC025 14/11 A2997 RMK AO2=
200908060932 SPECI KSEA 060932Z 18003KT 10SM BKN012 OVC025 14/11 A2997 RMK AO2=
200908060908 SPECI KSEA 060908Z 18003KT 10SM FEW012 BKN025 OVC200 13/11 A2997 RMK AO2=
200908060908 SPECI KSEA 060908Z 18003KT 10SM FEW012 BKN025 OVC200 13/11 A2997 RMK AO2=
200908060853 METAR KSEA 060853Z 17003KT 10SM FEW012 SCT025 OVC200 13/11 A2997 RMK AO2 SLP154 T01330111 53004=
200908060753 METAR KSEA 060753Z 00000KT 10SM BKN200 14/11 A2996 RMK AO2 SLP151 T01390111 402000128=
200908060653 METAR KSEA 060653Z 00000KT 10SM BKN200 14/11 A2996 RMK AO2 SLP151 T01440111=
200908060553 METAR KSEA 060553Z 22004KT 10SM FEW200 15/11 A2996 RMK AO2 SLP150 T01500111 10200 20150 51003=
200908060453 METAR KSEA 060453Z 21004KT 10SM FEW200 17/10 A2996 RMK AO2 SLP150 T01670100=
200908060353 METAR KSEA 060353Z 19003KT 10SM FEW200 18/10 A2995 RMK AO2 SLP146 T01780100=
200908060253 METAR KSEA 060253Z 19005KT 10SM FEW200 19/09 A2995 RMK AO2 SLP146 T01890094 56012=
200908060153 METAR KSEA 060153Z 18004KT 10SM FEW200 19/09 A2995 RMK AO2 SLP148 T01890094=
200908060053 METAR KSEA 060053Z 19008KT 10SM FEW026 SCT200 20/10 A2997 RMK AO2 SLP154 T02000100=
200908052353 METAR KSEA 052353Z VRB03KT 10SM FEW026 SCT200 19/09 A2998 RMK AO2 SLP158 T01890094 10194 20150 58016=
200908052323 SPECI KSEA 052323Z 16009KT 10SM SCT026 SCT200 19/10 A2999 RMK AO2=
200908052323 SPECI KSEA 052323Z 16009KT 10SM SCT026 SCT200 19/10 A2999 RMK AO2=
200908052253 METAR KSEA 052253Z 16005KT 10SM BKN024 BKN200 18/10 A3000 RMK AO2 SLP165 T01780100=
200908052153 METAR KSEA 052153Z 20006KT 10SM OVC022 17/10 A3002 RMK AO2 SLP171 T01670100=
200908052053 METAR KSEA 052053Z 24005KT 10SM OVC020 16/10 A3003 RMK AO2 SLP174 T01610100 58005=
200908051953 METAR KSEA 051953Z 21005KT 10SM OVC018 16/10 A3004 RMK AO2 SLP177 T01560100=
200908051853 METAR KSEA 051853Z 21007KT 9SM OVC016 16/10 A3005 RMK AO2 SLP180 T01560100=
200908051753 METAR KSEA 051753Z 21008KT 9SM OVC016 15/10 A3004 RMK AO2 SLP179 T01500100 10150 20133 57001=
200908051653 METAR KSEA 051653Z 20004KT 8SM OVC015 14/10 A3004 RMK AO2 SLP179 T01440100=
200908051553 METAR KSEA 051553Z VRB06KT 8SM OVC015 14/10 A3005 RMK AO2 SLP180 T01440100=
200908051453 METAR KSEA 051453Z 19005KT 8SM OVC015 14/10 A3005 RMK AO2 SLP180 T01390100 58001=
200908051353 METAR KSEA 051353Z 16005KT 9SM OVC015 14/10 A3005 RMK AO2 SLP181 T01390100=
200908051300 SPECI KSEA 051300Z 21005KT 10SM OVC017 13/10 A3005 RMK AO2 $=
200908051300 SPECI KSEA 051300Z 21005KT 10SM OVC017 13/10 A3005 RMK AO2 $=
200908051253 METAR KSEA 051253Z 21006KT 10SM BKN014 OVC019 13/10 A3005 RMK AO2 SLP181 T01330100 $=
200908051153 METAR KSEA 051153Z 20005KT 10SM OVC012 13/11 A3005 RMK AO2 SLP180 T01330106 10150 20128 53008 $=
200908051116 SPECI KSEA 051116Z 22006KT 10SM OVC012 13/10 A3005 RMK AO2 $=
200908051116 SPECI KSEA 051116Z 22006KT 10SM OVC012 13/10 A3005 RMK AO2 $=
200908051053 METAR KSEA 051053Z 22005KT 10SM OVC015 13/10 A3004 RMK AO2 SLP178 T01330100 $=
200908051008 SPECI KSEA 051008Z 00000KT 10SM BKN015 13/11 A3003 RMK AO2 $=
200908051008 SPECI KSEA 051008Z 00000KT 10SM BKN015 13/11 A3003 RMK AO2 $=
200908050953 METAR KSEA 050953Z 20003KT 10SM SCT015 BKN200 13/10 A3003 RMK AO2 SLP174 T01280100 $=
200908050937 SPECI KSEA 050937Z 22004KT 10SM BKN015 13/11 A3003 RMK AO2 $=
200908050937 SPECI KSEA 050937Z 22004KT 10SM BKN015 13/11 A3003 RMK AO2 $=
200908050853 METAR KSEA 050853Z 21005KT 10SM FEW220 13/10 A3003 RMK AO2 SLP173 T01330100 50001 $=
200908050753 METAR KSEA 050753Z 20006KT 10SM CLR 13/11 A3003 RMK AO2 SLP176 T01330106 402280133 $=
200908050653 METAR KSEA 050653Z 21004KT 10SM CLR 14/11 A3003 RMK AO2 SLP174 T01390106 $=
200908050553 METAR KSEA 050553Z 24005KT 10SM CLR 15/11 A3002 RMK AO2 SLP171 T01500106 10228 20150 51013 $=
200908050453 METAR KSEA 050453Z 24006KT 10SM FEW250 16/11 A3001 RMK AO2 SLP169 T01610111 $=
200908050353 METAR KSEA 050353Z 26007KT 10SM FEW250 17/11 A3000 RMK AO2 SLP163 T01720111 $=
200908050253 METAR KSEA 050253Z 10SM SCT250 20/12 A2998 RMK AO2 SLP158 T02000117 55000 $=
200908050153 METAR KSEA 050153Z 23007KT 10SM SCT250 21/12 A2997 RMK AO2 SLP152 T02110122 $=
200908050053 METAR KSEA 050053Z 25006KT 10SM BKN250 23/12 A2997 RMK AO2 SLP154 T02280117 $=
200908042353 METAR KSEA 042353Z 22005KT 10SM BKN250 22/11 A2998 RMK AO2 SLP157 T02220111 10228 20161 56007 $=
200908042253 METAR KSEA 042253Z 23005KT 10SM BKN250 22/11 A2999 RMK AO2 SLP159 T02170106 $=
200908042153 METAR KSEA 042153Z 22009KT 10SM FEW180 BKN250 22/11 A2999 RMK AO2 SLP160 T02170106 $=
200908042053 METAR KSEA 042053Z 20010KT 10SM FEW150 SCT250 21/11 A3000 RMK AO2 SLP164 T02060111 56007 $=
200908041953 METAR KSEA 041953Z 18007KT 10SM FEW150 SCT250 19/11 A3000 RMK AO2 SLP164 T01940111 $=
200908041853 METAR KSEA 041853Z VRB04KT 10SM SCT018 SCT250 17/11 A3001 RMK AO2 SLP169 T01720111 $=
200908041848 SPECI KSEA 041848Z 23006KT 10SM SCT018 SCT250 17/11 A3001 RMK AO2 $=
200908041848 SPECI KSEA 041848Z 23006KT 10SM SCT018 SCT250 17/11 A3001 RMK AO2 $=
200908041800 SPECI KSEA 041800Z 24008KT 10SM OVC015 17/11 A3002 RMK AO2 $=
200908041800 SPECI KSEA 041800Z 24008KT 10SM OVC015 17/11 A3002 RMK AO2 $=
200908041753 METAR KSEA 041753Z 24007KT 10SM OVC014 16/11 A3002 RMK AO2 SLP172 T01610106 10161 20133 51005 $=
200908041701 SPECI KSEA 041701Z 23008KT 10SM OVC010 15/11 A3002 RMK AO2 $=
200908041701 SPECI KSEA 041701Z 23008KT 10SM OVC010 15/11 A3002 RMK AO2 $=
200908041653 METAR KSEA 041653Z 23007KT 10SM OVC009 15/11 A3002 RMK AO2 SLP170 T01500111 $=
200908041553 METAR KSEA 041553Z 20008KT 9SM OVC008 15/12 A3001 RMK AO2 SLP168 T01500117 $=
200908041453 METAR KSEA 041453Z 20008KT 10SM OVC007 14/12 A3001 RMK AO2 SLP165 T01440117 53012 $=
200908041353 METAR KSEA 041353Z 22005KT 10SM OVC006 14/12 A2999 RMK AO2 SLP160 T01440117 $=
200908041253 METAR KSEA 041253Z 22006KT 10SM OVC006 14/12 A2997 RMK AO2 SLP153 T01390117 $=
200908041153 METAR KSEA 041153Z 21006KT 10SM OVC006 13/12 A2997 RMK AO2 SLP153 T01330117 10183 20133 51008 $=
200908041112 SPECI KSEA 041112Z 21006KT 10SM BKN006 13/12 A2996 RMK AO2 $=
200908041112 SPECI KSEA 041112Z 21006KT 10SM BKN006 13/12 A2996 RMK AO2 $=
200908041102 SPECI KSEA 041102Z 22005KT 10SM SCT006 13/12 A2997 RMK AO2 $=
200908041102 SPECI KSEA 041102Z 22005KT 10SM SCT006 13/12 A2997 RMK AO2 $=
200908041053 METAR KSEA 041053Z 21005KT 10SM FEW010 13/12 A2996 RMK AO2 SLP151 T01330117 $=
200908040953 METAR KSEA 040953Z 20005KT 10SM CLR 14/11 A2995 RMK AO2 SLP147 T01390111 $=
200908040853 METAR KSEA 040853Z 20003KT 10SM CLR 14/11 A2995 RMK AO2 SLP144 T01440111 51006 $=
200908040753 METAR KSEA 040753Z 22005KT 10SM CLR 16/11 A2994 RMK AO2 SLP143 T01560111 402830133 $=
200908040653 METAR KSEA 040653Z 21004KT 10SM CLR 17/11 A2993 RMK AO2 SLP141 T01670111 $=
200908040553 METAR KSEA 040553Z 25004KT 10SM CLR 18/11 A2993 RMK AO2 SLP138 T01830106 10283 20183 53014 $=
200908040453 METAR KSEA 040453Z 24005KT 10SM FEW250 20/11 A2991 RMK AO2 SLP134 T02000106 $=
200908040353 METAR KSEA 040353Z 24008KT 10SM FEW250 22/12 A2989 RMK AO2 SLP127 T02220122 $=
200908040253 METAR KSEA 040253Z 26006KT 10SM FEW250 25/12 A2989 RMK AO2 SLP124 T02500117 56006 $=
200908040153 METAR KSEA 040153Z 24005KT 10SM FEW250 27/11 A2989 RMK AO2 SLP124 T02720111 $=
200908040053 METAR KSEA 040053Z VRB06KT 10SM FEW250 28/11 A2990 RMK AO2 SLP129 T02780106 $=
200908032353 METAR KSEA 032353Z 18007KT 10SM CLR 27/11 A2990 RMK AO2 SLP130 T02720106 10278 20189 56010 $=
200908032253 METAR KSEA 032253Z VRB05KT 10SM CLR 27/09 A2991 RMK AO2 SLP132 T02670089 $=
200908032153 METAR KSEA 032153Z 23010KT 190V250 10SM FEW250 26/09 A2992 RMK AO2 SLP136 T02560089 $=
200908032053 METAR KSEA 032053Z 22007KT 10SM CLR 24/11 A2993 RMK AO2 SLP140 T02440111 56009 $=
200908031953 METAR KSEA 031953Z 21008KT 10SM CLR 22/12 A2994 RMK AO2 SLP142 T02220117=
200908031853 METAR KSEA 031853Z 26008KT 10SM FEW250 21/12 A2995 RMK AO2 SLP146 T02060117=
200908031753 METAR KSEA 031753Z 20006KT 10SM SCT250 19/12 A2996 RMK AO2 SLP149 T01890117 10189 20133 58002=
200908031653 METAR KSEA 031653Z VRB06KT 10SM SCT250 17/11 A2997 RMK AO2 SLP151 T01670111=
200908031553 METAR KSEA 031553Z 19006KT 10SM R16C/6000VP6000FT FEW012 SCT250 16/11 A2997 RMK AO2 SLP152 T01560111 $=
200908031453 METAR KSEA 031453Z 22008KT 10SM FEW009 BKN250 14/11 A2997 RMK AO2 SLP150 T01440111 53009 $=
200908031353 METAR KSEA 031353Z 20006KT 10SM FEW008 SCT120 BKN220 13/11 A2995 RMK AO2 SLP145 T01330111 $=
200908031253 METAR KSEA 031253Z 21005KT 10SM FEW008 OVC250 13/11 A2994 RMK AO2 SLP143 T01330111 $=
200908031153 METAR KSEA 031153Z 20006KT 10SM CLR 14/12 A2994 RMK AO2 SLP141 T01390117 10222 20139 51005 $=
200908031053 METAR KSEA 031053Z 17005KT 10SM CLR 14/12 A2993 RMK AO2 SLP139 T01390117 $=
200908030953 METAR KSEA 030953Z 20004KT 10SM FEW250 14/12 A2994 RMK AO2 SLP141 T01440117 $=
200908030853 METAR KSEA 030853Z 19007KT 10SM FEW250 16/12 A2993 RMK AO2 SLP137 T01560122 51011 $=
200908030753 METAR KSEA 030753Z 20009KT 10SM SCT250 17/13 A2992 RMK AO2 SLP134 T01670128 403170156 $=
200908030653 METAR KSEA 030653Z 20009KT 10SM FEW250 19/14 A2990 RMK AO2 SLP129 T01890139 $=
200908030553 METAR KSEA 030553Z 23004KT 10SM SCT250 22/14 A2989 RMK AO2 SLP126 T02220139 10317 20217 53014 $=
200908030453 METAR KSEA 030453Z 26006KT 10SM CLR 23/13 A2987 RMK AO2 SLP119 T02280133 $=
200908030353 METAR KSEA 030353Z 25003KT 10SM FEW240 27/14 A2986 RMK AO2 SLP114 T02670144 $=
200908030253 METAR KSEA 030253Z 34005KT 10SM FEW240 29/14 A2985 RMK AO2 SLP111 T02940139 56008 $=
200908030153 METAR KSEA 030153Z 29004KT 10SM CLR 31/13 A2985 RMK AO2 SLP112 T03110128 $=
200908030053 METAR KSEA 030053Z 31004KT 10SM CLR 32/13 A2986 RMK AO2 SLP114 T03170133 $=
200908022353 METAR KSEA 022353Z 30004KT 10SM CLR 32/12 A2987 RMK AO2 SLP120 T03170122 10317 20233 58014 $=
200908022253 METAR KSEA 022253Z 27005KT 10SM FEW240 31/12 A2989 RMK AO2 SLP126 T03110117 $=
200908022153 METAR KSEA 022153Z 28007KT 10SM FEW240 31/13 A2991 RMK AO2 SLP131 T03110128 $=
200908022053 METAR KSEA 022053Z 29006KT 10SM FEW220 29/13 A2992 RMK AO2 SLP134 T02940133 56015 $=
200908021953 METAR KSEA 021953Z 28006KT 10SM FEW230 28/14 A2993 RMK AO2 SLP137 T02780144 $=
200908021853 METAR KSEA 021853Z 29005KT 10SM FEW240 26/14 A2995 RMK AO2 SLP145 T02560144 $=
200908021753 METAR KSEA 021753Z 26005KT 10SM FEW230 23/14 A2996 RMK AO2 SLP149 T02330144 10239 20156 50002 $=
200908021653 METAR KSEA 021653Z 00000KT 10SM SCT210 19/14 A2996 RMK AO2 SLP150 T01940139 $=
200908021553 METAR KSEA 021553Z 25004KT 10SM SCT220 18/14 A2996 RMK AO2 SLP149 T01830139 $=
200908021453 METAR KSEA 021453Z 28003KT 10SM FEW120 BKN200 17/14 A2996 RMK AO2 SLP147 T01670139 53005 $=
200908021353 METAR KSEA 021353Z 00000KT 10SM FEW120 BKN200 16/13 A2995 RMK AO2 SLP145 T01610133 $=
200908021253 METAR KSEA 021253Z COR 00000KT 10SM SCT120 16/13 A2994 RMK AO2 SLP143 T01610133 $=
200908021153 METAR KSEA 021153Z 01003KT 10SM FEW070 17/13 A2994 RMK AO2 SLP142 T01720133 10239 20161 50004 $=
200908021053 METAR KSEA 021053Z 00000KT 10SM CLR 16/13 A2995 RMK AO2 SLP145 T01610133 $=
200908020953 METAR KSEA 020953Z 00000KT 10SM CLR 18/14 A2994 RMK AO2 SLP141 T01780139 $=
200908020853 METAR KSEA 020853Z 00000KT 10SM FEW200 18/13 A2993 RMK AO2 SLP138 T01830133 50001 $=
200908020753 METAR KSEA 020753Z 04006KT 10SM FEW200 24/13 A2993 RMK AO2 SLP139 T02390128 403220139 $=
200908020653 METAR KSEA 020653Z 05005KT 10SM FEW200 23/14 A2994 RMK AO2 SLP142 T02330139 $=
200908020553 METAR KSEA 020553Z 36009KT 10SM FEW200 23/13 A2993 RMK AO2 SLP137 T02280128 10322 20217 53011 $=
200908020453 METAR KSEA 020453Z 35008KT 10SM FEW200 23/13 A2991 RMK AO2 SLP134 T02330128 $=
200908020353 METAR KSEA 020353Z 33007KT 10SM FEW160 SCT200 24/12 A2990 RMK AO2 SLP129 T02440117 $=
200908020253 METAR KSEA 020253Z 34007KT 10SM FEW140 28/13 A2989 RMK AO2 SLP127 T02830128 55009 $=
200908020153 METAR KSEA 020153Z 35009KT 10SM FEW140 31/12 A2989 RMK AO2 SLP124 T03110117 $=
200908020053 METAR KSEA 020053Z VRB05KT 10SM FEW160 32/13 A2990 RMK AO2 SLP128 T03170128 $=
200908012353 METAR KSEA 012353Z 29008KT 10SM FEW160 31/14 A2992 RMK AO2 SLP135 T03110139 10311 20206 58016 $=
200908012253 METAR KSEA 012253Z 29007KT 10SM FEW160 30/14 A2994 RMK AO2 SLP141 T03000139=
200908012153 METAR KSEA 012153Z 29008KT 10SM FEW160 29/14 A2995 RMK AO2 SLP147 T02890144=
200908012053 METAR KSEA 012053Z 28005KT 10SM SCT160 27/14 A2997 RMK AO2 SLP152 T02670144 56011=
200908011953 METAR KSEA 011953Z 29007KT 10SM SCT160 24/14 A2997 RMK AO2 SLP155 T02440139=
200908011911 SPECI KSEA 011911Z 27007KT 10SM SCT150 23/14 A2999 RMK AO2=
200908011911 SPECI KSEA 011911Z 27007KT 10SM SCT150 23/14 A2999 RMK AO2=
200908011853 METAR KSEA 011853Z 28006KT 10SM SCT140 22/14 A2999 RMK AO2 SLP159 T02170139=
200908011753 METAR KSEA 011753Z 27003KT 10SM FEW002 SCT120 20/14 A3000 RMK AO2 SLP164 T02000144 10200 20139 50000=
200908011653 METAR KSEA 011653Z 00000KT 10SM FEW002 16/13 A3001 RMK AO2 SLP166 T01610133=
200908011636 SPECI KSEA 011636Z 23003KT 1 1/2SM BR BKN002 16/13 A3001 RMK AO2 SFC VIS 5 VIS N-E 10=
200908011636 SPECI KSEA 011636Z 23003KT 1 1/2SM BR BKN002 16/13 A3001 RMK AO2 SFC VIS 5 VIS N-E 10=
200908011553 METAR KSEA 011553Z 20005KT 1/4SM BR OVC002 14/13 A3001 RMK AO2 SFC VIS 3 CIG 001V005 SLP166 T01440133=
200908011453 METAR KSEA 011453Z 21003KT 1/4SM BR OVC002 14/13 A3000 RMK AO2 SFC VIS 2 SLP163 T01390133 51005=
200908011440 SPECI KSEA 011440Z 21004KT 1/4SM R16C/4000VP6000FT BR OVC002 14/13 A3000 RMK AO2 SFC VIS 2=
200908011440 SPECI KSEA 011440Z 21004KT 1/4SM R16C/4000VP6000FT BR OVC002 14/13 A3000 RMK AO2 SFC VIS 2=
200908011428 SPECI KSEA 011428Z 19005KT 1 1/2SM R16C/2200VP6000FT BR SCT002 14/13 A3001 RMK AO2 SFC VIS 5 VIS N-E 10=
200908011428 SPECI KSEA 011428Z 19005KT 1 1/2SM R16C/2200VP6000FT BR SCT002 14/13 A3001 RMK AO2 SFC VIS 5 VIS N-E 10=
200908011405 SPECI KSEA 011405Z 19004KT 2SM BR SCT004 15/13 A3000 RMK AO2 SFC VIS 4=
200908011405 SPECI KSEA 011405Z 19004KT 2SM BR SCT004 15/13 A3000 RMK AO2 SFC VIS 4=
200908011353 METAR KSEA 011353Z 20003KT 2 1/2SM R16C/4000VP6000FT BR FEW002 SCT004 14/14 A3000 RMK AO2 SLP163 VIS NW 1/2 T01440139=
200908011350 SPECI KSEA 011350Z 00000KT 2 1/2SM R16C/4000VP6000FT BR FEW002 SCT004 14/13 A3000 RMK AO2 VIS NW 1/2=
200908011350 SPECI KSEA 011350Z 00000KT 2 1/2SM R16C/4000VP6000FT BR FEW002 SCT004 14/13 A3000 RMK AO2 VIS NW 1/2=
200908011253 METAR KSEA 011253Z 19005KT 10SM FEW009 SCT120 SCT220 14/13 A2999 RMK AO2 SLP159 T01440133=
200908011153 METAR KSEA 011153Z 19006KT 10SM FEW220 16/13 A2998 RMK AO2 SLP154 T01560133 10206 20156 50004=
200908011053 METAR KSEA 011053Z 18003KT 10SM CLR 16/14 A2998 RMK AO2 SLP155 T01610139=
200908010953 METAR KSEA 010953Z 00000KT 10SM CLR 17/14 A2997 RMK AO2 SLP153 T01720139=
200908010853 METAR KSEA 010853Z 00000KT 10SM CLR 18/14 A2997 RMK AO2 SLP151 T01830139 51009=
200908010753 METAR KSEA 010753Z 27003KT 10SM CLR 18/13 A2996 RMK AO2 SLP150 T01780133 402890144=
200908010653 METAR KSEA 010653Z 00000KT 10SM CLR 19/14 A2995 RMK AO2 SLP146 T01890139=
200908010553 METAR KSEA 010553Z 30003KT 10SM CLR 21/14 A2994 RMK AO2 SLP143 T02060144 10283 20206 51009=
200908010453 METAR KSEA 010453Z 00000KT 10SM FEW250 23/15 A2993 RMK AO2 SLP141 T02280150=
200908010353 METAR KSEA 010353Z 35003KT 10SM SCT250 26/14 A2992 RMK AO2 SLP136 T02560144=
200908010253 METAR KSEA 010253Z 30005KT 10SM FEW060 SCT250 27/15 A2991 RMK AO2 SLP133 T02670150 55004=
200908010153 METAR KSEA 010153Z 28007KT 10SM FEW060 SCT250 28/15 A2991 RMK AO2 SLP131 CB DSNT SE T02780150=
200908010053 METAR KSEA 010053Z 28006KT 10SM FEW060 SCT250 28/15 A2991 RMK AO2 SLP133 CB DSNT SE T02780150=

# No short TAF reports from KSEA in databse.

###################################
#  large TAF from KSEA
###################################
200908312337 TAF KSEA 312337Z 0100/0206 21008KT P6SM SKC FM010300 VRB03KT P6SM
                       SKC FM011100 VRB03KT 1SM BR OVC002 FM011300
                       VRB03KT 1/2SM FG OVC001 FM011700 VRB03KT
                       5SM BR BKN008 FM011900 VRB04KT P6SM FEW012
                       FM012200 31004KT P6SM SCT250=
200908311917 KSEA 311917Z 3119/0124 00000KT 5SM BR BKN005 FM312000 32004KT P6SM
                       SCT009
                      TEMPO 3120/3121 BKN009 FM312100 33007KT P6SM
                       SKC FM010300 VRB03KT P6SM SKC FM011300 VRB03KT
                       1SM BR OVC002 FM011700 VRB03KT 5SM BR BKN008
                       FM011800 VRB04KT P6SM SKC=
200908311735 TAF KSEA 311735Z 3118/0124 00000KT 5SM BR BKN005
                      TEMPO 3118/3119 P6SM NSW SCT006 FM311900
                       32004KT P6SM SCT009 FM312100 33007KT P6SM
                       SKC FM010300 VRB03KT P6SM SKC FM011300 VRB03KT
                       1SM BR OVC002 FM011700 VRB03KT 5SM BR BKN008
                       FM011800 VRB04KT P6SM SKC=
200908311410 KSEA 311410Z 3114/0118 31003KT 1/4SM FG VV001 FM311700 VRB03KT
                       3SM BR BKN004 FM311800 28005KT P6SM FEW010
                       FM312000 32008KT P6SM SKC FM010300 VRB03KT
                       P6SM SKC FM011300 VRB03KT 3SM BR BKN005=
200908310523 TAF KSEA 310523Z 3106/0112 VRB02KT P6SM SKC FM311300 VRB03KT P6SM
                       OVC005
                      TEMPO 3113/3117 2SM BR FM311800 28005KT P6SM
                       FEW010 FM312000 32008KT P6SM SKC FM010300
                       VRB03KT P6SM SKC=
200908302320 TAF KSEA 302320Z 3100/0106 33005KT P6SM SKC FM310300 36005KT P6SM
                       SKC FM311300 VRB03KT P6SM SCT006
                      TEMPO 3113/3116 3SM BR BKN006 FM311700 26005KT
                       P6SM SKC FM312100 30005KT P6SM SKC=
200908301740 TAF KSEA 301740Z 3018/3124 34005KT P6SM BKN006
                      TEMPO 3018/3019 SCT006 FM301900 33005KT P6SM
                       SKC FM302300 36005KT P6SM SKC FM311300 VRB03KT
                       P6SM SCT008 FM311700 26004KT P6SM SKC=
200908301629 KSEA 301629Z 3016/3118 34006KT P6SM BKN006
                      TEMPO 3016/3018 2SM BR BKN003 FM301830 33005KT
                       P6SM SKC FM302300 36005KT P6SM SKC FM311100
                       VRB03KT P6SM SCT010 FM311700 26004KT P6SM
                       SKC=
200908301441 KSEA 301441Z 3015/3118 VRB03KT P6SM SCT008
                      TEMPO 3015/3017 1SM BR BKN002 OVC008 FM301730
                       33005KT P6SM SKC FM302300 36005KT P6SM SKC
                       FM311100 VRB03KT P6SM SCT010 FM311700 26004KT
                       P6SM SKC=
200908301138 TAF KSEA 301138Z 3012/3118 01005KT P6SM FEW003 FM301300 01005KT
                       3SM BR BKN003
                      TEMPO 3013/3016 1SM BR BKN001 FM301700 33005KT
                       P6SM SKC FM311100 01005KT P6SM SCT010=
200908300522 TAF KSEA 300522Z 3006/3112 31004KT P6SM SCT035
                      TEMPO 3006/3009 BKN035 FM301100 01004KT P6SM
                       BKN005
                      TEMPO 3012/3016 1SM BR BKN002 FM301700 27004KT
                       P6SM SKC FM311100 01004KT P6SM SCT010=
200908292339 TAF KSEA 292339Z 3000/3106 27006KT P6SM BKN035
                      TEMPO 3001/3002 SCT035 FM300200 30005KT P6SM
                       SCT040 FM300400 01005KT P6SM SKC FM301200
                       03003KT P6SM BKN004
                      TEMPO 3012/3016 1SM BR BKN002 FM301700 27004KT
                       P6SM SKC=
200908291749 TAF KSEA 291749Z 2918/3024 VRB03KT P6SM BKN012 OVC025
                      TEMPO 2918/2919 3SM BR BKN004 OVC010 FM292000
                       24005KT P6SM SCT012 OVC025 FM292200 28006KT
                       P6SM SCT020 BKN030 FM292300 31006KT P6SM
                       BKN040 FM300200 01005KT P6SM SCT045 FM301200
                       03003KT P6SM BKN007 FM301700 28003KT P6SM
                       SCT010 SCT200=
200908291713 KSEA 291713Z 2917/3018 VRB03KT 6SM BR OVC009
                      TEMPO 2917/2918 1 1/2SM BR BKN004 OVC009
                       FM292000 24005KT P6SM SCT010 OVC015 FM292200
                       28006KT P6SM SCT020 BKN030 FM292300 31006KT
                       P6SM BKN040 FM300500 01005KT P6SM SCT025
                       SCT045
                      TEMPO 3008/3012 BKN025 BKN045 FM301200 VRB03KT
                       P6SM OVC008=
200908291431 KSEA 291431Z 2915/3018 VRB03KT 4SM -RA BR OVC004
                      TEMPO 2915/2916 1SM -RA BR OVC002 FM291600
                       20006KT P6SM VCSH SCT008 OVC010 FM291900
                       24006KT P6SM OVC025 FM292100 26004KT P6SM
                       BKN035 BKN060 FM300500 VRB03KT P6SM SCT025
                       SCT045
                      TEMPO 3008/3012 BKN025 BKN045 FM301200 VRB03KT
                       P6SM OVC008=
200908291120 TAF KSEA 291120Z 2912/3018 18005KT 4SM RA BR OVC002 FM291400 20006KT
                       P6SM VCSH SCT008 OVC012 FM291900 24006KT
                       P6SM OVC025 FM292100 26004KT P6SM BKN035
                       BKN060 FM300500 VRB03KT P6SM SCT025 SCT045
                       TEMPO 3008/3012 BKN025 BKN045 FM301200 VRB03KT
                       P6SM OVC008=
200908290533 TAF KSEA 290533Z 2906/3012 17007KT P6SM -SHRA BKN060 OVC110 FM291000
                       20006KT P6SM -SHRA BKN012 OVC045 FM291900
                       24006KT P6SM OVC025 FM292200 26004KT P6SM
                       BKN035 BKN060 FM300200 VRB03KT P6SM BKN035
                       BKN060 FM300500 VRB03KT P6SM SCT025 SCT045
                       TEMPO 3008/3012 BKN025 BKN045=
200908282333 TAF KSEA 282333Z 2900/3006 24008KT P6SM BKN120 OVC200 FM290400
                       21006KT P6SM SCT060 OVC100
                      TEMPO 2904/2908 -SHRA BKN060 OVC100 FM290800
                       20005KT P6SM VCSH BKN012 OVC045 FM291300
                       19003KT P6SM BKN008 OVC012 FM291800 23004KT
                       P6SM OVC018 FM292100 30005KT P6SM OVC030
                       FM300000 34007KT P6SM BKN040=
200908281741 TAF KSEA 281741Z 2818/2924 25004KT P6SM SCT120 BKN200 FM282100
                       24006KT P6SM SCT120 BKN200 FM290000 24005KT
                       P6SM BKN120 BKN200 FM290800 22003KT P6SM
                       VCSH BKN015 BKN080 FM291100 19003KT P6SM
                       VCSH OVC012 FM291800 23004KT P6SM OVC020=
200908280526 TAF KSEA 280526Z 2806/2912 VRB03KT P6SM SCT200 FM281000 20005KT
                       P6SM SCT200 FM282000 24007KT P6SM SCT060
                       BKN120 FM290300 21007KT P6SM VCSH BKN040
                       BKN100 FM290900 21005KT P6SM -SHRA OVC015=
200908272320 TAF KSEA 272320Z 2800/2906 VRB04KT P6SM SKC FM281000 21007KT P6SM
                       SCT120 SCT200 FM282000 VRB05KT P6SM SCT040
                       BKN120 FM290200 21010KT P6SM VCSH BKN040
                       BKN100=
200908271720 TAF KSEA 271720Z 2718/2824 VRB04KT P6SM SKC FM281000 21007KT P6SM
                       SCT120 SCT200=
200908271120 TAF KSEA 271120Z 2712/2818 00000KT P6SM SKC FM271900 32007KT P6SM
                       SKC FM280400 22006KT P6SM SKC=
200908270524 TAF KSEA 270524Z 2706/2812 33007KT P6SM BKN200 FM270800 05005KT
                       P6SM BKN200 FM271400 VRB04KT P6SM SKC FM271900
                       32007KT P6SM SKC FM280400 22006KT P6SM SKC=
200908262320 TAF KSEA 262320Z 2700/2806 34007KT P6SM BKN250 FM270600 04006KT
                       P6SM SCT250 FM271600 VRB04KT P6SM SKC=
200908261720 TAF KSEA 261720Z 2618/2724 36006KT P6SM BKN250 FM270600 VRB04KT
                       P6SM SKC=
200908261558 KSEA 261558Z 2616/2718 03007KT P6SM BKN250 FM270600 VRB04KT P6SM
                       SKC=
200908261140 TAF KSEA 261140Z 2612/2718 03005KT P6SM VCFG SCT200 FM261800 34006KT
                       P6SM SCT200 FM270600 VRB03KT P6SM SKC=
200908260523 TAF KSEA 260523Z 2606/2712 36006KT P6SM SCT250 FM261200 03005KT
                       P6SM VCFG SCT250 FM261800 34006KT P6SM SCT250
                       FM270600 VRB03KT P6SM SKC=
200908252331 TAF KSEA 252331Z 2600/2706 30006KT P6SM FEW030 BKN250 FM260200
                       32006KT P6SM SCT250 FM260600 02005KT P6SM
                       SKC FM261200 03005KT P6SM VCFG SKC FM261800
                       35006KT P6SM SKC=
200908251733 TAF KSEA 251733Z 2518/2624 16008KT P6SM SCT008 BKN016
                      TEMPO 2519/2520 SCT018 SCT045 FM252000 24008KT
                       P6SM SCT025 SCT045
                      TEMPO 2520/2521 BKN025 BKN045 FM260200 30006KT
                       P6SM SCT050 FM260600 02005KT P6SM SKC FM261200
                       03005KT P6SM VCFG SKC FM261800 35006KT P6SM
                       SKC=
200908251516 KSEA 251516Z 2515/2618 19010KT 6SM BR FEW005 SCT012 OVC028
                      TEMPO 2515/2517 2SM -RA BR BKN005 OVC012
                       FM251700 21010KT P6SM SCT020 OVC030
                      TEMPO 2517/2519 BKN020 OVC040 FM252000 24008KT
                       P6SM SCT035 BKN060 FM260000 30006KT P6SM
                       SCT060 FM260600 02005KT P6SM SKC=
200908251350 KSEA 251350Z 2514/2618 19010KT 6SM -RA BR FEW004 SCT012 OVC028
                       TEMPO 2514/2516 2SM -RA BR FEW004 OVC012
                       FM251600 21010KT P6SM SCT020 OVC040
                      TEMPO 2516/2518 BKN020 OVC040 FM251800 24008KT
                       P6SM SCT035 BKN060 FM260000 30006KT P6SM
                       SCT060 FM260600 02005KT P6SM SKC=
200908251140 TAF KSEA 251140Z 2512/2618 19010KT P6SM SCT012 BKN025 OVC045
                      TEMPO 2513/2517 4SM -RA BR BKN012 OVC025
                       FM251900 20008KT P6SM BKN025 OVC045 FM252100
                       22007KT P6SM BKN045 BKN100 FM260000 30006KT
                       P6SM SCT045 FM260600 02005KT P6SM SKC=
200908250526 TAF KSEA 250526Z 2506/2612 20006KT P6SM BKN200 FM250800 20007KT
                       P6SM BKN120 OVC200 FM251000 20008KT P6SM
                       SCT045 OVC100 FM251200 19010KT P6SM VCSH
                       BKN012 OVC045 FM251900 20008KT P6SM BKN025
                       OVC045 FM252100 22007KT P6SM BKN045 BKN100
                       FM260000 30006KT P6SM SCT045=
200908242341 TAF KSEA 242341Z 2500/2606 25005KT P6SM FEW200 FM250700 21007KT
                       P6SM BKN120 OVC200 FM251000 20007KT P6SM
                       SCT050 OVC100 FM251400 18006KT P6SM BKN028
                       OVC045
                      PROB30 2514/2518 -RA FM252100 22007KT P6SM
                       BKN045 BKN100=
200908241740 TAF KSEA 241740Z 2418/2524 VRB04KT P6SM FEW250 FM242000 25006KT
                       P6SM SCT250 FM250600 21007KT P6SM BKN120
                       OVC200 FM251000 20007KT P6SM SCT050 OVC100
                       FM251400 18006KT P6SM BKN028 OVC045
                      PROB30 2514/2518 -RA FM252000 22007KT P6SM
                       BKN045 BKN100=
200908241136 TAF KSEA 241136Z 2412/2518 01005KT P6SM SKC FM242000 VRB04KT P6SM
                       SCT250 FM250600 20007KT P6SM BKN120 OVC200
                       FM251300 20007KT P6SM SCT050 OVC100=
200908240525 TAF KSEA 240525Z 2406/2512 35007KT P6SM FEW050 FM242000 VRB04KT
                       P6SM SCT250 FM250700 20007KT P6SM BKN120
                       OVC200=
200908232320 TAF KSEA 232320Z 2400/2506 34008KT P6SM SCT040 FM240400 VRB04KT
                       P6SM SKC FM242000 VRB04KT P6SM BKN200=
200908232014 KSEA 232014Z 2320/2424 32006KT P6SM SCT050 FM240400 02006KT P6SM
                       SKC=
200908231720 TAF KSEA 231720Z 2318/2424 VRB04KT P6SM BKN040 FM232200 34006KT
                       P6SM SCT050 FM240400 02006KT P6SM SKC=
200908231459 KSEA 231459Z 2315/2418 VRB03KT P6SM SCT027 BKN060
                      TEMPO 2315/2318 BKN027 OVC060 FM232000 34006KT
                       P6SM SCT060 FM240400 02006KT P6SM SKC=
200908231132 TAF KSEA 231132Z 2312/2418 VRB03KT P6SM BKN060 FM232000 34006KT
                       P6SM SCT060 FM240400 02006KT P6SM SKC=
200908230539 TAF KSEA 230539Z 2306/2412 02006KT P6SM SCT050
                      TEMPO 2306/2309 BKN050 FM231300 23006KT P6SM
                       BKN022 FM231700 23006KT P6SM BKN030 FM232000
                       34006KT P6SM SCT050 FM240300 02006KT P6SM
                       SKC=
200908222320 TAF KSEA 222320Z 2300/2406 31009KT P6SM FEW050 FM230300 36006KT
                       P6SM FEW050 FM231300 VRB03KT P6SM BKN015
                       FM231700 27006KT P6SM SCT035 FM232000 34006KT
                       P6SM FEW050 FM240300 02005KT P6SM FEW050=
200908221720 TAF KSEA 221720Z 2218/2324 35006KT P6SM SCT050
                      TEMPO 2218/2219 BKN050 FM231300 VRB03KT P6SM
                       BKN025 FM231700 27006KT P6SM SCT035 FM232000
                       34006KT P6SM FEW050=
200908221434 KSEA 221434Z 2215/2318 02008KT P6SM BKN035 FM221800 35006KT P6SM
                       SCT050 FM231300 VRB03KT P6SM BKN012 FM231700
                       VRB03KT P6SM SCT020=
200908221138 TAF KSEA 221138Z 2212/2318 02008KT P6SM SCT012 BKN022 FM221500
                       02008KT P6SM SCT025
                      TEMPO 2215/2216 BKN025 FM221900 34006KT P6SM
                       SCT050 FM231300 VRB03KT P6SM BKN012 FM231700
                       VRB03KT P6SM SCT020=
200908221037 KSEA 221037Z 2211/2312 02008KT P6SM BKN012 OVC020 FM221500 02008KT
                       P6SM SCT012 BKN021 OVC030 FM221700 02008KT
                       P6SM SCT025
                      TEMPO 2217/2218 BKN025 FM221900 34006KT P6SM
                       SCT050=
200908220540 TAF KSEA 220540Z 2206/2312 VRB03KT P6SM BKN045 FM221700 VRB03KT
                       P6SM SCT050 FM222100 34006KT P6SM SCT050=
200908212322 TAF KSEA 212322Z 2200/2306 23007KT P6SM BKN040 FM220200 27006KT
                       P6SM SCT028 BKN050
                      TEMPO 2202/2206 BKN028 BKN050 FM220600 33004KT
                       P6SM SCT028 SCT050 FM221000 VRB03KT P6SM
                       OVC015 FM221800 25006KT P6SM BKN022 BKN050
                       FM221900 30008KT P6SM SCT050 SCT250 FM230000
                       35008KT P6SM FEW050 SCT250=
200908211742 TAF KSEA 211742Z 2118/2224 20010KT P6SM SCT017 OVC035
                      TEMPO 2118/2120 BKN017 OVC035 FM212000 23010KT
                       P6SM SCT028 BKN040
                      TEMPO 2120/2123 23010G18KT BKN028 OVC040
                       FM220000 25008KT P6SM BKN040 BKN070 FM220200
                       32006KT P6SM SCT040 BKN070
                      PROB30 2203/2209 5SM -DZ BR OVC015 FM220900
                       19005KT P6SM OVC020 FM222000 32008KT P6SM
                       SCT050=
200908211503 KSEA 211503Z 2115/2218 17008KT 6SM -DZ BR FEW006 BKN012 OVC030
                       TEMPO 2115/2118 3SM -DZ BR BKN006 OVC012
                       FM211800 19008KT P6SM BKN025 OVC035 FM212100
                       24008KT P6SM OVC035 FM220400 35006KT P6SM
                       OVC040 FM221700 35006KT P6SM SCT045=
200908211417 KSEA 211417Z 2114/2218 17008KT P6SM OVC021
                      TEMPO 2114/2118 5SM -DZ BR OVC012 FM212100
                       24008KT P6SM OVC035 FM220400 35006KT P6SM
                       OVC040 FM221700 35006KT P6SM SCT045=
200908211139 TAF KSEA 211139Z 2112/2218 22008KT P6SM OVC021 FM212100 24008KT
                       P6SM OVC035 FM220400 35006KT P6SM OVC040
                       FM221700 35006KT P6SM SCT045=
200908210536 TAF KSEA 210536Z 2106/2212 20008KT P6SM BKN025 FM210700 20008KT
                       P6SM OVC015 FM211900 20008KT P6SM OVC025
                       FM220100 35006KT P6SM OVC035=
200908202333 TAF KSEA 202333Z 2100/2206 21012KT P6SM SCT150 FM210600 21007KT
                       P6SM FEW022 BKN040 BKN150 FM210900 19006KT
                       P6SM OVC015 FM212100 24008KT P6SM SCT025
                       BKN040 BKN070 FM220100 31008KT P6SM SCT040
                       BKN070=
200908201748 TAF KSEA 201748Z 2018/2124 21012KT P6SM SCT250
                      TEMPO 2018/2021 21010G18KT FM202100 23012G20KT
                       P6SM SCT250 FM210300 21010KT P6SM SCT040
                       SCT250 FM210600 21007KT P6SM FEW022 BKN040
                       BKN250 FM210900 19006KT P6SM OVC015 FM212100
                       24008KT P6SM SCT022 BKN040=
200908201602 KSEA 201602Z 2016/2118 20009KT P6SM OVC006 FM201800 23009KT P6SM
                       SCT010 BKN250 FM201900 23009KT P6SM BKN250
                       FM202300 24008KT P6SM SKC FM210900 20008KT
                       P6SM OVC008 FM211400 20008KT P6SM OVC012=
200908201442 KSEA 201442Z 2015/2118 20009KT P6SM SCT006 BKN250
                      TEMPO 2015/2018 BKN006 BKN250 FM201800 23009KT
                       P6SM SCT011 BKN250 FM201900 23009KT P6SM
                       BKN250 FM202300 24008KT P6SM SKC FM210900
                       20008KT P6SM OVC008 FM211400 20008KT P6SM
                       OVC012=
200908201418 KSEA 201418Z 2014/2118 20007KT P6SM FEW007 BKN250 FM201800 23008KT
                       P6SM BKN250 FM202300 24008KT P6SM SKC FM210900
                       20008KT P6SM OVC008 FM211400 20008KT P6SM
                       OVC012=
200908201139 TAF KSEA 201139Z 2012/2118 18006KT P6SM SKC FM202300 24008KT P6SM
                       SKC FM210900 20008KT P6SM OVC008 FM211400
                       20008KT P6SM OVC012=
200908200532 TAF KSEA 200532Z 2006/2112 VRB03KT P6SM SKC FM201400 22006KT P6SM
                       SKC FM210900 22008KT P6SM OVC008=
200908192320 TAF KSEA 192320Z 2000/2106 30007KT P6SM SCT250 FM200300 VRB04KT
                       P6SM SCT250 FM200600 20004KT P6SM SCT250
                       FM201400 20007KT P6SM FEW003 SCT250 FM201800
                       23009KT P6SM BKN250=
200908191739 TAF KSEA 191739Z 1918/2024 36009KT P6SM SCT250 FM200000 32009KT
                       P6SM SCT250 FM200300 01005KT P6SM SCT250
                       FM200900 VRB03KT P6SM SCT250 FM201400 20007KT
                       P6SM FEW003 SCT250 FM201800 23007KT P6SM
                       SCT250=
200908191120 TAF KSEA 191120Z 1912/2018 02006KT P6SM SKC FM192100 33009KT P6SM
                       SKC FM200300 32005KT P6SM SKC FM201100 21004KT
                       P6SM SKC FM201600 22006KT P6SM SCT025=
200908190520 TAF KSEA 190520Z 1906/2012 35006KT P6SM SKC FM191200 02009KT P6SM
                       SKC FM192100 33009KT P6SM SKC FM200300 32005KT
                       P6SM SKC FM201100 21004KT P6SM SKC=
200908182327 TAF KSEA 182327Z 1900/2006 31009KT P6SM SCT250 FM190300 36007KT
                       P6SM SCT250 FM191200 02009KT P6SM SKC FM192100
                       33009KT P6SM SKC=
200908181959 KSEA 181959Z 1820/1924 34012KT P6SM SCT250
                      TEMPO 1820/1824 34010G20KT FM190300 36007KT
                       P6SM SCT250 FM191200 02009KT P6SM SKC=
200908181720 TAF KSEA 181720Z 1818/1924 36010KT P6SM BKN250 FM182100 32009KT
                       P6SM BKN250 FM190300 36007KT P6SM SCT250
                       FM191200 02009KT P6SM SKC=
200908181121 TAF KSEA 181121Z 1812/1918 02007KT P6SM FEW200 FM181900 31007KT
                       P6SM SCT200 FM190500 01005KT P6SM SKC=
200908180522 TAF KSEA 180522Z 1806/1912 02006KT P6SM SCT200 FM181900 31007KT
                       P6SM SCT200 FM190500 01005KT P6SM SKC=
200908172329 TAF KSEA 172329Z 1800/1906 32006KT P6SM BKN200 FM181200 03004KT
                       P6SM SCT200 FM181900 29006KT P6SM SKC=
200908171732 TAF KSEA 171732Z 1718/1824 34004KT P6SM SCT250 FM172200 34007KT
                       P6SM FEW250 FM181200 03004KT P6SM SKC=
200908171122 TAF KSEA 171122Z 1712/1818 03007KT P6SM SCT250 FM171800 35008KT
                       P6SM FEW250 FM180600 02006KT P6SM SKC=
200908170522 TAF KSEA 170522Z 1706/1812 35005KT P6SM SCT250 FM171000 03004KT
                       P6SM BKN250 FM171800 35007KT P6SM SCT250
                       FM180600 01005KT P6SM FEW250=
200908162325 TAF KSEA 162325Z 1700/1806 34010KT P6SM FEW040 FM170300 02006KT
                       P6SM SKC FM171200 06004KT P6SM FEW250 FM171800
                       33008KT P6SM SCT250=
200908161731 TAF KSEA 161731Z 1618/1724 02008KT P6SM SCT013 FM161900 34009KT
                       P6SM SCT030 FM170400 02006KT P6SM SKC=
200908161124 TAF KSEA 161124Z 1612/1718 00000KT P6SM SCT025 FM161300 VRB03KT
                       P6SM SCT020
                      TEMPO 1613/1616 BKN020 FM161700 32007KT P6SM
                       SCT040 FM162000 33009KT P6SM FEW100 FM170400
                       02006KT P6SM SKC=
200908160529 TAF KSEA 160529Z 1606/1712 VRB03KT P6SM SKC FM161300 VRB03KT P6SM
                       SCT017
                      TEMPO 1613/1616 BKN017 FM161700 32007KT P6SM
                       SCT040 FM162000 33009KT P6SM FEW100 FM170400
                       02006KT P6SM SKC=
200908152341 TAF KSEA 152341Z 1600/1706 21008KT P6SM SCT030 BKN060 FM160200
                       33005KT P6SM BKN100 FM160700 02004KT P6SM
                       SKC FM161400 02004KT P6SM BKN030 FM161700
                       32007KT P6SM SCT040 FM162000 33009KT P6SM
                       FEW100=
200908151953 KSEA 151953Z 1520/1624 21008KT P6SM BKN030 BKN100 FM152200 22006KT
                       P6SM SCT030 BKN100 FM160100 33005KT P6SM
                       BKN250 FM160700 02004KT P6SM SKC FM161400
                       02004KT P6SM BKN020=
200908151720 TAF KSEA 151720Z 1518/1624 16005KT P6SM BKN030 BKN100 FM152000
                       22006KT P6SM SCT030 BKN100 FM160100 33005KT
                       P6SM BKN250 FM160700 02004KT P6SM SKC FM161400
                       02004KT P6SM BKN020=
200908151131 TAF KSEA 151131Z 1512/1618 19003KT P6SM SCT020 FM151300 19006KT
                       P6SM OVC020 FM151800 24005KT P6SM SCT023
                       BKN100 FM160100 33005KT P6SM BKN250 FM160700
                       02004KT P6SM SKC FM161400 02004KT P6SM BKN020=
200908150528 TAF KSEA 150528Z 1506/1612 22006KT P6SM SCT060 FM151100 19006KT
                       P6SM OVC014
                      TEMPO 1513/1516 OVC007 FM151800 24005KT P6SM
                       SCT020 BKN100 FM160100 33005KT P6SM BKN250
                       FM160700 02004KT P6SM SKC=
200908142320 TAF KSEA 142320Z 1500/1606 21006KT P6SM SCT035 BKN045
                      TEMPO 1501/1504 P6SM BKN035 FM150400 22006KT
                       P6SM BKN030 OVC050 FM151100 19006KT P6SM
                       OVC015
                      TEMPO 1513/1516 OVC007 FM151800 24005KT P6SM
                       SCT010 SCT020 BKN100=
200908141733 TAF KSEA 141733Z 1418/1524 21006KT P6SM SCT012 BKN030 BKN080
                      TEMPO 1418/1419 BKN012 FM142100 21006KT P6SM
                       SCT035 BKN045
                      TEMPO 1422/1502 P6SM -SHRA BKN030 FM150300
                       22006KT P6SM SCT045 BKN100 FM151100 19006KT
                       P6SM OVC015
                      TEMPO 1513/1517 OVC007=
200908141527 KSEA 141527Z 1415/1518 19004KT P6SM SCT020 OVC045
                      TEMPO 1415/1416 BKN020 OVC045 FM142100 21006KT
                       P6SM SCT035 BKN045
                      TEMPO 1422/1502 P6SM -SHRA BKN030 FM150300
                       22006KT P6SM SCT045 BKN100 FM151100 19006KT
                       P6SM OVC015
                      TEMPO 1513/1517 OVC007=
200908141133 TAF KSEA 141133Z 1412/1518 19004KT 5SM BR SCT004 OVC012
                      TEMPO 1412/1416 2SM -SHRA BR BKN004 OVC010
                       FM141600 20006KT P6SM SCT008 OVC015 FM141900
                       21005KT P6SM SCT012 OVC020 FM142100 23008KT
                       P6SM SCT022 BKN050 FM150300 22006KT P6SM
                       SCT050 BKN100 FM151100 19006KT P6SM OVC015
                       TEMPO 1513/1517 OVC007=
200908140650 KSEA 140650Z 1407/1512 16004KT P6SM BKN008 OVC090
                      TEMPO 1407/1411 SCT008 BKN090 FM141100 20004KT
                       P6SM SCT006 OVC015 FM141800 25007KT P6SM
                       SCT020 BKN050 FM150300 22005KT P6SM SCT050
                       BKN090=
200908140521 TAF KSEA 140521Z 1406/1512 00000KT P6SM SCT025 BKN080 FM141200
                       20004KT P6SM OVC015 FM141800 25007KT P6SM
                       SCT020 BKN050 FM150300 22005KT P6SM SCT050
                       BKN090=
200908140039 KSEA 140039Z 1401/1506 01007KT P6SM VCTS SCT035CB BKN045
                      TEMPO 1401/1402 2SM TSRA BKN035CB OVC045
                       FM140300 VRB03KT P6SM -SHRA BKN030 BKN045
                       FM141200 20004KT P6SM OVC015 FM141800 25007KT
                       P6SM SCT020 BKN050=
200908132328 TAF KSEA 132328Z 1400/1506 VRB04KT P6SM SCT035CB BKN045
                      TEMPO 1400/1402 P6SM -TSRA BKN035CB OVC045
                       FM140200 VRB03KT P6SM -SHRA BKN030 BKN045
                       FM141200 20004KT P6SM OVC015 FM141800 25007KT
                       P6SM SCT020 BKN050=
200908132055 KSEA 132055Z 1321/1424 24009KT P6SM BKN015 BKN045
                      TEMPO 1321/1323 SCT016 BKN045 FM132300 32005KT
                       P6SM VCTS SCT020 OVC045CB FM140200 VRB03KT
                       P6SM -SHRA BKN030 BKN045 FM141200 20004KT
                       P6SM OVC015=
200908131733 TAF KSEA 131733Z 1318/1424 20005KT P6SM BKN016 BKN045
                      TEMPO 1318/1319 SCT016 BKN045 FM131900 24009KT
                       P6SM SCT030 BKN045 FM132300 32005KT P6SM
                       VCTS SCT020 OVC045CB FM140200 VRB03KT P6SM
                       -SHRA BKN030 BKN045 FM141200 20004KT P6SM
                       OVC015=
200908131605 KSEA 131605Z 1316/1418 19006KT P6SM BKN015 BKN035
                      TEMPO 1316/1317 SCT015 BKN035 FM131700 20005KT
                       P6SM SCT015 BKN040 FM132100 24009KT P6SM
                       -SHRA SCT020 BKN045 FM140100 32005KT P6SM
                       VCTS SCT020 OVC045CB FM141200 20006KT P6SM
                       OVC015=
200908131145 TAF KSEA 131145Z 1312/1418 20005KT P6SM SCT008 OVC035 FM131300
                       20005KT P6SM SCT008 OVC025
                      TEMPO 1313/1316 BKN008 OVC025 FM131700 20005KT
                       P6SM SCT015 BKN040 FM132100 24009KT P6SM
                       -SHRA SCT020 BKN045 FM140400 32005KT P6SM
                       -SHRA SCT020 OVC045 FM141200 20006KT P6SM
                       OVC015=
200908130523 TAF KSEA 130523Z 1306/1412 35006KT P6SM OVC027 FM131300 20005KT
                       P6SM BKN012 OVC025 FM131700 20005KT P6SM
                       SCT015 BKN040 FM132100 24009KT P6SM -SHRA
                       SCT020 BKN045 FM140400 32005KT P6SM -SHRA
                       SCT020 OVC045=
200908122320 TAF KSEA 122320Z 1300/1406 34005KT P6SM FEW035 SCT080 FM130400
                       VRB04KT P6SM SCT030 BKN045 FM131300 20005KT
                       P6SM BKN012 OVC030 FM131700 20005KT P6SM
                       SCT015 BKN040=
200908122035 KSEA 122035Z 1220/1324 00000KT P6SM FEW005 SCT030 OVC060
                      TEMPO 1220/1222 -SHRA FEW015 BKN025 OVC060
                       FM130000 34004KT P6SM BKN030 BKN045 FM130600
                       17004KT P6SM SCT020 BKN045 FM131400 20005KT
                       P6SM BKN012 FM131700 20005KT P6SM SCT015
                       BKN040=
200908122017 KSEA 122017Z 1220/1324 00000KT P6SM FEW005 SCT030 OVC060
                      TEMPO 1220/1222 -SHRA FEW015 BKN025 OVC600
                       FM130000 34004KT P6SM BKN030 BKN045 FM130600
                       17004KT P6SM SCT020 BKN045 FM131400 20005KT
                       P6SM BKN012 FM131700 20005KT P6SM SCT015
                       BKN040=
200908121733 TAF KSEA 121733Z 1218/1324 00000KT P6SM FEW005 SCT030 OVC060
                      TEMPO 1218/1220 5SM -SHRA BR SCT005 BKN025
                       OVC600 FM130000 34004KT P6SM SCT030 BKN045
                       FM130600 17004KT P6SM SCT020 BKN045 FM131400
                       20005KT P6SM BKN012 FM131700 20005KT P6SM
                       SCT015 BKN040=
200908121517 KSEA 121517Z 1215/1318 00000KT P6SM FEW015 SCT025 OVC060
                      TEMPO 1215/1218 5SM -RA BR OVC025 FM121800
                       23006KT P6SM SCT035 OVC050
                      TEMPO 1218/1222 -RA BKN035 FM130000 23007KT
                       P6SM BKN045 FM131500 20005KT P6SM OVC020=
200908121128 TAF KSEA 121128Z 1212/1318 00000KT P6SM OVC060 FM121300 18003KT
                       P6SM OVC018
                      TEMPO 1213/1217 4SM -RA BR OVC010 FM121800
                       23006KT P6SM BKN022 OVC040
                      TEMPO 1218/1222 -RA OVC022 FM130000 23007KT
                       P6SM BKN045 FM131500 20005KT P6SM OVC020=
200908120800 KSEA 120800Z 1208/1312 00000KT P6SM -SHRA SCT060 BKN080 OVC100
                       FM121200 18003KT P6SM OVC018
                      TEMPO 1213/1217 4SM BR OVC010 FM122000 23006KT
                       P6SM VCSH BKN022 OVC040=
200908120531 TAF KSEA 120531Z 1206/1312 35003KT P6SM BKN110 FM121200 18003KT
                       P6SM OVC018
                      TEMPO 1213/1217 4SM BR OVC010 FM122000 23006KT
                       P6SM VCSH BKN022 OVC040=
200908120048 KSEA 120048Z 1201/1306 24005KT P6SM SCT035 BKN100
                      TEMPO 1201/1203 BKN035 BKN100 FM120600 VRB04KT
                       P6SM FEW020 BKN030 FM121200 03003KT P6SM
                       SCT015 OVC030 FM122000 24007KT P6SM -RA
                       SCT020 BKN040 FM130000 20006KT P6SM SCT040
                       BKN060=
200908112328 TAF KSEA 112328Z 1200/1306 24005KT P6SM SCT025 BKN040 FM120600
                       VRB04KT P6SM FEW020 BKN030 FM121200 03003KT
                       P6SM SCT015 OVC030 FM122000 24007KT P6SM
                       -RA SCT020 BKN040 FM130000 20006KT P6SM
                       SCT040 BKN060=
200908112018 KSEA 112018Z 1120/1224 24005KT P6SM BKN020 BKN030 FM120000 24007KT
                       P6SM SCT030 SCT040 BKN060 FM120600 VRB04KT
                       P6SM BKN030 OVC050 FM121200 03003KT P6SM
                       SCT015 OVC030 FM121800 24007KT 5SM -RA BR
                       SCT020 OVC040=
200908111736 TAF KSEA 111736Z 1118/1224 16007KT P6SM SCT015 OVC050 FM112000
                       22007KT P6SM SCT030 BKN040 BKN080 FM120400
                       VRB04KT P6SM BKN030 OVC050 FM121200 03003KT
                       P6SM SCT015 OVC030 FM121800 24007KT 5SM
                       -RA BR SCT020 OVC040=
200908111620 KSEA 111620Z 1116/1218 17007KT P6SM SCT015 OVC040
                      TEMPO 1116/1118 4SM -RA BR BKN015 OVC030
                       FM112000 VRB04KT P6SM SCT030 BKN050 BKN120
                       FM121200 18007KT P6SM -RA BKN020 OVC050=
200908111120 TAF KSEA 111120Z 1112/1218 17007KT P6SM -RA SCT020 OVC050
                      TEMPO 1112/1116 4SM -RA BR OVC020 FM112000
                       VRB04KT P6SM SCT030 BKN050 BKN120 FM121200
                       18007KT P6SM -RA BKN020 OVC050=
200908111014 KSEA 111014Z 1110/1212 17007KT P6SM -RA SCT020 OVC050
                      TEMPO 1112/1116 4SM -RA BR OVC020 FM111800
                       VRB04KT P6SM BKN025 BKN050 FM120000 30007KT
                       P6SM SCT030 BKN050=
200908110619 KSEA 110619Z 1106/1212 19007KT P6SM -RA SCT006 SCT015 OVC035
                      TEMPO 1108/1112 4SM -RA BR BKN006 OVC012
                       FM111800 VRB04KT P6SM BKN025 BKN050 FM120000
                       30007KT P6SM SCT030 BKN050=
200908110520 TAF KSEA 110520Z 1106/1212 19007KT P6SM -RA SCT006 BKN015 OVC035
                       TEMPO 1106/1110 4SM -RA BR BKN006 OVC012
                       FM111800 VRB04KT P6SM BKN025 BKN050 FM120000
                       30007KT P6SM SCT030 BKN050=
200908110339 KSEA 110339Z 1104/1206 21005KT P6SM SCT006 OVC025
                      TEMPO 1104/1108 4SM -RA BR BKN006 OVC020
                       FM110800 VRB04KT 4SM -RA BR BKN006 OVC025
                       FM111800 23007KT P6SM BKN025 BKN050 FM120000
                       28007KT P6SM SCT030 BKN050=
200908102343 TAF KSEA 102343Z 1100/1206 22008KT P6SM SCT025 OVC045
                      TEMPO 1100/1103 -RA BKN025 OVC045 FM110300
                       22006KT P6SM -RA FEW018 OVC025 FM110800
                       19004KT 6SM -RA BR FEW009 OVC018
                      TEMPO 1110/1114 4SM -RA BR FM112000 23007KT
                       P6SM BKN025 BKN050 FM120000 28007KT P6SM
                       SCT030 BKN050=
200908102229 KSEA 102229Z 1022/1124 22008KT P6SM SCT025 OVC045
                      TEMPO 1022/1024 -RA BKN025 OVC045 FM110000
                       16010KT P6SM -RA SCT020 OVC035 FM110600
                       19007KT 4SM -RA BR OVC020 FM111500 24006KT
                       5SM -RA BR SCT020 OVC030 FM112000 24008KT
                       P6SM SCT030 OVC040=
200908101955 KSEA 101955Z 1020/1124 18008KT P6SM FEW020 OVC040 FM110000 16010KT
                       P6SM -RA SCT020 OVC035 FM110600 19007KT
                       4SM -RA BR OVC020 FM111500 24006KT 5SM -RA
                       BR SCT020 OVC030 FM112000 24008KT P6SM SCT030
                       OVC040=
200908101733 TAF KSEA 101733Z 1018/1124 16008KT P6SM FEW020 OVC050 FM102100
                       16010KT P6SM -RA SCT020 OVC040 FM110600
                       19007KT 4SM -RA BR OVC020 FM111500 24006KT
                       5SM -RA BR SCT020 OVC030 FM112000 24008KT
                       P6SM SCT030 OVC040=
200908101315 KSEA 101315Z 1013/1118 16006KT P6SM BKN070 OVC120 FM101800 16008KT
                       P6SM BKN040 OVC080 FM110000 16010KT P6SM
                       -RA OVC040 FM110600 19007KT 4SM -RA BR OVC020=
200908101120 TAF KSEA 101120Z 1012/1118 16006KT P6SM OVC035 FM101800 16008KT
                       P6SM BKN040 OVC080 FM110000 16010KT P6SM
                       -RA OVC040 FM110600 19007KT 4SM -RA BR OVC020=
200908100520 TAF KSEA 100520Z 1006/1112 25008KT P6SM SCT050 BKN200 FM100900
                       16006KT P6SM BKN040 OVC100 FM110000 16010KT
                       P6SM -RA OVC040 FM110500 18008KT 4SM -RA
                       BR OVC020=
200908092320 TAF KSEA 092320Z 1000/1106 23008KT P6SM SCT040 SCT070 BKN200 FM100900
                       16006KT P6SM BKN040 OVC100 FM101500 16010KT
                       P6SM VCSH BKN020 OVC040 FM110300 23009KT
                       P6SM VCSH SCT020 BKN040=
200908092151 KSEA 092151Z 0922/1024 18004KT P6SM FEW021 SCT060 FM100600 16006KT
                       P6SM BKN040 OVC100 FM101200 16010KT P6SM
                       VCSH BKN020 OVC040=
200908091728 TAF KSEA 091728Z 0918/1024 13003KT P6SM SCT012 OVC020
                      TEMPO 0918/0920 OVC012 FM092000 VRB03KT P6SM
                       OVC025 FM092200 24006KT P6SM BKN035 FM100600
                       16006KT P6SM BKN040 OVC100 FM101200 16010KT
                       P6SM VCSH BKN020 OVC040=
200908091329 KSEA 091329Z 0913/1018 16006KT P6SM SCT004 OVC012
                      TEMPO 0913/0916 3SM -DZ BR BKN004 OVC012
                       FM091600 VRB03KT P6SM BKN012 OVC020 FM091900
                       VRB03KT P6SM OVC025 FM092200 24006KT P6SM
                       BKN035 FM100600 16006KT P6SM BKN040 OVC100
                       FM101200 16010KT P6SM BKN020 OVC040=
200908091159 KSEA 091159Z 0912/1018 16006KT 4SM -DZ BR SCT004 OVC015
                      TEMPO 0912/0915 1 1/2SM -DZ BR BKN004 OVC012
                       FM091600 VRB03KT P6SM BKN012 OVC020 FM091900
                       VRB03KT P6SM OVC025 FM092200 24006KT P6SM
                       BKN035 FM100600 16006KT P6SM BKN040 OVC100
                       FM101200 16010KT P6SM BKN020 OVC040=
200908091120 TAF KSEA 091120Z 0912/1018 16006KT P6SM SCT007 OVC015
                      TEMPO 0912/0916 4SM -DZ BR BKN007 OVC012
                       FM091900 21006KT P6SM OVC025 FM092200 24006KT
                       P6SM BKN035 FM100600 16006KT P6SM BKN040
                       OVC100 FM101200 16010KT P6SM BKN020 OVC040=
200908082323 TAF KSEA 082323Z 0900/1006 24006KT P6SM BKN025 OVC045
                      TEMPO 0900/0903 SCT025 BKN045 FM090400 21006KT
                       P6SM BKN020 OVC045 FM090800 20006KT P6SM
                       -DZ OVC015 FM091900 21006KT P6SM OVC025
                       FM092200 24006KT P6SM BKN035=
200908082111 KSEA 082111Z 0821/0924 24006KT P6SM BKN025 OVC045
                      TEMPO 0821/0901 SCT025 BKN045 FM090400 21006KT
                       P6SM BKN020 OVC045 FM090800 20006KT P6SM
                       -DZ OVC015 FM091900 21006KT P6SM OVC025
                       FM092200 24006KT P6SM BKN035=
200908081726 TAF KSEA 081726Z 0818/0924 18006KT P6SM BKN020 OVC045
                      TEMPO 0818/0822 SCT020 BKN045 FM082200 22008KT
                       P6SM SCT020 BKN045 FM090400 21006KT P6SM
                       BKN020 OVC045 FM090800 20006KT P6SM -DZ
                       OVC015 FM091900 21006KT P6SM OVC025 FM092200
                       24006KT P6SM BKN035=
200908081333 KSEA 081333Z 0814/0918 18006KT P6SM SCT010 OVC030 FM081900 22008KT
                       P6SM SCT020 BKN040 FM090800 18006KT P6SM
                       -DZ OVC015=
200908081121 TAF KSEA 081121Z 0812/0918 18006KT P6SM SCT010 BKN020 OVC050 FM081900
                       22008KT P6SM SCT020 BKN040 FM090800 18006KT
                       P6SM -DZ OVC015=
200908080557 KSEA 080557Z 0806/0912 21007KT P6SM SCT020 BKN050
                      TEMPO 0806/0810 BKN020 OVC040 FM081000 21007KT
                       P6SM BKN020 OVC040 FM081300 21006KT P6SM
                       OVC015 FM081900 22009KT P6SM VCSH SCT020
                       OVC035=
200908080520 TAF KSEA 080520Z 0806/0912 21007KT P6SM BKN020 OVC040 FM081200
                       21006KT P6SM OVC015 FM081900 22009KT P6SM
                       VCSH SCT020 OVC035=
200908072329 TAF KSEA 072329Z 0800/0906 21008KT P6SM SCT025 OVC040 FM080800
                       21007KT P6SM BKN020 OVC040 FM081200 21006KT
                       P6SM OVC015 FM081900 22009KT P6SM VCSH SCT020
                       OVC035=
200908072208 KSEA 072208Z 0722/0824 23011KT P6SM BKN028 OVC040 FM080800 VRB03KT
                       P6SM BKN020 OVC040=
200908071729 TAF KSEA 071729Z 0718/0824 23006KT P6SM BKN015 OVC045 FM072100
                       22007KT P6SM SCT020 BKN045 FM080800 VRB03KT
                       P6SM BKN020 OVC040=
200908071123 TAF KSEA 071123Z 0712/0818 20005KT P6SM SCT022 OVC050
                      TEMPO 0713/0716 BKN022 OVC050 FM071900 22007KT
                       P6SM SCT020 BKN045 FM080800 VRB03KT P6SM
                       BKN020 OVC040=
200908070520 TAF KSEA 070520Z 0706/0812 22006KT P6SM BKN050
                      TEMPO 0706/0710 BKN035 FM071000 22006KT P6SM
                       SCT015 OVC035
                      TEMPO 0712/0716 BKN015 OVC030 FM072200 22006KT
                       P6SM SCT025 BKN045 FM080800 22006KT P6SM
                       BKN025 OVC040=
200908070009 KSEA 070009Z 0700/0806 21007G14KT P6SM SCT045
                      TEMPO 0700/0703 BKN045 FM070300 20006KT P6SM
                       BKN040 FM070500 20006KT P6SM OVC035 FM071200
                       20006KT P6SM OVC012 FM072200 23005KT P6SM
                       OVC025=
200908062332 TAF KSEA 062332Z 0700/0806 21007G14KT P6SM SCT045
                      TEMPO 0700/0703 SCT045 FM070300 20006KT P6SM
                       BKN040 FM070500 20006KT P6SM OVC035 FM071200
                       20006KT P6SM OVC012 FM072200 23005KT P6SM
                       OVC025=
200908062259 KSEA 062259Z 0623/0724 21007G14KT P6SM BKN045
                      TEMPO 0623/0703 SCT045 FM070300 20006KT P6SM
                       BKN040 FM070500 20006KT P6SM OVC035 FM071200
                       20006KT P6SM OVC012 FM072200 23005KT P6SM
                       OVC022=
200908061720 TAF KSEA 061720Z 0618/0724 23004KT P6SM BKN035 BKN045 FM070500
                       20006KT P6SM OVC035 FM071200 20006KT P6SM
                       OVC012 FM072200 23005KT P6SM OVC022=
200908061120 TAF KSEA 061120Z 0612/0718 VRB03KT P6SM SCT012 OVC025
                      TEMPO 0612/0616 BKN012 OVC025 FM062100 24006KT
                       P6SM BKN025 FM070000 24006KT P6SM BKN040
                       FM070500 20006KT P6SM OVC030=
200908060903 KSEA 060903Z 0609/0712 VRB03KT P6SM SCT025 BKN200
                      TEMPO 0609/0611 BKN025 OVC200 FM061100 VRB03KT
                       P6SM OVC025 FM062100 24006KT P6SM BKN025
                       FM070000 24006KT P6SM BKN040 FM070500 20006KT
                       P6SM OVC030=
200908060520 TAF KSEA 060520Z 0606/0712 20006KT P6SM SCT250
                      TEMPO 0607/0609 BKN025 FM060900 20006KT P6SM
                       OVC020 FM062100 24006KT P6SM BKN025 FM070000
                       24006KT P6SM BKN040 FM070500 20006KT P6SM
                       OVC030=
200908052320 TAF KSEA 052320Z 0600/0706 18005KT P6SM SCT025 SCT200 FM060800
                       20004KT P6SM OVC011 FM062200 24006KT P6SM
                       BKN020 FM070000 24006KT P6SM SCT025=
200908052108 KSEA 052108Z 0521/0624 24005KT P6SM BKN020 FM052200 27005KT P6SM
                       SCT030 SCT250 FM060800 22004KT P6SM OVC011
                       FM062200 24006KT P6SM SCT025=
200908051929 KSEA 051929Z 0519/0624 21007KT P6SM OVC016 FM052100 24007KT P6SM
                       SCT030 BKN250 FM052200 27005KT P6SM SCT250
                       FM060800 22004KT P6SM OVC011 FM062200 24006KT
                       P6SM SCT025=
200908051720 TAF KSEA 051720Z 0518/0624 20004KT P6SM OVC015 FM051930 22004KT
                       P6SM BKN020 BKN250 FM052100 24007KT P6SM
                       SCT030 BKN250 FM052200 27005KT P6SM SCT250
                       FM060800 22004KT P6SM OVC011 FM062200 24006KT
                       P6SM SCT025=
200908051120 TAF KSEA 051120Z 0512/0618 22007KT P6SM OVC015 FM051800 22007KT
                       P6SM BKN020 FM052000 24007KT P6SM SCT030
                       BKN250 FM060800 24007KT P6SM OVC020=
200908050520 TAF KSEA 050520Z 0506/0612 22008KT P6SM SCT250
                      TEMPO 0508/0511 BKN010 BKN250 FM051100 22008KT
                       P6SM OVC012 FM051800 22008KT P6SM BKN020
                       FM052000 24006KT P6SM SCT030 BKN250 FM060800
                       24006KT P6SM OVC020=
200908042335 TAF KSEA 042335Z 0500/0606 23006KT P6SM BKN250 FM050900 21006KT
                       P6SM SCT009 BKN250
                      TEMPO 0510/0512 BKN009 BKN250 FM051200 23008KT
                       P6SM OVC012 FM051900 27006KT P6SM BKN250
                       FM060000 32006KT P6SM BKN250=
200908041855 KSEA 041855Z 0419/0524 23008KT P6SM FEW020 BKN250 FM041930 23008KT
                       P6SM BKN250 FM050900 21006KT P6SM SCT009
                       SCT250
                      TEMPO 0510/0512 BKN009 BKN250 FM051200 23008KT
                       P6SM OVC012 FM052000 27006KT P6SM BKN250=
200908041752 TAF KSEA 041752Z 0418/0524 23008KT P6SM OVC015 FM041930 23008KT
                       P6SM SCT020 BKN250 FM042000 23008KT P6SM
                       BKN250 FM050900 21006KT P6SM SCT009 SCT250
                       TEMPO 0510/0512 BKN009 BKN250 FM051200 23008KT
                       P6SM OVC012 FM052000 27006KT P6SM BKN250=
200908041520 KSEA 041520Z 0415/0518 21007KT P6SM OVC009 FM041800 24007KT P6SM
                       SCT250 FM051100 21007KT P6SM BKN008=
200908041122 TAF KSEA 041122Z 0412/0518 21007KT P6SM BKN006
                      TEMPO 0413/0416 3SM BR OVC004 FM041800 24007KT
                       P6SM SCT250 FM051100 21007KT P6SM BKN008=
200908040520 TAF KSEA 040520Z 0406/0512 VRB04KT P6SM SCT250 FM041200 20007KT
                       P6SM BKN010 BKN250 FM041800 23007KT P6SM
                       SCT250=
200908032326 TAF KSEA 032326Z 0400/0506 24008KT P6SM SKC FM040900 20008KT P6SM
                       SCT010 SCT250 FM041200 20008KT P6SM BKN010
                       BKN250 FM041800 23008KT P6SM SCT015 SCT250
                       FM041900 23008KT P6SM SCT250=
200908031736 TAF KSEA 031736Z 0318/0424 22006KT P6SM SCT250 FM040000 26006KT
                       P6SM SCT250 FM040600 20008KT P6SM SCT250
                       FM040900 20008KT P6SM SCT010 SCT250 FM041200
                       20008KT P6SM BKN010 BKN250 FM041800 20006KT
                       P6SM SCT015 SCT250 FM041900 24006KT P6SM
                       SCT250=
200908031536 KSEA 031536Z 0316/0418 23008KT P6SM FEW009 BKN250 FM031900 28006KT
                       P6SM SCT250 FM032300 31006KT P6SM SKC FM041500
                       21004KT P6SM BKN015=
200908031358 KSEA 031358Z 0314/0418 20006KT P6SM SCT008
                      TEMPO 0315/0317 BKN008 FM031700 24006KT P6SM
                       SKC FM031900 28006KT P6SM SKC FM032300 31006KT
                       P6SM SKC FM041500 21004KT P6SM BKN015=
200908031121 TAF KSEA 031121Z 0312/0418 17005KT P6SM VCFG OVC005 FM031800 24006KT
                       P6SM SCT008 FM031900 28006KT P6SM SKC FM032300
                       31006KT P6SM SKC FM041500 21004KT P6SM BKN015=
200908030536 TAF KSEA 030536Z 0306/0412 26006KT P6SM SKC FM031200 21004KT P6SM
                       VCFG SCT005
                      TEMPO 0314/0318 BKN005 FM031800 24006KT P6SM
                       FEW008 FM031900 28006KT P6SM SKC=
200908022320 TAF KSEA 022320Z 0300/0406 30007KT P6SM SKC FM030400 VRB03KT P6SM
                       SKC FM031200 21004KT P6SM VCFG SCT005
                      TEMPO 0314/0318 BKN005 FM031800 24006KT P6SM
                       FEW008 FM031900 28006KT P6SM SKC=
200908021746 TAF KSEA 021746Z 0218/0324 27005KT P6SM SCT250 FM022100 31007KT
                       P6SM SCT250 FM030400 VRB03KT P6SM SKC FM031200
                       21004KT P6SM VCFG SCT005
                      TEMPO 0314/0318 BKN005 FM031800 24006KT P6SM
                       FEW009 FM031900 27006KT P6SM SKC=
200908021302 KSEA 021302Z 0213/0318 00000KT P6SM SCT250 FM021800 30007KT P6SM
                       SCT250 FM031500 21004KT P6SM BKN015=
200908021120 TAF KSEA 021120Z 0212/0318 00000KT P6SM VCFG SCT250
                      TEMPO 0214/0216 3SM BR BKN002 FM021800 30007KT
                       P6SM SCT250 FM031500 21004KT P6SM BKN015=
200908020524 TAF KSEA 020524Z 0206/0312 35008KT P6SM FEW200 FM021200 VRB03KT
                       P6SM VCFG FEW002 FM021800 30007KT P6SM SKC=
200908012341 TAF KSEA 012341Z 0200/0306 31008KT P6SM SKC FM020300 36005KT P6SM
                       SKC FM021200 VRB03KT P6SM VCFG FEW002 FM021800
                       30007KT P6SM SKC=
200908011734 TAF KSEA 011734Z 0118/0224 VRB03KT P6SM FEW004 FM011900 33008KT
                       P6SM SKC FM020300 01005KT P6SM SKC FM021800
                       32007KT P6SM SKC=
200908011607 KSEA 011607Z 0116/0218 20005KT 5SM BR BKN002
                      TEMPO 0116/0117 3SM BR FM011800 24005KT P6SM
                       FEW005 FM011900 28005KT P6SM SKC FM012100
                       32008KT P6SM SKC FM020400 01004KT P6SM SKC=
200908011403 KSEA 011403Z 0114/0218 20003KT 2SM BR SCT003
                      TEMPO 0114/0116 BKN003 FM011600 23005KT 6SM
                       BR FEW006 FM011700 28005KT P6SM SKC FM012100
                       32008KT P6SM SKC FM020400 01004KT P6SM SKC=
200908011126 TAF KSEA 011126Z 0112/0218 18003KT P6SM SKC FM011300 24004KT P6SM
                       SCT007
                      TEMPO 0114/0116 BKN006 FM011800 28005KT P6SM
                       SKC FM012100 32008KT P6SM SKC FM020400 01004KT
                       P6SM SKC=
200908010533 TAF KSEA 010533Z 0106/0212 00000KT P6SM FEW250 FM011200 VRB03KT
                       P6SM SCT005 FM011800 28005KT P6SM SKC FM012100
                       32008KT P6SM SKC=