##########################################################
# Query made at 02/18/2025 02:12:15 UTC
# Time interval: from 02/01/2009 00:00  to 02/28/2009 23:59  UTC
##########################################################

##########################################################
# KSEA, Seattle, Seattle-Tacoma International Airport (United States)
# WMO index: 72793. WIGOS ID: 0-20000-0-72793
# Latitude 47-27-00N. Longitude 122-17-59W. Altitude 130 m.
##########################################################

###################################
#  METAR/SPECI from KSEA
###################################
200902282353 METAR KSEA 282353Z 08014KT 10SM FEW040 OVC090 12/M03 A3002 RMK AO2 SLP172 T01221028 10122 20072 58033 $=
200902282253 METAR KSEA 282253Z 04006KT 10SM FEW040 OVC075 11/M01 A3008 RMK AO2 SLP193 T01111011 $=
200902282153 METAR KSEA 282153Z 02006KT 10SM FEW040 OVC075 11/M02 A3009 RMK AO2 SLP199 T01061017 $=
200902282053 METAR KSEA 282053Z 35006KT 10SM FEW050 OVC090 10/M02 A3012 RMK AO2 SLP206 T01001017 58011 $=
200902281953 METAR KSEA 281953Z 36007KT 10SM FEW050 OVC090 09/M02 A3013 RMK AO2 SLP211 T00941022 $=
200902281853 METAR KSEA 281853Z 35009KT 10SM SCT040 BKN110 OVC200 07/M03 A3014 RMK AO2 SLP213 T00721028 $=
200902281753 METAR KSEA 281753Z 03009KT 10SM FEW050 BKN110 OVC200 07/M03 A3015 RMK AO2 SLP217 VIRGA SE T00671033 10067 20033 58013 $=
200902281653 METAR KSEA 281653Z 02007KT 10SM FEW050 BKN120 BKN200 06/M03 A3018 RMK AO2 SLP227 VIRGA SE-S T00561033 $=
200902281553 METAR KSEA 281553Z 01007KT 10SM BKN130 BKN200 04/M03 A3018 RMK AO2 SLP230 T00391028 $=
200902281453 METAR KSEA 281453Z 05010KT 10SM BKN130 BKN200 04/M04 A3019 RMK AO2 SLP230 T00441044 58014 $=
200902281353 METAR KSEA 281353Z 07010KT 10SM BKN130 04/M04 A3020 RMK AO2 SLP234 T00391044 $=
200902281253 METAR KSEA 281253Z 05008KT 10SM CLR 03/M04 A3022 RMK AO2 SLP242 T00331044 $=
200902281153 METAR KSEA 281153Z 08008KT 10SM CLR 04/M04 A3023 RMK AO2 SLP245 T00391044 10061 20039 58015 $=
200902281053 METAR KSEA 281053Z 09007KT 10SM FEW060 04/M04 A3025 RMK AO2 SLP251 T00441044 $=
200902280953 METAR KSEA 280953Z 11007KT 10SM OVC065 05/M04 A3027 RMK AO2 SLP257 T00501039 $=
200902280853 METAR KSEA 280853Z 12011KT 10SM OVC070 06/M04 A3027 RMK AO2 SLP260 T00561044 57001 $=
200902280753 METAR KSEA 280753Z 12008KT 10SM OVC065 06/M04 A3028 RMK AO2 SLP261 T00561044 400830011 $=
200902280653 METAR KSEA 280653Z 11010KT 10SM OVC070 06/M04 A3028 RMK AO2 SLP261 T00611044 $=
200902280553 METAR KSEA 280553Z 09008KT 10SM OVC070 06/M04 A3028 RMK AO2 SLP262 T00611039 10078 20061 51001 $=
200902280453 METAR KSEA 280453Z 11009KT 10SM OVC070 06/M03 A3028 RMK AO2 SLP262 T00611033 $=
200902280353 METAR KSEA 280353Z 11009KT 10SM OVC065 06/M03 A3028 RMK AO2 SLP262 T00611028 $=
200902280253 METAR KSEA 280253Z 03004KT 10SM OVC065 07/M04 A3027 RMK AO2 SLP261 T00671044 53007 $=
200902280153 METAR KSEA 280153Z 36004KT 10SM BKN070 07/M04 A3025 RMK AO2 SLP254 T00671039 $=
200902280053 METAR KSEA 280053Z 31005KT 10SM BKN070 07/M04 A3025 RMK AO2 SLP254 T00671039 $=
200902272353 METAR KSEA 272353Z 28006KT 10SM FEW045 08/M05 A3025 RMK AO2 SLP254 T00781050 10083 20044 56006 $=
200902272253 METAR KSEA 272253Z 00000KT 10SM FEW045 08/M04 A3026 RMK AO2 SLP256 T00781044 $=
200902272153 METAR KSEA 272153Z 26007KT 10SM FEW040 07/M03 A3026 RMK AO2 SLP258 T00721028 $=
200902272053 METAR KSEA 272053Z 07004KT 10SM FEW040 07/M06 A3027 RMK AO2 SLP260 T00721056 58010 $=
200902271953 METAR KSEA 271953Z VRB03KT 10SM FEW040 07/M06 A3029 RMK AO2 SLP267 T00671056 $=
200902271853 METAR KSEA 271853Z 00000KT 10SM FEW030 05/M06 A3030 RMK AO2 SLP269 T00501061 $=
200902271753 METAR KSEA 271753Z 09007KT 10SM FEW050 04/M05 A3030 RMK AO2 SLP271 T00441050 10044 20011 56006 $=
200902271653 METAR KSEA 271653Z 12006KT 10SM FEW050 03/M04 A3031 RMK AO2 SLP272 T00331039 $=
200902271553 METAR KSEA 271553Z 11007KT 10SM SCT050 02/M03 A3031 RMK AO2 SLP275 T00221033 $=
200902271453 METAR KSEA 271453Z 11007KT 10SM BKN050 01/M03 A3032 RMK AO2 SLP277 T00111028 58006 $=
200902271353 METAR KSEA 271353Z 12008KT 10SM OVC050 01/M02 A3033 RMK AO2 SLP281 T00111022 $=
200902271253 METAR KSEA 271253Z 13006KT 10SM OVC050 01/M03 A3034 RMK AO2 SLP283 T00111028 $=
200902271153 METAR KSEA 271153Z 14007KT 10SM OVC050 01/M02 A3034 RMK AO2 SLP284 70006 T00111022 10022 20011 51005 $=
200902271053 METAR KSEA 271053Z 14004KT 10SM OVC050 01/M02 A3033 RMK AO2 SLP282 T00111022 $=
200902270953 METAR KSEA 270953Z 16003KT 10SM OVC050 02/M02 A3034 RMK AO2 SLP284 T00171022 $=
200902270853 METAR KSEA 270853Z 00000KT 10SM OVC050 02/M03 A3032 RMK AO2 SLP279 T00221028 53007 $=
200902270753 METAR KSEA 270753Z 08004KT 10SM OVC055 02/M03 A3032 RMK AO2 SLP277 T00171028 400331033 $=
200902270653 METAR KSEA 270653Z 05004KT 10SM OVC050 02/M02 A3031 RMK AO2 SLP273 T00221022 $=
200902270553 METAR KSEA 270553Z 06004KT 10SM OVC050 02/M02 A3030 RMK AO2 SLP271 T00221022 10033 20022 53007 $=
200902270453 METAR KSEA 270453Z 07005KT 10SM OVC050 02/M03 A3029 RMK AO2 SLP268 T00221028 $=
200902270353 METAR KSEA 270353Z 09006KT 10SM OVC050 02/M03 A3028 RMK AO2 SLP265 T00221033 $=
200902270253 METAR KSEA 270253Z 11008KT 10SM OVC044 02/M03 A3028 RMK AO2 SLP265 T00221028 53015 $=
200902270153 METAR KSEA 270153Z 08007KT 10SM FEW030 BKN044 BKN080 02/M03 A3026 RMK AO2 SLP259 T00221028 $=
200902270110 SPECI KSEA 270110Z 07007KT 10SM BKN030 BKN042 03/M03 A3025 RMK AO2 $=
200902270110 SPECI KSEA 270110Z 07007KT 10SM BKN030 BKN042 03/M03 A3025 RMK AO2 $=
200902270053 METAR KSEA 270053Z 08006KT 10SM BKN029 BKN048 03/M03 A3025 RMK AO2 SLP254 T00281033 $=
200902262353 METAR KSEA 262353Z 04005KT 10SM FEW030 BKN048 BKN080 03/M04 A3024 RMK AO2 SLP250 T00331044 10033 20000 51018 $=
200902262253 METAR KSEA 262253Z 00000KT 10SM FEW025 BKN034 03/M05 A3023 RMK AO2 SLP246 T00281050 $=
200902262153 METAR KSEA 262153Z 01006KT 10SM FEW025 BKN032 OVC043 03/M04 A3021 RMK AO2 SLP240 T00281044 $=
200902262053 METAR KSEA 262053Z 36008KT 10SM FEW025 BKN039 02/M04 A3018 RMK AO2 SLP231 T00221039 51033 $=
200902261953 METAR KSEA 261953Z 01009KT 10SM FEW020 SCT050 SCT200 03/M04 A3016 RMK AO2 SLP223 T00281044 $=
200902261853 METAR KSEA 261853Z 34007KT 10SM FEW020 SCT041 BKN055 01/M04 A3012 RMK AO2 SLP211 T00111044 $=
200902261753 METAR KSEA 261753Z 35007KT 10SM FEW020 BKN033 BKN060 00/M04 A3008 RMK AO2 SLP198 60006 931005 4/002 T00001044 10006 21011 51044 $=
200902261712 SPECI KSEA 261712Z 32005KT 10SM FEW008 BKN032 BKN060 00/M04 A3005 RMK AO2 $=
200902261712 SPECI KSEA 261712Z 32005KT 10SM FEW008 BKN032 BKN060 00/M04 A3005 RMK AO2 $=
200902261653 METAR KSEA 261653Z 32007KT 10SM FEW008 BKN028 BKN050 00/M04 A3004 RMK AO2 SNE26 SLP181 P0000 T00001044 $=
200902261553 METAR KSEA 261553Z 31009G15KT 10SM -SN FEW009 BKN018 BKN025 00/M04 A3000 RMK AO2 SNB01 SLP170 P0000 T00001039 $=
200902261536 SPECI KSEA 261536Z 28005KT 6SM -SN BR FEW008 BKN015 OVC024 00/M02 A2999 RMK AO2 SNB01 P0000 $=
200902261536 SPECI KSEA 261536Z 28005KT 6SM -SN BR FEW008 BKN015 OVC024 00/M02 A2999 RMK AO2 SNB01 P0000 $=
200902261453 METAR KSEA 261453Z 27007KT 10SM FEW003 SCT016 OVC022 00/M03 A2995 RMK AO2 SLP153 SNE1358B06E37 P0000 60006 T00001028 53024 $=
200902261400 SPECI KSEA 261400Z 26006KT 9SM SCT003 BKN023 OVC028 M01/M02 A2992 RMK AO2 SNE1358 P0000 $=
200902261400 SPECI KSEA 261400Z 26006KT 9SM SCT003 BKN023 OVC028 M01/M02 A2992 RMK AO2 SNE1358 P0000 $=
200902261353 METAR KSEA 261353Z 24005KT 5SM -SN BR SCT003 BKN006 OVC028 M01/M02 A2992 RMK AO2 SLP141 P0006 T10061017 $=
200902261343 SPECI KSEA 261343Z 29007KT 3SM -SN BR BKN003 BKN008 OVC028 M01/M02 A2991 RMK AO2 CIG 002V006 P0006 $=
200902261343 SPECI KSEA 261343Z 29007KT 3SM -SN BR BKN003 BKN008 OVC028 M01/M02 A2991 RMK AO2 CIG 002V006 P0006 $=
200902261329 SPECI KSEA 261329Z 27005KT 1 1/2SM R16C/5500VP6000FT -SN BR BKN003 OVC008 M01/M02 A2990 RMK AO2 P0005 $=
200902261329 SPECI KSEA 261329Z 27005KT 1 1/2SM R16C/5500VP6000FT -SN BR BKN003 OVC008 M01/M02 A2990 RMK AO2 P0005 $=
200902261318 SPECI KSEA 261318Z 25007KT 3/4SM R16C/3000VP6000FT -SN BR BKN003 OVC008 M01/M02 A2989 RMK AO2 P0003 $=
200902261318 SPECI KSEA 261318Z 25007KT 3/4SM R16C/3000VP6000FT -SN BR BKN003 OVC008 M01/M02 A2989 RMK AO2 P0003 $=
200902261301 SPECI KSEA 261301Z 25008KT 1/2SM R16C/3500VP6000FT SN FG BKN006 BKN015 OVC027 00/M02 A2989 RMK AO2 P0000 $=
200902261301 SPECI KSEA 261301Z 25008KT 1/2SM R16C/3500VP6000FT SN FG BKN006 BKN015 OVC027 00/M02 A2989 RMK AO2 P0000 $=
200902261259 SPECI KSEA 261259Z 25005KT 1SM R16C/3500VP6000FT -SN BR SCT006 BKN015 OVC027 00/M02 A2989 RMK AO2 P0000 $=
200902261259 SPECI KSEA 261259Z 25005KT 1SM R16C/3500VP6000FT -SN BR SCT006 BKN015 OVC027 00/M02 A2989 RMK AO2 P0000 $=
200902261255 SPECI KSEA 261255Z 25005KT 4SM R16C/6000VP6000FT -SN BR FEW006 BKN015 OVC036 00/M02 A2988 RMK AO2 P0000 $=
200902261255 SPECI KSEA 261255Z 25005KT 4SM R16C/6000VP6000FT -SN BR FEW006 BKN015 OVC036 00/M02 A2988 RMK AO2 P0000 $=
200902261253 METAR KSEA 261253Z 26005KT 7SM -SN SCT016 BKN028 OVC085 00/M02 A2988 RMK AO2 SNB50 SLP129 P0000 T00001022 $=
200902261250 SPECI KSEA 261250Z 26006KT 9SM -SN SCT016 BKN028 OVC085 00/M02 A2988 RMK AO2 SNB50 P0000 $=
200902261250 SPECI KSEA 261250Z 26006KT 9SM -SN SCT016 BKN028 OVC085 00/M02 A2988 RMK AO2 SNB50 P0000 $=
200902261224 SPECI KSEA 261224Z 25003KT 10SM FEW016 SCT070 BKN085 M01/M03 A2987 RMK AO2 $=
200902261224 SPECI KSEA 261224Z 25003KT 10SM FEW016 SCT070 BKN085 M01/M03 A2987 RMK AO2 $=
200902261153 METAR KSEA 261153Z 25003KT 10SM BKN016 BKN021 BKN120 M01/M03 A2985 RMK AO2 SLP120 60015 70033 931016 4/002 T10061028 10011 21033 53018 $=
200902261140 SPECI KSEA 261140Z 00000KT 10SM SCT014 BKN019 M02/M04 A2985 RMK AO2 $=
200902261140 SPECI KSEA 261140Z 00000KT 10SM SCT014 BKN019 M02/M04 A2985 RMK AO2 $=
200902261053 METAR KSEA 261053Z 21006KT 10SM FEW016 SCT100 M02/M04 A2983 RMK AO2 SLP112 T10221039 $=
200902260953 METAR KSEA 260953Z 19005KT 10SM FEW016 SCT022 M02/M03 A2982 RMK AO2 SLP107 GSE0856SNE16 P0003 T10171028 $=
200902260913 SPECI KSEA 260913Z 18005KT 5SM R16C/4500VP6000FT -SN BR FEW008 SCT013 OVC075 M01/M03 A2980 RMK AO2 GSE0856 P0003=
200902260913 SPECI KSEA 260913Z 18005KT 5SM R16C/4500VP6000FT -SN BR FEW008 SCT013 OVC075 M01/M03 A2980 RMK AO2 GSE0856 P0003=
200902260902 SPECI KSEA 260902Z 21007KT 3/4SM R16C/2400V3500FT -SN BR BKN008 OVC018 M01/M02 A2980 RMK AO2 GSE0856 P0002=
200902260902 SPECI KSEA 260902Z 21007KT 3/4SM R16C/2400V3500FT -SN BR BKN008 OVC018 M01/M02 A2980 RMK AO2 GSE0856 P0002=
200902260853 METAR KSEA 260853Z 21010KT 3/4SM R16C/2600VP6000FT -SNGS BR BKN008 OVC018 M01/M02 A2980 RMK AO2 SNB00GSB40 SLP101 P0012 60012 T10061017 53009=
200902260848 SPECI KSEA 260848Z 25008KT 1 1/4SM R16C/2800VP6000FT -SNGS BR SCT008 BKN018 OVC023 00/M02 A2980 RMK AO2 SNB00GSB40 P0011=
200902260848 SPECI KSEA 260848Z 25008KT 1 1/4SM R16C/2800VP6000FT -SNGS BR SCT008 BKN018 OVC023 00/M02 A2980 RMK AO2 SNB00GSB40 P0011=
200902260846 SPECI KSEA 260846Z 23007KT 1 3/4SM R16C/4000VP6000FT -SNGS BR FEW006 BKN010 OVC023 00/M02 A2980 RMK AO2 SNB00GSB40 P0010=
200902260846 SPECI KSEA 260846Z 23007KT 1 3/4SM R16C/4000VP6000FT -SNGS BR FEW006 BKN010 OVC023 00/M02 A2980 RMK AO2 SNB00GSB40 P0010=
200902260843 SPECI KSEA 260843Z 23006KT 2SM -SNGS BR SCT010 BKN018 OVC023 00/M02 A2979 RMK AO2 SNB00GSB40 P0010=
200902260843 SPECI KSEA 260843Z 23006KT 2SM -SNGS BR SCT010 BKN018 OVC023 00/M02 A2979 RMK AO2 SNB00GSB40 P0010=
200902260831 SPECI KSEA 260831Z 21006KT 2SM -SN BR SCT006 BKN018 OVC032 00/M02 A2979 RMK AO2 SNB00 P0007=
200902260831 SPECI KSEA 260831Z 21006KT 2SM -SN BR SCT006 BKN018 OVC032 00/M02 A2979 RMK AO2 SNB00 P0007=
200902260828 SPECI KSEA 260828Z 21007KT 1 1/2SM -SN BR SCT006 BKN018 OVC032 00/M02 A2979 RMK AO2 SNB00 P0007=
200902260828 SPECI KSEA 260828Z 21007KT 1 1/2SM -SN BR SCT006 BKN018 OVC032 00/M02 A2979 RMK AO2 SNB00 P0007=
200902260809 SPECI KSEA 260809Z 24010KT 1SM R16C/5500VP6000FT -SN BR BKN006 BKN014 OVC021 M01/M02 A2979 RMK AO2 SNB00 P0004=
200902260809 SPECI KSEA 260809Z 24010KT 1SM R16C/5500VP6000FT -SN BR BKN006 BKN014 OVC021 M01/M02 A2979 RMK AO2 SNB00 P0004=
200902260803 SPECI KSEA 260803Z 25012G15KT 1 1/2SM R16C/5500VP6000FT -SN BR SCT009 BKN021 OVC026 M01/M02 A2979 RMK AO2 SNB00 P0001=
200902260803 SPECI KSEA 260803Z 25012G15KT 1 1/2SM R16C/5500VP6000FT -SN BR SCT009 BKN021 OVC026 M01/M02 A2979 RMK AO2 SNB00 P0001=
200902260753 METAR KSEA 260753Z 15005KT 10SM FEW006 BKN023 OVC031 01/M01 A2978 RMK AO2 SLP094 T00061011 400720006=
200902260747 SPECI KSEA 260747Z 16006KT 10SM FEW006 BKN025 BKN031 01/M01 A2978 RMK AO2 400720006=
200902260747 SPECI KSEA 260747Z 16006KT 10SM FEW006 BKN025 BKN031 01/M01 A2978 RMK AO2 400720006=
200902260653 METAR KSEA 260653Z 16008KT 10SM BKN075 OVC100 01/M02 A2978 RMK AO2 SNE07 SLP092 P0000 T00061017=
200902260553 METAR KSEA 260553Z 18007KT 6SM -SN BR OVC037 01/M01 A2977 RMK AO2 SNB40 SLP091 P0000 60002 931000 T00111011 10044 20011 53017=
200902260453 METAR KSEA 260453Z 22009KT 10SM SCT070 OVC095 02/M02 A2975 RMK AO2 SLP084 T00171017=
200902260353 METAR KSEA 260353Z 21008KT 10SM BKN065 OVC080 02/M02 A2974 RMK AO2 SLP079 T00221022=
200902260253 METAR KSEA 260253Z 21010KT 10SM FEW017 BKN060 OVC075 03/00 A2972 RMK AO2 SLP073 60002 T00280000 53016=
200902260153 METAR KSEA 260153Z 24012KT 10SM SCT016 OVC060 03/01 A2970 RMK AO2 RAE22 SLP065 P0000 T00330006=
200902260121 SPECI KSEA 260121Z 20010KT 10SM -RA SCT016 BKN046 OVC080 03/02 A2969 RMK AO2 P0000=
200902260121 SPECI KSEA 260121Z 20010KT 10SM -RA SCT016 BKN046 OVC080 03/02 A2969 RMK AO2 P0000=
200902260053 METAR KSEA 260053Z 22013G18KT 7SM -RA FEW009 BKN016 BKN023 04/02 A2969 RMK AO2 RAB07 SLP063 P0002 T00390017=
200902260028 SPECI KSEA 260028Z 18008KT 10SM -RA SCT019 BKN024 OVC048 04/02 A2968 RMK AO2 RAB07 P0000=
200902260028 SPECI KSEA 260028Z 18008KT 10SM -RA SCT019 BKN024 OVC048 04/02 A2968 RMK AO2 RAB07 P0000=
200902252353 METAR KSEA 252353Z 20013KT 10SM FEW037 BKN060 BKN085 04/02 A2967 RMK AO2 PK WND 21027/2321 RAE08 SLP056 P0000 60015 T00440017 10072 20033 50004=
200902252330 SPECI KSEA 252330Z 21014G27KT 10SM FEW015 BKN037 BKN060 05/01 A2967 RMK AO2 PK WND 21027/2321 RAE08 P0000=
200902252330 SPECI KSEA 252330Z 21014G27KT 10SM FEW015 BKN037 BKN060 05/01 A2967 RMK AO2 PK WND 21027/2321 RAE08 P0000=
200902252307 SPECI KSEA 252307Z 23015G21KT 10SM -RA SCT012 BKN026 OVC035 04/01 A2968 RMK AO2 P0000=
200902252307 SPECI KSEA 252307Z 23015G21KT 10SM -RA SCT012 BKN026 OVC035 04/01 A2968 RMK AO2 P0000=
200902252253 METAR KSEA 252253Z 23014G24KT 8SM -RA BKN009 OVC020 03/01 A2968 RMK AO2 PK WND 24027/2242 RAB05 SLP059 P0002 T00330011=
200902252153 METAR KSEA 252153Z 21011G18KT 7SM BKN007 BKN014 05/03 A2966 RMK AO2 RAE53 SLP053 P0008 T00500033=
200902252128 SPECI KSEA 252128Z 20011KT 7SM -RA BKN007 OVC014 04/03 A2966 RMK AO2 P0006=
200902252128 SPECI KSEA 252128Z 20011KT 7SM -RA BKN007 OVC014 04/03 A2966 RMK AO2 P0006=
200902252123 SPECI KSEA 252123Z 21011KT 7SM -RA SCT008 OVC014 04/03 A2966 RMK AO2 P0005=
200902252123 SPECI KSEA 252123Z 21011KT 7SM -RA SCT008 OVC014 04/03 A2966 RMK AO2 P0005=
200902252053 METAR KSEA 252053Z 24015G21KT 4SM RA BR BKN008 OVC014 04/03 A2966 RMK AO2 RAE13B41 SLP052 P0001 60005 T00440028 56008=
200902252043 SPECI KSEA 252043Z 25009G15KT 5SM -RA BR BKN008 OVC014 05/03 A2966 RMK AO2 RAE13B41 P0000=
200902252043 SPECI KSEA 252043Z 25009G15KT 5SM -RA BR BKN008 OVC014 05/03 A2966 RMK AO2 RAE13B41 P0000=
200902251953 METAR KSEA 251953Z 25007KT 8SM -RA BKN013 OVC022 06/03 A2967 RMK AO2 SLP054 P0001 T00610033=
200902251944 SPECI KSEA 251944Z 22006KT 8SM -RA BKN014 OVC022 06/03 A2967 RMK AO2 P0001=
200902251944 SPECI KSEA 251944Z 22006KT 8SM -RA BKN014 OVC022 06/03 A2967 RMK AO2 P0001=
200902251853 METAR KSEA 251853Z 19017G23KT 7SM -RA BKN019 OVC026 07/04 A2967 RMK AO2 SLP057 P0003 T00670039=
200902251753 METAR KSEA 251753Z 19015G21KT 8SM -RA FEW015 BKN028 OVC055 07/04 A2968 RMK AO2 PK WND 19026/1711 RAB09E19B37 SLP060 P0001 60001 T00670039 10072 20061 56014=
200902251739 SPECI KSEA 251739Z 19013G20KT 8SM -RA FEW015 BKN028 OVC050 07/03 A2969 RMK AO2 PK WND 19026/1711 RAB09E19B37 P0000=
200902251739 SPECI KSEA 251739Z 19013G20KT 8SM -RA FEW015 BKN028 OVC050 07/03 A2969 RMK AO2 PK WND 19026/1711 RAB09E19B37 P0000=
200902251708 SPECI KSEA 251708Z 19014G20KT 10SM FEW015 SCT026 OVC048 07/03 A2969 RMK AO2=
200902251708 SPECI KSEA 251708Z 19014G20KT 10SM FEW015 SCT026 OVC048 07/03 A2969 RMK AO2=
200902251653 METAR KSEA 251653Z 19016G22KT 10SM FEW015 BKN028 BKN060 07/03 A2969 RMK AO2 SLP063 T00670028=
200902251641 SPECI KSEA 251641Z 18014G21KT 10SM FEW015 BKN028 BKN070 07/03 A2969 RMK AO2=
200902251641 SPECI KSEA 251641Z 18014G21KT 10SM FEW015 BKN028 BKN070 07/03 A2969 RMK AO2=
200902251553 METAR KSEA 251553Z 18014G21KT 10SM FEW015 BKN042 BKN200 06/04 A2970 RMK AO2 RAB23E36 SLP066 P0000 T00610039=
200902251510 SPECI KSEA 251510Z 18013KT 10SM FEW012 SCT020 OVC036 06/03 A2972 RMK AO2=
200902251510 SPECI KSEA 251510Z 18013KT 10SM FEW012 SCT020 OVC036 06/03 A2972 RMK AO2=
200902251453 METAR KSEA 251453Z 19013G20KT 10SM FEW012 BKN020 OVC039 06/03 A2973 RMK AO2 SLP074 60000 T00610033 56020=
200902251353 METAR KSEA 251353Z 19011KT 10SM SCT012 OVC027 06/04 A2974 RMK AO2 RAE1254 SLP080 T00610039=
200902251253 METAR KSEA 251253Z 20010KT 10SM -RA SCT012 BKN017 OVC038 06/04 A2976 RMK AO2 RAB19 SLP086 P0000 T00610044=
200902251153 METAR KSEA 251153Z 20013KT 10SM FEW016 BKN024 OVC045 06/04 A2978 RMK AO2 RAE51 SLP094 P0001 60012 70041 T00610044 10072 20056 58014=
200902251130 SPECI KSEA 251130Z 21015G22KT 9SM -RA FEW008 OVC028 06/04 A2979 RMK AO2 P0001=
200902251130 SPECI KSEA 251130Z 21015G22KT 9SM -RA FEW008 OVC028 06/04 A2979 RMK AO2 P0001=
200902251116 SPECI KSEA 251116Z 20013KT 10SM -RA FEW008 SCT019 OVC030 06/04 A2980 RMK AO2 P0001=
200902251116 SPECI KSEA 251116Z 20013KT 10SM -RA FEW008 SCT019 OVC030 06/04 A2980 RMK AO2 P0001=
200902251053 METAR KSEA 251053Z 21010KT 10SM -RA SCT006 SCT009 OVC019 06/04 A2981 RMK AO2 SLP103 P0006 T00610044=
200902251034 SPECI KSEA 251034Z 20009G15KT 3SM RA BR BKN006 BKN016 OVC026 07/05 A2981 RMK AO2 P0004=
200902251034 SPECI KSEA 251034Z 20009G15KT 3SM RA BR BKN006 BKN016 OVC026 07/05 A2981 RMK AO2 P0004=
200902251027 SPECI KSEA 251027Z 20007KT 3SM RA BR SCT006 BKN014 OVC039 07/05 A2982 RMK AO2 P0003=
200902251027 SPECI KSEA 251027Z 20007KT 3SM RA BR SCT006 BKN014 OVC039 07/05 A2982 RMK AO2 P0003=
200902250953 METAR KSEA 250953Z 19014G19KT 10SM -RA SCT011 OVC018 07/05 A2982 RMK AO2 RAB43 SLP105 P0000 T00670050=
200902250936 SPECI KSEA 250936Z 19011KT 10SM SCT010 BKN015 OVC046 07/05 A2982 RMK AO2=
200902250936 SPECI KSEA 250936Z 19011KT 10SM SCT010 BKN015 OVC046 07/05 A2982 RMK AO2=
200902250911 SPECI KSEA 250911Z 20011KT 10SM SCT011 BKN034 OVC060 07/05 A2982 RMK AO2=
200902250911 SPECI KSEA 250911Z 20011KT 10SM SCT011 BKN034 OVC060 07/05 A2982 RMK AO2=
200902250853 METAR KSEA 250853Z 20008KT 10SM SCT009 BKN014 OVC060 07/05 A2983 RMK AO2 RAE04 SLP108 P0001 60005 T00670050 56005=
200902250838 SPECI KSEA 250838Z 20011KT 10SM SCT007 BKN013 OVC020 07/05 A2982 RMK AO2 RAE04 P0001=
200902250838 SPECI KSEA 250838Z 20011KT 10SM SCT007 BKN013 OVC020 07/05 A2982 RMK AO2 RAE04 P0001=
200902250753 METAR KSEA 250753Z 21009KT 10SM -RA SCT005 BKN022 OVC031 07/05 A2983 RMK AO2 RAB01 SLP109 P0002 T00670050 400890067=
200902250748 SPECI KSEA 250748Z 21011KT 10SM -RA SCT005 BKN013 OVC031 07/05 A2983 RMK AO2 RAB01 P0002 400890067=
200902250748 SPECI KSEA 250748Z 21011KT 10SM -RA SCT005 BKN013 OVC031 07/05 A2983 RMK AO2 RAB01 P0002 400890067=
200902250728 SPECI KSEA 250728Z 20013G18KT 5SM -RA BR BKN005 BKN011 OVC029 07/06 A2983 RMK AO2 RAB01 P0001=
200902250728 SPECI KSEA 250728Z 20013G18KT 5SM -RA BR BKN005 BKN011 OVC029 07/06 A2983 RMK AO2 RAB01 P0001=
200902250653 METAR KSEA 250653Z 20009KT 10SM SCT003 BKN012 OVC041 07/06 A2984 RMK AO2 RAB00E45 SLP113 P0002 T00670056=
200902250643 SPECI KSEA 250643Z 19008KT 10SM -RA SCT006 BKN012 OVC039 07/06 A2984 RMK AO2 RAB00 P0002=
200902250643 SPECI KSEA 250643Z 19008KT 10SM -RA SCT006 BKN012 OVC039 07/06 A2984 RMK AO2 RAB00 P0002=
200902250619 SPECI KSEA 250619Z 20010KT 10SM -RA SCT006 BKN028 OVC035 07/06 A2985 RMK AO2 RAB00 P0000=
200902250619 SPECI KSEA 250619Z 20010KT 10SM -RA SCT006 BKN028 OVC035 07/06 A2985 RMK AO2 RAB00 P0000=
200902250553 METAR KSEA 250553Z 20008KT 10SM FEW006 BKN044 OVC055 07/06 A2985 RMK AO2 RAE51 SLP116 P0001 60005 T00670056 10083 20067 56004=
200902250453 METAR KSEA 250453Z 21012KT 10SM -RA FEW008 BKN035 OVC047 07/06 A2985 RMK AO2 RAE21B43 SLP116 P0000 T00670056=
200902250428 SPECI KSEA 250428Z 20009KT 10SM FEW007 BKN041 OVC049 07/06 A2985 RMK AO2 RAE21 P0000=
200902250428 SPECI KSEA 250428Z 20009KT 10SM FEW007 BKN041 OVC049 07/06 A2985 RMK AO2 RAE21 P0000=
200902250353 METAR KSEA 250353Z 21012KT 10SM -RA BKN040 OVC065 07/06 A2985 RMK AO2 RAE31B48 SLP117 P0000 T00720056=
200902250316 SPECI KSEA 250316Z 20008KT 10SM FEW015 BKN032 OVC042 08/05 A2986 RMK AO2 RAE13 P0000=
200902250316 SPECI KSEA 250316Z 20008KT 10SM FEW015 BKN032 OVC042 08/05 A2986 RMK AO2 RAE13 P0000=
200902250253 METAR KSEA 250253Z 21010KT 10SM -RA FEW017 BKN026 OVC033 08/05 A2986 RMK AO2 RAB46 SLP119 P0000 60004 T00780050 58003=
200902250153 METAR KSEA 250153Z 21010KT 10SM FEW020 SCT038 BKN090 08/06 A2987 RMK AO2 SLP122 T00780056=
200902250139 SPECI KSEA 250139Z 21012G17KT 10SM FEW019 SCT027 BKN090 08/06 A2987 RMK AO2=
200902250139 SPECI KSEA 250139Z 21012G17KT 10SM FEW019 SCT027 BKN090 08/06 A2987 RMK AO2=
200902250053 METAR KSEA 250053Z 22008KT 10SM FEW009 BKN027 OVC070 08/06 A2987 RMK AO2 RAE39 SLP121 P0004 T00780061=
200902250018 SPECI KSEA 250018Z 22011G18KT 2SM -RA BR FEW007 BKN028 OVC034 08/06 A2987 RMK AO2 SFC VIS 3 P0003=
200902250018 SPECI KSEA 250018Z 22011G18KT 2SM -RA BR FEW007 BKN028 OVC034 08/06 A2987 RMK AO2 SFC VIS 3 P0003=
200902250008 SPECI KSEA 250008Z 22010KT 2SM -RA BR BKN013 BKN022 OVC029 08/06 A2987 RMK AO2 SFC VIS 4 P0002=
200902250008 SPECI KSEA 250008Z 22010KT 2SM -RA BR BKN013 BKN022 OVC029 08/06 A2987 RMK AO2 SFC VIS 4 P0002=
200902242353 METAR KSEA 242353Z 21010KT 9SM -RA SCT012 BKN017 OVC034 08/06 A2987 RMK AO2 RAB20 SLP121 P0000 60020 T00830061 10089 20072 51005=
200902242326 SPECI KSEA 242326Z 20012KT 10SM -RA SCT014 BKN024 OVC080 08/06 A2987 RMK AO2 RAB20 P0000=
200902242326 SPECI KSEA 242326Z 20012KT 10SM -RA SCT014 BKN024 OVC080 08/06 A2987 RMK AO2 RAB20 P0000=
200902242253 METAR KSEA 242253Z 22010KT 10SM FEW007 SCT024 BKN080 08/06 A2987 RMK AO2 RAE2155 SLP121 P0000 T00830056=
200902242246 SPECI KSEA 242246Z 21011KT 10SM FEW007 SCT024 BKN035 08/06 A2986 RMK AO2 RAE2155 P0000=
200902242246 SPECI KSEA 242246Z 21011KT 10SM FEW007 SCT024 BKN035 08/06 A2986 RMK AO2 RAE2155 P0000=
200902242211 SPECI KSEA 242211Z 22010KT 10SM FEW007 SCT012 BKN024 09/06 A2986 RMK AO2 RAE2155 P0000=
200902242211 SPECI KSEA 242211Z 22010KT 10SM FEW007 SCT012 BKN024 09/06 A2986 RMK AO2 RAE2155 P0000=
200902242153 METAR KSEA 242153Z 22015G19KT 8SM -RA FEW007 BKN012 BKN200 08/06 A2986 RMK AO2 RAB46 SLP118 P0000 T00830061=
200902242122 SPECI KSEA 242122Z 22014G21KT 10SM FEW007 BKN014 BKN200 09/06 A2986 RMK AO2=
200902242122 SPECI KSEA 242122Z 22014G21KT 10SM FEW007 BKN014 BKN200 09/06 A2986 RMK AO2=
200902242053 METAR KSEA 242053Z 21012G22KT 10SM SCT006 BKN024 BKN200 08/06 A2985 RMK AO2 RAE39 SLP116 P0016 60020 T00830061 51023=
200902242049 SPECI KSEA 242049Z 21014G22KT 10SM SCT006 BKN024 BKN200 08/06 A2985 RMK AO2 RAE39 P0016=
200902242049 SPECI KSEA 242049Z 21014G22KT 10SM SCT006 BKN024 BKN200 08/06 A2985 RMK AO2 RAE39 P0016=
200902242027 SPECI KSEA 242027Z 24014G21KT 6SM R16C/4500VP6000FT -RA BR BKN006 OVC013 08/06 A2985 RMK AO2 P0015=
200902242027 SPECI KSEA 242027Z 24014G21KT 6SM R16C/4500VP6000FT -RA BR BKN006 OVC013 08/06 A2985 RMK AO2 P0015=
200902242009 SPECI KSEA 242009Z 22010KT 2SM R16C/5000VP6000FT RA BR BKN006 OVC011 08/06 A2985 RMK AO2 P0004=
200902242009 SPECI KSEA 242009Z 22010KT 2SM R16C/5000VP6000FT RA BR BKN006 OVC011 08/06 A2985 RMK AO2 P0004=
200902241953 METAR KSEA 241953Z 20011G21KT 3SM R16C/5000VP6000FT RA BR BKN007 OVC013 08/06 A2984 RMK AO2 TWR VIS 4 SLP110 VIS W-N 2 P0004 T00830061=
200902241940 SPECI KSEA 241940Z 21009KT 2 1/2SM R16C/4000VP6000FT RA BR BKN006 OVC012 08/06 A2984 RMK AO2 TWR VIS 4 P0004=
200902241940 SPECI KSEA 241940Z 21009KT 2 1/2SM R16C/4000VP6000FT RA BR BKN006 OVC012 08/06 A2984 RMK AO2 TWR VIS 4 P0004=
200902241853 METAR KSEA 241853Z 18013G21KT 4SM -RA BR BKN007 OVC012 08/06 A2981 RMK AO2 RAE01B37 SLP102 P0000 T00830061=
200902241753 METAR KSEA 241753Z 18012KT 4SM -RA BR BKN006 OVC012 07/06 A2979 RMK AO2 SLP094 P0003 60004 T00720056 10078 20067 51033=
200902241744 SPECI KSEA 241744Z 18013KT 4SM -RA BR BKN007 OVC012 07/06 A2978 RMK AO2 P0003=
200902241744 SPECI KSEA 241744Z 18013KT 4SM -RA BR BKN007 OVC012 07/06 A2978 RMK AO2 P0003=
200902241728 SPECI KSEA 241728Z 18011KT 2SM R16C/5000VP6000FT -RA BR BKN006 OVC010 07/06 A2978 RMK AO2 P0002=
200902241728 SPECI KSEA 241728Z 18011KT 2SM R16C/5000VP6000FT -RA BR BKN006 OVC010 07/06 A2978 RMK AO2 P0002=
200902241723 SPECI KSEA 241723Z 18011KT 2SM R16C/5000VP6000FT -RA BR SCT005 OVC010 07/06 A2977 RMK AO2 P0002=
200902241723 SPECI KSEA 241723Z 18011KT 2SM R16C/5000VP6000FT -RA BR SCT005 OVC010 07/06 A2977 RMK AO2 P0002=
200902241716 SPECI KSEA 241716Z 19012G17KT 2SM R16C/6000VP6000FT -RA BR OVC010 07/05 A2977 RMK AO2 P0001=
200902241716 SPECI KSEA 241716Z 19012G17KT 2SM R16C/6000VP6000FT -RA BR OVC010 07/05 A2977 RMK AO2 P0001=
200902241653 METAR KSEA 241653Z 17011KT 8SM -RA BKN014 OVC022 07/04 A2976 RMK AO2 SLP084 P0000 T00720044=
200902241619 SPECI KSEA 241619Z 18011G20KT 4SM -RA BKN014 OVC020 07/04 A2974 RMK AO2 P0000=
200902241619 SPECI KSEA 241619Z 18011G20KT 4SM -RA BKN014 OVC020 07/04 A2974 RMK AO2 P0000=
200902241553 METAR KSEA 241553Z 17013G19KT 9SM -RA BKN016 OVC025 07/03 A2972 RMK AO2 RAB15 SLP073 P0001 T00670033=
200902241453 METAR KSEA 241453Z 18013G18KT 10SM BKN024 OVC038 07/03 A2969 RMK AO2 RAE16 SLP061 P0000 60000 T00670028 53001=
200902241420 SPECI KSEA 241420Z 18015G21KT 10SM BKN028 OVC060 07/03 A2968 RMK AO2 RAE16 P0000=
200902241420 SPECI KSEA 241420Z 18015G21KT 10SM BKN028 OVC060 07/03 A2968 RMK AO2 RAE16 P0000=
200902241353 METAR KSEA 241353Z 19014G19KT 10SM -RA OVC034 08/02 A2967 RMK AO2 RAB1258 SLP056 P0000 T00780022=
200902241253 METAR KSEA 241253Z 15011KT 10SM BKN040 BKN049 OVC090 08/03 A2967 RMK AO2 SLP054 T00780028=
200902241153 METAR KSEA 241153Z 17014G19KT 10SM OVC034 08/03 A2968 RMK AO2 RAE1056B17E52 SLP058 P0000 60000 70023 T00780028 10083 20072 53001=
200902241053 METAR KSEA 241053Z 18009KT 10SM -RA BKN039 OVC047 08/03 A2968 RMK AO2 RAB06 SLP056 P0000 T00780028=
200902240953 METAR KSEA 240953Z 18015KT 10SM FEW045 SCT060 08/02 A2967 RMK AO2 RAE0858 SLP055 P0000 T00830022=
200902240853 METAR KSEA 240853Z 18011KT 10SM -RA BKN045 OVC055 08/03 A2968 RMK AO2 SLP057 P0000 60000 T00780028 55012=
200902240753 METAR KSEA 240753Z 11007KT 10SM -RA BKN055 OVC095 08/04 A2966 RMK AO2 RAB05 SLP051 P0000 T00780039 401390067=
200902240653 METAR KSEA 240653Z 09005KT 10SM BKN070 OVC095 08/04 A2969 RMK AO2 SLP060 T00780039=
200902240553 METAR KSEA 240553Z 16003KT 10SM BKN100 07/04 A2972 RMK AO2 SLP069 60005 T00720044 10094 20067 58006=
200902240453 METAR KSEA 240453Z 21005KT 10SM FEW060 SCT110 07/04 A2973 RMK AO2 SLP075 T00720044=
200902240353 METAR KSEA 240353Z 19005KT 10SM FEW045 SCT060 BKN200 07/05 A2973 RMK AO2 SLP074 T00720050=
200902240253 METAR KSEA 240253Z 19008KT 10SM SCT042 BKN055 BKN140 08/06 A2973 RMK AO2 SLP077 60005 T00830056 55005=
200902240153 METAR KSEA 240153Z 17009KT 10SM SCT044 BKN055 BKN070 09/06 A2973 RMK AO2 RAE08 SLP073 P0000 T00890061=
200902240053 METAR KSEA 240053Z 12011KT 10SM -RA FEW035 BKN060 BKN120 09/07 A2972 RMK AO2 SLP071 P0005 T00940072=
200902232353 METAR KSEA 232353Z 15003KT 3SM RA BR BKN034 OVC046 08/07 A2975 RMK AO2 SLP081 P0016 60018 T00830067 10139 20083 53004=
200902232253 METAR KSEA 232253Z 29004KT 7SM -RA BKN048 OVC065 09/07 A2971 RMK AO2 SLP068 P0001 T00940067=
200902232153 METAR KSEA 232153Z 34005KT 10SM -RA BKN049 OVC100 09/06 A2971 RMK AO2 RAB16 SLP068 P0001 T00940056=
200902232053 METAR KSEA 232053Z VRB03KT 10SM BKN065 OVC200 12/06 A2974 RMK AO2 SLP076 T01220056 58025=
200902231953 METAR KSEA 231953Z 35003KT 10SM SCT070 BKN200 13/04 A2977 RMK AO2 SLP087 T01280039=
200902231853 METAR KSEA 231853Z 05004KT 10SM BKN070 OVC200 12/04 A2979 RMK AO2 SLP093 T01170039=
200902231753 METAR KSEA 231753Z 04003KT 10SM SCT070 BKN200 11/04 A2981 RMK AO2 SLP102 T01060039 10106 20067 57010=
200902231653 METAR KSEA 231653Z 05004KT 10SM SCT065 BKN250 09/03 A2982 RMK AO2 SLP104 T00940033=
200902231553 METAR KSEA 231553Z 00000KT 10SM SCT060 SCT110 BKN250 08/03 A2984 RMK AO2 SLP110 T00780028=
200902231453 METAR KSEA 231453Z 05004KT 10SM FEW060 SCT130 BKN250 07/04 A2984 RMK AO2 SLP112 T00670039 58017=
200902231353 METAR KSEA 231353Z 00000KT 10SM OVC055 07/04 A2987 RMK AO2 SLP121 T00720039=
200902231253 METAR KSEA 231253Z 11004KT 10SM OVC055 08/03 A2988 RMK AO2 SLP125 T00780033=
200902231153 METAR KSEA 231153Z 10008KT 10SM BKN050 OVC090 08/04 A2989 RMK AO2 SLP129 60003 70007 T00830039 10094 20067 58003=
200902231053 METAR KSEA 231053Z 11007KT 10SM OVC042 08/04 A2990 RMK AO2 SLP133 T00830039=
200902230953 METAR KSEA 230953Z 14004KT 10SM FEW044 SCT060 BKN110 07/04 A2991 RMK AO2 SLP136 T00670044=
200902230853 METAR KSEA 230853Z 00000KT 10SM BKN039 BKN065 OVC110 08/05 A2990 RMK AO2 SLP132 60003 T00780050 51009=
200902230753 METAR KSEA 230753Z 13004KT 10SM BKN045 BKN060 OVC090 09/04 A2989 RMK AO2 RAE50 SLP129 P0000 T00890044 401390061=
200902230653 METAR KSEA 230653Z 11006KT 6SM -RA SCT042 OVC049 09/04 A2989 RMK AO2 RAB10 SLP128 P0003 T00890044=
200902230553 METAR KSEA 230553Z 14004KT 10SM OVC055 09/04 A2987 RMK AO2 RAB29E41 SLP123 P0000 60001 T00940039 10122 20094 53003=
200902230453 METAR KSEA 230453Z 11008KT 10SM BKN055 10/04 A2987 RMK AO2 SLP121 T01000039=
200902230353 METAR KSEA 230353Z 11008KT 10SM BKN049 10/06 A2986 RMK AO2 RAE26 SLP120 P0000 T01000056=
200902230253 METAR KSEA 230253Z 09006KT 10SM -RA OVC048 11/06 A2987 RMK AO2 SLP120 P0001 60001 T01110056 53009=
200902230153 METAR KSEA 230153Z 00000KT 10SM -RA BKN044 OVC060 11/07 A2985 RMK AO2 RAB20 SLP116 P0000 T01060072=
200902230053 METAR KSEA 230053Z 00000KT 10SM SCT055 OVC080 11/08 A2984 RMK AO2 SLP111 T01110078=
200902222353 METAR KSEA 222353Z 28004KT 10SM FEW040 SCT060 OVC100 12/07 A2984 RMK AO2 RAE31 SLP111 P0000 60000 T01170072 10139 20083 58001=
200902222253 METAR KSEA 222253Z 29005KT 10SM -RA BKN055 OVC070 12/06 A2985 RMK AO2 RAB43 SLP114 P0000 T01170056=
200902222153 METAR KSEA 222153Z 29003KT 10SM BKN060 BKN140 13/06 A2984 RMK AO2 SLP111 T01280056=
200902222053 METAR KSEA 222053Z 00000KT 10SM OVC065 14/07 A2984 RMK AO2 SLP112 T01390067 58005=
200902221953 METAR KSEA 221953Z 16003KT 10SM OVC055 13/04 A2986 RMK AO2 SLP117 T01280039=
200902221853 METAR KSEA 221853Z 14004KT 10SM BKN055 OVC065 10/06 A2986 RMK AO2 SLP118 T01000056=
200902221753 METAR KSEA 221753Z 16004KT 10SM BKN055 OVC070 08/04 A2986 RMK AO2 RAE02B23E33 SLP117 P0000 60003 T00830044 10100 20067 53017=
200902221653 METAR KSEA 221653Z 10008KT 10SM -RA SCT042 BKN060 BKN075 09/03 A2982 RMK AO2 SLP105 P0000 T00940028=
200902221553 METAR KSEA 221553Z 17004KT 10SM -RA OVC065 09/03 A2983 RMK AO2 RAE31B47 SLP110 P0000 T00890028=
200902221453 METAR KSEA 221453Z 10007KT 10SM -RA OVC070 10/02 A2981 RMK AO2 RAE15B39 SLP099 P0000 60003 T01000017 51002=
200902221353 METAR KSEA 221353Z 00000KT 10SM -RA OVC065 09/02 A2980 RMK AO2 SLP097 P0002 T00940017=
200902221253 METAR KSEA 221253Z 00000KT 10SM -RA BKN065 OVC100 08/01 A2981 RMK AO2 RAB37 SLP102 P0001 T00780006=
200902221153 METAR KSEA 221153Z 36003KT 10SM BKN110 OVC200 08/00 A2980 RMK AO2 SLP098 T00780000 10117 20061 55014=
200902221053 METAR KSEA 221053Z 02007KT 10SM BKN120 BKN200 07/M01 A2980 RMK AO2 SLP097 T00721011=
200902220953 METAR KSEA 220953Z 05007KT 10SM BKN130 BKN200 08/00 A2983 RMK AO2 SLP107 T00830000=
200902220853 METAR KSEA 220853Z 06008KT 10SM FEW090 SCT130 BKN200 07/M01 A2984 RMK AO2 SLP113 T00721006 58024=
200902220753 METAR KSEA 220753Z 05005KT 10SM SCT090 BKN100 11/M03 A2987 RMK AO2 SLP122 T01061033 401280006=
200902220653 METAR KSEA 220653Z 00000KT 10SM SCT080 OVC095 10/M02 A2990 RMK AO2 SLP131 T01001022=
200902220553 METAR KSEA 220553Z 14003KT 10SM BKN100 OVC120 08/02 A2991 RMK AO2 RAB07E21 SLP138 P0000 60000 T00830017 10122 20067 50003=
200902220453 METAR KSEA 220453Z 13003KT 10SM BKN100 BKN120 08/03 A2992 RMK AO2 SLP140 T00780028=
200902220353 METAR KSEA 220353Z 17004KT 10SM BKN110 08/03 A2992 RMK AO2 SLP139 T00780028=
200902220253 METAR KSEA 220253Z 11008KT 10SM BKN120 OVC200 12/M03 A2990 RMK AO2 SLP135 T01171033 56010=
200902220153 METAR KSEA 220153Z 36004KT 10SM FEW060 SCT120 OVC200 09/01 A2991 RMK AO2 SLP138 VIRGA SW T00890006=
200902220053 METAR KSEA 220053Z 28004KT 10SM FEW060 SCT120 OVC200 11/01 A2992 RMK AO2 SLP140 T01060011=
200902212353 METAR KSEA 212353Z 30005KT 10SM FEW060 SCT150 OVC200 11/01 A2994 RMK AO2 SLP145 T01110006 10128 20067 56022=
200902212253 METAR KSEA 212253Z 29007KT 10SM FEW060 SCT120 OVC200 12/01 A2996 RMK AO2 SLP153 T01220006=
200902212153 METAR KSEA 212153Z 36006KT 10SM FEW060 SCT120 OVC200 13/00 A2997 RMK AO2 SLP158 T01280000=
200902212053 METAR KSEA 212053Z 32006KT 10SM FEW060 SCT120 OVC200 11/01 A3000 RMK AO2 SLP167 T01060011 58016=
200902211953 METAR KSEA 211953Z 35007KT 10SM SCT090 OVC200 11/00 A3003 RMK AO2 SLP177 T01060000=
200902211853 METAR KSEA 211853Z 01009KT 10SM SCT090 OVC200 08/00 A3003 RMK AO2 SLP177 T00780000=
200902211753 METAR KSEA 211753Z 01007KT 10SM SCT090 OVC200 07/00 A3005 RMK AO2 SLP184 T00670000 10067 20006 58014=
200902211653 METAR KSEA 211653Z 02007KT 10SM FEW080 BKN200 06/M01 A3007 RMK AO2 SLP190 T00561006=
200902211553 METAR KSEA 211553Z 03008KT 10SM FEW080 BKN200 03/M01 A3008 RMK AO2 SLP196 T00281006=
200902211453 METAR KSEA 211453Z 02008KT 10SM SCT200 02/M01 A3009 RMK AO2 SLP199 T00171006 58013=
200902211353 METAR KSEA 211353Z 36004KT 10SM SCT200 01/M01 A3011 RMK AO2 SLP205 T00111006=
200902211253 METAR KSEA 211253Z 35003KT 10SM BKN200 02/00 A3013 RMK AO2 SLP211 T00220000=
200902211153 METAR KSEA 211153Z 00000KT 8SM BKN200 02/01 A3013 RMK AO2 SLP211 T00220006 10061 20017 58013=
200902211053 METAR KSEA 211053Z 01003KT 10SM SCT200 02/01 A3015 RMK AO2 SLP217 T00220006=
200902210953 METAR KSEA 210953Z 01005KT 9SM CLR 03/01 A3016 RMK AO2 SLP222 T00280011=
200902210853 METAR KSEA 210853Z 01006KT 10SM CLR 04/01 A3017 RMK AO2 SLP224 T00390006 57006=
200902210753 METAR KSEA 210753Z 01005KT 10SM CLR 03/M01 A3018 RMK AO2 SLP227 T00281006 401111011=
200902210653 METAR KSEA 210653Z 03007KT 10SM CLR 06/00 A3018 RMK AO2 SLP227 T00560000=
200902210553 METAR KSEA 210553Z 02008KT 10SM CLR 06/01 A3018 RMK AO2 SLP231 T00610006 10111 20044 55003=
200902210453 METAR KSEA 210453Z 03006KT 10SM CLR 06/01 A3018 RMK AO2 SLP230 T00610006=
200902210353 METAR KSEA 210353Z 01005KT 10SM CLR 06/01 A3019 RMK AO2 SLP231 T00610006=
200902210253 METAR KSEA 210253Z 34004KT 10SM CLR 06/02 A3019 RMK AO2 SLP235 T00560017 56004=
200902210153 METAR KSEA 210153Z 33004KT 10SM SCT250 07/02 A3019 RMK AO2 SLP234 T00720017=
200902210053 METAR KSEA 210053Z 31004KT 10SM BKN250 09/02 A3020 RMK AO2 SLP235 T00940017=
200902202353 METAR KSEA 202353Z 34006KT 10SM BKN250 11/02 A3021 RMK AO2 SLP237 T01110022 10111 20033 58014=
200902202253 METAR KSEA 202253Z 28004KT 10SM BKN250 10/02 A3023 RMK AO2 SLP245 T01000022=
200902202153 METAR KSEA 202153Z VRB03KT 10SM SCT250 09/03 A3024 RMK AO2 SLP247 T00940028=
200902202053 METAR KSEA 202053Z 33004KT 10SM FEW250 08/03 A3025 RMK AO2 SLP251 T00830028 58014=
200902201953 METAR KSEA 201953Z 26003KT 10SM FEW250 08/03 A3027 RMK AO2 SLP258 T00780028=
200902201853 METAR KSEA 201853Z 00000KT 5SM HZ FEW001 SCT250 06/02 A3028 RMK AO2 SLP264 VIS N 2 T00610022=
200902201841 SPECI KSEA 201841Z 00000KT 5SM HZ SCT001 SCT250 06/02 A3028 RMK AO2 VIS SE-SW 2=
200902201841 SPECI KSEA 201841Z 00000KT 5SM HZ SCT001 SCT250 06/02 A3028 RMK AO2 VIS SE-SW 2=
200902201819 SPECI KSEA 201819Z 00000KT 1 1/2SM HZ BKN001 BKN250 04/02 A3029 RMK AO2 BKN001 V SCT=
200902201819 SPECI KSEA 201819Z 00000KT 1 1/2SM HZ BKN001 BKN250 04/02 A3029 RMK AO2 BKN001 V SCT=
200902201753 METAR KSEA 201753Z 00000KT 1SM R16C/2600VP6000FT BR BKN001 BKN250 03/02 A3029 RMK AO2 TWR VIS 1 1/2 SLP267 BKN001 V SCT T00330017 10033 21011 51011=
200902201722 SPECI KSEA 201722Z 10003KT 1SM BR BKN001 BKN250 02/00 A3029 RMK AO2 TWR VIS 10 BKN001 V SCT RVRNO=
200902201722 SPECI KSEA 201722Z 10003KT 1SM BR BKN001 BKN250 02/00 A3029 RMK AO2 TWR VIS 10 BKN001 V SCT RVRNO=
200902201653 METAR KSEA 201653Z 12004KT 1/4SM FG BKN001 BKN250 01/00 A3028 RMK AO2 TWR VIS 10 SLP265 T00110000 RVRNO=
200902201636 SPECI KSEA 201636Z 00000KT 1/2SM FG BKN001 BKN250 01/00 A3028 RMK AO2 TWR VIS 10 RVRNO=
200902201636 SPECI KSEA 201636Z 00000KT 1/2SM FG BKN001 BKN250 01/00 A3028 RMK AO2 TWR VIS 10 RVRNO=
200902201618 SPECI KSEA 201618Z 00000KT 1 1/4SM BR FEW001 SCT250 01/M01 A3028 RMK AO2 TWR VIS 10=
200902201618 SPECI KSEA 201618Z 00000KT 1 1/4SM BR FEW001 SCT250 01/M01 A3028 RMK AO2 TWR VIS 10=
200902201608 SPECI KSEA 201608Z 00000KT 1/2SM FG SCT001 BKN250 00/M01 A3028 RMK AO2 TWR VIS 10 RVRNO=
200902201608 SPECI KSEA 201608Z 00000KT 1/2SM FG SCT001 BKN250 00/M01 A3028 RMK AO2 TWR VIS 10 RVRNO=
200902201553 METAR KSEA 201553Z 06003KT 1/8SM FZFG OVC001 M01/M02 A3027 RMK AO2 TWR VIS 10 SLP261 T10061017 RVRNO=
200902201537 SPECI KSEA 201537Z 00000KT 1/8SM FZFG BKN001 M01/M01 A3027 RMK AO2 TWR VIS 10 RVRNO=
200902201537 SPECI KSEA 201537Z 00000KT 1/8SM FZFG BKN001 M01/M01 A3027 RMK AO2 TWR VIS 10 RVRNO=
200902201528 SPECI KSEA 201528Z 00000KT 1/4SM FZFG BKN001 BKN200 M01/M02 A3027 RMK AO2 TWR VIS 10 RVRNO=
200902201528 SPECI KSEA 201528Z 00000KT 1/4SM FZFG BKN001 BKN200 M01/M02 A3027 RMK AO2 TWR VIS 10 RVRNO=
200902201517 SPECI KSEA 201517Z 00000KT 1/2SM FZFG SCT001 BKN200 M01/M02 A3027 RMK AO2 TWR VIS 10 RVRNO=
200902201517 SPECI KSEA 201517Z 00000KT 1/2SM FZFG SCT001 BKN200 M01/M02 A3027 RMK AO2 TWR VIS 10 RVRNO=
200902201459 SPECI KSEA 201459Z 02004KT 1 1/2SM BR SCT001 M01/M02 A3026 RMK AO2 TWR VIS 10=
200902201459 SPECI KSEA 201459Z 02004KT 1 1/2SM BR SCT001 M01/M02 A3026 RMK AO2 TWR VIS 10=
200902201453 METAR KSEA 201453Z 00000KT 1/4SM FZFG OVC001 M01/M02 A3026 RMK AO2 SLP257 T10111017 51007 RVRNO=
200902201438 SPECI KSEA 201438Z 04003KT 1/4SM FZFG VV001 M01/M01 A3025 RMK AO2 RVRNO=
200902201438 SPECI KSEA 201438Z 04003KT 1/4SM FZFG VV001 M01/M01 A3025 RMK AO2 RVRNO=
200902201424 SPECI KSEA 201424Z 02004KT 1/4SM FZFG BKN002 BKN006 M01/M02 A3025 RMK AO2 RVRNO=
200902201424 SPECI KSEA 201424Z 02004KT 1/4SM FZFG BKN002 BKN006 M01/M02 A3025 RMK AO2 RVRNO=
200902201403 SPECI KSEA 201403Z 04005KT 3/4SM R16C/P6000FT BR FEW002 01/M01 A3025 RMK AO2=
200902201403 SPECI KSEA 201403Z 04005KT 3/4SM R16C/P6000FT BR FEW002 01/M01 A3025 RMK AO2=
200902201401 SPECI KSEA 201401Z 05005KT 1 3/4SM BR CLR 01/00 A3025 RMK AO2=
200902201401 SPECI KSEA 201401Z 05005KT 1 3/4SM BR CLR 01/00 A3025 RMK AO2=
200902201353 METAR KSEA 201353Z 04004KT 3SM BR CLR 01/M01 A3025 RMK AO2 SLP253 T00111006=
200902201253 METAR KSEA 201253Z 00000KT 6SM BR CLR 02/00 A3025 RMK AO2 SLP253 T00170000=
200902201153 METAR KSEA 201153Z 06005KT 7SM CLR 02/01 A3024 RMK AO2 SLP248 T00170006 10044 20006 51004=
200902201053 METAR KSEA 201053Z 04005KT 9SM CLR 02/00 A3024 RMK AO2 SLP247 T00170000=
200902200953 METAR KSEA 200953Z 00000KT 7SM CLR 02/01 A3024 RMK AO2 SLP247 T00220006=
200902200853 METAR KSEA 200853Z 06004KT 10SM CLR 03/01 A3023 RMK AO2 SLP244 T00330011 51005=
200902200753 METAR KSEA 200753Z 03006KT 10SM CLR 04/01 A3022 RMK AO2 SLP242 T00390011 401060006=
200902200653 METAR KSEA 200653Z 01008KT 10SM CLR 03/01 A3022 RMK AO2 SLP243 T00330006=
200902200553 METAR KSEA 200553Z 36008KT 10SM CLR 04/01 A3021 RMK AO2 SLP240 T00390011 10100 20039 53005=
200902200453 METAR KSEA 200453Z 01009KT 10SM CLR 06/01 A3021 RMK AO2 SLP238 T00560011=
200902200353 METAR KSEA 200353Z 02009KT 10SM CLR 06/02 A3020 RMK AO2 SLP237 T00610017=
200902200253 METAR KSEA 200253Z 35007KT 10SM CLR 04/01 A3020 RMK AO2 SLP235 T00440011 56009=
200902200153 METAR KSEA 200153Z 32004KT 10SM FEW140 SCT200 06/02 A3020 RMK AO2 SLP236 T00610022=
200902200053 METAR KSEA 200053Z 35003KT 10SM FEW140 SCT200 09/03 A3021 RMK AO2 SLP238 T00940028=
200902192353 METAR KSEA 192353Z 35005KT 10SM SCT120 BKN200 10/02 A3023 RMK AO2 SLP244 T01000022 10106 20056 56010=
200902192253 METAR KSEA 192253Z 35008KT 10SM SCT120 BKN200 10/02 A3024 RMK AO2 SLP248 T01000022=
200902192153 METAR KSEA 192153Z 35007KT 10SM FEW130 BKN250 09/02 A3024 RMK AO2 SLP249 ACSL DSNT SE T00940017=
200902192053 METAR KSEA 192053Z 01009KT 10SM FEW130 BKN250 09/02 A3026 RMK AO2 SLP255 ACSL DSNT SE T00940017 58012=
200902191953 METAR KSEA 191953Z 36009KT 10SM FEW140 BKN250 09/02 A3027 RMK AO2 SLP260 ACSL DSNT SE T00890017=
200902191853 METAR KSEA 191853Z 35007KT 10SM FEW004 OVC250 07/01 A3028 RMK AO2 SLP262 T00720011=
200902191753 METAR KSEA 191753Z 35006KT 10SM FEW004 OVC250 06/01 A3029 RMK AO2 SLP266 T00560006 10056 20006 51010=
200902191653 METAR KSEA 191653Z 36007KT 10SM FEW002 SCT150 OVC250 04/01 A3029 RMK AO2 SLP266 T00390006=
200902191553 METAR KSEA 191553Z 02008KT 10SM FEW002 BKN250 03/00 A3028 RMK AO2 SLP262 T00330000=
200902191453 METAR KSEA 191453Z 02010KT 10SM FEW002 BKN250 02/00 A3026 RMK AO2 SLP256 T00220000 58001=
200902191353 METAR KSEA 191353Z 02004KT 10SM SCT250 02/00 A3027 RMK AO2 SLP259 T00220000=
200902191253 METAR KSEA 191253Z 35003KT 10SM SCT250 02/01 A3026 RMK AO2 SLP256 T00220006=
200902191153 METAR KSEA 191153Z 05006KT 7SM FEW001 SCT250 03/01 A3027 RMK AO2 SLP257 FG FEW001 T00280011 10067 20017 58013=
200902191053 METAR KSEA 191053Z 00000KT 10SM FEW250 03/01 A3029 RMK AO2 SLP266 T00280011=
200902190953 METAR KSEA 190953Z 02007KT 10SM CLR 03/01 A3030 RMK AO2 SLP268 T00330011=
200902190853 METAR KSEA 190853Z 02003KT 10SM CLR 04/02 A3030 RMK AO2 SLP270 T00390017 50000=
200902190753 METAR KSEA 190753Z 35003KT 10SM CLR 04/02 A3031 RMK AO2 SLP273 T00440017 401220017=
200902190653 METAR KSEA 190653Z 03006KT 10SM CLR 06/02 A3031 RMK AO2 SLP271 T00610022=
200902190553 METAR KSEA 190553Z 01007KT 10SM CLR 06/02 A3030 RMK AO2 SLP270 T00560022 10122 20050 50003=
200902190453 METAR KSEA 190453Z 02008KT 10SM CLR 08/03 A3031 RMK AO2 SLP271 T00780028=
200902190353 METAR KSEA 190353Z 02009KT 10SM CLR 08/03 A3029 RMK AO2 SLP267 T00830028=
200902190253 METAR KSEA 190253Z 01007KT 10SM FEW250 09/02 A3029 RMK AO2 SLP267 T00890022 53003=
200902190153 METAR KSEA 190153Z 00000KT 10SM FEW030 SCT250 09/02 A3029 RMK AO2 SLP266 T00940022=
200902190053 METAR KSEA 190053Z 00000KT 10SM FEW030 SCT250 11/02 A3029 RMK AO2 SLP265 T01110017=
200902182353 METAR KSEA 182353Z 00000KT 10SM FEW030 SCT250 12/02 A3029 RMK AO2 SLP264 T01170022 10122 20050 56002=
200902182253 METAR KSEA 182253Z 26003KT 10SM FEW030 SCT250 12/04 A3029 RMK AO2 SLP263 T01170039=
200902182153 METAR KSEA 182153Z 00000KT 10SM FEW030 SCT250 12/03 A3029 RMK AO2 SLP263 T01170028=
200902182053 METAR KSEA 182053Z 32004KT 10SM FEW055 SCT250 09/03 A3029 RMK AO2 SLP266 T00940033 50001=
200902181953 METAR KSEA 181953Z 27003KT 10SM BKN055 BKN200 08/03 A3030 RMK AO2 SLP268 T00830033=
200902181853 METAR KSEA 181853Z 00000KT 10SM BKN055 07/02 A3029 RMK AO2 SLP267 T00720022=
200902181753 METAR KSEA 181753Z 00000KT 8SM FEW004 BKN055 05/02 A3029 RMK AO2 SLP264 T00500022 10050 20017 51021=
200902181653 METAR KSEA 181653Z 17003KT 6SM BR FEW002 OVC049 03/02 A3027 RMK AO2 SLP258 T00330022=
200902181553 METAR KSEA 181553Z 13003KT 7SM BCFG FEW001 BKN047 03/02 A3025 RMK AO2 SLP251 FG FEW001 T00330022 $=
200902181453 METAR KSEA 181453Z 00000KT 3SM R16C/2600VP6000FT BCFG BR FEW001 BKN047 02/02 A3022 RMK AO2 SLP244 FG FEW001 T00220017 51021 $=
200902181435 SPECI KSEA 181435Z 00000KT 2SM R16C/1200VP6000FT BCFG BR SCT001 BKN047 02/02 A3022 RMK AO2 VIS 3/4V5 FG SCT001=
200902181435 SPECI KSEA 181435Z 00000KT 2SM R16C/1200VP6000FT BCFG BR SCT001 BKN047 02/02 A3022 RMK AO2 VIS 3/4V5 FG SCT001=
200902181427 SPECI KSEA 181427Z 00000KT 2SM R16C/1200V6000FT BCFG SCT001 BKN047 03/02 A3021 RMK AO2 VIS 1V5 FG SCT001=
200902181427 SPECI KSEA 181427Z 00000KT 2SM R16C/1200V6000FT BCFG SCT001 BKN047 03/02 A3021 RMK AO2 VIS 1V5 FG SCT001=
200902181353 METAR KSEA 181353Z 00000KT 7SM FEW001 SCT250 03/01 A3020 RMK AO2 SLP236 T00280011=
200902181253 METAR KSEA 181253Z 36003KT 8SM SCT250 02/01 A3019 RMK AO2 SLP231 T00220006=
200902181153 METAR KSEA 181153Z 35004KT 8SM FEW001 SCT250 03/01 A3016 RMK AO2 SLP223 T00280011 10072 20022 51015=
200902181053 METAR KSEA 181053Z 09004KT 10SM FEW250 04/02 A3015 RMK AO2 SLP217 T00440017=
200902180953 METAR KSEA 180953Z 12004KT 10SM FEW036 SCT250 06/02 A3013 RMK AO2 SLP212 T00560022=
200902180853 METAR KSEA 180853Z 12003KT 10SM OVC038 06/02 A3012 RMK AO2 SLP207 T00560022 51024=
200902180753 METAR KSEA 180753Z 16003KT 10SM SCT038 06/02 A3010 RMK AO2 SLP201 T00560017 401000039=
200902180653 METAR KSEA 180653Z 16003KT 10SM SCT036 BKN200 06/02 A3007 RMK AO2 SLP192 T00560017=
200902180553 METAR KSEA 180553Z 00000KT 10SM FEW035 06/02 A3005 RMK AO2 SLP183 T00610017 10100 20061 51021=
200902180453 METAR KSEA 180453Z 15003KT 10SM BKN035 07/02 A3003 RMK AO2 SLP176 T00720017=
200902180353 METAR KSEA 180353Z 17004KT 10SM BKN035 07/02 A3000 RMK AO2 SLP168 T00720022=
200902180253 METAR KSEA 180253Z 17005KT 10SM SCT040 07/02 A2998 RMK AO2 SLP161 T00670017 53017=
200902180153 METAR KSEA 180153Z 21004KT 10SM BKN038 08/02 A2997 RMK AO2 SLP156 T00830022=
200902180053 METAR KSEA 180053Z 22004KT 10SM BKN034 BKN100 09/02 A2995 RMK AO2 SLP150 T00890022=
200902172353 METAR KSEA 172353Z 22006KT 10SM FEW050 SCT080 BKN100 10/02 A2993 RMK AO2 SLP144 T01000022 10100 20056 53014=
200902172253 METAR KSEA 172253Z 23006KT 10SM FEW050 SCT080 BKN100 09/02 A2992 RMK AO2 SLP139 T00940017=
200902172153 METAR KSEA 172153Z 22008KT 10SM SCT047 BKN100 09/02 A2990 RMK AO2 SLP133 T00940022=
200902172053 METAR KSEA 172053Z 22006KT 10SM BKN047 OVC110 08/02 A2989 RMK AO2 SLP130 T00830022 51021=
200902171953 METAR KSEA 171953Z 22008KT 10SM SCT050 BKN110 08/02 A2987 RMK AO2 SLP124 T00780017=
200902171853 METAR KSEA 171853Z VRB03KT 10SM FEW055 BKN070 BKN100 07/02 A2986 RMK AO2 SLP119 T00720017=
200902171753 METAR KSEA 171753Z 20005KT 10SM BKN055 BKN100 06/02 A2983 RMK AO2 SLP109 T00560017 10061 20039 53027=
200902171653 METAR KSEA 171653Z 15004KT 10SM BKN055 BKN100 05/01 A2980 RMK AO2 SLP099 T00500006=
200902171553 METAR KSEA 171553Z 13003KT 10SM BKN055 BKN100 04/01 A2977 RMK AO2 SLP090 T00390006=
200902171453 METAR KSEA 171453Z 16005KT 10SM OVC060 04/01 A2975 RMK AO2 SLP081 T00440006 53021=
200902171353 METAR KSEA 171353Z 00000KT 10SM BKN060 OVC100 04/01 A2973 RMK AO2 SLP075 T00440006=
200902171253 METAR KSEA 171253Z 00000KT 10SM OVC060 05/01 A2971 RMK AO2 SLP067 T00500006=
200902171153 METAR KSEA 171153Z 03008KT 10SM BKN065 OVC095 05/00 A2969 RMK AO2 SLP060 T00500000 10050 20044 53010=
200902171053 METAR KSEA 171053Z 02006KT 10SM BKN070 OVC095 05/00 A2967 RMK AO2 SLP055 T00500000=
200902170953 METAR KSEA 170953Z 01006KT 10SM OVC070 05/M01 A2966 RMK AO2 SLP052 T00501006=
200902170853 METAR KSEA 170853Z 01008KT 10SM FEW060 SCT080 OVC100 05/M01 A2966 RMK AO2 SLP050 T00501006 51007=
200902170753 METAR KSEA 170753Z 02008KT 10SM SCT080 OVC100 05/M01 A2965 RMK AO2 SLP048 T00501006 400890011=
200902170653 METAR KSEA 170653Z 01007KT 10SM SCT080 OVC100 05/M01 A2964 RMK AO2 SLP045 T00501011=
200902170553 METAR KSEA 170553Z 02008KT 10SM BKN100 05/M01 A2963 RMK AO2 SLP043 T00501006 10067 20050 53003=
200902170453 METAR KSEA 170453Z 02010KT 10SM BKN100 05/M01 A2963 RMK AO2 SLP041 T00501006=
200902170353 METAR KSEA 170353Z 01011KT 10SM BKN100 06/M01 A2962 RMK AO2 SLP040 T00561011=
200902170253 METAR KSEA 170253Z 01009KT 10SM BKN070 BKN200 06/00 A2962 RMK AO2 SLP040 T00610000 55001=
200902170153 METAR KSEA 170153Z 35010KT 10SM SCT095 BKN200 06/00 A2962 RMK AO2 SLP038 T00560000=
200902170053 METAR KSEA 170053Z 35012KT 10SM BKN090 BKN200 06/00 A2962 RMK AO2 SLP040 T00610000=
200902162353 METAR KSEA 162353Z 35013KT 10SM FEW050 SCT120 BKN200 07/01 A2963 RMK AO2 SLP041 T00720006 10089 20039 56015=
200902162253 METAR KSEA 162253Z 35015KT 10SM FEW050 SCT200 08/01 A2963 RMK AO2 SLP044 T00830011=
200902162153 METAR KSEA 162153Z 36013KT 10SM FEW050 09/02 A2965 RMK AO2 SLP048 T00890017=
200902162053 METAR KSEA 162053Z 36010G17KT 10SM FEW050 08/02 A2967 RMK AO2 SLP054 T00830017 58020=
200902161953 METAR KSEA 161953Z 01014KT 10SM FEW010 SCT090 08/02 A2969 RMK AO2 SLP062 T00780017=
200902161853 METAR KSEA 161853Z 01012KT 10SM FEW006 BKN090 BKN200 06/02 A2971 RMK AO2 SLP070 T00610017=
200902161804 SPECI KSEA 161804Z 02012KT 10SM SCT004 SCT200 04/02 A2973 RMK AO2=
200902161804 SPECI KSEA 161804Z 02012KT 10SM SCT004 SCT200 04/02 A2973 RMK AO2=
200902161753 METAR KSEA 161753Z 03013KT 10SM BKN004 BKN200 04/02 A2973 RMK AO2 SLP076 T00390017 10039 20011 58002=
200902161734 SPECI KSEA 161734Z 02014KT 8SM BKN002 03/01 A2973 RMK AO2=
200902161734 SPECI KSEA 161734Z 02014KT 8SM BKN002 03/01 A2973 RMK AO2=
200902161713 SPECI KSEA 161713Z 02014KT 1 1/4SM BR BKN002 03/02 A2973 RMK AO2 SFC VIS 6=
200902161713 SPECI KSEA 161713Z 02014KT 1 1/4SM BR BKN002 03/02 A2973 RMK AO2 SFC VIS 6=
200902161653 METAR KSEA 161653Z 01015KT 1/2SM R16C/5000VP6000FT BR OVC002 02/01 A2973 RMK AO2 SFC VIS 1 SLP078 VIS SW-NW 1 1/2 T00220011=
200902161602 SPECI KSEA 161602Z 02012KT 1/2SM R16C/2000V4000FT FG VV001 02/01 A2974 RMK AO2=
200902161602 SPECI KSEA 161602Z 02012KT 1/2SM R16C/2000V4000FT FG VV001 02/01 A2974 RMK AO2=
200902161553 METAR KSEA 161553Z 02012KT 1/4SM R16C/1400V2200FT FG VV001 02/01 A2974 RMK AO2 TWR VIS 1/2 SLP079 T00170011=
200902161529 SPECI KSEA 161529Z 02014KT 1/4SM R16C/1800V2800FT FG VV001 02/01 A2974 RMK AO2 TWR VIS 1/2=
200902161529 SPECI KSEA 161529Z 02014KT 1/4SM R16C/1800V2800FT FG VV001 02/01 A2974 RMK AO2 TWR VIS 1/2=
200902161516 SPECI KSEA 161516Z 02013KT 1/4SM R16C/1600V1800FT FG VV001 02/01 A2974 RMK AO2 TWR VIS 1/2=
200902161516 SPECI KSEA 161516Z 02013KT 1/4SM R16C/1600V1800FT FG VV001 02/01 A2974 RMK AO2 TWR VIS 1/2=
200902161453 METAR KSEA 161453Z 02011KT 1/2SM R16C/2600V5000FT BR VV001 02/01 A2973 RMK AO2 SFC VIS 3/4 SLP078 T00170006 56005=
200902161419 SPECI KSEA 161419Z 01010KT 1/2SM R16C/2600VP6000FT FG BKN001 OVC010 02/01 A2974 RMK AO2=
200902161419 SPECI KSEA 161419Z 01010KT 1/2SM R16C/2600VP6000FT FG BKN001 OVC010 02/01 A2974 RMK AO2=
200902161410 SPECI KSEA 161410Z 02010KT 1/2SM R16C/6000VP6000FT BR BKN002 BKN010 BKN200 02/01 A2974 RMK AO2 SFC VIS 1 1/4=
200902161410 SPECI KSEA 161410Z 02010KT 1/2SM R16C/6000VP6000FT BR BKN002 BKN010 BKN200 02/01 A2974 RMK AO2 SFC VIS 1 1/4=
200902161404 SPECI KSEA 161404Z 02010KT 1/2SM BR SCT002 SCT010 BKN200 02/01 A2974 RMK AO2 SFC VIS 6=
200902161404 SPECI KSEA 161404Z 02010KT 1/2SM BR SCT002 SCT010 BKN200 02/01 A2974 RMK AO2 SFC VIS 6=
200902161353 METAR KSEA 161353Z 01011KT 10SM SCT010 SCT200 02/01 A2974 RMK AO2 SLP079 T00170006=
200902161253 METAR KSEA 161253Z 01008KT 10SM FEW200 01/00 A2974 RMK AO2 SLP081 T00110000=
200902161153 METAR KSEA 161153Z 02009KT 10SM SCT200 02/00 A2975 RMK AO2 SLP083 70005 T00170000 10044 20017 58007=
200902161053 METAR KSEA 161053Z 01011KT 10SM FEW090 SCT200 02/00 A2976 RMK AO2 SLP086 T00170000=
200902160953 METAR KSEA 160953Z 02009KT 10SM FEW090 02/01 A2977 RMK AO2 SLP090 T00220006=
200902160853 METAR KSEA 160853Z 03009KT 10SM FEW085 03/01 A2977 RMK AO2 SLP090 T00280006 58001=
200902160753 METAR KSEA 160753Z 01008KT 10SM SCT085 03/01 A2978 RMK AO2 SLP092 T00280006 400780006=
200902160653 METAR KSEA 160653Z 02009KT 10SM SCT085 04/01 A2977 RMK AO2 SLP090 T00390011=
200902160553 METAR KSEA 160553Z 01009KT 10SM BKN050 OVC080 04/02 A2977 RMK AO2 SLP091 60004 T00440017 10056 20039 55000=
200902160453 METAR KSEA 160453Z 01009KT 10SM BKN033 OVC070 04/02 A2977 RMK AO2 SLP090 T00440017=
200902160353 METAR KSEA 160353Z 36006KT 10SM BKN035 OVC055 04/02 A2977 RMK AO2 RAE53 SLP089 P0000 T00390022=
200902160253 METAR KSEA 160253Z 02008KT 10SM -RA OVC033 04/02 A2977 RMK AO2 SLP091 P0001 60004 T00440017 56004=
200902160213 SPECI KSEA 160213Z 02007KT 10SM -RA SCT028 OVC035 05/02 A2977 RMK AO2 P0000=
200902160213 SPECI KSEA 160213Z 02007KT 10SM -RA SCT028 OVC035 05/02 A2977 RMK AO2 P0000=
200902160153 METAR KSEA 160153Z 01007KT 10SM -RA BKN026 OVC033 05/02 A2978 RMK AO2 SLP092 P0003 T00500017=
200902160053 METAR KSEA 160053Z 34005KT 10SM -RA BKN028 OVC034 05/02 A2978 RMK AO2 SLP093 P0000 T00500022=
200902160004 SPECI KSEA 160004Z 00000KT 10SM -RA BKN030 OVC040 06/02 A2978 RMK AO2 P0000=
200902160004 SPECI KSEA 160004Z 00000KT 10SM -RA BKN030 OVC040 06/02 A2978 RMK AO2 P0000=
200902152353 METAR KSEA 152353Z 29003KT 10SM -RA BKN025 OVC040 05/02 A2978 RMK AO2 SLP095 P0001 60001 T00500022 10078 20044 50002=
200902152253 METAR KSEA 152253Z 14007KT 10SM -RA OVC025 06/01 A2979 RMK AO2 RAB11 SLP097 P0000 T00610006=
200902152153 METAR KSEA 152153Z 15006KT 10SM BKN037 07/M01 A2978 RMK AO2 SLP094 T00721011=
200902152053 METAR KSEA 152053Z 01009KT 10SM BKN075 07/M02 A2978 RMK AO2 SLP093 T00721022 58008=
200902151953 METAR KSEA 151953Z 02010KT 10SM BKN080 07/M02 A2979 RMK AO2 SLP098 T00671022=
200902151853 METAR KSEA 151853Z 01012KT 10SM BKN085 06/M03 A2980 RMK AO2 SLP100 T00561033=
200902151753 METAR KSEA 151753Z 03011KT 10SM BKN080 04/M04 A2980 RMK AO2 SLP101 T00441039 10044 20006 56009=
200902151653 METAR KSEA 151653Z 02013KT 10SM BKN200 03/M04 A2981 RMK AO2 SLP103 T00331039=
200902151553 METAR KSEA 151553Z 02011KT 10SM SCT200 02/M04 A2982 RMK AO2 SLP108 T00171039=
200902151453 METAR KSEA 151453Z 02012KT 10SM BKN200 01/M04 A2983 RMK AO2 SLP110 T00111039 57019=
200902151353 METAR KSEA 151353Z 02012KT 10SM CLR 01/M03 A2985 RMK AO2 SLP116 T00061033=
200902151253 METAR KSEA 151253Z 02010KT 10SM CLR 01/M02 A2987 RMK AO2 SLP123 T00111022=
200902151153 METAR KSEA 151153Z 01011KT 10SM CLR 01/M02 A2989 RMK AO2 SLP129 T00111022 10033 20011 58014=
200902151053 METAR KSEA 151053Z 02011KT 10SM CLR 01/M02 A2990 RMK AO2 SLP133 T00111017=
200902150953 METAR KSEA 150953Z 02009KT 10SM CLR 02/M02 A2992 RMK AO2 SLP141 T00171017=
200902150853 METAR KSEA 150853Z 02010KT 10SM CLR 02/M01 A2993 RMK AO2 SLP144 T00171006 58010=
200902150753 METAR KSEA 150753Z 04007KT 10SM CLR 02/M01 A2995 RMK AO2 SLP152 T00171011 400830017=
200902150653 METAR KSEA 150653Z 05003KT 10SM FEW200 02/M01 A2996 RMK AO2 SLP153 T00221011=
200902150553 METAR KSEA 150553Z 10004KT 10SM FEW200 03/M01 A2996 RMK AO2 SLP154 T00331006 10078 20033 52006=
200902150453 METAR KSEA 150453Z 12004KT 10SM FEW080 04/M01 A2995 RMK AO2 SLP152 T00391006=
200902150353 METAR KSEA 150353Z 00000KT 10SM FEW040 04/M01 A2994 RMK AO2 SLP149 T00391006=
200902150253 METAR KSEA 150253Z 00000KT 10SM FEW045 SCT100 05/M01 A2994 RMK AO2 SLP148 T00501011 51004=
200902150153 METAR KSEA 150153Z 00000KT 10SM FEW043 SCT200 06/M01 A2994 RMK AO2 SLP148 T00561011=
200902150053 METAR KSEA 150053Z 23003KT 10SM FEW055 SCT100 07/M01 A2994 RMK AO2 SLP146 T00671011=
200902142353 METAR KSEA 142353Z 21004KT 10SM SCT055 BKN070 07/M01 A2993 RMK AO2 SLP143 T00721006 10083 20039 53012=
200902142253 METAR KSEA 142253Z 28005KT 10SM FEW030 SCT050 BKN090 07/M02 A2991 RMK AO2 SLP138 VIRGA S T00721017=
200902142153 METAR KSEA 142153Z 26005KT 10SM FEW020 SCT050 BKN090 BKN200 07/M02 A2990 RMK AO2 SLP134 T00721017=
200902142053 METAR KSEA 142053Z 00000KT 10SM FEW015 BKN050 BKN090 08/M01 A2989 RMK AO2 SLP130 ACSL SE T00831011 51012=
200902141953 METAR KSEA 141953Z 00000KT 10SM FEW010 BKN050 06/M01 A2989 RMK AO2 SLP130 T00611011=
200902141853 METAR KSEA 141853Z 00000KT 10SM BKN050 OVC070 06/M01 A2988 RMK AO2 SLP127 T00561011=
200902141753 METAR KSEA 141753Z 10004KT 10SM BKN045 OVC090 04/M02 A2986 RMK AO2 SLP120 T00441017 10050 20017 51020=
200902141653 METAR KSEA 141653Z 00000KT 10SM BKN070 OVC100 02/M01 A2984 RMK AO2 SLP113 T00221011=
200902141553 METAR KSEA 141553Z 13003KT 10SM BKN070 BKN090 03/M02 A2982 RMK AO2 SLP107 T00281017=
200902141453 METAR KSEA 141453Z 14004KT 10SM BKN070 BKN090 BKN200 03/M01 A2980 RMK AO2 SLP100 T00281011 53012=
200902141353 METAR KSEA 141353Z 05008KT 10SM BKN085 OVC110 03/M01 A2978 RMK AO2 SLP095 T00331011=
200902141253 METAR KSEA 141253Z 04009KT 10SM FEW075 BKN100 OVC200 03/M01 A2977 RMK AO2 SLP091 T00331011=
200902141153 METAR KSEA 141153Z 03009KT 10SM BKN110 OVC200 03/M01 A2977 RMK AO2 SLP088 T00331006 10044 20028 55002=
200902141053 METAR KSEA 141053Z 02009KT 10SM FEW080 BKN110 OVC200 03/M01 A2976 RMK AO2 SLP087 T00331011=
200902140953 METAR KSEA 140953Z 02011KT 10SM FEW080 SCT110 BKN200 03/M01 A2977 RMK AO2 SLP089 T00331011=
200902140853 METAR KSEA 140853Z 01010KT 10SM BKN080 BKN110 BKN200 03/M02 A2977 RMK AO2 SLP091 T00281017 58005=
200902140753 METAR KSEA 140753Z 02009KT 10SM BKN090 BKN200 04/M02 A2978 RMK AO2 SLP094 T00441017 400720011=
200902140653 METAR KSEA 140653Z 02010KT 10SM BKN085 BKN200 04/M02 A2978 RMK AO2 SLP093 T00441017=
200902140553 METAR KSEA 140553Z 03010KT 10SM SCT120 BKN200 04/M02 A2979 RMK AO2 SLP095 T00441017 10067 20044 55001=
200902140453 METAR KSEA 140453Z 02011KT 10SM BKN120 BKN200 05/M02 A2978 RMK AO2 SLP093 T00501022=
200902140353 METAR KSEA 140353Z 02011KT 10SM FEW100 BKN200 05/M02 A2978 RMK AO2 SLP094 T00501022=
200902140253 METAR KSEA 140253Z 02011KT 10SM SCT100 OVC200 05/M02 A2979 RMK AO2 SLP096 T00501017 56011=
200902140153 METAR KSEA 140153Z 03015KT 10SM BKN090 OVC200 06/M02 A2979 RMK AO2 SLP098 T00561022=
200902140053 METAR KSEA 140053Z 01013KT 10SM SCT120 OVC200 06/M02 A2981 RMK AO2 SLP102 T00561017=
200902132353 METAR KSEA 132353Z 01014KT 10SM SCT100 BKN200 07/M02 A2982 RMK AO2 SLP107 T00671022 10072 20044 56014=
200902132253 METAR KSEA 132253Z 01017KT 10SM SCT090 BKN250 07/M03 A2983 RMK AO2 SLP111 T00671033=
200902132153 METAR KSEA 132153Z 01015KT 10SM SCT100 BKN250 07/M03 A2984 RMK AO2 SLP115 T00671028=
200902132053 METAR KSEA 132053Z 01013KT 10SM FEW090 OVC250 07/M03 A2986 RMK AO2 SLP122 T00671033 58016=
200902131953 METAR KSEA 131953Z 01013KT 10SM FEW090 OVC250 06/M04 A2988 RMK AO2 SLP129 T00561039=
200902131853 METAR KSEA 131853Z 03014KT 10SM FEW090 BKN250 06/M04 A2990 RMK AO2 SLP134 T00561039=
200902131753 METAR KSEA 131753Z 02011KT 10SM FEW080 BKN250 04/M03 A2991 RMK AO2 SLP138 T00441033 10044 20017 58007=
200902131653 METAR KSEA 131653Z 02011KT 10SM FEW080 BKN200 03/M04 A2992 RMK AO2 SLP142 T00331044=
200902131553 METAR KSEA 131553Z 02007KT 10SM FEW080 OVC200 02/M04 A2993 RMK AO2 SLP144 T00221039=
200902131453 METAR KSEA 131453Z 01006KT 10SM FEW090 BKN110 OVC200 02/M04 A2993 RMK AO2 SLP145 T00221044 57008=
200902131353 METAR KSEA 131353Z 01008KT 10SM FEW090 OVC200 02/M05 A2994 RMK AO2 SLP148 T00221050=
200902131253 METAR KSEA 131253Z 02009KT 10SM FEW090 OVC200 02/M05 A2995 RMK AO2 SLP150 T00221050=
200902131153 METAR KSEA 131153Z 01008KT 10SM FEW090 OVC200 02/M05 A2996 RMK AO2 SLP153 T00221050 10044 20011 58001=
200902131053 METAR KSEA 131053Z 02007KT 10SM FEW060 SCT090 OVC200 02/M05 A2996 RMK AO2 SLP154 T00171050=
200902130953 METAR KSEA 130953Z 01008KT 10SM FEW060 SCT090 OVC200 02/M05 A2996 RMK AO2 SLP154 T00171050=
200902130853 METAR KSEA 130853Z 01005KT 10SM FEW060 SCT100 OVC200 03/M05 A2996 RMK AO2 SLP154 T00281050 50000=
200902130753 METAR KSEA 130753Z 05008KT 10SM FEW060 BKN200 03/M06 A2996 RMK AO2 SLP154 T00331061 400781006=
200902130653 METAR KSEA 130653Z 09012G21KT 10SM FEW060 04/M06 A2996 RMK AO2 SLP154 T00391061=
200902130553 METAR KSEA 130553Z 09012G19KT 10SM FEW060 04/M06 A2996 RMK AO2 SLP154 T00391061 10072 20039 56003=
200902130453 METAR KSEA 130453Z 09012KT 10SM SCT060 04/M06 A2996 RMK AO2 SLP154 T00391056=
200902130353 METAR KSEA 130353Z 10010KT 10SM SCT060 SCT250 04/M06 A2996 RMK AO2 SLP156 T00441056=
200902130253 METAR KSEA 130253Z 10011KT 10SM FEW065 SCT250 04/M05 A2997 RMK AO2 SLP157 T00441050 56003=
200902130153 METAR KSEA 130153Z 09010KT 10SM SCT065 BKN250 06/M05 A2997 RMK AO2 SLP157 T00561050=
200902130053 METAR KSEA 130053Z 11009KT 10SM FEW025 SCT080 BKN250 06/M05 A2997 RMK AO2 SLP158 T00611050=
200902122353 METAR KSEA 122353Z 11009KT 10SM FEW025 BKN250 07/M04 A2998 RMK AO2 SLP160 T00721044 10078 20022 56013=
200902122253 METAR KSEA 122253Z 05006KT 10SM FEW025 BKN250 08/M03 A2998 RMK AO2 SLP161 T00781028=
200902122153 METAR KSEA 122153Z 10004KT 10SM FEW025 BKN250 07/M02 A2999 RMK AO2 SLP165 T00721022=
200902122053 METAR KSEA 122053Z 00000KT 10SM FEW020 BKN250 06/M02 A3001 RMK AO2 SLP173 T00611017 58016=
200902121953 METAR KSEA 121953Z 28004KT 10SM FEW015 SCT080 BKN250 04/00 A3004 RMK AO2 SLP180 T00440000=
200902121853 METAR KSEA 121853Z 00000KT 10SM FEW015 BKN250 04/M01 A3005 RMK AO2 SLP186 T00391011=
200902121800 SPECI KSEA 121800Z 14004KT 10SM FEW008 BKN250 03/M02 A3006 RMK AO2=
200902121800 SPECI KSEA 121800Z 14004KT 10SM FEW008 BKN250 03/M02 A3006 RMK AO2=
200902121753 METAR KSEA 121753Z 15005KT 10SM FEW010 BKN250 02/M02 A3006 RMK AO2 SLP190 T00221022 10022 20006 58002=
200902121653 METAR KSEA 121653Z 14006KT 10SM FEW010 BKN032 BKN250 02/M03 A3007 RMK AO2 SLP192 T00171028=
200902121553 METAR KSEA 121553Z 15004KT 10SM FEW010 BKN030 01/M03 A3007 RMK AO2 SLP193 T00111028=
200902121453 METAR KSEA 121453Z 15003KT 10SM BKN030 BKN200 01/M02 A3007 RMK AO2 SLP192 T00111022 56010=
200902121353 METAR KSEA 121353Z 14005KT 10SM OVC030 01/M02 A3008 RMK AO2 SLP194 T00111022=
200902121331 SPECI KSEA 121331Z 15004KT 10SM OVC030 01/M02 A3008 RMK AO2=
200902121331 SPECI KSEA 121331Z 15004KT 10SM OVC030 01/M02 A3008 RMK AO2=
200902121253 METAR KSEA 121253Z 17004KT 10SM OVC028 01/M02 A3009 RMK AO2 SLP198 T00061017=
200902121200 SPECI KSEA 121200Z 14006KT 10SM BKN028 01/M01 A3010 RMK AO2=
200902121200 SPECI KSEA 121200Z 14006KT 10SM BKN028 01/M01 A3010 RMK AO2=
200902121153 METAR KSEA 121153Z 13007KT 10SM OVC030 01/M02 A3010 RMK AO2 SLP202 T00061017 10022 21006 58005=
200902121109 SPECI KSEA 121109Z 12006KT 10SM BKN030 01/M01 A3011 RMK AO2=
200902121109 SPECI KSEA 121109Z 12006KT 10SM BKN030 01/M01 A3011 RMK AO2=
200902121053 METAR KSEA 121053Z 13004KT 10SM BKN028 00/M02 A3011 RMK AO2 SLP207 T00001017=
200902120953 METAR KSEA 120953Z 12004KT 10SM BKN028 01/M01 A3012 RMK AO2 SLP209 T00061011=
200902120853 METAR KSEA 120853Z 00000KT 10SM BKN026 01/M01 A3012 RMK AO2 SLP207 T00111011 55005=
200902120825 SPECI KSEA 120825Z 13003KT 10SM SCT024 01/M02 A3012 RMK AO2=
200902120825 SPECI KSEA 120825Z 13003KT 10SM SCT024 01/M02 A3012 RMK AO2=
200902120753 METAR KSEA 120753Z 00000KT 10SM BKN024 02/M01 A3011 RMK AO2 SLP206 T00221006 400780000=
200902120734 SPECI KSEA 120734Z 00000KT 10SM BKN026 02/M01 A3012 RMK AO2=
200902120734 SPECI KSEA 120734Z 00000KT 10SM BKN026 02/M01 A3012 RMK AO2=
200902120653 METAR KSEA 120653Z 05004KT 10SM FEW030 02/M01 A3012 RMK AO2 SLP209 T00221006=
200902120553 METAR KSEA 120553Z 05003KT 10SM CLR 02/M01 A3013 RMK AO2 SLP212 T00171011 10072 20011 58001=
200902120453 METAR KSEA 120453Z 01005KT 10SM CLR 02/M01 A3014 RMK AO2 SLP215 T00171006=
200902120353 METAR KSEA 120353Z 35005KT 10SM CLR 02/M01 A3014 RMK AO2 SLP215 T00221011=
200902120253 METAR KSEA 120253Z 34006KT 10SM FEW250 02/M01 A3013 RMK AO2 SLP214 T00221011 51007=
200902120153 METAR KSEA 120153Z 33006KT 10SM FEW020 SCT250 04/M01 A3013 RMK AO2 SLP211 T00391006=
200902120053 METAR KSEA 120053Z 35009KT 10SM FEW023 SCT250 06/01 A3012 RMK AO2 SLP210 T00560006=
200902112353 METAR KSEA 112353Z 33011KT 10SM SCT023 SCT250 07/01 A3011 RMK AO2 SLP206 T00670011 10078 20033 53007=
200902112253 METAR KSEA 112253Z 01008KT 10SM FEW030 SCT250 08/00 A3010 RMK AO2 SLP203 T00780000=
200902112153 METAR KSEA 112153Z 36010KT 10SM FEW030 BKN250 07/01 A3010 RMK AO2 SLP202 T00720006=
200902112053 METAR KSEA 112053Z 01013KT 10SM FEW025 BKN250 08/01 A3009 RMK AO2 SLP199 T00780006 51005=
200902111953 METAR KSEA 111953Z 02011KT 10SM FEW020 06/M01 A3008 RMK AO2 SLP197 T00611011=
200902111853 METAR KSEA 111853Z 02010KT 10SM FEW010 05/M01 A3008 RMK AO2 SLP197 T00501011=
200902111753 METAR KSEA 111753Z 03006KT 10SM FEW010 03/01 A3007 RMK AO2 SLP193 T00330006 10033 20000 51019=
200902111653 METAR KSEA 111653Z 02007KT 10SM FEW006 02/M01 A3006 RMK AO2 SLP190 T00221006=
200902111553 METAR KSEA 111553Z 02007KT 10SM FEW005 01/M01 A3004 RMK AO2 SLP182 T00061006=
200902111517 SPECI KSEA 111517Z 03007KT 10SM FEW003 01/M01 A3003 RMK AO2=
200902111517 SPECI KSEA 111517Z 03007KT 10SM FEW003 01/M01 A3003 RMK AO2=
200902111453 METAR KSEA 111453Z 01005KT 10SM FEW050 02/M01 A3002 RMK AO2 SLP175 T00171011 51013=
200902111353 METAR KSEA 111353Z 02004KT 10SM BKN050 02/M01 A3001 RMK AO2 SLP171 T00171011=
200902111253 METAR KSEA 111253Z 02005KT 10SM BKN060 01/M01 A3000 RMK AO2 SLP169 T00111006=
200902111153 METAR KSEA 111153Z 02007KT 10SM FEW060 SCT080 02/M01 A2998 RMK AO2 SLP163 70024 T00171006 10028 20011 51018=
200902111053 METAR KSEA 111053Z 01005KT 10SM BKN060 02/00 A2997 RMK AO2 SLP159 T00170000=
200902110953 METAR KSEA 110953Z 04006KT 10SM FEW040 OVC075 02/M01 A2995 RMK AO2 SLP153 T00171006=
200902110853 METAR KSEA 110853Z 36004KT 10SM BKN040 OVC070 02/00 A2993 RMK AO2 SLP145 T00220000 51014=
200902110753 METAR KSEA 110753Z 09008KT 10SM FEW038 BKN055 OVC070 02/M01 A2991 RMK AO2 SLP139 T00221006 400391006=
200902110653 METAR KSEA 110653Z 13005KT 10SM FEW019 BKN041 OVC060 02/M01 A2990 RMK AO2 SLP135 T00221006=
200902110553 METAR KSEA 110553Z 10010KT 10SM BKN037 BKN045 OVC090 02/00 A2989 RMK AO2 RAE48 SLP131 P0000 60009 T00220000 10028 20011 51019=
200902110521 SPECI KSEA 110521Z 11009KT 10SM -RA FEW026 BKN045 OVC060 02/00 A2988 RMK AO2 P0000=
200902110521 SPECI KSEA 110521Z 11009KT 10SM -RA FEW026 BKN045 OVC060 02/00 A2988 RMK AO2 P0000=
200902110500 METAR KSEA NIL=
200902110453 METAR KSEA 110453Z 10009KT 10SM -RA SCT019 OVC027 02/00 A2987 RMK AO2 SLP125 P0001 T00220000=
200902110400 METAR KSEA NIL=
200902110253 METAR KSEA 110253Z 12011KT 10SM -RA BKN019 OVC024 02/00 A2983 RMK AO2 SLP111 P0003 60007 T00170000 51016=
200902110153 METAR KSEA 110153Z 12009KT 7SM -RA BKN019 OVC026 02/00 A2982 RMK AO2 SNE30 SLP107 P0002 T00220000=
200902110053 METAR KSEA 110053Z 09008KT 6SM -RASN BKN021 OVC027 03/00 A2980 RMK AO2 RAB15E16B33FZRAB16E33SNE15B50 SLP100 P0002 T00280000=
200902110039 SPECI KSEA 110039Z 05005KT 7SM -RA FEW005 BKN020 OVC027 02/01 A2979 RMK AO2 RAB15E16B33FZRAB16E33SNE15 P0001=
200902110039 SPECI KSEA 110039Z 05005KT 7SM -RA FEW005 BKN020 OVC027 02/01 A2979 RMK AO2 RAB15E16B33FZRAB16E33SNE15 P0001=
200902110022 SPECI KSEA 110022Z 04006KT 6SM -FZRA BR FEW004 OVC020 02/00 A2978 RMK AO2 RAB15E16FZRAB16SNE15 P0001=
200902110022 SPECI KSEA 110022Z 04006KT 6SM -FZRA BR FEW004 OVC020 02/00 A2978 RMK AO2 RAB15E16FZRAB16SNE15 P0001=
200902102353 METAR KSEA 102353Z COR 35005KT 4SM -SN BR FEW003 BKN018 OVC023 01/M01 A2978 RMK AO2 SLP095 P0004 60015 931003 T00061006 10039 20006 55010=
200902102325 SPECI KSEA 102325Z 08005KT 2SM R16C/6000VP6000FT -SN BR FEW009 BKN015 OVC022 02/00 A2978 RMK AO2 P0002=
200902102325 SPECI KSEA 102325Z 08005KT 2SM R16C/6000VP6000FT -SN BR FEW009 BKN015 OVC022 02/00 A2978 RMK AO2 P0002=
200902102312 SPECI KSEA 102312Z 09006KT 2SM -SN BR BKN012 OVC017 02/00 A2978 RMK AO2 P0001=
200902102312 SPECI KSEA 102312Z 09006KT 2SM -SN BR BKN012 OVC017 02/00 A2978 RMK AO2 P0001=
200902102253 METAR KSEA 102253Z 11008KT 1 3/4SM -SN BR BKN009 OVC018 02/M01 A2978 RMK AO2 TWR VIS 2 SLP093 P0003 T00171006=
200902102238 SPECI KSEA 102238Z 10008KT 1 3/4SM R16C/5000VP6000FT -SN BR BKN006 OVC018 01/M01 A2978 RMK AO2 TWR VIS 2 P0003=
200902102238 SPECI KSEA 102238Z 10008KT 1 3/4SM R16C/5000VP6000FT -SN BR BKN006 OVC018 01/M01 A2978 RMK AO2 TWR VIS 2 P0003=
200902102220 SPECI KSEA 102220Z 09007KT 1SM R16C/4500VP6000FT -SN BR VV006 01/M01 A2978 RMK AO2 TWR VIS 1 1/4 P0002=
200902102220 SPECI KSEA 102220Z 09007KT 1SM R16C/4500VP6000FT -SN BR VV006 01/M01 A2978 RMK AO2 TWR VIS 1 1/4 P0002=
200902102214 SPECI KSEA 102214Z 10006KT 3/4SM R16C/4000V5000FT -SN BR VV005 01/M01 A2978 RMK AO2 P0002=
200902102214 SPECI KSEA 102214Z 10006KT 3/4SM R16C/4000V5000FT -SN BR VV005 01/M01 A2978 RMK AO2 P0002=
200902102153 METAR KSEA 102153Z 09007KT 1/2SM R16C/3500V4000FT SN FG VV004 01/M01 A2979 RMK AO2 TWR VIS 3/4 SLP096 P0007 T00061006=
200902102134 SPECI KSEA 102134Z 10007KT 1/2SM R16C/3000V4500FT SN FG VV004 01/M01 A2980 RMK AO2 TWR VIS 3/4 P0004=
200902102134 SPECI KSEA 102134Z 10007KT 1/2SM R16C/3000V4500FT SN FG VV004 01/M01 A2980 RMK AO2 TWR VIS 3/4 P0004=
200902102116 SPECI KSEA 102116Z 11008KT 3/4SM R16C/3500VP6000FT -SN OVC006 02/M01 A2981 RMK AO2 P0002=
200902102116 SPECI KSEA 102116Z 11008KT 3/4SM R16C/3500VP6000FT -SN OVC006 02/M01 A2981 RMK AO2 P0002=
200902102059 SPECI KSEA 102059Z 11008KT 1 1/2SM R16C/5000VP6000FT -SN OVC009 02/M01 A2981 RMK AO2 TWR VIS 2 P0000=
200902102059 SPECI KSEA 102059Z 11008KT 1 1/2SM R16C/5000VP6000FT -SN OVC009 02/M01 A2981 RMK AO2 TWR VIS 2 P0000=
200902102053 METAR KSEA 102053Z 12009KT 2SM R16C/5500VP6000FT -SN OVC011 02/M01 A2981 RMK AO2 SLP105 P0001 60001 T00221011 58023=
200902102048 SPECI KSEA 102048Z 12007KT 2SM R16C/5500VP6000FT -SN OVC012 02/M01 A2981 RMK AO2 P0001=
200902102048 SPECI KSEA 102048Z 12007KT 2SM R16C/5500VP6000FT -SN OVC012 02/M01 A2981 RMK AO2 P0001=
200902102035 SPECI KSEA 102035Z 12007KT 2SM -SN OVC015 02/M01 A2982 RMK AO2 SFC VIS 2 1/2 P0000=
200902102035 SPECI KSEA 102035Z 12007KT 2SM -SN OVC015 02/M01 A2982 RMK AO2 SFC VIS 2 1/2 P0000=
200902101953 METAR KSEA 101953Z 14007KT 7SM -SN FEW012 OVC026 03/M04 A2983 RMK AO2 SNB50 SLP111 P0000 T00331039=
200902101940 SPECI KSEA 101940Z 12006KT 10SM OVC027 03/M04 A2984 RMK AO2=
200902101940 SPECI KSEA 101940Z 12006KT 10SM OVC027 03/M04 A2984 RMK AO2=
200902101853 METAR KSEA 101853Z 12008KT 10SM FEW030 OVC041 03/M04 A2986 RMK AO2 SLP121 T00331039=
200902101753 METAR KSEA 101753Z 10010KT 10SM FEW025 OVC037 02/M03 A2988 RMK AO2 SNE40 SLP128 P0000 60000 931000 T00221033 10022 21006 58022=
200902101653 METAR KSEA 101653Z 10010KT 9SM -SN FEW015 OVC036 01/M03 A2991 RMK AO2 SLP138 P0000 T00111028=
200902101643 SPECI KSEA 101643Z 11009KT 9SM -SN FEW015 OVC033 01/M03 A2991 RMK AO2 P0000=
200902101643 SPECI KSEA 101643Z 11009KT 9SM -SN FEW015 OVC033 01/M03 A2991 RMK AO2 P0000=
200902101608 SPECI KSEA 101608Z 14008G20KT 8SM -SN FEW015 OVC028 01/M03 A2992 RMK AO2 P0000=
200902101608 SPECI KSEA 101608Z 14008G20KT 8SM -SN FEW015 OVC028 01/M03 A2992 RMK AO2 P0000=
200902101553 METAR KSEA 101553Z 15011G17KT 8SM -SN FEW015 OVC032 01/M04 A2993 RMK AO2 SLP145 P0000 T00111039=
200902101532 SPECI KSEA 101532Z 13009KT 9SM -SN FEW015 OVC031 01/M04 A2993 RMK AO2 P0000=
200902101532 SPECI KSEA 101532Z 13009KT 9SM -SN FEW015 OVC031 01/M04 A2993 RMK AO2 P0000=
200902101500 SPECI KSEA 101500Z 15010KT 4SM -SN FEW015 OVC029 01/M04 A2995 RMK AO2 P0000=
200902101500 SPECI KSEA 101500Z 15010KT 4SM -SN FEW015 OVC029 01/M04 A2995 RMK AO2 P0000=
200902101453 METAR KSEA 101453Z 15009KT 5SM -SN SCT019 BKN030 OVC037 01/M04 A2995 RMK AO2 SNB44 SLP151 P0000 60000 T00111039 58015=
200902101353 METAR KSEA 101353Z 13008KT 10SM OVC055 00/M04 A2997 RMK AO2 SLP157 T00001039=
200902101253 METAR KSEA 101253Z 16006KT 10SM FEW039 SCT055 BKN110 00/M04 A2999 RMK AO2 SLP164 T00001039=
200902101153 METAR KSEA 101153Z 19003KT 10SM FEW033 SCT042 BKN050 00/M03 A2999 RMK AO2 SLP165 70004 T00001033 10022 21006 58010=
200902101053 METAR KSEA 101053Z 00000KT 10SM BKN036 00/M03 A3001 RMK AO2 SLP171 T00001028=
200902101027 SPECI KSEA 101027Z 17005KT 10SM FEW017 BKN030 00/M03 A3001 RMK AO2=
200902101027 SPECI KSEA 101027Z 17005KT 10SM FEW017 BKN030 00/M03 A3001 RMK AO2=
200902100953 METAR KSEA 100953Z 20007KT 10SM SCT014 BKN019 BKN023 01/M02 A3001 RMK AO2 SLP173 T00111022=
200902100853 METAR KSEA 100853Z 23010KT 10SM OVC015 02/M02 A3002 RMK AO2 SLP175 T00171022 53003=
200902100753 METAR KSEA 100753Z 19009KT 10SM BKN026 02/M02 A3001 RMK AO2 SLP173 T00171017 400500006=
200902100732 SPECI KSEA 100732Z 18009KT 10SM BKN026 BKN032 01/M02 A3001 RMK AO2=
200902100732 SPECI KSEA 100732Z 18009KT 10SM BKN026 BKN032 01/M02 A3001 RMK AO2=
200902100653 METAR KSEA 100653Z 18010KT 10SM BKN032 02/M02 A3001 RMK AO2 SLP170 T00171017=
200902100553 METAR KSEA 100553Z 19008KT 10SM SCT027 BKN035 02/M01 A3001 RMK AO2 SLP172 T00221011 10050 20017 51011=
200902100453 METAR KSEA 100453Z 19008KT 10SM FEW020 BKN029 BKN034 02/M01 A3000 RMK AO2 SLP170 T00221011=
200902100446 SPECI KSEA 100446Z 19008KT 10SM FEW024 BKN029 02/M01 A3000 RMK AO2=
200902100446 SPECI KSEA 100446Z 19008KT 10SM FEW024 BKN029 02/M01 A3000 RMK AO2=
200902100408 SPECI KSEA 100408Z 18008KT 10SM FEW018 BKN036 BKN047 02/M01 A2999 RMK AO2=
200902100408 SPECI KSEA 100408Z 18008KT 10SM FEW018 BKN036 BKN047 02/M01 A2999 RMK AO2=
200902100353 METAR KSEA 100353Z 17008KT 10SM FEW020 BKN025 BKN047 02/M01 A2999 RMK AO2 SLP166 T00221011=
200902100253 METAR KSEA 100253Z 18008KT 10SM FEW026 SCT041 02/M02 A2998 RMK AO2 SLP162 LTG DSNT N T00221017 51014=
200902100212 SPECI KSEA 100212Z 18009KT 10SM SCT025 BKN031 BKN043 03/M02 A2997 RMK AO2=
200902100212 SPECI KSEA 100212Z 18009KT 10SM SCT025 BKN031 BKN043 03/M02 A2997 RMK AO2=
200902100153 METAR KSEA 100153Z 18007KT 10SM BKN025 03/M02 A2997 RMK AO2 SLP159 T00331022=
200902100139 SPECI KSEA 100139Z 19007KT 10SM BKN025 BKN033 BKN110 04/M02 A2997 RMK AO2=
200902100139 SPECI KSEA 100139Z 19007KT 10SM BKN025 BKN033 BKN110 04/M02 A2997 RMK AO2=
200902100053 METAR KSEA 100053Z 22008KT 10SM FEW021 SCT040 BKN110 04/M01 A2995 RMK AO2 SLP150 T00441011=
200902092353 METAR KSEA 092353Z 19008KT 10SM SCT035 SCT090 BKN150 05/M01 A2994 RMK AO2 SLP147 T00501006 10050 20028 53006=
200902092253 METAR KSEA 092253Z 24004KT 10SM FEW025 BKN035 BKN100 05/M01 A2993 RMK AO2 SLP145 SHRA DSNT SE-S T00501006=
200902092153 METAR KSEA 092153Z 22005KT 10SM SCT021 BKN095 BKN200 05/M01 A2992 RMK AO2 SLP141 T00501011=
200902092107 SPECI KSEA 092107Z 22006KT 10SM SCT021 BKN100 BKN200 04/M01 A2992 RMK AO2=
200902092107 SPECI KSEA 092107Z 22006KT 10SM SCT021 BKN100 BKN200 04/M01 A2992 RMK AO2=
200902092053 METAR KSEA 092053Z 22007KT 10SM BKN020 BKN100 BKN200 04/M01 A2992 RMK AO2 SLP141 T00441006 50003=
200902091953 METAR KSEA 091953Z 20007KT 10SM BKN019 BKN030 04/M01 A2992 RMK AO2 SLP142 T00391006=
200902091853 METAR KSEA 091853Z 20006KT 10SM BKN018 BKN023 03/M01 A2992 RMK AO2 SLP141 T00331006=
200902091828 SPECI KSEA 091828Z 17005KT 10SM BKN016 BKN021 03/M01 A2992 RMK AO2=
200902091828 SPECI KSEA 091828Z 17005KT 10SM BKN016 BKN021 03/M01 A2992 RMK AO2=
200902091753 METAR KSEA 091753Z 20005KT 10SM BKN013 BKN020 03/00 A2991 RMK AO2 SLP138 60004 931001 T00280000 10028 20006 51022=
200902091720 SPECI KSEA 091720Z 18005KT 10SM BKN012 BKN020 03/00 A2990 RMK AO2=
200902091720 SPECI KSEA 091720Z 18005KT 10SM BKN012 BKN020 03/00 A2990 RMK AO2=
200902091653 METAR KSEA 091653Z 17004KT 10SM SCT010 BKN018 02/00 A2990 RMK AO2 SLP133 T00220000=
200902091643 SPECI KSEA 091643Z 15005KT 10SM SCT010 BKN018 02/00 A2989 RMK AO2=
200902091643 SPECI KSEA 091643Z 15005KT 10SM SCT010 BKN018 02/00 A2989 RMK AO2=
200902091553 METAR KSEA 091553Z 18006KT 10SM FEW006 BKN010 OVC019 02/00 A2988 RMK AO2 SLP126 T00220000=
200902091515 SPECI KSEA 091515Z 16006KT 10SM FEW005 BKN012 OVC019 02/00 A2986 RMK AO2=
200902091515 SPECI KSEA 091515Z 16006KT 10SM FEW005 BKN012 OVC019 02/00 A2986 RMK AO2=
200902091453 METAR KSEA 091453Z 14007KT 10SM FEW001 SCT013 BKN019 02/00 A2984 RMK AO2 SLP115 60004 T00170000 51022=
200902091433 SPECI KSEA 091433Z 09005KT 7SM SCT001 BKN016 02/00 A2984 RMK AO2=
200902091433 SPECI KSEA 091433Z 09005KT 7SM SCT001 BKN016 02/00 A2984 RMK AO2=
200902091353 METAR KSEA 091353Z 07005KT 7SM SCT001 BKN007 OVC018 01/00 A2983 RMK AO2 RAB06E14SNE14 CIG 005V009 SLP110 VIS N 2 1/2 P0000 T00110000=
200902091310 SPECI KSEA 091310Z 11005KT 3SM -RASN BR SCT001 BKN007 OVC016 01/00 A2981 RMK AO2 RAB06 P0000 $=
200902091310 SPECI KSEA 091310Z 11005KT 3SM -RASN BR SCT001 BKN007 OVC016 01/00 A2981 RMK AO2 RAB06 P0000 $=
200902091258 SPECI KSEA 091258Z 09004KT 1 1/2SM -SN BR SCT001 BKN007 OVC016 01/M01 A2981 RMK AO2 P0000=
200902091258 SPECI KSEA 091258Z 09004KT 1 1/2SM -SN BR SCT001 BKN007 OVC016 01/M01 A2981 RMK AO2 P0000=
200902091253 METAR KSEA 091253Z 10003KT 2SM -SN BR BKN001 BKN009 OVC014 01/M01 A2980 RMK AO2 SLP101 P0004 T00061006=
200902091231 SPECI KSEA 091231Z 00000KT 2SM -SN BR BKN003 BKN009 OVC017 01/M01 A2979 RMK AO2 P0004=
200902091231 SPECI KSEA 091231Z 00000KT 2SM -SN BR BKN003 BKN009 OVC017 01/M01 A2979 RMK AO2 P0004=
200902091214 SPECI KSEA 091214Z 36004KT 1 1/4SM -SN BR BKN003 OVC009 01/M01 A2978 RMK AO2 P0002=
200902091214 SPECI KSEA 091214Z 36004KT 1 1/4SM -SN BR BKN003 OVC009 01/M01 A2978 RMK AO2 P0002=
200902091209 SPECI KSEA 091209Z 34007KT 2SM -SN BR SCT003 OVC009 01/00 A2978 RMK AO2 CIG 006V012 P0002=
200902091209 SPECI KSEA 091209Z 34007KT 2SM -SN BR SCT003 OVC009 01/00 A2978 RMK AO2 CIG 006V012 P0002=
200902091204 SPECI KSEA 091204Z 30004KT 4SM -SN BR FEW003 OVC009 02/00 A2978 RMK AO2 CIG 006V014 P0001=
200902091204 SPECI KSEA 091204Z 30004KT 4SM -SN BR FEW003 OVC009 02/00 A2978 RMK AO2 CIG 006V014 P0001=
200902091153 METAR KSEA 091153Z 26004KT 5SM -SN BR BKN011 OVC017 02/M01 A2978 RMK AO2 RAB17E30SNB13 SLP093 P0001 60001 70002 931000 T00171006 10061 20017 53027=
200902091138 SPECI KSEA 091138Z 22008KT 5SM -SN BKN012 OVC017 02/M01 A2977 RMK AO2 RAB17E30SNB13 P0000=
200902091138 SPECI KSEA 091138Z 22008KT 5SM -SN BKN012 OVC017 02/M01 A2977 RMK AO2 RAB17E30SNB13 P0000=
200902091053 METAR KSEA 091053Z 19014G18KT 10SM OVC020 03/M01 A2974 RMK AO2 SLP081 T00281011=
200902090953 METAR KSEA 090953Z 19012G19KT 10SM OVC020 03/M01 A2973 RMK AO2 SLP076 T00281011=
200902090853 METAR KSEA 090853Z 18014G21KT 10SM BKN016 OVC020 03/M01 A2970 RMK AO2 SLP065 T00281006 52026=
200902090753 METAR KSEA 090753Z 19012KT 10SM BKN016 OVC020 03/00 A2968 RMK AO2 SLP058 T00330000 400670000=
200902090653 METAR KSEA 090653Z 19013G22KT 10SM BKN020 OVC030 05/01 A2964 RMK AO2 SLP046 T00500011=
200902090644 SPECI KSEA 090644Z 20015G22KT 10SM BKN020 OVC030 06/01 A2964 RMK AO2=
200902090644 SPECI KSEA 090644Z 20015G22KT 10SM BKN020 OVC030 06/01 A2964 RMK AO2=
200902090553 METAR KSEA 090553Z 20008KT 10SM SCT025 OVC030 06/02 A2962 RMK AO2 RAE02 SLP039 P0000 60001 T00560022 10061 20050 53007=
200902090453 METAR KSEA 090453Z 20004KT 10SM -RA BKN030 OVC050 06/02 A2960 RMK AO2 SLP033 P0001 T00560022=
200902090353 METAR KSEA 090353Z 24009KT 10SM -RA BKN025 OVC050 06/02 A2960 RMK AO2 RAB17 SLP033 P0000 T00610022=
200902090253 METAR KSEA 090253Z VRB03KT 10SM BKN030 OVC060 06/01 A2960 RMK AO2 RAB11E22 SLP031 P0000 60000 T00610011 51005=
200902090153 METAR KSEA 090153Z 16006KT 10SM FEW045 BKN055 OVC100 06/01 A2960 RMK AO2 SLP031 T00560006=
200902090053 METAR KSEA 090053Z 16006KT 10SM BKN065 OVC090 06/01 A2959 RMK AO2 SLP027 T00560006=
200902082353 METAR KSEA 082353Z 18006KT 10SM OVC070 06/M01 A2958 RMK AO2 SLP026 T00611006 10067 20017 55003=
200902082253 METAR KSEA 082253Z 17008KT 10SM BKN070 BKN110 07/M01 A2957 RMK AO2 SLP023 T00671006=
200902082153 METAR KSEA 082153Z 20006KT 10SM BKN065 BKN110 06/M01 A2958 RMK AO2 SLP026 T00611006=
200902082053 METAR KSEA 082053Z 18004KT 10SM SCT110 BKN200 05/01 A2959 RMK AO2 SLP030 T00500011 58017=
200902081953 METAR KSEA 081953Z 22007KT 10SM FEW005 SCT160 BKN200 04/02 A2961 RMK AO2 SLP036 T00390017=
200902081853 METAR KSEA 081853Z 20004KT 5SM BR SCT001 BKN030 BKN200 02/01 A2963 RMK AO2 SLP042 T00220011=
200902081804 SPECI KSEA 081804Z 22003KT 4SM BR SCT001 BKN030 BKN200 02/01 A2964 RMK AO2=
200902081804 SPECI KSEA 081804Z 22003KT 4SM BR SCT001 BKN030 BKN200 02/01 A2964 RMK AO2=
200902081753 METAR KSEA 081753Z 22004KT 4SM BR BKN001 OVC003 02/01 A2964 RMK AO2 SLP048 T00170006 10017 20000 56029=
200902081739 SPECI KSEA 081739Z 21003KT 1 1/2SM R16C/5000VP6000FT BR OVC001 01/01 A2965 RMK AO2 VIS 3/4V3=
200902081739 SPECI KSEA 081739Z 21003KT 1 1/2SM R16C/5000VP6000FT BR OVC001 01/01 A2965 RMK AO2 VIS 3/4V3=
200902081706 SPECI KSEA 081706Z 19004KT 3/4SM R16C/1200VP6000FT BR OVC001 01/00 A2966 RMK AO2=
200902081706 SPECI KSEA 081706Z 19004KT 3/4SM R16C/1200VP6000FT BR OVC001 01/00 A2966 RMK AO2=
200902081659 SPECI KSEA 081659Z 18005KT 1 3/4SM R16C/1800V5500FT FG BKN001 01/00 A2966 RMK AO2 VIS 1/2V4=
200902081659 SPECI KSEA 081659Z 18005KT 1 3/4SM R16C/1800V5500FT FG BKN001 01/00 A2966 RMK AO2 VIS 1/2V4=
200902081653 METAR KSEA 081653Z 14006KT 1/4SM R16C/1600V4000FT FG BKN001 01/01 A2966 RMK AO2 SLP054 T00110006=
200902081650 SPECI KSEA 081650Z 14007KT 1/4SM R16C/1200V3500FT FG OVC001 01/01 A2967 RMK AO2=
200902081650 SPECI KSEA 081650Z 14007KT 1/4SM R16C/1200V3500FT FG OVC001 01/01 A2967 RMK AO2=
200902081601 SPECI KSEA 081601Z 14008KT 1/8SM R16C/0800V1400FT FG VV001 02/01 A2970 RMK AO2=
200902081601 SPECI KSEA 081601Z 14008KT 1/8SM R16C/0800V1400FT FG VV001 02/01 A2970 RMK AO2=
200902081553 METAR KSEA 081553Z 13007KT 1/4SM R16C/1000V1400FT FG VV001 01/01 A2970 RMK AO2 SLP068 T00110006=
200902081529 SPECI KSEA 081529Z 15005KT 1/4SM R16C/1800V2400FT FG VV001 02/01 A2971 RMK AO2=
200902081529 SPECI KSEA 081529Z 15005KT 1/4SM R16C/1800V2400FT FG VV001 02/01 A2971 RMK AO2=
200902081453 METAR KSEA 081453Z 00000KT 1/4SM R16C/1200V1400FT FG VV001 01/00 A2973 RMK AO2 SLP078 T00060000 56028=
200902081352 METAR KSEA 081352Z 00000KT 1/4SM R16C/1200V1400FT FG VV001 01/M01 A2975 RMK AO2 SLP083 T00061006=
200902081351 SPECI KSEA 081351Z 00000KT 1/4SM R16C/1200V1400FT FG VV001 01/M01 A2975 RMK AO2=
200902081351 SPECI KSEA 081351Z 00000KT 1/4SM R16C/1200V1400FT FG VV001 01/M01 A2975 RMK AO2=
200902081322 SPECI KSEA 081322Z 00000KT 1/8SM R16C/1200V4000FT FG VV001 01/00 A2976 RMK AO2=
200902081322 SPECI KSEA 081322Z 00000KT 1/8SM R16C/1200V4000FT FG VV001 01/00 A2976 RMK AO2=
200902081253 METAR KSEA 081253Z 00000KT 1/8SM R16C/1200V1800FT FG VV001 01/01 A2978 RMK AO2 SLP094 T00110006=
200902081153 METAR KSEA 081153Z 05003KT 1/8SM R16C/0700V0800FT FG VV001 02/01 A2982 RMK AO2 SLP106 T00170011 10022 20000 56026=
200902081112 SPECI KSEA 081112Z 01006KT 1/4SM R16C/0800V1000FT FG VV001 02/01 A2985 RMK AO2=
200902081112 SPECI KSEA 081112Z 01006KT 1/4SM R16C/0800V1000FT FG VV001 02/01 A2985 RMK AO2=
200902081053 METAR KSEA 081053Z 35006KT 1/8SM R16C/0800V1000FT FG VV001 02/02 A2986 RMK AO2 SLP121 T00220017=
200902081021 SPECI KSEA 081021Z 36005KT 1/8SM R16C/0800FT FG VV001 02/02 A2988 RMK AO2=
200902081021 SPECI KSEA 081021Z 36005KT 1/8SM R16C/0800FT FG VV001 02/02 A2988 RMK AO2=
200902080953 METAR KSEA 080953Z 01004KT 1/4SM R16C/0800FT FG VV001 02/01 A2989 RMK AO2 SLP132 T00220011=
200902080853 METAR KSEA 080853Z 36003KT 1/4SM R16C/0800V1000FT FG VV001 02/01 A2993 RMK AO2 SLP146 T00170011 56020=
200902080848 SPECI KSEA 080848Z 02003KT 1/4SM R16C/0800V1200FT FG VV001 02/01 A2994 RMK AO2=
200902080848 SPECI KSEA 080848Z 02003KT 1/4SM R16C/0800V1200FT FG VV001 02/01 A2994 RMK AO2=
200902080820 SPECI KSEA 080820Z 00000KT 1/8SM R16C/0700V1200FT FG VV001 02/01 A2995 RMK AO2=
200902080820 SPECI KSEA 080820Z 00000KT 1/8SM R16C/0700V1200FT FG VV001 02/01 A2995 RMK AO2=
200902080809 SPECI KSEA 080809Z 00000KT 1/4SM R16C/1200V1800FT FG VV001 02/01 A2996 RMK AO2=
200902080809 SPECI KSEA 080809Z 00000KT 1/4SM R16C/1200V1800FT FG VV001 02/01 A2996 RMK AO2=
200902080753 METAR KSEA 080753Z 35004KT 1/2SM R16C/1400VP6000FT FG BKN001 OVC006 01/01 A2996 RMK AO2 SLP155 T00110006 400560000 $=
200902080737 SPECI KSEA 080737Z 00000KT 1/2SM R16C/1800VP6000FT FG SCT001 BKN006 01/M01 A2997 RMK AO2 TWR VIS 4 $=
200902080737 SPECI KSEA 080737Z 00000KT 1/2SM R16C/1800VP6000FT FG SCT001 BKN006 01/M01 A2997 RMK AO2 TWR VIS 4 $=
200902080712 SPECI KSEA 080712Z 00000KT 3SM BR FEW001 BKN220 02/00 A2998 RMK AO2 FG FEW001=
200902080712 SPECI KSEA 080712Z 00000KT 3SM BR FEW001 BKN220 02/00 A2998 RMK AO2 FG FEW001=
200902080653 METAR KSEA 080653Z 00000KT 2 1/2SM BR FEW001 BKN220 01/00 A2999 RMK AO2 SLP166 FG FEW001 T00110000=
200902080640 SPECI KSEA 080640Z 00000KT 2SM BR FEW001 BKN220 02/01 A3000 RMK AO2 FG FEW001=
200902080640 SPECI KSEA 080640Z 00000KT 2SM BR FEW001 BKN220 02/01 A3000 RMK AO2 FG FEW001=
200902080553 METAR KSEA 080553Z 00000KT 3SM BR SCT001 BKN220 02/01 A3002 RMK AO2 SLP176 FG SCT001 T00220011 10056 20011 58033=
200902080453 METAR KSEA 080453Z 00000KT 5SM BR BKN220 02/01 A3006 RMK AO2 SLP191 T00170006=
200902080353 METAR KSEA 080353Z 00000KT 5SM BR BKN220 03/02 A3010 RMK AO2 SLP202 T00280017=
200902080253 METAR KSEA 080253Z 17004KT 8SM OVC220 02/01 A3012 RMK AO2 SLP210 T00220011 58025=
200902080153 METAR KSEA 080153Z 00000KT 8SM OVC220 04/02 A3015 RMK AO2 SLP220 T00390017=
200902080053 METAR KSEA 080053Z 21003KT 7SM OVC220 05/02 A3017 RMK AO2 SLP227 T00500022=
200902072353 METAR KSEA 072353Z 00000KT 7SM OVC220 06/02 A3020 RMK AO2 SLP235 T00560022 10056 20033 58022=
200902072253 METAR KSEA 072253Z 00000KT 7SM FEW007 BKN220 06/02 A3022 RMK AO2 SLP241 T00560022=
200902072153 METAR KSEA 072153Z 33004KT 6SM BR OVC007 05/02 A3024 RMK AO2 SLP251 T00500022=
200902072053 METAR KSEA 072053Z 03003KT 9SM BKN005 05/02 A3026 RMK AO2 SLP257 T00500022 58015=
200902071953 METAR KSEA 071953Z 36005KT 7SM OVC005 05/03 A3029 RMK AO2 SLP267 T00500028=
200902071927 SPECI KSEA 071927Z 00000KT 9SM OVC005 04/02 A3030 RMK AO2=
200902071927 SPECI KSEA 071927Z 00000KT 9SM OVC005 04/02 A3030 RMK AO2=
200902071853 METAR KSEA 071853Z 00000KT 3SM BR OVC003 03/02 A3030 RMK AO2 SFC VIS 5 SLP270 T00330022=
200902071753 METAR KSEA 071753Z 13003KT 2SM BR OVC003 03/02 A3031 RMK AO2 SFC VIS 5 SLP273 T00280017 10033 20000 55001=
200902071750 SPECI KSEA 071750Z 14004KT 2SM BR OVC003 03/02 A3031 RMK AO2 SFC VIS 5=
200902071750 SPECI KSEA 071750Z 14004KT 2SM BR OVC003 03/02 A3031 RMK AO2 SFC VIS 5=
200902071723 SPECI KSEA 071723Z 00000KT 1 1/4SM R16C/4000VP6000FT BR BKN003 OVC007 03/02 A3031 RMK AO2 SFC VIS 3 CIG 001V006=
200902071723 SPECI KSEA 071723Z 00000KT 1 1/4SM R16C/4000VP6000FT BR BKN003 OVC007 03/02 A3031 RMK AO2 SFC VIS 3 CIG 001V006=
200902071716 SPECI KSEA 071716Z 00000KT 1/2SM R16C/3000VP6000FT BR BKN003 OVC007 03/02 A3031 RMK AO2 SFC VIS 1 1/2=
200902071716 SPECI KSEA 071716Z 00000KT 1/2SM R16C/3000VP6000FT BR BKN003 OVC007 03/02 A3031 RMK AO2 SFC VIS 1 1/2=
200902071653 METAR KSEA 071653Z 00000KT 1 1/4SM BR OVC003 03/02 A3031 RMK AO2 SFC VIS 2 SLP274 T00280017=
200902071553 METAR KSEA 071553Z 11004KT 1/8SM R16C/P6000FT BR OVC003 02/01 A3030 RMK AO2 SFC VIS 1 SLP269 T00170011=
200902071541 SPECI KSEA 071541Z 12004KT 1/2SM R16C/P6000FT BR OVC003 02/01 A3030 RMK AO2 SFC VIS 1=
200902071541 SPECI KSEA 071541Z 12004KT 1/2SM R16C/P6000FT BR OVC003 02/01 A3030 RMK AO2 SFC VIS 1=
200902071522 SPECI KSEA 071522Z VRB03KT 1 1/4SM BR BKN001 OVC005 02/01 A3029 RMK AO2 SFC VIS 2=
200902071522 SPECI KSEA 071522Z VRB03KT 1 1/4SM BR BKN001 OVC005 02/01 A3029 RMK AO2 SFC VIS 2=
200902071453 METAR KSEA 071453Z 00000KT 3/4SM R16C/2600VP6000FT BR BKN001 OVC005 02/01 A3029 RMK AO2 TWR VIS 1 1/4 SLP267 T00170006 53007=
200902071430 SPECI KSEA 071430Z 00000KT 1/4SM R16C/1000V4000FT FG VV001 01/01 A3028 RMK AO2=
200902071430 SPECI KSEA 071430Z 00000KT 1/4SM R16C/1000V4000FT FG VV001 01/01 A3028 RMK AO2=
200902071353 METAR KSEA 071353Z 13003KT 1/4SM R16C/1000V1400FT FG BKN001 OVC008 01/00 A3027 RMK AO2 SLP261 T00060000=
200902071318 SPECI KSEA 071318Z 06003KT 1/4SM R16C/1400V2000FT FG BKN001 BKN008 00/M01 A3027 RMK AO2 TWR VIS 3=
200902071318 SPECI KSEA 071318Z 06003KT 1/4SM R16C/1400V2000FT FG BKN001 BKN008 00/M01 A3027 RMK AO2 TWR VIS 3=
200902071308 SPECI KSEA 071308Z 00000KT 1/4SM R16C/3000VP6000FT FG FEW001 BKN008 00/M01 A3027 RMK AO2 TWR VIS 3=
200902071308 SPECI KSEA 071308Z 00000KT 1/4SM R16C/3000VP6000FT FG FEW001 BKN008 00/M01 A3027 RMK AO2 TWR VIS 3=
200902071253 METAR KSEA 071253Z 00000KT 3SM R16C/2600VP6000FT BR SCT001 00/M01 A3027 RMK AO2 TWR VIS 8 SLP259 T00001011 $=
200902071243 SPECI KSEA 071243Z 00000KT 1SM R16C/P6000FT BR SCT001 01/M01 A3027 RMK AO2=
200902071243 SPECI KSEA 071243Z 00000KT 1SM R16C/P6000FT BR SCT001 01/M01 A3027 RMK AO2=
200902071153 METAR KSEA 071153Z 00000KT 6SM BR SCT017 01/M01 A3027 RMK AO2 SLP260 70004 T00061006 10056 20000 50002=
200902071131 SPECI KSEA 071131Z 00000KT 4SM BR FEW001 SCT010 01/00 A3028 RMK AO2=
200902071131 SPECI KSEA 071131Z 00000KT 4SM BR FEW001 SCT010 01/00 A3028 RMK AO2=
200902071053 METAR KSEA 071053Z 00000KT 6SM BR BKN012 01/M01 A3028 RMK AO2 SLP264 T00061006=
200902070953 METAR KSEA 070953Z 06004KT 10SM FEW004 03/02 A3028 RMK AO2 SLP261 T00280017=
200902070853 METAR KSEA 070853Z 03004KT 10SM CLR 02/01 A3026 RMK AO2 SLP258 T00220011 52014=
200902070753 METAR KSEA 070753Z 01006KT 10SM CLR 03/02 A3025 RMK AO2 SLP253 T00330017 400670033=
200902070653 METAR KSEA 070653Z 02003KT 10SM FEW032 04/02 A3024 RMK AO2 SLP248 T00390022=
200902070553 METAR KSEA 070553Z 01004KT 10SM FEW015 BKN032 06/03 A3022 RMK AO2 SLP243 T00560033 10061 20056 53022=
200902070512 SPECI KSEA 070512Z 36005KT 10SM FEW014 OVC030 06/03 A3021 RMK AO2=
200902070512 SPECI KSEA 070512Z 36005KT 10SM FEW014 OVC030 06/03 A3021 RMK AO2=
200902070453 METAR KSEA 070453Z 02004KT 10SM FEW014 OVC028 06/03 A3020 RMK AO2 SLP234 T00610033=
200902070353 METAR KSEA 070353Z 04006KT 10SM BKN017 OVC026 06/03 A3017 RMK AO2 SLP226 T00610033=
200902070253 METAR KSEA 070253Z 04006KT 10SM OVC020 06/03 A3016 RMK AO2 SLP220 T00610033 51024=
200902070153 METAR KSEA 070153Z 02007KT 10SM FEW009 BKN015 BKN021 06/03 A3013 RMK AO2 SLP212 T00610033=
200902070053 METAR KSEA 070053Z 03007KT 10SM FEW008 BKN015 BKN060 06/03 A3011 RMK AO2 SLP205 T00610033=
200902070021 SPECI KSEA 070021Z 02008KT 10SM BKN015 OVC020 06/03 A3010 RMK AO2=
200902070021 SPECI KSEA 070021Z 02008KT 10SM BKN015 OVC020 06/03 A3010 RMK AO2=
200902062353 METAR KSEA 062353Z 02008KT 10SM FEW008 OVC012 06/03 A3008 RMK AO2 RAB01E12 SLP195 P0000 60002 T00610033 10061 20056 53025=
200902062334 SPECI KSEA 062334Z 02008KT 10SM FEW008 BKN012 OVC050 06/03 A3007 RMK AO2 RAB01E12 P0000=
200902062334 SPECI KSEA 062334Z 02008KT 10SM FEW008 BKN012 OVC050 06/03 A3007 RMK AO2 RAB01E12 P0000=
200902062307 SPECI KSEA 062307Z 02008KT 10SM -RA FEW009 BKN017 OVC060 06/04 A3006 RMK AO2 RAB01 P0000=
200902062307 SPECI KSEA 062307Z 02008KT 10SM -RA FEW009 BKN017 OVC060 06/04 A3006 RMK AO2 RAB01 P0000=
200902062253 METAR KSEA 062253Z 02010KT 10SM FEW009 BKN014 OVC060 06/04 A3005 RMK AO2 RAE22 SLP184 P0000 T00610039=
200902062153 METAR KSEA 062153Z 35008KT 7SM -RA FEW007 BKN011 OVC020 06/04 A3002 RMK AO2 SLP173 P0001 T00610039=
200902062126 SPECI KSEA 062126Z 35010KT 7SM -RA FEW006 BKN011 OVC020 06/04 A3001 RMK AO2 P0001=
200902062126 SPECI KSEA 062126Z 35010KT 7SM -RA FEW006 BKN011 OVC020 06/04 A3001 RMK AO2 P0001=
200902062053 METAR KSEA 062053Z 35007KT 7SM -RA BKN006 OVC013 06/04 A3001 RMK AO2 RAB1958 SLP170 P0001 60001 T00560039 51024=
200902062039 SPECI KSEA 062039Z 36008KT 7SM -RA BKN005 OVC013 06/04 A3000 RMK AO2 RAB1958 P0001=
200902062039 SPECI KSEA 062039Z 36008KT 7SM -RA BKN005 OVC013 06/04 A3000 RMK AO2 RAB1958 P0001=
200902061953 METAR KSEA 061953Z 36009KT 1 1/2SM BR OVC003 06/04 A2999 RMK AO2 SFC VIS 5 RAE41 SLP163 P0000 T00560044=
200902061853 METAR KSEA 061853Z 34012KT 1 1/2SM -RA BR BKN003 OVC007 06/04 A2997 RMK AO2 SFC VIS 4 RAE17B45 SLP156 P0000 T00560044=
200902061835 SPECI KSEA 061835Z 34009KT 1 1/2SM BR BKN003 OVC007 06/04 A2996 RMK AO2 SFC VIS 3 RAE17 P0000=
200902061835 SPECI KSEA 061835Z 34009KT 1 1/2SM BR BKN003 OVC007 06/04 A2996 RMK AO2 SFC VIS 3 RAE17 P0000=
200902061813 SPECI KSEA 061813Z 34014KT 1/2SM -RA BR OVC002 06/04 A2994 RMK AO2 SFC VIS 3 P0000=
200902061813 SPECI KSEA 061813Z 34014KT 1/2SM -RA BR OVC002 06/04 A2994 RMK AO2 SFC VIS 3 P0000=
200902061804 SPECI KSEA 061804Z 35013KT 1 1/4SM BR BKN004 OVC008 06/04 A2994 RMK AO2 SFC VIS 3 RAE1756 P0000=
200902061804 SPECI KSEA 061804Z 35013KT 1 1/4SM BR BKN004 OVC008 06/04 A2994 RMK AO2 SFC VIS 3 RAE1756 P0000=
200902061753 METAR KSEA 061753Z 34014KT 5SM -RA BR BKN004 OVC008 06/04 A2994 RMK AO2 SLP145 P0001 60002 T00610044 10061 20061 53032=
200902061653 METAR KSEA 061653Z 34008KT 3SM -RA BR OVC004 06/05 A2990 RMK AO2 SFC VIS 4 RAB32 SLP133 P0000 T00610050=
200902061626 SPECI KSEA 061626Z 36006KT 2 1/2SM BR OVC004 06/05 A2989 RMK AO2=
200902061626 SPECI KSEA 061626Z 36006KT 2 1/2SM BR OVC004 06/05 A2989 RMK AO2=
200902061553 METAR KSEA 061553Z 01006KT 4SM BR BKN005 OVC018 06/05 A2987 RMK AO2 DZE28 SLP123 P0000 T00610050=
200902061544 SPECI KSEA 061544Z 01006KT 4SM BR BKN005 OVC018 06/04 A2986 RMK AO2 DZE28 P0000=
200902061544 SPECI KSEA 061544Z 01006KT 4SM BR BKN005 OVC018 06/04 A2986 RMK AO2 DZE28 P0000=
200902061528 SPECI KSEA 061528Z 01006KT 5SM BR SCT005 OVC018 06/04 A2986 RMK AO2 DZE28 P0000=
200902061528 SPECI KSEA 061528Z 01006KT 5SM BR SCT005 OVC018 06/04 A2986 RMK AO2 DZE28 P0000=
200902061453 METAR KSEA 061453Z 02009KT 5SM -DZ BR SCT010 OVC017 06/04 A2984 RMK AO2 RAE29DZB45 SLP113 P0001 60001 T00610044 53013=
200902061353 METAR KSEA 061353Z 02010KT 6SM -RA BR FEW010 OVC020 06/04 A2982 RMK AO2 SLP107 P0000 T00610044=
200902061253 METAR KSEA 061253Z 02008KT 6SM -RA BR OVC020 06/04 A2981 RMK AO2 DZE18RAB32 SLP103 P0000 T00610044=
200902061153 METAR KSEA 061153Z 02008KT 7SM -DZ BKN020 OVC032 06/04 A2980 RMK AO2 DZB47 SLP099 P0000 60001 70001 T00610044 10067 20056 51006=
200902061102 SPECI KSEA 061102Z 02005KT 6SM BR BKN029 OVC037 06/04 A2980 RMK AO2=
200902061102 SPECI KSEA 061102Z 02005KT 6SM BR BKN029 OVC037 06/04 A2980 RMK AO2=
200902061053 METAR KSEA 061053Z 02005KT 5SM BR FEW029 BKN037 BKN080 06/04 A2980 RMK AO2 SLP098 T00610044=
200902060953 METAR KSEA 060953Z 01004KT 8SM FEW019 BKN049 OVC060 06/04 A2979 RMK AO2 RAB10E33 SLP095 P0000 T00610044=
200902060853 METAR KSEA 060853Z 00000KT 10SM BKN047 OVC065 06/04 A2978 RMK AO2 SLP093 60001 T00610044 50000=
200902060753 METAR KSEA 060753Z 15004KT 10SM OVC050 07/04 A2979 RMK AO2 RAE49 SLP095 P0000 T00670044 400940033=
200902060653 METAR KSEA 060653Z 19003KT 10SM -RA OVC046 07/04 A2979 RMK AO2 RAB0559E32B49 SLP096 P0001 T00670044=
200902060553 METAR KSEA 060553Z 21005KT 10SM BKN048 BKN060 OVC075 07/04 A2978 RMK AO2 RAB0455E48 SLP093 P0000 60000 T00670044 10094 20067 51012=
200902060453 METAR KSEA 060453Z 23010KT 10SM BKN060 OVC070 08/03 A2977 RMK AO2 RAB23E45 SLP090 P0000 T00780033=
200902060353 METAR KSEA 060353Z 30004KT 10SM BKN070 OVC150 07/03 A2977 RMK AO2 SLP088 T00720033=
200902060253 METAR KSEA 060253Z 24005KT 10SM SCT095 BKN120 OVC200 09/02 A2975 RMK AO2 SLP081 T00940022 53008=
200902060153 METAR KSEA 060153Z 18008KT 10SM SCT100 BKN120 OVC200 09/02 A2973 RMK AO2 SLP074 T00890022=
200902060053 METAR KSEA 060053Z 16006KT 10SM SCT095 OVC200 09/02 A2973 RMK AO2 SLP075 T00890022=
200902052353 METAR KSEA 052353Z 16006KT 10SM SCT120 OVC200 08/03 A2972 RMK AO2 SLP072 T00830028 10094 20056 53003=
200902052253 METAR KSEA 052253Z 00000KT 10SM BKN100 OVC200 08/03 A2971 RMK AO2 SLP070 T00830033=
200902052153 METAR KSEA 052153Z 27005KT 10SM BKN110 OVC200 09/02 A2971 RMK AO2 SLP069 T00890022=
200902052053 METAR KSEA 052053Z 29004KT 10SM FEW080 BKN130 OVC200 08/02 A2971 RMK AO2 SLP069 T00830022 58025=
200902051953 METAR KSEA 051953Z 00000KT 10SM FEW080 SCT130 OVC200 08/03 A2975 RMK AO2 SLP081 T00830028=
200902051853 METAR KSEA 051853Z 00000KT 10SM FEW080 BKN130 OVC200 07/03 A2978 RMK AO2 SLP092 T00720028=
200902051753 METAR KSEA 051753Z 19007KT 10SM BKN130 OVC200 06/03 A2979 RMK AO2 SLP095 T00560028 10061 20033 55004=
200902051653 METAR KSEA 051653Z 00000KT 10SM FEW100 BKN160 BKN250 04/01 A2978 RMK AO2 SLP094 T00440006=
200902051553 METAR KSEA 051553Z 00000KT 10SM SCT180 BKN250 04/01 A2979 RMK AO2 SLP096 T00440006=
200902051453 METAR KSEA 051453Z 00000KT 10SM BKN200 04/02 A2980 RMK AO2 SLP099 T00440022 58016=
200902051353 METAR KSEA 051353Z 00000KT 10SM BKN250 04/M02 A2982 RMK AO2 SLP106 T00391017=
200902051253 METAR KSEA 051253Z 15005KT 10SM SCT250 05/M02 A2983 RMK AO2 SLP108 T00501017=
200902051153 METAR KSEA 051153Z 13006KT 10SM SCT250 06/M02 A2985 RMK AO2 SLP114 T00561017 10067 20033 58009=
200902051053 METAR KSEA 051053Z 13007KT 10SM SCT250 04/M02 A2986 RMK AO2 SLP118 T00441017=
200902050953 METAR KSEA 050953Z 14007KT 10SM SCT250 06/M01 A2986 RMK AO2 SLP120 T00561006=
200902050853 METAR KSEA 050853Z 13006KT 10SM FEW250 06/00 A2988 RMK AO2 SLP124 T00560000 58012=
200902050753 METAR KSEA 050753Z 16005KT 10SM FEW250 03/01 A2989 RMK AO2 SLP131 T00330006 401720022=
200902050653 METAR KSEA 050653Z 07003KT 10SM FEW250 07/01 A2991 RMK AO2 SLP135 T00670011=
200902050553 METAR KSEA 050553Z 00000KT 10SM FEW250 06/01 A2991 RMK AO2 SLP137 T00610011 10150 20056 56004=
200902050453 METAR KSEA 050453Z 00000KT 10SM CLR 08/01 A2992 RMK AO2 SLP138 T00830011=
200902050353 METAR KSEA 050353Z 00000KT 10SM FEW250 07/01 A2992 RMK AO2 SLP139 T00720011=
200902050253 METAR KSEA 050253Z 00000KT 10SM SCT250 09/02 A2992 RMK AO2 SLP141 T00890017 56002=
200902050153 METAR KSEA 050153Z 30003KT 10SM FEW140 BKN250 10/02 A2992 RMK AO2 SLP141 ACSL DSNT SE T01000017=
200902050053 METAR KSEA 050053Z 28003KT 10SM SCT140 BKN250 12/01 A2992 RMK AO2 SLP139 ACSL DSNT SE T01170006=
200902042353 METAR KSEA 042353Z 00000KT 10SM FEW140 BKN250 15/M01 A2993 RMK AO2 SLP142 ACSL DSNT SE T01501006 10172 20067 56017=
200902042253 METAR KSEA 042253Z VRB03KT 10SM FEW160 BKN250 16/M01 A2994 RMK AO2 SLP146 ACSL DSNT SE T01611011=
200902042153 METAR KSEA 042153Z 21003KT 10SM FEW180 BKN250 15/M02 A2995 RMK AO2 SLP150 T01501017=
200902042053 METAR KSEA 042053Z 18003KT 10SM FEW180 BKN250 13/00 A2998 RMK AO2 SLP159 T01280000 58015=
200902041953 METAR KSEA 041953Z 19007KT 10SM FEW180 BKN250 11/01 A3000 RMK AO2 SLP165 T01060006=
200902041853 METAR KSEA 041853Z 22006KT 10SM FEW180 BKN250 08/01 A3002 RMK AO2 SLP172 T00830006=
200902041753 METAR KSEA 041753Z 18005KT 10SM FEW180 BKN250 07/01 A3002 RMK AO2 SLP175 T00670011 10067 20022 53002=
200902041653 METAR KSEA 041653Z 15005KT 10SM SCT180 OVC250 06/01 A3002 RMK AO2 SLP173 T00560006=
200902041553 METAR KSEA 041553Z 13003KT 10SM FEW180 BKN250 03/01 A3002 RMK AO2 SLP174 T00330006=
200902041453 METAR KSEA 041453Z 18003KT 10SM BKN250 03/01 A3002 RMK AO2 SLP173 T00280011 56007=
200902041353 METAR KSEA 041353Z 16003KT 10SM SCT250 06/M02 A3002 RMK AO2 SLP175 T00561017=
200902041253 METAR KSEA 041253Z 15005KT 10SM CLR 06/M02 A3002 RMK AO2 SLP174 T00561017=
200902041153 METAR KSEA 041153Z 13005KT 10SM SCT250 06/M01 A3004 RMK AO2 SLP179 T00611011 10094 20033 50003=
200902041053 METAR KSEA 041053Z 12007KT 10SM SCT250 05/00 A3005 RMK AO2 SLP182 T00500000=
200902040953 METAR KSEA 040953Z 12009KT 10SM CLR 06/M01 A3004 RMK AO2 SLP180 T00611006=
200902040853 METAR KSEA 040853Z 14006KT 10SM CLR 07/M01 A3003 RMK AO2 SLP178 T00671006 53006=
200902040753 METAR KSEA 040753Z 00000KT 10SM CLR 07/M01 A3002 RMK AO2 SLP175 T00721006 401280000=
200902040653 METAR KSEA 040653Z 13006KT 10SM CLR 08/M01 A3001 RMK AO2 SLP170 T00831006=
200902040553 METAR KSEA 040553Z 16005KT 10SM CLR 07/00 A3001 RMK AO2 SLP171 T00670000 10122 20061 56005=
200902040453 METAR KSEA 040453Z 00000KT 10SM FEW250 08/M01 A3002 RMK AO2 SLP172 T00831006=
200902040353 METAR KSEA 040353Z 13006KT 10SM FEW250 09/00 A3001 RMK AO2 SLP170 T00940000=
200902040253 METAR KSEA 040253Z 12004KT 10SM SCT250 11/00 A3003 RMK AO2 SLP176 T01060000 58008=
200902040153 METAR KSEA 040153Z 13004KT 10SM BKN250 09/00 A3004 RMK AO2 SLP181 T00940000=
200902040053 METAR KSEA 040053Z 00000KT 10SM BKN250 11/02 A3005 RMK AO2 SLP184 T01060022=
200902032353 METAR KSEA 032353Z 17003KT 10SM BKN250 12/M01 A3005 RMK AO2 SLP184 T01221011 10128 20044 56014=
200902032253 METAR KSEA 032253Z 15003KT 10SM BKN250 11/01 A3006 RMK AO2 SLP189 T01110006=
200902032153 METAR KSEA 032153Z 20004KT 10SM BKN250 10/02 A3007 RMK AO2 SLP191 T01000022=
200902032053 METAR KSEA 032053Z 00000KT 10SM FEW002 BKN250 09/03 A3009 RMK AO2 SLP197 T00890028 58009=
200902031953 METAR KSEA 031953Z 29003KT 10SM FEW002 BKN250 07/03 A3010 RMK AO2 SLP203 T00720033=
200902031853 METAR KSEA 031853Z 00000KT 10SM FEW003 BKN250 07/03 A3011 RMK AO2 SLP204 T00670033=
200902031753 METAR KSEA 031753Z 00000KT 10SM FEW003 BKN250 04/03 A3012 RMK AO2 SLP206 T00440033 10050 20000 53009=
200902031653 METAR KSEA 031653Z 00000KT 7SM FEW002 BKN250 02/01 A3011 RMK AO2 SLP205 T00220011=
200902031553 METAR KSEA 031553Z 36005KT 7SM FEW002 BKN250 01/01 A3009 RMK AO2 SLP198 T00110006=
200902031526 SPECI KSEA 031526Z 00000KT 7SM FEW002 BKN250 01/00 A3010 RMK AO2=
200902031526 SPECI KSEA 031526Z 00000KT 7SM FEW002 BKN250 01/00 A3010 RMK AO2=
200902031453 METAR KSEA 031453Z 00000KT 8SM FEW150 SCT250 01/00 A3009 RMK AO2 SLP197 T00110000 58013=
200902031353 METAR KSEA 031353Z 00000KT 10SM FEW010 SCT250 02/M01 A3011 RMK AO2 SLP204 T00171006=
200902031253 METAR KSEA 031253Z 36004KT 10SM FEW015 BKN250 01/M01 A3011 RMK AO2 SLP205 T00111011=
200902031153 METAR KSEA 031153Z 02004KT 10SM FEW015 SCT250 02/M02 A3013 RMK AO2 SLP210 T00171017 10072 20011 58018=
200902031053 METAR KSEA 031053Z 00000KT 10SM FEW020 SCT250 02/M03 A3015 RMK AO2 SLP218 T00221028=
200902030953 METAR KSEA 030953Z 00000KT 10SM SCT250 03/M03 A3017 RMK AO2 SLP224 T00331033=
200902030853 METAR KSEA 030853Z 07003KT 10SM BKN250 04/M02 A3018 RMK AO2 SLP228 T00391022 58006=
200902030753 METAR KSEA 030753Z 06003KT 10SM BKN250 04/M03 A3019 RMK AO2 SLP232 T00391028 401110033=
200902030653 METAR KSEA 030653Z 00000KT 10SM SCT250 06/M03 A3020 RMK AO2 SLP234 T00611033=
200902030553 METAR KSEA 030553Z 09004KT 10SM SCT250 07/M03 A3020 RMK AO2 SLP234 T00721028 10111 20056 57006=
200902030453 METAR KSEA 030453Z 12003KT 10SM SCT250 07/M02 A3020 RMK AO2 SLP236 T00671022=
200902030353 METAR KSEA 030353Z 00000KT 10SM FEW150 SCT250 08/M03 A3021 RMK AO2 SLP238 T00831028=
200902030253 METAR KSEA 030253Z 00000KT 10SM FEW150 SCT250 09/M03 A3022 RMK AO2 SLP240 T00941028 56004=
200902030153 METAR KSEA 030153Z 00000KT 10SM FEW150 BKN250 09/M03 A3022 RMK AO2 SLP241 T00941033=
200902030053 METAR KSEA 030053Z 00000KT 10SM FEW040 SCT150 OVC250 10/M03 A3022 RMK AO2 SLP242 T01001033=
200902022353 METAR KSEA 022353Z 00000KT 10SM FEW040 OVC250 11/M02 A3023 RMK AO2 SLP244 T01111022 10111 20067 56012=
200902022253 METAR KSEA 022253Z 00000KT 10SM FEW040 BKN250 11/M04 A3024 RMK AO2 SLP247 T01111039=
200902022153 METAR KSEA 022153Z 00000KT 10SM FEW050 BKN250 11/M04 A3025 RMK AO2 SLP251 T01061044=
200902022053 METAR KSEA 022053Z 19007KT 10SM FEW050 BKN250 10/M03 A3026 RMK AO2 SLP257 T01001028 58005=
200902021953 METAR KSEA 021953Z 17005KT 10SM FEW050 BKN250 09/M02 A3027 RMK AO2 SLP260 T00891022=
200902021853 METAR KSEA 021853Z 17008KT 10SM FEW150 BKN250 08/M02 A3029 RMK AO2 SLP264 T00781017=
200902021753 METAR KSEA 021753Z 18010KT 10SM FEW150 BKN250 07/M01 A3028 RMK AO2 SLP262 T00671006 10067 20033 50007=
200902021653 METAR KSEA 021653Z 17009KT 10SM FEW042 SCT150 BKN250 05/M01 A3028 RMK AO2 SLP262 T00501011=
200902021553 METAR KSEA 021553Z 16007KT 10SM SCT042 SCT130 BKN200 03/M01 A3027 RMK AO2 SLP258 T00331006=
200902021453 METAR KSEA 021453Z 17006KT 10SM FEW055 SCT130 BKN200 04/M01 A3026 RMK AO2 SLP256 T00391011 56007=
200902021353 METAR KSEA 021353Z 16007KT 10SM SCT055 BKN130 04/M01 A3027 RMK AO2 SLP260 T00441006=
200902021253 METAR KSEA 021253Z 18009KT 10SM SCT041 OVC050 06/M01 A3026 RMK AO2 SLP257 T00561006=
200902021153 METAR KSEA 021153Z 20009KT 10SM SCT041 OVC050 07/M02 A3028 RMK AO2 SLP262 60000 T00671017 10067 20050 58008=
200902021053 METAR KSEA 021053Z 17007KT 10SM SCT047 OVC055 06/M01 A3028 RMK AO2 SLP263 T00611006=
200902020953 METAR KSEA 020953Z 14005KT 10SM OVC049 05/01 A3030 RMK AO2 RAB0856E07 SLP272 P0000 T00500006=
200902020853 METAR KSEA 020853Z 16006KT 10SM BKN047 OVC055 05/01 A3031 RMK AO2 SLP272 60000 T00500006 56004=
200902020753 METAR KSEA 020753Z 20010KT 10SM BKN047 OVC055 06/M01 A3031 RMK AO2 RAE20 SLP271 P0000 T00611011 400610006=
200902020653 METAR KSEA 020653Z 18008KT 10SM -RA SCT055 OVC065 06/M01 A3030 RMK AO2 RAB44 SLP270 P0000 T00561006=
200902020553 METAR KSEA 020553Z 16003KT 10SM OVC055 06/M01 A3032 RMK AO2 SLP276 T00561006 10061 20050 53000=
200902020453 METAR KSEA 020453Z 13006KT 10SM FEW050 SCT065 BKN120 06/00 A3030 RMK AO2 SLP269 T00560000=
200902020353 METAR KSEA 020353Z 14004KT 10SM SCT060 BKN110 06/M01 A3030 RMK AO2 SLP270 T00561006=
200902020253 METAR KSEA 020253Z 00000KT 10SM SCT060 OVC100 05/00 A3032 RMK AO2 SLP276 T00500000 56018=
200902020153 METAR KSEA 020153Z 28004KT 10SM SCT070 BKN110 05/M01 A3033 RMK AO2 SLP279 T00501011=
200902020053 METAR KSEA 020053Z 13010KT 10SM BKN060 OVC100 06/M02 A3034 RMK AO2 SLP285 T00561017=
200902012353 METAR KSEA 012353Z 14011KT 10SM FEW050 OVC060 06/M01 A3037 RMK AO2 SLP294 T00561006 10056 20033 58011=
200902012253 METAR KSEA 012253Z 17005KT 10SM BKN060 OVC120 05/00 A3039 RMK AO2 SLP301 T00500000=
200902012153 METAR KSEA 012153Z 23005KT 10SM SCT060 OVC070 05/00 A3040 RMK AO2 SLP304 T00500000=
200902012053 METAR KSEA 012053Z 22003KT 10SM SCT060 OVC080 05/01 A3040 RMK AO2 SLP305 T00500011 56008=
200902011953 METAR KSEA 011953Z 19007KT 10SM FEW007 SCT060 BKN110 05/01 A3041 RMK AO2 SLP306 T00500011=
200902011900 SPECI KSEA 011900Z 22006KT 10SM FEW007 SCT040 BKN110 04/02 A3043 RMK AO2=
200902011900 SPECI KSEA 011900Z 22006KT 10SM FEW007 SCT040 BKN110 04/02 A3043 RMK AO2=
200902011853 METAR KSEA 011853Z 23006KT 10SM SCT040 BKN110 04/01 A3042 RMK AO2 SLP312 T00390011=
200902011753 METAR KSEA 011753Z 27004KT 10SM OVC110 03/01 A3043 RMK AO2 SLP313 T00330006 10033 20011 58014=
200902011653 METAR KSEA 011653Z 26003KT 10SM FEW005 SCT060 OVC100 02/00 A3045 RMK AO2 SLP322 T00220000=
200902011553 METAR KSEA 011553Z 12006KT 10SM FEW003 SCT040 OVC065 02/00 A3046 RMK AO2 SLP323 T00220000=
200902011453 METAR KSEA 011453Z 12004KT 10SM FEW003 SCT040 OVC090 01/M01 A3047 RMK AO2 SLP328 T00111006 58004=
200902011406 SPECI KSEA 011406Z 11006KT 10SM FEW003 SCT045 BKN100 02/00 A3048 RMK AO2=
200902011406 SPECI KSEA 011406Z 11006KT 10SM FEW003 SCT045 BKN100 02/00 A3048 RMK AO2=
200902011353 METAR KSEA 011353Z 00000KT 9SM FEW015 SCT045 BKN100 02/01 A3049 RMK AO2 SLP336 T00220006=
200902011253 METAR KSEA 011253Z 00000KT 10SM FEW045 BKN120 01/M01 A3048 RMK AO2 SLP333 T00111006=
200902011153 METAR KSEA 011153Z 00000KT 10SM SCT048 02/M01 A3048 RMK AO2 SLP332 70001 T00221006 10033 20006 52002=
200902011053 METAR KSEA 011053Z 13003KT 10SM SCT048 02/M01 A3048 RMK AO2 SLP330 T00171011=
200902010953 METAR KSEA 010953Z 15004KT 10SM BKN050 02/M01 A3049 RMK AO2 SLP334 T00171006=
200902010853 METAR KSEA 010853Z 13004KT 10SM FEW020 SCT050 02/M01 A3048 RMK AO2 SLP331 T00221006 58005=
200902010753 METAR KSEA 010753Z 00000KT 10SM FEW020 SCT044 02/M01 A3050 RMK AO2 SLP338 T00221006 400720011=
200902010653 METAR KSEA 010653Z 16003KT 10SM FEW020 BKN044 03/00 A3050 RMK AO2 SLP339 T00280000=
200902010553 METAR KSEA 010553Z 16003KT 10SM SCT023 BKN040 03/00 A3049 RMK AO2 SLP336 60001 T00330000 10067 20033 53014=
200902010542 SPECI KSEA 010542Z 00000KT 10SM FEW019 SCT023 BKN038 03/00 A3049 RMK AO2=
200902010542 SPECI KSEA 010542Z 00000KT 10SM FEW019 SCT023 BKN038 03/00 A3049 RMK AO2=
200902010523 SPECI KSEA 010523Z 15004KT 10SM FEW020 BKN027 BKN040 03/M01 A3048 RMK AO2=
200902010523 SPECI KSEA 010523Z 15004KT 10SM FEW020 BKN027 BKN040 03/M01 A3048 RMK AO2=
200902010453 METAR KSEA 010453Z 16004KT 10SM FEW024 BKN032 04/00 A3048 RMK AO2 RAE12 SLP330 P0001 T00390000=
200902010353 METAR KSEA 010353Z 00000KT 10SM -RA FEW025 BKN030 BKN050 05/01 A3046 RMK AO2 RAB52 SLP324 P0000 T00500011=
200902010345 SPECI KSEA 010345Z 00000KT 10SM SCT025 BKN030 04/01 A3046 RMK AO2=
200902010345 SPECI KSEA 010345Z 00000KT 10SM SCT025 BKN030 04/01 A3046 RMK AO2=
200902010253 METAR KSEA 010253Z 00000KT 10SM BKN026 04/00 A3045 RMK AO2 SLP322 T00440000 51007=
200902010236 SPECI KSEA 010236Z 15003KT 10SM BKN026 BKN033 04/M01 A3045 RMK AO2=
200902010236 SPECI KSEA 010236Z 15003KT 10SM BKN026 BKN033 04/M01 A3045 RMK AO2=
200902010153 METAR KSEA 010153Z 00000KT 10SM BKN040 05/M01 A3045 RMK AO2 SLP322 T00501011=
200902010053 METAR KSEA 010053Z 00000KT 10SM FEW039 SCT120 06/M01 A3045 RMK AO2 SLP321 T00611011=

# No short TAF reports from KSEA in databse.

###################################
#  large TAF from KSEA
###################################
200902282320 TAF KSEA 282320Z 0100/0206 04007KT P6SM SCT040 OVC070 FM010300
                       09008KT P6SM -RA OVC040
                      TEMPO 0106/0110 5SM RA BR OVC030 FM011600
                       14008KT P6SM VCSH BKN040 BKN080=
200902281725 TAF KSEA 281725Z 2818/0124 02007KT P6SM SCT050 OVC090
                      TEMPO 2821/0101 10014KT FM010100 14012KT
                       P6SM -RA OVC040 FM011000 VRB04KT P6SM VCSH
                       BKN030 BKN060=
200902281528 KSEA 281528Z 2815/0118 05010KT P6SM BKN100 BKN200 FM282200 10010KT
                       P6SM SCT050 BKN100 OVC150 FM010300 13012KT
                       P6SM -RA BKN030 OVC070=
200902281134 TAF KSEA 281134Z 2812/0118 11008KT P6SM FEW060 SCT250 FM281800
                       07007KT P6SM SCT120 BKN200 FM282200 10009KT
                       P6SM SCT050 BKN100 OVC150 FM010300 13009KT
                       P6SM -RA BKN030 OVC070=
200902280522 TAF KSEA 280522Z 2806/0112 11008KT P6SM OVC070 FM281500 07007KT
                       P6SM SCT050 BKN120 OVC200 FM282200 12010KT
                       P6SM BKN050 OVC100 FM010300 12010KT P6SM
                       -RA BKN030 OVC050=
200902272321 TAF KSEA 272321Z 2800/0106 VRB04KT P6SM SCT050 FM280500 04006KT
                       P6SM BKN050 FM281500 07007KT P6SM SCT050
                       BKN120 OVC200 FM282200 12010KT P6SM BKN050
                       OVC100=
200902271735 TAF KSEA 271735Z 2718/2824 VRB04KT P6SM FEW050=
200902271121 TAF KSEA 271121Z 2712/2818 08007KT P6SM OVC050 FM271900 13005KT
                       P6SM SCT050 FM272100 VRB05KT P6SM FEW050
                       FM280200 05004KT P6SM SCT060=
200902270537 TAF KSEA 270537Z 2706/2812 08007KT P6SM OVC050 FM271000 15004KT
                       P6SM OVC040 FM271800 13005KT P6SM FEW030
                       FM272100 11005KT P6SM SCT250 FM280200 VRB05KT
                       P6SM SCT250=
200902262329 TAF KSEA 262329Z 2700/2806 36004KT P6SM FEW025 BKN035 FM270600
                       15004KT P6SM BKN020 FM271600 11005KT P6SM
                       FEW030 FM280300 04005KT P6SM SCT250=
200902262140 KSEA 262140Z 2622/2724 36008KT P6SM FEW025 BKN035 FM270100 16005KT
                       P6SM SCT030 FM270400 16005KT P6SM BKN020
                       FM271800 04005KT P6SM FEW030=
200902262002 KSEA 262002Z 2620/2724 01009KT P6SM SCT050 SCT200
                      TEMPO 2620/2622 BKN030 BKN050 FM262200 VRB04KT
                       P6SM SCT040 FM270300 16005KT P6SM SCT030
                       FM271800 04005KT P6SM SKC=
200902261739 TAF KSEA 261739Z 2618/2724 32007KT P6SM BKN030 BKN060 FM262200
                       VRB04KT P6SM SCT040 FM270300 16005KT P6SM
                       SCT030 FM271800 04005KT P6SM SKC=
200902261602 KSEA 261602Z 2616/2718 31009G15KT P6SM -SN FEW009 BKN018 BKN025
                       FM261800 33010KT P6SM BKN035 FM270200 VRB05KT
                       P6SM BKN030 FM270900 15006KT P6SM BKN030=
200902261312 KSEA 261312Z 2613/2718 25008KT 1/2SM SN FG BKN006 BKN015 OVC027
                       FM261400 21006KT P6SM VCSH SCT015 BKN070
                       TEMPO 2614/2616 4SM -SHSN BKN009 FM261800
                       33010KT P6SM BKN035 FM270200 VRB05KT P6SM
                       BKN030 FM270900 15006KT P6SM BKN030=
200902261139 TAF KSEA 261139Z 2612/2718 21006KT P6SM VCSH SCT015 BKN070
                      TEMPO 2612/2616 4SM -SHSN BKN009 FM261800
                       33010KT P6SM BKN035 FM270200 VRB05KT P6SM
                       BKN030 FM270900 15006KT P6SM BKN030=
200902260817 KSEA 260817Z 2608/2712 23010KT P6SM SCT010 SCT025 OVC030
                      TEMPO 2608/2610 1SM -SHSN BKN006 BKN015 FM261000
                       19006KT P6SM -SHSN BKN013 BKN030 FM261600
                       29007KT P6SM VCSH SCT018 BKN040 FM262100
                       32008KT P6SM SCT023 BKN045 FM270200 VRB05KT
                       P6SM OVC035=
200902260535 TAF KSEA 260535Z 2606/2712 22010KT P6SM SCT050 OVC100
                      TEMPO 2606/2610 -SHRASN SCT015 BKN025 FM261000
                       19006KT P6SM -SHRASN BKN013 BKN030
                      TEMPO 2610/2614 -SHSN FM261600 29007KT P6SM
                       VCSH SCT018 BKN040 FM262100 32008KT P6SM
                       SCT023 BKN045 FM270200 VRB05KT P6SM OVC035=
200902252350 TAF KSEA 252350Z 2600/2706 23012G21KT P6SM SCT012 BKN026 OVC035
                       TEMPO 2600/2602 -SHRA BKN007 OVC014 FM260200
                       21010KT P6SM SCT010 BKN035
                      TEMPO 2602/2606 5SM -SHRASN BKN010 OVC028
                       FM260600 19006KT P6SM BKN014 OVC030
                      TEMPO 2606/2610 -SHRASN FM261000 19006KT
                       P6SM BKN013 BKN035
                      PROB30 2610/2616 -SHSN FM261600 29007KT P6SM
                       SCT018 BKN040
                      PROB30 2616/2621 -SHRASN FM262100 32008KT
                       P6SM SCT023 BKN045=
200902252145 KSEA 252145Z 2522/2624 20011KT P6SM -RA SCT007 OVC014
                      TEMPO 2522/2602 BKN007 OVC014 FM260400 18008KT
                       P6SM SCT020 BKN030 FM261000 VRB04KT P6SM
                       SCT030 BKN045
                      PROB30 2610/2616 -SHRASN FM261600 34004KT
                       P6SM SCT015 BKN035
                      PROB30 2616/2622 -SHRASN=
200902251739 TAF KSEA 251739Z 2518/2624 19015G23KT P6SM SCT014 BKN028 BKN060
                       TEMPO 2518/2522 6SM -RA BKN014 OVC028 FM252200
                       20012KT P6SM -SHRA SCT015 BKN025 OVC040
                       FM260400 18008KT P6SM SCT020 BKN035
                      PROB30 2604/2610 -SHRA FM261000 VRB04KT P6SM
                       SCT030 BKN045
                      PROB30 2610/2616 -SHRASN FM261600 34004KT
                       P6SM SCT015 BKN035
                      PROB30 2616/2622 -SHRASN=
200902251141 TAF KSEA 251141Z 2512/2618 20012KT P6SM -SHRA SCT008 SCT018 OVC028
                       TEMPO 2512/2516 SCT008 BKN018 OVC028 FM251800
                       20012KT P6SM -RA SCT008 BKN015 OVC025
                      TEMPO 2518/2521 5SM -RA FM252100 20010KT
                       P6SM -SHRA SCT015 BKN025 OVC040 FM260400
                       VRB04KT P6SM SCT020 BKN035 FM261400 VRB04KT
                       P6SM SCT030 BKN060=
200902250540 TAF KSEA 250540Z 2506/2612 20010KT P6SM -SHRA SCT015 BKN035 OVC050
                       TEMPO 2509/2513 BKN015 OVC035 FM251300 20010KT
                       P6SM SCT008 BKN015 OVC025
                      TEMPO 2516/2520 -RA FM252000 20010KT P6SM
                       -SHRA SCT015 BKN025 OVC040 FM260400 16006KT
                       P6SM SCT020 BKN035=
200902242325 TAF KSEA 242325Z 2500/2606 22010G20KT P6SM VCSH SCT024 BKN080
                      TEMPO 2500/2504 -SHRA OVC020 FM250400 20011KT
                       P6SM VCSH OVC015 FM252000 21011KT P6SM -SHRA
                       OVC025=
200902241742 TAF KSEA 241742Z 2418/2524 19012G17KT P6SM -RA SCT010 OVC015
                      TEMPO 2418/2422 2SM -RA BR OVC010 FM242200
                       20013G20KT P6SM -SHRA OVC020 FM251200 19008KT
                       P6SM VCSH OVC015=
200902241139 TAF KSEA 241139Z 2412/2518 19012KT P6SM -RA BKN035 OVC050 FM241400
                       19012G20KT P6SM -SHRA BKN022 OVC040 FM242300
                       19012KT P6SM SCT025 BKN035 BKN050 FM250500
                       19012KT P6SM SCT015 BKN025 OVC040 FM251500
                       14006KT P6SM SCT025 BKN040=
200902240548 TAF KSEA 240548Z 2406/2512 20006KT P6SM SCT060 OVC100 FM240800
                       20006KT P6SM -RA SCT035 OVC050 FM241400
                       20010KT P6SM SCT015 BKN025 OVC040 FM242200
                       20010KT P6SM SCT025 BKN040 BKN060=
200902232327 TAF KSEA 232327Z 2400/2506 29004KT P6SM -RA BKN045 OVC070 FM240200
                       17008KT P6SM -RA OVC045 FM241100 20009KT
                       P6SM -RA OVC025 FM242000 21011KT P6SM -SHRA
                       OVC025=
200902231744 TAF KSEA 231744Z 2318/2424 05004KT P6SM SCT070 BKN250 FM232100
                       17006KT P6SM OVC100 FM232300 16006KT P6SM
                       -RA OVC050 FM241500 19008KT P6SM -RA OVC015=
200902231138 TAF KSEA 231138Z 2312/2418 12008KT P6SM BKN050 OVC100 FM231700
                       12008KT P6SM SCT050 BKN100 FM232300 12008KT
                       P6SM -RA OVC040 FM240800 15008KT P6SM -RA
                       SCT015 BKN025 OVC040=
200902230539 TAF KSEA 230539Z 2306/2412 12008KT P6SM VCSH BKN050 OVC100 FM232300
                       12008KT P6SM -RA OVC040 FM240800 15008KT
                       P6SM -RA OVC030=
200902222320 TAF KSEA 222320Z 2300/2406 VRB05KT P6SM -SHRA BKN040 OVC080 FM231200
                       12006KT P6SM VCSH BKN050 OVC100 FM231800
                       12008KT P6SM -RA OVC040
                      TEMPO 2320/2324 4SM RA BR OVC030=
200902221720 TAF KSEA 221720Z 2218/2324 14008KT P6SM VCSH BKN050 OVC100
                      TEMPO 2220/2224 SCT050 BKN100 FM230300 18008KT
                       P6SM -RA BKN040 OVC080=
200902221120 TAF KSEA 221120Z 2212/2318 05007KT P6SM VCSH BKN120 OVC200 FM221800
                       12005KT P6SM -RA OVC045 FM230500 17006KT
                       P6SM VCSH SCT045 OVC090=
200902220533 TAF KSEA 220533Z 2206/2312 13003KT P6SM BKN090 OVC120 FM220900
                       11008KT P6SM VCSH OVC090 FM221200 13010KT
                       P6SM VCSH SCT035 OVC050 FM221800 12005KT
                       P6SM -RA SCT030 OVC045 FM230500 17006KT
                       P6SM VCSH SCT045 OVC090=
200902212338 TAF KSEA 212338Z 2200/2306 35007KT P6SM SCT120 BKN200 FM220400
                       09009KT P6SM SCT080 BKN150 FM220800 11008KT
                       P6SM SCT050 BKN090 FM221200 13010KT P6SM
                       VCSH SCT035 OVC050
                      TEMPO 2214/2218 -RA FM221800 12005KT P6SM
                       -RA SCT030 OVC045 FM230300 17006KT P6SM
                       -RA SCT020 BKN035=
200902211740 TAF KSEA 211740Z 2118/2224 03008KT P6SM SCT120 BKN200 FM220400
                       09008KT P6SM SCT080 BKN150 FM220800 11008KT
                       P6SM VCSH SCT045 BKN090 FM221200 13010KT
                       P6SM VCSH SCT035 OVC050
                      TEMPO 2214/2218 -RA=
200902211559 KSEA 211559Z 2116/2218 03008KT P6SM SCT120 BKN200 FM220400 10008KT
                       P6SM VCSH BKN080 OVC120 FM221100 13008KT
                       P6SM VCSH OVC070 FM221500 14010KT P6SM VCSH
                       OVC040=
200902211415 KSEA 211415Z 2114/2218 01004KT P6SM VCFG SCT200
                      TEMPO 2114/2116 4SM BR FM211600 01004KT 4SM
                       BR FEW001 SCT200
                      TEMPO 2116/2118 3/4SM BR FM211900 01006KT
                       P6SM BKN200 FM220000 02006KT P6SM BKN120
                       FM220400 05009KT P6SM VCSH BKN080 OVC120
                       FM221100 VRB03KT P6SM VCSH OVC070 FM221500
                       09005KT P6SM VCSH OVC040=
200902211120 TAF KSEA 211120Z 2112/2218 03004KT P6SM VCFG SCT200 FM211400 03004KT
                       3SM BR SCT002 SCT200
                      TEMPO 2114/2117 3/4SM BR BKN002 FM211800
                       03005KT 3SM BR SCT002 FM211900 01006KT P6SM
                       BKN200 FM220000 02006KT P6SM BKN120 FM220400
                       05009KT P6SM VCSH BKN080 OVC120 FM221100
                       VRB03KT P6SM VCSH OVC070 FM221500 09005KT
                       P6SM VCSH OVC040=
200902210520 TAF KSEA 210520Z 2106/2212 02004KT P6SM SCT250 FM211200 03004KT
                       P6SM VCFG SCT250 FM211400 03004KT 1/2SM
                       FG VV001 FM211800 03005KT 3SM BR SCT002
                       FM211900 01006KT P6SM BKN200 FM220000 02006KT
                       P6SM BKN120 FM220400 05009KT P6SM VCSH SCT040
                       BKN080 FM221100 VRB03KT P6SM VCSH OVC040=
200902202326 TAF KSEA 202326Z 2100/2206 35004KT P6SM SCT250 FM211200 03004KT
                       P6SM VCFG SCT250 FM211400 05004KT 1/2SM
                       FG VV001 FM211800 03005KT 3SM BR SCT002
                       FM211900 01006KT P6SM BKN200 FM220000 10008KT
                       P6SM BKN120 FM220400 11009KT P6SM VCSH SCT040
                       BKN080=
200902201731 TAF KSEA 201731Z 2018/2124 04004KT 1 1/2SM BR SCT002 FM201900 35005KT
                       P6SM SCT250 FM211200 03004KT P6SM VCFG SCT250
                       FM211400 05004KT 1/2SM FG VV001 FM211800
                       03005KT 3SM BR SCT002 FM211900 01006KT P6SM
                       BKN200=
200902201406 KSEA 201406Z 2014/2118 00000KT 2SM BR FEW002 FEW110 BKN200
                      TEMPO 2014/2017 1/2SM FG VV002 FM201800 02005KT
                       P6SM SCT250 FM211200 03004KT P6SM VCFG SCT250=
200902201318 KSEA 201318Z 2013/2118 00000KT 6SM BR FEW110 BKN200
                      TEMPO 2013/2017 3SM BR FEW001 FEW110 BKN200
                       FM201700 02005KT P6SM SCT250 FM211200 03004KT
                       P6SM VCFG SCT250=
200902201120 TAF KSEA 201120Z 2012/2118 00000KT P6SM VCFG SKC
                      TEMPO 2013/2017 3SM BR SCT002 FM201700 02005KT
                       P6SM SCT250 FM211200 03004KT P6SM VCFG SCT250=
200902200539 TAF KSEA 200539Z 2006/2112 01009KT P6SM SKC FM201200 00000KT P6SM
                       VCFG SKC FM201700 32005KT P6SM SCT250=
200902192323 TAF KSEA 192323Z 2000/2106 35008KT P6SM SCT120 BKN250 FM201200
                       00000KT P6SM SCT005 BKN250 FM201700 32005KT
                       P6SM SCT120 BKN250=
200902191723 TAF KSEA 191723Z 1918/2024 35008KT P6SM SCT120 BKN250 FM201200
                       00000KT P6SM VCFG SCT003 BKN250 FM201700
                       32005KT P6SM SCT120 BKN250=
200902191127 TAF KSEA 191127Z 1912/2018 00000KT P6SM VCFG SCT250 FM191800 35005KT
                       P6SM BKN250 FM201200 00000KT P6SM VCFG BKN250=
200902190524 TAF KSEA 190524Z 1906/2012 02008KT P6SM SKC FM191200 VRB03KT P6SM
                       VCFG SCT005 FM191800 35005KT P6SM BKN250=
200902182323 TAF KSEA 182323Z 1900/2006 VRB03KT P6SM SCT030 SCT250 FM190200
                       04005KT P6SM SCT250 FM191200 VRB03KT P6SM
                       SCT005 BKN035 FM191800 35005KT P6SM SCT030
                       BKN250=
200902181733 TAF KSEA 181733Z 1818/1924 00000KT 6SM BR SCT001 BKN045 FM182000
                       15005KT P6SM SCT250 FM182300 04005KT P6SM
                       SCT250 FM191200 VRB03KT P6SM SCT005 BKN035=
200902181450 KSEA 181450Z 1815/1918 00000KT 5SM BR SCT001 BKN045
                      TEMPO 1815/1817 1SM BR BKN001 OVC045 FM181800
                       15005KT P6SM SCT250 FM190000 04005KT P6SM
                       SCT250=
200902181122 TAF KSEA 181122Z 1812/1918 09004KT P6SM VCFG SCT250 FM181800 15005KT
                       P6SM SCT250 FM190000 04005KT P6SM SCT250=
200902180533 TAF KSEA 180533Z 1806/1912 15003KT P6SM SCT035 SCT250 FM181200
                       00000KT P6SM VCFG SCT250 FM181800 15005KT
                       P6SM BKN250 FM190000 04005KT P6SM SCT100
                       BKN250=
200902172339 TAF KSEA 172339Z 1800/1906 15005KT P6SM SCT035 BKN060 OVC100
                      TEMPO 1800/1802 BKN035 OVC060 FM180200 VRB03KT
                       P6SM SCT120 BKN250 FM181600 15005KT P6SM
                       SCT060 BKN120 BKN250 FM190000 04005KT P6SM
                       SCT100 BKN250=
200902172139 KSEA 172139Z 1722/1824 15005KT P6SM SCT035 BKN060 OVC100
                      TEMPO 1722/1802 BKN035 OVC060 FM180200 VRB03KT
                       P6SM SCT120 BKN250 FM181600 15005KT P6SM
                       SCT060 BKN120 BKN250=
200902171737 TAF KSEA 171737Z 1718/1824 15005KT P6SM BKN060 OVC100 FM172200
                       14006KT P6SM SCT060 BKN120 BKN250 FM180200
                       VRB03KT P6SM SCT120 BKN250 FM181600 15005KT
                       P6SM SCT060 BKN120 BKN250=
200902171122 TAF KSEA 171122Z 1712/1818 02006KT P6SM BKN070 OVC100 FM171700
                       VRB03KT P6SM SCT100 BKN250 FM172200 14006KT
                       P6SM SCT120 SCT250 FM180200 VRB03KT P6SM
                       SCT250=
200902170557 TAF KSEA 170557Z 1706/1812 02008KT P6SM OVC100 FM170900 05006KT
                       P6SM SCT010 BKN100 BKN200 FM171700 10005KT
                       P6SM SCT100 BKN250 FM172200 27006KT P6SM
                       SCT120 SCT250 FM180200 VRB03KT P6SM SCT250=
200902162322 TAF KSEA 162322Z 1700/1806 35013KT P6SM FEW050 SCT200 FM170300
                       02009KT P6SM BKN200 FM170900 05006KT P6SM
                       SCT010 BKN100 BKN200 FM171700 10005KT P6SM
                       SCT100 BKN250 FM172200 27006KT P6SM SCT120
                       SCT250 FM180200 VRB03KT P6SM SCT250=
200902161739 TAF KSEA 161739Z 1618/1724 02012KT P6SM SCT005
                      TEMPO 1618/1619 BKN005 FM162000 02012KT P6SM
                       SCT011 SCT200 FM170200 02008KT P6SM BKN200
                       FM170900 05006KT P6SM BKN080 OVC200 FM171700
                       10005KT P6SM SCT100 BKN250=
200902161649 KSEA 161649Z 1617/1718 01010KT 3SM BR SCT003
                      TEMPO 1617/1618 1/2SM FG OVC001 FM161800
                       02010KT P6SM BKN008 FM161900 02010KT P6SM
                       SCT010 SCT200 FM170000 02008KT P6SM BKN200
                       FM171200 05006KT P6SM SCT080 BKN200=
200902161437 KSEA 161437Z 1615/1718 01010KT 3SM BR SCT003
                      TEMPO 1615/1617 1/2SM FG OVC001 FM161800
                       02010KT P6SM BKN011 BKN050 FM162000 02010KT
                       P6SM SCT050 SCT200 FM170000 02008KT P6SM
                       BKN200 FM171200 05006KT P6SM SCT080 BKN200=
200902161144 TAF KSEA 161144Z 1612/1718 02010KT P6SM VCFG SCT006 SCT070
                      TEMPO 1612/1614 SCT006 BKN070 FM161400 02010KT
                       P6SM VCFG BKN006 BKN050 FM161800 02010KT
                       P6SM BKN011 BKN050 FM162000 02010KT P6SM
                       SCT050 SCT200 FM170000 02008KT P6SM BKN200
                       FM171200 05006KT P6SM SCT080 BKN200=
200902160540 TAF KSEA 160540Z 1606/1712 02008KT P6SM SCT035 BKN070 OVC150
                      TEMPO 1606/1608 BKN035 OVC070 FM160800 02008KT
                       P6SM SCT070 SCT150
                      TEMPO 1608/1610 BKN070 BKN150 FM161000 02008KT
                       P6SM VCFG SCT200 FM161900 36008KT P6SM SCT090
                       BKN200 FM170300 03006KT P6SM SCT200=
200902160509 KSEA 160509Z 1605/1706 02008KT P6SM SCT035 BKN070 OVC150
                      TEMPO 1605/1607 BKN035 OVC070 FM160700 03006KT
                       P6SM SCT090 SCT250 FM161900 03006KT P6SM
                       SCT250=
200902160308 KSEA 160308Z 1603/1706 02008KT P6SM -RA BKN035 OVC070 FM160500
                       02008KT P6SM SCT035 OVC070
                      TEMPO 1605/1607 -RA FM160700 03006KT P6SM
                       SCT090 SCT250 FM161900 03006KT P6SM SCT250=
200902152325 TAF KSEA 152325Z 1600/1706 14005KT P6SM -RA OVC025
                      TEMPO 1602/1604 NSW SCT030 OVC080 FM160400
                       VRB03KT P6SM SCT035 BKN090 FM160700 03006KT
                       P6SM SCT090 SCT250 FM161900 03006KT P6SM
                       SCT250=
200902152212 KSEA 152212Z 1522/1624 02006KT P6SM SCT030 OVC080
                      TEMPO 1522/1601 -RA BKN030 OVC080 FM160100
                       03006KT P6SM SCT035 BKN090 OVC200 FM160600
                       02010KT P6SM SCT090 BKN200 FM161200 02010KT
                       P6SM SCT200 FM161900 03006KT P6SM SCT250=
200902151720 TAF KSEA 151720Z 1518/1624 02013KT P6SM BKN200 FM152100 02013G18KT
                       P6SM SCT060 BKN090 OVC200 FM160600 02010KT
                       P6SM SCT090 BKN200 FM161200 02010KT P6SM
                       SCT200 FM161900 03006KT P6SM SCT250=
200902151123 TAF KSEA 151123Z 1512/1618 02010KT P6SM SCT200 FM151500 02013KT
                       P6SM FEW090 BKN200 FM152100 02013KT P6SM
                       SCT060 BKN090 OVC200
                      PROB30 1522/1603 -RA FM160600 02010KT P6SM
                       SCT090 BKN200 FM161200 02010KT P6SM SCT200=
200902150806 KSEA 150806Z 1508/1612 04008KT P6SM BKN200 FM151500 02013KT P6SM
                       FEW090 BKN200 FM152100 02013KT P6SM SCT060
                       BKN090 OVC200
                      PROB30 1522/1603 -RA FM160600 02010KT P6SM
                       SCT090 BKN200=
200902150539 TAF KSEA 150539Z 1506/1612 VRB03KT P6SM SCT200 FM150900 02006KT
                       P6SM SCT200 FM151500 02013KT P6SM FEW090
                       BKN200 FM152100 02013KT P6SM SCT060 BKN090
                       OVC200
                      PROB30 1522/1603 -RA FM160600 02010KT P6SM
                       SCT090 BKN200=
200902150313 KSEA 150313Z 1503/1606 VRB03KT P6SM SCT050 SCT200 FM150800 02006KT
                       P6SM SCT110 SCT200 FM151500 03009KT P6SM
                       SCT250 FM152000 02009KT P6SM SCT090 OVC180
                       FM152300 04008KT P6SM SCT045 BKN080 OVC120
                       PROB30 1602/1606 -RA=
200902142333 TAF KSEA 142333Z 1500/1606 29005KT P6SM FEW030 SCT050 BKN090
                      TEMPO 1500/1503 BKN050 BKN090 BKN250 FM150800
                       02006KT P6SM SCT110 SCT200 FM151500 03009KT
                       P6SM SCT250 FM152000 02009KT P6SM SCT090
                       OVC180 FM152300 04008KT P6SM SCT045 BKN080
                       OVC120
                      PROB30 1523/1606 -RA=
200902141721 TAF KSEA 141721Z 1418/1524 00000KT P6SM BKN070 BKN100 BKN200 FM142300
                       03006KT P6SM SCT100 BKN200 FM150800 02009KT
                       P6SM SCT110 BKN200 FM151500 03009KT P6SM
                       SCT250 FM152100 02009KT P6SM SCT009 OVC180=
200902141120 TAF KSEA 141120Z 1412/1518 02010KT P6SM SCT070 BKN110 OVC200 FM141800
                       36007KT P6SM SCT070 SCT110 BKN200 FM150600
                       02010KT P6SM SCT110 BKN200=
200902140529 TAF KSEA 140529Z 1406/1512 02010KT P6SM SCT070 OVC110 FM140700
                       02010KT P6SM BKN070 OVC110 FM141400 02007KT
                       P6SM SCT070 BKN110 OVC200 FM150600 02010KT
                       P6SM SCT110 BKN200=
200902132332 TAF KSEA 132332Z 1400/1506 02010KT P6SM SCT060 SCT110 BKN250 FM141200
                       05006KT P6SM SCT030 BKN060 OVC110 FM150000
                       05005KT P6SM SCT060 BKN250=
200902131726 TAF KSEA 131726Z 1318/1424 02010KT P6SM SCT060 SCT110 BKN200 FM140600
                       05008KT P6SM SCT060 SCT110 BKN200 FM141200
                       05006KT P6SM SCT030 BKN060 OVC110=
200902131126 TAF KSEA 131126Z 1312/1418 02008KT P6SM SCT060 SCT110 BKN200 FM140600
                       05008KT P6SM FEW110 BKN200=
200902130807 KSEA 130807Z 1308/1412 06010KT P6SM SCT060 SCT110 BKN200
                      TEMPO 1308/1312 06010G20KT FM131200 04010KT
                       P6SM SCT060 BKN110 BKN200 FM132100 01010KT
                       P6SM SCT060 SCT110 BKN200 FM140600 04010KT
                       P6SM SCT060 BKN110 BKN200=
200902130718 KSEA 130718Z 1307/1412 07010G20KT P6SM SCT060 SCT110 BKN200 FM131200
                       04010KT P6SM SCT060 BKN110 BKN200 FM132100
                       01010KT P6SM SCT060 SCT110 BKN200 FM140600
                       04010KT P6SM SCT060 BKN110 BKN200=
200902130540 TAF KSEA 130540Z 1306/1412 07010KT P6SM SCT060 SCT110 BKN200 FM131200
                       04010KT P6SM SCT060 BKN110 BKN200 FM132100
                       01010KT P6SM SCT060 SCT110 BKN200 FM140600
                       04010KT P6SM SCT060 BKN110 BKN200=
200902130240 KSEA 130240Z 1303/1406 09009KT P6SM SCT060 SCT110 BKN200 FM130900
                       04009KT P6SM SCT060 BKN110 OVC200 FM131800
                       03007KT P6SM SCT110 BKN200=
200902122346 TAF KSEA 122346Z 1300/1406 05006KT P6SM SCT060 OVC110 FM130900
                       04009KT P6SM SCT060 BKN110 OVC200 FM131800
                       03007KT P6SM SCT110 BKN200=
200902121729 TAF KSEA 121729Z 1218/1324 12006KT P6SM SCT010 BKN035 BKN200 FM121900
                       12006KT P6SM SCT040 BKN110 OVC200
                      TEMPO 1219/1220 BKN040 OVC110 FM130000 07006KT
                       P6SM SCT060 OVC110 FM130900 04009KT P6SM
                       SCT060 BKN110 OVC200 FM131800 03007KT P6SM
                       SCT110 BKN200=
200902121617 KSEA 121617Z 1216/1318 12006KT P6SM SCT010 BKN030 BKN200 FM121800
                       12006KT P6SM SCT040 BKN110 OVC200
                      TEMPO 1218/1220 BKN040 OVC110 FM130000 07006KT
                       P6SM SCT060 OVC110 FM130900 04009KT P6SM
                       SCT060 BKN110 OVC200=
200902121139 TAF KSEA 121139Z 1212/1318 12006KT P6SM BKN030 BKN200 FM121600
                       12006KT P6SM BKN040 OVC200 FM121800 12006KT
                       P6SM SCT040 BKN110 OVC200
                      TEMPO 1218/1220 BKN040 OVC110 FM130000 07006KT
                       P6SM SCT060 OVC110 FM130900 04009KT P6SM
                       SCT060 BKN110 OVC200=
200902120825 KSEA 120825Z 1208/1312 VRB03KT P6SM SCT025 SCT200
                      TEMPO 1208/1212 BKN025 BKN200 FM121200 VRB03KT
                       P6SM BKN025 BKN200 FM121800 12006KT P6SM
                       SCT035 OVC110 FM130000 07006KT P6SM SCT060
                       OVC110 FM130900 04009KT P6SM BKN110 BKN200=
200902120536 TAF KSEA 120536Z 1206/1312 VRB03KT P6SM FEW035 SCT200 FM120900
                       VRB03KT P6SM SCT035 SCT200
                      TEMPO 1209/1212 BKN035 BKN200 FM121200 VRB03KT
                       P6SM BKN035 BKN200 FM121800 12006KT P6SM
                       SCT035 OVC110 FM130000 07006KT P6SM SCT060
                       OVC110 FM130900 04009KT P6SM BKN110 BKN200=
200902112331 TAF KSEA 112331Z 1200/1306 02010KT P6SM SCT030 BKN250 FM120400
                       VRB03KT P6SM SCT030 BKN250 FM121100 14003KT
                       5SM BR SCT012 BKN250 FM121800 14007KT P6SM
                       SCT030 BKN050 OVC080 FM122200 17007KT P6SM
                       -RA BKN030 OVC060 FM130400 12005KT P6SM
                       -RA BKN025 OVC040=
200902112011 KSEA 112011Z 1120/1224 02012KT P6SM SCT020 BKN250 FM112300 36006KT
                       P6SM SCT040 SCT250 FM120400 VRB05KT P6SM
                       BKN070 BKN120 FM121100 14007KT P6SM BKN050
                       OVC100=
200902111726 TAF KSEA 111726Z 1118/1224 02007KT P6SM SCT005 FM111900 02008KT
                       P6SM SCT040 SCT120 BKN250
                      TEMPO 1120/1123 BKN035 OVC050 FM112300 36006KT
                       P6SM SCT040 SCT250 FM120400 VRB05KT P6SM
                       BKN070 BKN120 FM121100 14007KT P6SM BKN050
                       OVC100=
200902111624 KSEA 111624Z 1116/1218 02006KT P6SM SCT005 FM111800 02008KT P6SM
                       SCT050 SCT120 BKN250 FM112100 36006KT P6SM
                       SCT040 SCT250 FM120400 VRB05KT P6SM BKN070
                       BKN120 FM121100 14007KT P6SM BKN050 OVC100=
200902111123 TAF KSEA 111123Z 1112/1218 03005KT P6SM SCT025 BKN050 FM111600
                       02006KT P6SM SCT030 BKN060 FM112100 36006KT
                       P6SM SCT040 BKN080 FM120400 VRB05KT P6SM
                       BKN070 BKN120 FM121100 14007KT P6SM BKN050
                       OVC100=
200902110538 TAF KSEA 110538Z 1106/1212 10009KT P6SM SCT017 BKN045
                      TEMPO 1106/1110 -RASN BKN015 OVC022 FM111200
                       08007KT P6SM BKN014 BKN022 FM111600 05006KT
                       P6SM SCT014 BKN025
                      TEMPO 1116/1119 SCT020 BKN040 FM111900 03006KT
                       P6SM SCT020 BKN050 FM120300 36006KT P6SM
                       BKN070=
200902110042 KSEA 110042Z 1101/1206 11008KT P6SM -RASN SCT008 OVC018
                      TEMPO 1101/1103 4SM -RASN BR BKN008 OVC020
                       FM110300 11007KT P6SM SCT009 OVC022
                      TEMPO 1103/1105 3SM -RASN BR BKN009 OVC018
                       FM110600 11007KT P6SM SCT010 OVC020 FM111200
                       06004KT P6SM BKN007 OVC015 FM111600 03005KT
                       P6SM BKN012 OVC020 FM111900 01005KT P6SM
                       SCT020 BKN040 FM112200 36007KT P6SM BKN070=
200902102344 TAF KSEA 102344Z 1100/1206 11008KT 3SM -SN BR BKN008 OVC015
                      TEMPO 1100/1102 1 1/2SM -SN BR SCT008 OVC015
                       FM110200 11007KT 5SM BR SCT009 OVC018
                      TEMPO 1102/1105 3SM -SN BR BKN009 OVC018
                       FM110600 11007KT P6SM SCT010 OVC020 FM111200
                       06004KT P6SM BKN007 OVC015 FM111600 03005KT
                       P6SM BKN012 OVC020 FM111900 01005KT P6SM
                       SCT020 BKN040 FM112200 36007KT P6SM BKN070=
200902101758 TAF KSEA 101758Z 1018/1124 13009KT P6SM -SN SCT014 OVC030 FM102000
                       13010KT 3SM -SN BR SCT007 OVC014
                      TEMPO 1020/1024 3/4SM -SN BR BKN006 OVC010
                       FM110000 12009KT 3SM -SN BR BKN006 OVC010
                       FM110400 12007KT P6SM BKN010 OVC020
                      TEMPO 1104/1107 -SN FM110700 12005KT P6SM
                       SCT012 OVC025 FM111200 04004KT P6SM OVC015
                       FM111800 01005KT P6SM SCT015 BKN040=
200902101128 TAF KSEA 101128Z 1012/1118 15006KT P6SM SCT018 BKN035
                      TEMPO 1014/1016 6SM -SN BKN017 OVC025 FM101600
                       15009KT 5SM -SN BR SCT014 OVC027
                      TEMPO 1016/1018 3SM -SN BR BKN009 OVC022
                       FM101800 13010KT P6SM -RASN BKN018 OVC030
                       FM110400 12009KT P6SM -SHRA BKN027 OVC050
                       FM111100 09006KT P6SM VCSH BKN030 BKN050=
200902101024 KSEA 101024Z 1010/1112 18008KT P6SM SCT018 BKN025
                      TEMPO 1010/1014 BKN014 OVC022 FM101400 15009KT
                       P6SM -RASN SCT014 OVC022
                      TEMPO 1014/1018 2SM -SN BR BKN009 OVC025
                       FM101900 13010KT P6SM -RA BKN020 OVC040
                       FM110400 12009KT P6SM -SHRA BKN027 OVC050=
200902100540 TAF KSEA 100540Z 1006/1112 18008KT P6SM VCSH SCT025 BKN045
                      TEMPO 1006/1010 BKN018 OVC040 FM101000 18005KT
                       P6SM SCT022 BKN035 FM101400 14009KT P6SM
                       -RASN SCT018 OVC030
                      TEMPO 1014/1018 2SM -SN BR BKN012 OVC025
                       FM101900 13010KT P6SM -RA BKN020 OVC040
                       FM110400 12009KT P6SM -SHRA BKN027 OVC050=
200902100400 KSEA 100400Z 1004/1106 18008KT P6SM VCSH SCT035 BKN070
                      TEMPO 1004/1007 BKN025 BKN070 FM100700 18005KT
                       P6SM SCT025 BKN040 FM101200 17005KT P6SM
                       BKN050 OVC100 FM101400 15005KT P6SM -RASN
                       OVC040 FM101800 14007KT P6SM -RA SCT030
                       OVC045=
200902092348 TAF KSEA 092348Z 1000/1106 24006KT P6SM VCSH SCT035 BKN070
                      TEMPO 1000/1002 BKN025 BKN070 FM100400 18005KT
                       P6SM SCT030 BKN070 FM101200 17005KT P6SM
                       BKN050 OVC100 FM101400 15005KT P6SM -RASN
                       OVC040 FM101800 14007KT P6SM -RA SCT030
                       OVC045=
200902092119 KSEA 092119Z 0921/1024 22006KT P6SM VCSH BKN025 BKN070
                      TEMPO 0921/1001 SCT025 BKN070 FM100100 18005KT
                       P6SM SCT030 BKN070 FM101000 17005KT P6SM
                       BKN020 OVC150 FM101700 15005KT P6SM -RA
                       OVC050=
200902092055 KSEA 092055Z 0921/1024 21006KT P6SM VCSH BKN020 BKN045 FM092200
                       22006KT P6SM -SHRA BKN025CB BKN050 FM100300
                       18005KT P6SM BKN030 BKN050 FM101000 17005KT
                       P6SM BKN020 OVC150 FM101700 15005KT P6SM
                       -RA OVC050=
200902091747 TAF KSEA 091747Z 0918/1024 20006KT P6SM BKN020 BKN045
                      TEMPO 0918/0920 BKN012 BKN020 BKN045 FM092000
                       22006KT P6SM VCSH SCT025CB BKN050 FM092200
                       22006KT P6SM -SHRA BKN030CB BKN050 FM100300
                       18005KT P6SM BKN030 BKN050 FM101000 17005KT
                       P6SM BKN020 OVC150 FM101700 15005KT P6SM
                       -RA OVC050=
200902091214 KSEA 091214Z 0912/1018 20008KT P6SM VCSH SCT007 BKN022 OVC035
                      TEMPO 0912/0916 VRB06KT 2SM -SN BR BKN008
                       OVC030 FM091600 20006KT P6SM -SHRA BKN025
                       OVC040 FM092100 23008KT P6SM VCSH SCT025
                       BKN040 FM100500 18005KT P6SM SCT025 BKN050
                       FM101000 14007KT P6SM BKN030 BKN060=
200902091138 KSEA 091138Z 0912/1018 20012KT P6SM BKN022 OVC035
                      TEMPO 0912/0916 5SM -SHRASN BR BKN015 OVC030
                       FM091600 20006KT P6SM -SHRA BKN025 OVC040
                       FM092100 23008KT P6SM VCSH SCT025 BKN040
                       FM100500 18005KT P6SM SCT025 BKN050 FM101000
                       14007KT P6SM BKN030 BKN060=
200902091126 TAF KSEA 091126Z 0912/1018 20012KT P6SM BKN022 OVC035
                      TEMPO 0912/0916 5SM -SHRA BR BKN015 OVC030
                       FM091600 20006KT P6SM -SHRA BKN025 OVC040
                       FM092100 23008KT P6SM VCSH SCT025 BKN040
                       FM100500 18005KT P6SM SCT025 BKN050 FM101000
                       14007KT P6SM BKN030 BKN060=
200902090527 TAF KSEA 090527Z 0906/1012 22009KT P6SM VCSH SCT025 OVC035
                      TEMPO 0906/0910 -SHRA BKN022 OVC030 FM091000
                       21006KT 6SM -SHRA BR BKN020 OVC030 FM091600
                       20006KT P6SM -SHRA BKN025 OVC040 FM092100
                       24008KT P6SM VCSH SCT025 BKN035 FM100500
                       18005KT P6SM SCT025 BKN045=
200902082331 TAF KSEA 082331Z 0900/1006 17008KT P6SM BKN060 OVC100 FM090500
                       22009KT P6SM -RA BKN020 OVC035 FM091100
                       21004KT 4SM -SHRA BKN015 OVC025 FM091600
                       21006KT P6SM -SHRA BKN025 OVC040 FM092100
                       21006KT P6SM VCSH SCT025 BKN035=
200902081738 TAF KSEA 081738Z 0818/0924 19004KT 2SM BR OVC001 FM081930 VRB04KT
                       5SM BR SCT005 BKN090 OVC120 FM082000 20005KT
                       P6SM BKN080 OVC120 FM090000 18005KT P6SM
                       OVC060 FM090500 22009KT P6SM -RA BKN020
                       OVC035 FM090900 21004KT 4SM -SHRA BKN015
                       OVC025 FM091500 21006KT P6SM -SHRA BKN025
                       OVC040 FM092100 21006KT P6SM VCSH SCT025
                       BKN035=
200902081623 KSEA 081623Z 0816/0918 04005KT 1/4SM FG VV001 FM081800 VRB04KT
                       1SM BR BKN003 FM081900 VRB04KT 5SM BR SCT005
                       BKN090 OVC120 FM082000 13006KT P6SM BKN080
                       OVC120 FM090000 20007KT P6SM OVC060 FM090800
                       22009KT P6SM -RA BKN030 OVC050=
200902081124 TAF KSEA 081124Z 0812/0918 04005KT 1/4SM FG VV001
                      TEMPO 0814/0818 3SM BR BKN003 FM081800 11006KT
                       5SM BR SCT005 BKN090 OVC120 FM082000 13006KT
                       P6SM BKN080 OVC120 FM090000 20007KT P6SM
                       OVC060 FM090800 22009KT P6SM -RA BKN030
                       OVC050=
200902080836 KSEA 080836Z 0809/0912 06004KT 2SM BR SCT001 BKN200
                      TEMPO 0809/0813 1/4SM FG VV001 FM081600 12006KT
                       P6SM BKN100 OVC200 FM090000 16008KT P6SM
                       OVC060 FM090700 21007KT P6SM -SHRA BKN030
                       OVC050=
200902080650 KSEA 080650Z 0807/0912 06004KT 3SM BR SCT001 BKN200
                      TEMPO 0807/0811 1/2SM FG BKN002 BKN200 FM081500
                       12006KT P6SM BKN100 OVC200 FM090000 16008KT
                       P6SM OVC060 FM090700 21007KT P6SM -SHRA
                       BKN030 OVC050=
200902080534 TAF KSEA 080534Z 0806/0912 06004KT P6SM BKN200
                      TEMPO 0807/0811 3SM BR SCT004 BKN200 FM081500
                       12006KT P6SM BKN100 OVC200 FM090000 16008KT
                       P6SM OVC060 FM090700 21007KT P6SM -SHRA
                       BKN030 OVC050=
200902072327 TAF KSEA 072327Z 0800/0906 00000KT P6SM FEW007 BKN220 FM080500
                       04005KT P6SM BKN200 FM081500 12006KT P6SM
                       BKN100 OVC200 FM090000 15008KT P6SM OVC060=
200902072030 KSEA 072030Z 0721/0824 36005KT P6SM OVC005 FM072200 VRB04KT P6SM
                       FEW015 SCT200 FM080500 04005KT P6SM BKN200
                       FM081100 12006KT P6SM BKN100 OVC200 FM081800
                       15008KT P6SM OVC060=
200902071742 TAF KSEA 071742Z 0718/0824 00000KT 3SM BR BKN003 OVC007 FM072000
                       VRB04KT P6SM BKN011 BKN200 FM072100 VRB04KT
                       P6SM FEW015 SCT200 FM080500 04005KT P6SM
                       BKN200 FM081100 12006KT P6SM BKN100 OVC200
                       FM081800 15008KT P6SM OVC060=
200902071605 KSEA 071605Z 0716/0818 11004KT 1SM BR OVC003 FM071800 VRB04KT P6SM
                       OVC010 FM071900 VRB04KT P6SM SCT015 SCT200
                       FM080500 04005KT P6SM BKN200 FM081100 12006KT
                       P6SM BKN100 OVC200=
200902071411 KSEA 071411Z 0714/0818 05005KT 2SM BR SCT001 BKN008
                      TEMPO 0714/0716 1/4SM FG BKN001 OVC008 FM071800
                       VRB04KT P6SM FEW012 SCT200 FM080500 04005KT
                       P6SM BKN200 FM081100 12006KT P6SM BKN100
                       OVC200=
200902071259 KSEA 071259Z 0713/0818 05005KT 4SM BR SCT005
                      TEMPO 0713/0716 1SM BR BKN005 FM071800 VRB04KT
                       P6SM FEW012 SCT200 FM080500 04005KT P6SM
                       BKN200 FM081100 12006KT P6SM BKN100 OVC200=
200902071132 KSEA 071132Z 0712/0818 05005KT 4SM BR SCT007 BKN012
                      TEMPO 0712/0716 3/4SM BR OVC004 FM071800
                       VRB04KT P6SM FEW012 SCT200 FM080500 04005KT
                       P6SM BKN200 FM081100 12006KT P6SM BKN100
                       OVC200=
200902071125 TAF KSEA 071125Z 0712/0818 05005KT P6SM SCT007 BKN012
                      TEMPO 0712/0716 5SM BR OVC007 FM071800 VRB04KT
                       P6SM FEW012 SCT200 FM080500 04005KT P6SM
                       BKN200 FM081100 12006KT P6SM BKN100 OVC200=
200902070523 TAF KSEA 070523Z 0706/0812 04007KT P6SM SCT014 BKN028
                      TEMPO 0706/0710 SCT030 FM071000 36006KT 5SM
                       BR BKN006 FM071800 VRB04KT P6SM FEW015 SCT200
                       FM080400 04005KT P6SM BKN200=
200902062327 TAF KSEA 062327Z 0700/0806 02008KT P6SM BKN022 OVC060 FM070900
                       36006KT 5SM BR OVC003 FM071900 VRB04KT P6SM
                       FEW015=
200902062129 KSEA 062129Z 0621/0724 35007KT P6SM -RA SCT006 BKN013 OVC030 FM062300
                       36007KT P6SM SCT018 BKN030 FM070900 36006KT
                       5SM BR OVC005 FM072000 VRB04KT P6SM SCT010
                       SCT200=
200902061726 TAF KSEA 061726Z 0618/0724 34008KT 4SM -RA BR OVC004 FM062100 32008KT
                       P6SM SCT015 BKN025 OVC040 FM070900 36006KT
                       5SM BR OVC005 FM072000 VRB04KT P6SM SCT010
                       SCT200=
200902061631 KSEA 061631Z 0617/0718 36006KT 2SM BR OVC004 FM061900 VRB03KT P6SM
                       SCT006 BKN015 OVC025 FM062200 32008KT P6SM
                       SCT015 BKN025 OVC040 FM070900 35004KT 5SM
                       BR OVC002=
200902061141 TAF KSEA 061141Z 0612/0718 VRB03KT P6SM SCT015 OVC025
                      TEMPO 0615/0618 5SM BR BKN015 OVC030 FM061800
                       VRB03KT P6SM SCT006 BKN015 OVC025 FM062200
                       32008KT P6SM SCT015 BKN025 OVC040 FM070200
                       35008KT P6SM BKN040 FM070700 35008KT P6SM
                       SCT040 FM071300 35004KT 5SM BR SCT002=
200902060542 TAF KSEA 060542Z 0606/0712 16008KT P6SM BKN050 OVC080
                      TEMPO 0608/0612 -RA FM061200 16008KT P6SM
                       -RA SCT015 OVC025 FM061500 18008KT P6SM
                       -RA SCT006 OVC015 FM061800 23010KT P6SM
                       -SHRA SCT006 BKN015 OVC025 FM062100 32008KT
                       P6SM SCT015 BKN035 FM070200 35009KT P6SM
                       SCT040 SCT250=
200902052341 TAF KSEA 052341Z 0600/0706 00000KT P6SM BKN100 OVC200 FM060200
                       16005KT P6SM SCT040 OVC090 FM060500 16008KT
                       P6SM -RA BKN040 OVC080 FM061100 16008KT
                       P6SM -RA SCT006 OVC015 FM061700 23010KT
                       P6SM -SHRA BKN014 OVC026 FM062100 32008KT
                       P6SM SCT016 BKN035 FM070000 35009KT P6SM
                       SCT040 SCT250=
200902051740 TAF KSEA 051740Z 0518/0624 00000KT P6SM FEW100 BKN160 BKN250 FM052100
                       16005KT P6SM BKN100 OVC180 FM060200 16008KT
                       P6SM SCT050 OVC080 FM060400 16008KT P6SM
                       -RA OVC040 FM061000 16008KT P6SM -RA SCT006
                       OVC015 FM061700 23008KT P6SM -SHRA BKN014
                       OVC026 FM062200 32006KT P6SM SCT016 BKN035=
200902051128 TAF KSEA 051128Z 0512/0618 13006KT P6SM BKN250 FM051900 16008KT
                       P6SM BKN100 OVC180 FM060000 16008KT P6SM
                       SCT050 OVC080 FM060400 16008KT P6SM -RA
                       OVC040 FM061000 16008KT P6SM -RA SCT006
                       OVC015=
200902050538 TAF KSEA 050538Z 0506/0612 00000KT P6SM BKN250 FM051900 16008KT
                       P6SM BKN100 OVC180 FM060000 16008KT P6SM
                       SCT050 OVC080 FM060400 16008KT P6SM -RA
                       OVC040=
200902042336 TAF KSEA 042336Z 0500/0606 32004KT P6SM FEW160 BKN250 FM050500
                       14004KT P6SM BKN250 FM051900 16007KT P6SM
                       BKN100 OVC180 FM060000 16009KT P6SM OVC090
                       PROB30 0600/0606 -RA=
200902041724 TAF KSEA 041724Z 0418/0524 15005KT P6SM SCT180 OVC250 FM050500
                       14004KT P6SM BKN250 FM052000 16009KT P6SM
                       BKN100 OVC180=
200902041133 TAF KSEA 041133Z 0412/0518 14006KT P6SM BKN250 FM041800 VRB03KT
                       P6SM BKN250=
200902040538 TAF KSEA 040538Z 0406/0512 VRB03KT P6SM BKN250=
200902032328 TAF KSEA 032328Z 0400/0506 15003KT P6SM BKN250 FM041100 13006KT
                       P6SM SCT250
                      TEMPO 0412/0416 SCT004 BKN250 FM042000 15007KT
                       P6SM BKN200=
200902031733 TAF KSEA 031733Z 0318/0424 06005KT P6SM BKN250 FM032100 14005KT
                       P6SM SCT250 FM041100 13006KT P6SM SCT250
                       FM042000 15007KT P6SM BKN200=
200902031136 TAF KSEA 031136Z 0312/0418 VRB03KT P6SM SCT250=
200902030533 TAF KSEA 030533Z 0306/0412 VRB03KT P6SM BKN250 FM032000 04004KT
                       P6SM SKC=
200902022326 TAF KSEA 022326Z 0300/0406 00000KT P6SM FEW040 BKN250 FM030600
                       VRB03KT P6SM SCT200 FM032000 04004KT P6SM
                       SKC=
200902021734 TAF KSEA 021734Z 0218/0324 17009KT P6SM SCT040 SCT150 BKN250
                      TEMPO 0218/0220 OVC035 FM022200 23006KT P6SM
                       SCT050 BKN200 FM030600 VRB03KT P6SM SCT200=
200902021120 TAF KSEA 021120Z 0212/0318 17007KT P6SM OVC050
                      TEMPO 0216/0220 OVC035 FM022200 23006KT P6SM
                       BKN050 BKN200 FM030600 VRB03KT P6SM SCT200=
200902020523 TAF KSEA 020523Z 0206/0312 14007KT P6SM BKN050 OVC100
                      TEMPO 0208/0212 -RA OVC040 FM021200 16008KT
                       P6SM OVC040 FM021700 18008KT P6SM BKN030
                       FM030000 23006KT P6SM SCT040=
200902020119 KSEA 020119Z 0201/0306 16008KT P6SM BKN060 OVC120 FM020500 18010KT
                       5SM -RA BR OVC020 FM021500 16005KT P6SM
                       BKN040 OVC120 FM022100 24005KT P6SM BKN200=
200902012333 TAF KSEA 012333Z 0200/0306 17005KT P6SM BKN060 OVC120 FM020200
                       18012KT 5SM -RA BR OVC020 FM021500 16005KT
                       P6SM BKN040 OVC120 FM022100 24005KT P6SM
                       BKN200=
200902011724 TAF KSEA 011724Z 0118/0224 26003KT P6SM SCT060 OVC100 FM012200
                       18008KT P6SM -RA OVC040 FM020300 18012KT
                       5SM -RA BR OVC020 FM021500 16005KT P6SM
                       BKN040 OVC120=
200902011120 TAF KSEA 011120Z 0112/0218 VRB03KT P6SM SCT050 BKN150 FM011700
                       16006KT P6SM BKN050 OVC120 FM012200 18008KT
                       P6SM -RA OVC040 FM020300 18012KT 5SM -DZ
                       BR OVC020=
200902010520 TAF KSEA 010520Z 0106/0212 VRB04KT P6SM BKN035
                      TEMPO 0106/0110 SCT040 FM011200 16006KT P6SM
                       BKN040 OVC100 FM012200 18008KT P6SM -RA
                       OVC040=
200902010428 KSEA 010428Z 0104/0206 VRB04KT P6SM BKN035
                      TEMPO 0105/0109 SCT040 FM011200 15004KT P6SM
                       BKN040 OVC100 FM012100 17006KT P6SM SCT035
                       OVC060
                      TEMPO 0122/0124 -RA=