##########################################################
# Query made at 02/17/2025 17:54:23 UTC
# Time interval: from 09/01/2010 00:00  to 09/30/2010 23:59  UTC
##########################################################

##########################################################
# KSEA, Seattle, Seattle-Tacoma International Airport (United States)
# WMO index: 72793. WIGOS ID: 0-20000-0-72793
# Latitude 47-27-00N. Longitude 122-17-59W. Altitude 130 m.
##########################################################

###################################
#  METAR/SPECI from KSEA
###################################
201009302353 METAR KSEA 302353Z 36009KT 10SM FEW200 22/12 A2982 RMK AO2 SLP104 T02170117 10217 20133 56018 $=
201009302253 METAR KSEA 302253Z 35008KT 10SM FEW200 21/12 A2984 RMK AO2 SLP108 T02110117 $=
201009302153 METAR KSEA 302153Z 35009KT 10SM FEW180 21/12 A2985 RMK AO2 SLP114 T02060122=
201009302053 METAR KSEA 302053Z 36008KT 10SM CLR 19/12 A2988 RMK AO2 SLP122 T01890117 58021=
201009301953 METAR KSEA 301953Z 36006KT 10SM CLR 18/12 A2991 RMK AO2 SLP132 T01780117=
201009301853 METAR KSEA 301853Z 35008KT 10SM FEW008 16/11 A2993 RMK AO2 SLP139 T01560111=
201009301839 SPECI KSEA 301839Z 01008KT 10SM SCT007 14/11 A2993 RMK AO2=
201009301839 SPECI KSEA 301839Z 01008KT 10SM SCT007 14/11 A2993 RMK AO2=
201009301753 METAR KSEA 301753Z 02011KT 7SM OVC005 13/11 A2994 RMK AO2 SLP144 60000 T01330111 10133 20117 58002=
201009301653 METAR KSEA 301653Z 02009KT 3SM BR OVC004 13/11 A2994 RMK AO2 SFC VIS 6 SLP146 T01280106=
201009301553 METAR KSEA 301553Z 02010KT 3SM BR OVC003 12/11 A2994 RMK AO2 SFC VIS 4 SLP146 T01220106=
201009301517 SPECI KSEA 301517Z 02014KT 1 1/2SM BR OVC002 12/11 A2995 RMK AO2 SFC VIS 2=
201009301517 SPECI KSEA 301517Z 02014KT 1 1/2SM BR OVC002 12/11 A2995 RMK AO2 SFC VIS 2=
201009301453 METAR KSEA 301453Z 01012KT 1/2SM BR OVC002 12/11 A2994 RMK AO2 SFC VIS 1 1/2 SLP146 60000 T01220111 55003=
201009301400 SPECI KSEA 301400Z 02007KT 1/2SM BR OVC002 12/11 A2995 RMK AO2 SFC VIS 4=
201009301400 SPECI KSEA 301400Z 02007KT 1/2SM BR OVC002 12/11 A2995 RMK AO2 SFC VIS 4=
201009301353 METAR KSEA 301353Z 03007KT 1 1/2SM BR BKN002 OVC004 12/11 A2994 RMK AO2 SFC VIS 6 SLP146 T01220111=
201009301343 SPECI KSEA 301343Z 01007KT 1 1/2SM BR OVC004 12/11 A2994 RMK AO2 SFC VIS 6=
201009301343 SPECI KSEA 301343Z 01007KT 1 1/2SM BR OVC004 12/11 A2994 RMK AO2 SFC VIS 6=
201009301253 METAR KSEA 301253Z 02011KT 7SM OVC004 13/12 A2995 RMK AO2 DZB01E32 CIG 003V007 SLP146 P0000 T01280117=
201009301153 METAR KSEA 301153Z 01008KT 6SM BR BKN004 OVC008 13/12 A2995 RMK AO2 SLP149 T01280117 10133 20111 58008=
201009301116 SPECI KSEA 301116Z 01008KT 10SM BKN004 OVC008 13/11 A2996 RMK AO2=
201009301116 SPECI KSEA 301116Z 01008KT 10SM BKN004 OVC008 13/11 A2996 RMK AO2=
201009301053 METAR KSEA 301053Z 02007KT 10SM OVC008 13/11 A2997 RMK AO2 CIG 004V009 SLP153 T01280111=
201009300953 METAR KSEA 300953Z 02004KT 10SM BKN008 12/11 A2997 RMK AO2 CIG 006V010 SLP156 T01220106=
201009300942 SPECI KSEA 300942Z 02005KT 10SM BKN008 12/11 A2997 RMK AO2=
201009300942 SPECI KSEA 300942Z 02005KT 10SM BKN008 12/11 A2997 RMK AO2=
201009300853 METAR KSEA 300853Z 01003KT 10SM FEW013 12/10 A2998 RMK AO2 SLP158 T01170100 57012=
201009300820 SPECI KSEA 300820Z 01005KT 10SM SCT013 13/10 A2999 RMK AO2=
201009300820 SPECI KSEA 300820Z 01005KT 10SM SCT013 13/10 A2999 RMK AO2=
201009300753 METAR KSEA 300753Z 03007KT 10SM BKN013 13/11 A2999 RMK AO2 SLP162 T01280106 401830111=
201009300739 SPECI KSEA 300739Z 01004KT 10SM BKN013 12/10 A3000 RMK AO2=
201009300739 SPECI KSEA 300739Z 01004KT 10SM BKN013 12/10 A3000 RMK AO2=
201009300653 METAR KSEA 300653Z 02006KT 10SM FEW200 13/11 A3000 RMK AO2 SLP166 T01330106=
201009300553 METAR KSEA 300553Z 01005KT 10SM CLR 13/11 A3001 RMK AO2 SLP170 T01280106 10178 20128 58001=
201009300453 METAR KSEA 300453Z 36007KT 10SM CLR 13/11 A3002 RMK AO2 SLP172 T01330106=
201009300353 METAR KSEA 300353Z 36008KT 10SM CLR 14/11 A3002 RMK AO2 SLP171 T01390111=
201009300253 METAR KSEA 300253Z 36008KT 10SM CLR 14/12 A3002 RMK AO2 SLP171 T01390117 55007=
201009300153 METAR KSEA 300153Z 36008KT 10SM CLR 15/11 A3002 RMK AO2 SLP170 T01500111=
201009300053 METAR KSEA 300053Z 35009KT 10SM CLR 17/12 A3002 RMK AO2 SLP172 T01720117=
201009292353 METAR KSEA 292353Z 36007KT 10SM FEW020 18/11 A3004 RMK AO2 SLP177 T01780111 10183 20122 56019=
201009292253 METAR KSEA 292253Z 01007KT 10SM FEW020 16/11 A3005 RMK AO2 SLP182 T01610111=
201009292153 METAR KSEA 292153Z VRB03KT 10SM FEW018 14/11 A3007 RMK AO2 SLP189 T01440111=
201009292053 METAR KSEA 292053Z 36009KT 10SM SCT011 14/11 A3009 RMK AO2 SLP197 T01440111 58017=
201009292033 SPECI KSEA 292033Z 02009KT 10SM FEW006 SCT010 14/11 A3010 RMK AO2=
201009292033 SPECI KSEA 292033Z 02009KT 10SM FEW006 SCT010 14/11 A3010 RMK AO2=
201009292026 SPECI KSEA 292026Z 01008KT 10SM FEW006 BKN010 14/11 A3010 RMK AO2=
201009292026 SPECI KSEA 292026Z 01008KT 10SM FEW006 BKN010 14/11 A3010 RMK AO2=
201009291953 METAR KSEA 291953Z 01007KT 10SM OVC006 13/11 A3012 RMK AO2 SLP205 T01280111=
201009291933 SPECI KSEA 291933Z 02009KT 10SM OVC006 13/11 A3012 RMK AO2=
201009291933 SPECI KSEA 291933Z 02009KT 10SM OVC006 13/11 A3012 RMK AO2=
201009291853 METAR KSEA 291853Z 02009KT 10SM OVC004 12/11 A3013 RMK AO2 SLP209 T01220111=
201009291814 SPECI KSEA 291814Z 36008KT 7SM OVC003 12/12 A3014 RMK AO2=
201009291814 SPECI KSEA 291814Z 36008KT 7SM OVC003 12/12 A3014 RMK AO2=
201009291753 METAR KSEA 291753Z 01009KT 1 1/4SM BR OVC003 12/11 A3015 RMK AO2 SFC VIS 5 SLP214 T01220111 10122 20111 50003=
201009291739 SPECI KSEA 291739Z 35008KT 1 1/4SM BR OVC002 12/11 A3015 RMK AO2 SFC VIS 4=
201009291739 SPECI KSEA 291739Z 35008KT 1 1/4SM BR OVC002 12/11 A3015 RMK AO2 SFC VIS 4=
201009291653 METAR KSEA 291653Z 01014KT 1/2SM R16L/P6000FT FG OVC001 12/11 A3015 RMK AO2 SLP216 VIS W-N 1 T01220111=
201009291553 METAR KSEA 291553Z 01010KT 1/2SM R16L/1800V4000FT FG OVC001 12/11 A3015 RMK AO2 SLP215 T01170111=
201009291453 METAR KSEA 291453Z 03007KT 1/2SM R16L/3500VP6000FT FG OVC001 12/11 A3014 RMK AO2 SLP211 T01170111 56003=
201009291353 METAR KSEA 291353Z 01009KT 1/2SM R16L/2000V4000FT FG OVC001 12/11 A3014 RMK AO2 SLP212 T01170111=
201009291329 SPECI KSEA 291329Z 02009KT 1/2SM R16L/P6000FT BR BKN001 11/11 A3014 RMK AO2 SFC VIS 1=
201009291329 SPECI KSEA 291329Z 02009KT 1/2SM R16L/P6000FT BR BKN001 11/11 A3014 RMK AO2 SFC VIS 1=
201009291317 SPECI KSEA 291317Z 02008KT 2SM BKN003 11/11 A3014 RMK AO2 SFC VIS 7=
201009291317 SPECI KSEA 291317Z 02008KT 2SM BKN003 11/11 A3014 RMK AO2 SFC VIS 7=
201009291314 SPECI KSEA 291314Z 02008KT 8SM BKN003 11/11 A3014 RMK AO2=
201009291314 SPECI KSEA 291314Z 02008KT 8SM BKN003 11/11 A3014 RMK AO2=
201009291253 METAR KSEA 291253Z 01010KT 10SM FEW003 11/11 A3014 RMK AO2 SLP213 T01110106=
201009291208 SPECI KSEA 291208Z 02009KT 10SM SCT006 SCT026 12/10 A3014 RMK AO2=
201009291208 SPECI KSEA 291208Z 02009KT 10SM SCT006 SCT026 12/10 A3014 RMK AO2=
201009291153 METAR KSEA 291153Z 02010KT 10SM BKN006 12/10 A3015 RMK AO2 SLP213 T01220100 10139 20122 58000=
201009291141 SPECI KSEA 291141Z 03010G18KT 10SM BKN008 12/10 A3015 RMK AO2=
201009291141 SPECI KSEA 291141Z 03010G18KT 10SM BKN008 12/10 A3015 RMK AO2=
201009291126 SPECI KSEA 291126Z 04008KT 10SM SCT008 12/10 A3015 RMK AO2=
201009291126 SPECI KSEA 291126Z 04008KT 10SM SCT008 12/10 A3015 RMK AO2=
201009291053 METAR KSEA 291053Z 03009KT 10SM CLR 12/09 A3015 RMK AO2 SLP214 T01220094=
201009290953 METAR KSEA 290953Z 02008KT 10SM CLR 12/09 A3014 RMK AO2 SLP213 T01220094=
201009290853 METAR KSEA 290853Z 03009KT 10SM FEW100 13/10 A3015 RMK AO2 SLP214 T01280100 56007=
201009290753 METAR KSEA 290753Z 01007KT 10SM CLR 13/10 A3015 RMK AO2 SLP215 T01280100 401940122=
201009290653 METAR KSEA 290653Z 35004KT 10SM CLR 12/11 A3016 RMK AO2 SLP217 T01220106=
201009290553 METAR KSEA 290553Z 01008KT 10SM FEW050 14/11 A3017 RMK AO2 SLP220 T01390111 10167 20133 51010=
201009290453 METAR KSEA 290453Z 36008KT 10SM FEW050 14/11 A3016 RMK AO2 SLP218 T01440111=
201009290353 METAR KSEA 290353Z 35006KT 10SM SCT050 14/12 A3015 RMK AO2 SLP214 T01440117=
201009290253 METAR KSEA 290253Z 36004KT 10SM SCT050 SCT200 16/12 A3014 RMK AO2 SLP210 T01560117 55004=
201009290153 METAR KSEA 290153Z 06003KT 10SM BKN046 16/12 A3013 RMK AO2 SLP208 T01610117=
201009290053 METAR KSEA 290053Z 05005KT 10SM BKN040 16/12 A3014 RMK AO2 SLP213 T01610117=
201009282353 METAR KSEA 282353Z 04007KT 10SM FEW029 OVC038 17/12 A3015 RMK AO2 DZB06E50 SLP213 P0000 60000 T01670122 10183 20156 52007=
201009282311 SPECI KSEA 282311Z 01010G18KT 10SM -DZ OVC028 17/12 A3014 RMK AO2 DZB06 P0000=
201009282311 SPECI KSEA 282311Z 01010G18KT 10SM -DZ OVC028 17/12 A3014 RMK AO2 DZB06 P0000=
201009282253 METAR KSEA 282253Z 02009KT 10SM FEW022 OVC033 18/12 A3014 RMK AO2 SLP210 T01830122=
201009282153 METAR KSEA 282153Z 01010KT 10SM FEW022 OVC031 17/11 A3013 RMK AO2 SLP209 T01670111=
201009282134 SPECI KSEA 282134Z 03009KT 10SM SCT022 OVC031 17/12 A3013 RMK AO2=
201009282134 SPECI KSEA 282134Z 03009KT 10SM SCT022 OVC031 17/12 A3013 RMK AO2=
201009282053 METAR KSEA 282053Z 04009KT 10SM SCT020 OVC028 17/13 A3013 RMK AO2 SLP206 60000 T01720128 51002=
201009281953 METAR KSEA 281953Z 02010KT 10SM SCT015 BKN026 17/13 A3012 RMK AO2 SLP204 T01720128=
201009281853 METAR KSEA 281853Z 01012KT 10SM FEW006 SCT012 OVC024 17/13 A3013 RMK AO2 RAE13 SLP207 P0000 T01670128=
201009281847 SPECI KSEA 281847Z 36012KT 10SM FEW006 SCT012 OVC024 17/13 A3013 RMK AO2 RAE13 P0000=
201009281847 SPECI KSEA 281847Z 36012KT 10SM FEW006 SCT012 OVC024 17/13 A3013 RMK AO2 RAE13 P0000=
201009281820 SPECI KSEA 281820Z 36011KT 7SM FEW006 BKN012 OVC022 16/14 A3013 RMK AO2 RAE13 P0000=
201009281820 SPECI KSEA 281820Z 36011KT 7SM FEW006 BKN012 OVC022 16/14 A3013 RMK AO2 RAE13 P0000=
201009281753 METAR KSEA 281753Z 36010KT 2SM -RA BR FEW004 OVC010 16/14 A3012 RMK AO2 RAB37 SLP204 P0000 60000 T01560139 10189 20156 53013=
201009281741 SPECI KSEA 281741Z 36011KT 6SM -RA BR SCT006 OVC010 16/14 A3012 RMK AO2 RAB37 P0000=
201009281741 SPECI KSEA 281741Z 36011KT 6SM -RA BR SCT006 OVC010 16/14 A3012 RMK AO2 RAB37 P0000=
201009281733 SPECI KSEA 281733Z 35010KT 7SM BKN010 OVC019 16/14 A3011 RMK AO2 CIG 006V013=
201009281733 SPECI KSEA 281733Z 35010KT 7SM BKN010 OVC019 16/14 A3011 RMK AO2 CIG 006V013=
201009281653 METAR KSEA 281653Z 02009KT 10SM OVC019 17/13 A3010 RMK AO2 SLP196 T01670133=
201009281553 METAR KSEA 281553Z 03009KT 10SM FEW008 OVC019 17/14 A3008 RMK AO2 RAE03 SLP192 P0000 T01670139=
201009281453 METAR KSEA 281453Z 03009KT 10SM -RA SCT006 OVC017 17/14 A3008 RMK AO2 RAB1356E08B47 SLP191 P0000 60000 T01670144 53013=
201009281435 SPECI KSEA 281435Z 02009KT 7SM SCT006 OVC015 17/15 A3008 RMK AO2 RAB1356E08 P0000=
201009281435 SPECI KSEA 281435Z 02009KT 7SM SCT006 OVC015 17/15 A3008 RMK AO2 RAB1356E08 P0000=
201009281405 SPECI KSEA 281405Z 03010KT 5SM -RA BR SCT006 OVC013 17/16 A3007 RMK AO2 RAB1356 P0000=
201009281405 SPECI KSEA 281405Z 03010KT 5SM -RA BR SCT006 OVC013 17/16 A3007 RMK AO2 RAB1356 P0000=
201009281353 METAR KSEA 281353Z 03010KT 1SM R16L/P6000FT BR SCT003 OVC009 17/16 A3007 RMK AO2 TWR VIS 2 DZB43E51RAB51E53 SLP185 P0000 T01670156=
201009281351 SPECI KSEA 281351Z 02008KT 1SM R16L/P6000FT -RA BR SCT003 OVC009 17/16 A3007 RMK AO2 TWR VIS 2 DZB43E51RAB51 P0000=
201009281351 SPECI KSEA 281351Z 02008KT 1SM R16L/P6000FT -RA BR SCT003 OVC009 17/16 A3007 RMK AO2 TWR VIS 2 DZB43E51RAB51 P0000=
201009281344 SPECI KSEA 281344Z 01012KT 3SM -DZ BR SCT002 OVC009 17/16 A3006 RMK AO2 DZB43 CIG 006V012 P0000=
201009281344 SPECI KSEA 281344Z 01012KT 3SM -DZ BR SCT002 OVC009 17/16 A3006 RMK AO2 DZB43 CIG 006V012 P0000=
201009281253 METAR KSEA 281253Z 31003KT 10SM OVC005 18/17 A3004 RMK AO2 CIG 003V009 SLP178 T01830167=
201009281251 SPECI KSEA 281251Z 00000KT 10SM OVC005 18/17 A3004 RMK AO2 CIG 003V007=
201009281251 SPECI KSEA 281251Z 00000KT 10SM OVC005 18/17 A3004 RMK AO2 CIG 003V007=
201009281241 SPECI KSEA 281241Z 33003KT 10SM OVC003 18/17 A3004 RMK AO2 CIG 003V009=
201009281241 SPECI KSEA 281241Z 33003KT 10SM OVC003 18/17 A3004 RMK AO2 CIG 003V009=
201009281206 SPECI KSEA 281206Z 27007KT 10SM BKN008 OVC046 19/17 A3004 RMK AO2 CIG 005V010=
201009281206 SPECI KSEA 281206Z 27007KT 10SM BKN008 OVC046 19/17 A3004 RMK AO2 CIG 005V010=
201009281153 METAR KSEA 281153Z 26007KT 10SM FEW008 OVC048 19/18 A3003 RMK AO2 SLP175 70003 T01890178 10194 20183 53006=
201009281122 SPECI KSEA 281122Z 24010KT 10SM SCT005 BKN055 BKN070 19/18 A3003 RMK AO2=
201009281122 SPECI KSEA 281122Z 24010KT 10SM SCT005 BKN055 BKN070 19/18 A3003 RMK AO2=
201009281118 SPECI KSEA 281118Z 24007KT 10SM SCT005 BKN009 BKN070 19/18 A3002 RMK AO2=
201009281118 SPECI KSEA 281118Z 24007KT 10SM SCT005 BKN009 BKN070 19/18 A3002 RMK AO2=
201009281053 METAR KSEA 281053Z 21005KT 10SM BKN003 BKN055 18/18 A3002 RMK AO2 SLP169 T01830178=
201009280953 METAR KSEA 280953Z 21009KT 10SM OVC003 19/18 A3002 RMK AO2 SLP168 T01890178=
201009280919 SPECI KSEA 280919Z 21005KT 10SM OVC003 19/18 A3002 RMK AO2=
201009280919 SPECI KSEA 280919Z 21005KT 10SM OVC003 19/18 A3002 RMK AO2=
201009280853 METAR KSEA 280853Z 18004KT 10SM OVC005 19/18 A3002 RMK AO2 SLP169 T01890178 56007=
201009280753 METAR KSEA 280753Z 00000KT 10SM OVC007 19/18 A3002 RMK AO2 CIG 005V010 SLP171 T01940178 402170167=
201009280702 SPECI KSEA 280702Z 17006KT 10SM BKN009 BKN012 OVC070 19/18 A3002 RMK AO2 CIG 006V011=
201009280702 SPECI KSEA 280702Z 17006KT 10SM BKN009 BKN012 OVC070 19/18 A3002 RMK AO2 CIG 006V011=
201009280653 METAR KSEA 280653Z 19005KT 10SM FEW009 SCT055 OVC070 19/18 A3003 RMK AO2 SLP172 T01890178=
201009280643 SPECI KSEA 280643Z 20008KT 10SM FEW009 SCT055 OVC070 19/18 A3003 RMK AO2=
201009280643 SPECI KSEA 280643Z 20008KT 10SM FEW009 SCT055 OVC070 19/18 A3003 RMK AO2=
201009280553 METAR KSEA 280553Z 20007KT 10SM BKN009 OVC040 19/18 A3004 RMK AO2 SLP176 T01940178 10211 20189 50008=
201009280453 METAR KSEA 280453Z 19005KT 10SM BKN007 OVC047 19/18 A3004 RMK AO2 SLP177 T01890178=
201009280353 METAR KSEA 280353Z 19003KT 10SM BKN007 OVC050 19/18 A3003 RMK AO2 SLP175 T01890183=
201009280340 SPECI KSEA 280340Z 20004KT 10SM BKN007 BKN055 19/18 A3003 RMK AO2=
201009280340 SPECI KSEA 280340Z 20004KT 10SM BKN007 BKN055 19/18 A3003 RMK AO2=
201009280253 METAR KSEA 280253Z 22005KT 10SM FEW008 BKN050 BKN100 19/18 A3001 RMK AO2 SLP168 T01940183 53001=
201009280211 SPECI KSEA 280211Z 21003KT 10SM SCT006 BKN046 19/18 A3001 RMK AO2=
201009280211 SPECI KSEA 280211Z 21003KT 10SM SCT006 BKN046 19/18 A3001 RMK AO2=
201009280153 METAR KSEA 280153Z 00000KT 10SM BKN008 BKN046 BKN100 20/19 A3001 RMK AO2 SLP166 T02000189=
201009280141 SPECI KSEA 280141Z 00000KT 10SM BKN008 BKN046 BKN100 20/19 A3001 RMK AO2=
201009280141 SPECI KSEA 280141Z 00000KT 10SM BKN008 BKN046 BKN100 20/19 A3001 RMK AO2=
201009280124 SPECI KSEA 280124Z 27004KT 10SM SCT008 BKN046 BKN110 20/19 A3001 RMK AO2=
201009280124 SPECI KSEA 280124Z 27004KT 10SM SCT008 BKN046 BKN110 20/19 A3001 RMK AO2=
201009280053 METAR KSEA 280053Z 27004KT 10SM FEW012 SCT055 BKN110 21/19 A3000 RMK AO2 SLP162 T02060189=
201009272353 METAR KSEA 272353Z 26006KT 10SM FEW012 BKN045 OVC095 21/19 A3001 RMK AO2 SLP168 60003 T02110189 10217 20172 56013=
201009272253 METAR KSEA 272253Z 19003KT 10SM FEW010 SCT090 BKN200 21/18 A3002 RMK AO2 SLP171 T02110183=
201009272153 METAR KSEA 272153Z 21009KT 10SM FEW010 SCT030 BKN100 21/18 A3004 RMK AO2 SLP176 T02110183=
201009272053 METAR KSEA 272053Z 21006KT 10SM FEW008 SCT030 BKN070 20/18 A3005 RMK AO2 SLP180 60003 T02000183 50002=
201009271953 METAR KSEA 271953Z 19005KT 10SM FEW007 BKN030 BKN037 19/18 A3006 RMK AO2 RAE17 SLP184 P0001 T01940183=
201009271853 METAR KSEA 271853Z 00000KT 3SM -RA BR FEW007 SCT020 BKN030 18/18 A3007 RMK AO2 SFC VIS 4 RAB10 SLP186 P0002 T01830178=
201009271838 SPECI KSEA 271838Z 28004KT 3SM -RA BR FEW007 BKN020 OVC030 18/17 A3006 RMK AO2 SFC VIS 4 RAB10 P0002=
201009271838 SPECI KSEA 271838Z 28004KT 3SM -RA BR FEW007 BKN020 OVC030 18/17 A3006 RMK AO2 SFC VIS 4 RAB10 P0002=
201009271823 SPECI KSEA 271823Z 27003KT 3SM R16L/5500VP6000FT -RA BR SCT020 BKN030 BKN043 18/17 A3006 RMK AO2 SFC VIS 5 RAB10 P0002=
201009271823 SPECI KSEA 271823Z 27003KT 3SM R16L/5500VP6000FT -RA BR SCT020 BKN030 BKN043 18/17 A3006 RMK AO2 SFC VIS 5 RAB10 P0002=
201009271820 SPECI KSEA 271820Z 27004KT 1 1/2SM R16L/5500VP6000FT -RA BR SCT020 BKN030 BKN043 18/17 A3006 RMK AO2 SFC VIS 5 RAB10 P0002=
201009271820 SPECI KSEA 271820Z 27004KT 1 1/2SM R16L/5500VP6000FT -RA BR SCT020 BKN030 BKN043 18/17 A3006 RMK AO2 SFC VIS 5 RAB10 P0002=
201009271815 SPECI KSEA 271815Z 27006KT 1SM R16L/5500VP6000FT RA BR SCT020 OVC030 17/16 A3006 RMK AO2 TWR VIS 1 1/2 RAB10 P0001=
201009271815 SPECI KSEA 271815Z 27006KT 1SM R16L/5500VP6000FT RA BR SCT020 OVC030 17/16 A3006 RMK AO2 TWR VIS 1 1/2 RAB10 P0001=
201009271753 METAR KSEA 271753Z 16005KT 10SM FEW025 OVC035 18/17 A3004 RMK AO2 SLP178 60000 T01830167 10183 20167 53001=
201009271653 METAR KSEA 271653Z 16007KT 10SM SCT027 OVC035 18/16 A3005 RMK AO2 SLP179 T01780161=
201009271553 METAR KSEA 271553Z 14005KT 10SM SCT030 BKN040 17/16 A3004 RMK AO2 SLP176 T01720161=
201009271453 METAR KSEA 271453Z 15004KT 10SM BKN030 OVC039 17/16 A3004 RMK AO2 RAB14E27 SLP179 P0000 60000 T01720161 55002=
201009271353 METAR KSEA 271353Z 00000KT 10SM OVC034 17/16 A3004 RMK AO2 RAB22E47 SLP176 P0000 T01720161=
201009271253 METAR KSEA 271253Z 13003KT 6SM BR FEW020 BKN040 OVC060 17/17 A3004 RMK AO2 SLP177 T01720167=
201009271216 SPECI KSEA 271216Z 00000KT 6SM BR SCT006 BKN040 OVC060 17/16 A3004 RMK AO2=
201009271216 SPECI KSEA 271216Z 00000KT 6SM BR SCT006 BKN040 OVC060 17/16 A3004 RMK AO2=
201009271153 METAR KSEA 271153Z 15003KT 6SM BR BKN006 OVC060 17/17 A3005 RMK AO2 SLP180 60000 70035 T01720167 10172 20161 51007=
201009271053 METAR KSEA 271053Z 00000KT 6SM BR BKN006 OVC055 17/17 A3005 RMK AO2 SLP179 T01720167=
201009270953 METAR KSEA 270953Z 14004KT 6SM BR OVC006 17/17 A3004 RMK AO2 RAE10 SLP175 P0000 T01720167=
201009270853 METAR KSEA 270853Z 13003KT 6SM -RA BR BKN008 OVC035 17/17 A3003 RMK AO2 RAB16 SLP172 P0000 60000 T01720167 56000=
201009270753 METAR KSEA 270753Z 13003KT 5SM BR FEW001 BKN010 OVC030 17/16 A3003 RMK AO2 SLP172 T01670161 401830150=
201009270653 METAR KSEA 270653Z 00000KT 4SM BR FEW001 SCT015 BKN030 16/16 A3002 RMK AO2 SLP172 T01610156=
201009270639 SPECI KSEA 270639Z 00000KT 4SM BR FEW001 SCT015 BKN030 16/16 A3002 RMK AO2=
201009270639 SPECI KSEA 270639Z 00000KT 4SM BR FEW001 SCT015 BKN030 16/16 A3002 RMK AO2=
201009270627 SPECI KSEA 270627Z 00000KT 5SM BR FEW015 SCT029 16/16 A3002 RMK AO2=
201009270627 SPECI KSEA 270627Z 00000KT 5SM BR FEW015 SCT029 16/16 A3002 RMK AO2=
201009270553 METAR KSEA 270553Z 00000KT 2 1/2SM BR FEW002 BKN015 OVC036 17/16 A3003 RMK AO2 SFC VIS 5 RAB17E50 SLP173 P0001 60003 T01670161 10172 20167 53004=
201009270518 SPECI KSEA 270518Z 00000KT 2 1/2SM -RA BR SCT002 OVC017 17/16 A3003 RMK AO2 SFC VIS 5 RAB17 P0000=
201009270518 SPECI KSEA 270518Z 00000KT 2 1/2SM -RA BR SCT002 OVC017 17/16 A3003 RMK AO2 SFC VIS 5 RAB17 P0000=
201009270453 METAR KSEA 270453Z 21003KT 10SM FEW008 BKN015 OVC034 17/17 A3002 RMK AO2 RAE53 SLP172 P0001 T01720167=
201009270432 SPECI KSEA 270432Z 00000KT 7SM -RA FEW010 BKN015 OVC034 17/16 A3002 RMK AO2 P0001=
201009270432 SPECI KSEA 270432Z 00000KT 7SM -RA FEW010 BKN015 OVC034 17/16 A3002 RMK AO2 P0001=
201009270353 METAR KSEA 270353Z 15003KT 8SM -RA OVC011 17/16 A3002 RMK AO2 RAB19 SLP170 P0001 T01720161=
201009270253 METAR KSEA 270253Z 13005KT 10SM FEW005 BKN013 OVC036 17/17 A3002 RMK AO2 RAB35E50 SLP170 P0000 60000 T01720167 51003=
201009270248 SPECI KSEA 270248Z 13005KT 8SM -RA SCT007 BKN013 OVC036 17/17 A3002 RMK AO2 RAB35 P0000=
201009270248 SPECI KSEA 270248Z 13005KT 8SM -RA SCT007 BKN013 OVC036 17/17 A3002 RMK AO2 RAB35 P0000=
201009270219 SPECI KSEA 270219Z 17003KT 10SM BKN011 BKN018 OVC036 17/16 A3002 RMK AO2=
201009270219 SPECI KSEA 270219Z 17003KT 10SM BKN011 BKN018 OVC036 17/16 A3002 RMK AO2=
201009270153 METAR KSEA 270153Z 19003KT 10SM BKN009 BKN030 OVC036 17/16 A3001 RMK AO2 RAB0057E32 SLP169 P0000 T01720161=
201009270141 SPECI KSEA 270141Z 00000KT 10SM SCT009 OVC034 17/16 A3001 RMK AO2 RAB0057E32 P0000=
201009270141 SPECI KSEA 270141Z 00000KT 10SM SCT009 OVC034 17/16 A3001 RMK AO2 RAB0057E32 P0000=
201009270053 METAR KSEA 270053Z 21003KT 10SM SCT025 OVC041 17/16 A3001 RMK AO2 SLP167 T01720161=
201009262353 METAR KSEA 262353Z VRB03KT 10SM OVC043 17/16 A3000 RMK AO2 SLP165 60000 T01720156 10183 20167 53000=
201009262253 METAR KSEA 262253Z 27003KT 10SM SCT024 SCT030 OVC039 18/16 A3000 RMK AO2 SLP164 T01780161=
201009262215 SPECI KSEA 262215Z 25003KT 10SM FEW024 BKN032 OVC040 18/16 A3000 RMK AO2=
201009262215 SPECI KSEA 262215Z 25003KT 10SM FEW024 BKN032 OVC040 18/16 A3000 RMK AO2=
201009262153 METAR KSEA 262153Z 22004KT 10SM FEW011 BKN024 OVC050 18/16 A3000 RMK AO2 SLP164 T01780156=
201009262053 METAR KSEA 262053Z 23006KT 10SM FEW009 SCT011 OVC026 18/16 A3000 RMK AO2 SLP165 60000 T01830161 51004=
201009261953 METAR KSEA 261953Z 22008KT 10SM SCT007 BKN011 OVC029 18/17 A3000 RMK AO2 SLP163 T01830167=
201009261853 METAR KSEA 261853Z 18005KT 10SM SCT007 BKN014 OVC027 17/16 A3000 RMK AO2 RAE49 SLP163 P0000 T01720161=
201009261826 SPECI KSEA 261826Z 17005KT 6SM -RA BR BKN007 OVC013 17/16 A3000 RMK AO2 P0000=
201009261826 SPECI KSEA 261826Z 17005KT 6SM -RA BR BKN007 OVC013 17/16 A3000 RMK AO2 P0000=
201009261753 METAR KSEA 261753Z 18003KT 3SM -RA BR BKN005 OVC010 17/16 A2999 RMK AO2 SFC VIS 5 CIG 003V009 SLP161 P0002 60032 T01670156 10167 20150 50010=
201009261749 SPECI KSEA 261749Z 21003KT 3SM -RA BR OVC005 17/16 A2999 RMK AO2 SFC VIS 6 CIG 003V010 P0002=
201009261749 SPECI KSEA 261749Z 21003KT 3SM -RA BR OVC005 17/16 A2999 RMK AO2 SFC VIS 6 CIG 003V010 P0002=
201009261653 METAR KSEA 261653Z 16007KT 1 1/2SM -RA BR OVC005 16/15 A2997 RMK AO2 SFC VIS 3 RAE31B50 CIG 002V007 SLP154 P0001 T01610150=
201009261617 SPECI KSEA 261617Z 16008KT 1 1/2SM -RA BR SCT005 BKN013 OVC018 16/15 A2996 RMK AO2 SFC VIS 3 P0001=
201009261617 SPECI KSEA 261617Z 16008KT 1 1/2SM -RA BR SCT005 BKN013 OVC018 16/15 A2996 RMK AO2 SFC VIS 3 P0001=
201009261610 SPECI KSEA 261610Z 16007KT 3SM -RA BR SCT005 BKN018 OVC024 16/15 A2996 RMK AO2 P0001=
201009261610 SPECI KSEA 261610Z 16007KT 3SM -RA BR SCT005 BKN018 OVC024 16/15 A2996 RMK AO2 P0001=
201009261553 METAR KSEA 261553Z 16007KT 3SM -RA BR OVC020 16/15 A2996 RMK AO2 SLP150 P0006 T01610150=
201009261527 SPECI KSEA 261527Z 14007KT 3SM -RA BR FEW015 OVC022 16/15 A2996 RMK AO2 P0005=
201009261527 SPECI KSEA 261527Z 14007KT 3SM -RA BR FEW015 OVC022 16/15 A2996 RMK AO2 P0005=
201009261453 METAR KSEA 261453Z 14007KT 2SM -RA BR SCT014 BKN022 OVC026 16/14 A2994 RMK AO2 SLP145 P0008 60023 T01560144 55000=
201009261400 SPECI KSEA 261400Z 13008KT 2SM RA BR FEW012 BKN020 OVC030 15/14 A2994 RMK AO2 P0002=
201009261400 SPECI KSEA 261400Z 13008KT 2SM RA BR FEW012 BKN020 OVC030 15/14 A2994 RMK AO2 P0002=
201009261353 METAR KSEA 261353Z 14008KT 3SM RA BR FEW001 BKN020 OVC035 15/14 A2994 RMK AO2 SLP145 P0011 T01500144=
201009261336 SPECI KSEA 261336Z 16004KT 3SM RA BR FEW001 BKN020 OVC035 15/14 A2994 RMK AO2 P0007=
201009261336 SPECI KSEA 261336Z 16004KT 3SM RA BR FEW001 BKN020 OVC035 15/14 A2994 RMK AO2 P0007=
201009261253 METAR KSEA 261253Z 13006KT 6SM -RA BR FEW001 BKN035 OVC100 15/14 A2994 RMK AO2 SLP141 P0004 T01500139=
201009261153 METAR KSEA 261153Z 27007KT 6SM RA BR SCT034 BKN065 OVC090 15/14 A2994 RMK AO2 RAB05 SLP144 P0004 60004 70004 T01500139 10167 20150 55010=
201009261053 METAR KSEA 261053Z 15007KT 10SM FEW035 SCT065 OVC100 16/13 A2987 RMK AO2 RAB0955E24 SLP120 P0000 T01610133=
201009260953 METAR KSEA 260953Z 11015KT 10SM FEW035 BKN065 BKN100 16/13 A2991 RMK AO2 PRESFR SLP132 T01560133=
201009260933 SPECI KSEA 260933Z 14005KT 10SM BKN030 OVC035 16/13 A2997 RMK AO2=
201009260933 SPECI KSEA 260933Z 14005KT 10SM BKN030 OVC035 16/13 A2997 RMK AO2=
201009260853 METAR KSEA 260853Z 14005KT 10SM BKN028 BKN047 16/13 A2997 RMK AO2 SLP154 T01610133 53007=
201009260810 SPECI KSEA 260810Z 17005KT 10SM BKN026 OVC050 16/14 A2997 RMK AO2=
201009260810 SPECI KSEA 260810Z 17005KT 10SM BKN026 OVC050 16/14 A2997 RMK AO2=
201009260753 METAR KSEA 260753Z 18005KT 10SM CLR 16/13 A2997 RMK AO2 SLP152 T01560133 402390106=
201009260653 METAR KSEA 260653Z 17003KT 10SM SCT050 BKN200 16/13 A2995 RMK AO2 SLP145 T01610133=
201009260553 METAR KSEA 260553Z 21004KT 10SM FEW050 BKN200 16/13 A2995 RMK AO2 SLP147 T01610133 10228 20161 58011=
201009260453 METAR KSEA 260453Z 21006KT 10SM FEW050 BKN200 17/13 A2997 RMK AO2 SLP153 T01720133=
201009260353 METAR KSEA 260353Z 21009KT 10SM FEW050 17/13 A2998 RMK AO2 SLP156 T01720133=
201009260253 METAR KSEA 260253Z 20006KT 10SM FEW050 18/13 A2998 RMK AO2 SLP158 T01780133 55000=
201009260153 METAR KSEA 260153Z 22007KT 10SM FEW050 19/13 A2998 RMK AO2 SLP156 T01940133=
201009260053 METAR KSEA 260053Z 24008KT 10SM FEW120 22/13 A2997 RMK AO2 SLP155 T02170128=
201009252353 METAR KSEA 252353Z 23005KT 10SM FEW130 23/13 A2998 RMK AO2 SLP158 T02280128 10239 20178 56015=
201009252253 METAR KSEA 252253Z 22007KT 10SM FEW150 23/13 A2999 RMK AO2 SLP160 T02330133=
201009252153 METAR KSEA 252153Z 22004KT 10SM CLR 23/13 A3001 RMK AO2 SLP167 T02280128=
201009252053 METAR KSEA 252053Z 19010KT 10SM CLR 22/12 A3003 RMK AO2 SLP172 T02170117 56009=
201009251953 METAR KSEA 251953Z 21009KT 10SM CLR 21/11 A3003 RMK AO2 SLP175 T02060111=
201009251853 METAR KSEA 251853Z 20003KT 10SM CLR 19/11 A3004 RMK AO2 SLP178 T01890111=
201009251753 METAR KSEA 251753Z 18004KT 10SM FEW200 18/11 A3005 RMK AO2 SLP182 T01780111 10183 20106 58009=
201009251653 METAR KSEA 251653Z 20003KT 10SM FEW200 17/11 A3007 RMK AO2 SLP186 T01720111=
201009251553 METAR KSEA 251553Z 15006KT 10SM SCT180 14/09 A3008 RMK AO2 SLP190 T01440094=
201009251453 METAR KSEA 251453Z 14004KT 10SM FEW120 SCT210 13/09 A3008 RMK AO2 SLP191 T01330089 58003=
201009251353 METAR KSEA 251353Z 14005KT 10SM FEW120 BKN200 12/08 A3009 RMK AO2 SLP193 T01220078=
201009251253 METAR KSEA 251253Z 14006KT 10SM FEW120 BKN200 12/08 A3008 RMK AO2 SLP192 T01170083=
201009251153 METAR KSEA 251153Z 17003KT 10SM FEW120 SCT200 12/09 A3009 RMK AO2 SLP194 T01170089 10156 20117 55008=
201009251053 METAR KSEA 251053Z 13008KT 10SM FEW120 13/09 A3009 RMK AO2 SLP194 T01330094=
201009250953 METAR KSEA 250953Z 13008KT 10SM CLR 14/10 A3010 RMK AO2 SLP198 T01390100=
201009250853 METAR KSEA 250853Z 13005KT 10SM CLR 14/11 A3011 RMK AO2 SLP202 T01390106 57004=
201009250753 METAR KSEA 250753Z 15006KT 10SM FEW070 14/11 A3012 RMK AO2 SLP204 T01390111 401940117=
201009250653 METAR KSEA 250653Z 14004KT 10SM FEW070 14/12 A3012 RMK AO2 SLP203 T01440122=
201009250553 METAR KSEA 250553Z 00000KT 10SM FEW070 16/12 A3012 RMK AO2 SLP205 T01560117 10194 20139 57005=
201009250453 METAR KSEA 250453Z 13003KT 10SM FEW250 15/12 A3012 RMK AO2 SLP206 T01500117=
201009250353 METAR KSEA 250353Z 00000KT 10SM FEW070 SCT250 15/12 A3013 RMK AO2 SLP210 T01500122=
201009250253 METAR KSEA 250253Z 00000KT 10SM FEW070 SCT250 17/12 A3014 RMK AO2 SLP210 T01670117 55006=
201009250153 METAR KSEA 250153Z 00000KT 10SM FEW060 SCT120 BKN250 18/12 A3013 RMK AO2 SLP210 T01830117=
201009250053 METAR KSEA 250053Z 22004KT 10SM BKN060 BKN120 BKN200 19/12 A3015 RMK AO2 SLP214 T01890117=
201009242353 METAR KSEA 242353Z 00000KT 10SM FEW020 BKN060 BKN120 19/11 A3015 RMK AO2 SLP216 T01890111 10189 20156 56007=
201009242253 METAR KSEA 242253Z 24004KT 10SM FEW030 BKN060 BKN120 18/11 A3016 RMK AO2 SLP217 T01830111=
201009242153 METAR KSEA 242153Z VRB04KT 10SM SCT045 BKN075 BKN120 19/11 A3016 RMK AO2 SLP219 T01890106=
201009242053 METAR KSEA 242053Z 21004KT 10SM BKN049 BKN080 18/09 A3017 RMK AO2 SLP223 T01780094 51008=
201009241953 METAR KSEA 241953Z 00000KT 10SM BKN043 OVC085 17/12 A3017 RMK AO2 SLP222 T01670117=
201009241853 METAR KSEA 241853Z 15004KT 10SM BKN085 OVC120 16/11 A3016 RMK AO2 SLP220 T01610111 $=
201009241753 METAR KSEA 241753Z 15003KT 10SM OVC095 16/10 A3015 RMK AO2 SLP215 T01560100 10156 20117 53003=
201009241653 METAR KSEA 241653Z 13005KT 10SM OVC095 14/10 A3013 RMK AO2 SLP210 T01390100=
201009241553 METAR KSEA 241553Z 13006KT 10SM BKN090 OVC120 13/10 A3013 RMK AO2 SLP209 T01280100=
201009241453 METAR KSEA 241453Z 14007KT 10SM OVC120 13/10 A3014 RMK AO2 SLP213 T01280100 52014=
201009241353 METAR KSEA 241353Z 15006KT 10SM FEW035 OVC120 12/10 A3013 RMK AO2 SLP208 T01220100=
201009241253 METAR KSEA 241253Z 17004KT 10SM SCT035 BKN120 12/11 A3011 RMK AO2 SLP203 T01220106=
201009241153 METAR KSEA 241153Z 16005KT 10SM SCT029 BKN120 12/11 A3010 RMK AO2 SLP199 60003 70026 T01220106 10133 20117 53011=
201009241053 METAR KSEA 241053Z 00000KT 10SM BKN023 BKN120 12/11 A3008 RMK AO2 SLP193 T01170106=
201009240953 METAR KSEA 240953Z 12004KT 10SM BKN110 13/11 A3007 RMK AO2 SLP187 T01280106=
201009240853 METAR KSEA 240853Z 15004KT 10SM SCT027 OVC120 12/11 A3007 RMK AO2 SLP188 60003 T01220111 50001=
201009240753 METAR KSEA 240753Z 00000KT 10SM BKN020 BKN028 OVC035 13/11 A3008 RMK AO2 RAE47 SLP192 P0003 T01330111 401440111=
201009240706 SPECI KSEA 240706Z 19006KT 10SM -RA SCT020 BKN028 OVC048 13/11 A3007 RMK AO2 P0000=
201009240706 SPECI KSEA 240706Z 19006KT 10SM -RA SCT020 BKN028 OVC048 13/11 A3007 RMK AO2 P0000=
201009240653 METAR KSEA 240653Z 19007KT 10SM -RA FEW020 BKN030 OVC060 13/11 A3007 RMK AO2 RAE28B47 SLP189 P0000 T01330106=
201009240553 METAR KSEA 240553Z 17009KT 10SM -RA SCT027 BKN047 OVC070 13/11 A3006 RMK AO2 RAE19B37 SLP187 P0000 60000 T01280106 10139 20128 51017=
201009240529 SPECI KSEA 240529Z 18006KT 10SM SCT027 OVC075 13/10 A3006 RMK AO2 RAE19 P0000=
201009240529 SPECI KSEA 240529Z 18006KT 10SM SCT027 OVC075 13/10 A3006 RMK AO2 RAE19 P0000=
201009240453 METAR KSEA 240453Z 17008KT 10SM -RA BKN029 BKN036 OVC085 13/10 A3004 RMK AO2 RAB30 SLP180 P0000 T01330100=
201009240353 METAR KSEA 240353Z 18008KT 10SM FEW030 BKN085 OVC110 14/10 A3003 RMK AO2 SLP177 T01390100=
201009240253 METAR KSEA 240253Z 18009KT 10SM FEW033 SCT045 BKN055 BKN200 13/10 A3001 RMK AO2 SLP169 T01330100 51010=
201009240153 METAR KSEA 240153Z 20008KT 10SM FEW020 BKN044 OVC200 14/11 A3001 RMK AO2 SLP167 T01390106=
201009240127 SPECI KSEA 240127Z 19009KT 10SM SCT020 BKN046 BKN200 14/11 A3000 RMK AO2=
201009240127 SPECI KSEA 240127Z 19009KT 10SM SCT020 BKN046 BKN200 14/11 A3000 RMK AO2=
201009240053 METAR KSEA 240053Z 19009KT 10SM BKN018 BKN032 BKN200 14/11 A2999 RMK AO2 SLP162 T01390106=
201009232353 METAR KSEA 232353Z 18008KT 10SM FEW009 SCT032 BKN047 BKN200 14/11 A2998 RMK AO2 SLP159 60013 T01390111 10139 20111 51007=
201009232253 METAR KSEA 232253Z 20009KT 10SM FEW007 SCT035 SCT090 OVC150 13/11 A2998 RMK AO2 SLP157 T01330111=
201009232153 METAR KSEA 232153Z 20006KT 10SM FEW005 SCT020 OVC030 12/11 A2997 RMK AO2 SLP156 T01220111=
201009232117 SPECI KSEA 232117Z 19004KT 6SM BR SCT003 SCT015 BKN030 12/11 A2997 RMK AO2=
201009232117 SPECI KSEA 232117Z 19004KT 6SM BR SCT003 SCT015 BKN030 12/11 A2997 RMK AO2=
201009232053 METAR KSEA 232053Z VRB03KT 2SM BR BKN006 BKN010 OVC030 12/11 A2996 RMK AO2 SFC VIS 6 RAE36 SLP151 P0001 60013 T01220111 52008=
201009232029 SPECI KSEA 232029Z 18003KT 2SM -RA BR BKN008 BKN015 OVC030 12/11 A2996 RMK AO2 SFC VIS 3 P0001=
201009232029 SPECI KSEA 232029Z 18003KT 2SM -RA BR BKN008 BKN015 OVC030 12/11 A2996 RMK AO2 SFC VIS 3 P0001=
201009231953 METAR KSEA 231953Z 00000KT 2SM -RA BR FEW005 BKN020 OVC030 12/11 A2995 RMK AO2 SFC VIS 6 SLP149 P0003 T01220111=
201009231853 METAR KSEA 231853Z 23005KT 2SM -RA BR FEW005 SCT015 OVC020 11/10 A2994 RMK AO2 SFC VIS 3 SLP145 P0009 T01110100=
201009231837 SPECI KSEA 231837Z 25005KT 1 3/4SM R16L/5000VP6000FT RA BR BKN020 OVC040 12/10 A2994 RMK AO2 TWR VIS 2 P0008=
201009231837 SPECI KSEA 231837Z 25005KT 1 3/4SM R16L/5000VP6000FT RA BR BKN020 OVC040 12/10 A2994 RMK AO2 TWR VIS 2 P0008=
201009231826 SPECI KSEA 231826Z 22003KT 2 1/2SM R16L/5500VP6000FT RA BR BKN025 OVC040 12/10 A2993 RMK AO2 TWR VIS 3 P0006=
201009231826 SPECI KSEA 231826Z 22003KT 2 1/2SM R16L/5500VP6000FT RA BR BKN025 OVC040 12/10 A2993 RMK AO2 TWR VIS 3 P0006=
201009231753 METAR KSEA 231753Z 18003KT 4SM RA BR SCT025 BKN040 OVC050 12/10 A2993 RMK AO2 SLP143 P0010 60010 T01220100 10128 20117 53016=
201009231653 METAR KSEA 231653Z 17004KT 10SM -RA FEW020 BKN040 OVC060 13/09 A2992 RMK AO2 RAB34 SLP137 P0000 T01280089=
201009231553 METAR KSEA 231553Z 12005KT 10SM FEW015 BKN040 OVC070 13/08 A2990 RMK AO2 SLP129 T01280083 $=
201009231453 METAR KSEA 231453Z 15006KT 10SM FEW015 BKN050 BKN075 12/08 A2989 RMK AO2 SLP126 60000 T01220083 58001 $=
201009231353 METAR KSEA 231353Z 19007KT 10SM FEW015 BKN050 OVC075 12/08 A2989 RMK AO2 SLP126 T01220083 $=
201009231253 METAR KSEA 231253Z 18006KT 10SM FEW050 OVC065 12/08 A2989 RMK AO2 RAE44 SLP128 P0000 T01220083 $=
201009231153 METAR KSEA 231153Z 18005KT 10SM -RA FEW060 OVC095 12/09 A2989 RMK AO2 RAB53 SLP127 P0000 60000 T01220094 10144 20117 50008 $=
201009231053 METAR KSEA 231053Z 22006KT 10SM BKN065 OVC120 12/10 A2989 RMK AO2 SLP128 T01220100 $=
201009230953 METAR KSEA 230953Z 21004KT 10SM SCT060 OVC070 12/09 A2988 RMK AO2 SLP123 T01220094 $=
201009230853 METAR KSEA 230853Z 18005KT 10SM FEW050 SCT080 12/09 A2986 RMK AO2 SLP118 T01170089 53005 $=
201009230753 METAR KSEA 230753Z 19006KT 10SM BKN085 13/09 A2986 RMK AO2 SLP116 T01280089 401890089 $=
201009230653 METAR KSEA 230653Z 20009KT 10SM SCT070 BKN085 13/09 A2985 RMK AO2 SLP115 T01330094 $=
201009230553 METAR KSEA 230553Z 21007KT 10SM OVC080 14/10 A2985 RMK AO2 SLP113 T01440100 10178 20144 53007 $=
201009230453 METAR KSEA 230453Z 21004KT 10SM FEW036 BKN060 OVC090 16/09 A2984 RMK AO2 SLP111 T01560094 $=
201009230353 METAR KSEA 230353Z 20004KT 10SM OVC085 16/09 A2983 RMK AO2 SLP108 T01610089 $=
201009230253 METAR KSEA 230253Z 20004KT 10SM OVC070 16/09 A2983 RMK AO2 SLP106 T01610089 53002 $=
201009230153 METAR KSEA 230153Z 17003KT 10SM BKN075 16/10 A2982 RMK AO2 SLP104 T01610100 $=
201009230053 METAR KSEA 230053Z COR 22003KT 10SM FEW030 BKN080 17/10 A2982 RMK AO2 SLP104 T01720100 $=
201009222353 METAR KSEA 222353Z 22006KT 10SM FEW030 BKN090 18/10 A2982 RMK AO2 SLP105 T01780100 10189 20150 $=
201009222253 METAR KSEA 222253Z 22005KT 10SM FEW025 BKN090 18/09 A2982 RMK AO2 SLP104 T01830089=
201009222153 METAR KSEA 222153Z VRB04KT 10SM FEW025 BKN085 18/08 A2983 RMK AO2 SLP105 T01780078=
201009222053 METAR KSEA 222053Z 31005KT 10SM FEW025 SCT095 17/09 A2984 RMK AO2 SLP109 T01720089 56009=
201009221953 METAR KSEA 221953Z 28007KT 10SM FEW020 SCT085 17/10 A2984 RMK AO2 SLP111 T01670100 $=
201009221853 METAR KSEA 221853Z 36003KT 10SM FEW020 SCT085 17/11 A2985 RMK AO2 SLP113 T01670106 $=
201009221753 METAR KSEA 221753Z 03004KT 10SM SCT010 BKN075 14/10 A2986 RMK AO2 SLP118 T01440100 10144 20089 58002=
201009221710 SPECI KSEA 221710Z 00000KT 3SM SCT004 BKN075 13/10 A2986 RMK AO2 SFC VIS 8=
201009221710 SPECI KSEA 221710Z 00000KT 3SM SCT004 BKN075 13/10 A2986 RMK AO2 SFC VIS 8=
201009221653 METAR KSEA 221653Z 01003KT 1 1/2SM BR BKN002 OVC075 12/10 A2987 RMK AO2 SFC VIS 4 SLP120 T01170100=
201009221553 METAR KSEA 221553Z 02003KT 1 1/2SM BR BKN002 OVC075 11/10 A2987 RMK AO2 SFC VIS 4 SLP119 T01110100=
201009221551 SPECI KSEA 221551Z 00000KT 1 1/2SM BR BKN002 OVC075 11/10 A2987 RMK AO2 SFC VIS 4=
201009221551 SPECI KSEA 221551Z 00000KT 1 1/2SM BR BKN002 OVC075 11/10 A2987 RMK AO2 SFC VIS 4=
201009221453 METAR KSEA 221453Z 36004KT 1/4SM BR BKN002 BKN075 11/09 A2987 RMK AO2 SFC VIS 3 SLP120 T01060094 53004=
201009221422 SPECI KSEA 221422Z 02003KT 3/4SM BR BKN002 BKN075 11/09 A2986 RMK AO2 SFC VIS 5=
201009221422 SPECI KSEA 221422Z 02003KT 3/4SM BR BKN002 BKN075 11/09 A2986 RMK AO2 SFC VIS 5=
201009221409 SPECI KSEA 221409Z 00000KT 1 1/2SM BR SCT004 BKN075 11/09 A2986 RMK AO2 SFC VIS 6=
201009221409 SPECI KSEA 221409Z 00000KT 1 1/2SM BR SCT004 BKN075 11/09 A2986 RMK AO2 SFC VIS 6=
201009221401 SPECI KSEA 221401Z 05003KT 2 1/2SM BR FEW004 BKN080 10/09 A2986 RMK AO2 SFC VIS 6=
201009221401 SPECI KSEA 221401Z 05003KT 2 1/2SM BR FEW004 BKN080 10/09 A2986 RMK AO2 SFC VIS 6=
201009221353 METAR KSEA 221353Z 00000KT 8SM FEW004 BKN080 10/09 A2986 RMK AO2 SLP117 T01000089=
201009221317 SPECI KSEA 221317Z 00000KT 9SM FEW008 BKN150 10/08 A2986 RMK AO2=
201009221317 SPECI KSEA 221317Z 00000KT 9SM FEW008 BKN150 10/08 A2986 RMK AO2=
201009221253 METAR KSEA 221253Z 00000KT 10SM SCT150 09/08 A2986 RMK AO2 SLP116 T00940078=
201009221153 METAR KSEA 221153Z 04004KT 10SM CLR 10/08 A2986 RMK AO2 SLP115 T01000083 10128 20100 55000=
201009221053 METAR KSEA 221053Z 05004KT 10SM CLR 11/08 A2985 RMK AO2 SLP115 T01060083=
201009220953 METAR KSEA 220953Z 02005KT 10SM CLR 11/08 A2985 RMK AO2 SLP115 T01060078=
201009220853 METAR KSEA 220853Z 36004KT 10SM CLR 11/08 A2986 RMK AO2 SLP116 T01060078 56002=
201009220753 METAR KSEA 220753Z 33003KT 10SM CLR 11/08 A2986 RMK AO2 SLP116 T01110078 401830100=
201009220653 METAR KSEA 220653Z 01005KT 10SM FEW080 12/08 A2986 RMK AO2 SLP116 T01220083=
201009220553 METAR KSEA 220553Z 01008KT 10SM FEW080 13/09 A2986 RMK AO2 SLP118 T01280089 10183 20122 50001=
201009220453 METAR KSEA 220453Z 35005KT 10SM BKN085 12/09 A2987 RMK AO2 SLP121 T01220089=
201009220353 METAR KSEA 220353Z 35007KT 10SM SCT085 13/09 A2987 RMK AO2 SLP120 T01330094=
201009220253 METAR KSEA 220253Z 35006KT 10SM FEW030 SCT080 14/09 A2986 RMK AO2 SLP117 T01390089 53003=
201009220153 METAR KSEA 220153Z 35008KT 10SM FEW030 SCT075 16/09 A2985 RMK AO2 SLP114 T01560089=
201009220053 METAR KSEA 220053Z 33009KT 10SM FEW030 SCT090 SCT250 17/09 A2984 RMK AO2 SLP110 T01720089=
201009212353 METAR KSEA 212353Z 35008KT 10SM FEW030 SCT090 SCT250 18/08 A2985 RMK AO2 SLP113 T01830078 10183 20133 56013=
201009212253 METAR KSEA 212253Z 36009KT 10SM FEW030 SCT250 18/08 A2986 RMK AO2 SLP117 T01830078=
201009212153 METAR KSEA 212153Z 29009KT 10SM FEW030 SCT065 SCT100 17/08 A2987 RMK AO2 SLP120 T01720083=
201009212053 METAR KSEA 212053Z 31007KT 10SM SCT028 SCT065 BKN100 17/10 A2989 RMK AO2 SLP126 T01670100 58008=
201009211953 METAR KSEA 211953Z 29006KT 10SM SCT021 BKN035 BKN060 17/10 A2990 RMK AO2 SLP130 T01670100=
201009211903 SPECI KSEA 211903Z 32008KT 10SM BKN021 BKN030 OVC050 15/09 A2991 RMK AO2=
201009211903 SPECI KSEA 211903Z 32008KT 10SM BKN021 BKN030 OVC050 15/09 A2991 RMK AO2=
201009211853 METAR KSEA 211853Z 25004KT 10SM SCT022 BKN030 BKN055 15/10 A2990 RMK AO2 SLP133 T01500100=
201009211820 SPECI KSEA 211820Z VRB04KT 10SM SCT022 BKN030 BKN055 15/10 A2991 RMK AO2=
201009211820 SPECI KSEA 211820Z VRB04KT 10SM SCT022 BKN030 BKN055 15/10 A2991 RMK AO2=
201009211753 METAR KSEA 211753Z 26004KT 10SM SCT015 BKN026 BKN055 14/10 A2991 RMK AO2 SLP135 T01390100 10139 20111 58000=
201009211653 METAR KSEA 211653Z 29005KT 10SM FEW006 BKN018 BKN055 13/11 A2992 RMK AO2 SLP137 T01330106=
201009211625 SPECI KSEA 211625Z 28004KT 9SM FEW004 BKN018 BKN055 12/11 A2992 RMK AO2 VIS SW-NW 3=
201009211625 SPECI KSEA 211625Z 28004KT 9SM FEW004 BKN018 BKN055 12/11 A2992 RMK AO2 VIS SW-NW 3=
201009211609 SPECI KSEA 211609Z 31005KT 7SM FEW003 SCT013 BKN055 12/10 A2992 RMK AO2 VIS SW-NW 2=
201009211609 SPECI KSEA 211609Z 31005KT 7SM FEW003 SCT013 BKN055 12/10 A2992 RMK AO2 VIS SW-NW 2=
201009211553 METAR KSEA 211553Z 29004KT 10SM FEW002 BKN013 BKN055 12/11 A2992 RMK AO2 SLP137 VIS SW-NW 2 T01220106=
201009211453 METAR KSEA 211453Z 00000KT 10SM SCT019 BKN050 BKN090 13/09 A2991 RMK AO2 SLP136 T01280089 51005=
201009211353 METAR KSEA 211353Z COR 00000KT 6SM BR FEW001 BKN017 BKN025 12/09 A2991 RMK AO2 SLP135 T01220094=
201009211323 SPECI KSEA 211323Z 00000KT 3SM BR SCT001 BKN013 BKN025 12/10 A2991 RMK AO2=
201009211323 SPECI KSEA 211323Z 00000KT 3SM BR SCT001 BKN013 BKN025 12/10 A2991 RMK AO2=
201009211301 SPECI KSEA 211301Z 34003KT 1 1/4SM BCFG BKN001 BKN005 OVC013 11/10 A2991 RMK AO2=
201009211301 SPECI KSEA 211301Z 34003KT 1 1/4SM BCFG BKN001 BKN005 OVC013 11/10 A2991 RMK AO2=
201009211253 METAR KSEA 211253Z 00000KT 7SM SCT001 OVC013 11/11 A2991 RMK AO2 SLP133 T01110106=
201009211235 SPECI KSEA 211235Z 00000KT 10SM FEW004 OVC011 11/10 A2990 RMK AO2=
201009211235 SPECI KSEA 211235Z 00000KT 10SM FEW004 OVC011 11/10 A2990 RMK AO2=
201009211153 METAR KSEA 211153Z 33003KT 10SM BKN007 11/09 A2990 RMK AO2 SLP131 70002 T01060094 10133 20100 56004=
201009211141 SPECI KSEA 211141Z 33004KT 10SM BKN007 10/09 A2990 RMK AO2=
201009211141 SPECI KSEA 211141Z 33004KT 10SM BKN007 10/09 A2990 RMK AO2=
201009211135 SPECI KSEA 211135Z 00000KT 10SM FEW007 SCT015 10/09 A2990 RMK AO2=
201009211135 SPECI KSEA 211135Z 00000KT 10SM FEW007 SCT015 10/09 A2990 RMK AO2=
201009211053 METAR KSEA 211053Z 15004KT 10SM CLR 11/09 A2990 RMK AO2 SLP132 T01110089=
201009210953 METAR KSEA 210953Z 00000KT 10SM FEW026 12/10 A2990=
201009210930 SPECI KSEA 210930Z 00000KT 10SM SCT026 12/10 A2990 RMK AO2=
201009210930 SPECI KSEA 210930Z 00000KT 10SM SCT026 12/10 A2990 RMK AO2=
201009210853 METAR KSEA 210853Z 00000KT 10SM OVC021 13/11 A2991 RMK AO2 SLP134 T01280106 51003=
201009210753 METAR KSEA 210753Z 19004KT 10SM FEW013 BKN019 12/10 A2990 RMK AO2 SLP131 T01220100 401780122=
201009210653 METAR KSEA 210653Z 18005KT 10SM FEW013 BKN024 BKN080 13/10 A2991 RMK AO2 SLP133 T01280100=
201009210553 METAR KSEA 210553Z 17006KT 10SM BKN018 OVC025 13/10 A2990 RMK AO2 SLP130 T01330100 10161 20128 50004=
201009210453 METAR KSEA 210453Z 16006KT 10SM BKN018 OVC023 13/11 A2990 RMK AO2 SLP132 T01330106=
201009210353 METAR KSEA 210353Z 16008KT 10SM BKN016 OVC070 13/11 A2990 RMK AO2 SLP131 T01330106=
201009210325 SPECI KSEA 210325Z 17009KT 10SM BKN018 OVC075 13/11 A2989 RMK AO2=
201009210325 SPECI KSEA 210325Z 17009KT 10SM BKN018 OVC075 13/11 A2989 RMK AO2=
201009210253 METAR KSEA 210253Z 17008KT 10SM FEW017 BKN090 13/10 A2989 RMK AO2 SLP127 T01330100 53002=
201009210153 METAR KSEA 210153Z 21011KT 10SM FEW028 BKN090 14/09 A2988 RMK AO2 SLP125 T01390094=
201009210053 METAR KSEA 210053Z 20012KT 10SM FEW028 BKN075 14/09 A2988 RMK AO2 SLP122 T01390094=
201009202353 METAR KSEA 202353Z 21015G22KT 10SM BKN031 BKN080 16/08 A2988 RMK AO2 SLP124 T01610083 10178 20150 51002=
201009202253 METAR KSEA 202253Z 21012KT 10SM SCT026 BKN060 16/10 A2988 RMK AO2 SLP124 T01610100=
201009202153 METAR KSEA 202153Z 21013G19KT 10SM SCT025 SCT065 BKN095 17/11 A2988=
201009202053 METAR KSEA 202053Z 20011G19KT 10SM BKN030 BKN045 BKN095 16/11 A2987 RMK AO2 SLP121 T01610111 51011=
201009201953 METAR KSEA 201953Z 20012KT 10SM SCT027 BKN055 BKN095 17/11 A2987 RMK AO2 SLP120 T01670111=
201009201853 METAR KSEA 201853Z 21015G24KT 10SM SCT020 SCT075 BKN095 17/12 A2987=
201009201753 METAR KSEA 201753Z 20013G19KT 10SM FEW012 SCT035 BKN075 15/12 A2984 RMK AO2 RAE01 SLP111 P0000 60002 T01500117 10150 20139 51014=
201009201715 SPECI KSEA 201715Z 20016KT 10SM FEW009 BKN012 BKN035 14/13 A2983 RMK AO2 RAE01 P0000=
201009201715 SPECI KSEA 201715Z 20016KT 10SM FEW009 BKN012 BKN035 14/13 A2983 RMK AO2 RAE01 P0000=
201009201653 METAR KSEA 201653Z 21016G24KT 10SM -RA BKN012 BKN035 BKN075 14/13 A2983 RMK AO2 RAB52 SLP106 P0000 T01440128=
201009201553 METAR KSEA 201553Z 20010G17KT 10SM FEW008 BKN019 BKN034 15/13 A2982 RMK AO2 SLP102 T01500128=
201009201521 SPECI KSEA 201521Z 20009KT 10SM FEW007 BKN018 OVC028 14/13 A2981 RMK AO2=
201009201521 SPECI KSEA 201521Z 20009KT 10SM FEW007 BKN018 OVC028 14/13 A2981 RMK AO2=
201009201508 SPECI KSEA 201508Z 20010KT 10SM BKN010 OVC017 14/13 A2981 RMK AO2=
201009201508 SPECI KSEA 201508Z 20010KT 10SM BKN010 OVC017 14/13 A2981 RMK AO2=
201009201453 METAR KSEA 201453Z 19012G19KT 10SM SCT010 OVC019 14/13 A2980 RMK AO2 RAB03E17 SLP097 P0001 60002 T01440133 53008=
201009201434 SPECI KSEA 201434Z 20012KT 10SM SCT010 OVC017 14/13 A2980 RMK AO2 RAB03E17 P0001=
201009201434 SPECI KSEA 201434Z 20012KT 10SM SCT010 OVC017 14/13 A2980 RMK AO2 RAB03E17 P0001=
201009201353 METAR KSEA 201353Z 18012G18KT 10SM BKN010 OVC018 14/13 A2979 RMK AO2 RAB1255E16B34E48 SLP092 P0001 T01440133=
201009201329 SPECI KSEA 201329Z 19012KT 10SM FEW008 OVC011 14/13 A2979 RMK AO2 RAB1255E16 P0000=
201009201329 SPECI KSEA 201329Z 19012KT 10SM FEW008 OVC011 14/13 A2979 RMK AO2 RAB1255E16 P0000=
201009201308 SPECI KSEA 201308Z 18014G21KT 9SM -RA BKN013 OVC021 14/13 A2978 RMK AO2 RAB1255 P0000 $=
201009201308 SPECI KSEA 201308Z 18014G21KT 9SM -RA BKN013 OVC021 14/13 A2978 RMK AO2 RAB1255 P0000 $=
201009201253 METAR KSEA 201253Z 19012KT 10SM FEW009 BKN015 OVC021 14/13 A2978 RMK AO2 SLP091 T01440128 $=
201009201153 METAR KSEA 201153Z 18013G18KT 10SM SCT014 BKN025 OVC031 14/13 A2978 RMK AO2 SLP088 60001 70016 T01440128 10150 20144 58000 $=
201009201101 SPECI KSEA 201101Z 18009KT 10SM FEW009 BKN019 OVC027 14/13 A2978 RMK AO2 $=
201009201101 SPECI KSEA 201101Z 18009KT 10SM FEW009 BKN019 OVC027 14/13 A2978 RMK AO2 $=
201009201053 METAR KSEA 201053Z 19008KT 10SM OVC019 14/13 A2978 RMK AO2 SLP090 T01440128 $=
201009200953 METAR KSEA 200953Z 18009KT 10SM BKN021 OVC027 14/13 A2978 RMK AO2 SLP089 T01440128 $=
201009200853 METAR KSEA 200853Z 16007KT 10SM OVC021 14/13 A2978 RMK AO2 RAB0754E18 SLP088 P0001 60001 T01440133 55000 $=
201009200753 METAR KSEA 200753Z 19004KT 6SM BR BKN026 OVC034 15/13 A2977 RMK AO2 RAB02E12 SLP087 P0000 T01500133 401890144 $=
201009200653 METAR KSEA 200653Z 20003KT 10SM SCT037 BKN045 OVC060 15/13 A2977 RMK AO2 RAE01 SLP087 P0000 T01500133 $=
201009200553 METAR KSEA 200553Z 18004KT 9SM -RA SCT034 OVC044 15/13 A2978 RMK AO2 RAB45 SLP089 P0000 60000 T01500128 10183 20144 58002 $=
201009200453 METAR KSEA 200453Z 18003KT 10SM BKN055 OVC090 14/12 A2978 RMK AO2 SLP089 T01440122 $=
201009200353 METAR KSEA 200353Z COR 17005KT 10SM FEW055 BKN095 15/12 A2979 RMK AO2 SLP092 T01500122 $=
201009200253 METAR KSEA 200253Z 23004KT 10SM FEW040 BKN110 15/12 A2978 RMK AO2 SLP091 T01500122 53006 $=
201009200153 METAR KSEA 200153Z 21008KT 10SM SCT055 BKN070 BKN200 16/12 A2977 RMK AO2 SLP086 T01610122 $=
201009200053 METAR KSEA 200053Z 20009KT 10SM FEW039 SCT075 BKN200 17/12 A2977 RMK AO2 SLP085 T01670122 $=
201009192353 METAR KSEA 192353Z 23010KT 10SM FEW029 BKN055 18/13 A2977 RMK AO2 SLP084 60002 T01830128 10189 20161 53004 $=
201009192253 METAR KSEA 192253Z 23011KT 10SM FEW018 SCT041 BKN120 18/13 A2976 RMK AO2 RAB2155E12 SLP082 P0002 T01780128 $=
201009192153 METAR KSEA 192153Z 25014G18KT 10SM FEW018 SCT038 BKN046 18/13 A2975 RMK AO2 SLP080 T01780133 $=
201009192053 METAR KSEA 192053Z 18009KT 10SM FEW013 BKN040 BKN090 BKN200 18/14 A2975 RMK AO2 SLP079 60000 T01830144 53007 $=
201009191953 METAR KSEA 191953Z 20009G16KT 10SM SCT034 BKN047 BKN070 17/14 A2975 RMK AO2 SLP078 T01670144 $=
201009191853 METAR KSEA 191853Z 20008KT 9SM FEW012 BKN032 BKN047 16/14 A2973 RMK AO2 RAE1757B28E40 SLP072 P0000 T01610144 $=
201009191756 SPECI KSEA 191756Z 21009KT 10SM -RA FEW004 BKN027 OVC043 16/15 A2973 RMK AO2 P0000 $=
201009191756 SPECI KSEA 191756Z 21009KT 10SM -RA FEW004 BKN027 OVC043 16/15 A2973 RMK AO2 P0000 $=
201009191753 METAR KSEA 191753Z 21007KT 7SM -RA FEW004 BKN027 OVC043 16/15 A2973 RMK AO2 SLP071 P0013 60013 T01610150 10167 20150 53006 $=
201009191731 SPECI KSEA 191731Z 19010G15KT 3SM R16L/5500VP6000FT RA BR BKN006 BKN021 OVC034 16/14 A2972 RMK AO2 P0007 $=
201009191731 SPECI KSEA 191731Z 19010G15KT 3SM R16L/5500VP6000FT RA BR BKN006 BKN021 OVC034 16/14 A2972 RMK AO2 P0007 $=
201009191653 METAR KSEA 191653Z 19007KT 9SM -RA BKN008 BKN034 OVC044 16/14 A2972 RMK AO2 RAB47 SLP069 P0000 T01610144 $=
201009191553 METAR KSEA 191553Z 00000KT 10SM FEW010 BKN044 OVC090 16/15 A2971 RMK AO2 SLP066 T01610150 $=
201009191453 METAR KSEA 191453Z VRB03KT 10SM FEW020 BKN046 OVC090 16/15 A2971 RMK AO2 SLP065 T01610150 53001 $=
201009191353 METAR KSEA 191353Z 14006KT 10SM FEW001 SCT020 BKN048 16/15 A2970=
201009191253 METAR KSEA 191253Z 14004KT 7SM BCFG FEW001 SCT015 BKN050 16/16 A2970 RMK AO2 SLP061 VIS E-S 1 1/4 T01610156 $=
201009191153 METAR KSEA 191153Z 19004KT 10SM FEW006 BKN060 16/14 A2970 RMK AO2 SLP063 60045 70066 T01560144 10178 20156 58008 $=
201009191053 METAR KSEA 191053Z 20005KT 6SM BR SCT005 BKN030 OVC080 16/16 A2972 RMK AO2 RAB0957E44 SLP067 P0008 T01610156 $=
201009191030 SPECI KSEA 191030Z 21007KT 1SM R16L/P6000FT -RA BCFG BR SCT001 BKN003 OVC009 17/16 A2972 RMK AO2 RAB0957 VIS E-S 1/2 P0007 $=
201009191030 SPECI KSEA 191030Z 21007KT 1SM R16L/P6000FT -RA BCFG BR SCT001 BKN003 OVC009 17/16 A2972 RMK AO2 RAB0957 VIS E-S 1/2 P0007 $=
201009191019 SPECI KSEA 191019Z 20004KT 4SM -RA BCFG BR SCT001 BKN003 OVC009 17/16 A2973 RMK AO2 RAB0957 VIS S 1 P0007 $=
201009191019 SPECI KSEA 191019Z 20004KT 4SM -RA BCFG BR SCT001 BKN003 OVC009 17/16 A2973 RMK AO2 RAB0957 VIS S 1 P0007 $=
201009191004 SPECI KSEA 191004Z 21005KT 2 1/2SM -RA BCFG BR SCT001 BKN003 OVC009 17/16 A2973 RMK AO2 RAB0957 VIS E-S 1 P0006 $=
201009191004 SPECI KSEA 191004Z 21005KT 2 1/2SM -RA BCFG BR SCT001 BKN003 OVC009 17/16 A2973 RMK AO2 RAB0957 VIS E-S 1 P0006 $=
201009190953 METAR KSEA 190953Z 19004KT 3SM BCFG BR FEW001 BKN005 OVC015 17/16 A2973 RMK AO2 RAE52 SLP071 VIS S 1 P0010 T01670156 $=
201009190941 SPECI KSEA 190941Z 22004KT 1 1/4SM RA BR FEW001 BKN005 OVC015 17/16 A2973 RMK AO2 VIS E-S 1 1/4 P0010 $=
201009190941 SPECI KSEA 190941Z 22004KT 1 1/4SM RA BR FEW001 BKN005 OVC015 17/16 A2973 RMK AO2 VIS E-S 1 1/4 P0010 $=
201009190911 SPECI KSEA 190911Z 00000KT 5SM -RA BCFG BR FEW001 SCT005 OVC014 17/16 A2973 RMK AO2 VIS E-S 1 1/4 P0000 $=
201009190911 SPECI KSEA 190911Z 00000KT 5SM -RA BCFG BR FEW001 SCT005 OVC014 17/16 A2973 RMK AO2 VIS E-S 1 1/4 P0000 $=
201009190853 METAR KSEA 190853Z 15004KT 5SM -RA BR SCT003 BKN023 OVC030 17/16 A2973 RMK AO2 SLP071 P0002 60027 T01670161 56010 $=
201009190753 METAR KSEA 190753Z 19004KT 5SM -RA BR SCT005 BKN023 OVC050 17/16 A2974 RMK AO2 SLP073 P0018 T01670161 402220150 $=
201009190746 SPECI KSEA 190746Z 18004KT 5SM -RA BR SCT005 BKN023 OVC050 17/16 A2973 RMK AO2 P0017 $=
201009190746 SPECI KSEA 190746Z 18004KT 5SM -RA BR SCT005 BKN023 OVC050 17/16 A2973 RMK AO2 P0017 $=
201009190710 SPECI KSEA 190710Z 19008KT 1 1/2SM +RA BR FEW009 BKN020 OVC030 17/16 A2975 RMK AO2 P0008 $=
201009190710 SPECI KSEA 190710Z 19008KT 1 1/2SM +RA BR FEW009 BKN020 OVC030 17/16 A2975 RMK AO2 P0008 $=
201009190653 METAR KSEA 190653Z 18005KT 5SM RA BR FEW020 BKN030 OVC045 17/17 A2975 RMK AO2 SLP078 P0007 T01720167 $=
201009190619 SPECI KSEA 190619Z 15005KT 9SM -RA FEW020 BKN028 OVC060 18/16 A2975 RMK AO2 P0002 $=
201009190619 SPECI KSEA 190619Z 15005KT 9SM -RA FEW020 BKN028 OVC060 18/16 A2975 RMK AO2 P0002 $=
201009190553 METAR KSEA 190553Z 16004KT 10SM -RA FEW020 BKN040 OVC055 18/17 A2976 RMK AO2 SLP082 P0001 60021 T01780167 10200 20172 56006 $=
201009190453 METAR KSEA 190453Z 16008KT 10SM -RA FEW049 OVC070 18/16 A2976 RMK AO2 SLP082 P0006 T01780161 $=
201009190353 METAR KSEA 190353Z 13008KT 10SM -RA FEW036 BKN048 OVC060 18/17 A2978 RMK AO2 SLP088 P0005 T01780172 $=
201009190253 METAR KSEA 190253Z 12007KT 10SM -RA FEW040 OVC050 18/17 A2978 RMK AO2 RAE0157B32 SLP089 P0001 60009 T01830167 58003 $=
201009190153 METAR KSEA 190153Z 20004KT 10SM -RA FEW028 BKN037 OVC047 18/16 A2979 RMK AO2 SLP093 P0007 T01780161 $=
201009190053 METAR KSEA 190053Z 21003KT 8SM -RA OVC080 19/17 A2979 RMK AO2 RAE12B41 SLP092 P0001 T01890167 $=
201009182353 METAR KSEA 182353Z VRB03KT 10SM -RA FEW018 BKN080 20/17 A2979 RMK AO2 RAB2258 SLP091 P0000 60000 T02000167 10222 20189 56016 $=
201009182253 METAR KSEA 182253Z 31005KT 10SM SCT110 OVC150 20/14 A2980 RMK AO2 SLP094 T02000144 $=
201009182153 METAR KSEA 182153Z 27005KT 10SM FEW030 BKN100 BKN200 21/14 A2982 RMK AO2 SLP100 T02110144 $=
201009182053 METAR KSEA 182053Z 26006KT 10SM SCT030 BKN150 BKN250 21/14 A2984 RMK AO2 RAB11E20 SLP108 P0000 60000 T02110144 58017 $=
201009181953 METAR KSEA 181953Z 28003KT 10SM SCT030 SCT150 BKN250 21/14 A2986 RMK AO2 SLP115 T02110144 $=
201009181853 METAR KSEA 181853Z 23003KT 10SM SCT026 SCT150 BKN250 20/14 A2988 RMK AO2 SLP122 T02000139 $=
201009181753 METAR KSEA 181753Z 00000KT 10SM FEW026 SCT250 19/14 A2989 RMK AO2 SLP126 60000 T01890139 10189 20150 50002=
201009181653 METAR KSEA 181653Z 00000KT 10SM FEW001 SCT024 BKN043 17/14 A2989 RMK AO2 SLP126 T01720144=
201009181617 SPECI KSEA 181617Z 00000KT 10SM FEW001 BKN030 16/14 A2989 RMK AO2=
201009181617 SPECI KSEA 181617Z 00000KT 10SM FEW001 BKN030 16/14 A2989 RMK AO2=
201009181553 METAR KSEA 181553Z 13004KT 10SM FEW001 BKN027 16/14 A2989 RMK AO2 SLP127 T01560144=
201009181453 METAR KSEA 181453Z 12004KT 10SM FEW001 BKN027 BKN033 16/14 A2988 RMK AO2 RAB31E40 SLP124 P0000 60000 T01560144 50001=
201009181353 METAR KSEA 181353Z 15004KT 10SM FEW001 BKN029 OVC045 16/14 A2990 RMK AO2 SLP129 T01560144=
201009181253 METAR KSEA 181253Z 00000KT 7SM FEW001 SCT020 OVC045 16/15 A2989 RMK AO2 SLP126 T01560150=
201009181153 METAR KSEA 181153Z 19003KT 6SM BR FEW001 SCT020 OVC050 16/15 A2988 RMK AO2 RAE1055 SLP123 P0000 60127 70181 T01560150 10161 20150 50005=
201009181127 SPECI KSEA 181127Z 22005KT 6SM BR FEW001 BKN020 BKN040 16/15 A2988 RMK AO2 RAE1055 P0000=
201009181127 SPECI KSEA 181127Z 22005KT 6SM BR FEW001 BKN020 BKN040 16/15 A2988 RMK AO2 RAE1055 P0000=
201009181057 SPECI KSEA 181057Z 23005KT 2SM BR SCT001 BKN004 16/15 A2988 RMK AO2 SFC VIS 3 RAE55 P0000 $=
201009181057 SPECI KSEA 181057Z 23005KT 2SM BR SCT001 BKN004 16/15 A2988 RMK AO2 SFC VIS 3 RAE55 P0000 $=
201009181053 METAR KSEA 181053Z 23006KT 1/2SM -RA BR SCT001 BKN004 OVC020 16/15 A2988 RMK AO2 SFC VIS 3 SLP123 P0001 T01560150 $=
201009180953 METAR KSEA 180953Z 20006KT 1/2SM R16L/5500VP6000FT -RA FG SCT001 BKN005 OVC010 16/16 A2988 RMK AO2 SLP123 P0022 T01610156=
201009180951 SPECI KSEA 180951Z 20006KT 1/2SM R16L/5500VP6000FT -RA FG SCT001 BKN007 OVC015 16/16 A2988 RMK AO2 TWR VIS 2 P0022=
201009180951 SPECI KSEA 180951Z 20006KT 1/2SM R16L/5500VP6000FT -RA FG SCT001 BKN007 OVC015 16/16 A2988 RMK AO2 TWR VIS 2 P0022=
201009180918 SPECI KSEA 180918Z 19004KT 2SM -RA BR FEW001 BKN020 OVC030 16/16 A2988 RMK AO2 SFC VIS 3 P0018=
201009180918 SPECI KSEA 180918Z 19004KT 2SM -RA BR FEW001 BKN020 OVC030 16/16 A2988 RMK AO2 SFC VIS 3 P0018=
201009180853 METAR KSEA 180853Z VRB05KT 1/2SM -RA BR FEW005 OVC020 16/16 A2986 RMK AO2 SFC VIS 5 SLP117 P0010 60104 T01610156 50004=
201009180800 SPECI KSEA 180800Z 15003KT 1 1/2SM RA BR FEW001 BKN006 OVC012 16/15 A2987 RMK AO2 SFC VIS 5 P0001=
201009180800 SPECI KSEA 180800Z 15003KT 1 1/2SM RA BR FEW001 BKN006 OVC012 16/15 A2987 RMK AO2 SFC VIS 5 P0001=
201009180753 METAR KSEA 180753Z 17003KT 1 1/2SM -RA BR FEW001 SCT006 OVC012 16/15 A2987 RMK AO2 SFC VIS 4 SLP120 P0031 T01560150 401780139=
201009180725 SPECI KSEA 180725Z 00000KT 1 1/2SM RA BR SCT001 BKN005 OVC010 16/15 A2986 RMK AO2 SFC VIS 2 VIS 1V5 P0027=
201009180725 SPECI KSEA 180725Z 00000KT 1 1/2SM RA BR SCT001 BKN005 OVC010 16/15 A2986 RMK AO2 SFC VIS 2 VIS 1V5 P0027=
201009180653 METAR KSEA 180653Z 00000KT 3/4SM +RA BR SCT001 OVC005 15/14 A2986 RMK AO2 SFC VIS 1 1/2 SLP118 P0063 T01500144=
201009180624 SPECI KSEA 180624Z 30003KT 3/4SM R16L/P6000FT +RA BR SCT001 OVC005 15/14 A2986 RMK AO2 SFC VIS 1 P0022=
201009180624 SPECI KSEA 180624Z 30003KT 3/4SM R16L/P6000FT +RA BR SCT001 OVC005 15/14 A2986 RMK AO2 SFC VIS 1 P0022=
201009180553 METAR KSEA 180553Z 23003KT 3/4SM R16L/4500VP6000FT RA BR VV001 16/16 A2985 RMK AO2 SFC VIS 1 SLP114 P0012 60054 T01560156 10178 20156 53005=
201009180453 METAR KSEA 180453Z 34004KT 3/4SM R16L/5000VP6000FT -RA BR VV001 18/16 A2984 RMK AO2 SLP110 P0003 T01780161=
201009180400 SPECI KSEA 180400Z 02003KT 3/4SM -RA BR OVC002 17/16 A2984 RMK AO2 SFC VIS 3 P0001=
201009180400 SPECI KSEA 180400Z 02003KT 3/4SM -RA BR OVC002 17/16 A2984 RMK AO2 SFC VIS 3 P0001=
201009180353 METAR KSEA 180353Z 03005KT 4SM -RA BR BKN002 OVC048 17/16 A2984 RMK AO2 SLP109 P0002 T01670161=
201009180318 SPECI KSEA 180318Z 02005KT 4SM -RA BR FEW002 OVC050 17/16 A2984 RMK AO2 P0001=
201009180318 SPECI KSEA 180318Z 02005KT 4SM -RA BR FEW002 OVC050 17/16 A2984 RMK AO2 P0001=
201009180253 METAR KSEA 180253Z 01006KT 3SM -RA BR FEW020 SCT048 OVC055 17/16 A2984 RMK AO2 SLP110 P0027 60037 T01670161 50004=
201009180153 METAR KSEA 180153Z 33007KT 3SM RA BR SCT005 SCT024 OVC045 16/15 A2984=
201009180053 METAR KSEA 180053Z VRB04KT 10SM -RA FEW008 SCT065 OVC090 17/16 A2983 RMK AO2 RAB08 SLP106 P0000 T01670156=
201009172353 METAR KSEA 172353Z 35006KT 10SM FEW008 BKN100 OVC150 17/16 A2983 RMK AO2 SLP106 60000 T01720156 10172 20161 56010=
201009172253 METAR KSEA 172253Z 35008KT 10SM FEW008 BKN080 OVC150 17/16 A2983 RMK AO2 SLP108 T01670156=
201009172153 METAR KSEA 172153Z 36009KT 10SM FEW007 BKN090 OVC150 17/16 A2984 RMK AO2 RAB01E24 SLP110 FG BANK W P0000 T01720161 $=
201009172053 METAR KSEA 172053Z 36010KT 10SM FEW007 BKN070 OVC140 17/16 A2986=
201009171953 METAR KSEA 171953Z 35007KT 8SM -RA FEW006 BKN060 OVC120 16/15 A2987 RMK AO2 RAB52 SLP121 P0000 T01610150 $=
201009171924 SPECI KSEA 171924Z 35009KT 7SM SCT005 BKN065 OVC180 16/15 A2987 RMK AO2 $=
201009171924 SPECI KSEA 171924Z 35009KT 7SM SCT005 BKN065 OVC180 16/15 A2987 RMK AO2 $=
201009171853 METAR KSEA 171853Z 01009KT 7SM BKN004 BKN060 OVC180 16/15 A2988 RMK AO2 SLP124 T01610150 $=
201009171753 METAR KSEA 171753Z 01010KT 5SM BR OVC003 17/16 A2989 RMK AO2 SLP127 T01670156 10167 20139 58001 $=
201009171733 SPECI KSEA 171733Z 36010KT 6SM BR OVC003 16/16 A2989 RMK AO2 $=
201009171733 SPECI KSEA 171733Z 36010KT 6SM BR OVC003 16/16 A2989 RMK AO2 $=
201009171653 METAR KSEA 171653Z 01008KT 5SM BR BKN005 OVC060 16/15 A2990 RMK AO2 SLP132 T01560150 $=
201009171642 SPECI KSEA 171642Z 01009KT 10SM BKN005 OVC060 16/14 A2990 RMK AO2 $=
201009171642 SPECI KSEA 171642Z 01009KT 10SM BKN005 OVC060 16/14 A2990 RMK AO2 $=
201009171612 SPECI KSEA 171612Z 01008KT 5SM BR SCT003 BKN060 BKN180 16/15 A2990 RMK AO2 $=
201009171612 SPECI KSEA 171612Z 01008KT 5SM BR SCT003 BKN060 BKN180 16/15 A2990 RMK AO2 $=
201009171553 METAR KSEA 171553Z 36007KT 2SM BR BKN003 BKN180 16/15 A2990 RMK AO2 SFC VIS 5 SLP129 T01560150 $=
201009171521 SPECI KSEA 171521Z 35005KT 2SM BR OVC003 15/14 A2990 RMK AO2 SFC VIS 3 $=
201009171521 SPECI KSEA 171521Z 35005KT 2SM BR OVC003 15/14 A2990 RMK AO2 SFC VIS 3 $=
201009171453 METAR KSEA 171453Z 01008KT 1/4SM R16L/P6000FT BR OVC002 15/14 A2990 RMK AO2 SFC VIS 3/4 SLP129 VIS W-N 1 1/4 T01500144 56005 $=
201009171444 SPECI KSEA 171444Z 01008KT 1/4SM R16L/5000VP6000FT BR OVC002 15/14 A2990 RMK AO2 SFC VIS 3/4 $=
201009171444 SPECI KSEA 171444Z 01008KT 1/4SM R16L/5000VP6000FT BR OVC002 15/14 A2990 RMK AO2 SFC VIS 3/4 $=
201009171353 METAR KSEA 171353Z 35005KT 1/4SM R16L/1200V2000FT FG VV001 15/15 A2990 RMK AO2 SLP129 T01500150 $=
201009171338 SPECI KSEA 171338Z 35005KT 1/2SM R16L/2000V6000FT FG VV001 15/14 A2990 RMK AO2 $=
201009171338 SPECI KSEA 171338Z 35005KT 1/2SM R16L/2000V6000FT FG VV001 15/14 A2990 RMK AO2 $=
201009171336 SPECI KSEA 171336Z 36004KT 1/8SM R16L/1600V6000FT FG VV001 15/14 A2990 RMK AO2 $=
201009171336 SPECI KSEA 171336Z 36004KT 1/8SM R16L/1600V6000FT FG VV001 15/14 A2990 RMK AO2 $=
201009171253 METAR KSEA 171253Z 00000KT 1/8SM R16L/1200V2000FT FG VV001 14/14 A2991=
201009171246 SPECI KSEA 171246Z 29003KT 1/8SM R16L/1200V1400FT FG VV001 14/14 A2991 RMK AO2 $=
201009171246 SPECI KSEA 171246Z 29003KT 1/8SM R16L/1200V1400FT FG VV001 14/14 A2991 RMK AO2 $=
201009171217 SPECI KSEA 171217Z 00000KT 1SM R16L/5000VP6000FT BR SCT001 BKN010 14/14 A2991 RMK AO2 $=
201009171217 SPECI KSEA 171217Z 00000KT 1SM R16L/5000VP6000FT BR SCT001 BKN010 14/14 A2991 RMK AO2 $=
201009171153 METAR KSEA 171153Z 00000KT 5SM BR FEW001 SCT010 14/14 A2991 RMK AO2 SLP133 70057 T01390139 10167 20139 58003 $=
201009171116 SPECI KSEA 171116Z 01003KT 4SM R16L/2000VP6000FT BR FEW001 SCT002 14/14 A2991 RMK AO2 $=
201009171116 SPECI KSEA 171116Z 01003KT 4SM R16L/2000VP6000FT BR FEW001 SCT002 14/14 A2991 RMK AO2 $=
201009171100 SPECI KSEA 171100Z 35004KT 1/8SM R16L/1200V2600FT FG OVC003 14/14 A2992 RMK AO2 $=
201009171100 SPECI KSEA 171100Z 35004KT 1/8SM R16L/1200V2600FT FG OVC003 14/14 A2992 RMK AO2 $=
201009171053 METAR KSEA 171053Z 34003KT 1/8SM R16L/1000V2200FT FG OVC003 15/14 A2992 RMK AO2 SLP136 T01500144 $=
201009171050 SPECI KSEA 171050Z 34003KT 1/8SM R16L/1000V1200FT FG OVC003 15/14 A2992 RMK AO2 $=
201009171050 SPECI KSEA 171050Z 34003KT 1/8SM R16L/1000V1200FT FG OVC003 15/14 A2992 RMK AO2 $=
201009171043 SPECI KSEA 171043Z 00000KT 1/4SM R16L/1000V1400FT FG SCT001 BKN017 14/14 A2992 RMK AO2 $=
201009171043 SPECI KSEA 171043Z 00000KT 1/4SM R16L/1000V1400FT FG SCT001 BKN017 14/14 A2992 RMK AO2 $=
201009171036 SPECI KSEA 171036Z 31003KT 1/4SM R16L/1000V4500FT FG SCT001 BKN017 14/14 A2992 RMK AO2 $=
201009171036 SPECI KSEA 171036Z 31003KT 1/4SM R16L/1000V4500FT FG SCT001 BKN017 14/14 A2992 RMK AO2 $=
201009170953 METAR KSEA 170953Z 00000KT 7SM FEW020 15/14 A2992 RMK AO2 SLP137 T01500144 $=
201009170951 SPECI KSEA 170951Z 00000KT 7SM FEW020 15/14 A2992 RMK AO2 $=
201009170951 SPECI KSEA 170951Z 00000KT 7SM FEW020 15/14 A2992 RMK AO2 $=
201009170947 SPECI KSEA 170947Z 00000KT 1 1/2SM BR CLR 15/15 A2992 RMK AO2 $=
201009170947 SPECI KSEA 170947Z 00000KT 1 1/2SM BR CLR 15/15 A2992 RMK AO2 $=
201009170855 SPECI KSEA 170855Z 12003KT 10SM SCT020 16/15 A2992 RMK AO2 $=
201009170855 SPECI KSEA 170855Z 12003KT 10SM SCT020 16/15 A2992 RMK AO2 $=
201009170853 METAR KSEA 170853Z 12003KT 10SM SCT006 BKN020 16/15 A2992 RMK AO2 SLP136 T01610150 58006 $=
201009170841 SPECI KSEA 170841Z 00000KT 10SM SCT006 BKN020 17/16 A2992 RMK AO2 $=
201009170841 SPECI KSEA 170841Z 00000KT 10SM SCT006 BKN020 17/16 A2992 RMK AO2 $=
201009170753 METAR KSEA 170753Z 15003KT 10SM SCT003 OVC006 17/16 A2993 RMK AO2 SLP140 T01670156 401940150 $=
201009170653 METAR KSEA 170653Z 00000KT 10SM BKN003 OVC008 17/16 A2993 RMK AO2 SLP141 T01670156 $=
201009170553 METAR KSEA 170553Z 22003KT 10SM BKN003 BKN036 OVC055 17/16 A2994 RMK AO2 RAE43 SLP144 P0002 60038 T01670156 10183 20161 51007 $=
201009170518 SPECI KSEA 170518Z 26004KT 5SM -RA BR FEW005 SCT026 OVC036 17/16 A2994 RMK AO2 P0002 $=
201009170518 SPECI KSEA 170518Z 26004KT 5SM -RA BR FEW005 SCT026 OVC036 17/16 A2994 RMK AO2 P0002 $=
201009170506 SPECI KSEA 170506Z 26005KT 3SM -RA BR FEW005 BKN026 OVC036 17/16 A2993 RMK AO2 P0001 $=
201009170506 SPECI KSEA 170506Z 26005KT 3SM -RA BR FEW005 BKN026 OVC036 17/16 A2993 RMK AO2 P0001 $=
201009170453 METAR KSEA 170453Z 27004KT 4SM RA BR FEW005 BKN034 OVC046 17/16 A2993 RMK AO2 SLP142 P0032 T01670161 $=
201009170449 SPECI KSEA 170449Z 27003KT 4SM -RA BR FEW023 BKN034 OVC046 17/16 A2994 RMK AO2 P0031 $=
201009170449 SPECI KSEA 170449Z 27003KT 4SM -RA BR FEW023 BKN034 OVC046 17/16 A2994 RMK AO2 P0031 $=
201009170426 SPECI KSEA 170426Z 00000KT 2SM -RA BR SCT001 SCT010 OVC024 17/16 A2994 RMK AO2 SFC VIS 4 P0027 $=
201009170426 SPECI KSEA 170426Z 00000KT 2SM -RA BR SCT001 SCT010 OVC024 17/16 A2994 RMK AO2 SFC VIS 4 P0027 $=
201009170420 SPECI KSEA 170420Z 00000KT 1 1/2SM R16L/4500VP6000FT +RA BR BKN001 BKN010 OVC024 17/16 A2994 RMK AO2 TWR VIS 2 P0026 $=
201009170420 SPECI KSEA 170420Z 00000KT 1 1/2SM R16L/4500VP6000FT +RA BR BKN001 BKN010 OVC024 17/16 A2994 RMK AO2 TWR VIS 2 P0026 $=
201009170409 SPECI KSEA 170409Z 28005KT 1/2SM R16L/3500VP6000FT RA BR BKN001 BKN013 OVC023 16/16 A2994 RMK AO2 SFC VIS 1 1/2 P0005 $=
201009170409 SPECI KSEA 170409Z 28005KT 1/2SM R16L/3500VP6000FT RA BR BKN001 BKN013 OVC023 16/16 A2994 RMK AO2 SFC VIS 1 1/2 P0005 $=
201009170400 SPECI KSEA 170400Z 32007KT 1/2SM R16L/6000VP6000FT -RA BR BKN001 BKN021 OVC042 17/16 A2993 RMK AO2 SFC VIS 4 P0001 $=
201009170400 SPECI KSEA 170400Z 32007KT 1/2SM R16L/6000VP6000FT -RA BR BKN001 BKN021 OVC042 17/16 A2993 RMK AO2 SFC VIS 4 P0001 $=
201009170353 METAR KSEA 170353Z 28005KT 5SM -RA BR SCT003 SCT020 OVC045 17/17 A2993 RMK AO2 RAB17 SLP141 P0001 T01720167 $=
201009170253 METAR KSEA 170253Z 35003KT 10SM FEW003 BKN048 OVC110 18/17 A2992 RMK AO2 SLP137 60003 T01780167 56006 $=
201009170153 METAR KSEA 170153Z 02003KT 10SM FEW003 SCT100 OVC150 18/17 A2992 RMK AO2 SLP137 T01830167 $=
201009170053 METAR KSEA 170053Z 03003KT 10SM FEW005 SCT043 OVC100 18/17 A2993 RMK AO2 RAE49 SLP139 P0003 T01780167 $=
201009162353 METAR KSEA 162353Z 05005KT 9SM -RA FEW003 SCT027 OVC043 18/17 A2994 RMK AO2 SLP142 P0001 60011 T01830167 10194 20172 58012 $=
201009162333 SPECI KSEA 162333Z 04004KT 3SM -RA BR SCT004 BKN015 OVC040 18/17 A2994 RMK AO2 P0001 $=
201009162333 SPECI KSEA 162333Z 04004KT 3SM -RA BR SCT004 BKN015 OVC040 18/17 A2994 RMK AO2 P0001 $=
201009162253 METAR KSEA 162253Z 00000KT 3SM RA BR FEW004 BKN010 OVC015 18/17 A2995 RMK AO2 SLP147 P0007 T01830167 $=
201009162153 METAR KSEA 162153Z 18003KT 4SM -RA BR FEW007 SCT011 OVC025 18/16 A2997 RMK AO2 RAB19 SLP153 P0003 T01830161 $=
201009162053 METAR KSEA 162053Z 30003KT 10SM FEW007 BKN012 OVC045 19/16 A2997 RMK AO2 RAE18 SLP153 P0000 60000 T01940161 58002 $=
201009161953 METAR KSEA 161953Z 30004KT 10SM -RA SCT008 BKN014 OVC043 19/16 A2998 RMK AO2 SLP155 P0000 T01940161 $=
201009161944 SPECI KSEA 161944Z 00000KT 10SM -RA SCT008 BKN014 OVC043 19/16 A2998 RMK AO2 P0000 $=
201009161944 SPECI KSEA 161944Z 00000KT 10SM -RA SCT008 BKN014 OVC043 19/16 A2998 RMK AO2 P0000 $=
201009161853 METAR KSEA 161853Z 04004KT 8SM -RA BKN008 BKN027 OVC045 18/16 A2998 RMK AO2 RAB51 SLP157 P0000 T01830156 $=
201009161839 SPECI KSEA 161839Z 05004KT 8SM BKN008 BKN027 OVC045 18/15 A2998 RMK AO2 $=
201009161839 SPECI KSEA 161839Z 05004KT 8SM BKN008 BKN027 OVC045 18/15 A2998 RMK AO2 $=
201009161753 METAR KSEA 161753Z 00000KT 10SM SCT006 BKN027 OVC045 17/15 A2998 RMK AO2 RAE32 SLP156 P0001 60008 T01720150 10172 20150 56001 $=
201009161725 SPECI KSEA 161725Z 06003KT 8SM -RA FEW006 SCT014 OVC027 17/15 A2998 RMK AO2 P0001 $=
201009161725 SPECI KSEA 161725Z 06003KT 8SM -RA FEW006 SCT014 OVC027 17/15 A2998 RMK AO2 P0001 $=
201009161653 METAR KSEA 161653Z 10003KT 7SM -RA SCT005 OVC009 16/15 A2998 RMK AO2 SLP157 P0002 T01610150 $=
201009161553 METAR KSEA 161553Z 14003KT 5SM -RA BR BKN007 OVC014 16/14 A2997 RMK AO2 SLP155 P0001 T01610144 $=
201009161453 METAR KSEA 161453Z 13004KT 7SM -RA BKN007 BKN013 OVC080 16/14 A2998 RMK AO2 RAB17 SLP157 P0001 60004 T01560144 53006 $=
201009161353 METAR KSEA 161353Z 00000KT 10SM BKN007 BKN012 OVC070 16/14 A2997 RMK AO2 RAE05 SLP155 P0000 T01560144 $=
201009161338 SPECI KSEA 161338Z 16003KT 10SM BKN007 OVC070 16/14 A2997 RMK AO2 RAE05 CIG 006V013 P0000 $=
201009161338 SPECI KSEA 161338Z 16003KT 10SM BKN007 OVC070 16/14 A2997 RMK AO2 RAE05 CIG 006V013 P0000 $=
201009161253 METAR KSEA 161253Z 17005KT 10SM -RA FEW007 SCT012 OVC100 15/14 A2996 RMK AO2 RAB1158 SLP151 P0003 T01500144 $=
201009161153 METAR KSEA 161153Z 21003KT 10SM FEW007 BKN050 BKN110 16/14 A2996 RMK AO2 SLP150 60003 70017 T01560144 10161 20156 53001 $=
201009161053 METAR KSEA 161053Z 18004KT 10SM SCT010 OVC044 16/14 A2996 RMK AO2 RAE04 SLP150 P0000 T01560144 $=
201009161016 SPECI KSEA 161016Z 19005KT 10SM SCT010 BKN018 OVC026 16/14 A2996 RMK AO2 RAE04 P0000 $=
201009161016 SPECI KSEA 161016Z 19005KT 10SM SCT010 BKN018 OVC026 16/14 A2996 RMK AO2 RAE04 P0000 $=
201009160953 METAR KSEA 160953Z 23005KT 3SM -RA BR SCT004 BKN012 OVC024 16/14 A2996 RMK AO2 RAB26 SLP149 P0003 T01560144 $=
201009160951 SPECI KSEA 160951Z 24005KT 3SM -RA BR SCT004 BKN012 OVC024 16/14 A2996 RMK AO2 RAB26 P0003 $=
201009160951 SPECI KSEA 160951Z 24005KT 3SM -RA BR SCT004 BKN012 OVC024 16/14 A2996 RMK AO2 RAB26 P0003 $=
201009160908 SPECI KSEA 160908Z 16003KT 10SM OVC008 16/15 A2995 RMK AO2 CIG 003V010 $=
201009160908 SPECI KSEA 160908Z 16003KT 10SM OVC008 16/15 A2995 RMK AO2 CIG 003V010 $=
201009160853 METAR KSEA 160853Z 15003KT 8SM BKN004 OVC008 16/15 A2995 RMK AO2 SLP148 60000 T01560150 51008 $=
201009160753 METAR KSEA 160753Z 21005KT 2SM BR BKN004 OVC008 16/15 A2995 RMK AO2 SFC VIS 6 RAB08E18 SLP147 P0000 T01560150 401940122 $=
201009160711 SPECI KSEA 160711Z 22006KT 2SM -RA BR BKN004 OVC008 16/15 A2995 RMK AO2 SFC VIS 6 RAB08 P0000 $=
201009160711 SPECI KSEA 160711Z 22006KT 2SM -RA BR BKN004 OVC008 16/15 A2995 RMK AO2 SFC VIS 6 RAB08 P0000 $=
201009160653 METAR KSEA 160653Z 23006KT 2SM BR BKN006 OVC009 16/15 A2995 RMK AO2 SFC VIS 6 RAE00 CIG 002V007 SLP145 P0000 T01560150 $=
201009160634 SPECI KSEA 160634Z 22006KT 2SM BR BKN006 OVC015 16/15 A2994 RMK AO2 SFC VIS 5 RAE00 P0000 $=
201009160634 SPECI KSEA 160634Z 22006KT 2SM BR BKN006 OVC015 16/15 A2994 RMK AO2 SFC VIS 5 RAE00 P0000 $=
201009160553 METAR KSEA 160553Z 21004KT 2SM -RA BR BKN002 OVC015 16/15 A2993 RMK AO2 SFC VIS 3 RAE27B43 SLP140 P0001 60012 T01560150 10178 20156 53007 $=
201009160542 SPECI KSEA 160542Z 19004KT 3SM BR BKN002 BKN008 OVC015 16/15 A2993 RMK AO2 RAE27 CIG 001V005 P0001=
201009160542 SPECI KSEA 160542Z 19004KT 3SM BR BKN002 BKN008 OVC015 16/15 A2993 RMK AO2 RAE27 CIG 001V005 P0001=
201009160532 SPECI KSEA 160532Z 18004KT 3SM BR SCT002 BKN013 OVC019 16/15 A2992 RMK AO2 RAE27 P0001=
201009160532 SPECI KSEA 160532Z 18004KT 3SM BR SCT002 BKN013 OVC019 16/15 A2992 RMK AO2 RAE27 P0001=
201009160525 SPECI KSEA 160525Z 19005KT 2 1/2SM -RA BR FEW002 BKN013 OVC030 16/15 A2992 RMK AO2 P0001=
201009160525 SPECI KSEA 160525Z 19005KT 2 1/2SM -RA BR FEW002 BKN013 OVC030 16/15 A2992 RMK AO2 P0001=
201009160453 METAR KSEA 160453Z 22004KT 3SM -RA BR SCT016 BKN020 OVC025 16/15 A2992 RMK AO2 RAB48 SLP136 P0000 T01610150=
201009160433 SPECI KSEA 160433Z 17005KT 10SM FEW019 BKN025 OVC032 17/16 A2991 RMK AO2=
201009160433 SPECI KSEA 160433Z 17005KT 10SM FEW019 BKN025 OVC032 17/16 A2991 RMK AO2=
201009160353 METAR KSEA 160353Z 11005KT 8SM OVC040 17/15 A2991 RMK AO2 RAB0259E42 SLP132 P0000 T01720150=
201009160253 METAR KSEA 160253Z 04004KT 9SM BKN047 OVC060 17/16 A2991 RMK AO2 RAE41 SLP133 P0001 60011 T01720156 56010=
201009160153 METAR KSEA 160153Z 35003KT 3SM RA BR FEW020 OVC055 17/14 A2991 RMK AO2 SLP134 P0008 T01670144=
201009160053 METAR KSEA 160053Z 00000KT 8SM -RA FEW028 SCT045 OVC075 17/15 A2992 RMK AO2 SLP137 P0002 T01720150=
201009152353 METAR KSEA 152353Z 16004KT 10SM -RA FEW025 BKN085 OVC150 18/14 A2994 RMK AO2 RAB45 SLP144 P0000 60002 T01780144 10194 20172 58002=
201009152253 METAR KSEA 152253Z 00000KT 10SM FEW028 SCT070 OVC200 18/15 A2993 RMK AO2 RAE36 SLP141 P0001 T01830150=
201009152227 SPECI KSEA 152227Z 00000KT 10SM -RA SCT026 18/15 A2995 RMK AO2 P0001=
201009152227 SPECI KSEA 152227Z 00000KT 10SM -RA SCT026 18/15 A2995 RMK AO2 P0001=
201009152213 SPECI KSEA 152213Z 00000KT 9SM -RA BKN025 BKN055 OVC140 17/14 A2994 RMK AO2 P0001=
201009152213 SPECI KSEA 152213Z 00000KT 9SM -RA BKN025 BKN055 OVC140 17/14 A2994 RMK AO2 P0001=
201009152153 METAR KSEA 152153Z 20005KT 7SM -RA FEW030 BKN055 OVC100 17/15 A2996 RMK AO2 RAB26 SLP150 P0001 T01720150=
201009152053 METAR KSEA 152053Z 20009KT 10SM SCT055 BKN150 OVC200 18/13 A2995 RMK AO2 SLP146 T01830133 53001=
201009151953 METAR KSEA 151953Z 22006KT 10SM SCT048 BKN150 OVC200 18/13 A2994 RMK AO2 SLP144 T01830133=
201009151853 METAR KSEA 151853Z 21009KT 10SM FEW040 SCT160 BKN250 19/13 A2994 RMK AO2 SLP144 T01940128=
201009151753 METAR KSEA 151753Z 18004KT 10SM SCT160 BKN250 18/13 A2994 RMK AO2 SLP145 T01830128 10183 20122 58003=
201009151653 METAR KSEA 151653Z 16004KT 10SM SCT160 BKN250 16/13 A2995 RMK AO2 SLP148 T01560128=
201009151553 METAR KSEA 151553Z 16003KT 10SM BKN160 BKN250 14/12 A2995 RMK AO2 SLP148 T01440122=
201009151453 METAR KSEA 151453Z 18003KT 10SM SCT160 BKN250 13/11 A2996 RMK AO2 SLP149 T01280111 53003=
201009151353 METAR KSEA 151353Z 11003KT 10SM BKN200 13/11 A2994 RMK AO2 SLP144 T01330111 $=
201009151253 METAR KSEA 151253Z COR 00000KT 10SM R16L/3500VP6000FT BCFG FEW002 SCT006 12/12 A2995 RMK AO2 SLP145 FG BANK W T01220117 $=
201009151245 SPECI KSEA 151245Z 00000KT 7SM R16L/2200VP6000FT SCT002 SCT006 12/12 A2994 RMK AO2 VIS W 1 1/2 $=
201009151245 SPECI KSEA 151245Z 00000KT 7SM R16L/2200VP6000FT SCT002 SCT006 12/12 A2994 RMK AO2 VIS W 1 1/2 $=
201009151240 SPECI KSEA 151240Z 00000KT 1 1/2SM R16L/2200VP6000FT BR FEW004 13/12 A2994 RMK AO2 $=
201009151240 SPECI KSEA 151240Z 00000KT 1 1/2SM R16L/2200VP6000FT BR FEW004 13/12 A2994 RMK AO2 $=
201009151236 SPECI KSEA 151236Z 00000KT 1SM R16L/3000VP6000FT BR VV004 13/12 A2994 RMK AO2 $=
201009151236 SPECI KSEA 151236Z 00000KT 1SM R16L/3000VP6000FT BR VV004 13/12 A2994 RMK AO2 $=
201009151233 SPECI KSEA 151233Z 00000KT 1 1/4SM R16L/4000VP6000FT BR FEW001 13/12 A2994 RMK AO2 $=
201009151233 SPECI KSEA 151233Z 00000KT 1 1/4SM R16L/4000VP6000FT BR FEW001 13/12 A2994 RMK AO2 $=
201009151231 SPECI KSEA 151231Z 00000KT 2SM BR FEW001 13/12 A2994 RMK AO2 $=
201009151231 SPECI KSEA 151231Z 00000KT 2SM BR FEW001 13/12 A2994 RMK AO2 $=
201009151153 METAR KSEA 151153Z 16003KT 10SM SCT200 13/12 A2994 RMK AO2 SLP145 T01280117 10167 20128 57003 $=
201009151053 METAR KSEA 151053Z 00000KT 10SM SCT250 14/12 A2995 RMK AO2 SLP146 T01390117 $=
201009150953 METAR KSEA 150953Z 00000KT 10SM CLR 14/12 A2995 RMK AO2 SLP148 T01390117 $=
201009150853 METAR KSEA 150853Z 00000KT 10SM CLR 14/12 A2995 RMK AO2 SLP149 T01440122 56013 $=
201009150753 METAR KSEA 150753Z 00000KT 10SM FEW250 14/12 A2996 RMK AO2 SLP151 T01440122 402060133 $=
201009150653 METAR KSEA 150653Z 00000KT 10SM SCT250 16/13 A2998 RMK AO2 SLP157 T01560128 $=
201009150553 METAR KSEA 150553Z 00000KT 10SM CLR 16/12 A2999 RMK AO2 SLP161 T01610122 10206 20144 58005 $=
201009150453 METAR KSEA 150453Z 36004KT 10SM SCT250 16/12 A3000 RMK AO2 SLP165 T01560117 $=
201009150353 METAR KSEA 150353Z 00000KT 10SM SCT250 17/12 A3001 RMK AO2 SLP167 T01720122 $=
201009150253 METAR KSEA 150253Z 00000KT 10SM FEW030 SCT250 17/13 A3001 RMK AO2 SLP167 T01720128 58005 $=
201009150153 METAR KSEA 150153Z 28003KT 10SM FEW030 SCT250 18/12 A3001 RMK AO2 SLP169 T01830122 $=
201009150053 METAR KSEA 150053Z 26003KT 10SM FEW030 SCT250 20/12 A3002 RMK AO2 SLP170 T02000122 $=
201009142353 METAR KSEA 142353Z 26004KT 10SM FEW020 SCT250 19/12 A3002 RMK AO2 SLP172 T01940122 10200 20139 58009 $=
201009142253 METAR KSEA 142253Z 28004KT 10SM FEW020 19/12 A3003 RMK AO2 SLP175 T01940122 $=
201009142153 METAR KSEA 142153Z 27007KT 10SM SCT017 18/13 A3004 RMK AO2 SLP178 T01830133 $=
201009142141 SPECI KSEA 142141Z 27006KT 10SM BKN016 18/13 A3004 RMK AO2 $=
201009142141 SPECI KSEA 142141Z 27006KT 10SM BKN016 18/13 A3004 RMK AO2 $=
201009142053 METAR KSEA 142053Z 00000KT 10SM BKN011 17/13 A3005 RMK AO2 SLP181 T01720133 58005 $=
201009142044 SPECI KSEA 142044Z VRB03KT 10SM BKN010 17/13 A3005 RMK AO2 $=
201009142044 SPECI KSEA 142044Z VRB03KT 10SM BKN010 17/13 A3005 RMK AO2 $=
201009141953 METAR KSEA 141953Z 28003KT 7SM OVC007 16/13 A3006 RMK AO2 SLP184 T01560133 $=
201009141929 SPECI KSEA 141929Z 00000KT 1 1/2SM HZ OVC005 16/13 A3006 RMK AO2 SFC VIS 5 $=
201009141929 SPECI KSEA 141929Z 00000KT 1 1/2SM HZ OVC005 16/13 A3006 RMK AO2 SFC VIS 5 $=
201009141853 METAR KSEA 141853Z 31003KT 1 1/2SM BR OVC003 14/13 A3006 RMK AO2 SFC VIS 2 1/2 SLP185 T01440133 $=
201009141832 SPECI KSEA 141832Z 00000KT 1 1/2SM BR OVC003 14/13 A3007 RMK AO2 SFC VIS 2 $=
201009141832 SPECI KSEA 141832Z 00000KT 1 1/2SM BR OVC003 14/13 A3007 RMK AO2 SFC VIS 2 $=
201009141829 SPECI KSEA 141829Z 00000KT 1/4SM BR OVC003 14/13 A3007 RMK AO2 SFC VIS 2 $=
201009141829 SPECI KSEA 141829Z 00000KT 1/4SM BR OVC003 14/13 A3007 RMK AO2 SFC VIS 2 $=
201009141753 METAR KSEA 141753Z 30003KT 1/4SM R16L/4000VP6000FT FG OVC001 14/13 A3006 RMK AO2 SFC VIS 1/2 SLP187 T01390133 10139 20133 53005 $=
201009141653 METAR KSEA 141653Z 29003KT 1/4SM R16L/1400V1600FT FG VV001 14/13 A3006 RMK AO2 SLP185 T01390133 $=
201009141553 METAR KSEA 141553Z 00000KT 1/4SM R16L/1600V2000FT FG VV001 13/13 A3005 RMK AO2 SLP183 T01330128 $=
201009141534 SPECI KSEA 141534Z 00000KT 1/4SM R16L/1600V2000FT FG VV001 13/13 A3005 RMK AO2 $=
201009141534 SPECI KSEA 141534Z 00000KT 1/4SM R16L/1600V2000FT FG VV001 13/13 A3005 RMK AO2 $=
201009141524 SPECI KSEA 141524Z 00000KT 1/4SM R16L/1600V2600FT FG VV001 13/13 A3005 RMK AO2 $=
201009141524 SPECI KSEA 141524Z 00000KT 1/4SM R16L/1600V2600FT FG VV001 13/13 A3005 RMK AO2 $=
201009141453 METAR KSEA 141453Z 30003KT 1/4SM R16L/1200V1400FT FG VV001 13/13 A3005 RMK AO2 SLP181 T01330128 53004 $=
201009141407 SPECI KSEA 141407Z 00000KT 1/4SM R16L/1400V1800FT FG VV001 13/13 A3005 RMK AO2 $=
201009141407 SPECI KSEA 141407Z 00000KT 1/4SM R16L/1400V1800FT FG VV001 13/13 A3005 RMK AO2 $=
201009141353 METAR KSEA 141353Z 00000KT 1/4SM R16L/1800V2400FT FG OVC001 13/13 A3005 RMK AO2 SLP180 T01330128 $=
201009141334 SPECI KSEA 141334Z 33003KT 1/4SM R16L/1600V2000FT FG OVC001 13/13 A3004 RMK AO2 $=
201009141334 SPECI KSEA 141334Z 33003KT 1/4SM R16L/1600V2000FT FG OVC001 13/13 A3004 RMK AO2 $=
201009141309 SPECI KSEA 141309Z 35004KT 1/4SM R16L/1800V3000FT FG OVC001 13/13 A3004 RMK AO2 $=
201009141309 SPECI KSEA 141309Z 35004KT 1/4SM R16L/1800V3000FT FG OVC001 13/13 A3004 RMK AO2 $=
201009141253 METAR KSEA 141253Z 00000KT 1/4SM R16L/1400V2000FT FG OVC001 13/13 A3004 RMK AO2 SLP176 T01330128 $=
201009141240 SPECI KSEA 141240Z 36004KT 1/4SM R16L/1600V2400FT FG OVC001 13/13 A3004 RMK AO2 $=
201009141240 SPECI KSEA 141240Z 36004KT 1/4SM R16L/1600V2400FT FG OVC001 13/13 A3004 RMK AO2 $=
201009141153 METAR KSEA 141153Z 35005KT 1/4SM R16L/1400V1800FT FG VV001 13/13 A3003 RMK AO2 SLP174 T01330133 10144 20133 51002 $=
201009141109 SPECI KSEA 141109Z 36005KT 1/4SM R16L/1200V2200FT FG VV001 14/13 A3003 RMK AO2 $=
201009141109 SPECI KSEA 141109Z 36005KT 1/4SM R16L/1200V2200FT FG VV001 14/13 A3003 RMK AO2 $=
201009141053 METAR KSEA 141053Z 01003KT 1/2SM R16L/3500VP6000FT FG VV001 14/13 A3003 RMK AO2 SLP173 T01390133 $=
201009141000 SPECI KSEA 141000Z 35005KT 1/2SM R16L/P6000FT BR OVC001 14/13 A3002 RMK AO2 SFC VIS 1 $=
201009141000 SPECI KSEA 141000Z 35005KT 1/2SM R16L/P6000FT BR OVC001 14/13 A3002 RMK AO2 SFC VIS 1 $=
201009140953 METAR KSEA 140953Z 01005KT 2SM BR OVC001 14/13 A3002 RMK AO2 SLP172 T01390128 $=
201009140937 SPECI KSEA 140937Z 01006KT 2SM BR OVC001 14/13 A3003 RMK AO2 $=
201009140937 SPECI KSEA 140937Z 01006KT 2SM BR OVC001 14/13 A3003 RMK AO2 $=
201009140900 SPECI KSEA 140900Z 03004KT 8SM OVC003 14/13 A3002 RMK AO2 $=
201009140900 SPECI KSEA 140900Z 03004KT 8SM OVC003 14/13 A3002 RMK AO2 $=
201009140853 METAR KSEA 140853Z 03004KT 9SM BKN005 14/13 A3002 RMK AO2 SLP172 T01390128 56005 $=
201009140814 SPECI KSEA 140814Z 34003KT 10SM BKN007 14/13 A3003 RMK AO2 $=
201009140814 SPECI KSEA 140814Z 34003KT 10SM BKN007 14/13 A3003 RMK AO2 $=
201009140804 SPECI KSEA 140804Z 00000KT 10SM SCT007 13/12 A3003 RMK AO2 $=
201009140804 SPECI KSEA 140804Z 00000KT 10SM SCT007 13/12 A3003 RMK AO2 $=
201009140753 METAR KSEA 140753Z 32003KT 10SM CLR 13/12 A3003 RMK AO2 SLP173 T01330122 402060133 $=
201009140653 METAR KSEA 140653Z 36006KT 10SM CLR 14/12 A3002 RMK AO2 SLP172 T01440122 $=
201009140553 METAR KSEA 140553Z 35006KT 10SM FEW250 13/12 A3004 RMK AO2 SLP177 T01330122 10206 20133 50003 $=
201009140453 METAR KSEA 140453Z 36006KT 10SM FEW250 14/12 A3004 RMK AO2 SLP178 T01390122 $=
201009140353 METAR KSEA 140353Z 35004KT 10SM FEW250 14/12 A3003 RMK AO2 SLP176 T01440122 $=
201009140253 METAR KSEA 140253Z 35006KT 10SM FEW020 SCT250 16/13 A3003 RMK AO2 SLP174 T01560128 55002 $=
201009140153 METAR KSEA 140153Z 35009KT 10SM FEW025 SCT250 18/13 A3003 RMK AO2 SLP173 T01780128 $=
201009140053 METAR KSEA 140053Z 35009KT 10SM FEW020 SCT250 20/13 A3003 RMK AO2 SLP173 T02000133 $=
201009132353 METAR KSEA 132353Z 36008KT 10SM FEW020 SCT250 20/13 A3003 RMK AO2 SLP176 T02000128 10206 20161 58011 $=
201009132253 METAR KSEA 132253Z VRB03KT 10SM SCT019 SCT250 20/13 A3004=
201009132243 SPECI KSEA 132243Z 36008KT 10SM SCT019 SCT250 20/13 A3005 RMK AO2=
201009132243 SPECI KSEA 132243Z 36008KT 10SM SCT019 SCT250 20/13 A3005 RMK AO2=
201009132153 METAR KSEA 132153Z 02008KT 10SM BKN017 19/13 A3006 RMK AO2 SLP185 T01940128=
201009132053 METAR KSEA 132053Z 31006KT 10SM BKN015 18/13 A3007 RMK AO2 SLP187 T01830128 56008=
201009132041 SPECI KSEA 132041Z 32006KT 10SM BKN015 18/13 A3007 RMK AO2=
201009132041 SPECI KSEA 132041Z 32006KT 10SM BKN015 18/13 A3007 RMK AO2=
201009131953 METAR KSEA 131953Z 30006KT 10SM OVC014 17/13 A3007 RMK AO2 SLP189 T01720128=
201009131853 METAR KSEA 131853Z 30004KT 10SM OVC011 17/13 A3008 RMK AO2 SLP192 T01670128=
201009131753 METAR KSEA 131753Z 30003KT 10SM OVC010 16/13 A3009 RMK AO2 SLP195 T01610128 10161 20144 50001=
201009131736 SPECI KSEA 131736Z 00000KT 10SM OVC010 16/13 A3009 RMK AO2=
201009131736 SPECI KSEA 131736Z 00000KT 10SM OVC010 16/13 A3009 RMK AO2=
201009131653 METAR KSEA 131653Z 27003KT 10SM BKN009 OVC013 16/13 A3010 RMK AO2 SLP196 T01560128=
201009131646 SPECI KSEA 131646Z 00000KT 10SM BKN009 OVC013 16/13 A3009 RMK AO2=
201009131646 SPECI KSEA 131646Z 00000KT 10SM BKN009 OVC013 16/13 A3009 RMK AO2=
201009131553 METAR KSEA 131553Z 00000KT 10SM FEW009 OVC013 16/13 A3009 RMK AO2 SLP194 T01560128=
201009131453 METAR KSEA 131453Z 00000KT 10SM FEW009 OVC012 15/13 A3009 RMK AO2 SLP194 T01500128 55000=
201009131353 METAR KSEA 131353Z 33003KT 10SM SCT006 OVC010 14/13 A3009 RMK AO2 SLP194 T01440128=
201009131253 METAR KSEA 131253Z 00000KT 10SM FEW004 OVC006 14/13 A3008 RMK AO2 SLP193 T01440128 $=
201009131153 METAR KSEA 131153Z 25004KT 10SM OVC006 14/13 A3009 RMK AO2 SLP193 T01440128 10156 20144 53004 $=
201009131053 METAR KSEA 131053Z 00000KT 10SM BKN008 OVC012 14/13 A3008 RMK AO2 SLP193 T01440128 $=
201009130953 METAR KSEA 130953Z 21004KT 10SM SCT008 BKN030 15/13 A3008 RMK AO2 SLP190 T01500133 $=
201009130853 METAR KSEA 130853Z 23005KT 10SM SCT008 OVC012 16/13 A3008 RMK AO2 SLP189 T01560133 51001 $=
201009130850 SPECI KSEA 130850Z 23005KT 10SM SCT008 OVC012 16/13 A3008 RMK AO2 $=
201009130850 SPECI KSEA 130850Z 23005KT 10SM SCT008 OVC012 16/13 A3008 RMK AO2 $=
201009130753 METAR KSEA 130753Z 20005KT 10SM BKN010 OVC030 15/13 A3008 RMK AO2 SLP190 T01500133 402110133 $=
201009130732 SPECI KSEA 130732Z 00000KT 10SM BKN011 BKN040 15/13 A3007 RMK AO2 $=
201009130732 SPECI KSEA 130732Z 00000KT 10SM BKN011 BKN040 15/13 A3007 RMK AO2 $=
201009130653 METAR KSEA 130653Z 16006KT 10SM FEW040 15/13 A3007 RMK AO2 SLP189 T01500133 $=
201009130553 METAR KSEA 130553Z 18003KT 10SM CLR 15/13 A3008 RMK AO2 SLP190 T01500128 10206 20150 51006 $=
201009130453 METAR KSEA 130453Z 16006KT 10SM CLR 17/13 A3007 RMK AO2 SLP189 T01670128 $=
201009130353 METAR KSEA 130353Z 19005KT 10SM CLR 16/13 A3007 RMK AO2 SLP189 T01610128 $=
201009130253 METAR KSEA 130253Z 19004KT 10SM FEW035 17/13 A3006 RMK AO2 SLP184 T01720128 55001 $=
201009130153 METAR KSEA 130153Z 21009KT 10SM FEW100 18/13 A3005 RMK AO2 SLP182 T01830128 $=
201009130053 METAR KSEA 130053Z 22011KT 10SM FEW028 BKN100 20/13 A3005 RMK AO2 SLP183 T02000133 $=
201009122353 METAR KSEA 122353Z 22013G19KT 10SM FEW028 BKN100 21/13 A3006 RMK AO2 SLP186 T02060133 10211 20150 58004 $=
201009122317 SPECI KSEA 122317Z 24011KT 10SM SCT028 BKN100 20/13 A3006 RMK AO2 $=
201009122317 SPECI KSEA 122317Z 24011KT 10SM SCT028 BKN100 20/13 A3006 RMK AO2 $=
201009122253 METAR KSEA 122253Z 22011KT 10SM BKN028 BKN100 19/13 A3007 RMK AO2 SLP188 T01940133 $=
201009122153 METAR KSEA 122153Z 21010KT 10SM SCT024 BKN044 BKN180 21/13 A3007 RMK AO2 SLP189 T02060128 $=
201009122145 SPECI KSEA 122145Z 20011KT 10SM SCT024 BKN044 BKN180 21/13 A3007 RMK AO2 $=
201009122145 SPECI KSEA 122145Z 20011KT 10SM SCT024 BKN044 BKN180 21/13 A3007 RMK AO2 $=
201009122053 METAR KSEA 122053Z 20014G17KT 10SM BKN021 BKN060 BKN180 20/12 A3008 RMK AO2 SLP190 T02000122 56004=
201009121953 METAR KSEA 121953Z 19007KT 10SM OVC023 18/11 A3008 RMK AO2 SLP190 T01830111=
201009121853 METAR KSEA 121853Z 18007KT 10SM OVC019 17/11 A3008 RMK AO2 SLP191 T01720106=
201009121753 METAR KSEA 121753Z 17006KT 10SM OVC021 15/11 A3009 RMK AO2 SLP193 T01500106 10150 20133 52003=
201009121653 METAR KSEA 121653Z 19004KT 10SM OVC019 14/10 A3008 RMK AO2 SLP192 T01440100=
201009121553 METAR KSEA 121553Z 19004KT 10SM OVC019 14/09 A3008 RMK AO2 SLP191 T01390094=
201009121453 METAR KSEA 121453Z 16004KT 10SM OVC025 14/09 A3008 RMK AO2 SLP190 T01390089 53004=
201009121353 METAR KSEA 121353Z 19008KT 10SM OVC027 14/08 A3007 RMK AO2 SLP187 T01390078=
201009121253 METAR KSEA 121253Z 17007KT 10SM OVC030 13/08 A3006 RMK AO2 SLP184 T01330078=
201009121153 METAR KSEA 121153Z 19010KT 10SM BKN035 OVC085 14/08 A3006 RMK AO2 SLP186 T01390083 10150 20133 56003=
201009121053 METAR KSEA 121053Z 17005KT 10SM BKN040 OVC095 14/08 A3007 RMK AO2 SLP187 T01390078=
201009120953 METAR KSEA 120953Z 17007KT 10SM SCT040 BKN080 14/08 A3007 RMK AO2 SLP187 T01390078=
201009120853 METAR KSEA 120853Z 18008KT 10SM FEW060 SCT075 BKN090 14/08 A3007 RMK AO2 SLP189 T01390078 56003=
201009120753 METAR KSEA 120753Z 20006KT 10SM SCT035 BKN090 14/09 A3008 RMK AO2 SLP190 T01390089 401830117=
201009120653 METAR KSEA 120653Z 18004KT 10SM OVC085 14/09 A3008 RMK AO2 SLP191 T01440089=
201009120553 METAR KSEA 120553Z 20004KT 10SM OVC090 15/08 A3008 RMK AO2 SLP192 T01500083 10183 20144 51002=
201009120453 METAR KSEA 120453Z 15005KT 10SM OVC095 16/08 A3008 RMK AO2 SLP192 T01610083=
201009120353 METAR KSEA 120353Z 17003KT 10SM BKN080 OVC095 16/08 A3008 RMK AO2 SLP193 T01610083=
201009120253 METAR KSEA 120253Z 17003KT 10SM SCT095 BKN160 16/08 A3008 RMK AO2 SLP191 T01610078 56007=
201009120153 METAR KSEA 120153Z 19005KT 10SM OVC100 17/08 A3008=
201009120053 METAR KSEA 120053Z 21004KT 10SM FEW040 BKN100 BKN200 17/07 A3009 RMK AO2 SLP194 T01720072=
201009112353 METAR KSEA 112353Z 22005KT 10SM FEW040 BKN100 BKN200 18/06 A3010 RMK AO2 SLP198 T01780056 10183 20133 58008=
201009112253 METAR KSEA 112253Z 22007KT 10SM FEW040 SCT080 BKN200 18/07 A3011 RMK AO2 SLP200 T01830067=
201009112153 METAR KSEA 112153Z VRB04KT 10SM FEW020 SCT040 BKN220 18/08 A3012 RMK AO2 SLP204 T01780083=
201009112053 METAR KSEA 112053Z 21007KT 10SM FEW020 SCT040 BKN210 17/08 A3012 RMK AO2 SLP206 T01670083 58010=
201009111953 METAR KSEA 111953Z 20005KT 10SM FEW018 SCT040 SCT200 16/09 A3014 RMK AO2 SLP211 T01610089=
201009111853 METAR KSEA 111853Z 25003KT 10SM SCT018 BKN040 BKN140 15/09 A3015 RMK AO2 SLP214 T01500089=
201009111753 METAR KSEA 111753Z 20005KT 10SM SCT016 BKN024 BKN100 13/09 A3015 RMK AO2 SLP217 T01330089 10144 20117 53004=
201009111653 METAR KSEA 111653Z 18004KT 10SM SCT013 BKN024 BKN080 13/09 A3014 RMK AO2 SLP212 T01330094=
201009111553 METAR KSEA 111553Z 15003KT 10SM BKN020 BKN070 13/09 A3014 RMK AO2 SLP214 T01280094=
201009111453 METAR KSEA 111453Z 14006KT 10SM FEW009 SCT013 BKN025 BKN200 12/09 A3014 RMK AO2 SLP213 T01170094 51003=
201009111448 SPECI KSEA 111448Z 16005KT 10SM FEW009 SCT013 BKN025 BKN200 12/09 A3014 RMK AO2=
201009111448 SPECI KSEA 111448Z 16005KT 10SM FEW009 SCT013 BKN025 BKN200 12/09 A3014 RMK AO2=
201009111422 SPECI KSEA 111422Z 00000KT 10SM SCT005 OVC011 12/10 A3014 RMK AO2=
201009111422 SPECI KSEA 111422Z 00000KT 10SM SCT005 OVC011 12/10 A3014 RMK AO2=
201009111353 METAR KSEA 111353Z 00000KT 10SM OVC007 12/11 A3013 RMK AO2 CIG 004V010 SLP211 T01170106=
201009111253 METAR KSEA 111253Z 27003KT 10SM BKN009 OVC013 12/10 A3013 RMK AO2 SLP209 T01170100=
201009111153 METAR KSEA 111153Z 22003KT 10SM BKN009 OVC015 12/10 A3012 RMK AO2 SLP205 T01170100 10133 20117 50001=
201009111053 METAR KSEA 111053Z 19003KT 10SM BKN009 BKN015 OVC044 12/11 A3013 RMK AO2 SLP207 T01170106=
201009111045 SPECI KSEA 111045Z 17003KT 10SM SCT009 BKN015 OVC044 12/11 A3012 RMK AO2=
201009111045 SPECI KSEA 111045Z 17003KT 10SM SCT009 BKN015 OVC044 12/11 A3012 RMK AO2=
201009110953 METAR KSEA 110953Z 00000KT 10SM BKN009 OVC015 12/11 A3012 RMK AO2 SLP207 T01220106=
201009110853 METAR KSEA 110853Z 00000KT 10SM BKN015 OVC065 12/10 A3012 RMK AO2 SLP204 T01220100 58001=
201009110821 SPECI KSEA 110821Z 00000KT 10SM BKN015 OVC065 12/10 A3012 RMK AO2=
201009110821 SPECI KSEA 110821Z 00000KT 10SM BKN015 OVC065 12/10 A3012 RMK AO2=
201009110753 METAR KSEA 110753Z 00000KT 10SM SCT015 BKN070 12/11 A3012 RMK AO2 SLP206 T01220106 401720122=
201009110653 METAR KSEA 110653Z 00000KT 10SM FEW030 BKN070 13/10 A3012 RMK AO2 SLP205 T01280100=
201009110553 METAR KSEA 110553Z 00000KT 10SM SCT075 13/10 A3012 RMK AO2 SLP205 T01330100 10167 20128 50002=
201009110453 METAR KSEA 110453Z 18005KT 10SM FEW030 BKN075 13/10 A3012 RMK AO2 SLP207 T01330100=
201009110353 METAR KSEA 110353Z 15004KT 10SM SCT029 BKN041 BKN075 15/09 A3013 RMK AO2 SLP207 T01500094=
201009110253 METAR KSEA 110253Z 16003KT 10SM FEW042 BKN075 15/09 A3011 RMK AO2 SLP203 T01500094 55004=
201009110153 METAR KSEA 110153Z 18004KT 10SM FEW030 BKN075 16/09 A3011 RMK AO2 SLP202 T01610089=
201009110053 METAR KSEA 110053Z 19004KT 10SM FEW025 SCT060 OVC075 16/09 A3012 RMK AO2 SLP205 T01610094=
201009102353 METAR KSEA 102353Z 21009KT 10SM FEW025 OVC060 17/09 A3013 RMK AO2 SLP207 T01670089 10172 20150 58003=
201009102253 METAR KSEA 102253Z 20009KT 10SM SCT050 BKN070 17/09 A3013 RMK AO2 SLP210 T01670089=
201009102153 METAR KSEA 102153Z 25008KT 10SM FEW025 OVC050 16/09 A3014 RMK AO2 SLP212 SHRA SE-S T01560094=
201009102053 METAR KSEA 102053Z 23008KT 10SM SCT025 OVC065 17/10 A3014 RMK AO2 SLP211 SHRA SE T01670100 53004=
201009101953 METAR KSEA 101953Z 20008KT 10SM SCT020 BKN065 17/09 A3013 RMK AO2 SLP208 T01720094=
201009101853 METAR KSEA 101853Z 18010KT 10SM SCT019 OVC060 16/10 A3013 RMK AO2 SLP207 T01610100=
201009101753 METAR KSEA 101753Z 20007KT 10SM FEW018 OVC060 15/10 A3012 RMK AO2 SLP206 T01500100 10150 20133 53005=
201009101653 METAR KSEA 101653Z 21007KT 10SM FEW018 SCT033 OVC060 14/11 A3012 RMK AO2 SLP205 T01390106=
201009101621 SPECI KSEA 101621Z 21007KT 10SM SCT017 BKN033 OVC060 14/11 A3011 RMK AO2=
201009101621 SPECI KSEA 101621Z 21007KT 10SM SCT017 BKN033 OVC060 14/11 A3011 RMK AO2=
201009101553 METAR KSEA 101553Z 22005KT 10SM BKN018 OVC055 13/11 A3011 RMK AO2 SLP203 T01330106=
201009101453 METAR KSEA 101453Z 21004KT 10SM FEW018 BKN027 OVC050 13/10 A3011 RMK AO2 SLP202 T01330100 53010=
201009101446 SPECI KSEA 101446Z 21006KT 10SM FEW018 BKN027 OVC050 13/10 A3011 RMK AO2=
201009101446 SPECI KSEA 101446Z 21006KT 10SM FEW018 BKN027 OVC050 13/10 A3011 RMK AO2=
201009101353 METAR KSEA 101353Z 18005KT 10SM FEW024 OVC050 13/10 A3009 RMK AO2 SLP196 T01330100=
201009101253 METAR KSEA 101253Z 18006KT 10SM FEW020 OVC048 13/10 A3008 RMK AO2 SLP191 T01330100=
201009101153 METAR KSEA 101153Z 18005KT 10SM OVC048 13/10 A3008 RMK AO2 SLP191 T01330100 10133 20128 51005=
201009101053 METAR KSEA 101053Z 19007KT 10SM SCT020 OVC050 13/10 A3008 RMK AO2 SLP191 T01330100=
201009101033 SPECI KSEA 101033Z 19004KT 10SM BKN022 OVC050 13/10 A3008 RMK AO2=
201009101033 SPECI KSEA 101033Z 19004KT 10SM BKN022 OVC050 13/10 A3008 RMK AO2=
201009100953 METAR KSEA 100953Z 17006KT 10SM OVC050 13/09 A3007 RMK AO2 SLP188 T01330094=
201009100853 METAR KSEA 100853Z 18006KT 10SM OVC050 13/09 A3006 RMK AO2 SLP185 T01330094 53004=
201009100753 METAR KSEA 100753Z 18006KT 10SM FEW010 BKN050 13/09 A3006 RMK AO2 SLP184 T01330094 401670122=
201009100653 METAR KSEA 100653Z 18008KT 10SM FEW010 SCT070 13/09 A3005 RMK AO2 SLP183 T01280094=
201009100553 METAR KSEA 100553Z 19007KT 10SM FEW045 SCT085 13/09 A3005 RMK AO2 SLP183 T01330094 10167 20133 51010=
201009100453 METAR KSEA 100453Z 21009KT 10SM FEW045 BKN085 13/09 A3005 RMK AO2 SLP181 T01330089=
201009100353 METAR KSEA 100353Z 20007KT 10SM FEW045 BKN090 14/09 A3003 RMK AO2 SLP175 T01440089=
201009100253 METAR KSEA 100253Z 20009KT 10SM FEW025 SCT046 BKN085 14/09 A3002 RMK AO2 SLP172 T01440089 53008=
201009100153 METAR KSEA 100153Z 21009KT 10SM FEW027 BKN044 BKN090 15/09 A3001 RMK AO2 SLP170 T01500094=
201009100053 METAR KSEA 100053Z 21010KT 10SM FEW027 SCT048 BKN090 16/09 A3000=
201009092353 METAR KSEA 092353Z 22008KT 10SM FEW030 BKN048 16/10 A3000 RMK AO2 SLP163 T01560100 10167 20144 51006=
201009092253 METAR KSEA 092253Z 19009KT 10SM FEW030 OVC046 16/10 A2999 RMK AO2 SLP161 T01560100=
201009092215 SPECI KSEA 092215Z 19009KT 10SM FEW020 OVC030 16/10 A2999 RMK AO2=
201009092215 SPECI KSEA 092215Z 19009KT 10SM FEW020 OVC030 16/10 A2999 RMK AO2=
201009092153 METAR KSEA 092153Z 22009KT 10SM FEW018 BKN026 OVC040 16/11 A2999=
201009092053 METAR KSEA 092053Z 22009KT 10SM FEW015 BKN028 OVC040 15/09 A2998 RMK AO2 SLP157 T01500094 51010=
201009092028 SPECI KSEA 092028Z 21009KT 10SM FEW012 BKN026 OVC040 16/09 A2997 RMK AO2=
201009092028 SPECI KSEA 092028Z 21009KT 10SM FEW012 BKN026 OVC040 16/09 A2997 RMK AO2=
201009091953 METAR KSEA 091953Z 22010KT 10SM FEW009 SCT017 BKN034 16/09 A2997 RMK AO2 SLP153 T01560094=
201009091853 METAR KSEA 091853Z 20009KT 10SM FEW009 SCT016 BKN034 15/11 A2996 RMK AO2 SLP150 T01500106=
201009091830 SPECI KSEA 091830Z 21009KT 10SM FEW009 BKN016 OVC034 15/11 A2995 RMK AO2=
201009091830 SPECI KSEA 091830Z 21009KT 10SM FEW009 BKN016 OVC034 15/11 A2995 RMK AO2=
201009091753 METAR KSEA 091753Z 20007KT 10SM FEW008 SCT012 BKN034 14/11 A2995 RMK AO2 SLP146 T01440111 10144 20122 53013=
201009091653 METAR KSEA 091653Z 20007KT 10SM FEW008 SCT015 BKN033 14/11 A2994 RMK AO2 SLP144 T01390111=
201009091640 SPECI KSEA 091640Z 20008KT 10SM FEW008 SCT020 BKN033 14/11 A2993 RMK AO2=
201009091640 SPECI KSEA 091640Z 20008KT 10SM FEW008 SCT020 BKN033 14/11 A2993 RMK AO2=
201009091553 METAR KSEA 091553Z 20008KT 10SM SCT008 BKN020 BKN033 13/11 A2992 RMK AO2 SLP138 T01330111=
201009091453 METAR KSEA 091453Z 20006KT 10SM FEW008 BKN013 BKN026 13/11 A2991 RMK AO2 SLP135 T01280111 53011=
201009091439 SPECI KSEA 091439Z 20005KT 10SM FEW008 BKN013 OVC026 13/11 A2991 RMK AO2=
201009091439 SPECI KSEA 091439Z 20005KT 10SM FEW008 BKN013 OVC026 13/11 A2991 RMK AO2=
201009091353 METAR KSEA 091353Z 20005KT 10SM BKN008 OVC026 12/11 A2990 RMK AO2 SLP130 T01220111=
201009091348 SPECI KSEA 091348Z 20004KT 10SM BKN008 OVC026 12/11 A2990 RMK AO2=
201009091348 SPECI KSEA 091348Z 20004KT 10SM BKN008 OVC026 12/11 A2990 RMK AO2=
201009091321 SPECI KSEA 091321Z 21004KT 10SM SCT008 SCT019 OVC024 12/12 A2989 RMK AO2=
201009091321 SPECI KSEA 091321Z 21004KT 10SM SCT008 SCT019 OVC024 12/12 A2989 RMK AO2=
201009091253 METAR KSEA 091253Z 22006KT 10SM OVC008 12/11 A2988 RMK AO2 SLP126 T01220111=
201009091153 METAR KSEA 091153Z 22004KT 10SM OVC008 13/11 A2988 RMK AO2 RAE1054 SLP123 60003 70011 T01280111 10139 20128 53006=
201009091124 SPECI KSEA 091124Z 22003KT 10SM BKN008 BKN019 OVC070 13/11 A2987 RMK AO2 RAE1054=
201009091124 SPECI KSEA 091124Z 22003KT 10SM BKN008 BKN019 OVC070 13/11 A2987 RMK AO2 RAE1054=
201009091113 SPECI KSEA 091113Z 22006KT 10SM SCT009 BKN019 OVC070 13/11 A2987 RMK AO2 RAE1054=
201009091113 SPECI KSEA 091113Z 22006KT 10SM SCT009 BKN019 OVC070 13/11 A2987 RMK AO2 RAE1054=
201009091053 METAR KSEA 091053Z 22006KT 10SM -RA SCT019 OVC070 13/12 A2986 RMK AO2 SLP119 P0002 T01280117=
201009090953 METAR KSEA 090953Z 21007KT 10SM -RA FEW011 OVC065 13/12 A2985 RMK AO2 RAB41 SLP116 P0001 T01280117=
201009090944 SPECI KSEA 090944Z 21006KT 10SM -RA FEW011 OVC065 13/12 A2985 RMK AO2 RAB41 P0001=
201009090944 SPECI KSEA 090944Z 21006KT 10SM -RA FEW011 OVC065 13/12 A2985 RMK AO2 RAB41 P0001=
201009090853 METAR KSEA 090853Z 22006KT 10SM BKN013 BKN020 OVC080 13/11 A2986 RMK AO2 RAE04 SLP116 P0000 60000 T01330111 53003=
201009090844 SPECI KSEA 090844Z 22006KT 10SM BKN013 BKN020 OVC080 13/11 A2986 RMK AO2 RAE04 P0000=
201009090844 SPECI KSEA 090844Z 22006KT 10SM BKN013 BKN020 OVC080 13/11 A2986 RMK AO2 RAE04 P0000=
201009090753 METAR KSEA 090753Z 20007KT 10SM -RA SCT013 BKN065 OVC100 13/11 A2985 RMK AO2 RAB30 SLP113 P0000 T01330111 401500122=
201009090719 SPECI KSEA 090719Z 19004KT 10SM SCT023 OVC095 13/11 A2985 RMK AO2=
201009090719 SPECI KSEA 090719Z 19004KT 10SM SCT023 OVC095 13/11 A2985 RMK AO2=
201009090653 METAR KSEA 090653Z 21006KT 10SM OVC021 14/11 A2985 RMK AO2 SLP114 T01390111=
201009090553 METAR KSEA 090553Z 21005KT 10SM OVC019 14/11 A2985 RMK AO2 SLP114 T01390111 10150 20128 51005=
201009090513 SPECI KSEA 090513Z 18004KT 10SM BKN019 OVC095 13/12 A2984 RMK AO2=
201009090513 SPECI KSEA 090513Z 18004KT 10SM BKN019 OVC095 13/12 A2984 RMK AO2=
201009090453 METAR KSEA 090453Z 21006KT 10SM FEW019 BKN095 13/11 A2984 RMK AO2 SLP111 T01280111=
201009090353 METAR KSEA 090353Z 22005KT 10SM FEW015 BKN095 13/11 A2984 RMK AO2 SLP111 T01330111=
201009090253 METAR KSEA 090253Z 24004KT 10SM FEW016 SCT050 BKN085 13/12 A2983 RMK AO2 SLP108 T01330117 51001=
201009090153 METAR KSEA 090153Z 25005KT 10SM FEW016 SCT045 BKN080 14/12 A2983 RMK AO2 SLP108 T01440122=
201009090053 METAR KSEA 090053Z 24005KT 10SM FEW015 BKN044 15/12 A2983 RMK AO2 SLP109 T01500122=
201009082353 METAR KSEA 082353Z 21008KT 10SM FEW014 SCT040 BKN055 14/11 A2983 RMK AO2 SLP108 60000 T01440111 10150 20122 58001=
201009082253 METAR KSEA 082253Z 22005KT 10SM FEW009 SCT031 BKN047 14/12 A2984 RMK AO2 SLP109 T01440122=
201009082213 SPECI KSEA 082213Z 21006KT 10SM SCT009 BKN030 BKN047 14/12 A2984 RMK AO2=
201009082213 SPECI KSEA 082213Z 21006KT 10SM SCT009 BKN030 BKN047 14/12 A2984 RMK AO2=
201009082153 METAR KSEA 082153Z 21006KT 10SM BKN007 BKN012 BKN044 14/12 A2984 RMK AO2 SLP109 T01390122=
201009082053 METAR KSEA 082053Z 22008KT 10SM BKN005 BKN022 14/13 A2983=
201009082041 SPECI KSEA 082041Z 19006KT 10SM BKN005 BKN150 13/13 A2983 RMK AO2=
201009082041 SPECI KSEA 082041Z 19006KT 10SM BKN005 BKN150 13/13 A2983 RMK AO2=
201009081953 METAR KSEA 081953Z 23006KT 10SM BKN004 OVC007 13/12 A2984 RMK AO2 SLP109 T01280117=
201009081853 METAR KSEA 081853Z 21005KT 7SM BKN004 OVC010 13/12 A2984 RMK AO2 DZE30 SLP110 P0000 T01280122=
201009081753 METAR KSEA 081753Z 21005KT 2 1/2SM -DZ BR BKN004 OVC008 13/12 A2983 RMK AO2 SFC VIS 5 RAB03E43DZB47 SLP109 P0000 60008 T01280122 10128 20122 51006=
201009081653 METAR KSEA 081653Z 24006KT 2 1/2SM BR BKN004 OVC008 13/12 A2983 RMK AO2 SFC VIS 5 RAE49 SLP108 P0001 T01280117=
201009081553 METAR KSEA 081553Z 26004KT 2 1/2SM -RA BR BKN004 OVC015 13/12 A2982 RMK AO2 SFC VIS 3 RAB15 SLP105 P0003 T01280122=
201009081453 METAR KSEA 081453Z 24004KT 2 1/2SM BR OVC003 13/12 A2982 RMK AO2 SFC VIS 3 RAB09E27 SLP102 P0000 60004 T01280117 53009=
201009081353 METAR KSEA 081353Z 00000KT 2 1/2SM OVC004 12/12 A2981 RMK AO2 SFC VIS 7 RAE08 SLP099 P0001 T01220117=
201009081344 SPECI KSEA 081344Z 00000KT 2 1/2SM OVC004 12/12 A2981 RMK AO2 SFC VIS 7 RAE08 P0001=
201009081344 SPECI KSEA 081344Z 00000KT 2 1/2SM OVC004 12/12 A2981 RMK AO2 SFC VIS 7 RAE08 P0001=
201009081306 SPECI KSEA 081306Z 00000KT 10SM -RA BKN004 OVC021 12/12 A2980 RMK AO2 CIG 001V011 P0001 $=
201009081306 SPECI KSEA 081306Z 00000KT 10SM -RA BKN004 OVC021 12/12 A2980 RMK AO2 CIG 001V011 P0001 $=
201009081259 SPECI KSEA 081259Z 00000KT 5SM -RA BR SCT006 BKN021 OVC027 12/12 A2980 RMK AO2 P0001 $=
201009081259 SPECI KSEA 081259Z 00000KT 5SM -RA BR SCT006 BKN021 OVC027 12/12 A2980 RMK AO2 P0001 $=
201009081253 METAR KSEA 081253Z 00000KT 2SM -RA BR FEW006 BKN021 OVC029 12/12 A2980 RMK AO2 SFC VIS 5 SLP095 P0003 T01220117 $=
201009081245 SPECI KSEA 081245Z 00000KT 2SM -RA BR FEW006 BKN021 OVC029 12/12 A2980 RMK AO2 SFC VIS 5 P0001 $=
201009081245 SPECI KSEA 081245Z 00000KT 2SM -RA BR FEW006 BKN021 OVC029 12/12 A2980 RMK AO2 SFC VIS 5 P0001 $=
201009081153 METAR KSEA 081153Z 29005KT 6SM -RA BR BKN017 BKN023 OVC038 12/12 A2979 RMK AO2 SLP093 P0013 60048 70049 T01220117 10133 20122 51003 $=
201009081151 SPECI KSEA 081151Z 28004KT 6SM -RA BR BKN017 BKN023 OVC038 12/12 A2979 RMK AO2 P0013 $=
201009081151 SPECI KSEA 081151Z 28004KT 6SM -RA BR BKN017 BKN023 OVC038 12/12 A2979 RMK AO2 P0013 $=
201009081138 SPECI KSEA 081138Z 00000KT 3SM RA BR FEW013 BKN031 OVC038 12/12 A2979 RMK AO2 P0013 $=
201009081138 SPECI KSEA 081138Z 00000KT 3SM RA BR FEW013 BKN031 OVC038 12/12 A2979 RMK AO2 P0013 $=
201009081130 SPECI KSEA 081130Z 29005KT 2 1/2SM +RA BR SCT006 BKN023 OVC031 12/12 A2979 RMK AO2 P0009 $=
201009081130 SPECI KSEA 081130Z 29005KT 2 1/2SM +RA BR SCT006 BKN023 OVC031 12/12 A2979 RMK AO2 P0009 $=
201009081125 SPECI KSEA 081125Z 30005KT 4SM -RA BR SCT004 BKN014 OVC029 12/12 A2979 RMK AO2 P0008 $=
201009081125 SPECI KSEA 081125Z 30005KT 4SM -RA BR SCT004 BKN014 OVC029 12/12 A2979 RMK AO2 P0008 $=
201009081053 METAR KSEA 081053Z 29005KT 7SM -RA OVC002 12/12 A2979 RMK AO2 CIG 001V006 SLP092 P0003 T01220117 $=
201009080953 METAR KSEA 080953Z 29004KT 7SM -RA BKN004 OVC017 12/12 A2978 RMK AO2 CIG 001V007 SLP090 P0003 T01220117 $=
201009080929 SPECI KSEA 080929Z 29004KT 6SM -RA BR BKN002 BKN006 OVC018 12/12 A2978 RMK AO2 CIG 002V005 P0002 $=
201009080929 SPECI KSEA 080929Z 29004KT 6SM -RA BR BKN002 BKN006 OVC018 12/12 A2978 RMK AO2 CIG 002V005 P0002 $=
201009080916 SPECI KSEA 080916Z 28003KT 7SM -RA SCT002 BKN006 OVC018 12/12 A2978 RMK AO2 CIG 005V009 P0001 $=
201009080916 SPECI KSEA 080916Z 28003KT 7SM -RA SCT002 BKN006 OVC018 12/12 A2978 RMK AO2 CIG 005V009 P0001 $=
201009080853 METAR KSEA 080853Z 27004KT 5SM -RA BR SCT004 BKN018 OVC031 12/12 A2978 RMK AO2 SLP089 P0006 60029 T01220117 56004 $=
201009080830 SPECI KSEA 080830Z 28004KT 7SM -RA FEW009 BKN031 OVC035 13/12 A2978 RMK AO2 P0005 $=
201009080830 SPECI KSEA 080830Z 28004KT 7SM -RA FEW009 BKN031 OVC035 13/12 A2978 RMK AO2 P0005 $=
201009080753 METAR KSEA 080753Z 32003KT 4SM RA BR BKN027 OVC038 13/12 A2978 RMK AO2 SLP090 P0018 T01280122 402000128 $=
201009080719 SPECI KSEA 080719Z 00000KT 5SM RA BR FEW006 BKN020 OVC039 13/12 A2979 RMK AO2 P0005 $=
201009080719 SPECI KSEA 080719Z 00000KT 5SM RA BR FEW006 BKN020 OVC039 13/12 A2979 RMK AO2 P0005 $=
201009080653 METAR KSEA 080653Z 31004KT 6SM RA BR OVC041 13/12 A2979 RMK AO2 SLP091 P0005 T01330117 $=
201009080553 METAR KSEA 080553Z 31005KT 10SM -RA FEW018 OVC043 13/11 A2979 RMK AO2 RAB45 SLP095 P0001 60001 T01330111 10183 20133 50003 $=
201009080453 METAR KSEA 080453Z 35005KT 10SM FEW030 OVC080 14/11 A2979 RMK AO2 RAB28E38 SLP094 P0000 T01440111 $=
201009080353 METAR KSEA 080353Z 35006KT 10SM FEW030 BKN075 OVC100 15/11 A2979 RMK AO2 SLP092 T01500106 $=
201009080253 METAR KSEA 080253Z 36007KT 10SM FEW075 BKN110 BKN200 16/11 A2978 RMK AO2 SLP090 T01560106 56002 $=
201009080153 METAR KSEA 080153Z 35007KT 10SM FEW030 BKN090 BKN200 17/10 A2979 RMK AO2 SLP091 T01720100 $=
201009080053 METAR KSEA 080053Z 30006KT 10SM FEW032 BKN090 BKN200 18/09 A2979 RMK AO2 SLP091 T01780089 $=
201009072353 METAR KSEA 072353Z 32006KT 10SM FEW032 BKN090 BKN200 17/08 A2979 RMK AO2 SLP093 T01720083 10200 20144 56008 $=
201009072253 METAR KSEA 072253Z 31007KT 10SM FEW030 SCT100 BKN200 19/08 A2979 RMK AO2 SLP093 T01890083 $=
201009072153 METAR KSEA 072153Z 29006KT 10SM FEW030 BKN095 BKN200 19/08 A2980=
201009072053 METAR KSEA 072053Z 29005KT 10SM FEW020 SCT026 BKN090 18/09 A2981 RMK AO2 SLP101 T01830094 56006=
201009072048 SPECI KSEA 072048Z VRB06KT 10SM FEW020 SCT026 BKN090 18/09 A2981 RMK AO2=
201009072048 SPECI KSEA 072048Z VRB06KT 10SM FEW020 SCT026 BKN090 18/09 A2981 RMK AO2=
201009071953 METAR KSEA 071953Z VRB05KT 10SM FEW015 BKN022 BKN100 BKN250 17/11 A2982 RMK AO2 SLP103 T01720106=
201009071853 METAR KSEA 071853Z 00000KT 10SM SCT011 BKN020 BKN250 16/11 A2983 RMK AO2 SLP107 T01610111=
201009071753 METAR KSEA 071753Z 29004KT 10SM SCT011 BKN016 BKN250 14/12 A2984 RMK AO2 SLP109 60000 T01440117 10144 20128 58003=
201009071723 SPECI KSEA 071723Z 33004KT 10SM SCT007 BKN012 BKN250 14/12 A2984 RMK AO2=
201009071723 SPECI KSEA 071723Z 33004KT 10SM SCT007 BKN012 BKN250 14/12 A2984 RMK AO2=
201009071653 METAR KSEA 071653Z 01005KT 10SM SCT006 BKN017 BKN250 14/12 A2984 RMK AO2 SLP111 T01440117=
201009071553 METAR KSEA 071553Z 04006KT 8SM BKN005 OVC016 13/12 A2984 RMK AO2 SLP112 T01330117=
201009071542 SPECI KSEA 071542Z 03006KT 7SM BKN005 OVC011 13/12 A2985 RMK AO2=
201009071542 SPECI KSEA 071542Z 03006KT 7SM BKN005 OVC011 13/12 A2985 RMK AO2=
201009071453 METAR KSEA 071453Z VRB03KT 6SM BR BKN003 OVC006 13/12 A2985 RMK AO2 SLP113 60000 T01280122 56001=
201009071357 SPECI KSEA 071357Z 00000KT 5SM BR BKN004 OVC014 13/12 A2985 RMK AO2 $=
201009071357 SPECI KSEA 071357Z 00000KT 5SM BR BKN004 OVC014 13/12 A2985 RMK AO2 $=
201009071353 METAR KSEA 071353Z 00000KT 10SM SCT004 BKN014 OVC050 13/12 A2985 RMK AO2 RAB1254E19 SLP114 P0000 T01330122 $=
201009071253 METAR KSEA 071253Z 00000KT 10SM SCT006 OVC014 13/12 A2985 RMK AO2 SLP112 T01330117 $=
201009071202 SPECI KSEA 071202Z 00000KT 10SM FEW006 OVC012 13/12 A2985 RMK AO2 $=
201009071202 SPECI KSEA 071202Z 00000KT 10SM FEW006 OVC012 13/12 A2985 RMK AO2 $=
201009071153 METAR KSEA 071153Z 00000KT 10SM OVC012 13/12 A2985 RMK AO2 SLP113 60000 70008 T01330122 10144 20133 58008 $=
201009071053 METAR KSEA 071053Z 00000KT 10SM OVC014 14/12 A2986 RMK AO2 SLP116 T01390117 $=
201009070953 METAR KSEA 070953Z 26004KT 10SM FEW008 OVC016 14/12 A2987 RMK AO2 SLP119 T01390122 $=
201009070853 METAR KSEA 070853Z 24004KT 10SM FEW004 BKN010 OVC015 14/13 A2987 RMK AO2 SLP121 60000 T01390128 56012 $=
201009070833 SPECI KSEA 070833Z 21004KT 10SM SCT006 BKN010 OVC018 14/13 A2987 RMK AO2 $=
201009070833 SPECI KSEA 070833Z 21004KT 10SM SCT006 BKN010 OVC018 14/13 A2987 RMK AO2 $=
201009070753 METAR KSEA 070753Z 17003KT 10SM BKN004 OVC010 14/13 A2988 RMK AO2 CIG 003V006 SLP125 T01390133 401610106 $=
201009070735 SPECI KSEA 070735Z 19004KT 10SM BKN004 OVC010 14/13 A2989 RMK AO2 CIG 003V008 $=
201009070735 SPECI KSEA 070735Z 19004KT 10SM BKN004 OVC010 14/13 A2989 RMK AO2 CIG 003V008 $=
201009070653 METAR KSEA 070653Z 21005KT 10SM BKN009 OVC015 14/13 A2989 RMK AO2 RAB46E52 CIG 006V011 SLP128 P0000 T01440133 $=
201009070553 METAR KSEA 070553Z 18005KT 10SM OVC007 14/13 A2991 RMK AO2 RAB10E24 CIG 004V010 SLP134 P0000 60007 T01440133 10156 20139 58008 $=
201009070453 METAR KSEA 070453Z 17006KT 10SM OVC007 14/13 A2992 RMK AO2 CIG 006V013 SLP138 T01390133 $=
201009070353 METAR KSEA 070353Z 17007KT 10SM OVC007 14/13 A2993 RMK AO2 RAE33 CIG 004V010 SLP142 P0001 T01390133 $=
201009070304 SPECI KSEA 070304Z 16005KT 6SM -RA BR BKN005 OVC010 14/13 A2993 RMK AO2 CIG 002V009 P0000 $=
201009070304 SPECI KSEA 070304Z 16005KT 6SM -RA BR BKN005 OVC010 14/13 A2993 RMK AO2 CIG 002V009 P0000 $=
201009070253 METAR KSEA 070253Z 19004KT 8SM -RA SCT003 OVC012 14/13 A2993=
201009070238 SPECI KSEA 070238Z 19005KT 10SM -RA FEW003 SCT008 OVC015 14/13 A2993 RMK AO2 RAE02B32 P0000 $=
201009070238 SPECI KSEA 070238Z 19005KT 10SM -RA FEW003 SCT008 OVC015 14/13 A2993 RMK AO2 RAE02B32 P0000 $=
201009070153 METAR KSEA 070153Z 20007KT 6SM RA BR BKN020 BKN025 OVC032 14/13 A2994 RMK AO2 SLP144 P0004 T01440128 $=
201009070053 METAR KSEA 070053Z 22006KT 5SM RA OVC025 16/12 A2995 RMK AO2 RAB27 SLP149 P0001 T01560122 $=
201009062353 METAR KSEA 062353Z 21006KT 10SM BKN025 OVC030 16/12 A2997 RMK AO2 RAE35 SLP154 P0001 60001 T01560117 10161 20128 58017 $=
201009062253 METAR KSEA 062253Z 22008KT 9SM -RA OVC025 16/12 A2999 RMK AO2 RAB42 SLP162 P0000 T01560117 $=
201009062153 METAR KSEA 062153Z 18007KT 10SM BKN025 OVC034 16/10 A3000=
201009062053 METAR KSEA 062053Z 20007KT 10SM BKN023 OVC034 16/10 A3002 RMK AO2 SLP171 T01610100 58019 $=
201009061953 METAR KSEA 061953Z 19008KT 10SM OVC021 16/09 A3004 RMK AO2 SLP178 T01560094 $=
201009061853 METAR KSEA 061853Z 17007KT 10SM OVC021 14/09 A3006 RMK AO2 SLP185 T01440094 $=
201009061753 METAR KSEA 061753Z 17007KT 10SM FEW012 OVC018 13/09 A3008 RMK AO2 SLP191 T01280089 10128 20106 57007 $=
201009061653 METAR KSEA 061653Z 16006KT 10SM FEW013 OVC020 12/09 A3008 RMK AO2 SLP192 T01220089 $=
201009061553 METAR KSEA 061553Z 17006KT 10SM FEW012 OVC017 12/09 A3009 RMK AO2 SLP197 T01170089 $=
201009061538 SPECI KSEA 061538Z 17007KT 10SM BKN015 OVC024 12/09 A3009 RMK AO2 $=
201009061538 SPECI KSEA 061538Z 17007KT 10SM BKN015 OVC024 12/09 A3009 RMK AO2 $=
201009061453 METAR KSEA 061453Z 17008KT 10SM BKN012 OVC020 12/08 A3010 RMK AO2 SLP198 T01170083 56013 $=
201009061445 SPECI KSEA 061445Z 18009KT 10SM BKN014 OVC020 12/08 A3010 RMK AO2 $=
201009061445 SPECI KSEA 061445Z 18009KT 10SM BKN014 OVC020 12/08 A3010 RMK AO2 $=
201009061353 METAR KSEA 061353Z 17006KT 10SM BKN017 BKN050 OVC070 11/09 A3010 RMK AO2 SLP200 T01110089 $=
201009061342 SPECI KSEA 061342Z 17006KT 10SM BKN017 BKN050 OVC070 11/09 A3011 RMK AO2 $=
201009061342 SPECI KSEA 061342Z 17006KT 10SM BKN017 BKN050 OVC070 11/09 A3011 RMK AO2 $=
201009061316 SPECI KSEA 061316Z 18008KT 10SM SCT020 BKN050 OVC070 11/09 A3011 RMK AO2 $=
201009061316 SPECI KSEA 061316Z 18008KT 10SM SCT020 BKN050 OVC070 11/09 A3011 RMK AO2 $=
201009061253 METAR KSEA 061253Z 18010KT 10SM BKN020 BKN050 OVC075 11/09 A3012 RMK AO2 SLP204 T01110089 $=
201009061200 SPECI KSEA 061200Z 17007KT 10SM BKN020 BKN050 OVC090 11/09 A3013 RMK AO2 $=
201009061200 SPECI KSEA 061200Z 17007KT 10SM BKN020 BKN050 OVC090 11/09 A3013 RMK AO2 $=
201009061153 METAR KSEA 061153Z 17007KT 10SM SCT020 BKN050 OVC090 11/09 A3013 RMK AO2 RAE32 SLP210 P0000 60004 70004 T01060089 10133 20106 58002 $=
201009061053 METAR KSEA 061053Z 16006KT 10SM -RA BKN050 OVC065 11/09 A3014 RMK AO2 DZE08RAB08 SLP213 P0004 T01110089 $=
201009060953 METAR KSEA 060953Z 17004KT 10SM -DZ BKN080 OVC090 12/08 A3014 RMK AO2 RAB15E29DZB50 SLP211 P0000 T01170083 $=
201009060853 METAR KSEA 060853Z 18008KT 10SM FEW060 OVC110 12/08 A3014 RMK AO2 SLP212 T01170078 55002 $=
201009060753 METAR KSEA 060753Z 18008KT 10SM SCT060 BKN130 12/08 A3014 RMK AO2 SLP210 T01170078 401830117 $=
201009060653 METAR KSEA 060653Z 21007KT 10SM BKN070 12/08 A3014 RMK AO2 SLP214 T01220078 $=
201009060553 METAR KSEA 060553Z 21009KT 10SM FEW049 OVC070 13/08 A3015 RMK AO2 SLP215 T01330083 10178 20133 51004 $=
201009060453 METAR KSEA 060453Z 22007KT 10SM SCT049 BKN070 14/08 A3015 RMK AO2 SLP214 T01390083 $=
201009060353 METAR KSEA 060353Z 21004KT 10SM SCT070 BKN200 15/08 A3014 RMK AO2 SLP213 T01500078 $=
201009060253 METAR KSEA 060253Z 23004KT 10SM FEW050 BKN070 16/08 A3013 RMK AO2 SLP209 T01610078 56006 $=
201009060153 METAR KSEA 060153Z 23005KT 10SM BKN075 BKN200 17/08 A3014 RMK AO2 SLP210 T01670078 $=
201009060053 METAR KSEA 060053Z 21006KT 10SM FEW030 BKN070 BKN200 17/07 A3014 RMK AO2 SLP212 T01720072 $=
201009052353 METAR KSEA 052353Z 26004KT 10SM FEW040 BKN070 BKN200 17/08 A3015 RMK AO2 SLP215 T01720078 10183 20133 56008 $=
201009052253 METAR KSEA 052253Z 25008KT 10SM BKN070 BKN200 18/07 A3015 RMK AO2 SLP216 T01780072 $=
201009052153 METAR KSEA 052153Z 18012KT 10SM FEW040 SCT080 SCT200 18/07 A3016 RMK AO2 SLP218 T01780067 $=
201009052053 METAR KSEA 052053Z 22010KT 10SM FEW023 SCT043 BKN080 18/07 A3017 RMK AO2 SLP223 T01780072 58002 $=
201009051953 METAR KSEA 051953Z 25009KT 210V270 10SM FEW023 BKN035 BKN080 17/08 A3018 RMK AO2 SLP224 T01670083 $=
201009051853 METAR KSEA 051853Z 20009KT 10SM FEW019 SCT060 BKN095 16/08 A3018 RMK AO2 SLP225 T01560083 $=
201009051808 SPECI KSEA 051808Z 21009KT 10SM SCT019 SCT050 BKN120 14/08 A3018 RMK AO2 $=
201009051808 SPECI KSEA 051808Z 21009KT 10SM SCT019 SCT050 BKN120 14/08 A3018 RMK AO2 $=
201009051753 METAR KSEA 051753Z 22010KT 10SM SCT019 BKN050 BKN110 14/08 A3018 RMK AO2 SLP226 T01390083 10139 20117 51011 $=
201009051653 METAR KSEA 051653Z 20009G14KT 10SM OVC017 13/08 A3018 RMK AO2 SLP225 T01280083 $=
201009051553 METAR KSEA 051553Z 21004KT 10SM OVC012 12/09 A3016 RMK AO2 SLP220 T01220089 $=
201009051453 METAR KSEA 051453Z 19006KT 10SM OVC014 12/09 A3014 RMK AO2 SLP214 T01220089 53012 $=
201009051353 METAR KSEA 051353Z 21005KT 10SM OVC010 12/09 A3014 RMK AO2 SLP210 T01170089 $=
201009051253 METAR KSEA 051253Z 21005KT 10SM BKN010 OVC020 12/09 A3011 RMK AO2 SLP202 T01170089 $=
201009051153 METAR KSEA 051153Z 22006KT 10SM BKN013 OVC020 12/09 A3011 RMK AO2 SLP201 7//// T01220089 10128 20117 52004 $=
201009051053 METAR KSEA 051053Z 22005KT 10SM BKN013 BKN020 12/09 A3010 RMK AO2 SLP199 T01170089 $=
201009050953 METAR KSEA 050953Z 22007KT 10SM BKN013 OVC020 12/09 A3010 RMK AO2 SLP199 T01220094 $=
201009050914 SPECI KSEA 050914Z 21009KT 10SM BKN015 BKN030 OVC060 12/09 A3010 RMK AO2 $=
201009050914 SPECI KSEA 050914Z 21009KT 10SM BKN015 BKN030 OVC060 12/09 A3010 RMK AO2 $=
201009050853 METAR KSEA 050853Z 21006KT 10SM SCT015 BKN030 BKN060 12/09 A3010 RMK AO2 SLP197 T01220094 55000 $=
201009050753 METAR KSEA 050753Z 20005KT 10SM FEW017 SCT040 12/09 A3009 RMK AO2 SLP196 T01170089 401940117 $=
201009050653 METAR KSEA 050653Z 21004KT 10SM SCT040 12/08 A3009 RMK AO2 SLP196 T01220083 $=
201009050553 METAR KSEA 050553Z 21005KT 10SM SCT040 13/08 A3010 RMK AO2 SLP198 T01280078 10194 20122 51010 $=
201009050453 METAR KSEA 050453Z 21009KT 10SM BKN060 13/08 A3009 RMK AO2 SLP196 T01330078 $=
201009050353 METAR KSEA 050353Z 21010KT 10SM FEW030 OVC065 14/08 A3009 RMK AO2 SLP196 T01440078 $=
201009050253 METAR KSEA 050253Z 23009KT 10SM FEW030 BKN070 16/07 A3007 RMK AO2 SLP187 T01560072 56004 $=
201009050153 METAR KSEA 050153Z 23009KT 10SM BKN070 17/07 A3007 RMK AO2 SLP187 T01670072 $=
201009050053 METAR KSEA 050053Z 25008KT 10SM BKN065 19/07 A3007 RMK AO2 SLP186 T01940072 $=
201009042353 METAR KSEA 042353Z 23008KT 10SM FEW039 OVC065 18/07 A3008 RMK AO2 SLP191 T01830072 10194 20133 58013 $=
201009042253 METAR KSEA 042253Z 21009KT 10SM FEW039 OVC065 18/08 A3010 RMK AO2 SLP197 T01830078 $=
201009042153 METAR KSEA 042153Z 20008KT 10SM FEW030 BKN039 18/09 A3011 RMK AO2 SLP201 T01780089=
201009042111 SPECI KSEA 042111Z 20006KT 10SM FEW025 SCT030 BKN038 18/09 A3012 RMK AO2=
201009042111 SPECI KSEA 042111Z 20006KT 10SM FEW025 SCT030 BKN038 18/09 A3012 RMK AO2=
201009042053 METAR KSEA 042053Z 20009KT 10SM BKN025 16/09 A3012 RMK AO2 SLP204 T01610089 58004=
201009041953 METAR KSEA 041953Z 20007KT 10SM OVC025 16/09 A3012 RMK AO2 SLP205 T01560089=
201009041853 METAR KSEA 041853Z 20006KT 10SM FEW010 OVC023 15/09 A3013 RMK AO2 SLP209 T01500094=
201009041753 METAR KSEA 041753Z 22006KT 10SM SCT010 OVC023 13/09 A3013 RMK AO2 SLP209 6//// T01330094 10144 20122 53009=
201009041653 METAR KSEA 041653Z 23004KT 10SM SCT007 OVC015 13/10 A3012 RMK AO2 RAE03 SLP206 P0000 T01280100 $=
201009041646 SPECI KSEA 041646Z 22004KT 10SM SCT007 OVC015 13/11 A3012 RMK AO2 RAE03 P0000 $=
201009041646 SPECI KSEA 041646Z 22004KT 10SM SCT007 OVC015 13/11 A3012 RMK AO2 RAE03 P0000 $=
201009041604 SPECI KSEA 041604Z 23006KT 8SM BKN005 OVC010 12/11 A3011 RMK AO2 RAE03 P0000 $=
201009041604 SPECI KSEA 041604Z 23006KT 8SM BKN005 OVC010 12/11 A3011 RMK AO2 RAE03 P0000 $=
201009041553 METAR KSEA 041553Z 22007KT 2SM R16L/5500VP6000FT -RA BR OVC005 12/11 A3010 RMK AO2 DZE06RAB06 CIG 002V008 SLP199 P0001 T01220111 $=
201009041547 SPECI KSEA 041547Z 24006KT 2SM R16L/5000VP6000FT -RA BR BKN003 OVC008 12/11 A3010 RMK AO2 DZE06RAB06 CIG 002V006 P0001 $=
201009041547 SPECI KSEA 041547Z 24006KT 2SM R16L/5000VP6000FT -RA BR BKN003 OVC008 12/11 A3010 RMK AO2 DZE06RAB06 CIG 002V006 P0001 $=
201009041507 SPECI KSEA 041507Z 23009KT 1/2SM R16L/P6000FT -RA BR BKN003 OVC008 13/12 A3009 RMK AO2 SFC VIS 3/4 DZE06RAB06 CIG 002V006 PNO $=
201009041507 SPECI KSEA 041507Z 23009KT 1/2SM R16L/P6000FT -RA BR BKN003 OVC008 13/12 A3009 RMK AO2 SFC VIS 3/4 DZE06RAB06 CIG 002V006 PNO $=
201009041456 SPECI KSEA 041456Z 22006KT 2SM -DZ BR BKN003 OVC008 13/13 A3009 RMK AO2 SFC VIS 10 CIG 002V006 PNO $=
201009041456 SPECI KSEA 041456Z 22006KT 2SM -DZ BR BKN003 OVC008 13/13 A3009 RMK AO2 SFC VIS 10 CIG 002V006 PNO $=
201009041453 METAR KSEA 041453Z 23005KT 1SM R16L/P6000FT -DZ BR SCT003 OVC006 13/12 A3009 RMK AO2 TWR VIS 2 RAB33E49DZB49 SLP194 P0000 6//// T01330122 53009 PNO $=
201009041434 SPECI KSEA 041434Z 23005KT 1SM R16L/5000VP6000FT -RA BR FEW003 OVC008 13/12 A3008 RMK AO2 TWR VIS 2 RAB33 P0000 $=
201009041434 SPECI KSEA 041434Z 23005KT 1SM R16L/5000VP6000FT -RA BR FEW003 OVC008 13/12 A3008 RMK AO2 TWR VIS 2 RAB33 P0000 $=
201009041411 SPECI KSEA 041411Z 20003KT 5SM BR BKN008 OVC030 14/13 A3008 RMK AO2 $=
201009041411 SPECI KSEA 041411Z 20003KT 5SM BR BKN008 OVC030 14/13 A3008 RMK AO2 $=
201009041353 METAR KSEA 041353Z 16003KT 10SM BKN010 OVC032 14/12 A3007 RMK AO2 RAB44E52 SLP188 P0000 T01390122 $=
201009041344 SPECI KSEA 041344Z 16004KT 10SM -RA BKN010 OVC032 14/12 A3007 RMK AO2 RAB44 P0000 $=
201009041344 SPECI KSEA 041344Z 16004KT 10SM -RA BKN010 OVC032 14/12 A3007 RMK AO2 RAB44 P0000 $=
201009041253 METAR KSEA 041253Z 17005KT 10SM BKN020 OVC029 14/12 A3007 RMK AO2 SLP186 T01440117 $=
201009041233 SPECI KSEA 041233Z 12004KT 10SM BKN015 OVC029 14/12 A3007 RMK AO2 $=
201009041233 SPECI KSEA 041233Z 12004KT 10SM BKN015 OVC029 14/12 A3007 RMK AO2 $=
201009041208 SPECI KSEA 041208Z 12005KT 10SM BKN010 OVC027 14/12 A3006 RMK AO2 $=
201009041208 SPECI KSEA 041208Z 12005KT 10SM BKN010 OVC027 14/12 A3006 RMK AO2 $=
201009041153 METAR KSEA 041153Z 13006KT 10SM FEW010 BKN024 BKN030 14/12 A3006 RMK AO2 SLP184 T01390117 10161 20133 50005 $=
201009041123 SPECI KSEA 041123Z 14004KT 10SM SCT008 BKN025 BKN060 13/12 A3006 RMK AO2 $=
201009041123 SPECI KSEA 041123Z 14004KT 10SM SCT008 BKN025 BKN060 13/12 A3006 RMK AO2 $=
201009041104 SPECI KSEA 041104Z 14003KT 10SM BKN008 BKN013 BKN025 14/12 A3006 RMK AO2 $=
201009041104 SPECI KSEA 041104Z 14003KT 10SM BKN008 BKN013 BKN025 14/12 A3006 RMK AO2 $=
201009041053 METAR KSEA 041053Z 14003KT 10SM FEW008 SCT013 BKN025 13/12 A3006 RMK AO2 SLP184 T01330117 $=
201009041031 SPECI KSEA 041031Z 16004KT 10SM FEW008 SCT013 SCT025 13/12 A3006 RMK AO2 $=
201009041031 SPECI KSEA 041031Z 16004KT 10SM FEW008 SCT013 SCT025 13/12 A3006 RMK AO2 $=
201009041011 SPECI KSEA 041011Z 17003KT 10SM FEW008 SCT013 BKN025 13/12 A3006 RMK AO2 $=
201009041011 SPECI KSEA 041011Z 17003KT 10SM FEW008 SCT013 BKN025 13/12 A3006 RMK AO2 $=
201009040953 METAR KSEA 040953Z 17004KT 10SM SCT025 BKN250 13/12 A3005 RMK AO2 SLP181 T01330117 $=
201009040853 METAR KSEA 040853Z 22003KT 10SM FEW025 BKN250 14/12 A3005 RMK AO2 SLP179 T01390117 51009 $=
201009040753 METAR KSEA 040753Z 00000KT 10SM BKN250 14/12 A3004 RMK AO2 SLP178 T01440122 402890128 $=
201009040653 METAR KSEA 040653Z 19003KT 10SM BKN250 15/12 A3003 RMK AO2 SLP174 T01500122 $=
201009040553 METAR KSEA 040553Z 18003KT 10SM BKN250 16/12 A3002 RMK AO2 SLP170 T01560117 10283 20156 51021 $=
201009040453 METAR KSEA 040453Z 29003KT 10SM SCT250 16/12 A3000 RMK AO2 SLP164 T01610117 $=
201009040353 METAR KSEA 040353Z 17004KT 10SM SCT250 16/12 A2998 RMK AO2 SLP157 T01610117 $=
201009040253 METAR KSEA 040253Z 00000KT 10SM SCT250 21/12 A2996 RMK AO2 SLP149 T02110122 53003 $=
201009040153 METAR KSEA 040153Z 34004KT 10SM FEW120 SCT250 25/09 A2994 RMK AO2 SLP144 T02500094 $=
201009040053 METAR KSEA 040053Z 29005KT 10SM SCT250 27/11 A2994 RMK AO2 SLP144 T02720106 $=
201009032353 METAR KSEA 032353Z 26004KT 10SM FEW140 SCT250 28/09 A2995 RMK AO2 SLP145 T02780094 10289 20206 56010 $=
201009032253 METAR KSEA 032253Z VRB05KT 10SM FEW140 BKN250 28/08 A2996 RMK AO2 SLP148 T02780078 $=
201009032153 METAR KSEA 032153Z VRB05KT 10SM FEW140 BKN250 27/10 A2997 RMK AO2 SLP152 T02720100 $=
201009032053 METAR KSEA 032053Z 28005KT 10SM SCT200 26/09 A2998 RMK AO2 SLP156 T02610094 58003=
201009031953 METAR KSEA 031953Z 00000KT 10SM SCT200 24/11 A2998 RMK AO2 SLP157 T02390106=
201009031853 METAR KSEA 031853Z 28004KT 10SM SCT200 23/10 A2999 RMK AO2 SLP159 T02280100=
201009031753 METAR KSEA 031753Z 28004KT 10SM BKN200 20/12 A2999 RMK AO2 SLP158 T02000117 10200 20128 53004=
201009031653 METAR KSEA 031653Z 00000KT 10SM FEW200 19/12 A2998 RMK AO2 SLP155 T01890117=
201009031553 METAR KSEA 031553Z 00000KT 10SM FEW200 17/11 A2998 RMK AO2 SLP156 T01670111=
201009031453 METAR KSEA 031453Z 00000KT 10SM FEW150 BKN250 14/11 A2998 RMK AO2 SLP156 T01440111 53003=
201009031353 METAR KSEA 031353Z 32003KT 10SM FEW150 SCT250 13/09 A2997 RMK AO2 SLP154 T01330094=
201009031253 METAR KSEA 031253Z 00000KT 10SM FEW130 SCT250 13/09 A2996 RMK AO2 SLP150 T01330094=
201009031153 METAR KSEA 031153Z 00000KT 10SM FEW130 SCT250 14/10 A2997 RMK AO2 SLP152 T01390100 10178 20128 50003=
201009031053 METAR KSEA 031053Z 00000KT 10SM FEW130 SCT250 13/09 A2997 RMK AO2 SLP153 T01330094=
201009030953 METAR KSEA 030953Z 00000KT 10SM SCT130 BKN250 14/09 A2997 RMK AO2 SLP152 T01440094=
201009030853 METAR KSEA 030853Z 35003KT 10SM FEW130 BKN250 16/10 A2996 RMK AO2 SLP149 T01560100 58004=
201009030753 METAR KSEA 030753Z 34006KT 10SM BKN250 16/10 A2996 RMK AO2 SLP150 T01560100 402500111=
201009030653 METAR KSEA 030653Z 36007KT 10SM BKN250 16/10 A2997 RMK AO2 SLP154 T01610100=
201009030553 METAR KSEA 030553Z 01011KT 10SM BKN250 18/10 A2997 RMK AO2 SLP153 T01780100 10244 20172 58003=
201009030453 METAR KSEA 030453Z 35009KT 10SM BKN250 17/11 A2998 RMK AO2 SLP157 T01720111=
201009030353 METAR KSEA 030353Z 01011KT 10SM FEW180 BKN250 19/11 A2998 RMK AO2 SLP158 T01940111=
201009030253 METAR KSEA 030253Z 01011KT 10SM FEW180 BKN250 19/11 A2998 RMK AO2 SLP157 T01890106 58010=
201009030153 METAR KSEA 030153Z 34007KT 10SM BKN250 21/10 A2999 RMK AO2 SLP162 T02110100=
201009030053 METAR KSEA 030053Z 34013KT 10SM BKN250 23/09 A3000 RMK AO2 SLP162 T02280094=
201009022353 METAR KSEA 022353Z 35011KT 10SM BKN250 24/09 A3001 RMK AO2 SLP166 T02440094 10250 20183 56031=
201009022253 METAR KSEA 022253Z 36012G16KT 10SM BKN250 24/11 A3004 RMK AO2 SLP176 T02440106=
201009022153 METAR KSEA 022153Z 01012G17KT 10SM SCT250 24/10 A3007 RMK AO2 SLP185 T02440100=
201009022053 METAR KSEA 022053Z 36009G16KT 10SM BKN250 23/09 A3010 RMK AO2 SLP198 T02280094 56024=
201009021953 METAR KSEA 021953Z 35010KT 10SM BKN250 22/09 A3012 RMK AO2 SLP205 T02170094=
201009021853 METAR KSEA 021853Z 01008KT 10SM BKN250 19/10 A3015 RMK AO2 SLP215 T01890100=
201009021753 METAR KSEA 021753Z 01009KT 10SM BKN250 18/08 A3017 RMK AO2 SLP223 T01830083 10183 20111 56009=
201009021653 METAR KSEA 021653Z 01007KT 10SM BKN250 17/09 A3018 RMK AO2 SLP224 T01670094=
201009021553 METAR KSEA 021553Z 36008KT 10SM BKN250 14/09 A3019 RMK AO2 SLP228 T01440094=
201009021453 METAR KSEA 021453Z 01008KT 10SM SCT250 13/09 A3020 RMK AO2 SLP232 T01280094 55001=
201009021353 METAR KSEA 021353Z 01009KT 10SM BKN250 12/09 A3020 RMK AO2 SLP230 T01170094=
201009021253 METAR KSEA 021253Z 02011KT 10SM CLR 12/09 A3020 RMK AO2 SLP231 T01220094=
201009021153 METAR KSEA 021153Z 03007KT 10SM CLR 12/09 A3021 RMK AO2 SLP234 T01220094 10161 20111 58001=
201009021053 METAR KSEA 021053Z 36006KT 10SM CLR 11/09 A3022 RMK AO2 SLP237 T01110089=
201009020953 METAR KSEA 020953Z 35005KT 10SM CLR 12/08 A3021 RMK AO2 SLP235 T01220083=
201009020853 METAR KSEA 020853Z 36006KT 10SM CLR 13/09 A3021 RMK AO2 SLP235 T01280089 58001=
201009020753 METAR KSEA 020753Z 02007KT 10SM CLR 14/09 A3021 RMK AO2 SLP236 T01440089 402170139=
201009020653 METAR KSEA 020653Z 35004KT 10SM FEW065 14/09 A3021 RMK AO2 SLP237 T01390094=
201009020553 METAR KSEA 020553Z 03007KT 10SM FEW065 16/11 A3021 RMK AO2 SLP236 T01610106 10217 20144 51008=
201009020453 METAR KSEA 020453Z 35005KT 10SM FEW065 14/11 A3021 RMK AO2 SLP236 T01440106=
201009020353 METAR KSEA 020353Z 36006KT 10SM SCT070 16/10 A3021 RMK AO2 SLP234 T01610100=
201009020253 METAR KSEA 020253Z 30003KT 10SM SCT065 17/10 A3019 RMK AO2 SLP228 T01670100 53006=
201009020153 METAR KSEA 020153Z 31005KT 10SM SCT060 18/10 A3018 RMK AO2 SLP225 T01830100=
201009020053 METAR KSEA 020053Z 31005KT 10SM SCT060 21/09 A3018 RMK AO2 SLP225 T02060094=
201009012353 METAR KSEA 012353Z 35005KT 10SM SCT045 21/09 A3017 RMK AO2 SLP221 T02110094 10217 20161 51005=
201009012253 METAR KSEA 012253Z 32004KT 10SM SCT045 21/08 A3017 RMK AO2 SLP221 T02110083=
201009012153 METAR KSEA 012153Z 23007KT 10SM FEW027 BKN038 20/11 A3016 RMK AO2 SLP219 T02000106=
201009012053 METAR KSEA 012053Z VRB06KT 10SM FEW025 BKN034 19/11 A3016 RMK AO2 SLP217 T01890111 53013=
201009011953 METAR KSEA 011953Z 00000KT 10SM FEW024 BKN035 18/11 A3014 RMK AO2 SLP211 T01830106=
201009011914 SPECI KSEA 011914Z 36004KT 10SM SCT023 BKN034 18/11 A3013 RMK AO2=
201009011914 SPECI KSEA 011914Z 36004KT 10SM SCT023 BKN034 18/11 A3013 RMK AO2=
201009011853 METAR KSEA 011853Z VRB06KT 10SM FEW017 BKN028 18/11 A3013 RMK AO2 SLP209 T01830106=
201009011753 METAR KSEA 011753Z 03008KT 10SM FEW013 BKN024 16/11 A3012 RMK AO2 SLP204 T01610111 10167 20139 53019=
201009011729 SPECI KSEA 011729Z 03009KT 10SM SCT012 BKN020 16/11 A3010 RMK AO2=
201009011729 SPECI KSEA 011729Z 03009KT 10SM SCT012 BKN020 16/11 A3010 RMK AO2=
201009011653 METAR KSEA 011653Z 05007KT 10SM FEW007 BKN011 BKN019 15/12 A3009 RMK AO2 SLP195 T01500117=
201009011648 SPECI KSEA 011648Z 06010KT 10SM FEW007 SCT011 BKN019 15/12 A3009 RMK AO2=
201009011648 SPECI KSEA 011648Z 06010KT 10SM FEW007 SCT011 BKN019 15/12 A3009 RMK AO2=
201009011617 SPECI KSEA 011617Z 03004KT 10SM FEW007 BKN011 BKN020 17/12 A3008 RMK AO2=
201009011617 SPECI KSEA 011617Z 03004KT 10SM FEW007 BKN011 BKN020 17/12 A3008 RMK AO2=
201009011553 METAR KSEA 011553Z 03003KT 10SM BKN011 BKN030 16/12 A3007 RMK AO2 SLP188 T01610117=
201009011541 SPECI KSEA 011541Z 00000KT 10SM SCT010 BKN030 15/12 A3007 RMK AO2=
201009011541 SPECI KSEA 011541Z 00000KT 10SM SCT010 BKN030 15/12 A3007 RMK AO2=
201009011453 METAR KSEA 011453Z 00000KT 10SM SCT009 OVC015 14/12 A3006 RMK AO2 SLP184 T01390122 53013=
201009011414 SPECI KSEA 011414Z 00000KT 10SM BKN009 OVC015 14/12 A3005 RMK AO2=
201009011414 SPECI KSEA 011414Z 00000KT 10SM BKN009 OVC015 14/12 A3005 RMK AO2=
201009011353 METAR KSEA 011353Z 00000KT 10SM FEW009 OVC015 14/12 A3004 RMK AO2 SLP178 T01390122=
201009011253 METAR KSEA 011253Z 00000KT 10SM SCT009 BKN016 OVC020 14/12 A3002 RMK AO2 SLP171 T01390122=
201009011250 SPECI KSEA 011250Z 00000KT 10SM SCT009 BKN016 OVC020 14/12 A3002 RMK AO2=
201009011250 SPECI KSEA 011250Z 00000KT 10SM SCT009 BKN016 OVC020 14/12 A3002 RMK AO2=
201009011153 METAR KSEA 011153Z 00000KT 10SM BKN009 OVC015 14/12 A3001 RMK AO2 CIG 008V012 SLP166 70039 T01390122 10144 20139 53009=
201009011053 METAR KSEA 011053Z 22006KT 10SM OVC009 14/12 A3000 RMK AO2 CIG 007V011 SLP164 T01390117=
201009010953 METAR KSEA 010953Z 23006KT 10SM OVC009 14/12 A2999 RMK AO2 CIG 007V013 SLP161 T01390117=
201009010853 METAR KSEA 010853Z 21010KT 10SM BKN009 OVC013 14/12 A2998 RMK AO2 SLP158 T01390122 52004=
201009010819 SPECI KSEA 010819Z 20010KT 10SM OVC009 14/12 A2998 RMK AO2 CIG 008V013=
201009010819 SPECI KSEA 010819Z 20010KT 10SM OVC009 14/12 A2998 RMK AO2 CIG 008V013=
201009010753 METAR KSEA 010753Z 21011KT 10SM OVC011 14/12 A2998 RMK AO2 SLP157 T01390122 401500117=
201009010723 SPECI KSEA 010723Z 20014KT 10SM BKN013 OVC090 14/12 A2997 RMK AO2=
201009010723 SPECI KSEA 010723Z 20014KT 10SM BKN013 OVC090 14/12 A2997 RMK AO2=
201009010653 METAR KSEA 010653Z 21011KT 10SM BKN015 OVC019 14/12 A2997 RMK AO2 SLP156 T01440117=
201009010553 METAR KSEA 010553Z 20012G18KT 10SM BKN017 BKN022 OVC060 14/12 A2997 RMK AO2 SLP154 60001 T01440122 10150 20139 53013=
201009010519 SPECI KSEA 010519Z 19013G19KT 10SM BKN019 OVC065 14/12 A2996 RMK AO2=
201009010519 SPECI KSEA 010519Z 19013G19KT 10SM BKN019 OVC065 14/12 A2996 RMK AO2=
201009010453 METAR KSEA 010453Z 19012KT 10SM SCT016 OVC070 14/12 A2996 RMK AO2 SLP150 T01440117=
201009010353 METAR KSEA 010353Z 21017G22KT 10SM FEW009 SCT015 OVC070 14/13 A2994 RMK AO2 PK WND 22027/0331 SLP145 T01440128=
201009010333 SPECI KSEA 010333Z 20019G27KT 10SM FEW006 BKN015 OVC075 14/13 A2994 RMK AO2 PK WND 22027/0331=
201009010333 SPECI KSEA 010333Z 20019G27KT 10SM FEW006 BKN015 OVC075 14/13 A2994 RMK AO2 PK WND 22027/0331=
201009010253 METAR KSEA 010253Z 20015G20KT 10SM OVC008 15/13 A2993 RMK AO2 DZE29B46E50RAB29E42 CIG 005V010 SLP141 P0000 60001 T01500133 56009=
201009010215 SPECI KSEA 010215Z 19015KT 8SM -DZ OVC008 14/13 A2992 RMK AO2 CIG 006V013 P0000=
201009010215 SPECI KSEA 010215Z 19015KT 8SM -DZ OVC008 14/13 A2992 RMK AO2 CIG 006V013 P0000=
201009010153 METAR KSEA 010153Z 19013G24KT 10SM -DZ BKN010 OVC019 14/13 A2993 RMK AO2 DZE07B48RAB07E45 SLP142 P0001 T01440128=
201009010116 SPECI KSEA 010116Z 18014KT 5SM -RA BR FEW007 OVC013 14/13 A2993 RMK AO2 DZE07RAB07 P0000=
201009010116 SPECI KSEA 010116Z 18014KT 5SM -RA BR FEW007 OVC013 14/13 A2993 RMK AO2 DZE07RAB07 P0000=
201009010053 METAR KSEA 010053Z 18012KT 7SM -DZ OVC017 14/13 A2994 RMK AO2 DZE22B44RAB22E40 SLP146 P0000 T01440128=

# No short TAF reports from KSEA in databse.

###################################
#  large TAF from KSEA
###################################
201009302320 TAF KSEA 302320Z 0100/0206 35008KT P6SM FEW200 FM010200 04007KT
                       P6SM SKC FM011200 15005KT P6SM VCFG FEW006
                       FM011500 18008KT P6SM SCT015 FM012100 22009KT
                       P6SM SKC FM020300 24006KT P6SM BKN035=
201009302101 KSEA 302101Z 3021/0124 36008KT P6SM SKC FM010200 04007KT P6SM SKC
                       FM011100 15005KT P6SM FEW006 FM011400 18008KT
                       P6SM FEW006=
201009301843 KSEA 301843Z 3019/0124 01008KT P6SM SCT007 FM302000 36008KT P6SM
                       SKC FM010200 04007KT P6SM SKC FM011100 15005KT
                       P6SM FEW006 FM011400 18008KT P6SM FEW006=
201009301720 TAF KSEA 301720Z 3018/0124 02010KT 5SM BR OVC004 FM302000 36008KT
                       P6SM SKC FM010200 04007KT P6SM SKC FM011100
                       15005KT P6SM FEW006 FM011400 18008KT P6SM
                       FEW006=
201009301504 KSEA 301504Z 3015/0118 02011KT 4SM BR OVC004
                      TEMPO 3015/3018 1SM BR OVC002 FM302000 36008KT
                       P6SM SKC=
201009301331 KSEA 301331Z 3014/0118 02011KT P6SM OVC004
                      TEMPO 3015/3018 2SM BR OVC002 FM302000 36008KT
                       P6SM SKC=
201009301138 TAF KSEA 301138Z 3012/0118 03006KT P6SM OVC004 FM301400 03006KT
                       1/2SM FG VV001 FM301600 03006KT 3SM BR BKN002
                       FM301700 36008KT P6SM SKC=
201009300906 TAF AMD KSEA 300906Z 3009/0112 03006KT P6SM SKC FM301400 03006KT
                       1/2SM FG VV001 FM301700 03006KT 3SM BR BKN002
                       FM301800 36008KT P6SM SKC=
201009300541 TAF KSEA 300541Z 3006/0112 36006KT P6SM SKC FM301400 04006KT 1/2SM
                       FG VV001 FM301700 04006KT 3SM BR BKN002
                       FM301800 36008KT P6SM SKC=
201009300307 KSEA 300307Z 3003/0106 01007KT P6SM SKC FM301100 04006KT P6SM VCFG
                       SKC FM301300 04006KT 3SM BR BKN002
                      TEMPO 3013/3017 1/2SM FG VV001 FM301800 34008KT
                       P6SM SKC=
201009292320 TAF KSEA 292320Z 3000/0106 01007KT P6SM SKC FM301100 04006KT P6SM
                       VCFG SKC FM301300 04006KT 3SM BR BKN002
                       TEMPO 3013/3017 1/2SM FG VV001 FM301800
                       34008KT P6SM SKC=
201009292057 KSEA 292057Z 2921/3024 36009KT P6SM SCT015 FM292200 35009KT P6SM
                       SKC FM300300 03008KT P6SM SKC FM301100 04006KT
                       P6SM VCFG SKC FM301300 04006KT 3SM BR BKN002
                       TEMPO 3013/3017 1/2SM FG VV001 FM301800
                       34008KT P6SM SKC=
201009291915 KSEA 291915Z 2919/3024 02009KT P6SM OVC004 FM292100 36008KT P6SM
                       SKC FM300300 03008KT P6SM SKC FM301100 04006KT
                       P6SM VCFG SKC FM301300 04006KT 3SM BR BKN002
                       FM301400 04006KT 1/2SM FG VV001 FM301800
                       34008KT P6SM SKC=
201009291720 TAF KSEA 291720Z 2918/3024 01014KT 1/2SM FG OVC001 FM291900 01012KT
                       3SM BR BKN002 FM292000 36008KT P6SM SKC
                       FM300300 03008KT P6SM SKC FM301100 04006KT
                       P6SM VCFG SKC FM301300 04006KT 3SM BR BKN002
                       FM301400 04006KT 1/2SM FG VV001 FM301800
                       34008KT P6SM SKC=
201009291635 KSEA 291635Z 2917/3018 01010KT 1/2SM FG OVC001 FM291900 01008KT
                       3SM BR BKN002 FM292000 36007KT P6SM SKC
                       FM300600 06006KT P6SM SKC=
201009291408 TAF AMD KSEA 291408Z 2914/3018 01009KT 1/2SM FG OVC001 FM291700
                       01009KT 4SM BR BKN001 FM291800 36007KT P6SM
                       SKC FM300600 06006KT P6SM SKC=
201009291132 TAF KSEA 291132Z 2912/3018 03008KT 5SM BR SCT003
                      TEMPO 2912/2916 1SM BR BKN003 FM291700 36007KT
                       P6SM SKC FM300600 06006KT P6SM SKC=
201009290905 KSEA 290905Z 2909/3012 02008KT P6SM SKC FM291200 04006KT 4SM BR
                       SCT002
                      TEMPO 2913/2917 1SM BR BKN002 FM291900 36007KT
                       P6SM SKC FM300600 06006KT P6SM SKC=
201009290520 TAF KSEA 290520Z 2906/3012 36008KT P6SM FEW050 FM291000 04004KT
                       2SM BR BKN001
                      TEMPO 2912/2916 1/2SM FG VV002 FM291900 36007KT
                       P6SM FEW015 FM292100 34008KT P6SM SKC=
201009290305 KSEA 290305Z 2903/3006 36006KT P6SM SCT050 FM290900 04004KT 2SM
                       BR BKN001
                      TEMPO 2912/2916 1/2SM FG VV002 FM291900 36007KT
                       P6SM FEW015 FM292100 34008KT P6SM SKC=
201009282320 TAF KSEA 282320Z 2900/3006 02009KT P6SM FEW022 OVC035 FM290200
                       02007KT P6SM SCT040 FM290900 04004KT 2SM
                       BR BKN001
                      TEMPO 2912/2916 1/2SM FG VV002 FM291900 36007KT
                       P6SM FEW015 FM292100 34008KT P6SM SKC=
201009282101 KSEA 282101Z 2821/2924 04009KT P6SM BKN028 OVC040 FM282200 03008KT
                       P6SM BKN045 FM290200 04003KT P6SM FEW050
                       FM290900 04004KT 2SM BR BKN001
                      TEMPO 2912/2916 1/2SM FG VV002 FM292000 36007KT
                       P6SM FEW015=
201009281855 KSEA 281855Z 2819/2924 36012KT P6SM FEW006 SCT012 OVC024 FM282100
                       35008KT P6SM SCT020 OVC040 FM282300 36006KT
                       P6SM BKN050 FM290200 04003KT P6SM FEW050
                       FM290900 04004KT 2SM BR BKN001
                      TEMPO 2912/2916 1/2SM FG VV002 FM292000 36007KT
                       P6SM FEW015=
201009281723 TAF KSEA 281723Z 2818/2924 02009KT P6SM OVC019
                      TEMPO 2819/2822 5SM -RA BR SCT006 OVC015
                       FM282200 34006KT P6SM SCT020 OVC040 FM290000
                       36006KT P6SM BKN050 FM290300 04003KT P6SM
                       FEW050 FM290900 04004KT 2SM BR BKN001
                      TEMPO 2912/2916 1/2SM FG VV002 FM292000 36007KT
                       P6SM FEW015=
201009281503 KSEA 281503Z 2815/2918 03009KT P6SM -RA SCT006 OVC017 FM281900
                       36006KT P6SM BKN020 OVC040 FM282200 34006KT
                       P6SM SCT020 BKN040 FM290200 36006KT P6SM
                       SCT030 FM290900 04004KT 3SM BR BKN003
                      TEMPO 2910/2914 1/2SM FG VV002 FM291700 36007KT
                       P6SM SKC=
201009281353 KSEA 281353Z 2814/2918 01012KT 3SM -DZ BR SCT002 OVC009 FM281600
                       01010KT 5SM -DZ BKN010 OVC030 FM281900 36005KT
                       P6SM BKN020 OVC040 FM282200 33006KT P6SM
                       SCT020 BKN040 FM290200 36006KT P6SM SCT030
                       FM290900 04004KT 3SM BR BKN003
                      TEMPO 2910/2914 1/2SM FG VV002 FM291700 36007KT
                       P6SM SKC=
201009281132 KSEA 281132Z 2812/2918 24008KT P6SM SCT005 OVC050
                      TEMPO 2812/2816 5SM -DZ BR BKN005 OVC050
                       FM281600 VRB04KT 5SM -DZ BKN010 OVC030 FM281900
                       30005KT P6SM BKN020 OVC040 FM282200 33006KT
                       P6SM SCT020 BKN040 FM290200 36006KT P6SM
                       SCT030 FM290900 04004KT 3SM BR BKN003
                      TEMPO 2910/2914 1/2SM FG VV002 FM291700 36007KT
                       P6SM SKC=
201009281122 TAF KSEA 281122Z 2812/2918 21005KT P6SM BKN005 OVC050
                      TEMPO 2812/2816 5SM -DZ BR OVC003 FM281600
                       VRB04KT 5SM -DZ BKN010 OVC030 FM281900 30005KT
                       P6SM BKN020 OVC040 FM282200 33006KT P6SM
                       SCT020 BKN040 FM290200 36006KT P6SM SCT030
                       FM290900 04004KT 3SM BR BKN003
                      TEMPO 2910/2914 1/2SM FG VV002 FM291700 36007KT
                       P6SM SKC=
201009280904 KSEA 280904Z 2809/2912 19005KT P6SM OVC007
                      TEMPO 2809/2812 5SM BR OVC005 FM281200 21005KT
                       5SM BR OVC005
                      TEMPO 2812/2816 3SM -DZ BR FM281700 VRB04KT
                       P6SM BKN010 OVC030 FM282000 30005KT P6SM
                       SCT015 BKN035 FM290000 32007KT P6SM SCT030
                       FM290900 04004KT 3SM BR BKN003=
201009280520 TAF KSEA 280520Z 2806/2912 19005KT P6SM BKN007 OVC045
                      TEMPO 2808/2812 4SM -DZ BR OVC007 FM281200
                       VRB04KT 2SM -DZ BR OVC006 FM281700 30006KT
                       P6SM BKN010 OVC030 FM282000 30005KT P6SM
                       BKN035 FM282200 32007KT P6SM SCT050 SCT200
                       FM291000 04004KT 3SM BR SCT003=
201009280207 KSEA 280207Z 2802/2906 VRB04KT P6SM SCT008 BKN040 BKN100
                      TEMPO 2802/2806 BKN008 OVC040 FM280600 VRB04KT
                       4SM -DZ BR BKN008 OVC030 FM281200 VRB04KT
                       2SM -RA BR OVC006 FM281700 30006KT P6SM
                       BKN010 OVC030 FM282000 30005KT P6SM BKN035
                       FM282200 32007KT P6SM SCT050 SCT200=
201009272331 TAF KSEA 272331Z 2800/2906 19006KT P6SM SCT030 BKN070 BKN200 FM280400
                       18005KT P6SM BKN020 OVC030 FM281000 VRB04KT
                       4SM -DZ BR BKN010 OVC020 FM281200 VRB04KT
                       2SM -RA BR OVC006 FM282000 30005KT P6SM
                       BKN035 FM282200 32007KT P6SM SCT050 SCT200=
201009272143 KSEA 272143Z 2722/2824 21006KT P6SM SCT030 BKN070 FM280500 18005KT
                       P6SM BKN020 OVC030 FM281000 VRB04KT 4SM
                       -DZ BR BKN010 OVC020 FM281200 VRB04KT 2SM
                       -RA BR OVC006 FM282000 30005KT P6SM BKN035=
201009272055 KSEA 272055Z 2721/2824 19005KT P6SM BKN030 BKN040 FM280500 18005KT
                       P6SM BKN020 OVC030 FM281000 VRB04KT 4SM
                       -DZ BR BKN010 OVC020 FM281200 VRB04KT 2SM
                       -RA BR OVC006 FM282000 30005KT P6SM BKN035=
201009271854 KSEA 271854Z 2719/2824 18004KT P6SM SCT020 OVC035
                      TEMPO 2719/2721 4SM -RA BR SCT007 BKN020
                       OVC030 FM280500 18005KT P6SM BKN020 OVC030
                       FM281000 VRB04KT 4SM -DZ BR BKN010 OVC020
                       FM281200 VRB04KT 2SM -RA BR OVC006 FM282000
                       30005KT P6SM BKN035=
201009271740 TAF KSEA 271740Z 2718/2824 16007KT P6SM SCT027 OVC035
                      TEMPO 2718/2721 BKN025 OVC035 FM280500 18005KT
                       P6SM BKN020 OVC030 FM281000 VRB04KT 4SM
                       -DZ BR BKN010 OVC020 FM281200 VRB04KT 2SM
                       -RA BR OVC006 FM282000 30005KT P6SM BKN035=
201009271508 KSEA 271508Z 2715/2818 15004KT P6SM BKN030 OVC040 FM271800 18007KT
                       P6SM SCT020 BKN045 FM280500 18007KT P6SM
                       BKN020 OVC040 FM281000 VRB04KT 4SM -DZ BR
                       BKN010 OVC020=
201009271123 TAF KSEA 271123Z 2712/2818 14004KT 6SM BR SCT006 OVC050
                      TEMPO 2712/2716 4SM -DZ BR BKN006 OVC040
                       FM271800 18007KT P6SM SCT020 BKN040 FM280400
                       18007KT P6SM -DZ BKN020 OVC040 FM280800
                       VRB04KT 4SM -DZ BR BKN010 OVC020=
201009270902 KSEA 270902Z 2709/2812 VRB03KT P6SM SCT008 BKN030
                      TEMPO 2709/2712 4SM -DZ BR BKN008 OVC025
                       FM271200 15005KT P6SM VCSH SCT005 BKN025
                       TEMPO 2712/2716 4SM -DZ BR BKN005 OVC020
                       FM271900 18007KT P6SM VCSH SCT015 BKN030
                       FM272200 18007KT P6SM SCT020 BKN040 FM280400
                       18007KT P6SM -DZ BKN020 OVC040 FM280800
                       VRB04KT 4SM -DZ BR BKN010 OVC020=
201009270521 TAF KSEA 270521Z 2706/2812 VRB03KT P6SM BKN015 OVC035
                      TEMPO 2706/2710 4SM -DZ BR OVC012 FM271000
                       15005KT P6SM VCSH SCT005 OVC012 FM271900
                       22006KT P6SM VCSH SCT015 BKN030 FM280400
                       22006KT P6SM VCSH OVC025=
201009270302 KSEA 270302Z 2703/2806 15005KT P6SM VCSH SCT005 BKN013 OVC035 FM271000
                       15005KT P6SM VCSH SCT005 OVC012 FM271900
                       23007KT P6SM VCSH SCT015 BKN030 FM280400
                       21006KT P6SM VCSH OVC025=
201009262338 TAF KSEA 262338Z 2700/2806 27003KT P6SM VCSH SCT025 OVC040
                      TEMPO 2700/2704 BKN025 OVC040 FM270600 14005KT
                       P6SM VCSH OVC025 FM271200 21006KT P6SM VCSH
                       OVC015 FM272200 23007KT P6SM VCSH SCT025
                       OVC045 FM280400 21006KT P6SM VCSH OVC025=
201009262100 KSEA 262100Z 2621/2724 23006KT P6SM VCSH SCT010 OVC026
                      TEMPO 2621/2624 BKN020 OVC040 FM270000 12005KT
                       P6SM SCT020 BKN040 OVC070
                      TEMPO 2700/2703 BKN020 OVC040 FM270700 13004KT
                       4SM BR OVC015 FM271800 23006KT P6SM SCT020
                       OVC045=
201009261730 TAF KSEA 261730Z 2618/2724 16007KT 5SM BR SCT005 BKN018 OVC030
                       TEMPO 2618/2620 2SM -SHRA BR OVC005 FM262000
                       22008KT P6SM VCSH SCT020 OVC040
                      TEMPO 2620/2622 BKN020 OVC040 FM270700 13004KT
                       4SM BR OVC015 FM271800 23006KT P6SM SCT020
                       OVC045=
201009261436 KSEA 261436Z 2615/2718 15008KT P6SM -RA SCT020 OVC035
                      TEMPO 2615/2618 2SM RA BR SCT010 BKN020 OVC030
                       FM261800 VRB04KT P6SM VCSH SCT020 BKN040
                       FM270600 16006KT P6SM BKN020 OVC040=
201009261120 TAF KSEA 261120Z 2612/2718 17007KT P6SM -RA SCT025 OVC050
                      TEMPO 2612/2616 4SM RA BR BKN025 OVC040 FM261800
                       VRB04KT P6SM VCSH SCT020 BKN040 FM270600
                       16006KT P6SM BKN020 OVC040=
201009260902 KSEA 260902Z 2609/2712 17010KT P6SM -RA BKN030 OVC050 FM261100
                       18010KT 4SM -RA BR OVC020 FM261600 18010KT
                       P6SM -SHRA BKN030 FM262100 22007KT P6SM
                       VCSH BKN040 FM270600 16006KT P6SM BKN030=
201009260520 TAF KSEA 260520Z 2606/2712 20008KT P6SM SCT050 BKN120 FM260900
                       18012KT P6SM -RA BKN030 OVC050 FM261100
                       18012KT 4SM -RA BR OVC020 FM261600 20013G20KT
                       P6SM -SHRA BKN030 FM262100 20010KT P6SM
                       VCSH BKN040=
201009260302 KSEA 260302Z 2603/2706 20008KT P6SM SCT050 SCT120 FM260600 20012KT
                       P6SM SCT030 BKN050 BKN120 FM260900 18012KT
                       P6SM -RA BKN030 OVC050 FM261100 18012KT
                       4SM -RA BR OVC020 FM261600 20013G20KT P6SM
                       -SHRA BKN030 FM262100 20010KT P6SM VCSH
                       BKN040=
201009252335 TAF KSEA 252335Z 2600/2706 22008KT P6SM SCT150 FM260200 20008KT
                       P6SM BKN060 OVC120 FM260900 18012KT P6SM
                       -RA BKN030 OVC050 FM261100 18012KT 4SM -RA
                       BR OVC020 FM261600 20013G20KT P6SM -SHRA
                       BKN030 FM262100 20010KT P6SM VCSH BKN040=
201009252107 KSEA 252107Z 2521/2624 17007KT P6SM SCT200 FM260000 18010KT P6SM
                       SCT060 BKN150 FM260400 18010KT P6SM BKN060
                       OVC120 FM260900 18012KT P6SM -RA BKN030
                       OVC050 FM261100 18012KT 4SM -RA BR OVC020
                       FM261600 20013G20KT P6SM -SHRA BKN030=
201009251744 TAF KSEA 251744Z 2518/2624 13005KT P6SM SCT120 SCT200 FM252100
                       17007KT P6SM SCT060 BKN150 FM260200 18010KT
                       P6SM BKN050 OVC100 FM261000 18012KT P6SM
                       -RA BKN030 OVC050 FM261200 18012KT 4SM -RA
                       BR OVC020 FM261700 20013G20KT P6SM -SHRA
                       BKN030=
201009251507 KSEA 251507Z 2515/2618 13005KT P6SM SCT120 SCT200 FM252100 17007KT
                       P6SM SCT060 BKN150 FM260200 18010KT P6SM
                       BKN050 OVC100 FM261000 18010KT P6SM -RA
                       BKN030 OVC050
                      TEMPO 2610/2614 4SM -RA BR OVC020=
201009251120 TAF KSEA 251120Z 2512/2618 13005KT P6SM SCT200 FM252100 17007KT
                       P6SM SCT060 BKN150 FM260200 18010KT P6SM
                       BKN050 OVC100 FM261000 18010KT P6SM -RA
                       BKN030 OVC050
                      TEMPO 2610/2614 4SM -RA BR OVC020=
201009250903 KSEA 250903Z 2509/2612 13005KT P6SM SCT200 FM252100 17007KT P6SM
                       SCT060 BKN150 FM260200 18010KT P6SM BKN050
                       OVC100 FM260500 18010KT P6SM -RA BKN030
                       OVC050=
201009250520 TAF KSEA 250520Z 2506/2612 VRB03KT P6SM SCT200 FM252100 17007KT
                       P6SM SCT060 BKN150 FM260200 18010KT P6SM
                       BKN050 OVC100 FM260500 18010KT P6SM -RA
                       BKN030 OVC050=
201009250324 KSEA 250324Z 2503/2606 VRB03KT P6SM FEW070 SCT250 FM251600 16006KT
                       P6SM SCT050 FM252200 18008KT P6SM BKN120
                       OVC200 FM260500 18010KT P6SM BKN050 OVC100=
201009242328 TAF KSEA 242328Z 2500/2606 24004KT P6SM SCT050 BKN100
                      TEMPO 2500/2503 BKN050 OVC100 FM250300 16007KT
                       P6SM BKN070 FM250800 14005KT P6SM SCT050
                       FM251600 17006KT P6SM SCT050 FM252200 23008KT
                       P6SM SCT090 BKN200=
201009242102 KSEA 242102Z 2421/2524 21005KT P6SM SCT050 BKN080
                      TEMPO 2421/2501 BKN050 OVC080 FM250300 16007KT
                       P6SM BKN070 FM250800 14005KT P6SM SCT050
                       FM251600 17006KT P6SM SCT050 FM252200 23008KT
                       P6SM SCT090 BKN200=
201009241720 TAF KSEA 241720Z 2418/2524 14007KT P6SM OVC100 FM242000 23009KT
                       P6SM OVC100 FM250300 16007KT P6SM BKN070
                       FM250800 14005KT P6SM SCT050 FM251600 17006KT
                       P6SM SCT050 FM252200 23008KT P6SM SCT090
                       BKN200=
201009241526 KSEA 241526Z 2415/2518 14007KT P6SM OVC120 FM242000 23008KT P6SM
                       OVC100 FM250300 16007KT P6SM BKN070 FM250800
                       14005KT P6SM SCT050=
201009241138 TAF KSEA 241138Z 2412/2518 VRB03KT P6SM SCT025 BKN120
                      TEMPO 2412/2416 BKN025 BKN120 FM241900 14006KT
                       P6SM SCT050 BKN200=
201009240904 KSEA 240904Z 2409/2512 16006KT P6SM SCT030 BKN060 FM241300 16006KT
                       P6SM SCT025 BKN045 OVC070
                      TEMPO 2413/2417 BKN025 OVC045 FM241900 14006KT
                       P6SM SCT050 BKN200=
201009240541 TAF KSEA 240541Z 2406/2512 18008KT P6SM SCT030 OVC060
                      TEMPO 2406/2409 -RA BKN030 OVC060 FM241300
                       14006KT P6SM SCT025 BKN045 OVC070
                      TEMPO 2413/2417 BKN025 OVC045 FM241900 14006KT
                       P6SM SCT050 BKN200=
201009240306 KSEA 240306Z 2403/2506 18008KT P6SM VCSH SCT035 BKN060 BKN150 FM240800
                       18008KT P6SM VCSH BKN025 BKN045 FM241300
                       14006KT P6SM OVC015 FM242100 18008KT P6SM
                       BKN035=
201009232345 TAF KSEA 232345Z 2400/2506 20009KT P6SM VCSH SCT035 BKN070 OVC150
                       FM240500 17007KT P6SM VCSH BKN025 BKN045
                       FM241300 14005KT P6SM OVC015 FM242100 18008KT
                       P6SM BKN035=
201009232102 KSEA 232102Z 2321/2424 VRB03KT 6SM BR VCSH SCT006 BKN010 OVC030
                       TEMPO 2321/2323 4SM BR BKN006 OVC012 FM232300
                       17005KT P6SM VCSH SCT015 OVC035 FM240500
                       17007KT P6SM VCSH BKN025 BKN045 FM241200
                       14005KT P6SM OVC025=
201009231733 TAF KSEA 231733Z 2318/2424 17004KT P6SM -RA SCT020 BKN040 OVC060
                       TEMPO 2318/2320 4SM -RA BR BKN020 OVC035
                       FM232000 22011KT P6SM -SHRA OVC030 FM240500
                       17007KT P6SM VCSH BKN025 BKN045 FM241200
                       14005KT P6SM OVC025=
201009231537 KSEA 231537Z 2316/2418 15006KT P6SM VCSH FEW015 BKN050 BKN080
                      TEMPO 2316/2317 -SHRA BKN040 FM231700 19008KT
                       P6SM VCSH BKN035 OVC050 FM232100 22011KT
                       P6SM -RA OVC030 FM240500 17007KT P6SM VCSH
                       BKN025 BKN045=
201009231122 TAF KSEA 231122Z 2312/2418 18006KT P6SM VCSH BKN050 OVC100
                      TEMPO 2313/2317 -SHRA BKN040 FM231700 19008KT
                       P6SM VCSH BKN035 OVC050 FM232100 22011KT
                       P6SM -RA OVC030 FM240500 17007KT P6SM VCSH
                       BKN025 BKN045=
201009230815 TAF KSEA 230815Z 2308/2412 20005KT P6SM FEW040 BKN060 OVC100 FM231100
                       17006KT P6SM BKN050 OVC100 FM231700 19008KT
                       P6SM VCSH BKN030 OVC050 FM232100 20009KT
                       P6SM -RA OVC030 FM240500 19007KT P6SM VCSH
                       BKN022 BKN045=
201009230301 KSEA 230301Z 2303/2406 19005KT P6SM BKN070 FM230500 20005KT P6SM
                       BKN070 BKN120 FM231100 17006KT P6SM BKN050
                       OVC120 FM231700 19008KT P6SM VCSH BKN025
                       OVC045=
201009222324 TAF KSEA 222324Z 2300/2406 VRB05KT P6SM FEW025 BKN090 FM230500
                       20005KT P6SM SCT120 BKN200 FM231100 17006KT
                       P6SM BKN050 OVC120 FM231700 19008KT P6SM
                       VCSH BKN025 OVC045=
201009222100 KSEA 222100Z 2221/2324 31005KT P6SM FEW025 SCT100 FM230500 20005KT
                       P6SM SCT120 BKN200 FM231100 17006KT P6SM
                       BKN050 OVC120 FM231700 14006KT P6SM VCSH
                       BKN025 OVC045=
201009221736 TAF KSEA 221736Z 2218/2324 00000KT P6SM SCT004 BKN080 FM222000
                       31005KT P6SM SCT030 FM230500 20005KT P6SM
                       SCT120 BKN200 FM231100 17006KT P6SM BKN050
                       OVC120 FM231700 14006KT P6SM VCSH BKN025
                       OVC045=
201009221500 KSEA 221500Z 2215/2318 04005KT P6SM SCT002 BKN080
                      TEMPO 2215/2217 3SM BR BKN002 OVC080 FM221800
                       VRB03KT P6SM SCT080 FM222000 31005KT P6SM
                       FEW030 FM230500 20005KT P6SM FEW120 BKN200
                       FM231100 17006KT P6SM BKN050 OVC120
                      PROB30 2313/2318 -RA=
201009221125 TAF KSEA 221125Z 2212/2318 04005KT P6SM SKC
                      TEMPO 2212/2216 3SM BR SCT001 FM221800 VRB03KT
                       P6SM SKC FM222000 31005KT P6SM FEW030 FM230500
                       20005KT P6SM FEW120 BKN200 FM231100 17006KT
                       P6SM BKN050 OVC120
                      PROB30 2313/2318 -RA=
201009220901 TAF AMD KSEA 220901Z 2209/2312 36005KT P6SM SKC FM221200 VRB03KT
                       P6SM SKC
                      TEMPO 2212/2216 3SM BR SCT001 FM221800 VRB03KT
                       P6SM SKC FM222000 26005KT P6SM FEW030 FM230500
                       20005KT P6SM FEW120 BKN200=
201009220525 TAF KSEA 220525Z 2206/2312 36005KT P6SM SCT080 FM220900 04005KT
                       P6SM VCFG SKC FM221300 VRB03KT 4SM BR SCT001
                       TEMPO 2213/2217 1/2SM FG VV001 FM221800
                       VRB03KT P6SM SKC FM222000 26005KT P6SM FEW030
                       FM230500 20005KT P6SM FEW120 BKN200=
201009220300 KSEA 220300Z 2203/2306 36007KT P6SM SCT070 FM220600 03005KT P6SM
                       SKC FM220800 05005KT P6SM VCFG SKC FM221300
                       00000KT 3SM BR SCT001
                      TEMPO 2213/2217 1/2SM FG VV001 FM221800 00000KT
                       5SM BR SCT002 FM222000 24005KT P6SM FEW030=
201009212320 TAF KSEA 212320Z 2200/2306 36009KT P6SM FEW030 SCT250 FM220300
                       04006KT P6SM SKC FM220800 05005KT P6SM VCFG
                       SKC FM221300 00000KT 3SM BR SCT001
                      TEMPO 2213/2217 1/2SM FG VV001 FM221800 00000KT
                       5SM BR SCT002 FM222000 24005KT P6SM FEW030=
201009212100 KSEA 212100Z 2121/2224 31007KT P6SM SCT028 SCT070 SCT100 FM220000
                       36004KT P6SM SKC FM220800 05003KT P6SM VCFG
                       SKC FM221300 00000KT 3SM BR SCT001
                      TEMPO 2213/2217 1/2SM FG VV001 FM221800 00000KT
                       5SM BR SCT002 FM222000 24005KT P6SM FEW020=
201009211725 TAF KSEA 211725Z 2118/2224 29005KT P6SM FEW006 BKN018 BKN060 FM212000
                       34006KT P6SM SCT025 SCT060 FM220000 36004KT
                       P6SM SKC FM220800 05003KT P6SM VCFG SKC
                       FM221300 00000KT 3SM BR SCT001
                      TEMPO 2213/2217 1/2SM FG VV001 FM221800 00000KT
                       5SM BR SCT002 FM222000 24005KT P6SM FEW020=
201009211441 KSEA 211441Z 2115/2218 00000KT 6SM BR FEW001 BKN017 BKN025
                      TEMPO 2115/2117 2SM BR BKN001 BKN017 FM211800
                       VRB03KT P6SM BKN020 FM212000 34006KT P6SM
                       SKC FM221300 00000KT 1SM BR BKN002 FM221700
                       00000KT 5SM BR SCT002=
201009211318 KSEA 211318Z 2113/2218 34003KT 4SM BR SCT001 BKN006 OVC013
                      TEMPO 2113/2117 1SM BR BKN001 OVC005 FM211800
                       VRB03KT P6SM BKN012 FM212000 34006KT P6SM
                       SKC FM221300 00000KT 1SM BR BKN002 FM221700
                       00000KT 5SM BR SCT002=
201009211145 KSEA 211145Z 2112/2218 VRB03KT P6SM SCT010
                      TEMPO 2112/2114 BKN010 FM211400 VRB03KT P6SM
                       BKN006 OVC010 FM211800 VRB03KT P6SM BKN012
                       FM212000 34006KT P6SM SKC FM221300 00000KT
                       1SM BR BKN002 FM221700 00000KT 5SM BR SCT002=
201009211138 TAF KSEA 211138Z 2112/2218 VRB03KT P6SM SCT010
                      TEMPO 2114/2115 BKN010 FM211500 VRB03KT P6SM
                       BKN006 OVC010 FM211800 VRB03KT P6SM BKN012
                       FM212000 34006KT P6SM SKC FM221300 00000KT
                       1SM BR BKN002 FM221700 00000KT 5SM BR SCT002=
201009210908 KSEA 210908Z 2109/2212 00000KT P6SM BKN022 BKN070 FM211100 00000KT
                       P6SM SCT022 BKN070 FM211500 VRB03KT P6SM
                       BKN006 FM211800 VRB03KT P6SM BKN012 FM212000
                       34006KT P6SM SCT030=
201009210536 TAF KSEA 210536Z 2106/2212 18006KT P6SM OVC022 FM210900 18006KT
                       P6SM SCT022 BKN070 FM211300 VRB03KT P6SM
                       BKN006 OVC012 FM211900 VRB03KT P6SM SCT006
                       BKN012 FM212100 34006KT P6SM SCT030=
201009210311 KSEA 210311Z 2103/2206 18006KT P6SM SCT040 BKN070 FM211100 VRB03KT
                       4SM BR BKN006 OVC012 FM212100 35005KT P6SM
                       SCT025=
201009202332 TAF KSEA 202332Z 2100/2206 21012KT P6SM VCSH SCT025 BKN060
                      TEMPO 2100/2102 -SHRA BKN022 OVC045 FM210200
                       18006KT P6SM SCT040 BKN070 FM211100 VRB03KT
                       4SM BR BKN006 OVC012 FM212100 35005KT P6SM
                       SCT025=
201009202101 KSEA 202101Z 2021/2124 20011G19KT P6SM VCSH BKN030 BKN045 BKN100
                       FM210100 18006KT P6SM SCT040 BKN070 FM211100
                       VRB03KT P6SM BKN006 OVC012=
201009201826 KSEA 201826Z 2018/2124 20013G19KT P6SM VCSH SCT035 BKN080
                      TEMPO 2018/2020 BKN025 OVC040 FM202000 20012KT
                       P6SM VCSH SCT015 BKN035 FM210100 18006KT
                       P6SM SCT040 BKN070 FM211100 VRB03KT P6SM
                       BKN006 OVC012=
201009201729 TAF KSEA 201729Z 2018/2124 20016KT P6SM VCSH BKN012 BKN035 FM202000
                       20012KT P6SM VCSH SCT015 BKN035 FM210100
                       18006KT P6SM SCT040 BKN070 FM211100 VRB03KT
                       P6SM BKN006 OVC012=
201009201421 KSEA 201421Z 2014/2118 18012G18KT P6SM BKN010 OVC018 FM201800 21012KT
                       P6SM VCSH SCT030 BKN050 FM210000 18006KT
                       P6SM SCT040 BKN070 FM211100 VRB03KT P6SM
                       BKN006 OVC012=
201009201139 TAF KSEA 201139Z 2012/2118 18010KT P6SM SCT012 BKN021 OVC030 FM201800
                       21012KT P6SM VCSH SCT030 BKN050 FM210000
                       18006KT P6SM SCT040 BKN070 FM211100 VRB03KT
                       P6SM BKN006 OVC012=
201009200902 KSEA 200902Z 2009/2112 18004KT P6SM SCT015 BKN022 OVC040 FM201800
                       21010KT P6SM VCSH SCT030 BKN050 FM210000
                       18006KT P6SM SCT040 BKN070 FM211100 VRB03KT
                       P6SM BKN015 OVC025=
201009200540 TAF KSEA 200540Z 2006/2112 18004KT P6SM BKN040 OVC060 FM201100
                       18004KT P6SM SCT015 BKN025 OVC040 FM201800
                       21010KT P6SM VCSH SCT030 BKN050 FM210000
                       18006KT P6SM SCT040 BKN070 FM211100 VRB03KT
                       P6SM BKN015 OVC025=
201009200305 KSEA 200305Z 2003/2106 21006KT P6SM VCSH SCT040 BKN070 FM201000
                       19006KT P6SM VCSH SCT012 BKN020 FM201300
                       19011KT 6SM BR VCSH SCT008 BKN015 OVC025
                       FM201800 22013G20KT P6SM VCSH SCT025 BKN040
                       TEMPO 2020/2024 5SM -SHRA BR SCT018 BKN025
                       BKN040 FM210000 22009KT P6SM VCSH SCT035
                       BKN050=
201009192342 TAF KSEA 192342Z 2000/2106 21012KT P6SM VCSH SCT040 BKN050
                      TEMPO 2000/2004 6SM -SHRA BR SCT020 BKN030
                       FM200400 20008KT 6SM -SHRA SCT015 BKN025
                       FM200800 19008KT P6SM VCSH SCT012 BKN020
                       FM201300 19011KT 6SM BR VCSH SCT008 BKN015
                       OVC025 FM201800 22013G20KT P6SM VCSH SCT025
                       BKN040
                      TEMPO 2020/2024 5SM -SHRA BR SCT018 BKN025
                       BKN040 FM210000 22009KT P6SM VCSH SCT035
                       BKN050=
201009192104 KSEA 192104Z 1921/2024 18006KT P6SM SCT020 BKN040CB
                      TEMPO 1921/1923 3SM TSRA BR SCT012 BKN020CB
                       FM192300 21012KT P6SM VCSH SCT030 BKN050
                       TEMPO 1923/2003 6SM -SHRA BR SCT020 BKN030
                       FM200800 19008KT P6SM VCSH SCT012 BKN020
                       FM201300 18009KT 5SM BR VCSH SCT009 BKN015
                       OVC025 FM201800 22013KT P6SM SCT018 BKN035
                       TEMPO 2018/2022 5SM -SHRA BR BKN018 OVC030=
201009191742 TAF KSEA 191742Z 1918/2024 18006KT P6SM SCT025 BKN045 BKN070
                      TEMPO 1918/1920 4SM -SHRA BR SCT014 BKN020CB
                       OVC045 FM192000 18006KT P6SM VCTS SCT030
                       BKN050CB
                      TEMPO 1920/1924 3SM SHRA BR SCT018 OVC030CB
                       FM200000 21012KT P6SM VCSH SCT030 BKN050
                       TEMPO 2000/2004 6SM -SHRA BR SCT020 BKN030
                       FM200800 19008KT P6SM VCSH SCT012 BKN020
                       FM201300 18009KT 5SM BR VCSH SCT009 BKN015
                       OVC025 FM201800 22013KT P6SM SCT018 BKN035
                       TEMPO 2018/2022 5SM -SHRA BR BKN018 OVC030=
201009191507 KSEA 191507Z 1915/2018 18006KT P6SM SCT025 BKN045 BKN070
                      TEMPO 1916/1919 5SM -SHRA BR BKN025CB BKN045
                       FM191900 18006KT P6SM -SHRA SCT025 BKN040
                       BKN060
                      TEMPO 1919/1923 5SM SHRA SCT015 OVC025CB
                       FM200700 18006KT P6SM BKN012 OVC020=
201009191139 TAF KSEA 191139Z 1912/2018 18006KT P6SM SCT025 BKN045 BKN070
                      TEMPO 1913/1917 BKN025 BKN045 FM191700 18006KT
                       P6SM -SHRA SCT025 BKN040 BKN060
                      TEMPO 1920/1924 5SM SHRA SCT015 OVC025CB
                       FM200700 18006KT P6SM BKN012 OVC020=
201009190904 TAF AMD KSEA 190904Z 1909/2012 15006KT P6SM SCT003 BKN022 OVC030
                       TEMPO 1909/1910 4SM RA BKN003 OVC022 FM191300
                       18006KT P6SM BKN012 OVC020 FM191700 18006KT
                       P6SM -SHRA SCT025 BKN040 BKN060
                      TEMPO 1920/1924 5SM SHRA SCT015 OVC025CB
                       FM200700 21006KT P6SM BKN012 OVC020=
201009190541 TAF KSEA 190541Z 1906/2012 15006KT P6SM -RA SCT030 OVC050
                      TEMPO 1908/1910 4SM RA BKN022 OVC030 FM191000
                       18006KT P6SM SCT012 BKN022 OVC030 FM191300
                       18006KT P6SM BKN012 OVC020 FM191700 18006KT
                       P6SM -SHRA SCT025 BKN040 BKN060
                      TEMPO 1920/1924 5SM SHRA SCT015 OVC025CB
                       FM200700 21006KT P6SM BKN012 OVC020=
201009190308 KSEA 190308Z 1903/2006 VRB03KT P6SM -RA SCT030 OVC045
                      TEMPO 1904/1908 5SM -RA FM190800 VRB03KT
                       5SM -RA BR SCT006 OVC010 FM191200 VRB03KT
                       P6SM BKN004 OVC008 FM191700 15006KT P6SM
                       -SHRA SCT008 BKN015 OVC030 FM192000 22008KT
                       P6SM -SHRA SCT015 BKN025CB OVC070
                      TEMPO 1920/1924 3SM SHRA BR SCT008 OVC015CB=
201009182351 TAF KSEA 182351Z 1900/2006 30004KT P6SM -RA SCT060 OVC080 FM190200
                       VRB03KT 5SM -RA BR SCT025 OVC040 FM190400
                       VRB03KT 2SM -RA BR SCT008 OVC018 FM190700
                       VRB03KT 5SM -RA BR SCT006 OVC010 FM191000
                       VRB03KT 5SM -RA BKN004 OVC008 FM191700 15006KT
                       P6SM -SHRA SCT008 BKN015 OVC030 FM192000
                       22008KT P6SM -SHRA SCT015 BKN025CB OVC070
                       TEMPO 1920/1924 3SM SHRA BR SCT008 OVC015CB=
201009182055 KSEA 182055Z 1821/1924 25005KT P6SM SCT030 BKN150 FM182300 30004KT
                       P6SM BKN080 FM190400 VRB03KT P6SM -RA SCT030
                       OVC050 FM191000 VRB03KT 2SM -RA BKN004 OVC008
                       FM191700 15006KT P6SM -SHRA SCT008 BKN015
                       OVC030 FM192000 22008KT P6SM -SHRA SCT015
                       BKN030 OVC070=
201009181747 TAF KSEA 181747Z 1818/1924 22003KT P6SM FEW005 SCT025 BKN045 FM181900
                       22004KT P6SM SCT030 BKN045 FM182100 24005KT
                       P6SM SCT045 BKN100 FM182300 30004KT P6SM
                       BKN080 FM190500 VRB03KT P6SM -RA SCT030
                       OVC050 FM191000 VRB03KT 2SM -RA BKN004 OVC008
                       FM191700 15006KT P6SM -SHRA SCT008 BKN015
                       OVC030 FM192000 22008KT P6SM -SHRA SCT015
                       BKN030 OVC070=
201009181505 KSEA 181505Z 1815/1918 13004KT P6SM VCSH SCT005 BKN025 BKN035 FM181700
                       VRB03KT P6SM SCT025 BKN035 FM182000 25004KT
                       P6SM BKN070 FM190500 VRB03KT P6SM -RA SCT030
                       OVC045 FM191000 VRB03KT 2SM -RA BKN004 OVC008
                       FM191500 15006KT P6SM SCT005 BKN015 OVC030=
201009181139 TAF KSEA 181139Z 1812/1918 21006KT P6SM SCT022 BKN035 OVC050 FM181500
                       VRB03KT 5SM BR SCT002 BKN008 OVC050
                      TEMPO 1815/1818 1SM BR BKN002 OVC008 FM181800
                       VRB03KT P6SM BKN008 OVC050 FM181900 VRB03KT
                       P6SM SCT030 OVC050 FM190600 VRB03KT P6SM
                       -RA SCT030 OVC045 FM191000 VRB03KT 2SM -RA
                       BKN004 OVC008 FM191500 15006KT P6SM SCT005
                       BKN015 OVC030=
201009180921 KSEA 180921Z 1809/1912 VRB03KT 4SM -RA SCT008 BKN018 OVC030 FM181100
                       VRB03KT 5SM BR OVC003 FM181300 VRB03KT 1/2SM
                       FG OVC001 FM181600 VRB03KT P6SM BKN002 OVC050
                       FM181800 VRB03KT P6SM SCT030 OVC060 FM190800
                       VRB03KT 4SM -RA BKN015 OVC030=
201009180543 TAF KSEA 180543Z 1806/1912 VRB03KT 1SM RA OVC002 FM180700 VRB03KT
                       5SM -RA SCT002 BKN008 OVC015
                      TEMPO 1807/1809 2SM -RA BKN002 OVC008 FM180900
                       VRB03KT P6SM SCT008 BKN018 OVC030 FM181300
                       VRB03KT 1/2SM FG OVC001 FM181600 VRB03KT
                       P6SM BKN002 OVC050 FM181800 VRB03KT P6SM
                       SCT030 OVC060 FM190800 VRB03KT 4SM -RA BKN015
                       OVC030=
201009180312 KSEA 180312Z 1803/1906 35006KT 3SM -RA SCT020 OVC040 FM180400 VRB03KT
                       4SM -RA SCT004 BKN015 OVC035
                      TEMPO 1804/1807 2SM RA BKN004 OVC015 FM180700
                       19005KT 3SM -RA BR BKN004 OVC010 FM181700
                       VRB03KT P6SM -SHRA BKN015 OVC030 FM182200
                       22005KT P6SM VCSH SCT020 BKN035 FM190400
                       VRB03KT P6SM BKN035 OVC070=
201009172320 TAF KSEA 172320Z 1800/1906 35008KT P6SM SCT012 OVC045
                      TEMPO 1800/1804 5SM -RA BR BKN012 OVC045
                       FM180400 VRB03KT P6SM -RA SCT011 OVC035
                       TEMPO 1804/1808 4SM -RA BR BKN011 OVC030
                       FM180800 19005KT 3SM -RA BR BKN004 OVC010
                       FM181700 VRB03KT P6SM -SHRA BKN015 OVC030
                       FM182200 22005KT P6SM VCSH SCT020 BKN035
                       FM190400 VRB03KT P6SM BKN035 OVC070=
201009172102 KSEA 172102Z 1721/1824 34010KT P6SM SCT011 OVC040
                      TEMPO 1721/1724 5SM -RA BR BKN011 OVC030
                       FM180000 18006KT 5SM -RA BR OVC012 FM180600
                       19005KT 3SM -RA BR BKN004 OVC010 FM181700
                       20005KT P6SM -SHRA BKN015 OVC030 FM182200
                       22005KT P6SM VCSH SCT020 BKN035=
201009171721 TAF KSEA 171721Z 1718/1824 34006KT P6SM SCT006 OVC040
                      TEMPO 1718/1720 5SM -RA BR OVC006 FM172000
                       32010KT P6SM -RA SCT011 OVC040
                      TEMPO 1720/1724 5SM -RA BR BKN011 OVC030
                       FM180000 18006KT 5SM -RA BR OVC012 FM180600
                       19005KT 3SM -RA BR BKN004 OVC010 FM181700
                       20005KT P6SM -SHRA BKN015 OVC030 FM182200
                       22005KT P6SM VCSH SCT020 BKN035=
201009171633 KSEA 171633Z 1717/1818 01008KT 5SM BR SCT003 BKN025
                      TEMPO 1717/1718 3SM BR OVC004 FM171800 34006KT
                       5SM BR SCT012 OVC040
                      TEMPO 1718/1721 3SM -RA BR OVC012 FM172100
                       31011KT P6SM -RA SCT020 BKN040 OVC080 FM180100
                       18006KT 4SM -RA BR OVC015 FM181000 VRB03KT
                       2SM -RA BR BKN004 OVC010=
201009171505 TAF AMD KSEA 171505Z 1715/1818 01008KT 1SM BR OVC002
                      TEMPO 1715/1718 3SM OVC008 FM171800 34006KT
                       5SM BR SCT012 OVC040
                      TEMPO 1718/1721 3SM -RA BR OVC012 FM172100
                       31011KT P6SM -RA SCT020 BKN040 OVC080 FM180100
                       18006KT 4SM -RA BR OVC015 FM181000 VRB03KT
                       2SM -RA BR BKN004 OVC010=
201009171130 TAF KSEA 171130Z 1712/1818 01003KT 4SM BR SCT002 BKN018
                      TEMPO 1712/1715 1/4SM FG VV001 FM171500 04004KT
                       3SM BR VCSH OVC004 FM171800 34006KT 5SM
                       HZ VCSH SCT012 OVC040 FM172100 31011KT P6SM
                       VCSH SCT020 SCT040 OVC080 FM180100 18006KT
                       4SM -RA BR OVC015 FM181000 VRB03KT 2SM -RA
                       BR BKN004 OVC010=
201009171052 KSEA 171052Z 1711/1812 00000KT 3SM BR SCT001 BKN017
                      TEMPO 1711/1715 1/4SM FG VV001 FM171500 04004KT
                       3SM BR VCSH OVC004 FM171800 34006KT 5SM
                       HZ VCSH SCT012 OVC040 FM172100 31011KT P6SM
                       VCSH SCT020 SCT040 OVC080 FM180100 18006KT
                       4SM -RA BR OVC015=
201009170900 TAF AMD KSEA 170900Z 1709/1812 12003KT P6SM SCT006 BKN020
                      TEMPO 1709/1712 4SM -SHRA BR OVC006 FM171200
                       04004KT 4SM BR VCSH OVC006 FM171700 34006KT
                       5SM HZ VCSH SCT012 OVC040 FM172100 31011KT
                       P6SM VCSH SCT020 SCT040 OVC080 FM180100
                       18006KT 4SM -RA BR OVC015=
201009170540 TAF KSEA 170540Z 1706/1812 VRB03KT 6SM BR SCT006 BKN030 OVC050
                       TEMPO 1706/1710 3SM -SHRA BR BKN006 OVC020
                       FM171000 04003KT 4SM BR VCSH SCT006 OVC020
                       TEMPO 1710/1712 OVC006 FM171200 04004KT
                       4SM BR VCSH OVC006 FM171700 34006KT 5SM
                       HZ VCSH SCT012 OVC040 FM172100 31011KT P6SM
                       VCSH SCT020 SCT040 OVC080 FM180100 18006KT
                       4SM -RA BR OVC015=
201009170416 KSEA 170416Z 1704/1806 28005KT 5SM BR SCT001 SCT013 OVC023
                      TEMPO 1704/1706 1SM -RA BR OVC001 FM170600
                       04004KT P6SM VCSH SCT022 OVC045 FM171200
                       04004KT 4SM BR VCSH OVC006 FM171800 03003KT
                       P6SM SCT008 OVC020
                      TEMPO 1718/1722 SCT020 OVC050 FM172200 03006KT
                       4SM -RA BR VCSH BKN012 OVC020 FM180400 22005KT
                       P6SM VCSH SCT012 BKN018=
201009170300 KSEA 170300Z 1703/1806 35003KT P6SM SCT003 BKN050 OVC110
                      TEMPO 1703/1706 -SHRA BKN010 OVC025 FM170600
                       04004KT P6SM VCSH SCT022 OVC045 FM171200
                       04004KT 4SM BR VCSH OVC006 FM171800 03003KT
                       P6SM SCT008 OVC020
                      TEMPO 1718/1722 SCT020 OVC050 FM172200 03006KT
                       4SM -RA BR VCSH BKN012 OVC020 FM180400 22005KT
                       P6SM VCSH SCT012 BKN018=
201009170059 KSEA 170059Z 1701/1806 VRB03KT P6SM SCT010 BKN025 OVC045
                      TEMPO 1701/1704 -SHRA BKN010 OVC025 FM170400
                       35004KT P6SM VCSH SCT008 BKN014 OVC030 FM171800
                       03004KT P6SM SCT014 BKN060 FM172200 03006KT
                       4SM -RA BR VCSH BKN012 OVC020 FM180400 22005KT
                       P6SM VCSH SCT012 BKN018=
201009162344 TAF KSEA 162344Z 1700/1806 VRB03KT 4SM -RA BR SCT008 BKN012 OVC020
                       FM170400 35004KT P6SM VCSH SCT008 BKN014
                       OVC030 FM171800 03004KT P6SM SCT014 BKN060
                       FM172200 03006KT 4SM -RA BR VCSH BKN012
                       OVC020 FM180400 22005KT P6SM VCSH SCT012
                       BKN018=
201009162109 KSEA 162109Z 1621/1724 25003KT 5SM -RA BR SCT008 BKN012 OVC035
                       TEMPO 1621/1623 P6SM NSW SCT012 OVC040 FM170400
                       02003KT P6SM VCSH SCT008 BKN014 OVC030 FM172000
                       03006KT 4SM -RA BR VCSH BKN012 OVC020=
201009161741 TAF KSEA 161741Z 1618/1724 25003KT 5SM -RA BR BKN007 BKN015 OVC035
                       TEMPO 1618/1619 P6SM NSW SCT015 OVC035 FM170800
                       02003KT P6SM VCSH SCT008 BKN014 OVC030 FM171600
                       03006KT 4SM -RA BR VCSH BKN006 OVC012 FM172100
                       22007KT P6SM VCSH SCT012 BKN020=
201009161509 KSEA 161509Z 1615/1718 14004KT 5SM -RA BR BKN008 BKN015 OVC035
                       TEMPO 1615/1619 P6SM -RA SCT015 OVC035 FM161900
                       VRB03KT 6SM -RA BKN012 OVC025 FM171200 03007KT
                       2SM -SHRA BR OVC007=
201009161140 TAF KSEA 161140Z 1612/1718 18004KT P6SM SCT006 OVC045
                      TEMPO 1612/1616 3SM -SHRA BR OVC006 FM161700
                       VRB03KT P6SM VCSH BKN012 OVC025 FM162000
                       30006KT P6SM VCSH SCT030 BKN045 OVC080 FM170200
                       29005KT P6SM -RA OVC020 FM171200 03007KT
                       2SM -SHRA BR OVC007=
201009161019 KSEA 161019Z 1610/1712 23005KT P6SM SCT004 BKN012 OVC022
                      TEMPO 1610/1612 3SM -SHRA BR BKN004 OVC010
                       FM161200 VRB03KT 5SM BR SCT004 OVC013
                      TEMPO 1612/1616 2SM -SHRA BR OVC003 FM161700
                       VRB03KT P6SM BKN012 OVC025 FM162000 30006KT
                       P6SM SCT030 BKN045 FM170100 32004KT P6SM
                       SCT045 OVC090=
201009160530 TAF KSEA 160530Z 1606/1712 22004KT P6SM -RA SCT005 BKN017 OVC025
                       TEMPO 1606/1610 3SM -RA BR BKN005 OVC015
                       FM161000 VRB03KT 5SM BR SCT005 OVC013
                      TEMPO 1612/1616 2SM -SHRA BR OVC005 FM161700
                       VRB03KT P6SM BKN012 OVC025 FM162000 30006KT
                       P6SM SCT030 BKN045 FM170100 32004KT P6SM
                       SCT045 OVC090=
201009160300 KSEA 160300Z 1603/1706 04004KT P6SM SCT025 BKN045 OVC060
                      TEMPO 1603/1606 5SM -RA BR BKN025 OVC040
                       FM160600 21006KT P6SM -RA OVC025 FM161300
                       VRB03KT 5SM BR SCT007 OVC020
                      TEMPO 1613/1617 2SM -SHRA BR OVC007 FM161700
                       VRB03KT P6SM BKN012 OVC025 FM162000 30006KT
                       P6SM SCT030 BKN045 FM170100 32004KT P6SM
                       SCT045 OVC090=
201009152322 TAF KSEA 152322Z 1600/1706 22008KT P6SM -RA SCT025 OVC045
                      TEMPO 1600/1604 5SM -RA BR BKN020 OVC035
                       FM160600 21006KT P6SM -RA OVC025 FM161300
                       VRB03KT 5SM BR SCT007 OVC020
                      TEMPO 1613/1617 2SM -SHRA BR OVC007 FM161700
                       VRB03KT P6SM BKN012 OVC025 FM162000 30006KT
                       P6SM SCT030 BKN045 FM170100 32004KT P6SM
                       SCT045 OVC090=
201009152221 KSEA 152221Z 1522/1624 22008KT P6SM -RA BKN025 OVC050 FM160600
                       21006KT P6SM -RA OVC025 FM161300 VRB03KT
                       5SM BR SCT007 OVC020
                      TEMPO 1613/1617 2SM -SHRA BR OVC007 FM161700
                       VRB03KT P6SM BKN012 OVC025 FM162000 30006KT
                       P6SM SCT030 BKN045=
201009152101 KSEA 152101Z 1521/1624 22008KT P6SM VCSH SCT060 OVC090 FM152300
                       23008KT P6SM -RA SCT030 OVC050 FM160600
                       21006KT P6SM -RA OVC025 FM161300 VRB03KT
                       4SM BR OVC007 FM161700 VRB03KT P6SM BKN012
                       OVC025 FM162000 30006KT P6SM SCT030 BKN045=
201009151722 TAF KSEA 151722Z 1518/1624 20005KT P6SM SCT070 BKN120 FM152000
                       22006KT P6SM SCT030 SCT060 OVC090 FM152300
                       23006KT P6SM -RA SCT030 OVC050 FM160600
                       21006KT P6SM -RA OVC025 FM161300 VRB03KT
                       4SM BR OVC007 FM161700 VRB03KT P6SM BKN012
                       OVC025 FM162000 30006KT P6SM SCT030 BKN045=
201009151504 KSEA 151504Z 1515/1618 VRB03KT P6SM VCFG FEW002 SCT120 BKN200 FM151700
                       20005KT P6SM SCT070 BKN120 FM152000 22006KT
                       P6SM SCT030 SCT060 OVC090 FM152300 23006KT
                       P6SM -RA SCT030 OVC050 FM160600 21006KT
                       P6SM -RA OVC025 FM161300 17005KT 4SM BR
                       OVC007=
201009151238 KSEA 151238Z 1513/1618 00000KT 5SM BR FEW001 SCT200
                      TEMPO 1513/1516 3/4SM BR OVC003 FM151700
                       22004KT P6SM SCT030 SCT060 OVC090 FM152300
                       23006KT P6SM -RA SCT030 OVC050 FM160600
                       21006KT P6SM -RA OVC025 FM161300 17005KT
                       4SM BR OVC007=
201009151123 TAF KSEA 151123Z 1512/1618 00000KT P6SM SCT250 FM151300 17002KT
                       P6SM SCT004
                      TEMPO 1513/1516 1SM BR OVC003 FM151700 22004KT
                       P6SM SCT030 SCT060 OVC090 FM152300 23006KT
                       P6SM -RA SCT030 OVC050 FM160600 21006KT
                       P6SM -RA OVC025 FM161300 17005KT 4SM BR
                       OVC007=
201009150910 KSEA 150910Z 1509/1612 00000KT P6SM SCT250 FM151100 17002KT 5SM
                       BR SCT004
                      TEMPO 1512/1516 1SM BR OVC003 FM151800 22004KT
                       P6SM SCT030 SCT060 OVC090 FM152300 23006KT
                       P6SM -RA SCT030 OVC050 FM160600 21006KT
                       P6SM -RA OVC025=
201009150530 TAF KSEA 150530Z 1506/1612 36004KT P6SM SCT250 FM151100 17002KT
                       5SM BR OVC005
                      TEMPO 1512/1515 1/2SM FG VV001 FM151800 22004KT
                       P6SM SCT030 SCT060 OVC090 FM152300 23006KT
                       P6SM -RA SCT030 OVC050 FM160600 21006KT
                       P6SM -RA OVC025=
201009150300 KSEA 150300Z 1503/1606 00000KT P6SM FEW030 SCT250 FM151000 00000KT
                       P6SM BKN007 FM151200 00000KT 5SM BR OVC005
                       TEMPO 1513/1517 1/2SM FG VV001 FM151800
                       VRB03KT P6SM OVC012 FM151900 VRB03KT P6SM
                       SCT030 SCT060 OVC110
                      PROB30 1521/1524 -RA SCT030 OVC060 FM160000
                       17006KT P6SM -RA SCT030 OVC060=
201009142333 TAF KSEA 142333Z 1500/1606 VRB03KT P6SM SKC FM150900 00000KT 3SM
                       BR FEW003 FM151100 00000KT 1/2SM FG VV001
                       FM151700 VRB03KT 3SM BR OVC006 FM151800
                       VRB03KT P6SM OVC012 FM151900 VRB03KT P6SM
                       SCT030 SCT060 OVC110
                      PROB30 1521/1524 -RA SCT030 OVC060 FM160000
                       17006KT P6SM -RA SCT030 OVC060=
201009142130 KSEA 142130Z 1422/1524 33006KT P6SM SCT015
                      TEMPO 1422/1423 BKN015 FM142300 33006KT P6SM
                       SKC FM150900 VRB03KT 3SM BR FEW003 SCT250
                       FM151100 VRB03KT 1/2SM FG VV001 FM151800
                       VRB03KT 2SM BR OVC005 FM151900 VRB03KT 6SM
                       HZ OVC009 FM152100 VRB03KT P6SM FEW020 SCT110
                       OVC200=
201009142005 KSEA 142005Z 1420/1524 30005KT P6SM BKN009 FM142100 33006KT P6SM
                       SCT250 FM150900 VRB03KT 3SM BR FEW003 SCT250
                       FM151100 VRB03KT 1/2SM FG VV001 FM151800
                       VRB03KT 2SM BR OVC005 FM151900 VRB03KT 6SM
                       HZ OVC009 FM152100 VRB03KT P6SM FEW020 SCT110
                       OVC200=
201009141806 TAF KSEA 141806Z 1418/1524 VRB03KT 1SM BR OVC002 FM141900 VRB03KT
                       5SM HZ OVC005 FM142100 33006KT P6SM SCT250
                       FM150900 VRB03KT 3SM BR FEW003 SCT250 FM151100
                       VRB03KT 1/2SM FG VV001 FM151800 VRB03KT
                       2SM BR OVC005 FM151900 VRB03KT 6SM HZ OVC009
                       FM152100 VRB03KT P6SM FEW020 SCT110 OVC200=
201009141633 KSEA 141633Z 1417/1518 00000KT 1/4SM FG VV001
                      TEMPO 1417/1418 2SM BR OVC003 FM141800 VRB03KT
                       3SM BR OVC004 FM141900 33003KT P6SM BKN007
                       FM142100 32006KT P6SM SCT250 FM150700 03004KT
                       P6SM SCT250 FM151200 13003KT P6SM SCT250=
201009141422 KSEA 141422Z 1414/1518 VRB03KT 1/4SM FG VV001 FM141700 VRB03KT
                       3SM BR OVC004 FM141900 33003KT P6SM BKN007
                       FM142100 32006KT P6SM SCT250 FM150700 03004KT
                       P6SM SCT250 FM151200 13003KT P6SM SCT250=
201009141130 TAF KSEA 141130Z 1412/1518 36005KT 1/4SM FG VV001
                      TEMPO 1414/1417 2SM BR OVC003 FM141700 07003KT
                       5SM HZ OVC004 FM141900 33003KT P6SM BKN007
                       FM142100 32006KT P6SM SCT250 FM150700 03004KT
                       P6SM SCT250 FM151200 13003KT P6SM SCT250=
201009141010 KSEA 141010Z 1410/1512 35005KT 1/4SM FG VV001
                      TEMPO 1410/1414 2SM BR OVC003 FM141800 VRB03KT
                       5SM BR HZ OVC006 FM142000 32006KT 6SM HZ
                       BKN009 BKN250 FM142100 32006KT P6SM SCT250
                       FM150700 03004KT P6SM BKN250=
201009140822 KSEA 140822Z 1408/1512 34003KT P6SM VCFG BKN007 FM140900 VRB03KT
                       5SM BR OVC004
                      TEMPO 1412/1416 3/4SM BR OVC002 FM141800
                       VRB03KT 5SM BR HZ OVC006 FM142000 32006KT
                       6SM HZ BKN009 BKN250 FM142100 32006KT P6SM
                       SCT250 FM150700 03004KT P6SM BKN250=
201009140520 TAF KSEA 140520Z 1406/1512 36006KT P6SM FEW250 FM140700 VRB03KT
                       P6SM VCFG FEW004 FM140900 VRB03KT 2SM BR
                       OVC004
                      TEMPO 1412/1416 3/4SM BR OVC002 FM141800
                       VRB03KT 5SM BR HZ OVC006 FM142000 32006KT
                       6SM HZ BKN009 BKN250 FM142100 32006KT P6SM
                       SCT250 FM150700 03004KT P6SM BKN250=
201009140300 KSEA 140300Z 1403/1506 35006KT P6SM FEW020 SCT250 FM140600 VRB03KT
                       P6SM VCFG FEW004 FM140900 VRB03KT 2SM BR
                       OVC004
                      TEMPO 1412/1416 3/4SM BR OVC002 FM141800
                       VRB03KT 5SM BR HZ OVC006 FM142000 32006KT
                       6SM HZ BKN009 BKN250 FM142100 32006KT P6SM
                       SCT250=
201009132339 TAF KSEA 132339Z 1400/1506 01006KT P6SM FEW022 SCT250 FM140600
                       VRB03KT P6SM VCFG FEW004 FM140900 VRB03KT
                       2SM BR OVC004
                      TEMPO 1412/1416 3/4SM BR OVC002 FM141800
                       VRB03KT 5SM BR HZ OVC006 FM142000 32006KT
                       6SM HZ BKN009 BKN250 FM142100 32006KT P6SM
                       SCT250=
201009132204 KSEA 132204Z 1322/1424 02008KT P6SM BKN018 BKN250 FM132300 35006KT
                       P6SM SCT025 SCT250 FM140300 02004KT P6SM
                       SCT250 FM141000 00000KT P6SM VCFG SCT006
                       FM141200 00000KT 3SM BR OVC004 FM141800
                       VRB03KT 6SM BR HZ BKN008 FM141900 32006KT
                       P6SM SCT250=
201009132044 KSEA 132044Z 1321/1424 31006KT P6SM BKN020 BKN040 FM132200 31006KT
                       P6SM SCT040 SCT250 FM140300 02004KT P6SM
                       SCT250 FM141000 00000KT P6SM VCFG SCT006
                       FM141200 00000KT 3SM BR OVC004 FM141800
                       VRB03KT 6SM BR HZ BKN008 FM141900 32006KT
                       P6SM SCT250=
201009131919 KSEA 131919Z 1319/1424 31005KT P6SM OVC013 FM132030 31005KT P6SM
                       BKN020 BKN040 FM132100 31006KT P6SM SCT040
                       SCT250 FM140300 02004KT P6SM SCT250 FM141000
                       00000KT P6SM VCFG SCT006 FM141200 00000KT
                       3SM BR OVC004 FM141800 VRB03KT 6SM BR HZ
                       BKN008 FM141900 32006KT P6SM SCT250=
201009131727 TAF KSEA 131727Z 1318/1424 VRB03KT P6SM SCT009 OVC015
                      TEMPO 1318/1319 BKN009 OVC015 FM131930 VRB03KT
                       P6SM BKN022 BKN040 FM132100 33006KT P6SM
                       SCT040 SCT250 FM140300 02004KT P6SM SCT250
                       FM141000 00000KT P6SM VCFG SCT006 FM141200
                       00000KT 3SM BR OVC004 FM141800 VRB03KT 6SM
                       BR HZ BKN008 FM141900 32006KT P6SM SCT250=
201009131506 KSEA 131506Z 1315/1418 VRB03KT P6SM FEW009 OVC012 FM131900 32003KT
                       P6SM SCT020 BKN030 FM132100 34005KT P6SM
                       SCT030 FM140000 01005KT P6SM FEW200
                      TEMPO 1411/1415 2SM BR SCT002=
201009131134 TAF KSEA 131134Z 1312/1418 VRB04KT P6SM SCT008 OVC012
                      TEMPO 1312/1316 BKN008 FM131900 32003KT P6SM
                       SCT020 BKN030 FM132100 34005KT P6SM SCT030
                       FM140000 01005KT P6SM FEW200
                      TEMPO 1411/1415 2SM BR SCT002=
201009130902 KSEA 130902Z 1309/1412 22005KT P6SM SCT008 OVC012
                      TEMPO 1310/1314 BKN008 FM131900 VRB03KT P6SM
                       SCT020 BKN030 FM132100 34005KT P6SM SCT030=
201009130735 KSEA 130735Z 1308/1412 18005KT P6SM BKN011 BKN040 FM131200 22005KT
                       P6SM OVC010 FM131900 VRB03KT P6SM SCT020
                       BKN030 FM132100 34005KT P6SM SCT030=
201009130538 TAF KSEA 130538Z 1306/1412 18005KT P6SM SKC
                      TEMPO 1308/1312 BKN015 FM131200 22005KT P6SM
                       OVC015 FM131900 VRB03KT P6SM SCT020 BKN030
                       FM132100 34005KT P6SM SCT030=
201009130304 KSEA 130304Z 1303/1406 20005KT P6SM SCT035
                      TEMPO 1306/1308 SCT015 BKN025 FM130800 22005KT
                       P6SM OVC015
                      TEMPO 1311/1314 4SM -DZ FM131900 VRB03KT
                       P6SM SCT020 BKN040=
201009130134 KSEA 130134Z 1302/1406 22012KT P6SM BKN100 FM130800 22005KT P6SM
                       OVC015
                      TEMPO 1308/1312 4SM -DZ FM131900 VRB03KT
                       P6SM SCT020 BKN040=
201009122320 TAF KSEA 122320Z 1300/1406 22012KT P6SM BKN025 BKN100
                      TEMPO 1300/1304 SCT025 SCT100 FM130600 22005KT
                       P6SM OVC015
                      TEMPO 1306/1310 4SM -DZ FM131900 VRB03KT
                       P6SM SCT020 BKN040=
201009122102 TAF AMD KSEA 122102Z 1221/1324 20015KT P6SM SCT022 BKN050 OVC100
                       TEMPO 1221/1301 BKN022 OVC040 FM130100 20008KT
                       P6SM BKN022 OVC050 FM130600 22005KT P6SM
                       OVC015
                      TEMPO 1306/1310 4SM -DZ FM131900 VRB03KT
                       P6SM SCT020 BKN040=
201009121720 TAF KSEA 121720Z 1218/1324 18007KT P6SM OVC020
                      TEMPO 1222/1302 4SM -DZ BR OVC015 FM130200
                       22005KT P6SM OVC015
                      TEMPO 1302/1306 4SM -DZ FM131900 VRB03KT
                       P6SM SCT020 BKN040=
201009121601 KSEA 121601Z 1216/1318 18007KT P6SM OVC020
                      TEMPO 1222/1302 4SM -DZ BR OVC015 FM130200
                       22005KT P6SM OVC015
                      TEMPO 1302/1306 4SM -DZ=
201009121327 KSEA 121327Z 1213/1318 17007KT P6SM OVC030
                      TEMPO 1217/1221 -RA BKN025 FM122100 22009KT
                       P6SM OVC030 FM130600 22005KT P6SM OVC018=
201009121132 TAF KSEA 121132Z 1212/1318 18008KT P6SM BKN040 OVC090 FM121500
                       18008KT P6SM VCSH OVC030
                      TEMPO 1217/1221 -RA BKN025 FM122100 22009KT
                       P6SM OVC030 FM130600 22005KT P6SM OVC018=
201009120901 KSEA 120901Z 1209/1312 18008KT P6SM SCT050 BKN060 OVC090 FM121400
                       18010KT P6SM SCT020 OVC040
                      TEMPO 1214/1218 5SM -DZ BR BKN015 OVC025
                       FM121800 20008KT P6SM VCSH OVC025 FM122100
                       23009KT P6SM BKN030=
201009120531 TAF KSEA 120531Z 1206/1312 18005KT P6SM OVC100 FM120900 18008KT
                       P6SM BKN050 OVC100 FM121300 18010KT P6SM
                       SCT020 OVC040
                      TEMPO 1214/1218 5SM -DZ BR BKN015 OVC025
                       FM121800 20008KT P6SM VCSH OVC025 FM122100
                       23009KT P6SM BKN030=
201009120302 KSEA 120302Z 1203/1306 19005KT P6SM BKN100 FM120500 18008KT P6SM
                       SCT030 BKN050 OVC100 FM121000 18010KT P6SM
                       SCT020 OVC040
                      TEMPO 1214/1218 5SM -DZ BR BKN015 OVC030
                       FM121800 20008KT P6SM VCSH BKN025 OVC050=
201009112320 TAF KSEA 112320Z 1200/1306 22007KT P6SM SCT050 BKN120 FM120500
                       18008KT P6SM SCT030 BKN050 OVC100 FM121000
                       18010KT P6SM SCT020 OVC040
                      TEMPO 1214/1218 5SM -DZ BR BKN015 OVC030
                       FM121800 20008KT P6SM VCSH BKN025 OVC050=
201009112109 KSEA 112109Z 1121/1224 21007KT P6SM SCT040 BKN120 BKN200 FM120800
                       18008KT P6SM BKN025 OVC050 FM121400 18010KT
                       5SM -DZ BR BKN015 OVC030 FM122000 20008KT
                       P6SM VCSH BKN025 OVC050=
201009111720 TAF KSEA 111720Z 1118/1224 VRB03KT P6SM SCT030 BKN120
                      TEMPO 1118/1120 BKN030 FM120000 23006KT P6SM
                       SCT030 BKN060 OVC120 FM120800 18008KT P6SM
                       BKN025 OVC050 FM121400 18010KT 5SM -DZ BR
                       BKN015 OVC030 FM122000 20008KT P6SM VCSH
                       BKN025 OVC050=
201009111503 KSEA 111503Z 1115/1218 16006KT P6SM SCT012 BKN025
                      TEMPO 1115/1117 BKN012 OVC025 FM111700 20004KT
                       P6SM SCT030 BKN050 FM120600 18007KT P6SM
                       -RA BKN025 OVC050=
201009111137 TAF KSEA 111137Z 1112/1218 18005KT P6SM BKN009 OVC040 FM111700
                       20004KT P6SM BKN025 OVC045 FM111900 22007KT
                       P6SM SCT030 BKN050 OVC120=
201009110907 KSEA 110907Z 1109/1212 18005KT P6SM BKN015 OVC060 FM112000 22007KT
                       P6SM SCT030 BKN050 BKN100=
201009110826 KSEA 110826Z 1108/1212 18005KT P6SM SCT015 OVC060
                      TEMPO 1108/1112 BKN015 FM111200 18006KT P6SM
                       BKN015 OVC025 FM112000 22007KT P6SM SCT030
                       BKN050 BKN100=
201009110531 TAF KSEA 110531Z 1106/1212 18005KT P6SM SCT030 OVC070 FM110900
                       18006KT P6SM OVC025 FM112000 22007KT P6SM
                       SCT030 BKN050 BKN100=
201009110303 KSEA 110303Z 1103/1206 17006KT P6SM SCT035 BKN070 FM110600 VRB04KT
                       P6SM BKN035 OVC060 FM111100 18006KT P6SM
                       OVC025 FM111900 22007KT P6SM SCT030 BKN050=
201009102320 TAF KSEA 102320Z 1100/1206 23008KT P6SM SCT035 BKN060 FM110600
                       VRB04KT P6SM BKN035 OVC060 FM111100 18006KT
                       P6SM OVC025 FM111900 22007KT P6SM SCT030
                       BKN050=
201009102100 KSEA 102100Z 1021/1124 22007KT P6SM SCT025 OVC050 FM110600 VRB04KT
                       P6SM BKN035 FM111100 18006KT P6SM OVC022
                       FM111900 22007KT P6SM SCT025 BKN050=
201009101720 TAF KSEA 101720Z 1018/1124 22007KT P6SM SCT025 OVC050
                      TEMPO 1018/1021 BKN025 OVC050 FM110600 VRB04KT
                       P6SM BKN035 FM111100 18006KT P6SM OVC022
                       FM111900 22007KT P6SM SCT025 BKN050=
201009101501 KSEA 101501Z 1015/1118 22007KT P6SM SCT025 OVC050
                      TEMPO 1015/1019 BKN025 OVC040 FM101900 22007KT
                       P6SM BKN035 OVC050 FM102100 23008KT P6SM
                       BKN050 FM110600 VRB05KT P6SM BKN035 FM111100
                       17005KT P6SM OVC022=
201009101120 TAF KSEA 101120Z 1012/1118 18007KT P6SM SCT025 OVC050
                      TEMPO 1012/1016 BKN020 OVC040 FM101800 23006KT
                       P6SM BKN030 OVC050 FM102100 23008KT P6SM
                       BKN050 FM110600 VRB05KT P6SM BKN035 FM111100
                       17005KT P6SM BKN020=
201009100901 KSEA 100901Z 1009/1112 18007KT P6SM SCT035 OVC050
                      TEMPO 1010/1014 OVC035 FM101400 18006KT P6SM
                       OVC035 FM101800 23006KT P6SM BKN035 OVC050
                       FM102100 23008KT P6SM BKN050 FM110600 21006KT
                       P6SM BKN035=
201009100523 TAF KSEA 100523Z 1006/1112 21007KT P6SM SCT035 BKN070
                      TEMPO 1006/1010 BKN022 OVC040 FM101000 18004KT
                       P6SM OVC020 FM101800 23006KT P6SM SCT017
                       BKN025 OVC040 FM102100 23008KT P6SM BKN050
                       FM110600 21006KT P6SM BKN035=
201009100304 KSEA 100304Z 1003/1106 20009KT P6SM SCT040 BKN070
                      TEMPO 1003/1006 BKN030 OVC045 FM100600 21005KT
                       P6SM OVC030 FM101000 18004KT P6SM OVC015
                       FM101800 23006KT P6SM SCT013 BKN025 OVC040
                       FM102100 24006KT P6SM BKN050=
201009092330 TAF KSEA 092330Z 1000/1106 19009KT P6SM SCT030 BKN045 FM100400
                       21005KT P6SM OVC035 FM101000 18004KT P6SM
                       OVC011 FM101800 23006KT P6SM SCT013 BKN025
                       OVC040 FM102100 24006KT P6SM BKN050=
201009092100 KSEA 092100Z 0921/1024 22009KT P6SM SCT030 BKN045
                      TEMPO 0921/1001 BKN030 OVC045 FM100400 21005KT
                       P6SM OVC035 FM101000 18004KT P6SM OVC011
                       FM101800 23006KT P6SM SCT013 BKN025 OVC040
                       FM102100 24006KT P6SM BKN050=
201009091730 TAF KSEA 091730Z 0918/1024 20007KT P6SM SCT015 OVC035 FM092100
                       22008KT P6SM SCT030 BKN045 FM100400 21005KT
                       P6SM OVC035 FM101000 18004KT P6SM OVC011
                       FM101800 23006KT P6SM SCT013 BKN025 OVC040
                       FM102100 24006KT P6SM BKN050=
201009091500 KSEA 091500Z 0915/1018 20006KT P6SM SCT008 BKN013 BKN026
                      TEMPO 0915/0918 BKN008 OVC013 FM091900 23008KT
                       P6SM SCT012 OVC025 FM092100 22010KT P6SM
                       SCT025 BKN050 FM100000 22008KT P6SM SCT040
                       SCT250 FM100700 20005KT P6SM BKN030=
201009091125 TAF KSEA 091125Z 0912/1018 21006KT P6SM VCSH BKN008 OVC035
                      TEMPO 0912/0915 SCT012 BKN040 FM091500 20007KT
                       P6SM BKN010 OVC022 FM091900 23008KT P6SM
                       SCT012 OVC025 FM092100 22010KT P6SM SCT025
                       BKN050 FM100000 22008KT P6SM SCT040 SCT250
                       FM100700 20005KT P6SM BKN030=
201009090901 KSEA 090901Z 0909/1012 21006KT P6SM VCSH SCT015 BKN030
                      TEMPO 0909/0911 BKN013 OVC025 FM091100 18005KT
                       P6SM OVC010
                      TEMPO 0912/0916 3SM BR OVC007 FM091900 23008KT
                       P6SM SCT007 OVC022 FM092100 22010KT P6SM
                       SCT025 BKN050 FM100000 22008KT P6SM SCT040
                       SCT250 FM100700 20005KT P6SM BKN035=
201009090520 TAF KSEA 090520Z 0906/1012 21006KT P6SM VCSH FEW020 SCT045 BKN070
                       TEMPO 0906/0910 BKN015 BKN035 OVC060 FM091000
                       18005KT P6SM OVC012
                      TEMPO 0912/0916 3SM BR OVC007 FM091900 23008KT
                       P6SM SCT007 OVC022 FM092100 22010KT P6SM
                       SCT025 BKN050 FM100000 22008KT P6SM SCT040
                       SCT250 FM100700 20005KT P6SM BKN035=
201009090253 KSEA 090253Z 0903/1006 23006KT P6SM FEW020 SCT045 BKN070
                      TEMPO 0903/0907 SCT015 BKN035 OVC060 FM090900
                       18005KT P6SM OVC007
                      TEMPO 0912/0916 3SM BR OVC001 FM091900 23008KT
                       P6SM SCT007 OVC022 FM092100 22010KT P6SM
                       SCT025 BKN050 FM100000 22008KT P6SM SCT040
                       SCT250 FM100300 20005KT P6SM BKN050=
201009082330 TAF KSEA 082330Z 0900/1006 22006KT P6SM SCT030 BKN045 BKN070 FM090400
                       22004KT P6SM SCT045 BKN080 FM090900 18005KT
                       P6SM OVC007
                      TEMPO 0912/0916 3SM BR OVC001 FM091900 23008KT
                       P6SM SCT007 OVC022 FM092100 22010KT P6SM
                       SCT025 BKN050 FM100000 22008KT P6SM SCT040
                       SCT250 FM100300 20005KT P6SM BKN050=
201009082100 KSEA 082100Z 0821/0924 22008KT P6SM VCSH SCT005 BKN022
                      TEMPO 0821/0822 BKN005 OVC022 FM082300 24006KT
                       P6SM VCSH SCT025 BKN040 FM090300 21004KT
                       P6SM SCT030 BKN045 FM090800 19005KT 5SM
                       BR OVC008 FM092100 21010KT P6SM BKN030 OVC060=
201009081730 TAF KSEA 081730Z 0818/0924 24006KT P6SM SCT006 OVC015
                      TEMPO 0818/0820 5SM -SHRA BR BKN004 OVC008
                       FM082000 24006KT P6SM VCSH SCT011 OVC022
                       FM082200 24006KT P6SM VCSH SCT025 BKN040
                       FM090800 19005KT 5SM BR OVC008 FM092100
                       21010KT P6SM BKN030 OVC060=
201009081500 KSEA 081500Z 0815/0918 24004KT 3SM -SHRA BR OVC003
                      TEMPO 0816/0818 P6SM NSW SCT006 OVC020 FM081800
                       22005KT P6SM VCSH BKN006 OVC015 FM081900
                       22005KT P6SM VCSH SCT011 OVC022 FM082200
                       22005KT P6SM VCSH SCT025 BKN040 FM090800
                       19005KT 5SM BR OVC008=
201009081153 KSEA 081153Z 0812/0918 29005KT P6SM -RA SCT002 OVC025
                      TEMPO 0812/0815 2SM RA BR OVC002 FM081500
                       22005KT P6SM VCSH BKN006 OVC015 FM081900
                       22005KT P6SM VCSH SCT011 OVC022 FM082200
                       22005KT P6SM VCSH SCT025 BKN040 FM090800
                       19005KT 5SM BR OVC008=
201009081124 TAF KSEA 081124Z 0812/0918 29005KT P6SM -RA OVC002 FM081500 22005KT
                       P6SM VCSH BKN006 OVC015 FM081900 22005KT
                       P6SM VCSH SCT011 OVC022 FM082200 22005KT
                       P6SM VCSH SCT025 BKN040 FM090800 19005KT
                       5SM BR OVC008=
201009080920 KSEA 080920Z 0809/0912 28003KT P6SM -RA SCT002 BKN006 OVC018
                      TEMPO 0810/0814 4SM -RA BR FM081400 VRB03KT
                       P6SM -RA BKN006 OVC015
                      TEMPO 0814/0818 4SM -RA BR FM081900 23006KT
                       P6SM VCSH SCT011 OVC022 FM082200 24005KT
                       P6SM VCSH SCT025 BKN040 FM090800 19005KT
                       5SM BR OVC010=
201009080803 KSEA 080803Z 0808/0912 32003KT 5SM -RA BR SCT006 BKN020 OVC040
                       FM081400 VRB03KT 4SM -RA BR SCT006 BKN010
                       OVC020 FM081900 23006KT P6SM VCSH SCT011
                       OVC022 FM082200 24005KT P6SM VCSH SCT025
                       BKN040 FM090800 19005KT 5SM BR OVC010=
201009080520 TAF KSEA 080520Z 0806/0912 35005KT P6SM VCSH SCT030 OVC080 FM080700
                       36005KT P6SM -RA SCT022 OVC030 FM080900
                       VRB03KT 5SM -RA BR BKN008 OVC015 FM081900
                       23006KT P6SM VCSH SCT011 OVC022 FM082200
                       24005KT P6SM VCSH SCT025 BKN040 FM090800
                       19005KT 5SM BR OVC010=
201009080301 KSEA 080301Z 0803/0906 36007KT P6SM VCSH SCT035 BKN070 OVC100 FM080800
                       36004KT P6SM -SHRA BKN015 OVC030 FM081100
                       22004KT P6SM VCSH OVC008 FM081900 23006KT
                       P6SM SCT011 OVC022 FM082200 26005KT P6SM
                       VCSH SCT025 BKN050=
201009072330 TAF KSEA 072330Z 0800/0906 31007KT P6SM VCSH SCT030 BKN100 BKN200
                       TEMPO 0800/0803 -SHRA BKN030 OVC070 FM080300
                       32006KT P6SM VCSH SCT022 BKN045 OVC080 FM080600
                       32004KT P6SM -SHRA BKN015 OVC030 FM081100
                       22004KT P6SM VCSH OVC008 FM081900 23006KT
                       P6SM SCT011 OVC022 FM082200 26005KT P6SM
                       VCSH SCT025 BKN050=
201009072100 TAF AMD KSEA 072100Z 0721/0824 31006KT P6SM VCSH BKN025 BKN050
                       OVC080
                      TEMPO 0721/0724 SCT025 SCT050 BKN080 FM080000
                       32006KT P6SM VCSH SCT022 BKN045 OVC080 FM081100
                       22004KT P6SM OVC008 FM081900 23006KT P6SM
                       SCT011 OVC022=
201009071730 TAF KSEA 071730Z 0718/0824 01005KT P6SM SCT008 BKN020 OVC050
                      TEMPO 0718/0720 5SM -SHRA BR BKN006 OVC018
                       FM072000 33006KT P6SM VCSH SCT013 BKN025
                       OVC050
                      TEMPO 0720/0722 BKN013 OVC025 FM072200 32006KT
                       P6SM VCSH SCT020 BKN045 OVC080 FM081100
                       22004KT P6SM OVC008 FM081900 23006KT P6SM
                       SCT011 OVC022=
201009071500 KSEA 071500Z 0715/0818 00000KT 5SM BR BKN004 OVC014
                      TEMPO 0715/0718 -SHRA FM071800 22004KT P6SM
                       SCT006 OVC018
                      TEMPO 0718/0720 5SM -SHRA BR BKN006 OVC018
                       FM072000 26004KT P6SM VCSH BKN016 OVC035
                       FM072300 36004KT P6SM VCSH BKN025 OVC040
                       FM080500 01003KT P6SM OVC008=
201009071120 TAF KSEA 071120Z 0712/0818 00000KT P6SM VCSH SCT005 BKN014 OVC050
                       FM071500 VRB04KT 4SM -RA BR OVC005 FM072000
                       26004KT P6SM VCSH BKN016 OVC035 FM072300
                       36004KT P6SM VCSH BKN025 OVC040 FM080500
                       01003KT P6SM OVC008=
201009070853 KSEA 070853Z 0709/0812 21004KT P6SM VCSH SCT006 BKN010 OVC018 FM071500
                       VRB04KT 4SM -RA BR OVC005 FM072000 26004KT
                       P6SM VCSH BKN016 OVC035 FM072300 36004KT
                       P6SM VCSH BKN025 OVC040 FM080500 01003KT
                       P6SM OVC008=
201009070533 TAF KSEA 070533Z 0706/0812 17006KT P6SM VCSH OVC007 FM070900 17004KT
                       5SM BR VCSH OVC005 FM071500 VRB04KT 4SM
                       -RA BR OVC005 FM072000 26004KT P6SM VCSH
                       BKN016 OVC035 FM072300 36004KT P6SM VCSH
                       BKN025 OVC040 FM080500 01003KT P6SM OVC008=
201009070309 KSEA 070309Z 0703/0806 19004KT P6SM -RA SCT003 OVC012
                      TEMPO 0703/0706 4SM -RA BR BKN003 OVC010
                       FM070600 17005KT 5SM -RA BR SCT003 OVC009
                       FM072000 30007KT P6SM VCSH BKN016 OVC035
                       FM072300 31006KT P6SM VCSH SCT030 BKN050=
201009062330 TAF KSEA 062330Z 0700/0806 22008KT P6SM -RA OVC025
                      TEMPO 0700/0702 -RA BKN016 OVC025 FM070200
                       18008KT P6SM -RA BKN016 OVC025
                      TEMPO 0702/0706 3SM -RA BR BKN010 OVC018
                       FM070600 19005KT P6SM -SHRA SCT013 OVC025
                       TEMPO 0710/0714 -SHRA OVC013 FM071400 17005KT
                       P6SM -SHRA OVC007 FM072000 30007KT P6SM
                       VCSH BKN016 OVC035 FM072300 31006KT P6SM
                       VCSH SCT030 BKN050=
201009062100 KSEA 062100Z 0621/0724 20007KT P6SM BKN023 OVC035 FM062200 21012KT
                       P6SM SCT012 BKN020 OVC035
                      TEMPO 0622/0702 -RA BKN012 OVC020 FM070200
                       18006KT P6SM -RA BKN012 OVC020
                      TEMPO 0702/0706 3SM -RA BR BKN008 OVC012
                       FM070600 19005KT P6SM -SHRA SCT013 OVC025
                       TEMPO 0710/0714 P6SM -SHRA OVC013 FM071400
                       12005KT P6SM -SHRA OVC007 FM072000 30007KT
                       P6SM VCSH BKN016 OVC035=
201009061730 TAF KSEA 061730Z 0618/0724 16006KT P6SM SCT013 OVC020
                      TEMPO 0618/0622 -RA BKN013 OVC020 FM062200
                       21012KT P6SM SCT012 BKN020 OVC035
                      TEMPO 0622/0702 -RA BKN012 OVC020 FM070200
                       18006KT P6SM -RA BKN012 OVC020
                      TEMPO 0702/0706 3SM -RA BR BKN008 OVC012
                       FM070600 19005KT P6SM -SHRA SCT013 OVC025
                       TEMPO 0710/0714 P6SM -SHRA OVC013 FM071400
                       12005KT P6SM -SHRA OVC007 FM072000 30007KT
                       P6SM VCSH BKN016 OVC035=
201009061500 KSEA 061500Z 0615/0718 17008KT P6SM BKN012 OVC020
                      TEMPO 0615/0618 -RA BKN015 OVC025 FM061800
                       18012KT P6SM SCT015 BKN025 OVC040
                      TEMPO 0618/0622 -RA BKN015 OVC022 FM062200
                       21012KT P6SM VCSH SCT025 BKN040 FM070000
                       16005KT P6SM -SHRA BKN012 BKN025
                      PROB30 0706/0712 3SM -SHRA BKN008 OVC012=
201009061234 KSEA 061234Z 0613/0718 16006KT P6SM SCT020 OVC050
                      TEMPO 0613/0615 BKN020 OVC050 FM061500 16006KT
                       P6SM SCT015 SCT025 OVC050
                      TEMPO 0615/0618 -RA BKN015 OVC025 FM061800
                       18012KT P6SM SCT015 BKN025 OVC040
                      TEMPO 0618/0622 -RA BKN015 OVC022 FM062200
                       21012KT P6SM VCSH SCT025 BKN040 FM070000
                       16005KT P6SM -SHRA BKN012 BKN025
                      PROB30 0706/0712 3SM -SHRA BKN008 OVC012=
201009061123 TAF KSEA 061123Z 0612/0718 16006KT P6SM -RA BKN050 OVC070 FM061400
                       16006KT P6SM SCT015 SCT025 OVC050
                      TEMPO 0614/0618 -RA BKN015 OVC025 FM061800
                       18012KT P6SM SCT015 BKN025 OVC040
                      TEMPO 0618/0622 -RA BKN015 OVC022 FM062200
                       21012KT P6SM VCSH SCT025 BKN040 FM070000
                       16005KT P6SM -SHRA BKN012 BKN025
                      PROB30 0706/0712 3SM -SHRA BKN008 OVC012=
201009060915 KSEA 060915Z 0609/0712 18008KT P6SM SCT060 OVC110 FM061030 18008KT
                       P6SM -RA BKN060 FM061200 18008KT P6SM -RA
                       SCT015 BKN025 BKN040
                      TEMPO 0614/0618 BKN015 OVC025 FM061800 18012KT
                       P6SM SCT015 BKN025 OVC040
                      TEMPO 0618/0622 -RA BKN015 OVC022 FM062200
                       21012KT P6SM VCSH SCT025 BKN040 FM070000
                       16005KT P6SM -SHRA BKN012 BKN025=
201009060537 TAF KSEA 060537Z 0606/0712 22007KT P6SM SCT050 BKN070 FM061000
                       18006KT P6SM SCT015 BKN050
                      TEMPO 0610/0614 BKN015 OVC050 FM061400 17008KT
                       P6SM SCT010 BKN025 OVC040
                      TEMPO 0614/0618 -RA BKN010 OVC025 FM061800
                       18012KT P6SM SCT015 BKN025 OVC040
                      TEMPO 0618/0622 -RA BKN015 OVC022 FM062200
                       21012KT P6SM VCSH SCT025 BKN040 FM070000
                       16005KT P6SM -SHRA BKN012 BKN025=
201009060303 KSEA 060303Z 0603/0706 23004KT P6SM FEW050 BKN070 FM060400 18004KT
                       P6SM SCT020 BKN050 FM060900 18006KT P6SM
                       OVC015 FM061500 17008KT P6SM -RA SCT010
                       BKN025 OVC040 FM062000 21012KT P6SM -SHRA
                       BKN025 OVC040 FM070400 19008KT P6SM -SHRA
                       OVC018=
201009052333 TAF KSEA 052333Z 0600/0706 23008KT P6SM SCT025 BKN060 FM060400
                       18004KT P6SM SCT020 BKN035 FM061000 18006KT
                       P6SM OVC015 FM061400 17008KT P6SM -RA OVC012
                       FM062000 21012KT P6SM -SHRA BKN025 OVC040
                       FM070400 19008KT P6SM -SHRA OVC018=
201009051825 KSEA 051825Z 0518/0624 21009KT P6SM SCT020 SCT050 BKN120
                      TEMPO 0518/0520 BKN020 BKN050 FM052000 23006KT
                       P6SM SCT025 BKN050 FM060400 18004KT P6SM
                       SCT020 BKN035 FM061000 18006KT P6SM OVC017
                       FM061400 17008KT P6SM -RA OVC015 FM062000
                       21012KT P6SM BKN025 OVC040=
201009051729 TAF KSEA 051729Z 0518/0624 20010KT P6SM OVC017 FM052000 23006KT
                       P6SM SCT020 BKN045 FM060400 18004KT P6SM
                       SCT020 BKN035 FM061000 18006KT P6SM OVC017
                       FM061400 17008KT P6SM -RA OVC015 FM062000
                       21012KT P6SM BKN025 OVC040=
201009051500 KSEA 051500Z 0515/0618 19006KT P6SM OVC014 FM052000 23006KT P6SM
                       SCT020 BKN045 FM060400 18004KT P6SM SCT020
                       BKN035 FM061000 18006KT P6SM OVC017 FM061600
                       17008KT P6SM -RA OVC015=
201009051120 TAF KSEA 051120Z 0512/0618 22005KT P6SM OVC013 FM052000 23006KT
                       P6SM SCT020 BKN045 FM060400 18004KT P6SM
                       SCT020 BKN035 FM061000 18006KT P6SM OVC017
                       FM061600 17008KT P6SM -RA OVC015=
201009050818 KSEA 050818Z 0508/0612 20005KT P6SM FEW017 SCT040 FM050900 20006KT
                       P6SM OVC015 FM052000 23006KT P6SM SCT020
                       BKN045 FM060400 18004KT P6SM SCT020 BKN035
                       FM061000 18006KT P6SM OVC017=
201009050520 TAF KSEA 050520Z 0506/0612 21007KT P6SM SCT030 BKN060 FM050800
                       19005KT P6SM BKN020 OVC040 FM051200 20006KT
                       P6SM OVC015 FM052000 23006KT P6SM SCT020
                       BKN045 FM060400 18004KT P6SM SCT020 BKN035
                       FM061000 18006KT P6SM OVC017=
201009050301 KSEA 050301Z 0503/0606 23009KT P6SM FEW030 BKN070 FM050800 19005KT
                       P6SM BKN020 OVC040 FM051200 20006KT P6SM
                       OVC015 FM052000 23006KT P6SM SCT020 BKN045
                       FM060400 18004KT P6SM SCT020 BKN035=
201009042327 TAF KSEA 042327Z 0500/0606 21006KT P6SM SCT040 BKN070 FM050800
                       19005KT P6SM BKN020 OVC040 FM051200 20006KT
                       P6SM OVC015 FM052000 23006KT P6SM SCT020
                       BKN045 FM052300 25006KT P6SM SCT050 SCT080=
201009042101 KSEA 042101Z 0421/0524 20009KT P6SM BKN025 FM042200 26006KT P6SM
                       SCT025 BKN060
                      TEMPO 0422/0501 BKN025 OVC060 FM050100 33005KT
                       P6SM SCT010 BKN025
                      TEMPO 0501/0505 3SM -DZ BR OVC008 FM050500
                       04005KT P6SM SCT006 OVC012
                      TEMPO 0505/0508 2SM -DZ BR OVC006 FM050800
                       20006KT P6SM OVC012 FM052000 23005KT P6SM
                       SCT020 BKN045=
201009041735 TAF KSEA 041735Z 0418/0524 23004KT P6SM SCT007 OVC015 FM042000
                       24005KT P6SM BKN020 BKN035 FM042200 26006KT
                       P6SM SCT025 BKN060 FM050100 33005KT P6SM
                       SCT010 BKN025
                      TEMPO 0501/0505 3SM -DZ BR OVC008 FM050500
                       04005KT P6SM SCT006 OVC012
                      TEMPO 0505/0508 2SM -DZ BR OVC006 FM050800
                       20006KT P6SM OVC012 FM052000 23005KT P6SM
                       SCT020 BKN045=
201009041444 KSEA 041444Z 0415/0518 22005KT 4SM BR SCT003 BKN008 OVC030
                      TEMPO 0415/0418 1SM -DZ BR BKN003 OVC008
                       FM041800 21008KT P6SM SCT010 OVC020 FM042000
                       23010KT P6SM SCT025 SCT050 FM050300 20007KT
                       P6SM SCT025 SCT050 FM051000 20006KT P6SM
                       OVC012=
201009041349 KSEA 041349Z 0414/0518 17005KT P6SM SCT010 OVC020
                      TEMPO 0414/0418 5SM -DZ BR BKN010 OVC020
                       FM041800 21008KT P6SM OVC020 FM042000 23010KT
                       P6SM SCT025 SCT050 FM050300 20007KT P6SM
                       SCT025 SCT050 FM051000 20006KT P6SM OVC012=
201009041327 KSEA 041327Z 0413/0518 17005KT P6SM OVC020 FM041800 21008KT P6SM
                       OVC020 FM042000 23010KT P6SM SCT025 SCT050
                       FM050300 20007KT P6SM SCT025 SCT050 FM051000
                       20006KT P6SM OVC012=
201009041203 KSEA 041203Z 0412/0518 14005KT P6SM FEW010 BKN020 FM041800 21008KT
                       P6SM OVC020 FM042000 23010KT P6SM SCT025
                       SCT050 FM050300 20007KT P6SM SCT025 SCT050
                       FM051000 20006KT P6SM OVC012=
201009041127 TAF KSEA 041127Z 0412/0518 17004KT P6SM OVC008 FM041800 21008KT
                       P6SM OVC015 FM042000 23010KT P6SM SCT025
                       SCT050 FM050300 20007KT P6SM SCT025 SCT050
                       FM051000 20006KT P6SM OVC012=
201009040903 KSEA 040903Z 0409/0512 22004KT P6SM SCT025 BKN250 FM041000 22004KT
                       P6SM OVC009 FM041800 21008KT P6SM OVC015
                       FM042000 23010KT P6SM SCT025 SCT050 FM050300
                       20007KT P6SM SCT025 SCT050 FM051000 20006KT
                       P6SM OVC012=
201009040902 KSEA 040902Z 0409/0512 22004KT P6SM OVC009 FM041800 21008KT P6SM
                       OVC015 FM042000 23010KT P6SM SCT025 SCT050
                       FM050300 20007KT P6SM SCT025 SCT050 FM051000
                       20006KT P6SM OVC012=
201009040525 TAF KSEA 040525Z 0406/0512 29003KT P6SM SCT250 FM040800 20006KT
                       P6SM SCT250 FM041000 20006KT P6SM OVC009
                       FM041200 20006KT 5SM -DZ BR OVC006 FM041800
                       21008KT P6SM OVC012 FM042000 23010KT P6SM
                       BKN025 BKN050 FM050200 21006KT P6SM BKN025
                       BKN050 FM051000 20006KT P6SM OVC012=
201009040305 KSEA 040305Z 0403/0506 VRB03KT P6SM SCT250 FM040800 18008KT P6SM
                       SCT250 FM041000 18006KT 5SM -DZ BR OVC006
                       FM041800 21008KT P6SM OVC012 FM042000 23010KT
                       P6SM BKN020 BKN060 FM042200 24008KT P6SM
                       SCT025 BKN070=
201009032323 TAF KSEA 032323Z 0400/0506 33005KT P6SM SCT250 FM040700 21006KT
                       P6SM SCT250 FM041000 19008KT P6SM OVC012
                       PROB30 0414/0420 5SM -SHRA BR OVC008 FM042000
                       23010KT P6SM BKN020 BKN060 FM042200 24008KT
                       P6SM SCT025 BKN070=
201009032100 KSEA 032100Z 0321/0424 28005KT P6SM SCT250 FM032200 31006KT P6SM
                       SCT250 FM040700 21008KT P6SM BKN250 FM041200
                       19008KT P6SM BKN015 FM042000 23010KT P6SM
                       SCT020 BKN120=
201009031728 TAF KSEA 031728Z 0318/0424 VRB03KT P6SM FEW250 FM032200 31006KT
                       P6SM FEW250 FM040700 21008KT P6SM BKN250
                       FM041200 19008KT P6SM BKN015 FM042000 23010KT
                       P6SM SCT020 BKN120=
201009031500 KSEA 031500Z 0315/0418 VRB03KT P6SM SCT250 FM032100 25006KT P6SM
                       FEW250 FM040700 22009KT P6SM BKN250 FM041200
                       20007KT P6SM BKN015=
201009031136 TAF KSEA 031136Z 0312/0418 00000KT P6SM FEW130 SCT250 FM031700
                       VRB04KT P6SM SCT250 FM032100 25006KT P6SM
                       FEW250 FM040700 22009KT P6SM BKN250 FM041200
                       20007KT P6SM BKN015=
201009030859 KSEA 030859Z 0309/0412 35003KT P6SM FEW130 BKN250 FM031100 01006KT
                       P6SM BKN250 FM031700 VRB04KT P6SM SCT250
                       FM032100 25006KT P6SM SCT250 FM040700 22008KT
                       P6SM BKN250=
201009030522 TAF KSEA 030522Z 0306/0412 35009KT P6SM BKN250 FM031000 02006KT
                       P6SM BKN250 FM031700 VRB04KT P6SM SCT250
                       FM032100 25006KT P6SM SCT250 FM040700 22008KT
                       P6SM BKN250=
201009030305 KSEA 030305Z 0303/0406 01011KT P6SM FEW180 BKN250 FM030700 02007KT
                       P6SM BKN250 FM031200 04003KT P6SM SCT250
                       FM031700 27004KT P6SM SCT250 FM032100 26007KT
                       P6SM SCT250=
201009022320 TAF KSEA 022320Z 0300/0406 36010G18KT P6SM BKN250 FM030400 02007KT
                       P6SM BKN250 FM031200 04003KT P6SM SCT250
                       FM031700 27004KT P6SM SCT250 FM032100 26007KT
                       P6SM SCT250=
201009022108 KSEA 022108Z 0221/0324 36013KT P6SM SCT250 FM030400 02006KT P6SM
                       SCT250 FM031200 04003KT P6SM SCT250 FM031700
                       27004KT P6SM SCT250=
201009021720 TAF KSEA 021720Z 0218/0324 36009KT P6SM BKN250 FM022100 33013KT
                       P6SM BKN250 FM030400 02006KT P6SM BKN250
                       FM031200 04003KT P6SM SCT250 FM031700 27004KT
                       P6SM SCT250=
201009021504 KSEA 021504Z 0215/0318 01010KT P6SM SKC FM021800 33012KT P6SM SKC
                       FM030600 02006KT P6SM SCT250=
201009021347 KSEA 021347Z 0214/0318 02010KT P6SM SKC FM021800 35010KT P6SM SKC
                       FM030600 02006KT P6SM SCT250=
201009021129 TAF KSEA 021129Z 0212/0318 36006KT P6SM BCFG SKC FM021700 36008KT
                       P6SM SKC FM030600 02006KT P6SM SCT250=
201009020903 TAF AMD KSEA 020903Z 0209/0312 36006KT P6SM SKC FM021200 02004KT
                       P6SM BCFG SKC FM021700 36008KT P6SM SKC=
201009020522 TAF KSEA 020522Z 0206/0312 35005KT P6SM FEW060 FM021100 02004KT
                       P6SM BCFG SKC FM021700 36008KT P6SM SKC=
201009020301 KSEA 020301Z 0203/0306 30003KT P6SM SCT060 FM020700 02004KT P6SM
                       FEW060 FM021700 36008KT P6SM SKC=
201009012320 TAF KSEA 012320Z 0200/0306 33005KT P6SM SCT045 FM020500 02004KT
                       P6SM SKC FM021700 36008KT P6SM SKC=
201009012025 KSEA 012025Z 0120/0224 33006KT P6SM FEW025 BKN040 FM012300 33005KT
                       P6SM SCT040 SCT250 FM020400 02005KT P6SM
                       SKC FM021700 36010KT P6SM SKC=
201009011733 TAF KSEA 011733Z 0118/0224 03007KT P6SM SCT012 BKN022
                      TEMPO 0118/0119 BKN012 BKN022 FM012000 33006KT
                       P6SM BKN025 FM012100 32006KT P6SM SCT030
                       FM020000 33005KT P6SM SCT250 FM020400 02005KT
                       P6SM SKC FM021700 36010KT P6SM SKC=
201009011448 KSEA 011448Z 0115/0218 VRB03KT P6SM BKN009 OVC015
                      TEMPO 0115/0118 5SM BR SCT009 OVC015 FM011800
                       30004KT P6SM BKN015 OVC030 FM012000 29004KT
                       P6SM SCT015 BKN030 FM012100 31005KT P6SM
                       BKN050 FM020000 33005KT P6SM SCT050=
201009011131 TAF KSEA 011131Z 0112/0218 22006KT P6SM OVC009
                      TEMPO 0112/0115 2SM BR OVC004 FM011900 24005KT
                       P6SM BKN020 OVC040 FM012200 24005KT P6SM
                       BKN045 FM020600 33005KT P6SM SCT050=
201009010903 KSEA 010903Z 0109/0212 21010KT P6SM BKN009 OVC013 FM011100 18007KT
                       P6SM OVC008
                      TEMPO 0111/0115 2SM BR OVC004 FM011900 24005KT
                       P6SM BKN020 OVC040 FM012200 24005KT P6SM
                       BKN045 FM020600 33005KT P6SM SCT050=
201009010525 TAF KSEA 010525Z 0106/0212 19012KT P6SM SCT016 OVC070
                      TEMPO 0106/0108 5SM -SHRA BR BKN015 OVC050
                       FM010800 19009KT P6SM SCT008 OVC015
                      TEMPO 0108/0111 -SHRA OVC008 FM011100 18007KT
                       6SM BR OVC007
                      TEMPO 0112/0116 1/2SM FG OVC003 FM011900
                       24005KT P6SM BKN020 OVC040 FM012200 24005KT
                       P6SM BKN045 FM020600 33005KT P6SM SCT050=
201009010441 KSEA 010441Z 0105/0206 21017G22KT P6SM FEW009 SCT015 OVC070
                      TEMPO 0105/0108 5SM -SHRA BR BKN015 OVC050
                       FM010800 19009KT P6SM SCT008 OVC015
                      TEMPO 0108/0111 -SHRA FM011100 18007KT 6SM
                       BR OVC007
                      TEMPO 0112/0116 1/2SM FG OVC003 FM011900
                       24005KT P6SM BKN020 OVC040 FM012200 24005KT
                       P6SM BKN045=
201009010307 KSEA 010307Z 0103/0206 20015G20KT P6SM OVC008 FM010400 19012KT
                       P6SM SCT008 BKN015 OVC025
                      TEMPO 0104/0107 5SM -SHRA BR BKN008 OVC020
                       FM010700 19008KT P6SM BKN008 OVC015
                      TEMPO 0107/0111 -SHRA FM011300 18004KT 6SM
                       BR OVC007
                      TEMPO 0113/0116 1/2SM FG OVC003 FM011900
                       24005KT P6SM BKN020 OVC040 FM012200 24005KT
                       P6SM BKN045=