##########################################################
# Query made at 02/17/2025 17:49:27 UTC
# Time interval: from 06/01/2010 00:00  to 06/30/2010 23:59  UTC
##########################################################

##########################################################
# KSEA, Seattle, Seattle-Tacoma International Airport (United States)
# WMO index: 72793. WIGOS ID: 0-20000-0-72793
# Latitude 47-27-00N. Longitude 122-17-59W. Altitude 130 m.
##########################################################

###################################
#  METAR/SPECI from KSEA
###################################
201006302353 METAR KSEA 302353Z 30008KT 10SM FEW045 SCT250 18/05 A3009 RMK AO2 SLP196 T01830050 10183 20139 58016=
201006302253 METAR KSEA 302253Z 30011KT 10SM SCT044 BKN250 18/05 A3011 RMK AO2 SLP203 T01780050=
201006302153 METAR KSEA 302153Z 32009G15KT 10SM SCT040 BKN200 17/06 A3013 RMK AO2 SLP208 T01720061=
201006302053 METAR KSEA 302053Z VRB04KT 10SM SCT040 BKN200 17/06 A3014 RMK AO2 SLP213 T01720061 58010=
201006301953 METAR KSEA 301953Z 30007KT 10SM SCT035 OVC200 15/06 A3015 RMK AO2 SLP217 T01500061=
201006301853 METAR KSEA 301853Z 29004KT 10SM FEW028 BKN034 BKN200 14/07 A3016 RMK AO2 SLP220 T01440072=
201006301753 METAR KSEA 301753Z 00000KT 10SM SCT025 BKN034 BKN250 14/07 A3017 RMK AO2 SLP223 T01390067 10139 20100 58002=
201006301653 METAR KSEA 301653Z 00000KT 10SM SCT022 BKN030 BKN250 13/07 A3018 RMK AO2 SLP227 T01280072=
201006301553 METAR KSEA 301553Z 22003KT 10SM BKN020 BKN036 BKN200 12/07 A3019 RMK AO2 SLP229 T01170067=
201006301453 METAR KSEA 301453Z 17004KT 10SM BKN019 BKN035 11/07 A3018 RMK AO2 SLP225 T01110067 51013=
201006301353 METAR KSEA 301353Z 17004KT 10SM BKN018 11/07 A3016 RMK AO2 SLP220 T01110067=
201006301253 METAR KSEA 301253Z 17004KT 10SM SCT026 SCT040 10/07 A3015 RMK AO2 SLP215 T01000067=
201006301153 METAR KSEA 301153Z 17006KT 10SM SCT028 10/07 A3014 RMK AO2 SLP210 T01000067 10122 20100 50006=
201006301135 SPECI KSEA 301135Z 17006KT 10SM SCT028 10/07 A3014 RMK AO2=
201006301135 SPECI KSEA 301135Z 17006KT 10SM SCT028 10/07 A3014 RMK AO2=
201006301053 METAR KSEA 301053Z 17007KT 10SM BKN021 10/07 A3014 RMK AO2 SLP211 T01000067=
201006301003 SPECI KSEA 301003Z 16006KT 10SM BKN019 10/07 A3014 RMK AO2=
201006301003 SPECI KSEA 301003Z 16006KT 10SM BKN019 10/07 A3014 RMK AO2=
201006300953 METAR KSEA 300953Z 16006KT 10SM SCT019 10/06 A3013 RMK AO2 SLP210 T01000061=
201006300906 SPECI KSEA 300906Z 20005KT 10SM BKN017 11/08 A3012 RMK AO2=
201006300906 SPECI KSEA 300906Z 20005KT 10SM BKN017 11/08 A3012 RMK AO2=
201006300853 METAR KSEA 300853Z 20005KT 10SM BKN032 11/07 A3012 RMK AO2 SLP205 T01060072 50009=
201006300753 METAR KSEA 300753Z 22008KT 10SM SCT032 11/07 A3012 RMK AO2 SLP205 T01110072 401940106=
201006300653 METAR KSEA 300653Z 21007KT 10SM FEW035 12/07 A3010 RMK AO2 SLP198 T01170067=
201006300553 METAR KSEA 300553Z 00000KT 10SM FEW035 12/07 A3009 RMK AO2 SLP195 T01220072 10189 20111 52015=
201006300453 METAR KSEA 300453Z 32003KT 10SM FEW035 SCT090 13/08 A3008 RMK AO2 SLP191 T01280078=
201006300353 METAR KSEA 300353Z 27005KT 10SM FEW035 SCT090 14/07 A3005 RMK AO2 SLP184 T01440067=
201006300253 METAR KSEA 300253Z 24009KT 10SM FEW035 SCT085 17/06 A3004 RMK AO2 SLP179 T01670056 56003=
201006300153 METAR KSEA 300153Z 24007KT 10SM FEW035 BKN085 17/06 A3004 RMK AO2 SLP178 T01720061=
201006300053 METAR KSEA 300053Z 25009KT 10SM FEW035 SCT080 BKN250 18/06 A3005 RMK AO2 SLP180 T01830061=
201006292353 METAR KSEA 292353Z 23011KT 10SM FEW035 BKN080 BKN250 18/05 A3005 RMK AO2 SLP181 T01830050 10194 20117 56007=
201006292253 METAR KSEA 292253Z 19011KT 10SM FEW035 BKN075 19/05 A3006 RMK AO2 SLP184 T01890050=
201006292153 METAR KSEA 292153Z 20007KT 170V240 10SM FEW035 SCT065 18/06 A3006 RMK AO2 SLP184 T01830061=
201006292053 METAR KSEA 292053Z 27006KT 10SM SCT030 BKN060 16/05 A3007 RMK AO2 SLP190 T01610050 56003=
201006291953 METAR KSEA 291953Z VRB03KT 10SM SCT023 SCT050 16/07 A3007 RMK AO2 SLP190 T01560072=
201006291917 SPECI KSEA 291917Z VRB03KT 10SM SCT022 SCT050 14/08 A3008 RMK AO2=
201006291917 SPECI KSEA 291917Z VRB03KT 10SM SCT022 SCT050 14/08 A3008 RMK AO2=
201006291853 METAR KSEA 291853Z 17003KT 10SM BKN019 13/08 A3008 RMK AO2 SLP192 T01330078=
201006291813 SPECI KSEA 291813Z 16005KT 10SM BKN015 BKN021 12/08 A3008 RMK AO2=
201006291813 SPECI KSEA 291813Z 16005KT 10SM BKN015 BKN021 12/08 A3008 RMK AO2=
201006291753 METAR KSEA 291753Z 00000KT 10SM BKN013 OVC020 12/08 A3008 RMK AO2 SLP193 T01170083 10117 20106 51005=
201006291718 SPECI KSEA 291718Z 00000KT 10SM OVC013 12/08 A3008 RMK AO2=
201006291718 SPECI KSEA 291718Z 00000KT 10SM OVC013 12/08 A3008 RMK AO2=
201006291653 METAR KSEA 291653Z 18003KT 10SM BKN015 OVC022 11/08 A3008 RMK AO2 SLP192 T01110078=
201006291553 METAR KSEA 291553Z 21003KT 10SM OVC017 11/07 A3007 RMK AO2 SLP190 T01110072=
201006291453 METAR KSEA 291453Z 16005KT 10SM OVC016 11/07 A3007 RMK AO2 SLP188 T01110072 53007=
201006291353 METAR KSEA 291353Z 16006KT 10SM BKN016 OVC040 11/07 A3006 RMK AO2 SLP184 T01110072=
201006291253 METAR KSEA 291253Z 00000KT 10SM BKN018 OVC050 11/07 A3005 RMK AO2 SLP181 T01110072=
201006291153 METAR KSEA 291153Z 23004KT 10SM BKN018 OVC040 11/07 A3004 RMK AO2 SLP179 T01110072 10139 20111 53004=
201006291053 METAR KSEA 291053Z 21005KT 10SM BKN018 BKN200 11/07 A3004 RMK AO2 SLP177 T01110067=
201006290953 METAR KSEA 290953Z 17005KT 10SM FEW015 SCT045 BKN200 11/07 A3003 RMK AO2 SLP175 T01110067=
201006290853 METAR KSEA 290853Z 21003KT 10SM FEW015 SCT045 BKN200 12/07 A3003 RMK AO2 SLP175 T01170072 51005=
201006290753 METAR KSEA 290753Z 21003KT 10SM SCT045 BKN200 12/08 A3003 RMK AO2 SLP174 T01170083 402170117=
201006290653 METAR KSEA 290653Z 22009KT 10SM SCT045 BKN200 13/09 A3002 RMK AO2 SLP172 T01280089=
201006290553 METAR KSEA 290553Z 21006KT 10SM BKN045 BKN250 14/09 A3002 RMK AO2 SLP170 T01390089 10200 20139 53015=
201006290453 METAR KSEA 290453Z 21011KT 10SM BKN047 BKN250 14/10 A3000 RMK AO2 SLP163 T01440100=
201006290353 METAR KSEA 290353Z 23008KT 10SM FEW020 BKN055 BKN250 15/10 A2998 RMK AO2 SLP158 T01500100=
201006290253 METAR KSEA 290253Z 24011KT 10SM FEW020 SCT060 BKN250 17/11 A2997 RMK AO2 SLP154 T01670106 53003=
201006290153 METAR KSEA 290153Z 24011KT 10SM SCT044 BKN250 18/11 A2997 RMK AO2 SLP153 T01780106=
201006290053 METAR KSEA 290053Z 24011KT 10SM BKN040 BKN250 19/11 A2996 RMK AO2 SLP152 T01940106=
201006282353 METAR KSEA 282353Z 23011G14KT 10SM BKN040 BKN250 20/11 A2996 RMK AO2 SLP151 T02000111 10217 20167 57001=
201006282253 METAR KSEA 282253Z 22011KT 10SM FEW030 SCT060 BKN250 20/11 A2997 RMK AO2 SLP152 T02000111=
201006282153 METAR KSEA 282153Z 23008KT 10SM FEW030 SCT050 BKN250 21/12 A2996 RMK AO2 SLP152 T02060117=
201006282053 METAR KSEA 282053Z 21007KT 190V260 10SM FEW025 SCT055 BKN250 21/13 A2997 RMK AO2 SLP153 T02110128 56004=
201006281953 METAR KSEA 281953Z 22009KT 10SM FEW020 SCT055 BKN250 21/12 A2997 RMK AO2 SLP154 T02060122=
201006281853 METAR KSEA 281853Z 21010KT 10SM FEW018 SCT055 BKN250 19/12 A2997 RMK AO2 SLP155 T01890122=
201006281753 METAR KSEA 281753Z 20007KT 10SM SCT017 BKN055 BKN200 17/12 A2998 RMK AO2 SLP157 T01720117 10178 20128 53004=
201006281739 SPECI KSEA 281739Z 25008KT 10SM SCT017 BKN060 BKN200 17/12 A2998 RMK AO2=
201006281739 SPECI KSEA 281739Z 25008KT 10SM SCT017 BKN060 BKN200 17/12 A2998 RMK AO2=
201006281653 METAR KSEA 281653Z 20005KT 10SM BKN017 BKN065 BKN120 16/12 A2997 RMK AO2 SLP155 T01610117=
201006281553 METAR KSEA 281553Z 18006KT 10SM OVC017 14/11 A2997 RMK AO2 SLP154 T01440106=
201006281453 METAR KSEA 281453Z 00000KT 10SM BKN019 OVC030 14/11 A2997 RMK AO2 SLP153 T01440106 53003=
201006281353 METAR KSEA 281353Z 29005KT 10SM OVC022 13/10 A2996 RMK AO2 SLP151 T01280100=
201006281253 METAR KSEA 281253Z 28004KT 10SM OVC024 13/10 A2995 RMK AO2 SLP149 T01280100=
201006281153 METAR KSEA 281153Z 28003KT 10SM BKN028 OVC100 13/10 A2996 RMK AO2 SLP150 T01280100 10144 20128 56006=
201006281053 METAR KSEA 281053Z 34003KT 10SM BKN028 OVC100 13/10 A2996 RMK AO2 SLP151 T01330100=
201006280953 METAR KSEA 280953Z 36004KT 10SM BKN030 OVC100 13/09 A2997 RMK AO2 SLP153 T01330094=
201006280853 METAR KSEA 280853Z 01005KT 10SM OVC032 13/10 A2998 RMK AO2 SLP156 T01330100 58004=
201006280753 METAR KSEA 280753Z 35005KT 10SM SCT032 BKN085 OVC110 13/10 A2998 RMK AO2 SLP158 T01330100 402110106=
201006280653 METAR KSEA 280653Z 01005KT 10SM BKN037 OVC110 14/11 A2999 RMK AO2 SLP159 T01390106=
201006280553 METAR KSEA 280553Z 34005KT 10SM SCT039 BKN095 OVC120 14/11 A2999 RMK AO2 SLP160 T01440111 10211 20139 56003=
201006280453 METAR KSEA 280453Z 35005KT 10SM BKN043 BKN100 BKN120 14/11 A3000 RMK AO2 SLP162 T01440111=
201006280353 METAR KSEA 280353Z 00000KT 10SM BKN100 BKN200 16/12 A2999 RMK AO2 SLP161 T01610117=
201006280253 METAR KSEA 280253Z 36006KT 10SM BKN100 18/12 A3000 RMK AO2 SLP164 T01780117 56007=
201006280153 METAR KSEA 280153Z 00000KT 10SM FEW049 BKN100 19/12 A3000 RMK AO2 SLP165 T01890122=
201006280053 METAR KSEA 280053Z 28006KT 10SM FEW040 SCT060 BKN095 20/13 A3001 RMK AO2 SLP168 T02000128=
201006272353 METAR KSEA 272353Z 23005KT 10SM FEW040 BKN065 OVC120 21/13 A3002 RMK AO2 SLP171 T02060128 10206 20161 58007=
201006272253 METAR KSEA 272253Z 25006KT 10SM FEW040 BKN070 OVC120 21/13 A3003 RMK AO2 SLP175 T02060128=
201006272153 METAR KSEA 272153Z 21006KT 10SM FEW030 BKN075 OVC120 20/12 A3004 RMK AO2 SLP177 T02000122=
201006272053 METAR KSEA 272053Z 22008KT 10SM FEW030 BKN055 OVC120 19/12 A3004 RMK AO2 SLP178 T01890117 56008=
201006271953 METAR KSEA 271953Z 21008KT 10SM OVC050 18/11 A3005 RMK AO2 SLP180 T01830106=
201006271853 METAR KSEA 271853Z 22008KT 10SM OVC050 17/10 A3006 RMK AO2 SLP183 T01720100=
201006271753 METAR KSEA 271753Z 18005KT 10SM BKN055 OVC110 16/10 A3007 RMK AO2 SLP186 T01610100 10161 20106 58008=
201006271653 METAR KSEA 271653Z 22004KT 10SM BKN050 BKN060 OVC110 14/09 A3007 RMK AO2 SLP189 T01390094=
201006271553 METAR KSEA 271553Z 18004KT 10SM SCT055 BKN100 OVC190 13/09 A3008 RMK AO2 SLP192 T01280094=
201006271453 METAR KSEA 271453Z 21006KT 10SM SCT055 BKN100 BKN190 12/09 A3009 RMK AO2 SLP194 T01220094 50000=
201006271353 METAR KSEA 271353Z 19003KT 10SM SCT060 BKN120 BKN200 12/09 A3009 RMK AO2 SLP194 T01170094=
201006271253 METAR KSEA 271253Z 24003KT 10SM SCT060 BKN120 12/09 A3009 RMK AO2 SLP194 T01170094=
201006271153 METAR KSEA 271153Z 18003KT 10SM FEW200 12/09 A3009 RMK AO2 SLP194 T01170094 10156 20111 58004=
201006271053 METAR KSEA 271053Z 00000KT 10SM CLR 12/09 A3009 RMK AO2 SLP195 T01220094=
201006270953 METAR KSEA 270953Z 00000KT 10SM FEW200 12/09 A3010 RMK AO2 SLP197 T01220089=
201006270853 METAR KSEA 270853Z 00000KT 10SM FEW200 13/09 A3010 RMK AO2 SLP198 T01280094 56005=
201006270753 METAR KSEA 270753Z 00000KT 10SM FEW200 13/09 A3010 RMK AO2 SLP199 T01280094 402000117=
201006270653 METAR KSEA 270653Z 28003KT 10SM FEW200 13/10 A3011 RMK AO2 SLP200 T01280100=
201006270553 METAR KSEA 270553Z 00000KT 10SM FEW200 16/11 A3011 RMK AO2 SLP202 T01560106 10200 20150 53001=
201006270453 METAR KSEA 270453Z 30003KT 10SM FEW100 16/11 A3011 RMK AO2 SLP202 T01610106=
201006270353 METAR KSEA 270353Z 00000KT 10SM FEW100 18/10 A3011 RMK AO2 SLP200 T01830100=
201006270253 METAR KSEA 270253Z 00000KT 10SM FEW060 19/10 A3011 RMK AO2 SLP202 T01940100 56008=
201006270153 METAR KSEA 270153Z 00000KT 10SM FEW250 20/10 A3011 RMK AO2 SLP203 T02000100=
201006270053 METAR KSEA 270053Z 23005KT 10SM FEW250 19/09 A3012 RMK AO2 SLP206 T01890094=
201006262353 METAR KSEA 262353Z 27005KT 10SM FEW040 18/09 A3014 RMK AO2 SLP211 T01830089 10194 20144 58011=
201006262253 METAR KSEA 262253Z 25004KT 10SM FEW030 SCT250 18/08 A3015 RMK AO2 SLP217 T01830083=
201006262153 METAR KSEA 262153Z VRB03KT 10SM FEW030 SCT250 17/08 A3016 RMK AO2 SLP219 T01720078=
201006262053 METAR KSEA 262053Z 27007KT 10SM SCT030 BKN250 17/08 A3017 RMK AO2 SLP222 T01720083 58001=
201006261953 METAR KSEA 261953Z VRB04KT 10SM SCT020 OVC033 16/08 A3017 RMK AO2 SLP222 T01560078=
201006261853 METAR KSEA 261853Z 21006KT 10SM SCT020 BKN035 16/08 A3017 RMK AO2 SLP223 T01560083=
201006261826 SPECI KSEA 261826Z 19007KT 10SM SCT020 BKN035 BKN250 15/08 A3017 RMK AO2=
201006261826 SPECI KSEA 261826Z 19007KT 10SM SCT020 BKN035 BKN250 15/08 A3017 RMK AO2=
201006261753 METAR KSEA 261753Z VRB05KT 10SM BKN019 BKN035 14/09 A3017 RMK AO2 SLP223 T01440089 10144 20117 50003=
201006261737 SPECI KSEA 261737Z 26006KT 10SM BKN016 BKN035 14/09 A3017 RMK AO2=
201006261737 SPECI KSEA 261737Z 26006KT 10SM BKN016 BKN035 14/09 A3017 RMK AO2=
201006261653 METAR KSEA 261653Z 22006KT 10SM FEW010 BKN014 OVC035 13/09 A3017 RMK AO2 SLP224 T01330094=
201006261553 METAR KSEA 261553Z 23005KT 10SM BKN012 OVC035 12/09 A3017 RMK AO2 SLP223 T01220094=
201006261543 SPECI KSEA 261543Z 23006KT 10SM BKN012 OVC035 12/09 A3017 RMK AO2=
201006261543 SPECI KSEA 261543Z 23006KT 10SM BKN012 OVC035 12/09 A3017 RMK AO2=
201006261453 METAR KSEA 261453Z 22005KT 10SM BKN015 OVC035 12/09 A3016 RMK AO2 SLP220 T01220089 53014=
201006261353 METAR KSEA 261353Z 23006KT 10SM BKN015 OVC020 12/09 A3014 RMK AO2 SLP213 T01170089=
201006261253 METAR KSEA 261253Z 22004KT 10SM OVC022 12/09 A3013 RMK AO2 SLP210 T01170089=
201006261153 METAR KSEA 261153Z 22006KT 10SM OVC020 12/09 A3012 RMK AO2 SLP206 T01220089 10139 20122 51004=
201006261053 METAR KSEA 261053Z 21005KT 10SM OVC020 12/09 A3012 RMK AO2 SLP205 T01220089=
201006260953 METAR KSEA 260953Z 20006KT 10SM OVC017 12/09 A3012 RMK AO2 SLP203 T01220089=
201006260853 METAR KSEA 260853Z 23005KT 10SM BKN024 OVC036 13/09 A3011 RMK AO2 SLP202 T01280089 52008=
201006260753 METAR KSEA 260753Z 23004KT 10SM BKN034 13/09 A3011 RMK AO2 SLP200 T01280094 401780128=
201006260653 METAR KSEA 260653Z 22005KT 10SM BKN030 13/09 A3009 RMK AO2 SLP196 T01280094=
201006260553 METAR KSEA 260553Z 25004KT 10SM BKN034 14/11 A3009 RMK AO2 SLP193 T01390106 10178 20139 51009=
201006260453 METAR KSEA 260453Z 23004KT 10SM BKN036 BKN200 14/11 A3008 RMK AO2 SLP192 T01440111=
201006260353 METAR KSEA 260353Z 26005KT 10SM BKN034 16/11 A3007 RMK AO2 SLP187 T01560111=
201006260309 SPECI KSEA 260309Z 23004KT 10SM BKN030 17/11 A3006 RMK AO2=
201006260309 SPECI KSEA 260309Z 23004KT 10SM BKN030 17/11 A3006 RMK AO2=
201006260253 METAR KSEA 260253Z 23005KT 10SM BKN027 BKN033 17/11 A3006 RMK AO2 SLP185 T01670111 50002=
201006260153 METAR KSEA 260153Z 25004KT 10SM OVC027 17/11 A3006 RMK AO2 SLP185 T01670111=
201006260053 METAR KSEA 260053Z 22004KT 10SM BKN028 17/11 A3005 RMK AO2 SLP182 T01720111=
201006252353 METAR KSEA 252353Z VRB05KT 10SM BKN030 18/11 A3006 RMK AO2 SLP184 T01780111 10178 20144 58002=
201006252253 METAR KSEA 252253Z 22008KT 10SM BKN031 OVC050 17/12 A3007 RMK AO2 SLP186 T01720117=
201006252153 METAR KSEA 252153Z VRB04KT 10SM BKN023 OVC035 17/12 A3006 RMK AO2 SLP185 T01720117=
201006252053 METAR KSEA 252053Z 23005KT 10SM FEW015 BKN026 OVC040 17/12 A3007 RMK AO2 SLP186 T01720117 50003=
201006251953 METAR KSEA 251953Z 23006KT 10SM SCT014 OVC026 16/11 A3007=
201006251919 SPECI KSEA 251919Z 24008KT 10SM SCT012 BKN026 16/11 A3007 RMK AO2=
201006251919 SPECI KSEA 251919Z 24008KT 10SM SCT012 BKN026 16/11 A3007 RMK AO2=
201006251853 METAR KSEA 251853Z 24006KT 10SM BKN011 OVC024 16/12 A3006 RMK AO2 SLP185 T01560117=
201006251753 METAR KSEA 251753Z 22005KT 10SM BKN010 OVC016 14/12 A3006 RMK AO2 SLP183 60000 T01440117 10144 20133 51011=
201006251746 SPECI KSEA 251746Z 26005KT 10SM BKN010 OVC016 14/12 A3006 RMK AO2=
201006251746 SPECI KSEA 251746Z 26005KT 10SM BKN010 OVC016 14/12 A3006 RMK AO2=
201006251653 METAR KSEA 251653Z 26004KT 10SM BKN007 OVC011 14/12 A3005 RMK AO2 SLP181 T01390117=
201006251618 SPECI KSEA 251618Z 23006KT 7SM BKN005 OVC011 13/12 A3004 RMK AO2=
201006251618 SPECI KSEA 251618Z 23006KT 7SM BKN005 OVC011 13/12 A3004 RMK AO2=
201006251553 METAR KSEA 251553Z 23006KT 7SM BKN004 OVC008 13/12 A3003 RMK AO2 SLP175 T01330117=
201006251453 METAR KSEA 251453Z 19006KT 2SM BR BKN004 OVC011 13/12 A3002 RMK AO2 SFC VIS 4 DZE12 SLP172 P0000 60000 T01330122 51010=
201006251413 SPECI KSEA 251413Z 00000KT 2SM BR OVC004 13/12 A3002 RMK AO2 SFC VIS 2 1/2 DZE12 P0000=
201006251413 SPECI KSEA 251413Z 00000KT 2SM BR OVC004 13/12 A3002 RMK AO2 SFC VIS 2 1/2 DZE12 P0000=
201006251400 SPECI KSEA 251400Z 00000KT 1SM R16C/P6000FT DZ BR OVC004 13/12 A3002 RMK AO2 CIG 002V007 P0000=
201006251400 SPECI KSEA 251400Z 00000KT 1SM R16C/P6000FT DZ BR OVC004 13/12 A3002 RMK AO2 CIG 002V007 P0000=
201006251353 METAR KSEA 251353Z 26004KT 1SM R16C/P6000FT DZ BR OVC006 13/12 A3002 RMK AO2 DZB10 CIG 002V007 SLP169 P0000 T01330122=
201006251344 SPECI KSEA 251344Z 26004KT 1SM R16C/P6000FT -DZ BR OVC006 13/12 A3002 RMK AO2 DZB10 CIG 003V007 P0000=
201006251344 SPECI KSEA 251344Z 26004KT 1SM R16C/P6000FT -DZ BR OVC006 13/12 A3002 RMK AO2 DZB10 CIG 003V007 P0000=
201006251337 SPECI KSEA 251337Z 27004KT 1 1/2SM -DZ BR OVC006 13/12 A3002 RMK AO2 DZB10 CIG 003V007 P0000=
201006251337 SPECI KSEA 251337Z 27004KT 1 1/2SM -DZ BR OVC006 13/12 A3002 RMK AO2 DZB10 CIG 003V007 P0000=
201006251308 SPECI KSEA 251308Z 27004KT 1 1/2SM BR OVC004 13/12 A3001 RMK AO2=
201006251308 SPECI KSEA 251308Z 27004KT 1 1/2SM BR OVC004 13/12 A3001 RMK AO2=
201006251253 METAR KSEA 251253Z 25005KT 8SM BKN006 OVC010 14/12 A3001 RMK AO2 SLP166 T01390122=
201006251153 METAR KSEA 251153Z 23006KT 10SM SCT006 BKN011 OVC023 14/12 A2999 RMK AO2 SLP161 T01390122 10161 20139 57004=
201006251122 SPECI KSEA 251122Z 21004KT 10SM BKN013 OVC018 14/12 A2999 RMK AO2=
201006251122 SPECI KSEA 251122Z 21004KT 10SM BKN013 OVC018 14/12 A2999 RMK AO2=
201006251053 METAR KSEA 251053Z 24003KT 10SM SCT008 BKN016 OVC023 14/12 A2999 RMK AO2 SLP161 T01390122=
201006250953 METAR KSEA 250953Z 29003KT 10SM BKN025 OVC040 14/12 A3000 RMK AO2 SLP164 T01390117=
201006250939 SPECI KSEA 250939Z 31003KT 10SM BKN025 OVC040 14/12 A3001 RMK AO2=
201006250939 SPECI KSEA 250939Z 31003KT 10SM BKN025 OVC040 14/12 A3001 RMK AO2=
201006250853 METAR KSEA 250853Z 29004KT 10SM BKN040 OVC200 14/12 A3000 RMK AO2 SLP164 T01390117 51002=
201006250753 METAR KSEA 250753Z 28005KT 10SM BKN040 OVC200 14/12 A3000 RMK AO2 SLP166 T01390122 402330122=
201006250653 METAR KSEA 250653Z 29004KT 10SM FEW040 BKN200 14/12 A3000 RMK AO2 SLP165 T01440122=
201006250553 METAR KSEA 250553Z 00000KT 10SM FEW047 SCT250 16/12 A3000 RMK AO2 SLP163 T01610122 10233 20156 50005=
201006250453 METAR KSEA 250453Z 28004KT 10SM FEW040 SCT150 SCT250 17/12 A3000 RMK AO2 SLP164 T01670122=
201006250353 METAR KSEA 250353Z 30004KT 10SM FEW040 SCT150 SCT250 19/13 A2999 RMK AO2 SLP159 T01890128=
201006250253 METAR KSEA 250253Z 29003KT 10SM FEW040 SCT250 21/12 A2998 RMK AO2 SLP157 T02060122 56009=
201006250153 METAR KSEA 250153Z 24003KT 10SM FEW040 SCT250 22/13 A2999 RMK AO2 SLP159 T02220128=
201006250053 METAR KSEA 250053Z 24005KT 10SM FEW040 SCT250 23/12 A3000 RMK AO2 SLP163 T02280122=
201006242353 METAR KSEA 242353Z 22004KT 10SM FEW040 SCT250 23/13 A3001 RMK AO2 SLP167 T02280128 10233 20172 58013=
201006242253 METAR KSEA 242253Z VRB03KT 10SM FEW040 SCT250 22/12 A3003 RMK AO2 SLP173 T02220122=
201006242153 METAR KSEA 242153Z VRB06KT 10SM FEW035 BKN250 22/12 A3004 RMK AO2 SLP176 T02170122=
201006242053 METAR KSEA 242053Z 26005KT 10SM FEW075 BKN250 21/13 A3005 RMK AO2 SLP179 T02110128 58007=
201006241953 METAR KSEA 241953Z 20006KT 10SM FEW075 BKN250 19/12 A3006 RMK AO2 SLP182 T01940122=
201006241853 METAR KSEA 241853Z VRB06KT 10SM FEW075 BKN250 19/12 A3006 RMK AO2 SLP185 T01890122=
201006241753 METAR KSEA 241753Z 22006KT 10SM FEW030 BKN075 BKN250 17/11 A3007 RMK AO2 SLP187 T01720111 10178 20122 58002=
201006241653 METAR KSEA 241653Z 21006KT 10SM FEW025 SCT090 BKN250 17/11 A3008 RMK AO2 SLP192 T01670111=
201006241553 METAR KSEA 241553Z 21006KT 10SM FEW090 BKN250 16/11 A3008 RMK AO2 SLP190 T01560111=
201006241453 METAR KSEA 241453Z 21005KT 10SM FEW100 BKN250 14/11 A3008 RMK AO2 SLP189 T01440111 52005=
201006241353 METAR KSEA 241353Z 21004KT 10SM FEW100 BKN200 13/11 A3007 RMK AO2 SLP188 T01330111=
201006241253 METAR KSEA 241253Z 17003KT 10SM FEW060 SCT100 SCT200 13/11 A3007 RMK AO2 SLP185 T01280106=
201006241153 METAR KSEA 241153Z 15003KT 10SM FEW200 13/11 A3006 RMK AO2 SLP184 T01330106 10178 20128 55001=
201006241053 METAR KSEA 241053Z 00000KT 10SM FEW060 SCT200 14/11 A3006 RMK AO2 SLP183 T01440106=
201006240953 METAR KSEA 240953Z 00000KT 10SM FEW060 SCT200 15/11 A3006 RMK AO2 SLP184 T01500106=
201006240853 METAR KSEA 240853Z 07004KT 10SM FEW060 SCT200 17/09 A3007 RMK AO2 SLP185 T01670094 50001=
201006240753 METAR KSEA 240753Z 00000KT 10SM SCT060 17/10 A3007 RMK AO2 SLP187 T01670100 402500139=
201006240653 METAR KSEA 240653Z 00000KT 10SM SCT060 17/11 A3007 RMK AO2 SLP186 T01670106=
201006240553 METAR KSEA 240553Z 27003KT 10SM SCT060 18/11 A3006 RMK AO2 SLP184 T01780106 10250 20172 51008=
201006240453 METAR KSEA 240453Z 00000KT 10SM FEW055 SCT250 19/10 A3006 RMK AO2 SLP182 T01890100=
201006240353 METAR KSEA 240353Z 28006KT 10SM FEW060 SCT120 SCT250 21/11 A3004 RMK AO2 SLP178 T02060106=
201006240253 METAR KSEA 240253Z 35006KT 10SM FEW120 SCT250 23/10 A3004 RMK AO2 SLP175 T02330100 56004=
201006240153 METAR KSEA 240153Z 31004KT 10SM FEW040 SCT150 SCT250 24/11 A3004 RMK AO2 SLP176 T02440106=
201006240053 METAR KSEA 240053Z 30007KT 10SM FEW040 SCT150 SCT250 23/11 A3004 RMK AO2 SLP176 T02330106=
201006232353 METAR KSEA 232353Z 30007KT 10SM FEW040 SCT150 SCT250 24/11 A3005 RMK AO2 SLP179 T02390106 10250 20183 58008=
201006232253 METAR KSEA 232253Z 30004KT 10SM FEW040 SCT150 BKN250 23/11 A3006 RMK AO2 SLP183 T02330106=
201006232153 METAR KSEA 232153Z 29004KT 10SM FEW040 SCT150 BKN200 22/12 A3006 RMK AO2 SLP185 T02170122=
201006232053 METAR KSEA 232053Z 29005KT 10SM FEW040 SCT150 BKN200 22/12 A3007 RMK AO2 SLP187 T02170117 58007=
201006231953 METAR KSEA 231953Z 32004KT 10SM FEW090 SCT160 BKN250 22/12 A3008 RMK AO2 SLP191 T02170122=
201006231853 METAR KSEA 231853Z 30006KT 10SM SCT160 BKN250 20/12 A3009 RMK AO2 SLP193 T02000117=
201006231753 METAR KSEA 231753Z 25006KT 10SM BKN160 BKN250 19/12 A3009 RMK AO2 SLP194 T01940117 10194 20139 50001=
201006231653 METAR KSEA 231653Z 27004KT 10SM BKN160 BKN250 18/11 A3010 RMK AO2 SLP196 T01780106=
201006231553 METAR KSEA 231553Z 31003KT 10SM SCT160 BKN250 16/11 A3010 RMK AO2 SLP198 T01610111=
201006231453 METAR KSEA 231453Z 00000KT 10SM BKN160 BKN220 15/11 A3009 RMK AO2 SLP193 T01500111 53003=
201006231353 METAR KSEA 231353Z 34004KT 10SM BKN160 BKN220 14/11 A3008 RMK AO2 SLP192 T01440111=
201006231253 METAR KSEA 231253Z 34003KT 10SM OVC200 14/11 A3008 RMK AO2 SLP191 T01390106=
201006231153 METAR KSEA 231153Z 35004KT 10SM OVC200 14/10 A3008 RMK AO2 SLP190 T01390100 10178 20139 56003=
201006231053 METAR KSEA 231053Z 35004KT 10SM BKN200 14/10 A3008 RMK AO2 SLP191 T01440100=
201006230953 METAR KSEA 230953Z 02006KT 10SM BKN200 16/09 A3009 RMK AO2 SLP192 T01560094=
201006230853 METAR KSEA 230853Z 36005KT 10SM BKN200 15/10 A3009 RMK AO2 SLP193 T01500100 56005=
201006230753 METAR KSEA 230753Z 01009KT 10SM OVC200 17/10 A3009 RMK AO2 SLP195 T01670100 402330100=
201006230653 METAR KSEA 230653Z 01010KT 10SM BKN200 17/10 A3010 RMK AO2 SLP195 T01670100=
201006230553 METAR KSEA 230553Z 02012KT 10SM BKN200 18/09 A3011 RMK AO2 SLP199 T01780094 10233 20172 58002=
201006230453 METAR KSEA 230453Z 36008KT 10SM BKN250 17/09 A3011 RMK AO2 SLP203 T01720089=
201006230353 METAR KSEA 230353Z 35006KT 10SM FEW200 BKN250 18/10 A3011 RMK AO2 SLP202 T01780100=
201006230253 METAR KSEA 230253Z 33007KT 10SM FEW200 BKN250 20/09 A3011 RMK AO2 SLP202 T02000094 56007=
201006230153 METAR KSEA 230153Z 35008KT 10SM FEW040 BKN250 22/09 A3012 RMK AO2 SLP203 T02170094=
201006230053 METAR KSEA 230053Z 35011KT 10SM FEW040 BKN250 23/08 A3012 RMK AO2 SLP206 T02280083=
201006222353 METAR KSEA 222353Z 35009KT 300V020 10SM FEW035 BKN250 23/10 A3013 RMK AO2 SLP209 T02280100 10228 20167 56009=
201006222253 METAR KSEA 222253Z 28008KT 10SM FEW035 BKN250 21/10 A3014 RMK AO2 SLP212 T02110100=
201006222153 METAR KSEA 222153Z 31008KT 10SM FEW035 BKN250 21/11 A3015 RMK AO2 SLP213 T02110111=
201006222053 METAR KSEA 222053Z 31008KT 10SM SCT032 SCT250 21/11 A3016 RMK AO2 SLP218 T02060111 58008=
201006221953 METAR KSEA 221953Z 00000KT 10SM SCT028 SCT250 19/11 A3017 RMK AO2 SLP223 T01890111=
201006221853 METAR KSEA 221853Z 28005KT 10SM SCT027 BKN250 18/11 A3018 RMK AO2 SLP224 T01830111=
201006221753 METAR KSEA 221753Z 00000KT 10SM BKN021 BKN200 17/12 A3018 RMK AO2 SLP226 T01720117 10172 20100 58001=
201006221724 SPECI KSEA 221724Z 29004KT 10SM BKN017 BKN200 16/12 A3018 RMK AO2=
201006221724 SPECI KSEA 221724Z 29004KT 10SM BKN017 BKN200 16/12 A3018 RMK AO2=
201006221653 METAR KSEA 221653Z 28005KT 10SM SCT016 SCT200 16/12 A3019 RMK AO2 SLP227 T01560117=
201006221553 METAR KSEA 221553Z 15003KT 10SM FEW007 SCT200 14/11 A3019 RMK AO2 SLP228 FG BANK S-W T01440111=
201006221453 METAR KSEA 221453Z 00000KT 6SM BCFG FEW003 BKN200 13/11 A3019 RMK AO2 SLP227 VIS SE-SW 3 T01280106 53006=
201006221353 METAR KSEA 221353Z 00000KT 10SM FEW003 SCT060 12/10 A3018 RMK AO2 SLP225 T01170100=
201006221253 METAR KSEA 221253Z 15004KT 10SM SCT065 11/09 A3017 RMK AO2 SLP223 T01060089=
201006221153 METAR KSEA 221153Z 00000KT 10SM FEW004 SCT060 10/09 A3017 RMK AO2 SLP222 T01000089 10150 20100 58002=
201006221053 METAR KSEA 221053Z 14004KT 10SM CLR 11/09 A3017 RMK AO2 SLP223 T01110094=
201006220953 METAR KSEA 220953Z 00000KT 10SM FEW065 12/09 A3017 RMK AO2 SLP224 T01170094=
201006220853 METAR KSEA 220853Z 16003KT 10SM CLR 13/10 A3017 RMK AO2 SLP223 T01280100 55005=
201006220753 METAR KSEA 220753Z 00000KT 10SM CLR 13/10 A3017 RMK AO2 SLP224 T01330100 401720106=
201006220653 METAR KSEA 220653Z 00000KT 10SM CLR 13/10 A3018 RMK AO2 SLP226 T01330100=
201006220553 METAR KSEA 220553Z 00000KT 10SM SCT055 15/11 A3019 RMK AO2 SLP230 T01500106 10172 20144 53001=
201006220453 METAR KSEA 220453Z 00000KT 10SM BKN060 16/10 A3019 RMK AO2 SLP229 T01560100=
201006220353 METAR KSEA 220353Z 00000KT 10SM BKN055 16/10 A3018 RMK AO2 SLP227 T01560100=
201006220253 METAR KSEA 220253Z 24003KT 10SM OVC055 17/09 A3019 RMK AO2 SLP229 T01670094 58003=
201006220153 METAR KSEA 220153Z 00000KT 10SM FEW025 BKN048 17/09 A3019 RMK AO2 SLP229 T01670094=
201006220053 METAR KSEA 220053Z 23003KT 10SM FEW025 BKN038 17/09 A3020 RMK AO2 SLP232 T01670094=
201006212353 METAR KSEA 212353Z 20003KT 10SM FEW025 BKN043 BKN090 17/09 A3020 RMK AO2 SLP232 T01670094 10172 20128 58003=
201006212309 SPECI KSEA 212309Z VRB06KT 10SM SCT025 BKN043 17/09 A3020 RMK AO2=
201006212309 SPECI KSEA 212309Z VRB06KT 10SM SCT025 BKN043 17/09 A3020 RMK AO2=
201006212253 METAR KSEA 212253Z 00000KT 10SM BKN025 BKN043 16/09 A3020 RMK AO2 SLP234 T01610089=
201006212153 METAR KSEA 212153Z 22007KT 10SM BKN021 BKN027 16/09 A3021 RMK AO2 SLP235 T01560094=
201006212053 METAR KSEA 212053Z 20006KT 10SM FEW018 BKN026 16/09 A3021 RMK AO2 SLP235 T01560094 50000=
201006211953 METAR KSEA 211953Z 26007KT 10SM SCT018 BKN024 14/09 A3021 RMK AO2 SLP237 T01440094=
201006211853 METAR KSEA 211853Z 26005KT 10SM BKN020 BKN039 13/09 A3021 RMK AO2 SLP236 T01330089=
201006211753 METAR KSEA 211753Z 23006KT 10SM BKN018 BKN035 13/08 A3021 RMK AO2 SLP235 T01280083 10133 20106 53001=
201006211713 SPECI KSEA 211713Z 19005KT 10SM BKN015 BKN024 13/09 A3021 RMK AO2=
201006211713 SPECI KSEA 211713Z 19005KT 10SM BKN015 BKN024 13/09 A3021 RMK AO2=
201006211700 METAR KSEA NIL=
201006211653 METAR KSEA 211653Z 18006KT 10SM BKN013 OVC020 12/09 A3020 RMK AO2 SLP234 T01220089=
201006211615 SPECI KSEA 211615Z 18008KT 10SM BKN012 OVC020 12/08 A3020 RMK AO2=
201006211615 SPECI KSEA 211615Z 18008KT 10SM BKN012 OVC020 12/08 A3020 RMK AO2=
201006211553 METAR KSEA 211553Z 19007KT 10SM FEW012 OVC015 12/08 A3020 RMK AO2 SLP233 T01170083=
201006211453 METAR KSEA 211453Z 16006KT 10SM FEW011 OVC015 11/08 A3020 RMK AO2 SLP234 T01110083 53004=
201006211424 SPECI KSEA 211424Z 17005KT 10SM BKN015 OVC040 11/08 A3020 RMK AO2=
201006211424 SPECI KSEA 211424Z 17005KT 10SM BKN015 OVC040 11/08 A3020 RMK AO2=
201006211353 METAR KSEA 211353Z 18006KT 10SM BKN011 OVC080 11/08 A3019 RMK AO2 SLP230 T01060083=
201006211253 METAR KSEA 211253Z 17006KT 10SM OVC010 11/08 A3019 RMK AO2 SLP231 T01060083=
201006211153 METAR KSEA 211153Z 19005KT 10SM BKN014 OVC023 11/08 A3019 RMK AO2 SLP229 70021 T01060083 10117 20106 53003=
201006211053 METAR KSEA 211053Z 20007KT 10SM FEW012 BKN023 OVC030 11/09 A3019 RMK AO2 SLP229 T01060089=
201006211020 SPECI KSEA 211020Z 19008KT 10SM FEW012 OVC023 11/09 A3019 RMK AO2=
201006211020 SPECI KSEA 211020Z 19008KT 10SM FEW012 OVC023 11/09 A3019 RMK AO2=
201006210953 METAR KSEA 210953Z 20006KT 10SM FEW008 OVC012 11/09 A3018 RMK AO2 SLP227 T01110089=
201006210853 METAR KSEA 210853Z 21007KT 10SM FEW008 BKN012 OVC020 11/09 A3018 RMK AO2 SLP227 T01110089 56003=
201006210806 SPECI KSEA 210806Z 19010KT 10SM FEW008 OVC013 11/09 A3018 RMK AO2=
201006210806 SPECI KSEA 210806Z 19010KT 10SM FEW008 OVC013 11/09 A3018 RMK AO2=
201006210753 METAR KSEA 210753Z 20009KT 10SM FEW008 OVC015 11/09 A3018 RMK AO2 SLP227 T01110094 401330111=
201006210653 METAR KSEA 210653Z 21007KT 10SM OVC013 12/09 A3019 RMK AO2 SLP229 T01170094=
201006210553 METAR KSEA 210553Z 20007KT 10SM OVC013 12/10 A3019 RMK AO2 SLP230 60000 T01170100 10133 20117 50004=
201006210453 METAR KSEA 210453Z 20006KT 10SM OVC015 12/10 A3019 RMK AO2 SLP230 T01220100=
201006210353 METAR KSEA 210353Z 21007KT 10SM OVC017 12/11 A3018 RMK AO2 SLP226 T01220106=
201006210253 METAR KSEA 210253Z 21005KT 10SM OVC015 13/11 A3018 RMK AO2 SLP226 60000 T01280106 56001=
201006210153 METAR KSEA 210153Z 18005KT 10SM SCT011 OVC019 13/11 A3018 RMK AO2 SLP226 T01280111=
201006210053 METAR KSEA 210053Z 17005KT 10SM FEW010 BKN015 OVC021 13/11 A3018 RMK AO2 RAE11 SLP226 P0000 T01280111=
201006210007 SPECI KSEA 210007Z 16005KT 7SM -RA FEW007 BKN024 OVC030 13/12 A3018 RMK AO2 P0000=
201006210007 SPECI KSEA 210007Z 16005KT 7SM -RA FEW007 BKN024 OVC030 13/12 A3018 RMK AO2 P0000=
201006202353 METAR KSEA 202353Z 16005KT 3SM -RA BR FEW007 BKN011 OVC020 13/12 A3018 RMK AO2 SLP227 P0002 60019 T01280117 10128 20117 58002=
201006202253 METAR KSEA 202253Z 16006KT 3SM -RA BR SCT005 OVC018 12/11 A3019 RMK AO2 RAB19 SLP229 P0001 T01220111=
201006202153 METAR KSEA 202153Z 17005KT 10SM BKN008 OVC015 12/11 A3019 RMK AO2 RAE2059B29E47 SLP229 P0000 T01220111=
201006202058 SPECI KSEA 202058Z 17004KT 10SM -RA BKN008 OVC020 12/11 A3019 RMK AO2 P0000=
201006202058 SPECI KSEA 202058Z 17004KT 10SM -RA BKN008 OVC020 12/11 A3019 RMK AO2 P0000=
201006202055 SPECI KSEA 202055Z 17005KT 10SM -RA FEW010 SCT022 OVC034 12/11 A3019 RMK AO2 P0000=
201006202055 SPECI KSEA 202055Z 17005KT 10SM -RA FEW010 SCT022 OVC034 12/11 A3019 RMK AO2 P0000=
201006202053 METAR KSEA 202053Z 17005KT 10SM -RA BKN008 OVC020 12/11 A3019 RMK AO2 SLP229 P0005 60016 T01220111 53003=
201006201953 METAR KSEA 201953Z 17006KT 4SM -RA BR BKN008 OVC015 12/11 A3018 RMK AO2 SLP228 P0010 T01170111=
201006201853 METAR KSEA 201853Z 19006KT 8SM -RA BKN008 OVC015 12/11 A3018 RMK AO2 RAE07B27 SLP227 P0001 T01220106=
201006201753 METAR KSEA 201753Z 18005KT 10SM -RA BKN008 OVC015 12/10 A3018 RMK AO2 SLP226 P0002 60002 T01170100 10122 20111 51005=
201006201653 METAR KSEA 201653Z 18006KT 10SM -RA BKN008 OVC015 12/10 A3018 RMK AO2 RAB32 SLP225 P0000 T01220100=
201006201553 METAR KSEA 201553Z 17005KT 10SM BKN008 OVC010 12/09 A3017 RMK AO2 SLP224 T01170094=
201006201514 SPECI KSEA 201514Z 17006KT 10SM BKN008 OVC010 12/09 A3017 RMK AO2=
201006201514 SPECI KSEA 201514Z 17006KT 10SM BKN008 OVC010 12/09 A3017 RMK AO2=
201006201453 METAR KSEA 201453Z 19008KT 10SM FEW008 OVC010 12/09 A3016 RMK AO2 SLP221 T01170094 53002=
201006201353 METAR KSEA 201353Z 20007KT 10SM FEW008 OVC010 12/09 A3016 RMK AO2 SLP220 T01170089=
201006201253 METAR KSEA 201253Z 19007KT 10SM FEW008 BKN010 OVC015 12/09 A3016 RMK AO2 SLP219 T01170094=
201006201153 METAR KSEA 201153Z 20005KT 10SM FEW008 BKN010 OVC015 12/09 A3016 RMK AO2 SLP219 70006 T01170094 10128 20111 51001=
201006201053 METAR KSEA 201053Z 21008KT 10SM OVC008 12/09 A3016 RMK AO2 SLP219 T01170094=
201006200953 METAR KSEA 200953Z 19006KT 10SM BKN008 OVC012 12/10 A3015 RMK AO2 CIG 005V010 SLP218 T01170100=
201006200853 METAR KSEA 200853Z 22007KT 10SM OVC006 12/10 A3014 RMK AO2 SLP214 T01170100 58004=
201006200753 METAR KSEA 200753Z 19007KT 10SM BKN008 OVC010 12/11 A3015 RMK AO2 SLP215 T01220106 401390117=
201006200653 METAR KSEA 200653Z 18006KT 10SM BKN008 OVC012 13/11 A3015 RMK AO2 SLP218 T01280106=
201006200553 METAR KSEA 200553Z 17006KT 10SM FEW006 OVC012 13/11 A3015 RMK AO2 SLP217 60000 T01280111 10133 20128 50002=
201006200453 METAR KSEA 200453Z 17005KT 10SM OVC012 13/11 A3016 RMK AO2 SLP220 T01280111=
201006200353 METAR KSEA 200353Z 19005KT 10SM OVC012 13/11 A3015 RMK AO2 RAB20E32 SLP216 P0000 T01280106=
201006200253 METAR KSEA 200253Z 20006KT 10SM OVC010 13/11 A3015 RMK AO2 SLP215 T01280106 51004=
201006200153 METAR KSEA 200153Z 18008KT 10SM BKN012 OVC045 13/11 A3014 RMK AO2 SLP214 T01330111=
201006200053 METAR KSEA 200053Z 20008KT 10SM BKN010 OVC040 13/11 A3014 RMK AO2 SLP214 T01280111=
201006200043 SPECI KSEA 200043Z 19007KT 170V230 10SM SCT008 BKN012 OVC040 13/11 A3015 RMK AO2=
201006200043 SPECI KSEA 200043Z 19007KT 170V230 10SM SCT008 BKN012 OVC040 13/11 A3015 RMK AO2=
201006192353 METAR KSEA 192353Z 21007KT 10SM BKN006 BKN020 OVC050 13/12 A3014 RMK AO2 RAE11 SLP212 P0001 60002 T01330117 10133 20117 51002=
201006192307 SPECI KSEA 192307Z 20009KT 10SM -RA BKN006 OVC015 13/12 A3014 RMK AO2 CIG 005V010 P0001=
201006192307 SPECI KSEA 192307Z 20009KT 10SM -RA BKN006 OVC015 13/12 A3014 RMK AO2 CIG 005V010 P0001=
201006192253 METAR KSEA 192253Z 20007KT 10SM -RA FEW008 BKN015 OVC022 13/12 A3014 RMK AO2 RAB2158E19B52 SLP212 P0000 T01280117=
201006192236 SPECI KSEA 192236Z 20006KT 10SM FEW005 BKN012 OVC022 13/12 A3014 RMK AO2 RAB2158E19 P0000=
201006192236 SPECI KSEA 192236Z 20006KT 10SM FEW005 BKN012 OVC022 13/12 A3014 RMK AO2 RAB2158E19 P0000=
201006192153 METAR KSEA 192153Z 20008KT 10SM BKN006 OVC011 13/11 A3014 RMK AO2 RAB13E26 SLP212 P0000 T01280111=
201006192053 METAR KSEA 192053Z 22006KT 10SM OVC008 13/11 A3013 RMK AO2 CIG 006V010 SLP210 60001 T01280111 50003=
201006191953 METAR KSEA 191953Z 22005KT 10SM OVC008 12/11 A3013 RMK AO2 CIG 006V010 SLP210 T01220106=
201006191853 METAR KSEA 191853Z 20007KT 10SM BKN006 OVC010 12/11 A3013 RMK AO2 RAE27 SLP211 P0001 T01220111=
201006191753 METAR KSEA 191753Z 18007KT 10SM -RA BKN006 OVC010 12/11 A3012 RMK AO2 RAB02E17B50 SLP207 P0001 60004 T01170106 10122 20117 53009=
201006191653 METAR KSEA 191653Z 20007KT 10SM OVC006 12/11 A3011 RMK AO2 CIG 005V009 SLP202 T01170106=
201006191553 METAR KSEA 191553Z 20007KT 5SM BR BKN006 OVC010 12/11 A3010 RMK AO2 RAE03B24E52 CIG 004V009 SLP199 P0003 T01170106=
201006191453 METAR KSEA 191453Z 20004KT 10SM -RA OVC006 12/11 A3010 RMK AO2 RAB25 SLP197 P0000 60000 T01170106 53014=
201006191353 METAR KSEA 191353Z 22006KT 10SM OVC006 12/10 A3008 RMK AO2 SLP192 T01170100=
201006191253 METAR KSEA 191253Z 21007KT 10SM OVC006 12/10 A3007 RMK AO2 SLP187 T01170100=
201006191153 METAR KSEA 191153Z 22007KT 10SM OVC004 12/10 A3005 RMK AO2 SLP182 T01170100 10161 20117 53005=
201006191053 METAR KSEA 191053Z 21006KT 10SM BKN004 OVC012 12/10 A3005 RMK AO2 SLP180 T01170100=
201006191041 SPECI KSEA 191041Z 22006KT 10SM BKN004 BKN008 OVC120 12/10 A3005 RMK AO2=
201006191041 SPECI KSEA 191041Z 22006KT 10SM BKN004 BKN008 OVC120 12/10 A3005 RMK AO2=
201006191031 SPECI KSEA 191031Z 22006KT 10SM FEW006 BKN055 OVC120 12/10 A3005 RMK AO2=
201006191031 SPECI KSEA 191031Z 22006KT 10SM FEW006 BKN055 OVC120 12/10 A3005 RMK AO2=
201006190953 METAR KSEA 190953Z 20007KT 10SM BKN055 BKN085 OVC120 12/10 A3004 RMK AO2 SLP178 T01220100=
201006190853 METAR KSEA 190853Z 20006KT 10SM OVC055 13/09 A3004 RMK AO2 SLP178 T01330094 51012=
201006190753 METAR KSEA 190753Z 24004KT 10SM SCT040 BKN050 14/09 A3004 RMK AO2 SLP176 T01440089 402060111=
201006190653 METAR KSEA 190653Z 28004KT 10SM SCT040 BKN050 15/08 A3003 RMK AO2 SLP173 T01500083=
201006190553 METAR KSEA 190553Z 32003KT 10SM SCT048 BKN055 16/08 A3001 RMK AO2 SLP166 T01610078 10206 20161 53006=
201006190453 METAR KSEA 190453Z 35003KT 10SM BKN049 17/07 A3000 RMK AO2 SLP163 T01670072=
201006190353 METAR KSEA 190353Z 35007KT 10SM BKN045 17/07 A2999 RMK AO2 SLP162 T01670072=
201006190253 METAR KSEA 190253Z 33007KT 10SM BKN047 BKN110 17/08 A2999 RMK AO2 SLP160 T01720078 56002=
201006190153 METAR KSEA 190153Z 36008KT 10SM BKN047 BKN110 18/08 A2999 RMK AO2 SLP160 T01830083=
201006190053 METAR KSEA 190053Z 30006KT 10SM BKN045 BKN110 19/07 A2999 RMK AO2 SLP159 T01890072=
201006182353 METAR KSEA 182353Z 29006KT 10SM FEW050 SCT120 21/08 A2999 RMK AO2 SLP162 T02060083 10206 20156 56009=
201006182253 METAR KSEA 182253Z VRB06KT 10SM FEW050 SCT120 19/09 A3000 RMK AO2 SLP164 T01940089=
201006182153 METAR KSEA 182153Z 34006G14KT 10SM FEW040 SCT120 SCT250 19/09 A3001 RMK AO2 SLP167 T01890089=
201006182053 METAR KSEA 182053Z 31011G17KT 10SM FEW035 SCT120 18/08 A3002 RMK AO2 SLP171 T01830083 58013=
201006181953 METAR KSEA 181953Z 32008KT 10SM FEW028 BKN120 BKN250 18/09 A3004 RMK AO2 SLP176 T01780094=
201006181853 METAR KSEA 181853Z 36005KT 10SM SCT027 BKN100 BKN250 16/09 A3005 RMK AO2 SLP181 T01610089=
201006181753 METAR KSEA 181753Z 01008KT 10SM BKN027 BKN050 BKN250 16/08 A3006 RMK AO2 SLP185 T01560083 10161 20117 58011=
201006181748 SPECI KSEA 181748Z 02009KT 10SM BKN027 BKN050 BKN250 16/08 A3006 RMK AO2=
201006181748 SPECI KSEA 181748Z 02009KT 10SM BKN027 BKN050 BKN250 16/08 A3006 RMK AO2=
201006181653 METAR KSEA 181653Z 36006KT 10SM SCT017 SCT045 BKN250 15/09 A3008 RMK AO2 SLP191 T01500089=
201006181621 SPECI KSEA 181621Z 35006KT 10SM SCT015 SCT050 BKN250 14/08 A3008 RMK AO2=
201006181621 SPECI KSEA 181621Z 35006KT 10SM SCT015 SCT050 BKN250 14/08 A3008 RMK AO2=
201006181553 METAR KSEA 181553Z 01007KT 10SM BKN015 BKN050 BKN250 14/09 A3008 RMK AO2 SLP192 T01440089=
201006181453 METAR KSEA 181453Z 02008KT 10SM SCT015 BKN024 BKN050 12/08 A3009 RMK AO2 SLP196 T01220083 56004=
201006181422 SPECI KSEA 181422Z 03008KT 10SM BKN014 BKN023 BKN050 12/08 A3009 RMK AO2=
201006181422 SPECI KSEA 181422Z 03008KT 10SM BKN014 BKN023 BKN050 12/08 A3009 RMK AO2=
201006181353 METAR KSEA 181353Z 03010KT 10SM FEW015 BKN037 BKN050 12/08 A3010 RMK AO2 SLP197 T01220083=
201006181310 SPECI KSEA 181310Z 02008KT 10SM FEW013 OVC050 12/09 A3010 RMK AO2=
201006181310 SPECI KSEA 181310Z 02008KT 10SM FEW013 OVC050 12/09 A3010 RMK AO2=
201006181253 METAR KSEA 181253Z 01008KT 10SM BKN017 OVC050 12/08 A3010 RMK AO2 SLP198 T01170083=
201006181229 SPECI KSEA 181229Z 01007KT 10SM BKN015 BKN047 OVC055 12/08 A3010 RMK AO2=
201006181229 SPECI KSEA 181229Z 01007KT 10SM BKN015 BKN047 OVC055 12/08 A3010 RMK AO2=
201006181153 METAR KSEA 181153Z 01007KT 10SM OVC013 12/09 A3010 RMK AO2 SLP201 T01170089 10117 20111 56004=
201006181109 SPECI KSEA 181109Z 33005KT 10SM BKN011 OVC055 11/09 A3010 RMK AO2=
201006181109 SPECI KSEA 181109Z 33005KT 10SM BKN011 OVC055 11/09 A3010 RMK AO2=
201006181053 METAR KSEA 181053Z 00000KT 10SM FEW011 OVC055 11/09 A3011 RMK AO2 SLP201 T01110094=
201006180953 METAR KSEA 180953Z 29003KT 10SM OVC055 11/09 A3011 RMK AO2 SLP203 T01110094=
201006180853 METAR KSEA 180853Z 00000KT 10SM OVC055 12/09 A3012 RMK AO2 SLP205 T01170094 56011=
201006180753 METAR KSEA 180753Z 00000KT 10SM OVC060 12/09 A3013 RMK AO2 SLP208 T01170094 401670106=
201006180653 METAR KSEA 180653Z 32005KT 10SM FEW035 OVC060 12/09 A3014 RMK AO2 SLP212 T01170094=
201006180553 METAR KSEA 180553Z 31007KT 10SM OVC060 12/09 A3015 RMK AO2 SLP216 T01170094 10167 20117 58002=
201006180453 METAR KSEA 180453Z 28003KT 10SM OVC055 13/09 A3016 RMK AO2 SLP218 T01280089=
201006180353 METAR KSEA 180353Z 22004KT 10SM OVC055 14/08 A3015 RMK AO2 SLP217 T01390078=
201006180253 METAR KSEA 180253Z 22005KT 10SM OVC050 14/07 A3016 RMK AO2 SLP218 T01440072 56004=
201006180153 METAR KSEA 180153Z 22006KT 10SM OVC049 15/08 A3016 RMK AO2 SLP219 T01500078=
201006180053 METAR KSEA 180053Z 21008KT 10SM OVC049 16/07 A3016 RMK AO2 SLP221 T01560072=
201006172353 METAR KSEA 172353Z 21007KT 10SM BKN047 OVC070 16/07 A3017 RMK AO2 SLP222 T01610072 10167 20128 55003=
201006172253 METAR KSEA 172253Z 18010KT 10SM BKN048 OVC070 16/07 A3017 RMK AO2 SLP221 T01610072=
201006172153 METAR KSEA 172153Z 23009KT 10SM FEW030 BKN042 BKN070 17/08 A3017 RMK AO2 SLP222 T01670078=
201006172053 METAR KSEA 172053Z 22006KT 10SM FEW025 OVC034 14/08 A3018 RMK AO2 SLP225 T01390078 51005=
201006171953 METAR KSEA 171953Z 24009KT 10SM FEW023 BKN039 BKN100 15/07 A3018 RMK AO2 SLP225 T01500072=
201006171853 METAR KSEA 171853Z 22008KT 10SM FEW025 OVC036 14/08 A3017 RMK AO2 SLP224 T01390078=
201006171753 METAR KSEA 171753Z 22008KT 10SM FEW025 OVC034 13/08 A3016 RMK AO2 SLP220 T01280078 10128 20106 52005=
201006171709 SPECI KSEA 171709Z 21009KT 10SM FEW020 BKN031 OVC070 12/08 A3016 RMK AO2=
201006171709 SPECI KSEA 171709Z 21009KT 10SM FEW020 BKN031 OVC070 12/08 A3016 RMK AO2=
201006171653 METAR KSEA 171653Z 20007KT 10SM FEW018 BKN029 OVC070 12/08 A3016 RMK AO2 SLP218 T01220083=
201006171553 METAR KSEA 171553Z 18010KT 10SM FEW016 BKN023 BKN070 12/08 A3015 RMK AO2 SLP217 T01220083=
201006171531 SPECI KSEA 171531Z 17007KT 10SM BKN023 BKN032 BKN070 12/08 A3016 RMK AO2=
201006171531 SPECI KSEA 171531Z 17007KT 10SM BKN023 BKN032 BKN070 12/08 A3016 RMK AO2=
201006171453 METAR KSEA 171453Z 19011KT 10SM FEW020 BKN031 BKN060 12/08 A3015 RMK AO2 SLP215 T01170078 51007=
201006171353 METAR KSEA 171353Z 19009KT 10SM FEW015 BKN030 OVC060 11/08 A3015 RMK AO2 SLP215 T01110078=
201006171253 METAR KSEA 171253Z 18009KT 10SM OVC036 11/08 A3014 RMK AO2 SLP212 T01110078=
201006171153 METAR KSEA 171153Z 18008KT 10SM OVC036 11/07 A3013 RMK AO2 SLP208 70004 T01060072 10122 20106 51004=
201006171053 METAR KSEA 171053Z 18008KT 10SM FEW036 OVC070 11/07 A3012 RMK AO2 SLP207 T01060072=
201006170953 METAR KSEA 170953Z 17007KT 10SM BKN060 OVC080 11/07 A3012 RMK AO2 SLP207 T01060072=
201006170853 METAR KSEA 170853Z 17009KT 10SM OVC060 11/08 A3011 RMK AO2 SLP204 T01060078 53002=
201006170753 METAR KSEA 170753Z 16007KT 10SM BKN080 11/07 A3011 RMK AO2 SLP202 T01060072 401560089=
201006170653 METAR KSEA 170653Z 22011KT 10SM BKN070 12/07 A3010 RMK AO2 SLP199 T01170072=
201006170553 METAR KSEA 170553Z 21008KT 10SM SCT032 BKN060 12/08 A3011 RMK AO2 SLP202 T01220078 10156 20122 53009=
201006170453 METAR KSEA 170453Z 21008KT 10SM SCT026 BKN060 12/08 A3010 RMK AO2 SLP199 T01220078=
201006170353 METAR KSEA 170353Z 21008KT 10SM FEW030 SCT060 BKN150 13/08 A3009=
201006170253 METAR KSEA 170253Z 21006KT 10SM SCT030 SCT060 14/08 A3008 RMK AO2 SLP192 T01440083 55003=
201006170153 METAR KSEA 170153Z 19007KT 10SM SCT036 BKN060 14/09 A3008 RMK AO2 SLP192 T01440094=
201006170053 METAR KSEA 170053Z 16009KT 10SM FEW024 BKN036 BKN050 15/09 A3008 RMK AO2 SLP193 T01500094=
201006162353 METAR KSEA 162353Z 13007KT 10SM BKN047 BKN055 16/08 A3009 RMK AO2 SLP195 T01560083 10156 20100 50001=
201006162253 METAR KSEA 162253Z 17005KT 10SM FEW024 BKN032 BKN039 14/08 A3009=
201006162153 METAR KSEA 162153Z 26003KT 10SM FEW020 BKN033 OVC047 13/08 A3009 RMK AO2 SLP194 T01280083=
201006162142 SPECI KSEA 162142Z 22003KT 10SM FEW020 OVC034 12/08 A3009 RMK AO2=
201006162142 SPECI KSEA 162142Z 22003KT 10SM FEW020 OVC034 12/08 A3009 RMK AO2=
201006162053 METAR KSEA 162053Z 25005KT 10SM SCT011 BKN017 OVC036 12/08 A3009 RMK AO2 SLP194 T01220078 51004=
201006162034 SPECI KSEA 162034Z VRB04KT 10SM SCT010 BKN018 OVC035 13/09 A3009 RMK AO2=
201006162034 SPECI KSEA 162034Z VRB04KT 10SM SCT010 BKN018 OVC035 13/09 A3009 RMK AO2=
201006161953 METAR KSEA 161953Z 00000KT 10SM BKN008 OVC014 12/09 A3009 RMK AO2 SLP196 T01170089=
201006161853 METAR KSEA 161853Z 00000KT 10SM BKN008 OVC012 11/09 A3009 RMK AO2 SLP195 T01110089=
201006161753 METAR KSEA 161753Z 19004KT 10SM BKN007 OVC014 10/08 A3008 RMK AO2 RAB04E24 SLP192 P0000 60004 T01000083 10100 20089 51003=
201006161653 METAR KSEA 161653Z 19003KT 7SM BKN007 OVC012 10/08 A3007 RMK AO2 RAE1557B31E40 SLP191 P0000 T01000083=
201006161553 METAR KSEA 161553Z 13004KT 3SM -RA BR OVC005 09/08 A3007 RMK AO2 SFC VIS 5 RAB31 SLP190 P0001 T00940083=
201006161453 METAR KSEA 161453Z 14006KT 10SM OVC008 09/08 A3007 RMK AO2 RAB1358E26 SLP189 P0001 60003 T00890078 53001=
201006161420 SPECI KSEA 161420Z 14006KT 9SM -RA BKN008 OVC011 09/08 A3007 RMK AO2 RAB1358 P0001=
201006161420 SPECI KSEA 161420Z 14006KT 9SM -RA BKN008 OVC011 09/08 A3007 RMK AO2 RAB1358 P0001=
201006161353 METAR KSEA 161353Z 13006KT 10SM OVC010 09/08 A3007 RMK AO2 RAE38 SLP187 P0002 T00890078=
201006161253 METAR KSEA 161253Z 15007KT 10SM -RA OVC012 09/08 A3006 RMK AO2 RAB1159E19B47 SLP186 P0000 T00890078=
201006161153 METAR KSEA 161153Z 15008KT 10SM BKN012 OVC018 09/08 A3006 RMK AO2 RAE37 SLP186 P0000 60027 7//// T00940078 10100 20089 58001=
201006161139 SPECI KSEA 161139Z 15008KT 10SM FEW005 BKN015 OVC039 09/08 A3007 RMK AO2 RAE37 P0000=
201006161139 SPECI KSEA 161139Z 15008KT 10SM FEW005 BKN015 OVC039 09/08 A3007 RMK AO2 RAE37 P0000=
201006161053 METAR KSEA 161053Z 15007KT 10SM -RA FEW007 BKN031 OVC050 09/08 A3007 RMK AO2 SLP188 P0003 T00940083=
201006160953 METAR KSEA 160953Z 15006KT 9SM -RA FEW005 SCT009 OVC025 09/08 A3007 RMK AO2 SLP190 P0006 T00940083=
201006160853 METAR KSEA 160853Z 14007KT 10SM -RA SCT007 BKN016 OVC050 09/09 A3007 RMK AO2 SLP187 P0006 60018 T00940089 58006=
201006160808 SPECI KSEA 160808Z 15006KT 10SM -RA SCT007 BKN016 OVC048 09/08 A3008 RMK AO2 P0001=
201006160808 SPECI KSEA 160808Z 15006KT 10SM -RA SCT007 BKN016 OVC048 09/08 A3008 RMK AO2 P0001=
201006160753 METAR KSEA 160753Z 16005KT 10SM -RA FEW007 SCT016 OVC048 09/08 A3008 RMK AO2 SLP192 P0003 T00940083 401610083=
201006160653 METAR KSEA 160653Z 18006KT 8SM RA OVC040 09/08 A3008 RMK AO2 SLP194 P0009 T00940083=
201006160553 METAR KSEA 160553Z 19006KT 9SM -RA BKN042 OVC050 10/08 A3008 RMK AO2 SLP194 P0002 6//// T01000083 10161 20100 53005=
201006160453 METAR KSEA 160453Z 20007KT 10SM -RA FEW048 BKN070 11/09 A3007 RMK AO2 SLP189 P0001 T01060089=
201006160353 METAR KSEA 160353Z 26006KT 10SM -RA BKN047 OVC060 11/07 A3007 RMK AO2 RAB31 SLP189 T01110067 PNO=
201006160253 METAR KSEA 160253Z 27007KT 10SM SCT060 SCT120 BKN200 12/06 A3007 RMK AO2 SLP189 6//// T01220061 56002 PNO=
201006160153 METAR KSEA 160153Z 25007KT 10SM SCT047 BKN060 BKN075 14/06 A3007 RMK AO2 SLP188 T01440056 PNO=
201006160053 METAR KSEA 160053Z 30007KT 270V340 10SM FEW047 SCT090 SCT200 16/04 A3007 RMK AO2 SLP188 T01610039 PNO=
201006152353 METAR KSEA 152353Z 30010KT 10SM FEW035 SCT080 SCT200 16/03 A3007 RMK AO2 SLP189 6//// T01560028 10161 20094 56006 PNO=
201006152253 METAR KSEA 152253Z VRB05KT 10SM SCT060 SCT085 BKN200 16/06 A3008 RMK AO2 RAB10E31 SLP191 SHRA SE T01560061 PNO=
201006152153 METAR KSEA 152153Z 27007KT 10SM BKN034 BKN060 BKN200 14/07 A3008=
201006152053 METAR KSEA 152053Z 00000KT 10SM FEW023 BKN032 BKN200 14/06 A3009 RMK AO2 SLP196 6//// T01390056 58008 PNO=
201006151953 METAR KSEA 151953Z 04007KT 10SM FEW020 SCT040 BKN200 13/07 A3010 RMK AO2 RAE14 SLP198 T01330067 PNO=
201006151853 METAR KSEA 151853Z 11004KT 10SM -RA FEW014 SCT026 BKN045 11/07 A3011 RMK AO2 SLP204 T01060072 PNO=
201006151842 SPECI KSEA 151842Z VRB05KT 10SM -RA FEW013 SCT024 BKN037 11/07 A3011 RMK AO2 PNO=
201006151842 SPECI KSEA 151842Z VRB05KT 10SM -RA FEW013 SCT024 BKN037 11/07 A3011 RMK AO2 PNO=
201006151753 METAR KSEA 151753Z 10005KT 6SM RA SCT012 BKN021 OVC039 09/07 A3011 RMK AO2 SLP205 P0000 6//// T00940067 10094 20083 58000 PNO=
201006151731 SPECI KSEA 151731Z 12004KT 5SM RA BR SCT011 BKN020 OVC038 09/07 A3011 RMK AO2 P0000 PNO $=
201006151731 SPECI KSEA 151731Z 12004KT 5SM RA BR SCT011 BKN020 OVC038 09/07 A3011 RMK AO2 P0000 PNO $=
201006151653 METAR KSEA 151653Z 06007KT 4SM RA BR BKN011 OVC017 09/07 A3012 RMK AO2 RAB1554 SLP205 P0003 T00940072=
201006151607 SPECI KSEA 151607Z 13005KT 9SM -RA BKN011 OVC019 09/07 A3012 RMK AO2 RAB1554 P0001=
201006151607 SPECI KSEA 151607Z 13005KT 9SM -RA BKN011 OVC019 09/07 A3012 RMK AO2 RAB1554 P0001=
201006151553 METAR KSEA 151553Z 12004KT 8SM FEW012 OVC016 09/06 A3012 RMK AO2 SLP205 T00940061=
201006151526 SPECI KSEA 151526Z 10005KT 10SM FEW011 OVC015 09/06 A3012 RMK AO2=
201006151526 SPECI KSEA 151526Z 10005KT 10SM FEW011 OVC015 09/06 A3012 RMK AO2=
201006151453 METAR KSEA 151453Z 11006KT 10SM FEW011 OVC014 09/07 A3012 RMK AO2 SLP204 T00890067 55003=
201006151353 METAR KSEA 151353Z 14004KT 10SM BKN013 OVC021 08/06 A3011 RMK AO2 SLP204 T00830061=
201006151320 SPECI KSEA 151320Z 18005KT 10SM FEW015 BKN027 OVC055 08/06 A3011 RMK AO2=
201006151320 SPECI KSEA 151320Z 18005KT 10SM FEW015 BKN027 OVC055 08/06 A3011 RMK AO2=
201006151253 METAR KSEA 151253Z 16006KT 10SM SCT032 OVC080 09/05 A3012 RMK AO2 SLP204 T00890050=
201006151153 METAR KSEA 151153Z 12004KT 10SM FEW030 OVC075 09/04 A3012 RMK AO2 SLP207 T00890044 10117 20089 58010=
201006151053 METAR KSEA 151053Z 14007KT 10SM SCT032 BKN070 09/04 A3014 RMK AO2 SLP211 T00890039=
201006150953 METAR KSEA 150953Z 13007KT 10SM OVC030 09/04 A3015 RMK AO2 SLP215 T00940039=
201006150853 METAR KSEA 150853Z VRB04KT 10SM BKN030 BKN035 OVC044 10/04 A3016 RMK AO2 SLP218 T01000039 58005=
201006150753 METAR KSEA 150753Z 00000KT 10SM FEW030 BKN038 10/05 A3016 RMK AO2 SLP220 T01000050 401830100=
201006150741 SPECI KSEA 150741Z 22003KT 10SM SCT030 BKN040 BKN075 10/04 A3016 RMK AO2=
201006150741 SPECI KSEA 150741Z 22003KT 10SM SCT030 BKN040 BKN075 10/04 A3016 RMK AO2=
201006150653 METAR KSEA 150653Z 21008KT 10SM BKN025 11/05 A3017 RMK AO2 SLP223 T01060050=
201006150628 SPECI KSEA 150628Z 21004KT 10SM OVC027 11/05 A3017 RMK AO2=
201006150628 SPECI KSEA 150628Z 21004KT 10SM OVC027 11/05 A3017 RMK AO2=
201006150553 METAR KSEA 150553Z 21005KT 10SM FEW025 OVC032 12/06 A3017 RMK AO2 SLP223 T01170056 10178 20117 51009=
201006150453 METAR KSEA 150453Z 28005KT 10SM FEW021 SCT036 BKN045 13/06 A3017 RMK AO2 SLP222 T01280056=
201006150353 METAR KSEA 150353Z 29005KT 10SM SCT045 BKN055 13/08 A3015 RMK AO2 SLP216 T01330078=
201006150253 METAR KSEA 150253Z 28004KT 10SM FEW050 BKN080 14/07 A3014 RMK AO2 SLP214 T01440072 56016=
201006150153 METAR KSEA 150153Z 23004KT 10SM SCT055 BKN075 16/07 A3015 RMK AO2 SLP216 T01610067=
201006150053 METAR KSEA 150053Z 27007KT 10SM BKN055 BKN200 18/07 A3017 RMK AO2 SLP223 T01780067=
201006142353 METAR KSEA 142353Z 00000KT 10SM FEW043 BKN060 BKN200 17/05 A3019 RMK AO2 SLP230 T01670050 10183 20128 56016=
201006142253 METAR KSEA 142253Z 27006KT 10SM FEW044 BKN065 BKN200 18/06 A3021 RMK AO2 SLP235 T01780056=
201006142153 METAR KSEA 142153Z VRB05KT 10SM FEW035 BKN044 BKN200 18/06 A3022 RMK AO2 SLP238 T01780056=
201006142053 METAR KSEA 142053Z 00000KT 10SM FEW033 BKN042 16/06 A3024 RMK AO2 SLP246 T01610056 58013=
201006141953 METAR KSEA 141953Z 16003KT 10SM FEW030 BKN042 BKN250 16/06 A3025 RMK AO2 SLP252 T01560061=
201006141853 METAR KSEA 141853Z VRB03KT 10SM SCT027 BKN038 BKN250 15/06 A3027 RMK AO2 SLP256 T01500061=
201006141753 METAR KSEA 141753Z 18003KT 10SM BKN025 BKN250 13/07 A3028 RMK AO2 SLP259 T01280067 10139 20100 58001=
201006141653 METAR KSEA 141653Z 23003KT 10SM BKN024 BKN250 13/07 A3028 RMK AO2 SLP261 T01280072=
201006141553 METAR KSEA 141553Z 00000KT 10SM BKN022 BKN250 12/07 A3029 RMK AO2 SLP262 T01220067=
201006141519 SPECI KSEA 141519Z 00000KT 10SM BKN021 BKN250 11/06 A3028 RMK AO2=
201006141519 SPECI KSEA 141519Z 00000KT 10SM BKN021 BKN250 11/06 A3028 RMK AO2=
201006141453 METAR KSEA 141453Z VRB03KT 10SM SCT018 SCT250 12/07 A3028 RMK AO2 SLP260 T01170067 55001=
201006141353 METAR KSEA 141353Z VRB04KT 10SM FEW030 SCT090 SCT190 11/06 A3028 RMK AO2 SLP259 T01110061=
201006141253 METAR KSEA 141253Z 06005KT 10SM FEW060 SCT090 SCT190 10/06 A3028 RMK AO2 SLP259 T01000056=
201006141153 METAR KSEA 141153Z 05005KT 10SM BKN060 11/06 A3028 RMK AO2 SLP261 T01060056 10128 20106 50000=
201006141053 METAR KSEA 141053Z 06006KT 10SM OVC060 11/06 A3029 RMK AO2 SLP261 T01110056=
201006140953 METAR KSEA 140953Z 05007KT 10SM FEW034 BKN050 OVC060 12/05 A3029 RMK AO2 SLP262 T01170050=
201006140853 METAR KSEA 140853Z 05010KT 10SM FEW040 BKN060 12/06 A3028 RMK AO2 SLP260 T01170056 53005=
201006140753 METAR KSEA 140753Z 05011KT 10SM SCT070 12/06 A3028 RMK AO2 SLP258 T01170056 402110111=
201006140653 METAR KSEA 140653Z 05009KT 10SM BKN070 12/06 A3027 RMK AO2 SLP255 T01220061=
201006140553 METAR KSEA 140553Z 02009KT 10SM SCT065 13/06 A3027 RMK AO2 SLP255 T01280061 10206 20128 53011=
201006140453 METAR KSEA 140453Z 03008KT 10SM BKN065 13/06 A3026 RMK AO2 SLP251 T01330056=
201006140353 METAR KSEA 140353Z 03014KT 10SM SCT065 BKN200 14/06 A3024 RMK AO2 SLP244 T01440056=
201006140253 METAR KSEA 140253Z 03015KT 10SM BKN050 16/06 A3023 RMK AO2 SLP244 T01610061 55005=
201006140153 METAR KSEA 140153Z 03014KT 10SM BKN046 17/07 A3023 RMK AO2 SLP243 T01720067=
201006140053 METAR KSEA 140053Z 02013KT 10SM BKN050 19/07 A3024 RMK AO2 SLP246 T01890072=
201006132353 METAR KSEA 132353Z 01008KT 10SM SCT042 BKN080 21/09 A3025 RMK AO2 SLP249 T02060089 10211 20172 56001=
201006132253 METAR KSEA 132253Z 27006KT 10SM SCT040 BKN080 BKN200 21/11 A3025 RMK AO2 SLP250 T02110106=
201006132153 METAR KSEA 132153Z 30008KT 10SM SCT038 BKN080 BKN200 21/11 A3025 RMK AO2 SLP247 T02110111=
201006132053 METAR KSEA 132053Z 28010KT 10SM SCT037 BKN075 BKN190 19/11 A3025 RMK AO2 SLP251 T01940106 50002=
201006131953 METAR KSEA 131953Z 29009KT 10SM SCT033 SCT100 BKN180 19/11 A3026 RMK AO2 SLP252 T01940106=
201006131853 METAR KSEA 131853Z 06006KT 10SM FEW026 SCT100 BKN180 19/11 A3025 RMK AO2 SLP251 T01940111=
201006131753 METAR KSEA 131753Z 25007KT 10SM FEW050 SCT080 18/11 A3025 RMK AO2 SLP248 T01780106 10178 20111 51005=
201006131653 METAR KSEA 131653Z 00000KT 10SM FEW040 SCT070 17/11 A3025 RMK AO2 SLP247 T01720106=
201006131553 METAR KSEA 131553Z 00000KT 10SM FEW040 16/09 A3024 RMK AO2 SLP247 T01560094=
201006131453 METAR KSEA 131453Z 00000KT 10SM FEW040 16/09 A3023 RMK AO2 SLP243 T01610094 51008=
201006131353 METAR KSEA 131353Z 35003KT 10SM FEW040 13/08 A3023 RMK AO2 SLP242 T01330078=
201006131253 METAR KSEA 131253Z 32003KT 10SM CLR 12/08 A3022 RMK AO2 SLP238 T01170078=
201006131153 METAR KSEA 131153Z 00000KT 10SM CLR 12/08 A3021 RMK AO2 SLP235 T01170078 10161 20117 53003=
201006131053 METAR KSEA 131053Z 00000KT 10SM CLR 13/07 A3021 RMK AO2 SLP234 T01330072=
201006130953 METAR KSEA 130953Z 04008KT 10SM CLR 14/08 A3020 RMK AO2 SLP231 T01390078=
201006130853 METAR KSEA 130853Z 03010KT 10SM FEW200 14/07 A3020 RMK AO2 SLP231 T01440072 58003=
201006130753 METAR KSEA 130753Z 01008KT 10SM FEW200 14/09 A3021 RMK AO2 SLP236 T01440089 402330094=
201006130653 METAR KSEA 130653Z 34004KT 10SM FEW200 15/09 A3021 RMK AO2 SLP235 T01500089=
201006130553 METAR KSEA 130553Z 28004KT 10SM SCT200 16/09 A3021 RMK AO2 SLP235 T01560089 10233 20156 56001=
201006130453 METAR KSEA 130453Z 02009KT 10SM SCT200 18/08 A3021 RMK AO2 SLP234 T01830078=
201006130353 METAR KSEA 130353Z 35008KT 10SM FEW200 19/06 A3021 RMK AO2 SLP234 T01890061=
201006130253 METAR KSEA 130253Z 34005KT 10SM CLR 22/07 A3021 RMK AO2 SLP236 T02170072 56012=
201006130153 METAR KSEA 130153Z 30008KT 10SM CLR 22/08 A3022 RMK AO2 SLP239 T02220083=
201006130053 METAR KSEA 130053Z 30008KT 10SM CLR 23/08 A3023 RMK AO2 SLP242 T02280083=
201006122353 METAR KSEA 122353Z 01006KT 10SM FEW050 23/08 A3025 RMK AO2 SLP248 T02280083 10233 20161 58016=
201006122253 METAR KSEA 122253Z 32007KT 290V360 10SM FEW050 23/10 A3026 RMK AO2 SLP254 T02280100=
201006122153 METAR KSEA 122153Z 34005KT 10SM FEW050 23/10 A3028 RMK AO2 SLP259 T02280100=
201006122053 METAR KSEA 122053Z 29009KT 10SM FEW070 21/11 A3029 RMK AO2 SLP264 T02060106 58015=
201006121953 METAR KSEA 121953Z 29007KT 10SM CLR 19/11 A3031 RMK AO2 SLP270 T01890106=
201006121853 METAR KSEA 121853Z 33004KT 10SM CLR 18/11 A3033 RMK AO2 SLP277 T01830106=
201006121753 METAR KSEA 121753Z VRB04KT 10SM CLR 17/11 A3034 RMK AO2 SLP279 T01720106 10172 20094 58011=
201006121653 METAR KSEA 121653Z 35004KT 10SM CLR 16/09 A3036 RMK AO2 SLP286 T01560094=
201006121553 METAR KSEA 121553Z VRB03KT 10SM CLR 14/09 A3037 RMK AO2 SLP289 T01390089=
201006121453 METAR KSEA 121453Z 02009KT 10SM CLR 12/08 A3037 RMK AO2 SLP290 T01220083 58002=
201006121353 METAR KSEA 121353Z 03007KT 10SM CLR 12/09 A3037 RMK AO2 SLP291 T01170089=
201006121253 METAR KSEA 121253Z 35004KT 10SM CLR 09/08 A3038 RMK AO2 SLP294 T00940083=
201006121153 METAR KSEA 121153Z 36007KT 10SM CLR 10/08 A3038 RMK AO2 SLP293 70001 T01000083 10139 20100 58007=
201006121053 METAR KSEA 121053Z 36008KT 10SM CLR 10/08 A3039 RMK AO2 SLP297 T01000083=
201006120953 METAR KSEA 120953Z 03007KT 10SM CLR 11/09 A3039 RMK AO2 SLP296 T01110089=
201006120853 METAR KSEA 120853Z 03009KT 10SM CLR 12/09 A3040 RMK AO2 SLP300 T01170089 53002=
201006120753 METAR KSEA 120753Z 03008KT 10SM CLR 12/09 A3039 RMK AO2 SLP297 T01220089 401780100=
201006120653 METAR KSEA 120653Z 02009KT 10SM FEW200 13/09 A3039 RMK AO2 SLP297 T01330094=
201006120553 METAR KSEA 120553Z 01007KT 10SM FEW040 13/09 A3039 RMK AO2 SLP297 T01330094 10178 20128 53002=
201006120453 METAR KSEA 120453Z 35007KT 10SM FEW040 14/09 A3039 RMK AO2 SLP297 T01390089=
201006120353 METAR KSEA 120353Z 35005KT 10SM FEW040 SCT250 15/09 A3038 RMK AO2 SLP294 T01500094=
201006120253 METAR KSEA 120253Z 35008KT 10SM FEW040 SCT250 17/09 A3038 RMK AO2 SLP296 T01670089 56002=
201006120153 METAR KSEA 120153Z 31006KT 10SM SCT037 BKN250 18/08 A3039 RMK AO2 SLP295 T01780083=
201006120053 METAR KSEA 120053Z 28007KT 10SM SCT038 BKN044 BKN250 18/08 A3039 RMK AO2 SLP295 T01780083=
201006112353 METAR KSEA 112353Z 29006KT 10SM SCT032 18/09 A3039 RMK AO2 SLP296 T01780089 10178 20122 51001=
201006112253 METAR KSEA 112253Z 28005KT 10SM BKN035 17/08 A3039 RMK AO2 SLP297 T01670083=
201006112153 METAR KSEA 112153Z VRB04KT 10SM FEW023 SCT034 17/09 A3040 RMK AO2 SLP300 T01670089=
201006112053 METAR KSEA 112053Z VRB05KT 10SM SCT021 BKN032 15/10 A3039 RMK AO2 SLP297 T01500100 50005=
201006112023 SPECI KSEA 112023Z VRB05KT 10SM SCT020 BKN031 16/10 A3039 RMK AO2=
201006112023 SPECI KSEA 112023Z VRB05KT 10SM SCT020 BKN031 16/10 A3039 RMK AO2=
201006111953 METAR KSEA 111953Z VRB05KT 10SM SCT017 OVC028 14/09 A3039 RMK AO2 SLP297 T01440094=
201006111853 METAR KSEA 111853Z 23006KT 10SM FEW009 SCT015 BKN023 13/09 A3038 RMK AO2 SLP295 T01330094=
201006111808 SPECI KSEA 111808Z 21006KT 10SM FEW009 SCT014 BKN020 12/09 A3037 RMK AO2=
201006111808 SPECI KSEA 111808Z 21006KT 10SM FEW009 SCT014 BKN020 12/09 A3037 RMK AO2=
201006111753 METAR KSEA 111753Z 22007KT 10SM SCT009 BKN013 OVC020 12/09 A3037=
201006111734 SPECI KSEA 111734Z 22006KT 10SM SCT007 BKN011 OVC020 12/09 A3037 RMK AO2=
201006111734 SPECI KSEA 111734Z 22006KT 10SM SCT007 BKN011 OVC020 12/09 A3037 RMK AO2=
201006111653 METAR KSEA 111653Z 19007KT 8SM BKN007 OVC014 12/10 A3035 RMK AO2 SLP285 T01170100=
201006111553 METAR KSEA 111553Z 18007KT 6SM BR BKN006 OVC010 11/09 A3035 RMK AO2 SLP283 T01110094=
201006111453 METAR KSEA 111453Z 18006KT 4SM BR OVC005 11/09 A3034 RMK AO2 SLP280 60001 T01060094 53019=
201006111438 SPECI KSEA 111438Z 18007KT 4SM BR OVC005 11/09 A3034 RMK AO2=
201006111438 SPECI KSEA 111438Z 18007KT 4SM BR OVC005 11/09 A3034 RMK AO2=
201006111353 METAR KSEA 111353Z 17008KT 1SM R16C/P6000FT BR BKN006 BKN010 OVC014 11/09 A3032 RMK AO2 SLP272 P0001 T01060094 $=
201006111340 SPECI KSEA 111340Z 17007KT 1SM R16C/P6000FT BR FEW004 OVC008 11/09 A3031 RMK AO2 CIG 006V013 P0001 $=
201006111340 SPECI KSEA 111340Z 17007KT 1SM R16C/P6000FT BR FEW004 OVC008 11/09 A3031 RMK AO2 CIG 006V013 P0001 $=
201006111325 SPECI KSEA 111325Z 17007KT 1 1/2SM BR BKN006 OVC010 11/09 A3031 RMK AO2 $=
201006111325 SPECI KSEA 111325Z 17007KT 1 1/2SM BR BKN006 OVC010 11/09 A3031 RMK AO2 $=
201006111253 METAR KSEA 111253Z 16008KT 2 1/2SM BR SCT006 BKN010 OVC014 11/09 A3030 RMK AO2 CIG 007V011 SLP266 T01060094 $=
201006111225 SPECI KSEA 111225Z 17006KT 3SM BR SCT006 OVC010 11/09 A3029 RMK AO2 $=
201006111225 SPECI KSEA 111225Z 17006KT 3SM BR SCT006 OVC010 11/09 A3029 RMK AO2 $=
201006111153 METAR KSEA 111153Z 17006KT 2 1/2SM BR OVC006 11/09 A3028 RMK AO2 RAE42 CIG 003V009 SLP261 P0004 60009 70027 T01060094 10111 20106 53013=
201006111118 SPECI KSEA 111118Z 17006KT 1 1/2SM -RA BR OVC006 11/09 A3027 RMK AO2 CIG 003V008 P0002=
201006111118 SPECI KSEA 111118Z 17006KT 1 1/2SM -RA BR OVC006 11/09 A3027 RMK AO2 CIG 003V008 P0002=
201006111101 SPECI KSEA 111101Z 17007KT 2 1/2SM -RA BR BKN006 OVC010 11/09 A3027 RMK AO2 CIG 003V008 P0001=
201006111101 SPECI KSEA 111101Z 17007KT 2 1/2SM -RA BR BKN006 OVC010 11/09 A3027 RMK AO2 CIG 003V008 P0001=
201006111053 METAR KSEA 111053Z 17007KT 3SM -RA BR OVC008 11/09 A3027 RMK AO2 RAB52 CIG 003V011 SLP256 P0001 T01060094=
201006110953 METAR KSEA 110953Z 17007KT 4SM BR OVC006 11/09 A3025 RMK AO2 RAE49 CIG 003V010 SLP251 P0002 T01060094=
201006110853 METAR KSEA 110853Z 17007KT 3SM -RA BR OVC006 11/10 A3024 RMK AO2 CIG 002V010 SLP248 P0002 60002 T01060100 51009=
201006110830 SPECI KSEA 110830Z 17006KT 2SM -RA BR BKN004 OVC009 11/10 A3024 RMK AO2 CIG 002V007 P0001=
201006110830 SPECI KSEA 110830Z 17006KT 2SM -RA BR BKN004 OVC009 11/10 A3024 RMK AO2 CIG 002V007 P0001=
201006110753 METAR KSEA 110753Z 18007KT 2SM -RA BR OVC007 11/09 A3024 RMK AO2 RAB46 CIG 004V010 SLP245 P0000 T01110094 401720106=
201006110653 METAR KSEA 110653Z 19008KT 10SM BKN005 OVC011 11/09 A3023=
201006110605 SPECI KSEA 110605Z 20011KT 10SM FEW007 OVC013 11/09 A3022 RMK AO2=
201006110605 SPECI KSEA 110605Z 20011KT 10SM FEW007 OVC013 11/09 A3022 RMK AO2=
201006110553 METAR KSEA 110553Z 20010KT 10SM OVC013 11/09 A3022 RMK AO2 SLP239 60000 T01110094 10150 20111 53020=
201006110523 SPECI KSEA 110523Z 20010G17KT 10SM OVC013 12/09 A3021 RMK AO2=
201006110523 SPECI KSEA 110523Z 20010G17KT 10SM OVC013 12/09 A3021 RMK AO2=
201006110453 METAR KSEA 110453Z 20010KT 10SM OVC015 12/09 A3020 RMK AO2 SLP232 T01170094=
201006110353 METAR KSEA 110353Z 20011G18KT 10SM OVC015 12/09 A3017 RMK AO2 SLP223 T01220094=
201006110253 METAR KSEA 110253Z 21012KT 10SM BKN017 OVC033 13/09 A3016 RMK AO2 RAE00 SLP218 P0000 60000 T01280094 53015=
201006110225 SPECI KSEA 110225Z 21011KT 10SM SCT019 OVC031 13/09 A3015 RMK AO2 RAE00 P0000=
201006110225 SPECI KSEA 110225Z 21011KT 10SM SCT019 OVC031 13/09 A3015 RMK AO2 RAE00 P0000=
201006110153 METAR KSEA 110153Z 21010KT 10SM -RA BKN019 OVC025 13/10 A3014 RMK AO2 RAB42 SLP211 P0000 T01330100=
201006110053 METAR KSEA 110053Z 22012KT 10SM BKN023 OVC060 14/09 A3011 RMK AO2 RAB18E28 SLP203 P0000 T01440094=
201006110048 SPECI KSEA 110048Z 21014G18KT 10SM BKN023 OVC060 14/09 A3011 RMK AO2 RAB18E28 P0000=
201006110048 SPECI KSEA 110048Z 21014G18KT 10SM BKN023 OVC060 14/09 A3011 RMK AO2 RAB18E28 P0000=
201006102353 METAR KSEA 102353Z 21010KT 10SM FEW023 BKN060 BKN250 15/10 A3011 RMK AO2 SLP201 T01500100 10172 20128 53013=
201006102253 METAR KSEA 102253Z 22012KT 10SM FEW025 BKN060 BKN250 16/11 A3009 RMK AO2 SLP196 T01610106=
201006102153 METAR KSEA 102153Z 22011KT 10SM SCT023 SCT070 BKN250 17/11 A3008 RMK AO2 SLP192 SHRA DSNT SE AND W T01720106=
201006102053 METAR KSEA 102053Z 21009KT 10SM FEW020 SCT031 SCT070 BKN250 17/11 A3007 RMK AO2 SLP188 T01670111 51013=
201006102005 SPECI KSEA 102005Z 24006KT 10SM FEW020 SCT028 BKN250 15/09 A3006 RMK AO2=
201006102005 SPECI KSEA 102005Z 24006KT 10SM FEW020 SCT028 BKN250 15/09 A3006 RMK AO2=
201006101953 METAR KSEA 101953Z 23005KT 10SM BKN022 BKN070 BKN250 15/09 A3006 RMK AO2 SLP185 T01500094=
201006101853 METAR KSEA 101853Z 19007KT 10SM FEW015 BKN026 BKN070 BKN250 13/11 A3005 RMK AO2 SLP181 T01280106=
201006101831 SPECI KSEA 101831Z 22007KT 10SM FEW014 BKN023 BKN070 BKN250 13/11 A3004 RMK AO2=
201006101831 SPECI KSEA 101831Z 22007KT 10SM FEW014 BKN023 BKN070 BKN250 13/11 A3004 RMK AO2=
201006101810 SPECI KSEA 101810Z 20008KT 10SM FEW008 BKN013 BKN055 13/12 A3003 RMK AO2=
201006101810 SPECI KSEA 101810Z 20008KT 10SM FEW008 BKN013 BKN055 13/12 A3003 RMK AO2=
201006101753 METAR KSEA 101753Z 20006KT 10SM BKN008 BKN013 BKN055 13/11 A3003 RMK AO2 RAE1654 SLP175 60018 T01280111 10128 20106 51013=
201006101653 METAR KSEA 101653Z 22003KT 10SM -RA FEW004 BKN008 BKN065 BKN200 12/11 A3002 RMK AO2 SLP171 P0002 T01170106=
201006101643 SPECI KSEA 101643Z 27003KT 10SM -RA SCT004 BKN007 BKN065 BKN200 11/10 A3001 RMK AO2 P0002=
201006101643 SPECI KSEA 101643Z 27003KT 10SM -RA SCT004 BKN007 BKN065 BKN200 11/10 A3001 RMK AO2 P0002=
201006101642 SPECI KSEA 101642Z 27003KT 1 1/2SM -RA SCT004 BKN007 BKN065 BKN200 11/10 A3001 RMK AO2 SFC VIS 10 P0002=
201006101642 SPECI KSEA 101642Z 27003KT 1 1/2SM -RA SCT004 BKN007 BKN065 BKN200 11/10 A3001 RMK AO2 SFC VIS 10 P0002=
201006101553 METAR KSEA 101553Z 27003KT 1 1/2SM R16C/3500VP6000FT RA BR BKN003 OVC015 11/10 A3000 RMK AO2 RAE02B24 SLP166 P0007 T01060100=
201006101453 METAR KSEA 101453Z 20007KT 1 1/2SM -RA BR BKN003 OVC008 11/11 A2999 RMK AO2 SLP161 P0005 60009 T01110106 51009=
201006101413 SPECI KSEA 101413Z 22004KT 1SM R16C/6000VP6000FT -RA BR BKN003 OVC007 11/10 A2999 RMK AO2 P0004=
201006101413 SPECI KSEA 101413Z 22004KT 1SM R16C/6000VP6000FT -RA BR BKN003 OVC007 11/10 A2999 RMK AO2 P0004=
201006101359 SPECI KSEA 101359Z 22005KT 1SM R16C/4000VP6000FT -RA BR OVC005 11/10 A2999 RMK AO2 CIG 002V006 P0001=
201006101359 SPECI KSEA 101359Z 22005KT 1SM R16C/4000VP6000FT -RA BR OVC005 11/10 A2999 RMK AO2 CIG 002V006 P0001=
201006101353 METAR KSEA 101353Z 21005KT 2SM -RA BR OVC005 11/10 A2998 RMK AO2 SFC VIS 4 CIG 002V007 SLP160 P0001 T01060100=
201006101346 SPECI KSEA 101346Z 22005KT 2SM -RA BR OVC005 11/10 A2998 RMK AO2 SFC VIS 5 P0001=
201006101346 SPECI KSEA 101346Z 22005KT 2SM -RA BR OVC005 11/10 A2998 RMK AO2 SFC VIS 5 P0001=
201006101318 SPECI KSEA 101318Z 20006KT 6SM -RA BR OVC005 11/10 A2998 RMK AO2 P0000=
201006101318 SPECI KSEA 101318Z 20006KT 6SM -RA BR OVC005 11/10 A2998 RMK AO2 P0000=
201006101301 SPECI KSEA 101301Z 19008KT 5SM -RA BR OVC003 11/10 A2997 RMK AO2 P0000=
201006101301 SPECI KSEA 101301Z 19008KT 5SM -RA BR OVC003 11/10 A2997 RMK AO2 P0000=
201006101253 METAR KSEA 101253Z 19007KT 1 1/4SM -RA BR OVC003 11/10 A2997 RMK AO2 SFC VIS 3 CIG 002V007 SLP155 P0003 T01060100=
201006101213 SPECI KSEA 101213Z 18006KT 1 1/4SM -RA BR OVC003 11/10 A2997 RMK AO2 SFC VIS 5 CIG 002V007 P0002=
201006101213 SPECI KSEA 101213Z 18006KT 1 1/4SM -RA BR OVC003 11/10 A2997 RMK AO2 SFC VIS 5 CIG 002V007 P0002=
201006101159 SPECI KSEA 101159Z 18005KT 1 1/4SM -RA BR OVC005 11/10 A2996 RMK AO2 SFC VIS 5 CIG 002V008 P0001=
201006101159 SPECI KSEA 101159Z 18005KT 1 1/4SM -RA BR OVC005 11/10 A2996 RMK AO2 SFC VIS 5 CIG 002V008 P0001=
201006101153 METAR KSEA 101153Z 18005KT 9SM -RA OVC005 11/09 A2996 RMK AO2 CIG 003V008 SLP152 P0000 60000 70006 T01060094 10117 20106 53005=
201006101145 SPECI KSEA 101145Z 19009KT 10SM -RA OVC007 11/09 A2996 RMK AO2 CIG 005V009 P0000=
201006101145 SPECI KSEA 101145Z 19009KT 10SM -RA OVC007 11/09 A2996 RMK AO2 CIG 005V009 P0000=
201006101053 METAR KSEA 101053Z 19006KT 10SM -RA OVC013 11/09 A2996 RMK AO2 RAB46 SLP150 P0000 T01110089=
201006101043 SPECI KSEA 101043Z 20007KT 10SM BKN013 OVC020 11/08 A2995 RMK AO2=
201006101043 SPECI KSEA 101043Z 20007KT 10SM BKN013 OVC020 11/08 A2995 RMK AO2=
201006100953 METAR KSEA 100953Z 18008KT 10SM BKN019 OVC027 11/08 A2995 RMK AO2 SLP149 T01110083=
201006100905 SPECI KSEA 100905Z 18011KT 10SM SCT017 BKN025 OVC031 11/08 A2995 RMK AO2=
201006100905 SPECI KSEA 100905Z 18011KT 10SM SCT017 BKN025 OVC031 11/08 A2995 RMK AO2=
201006100853 METAR KSEA 100853Z 19010KT 10SM FEW013 BKN031 OVC038 11/08 A2995 RMK AO2 SLP147 60000 T01110083 51006=
201006100844 SPECI KSEA 100844Z 19012KT 10SM FEW018 OVC035 11/08 A2995 RMK AO2=
201006100844 SPECI KSEA 100844Z 19012KT 10SM FEW018 OVC035 11/08 A2995 RMK AO2=
201006100753 METAR KSEA 100753Z 18008KT 10SM BKN019 11/08 A2994 RMK AO2 SLP146 T01060078 401670106=
201006100653 METAR KSEA 100653Z 19010KT 10SM BKN021 11/08 A2994 RMK AO2 RAB16E34 SLP144 P0000 T01110083=
201006100634 SPECI KSEA 100634Z 20008KT 10SM BKN023 OVC095 12/08 A2994 RMK AO2 RAB16E34 P0000=
201006100634 SPECI KSEA 100634Z 20008KT 10SM BKN023 OVC095 12/08 A2994 RMK AO2 RAB16E34 P0000=
201006100553 METAR KSEA 100553Z 21012KT 10SM FEW060 SCT080 BKN090 12/08 A2993 RMK AO2 SLP141 T01170078 10150 20117 53020=
201006100453 METAR KSEA 100453Z 22012KT 10SM FEW030 SCT070 BKN095 12/08 A2991 RMK AO2 SLP133 T01220078=
201006100353 METAR KSEA 100353Z 21010G18KT 10SM FEW020 SCT035 BKN080 13/10 A2989 RMK AO2 SLP126 CB DSNT SE T01280100=
201006100253 METAR KSEA 100253Z 21009KT 10SM FEW020 BKN033 BKN080 14/11 A2987 RMK AO2 SLP120 CB DSNT S T01390106 53009=
201006100153 METAR KSEA 100153Z 18008KT 10SM FEW035 SCT080 BKN200 15/11 A2985 RMK AO2 SLP113 T01500111=
201006100053 METAR KSEA 100053Z 18009KT 10SM FEW035 SCT070 BKN200 13/11 A2984 RMK AO2 SLP111 T01330106=
201006092353 METAR KSEA 092353Z 15011KT 10SM FEW030CB SCT041 BKN080 BKN200 13/11 A2984 RMK AO2 TSE22RAB08E43 SLP111 CB NE MOV NE SHRA S P0004 60005 T01330106 10167 20128 50008=
201006092324 SPECI KSEA 092324Z 16008KT 5SM -RA BR FEW018CB BKN030 BKN200 13/11 A2985 RMK AO2 TSE22RAB08 CB E MOV NE P0004=
201006092324 SPECI KSEA 092324Z 16008KT 5SM -RA BR FEW018CB BKN030 BKN200 13/11 A2985 RMK AO2 TSE22RAB08 CB E MOV NE P0004=
201006092311 SPECI KSEA 092311Z 18012KT 10SM -TSRA SCT018CB BKN025 BKN070 BKN200 13/11 A2986 RMK AO2 RAB08 TS OHD MOV NE P0002=
201006092311 SPECI KSEA 092311Z 18012KT 10SM -TSRA SCT018CB BKN025 BKN070 BKN200 13/11 A2986 RMK AO2 RAB08 TS OHD MOV NE P0002=
201006092253 METAR KSEA 092253Z 15009KT 10SM TS FEW025CB SCT035 BKN080 BKN200 15/11 A2985 RMK AO2 TSB52 SLP113 TS SW MOV NE SHRA SW-W T01500106=
201006092153 METAR KSEA 092153Z 20007KT 10SM SCT025 BKN100 BKN200 16/11 A2983 RMK AO2 SLP108 SHRA E-S AND W T01610106=
201006092053 METAR KSEA 092053Z 19005KT 10SM SCT020 BKN070 BKN180 14/10 A2982 RMK AO2 TSE28RAE28 SLP103 CB DSNT NW SHRA NE-SE-S P0001 60001 T01390100 55000=
201006092029 SPECI KSEA 092029Z 16005KT 10SM SCT018 BKN036 BKN065 13/11 A2982 RMK AO2 TSE28RAE28 OCNL LTGICCG DSNT NE-SE CB DSNT NE-SE SHRA NE-SE P0001=
201006092029 SPECI KSEA 092029Z 16005KT 10SM SCT018 BKN036 BKN065 13/11 A2982 RMK AO2 TSE28RAE28 OCNL LTGICCG DSNT NE-SE CB DSNT NE-SE SHRA NE-SE P0001=
201006092005 SPECI KSEA 092005Z 21010KT 10SM -TSRA SCT020CB BKN033 BKN070 15/12 A2982 RMK AO2 OCNL LTGICCG VC E-SE TS E-SE MOV NE P0000=
201006092005 SPECI KSEA 092005Z 21010KT 10SM -TSRA SCT020CB BKN033 BKN070 15/12 A2982 RMK AO2 OCNL LTGICCG VC E-SE TS E-SE MOV NE P0000=
201006091953 METAR KSEA 091953Z 24008KT 10SM -TSRA FEW009 BKN020CB BKN033 16/11 A2981 RMK AO2 TSB48RAB50 SLP102 OCNL LTGICCG VC SE-S TS SE-S MOV N P0000 T01560106=
201006091948 SPECI KSEA 091948Z 23009KT 10SM TS FEW009 BKN020CB BKN033 16/11 A2981 RMK AO2 TSB48 OCNL LTGICCG VC SE-S TS SE-S MOV N=
201006091948 SPECI KSEA 091948Z 23009KT 10SM TS FEW009 BKN020CB BKN033 16/11 A2981 RMK AO2 TSB48 OCNL LTGICCG VC SE-S TS SE-S MOV N=
201006091933 SPECI KSEA 091933Z VRB06KT 10SM FEW011 BKN020 BKN033 16/11 A2981 RMK AO2 CB S MOV N=
201006091933 SPECI KSEA 091933Z VRB06KT 10SM FEW011 BKN020 BKN033 16/11 A2981 RMK AO2 CB S MOV N=
201006091853 METAR KSEA 091853Z 08003KT 10SM SCT011 SCT019 BKN045 16/12 A2982 RMK AO2 SLP103 T01560117=
201006091847 SPECI KSEA 091847Z VRB03KT 10SM SCT011 BKN020 BKN045 14/12 A2982 RMK AO2=
201006091847 SPECI KSEA 091847Z VRB03KT 10SM SCT011 BKN020 BKN045 14/12 A2982 RMK AO2=
201006091753 METAR KSEA 091753Z 15006KT 10SM SCT007 BKN011 OVC036 13/11 A2982 RMK AO2 RAB04E39 SLP104 P0000 60001 T01330111 10133 20106 50005=
201006091739 SPECI KSEA 091739Z 13005KT 10SM SCT009 BKN013 OVC035 13/11 A2982 RMK AO2 RAB04E39 P0000=
201006091739 SPECI KSEA 091739Z 13005KT 10SM SCT009 BKN013 OVC035 13/11 A2982 RMK AO2 RAB04E39 P0000=
201006091706 SPECI KSEA 091706Z 19003KT 7SM -RA FEW009 BKN020 OVC027 12/11 A2982 RMK AO2 RAB04 P0000=
201006091706 SPECI KSEA 091706Z 19003KT 7SM -RA FEW009 BKN020 OVC027 12/11 A2982 RMK AO2 RAB04 P0000=
201006091653 METAR KSEA 091653Z 20005KT 7SM FEW010 BKN019 OVC044 13/11 A2982 RMK AO2 RAB26E51 SLP105 P0000 T01280106=
201006091631 SPECI KSEA 091631Z 20006KT 7SM -RA FEW010 BKN026 OVC044 13/10 A2982 RMK AO2 RAB26 P0000=
201006091631 SPECI KSEA 091631Z 20006KT 7SM -RA FEW010 BKN026 OVC044 13/10 A2982 RMK AO2 RAB26 P0000=
201006091553 METAR KSEA 091553Z 20003KT 10SM FEW008 SCT020 BKN042 13/10 A2981 RMK AO2 SLP100 T01280100=
201006091453 METAR KSEA 091453Z 21007KT 10SM FEW007 SCT012 BKN036 12/11 A2980 RMK AO2 SLP097 60001 T01220106 55001=
201006091440 SPECI KSEA 091440Z 19007KT 10SM FEW007 SCT013 BKN042 12/11 A2980 RMK AO2=
201006091440 SPECI KSEA 091440Z 19007KT 10SM FEW007 SCT013 BKN042 12/11 A2980 RMK AO2=
201006091409 SPECI KSEA 091409Z 19006KT 10SM SCT015 BKN044 BKN085 12/10 A2980 RMK AO2=
201006091409 SPECI KSEA 091409Z 19006KT 10SM SCT015 BKN044 BKN085 12/10 A2980 RMK AO2=
201006091353 METAR KSEA 091353Z 18007KT 10SM BKN015 OVC027 12/10 A2980 RMK AO2 SLP096 T01170100=
201006091253 METAR KSEA 091253Z 14007KT 10SM BKN019 OVC070 11/10 A2980 RMK AO2 RAE21 SLP098 P0001 T01110100=
201006091241 SPECI KSEA 091241Z 13008KT 10SM BKN020 BKN048 OVC070 11/10 A2980 RMK AO2 RAE21 P0001=
201006091241 SPECI KSEA 091241Z 13008KT 10SM BKN020 BKN048 OVC070 11/10 A2980 RMK AO2 RAE21 P0001=
201006091153 METAR KSEA 091153Z 14008KT 5SM RA BR FEW004 BKN036 OVC047 11/09 A2981 RMK AO2 SLP098 P0017 60027 7//// T01060094 10117 20106 56013=
201006091122 SPECI KSEA 091122Z 16006KT 7SM -RA FEW005 BKN045 OVC070 11/09 A2981 RMK AO2 P0003=
201006091122 SPECI KSEA 091122Z 16006KT 7SM -RA FEW005 BKN045 OVC070 11/09 A2981 RMK AO2 P0003=
201006091053 METAR KSEA 091053Z 15006KT 7SM RA SCT006 BKN009 OVC017 11/10 A2981 RMK AO2 SLP101 P0001 T01110100=
201006091049 SPECI KSEA 091049Z 16006KT 9SM -RA SCT006 SCT009 OVC017 11/10 A2982 RMK AO2 P0000=
201006091049 SPECI KSEA 091049Z 16006KT 9SM -RA SCT006 SCT009 OVC017 11/10 A2982 RMK AO2 P0000=
201006091038 SPECI KSEA 091038Z 16007KT 10SM -RA BKN004 OVC019 11/10 A2982 RMK AO2 CIG 003V010 P0000=
201006091038 SPECI KSEA 091038Z 16007KT 10SM -RA BKN004 OVC019 11/10 A2982 RMK AO2 CIG 003V010 P0000=
201006091026 SPECI KSEA 091026Z 15005KT 10SM -RA FEW004 BKN018 OVC055 11/11 A2982 RMK AO2 P0000=
201006091026 SPECI KSEA 091026Z 15005KT 10SM -RA FEW004 BKN018 OVC055 11/11 A2982 RMK AO2 P0000=
201006091019 SPECI KSEA 091019Z 15005KT 10SM -RA SCT004 BKN037 OVC055 11/11 A2982 RMK AO2 P0000=
201006091019 SPECI KSEA 091019Z 15005KT 10SM -RA SCT004 BKN037 OVC055 11/11 A2982 RMK AO2 P0000=
201006090953 METAR KSEA 090953Z 13008KT 10SM -RA SCT030 BKN039 OVC060 11/10 A2982 RMK AO2 SLP103 P0000 T01110100=
201006090853 METAR KSEA 090853Z 13007KT 10SM -RA FEW015 BKN041 OVC050 12/11 A2984 RMK AO2 SLP111 P0001 60009 T01170106 58007=
201006090753 METAR KSEA 090753Z 00000KT 10SM -RA SCT041 BKN050 OVC060 12/10 A2985 RMK AO2 SLP115 P0003 T01170100 402060100=
201006090653 METAR KSEA 090653Z 27003KT 10SM -RA BKN033 OVC060 12/10 A2987 RMK AO2 SLP118 P0005 T01170100=
201006090553 METAR KSEA 090553Z 26009KT 6SM RA BR BKN048 OVC065 12/10 A2986 RMK AO2 SLP118 P0011 60017 T01220100 10200 20122 50008=
201006090453 METAR KSEA 090453Z 19003KT 6SM RA BR SCT042 BKN050 OVC065 14/13 A2987 RMK AO2 SLP119 P0006 T01440128=
201006090353 METAR KSEA 090353Z 15009KT 10SM -RA OVC070 17/09 A2984 RMK AO2 RAB03 SLP110 P0000 T01720094=
201006090253 METAR KSEA 090253Z 19004KT 10SM SCT065 BKN100 OVC150 17/09 A2984 RMK AO2 RAB30E44 SLPNO P0000 60000 T01720094 56009=
201006090153 METAR KSEA 090153Z 21003KT 10SM FEW040 BKN140 OVC200 18/07 A2985 RMK AO2 SLP112 T01830067=
201006090053 METAR KSEA 090053Z 31004KT 10SM FEW040 BKN160 OVC220 18/07 A2985 RMK AO2 SLPNO T01830067=
201006082353 METAR KSEA 082353Z 27009KT 10SM FEW035 SCT160 BKN220 20/08 A2987 RMK AO2 SLP118 T02000083 10206 20167 56022=
201006082253 METAR KSEA 082253Z 30009KT 10SM FEW035 SCT160 BKN220 19/09 A2988 RMK AO2 SLP124 T01940089=
201006082153 METAR KSEA 082153Z 36007KT 10SM FEW035 SCT160 OVC220 19/09 A2989 RMK AO2 SLP127 T01890094=
201006082053 METAR KSEA 082053Z 01009KT 10SM FEW035 SCT160 BKN220 19/09 A2993 RMK AO2 SLP140 T01890094 56027=
201006081953 SPECI KSEA 081953Z 30008KT 10SM FEW035 BKN200 18/09 A2996 RMK AO2 SLP150 T01830094=
201006081853 METAR KSEA 081853Z 33009KT 10SM FEW028 BKN250 17/09 A2998 RMK AO2 SLP158 T01720094=
201006081753 METAR KSEA 081753Z 36007KT 10SM FEW021 BKN250 17/09 A3001 RMK AO2 SLP168 6//// T01680093 58024=
201006081653 METAR KSEA 081653Z 02004KT 10SM FEW015 BKN250 15/09 A3004 RMK AO2 SLP178 T01520085 PNO $=
201006081553 METAR KSEA 081553Z 10SM FEW010 BKN250 14/08 A3006 RMK AO2 SLP184 T01400083 $=
201006081453 METAR KSEA 081453Z 36007KT 10SM FEW008 SCT250 A3008 RMK AO2 SLPNO 6//// 56011=
201006081353 METAR KSEA 081353Z 00000KT 10SM FEW005 SCT250 12/08 A3008 RMK AO2 SLP193 T01170078=
201006081253 METAR KSEA 081253Z 00000KT 10SM FEW100 A3009 RMK AO2 SLPNO PNO $=
201006081153 METAR KSEA 081153Z 00000KT 10SM CLR 11/08 A3012 RMK AO2 SLP205 7//// T01060078 10139 20106 58009 $=
201006081053 METAR KSEA 081053Z 00000KT 10SM FEW050 11/08 A3014 RMK AO2 SLP211 T01060078 $=
201006080953 METAR KSEA 080953Z 01004KT 10SM FEW050 12/08 A3014 RMK AO2 SLP210 T01170083 $=
201006080853 METAR KSEA 080853Z 00000KT 10SM SCT050 12/08 A3014 RMK AO2 SLP213 T01220078 58010 $=
201006080753 METAR KSEA 080753Z 36003KT 10SM BKN048 13/10 A3016 RMK AO2 SLP220 T01330100 401830117 $=
201006080653 METAR KSEA 080653Z 33003KT 10SM OVC040 14/09 A3018 RMK AO2 SLP225 T01390094 $=
201006080553 METAR KSEA 080553Z VRB03KT 10SM SCT038 BKN070 14/09 A3017 RMK AO2 SLP224 6//// T01390089 10172 20133 52001 $=
201006080453 METAR KSEA 080453Z 00000KT 10SM SCT041 BKN060 15/08 A3017 RMK AO2 SLP224 T01500083 $=
201006080353 METAR KSEA 080353Z VRB03KT 10SM FEW030 BKN070 BKN200 16/09 A3017 RMK AO2 SLP223 T01560094 PNO $=
201006080253 METAR KSEA 080253Z 04005KT 10SM FEW030 BKN060 17/09 A3017 RMK AO2 RAB35E47 SLP222 P0000 6//// T01670089 56009 $=
201006080153 METAR KSEA 080153Z 00000KT 10SM FEW035 SCT060 BKN070 17/08 A3018 RMK AO2 SLP225 T01720083 PNO $=
201006080053 METAR KSEA 080053Z 10SM FEW035 BKN065 17/08 A3018 RMK AO2 RAE24 SLP226 P0000 T01720078 $=
201006072353 METAR KSEA 072353Z 32005KT 10SM -RA FEW035 SCT060 BKN075 17/08 A3020 RMK AO2 RAB50 SLP231 P0000 60000 T01720083 10183 20133 58001=
201006072253 METAR KSEA 072253Z 36007KT 10SM FEW035 BKN055 18/09 A3020 RMK AO2 SLP232 T01780094=
201006072153 METAR KSEA 072153Z 00000KT 10SM FEW025 BKN038 BKN200 17/09 A3020 RMK AO2 SLP233 T01720094=
201006072053 METAR KSEA 072053Z VRB04KT 10SM FEW030 BKN039 BKN200 17/10 A3020 RMK AO2 SLP232 60000 T01670100 58002 $=
201006071953 METAR KSEA 071953Z 10SM SCT026 BKN032 BKN048 16/09 A3020 RMK AO2 SLP233 T01610089 $=
201006071926 SPECI KSEA 071926Z VRB04KT 10SM SCT025 BKN050 16/09 A3020 RMK AO2 $=
201006071926 SPECI KSEA 071926Z VRB04KT 10SM SCT025 BKN050 16/09 A3020 RMK AO2 $=
201006071853 METAR KSEA 071853Z 00000KT 10SM BKN024 BKN040 14/09 A3021 RMK AO2 RAB08E20 SLP234 P0000 T01440094 $=
201006071753 METAR KSEA 071753Z 23006KT 10SM BKN021 OVC030 13/09 A3020 RMK AO2 SLP235 60000 T01330089 10139 20117 51013 $=
201006071653 METAR KSEA 071653Z 18006KT 10SM OVC016 13/09 A3020 RMK AO2 SLP232 T01280094=
201006071635 SPECI KSEA 071635Z 21008KT 10SM OVC015 13/09 A3019 RMK AO2 $=
201006071635 SPECI KSEA 071635Z 21008KT 10SM OVC015 13/09 A3019 RMK AO2 $=
201006071553 METAR KSEA 071553Z 21010KT 10SM OVC011 12/09 A3018 RMK AO2 RAE11 SLP226 P0000 T01220094=
201006071453 METAR KSEA 071453Z 19008KT 10SM -RA OVC010 12/10 A3017 RMK AO2 RAB53 SLP222 P0000 60000 T01170100 51016=
201006071445 SPECI KSEA 071445Z 20008KT 10SM OVC010 12/10 A3017 RMK AO2=
201006071445 SPECI KSEA 071445Z 20008KT 10SM OVC010 12/10 A3017 RMK AO2=
201006071353 METAR KSEA 071353Z 19010KT 10SM OVC009 12/10 A3015 RMK AO2 RAB22E37 SLP217 P0000 T01170100 $=
201006071253 METAR KSEA 071253Z 17007KT 10SM OVC009 12/10 A3014 RMK AO2 RAE13 SLP212 P0000 T01170100 $=
201006071153 METAR KSEA 071153Z 18009KT 6SM -RA BR OVC013 12/10 A3012 RMK AO2 SLP206 P0000 60001 70033 T01170100 10139 20117 51009 $=
201006071053 METAR KSEA 071053Z 19007KT 6SM -RA BR OVC013 12/11 A3011 RMK AO2 RAB41 SLP204 P0001 T01220106 $=
201006070953 METAR KSEA 070953Z 20006KT 10SM BKN015 OVC036 12/10 A3010 RMK AO2 SLP198 T01220100 $=
201006070853 METAR KSEA 070853Z 21007KT 10SM FEW010 BKN015 OVC030 13/11 A3009 RMK AO2 SLP197 T01280106 53013 $=
201006070753 METAR KSEA 070753Z 23003KT 10SM BKN015 OVC040 13/11 A3008 RMK AO2 SLP190 T01330111 401670122 $=
201006070653 METAR KSEA 070653Z 25006KT 10SM FEW020 OVC050 14/11 A3007 RMK AO2 SLP186 T01390111 $=
201006070553 METAR KSEA 070553Z 21006KT 10SM OVC050 14/12 A3005 RMK AO2 SLP184 60001 T01390122 10167 20139 53008 $=
201006070453 METAR KSEA 070453Z 20005KT 10SM OVC050 14/12 A3004 RMK AO2 RAE35 SLP179 P0000 T01390122 $=
201006070427 SPECI KSEA 070427Z 20005KT 10SM -RA FEW027 BKN034 OVC050 14/13 A3004 RMK AO2 P0000 $=
201006070427 SPECI KSEA 070427Z 20005KT 10SM -RA FEW027 BKN034 OVC050 14/13 A3004 RMK AO2 P0000 $=
201006070410 SPECI KSEA 070410Z 20005KT 10SM BKN027 BKN033 OVC041 14/13 A3004 RMK AO2 RAE06 P0000 $=
201006070410 SPECI KSEA 070410Z 20005KT 10SM BKN027 BKN033 OVC041 14/13 A3004 RMK AO2 RAE06 P0000 $=
201006070353 METAR KSEA 070353Z 3SM -RA BR SCT021 OVC037 14/13 A3004 RMK AO2 RAB0258 SLP178 P0001 T01440128 $=
201006070253 METAR KSEA 070253Z 21008KT 10SM SCT015 OVC055 15/13 A3003 RMK AO2 SLP174 T01500128 53009 $=
201006070153 METAR KSEA 070153Z 20006KT 10SM FEW015 BKN036 OVC045 16/13 A3001 RMK AO2 SLP169 T01560128 $=
201006070125 SPECI KSEA 070125Z 21008KT 10SM SCT012 BKN017 OVC045 16/13 A3001 RMK AO2 $=
201006070125 SPECI KSEA 070125Z 21008KT 10SM SCT012 BKN017 OVC045 16/13 A3001 RMK AO2 $=
201006070053 METAR KSEA 070053Z 20007KT 10SM BKN014 BKN030 OVC060 16/13 A3000 RMK AO2 SLP164 T01610128 $=
201006062353 METAR KSEA 062353Z 20006KT 10SM SCT012 BKN037 OVC046 16/13 A3000 RMK AO2 SLP164 60002 T01610128 10161 20133 53004 $=
201006062331 SPECI KSEA 062331Z 22005KT 10SM SCT011 SCT027 OVC044 16/13 A3000 RMK AO2 $=
201006062331 SPECI KSEA 062331Z 22005KT 10SM SCT011 SCT027 OVC044 16/13 A3000 RMK AO2 $=
201006062253 METAR KSEA 062253Z 19005KT 10SM BKN007 BKN015 OVC047 16/14 A3000 RMK AO2 RAB01E40 SLP164 P0001 T01560139 $=
201006062244 SPECI KSEA 062244Z 20004KT 10SM BKN009 BKN015 OVC049 16/14 A3000 RMK AO2 RAB01E40 P0001 $=
201006062244 SPECI KSEA 062244Z 20004KT 10SM BKN009 BKN015 OVC049 16/14 A3000 RMK AO2 RAB01E40 P0001 $=
201006062229 SPECI KSEA 062229Z VRB04KT 3SM BR BKN009 BKN015 OVC038 15/13 A2999 RMK AO2 SFC VIS 6 RAB01E28 CIG 006V012 P0001 $=
201006062229 SPECI KSEA 062229Z VRB04KT 3SM BR BKN009 BKN015 OVC038 15/13 A2999 RMK AO2 SFC VIS 6 RAB01E28 CIG 006V012 P0001 $=
201006062153 METAR KSEA 062153Z VRB04KT 10SM SCT010 BKN014 BKN022 16/13 A2999 RMK AO2 RAE37 SLP160 P0000 T01610128 $=
201006062145 SPECI KSEA 062145Z 00000KT 10SM BKN012 BKN022 OVC060 16/13 A2999 RMK AO2 RAE37 P0000 $=
201006062145 SPECI KSEA 062145Z 00000KT 10SM BKN012 BKN022 OVC060 16/13 A2999 RMK AO2 RAE37 P0000 $=
201006062053 METAR KSEA 062053Z VRB03KT 9SM -RA BKN025 BKN032 OVC047 15/14 A2999 RMK AO2 RAB1957 SLP160 P0001 60001 T01500139 53006 $=
201006062025 SPECI KSEA 062025Z 26003KT 10SM -RA FEW006 BKN025 OVC038 15/13 A2999 RMK AO2 RAB1957 P0001 $=
201006062025 SPECI KSEA 062025Z 26003KT 10SM -RA FEW006 BKN025 OVC038 15/13 A2999 RMK AO2 RAB1957 P0001 $=
201006061953 METAR KSEA 061953Z 26003KT 10SM SCT006 BKN039 OVC042 15/13 A2999 RMK AO2 SLP159 T01500133 $=
201006061900 SPECI KSEA 061900Z 31003KT 10SM SCT006 BKN042 OVC049 14/13 A2998 RMK AO2 $=
201006061900 SPECI KSEA 061900Z 31003KT 10SM SCT006 BKN042 OVC049 14/13 A2998 RMK AO2 $=
201006061853 METAR KSEA 061853Z 10SM SCT004 BKN022 OVC042 14/13 A2997 RMK AO2 RAB14E23 SLP155 P0000 T01440133 $=
201006061753 METAR KSEA 061753Z 28003KT 2SM BR SCT001 BKN022 OVC048 13/13 A2997 RMK AO2 SFC VIS 6 RAE19 SLP154 P0000 60029 T01330128 10139 20122 $=
201006061745 SPECI KSEA 061745Z 32004KT 2SM BR SCT001 BKN022 OVC055 13/12 A2997 RMK AO2 SFC VIS 5 RAE19 P0000 $=
201006061745 SPECI KSEA 061745Z 32004KT 2SM BR SCT001 BKN022 OVC055 13/12 A2997 RMK AO2 SFC VIS 5 RAE19 P0000 $=
201006061708 SPECI KSEA 061708Z 30005KT 1 1/2SM -RA BR BKN001 BKN022 OVC055 13/12 A2998 RMK AO2 SFC VIS 3 P0000 $=
201006061708 SPECI KSEA 061708Z 30005KT 1 1/2SM -RA BR BKN001 BKN022 OVC055 13/12 A2998 RMK AO2 SFC VIS 3 P0000 $=
201006061704 SPECI KSEA 061704Z 29006KT 1 1/2SM -RA BR FEW003 BKN030 OVC055 13/12 A2998 RMK AO2 SFC VIS 3 P0000 $=
201006061704 SPECI KSEA 061704Z 29006KT 1 1/2SM -RA BR FEW003 BKN030 OVC055 13/12 A2998 RMK AO2 SFC VIS 3 P0000 $=
201006061653 METAR KSEA 061653Z 30005KT 10SM -RA FEW012 BKN030 OVC050 13/13 A2998 RMK AO2 RAB28 SLP158 P0002 T01330128 $=
201006061634 SPECI KSEA 061634Z 32004KT 7SM -RA FEW012 BKN030 OVC050 13/12 A2998 RMK AO2 RAB28 P0002 $=
201006061634 SPECI KSEA 061634Z 32004KT 7SM -RA FEW012 BKN030 OVC050 13/12 A2998 RMK AO2 RAB28 P0002 $=
201006061553 METAR KSEA 061553Z 00000KT 4SM RA BR FEW025 BKN040 OVC050 13/12 A2999 RMK AO2 SLP160 P0002 T01330122 $=
201006061453 METAR KSEA 061453Z 11007KT 7SM -RA FEW023 BKN034 OVC070 13/12 A3000 RMK AO2 SLP163 P0007 60025 T01330122 50003 $=
201006061353 METAR KSEA 061353Z 12008KT 5SM RA BR FEW010 BKN044 OVC050 13/12 A3001 RMK AO2 SLP167 P0010 T01280117 $=
201006061253 METAR KSEA 061253Z COR 16004KT 6SM -RA BR FEW020 BKN040 OVC060 12/11 A3000 RMK AO2 SLP165 P0008 T01220106 $=
201006061153 METAR KSEA 061153Z 00000KT 10SM -RA FEW010 BKN040 OVC060 13/11 A2999 RMK AO2 RAB01 SLP160 P0001 6//// 7//// T01330106 10150 20133 $=
201006061053 METAR KSEA 061053Z 21003KT 10SM SCT050 OVC100 14/09 A2999 RMK AO2 SLP160 T01390089 $=
201006061000 METAR KSEA NIL=
201006060953 METAR KSEA 060953Z 04005KT 10SM BKN100 OVC200 15/08 A2999 RMK AO2 SLP159 T01500083=
201006060853 METAR KSEA 060853Z 03005KT 10SM BKN100 OVC200 15/07 A2999 RMK AO2 SLP161 T01500072 56011=
201006060753 METAR KSEA 060753Z 36008KT 10SM BKN100 OVC200 14/08 A3000 RMK AO2 SLP165 T01390083 402060094=
201006060653 METAR KSEA 060653Z 01004KT 10SM BKN120 OVC200 15/07 A3001 RMK AO2 SLP168 T01500072=
201006060553 METAR KSEA 060553Z 00000KT 10SM FEW100 BKN200 15/07 A3002 RMK AO2 SLP172 T01500072 10206 20150 56008=
201006060453 METAR KSEA 060453Z 35004KT 10SM FEW100 BKN200 16/07 A3003 RMK AO2 SLP174 T01610067=
201006060353 METAR KSEA 060353Z COR 36006KT 10SM FEW100 BKN200 17/07 A3003 RMK AO2 SLP174 T01670067=
201006060253 METAR KSEA 060253Z 01005KT 10SM FEW050 BKN200 18/06 A3005 RMK AO2 SLP180 T01830061 56009=
201006060153 METAR KSEA 060153Z 35007KT 10SM FEW050 BKN250 19/06 A3005 RMK AO2 SLP180 T01890061=
201006060053 METAR KSEA 060053Z 31007KT 10SM FEW050 BKN250 20/07 A3006 RMK AO2 SLP186 T02000072=
201006052353 METAR KSEA 052353Z 31010KT 10SM FEW050 SCT250 19/07 A3007 RMK AO2 SLP189 T01940067 10206 20156 56019=
201006052253 METAR KSEA 052253Z 35008KT 10SM FEW040 SCT250 20/07 A3008 RMK AO2 SLP192 T02000072=
201006052153 METAR KSEA 052153Z 30008KT 10SM FEW040 SCT250 19/07 A3012 RMK AO2 SLP204 T01940072=
201006052053 METAR KSEA 052053Z 33010KT 10SM FEW040 SCT250 19/08 A3013 RMK AO2 SLP209 T01940078 58014=
201006051953 METAR KSEA 051953Z 31009KT 10SM FEW040 SCT250 17/08 A3016 RMK AO2 SLP218 T01720083=
201006051853 METAR KSEA 051853Z 35009KT 10SM FEW030 SCT250 17/07 A3016 RMK AO2 SLP218 T01670072=
201006051753 METAR KSEA 051753Z 04006KT 10SM SCT030 16/07 A3017 RMK AO2 SLP224 T01560067 10161 20094 58010=
201006051653 METAR KSEA 051653Z 00000KT 10SM FEW025 SCT250 14/07 A3020 RMK AO2 SLP232 T01390072=
201006051553 METAR KSEA 051553Z 33003KT 10SM FEW020 SCT250 13/07 A3020 RMK AO2 SLP234 T01280072=
201006051548 SPECI KSEA 051548Z 00000KT 10SM FEW020 SCT050 12/07 A3020 RMK AO2=
201006051548 SPECI KSEA 051548Z 00000KT 10SM FEW020 SCT050 12/07 A3020 RMK AO2=
201006051536 SPECI KSEA 051536Z 00000KT 10SM BKN019 12/07 A3020 RMK AO2=
201006051536 SPECI KSEA 051536Z 00000KT 10SM BKN019 12/07 A3020 RMK AO2=
201006051453 METAR KSEA 051453Z 00000KT 10SM FEW025 SCT050 12/07 A3020 RMK AO2 SLP234 T01220067 51011=
201006051353 METAR KSEA 051353Z 16004KT 10SM SCT050 11/07 A3020 RMK AO2 SLP232 T01060067=
201006051253 METAR KSEA 051253Z 00000KT 10SM BKN045 10/07 A3019 RMK AO2 SLP228 T01000067=
201006051153 METAR KSEA 051153Z 11005KT 10SM OVC040 10/07 A3017 RMK AO2 SLP223 70009 T01000067 10117 20094 50008=
201006051053 METAR KSEA 051053Z 17004KT 10SM SCT025 BKN030 OVC040 10/07 A3017 RMK AO2 SLP223 T01000067=
201006051003 SPECI KSEA 051003Z 17004KT 10SM SCT025 BKN030 OVC040 11/07 A3017 RMK AO2=
201006051003 SPECI KSEA 051003Z 17004KT 10SM SCT025 BKN030 OVC040 11/07 A3017 RMK AO2=
201006050953 METAR KSEA 050953Z 14005KT 10SM BKN027 OVC035 11/07 A3017 RMK AO2 SLP221 T01060067=
201006050853 METAR KSEA 050853Z 15006KT 10SM FEW025 BKN030 OVC045 11/07 A3015 RMK AO2 SLP215 T01110067 51020=
201006050753 METAR KSEA 050753Z 18004KT 10SM BKN030 OVC060 11/07 A3013 RMK AO2 SLP209 T01110072 401610094=
201006050727 SPECI KSEA 050727Z 20005KT 10SM BKN030 OVC060 12/07 A3012 RMK AO2=
201006050727 SPECI KSEA 050727Z 20005KT 10SM BKN030 OVC060 12/07 A3012 RMK AO2=
201006050653 METAR KSEA 050653Z 21006KT 10SM BKN027 OVC050 12/08 A3011 RMK AO2 SLP202 T01170078=
201006050642 SPECI KSEA 050642Z 20006KT 10SM BKN027 OVC050 12/07 A3010 RMK AO2=
201006050642 SPECI KSEA 050642Z 20006KT 10SM BKN027 OVC050 12/07 A3010 RMK AO2=
201006050553 METAR KSEA 050553Z 17006KT 10SM FEW027 BKN070 12/09 A3009 RMK AO2 SLP194 T01170094 10161 20117 52021=
201006050453 METAR KSEA 050453Z 03003KT 10SM FEW025 OVC070 13/09 A3007 RMK AO2 SLP187 T01280089=
201006050353 METAR KSEA 050353Z 01005KT 10SM SCT040 BKN065 13/10 A3004 RMK AO2 SLP180 T01280100=
201006050253 METAR KSEA 050253Z 24003KT 10SM FEW030 SCT050 BKN075 14/10 A3002 RMK AO2 SLP173 T01440100 53022=
201006050153 METAR KSEA 050153Z 26005KT 10SM FEW025 BKN050 BKN070 16/08 A3000 RMK AO2 SLP163 T01560078=
201006050053 METAR KSEA 050053Z 23006KT 10SM FEW030 BKN047 BKN060 16/07 A2997 RMK AO2 SLP155 T01610067=
201006042353 METAR KSEA 042353Z 18007KT 10SM FEW030 BKN043 BKN060 16/08 A2996 RMK AO2 SLP150 60000 T01610078 10161 20111 51017=
201006042253 METAR KSEA 042253Z 21006KT 10SM SCT030 BKN050 OVC060 15/09 A2995 RMK AO2 RAB21E53 SLP147 P0000 T01500094=
201006042153 METAR KSEA 042153Z 21007KT 10SM SCT030 BKN050 BKN070 16/09 A2992 RMK AO2 SLP139 SHRA DSNT SE AND W T01560089=
201006042053 METAR KSEA 042053Z 18005KT 10SM FEW025 SCT036 BKN060 16/08 A2991 RMK AO2 SLP133 SHRA DSNT W T01560078 51027=
201006041953 METAR KSEA 041953Z VRB04KT 10SM SCT020 BKN041 14/08 A2989 RMK AO2 SLP127 T01440078=
201006041928 SPECI KSEA 041928Z VRB03KT 10SM SCT014 BKN036 BKN047 13/08 A2988 RMK AO2=
201006041928 SPECI KSEA 041928Z VRB03KT 10SM SCT014 BKN036 BKN047 13/08 A2988 RMK AO2=
201006041853 METAR KSEA 041853Z 26005KT 10SM SCT011 BKN018 OVC043 12/08 A2986 RMK AO2 SLP119 T01220083=
201006041807 SPECI KSEA 041807Z 25005KT 10SM SCT010 BKN015 OVC046 12/09 A2983 RMK AO2=
201006041807 SPECI KSEA 041807Z 25005KT 10SM SCT010 BKN015 OVC046 12/09 A2983 RMK AO2=
201006041753 METAR KSEA 041753Z 27004KT 10SM BKN009 BKN016 OVC046 11/09 A2983 RMK AO2 SLP106 60009 T01110089 10117 20094 53031=
201006041653 METAR KSEA 041653Z 33003KT 10SM BKN008 OVC013 11/09 A2979 RMK AO2 RAE06 SLP093 P0000 T01110089=
201006041553 METAR KSEA 041553Z 35005KT 10SM -RA BKN005 OVC011 11/09 A2976 RMK AO2 SLP082 P0000 T01060089=
201006041453 METAR KSEA 041453Z 36006KT 8SM -RA BKN004 OVC008 10/08 A2973 RMK AO2 SLP074 P0003 60009 T01000083 53022=
201006041353 METAR KSEA 041353Z 33006KT 6SM -RA BR BKN003 OVC060 09/08 A2971 RMK AO2 SLP066 P0003 T00940083=
201006041338 SPECI KSEA 041338Z 35007KT 4SM -RA BR BKN003 OVC060 09/08 A2970 RMK AO2 P0002=
201006041338 SPECI KSEA 041338Z 35007KT 4SM -RA BR BKN003 OVC060 09/08 A2970 RMK AO2 P0002=
201006041253 METAR KSEA 041253Z 36007KT 2 1/2SM -RA BR BKN003 OVC035 09/08 A2968 RMK AO2 SLP056 P0003 T00940083=
201006041159 SPECI KSEA 041159Z 35008KT 6SM RA BR BKN003 OVC035 09/08 A2967 RMK AO2 P0000=
201006041159 SPECI KSEA 041159Z 35008KT 6SM RA BR BKN003 OVC035 09/08 A2967 RMK AO2 P0000=
201006041153 METAR KSEA 041153Z 36007KT 6SM -RA BR SCT003 OVC025 09/08 A2967 RMK AO2 SLP052 P0002 60010 70012 T00940083 10122 20094 56013=
201006041132 SPECI KSEA 041132Z 36008KT 6SM -RA BR SCT003 OVC050 09/08 A2967 RMK AO2 P0001=
201006041132 SPECI KSEA 041132Z 36008KT 6SM -RA BR SCT003 OVC050 09/08 A2967 RMK AO2 P0001=
201006041053 METAR KSEA 041053Z 35006KT 6SM -RA BR OVC050 09/08 A2968 RMK AO2 SLP055 P0005 T00940083=
201006040953 METAR KSEA 040953Z 36006KT 10SM -RA BKN043 OVC050 11/09 A2969 RMK AO2 SLP058 P0002 T01060089=
201006040853 METAR KSEA 040853Z 35004KT 10SM -RA BKN043 OVC055 11/09 A2971 RMK AO2 SLP065 P0000 60001 T01060089 56024=
201006040753 METAR KSEA 040753Z 02005KT 10SM -RA BKN060 OVC070 11/08 A2972 RMK AO2 SLP071 P0001 T01110083 401720078=
201006040653 METAR KSEA 040653Z 00000KT 10SM -RA OVC050 11/09 A2975 RMK AO2 SLP080 P0000 T01110094=
201006040553 METAR KSEA 040553Z 20003KT 10SM -RA OVC060 12/09 A2978 RMK AO2 SLP090 P0002 60002 T01220089 10167 20117 57012=
201006040453 METAR KSEA 040453Z 00000KT 10SM -RA SCT060 BKN080 OVC100 13/07 A2979 RMK AO2 SLP095 P0000 T01330067=
201006040353 METAR KSEA 040353Z 00000KT 10SM -RA BKN055 BKN120 OVC200 14/07 A2980 RMK AO2 RAB40 SLP097 P0000 T01440072=
201006040253 METAR KSEA 040253Z 00000KT 10SM SCT055 BKN140 OVC220 15/04 A2981 RMK AO2 SLP102 T01500039 56017=
201006040153 METAR KSEA 040153Z 22003KT 10SM SCT060 SCT140 OVC220 16/04 A2983 RMK AO2 SLP108 T01560039=
201006040053 METAR KSEA 040053Z 30004KT 10SM FEW050 SCT150 BKN220 16/03 A2984 RMK AO2 SLP112 T01610033=
201006032353 METAR KSEA 032353Z VRB04KT 10SM FEW050 SCT150 BKN250 17/03 A2987 RMK AO2 SLP120 T01670033 10172 20128 56026=
201006032253 METAR KSEA 032253Z 26006KT 10SM FEW050 BKN250 16/03 A2988 RMK AO2 SLP125 T01610028=
201006032153 METAR KSEA 032153Z VRB04KT 10SM SCT055 BKN250 17/04 A2990 RMK AO2 SLP131 T01670039=
201006032053 METAR KSEA 032053Z 00000KT 10SM SCT038 SCT055 BKN200 16/04 A2994 RMK AO2 SLP146 T01560039 58013=
201006031953 METAR KSEA 031953Z 00000KT 10SM BKN037 BKN050 BKN200 14/04 A2995 RMK AO2 SLP149 T01440044=
201006031853 METAR KSEA 031853Z 00000KT 10SM SCT035 BKN046 BKN250 14/04 A2997 RMK AO2 SLP156 T01390044=
201006031753 METAR KSEA 031753Z 22005KT 10SM SCT031 BKN250 13/05 A2998 RMK AO2 SLP159 T01330050 10133 20078 58004=
201006031653 METAR KSEA 031653Z 22004KT 10SM SCT022 BKN250 12/06 A3000 RMK AO2 SLP164 T01220056=
201006031553 METAR KSEA 031553Z 16004KT 10SM SCT020 SCT250 11/06 A2999 RMK AO2 SLP162 T01110061=
201006031453 METAR KSEA 031453Z 17007KT 10SM SCT015 SCT250 11/06 A2999 RMK AO2 SLP163 T01060061 53007=
201006031353 METAR KSEA 031353Z 19009KT 10SM SCT013 SCT060 SCT250 09/06 A2998 RMK AO2 SLP160 T00940061=
201006031331 SPECI KSEA 031331Z 20011KT 10SM SCT013 SCT060 BKN200 09/06 A2999 RMK AO2=
201006031331 SPECI KSEA 031331Z 20011KT 10SM SCT013 SCT060 BKN200 09/06 A2999 RMK AO2=
201006031253 METAR KSEA 031253Z 17006KT 10SM BKN013 BKN080 08/06 A2998 RMK AO2 SLP159 T00780061=
201006031244 SPECI KSEA 031244Z 15005KT 10SM OVC013 08/06 A2998 RMK AO2=
201006031244 SPECI KSEA 031244Z 15005KT 10SM OVC013 08/06 A2998 RMK AO2=
201006031153 METAR KSEA 031153Z 15006KT 10SM BKN015 08/06 A2997 RMK AO2 SLP156 70023 T00780061 10100 20078 50007=
201006031151 SPECI KSEA 031151Z 15006KT 10SM BKN015 08/06 A2997 RMK AO2=
201006031151 SPECI KSEA 031151Z 15006KT 10SM BKN015 08/06 A2997 RMK AO2=
201006031053 METAR KSEA 031053Z 18009KT 10SM FEW022 08/06 A2997 RMK AO2 SLP154 T00830056=
201006030953 METAR KSEA 030953Z 19006KT 10SM CLR 08/06 A2995 RMK AO2 SLP149 T00780056=
201006030853 METAR KSEA 030853Z 18005KT 10SM FEW018 09/06 A2995 RMK AO2 SLP149 T00890061 53017=
201006030753 METAR KSEA 030753Z 19012KT 10SM SCT030 09/06 A2993 RMK AO2 SLP141 T00940056 401670094=
201006030653 METAR KSEA 030653Z 20015G23KT 10SM FEW022 SCT028 10/06 A2992 RMK AO2 SLP137 T01000061=
201006030553 METAR KSEA 030553Z 21014G24KT 10SM FEW045 10/06 A2990 RMK AO2 SLP132 T01000056 10150 20100 53037=
201006030453 METAR KSEA 030453Z 20013KT 10SM FEW045 SCT060 11/06 A2986 RMK AO2 SLP117 T01060061=
201006030353 METAR KSEA 030353Z 21013G22KT 10SM FEW045 BKN060 11/06 A2982 RMK AO2 SLP105 T01110061=
201006030253 METAR KSEA 030253Z 24014G24KT 10SM FEW022 SCT025 BKN045 12/07 A2979 RMK AO2 SLP095 T01220072 53027=
201006030153 METAR KSEA 030153Z 22009KT 10SM FEW023 SCT027 BKN042 14/09 A2976 RMK AO2 SLP082 T01390094=
201006030053 METAR KSEA 030053Z 22010KT 10SM SCT023 SCT028 BKN035 14/09 A2974 RMK AO2 SLP076 T01440094=
201006022353 METAR KSEA 022353Z 25012KT 10SM SCT021 BKN030 BKN070 15/11 A2971 RMK AO2 SLP066 60005 T01500106 10167 20144 53014=
201006022323 SPECI KSEA 022323Z 24012G16KT 10SM FEW017 BKN022 BKN028 16/11 A2970 RMK AO2=
201006022323 SPECI KSEA 022323Z 24012G16KT 10SM FEW017 BKN022 BKN028 16/11 A2970 RMK AO2=
201006022253 METAR KSEA 022253Z 22009KT 10SM FEW018 BKN030 BKN070 16/13 A2968 RMK AO2 SLP057 T01610128=
201006022153 METAR KSEA 022153Z 23009KT 10SM FEW014 BKN019 BKN065 16/13 A2967 RMK AO2 RAE00B18E51 SLP053 P0001 T01610133=
201006022053 METAR KSEA 022053Z 22010KT 8SM -RA FEW012 BKN023 BKN040 15/14 A2967 RMK AO2 SLP053 P0003 60004 T01500139 53007=
201006022038 SPECI KSEA 022038Z 21012G19KT 6SM -RA BR FEW011 BKN022 OVC035 15/13 A2967 RMK AO2 P0003=
201006022038 SPECI KSEA 022038Z 21012G19KT 6SM -RA BR FEW011 BKN022 OVC035 15/13 A2967 RMK AO2 P0003=
201006022016 SPECI KSEA 022016Z 22015G22KT 2 1/2SM RA BR FEW009 BKN017 OVC038 14/13 A2966 RMK AO2 P0003=
201006022016 SPECI KSEA 022016Z 22015G22KT 2 1/2SM RA BR FEW009 BKN017 OVC038 14/13 A2966 RMK AO2 P0003=
201006021953 METAR KSEA 021953Z 24011G17KT 4SM -RA FEW015 BKN023 OVC049 16/13 A2966 RMK AO2 RAB20 SLP048 P0001 T01610133=
201006021853 METAR KSEA 021853Z 18011G16KT 10SM FEW012 BKN017 OVC035 17/14 A2965 RMK AO2 RAB06E43 SLP046 P0000 T01670139=
201006021753 METAR KSEA 021753Z 15010KT 10SM BKN028 OVC035 16/14 A2965 RMK AO2 RAE00B24E33 SLP045 P0000 60018 T01560139 10156 20128 53001=
201006021731 SPECI KSEA 021731Z 14009KT 10SM -RA BKN027 OVC035 15/13 A2965 RMK AO2 RAE00B24 P0000=
201006021731 SPECI KSEA 021731Z 14009KT 10SM -RA BKN027 OVC035 15/13 A2965 RMK AO2 RAE00B24 P0000=
201006021653 METAR KSEA 021653Z 15005KT 10SM -RA FEW020 BKN037 OVC050 14/13 A2964 RMK AO2 SLP044 P0002 T01440128=
201006021553 METAR KSEA 021553Z 14008KT 6SM -RA BR SCT031 OVC042 13/12 A2964 RMK AO2 SLP043 P0005 T01330122=
201006021453 METAR KSEA 021453Z 13008KT 6SM -RA BR BKN038 OVC050 13/12 A2965 RMK AO2 SLP045 P0005 60011 T01330117 56014=
201006021353 METAR KSEA 021353Z 11006KT 5SM -RA BR OVC034 13/12 A2966 RMK AO2 SLP048 P0002 T01330117=
201006021253 METAR KSEA 021253Z 13006KT 7SM -RA SCT035 BKN046 OVC055 13/12 A2967 RMK AO2 SLP052 P0004 T01330117=
201006021153 METAR KSEA 021153Z 14007KT 10SM -RA SCT045 BKN060 OVC080 13/12 A2969 RMK AO2 RAB09E26B50 SLP059 P0000 60023 70029 T01330117 10133 20128 58016=
201006021053 METAR KSEA 021053Z 14010KT 10SM FEW032 BKN055 OVC070 13/12 A2970 RMK AO2 RAE42 SLP062 P0002 T01280117=
201006020953 METAR KSEA 020953Z 15005KT 9SM -RA BKN030 OVC046 13/12 A2973 RMK AO2 SLP073 P0007 T01280117=
201006020853 METAR KSEA 020853Z 16007KT 10SM -RA SCT037 OVC075 13/12 A2974 RMK AO2 SLP075 P0005 60014 T01280117 56021=
201006020753 METAR KSEA 020753Z 14009KT 8SM -RA OVC041 13/12 A2975 RMK AO2 SLP079 P0005 T01280117 401670094=
201006020653 METAR KSEA 020653Z 13006KT 7SM -RA BKN046 BKN055 OVC070 13/12 A2978 RMK AO2 SLP089 P0004 T01280117=
201006020553 METAR KSEA 020553Z 11007KT 9SM -RA OVC080 13/11 A2980 RMK AO2 SLP097 P0002 60006 T01280111 10156 20128 58018=
201006020453 METAR KSEA 020453Z 12005KT 10SM -RA BKN043 BKN065 OVC075 13/11 A2983 RMK AO2 SLP106 P0003 T01330111=
201006020353 METAR KSEA 020353Z 00000KT 9SM -RA BKN042 OVC060 13/11 A2984 RMK AO2 SLP111 P0001 T01280111=
201006020253 METAR KSEA 020253Z 00000KT 10SM -RA SCT036 BKN060 OVC075 13/11 A2985 RMK AO2 SLP116 P0000 60000 T01330106 58018=
201006020153 METAR KSEA 020153Z 22003KT 10SM -RA OVC055 14/10 A2988 RMK AO2 RAE33B49 SLP124 P0000 T01390100=
201006020053 METAR KSEA 020053Z 23005KT 10SM -RA BKN048 OVC100 14/09 A2990 RMK AO2 RAE2355B43 SLP130 P0000 T01440094=
201006012353 METAR KSEA 012353Z 23008KT 10SM -RA SCT050 BKN060 OVC120 16/08 A2991 RMK AO2 RAB38 SLP134 P0000 60000 T01560083 10167 20139 57011=
201006012253 METAR KSEA 012253Z 25006KT 10SM FEW042 BKN055 OVC120 17/08 A2992 RMK AO2 SLP137 T01670083=
201006012153 METAR KSEA 012153Z 20005KT 10SM FEW030 BKN049 OVC100 16/09 A2993 RMK AO2 SLP143 T01560089=
201006012053 METAR KSEA 012053Z 19007KT 10SM BKN040 BKN065 OVC120 16/09 A2994 RMK AO2 SLP145 T01610094 58006=
201006011953 METAR KSEA 011953Z 22006KT 10SM SCT035 BKN075 OVC120 16/09 A2995 RMK AO2 SLP148 T01560089=
201006011853 METAR KSEA 011853Z 22007KT 10SM SCT030 BKN070 BKN120 15/09 A2995 RMK AO2 SLP150 T01500089=
201006011753 METAR KSEA 011753Z 25006KT 10SM SCT023 BKN080 OVC120 14/08 A2996 RMK AO2 SLP151 T01390078 10144 20094 55004=
201006011742 SPECI KSEA 011742Z 24006KT 10SM SCT022 BKN080 OVC120 14/08 A2996 RMK AO2=
201006011742 SPECI KSEA 011742Z 24006KT 10SM SCT022 BKN080 OVC120 14/08 A2996 RMK AO2=
201006011728 SPECI KSEA 011728Z VRB04KT 10SM BKN022 BKN038 OVC120 14/08 A2996 RMK AO2=
201006011728 SPECI KSEA 011728Z VRB04KT 10SM BKN022 BKN038 OVC120 14/08 A2996 RMK AO2=
201006011719 SPECI KSEA 011719Z 20008KT 10SM R16C/3500VP6000FT BKN020 BKN038 OVC120 14/08 A2996 RMK AO2=
201006011719 SPECI KSEA 011719Z 20008KT 10SM R16C/3500VP6000FT BKN020 BKN038 OVC120 14/08 A2996 RMK AO2=
201006011653 METAR KSEA 011653Z 20004KT 10SM SCT017 BKN038 BKN120 14/09 A2996 RMK AO2 SLP151 T01440094=
201006011553 METAR KSEA 011553Z 14006KT 10SM FEW012 BKN037 BKN120 13/08 A2996 RMK AO2 SLP153 T01280083=
201006011453 METAR KSEA 011453Z 17005KT 10SM FEW012 BKN038 BKN060 12/08 A2997 RMK AO2 SLP155 T01170083 53001=
201006011353 METAR KSEA 011353Z 16007KT 10SM FEW015 SCT030 BKN060 11/08 A2996 RMK AO2 PK WND 33029/1300 SLP153 T01060083=
201006011253 METAR KSEA 011253Z 15007KT 10SM FEW015 OVC060 10/08 A2997 RMK AO2 SLP153 T01000078=
201006011242 SPECI KSEA 011242Z 15005KT 10SM BKN015 OVC060 10/08 A2997 RMK AO2=
201006011242 SPECI KSEA 011242Z 15005KT 10SM BKN015 OVC060 10/08 A2997 RMK AO2=
201006011153 METAR KSEA 011153Z COR 17006KT 10SM SCT010 OVC013 10/08 A2997 RMK AO2 SLP155 70023 T01000078 10117 20100 50002=
201006011117 SPECI KSEA 011117Z 20006KT 10SM BKN010 OVC015 10/08 A2998 RMK AO2=
201006011117 SPECI KSEA 011117Z 20006KT 10SM BKN010 OVC015 10/08 A2998 RMK AO2=
201006011053 METAR KSEA 011053Z 22007KT 10SM BKN015 OVC020 10/08 A2998 RMK AO2 SLP157 T01000078=
201006010953 METAR KSEA 010953Z 22007KT 10SM BKN015 OVC020 11/08 A2997 RMK AO2 SLP154 T01060078=
201006010945 SPECI KSEA 010945Z 22007KT 10SM OVC013 11/08 A2997 RMK AO2=
201006010945 SPECI KSEA 010945Z 22007KT 10SM OVC013 11/08 A2997 RMK AO2=
201006010853 METAR KSEA 010853Z COR 24004KT 10SM OVC013 11/08 A2997 RMK AO2 SLP154 T01060083 58001=
201006010753 METAR KSEA 010753Z 23007KT 10SM BKN013 OVC018 11/08 A2997 RMK AO2 SLP155 T01110083 401830111=
201006010653 METAR KSEA 010653Z 20004KT 10SM BKN016 OVC020 11/08 A2997 RMK AO2 SLP154 T01110083=
201006010610 SPECI KSEA 010610Z 20006KT 10SM BKN020 BKN050 11/08 A2997 RMK AO2=
201006010610 SPECI KSEA 010610Z 20006KT 10SM BKN020 BKN050 11/08 A2997 RMK AO2=
201006010553 METAR KSEA 010553Z 23009KT 10SM FEW020 SCT070 11/08 A2997 RMK AO2 SLP154 T01110078 10178 20111 51013=
201006010453 METAR KSEA 010453Z 23011KT 10SM FEW020 SCT050 12/08 A2996 RMK AO2 SLP150 T01170078=
201006010353 METAR KSEA 010353Z 21009KT 10SM FEW020 SCT050 SCT200 12/08 A2994 RMK AO2 SLP146 T01220083=
201006010253 METAR KSEA 010253Z 23012KT 10SM SCT040 SCT200 14/08 A2993 RMK AO2 SLP141 T01390083 52010=
201006010153 METAR KSEA 010153Z 24014KT 10SM FEW040 SCT090 16/09 A2992 RMK AO2 SLP136 T01560094=
201006010053 METAR KSEA 010053Z 23013G20KT 10SM SCT040 17/10 A2991 RMK AO2 SLP133 T01670100=

# No short TAF reports from KSEA in databse.

###################################
#  large TAF from KSEA
###################################
201006302327 TAF KSEA 302327Z 0100/0206 33008KT P6SM SCT050 BKN250 FM010600
                       02004KT P6SM SCT120 BKN250 FM010900 18003KT
                       P6SM BKN100 BKN250 FM011500 20006KT P6SM
                       BKN100 BKN150 FM011800 22007KT P6SM SCT030
                       BKN100=
201006302102 TAF AMD KSEA 302102Z 3021/0124 34006KT P6SM SCT040 SCT250 FM010600
                       18003KT P6SM SCT100 BKN250 FM011500 20006KT
                       P6SM BKN030 BKN100=
201006301735 TAF KSEA 301735Z 3018/0124 20005KT P6SM SCT020 SCT025 BKN030 FM302000
                       22006KT P6SM SCT040 SCT250 FM302200 34006KT
                       P6SM SCT040 SCT250 FM010600 18003KT P6SM
                       SCT100 BKN250 FM011500 20006KT P6SM BKN030
                       BKN100=
201006301404 KSEA 301404Z 3014/0118 17004KT P6SM BKN018 FM301600 20005KT P6SM
                       BKN030 FM301800 22006KT P6SM SCT040 FM302200
                       VRB04KT P6SM SCT050 FM010800 18007KT P6SM
                       BKN040=
201006301306 KSEA 301306Z 3013/0118 17004KT P6SM SCT025 SCT040 FM301600 20005KT
                       P6SM BKN030 FM301800 22006KT P6SM SCT040
                       FM302200 VRB04KT P6SM SCT050 FM010800 18007KT
                       P6SM BKN040=
201006301121 TAF KSEA 301121Z 3012/0118 18008KT P6SM SCT022 BKN040
                      TEMPO 3012/3016 BKN022 BKN040 FM301800 22006KT
                       P6SM SCT030 BKN050 FM302200 VRB04KT P6SM
                       SCT050 FM010800 18007KT P6SM BKN040=
201006300934 KSEA 300934Z 3010/0112 20007KT P6SM SCT017 SCT040
                      TEMPO 3010/3014 BKN017 BKN040 FM301400 18008KT
                       P6SM BKN030 FM301800 22006KT P6SM BKN040
                       FM302200 VRB04KT P6SM SCT050 FM010800 18007KT
                       P6SM BKN040=
201006300520 TAF KSEA 300520Z 3006/0112 VRB04KT P6SM SCT040 SCT080 FM301000
                       20006KT P6SM BKN035 FM301800 22006KT P6SM
                       BKN050 FM302200 30006KT P6SM SCT050=
201006292320 TAF KSEA 292320Z 3000/0106 24006KT P6SM SCT045 BKN070 FM300200
                       23006KT P6SM SCT070 FM301000 20006KT P6SM
                       BKN025 FM301300 18006KT P6SM OVC020 FM301800
                       22006KT P6SM SCT030 BKN045 FM302200 30006KT
                       P6SM SCT045=
201006292110 KSEA 292110Z 2921/3024 24006KT P6SM SCT025 BKN050 FM292300 24006KT
                       P6SM SCT050 FM301000 20006KT P6SM BKN025
                       FM301300 18006KT P6SM OVC025 FM301800 22006KT
                       P6SM SCT030 BKN045 FM302200 30006KT P6SM
                       SCT045=
201006291736 TAF KSEA 291736Z 2918/3024 22006KT P6SM BKN018 OVC045
                      TEMPO 2918/2920 SCT018 BKN045 FM292000 22006KT
                       P6SM SCT025 BKN045 BKN200 FM292300 24006KT
                       P6SM SCT045 FM301000 20006KT P6SM BKN025
                       FM301300 18006KT P6SM OVC025 FM301800 22006KT
                       P6SM SCT030 BKN045 FM302200 30006KT P6SM
                       SCT045=
201006291501 KSEA 291501Z 2915/3018 16006KT P6SM BKN018 OVC045 FM291800 22006KT
                       P6SM SCT020 OVC045
                      TEMPO 2918/2920 BKN020 OVC045 FM292000 22006KT
                       P6SM SCT025 BKN045 BKN200 FM292300 22006KT
                       P6SM SCT045 SCT200 FM301000 20006KT P6SM
                       BKN025=
201006291306 KSEA 291306Z 2913/3018 21005KT P6SM BKN018 OVC050 FM291700 20004KT
                       P6SM SCT020 OVC050 FM292000 VRB04KT P6SM
                       SCT040 SCT200 FM301000 20006KT P6SM BKN025=
201006291125 TAF KSEA 291125Z 2912/3018 21005KT P6SM SCT020 BKN200
                      TEMPO 2912/2916 BKN020 OVC200 FM291800 VRB04KT
                       P6SM SCT040 SCT200 FM301000 20006KT P6SM
                       BKN025=
201006290901 KSEA 290901Z 2909/3012 20006KT P6SM SCT045 BKN200
                      TEMPO 2909/2912 SCT015 BKN045 BKN200 FM291200
                       20006KT P6SM BKN030 FM291800 VRB04KT P6SM
                       SCT040 FM301000 20006KT P6SM BKN030=
201006290520 TAF KSEA 290520Z 2906/3012 21010KT P6SM BKN045 BKN200 FM291000
                       20006KT P6SM BKN030 FM291800 VRB04KT P6SM
                       SCT040 FM301000 20006KT P6SM BKN030=
201006290301 KSEA 290301Z 2903/3006 24012KT P6SM SCT040 BKN200 FM290700 22008KT
                       P6SM BKN040 FM291100 20006KT P6SM BKN025
                       FM291800 VRB04KT P6SM SCT040=
201006282320 TAF KSEA 282320Z 2900/3006 22010KT P6SM VCSH FEW030 BKN060 BKN250
                       FM290700 20006KT P6SM BKN025 OVC060 FM291100
                       19004KT P6SM BKN018 OVC025 FM291800 20006KT
                       P6SM BKN025 BKN070 FM292000 26008KT P6SM
                       SCT030 BKN070 FM292200 32006KT P6SM BKN070=
201006282104 KSEA 282104Z 2821/2924 20008KT P6SM FEW025 BKN060 BKN250 FM290700
                       20005KT P6SM BKN025 OVC060 FM291100 19004KT
                       P6SM BKN018 OVC025 FM291800 20006KT P6SM
                       BKN025 BKN070 FM292000 26008KT P6SM SCT030
                       BKN070=
201006281742 TAF KSEA 281742Z 2818/2924 VRB03KT P6SM SCT018 SCT028 BKN070
                      TEMPO 2818/2819 BKN018 FM282000 23007KT P6SM
                       VCSH BKN070 FM290600 21005KT P6SM VCSH BKN025
                       OVC050 FM291100 20004KT P6SM BKN018 OVC025
                       FM291800 22007KT P6SM BKN025 BKN070 FM292000
                       26007KT P6SM SCT030 BKN070=
201006281503 KSEA 281503Z 2815/2918 VRB03KT P6SM SCT018 BKN028 OVC080
                      TEMPO 2815/2818 BKN018 FM282000 23007KT P6SM
                       VCSH BKN040 BKN080 FM290500 VRB04KT P6SM
                       VCSH BKN025 OVC050=
201006281120 TAF KSEA 281120Z 2812/2918 VRB03KT P6SM BKN030 OVC080 FM282100
                       23007KT P6SM VCSH BKN040 BKN080 FM290500
                       VRB04KT P6SM VCSH BKN025 OVC050=
201006280857 KSEA 280857Z 2809/2912 VRB04KT P6SM BKN030 OVC060 FM282100 23007KT
                       P6SM VCSH BKN040 BKN080 FM290500 VRB04KT
                       P6SM VCSH BKN025 OVC050=
201006280520 TAF KSEA 280520Z 2806/2912 35005KT P6SM BKN050 BKN100 FM281100
                       20006KT P6SM BKN030 BKN080 FM282100 23007KT
                       P6SM VCSH BKN040 FM290500 VRB03KT P6SM VCSH
                       OVC035=
201006280301 KSEA 280301Z 2803/2906 36006KT P6SM SCT035 BKN090 FM281100 20006KT
                       P6SM BKN035
                      TEMPO 2814/2818 -DZ OVC025 FM282100 23007KT
                       P6SM BKN040=
201006272339 TAF KSEA 272339Z 2800/2906 24006KT P6SM FEW035 BKN060 BKN100
                      TEMPO 2800/2802 -SHRA FM280600 VRB03KT P6SM
                       SCT035 BKN060 BKN100 FM281200 20005KT P6SM
                       SCT025 OVC035 FM281400 23009KT P6SM OVC025
                       PROB30 2814/2818 -SHRA FM282100 23009KT
                       P6SM BKN035 OVC050=
201006272104 KSEA 272104Z 2721/2824 22008KT P6SM SCT035 OVC050 FM280600 VRB03KT
                       P6SM OVC035 FM281400 22009KT P6SM OVC022
                       PROB30 2814/2818 -RA FM282100 24009KT P6SM
                       BKN030 OVC050=
201006271947 KSEA 271947Z 2720/2824 22008KT P6SM OVC050 FM280000 22008KT P6SM
                       SCT035 OVC050 FM280600 VRB03KT P6SM OVC035
                       FM281400 22009KT P6SM OVC022
                      PROB30 2814/2818 -RA FM282100 24009KT P6SM
                       BKN030 OVC050=
201006271743 TAF KSEA 271743Z 2718/2824 22008KT P6SM SCT050 BKN100 BKN200
                      TEMPO 2718/2720 BKN050 OVC100 FM272000 22008KT
                       P6SM BKN050 OVC100 FM280000 22008KT P6SM
                       SCT035 OVC050 FM280600 VRB03KT P6SM OVC035
                       FM281400 22009KT P6SM OVC022
                      PROB30 2814/2818 -RA FM282100 24009KT P6SM
                       BKN030 OVC050=
201006271520 KSEA 271520Z 2715/2818 21006KT P6SM SCT060 BKN100 BKN190 FM271900
                       23006KT P6SM BKN050 BKN120 FM280800 20008KT
                       P6SM BKN025 OVC050
                      PROB30 2808/2812 4SM -DZ BR OVC020 FM281200
                       18008KT 5SM -DZ BR OVC020=
201006271120 TAF KSEA 271120Z 2712/2818 00000KT P6SM SCT070 SCT120
                      TEMPO 2715/2719 BKN060 BKN120 FM271900 23006KT
                       P6SM BKN050 BKN120 FM280800 20008KT P6SM
                       BKN025 OVC050
                      PROB30 2808/2812 4SM -DZ BR OVC020 FM281200
                       18008KT 5SM -DZ BR OVC020=
201006270901 KSEA 270901Z 2709/2812 VRB03KT P6SM SCT050 SCT120
                      TEMPO 2713/2717 BKN050 FM272000 23006KT P6SM
                       SCT030 BKN050 FM280600 21008KT P6SM BKN025
                       OVC050
                      PROB30 2808/2812 4SM -DZ BR OVC015=
201006270520 TAF KSEA 270520Z 2706/2812 VRB03KT P6SM SCT100 SCT200 FM271200
                       VRB03KT P6SM SCT022 SCT050 BKN100
                      TEMPO 2713/2717 BKN022 FM272000 23006KT P6SM
                       SCT030 BKN050 FM280600 21008KT P6SM BKN025
                       OVC050
                      PROB30 2808/2812 4SM -DZ BR OVC015=
201006262331 TAF KSEA 262331Z 2700/2806 28005KT P6SM FEW035 SCT250 FM270600
                       VRB03KT P6SM FEW080 BKN250 FM271200 VRB04KT
                       P6SM SCT018 BKN080 FM271800 23008KT P6SM
                       SCT022 BKN040 OVC080
                      PROB30 2718/2724 -RA BKN022 OVC040 FM280000
                       23008KT P6SM BKN022 OVC040
                      PROB30 2800/2806 -RA=
201006261829 KSEA 261829Z 2618/2724 23006KT P6SM FEW028 BKN035 FM262100 26006KT
                       P6SM SCT045 FM270000 32007KT P6SM SCT250
                       FM270600 VRB03KT P6SM FEW080 BKN250 FM271200
                       VRB04KT P6SM SCT018 BKN080 FM271800 23008KT
                       P6SM BKN035 OVC080=
201006261753 TAF KSEA 261753Z 2618/2724 23006KT P6SM BKN018 OVC035 FM262000
                       23006KT P6SM BKN025 BKN035 FM262100 26006KT
                       P6SM SCT045 FM270000 32007KT P6SM SCT250
                       FM270600 VRB03KT P6SM FEW080 BKN250 FM271200
                       VRB04KT P6SM SCT018 BKN080 FM271800 23008KT
                       P6SM BKN035 OVC080=
201006261509 KSEA 261509Z 2615/2718 22005KT P6SM BKN015 OVC035 FM261800 25005KT
                       P6SM BKN022 BKN035 FM262000 32005KT P6SM
                       SCT040 SCT250 FM271200 VRB04KT P6SM BKN030
                       FM271700 VRB04KT P6SM SCT040=
201006261123 TAF KSEA 261123Z 2612/2718 19007KT P6SM OVC020 FM262000 32005KT
                       P6SM SCT040 SCT250 FM271200 VRB04KT P6SM
                       BKN030 FM271700 VRB04KT P6SM SCT040=
201006260910 KSEA 260910Z 2609/2712 23005KT P6SM BKN022 OVC035 FM261200 19007KT
                       P6SM OVC022 FM262000 32005KT P6SM SCT040
                       FM270800 32007KT P6SM BKN035=
201006260520 TAF KSEA 260520Z 2606/2712 VRB04KT P6SM BKN035 FM261000 19007KT
                       P6SM OVC022 FM262000 32005KT P6SM SCT040
                       FM270800 32007KT P6SM BKN035=
201006260401 KSEA 260401Z 2604/2706 VRB04KT P6SM BKN035 FM260900 21006KT P6SM
                       OVC025 FM261200 18006KT P6SM OVC015 FM261800
                       21006KT P6SM BKN022 FM262000 VRB04KT P6SM
                       SCT040 SCT250 FM270000 32007KT P6SM SCT250=
201006260210 KSEA 260210Z 2602/2706 VRB04KT P6SM OVC027 FM260900 21006KT P6SM
                       OVC022 FM261200 18006KT P6SM OVC015 FM261800
                       21006KT P6SM BKN022 FM262000 VRB04KT P6SM
                       SCT040 SCT250 FM270000 32007KT P6SM SCT250=
201006252329 TAF KSEA 252329Z 2600/2706 23006KT P6SM BKN035 OVC050 FM260200
                       27006KT P6SM SCT035 BKN050 FM260900 21006KT
                       P6SM BKN020 FM261200 21006KT P6SM OVC007
                       FM261800 24006KT P6SM BKN015 FM262000 27006KT
                       P6SM FEW050 SCT250 FM270000 32007KT P6SM
                       SCT250=
201006252204 KSEA 252204Z 2522/2624 23005KT P6SM BKN025 OVC035 FM260000 23005KT
                       P6SM BKN035 FM260900 21006KT P6SM OVC015
                       FM261200 21006KT P6SM OVC007 FM261800 24006KT
                       P6SM OVC015 FM262000 27006KT P6SM FEW050=
201006252102 KSEA 252102Z 2521/2624 23005KT P6SM BKN026 OVC040 FM252300 28006KT
                       P6SM SCT045 FM260900 21006KT P6SM OVC015
                       FM261200 21006KT P6SM OVC007 FM261800 24006KT
                       P6SM OVC015 FM262000 27006KT P6SM FEW050=
201006251923 KSEA 251923Z 2519/2624 25008KT P6SM SCT015 BKN025 FM252100 25008KT
                       P6SM BKN035 FM252300 28006KT P6SM SCT045
                       FM260900 21006KT P6SM OVC015 FM261200 21006KT
                       P6SM OVC007 FM261800 24006KT P6SM OVC015
                       FM262000 27006KT P6SM FEW050=
201006251741 TAF KSEA 251741Z 2518/2624 25006KT P6SM VCSH SCT007 OVC015
                      TEMPO 2518/2520 BKN007 OVC015 FM252000 25006KT
                       P6SM OVC022 FM252200 25006KT P6SM BKN035
                       FM260000 28006KT P6SM SCT045 FM260900 21006KT
                       P6SM OVC015 FM261200 21006KT P6SM OVC007
                       FM261800 24006KT P6SM OVC015 FM262000 27006KT
                       P6SM FEW050=
201006251610 KSEA 251610Z 2516/2618 23006KT P6SM SCT004 OVC009
                      TEMPO 2516/2518 3SM -DZ BR BKN004 OVC009
                       FM251800 23006KT P6SM OVC011 FM251900 23008KT
                       P6SM SCT030 BKN050 FM260000 26008KT P6SM
                       SCT050 FM260600 26006KT P6SM BKN050 FM261000
                       22005KT P6SM OVC030 FM261200 20004KT P6SM
                       SCT015 OVC020
                      TEMPO 2612/2615 P6SM OVC010=
201006251608 KSEA 251608Z 2516/2618 23006KT P6SM SCT004 OVC009
                      TEMPO 2516/2518 3SM -DZ BR BKN004 OVC009
                       FM251800 24003KT P6SM OVC011 FM251900 23008KT
                       P6SM SCT030 BKN050 FM260000 26008KT P6SM
                       SCT050 FM260600 26006KT P6SM BKN050 FM261000
                       22005KT P6SM OVC030 FM261200 20004KT P6SM
                       SCT015 OVC020
                      TEMPO 2612/2615 P6SM OVC010=
201006251507 KSEA 251507Z 2515/2618 VRB03KT 4SM BR OVC006
                      TEMPO 2515/2517 1SM -DZ BR OVC003 FM251800
                       24003KT P6SM OVC011 FM251900 23008KT P6SM
                       SCT030 BKN050 FM260000 26008KT P6SM SCT050
                       FM260600 26006KT P6SM BKN050 FM261000 22005KT
                       P6SM OVC030 FM261200 20004KT P6SM SCT015
                       OVC020
                      TEMPO 2612/2615 P6SM OVC010=
201006251406 KSEA 251406Z 2514/2618 VRB03KT 4SM BR OVC006
                      TEMPO 2514/2517 1SM -DZ BR OVC003 FM251800
                       24003KT P6SM OVC011 FM251900 23008KT P6SM
                       SCT030 BKN050 FM260000 26008KT P6SM SCT050
                       FM260600 26006KT P6SM BKN050 FM261000 22005KT
                       P6SM OVC030 FM261200 20004KT P6SM SCT015
                       OVC020
                      TEMPO 2612/2615 P6SM OVC010=
201006251349 KSEA 251349Z 2514/2618 24003KT P6SM OVC006
                      TEMPO 2514/2516 1SM -DZ BR FM251700 24003KT
                       P6SM OVC011 FM251900 23008KT P6SM SCT030
                       BKN050 FM260000 26008KT P6SM SCT050 FM260600
                       26006KT P6SM BKN050 FM261000 22005KT P6SM
                       OVC030 FM261200 20004KT P6SM SCT015 OVC020
                       TEMPO 2612/2615 P6SM OVC010=
201006251143 TAF KSEA 251143Z 2512/2618 24003KT P6SM BKN012 OVC020
                      TEMPO 2512/2515 P6SM OVC009 FM251900 23008KT
                       P6SM SCT030 BKN050 FM260000 26008KT P6SM
                       SCT050 FM260600 26006KT P6SM BKN050 FM261000
                       22005KT P6SM OVC030 FM261200 20004KT P6SM
                       SCT015 OVC020
                      TEMPO 2612/2615 P6SM OVC010=
201006251022 KSEA 251022Z 2510/2612 29003KT P6SM BKN025 OVC040 FM251200 21006KT
                       P6SM OVC020
                      TEMPO 2512/2515 P6SM OVC009 FM251900 23008KT
                       P6SM SCT030 BKN050 FM260000 26008KT P6SM
                       SCT050 FM260600 22006KT P6SM BKN050=
201006250903 KSEA 250903Z 2509/2612 29004KT P6SM BKN040 OVC200 FM251200 21006KT
                       P6SM OVC020
                      TEMPO 2512/2515 P6SM OVC009 FM251900 23008KT
                       P6SM SCT030 BKN050 FM260000 26008KT P6SM
                       SCT050 FM260600 22006KT P6SM BKN050=
201006250821 KSEA 250821Z 2508/2612 28005KT P6SM BKN040 OVC200 FM251200 21006KT
                       P6SM OVC020
                      TEMPO 2512/2515 P6SM OVC009 FM251900 23008KT
                       P6SM SCT030 BKN050 FM260000 26008KT P6SM
                       SCT050 FM260600 22006KT P6SM BKN050=
201006250532 TAF KSEA 250532Z 2506/2612 28005KT P6SM FEW050 SCT250 FM250800
                       24006KT P6SM SCT030 FM251200 21006KT P6SM
                       OVC020 FM251800 23008KT P6SM SCT030 BKN050
                       FM260000 26008KT P6SM SCT050 FM260600 22006KT
                       P6SM BKN050=
201006250328 KSEA 250328Z 2503/2606 28005KT P6SM FEW050 SCT250 FM250600 24006KT
                       P6SM SCT030
                      TEMPO 2506/2509 BKN030 FM250900 24006KT P6SM
                       OVC022 FM251200 21006KT P6SM OVC015 FM251800
                       23008KT P6SM BKN022 BKN050 FM252100 26008KT
                       P6SM SCT030 BKN050 FM260000 26008KT P6SM
                       SCT050=
201006242335 TAF KSEA 242335Z 2500/2606 28005KT P6SM FEW050 SCT250 FM250600
                       24006KT P6SM SCT030
                      TEMPO 2506/2509 BKN030 FM250900 24006KT P6SM
                       OVC022 FM251200 21006KT P6SM OVC015 FM251800
                       23008KT P6SM BKN022 BKN050 FM252100 26008KT
                       P6SM SCT030 BKN050 FM260000 26008KT P6SM
                       SCT050=
201006242108 KSEA 242108Z 2421/2524 26005KT P6SM FEW080 BKN250 FM250000 28006KT
                       P6SM SCT080 BKN250 FM250300 28006KT P6SM
                       BKN080 OVC250 FM250900 24006KT P6SM BKN025
                       OVC080 FM251200 21006KT P6SM OVC015 FM251800
                       23008KT P6SM BKN022 BKN050 FM252100 26008KT
                       P6SM SCT030 BKN050=
201006241723 TAF KSEA 241723Z 2418/2524 23006KT P6SM SCT080 BKN250
                      TEMPO 2418/2420 BKN080 BKN250 FM250000 28006KT
                       P6SM SCT080 BKN250 FM250300 28006KT P6SM
                       BKN080 OVC250 FM250900 24006KT P6SM BKN025
                       OVC080 FM251200 21006KT P6SM OVC015 FM251800
                       23008KT P6SM BKN022 BKN050 FM252100 26008KT
                       P6SM SCT030 BKN050=
201006241506 KSEA 241506Z 2415/2518 21005KT P6SM FEW100 BKN250 FM241800 20007KT
                       P6SM FEW025 BKN060 FM242000 23006KT P6SM
                       BKN100 FM250800 26006KT P6SM FEW020 OVC050
                       FM251200 22005KT P6SM OVC015=
201006241130 TAF KSEA 241130Z 2412/2518 23005KT P6SM SCT060 FM241600 20007KT
                       P6SM FEW025 BKN060 FM242000 23006KT P6SM
                       BKN100 FM250800 26006KT P6SM FEW020 OVC050
                       FM251200 22005KT P6SM OVC015=
201006240905 KSEA 240905Z 2409/2512 23005KT P6SM SCT060 FM241200 20006KT P6SM
                       BKN060 FM241600 20007KT P6SM SCT025 BKN050
                       FM242000 23006KT P6SM BKN060 FM250800 26005KT
                       P6SM FEW030 OVC050=
201006240530 TAF KSEA 240530Z 2406/2512 23005KT P6SM SCT250 FM241200 20006KT
                       P6SM SCT030 OVC060 FM241600 20007KT P6SM
                       OVC020 FM242100 23005KT P6SM SCT025 BKN045
                       FM250800 26005KT P6SM FEW030 OVC050=
201006240300 KSEA 240300Z 2403/2506 30004KT P6SM FEW120 SCT250 FM240600 23005KT
                       P6SM BKN120 OVC200 FM241200 20006KT P6SM
                       SCT030 OVC060 FM241600 20007KT P6SM OVC020
                       FM242100 23005KT P6SM SCT025 BKN045=
201006232326 TAF KSEA 232326Z 2400/2506 30004KT P6SM FEW040 SCT150 BKN250 FM240600
                       23005KT P6SM BKN120 OVC200 FM241200 20006KT
                       P6SM SCT030 OVC060 FM241600 20007KT P6SM
                       OVC020 FM242100 23005KT P6SM SCT025 BKN045=
201006232100 KSEA 232100Z 2321/2424 29005KT P6SM FEW040 SCT150 BKN200 FM240600
                       23005KT P6SM BKN120 OVC200 FM241200 20006KT
                       P6SM SCT030 OVC060 FM241600 20007KT P6SM
                       OVC020 FM242100 23005KT P6SM SCT025 BKN045=
201006231731 TAF KSEA 231731Z 2318/2424 27004KT P6SM BKN200 FM231900 31004KT
                       P6SM SCT200 FM240600 23005KT P6SM BKN120
                       OVC200 FM241200 20006KT P6SM SCT030 OVC060
                       FM241600 20007KT P6SM OVC020 FM242100 23005KT
                       P6SM SCT025 BKN045=
201006231501 KSEA 231501Z 2315/2418 00000KT P6SM BKN160 BKN220 FM231700 21006KT
                       P6SM SCT200 FM240600 23005KT P6SM OVC100
                       FM241000 20004KT P6SM OVC060 FM241500 20004KT
                       P6SM OVC020=
201006231130 TAF KSEA 231130Z 2312/2418 35004KT P6SM BKN200 FM231500 30006KT
                       P6SM FEW080 OVC120 FM232100 26007KT P6SM
                       BKN200 FM240600 23005KT P6SM OVC100 FM241000
                       20004KT P6SM OVC060 FM241500 20004KT P6SM
                       OVC020=
201006230901 KSEA 230901Z 2309/2412 36005KT P6SM BKN200 FM231200 01004KT P6SM
                       BKN150 FM231700 30006KT P6SM SCT080 OVC120
                       FM232100 26007KT P6SM BKN150 FM240300 29005KT
                       P6SM BKN200 FM241000 23005KT P6SM BKN060=
201006230548 TAF KSEA 230548Z 2306/2412 36008KT P6SM BKN250 FM230800 01004KT
                       P6SM BKN150 FM231700 30006KT P6SM SCT080
                       OVC120 FM232100 26007KT P6SM BKN150 FM240300
                       29005KT P6SM BKN200 FM241000 23005KT P6SM
                       BKN060=
201006230303 KSEA 230303Z 2303/2406 35008KT P6SM FEW040 BKN250 FM230400 01004KT
                       P6SM FEW060 BKN150 FM231700 30006KT P6SM
                       BKN080 OVC120 FM240300 29005KT P6SM BKN050
                       OVC100=
201006222328 TAF KSEA 222328Z 2300/2406 30007KT P6SM FEW045 BKN250 FM230400
                       01004KT P6SM FEW060 BKN150 FM231700 30006KT
                       P6SM BKN080 OVC120 FM240300 29005KT P6SM
                       BKN050 OVC100=
201006222104 KSEA 222104Z 2221/2324 31007KT P6SM SCT035 BKN200 FM230400 01005KT
                       P6SM FEW060 BKN150 FM231700 32006KT P6SM
                       BKN080 OVC120=
201006221732 TAF KSEA 221732Z 2218/2324 28005KT P6SM SCT020 SCT200
                      TEMPO 2218/2220 BKN018 FM222200 31007KT P6SM
                       SCT040 BKN200 FM230400 01005KT P6SM FEW060
                       BKN150 FM231700 32006KT P6SM BKN080 OVC120=
201006221504 KSEA 221504Z 2215/2318 24006KT P6SM SCT004 BKN060 FM222200 29007KT
                       P6SM SCT030 BKN200 FM230400 03004KT P6SM
                       FEW060 BKN150 FM231700 29006KT P6SM BKN080
                       OVC100=
201006221329 KSEA 221329Z 2213/2318 14003KT P6SM SCT004 SCT060 FM221500 24007KT
                       P6SM BKN060 FM222200 29007KT P6SM SCT030
                       BKN200 FM230400 03004KT P6SM FEW060 BKN150
                       FM231700 29006KT P6SM BKN080 OVC100=
201006221139 TAF KSEA 221139Z 2212/2318 14003KT P6SM SCT060 FM221400 23006KT
                       P6SM OVC020 FM221700 24007KT P6SM SCT020
                       BKN030 FM222200 29007KT P6SM SCT030 BKN200
                       FM230400 03004KT P6SM FEW060 BKN150 FM231700
                       29006KT P6SM BKN080 OVC100=
201006220905 KSEA 220905Z 2209/2312 17003KT P6SM BKN060 FM221100 22004KT P6SM
                       FEW015 BKN025 FM221300 23006KT P6SM OVC020
                       FM221700 24007KT P6SM SCT020 BKN030 FM222300
                       29007KT P6SM SCT030 BKN200 FM230800 03004KT
                       P6SM SCT030 BKN060=
201006220805 KSEA 220805Z 2208/2312 23003KT P6SM BKN060 FM221000 VRB05KT P6SM
                       OVC015 FM221500 22006KT P6SM BKN015 OVC025
                       FM221900 24007KT P6SM SCT020 BKN030 FM222300
                       29007KT P6SM SCT030 BKN200 FM230800 03004KT
                       P6SM SCT030 BKN060=
201006220541 TAF KSEA 220541Z 2206/2312 23003KT P6SM BKN060 FM220800 VRB05KT
                       P6SM OVC015 FM221500 22006KT P6SM BKN015
                       OVC025 FM221900 24007KT P6SM SCT020 BKN030
                       FM222300 29007KT P6SM SCT030 BKN200 FM230800
                       03004KT P6SM SCT030 BKN060=
201006220256 KSEA 220256Z 2203/2306 23003KT P6SM FEW025 BKN045 FM220800 VRB05KT
                       P6SM OVC015 FM221500 22006KT P6SM BKN015
                       OVC025 FM221900 24007KT P6SM SCT020 BKN030
                       FM222300 29007KT P6SM SCT030 BKN200=
201006212324 TAF KSEA 212324Z 2200/2306 24006KT P6SM SCT025 BKN035 FM220800
                       VRB05KT P6SM OVC015 FM221500 22006KT P6SM
                       BKN015 OVC025 FM221900 24007KT P6SM SCT020
                       BKN030 FM222300 29007KT P6SM SCT030 BKN200=
201006212103 KSEA 212103Z 2121/2224 24006KT P6SM SCT018 BKN028 FM220600 VRB05KT
                       P6SM OVC015 FM221500 22006KT P6SM BKN015
                       OVC025 FM222000 24007KT P6SM SCT020 BKN030=
201006211729 TAF KSEA 211729Z 2118/2224 19006KT P6SM BKN014 OVC020 FM212100
                       20006KT P6SM SCT015 OVC025 FM220600 VRB05KT
                       P6SM OVC015 FM221500 22006KT P6SM BKN015
                       OVC025 FM222000 24007KT P6SM SCT020 BKN030=
201006211457 KSEA 211457Z 2115/2218 19006KT P6SM BKN014 OVC020 FM212100 20006KT
                       P6SM SCT015 OVC025 FM220600 20006KT P6SM
                       OVC015=
201006211138 TAF KSEA 211138Z 2112/2218 20006KT P6SM SCT012 BKN022 OVC035 FM211500
                       20006KT P6SM BKN012 OVC020 FM212100 20006KT
                       P6SM SCT015 OVC025 FM220600 20006KT P6SM
                       OVC015=
201006210907 KSEA 210907Z 2109/2212 20006KT P6SM SCT008 OVC015 FM211100 20006KT
                       P6SM OVC008 FM212000 20006KT P6SM OVC015=
201006210536 TAF KSEA 210536Z 2106/2212 20006KT P6SM SCT008 OVC015 FM211100
                       20006KT P6SM OVC008 FM212000 20006KT P6SM
                       OVC015=
201006210302 KSEA 210302Z 2103/2206 20006KT P6SM SCT008 OVC015
                      TEMPO 2105/2108 4SM -RA BKN008 OVC015 FM210800
                       20006KT P6SM OVC008 FM212100 22006KT P6SM
                       BKN015 BKN030 FM220000 24007KT P6SM SCT020
                       BKN030=
201006202323 TAF KSEA 202323Z 2100/2206 17006KT P6SM SCT008 BKN018
                      TEMPO 2100/2102 4SM -RA BKN008 FM210900 20006KT
                       P6SM OVC008 FM212100 22006KT P6SM BKN015
                       BKN030 FM220000 24007KT P6SM SCT020 BKN030=
201006202102 KSEA 202102Z 2021/2124 18006KT P6SM VCSH SCT015 BKN025
                      TEMPO 2021/2024 BKN008 OVC015 FM210000 20006KT
                       P6SM BKN015 OVC025 FM210300 22006KT P6SM
                       BKN025 BKN040 FM210900 22006KT P6SM OVC010
                       TEMPO 2112/2116 OVC006 FM212100 27006KT
                       P6SM BKN020 BKN035=
201006201859 KSEA 201859Z 2019/2124 20006KT P6SM VCSH OVC012
                      TEMPO 2019/2023 -SHRA OVC008 FM210000 22006KT
                       P6SM BKN015 OVC025 FM210300 22006KT P6SM
                       BKN025 BKN040 FM210900 22006KT P6SM OVC010
                       TEMPO 2112/2116 OVC006 FM212100 27006KT
                       P6SM BKN020 BKN035=
201006201739 TAF KSEA 201739Z 2018/2124 20006KT P6SM VCSH OVC010
                      TEMPO 2018/2019 -SHRA OVC008 FM202300 22006KT
                       P6SM BKN015 OVC025 FM210300 22006KT P6SM
                       BKN025 BKN040 FM210900 22006KT P6SM OVC010
                       TEMPO 2112/2116 OVC006 FM212100 27006KT
                       P6SM BKN020 BKN035=
201006201452 KSEA 201452Z 2015/2118 20006KT P6SM OVC010
                      TEMPO 2015/2019 -SHRA FM201900 22006KT P6SM
                       OVC015 FM202300 22006KT P6SM SCT015 OVC025
                       FM210300 22006KT P6SM SCT025 BKN040 FM210900
                       22006KT P6SM OVC015=
201006201450 KSEA 201450Z 2015/2118 20006KT P6SM OVC010 FM201900 22006KT P6SM
                       OVC015 FM202300 22006KT P6SM SCT015 OVC025
                       FM210300 22006KT P6SM SCT025 BKN040 FM210900
                       22006KT P6SM OVC015=
201006201138 TAF KSEA 201138Z 2012/2118 20006KT P6SM OVC006 FM201900 22006KT
                       P6SM OVC011 FM202300 22006KT P6SM SCT015
                       BKN025 OVC040 FM210300 22006KT P6SM SCT025
                       BKN040 FM211000 22006KT P6SM OVC015=
201006200905 TAF AMD KSEA 200905Z 2009/2112 20006KT P6SM OVC006 FM201200 20006KT
                       P6SM OVC004 FM201700 20006KT P6SM OVC006
                       FM201900 22006KT P6SM BKN010 OVC020 FM202300
                       22006KT P6SM BKN025 BKN040 FM210300 22006KT
                       P6SM SCT025 BKN040 FM211000 22006KT P6SM
                       OVC015=
201006200538 TAF KSEA 200538Z 2006/2112 20006KT P6SM OVC011 FM201000 20006KT
                       P6SM BKN006 OVC011 FM201900 22006KT P6SM
                       BKN010 OVC020 FM202300 22006KT P6SM BKN025
                       BKN040 FM210300 22006KT P6SM SCT025 BKN040
                       FM211000 22006KT P6SM OVC015=
201006200310 KSEA 200310Z 2003/2106 20006KT P6SM OVC011 FM201000 20006KT P6SM
                       BKN006 OVC011 FM201900 22006KT P6SM BKN010
                       OVC025 FM202300 22006KT P6SM BKN020 BKN040=
201006192335 TAF KSEA 192335Z 2000/2106 21008KT P6SM VCSH BKN015 OVC030
                      TEMPO 2000/2002 -SHRA BKN008 OVC020 FM200300
                       22005KT P6SM BKN018 BKN040 FM201000 20005KT
                       P6SM BKN006 OVC015 FM201900 22007KT P6SM
                       BKN010 OVC025 FM202300 23007KT P6SM BKN020
                       BKN040=
201006192042 KSEA 192042Z 1921/2024 22006KT P6SM VCSH SCT010 OVC045
                      TEMPO 1921/1924 -SHRA BKN008 FM200000 23008KT
                       P6SM BKN020 FM200300 22005KT P6SM BKN035
                       FM201000 20005KT P6SM SCT006 OVC015
                      TEMPO 2013/2017 OVC006=
201006192007 KSEA 192007Z 1920/2024 22006KT P6SM VCSH SCT008 OVC045
                      TEMPO 1920/1922 -SHRA BKN008 FM200000 23008KT
                       P6SM BKN050 FM201000 20005KT P6SM SCT006
                       OVC015
                      TEMPO 2013/2017 OVC006=
201006191745 KSEA 191745Z 1918/2024 20006KT P6SM VCSH SCT006 OVC045
                      TEMPO 1918/1920 -SHRA BKN006 FM200000 23008KT
                       P6SM BKN050 FM201000 20005KT P6SM SCT006
                       OVC015
                      TEMPO 2013/2017 OVC006=
201006191720 TAF KSEA 191720Z 1918/2024 20006KT P6SM VCSH SCT022 OVC045
                      TEMPO 1918/1921 -SHRA BKN022 FM200000 23008KT
                       P6SM BKN050 FM201000 20005KT P6SM SCT006
                       OVC015
                      TEMPO 2013/2017 OVC006=
201006191459 KSEA 191459Z 1915/2018 20006KT P6SM SCT006 BKN020 OVC040
                      TEMPO 1915/1918 -SHRA BKN006 OVC018 FM191800
                       21006KT P6SM VCSH SCT022 OVC045
                      TEMPO 1918/1920 -SHRA BKN022 FM200000 23008KT
                       P6SM BKN050 FM201000 20005KT P6SM OVC015=
201006191140 TAF KSEA 191140Z 1912/2018 21006KT P6SM SCT004 BKN016 OVC050
                      TEMPO 1912/1914 BKN004 OVC012 FM191400 21006KT
                       P6SM SCT006 BKN020 OVC040
                      TEMPO 1914/1918 -SHRA BKN006 OVC018 FM191800
                       21006KT P6SM VCSH SCT022 OVC045
                      TEMPO 1918/1920 -SHRA BKN022 FM200300 23008KT
                       P6SM BKN100 FM201000 20005KT P6SM OVC015=
201006190902 TAF AMD KSEA 190902Z 1909/2012 20006KT P6SM OVC060
                      TEMPO 1912/1914 -SHRA SCT025 OVC050 FM191400
                       21006KT P6SM -SHRA BKN022 OVC040 FM192000
                       21006KT P6SM SCT025 OVC050
                      TEMPO 1920/1924 -SHRA OVC025 FM200300 23008KT
                       P6SM BKN100=
201006190520 TAF KSEA 190520Z 1906/2012 35003KT P6SM BKN050 FM190900 21005KT
                       P6SM BKN050 OVC100
                      TEMPO 1912/1914 -SHRA SCT025 OVC050 FM191400
                       21006KT P6SM -SHRA BKN022 OVC040 FM192000
                       21006KT P6SM SCT025 OVC050
                      TEMPO 1920/1924 -SHRA OVC025 FM200300 23008KT
                       P6SM BKN100=
201006182320 TAF KSEA 182320Z 1900/2006 34008KT P6SM FEW040 SCT250 FM190900
                       21005KT P6SM SCT050 BKN100
                      TEMPO 1912/1914 -SHRA SCT025 OVC050 FM191400
                       21006KT P6SM -SHRA BKN022 OVC040 FM192000
                       21006KT P6SM SCT025 OVC050
                      TEMPO 1920/1924 -SHRA OVC025=
201006182102 KSEA 182102Z 1821/1924 32008KT P6SM FEW040 BKN250 FM190900 21005KT
                       P6SM SCT050 BKN100
                      TEMPO 1912/1914 -SHRA SCT025 OVC050 FM191400
                       21006KT P6SM -SHRA BKN022 OVC040 FM192000
                       21006KT P6SM SCT025 OVC050
                      TEMPO 1920/1924 -SHRA OVC025=
201006181731 TAF KSEA 181731Z 1818/1924 35008KT P6SM FEW020 SCT050 BKN250
                      TEMPO 1818/1820 BKN020 BKN050 FM190900 21005KT
                       P6SM SCT050 BKN100
                      TEMPO 1912/1914 -SHRA SCT025 OVC050 FM191400
                       21006KT P6SM -SHRA BKN022 OVC040 FM192000
                       21006KT P6SM SCT025 OVC050
                      TEMPO 1920/1924 -SHRA OVC025=
201006181502 KSEA 181502Z 1815/1918 02006KT P6SM BKN024 BKN050
                      TEMPO 1815/1817 SCT024 BKN050 FM181700 35008KT
                       P6SM SCT028 BKN050 FM181900 35008KT P6SM
                       SCT050 FM191100 21006KT P6SM OVC050 FM191400
                       21006KT P6SM -SHRA BKN022 OVC040=
201006181140 TAF KSEA 181140Z 1812/1918 35006KT P6SM BKN010 OVC050 FM181500
                       35006KT P6SM SCT015 OVC050 FM181900 35008KT
                       P6SM SCT050 FM191100 21006KT P6SM OVC050
                       FM191400 21006KT P6SM -SHRA BKN022 OVC040=
201006180902 KSEA 180902Z 1809/1912 VRB03KT P6SM OVC050 FM181800 35008KT P6SM
                       SCT050 FM191100 VRB03KT P6SM OVC060=
201006180539 TAF KSEA 180539Z 1806/1912 31004KT P6SM OVC050 FM181000 35008KT
                       P6SM SCT035 OVC050
                      TEMPO 1810/1814 BKN035 OVC050 FM181900 35008KT
                       P6SM SCT050=
201006180351 KSEA 180351Z 1804/1906 23008KT P6SM OVC045 FM181200 VRB03KT P6SM
                       SCT015 OVC025 FM181800 35006KT P6SM BKN030
                       BKN040 FM182000 35008KT P6SM SCT050=
201006172320 TAF KSEA 172320Z 1800/1906 23008KT P6SM SCT030 BKN045 FM180600
                       VRB04KT P6SM SCT020 OVC030 FM181200 34004KT
                       P6SM SCT015 OVC025 FM181800 35006KT P6SM
                       BKN030 BKN040 FM182000 35008KT P6SM SCT050=
201006172101 KSEA 172101Z 1721/1824 21008KT P6SM SCT025 BKN040
                      TEMPO 1723/1802 SCT025 SCT040 FM180200 34006KT
                       P6SM BKN035 FM181000 34004KT P6SM OVC030
                       FM181200 VRB03KT P6SM SCT015 OVC025=
201006171720 TAF KSEA 171720Z 1718/1824 18010KT P6SM SCT015 OVC025 FM172000
                       21008KT P6SM SCT025 BKN040 FM180200 34006KT
                       P6SM BKN035 FM181000 34004KT P6SM OVC030
                       FM181200 VRB03KT P6SM SCT015 OVC025=
201006171505 KSEA 171505Z 1715/1818 18008KT P6SM SCT020 BKN030 OVC060
                      TEMPO 1715/1718 BKN020 FM171800 18008KT P6SM
                       OVC035 FM172000 21008KT P6SM SCT025 BKN035
                       FM180200 34006KT P6SM BKN040 FM181400 VRB03KT
                       P6SM BKN025=
201006171410 KSEA 171410Z 1714/1818 18008KT P6SM SCT020 BKN030 OVC060
                      TEMPO 1714/1718 BKN025 FM171800 18008KT P6SM
                       OVC035 FM172000 21008KT P6SM SCT025 BKN035
                       FM180200 34006KT P6SM BKN040 FM181400 VRB03KT
                       P6SM BKN025=
201006171138 TAF KSEA 171138Z 1712/1818 18008KT P6SM SCT035 OVC060 FM171600
                       18008KT P6SM BKN022 OVC035 FM172000 21008KT
                       P6SM SCT025 BKN035 FM180200 34006KT P6SM
                       BKN040 FM181400 VRB03KT P6SM BKN025=
201006170904 TAF AMD KSEA 170904Z 1709/1812 18006KT P6SM OVC050 FM171200 18006KT
                       P6SM OVC021 FM171900 24006KT P6SM SCT025
                       BKN035 FM180200 34006KT P6SM BKN040=
201006170538 TAF KSEA 170538Z 1706/1812 21006KT P6SM SCT025 BKN050
                      TEMPO 1708/1712 BKN025 OVC050 FM171200 21006KT
                       P6SM OVC021 FM171900 24006KT P6SM SCT025
                       BKN035 FM180200 34006KT P6SM BKN040=
201006170307 KSEA 170307Z 1703/1806 21006KT P6SM SCT035 SCT060 FM170600 21006KT
                       P6SM BKN035 OVC060 FM171000 21006KT P6SM
                       OVC012 FM172100 24006KT P6SM BKN035 FM180000
                       31006KT P6SM BKN040=
201006162329 TAF KSEA 162329Z 1700/1806 23005KT P6SM BKN035 BKN050 FM170600
                       23005KT P6SM BKN020 OVC030 FM171000 22006KT
                       P6SM OVC012 FM172100 24005KT P6SM BKN035
                       FM180000 31005KT P6SM BKN040=
201006162106 KSEA 162106Z 1621/1724 25005KT P6SM BKN022 OVC035 FM170000 22008KT
                       P6SM SCT030 BKN045
                      TEMPO 1705/1709 BKN030 FM170900 22006KT P6SM
                       OVC015 FM172000 30005KT P6SM BKN035=
201006161734 TAF KSEA 161734Z 1618/1724 18004KT P6SM BKN008 OVC015
                      TEMPO 1618/1620 5SM -RA BR FM162000 22007KT
                       P6SM BKN025 FM170000 22008KT P6SM SCT030
                       BKN050
                      TEMPO 1705/1709 BKN030 FM170900 22006KT P6SM
                       OVC015 FM172000 30005KT P6SM BKN035=
201006161622 KSEA 161622Z 1616/1718 14005KT P6SM OVC010
                      TEMPO 1616/1618 5SM -RA BR OVC005 FM161800
                       20004KT P6SM BKN020 FM162000 23008KT P6SM
                       BKN040 FM162200 24008KT P6SM SCT040 BKN060
                       FM170700 21006KT P6SM OVC020=
201006161406 KSEA 161406Z 1614/1718 16005KT P6SM SCT010 BKN015 OVC025
                      TEMPO 1614/1618 5SM -SHRA BR OVC010 FM161800
                       20004KT P6SM BKN025 FM162000 23008KT P6SM
                       BKN040 FM162200 24008KT P6SM SCT040 BKN060
                       FM170700 21006KT P6SM OVC020=
201006161120 TAF KSEA 161120Z 1612/1718 16005KT P6SM SCT008 BKN015 OVC025
                      TEMPO 1612/1616 5SM -SHRA BR FM161800 20004KT
                       P6SM BKN025 FM162000 23008KT P6SM BKN040
                       FM162200 24008KT P6SM SCT040 BKN060 FM170700
                       21006KT P6SM OVC020=
201006160902 KSEA 160902Z 1609/1712 16005KT P6SM -SHRA SCT008 BKN015 OVC045
                       FM161200 18005KT P6SM SCT008 OVC015 FM161800
                       20004KT P6SM BKN025 FM162000 23008KT P6SM
                       BKN040 FM162200 24008KT P6SM SCT040 BKN060
                       FM170600 21006KT P6SM OVC020=
201006160830 KSEA 160830Z 1609/1712 20007KT P6SM -SHRA BKN015 BKN045 FM160900
                       19004KT P6SM BKN015 FM161800 20004KT P6SM
                       BKN025 FM162000 23008KT P6SM BKN040 FM162200
                       24008KT P6SM SCT040 BKN060 FM170600 21006KT
                       P6SM OVC020=
201006160520 TAF KSEA 160520Z 1606/1712 20007KT P6SM -SHRA SCT020 BKN045 FM160900
                       19004KT P6SM BKN020 OVC030 FM162000 23008KT
                       P6SM BKN040 FM162200 24008KT P6SM SCT040
                       BKN060 FM170600 21006KT P6SM OVC020=
201006160310 KSEA 160310Z 1603/1706 27007KT P6SM VCSH SCT045 SCT080
                      TEMPO 1603/1605 6SM SHRA BKN045 FM160600
                       25006KT P6SM SCT020 BKN040 FM160900 19004KT
                       P6SM BKN020 OVC030 FM162000 23008KT P6SM
                       BKN040=
201006160114 KSEA 160114Z 1601/1706 30006KT P6SM VCSH SCT045 SCT080 FM160300
                       23005KT P6SM VCSH SCT045 SCT080 FM161000
                       19004KT P6SM BKN020 OVC030 FM162000 23008KT
                       P6SM BKN040=
201006152336 KSEA 152336Z 1600/1706 30006KT P6SM VCTS SCT030 BKN045CB
                      TEMPO 1600/1603 SCT060CB FM160300 23005KT
                       P6SM VCSH SCT025 BKN040 FM161000 19004KT
                       P6SM BKN020 OVC030 FM162000 23008KT P6SM
                       BKN040=
201006152320 TAF KSEA 152320Z 1600/1706 30006KT P6SM VCTS SCT025 BKN040CB FM160300
                       23005KT P6SM VCSH BKN025 BKN040 FM161000
                       19004KT P6SM BKN020 OVC030 FM162000 23008KT
                       P6SM BKN040=
201006152005 KSEA 152005Z 1520/1624 30005KT P6SM VCTS SCT025 BKN045CB FM160300
                       23005KT P6SM VCSH BKN025 BKN040 FM160900
                       VRB04KT P6SM BKN020 OVC030 FM162000 23008KT
                       P6SM BKN040=
201006151801 KSEA 151801Z 1518/1624 14005KT P6SM -SHRA SCT012 BKN020 OVC040
                       TEMPO 1518/1520 3SM SHRA BKN012 FM152000
                       30007KT P6SM VCTS BKN025 BKN040CB FM160300
                       23005KT P6SM VCSH BKN025 BKN040 FM160900
                       VRB04KT P6SM BKN020 OVC030 FM162000 23008KT
                       P6SM BKN040=
201006151739 TAF KSEA 151739Z 1518/1624 14005KT P6SM -SHRA BKN012 OVC021
                      TEMPO 1518/1520 3SM SHRA FM152000 30007KT
                       P6SM VCTS BKN025 BKN040CB FM160300 23005KT
                       P6SM VCSH BKN025 BKN040 FM160900 VRB04KT
                       P6SM BKN020 OVC030 FM162000 23008KT P6SM
                       BKN040=
201006151509 KSEA 151509Z 1515/1618 14005KT P6SM -SHRA BKN015 OVC025 FM152000
                       28007KT P6SM VCTS BKN030 BKN045CB FM160500
                       18005KT P6SM BKN040
                      TEMPO 1612/1616 BKN020=
201006151123 TAF KSEA 151123Z 1512/1618 14005KT P6SM VCSH BKN030 BKN040 FM151600
                       18005KT P6SM -SHRA VCTS BKN035CB FM152000
                       28007KT P6SM VCTS BKN040CB FM160500 18005KT
                       P6SM BKN040
                      TEMPO 1612/1616 BKN020=
201006150900 KSEA 150900Z 1509/1612 20006KT P6SM VCSH BKN030 FM151200 21006KT
                       P6SM -SHRA BKN025 BKN040 FM152100 28007KT
                       P6SM VCTS BKN035CB FM160500 19005KT P6SM
                       BKN035=
201006150712 KSEA 150712Z 1507/1612 21007KT P6SM BKN025 BKN040 FM150900 20006KT
                       P6SM VCSH OVC025 FM151200 21006KT P6SM -SHRA
                       BKN025 BKN040 FM152100 28007KT P6SM VCTS
                       BKN035CB FM160500 19005KT P6SM BKN035=
201006150541 TAF KSEA 150541Z 1506/1612 28005KT P6SM VCSH SCT020 BKN040 FM150800
                       20005KT P6SM VCSH SCT020 BKN040
                      TEMPO 1509/1512 OVC020 FM151200 20005KT P6SM
                       -SHRA OVC025 FM152200 26007KT P6SM VCTS
                       BKN035CB FM160500 19005KT P6SM BKN035=
201006150259 KSEA 150259Z 1503/1606 29005KT P6SM VCSH BKN050 BKN080 BKN200 FM150400
                       30004KT P6SM BKN040 FM150800 20005KT P6SM
                       VCSH OVC030 FM151200 20005KT P6SM -SHRA
                       OVC022 FM152200 26007KT P6SM -SHRA BKN035=
201006142322 TAF KSEA 142322Z 1500/1606 29005KT P6SM BKN050 BKN060 BKN200 FM150400
                       30004KT P6SM BKN040 FM150800 20005KT P6SM
                       VCSH OVC030 FM151200 20005KT P6SM -SHRA
                       OVC022 FM152200 26007KT P6SM -SHRA BKN035=
201006142104 KSEA 142104Z 1421/1524 VRB04KT P6SM SCT030 SCT045 BKN250
                      TEMPO 1421/1424 BKN045 FM150000 27005KT P6SM
                       SCT030 BKN045 FM150800 20008KT P6SM OVC030
                       FM151200 20006KT P6SM OVC020 FM152100 24009KT
                       P6SM BKN035=
201006141939 KSEA 141939Z 1420/1524 VRB04KT P6SM SCT030 SCT040 BKN250 FM150000
                       27005KT P6SM SCT030 BKN045 FM150800 20008KT
                       P6SM OVC030 FM151200 20006KT P6SM OVC020
                       FM152100 24009KT P6SM BKN035=
201006141937 KSEA 141937Z 1420/1524 VRB04KT P6SM SCT030 BKN040 BKN250 FM150000
                       27005KT P6SM SCT030 BKN045 FM150800 20008KT
                       P6SM OVC030 FM151200 20006KT P6SM OVC020
                       FM152100 24009KT P6SM BKN035=
201006141732 TAF KSEA 141732Z 1418/1524 VRB04KT P6SM BKN025 BKN250
                      TEMPO 1418/1420 SCT025 FM142000 30010KT P6SM
                       SCT030 SCT050 FM150000 27005KT P6SM SCT030
                       BKN045 FM150800 20008KT P6SM OVC030 FM151200
                       20006KT P6SM OVC020 FM152100 24009KT P6SM
                       BKN035=
201006141458 KSEA 141458Z 1415/1518 VRB04KT P6SM SCT020 BKN200 FM142000 36009KT
                       P6SM SCT060 SCT150 FM150200 03010KT P6SM
                       BKN060 BKN120 FM151000 18006KT P6SM OVC020=
201006141120 TAF KSEA 141120Z 1412/1518 03005KT P6SM OVC060 FM141400 VRB04KT
                       P6SM OVC045 FM141800 31006KT P6SM BKN050
                       FM142000 36009KT P6SM SCT060 SCT150 FM150200
                       03010KT P6SM BKN060 BKN120 FM151000 18006KT
                       P6SM OVC020=
201006140952 KSEA 140952Z 1410/1512 04009KT P6SM SCT040 BKN060 FM141200 VRB04KT
                       P6SM OVC040 FM141800 31006KT P6SM BKN050
                       FM142000 36009KT P6SM SCT060 SCT150 FM150200
                       03010KT P6SM BKN060 BKN120 FM151000 18005KT
                       P6SM OVC020=
201006140535 TAF KSEA 140535Z 1406/1512 03008KT P6SM BKN060 FM141100 VRB04KT
                       P6SM OVC035 FM141800 31006KT P6SM BKN050
                       FM142000 36009KT P6SM SCT060 SCT150 FM150200
                       03010KT P6SM BKN060 BKN120 FM151000 18005KT
                       P6SM OVC020=
201006140407 KSEA 140407Z 1404/1506 03012KT P6SM BKN060 BKN200 FM140600 VRB04KT
                       P6SM BKN040 FM141200 18006KT P6SM OVC030
                       FM142000 33006KT P6SM BKN040=
201006140058 KSEA 140058Z 1401/1506 35010KT P6SM BKN050 FM140700 VRB04KT P6SM
                       BKN040 FM141200 18006KT P6SM OVC030 FM142000
                       33006KT P6SM BKN040=
201006132320 TAF KSEA 132320Z 1400/1506 30010KT P6SM BKN050 FM140700 VRB04KT
                       P6SM BKN040 FM141200 18006KT P6SM OVC030
                       FM142000 33006KT P6SM BKN040=
201006132108 KSEA 132108Z 1321/1424 30010KT P6SM SCT035 BKN060 FM140900 VRB04KT
                       P6SM BKN025 BKN050 FM141900 33007KT P6SM
                       SCT030 BKN050=
201006131729 TAF KSEA 131729Z 1318/1424 VRB04KT P6SM SCT025 SCT060 FM140000
                       36007KT P6SM SCT030 BKN050 FM140900 VRB04KT
                       P6SM BKN025 BKN050 FM141900 33007KT P6SM
                       SCT030 BKN050=
201006131510 TAF AMD KSEA 131510Z 1315/1418 VRB05KT P6SM SCT007 SCT040
                      TEMPO 1316/1318 BKN007 FM131800 36007KT P6SM
                       SCT015 SCT050 FM140000 36007KT P6SM SCT030
                       BKN050 FM140900 VRB04KT P6SM BKN025 BKN050=
201006131120 TAF KSEA 131120Z 1312/1418 03006KT P6SM SKC FM131400 VRB04KT P6SM
                       SCT020 SCT050
                      TEMPO 1314/1316 BKN020 FM131900 33010KT P6SM
                       BKN050 FM140200 36008KT P6SM BKN050 FM141100
                       VRB04KT P6SM SCT020 OVC040
                      TEMPO 1412/1416 OVC020=
201006130900 KSEA 130900Z 1309/1412 03008KT P6SM FEW200 FM131100 VRB04KT P6SM
                       SCT020 BKN050
                      TEMPO 1314/1318 BKN020 OVC040 FM132100 33010KT
                       P6SM BKN050 FM140200 36008KT P6SM BKN050
                       FM141000 VRB04KT P6SM BKN020 OVC040=
201006130530 TAF KSEA 130530Z 1306/1412 36008KT P6SM FEW200 FM131100 VRB04KT
                       P6SM SCT020 BKN050
                      TEMPO 1314/1318 BKN020 OVC040 FM132100 33010KT
                       P6SM BKN050 FM140200 36008KT P6SM BKN050
                       FM141000 VRB04KT P6SM BKN020 OVC040=
201006130304 TAF AMD KSEA 130304Z 1303/1406 34006KT P6SM SCT200 FM131100 VRB04KT
                       P6SM SCT020 BKN050
                      TEMPO 1314/1318 BKN020 OVC040 FM132100 33007KT
                       P6SM BKN050=
201006122320 TAF KSEA 122320Z 1300/1406 33007KT P6SM FEW050 SCT200 FM131100
                       VRB04KT P6SM SCT020 BKN050
                      TEMPO 1314/1318 BKN020 OVC040 FM132100 33007KT
                       P6SM BKN050=
201006122104 TAF AMD KSEA 122104Z 1221/1324 31010KT P6SM FEW070 FM130600 36006KT
                       P6SM SCT100 BKN200 FM131200 VRB04KT P6SM
                       SCT020 BKN050 BKN100
                      TEMPO 1314/1318 BKN020 OVC040=
201006121720 TAF KSEA 121720Z 1218/1324 36008KT P6SM SKC FM130600 36006KT P6SM
                       SCT100 BKN200 FM131200 VRB04KT P6SM SCT020
                       BKN050 BKN100
                      TEMPO 1314/1318 BKN020 OVC040=
201006121510 TAF AMD KSEA 121510Z 1215/1318 02008KT P6SM SKC FM121800 33008KT
                       P6SM SKC FM130600 36006KT P6SM SCT100 BKN200
                       FM131200 VRB04KT P6SM SCT015 BKN060 BKN150=
201006121120 TAF KSEA 121120Z 1212/1318 03008KT P6SM SKC FM121300 03006KT P6SM
                       FEW012 FM121600 35007KT P6SM SKC FM121800
                       31008KT P6SM SKC FM130600 36005KT P6SM FEW080
                       SCT250 FM131200 VRB04KT P6SM SCT080 BKN250=
201006120904 TAF AMD KSEA 120904Z 1209/1312 03008KT P6SM SCT250 FM121300 03006KT
                       P6SM FEW015 FM121600 35007KT P6SM SKC FM121800
                       31008KT P6SM SKC FM130600 01005KT P6SM SKC=
201006120539 TAF KSEA 120539Z 1206/1312 02006KT P6SM SCT250 FM121300 03006KT
                       P6SM FEW015 FM121600 35007KT P6SM SKC FM121800
                       31008KT P6SM SKC FM130600 01005KT P6SM SKC=
201006120331 KSEA 120331Z 1204/1306 34006KT P6SM FEW040 SCT250 FM120600 03006KT
                       P6SM SCT250 FM121300 30006KT P6SM FEW015
                       FM121800 32008KT P6SM SKC=
201006112336 TAF KSEA 112336Z 1200/1306 28005KT P6SM BKN035 FM120100 34006KT
                       P6SM SCT040 FM121100 03004KT P6SM SCT006
                       FM121300 30006KT P6SM FEW015 FM121900 32008KT
                       P6SM SKC=
201006112101 TAF AMD KSEA 112101Z 1121/1224 VRB05KT P6SM SCT020 BKN030 FM112200
                       34006KT P6SM SCT025 BKN040 FM120100 34006KT
                       P6SM SCT040 FM121100 03004KT P6SM SCT006
                       FM121300 30006KT P6SM FEW015 FM121900 32008KT
                       P6SM SKC=
201006111731 TAF KSEA 111731Z 1118/1224 18007KT P6SM BKN008 OVC015 FM112000
                       VRB03KT P6SM SCT015 BKN025 OVC040 FM112200
                       34006KT P6SM SCT025 BKN040 FM120300 34006KT
                       P6SM SCT040 FM120900 03004KT P6SM SCT006
                       FM121600 30006KT P6SM FEW015 FM121900 32008KT
                       P6SM SKC=
201006111506 KSEA 111506Z 1115/1218 18006KT 4SM BR OVC005
                      TEMPO 1115/1117 5SM -SHRA FM111700 18006KT
                       P6SM SCT008 OVC015 FM111900 VRB03KT P6SM
                       SCT015 BKN025 OVC040 FM112200 34006KT P6SM
                       SCT025 BKN040 FM120300 34006KT P6SM SCT040
                       FM121400 34006KT P6SM SCT006=
201006111139 TAF KSEA 111139Z 1112/1218 18006KT P6SM OVC006
                      TEMPO 1112/1116 2SM -RA FM111700 18006KT
                       P6SM SCT008 OVC015 FM111900 VRB03KT P6SM
                       SCT015 BKN025 OVC040 FM112200 34006KT P6SM
                       SCT025 BKN040 FM120300 34006KT P6SM SCT040
                       FM121400 34006KT P6SM SCT006=
201006110908 KSEA 110908Z 1109/1212 18006KT P6SM OVC006
                      TEMPO 1109/1112 3SM -SHRA FM111600 18006KT
                       P6SM SCT008 OVC015 FM111900 VRB03KT P6SM
                       SCT015 BKN025 OVC040 FM112200 34006KT P6SM
                       SCT025 BKN040 FM120300 34006KT P6SM SCT040=
201006110539 TAF KSEA 110539Z 1106/1212 20010KT P6SM OVC015 FM110900 20006KT
                       P6SM OVC008 FM111600 20006KT P6SM SCT008
                       OVC015 FM111900 VRB03KT P6SM SCT015 BKN025
                       OVC040 FM112200 34006KT P6SM SCT025 BKN040
                       FM120300 34006KT P6SM SCT040=
201006110302 KSEA 110302Z 1103/1206 22012KT P6SM VCSH BKN022 OVC035 FM110900
                       18007KT P6SM OVC020 FM111900 VRB04KT P6SM
                       SCT025 BKN040 FM120000 35007KT P6SM SCT040=
201006110109 KSEA 110109Z 1101/1206 22008KT P6SM VCSH SCT025 BKN050 OVC100
                      TEMPO 1101/1104 BKN025 OVC045 FM110400 VRB05KT
                       P6SM VCSH SCT025 BKN040 FM110900 18007KT
                       P6SM BKN020 OVC040 FM111900 VRB04KT P6SM
                       SCT025 BKN040 FM120000 35007KT P6SM SCT040=
201006102320 TAF KSEA 102320Z 1100/1206 22008KT P6SM VCSH SCT025 BKN050 OVC100
                       TEMPO 1100/1104 5SM -SHRA SCT020 OVC035
                       FM110400 VRB05KT P6SM VCSH SCT025 BKN040
                       FM110900 18007KT P6SM BKN020 OVC040 FM111900
                       VRB04KT P6SM SCT025 BKN040 FM120000 35007KT
                       P6SM SCT040=
201006102102 KSEA 102102Z 1021/1124 22008KT P6SM SCT025 BKN050 BKN200
                      TEMPO 1022/1102 -SHRA SCT025 OVC040 FM110200
                       VRB05KT P6SM VCSH SCT025 BKN040 FM110900
                       18007KT P6SM OVC022 FM111900 VRB04KT P6SM
                       BKN040=
201006101835 KSEA 101835Z 1019/1124 22008KT P6SM BKN022 BKN050 FM102100 VRB04KT
                       P6SM VCSH BKN035 FM110900 18007KT P6SM OVC022
                       FM111900 VRB04KT P6SM BKN040=
201006101720 TAF KSEA 101720Z 1018/1124 22006KT P6SM VCSH BKN015 BKN050 FM102000
                       VRB04KT P6SM VCSH SCT025 BKN040 FM110900
                       18007KT P6SM OVC022 FM111900 VRB04KT P6SM
                       BKN040=
201006101502 KSEA 101502Z 1015/1118 21006KT 5SM -SHRA BR SCT003 OVC008
                      TEMPO 1015/1017 2SM -SHRA BR BKN003 OVC008
                       FM101700 21008KT P6SM BKN015 BKN030 FM102000
                       21008KT P6SM VCSH SCT025 BKN040 FM110900
                       21008KT P6SM OVC021=
201006101203 KSEA 101203Z 1012/1118 19010KT P6SM -SHRA OVC007
                      TEMPO 1012/1015 2SM -RA BR OVC004 FM101600
                       19010KT P6SM SCT015 OVC022 FM102000 21008KT
                       P6SM VCSH SCT025 BKN040 FM110900 21008KT
                       P6SM OVC021=
201006101202 KSEA 101202Z 1012/1118 19010KT P6SM -SHRA OVC007 FM101600 19010KT
                       P6SM SCT015 OVC022 FM102000 21008KT P6SM
                       VCSH SCT025 BKN040 FM110900 21008KT P6SM
                       OVC021=
201006101140 TAF KSEA 101140Z 1012/1118 19010KT P6SM -SHRA OVC015 FM101600 19010KT
                       P6SM SCT015 OVC022 FM102000 21008KT P6SM
                       VCSH SCT025 BKN040 FM110900 21008KT P6SM
                       OVC021=
201006100904 KSEA 100904Z 1009/1112 19010KT P6SM BKN025 OVC040 FM101300 19010KT
                       P6SM OVC022 FM102000 21008KT P6SM VCSH SCT025
                       BKN040 FM111100 21008KT P6SM OVC022=
201006100539 TAF KSEA 100539Z 1006/1112 21008KT P6SM SCT030 BKN070 FM101300
                       21008KT P6SM OVC015 FM101700 21008KT P6SM
                       OVC022 FM102000 21008KT P6SM VCSH SCT025
                       BKN040 FM111100 21008KT P6SM OVC022=
201006100302 KSEA 100302Z 1003/1106 21008KT P6SM VCSH SCT025 BKN040 BKN070 FM100900
                       21008KT P6SM OVC015 FM101700 21008KT P6SM
                       OVC022 FM102100 21010KT P6SM VCSH BKN025
                       BKN040 FM110300 21008KT P6SM SCT030 BKN045=
201006092328 TAF KSEA 092328Z 1000/1106 15009KT P6SM -SHRA VCTS SCT025CB BKN080
                       TEMPO 1000/1001 -TSRA BKN020CB OVC050 FM100300
                       21008KT P6SM VCSH SCT025 BKN045 FM100900
                       21008KT P6SM OVC015 FM101700 21008KT P6SM
                       OVC022 FM102100 21010KT P6SM VCSH BKN025
                       BKN040 FM110300 21008KT P6SM SCT030 BKN045=
201006092246 KSEA 092246Z 0923/1024 19005KT P6SM VCTS SCT020CB BKN070 BKN180
                       TEMPO 0923/1001 -TSRA BKN020CB OVC050 FM100300
                       21008KT P6SM VCSH SCT025 BKN045 FM100900
                       21008KT P6SM OVC015 FM101700 21008KT P6SM
                       OVC022 FM102100 21010KT P6SM VCSH BKN025
                       BKN040=
201006092102 KSEA 092102Z 0921/1024 19005KT P6SM VCTS SCT020CB BKN070 BKN180
                       FM100300 21008KT P6SM VCSH SCT025 BKN045
                       FM100900 21008KT P6SM OVC015 FM101700 21008KT
                       P6SM OVC022 FM102100 21010KT P6SM VCSH BKN025
                       BKN040=
201006091938 KSEA 091938Z 0920/1024 VRB06KT P6SM FEW011 BKN020 BKN035
                      TEMPO 0920/0922 -TSRA SCT010 BKN020CB OVC035
                       FM100300 21008KT P6SM VCSH SCT025 BKN045
                       FM100900 21008KT P6SM OVC015 FM101700 21008KT
                       P6SM OVC022 FM102100 21010KT P6SM VCSH BKN025
                       BKN040=
201006091743 TAF KSEA 091743Z 0918/1024 19003KT P6SM -SHRA FEW009 BKN020 OVC027
                       TEMPO 0918/0920 BKN012 OVC030 FM092000 21008KT
                       P6SM -SHRA SCT020 OVC030 FM100300 21008KT
                       P6SM VCSH SCT025 BKN045 FM100900 21008KT
                       P6SM OVC015 FM101700 21008KT P6SM OVC022
                       FM102100 21010KT P6SM VCSH BKN025 BKN040=
201006091503 KSEA 091503Z 0915/1018 21007KT P6SM VCSH FEW007 SCT012 BKN035
                      TEMPO 0915/0919 -SHRA BKN012 OVC030 FM091900
                       21008KT P6SM -SHRA SCT020 OVC030 FM100300
                       21008KT P6SM VCSH SCT025 BKN045 FM100900
                       21008KT P6SM OVC015 FM101700 21008KT P6SM
                       OVC022=
201006091144 TAF KSEA 091144Z 0912/1018 18008KT P6SM -RA SCT025 OVC045
                      TEMPO 0912/0915 BKN025 OVC045 FM091500 18008KT
                       P6SM -SHRA SCT012 BKN022 OVC035 FM091900
                       21008KT P6SM -SHRA SCT020 OVC030 FM100300
                       21008KT P6SM VCSH SCT025 BKN045 FM100900
                       21008KT P6SM OVC015 FM101700 21008KT P6SM
                       OVC022=
201006090908 TAF AMD KSEA 090908Z 0909/1012 15006KT P6SM -RA SCT020 BKN040 OVC060
                       FM091200 18006KT P6SM -SHRA SCT012 BKN022
                       OVC030 FM091900 21008KT P6SM -SHRA SCT020
                       OVC030 FM100600 21008KT P6SM VCSH SCT025
                       BKN045=
201006090539 TAF KSEA 090539Z 0906/1012 20006KT P6SM -RA SCT025 OVC040
                      TEMPO 0907/0911 4SM -RA FM091100 20006KT
                       P6SM -RA SCT015 OVC025
                      TEMPO 0911/0915 4SM -RA FM091500 23008KT
                       P6SM -SHRA SCT010 BKN020 OVC030 FM091900
                       23008KT P6SM -SHRA SCT020 OVC030 FM100600
                       21008KT P6SM VCSH SCT025 BKN045=
201006090309 KSEA 090309Z 0903/1006 VRB03KT P6SM BKN070 OVC120 FM090600 VRB03KT
                       P6SM -RA SCT025 OVC040 FM091000 20008KT
                       P6SM -RA SCT015 OVC025 FM091900 23007KT
                       P6SM -SHRA SCT020 OVC030 FM100300 21008KT
                       P6SM VCSH SCT025 BKN045=
201006082332 TAF KSEA 082332Z 0900/1006 30009KT P6SM SCT120 BKN200 FM090300
                       33006KT P6SM BKN070 OVC120 FM090600 VRB03KT
                       P6SM -RA SCT025 OVC040 FM091000 20008KT
                       P6SM -RA SCT015 OVC025 FM091900 23007KT
                       P6SM -SHRA SCT020 OVC030 FM100300 21008KT
                       P6SM VCSH SCT025 BKN045=
201006082107 KSEA 082107Z 0821/0924 01009KT P6SM SCT160 BKN220 FM090100 33006KT
                       P6SM BKN070 OVC120 FM090400 VRB03KT P6SM
                       -RA SCT025 OVC040 FM090900 20008KT P6SM
                       -RA SCT015 OVC025 FM091800 23007KT P6SM
                       -SHRA SCT020 OVC030=
201006081502 KSEA 081502Z 0815/0918 36007KT P6SM FEW008 SCT250 FM081600 35006KT
                       P6SM SCT120 BKN200 FM090100 33006KT P6SM
                       BKN070 OVC120 FM090400 VRB03KT P6SM -RA
                       SCT025 OVC040 FM090900 20008KT P6SM -RA
                       SCT015 OVC025=
201006081134 TAF KSEA 081134Z 0812/0918 VRB03KT P6SM SCT035 FM081800 35006KT
                       P6SM SCT120 BKN200 FM090100 33006KT P6SM
                       BKN070 OVC120 FM090400 VRB03KT P6SM -RA
                       SCT025 OVC040 FM090900 20008KT P6SM -RA
                       SCT015 OVC025=
201006080904 KSEA 080904Z 0809/0912 VRB03KT P6SM BKN060 FM081100 VRB03KT P6SM
                       SCT030 FM081800 35006KT P6SM SCT120 BKN200
                       FM090100 33006KT P6SM BKN070 OVC120 FM090400
                       VRB03KT P6SM -RA SCT025 OVC040 FM090900
                       20008KT P6SM -RA SCT015 OVC025=
201006080538 TAF KSEA 080538Z 0806/0912 VRB03KT P6SM SCT035 BKN060 FM081100
                       03006KT P6SM SCT030 FM081800 35006KT P6SM
                       SCT120 BKN200 FM090100 33006KT P6SM BKN070
                       OVC120 FM090400 VRB03KT P6SM -RA SCT025
                       OVC040 FM090900 20008KT P6SM -RA SCT015
                       OVC025=
201006080302 KSEA 080302Z 0803/0906 03006KT P6SM SCT035 BKN060 FM081200 03006KT
                       P6SM SCT060 FM081600 35006KT P6SM SCT120
                       BKN200 FM090200 33006KT P6SM BKN070 OVC120=
201006072328 TAF KSEA 072328Z 0800/0906 36007KT P6SM VCSH SCT035 BKN060
                      TEMPO 0802/0806 SCT040 FM081200 02005KT P6SM
                       SCT012 BKN025 FM081600 35006KT P6SM SCT120
                       BKN200 FM090200 33006KT P6SM BKN070 OVC120=
201006072102 KSEA 072102Z 0721/0824 VRB04KT P6SM VCSH SCT030 BKN040 BKN200
                      TEMPO 0721/0724 22007KT BKN030 OVC040 FM080200
                       32004KT P6SM SCT040 FM081200 VRB03KT P6SM
                       SCT012 BKN025 FM082000 35006KT P6SM SCT120
                       BKN200=
201006071939 KSEA 071939Z 0720/0824 VRB04KT P6SM VCSH SCT025 BKN050
                      TEMPO 0720/0724 22007KT BKN025 OVC040 FM080100
                       32004KT P6SM SCT040 FM081200 VRB03KT P6SM
                       SCT012 BKN025 FM082000 35006KT P6SM SCT120
                       BKN200=
201006071724 TAF KSEA 071724Z 0718/0824 18006KT P6SM VCSH OVC016 FM072200 22007KT
                       P6SM VCSH BKN025 OVC040 FM080100 32004KT
                       P6SM SCT040 FM081200 VRB03KT P6SM SCT012
                       BKN025 FM082000 35006KT P6SM SCT120 BKN200=
201006071500 KSEA 071500Z 0715/0818 19008KT P6SM -SHRA OVC010
                      TEMPO 0715/0717 SCT012 OVC020 FM071900 22007KT
                       P6SM VCSH BKN025 OVC040 FM072300 22004KT
                       P6SM BKN040 FM081000 VRB03KT P6SM SCT012
                       BKN025=
201006071125 TAF KSEA 071125Z 0712/0818 19007KT P6SM VCSH OVC013
                      TEMPO 0713/0717 BKN008 OVC013 FM071900 22007KT
                       P6SM VCSH BKN025 OVC040 FM072300 22004KT
                       P6SM BKN040 FM081000 VRB03KT P6SM SCT012
                       BKN025=
201006070901 KSEA 070901Z 0709/0812 21007KT P6SM VCSH FEW010 BKN015 OVC030 FM071300
                       20005KT P6SM -SHRA SCT008 BKN015 OVC025
                       TEMPO 0713/0717 BKN008 OVC015 FM071900 22007KT
                       P6SM VCSH BKN025 OVC040 FM072300 22004KT
                       P6SM BKN040 FM081000 VRB03KT P6SM SCT012
                       BKN025=
201006070535 TAF KSEA 070535Z 0706/0812 20005KT P6SM VCSH SCT020 OVC050
                      TEMPO 0706/0709 BKN020 BKN050 FM070900 20004KT
                       P6SM VCSH BKN015 OVC025 FM071300 20004KT
                       P6SM -SHRA SCT008 BKN015 OVC025
                      TEMPO 0713/0717 BKN008 OVC015 FM071900 22007KT
                       P6SM VCSH BKN025 OVC040 FM072300 22004KT
                       P6SM BKN040 FM081000 VRB03KT P6SM SCT012
                       BKN025=
201006070302 KSEA 070302Z 0703/0806 21008KT P6SM SCT015 OVC060
                      TEMPO 0703/0707 BKN015 BKN060 FM070700 20003KT
                       P6SM BKN015 OVC025 FM071900 22007KT P6SM
                       BKN025 OVC040 FM072200 22008KT P6SM BKN040=
201006070037 KSEA 070037Z 0701/0806 20005KT P6SM SCT010 BKN035 OVC050
                      TEMPO 0701/0704 -SHRA BKN010 OVC035 FM070400
                       21004KT P6SM VCSH BKN025 OVC040 FM070700
                       20003KT P6SM BKN015 OVC025 FM071900 22007KT
                       P6SM BKN025 OVC040 FM072200 22008KT P6SM
                       BKN040=
201006062320 TAF KSEA 062320Z 0700/0806 VRB03KT P6SM VCSH SCT007 BKN015 OVC030
                       TEMPO 0700/0703 -SHRA BKN007 OVC015 FM070400
                       21004KT P6SM VCSH BKN025 OVC040 FM070700
                       20003KT P6SM BKN015 OVC025 FM071900 22007KT
                       P6SM BKN025 OVC040 FM072200 22008KT P6SM
                       BKN040=
201006062055 KSEA 062055Z 0621/0724 VRB04KT P6SM BKN025 OVC040
                      TEMPO 0621/0701 -SHRA SCT025 OVC045 FM070100
                       22006KT P6SM BKN035 BKN050 FM070900 18004KT
                       P6SM BKN020 OVC035 FM071700 21008KT P6SM
                       OVC025 FM072100 21008KT P6SM OVC035=
201006061815 KSEA 061815Z 0618/0724 VRB04KT P6SM SCT006 BKN020 OVC045
                      TEMPO 0618/0621 -RA BKN006 BKN020 OVC045
                       FM062200 20006KT P6SM VCSH BKN025 OVC040
                       FM070200 22006KT P6SM BKN035 BKN050 FM070900
                       18004KT P6SM BKN020 OVC035 FM071700 21008KT
                       P6SM OVC025 FM072100 21008KT P6SM OVC035=
201006061727 TAF KSEA 061727Z 0618/0724 VRB04KT P6SM -RA BKN006 BKN020 OVC035
                       TEMPO 0618/0621 3SM -RA BR BKN003 OVC020
                       FM062200 20006KT P6SM VCSH BKN025 OVC040
                       FM070200 22006KT P6SM BKN035 BKN050 FM070900
                       18004KT P6SM BKN020 OVC035 FM071700 21008KT
                       P6SM OVC025 FM072100 21008KT P6SM OVC035=
201006061712 KSEA 061712Z 0617/0718 VRB03KT P6SM -RA BKN006 BKN020 OVC035
                      TEMPO 0617/0621 3SM -RA BR BKN003 OVC020
                       FM062200 20006KT P6SM VCSH BKN025 OVC040
                       FM070200 22006KT P6SM BKN035 BKN050 FM070900
                       18004KT P6SM BKN020 OVC035 FM071700 21008KT
                       P6SM OVC025=
201006061509 KSEA 061509Z 0615/0718 12006KT P6SM -RA SCT022 OVC035
                      TEMPO 0615/0618 BKN022 OVC035 FM061800 VRB03KT
                       P6SM -RA BKN022 OVC035 FM062100 23006KT
                       P6SM VCSH BKN025 OVC040 FM062300 23006KT
                       P6SM SCT035 BKN050 FM071000 18004KT P6SM
                       BKN020 BKN035=
201006061405 KSEA 061405Z 0614/0718 VRB03KT 5SM -RA BR SCT025 OVC045
                      TEMPO 0614/0616 3SM -RA BR BKN025 OVC045
                       FM061600 VRB03KT P6SM -RA BKN022 OVC035
                       FM062100 23006KT P6SM VCSH BKN025 OVC040
                       FM062300 23006KT P6SM SCT035 BKN050 FM071000
                       18004KT P6SM BKN020 BKN035=
201006061120 TAF KSEA 061120Z 0612/0718 21003KT P6SM SCT050 OVC100 FM061300
                       VRB03KT P6SM -RA OVC050 FM061600 VRB03KT
                       P6SM -RA BKN022 OVC035 FM062100 23006KT
                       P6SM VCSH BKN025 OVC040 FM062300 23006KT
                       P6SM SCT035 BKN050 FM071000 18004KT P6SM
                       BKN020 BKN035=
201006060854 KSEA 060854Z 0609/0712 36008KT P6SM BKN100 OVC200 FM061300 05004KT
                       P6SM OVC050 FM061600 05004KT P6SM -RA BKN018
                       OVC030 FM062100 23006KT P6SM VCSH BKN025
                       OVC040 FM062300 23006KT P6SM SCT035 BKN050
                       FM071000 18004KT P6SM BKN015 BKN035=
201006060521 TAF KSEA 060521Z 0606/0712 35004KT P6SM FEW100 BKN200 FM060800
                       03004KT P6SM OVC100 FM061300 05004KT P6SM
                       OVC050 FM061600 05004KT P6SM -RA BKN018
                       OVC030 FM062100 23006KT P6SM VCSH BKN025
                       OVC040 FM062300 23006KT P6SM SCT035 BKN050
                       FM071000 18004KT P6SM BKN015 BKN035=
201006060301 KSEA 060301Z 0603/0706 01005KT P6SM FEW050 BKN200 FM060700 03004KT
                       P6SM BKN100 FM061200 05004KT P6SM OVC050
                       PROB30 0614/0616 -RA FM061600 05004KT P6SM
                       -RA BKN018 OVC030 FM062100 23006KT P6SM
                       VCSH BKN025 OVC040=
201006052320 TAF KSEA 052320Z 0600/0706 34008KT P6SM SCT250 FM060300 36007KT
                       P6SM SCT200 FM060700 03004KT P6SM BKN100
                       FM061200 VRB03KT P6SM OVC050
                      PROB30 0614/0616 -RA FM061600 20005KT P6SM
                       BKN030 OVC050
                      PROB30 0616/0621 -RA FM062100 23006KT P6SM
                       VCSH BKN025 OVC040=
201006052106 KSEA 052106Z 0521/0624 33010KT P6SM SCT250 FM060300 36007KT P6SM
                       SCT200 FM060600 03004KT P6SM SCT070 FM061200
                       VRB03KT P6SM OVC050
                      PROB30 0614/0616 -RA FM061600 20005KT P6SM
                       BKN030 OVC050
                      PROB30 0616/0620 -RA=
201006051740 TAF KSEA 051740Z 0518/0624 29004KT P6SM FEW030 SCT250 FM052100
                       33007KT P6SM SKC FM060300 36006KT P6SM SCT200
                       FM060600 03004KT P6SM SCT070 FM061200 VRB03KT
                       P6SM OVC050
                      PROB30 0614/0616 -RA FM061600 20005KT P6SM
                       BKN030 OVC050
                      PROB30 0616/0620 -RA=
201006051420 KSEA 051420Z 0514/0618 VRB03KT P6SM SCT050 FM051700 28004KT P6SM
                       SCT050 FM052000 33007KT P6SM SCT250 FM060300
                       02007KT P6SM SCT250 FM061000 04005KT P6SM
                       OVC080=
201006051120 TAF KSEA 051120Z 0512/0618 17004KT P6SM VCSH SCT020 BKN030 OVC040
                       FM051700 36006KT P6SM SCT030 SCT250 FM052200
                       34010KT P6SM SCT250 FM060300 02007KT P6SM
                       SCT250 FM061000 04005KT P6SM OVC080=
201006051001 KSEA 051001Z 0510/0612 14005KT P6SM VCSH BKN025 OVC035 FM051300
                       VRB03KT P6SM BKN025 BKN035 FM051800 36006KT
                       P6SM SCT030 SCT250 FM052200 34010KT P6SM
                       SCT250 FM060300 02007KT P6SM SCT250 FM061000
                       04005KT P6SM OVC080=
201006050900 KSEA 050900Z 0509/0612 15006KT P6SM VCSH FEW025 BKN030 OVC045 FM051100
                       VRB03KT P6SM SCT020 BKN050
                      TEMPO 0513/0516 BKN020 BKN040 FM051800 36006KT
                       P6SM SCT030 SCT250 FM052200 34010KT P6SM
                       SCT250 FM060300 02007KT P6SM SCT250 FM061000
                       04005KT P6SM OVC080=
201006050757 KSEA 050757Z 0508/0612 18004KT P6SM VCSH BKN030 OVC060 FM051100
                       VRB03KT P6SM SCT020 BKN050
                      TEMPO 0513/0516 BKN020 BKN040 FM051800 36006KT
                       P6SM SCT030 SCT250 FM052200 34010KT P6SM
                       SCT250 FM060300 02007KT P6SM SCT250 FM061000
                       04005KT P6SM OVC080=
201006050520 TAF KSEA 050520Z 0506/0612 01005KT P6SM VCSH SCT040 BKN070 FM051000
                       01004KT P6SM SCT020 BKN050
                      TEMPO 0513/0516 BKN020 BKN040 FM051800 36006KT
                       P6SM SCT030 SCT250 FM052200 34010KT P6SM
                       SCT250 FM060300 02007KT P6SM SCT250 FM061000
                       04005KT P6SM OVC080=
201006050307 KSEA 050307Z 0503/0606 24003KT P6SM VCSH FEW030 SCT050 BKN080 FM050600
                       22003KT P6SM VCSH SCT020 BKN050 FM051200
                       18003KT P6SM SCT020 BKN070
                      TEMPO 0513/0516 BKN020 BKN070 FM051600 01005KT
                       P6SM SCT020 BKN070 FM051800 36006KT P6SM
                       SCT030 SCT250 FM052200 34007KT P6SM BKN250=
201006042333 TAF KSEA 042333Z 0500/0606 22008KT P6SM VCSH SCT030 BKN050 FM050400
                       22005KT P6SM VCSH SCT020 BKN050 FM051200
                       18003KT P6SM SCT020 BKN070
                      TEMPO 0513/0516 BKN020 BKN070 FM051600 01005KT
                       P6SM SCT020 BKN070 FM051800 36006KT P6SM
                       SCT030 SCT250 FM052200 34007KT P6SM BKN250=
201006042110 KSEA 042110Z 0421/0524 20007KT P6SM SCT030 BKN060 FM042300 23008KT
                       P6SM SCT030 BKN060 FM050400 22005KT P6SM
                       VCSH SCT020 BKN030 FM051000 18003KT P6SM
                       OVC015 FM051600 VRB03KT P6SM SCT020 BKN030
                       FM051900 25004KT P6SM SCT070 SCT250=
201006041825 KSEA 041825Z 0418/0524 25005KT P6SM SCT008 BKN015 OVC045
                      TEMPO 0418/0420 BKN008 BKN015 OVC045 FM042000
                       24008KT P6SM SCT012 BKN022 OVC050 FM042200
                       23008KT P6SM VCSH SCT025 BKN040 FM050400
                       22005KT P6SM VCSH SCT020 BKN030 FM051000
                       18003KT P6SM OVC015 FM051600 VRB03KT P6SM
                       SCT020 BKN030 FM051900 25004KT P6SM SCT070
                       SCT250=
201006041749 TAF KSEA 041749Z 0418/0524 VRB03KT P6SM SCT008 BKN015 OVC050
                      TEMPO 0418/0420 BKN008 BKN015 OVC050 FM042100
                       26005KT P6SM SCT012 BKN022 OVC050 FM042200
                       24008KT P6SM VCSH SCT025 BKN040 FM050400
                       24005KT P6SM VCSH SCT020 BKN030 FM051000
                       18003KT P6SM OVC015 FM051600 VRB03KT P6SM
                       SCT020 BKN030 FM051900 25004KT P6SM SCT070
                       SCT250=
201006041506 KSEA 041506Z 0415/0518 36006KT P6SM -RA BKN004 OVC008
                      TEMPO 0416/0418 SCT008 BKN012 OVC060 FM041800
                       VRB03KT P6SM SCT012 BKN020 OVC060 FM042000
                       22012KT P6SM VCSH SCT025 BKN040 FM050400
                       18005KT P6SM VCSH SCT020 BKN030 FM050900
                       18003KT P6SM OVC015 FM051700 VRB03KT P6SM
                       SCT020 BKN035=
201006041205 KSEA 041205Z 0412/0518 35007KT 6SM -RA BR SCT008 OVC025
                      TEMPO 0412/0416 5SM RA BR BKN005 OVC022 FM041600
                       34007KT P6SM -SHRA SCT012 BKN025 FM041800
                       22012G20KT P6SM VCSH SCT025 BKN040 FM050400
                       18005KT P6SM VCSH SCT020 BKN030 FM050900
                       18003KT P6SM OVC015 FM051700 VRB03KT P6SM
                       SCT020 BKN035=
201006041121 TAF KSEA 041121Z 0412/0518 35006KT 6SM -RA BR SCT025 OVC045
                      TEMPO 0412/0415 5SM -RA BR BKN025 OVC045
                       FM041500 34007KT P6SM -SHRA SCT012 BKN025
                       FM041700 22012G20KT P6SM VCSH SCT025 BKN040
                       FM050400 18005KT P6SM VCSH SCT020 BKN030
                       FM050900 18003KT P6SM OVC015 FM051700 VRB03KT
                       P6SM SCT020 BKN035=
201006040858 KSEA 040858Z 0409/0512 35004KT P6SM -RA BKN045 OVC060 FM041100
                       02006KT P6SM -RA SCT025 OVC040
                      TEMPO 0412/0415 5SM -RA BR BKN025 OVC040
                       FM041500 34007KT P6SM -SHRA SCT012 BKN025
                       FM041800 22012G20KT P6SM VCSH SCT025 BKN040
                       FM050400 18005KT P6SM VCSH SCT020 BKN030
                       FM050800 18003KT P6SM OVC020=
201006040526 TAF KSEA 040526Z 0406/0512 02004KT P6SM -RA SCT040 BKN060 OVC100
                       FM041000 02006KT P6SM -RA SCT025 OVC040
                       TEMPO 0411/0415 5SM -RA BR BKN025 OVC040
                       FM041500 34007KT P6SM -SHRA SCT012 BKN025
                       FM041800 22012G20KT P6SM VCSH SCT025 BKN040
                       FM050400 18005KT P6SM VCSH SCT020 BKN030
                       FM050800 18003KT P6SM OVC020=
201006040300 KSEA 040300Z 0403/0506 VRB03KT P6SM BKN060 OVC120 FM040400 02003KT
                       P6SM -RA SCT035 OVC050 FM040900 02005KT
                       P6SM -RA SCT020 OVC040 FM041400 34005KT
                       6SM -RA BR SCT012 OVC020 FM041800 22012G20KT
                       P6SM VCSH SCT025 BKN040 FM042100 22014G22KT
                       P6SM VCSH SCT030 SCT045
                      TEMPO 0423/0502 5SM -SHRA BR BKN030 BKN045=
201006032341 TAF KSEA 032341Z 0400/0506 24004KT P6SM SCT045 BKN200 FM040300
                       VRB03KT P6SM BKN060 OVC120 FM040600 16004KT
                       P6SM -RA SCT035 OVC050 FM040900 02003KT
                       P6SM -RA SCT020 OVC040 FM041400 34005KT
                       6SM -RA BR SCT012 OVC020 FM041800 22012G20KT
                       P6SM VCSH SCT025 BKN040 FM042100 22014G22KT
                       P6SM VCSH SCT030 SCT045
                      TEMPO 0423/0502 5SM -SHRA BR BKN030 BKN045=
201006032102 KSEA 032102Z 0321/0424 24004KT P6SM SCT040 SCT060 BKN200 FM040600
                       16004KT P6SM -RA SCT045 OVC070 FM040900
                       02003KT P6SM -RA SCT020 OVC040 FM041400
                       34005KT 6SM -RA BR SCT012 OVC020 FM041700
                       22014G22KT P6SM VCSH SCT025 BKN040
                      TEMPO 0421/0424 SCT040=
201006031740 TAF KSEA 031740Z 0318/0424 21006KT P6SM SCT030 SCT200 FM032100
                       23006KT P6SM SCT060 SCT150 BKN200 FM040600
                       VRB03KT P6SM -RA SCT045 OVC070 FM040900
                       03006KT P6SM -RA SCT020 OVC040 FM041400
                       04008KT 6SM -RA BR SCT012 OVC020 FM041700
                       22014G22KT P6SM VCSH SCT025 BKN040
                      TEMPO 0421/0424 SCT040=
201006031500 KSEA 031500Z 0315/0418 18009KT P6SM SCT016 SCT250
                      TEMPO 0315/0316 BKN016 FM031700 21006KT P6SM
                       SCT030 SCT200 FM032000 23006KT P6SM SCT150
                       BKN200 FM040500 03006KT P6SM VCSH OVC050
                       FM040900 03006KT P6SM -RA OVC040 FM041200
                       36008KT 5SM -RA BR OVC025=
201006031252 KSEA 031252Z 0313/0418 18009KT P6SM SCT017 SCT070
                      TEMPO 0313/0316 BKN015 BKN070 FM031700 22006KT
                       P6SM SCT020 SCT070 SCT150 FM040500 03006KT
                       P6SM OVC050 FM040900 03006KT P6SM -RA OVC040
                       FM041200 36008KT 5SM -RA BR OVC025=
201006031120 TAF KSEA 031120Z 0312/0418 18009KT P6SM SCT022 SCT070
                      TEMPO 0312/0315 BKN022 BKN070 FM031800 22006KT
                       P6SM SCT035 SCT070 SCT150 FM040500 03006KT
                       P6SM OVC050 FM040900 03006KT P6SM -RA OVC040
                       FM041200 36008KT 5SM -RA BR OVC025=
201006030902 KSEA 030902Z 0309/0412 18005KT P6SM SCT020 SCT040
                      TEMPO 0311/0315 BKN025 BKN040 FM031800 23006KT
                       P6SM SCT035 SCT060 SCT150 FM040300 03006KT
                       P6SM OVC050 FM040700 03006KT P6SM -RA OVC040=
201006030741 KSEA 030741Z 0308/0412 20015G23KT P6SM SCT022 SCT040 FM031000 19008KT
                       P6SM SCT020 BKN040
                      TEMPO 0311/0315 BKN025 BKN040 FM031800 23006KT
                       P6SM SCT035 SCT060 SCT150 FM040300 03006KT
                       P6SM OVC050 FM040700 03006KT P6SM -RA OVC040=
201006030523 TAF KSEA 030523Z 0306/0412 20013KT P6SM SCT045 SCT060 FM031000
                       19008KT P6SM SCT025 BKN040
                      TEMPO 0311/0315 BKN025 BKN040 FM031800 23006KT
                       P6SM SCT035 SCT060 SCT150 FM040300 03006KT
                       P6SM OVC050 FM040700 03006KT P6SM -RA OVC040=
201006030301 KSEA 030301Z 0303/0406 24014G24KT P6SM SCT025 BKN045 FM030600 18009KT
                       P6SM SCT025 BKN050 FM031800 23006KT P6SM
                       SCT060 SCT120 FM040300 32005KT P6SM BKN060
                       BKN100=
201006022323 TAF KSEA 022323Z 0300/0406 22010G16KT P6SM SCT020 BKN070
                      TEMPO 0300/0302 -SHRA BKN020 OVC070 FM030600
                       17006KT P6SM FEW030 BKN070 FM031800 23006KT
                       P6SM SCT060 SCT120 FM040300 32005KT P6SM
                       BKN060 BKN100=
201006022101 KSEA 022101Z 0221/0324 21010KT P6SM -SHRA FEW012 BKN023 BKN040
                       TEMPO 0221/0224 SCT023 BKN040 FM030000 20008KT
                       P6SM SCT025 BKN050 FM030600 17006KT P6SM
                       FEW030 BKN060 FM031800 23006KT P6SM SCT060
                       SCT120=
201006021858 KSEA 021858Z 0219/0324 18012G20KT P6SM -SHRA BKN015 OVC040
                      TEMPO 0219/0221 SCT015 BKN035 OVC060 FM022100
                       21010G18KT P6SM -SHRA SCT025 BKN050 FM030000
                       22010KT P6SM SCT025 BKN050 FM030600 17006KT
                       P6SM FEW030 BKN060 FM031800 23006KT P6SM
                       SCT060 SCT120=
201006021732 TAF KSEA 021732Z 0218/0324 18008KT P6SM -SHRA FEW020 BKN040 OVC060
                       FM022000 21010G18KT P6SM -SHRA SCT025 BKN050
                       FM030000 22010KT P6SM SCT025 BKN050 FM030600
                       17006KT P6SM FEW030 BKN060 FM031800 23006KT
                       P6SM SCT060 SCT120=
201006021502 KSEA 021502Z 0215/0318 14008KT P6SM -RA SCT030 OVC060
                      TEMPO 0215/0219 3SM RA BR BKN020 OVC030 FM021900
                       21010G20KT P6SM -SHRA BKN025 OVC050 FM030400
                       20009KT P6SM SCT025 BKN050=
201006021129 TAF KSEA 021129Z 0212/0318 14010KT P6SM -RA SCT030 OVC060
                      TEMPO 0212/0215 4SM RA BR OVC030 FM021500
                       18014KT P6SM -RA SCT015 OVC030
                      TEMPO 0215/0219 4SM RA OVC012 FM021900 21010G20KT
                       P6SM -SHRA BKN025 OVC050 FM030400 20009KT
                       P6SM SCT025 BKN050=
201006020531 TAF KSEA 020531Z 0206/0312 12005KT P6SM -RA BKN045 BKN070 OVC080
                       FM021000 17010KT 5SM -RA BR OVC015
                      TEMPO 0210/0214 2SM RA BR OVC005 FM021500
                       18014KT P6SM -RA BKN015 OVC030 FM022100
                       21010G20KT P6SM -SHRA BKN025 OVC050 FM030400
                       20009KT P6SM SCT025 BKN050=
201006020324 KSEA 020324Z 0203/0306 00000KT P6SM -RA SCT035 BKN060 OVC080
                      TEMPO 0203/0204 BKN040 BKN060 OVC120 FM020400
                       16008KT P6SM -RA SCT015 OVC030 FM021000
                       17010KT 5SM -RA BR OVC015
                      TEMPO 0210/0214 2SM RA BR OVC005 FM021500
                       18014KT P6SM -RA BKN015 OVC030 FM022100
                       21010KT P6SM -SHRA BKN025 OVC050 FM030500
                       20009KT P6SM SCT025 BKN050=
201006020112 KSEA 020112Z 0201/0306 22006KT P6SM -RA BKN050 BKN060 OVC120
                      TEMPO 0201/0204 BKN040 BKN060 OVC120 FM020400
                       16008KT P6SM -RA SCT015 OVC030 FM021000
                       17010KT 5SM -RA BR OVC015
                      TEMPO 0210/0214 2SM RA BR OVC005 FM021500
                       18014KT P6SM -RA BKN015 OVC030 FM022100
                       21010KT P6SM -SHRA BKN025 OVC050=
201006012326 TAF KSEA 012326Z 0200/0306 22006KT P6SM FEW040 BKN060 OVC120
                      TEMPO 0200/0204 BKN040 BKN060 OVC120 FM020400
                       16008KT P6SM -RA SCT015 OVC030 FM021000
                       17010KT 5SM -RA BR OVC015
                      TEMPO 0210/0214 2SM RA BR OVC005 FM021500
                       18014KT P6SM -RA BKN015 OVC030 FM022100
                       21010KT P6SM -SHRA BKN025 OVC050=
201006012100 KSEA 012100Z 0121/0224 20006KT P6SM SCT040 BKN070 BKN120
                      TEMPO 0121/0201 BKN040 BKN070 OVC120 FM020400
                       16010KT P6SM -RA SCT015 OVC030 FM021000
                       17012KT 5SM -RA BR OVC015
                      TEMPO 0210/0214 2SM RA BR OVC005 FM021500
                       18014KT P6SM -RA BKN015 OVC030 FM022100
                       21012KT P6SM -SHRA BKN025 OVC050=
201006012009 KSEA 012009Z 0120/0224 20006KT P6SM SCT035 BKN070 BKN120 FM020400
                       16010KT P6SM -RA SCT015 OVC030 FM021000
                       17012KT 5SM -RA BR OVC015
                      TEMPO 0210/0214 2SM RA BR OVC005 FM021500
                       18014KT P6SM -RA BKN015 OVC030 FM022100
                       21012KT P6SM -SHRA BKN025 OVC050=
201006011731 TAF KSEA 011731Z 0118/0224 17006KT P6SM FEW020 BKN045 BKN120
                      TEMPO 0118/0120 BKN020 OVC045 FM020000 17008KT
                       P6SM SCT030 OVC050 FM020400 16010KT P6SM
                       -RA SCT015 OVC030 FM021000 17012KT 5SM -RA
                       BR OVC015
                      TEMPO 0210/0214 2SM RA BR OVC005 FM021500
                       18014KT P6SM -RA BKN015 OVC030 FM022100
                       21012KT P6SM -SHRA BKN025 OVC050=
201006011503 KSEA 011503Z 0115/0218 16006KT P6SM SCT015 BKN060
                      TEMPO 0115/0117 BKN015 BKN060 FM011700 20007KT
                       P6SM SCT020 BKN060 BKN200 FM020200 18008KT
                       P6SM VCSH OVC050 FM020600 19011KT P6SM -RA
                       OVC015=
201006011302 KSEA 011302Z 0113/0218 15006KT P6SM SCT015 OVC060
                      TEMPO 0113/0117 BKN015 OVC060 FM011700 20007KT
                       P6SM SCT020 BKN060 BKN200 FM020200 18008KT
                       P6SM VCSH OVC050 FM020600 19011KT P6SM -RA
                       OVC015=
201006011128 TAF KSEA 011128Z 0112/0218 22007KT P6SM BKN015 OVC020 FM011700
                       20007KT P6SM SCT020 BKN060 BKN200 FM020200
                       18008KT P6SM VCSH OVC050 FM020600 19011KT
                       P6SM -RA OVC015=
201006010912 KSEA 010912Z 0109/0212 24004KT P6SM OVC013 FM011700 20007KT P6SM
                       SCT030 BKN060 BKN200 FM020200 18008KT P6SM
                       VCSH OVC050=
201006010621 TAF KSEA 010621Z 0106/0212 20006KT P6SM BKN020 BKN050 FM011700
                       20007KT P6SM SCT030 BKN060 BKN200 FM020200
                       18008KT P6SM VCSH OVC050=
201006010308 KSEA 010308Z 0103/0206 23012KT P6SM SCT040 SCT200 FM010800 17004KT
                       P6SM BKN025 OVC060 FM011700 20007KT P6SM
                       SCT030 BKN060 BKN200 FM020200 18008KT P6SM
                       VCSH OVC050=