##########################################################
# Query made at 02/17/2025 17:42:41 UTC
# Time interval: from 02/01/2010 00:00  to 02/28/2010 23:59  UTC
##########################################################

##########################################################
# KSEA, Seattle, Seattle-Tacoma International Airport (United States)
# WMO index: 72793. WIGOS ID: 0-20000-0-72793
# Latitude 47-27-00N. Longitude 122-17-59W. Altitude 130 m.
##########################################################

###################################
#  METAR/SPECI from KSEA
###################################
201002282353 METAR KSEA 282353Z 00000KT 10SM FEW050 SCT200 13/05 A3003 RMK AO2 SLP175 T01280050 10133 20083 58005=
201002282253 METAR KSEA 282253Z 23003KT 10SM FEW020 SCT100 BKN210 12/05 A3003 RMK AO2 SLP178 T01170050=
201002282153 METAR KSEA 282153Z 25005KT 10SM FEW030 SCT080 BKN200 12/05 A3004 RMK AO2 SLP180 T01220050=
201002282053 METAR KSEA 282053Z 27004KT 10SM FEW025 SCT100 BKN200 12/05 A3004 RMK AO2 SLP180 T01170050 58001=
201002282001 SPECI KSEA 282001Z 00000KT 10SM SCT021 BKN190 11/06 A3005 RMK AO2=
201002282001 SPECI KSEA 282001Z 00000KT 10SM SCT021 BKN190 11/06 A3005 RMK AO2=
201002281953 METAR KSEA 281953Z 18003KT 10SM BKN021 BKN190 11/06 A3005 RMK AO2 SLP182 T01110056=
201002281853 METAR KSEA 281853Z 00000KT 10SM FEW050 BKN190 10/06 A3005 RMK AO2 SLP182 T01000061=
201002281753 METAR KSEA 281753Z 15003KT 10SM FEW040 BKN180 08/06 A3004 RMK AO2 SLP180 T00830056 10083 20067 53012=
201002281653 METAR KSEA 281653Z 15005KT 10SM FEW040 BKN180 08/06 A3002 RMK AO2 SLP174 T00780061=
201002281553 METAR KSEA 281553Z 13003KT 10SM FEW022 BKN040 07/06 A3002 RMK AO2 SLP173 T00720056=
201002281453 METAR KSEA 281453Z 16004KT 10SM BKN022 BKN040 07/05 A3001 RMK AO2 SLP168 T00720050 51010=
201002281353 METAR KSEA 281353Z 00000KT 10SM BKN024 07/05 A3000 RMK AO2 SLP165 T00720050=
201002281253 METAR KSEA 281253Z 00000KT 10SM FEW010 OVC024 07/06 A2999 RMK AO2 SLP164 T00720056=
201002281153 METAR KSEA 281153Z 13004KT 10SM FEW010 BKN028 07/06 A2998 RMK AO2 SLP158 70006 T00720056 10089 20061 51004=
201002281053 METAR KSEA 281053Z 16005KT 10SM FEW010 BKN028 07/06 A2997 RMK AO2 SLP156 T00720061=
201002281016 SPECI KSEA 281016Z 19003KT 10SM FEW010 BKN028 07/06 A2997 RMK AO2=
201002281016 SPECI KSEA 281016Z 19003KT 10SM FEW010 BKN028 07/06 A2997 RMK AO2=
201002280953 METAR KSEA 280953Z 18004KT 10SM FEW012 BKN032 07/06 A2997 RMK AO2 SLP156 T00720061=
201002280853 METAR KSEA 280853Z 19006KT 10SM SCT012 BKN040 08/06 A2996 RMK AO2 SLP153 T00780056 51015=
201002280753 METAR KSEA 280753Z 19005KT 10SM FEW009 BKN012 OVC040 08/06 A2995 RMK AO2 SLP148 T00780061 401220078=
201002280653 METAR KSEA 280653Z 20006KT 10SM SCT009 BKN014 OVC100 08/07 A2994 RMK AO2 SLP147 T00830072=
201002280632 SPECI KSEA 280632Z 20006KT 10SM SCT009 BKN014 OVC100 08/07 A2994 RMK AO2=
201002280632 SPECI KSEA 280632Z 20006KT 10SM SCT009 BKN014 OVC100 08/07 A2994 RMK AO2=
201002280603 SPECI KSEA 280603Z 22008KT 10SM BKN012 OVC095 08/07 A2992 RMK AO2=
201002280603 SPECI KSEA 280603Z 22008KT 10SM BKN012 OVC095 08/07 A2992 RMK AO2=
201002280553 METAR KSEA 280553Z 21005KT 10SM FEW012 BKN018 BKN095 08/07 A2992 RMK AO2 SLP138 60000 T00830072 10111 20078 53016=
201002280453 METAR KSEA 280453Z 20008KT 10SM FEW055 BKN100 08/07 A2990 RMK AO2 SLP131 T00830067=
201002280353 METAR KSEA 280353Z 20008KT 10SM FEW050 BKN095 08/07 A2988 RMK AO2 SLP126 T00830072=
201002280253 METAR KSEA 280253Z 19007KT 10SM BKN040 OVC080 09/08 A2987 RMK AO2 RAB08E27 SLP122 P0000 60000 T00890078 53022=
201002280153 METAR KSEA 280153Z 24009KT 10SM FEW018 BKN046 OVC055 09/07 A2985 RMK AO2 RAB14E44 SLP116 P0000 T00940072=
201002280053 METAR KSEA 280053Z 20004KT 10SM BKN038 BKN050 OVC060 11/07 A2982 RMK AO2 RAB28E38 SLP104 P0000 T01110072=
201002272353 METAR KSEA 272353Z 17005KT 10SM SCT032 BKN042 OVC049 11/07 A2980 RMK AO2 SLP099 60005 T01110072 10122 20100 53006=
201002272253 METAR KSEA 272253Z 16006KT 10SM SCT030 BKN040 BKN060 11/08 A2979 RMK AO2 RAE29 SLP095 P0001 T01110078=
201002272153 METAR KSEA 272153Z 18005KT 10SM -RA SCT030 OVC040 10/07 A2978 RMK AO2 SLP093 P0003 T01000072=
201002272053 METAR KSEA 272053Z 24005KT 10SM -RA BKN043 OVC049 11/07 A2978 RMK AO2 RAB1959 SLP093 P0001 60001 T01060067 51014=
201002271953 METAR KSEA 271953Z 23007KT 10SM OVC045 12/05 A2977 RMK AO2 RAB35E45 SLP089 P0000 T01170050=
201002271853 METAR KSEA 271853Z 22009KT 10SM BKN043 OVC049 12/05 A2976 RMK AO2 SLP083 T01170050=
201002271753 METAR KSEA 271753Z 21009KT 10SM SCT045 BKN060 12/06 A2974 RMK AO2 SLP078 60001 T01170056 10122 20083 51020=
201002271653 METAR KSEA 271653Z 14009KT 10SM SCT045 SCT100 11/06 A2972 RMK AO2 SLP072 T01060061=
201002271553 METAR KSEA 271553Z 16006KT 10SM SCT045 BKN100 09/06 A2970 RMK AO2 SLP065 T00940056=
201002271453 METAR KSEA 271453Z 15004KT 10SM FEW030 BKN045 BKN055 08/06 A2968 RMK AO2 RAE04 SLP058 P0000 60001 T00830056 51017=
201002271353 METAR KSEA 271353Z 12003KT 10SM -RA FEW030 BKN045 BKN055 09/06 A2967 RMK AO2 SLP052 P0000 T00890061=
201002271253 METAR KSEA 271253Z 00000KT 10SM -RA FEW030 BKN050 BKN075 08/07 A2965 RMK AO2 SLP046 P0001 T00830067=
201002271153 METAR KSEA 271153Z 17005KT 10SM -RA FEW030 BKN045 OVC080 09/07 A2963 RMK AO2 RAB53 SLP041 P0000 60005 70030 T00890067 10094 20078 51020=
201002271053 METAR KSEA 271053Z 17003KT 10SM SCT030 OVC040 08/07 A2961 RMK AO2 RAE51 SLP034 P0001 T00830067=
201002270953 METAR KSEA 270953Z 18006KT 10SM -RA FEW010 SCT030 OVC040 09/07 A2960 RMK AO2 RAE0855B17 SLP031 P0001 T00890067=
201002270853 METAR KSEA 270853Z 11009KT 10SM -RA FEW010 BKN050 OVC060 09/07 A2957 RMK AO2 RAE05B30 SLP020 P0000 60003 T00890067 53017=
201002270753 METAR KSEA 270753Z 00000KT 10SM -RA FEW010 BKN045 OVC055 08/07 A2956 RMK AO2 SLP015 P0002 T00830067 401110078=
201002270653 METAR KSEA 270653Z 02005KT 10SM -RA OVC060 08/07 A2953 RMK AO2 SLP005 P0001 T00830072=
201002270553 METAR KSEA 270553Z 01006KT 10SM -RA OVC050 09/07 A2952 RMK AO2 SLP003 P0004 60014 T00890067 10106 20083 56008=
201002270453 METAR KSEA 270453Z 36004KT 9SM -RA SCT045 OVC055 08/07 A2953 RMK AO2 SLP006 P0003 T00830072=
201002270353 METAR KSEA 270353Z 02004KT 10SM -RA FEW043 OVC060 09/07 A2953 RMK AO2 SLP006 P0003 T00890067=
201002270253 METAR KSEA 270253Z 36003KT 10SM -RA OVC050 09/06 A2954 RMK AO2 SLP011 P0002 60004 T00890061 56013=
201002270153 METAR KSEA 270153Z 10007KT 10SM -RA OVC050 10/05 A2955 RMK AO2 SLP013 P0001 T01000050=
201002270053 METAR KSEA 270053Z 11005KT 10SM -RA OVC048 10/06 A2957 RMK AO2 SLP020 P0001 T01000056=
201002262353 METAR KSEA 262353Z 11007KT 10SM -RA OVC050 11/05 A2958 RMK AO2 RAB2257 SLP024 P0000 60003 T01060050 10111 20100 56022=
201002262253 METAR KSEA 262253Z 10011G19KT 10SM FEW033 OVC047 11/06 A2960 RMK AO2 RAE45 SLP029 P0000 T01060056=
201002262153 METAR KSEA 262153Z 11013KT 10SM -RA BKN049 OVC060 10/06 A2962 RMK AO2 SLP037 P0002 T01000061=
201002262053 METAR KSEA 262053Z 12009KT 10SM -RA BKN048 OVC060 10/06 A2965 RMK AO2 SLP047 P0001 60001 T01000061 58010=
201002261953 METAR KSEA 261953Z 11012KT 10SM -RA FEW035 OVC050 11/06 A2967 RMK AO2 RAE30B48 SLP054 P0000 T01110056=
201002261853 METAR KSEA 261853Z 12009KT 10SM -RA BKN046 OVC060 11/05 A2969 RMK AO2 RAB19 SLP058 P0000 T01060050=
201002261753 METAR KSEA 261753Z 13007KT 10SM BKN048 OVC060 10/05 A2968 RMK AO2 RAB27E41 SLP057 P0000 60008 T01000050 10100 20089 55000=
201002261653 METAR KSEA 261653Z 11013KT 10SM BKN046 OVC060 10/05 A2968 RMK AO2 RAB21E52 SLP057 P0000 T01000050=
201002261553 METAR KSEA 261553Z 12015G21KT 10SM BKN065 OVC080 09/05 A2966 RMK AO2 RAE11 SLP051 P0000 T00940050=
201002261453 METAR KSEA 261453Z 11018G22KT 10SM -RA BKN045 OVC055 09/06 A2968 RMK AO2 PRESFR SLP057 P0002 60008 T00890056 58023=
201002261353 METAR KSEA 261353Z 12012KT 10SM -RA BKN045 OVC055 09/06 A2971 RMK AO2 SLP069 P0003 T00890056=
201002261253 METAR KSEA 261253Z 12012KT 10SM -RA BKN045 OVC060 09/06 A2973 RMK AO2 SLP075 P0003 T00890056=
201002261153 METAR KSEA 261153Z 12011KT 10SM -RA BKN035 OVC050 09/06 A2975 RMK AO2 SLP080 P0004 60016 70020 T00890056 10111 20078 58029=
201002261053 METAR KSEA 261053Z 11010KT 10SM -RA BKN035 OVC050 09/06 A2978 RMK AO2 SLP090 P0007 T00890056=
201002260953 METAR KSEA 260953Z 00000KT 9SM RA BKN035 OVC045 08/06 A2983 RMK AO2 SLP109 P0005 T00780061=
201002260853 METAR KSEA 260853Z 26004KT 10SM -RA BKN055 OVC090 09/05 A2983 RMK AO2 RAB33 SLP110 P0000 60000 T00890050 55017=
201002260753 METAR KSEA 260753Z 12009KT 10SM BKN090 BKN110 OVC200 11/01 A2983 RMK AO2 SLP108 T01110011 401220067=
201002260653 METAR KSEA 260653Z 09008KT 10SM BKN100 OVC200 11/02 A2985 RMK AO2 SLP116 T01110017=
201002260553 METAR KSEA 260553Z 06004KT 10SM SCT110 OVC200 09/05 A2989 RMK AO2 SLP127 T00890050 10122 20089 56035=
201002260453 METAR KSEA 260453Z 05007KT 10SM SCT110 OVC200 10/04 A2992 RMK AO2 SLP137 T01000044=
201002260353 METAR KSEA 260353Z 07006KT 10SM OVC220 11/04 A2995 RMK AO2 SLP149 T01060044=
201002260253 METAR KSEA 260253Z 09005KT 10SM FEW060 OVC220 11/04 A2999 RMK AO2 SLP163 T01110044 56023=
201002260153 METAR KSEA 260153Z 12003KT 10SM FEW060 OVC220 12/04 A3000 RMK AO2 SLP168 T01170039=
201002260053 METAR KSEA 260053Z 00000KT 10SM FEW030 SCT060 BKN250 12/04 A3004 RMK AO2 SLP181 T01220044=
201002252353 METAR KSEA 252353Z 19003KT 10SM FEW028 SCT070 BKN250 12/04 A3006 RMK AO2 SLP186 60000 T01170044 10122 20083 56023=
201002252253 METAR KSEA 252253Z 28003KT 10SM FEW028 BKN070 BKN250 12/06 A3008 RMK AO2 SLP195 T01220056=
201002252153 METAR KSEA 252153Z 20003KT 10SM FEW028 BKN060 12/06 A3009 RMK AO2 RAB46E52 SLP195 P0000 T01170061=
201002252053 METAR KSEA 252053Z 17008KT 10SM SCT025 BKN046 12/06 A3013 RMK AO2 RAB28E39 SLP209 SHRA E P0000 60000 T01170061 58008=
201002251953 METAR KSEA 251953Z 16008KT 10SM SCT032 BKN050 11/06 A3015 RMK AO2 SLP215 T01110061=
201002251853 METAR KSEA 251853Z 20007KT 10SM FEW013 BKN036 BKN065 09/07 A3015 RMK AO2 RAB14E49 SLP217 P0000 T00890067=
201002251835 SPECI KSEA 251835Z 19006KT 9SM -RA FEW013 BKN032 BKN200 08/06 A3015 RMK AO2 RAB14 P0000=
201002251835 SPECI KSEA 251835Z 19006KT 9SM -RA FEW013 BKN032 BKN200 08/06 A3015 RMK AO2 RAB14 P0000=
201002251753 METAR KSEA 251753Z 19004KT 10SM BKN025 BKN033 08/06 A3015 RMK AO2 RAB18E52 SLP219 SHRA N-E P0001 60004 T00830061 10083 20067 53012=
201002251735 SPECI KSEA 251735Z 16003KT 6SM -RA BR BKN027 OVC034 08/06 A3015 RMK AO2 RAB18 VIS SW-NW 2 1/2 P0001=
201002251735 SPECI KSEA 251735Z 16003KT 6SM -RA BR BKN027 OVC034 08/06 A3015 RMK AO2 RAB18 VIS SW-NW 2 1/2 P0001=
201002251653 METAR KSEA 251653Z 16007KT 10SM FEW025 BKN039 08/06 A3014 RMK AO2 RAB08E35 SLP213 P0000 T00830056=
201002251553 METAR KSEA 251553Z 19009KT 10SM FEW020 SCT036 BKN070 08/05 A3013 RMK AO2 RAE05 SLP210 P0000 T00780050=
201002251453 METAR KSEA 251453Z 19009KT 10SM -RA FEW020 SCT030 BKN039 07/05 A3012 RMK AO2 RAB53 SLP206 P0000 60003 T00720050 51011=
201002251353 METAR KSEA 251353Z 17011KT 10SM FEW020 SCT030 BKN040 07/05 A3011 RMK AO2 RAE32 SLP204 P0003 T00720050=
201002251306 SPECI KSEA 251306Z 23005KT 4SM +RA BR FEW022 BKN027 BKN043 07/06 A3011 RMK AO2 P0001=
201002251306 SPECI KSEA 251306Z 23005KT 4SM +RA BR FEW022 BKN027 BKN043 07/06 A3011 RMK AO2 P0001=
201002251253 METAR KSEA 251253Z 20009KT 9SM -RA SCT026 BKN032 BKN110 08/05 A3010 RMK AO2 RAE12B47 SLP200 P0000 T00780050=
201002251210 SPECI KSEA 251210Z 22008KT 10SM -RA FEW020 BKN028 BKN035 08/05 A3009 RMK AO2 P0000=
201002251210 SPECI KSEA 251210Z 22008KT 10SM -RA FEW020 BKN028 BKN035 08/05 A3009 RMK AO2 P0000=
201002251153 METAR KSEA 251153Z 21010KT 10SM -RA FEW025 BKN030 BKN050 08/05 A3008 RMK AO2 RAB12E27B49 SLP195 P0000 60001 70029 T00780050 10078 20067 51013=
201002251053 METAR KSEA 251053Z 18011KT 10SM FEW030 BKN040 OVC055 08/04 A3007 RMK AO2 SLP191 T00780044=
201002250953 METAR KSEA 250953Z 18011KT 10SM FEW035 SCT045 BKN080 07/04 A3006 RMK AO2 SLP188 T00720044=
201002250853 METAR KSEA 250853Z 19010KT 10SM SCT035 BKN045 BKN085 07/04 A3004 RMK AO2 SLP182 P0001 60001 T00720044 53017=
201002250753 METAR KSEA 250753Z 19010KT 10SM SCT030 BKN040 BKN050 07/05 A3003 RMK AO2 RAE0659B22E48 SLP175 P0000 T00720050 401060056=
201002250653 METAR KSEA 250653Z 18011KT 10SM -RA FEW035 BKN055 BKN120 08/05 A3001 RMK AO2 RAB30 SLP169 P0000 T00780050=
201002250553 METAR KSEA 250553Z 19008KT 10SM FEW045 SCT120 07/05 A2999 RMK AO2 SLP165 60001 T00720050 10094 20072 51014=
201002250453 METAR KSEA 250453Z 17010KT 10SM FEW045 SCT110 08/05 A2998 RMK AO2 SLP160 T00780050=
201002250353 METAR KSEA 250353Z 18010KT 10SM FEW020 SCT048 BKN100 08/06 A2997 RMK AO2 SLP157 T00830056=
201002250253 METAR KSEA 250253Z 17008KT 10SM SCT029 SCT100 08/06 A2995 RMK AO2 SLP151 60001 T00830061 53013=
201002250153 METAR KSEA 250153Z 18008KT 10SM FEW029 SCT100 SCT200 08/06 A2993 RMK AO2 SLP143 T00830061=
201002250053 METAR KSEA 250053Z 19009KT 10SM FEW050 SCT100 BKN200 09/06 A2992 RMK AO2 RAE35 SLP139 P0001 T00890061=
201002242353 METAR KSEA 242353Z 20011G19KT 10SM -RA FEW027 BKN050 BKN200 09/07 A2991 RMK AO2 RAB28 SLP137 P0001 60022 T00940067 10106 20083 53004=
201002242253 METAR KSEA 242253Z 21009G17KT 8SM FEW022 BKN036 BKN200 09/07 A2990 RMK AO2 RAB15E50 SLP135 SHRA NE-SE P0010 T00940072=
201002242153 METAR KSEA 242153Z 18008KT 10SM FEW028 BKN050 BKN200 10/08 A2989 RMK AO2 RAE06 SLP130 SHRA S P0000 T01000078=
201002242053 METAR KSEA 242053Z 19010KT 8SM -RA FEW025 BKN033 BKN200 08/07 A2990 RMK AO2 RAB04 SLP134 P0011 60011 T00830072 51014=
201002241953 METAR KSEA 241953Z 22009KT 10SM SCT025 BKN036 BKN200 10/07 A2990 RMK AO2 RAB32E41 SLP133 P0000 T01000067=
201002241853 METAR KSEA 241853Z 21012KT 10SM FEW008 SCT015 BKN200 10/07 A2989 RMK AO2 SLP127 T01000072=
201002241831 SPECI KSEA 241831Z 21014KT 10SM FEW008 SCT015 BKN200 09/08 A2988 RMK AO2=
201002241831 SPECI KSEA 241831Z 21014KT 10SM FEW008 SCT015 BKN200 09/08 A2988 RMK AO2=
201002241753 METAR KSEA 241753Z 20012KT 10SM SCT007 BKN013 BKN028 BKN200 08/07 A2986 RMK AO2 RAB06E27 SLP119 P0000 60005 T00830072 10083 20056 53021=
201002241653 METAR KSEA 241653Z 19010KT 8SM FEW005 BKN011 OVC017 07/06 A2984 RMK AO2 RAB1556E53 SLP111 P0003 T00720061=
201002241608 SPECI KSEA 241608Z 16009KT 3SM -RA BR FEW005 BKN009 OVC017 07/06 A2982 RMK AO2 SFC VIS 4 RAB1556 P0001=
201002241608 SPECI KSEA 241608Z 16009KT 3SM -RA BR FEW005 BKN009 OVC017 07/06 A2982 RMK AO2 SFC VIS 4 RAB1556 P0001=
201002241553 METAR KSEA 241553Z 15008KT 3SM BR FEW006 BKN012 OVC019 06/06 A2981 RMK AO2 SFC VIS 4 RAB1459E48 SLP104 P0000 T00610056=
201002241544 SPECI KSEA 241544Z 15008KT 3SM -RA BR FEW008 BKN015 OVC025 06/05 A2981 RMK AO2 SFC VIS 4 RAB1459 P0000=
201002241544 SPECI KSEA 241544Z 15008KT 3SM -RA BR FEW008 BKN015 OVC025 06/05 A2981 RMK AO2 SFC VIS 4 RAB1459 P0000=
201002241531 SPECI KSEA 241531Z 16008KT 2SM -RA BR FEW011 OVC018 06/05 A2981 RMK AO2 RAB1459 P0000=
201002241531 SPECI KSEA 241531Z 16008KT 2SM -RA BR FEW011 OVC018 06/05 A2981 RMK AO2 RAB1459 P0000=
201002241453 METAR KSEA 241453Z 15008KT 8SM FEW010 OVC018 06/05 A2980 RMK AO2 SLP098 60002 T00610050 51009=
201002241428 SPECI KSEA 241428Z 14007KT 10SM SCT012 BKN019 OVC026 06/05 A2979 RMK AO2=
201002241428 SPECI KSEA 241428Z 14007KT 10SM SCT012 BKN019 OVC026 06/05 A2979 RMK AO2=
201002241353 METAR KSEA 241353Z 14006KT 10SM BKN010 OVC022 06/04 A2979 RMK AO2 RAE21 SLP095 P0001 T00560044=
201002241325 SPECI KSEA 241325Z 15005KT 10SM FEW005 OVC014 06/04 A2979 RMK AO2 RAE21 P0001=
201002241325 SPECI KSEA 241325Z 15005KT 10SM FEW005 OVC014 06/04 A2979 RMK AO2 RAE21 P0001=
201002241253 METAR KSEA 241253Z 15005KT 10SM -RA OVC016 06/04 A2978 RMK AO2 SLP093 P0001 T00560044=
201002241153 METAR KSEA 241153Z 00000KT 10SM -RA OVC022 06/04 A2977 RMK AO2 SLP088 P0001 60006 70021 T00560044 10072 20056 53003=
201002241053 METAR KSEA 241053Z 12005KT 10SM -RA OVC028 06/04 A2976 RMK AO2 SLP086 P0001 T00560039=
201002240953 METAR KSEA 240953Z 10005KT 10SM -RA BKN028 OVC037 06/04 A2976 RMK AO2 SLP086 P0002 T00610039=
201002240936 SPECI KSEA 240936Z 11005KT 10SM -RA OVC028 06/04 A2976 RMK AO2 P0002=
201002240936 SPECI KSEA 240936Z 11005KT 10SM -RA OVC028 06/04 A2976 RMK AO2 P0002=
201002240853 METAR KSEA 240853Z 13003KT 10SM -RA OVC032 06/04 A2976 RMK AO2 SLP085 P0001 60002 T00610039 55008=
201002240833 SPECI KSEA 240833Z 00000KT 10SM -RA SCT027 OVC035 06/04 A2976 RMK AO2 P0001=
201002240833 SPECI KSEA 240833Z 00000KT 10SM -RA SCT027 OVC035 06/04 A2976 RMK AO2 P0001=
201002240806 SPECI KSEA 240806Z 00000KT 10SM -RA BKN029 OVC043 06/04 A2976 RMK AO2 P0000=
201002240806 SPECI KSEA 240806Z 00000KT 10SM -RA BKN029 OVC043 06/04 A2976 RMK AO2 P0000=
201002240753 METAR KSEA 240753Z 15003KT 10SM -RA SCT029 OVC043 06/04 A2976 RMK AO2 SLP085 P0001 T00560044 400890028=
201002240653 METAR KSEA 240653Z 11005KT 10SM -RA BKN049 OVC065 07/04 A2977 RMK AO2 SLP087 P0000 T00670039=
201002240553 METAR KSEA 240553Z 07005KT 10SM -RA OVC042 07/05 A2978 RMK AO2 SLP094 P0000 60009 T00720050 10083 20061 56019=
201002240453 METAR KSEA 240453Z 14004KT 10SM -RA OVC044 07/06 A2980 RMK AO2 SLP100 P0001 T00670056=
201002240353 METAR KSEA 240353Z 00000KT 10SM -RA FEW028 OVC033 07/06 A2982 RMK AO2 SLP105 P0002 T00720056=
201002240253 METAR KSEA 240253Z 11005KT 8SM -RA OVC038 07/05 A2984 RMK AO2 SLP114 P0002 60006 T00670050 58013=
201002240153 METAR KSEA 240153Z 00000KT 8SM -RA SCT034 OVC043 07/05 A2986 RMK AO2 SLP118 P0003 T00670050=
201002240053 METAR KSEA 240053Z 27003KT 7SM -RA OVC037 06/05 A2987 RMK AO2 SLP124 P0001 T00610050=
201002232353 METAR KSEA 232353Z 12004KT 9SM -RA OVC039 08/05 A2988 RMK AO2 SLP126 P0001 60006 T00830050 10089 20056 56028=
201002232253 METAR KSEA 232253Z 11008KT 8SM -RA FEW030 OVC041 08/03 A2990 RMK AO2 SLP133 P0001 T00830033=
201002232219 SPECI KSEA 232219Z 11007KT 7SM -RA SCT028 OVC041 08/03 A2992 RMK AO2 P0000=
201002232219 SPECI KSEA 232219Z 11007KT 7SM -RA SCT028 OVC041 08/03 A2992 RMK AO2 P0000=
201002232153 METAR KSEA 232153Z 13006KT 7SM -RA FEW021 OVC028 07/04 A2993 RMK AO2 SLP145 P0004 T00720039=
201002232143 SPECI KSEA 232143Z 16004KT 7SM -RA FEW020 OVC028 07/04 A2994 RMK AO2 P0003=
201002232143 SPECI KSEA 232143Z 16004KT 7SM -RA FEW020 OVC028 07/04 A2994 RMK AO2 P0003=
201002232053 METAR KSEA 232053Z 15005KT 7SM -RA OVC034 07/03 A2996 RMK AO2 RAB21 SLP155 P0000 60000 T00670028 58004=
201002231953 METAR KSEA 231953Z 24004KT 10SM FEW040 OVC060 08/M01 A2998 RMK AO2 SLP160 T00831011=
201002231853 METAR KSEA 231853Z 21004KT 10SM FEW040 OVC060 07/00 A2999 RMK AO2 SLP162 T00720000=
201002231753 METAR KSEA 231753Z 23004KT 10SM BKN065 OVC100 06/M01 A2998 RMK AO2 SLP159 T00561011 10072 20028 58010=
201002231653 METAR KSEA 231653Z 00000KT 10SM BKN065 BKN120 OVC200 05/01 A2999 RMK AO2 SLP163 T00500011=
201002231553 METAR KSEA 231553Z 00000KT 10SM SCT090 BKN120 OVC200 04/M02 A3000 RMK AO2 SLP166 T00391022=
201002231453 METAR KSEA 231453Z 00000KT 10SM BKN090 04/M04 A3001 RMK AO2 SLP169 T00391039 58018=
201002231353 METAR KSEA 231353Z 12004KT 10SM BKN090 05/M04 A3003 RMK AO2 SLP178 T00501044=
201002231253 METAR KSEA 231253Z 15003KT 10SM BKN150 03/M04 A3005 RMK AO2 SLP185 T00331039=
201002231153 METAR KSEA 231153Z 16003KT 10SM FEW095 BKN200 04/M04 A3006 RMK AO2 SLP186 T00391039 10072 20039 58011=
201002231053 METAR KSEA 231053Z 00000KT 10SM BKN095 04/M03 A3008 RMK AO2 SLP192 T00441033=
201002230953 METAR KSEA 230953Z 16004KT 10SM FEW100 SCT110 BKN200 06/M04 A3010 RMK AO2 SLP198 T00561044=
201002230853 METAR KSEA 230853Z 13008KT 10SM SCT110 BKN200 06/M04 A3009 RMK AO2 SLP197 T00611039 58008=
201002230753 METAR KSEA 230753Z 16004KT 10SM SCT220 06/M03 A3011 RMK AO2 SLP203 T00561033 401220006=
201002230653 METAR KSEA 230653Z 13008KT 10SM SCT220 07/M03 A3011 RMK AO2 SLP206 T00671033=
201002230553 METAR KSEA 230553Z 12009KT 10SM FEW220 07/M04 A3012 RMK AO2 SLP207 T00721039 10117 20072 58001=
201002230453 METAR KSEA 230453Z 12010KT 10SM FEW220 08/M05 A3012 RMK AO2 SLP207 T00831050=
201002230353 METAR KSEA 230353Z 12007KT 10SM FEW220 08/M04 A3012 RMK AO2 SLP208 T00831044=
201002230253 METAR KSEA 230253Z 14008KT 10SM SCT220 09/M04 A3012 RMK AO2 SLP208 T00941039 56004=
201002230153 METAR KSEA 230153Z 15003KT 10SM FEW160 BKN250 10/M04 A3013 RMK AO2 SLP210 T01001039=
201002230053 METAR KSEA 230053Z 22007KT 10SM FEW160 BKN250 11/M04 A3012 RMK AO2 SLP209 T01061039=
201002222353 METAR KSEA 222353Z 23005KT 10SM BKN250 12/M04 A3013 RMK AO2 SLP212 T01221039 10122 20067 56005=
201002222253 METAR KSEA 222253Z 28005KT 10SM BKN250 12/M02 A3013 RMK AO2 SLP212 T01171022=
201002222153 METAR KSEA 222153Z VRB03KT 10SM BKN250 12/M01 A3014 RMK AO2 SLP215 T01171006=
201002222053 METAR KSEA 222053Z VRB04KT 10SM FEW250 11/M01 A3015 RMK AO2 SLP218 T01061006 56008=
201002221953 METAR KSEA 221953Z 26004KT 10SM FEW250 10/M03 A3016 RMK AO2 SLP221 T01001028=
201002221853 METAR KSEA 221853Z 17003KT 10SM FEW250 09/M04 A3016 RMK AO2 SLP221 T00891039=
201002221753 METAR KSEA 221753Z 00000KT 10SM FEW250 07/M03 A3018 RMK AO2 SLP227 T00671033 10067 20006 58001=
201002221653 METAR KSEA 221653Z 00000KT 10SM FEW250 04/M04 A3019 RMK AO2 SLP232 T00441039=
201002221553 METAR KSEA 221553Z 00000KT 10SM FEW250 03/M04 A3019 RMK AO2 SLP231 T00331044=
201002221453 METAR KSEA 221453Z 17003KT 10SM CLR 02/M05 A3018 RMK AO2 SLP228 T00221050 51007=
201002221353 METAR KSEA 221353Z 11005KT 10SM CLR 02/M04 A3018 RMK AO2 SLP227 T00221039=
201002221253 METAR KSEA 221253Z 11005KT 10SM CLR 02/M03 A3017 RMK AO2 SLP226 T00221033=
201002221153 METAR KSEA 221153Z 16003KT 10SM CLR 02/M03 A3016 RMK AO2 SLP221 T00171028 10067 20011 52016=
201002221053 METAR KSEA 221053Z 14004KT 10SM CLR 03/M03 A3014 RMK AO2 SLP215 T00281033=
201002220953 METAR KSEA 220953Z 00000KT 10SM CLR 03/M03 A3013 RMK AO2 SLP210 T00281033=
201002220853 METAR KSEA 220853Z 10005KT 10SM CLR 04/M03 A3011 RMK AO2 SLP204 T00441028 51006=
201002220753 METAR KSEA 220753Z 00000KT 10SM CLR 04/M02 A3011 RMK AO2 SLP205 T00441022 401390022=
201002220653 METAR KSEA 220653Z 00000KT 10SM CLR 06/M01 A3011 RMK AO2 SLP203 T00561011=
201002220553 METAR KSEA 220553Z 05003KT 10SM CLR 07/M02 A3009 RMK AO2 SLP199 T00671017 10133 20056 51004=
201002220453 METAR KSEA 220453Z 04007KT 10SM CLR 08/M03 A3009 RMK AO2 SLP196 T00781028=
201002220353 METAR KSEA 220353Z 36006KT 10SM CLR 07/M02 A3009 RMK AO2 SLP198 T00671022=
201002220253 METAR KSEA 220253Z 36006KT 10SM CLR 09/M03 A3008 RMK AO2 SLP194 T00891033 51008=
201002220153 METAR KSEA 220153Z 36007KT 10SM CLR 10/M03 A3007 RMK AO2 SLP192 T01001028=
201002220053 METAR KSEA 220053Z 31005KT 10SM CLR 12/M02 A3006 RMK AO2 SLP187 T01221022=
201002212353 METAR KSEA 212353Z 31005KT 10SM CLR 13/M03 A3005 RMK AO2 SLP185 T01331033 10139 20078 55002=
201002212253 METAR KSEA 212253Z 35007KT 10SM CLR 14/M05 A3005 RMK AO2 SLP182 T01391050=
201002212153 METAR KSEA 212153Z VRB04KT 10SM CLR 13/M02 A3005 RMK AO2 SLP181 T01281022=
201002212053 METAR KSEA 212053Z 29007KT 10SM CLR 12/M01 A3006 RMK AO2 SLP187 T01171011 58005=
201002211953 METAR KSEA 211953Z 29004KT 10SM CLR 11/01 A3007 RMK AO2 SLP190 T01060006=
201002211853 METAR KSEA 211853Z 00000KT 10SM CLR 10/M03 A3007 RMK AO2 SLP191 T01001028=
201002211753 METAR KSEA 211753Z 33004KT 10SM CLR 08/M01 A3008 RMK AO2 SLP192 T00831011 10089 20022 51010=
201002211653 METAR KSEA 211653Z 00000KT 10SM CLR 06/M01 A3007 RMK AO2 SLP192 T00561011=
201002211553 METAR KSEA 211553Z 11003KT 10SM CLR 03/M02 A3006 RMK AO2 SLP188 T00281022=
201002211453 METAR KSEA 211453Z 05008KT 10SM CLR 04/M03 A3004 RMK AO2 SLP182 T00391028 53005=
201002211353 METAR KSEA 211353Z 05010KT 10SM CLR 04/M02 A3004 RMK AO2 SLP179 T00391017=
201002211253 METAR KSEA 211253Z 08011KT 10SM CLR 08/M06 A3004 RMK AO2 SLP179 T00781061=
201002211153 METAR KSEA 211153Z 07007KT 10SM CLR 05/M04 A3003 RMK AO2 SLP176 T00501044 10094 20050 55000=
201002211053 METAR KSEA 211053Z 10008KT 10SM CLR 08/M07 A3003 RMK AO2 SLP174 T00831067=
201002210953 METAR KSEA 210953Z 10012KT 10SM CLR 09/M07 A3003 RMK AO2 SLP175 T00891067=
201002210853 METAR KSEA 210853Z 12010KT 10SM CLR 08/M06 A3003 RMK AO2 SLP176 T00781056 53003=
201002210753 METAR KSEA 210753Z 11009KT 10SM CLR 08/M06 A3003 RMK AO2 SLP175 T00831056 401390017=
201002210653 METAR KSEA 210653Z 10010KT 10SM CLR 09/M05 A3002 RMK AO2 SLP173 T00891050=
201002210553 METAR KSEA 210553Z 10009KT 10SM CLR 09/M05 A3002 RMK AO2 SLP174 T00891050 10139 20089 51009=
201002210453 METAR KSEA 210453Z 10008KT 10SM CLR 09/M05 A3001 RMK AO2 SLP172 T00941050=
201002210353 METAR KSEA 210353Z 08008KT 10SM CLR 10/M05 A3001 RMK AO2 SLP169 T01001050=
201002210253 METAR KSEA 210253Z 05007KT 10SM CLR 11/M03 A3000 RMK AO2 SLP166 T01061028 53005=
201002210153 METAR KSEA 210153Z 03007KT 10SM CLR 11/M03 A2999 RMK AO2 SLP162 T01061028=
201002210053 METAR KSEA 210053Z 01009KT 10SM CLR 12/M02 A2998 RMK AO2 SLP162 T01221022=
201002202353 METAR KSEA 202353Z 34007KT 10SM CLR 14/M01 A2998 RMK AO2 SLP160 T01391011 10139 20072 56007=
201002202253 METAR KSEA 202253Z 36008KT 10SM FEW080 14/M01 A2998 RMK AO2 SLP160 T01391011=
201002202153 METAR KSEA 202153Z 36009KT 10SM CLR 13/M01 A2999 RMK AO2 SLP162 T01331006=
201002202053 METAR KSEA 202053Z 36010KT 10SM CLR 12/M02 A3000 RMK AO2 SLP167 T01221017 58013=
201002201953 METAR KSEA 201953Z 35007KT 10SM CLR 12/M01 A3002 RMK AO2 SLP174 T01171006=
201002201853 METAR KSEA 201853Z 36007KT 10SM CLR 09/00 A3003 RMK AO2 SLP179 T00940000=
201002201753 METAR KSEA 201753Z 36006KT 10SM CLR 07/02 A3004 RMK AO2 SLP181 T00720017 10072 20017 53003=
201002201653 METAR KSEA 201653Z 01005KT 10SM FEW010 05/02 A3004 RMK AO2 SLP180 T00500022=
201002201553 METAR KSEA 201553Z 04003KT 10SM CLR 03/01 A3003 RMK AO2 SLP178 T00330011=
201002201453 METAR KSEA 201453Z 02003KT 10SM CLR 02/01 A3003 RMK AO2 SLP178 T00220006 56002=
201002201353 METAR KSEA 201353Z 00000KT 10SM CLR 03/01 A3003 RMK AO2 SLP178 T00280011=
201002201253 METAR KSEA 201253Z 00000KT 10SM CLR 02/00 A3004 RMK AO2 SLP179 T00220000=
201002201153 METAR KSEA 201153Z 00000KT 10SM CLR 03/01 A3004 RMK AO2 SLP179 T00330011 10072 20022 50002=
201002201053 METAR KSEA 201053Z 01005KT 10SM CLR 03/01 A3004 RMK AO2 SLP180 T00280006=
201002200953 METAR KSEA 200953Z 36005KT 10SM CLR 05/02 A3004 RMK AO2 SLP180 T00500022=
201002200853 METAR KSEA 200853Z 05003KT 10SM CLR 06/01 A3003 RMK AO2 SLP176 T00560011 58001=
201002200753 METAR KSEA 200753Z 04007KT 10SM CLR 06/01 A3003 RMK AO2 SLP178 T00610006 401500039=
201002200653 METAR KSEA 200653Z 03004KT 10SM CLR 06/M01 A3003 RMK AO2 SLP177 T00561006=
201002200553 METAR KSEA 200553Z 04004KT 10SM CLR 07/M01 A3003 RMK AO2 SLP178 T00721006 10133 20067 51007=
201002200453 METAR KSEA 200453Z 01008KT 10SM CLR 07/01 A3002 RMK AO2 SLP175 T00720006=
201002200353 METAR KSEA 200353Z 01006KT 10SM CLR 08/01 A3003 RMK AO2 SLP176 T00780006=
201002200253 METAR KSEA 200253Z 01006KT 10SM CLR 08/00 A3001 RMK AO2 SLP171 T00830000 53006=
201002200153 METAR KSEA 200153Z 35008KT 10SM CLR 10/01 A3000 RMK AO2 SLP167 T01000006=
201002200053 METAR KSEA 200053Z 35007KT 10SM FEW250 12/00 A2999 RMK AO2 SLP164 T01220000=
201002192353 METAR KSEA 192353Z 32009KT 10SM FEW250 14/M02 A2999 RMK AO2 SLP164 T01391017 10150 20094 56008=
201002192253 METAR KSEA 192253Z 34012KT 10SM FEW250 14/M02 A3000 RMK AO2 SLP167 T01441017=
201002192153 METAR KSEA 192153Z 36009KT 10SM FEW250 14/M03 A3000 RMK AO2 SLP168 T01441028=
201002192053 METAR KSEA 192053Z 03012KT 10SM FEW250 14/M02 A3002 RMK AO2 SLP172 T01391017 58010=
201002191953 METAR KSEA 191953Z 36009KT 10SM FEW250 13/M01 A3004 RMK AO2 SLP179 T01281011=
201002191853 METAR KSEA 191853Z 03009KT 10SM FEW250 11/M02 A3005 RMK AO2 SLP182 T01111017=
201002191753 METAR KSEA 191753Z 01008KT 10SM SCT250 09/01 A3005 RMK AO2 SLP182 T00940006 10094 20039 51013=
201002191653 METAR KSEA 191653Z 36006KT 10SM BKN250 08/00 A3004 RMK AO2 SLP179 T00780000=
201002191553 METAR KSEA 191553Z 05005KT 10SM BKN250 06/M01 A3002 RMK AO2 SLP175 T00561011=
201002191453 METAR KSEA 191453Z 02011KT 10SM FEW200 04/M01 A3001 RMK AO2 SLP170 T00441006 53001=
201002191353 METAR KSEA 191353Z 01006KT 10SM CLR 04/00 A3000 RMK AO2 SLP166 T00390000=
201002191253 METAR KSEA 191253Z 03012KT 10SM CLR 05/00 A3001 RMK AO2 SLP168 T00500000=
201002191153 METAR KSEA 191153Z 03010KT 10SM CLR 05/M01 A3000 RMK AO2 SLP168 T00501006 10078 20050 58005=
201002191053 METAR KSEA 191053Z 02011KT 10SM CLR 06/00 A3001 RMK AO2 SLP169 T00560000=
201002190953 METAR KSEA 190953Z 02011KT 10SM CLR 06/00 A3001 RMK AO2 SLP171 T00610000=
201002190853 METAR KSEA 190853Z 03013KT 10SM CLR 07/00 A3002 RMK AO2 SLP172 T00670000 56009=
201002190753 METAR KSEA 190753Z 02012KT 10SM CLR 07/01 A3002 RMK AO2 SLP173 T00670006 401500039=
201002190653 METAR KSEA 190653Z 02011KT 10SM CLR 07/01 A3004 RMK AO2 SLP178 T00670006=
201002190553 METAR KSEA 190553Z 02012KT 10SM CLR 08/01 A3005 RMK AO2 SLP183 T00780006 10144 20078 58001=
201002190453 METAR KSEA 190453Z 02011KT 10SM CLR 08/01 A3005 RMK AO2 SLP183 T00830006=
201002190353 METAR KSEA 190353Z 02010KT 10SM CLR 09/00 A3006 RMK AO2 SLP186 T00940000=
201002190253 METAR KSEA 190253Z 03010KT 10SM CLR 11/00 A3005 RMK AO2 SLP184 T01060000 55002=
201002190153 METAR KSEA 190153Z 02009KT 10SM FEW250 11/01 A3005 RMK AO2 SLP184 T01060011=
201002190053 METAR KSEA 190053Z 01013KT 10SM FEW250 13/00 A3006 RMK AO2 SLP185 T01330000=
201002182353 METAR KSEA 182353Z 01016KT 10SM SCT250 14/01 A3006 RMK AO2 SLP186 T01440006 10150 20078 56009=
201002182253 METAR KSEA 182253Z 01013KT 10SM SCT250 15/01 A3006 RMK AO2 SLP188 T01500011=
201002182153 METAR KSEA 182153Z 01014KT 10SM SCT250 15/01 A3008 RMK AO2 SLP192 T01500011=
201002182053 METAR KSEA 182053Z 36014KT 10SM SCT250 14/02 A3008 RMK AO2 SLP195 T01440017 58018=
201002181953 METAR KSEA 181953Z 01011KT 10SM SCT250 12/02 A3011 RMK AO2 SLP203 T01220022=
201002181853 METAR KSEA 181853Z 01013KT 10SM SCT250 10/02 A3013 RMK AO2 SLP211 T01000017=
201002181753 METAR KSEA 181753Z 02015KT 10SM FEW250 08/02 A3014 RMK AO2 SLP214 T00780017 10078 20039 58001=
201002181653 METAR KSEA 181653Z 02015KT 10SM SCT250 06/02 A3014 RMK AO2 SLP215 T00610017=
201002181553 METAR KSEA 181553Z 02016KT 10SM FEW200 05/02 A3014 RMK AO2 SLP216 T00500017=
201002181453 METAR KSEA 181453Z 02015KT 10SM FEW200 04/02 A3014 RMK AO2 SLP215 T00440017 55001=
201002181353 METAR KSEA 181353Z 03013KT 10SM CLR 04/02 A3014 RMK AO2 SLP215 T00440022=
201002181253 METAR KSEA 181253Z 01014KT 10SM CLR 04/03 A3014 RMK AO2 SLP216 T00440028=
201002181153 METAR KSEA 181153Z 02015KT 10SM CLR 04/03 A3015 RMK AO2 SLP217 T00440033 10067 20044 57003=
201002181053 METAR KSEA 181053Z 02013KT 10SM CLR 04/03 A3015 RMK AO2 SLP218 T00440028=
201002180953 METAR KSEA 180953Z 02012KT 10SM CLR 05/03 A3015 RMK AO2 SLP219 T00500033=
201002180853 METAR KSEA 180853Z 03013KT 10SM CLR 05/03 A3016 RMK AO2 SLP220 T00500033 58005=
201002180753 METAR KSEA 180753Z 02013KT 10SM CLR 06/03 A3016 RMK AO2 SLP223 T00560033 401060039=
201002180653 METAR KSEA 180653Z 03016KT 10SM CLR 06/03 A3017 RMK AO2 SLP225 T00610033=
201002180553 METAR KSEA 180553Z 01014KT 10SM CLR 06/03 A3017 RMK AO2 SLP226 T00610033 10106 20061 56004=
201002180453 METAR KSEA 180453Z 02013KT 10SM CLR 07/03 A3017 RMK AO2 SLP226 T00670033=
201002180353 METAR KSEA 180353Z 03013KT 10SM CLR 08/04 A3018 RMK AO2 SLP229 T00780039=
201002180253 METAR KSEA 180253Z 02015KT 10SM CLR 08/04 A3018 RMK AO2 SLP230 T00780039 53002=
201002180153 METAR KSEA 180153Z 03016KT 10SM FEW250 09/03 A3017 RMK AO2 SLP226 T00890028=
201002180053 METAR KSEA 180053Z 02018KT 10SM FEW250 10/03 A3017 RMK AO2 SLP225 T01000033=
201002172353 METAR KSEA 172353Z 02017KT 10SM FEW250 11/04 A3018 RMK AO2 SLP228 T01060039 10106 20061 56010=
201002172253 METAR KSEA 172253Z 01017KT 10SM FEW250 11/03 A3018 RMK AO2 SLP229 T01060033=
201002172153 METAR KSEA 172153Z 01017KT 10SM FEW250 11/03 A3019 RMK AO2 SLP232 T01060033=
201002172053 METAR KSEA 172053Z 01018KT 10SM FEW015 09/04 A3021 RMK AO2 SLP238 T00940039 58021=
201002171953 METAR KSEA 171953Z 02016KT 10SM FEW010 08/03 A3023 RMK AO2 SLP246 T00830033=
201002171919 SPECI KSEA 171919Z 01017KT 10SM SCT008 08/04 A3025 RMK AO2=
201002171919 SPECI KSEA 171919Z 01017KT 10SM SCT008 08/04 A3025 RMK AO2=
201002171853 METAR KSEA 171853Z 01017KT 10SM BKN008 07/04 A3025 RMK AO2 SLP253 T00720039=
201002171753 METAR KSEA 171753Z 03010KT 10SM BKN008 BKN012 06/04 A3027 RMK AO2 SLP260 T00610039 10061 20044 58002=
201002171653 METAR KSEA 171653Z 03012G18KT 8SM BKN007 OVC012 06/04 A3029 RMK AO2 SLP267 T00560039=
201002171558 SPECI KSEA 171558Z 03012KT 7SM BKN005 OVC009 05/04 A3029 RMK AO2=
201002171558 SPECI KSEA 171558Z 03012KT 7SM BKN005 OVC009 05/04 A3029 RMK AO2=
201002171553 METAR KSEA 171553Z 03011KT 2 1/2SM BR BKN004 OVC009 05/04 A3029 RMK AO2 SFC VIS 6 SLP266 T00500039=
201002171453 METAR KSEA 171453Z 02014KT 2 1/2SM BR OVC004 04/04 A3028 RMK AO2 SFC VIS 6 SLP262 T00440039 55000=
201002171353 METAR KSEA 171353Z 02011KT 2 1/2SM BR OVC002 04/04 A3027 RMK AO2 SFC VIS 5 SLP260 T00440039=
201002171253 METAR KSEA 171253Z 02010KT 10SM OVC004 05/04 A3027 RMK AO2 SLP260 T00500039=
201002171224 SPECI KSEA 171224Z 03010KT 10SM BKN004 05/03 A3027 RMK AO2=
201002171224 SPECI KSEA 171224Z 03010KT 10SM BKN004 05/03 A3027 RMK AO2=
201002171153 METAR KSEA 171153Z 02008KT 10SM CLR 04/03 A3028 RMK AO2 SLP262 70005 T00440028 10072 20039 58007=
201002171053 METAR KSEA 171053Z 01008KT 10SM CLR 04/03 A3029 RMK AO2 SLP266 T00440028=
201002170953 METAR KSEA 170953Z 01008KT 10SM CLR 04/02 A3030 RMK AO2 SLP269 T00440022=
201002170853 METAR KSEA 170853Z 02008KT 10SM CLR 06/02 A3030 RMK AO2 SLP269 T00560022 50002=
201002170753 METAR KSEA 170753Z 03009KT 10SM CLR 07/02 A3031 RMK AO2 SLP272 T00670017 401220061=
201002170653 METAR KSEA 170653Z 03009KT 10SM FEW040 07/02 A3031 RMK AO2 SLP271 T00670017=
201002170553 METAR KSEA 170553Z 03006KT 10SM FEW040 07/02 A3030 RMK AO2 SLP267 T00670017 10111 20061 51005=
201002170453 METAR KSEA 170453Z 04004KT 10SM FEW040 07/02 A3029 RMK AO2 SLP266 T00720022=
201002170353 METAR KSEA 170353Z 03006KT 10SM FEW040 07/02 A3029 RMK AO2 SLP264 T00720022=
201002170253 METAR KSEA 170253Z 03011KT 10SM SCT040 08/03 A3028 RMK AO2 SLP262 T00780028 50006=
201002170153 METAR KSEA 170153Z 03010G22KT 10SM BKN035 BKN050 08/03 A3029 RMK AO2 SLP263 T00830033=
201002170053 METAR KSEA 170053Z 02014KT 10SM SCT030 BKN250 09/04 A3028 RMK AO2 SLP261 T00940039=
201002162353 METAR KSEA 162353Z 29004KT 10SM SCT035 BKN250 11/04 A3026 RMK AO2 SLP256 T01060044 10122 20094 53006=
201002162253 METAR KSEA 162253Z 19005KT 10SM SCT030 BKN250 11/04 A3025 RMK AO2 SLP250 T01110044=
201002162153 METAR KSEA 162153Z 20008KT 10SM SCT028 BKN250 12/05 A3024 RMK AO2 SLP249 T01170050=
201002162053 METAR KSEA 162053Z 20011KT 10SM SCT022 11/06 A3025 RMK AO2 SLP250 T01110056 51021=
201002161953 METAR KSEA 161953Z 23009KT 10SM SCT020 11/06 A3024 RMK AO2 SLP248 T01060056=
201002161853 METAR KSEA 161853Z 20013KT 10SM SCT015 10/07 A3022 RMK AO2 SLP240 T01000067=
201002161753 METAR KSEA 161753Z 21018G22KT 10SM FEW009 09/07 A3018 RMK AO2 SLP229 60005 T00940067 10094 20089 51027=
201002161653 METAR KSEA 161653Z 22013KT 10SM FEW009 09/07 A3016 RMK AO2 SLP221 T00940072=
201002161611 SPECI KSEA 161611Z 20008KT 10SM SCT009 BKN036 09/08 A3015 RMK AO2=
201002161611 SPECI KSEA 161611Z 20008KT 10SM SCT009 BKN036 09/08 A3015 RMK AO2=
201002161553 METAR KSEA 161553Z 20009KT 10SM BKN009 BKN035 09/08 A3014 RMK AO2 SLP214 T00940083=
201002161453 METAR KSEA 161453Z 18008KT 10SM SCT014 BKN020 OVC042 09/08 A3010 RMK AO2 RAE43 SLP201 P0002 60005 T00940078 50018 $=
201002161447 SPECI KSEA 161447Z 20007KT 10SM SCT016 BKN020 OVC044 09/08 A3010 RMK AO2 RAE43 P0002 $=
201002161447 SPECI KSEA 161447Z 20007KT 10SM SCT016 BKN020 OVC044 09/08 A3010 RMK AO2 RAE43 P0002 $=
201002161353 METAR KSEA 161353Z 18006KT 10SM -RA SCT027 BKN040 OVC070 09/08 A3008 RMK AO2 SLP193 P0002 T00940078 $=
201002161253 METAR KSEA 161253Z 15005KT 10SM -RA BKN037 OVC050 09/07 A3005 RMK AO2 SLP183 P0001 T00940072 $=
201002161153 METAR KSEA 161153Z 12006KT 10SM -RA BKN044 OVC055 09/07 A3003 RMK AO2 RAB36 SLP176 P0001 60021 7//// T00890072 10094 20083 55008 $=
201002161053 METAR KSEA 161053Z 12010KT 10SM FEW049 OVC060 09/07 A3002 RMK AO2 RAE33 SLP173 P0001 T00940072 $=
201002160953 METAR KSEA 160953Z 12011KT 9SM -RA OVC050 09/07 A3005 RMK AO2 SLP183 P0010 T00890072 $=
201002160853 METAR KSEA 160853Z 13007KT 9SM -RA BKN047 OVC055 08/07 A3005 RMK AO2 SLP184 P0004 60009 T00830067 55008 $=
201002160753 METAR KSEA 160753Z 13010KT 10SM -RA OVC050 09/07 A3005 RMK AO2 SLP183 P0003 T00890067 401280028 $=
201002160653 METAR KSEA 160653Z 13012KT 10SM -RA OVC048 09/06 A3007 RMK AO2 SLP188 P0002 T00890061 $=
201002160553 METAR KSEA 160553Z 16006KT 10SM -RA OVC046 08/07 A3008 RMK AO2 SLP193 P0002 6//// T00830072 10117 20083 53005 $=
201002160453 METAR KSEA 160453Z 15004KT 10SM -RA BKN065 OVC085 09/06 A3006 RMK AO2 RAE0359B45 SLP188 T00940061 PNO $=
201002160353 METAR KSEA 160353Z 12008KT 10SM -RA FEW055 OVC070 11/04 A3006 RMK AO2 SLP186 T01110044 PNO $=
201002160253 METAR KSEA 160253Z 10009KT 10SM -RA FEW065 BKN075 OVC090 12/04 A3006 RMK AO2 RAB41 SLP188 6//// T01170039 58006 PNO $=
201002160153 METAR KSEA 160153Z 00000KT 10SM BKN100 OVC140 10/05 A3008 RMK AO2 SLP193 T01000050 PNO $=
201002160053 METAR KSEA 160053Z 29003KT 10SM SCT100 OVC140 11/06 A3007 RMK AO2 SLP193 T01060056 PNO $=
201002152353 METAR KSEA 152353Z 29003KT 10SM SCT140 BKN200 11/06 A3008 RMK AO2 SLP194 6//// T01110061 10128 20072 56020 PNO $=
201002152253 METAR KSEA 152253Z 00000KT 10SM SCT120 BKN200 13/06 A3010 RMK AO2 SLP199 T01280056 PNO $=
201002152153 METAR KSEA 152153Z 27005KT 10SM FEW120 BKN200 10/06 A3012 RMK AO2 SLP206 ACSL DSNT SE T01000056 PNO $=
201002152053 METAR KSEA 152053Z 00000KT 10SM FEW120 BKN200 10/06 A3014 RMK AO2 SLP214 6//// T01000056 58022 PNO $=
201002151953 METAR KSEA 151953Z 28004KT 10SM FEW007 BKN200 09/05 A3018 RMK AO2 SLP227 T00940050 PNO $=
201002151853 METAR KSEA 151853Z 00000KT 10SM FEW005 SCT200 09/04 A3019 RMK AO2 SLP233 T00940044 PNO $=
201002151753 METAR KSEA 151753Z 00000KT 10SM FEW150 SCT250 07/04 A3021 RMK AO2 SLP237 FG BANK W-NW 6//// T00720044 10078 20028 58001 PNO $=
201002151653 METAR KSEA 151653Z 09005KT 10SM FEW100 BKN250 06/04 A3021 RMK AO2 SLP237 FG BANK S-W-NW T00610039 PNO $=
201002151553 METAR KSEA 151553Z 00000KT 10SM FEW100 SCT250 03/02 A3022 RMK AO2 SLP240 FG BANK SW-NW T00330022 PNO $=
201002151453 METAR KSEA 151453Z 15003KT 10SM FEW100 04/03 A3021 RMK AO2 SLP238 6//// T00390028 55008 PNO $=
201002151353 METAR KSEA 151353Z 12004KT 10SM FEW010 04/03 A3021 RMK AO2 SLP237 T00440033 PNO $=
201002151253 METAR KSEA 151253Z 13004KT 10SM FEW011 04/03 A3023 RMK AO2 SLP244 T00390033 PNO $=
201002151208 SPECI KSEA 151208Z 13003KT 10SM SCT011 05/04 A3023 RMK AO2 PNO $=
201002151208 SPECI KSEA 151208Z 13003KT 10SM SCT011 05/04 A3023 RMK AO2 PNO $=
201002151153 METAR KSEA 151153Z 00000KT 10SM BKN011 04/04 A3023 RMK AO2 SLP246 6//// 7//// T00440039 10083 20044 53002 PNO $=
201002151101 SPECI KSEA 151101Z 00000KT 10SM BKN011 06/04 A3022 RMK AO2 PNO $=
201002151101 SPECI KSEA 151101Z 00000KT 10SM BKN011 06/04 A3022 RMK AO2 PNO $=
201002151053 METAR KSEA 151053Z 12003KT 10SM SCT011 06/05 A3022 RMK AO2 SLP240 T00610050 PNO $=
201002150953 METAR KSEA 150953Z 14003KT 10SM SCT011 05/04 A3023 RMK AO2 SLP243 T00500044 PNO $=
201002150853 METAR KSEA 150853Z 11005KT 10SM SCT050 06/05 A3023 RMK AO2 SLP243 6//// T00610050 58001 PNO $=
201002150753 METAR KSEA 150753Z 15004KT 10SM FEW050 06/05 A3023 RMK AO2 SLP245 T00560050 401170056 PNO $=
201002150653 METAR KSEA 150653Z 16003KT 10SM FEW050 06/04 A3023 RMK AO2 SLP246 T00610044 PNO $=
201002150553 METAR KSEA 150553Z 00000KT 10SM SCT040 BKN050 08/05 A3023 RMK AO2 SLP244 6//// T00830050 10106 20083 53008 PNO $=
201002150453 METAR KSEA 150453Z 00000KT 10SM SCT029 BKN048 08/04 A3022 RMK AO2 RAE06 SLP241 T00830044 PNO $=
201002150353 METAR KSEA 150353Z 04008KT 5SM -RA BKN027 OVC036 08/06 A3021 RMK AO2 RAB18 SLP236 P0000 T00830056 PNO $=
201002150253 METAR KSEA 150253Z 00000KT 10SM OVC020 09/07 A3020 RMK AO2 SLP235 T00890067 52012=
201002150214 SPECI KSEA 150214Z 00000KT 10SM BKN017 BKN037 OVC080 09/06 A3020 RMK AO2=
201002150214 SPECI KSEA 150214Z 00000KT 10SM BKN017 BKN037 OVC080 09/06 A3020 RMK AO2=
201002150153 METAR KSEA 150153Z 00000KT 10SM FEW015 SCT045 OVC090 09/06 A3020 RMK AO2 SLP233 T00940061=
201002150053 METAR KSEA 150053Z 20006KT 10SM FEW040 BKN080 OVC100 10/06 A3018 RMK AO2 SLP226 T01000056=
201002142353 METAR KSEA 142353Z 21007KT 10SM FEW022 OVC090 10/06 A3017 RMK AO2 SLP223 T01000061 10117 20094 53005=
201002142253 METAR KSEA 142253Z 21009KT 10SM SCT045 SCT100 BKN200 12/06 A3016 RMK AO2 SLP221 T01170061=
201002142153 METAR KSEA 142153Z 21009KT 10SM FEW017 SCT045 BKN095 12/07 A3016 RMK AO2 SLP219 T01170067=
201002142053 METAR KSEA 142053Z 21010KT 10SM FEW014 BKN090 11/07 A3015 RMK AO2 SLP218 T01110072 51013=
201002141953 METAR KSEA 141953Z 20010KT 10SM SCT014 BKN085 11/08 A3015 RMK AO2 SLP217 T01060078=
201002141853 METAR KSEA 141853Z 19006KT 10SM FEW010 BKN027 BKN090 11/08 A3014 RMK AO2 SLP213 T01060083=
201002141832 SPECI KSEA 141832Z 18006KT 10SM FEW017 BKN027 OVC110 10/08 A3013 RMK AO2=
201002141832 SPECI KSEA 141832Z 18006KT 10SM FEW017 BKN027 OVC110 10/08 A3013 RMK AO2=
201002141810 SPECI KSEA 141810Z 20006KT 10SM SCT005 BKN017 BKN085 09/08 A3012 RMK AO2=
201002141810 SPECI KSEA 141810Z 20006KT 10SM SCT005 BKN017 BKN085 09/08 A3012 RMK AO2=
201002141753 METAR KSEA 141753Z 20003KT 10SM BKN005 BKN012 OVC018 09/08 A3012 RMK AO2 RAE22B38E47 SLP206 P0000 60015 T00940083 10094 20089 51021=
201002141714 SPECI KSEA 141714Z 14004KT 6SM -RA BR BKN009 BKN012 OVC018 09/08 A3011 RMK AO2 P0000=
201002141714 SPECI KSEA 141714Z 14004KT 6SM -RA BR BKN009 BKN012 OVC018 09/08 A3011 RMK AO2 P0000=
201002141653 METAR KSEA 141653Z 18005KT 5SM -RA BR BKN014 OVC035 09/08 A3010 RMK AO2 RAB07 SLP200 P0000 T00890078=
201002141646 SPECI KSEA 141646Z 18006KT 3SM -RA BR BKN014 OVC035 09/08 A3010 RMK AO2 RAB07 P0000=
201002141646 SPECI KSEA 141646Z 18006KT 3SM -RA BR BKN014 OVC035 09/08 A3010 RMK AO2 RAB07 P0000=
201002141553 METAR KSEA 141553Z 17006KT 10SM SCT035 BKN065 OVC085 09/07 A3007 RMK AO2 RAE25 SLP191 P0000 T00940072=
201002141453 METAR KSEA 141453Z 17009KT 10SM -RA SCT025 BKN035 OVC055 09/08 A3005 RMK AO2 SLP185 P0001 60015 T00940078 51020=
201002141419 SPECI KSEA 141419Z 17009KT 10SM -RA SCT025 BKN035 OVC055 09/08 A3005 RMK AO2 P0000=
201002141419 SPECI KSEA 141419Z 17009KT 10SM -RA SCT025 BKN035 OVC055 09/08 A3005 RMK AO2 P0000=
201002141353 METAR KSEA 141353Z 18008KT 5SM -RA BR FEW004 BKN025 OVC035 09/08 A3005 RMK AO2 SLP183 P0010 T00940083=
201002141324 SPECI KSEA 141324Z 22005KT 5SM RA BR BKN025 OVC030 09/08 A3004 RMK AO2 P0003=
201002141324 SPECI KSEA 141324Z 22005KT 5SM RA BR BKN025 OVC030 09/08 A3004 RMK AO2 P0003=
201002141253 METAR KSEA 141253Z 19004KT 6SM RA BR OVC037 09/08 A3002 RMK AO2 SLP173 P0004 T00890078=
201002141153 METAR KSEA 141153Z 12009KT 10SM -RA OVC045 09/08 A3000 RMK AO2 SLP165 P0003 60036 70047 T00940078 10111 20083 58001=
201002141053 METAR KSEA 141053Z 12012KT 8SM RA BKN047 OVC055 09/08 A3000 RMK AO2 SLP167 P0009 T00890078=
201002140953 METAR KSEA 140953Z 12008KT 9SM -RA BKN050 OVC060 09/07 A3001 RMK AO2 SLP170 P0007 T00940072=
201002140853 METAR KSEA 140853Z 09004KT 7SM -RA BKN050 OVC060 09/08 A3000 RMK AO2 SLP166 P0008 60017 T00890078 51008=
201002140753 METAR KSEA 140753Z 09007KT 7SM -RA OVC055 09/07 A3000 RMK AO2 SLP166 P0005 T00940072 401110072=
201002140653 METAR KSEA 140653Z 21003KT 7SM RA OVC055 09/07 A3001 RMK AO2 SLP171 P0004 T00890072=
201002140553 METAR KSEA 140553Z 11009KT 10SM -RA OVC060 11/05 A2998 RMK AO2 SLP158 P0001 60001 T01110050 10111 20094 56005=
201002140453 METAR KSEA 140453Z 12010KT 10SM -RA SCT060 OVC080 11/05 A2998 RMK AO2 RAB51 SLP160 P0000 T01060050=
201002140353 METAR KSEA 140353Z 12013KT 10SM SCT070 BKN130 11/05 A2997 RMK AO2 SLP157 T01060050=
201002140253 METAR KSEA 140253Z 12011KT 10SM FEW070 BKN110 OVC160 10/06 A2999 RMK AO2 SLP163 60000 T01000061 58018=
201002140153 METAR KSEA 140153Z 12009KT 10SM SCT055 BKN070 OVC150 10/07 A3001 RMK AO2 RAE0058 SLP168 P0000 T01000067=
201002140053 METAR KSEA 140053Z 11011KT 10SM -RA FEW040 BKN060 OVC075 10/07 A3003 RMK AO2 RAB03 SLP176 P0000 T01000072=
201002132353 METAR KSEA 132353Z 11008G15KT 10SM BKN041 OVC065 09/07 A3004 RMK AO2 RAE49 SLP181 P0002 60010 T00940072 10100 20083 56007=
201002132253 METAR KSEA 132253Z 12009KT 9SM -RA BKN039 OVC055 10/07 A3005 RMK AO2 SLP183 P0002 T01000067=
201002132153 METAR KSEA 132153Z 12006KT 8SM -RA BKN039 OVC050 10/07 A3005 RMK AO2 SLP182 P0003 T01000067=
201002132053 METAR KSEA 132053Z 10008KT 10SM -RA SCT042 OVC050 10/06 A3007 RMK AO2 SLP188 P0000 60003 T01000056 58015=
201002131953 METAR KSEA 131953Z 12003KT 10SM -RA BKN043 OVC060 09/06 A3009 RMK AO2 SLP198 P0001 T00890056=
201002131853 METAR KSEA 131853Z 11004KT 10SM -RA SCT032 OVC044 09/05 A3010 RMK AO2 SLP202 P0002 T00890050=
201002131753 METAR KSEA 131753Z 12007KT 10SM -RA SCT042 OVC055 09/04 A3011 RMK AO2 RAB45 SLP204 P0000 60000 T00890039 10089 20072 51004=
201002131653 METAR KSEA 131653Z 15004KT 10SM BKN055 OVC070 08/04 A3011 RMK AO2 SLP204 T00830039=
201002131553 METAR KSEA 131553Z 18005KT 10SM SCT055 OVC070 08/04 A3011 RMK AO2 SLP205 T00780039=
201002131453 METAR KSEA 131453Z 11008KT 10SM BKN060 OVC070 08/04 A3010 RMK AO2 SLP200 T00780039 51005=
201002131353 METAR KSEA 131353Z 10007KT 10SM BKN070 OVC100 08/04 A3010 RMK AO2 SLP199 T00780039=
201002131253 METAR KSEA 131253Z 11008KT 10SM OVC110 08/04 A3009 RMK AO2 SLP197 T00830039=
201002131153 METAR KSEA 131153Z 00000KT 10SM OVC100 08/04 A3009 RMK AO2 SLP195 60002 70038 T00780039 10083 20072 50004=
201002131053 METAR KSEA 131053Z 12004KT 10SM OVC090 08/04 A3009 RMK AO2 SLP195 T00780044=
201002130953 METAR KSEA 130953Z 15006KT 10SM OVC090 08/05 A3008 RMK AO2 SLP195 T00780050=
201002130853 METAR KSEA 130853Z 19008KT 10SM OVC090 08/05 A3007 RMK AO2 SLP191 60002 T00830050 51016=
201002130753 METAR KSEA 130753Z 17006KT 10SM FEW033 SCT040 BKN070 07/05 A3007 RMK AO2 RAE16B36E45 SLP188 P0001 T00720050 401220061=
201002130653 METAR KSEA 130653Z 20008KT 8SM -RA BKN035 OVC046 08/06 A3005 RMK AO2 RAB07 SLP184 P0001 T00830056=
201002130553 METAR KSEA 130553Z 18012KT 10SM SCT039 BKN055 08/06 A3003 RMK AO2 RAE31 SLP176 P0003 60009 T00830056 10089 20078 51032=
201002130453 METAR KSEA 130453Z 19013KT 9SM -RA SCT026 BKN034 OVC044 08/06 A3000 RMK AO2 RAE11B51 SLP167 P0000 T00830056=
201002130353 METAR KSEA 130353Z 19010G22KT 8SM RA FEW022 BKN033 OVC040 08/07 A2997 RMK AO2 SLP156 P0002 T00830067=
201002130300 METAR KSEA NIL=
201002130253 METAR KSEA 130253Z 17010KT 9SM -RA SCT029 BKN035 OVC060 08/06 A2993 RMK AO2 RAB34 SLP144 P0001 60004 T00830061 53024=
201002130153 METAR KSEA 130153Z 17013G19KT 10SM SCT039 BKN046 BKN060 08/06 A2990 RMK AO2 RAB29E42 SLP134 P0000 T00830061=
201002130053 METAR KSEA 130053Z 16009KT 10SM OVC050 08/06 A2988 RMK AO2 RAE27 SLP127 P0003 T00830061=
201002122353 METAR KSEA 122353Z 19021G27KT 6SM RA BR FEW018 BKN030 OVC046 09/07 A2986 RMK AO2 PK WND 23032/2304 SLP119 P0015 60019 T00890067 10122 20072 53011=
201002122306 SPECI KSEA 122306Z 22018G32KT 3SM R16C/4500VP6000FT +RA BKN029 BKN036 OVC043 09/06 A2984 RMK AO2 PK WND 23032/2304 PRESRR P0005=
201002122306 SPECI KSEA 122306Z 22018G32KT 3SM R16C/4500VP6000FT +RA BKN029 BKN036 OVC043 09/06 A2984 RMK AO2 PK WND 23032/2304 PRESRR P0005=
201002122253 METAR KSEA 122253Z 18012G19KT 6SM -RA BKN041 OVC080 11/06 A2982 RMK AO2 RAB34 SLP105 P0000 T01110056=
201002122153 METAR KSEA 122153Z 16015KT 10SM FEW040 BKN080 BKN200 12/07 A2981 RMK AO2 RAB31E40 SLP103 SHRA W-NW P0000 T01220067=
201002122053 METAR KSEA 122053Z 14012KT 10SM OVC080 09/07 A2983 RMK AO2 RAE06 SLP108 P0000 60004 T00940072 56003=
201002121953 METAR KSEA 121953Z 17007KT 6SM -RA FEW025 OVC036 09/06 A2983 RMK AO2 RAB1859 SLP108 P0003 T00890061=
201002121853 METAR KSEA 121853Z 12009KT 10SM FEW040 OVC060 08/06 A2982 RMK AO2 RAE12 SLP103 P0001 T00830056=
201002121753 METAR KSEA 121753Z 12010KT 6SM RA BR BKN038 OVC044 07/06 A2984 RMK AO2 SLP111 P0003 60008 T00720056 10078 20061 58006=
201002121653 METAR KSEA 121653Z 10008KT 8SM -RA BKN038 OVC047 07/05 A2984 RMK AO2 SLP113 P0005 T00720050=
201002121553 METAR KSEA 121553Z 15006KT 7SM -RA OVC035 07/04 A2987 RMK AO2 RAB24 SLP121 P0000 T00720044=
201002121453 METAR KSEA 121453Z 09006KT 10SM BKN080 OVC200 07/04 A2986 RMK AO2 SLP117 T00720039 58009=
201002121353 METAR KSEA 121353Z 12004KT 10SM FEW030 SCT080 07/04 A2988 RMK AO2 SLP125 T00670039=
201002121253 METAR KSEA 121253Z 19010KT 10SM FEW030 SCT080 08/04 A2990 RMK AO2 SLP133 T00780044=
201002121153 METAR KSEA 121153Z 19012KT 10SM CLR 08/05 A2989 RMK AO2 SLP127 60006 70024 T00780050 10111 20078 52010=
201002121053 METAR KSEA 121053Z 20009KT 10SM OVC070 08/06 A2988 RMK AO2 SLP126 T00780056=
201002120953 METAR KSEA 120953Z 21012KT 10SM FEW014 SCT020 SCT080 08/06 A2986 RMK AO2 PRESRR SLP118 T00780056=
201002120949 SPECI KSEA 120949Z 20012KT 10SM FEW014 SCT020 SCT080 08/06 A2985 RMK AO2 PRESRR=
201002120949 SPECI KSEA 120949Z 20012KT 10SM FEW014 SCT020 SCT080 08/06 A2985 RMK AO2 PRESRR=
201002120909 SPECI KSEA 120909Z 22014KT 10SM SCT018 BKN027 OVC035 09/07 A2982 RMK AO2=
201002120909 SPECI KSEA 120909Z 22014KT 10SM SCT018 BKN027 OVC035 09/07 A2982 RMK AO2=
201002120853 METAR KSEA 120853Z 21014KT 10SM SCT016 BKN030 BKN035 09/07 A2981 RMK AO2 RAE08 SLP102 P0002 60006 T00890067 51035=
201002120804 SPECI KSEA 120804Z 20011G21KT 10SM -RA FEW021 BKN026 OVC036 09/07 A2979 RMK AO2 P0002=
201002120804 SPECI KSEA 120804Z 20011G21KT 10SM -RA FEW021 BKN026 OVC036 09/07 A2979 RMK AO2 P0002=
201002120753 METAR KSEA 120753Z 22010KT 5SM RA BR SCT028 BKN033 OVC040 09/07 A2979 RMK AO2 PRESRR SLP095 P0004 T00940072 401220061=
201002120653 METAR KSEA 120653Z 18019G26KT 10SM -RA SCT040 BKN050 OVC085 11/06 A2974 RMK AO2 PK WND 16026/0652 RAE02B33 SLP077 P0000 T01060061=
201002120553 METAR KSEA 120553Z 18010KT 10SM -RA OVC046 11/07 A2971 RMK AO2 RAB07 SLP066 P0000 60004 T01110067 10117 20094 51024=
201002120453 METAR KSEA 120453Z 18009KT 10SM OVC060 11/07 A2968 RMK AO2 RAE0359 SLP056 P0000 T01110067=
201002120353 METAR KSEA 120353Z 19008KT 10SM -RA BKN055 OVC070 10/06 A2966 RMK AO2 RAB22 SLP052 P0000 T01000056=
201002120253 METAR KSEA 120253Z 11012KT 10SM SCT080 BKN095 OVC110 11/06 A2963 RMK AO2 RAE13 SLP042 P0001 60004 T01060056 56029=
201002120153 METAR KSEA 120153Z 10009KT 10SM -RA SCT060 BKN075 OVC120 10/06 A2966 RMK AO2 RAB12E21B41 SLP052 P0000 T01000061=
201002120053 METAR KSEA 120053Z 11011KT 10SM BKN049 OVC080 10/07 A2968 RMK AO2 RAE42 SLP057 P0003 T01000072=
201002112353 METAR KSEA 112353Z 11008KT 10SM -RA OVC042 10/08 A2972 RMK AO2 SLP071 P0000 60002 T01000078 10122 20089 58019=
201002112253 METAR KSEA 112253Z 11011KT 10SM -RA FEW022 OVC037 11/08 A2974 RMK AO2 SLP078 P0000 T01110083=
201002112153 METAR KSEA 112153Z 16003KT 10SM -RA BKN042 OVC055 11/08 A2977 RMK AO2 SLP088 P0002 T01110083=
201002112053 METAR KSEA 112053Z 17004KT 10SM -RA FEW025 BKN038 OVC095 12/08 A2978 RMK AO2 RAB49 SLP091 P0000 60000 T01170083 58008=
201002111953 METAR KSEA 111953Z 13004KT 10SM FEW040 BKN095 BKN180 12/08 A2979 RMK AO2 SLP094 T01170078=
201002111853 METAR KSEA 111853Z 16005KT 10SM BKN041 OVC060 10/08 A2981 RMK AO2 SLP102 T01000078=
201002111753 METAR KSEA 111753Z 15005KT 10SM BKN034 OVC043 09/07 A2980 RMK AO2 SLP100 60012 T00890067 10089 20067 57001=
201002111653 SPECI KSEA 111653Z 14005KT 10SM BKN034 OVC042 08/07 A2981 RMK AO2 SLP101 T00830067=
201002111624 SPECI KSEA 111624Z 12010G18KT 10SM SCT027 OVC041 08/06 A2981 RMK AO2=
201002111624 SPECI KSEA 111624Z 12010G18KT 10SM SCT027 OVC041 08/06 A2981 RMK AO2=
201002111553 METAR KSEA 111553Z 12011KT 10SM FEW021 BKN027 OVC035 08/06 A2980 RMK AO2 RAE36 SLP100 P0001 T00780061=
201002111518 SPECI KSEA 111518Z 11009KT 7SM -RA BKN025 OVC030 07/06 A2981 RMK AO2 P0001=
201002111518 SPECI KSEA 111518Z 11009KT 7SM -RA BKN025 OVC030 07/06 A2981 RMK AO2 P0001=
201002111453 METAR KSEA 111453Z 11009KT 6SM -RA BR SCT031 OVC037 07/06 A2981 RMK AO2 SLP101 P0008 60011 T00720061 58009=
201002111413 SPECI KSEA 111413Z 11008KT 9SM -RA FEW028 BKN046 OVC060 07/06 A2981 RMK AO2 P0003=
201002111413 SPECI KSEA 111413Z 11008KT 9SM -RA FEW028 BKN046 OVC060 07/06 A2981 RMK AO2 P0003=
201002111353 METAR KSEA 111353Z 10008KT 7SM -RA BKN028 BKN042 OVC060 07/06 A2982 RMK AO2 SLP104 P0002 T00720056=
201002111253 METAR KSEA 111253Z 00000KT 10SM -RA OVC028 07/06 A2983 RMK AO2 SLP108 P0001 T00720061=
201002111153 METAR KSEA 111153Z 00000KT 6SM -RA BR OVC027 07/06 A2983 RMK AO2 RAB45 SLP110 P0000 60000 70011 T00670056 10072 20061 55007=
201002111053 METAR KSEA 111053Z 14006KT 10SM OVC025 07/05 A2983 RMK AO2 SLP109 T00720050=
201002110953 METAR KSEA 110953Z 14006KT 10SM OVC023 07/05 A2984 RMK AO2 SLP113 T00670050=
201002110853 METAR KSEA 110853Z 16004KT 10SM BKN025 OVC030 07/05 A2985 RMK AO2 SLP117 60000 T00670050 50000=
201002110753 METAR KSEA 110753Z 16006KT 10SM OVC026 06/05 A2986 RMK AO2 SLP120 T00610050 400671006=
201002110653 METAR KSEA 110653Z 14005KT 10SM FEW009 OVC024 06/06 A2986 RMK AO2 DZE43 SLP120 P0000 T00610056=
201002110625 SPECI KSEA 110625Z 00000KT 4SM -DZ BR FEW009 SCT013 OVC024 06/05 A2985 RMK AO2 P0000=
201002110625 SPECI KSEA 110625Z 00000KT 4SM -DZ BR FEW009 SCT013 OVC024 06/05 A2985 RMK AO2 P0000=
201002110553 METAR KSEA 110553Z 17003KT 5SM -DZ BR SCT015 OVC022 06/05 A2985 RMK AO2 DZE07B35 SLP118 P0000 60004 T00610050 10067 20061 53007=
201002110453 METAR KSEA 110453Z 12004KT 10SM -DZ OVC026 07/05 A2984 RMK AO2 RAE03B25E46DZB46 SLP115 P0000 T00670050=
201002110435 SPECI KSEA 110435Z 11005KT 6SM -RA BR FEW019 BKN028 OVC033 06/05 A2984 RMK AO2 RAE03B25 P0000 $=
201002110435 SPECI KSEA 110435Z 11005KT 6SM -RA BR FEW019 BKN028 OVC033 06/05 A2984 RMK AO2 RAE03B25 P0000 $=
201002110353 METAR KSEA 110353Z 11006KT 9SM -RA SCT025 OVC035 07/05 A2983 RMK AO2 SLP109 P0000 T00670050=
201002110253 METAR KSEA 110253Z 08007KT 5SM -RA BR BKN039 OVC049 06/05 A2983 RMK AO2 SLP110 P0002 60004 T00610050 58008=
201002110153 METAR KSEA 110153Z 00000KT 8SM -RA OVC030 06/05 A2985 RMK AO2 SLP117 P0001 T00610050=
201002110053 METAR KSEA 110053Z 00000KT 10SM -RA BKN030 OVC050 07/04 A2985 RMK AO2 SLP117 P0001 T00670039=
201002102353 METAR KSEA 102353Z 10004KT 10SM -RA FEW015 OVC030 07/03 A2986 RMK AO2 SLP119 P0000 60007 T00670033 10067 20033 58015=
201002102253 METAR KSEA 102253Z 11007KT 7SM -RA FEW013 OVC036 06/04 A2987 RMK AO2 SLP125 P0002 T00610039=
201002102228 SPECI KSEA 102228Z 11005KT 7SM -RA SCT026 OVC033 06/04 A2988 RMK AO2 P0001=
201002102228 SPECI KSEA 102228Z 11005KT 7SM -RA SCT026 OVC033 06/04 A2988 RMK AO2 P0001=
201002102153 METAR KSEA 102153Z 14006KT 7SM -RA FEW013 BKN028 OVC040 06/03 A2989 RMK AO2 SLP129 P0001 T00560033=
201002102053 METAR KSEA 102053Z 17004KT 6SM -RA BR FEW015 BKN025 OVC040 04/02 A2990 RMK AO2 SLP134 P0003 60004 T00390022 58001=
201002101953 METAR KSEA 101953Z 17007KT 5SM -RA BR FEW015 BKN026 OVC035 04/03 A2992 RMK AO2 RAB15 SLP140 P0001 T00440028=
201002101945 SPECI KSEA 101945Z 18007KT 7SM -RA BKN028 OVC037 04/02 A2992 RMK AO2 RAB15 P0000=
201002101945 SPECI KSEA 101945Z 18007KT 7SM -RA BKN028 OVC037 04/02 A2992 RMK AO2 RAB15 P0000=
201002101853 METAR KSEA 101853Z 16003KT 10SM BKN046 BKN100 OVC200 03/02 A2992 RMK AO2 SLP139 T00330017=
201002101753 METAR KSEA 101753Z 19005KT 10SM FEW050 BKN120 OVC200 03/02 A2990 RMK AO2 SLP135 T00330022 10033 21006 58002=
201002101653 METAR KSEA 101653Z 23005KT 7SM FEW050 BKN160 OVC250 03/02 A2991 RMK AO2 SLP136 T00280022=
201002101608 SPECI KSEA 101608Z 14006KT 6SM BR SCT070 BKN140 OVC200 02/02 A2990 RMK AO2 VIS S-W-N 2 1/2 FG BANK S-W-N=
201002101608 SPECI KSEA 101608Z 14006KT 6SM BR SCT070 BKN140 OVC200 02/02 A2990 RMK AO2 VIS S-W-N 2 1/2 FG BANK S-W-N=
201002101553 METAR KSEA 101553Z 14005KT 1SM BR FEW001 SCT070 BKN140 OVC200 02/02 A2991 RMK AO2 TWR VIS 10 SLP137 FG FEW001 T00170017 RVRNO=
201002101543 SPECI KSEA 101543Z 16004KT 3/4SM BR SCT001 BKN140 02/02 A2991 RMK AO2 FG SCT001 RVRNO=
201002101543 SPECI KSEA 101543Z 16004KT 3/4SM BR SCT001 BKN140 02/02 A2991 RMK AO2 FG SCT001 RVRNO=
201002101453 METAR KSEA 101453Z 16003KT 1/4SM FG VV001 01/01 A2991 RMK AO2 SLP137 T00110006 58007 RVRNO=
201002101353 METAR KSEA 101353Z 00000KT 1/2SM FG BKN001 00/00 A2992 RMK AO2 SLP141 T00000000 RVRNO=
201002101335 SPECI KSEA 101335Z 00000KT 1/2SM FG BKN001 00/M01 A2992 RMK AO2 RVRNO=
201002101335 SPECI KSEA 101335Z 00000KT 1/2SM FG BKN001 00/M01 A2992 RMK AO2 RVRNO=
201002101320 SPECI KSEA 101320Z 16003KT 2SM BCFG SCT002 BKN200 00/M01 A2992 RMK AO2 FG BANK W-N=
201002101320 SPECI KSEA 101320Z 16003KT 2SM BCFG SCT002 BKN200 00/M01 A2992 RMK AO2 FG BANK W-N=
201002101305 SPECI KSEA 101305Z 00000KT 1SM BCFG SCT002 BKN200 00/M01 A2992 RMK AO2 FG BANK W-N RVRNO=
201002101305 SPECI KSEA 101305Z 00000KT 1SM BCFG SCT002 BKN200 00/M01 A2992 RMK AO2 FG BANK W-N RVRNO=
201002101253 METAR KSEA 101253Z 00000KT 3SM BCFG FEW002 SCT200 00/M01 A2992 RMK AO2 SLP142 FG BANK W-N T00001006=
201002101228 SPECI KSEA 101228Z 00000KT 4SM BR SCT002 00/00 A2993 RMK AO2=
201002101228 SPECI KSEA 101228Z 00000KT 4SM BR SCT002 00/00 A2993 RMK AO2=
201002101210 SPECI KSEA 101210Z 00000KT 1/2SM FG BKN002 01/01 A2993 RMK AO2 RVRNO=
201002101210 SPECI KSEA 101210Z 00000KT 1/2SM FG BKN002 01/01 A2993 RMK AO2 RVRNO=
201002101153 METAR KSEA 101153Z 14004KT 1/4SM FG OVC001 01/01 A2993 RMK AO2 SLP143 T00060006 10044 20006 58012 RVRNO=
201002101134 SPECI KSEA 101134Z 12005KT 1/4SM FG VV001 02/01 A2992 RMK AO2 RVRNO=
201002101134 SPECI KSEA 101134Z 12005KT 1/4SM FG VV001 02/01 A2992 RMK AO2 RVRNO=
201002101053 METAR KSEA 101053Z 16003KT 1/8SM FG VV001 03/03 A2995 RMK AO2 SLP151 T00330028 RVRNO=
201002100953 METAR KSEA 100953Z 17003KT 1/4SM FG OVC001 03/02 A2996 RMK AO2 SLP154 T00280022 RVRNO=
201002100942 SPECI KSEA 100942Z 00000KT 3/4SM BCFG OVC001 03/02 A2996 RMK AO2 VIS W-N 1/2 RVRNO=
201002100942 SPECI KSEA 100942Z 00000KT 3/4SM BCFG OVC001 03/02 A2996 RMK AO2 VIS W-N 1/2 RVRNO=
201002100925 SPECI KSEA 100925Z 17003KT 1SM BR BKN001 02/01 A2996 RMK AO2 RVRNO=
201002100925 SPECI KSEA 100925Z 17003KT 1SM BR BKN001 02/01 A2996 RMK AO2 RVRNO=
201002100853 METAR KSEA 100853Z 00000KT 5SM BR FEW001 03/02 A2996 RMK AO2 SLP156 T00280017 56005=
201002100753 METAR KSEA 100753Z 14003KT 7SM CLR 03/02 A2997 RMK AO2 SLP158 T00280017 400780022=
201002100653 METAR KSEA 100653Z 13004KT 8SM CLR 03/02 A2997 RMK AO2 SLP159 T00280017=
201002100553 METAR KSEA 100553Z 00000KT 9SM CLR 04/02 A2998 RMK AO2 SLP161 T00390022 10078 20033 55004=
201002100453 METAR KSEA 100453Z 00000KT 10SM CLR 04/02 A2998 RMK AO2 SLP161 T00390022=
201002100353 METAR KSEA 100353Z 00000KT 10SM CLR 05/03 A2998 RMK AO2 SLP162 T00500033=
201002100253 METAR KSEA 100253Z 00000KT 10SM FEW250 05/03 A2999 RMK AO2 SLP165 T00500028 56010=
201002100153 METAR KSEA 100153Z 27003KT 10SM SCT250 06/03 A3000 RMK AO2 SLP169 T00560028=
201002100053 METAR KSEA 100053Z 18004KT 10SM FEW020 SCT250 07/03 A3000 RMK AO2 SLP168 T00670033=
201002092353 METAR KSEA 092353Z 21005KT 10SM FEW020 SCT250 08/04 A3002 RMK AO2 SLP175 T00780039 10078 20033 58004=
201002092253 METAR KSEA 092253Z 26003KT 10SM FEW015 08/03 A3003 RMK AO2 SLP178 T00780033=
201002092205 SPECI KSEA 092205Z 23003KT 8SM SCT011 SCT200 07/03 A3003 RMK AO2=
201002092205 SPECI KSEA 092205Z 23003KT 8SM SCT011 SCT200 07/03 A3003 RMK AO2=
201002092153 METAR KSEA 092153Z 23003KT 7SM BKN009 BKN013 07/03 A3004 RMK AO2 SLP179 T00670033=
201002092053 METAR KSEA 092053Z 00000KT 7SM BKN007 07/03 A3004 RMK AO2 SLP179 T00670028 58016=
201002092000 SPECI KSEA 092000Z 00000KT 7SM BKN005 BKN010 06/03 A3006 RMK AO2=
201002092000 SPECI KSEA 092000Z 00000KT 7SM BKN005 BKN010 06/03 A3006 RMK AO2=
201002091953 METAR KSEA 091953Z 35003KT 2SM BR OVC005 06/03 A3006 RMK AO2 SFC VIS 6 SLP187 T00560033=
201002091948 SPECI KSEA 091948Z 01003KT 2SM BR BKN005 06/03 A3006 RMK AO2 SFC VIS 4=
201002091948 SPECI KSEA 091948Z 01003KT 2SM BR BKN005 06/03 A3006 RMK AO2 SFC VIS 4=
201002091920 SPECI KSEA 091920Z 03006KT 2SM BR OVC004 06/03 A3007 RMK AO2 SFC VIS 3=
201002091920 SPECI KSEA 091920Z 03006KT 2SM BR OVC004 06/03 A3007 RMK AO2 SFC VIS 3=
201002091853 METAR KSEA 091853Z 01005KT 1 1/2SM BR OVC002 05/03 A3007 RMK AO2 SFC VIS 2 1/2 SLP192 T00500033=
201002091808 SPECI KSEA 091808Z 00000KT 1 1/2SM BR BKN002 04/03 A3008 RMK AO2=
201002091808 SPECI KSEA 091808Z 00000KT 1 1/2SM BR BKN002 04/03 A3008 RMK AO2=
201002091804 SPECI KSEA 091804Z 00000KT 1 1/2SM BR BKN002 04/03 A3008 RMK AO2=
201002091804 SPECI KSEA 091804Z 00000KT 1 1/2SM BR BKN002 04/03 A3008 RMK AO2=
201002091753 METAR KSEA 091753Z 32003KT 1/8SM BR BKN002 03/03 A3008 RMK AO2 SFC VIS 1 SLP196 T00330028 10044 20022 53010 RVRNO=
201002091653 METAR KSEA 091653Z 10004KT 1/8SM FG VV002 03/03 A3006 RMK AO2 SFC VIS 1/2 SLP190 T00280028 RVRNO=
201002091553 METAR KSEA 091553Z 06004KT 1/8SM FG VV001 03/02 A3006 RMK AO2 SLP189 T00280022 RVRNO=
201002091542 SPECI KSEA 091542Z 06004KT 1/8SM FG VV001 03/02 A3006 RMK AO2 RVRNO=
201002091542 SPECI KSEA 091542Z 06004KT 1/8SM FG VV001 03/02 A3006 RMK AO2 RVRNO=
201002091453 METAR KSEA 091453Z 04004KT 1/4SM FG BKN001 03/03 A3005 RMK AO2 SFC VIS 1/2 SLP185 T00280028 53008 RVRNO=
201002091353 METAR KSEA 091353Z 03003KT 1/4SM FG OVC001 03/03 A3004 RMK AO2 SLP181 T00280028 RVRNO=
201002091253 METAR KSEA 091253Z 01005KT 1/4SM FG VV001 04/03 A3004 RMK AO2 SLP180 T00390033 RVRNO=
201002091153 METAR KSEA 091153Z 35004KT 1/4SM FG OVC001 04/04 A3003 RMK AO2 SLP176 T00440039 10067 20044 51004 RVRNO=
201002091053 METAR KSEA 091053Z 02005KT 1/4SM FG VV001 05/04 A3002 RMK AO2 SLP175 T00500044 RVRNO=
201002090953 METAR KSEA 090953Z 35005KT 1/4SM FG VV001 05/05 A3002 RMK AO2 SLP173 T00500050 RVRNO=
201002090906 SPECI KSEA 090906Z 04005KT 1/4SM FG OVC001 06/05 A3001 RMK AO2 RVRNO=
201002090906 SPECI KSEA 090906Z 04005KT 1/4SM FG OVC001 06/05 A3001 RMK AO2 RVRNO=
201002090853 METAR KSEA 090853Z 05005KT 1/4SM FG OVC002 06/05 A3001 RMK AO2 SLP171 T00560050 50002 RVRNO=
201002090844 SPECI KSEA 090844Z 05003KT 1/4SM BR FEW001 BKN004 06/05 A3001 RMK AO2 SFC VIS 3/4 RVRNO=
201002090844 SPECI KSEA 090844Z 05003KT 1/4SM BR FEW001 BKN004 06/05 A3001 RMK AO2 SFC VIS 3/4 RVRNO=
201002090826 SPECI KSEA 090826Z 00000KT 5SM BR BKN004 06/05 A3001 RMK AO2=
201002090826 SPECI KSEA 090826Z 00000KT 5SM BR BKN004 06/05 A3001 RMK AO2=
201002090753 METAR KSEA 090753Z 01006KT 6SM BR FEW002 SCT075 05/04 A3002 RMK AO2 SLP172 T00500044 400940050=
201002090653 METAR KSEA 090653Z 01004KT 8SM FEW075 06/05 A3001 RMK AO2 SLP170 T00610050=
201002090553 METAR KSEA 090553Z 01007KT 9SM SCT070 06/05 A3001 RMK AO2 SLP169 T00610050 10089 20056 50001=
201002090453 METAR KSEA 090453Z 01007KT 10SM FEW070 SCT120 06/05 A3001 RMK AO2 SLP170 T00610050=
201002090353 METAR KSEA 090353Z 35003KT 10SM FEW060 SCT120 06/05 A3000 RMK AO2 SLP168 T00610050=
201002090253 METAR KSEA 090253Z 32004KT 10SM SCT055 SCT110 BKN160 07/05 A3000 RMK AO2 SLP168 T00670050 53003=
201002090153 METAR KSEA 090153Z 35003KT 10SM FEW050 SCT160 07/06 A2999 RMK AO2 SLP165 T00720056=
201002090053 METAR KSEA 090053Z 32004KT 10SM FEW050 SCT160 08/06 A2999 RMK AO2 SLP164 T00830056=
201002082353 METAR KSEA 082353Z 29004KT 10SM FEW040 SCT160 09/06 A2999 RMK AO2 SLP164 T00890056 10094 20067 56010=
201002082253 METAR KSEA 082253Z 33007KT 10SM FEW008 SCT200 09/06 A3000 RMK AO2 SLP167 T00890061=
201002082235 SPECI KSEA 082235Z 28006KT 10SM SCT007 SCT200 08/06 A3001 RMK AO2=
201002082235 SPECI KSEA 082235Z 28006KT 10SM SCT007 SCT200 08/06 A3001 RMK AO2=
201002082219 SPECI KSEA 082219Z 29007KT 10SM BKN007 08/06 A3001 RMK AO2=
201002082219 SPECI KSEA 082219Z 29007KT 10SM BKN007 08/06 A3001 RMK AO2=
201002082153 METAR KSEA 082153Z 30008KT 10SM SCT013 SCT200 09/06 A3001 RMK AO2 SLP170 T00890056=
201002082103 SPECI KSEA 082103Z 26004KT 10SM SCT011 SCT200 09/06 A3002 RMK AO2=
201002082103 SPECI KSEA 082103Z 26004KT 10SM SCT011 SCT200 09/06 A3002 RMK AO2=
201002082053 METAR KSEA 082053Z 26005KT 10SM BKN011 BKN200 09/06 A3002 RMK AO2 SLP174 T00890061 58017=
201002082045 SPECI KSEA 082045Z 27004KT 10SM BKN010 09/06 A3003 RMK AO2=
201002082045 SPECI KSEA 082045Z 27004KT 10SM BKN010 09/06 A3003 RMK AO2=
201002081953 METAR KSEA 081953Z 00000KT 7SM BKN005 BKN009 08/06 A3004 RMK AO2 SLP181 T00830056=
201002081929 SPECI KSEA 081929Z 20003KT 5SM BR OVC005 08/06 A3005 RMK AO2=
201002081929 SPECI KSEA 081929Z 20003KT 5SM BR OVC005 08/06 A3005 RMK AO2=
201002081853 METAR KSEA 081853Z 00000KT 5SM BR OVC004 07/06 A3007 RMK AO2 SLP189 T00720061=
201002081753 METAR KSEA 081753Z 00000KT 1 1/2SM BR OVC003 07/06 A3007 RMK AO2 SFC VIS 3 SLP192 T00720061 10072 20061 50001=
201002081653 METAR KSEA 081653Z 00000KT 1 1/2SM BR OVC003 07/06 A3008 RMK AO2 SLP193 T00720061=
201002081553 METAR KSEA 081553Z 26003KT 1 1/4SM BR OVC003 07/06 A3007 RMK AO2 TWR VIS 1 1/2 SLP191 T00670061=
201002081525 SPECI KSEA 081525Z 00000KT 1 1/2SM BR OVC003 07/06 A3007 RMK AO2 SFC VIS 2=
201002081525 SPECI KSEA 081525Z 00000KT 1 1/2SM BR OVC003 07/06 A3007 RMK AO2 SFC VIS 2=
201002081510 SPECI KSEA 081510Z 00000KT 2SM BR OVC003 07/06 A3007 RMK AO2 SFC VIS 2 1/2=
201002081510 SPECI KSEA 081510Z 00000KT 2SM BR OVC003 07/06 A3007 RMK AO2 SFC VIS 2 1/2=
201002081453 METAR KSEA 081453Z 00000KT 2SM BR SCT002 OVC005 07/06 A3007 RMK AO2 SFC VIS 5 SLP191 T00720061 56006=
201002081439 SPECI KSEA 081439Z 00000KT 2SM BR SCT002 BKN005 OVC010 07/06 A3007 RMK AO2 SFC VIS 4=
201002081439 SPECI KSEA 081439Z 00000KT 2SM BR SCT002 BKN005 OVC010 07/06 A3007 RMK AO2 SFC VIS 4=
201002081437 SPECI KSEA 081437Z 00000KT 2SM BR SCT002 BKN030 OVC060 07/06 A3007 RMK AO2 SFC VIS 6=
201002081437 SPECI KSEA 081437Z 00000KT 2SM BR SCT002 BKN030 OVC060 07/06 A3007 RMK AO2 SFC VIS 6=
201002081353 METAR KSEA 081353Z 00000KT 9SM FEW004 SCT033 OVC060 07/06 A3008 RMK AO2 SLP194 T00670061=
201002081253 METAR KSEA 081253Z 12003KT 10SM SCT030 OVC060 07/06 A3008 RMK AO2 SLP192 T00670061=
201002081153 METAR KSEA 081153Z 00000KT 10SM BKN040 OVC060 07/06 A3009 RMK AO2 SLP196 70002 T00720061 10083 20067 58001=
201002081053 METAR KSEA 081053Z 16003KT 10SM SCT042 OVC060 07/06 A3009 RMK AO2 SLP197 T00720061=
201002080953 METAR KSEA 080953Z 13004KT 10SM FEW020 SCT040 OVC050 08/07 A3010 RMK AO2 SLP199 T00780067=
201002080853 METAR KSEA 080853Z 15004KT 9SM SCT020 OVC050 07/07 A3009 RMK AO2 SLP198 T00720067 53002=
201002080753 METAR KSEA 080753Z 14004KT 10SM SCT020 OVC050 08/07 A3009 RMK AO2 SLP197 T00780067 400940067=
201002080653 METAR KSEA 080653Z 15004KT 10SM OVC055 08/07 A3009 RMK AO2 SLP196 T00830067=
201002080553 METAR KSEA 080553Z 16003KT 10SM OVC055 08/07 A3009 RMK AO2 SLP197 T00780067 10094 20078 53002=
201002080456 SPECI KSEA 080456Z 16003KT 10SM SCT026 OVC055 08/07 A3008 RMK AO2=
201002080456 SPECI KSEA 080456Z 16003KT 10SM SCT026 OVC055 08/07 A3008 RMK AO2=
201002080453 METAR KSEA 080453Z 16003KT 10SM BKN029 OVC055 08/07 A3008 RMK AO2 SLP196 T00830067=
201002080353 METAR KSEA 080353Z 16004KT 10SM BKN015 OVC021 08/07 A3008 RMK AO2 SLP195 T00830067=
201002080325 SPECI KSEA 080325Z 16004KT 10SM BKN017 BKN021 OVC055 08/07 A3008 RMK AO2=
201002080325 SPECI KSEA 080325Z 16004KT 10SM BKN017 BKN021 OVC055 08/07 A3008 RMK AO2=
201002080312 SPECI KSEA 080312Z 15005KT 10SM SCT015 OVC055 08/07 A3008 RMK AO2=
201002080312 SPECI KSEA 080312Z 15005KT 10SM SCT015 OVC055 08/07 A3008 RMK AO2=
201002080309 SPECI KSEA 080309Z 15004KT 10SM BKN014 OVC055 08/07 A3008 RMK AO2=
201002080309 SPECI KSEA 080309Z 15004KT 10SM BKN014 OVC055 08/07 A3008 RMK AO2=
201002080253 METAR KSEA 080253Z 00000KT 10SM SCT012 OVC055 08/07 A3008 RMK AO2 SLP194 T00830067 50002 $=
201002080222 SPECI KSEA 080222Z 14003KT 10SM FEW009 SCT020 OVC055 09/07 A3008 RMK AO2 $=
201002080222 SPECI KSEA 080222Z 14003KT 10SM FEW009 SCT020 OVC055 09/07 A3008 RMK AO2 $=
201002080153 METAR KSEA 080153Z 16004KT 10SM FEW009 BKN017 OVC060 09/07 A3008 RMK AO2 SLP194 T00890072=
201002080132 SPECI KSEA 080132Z 00000KT 10SM SCT009 BKN020 OVC040 09/07 A3008 RMK AO2=
201002080132 SPECI KSEA 080132Z 00000KT 10SM SCT009 BKN020 OVC040 09/07 A3008 RMK AO2=
201002080053 METAR KSEA 080053Z 15003KT 10SM SCT026 BKN035 OVC050 09/07 A3008 RMK AO2 SLP194 T00940067=
201002072353 METAR KSEA 072353Z 17003KT 10SM SCT021 OVC050 09/07 A3008 RMK AO2 SLP192 T00890067 10094 20078 51002=
201002072253 METAR KSEA 072253Z 20004KT 10SM SCT010 BKN017 OVC050 09/07 A3007 RMK AO2 SLP191 T00890067=
201002072153 METAR KSEA 072153Z 18006KT 10SM SCT010 BKN017 OVC075 09/07 A3007 RMK AO2 SLP190 T00940067=
201002072053 METAR KSEA 072053Z 19003KT 10SM SCT014 BKN019 OVC024 09/07 A3008 RMK AO2 SLP193 T00890067 58002=
201002071953 METAR KSEA 071953Z 16003KT 10SM FEW010 BKN019 OVC028 08/07 A3009 RMK AO2 SLP197 T00830067=
201002071853 METAR KSEA 071853Z 16004KT 10SM FEW010 SCT025 OVC033 08/06 A3009 RMK AO2 SLP198 T00780061=
201002071753 METAR KSEA 071753Z 14003KT 10SM FEW010 OVC030 08/06 A3009 RMK AO2 SLP195 60002 T00780061 10078 20067 51010=
201002071653 METAR KSEA 071653Z 14006KT 10SM FEW010 OVC038 07/06 A3008 RMK AO2 SLP193 T00720061=
201002071553 METAR KSEA 071553Z 15005KT 10SM FEW010 BKN035 OVC048 07/06 A3007 RMK AO2 SLP190 T00720061=
201002071453 METAR KSEA 071453Z 14006KT 6SM BR FEW003 SCT012 OVC033 07/06 A3006 RMK AO2 RAE05 SLP185 P0000 60002 T00720061 52004=
201002071436 SPECI KSEA 071436Z 13005KT 6SM BR FEW003 SCT012 OVC030 07/06 A3005 RMK AO2 RAE05 P0000=
201002071436 SPECI KSEA 071436Z 13005KT 6SM BR FEW003 SCT012 OVC030 07/06 A3005 RMK AO2 RAE05 P0000=
201002071353 METAR KSEA 071353Z 14006KT 5SM -RA BR SCT002 BKN020 OVC030 07/06 A3005 RMK AO2 SLP183 P0001 T00720061=
201002071341 SPECI KSEA 071341Z 13005KT 4SM -RA BR FEW001 SCT003 OVC010 07/07 A3005 RMK AO2 P0001=
201002071341 SPECI KSEA 071341Z 13005KT 4SM -RA BR FEW001 SCT003 OVC010 07/07 A3005 RMK AO2 P0001=
201002071253 METAR KSEA 071253Z 12004KT 3SM -RA BR SCT001 OVC004 07/07 A3005 RMK AO2 SLP182 P0001 T00720067=
201002071153 METAR KSEA 071153Z 13004KT 2 1/2SM -RA BR BKN002 OVC004 07/07 A3004 RMK AO2 SLP181 P0002 60021 70026 T00720067 10083 20072 51008=
201002071140 SPECI KSEA 071140Z 14005KT 2SM -RA BR BKN002 OVC005 07/07 A3004 RMK AO2 P0001=
201002071140 SPECI KSEA 071140Z 14005KT 2SM -RA BR BKN002 OVC005 07/07 A3004 RMK AO2 P0001=
201002071118 SPECI KSEA 071118Z 13004KT 3SM -RA BR BKN002 OVC005 07/07 A3004 RMK AO2 P0001=
201002071118 SPECI KSEA 071118Z 13004KT 3SM -RA BR BKN002 OVC005 07/07 A3004 RMK AO2 P0001=
201002071053 METAR KSEA 071053Z 12004KT 4SM -RA BR SCT003 OVC005 07/07 A3004 RMK AO2 SLP178 P0003 T00720067=
201002070953 METAR KSEA 070953Z 12004KT 6SM RA BR FEW006 OVC019 07/07 A3003 RMK AO2 SLP176 P0005 T00720067=
201002070934 SPECI KSEA 070934Z 12003KT 7SM -RA FEW008 OVC021 07/07 A3003 RMK AO2 P0004=
201002070934 SPECI KSEA 070934Z 12003KT 7SM -RA FEW008 OVC021 07/07 A3003 RMK AO2 P0004=
201002070853 METAR KSEA 070853Z 11004KT 6SM -RA BR OVC027 07/06 A3002 RMK AO2 SLP172 P0003 60011 T00720061 52008=
201002070753 METAR KSEA 070753Z 14003KT 10SM -RA OVC025 07/06 A3001 RMK AO2 SLP170 P0003 T00720061 401330061=
201002070653 METAR KSEA 070653Z 12006KT 8SM -RA OVC019 08/06 A3000 RMK AO2 SLP166 P0005 T00780056=
201002070630 SPECI KSEA 070630Z 11008KT 9SM -RA OVC017 08/06 A3000 RMK AO2 P0002=
201002070630 SPECI KSEA 070630Z 11008KT 9SM -RA OVC017 08/06 A3000 RMK AO2 P0002=
201002070553 METAR KSEA 070553Z 11007KT 8SM -RA BKN013 OVC020 08/07 A2999 RMK AO2 SLP164 P0004 60005 T00830067 10122 20083 51010=
201002070550 SPECI KSEA 070550Z 11007KT 7SM -RA BKN013 OVC020 08/07 A2999 RMK AO2 P0004=
201002070550 SPECI KSEA 070550Z 11007KT 7SM -RA BKN013 OVC020 08/07 A2999 RMK AO2 P0004=
201002070453 METAR KSEA 070453Z 17004KT 10SM -RA FEW017 BKN024 OVC031 09/07 A2998 RMK AO2 SLP161 P0001 T00890067=
201002070443 SPECI KSEA 070443Z 16006KT 10SM -RA BKN024 BKN031 OVC041 09/06 A2998 RMK AO2 P0001=
201002070443 SPECI KSEA 070443Z 16006KT 10SM -RA BKN024 BKN031 OVC041 09/06 A2998 RMK AO2 P0001=
201002070353 METAR KSEA 070353Z 20003KT 10SM -RA OVC043 09/06 A2996 RMK AO2 RAB18 SLP154 P0000 T00940061=
201002070253 METAR KSEA 070253Z 13006KT 10SM OVC065 11/03 A2994 RMK AO2 SLP146 T01110028 53018=
201002070153 METAR KSEA 070153Z 18003KT 10SM OVC075 11/05 A2992 RMK AO2 SLP139 T01060050=
201002070053 METAR KSEA 070053Z 18003KT 10SM OVC075 11/04 A2990 RMK AO2 SLP132 T01110044=
201002062353 METAR KSEA 062353Z 00000KT 10SM OVC070 12/04 A2989 RMK AO2 SLP127 T01170039 10133 20106 53004=
201002062253 SPECI KSEA 062253Z 26004KT 10SM SCT060 BKN220 12/03 A2987 RMK AO2 SLP123 T01170033=
201002062153 METAR KSEA 062153Z 20004KT 10SM SCT060 BKN220 12/03 A2987 RMK AO2 SLP122 T01170033=
201002062053 METAR KSEA 062053Z 20003KT 10SM FEW080 SCT220 12/03 A2987 RMK AO2 SLP122 T01220033 51009=
201002061953 METAR KSEA 061953Z 21005KT 10SM FEW100 SCT220 11/04 A2987 RMK AO2 SLP121 T01110044=
201002061853 METAR KSEA 061853Z 18005KT 10SM FEW100 BKN210 12/02 A2986 RMK AO2 SLP119 T01170022=
201002061753 METAR KSEA 061753Z 13006KT 10SM FEW100 BKN210 11/02 A2985 RMK AO2 SLP114 T01110017 10111 20061 51015=
201002061653 METAR KSEA 061653Z 10005KT 10SM FEW080 BKN180 09/01 A2984 RMK AO2 SLP111 T00940011=
201002061553 METAR KSEA 061553Z 09004KT 10SM SCT160 09/01 A2982 RMK AO2 SLP106 T00890011=
201002061453 METAR KSEA 061453Z 11007KT 10SM BKN150 09/01 A2980 RMK AO2 SLP099 T00940011 51007=
201002061353 METAR KSEA 061353Z 11006KT 10SM BKN150 09/01 A2980 RMK AO2 SLP097 T00940011=
201002061253 METAR KSEA 061253Z 00000KT 10SM BKN150 07/02 A2980 RMK AO2 SLP096 T00720017=
201002061153 METAR KSEA 061153Z 33003KT 10SM BKN150 08/01 A2978 RMK AO2 SLP091 70006 T00830011 10106 20083 51005=
201002061053 METAR KSEA 061053Z 09005KT 10SM OVC150 09/01 A2978 RMK AO2 SLP089 T00940011=
201002060953 METAR KSEA 060953Z 10005KT 10SM OVC159 10/01 A2978 RMK AO2 SLP089 T01000011=
201002060853 METAR KSEA 060853Z 10011KT 10SM BKN150 11/01 A2977 RMK AO2 SLP085 T01060006 58002=
201002060753 METAR KSEA 060753Z 10012KT 10SM SCT150 10/01 A2977 RMK AO2 SLP087 T01000006 401440072=
201002060653 METAR KSEA 060653Z 10010KT 10SM SCT150 10/01 A2977 RMK AO2 SLP089 T01000006=
201002060553 METAR KSEA 060553Z 10010KT 10SM FEW150 10/01 A2977 RMK AO2 SLP089 T01000011 10144 20100 51000=
201002060453 METAR KSEA 060453Z 10011KT 10SM FEW150 10/02 A2977 RMK AO2 SLP089 T01000017=
201002060353 METAR KSEA 060353Z 11012KT 10SM FEW150 11/02 A2978 RMK AO2 SLP090 T01060022=
201002060253 METAR KSEA 060253Z 11010KT 10SM CLR 11/03 A2977 RMK AO2 SLP089 T01110033 56002=
201002060153 METAR KSEA 060153Z 08006KT 10SM FEW065 SCT250 12/04 A2977 RMK AO2 SLP089 T01220039=
201002060053 METAR KSEA 060053Z 09006KT 10SM FEW050 SCT075 BKN250 13/03 A2977 RMK AO2 SLP089 T01330033=
201002052353 METAR KSEA 052353Z 13006KT 10SM SCT055 BKN075 14/03 A2978 RMK AO2 SLP089 60000 T01440033 10144 20089 55004=
201002052253 METAR KSEA 052253Z VRB06KT 10SM FEW045 SCT065 14/04 A2977 RMK AO2 SLP088 T01390039=
201002052153 METAR KSEA 052153Z 16003KT 10SM SCT050 BKN065 13/05 A2978 RMK AO2 SLP091 T01330050=
201002052053 METAR KSEA 052053Z 08006KT 10SM FEW040 BKN065 12/06 A2979 RMK AO2 RAE02 SLP094 P0000 60000 T01220061 50003=
201002051953 METAR KSEA 051953Z 13005KT 10SM -RA BKN040 BKN200 11/07 A2981 RMK AO2 RAB36 SLP100 P0000 T01060067=
201002051853 METAR KSEA 051853Z 14006KT 10SM FEW040 BKN060 09/06 A2980 RMK AO2 SLP098 T00940061=
201002051753 METAR KSEA 051753Z 11008KT 10SM FEW040 BKN060 09/06 A2978 RMK AO2 SLP092 60006 T00890061 10089 20072 51016=
201002051653 METAR KSEA 051653Z 11006KT 10SM FEW038 BKN060 BKN200 08/06 A2976 RMK AO2 SLP086 T00830056=
201002051553 METAR KSEA 051553Z 11009KT 10SM BKN038 BKN065 BKN200 08/06 A2975 RMK AO2 SLP082 T00830056=
201002051453 METAR KSEA 051453Z 11008KT 10SM FEW015 BKN040 OVC060 08/07 A2973 RMK AO2 RAE15 SLP076 P0000 60006 T00780067 51028=
201002051353 METAR KSEA 051353Z 11010KT 10SM -RA BKN035 OVC050 08/07 A2971 RMK AO2 SLP068 P0004 T00780067=
201002051253 METAR KSEA 051253Z 19006KT 8SM -RA FEW026 OVC040 08/07 A2969 RMK AO2 SLP061 P0002 T00780067=
201002051153 METAR KSEA 051153Z 16003KT 10SM -RA OVC040 08/07 A2965 RMK AO2 RAB45 SLP047 P0000 60005 70008 T00780067 10100 20078 51027=
201002051053 METAR KSEA 051053Z 25005KT 10SM OVC048 08/06 A2962 RMK AO2 SLP037 T00830056=
201002050953 METAR KSEA 050953Z 16003KT 10SM OVC050 08/06 A2960 RMK AO2 SLP029 T00830056=
201002050853 METAR KSEA 050853Z 12005KT 10SM SCT049 OVC055 09/04 A2957 RMK AO2 RAE47 SLP018 P0001 60005 T00940044 51009=
201002050753 METAR KSEA 050753Z 12009KT 10SM -RA FEW040 BKN060 OVC090 10/04 A2956 RMK AO2 RAE28B49 SLP015 P0000 T01000039 401390050=
201002050653 METAR KSEA 050653Z 12011KT 10SM -RA BKN040 OVC060 09/04 A2955 RMK AO2 SLP014 P0004 T00940039=
201002050553 METAR KSEA 050553Z 12010KT 10SM -RA BKN049 OVC060 10/03 A2954 RMK AO2 SLP010 P0003 60003 T01000033 10122 20100 53003=
201002050453 METAR KSEA 050453Z 12014KT 10SM -RA OVC060 11/02 A2952 RMK AO2 RAB05 SLP004 P0000 T01060017=
201002050353 METAR KSEA 050353Z 11013KT 10SM BKN060 OVC120 11/00 A2952 RMK AO2 SLP002 T01110000=
201002050253 METAR KSEA 050253Z 12017KT 10SM SCT075 BKN100 OVC150 11/00 A2953 RMK AO2 SLP007 T01110000 55007=
201002050153 METAR KSEA 050153Z 12010KT 10SM CLR OVC150 11/01 A2953 RMK AO2 SLP006 T01110006=
201002050053 METAR KSEA 050053Z 10010KT 10SM FEW120 OVC200 12/01 A2953 RMK AO2 SLP007 T01170006=
201002042353 METAR KSEA 042353Z 10016G21KT 10SM FEW050 SCT110 BKN200 12/01 A2955 RMK AO2 SLP014 T01220006 10139 20100 56027=
201002042253 METAR KSEA 042253Z 11011KT 10SM FEW050 SCT120 BKN200 13/01 A2958 RMK AO2 SLP023 T01330006=
201002042153 METAR KSEA 042153Z 11008KT 10SM FEW050 BKN120 OVC200 13/01 A2961 RMK AO2 SLP032 T01280006=
201002042053 METAR KSEA 042053Z 12005KT 10SM FEW050 BKN120 OVC200 12/01 A2964 RMK AO2 SLP042 T01220006 58018=
201002041953 METAR KSEA 041953Z 09008KT 10SM FEW080 SCT120 BKN250 12/01 A2966 RMK AO2 SLP049 T01220011=
201002041853 METAR KSEA 041853Z 10006G14KT 10SM FEW080 SCT120 BKN250 12/02 A2968 RMK AO2 SLP057 T01170017=
201002041753 METAR KSEA 041753Z 10010KT 10SM FEW080 BKN250 10/02 A2969 RMK AO2 SLP060 T01000017 10100 20050 58009=
201002041653 METAR KSEA 041653Z 11010KT 10SM FEW050 SCT080 SCT200 08/01 A2970 RMK AO2 SLP066 T00780011=
201002041553 METAR KSEA 041553Z 12007KT 10SM FEW050 BKN085 BKN200 07/02 A2971 RMK AO2 SLP068 T00720017=
201002041453 METAR KSEA 041453Z 11007KT 10SM FEW055 SCT070 BKN090 07/02 A2972 RMK AO2 SLP071 T00720017 56010=
201002041353 METAR KSEA 041353Z 12005KT 10SM SCT070 BKN200 07/02 A2973 RMK AO2 SLP074 T00670017=
201002041253 METAR KSEA 041253Z 09009KT 10SM BKN048 BKN090 07/02 A2974 RMK AO2 SLP077 T00670022=
201002041153 METAR KSEA 041153Z 11009KT 10SM BKN048 OVC090 07/02 A2975 RMK AO2 SLP081 60002 70032 T00670022 10072 20050 53001=
201002041053 METAR KSEA 041053Z 12004KT 10SM SCT055 06/03 A2974 RMK AO2 SLP080 T00610028=
201002040953 METAR KSEA 040953Z 13005KT 10SM SCT038 BKN055 OVC075 06/04 A2974 RMK AO2 RAE13 SLP079 P0000 T00610039=
201002040853 METAR KSEA 040853Z 12003KT 10SM -RA FEW033 BKN055 OVC075 07/04 A2974 RMK AO2 RAB02E11B34 SLP079 P0001 60002 T00670039 51002=
201002040753 METAR KSEA 040753Z 13006KT 10SM FEW033 BKN045 OVC100 07/04 A2974 RMK AO2 SLP078 T00720039 401000050=
201002040653 METAR KSEA 040653Z 13006KT 10SM SCT050 SCT100 07/04 A2974 RMK AO2 RAE11 SLP079 P0001 T00670044=
201002040553 METAR KSEA 040553Z 12005KT 10SM -RA SCT038 BKN050 OVC070 07/05 A2974 RMK AO2 RAE0457B31 SLP077 P0000 60011 T00720050 10094 20072 55000=
201002040453 METAR KSEA 040453Z 10007KT 10SM -RA BKN040 OVC055 08/05 A2973 RMK AO2 RAB47 SLP074 P0000 T00780050=
201002040353 METAR KSEA 040353Z 08008KT 5SM BR SCT001 SCT006 OVC042 08/07 A2973 RMK AO2 RAE32 SLP074 P0003 T00780067=
201002040346 SPECI KSEA 040346Z 09009KT 1/2SM BR SCT001 BKN042 OVC049 08/07 A2972 RMK AO2 SFC VIS 3 RAE32 VIS N-E 1 P0003=
201002040346 SPECI KSEA 040346Z 09009KT 1/2SM BR SCT001 BKN042 OVC049 08/07 A2972 RMK AO2 SFC VIS 3 RAE32 VIS N-E 1 P0003=
201002040306 SPECI KSEA 040306Z 07003KT 5SM -RA BR FEW003 BKN030 OVC038 08/07 A2973 RMK AO2 P0003=
201002040306 SPECI KSEA 040306Z 07003KT 5SM -RA BR FEW003 BKN030 OVC038 08/07 A2973 RMK AO2 P0003=
201002040253 METAR KSEA 040253Z 07003KT 4SM RA BR FEW003 BKN026 OVC032 07/07 A2974 RMK AO2 SLP077 P0008 60008 T00720067 53015=
201002040246 SPECI KSEA 040246Z 18003KT 4SM -RA BR FEW003 BKN026 OVC034 07/07 A2974 RMK AO2 P0006=
201002040246 SPECI KSEA 040246Z 18003KT 4SM -RA BR FEW003 BKN026 OVC034 07/07 A2974 RMK AO2 P0006=
201002040210 SPECI KSEA 040210Z 00000KT 7SM -RA SCT003 OVC040 08/07 A2972 RMK AO2 P0001=
201002040210 SPECI KSEA 040210Z 00000KT 7SM -RA SCT003 OVC040 08/07 A2972 RMK AO2 P0001=
201002040153 METAR KSEA 040153Z 00000KT 1 1/2SM -RA BR BKN003 OVC048 08/07 A2972 RMK AO2 SFC VIS 5 SLP072 P0000 T00780067=
201002040138 SPECI KSEA 040138Z 27004KT 10SM -RA FEW003 OVC045 07/07 A2972 RMK AO2 P0000=
201002040138 SPECI KSEA 040138Z 27004KT 10SM -RA FEW003 OVC045 07/07 A2972 RMK AO2 P0000=
201002040053 METAR KSEA 040053Z 26003KT 10SM -RA SCT047 OVC055 08/07 A2970 RMK AO2 RAB52 SLP065 P0000 T00830067=
201002032353 METAR KSEA 032353Z 03004KT 10SM BKN050 BKN250 09/06 A2969 RMK AO2 SLP063 60017 T00890061 10100 20061 56014=
201002032253 METAR KSEA 032253Z 05007KT 10SM FEW035 BKN055 BKN250 09/07 A2969 RMK AO2 RAB29E38 SLP063 P0000 T00940072=
201002032153 METAR KSEA 032153Z 06005KT 10SM BKN037 BKN120 08/06 A2971 RMK AO2 RAE44 SLP068 FG BANK SW-W P0001 T00830061=
201002032053 METAR KSEA 032053Z 12003KT 6SM -RA BR FEW003 BKN034 OVC046 07/06 A2973 RMK AO2 SLP077 FG BANK SW-W P0002 60016 T00670056 58006=
201002032041 SPECI KSEA 032041Z 12003KT 5SM -RA BR BKN031 OVC037 07/06 A2974 RMK AO2 FG BANK S-W-NW P0002=
201002032041 SPECI KSEA 032041Z 12003KT 5SM -RA BR BKN031 OVC037 07/06 A2974 RMK AO2 FG BANK S-W-NW P0002=
201002032026 SPECI KSEA 032026Z 13005KT 2SM -RA BR OVC035 07/06 A2974 RMK AO2 SFC VIS 4 FG BANK SW-W P0001=
201002032026 SPECI KSEA 032026Z 13005KT 2SM -RA BR OVC035 07/06 A2974 RMK AO2 SFC VIS 4 FG BANK SW-W P0001=
201002031953 METAR KSEA 031953Z 00000KT 6SM -RA BR BCFG BKN034 OVC040 07/06 A2975 RMK AO2 SLP081 P0007 T00720061=
201002031902 SPECI KSEA 031902Z 09004KT 6SM -RA BR FEW002 OVC032 06/05 A2976 RMK AO2 P0001=
201002031902 SPECI KSEA 031902Z 09004KT 6SM -RA BR FEW002 OVC032 06/05 A2976 RMK AO2 P0001=
201002031853 METAR KSEA 031853Z 00000KT 6SM -RA BR BKN035 OVC050 07/06 A2976 RMK AO2 SLP085 P0007 T00670056=
201002031753 METAR KSEA 031753Z 16004KT 7SM -RA OVC038 06/05 A2975 RMK AO2 SLP083 P0001 60002 T00610050 10072 20050 53015=
201002031653 METAR KSEA 031653Z 00000KT 10SM -RA BKN050 OVC070 06/05 A2974 RMK AO2 RAB02 SLP078 P0000 T00610050=
201002031553 METAR KSEA 031553Z 00000KT 10SM FEW040 OVC060 06/04 A2971 RMK AO2 SLP069 T00560039=
201002031453 METAR KSEA 031453Z 33004KT 10SM BKN060 OVC110 06/04 A2971 RMK AO2 SLP068 60001 T00560044 55004=
201002031353 METAR KSEA 031353Z 03006KT 10SM FEW050 OVC110 06/04 A2970 RMK AO2 SLP067 T00610044=
201002031253 METAR KSEA 031253Z 04005KT 10SM FEW044 SCT065 BKN110 06/04 A2971 RMK AO2 RAE46 SLP067 P0001 T00610044=
201002031153 METAR KSEA 031153Z 04007KT 10SM -RA FEW049 BKN065 OVC080 07/05 A2972 RMK AO2 RAB41 SLP071 P0000 60000 T00670050 10083 20056 56008=
201002031053 METAR KSEA 031053Z 04006KT 10SM SCT050 OVC090 06/03 A2973 RMK AO2 SLP075 T00610028=
201002030953 METAR KSEA 030953Z 03003KT 10SM SCT060 BKN090 06/01 A2974 RMK AO2 SLP076 T00560011=
201002030853 METAR KSEA 030853Z 11004KT 10SM FEW085 BKN110 08/01 A2975 RMK AO2 SLP080 T00780006 57005=
201002030753 METAR KSEA 030753Z 10006KT 10SM BKN110 08/01 A2975 RMK AO2 SLP082 T00780011 401220044=
201002030653 METAR KSEA 030653Z 08006KT 10SM FEW120 SCT200 08/01 A2976 RMK AO2 SLP084 T00780011=
201002030553 METAR KSEA 030553Z 09007KT 10SM FEW150 SCT200 08/02 A2976 RMK AO2 SLP086 T00780017 10122 20072 56003=
201002030453 METAR KSEA 030453Z 06006KT 10SM SCT200 08/03 A2976 RMK AO2 SLP087 T00780028=
201002030353 METAR KSEA 030353Z 02006KT 10SM BKN200 09/03 A2976 RMK AO2 SLP086 T00890033=
201002030253 METAR KSEA 030253Z 35006KT 10SM FEW140 BKN250 07/03 A2977 RMK AO2 SLP089 T00720033 56009=
201002030153 METAR KSEA 030153Z 35005KT 10SM FEW140 BKN250 08/03 A2978 RMK AO2 SLP092 T00780028=
201002030053 METAR KSEA 030053Z 36005KT 10SM FEW140 BKN250 09/03 A2979 RMK AO2 SLP094 T00940033=
201002022353 METAR KSEA 022353Z 36005KT 10SM FEW120 BKN250 12/03 A2980 RMK AO2 SLP097 T01220028 10122 20072 56015=
201002022253 METAR KSEA 022253Z 01007KT 10SM FEW030 BKN250 12/03 A2980 RMK AO2 SLP099 T01170033=
201002022153 METAR KSEA 022153Z 02006KT 10SM FEW030 BKN250 11/05 A2982 RMK AO2 SLP104 T01110050=
201002022053 METAR KSEA 022053Z VRB03KT 10SM FEW030 SCT180 BKN250 11/05 A2984 RMK AO2 SLP112 T01060050 58016=
201002021953 METAR KSEA 021953Z 00000KT 10SM FEW025 BKN180 BKN250 09/05 A2987 RMK AO2 SLP122 T00890050=
201002021853 METAR KSEA 021853Z 15003KT 10SM FEW050 BKN250 08/04 A2989 RMK AO2 SLP128 T00780044=
201002021753 METAR KSEA 021753Z 17004KT 10SM SCT050 BKN250 07/05 A2989 RMK AO2 SLP129 T00720050 10072 20044 51007=
201002021653 METAR KSEA 021653Z 14005KT 10SM FEW020 SCT050 BKN250 07/04 A2988 RMK AO2 SLP127 T00670044=
201002021553 METAR KSEA 021553Z 00000KT 10SM FEW020 BKN250 04/04 A2988 RMK AO2 SLP125 T00440039=
201002021453 METAR KSEA 021453Z 12004KT 10SM SCT060 BKN200 06/04 A2987 RMK AO2 SLP121 T00560044 53000=
201002021353 METAR KSEA 021353Z 17005KT 10SM BKN045 05/04 A2986 RMK AO2 SLP120 T00500044=
201002021253 METAR KSEA 021253Z 15003KT 10SM FEW036 BKN050 05/04 A2986 RMK AO2 SLP120 T00500039=
201002021153 METAR KSEA 021153Z 18005KT 10SM SCT032 OVC085 06/05 A2986 RMK AO2 SLP121 60006 70009 T00610050 10067 20056 51002=
201002021053 METAR KSEA 021053Z 15005KT 10SM SCT036 BKN047 OVC055 07/06 A2986 RMK AO2 RAE01 SLP120 P0000 T00670056=
201002021022 SPECI KSEA 021022Z 12007KT 10SM FEW026 BKN043 OVC050 07/06 A2986 RMK AO2 RAE01 P0000=
201002021022 SPECI KSEA 021022Z 12007KT 10SM FEW026 BKN043 OVC050 07/06 A2986 RMK AO2 RAE01 P0000=
201002020953 METAR KSEA 020953Z 12008KT 9SM -RA OVC026 07/06 A2986 RMK AO2 RAB15 SLP119 P0000 T00670056=
201002020853 METAR KSEA 020853Z 12006KT 5SM BR FEW005 BKN026 OVC031 07/06 A2986 RMK AO2 RAE46 SLP119 P0002 60006 T00670061 50002=
201002020843 SPECI KSEA 020843Z 12007KT 6SM -RA BR FEW005 BKN026 OVC031 07/06 A2986 RMK AO2 P0001=
201002020843 SPECI KSEA 020843Z 12007KT 6SM -RA BR FEW005 BKN026 OVC031 07/06 A2986 RMK AO2 P0001=
201002020753 METAR KSEA 020753Z 12007KT 7SM -RA FEW005 BKN033 OVC041 07/06 A2986 RMK AO2 SLP119 P0001 T00670061 400940044=
201002020653 METAR KSEA 020653Z 16004KT 6SM -RA BR FEW009 BKN031 OVC038 07/06 A2986 RMK AO2 SLP120 P0003 T00670061=
201002020553 METAR KSEA 020553Z 00000KT 10SM -RA FEW038 OVC046 07/06 A2985 RMK AO2 RAB31 SLP116 P0001 60003 T00670061 10078 20067 53002=
201002020453 METAR KSEA 020453Z 00000KT 10SM FEW009 OVC031 07/06 A2985 RMK AO2 SLP115 T00720061=
201002020353 METAR KSEA 020353Z 17003KT 10SM FEW009 OVC037 07/06 A2984 RMK AO2 SLP113 T00720061=
201002020253 METAR KSEA 020253Z 00000KT 10SM FEW008 OVC045 07/06 A2984 RMK AO2 RAE35 SLP114 P0000 60002 T00720056 50001=
201002020153 METAR KSEA 020153Z 00000KT 10SM -RA OVC049 07/06 A2985 RMK AO2 SLP116 P0001 T00720061=
201002020053 METAR KSEA 020053Z 22003KT 10SM -RA BKN043 OVC055 07/06 A2984 RMK AO2 SLP114 P0001 T00720061=
201002012353 METAR KSEA 012353Z 25004KT 10SM -RA BKN041 OVC050 08/04 A2984 RMK AO2 RAB42 SLP113 P0000 60000 T00780044 10094 20067 55005=
201002012253 METAR KSEA 012253Z 23004KT 10SM BKN050 OVC080 09/04 A2984 RMK AO2 SLP112 T00890039=
201002012153 METAR KSEA 012153Z 00000KT 10SM BKN050 OVC080 09/03 A2984 RMK AO2 SLP112 T00940033=
201002012053 METAR KSEA 012053Z 00000KT 10SM FEW045 BKN060 OVC100 09/03 A2986 RMK AO2 RAB12E26 SLP117 P0000 60000 T00890033 58009=
201002011953 METAR KSEA 011953Z 00000KT 10SM CLR 07/03 A2988 RMK AO2 SLP127 T00720033=
201002011853 METAR KSEA 011853Z 00000KT 10SM FEW055 BKN090 OVC180 07/03 A2989 RMK AO2 SLP129 T00720033=
201002011753 METAR KSEA 011753Z 00000KT 10SM BKN090 OVC180 07/03 A2988 RMK AO2 SLP127 T00670028 10067 20044 55005=
201002011653 METAR KSEA 011653Z 13004KT 10SM BKN110 OVC180 06/02 A2988 RMK AO2 SLP127 T00610022=
201002011553 METAR KSEA 011553Z 12006KT 10SM BKN120 OVC180 06/02 A2989 RMK AO2 SLP128 T00560022=
201002011453 METAR KSEA 011453Z 00000KT 10SM OVC120 04/03 A2990 RMK AO2 SLP133 T00440028 55004=
201002011353 METAR KSEA 011353Z 11003KT 10SM FEW030 OVC120 06/03 A2990 RMK AO2 SLP132 T00560028=
201002011253 METAR KSEA 011253Z 08005KT 10SM FEW030 SCT120 06/03 A2990 RMK AO2 SLP132 T00560028=
201002011153 METAR KSEA 011153Z 13003KT 10SM FEW050 BKN120 06/04 A2991 RMK AO2 SLP137 70003 T00560039 10083 20056 58010=
201002011053 METAR KSEA 011053Z 12004KT 10SM FEW050 OVC120 07/04 A2993 RMK AO2 SLP142 T00670044=
201002010953 METAR KSEA 010953Z 11005KT 10SM FEW050 SCT100 06/04 A2993 RMK AO2 SLP145 T00610044=
201002010853 METAR KSEA 010853Z 10005KT 10SM FEW020 BKN045 08/05 A2994 RMK AO2 SLP147 T00780050 57008=
201002010753 METAR KSEA 010753Z 11006KT 10SM FEW020 OVC045 08/06 A2995 RMK AO2 SLP149 T00830056 400940072=
201002010653 METAR KSEA 010653Z 11005KT 10SM OVC046 08/06 A2996 RMK AO2 SLP153 T00830061=
201002010553 METAR KSEA 010553Z 13003KT 10SM OVC044 08/06 A2997 RMK AO2 SLP156 T00830061 10094 20083 58002=
201002010453 METAR KSEA 010453Z 13003KT 10SM OVC042 08/06 A2997 RMK AO2 SLP157 T00830056=
201002010353 METAR KSEA 010353Z 12003KT 10SM OVC038 09/06 A2997 RMK AO2 SLP156 T00890061=
201002010253 METAR KSEA 010253Z 09004KT 10SM OVC038 09/06 A2997 RMK AO2 SLP157 T00890056 53002=
201002010153 METAR KSEA 010153Z 11004KT 10SM BKN038 09/05 A2996 RMK AO2 SLP154 T00890050=
201002010053 METAR KSEA 010053Z 16003KT 10SM FEW038 SCT050 BKN065 08/05 A2997 RMK AO2 SLP156 T00830050=

# No short TAF reports from KSEA in databse.

###################################
#  large TAF from KSEA
###################################
201002282320 TAF KSEA 282320Z 0100/0206 27004KT P6SM FEW100 BKN200 FM010300
                       05003KT P6SM BKN200 FM011400 10004KT P6SM
                       BKN200 FM012200 14004KT P6SM BKN200 FM020500
                       14004KT P6SM BKN120 OVC180=
201002281720 TAF KSEA 281720Z 2818/0124 15003KT P6SM SCT040 BKN200 FM282000
                       VRB03KT P6SM BKN200 FM010200 05003KT P6SM
                       BKN200 FM010500 VRB03KT P6SM BKN200 FM011400
                       10003KT P6SM BKN200=
201002281640 KSEA 281640Z 2817/0118 15003KT P6SM BKN040 BKN150 FM282000 VRB03KT
                       P6SM SCT040 BKN200 FM282100 VRB03KT P6SM
                       BKN200 FM010200 05003KT P6SM BKN200 FM011500
                       VRB03KT P6SM OVC200=
201002281135 TAF KSEA 281135Z 2812/0118 16005KT P6SM FEW010 BKN028
                      TEMPO 2813/2817 3SM BR BKN010 OVC025 FM281700
                       VRB03KT P6SM SCT015 BKN200 FM282100 18005KT
                       P6SM BKN200 FM011500 VRB03KT P6SM OVC200=
201002280837 KSEA 280837Z 2809/0112 19005KT P6SM FEW009 BKN012 OVC040 FM281100
                       16004KT 3SM BR BKN010 OVC035 FM281700 VRB03KT
                       P6SM SCT015 BKN200 FM282100 18005KT P6SM
                       BKN200=
201002280526 TAF KSEA 280526Z 2806/0112 20008KT P6SM FEW060 BKN100 FM281100
                       16004KT 3SM BR BKN010 FM281700 VRB03KT P6SM
                       SCT015 BKN200 FM282100 18005KT P6SM BKN200=
201002272320 TAF KSEA 272320Z 2800/0106 18008KT P6SM VCSH BKN040 BKN080 FM281100
                       16004KT 3SM BR BKN010 FM281700 VRB03KT P6SM
                       SCT015 BKN200=
201002271723 TAF KSEA 271723Z 2718/2824 17012KT P6SM -SHRA BKN040 BKN080 FM272200
                       21014KT P6SM VCSH BKN040 BKN080 FM281000
                       16004KT 3SM BR BKN010 FM281700 VRB03KT P6SM
                       SCT015 BKN200=
201002271310 KSEA 271310Z 2713/2818 VRB03KT P6SM -RA FEW030 BKN050 OVC080 FM271800
                       18008KT P6SM VCSH BKN030 OVC045 FM272300
                       21007KT P6SM BKN035 BKN050 FM281500 16004KT
                       4SM BR OVC025=
201002271135 TAF KSEA 271135Z 2712/2818 17003KT P6SM -RA SCT030 OVC040 FM271800
                       18008KT P6SM VCSH BKN030 OVC045 FM272300
                       21007KT P6SM BKN035 BKN050 FM281500 16004KT
                       4SM BR OVC025=
201002270532 TAF KSEA 270532Z 2706/2812 36004KT P6SM -RA SCT045 OVC060 FM271000
                       12005KT 5SM -RA BR OVC025 FM271800 18008KT
                       P6SM VCSH BKN020 OVC040 FM272300 21007KT
                       P6SM BKN035 BKN050=
201002262337 TAF KSEA 262337Z 2700/2806 11010KT P6SM -RA OVC045 FM270300 06006KT
                       P6SM -RA OVC040 FM271000 12005KT 5SM -RA
                       BR OVC025 FM271800 18008KT P6SM BKN020 OVC040
                       FM272300 21007KT P6SM BKN035 BKN050=
201002261739 TAF KSEA 261739Z 2618/2724 11012G20KT P6SM -RA BKN040 OVC060 FM262200
                       11010KT P6SM -RA BKN035 OVC050 FM270100
                       06006KT 5SM -RA BR OVC030 FM270800 12005KT
                       5SM -RA BR OVC020 FM271700 18008KT P6SM
                       OVC020=
201002261543 KSEA 261543Z 2616/2718 11010G20KT P6SM -RA BKN040 OVC050 FM261700
                       12010G18KT 5SM -RA BR OVC030 FM270200 17005KT
                       P6SM VCSH SCT015 OVC045=
201002261132 TAF KSEA 261132Z 2612/2718 11010KT P6SM -RA BKN035 OVC050 FM261700
                       12006KT 5SM -RA BR OVC025 FM270200 17005KT
                       P6SM VCSH SCT015 OVC045=
201002260615 TAF KSEA 260615Z 2606/2712 06004KT P6SM SCT110 OVC200 FM260800
                       07004KT P6SM -RA BKN060 OVC100 FM261700
                       12006KT 5SM -RA BR OVC025 FM270200 06005KT
                       P6SM SCT015 OVC045=
201002252320 TAF KSEA 252320Z 2600/2706 VRB03KT P6SM FEW025 SCT050 BKN200 FM260200
                       05003KT P6SM FEW050 OVC200 FM260900 10006KT
                       P6SM -RA BKN040 OVC080 FM261200 11006KT
                       P6SM -RA OVC035 FM261700 12006KT 5SM -RA
                       BR OVC025 FM270200 06005KT P6SM SCT015 OVC045=
201002252134 KSEA 252134Z 2522/2624 17007KT P6SM SCT025 BKN045 FM260300 10007KT
                       P6SM BKN200 FM260900 09008KT P6SM -RA BKN050
                       OVC080 FM261200 11006KT P6SM -RA OVC040
                       FM261700 12006KT P6SM -RA OVC030=
201002251744 TAF KSEA 251744Z 2518/2624 18009KT P6SM BKN040 FM252100 19006KT
                       P6SM SCT045 FM260300 10007KT P6SM BKN200
                       FM260900 09008KT P6SM -RA BKN050 OVC080
                       FM261200 11006KT P6SM -RA OVC040 FM261700
                       12006KT P6SM -RA OVC030=
201002251137 TAF KSEA 251137Z 2512/2618 18009KT P6SM SCT030 BKN045 BKN070
                      TEMPO 2512/2516 -SHRA BKN027 OVC040 FM251900
                       19006KT P6SM SCT050 BKN200 FM260300 10007KT
                       P6SM BKN070 OVC100 FM260900 09008KT P6SM
                       -RA BKN040 OVC060 FM261200 09006KT P6SM
                       -RA OVC030=
201002250536 TAF KSEA 250536Z 2506/2612 17009KT P6SM VCSH SCT050 BKN090
                      TEMPO 2508/2512 BKN025 OVC050 FM251200 18005KT
                       P6SM BKN030 OVC050 FM252000 19006KT P6SM
                       SCT050 BKN200 FM260300 11007KT P6SM BKN070
                       OVC100 FM260900 09008KT P6SM -RA BKN040
                       OVC060=
201002242350 TAF KSEA 242350Z 2500/2606 21010KT P6SM VCSH SCT035 BKN050 BKN200
                       TEMPO 2500/2503 -SHRA BKN035 BKN050 BKN200
                       FM250600 19007KT P6SM SCT030 BKN050 FM251200
                       18005KT P6SM BKN030 OVC050 FM252000 19006KT
                       P6SM SCT050 BKN200 FM260200 18007KT P6SM
                       BKN070 OVC100=
201002242034 KSEA 242034Z 2421/2524 21012KT P6SM VCSH BKN035 BKN200
                      TEMPO 2421/2424 -SHRA BKN025 BKN200 FM250000
                       21010KT P6SM VCSH SCT035 BKN200 FM250600
                       19007KT P6SM SCT025 BKN050=
201002242006 KSEA 242006Z 2420/2524 21014KT P6SM FEW008 SCT015 BKN200 FM242100
                       20015KT P6SM -RA BKN015 OVC040 FM250100
                       22010G16KT P6SM VCSH SCT025 OVC040 FM250600
                       19007KT P6SM -SHRA SCT025 BKN050=
201002241854 KSEA 241854Z 2419/2524 21014KT P6SM FEW008 SCT015 BKN200 FM242000
                       20015KT P6SM BKN015 OVC040 FM250100 22010G16KT
                       P6SM VCSH SCT025 OVC040 FM250600 19007KT
                       P6SM -SHRA SCT025 BKN050=
201002241803 TAF KSEA 241803Z 2418/2524 20012KT P6SM SCT007 BKN013 BKN028 BKN200
                       FM250100 22010G16KT P6SM VCSH SCT025 OVC040
                       FM250600 19007KT P6SM -SHRA SCT025 BKN050=
201002241535 KSEA 241535Z 2416/2518 15008KT P6SM SCT010 OVC020
                      TEMPO 2416/2419 2SM -RA BR BKN010 OVC020
                       FM241900 22010G16KT P6SM -SHRA BKN025 FM250100
                       20007KT P6SM -SHRA SCT025 BKN050=
201002241131 TAF KSEA 241131Z 2412/2518 10005KT P6SM -RA BKN028 OVC035 FM241500
                       15005KT P6SM -RA SCT010 OVC025
                      TEMPO 2415/2419 -RA BKN010 OVC020 FM241900
                       22010G16KT P6SM -SHRA BKN025 FM250100 20007KT
                       P6SM -SHRA SCT025 BKN050=
201002240524 TAF KSEA 240524Z 2406/2512 14004KT P6SM -RA SCT030 OVC045
                      TEMPO 2409/2413 -RA BKN025 OVC040 FM241300
                       17005KT P6SM -RA SCT010 OVC025
                      TEMPO 2413/2417 -RA BKN010 OVC020 FM241800
                       22010G16KT P6SM -SHRA BKN025 FM250100 20007KT
                       P6SM -SHRA SCT025 BKN050=
201002232338 TAF KSEA 232338Z 2400/2506 13005KT P6SM -RA SCT025 OVC040 FM240600
                       12005KT P6SM -RA BKN025 OVC040 FM241200
                       17005KT P6SM -RA OVC020 FM241800 22009G16KT
                       P6SM -SHRA BKN025=
201002231739 TAF KSEA 231739Z 2318/2424 15004KT P6SM BKN060 BKN100
                      TEMPO 2321/2324 -RA BKN040 FM240000 15004KT
                       P6SM -RA SCT025 OVC040 FM240600 12005KT
                       P6SM -RA BKN025 OVC040 FM241200 17005KT
                       P6SM -RA OVC020 FM241800 22007KT P6SM -SHRA
                       BKN025=
201002231122 TAF KSEA 231122Z 2312/2418 00000KT P6SM BKN100 FM232000 VRB03KT
                       P6SM BKN050 OVC100
                      PROB30 2321/2401 -RA FM240100 14004KT P6SM
                       -RA SCT025 OVC040 FM240500 10005KT P6SM
                       -RA BKN025 OVC040=
201002230526 TAF KSEA 230526Z 2306/2412 12010KT P6SM BKN220 FM232000 VRB03KT
                       P6SM BKN060 OVC100
                      PROB30 2321/2401 -RA FM240100 14004KT P6SM
                       -RA SCT025 OVC040 FM240500 10005KT P6SM
                       -RA BKN025 OVC040=
201002222333 TAF KSEA 222333Z 2300/2406 25004KT P6SM BKN250 FM230400 12003KT
                       P6SM SCT120 OVC200 FM232000 VRB03KT P6SM
                       BKN060 OVC100
                      PROB30 2320/2324 -RA FM240000 12004KT P6SM
                       -RA SCT030 OVC040=
201002221739 TAF KSEA 221739Z 2218/2324 13003KT P6SM SKC FM222000 25004KT P6SM
                       SKC FM230300 13004KT P6SM BKN200 FM231200
                       13004KT P6SM SCT100 BKN150 FM232100 13005KT
                       P6SM BKN050
                      PROB30 2321/2324 -RA=
201002221124 TAF KSEA 221124Z 2212/2318 13004KT P6SM SKC FM222000 27004KT P6SM
                       SKC FM230200 13004KT P6SM BKN200=
201002220533 TAF KSEA 220533Z 2206/2312 06006KT P6SM SKC FM222000 26004KT P6SM
                       SKC FM230200 13004KT P6SM SCT250=
201002212320 TAF KSEA 212320Z 2200/2306 35006KT P6SM SKC FM220300 09006KT P6SM
                       SKC FM222000 26004KT P6SM SKC=
201002211736 TAF KSEA 211736Z 2118/2224 08006KT P6SM SKC FM212000 35005KT P6SM
                       SKC FM220300 09006KT P6SM SKC FM222000 26004KT
                       P6SM SKC=
201002211124 TAF KSEA 211124Z 2112/2218 09008KT P6SM SKC FM211900 35006KT P6SM
                       SKC FM220300 09006KT P6SM SKC=
201002210534 TAF KSEA 210534Z 2106/2212 09008KT P6SM SKC FM211900 35006KT P6SM
                       SKC FM220200 05005KT P6SM SKC=
201002202320 TAF KSEA 202320Z 2100/2206 36008KT P6SM SKC FM210300 03006KT P6SM
                       SKC FM211800 36006KT P6SM SKC=
201002201744 TAF KSEA 201744Z 2018/2124 03007KT P6SM SCT250 FM202100 36008KT
                       P6SM SKC FM210300 03006KT P6SM SKC=
201002201120 TAF KSEA 201120Z 2012/2118 03007KT P6SM SCT250=
201002200536 TAF KSEA 200536Z 2006/2112 03007KT P6SM SCT250=
201002200046 KSEA 200046Z 2001/2106 33010KT P6SM SKC FM200200 02010KT P6SM SKC
                       FM202100 33008KT P6SM SKC=
201002192328 TAF KSEA 192328Z 2000/2106 36012KT P6SM SKC FM200200 02010KT P6SM
                       SKC FM202100 36008KT P6SM SKC=
201002191729 TAF KSEA 191729Z 1918/2024 05008KT P6SM SKC FM200200 02010KT P6SM
                       SKC=
201002191120 TAF KSEA 191120Z 1912/2018 02010KT P6SM SKC=
201002190528 TAF KSEA 190528Z 1906/2012 02010KT P6SM SKC=
201002182329 TAF KSEA 182329Z 1900/2006 01013KT P6SM SCT250 FM190200 03010KT
                       P6SM SKC FM190500 06007KT P6SM SKC FM192000
                       35008KT P6SM SKC FM200200 04008KT P6SM SKC=
201002181720 TAF KSEA 181720Z 1818/1924 01012KT P6SM SCT250 FM190200 03010KT
                       P6SM SKC FM190500 06007KT P6SM SKC FM192000
                       35008KT P6SM SKC=
201002181125 TAF KSEA 181125Z 1812/1918 03010KT P6SM SKC=
201002180536 TAF KSEA 180536Z 1806/1912 03012KT P6SM SKC FM181400 03008KT P6SM
                       SKC=
201002172320 TAF KSEA 172320Z 1800/1906 01017KT P6SM FEW250 FM180100 03011KT
                       P6SM SKC FM182000 05012KT P6SM SKC=
201002171722 TAF KSEA 171722Z 1718/1824 03012G18KT P6SM BKN007 OVC012 FM171900
                       01012G18KT P6SM SCT015
                      TEMPO 1719/1720 BKN015 FM172200 01012G18KT
                       P6SM SKC FM180100 03011KT P6SM SKC FM182000
                       05012KT P6SM SKC=
201002171518 KSEA 171518Z 1715/1818 02014KT 5SM BR OVC004 FM171800 02012KT P6SM
                       SCT250=
201002171305 KSEA 171305Z 1713/1818 02008KT P6SM SCT002
                      TEMPO 1713/1716 4SM BR BKN002 FM171700 02008KT
                       P6SM SCT250=
201002171139 TAF KSEA 171139Z 1712/1818 02008KT P6SM SKC
                      TEMPO 1715/1717 4SM BR SCT002 FM171800 02008KT
                       P6SM SCT250=
201002170538 TAF KSEA 170538Z 1706/1812 03006KT P6SM SCT040 FM171000 03006KT
                       P6SM SKC FM171400 03006KT 4SM BR SCT002
                       TEMPO 1715/1717 3/4SM BR BKN002 FM171800
                       03008KT P6SM SCT250=
201002162331 TAF KSEA 162331Z 1700/1806 35007KT P6SM SCT025 BKN035
                      TEMPO 1700/1702 -SHRA BKN025 FM170400 02005KT
                       P6SM SCT035 FM171100 04004KT 3SM BR SCT002
                       SCT250
                      TEMPO 1712/1715 VRB03KT 1SM BR BKN002 FM171600
                       02008KT P6SM SCT250=
201002162205 KSEA 162205Z 1622/1724 21009KT P6SM VCSH SCT025 BKN035 FM170000
                       35007KT P6SM SCT025 BKN035
                      TEMPO 1700/1702 -SHRA BKN025 FM170400 02005KT
                       P6SM SCT035 FM171000 06006KT P6SM SCT250
                       FM171700 02010KT P6SM SCT250=
201002161732 TAF KSEA 161732Z 1618/1724 22010KT P6SM VCSH SCT009 SCT035 FM162200
                       34007KT P6SM VCSH BKN035 FM170100 02005KT
                       P6SM SCT035 FM171000 06006KT P6SM SCT250
                       FM171700 02010KT P6SM SCT250=
201002161609 KSEA 161609Z 1616/1718 21010KT P6SM -SHRA SCT009 BKN035
                      TEMPO 1616/1617 BKN009 FM162000 34007KT P6SM
                       VCSH BKN030 BKN060 FM170200 02005KT P6SM
                       SCT035 FM171000 06006KT P6SM SCT250 FM171700
                       02010KT P6SM SCT250=
201002161140 TAF KSEA 161140Z 1612/1718 12010KT P6SM SHRA FEW050 OVC060 FM161400
                       22012KT P6SM -SHRA BKN030 OVC050 FM162100
                       34007KT P6SM VCSH BKN030 BKN060 FM170200
                       02005KT P6SM SCT035 FM171000 06006KT P6SM
                       SCT250 FM171700 02010KT P6SM SCT250=
201002160535 TAF KSEA 160535Z 1606/1712 15007KT P6SM -RA OVC070 FM160900 16008KT
                       P6SM -RA BKN035 OVC060 FM161200 18008KT
                       P6SM -SHRA BKN035 OVC060 FM161400 22011KT
                       P6SM VCSH BKN030 FM162100 34007KT P6SM VCSH
                       BKN030 FM170300 02005KT P6SM SCT015 SCT035=
201002152352 TAF KSEA 152352Z 1600/1706 12005KT P6SM BKN120 FM160600 14006KT
                       P6SM -RA BKN035 OVC060 FM161200 18007KT
                       P6SM -SHRA BKN035 OVC060 FM161400 22011KT
                       P6SM VCSH BKN030 FM162100 34007KT P6SM BKN030
                       FM170300 02005KT P6SM SCT015 SCT035=
201002151900 KSEA 151900Z 1519/1624 08005KT P6SM SCT002 SCT090 BKN180 FM152200
                       06006KT P6SM SCT060 OVC090 FM160400 14006KT
                       P6SM -RA BKN035 OVC060 FM161300 18007KT
                       P6SM -SHRA BKN040 OVC060 FM161700 22008KT
                       P6SM SCT040 BKN070=
201002151744 TAF KSEA 151744Z 1518/1624 08005KT P6SM SCT002 SCT090 BKN180
                      TEMPO 1518/1519 1SM BR BKN002 FM152200 06006KT
                       P6SM SCT060 OVC090 FM160400 14006KT P6SM
                       -RA BKN035 OVC060 FM161300 18007KT P6SM
                       -SHRA BKN040 OVC060 FM161700 22008KT P6SM
                       SCT040 BKN070=
201002151721 KSEA 151721Z 1517/1618 08005KT P6SM SCT002 SCT090 BKN180
                      TEMPO 1518/1519 1SM BR BKN002 FM152200 06006KT
                       P6SM SCT060 OVC090 FM160400 14006KT P6SM
                       -RA BKN035 OVC060 FM161300 18007KT P6SM
                       -SHRA BKN040 OVC060 FM161700 22008KT P6SM
                       SCT040 BKN070=
201002151305 KSEA 151305Z 1513/1618 13005KT P6SM VCFG BKN200
                      TEMPO 1513/1516 1SM BR FM151700 08005KT P6SM
                       SCT090 BKN180 FM152200 06006KT P6SM SCT060
                       OVC090
                      PROB30 1600/1604 -RA FM160400 14006KT P6SM
                       -RA BKN035 OVC060 FM161300 18007KT P6SM
                       -SHRA BKN040 OVC060 FM161700 22008KT P6SM
                       SCT040 BKN070=
201002151137 TAF KSEA 151137Z 1512/1618 11005KT P6SM VCFG BKN011
                      TEMPO 1513/1517 3/4SM BR BKN003 FM151700
                       08005KT P6SM SCT090 BKN180 FM152200 06006KT
                       P6SM SCT060 OVC090
                      PROB30 1600/1604 -RA FM160400 14006KT P6SM
                       -RA BKN035 OVC060 FM161300 18007KT P6SM
                       -SHRA BKN040 OVC060 FM161700 22008KT P6SM
                       SCT040 BKN070=
201002150540 TAF KSEA 150540Z 1506/1612 00000KT P6SM SCT029 SCT050
                      TEMPO 1506/1508 BKN050 FM151000 06005KT P6SM
                       VCFG FEW005 SCT100 SCT250
                      TEMPO 1513/1517 1SM BR BKN004 FM151700 08005KT
                       P6SM SCT090 BKN180 FM152200 06006KT P6SM
                       SCT060 OVC090
                      PROB30 1600/1604 -RA FM160400 14006KT P6SM
                       -RA BKN035 OVC060=
201002150219 KSEA 150219Z 1502/1606 VRB03KT P6SM VCSH SCT018 SCT035 BKN080
                      TEMPO 1502/1506 BKN018 BKN035 OVC080 FM150600
                       VRB03KT P6SM SCT040 BKN100 FM151000 06005KT
                       P6SM VCFG SCT100 SCT250 FM151700 08005KT
                       P6SM SCT090 OVC180 FM152200 06006KT P6SM
                       SCT060 OVC090
                      PROB30 1600/1604 -RA FM160400 14006KT P6SM
                       -RA BKN035 OVC060=
201002150141 KSEA 150141Z 1502/1606 20006KT P6SM VCSH FEW040 BKN080 FM150300
                       VRB03KT P6SM SCT040 BKN100 FM151000 06005KT
                       P6SM VCFG SCT100 SCT250 FM151700 08005KT
                       P6SM SCT090 OVC180 FM152200 06006KT P6SM
                       SCT060 OVC090
                      PROB30 1600/1604 -RA FM160400 14006KT P6SM
                       -RA BKN035 OVC060=
201002142323 TAF KSEA 142323Z 1500/1606 20006KT P6SM VCSH BKN040 FM150300 VRB03KT
                       P6SM SCT040 BKN100 FM151000 06005KT P6SM
                       VCFG SCT100 SCT250 FM151700 08005KT P6SM
                       SCT090 OVC180 FM152200 06006KT P6SM SCT060
                       OVC090
                      PROB30 1600/1604 -RA FM160400 14006KT P6SM
                       -RA BKN035 OVC060=
201002141723 TAF KSEA 141723Z 1418/1524 18008KT P6SM SCT020 BKN035
                      TEMPO 1418/1420 -SHRA BKN020 OVC035 FM142000
                       20006KT P6SM VCSH BKN040 BKN060 FM150300
                       VRB05KT P6SM SCT040 BKN100 FM151000 06005KT
                       P6SM VCFG SCT100 SCT250 FM151700 08005KT
                       P6SM SCT090 OVC180 FM152200 06006KT P6SM
                       SCT070 OVC100=
201002141525 KSEA 141525Z 1415/1518 17010KT P6SM -RA SCT025 BKN035 OVC050 FM141600
                       18008KT P6SM SCT025 BKN035
                      TEMPO 1416/1420 -SHRA BKN025 OVC035 FM142000
                       20006KT P6SM VCSH BKN040 BKN060 FM150300
                       VRB05KT P6SM SCT040 BKN100 FM151000 06005KT
                       P6SM VCFG SCT100 SCT250 FM151700 08005KT
                       P6SM SCT090 OVC180=
201002141141 TAF KSEA 141141Z 1412/1518 13012KT P6SM -RA BKN045 OVC060
                      TEMPO 1413/1417 6SM -RA BKN025 OVC050 FM141700
                       18005KT P6SM -SHRA BKN022 OVC035 FM142200
                       22005KT P6SM VCSH BKN040 BKN060 FM150300
                       VRB05KT P6SM SCT040 BKN100 FM151000 06005KT
                       P6SM VCFG SCT100 SCT250 FM151700 08005KT
                       P6SM SCT090 OVC180=
201002140531 TAF KSEA 140531Z 1406/1512 13011KT P6SM -RA OVC060 FM141200 19006KT
                       P6SM -RA SCT020 OVC050
                      TEMPO 1412/1416 BKN020 OVC050 FM141600 18005KT
                       P6SM -SHRA BKN016 OVC029 FM141900 18004KT
                       P6SM VCSH BKN030 OVC060 FM142200 22006KT
                       P6SM VCSH BKN040 BKN060 FM150300 VRB05KT
                       P6SM SCT040 BKN100 FM151000 06005KT P6SM
                       VCFG SCT100 SCT250=
201002140155 KSEA 140155Z 1402/1506 11010KT P6SM SCT040 OVC060 WS020/19030KT
                       TEMPO 1402/1404 -RA FM140400 16008KT P6SM
                       -RA OVC035 FM141200 19006KT P6SM -RA OVC020
                       FM141500 18004KT P6SM -SHRA BKN011 OVC025
                       FM141900 18004KT P6SM VCSH BKN030 OVC060
                       FM142200 22006KT P6SM VCSH BKN040 BKN060=
201002132329 TAF KSEA 132329Z 1400/1506 12009KT P6SM -RA OVC040 FM140400 16008KT
                       P6SM -RA OVC035 FM141200 19006KT P6SM -RA
                       OVC020 FM141500 18004KT P6SM -SHRA BKN011
                       OVC025 FM141900 18004KT P6SM VCSH BKN030
                       OVC060 FM142200 22006KT P6SM VCSH BKN040
                       BKN060=
201002131728 TAF KSEA 131728Z 1318/1424 15004KT P6SM OVC060 FM131900 15005KT
                       P6SM -RA OVC045 FM140100 16008KT P6SM -SHRA
                       OVC050 FM140700 18008KT P6SM -RA OVC035
                       FM141200 19006KT P6SM -RA OVC020 FM141500
                       18004KT P6SM -SHRA BKN011 OVC025 FM141900
                       18004KT P6SM VCSH BKN030 OVC060 FM142200
                       22006KT P6SM VCSH SCT035 BKN070=
201002131126 TAF KSEA 131126Z 1312/1418 13005KT P6SM OVC090 FM131900 13008KT
                       P6SM -RA OVC045 FM140100 16008KT P6SM -SHRA
                       OVC050 FM140700 18009KT P6SM -RA OVC035
                       FM141200 19010KT P6SM -RA OVC027 FM141700
                       22009KT P6SM BKN035 BKN090=
201002130556 TAF KSEA 130556Z 1306/1412 19012KT P6SM SCT026 SCT035 OVC050
                      TEMPO 1306/1309 -SHRA BKN035 FM130900 16007KT
                       P6SM OVC060 FM131800 13008KT P6SM -RA OVC040
                       FM140100 16008KT P6SM -RA OVC030=
201002130206 KSEA 130206Z 1302/1406 18012G20KT P6SM BKN045 BKN060
                      TEMPO 1302/1304 -SHRA FM130400 18009KT P6SM
                       BKN040 OVC060 FM130800 15007KT P6SM OVC060
                       FM131800 10007KT P6SM -RA OVC040=
201002130203 KSEA 130203Z 1302/1406 18012G20KT P6SM BKN045 BKN060 FM130400 18009KT
                       P6SM BKN040 OVC060 FM130800 15007KT P6SM
                       OVC060 FM131800 10007KT P6SM -RA OVC040=
201002122323 TAF KSEA 122323Z 1300/1406 20018G28KT 6SM -SHRA SCT029 OVC045
                      TEMPO 1300/1302 3SM SHRA OVC029 FM130400
                       18009KT P6SM BKN040 OVC060 FM130800 15007KT
                       P6SM OVC060 FM131800 10007KT P6SM -RA OVC040=
201002122104 KSEA 122104Z 1221/1324 14012KT P6SM VCSH SCT035 OVC080 FM122300
                       18012G20KT P6SM VCSH BKN035 OVC050 FM130400
                       18009KT P6SM BKN040 OVC060 FM130800 15007KT
                       P6SM OVC080 FM131600 12006KT P6SM -RA OVC050
                       FM131800 09007KT P6SM -RA OVC040=
201002121737 TAF KSEA 121737Z 1218/1324 10008KT P6SM -RA BKN035 OVC045 FM130000
                       20012G20KT P6SM VCSH BKN035 OVC050 FM130400
                       18009KT P6SM BKN040 OVC060 FM130800 15007KT
                       P6SM OVC080 FM131600 12006KT P6SM -RA OVC050
                       FM131800 09007KT P6SM -RA OVC040=
201002121649 KSEA 121649Z 1217/1318 15007KT P6SM -RA OVC035 FM130000 20012G20KT
                       P6SM VCSH BKN040 OVC060 FM130400 18009KT
                       P6SM BKN040 OVC060 FM130800 15007KT P6SM
                       OVC080 FM131600 15009KT P6SM -RA OVC050=
201002121131 TAF KSEA 121131Z 1212/1318 20009KT P6SM VCSH OVC070 FM121800 16011KT
                       P6SM -RA OVC050
                      TEMPO 1219/1222 OVC035 FM130000 20012KT P6SM
                       BKN045 OVC060
                      PROB30 1300/1306 -SHRA FM130800 15007KT P6SM
                       OVC080 FM131600 15009KT P6SM -RA OVC050=
201002120901 KSEA 120901Z 1209/1312 18012G22KT P6SM -SHRA SCT030 OVC050
                      TEMPO 1209/1211 BKN030 OVC050 FM121100 18010KT
                       P6SM VCSH BKN045 OVC070 FM121300 16008KT
                       P6SM BKN030 OVC050 FM122000 18010KT P6SM
                       -RA OVC035 FM130100 20010KT P6SM -SHRA BKN030
                       OVC040 FM130800 16007KT P6SM BKN045 OVC080=
201002120546 TAF KSEA 120546Z 1206/1312 18012G22KT P6SM -SHRA SCT030 OVC050
                       FM121100 18010KT P6SM VCSH BKN045 OVC070
                       FM121300 16008KT P6SM BKN030 OVC050 FM122000
                       18010KT P6SM -RA OVC035 FM130100 20010KT
                       P6SM -SHRA BKN030 OVC040 FM130800 16007KT
                       P6SM BKN045 OVC080=
201002120111 KSEA 120111Z 1201/1306 11010KT P6SM -RA SCT025 OVC050 FM120700
                       18014G22KT P6SM -SHRA BKN025 OVC030 FM121100
                       18010KT P6SM VCSH BKN025 OVC030 FM121300
                       16008KT P6SM BKN030 OVC050 FM122000 18010KT
                       P6SM -RA OVC035 FM130100 20010KT P6SM -SHRA
                       BKN030 OVC040=
201002112341 TAF KSEA 112341Z 1200/1306 15012KT P6SM -SHRA SCT025 OVC035 FM120700
                       18014G22KT P6SM -SHRA BKN025 OVC030 FM121100
                       18010KT P6SM VCSH BKN025 OVC030 FM121300
                       16008KT P6SM BKN030 OVC050 FM122000 18010KT
                       P6SM -RA OVC035 FM130100 20010KT P6SM -SHRA
                       BKN030 OVC040=
201002111740 TAF KSEA 111740Z 1118/1224 14006KT P6SM VCSH BKN035 OVC040
                      TEMPO 1118/1122 -SHRA BKN030 FM112200 16012KT
                       P6SM -SHRA OVC030 FM120700 18014G22KT P6SM
                       -SHRA BKN025 OVC040 FM121100 18010KT P6SM
                       VCSH BKN025 OVC030 FM121500 16010KT P6SM
                       BKN045 OVC090 FM122000 18010KT P6SM -RA
                       OVC040=
201002111141 TAF KSEA 111141Z 1112/1218 14006KT P6SM SCT014 OVC025
                      TEMPO 1114/1118 3SM -RA BR BKN014 OVC020
                       FM112000 16009KT P6SM -SHRA BKN035 OVC050
                       FM120200 17012KT P6SM -RA OVC029 FM120700
                       18014G22KT P6SM -SHRA BKN035 OVC050 FM121500
                       16010KT P6SM BKN045 OVC090=
201002110534 TAF KSEA 110534Z 1106/1212 12004KT P6SM SCT012 OVC026
                      TEMPO 1106/1109 -SHRA FM110900 19008KT P6SM
                       OVC030 FM111300 16007KT 6SM -RA SCT010 OVC025
                       TEMPO 1114/1118 3SM -RA BR BKN009 OVC020
                       FM112000 14010KT P6SM -SHRA BKN030 OVC050
                       FM120200 15012KT P6SM -RA OVC029 FM120900
                       18014G22KT P6SM -SHRA BKN035 OVC050=
201002110227 KSEA 110227Z 1102/1206 VRB03KT P6SM -RA OVC030 FM110400 19008KT
                       P6SM -RA OVC030 FM110700 15006KT P6SM VCSH
                       OVC030 FM111400 16007KT 5SM -RA OVC025 FM112000
                       14010KT P6SM -SHRA BKN030 OVC050=
201002102342 TAF KSEA 102342Z 1100/1206 13008KT P6SM -RA BKN035 OVC045 FM110400
                       19008KT P6SM -SHRA BKN030 OVC040 FM110700
                       15006KT P6SM VCSH OVC030 FM111400 16007KT
                       5SM -RA OVC025 FM112000 14010KT P6SM -SHRA
                       BKN030 OVC050=
201002101738 TAF KSEA 101738Z 1018/1124 17007KT P6SM SCT050 BKN100 OVC250 FM102000
                       17008KT P6SM -RA BKN045 OVC100 FM110300
                       19008KT P6SM -SHRA BKN045 FM110600 15006KT
                       P6SM VCSH OVC050 FM111400 16007KT 6SM -RA
                       OVC028=
201002101308 KSEA 101308Z 1013/1118 VRB03KT 5SM BCFG SCT002
                      TEMPO 1013/1016 1/2SM FG OVC001 FM101600
                       17007KT P6SM SCT006 BKN050 OVC120
                      TEMPO 1016/1018 2SM BR BKN006 OVC050 FM101900
                       17008KT P6SM -RA OVC045 FM110300 19008KT
                       P6SM -SHRA BKN045 BKN090 FM110900 15006KT
                       P6SM BKN050 BKN100 FM111200 16007KT 6SM
                       -RA OVC028=
201002101140 TAF KSEA 101140Z 1012/1118 14005KT 1/4SM FG VV001
                      TEMPO 1014/1016 1SM BR BKN003 OVC150 FM101600
                       17007KT 6SM BR BKN006 BKN050 OVC120
                      TEMPO 1016/1018 2SM BR FM101900 17008KT P6SM
                       -RA OVC045 FM110300 19008KT P6SM -SHRA BKN045
                       BKN090 FM110900 15006KT P6SM BKN050 BKN100
                       FM111200 16007KT 6SM -RA OVC028=
201002100940 KSEA 100940Z 1010/1112 17003KT 5SM BR SCT001 BKN200
                      TEMPO 1010/1014 1/2SM FG BKN001 OVC200 FM101400
                       17006KT 3SM BR BKN004 BKN070 OVC150 FM101600
                       17007KT P6SM SCT006 BKN050 OVC120 FM101900
                       17008KT P6SM -RA OVC045 FM110300 19008KT
                       P6SM -SHRA BKN045 BKN090 FM110900 15006KT
                       P6SM BKN050 BKN100=
201002100538 TAF KSEA 100538Z 1006/1112 00000KT P6SM BKN200 FM100900 14005KT
                       P6SM SCT010 BKN120 BKN200 FM101500 17006KT
                       P6SM BKN050 OVC120 FM101900 17008KT P6SM
                       -RA OVC035 FM110300 19008KT P6SM -SHRA BKN045
                       BKN090 FM110900 15006KT P6SM BKN050 BKN100=
201002092329 TAF KSEA 092329Z 1000/1106 27004KT P6SM SCT200 FM100900 16006KT
                       P6SM SCT015 BKN070 BKN120 FM101900 18008KT
                       P6SM -RA OVC035=
201002092201 KSEA 092201Z 0922/1024 VRB03KT P6SM SCT009 SCT200
                      TEMPO 0922/0924 BKN009 FM101000 16006KT P6SM
                       SCT015 BKN070 BKN120 FM101900 18008KT P6SM
                       -RA OVC035=
201002092101 KSEA 092101Z 0921/1024 VRB03KT P6SM SCT006 SCT200
                      TEMPO 0921/0922 BKN006 FM092200 VRB03KT P6SM
                       SCT200 FM101000 16006KT P6SM SCT015 BKN070
                       BKN120 FM101900 18008KT P6SM -RA OVC035=
201002092012 KSEA 092012Z 0920/1024 VRB03KT P6SM SCT006 SCT200
                      TEMPO 0920/0921 BKN006 FM092200 VRB03KT P6SM
                       SCT200 FM101000 16006KT P6SM SCT015 BKN070
                       BKN120 FM101900 18008KT P6SM -RA OVC035=
201002091739 TAF KSEA 091739Z 0918/1024 VRB03KT 3SM BR BKN004
                      TEMPO 0918/0919 1/2SM FG VV002 FM091900 VRB03KT
                       P6SM SCT010 SCT200 FM101000 16006KT P6SM
                       SCT015 BKN070 BKN120 FM101900 18008KT P6SM
                       -RA OVC035=
201002091612 KSEA 091612Z 0916/1018 02005KT 1SM BR OVC002
                      TEMPO 0916/0918 1/4SM FG VV001 FM091800 VRB03KT
                       3SM BR BKN003 FM092000 VRB03KT P6SM SCT010
                       SCT200 FM101000 16006KT P6SM SCT015 BKN070
                       BKN120=
201002091120 TAF KSEA 091120Z 0912/1018 02005KT 1SM BR OVC002
                      TEMPO 0912/0916 1/4SM FG VV001 FM091700 VRB03KT
                       3SM BR BKN003 FM092000 VRB03KT P6SM SCT010
                       SCT200 FM101000 16006KT P6SM SCT015 BKN070
                       BKN120=
201002090833 KSEA 090833Z 0909/1012 VRB03KT 3SM BR BKN003
                      TEMPO 0909/0912 1/2SM FG VV002 FM091200 VRB03KT
                       1/2SM FG VV002
                      TEMPO 0913/0917 2SM BR BKN002 FM091700 VRB03KT
                       3SM BR BKN003 FM092000 VRB03KT P6SM SCT010
                       SCT200 FM101000 16006KT P6SM SCT015 BKN070
                       BKN120=
201002090520 TAF KSEA 090520Z 0906/1012 02006KT P6SM VCFG SCT050 SCT120 FM091000
                       VRB03KT 2SM BR BKN002
                      TEMPO 0912/0916 1/2SM FG VV002 FM092000 VRB03KT
                       P6SM SCT020 SCT200=
201002082336 TAF KSEA 082336Z 0900/1006 34005KT P6SM FEW008 SCT200 FM090200
                       03005KT P6SM SCT200 FM091000 05004KT P6SM
                       VCFG FEW005 SCT050 FM091300 05004KT 2SM
                       BR OVC002
                      TEMPO 0914/0918 1/2SM FG VV001 FM092000 05004KT
                       6SM BR SCT015 FM092200 VRB03KT P6SM SCT025=
201002082229 KSEA 082229Z 0822/0924 VRB05KT P6SM SCT010 BKN200 FM090000 VRB05KT
                       P6SM SCT200 FM091000 05004KT P6SM VCFG FEW005
                       SCT050 FM091300 05004KT 2SM BR OVC002
                      TEMPO 0914/0918 1/2SM FG VV001 FM092000 05004KT
                       6SM BR SCT015 FM092200 VRB03KT P6SM SCT025=
201002082003 KSEA 082003Z 0820/0924 00000KT P6SM BKN005 BKN009 FM082100 10004KT
                       P6SM SCT010 BKN035 FM082300 10004KT P6SM
                       SCT050 BKN120 FM091000 05004KT P6SM VCFG
                       FEW005 SCT050 FM091300 05004KT 2SM BR OVC002
                       TEMPO 0914/0918 1/2SM FG VV001 FM092000
                       05004KT 6SM BR SCT015 FM092200 VRB03KT P6SM
                       SCT025=
201002081735 TAF KSEA 081735Z 0818/0924 00000KT 2SM BR OVC003 FM082100 10004KT
                       P6SM SCT010 BKN035 FM082300 10004KT P6SM
                       SCT050 BKN120 FM091000 05004KT P6SM VCFG
                       FEW005 SCT050 FM091300 05004KT 2SM BR OVC002
                       TEMPO 0914/0918 1/2SM FG VV001 FM092000
                       05004KT 6SM BR SCT015 FM092200 VRB03KT P6SM
                       SCT025=
201002081653 KSEA 081653Z 0817/0918 26003KT 1SM BR OVC003 FM082100 10004KT P6SM
                       SCT010 BKN035 FM082300 10004KT P6SM SCT050
                       BKN120 FM091000 05004KT P6SM VCFG FEW005
                       SCT050 FM091300 05004KT 2SM BR OVC002
                      TEMPO 0914/0918 1/2SM FG VV001=
201002081521 KSEA 081521Z 0815/0918 00000KT 2SM BR OVC003 FM081700 00000KT 5SM
                       BR SCT005 BKN008 BKN030 FM081900 13004KT
                       P6SM SCT010 BKN035 FM082200 14007KT P6SM
                       SCT050 BKN120=
201002081120 TAF KSEA 081120Z 0812/0918 VRB03KT P6SM BKN050 BKN150
                      TEMPO 0812/0816 5SM BR SCT010 OVC050 FM082200
                       14007KT P6SM SCT050 BKN120=
201002081019 KSEA 081019Z 0810/0912 14004KT P6SM SCT020 OVC050
                      TEMPO 0812/0816 5SM BR BKN020 OVC050 FM081700
                       VRB03KT P6SM SCT040 BKN120 FM082200 14007KT
                       P6SM SCT040 BKN100=
201002080540 TAF KSEA 080540Z 0806/0912 16004KT P6SM SCT022 OVC050
                      TEMPO 0806/0810 5SM BR BKN022 OVC040 FM081000
                       VRB03KT 5SM BR OVC020
                      TEMPO 0810/0814 2SM BR OVC015 FM081700 VRB03KT
                       P6SM SCT030 BKN150 FM082200 10006KT P6SM
                       SCT050 BKN100=
201002080341 KSEA 080341Z 0804/0906 16004KT 5SM BR OVC020
                      TEMPO 0810/0814 2SM BR OVC010 FM081800 09006KT
                       P6SM SCT025 BKN150 FM082100 09006KT P6SM
                       SCT050 OVC090=
201002080114 KSEA 080114Z 0801/0906 VRB03KT P6SM SCT025 BKN035 OVC050
                      TEMPO 0802/0806 SCT035 BKN050 FM081500 09006KT
                       P6SM BKN020 BKN110 OVC200 FM081800 09006KT
                       P6SM FEW035 SCT110 OVC200 FM082100 09006KT
                       P6SM SCT060 BKN110 OVC200=
201002072331 TAF KSEA 072331Z 0800/0906 VRB03KT P6SM BKN015 OVC040 FM081500
                       09006KT P6SM BKN022 BKN110 OVC200 FM081800
                       09006KT P6SM FEW035 SCT110 OVC200 FM082100
                       09006KT P6SM SCT060 BKN110 OVC200=
201002072144 KSEA 072144Z 0722/0824 VRB03KT P6SM SCT018 OVC030
                      TEMPO 0722/0724 BKN018 OVC030 FM080300 VRB03KT
                       P6SM SCT060 BKN200 FM080900 VRB03KT 4SM
                       BR FEW005 SCT110 OVC200 FM081500 09006KT
                       P6SM VCFG BKN110 OVC200 FM081800 09006KT
                       P6SM FEW060 BKN110 OVC200=
201002072020 KSEA 072020Z 0720/0824 VRB03KT P6SM SCT015 OVC030
                      TEMPO 0720/0722 BKN015 OVC030 FM072200 VRB05KT
                       P6SM SCT040 BKN060 FM080300 VRB03KT P6SM
                       SCT060 BKN200 FM080900 VRB03KT 4SM BR FEW005
                       SCT110 OVC200 FM081500 09006KT P6SM VCFG
                       BKN110 OVC200 FM081800 09006KT P6SM FEW060
                       BKN110 OVC200=
201002071742 TAF KSEA 071742Z 0718/0824 VRB05KT P6SM SCT015 OVC040 FM072100
                       VRB05KT P6SM SCT040 BKN060 FM080300 VRB03KT
                       P6SM SCT060 BKN200 FM080900 VRB03KT 4SM
                       BR FEW005 SCT110 OVC200 FM081500 09006KT
                       P6SM VCFG BKN110 OVC200 FM081800 09006KT
                       P6SM FEW060 BKN110 OVC200=
201002071610 KSEA 071610Z 0716/0818 VRB05KT P6SM FEW010 OVC040
                      TEMPO 0716/0718 5SM -RA BR FEW010 OVC028
                       FM071800 VRB03KT P6SM BKN020 OVC040 FM080000
                       VRB03KT P6SM SCT020 BKN040 FM080600 00000KT
                       5SM BR BKN012 OVC025
                      TEMPO 0810/0814 3SM BR OVC008 FM081700 04006KT
                       P6SM BKN015=
201002071120 TAF KSEA 071120Z 0712/0818 12004KT 5SM -RA BR SCT005 OVC025
                      TEMPO 0712/0716 3SM -RA BR BKN005 OVC020
                       FM071800 VRB03KT P6SM BKN020 OVC040 FM080000
                       VRB03KT P6SM SCT020 BKN040 FM080600 00000KT
                       5SM BR BKN012 OVC025
                      TEMPO 0810/0814 3SM BR OVC008 FM081700 04006KT
                       P6SM BKN015=
201002070641 KSEA 070641Z 0707/0812 18005KT 5SM -RA BR BKN017 OVC035 FM071000
                       VRB03KT P6SM BKN015 OVC030
                      TEMPO 0710/0714 5SM -DZ BR OVC012 FM071800
                       VRB03KT P6SM SCT020 BKN040 FM080000 VRB03KT
                       P6SM SCT025 BKN050 FM080500 00000KT P6SM
                       BKN025 OVC050=
201002070520 TAF KSEA 070520Z 0706/0812 18005KT P6SM SCT022 OVC040
                      TEMPO 0706/0710 5SM -RA BR BKN022 OVC035
                       FM071000 VRB03KT P6SM SCT015 OVC030
                      TEMPO 0710/0714 5SM -DZ BR BKN015 OVC030
                       FM071800 VRB03KT P6SM SCT020 BKN040 FM080000
                       VRB03KT P6SM SCT025 BKN050 FM080500 00000KT
                       P6SM BKN025 OVC050=
201002070423 KSEA 070423Z 0704/0806 VRB03KT P6SM -RA OVC045 FM071200 VRB03KT
                       P6SM BKN050 BKN100 FM071800 VRB03KT P6SM
                       SCT060 BKN120 BKN200 FM080000 VRB03KT P6SM
                       FEW060 SCT120 BKN200=
201002070034 KSEA 070034Z 0701/0806 VRB03KT P6SM OVC060 FM071800 VRB03KT P6SM
                       SCT060 BKN120 BKN200 FM080000 VRB03KT P6SM
                       FEW060 SCT120 BKN200=
201002062340 TAF KSEA 062340Z 0700/0806 VRB03KT P6SM SCT060 SCT120 OVC200 FM070300
                       VRB03KT P6SM BKN060 BKN120 OVC200 FM070600
                       VRB03KT P6SM OVC060 FM071800 VRB03KT P6SM
                       SCT060 BKN120 BKN200 FM080000 VRB03KT P6SM
                       FEW060 SCT120 BKN200=
201002061752 TAF KSEA 061752Z 0618/0724 10005KT P6SM SCT080 OVC150 FM070000
                       VRB03KT P6SM FEW050 BKN080 OVC150 FM071800
                       VRB03KT P6SM SCT080 BKN200=
201002061120 TAF KSEA 061120Z 0612/0718 09005KT P6SM BKN120 BKN200 FM061800
                       12006KT P6SM BKN090 BKN150 FM070500 VRB03KT
                       P6SM SCT090 BKN200=
201002060520 TAF KSEA 060520Z 0606/0712 10010KT P6SM BKN120 FM061800 12006KT
                       P6SM BKN090 BKN200 FM070500 VRB03KT P6SM
                       SCT090 BKN200=
201002052328 TAF KSEA 052328Z 0600/0706 VRB05KT P6SM SCT070 SCT200 FM060200
                       09008KT P6SM SCT090 BKN200 FM061800 11006KT
                       P6SM BKN090 OVC200 FM070000 VRB03KT P6SM
                       SCT090 BKN200=
201002051739 TAF KSEA 051739Z 0518/0624 11009KT P6SM FEW040 BKN060 BKN200 FM060000
                       08009KT P6SM SCT090 BKN200 FM061800 11006KT
                       P6SM BKN090 OVC200=
201002051120 TAF KSEA 051120Z 0512/0618 VRB04KT P6SM VCSH OVC045 FM052000 14006KT
                       P6SM SCT050 BKN120 FM060900 14010KT P6SM
                       BKN050 OVC100=
201002050529 TAF KSEA 050529Z 0506/0612 14014KT P6SM -RA OVC050
                      TEMPO 0506/0510 5SM RA BR OVC035 FM051500
                       16010KT P6SM VCSH BKN040 BKN080 FM052000
                       14006KT P6SM SCT050 BKN120 FM060900 14010KT
                       P6SM BKN050 OVC100=
201002050416 KSEA 050416Z 0504/0606 12015KT P6SM -RA SCT035 OVC050
                      TEMPO 0508/0512 5SM -RA BR OVC035 FM051500
                       14006KT P6SM VCSH BKN035 FM052000 10006KT
                       P6SM SCT040 BKN120 FM052300 VRB03KT P6SM
                       SCT060 BKN120=
201002042343 TAF KSEA 042343Z 0500/0606 10011KT P6SM SCT070 BKN120 FM050400
                       10007KT P6SM VCSH SCT045 OVC070 FM050600
                       09006KT P6SM -RA SCT035 OVC050
                      TEMPO 0511/0515 6SM -RA BR SCT025 BKN035
                       FM051500 12004KT P6SM VCSH BKN035 FM052000
                       10006KT P6SM SCT040 BKN120 FM052300 VRB03KT
                       P6SM SCT060 BKN120=
201002041741 TAF KSEA 041741Z 0418/0524 11010KT P6SM BKN080 BKN150 FM050400
                       10007KT P6SM VCSH SCT050 OVC070 FM050700
                       09006KT P6SM -RA SCT035 OVC050
                      TEMPO 0510/0514 6SM -RA BR SCT025 BKN035
                       FM051400 12004KT P6SM VCSH BKN040 FM052000
                       10006KT P6SM SCT045 BKN120=
201002041138 TAF KSEA 041138Z 0412/0518 12006KT P6SM BKN060 BKN200
                      TEMPO 0412/0416 SCT060 SCT200 FM041800 12010KT
                       P6SM BKN060 OVC120 FM050200 14014KT P6SM
                       -RA OVC050 FM051000 18012KT P6SM -RA OVC040
                       FM051400 16008KT P6SM VCSH BKN050=
201002040522 TAF KSEA 040522Z 0406/0512 10006KT P6SM -SHRA OVC040 FM041000 12005KT
                       P6SM BKN050 BKN200 FM041600 06005KT P6SM
                       BKN060 OVC200 FM042300 10008KT P6SM VCSH
                       BKN050 OVC120=
201002040324 KSEA 040324Z 0403/0506 VRB04KT 5SM -RA BR VCSH SCT003 OVC030 FM040600
                       VRB04KT P6SM VCSH SCT005 BKN040 OVC080 FM041000
                       12005KT P6SM BKN050 BKN200 FM041600 06005KT
                       P6SM BKN060 OVC200 FM042300 10008KT P6SM
                       VCSH BKN050 OVC120=
201002040159 KSEA 040159Z 0402/0506 05007KT P6SM VCSH FEW005 OVC050
                      TEMPO 0402/0403 1SM RA OVC005 FM040400 15003KT
                       P6SM VCSH BKN040 OVC080 FM041000 12005KT
                       P6SM BKN050 BKN200 FM041600 06005KT P6SM
                       BKN060 OVC200 FM042300 10008KT P6SM VCSH
                       BKN050 OVC120=
201002032338 TAF KSEA 032338Z 0400/0506 05007KT P6SM VCSH FEW035 BKN060 BKN250
                       FM040100 06004KT P6SM -RA BKN035 OVC070
                       FM040400 15003KT P6SM VCSH BKN040 OVC080
                       FM041000 12005KT P6SM BKN050 BKN200 FM041600
                       06005KT P6SM BKN060 OVC200 FM042300 10008KT
                       P6SM VCSH BKN050 OVC120=
201002031742 TAF KSEA 031742Z 0318/0424 00000KT P6SM -RA BKN050 OVC070 FM032100
                       VRB03KT P6SM VCSH BKN035 OVC070 FM040100
                       13004KT P6SM VCSH BKN035 OVC070 FM041000
                       12005KT P6SM BKN050 BKN200 FM041600 06005KT
                       P6SM BKN060 OVC200=
201002031150 TAF KSEA 031150Z 0312/0418 04006KT P6SM SCT050 OVC100
                      TEMPO 0312/0316 -SHRA BKN050 OVC100 FM031600
                       08006KT P6SM -SHRA OVC050 FM032100 14006KT
                       P6SM VCSH BKN050 OVC080 FM040100 10005KT
                       P6SM -SHRA BKN050 OVC080 FM040800 10005KT
                       P6SM BKN050=
201002030525 TAF KSEA 030525Z 0306/0412 06006KT P6SM SCT100 BKN200 FM031100
                       08006KT P6SM SCT050 OVC100
                      TEMPO 0315/0319 -RA BKN050 OVC100 FM031900
                       VRB03KT P6SM -RA OVC050=
201002022332 TAF KSEA 022332Z 0300/0406 01007KT P6SM FEW030 BKN250 FM030600
                       05004KT P6SM SCT060 OVC120
                      TEMPO 0314/0318 -RA BKN050 OVC100 FM031800
                       VRB03KT P6SM -RA OVC050=
201002021739 TAF KSEA 021739Z 0218/0324 14005KT P6SM SCT050 BKN200 FM022300
                       30005KT P6SM SCT045 BKN120 FM030400 05004KT
                       P6SM SCT060 OVC100
                      TEMPO 0314/0318 -RA BKN050 OVC100=
201002021143 TAF KSEA 021143Z 0212/0318 12006KT P6SM VCSH SCT030 BKN045 FM021900
                       15006KT P6SM BKN045 FM022200 30005KT P6SM
                       SCT045 BKN120 FM030300 05004KT P6SM BKN100
                       TEMPO 0314/0318 -RA BKN060 OVC100=
201002020520 TAF KSEA 020520Z 0206/0312 00000KT P6SM SCT019 OVC035
                      TEMPO 0208/0212 -RA BKN019 OVC035 FM021200
                       09004KT P6SM -RA OVC030 FM021900 18006KT
                       P6SM OVC040 FM022200 30003KT P6SM BKN040
                       FM030300 04004KT P6SM BKN080=
201002020058 KSEA 020058Z 0201/0306 07004KT P6SM BKN040 OVC050 FM020800 09004KT
                       P6SM -RA OVC035 FM022000 18006KT P6SM OVC040
                       FM022200 30003KT P6SM BKN040 FM030300 04004KT
                       P6SM BKN080=
201002012341 TAF KSEA 012341Z 0200/0306 07004KT P6SM BKN050 OVC080 FM020200
                       09004KT P6SM -RA OVC050 FM020800 09004KT
                       P6SM -RA OVC035 FM021400 18006KT P6SM OVC030
                       FM022100 30003KT P6SM BKN040 FM030300 04004KT
                       P6SM BKN080=
201002011810 TAF KSEA 011810Z 0118/0224 07004KT P6SM BKN090 OVC180 FM012100
                       07004KT P6SM SCT050 BKN080 FM020200 09004KT
                       P6SM -RA OVC050 FM020800 09004KT P6SM -RA
                       OVC035 FM021400 18006KT P6SM OVC030 FM022100
                       30003KT P6SM BKN040=
201002011148 TAF KSEA 011148Z 0112/0218 12005KT P6SM SCT050 BKN120 FM012200
                       07004KT P6SM SCT050 OVC080 FM020200 09004KT
                       P6SM -RA OVC050 FM020800 09004KT P6SM -RA
                       OVC035 FM021400 18006KT P6SM OVC030=
201002010524 TAF KSEA 010524Z 0106/0212 13003KT P6SM OVC045 FM010900 09004KT
                       P6SM SCT050 BKN150
                      TEMPO 0111/0115 3SM BR FM011800 06004KT P6SM
                       FEW050 OVC100 FM020200 09004KT P6SM -RA
                       OVC050=
201002010110 KSEA 010110Z 0101/0206 VRB03KT P6SM SCT030 BKN050 FM010800 09004KT
                       P6SM SCT060 BKN250
                      TEMPO 0111/0115 3SM BR FM011800 06004KT P6SM
                       OVC100 FM020200 09004KT P6SM -RA OVC050=