##########################################################
# Query made at 02/17/2025 17:51:05 UTC
# Time interval: from 07/01/2010 00:00  to 07/31/2010 23:59  UTC
##########################################################

##########################################################
# KSEA, Seattle, Seattle-Tacoma International Airport (United States)
# WMO index: 72793. WIGOS ID: 0-20000-0-72793
# Latitude 47-27-00N. Longitude 122-17-59W. Altitude 130 m.
##########################################################

###################################
#  METAR/SPECI from KSEA
###################################
201007312353 METAR KSEA 312353Z 26005KT 10SM FEW060 BKN160 20/12 A3000 RMK AO2 SLP165 T02000117 10206 20139 58009 $=
201007312253 METAR KSEA 312253Z VRB03KT 10SM BKN060 19/12 A3002 RMK AO2 SLP170 T01890117 $=
201007312153 METAR KSEA 312153Z 20008KT 10SM SCT016 18/12 A3002 RMK AO2 SLP170 T01830117 $=
201007312124 SPECI KSEA 312124Z 21009KT 10SM BKN016 19/12 A3002 RMK AO2 $=
201007312124 SPECI KSEA 312124Z 21009KT 10SM BKN016 19/12 A3002 RMK AO2 $=
201007312053 METAR KSEA 312053Z 21010KT 10SM OVC014 17/11 A3003=
201007311953 METAR KSEA 311953Z 24009KT 10SM OVC010 16/11 A3003 RMK AO2 SLP175 T01560111 $=
201007311853 METAR KSEA 311853Z 21008KT 10SM OVC008 14/11 A3004 RMK AO2 SLP177 T01440111 $=
201007311753 METAR KSEA 311753Z 23007KT 10SM OVC008 14/11 A3004 RMK AO2 SLP177 T01440106 10144 20117 50006 $=
201007311725 SPECI KSEA 311725Z 21009KT 10SM OVC006 14/11 A3004 RMK AO2 CIG 004V009 $=
201007311725 SPECI KSEA 311725Z 21009KT 10SM OVC006 14/11 A3004 RMK AO2 CIG 004V009 $=
201007311653 METAR KSEA 311653Z 21007KT 7SM OVC004 13/11 A3004 RMK AO2 SLP178 T01280106 $=
201007311614 SPECI KSEA 311614Z 22008KT 2SM BR OVC002 12/11 A3004 RMK AO2 SFC VIS 3 $=
201007311614 SPECI KSEA 311614Z 22008KT 2SM BR OVC002 12/11 A3004 RMK AO2 SFC VIS 3 $=
201007311553 METAR KSEA 311553Z 21007KT 1 1/2SM BR OVC002 13/11 A3003 RMK AO2 TWR VIS 2 SLP175 T01280111 $=
201007311515 SPECI KSEA 311515Z 21007KT 1/2SM R16C/P6000FT BR OVC002 12/11 A3002 RMK AO2 SFC VIS 1 $=
201007311515 SPECI KSEA 311515Z 21007KT 1/2SM R16C/P6000FT BR OVC002 12/11 A3002 RMK AO2 SFC VIS 1 $=
201007311453 METAR KSEA 311453Z 21007KT 1/8SM R16C/P6000FT BR OVC002 12/11 A3002 RMK AO2 SFC VIS 1 SLP169 T01220111 51010 $=
201007311353 METAR KSEA 311353Z 24007KT 1/8SM R16C/P6000FT FG OVC002 12/11 A3001 RMK AO2 SFC VIS 1/2 SLP167 T01170111 $=
201007311253 METAR KSEA 311253Z 21008KT 1/8SM R16C/P6000FT BR OVC002 12/11 A3000 RMK AO2 SFC VIS 1 SLP163 T01170106 $=
201007311205 SPECI KSEA 311205Z 22007KT 1SM BR OVC002 12/11 A2999 RMK AO2 SFC VIS 4 $=
201007311205 SPECI KSEA 311205Z 22007KT 1SM BR OVC002 12/11 A2999 RMK AO2 SFC VIS 4 $=
201007311153 METAR KSEA 311153Z 21009KT 6SM BR OVC002 12/11 A2999 RMK AO2 SLP160 T01220111 10183 20122 55002 $=
201007311053 METAR KSEA 311053Z 23005KT 6SM BR OVC002 13/11 A2998 RMK AO2 SLP155 T01280111 $=
201007311018 SPECI KSEA 311018Z 23007KT 10SM BKN002 13/11 A2997 RMK AO2 $=
201007311018 SPECI KSEA 311018Z 23007KT 10SM BKN002 13/11 A2997 RMK AO2 $=
201007310953 METAR KSEA 310953Z 25003KT 10SM SCT030 13/11 A2997 RMK AO2 SLP154 T01330111 $=
201007310853 METAR KSEA 310853Z 21007KT 10SM SCT025 13/12 A3000 RMK AO2 SLP163 T01330117 51008 $=
201007310753 METAR KSEA 310753Z 22004KT 10SM BKN025 16/12 A2999 RMK AO2 SLP161 T01560122 402440117 $=
201007310653 METAR KSEA 310653Z 23003KT 10SM CLR 17/13 A2998 RMK AO2 SLP157 T01720133 $=
201007310553 METAR KSEA 310553Z 26003KT 10SM CLR 18/13 A2997 RMK AO2 SLP155 T01780128 10244 20178 50005 $=
201007310453 METAR KSEA 310453Z 26004KT 10SM CLR 20/13 A2998 RMK AO2 SLP156 T02000133 $=
201007310353 METAR KSEA 310353Z 00000KT 10SM FEW060 21/13 A2996 RMK AO2 SLP152 T02110133 $=
201007310253 METAR KSEA 310253Z 29003KT 10SM FEW060 23/13 A2996 RMK AO2 SLP150 T02280128 56009=
201007310153 METAR KSEA 310153Z 27006KT 10SM FEW040 23/12 A2996 RMK AO2 SLP151 T02330117=
201007310053 METAR KSEA 310053Z 28008KT 10SM FEW040 24/12 A2997 RMK AO2 SLP154 T02390117=
201007302353 METAR KSEA 302353Z 27007KT 10SM FEW040 24/12 A2999 RMK AO2 SLP159 T02440122 10244 20122 57019=
201007302253 METAR KSEA 302253Z VRB04KT 10SM FEW040 23/12 A3000 RMK AO2 SLP165 T02280122=
201007302153 METAR KSEA 302153Z VRB04KT 10SM FEW030 21/12 A3003 RMK AO2 SLP173 T02110122=
201007302053 METAR KSEA 302053Z 25003KT 10SM FEW025 18/12 A3004 RMK AO2 SLP179 T01830122 58010=
201007302010 SPECI KSEA 302010Z 21005KT 10SM SCT008 14/12 A3006 RMK AO2=
201007302010 SPECI KSEA 302010Z 21005KT 10SM SCT008 14/12 A3006 RMK AO2=
201007301953 METAR KSEA 301953Z 00000KT 7SM BKN006 13/12 A3006 RMK AO2 SLP186 T01330117=
201007301934 SPECI KSEA 301934Z 16005KT 6SM BR BKN006 13/12 A3006 RMK AO2=
201007301934 SPECI KSEA 301934Z 16005KT 6SM BR BKN006 13/12 A3006 RMK AO2=
201007301925 SPECI KSEA 301925Z 20004KT 1 1/2SM BR OVC006 13/12 A3006 RMK AO2 SFC VIS 4=
201007301925 SPECI KSEA 301925Z 20004KT 1 1/2SM BR OVC006 13/12 A3006 RMK AO2 SFC VIS 4=
201007301853 METAR KSEA 301853Z 20004KT 1 1/2SM BR OVC004 13/12 A3007 RMK AO2 SFC VIS 2 1/2 SLP189 T01280117=
201007301804 SPECI KSEA 301804Z 21003KT 1 1/2SM BR OVC002 12/12 A3007 RMK AO2=
201007301804 SPECI KSEA 301804Z 21003KT 1 1/2SM BR OVC002 12/12 A3007 RMK AO2=
201007301753 METAR KSEA 301753Z 20003KT 1/2SM R16C/P6000FT BR OVC002 12/12 A3008 RMK AO2 SFC VIS 1 SLP190 T01220117 10122 20117 50002=
201007301741 SPECI KSEA 301741Z 19003KT 1/2SM R16C/6000VP6000FT BR OVC002 12/12 A3008 RMK AO2 SFC VIS 3/4=
201007301741 SPECI KSEA 301741Z 19003KT 1/2SM R16C/6000VP6000FT BR OVC002 12/12 A3008 RMK AO2 SFC VIS 3/4=
201007301653 METAR KSEA 301653Z 00000KT 1/8SM R16C/6000VP6000FT FG OVC001 12/11 A3008 RMK AO2 SFC VIS 1/2 SLP190 T01170111=
201007301553 METAR KSEA 301553Z 20003KT 1/8SM R16C/1600V2600FT FG VV001 12/12 A3008 RMK AO2 SFC VIS 1/2 SLP190 T01220117=
201007301453 METAR KSEA 301453Z 00000KT 1/8SM R16C/1200V2000FT FG VV001 12/12 A3007 RMK AO2 SFC VIS 1/4 SLP188 T01170117 53004=
201007301353 METAR KSEA 301353Z 19004KT 1/8SM R16C/0800V1400FT FG VV001 12/12 A3006 RMK AO2 SLP185 T01220117=
201007301253 METAR KSEA 301253Z 19005KT 1/8SM R16C/0600V1000FT FG VV001 12/12 A3006 RMK AO2 SLP184 T01220117=
201007301153 METAR KSEA 301153Z 19005KT 1/8SM R16C/0800V1400FT FG VV001 12/12 A3006 RMK AO2 SLP183 T01220122 10167 20122 50002=
201007301130 SPECI KSEA 301130Z 18005KT 1/8SM R16C/1000V1800FT FG VV001 12/12 A3006 RMK AO2=
201007301130 SPECI KSEA 301130Z 18005KT 1/8SM R16C/1000V1800FT FG VV001 12/12 A3006 RMK AO2=
201007301114 SPECI KSEA 301114Z 19006KT 1/2SM R16C/1400V2800FT FG BKN001 BKN005 12/12 A3006 RMK AO2=
201007301114 SPECI KSEA 301114Z 19006KT 1/2SM R16C/1400V2800FT FG BKN001 BKN005 12/12 A3006 RMK AO2=
201007301110 SPECI KSEA 301110Z 18005KT 1 1/2SM R16C/1400V5500FT BR SCT001 12/12 A3006 RMK AO2=
201007301110 SPECI KSEA 301110Z 18005KT 1 1/2SM R16C/1400V5500FT BR SCT001 12/12 A3006 RMK AO2=
201007301059 SPECI KSEA 301059Z 18005KT 1 3/4SM R16C/1800VP6000FT BR FEW001 12/12 A3006 RMK AO2=
201007301059 SPECI KSEA 301059Z 18005KT 1 3/4SM R16C/1800VP6000FT BR FEW001 12/12 A3006 RMK AO2=
201007301053 METAR KSEA 301053Z 17004KT 10SM CLR 12/12 A3006 RMK AO2 SLP186 T01220117=
201007300953 METAR KSEA 300953Z 00000KT 10SM CLR 13/11 A3006 RMK AO2 SLP183 T01280111=
201007300853 METAR KSEA 300853Z 00000KT 10SM CLR 13/11 A3005 RMK AO2 SLP182 T01330111 55000=
201007300753 METAR KSEA 300753Z 00000KT 10SM CLR 14/11 A3005 RMK AO2 SLP183 T01440111 402060122=
201007300653 METAR KSEA 300653Z 35003KT 10SM CLR 16/11 A3005 RMK AO2 SLP181 T01560111=
201007300553 METAR KSEA 300553Z 00000KT 10SM CLR 17/11 A3005 RMK AO2 SLP182 T01670111 10206 20161 53006=
201007300453 METAR KSEA 300453Z 00000KT 10SM CLR 17/11 A3005 RMK AO2 SLP180 T01720111=
201007300353 METAR KSEA 300353Z 00000KT 10SM FEW250 18/12 A3004 RMK AO2 SLP177 T01830117=
201007300253 METAR KSEA 300253Z 29003KT 10SM FEW250 19/12 A3003 RMK AO2 SLP176 T01940117 56011=
201007300153 METAR KSEA 300153Z VRB03KT 10SM FEW250 20/12 A3004 RMK AO2 SLP177 T02000117=
201007300053 METAR KSEA 300053Z 31003KT 10SM FEW250 20/11 A3005 RMK AO2 SLP181 T02000111=
201007292353 METAR KSEA 292353Z VRB05KT 10SM FEW030 19/12 A3007 RMK AO2 SLP187 T01940117 10200 20128 58018=
201007292253 METAR KSEA 292253Z 27006KT 10SM FEW030 18/11 A3009 RMK AO2 SLP193 T01830111=
201007292153 METAR KSEA 292153Z 25007KT 230V300 10SM FEW020 18/11 A3010 RMK AO2 SLP199 T01780111=
201007292053 METAR KSEA 292053Z 30006KT 10SM SCT013 16/11 A3012 RMK AO2 SLP205 T01610106 58004=
201007292032 SPECI KSEA 292032Z 27006KT 10SM SCT013 16/11 A3013 RMK AO2=
201007292032 SPECI KSEA 292032Z 27006KT 10SM SCT013 16/11 A3013 RMK AO2=
201007291953 METAR KSEA 291953Z 00000KT 10SM BKN011 14/11 A3013 RMK AO2 SLP210 T01440106=
201007291929 SPECI KSEA 291929Z 00000KT 10SM OVC011 14/11 A3014 RMK AO2=
201007291929 SPECI KSEA 291929Z 00000KT 10SM OVC011 14/11 A3014 RMK AO2=
201007291853 METAR KSEA 291853Z VRB03KT 10SM BKN007 OVC012 13/11 A3013 RMK AO2 SLP211 T01330106=
201007291753 METAR KSEA 291753Z 25003KT 10SM BKN005 OVC010 13/11 A3013 RMK AO2 SLP210 T01330106 10133 20122 50001=
201007291653 METAR KSEA 291653Z 00000KT 7SM BKN005 OVC010 13/11 A3013 RMK AO2 SLP209 T01280106=
201007291553 METAR KSEA 291553Z 20006KT 7SM OVC005 12/10 A3013 RMK AO2 SLP210 T01220100=
201007291453 METAR KSEA 291453Z 00000KT 10SM OVC005 12/10 A3013 RMK AO2 SLP208 T01220100 51007=
201007291426 SPECI KSEA 291426Z 22005KT 10SM OVC005 12/10 A3013 RMK AO2=
201007291426 SPECI KSEA 291426Z 22005KT 10SM OVC005 12/10 A3013 RMK AO2=
201007291353 METAR KSEA 291353Z 23006KT 10SM OVC008 12/10 A3012 RMK AO2 SLP205 T01220100=
201007291253 METAR KSEA 291253Z 22006KT 10SM OVC005 12/10 A3012 RMK AO2 SLP204 T01220100=
201007291153 METAR KSEA 291153Z 20004KT 10SM OVC005 12/10 A3011 RMK AO2 SLP201 T01220100 10139 20122 51008=
201007291053 METAR KSEA 291053Z 21005KT 10SM OVC005 12/11 A3011 RMK AO2 SLP201 T01220106=
201007290953 METAR KSEA 290953Z 21006KT 10SM OVC005 12/11 A3010 RMK AO2 SLP197 T01220106=
201007290853 METAR KSEA 290853Z 20010KT 10SM OVC005 13/11 A3008 RMK AO2 SLP192 T01280106 51013=
201007290753 METAR KSEA 290753Z 22008KT 10SM OVC005 12/11 A3008 RMK AO2 SLP190 T01220106 402280117=
201007290721 SPECI KSEA 290721Z 22008KT 10SM BKN005 12/11 A3007 RMK AO2=
201007290721 SPECI KSEA 290721Z 22008KT 10SM BKN005 12/11 A3007 RMK AO2=
201007290653 METAR KSEA 290653Z 19008KT 10SM FEW004 13/11 A3006 RMK AO2 SLP185 T01280111=
201007290553 METAR KSEA 290553Z 20006KT 10SM CLR 14/11 A3005 RMK AO2 SLP180 T01390111 10228 20139 53013=
201007290453 METAR KSEA 290453Z 20005KT 10SM FEW250 16/12 A3003 RMK AO2 SLP175 T01610122=
201007290353 METAR KSEA 290353Z 18004KT 10SM SCT250 19/13 A3001 RMK AO2 SLP167 T01940133=
201007290253 METAR KSEA 290253Z 23003KT 10SM FEW040 SCT250 21/13 A3001 RMK AO2 SLP167 T02110128 51007=
201007290153 METAR KSEA 290153Z 22006KT 10SM FEW040 BKN250 22/13 A3000 RMK AO2 SLP164 T02170128=
201007290053 METAR KSEA 290053Z 18006KT 10SM FEW040 BKN250 22/12 A3000 RMK AO2 SLP165 T02170122=
201007282353 METAR KSEA 282353Z 23005KT 10SM FEW040 BKN250 21/11 A2999 RMK AO2 SLP160 T02060111 10222 20133 58010=
201007282253 METAR KSEA 282253Z 23006KT 10SM FEW040 BKN250 21/12 A3000 RMK AO2 SLP166 T02060117=
201007282153 METAR KSEA 282153Z VRB05KT 10SM FEW030 SCT250 21/12 A3000 RMK AO2 SLP166 T02060117=
201007282053 METAR KSEA 282053Z 25006KT 10SM FEW025 18/11 A3002 RMK AO2 SLP170 T01830111 58002=
201007281953 METAR KSEA 281953Z 25005KT 10SM SCT009 16/11 A3003 RMK AO2 SLP175 T01610111=
201007281943 SPECI KSEA 281943Z 28007KT 10SM SCT009 16/11 A3002 RMK AO2=
201007281943 SPECI KSEA 281943Z 28007KT 10SM SCT009 16/11 A3002 RMK AO2=
201007281853 METAR KSEA 281853Z 20005KT 10SM BKN007 OVC012 15/11 A3003 RMK AO2 SLP175 T01500111=
201007281814 SPECI KSEA 281814Z 20005KT 10SM OVC006 14/11 A3003 RMK AO2=
201007281814 SPECI KSEA 281814Z 20005KT 10SM OVC006 14/11 A3003 RMK AO2=
201007281753 METAR KSEA 281753Z 22003KT 7SM OVC004 13/11 A3003 RMK AO2 SLP173 T01330106 10133 20117 51005=
201007281720 SPECI KSEA 281720Z VRB03KT 6SM BR OVC003 13/11 A3003 RMK AO2=
201007281720 SPECI KSEA 281720Z VRB03KT 6SM BR OVC003 13/11 A3003 RMK AO2=
201007281653 METAR KSEA 281653Z 21003KT 1 1/2SM BR OVC003 12/11 A3002 RMK AO2 SFC VIS 3 SLP172 T01220111=
201007281639 SPECI KSEA 281639Z 18003KT 1 1/2SM BR OVC003 12/11 A3003 RMK AO2 SFC VIS 2=
201007281639 SPECI KSEA 281639Z 18003KT 1 1/2SM BR OVC003 12/11 A3003 RMK AO2 SFC VIS 2=
201007281553 METAR KSEA 281553Z 23004KT 1/2SM R16C/P6000FT BR OVC002 12/11 A3002 RMK AO2 SFC VIS 1 SLP172 T01220111=
201007281453 METAR KSEA 281453Z 23006KT 1/2SM R16C/3500VP6000FT BR OVC002 12/11 A3001 RMK AO2 SFC VIS 3/4 SLP167 T01220111 53009=
201007281353 METAR KSEA 281353Z 25004KT 1/2SM BR OVC002 12/11 A3000 RMK AO2 SFC VIS 1 1/2 SLP162 T01170106=
201007281253 METAR KSEA 281253Z 23005KT 1/2SM R16C/P6000FT BR OVC002 12/11 A2999 RMK AO2 SFC VIS 1 SLP160 T01170111=
201007281153 METAR KSEA 281153Z 23006KT 5SM BR OVC002 12/11 A2998 RMK AO2 SLP157 T01220111 10172 20122 51008=
201007281053 METAR KSEA 281053Z 20006KT 5SM BR OVC002 12/11 A2998 RMK AO2 SLP157 T01220111=
201007280953 METAR KSEA 280953Z 22006KT 8SM OVC002 12/11 A2997 RMK AO2 SLP153 T01220111=
201007280925 SPECI KSEA 280925Z 22007KT 10SM BKN004 12/11 A2997 RMK AO2=
201007280925 SPECI KSEA 280925Z 22007KT 10SM BKN004 12/11 A2997 RMK AO2=
201007280853 METAR KSEA 280853Z 20005KT 10SM FEW004 13/11 A2996 RMK AO2 SLP151 T01280111 51009=
201007280753 METAR KSEA 280753Z 22006KT 10SM CLR 14/12 A2995 RMK AO2 SLP148 T01390117 402560117=
201007280653 METAR KSEA 280653Z 21005KT 10SM CLR 15/12 A2994 RMK AO2 SLP144 T01500122=
201007280553 METAR KSEA 280553Z 20004KT 10SM FEW250 17/12 A2993 RMK AO2 SLP141 T01720122 10256 20172 53014=
201007280453 METAR KSEA 280453Z 24005KT 10SM FEW250 19/12 A2992 RMK AO2 SLP136 T01890122=
201007280353 METAR KSEA 280353Z 26004KT 10SM FEW250 21/12 A2990 RMK AO2 SLP130 T02110117=
201007280253 METAR KSEA 280253Z 26004KT 10SM FEW250 23/12 A2989 RMK AO2 SLP126 T02330122 56006=
201007280153 METAR KSEA 280153Z 24005KT 10SM FEW040 SCT250 24/12 A2989 RMK AO2 SLP126 T02440117=
201007280053 METAR KSEA 280053Z 23007KT 10SM FEW040 SCT250 25/12 A2990 RMK AO2 SLP129 T02500117=
201007272353 METAR KSEA 272353Z 22007KT 10SM FEW040 SCT250 25/11 A2991 RMK AO2 SLP133 T02500106 10256 20161 58005=
201007272253 METAR KSEA 272253Z 19008KT 10SM FEW040 SCT250 24/12 A2992 RMK AO2 SLP134 T02390117=
201007272153 METAR KSEA 272153Z 20010KT 10SM FEW040 SCT250 24/11 A2993 RMK AO2 SLP138 T02390111=
201007272053 METAR KSEA 272053Z 21012G16KT 10SM SCT250 22/12 A2993 RMK AO2 SLP138 T02170117 58001=
201007271953 METAR KSEA 271953Z 23010KT 10SM SCT250 20/11 A2993 RMK AO2 SLP140 T02000111=
201007271853 METAR KSEA 271853Z 18008KT 10SM SCT250 18/11 A2993 RMK AO2 SLP141 T01780106=
201007271753 METAR KSEA 271753Z 19006KT 10SM SCT250 17/11 A2993 RMK AO2 SLP139 T01670106 10167 20117 51004=
201007271653 METAR KSEA 271653Z 20006KT 10SM FEW007 SCT250 14/11 A2993 RMK AO2 SLP138 T01440106=
201007271637 SPECI KSEA 271637Z 20006KT 10SM SCT005 14/11 A2993 RMK AO2=
201007271637 SPECI KSEA 271637Z 20006KT 10SM SCT005 14/11 A2993 RMK AO2=
201007271635 SPECI KSEA 271635Z 21006KT 10SM SCT005 14/10 A2992 RMK AO2=
201007271635 SPECI KSEA 271635Z 21006KT 10SM SCT005 14/10 A2992 RMK AO2=
201007271553 METAR KSEA 271553Z 22007KT 10SM BKN005 13/10 A2993 RMK AO2 SLP138 T01280100 $=
201007271453 METAR KSEA 271453Z 19008KT 10SM BKN005 12/10 A2992 RMK AO2 SLP135 T01170100 53013 $=
201007271407 SPECI KSEA 271407Z 22007KT 10SM BKN005 12/10 A2991 RMK AO2 $=
201007271407 SPECI KSEA 271407Z 22007KT 10SM BKN005 12/10 A2991 RMK AO2 $=
201007271353 METAR KSEA 271353Z 21008KT 10SM FEW005 12/10 A2991 RMK AO2 SLP131 T01220100 $=
201007271253 METAR KSEA 271253Z 22005KT 10SM FEW006 12/10 A2989 RMK AO2 SLP125 T01170100 $=
201007271153 METAR KSEA 271153Z 20004KT 10SM CLR 12/09 A2988 RMK AO2 SLP123 T01220094 10206 20122 53013 $=
201007271053 METAR KSEA 271053Z 20007KT 10SM CLR 13/09 A2987 RMK AO2 SLP118 T01330094 $=
201007270953 METAR KSEA 270953Z 20005KT 10SM CLR 14/10 A2985 RMK AO2 SLP112 T01440100 $=
201007270853 METAR KSEA 270853Z 20005KT 10SM CLR 16/11 A2984 RMK AO2 SLP109 T01560106 53007 $=
201007270753 METAR KSEA 270753Z 21007KT 10SM FEW200 17/12 A2984 RMK AO2 SLP108 T01670117 402940139 $=
201007270653 METAR KSEA 270653Z 22003KT 10SM CLR 19/12 A2983 RMK AO2 SLP104 T01890117 $=
201007270553 METAR KSEA 270553Z 27004KT 10SM SCT200 21/11 A2982 RMK AO2 SLP102 T02060106 10289 20206 51010 $=
201007270453 METAR KSEA 270453Z 26004KT 10SM SCT200 22/11 A2982 RMK AO2 SLP100 T02170106 $=
201007270353 METAR KSEA 270353Z 28004KT 10SM SCT200 24/11 A2980 RMK AO2 SLP093 T02390106 $=
201007270253 METAR KSEA 270253Z 28004KT 10SM FEW200 27/12 A2979 RMK AO2 SLP091 T02720122 56001 $=
201007270153 METAR KSEA 270153Z 30003KT 10SM FEW200 28/13 A2979 RMK AO2 SLP090 T02830128 $=
201007270053 METAR KSEA 270053Z 30004KT 10SM FEW200 29/12 A2979 RMK AO2 SLP090 T02890117 $=
201007262353 METAR KSEA 262353Z 28006KT 10SM CLR 29/09 A2979 RMK AO2 SLP092 T02890094 10294 20217 58015 $=
201007262253 METAR KSEA 262253Z 28006KT 10SM CLR 28/10 A2981 RMK AO2 SLP097 T02830100 $=
201007262153 METAR KSEA 262153Z VRB05KT 10SM CLR 28/11 A2983 RMK AO2 SLP103 T02830106 $=
201007262053 METAR KSEA 262053Z 29006KT 10SM CLR 27/10 A2984 RMK AO2 SLP107 T02670100 58013 $=
201007261953 METAR KSEA 261953Z 30005KT 10SM CLR 25/11 A2986=
201007261853 METAR KSEA 261853Z 27005KT 10SM CLR 23/11 A2987 RMK AO2 SLP120 T02280111=
201007261753 METAR KSEA 261753Z 27005KT 10SM CLR 22/11 A2988 RMK AO2 SLP120 T02170111 10217 20139 58007=
201007261653 METAR KSEA 261653Z 28005KT 10SM CLR 21/12 A2988 RMK AO2 SLP122 T02060122=
201007261553 METAR KSEA 261553Z 00000KT 10SM CLR 21/12 A2989 RMK AO2 SLP126 T02060122=
201007261453 METAR KSEA 261453Z 00000KT 10SM CLR 17/12 A2990 RMK AO2 SLP127 T01720122 50005=
201007261353 METAR KSEA 261353Z 00000KT 10SM CLR 15/12 A2990 RMK AO2 SLP129 T01500117=
201007261253 METAR KSEA 261253Z 00000KT 10SM CLR 15/12 A2990 RMK AO2 SLP127 T01500117 $=
201007261153 METAR KSEA 261153Z 00000KT 10SM CLR 16/12 A2988 RMK AO2 SLP122 T01560117 10217 20150 53003 $=
201007261053 METAR KSEA 261053Z 00000KT 10SM CLR 16/12 A2988 RMK AO2 SLP121 T01610117 $=
201007260953 METAR KSEA 260953Z 00000KT 10SM CLR 17/12 A2987 RMK AO2 SLP119 T01720117 $=
201007260853 METAR KSEA 260853Z 01004KT 10SM CLR 18/12 A2987 RMK AO2 SLP119 T01780122 58005 $=
201007260753 METAR KSEA 260753Z 01004KT 10SM CLR 19/12 A2988 RMK AO2 SLP121 T01890117 403000139 $=
201007260653 METAR KSEA 260653Z 35006KT 10SM CLR 19/11 A2988 RMK AO2 SLP124 T01890111 $=
201007260553 METAR KSEA 260553Z 01007KT 10SM CLR 22/11 A2989 RMK AO2 SLP124 T02170111 10300 20217 51004 $=
201007260453 METAR KSEA 260453Z 01006KT 10SM CLR 22/10 A2989 RMK AO2 SLP124 T02220100 $=
201007260353 METAR KSEA 260353Z 34006KT 10SM FEW120 24/08 A2988 RMK AO2 SLP122 T02390078 $=
201007260253 METAR KSEA 260253Z 35008KT 10SM CLR 26/07 A2988 RMK AO2 SLP120 T02610072 56007 $=
201007260153 METAR KSEA 260153Z 34011KT 10SM CLR 28/07 A2988 RMK AO2 SLP121 T02780072 $=
201007260053 METAR KSEA 260053Z 35013KT 10SM CLR 29/06 A2988 RMK AO2 SLP122 T02890056 $=
201007252353 METAR KSEA 252353Z 35009KT 10SM CLR 29/07 A2990 RMK AO2 SLP128 T02940067 10300 20217 57014 $=
201007252253 METAR KSEA 252253Z 36008KT 10SM CLR 29/07 A2991 RMK AO2 SLP132 T02940067 $=
201007252153 METAR KSEA 252153Z 31007KT 10SM CLR 27/09 A2993 RMK AO2 SLP138 T02720094 $=
201007252053 METAR KSEA 252053Z 31009KT 10SM CLR 26/11 A2994 RMK AO2 SLP142 T02610111 58011 $=
201007251953 METAR KSEA 251953Z 27008KT 10SM CLR 24/11 A2995 RMK AO2 SLP146 T02440111 $=
201007251853 METAR KSEA 251853Z 27006KT 10SM CLR 23/11 A2997 RMK AO2 SLP151 T02330111 $=
201007251753 METAR KSEA 251753Z VRB03KT 10SM CLR 22/12 A2997 RMK AO2 SLP154 T02170117 10222 20139 58006 $=
201007251653 METAR KSEA 251653Z 03006KT 10SM CLR 22/11 A2998 RMK AO2 SLP155 T02170106 $=
201007251553 METAR KSEA 251553Z 01004KT 10SM CLR 20/11 A2999 RMK AO2 SLP159 T02000111 $=
201007251453 METAR KSEA 251453Z 03006KT 10SM CLR 18/12 A2999 RMK AO2 SLP160 T01830117 51005 $=
201007251353 METAR KSEA 251353Z 35005KT 10SM CLR 16/11 A2999 RMK AO2 SLP158 T01560106 $=
201007251253 METAR KSEA 251253Z 34004KT 10SM CLR 14/10 A2998 RMK AO2 SLP157 T01440100 $=
201007251153 METAR KSEA 251153Z 00000KT 10SM CLR 14/11 A2998 RMK AO2 SLP155 T01440111 10206 20144 53001 $=
201007251053 METAR KSEA 251053Z 00000KT 10SM CLR 17/12 A2998 RMK AO2 SLP154 T01670117 $=
201007250953 METAR KSEA 250953Z 00000KT 10SM CLR 18/12 A2997 RMK AO2 SLP153 T01780117 $=
201007250853 METAR KSEA 250853Z 33003KT 10SM CLR 18/11 A2998 RMK AO2 SLP154 T01830111 58001 $=
201007250753 METAR KSEA 250753Z 04007KT 10SM CLR 20/12 A2998 RMK AO2 SLP156 T02000117 402890128 $=
201007250653 METAR KSEA 250653Z 02008KT 10SM CLR 21/12 A2998 RMK AO2 SLP154 T02060122 $=
201007250553 METAR KSEA 250553Z 36006KT 10SM CLR 20/12 A2998 RMK AO2 SLP156 T02000117 10289 20194 53001 $=
201007250453 METAR KSEA 250453Z 34007KT 10SM CLR 21/12 A2998 RMK AO2 SLP155 T02110117 $=
201007250353 METAR KSEA 250353Z 35008KT 10SM CLR 23/11 A2997 RMK AO2 SLP154 T02280111 $=
201007250253 METAR KSEA 250253Z 33007KT 10SM CLR 26/13 A2998 RMK AO2 SLP154 T02560128 56012 $=
201007250153 METAR KSEA 250153Z 35009KT 10SM FEW140 28/12 A2998 RMK AO2 SLP156 T02780122 $=
201007250053 METAR KSEA 250053Z 35010KT 10SM CLR 29/12 A2999 RMK AO2 SLP161 T02890122 $=
201007242353 METAR KSEA 242353Z 33011KT 10SM CLR 29/12 A3001 RMK AO2 SLP166 T02890117 10289 20217 56014 $=
201007242253 METAR KSEA 242253Z 33007G15KT 300V020 10SM CLR 29/12 A3002 RMK AO2 SLP169 T02890122 $=
201007242153 METAR KSEA 242153Z 34009G17KT 10SM CLR 28/11 A3004 RMK AO2 SLP175 T02830111 $=
201007242053 METAR KSEA 242053Z 01010KT 10SM CLR 27/12 A3005 RMK AO2 SLP180 T02720117 56016 $=
201007241953 METAR KSEA 241953Z 30010KT 10SM CLR 24/12 A3007 RMK AO2 SLP184 T02440117=
201007241853 METAR KSEA 241853Z 31006KT 10SM CLR 24/12 A3008 RMK AO2 SLP190 T02390122=
201007241753 METAR KSEA 241753Z 28005KT 10SM CLR 22/12 A3010 RMK AO2 SLP197 T02170122 10222 20128 58003=
201007241653 METAR KSEA 241653Z 30004KT 10SM CLR 20/12 A3010 RMK AO2 SLP198 T02000117=
201007241553 METAR KSEA 241553Z 27005KT 10SM CLR 18/12 A3011 RMK AO2 SLP200 T01830122=
201007241453 METAR KSEA 241453Z VRB03KT 10SM CLR 17/12 A3011 RMK AO2 SLP199 T01720122 53003=
201007241353 METAR KSEA 241353Z 00000KT 10SM CLR 16/12 A3011 RMK AO2 SLP199 T01560117=
201007241253 METAR KSEA 241253Z 29004KT 10SM CLR 13/11 A3010 RMK AO2 SLP197 T01330111=
201007241153 METAR KSEA 241153Z 00000KT 10SM CLR 15/12 A3010 RMK AO2 SLP197 T01500117 10200 20144 53001=
201007241053 METAR KSEA 241053Z 04006KT 10SM CLR 16/12 A3010 RMK AO2 SLP196 T01610117=
201007240953 METAR KSEA 240953Z 02005KT 10SM CLR 16/11 A3009 RMK AO2 SLP195 T01560111=
201007240853 METAR KSEA 240853Z 05004KT 10SM CLR 17/11 A3010 RMK AO2 SLP195 T01720111 58002=
201007240753 METAR KSEA 240753Z 03007KT 10SM CLR 18/11 A3010 RMK AO2 SLP196 T01830111 402610106=
201007240653 METAR KSEA 240653Z 03008KT 10SM CLR 19/11 A3010 RMK AO2 SLP197 T01890111=
201007240553 METAR KSEA 240553Z 02007KT 10SM CLR 20/11 A3010 RMK AO2 SLP198 T02000106 10261 20183 52004=
201007240453 METAR KSEA 240453Z 36008KT 10SM CLR 19/12 A3010 RMK AO2 SLP199 T01890122=
201007240353 METAR KSEA 240353Z 35004KT 10SM CLR 21/11 A3009 RMK AO2 SLP194 T02110111=
201007240253 METAR KSEA 240253Z 36008KT 10SM CLR 23/10 A3009 RMK AO2 SLP194 T02330100 56009=
201007240153 METAR KSEA 240153Z 35013KT 10SM CLR 24/09 A3010 RMK AO2 SLP196 T02390089=
201007240053 METAR KSEA 240053Z 34010KT 10SM CLR 26/10 A3011 RMK AO2 SLP199 T02560100=
201007232353 METAR KSEA 232353Z 35012KT 10SM CLR 26/09 A3012 RMK AO2 SLP204 T02560094 10256 20161 57013=
201007232253 METAR KSEA 232253Z 35008G14KT 10SM CLR 25/12 A3013 RMK AO2 SLP208 T02500117=
201007232153 METAR KSEA 232153Z 36010G14KT 10SM CLR 23/11 A3015 RMK AO2 SLP213 T02330111=
201007232053 METAR KSEA 232053Z 30005KT 10SM CLR 22/12 A3016 RMK AO2 SLP218 T02220117 58009=
201007231953 METAR KSEA 231953Z VRB05KT 10SM FEW020 22/12 A3017 RMK AO2 SLP223 T02170117=
201007231853 METAR KSEA 231853Z 30007KT 10SM SCT020 19/12 A3018 RMK AO2 SLP227 T01890117=
201007231753 METAR KSEA 231753Z 28007KT 10SM SCT015 16/11 A3019 RMK AO2 SLP228 T01610111 10172 20106 51004=
201007231653 METAR KSEA 231653Z VRB03KT 10SM FEW008 SCT013 15/11 A3018 RMK AO2 SLP226 T01500106=
201007231647 SPECI KSEA 231647Z 29003KT 10SM FEW008 SCT013 15/11 A3018 RMK AO2=
201007231647 SPECI KSEA 231647Z 29003KT 10SM FEW008 SCT013 15/11 A3018 RMK AO2=
201007231553 METAR KSEA 231553Z 27006KT 10SM FEW008 BKN012 14/11 A3018 RMK AO2 SLP227 T01390106=
201007231512 SPECI KSEA 231512Z 26003KT 10SM FEW007 BKN012 13/11 A3017 RMK AO2=
201007231512 SPECI KSEA 231512Z 26003KT 10SM FEW007 BKN012 13/11 A3017 RMK AO2=
201007231453 METAR KSEA 231453Z 00000KT 10SM FEW007 SCT020 13/10 A3018 RMK AO2 SLP224 T01280100 53007=
201007231444 SPECI KSEA 231444Z 00000KT 10SM FEW007 13/11 A3017 RMK AO2=
201007231444 SPECI KSEA 231444Z 00000KT 10SM FEW007 13/11 A3017 RMK AO2=
201007231353 METAR KSEA 231353Z 00000KT 10SM FEW200 12/11 A3016 RMK AO2 SLP219 T01170106=
201007231253 METAR KSEA 231253Z 00000KT 10SM CLR 11/09 A3015 RMK AO2 SLP217 T01110094=
201007231153 METAR KSEA 231153Z 00000KT 10SM FEW030 11/09 A3015 RMK AO2 SLP216 70001 T01110094 10150 20111 50006=
201007231053 METAR KSEA 231053Z 00000KT 10SM CLR 11/09 A3016 RMK AO2 SLP217 T01110094=
201007230953 METAR KSEA 230953Z 21004KT 10SM CLR 12/10 A3014 RMK AO2 SLP212 T01220100=
201007230853 METAR KSEA 230853Z 20006KT 10SM FEW030 12/10 A3014 RMK AO2 SLP210 T01220100 53013=
201007230753 METAR KSEA 230753Z 22004KT 10SM CLR 13/11 A3012 RMK AO2 SLP206 T01280106 401830122=
201007230653 METAR KSEA 230653Z 21005KT 10SM SCT028 14/11 A3010 RMK AO2 SLP200 T01390106=
201007230553 METAR KSEA 230553Z 20004KT 10SM BKN028 14/11 A3010 RMK AO2 SLP197 T01440111 10183 20144 53010=
201007230540 SPECI KSEA 230540Z 21006KT 10SM BKN028 14/11 A3009 RMK AO2=
201007230540 SPECI KSEA 230540Z 21006KT 10SM BKN028 14/11 A3009 RMK AO2=
201007230453 METAR KSEA 230453Z 20003KT 10SM FEW040 SCT250 14/11 A3009 RMK AO2 SLP194 T01440111=
201007230353 METAR KSEA 230353Z 21004KT 10SM SCT040 BKN250 16/11 A3007 RMK AO2 SLP189 T01610111=
201007230253 METAR KSEA 230253Z 21005KT 10SM FEW030 BKN040 17/11 A3007 RMK AO2 SLP187 T01720111 55000=
201007230153 METAR KSEA 230153Z 20008KT 10SM FEW028 BKN040 18/11 A3006 RMK AO2 SLP184 T01780111=
201007230053 METAR KSEA 230053Z 21008KT 10SM SCT028 OVC040 18/11 A3006=
201007230041 SPECI KSEA 230041Z 22008KT 10SM SCT028 OVC040 18/11 A3006 RMK AO2=
201007230041 SPECI KSEA 230041Z 22008KT 10SM SCT028 OVC040 18/11 A3006 RMK AO2=
201007230034 SPECI KSEA 230034Z 20008KT 10SM BKN028 OVC041 18/11 A3006 RMK AO2=
201007230034 SPECI KSEA 230034Z 20008KT 10SM BKN028 OVC041 18/11 A3006 RMK AO2=
201007230021 SPECI KSEA 230021Z 22008KT 10SM SCT028 OVC041 18/11 A3007 RMK AO2=
201007230021 SPECI KSEA 230021Z 22008KT 10SM SCT028 OVC041 18/11 A3007 RMK AO2=
201007222353 METAR KSEA 222353Z 21007KT 10SM BKN028 OVC037 18/11 A3007 RMK AO2 SLP187 T01780111 10183 20144 51006=
201007222253 METAR KSEA 222253Z 23007KT 10SM BKN025 OVC032 18/11 A3006 RMK AO2 SLP184 T01780111=
201007222153 METAR KSEA 222153Z 18006KT 10SM BKN024 OVC032 17/11 A3006 RMK AO2 SLP184 T01720106=
201007222053 METAR KSEA 222053Z 21008KT 10SM BKN023 BKN028 18/11 A3005 RMK AO2 SLP181 T01780106 51009=
201007221953 METAR KSEA 221953Z 21009KT 10SM OVC020 17/10 A3004 RMK AO2 SLP179 T01720100=
201007221853 METAR KSEA 221853Z 20008KT 10SM BKN016 OVC022 16/10 A3004 RMK AO2 SLP176 T01610100=
201007221753 METAR KSEA 221753Z 22010KT 10SM FEW010 OVC015 14/10 A3002 RMK AO2 SLP171 60001 T01440100 10144 20122 51014=
201007221735 SPECI KSEA 221735Z 23010KT 10SM FEW010 OVC016 14/11 A3002 RMK AO2=
201007221735 SPECI KSEA 221735Z 23010KT 10SM FEW010 OVC016 14/11 A3002 RMK AO2=
201007221653 METAR KSEA 221653Z 22007KT 10SM BKN010 OVC015 13/11 A3002 RMK AO2 DZE51 SLP168 P0000 T01330111=
201007221553 METAR KSEA 221553Z 22009KT 5SM -DZ BR OVC005 12/11 A2999 RMK AO2 SLP160 P0000 T01220111=
201007221453 METAR KSEA 221453Z 18008KT 6SM -DZ BR OVC005 13/12 A2998 RMK AO2 SLP156 P0001 60001 T01280117 51009=
201007221353 METAR KSEA 221353Z 21006KT 3SM -DZ BR OVC007 12/11 A2998 RMK AO2 DZB37 CIG 004V012 SLP156 P0000 T01220111 $=
201007221253 METAR KSEA 221253Z 21007KT 10SM OVC009 13/10 A2996 RMK AO2 SLP150 T01280100 $=
201007221153 METAR KSEA 221153Z 19008KT 10SM OVC009 12/10 A2995 RMK AO2 SLP147 T01220100 10194 20122 53007 $=
201007221053 METAR KSEA 221053Z 22009KT 10SM OVC007 13/11 A2995=
201007221001 SPECI KSEA 221001Z 20008KT 10SM BKN009 13/11 A2993 RMK AO2 $=
201007221001 SPECI KSEA 221001Z 20008KT 10SM BKN009 13/11 A2993 RMK AO2 $=
201007220953 METAR KSEA 220953Z 20008KT 10SM SCT009 BKN200 13/11 A2993 RMK AO2 SLP140 T01280106 $=
201007220948 SPECI KSEA 220948Z 20009KT 10SM SCT009 BKN200 13/11 A2993 RMK AO2 $=
201007220948 SPECI KSEA 220948Z 20009KT 10SM SCT009 BKN200 13/11 A2993 RMK AO2 $=
201007220853 METAR KSEA 220853Z 22008KT 10SM BKN250 14/11 A2993 RMK AO2 SLP140 T01390111 55003 $=
201007220753 METAR KSEA 220753Z 22009KT 10SM SCT250 15/12 A2992 RMK AO2 SLP138 T01500117 402670111 $=
201007220653 METAR KSEA 220653Z 20009KT 10SM SCT250 17/13 A2993 RMK AO2 SLP140 T01720133 $=
201007220553 METAR KSEA 220553Z 20006KT 10SM FEW100 SCT250 19/14 A2994 RMK AO2 SLP145 T01940144 10256 20194 55001 $=
201007220453 METAR KSEA 220453Z 24005KT 10SM FEW100 SCT250 22/14 A2994 RMK AO2 SLP143 T02220139 $=
201007220353 METAR KSEA 220353Z 22003KT 10SM FEW100 SCT250 23/13 A2995 RMK AO2 SLP145 T02330133 $=
201007220253 METAR KSEA 220253Z 21006KT 10SM FEW100 SCT250 24/14 A2995 RMK AO2 SLP145 T02440139 56004 $=
201007220153 METAR KSEA 220153Z 25004KT 10SM FEW250 26/13 A2995 RMK AO2 SLP146 T02560133 $=
201007220053 METAR KSEA 220053Z 26003KT 10SM CLR 25/13 A2995 RMK AO2 SLP146 T02500133 $=
201007212353 METAR KSEA 212353Z 26007KT 10SM FEW040 26/13 A2996 RMK AO2 SLP149 T02560128 10267 20128 58015 $=
201007212253 METAR KSEA 212253Z 35008KT 10SM FEW040 26/12 A2998 RMK AO2 SLP156 T02610117=
201007212153 METAR KSEA 212153Z 31007KT 10SM FEW035 24/12 A2999 RMK AO2 SLP159 T02440122=
201007212053 METAR KSEA 212053Z 29007KT 10SM FEW030 22/12 A3000 RMK AO2 SLP164 T02170122 58008=
201007211953 METAR KSEA 211953Z VRB04KT 10SM FEW025 18/12 A3001 RMK AO2 SLP168 T01830122=
201007211853 METAR KSEA 211853Z VRB03KT 10SM FEW020 15/12 A3002 RMK AO2 SLP171 T01500117=
201007211801 SPECI KSEA 211801Z 19004KT 5SM BR SCT004 13/12 A3003 RMK AO2=
201007211801 SPECI KSEA 211801Z 19004KT 5SM BR SCT004 13/12 A3003 RMK AO2=
201007211753 METAR KSEA 211753Z 20004KT 5SM BR BKN004 13/11 A3003 RMK AO2 SLP173 T01280111 10128 20111 57004=
201007211656 SPECI KSEA 211656Z 18005KT 1 1/2SM BR OVC003 12/11 A3003 RMK AO2 SFC VIS 2=
201007211656 SPECI KSEA 211656Z 18005KT 1 1/2SM BR OVC003 12/11 A3003 RMK AO2 SFC VIS 2=
201007211653 METAR KSEA 211653Z 21003KT 3/4SM BR OVC002 12/11 A3003 RMK AO2 SFC VIS 1 1/2 SLP174 T01220111=
201007211639 SPECI KSEA 211639Z 20003KT 3/4SM R16C/P6000FT BR VV002 12/11 A3003 RMK AO2 SFC VIS 1=
201007211639 SPECI KSEA 211639Z 20003KT 3/4SM R16C/P6000FT BR VV002 12/11 A3003 RMK AO2 SFC VIS 1=
201007211553 METAR KSEA 211553Z 20004KT 1/4SM R16C/0800V3500FT FG VV001 12/11 A3004 RMK AO2 SFC VIS 1/2 SLP178 T01170111=
201007211453 METAR KSEA 211453Z 20003KT 1/4SM R16C/0700V1200FT FG VV001 12/11 A3004 RMK AO2 SLP178 T01170111 52013=
201007211405 SPECI KSEA 211405Z 20006KT 1/4SM R16C/0700V1400FT FG VV001 11/11 A3003 RMK AO2=
201007211405 SPECI KSEA 211405Z 20006KT 1/4SM R16C/0700V1400FT FG VV001 11/11 A3003 RMK AO2=
201007211353 METAR KSEA 211353Z 21005KT 1/4SM R16C/0800V2800FT FG VV001 11/11 A3003 RMK AO2 SLP173 T01110106=
201007211311 SPECI KSEA 211311Z 19005KT 1/4SM R16C/1000V1200FT FG VV001 11/11 A3002 RMK AO2=
201007211311 SPECI KSEA 211311Z 19005KT 1/4SM R16C/1000V1200FT FG VV001 11/11 A3002 RMK AO2=
201007211301 SPECI KSEA 211301Z 20005KT 1/4SM R16C/0800V3000FT FG VV001 11/11 A3002 RMK AO2=
201007211301 SPECI KSEA 211301Z 20005KT 1/4SM R16C/0800V3000FT FG VV001 11/11 A3002 RMK AO2=
201007211253 METAR KSEA 211253Z 20006KT 1/4SM R16C/1000V1600FT FG VV001 11/11 A3002 RMK AO2 SLP169 T01110111=
201007211153 METAR KSEA 211153Z 21007KT 1/4SM R16C/P6000FT FG OVC001 11/11 A3000 RMK AO2 SLP165 T01110106 10172 20111 50003=
201007211139 SPECI KSEA 211139Z 20005KT 1/4SM R16C/P6000FT BR OVC001 12/11 A3000 RMK AO2 SFC VIS 3/4=
201007211139 SPECI KSEA 211139Z 20005KT 1/4SM R16C/P6000FT BR OVC001 12/11 A3000 RMK AO2 SFC VIS 3/4=
201007211131 SPECI KSEA 211131Z 20007KT 2SM BR OVC001 12/11 A3000 RMK AO2=
201007211131 SPECI KSEA 211131Z 20007KT 2SM BR OVC001 12/11 A3000 RMK AO2=
201007211121 SPECI KSEA 211121Z 20004KT 2SM BR BKN003 12/11 A3000 RMK AO2=
201007211121 SPECI KSEA 211121Z 20004KT 2SM BR BKN003 12/11 A3000 RMK AO2=
201007211053 METAR KSEA 211053Z 22003KT 10SM FEW003 12/11 A3000 RMK AO2 SLP165 T01170106=
201007210953 METAR KSEA 210953Z 20007KT 10SM FEW003 12/11 A2999 RMK AO2 SLP162 T01220111=
201007210853 METAR KSEA 210853Z 22004KT 10SM CLR 13/12 A2999 RMK AO2 SLP161 T01330117 50000=
201007210753 METAR KSEA 210753Z 25003KT 10SM FEW250 16/12 A3000 RMK AO2 SLP163 T01560122 402220111=
201007210653 METAR KSEA 210653Z 00000KT 10SM CLR 16/13 A2999 RMK AO2 SLP162 T01610128=
201007210553 METAR KSEA 210553Z 00000KT 10SM FEW120 17/13 A2999 RMK AO2 SLP161 T01720128 10222 20167 55000=
201007210453 METAR KSEA 210453Z 00000KT 10SM FEW120 20/13 A2999 RMK AO2 SLP161 T02000128=
201007210353 METAR KSEA 210353Z 00000KT 10SM SCT120 21/12 A2999 RMK AO2 SLP161 T02060122=
201007210253 METAR KSEA 210253Z 24004KT 10SM SCT110 21/12 A2999 RMK AO2 SLP161 T02060122 55003=
201007210153 METAR KSEA 210153Z 24005KT 10SM SCT120 22/12 A2999 RMK AO2 SLP161 T02170117=
201007210053 METAR KSEA 210053Z 25004KT 10SM FEW025 SCT150 21/12 A2999 RMK AO2 SLP161 T02110122=
201007202353 METAR KSEA 202353Z VRB03KT 10SM FEW025 SCT150 21/12 A3000 RMK AO2 SLP165 T02110122 10217 20128 58015=
201007202253 METAR KSEA 202253Z 25003KT 10SM FEW020 SCT150 21/12 A3002 RMK AO2 SLP171 T02110117=
201007202153 METAR KSEA 202153Z 17005KT 10SM FEW018 SCT150 19/12 A3003 RMK AO2 SLP176 T01940117=
201007202102 SPECI KSEA 202102Z 17005KT 10SM SCT010 BKN120 17/12 A3005 RMK AO2=
201007202102 SPECI KSEA 202102Z 17005KT 10SM SCT010 BKN120 17/12 A3005 RMK AO2=
201007202053 METAR KSEA 202053Z 00000KT 10SM BKN009 BKN100 16/12 A3005 RMK AO2 SLP180 T01610117 58010=
201007201953 METAR KSEA 201953Z VRB03KT 10SM OVC005 15/11 A3006 RMK AO2 SLP185 T01500111=
201007201915 SPECI KSEA 201915Z 22004KT 7SM OVC004 14/11 A3007 RMK AO2=
201007201915 SPECI KSEA 201915Z 22004KT 7SM OVC004 14/11 A3007 RMK AO2=
201007201853 METAR KSEA 201853Z 25004KT 2SM HZ OVC004 14/11 A3007 RMK AO2 SFC VIS 5 SLP189 T01390111=
201007201753 METAR KSEA 201753Z 20005KT 2SM BR OVC003 13/11 A3008 RMK AO2 SFC VIS 2 1/2 SLP190 T01280106 10128 20111 58001=
201007201744 SPECI KSEA 201744Z 22003KT 2SM BR OVC003 12/11 A3008 RMK AO2 SFC VIS 2 1/2=
201007201744 SPECI KSEA 201744Z 22003KT 2SM BR OVC003 12/11 A3008 RMK AO2 SFC VIS 2 1/2=
201007201724 SPECI KSEA 201724Z 23004KT 1SM BR OVC003 12/11 A3008 RMK AO2 SFC VIS 2=
201007201724 SPECI KSEA 201724Z 23004KT 1SM BR OVC003 12/11 A3008 RMK AO2 SFC VIS 2=
201007201653 METAR KSEA 201653Z 21004KT 1/4SM R16C/4000VP6000FT BR OVC001 12/11 A3008 RMK AO2 SFC VIS 3/4 SLP192 T01170111=
201007201553 METAR KSEA 201553Z 22004KT 1/4SM R16C/1200V1800FT FG VV001 12/11 A3009 RMK AO2 SLP193 T01170111=
201007201546 SPECI KSEA 201546Z 21003KT 1/4SM R16C/1000V2400FT FG VV001 12/11 A3009 RMK AO2 TWR VIS 3/4=
201007201546 SPECI KSEA 201546Z 21003KT 1/4SM R16C/1000V2400FT FG VV001 12/11 A3009 RMK AO2 TWR VIS 3/4=
201007201453 METAR KSEA 201453Z 20003KT 3/4SM R16C/4500VP6000FT BR OVC002 12/11 A3008 RMK AO2 SFC VIS 1 SLP191 T01170111 56002=
201007201353 METAR KSEA 201353Z 24004KT 1/4SM R16C/1400V3000FT FG OVC001 11/11 A3008 RMK AO2 SLP192 T01110106=
201007201343 SPECI KSEA 201343Z 21004KT 1/4SM R16C/1400V2800FT FG OVC001 11/11 A3008 RMK AO2=
201007201343 SPECI KSEA 201343Z 21004KT 1/4SM R16C/1400V2800FT FG OVC001 11/11 A3008 RMK AO2=
201007201253 METAR KSEA 201253Z 19003KT 1/4SM R16C/2800VP6000FT FG OVC002 11/11 A3008 RMK AO2 SFC VIS 1/2 SLP190 T01110106=
201007201231 SPECI KSEA 201231Z 20003KT 3/4SM R16C/P6000FT BR OVC002 11/11 A3008 RMK AO2=
201007201231 SPECI KSEA 201231Z 20003KT 3/4SM R16C/P6000FT BR OVC002 11/11 A3008 RMK AO2=
201007201153 METAR KSEA 201153Z 24003KT 2SM BR OVC002 12/11 A3009 RMK AO2 SFC VIS 4 SLP193 T01170106 10156 20117 56003 $=
201007201118 SPECI KSEA 201118Z 20004KT 2SM BR BKN002 12/11 A3009 RMK AO2 SFC VIS 4=
201007201118 SPECI KSEA 201118Z 20004KT 2SM BR BKN002 12/11 A3009 RMK AO2 SFC VIS 4=
201007201053 METAR KSEA 201053Z 00000KT 10SM FEW004 SCT200 12/11 A3009 RMK AO2 SLP193 T01170106=
201007201036 SPECI KSEA 201036Z 00000KT 10SM FEW004 12/11 A3009 RMK AO2=
201007201036 SPECI KSEA 201036Z 00000KT 10SM FEW004 12/11 A3009 RMK AO2=
201007200953 METAR KSEA 200953Z 00000KT 10SM FEW012 12/10 A3009 RMK AO2 SLP194 T01170100=
201007200853 METAR KSEA 200853Z 00000KT 10SM CLR 13/11 A3009 RMK AO2 SLP196 T01280106 58005=
201007200753 METAR KSEA 200753Z 24003KT 10SM CLR 13/11 A3011 RMK AO2 SLP201 T01330111 402000117=
201007200653 METAR KSEA 200653Z 24003KT 10SM CLR 14/12 A3010 RMK AO2 SLP199 T01440117=
201007200553 METAR KSEA 200553Z 00000KT 10SM FEW250 16/12 A3011 RMK AO2 SLP201 T01560117 10200 20156 56001=
201007200453 METAR KSEA 200453Z 00000KT 10SM SCT250 16/11 A3011 RMK AO2 SLP202 T01610111=
201007200353 METAR KSEA 200353Z 21003KT 10SM SCT250 17/11 A3011 RMK AO2 SLP200 T01720111=
201007200253 METAR KSEA 200253Z 23004KT 10SM FEW250 19/11 A3011 RMK AO2 SLP203 T01890111 56014=
201007200153 METAR KSEA 200153Z 27003KT 10SM FEW250 20/11 A3012 RMK AO2 SLP206 T02000111=
201007200053 METAR KSEA 200053Z 25004KT 10SM FEW250 19/10 A3014 RMK AO2 SLP212 T01890100=
201007192353 METAR KSEA 192353Z 28005KT 10SM FEW025 19/11 A3016 RMK AO2 SLP217 T01890106 10194 20139 56016=
201007192253 METAR KSEA 192253Z 24004KT 10SM FEW025 18/11 A3017 RMK AO2 SLP222 T01830106=
201007192153 METAR KSEA 192153Z 23006KT 10SM FEW020 18/10 A3019 RMK AO2 SLP228 T01780100=
201007192053 METAR KSEA 192053Z 26007KT 10SM SCT018 16/10 A3020 RMK AO2 SLP234 T01610100 58006=
201007192031 SPECI KSEA 192031Z 22007KT 10SM SCT017 17/10 A3021 RMK AO2=
201007192031 SPECI KSEA 192031Z 22007KT 10SM SCT017 17/10 A3021 RMK AO2=
201007191953 METAR KSEA 191953Z 27005KT 10SM BKN015 BKN023 16/10 A3021=
201007191934 SPECI KSEA 191934Z 28007KT 10SM BKN015 BKN025 15/09 A3022 RMK AO2=
201007191934 SPECI KSEA 191934Z 28007KT 10SM BKN015 BKN025 15/09 A3022 RMK AO2=
201007191853 METAR KSEA 191853Z VRB05KT 10SM OVC013 14/09 A3022 RMK AO2 SLP240 T01440094=
201007191753 METAR KSEA 191753Z 21004KT 10SM OVC010 14/09 A3022 RMK AO2 SLP241 T01390094 10139 20117 56001=
201007191653 METAR KSEA 191653Z VRB03KT 10SM FEW007 OVC010 13/10 A3022 RMK AO2 SLP241 T01280100=
201007191553 METAR KSEA 191553Z 24005KT 10SM FEW007 OVC010 13/09 A3022 RMK AO2 SLP240 T01280094=
201007191453 METAR KSEA 191453Z 23005KT 10SM SCT008 OVC013 12/09 A3023 RMK AO2 SLP241 T01220094 51005=
201007191411 SPECI KSEA 191411Z 23006KT 10SM SCT008 OVC013 12/09 A3022 RMK AO2=
201007191411 SPECI KSEA 191411Z 23006KT 10SM SCT008 OVC013 12/09 A3022 RMK AO2=
201007191353 METAR KSEA 191353Z 23006KT 10SM SCT008 OVC015 12/09 A3022 RMK AO2 SLP240 T01170094=
201007191351 SPECI KSEA 191351Z 24006KT 10SM SCT008 OVC015 12/09 A3022 RMK AO2=
201007191351 SPECI KSEA 191351Z 24006KT 10SM SCT008 OVC015 12/09 A3022 RMK AO2=
201007191325 SPECI KSEA 191325Z 22005KT 10SM SCT007 OVC011 12/09 A3022 RMK AO2=
201007191325 SPECI KSEA 191325Z 22005KT 10SM SCT007 OVC011 12/09 A3022 RMK AO2=
201007191253 METAR KSEA 191253Z 23004KT 10SM BKN008 OVC011 12/09 A3021 RMK AO2 SLP236 T01170094=
201007191153 METAR KSEA 191153Z 22003KT 10SM OVC009 12/09 A3019 RMK AO2 SLP229 T01170094 10128 20117 51007=
201007191053 METAR KSEA 191053Z 22005KT 10SM BKN009 OVC013 12/09 A3018 RMK AO2 SLP226 T01170094=
201007191033 SPECI KSEA 191033Z 22004KT 10SM BKN009 OVC013 12/09 A3018 RMK AO2=
201007191033 SPECI KSEA 191033Z 22004KT 10SM BKN009 OVC013 12/09 A3018 RMK AO2=
201007191006 SPECI KSEA 191006Z 21006KT 10SM SCT009 BKN013 12/09 A3018 RMK AO2=
201007191006 SPECI KSEA 191006Z 21006KT 10SM SCT009 BKN013 12/09 A3018 RMK AO2=
201007190953 METAR KSEA 190953Z 22006KT 10SM SCT009 BKN020 12/09 A3018 RMK AO2 SLP225 T01170094=
201007190932 SPECI KSEA 190932Z 22005KT 10SM SCT009 BKN020 12/09 A3017 RMK AO2=
201007190932 SPECI KSEA 190932Z 22005KT 10SM SCT009 BKN020 12/09 A3017 RMK AO2=
201007190916 SPECI KSEA 190916Z 22005KT 10SM FEW009 SCT020 12/09 A3017 RMK AO2=
201007190916 SPECI KSEA 190916Z 22005KT 10SM FEW009 SCT020 12/09 A3017 RMK AO2=
201007190900 SPECI KSEA 190900Z 21006KT 10SM SCT022 12/09 A3017 RMK AO2=
201007190900 SPECI KSEA 190900Z 21006KT 10SM SCT022 12/09 A3017 RMK AO2=
201007190853 METAR KSEA 190853Z 21006KT 10SM BKN024 12/09 A3017 RMK AO2 SLP222 T01170094 51003=
201007190836 SPECI KSEA 190836Z 21005KT 10SM BKN024 12/10 A3017 RMK AO2=
201007190836 SPECI KSEA 190836Z 21005KT 10SM BKN024 12/10 A3017 RMK AO2=
201007190753 METAR KSEA 190753Z 22006KT 10SM CLR 12/09 A3017 RMK AO2 SLP221 T01170094 401830111=
201007190653 METAR KSEA 190653Z 21005KT 10SM FEW080 12/09 A3016 RMK AO2 SLP220 T01220094=
201007190553 METAR KSEA 190553Z 20007KT 10SM FEW080 13/10 A3016 RMK AO2 SLP219 T01280100 10183 20128 53007=
201007190453 METAR KSEA 190453Z 22006KT 10SM FEW080 14/11 A3015 RMK AO2 SLP216 T01440106=
201007190353 METAR KSEA 190353Z 23005KT 10SM SCT080 16/11 A3013 RMK AO2 SLP209 T01610111=
201007190253 METAR KSEA 190253Z VRB04KT 10SM BKN080 17/11 A3014 RMK AO2 SLP211 T01720111 55004=
201007190153 METAR KSEA 190153Z 26006KT 10SM BKN080 18/11 A3013 RMK AO2 SLP209 T01780111=
201007190053 METAR KSEA 190053Z 24007KT 10SM SCT060 18/11 A3014 RMK AO2 SLP213 T01780111=
201007182353 METAR KSEA 182353Z 24007KT 10SM FEW050 18/11 A3015 RMK AO2 SLP215 T01780106 10183 20128 58012=
201007182253 METAR KSEA 182253Z 26008KT 10SM FEW016 17/11 A3017 RMK AO2 SLP220 T01720106=
201007182153 METAR KSEA 182153Z 27007KT 10SM SCT016 17/10 A3018 RMK AO2 SLP228 T01670100=
201007182151 SPECI KSEA 182151Z 24007KT 10SM SCT016 17/10 A3018 RMK AO2=
201007182151 SPECI KSEA 182151Z 24007KT 10SM SCT016 17/10 A3018 RMK AO2=
201007182129 SPECI KSEA 182129Z 26009KT 10SM BKN014 BKN030 17/10 A3018 RMK AO2=
201007182129 SPECI KSEA 182129Z 26009KT 10SM BKN014 BKN030 17/10 A3018 RMK AO2=
201007182123 SPECI KSEA 182123Z 25007KT 10SM OVC016 17/10 A3019 RMK AO2=
201007182123 SPECI KSEA 182123Z 25007KT 10SM OVC016 17/10 A3019 RMK AO2=
201007182053 METAR KSEA 182053Z 22007KT 10SM OVC014 16/09 A3019 RMK AO2 SLP229 T01560094 50001=
201007181953 METAR KSEA 181953Z 23007KT 10SM OVC012 14/09 A3019 RMK AO2 SLP229 T01440094=
201007181853 METAR KSEA 181853Z 22006KT 10SM OVC010 13/09 A3019 RMK AO2 SLP230 T01330094=
201007181753 METAR KSEA 181753Z 24007KT 10SM OVC010 13/09 A3018 RMK AO2 SLP226 T01330094 10133 20111 52007=
201007181653 METAR KSEA 181653Z 21006KT 10SM OVC008 13/09 A3017 RMK AO2 SLP223 T01280094=
201007181553 METAR KSEA 181553Z 21007KT 10SM OVC006 12/09 A3017 RMK AO2 SLP222 T01220094=
201007181453 METAR KSEA 181453Z 20007KT 10SM OVC006 12/09 A3016 RMK AO2 SLP219 T01170094 53005=
201007181401 SPECI KSEA 181401Z 19007KT 10SM OVC006 12/09 A3016 RMK AO2=
201007181401 SPECI KSEA 181401Z 19007KT 10SM OVC006 12/09 A3016 RMK AO2=
201007181353 METAR KSEA 181353Z 19007KT 10SM OVC004 12/09 A3016 RMK AO2 SLP217 T01170094=
201007181253 METAR KSEA 181253Z 21006KT 10SM OVC004 11/09 A3015 RMK AO2 SLP215 T01110094=
201007181153 METAR KSEA 181153Z 22007KT 10SM OVC004 11/09 A3015 RMK AO2 SLP214 T01110094 10161 20111 53006=
201007181053 METAR KSEA 181053Z 21006KT 10SM OVC004 11/09 A3014 RMK AO2 SLP212 T01110094=
201007181025 SPECI KSEA 181025Z 21007KT 6SM BR BKN004 12/10 A3013 RMK AO2=
201007181025 SPECI KSEA 181025Z 21007KT 6SM BR BKN004 12/10 A3013 RMK AO2=
201007181017 SPECI KSEA 181017Z 21006KT 10SM SCT004 11/10 A3013 RMK AO2=
201007181017 SPECI KSEA 181017Z 21006KT 10SM SCT004 11/10 A3013 RMK AO2=
201007180953 METAR KSEA 180953Z 21008KT 10SM SCT035 11/09 A3013 RMK AO2 SLP207 T01110094=
201007180853 METAR KSEA 180853Z 20006KT 10SM SCT037 12/10 A3013 RMK AO2 SLP208 T01170100 53006=
201007180753 METAR KSEA 180753Z 23006KT 10SM SCT100 13/11 A3012 RMK AO2 SLP206 T01280106 402110106=
201007180653 METAR KSEA 180653Z 23005KT 10SM FEW100 14/11 A3011 RMK AO2 SLP201 T01440111=
201007180553 METAR KSEA 180553Z 25006KT 10SM FEW100 16/12 A3011 RMK AO2 SLP201 T01610117 10211 20161 53005=
201007180453 METAR KSEA 180453Z 24005KT 10SM FEW050 17/12 A3010 RMK AO2 SLP199 T01720117=
201007180353 METAR KSEA 180353Z 21005KT 10SM FEW050 18/12 A3009 RMK AO2 SLP195 T01830117=
201007180253 METAR KSEA 180253Z 19005KT 10SM FEW050 20/12 A3009 RMK AO2 SLP196 T02000117 56011=
201007180153 METAR KSEA 180153Z 22004KT 10SM CLR 21/12 A3010 RMK AO2 SLP198 T02060117=
201007180053 METAR KSEA 180053Z VRB06KT 10SM CLR 21/12 A3011 RMK AO2 SLP202 T02060117=
201007172353 METAR KSEA 172353Z 20006KT 10SM CLR 21/12 A3013 RMK AO2 SLP207 T02060117 10206 20133 56013=
201007172253 METAR KSEA 172253Z VRB04KT 10SM CLR 19/11 A3014 RMK AO2 SLP212 T01940111=
201007172153 METAR KSEA 172153Z 24005KT 10SM FEW050 18/11 A3015 RMK AO2 SLP216 T01830106=
201007172053 METAR KSEA 172053Z 23006KT 10SM FEW015 17/11 A3017 RMK AO2 SLP221 T01720106 58005=
201007171953 METAR KSEA 171953Z 26007KT 10SM FEW015 16/10 A3017 RMK AO2 SLP222 T01610100=
201007171916 SPECI KSEA 171916Z 26005KT 10SM FEW011 15/10 A3018 RMK AO2=
201007171916 SPECI KSEA 171916Z 26005KT 10SM FEW011 15/10 A3018 RMK AO2=
201007171853 METAR KSEA 171853Z 22006KT 10SM BKN011 16/10 A3018 RMK AO2 SLP224 T01560100=
201007171833 SPECI KSEA 171833Z VRB05KT 10SM BKN011 14/09 A3018 RMK AO2=
201007171833 SPECI KSEA 171833Z VRB05KT 10SM BKN011 14/09 A3018 RMK AO2=
201007171753 METAR KSEA 171753Z 24005KT 10SM OVC007 13/09 A3018 RMK AO2 SLP226 T01330094 10133 20106 51001=
201007171653 METAR KSEA 171653Z 21005KT 10SM OVC005 12/09 A3018 RMK AO2 SLP226 T01220094=
201007171610 SPECI KSEA 171610Z 22005KT 10SM OVC005 11/09 A3018 RMK AO2=
201007171610 SPECI KSEA 171610Z 22005KT 10SM OVC005 11/09 A3018 RMK AO2=
201007171553 METAR KSEA 171553Z 22005KT 10SM OVC003 11/09 A3018 RMK AO2 SLP225 T01110094=
201007171453 METAR KSEA 171453Z 22005KT 10SM OVC003 11/09 A3018 RMK AO2 SLP224 T01060094 53009=
201007171353 METAR KSEA 171353Z 20005KT 10SM OVC003 11/09 A3017 RMK AO2 SLP221 T01060094=
201007171301 SPECI KSEA 171301Z 22005KT 10SM OVC003 11/09 A3016 RMK AO2=
201007171301 SPECI KSEA 171301Z 22005KT 10SM OVC003 11/09 A3016 RMK AO2=
201007171253 METAR KSEA 171253Z 23006KT 10SM OVC005 11/09 A3016 RMK AO2 SLP217 T01060094=
201007171222 SPECI KSEA 171222Z 21005KT 10SM BKN005 OVC010 11/09 A3015 RMK AO2=
201007171222 SPECI KSEA 171222Z 21005KT 10SM BKN005 OVC010 11/09 A3015 RMK AO2=
201007171213 SPECI KSEA 171213Z 21003KT 10SM SCT005 BKN010 OVC025 11/09 A3015 RMK AO2=
201007171213 SPECI KSEA 171213Z 21003KT 10SM SCT005 BKN010 OVC025 11/09 A3015 RMK AO2=
201007171153 METAR KSEA 171153Z 21004KT 10SM FEW007 11/09 A3015 RMK AO2 SLP215 T01060089 10139 20106 51002=
201007171053 METAR KSEA 171053Z 20003KT 10SM CLR 11/09 A3015 RMK AO2 SLP214 T01060089=
201007170953 METAR KSEA 170953Z 22004KT 10SM CLR 11/09 A3015 RMK AO2 SLP216 T01110089=
201007170853 METAR KSEA 170853Z 20006KT 10SM CLR 12/09 A3014 RMK AO2 SLP214 T01170094 53006=
201007170753 METAR KSEA 170753Z 19005KT 10SM CLR 12/10 A3014 RMK AO2 SLP212 T01220100 402060111=
201007170653 METAR KSEA 170653Z 20006KT 10SM CLR 13/11 A3013 RMK AO2 SLP209 T01280106=
201007170553 METAR KSEA 170553Z 20005KT 10SM CLR 14/11 A3013 RMK AO2 SLP208 T01390106 10206 20139 53004=
201007170453 METAR KSEA 170453Z 21004KT 10SM CLR 15/11 A3012 RMK AO2 SLP207 T01500111=
201007170353 METAR KSEA 170353Z 21006KT 10SM CLR 17/11 A3011 RMK AO2 SLP202 T01720106=
201007170253 METAR KSEA 170253Z 22004KT 10SM CLR 19/10 A3011 RMK AO2 SLP202 T01890100 56008=
201007170153 METAR KSEA 170153Z 23006KT 10SM FEW025 20/10 A3011 RMK AO2 SLP203 T02000100=
201007170053 METAR KSEA 170053Z 21004KT 10SM FEW025 20/11 A3012 RMK AO2 SLP206 T02000106=
201007162353 METAR KSEA 162353Z 18006KT 10SM FEW025 19/11 A3014 RMK AO2 SLP211 T01890106 10194 20128 58010=
201007162319 SPECI KSEA 162319Z 00000KT 10SM FEW023 19/11 A3014 RMK AO2=
201007162319 SPECI KSEA 162319Z 00000KT 10SM FEW023 19/11 A3014 RMK AO2=
201007162253 METAR KSEA 162253Z VRB05KT 10SM BKN023 18/10 A3015 RMK AO2 SLP216 T01780100=
201007162153 METAR KSEA 162153Z 20008KT 10SM BKN019 OVC025 17/09 A3015 RMK AO2 SLP217 T01720094=
201007162053 METAR KSEA 162053Z 19008KT 10SM BKN018 OVC025 16/09 A3017 RMK AO2 SLP221 T01560094 50003=
201007162021 SPECI KSEA 162021Z 22008KT 10SM BKN016 OVC021 15/09 A3017 RMK AO2=
201007162021 SPECI KSEA 162021Z 22008KT 10SM BKN016 OVC021 15/09 A3017 RMK AO2=
201007161953 METAR KSEA 161953Z 23005KT 10SM OVC014 14/09 A3017 RMK AO2 SLP222 T01440094=
201007161853 METAR KSEA 161853Z 24006KT 10SM OVC014 13/09 A3017 RMK AO2 SLP221 T01330089=
201007161753 METAR KSEA 161753Z 18006KT 10SM OVC014 13/09 A3016 RMK AO2 SLP218 T01330089 10133 20111 51008=
201007161653 METAR KSEA 161653Z 23007KT 10SM BKN014 OVC018 13/09 A3015 RMK AO2 SLP215 T01280089=
201007161553 METAR KSEA 161553Z 19006KT 10SM BKN010 OVC013 13/09 A3014 RMK AO2 SLP213 T01280089=
201007161453 METAR KSEA 161453Z 18007KT 10SM BKN009 OVC013 12/09 A3013 RMK AO2 SLP209 T01220089 51009=
201007161353 METAR KSEA 161353Z 19007KT 10SM OVC006 12/09 A3013 RMK AO2 SLP207 T01170089=
201007161253 METAR KSEA 161253Z 19008KT 10SM OVC006 12/09 A3012 RMK AO2 SLP202 T01170094 $=
201007161153 METAR KSEA 161153Z 20008KT 10SM OVC006 12/09 A3011 RMK AO2 SLP200 T01170094 10167 20117 51004 $=
201007161108 SPECI KSEA 161108Z 21006KT 10SM BKN006 OVC050 12/10 A3011 RMK AO2 $=
201007161108 SPECI KSEA 161108Z 21006KT 10SM BKN006 OVC050 12/10 A3011 RMK AO2 $=
201007161053 METAR KSEA 161053Z 21007KT 10SM SCT008 BKN040 12/10 A3011 RMK AO2 SLP200 T01170100 $=
201007160953 METAR KSEA 160953Z 22005KT 10SM CLR 12/10 A3010 RMK AO2 SLP197 T01220100 $=
201007160853 METAR KSEA 160853Z 21006KT 10SM CLR 13/10 A3009 RMK AO2 SLP195 T01330100 53003 $=
201007160753 METAR KSEA 160753Z 21005KT 10SM CLR 14/11 A3009 RMK AO2 SLP193 T01390106 402670139 $=
201007160653 METAR KSEA 160653Z 23003KT 10SM CLR 16/11 A3009 RMK AO2 SLP192 T01610111 $=
201007160553 METAR KSEA 160553Z 29005KT 10SM CLR 16/11 A3008 RMK AO2 SLP192 T01610111 10267 20161 53006 $=
201007160453 METAR KSEA 160453Z 28004KT 10SM CLR 18/12 A3007 RMK AO2 SLP188 T01830117 $=
201007160353 METAR KSEA 160353Z 28004KT 10SM CLR 21/12 A3006 RMK AO2 SLP184 T02110122 $=
201007160253 METAR KSEA 160253Z 28004KT 10SM CLR 23/11 A3007 RMK AO2 SLP186 T02330111 56010 $=
201007160153 METAR KSEA 160153Z 26005KT 10SM FEW050 24/11 A3007 RMK AO2 SLP188 T02440111 $=
201007160053 METAR KSEA 160053Z 27005KT 10SM FEW050 25/11 A3008 RMK AO2 SLP192 T02500106 $=
201007152353 METAR KSEA 152353Z 28007KT 10SM FEW050 26/11 A3010 RMK AO2 SLP196 T02610111 10267 20206 57011 $=
201007152253 METAR KSEA 152253Z 31003KT 10SM FEW050 26/09 A3011 RMK AO2 SLP200 T02560094 $=
201007152153 METAR KSEA 152153Z 26008KT 10SM FEW050 25/09 A3012 RMK AO2 SLP203 T02500094=
201007152053 METAR KSEA 152053Z 33006KT 10SM FEW045 24/09 A3013 RMK AO2 SLP207 T02440089 58006=
201007151953 METAR KSEA 151953Z 32008KT 10SM CLR 23/11 A3014 RMK AO2 SLP209 T02280111=
201007151853 METAR KSEA 151853Z 00000KT 10SM CLR 22/11 A3014 RMK AO2 SLP212 T02220106=
201007151753 METAR KSEA 151753Z VRB05KT 10SM CLR 21/11 A3015 RMK AO2 SLP213 T02110111 10211 20150 58001=
201007151653 METAR KSEA 151653Z 27004KT 10SM BCFG CLR 17/11 A3015 RMK AO2 SLP214 FG BANK S-W T01720111=
201007151553 METAR KSEA 151553Z 04003KT 10SM BCFG CLR 19/10 A3015 RMK AO2 SLP215 FG BANK S-W-NW T01890100=
201007151453 METAR KSEA 151453Z 02005KT 10SM BCFG CLR 17/09 A3015 RMK AO2 SLP215 FG BANK S-W-NW T01720094 53008=
201007151353 METAR KSEA 151353Z 03006KT 10SM CLR 16/09 A3014 RMK AO2 SLP210 T01560089=
201007151253 METAR KSEA 151253Z 03008KT 10SM CLR 15/08 A3013 RMK AO2 SLP208 T01500083=
201007151153 METAR KSEA 151153Z 03009KT 10SM CLR 16/08 A3013 RMK AO2 SLP206 T01560083 10189 20150 52002=
201007151053 METAR KSEA 151053Z 03007KT 10SM CLR 16/08 A3013 RMK AO2 SLP206 T01610083=
201007150953 METAR KSEA 150953Z 36006KT 10SM CLR 16/08 A3012 RMK AO2 SLP205 T01610078=
201007150853 METAR KSEA 150853Z 02008KT 10SM CLR 17/08 A3012 RMK AO2 SLP204 T01670078 52001=
201007150753 METAR KSEA 150753Z 01010KT 10SM CLR 18/08 A3012 RMK AO2 SLP204 T01780078 402670117=
201007150653 METAR KSEA 150653Z 01007KT 10SM CLR 18/07 A3012 RMK AO2 SLP204 T01830072=
201007150553 METAR KSEA 150553Z 35006KT 10SM CLR 18/06 A3012 RMK AO2 SLP203 T01830061 10267 20178 53004=
201007150453 METAR KSEA 150453Z 01007KT 10SM CLR 21/06 A3011 RMK AO2 SLP202 T02060056=
201007150353 METAR KSEA 150353Z 36007KT 10SM CLR 22/06 A3010 RMK AO2 SLP198 T02170061=
201007150253 METAR KSEA 150253Z 35007KT 10SM CLR 24/06 A3011 RMK AO2 SLP200 T02440061 58011=
201007150153 METAR KSEA 150153Z 36009KT 10SM CLR 26/06 A3012 RMK AO2 SLP203 T02560061=
201007150053 METAR KSEA 150053Z 32008KT 10SM CLR 26/07 A3013 RMK AO2 SLP208 T02610072=
201007142353 METAR KSEA 142353Z 36009KT 10SM CLR 26/07 A3014 RMK AO2 SLP211 T02610067 10267 20194 58012=
201007142253 METAR KSEA 142253Z 01009KT 10SM CLR 26/07 A3015 RMK AO2 SLP215 T02560072=
201007142153 METAR KSEA 142153Z 31007KT 290V350 10SM CLR 25/08 A3016 RMK AO2 SLP218 T02500083=
201007142053 METAR KSEA 142053Z 31008KT 10SM CLR 23/09 A3017 RMK AO2 SLP222 T02330089 58011=
201007141953 METAR KSEA 141953Z 29009KT 10SM CLR 22/09 A3019 RMK AO2 SLP226 T02220089=
201007141853 METAR KSEA 141853Z 29008KT 10SM CLR 21/09 A3020 RMK AO2 SLP231 T02060089=
201007141753 METAR KSEA 141753Z 31007KT 10SM CLR 19/09 A3021 RMK AO2 SLP233 T01940089 10200 20117 58004=
201007141653 METAR KSEA 141653Z VRB05KT 10SM CLR 19/07 A3022 RMK AO2 SLP237 T01940072=
201007141553 METAR KSEA 141553Z 03007KT 10SM CLR 18/08 A3022 RMK AO2 SLP237 T01780078=
201007141453 METAR KSEA 141453Z 30003KT 10SM CLR 16/09 A3022 RMK AO2 SLP239 T01560089 53006=
201007141353 METAR KSEA 141353Z 00000KT 10SM CLR 13/08 A3021 RMK AO2 SLP236 T01330083=
201007141253 METAR KSEA 141253Z 32003KT 10SM CLR 12/08 A3020 RMK AO2 SLP233 T01220078=
201007141153 METAR KSEA 141153Z 00000KT 10SM CLR 13/07 A3020 RMK AO2 SLP233 T01280072 10172 20128 53003=
201007141053 METAR KSEA 141053Z 04005KT 10SM CLR 14/07 A3019 RMK AO2 SLP230 T01390072=
201007140953 METAR KSEA 140953Z 05007KT 10SM CLR 14/07 A3019 RMK AO2 SLP229 T01440072=
201007140853 METAR KSEA 140853Z 04006KT 10SM CLR 15/08 A3019 RMK AO2 SLP229 T01500078 50005=
201007140753 METAR KSEA 140753Z 02008KT 10SM CLR 15/07 A3019 RMK AO2 SLP230 T01500067 402110100=
201007140653 METAR KSEA 140653Z 01006KT 10SM CLR 16/06 A3018 RMK AO2 SLP227 T01610061=
201007140553 METAR KSEA 140553Z 01005KT 10SM CLR 17/06 A3018 RMK AO2 SLP224 T01670061 10206 20161 52005=
201007140453 METAR KSEA 140453Z 36005KT 10SM CLR 17/06 A3017 RMK AO2 SLP223 T01720056=
201007140353 METAR KSEA 140353Z 33005KT 10SM FEW250 18/05 A3016 RMK AO2 SLP219 T01780050=
201007140253 METAR KSEA 140253Z 31008KT 10SM FEW050 SCT250 19/06 A3016 RMK AO2 SLP219 T01890061 55000=
201007140153 METAR KSEA 140153Z 30008KT 10SM FEW050 SCT250 19/07 A3016 RMK AO2 SLP219 T01940067=
201007140053 METAR KSEA 140053Z 28006KT 10SM FEW050 SCT250 20/06 A3016 RMK AO2 SLP218 T02000061=
201007132353 METAR KSEA 132353Z 30008KT 10SM FEW050 BKN250 21/07 A3016 RMK AO2 SLP219 T02060067 10211 20150 58001=
201007132253 METAR KSEA 132253Z 27007KT 10SM SCT046 BKN250 21/06 A3017 RMK AO2 SLP220 T02060061=
201007132153 METAR KSEA 132153Z 22004KT 10SM SCT040 BKN250 19/07 A3017 RMK AO2 SLP222 T01940067=
201007132053 METAR KSEA 132053Z 28008KT 10SM SCT035 BKN250 19/07 A3017 RMK AO2 SLP220 T01890072 58001=
201007131953 METAR KSEA 131953Z VRB03KT 10SM SCT025 SCT250 18/08 A3017 RMK AO2 SLP221 T01780083=
201007131853 METAR KSEA 131853Z 19006KT 10SM SCT022 SCT055 SCT250 16/08 A3018 RMK AO2 SLP225 T01610083=
201007131825 SPECI KSEA 131825Z VRB03KT 10SM BKN020 BKN055 16/08 A3018 RMK AO2=
201007131825 SPECI KSEA 131825Z VRB03KT 10SM BKN020 BKN055 16/08 A3018 RMK AO2=
201007131753 METAR KSEA 131753Z 23003KT 10SM SCT018 BKN055 14/08 A3017 RMK AO2 SLP223 T01440083 10156 20100 51011=
201007131724 SPECI KSEA 131724Z 20006KT 10SM SCT017 BKN055 14/08 A3016 RMK AO2=
201007131724 SPECI KSEA 131724Z 20006KT 10SM SCT017 BKN055 14/08 A3016 RMK AO2=
201007131653 METAR KSEA 131653Z 21005KT 10SM BKN016 BKN022 OVC055 13/08 A3016 RMK AO2 SLP220 T01280083=
201007131553 METAR KSEA 131553Z 22004KT 10SM BKN016 OVC024 13/08 A3016 RMK AO2 SLP218 T01280078=
201007131453 METAR KSEA 131453Z 19005KT 10SM BKN015 OVC022 12/08 A3014 RMK AO2 SLP211 T01220078 53010=
201007131353 METAR KSEA 131353Z 17007KT 10SM FEW015 OVC021 12/08 A3012 RMK AO2 SLP205 T01170078 $=
201007131309 SPECI KSEA 131309Z 16005KT 10SM BKN025 11/07 A3012 RMK AO2 $=
201007131309 SPECI KSEA 131309Z 16005KT 10SM BKN025 11/07 A3012 RMK AO2 $=
201007131253 METAR KSEA 131253Z 17006KT 10SM SCT023 BKN070 10/07 A3011 RMK AO2 SLP203 T01000072 $=
201007131153 METAR KSEA 131153Z 17006KT 10SM FEW034 11/07 A3011 RMK AO2 SLP201 T01060067 10128 20106 51007 $=
201007131053 METAR KSEA 131053Z 17006KT 10SM OVC034 12/07 A3010 RMK AO2 SLP199 T01170072 $=
201007130953 METAR KSEA 130953Z 17006KT 10SM BKN032 BKN090 12/07 A3009 RMK AO2 SLP196 T01170072 $=
201007130930 SPECI KSEA 130930Z 15006KT 10SM FEW024 OVC030 12/07 A3010 RMK AO2 $=
201007130930 SPECI KSEA 130930Z 15006KT 10SM FEW024 OVC030 12/07 A3010 RMK AO2 $=
201007130853 METAR KSEA 130853Z 17006KT 10SM OVC028 12/07 A3009 RMK AO2 SLP193 T01220072 53006 $=
201007130753 METAR KSEA 130753Z 17010KT 10SM BKN028 12/07 A3008 RMK AO2 SLP191 T01220067 401940122 $=
201007130717 SPECI KSEA 130717Z 18010KT 10SM OVC028 13/07 A3008 RMK AO2 $=
201007130717 SPECI KSEA 130717Z 18010KT 10SM OVC028 13/07 A3008 RMK AO2 $=
201007130653 METAR KSEA 130653Z 21007KT 10SM SCT031 BKN065 13/07 A3007 RMK AO2 SLP188 T01280072 $=
201007130553 METAR KSEA 130553Z 22010KT 10SM BKN065 12/07 A3007 RMK AO2 SLP188 T01220072 10194 20122 51013 $=
201007130453 METAR KSEA 130453Z 22010KT 10SM BKN065 14/07 A3006 RMK AO2 SLP187 T01390072 $=
201007130353 METAR KSEA 130353Z 21014G19KT 10SM SCT045 BKN070 15/07 A3004 RMK AO2 SLP178 T01500067 $=
201007130253 METAR KSEA 130253Z 22012G20KT 10SM SCT049 BKN075 16/07 A3003 RMK AO2 SLP175 T01610067 53001 $=
201007130153 METAR KSEA 130153Z 21012KT 10SM FEW040 SCT075 17/07 A3002 RMK AO2 SLP171 T01720067 $=
201007130053 METAR KSEA 130053Z 21013G19KT 10SM FEW040 SCT070 18/07 A3002 RMK AO2 SLP171 T01780067 $=
201007122353 METAR KSEA 122353Z 23010G16KT 10SM FEW025 BKN075 18/07 A3003 RMK AO2 SLP174 T01830072 10194 20139 50001 $=
201007122253 METAR KSEA 122253Z 21011KT 10SM FEW025 BKN065 18/07 A3003 RMK AO2 SLP176 T01830072 $=
201007122153 METAR KSEA 122153Z 20009KT 10SM FEW025 BKN046 BKN065 18/07 A3003 RMK AO2 SLP173 T01780067 $=
201007122053 METAR KSEA 122053Z 21010KT 10SM BKN038 BKN050 17/07 A3002 RMK AO2 SLP172 T01670072 51013 $=
201007121953 METAR KSEA 121953Z 21010KT 10SM BKN035 BKN043 17/07 A3001 RMK AO2 SLP167 T01670072 $=
201007121909 SPECI KSEA 121909Z 21010KT 10SM BKN031 OVC039 16/07 A3001 RMK AO2 $=
201007121909 SPECI KSEA 121909Z 21010KT 10SM BKN031 OVC039 16/07 A3001 RMK AO2 $=
201007121853 METAR KSEA 121853Z 23010KT 10SM BKN029 OVC035 16/07 A3000 RMK AO2 SLP166 T01610072 $=
201007121753 METAR KSEA 121753Z 21010KT 10SM BKN025 OVC031 15/07 A2998 RMK AO2 RAB06E32 SLP159 P0000 60000 T01500072 10150 20122 53009 $=
201007121653 METAR KSEA 121653Z 23011KT 10SM BKN021 OVC028 13/08 A2998 RMK AO2 SLP157 T01330078 $=
201007121553 METAR KSEA 121553Z 21013G16KT 10SM BKN022 OVC028 13/08 A2996 RMK AO2 RAB11E31 SLP150 P0000 T01280078 $=
201007121453 METAR KSEA 121453Z 20014G19KT 10SM OVC021 13/08 A2996 RMK AO2 SLP150 T01280078 53006 $=
201007121353 METAR KSEA 121353Z 20009KT 10SM OVC020 13/08 A2995 RMK AO2 SLP147 T01280078 $=
201007121253 METAR KSEA 121253Z 19011KT 10SM OVC019 13/08 A2993 RMK AO2 SLP141 T01280078 $=
201007121153 METAR KSEA 121153Z 17008KT 10SM SCT010 OVC017 12/08 A2994 RMK AO2 SLP143 60000 T01220083 10161 20122 53003 $=
201007121139 SPECI KSEA 121139Z 19011KT 10SM SCT010 OVC017 13/08 A2994 RMK AO2 $=
201007121139 SPECI KSEA 121139Z 19011KT 10SM SCT010 OVC017 13/08 A2994 RMK AO2 $=
201007121053 METAR KSEA 121053Z 20013G17KT 10SM FEW009 BKN012 OVC020 13/08 A2993 RMK AO2 DZE47 SLP139 P0000 T01280083 $=
201007121047 SPECI KSEA 121047Z 21009G17KT 10SM FEW009 BKN012 OVC020 12/08 A2993 RMK AO2 DZE47 P0000 $=
201007121047 SPECI KSEA 121047Z 21009G17KT 10SM FEW009 BKN012 OVC020 12/08 A2993 RMK AO2 DZE47 P0000 $=
201007120953 METAR KSEA 120953Z 22009KT 8SM -DZ OVC010 13/11 A2993 RMK AO2 CIG 006V012 SLP140 P0000 T01280106 $=
201007120948 SPECI KSEA 120948Z 22011KT 5SM -DZ BR OVC010 13/11 A2993 RMK AO2 CIG 005V012 P0000 $=
201007120948 SPECI KSEA 120948Z 22011KT 5SM -DZ BR OVC010 13/11 A2993 RMK AO2 CIG 005V012 P0000 $=
201007120853 METAR KSEA 120853Z 22010KT 4SM -DZ BR OVC006 13/12 A2992 RMK AO2 CIG 003V010 SLP137 P0000 60000 T01330122 56002 $=
201007120753 METAR KSEA 120753Z 22007KT 4SM -DZ BR OVC006 14/13 A2992 RMK AO2 SLP137 P0000 T01440133 402330139 $=
201007120653 METAR KSEA 120653Z 23008KT 6SM -DZ BKN008 OVC010 16/13 A2993 RMK AO2 DZB50 SLP140 P0000 T01560128 $=
201007120633 SPECI KSEA 120633Z 22009KT 10SM BKN008 OVC010 16/13 A2993 RMK AO2 $=
201007120633 SPECI KSEA 120633Z 22009KT 10SM BKN008 OVC010 16/13 A2993 RMK AO2 $=
201007120611 SPECI KSEA 120611Z 22010KT 10SM SCT008 OVC012 16/13 A2993 RMK AO2 $=
201007120611 SPECI KSEA 120611Z 22010KT 10SM SCT008 OVC012 16/13 A2993 RMK AO2 $=
201007120553 METAR KSEA 120553Z 21009KT 10SM BKN012 OVC030 16/13 A2993 RMK AO2 SLP140 T01610133 10206 20161 51006 $=
201007120522 SPECI KSEA 120522Z 24010KT 10SM BKN012 OVC030 16/13 A2993 RMK AO2 $=
201007120522 SPECI KSEA 120522Z 24010KT 10SM BKN012 OVC030 16/13 A2993 RMK AO2 $=
201007120453 METAR KSEA 120453Z 23009KT 10SM OVC030 17/13 A2992 RMK AO2 SLP138 T01670133 $=
201007120450 SPECI KSEA 120450Z 23009KT 10SM OVC030 17/13 A2992 RMK AO2 $=
201007120450 SPECI KSEA 120450Z 23009KT 10SM OVC030 17/13 A2992 RMK AO2 $=
201007120353 METAR KSEA 120353Z 20010KT 10SM OVC026 17/14 A2991 RMK AO2 SLP134 T01720139 $=
201007120253 METAR KSEA 120253Z 21008KT 10SM OVC024 19/14 A2991 RMK AO2 SLP135 T01940139 58010 $=
201007120153 METAR KSEA 120153Z 22007KT 10SM BKN020 19/14 A2993 RMK AO2 SLP139 T01890139 $=
201007120053 METAR KSEA 120053Z 25009KT 10SM SCT020 19/14 A2994=
201007112353 METAR KSEA 112353Z 25011KT 10SM FEW020 SCT090 20/14 A2994 RMK AO2 SLP144 T02000144 10233 20167 56010 $=
201007112253 METAR KSEA 112253Z 26010KT 10SM FEW020 SCT090 22/15 A2995 RMK AO2 SLP147 T02170150 $=
201007112153 METAR KSEA 112153Z 23005KT 10SM FEW020 SCT090 23/15 A2996 RMK AO2 SLP149 T02280150 $=
201007112053 METAR KSEA 112053Z 23007KT 10SM FEW016 SCT050 22/15 A2997 RMK AO2 SLP154 T02220150 58009 $=
201007111953 METAR KSEA 111953Z 24005KT 10SM SCT011 BKN050 21/14 A2998 RMK AO2 SLP158 T02060144 $=
201007111911 SPECI KSEA 111911Z 28007KT 10SM OVC011 19/14 A3001 RMK AO2 $=
201007111911 SPECI KSEA 111911Z 28007KT 10SM OVC011 19/14 A3001 RMK AO2 $=
201007111853 METAR KSEA 111853Z VRB04KT 10SM FEW006 OVC009 18/14 A3000 RMK AO2 SLP162 T01830144 $=
201007111824 SPECI KSEA 111824Z 19005KT 10SM SCT006 OVC009 17/14 A3000 RMK AO2 $=
201007111824 SPECI KSEA 111824Z 19005KT 10SM SCT006 OVC009 17/14 A3000 RMK AO2 $=
201007111753 METAR KSEA 111753Z 22007KT 10SM OVC003 17/14 A3000 RMK AO2 SLP163 T01670139 10167 20139 58003 $=
201007111751 SPECI KSEA 111751Z 22007KT 10SM OVC003 16/14 A3000 RMK AO2 $=
201007111751 SPECI KSEA 111751Z 22007KT 10SM OVC003 16/14 A3000 RMK AO2 $=
201007111708 SPECI KSEA 111708Z 22008KT 2SM OVC003 15/14 A3001 RMK AO2 SFC VIS 10 $=
201007111708 SPECI KSEA 111708Z 22008KT 2SM OVC003 15/14 A3001 RMK AO2 SFC VIS 10 $=
201007111653 METAR KSEA 111653Z 22008KT 1 1/4SM BR OVC002 15/14 A3002 RMK AO2 SFC VIS 4 SLP168 T01500139 $=
201007111645 SPECI KSEA 111645Z 23007KT 1 1/4SM BR OVC001 15/14 A3002 RMK AO2 SFC VIS 2 $=
201007111645 SPECI KSEA 111645Z 23007KT 1 1/4SM BR OVC001 15/14 A3002 RMK AO2 SFC VIS 2 $=
201007111641 SPECI KSEA 111641Z 23007KT 2SM BR OVC001 15/14 A3001 RMK AO2 $=
201007111641 SPECI KSEA 111641Z 23007KT 2SM BR OVC001 15/14 A3001 RMK AO2 $=
201007111553 METAR KSEA 111553Z 22005KT 3/4SM R16C/2400V4000FT BR OVC001 14/14 A3001 RMK AO2 SLP166 T01440144 $=
201007111453 METAR KSEA 111453Z 21007KT 1/2SM R16C/2200V4500FT FG VV001 14/14 A3001 RMK AO2 SLP165 T01440139 53001 $=
201007111415 SPECI KSEA 111415Z 22006KT 1/4SM R16C/1200V2400FT FG VV001 14/14 A3001 RMK AO2 $=
201007111415 SPECI KSEA 111415Z 22006KT 1/4SM R16C/1200V2400FT FG VV001 14/14 A3001 RMK AO2 $=
201007111353 METAR KSEA 111353Z 20006KT 1/4SM R16C/1000V1400FT FG VV001 14/14 A3000 RMK AO2 SLP164 T01440139 $=
201007111324 SPECI KSEA 111324Z 22005KT 1/4SM R16C/1200V2200FT FG VV001 14/14 A3000 RMK AO2 $=
201007111324 SPECI KSEA 111324Z 22005KT 1/4SM R16C/1200V2200FT FG VV001 14/14 A3000 RMK AO2 $=
201007111253 METAR KSEA 111253Z 21005KT 1/8SM R16C/1200V2000FT FG VV001 14/14 A3000 RMK AO2 SLP164 T01440139 $=
201007111241 SPECI KSEA 111241Z 21006KT 1/8SM R16C/1000V1600FT FG VV001 14/14 A3000 RMK AO2 $=
201007111241 SPECI KSEA 111241Z 21006KT 1/8SM R16C/1000V1600FT FG VV001 14/14 A3000 RMK AO2 $=
201007111232 SPECI KSEA 111232Z 21005KT 1/4SM R16C/1200V1600FT FG VV001 14/14 A3000 RMK AO2 $=
201007111232 SPECI KSEA 111232Z 21005KT 1/4SM R16C/1200V1600FT FG VV001 14/14 A3000 RMK AO2 $=
201007111214 SPECI KSEA 111214Z 21005KT 1/4SM R16C/1600V2800FT FG VV001 14/14 A3000 RMK AO2 $=
201007111214 SPECI KSEA 111214Z 21005KT 1/4SM R16C/1600V2800FT FG VV001 14/14 A3000 RMK AO2 $=
201007111153 METAR KSEA 111153Z 19005KT 1/4SM R16C/1800V4500FT FG VV001 15/14 A3000 RMK AO2 SLP164 T01500144 10189 20150 53003 $=
201007111131 SPECI KSEA 111131Z 23006KT 1/2SM R16C/3000VP6000FT BR OVC002 15/14 A3000 RMK AO2 $=
201007111131 SPECI KSEA 111131Z 23006KT 1/2SM R16C/3000VP6000FT BR OVC002 15/14 A3000 RMK AO2 $=
201007111116 SPECI KSEA 111116Z 20005KT 1SM BR BKN002 15/14 A3000 RMK AO2 SFC VIS 1 1/2 $=
201007111116 SPECI KSEA 111116Z 20005KT 1SM BR BKN002 15/14 A3000 RMK AO2 SFC VIS 1 1/2 $=
201007111109 SPECI KSEA 111109Z 19005KT 7SM BCFG BKN001 15/14 A3000 RMK AO2 $=
201007111109 SPECI KSEA 111109Z 19005KT 7SM BCFG BKN001 15/14 A3000 RMK AO2 $=
201007111053 METAR KSEA 111053Z 21004KT 7SM BCFG SCT003 15/14 A3000 RMK AO2 SLP163 FG BANK SE-SW T01500144 $=
201007111019 SPECI KSEA 111019Z 00000KT 10SM FEW003 SCT025 BKN090 16/14 A3000 RMK AO2 $=
201007111019 SPECI KSEA 111019Z 00000KT 10SM FEW003 SCT025 BKN090 16/14 A3000 RMK AO2 $=
201007110953 METAR KSEA 110953Z 25003KT 10SM CLR 16/14 A3000 RMK AO2 SLP161 T01610144 $=
201007110853 METAR KSEA 110853Z 27003KT 10SM CLR 17/13 A2999 RMK AO2 SLP161 T01670133 51001 $=
201007110753 METAR KSEA 110753Z 29004KT 10SM CLR 18/13 A2999=
201007110653 METAR KSEA 110653Z 26005KT 10SM FEW200 18/14 A2999 RMK AO2 SLP161 T01830139 $=
201007110553 METAR KSEA 110553Z 30004KT 10SM FEW200 19/14 A2999 RMK AO2 SLP160 T01940139 10272 20194 51008 $=
201007110453 METAR KSEA 110453Z 19003KT 10SM FEW200 21/15 A2999 RMK AO2 SLP158 T02110150 $=
201007110353 METAR KSEA 110353Z 29004KT 10SM FEW080 SCT200 23/14 A2997 RMK AO2 SLP154 T02330139 $=
201007110253 METAR KSEA 110253Z 27003KT 10SM FEW080 SCT200 25/14 A2997 RMK AO2 SLP152 T02500144 56004 $=
201007110153 METAR KSEA 110153Z 20003KT 10SM FEW050 SCT200 26/13 A2997 RMK AO2 SLP151 T02610133 $=
201007110053 METAR KSEA 110053Z VRB04KT 10SM FEW050 SCT200 27/13 A2997 RMK AO2 SLP152 T02720133 $=
201007102353 METAR KSEA 102353Z 26006KT 10SM FEW050 SCT200 26/13 A2998 RMK AO2 SLP155 T02610133 10267 20206 58010 $=
201007102253 METAR KSEA 102253Z 31005KT 10SM FEW050 SCT200 26/13 A3000 RMK AO2 SLP161 T02610128 $=
201007102153 METAR KSEA 102153Z 27005KT 10SM FEW200 26/13 A3000 RMK AO2 SLP162 T02560133 $=
201007102053 METAR KSEA 102053Z 30006KT 10SM FEW200 25/13 A3001 RMK AO2 SLP165 T02500133 58005 $=
201007101953 METAR KSEA 101953Z 25005KT 10SM FEW180 23/13 A3002 RMK AO2 SLP169 T02280133 $=
201007101853 METAR KSEA 101853Z 24005KT 10SM FEW120 22/14 A3003 RMK AO2 SLP171 T02170139 $=
201007101753 METAR KSEA 101753Z 22004KT 10SM FEW120 21/13 A3003 RMK AO2 SLP171 T02060128 10206 20167 50004 $=
201007101653 METAR KSEA 101653Z 21009KT 10SM FEW030 SCT150 19/13 A3003 RMK AO2 SLP171 T01940128 $=
201007101553 METAR KSEA 101553Z 21008KT 10SM FEW020 SCT160 18/12 A3002 RMK AO2 SLP169 T01830122 $=
201007101453 METAR KSEA 101453Z 21007KT 10SM BKN160 17/13 A3001 RMK AO2 SLP167 T01720128 51007 $=
201007101353 METAR KSEA 101353Z 24005KT 10SM BKN120 17/12 A3001 RMK AO2 SLP164 T01670122 $=
201007101253 METAR KSEA 101253Z 21005KT 10SM FEW065 BKN120 OVC200 17/12 A3000 RMK AO2 SLP163 T01720117 $=
201007101153 METAR KSEA 101153Z 20004KT 10SM BKN065 OVC200 17/12 A2999 RMK AO2 RAB38E51 SLP158 P0000 60000 T01720117 10244 20172 51009 $=
201007101053 METAR KSEA 101053Z 00000KT 10SM FEW090 OVC230 18/11 A2999 RMK AO2 SLP157 T01780106 $=
201007100953 METAR KSEA 100953Z 29004KT 10SM SCT090 OVC230 17/11 A2998 RMK AO2 SLP154 T01720111 $=
201007100853 METAR KSEA 100853Z 00000KT 10SM SCT090 OVC230 19/12 A2996 RMK AO2 SLP150 T01890117 50006 $=
201007100753 METAR KSEA 100753Z 00000KT 10SM SCT085 OVC230 19/12 A2997 RMK AO2 SLP153 T01890117 403390167 $=
201007100653 METAR KSEA 100653Z 01003KT 10SM FEW085 23/09 A2995 RMK AO2 SLP147 T02280089 $=
201007100553 METAR KSEA 100553Z 05010KT 10SM BKN250 24/09 A2995 RMK AO2 SLP143 T02440089 10339 20244 53003 $=
201007100453 METAR KSEA 100453Z 05011G16KT 10SM BKN250 26/11 A2994 RMK AO2 SLP141 T02610111 $=
201007100353 METAR KSEA 100353Z 36012KT 10SM BKN250 26/12 A2994 RMK AO2 SLP142 T02560122 $=
201007100253 METAR KSEA 100253Z 35006KT 10SM BKN250 28/12 A2994 RMK AO2 SLP141 T02830122 55002 $=
201007100153 METAR KSEA 100153Z 33006KT 10SM CLR 31/10 A2993 RMK AO2 SLP138 T03060100 $=
201007100053 METAR KSEA 100053Z 36009KT 10SM BKN250 32/09 A2994 RMK AO2 SLP142 T03170089 $=
201007092353 METAR KSEA 092353Z 33007KT 10SM SCT250 33/09 A2994 RMK AO2 SLP142 T03330094 10339 20267 57009 $=
201007092253 METAR KSEA 092253Z 35007KT 10SM FEW250 33/11 A2995 RMK AO2 SLP145 T03330106 $=
201007092153 METAR KSEA 092153Z 29008KT 10SM FEW250 31/12 A2996 RMK AO2 SLP149 T03110122 $=
201007092053 METAR KSEA 092053Z 28009KT 10SM FEW250 30/13 A2997 RMK AO2 SLP151 T03000128 56007 $=
201007091953 METAR KSEA 091953Z 28007KT 10SM FEW250 29/13 A2998 RMK AO2 SLP153 T02890133 $=
201007091853 METAR KSEA 091853Z 28007KT 10SM FEW250 27/14 A2998 RMK AO2 SLP155 T02720144 $=
201007091753 METAR KSEA 091753Z 30004KT 10SM FEW200 27/14 A2999 RMK AO2 SLP159 T02670139 10267 20167 58004 $=
201007091653 METAR KSEA 091653Z 00000KT 10SM FEW200 24/14 A3000 RMK AO2 SLP162 T02390139 $=
201007091553 METAR KSEA 091553Z 18004KT 10SM FEW200 21/13 A3000 RMK AO2 SLP163 T02110133 $=
201007091453 METAR KSEA 091453Z 17004KT 10SM FEW200 20/14 A3000 RMK AO2 SLP162 T02000144 51011 $=
201007091353 METAR KSEA 091353Z 20004KT 10SM FEW120 18/14 A3000 RMK AO2 SLP161 T01830139 $=
201007091253 METAR KSEA 091253Z 17003KT 10SM CLR 17/13 A2998 RMK AO2 SLP155 T01720133 $=
201007091153 METAR KSEA 091153Z 16004KT 10SM CLR 18/13 A2997 RMK AO2 SLP152 T01780133 10272 20172 53006 $=
201007091053 METAR KSEA 091053Z 15005KT 10SM CLR 20/14 A2996 RMK AO2 SLP148 T02000139 $=
201007090953 METAR KSEA 090953Z 00000KT 10SM CLR 22/13 A2996 RMK AO2 SLP147 T02170128 $=
201007090853 METAR KSEA 090853Z 00000KT 10SM CLR 22/13 A2995 RMK AO2 SLP146 T02170128 53005 $=
201007090753 METAR KSEA 090753Z 05004KT 10SM CLR 24/12 A2995 RMK AO2 SLP144 T02440117 403500172 $=
201007090653 METAR KSEA 090653Z 02008KT 10SM CLR 24/12 A2994 RMK AO2 SLP141 T02440117 $=
201007090553 METAR KSEA 090553Z 01006KT 10SM CLR 23/12 A2994 RMK AO2 SLP140 T02330117 10350 20233 53009 $=
201007090453 METAR KSEA 090453Z 01005KT 10SM FEW150 26/11 A2993 RMK AO2 SLP137 T02560111 $=
201007090353 METAR KSEA 090353Z 34006KT 10SM FEW150 28/12 A2991 RMK AO2 SLP132 T02780117 $=
201007090253 METAR KSEA 090253Z 33008KT 10SM FEW060 32/11 A2991 RMK AO2 SLP131 T03170106 55003 $=
201007090153 METAR KSEA 090153Z 33010KT 10SM FEW060 33/09 A2991 RMK AO2 SLP130 T03330089 $=
201007090053 METAR KSEA 090053Z 32007KT 10SM FEW060 34/05 A2991 RMK AO2 SLP130 T03440050 $=
201007082353 METAR KSEA 082353Z 33009KT 10SM FEW060 35/06 A2992 RMK AO2 SLP134 T03500056 10350 20272 58011 $=
201007082253 METAR KSEA 082253Z 36010KT 10SM FEW050 34/06 A2994 RMK AO2 SLP140 T03440061 $=
201007082153 METAR KSEA 082153Z 35008KT 320V030 10SM FEW050 33/08 A2995 RMK AO2 SLP143 T03330083 $=
201007082053 METAR KSEA 082053Z 36009KT 10SM FEW050 33/08 A2995 RMK AO2 SLP145 T03280083 58006 $=
201007081953 METAR KSEA 081953Z 03007KT 10SM CLR 32/12 A2996 RMK AO2 SLP149 T03170122 $=
201007081853 METAR KSEA 081853Z 34006KT 10SM CLR 29/12 A2997 RMK AO2 SLP151 T02940117 $=
201007081753 METAR KSEA 081753Z 27005KT 10SM CLR 27/13 A2997 RMK AO2 SLP152 T02720133 10272 20172 58002=
201007081653 METAR KSEA 081653Z 29003KT 10SM CLR 25/13 A2998 RMK AO2 SLP154 T02500133=
201007081553 METAR KSEA 081553Z 00000KT 10SM CLR 25/12 A2998 RMK AO2 SLP155 T02500122=
201007081453 METAR KSEA 081453Z 04004KT 10SM CLR 23/12 A2998 RMK AO2 SLP154 T02280122 52007=
201007081353 METAR KSEA 081353Z 02006KT 10SM CLR 21/12 A2997 RMK AO2 SLP152 T02060122=
201007081253 METAR KSEA 081253Z 35005KT 10SM CLR 18/12 A2997 RMK AO2 SLP151 T01780122 $=
201007081153 METAR KSEA 081153Z 01003KT 10SM CLR 20/12 A2996 RMK AO2 SLP147 T02000117 10261 20183 50001 $=
201007081053 METAR KSEA 081053Z 01008KT 10SM CLR 21/11 A2996 RMK AO2 SLP148 T02060111 $=
201007080953 METAR KSEA 080953Z 36007KT 10SM CLR 19/11 A2996 RMK AO2 SLP147 T01940111 $=
201007080853 METAR KSEA 080853Z 36007KT 10SM CLR 20/11 A2996 RMK AO2 SLP147 T02000106 53006 $=
201007080753 METAR KSEA 080753Z 02011KT 10SM CLR 24/10 A2995 RMK AO2 SLP144 T02390100 403220150 $=
201007080653 METAR KSEA 080653Z 35007KT 10SM CLR 23/12 A2994 RMK AO2 SLP141 T02280117 $=
201007080553 METAR KSEA 080553Z 02011KT 10SM CLR 26/11 A2994 RMK AO2 SLP139 T02610111 10317 20261 53009 $=
201007080453 METAR KSEA 080453Z 03011KT 10SM CLR 27/10 A2992 RMK AO2 SLP135 T02720100 $=
201007080353 METAR KSEA 080353Z 01010KT 10SM CLR 28/09 A2991 RMK AO2 SLP132 T02830094 $=
201007080253 METAR KSEA 080253Z 36011KT 10SM CLR 29/12 A2991 RMK AO2 SLP131 T02940117 55003 $=
201007080153 METAR KSEA 080153Z 35013KT 10SM CLR 31/09 A2991 RMK AO2 SLP131 T03060089 $=
201007080053 METAR KSEA 080053Z 34016G21KT 10SM CLR 32/06 A2991 RMK AO2 SLP132 T03170061 $=
201007072353 METAR KSEA 072353Z 35018G23KT 10SM CLR 32/07 A2992 RMK AO2 SLP135 T03170067 10322 20256 58015 $=
201007072253 METAR KSEA 072253Z 35015KT 10SM CLR 32/10 A2994 RMK AO2 SLP141 T03170100 $=
201007072153 METAR KSEA 072153Z 34014KT 10SM CLR 31/13 A2995 RMK AO2 SLP145 T03060128 $=
201007072053 METAR KSEA 072053Z 35013KT 10SM CLR 29/14 A2996 RMK AO2 SLP150 T02940139 58012 $=
201007071953 METAR KSEA 071953Z 35015KT 10SM CLR 28/13 A2998 RMK AO2 SLP156 T02830128=
201007071853 METAR KSEA 071853Z 01016KT 10SM CLR 28/12 A3000 RMK AO2 SLP161 T02780117=
201007071753 METAR KSEA 071753Z 36017KT 10SM CLR 26/12 A3000 RMK AO2 SLP162 T02610117 10261 20150 58007=
201007071653 METAR KSEA 071653Z 36013KT 10SM CLR 23/12 A3001 RMK AO2 SLP166 T02330117=
201007071553 METAR KSEA 071553Z 01016KT 10SM CLR 21/11 A3002 RMK AO2 SLP169 T02110111=
201007071453 METAR KSEA 071453Z 36013KT 10SM CLR 19/11 A3002 RMK AO2 SLP169 T01940111 58000=
201007071353 METAR KSEA 071353Z 36008KT 10SM CLR 17/12 A3002 RMK AO2 SLP171 T01670117=
201007071253 METAR KSEA 071253Z 02008KT 10SM CLR 16/11 A3002 RMK AO2 SLP170 T01610111=
201007071153 METAR KSEA 071153Z 33005KT 10SM CLR 15/11 A3002 RMK AO2 SLP170 T01500106 10211 20150 58004=
201007071053 METAR KSEA 071053Z 01006KT 10SM CLR 16/09 A3003 RMK AO2 SLP173 T01610094=
201007070953 METAR KSEA 070953Z 02006KT 10SM CLR 17/10 A3003 RMK AO2 SLP173 T01720100=
201007070853 METAR KSEA 070853Z 36005KT 10SM CLR 17/09 A3003 RMK AO2 SLP175 T01720094 58004=
201007070753 METAR KSEA 070753Z 36006KT 10SM CLR 18/10 A3004 RMK AO2 SLP178 T01780100 402560106=
201007070653 METAR KSEA 070653Z 36007KT 10SM CLR 18/09 A3005 RMK AO2 SLP179 T01830094=
201007070553 METAR KSEA 070553Z 03010KT 10SM CLR 21/09 A3005 RMK AO2 SLP179 T02110094 10256 20206 55001=
201007070453 METAR KSEA 070453Z 01009KT 10SM CLR 21/10 A3005 RMK AO2 SLP178 T02110100=
201007070353 METAR KSEA 070353Z 01007KT 10SM CLR 23/10 A3004 RMK AO2 SLP178 T02280100=
201007070253 METAR KSEA 070253Z 36008KT 10SM CLR 24/08 A3005 RMK AO2 SLP180 T02390083 56015=
201007070153 METAR KSEA 070153Z 36010KT 10SM CLR 25/08 A3006 RMK AO2 SLP183 T02500083=
201007070053 METAR KSEA 070053Z 35011KT 10SM CLR 26/09 A3007 RMK AO2 SLP188 T02560094=
201007062353 METAR KSEA 062353Z 35012KT 10SM FEW040 25/10 A3010 RMK AO2 SLP196 T02500100 10256 20194 56020=
201007062253 METAR KSEA 062253Z 34012KT 10SM FEW040 25/11 A3012 RMK AO2 SLP203 T02500111=
201007062153 METAR KSEA 062153Z 35012KT 10SM FEW040 25/11 A3013 RMK AO2 SLP208 T02500111=
201007062053 METAR KSEA 062053Z 35012KT 10SM CLR 23/11 A3016 RMK AO2 SLP216 T02280106 58015=
201007061953 METAR KSEA 061953Z 34008KT 10SM CLR 22/10 A3017 RMK AO2 SLP222 T02170100=
201007061853 METAR KSEA 061853Z 35009KT 10SM CLR 21/11 A3018 RMK AO2 SLP226 T02110111=
201007061753 METAR KSEA 061753Z 01012KT 10SM CLR 19/10 A3020 RMK AO2 SLP232 T01940100 10194 20106 58009=
201007061653 METAR KSEA 061653Z 02010KT 10SM CLR 18/09 A3021 RMK AO2 SLP236 T01780089=
201007061553 METAR KSEA 061553Z 36004KT 10SM CLR 17/11 A3022 RMK AO2 SLP239 T01670106=
201007061453 METAR KSEA 061453Z 02005KT 10SM CLR 15/10 A3023 RMK AO2 SLP241 T01500100 53001=
201007061353 METAR KSEA 061353Z 05006KT 10SM CLR 13/09 A3023 RMK AO2 SLP241 T01280094=
201007061253 METAR KSEA 061253Z 03006KT 10SM CLR 12/09 A3022 RMK AO2 SLP240 T01170089=
201007061153 METAR KSEA 061153Z 01004KT 10SM CLR 12/08 A3022 RMK AO2 SLP240 T01170083 10156 20117 50000=
201007061053 METAR KSEA 061053Z 04006KT 10SM CLR 13/09 A3022 RMK AO2 SLP240 T01280089=
201007060953 METAR KSEA 060953Z 03007KT 10SM CLR 13/09 A3023 RMK AO2 SLP241 T01330089=
201007060853 METAR KSEA 060853Z 05006KT 10SM CLR 13/09 A3022 RMK AO2 SLP240 T01330089 57004=
201007060753 METAR KSEA 060753Z 05007KT 10SM CLR 14/08 A3023 RMK AO2 SLP242 T01390083 401830106=
201007060653 METAR KSEA 060653Z 03007KT 10SM CLR 15/08 A3023 RMK AO2 SLP243 T01500078=
201007060553 METAR KSEA 060553Z 03008KT 10SM CLR 15/08 A3024 RMK AO2 SLP244 T01500078 10183 20144 53006=
201007060453 METAR KSEA 060453Z 36008KT 10SM FEW250 14/08 A3023 RMK AO2 SLP243 T01440083=
201007060353 METAR KSEA 060353Z 35007KT 10SM FEW035 SCT250 16/08 A3022 RMK AO2 SLP239 T01560083=
201007060253 METAR KSEA 060253Z 36009KT 10SM FEW035 SCT250 17/08 A3022 RMK AO2 SLP238 T01720078 55006=
201007060153 METAR KSEA 060153Z 33007KT 10SM FEW035 18/09 A3022 RMK AO2 SLP237 T01780089=
201007060053 METAR KSEA 060053Z 29009KT 10SM SCT033 18/09 A3023 RMK AO2 SLP241 T01780089=
201007052353 METAR KSEA 052353Z 32007KT 10SM SCT033 18/09 A3024 RMK AO2 SLP244 T01780094 10178 20128 58005=
201007052253 METAR KSEA 052253Z 28005KT 10SM FEW027 SCT037 BKN120 17/09 A3024 RMK AO2 SLP246 T01720094=
201007052153 METAR KSEA 052153Z 28004KT 10SM SCT021 BKN035 16/09 A3025 RMK AO2 SLP251 T01610094=
201007052146 SPECI KSEA 052146Z 34004KT 10SM SCT021 BKN035 16/09 A3025 RMK AO2=
201007052146 SPECI KSEA 052146Z 34004KT 10SM SCT021 BKN035 16/09 A3025 RMK AO2=
201007052053 METAR KSEA 052053Z 00000KT 10SM BKN023 OVC035 15/09 A3025 RMK AO2 SLP251 T01500094 50001=
201007051953 METAR KSEA 051953Z VRB03KT 10SM BKN022 OVC028 14/09 A3025 RMK AO2 SLP252 T01390089=
201007051853 METAR KSEA 051853Z 18003KT 10SM BKN017 OVC023 13/09 A3026 RMK AO2 SLP252 T01330089=
201007051753 METAR KSEA 051753Z 00000KT 10SM BKN017 OVC025 13/09 A3025 RMK AO2 SLP250 T01330089 10133 20106 53005=
201007051653 METAR KSEA 051653Z 21003KT 10SM BKN017 OVC025 11/09 A3024 RMK AO2 SLP247 T01110089=
201007051553 METAR KSEA 051553Z 24003KT 10SM BKN017 OVC022 11/08 A3024 RMK AO2 SLP245 T01110083=
201007051453 METAR KSEA 051453Z 23004KT 10SM BKN017 OVC022 12/08 A3023 RMK AO2 SLP244 T01170083 50002=
201007051353 METAR KSEA 051353Z 17004KT 10SM BKN017 OVC023 12/08 A3023 RMK AO2 SLP245 T01170083=
201007051253 METAR KSEA 051253Z 13006KT 10SM BKN025 OVC035 11/08 A3023 RMK AO2 SLP243 T01110078=
201007051153 METAR KSEA 051153Z 14005KT 10SM BKN025 OVC055 11/08 A3023 RMK AO2 SLP242 60000 70011 T01110083 10128 20111 50003=
201007051053 METAR KSEA 051053Z 17005KT 10SM OVC019 12/08 A3023 RMK AO2 SLP241 T01170083=
201007050953 METAR KSEA 050953Z 09004KT 8SM OVC015 12/09 A3023 RMK AO2 SLP241 T01170094=
201007050853 METAR KSEA 050853Z 19005KT 9SM FEW010 OVC030 11/09 A3021 RMK AO2 SLP237 60000 T01110089 51006=
201007050825 SPECI KSEA 050825Z 23006KT 10SM FEW008 OVC016 11/09 A3022 RMK AO2=
201007050825 SPECI KSEA 050825Z 23006KT 10SM FEW008 OVC016 11/09 A3022 RMK AO2=
201007050753 METAR KSEA 050753Z 21008KT 10SM SCT008 OVC012 11/09 A3021 RMK AO2 SLP236 T01110089 401830111=
201007050653 METAR KSEA 050653Z 23007KT 7SM SCT009 OVC014 12/10 A3021 RMK AO2 RAE31 SLP235 P0000 T01170100=
201007050553 METAR KSEA 050553Z VRB05G16KT 4SM -RA BR OVC009 13/11 A3020 RMK AO2 CIG 004V012 SLP232 P0004 60011 T01280111 10161 20128 53010=
201007050527 SPECI KSEA 050527Z 27003KT 4SM -RA BR BKN007 OVC012 14/13 A3019 RMK AO2 P0000=
201007050527 SPECI KSEA 050527Z 27003KT 4SM -RA BR BKN007 OVC012 14/13 A3019 RMK AO2 P0000=
201007050509 SPECI KSEA 050509Z 23007KT 6SM -RA BR SCT005 OVC012 14/12 A3019 RMK AO2 P0000=
201007050509 SPECI KSEA 050509Z 23007KT 6SM -RA BR SCT005 OVC012 14/12 A3019 RMK AO2 P0000=
201007050453 METAR KSEA 050453Z 19005KT 5SM -RA BR BKN004 OVC010 14/13 A3019 RMK AO2 RAB42 SLP229 P0000 T01440128=
201007050437 SPECI KSEA 050437Z 35004KT 5SM BR BKN004 OVC014 14/13 A3018 RMK AO2=
201007050437 SPECI KSEA 050437Z 35004KT 5SM BR BKN004 OVC014 14/13 A3018 RMK AO2=
201007050353 METAR KSEA 050353Z 07004KT 10SM FEW005 OVC018 14/13 A3017 RMK AO2 SLP221 T01440128=
201007050253 METAR KSEA 050253Z 02007KT 10SM FEW005 OVC024 14/13 A3017 RMK AO2 SLP222 60007 T01440128 55003=
201007050213 SPECI KSEA 050213Z 02006KT 10SM FEW005 SCT008 OVC024 15/13 A3017 RMK AO2=
201007050213 SPECI KSEA 050213Z 02006KT 10SM FEW005 SCT008 OVC024 15/13 A3017 RMK AO2=
201007050153 METAR KSEA 050153Z 04007KT 9SM BKN005 OVC022 15/14 A3017 RMK AO2 RAE00 CIG 003V008 SLP221 P0000 T01500139=
201007050110 SPECI KSEA 050110Z 17007KT 120V210 8SM FEW005 OVC022 16/13 A3017 RMK AO2 RAE00 P0000=
201007050110 SPECI KSEA 050110Z 17007KT 120V210 8SM FEW005 OVC022 16/13 A3017 RMK AO2 RAE00 P0000=
201007050053 METAR KSEA 050053Z 08005KT 3SM -RA BR FEW010 BKN022 OVC029 15/13 A3017 RMK AO2 SLP223 P0007 T01500128=
201007050034 SPECI KSEA 050034Z 08006KT 5SM -RA BR FEW010 OVC022 15/13 A3017 RMK AO2 P0003=
201007050034 SPECI KSEA 050034Z 08006KT 5SM -RA BR FEW010 OVC022 15/13 A3017 RMK AO2 P0003=
201007050025 SPECI KSEA 050025Z 08008KT 1 3/4SM R16C/5500VP6000FT RA SCT013 OVC022 16/13 A3018 RMK AO2 P0002=
201007050025 SPECI KSEA 050025Z 08008KT 1 3/4SM R16C/5500VP6000FT RA SCT013 OVC022 16/13 A3018 RMK AO2 P0002=
201007050010 SPECI KSEA 050010Z 10006KT 3SM RA SCT013 OVC020 16/12 A3018 RMK AO2 P0001 $=
201007050010 SPECI KSEA 050010Z 10006KT 3SM RA SCT013 OVC020 16/12 A3018 RMK AO2 P0001 $=
201007042353 METAR KSEA 042353Z 14005KT 4SM -RA OVC013 16/12 A3018 RMK AO2 RAB21 SLP225 P0000 60000 T01610122 10183 20139 58005=
201007042253 METAR KSEA 042253Z 16007KT 10SM OVC024 17/11 A3018 RMK AO2 SLP226 T01670111=
201007042153 METAR KSEA 042153Z 18009G25KT 10SM BKN024 OVC032 17/11 A3019 RMK AO2 SLP229 T01670106=
201007042053 METAR KSEA 042053Z 21010KT 10SM SCT030 BKN049 OVC060 18/10 A3019 RMK AO2 SLP230 T01780100 58004=
201007041953 METAR KSEA 041953Z 19010KT 10SM FEW025 BKN031 BKN060 18/10 A3020 RMK AO2 SLP232 T01780100=
201007041853 METAR KSEA 041853Z 22008KT 10SM BKN025 BKN031 OVC050 15/09 A3020 RMK AO2 SLP234 T01500089=
201007041753 METAR KSEA 041753Z 21005KT 10SM FEW015 BKN021 OVC040 14/09 A3021 RMK AO2 SLP234 T01390089 10139 20111 53002=
201007041653 METAR KSEA 041653Z 25006KT 10SM SCT013 BKN018 OVC035 13/09 A3020 RMK AO2 SLP233 T01330089=
201007041553 METAR KSEA 041553Z 20007KT 10SM SCT010 BKN016 OVC035 13/09 A3019 RMK AO2 SLP229 T01280094=
201007041453 METAR KSEA 041453Z 23004KT 10SM SCT007 BKN012 OVC028 12/09 A3020 RMK AO2 SLP232 T01220094 53005=
201007041353 METAR KSEA 041353Z 24004KT 10SM SCT009 BKN014 OVC030 12/09 A3019 RMK AO2 SLP228 T01170094=
201007041329 SPECI KSEA 041329Z 24004KT 10SM SCT009 OVC012 12/10 A3019 RMK AO2=
201007041329 SPECI KSEA 041329Z 24004KT 10SM SCT009 OVC012 12/10 A3019 RMK AO2=
201007041253 METAR KSEA 041253Z 00000KT 10SM BKN009 OVC014 12/09 A3019 RMK AO2 CIG 008V013 SLP228 T01170094=
201007041236 SPECI KSEA 041236Z 00000KT 10SM FEW006 BKN012 OVC030 11/09 A3019 RMK AO2=
201007041236 SPECI KSEA 041236Z 00000KT 10SM FEW006 BKN012 OVC030 11/09 A3019 RMK AO2=
201007041153 METAR KSEA 041153Z 12003KT 10SM OVC037 12/09 A3018 RMK AO2 SLP227 T01170094 10150 20117 50004=
201007041053 METAR KSEA 041053Z 04004KT 10SM OVC039 12/09 A3019 RMK AO2 SLP227 T01220089=
201007040953 METAR KSEA 040953Z 07004KT 10SM BKN043 13/09 A3018 RMK AO2 SLP225 T01280089=
201007040853 METAR KSEA 040853Z 04009KT 10SM BKN044 13/08 A3017 RMK AO2 SLP223 T01330083 58002=
201007040753 METAR KSEA 040753Z 04004KT 10SM FEW060 14/09 A3018 RMK AO2 SLP225 T01390089 402000111=
201007040653 METAR KSEA 040653Z 00000KT 10SM FEW060 13/08 A3018 RMK AO2 SLP225 T01330078=
201007040553 METAR KSEA 040553Z 34003KT 10SM FEW060 15/07 A3018 RMK AO2 SLP225 T01500067 10200 20150 53005=
201007040453 METAR KSEA 040453Z 00000KT 10SM BKN060 16/08 A3018 RMK AO2 SLP225 T01560078=
201007040353 METAR KSEA 040353Z 00000KT 10SM SCT060 16/07 A3017 RMK AO2 SLP221 T01560072=
201007040253 METAR KSEA 040253Z 32005KT 10SM FEW065 BKN150 17/07 A3017 RMK AO2 SLP222 T01670072 55002=
201007040153 METAR KSEA 040153Z VRB03KT 10SM SCT050 19/08 A3016 RMK AO2 SLP218 T01940078=
201007040053 METAR KSEA 040053Z 33004KT 10SM SCT042 BKN050 18/06 A3017 RMK AO2 SLP221 T01830061=
201007032353 METAR KSEA 032353Z 00000KT 10SM BKN040 19/08 A3017 RMK AO2 SLP222 T01890078 10194 20133 55000=
201007032253 METAR KSEA 032253Z VRB05KT 10SM SCT042 BKN050 19/08 A3017 RMK AO2 SLP221 T01890083=
201007032153 METAR KSEA 032153Z 22006KT 10SM SCT030 18/09 A3017 RMK AO2 SLP222 T01780089=
201007032053 METAR KSEA 032053Z 22007KT 10SM SCT025 SCT040 16/08 A3017 RMK AO2 SLP224 T01610078 51004=
201007032048 SPECI KSEA 032048Z VRB06KT 10SM SCT025 SCT040 17/08 A3017 RMK AO2=
201007032048 SPECI KSEA 032048Z VRB06KT 10SM SCT025 SCT040 17/08 A3017 RMK AO2=
201007031953 METAR KSEA 031953Z VRB04KT 10SM SCT025 BKN040 16/08 A3017 RMK AO2 SLP223 T01560083=
201007031853 METAR KSEA 031853Z 00000KT 10SM SCT025 BKN040 14/08 A3016 RMK AO2 SLP221 T01440083=
201007031831 SPECI KSEA 031831Z VRB03KT 10SM SCT025 BKN040 14/08 A3016 RMK AO2=
201007031831 SPECI KSEA 031831Z VRB03KT 10SM SCT025 BKN040 14/08 A3016 RMK AO2=
201007031753 METAR KSEA 031753Z VRB03KT 10SM BKN025 OVC060 13/08 A3016 RMK AO2 SLP219 T01330083 10133 20111 51013=
201007031653 METAR KSEA 031653Z 22004KT 10SM BKN022 OVC060 12/08 A3015 RMK AO2 SLP216 T01220078=
201007031553 METAR KSEA 031553Z 21005KT 10SM BKN019 BKN025 OVC060 12/08 A3013 RMK AO2 SLP210 T01220078=
201007031453 METAR KSEA 031453Z 18005KT 10SM BKN025 OVC050 11/08 A3012 RMK AO2 SLP206 T01110078 53008=
201007031353 METAR KSEA 031353Z 17007KT 10SM BKN019 OVC024 11/08 A3010 RMK AO2 SLP201 T01110078=
201007031253 METAR KSEA 031253Z 17007KT 10SM OVC015 11/08 A3010 RMK AO2 SLP199 T01110078=
201007031211 SPECI KSEA 031211Z 16007KT 10SM OVC015 11/08 A3010 RMK AO2=
201007031211 SPECI KSEA 031211Z 16007KT 10SM OVC015 11/08 A3010 RMK AO2=
201007031153 METAR KSEA 031153Z 16007KT 10SM OVC013 11/08 A3010 RMK AO2 SLP197 70012 T01110083 10139 20111 51008=
201007031053 METAR KSEA 031053Z 17008KT 10SM OVC013 11/08 A3009 RMK AO2 SLP195 T01110083=
201007030953 METAR KSEA 030953Z 17006KT 10SM BKN014 BKN023 OVC032 11/09 A3008 RMK AO2 SLP192 T01110089=
201007030853 METAR KSEA 030853Z 20008KT 10SM FEW014 BKN023 OVC032 12/09 A3007 RMK AO2 SLP189 T01170089 53014=
201007030753 METAR KSEA 030753Z 21008KT 10SM FEW014 BKN023 OVC032 12/09 A3006 RMK AO2 SLP184 T01220089 401830117=
201007030653 METAR KSEA 030653Z 23007KT 10SM SCT014 BKN019 OVC026 13/10 A3004 RMK AO2 SLP179 T01280100=
201007030619 SPECI KSEA 030619Z 21007KT 10SM BKN014 BKN019 OVC055 14/12 A3003 RMK AO2=
201007030619 SPECI KSEA 030619Z 21007KT 10SM BKN014 BKN019 OVC055 14/12 A3003 RMK AO2=
201007030553 METAR KSEA 030553Z 17003KT 10SM FEW020 BKN029 BKN042 14/12 A3003 RMK AO2 SLP175 60003 T01390117 10167 20139 53003=
201007030534 SPECI KSEA 030534Z 16004KT 10SM BKN029 BKN070 14/12 A3003 RMK AO2=
201007030534 SPECI KSEA 030534Z 16004KT 10SM BKN029 BKN070 14/12 A3003 RMK AO2=
201007030453 METAR KSEA 030453Z 17005KT 10SM FEW042 BKN070 14/11 A3002 RMK AO2 RAB15E27 SLP173 P0003 T01390111=
201007030353 METAR KSEA 030353Z 14004KT 10SM SCT042 BKN050 15/08 A3002 RMK AO2 RAB22E32 SLP172 P0000 T01500083=
201007030253 METAR KSEA 030253Z 05005KT 10SM FEW040 BKN070 BKN090 16/09 A3002 RMK AO2 RAB14E34 SLP172 P0000 60000 T01560089 54000=
201007030153 METAR KSEA 030153Z 36006KT 10SM SCT047 BKN060 16/10 A3002 RMK AO2 SLP171 T01610100=
201007030053 METAR KSEA 030053Z 29005KT 10SM BKN045 OVC055 14/09 A3002 RMK AO2 SLP173 T01440089=
201007022353 METAR KSEA 022353Z 31005KT 10SM BKN049 OVC080 17/08 A3002 RMK AO2 SLP171 T01670083 10183 20128 53006=
201007022253 METAR KSEA 022253Z VRB04KT 10SM FEW039 BKN060 BKN100 18/08 A3002 RMK AO2 SLP169 T01780083=
201007022153 METAR KSEA 022153Z 26005KT 10SM FEW020 SCT038 BKN080 18/09 A3001 RMK AO2 SLP167 T01780089=
201007022053 METAR KSEA 022053Z 19004KT 10SM SCT018 BKN037 BKN070 17/11 A3000 RMK AO2 SLP165 T01670111 50005=
201007021953 METAR KSEA 021953Z VRB03KT 10SM SCT025 BKN036 BKN065 16/12 A3000 RMK AO2 SLP166 T01560117=
201007021935 SPECI KSEA 021935Z 28003KT 10SM FEW011 BKN027 BKN040 14/11 A3000 RMK AO2=
201007021935 SPECI KSEA 021935Z 28003KT 10SM FEW011 BKN027 BKN040 14/11 A3000 RMK AO2=
201007021853 METAR KSEA 021853Z 19004KT 10SM SCT007 BKN011 BKN035 13/11 A3000 RMK AO2 SLP165 T01330111=
201007021839 SPECI KSEA 021839Z 22003KT 10SM SCT007 BKN011 BKN035 13/11 A3000 RMK AO2=
201007021839 SPECI KSEA 021839Z 22003KT 10SM SCT007 BKN011 BKN035 13/11 A3000 RMK AO2=
201007021753 METAR KSEA 021753Z 26004KT 7SM BKN005 BKN012 OVC100 13/12 A2999 RMK AO2 RAE11 SLP161 P0000 60009 T01280117 10133 20117 51009=
201007021653 METAR KSEA 021653Z 29004KT 1 1/2SM -RA BR BKN004 OVC010 13/12 A2998 RMK AO2 SFC VIS 4 RAE16B45 SLP159 P0001 T01280117=
201007021553 METAR KSEA 021553Z 34004KT 1 1/2SM -RA BR BKN003 BKN010 OVC025 12/12 A2997 RMK AO2 SLP156 P0002 T01220117 $=
201007021453 METAR KSEA 021453Z 35005KT 1 1/2SM -RA BR BKN002 OVC006 12/11 A2996 RMK AO2 SLP151 P0002 60006 T01220111 53012=
201007021422 SPECI KSEA 021422Z 34006KT 2SM -RA BR BKN004 OVC010 12/11 A2995 RMK AO2 P0002=
201007021422 SPECI KSEA 021422Z 34006KT 2SM -RA BR BKN004 OVC010 12/11 A2995 RMK AO2 P0002=
201007021353 METAR KSEA 021353Z 35004KT 2SM -RA BR FEW002 BKN008 OVC010 12/11 A2995 RMK AO2 RAB29 SLP147 P0001 T01220111=
201007021326 SPECI KSEA 021326Z 35003KT 2SM BR FEW002 BKN009 OVC012 12/11 A2994 RMK AO2=
201007021326 SPECI KSEA 021326Z 35003KT 2SM BR FEW002 BKN009 OVC012 12/11 A2994 RMK AO2=
201007021300 SPECI KSEA 021300Z 00000KT 2SM BR BKN010 OVC023 12/11 A2994 RMK AO2=
201007021300 SPECI KSEA 021300Z 00000KT 2SM BR BKN010 OVC023 12/11 A2994 RMK AO2=
201007021253 METAR KSEA 021253Z 00000KT 2SM BR FEW005 BKN025 OVC055 12/11 A2993 RMK AO2 RAE36 SLP142 P0003 T01220111=
201007021153 METAR KSEA 021153Z 00000KT 2SM -RA BR FEW005 BKN023 OVC055 12/11 A2993 RMK AO2 RAB1059 SLP140 P0002 60006 70007 T01170111 10128 20117 53003=
201007021150 SPECI KSEA 021150Z 00000KT 2SM -RA BR FEW005 BKN023 OVC050 12/11 A2992 RMK AO2 RAB1059 P0002=
201007021150 SPECI KSEA 021150Z 00000KT 2SM -RA BR FEW005 BKN023 OVC050 12/11 A2992 RMK AO2 RAB1059 P0002=
201007021053 METAR KSEA 021053Z 00000KT 6SM BR BKN023 OVC031 12/11 A2992 RMK AO2 RAE42 SLP137 P0001 T01220111=
201007020953 METAR KSEA 020953Z 00000KT 6SM -RA BR OVC027 12/11 A2991 RMK AO2 SLP136 P0002 T01220106=
201007020939 SPECI KSEA 020939Z 00000KT 6SM -RA BR BKN027 OVC048 12/11 A2991 RMK AO2 P0001=
201007020939 SPECI KSEA 020939Z 00000KT 6SM -RA BR BKN027 OVC048 12/11 A2991 RMK AO2 P0001=
201007020853 METAR KSEA 020853Z 32003KT 6SM -RA BR FEW009 BKN035 OVC050 12/11 A2991 RMK AO2 RAB02 SLP136 P0001 60001 T01220111 56007=
201007020753 METAR KSEA 020753Z 00000KT 10SM FEW009 BKN035 OVC055 13/11 A2992 RMK AO2 SLP137 T01280111 401670111=
201007020737 SPECI KSEA 020737Z 00000KT 10SM FEW009 BKN035 OVC060 13/11 A2992 RMK AO2=
201007020737 SPECI KSEA 020737Z 00000KT 10SM FEW009 BKN035 OVC060 13/11 A2992 RMK AO2=
201007020653 METAR KSEA 020653Z 00000KT 10SM BKN033 OVC065 13/11 A2992 RMK AO2 RAE0554 SLP139 T01280111=
201007020553 METAR KSEA 020553Z 29003KT 10SM -RA FEW046 OVC075 13/11 A2994 RMK AO2 DZE45RAB45 SLP144 P0000 60000 T01280111 10167 20128 58001=
201007020453 METAR KSEA 020453Z 26005KT 10SM -DZ SCT037 BKN046 OVC120 13/11 A2994 RMK AO2 DZE12B50 SLP146 P0000 T01330106=
201007020353 METAR KSEA 020353Z 25005KT 10SM -DZ BKN070 BKN200 14/10 A2994 RMK AO2 DZB51 SLP144 P0000 T01390100=
201007020253 METAR KSEA 020253Z 22005KT 10SM FEW038 BKN070 BKN200 15/09 A2994 RMK AO2 SLP145 T01500089 56005=
201007020153 METAR KSEA 020153Z 24005KT 10SM SCT035 BKN080 BKN200 16/08 A2994 RMK AO2 SLP146 T01560083=
201007020053 METAR KSEA 020053Z 25004KT 10SM FEW025 BKN080 OVC200 16/08 A2995 RMK AO2 SLP148 T01610083=
201007012353 METAR KSEA 012353Z 20006KT 10SM FEW025 BKN070 OVC200 16/08 A2996 RMK AO2 SLP149 60000 T01610078 10161 20128 58007=
201007012253 METAR KSEA 012253Z 21007KT 10SM FEW025 BKN075 OVC200 16/08 A2997 RMK AO2 RAE20 SLP154 P0000 T01560078=
201007012153 METAR KSEA 012153Z 24007KT 10SM -RA SCT024 BKN050 OVC180 15/08 A2997 RMK AO2 RAB38 SLP156 P0000 T01500083=
201007012053 METAR KSEA 012053Z 20004KT 10SM FEW020 OVC048 14/08 A2998 RMK AO2 RAE1954 SLP158 60000 T01440083 56002=
201007011953 METAR KSEA 011953Z 23005KT 10SM -RA FEW018 OVC050 13/09 A2998 RMK AO2 RAB26 SLP159 P0000 T01330094=
201007011853 METAR KSEA 011853Z 23004KT 10SM FEW017 OVC060 13/09 A2998 RMK AO2 SLP158 T01330089=
201007011753 METAR KSEA 011753Z 23005KT 10SM FEW011 OVC060 13/08 A2998 RMK AO2 SLP160 60001 T01280083 10128 20111 56008=
201007011653 METAR KSEA 011653Z VRB04KT 10SM FEW009 BKN055 OVC080 12/09 A2999 RMK AO2 RAE05 SLP162 P0000 T01220089=
201007011608 SPECI KSEA 011608Z 22004KT 10SM FEW007 SCT033 OVC055 11/08 A3000 RMK AO2 RAE05 P0000=
201007011608 SPECI KSEA 011608Z 22004KT 10SM FEW007 SCT033 OVC055 11/08 A3000 RMK AO2 RAE05 P0000=
201007011553 METAR KSEA 011553Z 20004KT 10SM -RA BKN033 OVC055 11/09 A3000 RMK AO2 SLP166 P0001 T01110089=
201007011453 METAR KSEA 011453Z 22003KT 8SM -RA SCT034 OVC055 11/07 A3001 RMK AO2 SLP168 P0000 60000 T01110072 51005=
201007011353 METAR KSEA 011353Z 26003KT 10SM -RA FEW070 BKN085 OVC200 12/08 A3001 RMK AO2 RAB52 SLP166 P0000 T01170078=
201007011253 METAR KSEA 011253Z 28003KT 10SM BKN100 OVC200 11/07 A3000 RMK AO2 SLP164 T01110072=
201007011153 METAR KSEA 011153Z 00000KT 10SM OVC090 12/05 A2999 RMK AO2 RAB02E13 SLP162 P0000 60000 T01220050 10144 20117 56002=
201007011053 METAR KSEA 011053Z 34003KT 10SM BKN085 OVC200 12/06 A2999 RMK AO2 SLP162 T01220056=
201007010953 METAR KSEA 010953Z 01005KT 10SM SCT110 OVC200 12/06 A3000 RMK AO2 SLP163 T01220056=
201007010853 METAR KSEA 010853Z 36004KT 10SM BKN110 OVC200 12/06 A3000 RMK AO2 SLP164 T01220056 58011=
201007010753 METAR KSEA 010753Z 34004KT 10SM BKN110 13/06 A3001 RMK AO2 SLP170 T01280056 401830100=
201007010653 METAR KSEA 010653Z 02007KT 10SM BKN150 14/05 A3002 RMK AO2 SLP172 T01390050=
201007010553 METAR KSEA 010553Z 01007KT 10SM SCT150 BKN250 13/04 A3003 RMK AO2 SLP177 T01330044 10183 20122 58004=
201007010453 METAR KSEA 010453Z 35006KT 10SM SCT150 BKN250 13/04 A3004 RMK AO2 SLP179 T01330044=
201007010353 METAR KSEA 010353Z 35006KT 10SM FEW045 SCT150 BKN250 16/04 A3004 RMK AO2 SLP179 T01560039=
201007010253 METAR KSEA 010253Z 30005KT 10SM FEW045 SCT150 BKN250 16/04 A3005 RMK AO2 SLP181 T01610039 56016=
201007010153 METAR KSEA 010153Z 32007KT 10SM FEW045 BKN250 17/04 A3006 RMK AO2 SLP183 T01720044=
201007010053 METAR KSEA 010053Z VRB06KT 10SM FEW045 BKN250 18/05 A3007 RMK AO2 SLP187 T01830050=

# No short TAF reports from KSEA in databse.

###################################
#  large TAF from KSEA
###################################
201007312325 TAF KSEA 312325Z 0100/0206 22008KT P6SM SCT090 SCT150 FM010900
                       20006KT P6SM OVC006 FM011200 20006KT 4SM
                       BR OVC003 FM011800 22006KT P6SM OVC008 FM012100
                       25005KT P6SM SCT100 BKN200=
201007312105 KSEA 312105Z 3121/0124 22008KT P6SM BKN010
                      TEMPO 3121/3122 SCT010 SCT090 FM312200 24006KT
                       P6SM SCT080 SCT250 FM010900 20006KT P6SM
                       OVC006 FM011200 20006KT 4SM BR OVC003 FM011800
                       22006KT P6SM OVC008 FM012100 25005KT P6SM
                       BKN100 BKN250=
201007311727 TAF KSEA 311727Z 3118/0124 21007KT P6SM OVC006 FM312000 23006KT
                       P6SM BKN010 FM312100 24006KT P6SM SCT080
                       SCT250 FM010900 20006KT P6SM OVC006 FM011200
                       20006KT 4SM BR OVC003 FM011800 22006KT P6SM
                       OVC008 FM012100 25005KT P6SM BKN100 BKN250=
201007311505 KSEA 311505Z 3115/0118 22006KT 1/4SM FG OVC002
                      TEMPO 3115/3118 2SM BR OVC003 FM311800 22006KT
                       3SM BR OVC006 FM312000 23006KT P6SM SCT080
                       SCT250 FM010900 20006KT P6SM OVC012=
201007311128 TAF KSEA 311128Z 3112/0118 22005KT P6SM OVC006
                      TEMPO 3112/3116 2SM BR OVC002 FM312000 25006KT
                       P6SM SCT100CB SCT250 FM010900 20006KT P6SM
                       OVC012=
201007311056 KSEA 311056Z 3111/0112 22005KT P6SM OVC006
                      TEMPO 3112/3116 2SM BR OVC002 FM312000 25006KT
                       P6SM SCT120 SCT250 FM010800 20006KT P6SM
                       OVC010=
201007310902 TAF AMD KSEA 310902Z 3109/0112 20005KT P6SM SCT006 SCT025
                      TEMPO 3109/3111 4SM BR BKN006 BKN025 FM311100
                       22005KT 4SM BR OVC006 FM312000 25006KT P6SM
                       SCT120 SCT250 FM010800 20006KT P6SM OVC010=
201007310526 TAF KSEA 310526Z 3106/0112 21004KT P6SM SKC FM310900 20005KT 4SM
                       BR OVC005 FM312000 22005KT P6SM SCT010 SCT120
                       FM312200 25006KT P6SM SCT120 SCT250 FM010800
                       20006KT P6SM OVC010=
201007310301 KSEA 310301Z 3103/0106 30005KT P6SM SKC FM310600 21004KT P6SM SKC
                       FM311100 20005KT 4SM BR OVC005 FM312000
                       22005KT P6SM SCT010 SCT120 FM312200 25006KT
                       P6SM SCT120 SCT250=
201007302324 TAF KSEA 302324Z 3100/0106 32005KT P6SM SKC FM310600 21004KT P6SM
                       SKC FM311100 20005KT 4SM BR OVC005 FM312000
                       22005KT P6SM SCT010 SCT120 FM312200 25006KT
                       P6SM SCT120 SCT250=
201007302100 KSEA 302100Z 3021/3124 25003KT P6SM SKC FM310000 30006KT P6SM SKC
                       FM310600 21004KT P6SM SKC FM311100 20005KT
                       4SM BR OVC005 FM312000 22006KT P6SM SCT010=
201007301722 TAF KSEA 301722Z 3018/3124 19003KT 1/4SM FG OVC001 FM301900 20003KT
                       4SM BR BKN003 FM302000 21004KT P6SM SKC
                       FM310000 30006KT P6SM SKC FM310600 21004KT
                       P6SM SKC FM311100 20005KT 4SM BR OVC005
                       FM312000 22006KT P6SM SCT010=
201007301502 KSEA 301502Z 3015/3118 19003KT 1/4SM FG VV001 FM301600 21003KT
                       4SM BR BKN006
                      TEMPO 3016/3017 1/2SM FG OVC001 FM301800
                       29006KT P6SM SKC FM310400 20005KT P6SM SKC
                       FM311100 20005KT P6SM OVC006=
201007301150 KSEA 301150Z 3012/3118 18005KT 1/4SM FG VV001 FM301600 21005KT
                       4SM BR BKN006 FM301800 29006KT P6SM SKC
                       FM310400 20005KT P6SM SKC FM311100 20005KT
                       P6SM OVC006=
201007301129 TAF KSEA 301129Z 3012/3118 19003KT 1/2SM FG VV001 FM301600 21005KT
                       P6SM BKN012 FM301900 29006KT P6SM SKC FM310400
                       20005KT P6SM SKC FM311100 20005KT P6SM OVC006=
201007301103 KSEA 301103Z 3011/3112 19003KT P6SM FEW004 FM301200 VRB03KT P6SM
                       SCT002
                      TEMPO 3012/3015 1/2SM FG OVC002 FM301600
                       21005KT P6SM BKN012 FM301900 29006KT P6SM
                       SKC FM310400 20005KT P6SM SKC FM311100 20005KT
                       P6SM OVC006=
201007300901 KSEA 300901Z 3009/3112 VRB03KT P6SM FEW005
                      TEMPO 3010/3011 BKN005 FM301100 19003KT 3SM
                       BR OVC005 FM301800 21005KT P6SM BKN013 FM301900
                       29006KT P6SM SKC FM310400 20005KT P6SM SKC
                       FM311000 20005KT P6SM OVC006=
201007300520 TAF KSEA 300520Z 3006/3112 30006KT P6SM SKC FM300900 19003KT P6SM
                       OVC005 FM301800 21005KT P6SM BKN013 FM301900
                       29006KT P6SM SKC FM310400 20005KT P6SM SKC
                       FM311000 20005KT P6SM OVC006=
201007300317 KSEA 300317Z 3003/3106 30006KT P6SM SKC FM300800 19003KT P6SM OVC008
                       FM301800 21005KT P6SM BKN013 FM301900 29006KT
                       P6SM SKC=
201007292340 TAF KSEA 292340Z 3000/3106 30006KT P6SM SKC FM300800 23004KT P6SM
                       SKC FM301000 19003KT P6SM OVC008 FM301800
                       21005KT P6SM BKN013 FM301900 29006KT P6SM
                       SKC=
201007292103 KSEA 292103Z 2921/3024 30006KT P6SM SCT015 FM292200 31006KT P6SM
                       SKC FM300800 23004KT P6SM SKC FM301000 19003KT
                       P6SM OVC008 FM301800 21005KT P6SM BKN013
                       FM302100 28006KT P6SM SKC=
201007291725 TAF KSEA 291725Z 2918/3024 00000KT P6SM BKN005 OVC010 FM291900
                       26003KT P6SM BKN012 FM292000 27006KT P6SM
                       SKC FM300100 31006KT P6SM SKC FM300800 23004KT
                       P6SM SKC FM301000 19003KT P6SM OVC008 FM301800
                       21005KT P6SM BKN013 FM302100 28006KT P6SM
                       SKC=
201007291500 KSEA 291500Z 2915/3018 00000KT P6SM OVC005 FM291800 21005KT P6SM
                       BKN015 FM292000 27006KT P6SM SKC FM300100
                       30006KT P6SM SKC FM300600 18004KT P6SM SKC
                       FM301000 VRB03KT 4SM BR OVC006 FM301700
                       21005KT P6SM BKN015=
201007291349 KSEA 291349Z 2914/3018 22006KT P6SM OVC005 FM291800 21005KT P6SM
                       BKN015 FM292000 27006KT P6SM SKC FM300100
                       30006KT P6SM SKC FM300600 18004KT P6SM SKC
                       FM301000 VRB03KT 4SM BR OVC006 FM301700
                       21005KT P6SM BKN015=
201007291120 TAF KSEA 291120Z 2912/3018 20008KT P6SM OVC005
                      TEMPO 2912/2915 3SM BR OVC003 FM291800 21005KT
                       6SM BR HZ BKN015 FM292000 27006KT P6SM SKC
                       FM300100 30006KT P6SM SKC FM300600 18004KT
                       P6SM SKC FM301000 VRB03KT 4SM BR OVC006
                       FM301700 21005KT P6SM BKN015=
201007290903 KSEA 290903Z 2909/3012 20008KT P6SM OVC005
                      TEMPO 2912/2915 3SM BR OVC003 FM291800 21005KT
                       6SM BR HZ BKN009 FM291900 27006KT P6SM SKC
                       FM300100 30006KT P6SM SKC FM300600 18004KT
                       P6SM SKC FM301000 18004KT P6SM OVC006=
201007290733 KSEA 290733Z 2908/3012 22008KT P6SM VCFG OVC005 FM291000 21005KT
                       1SM BR OVC002 FM291800 21005KT 6SM BR HZ
                       BKN009 FM291900 27006KT P6SM SKC FM300100
                       30006KT P6SM SKC FM300600 18004KT P6SM SKC
                       FM301000 18004KT P6SM OVC006=
201007290520 TAF KSEA 290520Z 2906/3012 VRB03KT P6SM SCT250 FM290900 VRB03KT
                       P6SM VCFG OVC005 FM291200 21005KT 1SM BR
                       OVC002 FM291800 21005KT 6SM BR HZ BKN009
                       FM291900 27006KT P6SM SKC FM300100 30006KT
                       P6SM SKC FM300600 18004KT P6SM SKC FM301000
                       18004KT P6SM OVC006=
201007290402 KSEA 290402Z 2904/3006 20006KT P6SM SCT250 FM290600 VRB03KT P6SM
                       SCT250 FM290900 VRB03KT P6SM VCFG OVC005
                       FM291200 21005KT 1SM BR OVC002 FM291800
                       21005KT 6SM BR HZ BKN009 FM291900 27006KT
                       P6SM SKC FM300100 30006KT P6SM SKC=
201007282337 TAF KSEA 282337Z 2900/3006 25006KT P6SM FEW130 BKN250 FM290600
                       VRB03KT P6SM SCT250 FM290900 VRB03KT P6SM
                       VCFG OVC005 FM291200 21005KT 1SM BR OVC002
                       FM291800 21005KT 6SM BR HZ BKN009 FM291900
                       27006KT P6SM SKC FM300100 30006KT P6SM SKC=
201007282018 KSEA 282018Z 2820/2924 25006KT P6SM SCT130 FM291000 VRB03KT P6SM
                       VCFG FEW002 FM291200 21005KT 1SM BR OVC002
                       FM291800 21005KT 5SM BR HZ BKN007 FM291900
                       27006KT P6SM SKC=
201007281739 TAF KSEA 281739Z 2818/2924 22005KT 6SM BR HZ OVC005 FM281900 22005KT
                       P6SM BKN010 FM282000 25006KT P6SM SCT130
                       FM291000 VRB03KT P6SM VCFG FEW002 FM291200
                       21005KT 1SM BR OVC002 FM291800 21005KT 5SM
                       BR HZ BKN007 FM291900 27006KT P6SM SKC=
201007281407 KSEA 281407Z 2814/2918 23006KT 4SM BR OVC002
                      TEMPO 2814/2817 1SM BR FM281700 22006KT 6SM
                       BR HZ OVC005 FM281900 22006KT P6SM BKN010
                       FM282000 24007KT P6SM SCT200 FM291000 22004KT
                       P6SM BKN008=
201007281135 TAF KSEA 281135Z 2812/2918 22006KT P6SM OVC005
                      TEMPO 2812/2816 2SM BR OVC002 FM281700 22006KT
                       P6SM OVC011 FM281900 22006KT P6SM BKN015
                       FM282000 24007KT P6SM SCT200 FM291000 22004KT
                       P6SM BKN008=
201007281001 KSEA 281001Z 2810/2912 22006KT P6SM OVC005
                      TEMPO 2810/2814 2SM BR OVC002 FM281700 22006KT
                       P6SM OVC011 FM281900 22006KT P6SM BKN015
                       FM282000 22006KT P6SM FEW020 FM282100 26006KT
                       P6SM SKC=
201007280903 KSEA 280903Z 2809/2912 22006KT P6SM SCT004
                      TEMPO 2809/2813 BKN006 FM281300 22006KT P6SM
                       OVC006 FM281700 22006KT P6SM OVC011 FM281900
                       22006KT P6SM BKN015 FM282000 22006KT P6SM
                       FEW020 FM282100 26006KT P6SM SKC=
201007280526 TAF KSEA 280526Z 2806/2912 23006KT P6SM FEW250 FM281200 22006KT
                       P6SM SCT008
                      TEMPO 2812/2814 BKN008 FM281400 22006KT P6SM
                       OVC008 FM281700 22006KT P6SM OVC011 FM281900
                       22006KT P6SM BKN015 FM282000 22006KT P6SM
                       FEW020 FM282100 26006KT P6SM SKC=
201007280304 TAF AMD KSEA 280304Z 2803/2906 23006KT P6SM FEW250 FM281200 22006KT
                       P6SM SCT008
                      TEMPO 2812/2814 BKN008 FM281400 22006KT P6SM
                       OVC008 FM281700 22006KT P6SM OVC011 FM281900
                       22006KT P6SM BKN015 FM282000 22006KT P6SM
                       FEW020 FM282100 26006KT P6SM SKC=
201007272341 TAF KSEA 272341Z 2800/2906 20009KT P6SM SCT250 FM281200 22006KT
                       P6SM SCT008
                      TEMPO 2812/2814 BKN008 FM281400 22006KT P6SM
                       OVC008 FM281700 22006KT P6SM OVC011 FM281900
                       22006KT P6SM BKN015 FM282000 22006KT P6SM
                       FEW020 FM282100 26006KT P6SM SKC=
201007272100 KSEA 272100Z 2721/2824 23010KT P6SM SCT250 FM280500 22006KT P6SM
                       SCT250 FM281200 22006KT P6SM SCT008
                      TEMPO 2812/2814 BKN008 FM281400 22006KT P6SM
                       OVC008 FM281600 21006KT P6SM OVC011 FM281900
                       22006KT P6SM BKN014 FM282000 24006KT P6SM
                       SCT016 FM282100 24008KT P6SM SKC=
201007271720 TAF KSEA 271720Z 2718/2824 23006KT P6SM SCT250 FM280300 VRB03KT
                       P6SM SCT250 FM281200 22006KT P6SM SCT008
                       TEMPO 2812/2814 BKN008 FM281400 22006KT
                       P6SM OVC008 FM281900 26006KT P6SM SKC=
201007271500 KSEA 271500Z 2715/2818 21007KT P6SM VCFG BKN005 FM271900 22008KT
                       P6SM SKC FM280000 24005KT P6SM SCT200
                      TEMPO 2812/2814 BKN012=
201007271138 TAF KSEA 271138Z 2712/2818 21006KT P6SM SCT006
                      TEMPO 2712/2714 BKN006 FM271400 21007KT P6SM
                       OVC006
                      TEMPO 2714/2718 4SM BR OVC005 FM271900 22008KT
                       P6SM SKC FM280000 24005KT P6SM SCT200
                      TEMPO 2812/2814 BKN012=
201007270906 KSEA 270906Z 2709/2812 21006KT P6SM SKC
                      TEMPO 2710/2713 BKN006 FM271300 21007KT P6SM
                       OVC005
                      TEMPO 2713/2717 4SM BR FM271900 22008KT P6SM
                       SKC=
201007270539 TAF KSEA 270539Z 2706/2812 26004KT P6SM SCT200 FM270900 21006KT
                       P6SM SKC
                      TEMPO 2712/2716 SCT005 FM271900 22008KT P6SM
                       SKC=
201007270300 KSEA 270300Z 2703/2806 30006KT P6SM SKC FM270700 21006KT P6SM SKC=
201007262320 TAF KSEA 262320Z 2700/2806 30006KT P6SM SKC FM270700 21006KT P6SM
                       SKC=
201007262100 KSEA 262100Z 2621/2724 30006KT P6SM SKC FM270800 21006KT P6SM SKC=
201007261720 TAF KSEA 261720Z 2618/2724 31007KT P6SM SKC FM270900 20006KT P6SM
                       SKC=
201007261501 KSEA 261501Z 2615/2718 00000KT P6SM SKC FM261900 31007KT P6SM SKC
                       FM270900 22004KT P6SM SKC=
201007261124 TAF KSEA 261124Z 2612/2718 01004KT P6SM SKC FM261900 31007KT P6SM
                       SKC FM270900 22004KT P6SM SKC=
201007260900 KSEA 260900Z 2609/2712 01004KT P6SM SKC FM262100 31007KT P6SM SKC=
201007260525 TAF KSEA 260525Z 2606/2712 01004KT P6SM SKC FM262100 31007KT P6SM
                       SKC=
201007260300 KSEA 260300Z 2603/2706 34010KT P6SM SKC FM260600 01004KT P6SM SKC
                       FM262100 31007KT P6SM SKC=
201007252320 TAF KSEA 252320Z 2600/2706 32010KT P6SM SKC FM260600 01004KT P6SM
                       SKC FM262100 31007KT P6SM SKC=
201007252101 KSEA 252101Z 2521/2624 32010KT P6SM SKC FM260600 01004KT P6SM SKC
                       FM261600 VRB04KT P6SM SKC FM262100 31007KT
                       P6SM SKC=
201007251729 TAF KSEA 251729Z 2518/2624 01006KT P6SM SKC FM252100 33010KT P6SM
                       SKC FM260300 01004KT P6SM SKC FM261600 VRB04KT
                       P6SM SKC FM262100 31007KT P6SM SKC=
201007251456 KSEA 251456Z 2515/2618 35005KT P6SM SKC FM252100 33010KT P6SM SKC
                       FM260300 01004KT P6SM SKC FM261700 27004KT
                       P6SM SKC=
201007251120 TAF KSEA 251120Z 2512/2618 02005KT P6SM SKC FM251700 32006KT P6SM
                       SKC FM252100 33010KT P6SM SKC FM260300 01004KT
                       P6SM SKC=
201007250901 KSEA 250901Z 2509/2612 02005KT P6SM SKC FM251700 30006KT P6SM SKC
                       FM252100 33010KT P6SM SKC=
201007250522 TAF KSEA 250522Z 2506/2612 34007KT P6SM SKC FM250800 02005KT P6SM
                       SKC FM251700 30006KT P6SM SKC FM252100 33010KT
                       P6SM SKC=
201007250303 KSEA 250303Z 2503/2606 34009KT P6SM SKC FM250500 02005KT P6SM SKC
                       FM251700 30006KT P6SM SKC FM252100 33010KT
                       P6SM SKC=
201007242320 TAF KSEA 242320Z 2500/2606 34011KT P6SM SKC FM250500 02005KT P6SM
                       SKC FM251700 30006KT P6SM SKC FM252100 33010KT
                       P6SM SKC=
201007242100 TAF AMD KSEA 242100Z 2421/2524 35010KT P6SM SKC FM250500 02005KT
                       P6SM SKC FM251700 30006KT P6SM SKC FM252100
                       33010KT P6SM SKC=
201007241725 TAF KSEA 241725Z 2418/2524 30006KT P6SM SKC FM242100 35011KT P6SM
                       SKC FM250500 02005KT P6SM SKC FM251700 30006KT
                       P6SM SKC FM252100 33010KT P6SM SKC=
201007241503 KSEA 241503Z 2415/2518 VRB03KT P6SM SKC FM241700 33006KT P6SM SKC
                       FM242100 33011KT P6SM SKC FM250400 02005KT
                       P6SM SKC=
201007241120 TAF KSEA 241120Z 2412/2518 03006KT P6SM SKC FM241700 33006KT P6SM
                       SKC FM242100 33011KT P6SM SKC FM250400 02005KT
                       P6SM SKC=
201007240900 KSEA 240900Z 2409/2512 03006KT P6SM SKC FM241700 33006KT P6SM SKC
                       FM242100 33011KT P6SM SKC=
201007240520 TAF KSEA 240520Z 2406/2512 01006KT P6SM SKC FM241700 33006KT P6SM
                       SKC FM242100 33011KT P6SM SKC=
201007240303 KSEA 240303Z 2403/2506 35009KT P6SM SKC FM240600 01004KT P6SM SKC
                       FM241700 33006KT P6SM SKC FM242100 33011KT
                       P6SM SKC=
201007232320 TAF KSEA 232320Z 2400/2506 34011KT P6SM SKC FM240600 01004KT P6SM
                       SKC FM241700 33006KT P6SM SKC FM242100 33011KT
                       P6SM SKC=
201007232101 KSEA 232101Z 2321/2424 30005KT P6SM SKC FM240000 33010KT P6SM SKC
                       FM240600 01004KT P6SM SKC FM241700 31005KT
                       P6SM SKC FM241800 31011KT P6SM SKC=
201007231736 TAF KSEA 231736Z 2318/2424 31005KT P6SM SCT013 FM232100 33011KT
                       P6SM SKC FM240600 01004KT P6SM SKC FM241700
                       31005KT P6SM SKC FM241800 31011KT P6SM SKC=
201007231515 KSEA 231515Z 2315/2418 00000KT P6SM FEW007
                      TEMPO 2315/2317 BKN012 FM231700 31006KT P6SM
                       SKC FM232100 33011KT P6SM SKC FM240600 01004KT
                       P6SM SKC FM241700 31006KT P6SM SKC=
201007231455 KSEA 231455Z 2315/2418 00000KT P6SM FEW007 FM231700 31006KT P6SM
                       SKC FM232100 33011KT P6SM SKC FM240600 01004KT
                       P6SM SKC FM241700 31006KT P6SM SKC=
201007231120 TAF KSEA 231120Z 2312/2418 00000KT P6SM SCT030
                      TEMPO 2312/2316 BKN030 FM231700 33007KT P6SM
                       SKC FM232100 33011KT P6SM SKC FM240300 01007KT
                       P6SM SKC=
201007231017 KSEA 231017Z 2310/2412 21004KT P6SM SCT025
                      TEMPO 2313/2317 BKN025 FM231700 33007KT P6SM
                       SKC FM232100 33011KT P6SM SKC FM240300 01008KT
                       P6SM SKC=
201007230903 KSEA 230903Z 2309/2412 20006KT P6SM SCT030
                      TEMPO 2309/2312 BKN030 FM231200 VRB03KT P6SM
                       BKN025 FM231700 33007KT P6SM SKC FM232100
                       33011KT P6SM SKC FM240300 01008KT P6SM SKC=
201007230729 KSEA 230729Z 2307/2412 21005KT P6SM SCT028
                      TEMPO 2308/2310 BKN028 FM231000 VRB03KT P6SM
                       BKN020 FM231800 33007KT P6SM SKC FM232100
                       33011KT P6SM SKC FM240300 01008KT P6SM SKC=
201007230521 TAF KSEA 230521Z 2306/2412 20003KT P6SM BKN030 FM231000 VRB03KT
                       P6SM BKN020 FM231800 33007KT P6SM SKC FM232100
                       33011KT P6SM SKC FM240300 01008KT P6SM SKC=
201007230420 KSEA 230420Z 2304/2406 21004KT P6SM SCT040 BKN250 FM230600 21004KT
                       P6SM BKN028 BKN250 FM231000 VRB04KT P6SM
                       BKN020 FM231800 33007KT P6SM SKC FM232100
                       33011KT P6SM SKC FM240300 01008KT P6SM SKC=
201007230301 KSEA 230301Z 2303/2406 21005KT P6SM SCT030 BKN040 FM230800 VRB04KT
                       P6SM BKN015
                      TEMPO 2312/2316 5SM BR OVC012 FM231700 36007KT
                       P6SM SKC=
201007222320 TAF KSEA 222320Z 2300/2406 23007KT P6SM BKN028
                      TEMPO 2302/2306 SCT030 FM230800 VRB04KT P6SM
                       BKN015
                      TEMPO 2312/2316 5SM BR OVC012 FM231700 36007KT
                       P6SM SKC=
201007222104 KSEA 222104Z 2221/2324 22010KT P6SM BKN030
                      TEMPO 2222/2302 SCT030 FM230800 VRB03KT P6SM
                       BKN015
                      TEMPO 2312/2316 5SM BR OVC012 FM231700 36006KT
                       P6SM SKC=
201007221740 TAF KSEA 221740Z 2218/2324 22010KT P6SM OVC012 FM222000 22010KT
                       P6SM OVC018 FM222200 23012KT P6SM BKN030
                       FM230500 VRB03KT P6SM OVC025 FM230800 VRB03KT
                       P6SM BKN006
                      TEMPO 2312/2316 3SM BR OVC005 FM231700 36006KT
                       P6SM SKC=
201007221505 TAF AMD KSEA 221505Z 2215/2318 18010KT P6SM OVC010
                      TEMPO 2215/2219 4SM -DZ BR OVC005 FM221900
                       22010KT P6SM OVC015 FM222200 23012KT P6SM
                       BKN030 FM230500 20004KT P6SM OVC025 FM230800
                       VRB03KT P6SM OVC012=
201007221120 TAF KSEA 221120Z 2212/2318 22009KT P6SM OVC007
                      TEMPO 2215/2219 4SM -DZ BR FM221900 22010KT
                       P6SM OVC020 FM222100 23012KT P6SM BKN035
                       FM230500 20004KT P6SM OVC025 FM230800 VRB03KT
                       P6SM OVC012=
201007221010 KSEA 221010Z 2210/2312 20008KT P6SM OVC009
                      TEMPO 2215/2219 4SM -DZ BR FM221900 22010KT
                       P6SM OVC020 FM222100 23012KT P6SM BKN035
                       FM230500 20004KT P6SM OVC025 FM230800 VRB03KT
                       P6SM OVC012=
201007220900 KSEA 220900Z 2209/2312 22008KT P6SM BKN250 FM221030 22009KT P6SM
                       OVC009
                      TEMPO 2215/2219 4SM -DZ BR FM221900 22010KT
                       P6SM OVC020 FM222100 23012KT P6SM BKN035
                       FM230500 20004KT P6SM OVC025 FM230800 VRB03KT
                       P6SM OVC012=
201007220520 TAF KSEA 220520Z 2206/2312 24005KT P6SM FEW100 SCT250 FM221000
                       21009KT P6SM OVC009
                      TEMPO 2215/2219 4SM -DZ BR FM221900 22010KT
                       P6SM OVC020 FM222100 23012KT P6SM BKN035
                       FM230500 20004KT P6SM OVC025 FM230800 VRB03KT
                       P6SM OVC012=
201007220302 KSEA 220302Z 2203/2306 21006KT P6SM FEW100 BKN250 FM221100 19007KT
                       P6SM OVC008
                      TEMPO 2215/2219 4SM -DZ BR FM221900 22008KT
                       P6SM OVC020 FM222100 23007KT P6SM BKN035
                       FM230500 20004KT P6SM OVC025=
201007212320 TAF KSEA 212320Z 2200/2306 35008KT P6SM SKC FM220600 VRB03KT P6SM
                       SKC FM221100 19006KT P6SM BKN010 FM221300
                       20008KT P6SM OVC012
                      TEMPO 2215/2219 5SM -DZ BR FM221900 22008KT
                       P6SM OVC020 FM222100 23007KT P6SM BKN030=
201007212239 KSEA 212239Z 2123/2224 31007KT P6SM SKC FM221100 19006KT P6SM BKN010
                       FM221300 20008KT P6SM OVC012
                      TEMPO 2215/2219 5SM -DZ BR FM221900 22008KT
                       P6SM OVC020 FM222100 23007KT P6SM BKN030=
201007211726 TAF KSEA 211726Z 2118/2224 20005KT 5SM HZ SCT005 FM212000 VRB04KT
                       P6SM SKC FM221100 19006KT P6SM BKN010 FM221300
                       20008KT P6SM OVC012
                      TEMPO 2215/2219 5SM -DZ BR FM221900 22008KT
                       P6SM OVC020 FM222100 23007KT P6SM BKN030=
201007211502 KSEA 211502Z 2115/2218 22003KT 2SM BR OVC003
                      TEMPO 2115/2117 1/2SM FG VV001 FM211800 23005KT
                       P6SM BKN008 FM211900 23005KT P6SM SCT010
                       FM212100 VRB04KT P6SM SKC FM220400 24008KT
                       P6SM SKC FM221100 24006KT P6SM OVC010 FM221300
                       24006KT 3SM -DZ BR OVC007=
201007211127 TAF KSEA 211127Z 2112/2218 22003KT 2SM BR OVC003
                      TEMPO 2113/2116 1/2SM FG VV001 FM211900 23005KT
                       P6SM SCT010 FM212100 30006KT P6SM SKC FM220400
                       24008KT P6SM SKC FM221100 24006KT P6SM OVC010
                       FM221300 24006KT 3SM -DZ BR OVC007=
201007210903 KSEA 210903Z 2109/2212 22004KT P6SM SKC FM211200 19005KT 3SM BR
                       OVC004
                      TEMPO 2113/2116 1/2SM FG VV001 FM211900 23005KT
                       P6SM SCT010 FM212100 30006KT P6SM SKC FM220400
                       24008KT P6SM SKC FM221100 24006KT P6SM OVC010=
201007210520 TAF KSEA 210520Z 2106/2212 18003KT P6SM FEW120 FM211200 19005KT
                       4SM BR OVC004
                      TEMPO 2113/2117 1SM BR OVC002 FM211900 23005KT
                       P6SM SCT010 FM212100 30006KT P6SM SKC FM220400
                       24010KT P6SM SKC=
201007210258 KSEA 210258Z 2103/2206 24004KT P6SM SCT110 FM211200 18005KT 4SM
                       BR OVC005
                      TEMPO 2113/2117 1SM BR OVC002 FM211900 23005KT
                       P6SM SCT010 FM212100 30006KT P6SM SKC=
201007202320 TAF KSEA 202320Z 2100/2206 VRB04KT P6SM SCT150 FM211200 18005KT
                       4SM BR OVC005
                      TEMPO 2113/2117 1SM BR OVC002 FM211900 23005KT
                       P6SM SCT010 FM212100 30006KT P6SM SKC=
201007202102 KSEA 202102Z 2021/2124 VRB03KT P6SM SCT010 BKN120 FM210000 33006KT
                       P6SM SCT200 FM211200 VRB03KT 4SM BR OVC005
                       TEMPO 2114/2116 1SM BR OVC002 FM211900 VRB03KT
                       P6SM SCT010 FM212100 30006KT P6SM SKC=
201007201721 TAF KSEA 201721Z 2018/2124 22005KT 4SM BR BKN005 FM202000 VRB03KT
                       P6SM SCT010 BKN200 FM210000 33006KT P6SM
                       SCT200 FM211200 VRB03KT 4SM BR BKN005
                      TEMPO 2114/2116 1SM BR OVC002 FM211700 VRB03KT
                       P6SM SCT010 FM212000 30006KT P6SM SKC=
201007201615 KSEA 201615Z 2016/2118 23005KT 3SM BR OVC005
                      TEMPO 2016/2018 1/2SM FG VV002 FM201800 23005KT
                       P6SM BKN008 FM201930 30005KT P6SM SCT250
                       FM210400 VRB03KT P6SM SCT250 FM211400 VRB03KT
                       P6SM SCT007
                      TEMPO 2114/2116 BKN007=
201007201502 KSEA 201502Z 2015/2118 VRB03KT 3SM BR OVC005
                      TEMPO 2015/2017 1SM BR OVC002 FM201700 21004KT
                       P6SM BKN008 FM201800 32008KT P6SM SCT250
                       FM210400 VRB03KT P6SM SCT250 FM211400 VRB03KT
                       P6SM SCT007
                      TEMPO 2114/2116 BKN007=
201007201120 TAF KSEA 201120Z 2012/2118 00000KT P6SM OVC004
                      TEMPO 2012/2016 1/2SM FG VV001 FM201700 21004KT
                       P6SM BKN012 FM201800 32008KT P6SM SCT250
                       FM210400 VRB03KT P6SM SCT250 FM211400 VRB03KT
                       P6SM SCT007
                      TEMPO 2114/2116 BKN007=
201007200947 KSEA 200947Z 2010/2112 00000KT P6SM SCT200 FM201130 21004KT 3SM
                       BR OVC002
                      TEMPO 2012/2016 1/2SM FG VV001 FM201700 21004KT
                       P6SM BKN012 FM201800 32008KT P6SM SCT250
                       FM210400 VRB03KT P6SM SCT250=
201007200908 KSEA 200908Z 2009/2112 00000KT P6SM BKN250 FM201100 VRB02KT P6SM
                       SCT012 BKN250 FM201300 21004KT P6SM BKN012
                       FM201700 32008KT P6SM SCT250 FM210400 VRB03KT
                       P6SM SCT250=
201007200520 TAF KSEA 200520Z 2006/2112 00000KT P6SM SCT250 FM201100 VRB02KT
                       P6SM SCT012 SCT250 FM201300 21004KT P6SM
                       BKN012 FM201700 32008KT P6SM SCT250 FM210400
                       VRB03KT P6SM SCT250=
201007200303 KSEA 200303Z 2003/2106 VRB04KT P6SM SKC FM201100 18005KT P6SM SCT012
                       SCT250 FM201300 21005KT P6SM BKN012 FM201700
                       32006KT P6SM SCT250=
201007192320 TAF KSEA 192320Z 2000/2106 VRB04KT P6SM SKC FM201100 18005KT P6SM
                       SCT012 SCT250 FM201300 21005KT P6SM BKN012
                       FM201700 32006KT P6SM SCT250=
201007192106 KSEA 192106Z 1921/2024 26006KT P6SM SCT020 FM192300 33007KT P6SM
                       SKC FM201200 VRB03KT P6SM SCT015 FM201400
                       21005KT P6SM BKN012 FM201700 32006KT P6SM
                       SCT250=
201007191726 TAF KSEA 191726Z 1918/2024 VRB03KT P6SM OVC013 FM191930 VRB03KT
                       P6SM BKN018 FM192100 32006KT P6SM SKC FM201200
                       VRB03KT P6SM BKN015
                      TEMPO 2014/2018 OVC012 FM202000 32006KT P6SM
                       SCT250=
201007191501 TAF AMD KSEA 191501Z 1915/2018 23006KT P6SM SCT008 OVC013 FM191800
                       23006KT P6SM OVC015 FM192000 23006KT P6SM
                       SKC FM200000 32006KT P6SM SKC FM201200 VRB03KT
                       P6SM SCT012=
201007191128 TAF KSEA 191128Z 1912/2018 22005KT P6SM BKN009 OVC013 FM191800
                       21006KT P6SM OVC012 FM192000 21006KT P6SM
                       SKC FM200000 32006KT P6SM SKC FM201200 VRB03KT
                       P6SM SCT012=
201007191010 KSEA 191010Z 1910/2012 21006KT P6SM SCT009 BKN013 FM191800 21006KT
                       P6SM OVC012 FM192000 21006KT P6SM SKC FM200000
                       32006KT P6SM SKC=
201007190908 TAF AMD KSEA 190908Z 1909/2012 21006KT P6SM SCT022 FM191000 21006KT
                       P6SM OVC006 FM191800 21006KT P6SM OVC012
                       FM192000 21006KT P6SM SKC FM200000 32006KT
                       P6SM SKC=
201007190520 TAF KSEA 190520Z 1906/2012 22006KT P6SM SCT080 FM191000 21006KT
                       P6SM OVC006 FM191800 21006KT P6SM OVC012
                       FM192000 21006KT P6SM SKC FM200000 32006KT
                       P6SM SKC=
201007190300 KSEA 190300Z 1903/2006 VRB04KT P6SM BKN080 FM191000 21006KT P6SM
                       OVC006 FM191800 21006KT P6SM OVC012 FM192000
                       21006KT P6SM SKC FM200000 32006KT P6SM SKC=
201007182338 TAF KSEA 182338Z 1900/2006 26006KT P6SM SKC FM190500 21006KT P6SM
                       SKC FM191000 21006KT P6SM OVC006 FM191800
                       21006KT P6SM OVC012 FM192000 21006KT P6SM
                       SKC FM200000 32006KT P6SM SKC=
201007182101 KSEA 182101Z 1821/1924 23006KT P6SM OVC014 FM182200 23006KT P6SM
                       SCT200 FM191000 23006KT P6SM OVC008 FM191800
                       23006KT P6SM OVC012 FM192000 23006KT P6SM
                       SKC=
201007181738 TAF KSEA 181738Z 1818/1924 21006KT P6SM OVC008 FM182000 21006KT
                       P6SM OVC011 FM182100 23006KT P6SM SCT200
                       FM191000 23006KT P6SM OVC008 FM191800 23006KT
                       P6SM OVC012 FM192000 23006KT P6SM SKC=
201007181506 KSEA 181506Z 1815/1918 21006KT P6SM OVC006 FM181900 21006KT P6SM
                       OVC011 FM182000 21006KT P6SM BKN015 FM182100
                       23006KT P6SM SCT200 FM191000 23006KT P6SM
                       OVC011=
201007181120 TAF KSEA 181120Z 1812/1918 21006KT P6SM OVC004 FM182000 19006KT
                       P6SM BKN022 FM182100 23006KT P6SM SCT200
                       FM191000 22005KT P6SM OVC011=
201007180922 KSEA 180922Z 1809/1912 24005KT P6SM SKC FM181100 19006KT P6SM OVC007
                       FM182000 19006KT P6SM BKN022 FM182300 23006KT
                       P6SM SCT200 FM190900 22005KT P6SM OVC050=
201007180531 TAF KSEA 180531Z 1806/1912 24005KT P6SM SKC FM181200 19006KT P6SM
                       OVC011 FM182000 19006KT P6SM BKN022 FM182300
                       23006KT P6SM SCT200 FM190900 22005KT P6SM
                       OVC050=
201007172340 TAF KSEA 172340Z 1800/1906 22006KT P6SM SKC FM180100 31006KT P6SM
                       SKC FM181200 19006KT P6SM OVC011 FM182000
                       19006KT P6SM BKN022 FM182300 23006KT P6SM
                       SCT030=
201007172110 KSEA 172110Z 1721/1824 22006KT P6SM SKC FM180100 31006KT P6SM SKC
                       FM181200 19007KT P6SM OVC011 FM182000 19007KT
                       P6SM BKN022=
201007171740 TAF KSEA 171740Z 1718/1824 22006KT P6SM BKN006 FM171900 22006KT
                       P6SM SKC FM172300 31006KT P6SM SKC FM181200
                       19007KT P6SM OVC011 FM182000 19007KT P6SM
                       BKN022=
201007171502 KSEA 171502Z 1715/1818 22006KT P6SM OVC003 FM171800 22006KT P6SM
                       BKN008 FM171900 25006KT P6SM SKC FM172100
                       31007KT P6SM SKC FM181100 19007KT P6SM OVC011=
201007171323 KSEA 171323Z 1713/1818 21005KT P6SM VCFG OVC003 FM171800 24006KT
                       P6SM BKN008 FM171900 27006KT P6SM SKC FM172100
                       31007KT P6SM SKC FM181100 19007KT P6SM OVC011=
201007171240 KSEA 171240Z 1713/1818 21005KT P6SM VCFG OVC005 FM171900 22007KT
                       P6SM BKN010 FM172100 31007KT P6SM SKC FM181100
                       19007KT P6SM OVC011=
201007171126 TAF KSEA 171126Z 1712/1818 20003KT P6SM OVC008 FM171900 22007KT
                       P6SM BKN012 FM172100 31007KT P6SM SKC FM181100
                       19007KT P6SM OVC011=
201007170902 TAF AMD KSEA 170902Z 1709/1812 20006KT P6SM SKC FM171100 18008KT
                       P6SM OVC015 FM171900 22007KT P6SM BKN020
                       FM172100 31007KT P6SM SKC FM181100 19007KT
                       P6SM OVC011=
201007170536 TAF KSEA 170536Z 1706/1812 21004KT P6SM SKC FM171100 18008KT P6SM
                       OVC015 FM171900 22007KT P6SM BKN020 FM172100
                       31007KT P6SM SKC FM181100 19007KT P6SM OVC011=
201007170302 KSEA 170302Z 1703/1806 22004KT P6SM SKC FM171100 18008KT P6SM OVC015
                       FM171900 22007KT P6SM BKN020 FM172100 22007KT
                       P6SM SCT030=
201007162324 TAF KSEA 162324Z 1700/1806 VRB03KT P6SM FEW030 FM170800 20006KT
                       P6SM BKN020 FM171100 18008KT P6SM OVC015
                       FM171900 22007KT P6SM BKN020 FM172100 22007KT
                       P6SM SCT030=
201007162102 KSEA 162102Z 1621/1724 20008KT P6SM BKN020 FM162230 22007KT P6SM
                       SCT030 FM170700 18008KT P6SM BKN020 FM171000
                       18008KT P6SM OVC015 FM171900 22008KT P6SM
                       BKN020 FM172100 22007KT P6SM SCT030=
201007161720 TAF KSEA 161720Z 1618/1724 22008KT P6SM OVC018 FM161930 25007KT
                       P6SM BKN025 FM162200 VRB04KT P6SM SCT030
                       FM170900 19008KT P6SM BKN020
                      TEMPO 1712/1716 OVC015 FM172100 23007KT P6SM
                       SCT030=
201007161506 KSEA 161506Z 1615/1718 18008KT P6SM OVC010 FM161700 20008KT P6SM
                       BKN015 FM161900 22006KT P6SM SCT020 FM162100
                       VRB04KT P6SM SCT250 FM171200 19005KT P6SM
                       OVC010=
201007161348 KSEA 161348Z 1614/1718 19006KT P6SM OVC006 FM161800 22006KT P6SM
                       BKN010 FM161900 26008KT P6SM SCT030 FM162100
                       31008KT P6SM SCT250 FM171200 19005KT P6SM
                       OVC010=
201007161127 TAF KSEA 161127Z 1612/1718 21006KT P6SM BKN006 OVC050 FM161600
                       22006KT P6SM BKN010 FM161900 26008KT P6SM
                       SCT030 FM162100 31008KT P6SM SCT250 FM171200
                       19005KT P6SM OVC010=
201007160911 KSEA 160911Z 1609/1712 21006KT P6SM SKC FM161200 22005KT P6SM OVC008
                       FM161600 22006KT P6SM BKN015 FM161900 26008KT
                       P6SM SCT030 FM162100 31008KT P6SM SCT250=
201007160524 TAF KSEA 160524Z 1606/1712 28004KT P6SM SKC FM161200 22005KT P6SM
                       OVC008 FM161600 22006KT P6SM BKN015 FM161900
                       26008KT P6SM SCT030 FM162100 31008KT P6SM
                       SCT250=
201007160308 KSEA 160308Z 1603/1706 28004KT P6SM SKC FM161200 22005KT P6SM OVC008
                       FM161800 22006KT P6SM BKN015 FM162000 26008KT
                       P6SM SCT030 FM170100 31008KT P6SM SCT040=
201007152342 TAF KSEA 152342Z 1600/1706 33009KT P6SM SKC FM160800 19005KT P6SM
                       SCT010 FM161100 22005KT P6SM OVC008 FM161800
                       22006KT P6SM BKN015 FM162000 26008KT P6SM
                       SCT030 FM170100 31008KT P6SM SCT040=
201007152101 KSEA 152101Z 1521/1624 33009KT P6SM SKC FM160800 19005KT P6SM SCT010
                       FM161000 22005KT P6SM OVC008 FM161800 22006KT
                       P6SM BKN015 FM162100 25009KT P6SM SCT030=
201007151727 TAF KSEA 151727Z 1518/1624 27004KT P6SM BCFG SKC FM151900 30009KT
                       P6SM SKC FM160800 19005KT P6SM SCT010 FM161000
                       22005KT P6SM OVC008 FM161800 22006KT P6SM
                       BKN015 FM162100 25009KT P6SM SCT030=
201007151535 KSEA 151535Z 1516/1618 03007KT P6SM SKC FM151800 31006KT P6SM SKC
                       FM160800 19005KT P6SM SCT010 FM161000 22006KT
                       P6SM OVC010=
201007151120 TAF KSEA 151120Z 1512/1618 03007KT P6SM SKC FM151800 31006KT P6SM
                       SKC=
201007150900 KSEA 150900Z 1509/1612 01007KT P6SM SKC FM151800 31006KT P6SM SKC=
201007150520 TAF KSEA 150520Z 1506/1612 01007KT P6SM SKC FM151800 31006KT P6SM
                       SKC=
201007150302 KSEA 150302Z 1503/1606 35007KT P6SM SKC FM150600 04006KT P6SM SKC
                       FM151800 31006KT P6SM SKC=
201007142320 TAF KSEA 142320Z 1500/1606 01010KT P6SM SKC FM150600 04006KT P6SM
                       SKC=
201007142101 KSEA 142101Z 1421/1524 33010KT P6SM SKC FM150600 VRB04KT P6SM SKC=
201007141723 TAF KSEA 141723Z 1418/1524 36007KT P6SM SKC FM150600 VRB04KT P6SM
                       SKC=
201007141129 TAF KSEA 141129Z 1412/1518 03006KT P6SM SKC FM142100 33007KT P6SM
                       SKC FM150600 02005KT P6SM SKC=
201007140900 KSEA 140900Z 1409/1512 03006KT P6SM SKC FM142100 34009KT P6SM FEW050
                       SCT250=
201007140527 TAF KSEA 140527Z 1406/1512 02005KT P6SM SKC FM142100 34009KT P6SM
                       FEW050 SCT250=
201007140300 KSEA 140300Z 1403/1506 32007KT P6SM FEW050 SCT200 FM140600 VRB03KT
                       P6SM SKC FM142100 36010KT P6SM SCT050=
201007132320 TAF KSEA 132320Z 1400/1506 32007KT P6SM SCT050 SCT200 FM140600
                       VRB03KT P6SM SCT050 FM142100 36010KT P6SM
                       SCT050=
201007132111 KSEA 132111Z 1321/1424 30008KT P6SM SCT040 SCT200 FM140600 VRB03KT
                       P6SM SCT040 FM142100 36010KT P6SM SCT050=
201007131720 TAF KSEA 131720Z 1318/1424 VRB04KT P6SM SCT040
                      TEMPO 1322/1402 34008KT FM142100 36010KT
                       P6SM SCT050=
201007131501 KSEA 131501Z 1315/1418 19005KT P6SM BKN020 FM131800 VRB04KT P6SM
                       BKN035 FM132000 33007KT P6SM SCT040 FM140500
                       02006KT P6SM FEW050=
201007131123 TAF KSEA 131123Z 1312/1418 18007KT P6SM BKN030 BKN060
                      TEMPO 1312/1316 BKN040 BKN070 FM131600 22006KT
                       P6SM BKN040 BKN070 FM132000 33007KT P6SM
                       SCT050 FM140500 02006KT P6SM FEW050=
201007130900 KSEA 130900Z 1309/1412 18007KT P6SM OVC027 FM131800 VRB05KT P6SM
                       BKN040 BKN060 FM132000 32007KT P6SM SCT050
                       FM140400 02006KT P6SM SCT040=
201007130520 TAF KSEA 130520Z 1306/1412 21011KT P6SM SCT040 BKN060
                      TEMPO 1307/1311 BKN030 OVC050 FM131100 18007KT
                       P6SM OVC030 FM131800 VRB05KT P6SM BKN040
                       BKN060 FM132000 32007KT P6SM SCT050 FM140400
                       02006KT P6SM SCT040=
201007130301 KSEA 130301Z 1303/1406 21012KT P6SM BKN050 BKN080 FM130600 21008KT
                       P6SM OVC035 FM131000 18007KT P6SM OVC022
                       FM131700 23008KT P6SM BKN030 FM132000 VRB04KT
                       P6SM SCT040=
201007122320 TAF KSEA 122320Z 1300/1406 21010KT P6SM BKN050 FM130500 VRB04KT
                       P6SM OVC035 FM131000 18007KT P6SM OVC022
                       FM131700 23008KT P6SM BKN030 FM132000 VRB04KT
                       P6SM SCT040=
201007122008 KSEA 122008Z 1220/1324 22012KT P6SM BKN035 FM130600 19010KT P6SM
                       OVC020 FM131800 23008KT P6SM BKN025 FM132000
                       VRB04KT P6SM SCT040=
201007121722 TAF KSEA 121722Z 1218/1324 23012KT P6SM BKN025 FM122200 25012KT
                       P6SM BKN040 FM130600 19010KT P6SM OVC018
                       FM131800 23008KT P6SM BKN025 FM132100 VRB04KT
                       P6SM SCT040=
201007121502 TAF AMD KSEA 121502Z 1215/1318 20015KT P6SM OVC025
                      TEMPO 1215/1218 5SM -SHRA BR OVC018 FM122200
                       25012KT P6SM BKN035 BKN060 FM130600 19010KT
                       P6SM OVC025=
201007121132 TAF KSEA 121132Z 1212/1318 20012KT P6SM BKN012 OVC022
                      TEMPO 1212/1216 5SM -DZ BKN008 FM121800 21012KT
                       P6SM BKN015 OVC025 FM122000 22012KT P6SM
                       SCT015 OVC025 FM122300 25012KT P6SM BKN035
                       BKN060 FM130800 19010KT P6SM OVC027=
201007120803 KSEA 120803Z 1208/1312 22009KT P6SM SCT007 BKN012
                      TEMPO 1208/1210 4SM BR OVC006 FM121000 20008KT
                       P6SM OVC008
                      TEMPO 1212/1216 5SM -DZ FM121900 21011KT
                       P6SM BKN014 OVC022 FM122000 21012KT P6SM
                       OVC025 FM122300 23012KT P6SM BKN035 FM130700
                       19010KT P6SM OVC027=
201007120526 KSEA 120526Z 1206/1312 22010KT P6SM BKN020
                      TEMPO 1206/1210 OVC017 FM121000 20008KT P6SM
                       OVC015
                      TEMPO 1212/1216 5SM -DZ OVC010 FM122000 21012KT
                       P6SM OVC027 FM122300 23012KT P6SM BKN035
                       FM130700 19010KT P6SM OVC027=
201007120525 TAF KSEA 120525Z 1206/1312 22010KT P6SM BKN027
                      TEMPO 1208/1211 OVC020 FM121100 20008KT P6SM
                       OVC015
                      TEMPO 1212/1216 5SM -DZ OVC010 FM122000 21012KT
                       P6SM OVC027 FM122300 23012KT P6SM BKN035
                       FM130700 19010KT P6SM OVC027=
201007120300 KSEA 120300Z 1203/1306 22008KT P6SM BKN021
                      TEMPO 1203/1206 SCT025 FM120600 22010KT P6SM
                       BKN025 FM120900 20008KT P6SM OVC015
                      TEMPO 1212/1216 5SM -DZ OVC010 FM122000 21012KT
                       P6SM BKN030=
201007120228 KSEA 120228Z 1202/1306 23008KT P6SM SCT020 SCT090
                      TEMPO 1202/1205 BKN020 FM120700 22010KT P6SM
                       BKN025 FM120900 20008KT P6SM OVC015
                      TEMPO 1212/1216 5SM -DZ OVC010 FM122000 21012KT
                       P6SM BKN030=
201007112335 TAF KSEA 112335Z 1200/1306 23008KT P6SM SCT020 SCT090 FM120600
                       22010KT P6SM BKN025 FM120900 20008KT P6SM
                       OVC015
                      TEMPO 1212/1216 5SM -DZ OVC010 FM122000 21012KT
                       P6SM BKN030=
201007112108 TAF AMD KSEA 112108Z 1121/1224 23008KT P6SM FEW020 SCT050 FM112300
                       23009KT P6SM SKC FM120600 22010KT P6SM BKN025
                       BKN250 FM120900 20008KT P6SM OVC015=
201007111731 TAF KSEA 111731Z 1118/1224 22008KT P6SM BKN003
                      TEMPO 1118/1120 SCT008 FM112000 24011KT P6SM
                       SKC FM120600 22010KT P6SM BKN025 BKN250
                       FM120900 20008KT P6SM OVC015=
201007111502 KSEA 111502Z 1115/1218 21005KT 1 1/2SM BR OVC003
                      TEMPO 1115/1116 1/2SM FG VV001 FM111800 24006KT
                       P6SM BKN008 BKN250 FM111900 24010KT P6SM
                       FEW050 SCT250 FM120600 22010KT P6SM BKN025
                       BKN250 FM120900 20008KT P6SM OVC015=
201007111158 KSEA 111158Z 1112/1218 21005KT 1 1/2SM BR OVC003
                      TEMPO 1112/1116 1/4SM FG VV001 FM111800 24006KT
                       P6SM BKN008 BKN250 FM111900 24010KT P6SM
                       FEW050 SCT250 FM120600 22010KT P6SM BKN025
                       BKN250 FM120900 20008KT P6SM OVC015=
201007111128 TAF KSEA 111128Z 1112/1218 21005KT 3SM BR OVC003
                      TEMPO 1112/1116 3/4SM BR VV001 FM111800 24006KT
                       P6SM BKN008 BKN250 FM111900 24010KT P6SM
                       FEW050 SCT250 FM120600 22010KT P6SM BKN025
                       BKN250 FM120900 20008KT P6SM OVC015=
201007110906 KSEA 110906Z 1109/1212 VRB03KT P6SM SKC FM111200 21005KT P6SM VCFG
                       SCT005
                      TEMPO 1112/1114 BKN005 FM111400 21005KT P6SM
                       VCFG OVC005 FM111800 24006KT P6SM BKN010
                       BKN250 FM111900 24010KT P6SM FEW050 SCT250
                       FM120600 22010KT P6SM FEW025 BKN250 FM120900
                       22010KT P6SM OVC015=
201007110546 TAF KSEA 110546Z 1106/1212 VRB03KT P6SM SKC FM111200 21005KT P6SM
                       VCFG SCT005
                      TEMPO 1112/1114 BKN005 FM111400 21005KT P6SM
                       VCFG OVC005 FM111800 24006KT P6SM BKN010
                       BKN250 FM111900 24010KT P6SM FEW050 SCT250
                       FM120600 22010KT P6SM FEW025 BKN250 FM120900
                       22010KT P6SM OVC015=
201007110303 KSEA 110303Z 1103/1206 VRB03KT P6SM FEW080 SCT250 FM110700 23005KT
                       P6SM SKC FM111200 20005KT P6SM BKN005 FM111600
                       21006KT P6SM OVC012 FM111800 21006KT P6SM
                       BKN014 FM111900 24008KT P6SM SCT015 FM112000
                       24010KT P6SM SCT200=
201007102330 TAF KSEA 102330Z 1100/1206 29006KT P6SM SKC FM110700 23005KT P6SM
                       SKC FM111200 20005KT P6SM BKN005 FM111600
                       21006KT P6SM OVC012 FM111800 21006KT P6SM
                       BKN014 FM111900 24008KT P6SM SCT015 FM112000
                       24010KT P6SM SCT200=
201007102103 KSEA 102103Z 1021/1124 30006KT P6SM SKC FM110700 23005KT P6SM SKC
                       FM111200 20005KT P6SM OVC005 FM111600 21006KT
                       P6SM OVC012 FM111800 21006KT P6SM BKN014
                       FM111900 24008KT P6SM SCT015 FM112000 24008KT
                       P6SM SKC=
201007101730 TAF KSEA 101730Z 1018/1124 21008KT P6SM SKC FM110000 29006KT P6SM
                       SKC FM110700 23005KT P6SM SKC FM111200 20005KT
                       P6SM OVC005 FM111600 21006KT P6SM OVC012
                       FM111800 21006KT P6SM BKN014 FM111900 24008KT
                       P6SM SCT015 FM112000 24008KT P6SM SKC=
201007101504 KSEA 101504Z 1015/1118 21006KT P6SM SCT008 SCT120 FM101700 24008KT
                       P6SM SCT250 FM110100 29006KT P6SM SCT250
                       FM110700 23005KT P6SM SKC FM111200 20004KT
                       P6SM OVC005=
201007101126 TAF KSEA 101126Z 1012/1118 00000KT P6SM SCT120 BKN250 FM101800
                       24009KT P6SM SCT250 FM110100 29006KT P6SM
                       SCT250 FM110700 23005KT P6SM SKC FM111200
                       20004KT P6SM OVC005=
201007100900 KSEA 100900Z 1009/1112 00000KT P6SM SCT090 OVC230 FM101800 24009KT
                       P6SM SCT250 FM110100 29006KT P6SM SCT250
                       FM110700 23005KT P6SM SKC=
201007100530 TAF KSEA 100530Z 1006/1112 05011G16KT P6SM BKN250 FM100900 23006KT
                       P6SM BKN130 OVC250 FM101800 24009KT P6SM
                       SCT250 FM110100 29006KT P6SM SCT250 FM110700
                       23005KT P6SM SKC=
201007092328 TAF KSEA 092328Z 1000/1106 32009KT P6SM FEW250 FM100600 35006KT
                       P6SM SCT250 FM100900 21006KT P6SM SCT250
                       FM101800 23008KT P6SM SCT250=
201007092101 TAF AMD KSEA 092101Z 0921/1024 29008KT P6SM SKC FM092200 32009KT
                       P6SM SKC FM100600 21006KT P6SM SCT250 FM101300
                       21006KT P6SM FEW005 SCT250 FM101500 23005KT
                       P6SM SCT250=
201007091729 TAF KSEA 091729Z 0918/1024 29005KT P6SM SKC FM092200 32009KT P6SM
                       SKC FM100600 21006KT P6SM SCT250 FM101300
                       21006KT P6SM FEW005 SCT250 FM101500 23005KT
                       P6SM SCT250=
201007091501 KSEA 091501Z 0915/1018 18003KT P6SM SKC FM091800 29005KT P6SM SKC
                       FM092200 32009KT P6SM SKC FM100600 21006KT
                       P6SM SCT250 FM101300 21006KT P6SM SCT005=
201007091131 TAF KSEA 091131Z 0912/1018 VRB03KT P6SM SKC FM091800 29005KT P6SM
                       SKC FM092200 32009KT P6SM SKC FM100600 21006KT
                       P6SM SCT250 FM101300 21006KT P6SM SCT005=
201007090910 KSEA 090910Z 0909/1012 00000KT P6SM SKC FM091200 VRB03KT P6SM SKC
                       FM091700 30010KT P6SM SKC FM100700 21006KT
                       P6SM SCT250=
201007090540 TAF KSEA 090540Z 0906/1012 01006KT P6SM SKC FM091200 VRB03KT P6SM
                       SKC FM091700 30010KT P6SM SKC FM100700 21006KT
                       P6SM SCT250=
201007090300 KSEA 090300Z 0903/1006 33008KT P6SM SKC FM090400 36007KT P6SM SKC
                       FM090900 02006KT P6SM SKC FM091700 30007KT
                       P6SM SKC FM100400 34005KT P6SM SKC=
201007082320 TAF KSEA 082320Z 0900/1006 34008KT P6SM SKC FM090400 36007KT P6SM
                       SKC FM090900 02006KT P6SM SKC FM091700 30007KT
                       P6SM SKC FM100400 34005KT P6SM SKC=
201007081729 TAF KSEA 081729Z 0818/0924 31005KT P6SM SKC FM081900 34010KT P6SM
                       SKC FM090400 36007KT P6SM SKC FM090900 04006KT
                       P6SM SKC FM091500 34005KT P6SM SKC=
201007081127 TAF KSEA 081127Z 0812/0918 01008KT P6SM SKC FM081900 34010KT P6SM
                       SKC FM090400 36007KT P6SM SKC FM090900 04006KT
                       P6SM SKC FM091500 33005KT P6SM SKC=
201007080900 KSEA 080900Z 0809/0912 36007KT P6SM SKC FM081900 34010KT P6SM SKC
                       FM090400 36007KT P6SM SKC FM090900 04006KT
                       P6SM SKC=
201007080532 TAF KSEA 080532Z 0806/0912 03011KT P6SM SKC FM080900 03006KT P6SM
                       SKC FM081900 34010KT P6SM SKC FM090400 36007KT
                       P6SM SKC FM090900 04006KT P6SM SKC=
201007080301 TAF AMD KSEA 080301Z 0803/0906 36011KT P6SM SKC FM080600 04005KT
                       P6SM SKC FM081700 34010KT P6SM SKC FM090300
                       34005KT P6SM SKC=
201007072320 TAF KSEA 072320Z 0800/0906 35014KT P6SM SKC FM080300 01010KT P6SM
                       SKC FM080600 04005KT P6SM SKC FM081700 34010KT
                       P6SM SKC FM090300 34005KT P6SM SKC=
201007072120 KSEA 072120Z 0721/0824 36013KT P6SM SKC FM080300 01010KT P6SM SKC
                       FM080600 04005KT P6SM SKC FM081700 36010KT
                       P6SM SKC=
201007071724 TAF KSEA 071724Z 0718/0824 36013KT P6SM SKC FM080300 01010KT P6SM
                       SKC FM080600 04005KT P6SM SKC FM081700 36010KT
                       P6SM SKC=
201007071509 KSEA 071509Z 0715/0818 36012KT P6SM SKC FM071900 01012KT P6SM SKC
                       FM080300 01008KT P6SM SKC FM080900 04005KT
                       P6SM SKC FM081500 36005KT P6SM SKC=
201007071136 TAF KSEA 071136Z 0712/0818 01006KT P6SM SKC FM071900 36011KT P6SM
                       SKC FM080300 01008KT P6SM SKC FM080900 04005KT
                       P6SM SKC FM081500 36005KT P6SM SKC=
201007070911 KSEA 070911Z 0709/0812 02005KT P6SM SKC FM071900 36011KT P6SM SKC
                       FM080300 01008KT P6SM SKC FM080900 04005KT
                       P6SM SKC=
201007070536 TAF KSEA 070536Z 0706/0812 01009KT P6SM SKC FM070900 03006KT P6SM
                       SKC FM071900 36011KT P6SM SKC FM080300 01008KT
                       P6SM SKC FM080900 04005KT P6SM SKC=
201007070300 KSEA 070300Z 0703/0806 36008KT P6SM SKC FM070600 02008KT P6SM SKC
                       FM071800 36011KT P6SM SKC FM080300 03007KT
                       P6SM SKC=
201007062320 TAF KSEA 062320Z 0700/0806 35011KT P6SM SKC FM070600 02008KT P6SM
                       SKC FM071800 36011KT P6SM SKC FM080300 03007KT
                       P6SM SKC=
201007062104 KSEA 062104Z 0621/0724 35011KT P6SM SKC FM070600 02008KT P6SM SKC
                       FM071800 36011KT P6SM SKC=
201007061724 TAF KSEA 061724Z 0618/0724 02011KT P6SM SKC FM070600 03008KT P6SM
                       SKC FM071800 02011KT P6SM SKC=
201007061500 KSEA 061500Z 0615/0718 02006KT P6SM SKC FM061900 36010KT P6SM SKC
                       FM070600 03006KT P6SM SKC=
201007061136 TAF KSEA 061136Z 0612/0718 04006KT P6SM SKC FM061900 36010KT P6SM
                       SKC FM070600 03006KT P6SM SKC=
201007060909 KSEA 060909Z 0609/0712 05006KT P6SM SKC FM061900 36010KT P6SM SKC
                       FM070600 03005KT P6SM SKC=
201007060535 TAF KSEA 060535Z 0606/0712 36008KT P6SM FEW250 FM060900 03005KT
                       P6SM SKC FM061900 36010KT P6SM SKC FM070600
                       03005KT P6SM SKC=
201007060331 KSEA 060331Z 0604/0706 36009KT P6SM SCT250 FM060600 03003KT P6SM
                       SKC FM061900 35010KT P6SM SKC=
201007052320 TAF KSEA 052320Z 0600/0706 30008KT P6SM SCT040 FM060600 03003KT
                       P6SM SKC FM061900 35010KT P6SM SKC=
201007052103 KSEA 052103Z 0521/0624 31005KT P6SM BKN025 BKN035 FM052300 34010KT
                       P6SM SCT045 FM060600 03004KT P6SM SKC FM062000
                       35009KT P6SM SKC=
201007051724 TAF KSEA 051724Z 0518/0624 21003KT P6SM BKN017 OVC025 FM052000
                       31005KT P6SM BKN030 BKN040 FM052300 34010KT
                       P6SM SCT045 FM060600 03004KT P6SM SKC FM062000
                       35009KT P6SM SKC=
201007051515 KSEA 051515Z 0515/0618 19004KT P6SM BKN015 OVC022 FM051600 20006KT
                       P6SM BKN025 OVC040 FM051800 22006KT P6SM
                       SCT025 BKN045 FM052000 31006KT P6SM SCT030
                       SCT045 FM060100 34008KT P6SM SCT045 FM060600
                       03004KT P6SM SKC=
201007051120 TAF KSEA 051120Z 0512/0618 17005KT P6SM OVC020 FM051600 20006KT
                       P6SM BKN025 OVC040 FM051800 22006KT P6SM
                       SCT025 BKN045 FM052000 31006KT P6SM SCT030
                       SCT045 FM060100 34008KT P6SM SCT045 FM060600
                       03004KT P6SM SKC=
201007050901 TAF AMD KSEA 050901Z 0509/0612 19005KT P6SM FEW010 OVC020 FM051600
                       20006KT P6SM BKN025 OVC040 FM051900 22006KT
                       P6SM SCT025 BKN045 FM052100 31006KT P6SM
                       SCT030 SCT045 FM060100 34008KT P6SM SCT045
                       FM060600 03004KT P6SM SKC=
201007050523 TAF KSEA 050523Z 0506/0612 VRB05KT 6SM -SHRA SCT005 OVC012
                      TEMPO 0506/0510 3SM -SHRA BKN005 OVC012 FM051000
                       VRB03KT P6SM BKN012 OVC025 FM051600 20006KT
                       P6SM BKN020 OVC035 FM051900 22006KT P6SM
                       SCT025 BKN045 FM052100 31006KT P6SM SCT030
                       SCT045 FM060100 34008KT P6SM SCT045 FM060600
                       03004KT P6SM SKC=
201007050302 KSEA 050302Z 0503/0606 02006KT P6SM -DZ SCT005 OVC025
                      TEMPO 0503/0506 3SM -SHRA BR BKN005 OVC025
                       FM050600 VRB05KT P6SM FEW007 OVC015
                      TEMPO 0506/0509 3SM -SHRA BKN007 OVC015 FM051000
                       VRB03KT P6SM BKN012 OVC025 FM051600 20006KT
                       P6SM BKN020 OVC035 FM051900 22006KT P6SM
                       SCT025 BKN045 FM052100 31006KT P6SM SCT030
                       SCT045 FM060100 34008KT P6SM SCT045=
201007050014 KSEA 050014Z 0500/0606 VRB05KT 6SM -SHRA BR SCT012 OVC028
                      TEMPO 0500/0503 3SM SHRA BR BKN012 OVC028
                       FM050300 VRB05KT 6SM -SHRA BR FEW007 OVC015
                       TEMPO 0503/0507 3SM SHRA BKN007 OVC015 FM051000
                       VRB03KT P6SM BKN012 OVC025 FM051600 20006KT
                       P6SM BKN020 OVC035 FM051900 22006KT P6SM
                       SCT025 BKN045 FM052100 31006KT P6SM SCT030
                       SCT045 FM060100 34008KT P6SM SCT045=
201007042320 TAF KSEA 042320Z 0500/0606 22012KT P6SM VCSH BKN025 OVC045
                      TEMPO 0500/0502 SCT025 BKN045 FM050200 02008KT
                       P6SM VCSH BKN020 OVC040
                      TEMPO 0502/0506 SCT020 OVC040 FM050600 06008KT
                       P6SM VCSH OVC015 FM051000 VRB03KT P6SM BKN012
                       OVC025 FM051600 20006KT P6SM BKN020 OVC035
                       FM051900 22006KT P6SM SCT025 BKN045 FM052100
                       31006KT P6SM SCT030 SCT045 FM060100 34008KT
                       P6SM SCT045=
201007042100 TAF AMD KSEA 042100Z 0421/0524 22008KT P6SM SCT030 BKN045
                      TEMPO 0421/0501 BKN030 OVC045 FM050100 02006KT
                       P6SM VCSH BKN020 OVC040
                      TEMPO 0501/0505 SCT020 OVC040 FM050500 06008KT
                       P6SM VCSH OVC015 FM051000 16004KT P6SM BKN012
                       OVC025 FM051600 20006KT P6SM BKN020 OVC035
                       FM051900 22006KT P6SM SCT025 BKN045 FM052200
                       31006KT P6SM SCT030 SCT045=
201007041737 TAF KSEA 041737Z 0418/0524 22008KT P6SM BKN020 OVC035
                      TEMPO 0418/0422 SCT020 OVC035 FM042200 22010KT
                       P6SM VCSH SCT025 BKN045
                      TEMPO 0422/0424 BKN025 OVC045 FM050000 02006KT
                       P6SM VCSH BKN020 OVC040 FM050500 06008KT
                       P6SM VCSH OVC015 FM051000 16004KT P6SM BKN012
                       OVC025 FM051600 20006KT P6SM BKN020 OVC035
                       FM051900 22006KT P6SM SCT025 BKN045 FM052200
                       31006KT P6SM SCT030 SCT045=
201007041502 TAF AMD KSEA 041502Z 0415/0518 22008KT P6SM SCT008 BKN014 OVC030
                       TEMPO 0415/0419 SCT015 OVC035 FM041900 22010KT
                       P6SM SCT025 BKN045
                      TEMPO 0419/0423 BKN025 OVC045 FM042300 02006KT
                       P6SM VCSH BKN020 OVC040 FM050500 11006KT
                       P6SM VCSH OVC015 FM050800 16004KT P6SM BKN010
                       OVC025=
201007041125 TAF KSEA 041125Z 0412/0518 19004KT P6SM OVC040
                      TEMPO 0413/0417 BKN015 OVC040 FM041700 22010KT
                       P6SM SCT025 BKN050 FM050000 02006KT P6SM
                       -SHRA BKN018 OVC040 FM050500 11006KT P6SM
                       -SHRA OVC015 FM050800 16004KT P6SM BKN010
                       OVC025=
201007040901 KSEA 040901Z 0409/0512 VRB03KT P6SM BKN045 BKN060 FM041200 20005KT
                       P6SM BKN020 OVC040 FM041700 22010KT P6SM
                       SCT025 BKN050
                      TEMPO 0423/0503 -SHRA BKN015 OVC025 FM050300
                       02006KT P6SM -SHRA BKN018 OVC040 FM050600
                       11006KT P6SM -SHRA OVC015=
201007040529 TAF KSEA 040529Z 0406/0512 VRB03KT P6SM BKN045 OVC060
                      TEMPO 0406/0408 SCT045 SCT060 FM041200 20005KT
                       P6SM BKN020 OVC040 FM041700 22010KT P6SM
                       SCT025 BKN050
                      TEMPO 0423/0503 -SHRA BKN015 OVC025 FM050300
                       02006KT P6SM -SHRA BKN018 OVC040 FM050600
                       11006KT P6SM -SHRA OVC015=
201007040304 KSEA 040304Z 0403/0506 31003KT P6SM FEW070 BKN150 FM041000 21005KT
                       P6SM SCT070 FM041200 21004KT P6SM BKN020
                       BKN070 FM041700 22009KT P6SM SCT025 OVC050
                       PROB30 0423/0505 -SHRA BKN015 OVC025=
201007040128 KSEA 040128Z 0401/0506 33005KT P6SM SCT050
                      TEMPO 0401/0403 BKN050 FM041000 26006KT P6SM
                       SCT070 FM041200 23004KT P6SM BKN020 BKN070
                       FM041700 22009KT P6SM SCT025 OVC050=
201007040038 TAF KSEA 040038Z 0401/0506 VRB04KT P6SM BKN040 FM041000 26006KT
                       P6SM SCT070 FM041200 23004KT P6SM BKN020
                       BKN070 FM041700 22009KT P6SM SCT025 OVC050=
201007032105 KSEA 032105Z 0321/0424 25008KT P6SM SCT025 BKN050 FM040100 31006KT
                       P6SM FEW030 FM041000 26006KT P6SM SCT070
                       FM041200 23004KT P6SM BKN020 BKN070 FM041700
                       22009KT P6SM SCT025 OVC050=
201007031742 TAF KSEA 031742Z 0318/0424 22004KT P6SM BKN025 OVC060
                      TEMPO 0318/0321 SCT025 OVC060 FM032100 25008KT
                       P6SM SCT045 BKN070 FM040100 31006KT P6SM
                       SCT070 FM041000 26006KT P6SM FEW020 SCT070
                       FM041200 23004KT P6SM BKN020 BKN070 FM041700
                       22009KT P6SM SCT025 OVC050=
201007031619 KSEA 031619Z 0316/0418 21005KT P6SM BKN020 OVC060 FM031700 21006KT
                       P6SM BKN025 BKN050
                      TEMPO 0318/0320 SCT025 BKN050 FM032100 25008KT
                       P6SM SCT050 BKN070 FM040000 31006KT P6SM
                       SCT070 FM040600 21006KT P6SM FEW020 SCT070
                       FM041000 19006KT P6SM BKN020 BKN070=
201007031504 TAF AMD KSEA 031504Z 0315/0418 18005KT P6SM BKN025 OVC050 FM031700
                       21006KT P6SM SCT025 BKN050 FM032100 25008KT
                       P6SM SCT050 BKN070 FM040000 31006KT P6SM
                       SCT070 FM040600 21006KT P6SM FEW020 SCT070
                       FM041000 19006KT P6SM BKN020 BKN070=
201007031126 TAF KSEA 031126Z 0312/0418 17008KT P6SM OVC013 FM031800 21006KT
                       P6SM BKN025 BKN040 FM032100 25008KT P6SM
                       SCT040 BKN070 FM040000 31006KT P6SM SCT070
                       FM040600 21006KT P6SM FEW020 SCT070 FM041000
                       19006KT P6SM BKN020 BKN070=
201007030900 KSEA 030900Z 0309/0412 20007KT P6SM FEW014 BKN023 OVC030 FM031800
                       25006KT P6SM SCT030 BKN040 FM032000 25008KT
                       P6SM SCT040 SCT070 FM040000 29004KT P6SM
                       SCT100 FM040600 21005KT P6SM FEW020 SCT070
                       FM041000 19004KT P6SM BKN020 BKN070=
201007030557 KSEA 030557Z 0306/0412 17004KT P6SM BKN029 BKN070
                      TEMPO 0306/0310 SCT029 BKN070 FM031000 21004KT
                       P6SM SCT010 OVC020 FM031800 25006KT P6SM
                       SCT030 BKN040 FM032000 25008KT P6SM SCT040
                       SCT070 FM040000 29004KT P6SM SCT100 FM040600
                       21005KT P6SM FEW020 SCT070 FM041000 19004KT
                       P6SM BKN020 BKN070=
201007030530 TAF KSEA 030530Z 0306/0412 17005KT P6SM FEW040 BKN070 FM030800
                       20005KT P6SM SCT035 OVC070 FM031200 21004KT
                       P6SM SCT010 OVC020 FM031800 25006KT P6SM
                       SCT030 BKN040 FM032000 25008KT P6SM SCT040
                       SCT070 FM040000 29004KT P6SM SCT100 FM040600
                       21005KT P6SM FEW020 SCT070 FM041000 19004KT
                       P6SM BKN020 BKN070=
201007030301 KSEA 030301Z 0303/0406 35005KT P6SM SCT045 BKN090
                      TEMPO 0303/0305 -SHRA BKN045 OVC090 FM030500
                       VRB03KT P6SM FEW050 BKN100 FM030800 20005KT
                       P6SM SCT035 OVC070 FM031200 21004KT P6SM
                       SCT010 OVC020 FM031800 25006KT P6SM SCT030
                       BKN040 FM032000 25008KT P6SM SCT040 SCT070
                       FM040000 29004KT P6SM SCT100=
201007030051 KSEA 030051Z 0301/0406 31005KT P6SM BKN045 OVC070
                      TEMPO 0301/0303 -SHRA FM030400 VRB03KT P6SM
                       BKN070 BKN100 FM030800 20005KT P6SM SCT035
                       OVC070 FM031200 21004KT P6SM SCT010 OVC020
                       FM031800 25006KT P6SM SCT030 BKN040 FM032000
                       25008KT P6SM SCT040 SCT070 FM040000 29004KT
                       P6SM SCT100=
201007022335 TAF KSEA 022335Z 0300/0406 25006KT P6SM FEW030 BKN070 BKN100 FM030800
                       20005KT P6SM SCT035 OVC070 FM031200 21004KT
                       P6SM SCT010 OVC020 FM031800 25006KT P6SM
                       SCT030 BKN040 FM032000 25008KT P6SM SCT040
                       SCT070 FM040000 29004KT P6SM SCT100=
201007022130 KSEA 022130Z 0222/0324 25006KT P6SM SCT018 BKN035 OVC070 FM030000
                       25006KT P6SM BKN070 FM030800 20005KT P6SM
                       BKN035 OVC070 FM031200 21004KT P6SM SCT010
                       OVC020 FM031800 25006KT P6SM SCT030 BKN040
                       FM032000 25008KT P6SM SCT040 SCT070=
201007021742 TAF KSEA 021742Z 0218/0324 29005KT P6SM BKN010 OVC020
                      TEMPO 0218/0220 3SM -SHRA BR BKN004 OVC010
                       FM022000 25006KT P6SM BKN025 OVC060 FM030000
                       25006KT P6SM BKN060 FM030800 20005KT P6SM
                       BKN035 OVC070 FM031200 21004KT P6SM SCT010
                       OVC020 FM031800 25006KT P6SM SCT030 BKN040
                       FM032000 25008KT P6SM SCT040 SCT070=
201007021602 KSEA 021602Z 0216/0318 00000KT P6SM SCT006 BKN023 OVC050
                      TEMPO 0216/0218 2SM -SHRA BR BKN002 OVC006
                       FM021900 22006KT P6SM BKN045 OVC070 FM022300
                       24006KT P6SM BKN080 FM030800 20005KT P6SM
                       BKN035 OVC070=
201007021502 KSEA 021502Z 0215/0318 00000KT P6SM SCT006 BKN023 OVC050
                      TEMPO 0215/0216 2SM -SHRA BR BKN002 OVC006
                       FM021900 22006KT P6SM BKN045 OVC070 FM022300
                       24006KT P6SM BKN080 FM030800 20005KT P6SM
                       BKN035 OVC070=
201007021225 KSEA 021225Z 0212/0318 00000KT P6SM SCT006 BKN023 OVC050
                      TEMPO 0212/0216 2SM -SHRA BR BKN006 OVC025
                       FM021900 22006KT P6SM BKN045 OVC070 FM022300
                       24006KT P6SM BKN080 FM030800 20005KT P6SM
                       BKN035 OVC070=
201007021124 TAF KSEA 021124Z 0212/0318 00000KT P6SM SCT006 BKN023 OVC050
                      TEMPO 0212/0216 4SM -SHRA BR BKN006 OVC025
                       FM021900 22006KT P6SM BKN045 OVC070 FM022300
                       24006KT P6SM BKN080 FM030800 20005KT P6SM
                       BKN035 OVC070=
201007020901 KSEA 020901Z 0209/0312 VRB04KT P6SM -SHRA FEW008 BKN035 OVC050
                       TEMPO 0209/0213 4SM -SHRA BR BKN008 OVC035
                       FM021900 22006KT P6SM BKN045 OVC070 FM022300
                       24006KT P6SM BKN080 FM030800 20005KT P6SM
                       BKN035 OVC070=
201007020526 TAF KSEA 020526Z 0206/0312 24005KT P6SM -SHRA BKN045 OVC080
                      TEMPO 0206/0209 -SHRA BKN035 OVC050 FM020900
                       19004KT P6SM -SHRA BKN030 OVC045 FM021900
                       22008KT P6SM BKN045 OVC070 FM022300 24006KT
                       P6SM BKN080 FM030800 20005KT P6SM BKN035
                       OVC070=
201007020301 KSEA 020301Z 0203/0306 22005KT P6SM FEW040 BKN070 BKN200 FM020400
                       21006KT P6SM -SHRA FEW025 OVC045 FM020600
                       VRB04KT P6SM -SHRA BKN030 OVC040 FM021200
                       VRB04KT P6SM -SHRA BKN018 OVC030 FM021900
                       20008KT P6SM OVC030 FM022300 24005KT P6SM
                       BKN040=
201007020030 KSEA 020030Z 0201/0306 21006KT P6SM FEW025 BKN060 OVC130
                      TEMPO 0201/0202 -SHRA FM020400 21006KT P6SM
                       -SHRA FEW025 OVC045 FM020600 VRB04KT P6SM
                       -SHRA BKN030 OVC040 FM021200 VRB04KT P6SM
                       -SHRA BKN018 OVC030 FM021900 20008KT P6SM
                       OVC030 FM022300 24005KT P6SM BKN040=
201007012339 TAF KSEA 012339Z 0200/0306 21006KT P6SM -SHRA SCT025 BKN045 OVC080
                       FM020600 VRB04KT P6SM -SHRA BKN030 OVC040
                       FM021200 VRB04KT P6SM -SHRA BKN018 OVC030
                       FM021900 20008KT P6SM OVC030 FM022300 24005KT
                       P6SM BKN040=
201007012103 KSEA 012103Z 0121/0224 21004KT P6SM -SHRA SCT020 BKN045 OVC080
                       FM020300 VRB04KT P6SM -SHRA BKN030 OVC040
                       FM021200 19005KT P6SM -SHRA BKN020 OVC030
                       FM021900 20008KT P6SM VCSH BKN040=
201007011722 TAF KSEA 011722Z 0118/0224 21004KT P6SM VCSH SCT040 BKN060 OVC080
                       TEMPO 0118/0122 -SHRA BKN040 FM012200 22006KT
                       P6SM VCSH BKN040 OVC050 FM020300 VRB04KT
                       P6SM -SHRA BKN030 OVC040 FM021200 19005KT
                       P6SM -SHRA BKN020 OVC030 FM021900 20008KT
                       P6SM VCSH BKN040=
201007011500 KSEA 011500Z 0115/0218 21004KT P6SM VCSH SCT050 BKN080 BKN150
                      TEMPO 0115/0119 -SHRA SCT035 BKN050 FM011900
                       22006KT P6SM VCSH BKN030 OVC050 FM020600
                       20004KT P6SM -SHRA BKN025 OVC040 FM021200
                       19005KT P6SM -SHRA BKN015 OVC030=
201007011125 TAF KSEA 011125Z 0112/0218 VRB03KT P6SM BKN090 OVC200 FM011800
                       21004KT P6SM SCT050 BKN080 BKN150 FM020000
                       22006KT P6SM -SHRA BKN030 OVC050 FM020600
                       20004KT P6SM BKN025 OVC040
                      PROB30 0206/0212 -SHRA OVC020 FM021200 19005KT
                       P6SM -SHRA BKN015 OVC030=
201007010903 KSEA 010903Z 0109/0212 36004KT P6SM BKN120 BKN250 FM011100 18003KT
                       P6SM BKN100 BKN250 FM011800 21006KT P6SM
                       SCT050 BKN100 BKN150
                      PROB30 0118/0124 -SHRA BKN035 OVC050 FM020000
                       22006KT P6SM -SHRA BKN030 OVC050 FM020600
                       20004KT P6SM BKN025 OVC040
                      PROB30 0206/0212 -SHRA OVC020=
201007010530 TAF KSEA 010530Z 0106/0212 35005KT P6SM FEW050 BKN250 FM011100
                       18003KT P6SM BKN100 BKN250 FM011800 21006KT
                       P6SM SCT050 BKN100 BKN150
                      PROB30 0118/0124 -SHRA BKN035 OVC050 FM020000
                       22006KT P6SM -SHRA BKN030 OVC050 FM020600
                       20004KT P6SM BKN025 OVC040
                      PROB30 0206/0212 -SHRA OVC020=
201007010300 KSEA 010300Z 0103/0206 31006KT P6SM FEW045 BKN250 FM010600 02004KT
                       P6SM SCT120 BKN250 FM010900 18003KT P6SM
                       BKN100 BKN250 FM011500 20006KT P6SM BKN100
                       BKN150 FM011800 22007KT P6SM SCT030 BKN100=