##########################################################
# Query made at 02/17/2025 18:17:49 UTC
# Time interval: from 11/01/2011 00:00  to 11/30/2011 23:59  UTC
##########################################################

##########################################################
# KSEA, Seattle, Seattle-Tacoma International Airport (United States)
# WMO index: 72793. WIGOS ID: 0-20000-0-72793
# Latitude 47-27-00N. Longitude 122-17-59W. Altitude 130 m.
##########################################################

###################################
#  METAR/SPECI from KSEA
###################################
201111302353 METAR KSEA 302353Z 35004KT 10SM BKN025 07/03 A3069 RMK AO2 SLP403 T00670028 10072 20061 53009=
201111302253 METAR KSEA 302253Z 01007KT 10SM BKN023 BKN028 07/03 A3068 RMK AO2 SLP398 T00720028=
201111302153 METAR KSEA 302153Z 35013KT 10SM BKN022 OVC026 07/02 A3067 RMK AO2 SLP396 T00670022=
201111302053 METAR KSEA 302053Z 34003KT 10SM BKN023 OVC028 07/04 A3067 RMK AO2 SLP393 T00670039 53025=
201111301953 METAR KSEA 301953Z 05005KT 10SM BKN022 OVC030 07/04 A3063 RMK AO2 SLP383 T00670039=
201111301853 METAR KSEA 301853Z 06004KT 10SM FEW015 BKN026 OVC032 06/03 A3061 RMK AO2 SLP375 T00610033=
201111301826 SPECI KSEA 301826Z 08005KT 10SM BKN015 OVC026 06/03 A3061 RMK AO2=
201111301826 SPECI KSEA 301826Z 08005KT 10SM BKN015 OVC026 06/03 A3061 RMK AO2=
201111301753 METAR KSEA 301753Z 07005KT 10SM BKN014 OVC036 06/03 A3059=
201111301653 METAR KSEA 301653Z 01007KT 10SM BKN013 BKN036 06/03 A3055 RMK AO2 SLP353 T00560033=
201111301634 SPECI KSEA 301634Z 01007KT 10SM BKN012 BKN036 06/03 A3055 RMK AO2=
201111301634 SPECI KSEA 301634Z 01007KT 10SM BKN012 BKN036 06/03 A3055 RMK AO2=
201111301553 METAR KSEA 301553Z 01009KT 10SM SCT012 BKN036 06/03 A3052 RMK AO2 SLP343 T00560033=
201111301517 SPECI KSEA 301517Z 03011KT 10SM SCT014 BKN038 06/03 A3049 RMK AO2=
201111301517 SPECI KSEA 301517Z 03011KT 10SM SCT014 BKN038 06/03 A3049 RMK AO2=
201111301453 METAR KSEA 301453Z 01011KT 10SM BKN014 OVC039 06/04 A3048 RMK AO2 SLP330 T00610039 51037=
201111301430 SPECI KSEA 301430Z 35011KT 10SM OVC012 06/04 A3047 RMK AO2=
201111301430 SPECI KSEA 301430Z 35011KT 10SM OVC012 06/04 A3047 RMK AO2=
201111301413 SPECI KSEA 301413Z 01009KT 10SM SCT010 BKN015 OVC038 06/04 A3045 RMK AO2=
201111301413 SPECI KSEA 301413Z 01009KT 10SM SCT010 BKN015 OVC038 06/04 A3045 RMK AO2=
201111301353 METAR KSEA 301353Z 02005KT 10SM BKN008 OVC014 06/05 A3045=
201111301253 METAR KSEA 301253Z 32003KT 10SM BKN008 BKN019 OVC025 06/04 A3041 RMK AO2 CIG 005V010 SLP305 T00610044=
201111301234 SPECI KSEA 301234Z 00000KT 10SM FEW005 OVC010 06/05 A3039 RMK AO2 CIG 007V011=
201111301234 SPECI KSEA 301234Z 00000KT 10SM FEW005 OVC010 06/05 A3039 RMK AO2 CIG 007V011=
201111301223 SPECI KSEA 301223Z 32003KT 10SM BKN010 OVC030 06/04 A3039 RMK AO2=
201111301223 SPECI KSEA 301223Z 32003KT 10SM BKN010 OVC030 06/04 A3039 RMK AO2=
201111301211 SPECI KSEA 301211Z 00000KT 10SM FEW010 OVC030 06/04 A3038 RMK AO2=
201111301211 SPECI KSEA 301211Z 00000KT 10SM FEW010 OVC030 06/04 A3038 RMK AO2=
201111301153 METAR KSEA 301153Z 00000KT 10SM SCT006 BKN011 OVC030 06/05 A3037 RMK AO2 SLP292 60003 70009 T00610050 10067 20061 51040=
201111301141 SPECI KSEA 301141Z 33004KT 10SM BKN006 BKN009 OVC030 06/05 A3036 RMK AO2=
201111301141 SPECI KSEA 301141Z 33004KT 10SM BKN006 BKN009 OVC030 06/05 A3036 RMK AO2=
201111301102 SPECI KSEA 301102Z 27005KT 10SM OVC004 06/05 A3034 RMK AO2=
201111301102 SPECI KSEA 301102Z 27005KT 10SM OVC004 06/05 A3034 RMK AO2=
201111301053 METAR KSEA 301053Z 31004KT 10SM OVC006 06/05 A3033 RMK AO2 SLP281 T00610050=
201111300953 METAR KSEA 300953Z 22006KT 10SM OVC008 07/04 A3028 RMK AO2 SLP263 T00670044=
201111300853 METAR KSEA 300853Z 20007KT 10SM OVC008 06/05 A3025 RMK AO2 SLP251 60003 T00610050 53021=
201111300816 SPECI KSEA 300816Z 22007KT 10SM OVC008 06/05 A3023 RMK AO2=
201111300816 SPECI KSEA 300816Z 22007KT 10SM OVC008 06/05 A3023 RMK AO2=
201111300753 METAR KSEA 300753Z 20007KT 10SM BKN010 BKN013 OVC021 06/05 A3022 RMK AO2 RAE37 CIG 008V011 SLP242 P0000 T00610050 400670017=
201111300742 SPECI KSEA 300742Z 19011KT 10SM BKN010 BKN021 OVC037 06/05 A3021 RMK AO2 RAE37 CIG 008V014 P0000=
201111300742 SPECI KSEA 300742Z 19011KT 10SM BKN010 BKN021 OVC037 06/05 A3021 RMK AO2 RAE37 CIG 008V014 P0000=
201111300733 SPECI KSEA 300733Z 19008KT 10SM SCT010 BKN021 OVC037 06/05 A3021 RMK AO2 RAE26 P0000=
201111300733 SPECI KSEA 300733Z 19008KT 10SM SCT010 BKN021 OVC037 06/05 A3021 RMK AO2 RAE26 P0000=
201111300702 SPECI KSEA 300702Z 19007KT 6SM BR BKN012 BKN016 OVC023 06/05 A3020 RMK AO2 RAE0656 P0000=
201111300702 SPECI KSEA 300702Z 19007KT 6SM BR BKN012 BKN016 OVC023 06/05 A3020 RMK AO2 RAE0656 P0000=
201111300653 METAR KSEA 300653Z 20009KT 10SM -RA SCT014 OVC023 06/04 A3020 RMK AO2 RAB0555 SLP235 P0003 T00610044=
201111300553 METAR KSEA 300553Z 18008KT 10SM FEW014 BKN027 OVC050 06/04 A3018 RMK AO2 RAE37 SLP230 P0000 60006 T00610044 10067 20050 53009=
201111300453 METAR KSEA 300453Z 19010KT 10SM -RA BKN028 OVC037 06/04 A3016 RMK AO2 SLP223 P0002 T00610039=
201111300353 METAR KSEA 300353Z 16013KT 9SM -RA FEW024 BKN034 OVC042 05/03 A3015 RMK AO2 RAB01 SLP218 P0003 T00500033=
201111300253 METAR KSEA 300253Z 14014KT 10SM FEW025 OVC034 06/02 A3016 RMK AO2 SLP221 60001 T00560022 58021=
201111300153 METAR KSEA 300153Z 15012KT 10SM OVC025 06/02 A3018 RMK AO2 RAE30 SLP230 P0000 T00560022=
201111300053 METAR KSEA 300053Z 19008KT 10SM -RA OVC027 06/02 A3020 RMK AO2 RAB33 SLP235 P0001 T00610017=
201111292353 METAR KSEA 292353Z 17009KT 10SM FEW009 BKN034 OVC100 06/02 A3022 RMK AO2 SLP242 T00560017 10056 20028 58004=
201111292253 METAR KSEA 292253Z 17012KT 10SM FEW008 OVC100 05/02 A3023 RMK AO2 SLP246 T00500017=
201111292153 METAR KSEA 292153Z 20016KT 10SM SCT008 BKN080 OVC200 05/02 A3022 RMK AO2 SLP244 T00500022=
201111292111 SPECI KSEA 292111Z 20009KT 10SM SCT006 BKN080 OVC200 05/03 A3024 RMK AO2=
201111292111 SPECI KSEA 292111Z 20009KT 10SM SCT006 BKN080 OVC200 05/03 A3024 RMK AO2=
201111292053 METAR KSEA 292053Z 18010KT 8SM BKN006 BKN075 OVC200 05/03 A3023 RMK AO2 SLP246 T00500033 56028=
201111292001 SPECI KSEA 292001Z 23006KT 4SM BR BKN005 OVC075 04/03 A3025 RMK AO2=
201111292001 SPECI KSEA 292001Z 23006KT 4SM BR BKN005 OVC075 04/03 A3025 RMK AO2=
201111291953 METAR KSEA 291953Z 23004KT 5SM BR SCT004 SCT070 BKN200 04/02 A3025 RMK AO2 SLP254 T00440022=
201111291853 METAR KSEA 291853Z 16003KT 6SM BR FEW004 SCT070 BKN200 04/02 A3027 RMK AO2 SLP259 T00390022=
201111291818 SPECI KSEA 291818Z 15007KT 5SM BR SCT003 BKN070 BKN200 03/02 A3029 RMK AO2 VIS W-N 2=
201111291818 SPECI KSEA 291818Z 15007KT 5SM BR SCT003 BKN070 BKN200 03/02 A3029 RMK AO2 VIS W-N 2=
201111291753 METAR KSEA 291753Z 14007KT 1/2SM BR BKN005 OVC070 03/02 A3031 RMK AO2 SFC VIS 1 1/2 SLP274 T00280017 10044 20022 58015=
201111291653 METAR KSEA 291653Z 00000KT 2SM BR OVC005 03/02 A3035=
201111291553 METAR KSEA 291553Z 15004KT 10SM BKN006 BKN090 BKN200 03/01 A3035 RMK AO2 SLP285 BKN006 V SCT T00280011 $=
201111291511 SPECI KSEA 291511Z 00000KT 10SM BKN006 OVC095 03/01 A3035 RMK AO2 $=
201111291511 SPECI KSEA 291511Z 00000KT 10SM BKN006 OVC095 03/01 A3035 RMK AO2 $=
201111291453 METAR KSEA 291453Z 00000KT 10SM FEW006 BKN095 BKN200 03/02 A3036 RMK AO2 SLP289 T00280017 58005 $=
201111291353 METAR KSEA 291353Z 00000KT 10SM OVC095 03/02 A3036 RMK AO2 SLP290 T00330017 $=
201111291253 METAR KSEA 291253Z 00000KT 10SM OVC100 03/02 A3038 RMK AO2 SLP296 T00280017 $=
201111291153 METAR KSEA 291153Z 13004KT 10SM FEW002 BKN100 03/01 A3037 RMK AO2 SLP295 T00280011 10044 20017 58013 $=
201111291053 METAR KSEA 291053Z 06003KT 10SM BKN110 03/02 A3040 RMK AO2 SLP304 T00330017 $=
201111290953 METAR KSEA 290953Z 03004KT 10SM SCT220 02/01 A3041 RMK AO2 SLP306 T00220011 $=
201111290853 METAR KSEA 290853Z 00000KT 10SM SCT220 03/01 A3041 RMK AO2 SLP306 T00280011 58015 $=
201111290753 METAR KSEA 290753Z 11005KT 10SM SCT220 03/01 A3042 RMK AO2 SLP309 T00330011 400890028 $=
201111290653 METAR KSEA 290653Z 12003KT 10SM SCT220 03/02 A3045 RMK AO2 SLP320 T00330017 $=
201111290553 METAR KSEA 290553Z 00000KT 10SM CLR 04/02 A3045 RMK AO2 SLP322 T00440022 10067 20028 $=
201111290453 METAR KSEA 290453Z 01003KT 10SM CLR 03/01 A3045 RMK AO2 SLP321 T00280006=
201111290353 METAR KSEA 290353Z 00000KT 10SM CLR 04/01 A3043 RMK AO2 SLP316 T00390011=
201111290253 METAR KSEA 290253Z 04003KT 10SM FEW250 05/01 A3044 RMK AO2 SLP317 T00500011 58016=
201111290153 METAR KSEA 290153Z 02003KT 10SM FEW140 SCT250 04/01 A3046 RMK AO2 SLP323 T00440011=
201111290053 METAR KSEA 290053Z 00000KT 10SM FEW025 SCT140 SCT250 06/02 A3047 RMK AO2 SLP326 T00610017=
201111282353 METAR KSEA 282353Z 34004KT 10SM FEW025 SCT250 07/01 A3049 RMK AO2 SLP332 T00670011 10089 20067 53004=
201111282253 METAR KSEA 282253Z 01005KT 10SM FEW025 BKN250 07/02 A3046 RMK AO2 SLP325 T00720017=
201111282153 METAR KSEA 282153Z 36004KT 10SM FEW020 BKN250 08/01 A3046 RMK AO2 SLP324 T00830006=
201111282053 METAR KSEA 282053Z VRB06KT 10SM FEW020 SCT034 BKN250 09/01 A3047 RMK AO2 SLP328 T00890006 58009=
201111281953 METAR KSEA 281953Z 03005KT 10SM FEW020 SCT150 BKN250 08/01 A3049 RMK AO2 SLP332 T00780011=
201111281853 METAR KSEA 281853Z 05003KT 10SM FEW020 BKN150 07/02 A3049 RMK AO2 SLP335 T00720022=
201111281753 METAR KSEA 281753Z 06005KT 10SM FEW015 SCT034 BKN150 BKN200 07/03 A3050 RMK AO2 SLP338 60000 T00670033 10067 20039 53015=
201111281653 METAR KSEA 281653Z 00000KT 10SM FEW020 BKN030 BKN200 06/03 A3048 RMK AO2 SLP331 T00610028=
201111281553 METAR KSEA 281553Z 00000KT 10SM FEW025 SCT045 BKN200 04/02 A3047 RMK AO2 SLP326 T00440022=
201111281453 METAR KSEA 281453Z 01006KT 10SM FEW030 BKN045 04/02 A3046 RMK AO2 SLP323 60000 T00440022 51007=
201111281353 METAR KSEA 281353Z 07003KT 10SM SCT035 BKN048 06/02 A3045 RMK AO2 RAB05E14 SLP321 P0000 T00560017=
201111281253 METAR KSEA 281253Z 09007KT 10SM BKN035 BKN045 06/03 A3045 RMK AO2 SLP318 T00610028=
201111281243 SPECI KSEA 281243Z 09007KT 10SM BKN035 BKN045 06/03 A3045 RMK AO2=
201111281243 SPECI KSEA 281243Z 09007KT 10SM BKN035 BKN045 06/03 A3045 RMK AO2=
201111281153 METAR KSEA 281153Z 05008KT 10SM BKN024 OVC035 06/03 A3044 RMK AO2 SLP316 60000 70038 T00610033 10078 20050 51018=
201111281122 SPECI KSEA 281122Z 04007KT 10SM FEW010 BKN024 BKN030 06/04 A3043 RMK AO2=
201111281122 SPECI KSEA 281122Z 04007KT 10SM FEW010 BKN024 BKN030 06/04 A3043 RMK AO2=
201111281053 METAR KSEA 281053Z 07005KT 10SM FEW020 BKN033 BKN045 05/03 A3043 RMK AO2 SLP312 T00500033=
201111280953 METAR KSEA 280953Z 11003KT 10SM BKN035 BKN050 06/04 A3041 RMK AO2 SLP306 T00610039=
201111280853 METAR KSEA 280853Z 36003KT 10SM BKN035 OVC045 07/04 A3039=
201111280827 SPECI KSEA 280827Z 00000KT 10SM SCT024 BKN038 07/04 A3038 RMK AO2=
201111280827 SPECI KSEA 280827Z 00000KT 10SM SCT024 BKN038 07/04 A3038 RMK AO2=
201111280753 METAR KSEA 280753Z 08008KT 10SM BKN022 OVC030 07/04 A3037=
201111280725 SPECI KSEA 280725Z 08010KT 10SM -RA FEW010 OVC019 07/04 A3036 RMK AO2 P0000=
201111280725 SPECI KSEA 280725Z 08010KT 10SM -RA FEW010 OVC019 07/04 A3036 RMK AO2 P0000=
201111280653 METAR KSEA 280653Z 03005KT 10SM -RA BKN010 BKN019 BKN025 07/05 A3035 RMK AO2 RAB40 SLP285 P0000 T00720050=
201111280553 METAR KSEA 280553Z 17006KT 10SM SCT013 BKN019 BKN029 08/06 A3033 RMK AO2 SLP277 T00780056 10089 20078 51026=
201111280453 METAR KSEA 280453Z 18005KT 10SM SCT017 BKN024 BKN120 08/06 A3030 RMK AO2 SLP267 T00780061=
201111280353 METAR KSEA 280353Z 18006KT 10SM BKN015 BKN020 OVC120 08/06 A3028 RMK AO2 SLP261 T00780061=
201111280253 METAR KSEA 280253Z 19008KT 10SM SCT013 BKN020 BKN090 08/06 A3025 RMK AO2 SLP251 T00830061 53028=
201111280237 SPECI KSEA 280237Z 20005KT 10SM SCT013 BKN020 BKN090 08/06 A3024 RMK AO2=
201111280237 SPECI KSEA 280237Z 20005KT 10SM SCT013 BKN020 BKN090 08/06 A3024 RMK AO2=
201111280153 METAR KSEA 280153Z 18008KT 10SM FEW013 SCT018 BKN080 08/06 A3022 RMK AO2 SLP241 T00830061=
201111280053 METAR KSEA 280053Z 18016G20KT 10SM SCT024 BKN031 BKN080 08/06 A3017=
201111272353 METAR KSEA 272353Z 18009KT 10SM BKN026 OVC031 09/06 A3016 RMK AO2 SLP222 60024 T00890061 10111 20083 53019=
201111272253 METAR KSEA 272253Z 18017KT 10SM FEW014 BKN026 OVC041 09/07 A3011 RMK AO2 PK WND 18027/2243 RAE52 SLP204 P0002 T00890067=
201111272153 METAR KSEA 272153Z 19017G24KT 10SM -RA SCT016 BKN048 OVC055 08/07 A3012 RMK AO2 SLP205 P0003 T00830067=
201111272053 METAR KSEA 272053Z 19012KT 10SM -RA FEW015 BKN055 OVC070 08/07 A3011 RMK AO2 SLP202 P0004 60019 T00830067 51040=
201111272021 SPECI KSEA 272021Z 22013G20KT 7SM -RA BKN047 OVC055 09/07 A3009 RMK AO2 P0003=
201111272021 SPECI KSEA 272021Z 22013G20KT 7SM -RA BKN047 OVC055 09/07 A3009 RMK AO2 P0003=
201111271958 SPECI KSEA 271958Z 23016G21KT 10SM -RA FEW008 BKN018 OVC048 09/08 A3008 RMK AO2 PRESRR P0001=
201111271958 SPECI KSEA 271958Z 23016G21KT 10SM -RA FEW008 BKN018 OVC048 09/08 A3008 RMK AO2 PRESRR P0001=
201111271953 METAR KSEA 271953Z 23016G23KT 10SM -RA BKN010 BKN019 OVC048 09/08 A3007 RMK AO2 PK WND 22027/1901 SLP190 P0009 T00940083=
201111271940 SPECI KSEA 271940Z 23014G21KT 6SM -RA BR FEW009 BKN012 OVC050 10/09 A3006 RMK AO2 PK WND 22027/1901 P0008=
201111271940 SPECI KSEA 271940Z 23014G21KT 6SM -RA BR FEW009 BKN012 OVC050 10/09 A3006 RMK AO2 PK WND 22027/1901 P0008=
201111271907 SPECI KSEA 271907Z 22015G27KT 10SM -RA SCT007 BKN046 OVC060 10/09 A3004 RMK AO2 PK WND 22027/1901 P0004=
201111271907 SPECI KSEA 271907Z 22015G27KT 10SM -RA SCT007 BKN046 OVC060 10/09 A3004=
201111271856 SPECI KSEA 271856Z 23017G27KT 4SM RA BR BKN007 BKN014 OVC032 10/09 A3003 RMK AO2 PK WND 23027/1853 PRESRR P0003=
201111271856 SPECI KSEA 271856Z 23017G27KT 4SM RA BR BKN007 BKN014 OVC032 10/09 A3003 RMK AO2 PK WND 23027/1853 PRESRR P0003=
201111271850 METAR KSEA 271850Z 23017G26KT 6SM -RA BR FEW009 BKN014 OVC029 11/09 A3002=
201111271849 SPECI KSEA 271849Z 22017G21KT 7SM -RA FEW009 BKN014 OVC029 11/09 A3002 RMK AO2 P0006=
201111271849 SPECI KSEA 271849Z 22017G21KT 7SM -RA FEW009 BKN014 OVC029 11/09 A3002 RMK AO2 P0006=
201111271809 SPECI KSEA 271809Z 22011G18KT 6SM -RA BR BKN029 OVC038 11/09 A3000 RMK AO2 P0001=
201111271809 SPECI KSEA 271809Z 22011G18KT 6SM -RA BR BKN029 OVC038 11/09 A3000 RMK AO2 P0001=
201111271753 METAR KSEA 271753Z 20012KT 10SM -RA FEW035 OVC044 11/09 A2999 RMK AO2 SLP161 P0007 60014 T01110089 10133 20083 53017=
201111271653 METAR KSEA 271653Z 21014G19KT 7SM -RA OVC035 12/07 A2997 RMK AO2 SLP155 P0006 T01170072=
201111271553 METAR KSEA 271553Z AUTO 20013G21KT 6SM -RA BR BKN043 BKN050 OVC065 13/06 A2994 RMK AO2 RAB14 SLP145 P0001 T01280061 TSNO=
201111271453 METAR KSEA 271453Z 17012KT 10SM BKN045 OVC100 11/04 A2993 RMK AO2 SLP144 T01110044 56031=
201111271353 METAR KSEA 271353Z 19006KT 10SM SCT045 OVC080 11/05 A2996 RMK AO2 SLP152 T01060050=
201111271253 METAR KSEA 271253Z 14011KT 10SM BKN080 OVC110 09/06 A2996 RMK AO2 PRESFR SLP154 T00940056=
201111271153 METAR KSEA 271153Z 14011KT 10SM FEW060 BKN080 OVC100 09/06 A3003 RMK AO2 RAE02 SLP175 P0000 60004 70006 T00940061 10106 20078 58019=
201111271053 METAR KSEA 271053Z 16008G17KT 10SM -RA BKN070 OVC095 09/07 A3006 RMK AO2 PRESFR SLP186 P0002 T00890067=
201111270953 METAR KSEA 270953Z 21009G14KT 10SM -RA SCT075 OVC090 10/06 A3009 RMK AO2 RAE02B50 SLP198 P0000 T01000061=
201111270853 METAR KSEA 270853Z 18008KT 10SM -RA BKN070 OVC090 09/06 A3008 RMK AO2 SLP195 P0002 60002 T00890061 56020=
201111270753 METAR KSEA 270753Z 17003KT 10SM -RA OVC080 09/06 A3010 RMK AO2 RAB03 SLP199 P0000 T00940056 401060050=
201111270653 METAR KSEA 270653Z 13006KT 10SM FEW050 OVC085 11/06 A3012 RMK AO2 RAE31 SLP206 P0000 T01060056=
201111270553 METAR KSEA 270553Z 18004KT 10SM -RA OVC080 09/05 A3014 RMK AO2 RAB43 SLP215 P0000 60000 T00940050 10100 20078 56018=
201111270453 METAR KSEA 270453Z COR 00000KT 10SM BKN100 08/05 A3016 RMK AO2 SLP222 T00830050=
201111270353 METAR KSEA 270353Z 00000KT 10SM BKN100 09/06 A3017 RMK AO2 SLP225 T00940056=
201111270253 METAR KSEA 270253Z 00000KT 10SM OVC055 09/06 A3020=
201111270153 METAR KSEA 270153Z 00000KT 10SM OVC055 09/06 A3020=
201111270053 METAR KSEA 270053Z 28003KT 10SM OVC046 09/06 A3022 RMK AO2 SLP241 T00890061=
201111262353 METAR KSEA 262353Z 00000KT 10SM OVC050 09/06 A3023 RMK AO2 SLP246 60000 T00940061 10100 20072 58013=
201111262253 METAR KSEA 262253Z 00000KT 10SM BKN048 OVC060 09/06 A3025 RMK AO2 SLP251 T00890061=
201111262153 METAR KSEA 262153Z 00000KT 10SM BKN045 OVC060 08/06 A3026 RMK AO2 SLP255 T00830061=
201111262053 METAR KSEA 262053Z 15005KT 10SM BKN040 BKN060 OVC200 10/06 A3027 RMK AO2 SLP259 60000 T01000061 58021=
201111261953 METAR KSEA 261953Z 26005KT 10SM OVC033 08/06 A3031 RMK AO2 DZE13 SLP273 P0000 T00780056=
201111261853 METAR KSEA 261853Z 00000KT 10SM -DZ BKN032 OVC045 07/06 A3033 RMK AO2 RAE38DZB50 SLP278 P0000 T00720056=
201111261753 METAR KSEA 261753Z 00000KT 7SM -RA FEW030 BKN046 OVC060 07/04 A3034 RMK AO2 RAB52 SLP281 P0000 60002 T00720044 10072 20050 55000=
201111261653 METAR KSEA 261653Z 00000KT 10SM FEW021 OVC033 07/04 A3033 RMK AO2 SLP280 T00670039=
201111261629 SPECI KSEA 261629Z 14004KT 10SM SCT021 OVC032 06/04 A3033 RMK AO2=
201111261629 SPECI KSEA 261629Z 14004KT 10SM SCT021 OVC032 06/04 A3033 RMK AO2=
201111261553 METAR KSEA 261553Z 12008KT 10SM BKN021 OVC027 06/03 A3033 RMK AO2 RAB02E39 SLP279 P0001 T00610028=
201111261453 METAR KSEA 261453Z 16004KT 7SM OVC022 05/03 A3034 RMK AO2 RAE53 SLP281 P0001 60001 T00500028 56000=
201111261412 SPECI KSEA 261412Z 19003KT 7SM -RA OVC028 06/02 A3035 RMK AO2 P0000=
201111261412 SPECI KSEA 261412Z 19003KT 7SM -RA OVC028 06/02 A3035 RMK AO2 P0000=
201111261353 METAR KSEA 261353Z 17004KT 10SM -RA OVC033 06/02 A3034 RMK AO2 RAB03 SLP282 P0000 T00610017=
201111261253 METAR KSEA 261253Z 09003KT 10SM OVC035 06/02 A3033 RMK AO2 SLP280 T00610022=
201111261153 METAR KSEA 261153Z 00000KT 10SM OVC042 06/01 A3034 RMK AO2 RAE34 SLP282 P0000 60000 T00560011 10067 20050 58007=
201111261053 METAR KSEA 261053Z 12006KT 10SM -RA OVC046 06/M02 A3035 RMK AO2 RAB53 SLP285 P0000 T00611017=
201111260953 METAR KSEA 260953Z 00000KT 10SM OVC060 06/M01 A3036 RMK AO2 SLP291 T00561006=
201111260853 METAR KSEA 260853Z 17005KT 10SM OVC080 06/M02 A3036 RMK AO2 SLP289 T00561017 58006=
201111260753 METAR KSEA 260753Z 14004KT 10SM FEW065 OVC080 06/M01 A3036 RMK AO2 SLP291 T00561006 400890022=
201111260653 METAR KSEA 260653Z 12005KT 10SM OVC080 06/00 A3038 RMK AO2 SLP295 T00560000=
201111260553 METAR KSEA 260553Z 11004KT 10SM OVC090 06/M01 A3038 RMK AO2 SLP296 T00561006 10072 20056 58004=
201111260453 METAR KSEA 260453Z 16007KT 10SM BKN090 OVC100 06/M01 A3039 RMK AO2 SLP299 T00611011=
201111260353 METAR KSEA 260353Z 10006KT 10SM BKN090 OVC150 06/M01 A3039 RMK AO2 SLP300 T00611006=
201111260253 METAR KSEA 260253Z 09006KT 10SM BKN110 OVC200 06/00 A3039 RMK AO2 SLP301 T00610000 58004=
201111260153 METAR KSEA 260153Z 00000KT 10SM FEW140 OVC200 07/00 A3040 RMK AO2 SLP304 T00670000=
201111260053 METAR KSEA 260053Z 00000KT 10SM FEW140 OVC200 07/02 A3040 RMK AO2 SLP305 T00670017=
201111252353 METAR KSEA 252353Z 00000KT 10SM FEW032 BKN250 07/01 A3040 RMK AO2 SLP304 T00720011 10089 20044 53001=
201111252253 METAR KSEA 252253Z 20003KT 10SM SCT034 SCT250 08/02 A3041=
201111252153 METAR KSEA 252153Z 19003KT 10SM SCT028 SCT250 08/02 A3039 RMK AO2 SLP301 T00830017=
201111252053 METAR KSEA 252053Z 17007KT 10SM SCT022 BKN250 08/02 A3040 RMK AO2 SLP303 T00780017 51013=
201111251953 METAR KSEA 251953Z 18006KT 10SM SCT019 BKN250 07/02 A3040 RMK AO2 SLP303 T00720022=
201111251853 METAR KSEA 251853Z 17008KT 10SM SCT018 BKN250 06/02 A3040 RMK AO2 SLP304 T00610017=
201111251753 METAR KSEA 251753Z 14009KT 10SM SCT017 BKN250 05/02 A3036 RMK AO2 SLP290 T00500017 10050 20022 51048=
201111251735 SPECI KSEA 251735Z 13010KT 10SM BKN017 BKN250 04/01 A3035 RMK AO2=
201111251735 SPECI KSEA 251735Z 13010KT 10SM BKN017 BKN250 04/01 A3035 RMK AO2=
201111251653 METAR KSEA 251653Z 15006KT 10SM FEW017 SCT250 04/01 A3032 RMK AO2 SLP277 T00390011=
201111251553 METAR KSEA 251553Z 18008KT 10SM FEW017 02/01 A3026 RMK AO2 SLP256 T00220006=
201111251535 SPECI KSEA 251535Z 13009KT 10SM SCT017 SCT120 03/01 A3025 RMK AO2=
201111251535 SPECI KSEA 251535Z 13009KT 10SM SCT017 SCT120 03/01 A3025 RMK AO2=
201111251501 SPECI KSEA 251501Z 14006KT 10SM BKN017 BKN025 BKN120 03/01 A3023 RMK AO2=
201111251501 SPECI KSEA 251501Z 14006KT 10SM BKN017 BKN025 BKN120 03/01 A3023 RMK AO2=
201111251453 METAR KSEA 251453Z 13008KT 10SM FEW017 SCT025 BKN120 03/01 A3022 RMK AO2 SLP242 T00280006 51045=
201111251353 METAR KSEA 251353Z 19003KT 10SM SCT018 03/00 A3018 RMK AO2 SLP229 T00330000=
201111251253 METAR KSEA 251253Z 21006KT 10SM SCT018 03/01 A3013 RMK AO2 SLP212 T00330006=
201111251153 METAR KSEA 251153Z 22010G19KT 10SM FEW020 04/01 A3008 RMK AO2 SLP195 70026 T00440006 10061 20039 53052=
201111251053 METAR KSEA 251053Z 22013G23KT 10SM FEW020 04/01 A3002 RMK AO2 SLP175 T00440006=
201111250953 METAR KSEA 250953Z 23014G23KT 10SM FEW020 SCT100 05/01 A2996=
201111250853 METAR KSEA 250853Z 22015G19KT 10SM FEW020 SCT100 05/01 A2993 RMK AO2 SLP142 T00500011 51056=
201111250753 METAR KSEA 250753Z 22014G22KT 10SM FEW010 SCT100 06/02 A2988 RMK AO2 PK WND 22028/0702 PRESRR SLP127 T00560017 400720028=
201111250653 METAR KSEA 250653Z 22014G25KT 10SM FEW050 SCT100 06/02 A2982 RMK AO2 PK WND 21029/0556 SLP105 T00560022=
201111250553 METAR KSEA 250553Z 22020G30KT 10SM FEW020 SCT050 06/03 A2976 RMK AO2 PK WND 22031/0542 SLP086 60012 T00610028 10067 20056 51030=
201111250508 SPECI KSEA 250508Z 22016G24KT 10SM FEW019 SCT050 BKN070 07/03 A2975 RMK AO2=
201111250508 SPECI KSEA 250508Z 22016G24KT 10SM FEW019 SCT050 BKN070 07/03 A2975 RMK AO2=
201111250453 METAR KSEA 250453Z 22016KT 10SM BKN019 BKN048 OVC075 07/04 A2974 RMK AO2 PK WND 22027/0433 RAB24E50 SLP080 P0001 T00670044=
201111250353 METAR KSEA 250353Z 17011G17KT 10SM FEW018 BKN027 BKN065 06/04 A2971=
201111250253 METAR KSEA 250253Z 17015KT 10SM FEW009 BKN023 OVC065 06/04 A2967 RMK AO2 RAB0158E09B27E50 SLP055 P0000 60011 T00560039 53023=
201111250153 METAR KSEA 250153Z 18014G22KT 10SM SCT017 OVC027 06/04 A2965 RMK AO2 PK WND 19027/0125 RAE43 SLP048 P0004 T00610039=
201111250053 METAR KSEA 250053Z 19016G25KT 10SM -RA FEW023 BKN037 OVC050 07/04 A2961 RMK AO2 SLP036 P0007 T00670039=
201111250015 SPECI KSEA 250015Z 21010G17KT 9SM -RA OVC025 07/04 A2960 RMK AO2 P0005=
201111250015 SPECI KSEA 250015Z 21010G17KT 9SM -RA OVC025 07/04 A2960 RMK AO2 P0005=
201111242353 METAR KSEA 242353Z 23010KT 3SM RA OVC031 07/04 A2960 RMK AO2 RAB15 SLP030 P0003 60014 T00670039 10072 20039 53001=
201111242253 METAR KSEA 242253Z 17015G18KT 10SM BKN035 OVC080 07/04 A2956 RMK AO2 RAE52 SLP018 P0002 T00670039=
201111242232 SPECI KSEA 242232Z 14010KT 8SM -RA BKN032 OVC038 06/03 A2956 RMK AO2 P0002=
201111242232 SPECI KSEA 242232Z 14010KT 8SM -RA BKN032 OVC038 06/03 A2956 RMK AO2 P0002=
201111242153 METAR KSEA 242153Z 16013G19KT 6SM -RA BKN026 OVC035 06/03 A2959 RMK AO2 PK WND 16027/2127 SLP028 P0005 T00610028=
201111242053 METAR KSEA 242053Z 17017G35KT 8SM -RA BKN027 OVC035 07/02 A2959=
201111242039 SPECI KSEA 242039Z 17019G24KT 3SM -RA BKN027 OVC035 07/02 A2960 RMK AO2 PK WND 16027/2023 P0002=
201111242039 SPECI KSEA 242039Z 17019G24KT 3SM -RA BKN027 OVC035 07/02 A2960 RMK AO2 PK WND 16027/2023 P0002=
201111241953 METAR KSEA 241953Z 17014KT 8SM -RA BKN037 OVC045 07/02 A2963 RMK AO2 SLP040 P0000 T00670017=
201111241853 METAR KSEA 241853Z 17019G26KT 7SM -RA BKN036 OVC047 06/01 A2968 RMK AO2 PK WND 15030/1823 RAB37 SLP058 P0000 T00610006=
201111241753 METAR KSEA 241753Z 15007KT 10SM FEW030 BKN060 OVC110 04/01 A2972 RMK AO2 SLP073 T00390006 10050 20033 58009=
201111241653 METAR KSEA 241653Z 13009KT 10SM FEW030 BKN065 OVC110 04/00 A2974=
201111241553 METAR KSEA 241553Z 14006KT 10SM FEW030 BKN060 OVC120 04/01 A2975 RMK AO2 SLP083 T00390011=
201111241453 METAR KSEA 241453Z 14007KT 10SM BKN060 BKN080 04/02 A2975 RMK AO2 SLP083 T00390017 58022=
201111241353 METAR KSEA 241353Z 13005KT 10SM BKN060 03/02 A2978 RMK AO2 SLP094 T00330017=
201111241253 METAR KSEA 241253Z 14006KT 10SM OVC055 04/02 A2980 RMK AO2 SLP100 T00390017=
201111241153 METAR KSEA 241153Z 14004KT 10SM OVC055 04/02 A2982 RMK AO2 SLP105 70033 T00390022 10056 20028 58008=
201111241053 METAR KSEA 241053Z 14003KT 10SM BKN055 03/02 A2983 RMK AO2 SLP108 T00330017=
201111240953 METAR KSEA 240953Z 19007KT 10SM BKN055 04/02 A2984 RMK AO2 SLP112 T00390022=
201111240853 METAR KSEA 240853Z 17005KT 10SM SCT010 03/02 A2984 RMK AO2 SLP113 T00280017 50003=
201111240845 SPECI KSEA 240845Z 16005KT 10SM SCT010 03/02 A2984 RMK AO2=
201111240845 SPECI KSEA 240845Z 16005KT 10SM SCT010 03/02 A2984 RMK AO2=
201111240753 METAR KSEA 240753Z 18005KT 10SM BKN010 BKN014 04/03 A2984 RMK AO2 SLP113 T00440033 401170044=
201111240706 SPECI KSEA 240706Z 20007KT 10SM BKN012 OVC016 06/04 A2983 RMK AO2=
201111240706 SPECI KSEA 240706Z 20007KT 10SM BKN012 OVC016 06/04 A2983 RMK AO2=
201111240653 METAR KSEA 240653Z 22005KT 10SM FEW008 BKN015 06/04 A2984 RMK AO2 SLP111 T00560039=
201111240553 METAR KSEA 240553Z 21006KT 10SM FEW009 BKN015 OVC024 06/04 A2983 RMK AO2 SLP109 60000 T00560039 10067 20056 51016=
201111240545 SPECI KSEA 240545Z 20007KT 10SM FEW009 BKN015 OVC025 06/04 A2983 RMK AO2=
201111240545 SPECI KSEA 240545Z 20007KT 10SM FEW009 BKN015 OVC025 06/04 A2983 RMK AO2=
201111240528 SPECI KSEA 240528Z 18006KT 10SM SCT008 BKN014 OVC022 06/04 A2982 RMK AO2=
201111240528 SPECI KSEA 240528Z 18006KT 10SM SCT008 BKN014 OVC022 06/04 A2982 RMK AO2=
201111240453 METAR KSEA 240453Z 17008KT 10SM BKN007 OVC025 06/04 A2982=
201111240443 SPECI KSEA 240443Z 15004KT 10SM BKN007 OVC025 06/04 A2981 RMK AO2=
201111240443 SPECI KSEA 240443Z 15004KT 10SM BKN007 OVC025 06/04 A2981 RMK AO2=
201111240408 SPECI KSEA 240408Z 15005KT 10SM SCT007 OVC029 06/04 A2980 RMK AO2=
201111240408 SPECI KSEA 240408Z 15005KT 10SM SCT007 OVC029 06/04 A2980 RMK AO2=
201111240353 METAR KSEA 240353Z 00000KT 10SM BKN007 OVC029 06/04 A2980=
201111240253 METAR KSEA 240253Z 15007KT 10SM OVC005 06/04 A2978 RMK AO2 RAE52 SLP093 P0000 60000 T00610044 53023=
201111240153 METAR KSEA 240153Z 16007KT 5SM -RA BR OVC010 06/04 A2976 RMK AO2 RAB0055E05B35 SLP084 P0000 T00610044=
201111240053 METAR KSEA 240053Z 15007KT 10SM FEW008 OVC013 07/04 A2973=
201111240043 SPECI KSEA 240043Z 14009KT 10SM -RA FEW009 OVC015 07/04 A2973 RMK AO2 RAB15 P0000=
201111240043 SPECI KSEA 240043Z 14009KT 10SM -RA FEW009 OVC015 07/04 A2973 RMK AO2 RAB15 P0000=
201111232353 METAR KSEA 232353Z 07005KT 10SM FEW006 OVC016 06/04 A2971 RMK AO2 RAE11 SLP068 P0000 60004 T00610044 10078 20061 53020=
201111232329 SPECI KSEA 232329Z 07005KT 10SM FEW007 SCT013 OVC020 06/04 A2970 RMK AO2 RAE11 P0000=
201111232329 SPECI KSEA 232329Z 07005KT 10SM FEW007 SCT013 OVC020 06/04 A2970 RMK AO2 RAE11 P0000=
201111232253 METAR KSEA 232253Z 02004KT 10SM -RA FEW007 BKN011 OVC023 07/05 A2969 RMK AO2 RAE22B49 SLP060 P0000 T00720050=
201111232229 SPECI KSEA 232229Z 00000KT 10SM SCT006 BKN010 OVC025 08/06 A2968 RMK AO2 RAE22 P0000=
201111232229 SPECI KSEA 232229Z 00000KT 10SM SCT006 BKN010 OVC025 08/06 A2968 RMK AO2 RAE22 P0000=
201111232153 METAR KSEA 232153Z 22008KT 10SM -RA BKN010 OVC017 08/06 A2967 RMK AO2 SLP052 P0000 T00780056=
201111232053 METAR KSEA 232053Z 21006KT 10SM -RA BKN010 OVC015 08/06 A2965 RMK AO2 RAE03B22 SLP048 P0000 60004 T00780061 51017=
201111231953 METAR KSEA 231953Z 20007KT 10SM -RA FEW008 BKN011 OVC015 08/06 A2963 RMK AO2 SLP040 P0002 T00780061=
201111231931 SPECI KSEA 231931Z 19006KT 10SM -RA FEW008 BKN011 OVC017 08/06 A2963 RMK AO2 P0002=
201111231931 SPECI KSEA 231931Z 19006KT 10SM -RA FEW008 BKN011 OVC017 08/06 A2963 RMK AO2 P0002=
201111231853 METAR KSEA 231853Z 20007KT 10SM -RA BKN011 OVC017 08/06 A2963 RMK AO2 SLP039 P0002 T00780061=
201111231753 METAR KSEA 231753Z 18008KT 10SM -RA BKN013 OVC020 08/06 A2960 RMK AO2 RAB02 SLP031 P0000 60029 T00780056 10117 20078 51030=
201111231747 SPECI KSEA 231747Z 18006KT 10SM -RA BKN013 OVC020 08/06 A2960 RMK AO2 RAB02 P0000=
201111231747 SPECI KSEA 231747Z 18006KT 10SM -RA BKN013 OVC020 08/06 A2960 RMK AO2 RAB02 P0000=
201111231653 METAR KSEA 231653Z 22012KT 10SM BKN015 OVC055 08/05 A2956 RMK AO2 SLP018 T00780050=
201111231645 SPECI KSEA 231645Z 22005KT 10SM BKN015 OVC055 08/05 A2956 RMK AO2=
201111231645 SPECI KSEA 231645Z 22005KT 10SM BKN015 OVC055 08/05 A2956 RMK AO2=
201111231553 METAR KSEA 231553Z 21013G18KT 10SM FEW011 OVC055 08/07 A2951 RMK AO2 RAE52 SLP001 P0000 T00780067=
201111231453 METAR KSEA 231453Z 21014G19KT 10SM -RA OVC060 08/06 A2947 RMK AO2 SLP985 P0001 60029 T00830056 53027 $=
201111231433 SPECI KSEA 231433Z 10SM -RA FEW014 BKN055 OVC090 09/07 A2945 RMK AO2 P0001 $=
201111231433 SPECI KSEA 231433Z 10SM -RA FEW014 BKN055 OVC090 09/07 A2945 RMK AO2 P0001 $=
201111231422 SPECI KSEA 231422Z 22013G20KT 10SM BKN012 BKN033 OVC090 09/08 A2945 RMK AO2 RAE14 P0001=
201111231422 SPECI KSEA 231422Z 22013G20KT 10SM BKN012 BKN033 OVC090 09/08 A2945 RMK AO2 RAE14 P0001=
201111231353 METAR KSEA 231353Z 23009KT 5SM -RA BR FEW009 BKN027 OVC033 09/09 A2944 RMK AO2 PK WND 17026/1256 SLP975 P0018 T00890089=
201111231340 SPECI KSEA 231340Z 24005KT 5SM RA BR FEW006 BKN025 OVC033 09/08 A2942 RMK AO2 PK WND 17026/1256 P0016=
201111231340 SPECI KSEA 231340Z 24005KT 5SM RA BR FEW006 BKN025 OVC033 09/08 A2942 RMK AO2 PK WND 17026/1256 P0016=
201111231330 SPECI KSEA 231330Z 25014G21KT 2 1/2SM +RA BR FEW006 BKN022 OVC030 09/08 A2941 RMK AO2 PK WND 17026/1256 P0009=
201111231330 SPECI KSEA 231330Z 25014G21KT 2 1/2SM +RA BR FEW006 BKN022 OVC030 09/08 A2941 RMK AO2 PK WND 17026/1256 P0009=
201111231322 SPECI KSEA 231322Z 22013G16KT 5SM RA BR BKN016 BKN024 OVC046 11/09 A2941 RMK AO2 PK WND 17026/1256 PRESRR P0005=
201111231322 SPECI KSEA 231322Z 22013G16KT 5SM RA BR BKN016 BKN024 OVC046 11/09 A2941 RMK AO2 PK WND 17026/1256 PRESRR P0005=
201111231253 METAR KSEA 231253Z 17018G23KT 9SM -RA OVC050 11/09 A2936 RMK AO2 SLP950 P0010 T01110094=
201111231153 METAR KSEA 231153Z 16014KT 7SM RA OVC050 11/09 A2938 RMK AO2 PK WND 19031/1110 SLP957 P0008 60024 70195 T01110094 10117 20100 58005=
201111231053 METAR KSEA 231053Z 17018G25KT 8SM -RA OVC050 11/09 A2940 RMK AO2 PK WND 19029/1036 SLP963 P0006 T01110094=
201111230953 METAR KSEA 230953Z 17017G23KT 10SM -RA FEW045 OVC055 11/09 A2940=
201111230853 METAR KSEA 230853Z 16017KT 10SM -RA OVC055 11/10 A2940 RMK AO2 SLP962 P0005 60007 T01110100 56016=
201111230753 METAR KSEA 230753Z 17013G22KT 10SM -RA OVC060 11/09 A2940 RMK AO2 SLP964 P0002 T01110094 401110050=
201111230653 METAR KSEA 230653Z 17016G22KT 10SM -RA BKN060 OVC070 11/09 A2942=
201111230553 METAR KSEA 230553Z 15013KT 10SM -RA SCT040 OVC050 10/09 A2945 RMK AO2 SLP978 P0006 60071 T01000089 10106 20050 58014=
201111230453 METAR KSEA 230453Z 21008G17KT 6SM -RA BR SCT037 OVC046 09/08 A2947 RMK AO2 SLP987 P0005 T00940083=
201111230353 METAR KSEA 230353Z 13010KT 6SM RA BR SCT031 BKN044 OVC060 07/07 A2947 RMK AO2 SLP986 P0004 T00720067=
201111230306 SPECI KSEA 230306Z 13006KT 6SM -RA BR FEW003 BKN039 OVC045 07/06 A2948 RMK AO2 P0001=
201111230306 SPECI KSEA 230306Z 13006KT 6SM -RA BR FEW003 BKN039 OVC045 07/06 A2948 RMK AO2 P0001=
201111230253 METAR KSEA 230253Z 09008G19KT 2SM +RA BR FEW002 BKN035 OVC044 06/05 A2949 RMK AO2 SLP993 P0017 60056 T00560050 56040=
201111230247 SPECI KSEA 230247Z 30014G19KT 1/2SM -RA BR FEW005 BKN038 OVC055 06/05 A2952 RMK AO2 SFC VIS 4 PRESRR P0013=
201111230247 SPECI KSEA 230247Z 30014G19KT 1/2SM -RA BR FEW005 BKN038 OVC055 06/05 A2952 RMK AO2 SFC VIS 4 PRESRR P0013=
201111230231 SPECI KSEA 230231Z 11004KT 5SM RA BR FEW022 BKN045 OVC055 06/06 A2950 RMK AO2 P0010=
201111230231 SPECI KSEA 230231Z 11004KT 5SM RA BR FEW022 BKN045 OVC055 06/06 A2950 RMK AO2 P0010=
201111230153 METAR KSEA 230153Z 04007KT 4SM RA BR BKN019 OVC031 06/04 A2952 RMK AO2 SLP005 P0022 T00560044=
201111230053 METAR KSEA 230053Z 07006KT 4SM RA BR FEW024 BKN033 OVC043 06/04 A2956 RMK AO2 SLP018 P0017 T00560039=
201111222353 METAR KSEA 222353Z 09010KT 5SM -RA BR FEW020 OVC041 06/04 A2961 RMK AO2 SLP034 P0015 60051 T00560044 10072 20056 58026=
201111222321 SPECI KSEA 222321Z 09008KT 4SM RA BR FEW021 OVC033 06/04 A2964 RMK AO2 P0008=
201111222321 SPECI KSEA 222321Z 09008KT 4SM RA BR FEW021 OVC033 06/04 A2964 RMK AO2 P0008=
201111222253 METAR KSEA 222253Z 09009KT 3SM RA BR FEW007 BKN023 OVC030 06/05 A2965 RMK AO2 SLP047 P0017 T00610050=
201111222153 METAR KSEA 222153Z 13011KT 4SM RA BR FEW006 BKN024 OVC032 06/05 A2968=
201111222053 METAR KSEA 222053Z 14011KT 7SM -RA FEW008 BKN028 OVC045 06/05 A2969 RMK AO2 SLP060 P0008 60009 T00610050 51008=
201111222047 SPECI KSEA 222047Z 15010KT 6SM -RA BR FEW008 BKN028 OVC045 06/05 A2969 RMK AO2 P0007=
201111222047 SPECI KSEA 222047Z 15010KT 6SM -RA BR FEW008 BKN028 OVC045 06/05 A2969 RMK AO2 P0007=
201111221953 METAR KSEA 221953Z 14013KT 9SM -RA FEW007 BKN032 OVC046 06/05 A2967 RMK AO2 RAB11 SLP055 P0001 T00610050=
201111221853 METAR KSEA 221853Z 15014KT 10SM FEW007 BKN030 OVC065 07/07 A2966=
201111221753 METAR KSEA 221753Z 15015KT 10SM -RA FEW008 SCT029 OVC065 07/06 A2964 RMK AO2 RAE15B33 SLP044 P0000 60049 T00720061 10100 20072 51047=
201111221712 SPECI KSEA 221712Z 16010KT 8SM -RA FEW008 BKN043 OVC075 07/06 A2962 RMK AO2 P0000=
201111221712 SPECI KSEA 221712Z 16010KT 8SM -RA FEW008 BKN043 OVC075 07/06 A2962 RMK AO2 P0000=
201111221653 METAR KSEA 221653Z 19010KT 7SM -RA FEW011 OVC039 07/06 A2961 RMK AO2 SLP034 P0004 T00720056=
201111221553 METAR KSEA 221553Z 21012KT 7SM -RA FEW018 OVC039 07/06 A2956 RMK AO2 SLP018 P0010 T00720056=
201111221453 METAR KSEA 221453Z 23013G19KT 10SM -RA FEW013 OVC050 08/07 A2950 RMK AO2 PK WND 22034/1412 SLP996 P0018 60035 T00830067 53022=
201111221353 METAR KSEA 221353Z 18015G28KT 8SM RA SCT036 OVC046 10/09 A2941=
201111221253 METAR KSEA 221253Z 17018G28KT 8SM RA FEW041 OVC048 09/07 A2941 RMK AO2 PK WND 16028/1248 SLP965 P0008 T00940067=
201111221153 METAR KSEA 221153Z 17018G28KT 8SM -RA OVC038 09/06 A2943 RMK AO2 PK WND 17033/1117 SLP974 P0003 60003 70033 T00940061 10100 20094 58022=
201111221053 METAR KSEA 221053Z 16020G28KT 10SM -RA OVC048 10/05 A2945 RMK AO2 PK WND 15032/1032 SLP978 P0000 T01000050=
201111220953 METAR KSEA 220953Z 17016G29KT 10SM -RA BKN055 OVC065 10/04 A2949 RMK AO2 PK WND 17030/0856 RAE02B41 SLP992 P0000 T01000044=
201111220853 METAR KSEA 220853Z 17018G26KT 10SM -RA OVC046 10/04 A2950 RMK AO2 PK WND 18026/0851 SLP996 P0000 60000 T01000044 58020=
201111220753 METAR KSEA 220753Z 17018G23KT 10SM -RA OVC044 09/04 A2953 RMK AO2 PK WND 17027/0713 RAB06 SLP006 P0000 T00940044 401000006=
201111220653 METAR KSEA 220653Z 17019G27KT 10SM BKN042 OVC055 10/04 A2955 RMK AO2 PK WND 18027/0652 SLP012 T01000039=
201111220553 METAR KSEA 220553Z 17017G26KT 10SM BKN044 OVC075 10/03 A2956 RMK AO2 PK WND 17031/0507 SLP016 60004 T01000033 10100 20072 56025=
201111220453 METAR KSEA 220453Z 16016G22KT 10SM OVC038 09/04 A2957 RMK AO2 RAB00E51 SLP022 P0000 T00940039=
201111220353 METAR KSEA 220353Z 16015KT 10SM OVC044 09/04 A2961 RMK AO2 RAE05 SLP034 P0000 T00890039=
201111220253 METAR KSEA 220253Z 17015KT 10SM -RA SCT038 OVC044 08/06 A2963 RMK AO2 RAB0155 SLP043 P0001 60004 T00830056 56015=
201111220153 METAR KSEA 220153Z 18010KT 10SM FEW030 OVC046 08/06 A2964 RMK AO2 RAB23E50 SLP046 P0000 T00830056=
201111220053 METAR KSEA 220053Z 15008KT 10SM FEW025 BKN036 OVC150 08/05 A2966 RMK AO2 RAB01E44 SLP052 P0003 T00780050=
201111212353 METAR KSEA 212353Z 14006KT 10SM FEW030 OVC036 07/05 A2968 RMK AO2 RAB24E36 SLP059 P0000 60004 T00720050 10089 20067 58023=
201111212253 METAR KSEA 212253Z 17009KT 10SM SCT025 BKN042 OVC060 08/06 A2970 RMK AO2 RAB12E47 SLP067 P0001 T00830056=
201111212228 SPECI KSEA 212228Z 17014KT 6SM -RA BKN025 OVC031 08/05 A2971 RMK AO2 RAB12 P0000=
201111212228 SPECI KSEA 212228Z 17014KT 6SM -RA BKN025 OVC031 08/05 A2971 RMK AO2 RAB12 P0000=
201111212153 METAR KSEA 212153Z 17009KT 10SM SCT029 BKN036 OVC046 09/04 A2973 RMK AO2 SLP075 T00890044=
201111212053 METAR KSEA 212053Z 16012G20KT 10SM SCT027 BKN035 OVC060 09/04 A2975 RMK AO2 SLP081 60003 T00890044 50007=
201111211953 METAR KSEA 211953Z 18012G19KT 10SM SCT037 BKN047 BKN060 08/04 A2975 RMK AO2 RAB20E31 SLP082 P0000 T00830044=
201111211853 METAR KSEA 211853Z 18011G18KT 10SM SCT022 BKN046 OVC065 07/05 A2974 RMK AO2 RAE26 SLP080 P0003 T00720050=
201111211838 SPECI KSEA 211838Z 17010KT 10SM SCT020 BKN046 OVC065 07/05 A2974 RMK AO2 RAE26 P0003=
201111211838 SPECI KSEA 211838Z 17010KT 10SM SCT020 BKN046 OVC065 07/05 A2974 RMK AO2 RAE26 P0003=
201111211753 METAR KSEA 211753Z 20007KT 6SM -RA BR BKN017 BKN023 OVC027 07/04 A2973 RMK AO2 RAB1654 SLP075 P0003 60022 T00670044 10067 20017 53022=
201111211719 SPECI KSEA 211719Z 19007KT 9SM RA BKN017 BKN023 OVC035 06/04 A2972 RMK AO2 RAB1654 P0000=
201111211719 SPECI KSEA 211719Z 19007KT 9SM RA BKN017 BKN023 OVC035 06/04 A2972 RMK AO2 RAB1654 P0000=
201111211653 METAR KSEA 211653Z 19010KT 10SM SCT017 BKN035 OVC047 06/06 A2971 RMK AO2 SLP069 T00610056=
201111211553 METAR KSEA 211553Z 18009KT 10SM FEW012 BKN030 OVC043 05/05 A2966 RMK AO2 RAE49 SLP054 P0006 T00500050=
201111211517 SPECI KSEA 211517Z 17009KT 9SM -RA FEW008 BKN023 OVC028 04/04 A2966 RMK AO2 P0005=
201111211517 SPECI KSEA 211517Z 17009KT 9SM -RA FEW008 BKN023 OVC028 04/04 A2966 RMK AO2 P0005=
201111211453 METAR KSEA 211453Z 16005KT 7SM RA OVC028 04/02 A2966 RMK AO2 SLP052 P0007 60013 T00390022 55017=
201111211353 METAR KSEA 211353Z 14012G22KT 10SM -RA BKN030 OVC040 05/02 A2962 RMK AO2 SLP039 P0003 T00500017 $=
201111211253 METAR KSEA 211253Z 13008KT 5SM RA BKN030 BKN070 OVC090 03/M02 A2966 RMK AO2 RAB32 SLP053 P0003 T00281017 $=
201111211153 METAR KSEA 211153Z 18005KT 10SM FEW070 BKN100 02/M02 A2971 RMK AO2 SLP070 T00171022 10028 20006 58026 $=
201111211053 METAR KSEA 211053Z 15003KT 10SM BKN110 01/M02 A2974 RMK AO2 SLP080 T00111017 $=
201111210953 METAR KSEA 210953Z 08004KT 10SM FEW045 OVC110 02/M02 A2976 RMK AO2 SLP088 T00221017 $=
201111210853 METAR KSEA 210853Z 21003KT 10SM FEW045 BKN110 02/M02 A2979 RMK AO2 SLP095 T00171017 56008 $=
201111210753 METAR KSEA 210753Z 00000KT 10SM FEW045 BKN100 02/M03 A2979 RMK AO2 SLP097 T00221028 400391028 $=
201111210653 METAR KSEA 210653Z 16004KT 10SM OVC095 03/M03 A2979 RMK AO2 SLP099 T00281028 $=
201111210553 METAR KSEA 210553Z 21003KT 10SM OVC120 02/M03 A2981 RMK AO2 SLP105 T00171028 10028 20017 58016 $=
201111210453 METAR KSEA 210453Z 19003KT 10SM OVC120 02/M03 A2983 RMK AO2 SLP110 T00171033 $=
201111210353 METAR KSEA 210353Z 15004KT 10SM OVC110 02/M03 A2985 RMK AO2 SLP118 T00221033 $=
201111210253 METAR KSEA 210253Z 14004KT 10SM OVC110 02/M02 A2986 RMK AO2 SLP121 T00221022 56009 $=
201111210153 METAR KSEA 210153Z 13004KT 10SM OVC150 03/M02 A2986 RMK AO2 SLP122 T00281022 $=
201111210053 METAR KSEA 210053Z 00000KT 10SM OVC170 02/M02 A2987 RMK AO2 SLP126 T00221017 $=
201111202353 METAR KSEA 202353Z 00000KT 10SM OVC170 03/M02 A2989 RMK AO2 SLP131 T00281017 10039 21006 58010 $=
201111202253 METAR KSEA 202253Z 17003KT 10SM OVC170 03/M03 A2990 RMK AO2 SLP135 T00331028 $=
201111202153 METAR KSEA 202153Z 00000KT 10SM FEW040 BKN180 03/M04 A2991=
201111202053 SPECI KSEA 202053Z 00000KT 10SM FEW020 SCT040 BKN220 04/M03 A2992 RMK AO2 SLP141 T00391028 58012 $=
201111201953 METAR KSEA 201953Z 15005KT 10SM FEW020 SCT035 BKN220 03/M03 A2993 RMK AO2 SLP146 T00281028 $=
201111201853 METAR KSEA 201853Z 00000KT 10SM FEW004 SCT020 BKN210 01/M01 A2995 RMK AO2 SLP151 T00111006 $=
201111201753 METAR KSEA 201753Z 16003KT 10SM FEW004 SCT020 BKN190 M01/M02 A2995 RMK AO2 SLP153 T10061022 11006 21022 53012 $=
201111201653 METAR KSEA 201653Z 14004KT 10SM FEW001 SCT010 SCT200 M02/M03 A2995 RMK AO2 SLP150 T10171028 $=
201111201553 METAR KSEA 201553Z 00000KT 5SM R16L/4500VP6000FT BCFG FEW001 SCT010 SCT200 M02/M03 A2992 RMK AO2 SLP143 FG BANK S-NW T10171028 $=
201111201535 SPECI KSEA 201535Z 00000KT 3SM R16L/1200VP6000FT BR FEW001 SCT010 SCT200 M02/M03 A2993 RMK AO2 $=
201111201535 SPECI KSEA 201535Z 00000KT 3SM R16L/1200VP6000FT BR FEW001 SCT010 SCT200 M02/M03 A2993 RMK AO2 $=
201111201512 SPECI KSEA 201512Z 00000KT 1/2SM R16L/1200V2600FT FZFG BKN001 M02/M03 A2992 RMK AO2 $=
201111201512 SPECI KSEA 201512Z 00000KT 1/2SM R16L/1200V2600FT FZFG BKN001 M02/M03 A2992 RMK AO2 $=
201111201453 METAR KSEA 201453Z 00000KT 1/4SM R16L/1400V2000FT FZFG VV001 M02/M02 A2992 RMK AO2 SLP142 T10171017 50001 $=
201111201427 SPECI KSEA 201427Z 08006KT 1/4SM R16L/1400V3500FT FZFG VV001 M01/M02 A2993 RMK AO2 $=
201111201427 SPECI KSEA 201427Z 08006KT 1/4SM R16L/1400V3500FT FZFG VV001 M01/M02 A2993 RMK AO2 $=
201111201353 METAR KSEA 201353Z 05005KT 1/8SM R16L/1000V2000FT FZFG VV001 M01/M02 A2992 RMK AO2 SLP143 T10111017 $=
201111201338 SPECI KSEA 201338Z 08004KT 1/8SM R16L/0800V1000FT FZFG BKN001 M02/M03 A2992 RMK AO2 $=
201111201338 SPECI KSEA 201338Z 08004KT 1/8SM R16L/0800V1000FT FZFG BKN001 M02/M03 A2992 RMK AO2 $=
201111201327 SPECI KSEA 201327Z 00000KT 1/8SM R16L/1200VP6000FT FZFG BKN001 M02/M02 A2992 RMK AO2 $=
201111201327 SPECI KSEA 201327Z 00000KT 1/8SM R16L/1200VP6000FT FZFG BKN001 M02/M02 A2992 RMK AO2 $=
201111201253 METAR KSEA 201253Z 03005KT 1/8SM R16L/1200V1400FT FZFG BKN001 M02/M02 A2992 RMK AO2 SLP142 FG BKN001 T10171017 $=
201111201237 SPECI KSEA 201237Z 02007KT 1/8SM R16L/1000V1400FT FZFG BKN001 M01/M02 A2992 RMK AO2 FG BKN001 $=
201111201237 SPECI KSEA 201237Z 02007KT 1/8SM R16L/1000V1400FT FZFG BKN001 M01/M02 A2992 RMK AO2 FG BKN001 $=
201111201206 SPECI KSEA 201206Z 05006KT 1/4SM R16L/1000V1600FT FZFG BKN001 M02/M03 A2992 RMK AO2 $=
201111201206 SPECI KSEA 201206Z 05006KT 1/4SM R16L/1000V1600FT FZFG BKN001 M02/M03 A2992 RMK AO2 $=
201111201153 METAR KSEA 201153Z 06006KT 1/4SM R16L/2200V3500FT FZFG BKN001 M02/M03 A2992 RMK AO2 SLP141 FG BKN001 T10221033 10011 21028 55003 $=
201111201148 SPECI KSEA 201148Z 05006KT 1/4SM R16L/1600V3500FT FZFG BKN001 M03/M03 A2992 RMK AO2 FG BKN001 $=
201111201148 SPECI KSEA 201148Z 05006KT 1/4SM R16L/1600V3500FT FZFG BKN001 M03/M03 A2992 RMK AO2 FG BKN001 $=
201111201122 SPECI KSEA 201122Z 03005KT 1/4SM R16L/1200V2200FT FZFG BKN001 M02/M03 A2991 RMK AO2 FG BKN001 $=
201111201122 SPECI KSEA 201122Z 03005KT 1/4SM R16L/1200V2200FT FZFG BKN001 M02/M03 A2991 RMK AO2 FG BKN001 $=
201111201113 SPECI KSEA 201113Z 05005KT 1/2SM R16L/1200V2200FT FZFG SCT001 M02/M03 A2991 RMK AO2 FG SCT001 $=
201111201113 SPECI KSEA 201113Z 05005KT 1/2SM R16L/1200V2200FT FZFG SCT001 M02/M03 A2991 RMK AO2 FG SCT001 $=
201111201100 SPECI KSEA 201100Z 07006KT 6SM R16L/1400VP6000FT BR SCT001 M02/M03 A2991 RMK AO2 $=
201111201100 SPECI KSEA 201100Z 07006KT 6SM R16L/1400VP6000FT BR SCT001 M02/M03 A2991 RMK AO2 $=
201111201053 METAR KSEA 201053Z 08006KT 6SM R16L/1400V2000FT BR SCT001 M02/M03 A2991 RMK AO2 SLP140 FBANK N T10171028 $=
201111201026 SPECI KSEA 201026Z 08006KT 1/8SM R16L/1000V1200FT FZFG BKN001 M02/M02 A2992 RMK AO2 $=
201111201026 SPECI KSEA 201026Z 08006KT 1/8SM R16L/1000V1200FT FZFG BKN001 M02/M02 A2992 RMK AO2 $=
201111201015 SPECI KSEA 201015Z 06005KT 1/8SM R16L/1000V4500FT FZFG BKN001 M02/M02 A2993 RMK AO2 $=
201111201015 SPECI KSEA 201015Z 06005KT 1/8SM R16L/1000V4500FT FZFG BKN001 M02/M02 A2993 RMK AO2 $=
201111200953 METAR KSEA 200953Z 06006KT 1/8SM R16L/0800V1000FT FZFG SCT001 M02/M02 A2993 RMK AO2 SLP144 T10171022 $=
201111200940 SPECI KSEA 200940Z 05006KT 1/8SM R16L/0800V1600FT FZFG SCT001 M01/M02 A2992 RMK AO2 $=
201111200940 SPECI KSEA 200940Z 05006KT 1/8SM R16L/0800V1600FT FZFG SCT001 M01/M02 A2992 RMK AO2 $=
201111200907 SPECI KSEA 200907Z 06005KT 1/8SM R16L/2000VP6000FT FZFG SCT001 M01/M02 A2993 RMK AO2 $=
201111200907 SPECI KSEA 200907Z 06005KT 1/8SM R16L/2000VP6000FT FZFG SCT001 M01/M02 A2993 RMK AO2 $=
201111200855 SPECI KSEA 200855Z 03006KT 1/4SM R16L/1400V2600FT FZFG SCT001 M01/M02 A2992 RMK AO2 $=
201111200855 SPECI KSEA 200855Z 03006KT 1/4SM R16L/1400V2600FT FZFG SCT001 M01/M02 A2992 RMK AO2 $=
201111200853 METAR KSEA 200853Z 03005KT 1/4SM R16L/1400V1800FT FZFG SCT001 M01/M02 A2992 RMK AO2 SLP143 T10061017 52000 $=
201111200847 SPECI KSEA 200847Z 03006KT 1/2SM R16L/1400V3000FT FZFG SCT001 M01/M01 A2992 RMK AO2 $=
201111200847 SPECI KSEA 200847Z 03006KT 1/2SM R16L/1400V3000FT FZFG SCT001 M01/M01 A2992 RMK AO2 $=
201111200838 SPECI KSEA 200838Z 04006KT 3SM R16L/3000VP6000FT FZFG SCT001 00/M01 A2992 RMK AO2 $=
201111200838 SPECI KSEA 200838Z 04006KT 3SM R16L/3000VP6000FT FZFG SCT001 00/M01 A2992 RMK AO2 $=
201111200753 METAR KSEA 200753Z 03006KT 10SM CLR 00/M01 A2992 RMK AO2 SLP143 T00001011 400501006 $=
201111200653 METAR KSEA 200653Z 01007KT 10SM CLR 00/M01 A2992 RMK AO2 SLP143 T00001011 $=
201111200553 METAR KSEA 200553Z 02005KT 10SM CLR 02/M01 A2992 RMK AO2 SLP143 T00171006 10044 20006 51009 $=
201111200453 METAR KSEA 200453Z 02003KT 10SM FEW035 01/M01 A2992 RMK AO2 SLP141 T00111011 $=
201111200353 METAR KSEA 200353Z 08003KT 10SM FEW035 02/M01 A2991 RMK AO2 SLP137 T00171006 $=
201111200253 METAR KSEA 200253Z 11003KT 10SM FEW035 SCT050 02/M01 A2990 RMK AO2 SLP133 T00221011 51008 $=
201111200153 METAR KSEA 200153Z 12005KT 10SM FEW029 BKN050 03/M01 A2989 RMK AO2 SLP132 T00331006 $=
201111200100 SPECI KSEA 200100Z 11004KT 10SM SCT029 BKN055 BKN130 03/M01 A2988 RMK AO2 $=
201111200100 SPECI KSEA 200100Z 11004KT 10SM SCT029 BKN055 BKN130 03/M01 A2988 RMK AO2 $=
201111200053 METAR KSEA 200053Z 13005KT 10SM BKN029 BKN050 03/M01 A2988 RMK AO2 SLP128 T00331011 $=
201111192353 METAR KSEA 192353Z 13004KT 10SM BKN050 BKN130 04/M02 A2987 RMK AO2 SLP124 T00391017 10050 20017 51012 $=
201111192253 METAR KSEA 192253Z 05004KT 10SM FEW020 BKN050 BKN130 04/M02 A2986 RMK AO2 SLP120 T00441017 $=
201111192153 METAR KSEA 192153Z 00000KT 10SM FEW020 BKN050 OVC130 05/M01 A2985 RMK AO2 SLP117 T00501006 $=
201111192053 METAR KSEA 192053Z 02005KT 10SM BKN046 OVC130 04/M01 A2984 RMK AO2 SLP112 T00441011 51009 $=
201111191953 METAR KSEA 191953Z 36007KT 10SM SCT048 BKN100 BKN130 03/M02 A2983 RMK AO2 SLP111 T00331017 $=
201111191853 METAR KSEA 191853Z 03009KT 10SM FEW050 SCT100 BKN120 02/M02 A2983 RMK AO2 SLP110 T00221022 $=
201111191753 METAR KSEA 191753Z 36008KT 10SM FEW040 BKN100 BKN120 02/M01 A2981 RMK AO2 SLP104 T00221006 10028 20006 51016 $=
201111191653 METAR KSEA 191653Z 36008KT 10SM FEW007 BKN065 OVC085 02/00 A2979 RMK AO2 SLP099 T00170000 $=
201111191553 METAR KSEA 191553Z 03007KT 10SM FEW002 BKN070 OVC090 01/M01 A2978 RMK AO2 SLP094 T00061006 $=
201111191537 SPECI KSEA 191537Z 02006KT 5SM BR SCT002 BKN070 OVC085 01/M01 A2977 RMK AO2 $=
201111191537 SPECI KSEA 191537Z 02006KT 5SM BR SCT002 BKN070 OVC085 01/M01 A2977 RMK AO2 $=
201111191529 SPECI KSEA 191529Z 02008KT 1 1/2SM SCT002 BKN075 OVC090 01/M01 A2977 RMK AO2 SFC VIS 7 $=
201111191529 SPECI KSEA 191529Z 02008KT 1 1/2SM SCT002 BKN075 OVC090 01/M01 A2977 RMK AO2 SFC VIS 7 $=
201111191453 METAR KSEA 191453Z 01007KT 7SM SCT002 BKN040 OVC095 01/M01 A2976 RMK AO2 SLP088 T00061006 53006 $=
201111191423 SPECI KSEA 191423Z 34004KT 7SM SCT002 SCT020 BKN050 01/M01 A2976 RMK AO2 $=
201111191423 SPECI KSEA 191423Z 34004KT 7SM SCT002 SCT020 BKN050 01/M01 A2976 RMK AO2 $=
201111191353 METAR KSEA 191353Z 06004KT 3SM BR BKN002 OVC020 01/00 A2975 RMK AO2 SLP086 T00060000 $=
201111191307 SPECI KSEA 191307Z 04007KT 3SM BR BKN002 BKN020 OVC050 01/00 A2975 RMK AO2 $=
201111191307 SPECI KSEA 191307Z 04007KT 3SM BR BKN002 BKN020 OVC050 01/00 A2975 RMK AO2 $=
201111191253 METAR KSEA 191253Z 03008KT 6SM BR FEW002 SCT020 OVC050 01/00 A2975 RMK AO2 SLP083 T00110000 $=
201111191234 SPECI KSEA 191234Z 02007KT 8SM FEW005 SCT020 BKN050 01/00 A2975 RMK AO2 $=
201111191234 SPECI KSEA 191234Z 02007KT 8SM FEW005 SCT020 BKN050 01/00 A2975 RMK AO2 $=
201111191215 SPECI KSEA 191215Z 02006KT 3SM BR SCT002 BKN020 BKN050 01/00 A2974 RMK AO2 $=
201111191215 SPECI KSEA 191215Z 02006KT 3SM BR SCT002 BKN020 BKN050 01/00 A2974 RMK AO2 $=
201111191204 SPECI KSEA 191204Z 04006KT 2SM BR BKN002 BKN020 OVC050 01/00 A2974 RMK AO2 $=
201111191204 SPECI KSEA 191204Z 04006KT 2SM BR BKN002 BKN020 OVC050 01/00 A2974 RMK AO2 $=
201111191153 METAR KSEA 191153Z 04005KT 5SM BR FEW005 SCT020 OVC050 01/00 A2974 RMK AO2 SLP080 7//// T00110000 10017 20000 51001 $=
201111191053 METAR KSEA 191053Z 07004KT 10SM FEW020 BKN050 BKN120 01/00 A2974 RMK AO2 SLP080 T00110000 $=
201111190953 METAR KSEA 190953Z 03004KT 10SM SCT022 BKN055 BKN110 01/00 A2974 RMK AO2 SLP080 T00110000 $=
201111190853 METAR KSEA 190853Z 04004KT 4SM BR SCT001 BKN055 01/00 A2974 RMK AO2 SLP080 T00060000 58000 $=
201111190847 SPECI KSEA 190847Z 04004KT 3SM BR SCT001 BKN055 01/00 A2974 RMK AO2 $=
201111190847 SPECI KSEA 190847Z 04004KT 3SM BR SCT001 BKN055 01/00 A2974 RMK AO2 $=
201111190840 SPECI KSEA 190840Z 04004KT 2SM BR SCT001 BKN055 01/00 A2974 RMK AO2 $=
201111190840 SPECI KSEA 190840Z 04004KT 2SM BR SCT001 BKN055 01/00 A2974 RMK AO2 $=
201111190823 SPECI KSEA 190823Z 04003KT 1SM R16L/2600VP6000FT BR BKN001 OVC050 01/00 A2974 RMK AO2 $=
201111190823 SPECI KSEA 190823Z 04003KT 1SM R16L/2600VP6000FT BR BKN001 OVC050 01/00 A2974 RMK AO2 $=
201111190819 SPECI KSEA 190819Z 03004KT 1 1/2SM BR SCT001 BKN050 01/00 A2974 RMK AO2 $=
201111190819 SPECI KSEA 190819Z 03004KT 1 1/2SM BR SCT001 BKN050 01/00 A2974 RMK AO2 $=
201111190807 SPECI KSEA 190807Z 05004KT 3SM BR SCT001 OVC050 01/00 A2974 RMK AO2 $=
201111190807 SPECI KSEA 190807Z 05004KT 3SM BR SCT001 OVC050 01/00 A2974 RMK AO2 $=
201111190803 SPECI KSEA 190803Z 04005KT 1SM R16L/P6000FT BR BKN001 BKN050 01/00 A2974 RMK AO2 $=
201111190803 SPECI KSEA 190803Z 04005KT 1SM R16L/P6000FT BR BKN001 BKN050 01/00 A2974 RMK AO2 $=
201111190753 METAR KSEA 190753Z 03006KT 1/2SM R16L/2400VP6000FT FG BKN001 OVC050 01/00 A2974 RMK AO2 SLP081 T00060000 400390006 $=
201111190749 SPECI KSEA 190749Z 03006KT 1/4SM R16L/1400VP6000FT FG VV001 01/00 A2974 RMK AO2 400390006 $=
201111190749 SPECI KSEA 190749Z 03006KT 1/4SM R16L/1400VP6000FT FG VV001 01/00 A2974 RMK AO2 400390006 $=
201111190741 SPECI KSEA 190741Z 03006KT 1/4SM R16L/1400V1600FT FG VV001 01/00 A2974 RMK AO2 $=
201111190741 SPECI KSEA 190741Z 03006KT 1/4SM R16L/1400V1600FT FG VV001 01/00 A2974 RMK AO2 $=
201111190724 SPECI KSEA 190724Z 04005KT 1/4SM R16L/5000VP6000FT FG BKN001 OVC055 02/00 A2974 RMK AO2 $=
201111190724 SPECI KSEA 190724Z 04005KT 1/4SM R16L/5000VP6000FT FG BKN001 OVC055 02/00 A2974 RMK AO2 $=
201111190717 SPECI KSEA 190717Z 03005KT 1SM R16L/P6000FT BR BKN001 OVC055 01/M01 A2974 RMK AO2 $=
201111190717 SPECI KSEA 190717Z 03005KT 1SM R16L/P6000FT BR BKN001 OVC055 01/M01 A2974 RMK AO2 $=
201111190714 SPECI KSEA 190714Z 04005KT 2 1/2SM BR SCT001 BKN055 01/M01 A2974 RMK AO2 $=
201111190714 SPECI KSEA 190714Z 04005KT 2 1/2SM BR SCT001 BKN055 01/M01 A2974 RMK AO2 $=
201111190653 METAR KSEA 190653Z 05006KT 10SM FEW025 SCT055 02/00 A2974 RMK AO2 SLP079 T00170000 $=
201111190553 METAR KSEA 190553Z 00000KT 10SM FEW025 SCT060 02/00 A2974 RMK AO2 SLP081 T00170000 10039 20006 53008 $=
201111190453 METAR KSEA 190453Z 15003KT 10SM FEW026 SCT060 02/00 A2973 RMK AO2 SLP076 T00220000 $=
201111190353 METAR KSEA 190353Z 12004KT 10SM SCT026 BKN045 02/01 A2972=
201111190328 SPECI KSEA 190328Z 12004KT 10SM BKN024 BKN042 02/01 A2972 RMK AO2 $=
201111190328 SPECI KSEA 190328Z 12004KT 10SM BKN024 BKN042 02/01 A2972 RMK AO2 $=
201111190253 METAR KSEA 190253Z 12003KT 10SM SCT041 02/01 A2971 RMK AO2 SLP071 T00220006 51008 $=
201111190153 METAR KSEA 190153Z 00000KT 10SM FEW020 SCT040 03/01 A2971 RMK AO2 SLP069 T00280006 $=
201111190053 METAR KSEA 190053Z 00000KT 10SM SCT019 03/01 A2970 RMK AO2 SLP066 T00280006 $=
201111182353 METAR KSEA 182353Z 20003KT 10SM SCT018 04/00 A2969 RMK AO2 SLP062 6//// T00390000 10039 20022 53013 $=
201111182313 SPECI KSEA 182313Z 24003KT 10SM SCT020 SCT035 03/01 A2968 RMK AO2 $=
201111182313 SPECI KSEA 182313Z 24003KT 10SM SCT020 SCT035 03/01 A2968 RMK AO2 $=
201111182253 METAR KSEA 182253Z 21003KT 10SM FEW011 BKN020 BKN032 04/01 A2967 RMK AO2 SLP056 SHRA SE T00390006 $=
201111182153 METAR KSEA 182153Z 00000KT 10SM FEW008 SCT012 BKN020 04/02 A2966 RMK AO2 DZE2058RAB2058E51SNB30E39 SLP053 P0002 T00390017 $=
201111182148 SPECI KSEA 182148Z 00000KT 10SM -RA FEW008 SCT012 BKN021 04/02 A2966 RMK AO2 DZE2058RAB2058SNB30E39 P0002 $=
201111182148 SPECI KSEA 182148Z 00000KT 10SM -RA FEW008 SCT012 BKN021 04/02 A2966 RMK AO2 DZE2058RAB2058SNB30E39 P0002 $=
201111182053 METAR KSEA 182053Z 00000KT 8SM -DZ FEW008 BKN012 OVC023 03/01 A2965=
201111181953 METAR KSEA 181953Z 29003KT 10SM FEW008 BKN012 BKN027 03/02 A2965 RMK AO2 RAE36SNE01 SLP048 T00280017 PNO $=
201111181853 METAR KSEA 181853Z 30004KT 6SM -RASN BR FEW008 BKN011 OVC018 03/01 A2965 RMK AO2 SNB04E12B52 SLP048 P0000 T00280006 PNO $=
201111181753 METAR KSEA 181753Z 28004KT 10SM -RA SCT007 BKN010 BKN022 02/01 A2964 RMK AO2 RAB51 SLP044 P0000 60001 T00220006 10033 20022 53016=
201111181659 SPECI KSEA 181659Z 24005KT 10SM FEW007 BKN010 BKN018 03/00 A2962 RMK AO2=
201111181659 SPECI KSEA 181659Z 24005KT 10SM FEW007 BKN010 BKN018 03/00 A2962 RMK AO2=
201111181653 METAR KSEA 181653Z 24004KT 10SM FEW009 BKN015 03/01 A2962 RMK AO2 SLP038 T00280006=
201111181647 SPECI KSEA 181647Z 24005KT 10SM FEW009 BKN016 OVC025 03/01 A2962 RMK AO2=
201111181647 SPECI KSEA 181647Z 24005KT 10SM FEW009 BKN016 OVC025 03/01 A2962 RMK AO2=
201111181553 METAR KSEA 181553Z 20008KT 10SM SCT009 BKN013 OVC023 03/01 A2961 RMK AO2 RAE21B46E52 SLP034 P0000 T00280011=
201111181534 SPECI KSEA 181534Z 21008KT 10SM SCT009 BKN014 OVC023 03/01 A2960 RMK AO2 RAE21 P0000=
201111181534 SPECI KSEA 181534Z 21008KT 10SM SCT009 BKN014 OVC023 03/01 A2960 RMK AO2 RAE21 P0000=
201111181507 SPECI KSEA 181507Z 21008KT 10SM BKN009 BKN015 OVC025 03/01 A2959 RMK AO2 RAE07 P0000=
201111181507 SPECI KSEA 181507Z 21008KT 10SM BKN009 BKN015 OVC025 03/01 A2959 RMK AO2 RAE07 P0000=
201111181453 METAR KSEA 181453Z 21010KT 10SM -RA BKN011 BKN015 OVC025 03/01 A2959=
201111181353 METAR KSEA 181353Z 23006KT 10SM SCT007 BKN011 OVC020 03/01 A2958 RMK AO2 DZE14 SLP025 P0000 T00330011 $=
201111181253 METAR KSEA 181253Z 21010KT 10SM -DZ SCT007 BKN011 OVC025 03/01 A2958 RMK AO2 DZE20B45RAB20E41 SLP025 P0001 T00280011 $=
201111181223 SPECI KSEA 181223Z 19007KT 10SM -RA FEW007 SCT011 OVC020 03/01 A2958 RMK AO2 DZE20RAB20 P0000 $=
201111181223 SPECI KSEA 181223Z 19007KT 10SM -RA FEW007 SCT011 OVC020 03/01 A2958 RMK AO2 DZE20RAB20 P0000 $=
201111181153 METAR KSEA 181153Z 19005KT 10SM -DZ SCT007 BKN013 OVC020 02/01 A2957 RMK AO2 DZB50 SLP023 P0000 60008 70032 T00220011 10033 20017 58004 $=
201111181130 SPECI KSEA 181130Z 20009KT 10SM SCT007 BKN013 OVC030 03/01 A2958 RMK AO2 $=
201111181130 SPECI KSEA 181130Z 20009KT 10SM SCT007 BKN013 OVC030 03/01 A2958 RMK AO2 $=
201111181118 SPECI KSEA 181118Z 19011KT 10SM SCT007 BKN015 BKN030 02/01 A2958 RMK AO2 $=
201111181118 SPECI KSEA 181118Z 19011KT 10SM SCT007 BKN015 BKN030 02/01 A2958 RMK AO2 $=
201111181053 METAR KSEA 181053Z 18009KT 10SM FEW007 BKN010 BKN015 02/01 A2958 RMK AO2 SLP027 T00220006 $=
201111180953 METAR KSEA 180953Z 18010KT 10SM SCT007 BKN010 OVC020 02/02 A2959 RMK AO2 SLP028 T00220017 $=
201111180853 METAR KSEA 180853Z 19010KT 10SM BKN007 BKN012 OVC020 02/02 A2959 RMK AO2 RAE07B33E47SNB07E33 SLP027 P0004 60008 T00220022 58006 $=
201111180833 SPECI KSEA 180833Z 18011KT 10SM -RA SCT007 BKN012 OVC020 02/02 A2959 RMK AO2 RAE07B33SNB07E33 P0004 $=
201111180833 SPECI KSEA 180833Z 18011KT 10SM -RA SCT007 BKN012 OVC020 02/02 A2959 RMK AO2 RAE07B33SNB07E33 P0004 $=
201111180753 METAR KSEA 180753Z 18011KT 10SM -RA BKN009 OVC020 02/02 A2960 RMK AO2 RAB19 SLP033 P0004 T00220017 400890022 $=
201111180741 SPECI KSEA 180741Z 17011KT 10SM -RA SCT009 BKN028 OVC060 02/02 A2960 RMK AO2 RAB19 P0003 $=
201111180741 SPECI KSEA 180741Z 17011KT 10SM -RA SCT009 BKN028 OVC060 02/02 A2960 RMK AO2 RAB19 P0003 $=
201111180653 METAR KSEA 180653Z 18011KT 10SM FEW009 SCT015 SCT110 03/02 A2961 RMK AO2 RAE06 SLP034 P0000 T00280022 $=
201111180637 SPECI KSEA 180637Z 20011KT 10SM FEW009 SCT014 SCT110 03/03 A2960 RMK AO2 RAE06 P0000 $=
201111180637 SPECI KSEA 180637Z 20011KT 10SM FEW009 SCT014 SCT110 03/03 A2960 RMK AO2 RAE06 P0000 $=
201111180553 METAR KSEA 180553Z 17010KT 10SM -RA SCT009 BKN012 OVC075 03/03 A2960 RMK AO2 RAB31 SLP033 P0001 60018 T00330033 10044 20028 56018 $=
201111180543 SPECI KSEA 180543Z 19011KT 10SM -RA SCT009 BKN014 OVC075 03/03 A2962 RMK AO2 RAB31 P0000 $=
201111180543 SPECI KSEA 180543Z 19011KT 10SM -RA SCT009 BKN014 OVC075 03/03 A2962 RMK AO2 RAB31 P0000 $=
201111180516 SPECI KSEA 180516Z 19010KT 10SM SCT012 BKN022 OVC075 04/03 A2962 RMK AO2 $=
201111180516 SPECI KSEA 180516Z 19010KT 10SM SCT012 BKN022 OVC075 04/03 A2962 RMK AO2 $=
201111180453 METAR KSEA 180453Z 18008KT 10SM FEW008 BKN014 OVC022 03/03 A2963 RMK AO2 RAE06 SLP042 P0000 T00330028 $=
201111180439 SPECI KSEA 180439Z 18008KT 10SM FEW008 BKN014 OVC024 03/03 A2963 RMK AO2 RAE06 P0000 $=
201111180439 SPECI KSEA 180439Z 18008KT 10SM FEW008 BKN014 OVC024 03/03 A2963 RMK AO2 RAE06 P0000 $=
201111180353 METAR KSEA 180353Z 17013KT 8SM -RA BKN009 BKN014 OVC018 03/02 A2963 RMK AO2 SLP042 P0009 T00280022 $=
201111180336 SPECI KSEA 180336Z 19013G21KT 5SM RA BR SCT009 OVC015 03/02 A2965 RMK AO2 P0005 $=
201111180336 SPECI KSEA 180336Z 19013G21KT 5SM RA BR SCT009 OVC015 03/02 A2965 RMK AO2 P0005 $=
201111180253 METAR KSEA 180253Z 18010KT 10SM -RA OVC011 04/03 A2966 RMK AO2 RAB21 SLP052 P0001 60008 T00390033 58021 $=
201111180226 SPECI KSEA 180226Z 18010G17KT 10SM -RA BKN013 OVC020 04/03 A2967 RMK AO2 RAB21 P0000 $=
201111180226 SPECI KSEA 180226Z 18010G17KT 10SM -RA BKN013 OVC020 04/03 A2967 RMK AO2 RAB21 P0000 $=
201111180153 METAR KSEA 180153Z 17009KT 10SM FEW008 BKN015 OVC030 04/03 A2968 RMK AO2 RAE11B27E45 SLP059 P0001 T00440033 $=
201111180113 SPECI KSEA 180113Z 20010KT 10SM FEW008 BKN016 OVC025 04/03 A2970 RMK AO2 RAE11 P0001 $=
201111180113 SPECI KSEA 180113Z 20010KT 10SM FEW008 BKN016 OVC025 04/03 A2970 RMK AO2 RAE11 P0001 $=
201111180053 METAR KSEA 180053Z 21010G18KT 6SM -RA BR FEW008 BKN012 OVC018 04/03 A2971 RMK AO2 SLP069 P0006 T00390028 $=
201111180033 SPECI KSEA 180033Z 19012G20KT 7SM -RA BKN008 OVC014 04/03 A2971 RMK AO2 P0004 $=
201111180033 SPECI KSEA 180033Z 19012G20KT 7SM -RA BKN008 OVC014 04/03 A2971 RMK AO2 P0004 $=
201111180024 SPECI KSEA 180024Z 18015G18KT 6SM -RA BR BKN008 OVC014 04/03 A2971 RMK AO2 P0003 $=
201111180024 SPECI KSEA 180024Z 18015G18KT 6SM -RA BR BKN008 OVC014 04/03 A2971 RMK AO2 P0003 $=
201111180002 SPECI KSEA 180002Z 16009KT 6SM -RA BR FEW008 BKN014 OVC022 04/03 A2972 RMK AO2 P0000 $=
201111180002 SPECI KSEA 180002Z 16009KT 6SM -RA BR FEW008 BKN014 OVC022 04/03 A2972 RMK AO2 P0000 $=
201111172353 METAR KSEA 172353Z 14013G18KT 10SM -RA FEW009 OVC022 04/03 A2972 RMK AO2 RAB17 SLP074 P0000 60006 T00440028 10067 20028 56031 $=
201111172338 SPECI KSEA 172338Z 13011G18KT 10SM -RA SCT012 BKN016 OVC022 04/03 A2973 RMK AO2 RAB17 P0000 $=
201111172338 SPECI KSEA 172338Z 13011G18KT 10SM -RA SCT012 BKN016 OVC022 04/03 A2973 RMK AO2 RAB17 P0000 $=
201111172311 SPECI KSEA 172311Z 14010KT 10SM SCT009 BKN014 OVC030 04/03 A2974 RMK AO2 $=
201111172311 SPECI KSEA 172311Z 14010KT 10SM SCT009 BKN014 OVC030 04/03 A2974 RMK AO2 $=
201111172253 METAR KSEA 172253Z 14009KT 10SM SCT008 BKN022 BKN031 04/03 A2975 RMK AO2 SLP083 T00390028 $=
201111172208 SPECI KSEA 172208Z 20007KT 10SM SCT008 BKN020 OVC041 04/03 A2977 RMK AO2 $=
201111172208 SPECI KSEA 172208Z 20007KT 10SM SCT008 BKN020 OVC041 04/03 A2977 RMK AO2 $=
201111172153 METAR KSEA 172153Z 18008KT 10SM FEW007 BKN032 BKN050 BKN200 04/02 A2978 RMK AO2 RAE38 SLP092 P0005 T00390022 $=
201111172146 SPECI KSEA 172146Z 18008KT 10SM FEW007 BKN028 OVC044 04/02 A2978 RMK AO2 RAE38 P0005=
201111172146 SPECI KSEA 172146Z 18008KT 10SM FEW007 BKN028 OVC044 04/02 A2978 RMK AO2 RAE38 P0005=
201111172053 METAR KSEA 172053Z 20014KT 7SM -RA SCT018 BKN028 OVC070 04/01 A2982 RMK AO2 RAB45 SLP104 P0001 60001 T00390011 58015=
201111172043 SPECI KSEA 172043Z 21017G25KT 10SM SCT018 BKN046 OVC075 05/01 A2981 RMK AO2=
201111172043 SPECI KSEA 172043Z 21017G25KT 10SM SCT018 BKN046 OVC075 05/01 A2981 RMK AO2=
201111171953 METAR KSEA 171953Z 20014G20KT 10SM BKN018 BKN025 OVC110 06/02 A2983 RMK AO2 RAE16 SLP109 P0000 T00560017=
201111171931 SPECI KSEA 171931Z 20016G20KT 10SM SCT018 BKN025 BKN110 06/02 A2984 RMK AO2 RAE16 P0000=
201111171931 SPECI KSEA 171931Z 20016G20KT 10SM SCT018 BKN025 BKN110 06/02 A2984 RMK AO2 RAE16 P0000=
201111171853 METAR KSEA 171853Z 20015G20KT 10SM -RA SCT020 BKN032 BKN110 06/02 A2985 RMK AO2 RAB38 SLP115 P0000 T00610022=
201111171820 SPECI KSEA 171820Z 19016KT 10SM SCT018 BKN110 BKN250 06/02 A2985 RMK AO2=
201111171820 SPECI KSEA 171820Z 19016KT 10SM SCT018 BKN110 BKN250 06/02 A2985 RMK AO2=
201111171753 METAR KSEA 171753Z 19013G19KT 10SM SCT018 BKN025 06/02 A2986 RMK AO2 SLP118 BKN V SCT T00560022 10056 20044 51010=
201111171653 METAR KSEA 171653Z 19016G23KT 10SM BKN017 BKN024 BKN110 04/02 A2986 RMK AO2 SLP118 T00440017=
201111171553 METAR KSEA 171553Z 19014KT 10SM BKN017 BKN028 04/02 A2984 RMK AO2 SLP114 T00440017=
201111171453 METAR KSEA 171453Z 19010KT 10SM SCT022 BKN029 BKN110 05/02 A2983 RMK AO2 SLP109 T00500017 53016=
201111171353 METAR KSEA 171353Z 20014G22KT 10SM BKN024 06/02 A2980 RMK AO2 PK WND 21028/1254 SLP100 T00560017=
201111171313 SPECI KSEA 171313Z 22018G24KT 10SM BKN022 06/02 A2979 RMK AO2 PK WND 21028/1254=
201111171313 SPECI KSEA 171313Z 22018G24KT 10SM BKN022 06/02 A2979 RMK AO2 PK WND 21028/1254=
201111171253 METAR KSEA 171253Z 21017G27KT 10SM SCT021 06/02 A2979 RMK AO2 PK WND 21027/1253 SLP096 T00560017=
201111171153 METAR KSEA 171153Z 22016G25KT 10SM FEW021 BKN045 06/02 A2978 RMK AO2 PK WND 24030/1106 SLP093 60007 70049 T00560017 10111 20056 53038=
201111171053 METAR KSEA 171053Z 22018G29KT 10SM SCT019 06/02 A2974 RMK AO2 PK WND 22036/1011 SLP079 T00610022=
201111170953 METAR KSEA 170953Z 22019G34KT 10SM FEW019 07/04 A2969 RMK AO2 PK WND 23037/0915 SLP061 T00670039=
201111170946 SPECI KSEA 170946Z 22020G34KT 10SM SCT019 07/04 A2968 RMK AO2 PK WND 23037/0915=
201111170946 SPECI KSEA 170946Z 22020G34KT 10SM SCT019 07/04 A2968 RMK AO2 PK WND 23037/0915=
201111170929 SPECI KSEA 170929Z 23022G34KT 10SM BKN019 07/04 A2968 RMK AO2 PK WND 23037/0915=
201111170929 SPECI KSEA 170929Z 23022G34KT 10SM BKN019 07/04 A2968 RMK AO2 PK WND 23037/0915=
201111170853 METAR KSEA 170853Z 23022G30KT 10SM FEW016 SCT021 BKN070 08/04 A2967=
201111170827 SPECI KSEA 170827Z 23021G31KT 10SM BKN018 BKN023 09/06 A2966 RMK AO2 PK WND 23034/0800=
201111170827 SPECI KSEA 170827Z 23021G31KT 10SM BKN018 BKN023 09/06 A2966 RMK AO2 PK WND 23034/0800=
201111170753 METAR KSEA 170753Z 23022G35KT 10SM FEW018 09/06 A2963 RMK AO2 PK WND 22035/0747 RAE20 SLP042 P0000 T00890056 401110011=
201111170733 SPECI KSEA 170733Z 23021G31KT 10SM SCT017 09/06 A2963 RMK AO2 PK WND 23031/0730 RAE20 P0000=
201111170733 SPECI KSEA 170733Z 23021G31KT 10SM SCT017 09/06 A2963 RMK AO2 PK WND 23031/0730 RAE20 P0000=
201111170653 METAR KSEA 170653Z 24016G24KT 9SM -RA FEW009 BKN013 OVC034 10/09 A2962 RMK AO2 PK WND 22029/0635 RAB08 SLP037 P0007 T01000094=
201111170553 METAR KSEA 170553Z 21016G23KT 10SM SCT006 BKN014 OVC024 11/09 A2960 RMK AO2 RAE38 SLP030 P0003 60014 T01110094 10111 20083 56023=
201111170513 SPECI KSEA 170513Z 19013G20KT 6SM -RA BR SCT006 BKN009 OVC025 11/09 A2960 RMK AO2 P0002=
201111170513 SPECI KSEA 170513Z 19013G20KT 6SM -RA BR SCT006 BKN009 OVC025 11/09 A2960 RMK AO2 P0002=
201111170500 SPECI KSEA 170500Z 19013KT 6SM -RA BR FEW004 BKN018 OVC029 10/09 A2960 RMK AO2 P0001=
201111170500 SPECI KSEA 170500Z 19013KT 6SM -RA BR FEW004 BKN018 OVC029 10/09 A2960 RMK AO2 P0001=
201111170453 METAR KSEA 170453Z 19012G20KT 8SM -RA FEW004 BKN016 OVC032 11/09 A2960 RMK AO2 RAB28 SLP032 P0008 T01060094=
201111170442 SPECI KSEA 170442Z 19015KT 4SM RA BR FEW007 BKN013 OVC030 11/09 A2961 RMK AO2 RAB28 P0006=
201111170442 SPECI KSEA 170442Z 19015KT 4SM RA BR FEW007 BKN013 OVC030 11/09 A2961 RMK AO2 RAB28 P0006=
201111170353 METAR KSEA 170353Z 19013G20KT 10SM OVC016 11/10 A2962 RMK AO2 SLP039 T01110100=
201111170253 METAR KSEA 170253Z 18012KT 10SM OVC014 11/09 A2966 RMK AO2 RAE05 SLP053 P0000 60003 T01060094 58026=
201111170233 SPECI KSEA 170233Z 18010G16KT 10SM OVC014 11/08 A2968 RMK AO2 RAE05 P0000=
201111170233 SPECI KSEA 170233Z 18010G16KT 10SM OVC014 11/08 A2968 RMK AO2 RAE05 P0000=
201111170153 METAR KSEA 170153Z 18012KT 7SM -RA BKN018 OVC026 10/09 A2970 RMK AO2 SLP066 P0001 T01000089=
201111170053 METAR KSEA 170053Z 15011KT 4SM -RA BR OVC023 08/07 A2971 RMK AO2 SLP069 P0002 T00830067=
201111170015 SPECI KSEA 170015Z 13007KT 3SM -RA BR OVC021 07/06 A2973 RMK AO2 P0001=
201111170015 SPECI KSEA 170015Z 13007KT 3SM -RA BR OVC021 07/06 A2973 RMK AO2 P0001=
201111162353 METAR KSEA 162353Z 13007KT 2SM -RA BR OVC021 07/06 A2974 RMK AO2 SLP080 P0004 60028 T00670056 10072 20033 56045=
201111162322 SPECI KSEA 162322Z 14007KT 2 1/2SM -RA BR OVC023 07/05 A2976 RMK AO2 P0002=
201111162322 SPECI KSEA 162322Z 14007KT 2 1/2SM -RA BR OVC023 07/05 A2976 RMK AO2 P0002=
201111162253 METAR KSEA 162253Z 13011G19KT 5SM -RA BR FEW018 OVC027 07/05 A2976 RMK AO2 SLP086 P0001 T00720050=
201111162246 SPECI KSEA 162246Z 12013G21KT 5SM -RA BR FEW018 OVC027 07/06 A2976 RMK AO2 P0001=
201111162246 SPECI KSEA 162246Z 12013G21KT 5SM -RA BR FEW018 OVC027 07/06 A2976 RMK AO2 P0001=
201111162153 METAR KSEA 162153Z 14012KT 6SM -RA BR SCT029 OVC039 07/05 A2982 RMK AO2 SLP108 P0001 T00670050=
201111162138 SPECI KSEA 162138Z 14010KT 6SM -RA BR SCT029 OVC038 06/04 A2984 RMK AO2 P0001=
201111162138 SPECI KSEA 162138Z 14010KT 6SM -RA BR SCT029 OVC038 06/04 A2984 RMK AO2 P0001=
201111162107 SPECI KSEA 162107Z 14009KT 6SM -RA BR BKN029 OVC040 05/04 A2986 RMK AO2 P0000=
201111162107 SPECI KSEA 162107Z 14009KT 6SM -RA BR BKN029 OVC040 05/04 A2986 RMK AO2 P0000=
201111162053 METAR KSEA 162053Z 13010KT 6SM -RA BR BKN031 OVC040 05/04 A2988 RMK AO2 SLP126 P0005 60022 T00500039 58045=
201111161953 METAR KSEA 161953Z 14010KT 4SM -RA BR BKN033 OVC040 04/03 A2994 RMK AO2 SLP148 P0008 T00440028=
201111161853 METAR KSEA 161853Z 13006KT 3SM RA BR BKN032 OVC040 03/02 A3000 RMK AO2 SLP167 P0009 T00330017=
201111161753 METAR KSEA 161753Z 19006KT 6SM -RA BKN041 OVC050 04/00 A3001 RMK AO2 RAB11 SLP172 P0000 60000 T00390000 10044 20017 58028=
201111161653 METAR KSEA 161653Z 21003KT 10SM BKN041 OVC110 03/M01 A3005 RMK AO2 SLP184 T00331011=
201111161553 METAR KSEA 161553Z 13006KT 10SM BKN045 BKN110 OVC200 03/M02 A3008 RMK AO2 SLP195 T00331017=
201111161453 METAR KSEA 161453Z 00000KT 10SM BKN110 OVC200 03/M02 A3009 RMK AO2 SLP200 T00281017 56024=
201111161353 METAR KSEA 161353Z 13005KT 10SM BKN110 OVC200 03/M02 A3010 RMK AO2 SLP204 T00331022=
201111161253 METAR KSEA 161253Z 12005KT 10SM OVC200 02/M02 A3014=
201111161153 METAR KSEA 161153Z 09004KT 10SM OVC200 02/M02 A3017 RMK AO2 SLP224 T00221017 10033 20011 56028=
201111161053 METAR KSEA 161053Z 11004KT 10SM CLR 02/M01 A3019 RMK AO2 SLP234 T00171011=
201111160953 METAR KSEA 160953Z 08004KT 10SM CLR 02/M01 A3022 RMK AO2 SLP242 T00171011=
201111160853 METAR KSEA 160853Z 00000KT 10SM CLR 02/M01 A3025 RMK AO2 SLP252 T00221011 56013=
201111160753 METAR KSEA 160753Z 13004KT 10SM CLR 02/M01 A3026=
201111160653 METAR KSEA 160653Z 00000KT 10SM CLR 02/M01 A3027 RMK AO2 SLP258 T00221011=
201111160553 METAR KSEA 160553Z 12007KT 10SM CLR 03/M01 A3029 RMK AO2 SLP266 T00281006 10078 20022 55004=
201111160453 METAR KSEA 160453Z 11006KT 10SM CLR 03/M01 A3029 RMK AO2 SLP265 T00331006=
201111160353 METAR KSEA 160353Z 11008KT 10SM CLR 04/M01 A3029 RMK AO2 SLP267 T00441006=
201111160253 METAR KSEA 160253Z 09005KT 10SM CLR 05/M01 A3030 RMK AO2 SLP270 T00501011 55000=
201111160153 METAR KSEA 160153Z 06005KT 10SM FEW040 05/M01 A3029 RMK AO2 SLP267 T00501011=
201111160053 METAR KSEA 160053Z 06004KT 10SM FEW040 06/M01 A3029 RMK AO2 SLP268 T00611011=
201111152353 METAR KSEA 152353Z 07004KT 10SM FEW036 SCT045 07/M02 A3030 RMK AO2 SLP270 T00721017 10089 20056 51003=
201111152253 METAR KSEA 152253Z 06004KT 10SM SCT036 SCT044 08/M02 A3030 RMK AO2 SLP270 T00781017=
201111152153 METAR KSEA 152153Z 04006KT 10SM SCT035 BKN042 07/M02 A3030 RMK AO2 SLP271 T00721017=
201111152053 METAR KSEA 152053Z 17003KT 10SM BKN030 BKN038 08/01 A3029 RMK AO2 SLP266 T00830011 51004=
201111151953 METAR KSEA 151953Z VRB03KT 10SM FEW020 BKN032 07/02 A3029 RMK AO2 SLP265 T00720022 $=
201111151853 METAR KSEA 151853Z 00000KT 10SM SCT018 SCT200 07/02 A3029 RMK AO2 SLP267 T00670022 $=
201111151753 METAR KSEA 151753Z 20004KT 10SM FEW015 06/02 A3028 RMK AO2 SLP263 T00560022 10056 20000 51020 $=
201111151653 METAR KSEA 151653Z 19003KT 10SM FEW015 04/02 A3026 RMK AO2 SLP257 T00390017 $=
201111151602 SPECI KSEA 151602Z 16005KT 10SM SCT015 SCT200 02/01 A3024 RMK AO2 $=
201111151602 SPECI KSEA 151602Z 16005KT 10SM SCT015 SCT200 02/01 A3024 RMK AO2 $=
201111151553 METAR KSEA 151553Z 16006KT 10SM BKN015 BKN200 03/01 A3024 RMK AO2 SLP249 T00280006 $=
201111151453 METAR KSEA 151453Z 13004KT 10SM BKN015 03/00 A3022 RMK AO2 SLP243 T00280000 53015 $=
201111151353 METAR KSEA 151353Z 11003KT 10SM BKN015 02/M01 A3020 RMK AO2 SLP236 T00171006 $=
201111151253 METAR KSEA 151253Z 17007KT 10SM FEW070 01/M01 A3018 RMK AO2 SLP230 T00061011 $=
201111151153 METAR KSEA 151153Z 12005KT 10SM FEW070 01/M01 A3017 RMK AO2 SLP227 T00111011 10039 20000 51008 $=
201111151053 METAR KSEA 151053Z 13005KT 10SM CLR 01/M01 A3017 RMK AO2 SLP226 T00111011 $=
201111150953 METAR KSEA 150953Z 13005KT 10SM FEW090 01/M01 A3016 RMK AO2 SLP223 T00111011 $=
201111150853 METAR KSEA 150853Z 15007KT 10SM FEW090 02/M01 A3015 RMK AO2 SLP218 T00221006 51013 $=
201111150753 METAR KSEA 150753Z 13006KT 10SM FEW090 02/00 A3014 RMK AO2 SLP215 T00220000 400830017 $=
201111150653 METAR KSEA 150653Z 11004KT 10SM SCT090 02/00 A3012 RMK AO2 SLP209 T00220000 $=
201111150553 METAR KSEA 150553Z 16005KT 10SM FEW090 03/01 A3011 RMK AO2 SLP205 T00280006 10056 20022 53015 $=
201111150453 METAR KSEA 150453Z 17006KT 10SM FEW090 03/00 A3009 RMK AO2 SLP199 T00280000 $=
201111150353 METAR KSEA 150353Z 15006KT 10SM FEW040 03/01 A3008 RMK AO2 SLP193 T00330006 $=
201111150253 METAR KSEA 150253Z 11006KT 10SM FEW044 04/01 A3007 RMK AO2 SLP189 T00390011 51012 $=
201111150153 METAR KSEA 150153Z 12008KT 10SM SCT048 SCT200 04/02 A3006 RMK AO2 SLP187 T00390017 $=
201111150053 METAR KSEA 150053Z 13008KT 10SM SCT050 BKN080 BKN200 04/02 A3004 RMK AO2 SLP182 T00440017 $=
201111142353 METAR KSEA 142353Z 11006KT 10SM FEW027 SCT035 BKN200 06/02 A3003 RMK AO2 SLP177 T00560017 10083 20056 51007 $=
201111142320 SPECI KSEA 142320Z 11009KT 10SM SCT027 BKN033 BKN200 06/02 A3003 RMK AO2 $=
201111142320 SPECI KSEA 142320Z 11009KT 10SM SCT027 BKN033 BKN200 06/02 A3003 RMK AO2 $=
201111142253 METAR KSEA 142253Z 12007KT 10SM BKN027 BKN033 BKN200 06/02 A3003=
201111142153 METAR KSEA 142153Z 08008KT 10SM BKN020 OVC200 06/02 A3002 RMK AO2 SLP174 SHRA N-E T00610017 $=
201111142053 METAR KSEA 142053Z 12008KT 10SM BKN020 BKN200 06/01 A3001 RMK AO2 SLP170 T00610011 51016 $=
201111141953 METAR KSEA 141953Z 08008KT 10SM BKN020 BKN200 07/01 A3000 RMK AO2 SLP167 T00720011 $=
201111141853 METAR KSEA 141853Z 20006KT 10SM BKN021 BKN200 08/03 A2999 RMK AO2 SLP162 T00830028 $=
201111141753 METAR KSEA 141753Z 22007KT 10SM BKN022 BKN200 08/04 A2996 RMK AO2 SLP153 T00830039 10083 20067 51024 $=
201111141653 METAR KSEA 141653Z 21007KT 10SM BKN015 BKN200 07/03 A2994 RMK AO2 SLP148 T00720033 $=
201111141553 METAR KSEA 141553Z 21008KT 10SM BKN015 BKN200 07/03 A2991=
201111141453 METAR KSEA 141453Z 24009KT 10SM FEW010 BKN020 BKN040 07/03 A2989 RMK AO2 SLP129 T00720033 53010 $=
201111141353 METAR KSEA 141353Z 26005KT 10SM FEW010 OVC020 08/04 A2988 RMK AO2 SLP126 T00780039 $=
201111141253 METAR KSEA 141253Z 25007G15KT 10SM FEW010 OVC020 08/04 A2987 RMK AO2 SLP121 T00780044 $=
201111141153 METAR KSEA 141153Z 25009KT 10SM OVC020 08/04 A2986 RMK AO2 SLP119 T00780044 10083 20078 53007 $=
201111141053 METAR KSEA 141053Z 24010KT 10SM BKN020 BKN060 08/04 A2985 RMK AO2 SLP116 T00830039 $=
201111140953 METAR KSEA 140953Z 21011G19KT 10SM BKN020 BKN060 08/05 A2985 RMK AO2 SLP114 T00830050 $=
201111140853 METAR KSEA 140853Z 22016G20KT 10SM BKN020 BKN060 08/06 A2984 RMK AO2 SLP112 T00830056 56002 $=
201111140753 METAR KSEA 140753Z 22013G26KT 10SM BKN020 OVC060 08/05 A2984=
201111140653 METAR KSEA 140653Z 21017G25KT 10SM BKN020 OVC060 08/06 A2984 RMK AO2 SLP113 T00830056 $=
201111140553 METAR KSEA 140553Z 21015G24KT 10SM BKN025 08/06 A2985 RMK AO2 PK WND 22030/0505 SLP114 T00830056 10089 20083 53004 $=
201111140453 METAR KSEA 140453Z 21020G25KT 10SM BKN020 OVC028 08/05 A2982 RMK AO2 PK WND 21027/0439 SLP106 T00830050 $=
201111140353 METAR KSEA 140353Z 20022G27KT 10SM BKN025 08/06 A2983 RMK AO2 PK WND 21027/0353 SLP110 T00830056 $=
201111140253 METAR KSEA 140253Z 21014G24KT 10SM BKN025 09/06 A2983 RMK AO2 SLP110 T00890056 53000 $=
201111140153 METAR KSEA 140153Z 20016G27KT 10SM BKN025 OVC060 09/05 A2983 RMK AO2 PK WND 20027/0147 SLP108 T00890050 $=
201111140053 METAR KSEA 140053Z 21017G26KT 10SM SCT025 BKN060 OVC090 09/06 A2983 RMK AO2 PK WND 21027/0040 SLP110 T00890056 $=
201111132353 METAR KSEA 132353Z 20018G24KT 10SM SCT025 BKN060 OVC090 09/06 A2983 RMK AO2 PK WND 20030/2330 SLP109 T00890056 10094 20083 58010 $=
201111132253 METAR KSEA 132253Z 21018G27KT 10SM FEW020 SCT040 BKN075 09/05 A2984 RMK AO2 PK WND 21027/2250 SLP113 T00890050 $=
201111132153 METAR KSEA 132153Z 21017G25KT 10SM SCT024 BKN060 OVC090 09/05 A2985 RMK AO2 PK WND 21028/2132 SLP117 T00890050 $=
201111132053 METAR KSEA 132053Z 21016G23KT 10SM BKN029 BKN050 OVC070 09/05 A2986 RMK AO2 SLP120 T00940050 58003 $=
201111131953 METAR KSEA 131953Z 22013G22KT 10SM BKN026 BKN040 OVC070 09/05 A2987 RMK AO2 SLP123 T00890050 $=
201111131853 METAR KSEA 131853Z 21017G25KT 10SM BKN026 BKN035 OVC050 08/05 A2988 RMK AO2 SLP126 T00830050 $=
201111131753 METAR KSEA 131753Z 22015G23KT 10SM SCT026 BKN035 OVC050 08/05 A2987 RMK AO2 SLP122 T00830050 10083 20050 53014 $=
201111131653 METAR KSEA 131653Z 22015G22KT 10SM BKN035 OVC050 08/04 A2986 RMK AO2 SLP117 T00830039 $=
201111131553 METAR KSEA 131553Z 18007KT 10SM FEW020 SCT060 BKN130 07/03 A2984 RMK AO2 SLP113 T00670033 $=
201111131453 METAR KSEA 131453Z 17008KT 10SM FEW010 SCT050 SCT110 06/03 A2983 RMK AO2 SLP109 T00560028 51015 $=
201111131353 METAR KSEA 131353Z 16008KT 10SM FEW010 SCT050 SCT100 05/03 A2982 RMK AO2 SLP106 T00500028 $=
201111131253 METAR KSEA 131253Z 18006KT 10SM FEW010 SCT050 SCT100 06/04 A2981 RMK AO2 SLP101 T00610039 $=
201111131220 SPECI KSEA 131220Z 17006KT 10SM SCT010 SCT020 BKN100 07/04 A2980 RMK AO2 $=
201111131220 SPECI KSEA 131220Z 17006KT 10SM SCT010 SCT020 BKN100 07/04 A2980 RMK AO2 $=
201111131153 METAR KSEA 131153Z 17004KT 10SM SCT010 BKN020 OVC100 07/05 A2979 RMK AO2 RAE37 SLP094 P0001 60002 70027 T00720050 10094 20072 51020 $=
201111131053 METAR KSEA 131053Z 13003KT 8SM -RA BKN010 OVC020 07/06 A2978 RMK AO2 DZB20E33RAB33 SLP091 P0000 T00720056 $=
201111131021 SPECI KSEA 131021Z 16006KT 9SM -DZ BKN010 OVC020 07/05 A2976 RMK AO2 DZB20 P0000 $=
201111131021 SPECI KSEA 131021Z 16006KT 9SM -DZ BKN010 OVC020 07/05 A2976 RMK AO2 DZB20 P0000 $=
201111130953 METAR KSEA 130953Z 20007KT 10SM SCT010 OVC020 07/05 A2975 RMK AO2 DZE49 SLP082 P0001 T00720050 $=
201111130853 METAR KSEA 130853Z 24006KT 8SM -DZ BKN010 OVC020 08/04 A2973 RMK AO2 DZB32 SLP074 P0000 60000 T00830044 53044 $=
201111130833 SPECI KSEA 130833Z 22013KT 10SM -DZ BKN010 OVC020 08/04 A2970 RMK AO2 DZB32 P0000 $=
201111130833 SPECI KSEA 130833Z 22013KT 10SM -DZ BKN010 OVC020 08/04 A2970 RMK AO2 DZB32 P0000 $=
201111130753 METAR KSEA 130753Z 22011KT 10SM SCT010 BKN020 09/06 A2968 RMK AO2 SLP057 T00890056 400940011 $=
201111130653 METAR KSEA 130653Z 21012G18KT 10SM BKN010 OVC020 09/07 A2963 RMK AO2 PK WND 19027/0557 SLP043 T00890067 $=
201111130553 METAR KSEA 130553Z 20017G27KT 10SM BKN012 OVC024 09/07 A2960 RMK AO2 PK WND 20027/0544 SLP030 60014 T00890072 10089 20061 55014 $=
201111130453 METAR KSEA 130453Z 19019G25KT 10SM BKN014 OVC024 08/07 A2959=
201111130353 METAR KSEA 130353Z 16007KT 2SM -RA BR BKN014 OVC024 06/06 A2961 RMK AO2 SLP036 P0008 T00610056 $=
201111130316 SPECI KSEA 130316Z 14009KT 2SM -RA BR BKN014 OVC024 06/04 A2962 RMK AO2 P0002 $=
201111130316 SPECI KSEA 130316Z 14009KT 2SM -RA BR BKN014 OVC024 06/04 A2962 RMK AO2 P0002 $=
201111130253 METAR KSEA 130253Z 17009KT 4SM -RA BR OVC024 06/04 A2964 RMK AO2 SLP045 P0001 60002 T00610044 56037 $=
201111130210 SPECI KSEA 130210Z 17014G19KT 5SM -RA BR OVC024 07/04 A2967 RMK AO2 P0000 $=
201111130210 SPECI KSEA 130210Z 17014G19KT 5SM -RA BR OVC024 07/04 A2967 RMK AO2 P0000 $=
201111130153 METAR KSEA 130153Z 18014G22KT 10SM -RA OVC039 07/04 A2967 RMK AO2 SLP055 P0000 T00670044 $=
201111130135 SPECI KSEA 130135Z 17014G22KT 10SM -RA SCT014 OVC039 07/04 A2968 RMK AO2 P0000 $=
201111130135 SPECI KSEA 130135Z 17014G22KT 10SM -RA SCT014 OVC039 07/04 A2968 RMK AO2 P0000 $=
201111130053 METAR KSEA 130053Z 16012KT 10SM -RA BKN014 OVC035 06/05 A2971 RMK AO2 SLP069 P0001 T00610050 $=
201111122353 METAR KSEA 122353Z 19010KT 9SM -RA BKN014 OVC035 06/04 A2975 RMK AO2 SLP082 P0003 60011 T00610044 10067 20044 55011 $=
201111122350 SPECI KSEA 122350Z 19011KT 8SM -RA BKN014 OVC035 06/04 A2975 RMK AO2 P0002 $=
201111122350 SPECI KSEA 122350Z 19011KT 8SM -RA BKN014 OVC035 06/04 A2975 RMK AO2 P0002 $=
201111122253 METAR KSEA 122253Z 18011KT 10SM -RA BKN001 OVC035 07/04 A2975 RMK AO2 RAB21 SLP084 P0001 T00670044 $=
201111122250 METAR KSEA 122250Z 18011KT 10SM -RA BKN014 OVC034 07/04 A2975=
201111122220 METAR KSEA 122220Z 18012KT 10SM FEW015 OVC030 07/04 A2977=
201111122200 SPECI KSEA 122200Z 18010KT 10SM OVC001 06/04 A2978 RMK AO2 $=
201111122200 SPECI KSEA 122200Z 18010KT 10SM OVC001 06/04 A2978 RMK AO2 $=
201111122153 METAR KSEA 122153Z 18008KT 10SM FEW015 OVC033 06/04 A2978 RMK AO2 RAE40 SLP093 P0001 T00610044 $=
201111122053 METAR KSEA 122053Z 19010KT 8SM -RA FEW020 BKN035 OVC050 06/04 A2981 RMK AO2 SLP104 P0006 60006 T00610044 58017 $=
201111121953 METAR KSEA 121953Z 20014G20KT 10SM -RA FEW020 BKN055 OVC100 07/03 A2984 RMK AO2 RAB27 SLP112 P0000 T00670033 $=
201111121853 METAR KSEA 121853Z 19010KT 10SM FEW014 BKN050 OVC100 06/02 A2985 RMK AO2 SLP119 T00610022 $=
201111121753 METAR KSEA 121753Z 18008KT 10SM FEW020 BKN060 OVC140 04/02 A2986 RMK AO2 SLP121 T00440017 10044 20011 51001 $=
201111121653 METAR KSEA 121653Z 16005KT 10SM FEW014 BKN020 OVC160 03/02 A2986 RMK AO2 SLP121 T00330017 $=
201111121553 METAR KSEA 121553Z 14005KT 10SM FEW020 SCT070 BKN160 03/01 A2987 RMK AO2 SLP122 T00280011 $=
201111121453 METAR KSEA 121453Z 15005KT 10SM FEW010 SCT160 02/01 A2986 RMK AO2 SLP120 T00220011 50014 $=
201111121353 METAR KSEA 121353Z 14005KT 10SM CLR 02/01 A2986=
201111121253 METAR KSEA 121253Z 12005KT 10SM SCT030 02/01 A2984 RMK AO2 SLP115 T00220011 $=
201111121153 METAR KSEA 121153Z 12007KT 10SM SCT030 02/01 A2982 RMK AO2 SLP105 70023 T00220006 10044 20017 51024 $=
201111121053 METAR KSEA 121053Z 13003KT 10SM FEW030 02/01 A2981 RMK AO2 SLP101 T00220006 $=
201111120953 METAR KSEA 120953Z 13007KT 10SM SCT030 03/02 A2977=
201111120853 METAR KSEA 120853Z 09005KT 10SM SCT030 03/01 A2974 RMK AO2 SLP080 T00330011 53041 $=
201111120753 METAR KSEA 120753Z 22003KT 10SM FEW030 04/01 A2970 RMK AO2 SLP064 T00390011 401060033 $=
201111120653 METAR KSEA 120653Z 00000KT 10SM FEW028 04/01 A2966 RMK AO2 SLP050 T00390011 $=
201111120553 METAR KSEA 120553Z 22006KT 10SM SCT028 04/01 A2962 RMK AO2 SLP039 60000 T00440011 10083 20044 53024 $=
201111120546 SPECI KSEA 120546Z 22007KT 10SM SCT028 04/02 A2962 RMK AO2 $=
201111120546 SPECI KSEA 120546Z 22007KT 10SM SCT028 04/02 A2962 RMK AO2 $=
201111120453 METAR KSEA 120453Z 28007KT 10SM BKN025 06/02 A2959 RMK AO2 SLP028 T00560017 $=
201111120421 SPECI KSEA 120421Z 18005KT 10SM BKN020 06/02 A2957 RMK AO2 $=
201111120421 SPECI KSEA 120421Z 18005KT 10SM BKN020 06/02 A2957 RMK AO2 $=
201111120353 METAR KSEA 120353Z 24007KT 10SM FEW018 SCT100 05/01 A2957 RMK AO2 SLP019 T00500006 $=
201111120253 METAR KSEA 120253Z 08003KT 10SM FEW018 05/03 A2955=
201111120227 SPECI KSEA 120227Z 00000KT 10SM FEW008 SCT026 06/03 A2955 RMK AO2 RAE15 P0000 $=
201111120227 SPECI KSEA 120227Z 00000KT 10SM FEW008 SCT026 06/03 A2955 RMK AO2 RAE15 P0000 $=
201111120153 METAR KSEA 120153Z 24010KT 10SM -RA FEW007 BKN025 07/03 A2952=
201111120053 METAR KSEA 120053Z 22009KT 10SM SCT007 BKN028 08/05 A2949 RMK AO2 SLP995 T00780050 $=
201111120012 SPECI KSEA 120012Z 20017G21KT 10SM SCT008 BKN025 08/06 A2948 RMK AO2 $=
201111120012 SPECI KSEA 120012Z 20017G21KT 10SM SCT008 BKN025 08/06 A2948 RMK AO2 $=
201111112353 METAR KSEA 112353Z 21013G27KT 10SM BKN007 BKN025 BKN120 08/07 A2949 RMK AO2 PK WND 23029/2343 SLP993 60023 T00830067 10106 20078 55021 $=
201111112253 METAR KSEA 112253Z 20014G23KT 10SM BKN007 OVC045 09/07 A2947 RMK AO2 PK WND 19027/2220 RAE37 SLP985 P0004 T00890072 $=
201111112229 SPECI KSEA 112229Z 20016G27KT 7SM -RA BKN007 BKN045 08/07 A2947 RMK AO2 PK WND 19027/2220 P0003 $=
201111112229 SPECI KSEA 112229Z 20016G27KT 7SM -RA BKN007 BKN045 08/07 A2947 RMK AO2 PK WND 19027/2220 P0003 $=
201111112211 SPECI KSEA 112211Z 18019G26KT 5SM -RA BR FEW004 SCT022 BKN040 08/07 A2946 RMK AO2 PK WND 18026/2207 PRESFR P0002 $=
201111112211 SPECI KSEA 112211Z 18019G26KT 5SM -RA BR FEW004 SCT022 BKN040 08/07 A2946 RMK AO2 PK WND 18026/2207 PRESFR P0002 $=
201111112153 METAR KSEA 112153Z 20014G22KT 3SM -RA BR FEW010 BKN022 OVC040 08/07 A2950 RMK AO2 WSHFT 2058 SLP996 P0009 T00830067 $=
201111112118 SPECI KSEA 112118Z 19013G23KT 5SM -RA SCT010 BKN022 OVC040 08/06 A2952 RMK AO2 WSHFT 2058 P0003 $=
201111112118 SPECI KSEA 112118Z 19013G23KT 5SM -RA SCT010 BKN022 OVC040 08/06 A2952 RMK AO2 WSHFT 2058 P0003 $=
201111112053 METAR KSEA 112053Z 28011G24KT 4SM RA BR SCT010 BKN022 OVC040 08/06 A2955 RMK AO2 PK WND 17026/2000 WSHFT 2024 SLP014 P0009 60010 T00780056 56040 $=
201111112044 SPECI KSEA 112044Z 20012G23KT 4SM RA BKN023 OVC050 08/05 A2954 RMK AO2 PK WND 17026/2000 WSHFT 2024 P0005 $=
201111112044 SPECI KSEA 112044Z 20012G23KT 4SM RA BKN023 OVC050 08/05 A2954 RMK AO2 PK WND 17026/2000 WSHFT 2024 P0005 $=
201111111953 METAR KSEA 111953Z 18022G28KT 5SM -RA BKN025 OVC050 09/03 A2956 RMK AO2 PK WND 18028/1952 RAB03 SLP017 P0001 T00940028 $=
201111111939 SPECI KSEA 111939Z 19015G23KT 8SM -RA BKN025 OVC080 09/03 A2958 RMK AO2 RAB03 P0000 $=
201111111939 SPECI KSEA 111939Z 19015G23KT 8SM -RA BKN025 OVC080 09/03 A2958 RMK AO2 RAB03 P0000 $=
201111111853 METAR KSEA 111853Z 18015G20KT 10SM SCT030 OVC080 10/00 A2962 RMK AO2 SLP038 T01000000 $=
201111111753 METAR KSEA 111753Z 19007KT 10SM SCT035 BKN100 OVC180 08/01 A2967 RMK AO2 SLP054 T00830011 10083 20056 56024 $=
201111111653 METAR KSEA 111653Z 21007G15KT 10SM FEW025 BKN110 OVC150 08/01 A2968 RMK AO2 SLP059 T00830011 $=
201111111553 METAR KSEA 111553Z 20005KT 10SM BKN110 OVC150 07/01 A2971 RMK AO2 SLP067 T00670006 $=
201111111453 METAR KSEA 111453Z 17007KT 10SM OVC110 07/01 A2974 RMK AO2 SLP078 T00670006 56028 $=
201111111353 METAR KSEA 111353Z 13006KT 10SM OVC110 07/00 A2976 RMK AO2 SLP084 T00670000=
201111111253 METAR KSEA 111253Z 16005KT 10SM BKN120 07/M01 A2980 RMK AO2 SLP099 T00671006=
201111111153 METAR KSEA 111153Z 14008KT 10SM BKN150 06/M01 A2983 RMK AO2 SLP107 7//// T00611011 10083 20033 58019=
201111111053 METAR KSEA 111053Z 13003KT 10SM FEW120 SCT250 06/M01 A2985 RMK AO2 SLP117 T00611011=
201111110953 METAR KSEA 110953Z 14007KT 10SM CLR 06/M01 A2987 RMK AO2 SLPNO T00561006=
201111110853 METAR KSEA 110853Z 14008KT 10SM CLR 07/M01 A2988 RMK AO2 SLPNO T00671006 58027=
201111110753 METAR KSEA 110753Z 15005KT 10SM CLR 07/01 A2991 RMK AO2 SLPNO T00670006 401500067=
201111110653 METAR KSEA 110653Z 13009KT 10SM CLR 08/01 A2994 RMK AO2 SLPNO T00780011=
201111110553 METAR KSEA 110553Z 14007KT 10SM CLR 08/02 A2996 RMK AO2 SLPNO T00780017 10128 20078 58008=
201111110453 METAR KSEA 110453Z 15006KT 10SM CLR 09/02 A2998 RMK AO2 SLPNO T00890022=
201111110353 METAR KSEA 110353Z 14006KT 10SM FEW250 10/03 A2999 RMK AO2 SLPNO T01000033=
201111110253 METAR KSEA 110253Z 14007KT 10SM FEW250 10/03 A2999 RMK AO2 SLPNO T01000033 56008=
201111110153 METAR KSEA 110153Z 16007KT 10SM FEW250 11/03 A2999 RMK AO2 SLPNO T01060028=
201111110053 METAR KSEA 110053Z 15005KT 10SM SCT250 11/03 A3000 RMK AO2 SLPNO T01060033=
201111102353 METAR KSEA 102353Z 17005KT 10SM SCT250 13/03 A3001 RMK AO2 SLPNO T01280033=
201111102253 METAR KSEA 102253Z 19006KT 10SM FEW250 14/02 A3003 RMK AO2 SLPNO T01440017=
201111102153 METAR KSEA 102153Z 19003KT 10SM FEW250 15/02 A3006=
201111102053 METAR KSEA 102053Z 16004KT 10SM FEW250 15/03 A3007=
201111102000 METAR KSEA NIL=
201111101953 METAR KSEA 101953Z 18005KT 10SM SCT250 13/04 A3010 RMK AO2 T01340035=
201111101853 METAR KSEA 101853Z COR 24004KT 10SM BKN250 12/04 A3011 RMK AO2 SLP204 T01170039=
201111101753 METAR KSEA 101753Z 19003KT 10SM FEW150 BKN200 10/04 A3012 RMK AO2 SLP207 T01000044 10100 20044 51003=
201111101653 METAR KSEA 101653Z 17003KT 10SM FEW150 BKN200 08/03 A3012 RMK AO2 SLP206 T00780028=
201111101553 METAR KSEA 101553Z 15003KT 10SM FEW150 BKN200 06/04 A3013 RMK AO2 SLP210 T00560039=
201111101453 METAR KSEA 101453Z 17004KT 10SM SCT200 05/01 A3011 RMK AO2 SLP205 T00500006 55001=
201111101353 METAR KSEA 101353Z 16003KT 10SM FEW200 06/01 A3011 RMK AO2 SLP204 T00560011=
201111101253 METAR KSEA 101253Z 12005KT 10SM SCT200 07/00 A3011 RMK AO2 SLP204 T00670000=
201111101153 METAR KSEA 101153Z 13004KT 10SM SCT200 07/02 A3012 RMK AO2 SLP206 T00670017 10111 20056 57006=
201111101053 METAR KSEA 101053Z 00000KT 10SM BKN200 08/M01 A3013 RMK AO2 SLP208 T00831006=
201111100953 METAR KSEA 100953Z 11008KT 10SM BKN200 11/M01 A3013 RMK AO2 SLP208 T01061006=
201111100853 METAR KSEA 100853Z 11008KT 10SM BKN200 11/00 A3014 RMK AO2 SLP211 T01060000 56009=
201111100753 METAR KSEA 100753Z 12005KT 10SM BKN200 10/00 A3015 RMK AO2 SLP215 T01000000 401670078=
201111100653 METAR KSEA 100653Z 12005KT 10SM BKN200 11/00 A3015 RMK AO2 SLP215 T01060000=
201111100553 METAR KSEA 100553Z 13007KT 10SM FEW070 SCT200 11/01 A3016=
201111100453 METAR KSEA 100453Z 12010KT 10SM FEW070 BKN200 12/01 A3015 RMK AO2 SLP217 T01170006=
201111100353 METAR KSEA 100353Z 13011KT 10SM FEW070 BKN200 12/01 A3015 RMK AO2 SLP217 T01170006=
201111100253 METAR KSEA 100253Z 12012KT 10SM BKN070 BKN200 12/01 A3016 RMK AO2 SLP220 T01220006 56007=
201111100153 METAR KSEA 100153Z 12011KT 10SM BKN070 BKN200 13/01 A3017 RMK AO2 SLP223 T01280011=
201111100053 METAR KSEA 100053Z 11010KT 10SM BKN065 BKN200 14/02 A3017 RMK AO2 SLP223 ACSL SE T01390017=
201111092353 METAR KSEA 092353Z 13007KT 10SM SCT070 BKN200 14/03 A3018 RMK AO2 SLP227 ACSL SE T01440033 10167 20122 56008=
201111092253 METAR KSEA 092253Z 12008KT 10SM FEW080 SCT180 BKN250 16/02 A3018 RMK AO2 SLP228 T01610022=
201111092153 METAR KSEA 092153Z 12013G18KT 10SM FEW070 SCT180 BKN250 16/03 A3019 RMK AO2 SLP230 T01610028=
201111092053 METAR KSEA 092053Z 12009KT 10SM FEW060 SCT140 BKN200 16/03 A3021=
201111091953 METAR KSEA 091953Z 12011KT 10SM FEW055 OVC200 14/03 A3022 RMK AO2 SLP241 T01390033=
201111091853 METAR KSEA 091853Z 11009KT 10SM FEW050 OVC200 13/03 A3025 RMK AO2 SLP250 T01280033=
201111091753 METAR KSEA 091753Z 12008KT 10SM SCT048 BKN080 OVC200 12/03 A3025 RMK AO2 SLP252 60000 T01220033 10122 20078 51004=
201111091653 METAR KSEA 091653Z 11006KT 10SM BKN042 OVC200 12/04 A3025 RMK AO2 SLP251 T01170039=
201111091553 METAR KSEA 091553Z 11007KT 10SM BKN043 BKN055 11/05 A3025 RMK AO2 SLP250 T01060050=
201111091453 METAR KSEA 091453Z 13006KT 10SM OVC041 10/04 A3024 RMK AO2 SLP247 60000 T01000044 52002=
201111091353 METAR KSEA 091353Z 21003KT 10SM BKN038 BKN060 08/05 A3024 RMK AO2 SLP246 T00830050=
201111091253 METAR KSEA 091253Z 27003KT 10SM OVC036 08/06 A3024 RMK AO2 RAB01E10 SLP246 P0000 T00780056=
201111091153 METAR KSEA 091153Z 22004KT 10SM OVC032 08/05 A3023 RMK AO2 SLP245 60000 T00830050 10089 20078 58006=
201111091053 METAR KSEA 091053Z 13004KT 10SM OVC034 08/05 A3024 RMK AO2 SLP248 T00830050=
201111090953 METAR KSEA 090953Z 00000KT 10SM OVC036 08/06 A3025 RMK AO2 RAB06E19B36E51 SLP251 P0000 T00830056=
201111090853 METAR KSEA 090853Z 00000KT 10SM OVC042 09/05 A3025 RMK AO2 SLP252 T00890050 53002=
201111090753 METAR KSEA 090753Z 00000KT 10SM OVC044 08/04 A3025 RMK AO2 SLP250 T00830044 401280056=
201111090653 METAR KSEA 090653Z 15003KT 10SM OVC048 08/04 A3024 RMK AO2 SLP249 T00830044=
201111090553 METAR KSEA 090553Z 21003KT 10SM BKN055 OVC090 08/04 A3025 RMK AO2 RAB37E49 SLP250 P0000 60000 T00830044 10111 20078 53008=
201111090453 METAR KSEA 090453Z 00000KT 10SM BKN090 OVC200 08/04 A3023 RMK AO2 SLP244 T00830039=
201111090353 METAR KSEA 090353Z 12005KT 10SM FEW100 BKN220 09/04 A3022 RMK AO2 SLP241 T00890039=
201111090253 METAR KSEA 090253Z 00000KT 10SM FEW100 BKN220 08/03 A3022 RMK AO2 SLP243 T00830033 53001=
201111090153 METAR KSEA 090153Z 04003KT 10SM FEW055 SCT095 BKN250 09/03 A3022 RMK AO2 SLP240 T00940033=
201111090053 METAR KSEA 090053Z 00000KT 10SM FEW055 SCT090 BKN250 10/03 A3022 RMK AO2 SLP240 T01000033=
201111082353 METAR KSEA 082353Z 00000KT 10SM FEW030 SCT090 SCT250 11/03 A3022 RMK AO2 SLP240 T01110033 10128 20089 58011=
201111082253 METAR KSEA 082253Z 27004KT 10SM FEW030 SCT250 12/03 A3024 RMK AO2 SLP246 T01220033=
201111082153 METAR KSEA 082153Z 17004KT 10SM FEW030 SCT250 13/03 A3024 RMK AO2 SLP246 T01280028=
201111082053 METAR KSEA 082053Z 19003KT 10SM FEW030 BKN250 12/03 A3025 RMK AO2 SLP252 T01170033 58004=
201111081953 METAR KSEA 081953Z 19005KT 10SM FEW030 SCT200 12/03 A3026 RMK AO2 SLP255 T01170033=
201111081853 METAR KSEA 081853Z 17005KT 10SM FEW048 SCT070 SCT200 11/03 A3026 RMK AO2 SLP256 T01060028=
201111081753 METAR KSEA 081753Z 13004KT 10SM FEW047 SCT075 BKN200 09/03 A3026 RMK AO2 SLP256 T00890033 10094 20056 51006=
201111081653 METAR KSEA 081653Z 16004KT 10SM SCT080 BKN200 07/03 A3026 RMK AO2 SLP256 T00720028=
201111081553 METAR KSEA 081553Z 15006KT 10SM SCT080 BKN200 06/03 A3025 RMK AO2 SLP253 T00610028=
201111081453 METAR KSEA 081453Z 14003KT 10SM SCT030 BKN080 06/03 A3025 RMK AO2 SLP251 T00610028 50001=
201111081353 METAR KSEA 081353Z 12003KT 10SM FEW030 OVC080 07/04 A3025 RMK AO2 SLP253 T00670039=
201111081253 METAR KSEA 081253Z 17005KT 10SM FEW030 OVC090 07/04 A3025 RMK AO2 SLP252 T00670039=
201111081153 METAR KSEA 081153Z 17008KT 10SM BKN030 OVC085 07/04 A3024 RMK AO2 SLP249 70001 T00720039 10083 20072 58000=
201111081053 METAR KSEA 081053Z 20009KT 10SM FEW065 OVC085 08/04 A3025 RMK AO2 SLP251 T00780044=
201111080953 METAR KSEA 080953Z 21006KT 10SM FEW028 BKN090 07/04 A3025 RMK AO2 SLP253 T00720044=
201111080853 METAR KSEA 080853Z 21009KT 10SM BKN090 08/04 A3025 RMK AO2 SLP251 T00780044 53006=
201111080753 METAR KSEA 080753Z 20011KT 10SM FEW026 OVC085 08/04 A3023 RMK AO2 SLP245 T00780044 400940039=
201111080653 METAR KSEA 080653Z 19012KT 10SM FEW028 BKN090 08/04 A3023 RMK AO2 SLP244 T00830044=
201111080553 METAR KSEA 080553Z 20012KT 10SM FEW029 BKN085 08/05 A3023 RMK AO2 SLP245 T00830050 10089 20083 51004=
201111080453 METAR KSEA 080453Z 19011G18KT 10SM FEW020 BKN085 08/05 A3022 RMK AO2 SLP243 T00830050=
201111080353 METAR KSEA 080353Z 19014KT 10SM FEW020 BKN090 08/05 A3022 RMK AO2 SLP242 T00830050=
201111080253 METAR KSEA 080253Z 19012KT 10SM SCT024 BKN035 BKN090 09/05 A3022 RMK AO2 SLP240 T00890050 51004=
201111080153 METAR KSEA 080153Z 19009KT 10SM FEW020 SCT026 OVC085 09/05 A3021 RMK AO2 SLP239 T00890050=
201111080053 METAR KSEA 080053Z 19010KT 10SM SCT023 SCT030 BKN070 09/05 A3021 RMK AO2 SLP237 T00890050=
201111072353 METAR KSEA 072353Z 19008KT 10SM BKN025 BKN034 BKN095 09/05 A3020 RMK AO2 SLP236 60001 T00890050 10094 20067 55001=
201111072320 SPECI KSEA 072320Z 18005KT 10SM BKN027 OVC060 09/05 A3020 RMK AO2=
201111072320 SPECI KSEA 072320Z 18005KT 10SM BKN027 OVC060 09/05 A3020 RMK AO2=
201111072253 METAR KSEA 072253Z 19007KT 10SM BKN044 BKN060 OVC200 09/06 A3020 RMK AO2 SLP234 T00890056=
201111072153 METAR KSEA 072153Z 18007KT 10SM FEW014 BKN047 BKN075 BKN200 08/06 A3020 RMK AO2 RAE50 SLP236 P0000 T00830061=
201111072053 METAR KSEA 072053Z 19004KT 8SM -RA FEW013 BKN040 BKN200 07/06 A3021 RMK AO2 SLP237 P0000 60001 T00720056 58002=
201111071953 METAR KSEA 071953Z 22005KT 7SM -RA FEW011 BKN032 OVC040 07/05 A3022 RMK AO2 RAB23 SLP241 P0001 T00720050=
201111071853 METAR KSEA 071853Z 20007KT 10SM SCT011 BKN080 OVC250 07/04 A3022 RMK AO2 SLP242 T00720039=
201111071811 SPECI KSEA 071811Z 21005KT 10SM BKN013 BKN050 OVC250 07/03 A3022 RMK AO2=
201111071811 SPECI KSEA 071811Z 21005KT 10SM BKN013 BKN050 OVC250 07/03 A3022 RMK AO2=
201111071753 METAR KSEA 071753Z 20004KT 9SM BKN015 BKN050 OVC250 07/03 A3021 RMK AO2 SLP240 T00720033 10072 20039 50004=
201111071653 METAR KSEA 071653Z 00000KT 9SM BKN015 BKN048 BKN250 06/03 A3022 RMK AO2 SLP241 T00610028=
201111071636 SPECI KSEA 071636Z 16004KT 9SM SCT013 SCT048 BKN250 06/03 A3021 RMK AO2=
201111071636 SPECI KSEA 071636Z 16004KT 9SM SCT013 SCT048 BKN250 06/03 A3021 RMK AO2=
201111071606 SPECI KSEA 071606Z 15004KT 10SM BKN013 BKN048 OVC200 04/03 A3021 RMK AO2=
201111071606 SPECI KSEA 071606Z 15004KT 10SM BKN013 BKN048 OVC200 04/03 A3021 RMK AO2=
201111071553 METAR KSEA 071553Z 15003KT 10SM SCT013 BKN048 OVC200 05/02 A3021 RMK AO2 SLP239 T00500022=
201111071453 METAR KSEA 071453Z 13004KT 10SM BKN048 05/02 A3020 RMK AO2 SLP235 T00500022 51005=
201111071353 METAR KSEA 071353Z 16004KT 10SM BKN050 04/02 A3020 RMK AO2 SLP236 T00440022=
201111071253 METAR KSEA 071253Z 12003KT 10SM OVC050 05/02 A3020 RMK AO2 SLP234 T00500022=
201111071153 METAR KSEA 071153Z 13004KT 10SM BKN050 04/02 A3019 RMK AO2 SLP231 T00440017 10061 20044 54000=
201111071053 METAR KSEA 071053Z 13004KT 10SM OVC050 05/02 A3019 RMK AO2 SLP231 T00500022=
201111070953 METAR KSEA 070953Z 12004KT 10SM OVC048 05/02 A3019 RMK AO2 SLP230 T00500022=
201111070853 METAR KSEA 070853Z 12004KT 10SM OVC048 05/02 A3019 RMK AO2 SLP231 T00500017 52008=
201111070753 METAR KSEA 070753Z 00000KT 10SM OVC044 05/02 A3018 RMK AO2 SLP228 T00500017 400940000=
201111070653 METAR KSEA 070653Z 12003KT 10SM OVC044 06/02 A3017 RMK AO2 SLP225 T00560017=
201111070553 METAR KSEA 070553Z 00000KT 10SM OVC042 05/01 A3016 RMK AO2 SLP224 T00500006 10078 20039 51019=
201111070453 METAR KSEA 070453Z 03005KT 10SM BKN090 05/00 A3014 RMK AO2 SLP217 T00500000=
201111070353 METAR KSEA 070353Z 36004KT 10SM SCT090 05/01 A3013=
201111070253 METAR KSEA 070253Z 35004KT 10SM BKN085 06/01 A3011 RMK AO2 SLP205 T00560006 53014=
201111070153 METAR KSEA 070153Z 35004KT 10SM BKN095 07/01 A3009 RMK AO2 SLP198 T00670011=
201111070053 METAR KSEA 070053Z 01005KT 10SM BKN080 BKN095 07/01 A3008 RMK AO2 SLP194 T00670011=
201111062353 METAR KSEA 062353Z 30003KT 10SM BKN075 BKN120 07/01 A3007 RMK AO2 SLP190 T00720011 10094 20044 53015=
201111062253 METAR KSEA 062253Z 30004KT 10SM FEW060 BKN100 BKN220 08/01 A3005 RMK AO2 SLP183 T00830011=
201111062153 METAR KSEA 062153Z 30005KT 10SM FEW060 BKN110 BKN220 08/02 A3003 RMK AO2 SLP177 T00830017=
201111062053 METAR KSEA 062053Z 35004KT 10SM FEW060 SCT110 BKN220 09/00 A3002 RMK AO2 SLP174 T00890000 51011=
201111061953 METAR KSEA 061953Z 00000KT 10SM FEW050 SCT220 08/00 A3001 RMK AO2 SLP172 T00830000=
201111061853 METAR KSEA 061853Z 03003KT 10SM FEW060 SCT210 07/M01 A3001 RMK AO2 SLP169 T00721006=
201111061753 METAR KSEA 061753Z 03005KT 10SM FEW060 SCT200 04/M01 A2999 RMK AO2 SLP164 T00441006 10056 20000 51021=
201111061653 METAR KSEA 061653Z 05003KT 10SM SCT190 05/M01 A2997 RMK AO2 SLP158 T00501011=
201111061553 METAR KSEA 061553Z 04004KT 10SM FEW010 SCT210 02/00 A2995 RMK AO2 SLP153 T00170000=
201111061453 METAR KSEA 061453Z 00000KT 10SM FEW250 01/M01 A2993 RMK AO2 SLP143 T00061011 53016=
201111061353 METAR KSEA 061353Z 00000KT 10SM CLR 01/M01 A2991 RMK AO2 SLP136 T00061006=
201111061253 METAR KSEA 061253Z 04004KT 10SM CLR 01/M01 A2989 RMK AO2 SLP131 T00111006=
201111061153 METAR KSEA 061153Z 00000KT 10SM CLR 02/00 A2988 RMK AO2 SLP126 T00170000 10044 20006 53009=
201111061053 METAR KSEA 061053Z 02003KT 10SM FEW250 02/01 A2987 RMK AO2 SLP122 T00220011=
201111060953 METAR KSEA 060953Z 02006KT 10SM FEW250 02/00 A2986 RMK AO2 SLP118 T00220000=
201111060853 METAR KSEA 060853Z 00000KT 10SM FEW250 02/M01 A2985 RMK AO2 SLP116 T00221011 53007=
201111060753 METAR KSEA 060753Z 09004KT 10SM CLR 03/M01 A2984 RMK AO2 SLP114 T00331011 401000022=
201111060653 METAR KSEA 060653Z 09005KT 10SM CLR 04/01 A2984 RMK AO2 SLP111 T00390011=
201111060553 METAR KSEA 060553Z 00000KT 10SM CLR 04/01 A2983=
201111060453 METAR KSEA 060453Z 03005KT 10SM CLR 05/00 A2982 RMK AO2 SLP107 T00500000=
201111060353 METAR KSEA 060353Z 04007KT 10SM CLR 06/02 A2981=
201111060253 METAR KSEA 060253Z 36007KT 10SM SCT200 06/00 A2981 RMK AO2 SLP102 T00560000 53007 $=
201111060153 METAR KSEA 060153Z 36005KT 10SM FEW040 BKN200 06/00 A2980 RMK AO2 SLP099 T00560000=
201111060053 METAR KSEA 060053Z 34004KT 10SM FEW043 BKN200 07/01 A2979=
201111052353 METAR KSEA 052353Z 32004KT 10SM SCT041 BKN200 08/00 A2979 RMK AO2 SLP094 T00830000 10100 20067 55002=
201111052253 METAR KSEA 052253Z 27005KT 10SM BKN041 09/M01 A2978 RMK AO2 SLP093 T00891006=
201111052153 METAR KSEA 052153Z 00000KT 10SM FEW060 SCT210 09/M01 A2979 RMK AO2 SLP094 T00941006=
201111052053 METAR KSEA 052053Z 28004KT 10SM FEW040 SCT220 09/00 A2979 RMK AO2 SLP096 T00940000 58007=
201111051953 METAR KSEA 051953Z 11003KT 10SM FEW050 SCT220 09/M01 A2980 RMK AO2 SLP099 T00941011=
201111051853 METAR KSEA 051853Z 09003KT 10SM FEW050 SCT220 09/01 A2981 RMK AO2 SLP103 T00890006=
201111051753 METAR KSEA 051753Z 16003KT 10SM FEW050 SCT210 06/01 A2981 RMK AO2 SLP104 T00610006 10061 20028 51005=
201111051653 METAR KSEA 051653Z 11005KT 10SM FEW034 BKN180 05/01 A2981 RMK AO2 SLP104 T00500006=
201111051553 METAR KSEA 051553Z 13005KT 10SM SCT034 BKN180 04/00 A2981 RMK AO2 SLP103 T00390000=
201111051453 METAR KSEA 051453Z 12007KT 10SM FEW039 SCT050 BKN190 03/01 A2980 RMK AO2 SLP099 T00330006 56007=
201111051353 METAR KSEA 051353Z 14003KT 10SM FEW029 SCT039 BKN210 03/01 A2980 RMK AO2 SLP100 T00280006=
201111051253 METAR KSEA 051253Z 11007KT 10SM BKN025 BKN060 OVC200 03/01 A2981=
201111051153 METAR KSEA 051153Z 13004KT 10SM SCT025 BKN060 OVC200 03/01 A2982 RMK AO2 SLP106 70005 T00280006 10039 20022 58014=
201111051122 SPECI KSEA 051122Z 12005KT 10SM SCT025 BKN060 OVC200 03/01 A2982 RMK AO2=
201111051122 SPECI KSEA 051122Z 12005KT 10SM SCT025 BKN060 OVC200 03/01 A2982 RMK AO2=
201111051053 METAR KSEA 051053Z 13005KT 10SM BKN025 OVC060 03/01 A2983 RMK AO2 SLP112 T00280006=
201111050953 METAR KSEA 050953Z 12008KT 10SM SCT025 BKN060 BKN200 03/01 A2985 RMK AO2 SLP116 T00280006=
201111050926 SPECI KSEA 050926Z 14006KT 10SM BKN020 BKN060 BKN200 03/01 A2985 RMK AO2=
201111050926 SPECI KSEA 050926Z 14006KT 10SM BKN020 BKN060 BKN200 03/01 A2985 RMK AO2=
201111050853 METAR KSEA 050853Z 14005KT 10SM FEW020 SCT060 BKN200 03/01 A2986 RMK AO2 SLP120 T00280011 58012=
201111050753 METAR KSEA 050753Z 15005KT 10SM SCT020 BKN080 BKN200 03/01 A2987 RMK AO2 SLP125 T00280011 400670028=
201111050653 METAR KSEA 050653Z 13005KT 10SM FEW030 SCT200 03/01 A2988 RMK AO2 SLP128 T00330011=
201111050553 METAR KSEA 050553Z 14005KT 10SM FEW019 SCT025 BKN033 04/02 A2989 RMK AO2 SLP132 T00390017 10061 20039 58011=
201111050508 SPECI KSEA 050508Z 13006KT 10SM BKN031 BKN065 05/02 A2990 RMK AO2=
201111050508 SPECI KSEA 050508Z 13006KT 10SM BKN031 BKN065 05/02 A2990 RMK AO2=
201111050453 METAR KSEA 050453Z 12005KT 10SM BKN029 BKN060 05/02 A2990 RMK AO2 SLP136 T00500022=
201111050429 SPECI KSEA 050429Z 13007KT 10SM BKN027 BKN065 04/02 A2991 RMK AO2=
201111050429 SPECI KSEA 050429Z 13007KT 10SM BKN027 BKN065 04/02 A2991 RMK AO2=
201111050353 METAR KSEA 050353Z 14006KT 10SM SCT023 BKN065 04/02 A2992 RMK AO2 SLP141 T00440022=
201111050253 METAR KSEA 050253Z 13008KT 10SM BKN065 BKN220 05/03 A2993 RMK AO2 SLP144 T00500028 58001=
201111050153 METAR KSEA 050153Z 12007KT 10SM FEW024 BKN060 BKN220 05/02 A2993 RMK AO2 SLP145 T00500022=
201111050053 METAR KSEA 050053Z 15003KT 10SM FEW022 BKN060 BKN220 06/03 A2993=
201111042353 METAR KSEA 042353Z 14006KT 10SM FEW022 BKN055 BKN220 06/03 A2993=
201111042326 SPECI KSEA 042326Z 16005KT 10SM SCT022 BKN055 06/03 A2994 RMK AO2=
201111042326 SPECI KSEA 042326Z 16005KT 10SM SCT022 BKN055 06/03 A2994 RMK AO2=
201111042253 METAR KSEA 042253Z 15004KT 10SM FEW014 BKN024 BKN055 07/03 A2993 RMK AO2 SLP145 T00670033=
201111042153 METAR KSEA 042153Z 19005KT 10SM SCT016 BKN022 OVC055 06/04 A2994 RMK AO2 RAB09E19 SLP147 P0000 T00610044=
201111042142 SPECI KSEA 042142Z 19004KT 10SM BKN016 BKN026 OVC050 07/03 A2994 RMK AO2 RAB09E19 P0000=
201111042142 SPECI KSEA 042142Z 19004KT 10SM BKN016 BKN026 OVC050 07/03 A2994 RMK AO2 RAB09E19 P0000=
201111042053 METAR KSEA 042053Z VRB03KT 10SM SCT016 BKN031 BKN040 06/03 A2995 RMK AO2 RAB1955E30 SLP149 P0001 60001 T00610033 58001=
201111042047 SPECI KSEA 042047Z VRB03KT 10SM SCT017 BKN031 BKN040 BKN200 06/03 A2995 RMK AO2 RAB1955E30 P0001=
201111042047 SPECI KSEA 042047Z VRB03KT 10SM SCT017 BKN031 BKN040 BKN200 06/03 A2995 RMK AO2 RAB1955E30 P0001=
201111042023 SPECI KSEA 042023Z 00000KT 8SM -RA FEW008 BKN016 BKN029 OVC200 05/03 A2995 RMK AO2 RAB1955 P0001=
201111042023 SPECI KSEA 042023Z 00000KT 8SM -RA FEW008 BKN016 BKN029 OVC200 05/03 A2995 RMK AO2 RAB1955 P0001=
201111042008 SPECI KSEA 042008Z 34007KT 7SM -RA FEW009 BKN012 BKN025 06/03 A2995 RMK AO2 RAB1955 P0000=
201111042008 SPECI KSEA 042008Z 34007KT 7SM -RA FEW009 BKN012 BKN025 06/03 A2995 RMK AO2 RAB1955 P0000=
201111041953 METAR KSEA 041953Z 35003KT 8SM FEW009 BKN019 OVC027 07/03 A2995 RMK AO2 RAB1854E07 SLP150 P0000 T00670033=
201111041853 METAR KSEA 041853Z 02003KT 6SM HZ FEW009 BKN017 OVC028 06/03 A2996 RMK AO2 SLP154 T00610033=
201111041753 METAR KSEA 041753Z 35003KT 6SM BR FEW008 SCT016 OVC025 06/03 A2995 RMK AO2 SLP150 60004 T00560033 10056 20028 51004=
201111041722 SPECI KSEA 041722Z 06004KT 6SM BR FEW008 BKN024 OVC040 05/03 A2995 RMK AO2=
201111041722 SPECI KSEA 041722Z 06004KT 6SM BR FEW008 BKN024 OVC040 05/03 A2995 RMK AO2=
201111041653 METAR KSEA 041653Z 06005KT 5SM BR FEW006 BKN013 OVC034 04/03 A2994 RMK AO2 RAE38 SLP149 P0003 T00440033=
201111041636 SPECI KSEA 041636Z 07008KT 5SM -RA BR SCT005 BKN011 BKN030 04/03 A2994 RMK AO2 P0003=
201111041636 SPECI KSEA 041636Z 07008KT 5SM -RA BR SCT005 BKN011 BKN030 04/03 A2994 RMK AO2 P0003=
201111041611 SPECI KSEA 041611Z 05007KT 3SM -RA BR BKN005 OVC011 04/03 A2995 RMK AO2 P0001=
201111041611 SPECI KSEA 041611Z 05007KT 3SM -RA BR BKN005 OVC011 04/03 A2995 RMK AO2 P0001=
201111041553 METAR KSEA 041553Z 05004KT 4SM -RA BR SCT005 BKN010 OVC023 04/03 A2995 RMK AO2 RAE11B48 SLP151 P0000 T00440033=
201111041527 SPECI KSEA 041527Z 08006KT 8SM FEW010 SCT015 BKN023 04/03 A2994 RMK AO2 RAE11 P0000=
201111041527 SPECI KSEA 041527Z 08006KT 8SM FEW010 SCT015 BKN023 04/03 A2994 RMK AO2 RAE11 P0000=
201111041453 METAR KSEA 041453Z 05007KT 4SM -RA BR FEW010 BKN014 OVC020 04/03 A2994 RMK AO2 RAB07 SLP146 P0001 60001 T00440028 53012=
201111041427 SPECI KSEA 041427Z 05005KT 6SM -RA BR SCT011 BKN026 OVC038 04/03 A2993 RMK AO2 RAB07 P0000=
201111041427 SPECI KSEA 041427Z 05005KT 6SM -RA BR SCT011 BKN026 OVC038 04/03 A2993 RMK AO2 RAB07 P0000=
201111041353 METAR KSEA 041353Z 05005KT 8SM FEW030 BKN040 04/03 A2992 RMK AO2 SLP141 T00390028=
201111041253 METAR KSEA 041253Z 05006KT 4SM BR BCFG FEW030 SCT060 03/02 A2991 RMK AO2 SLP137 T00330022=
201111041243 SPECI KSEA 041243Z 06007KT 3SM R16L/4000VP6000FT BR BCFG FEW002 SCT030 SCT060 03/02 A2991 RMK AO2 TWR VIS 6=
201111041243 SPECI KSEA 041243Z 06007KT 3SM R16L/4000VP6000FT BR BCFG FEW002 SCT030 SCT060 03/02 A2991 RMK AO2 TWR VIS 6=
201111041238 SPECI KSEA 041238Z 05006KT 1 3/4SM R16L/4000VP6000FT BR BCFG FEW002 SCT030 SCT060 03/02 A2991 RMK AO2=
201111041238 SPECI KSEA 041238Z 05006KT 1 3/4SM R16L/4000VP6000FT BR BCFG FEW002 SCT030 SCT060 03/02 A2991 RMK AO2=
201111041228 SPECI KSEA 041228Z 07004KT 4SM BR BCFG FEW002 SCT030 SCT060 03/02 A2991 RMK AO2=
201111041228 SPECI KSEA 041228Z 07004KT 4SM BR BCFG FEW002 SCT030 SCT060 03/02 A2991 RMK AO2=
201111041153 METAR KSEA 041153Z 04004KT 8SM FEW030 SCT060 03/02 A2990 RMK AO2 SLP134 T00330022 10061 20028 50001=
201111041053 METAR KSEA 041053Z 05005KT 9SM FEW030 03/02 A2990 RMK AO2 SLP134 T00330022=
201111040953 METAR KSEA 040953Z 07004KT 10SM FEW030 04/03 A2990 RMK AO2 SLP133 T00390028=
201111040853 METAR KSEA 040853Z 04007KT 10SM FEW030 04/03 A2990 RMK AO2 SLP133 T00440028 51005=
201111040753 METAR KSEA 040753Z 02008KT 10SM FEW030 06/03 A2990 RMK AO2 SLP132 T00560033 401110044=
201111040653 METAR KSEA 040653Z 04005KT 10SM SCT030 05/03 A2989 RMK AO2 SLP129 T00500033=
201111040553 METAR KSEA 040553Z 03006KT 10SM SCT035 06/04 A2988 RMK AO2 SLP128 T00610039 10100 20044 51005=
201111040453 METAR KSEA 040453Z 36005KT 10SM FEW035 06/03 A2988 RMK AO2 SLP126 T00560028=
201111040353 METAR KSEA 040353Z 34005KT 10SM SCT035 04/02 A2988 RMK AO2 SLP126 T00440017=
201111040253 METAR KSEA 040253Z 01006KT 10SM SCT035 06/02 A2987 RMK AO2 SLP123 T00610022 51008=
201111040153 METAR KSEA 040153Z 01004KT 10SM FEW040 SCT075 07/02 A2987 RMK AO2 SLP122 T00720022=
201111040053 METAR KSEA 040053Z 31004KT 10SM FEW035 SCT075 07/03 A2986 RMK AO2 SLP118 T00720028=
201111032353 METAR KSEA 032353Z 29004KT 10SM FEW035 SCT070 10/02 A2985 RMK AO2 SLP114 T01000022 10111 20078 56002=
201111032253 METAR KSEA 032253Z 23004KT 10SM FEW032 SCT065 10/01 A2985 RMK AO2 SLP114 T01000011=
201111032153 METAR KSEA 032153Z VRB03KT 10SM SCT033 10/01 A2984 RMK AO2 SLP113 SHRA DSNT S T01000011=
201111032112 SPECI KSEA 032112Z 24005KT 10SM SCT031 10/03 A2985 RMK AO2=
201111032112 SPECI KSEA 032112Z 24005KT 10SM SCT031 10/03 A2985 RMK AO2=
201111032053 METAR KSEA 032053Z 00000KT 10SM BKN025 11/03 A2985 RMK AO2 SLP115 T01060033 58008=
201111031953 METAR KSEA 031953Z 25003KT 10SM SCT020 SCT080 09/04 A2987 RMK AO2 SLP122 T00890039=
201111031853 METAR KSEA 031853Z VRB04KT 10SM SCT015 SCT085 08/04 A2987 RMK AO2 SLP124 T00830039=
201111031753 METAR KSEA 031753Z 22008KT 10SM SCT012 SCT085 08/04 A2988 RMK AO2 SLP125 T00780039 10078 20050 50005=
201111031653 METAR KSEA 031653Z 00000KT 10SM FEW007 SCT085 07/03 A2988 RMK AO2 SLP125 T00720033=
201111031646 SPECI KSEA 031646Z 17003KT 10SM FEW009 SCT085 07/03 A2988 RMK AO2=
201111031646 SPECI KSEA 031646Z 17003KT 10SM FEW009 SCT085 07/03 A2988 RMK AO2=
201111031553 METAR KSEA 031553Z 14006KT 10SM FEW015 BKN085 06/03 A2987 RMK AO2 SLP124 T00560033=
201111031453 METAR KSEA 031453Z 22010KT 10SM FEW015 SCT070 06/03 A2986 RMK AO2 SLP120 T00560028 51004=
201111031353 METAR KSEA 031353Z 19010KT 10SM FEW015 BKN070 06/03 A2986 RMK AO2 SLP119 T00610033=
201111031253 METAR KSEA 031253Z 16004KT 10SM FEW020 BKN075 05/03 A2986 RMK AO2 SLP121 T00500028=
201111031153 METAR KSEA 031153Z 19013KT 10SM SCT016 BKN100 06/03 A2985 RMK AO2 SLP114 70035 T00610033 10072 20061 53002=
201111031053 METAR KSEA 031053Z 17010KT 10SM BKN095 OVC110 07/04 A2984 RMK AO2 SLP113 T00670039=
201111030953 METAR KSEA 030953Z 18011KT 10SM OVC100 07/04 A2984 RMK AO2 SLP113 T00670039=
201111030853 METAR KSEA 030853Z 19012KT 10SM FEW027 BKN085 OVC110 07/04 A2984 RMK AO2 SLP114 T00670044 58004=
201111030753 METAR KSEA 030753Z 19012KT 10SM OVC100 07/04 A2985 RMK AO2 SLP117 T00670039 401110011=
201111030653 METAR KSEA 030653Z 18011KT 10SM FEW070 BKN110 07/04 A2986 RMK AO2 SLP117 T00720044=
201111030553 METAR KSEA 030553Z 18013KT 10SM FEW027 OVC060 07/06 A2985 RMK AO2 SLP117 60035 T00720056 10111 20072 53005=
201111030539 SPECI KSEA 030539Z 17012KT 10SM BKN029 OVC070 07/06 A2986 RMK AO2=
201111030539 SPECI KSEA 030539Z 17012KT 10SM BKN029 OVC070 07/06 A2986 RMK AO2=
201111030453 METAR KSEA 030453Z 18012KT 10SM FEW030 BKN070 OVC140 07/06 A2984 RMK AO2 WSHFT 0342 RAE46 SLP114 P0005 T00720056=
201111030431 SPECI KSEA 030431Z 16015KT 9SM -RA FEW015 BKN037 OVC065 07/06 A2983 RMK AO2 WSHFT 0342 P0005=
201111030431 SPECI KSEA 030431Z 16015KT 9SM -RA FEW015 BKN037 OVC065 07/06 A2983 RMK AO2 WSHFT 0342 P0005=
201111030357 SPECI KSEA 030357Z 22013KT 6SM -RA BR FEW019 BKN029 OVC035 07/06 A2985 RMK AO2 WSHFT 0342 P0001=
201111030357 SPECI KSEA 030357Z 22013KT 6SM -RA BR FEW019 BKN029 OVC035 07/06 A2985 RMK AO2 WSHFT 0342 P0001=
201111030353 METAR KSEA 030353Z 24011G18KT 7SM -RA OVC034 07/06 A2985 RMK AO2 SLP117 P0007 T00720056=
201111030253 METAR KSEA 030253Z 16013KT 9SM -RA OVC036 07/07 A2984 RMK AO2 SLP114 P0013 60023 T00720067 50006=
201111030153 METAR KSEA 030153Z 18014G23KT 4SM +RA SCT030 OVC041 08/04 A2988 RMK AO2 PK WND 23027/0054 SLP125 P0010 T00830044=
201111030053 METAR KSEA 030053Z 24021G28KT 10SM -RA FEW043 BKN050 OVC140 11/02 A2985 RMK AO2 PK WND 24028/0053 RAB39 SLP116 P0000 T01060022=
201111022353 METAR KSEA 022353Z 26007KT 10SM SCT080 BKN110 BKN150 11/01 A2982 RMK AO2 SLP107 T01110006 10111 20050 56018=
201111022253 METAR KSEA 022253Z 20003KT 10SM FEW100 BKN160 BKN200 10/02 A2983 RMK AO2 SLP108 T01000017=
201111022153 METAR KSEA 022153Z 21005KT 10SM SCT160 BKN200 09/02 A2984 RMK AO2 SLP113 T00940017=
201111022053 METAR KSEA 022053Z 25005KT 10SM SCT160 BKN200 09/02 A2988 RMK AO2 SLP125 T00890022 58041=
201111021953 METAR KSEA 021953Z 22005KT 10SM SCT180 BKN250 09/02 A2991 RMK AO2 SLP138 T00890022=
201111021853 METAR KSEA 021853Z 17004KT 10SM SCT180 BKN250 09/02 A2996 RMK AO2 PRESFR SLP155 T00890022=
201111021753 METAR KSEA 021753Z 18003KT 10SM BCFG FEW002 BKN250 04/04 A3000 RMK AO2 SLP166 T00440039 10050 20011 57027=
201111021743 SPECI KSEA 021743Z 17005KT 7SM BCFG FEW002 SCT250 04/04 A3000 RMK AO2=
201111021743 SPECI KSEA 021743Z 17005KT 7SM BCFG FEW002 SCT250 04/04 A3000 RMK AO2=
201111021734 SPECI KSEA 021734Z 18004KT 3/4SM R16L/P6000FT BR SCT002 SCT250 04/04 A3001 RMK AO2 TWR VIS 7=
201111021734 SPECI KSEA 021734Z 18004KT 3/4SM R16L/P6000FT BR SCT002 SCT250 04/04 A3001 RMK AO2 TWR VIS 7=
201111021726 SPECI KSEA 021726Z 00000KT 3/4SM R16L/1600VP6000FT BR BKN002 BKN250 03/03 A3001 RMK AO2 BKN002 V SCT=
201111021726 SPECI KSEA 021726Z 00000KT 3/4SM R16L/1600VP6000FT BR BKN002 BKN250 03/03 A3001 RMK AO2 BKN002 V SCT=
201111021723 SPECI KSEA 021723Z 20003KT 1/4SM R16L/0800VP6000FT BR BKN002 BKN250 03/03 A3002 RMK AO2 SFC VIS 3/4=
201111021723 SPECI KSEA 021723Z 20003KT 1/4SM R16L/0800VP6000FT BR BKN002 BKN250 03/03 A3002 RMK AO2 SFC VIS 3/4=
201111021721 SPECI KSEA 021721Z 22004KT 1/4SM R16L/0800V5000FT BR BKN002 BKN250 03/03 A3002 RMK AO2 SFC VIS 3/4=
201111021721 SPECI KSEA 021721Z 22004KT 1/4SM R16L/0800V5000FT BR BKN002 BKN250 03/03 A3002 RMK AO2 SFC VIS 3/4=
201111021653 METAR KSEA 021653Z 25004KT 1/4SM R16L/0800V1000FT FG BKN001 04/03 A3003 RMK AO2 TWR VIS 1/2 SLP176 T00390033=
201111021628 SPECI KSEA 021628Z 22004KT 1/4SM R16L/0500V0600FT FG BKN001 03/03 A3004 RMK AO2 TWR VIS 1/2=
201111021628 SPECI KSEA 021628Z 22004KT 1/4SM R16L/0500V0600FT FG BKN001 03/03 A3004 RMK AO2 TWR VIS 1/2=
201111021553 METAR KSEA 021553Z 18003KT 1/8SM R16L/0500V0700FT FG OVC001 03/02 A3005 RMK AO2 TWR VIS 1/2 SLP185 T00280022=
201111021453 METAR KSEA 021453Z 18003KT 1/8SM R16L/0500V0600FT FG VV001 03/03 A3008 RMK AO2 TWR VIS 1/2 SLP195 T00280028 56036=
201111021408 SPECI KSEA 021408Z 19004KT 1/4SM R16L/0800V1600FT FG OVC001 02/02 A3010 RMK AO2 TWR VIS 1/2=
201111021408 SPECI KSEA 021408Z 19004KT 1/4SM R16L/0800V1600FT FG OVC001 02/02 A3010 RMK AO2 TWR VIS 1/2=
201111021353 METAR KSEA 021353Z 20003KT 3SM R16L/0600V1400FT BCFG SCT001 02/02 A3011 RMK AO2 SLP205 VIS S-W 3/4 T00220017=
201111021345 SPECI KSEA 021345Z 22003KT 4SM R16L/1200V1600FT BCFG FEW001 03/02 A3011 RMK AO2 VIS W 3/4=
201111021345 SPECI KSEA 021345Z 22003KT 4SM R16L/1200V1600FT BCFG FEW001 03/02 A3011 RMK AO2 VIS W 3/4=
201111021253 METAR KSEA 021253Z 16003KT 5SM BCFG FEW001 03/01 A3015 RMK AO2 SLP217 T00280011=
201111021153 METAR KSEA 021153Z 00000KT 10SM CLR 04/02 A3019 RMK AO2 SLP230 T00390017 10067 20022 56031=
201111021053 METAR KSEA 021053Z 00000KT 10SM SCT250 03/02 A3021 RMK AO2 SLP240 T00330017=
201111020953 METAR KSEA 020953Z 11003KT 10SM CLR 04/02 A3025 RMK AO2 SLP251 T00390022=
201111020853 METAR KSEA 020853Z 12004KT 10SM CLR 04/02 A3028 RMK AO2 SLP262 T00390017 58029=
201111020753 METAR KSEA 020753Z 00000KT 10SM CLR 05/02 A3031 RMK AO2 SLP271 T00500017 401110028=
201111020653 METAR KSEA 020653Z 00000KT 10SM FEW250 06/02 A3034 RMK AO2 SLP282 T00610022=
201111020553 METAR KSEA 020553Z 00000KT 10SM SCT250 06/02 A3037 RMK AO2 SLP291 T00610017 10100 20056 58020=
201111020453 METAR KSEA 020453Z 04004KT 10SM OVC250 07/03 A3039 RMK AO2 SLP300 T00720028=
201111020353 METAR KSEA 020353Z 33003KT 10SM OVC250 06/02 A3042 RMK AO2 SLP311 T00560017=
201111020253 METAR KSEA 020253Z 00000KT 10SM BKN250 07/02 A3043 RMK AO2 SLP312 T00720017 58022=
201111020153 METAR KSEA 020153Z 00000KT 10SM SCT250 07/02 A3046 RMK AO2 SLP324 T00670022=
201111020053 METAR KSEA 020053Z 03003KT 10SM BKN250 08/01 A3046=
201111012353 METAR KSEA 012353Z 02004KT 10SM FEW025 BKN250 10/00 A3049 RMK AO2 SLP334 T01000000 10111 20083 56011=
201111012253 METAR KSEA 012253Z 00000KT 10SM FEW025 BKN250 10/02 A3050 RMK AO2 SLP336 T01000022=
201111012153 METAR KSEA 012153Z VRB06KT 10SM FEW025 BKN250 11/03 A3051 RMK AO2 SLP341 T01060033=
201111012053 METAR KSEA 012053Z VRB03KT 10SM FEW020 BKN250 11/01 A3052 RMK AO2 SLP345 T01060011 58013=
201111011953 METAR KSEA 011953Z 34003KT 10SM FEW010 BKN250 11/03 A3055 RMK AO2 SLP353 T01110028=
201111011853 METAR KSEA 011853Z 13003KT 10SM FEW008 BKN250 09/03 A3055 RMK AO2 SLP354 T00890033=
201111011753 METAR KSEA 011753Z 00000KT 10SM FEW008 08/03 A3056 RMK AO2 SLP358 T00830033 10083 20028 53013=
201111011653 METAR KSEA 011653Z 00000KT 10SM FEW007 06/02 A3054 RMK AO2 SLP351 T00610022=
201111011553 METAR KSEA 011553Z 11005KT 10SM FEW048 04/02 A3054 RMK AO2 SLP351 T00390017=
201111011453 METAR KSEA 011453Z 00000KT 10SM FEW048 03/01 A3052 RMK AO2 SLP345 T00330011 53005=
201111011353 METAR KSEA 011353Z 00000KT 10SM SCT048 03/02 A3051 RMK AO2 SLP342 T00330017=
201111011253 METAR KSEA 011253Z 05004KT 10SM BKN050 05/03 A3052 RMK AO2 SLP343 T00500028=
201111011153 METAR KSEA 011153Z 11004KT 10SM SCT055 03/02 A3051 RMK AO2 SLP340 T00330022 10072 20033 51010=
201111011053 METAR KSEA 011053Z 00000KT 10SM FEW060 04/02 A3051 RMK AO2 SLP339 T00390022=
201111010953 METAR KSEA 010953Z 00000KT 10SM FEW060 04/03 A3048 RMK AO2 SLP330 T00390028=
201111010853 METAR KSEA 010853Z 06004KT 10SM FEW040 05/02 A3048 RMK AO2 SLP329 T00500022 50005=
201111010753 METAR KSEA 010753Z 05006KT 10SM BKN046 07/03 A3048 RMK AO2 SLP329 T00670033 401170056=
201111010653 METAR KSEA 010653Z 02006KT 10SM BKN070 06/02 A3047 RMK AO2 SLP325 T00610022=
201111010553 METAR KSEA 010553Z VRB03KT 10SM FEW070 06/03 A3046 RMK AO2 SLP324 T00610028 10106 20061 51010=
201111010453 METAR KSEA 010453Z 05005KT 10SM SCT070 08/03 A3046 RMK AO2 SLP321 T00780033=
201111010353 METAR KSEA 010353Z 00000KT 10SM SCT070 08/03 A3045 RMK AO2 SLP319 T00780028=
201111010253 METAR KSEA 010253Z 00000KT 10SM SCT070 08/03 A3043 RMK AO2 SLP313 T00830033 53012=
201111010153 METAR KSEA 010153Z 05004KT 10SM FEW035 SCT050 BKN075 09/04 A3042 RMK AO2 SLP309 T00940039=
201111010053 METAR KSEA 010053Z 06005KT 10SM FEW035 BKN070 09/03 A3040 RMK AO2 SLP302 T00940033=

# No short TAF reports from KSEA in databse.

# No large TAF reports from KSEA in databse.