##########################################################
# Query made at 02/17/2025 18:06:07 UTC
# Time interval: from 04/01/2011 00:00  to 04/30/2011 23:59  UTC
##########################################################

##########################################################
# KSEA, Seattle, Seattle-Tacoma International Airport (United States)
# WMO index: 72793. WIGOS ID: 0-20000-0-72793
# Latitude 47-27-00N. Longitude 122-17-59W. Altitude 130 m.
##########################################################

###################################
#  METAR/SPECI from KSEA
###################################
201104302353 METAR KSEA 302353Z 22004KT 10SM FEW030 SCT200 13/01 A3044 RMK AO2 SLP317 60001 T01280006 10133 20078 56012=
201104302253 METAR KSEA 302253Z 29006KT 10SM SCT030 13/02 A3045 RMK AO2 SLP319 T01280017=
201104302153 METAR KSEA 302153Z 26006KT 10SM SCT030 12/02 A3047 RMK AO2 SLP326 T01220017=
201104302053 METAR KSEA 302053Z VRB05KT 10SM SCT025 SCT060 12/03 A3048 RMK AO2 SLP329 60001 T01170028 58006=
201104301953 METAR KSEA 301953Z 00000KT 10SM FEW023 SCT033 BKN060 10/03 A3049=
201104301853 METAR KSEA 301853Z 00000KT 10SM FEW015 SCT027 BKN035 09/04 A3049 RMK AO2 SLP334 P0001 T00940044=
201104301822 SPECI KSEA 301822Z 24004KT 10SM FEW008 SCT025 BKN060 08/05 A3050 RMK AO2 P0001=
201104301822 SPECI KSEA 301822Z 24004KT 10SM FEW008 SCT025 BKN060 08/05 A3050 RMK AO2 P0001=
201104301753 METAR KSEA 301753Z 24004KT 10SM FEW008 BKN025 BKN036 08/06 A3050 RMK AO2 RAB22E53 SLP335 P0000 60001 T00780056 10078 20061 50003=
201104301653 METAR KSEA 301653Z 24004KT 10SM SCT008 OVC024 07/05 A3050 RMK AO2 RAE18 SLP336 P0001 T00670050=
201104301553 METAR KSEA 301553Z 00000KT 7SM -RA FEW008 BKN022 OVC030 07/05 A3050 RMK AO2 RAB42 SLP336 P0000 T00670050=
201104301514 SPECI KSEA 301514Z 00000KT 10SM SCT008 BKN025 OVC030 07/05 A3049 RMK AO2=
201104301514 SPECI KSEA 301514Z 00000KT 10SM SCT008 BKN025 OVC030 07/05 A3049 RMK AO2=
201104301453 METAR KSEA 301453Z 17004KT 10SM FEW005 SCT025 BKN030 07/05 A3049 RMK AO2 SLP332 T00670050 53006=
201104301353 METAR KSEA 301353Z 16005KT 10SM FEW005 BKN050 OVC070 06/05 A3047 RMK AO2 SLP327 T00610050=
201104301349 SPECI KSEA 301349Z 16005KT 10SM FEW005 BKN050 OVC070 07/05 A3047 RMK AO2=
201104301349 SPECI KSEA 301349Z 16005KT 10SM FEW005 BKN050 OVC070 07/05 A3047 RMK AO2=
201104301253 METAR KSEA 301253Z 14006KT 10SM FEW025 SCT040 BKN060 07/05 A3047 RMK AO2 SLP325 T00670050=
201104301153 METAR KSEA 301153Z 15005KT 10SM SCT030 OVC060 07/05 A3046 RMK AO2 RAE27 SLP323 P0002 60011 70011 T00670050 10094 20067 50002=
201104301134 SPECI KSEA 301134Z 12005KT 10SM FEW020 SCT030 OVC060 07/05 A3046 RMK AO2 RAE27 P0002=
201104301134 SPECI KSEA 301134Z 12005KT 10SM FEW020 SCT030 OVC060 07/05 A3046 RMK AO2 RAE27 P0002=
201104301111 SPECI KSEA 301111Z 13005KT 10SM -RA SCT022 OVC028 07/05 A3047 RMK AO2 P0002=
201104301111 SPECI KSEA 301111Z 13005KT 10SM -RA SCT022 OVC028 07/05 A3047 RMK AO2 P0002=
201104301104 SPECI KSEA 301104Z 09005KT 9SM -RA FEW004 SCT024 OVC030 07/05 A3047 RMK AO2 P0001=
201104301104 SPECI KSEA 301104Z 09005KT 9SM -RA FEW004 SCT024 OVC030 07/05 A3047 RMK AO2 P0001=
201104301053 METAR KSEA 301053Z 08005KT 6SM -RA BR FEW004 BKN026 OVC034 07/05 A3047=
201104300953 METAR KSEA 300953Z 09005KT 7SM -RA FEW008 BKN021 OVC028 07/05 A3046 RMK AO2 RAE09B45 SLP322 P0000 T00720050=
201104300917 SPECI KSEA 300917Z 17005KT 10SM FEW008 BKN021 OVC028 07/04 A3046 RMK AO2 RAE09 P0000=
201104300917 SPECI KSEA 300917Z 17005KT 10SM FEW008 BKN021 OVC028 07/04 A3046 RMK AO2 RAE09 P0000=
201104300853 METAR KSEA 300853Z 21005KT 10SM -RA FEW012 BKN021 OVC026 08/04 A3046 RMK AO2 RAB53 SLP322 P0000 60000 T00780039 51011=
201104300831 SPECI KSEA 300831Z 18004KT 10SM OVC012 08/04 A3046 RMK AO2=
201104300831 SPECI KSEA 300831Z 18004KT 10SM OVC012 08/04 A3046 RMK AO2=
201104300753 METAR KSEA 300753Z 18004KT 10SM BKN027 BKN035 OVC055 07/04 A3046 RMK AO2 SLP321 T00670039 401220039=
201104300653 METAR KSEA 300653Z 15005KT 10SM BKN027 BKN035 OVC080 09/03 A3044 RMK AO2 SLP316 T00890033=
201104300553 METAR KSEA 300553Z 20004KT 10SM BKN031 OVC060 09/03 A3042 RMK AO2 SLP310 60000 T00940033 10122 20094 51012=
201104300453 METAR KSEA 300453Z 21005KT 10SM SCT034 BKN042 BKN055 10/04 A3042 RMK AO2 RAE13 SLP308 P0000 T01000039=
201104300353 METAR KSEA 300353Z 00000KT 10SM -RA FEW045 BKN055 BKN090 11/03 A3040 RMK AO2 RAB52 SLP303 P0000 T01110033=
201104300253 METAR KSEA 300253Z 24004KT 10SM BKN055 BKN090 11/02 A3039=
201104300153 METAR KSEA 300153Z 00000KT 10SM SCT050 BKN065 BKN085 12/M02 A3038 RMK AO2 SLP296 T01221017=
201104300053 METAR KSEA 300053Z 00000KT 10SM SCT055 BKN070 12/M02 A3038 RMK AO2 SLP296 T01221017=
201104292353 METAR KSEA 292353Z 24004KT 10SM BKN070 12/00 A3038 RMK AO2 SLP294 T01170000 10122 20078 52003=
201104292253 METAR KSEA 292253Z 21007KT 10SM FEW040 BKN060 12/01 A3037 RMK AO2 SLP292 T01170011=
201104292153 METAR KSEA 292153Z 23006KT 10SM SCT044 BKN100 12/02 A3037=
201104292053 METAR KSEA 292053Z 22007KT 10SM SCT035 SCT049 11/02 A3036=
201104291953 METAR KSEA 291953Z 00000KT 10SM SCT033 11/02 A3035 RMK AO2 SLP288 T01060022=
201104291853 METAR KSEA 291853Z 25007KT 10SM FEW020 BKN031 09/02 A3035 RMK AO2 SLP287 T00890022=
201104291753 METAR KSEA 291753Z VRB05KT 10SM FEW016 BKN030 BKN042 08/02 A3034 RMK AO2 SLP284 T00780022 10083 20039 53017=
201104291745 SPECI KSEA 291745Z 23003KT 10SM FEW014 BKN031 BKN042 08/03 A3034 RMK AO2=
201104291745 SPECI KSEA 291745Z 23003KT 10SM FEW014 BKN031 BKN042 08/03 A3034 RMK AO2=
201104291727 SPECI KSEA 291727Z VRB04KT 10SM SCT014 BKN023 BKN040 08/03 A3034 RMK AO2=
201104291727 SPECI KSEA 291727Z VRB04KT 10SM SCT014 BKN023 BKN040 08/03 A3034 RMK AO2=
201104291653 METAR KSEA 291653Z 21008KT 10SM FEW012 BKN037 08/03 A3033=
201104291628 SPECI KSEA 291628Z 22007KT 10SM SCT011 BKN045 06/03 A3032 RMK AO2=
201104291628 SPECI KSEA 291628Z 22007KT 10SM SCT011 BKN045 06/03 A3032 RMK AO2=
201104291608 SPECI KSEA 291608Z 17005KT 10SM BKN010 BKN045 06/03 A3031 RMK AO2=
201104291608 SPECI KSEA 291608Z 17005KT 10SM BKN010 BKN045 06/03 A3031 RMK AO2=
201104291553 METAR KSEA 291553Z 25003KT 10SM BKN009 BKN038 06/03 A3031 RMK AO2 SLP272 T00610033=
201104291453 METAR KSEA 291453Z 20006KT 10SM BKN009 BKN036 BKN200 05/03 A3029=
201104291353 METAR KSEA 291353Z 00000KT 10SM BKN009 05/02 A3028 RMK AO2 SLP261 T00500022=
201104291341 SPECI KSEA 291341Z 26004KT 10SM BKN009 04/02 A3027 RMK AO2=
201104291341 SPECI KSEA 291341Z 26004KT 10SM BKN009 04/02 A3027 RMK AO2=
201104291253 METAR KSEA 291253Z 22006KT 10SM OVC010 05/03 A3026 RMK AO2 CIG 008V012 SLP254 T00500028=
201104291153 METAR KSEA 291153Z 19005KT 10SM FEW015 BKN060 04/02 A3024 RMK AO2 SLP248 T00440022 10061 20044 53010=
201104291130 SPECI KSEA 291130Z 20006KT 10SM SCT020 BKN070 04/02 A3023 RMK AO2=
201104291130 SPECI KSEA 291130Z 20006KT 10SM SCT020 BKN070 04/02 A3023 RMK AO2=
201104291053 METAR KSEA 291053Z 19006KT 10SM FEW009 BKN020 05/03 A3023=
201104291003 SPECI KSEA 291003Z 20006KT 10SM SCT009 SCT015 BKN020 05/03 A3022 RMK AO2=
201104291003 SPECI KSEA 291003Z 20006KT 10SM SCT009 SCT015 BKN020 05/03 A3022 RMK AO2=
201104290953 METAR KSEA 290953Z 21006KT 10SM FEW010 BKN014 04/02 A3021 RMK AO2 SLP239 T00440022=
201104290853 METAR KSEA 290853Z 19006KT 10SM BKN016 05/03 A3021 RMK AO2 SLP237 T00500028 51015=
201104290753 METAR KSEA 290753Z 19007KT 10SM BKN018 05/03 A3020=
201104290653 METAR KSEA 290653Z 22005KT 10SM BKN016 06/02 A3018 RMK AO2 SLP227 T00560022=
201104290553 METAR KSEA 290553Z 18006KT 10SM BKN020 06/02 A3016 RMK AO2 SLP222 60000 T00610022 10100 20061 51018=
201104290544 SPECI KSEA 290544Z 18006KT 10SM BKN020 06/02 A3016 RMK AO2=
201104290544 SPECI KSEA 290544Z 18006KT 10SM BKN020 06/02 A3016 RMK AO2=
201104290453 METAR KSEA 290453Z 21006KT 10SM SCT050 06/02 A3015 RMK AO2 SLP218 T00610022=
201104290353 METAR KSEA 290353Z 21008KT 10SM FEW025 SCT090 SCT200 07/02 A3013=
201104290253 METAR KSEA 290253Z 22008KT 10SM FEW025 SCT090 BKN200 08/03 A3011 RMK AO2 RAB19E37 SLP204 P0000 60000 T00780028 52008=
201104290153 METAR KSEA 290153Z 22009KT 10SM FEW055 BKN080 BKN200 08/02 A3010 RMK AO2 SLP202 SHRA N T00830017=
201104290053 METAR KSEA 290053Z 22011KT 10SM SCT030 BKN200 09/02 A3009 RMK AO2 SLP198 SHRA NW-N T00940017=
201104282353 METAR KSEA 282353Z 22009KT 10SM SCT030 BKN200 10/02 A3008 RMK AO2 SLP196 SHRA W-N T01000017 10106 20083 56002=
201104282253 METAR KSEA 282253Z 20009KT 10SM SCT025 BKN200 09/02 A3009 RMK AO2 SLP196 T00940017=
201104282153 METAR KSEA 282153Z 24012KT 10SM SCT025 OVC200 09/02 A3009 RMK AO2 SLP196 T00890022=
201104282053 METAR KSEA 282053Z 22015G19KT 10SM SCT024 OVC200 09/02 A3009 RMK AO2 SLP198 SHRA DSNT S T00890022 51001=
201104281953 METAR KSEA 281953Z 23015KT 10SM SCT022 BKN200 09/03 A3009 RMK AO2 SLP196 T00890028=
201104281853 METAR KSEA 281853Z 21012G19KT 10SM SCT022 BKN200 09/03 A3009 RMK AO2 SLP199 T00890028=
201104281753 METAR KSEA 281753Z 20014KT 10SM FEW018 SCT023 BKN200 08/02 A3009 RMK AO2 SLP197 60000 T00830022 10089 20039 53006=
201104281653 METAR KSEA 281653Z 19015G20KT 10SM SCT016 SCT022 BKN200 07/03 A3008=
201104281612 SPECI KSEA 281612Z 19013G20KT 10SM FEW009 SCT015 SCT080 BKN200 07/03 A3007 RMK AO2=
201104281612 SPECI KSEA 281612Z 19013G20KT 10SM FEW009 SCT015 SCT080 BKN200 07/03 A3007 RMK AO2=
201104281601 SPECI KSEA 281601Z 19014G20KT 10SM FEW008 BKN014 BKN085 BKN200 07/03 A3008 RMK AO2=
201104281601 SPECI KSEA 281601Z 19014G20KT 10SM FEW008 BKN014 BKN085 BKN200 07/03 A3008 RMK AO2=
201104281553 METAR KSEA 281553Z 20015KT 10SM FEW008 SCT014 BKN085 BKN200 07/03 A3007 RMK AO2 SLP193 T00670033=
201104281453 METAR KSEA 281453Z 19011KT 10SM FEW008 SCT020 BKN090 BKN200 05/03 A3007 RMK AO2 SLP191 60000 T00500028 53010=
201104281425 SPECI KSEA 281425Z 20015KT 10SM FEW009 SCT022 BKN080 BKN200 04/03 A3006 RMK AO2=
201104281425 SPECI KSEA 281425Z 20015KT 10SM FEW009 SCT022 BKN080 BKN200 04/03 A3006 RMK AO2=
201104281353 METAR KSEA 281353Z 20013G21KT 10SM FEW012 BKN024 BKN100 04/02 A3006 RMK AO2 SLP187 T00440022=
201104281253 METAR KSEA 281253Z 18011KT 10SM SCT012 OVC022 04/03 A3004 RMK AO2 RAE13 SLP183 P0000 T00390033=
201104281153 METAR KSEA 281153Z 18011G20KT 10SM -RA SCT008 BKN014 OVC110 04/03 A3004 RMK AO2 RAB28 SLP181 P0001 60006 70048 T00390028 10044 20033 53006=
201104281126 SPECI KSEA 281126Z 21014G19KT 10SM BKN012 BKN024 OVC110 04/03 A3004 RMK AO2=
201104281126 SPECI KSEA 281126Z 21014G19KT 10SM BKN012 BKN024 OVC110 04/03 A3004 RMK AO2=
201104281100 SPECI KSEA 281100Z 19010KT 10SM SCT012 OVC018 04/03 A3003 RMK AO2=
201104281100 SPECI KSEA 281100Z 19010KT 10SM SCT012 OVC018 04/03 A3003 RMK AO2=
201104281053 METAR KSEA 281053Z 19011KT 10SM BKN012 BKN017 OVC040 04/04 A3003 RMK AO2 RAE29 SLP178 P0001 T00440039=
201104280953 METAR KSEA 280953Z 19011KT 10SM -RA SCT008 BKN012 OVC015 04/02 A3002 RMK AO2 RAB12 SLP175 P0002 T00390022=
201104280909 SPECI KSEA 280909Z 20010KT 10SM SCT008 BKN010 OVC015 04/03 A3002 RMK AO2=
201104280909 SPECI KSEA 280909Z 20010KT 10SM SCT008 BKN010 OVC015 04/03 A3002 RMK AO2=
201104280900 SPECI KSEA 280900Z 20011G17KT 10SM BKN008 OVC012 04/03 A3002 RMK AO2 CIG 006V010=
201104280900 SPECI KSEA 280900Z 20011G17KT 10SM BKN008 OVC012 04/03 A3002 RMK AO2 CIG 006V010=
201104280853 METAR KSEA 280853Z 19009KT 10SM BKN010 OVC020 04/03 A3002=
201104280753 METAR KSEA 280753Z 20013G16KT 10SM BKN013 OVC018 04/04 A3002 RMK AO2 RAB0659E38 SLP172 P0002 T00390039 401110028=
201104280653 METAR KSEA 280653Z 19009KT 10SM BKN013 OVC020 04/03 A3001 RMK AO2 RAE01 SLP172 P0000 T00390033=
201104280614 SPECI KSEA 280614Z 18011KT 10SM BKN010 BKN015 OVC021 04/03 A3001 RMK AO2 RAE01 P0000=
201104280614 SPECI KSEA 280614Z 18011KT 10SM BKN010 BKN015 OVC021 04/03 A3001 RMK AO2 RAE01 P0000=
201104280553 METAR KSEA 280553Z 17009KT 10SM -RA SCT010 OVC021 03/03 A3001 RMK AO2 SLP171 P0002 60032 T00330028 10050 20028 58001=
201104280515 SPECI KSEA 280515Z 16008KT 10SM -RA FEW008 BKN013 OVC022 03/03 A3002 RMK AO2 P0001=
201104280515 SPECI KSEA 280515Z 16008KT 10SM -RA FEW008 BKN013 OVC022 03/03 A3002 RMK AO2 P0001=
201104280453 METAR KSEA 280453Z 16012KT 10SM -RA SCT006 BKN022 OVC065 03/03 A3002 RMK AO2 SLP172 P0001 T00330028=
201104280445 SPECI KSEA 280445Z 17011KT 10SM -RA BKN006 BKN022 OVC065 03/03 A3001 RMK AO2 P0001=
201104280445 SPECI KSEA 280445Z 17011KT 10SM -RA BKN006 BKN022 OVC065 03/03 A3001 RMK AO2 P0001=
201104280421 SPECI KSEA 280421Z 16009KT 10SM -RA FEW008 SCT015 OVC028 03/03 A3001 RMK AO2 P0001=
201104280421 SPECI KSEA 280421Z 16009KT 10SM -RA FEW008 SCT015 OVC028 03/03 A3001 RMK AO2 P0001=
201104280353 METAR KSEA 280353Z 16012KT 8SM -RA BKN008 OVC012 03/03 A3001 RMK AO2 CIG 005V010 SLP172 P0008 T00280028=
201104280334 SPECI KSEA 280334Z 17011KT 7SM -RA BKN008 OVC012 03/03 A3001 RMK AO2 CIG 006V010 P0006=
201104280334 SPECI KSEA 280334Z 17011KT 7SM -RA BKN008 OVC012 03/03 A3001 RMK AO2 CIG 006V010 P0006=
201104280308 SPECI KSEA 280308Z 18008KT 5SM -RA BR FEW007 BKN012 OVC017 04/02 A3001 RMK AO2 P0002=
201104280308 SPECI KSEA 280308Z 18008KT 5SM -RA BR FEW007 BKN012 OVC017 04/02 A3001 RMK AO2 P0002=
201104280253 METAR KSEA 280253Z 17009KT 4SM -RA BR SCT008 OVC015 04/03 A3001 RMK AO2 SLP172 P0005 60021 T00390028 56006=
201104280221 SPECI KSEA 280221Z 18009KT 6SM -RA BR FEW004 BKN010 OVC019 04/03 A3001 RMK AO2 P0003=
201104280221 SPECI KSEA 280221Z 18009KT 6SM -RA BR FEW004 BKN010 OVC019 04/03 A3001 RMK AO2 P0003=
201104280153 METAR KSEA 280153Z 22006KT 6SM -RA BR FEW009 OVC015 05/03 A3002 RMK AO2 SLP173 P0004 T00500033=
201104280146 SPECI KSEA 280146Z 23006KT 7SM -RA FEW009 BKN015 OVC021 04/03 A3002 RMK AO2 P0003=
201104280146 SPECI KSEA 280146Z 23006KT 7SM -RA FEW009 BKN015 OVC021 04/03 A3002 RMK AO2 P0003=
201104280126 SPECI KSEA 280126Z 22012KT 6SM -RA BR BKN008 BKN015 OVC021 05/03 A3002 RMK AO2 P0002=
201104280126 SPECI KSEA 280126Z 22012KT 6SM -RA BR BKN008 BKN015 OVC021 05/03 A3002 RMK AO2 P0002=
201104280053 METAR KSEA 280053Z 19008KT 6SM -RA BR FEW008 BKN023 OVC030 05/04 A3002 RMK AO2 SLP174 P0012 T00500039=
201104280006 SPECI KSEA 280006Z 22011KT 4SM RA BR SCT008 OVC022 04/03 A3004 RMK AO2 P0003=
201104280006 SPECI KSEA 280006Z 22011KT 4SM RA BR SCT008 OVC022 04/03 A3004 RMK AO2 P0003=
201104272353 METAR KSEA 272353Z 25013G22KT 5SM -RA BR FEW008 SCT012 OVC022 04/03 A3003 RMK AO2 PK WND 27028/2316 WSHFT 2252 SLP178 P0008 60009 T00440028 10111 20044 53005=
201104272308 SPECI KSEA 272308Z 26011KT 3SM RA BR FEW007 BKN013 OVC035 07/05 A3002 RMK AO2 WSHFT 2252 PRESRR P0003=
201104272308 SPECI KSEA 272308Z 26011KT 3SM RA BR FEW007 BKN013 OVC035 07/05 A3002 RMK AO2 WSHFT 2252 PRESRR P0003=
201104272253 METAR KSEA 272253Z 22017G27KT 10SM -RA OVC038 09/04 A3000 RMK AO2 PK WND 20028/2242 SLP166 P0000 T00940039=
201104272153 METAR KSEA 272153Z 17016G20KT 10SM -RA SCT028 BKN041 OVC080 11/02 A3000 RMK AO2 RAB36 SLP166 P0000 T01060022=
201104272053 METAR KSEA 272053Z 17016KT 10SM FEW037 OVC200 11/02 A3002 RMK AO2 SLP171 60001 T01060022 58021=
201104271953 METAR KSEA 271953Z 16014KT 10SM SCT034 BKN070 OVC200 11/03 A3004 RMK AO2 RAE15 SLP179 P0001 T01060033=
201104271853 METAR KSEA 271853Z 18011G16KT 10SM -RA SCT034 BKN065 OVC200 09/03 A3007 RMK AO2 RAB51 SLP190 P0000 T00940033=
201104271753 METAR KSEA 271753Z 20011G20KT 10SM SCT033 BKN060 BKN200 09/03 A3008 RMK AO2 SLP193 60001 T00940028 10100 20067 58008=
201104271653 METAR KSEA 271653Z 19014G19KT 10SM FEW026 SCT035 SCT200 09/04 A3009 RMK AO2 RAE02 SLP197 P0000 T00890039=
201104271553 METAR KSEA 271553Z 20009KT 10SM -RA FEW026 BKN035 BKN060 BKN200 07/04 A3011 RMK AO2 RAB1458E08B28 SLP203 P0000 T00720044=
201104271453 METAR KSEA 271453Z 19012G17KT 10SM FEW025 SCT040 BKN065 BKN200 07/04 A3011 RMK AO2 SLP202 60001 T00720039 56005=
201104271353 METAR KSEA 271353Z 21009KT 10SM FEW025 BKN040 BKN060 07/04 A3011 RMK AO2 RAB17E41 SLP202 P0001 T00670039=
201104271253 METAR KSEA 271253Z 19008KT 10SM FEW027 BKN047 OVC060 07/04 A3011 RMK AO2 RAB1156E51 SLP205 P0000 T00670044=
201104271153 METAR KSEA 271153Z 19008KT 10SM FEW036 BKN055 OVC095 07/04 A3012 RMK AO2 RAE14 SLP207 P0000 60001 70002 T00720044 10078 20067 56004=
201104271053 METAR KSEA 271053Z 19008KT 10SM -RA BKN034 OVC046 07/04 A3012 RMK AO2 RAB38 SLP207 P0000 T00720044=
201104270953 METAR KSEA 270953Z 18009KT 10SM SCT046 OVC070 07/04 A3011 RMK AO2 SLP205 T00720044=
201104270853 METAR KSEA 270853Z 17007KT 10SM FEW030 BKN048 OVC080 07/05 A3013 RMK AO2 RAB04E34 SLP211 P0001 60001 T00720050 58001=
201104270851 SPECI KSEA 270851Z 17007KT 10SM FEW030 BKN048 OVC080 07/05 A3013 RMK AO2 RAB04E34 P0001=
201104270851 SPECI KSEA 270851Z 17007KT 10SM FEW030 BKN048 OVC080 07/05 A3013 RMK AO2 RAB04E34 P0001=
201104270813 SPECI KSEA 270813Z 20009KT 10SM -RA FEW014 BKN027 OVC035 07/05 A3014 RMK AO2 RAB04 P0001=
201104270813 SPECI KSEA 270813Z 20009KT 10SM -RA FEW014 BKN027 OVC035 07/05 A3014 RMK AO2 RAB04 P0001=
201104270753 METAR KSEA 270753Z 21008KT 10SM SCT029 BKN036 OVC080 08/04 A3014 RMK AO2 SLP214 T00780044 401390056=
201104270653 METAR KSEA 270653Z 19008KT 10SM SCT039 07/04 A3014 RMK AO2 SLP212 T00720039=
201104270553 METAR KSEA 270553Z 20009KT 10SM SCT060 08/04 A3014 RMK AO2 SLP215 60001 T00780044 10128 20078 50009=
201104270453 METAR KSEA 270453Z 22009KT 10SM FEW026 SCT047 BKN055 09/04 A3015 RMK AO2 SLP216 T00890039=
201104270353 METAR KSEA 270353Z 19011KT 10SM FEW030 SCT050 BKN220 09/05 A3012=
201104270253 METAR KSEA 270253Z 20009KT 10SM FEW039 BKN070 BKN220 10/06 A3011 RMK AO2 SLP205 60001 T01000061 55005=
201104270153 METAR KSEA 270153Z 18006KT 10SM FEW046 BKN080 BKN220 11/06 A3011 RMK AO2 RAB10E22 SLP205 P0001 T01060056=
201104270053 METAR KSEA 270053Z 21014G19KT 10SM SCT045 BKN070 BKN090 11/05 A3013 RMK AO2 RAE2358B19E31 SLP209 P0000 T01060050=
201104262353 METAR KSEA 262353Z 26006KT 10SM -RA FEW028 BKN046 BKN090 12/05 A3013 RMK AO2 RAB32 SLP210 P0000 60000 T01170050 10139 20078 57002=
201104262253 METAR KSEA 262253Z 21012G17KT 10SM FEW030 BKN055 BKN080 13/06 A3013 RMK AO2 SLP210 T01330056=
201104262153 METAR KSEA 262153Z 20009KT 10SM SCT030 SCT085 13/04 A3014 RMK AO2 SLP212 T01330039=
201104262053 METAR KSEA 262053Z 26005KT 10SM SCT028 SCT039 11/04 A3014 RMK AO2 SLP212 T01110039 58005=
201104262004 SPECI KSEA 262004Z VRB05KT 10SM FEW018 SCT027 BKN038 11/04 A3014 RMK AO2=
201104262004 SPECI KSEA 262004Z VRB05KT 10SM FEW018 SCT027 BKN038 11/04 A3014 RMK AO2=
201104261953 METAR KSEA 261953Z 20008KT 10SM FEW018 BKN027 BKN040 11/03 A3014 RMK AO2 SLP214 T01060033=
201104261941 SPECI KSEA 261941Z 21007KT 10SM FEW018 BKN027 BKN040 11/04 A3014 RMK AO2=
201104261941 SPECI KSEA 261941Z 21007KT 10SM FEW018 BKN027 BKN040 11/04 A3014 RMK AO2=
201104261853 METAR KSEA 261853Z 18004KT 10SM SCT017 BKN032 09/04 A3015 RMK AO2 SLP216 T00940044=
201104261844 SPECI KSEA 261844Z 25004KT 10SM SCT016 BKN031 09/04 A3015 RMK AO2=
201104261844 SPECI KSEA 261844Z 25004KT 10SM SCT016 BKN031 09/04 A3015 RMK AO2=
201104261806 SPECI KSEA 261806Z VRB03KT 10SM BKN015 BKN031 08/04 A3015 RMK AO2=
201104261806 SPECI KSEA 261806Z VRB03KT 10SM BKN015 BKN031 08/04 A3015 RMK AO2=
201104261753 METAR KSEA 261753Z VRB04KT 10SM BKN012 BKN018 08/04 A3015 RMK AO2 SLP218 T00780044 10083 20056 53022=
201104261653 METAR KSEA 261653Z 21008KT 10SM OVC012 07/04 A3013=
201104261553 METAR KSEA 261553Z 21008KT 10SM BKN011 BKN017 07/04 A3010 RMK AO2 SLP202 T00720039=
201104261528 SPECI KSEA 261528Z 22007KT 10SM BKN011 OVC017 07/04 A3010 RMK AO2=
201104261528 SPECI KSEA 261528Z 22007KT 10SM BKN011 OVC017 07/04 A3010 RMK AO2=
201104261453 METAR KSEA 261453Z 21005KT 10SM SCT011 BKN017 BKN040 06/03 A3009 RMK AO2 SLP196 T00610033 53023=
201104261428 SPECI KSEA 261428Z 22007KT 10SM BKN013 OVC018 06/03 A3007 RMK AO2=
201104261428 SPECI KSEA 261428Z 22007KT 10SM BKN013 OVC018 06/03 A3007 RMK AO2=
201104261353 METAR KSEA 261353Z 22008KT 10SM BKN018 OVC041 06/03 A3006 RMK AO2 SLP187 T00610028=
201104261253 METAR KSEA 261253Z 23007KT 10SM BKN021 BKN050 06/03 A3003=
201104261153 METAR KSEA 261153Z 22009KT 10SM BKN025 06/03 A3002 RMK AO2 SLP172 60000 70047 T00610028 10072 20061 53016=
201104261133 SPECI KSEA 261133Z 23009KT 10SM BKN025 OVC034 06/03 A3002 RMK AO2=
201104261133 SPECI KSEA 261133Z 23009KT 10SM BKN025 OVC034 06/03 A3002 RMK AO2=
201104261053 METAR KSEA 261053Z 21008G16KT 10SM FEW015 OVC032 06/03 A3000=
201104261023 SPECI KSEA 261023Z 20010KT 10SM FEW015 BKN032 OVC095 06/03 A2998 RMK AO2=
201104261023 SPECI KSEA 261023Z 20010KT 10SM FEW015 BKN032 OVC095 06/03 A2998 RMK AO2=
201104260953 METAR KSEA 260953Z 18009KT 10SM BKN027 OVC034 07/03 A2998 RMK AO2 SLP159 T00670033=
201104260853 METAR KSEA 260853Z 20010KT 10SM SCT025 BKN100 06/04 A2997 RMK AO2 SLP157 60000 T00610039 51008=
201104260849 SPECI KSEA 260849Z 20010KT 10SM SCT025 BKN100 07/03 A2997 RMK AO2=
201104260849 SPECI KSEA 260849Z 20010KT 10SM SCT025 BKN100 07/03 A2997 RMK AO2=
201104260753 METAR KSEA 260753Z 19010KT 10SM OVC027 07/03 A2996 RMK AO2 SLP155 T00670033 401110061=
201104260737 SPECI KSEA 260737Z 20009KT 10SM BKN025 BKN090 07/04 A2996 RMK AO2=
201104260737 SPECI KSEA 260737Z 20009KT 10SM BKN025 BKN090 07/04 A2996 RMK AO2=
201104260653 METAR KSEA 260653Z 20011KT 10SM SCT095 BKN200 07/04 A2995 RMK AO2 RAE0556 SLP148 P0000 T00670039=
201104260553 METAR KSEA 260553Z 21013G19KT 10SM -RA FEW011 BKN031 OVC060 07/04 A2993 RMK AO2 RAB28 SLP142 P0000 60000 T00720044 10111 20072 51022=
201104260529 SPECI KSEA 260529Z 21011KT 8SM -RA FEW011 BKN024 BKN090 08/05 A2992 RMK AO2 RAB28 P0000=
201104260529 SPECI KSEA 260529Z 21011KT 8SM -RA FEW011 BKN024 BKN090 08/05 A2992 RMK AO2 RAB28 P0000=
201104260453 METAR KSEA 260453Z 20011KT 10SM FEW020 BKN090 BKN200 08/04 A2991 RMK AO2 SLP136 T00780044=
201104260353 METAR KSEA 260353Z 20011G16KT 10SM FEW022 SCT110 BKN200 08/04 A2989 RMK AO2 SLP128 T00780039=
201104260253 METAR KSEA 260253Z 21016KT 10SM FEW023 SCT085 BKN200 08/04 A2986 RMK AO2 PK WND 22028/0155 SLP120 T00830044 53025=
201104260153 METAR KSEA 260153Z 21016G27KT 10SM FEW022 SCT090 BKN200 09/04 A2983 RMK AO2 PK WND 22027/0147 SLP110 T00940044=
201104260053 METAR KSEA 260053Z 23017G25KT 10SM FEW025 SCT100 BKN200 11/06 A2981 RMK AO2 PK WND 21027/0040 SLP101 T01060056=
201104252353 METAR KSEA 252353Z 23013G20KT 10SM SCT020 BKN100 BKN200 10/06 A2979 RMK AO2 SLP094 60019 T01000061 10100 20067 53014=
201104252330 SPECI KSEA 252330Z 22012G21KT 10SM FEW009 SCT018 BKN100 BKN200 10/07 A2978 RMK AO2=
201104252330 SPECI KSEA 252330Z 22012G21KT 10SM FEW009 SCT018 BKN100 BKN200 10/07 A2978 RMK AO2=
201104252253 METAR KSEA 252253Z 21015G21KT 10SM FEW007 BKN015 BKN021 OVC140 09/07 A2977 RMK AO2 RAE32 SLP087 P0000 T00940067=
201104252208 SPECI KSEA 252208Z 19011KT 10SM -RA SCT006 BKN015 OVC026 08/07 A2976 RMK AO2 P0000=
201104252208 SPECI KSEA 252208Z 19011KT 10SM -RA SCT006 BKN015 OVC026 08/07 A2976 RMK AO2 P0000=
201104252153 METAR KSEA 252153Z 20010KT 10SM -RA BKN008 OVC021 08/07 A2976 RMK AO2 RAE28B50 SLP085 P0001 T00830072=
201104252142 SPECI KSEA 252142Z 19012G18KT 10SM BKN008 OVC021 08/07 A2976 RMK AO2 RAE28 P0001=
201104252142 SPECI KSEA 252142Z 19012G18KT 10SM BKN008 OVC021 08/07 A2976 RMK AO2 RAE28 P0001=
201104252128 SPECI KSEA 252128Z 19012KT 10SM FEW007 BKN013 OVC021 08/07 A2976 RMK AO2 RAE28 P0001=
201104252128 SPECI KSEA 252128Z 19012KT 10SM FEW007 BKN013 OVC021 08/07 A2976 RMK AO2 RAE28 P0001=
201104252053 METAR KSEA 252053Z 18013KT 8SM -RA SCT008 BKN016 OVC025 07/06 A2975 RMK AO2 SLP081 P0003 60018 T00720056 51025=
201104251953 METAR KSEA 251953Z 21012KT 7SM -RA SCT008 BKN015 OVC031 07/05 A2973 RMK AO2 SLP076 P0006 T00670050=
201104251853 METAR KSEA 251853Z 21012KT 7SM -RA SCT007 BKN016 OVC032 07/06 A2971=
201104251825 SPECI KSEA 251825Z 21011KT 6SM -RA BR SCT007 OVC025 07/05 A2969 RMK AO2 P0006=
201104251825 SPECI KSEA 251825Z 21011KT 6SM -RA BR SCT007 OVC025 07/05 A2969 RMK AO2 P0006=
201104251753 METAR KSEA 251753Z 24009G14KT 5SM -RA BR BKN006 OVC024 07/06 A2967 RMK AO2 SLP056 P0009 60028 T00720056 10078 20072 53017=
201104251653 METAR KSEA 251653Z 29006KT 5SM -RA BR BKN005 OVC027 07/06 A2964 RMK AO2 SLP042 P0006 T00720061=
201104251647 SPECI KSEA 251647Z 29007KT 5SM -RA BR BKN005 OVC025 07/06 A2963 RMK AO2 P0006=
201104251647 SPECI KSEA 251647Z 29007KT 5SM -RA BR BKN005 OVC025 07/06 A2963 RMK AO2 P0006=
201104251620 SPECI KSEA 251620Z 29005KT 5SM -RA BR SCT005 OVC022 07/06 A2963 RMK AO2 P0003=
201104251620 SPECI KSEA 251620Z 29005KT 5SM -RA BR SCT005 OVC022 07/06 A2963 RMK AO2 P0003=
201104251553 METAR KSEA 251553Z 32004KT 5SM -RA BR BKN005 OVC032 07/06 A2962 RMK AO2 SLP038 P0007 T00720061=
201104251544 SPECI KSEA 251544Z 30004KT 5SM -RA BR BKN005 OVC033 07/06 A2962 RMK AO2 P0006=
201104251544 SPECI KSEA 251544Z 30004KT 5SM -RA BR BKN005 OVC033 07/06 A2962 RMK AO2 P0006=
201104251534 SPECI KSEA 251534Z 31004KT 5SM -RA BR SCT005 OVC033 07/07 A2962 RMK AO2 P0005=
201104251534 SPECI KSEA 251534Z 31004KT 5SM -RA BR SCT005 OVC033 07/07 A2962 RMK AO2 P0005=
201104251453 METAR KSEA 251453Z 30003KT 5SM -RA BR BKN033 OVC041 07/06 A2962 RMK AO2 SLP038 P0004 60006 T00720061 55018=
201104251353 METAR KSEA 251353Z 00000KT 7SM -RA BKN035 OVC050 07/06 A2962 RMK AO2 SLP037 P0002 T00720061=
201104251253 METAR KSEA 251253Z 11005KT 10SM -RA BKN035 OVC040 07/06 A2964 RMK AO2 SLP044 P0000 T00720056=
201104251153 METAR KSEA 251153Z 10006KT 10SM -RA OVC035 08/06 A2968 RMK AO2 RAB38 SLP056 P0000 60008 70023 T00780061 10083 20072 58038=
201104251053 METAR KSEA 251053Z 07006KT 10SM FEW015 BKN030 OVC045 08/07 A2972 RMK AO2 RAE0957 SLP070 P0000 T00780067=
201104250953 METAR KSEA 250953Z 10003KT 10SM -RA FEW015 SCT030 OVC035 08/06 A2976 RMK AO2 SLP083 P0003 T00780061=
201104250931 SPECI KSEA 250931Z 00000KT 8SM R16L/3500VP6000FT -RA FEW015 BKN025 OVC035 08/07 A2977 RMK AO2 P0001=
201104250931 SPECI KSEA 250931Z 00000KT 8SM R16L/3500VP6000FT -RA FEW015 BKN025 OVC035 08/07 A2977 RMK AO2 P0001=
201104250853 METAR KSEA 250853Z 00000KT 6SM -RA BR SCT015 BKN030 OVC035 08/06 A2979 RMK AO2 RAE06B40 SLP094 P0002 60005 T00780061 58022=
201104250820 SPECI KSEA 250820Z 00000KT 10SM FEW015 BKN030 OVC050 08/07 A2981 RMK AO2 RAE06 P0000=
201104250820 SPECI KSEA 250820Z 00000KT 10SM FEW015 BKN030 OVC050 08/07 A2981 RMK AO2 RAE06 P0000=
201104250753 METAR KSEA 250753Z 24003KT 7SM -RA SCT020 BKN025 OVC030 08/07 A2982 RMK AO2 RAB0657 SLP105 P0003 T00780067 401280072=
201104250712 SPECI KSEA 250712Z 21003KT 10SM -RA BKN025 BKN035 OVC050 08/07 A2983 RMK AO2 RAB0657 P0000=
201104250712 SPECI KSEA 250712Z 21003KT 10SM -RA BKN025 BKN035 OVC050 08/07 A2983 RMK AO2 RAB0657 P0000=
201104250653 METAR KSEA 250653Z 14006KT 10SM FEW025 SCT035 OVC050 08/07 A2983 RMK AO2 SLP109 T00830067=
201104250553 METAR KSEA 250553Z 16006KT 10SM SCT045 BKN130 08/06 A2985 RMK AO2 SLP116 60007 T00780061 10111 20078 50002=
201104250453 METAR KSEA 250453Z 18007KT 10SM SCT025 BKN100 09/07 A2987=
201104250353 METAR KSEA 250353Z 20007KT 10SM FEW020 BKN040 BKN100 09/07 A2986=
201104250330 SPECI KSEA 250330Z 20010KT 10SM -RA SCT020 BKN035 BKN100 09/07 A2985 RMK AO2 P0003=
201104250330 SPECI KSEA 250330Z 20010KT 10SM -RA SCT020 BKN035 BKN100 09/07 A2985 RMK AO2 P0003=
201104250253 METAR KSEA 250253Z 21009KT 10SM -RA BKN025 BKN030 BKN045 10/07 A2985 RMK AO2 RAB52 SLP114 P0000 60004 T01000072 58004=
201104250153 METAR KSEA 250153Z 22009KT 10SM SCT036 BKN043 OVC090 10/07 A2985 RMK AO2 RAE41 SLP116 P0002 T01000072=
201104250053 METAR KSEA 250053Z 22010KT 7SM -RA FEW025 BKN035 OVC100 10/08 A2986 RMK AO2 RAE16B47 SLP120 P0002 T01000078=
201104242353 METAR KSEA 242353Z 22013KT 10SM -RA FEW035 BKN048 OVC090 11/07 A2986 RMK AO2 RAB28 SLP118 P0000 60002 T01060067 10128 20083 56004=
201104242253 METAR KSEA 242253Z 20007KT 10SM SCT035 BKN045 OVC100 12/06 A2986 RMK AO2 RAB2155E13 SLP118 P0000 T01220061=
201104242153 METAR KSEA 242153Z 19008KT 10SM SCT036 BKN046 OVC095 11/07 A2987 RMK AO2 SLP122 T01060067=
201104242053 METAR KSEA 242053Z 18008KT 10SM BKN033 BKN039 OVC047 11/06 A2987 RMK AO2 SLP122 60002 T01060061 50001=
201104241953 METAR KSEA 241953Z 20008KT 10SM FEW012 BKN027 OVC037 10/07 A2987 RMK AO2 RAE43 SLP123 P0000 T01000072=
201104241853 METAR KSEA 241853Z 22007KT 10SM -RA SCT008 BKN024 OVC032 09/07 A2987 RMK AO2 SLP123 P0002 T00890072=
201104241753 METAR KSEA 241753Z 20006KT 7SM -RA SCT008 OVC016 09/07 A2987 RMK AO2 SLP122 P0003 60006 T00890072 10089 20072 53010=
201104241720 SPECI KSEA 241720Z 20007KT 6SM -RA BR SCT008 BKN015 OVC021 08/07 A2986 RMK AO2 P0002=
201104241720 SPECI KSEA 241720Z 20007KT 6SM -RA BR SCT008 BKN015 OVC021 08/07 A2986 RMK AO2 P0002=
201104241653 METAR KSEA 241653Z 19006KT 8SM -RA BKN017 OVC026 08/07 A2986 RMK AO2 SLP117 P0003 T00830067=
201104241553 METAR KSEA 241553Z 18004KT 10SM -RA FEW014 BKN022 BKN060 08/06 A2985 RMK AO2 RAB00E14B42 SLP114 P0000 T00830056=
201104241531 SPECI KSEA 241531Z 16006KT 10SM BKN022 BKN027 BKN060 08/06 A2985 RMK AO2 RAB00E14 P0000=
201104241531 SPECI KSEA 241531Z 16006KT 10SM BKN022 BKN027 BKN060 08/06 A2985 RMK AO2 RAB00E14 P0000=
201104241453 METAR KSEA 241453Z 14010KT 10SM SCT028 BKN055 BKN085 08/05 A2984 RMK AO2 RAB40E50 SLP110 P0000 60000 T00780050 53003=
201104241415 SPECI KSEA 241415Z 16008KT 10SM SCT020 SCT044 SCT065 08/05 A2983 RMK AO2=
201104241415 SPECI KSEA 241415Z 16008KT 10SM SCT020 SCT044 SCT065 08/05 A2983 RMK AO2=
201104241353 METAR KSEA 241353Z 14007KT 10SM OVC020 08/04 A2983 RMK AO2 SLP107 T00780044=
201104241253 METAR KSEA 241253Z 16007KT 10SM BKN020 BKN035 OVC100 08/04 A2982 RMK AO2 SLP105 T00780044=
201104241153 METAR KSEA 241153Z 15008KT 10SM BKN020 BKN035 OVC110 07/04 A2983 RMK AO2 SLP107 T00720044 10100 20072 50001=
201104241122 SPECI KSEA 241122Z 15006KT 10SM BKN018 BKN035 OVC110 08/04 A2983 RMK AO2=
201104241122 SPECI KSEA 241122Z 15006KT 10SM BKN018 BKN035 OVC110 08/04 A2983 RMK AO2=
201104241053 METAR KSEA 241053Z 16008KT 10SM FEW050 BKN110 OVC200 08/04 A2983 RMK AO2 SLP108 T00780044=
201104240953 METAR KSEA 240953Z 18008KT 10SM FEW120 SCT200 08/04 A2983 RMK AO2 SLP106 T00780039=
201104240853 METAR KSEA 240853Z 21010KT 10SM SCT250 08/05 A2983 RMK AO2 SLP106 T00780050 53010=
201104240753 METAR KSEA 240753Z 20008KT 10SM SCT250 08/04 A2982=
201104240653 METAR KSEA 240653Z 26003KT 10SM SCT250 09/02 A2980 RMK AO2 SLP096 T00940022=
201104240553 METAR KSEA 240553Z 27004KT 10SM SCT250 10/03 A2979 RMK AO2 SLP095 T01000028 10189 20094 53001=
201104240453 METAR KSEA 240453Z 31005KT 10SM SCT250 12/00 A2979 RMK AO2 SLP094 T01170000=
201104240353 METAR KSEA 240353Z COR 29003KT 10SM SCT250 15/M02 A2979 RMK AO2 SLP095 T01501017=
201104240253 METAR KSEA 240253Z 00000KT 10SM FEW050 BKN250 17/M02 A2979=
201104240153 METAR KSEA 240153Z 00000KT 10SM FEW050 BKN250 18/M02 A2981 RMK AO2 SLP099 T01831022=
201104240053 METAR KSEA 240053Z 28005KT 10SM FEW050 SCT250 19/M02 A2982 RMK AO2 SLP104 T01891022=
201104232353 METAR KSEA 232353Z 29005KT 10SM FEW050 SCT250 19/M03 A2983 RMK AO2 SLP109 T01891028 10189 20122 58017=
201104232253 METAR KSEA 232253Z VRB03KT 10SM FEW050 SCT250 19/M03 A2985 RMK AO2 SLP114 T01891033=
201104232153 METAR KSEA 232153Z 32004KT 10SM FEW050 SCT250 18/M03 A2987 RMK AO2 SLP121 T01831033=
201104232053 METAR KSEA 232053Z 31006KT 10SM CLR 17/M03 A2989 RMK AO2 SLP126 T01671033 58016=
201104231953 METAR KSEA 231953Z 31007KT 10SM CLR 16/02 A2990 RMK AO2 SLP132 T01560017=
201104231853 METAR KSEA 231853Z 31006KT 10SM CLR 14/03 A2992 RMK AO2 SLP138 T01390028=
201104231753 METAR KSEA 231753Z 31005KT 10SM CLR 12/03 A2993 RMK AO2 SLP143 T01220033 10122 20033 56010=
201104231653 METAR KSEA 231653Z 00000KT 10SM CLR 11/02 A2994 RMK AO2 SLP145 T01110017=
201104231553 METAR KSEA 231553Z 36003KT 10SM CLR 08/03 A2995 RMK AO2 SLP148 T00830033=
201104231453 METAR KSEA 231453Z 02007KT 10SM CLR 07/03 A2996 RMK AO2 SLP153 T00670028 56008=
201104231353 METAR KSEA 231353Z 03007KT 10SM CLR 05/03 A2997 RMK AO2 SLP156 T00500033=
201104231253 METAR KSEA 231253Z 01007KT 10SM CLR 04/03 A2997 RMK AO2 SLP157 T00440028=
201104231153 METAR KSEA 231153Z 35006KT 10SM CLR 04/02 A2999 RMK AO2 SLP162 T00390017 10083 20033 56007=
201104231053 METAR KSEA 231053Z 01008KT 10SM CLR 06/03 A2999 RMK AO2 SLP161 T00560028=
201104230953 METAR KSEA 230953Z 02009KT 10SM CLR 07/03 A2999=
201104230853 METAR KSEA 230853Z 02011KT 10SM CLR 07/02 A3001 RMK AO2 SLP168 T00720022 56009=
201104230753 METAR KSEA 230753Z 02009KT 10SM CLR 07/02 A3002 RMK AO2 SLP173 T00720022 401390033=
201104230653 METAR KSEA 230653Z 01008KT 10SM CLR 08/02 A3002=
201104230553 METAR KSEA 230553Z 01010KT 10SM CLR 08/02 A3004 RMK AO2 SLP178 T00830022 10139 20072 58004=
201104230453 METAR KSEA 230453Z 36008KT 10SM CLR 08/02 A3005 RMK AO2 SLP182 T00830022=
201104230353 METAR KSEA 230353Z 35008KT 10SM CLR 09/02 A3005 RMK AO2 SLP184 T00890017=
201104230253 METAR KSEA 230253Z 35009KT 10SM CLR 11/01 A3005 RMK AO2 SLP182 T01060006 56016=
201104230153 METAR KSEA 230153Z 34013KT 10SM CLR 12/01 A3006 RMK AO2 SLP187 T01220006=
201104230053 METAR KSEA 230053Z 35011KT 10SM CLR 13/01 A3007 RMK AO2 SLP191 T01330006=
201104222353 METAR KSEA 222353Z 34010KT 10SM FEW045 13/01 A3009 RMK AO2 SLP198 T01330011 10139 20083 58032=
201104222253 METAR KSEA 222253Z 35010G15KT 10SM FEW045 13/02 A3013 RMK AO2 SLP209 T01330017=
201104222153 METAR KSEA 222153Z 33006KT 10SM FEW042 12/01 A3016 RMK AO2 SLP222 T01220011=
201104222053 METAR KSEA 222053Z 32007KT 10SM FEW038 12/01 A3019 RMK AO2 SLP231 T01170011 58021=
201104221953 METAR KSEA 221953Z 34009KT 10SM BKN036 10/01 A3021 RMK AO2 SLP240 T01000011=
201104221853 METAR KSEA 221853Z 05005KT 10SM BKN034 BKN042 11/02 A3024=
201104221753 METAR KSEA 221753Z 01010KT 10SM FEW027 BKN038 08/00 A3025 RMK AO2 SLP253 T00830000 10094 20033 57005=
201104221653 METAR KSEA 221653Z 00000KT 10SM FEW038 SCT055 08/02 A3025 RMK AO2 SLP253 T00780022=
201104221553 METAR KSEA 221553Z 00000KT 10SM FEW020 BKN038 06/03 A3027 RMK AO2 SLP257 T00610028=
201104221453 METAR KSEA 221453Z 00000KT 10SM BKN037 BKN060 06/02 A3027 RMK AO2 SLP258 T00560022 53000=
201104221353 METAR KSEA 221353Z 00000KT 10SM SCT060 04/02 A3026 RMK AO2 SLP256 T00440017=
201104221253 METAR KSEA 221253Z 00000KT 10SM SCT040 04/01 A3026 RMK AO2 SLP256 T00390011=
201104221153 METAR KSEA 221153Z 14005KT 10SM FEW030 SCT040 04/02 A3027 RMK AO2 SLP257 60000 T00440017 10072 20039 53000=
201104221053 METAR KSEA 221053Z 13005KT 10SM FEW040 BKN080 05/02 A3026 RMK AO2 RAE0958 SLP257 P0000 T00500017=
201104220953 METAR KSEA 220953Z 12006KT 10SM -RA BKN044 OVC065 06/02 A3026 RMK AO2 RAB45 SLP254 P0000 T00560022=
201104220853 METAR KSEA 220853Z 11006KT 10SM FEW040 OVC060 06/02 A3026 RMK AO2 SLP256 T00560017 51009=
201104220753 METAR KSEA 220753Z 16006KT 10SM FEW035 OVC075 06/02 A3026 RMK AO2 SLP257 T00560017 401170033=
201104220653 METAR KSEA 220653Z 11011KT 10SM BKN030 07/02 A3025 RMK AO2 SLP252 T00720017=
201104220553 METAR KSEA 220553Z 09010KT 10SM BKN035 BKN065 BKN075 07/01 A3024 RMK AO2 SLP248 60000 T00720011 10117 20072 51018=
201104220453 METAR KSEA 220453Z 09009KT 10SM BKN035 BKN060 08/01 A3023 RMK AO2 SLP245 T00780011=
201104220353 METAR KSEA 220353Z 05011KT 10SM SCT038 BKN050 08/02 A3021 RMK AO2 SLP238 T00830017=
201104220253 METAR KSEA 220253Z 06010KT 10SM BKN050 BKN080 09/02 A3018 RMK AO2 RAE0157 SLP230 P0000 60000 T00890022 53011=
201104220153 METAR KSEA 220153Z 05012KT 10SM -RA FEW032 BKN055 BKN090 09/02 A3017 RMK AO2 WSHFT 0121 RAB32 SLP225 P0000 T00940022=
201104220141 SPECI KSEA 220141Z 07011KT 10SM -RA FEW032 BKN055 10/01 A3017 RMK AO2 WSHFT 0121 RAB32 P0000=
201104220141 SPECI KSEA 220141Z 07011KT 10SM -RA FEW032 BKN055 10/01 A3017 RMK AO2 WSHFT 0121 RAB32 P0000=
201104220053 METAR KSEA 220053Z 20004KT 10SM BKN055 BKN070 11/M01 A3016 RMK AO2 RAB09E19 SLP221 P0000 T01061006=
201104212353 METAR KSEA 212353Z 26008KT 10SM BKN050 BKN070 10/01 A3015 RMK AO2 RAE29 SLP218 SHRA S-W P0000 60000 T01000006 10117 20067 53011=
201104212253 METAR KSEA 212253Z VRB03G16KT 10SM -RA FEW045 BKN070 11/00 A3014 RMK AO2 RAB52 SLP214 P0000 T01060000=
201104212153 METAR KSEA 212153Z 21009KT 180V260 10SM FEW035 BKN055 BKN200 12/01 A3013 RMK AO2 RAB44E50 SLP210 SHRA W-NW P0000 T01170006=
201104212053 METAR KSEA 212053Z 24008G15KT 10SM SCT032 SCT070 11/01 A3012 RMK AO2 SLP207 T01060006 51007=
201104211953 METAR KSEA 211953Z 25006KT 10SM SCT030 10/00 A3011 RMK AO2 SLP205 T01000000=
201104211853 METAR KSEA 211853Z 22007KT 10SM SCT025 08/00 A3011 RMK AO2 SLP204 T00830000=
201104211753 METAR KSEA 211753Z 21007KT 10SM FEW022 07/01 A3010 RMK AO2 SLP200 60000 T00720006 10072 20033 51018=
201104211653 METAR KSEA 211653Z 20006KT 10SM SCT016 06/01 A3008 RMK AO2 SLP193 T00560006=
201104211650 SPECI KSEA 211650Z 19008KT 10SM SCT016 06/01 A3008 RMK AO2=
201104211650 SPECI KSEA 211650Z 19008KT 10SM SCT016 06/01 A3008 RMK AO2=
201104211553 METAR KSEA 211553Z 21006KT 10SM BKN015 04/01 A3007 RMK AO2 SLP189 T00390006=
201104211518 SPECI KSEA 211518Z 22010KT 10SM BKN015 04/01 A3005 RMK AO2=
201104211518 SPECI KSEA 211518Z 22010KT 10SM BKN015 04/01 A3005 RMK AO2=
201104211453 METAR KSEA 211453Z 19010KT 10SM SCT015 SCT200 04/01 A3004 RMK AO2 SLP181 60000 T00390006 53018=
201104211438 SPECI KSEA 211438Z 18006KT 10SM SCT015 04/01 A3003 RMK AO2=
201104211438 SPECI KSEA 211438Z 18006KT 10SM SCT015 04/01 A3003 RMK AO2=
201104211353 METAR KSEA 211353Z 19010KT 10SM BKN016 BKN032 03/01 A3002 RMK AO2 SLP173 T00330011=
201104211306 SPECI KSEA 211306Z 14004KT 10SM BKN020 OVC030 04/01 A3000 RMK AO2=
201104211306 SPECI KSEA 211306Z 14004KT 10SM BKN020 OVC030 04/01 A3000 RMK AO2=
201104211253 METAR KSEA 211253Z 14006KT 10SM FEW020 OVC030 04/01 A3000=
201104211214 SPECI KSEA 211214Z 14005KT 10SM -RA SCT023 BKN060 04/01 A2999 RMK AO2 RAB1159 P0000=
201104211214 SPECI KSEA 211214Z 14005KT 10SM -RA SCT023 BKN060 04/01 A2999 RMK AO2 RAB1159 P0000=
201104211153 METAR KSEA 211153Z 16003KT 10SM BKN023 OVC045 04/01 A2999 RMK AO2 SLP163 60000 T00390011 10056 20033 53007=
201104211053 METAR KSEA 211053Z 00000KT 10SM BKN025 OVC047 04/01 A2997 RMK AO2 RAB24E39 SLP158 P0000 T00390006=
201104211031 SPECI KSEA 211031Z 00000KT 10SM -RA BKN025 OVC037 04/01 A2997 RMK AO2 RAB24 P0000=
201104211031 SPECI KSEA 211031Z 00000KT 10SM -RA BKN025 OVC037 04/01 A2997 RMK AO2 RAB24 P0000=
201104210953 METAR KSEA 210953Z 05003KT 10SM FEW042 SCT050 04/00 A2996 RMK AO2 SLP154 T00390000=
201104210853 METAR KSEA 210853Z 07005KT 10SM SCT042 BKN065 04/01 A2997 RMK AO2 SLP156 T00390006 51008=
201104210753 METAR KSEA 210753Z 03008KT 10SM FEW012 BKN044 OVC060 04/01 A2996 RMK AO2 SLP154 T00440006 401220022=
201104210653 METAR KSEA 210653Z 02013KT 10SM SCT030 BKN040 OVC050 05/01 A2995 RMK AO2 SLP151 T00500006=
201104210642 SPECI KSEA 210642Z 03011KT 10SM SCT030 BKN040 OVC050 05/01 A2995 RMK AO2=
201104210642 SPECI KSEA 210642Z 03011KT 10SM SCT030 BKN040 OVC050 05/01 A2995 RMK AO2=
201104210553 METAR KSEA 210553Z 01011KT 10SM FEW021 BKN029 OVC047 06/01 A2994=
201104210535 SPECI KSEA 210535Z 36010G18KT 10SM SCT023 BKN029 OVC047 06/02 A2994 RMK AO2=
201104210535 SPECI KSEA 210535Z 36010G18KT 10SM SCT023 BKN029 OVC047 06/02 A2994 RMK AO2=
201104210453 METAR KSEA 210453Z 36011KT 10SM OVC045 07/00 A2993 RMK AO2 RAE10 SLP144 P0000 T00720000=
201104210353 METAR KSEA 210353Z 35010KT 10SM -RA FEW027 SCT036 OVC046 07/M01 A2991=
201104210253 METAR KSEA 210253Z 35010KT 10SM SCT050 BKN060 OVC075 08/M01 A2989 RMK AO2 SLP130 SHRA S-W T00831006 53002=
201104210153 METAR KSEA 210153Z 35009KT 10SM SCT060 BKN100 BKN200 09/M01 A2989 RMK AO2 SLP128 T00941011=
201104210053 METAR KSEA 210053Z 34012KT 10SM FEW030 BKN090 OVC200 11/M02 A2989 RMK AO2 SLP130 T01061017=
201104202353 METAR KSEA 202353Z 28007KT 10SM FEW030 SCT095 BKN200 11/M02 A2989 RMK AO2 SLP128 T01111017 10122 20078 56005=
201104202253 METAR KSEA 202253Z 29008KT 10SM FEW030 BKN100 BKN200 12/M01 A2989 RMK AO2 SLP127 T01171006=
201104202153 METAR KSEA 202153Z 31010KT 10SM FEW030 SCT100 OVC200 11/01 A2989 RMK AO2 PK WND 33036/2142 SLP131 T01110006=
201104202053 METAR KSEA 202053Z 30008KT 10SM FEW029 SCT100 OVC200 11/02 A2990 RMK AO2 SLP134 T01060017 58010=
201104201953 METAR KSEA 201953Z 35008KT 320V030 10SM FEW028 SCT100 OVC200 11/02 A2991=
201104201853 METAR KSEA 201853Z 04009KT 10SM FEW020 SCT100 OVC180 09/01 A2993=
201104201753 METAR KSEA 201753Z 02013KT 10SM FEW020 SCT120 OVC180 08/M01 A2993 RMK AO2 SLP144 T00781006 10078 20022 58007=
201104201653 METAR KSEA 201653Z 36007KT 10SM FEW020 BKN200 07/02 A2994 RMK AO2 SLP146 T00670017=
201104201553 METAR KSEA 201553Z 36008KT 10SM FEW025 BKN200 06/01 A2995=
201104201453 METAR KSEA 201453Z 35005KT 10SM FEW025 OVC200 04/01 A2995 RMK AO2 SLP151 T00440011 56016=
201104201353 METAR KSEA 201353Z 03003KT 10SM FEW050 SCT120 OVC200 03/00 A2996 RMK AO2 SLP153 T00280000=
201104201253 METAR KSEA 201253Z 06006KT 10SM BKN200 03/00 A2998 RMK AO2 SLP159 T00330000=
201104201153 METAR KSEA 201153Z 02007KT 10SM BKN200 04/01 A3000 RMK AO2 SLP168 70001 T00390006 10072 20039 58020=
201104201053 METAR KSEA 201053Z 02006KT 10SM BKN200 04/01 A3002=
201104200953 METAR KSEA 200953Z 02005KT 10SM FEW080 BKN200 04/01 A3005 RMK AO2 SLP184 T00440011=
201104200853 METAR KSEA 200853Z 01005KT 10SM FEW080 04/01 A3006 RMK AO2 SLP188 T00390006 56012=
201104200753 METAR KSEA 200753Z 04011KT 10SM FEW080 06/01 A3007 RMK AO2 SLP192 T00560011 401170022=
201104200653 METAR KSEA 200653Z AUTO 04010KT 10SM FEW080 06/01 A3008 RMK AO2 SLP196 T00610011 TSNO=
201104200553 METAR KSEA 200553Z 03010KT 10SM FEW080 07/01 A3010 RMK AO2 SLP200 T00720006 10117 20056 58003=
201104200453 METAR KSEA 200453Z 36007KT 10SM FEW080 06/01 A3011 RMK AO2 SLP203 T00610006=
201104200353 METAR KSEA 200353Z 36006KT 10SM FEW090 07/01 A3011=
201104200253 METAR KSEA 200253Z 26003KT 10SM FEW035 SCT090 09/M02 A3011 RMK AO2 SLP204 T00941017 56012=
201104200153 METAR KSEA 200153Z 25005KT 10SM FEW035 SCT080 11/M02 A3011 RMK AO2 SLP206 T01061022=
201104200053 METAR KSEA 200053Z 00000KT 10SM FEW035 SCT070 11/M02 A3013 RMK AO2 SLP210 T01061022=
201104192353 METAR KSEA 192353Z VRB03KT 10SM FEW035 SCT070 11/M02 A3014 RMK AO2 SLP216 T01111022 10117 20061 58014=
201104192253 METAR KSEA 192253Z 28006KT 10SM SCT035 11/M01 A3016 RMK AO2 SLP221 T01111011=
201104192153 METAR KSEA 192153Z VRB06KT 10SM SCT030 11/00 A3017 RMK AO2 SLP226 SHRA DSNT W-NW T01060000=
201104192053 METAR KSEA 192053Z VRB06KT 10SM SCT027 10/01 A3019 RMK AO2 SLP230 T01000006 58010=
201104191953 METAR KSEA 191953Z 21009KT 10SM SCT024 09/02 A3020 RMK AO2 SLP234 T00890017=
201104191853 METAR KSEA 191853Z 19003KT 10SM FEW018 SCT030 08/03 A3021 RMK AO2 SLP239 T00780028=
201104191830 SPECI KSEA 191830Z VRB04KT 10SM SCT021 BKN030 07/03 A3022 RMK AO2=
201104191830 SPECI KSEA 191830Z VRB04KT 10SM SCT021 BKN030 07/03 A3022 RMK AO2=
201104191753 METAR KSEA 191753Z VRB03KT 10SM SCT015 BKN024 07/04 A3022 RMK AO2 SLP241 60001 T00670039 10067 20022 51009=
201104191722 SPECI KSEA 191722Z 23004KT 10SM BKN015 BKN026 05/02 A3022 RMK AO2=
201104191722 SPECI KSEA 191722Z 23004KT 10SM BKN015 BKN026 05/02 A3022 RMK AO2=
201104191653 METAR KSEA 191653Z 00000KT 10SM BKN014 BKN022 05/03 A3021=
201104191553 METAR KSEA 191553Z 19004KT 10SM BKN013 OVC018 04/01 A3020 RMK AO2 SLP235 T00440011=
201104191453 METAR KSEA 191453Z 17005KT 10SM BKN013 OVC020 04/01 A3019 RMK AO2 SLP231 T00390011 53010=
201104191353 METAR KSEA 191353Z 15004KT 10SM BKN013 BKN065 03/01 A3017 RMK AO2 SLP224 T00330006=
201104191253 METAR KSEA 191253Z 15005KT 10SM BKN060 BKN200 03/00 A3016 RMK AO2 SLP221 T00280000=
201104191153 METAR KSEA 191153Z 17005KT 10SM SCT070 03/00 A3016 RMK AO2 SLP221 70001 T00280000 10050 20028 51003=
201104191053 METAR KSEA 191053Z 17006KT 10SM CLR 03/01 A3016 RMK AO2 SLP221 T00330006=
201104190953 METAR KSEA 190953Z 18006KT 10SM BKN055 03/01 A3015=
201104190853 METAR KSEA 190853Z 16004KT 10SM OVC055 03/01 A3015 RMK AO2 SLP218 T00280006 51009=
201104190753 METAR KSEA 190753Z 17006KT 10SM BKN050 03/01 A3014=
201104190653 METAR KSEA 190653Z 15007KT 10SM FEW070 SCT200 04/02 A3013 RMK AO2 SLP211 T00440017=
201104190553 METAR KSEA 190553Z 14006KT 10SM FEW070 SCT200 05/02 A3012 RMK AO2 SLP208 60001 T00500017 10100 20050 51011=
201104190453 METAR KSEA 190453Z 14007KT 10SM FEW080 SCT200 06/02 A3012 RMK AO2 SLP206 T00560022=
201104190353 METAR KSEA 190353Z 14011KT 10SM FEW080 SCT200 07/02 A3010 RMK AO2 SLP200 T00670017=
201104190253 METAR KSEA 190253Z 20005KT 10SM SCT060 SCT120 SCT200 07/02 A3009 RMK AO2 SLP197 SHRA W 60001 T00720022 51008=
201104190153 METAR KSEA 190153Z COR 22009KT 10SM SCT050 SCT100 BKN200 08/02 A3009=
201104190105 SPECI KSEA 190105Z 22012KT 10SM -PLRA SCT055 BKN070 BKN200 07/02 A3009 RMK AO2 WSHFT 0045 RAB0055PLB0054 CB DSNT SE P0001=
201104190105 SPECI KSEA 190105Z 22012KT 10SM -PLRA SCT055 BKN070 BKN200 07/02 A3009 RMK AO2 WSHFT 0045 RAB0055PLB0054 CB DSNT SE P0001=
201104190053 METAR KSEA 190053Z 26014G24KT 10SM SCT050 BKN070 BKN200 07/02 A3008 RMK AO2 SLP195 CB DSNT SE SHRA S-W T00720017=
201104182353 METAR KSEA 182353Z 31004KT 10SM FEW025TCU SCT046 BKN200 10/M01 A3007 RMK AO2 SLP189 CB DSNT E TCU W-N 60000 T01001011 10106 20061 50000=
201104182253 METAR KSEA 182253Z 00000KT 10SM FEW025TCU SCT050 SCT200 09/M01 A3007 RMK AO2 SLP190 CB DSNT SE TCU W-N T00941011=
201104182153 METAR KSEA 182153Z 24005KT 10SM FEW025 SCT037 SCT200 09/01 A3007 RMK AO2 SLP190 CB DSNT SE-S SHRA DSNT NW T00940011=
201104182053 METAR KSEA 182053Z 30003KT 10SM FEW023 BKN035 BKN200 10/01 A3006 RMK AO2 SLP189 SHRA SW 60000 T01000006 52002=
201104181953 METAR KSEA 181953Z VRB04KT 10SM FEW020 BKN032CB BKN200 08/00 A3006 RMK AO2 SLP188 CB W MOV SE SHRA E-S T00830000=
201104181853 METAR KSEA 181853Z 34005KT 10SM FEW020 BKN031 BKN200 07/01 A3006 RMK AO2 RAB15E48 SLP188 SHRA E-S P0000 T00670006=
201104181832 SPECI KSEA 181832Z 28007KT 8SM -RA SCT020 BKN026 BKN032 07/02 A3007 RMK AO2 RAB15 P0000=
201104181832 SPECI KSEA 181832Z 28007KT 8SM -RA SCT020 BKN026 BKN032 07/02 A3007 RMK AO2 RAB15 P0000=
201104181753 METAR KSEA 181753Z 22006KT 10SM FEW015 BKN041 BKN200 06/01 A3006 RMK AO2 SLP187 60000 T00610011 10067 20022 51012=
201104181653 METAR KSEA 181653Z 21005KT 10SM FEW010 BKN043 BKN200 05/02 A3005 RMK AO2 SLP185 T00500017=
201104181553 METAR KSEA 181553Z 21006KT 10SM SCT008 SCT060 SCT200 05/02 A3004 RMK AO2 SLP180 T00500022=
201104181524 SPECI KSEA 181524Z 20004KT 10SM SCT008 SCT060 BKN200 05/02 A3003 RMK AO2=
201104181524 SPECI KSEA 181524Z 20004KT 10SM SCT008 SCT060 BKN200 05/02 A3003 RMK AO2=
201104181453 METAR KSEA 181453Z 00000KT 10SM FEW035 SCT065 SCT200 04/02 A3002=
201104181353 METAR KSEA 181353Z 16005KT 10SM FEW035 SCT050 SCT075 03/01 A3000 RMK AO2 SLP168 RAB00E38 P0000 T00280011=
201104181253 METAR KSEA 181253Z 00000KT 10SM FEW025 SCT035 BKN065 03/01 A3000 RMK AO2 SLP166 T00330011=
201104181153 METAR KSEA 181153Z 13005KT 10SM SCT025 BKN035 BKN060 03/01 A3000 RMK AO2 SLP166 60000 70001 T00330011 10067 20033 50001=
201104181117 SPECI KSEA 181117Z 09005KT 10SM BKN025 BKN035 BKN060 03/01 A3000 RMK AO2=
201104181117 SPECI KSEA 181117Z 09005KT 10SM BKN025 BKN035 BKN060 03/01 A3000 RMK AO2=
201104181109 SPECI KSEA 181109Z 07007KT 10SM SCT020 BKN030 BKN050 03/01 A3000 RMK AO2=
201104181109 SPECI KSEA 181109Z 07007KT 10SM SCT020 BKN030 BKN050 03/01 A3000 RMK AO2=
201104181053 METAR KSEA 181053Z 00000KT 10SM BKN020 BKN030 OVC055 04/01 A3000 RMK AO2 RAE18 SLP167 P0000 T00390011=
201104180953 METAR KSEA 180953Z 21005KT 10SM -RA BKN020 BKN030 OVC055 04/02 A3000=
201104180853 METAR KSEA 180853Z 00000KT 10SM BKN025 BKN055 OVC090 06/01 A2999 RMK AO2 SLP165 T00560006 50002=
201104180832 SPECI KSEA 180832Z 07004KT 10SM BKN025 BKN060 OVC100 06/01 A3000 RMK AO2=
201104180832 SPECI KSEA 180832Z 07004KT 10SM BKN025 BKN060 OVC100 06/01 A3000 RMK AO2=
201104180753 METAR KSEA 180753Z 06005KT 10SM FEW060 BKN090 BKN110 06/01 A3000 RMK AO2 SLP166 T00610006 401110022=
201104180653 METAR KSEA 180653Z 03005KT 10SM FEW065 BKN090 BKN120 06/01 A2999 RMK AO2 SLP165 T00610006=
201104180553 METAR KSEA 180553Z 04006KT 10SM FEW065 BKN095 07/M01 A2999 RMK AO2 SLP163 T00671006 10094 20067 50001=
201104180453 METAR KSEA 180453Z 28004KT 10SM BKN085 OVC120 07/02 A2999 RMK AO2 SLP165 T00670017=
201104180353 METAR KSEA 180353Z 35004KT 10SM OVC095 07/M01 A2998 RMK AO2 SLP162 T00721006=
201104180253 METAR KSEA 180253Z 11004KT 10SM BKN080 OVC090 08/M01 A2999 RMK AO2 SLP162 T00781006 56006=
201104180153 METAR KSEA 180153Z 32005KT 10SM OVC070 08/M01 A2999 RMK AO2 SLP163 T00831006=
201104180053 METAR KSEA 180053Z 33009KT 10SM BKN060 09/M03 A3000 RMK AO2 SLP167 T00891028=
201104172353 METAR KSEA 172353Z 30009KT 10SM FEW050 BKN085 OVC200 09/M01 A3000 RMK AO2 RAB2257E07 SLP169 P0000 60001 T00891006 10111 20067 56008=
201104172253 METAR KSEA 172253Z 02004KT 10SM SCT048 BKN065 BKN080 09/M01 A3001 RMK AO2 RAB29E39 SLP171 P0001 T00941006=
201104172153 METAR KSEA 172153Z VRB06KT 10SM SCT050 BKN060 11/M02 A3001 RMK AO2 SLP172 T01061022=
201104172053 METAR KSEA 172053Z 21004KT 10SM FEW040 BKN050 09/M02 A3003=
201104171953 METAR KSEA 171953Z 17008KT 10SM SCT043 BKN050 09/M01 A3005 RMK AO2 SLP185 T00941011=
201104171853 METAR KSEA 171853Z 20005KT 10SM SCT036 SCT055 08/M01 A3006 RMK AO2 SLP188 T00831006=
201104171753 METAR KSEA 171753Z VRB06KT 10SM SCT038 07/M01 A3007 RMK AO2 SLP191 T00721006 10072 20022 56003=
201104171653 METAR KSEA 171653Z 20007KT 10SM SCT038 06/00 A3007 RMK AO2 SLP192 T00560000=
201104171553 METAR KSEA 171553Z 20005KT 10SM BKN038 BKN050 04/02 A3007 RMK AO2 SLP192 T00440017=
201104171453 METAR KSEA 171453Z 23003KT 10SM SCT040 BKN050 03/01 A3008 RMK AO2 SLP195 T00330006 53010=
201104171353 METAR KSEA 171353Z 21006KT 10SM FEW050 BKN070 03/00 A3007=
201104171253 METAR KSEA 171253Z 17004KT 10SM BKN050 BKN070 02/M01 A3006 RMK AO2 SLP186 T00221006=
201104171153 METAR KSEA 171153Z 18005KT 10SM SCT045 BKN075 03/00 A3005 RMK AO2 SLP184 70001 T00330000 10067 20033 58002=
201104171053 METAR KSEA 171053Z 17005KT 10SM BKN045 OVC055 04/01 A3005 RMK AO2 SLP185 T00390006=
201104170953 METAR KSEA 170953Z 00000KT 10SM FEW035 SCT055 05/M01 A3005 RMK AO2 SLP185 T00501006=
201104170853 METAR KSEA 170853Z 17003KT 10SM SCT040 BKN070 06/00 A3005 RMK AO2 SLP185 T00560000 50005=
201104170753 METAR KSEA 170753Z 12003KT 10SM SCT040 OVC065 06/00 A3006 RMK AO2 SLP186 T00610000 401170061=
201104170653 METAR KSEA 170653Z 05006KT 10SM OVC045 06/00 A3005 RMK AO2 SLP182 T00610000=
201104170553 METAR KSEA 170553Z 03010KT 10SM BKN040 OVC050 07/M01 A3004=
201104170453 METAR KSEA 170453Z 03013KT 10SM OVC041 07/M02 A3004 RMK AO2 SLP180 T00671017=
201104170353 METAR KSEA 170353Z 03011KT 10SM OVC035 07/M01 A3004 RMK AO2 SLP179 T00671006=
201104170253 METAR KSEA 170253Z 04017KT 10SM BKN031 06/00 A3002 RMK AO2 SLP173 T00610000 55002=
201104170209 SPECI KSEA 170209Z 02015KT 10SM BKN028 BKN050 07/01 A3001 RMK AO2=
201104170209 SPECI KSEA 170209Z 02015KT 10SM BKN028 BKN050 07/01 A3001 RMK AO2=
201104170153 METAR KSEA 170153Z 02017KT 10SM SCT029 BKN040 07/01 A3001=
201104170053 METAR KSEA 170053Z 02015KT 10SM SCT027 BKN032 BKN200 09/03 A3002 RMK AO2 SLP172 T00940028=
201104162353 METAR KSEA 162353Z 02011KT 10SM SCT024 BKN200 11/04 A3002 RMK AO2 SLP174 60000 T01060044 10117 20094 58001=
201104162344 SPECI KSEA 162344Z 02011KT 10SM SCT024 BKN030 11/04 A3002 RMK AO2=
201104162344 SPECI KSEA 162344Z 02011KT 10SM SCT024 BKN030 11/04 A3002 RMK AO2=
201104162320 SPECI KSEA 162320Z 31007KT 10SM BKN024 OVC037 11/03 A3003 RMK AO2=
201104162320 SPECI KSEA 162320Z 31007KT 10SM BKN024 OVC037 11/03 A3003 RMK AO2=
201104162253 METAR KSEA 162253Z VRB03KT 10SM BKN065 11/03 A3003 RMK AO2 RAB10E20 SLP176 P0000 T01110028=
201104162153 METAR KSEA 162153Z 22006KT 10SM SCT055 BKN200 10/03 A3003 RMK AO2 SLP176 T01000033=
201104162053 METAR KSEA 162053Z 24011G17KT 10SM SCT055 BKN200 11/03 A3003 RMK AO2 SLP175 T01060033 53003=
201104161953 METAR KSEA 161953Z 23013KT 10SM SCT055 BKN200 12/03 A3002=
201104161853 METAR KSEA 161853Z 20011KT 10SM FEW010 SCT030 BKN200 10/04 A3002 RMK AO2 SLP173 T01000044=
201104161753 METAR KSEA 161753Z 20013G20KT 10SM SCT010 BKN040 BKN200 09/05 A3002 RMK AO2 SLP171 60001 T00940050 10100 20078 58001=
201104161653 METAR KSEA 161653Z 21010G18KT 10SM SCT010 BKN045 BKN055 09/06 A3002 RMK AO2 SLP173 T00940061=
201104161649 SPECI KSEA 161649Z 20012G18KT 10SM SCT010 BKN045 BKN120 09/07 A3002 RMK AO2=
201104161649 SPECI KSEA 161649Z 20012G18KT 10SM SCT010 BKN045 BKN120 09/07 A3002 RMK AO2=
201104161607 SPECI KSEA 161607Z 21012KT 10SM SCT006 BKN016 OVC050 09/07 A3002 RMK AO2=
201104161607 SPECI KSEA 161607Z 21012KT 10SM SCT006 BKN016 OVC050 09/07 A3002 RMK AO2=
201104161553 METAR KSEA 161553Z 20009KT 10SM BKN008 BKN050 09/07 A3002=
201104161453 METAR KSEA 161453Z 24007KT 7SM SCT004 BKN008 OVC040 08/07 A3002 RMK AO2 SLP174 VIS W 1 1/2SM 60001 T00830072 51008=
201104161436 SPECI KSEA 161436Z 21008KT 7SM SCT004 BKN010 OVC065 08/07 A3001 RMK AO2=
201104161436 SPECI KSEA 161436Z 21008KT 7SM SCT004 BKN010 OVC065 08/07 A3001 RMK AO2=
201104161402 SPECI KSEA 161402Z 22004KT 5SM BR BKN004 BKN010 08/07 A3001 RMK AO2=
201104161402 SPECI KSEA 161402Z 22004KT 5SM BR BKN004 BKN010 08/07 A3001 RMK AO2=
201104161353 METAR KSEA 161353Z 23006KT 1 1/2SM R16L/6000VP6000FT BR BKN002 OVC010 08/07 A3001 RMK AO2 DZE29 SLP169 P0000 T00780072=
201104161342 SPECI KSEA 161342Z 23007KT 1 1/2SM R16L/3500VP6000FT BR BKN002 OVC004 08/07 A3001 RMK AO2 SFC VIS 2 DZE29 P0000=
201104161342 SPECI KSEA 161342Z 23007KT 1 1/2SM R16L/3500VP6000FT BR BKN002 OVC004 08/07 A3001 RMK AO2 SFC VIS 2 DZE29 P0000=
201104161330 SPECI KSEA 161330Z 26005KT 1/4SM R16L/2000V4000FT BR BKN002 OVC004 08/07 A3001 RMK AO2 SFC VIS 1 DZE29 P0000=
201104161330 SPECI KSEA 161330Z 26005KT 1/4SM R16L/2000V4000FT BR BKN002 OVC004 08/07 A3001 RMK AO2 SFC VIS 1 DZE29 P0000=
201104161316 SPECI KSEA 161316Z 24006KT 2SM -DZ BR BKN003 OVC005 08/07 A3000 RMK AO2 P0000=
201104161316 SPECI KSEA 161316Z 24006KT 2SM -DZ BR BKN003 OVC005 08/07 A3000 RMK AO2 P0000=
201104161253 METAR KSEA 161253Z 22006KT 1 1/2SM R16L/2200V5500FT -DZ BR BKN003 OVC005 08/07 A3000 RMK AO2 RAE28DZB48 SLP166 P0001 T00780072=
201104161153 METAR KSEA 161153Z 00000KT 2SM -RA BR BKN003 OVC005 08/07 A2999 RMK AO2 RAB20 SLP164 P0003 60012 70014 T00780072 10089 20072 53006=
201104161133 SPECI KSEA 161133Z 00000KT 2SM -RA BR BKN003 OVC005 08/07 A2999 RMK AO2 RAB20 P0002=
201104161133 SPECI KSEA 161133Z 00000KT 2SM -RA BR BKN003 OVC005 08/07 A2999 RMK AO2 RAB20 P0002=
201104161129 SPECI KSEA 161129Z 00000KT 2SM -RA BR OVC001 08/07 A2999 RMK AO2 RAB20 P0002=
201104161129 SPECI KSEA 161129Z 00000KT 2SM -RA BR OVC001 08/07 A2999 RMK AO2 RAB20 P0002=
201104161053 METAR KSEA 161053Z 00000KT 3SM BR BKN003 OVC005 08/07 A2998 RMK AO2 RAE38DZB45E50 SLP159 P0001 T00780072=
201104160953 METAR KSEA 160953Z 00000KT 2SM -RA BR BKN003 OVC005 08/07 A2998=
201104160924 SPECI KSEA 160924Z 29003KT 2SM -DZ BR BKN003 OVC005 08/07 A2998 RMK AO2 RAB13E15 P0000=
201104160924 SPECI KSEA 160924Z 29003KT 2SM -DZ BR BKN003 OVC005 08/07 A2998 RMK AO2 RAB13E15 P0000=
201104160914 SPECI KSEA 160914Z 00000KT 1 3/4SM R16L/3500VP6000FT -RA BR BKN003 OVC005 08/07 A2998 RMK AO2 DZE13RAB13 P0000=
201104160914 SPECI KSEA 160914Z 00000KT 1 3/4SM R16L/3500VP6000FT -RA BR BKN003 OVC005 08/07 A2998 RMK AO2 DZE13RAB13 P0000=
201104160853 METAR KSEA 160853Z 00000KT 3SM -DZ BR BKN003 OVC005 08/07 A2998 RMK AO2 RAE17DZB50 SLP158 P0000 60007 T00780072 53005=
201104160822 SPECI KSEA 160822Z 00000KT 2SM BR BKN003 OVC005 08/07 A2997 RMK AO2 RAE17 P0000=
201104160822 SPECI KSEA 160822Z 00000KT 2SM BR BKN003 OVC005 08/07 A2997 RMK AO2 RAE17 P0000=
201104160810 SPECI KSEA 160810Z 00000KT 1 1/4SM R16L/5500VP6000FT -RA BR BKN003 OVC005 08/07 A2997 RMK AO2 P0000=
201104160810 SPECI KSEA 160810Z 00000KT 1 1/4SM R16L/5500VP6000FT -RA BR BKN003 OVC005 08/07 A2997 RMK AO2 P0000=
201104160753 METAR KSEA 160753Z 00000KT 2SM -RA BR BKN003 OVC007 08/07 A2997=
201104160653 METAR KSEA 160653Z 00000KT 1 3/4SM -RA BR BKN003 OVC008 08/07 A2996=
201104160641 SPECI KSEA 160641Z 30003KT 1 3/4SM R16L/6000VP6000FT -RA BR BKN003 OVC008 08/07 A2996 RMK AO2 P0002=
201104160641 SPECI KSEA 160641Z 30003KT 1 3/4SM R16L/6000VP6000FT -RA BR BKN003 OVC008 08/07 A2996 RMK AO2 P0002=
201104160607 SPECI KSEA 160607Z 32004KT 2 1/2SM -RA BR BKN003 OVC008 08/07 A2996 RMK AO2 CIG 002V006 P0000=
201104160607 SPECI KSEA 160607Z 32004KT 2 1/2SM -RA BR BKN003 OVC008 08/07 A2996 RMK AO2 CIG 002V006 P0000=
201104160553 METAR KSEA 160553Z 00000KT 3SM -RA BR BKN005 OVC012 09/08 A2996 RMK AO2 DZE50RAB25 CIG 003V007 SLP153 P0000 60000 T00890083 10111 20089 51002=
201104160541 SPECI KSEA 160541Z 17003KT 6SM -DZ BR SCT006 OVC013 09/08 A2996 RMK AO2 RAB25E36 P0000=
201104160541 SPECI KSEA 160541Z 17003KT 6SM -DZ BR SCT006 OVC013 09/08 A2996 RMK AO2 RAB25E36 P0000=
201104160526 SPECI KSEA 160526Z 13003KT 6SM -RA BR OVC013 09/08 A2996 RMK AO2 DZE25RAB25 P0000=
201104160526 SPECI KSEA 160526Z 13003KT 6SM -RA BR OVC013 09/08 A2996 RMK AO2 DZE25RAB25 P0000=
201104160453 METAR KSEA 160453Z 12003KT 10SM -DZ FEW009 OVC017 09/08 A2996=
201104160353 METAR KSEA 160353Z 11003KT 10SM -DZ FEW009 BKN019 OVC027 09/08 A2996 RMK AO2 SLP153 P0000 T00940078=
201104160344 SPECI KSEA 160344Z 12005KT 10SM -DZ FEW009 OVC019 09/08 A2996 RMK AO2 P0000=
201104160344 SPECI KSEA 160344Z 12005KT 10SM -DZ FEW009 OVC019 09/08 A2996 RMK AO2 P0000=
201104160334 SPECI KSEA 160334Z 10005KT 10SM -DZ BKN017 OVC038 09/08 A2996 RMK AO2 P0000=
201104160334 SPECI KSEA 160334Z 10005KT 10SM -DZ BKN017 OVC038 09/08 A2996 RMK AO2 P0000=
201104160253 METAR KSEA 160253Z 12003KT 10SM -DZ FEW023 SCT029 OVC044 09/07 A2995 RMK AO2 SLP151 P0000 60000 T00940072 58007=
201104160153 METAR KSEA 160153Z 32004KT 5SM -DZ OVC022 09/07 A2996 RMK AO2 DZB51 SLP154 P0000 T00940067=
201104160053 METAR KSEA 160053Z 28003KT 10SM BKN028 OVC040 11/06 A2997 RMK AO2 SLP156 T01060061=
201104160014 SPECI KSEA 160014Z 31005KT 10SM BKN028 OVC039 10/06 A2997 RMK AO2=
201104160014 SPECI KSEA 160014Z 31005KT 10SM BKN028 OVC039 10/06 A2997 RMK AO2=
201104152353 METAR KSEA 152353Z 27003KT 10SM FEW026 BKN042 OVC100 11/06 A2997 RMK AO2 SLP158 60002 T01110056 10117 20072 56023=
201104152253 METAR KSEA 152253Z 00000KT 10SM SCT042 BKN060 OVC200 11/06 A2999 RMK AO2 SLP163 T01060056=
201104152153 METAR KSEA 152153Z 07005KT 10SM FEW014 SCT031 OVC100 10/06 A3002 RMK AO2 RAE29 SLP172 P0001 T01000061=
201104152053 METAR KSEA 152053Z 08008KT 10SM -RA SCT024 BKN038 OVC050 09/06 A3004 RMK AO2 SLP182 P0000 60001 T00890056 58016=
201104152029 SPECI KSEA 152029Z 02005KT 10SM -RA FEW021 BKN034 OVC050 09/05 A3005 RMK AO2 P0000=
201104152029 SPECI KSEA 152029Z 02005KT 10SM -RA FEW021 BKN034 OVC050 09/05 A3005 RMK AO2 P0000=
201104151953 METAR KSEA 151953Z 06005KT 6SM -RA BKN021 OVC035 08/04 A3007 RMK AO2 SLP189 P0001 T00780044=
201104151937 SPECI KSEA 151937Z 05004KT 6SM -RA BKN022 OVC035 08/04 A3007 RMK AO2 P0001=
201104151937 SPECI KSEA 151937Z 05004KT 6SM -RA BKN022 OVC035 08/04 A3007 RMK AO2 P0001=
201104151853 METAR KSEA 151853Z 03006KT 10SM -RA FEW020 BKN031 OVC050 08/03 A3008 RMK AO2 RAE02B30 SLP194 P0000 T00780033=
201104151753 METAR KSEA 151753Z 06005KT 10SM -RA FEW015 BKN033 OVC050 08/03 A3009 RMK AO2 RAB52 SLP198 P0000 60000 T00780033 10078 20044 56019=
201104151653 METAR KSEA 151653Z 04004KT 10SM FEW015 BKN037 OVC060 07/02 A3011 RMK AO2 SLP203 T00720022=
201104151553 METAR KSEA 151553Z 04004KT 10SM FEW015 SCT038 OVC055 06/03 A3012 RMK AO2 RAE04 SLP209 P0000 T00610028=
201104151453 METAR KSEA 151453Z 03003KT 10SM -RA FEW020 BKN037 OVC049 05/03 A3015 RMK AO2 RAB50 SLP217 P0000 60000 T00500028 58016=
201104151353 METAR KSEA 151353Z 04003KT 10SM FEW020 OVC070 04/03 A3016 RMK AO2 RAE12B28E40 SLP222 P0000 T00440028=
201104151253 METAR KSEA 151253Z 14004KT 10SM -RA FEW024 SCT031 OVC070 04/03 A3018 RMK AO2 RAE04B29 SLP228 P0000 T00440028=
201104151153 METAR KSEA 151153Z 12004KT 10SM -RA FEW034 OVC075 04/03 A3019 RMK AO2 RAB53 SLP233 P0000 60000 70039 T00440028 10050 20033 58013=
201104151053 METAR KSEA 151053Z 11003KT 10SM OVC085 04/03 A3021 RMK AO2 SLP238 T00440028=
201104150953 METAR KSEA 150953Z 00000KT 10SM BKN075 04/02 A3022 RMK AO2 SLP242 T00390017=
201104150853 METAR KSEA 150853Z 19008KT 10SM OVC075 04/03 A3023 RMK AO2 SLP246 T00440028 51008=
201104150753 METAR KSEA 150753Z 18008KT 10SM CLR 04/03 A3023=
201104150653 METAR KSEA 150653Z 20009KT 10SM FEW090 05/03 A3022 RMK AO2 SLP241 T00500028=
201104150553 METAR KSEA 150553Z 20008G19KT 10SM FEW015 SCT090 05/02 A3021 RMK AO2 SLP237 60007 T00500017 10067 20050 51022=
201104150453 METAR KSEA 150453Z 20011KT 10SM FEW015 BKN100 05/04 A3019 RMK AO2 SLP230 T00500039=
201104150353 METAR KSEA 150353Z 20008KT 10SM FEW011 BKN030 BKN044 06/03 A3017=
201104150253 METAR KSEA 150253Z 19009KT 10SM SCT016 BKN022 BKN048 07/04 A3014 RMK AO2 SLP215 60004 T00670039 51014=
201104150153 METAR KSEA 150153Z 20012G19KT 10SM FEW012 BKN024 BKN065 07/06 A3013 RMK AO2 RAB0059E16 SLP210 P0000 T00670061=
201104150053 METAR KSEA 150053Z 22011KT 10SM BKN018 OVC024 07/06 A3013=
201104142353 METAR KSEA 142353Z 20019G27KT 6SM -RA BR FEW009 SCT018 OVC025 07/06 A3010 RMK AO2 PK WND 20027/2353 SLP201 P0008 60032 T00670056 10083 20061 56009=
201104142339 SPECI KSEA 142339Z 20013KT 8SM -RA FEW009 BKN017 OVC025 07/05 A3009 RMK AO2 P0006=
201104142339 SPECI KSEA 142339Z 20013KT 8SM -RA FEW009 BKN017 OVC025 07/05 A3009 RMK AO2 P0006=
201104142321 SPECI KSEA 142321Z 20014G20KT 3SM -RA BR FEW008 BKN014 OVC021 07/05 A3010 RMK AO2 P0004=
201104142321 SPECI KSEA 142321Z 20014G20KT 3SM -RA BR FEW008 BKN014 OVC021 07/05 A3010 RMK AO2 P0004=
201104142253 METAR KSEA 142253Z 20006KT 6SM -RA BR FEW008 SCT013 OVC020 06/05 A3010 RMK AO2 SLP201 P0014 T00610050=
201104142224 SPECI KSEA 142224Z 21006KT 4SM RA BR SCT008 SCT015 OVC021 06/04 A3011 RMK AO2 P0008=
201104142224 SPECI KSEA 142224Z 21006KT 4SM RA BR SCT008 SCT015 OVC021 06/04 A3011 RMK AO2 P0008=
201104142153 METAR KSEA 142153Z 19007KT 5SM -RA BR FEW016 BKN022 OVC030 07/04 A3011 RMK AO2 SLP204 P0006 T00670044=
201104142053 METAR KSEA 142053Z 19011KT 3SM -RA BKN023 OVC030 07/03 A3013 RMK AO2 SFC VIS 5 SLP211 P0004 60004 T00670033 56014=
201104141953 METAR KSEA 141953Z 16009G18KT 10SM -RA BKN028 OVC037 08/01 A3013 RMK AO2 RAB07 SLP212 P0000 T00780011=
201104141932 SPECI KSEA 141932Z 16008KT 9SM -RA BKN026 BKN033 OVC060 07/03 A3014 RMK AO2 RAB07 P0000=
201104141932 SPECI KSEA 141932Z 16008KT 9SM -RA BKN026 BKN033 OVC060 07/03 A3014 RMK AO2 RAB07 P0000=
201104141853 METAR KSEA 141853Z 17011KT 10SM SCT027 SCT060 OVC180 08/02 A3015 RMK AO2 SLP218 T00830017=
201104141753 METAR KSEA 141753Z 20010KT 10SM SCT028 SCT042 OVC180 08/02 A3017 RMK AO2 RAB01E35 SLP225 P0000 60000 T00780022 10083 20044 50007=
201104141741 SPECI KSEA 141741Z 19004KT 10SM SCT027 BKN044 OVC200 07/03 A3017 RMK AO2 RAB01E35 P0000=
201104141741 SPECI KSEA 141741Z 19004KT 10SM SCT027 BKN044 OVC200 07/03 A3017 RMK AO2 RAB01E35 P0000=
201104141653 METAR KSEA 141653Z 19011G18KT 10SM FEW020 BKN027 OVC200 07/02 A3017 RMK AO2 SLP226 T00670022=
201104141638 SPECI KSEA 141638Z 19013G18KT 10SM BKN022 OVC031 07/02 A3017 RMK AO2=
201104141638 SPECI KSEA 141638Z 19013G18KT 10SM BKN022 OVC031 07/02 A3017 RMK AO2=
201104141553 METAR KSEA 141553Z 19007KT 10SM FEW022 BKN030 BKN200 06/02 A3016 RMK AO2 SLP223 T00610022=
201104141453 METAR KSEA 141453Z 19008KT 10SM FEW024 BKN035 BKN200 05/02 A3015 RMK AO2 RAE13 SLP218 P0000 60000 T00500022 51017=
201104141427 SPECI KSEA 141427Z 18008KT 10SM FEW020 BKN032 BKN200 05/02 A3015 RMK AO2 RAE13 P0000=
201104141427 SPECI KSEA 141427Z 18008KT 10SM FEW020 BKN032 BKN200 05/02 A3015 RMK AO2 RAE13 P0000=
201104141353 METAR KSEA 141353Z 20005KT 10SM -RA BKN023 OVC031 05/02 A3014 RMK AO2 RAE1257B51 SLP214 P0000 T00500022=
201104141253 METAR KSEA 141253Z 19008KT 10SM -RA SCT021 BKN029 OVC065 04/02 A3012 RMK AO2 RAB28 SLP208 P0000 T00440022 $=
201104141153 METAR KSEA 141153Z 18011G18KT 10SM BKN021 BKN025 OVC049 05/02 A3010 RMK AO2 RAE31 SLP201 P0001 60001 70018 T00500017 10056 20039 56004 $=
201104141108 SPECI KSEA 141108Z 18009KT 10SM -RA BKN022 OVC030 05/02 A3010 RMK AO2 P0001 $=
201104141108 SPECI KSEA 141108Z 18009KT 10SM -RA BKN022 OVC030 05/02 A3010 RMK AO2 P0001 $=
201104141053 METAR KSEA 141053Z 19008KT 10SM -RA FEW024 BKN031 OVC040 05/01 A3011=
201104140953 METAR KSEA 140953Z 16009KT 10SM SCT050 BKN070 BKN110 05/02 A3010 RMK AO2 SLP201 T00500017 $=
201104140853 METAR KSEA 140853Z 17006KT 10SM SCT025 BKN042 BKN060 04/02 A3011 RMK AO2 RAB09E32 SLP205 P0000 60000 T00440017 51012 $=
201104140825 SPECI KSEA 140825Z 18010KT 10SM -RA FEW018 BKN024 OVC045 04/02 A3011 RMK AO2 RAB09 P0000 $=
201104140825 SPECI KSEA 140825Z 18010KT 10SM -RA FEW018 BKN024 OVC045 04/02 A3011 RMK AO2 RAB09 P0000 $=
201104140753 METAR KSEA 140753Z 18008KT 10SM FEW019 BKN039 BKN050 04/02 A3011 RMK AO2 SLP204 T00440017 400890044 $=
201104140739 SPECI KSEA 140739Z 16010KT 10SM FEW016 SCT039 BKN100 04/02 A3010 RMK AO2 $=
201104140739 SPECI KSEA 140739Z 16010KT 10SM FEW016 SCT039 BKN100 04/02 A3010 RMK AO2 $=
201104140711 SPECI KSEA 140711Z 17010G18KT 10SM SCT018 BKN029 BKN100 04/02 A3010 RMK AO2 $=
201104140711 SPECI KSEA 140711Z 17010G18KT 10SM SCT018 BKN029 BKN100 04/02 A3010 RMK AO2 $=
201104140653 METAR KSEA 140653Z 19013G19KT 10SM FEW017 SCT025 OVC100 05/02 A3009 RMK AO2 RAE00 SLP198 P0000 T00500022 $=
201104140553 METAR KSEA 140553Z 18011KT 10SM -RA FEW018 BKN038 BKN075 04/02 A3008 RMK AO2 SLP193 P0000 60006 T00440022 10078 20044 51008 $=
201104140550 SPECI KSEA 140550Z 18011KT 10SM -RA FEW018 BKN044 BKN070 04/02 A3007 RMK AO2 P0000 $=
201104140550 SPECI KSEA 140550Z 18011KT 10SM -RA FEW018 BKN044 BKN070 04/02 A3007 RMK AO2 P0000 $=
201104140519 SPECI KSEA 140519Z 19009KT 10SM -RA SCT014 BKN027 OVC049 06/03 A3007 RMK AO2 P0000 $=
201104140519 SPECI KSEA 140519Z 19009KT 10SM -RA SCT014 BKN027 OVC049 06/03 A3007 RMK AO2 P0000 $=
201104140453 METAR KSEA 140453Z 20009KT 10SM -RA SCT033 BKN047 OVC090 06/02 A3006 RMK AO2 RAB43 SLP187 P0000 T00560022 $=
201104140353 METAR KSEA 140353Z 16007KT 10SM FEW040 SCT100 05/02 A3005 RMK AO2 SLP184 T00500022 $=
201104140253 METAR KSEA 140253Z 19007KT 10SM FEW030 SCT041 SCT100 SCT200 06/03 A3003 RMK AO2 RAB03E20 SLP178 CB DSNT NW SHRA NW-N P0000 60006 T00610028 53007 $=
201104140153 METAR KSEA 140153Z 19012KT 10SM FEW060 BKN200 07/02 A3002 RMK AO2 RAB00E13 SLP173 CB DSNT SE-S SHRA W P0000 T00720022 $=
201104140053 METAR KSEA 140053Z 18010KT 10SM FEW021 SCT038 BKN075 07/03 A3001 RMK AO2 RAE42 SLP172 P0006 T00670033 $=
201104140049 SPECI KSEA 140049Z 18008KT 10SM FEW021 BKN034 BKN075 07/03 A3001 RMK AO2 RAE42 P0006 $=
201104140049 SPECI KSEA 140049Z 18008KT 10SM FEW021 BKN034 BKN075 07/03 A3001 RMK AO2 RAE42 P0006 $=
201104140013 SPECI KSEA 140013Z 23007KT 8SM -RA BKN025 BKN033 BKN090 08/03 A3001 RMK AO2 P0000 $=
201104140013 SPECI KSEA 140013Z 23007KT 8SM -RA BKN025 BKN033 BKN090 08/03 A3001 RMK AO2 P0000 $=
201104132353 METAR KSEA 132353Z 21008KT 10SM -RA SCT025 BKN033 OVC090 08/04 A3000 RMK AO2 RAB40 SLP167 P0000 60007 T00780039 10089 20061 51018=
201104132253 METAR KSEA 132253Z 20014KT 10SM FEW025 SCT075 BKN100 BKN200 08/05 A2998=
201104132242 SPECI KSEA 132242Z 22010KT 10SM FEW024 SCT035 BKN048 OVC150 08/04 A2998 RMK AO2 RAE2154B17E33 P0001=
201104132242 SPECI KSEA 132242Z 22010KT 10SM FEW024 SCT035 BKN048 OVC150 08/04 A2998 RMK AO2 RAE2154B17E33 P0001=
201104132222 SPECI KSEA 132222Z 24010G22KT 6SM RA FEW020 BKN025 OVC048 07/03 A2998 RMK AO2 RAE2154B17 P0000=
201104132222 SPECI KSEA 132222Z 24010G22KT 6SM RA FEW020 BKN025 OVC048 07/03 A2998 RMK AO2 RAE2154B17 P0000=
201104132153 METAR KSEA 132153Z 21012KT 10SM -RA FEW011 BKN032 BKN060 OVC200 08/05 A2997 RMK AO2 SLP155 P0000 T00780050=
201104132053 METAR KSEA 132053Z 21011KT 10SM -RA FEW010 BKN021 OVC035 07/05 A2995 RMK AO2 SLP149 P0002 60006 T00670050 53008=
201104131953 METAR KSEA 131953Z 21011KT 7SM -RA FEW014 BKN023 OVC050 08/05 A2993 RMK AO2 SLP144 P0001 T00780050=
201104131943 SPECI KSEA 131943Z 22011KT 10SM -RA FEW015 BKN023 OVC050 08/05 A2993 RMK AO2 P0000=
201104131943 SPECI KSEA 131943Z 22011KT 10SM -RA FEW015 BKN023 OVC050 08/05 A2993 RMK AO2 P0000=
201104131853 METAR KSEA 131853Z 22009KT 10SM -RA FEW025 BKN034 OVC080 07/05 A2993 RMK AO2 SLP142 P0003 T00720050=
201104131753 METAR KSEA 131753Z 21008KT 10SM -RA FEW024 BKN036 OVC060 07/04 A2992 RMK AO2 RAB04 SLP140 P0000 60004 T00670039 10072 20056 53007=
201104131653 METAR KSEA 131653Z 23010KT 10SM BKN037 OVC060 07/03 A2992 RMK AO2 RAE31 SLP138 P0001 T00720033=
201104131553 METAR KSEA 131553Z 21009KT 9SM -RA BKN034 OVC046 06/04 A2991 RMK AO2 RAE17B42 SLP135 P0001 T00610044=
201104131453 METAR KSEA 131453Z 20004KT 10SM -RA BKN032 BKN046 OVC090 06/04 A2990 RMK AO2 SLP133 P0001 60002 T00610044 53001=
201104131353 METAR KSEA 131353Z 18003KT 10SM -RA BKN034 BKN060 OVC200 06/03 A2990 RMK AO2 RAB37 SLP132 P0001 T00610028=
201104131253 METAR KSEA 131253Z 19003KT 10SM SCT060 BKN075 OVC110 06/02 A2990=
201104131153 METAR KSEA 131153Z 13005KT 10SM FEW050 OVC110 06/02 A2990 RMK AO2 SLP132 T00610022 10100 20056 57009=
201104131053 METAR KSEA 131053Z 12006KT 10SM BKN100 06/02 A2991 RMK AO2 SLP135 T00610022=
201104130953 METAR KSEA 130953Z 23003KT 10SM FEW070 BKN080 06/02 A2992 RMK AO2 SLP138 T00610022=
201104130853 METAR KSEA 130853Z 17003KT 10SM FEW070 OVC110 07/02 A2993 RMK AO2 SLP141 T00670017 56009=
201104130753 METAR KSEA 130753Z 26003KT 10SM FEW070 OVC110 07/02 A2993=
201104130653 METAR KSEA 130653Z 23006KT 10SM OVC100 08/01 A2994 RMK AO2 SLP147 T00830011=
201104130553 METAR KSEA 130553Z 00000KT 10SM OVC100 10/M01 A2996 RMK AO2 SLP151 T01001006 10117 20094 58010=
201104130453 METAR KSEA 130453Z 10004KT 10SM OVC100 10/M01 A2997 RMK AO2 SLP155 T01001006=
201104130353 METAR KSEA 130353Z 00000KT 10SM BKN110 OVC180 11/M01 A2998 RMK AO2 SLP161 T01061011=
201104130253 METAR KSEA 130253Z 00000KT 10SM FEW035 SCT110 OVC180 11/M02 A2999 RMK AO2 SLP163 T01061017 56011=
201104130153 METAR KSEA 130153Z 00000KT 10SM FEW035 SCT120 OVC200 11/M01 A2999 RMK AO2 SLP163 T01061006=
201104130053 METAR KSEA 130053Z 26004KT 10SM FEW035 SCT120 OVC200 11/M01 A3000 RMK AO2 SLP169 T01111011=
201104122353 METAR KSEA 122353Z 25007KT 10SM FEW035 SCT120 BKN200 12/M01 A3002 RMK AO2 SLP174 T01171011 10117 20072 56020=
201104122253 METAR KSEA 122253Z 24007KT 10SM FEW035 BKN200 11/M02 A3003 RMK AO2 SLP178 T01111017=
201104122153 METAR KSEA 122153Z 29006KT 10SM FEW035 BKN200 11/M02 A3005 RMK AO2 SLP185 T01061022=
201104122053 METAR KSEA 122053Z 27006KT 10SM FEW035 BKN200 09/M02 A3008 RMK AO2 SLP194 T00941017 58023=
201104121953 METAR KSEA 121953Z 24004KT 10SM FEW025 BKN200 09/M01 A3010 RMK AO2 SLP202 T00941011=
201104121853 METAR KSEA 121853Z 28006KT 10SM FEW025 BKN200 08/01 A3013 RMK AO2 SLP211 T00830006=
201104121753 METAR KSEA 121753Z 23003KT 10SM FEW020 BKN200 07/01 A3015=
201104121653 METAR KSEA 121653Z 27003KT 10SM BKN200 06/00 A3016 RMK AO2 SLP223 T00610000=
201104121553 METAR KSEA 121553Z 00000KT 10SM OVC200 05/01 A3018 RMK AO2 SLP228 T00500006=
201104121453 METAR KSEA 121453Z 14004KT 10SM OVC200 03/00 A3019 RMK AO2 SLP230 T00330000 58012=
201104121353 METAR KSEA 121353Z 12005KT 10SM BKN200 03/00 A3020 RMK AO2 SLP234 T00280000=
201104121253 METAR KSEA 121253Z 14005KT 10SM CLR 02/00 A3021 RMK AO2 SLP240 T00220000=
201104121153 METAR KSEA 121153Z 15004KT 10SM CLR 02/00 A3022 RMK AO2 SLP242 T00220000 10056 20022 58016=
201104121053 METAR KSEA 121053Z 15006KT 10SM CLR 03/00 A3024 RMK AO2 SLP249 T00280000=
201104120953 METAR KSEA 120953Z 15004KT 10SM FEW100 03/00 A3026 RMK AO2 SLP254 T00280000=
201104120853 METAR KSEA 120853Z 16005KT 10SM CLR 03/00 A3027 RMK AO2 SLP259 T00330000 58011=
201104120753 METAR KSEA 120753Z 14004KT 10SM CLR 04/01 A3028 RMK AO2 SLP263 T00390006 401060033=
201104120653 METAR KSEA 120653Z 19006KT 10SM CLR 05/01 A3029 RMK AO2 SLP266 T00500011=
201104120553 METAR KSEA 120553Z 22006KT 10SM FEW060 06/01 A3030 RMK AO2 SLP270 T00560006 10100 20056 51010=
201104120453 METAR KSEA 120453Z 23006KT 10SM FEW060 06/01 A3030 RMK AO2 SLP269 T00610006=
201104120353 METAR KSEA 120353Z 23009KT 10SM FEW040 SCT080 07/M01 A3029 RMK AO2 SLP267 T00671006=
201104120253 METAR KSEA 120253Z 24009KT 10SM SCT040 SCT090 08/01 A3027 RMK AO2 SLP259 T00780006 53000=
201104120153 METAR KSEA 120153Z 24010G17KT 10SM FEW043 SCT055 BKN090 09/00 A3026 RMK AO2 SLP257 T00890000=
201104120053 METAR KSEA 120053Z 22008KT 180V250 10SM FEW039 SCT045 BKN085 09/01 A3027 RMK AO2 SLP259 T00940011=
201104112353 METAR KSEA 112353Z 24010KT 10SM SCT040 SCT085 SCT200 10/02 A3027 RMK AO2 SLP259 T01000017 10106 20072 53001=
201104112253 METAR KSEA 112253Z 22014G25KT 10SM FEW035 SCT120 SCT200 11/M01 A3026 RMK AO2 SLP255 T01061006=
201104112153 METAR KSEA 112153Z 22012G23KT 10SM FEW035 SCT110 SCT200 09/01 A3026 RMK AO2 SLP256 SHRA DSNT N T00940011=
201104112053 METAR KSEA 112053Z 23017G23KT 10SM BKN034 BKN110 09/02 A3027 RMK AO2 SLP259 T00890017 51013=
201104111953 METAR KSEA 111953Z 25011G22KT 10SM BKN031 BKN110 09/02 A3026 RMK AO2 SLP256 T00890022=
201104111853 METAR KSEA 111853Z 21012G22KT 10SM SCT027 BKN110 07/01 A3026 RMK AO2 PK WND 22026/1838 SLP253 SHRA SE T00720011=
201104111753 METAR KSEA 111753Z 20020G27KT 10SM FEW020 08/02 A3023 RMK AO2 PK WND 20027/1753 SLP244 T00780022 10083 20050 51023=
201104111653 METAR KSEA 111653Z 20016G24KT 10SM SCT018 SCT110 07/03 A3021 RMK AO2 SLP238 T00720028=
201104111553 METAR KSEA 111553Z 20018KT 10SM SCT016 SCT110 06/02 A3019 RMK AO2 SLP231 T00610022=
201104111516 SPECI KSEA 111516Z 20013G22KT 10SM BKN015 BKN110 06/03 A3017 RMK AO2=
201104111516 SPECI KSEA 111516Z 20013G22KT 10SM BKN015 BKN110 06/03 A3017 RMK AO2=
201104111459 SPECI KSEA 111459Z 21014G23KT 10SM SCT015 SCT110 05/03 A3016 RMK AO2=
201104111459 SPECI KSEA 111459Z 21014G23KT 10SM SCT015 SCT110 05/03 A3016 RMK AO2=
201104111453 METAR KSEA 111453Z 20013G20KT 10SM BKN015 BKN110 06/03 A3016 RMK AO2 SLP222 T00560028 53024=
201104111429 SPECI KSEA 111429Z 21014KT 10SM BKN017 BKN100 BKN200 06/03 A3015 RMK AO2=
201104111429 SPECI KSEA 111429Z 21014KT 10SM BKN017 BKN100 BKN200 06/03 A3015 RMK AO2=
201104111353 METAR KSEA 111353Z 21015G21KT 10SM FEW020 SCT090 SCT200 05/03 A3013 RMK AO2 SLP211 T00500028=
201104111253 METAR KSEA 111253Z 21014G22KT 10SM SCT015 BKN085 BKN100 06/03 A3011 RMK AO2 SLP203 T00560033=
201104111153 METAR KSEA 111153Z 21010KT 10SM SCT013 BKN075 OVC090 06/04 A3009 RMK AO2 SLP196 60004 70016 T00560039 10089 20056 51015=
201104111053 METAR KSEA 111053Z 20012G18KT 10SM FEW015 SCT020 BKN080 06/04 A3008 RMK AO2 SLP193 T00610039=
201104110953 METAR KSEA 110953Z 21013G20KT 10SM FEW020 BKN070 OVC110 06/04 A3006 RMK AO2 SLP185 T00610039=
201104110853 METAR KSEA 110853Z 20013G18KT 10SM FEW025 BKN055 OVC095 06/04 A3004 RMK AO2 RAE28 SLP180 P0000 60004 T00610039 53022=
201104110836 SPECI KSEA 110836Z 20010G17KT 10SM SCT020 BKN055 OVC085 06/04 A3004 RMK AO2 RAE28 P0000=
201104110836 SPECI KSEA 110836Z 20010G17KT 10SM SCT020 BKN055 OVC085 06/04 A3004 RMK AO2 RAE28 P0000=
201104110753 METAR KSEA 110753Z 22013G17KT 10SM -RA FEW010 BKN020 OVC027 07/05 A3003 RMK AO2 SLP175 P0004 T00670050 401280067=
201104110705 SPECI KSEA 110705Z 19011KT 9SM -RA BKN028 OVC035 08/06 A2999 RMK AO2 P0001=
201104110705 SPECI KSEA 110705Z 19011KT 9SM -RA BKN028 OVC035 08/06 A2999 RMK AO2 P0001=
201104110653 METAR KSEA 110653Z 18011G18KT 10SM -RA OVC030 09/06 A2999 RMK AO2 SLP163 P0000 T00890061=
201104110553 METAR KSEA 110553Z 17015KT 10SM -RA BKN060 OVC070 09/06 A2998 RMK AO2 SLP158 P0000 60007 T00890061 10117 20089 58001=
201104110453 METAR KSEA 110453Z 17011KT 10SM -RA OVC040 09/07 A2998 RMK AO2 SLP161 P0002 T00890067=
201104110353 METAR KSEA 110353Z 18012G21KT 10SM -RA FEW030 OVC040 09/08 A2999 RMK AO2 SLP164 P0004 T00940078=
201104110253 METAR KSEA 110253Z 21014KT 10SM -RA BKN032 OVC041 10/07 A2998 RMK AO2 SLP159 P0001 60001 T01000067 55003=
201104110153 METAR KSEA 110153Z 19011G18KT 10SM -RA OVC041 11/06 A2997 RMK AO2 PK WND 18027/0123 RAB0054E33B53 SLP154 P0000 T01110061=
201104110053 METAR KSEA 110053Z 19012KT 10SM OVC045 11/06 A2998=
201104102353 METAR KSEA 102353Z 17013KT 10SM OVC045 11/07 A2999 RMK AO2 RAE22 SLP162 P0001 60003 T01110067 10128 20106 58010=
201104102253 METAR KSEA 102253Z 19009KT 8SM -RA OVC037 11/07 A3001 RMK AO2 RAB18 SLP171 P0002 T01060067=
201104102203 SPECI KSEA 102203Z 18010KT 10SM BKN026 OVC031 11/06 A3002 RMK AO2=
201104102203 SPECI KSEA 102203Z 18010KT 10SM BKN026 OVC031 11/06 A3002 RMK AO2=
201104102153 METAR KSEA 102153Z 20011KT 10SM SCT026 BKN033 OVC050 11/06 A3002 RMK AO2 RAE03B23E34 SLP172 P0000 T01110061=
201104102053 METAR KSEA 102053Z 21011G19KT 170V240 10SM -RA BKN035 BKN045 OVC070 11/07 A3002 RMK AO2 RAB36 SLP172 P0000 60000 T01110067 53003=
201104101953 METAR KSEA 101953Z 21014G19KT 10SM FEW030 SCT044 BKN065 13/06 A3001 RMK AO2 RAE22 SLP170 P0000 T01280061=
201104101853 METAR KSEA 101853Z 19010KT 10SM -RA BKN030 OVC041 11/07 A3002 RMK AO2 RAB40 SLP172 P0000 T01110067=
201104101753 METAR KSEA 101753Z 17011KT 10SM OVC034 11/06 A3001=
201104101653 METAR KSEA 101653Z 16009KT 10SM OVC028 09/06 A3001 RMK AO2 RAE07 SLP169 P0001 T00890061 $=
201104101553 METAR KSEA 101553Z 16008KT 10SM -RA OVC028 08/06 A3000 RMK AO2 RAB32 SLP167 P0000 T00780056 $=
201104101453 METAR KSEA 101453Z 15008KT 9SM OVC032 07/06 A3000 RMK AO2 RAE47 SLP166 P0000 60001 T00720056 55001 $=
201104101353 METAR KSEA 101353Z 15009KT 10SM -RA OVC030 07/05 A2999 RMK AO2 RAB50 SLP161 P0000 T00670050 $=
201104101253 METAR KSEA 101253Z 15008KT 10SM OVC030 07/05 A2999 RMK AO2 RAE26 SLP161 P0001 T00670050 $=
201104101153 METAR KSEA 101153Z 15008KT 10SM -RA SCT030 BKN040 OVC055 07/05 A3000 RMK AO2 SLP167 P0000 60001 70001 T00670050 10078 20067 58007 $=
201104101053 METAR KSEA 101053Z 17007KT 10SM -RA OVC030 07/05 A3001 RMK AO2 RAB39 SLP171 P0000 T00670050 $=
201104100953 METAR KSEA 100953Z 16006KT 10SM FEW025 OVC035 07/06 A3002 RMK AO2 RAB29E46 SLP173 P0000 T00670056 $=
201104100853 METAR KSEA 100853Z 18006KT 10SM FEW020 BKN030 OVC040 07/05 A3002 RMK AO2 RAE00 SLP174 P0000 60001 T00670050 51004 $=
201104100839 SPECI KSEA 100839Z 17006KT 10SM FEW019 BKN030 OVC080 07/05 A3002 RMK AO2 RAE00 P0000 $=
201104100839 SPECI KSEA 100839Z 17006KT 10SM FEW019 BKN030 OVC080 07/05 A3002 RMK AO2 RAE00 P0000 $=
201104100826 SPECI KSEA 100826Z 17007KT 10SM SCT015 BKN025 OVC080 07/05 A3002 RMK AO2 RAE00 P0000 $=
201104100826 SPECI KSEA 100826Z 17007KT 10SM SCT015 BKN025 OVC080 07/05 A3002 RMK AO2 RAE00 P0000 $=
201104100805 SPECI KSEA 100805Z 16008KT 10SM SCT015 BKN030 OVC080 07/06 A3002 RMK AO2 RAE00 P0000 $=
201104100805 SPECI KSEA 100805Z 16008KT 10SM SCT015 BKN030 OVC080 07/06 A3002 RMK AO2 RAE00 P0000 $=
201104100753 METAR KSEA 100753Z 17007KT 10SM -RA FEW012 BKN018 OVC020 07/06 A3002 RMK AO2 SLP174 P0001 T00670056 401280056 $=
201104100702 SPECI KSEA 100702Z 17006KT 10SM -RA FEW015 BKN020 OVC060 07/06 A3002 RMK AO2 P0000 $=
201104100702 SPECI KSEA 100702Z 17006KT 10SM -RA FEW015 BKN020 OVC060 07/06 A3002 RMK AO2 P0000 $=
201104100653 METAR KSEA 100653Z 18005KT 10SM -RA FEW020 BKN040 OVC060 07/06 A3002 RMK AO2 RAB33 SLP173 P0000 T00720056 $=
201104100553 METAR KSEA 100553Z 21008KT 10SM SCT035 OVC070 08/04 A3001 RMK AO2 SLP171 T00780039 10117 20078 51014 $=
201104100453 METAR KSEA 100453Z 21009KT 10SM OVC070 08/03 A3000 RMK AO2 SLP167 T00780033 $=
201104100353 METAR KSEA 100353Z 22009KT 10SM FEW055 OVC075 08/04 A2999 RMK AO2 SLP163 T00830039 $=
201104100253 METAR KSEA 100253Z 25008KT 10SM SCT045 OVC100 09/03 A2997 RMK AO2 SLP157 T00890033 53006 $=
201104100153 METAR KSEA 100153Z 23007KT 10SM FEW020 OVC045 10/03 A2996 RMK AO2 SLP153 T01000028 $=
201104100053 METAR KSEA 100053Z 23009KT 10SM FEW041 OVC085 11/03 A2996 RMK AO2 SLP151 T01060028 $=
201104092353 METAR KSEA 092353Z 24008KT 10SM SCT070 OVC090 12/02 A2995 RMK AO2 SLP151 T01170022 10128 20083 55001 $=
201104092253 METAR KSEA 092253Z 23009KT 10SM FEW033 BKN100 BKN180 11/02 A2995 RMK AO2 SLP149 T01110017 $=
201104092153 METAR KSEA 092153Z 19008G16KT 10SM FEW033 SCT100 BKN190 12/02 A2995 RMK AO2 SLP149 T01220022 $=
201104092053 METAR KSEA 092053Z 20009KT 10SM SCT033 BKN100 BKN200 11/03 A2996 RMK AO2 SLP152 T01110028 58006 $=
201104091953 METAR KSEA 091953Z 21011KT 10SM FEW023 BKN070 BKN100 11/03 A2996 RMK AO2 SLP154 T01060033 $=
201104091853 METAR KSEA 091853Z 20010G15KT 110V300 10SM SCT028 BKN070 OVC095 09/03 A2997 RMK AO2 SLP156 T00890033 $=
201104091753 METAR KSEA 091753Z 20010KT 10SM SCT021 BKN028 OVC070 08/03 A2998 RMK AO2 SLP158 T00780033 10078 20056 51008 $=
201104091653 METAR KSEA 091653Z 21009KT 10SM BKN017 OVC021 07/03 A2997=
201104091619 SPECI KSEA 091619Z 21008KT 10SM FEW014 BKN017 BKN070 07/03 A2996 RMK AO2 $=
201104091619 SPECI KSEA 091619Z 21008KT 10SM FEW014 BKN017 BKN070 07/03 A2996 RMK AO2 $=
201104091553 METAR KSEA 091553Z 20009KT 10SM FEW014 BKN070 BKN085 BKN200 07/03 A2996=
201104091453 METAR KSEA 091453Z 17005KT 10SM FEW012 BKN120 BKN200 06/03 A2995 RMK AO2 SLP150 T00610033 53006 $=
201104091353 METAR KSEA 091353Z 19005KT 10SM SCT012 BKN095 BKN150 06/03 A2994=
201104091253 METAR KSEA 091253Z 17008KT 10SM BKN070 OVC100 06/03 A2993 RMK AO2 SLP142 T00610033 $=
201104091153 METAR KSEA 091153Z 18007KT 10SM BKN065 OVC075 07/03 A2993=
201104091053 METAR KSEA 091053Z 18005KT 10SM BKN075 OVC085 07/03 A2994 RMK AO2 SLP144 T00670033 $=
201104090953 METAR KSEA 090953Z 00000KT 10SM SCT065 OVC080 07/04 A2994 RMK AO2 SLP146 T00720039 $=
201104090853 METAR KSEA 090853Z 00000KT 10SM BKN070 OVC090 07/03 A2994 RMK AO2 SLP146 T00720033 55003 $=
201104090753 METAR KSEA 090753Z 00000KT 10SM SCT070 BKN120 08/02 A2994 RMK AO2 SLP146 T00780022 401220011 $=
201104090653 METAR KSEA 090653Z 00000KT 10SM SCT075 BKN200 09/02 A2994 RMK AO2 SLP147 T00890017 $=
201104090553 METAR KSEA 090553Z 00000KT 10SM BKN070 09/01 A2995 RMK AO2 SLP149 T00940011 10122 20089 51001 $=
201104090453 METAR KSEA 090453Z 34005KT 10SM BKN070 09/01 A2995 RMK AO2 SLP150 T00940011 $=
201104090353 METAR KSEA 090353Z 30003KT 10SM BKN070 09/01 A2995=
201104090253 METAR KSEA 090253Z 29004KT 10SM SCT070 BKN090 BKN200 09/01 A2995=
201104090153 METAR KSEA 090153Z 29004KT 10SM BKN080 BKN250 11/00 A2995=
201104090053 METAR KSEA 090053Z 29006KT 10SM FEW035 SCT080 BKN250 12/M01 A2996 RMK AO2 SLP154 T01171006 $=
201104082353 METAR KSEA 082353Z 32007KT 10SM FEW035 BKN250 12/M01 A2996 RMK AO2 SLP155 T01221011 10122 20067 56019 $=
201104082253 METAR KSEA 082253Z 31004KT 10SM FEW035 BKN250 12/01 A2998 RMK AO2 SLP160 T01170011=
201104082153 METAR KSEA 082153Z 30008KT 10SM FEW035 BKN250 12/01 A3000 RMK AO2 SLP167 T01170011=
201104082053 METAR KSEA 082053Z 28004KT 10SM FEW031 BKN250 11/02 A3002 RMK AO2 SLP174 T01110022 58013 $=
201104081953 METAR KSEA 081953Z 03004KT 10SM FEW021 SCT250 10/03 A3004 RMK AO2 SLP179 T01000028 $=
201104081853 METAR KSEA 081853Z 06005KT 10SM SCT017 BKN250 09/03 A3006 RMK AO2 SLP187 T00890028 $=
201104081753 METAR KSEA 081753Z 05004KT 10SM FEW011 BKN016 BKN250 07/03 A3006 RMK AO2 SLP187 T00720028 10078 20017 58003 $=
201104081728 SPECI KSEA 081728Z 00000KT 10SM FEW010 BKN015 07/03 A3006 RMK AO2=
201104081728 SPECI KSEA 081728Z 00000KT 10SM FEW010 BKN015 07/03 A3006 RMK AO2=
201104081653 METAR KSEA 081653Z 00000KT 10SM BKN010 BKN021 05/02 A3007 RMK AO2 SLP189 T00500022=
201104081553 METAR KSEA 081553Z 00000KT 8SM BKN010 OVC016 04/01 A3006 RMK AO2 SLP189 T00390011=
201104081524 SPECI KSEA 081524Z 00000KT 8SM BKN012 OVC018 04/01 A3006 RMK AO2=
201104081524 SPECI KSEA 081524Z 00000KT 8SM BKN012 OVC018 04/01 A3006 RMK AO2=
201104081453 METAR KSEA 081453Z 13004KT 8SM FEW012 BKN020 03/02 A3007 RMK AO2 SLP190 T00330017 53011=
201104081353 METAR KSEA 081353Z 15004KT 7SM BKN024 BKN100 02/01 A3006 RMK AO2 SLP186 FG BANK W T00220011=
201104081253 METAR KSEA 081253Z 00000KT 7SM BKN024 02/01 A3005 RMK AO2 SLP183 T00220006=
201104081219 SPECI KSEA 081219Z 32003KT 7SM BKN022 02/01 A3005 RMK AO2=
201104081219 SPECI KSEA 081219Z 32003KT 7SM BKN022 02/01 A3005 RMK AO2=
201104081153 METAR KSEA 081153Z 00000KT 7SM FEW180 02/01 A3004 RMK AO2 SLP179 70007 T00170006 10056 20011 58003=
201104081053 METAR KSEA 081053Z 00000KT 10SM CLR 03/02 A3004 RMK AO2 SLP180 T00330017=
201104080953 METAR KSEA 080953Z 00000KT 10SM FEW080 03/01 A3004 RMK AO2 SLP183 T00330011=
201104080853 METAR KSEA 080853Z 00000KT 10SM FEW080 03/01 A3004 RMK AO2 SLP183 T00280011 50003=
201104080753 METAR KSEA 080753Z 00000KT 10SM FEW080 04/02 A3005 RMK AO2 SLP185 T00390017 400940006=
201104080653 METAR KSEA 080653Z 14004KT 10SM CLR 04/02 A3004 RMK AO2 SLP180 T00440017=
201104080553 METAR KSEA 080553Z 10005KT 10SM SCT075 06/02 A3004 RMK AO2 SLP180 T00560017 10094 20056 53012=
201104080453 METAR KSEA 080453Z 12005KT 10SM BKN085 06/02 A3002=
201104080353 METAR KSEA 080353Z 06005KT 10SM BKN090 07/01 A3001 RMK AO2 SLP170 T00720006=
201104080253 METAR KSEA 080253Z 36009KT 10SM FEW035 SCT080 SCT200 07/00 A3000 RMK AO2 SLP168 T00720000 53008=
201104080153 METAR KSEA 080153Z 35010KT 10SM SCT034 BKN070 BKN200 08/01 A2999 RMK AO2 SLP163 T00830006=
201104080053 METAR KSEA 080053Z 36008KT 10SM FEW031 SCT060 BKN200 09/01 A2999 RMK AO2 SLP162 T00890006=
201104072353 METAR KSEA 072353Z 36007KT 10SM FEW026 BKN032 BKN050 09/01 A2998 RMK AO2 SLP159 60001 T00890011 10094 20039 56008=
201104072253 METAR KSEA 072253Z 04005KT 10SM FEW023 BKN047 BKN055 08/03 A2998 RMK AO2 SLP161 T00830028=
201104072245 SPECI KSEA 072245Z 03004KT 10SM FEW023 BKN047 BKN055 08/03 A2998 RMK AO2=
201104072245 SPECI KSEA 072245Z 03004KT 10SM FEW023 BKN047 BKN055 08/03 A2998 RMK AO2=
201104072226 SPECI KSEA 072226Z 05005KT 10SM BKN023 BKN038 BKN055 07/02 A2998 RMK AO2=
201104072226 SPECI KSEA 072226Z 05005KT 10SM BKN023 BKN038 BKN055 07/02 A2998 RMK AO2=
201104072153 METAR KSEA 072153Z 03005KT 10SM FEW013 BKN032 BKN060 07/03 A2999 RMK AO2 RAE35 SLP163 P0000 T00670033=
201104072139 SPECI KSEA 072139Z 36003KT 10SM SCT017 BKN032 BKN055 06/03 A2999 RMK AO2 RAE35 P0000=
201104072139 SPECI KSEA 072139Z 36003KT 10SM SCT017 BKN032 BKN055 06/03 A2999 RMK AO2 RAE35 P0000=
201104072053 METAR KSEA 072053Z 35007KT 7SM -RA FEW009 BKN020 OVC050 05/02 A3000=
201104071953 METAR KSEA 071953Z 36006KT 5SM -RA SCT009 BKN016 OVC031 05/02 A2999 RMK AO2 RAB39 SLP165 P0000 T00500022=
201104071918 SPECI KSEA 071918Z 05007KT 10SM SCT009 BKN020 BKN046 06/03 A2999 RMK AO2=
201104071918 SPECI KSEA 071918Z 05007KT 10SM SCT009 BKN020 BKN046 06/03 A2999 RMK AO2=
201104071853 METAR KSEA 071853Z 03007KT 10SM BKN009 BKN046 BKN200 04/02 A2999 RMK AO2 RAB15E41 SLP165 P0000 T00440022=
201104071753 METAR KSEA 071753Z 30003KT 7SM BKN007 OVC019 04/03 A2998 RMK AO2 RAB25E36 SLP162 P0000 60006 T00440028 10044 20022 53010=
201104071653 METAR KSEA 071653Z 26003KT 4SM BR BKN007 BKN020 OVC045 03/02 A2997 RMK AO2 RAE50 SLP159 P0000 T00330022=
201104071553 METAR KSEA 071553Z 00000KT 3SM -RA BR BKN005 BKN018 OVC049 03/02 A2996 RMK AO2 SFC VIS 6 RAB28 SLP156 BKN005 V SCT P0000 T00330017=
201104071453 METAR KSEA 071453Z 05003KT 3SM BR BKN007 BKN025 BKN032 03/02 A2995 RMK AO2 SFC VIS 5 RAE19 SLP152 P0000 60006 T00280017 53007=
201104071419 SPECI KSEA 071419Z 05003KT 8SM BKN008 BKN021 OVC030 02/01 A2994 RMK AO2 RAE19 P0000 $=
201104071419 SPECI KSEA 071419Z 05003KT 8SM BKN008 BKN021 OVC030 02/01 A2994 RMK AO2 RAE19 P0000 $=
201104071353 METAR KSEA 071353Z 01003KT 8SM -RA FEW007 BKN022 OVC038 03/01 A2994 RMK AO2 SLP147 P0004 T00280011 $=
201104071253 METAR KSEA 071253Z 00000KT 7SM -RA FEW006 OVC012 02/01 A2993 RMK AO2 SLP145 P0002 T00220011 $=
201104071231 SPECI KSEA 071231Z 36004KT 5SM -RA BR SCT008 BKN011 OVC016 02/01 A2993 RMK AO2 P0001 $=
201104071231 SPECI KSEA 071231Z 36004KT 5SM -RA BR SCT008 BKN011 OVC016 02/01 A2993 RMK AO2 P0001 $=
201104071223 SPECI KSEA 071223Z 34003KT 6SM -RA BR SCT008 BKN017 OVC027 02/02 A2993 RMK AO2 P0000 $=
201104071223 SPECI KSEA 071223Z 34003KT 6SM -RA BR SCT008 BKN017 OVC027 02/02 A2993 RMK AO2 P0000 $=
201104071153 METAR KSEA 071153Z 00000KT 5SM -RA BR FEW015 BKN025 OVC033 02/02 A2992 RMK AO2 SLP141 RAB32 P0001 60001 70012 T00220017 10022 20006 53007 $=
201104071131 SPECI KSEA 071131Z 00000KT 5SM BR FEW001 BKN029 OVC038 02/01 A2992 RMK AO2=
201104071131 SPECI KSEA 071131Z 00000KT 5SM BR FEW001 BKN029 OVC038 02/01 A2992 RMK AO2=
201104071053 METAR KSEA 071053Z 05003KT 1 3/4SM BR BKN003 OVC029 01/01 A2991 RMK AO2 SLP139 T00110006=
201104071045 SPECI KSEA 071045Z 00000KT 1 3/4SM R16L/4500VP6000FT BR BKN003 BKN033 OVC042 01/01 A2991 RMK AO2=
201104071045 SPECI KSEA 071045Z 00000KT 1 3/4SM R16L/4500VP6000FT BR BKN003 BKN033 OVC042 01/01 A2991 RMK AO2=
201104071013 SPECI KSEA 071013Z 00000KT 1/2SM R16L/1200VP6000FT FG BKN003 01/00 A2991 RMK AO2=
201104071013 SPECI KSEA 071013Z 00000KT 1/2SM R16L/1200VP6000FT FG BKN003 01/00 A2991 RMK AO2=
201104070958 SPECI KSEA 070958Z 11003KT 3SM R16L/5500VP6000FT BR BKN003 01/00 A2990 RMK AO2=
201104070958 SPECI KSEA 070958Z 11003KT 3SM R16L/5500VP6000FT BR BKN003 01/00 A2990 RMK AO2=
201104070953 METAR KSEA 070953Z 00000KT 3SM R16L/5500VP6000FT BR FEW001 SCT027 01/00 A2990 RMK AO2 SLP135 T00060000=
201104070922 SPECI KSEA 070922Z 00000KT 5SM BR FEW001 SCT027 02/01 A2990 RMK AO2=
201104070922 SPECI KSEA 070922Z 00000KT 5SM BR FEW001 SCT027 02/01 A2990 RMK AO2=
201104070853 METAR KSEA 070853Z 13003KT 1 1/2SM BR FEW001 BKN027 01/01 A2990 RMK AO2 SLP133 T00110006 53004=
201104070846 SPECI KSEA 070846Z 00000KT 3SM BR FEW001 BKN027 01/00 A2990 RMK AO2=
201104070846 SPECI KSEA 070846Z 00000KT 3SM BR FEW001 BKN027 01/00 A2990 RMK AO2=
201104070835 SPECI KSEA 070835Z 00000KT 4SM BR FEW001 SCT046 01/00 A2990 RMK AO2=
201104070835 SPECI KSEA 070835Z 00000KT 4SM BR FEW001 SCT046 01/00 A2990 RMK AO2=
201104070753 METAR KSEA 070753Z 00000KT 5SM BR FEW046 02/01 A2989 RMK AO2 SLP132 T00170006 400890011=
201104070725 SPECI KSEA 070725Z 00000KT 4SM R16L/2200VP6000FT BR FEW002 SCT100 01/01 A2990 RMK AO2 $=
201104070725 SPECI KSEA 070725Z 00000KT 4SM R16L/2200VP6000FT BR FEW002 SCT100 01/01 A2990 RMK AO2 $=
201104070715 SPECI KSEA 070715Z 00000KT 1 3/4SM BR BKN002 02/01 A2989 RMK AO2=
201104070715 SPECI KSEA 070715Z 00000KT 1 3/4SM BR BKN002 02/01 A2989 RMK AO2=
201104070704 SPECI KSEA 070704Z 07004KT 4SM BR BKN002 02/01 A2989 RMK AO2=
201104070704 SPECI KSEA 070704Z 07004KT 4SM BR BKN002 02/01 A2989 RMK AO2=
201104070653 METAR KSEA 070653Z 06003KT 1 1/2SM BR OVC002 02/01 A2989 RMK AO2 SLP130 T00170011=
201104070557 SPECI KSEA 070557Z 09003KT 1 1/2SM BR BKN002 BKN012 OVC020 02/01 A2989 RMK AO2 SFC VIS 4=
201104070557 SPECI KSEA 070557Z 09003KT 1 1/2SM BR BKN002 BKN012 OVC020 02/01 A2989 RMK AO2 SFC VIS 4=
201104070553 METAR KSEA 070553Z 08003KT 7SM SCT002 BKN012 BKN021 02/01 A2989 RMK AO2 SLP129 60011 T00220011 10072 20022 51014=
201104070545 SPECI KSEA 070545Z 07005KT 7SM FEW002 BKN020 BKN060 03/01 A2989 RMK AO2=
201104070545 SPECI KSEA 070545Z 07005KT 7SM FEW002 BKN020 BKN060 03/01 A2989 RMK AO2=
201104070538 SPECI KSEA 070538Z 05004KT 10SM FEW012 BKN020 BKN060 03/01 A2989 RMK AO2=
201104070538 SPECI KSEA 070538Z 05004KT 10SM FEW012 BKN020 BKN060 03/01 A2989 RMK AO2=
201104070453 METAR KSEA 070453Z 10005KT 10SM FEW003 BKN049 OVC090 03/01 A2988=
201104070436 SPECI KSEA 070436Z 10004KT 10SM FEW003 SCT023 OVC095 03/01 A2987 RMK AO2 RAE06 P0000=
201104070436 SPECI KSEA 070436Z 10004KT 10SM FEW003 SCT023 OVC095 03/01 A2987 RMK AO2 RAE06 P0000=
201104070353 METAR KSEA 070353Z 08008KT 7SM -RA FEW003 BKN018 OVC024 03/02 A2987 RMK AO2 SLP123 P0006 T00280017=
201104070345 SPECI KSEA 070345Z 07007KT 7SM -RA FEW005 BKN015 OVC024 03/02 A2986 RMK AO2 P0006=
201104070345 SPECI KSEA 070345Z 07007KT 7SM -RA FEW005 BKN015 OVC024 03/02 A2986 RMK AO2 P0006=
201104070253 METAR KSEA 070253Z 02007KT 10SM -RA FEW004 BKN013 OVC018 04/02 A2985 RMK AO2 SLP116 P0005 60005 T00390022 53008=
201104070205 SPECI KSEA 070205Z 36005KT 4SM -RA BR FEW017 BKN027 OVC045 04/03 A2984 RMK AO2 P0002=
201104070205 SPECI KSEA 070205Z 36005KT 4SM -RA BR FEW017 BKN027 OVC045 04/03 A2984 RMK AO2 P0002=
201104070153 METAR KSEA 070153Z 36008KT 8SM -RA SCT025 BKN036 BKN100 05/02 A2984 RMK AO2 RAB12 SLP113 P0000 T00500017=
201104070053 METAR KSEA 070053Z 18013G17KT 10SM SCT025CB SCT100 BKN200 07/01 A2982 RMK AO2 SLP106 CB N MOV NE SHRA W-N T00720011=
201104062353 METAR KSEA 062353Z 20010G16KT 10SM SCT026 SCT100 BKN200 07/02 A2982 RMK AO2 SLP106 CB DSNT NW-N 60000 T00720017 10089 20050 55011=
201104062253 METAR KSEA 062253Z 22013G18KT 10SM SCT026 SCT200 09/01 A2982 RMK AO2 SLP106 CB DSNT NW T00890011=
201104062153 METAR KSEA 062153Z 20013G17KT 10SM SCT026 SCT200 08/01 A2983 RMK AO2 RAE13 SLP111 CB DSNT W-N P0000 T00780011=
201104062118 SPECI KSEA 062118Z 19010KT 10SM SCT025 SCT200 07/01 A2985 RMK AO2 RAE13 CB DSNT NW P0000 $=
201104062118 SPECI KSEA 062118Z 19010KT 10SM SCT025 SCT200 07/01 A2985 RMK AO2 RAE13 CB DSNT NW P0000 $=
201104062053 METAR KSEA 062053Z 23012KT 10SM -RA BKN019 BKN033 05/02 A2986 RMK AO2 RAB41 SLP119 P0000 60000 T00500017 55007=
201104062046 SPECI KSEA 062046Z 23013G18KT 10SM -RA BKN019 BKN030 05/02 A2986 RMK AO2 RAB41 P0000=
201104062046 SPECI KSEA 062046Z 23013G18KT 10SM -RA BKN019 BKN030 05/02 A2986 RMK AO2 RAB41 P0000=
201104061953 METAR KSEA 061953Z 21013KT 10SM SCT026 BKN200 07/01 A2985 RMK AO2 SLP116 SHRA SW-NW T00720006=
201104061853 METAR KSEA 061853Z 20013G19KT 10SM SCT023 SCT200 07/02 A2986 RMK AO2 SLP121 T00720017=
201104061805 SPECI KSEA 061805Z 20012KT 10SM SCT022 BKN200 07/02 A2988 RMK AO2=
201104061805 SPECI KSEA 061805Z 20012KT 10SM SCT022 BKN200 07/02 A2988 RMK AO2=
201104061800 METAR KSEA NIL=
201104061753 METAR KSEA 061753Z 21013G18KT 10SM BKN020 BKN200 07/02 A2988 RMK AO2 SLP125 T00720022 10072 20033 58004=
201104061716 SPECI KSEA 061716Z 20013G21KT 10SM SCT017 BKN023 BKN200 06/02 A2988 RMK AO2=
201104061716 SPECI KSEA 061716Z 20013G21KT 10SM SCT017 BKN023 BKN200 06/02 A2988 RMK AO2=
201104061653 METAR KSEA 061653Z 21015KT 10SM SCT016 SCT023 BKN200 06/02 A2989 RMK AO2 SLP129 T00560017=
201104061553 METAR KSEA 061553Z 19018G23KT 10SM SCT016 BKN100 BKN200 04/01 A2988 RMK AO2 SLP128 T00390011=
201104061453 METAR KSEA 061453Z 19011KT 10SM BKN016 BKN200 04/02 A2989 RMK AO2 SLP131 T00390017 53006=
201104061400 METAR KSEA NIL=
201104061353 METAR KSEA 061353Z 19010G22KT 10SM BKN015 BKN100 03/01 A2988 RMK AO2 SLP126 T00330011=
201104061342 SPECI KSEA 061342Z 20012G20KT 10SM BKN014 BKN095 03/02 A2987 RMK AO2=
201104061342 SPECI KSEA 061342Z 20012G20KT 10SM BKN014 BKN095 03/02 A2987 RMK AO2=
201104061253 METAR KSEA 061253Z 20015G22KT 10SM SCT015 BKN095 03/02 A2986 RMK AO2 PK WND 20026/1220 SLP119 T00330017=
201104061153 METAR KSEA 061153Z 20017G22KT 10SM BKN015 04/02 A2987 RMK AO2 SLP123 60008 70024 T00390022 10050 20039 55006=
201104061140 SPECI KSEA 061140Z 19012G19KT 10SM FEW008 BKN013 04/02 A2987 RMK AO2=
201104061140 SPECI KSEA 061140Z 19012G19KT 10SM FEW008 BKN013 04/02 A2987 RMK AO2=
201104061131 SPECI KSEA 061131Z 19014G22KT 10SM SCT010 OVC015 04/03 A2987 RMK AO2=
201104061131 SPECI KSEA 061131Z 19014G22KT 10SM SCT010 OVC015 04/03 A2987 RMK AO2=
201104061053 METAR KSEA 061053Z 19013G19KT 10SM BKN010 BKN016 OVC021 04/03 A2987 RMK AO2 RAB24E33 SLP123 P0000 T00390033=
201104060953 METAR KSEA 060953Z 18010G21KT 10SM BKN013 OVC021 04/04 A2988 RMK AO2 SLP125 T00440039=
201104060853 METAR KSEA 060853Z 19014G24KT 10SM BKN010 BKN017 OVC025 04/04 A2989 RMK AO2 RAE53 SLP129 P0001 60008 T00440039 58016=
201104060753 METAR KSEA 060753Z 18012G18KT 10SM -RA BKN010 OVC013 05/04 A2991 RMK AO2 RAE06B23 SLP135 P0002 T00500044 400780050=
201104060716 SPECI KSEA 060716Z 19011G17KT 10SM BKN010 OVC016 05/04 A2992 RMK AO2 RAE06 CIG 007V014 P0000=
201104060716 SPECI KSEA 060716Z 19011G17KT 10SM BKN010 OVC016 05/04 A2992 RMK AO2 RAE06 CIG 007V014 P0000=
201104060709 SPECI KSEA 060709Z 20014KT 10SM FEW008 BKN016 OVC023 05/04 A2992 RMK AO2 RAE06 P0000=
201104060709 SPECI KSEA 060709Z 20014KT 10SM FEW008 BKN016 OVC023 05/04 A2992 RMK AO2 RAE06 P0000=
201104060700 METAR KSEA NIL=
201104060653 METAR KSEA 060653Z 20013KT 10SM -RA BKN010 OVC015 05/04 A2993 RMK AO2 SLP142 P0005 T00500044=
201104060617 SPECI KSEA 060617Z 20013G19KT 10SM -RA BKN010 OVC016 05/03 A2993 RMK AO2 CIG 007V013 P0002=
201104060617 SPECI KSEA 060617Z 20013G19KT 10SM -RA BKN010 OVC016 05/03 A2993 RMK AO2 CIG 007V013 P0002=
201104060606 SPECI KSEA 060606Z 19011G17KT 10SM -RA FEW009 BKN016 OVC022 05/03 A2993 RMK AO2 P0002=
201104060606 SPECI KSEA 060606Z 19011G17KT 10SM -RA FEW009 BKN016 OVC022 05/03 A2993 RMK AO2 P0002=
201104060553 METAR KSEA 060553Z 19008G17KT 10SM -RA BKN014 OVC019 05/03 A2994 RMK AO2 SLP146 P0002 60004 T00500033 10078 20050 58009=
201104060544 SPECI KSEA 060544Z 20010KT 10SM -RA FEW010 BKN015 OVC021 05/03 A2994 RMK AO2 P0002=
201104060544 SPECI KSEA 060544Z 20010KT 10SM -RA FEW010 BKN015 OVC021 05/03 A2994 RMK AO2 P0002=
201104060453 METAR KSEA 060453Z 19010KT 10SM -RA FEW010 BKN014 OVC024 06/04 A2996 RMK AO2 RAB10 SLP152 P0001 T00560039=
201104060432 SPECI KSEA 060432Z 20010KT 10SM -RA FEW009 BKN014 OVC022 06/04 A2996 RMK AO2 RAB10 P0000=
201104060432 SPECI KSEA 060432Z 20010KT 10SM -RA FEW009 BKN014 OVC022 06/04 A2996 RMK AO2 RAB10 P0000=
201104060353 METAR KSEA 060353Z 21013G18KT 10SM SCT015 BKN021 OVC050 06/03 A2997 RMK AO2 RAB31E51 SLP155 P0000 T00560033=
201104060330 SPECI KSEA 060330Z 20013G20KT 10SM FEW013 BKN021 BKN090 06/03 A2997 RMK AO2=
201104060330 SPECI KSEA 060330Z 20013G20KT 10SM FEW013 BKN021 BKN090 06/03 A2997 RMK AO2=
201104060253 METAR KSEA 060253Z 22016G22KT 10SM FEW025 BKN100 BKN200 06/02 A2997 RMK AO2 SLP155 60001 T00610022 58012=
201104060153 METAR KSEA 060153Z 21013G25KT 10SM FEW024 SCT039 BKN085 06/03 A2998=
201104060053 METAR KSEA 060053Z 21013G22KT 10SM SCT027 BKN075 BKN110 BKN200 08/03 A2999 RMK AO2 RAB15E51 SLP163 P0000 T00780033=
201104052353 METAR KSEA 052353Z 21012G21KT 10SM FEW030 BKN085 BKN110 07/04 A3000 RMK AO2 RAE2259 SLP168 P0000 60012 T00720039 10078 20056 58007=
201104052326 SPECI KSEA 052326Z 21010KT 10SM FEW022 SCT030 BKN090 07/05 A3001 RMK AO2 RAE2259 P0000=
201104052326 SPECI KSEA 052326Z 21010KT 10SM FEW022 SCT030 BKN090 07/05 A3001 RMK AO2 RAE2259 P0000=
201104052300 SPECI KSEA 052300Z 22009KT 10SM BKN026 BKN032 OVC048 07/04 A3002 RMK AO2 RAE2259 P0000=
201104052300 SPECI KSEA 052300Z 22009KT 10SM BKN026 BKN032 OVC048 07/04 A3002 RMK AO2 RAE2259 P0000=
201104052253 METAR KSEA 052253Z 22010G16KT 10SM -RA BKN026 BKN034 OVC080 07/04 A3002 RMK AO2 RAB04 SLP173 P0006 T00670044=
201104052240 SPECI KSEA 052240Z 23013G21KT 6SM -RA BR SCT023 BKN028 OVC034 06/04 A3003 RMK AO2 RAB04 P0006=
201104052240 SPECI KSEA 052240Z 23013G21KT 6SM -RA BR SCT023 BKN028 OVC034 06/04 A3003 RMK AO2 RAB04 P0006=
201104052153 METAR KSEA 052153Z 21010KT 10SM FEW012 SCT027 BKN043 BKN180 07/04 A3003 RMK AO2 RAB2058E50 SLP178 SHRA SE-S-SW P0004 T00720044=
201104052145 SPECI KSEA 052145Z 19010KT 10SM -RA FEW015 SCT027 BKN043 BKN180 07/05 A3003 RMK AO2 RAB2058 P0004=
201104052145 SPECI KSEA 052145Z 19010KT 10SM -RA FEW015 SCT027 BKN043 BKN180 07/05 A3003 RMK AO2 RAB2058 P0004=
201104052053 METAR KSEA 052053Z 19016G23KT 10SM BKN015 BKN028 OVC037 07/04 A3003 RMK AO2 PK WND 19027/2040 RAE21 SLP176 SHRA W-N P0001 60002 T00720039 58010=
201104051953 METAR KSEA 051953Z 20020G27KT 5SM -RA BKN021 OVC032 07/03 A3005 RMK AO2 PK WND 20027/1952 RAB00 SLP184 P0001 T00670033=
201104051853 METAR KSEA 051853Z 21017G27KT 10SM BKN019 BKN080 BKN200 07/02 A3006 RMK AO2 PK WND 19027/1849 RAB36E48 SLP186 P0000 T00720022=
201104051753 METAR KSEA 051753Z 20017G25KT 10SM BKN018 OVC025 07/02 A3005 RMK AO2 SLP185 60000 T00670022 10067 20050 51004=
201104051653 METAR KSEA 051653Z 19013G20KT 10SM BKN017 OVC028 06/02 A3005 RMK AO2 RAB22E33 SLP184 P0000 T00610022=
201104051625 SPECI KSEA 051625Z 19015G21KT 10SM -RA BKN017 BKN080 OVC200 06/03 A3005 RMK AO2 RAB22 P0000=
201104051625 SPECI KSEA 051625Z 19015G21KT 10SM -RA BKN017 BKN080 OVC200 06/03 A3005 RMK AO2 RAB22 P0000=
201104051553 METAR KSEA 051553Z 19014G21KT 10SM FEW017 SCT023 BKN080 BKN200 06/02 A3005=
201104051545 SPECI KSEA 051545Z 21014G21KT 10SM FEW017 SCT022 BKN080 BKN200 05/02 A3005 RMK AO2=
201104051545 SPECI KSEA 051545Z 21014G21KT 10SM FEW017 SCT022 BKN080 BKN200 05/02 A3005 RMK AO2=
201104051453 METAR KSEA 051453Z 21013G21KT 10SM BKN017 BKN100 05/02 A3004 RMK AO2 SLP181 T00500022 53022=
201104051428 SPECI KSEA 051428Z 20014G20KT 10SM BKN019 BKN100 BKN200 05/02 A3003 RMK AO2=
201104051428 SPECI KSEA 051428Z 20014G20KT 10SM BKN019 BKN100 BKN200 05/02 A3003 RMK AO2=
201104051405 SPECI KSEA 051405Z 20015KT 10SM SCT018 BKN100 OVC200 05/02 A3001 RMK AO2=
201104051405 SPECI KSEA 051405Z 20015KT 10SM SCT018 BKN100 OVC200 05/02 A3001 RMK AO2=
201104051353 METAR KSEA 051353Z 20018G23KT 10SM BKN018 BKN110 OVC200 05/02 A3001 RMK AO2 SLP170 T00500022=
201104051253 METAR KSEA 051253Z 20013KT 10SM BKN024 05/02 A3000 RMK AO2 SLP167 T00500017=
201104051153 METAR KSEA 051153Z 20013G21KT 10SM SCT017 BKN100 05/02 A2998 RMK AO2 PK WND 20026/1119 SLP159 70024 T00500022 10072 20050 53012=
201104051053 METAR KSEA 051053Z 21015G24KT 10SM FEW014 SCT100 06/03 A2996 RMK AO2 PK WND 21026/1041 SLP153 T00560028=
201104050953 METAR KSEA 050953Z 22017G22KT 10SM BKN019 06/03 A2995 RMK AO2 SLP151 T00560028=
201104050935 SPECI KSEA 050935Z 21016G23KT 10SM SCT019 BKN023 BKN095 06/03 A2995 RMK AO2=
201104050935 SPECI KSEA 050935Z 21016G23KT 10SM SCT019 BKN023 BKN095 06/03 A2995 RMK AO2=
201104050853 METAR KSEA 050853Z 20014G23KT 10SM FEW019 BKN100 06/03 A2994 RMK AO2 SLP147 T00610028 53016=
201104050824 SPECI KSEA 050824Z 21015G23KT 10SM SCT019 BKN095 06/03 A2994 RMK AO2=
201104050824 SPECI KSEA 050824Z 21015G23KT 10SM SCT019 BKN095 06/03 A2994 RMK AO2=
201104050753 METAR KSEA 050753Z 21015G23KT 10SM BKN019 06/03 A2993 RMK AO2 SLP142 T00610033 400830050=
201104050746 SPECI KSEA 050746Z 21014G23KT 10SM BKN019 06/04 A2993 RMK AO2=
201104050746 SPECI KSEA 050746Z 21014G23KT 10SM BKN019 06/04 A2993 RMK AO2=
201104050653 METAR KSEA 050653Z 21015G24KT 10SM BKN014 07/04 A2990 RMK AO2 PK WND 20026/0642 SLP132 T00670044=
201104050553 METAR KSEA 050553Z 21013G23KT 10SM BKN016 OVC075 07/05 A2989 RMK AO2 SLP131 60008 T00720050 10083 20072 58001=
201104050548 SPECI KSEA 050548Z 21012G19KT 10SM OVC016 07/05 A2990 RMK AO2=
201104050548 SPECI KSEA 050548Z 21012G19KT 10SM OVC016 07/05 A2990 RMK AO2=
201104050453 METAR KSEA 050453Z 20012G20KT 10SM BKN012 OVC100 07/06 A2990 RMK AO2 SLP134 T00720056=
201104050353 METAR KSEA 050353Z 20011G18KT 10SM BKN014 BKN110 07/06 A2990 RMK AO2 RAE0258 SLP132 P0000 T00720056=
201104050331 SPECI KSEA 050331Z 22010KT 10SM BKN012 BKN080 07/06 A2990 RMK AO2 RAE0258 P0000=
201104050331 SPECI KSEA 050331Z 22010KT 10SM BKN012 BKN080 07/06 A2990 RMK AO2 RAE0258 P0000=
201104050310 SPECI KSEA 050310Z 22009G16KT 10SM SCT012 BKN030 OVC080 07/06 A2990 RMK AO2 RAE0258 P0000=
201104050310 SPECI KSEA 050310Z 22009G16KT 10SM SCT012 BKN030 OVC080 07/06 A2990 RMK AO2 RAE0258 P0000=
201104050253 METAR KSEA 050253Z 23011G18KT 10SM -RA SCT008 BKN017 OVC080 07/06 A2990 RMK AO2 SLP132 P0005 60008 T00720056 56018=
201104050224 SPECI KSEA 050224Z 24008KT 9SM -RA BKN006 OVC012 07/06 A2990 RMK AO2 CIG 004V009 P0004=
201104050224 SPECI KSEA 050224Z 24008KT 9SM -RA BKN006 OVC012 07/06 A2990 RMK AO2 CIG 004V009 P0004=
201104050153 METAR KSEA 050153Z 23011G16KT 6SM -RA BR SCT007 BKN012 OVC022 08/06 A2991=
201104050142 SPECI KSEA 050142Z 23011G17KT 8SM -RA SCT007 BKN011 OVC016 08/07 A2991 RMK AO2 RAB0057E06B22 P0001=
201104050142 SPECI KSEA 050142Z 23011G17KT 8SM -RA SCT007 BKN011 OVC016 08/07 A2991 RMK AO2 RAB0057E06B22 P0001=
201104050101 SPECI KSEA 050101Z 18012KT 10SM -RA SCT009 BKN026 OVC033 08/07 A2991 RMK AO2 RAB0057 P0000=
201104050101 SPECI KSEA 050101Z 18012KT 10SM -RA SCT009 BKN026 OVC033 08/07 A2991 RMK AO2 RAB0057 P0000=
201104050053 METAR KSEA 050053Z 18010KT 10SM SCT009 BKN012 OVC033 08/07 A2992 RMK AO2 RAE46 SLP140 P0001 T00830067=
201104050033 SPECI KSEA 050033Z 18011KT 10SM -RA BKN009 OVC016 08/07 A2993 RMK AO2 CIG 005V013 P0001=
201104050033 SPECI KSEA 050033Z 18011KT 10SM -RA BKN009 OVC016 08/07 A2993 RMK AO2 CIG 005V013 P0001=
201104042353 METAR KSEA 042353Z 18009KT 10SM -RA SCT007 BKN028 OVC036 08/07 A2995=
201104042314 SPECI KSEA 042314Z 19008KT 9SM -RA FEW007 OVC013 08/07 A2997 RMK AO2 P0002=
201104042314 SPECI KSEA 042314Z 19008KT 9SM -RA FEW007 OVC013 08/07 A2997 RMK AO2 P0002=
201104042253 METAR KSEA 042253Z 20007KT 6SM -RA BR SCT009 BKN016 OVC033 08/07 A2998 RMK AO2 SLP160 P0003 T00780067=
201104042153 METAR KSEA 042153Z 19009KT 9SM -RA FEW007 BKN021 OVC028 08/08 A2999 RMK AO2 SLP164 P0002 T00780078=
201104042053 METAR KSEA 042053Z 19009KT 10SM -RA FEW008 BKN020 OVC028 08/06 A3001 RMK AO2 SLP171 P0001 60003 T00780061 58019=
201104041953 METAR KSEA 041953Z 19010KT 10SM -RA FEW007 BKN010 OVC022 08/06 A3003 RMK AO2 RAB1854 SLP177 P0001 T00780061=
201104041931 SPECI KSEA 041931Z 19011KT 10SM -RA FEW007 BKN010 OVC021 08/06 A3005 RMK AO2 RAB1854 P0000=
201104041931 SPECI KSEA 041931Z 19011KT 10SM -RA FEW007 BKN010 OVC021 08/06 A3005 RMK AO2 RAB1854 P0000=
201104041853 METAR KSEA 041853Z 18007KT 10SM SCT008 BKN015 OVC022 07/06 A3006 RMK AO2 RAE52 SLP186 P0001 T00720061=
201104041844 SPECI KSEA 041844Z 19006KT 10SM -RA SCT008 BKN014 OVC021 07/06 A3006 RMK AO2 P0001=
201104041844 SPECI KSEA 041844Z 19006KT 10SM -RA SCT008 BKN014 OVC021 07/06 A3006 RMK AO2 P0001=
201104041753 METAR KSEA 041753Z 17005KT 10SM -RA BKN008 OVC020 07/06 A3007 RMK AO2 SLP190 P0001 60004 T00670056 10067 20050 56011=
201104041739 SPECI KSEA 041739Z 16006KT 10SM -RA BKN008 OVC021 07/06 A3007 RMK AO2 P0001=
201104041739 SPECI KSEA 041739Z 16006KT 10SM -RA BKN008 OVC021 07/06 A3007 RMK AO2 P0001=
201104041716 SPECI KSEA 041716Z 17007KT 8SM -RA SCT008 OVC021 07/05 A3007 RMK AO2 P0000=
201104041716 SPECI KSEA 041716Z 17007KT 8SM -RA SCT008 OVC021 07/05 A3007 RMK AO2 P0000=
201104041653 METAR KSEA 041653Z 16007KT 10SM -RA FEW011 OVC020 06/05 A3008 RMK AO2 SLP194 P0001 T00610050=
201104041553 METAR KSEA 041553Z 16007KT 10SM -RA FEW012 OVC023 06/04 A3009 RMK AO2 RAB09 SLP197 P0002 T00560044 $=
201104041453 METAR KSEA 041453Z 15003KT 10SM FEW007 OVC022 06/04 A3010 RMK AO2 DZE06 SLP202 P0000 60000 T00560039 55013 $=
201104041353 METAR KSEA 041353Z 16005KT 10SM -DZ FEW007 OVC024 05/04 A3010 RMK AO2 SLP201 P0000 T00500039 $=
201104041332 SPECI KSEA 041332Z 15006KT 10SM -DZ FEW007 OVC024 05/04 A3011 RMK AO2 P0000 $=
201104041332 SPECI KSEA 041332Z 15006KT 10SM -DZ FEW007 OVC024 05/04 A3011 RMK AO2 P0000 $=
201104041253 METAR KSEA 041253Z 16004KT 10SM -DZ OVC024 05/04 A3012 RMK AO2 DZB12 SLP208 P0000 T00500039 $=
201104041213 SPECI KSEA 041213Z 17008KT 10SM -DZ SCT022 OVC036 05/03 A3013 RMK AO2 DZB12 P0000 $=
201104041213 SPECI KSEA 041213Z 17008KT 10SM -DZ SCT022 OVC036 05/03 A3013 RMK AO2 DZB12 P0000 $=
201104041153 METAR KSEA 041153Z 18008KT 10SM FEW010 BKN025 OVC045 05/03 A3014 RMK AO2 SLP215 60000 70006 T00500033 10056 20050 56010 $=
201104041112 SPECI KSEA 041112Z 19009KT 10SM SCT013 OVC024 06/03 A3015 RMK AO2 $=
201104041112 SPECI KSEA 041112Z 19009KT 10SM SCT013 OVC024 06/03 A3015 RMK AO2 $=
201104041053 METAR KSEA 041053Z 19012KT 10SM BKN013 OVC024 06/03 A3015 RMK AO2 RAB14E51 SLP218 P0000 T00560033 $=
201104040953 METAR KSEA 040953Z 18006KT 10SM BKN024 OVC031 05/04 A3017 RMK AO2 SLP225 T00500039 $=
201104040853 METAR KSEA 040853Z 18006KT 10SM OVC026 05/04 A3017 RMK AO2 SLP226 60000 T00500039 58019 $=
201104040800 SPECI KSEA 040800Z 17006KT 10SM OVC026 05/04 A3019 RMK AO2 $=
201104040800 SPECI KSEA 040800Z 17006KT 10SM OVC026 05/04 A3019 RMK AO2 $=
201104040753 METAR KSEA 040753Z 16006KT 10SM FEW014 BKN035 OVC060 05/04 A3019=
201104040653 METAR KSEA 040653Z 20005KT 10SM -RA FEW004 BKN035 OVC050 06/04 A3022 RMK AO2 RAE11B29 SLP242 P0000 T00560044 $=
201104040627 SPECI KSEA 040627Z 21005KT 10SM SCT005 BKN025 OVC035 06/04 A3022 RMK AO2 RAE11 P0000 $=
201104040627 SPECI KSEA 040627Z 21005KT 10SM SCT005 BKN025 OVC035 06/04 A3022 RMK AO2 RAE11 P0000 $=
201104040553 METAR KSEA 040553Z 21006KT 9SM -RA BKN007 BKN011 OVC027 06/04 A3023 RMK AO2 RAB30 CIG 006V011 SLP245 P0001 60006 T00560044 10089 20056 58010 $=
201104040540 SPECI KSEA 040540Z 21005KT 9SM -RA FEW009 SCT013 OVC025 06/04 A3024 RMK AO2 RAB30 P0000 $=
201104040540 SPECI KSEA 040540Z 21005KT 9SM -RA FEW009 SCT013 OVC025 06/04 A3024 RMK AO2 RAB30 P0000 $=
201104040453 METAR KSEA 040453Z 21005KT 10SM BKN024 OVC035 06/04 A3024 RMK AO2 RAE17 SLP248 P0001 T00560039 $=
201104040432 SPECI KSEA 040432Z 18005KT 10SM BKN024 OVC039 06/04 A3024 RMK AO2 RAE17 P0001 $=
201104040432 SPECI KSEA 040432Z 18005KT 10SM BKN024 OVC039 06/04 A3024 RMK AO2 RAE17 P0001 $=
201104040413 SPECI KSEA 040413Z 20005KT 10SM -RA FEW017 BKN030 OVC039 06/04 A3025 RMK AO2 P0001 $=
201104040413 SPECI KSEA 040413Z 20005KT 10SM -RA FEW017 BKN030 OVC039 06/04 A3025 RMK AO2 P0001 $=
201104040353 METAR KSEA 040353Z 20008KT 6SM -RA BR BKN019 BKN026 OVC032 06/04 A3025 RMK AO2 SLP253 P0004 T00560039 $=
201104040253 METAR KSEA 040253Z 22005KT 10SM -RA BKN029 OVC037 07/03 A3026 RMK AO2 RAB0159 SLP256 P0000 60000 T00670028 56010 $=
201104040235 SPECI KSEA 040235Z 24004KT 10SM -RA BKN027 OVC035 07/03 A3026 RMK AO2 RAB0159 P0000 $=
201104040235 SPECI KSEA 040235Z 24004KT 10SM -RA BKN027 OVC035 07/03 A3026 RMK AO2 RAB0159 P0000 $=
201104040153 METAR KSEA 040153Z 22005KT 10SM FEW034 OVC041 08/02 A3027 RMK AO2 SLP258 T00780017 $=
201104040053 METAR KSEA 040053Z 24007KT 10SM SCT055 OVC095 08/02 A3028 RMK AO2 SLP263 T00830017 $=
201104032353 METAR KSEA 032353Z 23008KT 10SM FEW050 09/02 A3029 RMK AO2 SLP266 T00890022 10094 20067 55006 $=
201104032253 METAR KSEA 032253Z 22009KT 10SM SCT048 BKN055 OVC150 09/02 A3028 RMK AO2 SLP262 T00890022 $=
201104032153 METAR KSEA 032153Z 25006KT 10SM BKN042 BKN055 OVC220 08/02 A3030 RMK AO2 SLP270 T00830022 $=
201104032053 METAR KSEA 032053Z 21010KT 10SM FEW030 BKN047 OVC210 09/02 A3031 RMK AO2 SLP272 T00890017 58001 $=
201104031953 METAR KSEA 031953Z 23009KT 10SM FEW027 BKN046 OVC210 08/02 A3032=
201104031853 METAR KSEA 031853Z 22008KT 10SM SCT027 BKN048 OVC210 07/02 A3031 RMK AO2 SLP273 T00720017 $=
201104031753 METAR KSEA 031753Z 20008KT 10SM OVC021 07/03 A3031 RMK AO2 SLP273 T00720028 10072 20033 51011 $=
201104031653 METAR KSEA 031653Z 20005KT 10SM OVC020 06/03 A3031 RMK AO2 SLP273 T00610028 $=
201104031553 METAR KSEA 031553Z 20005KT 10SM OVC018 06/02 A3029 RMK AO2 SLP265 T00560022 $=
201104031453 METAR KSEA 031453Z 15003KT 10SM FEW010 BKN016 OVC070 05/03 A3028=
201104031353 METAR KSEA 031353Z 15004KT 10SM FEW014 BKN020 BKN070 04/02 A3026 RMK AO2 SLP256 T00440022 $=
201104031253 METAR KSEA 031253Z 17007KT 10SM SCT022 OVC075 04/02 A3025 RMK AO2 SLP250 T00440022 $=
201104031153 METAR KSEA 031153Z 17006KT 10SM OVC016 04/02 A3024 RMK AO2 SLP247 7//// T00440022 10050 20039 51016 $=
201104031053 METAR KSEA 031053Z 17007KT 10SM OVC016 04/02 A3022 RMK AO2 SLP242 T00440022 $=
201104031013 SPECI KSEA 031013Z 18006KT 10SM OVC016 04/02 A3022 RMK AO2 $=
201104031013 SPECI KSEA 031013Z 18006KT 10SM OVC016 04/02 A3022 RMK AO2 $=
201104030953 METAR KSEA 030953Z 17006KT 10SM OVC014 04/02 A3021 RMK AO2 SLP238 T00440022 $=
201104030853 METAR KSEA 030853Z 17006KT 10SM OVC012 04/02 A3019 RMK AO2 SLP231 T00390022 53019 $=
201104030753 METAR KSEA 030753Z 17006KT 10SM SCT012 OVC016 04/03 A3017 RMK AO2 SLP225 T00390028 400890039 $=
201104030653 METAR KSEA 030653Z 15008KT 10SM OVC016 05/03 A3015 RMK AO2 SLP219 T00500033 $=
201104030609 SPECI KSEA 030609Z 16007KT 10SM BKN016 OVC060 05/03 A3014 RMK AO2 $=
201104030609 SPECI KSEA 030609Z 16007KT 10SM BKN016 OVC060 05/03 A3014 RMK AO2 $=
201104030553 METAR KSEA 030553Z 16006KT 10SM BKN014 OVC026 05/03 A3013 RMK AO2 SLP213 60006 T00500033 10072 20050 51027 $=
201104030453 METAR KSEA 030453Z 20008KT 10SM BKN024 BKN035 OVC060 06/03 A3011 RMK AO2 RAE01 SLP206 P0001 T00560033 $=
201104030423 SPECI KSEA 030423Z 21007KT 10SM BKN026 BKN040 OVC060 06/04 A3010 RMK AO2 RAE01 P0001 $=
201104030423 SPECI KSEA 030423Z 21007KT 10SM BKN026 BKN040 OVC060 06/04 A3010 RMK AO2 RAE01 P0001 $=
201104030406 SPECI KSEA 030406Z 20008KT 10SM SCT026 SCT040 BKN060 06/04 A3009 RMK AO2 RAE01 P0001 $=
201104030406 SPECI KSEA 030406Z 20008KT 10SM SCT026 SCT040 BKN060 06/04 A3009 RMK AO2 RAE01 P0001 $=
201104030353 METAR KSEA 030353Z 20007KT 10SM -RA BKN026 OVC038 06/04 A3008 RMK AO2 RAE15B34 SLP195 P0002 T00560039 $=
201104030253 METAR KSEA 030253Z 22009KT 8SM -RA FEW025 BKN032 OVC043 06/04 A3005 RMK AO2 RAB03 SLP185 P0002 60003 T00610039 53020 $=
201104030153 METAR KSEA 030153Z 16005KT 10SM BKN050 OVC070 07/04 A3003 RMK AO2 SLP178 SHRA S-W T00670044 $=
201104030053 METAR KSEA 030053Z 18008KT 10SM FEW032 BKN044 BKN075 07/04 A3001 RMK AO2 RAE16B44E47 SLP169 P0001 T00670044 $=
201104030019 SPECI KSEA 030019Z 19005KT 10SM SCT027 OVC040 07/04 A3000 RMK AO2 RAE16 PNO $=
201104030019 SPECI KSEA 030019Z 19005KT 10SM SCT027 OVC040 07/04 A3000 RMK AO2 RAE16 PNO $=
201104022353 METAR KSEA 022353Z 00000KT 6SM -RA OVC027 07/03 A2999 RMK AO2 SLP164 P0000 6//// T00720033 10089 20067 53016 PNO $=
201104022253 METAR KSEA 022253Z 17005KT 5SM RA OVC024 07/03 A2998 RMK AO2 RAB2156 SLP159 P0005 T00670033=
201104022153 METAR KSEA 022153Z 21010G17KT 7SM FEW030 BKN035 BKN055 08/04 A2995 RMK AO2 RAE38 SLP150 P0004 T00780039=
201104022135 SPECI KSEA 022135Z 20008KT 10SM -RA SCT020 BKN035 BKN100 08/03 A2995 RMK AO2 P0004=
201104022135 SPECI KSEA 022135Z 20008KT 10SM -RA SCT020 BKN035 BKN100 08/03 A2995 RMK AO2 P0004=
201104022053 METAR KSEA 022053Z 21007KT 7SM -RA SCT020 BKN024 07/03 A2994 RMK AO2 SLP148 VIS SW-W 2 1/2 P0008 60008 T00720033 51010=
201104022031 SPECI KSEA 022031Z 19011KT 5SM -RA SCT020 BKN024 07/04 A2994 RMK AO2 VIS W 3 P0006=
201104022031 SPECI KSEA 022031Z 19011KT 5SM -RA SCT020 BKN024 07/04 A2994 RMK AO2 VIS W 3 P0006=
201104021953 METAR KSEA 021953Z 20009KT 7SM -RA SCT020 BKN031 08/03 A2994 RMK AO2 RAB28 SLP145 P0000 T00780033=
201104021944 SPECI KSEA 021944Z 19010KT 7SM -RA SCT020 BKN031 08/03 A2993 RMK AO2 RAB28 P0000=
201104021944 SPECI KSEA 021944Z 19010KT 7SM -RA SCT020 BKN031 08/03 A2993 RMK AO2 RAB28 P0000=
201104021853 METAR KSEA 021853Z 19009KT 10SM BKN020 BKN031 08/03 A2993 RMK AO2 SLP142 T00780028=
201104021753 METAR KSEA 021753Z 23010G15KT 10SM BKN017 BKN025 07/03 A2991 RMK AO2 SLP138 T00720028 10078 20044 51018=
201104021653 METAR KSEA 021653Z 22010KT 10SM BKN015 07/03 A2989=
201104021553 METAR KSEA 021553Z 21011KT 10SM BKN015 BKN035 06/03 A2988 RMK AO2 SLP127 T00560028=
201104021453 METAR KSEA 021453Z 21010KT 10SM BKN015 BKN040 05/02 A2986 RMK AO2 SLP119 T00500022 53014=
201104021353 METAR KSEA 021353Z 21010KT 10SM FEW005 BKN015 OVC040 05/03 A2984=
201104021253 METAR KSEA 021253Z 22007KT 10SM FEW005 BKN010 OVC015 05/03 A2982 RMK AO2 SLP108 T00500033=
201104021234 SPECI KSEA 021234Z 22009KT 10SM FEW005 BKN010 OVC015 05/03 A2982 RMK AO2=
201104021234 SPECI KSEA 021234Z 22009KT 10SM FEW005 BKN010 OVC015 05/03 A2982 RMK AO2=
201104021212 SPECI KSEA 021212Z 23007KT 10SM SCT011 OVC016 05/03 A2982 RMK AO2=
201104021212 SPECI KSEA 021212Z 23007KT 10SM SCT011 OVC016 05/03 A2982 RMK AO2=
201104021201 SPECI KSEA 021201Z 22009KT 10SM SCT005 OVC014 05/03 A2982 RMK AO2=
201104021201 SPECI KSEA 021201Z 22009KT 10SM SCT005 OVC014 05/03 A2982 RMK AO2=
201104021153 METAR KSEA 021153Z 22009KT 10SM BKN005 OVC010 05/03 A2982 RMK AO2 RAE47 CIG 003V008 SLP106 P0000 60025 70127 T00500033 10050 20044 50002=
201104021120 SPECI KSEA 021120Z 13007KT 10SM -RA BKN007 BKN017 OVC023 05/04 A2982 RMK AO2 CIG 006V011 P0000=
201104021120 SPECI KSEA 021120Z 13007KT 10SM -RA BKN007 BKN017 OVC023 05/04 A2982 RMK AO2 CIG 006V011 P0000=
201104021053 METAR KSEA 021053Z 14007KT 7SM -RA SCT004 BKN017 OVC040 05/04 A2982 RMK AO2 SLP107 P0005 T00500039=
201104021043 SPECI KSEA 021043Z 15009KT 5SM -RA BR BKN004 BKN010 OVC016 05/04 A2982 RMK AO2 P0005=
201104021043 SPECI KSEA 021043Z 15009KT 5SM -RA BR BKN004 BKN010 OVC016 05/04 A2982 RMK AO2 P0005=
201104020953 METAR KSEA 020953Z 18006KT 3SM -RA BR FEW009 BKN013 OVC021 05/04 A2982 RMK AO2 SFC VIS 7 SLP105 P0006 T00500044=
201104020922 SPECI KSEA 020922Z 15006KT 3SM -RA BR FEW009 BKN013 OVC021 05/04 A2981 RMK AO2 SFC VIS 5 P0003=
201104020922 SPECI KSEA 020922Z 15006KT 3SM -RA BR FEW009 BKN013 OVC021 05/04 A2981 RMK AO2 SFC VIS 5 P0003=
201104020904 SPECI KSEA 020904Z 13005KT 3SM -RA BR SCT009 OVC016 05/04 A2982 RMK AO2 SFC VIS 6 P0001=
201104020904 SPECI KSEA 020904Z 13005KT 3SM -RA BR SCT009 OVC016 05/04 A2982 RMK AO2 SFC VIS 6 P0001=
201104020853 METAR KSEA 020853Z 13004KT 3SM -RA BR BKN009 OVC014 05/04 A2981 RMK AO2 SFC VIS 6 CIG 006V011 SLP104 P0004 60014 T00500039 53002=
201104020753 METAR KSEA 020753Z 06006KT 3SM -RA BR FEW004 BKN012 OVC026 05/04 A2981 RMK AO2 SFC VIS 5 SLP101 P0005 T00500039 400890050=
201104020653 METAR KSEA 020653Z 02011KT 3SM -RA BR FEW004 BKN010 OVC032 05/04 A2981 RMK AO2 SFC VIS 5 SLP102 P0005 T00500039=
201104020651 SPECI KSEA 020651Z 02012KT 3SM -RA BR FEW004 BKN010 OVC032 05/04 A2981 RMK AO2 SFC VIS 6 P0005=
201104020651 SPECI KSEA 020651Z 02012KT 3SM -RA BR FEW004 BKN010 OVC032 05/04 A2981 RMK AO2 SFC VIS 6 P0005=
201104020553 METAR KSEA 020553Z 01012KT 3SM -RA BR BKN004 OVC007 05/04 A2979 RMK AO2 SFC VIS 4 CIG 002V005 SLP096 P0003 60034 T00500039 10083 20050 51007=
201104020507 SPECI KSEA 020507Z 01014G17KT 3SM -RA BR BKN004 OVC009 05/04 A2979 RMK AO2 SFC VIS 3 CIG 002V006 P0000=
201104020507 SPECI KSEA 020507Z 01014G17KT 3SM -RA BR BKN004 OVC009 05/04 A2979 RMK AO2 SFC VIS 3 CIG 002V006 P0000=
201104020455 SPECI KSEA 020455Z 36012KT 2 1/2SM -RA BR BKN004 OVC011 05/04 A2979 RMK AO2 SFC VIS 3 CIG 002V006 P0000=
201104020455 SPECI KSEA 020455Z 36012KT 2 1/2SM -RA BR BKN004 OVC011 05/04 A2979 RMK AO2 SFC VIS 3 CIG 002V006 P0000=
201104020453 METAR KSEA 020453Z 35011KT 1 1/4SM -RA BR BKN004 OVC011 05/04 A2979 RMK AO2 SFC VIS 3 CIG 002V008 SLP095 P0001 T00500044=
201104020353 METAR KSEA 020353Z 35010KT 1 1/4SM -RA BR OVC002 06/05 A2978 RMK AO2 SFC VIS 1 3/4 SLP093 P0003 T00560050=
201104020345 SPECI KSEA 020345Z 33010KT 1 1/4SM -RA BR OVC002 06/05 A2978 RMK AO2 SFC VIS 2 P0003=
201104020345 SPECI KSEA 020345Z 33010KT 1 1/4SM -RA BR OVC002 06/05 A2978 RMK AO2 SFC VIS 2 P0003=
201104020315 SPECI KSEA 020315Z 34008KT 3/4SM -RA BR OVC002 06/05 A2977 RMK AO2 SFC VIS 2 P0002=
201104020315 SPECI KSEA 020315Z 34008KT 3/4SM -RA BR OVC002 06/05 A2977 RMK AO2 SFC VIS 2 P0002=
201104020253 METAR KSEA 020253Z 35009KT 1 1/2SM -RA BR OVC002 06/05 A2977 RMK AO2 SFC VIS 2 1/2 SLP089 P0007 60027 T00610050 57012=
201104020153 METAR KSEA 020153Z 35005KT 1 1/2SM -RA BR OVC002 07/06 A2978 RMK AO2 SFC VIS 2 1/2 SLP093 P0009 T00670061=
201104020053 METAR KSEA 020053Z 34007KT 1 1/2SM R16L/5000VP6000FT RA BR OVC003 07/07 A2980 RMK AO2 SFC VIS 3 SLP098 P0011 T00720067=
201104020016 SPECI KSEA 020016Z 35007KT 1 1/2SM -RA BR OVC004 08/07 A2980 RMK AO2 SFC VIS 4 CIG 001V007 P0004=
201104020016 SPECI KSEA 020016Z 35007KT 1 1/2SM -RA BR OVC004 08/07 A2980 RMK AO2 SFC VIS 4 CIG 001V007 P0004=
201104012353 METAR KSEA 012353Z 32006KT 1 1/2SM -RA BR SCT002 BKN007 OVC030 08/08 A2981 RMK AO2 SFC VIS 3 SLP101 P0017 60048 T00830078 10089 20072 56025=
201104012320 SPECI KSEA 012320Z 28005KT 1 1/2SM R16L/5500VP6000FT RA BR SCT002 BKN007 OVC020 09/08 A2982 RMK AO2 P0008=
201104012320 SPECI KSEA 012320Z 28005KT 1 1/2SM R16L/5500VP6000FT RA BR SCT002 BKN007 OVC020 09/08 A2982 RMK AO2 P0008=
201104012307 SPECI KSEA 012307Z 32005KT 1 1/4SM R16L/5500VP6000FT -RA BR FEW006 BKN012 OVC020 09/08 A2982 RMK AO2 TWR VIS 1 1/2 P0003=
201104012307 SPECI KSEA 012307Z 32005KT 1 1/4SM R16L/5500VP6000FT -RA BR FEW006 BKN012 OVC020 09/08 A2982 RMK AO2 TWR VIS 1 1/2 P0003=
201104012253 METAR KSEA 012253Z 00000KT 1 1/2SM R16L/5000VP6000FT -RA BR BKN006 OVC015 09/08 A2982 RMK AO2 SLP106 P0006 T00890078=
201104012251 SPECI KSEA 012251Z 00000KT 1 1/2SM R16L/5000VP6000FT RA BR BKN006 OVC015 09/08 A2982 RMK AO2 P0006=
201104012251 SPECI KSEA 012251Z 00000KT 1 1/2SM R16L/5000VP6000FT RA BR BKN006 OVC015 09/08 A2982 RMK AO2 P0006=
201104012231 SPECI KSEA 012231Z 00000KT 2 1/2SM -RA BR BKN006 OVC017 09/07 A2983 RMK AO2 SFC VIS 5 P0002=
201104012231 SPECI KSEA 012231Z 00000KT 2 1/2SM -RA BR BKN006 OVC017 09/07 A2983 RMK AO2 SFC VIS 5 P0002=
201104012220 SPECI KSEA 012220Z 00000KT 2 1/2SM R16L/3000VP6000FT -RA BR SCT003 BKN010 OVC020 09/07 A2984 RMK AO2 SFC VIS 6 P0002=
201104012220 SPECI KSEA 012220Z 00000KT 2 1/2SM R16L/3000VP6000FT -RA BR SCT003 BKN010 OVC020 09/07 A2984 RMK AO2 SFC VIS 6 P0002=
201104012153 METAR KSEA 012153Z 00000KT 2 1/2SM -RA BR SCT003 BKN006 OVC020 09/08 A2985 RMK AO2 SLP116 P0007 T00890078=
201104012125 SPECI KSEA 012125Z 00000KT 1 1/2SM -RA BR SCT003 BKN006 OVC022 08/08 A2987 RMK AO2 P0005=
201104012125 SPECI KSEA 012125Z 00000KT 1 1/2SM -RA BR SCT003 BKN006 OVC022 08/08 A2987 RMK AO2 P0005=
201104012053 METAR KSEA 012053Z 00000KT 1 1/4SM R16L/4500V5500FT -RA BR BKN005 OVC009 09/08 A2988 RMK AO2 TWR VIS 1 1/2 SLP126 P0003 60018 T00890083 56025=
201104012045 SPECI KSEA 012045Z 16003KT 1 1/4SM R16L/4500V5500FT -RA BR BKN005 OVC009 09/08 A2988 RMK AO2 TWR VIS 1 1/2 P0002=
201104012045 SPECI KSEA 012045Z 16003KT 1 1/4SM R16L/4500V5500FT -RA BR BKN005 OVC009 09/08 A2988 RMK AO2 TWR VIS 1 1/2 P0002=
201104011953 METAR KSEA 011953Z 16005KT 1 1/2SM R16L/4500VP6000FT -RA BR BKN004 OVC007 08/08 A2990 RMK AO2 SLP132 P0004 T00830083=
201104011853 METAR KSEA 011853Z 00000KT 1 1/2SM RA BR BKN003 OVC006 08/08 A2994 RMK AO2 SFC VIS 2 SLP145 P0011 T00780078=
201104011753 METAR KSEA 011753Z 30006KT 1/2SM R16L/4000VP6000FT RA BR BKN004 OVC015 08/07 A2996 RMK AO2 SFC VIS 1 1/4 SLP151 P0011 60020 T00780067 10083 20072 55016 $=
201104011714 SPECI KSEA 011714Z 00000KT 1 1/2SM R16L/2600VP6000FT -RA BR BKN003 OVC007 08/07 A2996 RMK AO2 TWR VIS 2 P0002 $=
201104011714 SPECI KSEA 011714Z 00000KT 1 1/2SM R16L/2600VP6000FT -RA BR BKN003 OVC007 08/07 A2996 RMK AO2 TWR VIS 2 P0002 $=
201104011653 METAR KSEA 011653Z 04003KT 2SM -RA BR BKN004 OVC026 08/07 A2996 RMK AO2 SFC VIS 2 1/2 SLP151 P0007 T00830067 $=
201104011636 SPECI KSEA 011636Z 00000KT 1 1/4SM -RA BR BKN004 OVC027 08/07 A2996 RMK AO2 SFC VIS 2 P0006 $=
201104011636 SPECI KSEA 011636Z 00000KT 1 1/4SM -RA BR BKN004 OVC027 08/07 A2996 RMK AO2 SFC VIS 2 P0006 $=
201104011628 SPECI KSEA 011628Z 00000KT 2SM -RA BR SCT003 OVC027 08/07 A2997 RMK AO2 TWR VIS 2 1/2 P0005 $=
201104011628 SPECI KSEA 011628Z 00000KT 2SM -RA BR SCT003 OVC027 08/07 A2997 RMK AO2 TWR VIS 2 1/2 P0005 $=
201104011620 SPECI KSEA 011620Z 00000KT 2SM R16L/6000VP6000FT -RA BR SCT003 OVC030 08/07 A2997 RMK AO2 TWR VIS 2 1/2 P0004=
201104011620 SPECI KSEA 011620Z 00000KT 2SM R16L/6000VP6000FT -RA BR SCT003 OVC030 08/07 A2997 RMK AO2 TWR VIS 2 1/2 P0004=
201104011603 SPECI KSEA 011603Z 00000KT 2 1/2SM -RA BR FEW012 OVC031 08/07 A2998 RMK AO2 SFC VIS 3 P0000=
201104011603 SPECI KSEA 011603Z 00000KT 2 1/2SM -RA BR FEW012 OVC031 08/07 A2998 RMK AO2 SFC VIS 3 P0000=
201104011553 METAR KSEA 011553Z 32003KT 7SM -RA FEW012 OVC031 08/07 A2998 RMK AO2 SLP160 P0001 T00780067=
201104011453 METAR KSEA 011453Z 00000KT 9SM -RA FEW012 OVC055 08/07 A3000 RMK AO2 RAB32 SLP167 P0000 60001 T00780067 56026=
201104011353 METAR KSEA 011353Z 12006KT 10SM BKN030 OVC060 08/06 A3002 RMK AO2 RAE01B23E36 SLP174 P0000 T00780061=
201104011253 METAR KSEA 011253Z 18004KT 10SM -RA FEW015 BKN030 OVC070 07/06 A3006 RMK AO2 RAE29B48 SLP186 P0001 T00720061=
201104011153 METAR KSEA 011153Z 19003KT 6SM -RA BR FEW015 BKN030 OVC070 07/06 A3008 RMK AO2 RAB43 SLP194 P0000 60000 70006 T00720056 10089 20072 58012=
201104011053 METAR KSEA 011053Z 26003KT 10SM FEW015 OVC070 07/05 A3011 RMK AO2 SLP203 T00720050=
201104010953 METAR KSEA 010953Z 24004KT 10SM FEW014 OVC070 08/05 A3012 RMK AO2 SLP205 T00780050=
201104010951 SPECI KSEA 010951Z 24005KT 10SM SCT014 OVC070 08/05 A3012 RMK AO2=
201104010951 SPECI KSEA 010951Z 24005KT 10SM SCT014 OVC070 08/05 A3012 RMK AO2=
201104010853 METAR KSEA 010853Z 23005KT 10SM BKN014 OVC080 08/06 A3014 RMK AO2 SLP215 T00780056 56015=
201104010753 METAR KSEA 010753Z 19006KT 10SM FEW020 OVC100 08/05 A3015 RMK AO2 SLP216 T00780050 401220078=
201104010653 METAR KSEA 010653Z 21007KT 10SM FEW025 OVC100 08/06 A3018 RMK AO2 SLP226 T00830056=
201104010553 METAR KSEA 010553Z 22007KT 10SM FEW026 BKN120 BKN200 09/06 A3019 RMK AO2 SLP230 T00890056 10117 20089 51000=
201104010453 METAR KSEA 010453Z 23008KT 10SM FEW025 SCT036 SCT120 BKN200 09/06 A3019 RMK AO2 SLP229 T00940056=
201104010353 METAR KSEA 010353Z 24009KT 10SM FEW050 SCT120 BKN200 10/06 A3020 RMK AO2 SLP233 T01000056=
201104010253 METAR KSEA 010253Z 23011KT 10SM FEW030 BKN110 BKN200 11/06 A3019 RMK AO2 SLP230 T01060056 55005=
201104010153 METAR KSEA 010153Z 22008KT 10SM FEW025 SCT050 SCT120 BKN200 11/06 A3018 RMK AO2 SLP227 T01110056=
201104010053 METAR KSEA 010053Z 23010KT 10SM FEW025 BKN036 OVC150 12/07 A3019 RMK AO2 SLP231 T01170067=
201104010020 SPECI KSEA 010020Z 22008KT 10SM SCT024 BKN041 OVC150 12/06 A3019 RMK AO2=
201104010020 SPECI KSEA 010020Z 22008KT 10SM SCT024 BKN041 OVC150 12/06 A3019 RMK AO2=

# No short TAF reports from KSEA in databse.

###################################
#  large TAF from KSEA
###################################
201104302320 TAF KSEA 302320Z 0100/0206 29006KT P6SM SCT045 FM010300 35006KT
                       P6SM SCT060 FM010700 VRB03KT P6SM SKC FM011800
                       30005KT P6SM SCT250=
201104302018 KSEA 302018Z 3020/0124 27004KT P6SM SCT035 FM302300 29005KT P6SM
                       SCT045 FM010400 35003KT P6SM SKC FM011700
                       29004KT P6SM SCT250=
201104301734 TAF KSEA 301734Z 3018/0124 24004KT P6SM BKN025 OVC035 FM301900
                       26005KT P6SM SCT025 BKN040 FM302100 27005KT
                       P6SM BKN045 FM302300 29005KT P6SM SCT045
                       FM010300 35004KT P6SM SKC FM011700 29004KT
                       P6SM SCT250=
201104301511 KSEA 301511Z 3015/0118 17004KT P6SM BKN030 OVC045 FM301700 VRB04KT
                       P6SM BKN030 BKN050 FM301900 26005KT P6SM
                       BKN040 FM302100 26005KT P6SM SCT040 FM010300
                       VRB04KT P6SM SCT200=
201104301138 TAF KSEA 301138Z 3012/0118 VRB04KT P6SM VCSH BKN030 BKN040 FM301400
                       20005KT P6SM BKN030 FM301800 23006KT P6SM
                       BKN035 FM302200 25005KT P6SM SCT040 FM010300
                       VRB04KT P6SM SCT200=
201104300805 KSEA 300805Z 3008/0112 VRB04KT P6SM VCSH BKN027 BKN040 BKN050 FM301000
                       VRB03KT P6SM BKN030 FM301800 23006KT P6SM
                       BKN035 FM302000 25005KT P6SM SCT040=
201104300530 TAF KSEA 300530Z 3006/0112 VRB04KT P6SM VCSH SCT035 BKN040 BKN050
                       FM300800 34005KT P6SM BKN050 FM301300 VRB03KT
                       P6SM BKN030 FM301800 23006KT P6SM BKN035
                       FM302000 25005KT P6SM SCT040=
201104300304 KSEA 300304Z 3003/0106 29004KT P6SM VCSH BKN050 FM300400 34005KT
                       P6SM BKN050 FM300700 03005KT P6SM BKN050
                       FM301300 VRB03KT P6SM BKN020 FM301800 23006KT
                       P6SM BKN035 FM302000 25005KT P6SM SCT040=
201104292320 TAF KSEA 292320Z 3000/0106 VRB06KT P6SM BKN050 FM300200 29006KT
                       P6SM BKN050 FM300400 34005KT P6SM BKN050
                       FM300700 03005KT P6SM BKN050 FM301300 VRB03KT
                       P6SM BKN020 FM301800 23006KT P6SM BKN035
                       FM302000 25005KT P6SM SCT040=
201104292109 KSEA 292109Z 2921/3024 24007KT P6SM SCT040 FM300100 29007KT P6SM
                       SCT050 FM300500 03007KT P6SM SCT050 FM301200
                       VRB03KT P6SM BKN022 FM301700 23006KT P6SM
                       BKN045=
201104291740 TAF KSEA 291740Z 2918/3024 21007KT P6SM SCT012 BKN040 FM292000
                       24008KT P6SM BKN045 FM300100 30008KT P6SM
                       SCT050 FM300500 03007KT P6SM SCT050 FM301200
                       VRB03KT P6SM BKN022 FM301700 23006KT P6SM
                       BKN045=
201104291511 KSEA 291511Z 2915/3018 22006KT P6SM SCT010 BKN030
                      TEMPO 2915/2917 BKN009 BKN030 FM291900 VRB04KT
                       P6SM SCT030 BKN045 FM300000 33006KT P6SM
                       SCT050 FM301000 VRB03KT P6SM BKN022=
201104291305 KSEA 291305Z 2913/3018 22006KT P6SM SCT010 OVC045
                      TEMPO 2913/2916 OVC010 FM291900 VRB04KT P6SM
                       SCT030 BKN045 FM300000 33006KT P6SM SCT050
                       FM301000 VRB03KT P6SM BKN022=
201104291140 TAF KSEA 291140Z 2912/3018 19006KT P6SM SCT020 BKN040
                      TEMPO 2912/2916 BKN020 BKN040 FM291900 VRB04KT
                       P6SM SCT030 BKN045 FM300000 33006KT P6SM
                       SCT050 FM301000 VRB03KT P6SM BKN022=
201104290900 KSEA 290900Z 2909/3012 19006KT P6SM OVC020 FM291700 VRB04KT P6SM
                       SCT025 BKN040 FM292300 33006KT P6SM SCT050
                       FM301000 VRB03KT P6SM BKN022=
201104290524 TAF KSEA 290524Z 2906/3012 21006KT P6SM SCT060 FM291200 18006KT
                       P6SM BKN020 FM291700 VRB04KT P6SM BKN040
                       FM292100 33006KT P6SM SCT040=
201104290304 TAF AMD KSEA 290304Z 2903/3006 21006KT P6SM SCT030 SCT070 FM291200
                       18006KT P6SM BKN020 FM291700 VRB04KT P6SM
                       BKN040 FM292200 30006KT P6SM SCT040=
201104282325 TAF KSEA 282325Z 2900/3006 21010KT P6SM VCSH SCT030CB BKN050 BKN200
                       TEMPO 2900/2903 VRB05KT -SHRA BKN030 FM290300
                       VRB04KT P6SM SCT030 BKN050 FM291200 18006KT
                       P6SM BKN020 FM291700 VRB04KT P6SM BKN040
                       FM292200 30006KT P6SM SCT040=
201104282103 KSEA 282103Z 2821/2924 22012G20KT P6SM VCSH BKN040CB BKN100 FM290500
                       VRB05KT P6SM VCSH BKN030 FM291200 18006KT
                       P6SM BKN020 FM291700 VRB04KT P6SM BKN040=
201104281720 TAF KSEA 281720Z 2818/2924 19012G20KT P6SM SCT030 BKN070
                      TEMPO 2818/2821 BKN030 BKN070 FM282100 22012G20KT
                       P6SM VCSH BKN040CB BKN100 FM290500 VRB05KT
                       P6SM VCSH BKN030 FM291200 18006KT P6SM BKN020
                       FM291700 VRB04KT P6SM BKN040=
201104281505 KSEA 281505Z 2815/2918 19012KT P6SM SCT030 BKN070
                      TEMPO 2817/2821 -SHRA BKN030 BKN070 FM282100
                       22012G18KT P6SM -SHRA SCT022 BKN040 FM290900
                       22008KT P6SM SCT012 BKN020 OVC035=
201104281138 TAF KSEA 281138Z 2812/2918 18010KT P6SM -SHRA SCT010 BKN020 OVC050
                       FM281600 18010KT P6SM SCT030 BKN050 FM282100
                       22012G18KT P6SM -SHRA SCT022 BKN040
                      PROB30 2822/2902 4SM -TSRA BKN022 BKN040CB
                       FM290900 22008KT P6SM SCT012 BKN020 OVC035=
201104280900 KSEA 280900Z 2809/2912 18010KT P6SM -SHRA BKN015 OVC025 FM281200
                       18010KT P6SM -SHRA SCT015 BKN025 OVC040
                       FM281700 18010KT P6SM SCT030 BKN050 FM282100
                       22010KT P6SM SCT022 BKN040
                      TEMPO 2821/2901 -SHRA BKN022 BKN040CB=
201104280530 TAF KSEA 280530Z 2806/2912 18010KT P6SM -SHRA SCT008 BKN015 OVC030
                       FM280800 18010KT P6SM SCT022 BKN040
                      TEMPO 2808/2812 -SHRA BKN022 OVC040 FM281400
                       18010KT P6SM SCT030 BKN050 FM282100 22010KT
                       P6SM SCT022 BKN040
                      TEMPO 2821/2901 -SHRA BKN022 BKN040CB=
201104280202 KSEA 280202Z 2802/2906 22010G18KT P6SM -SHRA SCT009 BKN015 OVC030
                       TEMPO 2802/2805 5SM -RA BR BKN009 FM280600
                       20012KT P6SM VCSH BKN035 FM282000 22010KT
                       P6SM VCSH BKN040CB=
201104272320 TAF KSEA 272320Z 2800/2906 24010G20KT P6SM -SHRA SCT015 OVC035
                       TEMPO 2800/2802 3SM RA BR BKN015 OVC030
                       FM280700 20012KT P6SM VCSH BKN035 FM282000
                       22010KT P6SM VCSH BKN040CB=
201104272105 TAF AMD KSEA 272105Z 2721/2824 18012G22KT P6SM -RA SCT030 BKN060
                       OVC120
                      TEMPO 2722/2802 5SM RA BKN030 OVC060 FM281000
                       20012KT P6SM VCSH BKN040 FM282000 22010KT
                       P6SM VCSH BKN040CB=
201104271726 TAF KSEA 271726Z 2718/2824 19012G20KT P6SM VCSH SCT030 BKN060
                      TEMPO 2718/2721 -SHRA BKN030 OVC060 FM272100
                       20012G20KT P6SM -SHRA BKN030 OVC060 FM281000
                       20012KT P6SM VCSH BKN040 FM282000 22010KT
                       P6SM VCSH BKN040CB=
201104271509 KSEA 271509Z 2715/2818 19012KT P6SM VCSH SCT025 BKN060 BKN150 FM272100
                       19012G20KT P6SM -SHRA BKN030 OVC060 FM280600
                       20012KT P6SM VCSH BKN040=
201104271131 TAF KSEA 271131Z 2712/2818 19008KT P6SM SCT030 OVC045
                      TEMPO 2712/2715 -SHRA BKN030 OVC050 FM271500
                       18010KT P6SM BKN025 OVC050 FM272000 17014KT
                       P6SM -RA BKN020 OVC040 FM280200 20012KT
                       P6SM VCSH BKN040=
201104270900 KSEA 270900Z 2709/2812 17007KT P6SM FEW030 BKN050 OVC080 FM271000
                       19008KT P6SM SCT025 BKN050
                      TEMPO 2710/2714 BKN025 OVC050 FM271400 18010KT
                       P6SM BKN025 OVC050 FM272000 17014KT P6SM
                       -RA BKN020 OVC040 FM280200 20012KT P6SM
                       VCSH BKN040=
201104270522 TAF KSEA 270522Z 2706/2812 19010KT P6SM FEW030 BKN060 FM271000
                       19008KT P6SM SCT025 BKN050
                      TEMPO 2710/2714 BKN025 OVC050 FM271400 18010KT
                       P6SM BKN025 OVC050 FM272000 17014KT P6SM
                       -RA BKN020 OVC040 FM280200 20012KT P6SM
                       VCSH BKN040=
201104270305 KSEA 270305Z 2703/2806 20009KT P6SM VCSH FEW040 BKN070 BKN220 FM270800
                       19008KT P6SM VCSH BKN030 BKN060 FM271900
                       17014KT P6SM -RA BKN022 OVC050 FM280200
                       20012KT P6SM VCSH BKN040=
201104262320 TAF KSEA 262320Z 2700/2806 21010KT P6SM VCSH BKN050 FM270800 19008KT
                       P6SM VCSH BKN040 FM271900 17014KT P6SM -RA
                       BKN022 OVC050 FM280200 20012KT P6SM VCSH
                       BKN040=
201104262102 KSEA 262102Z 2621/2724 VRB04KT P6SM SCT040
                      TEMPO 2622/2702 BKN040 FM270600 19008KT P6SM
                       VCSH BKN030 FM271900 17014KT P6SM -RA BKN025
                       OVC050=
201104261720 TAF KSEA 261720Z 2618/2724 21008KT P6SM SCT020 BKN040
                      TEMPO 2618/2621 BKN020 OVC040 FM270600 17008KT
                       P6SM VCSH BKN025 OVC050 FM271700 17010KT
                       P6SM -RA BKN030 OVC060=
201104261509 KSEA 261509Z 2615/2718 21006KT P6SM SCT017 BKN040
                      TEMPO 2615/2618 BKN017 OVC030 FM261800 21008KT
                       P6SM SCT025 BKN040 FM270600 17008KT P6SM
                       VCSH BKN025 OVC050=
201104261125 TAF KSEA 261125Z 2612/2718 21010KT P6SM FEW015 BKN030 OVC090
                      TEMPO 2612/2615 BKN015 OVC030 FM261500 20010KT
                       P6SM BKN022 BKN050 FM261800 20008KT P6SM
                       SCT030 BKN060 FM262300 20008KT P6SM VCSH
                       BKN025 OVC050=
201104260903 KSEA 260903Z 2609/2712 20010KT P6SM SCT025 BKN100
                      TEMPO 2610/2613 -SHRA BKN022 BKN090 FM261300
                       20010KT P6SM VCSH BKN022 BKN050 FM261800
                       20008KT P6SM SCT030 BKN060 FM262300 20008KT
                       P6SM -SHRA BKN025 OVC050=
201104260522 TAF KSEA 260522Z 2606/2712 20012G16KT P6SM SCT022 BKN090 BKN200
                       TEMPO 2606/2610 -SHRA BKN022 BKN050 FM261000
                       20010KT P6SM VCSH BKN022 BKN050 FM261800
                       20008KT P6SM SCT030 BKN060 FM262300 20008KT
                       P6SM -SHRA BKN025 OVC050=
201104260308 TAF AMD KSEA 260308Z 2603/2706 21016KT P6SM FEW023 SCT090 BKN200
                       TEMPO 2603/2605 SCT025 BKN070 OVC200 FM260600
                       22012KT P6SM BKN025 BKN050
                      TEMPO 2606/2610 SCT025 BKN050 FM261800 20010KT
                       P6SM VCSH SCT030 BKN050=
201104252320 TAF KSEA 252320Z 2600/2706 21014G22KT P6SM SCT020 BKN050
                      TEMPO 2600/2604 -SHRA BKN020 OVC040 FM260600
                       22012KT P6SM VCSH BKN025 BKN050 FM261800
                       20010KT P6SM VCSH SCT030 BKN050=
201104252102 KSEA 252102Z 2521/2624 20012G22KT P6SM -SHRA BKN020 BKN040
                      TEMPO 2600/2604 SCT025 BKN050 FM260600 22012KT
                       P6SM VCSH BKN025 BKN050 FM261800 20010KT
                       P6SM VCSH SCT030 BKN050=
201104251818 KSEA 251818Z 2518/2624 23012KT P6SM -RA SCT008 OVC035
                      TEMPO 2518/2521 4SM -RA BR BKN008 OVC025
                       FM252100 22012G22KT P6SM -SHRA BKN020 BKN040
                       FM260600 22012KT P6SM VCSH BKN025 BKN050
                       FM261800 20008KT P6SM VCSH BKN030 OVC060=
201104251720 TAF KSEA 251720Z 2518/2624 VRB04KT P6SM -RA SCT015 OVC035
                      TEMPO 2518/2521 4SM -RA BR OVC015 FM252100
                       22012G22KT P6SM -SHRA BKN020 BKN040 FM260600
                       22012KT P6SM VCSH BKN025 BKN050 FM261800
                       20008KT P6SM VCSH BKN030 OVC060=
201104251618 TAF KSEA 251618Z 2516/2618 VRB03KT 5SM -RA BR SCT005 OVC035
                      TEMPO 2516/2520 3SM -RA BR BKN005 OVC030
                       FM252000 21008KT 4SM -RA BR OVC015 FM252300
                       22016G26KT P6SM -SHRA BKN016 OVC030 FM260600
                       20010KT P6SM VCSH BKN025 BKN060 FM261200
                       20006KT P6SM VCSH BKN030 OVC060=
201104251616 KSEA 251616Z 2516/2618 VRB03KT 5SM -RA BR SCT005 OVC035
                      TEMPO 2518/2521 3SM -RA BR BKN005 OVC030
                       FM252100 21008KT 4SM -RA BR OVC015 FM252300
                       22016G26KT P6SM -SHRA BKN016 OVC030 FM260600
                       20010KT P6SM VCSH BKN025 BKN060 FM261200
                       20006KT P6SM VCSH BKN030 OVC060=
201104251502 KSEA 251502Z 2515/2618 VRB03KT 5SM -RA BR SCT015 OVC035
                      TEMPO 2517/2521 3SM -RA BR BKN015 OVC030
                       FM252100 21008KT 4SM -RA BR OVC015 FM252300
                       22016G26KT P6SM -SHRA BKN016 OVC030 FM260600
                       20010KT P6SM VCSH BKN025 BKN060 FM261200
                       20006KT P6SM VCSH BKN030 OVC060=
201104251303 KSEA 251303Z 2513/2618 10005KT P6SM -RA SCT015 OVC035
                      TEMPO 2513/2516 BKN015 OVC030 FM251700 04008KT
                       P6SM -RA OVC022 FM252000 21008KT 4SM -RA
                       BR OVC015 FM252300 22016G26KT P6SM -SHRA
                       BKN016 OVC030 FM260600 20010KT P6SM VCSH
                       BKN025 BKN060 FM261200 20006KT P6SM VCSH
                       BKN030 OVC060=
201104251135 TAF KSEA 251135Z 2512/2618 07006KT P6SM VCSH SCT015 BKN030 OVC045
                       TEMPO 2512/2516 BKN015 OVC030 FM251700 04008KT
                       P6SM -RA OVC022 FM252000 21008KT 4SM -RA
                       BR OVC015 FM252300 22016G26KT P6SM -SHRA
                       BKN016 OVC030 FM260600 20010KT P6SM VCSH
                       BKN025 BKN060 FM261200 20006KT P6SM VCSH
                       BKN030 OVC060=
201104250905 KSEA 250905Z 2509/2612 VRB03KT P6SM -SHRA SCT015 BKN030 OVC035
                       TEMPO 2509/2512 SCT025 BKN060 OVC100 FM251200
                       10004KT P6SM VCSH BKN045 OVC080 FM251800
                       04009KT P6SM -RA OVC022 FM260000 22016G26KT
                       P6SM -SHRA BKN016 OVC030 FM260600 20013KT
                       P6SM VCSH BKN025 BKN060=
201104250535 TAF KSEA 250535Z 2506/2612 18007KT P6SM VCSH SCT025 BKN060 OVC100
                       FM251200 10004KT P6SM VCSH BKN045 OVC080
                       FM251800 04009KT P6SM -RA OVC022 FM260000
                       22016G26KT P6SM -SHRA BKN016 OVC030 FM260600
                       20013KT P6SM VCSH BKN025 BKN060=
201104250305 KSEA 250305Z 2503/2606 21010KT P6SM -SHRA BKN025 BKN030 BKN045
                       TEMPO 2503/2507 SCT025 BKN045 FM250700 14008KT
                       P6SM SCT030 BKN045 BKN060 FM251700 17010KT
                       P6SM -SHRA BKN025 OVC040 FM252300 20014G20KT
                       P6SM SCT030 BKN045 BKN060=
201104250033 KSEA 250033Z 2501/2606 20010KT P6SM -SHRA SCT025 BKN040 BKN060
                       FM250400 18008KT P6SM -SHRA BKN035 OVC050
                       FM250800 14008KT P6SM SCT030 BKN045 BKN060
                       FM251700 17010KT P6SM -SHRA BKN025 OVC040
                       FM252300 20014G20KT P6SM SCT030 BKN045 BKN060=
201104242336 TAF KSEA 242336Z 2500/2606 18008KT P6SM SCT025 BKN040 BKN060 FM250400
                       18008KT P6SM -SHRA BKN035 OVC050 FM250800
                       14008KT P6SM SCT030 BKN045 BKN060 FM251700
                       17010KT P6SM -SHRA BKN025 OVC040 FM252300
                       20014G20KT P6SM SCT030 BKN045 BKN060=
201104242110 KSEA 242110Z 2421/2524 18008KT P6SM -SHRA SCT025 BKN040 BKN060
                       FM250300 18008KT P6SM -SHRA BKN030 OVC045
                       FM250800 14008KT P6SM SCT030 BKN045 BKN060
                       FM251700 16008KT P6SM -SHRA BKN025 OVC040=
201104241736 TAF KSEA 241736Z 2418/2524 18008KT P6SM -SHRA BKN020 OVC035 FM242200
                       18008KT P6SM -SHRA SCT030 BKN045 BKN060
                       FM250300 18008KT P6SM -SHRA BKN030 OVC045
                       FM250800 14008KT P6SM SCT030 BKN045 BKN060
                       FM251700 16008KT P6SM -SHRA BKN025 OVC040=
201104241509 KSEA 241509Z 2415/2518 18010KT P6SM -SHRA SCT025 OVC045
                      TEMPO 2415/2419 -SHRA BKN025 OVC045 FM242200
                       20008KT P6SM -SHRA SCT030 BKN045 BKN060
                       FM251000 18008KT P6SM VCSH BKN030 OVC045
                       FM251600 16006KT P6SM -SHRA BKN025 OVC040=
201104241148 TAF KSEA 241148Z 2412/2518 19006KT P6SM BKN020 OVC100 FM241400
                       22010KT P6SM -SHRA BKN020 OVC045 FM250600
                       20008KT P6SM -SHRA SCT030 BKN040 BKN060
                       FM251000 18008KT P6SM VCSH BKN030 OVC045
                       FM251600 16006KT P6SM -SHRA BKN025 OVC040=
201104240904 TAF AMD KSEA 240904Z 2409/2512 21010KT P6SM SCT250 FM241200 19006KT
                       P6SM BKN060 OVC100 FM241500 22010KT P6SM
                       -SHRA BKN030 OVC045 FM250300 18008KT P6SM
                       -SHRA SCT030 BKN040 BKN060 FM251000 17008KT
                       P6SM -SHRA BKN025 OVC040=
201104240544 TAF KSEA 240544Z 2406/2512 VRB03KT P6SM SKC FM240800 19006KT P6SM
                       BKN120 FM241200 19006KT P6SM BKN060 OVC100
                       FM241500 22010KT P6SM -SHRA BKN030 OVC045
                       FM250300 18008KT P6SM -SHRA SCT030 BKN040
                       BKN060 FM251000 17008KT P6SM -SHRA BKN025
                       OVC040=
201104240256 KSEA 240256Z 2403/2506 VRB03KT P6SM SKC FM240800 19006KT P6SM BKN120
                       FM241200 19006KT P6SM BKN060 OVC100 FM241500
                       22010KT P6SM -SHRA BKN030 OVC045 FM250400
                       18008KT P6SM -SHRA SCT030 BKN045 BKN060=
201104232340 TAF KSEA 232340Z 2400/2506 VRB03KT P6SM SKC FM240800 19006KT P6SM
                       BKN120 FM241200 19006KT P6SM BKN060 OVC100
                       FM241500 22010KT P6SM -SHRA BKN030 OVC045
                       FM250400 18008KT P6SM -SHRA SCT030 BKN045
                       BKN060=
201104232102 KSEA 232102Z 2321/2424 33006KT P6SM SKC FM240200 VRB04KT P6SM SCT200
                       FM240800 22006KT P6SM BKN120 FM241100 19006KT
                       P6SM BKN060 OVC100 FM241400 22008KT P6SM
                       -SHRA BKN030 OVC045=
201104231740 TAF KSEA 231740Z 2318/2424 33006KT P6SM SKC FM240000 VRB04KT P6SM
                       SCT200 FM240800 22006KT P6SM BKN120 FM241100
                       19006KT P6SM BKN060 OVC100 FM241400 22008KT
                       P6SM -SHRA BKN030 OVC045=
201104231524 KSEA 231524Z 2315/2418 02008KT P6SM SKC FM231800 33006KT P6SM SKC
                       FM240000 VRB04KT P6SM SCT200 FM240600 22006KT
                       P6SM BKN120 FM241000 19006KT P6SM BKN060
                       OVC100 FM241400 22008KT P6SM VCSH BKN030
                       OVC045=
201104231143 TAF KSEA 231143Z 2312/2418 02008KT P6SM SKC FM231800 33006KT P6SM
                       SKC FM240000 VRB04KT P6SM SCT200 FM240600
                       22006KT P6SM BKN120 FM241000 19006KT P6SM
                       BKN060 OVC100 FM241400 22008KT P6SM VCSH
                       BKN030 OVC045=
201104230900 KSEA 230900Z 2309/2412 02008KT P6SM SKC FM231800 33006KT P6SM SKC
                       FM240000 VRB04KT P6SM SCT200 FM240600 22006KT
                       P6SM BKN120=
201104230543 TAF KSEA 230543Z 2306/2412 02006KT P6SM SKC FM231800 33006KT P6SM
                       SKC FM240000 VRB04KT P6SM SCT200 FM240600
                       22006KT P6SM BKN120=
201104230303 KSEA 230303Z 2303/2406 34010KT P6SM SKC FM230600 02006KT P6SM SKC
                       FM231900 33006KT P6SM SKC=
201104222334 TAF KSEA 222334Z 2300/2406 34010KT P6SM SKC FM230600 02006KT P6SM
                       SKC FM231900 33006KT P6SM SKC FM240400 17006KT
                       P6SM BKN200=
201104222101 TAF AMD KSEA 222101Z 2221/2324 34010KT P6SM SCT040 FM230600 02006KT
                       P6SM SKC=
201104221734 KSEA 221734Z 2218/2324 35006KT P6SM SCT040
                      TEMPO 2218/2220 BKN040 FM222000 35010KT P6SM
                       SCT040 FM222300 35010KT P6SM SCT040 FM230600
                       02006KT P6SM SKC=
201104221732 TAF KSEA 221732Z 2218/2324 VRB03KT P6SM SCT040
                      TEMPO 2218/2220 BKN040 FM222000 35006KT P6SM
                       SCT040 FM222300 35010KT P6SM SCT040 FM230600
                       02006KT P6SM SKC=
201104221507 KSEA 221507Z 2215/2318 VRB03KT P6SM BKN040 BKN060 FM221800 35006KT
                       P6SM SCT040 FM222200 35010KT P6SM SKC FM230600
                       02006KT P6SM SKC=
201104221153 TAF KSEA 221153Z 2212/2318 13005KT P6SM FEW040 BKN080
                      TEMPO 2212/2214 BKN030 FM221700 19006KT P6SM
                       SCT040 FM222000 34010KT P6SM SKC FM230600
                       02006KT P6SM SKC=
201104221020 KSEA 221020Z 2210/2312 VRB04KT P6SM SHRA BKN040 OVC060 FM221200
                       17006KT P6SM SCT025 BKN030 FM221800 22006KT
                       P6SM SCT040 FM222000 35012KT P6SM SKC FM230600
                       02006KT P6SM SKC=
201104220904 KSEA 220904Z 2209/2312 VRB04KT P6SM FEW040 OVC060 FM221200 18006KT
                       P6SM SCT025 BKN030 FM221800 22006KT P6SM
                       SCT040 FM222000 35012KT P6SM SKC FM230600
                       02006KT P6SM SKC=
201104220550 TAF KSEA 220550Z 2206/2312 09009KT P6SM VCSH BKN035 FM220800 VRB04KT
                       P6SM SCT035 BKN050 FM221200 18006KT P6SM
                       SCT025 BKN030 FM221800 22006KT P6SM SCT040
                       FM222000 35012KT P6SM SKC FM230600 02006KT
                       P6SM SKC=
201104220304 KSEA 220304Z 2203/2306 05012KT P6SM -SHRA SCT030 BKN050 FM220600
                       18006KT P6SM SCT040 BKN060 FM221200 18006KT
                       P6SM SCT025 BKN035 FM221800 34006KT P6SM
                       SCT040 FM222000 35012KT P6SM SKC=
201104220234 KSEA 220234Z 2203/2306 05012KT P6SM -SHRA SCT030 BKN050 FM220700
                       18006KT P6SM SCT040 BKN060 FM221200 18006KT
                       P6SM SCT025 BKN035 FM221800 34006KT P6SM
                       SCT040 FM222000 35012KT P6SM SKC=
201104212338 TAF KSEA 212338Z 2200/2306 33008KT P6SM -SHRA SCT035 BKN050
                      TEMPO 2200/2203 BKN035 OVC050 FM220300 VRB03KT
                       P6SM VCSH SCT030 BKN050 FM220700 18006KT
                       P6SM SCT040 BKN060 FM221200 18006KT P6SM
                       SCT025 BKN035 FM221800 34006KT P6SM SCT040
                       FM222000 35012KT P6SM SKC=
201104212103 KSEA 212103Z 2121/2224 24010KT P6SM SCT030 BKN060 FM220000 33008KT
                       P6SM -SHRA SCT030 BKN050
                      TEMPO 2200/2203 6SM -SHRA BR SCT020 BKN030
                       OVC040 FM220300 06005KT P6SM VCSH SCT030
                       OVC050 FM220600 18005KT P6SM SCT040 BKN060
                       FM221000 16005KT P6SM SCT025 BKN035 FM221400
                       17005KT P6SM SCT015 BKN025 FM221700 34008KT
                       P6SM SCT030 FM222000 35011G18KT P6SM SKC=
201104211739 TAF KSEA 211739Z 2118/2224 21009KT P6SM SCT020 FM212000 24011G18KT
                       P6SM VCSH SCT035 FM212200 33010KT P6SM -SHRA
                       SCT030 BKN040
                      TEMPO 2123/2201 6SM -SHRA BR SCT020 BKN030
                       OVC040 FM220200 06005KT P6SM VCSH SCT030
                       OVC050 FM220600 18005KT P6SM SCT040 BKN060
                       FM221000 16005KT P6SM SCT025 BKN035 FM221400
                       17005KT P6SM SCT015 BKN025 FM221700 34008KT
                       P6SM SCT030 FM222000 35011G18KT P6SM SKC=
201104211513 KSEA 211513Z 2115/2218 VRB03KT P6SM SCT015
                      TEMPO 2115/2117 -SHRA BKN015 FM211700 21007KT
                       P6SM VCSH SCT030 BKN040
                      TEMPO 2117/2121 SCT040 FM212200 32006KT P6SM
                       -SHRA SCT030 BKN040 FM220200 06005KT P6SM
                       VCSH SCT040 OVC060 FM220600 21007KT P6SM
                       BKN060 FM221000 19006KT P6SM OVC035 FM221500
                       22004KT P6SM BKN035=
201104211153 TAF KSEA 211153Z 2112/2218 VRB03KT P6SM -SHRA BKN025 OVC045
                      TEMPO 2112/2114 5SM -SHRASN OVC020 FM211800
                       21007KT P6SM VCSH SCT030 BKN040 FM220300
                       30006KT P6SM SCT040 OVC060 FM220600 21007KT
                       P6SM OVC060 FM221000 19006KT P6SM OVC035
                       FM221500 22004KT P6SM BKN035=
201104210902 KSEA 210902Z 2109/2212 VRB04KT P6SM VCSH SCT040 BKN060 FM211000
                       VRB04KT P6SM -SHRA BKN025 OVC045
                      TEMPO 2110/2114 5SM -SHRASN OVC020 FM211800
                       21008KT P6SM VCSH SCT030 BKN040 FM220300
                       30006KT P6SM SCT040 BKN060 FM220600 21007KT
                       P6SM BKN080=
201104210544 TAF KSEA 210544Z 2106/2212 36010KT P6SM VCSH SCT025 BKN030 FM210800
                       VRB04KT P6SM -SHRA BKN025 OVC045
                      TEMPO 2110/2114 5SM -SHRASN OVC020 FM211800
                       21008KT P6SM VCSH SCT030 BKN040 FM220300
                       30006KT P6SM SCT040 BKN060 FM220600 21007KT
                       P6SM BKN080=
201104210259 KSEA 210259Z 2103/2206 35008KT P6SM VCSH SCT050 BKN060 FM210600
                       VRB04KT P6SM VCSH SCT030 OVC050 FM210800
                       VRB04KT P6SM -SHRA BKN025 OVC050
                      TEMPO 2110/2114 5SM -SHRASN OVC020 FM211800
                       30008KT P6SM VCSH BKN040=
201104202320 TAF KSEA 202320Z 2100/2206 30007KT P6SM VCSH BKN050 BKN100 FM210300
                       VRB04KT P6SM VCSH SCT030 OVC050 FM210800
                       VRB04KT P6SM -SHRA BKN025 OVC050
                      TEMPO 2110/2114 5SM -SHRASN OVC020 FM211800
                       30008KT P6SM VCSH BKN040=
201104202103 KSEA 202103Z 2021/2124 30008KT P6SM SCT040 SCT100 OVC200 FM210000
                       30006KT P6SM SCT040 BKN100 OVC200 FM210300
                       VRB04KT P6SM VCSH BKN040 OVC080 FM210800
                       VRB04KT P6SM -SHRA BKN025 OVC050
                      TEMPO 2110/2114 5SM -SHRASN OVC020 FM211700
                       30007KT P6SM VCSH BKN040=
201104201720 TAF KSEA 201720Z 2018/2124 36007KT P6SM SCT030 OVC200 FM202200
                       32007KT P6SM SCT040 BKN080 OVC150 FM210300
                       VRB04KT P6SM VCSH BKN040 OVC080 FM210800
                       VRB04KT P6SM -SHRA BKN025 OVC050
                      TEMPO 2110/2114 5SM -SHRASN OVC020 FM211700
                       30007KT P6SM VCSH BKN040=
201104201501 KSEA 201501Z 2015/2118 36006KT P6SM SCT030 OVC200 FM201800 32011KT
                       P6SM SCT040 SCT100 OVC200 FM210000 32011KT
                       P6SM SCT040 BKN080 OVC150 FM210300 26006KT
                       P6SM VCSH SCT025 OVC050
                      PROB30 2103/2106 -SHRA FM210600 21006KT P6SM
                       VCSH BKN025 OVC050
                      PROB30 2106/2112 4SM SHRASN OVC015 FM211200
                       21008KT P6SM VCSH FEW009 OVC025
                      PROB30 2112/2118 4SM SHRASN OVC015=
201104201135 TAF KSEA 201135Z 2012/2118 02008KT P6SM FEW080 OVC200 FM201800
                       32011KT P6SM SCT080 OVC200 FM210000 32011KT
                       P6SM SCT050 BKN080 FM210300 26006KT P6SM
                       VCSH SCT025 OVC050
                      PROB30 2103/2106 -SHRA FM210600 21006KT P6SM
                       VCSH BKN025 OVC050
                      PROB30 2106/2112 4SM SHRASN OVC015 FM211200
                       21008KT P6SM VCSH FEW009 OVC025
                      PROB30 2112/2118 4SM SHRASN OVC015=
201104200838 KSEA 200838Z 2009/2112 03009KT P6SM FEW080 BKN200 FM201800 32009KT
                       P6SM SCT080 BKN200 FM210000 32009KT P6SM
                       SCT050 BKN080
                      PROB30 2100/2103 -SHRA OVC050 FM210300 25006KT
                       P6SM VCSH SCT025 OVC050
                      PROB30 2103/2106 -SHRA FM210600 20006KT P6SM
                       VCSH BKN025 OVC050
                      PROB30 2106/2112 5SM SHRAPL=
201104200540 TAF KSEA 200540Z 2006/2112 02006KT P6SM FEW080 BKN200 FM201800
                       32009KT P6SM SCT080 BKN200 FM210000 32009KT
                       P6SM SCT050 BKN080
                      PROB30 2100/2103 -SHRA OVC050 FM210300 25006KT
                       P6SM VCSH SCT025 OVC050
                      PROB30 2103/2106 -SHRA FM210600 20006KT P6SM
                       VCSH BKN025 OVC050
                      PROB30 2106/2112 5SM SHRAPL=
201104200303 KSEA 200303Z 2003/2106 VRB03KT P6SM FEW035 SCT090 FM200800 05004KT
                       P6SM SCT250 FM201200 05003KT P6SM SCT010
                       BKN250 FM201600 36005KT P6SM BKN200 FM202000
                       32007KT P6SM SCT050 BKN140 BKN200=
201104192322 TAF KSEA 192322Z 2000/2106 27005KT P6SM SCT035 FM200100 30005KT
                       P6SM SCT040 FM200300 01004KT P6SM SCT060
                       FM200800 05004KT P6SM SCT250 FM201200 05003KT
                       P6SM SCT010 BKN250 FM201600 36005KT P6SM
                       BKN200 FM202000 32007KT P6SM SCT050 BKN140
                       BKN200=
201104192109 KSEA 192109Z 1921/2024 24005KT P6SM SCT030 FM192300 27005KT P6SM
                       SCT035 FM200100 30005KT P6SM SCT040 FM200600
                       01004KT P6SM SCT060=
201104191817 KSEA 191817Z 1918/2024 VRB05KT P6SM SCT030 SCT050
                      TEMPO 1918/1920 BKN025 BKN050 FM192000 24005KT
                       P6SM VCSH SCT030 SCT060 FM192300 30006KT
                       P6SM VCSH SCT035 BKN060 FM200600 01004KT
                       P6SM SCT060=
201104191732 TAF KSEA 191732Z 1918/2024 VRB05KT P6SM BKN018 BKN060
                      TEMPO 1918/1920 SCT020 BKN060 FM192000 24005KT
                       P6SM VCSH SCT030 SCT060 FM192300 30006KT
                       P6SM VCSH SCT035 BKN060 FM200600 01004KT
                       P6SM SCT060=
201104191703 KSEA 191703Z 1917/2018 16006KT P6SM BKN015 BKN060
                      TEMPO 1917/1920 SCT020 BKN060 FM192000 24006KT
                       P6SM SCT030 SCT060 FM192300 30007KT P6SM
                       SCT035 BKN060 FM200600 03005KT P6SM SCT060=
201104191413 KSEA 191413Z 1914/2018 16006KT P6SM BKN013 BKN060
                      TEMPO 1916/1918 SCT015 BKN060 FM191800 24006KT
                       P6SM SCT060 FM192300 30007KT P6SM SCT060
                       FM200600 03005KT P6SM SCT060=
201104191350 KSEA 191350Z 1914/2018 17006KT P6SM SCT025 BKN060
                      TEMPO 1914/1916 BKN017 BKN060 FM191800 23006KT
                       P6SM SCT060 FM192100 32008KT P6SM SCT060
                       FM200600 03005KT P6SM SCT060=
201104191123 TAF KSEA 191123Z 1912/2018 17006KT P6SM SCT030 SCT050
                      TEMPO 1912/1916 SCT030 BKN050 FM191800 23006KT
                       P6SM SCT060 FM192100 32008KT P6SM SCT060
                       FM200600 03005KT P6SM SCT060=
201104191059 KSEA 191059Z 1911/2012 18005KT P6SM SCT050
                      TEMPO 1911/1913 BKN050 FM191300 18005KT P6SM
                       SCT035 BKN050 FM191800 25006KT P6SM SCT035
                       SCT060 FM192200 32008KT P6SM SCT060 FM200600
                       03006KT P6SM SCT060=
201104190808 KSEA 190808Z 1908/2012 18005KT P6SM SCT028 BKN050 FM191200 18005KT
                       P6SM BKN028 BKN050 FM191800 25006KT P6SM
                       SCT035 SCT060 FM192200 32008KT P6SM SCT060
                       FM200600 03006KT P6SM SCT060=
201104190540 TAF KSEA 190540Z 1906/2012 15006KT P6SM SCT060 FM190900 18005KT
                       P6SM SCT028 BKN050 FM191200 18005KT P6SM
                       BKN028 BKN050 FM191800 25006KT P6SM SCT035
                       SCT060 FM192200 32008KT P6SM SCT060 FM200600
                       03006KT P6SM SCT060=
201104190215 KSEA 190215Z 1902/2006 22009KT P6SM VCSH SCT050CB BKN200
                      TEMPO 1902/1904 -SHRAPL BKN050CB BKN200 FM191200
                       20005KT P6SM BKN030 FM191800 30006KT P6SM
                       SCT040=
201104182320 TAF KSEA 182320Z 1900/2006 VRB04KT P6SM VCSH SCT050 SCT200
                      TEMPO 1902/1906 BKN050 FM191200 20005KT P6SM
                       BKN030 FM191800 30006KT P6SM SCT040=
201104182103 KSEA 182103Z 1821/1924 32005KT P6SM SCT040 BKN120
                      TEMPO 1821/1901 -SHRA BKN040 FM190400 VRB03KT
                       P6SM SCT040 FM191200 21005KT P6SM BKN030
                       FM192000 30006KT P6SM SCT040=
201104181720 TAF KSEA 181720Z 1818/1924 VRB05KT P6SM VCSH SCT025 BKN040
                      TEMPO 1818/1820 5SM -SHRA BKN025 OVC040 FM182200
                       34007KT P6SM VCSH BKN040CB BKN120 FM190400
                       VRB03KT P6SM SCT040 FM191200 21005KT P6SM
                       BKN030 FM192000 30006KT P6SM SCT040=
201104181505 KSEA 181505Z 1815/1918 VRB05KT P6SM VCSH SCT025 BKN050 FM182100
                       VRB05KT P6SM -SHRA BKN035CB BKN120 FM190300
                       34008KT P6SM VCSH SCT035 BKN050 FM191200
                       VRB03KT P6SM SCT025 SCT050
                      TEMPO 1912/1916 BKN025 BKN050=
201104181258 KSEA 181258Z 1813/1918 00000KT P6SM FEW025 SCT035 BKN070
                      TEMPO 1813/1815 -SHRA BKN025 BKN035 OVC070
                       FM181500 21006KT P6SM -SHRA BKN025 OVC050
                       FM181900 26006KT P6SM VCSH BKN035 BKN050
                       TEMPO 1819/1823 -SHRA OVC030 FM182300 26008KT
                       P6SM BKN035 BKN050
                      PROB30 1823/1903 -SHRA FM190300 21008KT P6SM
                       BKN035 BKN050
                      PROB30 1903/1909 -SHRA=
201104181143 TAF KSEA 181143Z 1812/1918 VRB05KT P6SM VCSH BKN025 OVC050
                      TEMPO 1812/1815 -SHRA FM181500 21006KT P6SM
                       -SHRA BKN025 OVC050 FM181900 26006KT P6SM
                       VCSH BKN035 BKN050
                      TEMPO 1819/1823 -SHRA OVC030 FM182300 26008KT
                       P6SM BKN035 BKN050
                      PROB30 1823/1903 -SHRA FM190300 21008KT P6SM
                       BKN035 BKN050
                      PROB30 1903/1909 -SHRA=
201104181005 KSEA 181005Z 1810/1912 21005KT P6SM BKN020 OVC040
                      TEMPO 1810/1812 -SHRA FM181200 17005KT P6SM
                       VCSH SCT025 BKN050
                      TEMPO 1812/1816 BKN025 OVC050 FM181800 22006KT
                       P6SM BKN060 FM182000 26008KT P6SM BKN060
                       FM190600 20008KT P6SM SCT030 BKN050
                      PROB30 1906/1912 -SHRA OVC030=
201104181002 KSEA 181002Z 1810/1912 21005KT P6SM BKN020 OVC040
                      TEMPO 1810/1812 -SHRA FM181200 17005KT P6SM
                       VCSH SCT025 BKN050
                      TEMPO 1813/1817 BKN025 OVC050 FM181800 22006KT
                       P6SM BKN060 FM182000 26008KT P6SM BKN060
                       FM190600 20008KT P6SM SCT030 BKN050
                      PROB30 1906/1912 -SHRA OVC030=
201104180846 KSEA 180846Z 1809/1912 VRB04KT P6SM SCT025 BKN060
                      TEMPO 1809/1812 BKN025 OVC060 FM181200 17005KT
                       P6SM SCT035 BKN060
                      TEMPO 1813/1817 BKN035 BKN060 FM181800 22006KT
                       P6SM BKN060 FM182000 26008KT P6SM BKN060
                       FM190600 20008KT P6SM SCT030 BKN050
                      PROB30 1906/1912 -SHRA OVC030=
201104180542 TAF KSEA 180542Z 1806/1912 VRB04KT P6SM BKN080 OVC120 FM180900
                       VRB04KT P6SM SCT060 SCT120 FM181200 17005KT
                       P6SM SCT035 BKN060
                      TEMPO 1813/1817 BKN035 BKN060 FM181800 22006KT
                       P6SM BKN060 FM182000 26008KT P6SM BKN060
                       FM190600 20008KT P6SM SCT030 BKN050
                      PROB30 1906/1912 -SHRA OVC030=
201104180302 KSEA 180302Z 1803/1906 VRB04KT P6SM VCSH SCT045 OVC080 FM180600
                       04006KT P6SM SCT040 SCT080 FM180900 14005KT
                       P6SM BKN040 FM182000 23007KT P6SM SCT040
                       BKN050=
201104172330 TAF KSEA 172330Z 1800/1906 36005KT P6SM VCSH SCT045 BKN060 BKN080
                       FM180300 01005KT P6SM BKN050 BKN080 FM180600
                       04006KT P6SM SCT040 FM180900 14005KT P6SM
                       BKN040 FM182000 23007KT P6SM SCT040 BKN050=
201104172103 KSEA 172103Z 1721/1824 24007KT P6SM FEW040 BKN050 FM180100 34009KT
                       P6SM BKN050 FM180600 04006KT P6SM BKN040
                       FM180900 16005KT P6SM BKN040=
201104171720 TAF KSEA 171720Z 1718/1824 23006KT P6SM SCT040 BKN050 FM172100
                       28008KT P6SM BKN050 FM180100 34009KT P6SM
                       BKN050 FM180600 04006KT P6SM BKN040 FM180900
                       16005KT P6SM BKN040=
201104171506 KSEA 171506Z 1715/1818 23003KT P6SM SCT040 BKN050 FM171900 23006KT
                       P6SM BKN060 FM172100 28008KT P6SM BKN060
                       FM180100 35008KT P6SM VCSH BKN060 FM180600
                       04006KT P6SM OVC040=
201104171139 TAF KSEA 171139Z 1712/1818 VRB03KT P6SM BKN050 FM171800 23006KT
                       P6SM BKN060 FM172100 28008KT P6SM BKN060
                       FM180100 35008KT P6SM VCSH BKN060 FM180600
                       04006KT P6SM OVC040=
201104170859 KSEA 170859Z 1709/1812 VRB03KT P6SM BKN050 FM171800 23006KT P6SM
                       BKN050 FM172100 26008KT P6SM SCT060 BKN200
                       FM180100 31008KT P6SM VCSH BKN060 BKN200
                       FM180400 02008KT P6SM VCSH BKN040 BKN200=
201104170757 KSEA 170757Z 1708/1812 VRB03KT P6SM OVC050 FM171800 23006KT P6SM
                       BKN050 FM172100 26008KT P6SM SCT060 BKN200
                       FM180100 31008KT P6SM VCSH BKN060 BKN200
                       FM180400 02008KT P6SM VCSH BKN040 BKN200=
201104170532 TAF KSEA 170532Z 1706/1812 04010KT P6SM OVC040 FM171200 07006KT
                       P6SM BKN040 FM171800 23006KT P6SM BKN050
                       FM172100 26008KT P6SM SCT060 BKN200 FM180100
                       31008KT P6SM VCSH BKN060 BKN200 FM180400
                       02008KT P6SM VCSH BKN040 BKN200=
201104170232 KSEA 170232Z 1703/1806 02013KT P6SM SCT028 BKN050
                      TEMPO 1703/1706 BKN028 BKN050 FM170600 05005KT
                       P6SM BKN040 FM170900 16005KT P6SM BKN050
                       FM172000 20006KT P6SM BKN050=
201104162332 TAF KSEA 162332Z 1700/1806 33007KT P6SM VCSH SCT030 BKN040
                      TEMPO 1700/1704 -SHRA BKN025 FM170400 36006KT
                       P6SM VCSH SCT030 BKN040 FM170600 05005KT
                       P6SM BKN040 FM170900 16005KT P6SM BKN050
                       FM172000 20006KT P6SM BKN050=
201104162108 KSEA 162108Z 1621/1724 23015G22KT P6SM VCSH BKN050 BKN120 FM170000
                       VRB05KT P6SM VCSH SCT030 BKN040 BKN120 FM170200
                       35006KT P6SM VCSH SCT030 BKN040 BKN120 FM170600
                       05005KT P6SM BKN050 BKN200=
201104161727 TAF KSEA 161727Z 1618/1724 21011G18KT P6SM SCT010 BKN045 BKN120
                       TEMPO 1618/1620 BKN016 FM162000 23015G22KT
                       P6SM BKN050 BKN120 FM170000 27010KT P6SM
                       SCT050 BKN120 FM170200 35006KT P6SM SCT050
                       BKN120 FM170600 05005KT P6SM BKN050 BKN200=
201104161502 KSEA 161502Z 1615/1718 23007KT P6SM SCT004 BKN008 OVC040
                      TEMPO 1615/1617 4SM BR BKN004 FM161700 23011KT
                       P6SM BKN020 OVC040 FM162000 23015G22KT P6SM
                       BKN050 BKN200 FM170000 27010KT P6SM SCT050
                       BKN200 FM170300 35009KT P6SM SCT050 BKN200
                       FM170600 05005KT P6SM BKN050 BKN200
                      PROB30 1706/1712 -SHRA OVC030=
201104161301 KSEA 161301Z 1613/1718 22006KT 1 1/2SM -DZ BR BKN003 OVC005
                      TEMPO 1614/1617 4SM BR SCT003 BKN008 OVC013
                       FM161700 23011KT P6SM BKN028 OVC050 FM162000
                       23015G22KT P6SM BKN050 BKN200 FM170000 27010KT
                       P6SM SCT050 BKN200 FM170300 35009KT P6SM
                       SCT050 BKN200 FM170600 05005KT P6SM BKN050
                       BKN200
                      PROB30 1706/1712 -SHRA OVC030=
201104161140 TAF KSEA 161140Z 1612/1718 21005KT 4SM -DZ BR BKN007 OVC015
                      TEMPO 1612/1614 2SM -DZ BR BKN004 OVC010
                       FM161400 23006KT P6SM BKN015 OVC028 FM161700
                       23011KT P6SM BKN028 OVC050 FM162000 23015G22KT
                       P6SM BKN050 BKN200 FM170000 27010KT P6SM
                       SCT050 BKN200 FM170300 35009KT P6SM SCT050
                       BKN200 FM170600 05005KT P6SM BKN050 BKN200
                       PROB30 1706/1712 -SHRA OVC030=
201104161047 KSEA 161047Z 1611/1712 VRB03KT 4SM -DZ BR BKN007 OVC015
                      TEMPO 1611/1613 2SM -DZ BR BKN004 OVC010
                       FM161300 23005KT P6SM BKN015 OVC028
                      TEMPO 1613/1615 5SM -DZ BR BKN009 OVC020
                       FM161700 23011KT P6SM BKN028 OVC050 FM162000
                       23015G22KT P6SM BKN050 BKN200 FM170000 23015G22KT
                       P6SM SCT050 BKN200 FM170300 32009KT P6SM
                       SCT050 BKN200 FM170600 02007KT P6SM SCT050
                       BKN200=
201104160904 KSEA 160904Z 1609/1712 VRB03KT 4SM -DZ BR BKN007 OVC015
                      TEMPO 1609/1612 2SM -DZ BR BKN004 OVC010
                       FM161200 23005KT P6SM BKN015 OVC028
                      TEMPO 1612/1614 5SM -DZ BR BKN009 OVC020
                       FM161700 23011KT P6SM BKN028 OVC050 FM162000
                       23015G22KT P6SM BKN050 BKN200 FM170000 23015G22KT
                       P6SM SCT050 BKN200 FM170300 32009KT P6SM
                       SCT050 BKN200 FM170600 02007KT P6SM SCT050
                       BKN200=
201104160649 KSEA 160649Z 1607/1712 VRB03KT 3SM -DZ BR BKN008 OVC015
                      TEMPO 1607/1609 1SM -DZ BR BKN003 OVC008
                       FM160900 23005KT P6SM SCT012 OVC025
                      TEMPO 1609/1613 5SM -DZ BR BKN012 OVC025
                       FM161700 23011KT P6SM BKN028 OVC050 FM162000
                       23015G22KT P6SM BKN050 BKN200 FM170000 23015G22KT
                       P6SM SCT050 BKN200 FM170300 32009KT P6SM
                       SCT050 BKN200 FM170600 02007KT P6SM SCT050
                       BKN200=
201104160622 KSEA 160622Z 1606/1712 VRB03KT 5SM -DZ BR BKN008 OVC015
                      TEMPO 1606/1609 2SM -DZ BR BKN003 OVC008
                       FM160900 23005KT P6SM SCT012 OVC025
                      TEMPO 1609/1613 5SM -DZ BR BKN012 OVC025
                       FM161700 23011KT P6SM BKN028 OVC050 FM162000
                       23015G22KT P6SM BKN050 BKN200 FM170000 23015G22KT
                       P6SM SCT050 BKN200 FM170300 32009KT P6SM
                       SCT050 BKN200 FM170600 02007KT P6SM SCT050
                       BKN200=
201104160530 TAF KSEA 160530Z 1606/1712 VRB03KT P6SM -DZ FEW008 OVC015
                      TEMPO 1606/1609 5SM -DZ BKN008 OVC015 FM160900
                       23005KT P6SM SCT012 OVC025
                      TEMPO 1609/1613 BKN012 OVC025 FM161700 23011KT
                       P6SM BKN028 OVC050 FM162000 23015G22KT P6SM
                       BKN050 BKN200 FM170000 23015G22KT P6SM SCT050
                       BKN200 FM170300 32009KT P6SM SCT050 BKN200
                       FM170600 02007KT P6SM SCT050 BKN200=
201104160403 KSEA 160403Z 1604/1706 VRB03KT P6SM -DZ SCT018 OVC040
                      TEMPO 1604/1606 5SM -DZ BKN018 OVC030 FM160700
                       21008KT P6SM BKN025 OVC040 FM161900 23012KT
                       P6SM BKN030 BKN040=
201104160301 KSEA 160301Z 1603/1706 VRB03KT P6SM -DZ SCT025 OVC045
                      TEMPO 1603/1606 5SM -DZ BKN025 OVC040 FM160700
                       21008KT P6SM BKN025 OVC040 FM161900 23012KT
                       P6SM BKN030 BKN040=
201104160019 KSEA 160019Z 1600/1706 31005KT P6SM VCSH BKN028 OVC040 FM160700
                       21008KT P6SM BKN025 OVC040 FM161900 23012KT
                       P6SM BKN030 BKN040=
201104152320 TAF KSEA 152320Z 1600/1706 07005KT P6SM VCSH SCT040 BKN060 OVC120
                       FM160300 VRB04KT P6SM SCT025 OVC035 FM160700
                       21008KT P6SM BKN025 OVC040 FM161900 23012KT
                       P6SM BKN030 BKN040=
201104152104 KSEA 152104Z 1521/1624 06007KT P6SM SCT025 BKN035 OVC060
                      TEMPO 1521/1523 -RA BKN030 FM152300 35006KT
                       P6SM SCT030 BKN040 OVC060 FM160700 18004KT
                       P6SM OVC025 FM161500 20010KT P6SM OVC030=
201104151722 TAF KSEA 151722Z 1518/1624 05005KT P6SM FEW020 BKN035 OVC060
                      TEMPO 1518/1522 -RA BKN030 FM152200 35006KT
                       P6SM SCT040 OVC070 FM160700 18004KT P6SM
                       OVC025 FM161500 20010KT P6SM OVC030=
201104151507 KSEA 151507Z 1515/1618 05005KT P6SM -RA FEW020 BKN035 OVC050 FM152100
                       34006KT P6SM OVC045
                      TEMPO 1521/1601 -RA FM160700 18004KT P6SM
                       OVC025 FM161500 16006KT P6SM OVC050=
201104151135 TAF KSEA 151135Z 1512/1618 11003KT P6SM SCT045 OVC090
                      TEMPO 1513/1517 -RA BKN045 OVC080 FM151700
                       05005KT P6SM SCT025 OVC045
                      TEMPO 1517/1521 -RA BKN025 OVC040 FM152100
                       34006KT P6SM OVC045
                      TEMPO 1521/1601 -RA FM160700 18004KT P6SM
                       OVC025 FM161500 16006KT P6SM OVC050=
201104150905 TAF AMD KSEA 150905Z 1509/1612 19008KT P6SM OVC080 FM151200 VRB03KT
                       P6SM SCT013 BKN080
                      TEMPO 1512/1515 BKN013 FM151700 01003KT P6SM
                       SCT017 BKN045 OVC100
                      TEMPO 1518/1522 -RA FM152200 32005KT P6SM
                       BKN045 OVC100
                      TEMPO 1522/1602 -RA FM160200 VRB05KT P6SM
                       OVC045=
201104150535 TAF KSEA 150535Z 1506/1612 20012G18KT P6SM VCSH SCT015 BKN100
                      TEMPO 1506/1510 BKN015 BKN060 FM151000 VRB03KT
                       P6SM BKN013 FM151700 01003KT P6SM SCT017
                       BKN045 OVC100
                      TEMPO 1518/1522 -RA FM152200 32005KT P6SM
                       BKN045 OVC100
                      TEMPO 1522/1602 -RA FM160200 VRB05KT P6SM
                       OVC045=
201104150300 KSEA 150300Z 1503/1606 19009KT P6SM -SHRA SCT016 BKN022 BKN050
                       FM150600 18009KT P6SM BKN030 FM151200 12004KT
                       P6SM SCT030 BKN120 FM151800 VRB04KT P6SM
                       BKN080 FM160000 35005KT P6SM BKN060=
201104142320 TAF KSEA 142320Z 1500/1606 22014G24KT P6SM -SHRA BKN015 OVC030
                       FM150600 18009KT P6SM BKN030 FM151200 12004KT
                       P6SM SCT030 BKN120 FM151800 VRB04KT P6SM
                       BKN080 FM160000 35005KT P6SM BKN060=
201104142101 KSEA 142101Z 1421/1524 18012G20KT P6SM -SHRA BKN025 OVC050
                      TEMPO 1421/1423 4SM RA BR OVC022 FM142300
                       22016G28KT P6SM -SHRA BKN015 OVC030 FM150900
                       17009KT P6SM VCSH OVC050 FM151200 12004KT
                       P6SM SCT020 SCT120 FM152100 VRB04KT P6SM
                       BKN120=
201104142100 KSEA 142100Z 1421/1524 18012G20KT P6SM -SHRA BKN025 OVC050 FM142300
                       22016G28KT P6SM -SHRA BKN015 OVC030 FM150900
                       17009KT P6SM VCSH OVC050 FM151200 12004KT
                       P6SM SCT020 SCT120 FM152100 VRB04KT P6SM
                       BKN120=
201104141738 TAF KSEA 141738Z 1418/1524 18012G20KT P6SM -SHRA BKN025 OVC050
                       FM142200 22016G28KT P6SM -SHRA BKN015 OVC030
                       FM150900 17009KT P6SM VCSH OVC050 FM151200
                       12004KT P6SM SCT020 SCT120 FM152100 VRB04KT
                       P6SM BKN120=
201104141125 TAF KSEA 141125Z 1412/1518 19010KT P6SM VCSH SCT020 BKN035 OVC050
                       TEMPO 1412/1416 -SHRA BKN020 BKN030 OVC040
                       FM141800 18010KT P6SM -SHRA OVC050 FM142200
                       22016G26KT P6SM -SHRA BKN015 OVC030 FM150800
                       15004KT P6SM VCSH OVC050 FM151200 06004KT
                       P6SM SCT050 BKN100=
201104140905 KSEA 140905Z 1409/1512 17006KT P6SM SCT022 BKN035 BKN060
                      TEMPO 1410/1414 -SHRA BKN022 BKN035 OVC050
                       FM141400 18005KT P6SM OVC050
                      TEMPO 1414/1418 -RA FM141800 21010KT P6SM
                       -RA OVC050 FM142200 22016G26KT P6SM -RA
                       BKN015 OVC030 FM150600 21012KT P6SM VCSH
                       OVC050=
201104140535 TAF KSEA 140535Z 1406/1512 19009KT P6SM -SHRA SCT014 BKN030 OVC050
                       FM140900 19008KT P6SM VCSH SCT025 BKN050
                       TEMPO 1410/1414 -SHRA BKN025 OVC050 FM141400
                       18005KT P6SM OVC050
                      TEMPO 1414/1418 -RA FM141800 21010KT P6SM
                       -RA OVC050 FM142200 22016G26KT P6SM -RA
                       BKN015 OVC030 FM150600 21012KT P6SM VCSH
                       OVC050=
201104140305 KSEA 140305Z 1403/1506 19010KT P6SM VCSH SCT030 SCT040 BKN100
                      TEMPO 1403/1407 -SHRA BKN030 BKN040 BKN070
                       FM140700 19007KT P6SM VCSH SCT030 BKN070
                       FM141100 17007KT P6SM -RA OVC020 FM142100
                       22010G20KT P6SM -SHRA BKN030=
201104140022 KSEA 140022Z 1400/1506 20010G20KT P6SM VCSH SCT025 BKN080
                      TEMPO 1400/1401 TS BKN025CB FM140400 20007KT
                       P6SM VCSH BKN030 FM141100 17007KT P6SM -RA
                       OVC020 FM142100 22010G20KT P6SM -SHRA BKN030=
201104132337 TAF KSEA 132337Z 1400/1506 20010G20KT P6SM VCSH SCT025 BKN080
                      TEMPO 1400/1403 -SHRA BKN025 FM140400 20007KT
                       P6SM VCSH BKN030 FM141100 17007KT P6SM -RA
                       OVC020 FM142100 22010G20KT P6SM -SHRA BKN030=
201104132108 TAF AMD KSEA 132108Z 1321/1424 21011KT P6SM -RA FEW010 BKN022 OVC035
                       FM140400 20007KT P6SM -SHRA BKN030 FM141000
                       18007KT P6SM -SHRA BKN020 OVC050 FM141700
                       21010KT P6SM -RA BKN020 OVC040=
201104131730 TAF KSEA 131730Z 1318/1424 23010KT P6SM -RA BKN035 OVC050 FM132000
                       21012KT P6SM -SHRA BKN030 OVC040 FM140800
                       18007KT P6SM -SHRA BKN025 OVC050 FM141700
                       21010KT P6SM -RA BKN020 OVC040=
201104131504 KSEA 131504Z 1315/1418 20005KT P6SM -RA BKN030 OVC045 FM132000
                       21012KT P6SM -SHRA OVC025 FM140800 19010KT
                       P6SM VCSH SCT030 OVC050=
201104131135 TAF KSEA 131135Z 1312/1418 12006KT P6SM SCT035 OVC100
                      TEMPO 1312/1314 -RA BKN035 OVC100 FM131400
                       22005KT P6SM -RA OVC035 FM132000 21012KT
                       P6SM -SHRA OVC025 FM140800 19010KT P6SM
                       VCSH SCT030 OVC050=
201104130900 TAF AMD KSEA 130900Z 1309/1412 17003KT P6SM SCT060 OVC100 FM131400
                       22005KT P6SM -RA OVC040 FM132000 21012KT
                       P6SM -SHRA OVC025=
201104130535 TAF KSEA 130535Z 1306/1412 10004KT P6SM OVC100 FM130900 VRB04KT
                       P6SM SCT050 OVC100 FM131400 22005KT P6SM
                       -RA OVC040 FM132000 21012KT P6SM -SHRA OVC025=
201104130305 KSEA 130305Z 1303/1406 00000KT P6SM FEW035 SCT110 OVC180 FM130900
                       VRB04KT P6SM SCT050 OVC100 FM131400 22005KT
                       P6SM OVC050
                      TEMPO 1314/1318 -RA FM131800 22011KT P6SM
                       -SHRA OVC035=
201104122320 TAF KSEA 122320Z 1300/1406 24007KT P6SM SCT035 BKN200 FM130300
                       24006KT P6SM SCT050 OVC100 FM130900 VRB04KT
                       P6SM SCT050 OVC100 FM131400 22005KT P6SM
                       OVC050
                      TEMPO 1314/1318 -RA FM131800 22011KT P6SM
                       -SHRA OVC035=
201104122128 KSEA 122128Z 1221/1324 25006KT P6SM SCT035 OVC200 FM130300 23005KT
                       P6SM OVC100 FM130900 14004KT P6SM OVC100
                       FM131400 18004KT P6SM OVC050
                      TEMPO 1314/1318 -RA FM131800 22010KT P6SM
                       OVC045=
201104121720 TAF KSEA 121720Z 1218/1324 15005KT P6SM SCT120 BKN200 FM122000
                       23006KT P6SM SCT100 OVC250 FM130300 23003KT
                       P6SM OVC100 FM130900 14004KT P6SM OVC100
                       FM131400 18004KT P6SM OVC050
                      TEMPO 1314/1318 -RA FM131800 22010KT P6SM
                       OVC045=
201104121503 KSEA 121503Z 1215/1318 15005KT P6SM SCT120 BKN200 FM122000 24006KT
                       P6SM SCT100 OVC250 FM130300 24003KT P6SM
                       OVC100 FM130900 14004KT P6SM OVC100 FM131400
                       18004KT P6SM OVC050
                      TEMPO 1314/1318 -RA=
201104121130 TAF KSEA 121130Z 1212/1318 15006KT P6SM SCT120 BKN250 FM122000
                       24006KT P6SM SCT100 OVC250 FM130300 24003KT
                       P6SM OVC100 FM130900 14004KT P6SM OVC100
                       FM131400 18004KT P6SM OVC050
                      TEMPO 1314/1318 -RA=
201104120905 TAF AMD KSEA 120905Z 1209/1312 16005KT P6SM SCT060 FM121000 16004KT
                       P6SM BKN100 FM122100 24006KT P6SM SCT100
                       OVC250 FM130300 24003KT P6SM OVC100 FM130900
                       14004KT P6SM OVC100=
201104120535 TAF KSEA 120535Z 1206/1312 23006KT P6SM SCT060
                      TEMPO 1206/1210 BKN060 FM121000 16004KT P6SM
                       BKN100 FM122100 24006KT P6SM SCT100 OVC250
                       FM130300 24003KT P6SM OVC100 FM130900 14004KT
                       P6SM OVC100=
201104120414 KSEA 120414Z 1204/1306 23009KT P6SM SCT040 BKN070 FM120800 18008KT
                       P6SM SCT020 SCT100 FM121800 18006KT P6SM
                       SCT120=
201104112327 TAF KSEA 112327Z 1200/1306 22014G25KT P6SM VCSH SCT035 SCT120 BKN200
                       TEMPO 1200/1202 -SHRA BKN030 FM120200 20013G22KT
                       P6SM SCT045 SCT100 FM120800 18009KT P6SM
                       SCT020 SCT100 FM121800 18006KT P6SM SCT120=
201104112101 KSEA 112101Z 1121/1224 22015G25KT P6SM SCT035 BKN100
                      TEMPO 1121/1201 -SHRA BKN035 FM120200 20013G22KT
                       P6SM SCT040 SCT100 FM120800 18009KT P6SM
                       SCT020 SCT100 FM121800 18006KT P6SM SCT120=
201104111728 TAF KSEA 111728Z 1118/1224 20015G25KT P6SM SCT022 BKN100 FM120200
                       19010KT P6SM SCT040 SCT100 FM120800 16006KT
                       P6SM SCT020 SCT100 FM121800 18006KT P6SM
                       SCT120=
201104111557 KSEA 111557Z 1116/1218 21015G21KT P6SM SCT018 BKN080 FM111800 20012KT
                       P6SM SCT022 BKN100 FM120100 19008KT P6SM
                       SCT035 BKN090 FM120800 17006KT P6SM FEW050
                       BKN150=
201104111439 KSEA 111439Z 1115/1218 21014G21KT P6SM BKN018 BKN080 FM111800 20012KT
                       P6SM SCT030 BKN060 FM120100 19008KT P6SM
                       SCT035 BKN090 FM120800 17006KT P6SM FEW050
                       BKN150=
201104111128 TAF KSEA 111128Z 1112/1218 20012G18KT P6SM SCT020 BKN080 FM111600
                       21012KT P6SM SCT030 BKN060 FM120100 19008KT
                       P6SM SCT035 BKN090 FM120800 17006KT P6SM
                       FEW050 BKN150=
201104110855 KSEA 110855Z 1109/1212 20010G17KT P6SM SCT020 BKN060 OVC090
                      TEMPO 1109/1112 -SHRA BKN020 OVC060 FM111200
                       21014G20KT P6SM SCT025 OVC040 FM111600 22013KT
                       P6SM SCT030 BKN045 FM112200 20010KT P6SM
                       SCT030 BKN060=
201104110526 TAF KSEA 110526Z 1106/1212 17012KT P6SM -RA FEW020 OVC040
                      TEMPO 1106/1108 -RA BKN020 OVC035 FM110800
                       20015G23KT P6SM -SHRA BKN030 BKN050 FM111200
                       21014G20KT P6SM BKN025 OVC040 FM111600 22013KT
                       P6SM SCT030 BKN045 FM112200 20010KT P6SM
                       SCT030 BKN060=
201104110233 KSEA 110233Z 1103/1206 19012G18KT P6SM -RA OVC040
                      TEMPO 1104/1108 -RA BKN020 OVC035 FM110800
                       21012G22KT P6SM -SHRA BKN030 BKN050 FM111300
                       20008KT P6SM VCSH BKN025 OVC040 FM111600
                       22012G18KT P6SM VCSH SCT030 BKN045 FM120000
                       20010KT P6SM VCSH SCT030 BKN045=
201104102320 TAF KSEA 102320Z 1100/1206 19010G18KT P6SM -SHRA OVC035 FM110200
                       18014G22KT P6SM -RA BKN020 OVC035 FM110800
                       21012G22KT P6SM -SHRA BKN030 BKN050 FM111300
                       20008KT P6SM VCSH BKN025 OVC040 FM111600
                       22012G18KT P6SM VCSH SCT030 BKN045 FM120000
                       20010KT P6SM VCSH SCT030 BKN045=
201104102100 KSEA 102100Z 1021/1124 21011G19KT P6SM -SHRA BKN035 BKN045 OVC070
                       FM110200 18014G22KT P6SM -RA BKN020 OVC035
                       FM110800 21012G22KT P6SM -SHRA BKN030 BKN050
                       FM111300 20008KT P6SM VCSH BKN025 OVC040
                       FM111600 22012G18KT P6SM VCSH SCT030 BKN040=
201104101738 TAF KSEA 101738Z 1018/1124 16009KT P6SM OVC028
                      TEMPO 1018/1020 -RA FM102000 19012G20KT P6SM
                       SCT028 BKN040 FM110200 18014G22KT P6SM -RA
                       BKN020 OVC035 FM110800 21012G22KT P6SM -SHRA
                       BKN030 BKN050 FM111300 20008KT P6SM VCSH
                       BKN025 OVC040 FM111600 22012G18KT P6SM VCSH
                       SCT030 BKN040=
201104101416 KSEA 101416Z 1014/1118 15009KT P6SM -RA FEW015 OVC030 FM102000
                       19012G20KT P6SM SCT025 BKN040 FM110500 17012KT
                       P6SM -RA BKN020 OVC035 FM111200 19016G24KT
                       P6SM -SHRA BKN030 OVC050=
201104101123 TAF KSEA 101123Z 1012/1118 17008KT P6SM -RA OVC030 FM101400 16006KT
                       P6SM -RA OVC015 FM102000 19012G20KT P6SM
                       SCT025 BKN040 FM110500 17012KT P6SM -RA
                       BKN020 OVC035 FM111200 19016G24KT P6SM -SHRA
                       BKN030 OVC050=
201104100900 KSEA 100900Z 1009/1112 18006KT P6SM FEW020 BKN030 OVC040
                      TEMPO 1009/1012 -RA BKN020 OVC040 FM101200
                       18008KT P6SM -RA OVC020 FM102000 19013G20KT
                       P6SM SCT025 BKN040 FM110500 17012KT P6SM
                       -RA BKN025 OVC040=
201104100750 KSEA 100750Z 1008/1112 17006KT P6SM SCT020 OVC060
                      TEMPO 1008/1012 -RA BKN020 OVC060 FM101200
                       18008KT P6SM -RA OVC020 FM102000 19013G20KT
                       P6SM SCT025 BKN040 FM110500 17012KT P6SM
                       -RA BKN025 OVC040=
201104100529 TAF KSEA 100529Z 1006/1112 20008KT P6SM OVC070
                      TEMPO 1006/1009 BKN045 OVC070 FM100900 18008KT
                       P6SM SCT025 OVC040 FM101100 18008KT P6SM
                       -RA OVC020 FM102000 19013G20KT P6SM SCT025
                       BKN040 FM110500 17012KT P6SM -RA BKN025
                       OVC040=
201104100301 KSEA 100301Z 1003/1106 23008KT P6SM SCT045 OVC100
                      TEMPO 1003/1007 BKN045 OVC100 FM100700 18008KT
                       P6SM SCT025 OVC040 FM101000 18008KT P6SM
                       -RA OVC025 FM102000 19012G18KT P6SM VCSH
                       SCT025 BKN040 FM110000 19012G20KT P6SM -RA
                       BKN025 OVC040=
201104100006 KSEA 100006Z 1000/1106 23009KT P6SM OVC080 FM100300 18008KT P6SM
                       OVC040 FM100700 18008KT P6SM SCT025 OVC040
                       FM101000 18008KT P6SM -RA OVC025 FM102000
                       19012G18KT P6SM VCSH SCT025 BKN040 FM110000
                       19012G20KT P6SM -RA BKN025 OVC040=
201104092336 TAF KSEA 092336Z 1000/1106 23009KT P6SM BKN040 OVC100 FM100300
                       18008KT P6SM OVC040 FM100700 18008KT P6SM
                       SCT025 OVC040 FM101000 18008KT P6SM -RA
                       OVC025 FM102000 19012G18KT P6SM VCSH SCT025
                       BKN040 FM110000 19012G20KT P6SM -RA BKN025
                       OVC040=
201104092203 KSEA 092203Z 0922/1024 19008G16KT P6SM FEW035 SCT100 BKN190 FM100100
                       18008KT P6SM OVC070 FM101000 18008KT P6SM
                       BKN025 OVC050
                      TEMPO 1010/1014 -RA FM101400 18012KT P6SM
                       -RA OVC025=
201104091724 TAF KSEA 091724Z 0918/1024 22010KT P6SM BKN017 OVC021 FM091930
                       22010KT P6SM SCT030 OVC070 FM092100 22010KT
                       P6SM OVC070 FM101000 18008KT P6SM BKN025
                       OVC050
                      TEMPO 1010/1014 -RA FM101400 18012KT P6SM
                       -RA OVC025=
201104091518 KSEA 091518Z 0915/1018 17005KT P6SM SCT012 BKN120 BKN200
                      TEMPO 0915/0918 BKN012 BKN120 BKN200 FM091800
                       22010KT P6SM OVC060
                      PROB30 1006/1012 -RA OVC035=
201104091501 KSEA 091501Z 0915/1018 17005KT P6SM SCT012 BKN120 BKN200 FM091800
                       22010KT P6SM OVC060
                      PROB30 1006/1012 -RA OVC035=
201104091128 TAF KSEA 091128Z 0911/1012 18005KT P6SM OVC080 FM091800 22010KT
                       P6SM OVC060
                      PROB30 1006/1012 -RA OVC035=
201104090802 TAF KSEA 090802Z 0908/1012 00000KT P6SM SCT070 BKN120 FM090900
                       17004KT P6SM BKN100 FM091500 19005KT P6SM
                       SCT015 BKN070 OVC100 FM092200 19007KT P6SM
                       OVC050=
201104090300 KSEA 090300Z 0903/1006 29004KT P6SM SCT070 BKN090 BKN200 FM090900
                       17004KT P6SM BKN100 FM091500 19005KT P6SM
                       SCT015 BKN070 OVC100 FM092200 19007KT P6SM
                       OVC050=
201104082320 TAF KSEA 082320Z 0900/1006 31005KT P6SM FEW035 BKN250 FM090300
                       VRB05KT P6SM BKN200 FM090900 17004KT P6SM
                       BKN100 FM091500 19005KT P6SM SCT015 BKN070
                       OVC100 FM092200 19007KT P6SM OVC050=
201104082118 KSEA 082118Z 0821/0924 28004KT P6SM FEW030 BKN250 FM090300 VRB05KT
                       P6SM BKN200 FM090900 17004KT P6SM BKN100
                       FM091500 19005KT P6SM SCT015 BKN070 OVC100=
201104081735 TAF KSEA 081735Z 0818/0924 00000KT P6SM BKN021 FM081900 VRB03KT
                       P6SM SCT030 FM082000 32007KT P6SM SKC FM090300
                       VRB05KT P6SM BKN200 FM090900 17004KT P6SM
                       BKN100 FM091500 19005KT P6SM SCT015 BKN070
                       OVC100=
201104081502 KSEA 081502Z 0815/0918 13004KT P6SM BKN020 FM081800 33008KT P6SM
                       SCT250 FM090300 VRB05KT P6SM BKN200 FM090900
                       17004KT P6SM BKN120 FM091500 19005KT P6SM
                       BKN070 OVC120=
201104081300 KSEA 081300Z 0813/0918 32003KT P6SM BKN016
                      TEMPO 0813/0817 BKN006 OVC016 FM081800 33008KT
                       P6SM SCT250 FM090300 VRB05KT P6SM BKN200
                       FM090900 17004KT P6SM BKN120 FM091500 19005KT
                       P6SM BKN070 OVC120=
201104081229 KSEA 081229Z 0812/0918 32003KT P6SM BKN020 FM081300 32003KT P6SM
                       BKN018 FM081600 32004KT P6SM SCT022 FM081800
                       33008KT P6SM SCT250 FM090300 VRB05KT P6SM
                       BKN200 FM090900 17004KT P6SM BKN120 FM091500
                       19005KT P6SM BKN070 OVC120=
201104081123 TAF KSEA 081123Z 0812/0918 00000KT P6SM SKC FM081800 33008KT P6SM
                       SCT250 FM090300 VRB05KT P6SM BKN200 FM090900
                       17004KT P6SM BKN120 FM091500 19005KT P6SM
                       BKN070 OVC120=
201104080900 KSEA 080900Z 0809/0912 00000KT P6SM FEW080 FM081800 33008KT P6SM
                       SKC FM090300 VRB05KT P6SM BKN200 FM090900
                       17004KT P6SM BKN120=
201104080520 TAF KSEA 080520Z 0806/0912 06004KT P6SM BKN090 FM080900 08004KT
                       P6SM FEW090 FM081800 33008KT P6SM SKC FM090300
                       VRB05KT P6SM BKN200 FM090900 17004KT P6SM
                       BKN120=
201104080258 KSEA 080258Z 0803/0906 36009KT P6SM FEW035 SCT080 SCT200 FM080500
                       03005KT P6SM SCT060 FM081800 33008KT P6SM
                       SKC=
201104080108 KSEA 080108Z 0801/0906 36008KT P6SM FEW035 SCT060 SCT200
                      TEMPO 0801/0803 FEW035 BKN060 BKN200 FM080300
                       03005KT P6SM SCT060 FM081800 33008KT P6SM
                       SKC=
201104080105 KSEA 080105Z 0801/0906 36008KT P6SM FEW035 SCT060 SCT200
                      TEMPO 0801/0803 FEW035 BKN060 BKN200 FM080300
                       03005KT P6SM BKN040 FM081200 06003KT P6SM
                       SCT040 FM081800 33008KT P6SM SKC=
201104072322 TAF KSEA 072322Z 0800/0906 03008KT P6SM SCT025 BKN045 FM080300
                       03005KT P6SM BKN040 FM081200 06003KT P6SM
                       SCT040 FM081800 33008KT P6SM SKC=
201104072101 TAF AMD KSEA 072101Z 0721/0824 34009KT P6SM VCSH BKN025 BKN050
                       OVC100
                      TEMPO 0721/0724 -SHRA BKN020 FM080300 02005KT
                       P6SM SCT040 BKN100 FM080600 07003KT P6SM
                       SCT040=
201104071721 TAF KSEA 071721Z 0718/0824 VRB03KT P6SM VCSH BKN020 OVC050
                      TEMPO 0718/0719 4SM BR BKN007 OVC025 FM071900
                       35006KT P6SM BKN025 BKN050 OVC100 FM072000
                       34009KT P6SM BKN030 BKN050 OVC100 FM080300
                       02005KT P6SM SCT040 BKN100 FM080600 07003KT
                       P6SM SCT040=
201104071507 KSEA 071507Z 0715/0818 VRB03KT P6SM VCSH BKN025 OVC030
                      TEMPO 0715/0717 5SM -SHRA BKN007 OVC025 FM071800
                       35006KT P6SM BKN030 BKN060 FM072000 34009KT
                       P6SM BKN040 BKN080 FM080300 02005KT P6SM
                       SCT050 FM080600 07003KT P6SM FEW050=
201104071259 KSEA 071259Z 0713/0818 VRB03KT P6SM VCSH BKN012 OVC030
                      TEMPO 0713/0716 3SM BR BKN007 BKN012 OVC030
                       FM071800 35006KT P6SM BKN035 BKN060 FM072000
                       34009KT P6SM BKN040 BKN080 FM080300 02005KT
                       P6SM SCT050 FM080600 07003KT P6SM FEW050=
201104071124 TAF KSEA 071124Z 0712/0818 VRB03KT 4SM BR SCT003 OVC030
                      TEMPO 0712/0716 1SM BR BKN003 OVC030 FM071800
                       35006KT P6SM BKN035 BKN060 FM072000 34009KT
                       P6SM BKN040 BKN080 FM080300 02005KT P6SM
                       SCT050 FM080600 07003KT P6SM FEW050=
201104070858 KSEA 070858Z 0709/0812 VRB03KT 4SM BR FEW002 BKN027
                      TEMPO 0709/0712 1 1/2SM BR BKN002 OVC027
                       FM071200 35004KT P6SM OVC025 FM072000 34010KT
                       P6SM SCT040 BKN070 FM080300 02005KT P6SM
                       SCT050=
201104070605 KSEA 070605Z 0706/0812 09003KT P6SM SCT002 BKN012 OVC020
                      TEMPO 0706/0708 1 1/2SM BR BKN002 BKN012
                       OVC020 FM070800 VRB03KT P6SM SCT015 BKN050
                       BKN090
                      TEMPO 0708/0711 BKN015 OVC050 FM071100 35004KT
                       P6SM OVC025 FM072000 34010KT P6SM SCT040
                       BKN070 FM080300 02005KT P6SM SCT050=
201104070525 TAF KSEA 070525Z 0706/0812 VRB04KT P6SM BKN050 OVC090 FM071100
                       35004KT P6SM BKN030 FM072000 34010KT P6SM
                       SCT040 BKN070 FM080300 02005KT P6SM SCT050=
201104070431 KSEA 070431Z 0705/0806 06005KT P6SM FEW005 BKN020 OVC030 FM070600
                       VRB04KT P6SM SCT030 BKN050 FM071100 35005KT
                       P6SM BKN030 FM072000 33007KT P6SM SCT030=
201104070203 KSEA 070203Z 0702/0806 36008KT P6SM -SHRA SCT025 BKN035 BKN100
                       TEMPO 0702/0704 3SM SHRA BR BKN020 OVC035
                       FM070400 03005KT P6SM SCT030 BKN040 FM071100
                       35005KT P6SM BKN030 FM072000 33007KT P6SM
                       SCT030=
201104070103 KSEA 070103Z 0701/0806 19012G18KT P6SM VCTS SCT035CB BKN100 BKN200
                       TEMPO 0701/0704 2SM +SHRAGS OVC025CB FM070400
                       VRB04KT P6SM SCT030 BKN040 FM071100 35005KT
                       P6SM BKN030 FM072000 33007KT P6SM SCT030=
201104070048 KSEA 070048Z 0701/0806 20012G20KT P6SM VCTS SCT035CB BKN100 BKN200
                       TEMPO 0701/0704 2SM +SHRAGS OVC025CB FM070400
                       VRB04KT P6SM SCT030 BKN040 FM071100 35005KT
                       P6SM BKN030 FM072000 33007KT P6SM SCT030=
201104070040 KSEA 070040Z 0701/0806 20012G20KT P6SM VCSH SCT035CB SCT100 BKN200
                       TEMPO 0701/0704 2SM +SHRAGS OVC025CB FM070400
                       VRB04KT P6SM SCT030 BKN040 FM071100 35005KT
                       P6SM BKN030 FM072000 33007KT P6SM SCT030=
201104070039 KSEA 070039Z 0701/0806 20012G20KT P6SM VCSH SCT035CB SCT100 BKN200
                       TEMPO 0701/0704 2SM SHRAGS OVC025CB FM070400
                       VRB04KT P6SM SCT030 BKN040 FM071100 35005KT
                       P6SM BKN030 FM072000 33007KT P6SM SCT030=
201104062321 TAF KSEA 062321Z 0700/0806 20012G20KT P6SM VCSH SCT025 BKN040
                      TEMPO 0700/0704 -SHRA BKN025CB OVC040 FM070400
                       VRB04KT P6SM SCT030 BKN040 FM071100 35005KT
                       P6SM BKN030 FM072000 33007KT P6SM SCT030=
201104061732 TAF KSEA 061732Z 0618/0724 20012G22KT P6SM VCSH SCT015 SCT025 BKN200
                       TEMPO 0618/0620 -SHRA BKN025 FM062100 22012G20KT
                       P6SM VCSH SCT030 BKN040
                      TEMPO 0621/0624 -SHRA BKN030CB OVC060 FM070600
                       VRB04KT P6SM SCT030 BKN050=
201104061503 KSEA 061503Z 0615/0718 20012G22KT P6SM VCSH BKN015 OVC025
                      TEMPO 0615/0618 SCT015 BKN025 BKN060 FM061800
                       22012KT P6SM VCSH BKN025 BKN060 FM062100
                       24008KT P6SM VCSH SCT030 BKN060
                      TEMPO 0621/0624 -SHRA BKN030CB OVC060 FM070600
                       VRB04KT P6SM SCT030 BKN050=
201104061120 TAF KSEA 061120Z 0612/0718 20012G22KT P6SM VCSH BKN015 OVC025
                      TEMPO 0612/0616 SCT015 BKN025 BKN060 FM061600
                       22012KT P6SM VCSH BKN025 BKN060 FM062100
                       24008KT P6SM VCSH SCT030 BKN060
                      TEMPO 0621/0624 -SHRA BKN030CB OVC060 FM070600
                       VRB04KT P6SM SCT030 BKN050=
201104060902 KSEA 060902Z 0609/0712 20012G22KT P6SM -SHRA BKN015 OVC030 FM061600
                       20012G22KT P6SM VCSH BKN025 OVC040 FM062100
                       20012KT P6SM VCSH BKN030CB BKN070 FM070300
                       20010KT P6SM SCT030 BKN050=
201104060520 TAF KSEA 060520Z 0606/0712 20012G22KT P6SM -SHRA BKN020 OVC040
                       FM061600 20012G22KT P6SM VCSH BKN025 OVC040
                       FM062100 20012KT P6SM VCSH BKN030CB BKN070
                       FM070300 20010KT P6SM SCT030 BKN050=
201104060302 KSEA 060302Z 0603/0706 21015G25KT P6SM SCT025 BKN080
                      TEMPO 0604/0608 -SHRA BKN020 OVC050 FM060800
                       18014G22KT P6SM -SHRA BKN020 OVC040 FM061800
                       20013G22KT P6SM VCSH BKN025 OVC040 FM062000
                       20012KT P6SM VCSH BKN025CB BKN040 FM070300
                       20010KT P6SM SCT025 BKN045=
201104052322 TAF KSEA 052322Z 0600/0706 19014G23KT P6SM -SHRA BKN025 BKN035
                       FM060400 18014G22KT P6SM -SHRA BKN020 OVC040
                       FM061800 20013G22KT P6SM VCSH BKN025 OVC040
                       FM062000 20012KT P6SM VCSH BKN025CB BKN040
                       FM070300 20010KT P6SM SCT025 BKN045=
201104051720 TAF KSEA 051720Z 0518/0624 19014G23KT P6SM -SHRA BKN018 BKN040
                       FM052000 20017G28KT P6SM -SHRA BKN022 BKN040
                       FM060000 19015G25KT P6SM -RA OVC020 FM060600
                       18015G25KT P6SM -SHRA BKN020 OVC040 FM061800
                       20013G22KT P6SM VCSH BKN025 OVC040 FM062000
                       20012KT P6SM VCSH BKN025CB BKN040=
201104051529 KSEA 051529Z 0515/0618 20015G25KT P6SM SCT020 BKN050
                      TEMPO 0515/0518 BKN020 BKN050 FM051800 18015G25KT
                       P6SM -SHRA BKN020 OVC040 FM052200 22015G25KT
                       P6SM VCSH SCT020 BKN040 FM060600 18010G20KT
                       P6SM -SHRA BKN020 OVC040=
201104051120 TAF KSEA 051120Z 0512/0618 20015G25KT P6SM SCT020 BKN050
                      TEMPO 0512/0516 BKN020 BKN050 FM051600 18015G25KT
                       P6SM -SHRA BKN020 OVC040 FM052200 22015G25KT
                       P6SM VCSH SCT020 BKN040 FM060600 18010G20KT
                       P6SM -SHRA BKN020 OVC040=
201104050900 KSEA 050900Z 0509/0612 20012G22KT P6SM VCSH SCT020 BKN050 FM051500
                       18015G25KT P6SM -SHRA BKN020 OVC040 FM052200
                       22015G25KT P6SM VCSH SCT020 BKN040 FM060500
                       18010G20KT P6SM -SHRA BKN020 OVC040=
201104050520 TAF KSEA 050520Z 0506/0612 22012G20KT P6SM VCSH BKN015 BKN050 FM051200
                       18015G25KT P6SM -SHRA BKN020 OVC040 FM052200
                       22015G25KT P6SM VCSH SCT020 BKN040 FM060500
                       18010G20KT P6SM -SHRA BKN020 OVC040=
201104050304 KSEA 050304Z 0503/0606 22012G20KT P6SM -SHRA BKN015 BKN040 OVC080
                       FM051000 21012G22KT P6SM -SHRA BKN020 OVC035
                       FM060000 22014G22KT P6SM VCSH SCT020 BKN040=
201104042320 TAF KSEA 042320Z 0500/0606 19010KT 6SM -RA BR BKN015 OVC030 FM050300
                       21015G25KT P6SM VCSH BKN020 OVC040 FM051000
                       21018G28KT P6SM -SHRA BKN020 OVC035 FM051800
                       20014G22KT P6SM -RA OVC020 FM060100 20014G22KT
                       P6SM -SHRA BKN020 BKN035=
201104042105 KSEA 042105Z 0421/0524 16006KT P6SM -RA SCT008 OVC022
                      TEMPO 0421/0423 6SM -RA BR OVC008 FM050000
                       21013G20KT P6SM -SHRA BKN015 OVC030 FM050300
                       22015G25KT P6SM VCSH BKN020 OVC040 FM051200
                       19014G22KT P6SM -SHRA BKN020 OVC035=
201104041747 KSEA 041747Z 0418/0524 16006KT P6SM -RA SCT008 OVC022
                      TEMPO 0418/0422 6SM -RA BR OVC008 FM050000
                       21013G20KT P6SM -SHRA BKN015 OVC030 FM050300
                       22015G25KT P6SM VCSH BKN020 OVC040 FM051200
                       19014G22KT P6SM -SHRA BKN020 OVC035=
201104041726 TAF KSEA 041726Z 0418/0524 17009KT P6SM -RA FEW012 OVC020 FM050000
                       21013G20KT P6SM -SHRA BKN015 OVC030 FM050300
                       22015G25KT P6SM VCSH BKN020 OVC040 FM051200
                       19014G22KT P6SM -SHRA BKN020 OVC035=
201104041501 KSEA 041501Z 0415/0518 18012KT P6SM FEW012 OVC025
                      TEMPO 0415/0418 -DZ OVC015 FM041800 18012KT
                       4SM -RA BR OVC012 FM042100 22010KT P6SM
                       -SHRA BKN015 OVC030 FM050600 22008KT P6SM
                       VCSH BKN020 OVC040 FM051100 18012KT P6SM
                       -SHRA BKN025 BKN050=
201104041130 KSEA 041130Z 0412/0518 18012KT P6SM OVC025
                      TEMPO 0412/0416 5SM -RA BR OVC015 FM041600
                       18012KT 4SM -RA BR OVC012 FM042100 22010KT
                       P6SM -SHRA BKN015 OVC030 FM050600 22008KT
                       P6SM VCSH BKN020 OVC040 FM051100 18012KT
                       P6SM -SHRA BKN025 BKN050=
201104041120 TAF KSEA 041120Z 0412/0518 18012KT P6SM OVC015
                      TEMPO 0412/0416 5SM -RA BR OVC012 FM041600
                       18012KT 4SM -RA BR OVC012 FM042100 22010KT
                       P6SM -SHRA BKN015 OVC030 FM050600 22008KT
                       P6SM VCSH BKN020 OVC040 FM051100 18012KT
                       P6SM -SHRA BKN025 BKN050=
201104040911 KSEA 040911Z 0409/0512 20008KT P6SM -RA SCT007 OVC025
                      TEMPO 0409/0412 5SM -RA BR OVC020 FM041200
                       18012KT 5SM -RA BR SCT007 OVC022 FM042100
                       22010KT P6SM -SHRA BKN020 OVC040 FM050600
                       22008KT P6SM VCSH BKN025 OVC050=
201104040603 KSEA 040603Z 0406/0512 20008KT P6SM -RA SCT007 OVC025
                      TEMPO 0406/0409 BKN007 OVC025 FM040900 18012KT
                       5SM -RA BR SCT007 OVC022 FM041700 22010KT
                       P6SM -SHRA BKN020 OVC040 FM050000 22008KT
                       P6SM VCSH BKN025 OVC050=
201104040520 TAF KSEA 040520Z 0406/0512 20008KT P6SM -RA SCT025 OVC040
                      TEMPO 0406/0410 BKN025 OVC040 FM041000 18012KT
                       6SM -RA BR OVC022 FM041700 22010KT P6SM
                       -SHRA BKN020 OVC040 FM050000 22008KT P6SM
                       VCSH BKN025 OVC050=
201104040303 KSEA 040303Z 0403/0506 20008KT P6SM -RA SCT025 OVC040
                      TEMPO 0403/0407 BKN025 OVC040 FM040700 18012KT
                       6SM -RA BR OVC025 FM041700 22010KT P6SM
                       -SHRA BKN020 OVC040 FM050000 22008KT P6SM
                       VCSH BKN025 OVC050=
201104032324 TAF KSEA 032324Z 0400/0506 22009KT P6SM SCT050 OVC130
                      TEMPO 0400/0404 BKN050 OVC130 FM040400 19008KT
                       P6SM -RA BKN035 OVC050 FM040900 17008KT
                       P6SM -RA OVC030 FM041500 17009KT P6SM -RA
                       SCT015 OVC030 FM041800 20009KT 6SM -RA BR
                       OVC015 FM050000 23009KT 6SM -RA BR OVC020=
201104032011 KSEA 032011Z 0320/0424 22009KT P6SM BKN050 OVC150 FM040000 22009KT
                       P6SM SCT035 OVC050
                      TEMPO 0400/0404 -RA FM040400 19009KT P6SM
                       -RA BKN035 OVC050 FM040900 17009KT P6SM
                       -RA OVC025 FM041500 17009KT 5SM -RA BR OVC015
                       FM041800 21013KT 5SM -RA BR OVC015=
201104031901 KSEA 031901Z 0319/0424 20006KT P6SM SCT028 BKN050 OVC200 FM032000
                       22009KT P6SM BKN060 OVC150 FM040000 22009KT
                       P6SM SCT035 OVC060
                      TEMPO 0400/0404 -RA FM040400 19009KT P6SM
                       -RA BKN035 OVC050 FM040900 17009KT P6SM
                       -RA OVC025 FM041500 17009KT 5SM -RA BR OVC015
                       FM041800 21013KT 5SM -RA BR OVC015=
201104031727 TAF KSEA 031727Z 0318/0424 20006KT P6SM BKN020 BKN060 OVC200 FM032000
                       22009KT P6SM BKN060 OVC150 FM040000 22009KT
                       P6SM SCT035 OVC060
                      TEMPO 0400/0404 -RA FM040400 19009KT P6SM
                       -RA BKN035 OVC050 FM040900 17009KT P6SM
                       -RA OVC025 FM041500 17009KT 5SM -RA BR OVC015
                       FM041800 21013KT 5SM -RA BR OVC015=
201104031504 KSEA 031504Z 0315/0418 17006KT P6SM BKN015 BKN060 FM031800 18010KT
                       P6SM SCT025 OVC150 FM040000 18012KT P6SM
                       BKN040 OVC090 FM040500 18014KT P6SM -RA
                       OVC025=
201104031331 KSEA 031331Z 0314/0418 18008KT P6SM SCT025 BKN060
                      TEMPO 0314/0317 BKN025 BKN050 FM031800 18010KT
                       P6SM SCT025 OVC150 FM040000 18012KT P6SM
                       BKN040 OVC090 FM040500 18014KT P6SM -RA
                       OVC025=
201104031122 TAF KSEA 031122Z 0312/0418 18008KT P6SM BKN015 BKN050 FM031800
                       18010KT P6SM SCT025 OVC150 FM040000 18012KT
                       P6SM BKN040 OVC090 FM040500 18014KT P6SM
                       -RA OVC025=
201104030901 KSEA 030901Z 0309/0412 16008KT P6SM BKN015 BKN050
                      TEMPO 0309/0312 OVC012 FM031800 18010KT P6SM
                       SCT025 OVC150 FM040000 18012KT P6SM BKN040
                       OVC090 FM040500 18014KT P6SM -RA OVC025=
201104030742 KSEA 030742Z 0308/0412 16008KT P6SM BKN015 BKN050
                      TEMPO 0310/0314 SCT020 BKN060 FM031800 18010KT
                       P6SM SCT040 OVC150 FM040000 18012KT P6SM
                       BKN040 OVC090 FM040500 18014KT P6SM -RA
                       OVC025=
201104030520 TAF KSEA 030520Z 0306/0412 20008KT P6SM BKN025 BKN050
                      TEMPO 0307/0311 SCT030 BKN060 FM031800 18010KT
                       P6SM SCT040 OVC150 FM040000 18012KT P6SM
                       BKN040 OVC090 FM040500 18014KT P6SM -RA
                       OVC025=
201104030301 KSEA 030301Z 0303/0406 22009KT P6SM VCSH BKN035 BKN050 FM031800
                       22009KT P6SM SCT030 BKN050 BKN100
                      TEMPO 0318/0320 BKN030 OVC050 FM032000 22009KT
                       P6SM SCT050 BKN100 OVC200 FM040000 19008KT
                       P6SM BKN050 OVC100
                      PROB30 0400/0406 -RA=
201104022345 TAF KSEA 022345Z 0300/0406 VRB05KT P6SM -SHRA OVC035
                      TEMPO 0300/0304 4SM SHRA OVC025 FM030400
                       21006KT P6SM BKN030 BKN050
                      TEMPO 0304/0306 -SHRA FM030900 19006KT P6SM
                       OVC025 FM031800 22009KT P6SM SCT030 BKN050
                       BKN100
                      TEMPO 0318/0320 BKN030 OVC050 FM032000 22009KT
                       P6SM SCT050 BKN100 OVC200 FM040000 19008KT
                       P6SM BKN050 OVC100
                      PROB30 0400/0406 -RA=
201104022035 KSEA 022035Z 0221/0324 19010KT P6SM BKN030 BKN050
                      TEMPO 0221/0224 22013G22KT 5SM SHRA OVC025
                       FM030000 22011KT P6SM SCT030 BKN050
                      TEMPO 0300/0304 -SHRA BKN030 OVC050 FM030400
                       19006KT P6SM BKN030 BKN050 FM030900 19006KT
                       P6SM OVC025 FM031800 22009KT P6SM SCT030
                       BKN050 BKN100
                      TEMPO 0318/0320 BKN030 OVC050=
201104021825 KSEA 021825Z 0218/0324 22013KT P6SM BKN019 BKN030
                      TEMPO 0218/0220 22013G20KT FM022000 22013G23KT
                       P6SM SCT030 BKN050
                      TEMPO 0220/0224 5SM SHRA OVC030 FM030000
                       22011KT P6SM SCT030 BKN050
                      TEMPO 0300/0304 -SHRA BKN030 OVC050 FM030400
                       19006KT P6SM BKN030 BKN050 FM030900 19006KT
                       P6SM OVC025 FM031800 22009KT P6SM SCT030
                       BKN050 BKN100
                      TEMPO 0318/0320 BKN030 OVC050=
201104021741 TAF KSEA 021741Z 0218/0324 22013KT P6SM SCT020 BKN040
                      TEMPO 0218/0220 22013G20KT BKN020 BKN040
                       FM022000 22013G23KT P6SM SCT030 BKN050
                      TEMPO 0220/0224 5SM SHRA OVC030 FM030000
                       22011KT P6SM SCT030 BKN050
                      TEMPO 0300/0304 -SHRA BKN030 OVC050 FM030400
                       19006KT P6SM BKN030 BKN050 FM030900 19006KT
                       P6SM OVC025 FM031800 22009KT P6SM SCT030
                       BKN050 BKN100
                      TEMPO 0318/0320 BKN030 OVC050=
201104021507 KSEA 021507Z 0215/0318 21010KT P6SM BKN015 BKN040 FM021800 22012G20KT
                       P6SM VCSH SCT025 BKN050 FM030000 22010KT
                       P6SM SCT030 BKN050 FM031000 18007KT P6SM
                       BKN025 OVC040=
201104021120 TAF KSEA 021120Z 0212/0318 18008KT P6SM -SHRA BKN020 OVC040
                      TEMPO 0212/0215 4SM -SHRA BR OVC015 FM021600
                       22012G20KT P6SM VCSH SCT025 BKN050 FM030000
                       22010KT P6SM SCT030 BKN050 FM031000 18007KT
                       P6SM BKN025 OVC040=
201104020520 TAF KSEA 020520Z 0206/0312 34010KT 5SM -RA BR SCT005 BKN015 OVC030
                       TEMPO 0206/0209 3SM -RA BR BKN005 OVC012
                       FM020900 VRB04KT P6SM -SHRA BKN020 OVC040
                       FM021200 20009KT P6SM VCSH BKN030 BKN050
                       FM021800 23013G20KT P6SM SCT030 BKN050
                      PROB30 0218/0224 -SHRA OVC030 FM030000 21010KT
                       P6SM SCT030 BKN050
                      PROB30 0300/0304 -SHRA=
201104020301 KSEA 020301Z 0203/0306 35008KT 3SM -RA BR BKN005 OVC010
                      TEMPO 0203/0206 1 1/2SM RA BR OVC002 FM020600
                       23006KT 5SM -RA BR SCT008 BKN015 OVC030
                       FM020900 20009KT P6SM -SHRA BKN020 OVC040
                       FM021200 20009KT P6SM VCSH BKN030 BKN050
                       PROB30 0212/0218 -SHRA FM021800 23013G20KT
                       P6SM SCT030 BKN050
                      PROB30 0218/0224 -SHRA OVC030 FM030000 21010KT
                       P6SM SCT030 BKN050
                      PROB30 0300/0304 -SHRA=
201104012335 TAF KSEA 012335Z 0200/0306 35008KT 3SM -RA BR BKN008 OVC020
                      TEMPO 0200/0204 1 1/2SM RA BR BKN004 OVC012
                       FM020600 23006KT 5SM -RA BR SCT008 BKN015
                       OVC030 FM020900 20009KT P6SM -SHRA BKN020
                       OVC040 FM021200 20009KT P6SM VCSH BKN030
                       BKN050
                      PROB30 0212/0218 -SHRA FM021800 23013G20KT
                       P6SM SCT030 BKN050
                      PROB30 0218/0224 -SHRA OVC030 FM030000 21010KT
                       P6SM SCT030 BKN050
                      PROB30 0300/0304 -SHRA=
201104012105 KSEA 012105Z 0121/0224 VRB05KT 2SM -RA BR BKN004 OVC012 FM020600
                       23007KT 5SM -RA BR BKN012 OVC030 FM020900
                       20007KT P6SM -SHRA BKN022 OVC040 FM021200
                       20011KT P6SM BKN030 BKN050
                      PROB30 0212/0218 -SHRA FM021800 23013G20KT
                       P6SM SCT030 BKN050
                      PROB30 0218/0224 -SHRA OVC030=
201104011802 KSEA 011802Z 0118/0224 30005KT 3SM -RA BR SCT004 OVC025
                      TEMPO 0118/0122 1SM RA BR BKN004 OVC025 FM012200
                       30007KT 3SM -RA BR BKN004 OVC020 FM020600
                       23007KT 5SM -RA BR BKN012 OVC030 FM020900
                       20007KT P6SM -SHRA BKN022 OVC040 FM021200
                       20011KT P6SM BKN030 BKN050
                      PROB30 0212/0218 -SHRA FM021800 23013G20KT
                       P6SM SCT030 BKN050
                      PROB30 0218/0224 -SHRA OVC030=
201104011745 TAF KSEA 011745Z 0118/0224 VRB03KT 3SM -RA BR SCT004 OVC025
                      TEMPO 0118/0122 BKN004 OVC025 FM012200 30007KT
                       3SM -RA BR BKN004 OVC020 FM020600 23007KT
                       5SM -RA BR BKN012 OVC030 FM020900 20007KT
                       P6SM -SHRA BKN022 OVC040 FM021200 20011KT
                       P6SM BKN030 BKN050
                      PROB30 0212/0218 -SHRA FM021800 23013G20KT
                       P6SM SCT030 BKN050
                      PROB30 0218/0224 -SHRA OVC030=
201104011644 KSEA 011644Z 0117/0218 VRB03KT 5SM -RA BR SCT004 OVC025
                      TEMPO 0117/0119 2SM -RA BR BKN004 OVC025
                       FM011900 VRB05KT P6SM -RA SCT012 OVC020
                       FM012100 33005KT P6SM -RA SCT015 OVC025
                       FM020500 23007KT P6SM -RA OVC020=
201104011600 KSEA 011600Z 0116/0218 VRB03KT P6SM -RA SCT012 OVC030
                      TEMPO 0116/0118 6SM -RA BR BKN012 OVC030
                       FM011800 VRB05KT P6SM -RA SCT012 OVC020
                       FM012100 33005KT P6SM -RA SCT015 OVC025
                       FM020500 23007KT P6SM -RA OVC020=
201104011421 KSEA 011421Z 0114/0218 VRB05KT P6SM BKN030 OVC060
                      TEMPO 0114/0118 6SM -RA BR FM011800 VRB05KT
                       P6SM -RA SCT012 OVC020 FM012100 33005KT
                       P6SM -RA SCT015 OVC025 FM020500 23007KT
                       P6SM -RA OVC020=
201104011129 TAF KSEA 011129Z 0112/0218 24004KT P6SM SCT014 OVC070
                      TEMPO 0112/0115 BKN010 OVC050 FM011500 VRB04KT
                       P6SM VCSH BKN012 OVC060 FM011800 VRB05KT
                       P6SM -RA SCT012 OVC020 FM012100 33005KT
                       P6SM -RA SCT015 OVC025 FM020500 23007KT
                       P6SM -RA OVC020=
201104011004 KSEA 011004Z 0110/0212 22005KT P6SM BKN014 OVC080
                      TEMPO 0110/0112 SCT015 OVC070 FM011200 VRB05KT
                       P6SM OVC012 FM011800 VRB05KT P6SM VCSH SCT012
                       OVC022 FM012100 33005KT P6SM -RA SCT015
                       OVC027 FM020400 34007KT P6SM -RA OVC022=
201104010901 KSEA 010901Z 0109/0212 22005KT P6SM BKN014 OVC080 FM011200 VRB05KT
                       P6SM OVC012 FM011800 VRB05KT P6SM VCSH SCT012
                       OVC022 FM012100 33005KT P6SM -RA SCT015
                       OVC027 FM020400 34007KT P6SM -RA OVC022=
201104010535 TAF KSEA 010535Z 0106/0212 22008KT P6SM SCT025 BKN100
                      TEMPO 0106/0109 BKN022 OVC120 FM010900 20005KT
                       P6SM SCT015 BKN025
                      TEMPO 0109/0112 BKN015 OVC025 FM011200 VRB05KT
                       P6SM BKN015 OVC025 FM011800 VRB05KT P6SM
                       VCSH SCT012 OVC022 FM012100 33005KT P6SM
                       -RA SCT015 OVC027 FM020400 34007KT P6SM
                       -RA OVC022=
201104010507 KSEA 010507Z 0105/0206 22008KT P6SM SCT025 BKN120
                      TEMPO 0105/0108 BKN022 OVC120 FM010800 20005KT
                       P6SM SCT007 BKN025
                      TEMPO 0108/0112 BKN007 OVC025 FM011200 14005KT
                       P6SM BKN007 BKN028 FM011700 09005KT P6SM
                       SCT009 BKN030 OVC090 FM012000 36007KT P6SM
                       SCT030 OVC080 FM020400 34006KT P6SM -RA
                       BKN035 OVC060=
201104010215 KSEA 010215Z 0102/0206 22014KT P6SM SCT025 BKN120
                      TEMPO 0102/0105 BKN022 OVC120 FM010500 20005KT
                       P6SM SCT007 BKN025
                      TEMPO 0108/0112 BKN007 OVC025 FM011200 14005KT
                       P6SM BKN007 BKN028 FM011700 09005KT P6SM
                       SCT009 BKN030 OVC090 FM012000 36007KT P6SM
                       SCT030 OVC080 FM020400 34006KT P6SM -RA
                       BKN035 OVC060=