##########################################################
# Query made at 02/17/2025 18:12:49 UTC
# Time interval: from 08/01/2011 00:00  to 08/31/2011 23:59  UTC
##########################################################

##########################################################
# KSEA, Seattle, Seattle-Tacoma International Airport (United States)
# WMO index: 72793. WIGOS ID: 0-20000-0-72793
# Latitude 47-27-00N. Longitude 122-17-59W. Altitude 130 m.
##########################################################

###################################
#  METAR/SPECI from KSEA
###################################
201108312353 METAR KSEA 312353Z 25004KT 10SM FEW039 BKN055 19/09 A3003 RMK AO2 SLP175 T01890089 10206 20139 52002=
201108312253 METAR KSEA 312253Z 24008KT 10SM BKN037 BKN090 20/09 A3003=
201108312153 METAR KSEA 312153Z 28006KT 10SM BKN035 BKN090 19/09 A3003 RMK AO2 SLP174 T01940089=
201108312053 METAR KSEA 312053Z 29006KT 10SM FEW025 SCT065 BKN090 18/09 A3003 RMK AO2 SLP173 T01830089 55000=
201108311953 METAR KSEA 311953Z VRB03KT 10SM FEW025 SCT060 BKN090 16/09 A3003 RMK AO2 SLP173 T01610089=
201108311853 METAR KSEA 311853Z 23006KT 10SM FEW020 SCT044 BKN085 15/09 A3002 RMK AO2 SLP172 T01500089=
201108311828 SPECI KSEA 311828Z 20006KT 10SM FEW017 BKN036 BKN085 14/09 A3003 RMK AO2=
201108311828 SPECI KSEA 311828Z 20006KT 10SM FEW017 BKN036 BKN085 14/09 A3003 RMK AO2=
201108311753 METAR KSEA 311753Z 22007KT 10SM BKN016 BKN036 BKN100 14/09 A3003 RMK AO2 SLP173 T01390089 10144 20117 53008=
201108311653 METAR KSEA 311653Z 21006KT 10SM BKN016 OVC021 13/09 A3001=
201108311553 METAR KSEA 311553Z 19006KT 10SM BKN016 BKN050 13/09 A3000 RMK AO2 SLP165 T01280089=
201108311453 METAR KSEA 311453Z 18003KT 10SM BKN016 OVC022 12/09 A3000 RMK AO2 SLP165 T01220089 53009=
201108311353 METAR KSEA 311353Z 18004KT 10SM OVC018 12/09 A2999 RMK AO2 SLP160 T01170089=
201108311339 SPECI KSEA 311339Z 16003KT 10SM FEW011 OVC016 12/09 A2999 RMK AO2=
201108311339 SPECI KSEA 311339Z 16003KT 10SM FEW011 OVC016 12/09 A2999 RMK AO2=
201108311253 METAR KSEA 311253Z 21005KT 10SM OVC014 12/08 A2998 RMK AO2 SLP157 T01170083=
201108311221 SPECI KSEA 311221Z 17004KT 10SM BKN018 OVC050 12/08 A2998 RMK AO2=
201108311221 SPECI KSEA 311221Z 17004KT 10SM BKN018 OVC050 12/08 A2998 RMK AO2=
201108311153 METAR KSEA 311153Z 16005KT 10SM SCT040 BKN050 OVC055 12/08 A2998 RMK AO2 SLP156 70001 T01170083 10144 20111 51001=
201108311053 METAR KSEA 311053Z 17005KT 10SM OVC050 12/08 A2998 RMK AO2 SLP156 T01170083=
201108310953 METAR KSEA 310953Z 19006KT 10SM FEW055 BKN080 12/08 A2997 RMK AO2 SLP155 T01170083=
201108310853 METAR KSEA 310853Z 20004KT 10SM SCT060 BKN075 12/08 A2997 RMK AO2 SLP155 T01220078 55001=
201108310753 METAR KSEA 310753Z 20005KT 10SM BKN075 13/08 A2996 RMK AO2 SLP152 T01280078 402060122=
201108310653 METAR KSEA 310653Z 21008KT 10SM BKN047 OVC075 14/08 A2997 RMK AO2 SLP154 T01390078=
201108310553 METAR KSEA 310553Z 20004KT 10SM BKN070 14/07 A2998 RMK AO2 SLP157 T01440072 10206 20144 51012=
201108310453 METAR KSEA 310453Z 24007KT 10SM FEW055 SCT080 15/09 A2997 RMK AO2 SLP153 T01500089=
201108310353 METAR KSEA 310353Z 25006KT 10SM FEW048 BKN065 16/10 A2996 RMK AO2 SLP149 T01610100=
201108310253 METAR KSEA 310253Z 25004KT 10SM BKN065 17/10 A2994=
201108310153 METAR KSEA 310153Z 19006KT 10SM BKN050 19/08 A2993 RMK AO2 SLP142 T01940078=
201108310053 METAR KSEA 310053Z 19004KT 10SM BKN055 21/09 A2994 RMK AO2 SLP142 T02060089=
201108302353 METAR KSEA 302353Z 22006KT 10SM FEW030 BKN060 21/10 A2996 RMK AO2 SLP148 T02060100 10206 20133 57013=
201108302253 METAR KSEA 302253Z VRB03KT 10SM FEW025 SCT060 19/11 A2997 RMK AO2 SLP152 T01940106=
201108302153 METAR KSEA 302153Z 21010KT 10SM SCT025 BKN055 19/10 A2999 RMK AO2 SLP159 T01940100=
201108302053 METAR KSEA 302053Z 30005KT 10SM FEW020 BKN042 BKN060 18/10 A3000 RMK AO2 SLP163 T01780100 56009=
201108301953 METAR KSEA 301953Z 22005KT 10SM FEW012 SCT025 BKN039 17/10 A3000 RMK AO2 SLP166 T01720100=
201108301937 SPECI KSEA 301937Z VRB03KT 10SM FEW009 SCT017 BKN039 17/11 A3001 RMK AO2=
201108301937 SPECI KSEA 301937Z VRB03KT 10SM FEW009 SCT017 BKN039 17/11 A3001 RMK AO2=
201108301917 SPECI KSEA 301917Z VRB03KT 10SM FEW009 BKN018 BKN039 16/11 A3001 RMK AO2=
201108301917 SPECI KSEA 301917Z VRB03KT 10SM FEW009 BKN018 BKN039 16/11 A3001 RMK AO2=
201108301853 METAR KSEA 301853Z 00000KT 10SM BKN008 BKN030 16/12 A3001 RMK AO2 SLP168 T01560122=
201108301753 METAR KSEA 301753Z 19004KT 8SM BKN006 OVC010 13/12 A3003 RMK AO2 DZE50 SLP173 P0000 60001 T01330117 10150 20128 51006=
201108301714 SPECI KSEA 301714Z 23005KT 1 1/2SM -DZ BR BKN003 OVC008 13/12 A3002 RMK AO2 SFC VIS 2 P0000=
201108301714 SPECI KSEA 301714Z 23005KT 1 1/2SM -DZ BR BKN003 OVC008 13/12 A3002 RMK AO2 SFC VIS 2 P0000=
201108301653 METAR KSEA 301653Z 22005KT 1 1/2SM R16L/5500VP6000FT -DZ BR SCT003 OVC008 13/12 A3002 RMK AO2 DZE1557B51RAB1557E11 SLP170 P0001 T01330122=
201108301638 SPECI KSEA 301638Z 21003KT 1 1/2SM R16L/5000VP6000FT BR SCT003 OVC008 13/12 A3002 RMK AO2 DZE1557RAB1557E11 P0000=
201108301638 SPECI KSEA 301638Z 21003KT 1 1/2SM R16L/5000VP6000FT BR SCT003 OVC008 13/12 A3002 RMK AO2 DZE1557RAB1557E11 P0000=
201108301553 METAR KSEA 301553Z 00000KT 4SM -DZ BR SCT003 OVC013 13/12 A3002=
201108301544 SPECI KSEA 301544Z 21003KT 4SM -DZ BR FEW007 OVC013 13/12 A3001 RMK AO2 P0000=
201108301544 SPECI KSEA 301544Z 21003KT 4SM -DZ BR FEW007 OVC013 13/12 A3001 RMK AO2 P0000=
201108301453 METAR KSEA 301453Z 20004KT 4SM -DZ BR SCT007 BKN016 OVC022 13/12 A3001 RMK AO2 DZB06 SLP167 P0000 60000 T01330122 53007=
201108301446 SPECI KSEA 301446Z 19004KT 4SM -DZ BR SCT007 BKN016 OVC027 13/12 A3001 RMK AO2 DZB06 P0000=
201108301446 SPECI KSEA 301446Z 19004KT 4SM -DZ BR SCT007 BKN016 OVC027 13/12 A3001 RMK AO2 DZB06 P0000=
201108301406 SPECI KSEA 301406Z 18005KT 4SM -DZ BR SCT008 OVC013 14/12 A3000 RMK AO2 DZB06 P0000=
201108301406 SPECI KSEA 301406Z 18005KT 4SM -DZ BR SCT008 OVC013 14/12 A3000 RMK AO2 DZB06 P0000=
201108301353 METAR KSEA 301353Z 15005KT 10SM OVC013 14/12 A3000 RMK AO2 SLP163 T01440117=
201108301343 SPECI KSEA 301343Z 16004KT 10SM BKN013 BKN018 OVC027 14/12 A3000 RMK AO2=
201108301343 SPECI KSEA 301343Z 16004KT 10SM BKN013 BKN018 OVC027 14/12 A3000 RMK AO2=
201108301253 METAR KSEA 301253Z 20003KT 10SM FEW017 OVC027 14/11 A2999 RMK AO2 SLP160 T01440111=
201108301153 METAR KSEA 301153Z 16003KT 10SM OVC027 15/12 A2999 RMK AO2 SLP158 60000 T01500117 10178 20150 50002=
201108301053 METAR KSEA 301053Z 16003KT 10SM OVC025 16/12 A2999 RMK AO2 SLP159 T01560117=
201108300953 METAR KSEA 300953Z 00000KT 10SM OVC019 16/11 A2998 RMK AO2 SLP157 T01560111=
201108300853 METAR KSEA 300853Z 25004KT 10SM OVC019 15/11 A2998 RMK AO2 DZE29 SLP156 P0000 60000 T01500111 50001=
201108300845 SPECI KSEA 300845Z 24004KT 10SM BKN019 OVC030 16/12 A2998 RMK AO2 DZE29 P0000=
201108300845 SPECI KSEA 300845Z 24004KT 10SM BKN019 OVC030 16/12 A2998 RMK AO2 DZE29 P0000=
201108300753 METAR KSEA 300753Z 29003KT 8SM -DZ OVC030 16/12 A2998 RMK AO2 RAB52E53DZB53 SLP157 P0000 T01560122 402110139=
201108300653 METAR KSEA 300653Z 23005KT 10SM OVC050 17/13 A2998 RMK AO2 SLP156 T01670128=
201108300553 METAR KSEA 300553Z 25003KT 10SM OVC048 18/12 A2998=
201108300453 METAR KSEA 300453Z 24006KT 10SM OVC048 19/12 A2998 RMK AO2 SLP155 T01890122=
201108300353 METAR KSEA 300353Z 00000KT 10SM SCT028 BKN050 19/12 A2998 RMK AO2 SLP156 T01890122=
201108300253 METAR KSEA 300253Z 00000KT 10SM SCT035 SCT250 19/12 A2997 RMK AO2 SLP154 T01890122 58006=
201108300153 METAR KSEA 300153Z 21006KT 10SM SCT035 SCT250 20/12 A2998 RMK AO2 SLP156 T02000122=
201108300053 METAR KSEA 300053Z 24010KT 10SM SCT032 SCT250 21/12 A2999 RMK AO2 SLP159 T02060122=
201108292353 METAR KSEA 292353Z 19009KT 10SM SCT032 SCT250 21/12 A2999 RMK AO2 SLP160 T02060117 10211 20172 58008=
201108292253 METAR KSEA 292253Z 21007KT 10SM FEW027 SCT036 21/12 A3000 RMK AO2 SLP163 T02110117=
201108292153 METAR KSEA 292153Z 26009KT 10SM FEW025 BKN034 BKN200 20/12 A3001 RMK AO2 SLP168 T02000117=
201108292117 SPECI KSEA 292117Z 20008KT 10SM FEW022 BKN030 21/12 A3001 RMK AO2=
201108292117 SPECI KSEA 292117Z 20008KT 10SM FEW022 BKN030 21/12 A3001 RMK AO2=
201108292053 METAR KSEA 292053Z 22008KT 10SM BKN029 20/11 A3001 RMK AO2 SLP169 T02000111 58003=
201108291953 METAR KSEA 291953Z 22006KT 10SM BKN027 BKN200 18/11 A3002 RMK AO2 SLP170 T01830111=
201108291853 METAR KSEA 291853Z 22006KT 10SM OVC020 17/11 A3003 RMK AO2 SLP173 T01720111=
201108291753 METAR KSEA 291753Z 21007KT 10SM OVC019 17/12 A3002 RMK AO2 SLP172 60000 T01720117 10172 20144 53004=
201108291653 METAR KSEA 291653Z 21008KT 10SM OVC019 17/11 A3001 RMK AO2 SLP168 T01670111=
201108291553 METAR KSEA 291553Z 19006KT 10SM OVC016 16/12 A3000 RMK AO2 SLP164 T01560117=
201108291530 SPECI KSEA 291530Z 19005KT 10SM OVC015 16/12 A3000 RMK AO2=
201108291530 SPECI KSEA 291530Z 19005KT 10SM OVC015 16/12 A3000 RMK AO2=
201108291453 METAR KSEA 291453Z 19005KT 10SM OVC014 15/12 A3001 RMK AO2 SLP166 60000 T01500117 53009=
201108291353 METAR KSEA 291353Z 20006KT 10SM OVC012 15/12 A3000 RMK AO2 DZE16 SLP162 P0000 T01500117=
201108291316 SPECI KSEA 291316Z 20005KT 10SM SCT008 OVC012 15/12 A2999 RMK AO2 DZE16 P0000=
201108291316 SPECI KSEA 291316Z 20005KT 10SM SCT008 OVC012 15/12 A2999 RMK AO2 DZE16 P0000=
201108291253 METAR KSEA 291253Z 18005KT 7SM -DZ SCT005 BKN008 OVC010 15/12 A2999 RMK AO2 DZB51 SLP159 P0000 T01500117=
201108291153 METAR KSEA 291153Z 21007KT 10SM SCT004 OVC008 14/12 A2998 RMK AO2 SLP157 T01440117 10167 20139 53006=
201108291053 METAR KSEA 291053Z 20008KT 10SM SCT005 BKN008 OVC010 14/12 A2997 RMK AO2 SLP154 T01440122=
201108290953 METAR KSEA 290953Z 21009KT 10SM SCT007 OVC012 14/12 A2997 RMK AO2 SLP152 T01440122=
201108290923 SPECI KSEA 290923Z 20005KT 10SM SCT005 BKN015 14/12 A2997 RMK AO2=
201108290923 SPECI KSEA 290923Z 20005KT 10SM SCT005 BKN015 14/12 A2997 RMK AO2=
201108290919 SPECI KSEA 290919Z 20006KT 10SM SCT005 14/12 A2996 RMK AO2=
201108290919 SPECI KSEA 290919Z 20006KT 10SM SCT005 14/12 A2996 RMK AO2=
201108290853 METAR KSEA 290853Z 20005KT 10SM SCT200 14/12 A2996 RMK AO2 SLP151 T01390122 51007=
201108290753 METAR KSEA 290753Z 19006KT 10SM SCT200 14/12 A2996 RMK AO2 SLP150 T01440122 402670122=
201108290653 METAR KSEA 290653Z 19009KT 10SM BKN200 15/13 A2995 RMK AO2 SLP146 T01500128=
201108290553 METAR KSEA 290553Z 20010KT 10SM SCT200 17/13 A2994 RMK AO2 SLP143 T01720128 10267 20172 51007=
201108290453 METAR KSEA 290453Z 18004KT 10SM SCT200 19/13 A2994 RMK AO2 SLP142 T01890133=
201108290353 METAR KSEA 290353Z 24005KT 10SM SCT200 22/13 A2994 RMK AO2 SLP141 T02170133=
201108290253 METAR KSEA 290253Z 00000KT 10SM BKN140 24/12 A2992 RMK AO2 SLP137 T02440122 56004=
201108290153 METAR KSEA 290153Z 00000KT 10SM FEW140 25/12 A2992 RMK AO2 SLP136 T02500122=
201108290053 METAR KSEA 290053Z 26004KT 10SM FEW100 SCT200 24/13 A2993 RMK AO2 SLP139 T02440128=
201108282353 METAR KSEA 282353Z 36007KT 10SM FEW120 SCT200 27/12 A2993 RMK AO2 SLP141 T02670117 10267 20178 58013=
201108282253 METAR KSEA 282253Z 01010KT 10SM FEW100 SCT200 26/12 A2995 RMK AO2 SLP146 T02560117=
201108282153 METAR KSEA 282153Z 31006KT 10SM FEW100 SCT200 24/13 A2997 RMK AO2 SLP151 T02440128=
201108282053 METAR KSEA 282053Z 29006KT 10SM FEW120 SCT250 23/13 A2997 RMK AO2 SLP154 T02280128 56015=
201108281953 METAR KSEA 281953Z 31006KT 10SM FEW120 SCT250 22/12 A2999 RMK AO2 SLP158 FG BANK SW T02220122=
201108281853 METAR KSEA 281853Z 26006KT 10SM FEW120 SCT200 19/12 A3000 RMK AO2 SLP164 FG BANK S-W T01890122=
201108281753 METAR KSEA 281753Z 28005KT 7SM BCFG FEW005 SCT120 18/12 A3002 RMK AO2 SLP169 FG BANK S-W-NW T01780122 10178 20122 57007=
201108281731 SPECI KSEA 281731Z 27003KT 7SM BCFG FEW005 SCT120 17/12 A3002 RMK AO2 FG BANK S-W-NW=
201108281731 SPECI KSEA 281731Z 27003KT 7SM BCFG FEW005 SCT120 17/12 A3002 RMK AO2 FG BANK S-W-NW=
201108281653 METAR KSEA 281653Z 28006KT 5SM BCFG SCT120 16/12 A3003 RMK AO2 SLP172 FG BANK S-W-NW T01560122=
201108281553 METAR KSEA 281553Z 00000KT 7SM BCFG SCT120 17/12 A3003 RMK AO2 SLP172 FG BANK S-W-NW T01720122=
201108281453 METAR KSEA 281453Z 00000KT 7SM BCFG SCT120 14/12 A3004 RMK AO2 SLP176 FG BANK S-W-NW T01440117 55000=
201108281353 METAR KSEA 281353Z 00000KT 7SM BCFG SCT120 13/11 A3004 RMK AO2 SLP175 FG BANK S-W-NW T01280106=
201108281321 SPECI KSEA 281321Z 00000KT 7SM BCFG FEW005 SCT130 13/11 A3003 RMK AO2 FG BANK S-W-NW=
201108281321 SPECI KSEA 281321Z 00000KT 7SM BCFG FEW005 SCT130 13/11 A3003 RMK AO2 FG BANK S-W-NW=
201108281253 METAR KSEA 281253Z 00000KT 7SM BCFG FEW130 13/11 A3003 RMK AO2 SLP173 FG BANK W T01280111=
201108281153 METAR KSEA 281153Z 00000KT 10SM CLR 14/11 A3004 RMK AO2 SLP175 T01440106 10189 20139 51002=
201108281053 METAR KSEA 281053Z 04006KT 10SM CLR 16/11 A3003 RMK AO2 SLP174 T01560111=
201108280953 METAR KSEA 280953Z 35003KT 10SM CLR 15/11 A3004 RMK AO2 SLP176 T01500106=
201108280853 METAR KSEA 280853Z 01005KT 10SM CLR 17/11 A3003 RMK AO2 SLP173 T01670106 50002=
201108280753 METAR KSEA 280753Z 03007KT 10SM CLR 17/11 A3004 RMK AO2 SLP178 T01720106 402890133=
201108280653 METAR KSEA 280653Z 01008KT 10SM CLR 18/09 A3004 RMK AO2 SLP175 T01780089=
201108280553 METAR KSEA 280553Z 03009KT 10SM CLR 19/08 A3003 RMK AO2 SLP172 T01890078 10283 20189 50004=
201108280453 METAR KSEA 280453Z 03012KT 10SM CLR 21/07 A3003 RMK AO2 SLP174 T02060067=
201108280353 METAR KSEA 280353Z 01010KT 10SM CLR 21/04 A3003 RMK AO2 SLP173 T02110039=
201108280253 METAR KSEA 280253Z 36007KT 10SM CLR 23/06 A3002 RMK AO2 SLP168 T02280056 56004=
201108280153 METAR KSEA 280153Z 34007KT 10SM CLR 26/06 A3001 RMK AO2 SLP168 T02560061=
201108280053 METAR KSEA 280053Z 01009KT 10SM CLR 27/08 A3002 RMK AO2 SLP171 T02720078=
201108272353 METAR KSEA 272353Z 01010KT 10SM CLR 28/09 A3003 RMK AO2 SLP171 T02830089 10289 20211 56012=
201108272253 METAR KSEA 272253Z 01010KT 10SM CLR 28/09 A3004 RMK AO2 SLP175 T02830094=
201108272153 METAR KSEA 272153Z 01008KT 10SM CLR 28/12 A3005 RMK AO2 SLP179 T02830117=
201108272053 METAR KSEA 272053Z 30008KT 10SM CLR 27/11 A3006 RMK AO2 SLP184 T02670111 58005=
201108271953 METAR KSEA 271953Z 28006KT 10SM CLR 25/13 A3007 RMK AO2 SLP185 T02500133=
201108271853 METAR KSEA 271853Z 27005KT 10SM FEW220 23/14 A3008 RMK AO2 SLP189 T02280139=
201108271753 METAR KSEA 271753Z 26004KT 10SM SCT230 21/14 A3008 RMK AO2 SLP189 T02110139 10211 20133 51007=
201108271653 METAR KSEA 271653Z VRB03KT 10SM SCT230 19/14 A3007 RMK AO2 SLP187 T01940139=
201108271553 METAR KSEA 271553Z 29004KT 10SM FEW220 18/14 A3007 RMK AO2 SLP186 T01830139=
201108271453 METAR KSEA 271453Z 00000KT 10SM CLR 16/14 A3006 RMK AO2 SLP182 T01610139 53010=
201108271353 METAR KSEA 271353Z 32003KT 10SM CLR 14/12 A3005 RMK AO2 SLP180 T01440122=
201108271253 METAR KSEA 271253Z 00000KT 10SM CLR 14/12 A3003 RMK AO2 SLP174 T01390122=
201108271153 METAR KSEA 271153Z 00000KT 10SM CLR 14/12 A3003 RMK AO2 SLP172 T01440122 10217 20144 53002=
201108271053 METAR KSEA 271053Z 00000KT 10SM CLR 17/13 A3003 RMK AO2 SLP172 T01670128=
201108270953 METAR KSEA 270953Z 00000KT 10SM CLR 18/13 A3002 RMK AO2 SLP168 T01830133=
201108270853 METAR KSEA 270853Z 01005KT 10SM CLR 17/13 A3002 RMK AO2 SLP169 T01720128 53005=
201108270753 METAR KSEA 270753Z 02008KT 10SM CLR 20/13 A3001 RMK AO2 SLP167 T02000128 402890150=
201108270653 METAR KSEA 270653Z 04010KT 10SM CLR 21/13 A3000 RMK AO2 SLP164 T02060133=
201108270553 METAR KSEA 270553Z 02008KT 10SM CLR 22/13 A3001 RMK AO2 SLP165 T02170128 10283 20211 51007=
201108270453 METAR KSEA 270453Z 02008KT 10SM CLR 23/12 A3000 RMK AO2 SLP163 T02280122=
201108270353 METAR KSEA 270353Z 34005KT 10SM CLR 22/12 A2999 RMK AO2 SLP161 T02170117=
201108270253 METAR KSEA 270253Z 35005KT 10SM CLR 24/12 A2998 RMK AO2 SLP158 T02390117 55000=
201108270153 METAR KSEA 270153Z 34008KT 10SM CLR 27/12 A2998 RMK AO2 SLP157 T02670117=
201108270053 METAR KSEA 270053Z 33010KT 10SM FEW050 28/12 A2998 RMK AO2 SLP154 T02780117=
201108262353 METAR KSEA 262353Z 31010KT 10SM FEW050 27/13 A2999 RMK AO2 SLP157 T02720128 10289 20206 58009=
201108262253 METAR KSEA 262253Z 33007KT 310V010 10SM FEW050 28/14 A2999 RMK AO2 SLP160 T02830139=
201108262153 METAR KSEA 262153Z 33008KT 290V360 10SM FEW050 28/15 A3000 RMK AO2 SLP164 T02780150=
201108262053 METAR KSEA 262053Z 35008KT 10SM FEW050 26/15 A3001 RMK AO2 SLP166 T02610150 56014=
201108261953 METAR KSEA 261953Z 31007KT 10SM FEW140 24/14 A3002 RMK AO2 SLP169 T02390144=
201108261853 METAR KSEA 261853Z 28004KT 10SM FEW150 23/14 A3004 RMK AO2 SLP176 T02280139=
201108261753 METAR KSEA 261753Z 28005KT 10SM FEW150 21/14 A3005 RMK AO2 SLP181 T02060139 10206 20150 53000=
201108261653 METAR KSEA 261653Z 29003KT 10SM FEW150 19/14 A3005 RMK AO2 SLP180 T01940139=
201108261553 METAR KSEA 261553Z 27004KT 10SM FEW150 18/14 A3005 RMK AO2 SLP181 T01780139=
201108261453 METAR KSEA 261453Z 20003KT 10SM FEW150 17/14 A3005=
201108261353 METAR KSEA 261353Z 00000KT 10SM FEW040 SCT130 15/13 A3003 RMK AO2 SLP172 T01500128=
201108261253 METAR KSEA 261253Z 00000KT 10SM CLR 16/13 A3001 RMK AO2 SLP167 T01610128=
201108261153 METAR KSEA 261153Z 00000KT 10SM CLR 17/13 A3001 RMK AO2 SLP166 T01670133 10211 20161 53003=
201108261053 METAR KSEA 261053Z 04004KT 10SM CLR 18/13 A3001 RMK AO2 SLP165 T01830133=
201108260953 METAR KSEA 260953Z 03007KT 10SM CLR 18/13 A3000 RMK AO2 SLP163 T01830133=
201108260853 METAR KSEA 260853Z 02009KT 10SM CLR 19/13 A3000 RMK AO2 SLP164 T01890133 50000=
201108260753 METAR KSEA 260753Z 02009KT 10SM CLR 19/13 A3001 RMK AO2 SLP165 T01940133 402780144=
201108260653 METAR KSEA 260653Z 01008KT 10SM CLR 19/14 A3001 RMK AO2 SLP164 T01940139=
201108260553 METAR KSEA 260553Z 34006KT 10SM CLR 19/13 A3000 RMK AO2 SLP164 T01890133 10272 20183 51009=
201108260453 METAR KSEA 260453Z 33004KT 10SM CLR 19/13 A2999 RMK AO2 SLP161 T01940128=
201108260353 METAR KSEA 260353Z 34006KT 10SM CLR 21/12 A2999 RMK AO2 SLP160 T02110122=
201108260253 METAR KSEA 260253Z 35007KT 10SM FEW250 23/12 A2998 RMK AO2 SLP155 T02330122 53003=
201108260153 METAR KSEA 260153Z 34009KT 10SM FEW250 26/13 A2997 RMK AO2 SLP152 T02560128=
201108260053 METAR KSEA 260053Z 31008KT 10SM FEW250 27/14 A2996 RMK AO2 SLP151 T02720139=
201108252353 METAR KSEA 252353Z 29007KT 10SM FEW045 27/13 A2997 RMK AO2 SLP151 T02720133 10278 20222 57010=
201108252253 METAR KSEA 252253Z 28006KT 10SM FEW045 27/13 A2998 RMK AO2 SLP155 T02720128=
201108252153 METAR KSEA 252153Z 29006KT 10SM FEW045 27/12 A2999 RMK AO2 SLP158 T02720117=
201108252053 METAR KSEA 252053Z 34005KT 10SM FEW045 26/13 A3000 RMK AO2 SLP161 T02560133 58005=
201108251953 METAR KSEA 251953Z VRB06KT 10SM FEW140 25/13 A3001 RMK AO2 SLP165 T02500133=
201108251853 METAR KSEA 251853Z 25007KT 10SM FEW140 23/13 A3001 RMK AO2 SLP167 T02330133=
201108251753 METAR KSEA 251753Z 35003KT 10SM FEW140 23/14 A3001 RMK AO2 SLP167 T02330139 10233 20144 51007=
201108251653 METAR KSEA 251653Z VRB04KT 10SM FEW140 21/13 A3001 RMK AO2 SLP167 T02110133=
201108251553 METAR KSEA 251553Z 35007KT 10SM FEW120 20/13 A3001 RMK AO2 SLP167 T02000133=
201108251453 METAR KSEA 251453Z 01007KT 10SM FEW120 18/13 A2999 RMK AO2 SLP160 T01830128 51007=
201108251353 METAR KSEA 251353Z 00000KT 10SM FEW120 16/13 A2999 RMK AO2 SLP160 T01560128=
201108251253 METAR KSEA 251253Z 00000KT 10SM CLR 15/12 A2998 RMK AO2 SLP155 T01500122=
201108251153 METAR KSEA 251153Z 36003KT 10SM CLR 17/12 A2997 RMK AO2 SLP152 T01670122 10200 20156 53008=
201108251053 METAR KSEA 251053Z 00000KT 10SM CLR 16/13 A2996 RMK AO2 SLP148 T01610128=
201108250953 METAR KSEA 250953Z 01007KT 10SM CLR 18/13 A2995 RMK AO2 SLP146 T01780133=
201108250853 METAR KSEA 250853Z 35004KT 10SM SCT250 18/13 A2995 RMK AO2 SLP144 T01780133 53009=
201108250753 METAR KSEA 250753Z 03005KT 10SM CLR 19/13 A2993 RMK AO2 SLP139 T01940133 402890139=
201108250653 METAR KSEA 250653Z 01006KT 10SM CLR 19/12 A2993 RMK AO2 SLP139 T01890122=
201108250553 METAR KSEA 250553Z 36007KT 10SM FEW140 SCT200 19/13 A2992 RMK AO2 SLP135 T01940128 10272 20189 58003=
201108250453 METAR KSEA 250453Z 33007KT 10SM FEW140 SCT200 20/13 A2994 RMK AO2 SLP144 T02000133=
201108250353 METAR KSEA 250353Z 35005KT 10SM SCT120 SCT200 21/14 A2992 RMK AO2 SLP137 T02110139=
201108250253 METAR KSEA 250253Z 02007KT 10SM SCT120 BKN200 22/14 A2993 RMK AO2 SLP138 T02220139 50004=
201108250153 METAR KSEA 250153Z 35011KT 10SM FEW060 SCT120 BKN200 22/13 A2993 RMK AO2 SLP139 T02220128=
201108250053 METAR KSEA 250053Z 34011KT 10SM FEW060 SCT140 BKN200 26/13 A2992 RMK AO2 SLP137 T02610128=
201108242353 METAR KSEA 242353Z 36011KT 10SM FEW050 SCT140 BKN200 27/13 A2991 RMK AO2 SLP133 T02720128 10289 20222 58015=
201108242253 METAR KSEA 242253Z 29006KT 10SM FEW050 SCT140 BKN200 28/12 A2994=
201108242153 METAR KSEA 242153Z 30006KT 10SM FEW045 BKN150 BKN200 27/12 A2995 RMK AO2 SLP147 T02670117=
201108242053 METAR KSEA 242053Z 29007KT 10SM FEW045 SCT200 27/14 A2996 RMK AO2 SLP149 T02670139 56016=
201108241953 METAR KSEA 241953Z 31007KT 10SM FEW045 26/14 A2997 RMK AO2 SLP154 T02560144=
201108241853 METAR KSEA 241853Z 24005KT 10SM FEW045 23/14 A2999 RMK AO2 SLP160 T02330139=
201108241753 METAR KSEA 241753Z 28004KT 10SM FEW250 23/14 A3001 RMK AO2 SLP166 T02280144 10228 20139 58004=
201108241653 METAR KSEA 241653Z 30004KT 10SM FEW250 22/14 A3001 RMK AO2 SLP168 T02170144=
201108241553 METAR KSEA 241553Z 00000KT 10SM FEW070 19/14 A3001 RMK AO2 SLP168 T01890139=
201108241453 METAR KSEA 241453Z 00000KT 10SM FEW070 17/13 A3002 RMK AO2 SLP170 T01670128 53007=
201108241353 METAR KSEA 241353Z 00000KT 10SM FEW040 14/12 A3001 RMK AO2 SLP166 T01440117=
201108241253 METAR KSEA 241253Z 34003KT 10SM CLR 14/12 A3000 RMK AO2 SLP163 T01390117=
201108241153 METAR KSEA 241153Z 02006KT 10SM CLR 16/12 A3000 RMK AO2 SLP163 T01560117 10194 20150 56002=
201108241053 METAR KSEA 241053Z 01006KT 10SM CLR 15/12 A3000 RMK AO2 SLP163 T01500117=
201108240953 METAR KSEA 240953Z 00000KT 10SM CLR 16/12 A3000 RMK AO2 SLP164 T01560122=
201108240853 METAR KSEA 240853Z 00000KT 10SM CLR 17/12 A3000 RMK AO2 SLP164 T01670122 58003=
201108240753 METAR KSEA 240753Z 32003KT 10SM CLR 16/13 A3002 RMK AO2 SLP168 T01610128 402500156=
201108240653 METAR KSEA 240653Z 34004KT 10SM CLR 17/13 A3002 RMK AO2 SLP170 T01720128=
201108240553 METAR KSEA 240553Z 00000KT 10SM CLR 18/13 A3001 RMK AO2 SLP167 T01830133 10250 20183 51004=
201108240453 METAR KSEA 240453Z 29004KT 10SM CLR 20/14 A3001 RMK AO2 SLP167 T02000139=
201108240353 METAR KSEA 240353Z 00000KT 10SM FEW035 22/13 A3001 RMK AO2 SLP165 T02220133=
201108240253 METAR KSEA 240253Z 21003KT 10SM FEW035 23/13 A3000 RMK AO2 SLP163 T02330128 56007=
201108240153 METAR KSEA 240153Z 23003KT 10SM FEW035 24/13 A3000 RMK AO2 SLP163 T02390133=
201108240053 METAR KSEA 240053Z 00000KT 10SM FEW035 SCT250 24/13 A3001 RMK AO2 SLP167 T02440133=
201108232353 METAR KSEA 232353Z VRB03KT 10SM SCT035 24/13 A3002 RMK AO2 SLP170 T02440133 10250 20200 56014=
201108232253 METAR KSEA 232253Z 25006KT 10SM SCT035 25/13 A3003 RMK AO2 SLP174 T02500133=
201108232153 METAR KSEA 232153Z VRB04KT 10SM SCT033 24/13 A3005 RMK AO2 SLP180 T02390133=
201108232053 METAR KSEA 232053Z 26006KT 10SM SCT031 23/13 A3006 RMK AO2 SLP184 T02330133 58006=
201108231953 METAR KSEA 231953Z 25006KT 10SM SCT030 22/14 A3007 RMK AO2 SLP185 T02220139=
201108231853 METAR KSEA 231853Z VRB05KT 10SM SCT015 BKN035 BKN055 21/13 A3008 RMK AO2 SLP191 T02110133=
201108231753 METAR KSEA 231753Z VRB04KT 10SM SCT010 BKN030 BKN044 21/15 A3008 RMK AO2 SLP191 T02060150 10206 20156 51007=
201108231716 SPECI KSEA 231716Z 00000KT 10SM SCT008 BKN044 18/14 A3008 RMK AO2=
201108231716 SPECI KSEA 231716Z 00000KT 10SM SCT008 BKN044 18/14 A3008 RMK AO2=
201108231653 METAR KSEA 231653Z 30004KT 10SM BKN007 BKN050 18/15 A3007 RMK AO2 SLP188 T01780150=
201108231553 METAR KSEA 231553Z 24005KT 10SM BKN006 BKN050 17/15 A3007 RMK AO2 SLP188 T01670150=
201108231506 SPECI KSEA 231506Z 20003KT 10SM BKN005 BKN040 17/16 A3006 RMK AO2=
201108231506 SPECI KSEA 231506Z 20003KT 10SM BKN005 BKN040 17/16 A3006 RMK AO2=
201108231453 METAR KSEA 231453Z 21004KT 10SM SCT007 BKN040 17/15 A3006 RMK AO2 SLP184 T01670150 53012=
201108231353 METAR KSEA 231353Z 23005KT 10SM FEW003 BKN042 16/15 A3004 RMK AO2 SLP179 T01610150=
201108231253 METAR KSEA 231253Z 19007KT 10SM SCT003 SCT070 16/15 A3003 RMK AO2 SLP174 T01610150=
201108231153 METAR KSEA 231153Z 21006KT 10SM BKN003 16/16 A3002 RMK AO2 SLP172 60000 70012 T01610156 10172 20161 53006=
201108231146 SPECI KSEA 231146Z 21007KT 10SM BKN003 BKN070 16/16 A3002 RMK AO2=
201108231146 SPECI KSEA 231146Z 21007KT 10SM BKN003 BKN070 16/16 A3002 RMK AO2=
201108231053 METAR KSEA 231053Z 19008KT 10SM FEW003 BKN035 BKN065 17/16 A3001 RMK AO2 SLP168 T01670156=
201108231030 SPECI KSEA 231030Z 20008KT 10SM SCT003 OVC035 17/16 A3002 RMK AO2=
201108231030 SPECI KSEA 231030Z 20008KT 10SM SCT003 OVC035 17/16 A3002 RMK AO2=
201108230953 METAR KSEA 230953Z 22008KT 10SM FEW003 BKN010 OVC035 17/16 A3001 RMK AO2 SLP167 T01670161=
201108230933 SPECI KSEA 230933Z 21010KT 10SM SCT003 BKN010 OVC035 17/16 A3001 RMK AO2 CIG 006V012=
201108230933 SPECI KSEA 230933Z 21010KT 10SM SCT003 BKN010 OVC035 17/16 A3001 RMK AO2 CIG 006V012=
201108230853 METAR KSEA 230853Z 21008KT 10SM BKN005 BKN015 OVC021 17/16 A3000 RMK AO2 SLP165 60000 T01720161 55000=
201108230845 SPECI KSEA 230845Z 21011KT 10SM BKN005 BKN008 OVC015 17/16 A3000 RMK AO2=
201108230845 SPECI KSEA 230845Z 21011KT 10SM BKN005 BKN008 OVC015 17/16 A3000 RMK AO2=
201108230825 SPECI KSEA 230825Z 21011KT 10SM SCT005 BKN016 OVC055 17/16 A3000 RMK AO2=
201108230825 SPECI KSEA 230825Z 21011KT 10SM SCT005 BKN016 OVC055 17/16 A3000 RMK AO2=
201108230753 METAR KSEA 230753Z 22009KT 10SM SCT007 BKN013 OVC023 17/16 A3000 RMK AO2 SLP165 T01720161 402170156=
201108230722 SPECI KSEA 230722Z 21009KT 10SM SCT004 BKN011 OVC055 17/16 A3000 RMK AO2=
201108230722 SPECI KSEA 230722Z 21009KT 10SM SCT004 BKN011 OVC055 17/16 A3000 RMK AO2=
201108230653 METAR KSEA 230653Z 21011KT 3SM BR BKN004 BKN075 BKN095 17/16 A2999 RMK AO2 SFC VIS 6 DZE07 SLP161 P0000 T01670161=
201108230632 SPECI KSEA 230632Z 21012KT 2SM BR BKN004 BKN075 OVC095 17/16 A2999 RMK AO2 SFC VIS 6 DZE07 P0000=
201108230632 SPECI KSEA 230632Z 21012KT 2SM BR BKN004 BKN075 OVC095 17/16 A2999 RMK AO2 SFC VIS 6 DZE07 P0000=
201108230553 METAR KSEA 230553Z 21008KT 2SM -DZ BR OVC005 17/16 A3000 RMK AO2 SFC VIS 4 CIG 002V007 SLP164 P0000 60011 T01720161 10183 20167 51006=
201108230551 SPECI KSEA 230551Z 21009KT 2SM -DZ BR OVC005 17/16 A3000 RMK AO2 SFC VIS 5 CIG 002V007 P0000=
201108230551 SPECI KSEA 230551Z 21009KT 2SM -DZ BR OVC005 17/16 A3000 RMK AO2 SFC VIS 5 CIG 002V007 P0000=
201108230453 METAR KSEA 230453Z 21006KT 1 3/4SM -DZ BR OVC003 17/17 A3000 RMK AO2 SFC VIS 3 RAB0354E28DZB39 CIG 002V007 SLP163 P0001 T01720167=
201108230353 METAR KSEA 230353Z 20007KT 1 3/4SM BR OVC003 17/16 A2999 RMK AO2 SFC VIS 3 RAE51 SLP162 P0004 T01670161=
201108230331 SPECI KSEA 230331Z 19007KT 1 3/4SM -RA BR OVC003 17/16 A2999 RMK AO2 SFC VIS 3 CIG 002V007 P0004=
201108230331 SPECI KSEA 230331Z 19007KT 1 3/4SM -RA BR OVC003 17/16 A2999 RMK AO2 SFC VIS 3 CIG 002V007 P0004=
201108230253 METAR KSEA 230253Z 21007KT 1 3/4SM -RA BR OVC005 17/16 A2999 RMK AO2 SFC VIS 2 CIG 003V009 SLP159 P0006 60006 T01670156 53000=
201108230228 SPECI KSEA 230228Z 18004KT 1SM R16L/6000VP6000FT -RA BR OVC009 17/16 A2998 RMK AO2 SFC VIS 1 3/4 CIG 004V012 P0002=
201108230228 SPECI KSEA 230228Z 18004KT 1SM R16L/6000VP6000FT -RA BR OVC009 17/16 A2998 RMK AO2 SFC VIS 1 3/4 CIG 004V012 P0002=
201108230222 SPECI KSEA 230222Z 18005KT 3SM R16L/6000VP6000FT RA BR BKN009 OVC012 17/16 A2998 RMK AO2 CIG 004V011 P0001=
201108230222 SPECI KSEA 230222Z 18005KT 3SM R16L/6000VP6000FT RA BR BKN009 OVC012 17/16 A2998 RMK AO2 CIG 004V011 P0001=
201108230153 METAR KSEA 230153Z 20006KT 6SM -RA BR BKN014 OVC019 17/16 A2998 RMK AO2 RAE0056B26 SLP159 P0000 T01670156=
201108230053 METAR KSEA 230053Z 22003KT 10SM -RA FEW017 BKN028 OVC070 18/16 A2998 RMK AO2 SLP158 P0000 T01780156=
201108222353 METAR KSEA 222353Z 18005KT 10SM -RA FEW018 SCT049 BKN070 BKN200 18/16 A2999 RMK AO2 SLP158 P0001 60001 T01830161 10217 20178 51008=
201108222253 METAR KSEA 222253Z 19009KT 10SM -RA SCT038 BKN070 OVC200 18/16 A2999 RMK AO2 RAB2156 SLP158 P0000 T01830156=
201108222153 METAR KSEA 222153Z 25009KT 10SM FEW025 BKN060 OVC200 19/14 A2998 RMK AO2 RAE45 SLP155 P0000 T01890144=
201108222053 METAR KSEA 222053Z 22011KT 10SM -RA FEW025 BKN065 OVC200 21/14 A2996 RMK AO2 RAB40 SLP150 P0000 60000 T02060139 51004=
201108221953 METAR KSEA 221953Z 22014KT 10SM FEW017 SCT040 SCT140 OVC200 21/14 A2996 RMK AO2 SLP150 T02060139=
201108221853 METAR KSEA 221853Z 23012KT 10SM FEW015 SCT040 BKN200 21/14 A2995 RMK AO2 SLP148 T02110144=
201108221753 METAR KSEA 221753Z 22009KT 10SM FEW014 SCT038 BKN140 BKN200 21/15 A2995 RMK AO2 SLP145 T02060150 10206 20167 58002=
201108221653 METAR KSEA 221653Z 19010KT 10SM FEW013 SCT037 BKN140 BKN200 19/14 A2995 RMK AO2 SLP147 T01940144=
201108221630 SPECI KSEA 221630Z 20012KT 10SM SCT013 BKN036 BKN150 19/14 A2996 RMK AO2=
201108221630 SPECI KSEA 221630Z 20012KT 10SM SCT013 BKN036 BKN150 19/14 A2996 RMK AO2=
201108221553 METAR KSEA 221553Z 20010KT 10SM SCT011 BKN023 OVC042 18/14 A2997 RMK AO2 SLP154 T01780144=
201108221532 SPECI KSEA 221532Z 19013KT 10SM FEW010 BKN022 BKN150 18/14 A2997 RMK AO2=
201108221532 SPECI KSEA 221532Z 19013KT 10SM FEW010 BKN022 BKN150 18/14 A2997 RMK AO2=
201108221453 METAR KSEA 221453Z 19009KT 10SM BKN010 BKN021 BKN150 17/14 A2995 RMK AO2 SLP148 T01720144 53004=
201108221448 SPECI KSEA 221448Z 19009KT 10SM BKN010 BKN021 BKN150 17/14 A2995 RMK AO2=
201108221448 SPECI KSEA 221448Z 19009KT 10SM BKN010 BKN021 BKN150 17/14 A2995 RMK AO2=
201108221421 SPECI KSEA 221421Z 20010KT 10SM SCT010 SCT021 BKN150 17/14 A2994 RMK AO2=
201108221421 SPECI KSEA 221421Z 20010KT 10SM SCT010 SCT021 BKN150 17/14 A2994 RMK AO2=
201108221406 SPECI KSEA 221406Z 19010KT 10SM BKN010 BKN021 BKN150 17/14 A2994 RMK AO2=
201108221406 SPECI KSEA 221406Z 19010KT 10SM BKN010 BKN021 BKN150 17/14 A2994 RMK AO2=
201108221353 METAR KSEA 221353Z 19008KT 10SM SCT010 SCT025 BKN130 17/14 A2994 RMK AO2 SLP141 T01670139=
201108221333 SPECI KSEA 221333Z 19009KT 10SM SCT010 SCT020 BKN100 17/14 A2993 RMK AO2=
201108221333 SPECI KSEA 221333Z 19009KT 10SM SCT010 SCT020 BKN100 17/14 A2993 RMK AO2=
201108221253 METAR KSEA 221253Z 18007KT 10SM BKN010 17/14 A2994 RMK AO2 SLP140 T01670139=
201108221153 METAR KSEA 221153Z 20007KT 10SM BKN010 17/14 A2994 RMK AO2 SLP143 T01670139 10183 20156 53003=
201108221110 SPECI KSEA 221110Z 17008KT 10SM OVC010 17/14 A2993 RMK AO2=
201108221110 SPECI KSEA 221110Z 17008KT 10SM OVC010 17/14 A2993 RMK AO2=
201108221053 METAR KSEA 221053Z 18009KT 10SM OVC008 17/14 A2993 RMK AO2 CIG 007V010 SLP139 T01670139=
201108221019 SPECI KSEA 221019Z 20009KT 10SM OVC008 16/14 A2993 RMK AO2 CIG 006V011=
201108221019 SPECI KSEA 221019Z 20009KT 10SM OVC008 16/14 A2993 RMK AO2 CIG 006V011=
201108220953 METAR KSEA 220953Z 20007KT 10SM BKN010 17/13 A2993 RMK AO2 CIG 007V013 SLP138 T01670133=
201108220853 METAR KSEA 220853Z 18007KT 10SM CLR 16/14 A2993 RMK AO2 SLP139 T01610139 53007=
201108220753 METAR KSEA 220753Z 18007KT 10SM CLR 17/13 A2992 RMK AO2 SLP136 T01670133 403060150=
201108220653 METAR KSEA 220653Z 21006KT 10SM CLR 18/13 A2992 RMK AO2 SLP136 T01780128=
201108220553 METAR KSEA 220553Z 24008KT 10SM CLR 18/14 A2991 RMK AO2 SLP133 T01830144 10289 20183 51014=
201108220453 METAR KSEA 220453Z 21007KT 10SM CLR 19/15 A2991 RMK AO2 SLP131 T01940150=
201108220353 METAR KSEA 220353Z 19004KT 10SM FEW140 BKN210 21/14 A2989 RMK AO2 SLP126 T02110139=
201108220253 METAR KSEA 220253Z 26005KT 10SM FEW140 BKN210 22/14 A2987 RMK AO2 SLP118 T02220139 53002=
201108220153 METAR KSEA 220153Z 25007KT 10SM FEW140 BKN210 26/13 A2986 RMK AO2 SLP116 T02560128=
201108220053 METAR KSEA 220053Z 25005KT 10SM FEW140 BKN210 27/13 A2986 RMK AO2 SLP115 T02670128=
201108212353 METAR KSEA 212353Z 21007KT 10SM FEW140 BKN210 28/12 A2986 RMK AO2 SLP115 T02830117 10306 20233 56011=
201108212253 METAR KSEA 212253Z 27005KT 10SM FEW140 BKN210 29/10 A2987 RMK AO2 SLP117 T02940100=
201108212153 METAR KSEA 212153Z 22007KT 180V270 10SM FEW140 BKN210 29/11 A2988=
201108212053 METAR KSEA 212053Z 25006KT 10SM FEW140 BKN210 28/11 A2989 RMK AO2 SLP126 T02780106 56010=
201108211953 METAR KSEA 211953Z VRB05KT 10SM BKN220 27/10 A2990 RMK AO2 SLP128 T02720100=
201108211853 METAR KSEA 211853Z 17005KT 10SM BKN220 24/13 A2991 RMK AO2 SLP133 T02440133=
201108211753 METAR KSEA 211753Z VRB03KT 10SM BKN210 23/13 A2992 RMK AO2 SLP137 T02330133 10239 20150 50007=
201108211653 METAR KSEA 211653Z 29003KT 10SM BKN210 21/13 A2993 RMK AO2 SLP137 T02060128=
201108211553 METAR KSEA 211553Z 00000KT 10SM BKN210 18/13 A2992 RMK AO2 SLP136 T01830128=
201108211453 METAR KSEA 211453Z 00000KT 10SM BKN220 18/13 A2990 RMK AO2 SLP130 T01830133 53012=
201108211353 METAR KSEA 211353Z 17003KT 10SM BKN190 15/12 A2988 RMK AO2 SLP122 T01500122=
201108211253 METAR KSEA 211253Z 30003KT 10SM BKN200 15/12 A2988 RMK AO2 SLP121 T01500122=
201108211153 METAR KSEA 211153Z 00000KT 10SM BKN200 17/12 A2987 RMK AO2 SLP118 T01670122 10222 20167 57001=
201108211053 METAR KSEA 211053Z 00000KT 10SM SCT200 17/12 A2987 RMK AO2 SLP119 T01720122=
201108210953 METAR KSEA 210953Z 03004KT 10SM SCT200 19/12 A2987 RMK AO2 SLP117 T01890122=
201108210853 METAR KSEA 210853Z 00000KT 10SM FEW200 18/12 A2987 RMK AO2 SLP119 T01830122 51003=
201108210753 METAR KSEA 210753Z 04003KT 10SM CLR 21/12 A2987 RMK AO2 SLP117 T02060122 402940150 $=
201108210653 METAR KSEA 210653Z 03004KT 10SM CLR 21/12 A2987 RMK AO2 SLP117 T02110122=
201108210553 METAR KSEA 210553Z 01005KT 10SM CLR 22/12 A2986 RMK AO2 SLP115 T02220122 10294 20206 50005=
201108210453 METAR KSEA 210453Z 00000KT 10SM CLR 22/12 A2986 RMK AO2 SLP116 T02220117=
201108210353 METAR KSEA 210353Z 36005KT 10SM CLR 23/12 A2986 RMK AO2 SLP114 T02330122=
201108210253 METAR KSEA 210253Z 35007KT 10SM CLR 25/12 A2985 RMK AO2 SLP111 T02500117 56011=
201108210153 METAR KSEA 210153Z 36005KT 10SM CLR 28/12 A2985 RMK AO2 SLP111 T02780122=
201108210053 METAR KSEA 210053Z 36006KT 10SM CLR 29/11 A2986 RMK AO2 SLP116 T02890111=
201108202353 METAR KSEA 202353Z 30005KT 10SM CLR 29/11 A2988 RMK AO2 SLP120 T02940106 10294 20228 56021=
201108202253 METAR KSEA 202253Z 30005KT 10SM CLR 28/11 A2990 RMK AO2 SLP127 T02830111=
201108202153 METAR KSEA 202153Z 34006KT 10SM CLR 28/11 A2992 RMK AO2 SLP134 T02830111=
201108202053 METAR KSEA 202053Z 35009KT 10SM CLR 27/11 A2994 RMK AO2 SLP142 T02720111 56016=
201108201953 METAR KSEA 201953Z 03007KT 10SM CLR 26/12 A2995 RMK AO2 SLP147 T02560122=
201108201853 METAR KSEA 201853Z 36007KT 10SM CLR 24/13 A2997 RMK AO2 SLP152 T02390128=
201108201753 METAR KSEA 201753Z 35007KT 10SM CLR 23/12 A2999 RMK AO2 SLP159 T02280122 10228 20150 58004=
201108201653 METAR KSEA 201653Z 36008KT 10SM CLR 22/12 A3000 RMK AO2 SLP162 T02170117=
201108201553 METAR KSEA 201553Z 02004KT 10SM CLR 19/12 A3000 RMK AO2 SLP162 T01940117=
201108201453 METAR KSEA 201453Z 00000KT 10SM CLR 17/12 A3000 RMK AO2 SLP162 T01720117 53005=
201108201353 METAR KSEA 201353Z 06004KT 10SM CLR 15/12 A2999 RMK AO2 SLP158 T01500117=
201108201253 METAR KSEA 201253Z 03006KT 10SM CLR 15/11 A2998 RMK AO2 SLP155 T01500106=
201108201153 METAR KSEA 201153Z 03007KT 10SM CLR 16/09 A2998 RMK AO2 SLP157 T01560094 10194 20150 56007=
201108201053 METAR KSEA 201053Z 04008KT 10SM CLR 17/09 A2999 RMK AO2 SLP158 T01670094=
201108200953 METAR KSEA 200953Z 36004KT 10SM CLR 15/10 A2999 RMK AO2 SLP161 T01500100=
201108200853 METAR KSEA 200853Z 03006KT 10SM CLR 17/11 A3000 RMK AO2 SLP165 T01720106 58004=
201108200753 METAR KSEA 200753Z 04005KT 10SM CLR 18/11 A3001 RMK AO2 SLP167 T01780106 402560117=
201108200653 METAR KSEA 200653Z 02010KT 10SM CLR 19/09 A3002 RMK AO2 SLP169 T01890094=
201108200553 METAR KSEA 200553Z 02009KT 10SM CLR 19/10 A3002 RMK AO2 SLP169 T01940100 10256 20178 50001=
201108200453 METAR KSEA 200453Z 01010KT 10SM CLR 19/10 A3002 RMK AO2 SLP170 T01940100=
201108200353 METAR KSEA 200353Z 35007KT 10SM CLR 19/11 A3002 RMK AO2 SLP172 T01890106=
201108200253 METAR KSEA 200253Z 36008KT 10SM CLR 22/09 A3002 RMK AO2 SLP169 T02170094 56009=
201108200153 METAR KSEA 200153Z 36011KT 10SM CLR 24/07 A3002 RMK AO2 SLP169 T02390072=
201108200053 METAR KSEA 200053Z 34014KT 10SM FEW045 24/07 A3003 RMK AO2 SLP173 T02440067=
201108192353 METAR KSEA 192353Z 36010G17KT 10SM FEW045 26/09 A3004 RMK AO2 SLP178 T02560089 10256 20156 57015=
201108192253 METAR KSEA 192253Z 34013KT 10SM FEW045 24/08 A3006 RMK AO2 SLP183 T02440083=
201108192153 METAR KSEA 192153Z 01012G18KT 10SM FEW045 25/08 A3007 RMK AO2 SLP188 T02500083=
201108192053 METAR KSEA 192053Z 02011G16KT 10SM FEW045 23/10 A3009 RMK AO2 SLP193 T02280100 58010=
201108191953 METAR KSEA 191953Z VRB04KT 10SM FEW250 21/11 A3010 RMK AO2 SLP198 T02060111=
201108191853 METAR KSEA 191853Z 26006KT 10SM FEW250 17/11 A3012 RMK AO2 SLP204 FG BANK W T01670111=
201108191753 METAR KSEA 191753Z 29006KT 7SM FEW007 16/11 A3012 RMK AO2 SLP205 T01610111 10167 20117 51001=
201108191712 SPECI KSEA 191712Z VRB06KT 7SM SCT007 17/11 A3012 RMK AO2=
201108191712 SPECI KSEA 191712Z VRB06KT 7SM SCT007 17/11 A3012 RMK AO2=
201108191653 METAR KSEA 191653Z 02006KT 6SM HZ BKN006 16/11 A3012 RMK AO2 SLP204 T01610111=
201108191613 SPECI KSEA 191613Z 35006KT 5SM HZ BKN005 14/11 A3012 RMK AO2=
201108191613 SPECI KSEA 191613Z 35006KT 5SM HZ BKN005 14/11 A3012 RMK AO2=
201108191553 METAR KSEA 191553Z 36006KT 5SM HZ OVC004 14/11 A3012 RMK AO2 SLP204 T01390111=
201108191453 METAR KSEA 191453Z 34005KT 4SM BR OVC003 13/11 A3011 RMK AO2 SLP203 T01280111 53004=
201108191353 METAR KSEA 191353Z 34006KT 4SM BR OVC003 12/11 A3010 RMK AO2 SLP199 T01220111=
201108191310 SPECI KSEA 191310Z 02008KT 4SM BR BKN003 BKN200 12/11 A3010 RMK AO2=
201108191310 SPECI KSEA 191310Z 02008KT 4SM BR BKN003 BKN200 12/11 A3010 RMK AO2=
201108191253 METAR KSEA 191253Z 35003KT 4SM BR FEW002 SCT200 12/11 A3010 RMK AO2 SLP199 FG BANK SW-NW-NE T01170106=
201108191246 SPECI KSEA 191246Z 34004KT 6SM BR FEW002 12/11 A3010 RMK AO2 FG BANK SW-NW-NE=
201108191246 SPECI KSEA 191246Z 34004KT 6SM BR FEW002 12/11 A3010 RMK AO2 FG BANK SW-NW-NE=
201108191153 METAR KSEA 191153Z 36004KT 10SM CLR 12/11 A3010 RMK AO2 SLP199 T01220106 10172 20122 58003=
201108191053 METAR KSEA 191053Z 01004KT 10SM CLR 13/11 A3011 RMK AO2 SLP199 T01330111=
201108190953 METAR KSEA 190953Z 04009KT 10SM CLR 15/11 A3011 RMK AO2 SLP200 T01500111=
201108190853 METAR KSEA 190853Z 03010KT 10SM CLR 15/11 A3011 RMK AO2 SLP201 T01500111 58001=
201108190753 METAR KSEA 190753Z 03010KT 10SM CLR 16/11 A3012 RMK AO2 SLP203 T01560111 402280122=
201108190653 METAR KSEA 190653Z 02010KT 10SM CLR 17/11 A3012 RMK AO2 SLP202 T01670106=
201108190553 METAR KSEA 190553Z 01007KT 10SM FEW100 SCT200 17/11 A3011 RMK AO2 SLP202 T01720111 10228 20161 50002=
201108190453 METAR KSEA 190453Z 36006KT 10SM FEW120 SCT200 17/11 A3012 RMK AO2 SLP204 T01670106=
201108190353 METAR KSEA 190353Z 36006KT 10SM FEW120 BKN200 18/10 A3012 RMK AO2 SLP203 T01780100=
201108190253 METAR KSEA 190253Z 31004KT 10SM FEW050 SCT100 BKN200 20/10 A3011 RMK AO2 SLP201 T02000100 56010=
201108190153 METAR KSEA 190153Z 27005KT 10SM FEW100 SCT200 21/11 A3012 RMK AO2 SLP203 T02060106=
201108190053 METAR KSEA 190053Z 28007KT 10SM FEW040 SCT100 SCT200 22/11 A3012 RMK AO2 SLP206 T02170111=
201108182353 METAR KSEA 182353Z 28006KT 10SM FEW040 SCT100 BKN200 22/11 A3014 RMK AO2 SLP210 T02220106 10228 20167 58012=
201108182253 METAR KSEA 182253Z 30007KT 10SM FEW040 SCT140 BKN200 22/11 A3015 RMK AO2 SLP216 T02220111=
201108182153 METAR KSEA 182153Z 28007KT 10SM FEW040 BKN200 22/11 A3017 RMK AO2 SLP220 T02170106=
201108182053 METAR KSEA 182053Z 22007KT 10SM FEW035 BKN200 21/11 A3018 RMK AO2 SLP223 T02110106 58012=
201108181953 METAR KSEA 181953Z 25007KT 10SM FEW025 SCT200 19/11 A3019 RMK AO2 SLP228 T01940111=
201108181853 METAR KSEA 181853Z 26005KT 10SM SCT021 BKN200 18/11 A3020 RMK AO2 SLP233 T01830111=
201108181753 METAR KSEA 181753Z VRB03KT 10SM SCT016 BKN200 18/11 A3021 RMK AO2 SLP235 T01780111 10178 20122 51004=
201108181653 METAR KSEA 181653Z 21006KT 10SM SCT011 BKN250 16/11 A3021 RMK AO2 SLP235 T01610111=
201108181553 METAR KSEA 181553Z 00000KT 10SM SCT009 BKN250 14/11 A3021 RMK AO2 SLP235 T01440111=
201108181515 SPECI KSEA 181515Z VRB03KT 10SM FEW009 BKN250 13/11 A3020 RMK AO2=
201108181515 SPECI KSEA 181515Z VRB03KT 10SM FEW009 BKN250 13/11 A3020 RMK AO2=
201108181453 METAR KSEA 181453Z 19004KT 10SM FEW011 BKN250 13/11 A3020 RMK AO2 SLP231 T01330111 53010=
201108181353 METAR KSEA 181353Z 13004KT 10SM FEW033 SCT160 13/10 A3019 RMK AO2 SLP228 T01280100=
201108181253 METAR KSEA 181253Z 15005KT 10SM BKN033 13/10 A3017 RMK AO2 SLP222 T01280100=
201108181153 METAR KSEA 181153Z 12005KT 10SM FEW024 13/09 A3017 RMK AO2 SLP220 T01330094 10167 20133 50003=
201108181053 METAR KSEA 181053Z 05006KT 10SM CLR 14/10 A3017 RMK AO2 SLP221 T01440100=
201108180953 METAR KSEA 180953Z 04003KT 10SM CLR 15/10 A3016 RMK AO2 SLP217 T01500100=
201108180853 METAR KSEA 180853Z 05004KT 10SM CLR 15/10 A3016 RMK AO2 SLP217 T01500100 51006=
201108180753 METAR KSEA 180753Z 04007KT 10SM CLR 16/10 A3015=
201108180653 METAR KSEA 180653Z 04009KT 10SM CLR 16/10 A3015 RMK AO2 SLP212 T01610100=
201108180553 METAR KSEA 180553Z 03012KT 10SM CLR 17/10 A3014 RMK AO2 SLP211 T01670100 10250 20167 51015=
201108180453 METAR KSEA 180453Z 03012KT 10SM CLR 18/09 A3013=
201108180353 METAR KSEA 180353Z 02012KT 10SM FEW250 19/08 A3012 RMK AO2 SLP202 T01890083=
201108180253 METAR KSEA 180253Z 02012KT 10SM FEW250 21/08 A3009 RMK AO2 SLP195 T02060078 55001=
201108180153 METAR KSEA 180153Z 33006KT 10SM FEW250 23/08 A3009 RMK AO2 SLP194 T02330078=
201108180053 METAR KSEA 180053Z 30005KT 10SM FEW250 24/07 A3009 RMK AO2 SLP195 T02440072=
201108172353 METAR KSEA 172353Z 25005KT 10SM FEW250 24/06 A3010 RMK AO2 SLP196 T02440061 10250 20194 58013=
201108172253 METAR KSEA 172253Z VRB04KT 10SM FEW250 24/04 A3012 RMK AO2 SLP202 T02440039=
201108172153 METAR KSEA 172153Z 30004KT 10SM FEW250 24/06 A3013 RMK AO2 SLP207 T02440061=
201108172053 METAR KSEA 172053Z 28006KT 10SM FEW050 23/09 A3014 RMK AO2 SLP209 T02280094 58001=
201108171953 METAR KSEA 171953Z 30006KT 10SM FEW250 22/09 A3014 RMK AO2 SLP211 T02170089=
201108171853 METAR KSEA 171853Z 28006KT 10SM FEW250 21/09 A3014 RMK AO2 SLP211 T02060089=
201108171753 METAR KSEA 171753Z 29003KT 10SM FEW250 19/09 A3014 RMK AO2 SLP210 T01940094 10194 20117 50003=
201108171653 METAR KSEA 171653Z 00000KT 10SM FEW250 18/09 A3014 RMK AO2 SLP212 T01830089=
201108171553 METAR KSEA 171553Z 00000KT 10SM FEW250 16/08 A3013 RMK AO2 SLP209 T01610083=
201108171453 METAR KSEA 171453Z 00000KT 10SM FEW250 14/09 A3013 RMK AO2 SLP208 T01440089 53011=
201108171353 METAR KSEA 171353Z 13003KT 10SM CLR 13/08 A3012 RMK AO2 SLP202 T01280083=
201108171253 METAR KSEA 171253Z 00000KT 10SM CLR 13/08 A3010 RMK AO2 SLP199 T01330083=
201108171153 METAR KSEA 171153Z 00000KT 10SM CLR 14/08 A3010 RMK AO2 SLP196 T01390078 10172 20128 52004=
201108171053 METAR KSEA 171053Z 04004KT 10SM CLR 14/08 A3009 RMK AO2 SLP195 T01440078=
201108170953 METAR KSEA 170953Z 36003KT 10SM CLR 13/08 A3009 RMK AO2 SLP194 T01330078=
201108170853 METAR KSEA 170853Z 03010KT 10SM CLR 16/08 A3009 RMK AO2 SLP192 T01560078 50001=
201108170753 METAR KSEA 170753Z 03012KT 10SM CLR 17/08 A3009 RMK AO2 SLP192 T01670078 402560128=
201108170653 METAR KSEA 170653Z 01007KT 10SM CLR 16/07 A3008 RMK AO2 SLP192 T01610072=
201108170553 METAR KSEA 170553Z 01007KT 10SM CLR 17/07 A3008 RMK AO2 SLP191 T01720067 10256 20172 51008=
201108170453 METAR KSEA 170453Z 01007KT 10SM CLR 19/07 A3008 RMK AO2 SLP189 T01890067=
201108170353 METAR KSEA 170353Z 01007KT 10SM CLR 19/04 A3007 RMK AO2 SLP186 T01890044=
201108170253 METAR KSEA 170253Z 35008KT 10SM CLR 21/03 A3006 RMK AO2 SLP182 T02110033 56005=
201108170153 METAR KSEA 170153Z 36010KT 10SM CLR 23/04 A3006 RMK AO2 SLP184 T02330044=
201108170053 METAR KSEA 170053Z 36009KT 10SM CLR 25/05 A3007 RMK AO2 SLP186 T02500050=
201108162353 METAR KSEA 162353Z 34006KT 10SM FEW050 25/06 A3007 RMK AO2 SLP188 T02500056 10250 20189 58012=
201108162253 METAR KSEA 162253Z 30009KT 10SM FEW050 25/07 A3008 RMK AO2 SLP192 T02500067=
201108162153 METAR KSEA 162153Z 31008KT 10SM FEW045 24/07 A3010 RMK AO2 SLP197 T02390072=
201108162053 METAR KSEA 162053Z 28007KT 10SM FEW045 23/09 A3011 RMK AO2 SLP200 T02280089 58005=
201108161953 METAR KSEA 161953Z 29008KT 10SM FEW045 22/08 A3012 RMK AO2 SLP202 T02170083=
201108161853 METAR KSEA 161853Z 29007KT 10SM FEW040 20/09 A3012 RMK AO2 SLP204 T02000094=
201108161753 METAR KSEA 161753Z 29006KT 10SM CLR 19/10 A3012 RMK AO2 SLP206 T01890100 10194 20128 56001=
201108161653 METAR KSEA 161653Z 36005KT 10SM FEW250 18/08 A3013 RMK AO2 SLP206 T01830083=
201108161553 METAR KSEA 161553Z 35005KT 10SM FEW250 16/09 A3012 RMK AO2 SLP205 T01610089=
201108161453 METAR KSEA 161453Z 02004KT 10SM FEW250 14/09 A3013=
201108161353 METAR KSEA 161353Z 03008KT 10SM CLR 13/08 A3012 RMK AO2 SLP203 T01330083=
201108161253 METAR KSEA 161253Z 03009KT 10SM CLR 13/08 A3012 RMK AO2 SLP204 T01280083=
201108161153 METAR KSEA 161153Z 03007KT 10SM CLR 13/08 A3012 RMK AO2 SLP204 T01330083 10167 20128 50000=
201108161053 METAR KSEA 161053Z 03008KT 10SM CLR 13/08 A3012 RMK AO2 SLP205 T01330083=
201108160953 METAR KSEA 160953Z 02009KT 10SM CLR 14/08 A3012 RMK AO2 SLP205 T01390078=
201108160853 METAR KSEA 160853Z 02005KT 9SM CLR 14/08 A3012=
201108160753 METAR KSEA 160753Z 01007KT 10SM CLR 15/08 A3012 RMK AO2 SLP203 T01500078 402330139=
201108160653 METAR KSEA 160653Z 01007KT 10SM CLR 15/09 A3011 RMK AO2 SLP201 T01500094=
201108160553 METAR KSEA 160553Z 35007KT 10SM FEW250 16/09 A3011 RMK AO2 SLP201 T01560094 10233 20156 51007=
201108160453 METAR KSEA 160453Z 01006KT 10SM FEW050 SCT250 18/10 A3011 RMK AO2 SLP200 T01780100=
201108160353 METAR KSEA 160353Z 02008KT 10SM FEW050 SCT250 19/09 A3010 RMK AO2 SLP198 T01890094=
201108160253 METAR KSEA 160253Z 35008KT 10SM FEW035 BKN250 20/09 A3009 RMK AO2 SLP195 T02000089 58001=
201108160153 METAR KSEA 160153Z 35007KT 10SM FEW035 BKN250 22/07 A3009 RMK AO2 SLP194 T02220072=
201108160053 METAR KSEA 160053Z 29007KT 10SM FEW035 SCT250 23/07 A3009 RMK AO2 SLP194 T02280067=
201108152353 METAR KSEA 152353Z 31005KT 10SM FEW035 SCT250 23/05 A3009 RMK AO2 SLP194 T02280050 10233 20178 58004=
201108152253 METAR KSEA 152253Z 28006KT 10SM SCT035 SCT250 23/08 A3010 RMK AO2 SLP198 T02280083=
201108152153 METAR KSEA 152153Z 24006KT 10SM SCT035 SCT250 22/08 A3011 RMK AO2 SLP199 T02170083=
201108152053 METAR KSEA 152053Z 24006KT 10SM SCT035 SCT250 21/09 A3010 RMK AO2 SLP199 T02110089 52002=
201108151953 METAR KSEA 151953Z 00000KT 10SM SCT030 SCT250 21/10 A3010 RMK AO2 SLP198 T02060100=
201108151853 METAR KSEA 151853Z VRB03KT 10SM SCT030 SCT250 20/11 A3010 RMK AO2 SLP197 T02000106=
201108151753 METAR KSEA 151753Z 28004KT 10SM SCT023 SCT045 SCT250 17/11 A3010 RMK AO2 SLP198 T01720111 10178 20144 51010=
201108151653 METAR KSEA 151653Z 22005KT 10SM FEW017 SCT023 BKN045 17/11 A3009 RMK AO2 SLP196 T01670111=
201108151610 SPECI KSEA 151610Z 19005KT 10SM SCT022 BKN038 16/11 A3009 RMK AO2=
201108151610 SPECI KSEA 151610Z 19005KT 10SM SCT022 BKN038 16/11 A3009 RMK AO2=
201108151553 METAR KSEA 151553Z 24004KT 10SM BKN021 BKN038 15/11 A3009 RMK AO2 SLP193 T01500111=
201108151524 SPECI KSEA 151524Z 20004KT 10SM BKN018 BKN037 15/11 A3008 RMK AO2=
201108151524 SPECI KSEA 151524Z 20004KT 10SM BKN018 BKN037 15/11 A3008 RMK AO2=
201108151453 METAR KSEA 151453Z 20004KT 10SM SCT020 BKN036 14/11 A3007 RMK AO2 SLP188 T01440111 51008=
201108151410 SPECI KSEA 151410Z 17003KT 10SM FEW020 BKN036 BKN055 14/11 A3006 RMK AO2=
201108151410 SPECI KSEA 151410Z 17003KT 10SM FEW020 BKN036 BKN055 14/11 A3006 RMK AO2=
201108151353 METAR KSEA 151353Z 19003KT 10SM BKN020 BKN040 14/11 A3006 RMK AO2 SLP183 T01440111=
201108151253 METAR KSEA 151253Z 00000KT 10SM FEW020 BKN035 BKN200 14/11 A3004 RMK AO2 SLP179 T01440111=
201108151153 METAR KSEA 151153Z 00000KT 10SM FEW015 BKN030 BKN070 14/11 A3004 RMK AO2 SLP178 T01440111 10161 20139 52005=
201108151053 METAR KSEA 151053Z 20003KT 10SM SCT030 BKN045 OVC060 14/11 A3003 RMK AO2 SLP175 T01440111=
201108150953 METAR KSEA 150953Z 00000KT 10SM BKN030 BKN040 OVC085 14/11 A3003 RMK AO2 SLP174 T01440111=
201108150853 METAR KSEA 150853Z 21004KT 10SM BKN050 BKN065 15/12 A3003 RMK AO2 SLP172 T01500117 53004=
201108150753 METAR KSEA 150753Z 20003KT 10SM BKN050 BKN200 15/12 A3002 RMK AO2 SLP171 T01500117 402170128=
201108150653 METAR KSEA 150653Z 19003KT 10SM BKN035 BKN200 16/12 A3002 RMK AO2 SLP169 T01560117=
201108150553 METAR KSEA 150553Z 21003KT 10SM SCT031 BKN080 16/11 A3001 RMK AO2 SLP169 T01610111 10200 20161 51002=
201108150453 METAR KSEA 150453Z 20003KT 10SM BKN085 17/11 A3001 RMK AO2 SLP169 T01670111=
201108150353 METAR KSEA 150353Z 18004KT 10SM OVC080 17/12 A3001 RMK AO2 SLP169 T01720117=
201108150253 METAR KSEA 150253Z 28003KT 10SM BKN080 BKN140 18/11 A3001 RMK AO2 SLP167 T01780111 58005=
201108150153 METAR KSEA 150153Z 30004KT 10SM FEW060 BKN080 BKN150 18/11 A3001 RMK AO2 SLP169 T01830111=
201108150053 METAR KSEA 150053Z 27006KT 10SM FEW040 BKN055 BKN140 19/11 A3002=
201108142353 METAR KSEA 142353Z 25008KT 10SM FEW042 BKN060 19/11 A3002 RMK AO2 SLP172 T01940106 10217 20172 56002=
201108142253 METAR KSEA 142253Z 27008KT 10SM BKN050 20/09 A3003 RMK AO2 SLP174 T02000089=
201108142153 METAR KSEA 142153Z 24008KT 10SM FEW035 BKN050 BKN140 21/08 A3002 RMK AO2 SLP171 T02110078=
201108142053 METAR KSEA 142053Z 24006KT 10SM FEW035 SCT050 BKN130 21/08 A3003 RMK AO2 SLP173 T02060083 56001=
201108141953 METAR KSEA 141953Z 22009KT 190V260 10SM SCT035 SCT050 BKN130 19/09 A3003 RMK AO2 SLP175 T01940089=
201108141853 METAR KSEA 141853Z 26007KT 10SM SCT041 BKN050 BKN090 18/09 A3003 RMK AO2 SLP174 T01830094 $=
201108141753 METAR KSEA 141753Z 22007KT 10SM FEW021 BKN050 OVC080 17/09 A3003 RMK AO2 SLP175 60000 T01720094 10178 20128 50000=
201108141653 METAR KSEA 141653Z 18006KT 10SM FEW017 OVC046 17/11 A3004 RMK AO2 SLP177 T01720106=
201108141553 METAR KSEA 141553Z 21005KT 10SM FEW017 OVC044 15/10 A3004 RMK AO2 SLP177 T01500100=
201108141453 METAR KSEA 141453Z 17006KT 10SM FEW022 BKN044 OVC095 14/10 A3003 RMK AO2 RAB41E50 SLP175 P0000 60000 T01440100 53004=
201108141353 METAR KSEA 141353Z 19004KT 10SM FEW048 BKN095 14/09 A3003 RMK AO2 SLP173 T01390094=
201108141253 METAR KSEA 141253Z 17005KT 10SM SCT045 BKN100 BKN170 13/09 A3003 RMK AO2 SLP173 T01330094=
201108141153 METAR KSEA 141153Z 17004KT 10SM BKN045 14/09 A3002 RMK AO2 SLP172 T01390094 10150 20139 56004=
201108141053 METAR KSEA 141053Z 19004KT 10SM SCT030 OVC045 14/10 A3003 RMK AO2 SLP172 T01440100=
201108140953 METAR KSEA 140953Z 16005KT 10SM BKN045 14/10 A3003 RMK AO2 SLP174 T01440100=
201108140853 METAR KSEA 140853Z 21007KT 10SM BKN038 OVC200 14/10 A3004 RMK AO2 SLP176 T01440100 51002=
201108140753 METAR KSEA 140753Z 16005KT 10SM BKN040 OVC060 14/10 A3004 RMK AO2 SLP176 T01440100 402110117=
201108140653 METAR KSEA 140653Z 23004KT 10SM BKN040 OVC060 15/10 A3003 RMK AO2 SLP176 T01500100=
201108140553 METAR KSEA 140553Z 24006KT 10SM OVC041 15/11 A3003 RMK AO2 SLP174 T01500106 10206 20150 51008=
201108140453 METAR KSEA 140453Z 25003KT 10SM SCT045 16/10 A3003 RMK AO2 SLP173 T01560100=
201108140353 METAR KSEA 140353Z 29004KT 10SM SCT045 16/10 A3002 RMK AO2 SLP170 T01610100=
201108140253 METAR KSEA 140253Z 27004KT 10SM FEW035 SCT200 19/09 A3000 RMK AO2 SLP166 T01890094 55005=
201108140153 METAR KSEA 140153Z VRB05KT 10SM FEW035 SCT200 20/09 A3000 RMK AO2 SLP165 T02000089=
201108140053 METAR KSEA 140053Z 24007KT 10SM FEW035 BKN170 20/09 A3001 RMK AO2 SLP169 T02000089=
201108132353 METAR KSEA 132353Z VRB04KT 10SM SCT035 BKN160 21/09 A3002 RMK AO2 SLP171 T02060089 10211 20167 58009=
201108132253 METAR KSEA 132253Z 25009KT 10SM SCT035 21/09 A3003 RMK AO2 SLP175 T02060089=
201108132153 METAR KSEA 132153Z 24005KT 10SM OVC031 19/09 A3004 RMK AO2 SLP179 T01890094=
201108132108 SPECI KSEA 132108Z 27008KT 10SM OVC031 19/09 A3005 RMK AO2=
201108132108 SPECI KSEA 132108Z 27008KT 10SM OVC031 19/09 A3005 RMK AO2=
201108132053 METAR KSEA 132053Z 25006KT 10SM OVC029 18/09 A3005 RMK AO2 SLP180 T01830094 57002=
201108131953 METAR KSEA 131953Z 23007KT 190V260 10SM OVC029 18/09 A3005 RMK AO2 SLP181 T01780094=
201108131913 SPECI KSEA 131913Z VRB06KT 10SM BKN027 BKN070 18/09 A3005 RMK AO2=
201108131913 SPECI KSEA 131913Z VRB06KT 10SM BKN027 BKN070 18/09 A3005 RMK AO2=
201108131853 METAR KSEA 131853Z 25007KT 10SM FEW020 SCT028 BKN060 18/09 A3005 RMK AO2 SLP182 T01780089=
201108131753 METAR KSEA 131753Z 21006KT 10SM FEW016 SCT028 BKN070 17/09 A3005 RMK AO2 SLP183 T01670094 10167 20117 58001=
201108131653 METAR KSEA 131653Z 20007KT 10SM FEW014 SCT030 BKN070 15/09 A3005 RMK AO2 SLP183 T01500094=
201108131636 SPECI KSEA 131636Z 20006KT 10SM SCT014 BKN030 BKN060 15/09 A3006 RMK AO2=
201108131636 SPECI KSEA 131636Z 20006KT 10SM SCT014 BKN030 BKN060 15/09 A3006 RMK AO2=
201108131553 METAR KSEA 131553Z 20007KT 10SM OVC012 14/09 A3006 RMK AO2 SLP185 T01390094=
201108131453 METAR KSEA 131453Z 18006KT 10SM OVC006 12/10 A3006 RMK AO2 SLP183 T01220100 53011=
201108131353 METAR KSEA 131353Z 19006KT 10SM BKN008 BKN010 12/10 A3004 RMK AO2 SLP178 T01170100=
201108131343 SPECI KSEA 131343Z 18008KT 10SM BKN008 BKN010 12/10 A3004 RMK AO2=
201108131343 SPECI KSEA 131343Z 18008KT 10SM BKN008 BKN010 12/10 A3004 RMK AO2=
201108131301 SPECI KSEA 131301Z 23004KT 10SM SCT008 BKN010 12/10 A3003 RMK AO2=
201108131301 SPECI KSEA 131301Z 23004KT 10SM SCT008 BKN010 12/10 A3003 RMK AO2=
201108131253 METAR KSEA 131253Z 23004KT 7SM BKN010 12/09 A3003 RMK AO2 SLP174 T01170094=
201108131153 METAR KSEA 131153Z 21004KT 10SM BKN010 12/10 A3002 RMK AO2 SLP171 T01220100 10167 20117 53003=
201108131053 METAR KSEA 131053Z 00000KT 10SM CLR 12/10 A3002 RMK AO2 SLP170 T01220100=
201108130953 METAR KSEA 130953Z 19004KT 10SM CLR 13/11 A3002 RMK AO2 SLP171 T01280106=
201108130853 METAR KSEA 130853Z 00000KT 10SM SCT040 BKN200 14/10 A3002 RMK AO2 SLP170 T01440100 53005=
201108130753 METAR KSEA 130753Z 16005KT 10SM FEW040 SCT200 14/11 A3001 RMK AO2 SLP169 T01390111 402440111=
201108130653 METAR KSEA 130653Z 23003KT 10SM FEW200 16/11 A3000 RMK AO2 SLP164 T01560111=
201108130553 METAR KSEA 130553Z 26004KT 10SM FEW200 17/12 A3000 RMK AO2 SLP164 T01670117 10244 20167 50003=
201108130453 METAR KSEA 130453Z 00000KT 10SM FEW040 18/11 A3000 RMK AO2 SLP165 T01780111=
201108130353 METAR KSEA 130353Z 00000KT 10SM FEW040 SCT250 20/11 A3000 RMK AO2 SLP164 T02000106=
201108130253 METAR KSEA 130253Z 20003KT 10SM FEW040 23/11 A2999 RMK AO2 SLP160 T02280111 56008=
201108130153 METAR KSEA 130153Z VRB04KT 10SM SCT250 24/11 A2999 RMK AO2 SLP161 T02390106=
201108130053 METAR KSEA 130053Z 00000KT 10SM SCT250 24/10 A3000 RMK AO2 SLP164 T02390100=
201108122353 METAR KSEA 122353Z 25003KT 10SM FEW200 23/11 A3002 RMK AO2 SLP168 T02330106 10239 20144 56013=
201108122253 METAR KSEA 122253Z 34005KT 10SM FEW200 23/11 A3003 RMK AO2 SLP172 T02330106=
201108122153 METAR KSEA 122153Z 27006KT 10SM FEW035 22/12 A3004 RMK AO2 SLP178 T02170117=
201108122053 METAR KSEA 122053Z 25005KT 10SM FEW030 19/12 A3005 RMK AO2 SLP182 T01940122 58009=
201108121953 METAR KSEA 121953Z 28005KT 7SM FEW250 17/12 A3007 RMK AO2 SLP187 T01720122=
201108121853 METAR KSEA 121853Z 27006KT 6SM HZ SCT008 SCT250 15/12 A3008=
201108121808 SPECI KSEA 121808Z 27005KT 5SM HZ SCT004 BKN007 15/12 A3008 RMK AO2=
201108121808 SPECI KSEA 121808Z 27005KT 5SM HZ SCT004 BKN007 15/12 A3008 RMK AO2=
201108121753 METAR KSEA 121753Z 28004KT 2 1/2SM HZ OVC004 15/12 A3008 RMK AO2 SLP192 T01500117 10150 20111 50001=
201108121653 METAR KSEA 121653Z 28003KT 1 1/2SM BR OVC003 13/12 A3009 RMK AO2 SLP194 T01330117=
201108121553 METAR KSEA 121553Z 29003KT 1 1/2SM BR OVC003 13/12 A3008 RMK AO2 SLP192 T01280117=
201108121453 METAR KSEA 121453Z 00000KT 1 3/4SM BR OVC002 13/12 A3008 RMK AO2 SLP191 T01280117 51007=
201108121353 METAR KSEA 121353Z 30003KT 1 1/2SM BR OVC002 12/11 A3007 RMK AO2 SLP189 T01220111=
201108121339 SPECI KSEA 121339Z 32003KT 1 1/2SM BR OVC002 12/11 A3007 RMK AO2=
201108121339 SPECI KSEA 121339Z 32003KT 1 1/2SM BR OVC002 12/11 A3007 RMK AO2=
201108121327 SPECI KSEA 121327Z 31003KT 2SM BR OVC002 12/12 A3007 RMK AO2=
201108121327 SPECI KSEA 121327Z 31003KT 2SM BR OVC002 12/12 A3007 RMK AO2=
201108121310 SPECI KSEA 121310Z 30003KT 3SM BR OVC002 12/11 A3007 RMK AO2=
201108121310 SPECI KSEA 121310Z 30003KT 3SM BR OVC002 12/11 A3007 RMK AO2=
201108121253 METAR KSEA 121253Z 30003KT 5SM BR BKN004 12/11 A3007 RMK AO2 SLP187 T01170106=
201108121239 SPECI KSEA 121239Z 00000KT 5SM BR BKN004 11/10 A3007 RMK AO2=
201108121239 SPECI KSEA 121239Z 00000KT 5SM BR BKN004 11/10 A3007 RMK AO2=
201108121206 SPECI KSEA 121206Z 30003KT 6SM BCFG FEW001 12/11 A3006 RMK AO2 FG BANK SW-NW=
201108121206 SPECI KSEA 121206Z 30003KT 6SM BCFG FEW001 12/11 A3006 RMK AO2 FG BANK SW-NW=
201108121153 METAR KSEA 121153Z 35005KT 10SM CLR 12/10 A3006 RMK AO2 SLP184 T01170100 10161 20111 58004=
201108121053 METAR KSEA 121053Z 35005KT 10SM CLR 12/11 A3007 RMK AO2 SLP187 T01220106=
201108120953 METAR KSEA 120953Z 34006KT 10SM CLR 13/11 A3007 RMK AO2 SLP188 T01280106=
201108120853 METAR KSEA 120853Z 35005KT 10SM CLR 13/11 A3007 RMK AO2 SLP188 T01330106 55001=
201108120753 METAR KSEA 120753Z 35004KT 10SM CLR 14/11 A3007 RMK AO2 SLP187 T01440106 402330122=
201108120653 METAR KSEA 120653Z 34003KT 10SM CLR 16/11 A3007 RMK AO2 SLP188 T01560111=
201108120553 METAR KSEA 120553Z 00000KT 10SM CLR 16/11 A3007 RMK AO2 SLP189 T01560111 10233 20156 51005=
201108120453 METAR KSEA 120453Z 33004KT 10SM CLR 17/11 A3007 RMK AO2 SLP189 T01670106=
201108120353 METAR KSEA 120353Z 33003KT 10SM FEW040 18/12 A3007 RMK AO2 SLP187 T01830117=
201108120253 METAR KSEA 120253Z 28004KT 10SM FEW040 21/12 A3006 RMK AO2 SLP184 T02060117 56005=
201108120153 METAR KSEA 120153Z 30005KT 10SM FEW040 22/12 A3006 RMK AO2 SLP185 T02170117 $=
201108120053 METAR KSEA 120053Z 28008KT 10SM FEW040 23/11 A3007 RMK AO2 SLP185 T02280111=
201108112353 METAR KSEA 112353Z 26007KT 10SM FEW040 22/11 A3007 RMK AO2 SLP189 T02220111 10233 20161 58007=
201108112253 METAR KSEA 112253Z 00000KT 10SM FEW035 22/11 A3008 RMK AO2 SLP192 T02220111=
201108112153 METAR KSEA 112153Z 31006KT 10SM FEW035 21/11 A3009 RMK AO2 SLP195 T02110111=
201108112053 METAR KSEA 112053Z VRB06KT 10SM FEW025 BKN250 20/11 A3009 RMK AO2 SLP196 T02000106 58003=
201108111953 METAR KSEA 111953Z 29005KT 10SM FEW022 BKN250 18/11 A3010 RMK AO2 SLP198 T01830106=
201108111900 SPECI KSEA 111900Z VRB04KT 10SM SCT021 BKN250 18/11 A3011 RMK AO2=
201108111900 SPECI KSEA 111900Z VRB04KT 10SM SCT021 BKN250 18/11 A3011 RMK AO2=
201108111853 METAR KSEA 111853Z 29003KT 10SM BKN019 BKN250 17/10 A3011 RMK AO2 SLP201 BKN019 V SCT T01720100=
201108111753 METAR KSEA 111753Z 18005KT 10SM BKN018 BKN023 17/10 A3010 RMK AO2 SLP199 T01670100 10167 20122 52010=
201108111653 METAR KSEA 111653Z 21004KT 10SM BKN016 OVC021 15/10 A3009 RMK AO2 SLP195 T01500100=
201108111553 METAR KSEA 111553Z VRB03KT 10SM BKN016 OVC022 14/10 A3008 RMK AO2 SLP191 T01390100=
201108111453 METAR KSEA 111453Z 23003KT 10SM BKN016 OVC023 13/10 A3007 RMK AO2 SLP188 T01330100 53010=
201108111353 METAR KSEA 111353Z 00000KT 10SM OVC020 13/10 A3006 RMK AO2 SLP184 T01280100=
201108111253 METAR KSEA 111253Z 00000KT 10SM BKN020 13/10 A3005 RMK AO2 SLP180 T01280100=
201108111210 SPECI KSEA 111210Z 00000KT 10SM BKN022 13/10 A3004 RMK AO2=
201108111210 SPECI KSEA 111210Z 00000KT 10SM BKN022 13/10 A3004 RMK AO2=
201108111153 METAR KSEA 111153Z 24003KT 10SM BKN043 12/10 A3004 RMK AO2 SLP177 T01220100 10144 20122 53005=
201108111107 SPECI KSEA 111107Z 00000KT 10SM FEW027 BKN043 13/11 A3003 RMK AO2=
201108111107 SPECI KSEA 111107Z 00000KT 10SM FEW027 BKN043 13/11 A3003 RMK AO2=
201108111053 METAR KSEA 111053Z 00000KT 10SM BKN027 13/10 A3003 RMK AO2 SLP175 T01280100=
201108110953 METAR KSEA 110953Z 00000KT 10SM CLR 13/10 A3003 RMK AO2 SLP174 T01280100=
201108110853 METAR KSEA 110853Z 00000KT 10SM SCT036 13/10 A3003 RMK AO2 SLP173 T01280100 53002=
201108110753 METAR KSEA 110753Z 20004KT 10SM BKN036 14/10 A3003 RMK AO2 SLP173 T01390100 402170128=
201108110653 METAR KSEA 110653Z 00000KT 10SM FEW038 14/10 A3002 RMK AO2 SLP170 T01390100=
201108110553 METAR KSEA 110553Z 29005KT 10SM BKN038 14/11 A3002 RMK AO2 SLP170 T01440106 10217 20144 51010=
201108110453 METAR KSEA 110453Z 23005KT 10SM FEW050 17/11 A3001 RMK AO2 SLP167 T01670106=
201108110353 METAR KSEA 110353Z 22003KT 10SM BKN050 19/10 A3000 RMK AO2 SLP165 T01940100=
201108110253 METAR KSEA 110253Z 00000KT 10SM SCT045 20/09 A2999 RMK AO2 SLP160 T02000094 55004=
201108110153 METAR KSEA 110153Z 20004KT 10SM SCT040 21/09 A2998 RMK AO2 SLP158 T02110089=
201108110053 METAR KSEA 110053Z 17007KT 10SM SCT040 21/09 A2999 RMK AO2 SLP159 T02110094=
201108102353 METAR KSEA 102353Z 20005KT 10SM SCT039 21/09 A3000 RMK AO2 SLP164 T02060094 10217 20150 58008=
201108102253 METAR KSEA 102253Z 19007KT 10SM BKN035 21/10 A3001 RMK AO2 SLP167 T02110100=
201108102153 METAR KSEA 102153Z 24007KT 10SM FEW025 BKN034 19/10 A3002 RMK AO2 SLP171 T01940100=
201108102053 METAR KSEA 102053Z 18006KT 10SM SCT025 BKN038 20/11 A3002 RMK AO2 SLP172 T02000106 58004=
201108101953 METAR KSEA 101953Z 25005KT 10SM FEW020 BKN036 19/11 A3003 RMK AO2 SLP174 T01890106=
201108101853 METAR KSEA 101853Z 21007KT 10SM FEW020 BKN035 17/10 A3003 RMK AO2 SLP175 T01720100=
201108101753 METAR KSEA 101753Z 17005KT 10SM FEW020 OVC036 15/10 A3004 RMK AO2 SLP176 T01500100 10150 20128 51004=
201108101653 METAR KSEA 101653Z 20007KT 10SM FEW020 OVC035 14/10 A3003 RMK AO2 SLP175 T01440100=
201108101553 METAR KSEA 101553Z 23004KT 10SM FEW020 OVC036 14/11 A3003 RMK AO2 SLP175 T01390106=
201108101506 SPECI KSEA 101506Z 23003KT 10SM SCT021 BKN037 13/10 A3003 RMK AO2=
201108101506 SPECI KSEA 101506Z 23003KT 10SM SCT021 BKN037 13/10 A3003 RMK AO2=
201108101453 METAR KSEA 101453Z 21003KT 10SM BKN021 BKN037 13/10 A3002 RMK AO2 SLP172 T01330100 50002=
201108101437 SPECI KSEA 101437Z 21003KT 10SM BKN021 BKN038 BKN200 13/10 A3003 RMK AO2=
201108101437 SPECI KSEA 101437Z 21003KT 10SM BKN021 BKN038 BKN200 13/10 A3003 RMK AO2=
201108101353 METAR KSEA 101353Z 00000KT 10SM FEW040 BKN060 BKN120 13/10 A3003 RMK AO2 SLP173 T01280100=
201108101253 METAR KSEA 101253Z 26003KT 10SM OVC060 13/10 A3002 RMK AO2 SLP171 T01280100=
201108101153 METAR KSEA 101153Z 22004KT 10SM FEW036 OVC050 13/10 A3002 RMK AO2 SLP170 T01330100 10156 20133 58000=
201108101053 METAR KSEA 101053Z 19004KT 10SM OVC036 14/10 A3002 RMK AO2 SLP171 T01390100=
201108100953 METAR KSEA 100953Z 21005KT 10SM BKN032 OVC055 14/11 A3002 RMK AO2 SLP172 T01390106=
201108100853 METAR KSEA 100853Z 22003KT 10SM FEW032 OVC055 14/11 A3002 RMK AO2 SLP171 T01390111 58004=
201108100753 METAR KSEA 100753Z 24003KT 10SM BKN032 14/11 A3003 RMK AO2 SLP173 T01390111 402110128=
201108100653 METAR KSEA 100653Z 00000KT 10SM FEW043 14/11 A3003 RMK AO2 SLP174 T01390111=
201108100553 METAR KSEA 100553Z 26003KT 10SM BKN043 16/11 A3003 RMK AO2 SLP174 T01560111 10206 20156 50002=
201108100453 METAR KSEA 100453Z 28003KT 10SM BKN043 17/11 A3004 RMK AO2 SLP176 T01670111=
201108100353 METAR KSEA 100353Z 25004KT 10SM BKN043 18/11 A3003 RMK AO2 SLP174 T01780106=
201108100253 METAR KSEA 100253Z 21003KT 10SM FEW037 BKN047 BKN250 19/11 A3003 RMK AO2 SLP173 T01890106 56010=
201108100153 METAR KSEA 100153Z 20007KT 10SM FEW037 BKN047 BKN250 20/10 A3003 RMK AO2 SLP175 T02000100=
201108100053 METAR KSEA 100053Z 21005KT 10SM BKN045 BKN250 20/10 A3004 RMK AO2 SLP179 T02000100=
201108092353 METAR KSEA 092353Z 20005KT 10SM BKN043 BKN250 20/10 A3006 RMK AO2 SLP183 T02000100 10211 20167 58010=
201108092253 METAR KSEA 092253Z 20005KT 10SM BKN037 BKN250 20/10 A3007 RMK AO2 SLP188 T02000100=
201108092153 METAR KSEA 092153Z 15005KT 10SM BKN031 BKN250 20/10 A3008 RMK AO2 SLP191 T02000100=
201108092053 METAR KSEA 092053Z 21006KT 10SM SCT025 SCT037 SCT200 19/10 A3009 RMK AO2 SLP194 T01940100 58001=
201108091953 METAR KSEA 091953Z 27006KT 10SM SCT024 BKN037 BKN200 18/09 A3009 RMK AO2 SLP196 T01780094=
201108091927 SPECI KSEA 091927Z 26008KT 10SM SCT023 BKN036 18/09 A3009 RMK AO2=
201108091927 SPECI KSEA 091927Z 26008KT 10SM SCT023 BKN036 18/09 A3009 RMK AO2=
201108091853 METAR KSEA 091853Z 21007KT 180V240 10SM BKN023 BKN055 18/09 A3009 RMK AO2 SLP196 T01780094=
201108091753 METAR KSEA 091753Z 20009KT 10SM BKN019 BKN055 17/09 A3009 RMK AO2 SLP194 T01720094 10172 20128 58001=
201108091736 SPECI KSEA 091736Z 19010KT 10SM BKN017 BKN055 17/09 A3009 RMK AO2=
201108091736 SPECI KSEA 091736Z 19010KT 10SM BKN017 BKN055 17/09 A3009 RMK AO2=
201108091653 METAR KSEA 091653Z 21006KT 10SM SCT016 SCT035 BKN055 15/09 A3009 RMK AO2 SLP194 T01500094=
201108091553 METAR KSEA 091553Z 18006KT 10SM FEW011 SCT016 BKN036 14/10 A3009 RMK AO2 SLP196 T01440100=
201108091530 SPECI KSEA 091530Z 20007KT 160V230 10SM FEW011 BKN016 BKN037 15/10 A3010 RMK AO2=
201108091530 SPECI KSEA 091530Z 20007KT 160V230 10SM FEW011 BKN016 BKN037 15/10 A3010 RMK AO2=
201108091453 METAR KSEA 091453Z 25006KT 10SM FEW012 BKN036 13/10 A3009 RMK AO2 SLP195 T01330100 53006=
201108091353 METAR KSEA 091353Z 21003KT 10SM FEW036 BKN046 13/11 A3008 RMK AO2 SLP191 T01280106=
201108091253 METAR KSEA 091253Z 22005KT 10SM OVC044 13/10 A3007 RMK AO2 SLP189 T01330100=
201108091153 METAR KSEA 091153Z 21005KT 10SM BKN048 13/10 A3007 RMK AO2 SLP189 T01280100 10161 20128 51003=
201108091053 METAR KSEA 091053Z 20006KT 10SM OVC048 13/10 A3007 RMK AO2 SLP189 T01330100=
201108090953 METAR KSEA 090953Z 20007KT 10SM OVC046 14/10 A3007 RMK AO2 SLP186 T01390100=
201108090853 METAR KSEA 090853Z 20009KT 10SM OVC042 14/11 A3006 RMK AO2 SLP186 T01440106 53001=
201108090753 METAR KSEA 090753Z 20007KT 10SM OVC038 15/11 A3006 RMK AO2 SLP183 T01500106 402110122=
201108090653 METAR KSEA 090653Z 20006KT 10SM OVC034 16/11 A3006 RMK AO2 SLP183 T01560106=
201108090553 METAR KSEA 090553Z 22006KT 10SM OVC034 16/11 A3006 RMK AO2 SLP185 T01610111 10211 20161 51008=
201108090453 METAR KSEA 090453Z 23007KT 10SM BKN036 17/11 A3006 RMK AO2 SLP183 T01670111=
201108090353 METAR KSEA 090353Z 20003KT 10SM SCT030 SCT250 18/11 A3004 RMK AO2 SLP179 T01780111=
201108090253 METAR KSEA 090253Z 21004KT 10SM FEW030 SCT250 18/11 A3004 RMK AO2 SLP177 T01830111 56007=
201108090153 METAR KSEA 090153Z 16007KT 10SM FEW030 SCT250 19/11 A3004 RMK AO2 SLP179 T01940111=
201108090053 METAR KSEA 090053Z VRB06KT 10SM SCT030 SCT250 21/11 A3005 RMK AO2 SLP180 T02060111=
201108090029 SPECI KSEA 090029Z 23005KT 10SM BKN030 BKN250 20/11 A3005 RMK AO2=
201108090029 SPECI KSEA 090029Z 23005KT 10SM BKN030 BKN250 20/11 A3005 RMK AO2=
201108082353 METAR KSEA 082353Z 21006KT 10SM BKN028 BKN250 21/11 A3006 RMK AO2 SLP184 T02060111 10211 20156 58006=
201108082253 METAR KSEA 082253Z VRB05KT 10SM BKN028 21/11 A3006 RMK AO2 SLP185 T02060111=
201108082153 METAR KSEA 082153Z 19005KT 10SM BKN028 BKN035 BKN250 20/11 A3007 RMK AO2 SLP189 T02000111=
201108082053 METAR KSEA 082053Z 20008KT 10SM BKN024 BKN035 19/11 A3008 RMK AO2 SLP190 T01940111 58002=
201108082019 SPECI KSEA 082019Z VRB05KT 10SM BKN023 BKN035 19/11 A3008 RMK AO2=
201108082019 SPECI KSEA 082019Z VRB05KT 10SM BKN023 BKN035 19/11 A3008 RMK AO2=
201108081953 METAR KSEA 081953Z 19007KT 10SM SCT022 BKN035 18/11 A3008 RMK AO2 SLP192 T01830106=
201108081853 METAR KSEA 081853Z 19007KT 10SM FEW019 BKN035 18/11 A3009 RMK AO2 SLP193 T01780106=
201108081753 METAR KSEA 081753Z 19005KT 10SM FEW017 BKN035 16/10 A3008 RMK AO2 SLP192 T01610100 10161 20128 50004=
201108081713 SPECI KSEA 081713Z 20007KT 10SM FEW012 SCT024 BKN035 16/10 A3008 RMK AO2=
201108081713 SPECI KSEA 081713Z 20007KT 10SM FEW012 SCT024 BKN035 16/10 A3008 RMK AO2=
201108081653 METAR KSEA 081653Z 21008KT 10SM FEW012 BKN023 OVC035 15/10 A3008 RMK AO2 SLP193 T01500100=
201108081553 METAR KSEA 081553Z 21006KT 10SM FEW011 OVC017 14/10 A3008 RMK AO2 SLP190 T01440100=
201108081453 METAR KSEA 081453Z 20007KT 10SM FEW010 OVC017 13/10 A3007 RMK AO2 SLP188 T01330100 53008=
201108081353 METAR KSEA 081353Z 20005KT 10SM FEW010 OVC020 13/10 A3006 RMK AO2 SLP185 T01280100 $=
201108081253 METAR KSEA 081253Z 23007KT 10SM OVC020 13/10 A3005 RMK AO2 SLP181 T01280100 $=
201108081153 METAR KSEA 081153Z 21006KT 10SM BKN025 13/11 A3005 RMK AO2 SLP179 T01280106 10150 20122 53006 $=
201108081053 METAR KSEA 081053Z 20006KT 10SM FEW050 12/10 A3004 RMK AO2 SLP178 T01220100 $=
201108080953 METAR KSEA 080953Z 20003KT 10SM SCT050 13/11 A3003 RMK AO2 SLP174 T01330106 $=
201108080853 METAR KSEA 080853Z 21004KT 10SM BKN250 14/11 A3003 RMK AO2 SLP173 T01390106 50002 $=
201108080753 METAR KSEA 080753Z 20005KT 10SM BKN250 13/11 A3003 RMK AO2 SLP175 T01330111 402330133 $=
201108080653 METAR KSEA 080653Z 20005KT 10SM BKN250 15/12 A3003 RMK AO2 SLP173 T01500117 $=
201108080553 METAR KSEA 080553Z 23004KT 10SM BKN250 17/12 A3002 RMK AO2 SLP171 T01720122 10233 20172 53005 $=
201108080453 METAR KSEA 080453Z 24003KT 10SM BKN250 18/13 A3001 RMK AO2 SLP168 T01830128 $=
201108080353 METAR KSEA 080353Z 24004KT 10SM FEW080 BKN250 19/13 A3001 RMK AO2 SLP166 T01940128 $=
201108080253 METAR KSEA 080253Z 26005KT 10SM BKN250 21/13 A3001 RMK AO2 SLP165 T02060128 56005 $=
201108080153 METAR KSEA 080153Z 24007KT 10SM FEW030 BKN250 22/13 A3001 RMK AO2 SLP166 T02220128 $=
201108080053 METAR KSEA 080053Z 23007KT 10SM FEW030 BKN250 23/13 A3001 RMK AO2 SLP167 T02280128 $=
201108072353 METAR KSEA 072353Z 23007KT 10SM FEW025 BKN250 23/13 A3002 RMK AO2 SLP170 T02330128 10233 20178 58009 $=
201108072253 METAR KSEA 072253Z 26006KT 10SM FEW025 BKN250 23/13 A3003 RMK AO2 SLP174 T02280128 $=
201108072153 METAR KSEA 072153Z VRB06KT 10SM FEW025 SCT250 23/12 A3004 RMK AO2 SLP177 T02330122 $=
201108072053 METAR KSEA 072053Z VRB04KT 10SM FEW025 SCT250 22/13 A3005 RMK AO2 SLP180 T02170128 58002 $=
201108071953 METAR KSEA 071953Z VRB04KT 10SM FEW020 SCT250 21/13 A3005 RMK AO2 SLP181 T02110133 $=
201108071853 METAR KSEA 071853Z 23004KT 10SM FEW015 SCT037 SCT250 19/13 A3006=
201108071753 METAR KSEA 071753Z VRB04KT 10SM FEW010 BKN035 18/13 A3005 RMK AO2 SLP181 T01830128 10183 20139 51005 $=
201108071713 SPECI KSEA 071713Z 23004KT 10SM SCT008 BKN033 17/13 A3005 RMK AO2 $=
201108071713 SPECI KSEA 071713Z 23004KT 10SM SCT008 BKN033 17/13 A3005 RMK AO2 $=
201108071653 METAR KSEA 071653Z VRB03KT 10SM OVC008 17/13 A3005 RMK AO2 SLP181 T01670128 $=
201108071553 METAR KSEA 071553Z 00000KT 10SM OVC008 15/12 A3005 RMK AO2 SLP180 T01500122 $=
201108071453 METAR KSEA 071453Z COR 20003KT 10SM BKN OVC033 15/13 A3004 RMK AO2 SLP177 T01500128 53007 $=
201108071431 SPECI KSEA 071431Z 23003KT 10SM FEW008 OVC033 14/13 A3004 RMK AO2 $=
201108071431 SPECI KSEA 071431Z 23003KT 10SM FEW008 OVC033 14/13 A3004 RMK AO2 $=
201108071353 METAR KSEA 071353Z 00000KT 10SM BKN033 14/12 A3003 RMK AO2 SLP174 T01390122 $=
201108071253 METAR KSEA 071253Z 00000KT 10SM OVC031 14/12 A3002 RMK AO2 SLP172 T01390122 $=
201108071153 METAR KSEA 071153Z 00000KT 10SM OVC027 14/12 A3002 RMK AO2 SLP169 T01390122 10172 20139 53002 $=
201108071053 METAR KSEA 071053Z 00000KT 10SM OVC025 14/12 A3001 RMK AO2 SLP167 T01440122 $=
201108070953 METAR KSEA 070953Z 00000KT 10SM BKN025 14/12 A3001=
201108070905 SPECI KSEA 070905Z 00000KT 10SM BKN027 14/12 A3001 RMK AO2 $=
201108070905 SPECI KSEA 070905Z 00000KT 10SM BKN027 14/12 A3001 RMK AO2 $=
201108070853 METAR KSEA 070853Z 00000KT 10SM SCT027 14/12 A3001 RMK AO2 SLP167 T01440122 53001 $=
201108070753 METAR KSEA 070753Z 00000KT 10SM FEW020 16/13 A3001 RMK AO2 SLP167 T01560128 402280144 $=
201108070653 METAR KSEA 070653Z 00000KT 10SM CLR 16/13 A3001 RMK AO2 SLP167 T01610128 $=
201108070553 METAR KSEA 070553Z 00000KT 10SM CLR 17/13 A3001 RMK AO2 SLP166 T01670128 10228 20167 50000 $=
201108070453 METAR KSEA 070453Z 00000KT 10SM FEW080 18/13 A3001 RMK AO2 SLP167 T01830133 $=
201108070353 METAR KSEA 070353Z 00000KT 10SM FEW080 19/13 A3001 RMK AO2 SLP167 T01940133 $=
201108070253 METAR KSEA 070253Z 29004KT 10SM FEW040 21/13 A3001 RMK AO2 SLP166 T02110133 56007 $=
201108070153 METAR KSEA 070153Z 30004KT 10SM SCT035 22/13 A3001 RMK AO2 SLP167 T02220128 $=
201108070053 METAR KSEA 070053Z 28007KT 10SM SCT035 22/13 A3002 RMK AO2 SLP170 T02220128 $=
201108062353 METAR KSEA 062353Z VRB03KT 10SM SCT035 22/12 A3003 RMK AO2 SLP174 T02170122 10228 20178 58010=
201108062253 METAR KSEA 062253Z 26006KT 10SM FEW030 BKN040 22/13 A3005 RMK AO2 SLP179 T02220133=
201108062153 METAR KSEA 062153Z 28006KT 10SM FEW030 BKN042 22/13 A3005 RMK AO2 SLP181 T02170133=
201108062053 METAR KSEA 062053Z VRB04KT 10SM FEW022 BKN040 21/13 A3006 RMK AO2 SLP184 T02060133 58001=
201108061953 METAR KSEA 061953Z 23004KT 10SM SCT020 BKN044 19/13 A3007 RMK AO2 SLP186 T01890128=
201108061853 METAR KSEA 061853Z VRB05KT 10SM SCT015 OVC040 18/13 A3007=
201108061842 SPECI KSEA 061842Z 26006KT 10SM SCT015 OVC040 19/13 A3007 RMK AO2=
201108061842 SPECI KSEA 061842Z 26006KT 10SM SCT015 OVC040 19/13 A3007 RMK AO2=
201108061753 METAR KSEA 061753Z VRB04KT 10SM BKN015 OVC040 18/13 A3006 RMK AO2 SLP185 T01830133 10189 20144 51003=
201108061653 METAR KSEA 061653Z 00000KT 10SM FEW007 BKN013 17/13 A3006 RMK AO2 SLP184 T01670133=
201108061638 SPECI KSEA 061638Z 29004KT 10SM SCT007 OVC013 16/13 A3006 RMK AO2=
201108061638 SPECI KSEA 061638Z 29004KT 10SM SCT007 OVC013 16/13 A3006 RMK AO2=
201108061605 SPECI KSEA 061605Z 29004KT 10SM BKN007 OVC013 16/13 A3006 RMK AO2=
201108061605 SPECI KSEA 061605Z 29004KT 10SM BKN007 OVC013 16/13 A3006 RMK AO2=
201108061553 METAR KSEA 061553Z 26003KT 10SM SCT007 OVC013 16/13 A3006 RMK AO2 SLP184 T01610128=
201108061453 METAR KSEA 061453Z 29004KT 10SM SCT005 OVC013 15/13 A3005 RMK AO2 SLP183 T01500128 53005=
201108061445 SPECI KSEA 061445Z 29004KT 10SM SCT005 OVC013 15/13 A3005 RMK AO2=
201108061445 SPECI KSEA 061445Z 29004KT 10SM SCT005 OVC013 15/13 A3005 RMK AO2=
201108061353 METAR KSEA 061353Z 30003KT 10SM OVC011 15/13 A3005 RMK AO2 SLP180 T01500128=
201108061253 METAR KSEA 061253Z 00000KT 10SM OVC011 14/12 A3004 RMK AO2 SLP178 T01440122=
201108061222 SPECI KSEA 061222Z 28003KT 10SM BKN013 BKN040 14/12 A3004 RMK AO2=
201108061222 SPECI KSEA 061222Z 28003KT 10SM BKN013 BKN040 14/12 A3004 RMK AO2=
201108061153 METAR KSEA 061153Z 00000KT 10SM FEW015 BKN040 BKN060 14/12 A3004 RMK AO2 SLP178 T01440122 10178 20144 55000=
201108061053 METAR KSEA 061053Z 29003KT 10SM SCT014 BKN038 14/12 A3004 RMK AO2 SLP177 T01440122=
201108060953 METAR KSEA 060953Z 28003KT 10SM OVC036 15/12 A3004 RMK AO2 SLP177 T01500122=
201108060853 METAR KSEA 060853Z 30003KT 10SM OVC032 16/13 A3004 RMK AO2 SLP178 T01610128 56003=
201108060753 METAR KSEA 060753Z 00000KT 10SM SCT016 OVC032 17/13 A3004 RMK AO2 SLP178 T01720133 401890139=
201108060653 METAR KSEA 060653Z 22003KT 10SM OVC032 18/13 A3005 RMK AO2 SLP180 T01780133=
201108060553 METAR KSEA 060553Z 00000KT 10SM FEW015 OVC032 18/13 A3005 RMK AO2 SLP182 T01780133 10189 20178 50001=
201108060453 METAR KSEA 060453Z 00000KT 10SM FEW015 OVC030 18/13 A3005 RMK AO2 SLP181 T01830133=
201108060353 METAR KSEA 060353Z 00000KT 10SM OVC030 18/13 A3005 RMK AO2 SLP182 T01830133=
201108060253 METAR KSEA 060253Z 00000KT 10SM FEW025 BKN030 19/13 A3005 RMK AO2 SLP180 T01890133 56009=
201108060153 METAR KSEA 060153Z 24003KT 10SM FEW022 OVC030 19/13 A3005 RMK AO2 SLP183 T01890128=
201108060138 SPECI KSEA 060138Z VRB03KT 10SM SCT022 OVC030 19/13 A3006 RMK AO2=
201108060138 SPECI KSEA 060138Z VRB03KT 10SM SCT022 OVC030 19/13 A3006 RMK AO2=
201108060053 METAR KSEA 060053Z VRB03KT 10SM SCT018 OVC025 19/13 A3007 RMK AO2 SLP186 T01890128=
201108052353 METAR KSEA 052353Z 23005KT 10SM OVC019 18/13 A3007 RMK AO2 SLP189 T01830128 10189 20161 58007=
201108052253 METAR KSEA 052253Z 24004KT 10SM OVC019 18/13 A3009 RMK AO2 SLP194 T01780128=
201108052153 METAR KSEA 052153Z 23007KT 10SM OVC021 18/12 A3009 RMK AO2 SLP194 T01780122=
201108052053 METAR KSEA 052053Z 20007KT 10SM OVC016 18/12 A3010 RMK AO2 SLP196 T01780122 51002=
201108051953 METAR KSEA 051953Z 24006KT 10SM FEW013 OVC017 17/12 A3009 RMK AO2 SLP196 T01670122=
201108051853 METAR KSEA 051853Z VRB05KT 10SM SCT012 OVC016 17/12 A3009 RMK AO2 SLP196 T01670117=
201108051753 METAR KSEA 051753Z 20007KT 10SM SCT011 OVC018 17/12 A3009 RMK AO2 SLP194 60000 T01670117 10172 20139 51005=
201108051708 SPECI KSEA 051708Z 20005KT 10SM SCT009 OVC017 16/12 A3009 RMK AO2=
201108051708 SPECI KSEA 051708Z 20005KT 10SM SCT009 OVC017 16/12 A3009 RMK AO2=
201108051653 METAR KSEA 051653Z 21006KT 10SM BKN006 BKN011 17/12 A3009 RMK AO2 SLP194 T01670122=
201108051614 SPECI KSEA 051614Z 20006KT 7SM BKN005 OVC010 15/13 A3009 RMK AO2=
201108051614 SPECI KSEA 051614Z 20006KT 7SM BKN005 OVC010 15/13 A3009 RMK AO2=
201108051553 METAR KSEA 051553Z 20006KT 7SM BKN004 OVC010 15/13 A3009 RMK AO2 DZE34 SLP192 P0000 T01500133=
201108051535 SPECI KSEA 051535Z 20006KT 5SM BR BKN004 OVC009 14/13 A3008 RMK AO2 DZE34 P0000=
201108051535 SPECI KSEA 051535Z 20006KT 5SM BR BKN004 OVC009 14/13 A3008 RMK AO2 DZE34 P0000=
201108051453 METAR KSEA 051453Z 21004KT 1 1/2SM -DZ BR BKN003 OVC006 14/13 A3008 RMK AO2 SLP189 P0000 60000 T01390133 51005=
201108051448 SPECI KSEA 051448Z 22004KT 1 1/2SM -DZ BR OVC004 14/13 A3008 RMK AO2 P0000=
201108051448 SPECI KSEA 051448Z 22004KT 1 1/2SM -DZ BR OVC004 14/13 A3008 RMK AO2 P0000=
201108051353 METAR KSEA 051353Z 22003KT 1 1/2SM -DZ BR OVC005 14/13 A3006 RMK AO2 DZB22 CIG 002V007 SLP185 VIS S 1 P0000 T01390133=
201108051345 SPECI KSEA 051345Z 22004KT 1 1/2SM -DZ BR OVC005 14/13 A3006 RMK AO2 DZB22 CIG 002V009 VIS S 1 P0000=
201108051345 SPECI KSEA 051345Z 22004KT 1 1/2SM -DZ BR OVC005 14/13 A3006 RMK AO2 DZB22 CIG 002V009 VIS S 1 P0000=
201108051325 SPECI KSEA 051325Z 22003KT 2SM -DZ BR OVC005 14/13 A3006 RMK AO2 DZB22 P0000=
201108051325 SPECI KSEA 051325Z 22003KT 2SM -DZ BR OVC005 14/13 A3006 RMK AO2 DZB22 P0000=
201108051253 METAR KSEA 051253Z 20006KT 10SM OVC005 14/13 A3006 RMK AO2 SLP183 T01440128=
201108051153 METAR KSEA 051153Z 19006KT 10SM OVC005 14/13 A3006 RMK AO2 SLP183 T01440128 10183 20144 50006=
201108051053 METAR KSEA 051053Z 22007KT 10SM OVC005 14/13 A3006 RMK AO2 SLP183 T01440128=
201108050953 METAR KSEA 050953Z 22006KT 10SM BKN005 OVC007 15/13 A3005 RMK AO2 SLP179 T01500128=
201108050925 SPECI KSEA 050925Z 22008KT 10SM BKN005 OVC010 15/13 A3004 RMK AO2=
201108050925 SPECI KSEA 050925Z 22008KT 10SM BKN005 OVC010 15/13 A3004 RMK AO2=
201108050853 METAR KSEA 050853Z 20006KT 10SM FEW007 BKN014 15/13 A3004 RMK AO2 SLP177 T01500128 53007=
201108050845 SPECI KSEA 050845Z 20006KT 10SM FEW007 BKN014 15/13 A3004 RMK AO2=
201108050845 SPECI KSEA 050845Z 20006KT 10SM FEW007 BKN014 15/13 A3004 RMK AO2=
201108050753 METAR KSEA 050753Z 25005KT 10SM FEW070 16/13 A3003 RMK AO2 SLP173 T01610133 402720139=
201108050653 METAR KSEA 050653Z 26003KT 10SM OVC075 17/13 A3002 RMK AO2 SLP171 T01720128=
201108050553 METAR KSEA 050553Z 25003KT 10SM SCT080 18/13 A3002 RMK AO2 SLP170 T01830128 10272 20178 53015=
201108050453 METAR KSEA 050453Z 27003KT 10SM FEW060 SCT150 18/12 A3000 RMK AO2 SLP163 T01780122=
201108050353 METAR KSEA 050353Z 28004KT 10SM FEW050 SCT150 21/12 A2999 RMK AO2 SLP158 T02110117=
201108050253 METAR KSEA 050253Z 36007KT 10SM FEW050 SCT150 24/10 A2997 RMK AO2 SLP154 T02390100 55000=
201108050153 METAR KSEA 050153Z 35009KT 10SM FEW050 26/09 A2997 RMK AO2 SLP151 T02610089=
201108050053 METAR KSEA 050053Z 01009KT 10SM FEW050 27/09 A2997 RMK AO2 SLP153 T02670089=
201108042353 METAR KSEA 042353Z 32009KT 10SM FEW050 27/11 A2997 RMK AO2 SLP153 T02670106 10272 20206 58009=
201108042253 METAR KSEA 042253Z 30008KT 10SM FEW045 27/11 A2998 RMK AO2 SLP157 T02670111=
201108042153 METAR KSEA 042153Z 01008KT 10SM FEW045 26/12 A2999 RMK AO2 SLP159 T02610117=
201108042053 METAR KSEA 042053Z 31009KT 10SM FEW035 24/13 A3000 RMK AO2 SLP163 T02440128 58005 $=
201108041953 METAR KSEA 041953Z 29008KT 10SM FEW035 23/13 A3001 RMK AO2 SLP165 T02330128 $=
201108041853 METAR KSEA 041853Z 29007KT 10SM FEW035 22/13 A3001 RMK AO2 SLP168 T02170128 $=
201108041753 METAR KSEA 041753Z 28005KT 10SM FEW030 21/13 A3002 RMK AO2 SLP169 T02060128 10217 20139 51003 $=
201108041653 METAR KSEA 041653Z 28006KT 10SM FEW250 19/13 A3001 RMK AO2 SLP168 T01940128=
201108041553 METAR KSEA 041553Z 03003KT 10SM FEW250 19/13 A3001 RMK AO2 SLP168 T01940128=
201108041453 METAR KSEA 041453Z 05004KT 10SM FEW250 18/12 A3001 RMK AO2 SLP166 T01780122 53009 $=
201108041353 METAR KSEA 041353Z 06004KT 10SM FEW150 17/12 A3000 RMK AO2 SLP161 T01670122 $=
201108041253 METAR KSEA 041253Z 31003KT 10SM CLR 14/11 A2999 RMK AO2 SLP159 T01390111 $=
201108041153 METAR KSEA 041153Z 00000KT 10SM CLR 16/12 A2998 RMK AO2 SLP156 T01610117 10189 20161 53003 $=
201108041053 METAR KSEA 041053Z 02006KT 10SM CLR 16/12 A2997 RMK AO2 SLP153 T01610117 $=
201108040953 METAR KSEA 040953Z 02007KT 10SM CLR 17/12 A2997 RMK AO2 SLP151 T01670117 $=
201108040853 METAR KSEA 040853Z 04011KT 10SM CLR 17/12 A2997 RMK AO2 SLP153 T01720117 51006 $=
201108040753 METAR KSEA 040753Z 03009KT 10SM CLR 18/12 A2997 RMK AO2 SLP153 T01780117 402610144 $=
201108040653 METAR KSEA 040653Z 01009KT 10SM CLR 18/12 A2996 RMK AO2 SLP150 T01830117 $=
201108040553 METAR KSEA 040553Z 35008KT 10SM CLR 18/12 A2995 RMK AO2 SLP148 T01780117 10261 20172 51007 $=
201108040453 METAR KSEA 040453Z 35005KT 10SM FEW050 SCT250 18/11 A2995 RMK AO2 SLP146 T01830111 $=
201108040353 METAR KSEA 040353Z 35007KT 10SM FEW050 SCT250 20/09 A2994 RMK AO2 SLP143 T02000094 $=
201108040253 METAR KSEA 040253Z VRB05KT 10SM FEW050 SCT250 23/11 A2993 RMK AO2 SLP141 T02280111 55004 $=
201108040153 METAR KSEA 040153Z 36007KT 10SM FEW040 SCT250 25/11 A2993 RMK AO2 SLP140 T02500111 $=
201108040053 METAR KSEA 040053Z 35007KT 10SM FEW040 SCT250 26/12 A2993 RMK AO2 SLP141 T02560122 $=
201108032353 METAR KSEA 032353Z 29009KT 10SM FEW040 SCT250 26/12 A2995 RMK AO2 SLP145 T02560122 10256 20200 56015 $=
201108032253 METAR KSEA 032253Z 29007KT 10SM FEW040 SCT250 25/11 A2996 RMK AO2 SLP150 T02500106 $=
201108032153 METAR KSEA 032153Z 31008KT 10SM FEW040 24/11 A2997 RMK AO2 SLP154 T02440111 $=
201108032053 METAR KSEA 032053Z 29006KT 10SM FEW040 24/11 A2999=
201108031953 METAR KSEA 031953Z VRB05KT 10SM FEW040 23/12 A3001 RMK AO2 SLP165 T02280117 $=
201108031853 METAR KSEA 031853Z 29006KT 10SM FEW055 21/11 A3002 RMK AO2 SLP169 T02060111 $=
201108031753 METAR KSEA 031753Z 27005KT 10SM FEW055 20/12 A3002 RMK AO2 SLP170 T02000122 10206 20144 58004 $=
201108031653 METAR KSEA 031653Z 00000KT 10SM FEW055 SCT085 18/12 A3003 RMK AO2 SLP173 T01830122 $=
201108031553 METAR KSEA 031553Z 00000KT 10SM BKN055 BKN085 17/12 A3004 RMK AO2 SLP176 T01720122 $=
201108031453 METAR KSEA 031453Z 00000KT 10SM FEW055 BKN090 16/12 A3003 RMK AO2 SLP174 T01610117 53005 $=
201108031353 METAR KSEA 031353Z 00000KT 10SM BKN085 15/12 A3003 RMK AO2 SLP172 T01500117 $=
201108031253 METAR KSEA 031253Z 00000KT 10SM BKN075 15/11 A3002 RMK AO2 SLP169 T01500111 $=
201108031153 METAR KSEA 031153Z 18003KT 10SM BKN090 14/11 A3001 RMK AO2 SLP168 T01440111 10167 20144 55000 $=
201108031053 METAR KSEA 031053Z 00000KT 10SM BKN090 15/11 A3001 RMK AO2 SLP168 T01500106 $=
201108030953 METAR KSEA 030953Z COR 00000KT 10SM BKN090 16/11 A3001 RMK AO2 SLP167 T01560106 $=
201108030853 METAR KSEA 030853Z 00000KT 10SM BKN100 16/11 A3001 RMK AO2 SLP168 T01560111 50001 $=
201108030753 METAR KSEA 030753Z 00000KT 10SM BKN100 16/11 A3002 RMK AO2 SLP171 T01560106 402500128 $=
201108030653 METAR KSEA 030653Z 00000KT 10SM BKN100 16/11 A3002 RMK AO2 SLP169 T01610106 $=
201108030553 METAR KSEA 030553Z 28004KT 10SM BKN095 16/11 A3001 RMK AO2 SLP168 T01610111 10250 20161 51010 $=
201108030453 METAR KSEA 030453Z 00000KT 10SM BKN100 18/11 A3000 RMK AO2 SLP165 T01780111 $=
201108030353 METAR KSEA 030353Z 27004KT 10SM FEW060 SCT100 20/11 A2999 RMK AO2 SLP161 T02000111 $=
201108030253 METAR KSEA 030253Z 23004KT 10SM FEW060 SCT150 23/08 A2998 RMK AO2 SLP157 T02330083 56006 $=
201108030153 METAR KSEA 030153Z 00000KT 10SM FEW060 24/10 A2999 RMK AO2 SLP158 T02390100 $=
201108030053 METAR KSEA 030053Z 23007KT 10SM FEW050 SCT120 24/09 A2999 RMK AO2 SLP160 T02440094 $=
201108022353 METAR KSEA 022353Z 26004KT 10SM FEW050 SCT120 24/11 A3000 RMK AO2 SLP162 T02390106 10250 20172 56012 $=
201108022253 METAR KSEA 022253Z VRB05KT 10SM FEW050 SCT120 SCT250 24/11 A3001 RMK AO2 SLP165 T02390111 $=
201108022153 METAR KSEA 022153Z 26006KT 10SM FEW050 SCT120 23/10 A3002 RMK AO2 SLP170 T02330100 $=
201108022053 METAR KSEA 022053Z VRB04KT 10SM FEW050 SCT120 SCT180 22/10 A3003 RMK AO2 SLP174 ACSL DSNT SE T02220100 58008 $=
201108021953 METAR KSEA 021953Z 24005KT 10SM FEW050 SCT130 BKN180 21/11 A3005 RMK AO2 SLP179 ACSL DSNT SE T02110106 $=
201108021853 METAR KSEA 021853Z 18006KT 10SM FEW050 SCT130 BKN180 19/11 A3006 RMK AO2 SLP182 T01940106 $=
201108021753 METAR KSEA 021753Z 22005KT 10SM FEW050 BKN130 BKN180 18/11 A3006 RMK AO2 SLP182 T01780106 10178 20128 53003 $=
201108021653 METAR KSEA 021653Z 23006KT 10SM SCT140 BKN180 16/11 A3005 RMK AO2 SLP182 T01560106 $=
201108021553 METAR KSEA 021553Z 21009KT 10SM SCT140 BKN180 16/11 A3005 RMK AO2 SLP180 T01560106 $=
201108021453 METAR KSEA 021453Z 21009KT 10SM SCT150 BKN200 14/11 A3005 RMK AO2 SLP179 T01390106 53009 $=
201108021353 METAR KSEA 021353Z 16004KT 10SM FEW150 BKN200 13/11 A3003 RMK AO2 SLP175 T01330111 $=
201108021253 METAR KSEA 021253Z 19003KT 10SM FEW150 BKN250 13/11 A3003 RMK AO2 PK WND 21043/1253 SLP173 T01330106 $=
201108021153 METAR KSEA 021153Z 13003KT 10SM BKN250 14/11 A3002 RMK AO2 SLP170 T01390106 10183 20128 50003=
201108021053 METAR KSEA 021053Z 00000KT 10SM SCT250 14/11 A3002 RMK AO2 SLP171 T01390106=
201108020953 METAR KSEA 020953Z 00000KT 10SM CLR 14/11 A3002 RMK AO2 SLP170 T01390111=
201108020853 METAR KSEA 020853Z 00000KT 10SM CLR 15/11 A3001 RMK AO2 SLP167 T01500106 53004=
201108020753 METAR KSEA 020753Z 03006KT 10SM CLR 17/11 A3001 RMK AO2 SLP165 T01670111 402500122=
201108020653 METAR KSEA 020653Z 36004KT 10SM CLR 17/11 A3000 RMK AO2 SLP164 T01720106=
201108020553 METAR KSEA 020553Z 00000KT 10SM FEW250 18/11 A3000 RMK AO2 SLP163 T01780106 10250 20172 51005=
201108020453 METAR KSEA 020453Z 28004KT 10SM FEW250 18/10 A3000 RMK AO2 SLP163 T01830100=
201108020353 METAR KSEA 020353Z 00000KT 10SM FEW250 20/09 A2999 RMK AO2 SLP160 T02000089=
201108020253 METAR KSEA 020253Z 33005KT 10SM FEW250 23/06 A2999 RMK AO2 SLP158 T02280061 56009=
201108020153 METAR KSEA 020153Z 35007KT 10SM FEW250 24/07 A2999 RMK AO2 SLP161 T02390072=
201108020053 METAR KSEA 020053Z 35005KT 10SM FEW250 24/09 A3000 RMK AO2 SLP163 T02440094=
201108012353 METAR KSEA 012353Z 30006KT 10SM FEW250 24/09 A3001 RMK AO2 SLP167 T02390094 10244 20200 58012=
201108012253 METAR KSEA 012253Z 30008KT 10SM FEW250 23/11 A3003 RMK AO2 SLP172 T02280106=
201108012153 METAR KSEA 012153Z 30009KT 10SM FEW250 24/12 A3004 RMK AO2 SLP176 T02390117=
201108012053 METAR KSEA 012053Z 01006KT 10SM CLR 22/11 A3005 RMK AO2 SLP179 T02220106 58009=
201108011953 METAR KSEA 011953Z VRB06KT 10SM CLR 22/10 A3006 RMK AO2 SLP182 T02220100=
201108011853 METAR KSEA 011853Z 33011G16KT 10SM FEW035 21/11 A3007 RMK AO2 SLP187 T02110106=
201108011753 METAR KSEA 011753Z 35008KT 10SM FEW035 21/11 A3007 RMK AO2 SLP188 T02060106 10206 20122 56003=
201108011653 METAR KSEA 011653Z 35010KT 10SM CLR 18/10 A3008 RMK AO2 SLP189 T01830100=
201108011553 METAR KSEA 011553Z 36008KT 10SM CLR 17/09 A3008 RMK AO2 SLP191 T01670094=
201108011453 METAR KSEA 011453Z 01009KT 10SM FEW200 15/09 A3008 RMK AO2 SLP193 T01500094 51003=
201108011353 METAR KSEA 011353Z 02006KT 10SM FEW200 13/09 A3008 RMK AO2 SLP192 T01330089=
201108011253 METAR KSEA 011253Z 05003KT 10SM FEW050 13/08 A3008 RMK AO2 SLP193 T01280078=
201108011153 METAR KSEA 011153Z 03004KT 10SM CLR 13/08 A3008 RMK AO2 SLP189 T01330078 10156 20133 53003=
201108011053 METAR KSEA 011053Z 04010KT 10SM CLR 14/08 A3007 RMK AO2 SLP189 T01390078=
201108010953 METAR KSEA 010953Z 03009KT 10SM FEW040 14/08 A3006 RMK AO2 SLP186 T01390078=
201108010853 METAR KSEA 010853Z 04012KT 10SM FEW040 14/08 A3007 RMK AO2 SLP187 T01390078 50001=
201108010753 METAR KSEA 010753Z 04012KT 10SM FEW040 14/08 A3007 RMK AO2 SLP188 T01440083 402170144=
201108010653 METAR KSEA 010653Z 03013KT 10SM FEW040 15/08 A3007 RMK AO2 SLP187 T01500083=
201108010553 METAR KSEA 010553Z 03009KT 10SM SCT042 16/09 A3006 RMK AO2 SLP186 T01560089 10217 20156 53009=
201108010453 METAR KSEA 010453Z 03012KT 10SM SCT050 17/09 A3005 RMK AO2 SLP183 T01720089=
201108010353 METAR KSEA 010353Z 01012KT 10SM FEW048 18/10 A3004 RMK AO2 SLP179 T01780100=
201108010253 METAR KSEA 010253Z 36010KT 10SM FEW048 19/10 A3004 RMK AO2 SLP176 T01940100 56006=
201108010153 METAR KSEA 010153Z 35010KT 10SM FEW048 21/10 A3004 RMK AO2 SLP178 T02110100=
201108010053 METAR KSEA 010053Z 36007KT 10SM SCT048 22/12 A3005 RMK AO2 SLP179 T02170122=

# No short TAF reports from KSEA in databse.

###################################
#  large TAF from KSEA
###################################
201108312320 TAF KSEA 312320Z 0100/0206 28007KT P6SM SCT045 FM010400 19003KT
                       P6SM SCT250 FM011400 18003KT P6SM BKN015
                       FM011800 24006KT P6SM SCT020 SCT200 FM012000
                       25006KT P6SM BKN200 FM012300 30006KT P6SM
                       SCT120 BKN200 FM020400 24006KT P6SM SCT045
                       BKN120=
201108312009 KSEA 312009Z 3120/0124 24006KT P6SM SCT030 SCT045 FM312300 28007KT
                       P6SM SCT045 FM010400 19003KT P6SM SCT250
                       FM011400 18003KT P6SM BKN015 FM011800 24006KT
                       P6SM SCT020 SCT200 FM012000 25006KT P6SM
                       BKN200 FM012300 30006KT P6SM BKN200=
201108311731 TAF KSEA 311731Z 3118/0124 22006KT P6SM BKN020 OVC040
                      TEMPO 3119/3121 SCT020 BKN040 FM312100 24006KT
                       P6SM SCT030 BKN045 FM312300 28007KT P6SM
                       SCT045 FM010400 19003KT P6SM SCT250 FM011400
                       18003KT P6SM BKN015 FM011800 24006KT P6SM
                       SCT020 SCT200 FM012000 25006KT P6SM BKN200
                       FM012300 30006KT P6SM BKN200=
201108311505 KSEA 311505Z 3115/0118 19006KT P6SM BKN015 OVC025
                      TEMPO 3115/3118 SCT015 BKN025 FM311800 22006KT
                       P6SM BKN025 BKN050 FM312100 24006KT P6SM
                       SCT030 BKN045 FM312300 28007KT P6SM SCT045
                       FM010400 19003KT P6SM SCT250 FM011400 18003KT
                       P6SM BKN015=
201108311303 KSEA 311303Z 3113/0118 21006KT P6SM BKN015 OVC040 FM311800 22006KT
                       P6SM BKN025 OVC050 FM312100 24006KT P6SM
                       SCT030 BKN045 FM312300 28007KT P6SM SCT045
                       FM010400 19003KT P6SM SCT250 FM011400 18003KT
                       P6SM BKN015=
201108311120 TAF KSEA 311120Z 3112/0118 17005KT P6SM OVC045 FM311400 20006KT
                       P6SM OVC022 FM311800 22006KT P6SM BKN025
                       FM312100 24006KT P6SM SCT030 BKN045 FM312300
                       28007KT P6SM SCT045 FM010400 19003KT P6SM
                       SCT250 FM011400 18003KT P6SM BKN015=
201108310900 KSEA 310900Z 3109/0112 20004KT P6SM SCT060 BKN080 FM311000 20005KT
                       P6SM OVC020 FM311800 22006KT P6SM BKN023
                       FM312100 24006KT P6SM SCT030 BKN040 FM312300
                       28007KT P6SM SCT040 FM010600 19003KT P6SM
                       SCT250=
201108310530 TAF KSEA 310530Z 3106/0112 24007KT P6SM SCT070 FM311000 20005KT
                       P6SM OVC020 FM311800 22006KT P6SM BKN023
                       FM312100 24006KT P6SM SCT030 BKN040 FM312300
                       28007KT P6SM SCT040 FM010600 19003KT P6SM
                       SCT250=
201108310300 KSEA 310300Z 3103/0106 25004KT P6SM BKN070 FM310900 20005KT P6SM
                       OVC020 FM311800 22006KT P6SM OVC030 FM312100
                       24006KT P6SM BKN035 FM312300 27007KT P6SM
                       SCT040=
201108302321 TAF KSEA 302321Z 3100/0106 24008KT P6SM SCT025 BKN045 FM310900
                       20005KT P6SM OVC020 FM311800 22006KT P6SM
                       OVC030 FM312100 24006KT P6SM BKN035 FM312300
                       27007KT P6SM SCT040=
201108302105 KSEA 302105Z 3021/3124 27005KT P6SM SCT020 BKN045 FM310000 24006KT
                       P6SM SCT035
                      TEMPO 3100/3104 BKN035 FM310900 20005KT P6SM
                       OVC020 FM311800 22006KT P6SM OVC030 FM312100
                       24006KT P6SM BKN035=
201108301729 TAF KSEA 301729Z 3018/3124 20006KT P6SM SCT015 OVC025
                      TEMPO 3018/3020 5SM -DZ BR BKN009 OVC025
                       FM302200 24005KT P6SM BKN030 FM310000 24006KT
                       P6SM SCT035
                      TEMPO 3100/3104 BKN035 FM310900 20005KT P6SM
                       OVC020 FM311800 22006KT P6SM OVC030 FM312100
                       24006KT P6SM BKN035=
201108301609 KSEA 301609Z 3016/3118 18005KT P6SM SCT008 OVC015
                      TEMPO 3016/3017 4SM -DZ BR BKN008 OVC015
                       FM301800 20006KT P6SM SCT015 OVC025 FM302200
                       24005KT P6SM BKN030 FM310000 VRB05KT P6SM
                       SCT030 FM310900 08005KT P6SM OVC020=
201108301415 KSEA 301415Z 3014/3118 18005KT P6SM SCT008 OVC015
                      TEMPO 3014/3017 4SM BR BKN008 OVC015 FM301800
                       20006KT P6SM SCT015 OVC025 FM302200 24005KT
                       P6SM BKN030 FM310000 VRB05KT P6SM SCT030
                       FM310900 08005KT P6SM OVC020=
201108301305 KSEA 301305Z 3013/3118 VRB03KT P6SM SCT015 OVC027
                      TEMPO 3013/3017 BKN015 OVC027 FM302200 24005KT
                       P6SM BKN030 FM310000 VRB05KT P6SM SCT030
                       FM310900 08005KT P6SM OVC020=
201108301124 TAF KSEA 301124Z 3012/3118 16003KT P6SM OVC025 FM301300 20005KT
                       P6SM OVC018
                      TEMPO 3013/3017 4SM -DZ BR OVC010 FM302200
                       24005KT P6SM BKN025 FM310000 VRB05KT P6SM
                       SCT030 FM310900 08005KT P6SM OVC020=
201108300900 KSEA 300900Z 3009/3112 25004KT P6SM OVC019 FM301200 20005KT P6SM
                       OVC015
                      TEMPO 3012/3016 4SM -DZ BR OVC008 FM302200
                       24005KT P6SM BKN025 FM310000 VRB05KT P6SM
                       SCT030 FM310900 08005KT P6SM OVC015=
201108300540 TAF KSEA 300540Z 3006/3112 24006KT P6SM OVC045 FM301000 20005KT
                       P6SM OVC022 FM301200 20005KT P6SM OVC015
                       TEMPO 3012/3016 4SM -DZ BR OVC008 FM302200
                       24005KT P6SM BKN025 FM310000 VRB05KT P6SM
                       SCT030 FM310900 08005KT P6SM OVC015=
201108300300 KSEA 300300Z 3003/3106 00000KT P6SM SCT035 SCT250 FM300800 20006KT
                       P6SM BKN020 FM301000 20006KT P6SM OVC020
                       FM301800 22006KT P6SM BKN020 FM302200 24007KT
                       P6SM BKN025 FM310000 24007KT P6SM SCT030=
201108292323 TAF KSEA 292323Z 3000/3106 23006KT P6SM SCT030 SCT100 SCT200 FM300800
                       20006KT P6SM BKN020 FM301000 20006KT P6SM
                       OVC020 FM301800 22006KT P6SM BKN020 FM302200
                       24007KT P6SM BKN025 FM310000 24007KT P6SM
                       SCT030=
201108292059 KSEA 292059Z 2921/3024 23008KT P6SM BKN025
                      TEMPO 2921/2923 SCT025 FM292300 23006KT P6SM
                       SCT030 SCT200 FM300800 20006KT P6SM OVC015
                       FM301800 22006KT P6SM BKN020 FM302200 24007KT
                       P6SM BKN025=
201108291739 TAF KSEA 291739Z 2918/3024 20006KT P6SM OVC016 FM292000 22008KT
                       P6SM BKN016
                      TEMPO 2920/2921 SCT018 FM292100 24007KT P6SM
                       SCT020 BKN200 FM300000 23006KT P6SM BKN200
                       FM300800 20006KT P6SM OVC015 FM301800 22006KT
                       P6SM BKN020 FM302200 24007KT P6SM BKN025=
201108291459 KSEA 291459Z 2915/3018 20008KT P6SM SCT010 OVC014
                      TEMPO 2915/2918 BKN010 OVC014 FM291800 20006KT
                       P6SM OVC015 FM292000 22008KT P6SM BKN016
                       FM292200 24007KT P6SM SCT020 BKN200 FM300000
                       23006KT P6SM BKN200 FM300800 20004KT P6SM
                       OVC015=
201108291120 TAF KSEA 291120Z 2912/3018 20008KT P6SM SCT005 BKN008 OVC010
                      TEMPO 2912/2916 4SM BR BKN005 OVC008 FM291800
                       20006KT P6SM BKN010 FM292000 24006KT P6SM
                       SCT020 BKN200 FM292200 23006KT P6SM BKN200
                       FM300800 20004KT P6SM OVC015=
201108290902 TAF AMD KSEA 290902Z 2909/3012 20006KT P6SM FEW005 SCT200
                      TEMPO 2909/2911 5SM BR BKN005 FM291100 20005KT
                       4SM BR OVC005 FM291800 20006KT P6SM BKN010
                       FM292000 24006KT P6SM SCT020 BKN200 FM292200
                       23006KT P6SM BKN200 FM300800 20004KT P6SM
                       OVC015=
201108290520 TAF KSEA 290520Z 2906/3012 18004KT P6SM SCT200 FM291300 20005KT
                       4SM BR OVC005 FM291800 20006KT P6SM BKN010
                       FM292000 24006KT P6SM SCT020 BKN200 FM292200
                       23006KT P6SM BKN200 FM300800 20004KT P6SM
                       OVC015=
201108290301 KSEA 290301Z 2903/3006 VRB03KT P6SM BKN140 FM291300 20005KT 4SM
                       BR OVC005 FM291800 20006KT P6SM BKN010 FM292000
                       24006KT P6SM SCT020 FM300200 23006KT P6SM
                       SCT200=
201108282325 TAF KSEA 282325Z 2900/3006 31006KT P6SM SCT200 FM290300 21005KT
                       P6SM SCT200 FM291300 20005KT 4SM BR OVC005
                       FM291800 20006KT P6SM BKN010 FM292000 24006KT
                       P6SM SCT020 FM300200 23006KT P6SM SCT200=
201108282106 KSEA 282106Z 2821/2924 31006KT P6SM SKC FM290300 21005KT P6SM SKC
                       FM291300 20005KT 4SM BR OVC005 FM291800
                       20006KT P6SM BKN010 FM292000 20006KT P6SM
                       SCT020=
201108281755 TAF KSEA 281755Z 2818/2924 31006KT P6SM SKC FM290300 21005KT P6SM
                       SKC FM291300 20005KT 4SM BR OVC005 FM291800
                       20006KT P6SM BKN010 FM292000 20006KT P6SM
                       SCT020=
201108281502 KSEA 281502Z 2815/2918 VRB03KT P6SM VCFG SCT120 FM281700 31006KT
                       P6SM SCT200 FM290300 21005KT P6SM SCT200
                       FM291300 20005KT 4SM BR OVC005=
201108281121 TAF KSEA 281121Z 2812/2918 02004KT P6SM SKC FM282000 30006KT P6SM
                       SCT200 FM290400 21005KT P6SM SCT200 FM291300
                       20005KT 4SM BR OVC005=
201108280901 KSEA 280901Z 2809/2912 01005KT P6SM SKC FM281000 VRB03KT P6SM SKC
                       FM282000 30006KT P6SM SCT200 FM290400 21005KT
                       P6SM SCT200=
201108280529 TAF KSEA 280529Z 2806/2912 03008KT P6SM SKC FM281000 VRB03KT P6SM
                       SKC FM282000 30006KT P6SM SCT200 FM290400
                       21005KT P6SM SCT200=
201108280302 KSEA 280302Z 2803/2906 36007KT P6SM SKC FM281000 VRB03KT P6SM SKC
                       FM282000 30006KT P6SM SCT200 FM290200 23008KT
                       P6SM SCT120 SCT200=
201108272320 TAF KSEA 272320Z 2800/2906 01010KT P6SM SKC FM280300 01007KT P6SM
                       SKC FM281000 VRB03KT P6SM SKC FM282000 30006KT
                       P6SM SCT200 FM290200 23008KT P6SM SCT120
                       SCT200=
201108272108 KSEA 272108Z 2721/2824 30008KT P6SM SKC FM280300 01007KT P6SM SCT250
                       FM281000 VRB03KT P6SM SCT250 FM282000 30006KT
                       P6SM SCT250=
201108271725 TAF KSEA 271725Z 2718/2824 VRB03KT P6SM SCT250 FM272100 31008KT
                       P6SM SCT250 FM280300 01007KT P6SM SCT250
                       FM281000 VRB03KT P6SM SCT250 FM282000 30006KT
                       P6SM SCT250=
201108271502 KSEA 271502Z 2715/2818 00000KT P6SM SKC FM272100 31008KT P6SM FEW250
                       FM280300 01007KT P6SM FEW250 FM281000 VRB03KT
                       P6SM FEW250=
201108271120 TAF KSEA 271120Z 2712/2818 00000KT P6SM FEW250 FM272100 31008KT
                       P6SM FEW250 FM280300 01007KT P6SM FEW250
                       FM281000 VRB03KT P6SM FEW250=
201108270900 KSEA 270900Z 2709/2812 02005KT P6SM SKC FM271000 VRB03KT P6SM SKC
                       FM272100 31008KT P6SM SKC FM280300 01007KT
                       P6SM SKC FM281000 VRB03KT P6SM SKC=
201108270529 TAF KSEA 270529Z 2706/2812 02006KT P6SM SKC FM271000 VRB03KT P6SM
                       SKC FM272100 31008KT P6SM SKC FM280300 01007KT
                       P6SM SKC FM281000 VRB03KT P6SM SKC=
201108270301 KSEA 270301Z 2703/2806 35005KT P6SM SKC FM270600 04006KT P6SM SKC
                       FM271000 VRB03KT P6SM SKC FM272100 31008KT
                       P6SM SKC FM280300 01007KT P6SM SKC=
201108262325 TAF KSEA 262325Z 2700/2806 33008KT P6SM SKC FM270300 01007KT P6SM
                       SKC FM270600 04006KT P6SM SKC FM271000 VRB03KT
                       P6SM SKC FM272100 31008KT P6SM SKC FM280300
                       01007KT P6SM SKC=
201108262107 KSEA 262107Z 2621/2724 35011KT P6SM SKC FM270300 01008KT P6SM SKC
                       FM270600 04006KT P6SM SKC FM272100 31008KT
                       P6SM SKC=
201108261730 TAF KSEA 261730Z 2618/2724 29003KT P6SM SKC FM262100 31011KT P6SM
                       SKC FM270000 34009KT P6SM SKC FM270300 01008KT
                       P6SM SKC FM270600 04006KT P6SM SKC FM272100
                       31008KT P6SM SKC=
201108261500 KSEA 261500Z 2615/2718 20003KT P6SM SKC FM262100 31007KT P6SM SKC
                       FM270000 34008KT P6SM SKC FM270600 01005KT
                       P6SM SKC=
201108261120 TAF KSEA 261120Z 2612/2718 03004KT P6SM SKC FM262100 31007KT P6SM
                       SKC FM270000 34008KT P6SM SKC FM270600 01005KT
                       P6SM SKC=
201108260900 KSEA 260900Z 2609/2712 02009KT P6SM SKC FM262100 31007KT P6SM SKC
                       FM270000 34008KT P6SM SKC FM270600 01005KT
                       P6SM SCT250=
201108260526 TAF KSEA 260526Z 2606/2712 01005KT P6SM SKC FM262100 31007KT P6SM
                       SKC FM270000 34008KT P6SM SKC FM270600 01005KT
                       P6SM SCT250=
201108260301 KSEA 260301Z 2603/2706 35007KT P6SM FEW250 FM260500 02004KT P6SM
                       SKC FM261600 33006KT P6SM SKC=
201108252326 TAF KSEA 252326Z 2600/2706 31007KT P6SM SKC FM260500 02004KT P6SM
                       SKC FM261600 33006KT P6SM SKC=
201108252103 KSEA 252103Z 2521/2624 33007KT P6SM SKC FM252300 36009KT P6SM SKC
                       FM260500 02004KT P6SM SKC FM261600 33006KT
                       P6SM SKC=
201108251720 TAF KSEA 251720Z 2518/2624 33007KT P6SM SKC FM252300 36009KT P6SM
                       SKC FM260500 02004KT P6SM SKC FM261600 33006KT
                       P6SM SKC=
201108251503 KSEA 251503Z 2515/2618 01007KT P6SM FEW120 FM251800 32007KT P6SM
                       SKC FM252300 36008KT P6SM SKC FM260500 02004KT
                       P6SM SKC=
201108251120 TAF KSEA 251120Z 2512/2618 00000KT P6SM SKC FM251800 30005KT P6SM
                       SKC FM252300 36008KT P6SM SKC FM260500 02004KT
                       P6SM SKC=
201108250901 TAF AMD KSEA 250901Z 2509/2612 01004KT P6SM SCT250 FM251800 30005KT
                       P6SM SKC FM252300 36008KT P6SM SKC FM260500
                       02004KT P6SM SKC=
201108250522 TAF KSEA 250522Z 2506/2612 35007KT P6SM FEW120 SCT200 FM250800
                       02004KT P6SM FEW250 FM251800 30005KT P6SM
                       SKC FM252300 36008KT P6SM SKC FM260500 02004KT
                       P6SM SKC=
201108250300 KSEA 250300Z 2503/2606 01008KT P6SM SCT120 BKN200 FM250700 01004KT
                       P6SM SCT120 FM251800 30005KT P6SM SKC=
201108242320 TAF KSEA 242320Z 2500/2606 32006KT P6SM SCT050 BKN150 FM250700
                       01004KT P6SM SCT120 FM251800 30005KT P6SM
                       SKC=
201108242103 KSEA 242103Z 2421/2524 32006KT P6SM FEW045 SCT150 FM250400 35006KT
                       P6SM SCT045 SCT120 FM250800 01004KT P6SM
                       SCT120 FM251800 30005KT P6SM SKC=
201108241733 TAF KSEA 241733Z 2418/2524 32004KT P6SM SCT250 FM242100 35006KT
                       P6SM FEW070 SCT150 FM250600 01004KT P6SM
                       SCT120 FM251800 30005KT P6SM SKC=
201108241502 KSEA 241502Z 2415/2518 00000KT P6SM SCT070 FM241700 32004KT P6SM
                       SCT070 FM242000 35006KT P6SM FEW070 SCT150
                       FM251100 VRB03KT P6SM SCT025=
201108241122 TAF KSEA 241122Z 2412/2518 00000KT P6SM FEW040
                      TEMPO 2413/2416 BKN030 FM241700 VRB04KT P6SM
                       SCT050 FM242000 35006KT P6SM FEW060 SCT120
                       FM251100 VRB03KT P6SM SCT025=
201108240903 KSEA 240903Z 2409/2512 00000KT P6SM FEW030
                      TEMPO 2411/2415 BKN025 FM241700 VRB04KT P6SM
                       FEW030 FM242000 35006KT P6SM FEW060 SCT120
                       FM251100 VRB03KT P6SM SCT025=
201108240522 TAF KSEA 240522Z 2406/2512 31004KT P6SM SKC FM240900 VRB03KT P6SM
                       SCT025
                      TEMPO 2410/2414 BKN020 FM241800 33004KT P6SM
                       FEW030 FM242100 35006KT P6SM FEW060 SCT120
                       FM251000 VRB03KT P6SM SCT025=
201108240304 KSEA 240304Z 2403/2506 21003KT P6SM FEW035 FM240500 VRB03KT P6SM
                       SKC FM240900 VRB03KT P6SM SCT025
                      TEMPO 2410/2414 BKN020 FM241800 33004KT P6SM
                       FEW030 FM242100 34005KT P6SM FEW060 SCT120=
201108232321 TAF KSEA 232321Z 2400/2506 25007KT P6SM SCT035 FM240400 VRB03KT
                       P6SM SKC FM240900 VRB03KT P6SM SCT025
                      TEMPO 2410/2414 BKN020 FM241800 33004KT P6SM
                       FEW030 FM242100 34005KT P6SM FEW060 SCT120=
201108232103 KSEA 232103Z 2321/2424 25007KT P6SM SCT030 FM240400 VRB03KT P6SM
                       SKC FM240900 VRB03KT P6SM BKN025 FM241600
                       33004KT P6SM FEW040=
201108231722 TAF KSEA 231722Z 2318/2424 25004KT P6SM SCT007 BKN050 FM231900
                       24007KT P6SM BKN050 FM240000 26006KT P6SM
                       SCT060 FM240400 VRB03KT P6SM SKC FM240900
                       VRB03KT P6SM BKN025 FM241600 33004KT P6SM
                       FEW040=
201108231510 KSEA 231510Z 2315/2418 21005KT P6SM SCT007 SCT011 BKN040
                      TEMPO 2315/2317 BKN005 FM231700 22007KT P6SM
                       SCT016 BKN040 FM232200 24007KT P6SM BKN040
                       FM240000 26006KT P6SM SCT060 FM240400 VRB03KT
                       P6SM SKC=
201108231502 KSEA 231502Z 2315/2418 21005KT P6SM SCT007 SCT011 BKN040 FM231700
                       22007KT P6SM SCT016 BKN040 FM232200 24007KT
                       P6SM BKN040 FM240000 26006KT P6SM SCT060
                       FM240400 VRB03KT P6SM SKC=
201108231334 KSEA 231334Z 2314/2418 19008KT P6SM SCT004 SCT011 BKN070
                      TEMPO 2314/2317 SCT004 BKN011 BKN070 FM231700
                       23008KT P6SM SCT008 BKN015 OVC030 FM232000
                       22005KT P6SM SCT016 BKN035 FM232200 24006KT
                       P6SM BKN040 FM240000 26006KT P6SM SCT035
                       SCT060 FM240400 VRB03KT P6SM SKC=
201108231121 TAF KSEA 231121Z 2312/2418 21010KT P6SM SCT005 SCT014 OVC040
                      TEMPO 2312/2316 5SM -DZ BR BKN005 OVC014
                       FM231600 23008KT P6SM SCT008 BKN015 OVC025
                       TEMPO 2316/2319 5SM BR BKN008 OVC015 FM232000
                       22005KT P6SM SCT016 BKN025 FM232200 24006KT
                       P6SM BKN030 FM240000 26006KT P6SM SCT035
                       SCT060 FM240400 VRB03KT P6SM SKC=
201108230812 KSEA 230812Z 2308/2412 21010KT P6SM SCT006 BKN014 OVC025
                      TEMPO 2308/2312 5SM -DZ BR OVC006 FM231200
                       21010KT P6SM SCT006 BKN014 OVC025
                      TEMPO 2312/2316 5SM -DZ BR OVC006 FM231600
                       23008KT P6SM BKN015 OVC025 FM232000 22005KT
                       P6SM SCT016 BKN025 FM232200 24006KT P6SM
                       BKN030 FM240000 26006KT P6SM SCT035 SCT060=
201108230520 TAF KSEA 230520Z 2306/2412 20006KT 3SM BR OVC004
                      TEMPO 2306/2309 5SM -RA BR OVC007 FM230900
                       19004KT 3SM BR VCSH OVC004
                      TEMPO 2309/2312 1SM BR OVC002 FM231200 19004KT
                       1SM BR OVC002
                      TEMPO 2312/2316 4SM BR OVC007 FM231600 20004KT
                       3SM BR OVC007 FM231800 22005KT 5SM BR OVC012
                       FM232000 22005KT P6SM SCT016 BKN025 FM232200
                       24006KT P6SM BKN030 FM240000 26006KT P6SM
                       SCT035 SCT060=
201108230259 KSEA 230259Z 2303/2406 20008KT 5SM -RA BR SCT014 BKN035 OVC060
                       TEMPO 2303/2306 2SM -RA BR BKN009 OVC025
                       FM230600 20006KT P6SM VCSH FEW015 OVC030
                       FM230800 19004KT P6SM BKN010 OVC020
                      TEMPO 2312/2316 4SM BR OVC007 FM231900 22005KT
                       P6SM SCT016 BKN025 FM232100 23006KT P6SM
                       BKN030=
201108230202 KSEA 230202Z 2302/2406 20008KT P6SM -RA SCT014 BKN035 OVC060
                      TEMPO 2302/2306 5SM -RA BR BKN014 OVC025
                       FM230600 20006KT P6SM VCSH FEW015 OVC030
                       FM230800 19004KT P6SM BKN010 OVC020
                      TEMPO 2312/2316 4SM BR OVC007 FM231900 22005KT
                       P6SM SCT016 BKN025 FM232100 23006KT P6SM
                       BKN030=
201108222339 TAF KSEA 222339Z 2300/2406 20010KT P6SM -RA SCT035 BKN050 OVC070
                       TEMPO 2300/2304 BKN030 FM230400 20008KT
                       P6SM VCSH FEW015 OVC030 FM230800 19003KT
                       P6SM BKN010 OVC020
                      TEMPO 2312/2316 4SM BR OVC007 FM231900 22005KT
                       P6SM SCT016 BKN025 FM232100 23006KT P6SM
                       BKN030=
201108222103 KSEA 222103Z 2221/2324 21013G20KT P6SM SCT025 BKN045 OVC070
                      TEMPO 2221/2224 -RA BKN040 FM230000 22010KT
                       P6SM -RA BKN030 OVC040 FM230600 20006KT
                       P6SM VCSH OVC020 FM230900 19003KT P6SM SCT010
                       OVC014
                      TEMPO 2312/2316 4SM BR OVC007 FM231900 22005KT
                       P6SM SCT020 BKN030=
201108221733 TAF KSEA 221733Z 2218/2324 20013G20KT P6SM SCT013 BKN035 BKN150
                       TEMPO 2221/2224 -RA BKN020 OVC035 FM230000
                       22010KT P6SM -RA BKN020 OVC035 FM230600
                       20006KT P6SM VCSH OVC020 FM230900 19003KT
                       P6SM SCT010 OVC014
                      TEMPO 2312/2316 4SM BR OVC007 FM231900 22005KT
                       P6SM SCT020 BKN030=
201108221504 KSEA 221504Z 2215/2318 20010KT P6SM BKN011 BKN070 BKN150 FM221800
                       22013KT P6SM SCT020 BKN045 OVC090
                      TEMPO 2220/2224 -RA BKN020 OVC045 FM230000
                       22010KT P6SM -RA BKN020 OVC045 FM230600
                       20006KT P6SM VCSH OVC025=
201108221120 TAF KSEA 221120Z 2212/2318 20007KT P6SM OVC009
                      TEMPO 2212/2215 SCT009 OVC120 FM221500 20010KT
                       P6SM BKN011 BKN070 OVC130 FM221800 22013KT
                       P6SM SCT020 BKN045 OVC090
                      TEMPO 2220/2224 -RA BKN020 OVC045 FM230000
                       22010KT P6SM -RA BKN020 OVC045 FM230600
                       20006KT P6SM VCSH OVC025=
201108220833 KSEA 220833Z 2209/2312 20007KT P6SM BKN120 FM221000 20007KT P6SM
                       SCT008 BKN120
                      TEMPO 2210/2212 BKN008 BKN120 FM221200 20007KT
                       P6SM OVC008
                      TEMPO 2212/2215 SCT008 OVC120 FM221500 20009KT
                       P6SM BKN012 BKN070 OVC130 FM221800 22013KT
                       P6SM SCT025 BKN070 OVC110
                      TEMPO 2220/2224 -RA FM230000 22010KT P6SM
                       -RA BKN025 OVC050 FM230600 20006KT P6SM
                       OVC025=
201108220521 TAF KSEA 220521Z 2206/2312 20006KT P6SM SCT130 BKN200 FM220900
                       20007KT P6SM BKN120 FM221200 20007KT P6SM
                       SCT015 OVC120
                      TEMPO 2212/2215 BKN015 OVC120 FM221500 20009KT
                       P6SM BKN020 BKN070 OVC130 FM221800 22013KT
                       P6SM SCT028 BKN070 OVC110
                      TEMPO 2220/2224 -RA FM230000 22010KT P6SM
                       -RA BKN025 OVC050 FM230600 20006KT P6SM
                       OVC025=
201108220302 KSEA 220302Z 2203/2306 24006KT P6SM SCT130 BKN200 FM220900 19007KT
                       P6SM BKN130 FM221200 19007KT P6SM SCT015
                       OVC130
                      TEMPO 2212/2215 BKN015 OVC130 FM221500 19009KT
                       P6SM BKN020 BKN070 OVC130 FM221800 22013KT
                       P6SM SCT028 BKN070 OVC110
                      TEMPO 2220/2224 -RA FM230000 22010KT P6SM
                       -RA BKN025 OVC050=
201108212333 TAF KSEA 212333Z 2200/2306 24006KT P6SM SCT130 OVC200 FM220900
                       19007KT P6SM OVC130 FM221200 19007KT P6SM
                       SCT015 OVC130
                      TEMPO 2212/2215 BKN015 OVC130 FM221500 19009KT
                       P6SM BKN020 BKN070 OVC130 FM221800 22013KT
                       P6SM SCT028 BKN070 OVC110
                      TEMPO 2220/2224 -RA FM230000 22010KT P6SM
                       -RA BKN025 OVC050=
201108212105 TAF AMD KSEA 212105Z 2121/2224 25007KT P6SM BKN200 FM220300 22007KT
                       P6SM SCT130 OVC200 FM220900 19007KT P6SM
                       OVC150 FM221200 19007KT P6SM SCT015 OVC150
                       TEMPO 2212/2215 BKN015 OVC150 FM221500 19009KT
                       P6SM BKN020 BKN070 OVC130 FM221800 22013KT
                       P6SM SCT028 BKN070 OVC110
                      PROB30 2221/2224 -RA=
201108211740 TAF KSEA 211740Z 2118/2224 VRB03KT P6SM BKN200 FM212000 25007KT
                       P6SM BKN200 FM220300 22007KT P6SM SCT130
                       OVC200 FM220900 19007KT P6SM OVC150 FM221200
                       19007KT P6SM SCT015 OVC150
                      TEMPO 2212/2215 BKN015 OVC150 FM221500 19009KT
                       P6SM BKN020 BKN070 OVC130 FM221800 22013KT
                       P6SM SCT028 BKN070 OVC110
                      PROB30 2221/2224 -RA=
201108211514 KSEA 211514Z 2115/2218 VRB03KT P6SM BKN250 FM211700 24007KT P6SM
                       BKN200 FM220300 22006KT P6SM SCT120 BKN200
                       FM220900 20006KT P6SM SCT070 BKN120 FM221500
                       20008KT P6SM SCT045 BKN070=
201108211120 TAF KSEA 211120Z 2112/2218 VRB03KT P6SM SCT250 FM211700 24007KT
                       P6SM BKN200 FM220300 22006KT P6SM SCT120
                       BKN200 FM220900 20006KT P6SM SCT070 BKN120
                       FM221500 20008KT P6SM SCT045 BKN070=
201108210901 KSEA 210901Z 2109/2212 VRB03KT P6SM FEW250 FM211400 21005KT P6SM
                       VCFG SCT250 FM211700 24007KT P6SM SCT200
                       FM220300 22006KT P6SM SCT120 BKN200 FM220900
                       20006KT P6SM SCT070 BKN120=
201108210523 TAF KSEA 210523Z 2106/2212 02004KT P6SM SKC FM211100 VRB03KT P6SM
                       FEW250 FM211400 21005KT P6SM VCFG SCT250
                       FM211700 24007KT P6SM SCT200 FM220300 22006KT
                       P6SM SCT120 BKN200 FM220900 20006KT P6SM
                       SCT070 BKN120=
201108210304 KSEA 210304Z 2103/2206 36007KT P6SM SKC FM210600 02004KT P6SM SKC
                       FM211100 VRB03KT P6SM FEW250 FM211400 21005KT
                       P6SM VCFG SCT250 FM211700 24007KT P6SM SCT200
                       FM220300 22006KT P6SM BKN200=
201108202324 TAF KSEA 202324Z 2100/2206 32007KT P6SM SKC FM210600 01004KT P6SM
                       SKC FM211100 VRB03KT P6SM VCFG FEW200 FM211300
                       21005KT 6SM BR HZ SCT002 SCT200
                      TEMPO 2113/2116 3/4SM BR VV001 FM211800 25007KT
                       P6SM SCT200=
201108202101 KSEA 202101Z 2021/2124 33012KT P6SM SKC FM210600 01004KT P6SM SKC
                       FM211100 VRB03KT P6SM VCFG FEW200 FM211300
                       21005KT 6SM BR HZ SCT002 SCT200
                      TEMPO 2113/2116 3/4SM BR VV001 FM211800 24007KT
                       P6SM SCT200=
201108201741 TAF KSEA 201741Z 2018/2124 36010KT P6SM SKC FM202000 33012KT P6SM
                       SKC FM210600 01004KT P6SM SKC FM211100 VRB03KT
                       P6SM VCFG FEW200 FM211300 21005KT 6SM BR
                       HZ SCT002 SCT200
                      TEMPO 2113/2116 3/4SM BR VV001 FM211800 24007KT
                       P6SM SCT200=
201108201507 KSEA 201507Z 2015/2118 VRB03KT P6SM SKC FM201800 36006KT P6SM SKC
                       FM202000 33010KT P6SM SKC FM210600 VRB03KT
                       P6SM SKC FM211100 VRB03KT P6SM SCT250=
201108201120 TAF KSEA 201120Z 2012/2118 03006KT P6SM SKC FM201800 36006KT P6SM
                       SKC FM202000 33010KT P6SM SKC FM210600 VRB03KT
                       P6SM SKC FM211100 VRB03KT P6SM SCT250=
201108200857 KSEA 200857Z 2009/2112 02006KT P6SM SKC FM201200 04004KT P6SM SKC
                       FM201800 36006KT P6SM SKC FM202000 33009KT
                       P6SM SKC FM210600 VRB03KT P6SM SKC FM211110
                       VRB03KT P6SM SCT250=
201108200520 TAF KSEA 200520Z 2006/2112 02006KT P6SM SKC FM201200 04004KT P6SM
                       SKC FM201800 36006KT P6SM SKC FM202000 33009KT
                       P6SM SKC FM210600 VRB03KT P6SM SKC FM211110
                       VRB03KT P6SM SCT250=
201108200305 KSEA 200305Z 2003/2106 36008KT P6SM SKC FM200600 02006KT P6SM SKC
                       FM201200 04004KT P6SM SKC FM201800 36006KT
                       P6SM SKC FM202000 32009KT P6SM SKC=
201108192331 TAF KSEA 192331Z 2000/2106 35012KT P6SM SKC FM200300 02008KT P6SM
                       SKC FM201200 04004KT P6SM SKC FM201800 36006KT
                       P6SM SKC FM202000 32009KT P6SM SKC=
201108192102 TAF AMD KSEA 192102Z 1921/2024 36011KT P6SM SKC FM200300 01008KT
                       P6SM SKC FM201200 04004KT P6SM SKC FM201900
                       32008KT P6SM SKC=
201108191725 TAF KSEA 191725Z 1918/2024 36006KT P6SM SCT007 FM191830 33009KT
                       P6SM SKC FM200300 01008KT P6SM SKC FM201200
                       04004KT P6SM SKC FM201900 32008KT P6SM SKC=
201108191631 KSEA 191631Z 1917/2018 34006KT 6SM HZ BKN005 FM191800 34008KT P6SM
                       SCT250 FM200600 02004KT P6SM SKC
                      TEMPO 2012/2016 FEW010=
201108191506 KSEA 191506Z 1915/2018 34006KT 4SM BR OVC003 FM191700 02006KT P6SM
                       BKN005 FM191800 34008KT P6SM SCT250 FM200600
                       02004KT P6SM SKC
                      TEMPO 2012/2016 FEW010=
201108191330 KSEA 191330Z 1914/2018 02006KT 4SM BR OVC002
                      TEMPO 1914/1917 1SM BR FM191700 02006KT P6SM
                       BKN004 FM191800 34008KT P6SM SCT250 FM200600
                       02004KT P6SM SKC
                      TEMPO 2012/2016 FEW010=
201108191130 TAF KSEA 191130Z 1912/2018 02006KT P6SM SCT005
                      TEMPO 1912/1916 1SM BR OVC002 FM191800 34008KT
                       P6SM SCT250 FM200600 02004KT P6SM SKC
                      TEMPO 2012/2016 FEW010=
201108190854 KSEA 190854Z 1909/2012 03010KT P6SM SKC
                      TEMPO 1913/1916 SCT002 FM191800 31006KT P6SM
                       SKC FM200600 02004KT P6SM SKC=
201108190542 TAF KSEA 190542Z 1906/2012 03004KT P6SM FEW120 SCT200
                      TEMPO 1914/1917 SCT020 FM191800 31006KT P6SM
                       SKC FM200600 02004KT P6SM SKC=
201108190256 KSEA 190256Z 1903/2006 27005KT P6SM FEW100 SCT200 FM190600 03004KT
                       P6SM SKC
                      TEMPO 1914/1917 SCT020 FM191800 31006KT P6SM
                       SKC=
201108182330 TAF KSEA 182330Z 1900/2006 30007KT P6SM BKN200 FM190300 30005KT
                       P6SM SCT200 FM190600 03004KT P6SM SKC
                      TEMPO 1914/1917 SCT020 FM191800 31006KT P6SM
                       SKC=
201108182110 KSEA 182110Z 1821/1924 22007KT P6SM FEW035 BKN200 FM190600 03004KT
                       P6SM SKC=
201108181732 TAF KSEA 181732Z 1818/1924 27006KT P6SM SCT011 BKN250 FM182100
                       33008KT P6SM SCT250 FM190600 03004KT P6SM
                       SKC=
201108181503 KSEA 181503Z 1815/1918 19004KT P6SM SCT011 BKN250 FM181900 33008KT
                       P6SM SKC FM190600 03004KT P6SM SKC=
201108181129 TAF KSEA 181129Z 1812/1918 04004KT P6SM SKC FM181500 VRB04KT P6SM
                       SKC FM181900 33008KT P6SM SKC FM190600 03004KT
                       P6SM SKC=
201108180906 KSEA 180906Z 1809/1912 04004KT P6SM SKC FM181400 21004KT P6SM FEW015
                       FM181700 28005KT P6SM FEW030 FM181900 32006KT
                       P6SM SKC FM190600 03006KT P6SM SKC=
201108180539 TAF KSEA 180539Z 1806/1912 03010KT P6SM SKC FM181400 21004KT P6SM
                       BKN020 FM181700 28005KT P6SM SCT020 FM181900
                       32006KT P6SM SKC FM190600 03006KT P6SM SKC=
201108180302 KSEA 180302Z 1803/1906 02010KT P6SM FEW250 FM180600 02007KT P6SM
                       SKC FM181200 21004KT P6SM OVC015 FM181700
                       32005KT P6SM SCT020 FM181900 32006KT P6SM
                       SKC=
201108172331 TAF KSEA 172331Z 1800/1906 VRB04KT P6SM FEW250 FM180600 02007KT
                       P6SM SKC FM181200 21004KT P6SM OVC015 FM181700
                       32005KT P6SM SCT020 FM181900 32006KT P6SM
                       SKC=
201108172100 KSEA 172100Z 1721/1824 31006KT P6SM SKC FM180600 02007KT P6SM SKC
                       FM181200 21004KT P6SM OVC015 FM181700 32005KT
                       P6SM SCT020 FM181900 32006KT P6SM SKC=
201108171736 TAF KSEA 171736Z 1718/1824 32008KT P6SM SKC FM180600 02007KT P6SM
                       SKC FM181200 21004KT P6SM OVC015 FM181700
                       32005KT P6SM SCT020 FM181900 32006KT P6SM
                       SKC=
201108171502 KSEA 171502Z 1715/1818 00000KT P6SM FEW250 FM172100 29008KT P6SM
                       FEW250 FM180600 02007KT P6SM FEW050 SCT250
                       FM181200 04004KT P6SM BKN030=
201108171124 TAF KSEA 171124Z 1712/1818 03006KT P6SM SKC FM171500 32006KT P6SM
                       SKC FM172100 29008KT P6SM FEW250 FM180600
                       02007KT P6SM FEW050 SCT250 FM181200 04004KT
                       P6SM BKN030=
201108170549 TAF KSEA 170549Z 1706/1812 02006KT P6SM SKC FM171500 32006KT P6SM
                       SKC FM172100 29008KT P6SM FEW250 FM180600
                       02007KT P6SM FEW050 SCT250=
201108170304 KSEA 170304Z 1703/1806 30009KT P6SM SKC FM170600 03006KT P6SM SKC
                       FM171500 32006KT P6SM SKC FM172100 29008KT
                       P6SM FEW250=
201108162320 TAF KSEA 162320Z 1700/1806 30009KT P6SM FEW050 FM170600 03006KT
                       P6SM SKC FM171500 32006KT P6SM SKC=
201108162100 KSEA 162100Z 1621/1724 28007KT P6SM FEW045 FM170600 03006KT P6SM
                       SKC FM171500 29006KT P6SM SKC=
201108161720 TAF KSEA 161720Z 1618/1724 36005KT P6SM SKC FM170600 03006KT P6SM
                       SKC FM171500 29006KT P6SM SKC=
201108161503 TAF AMD KSEA 161503Z 1615/1718 02004KT P6SM FEW250 FM161800 32008KT
                       P6SM SKC FM170600 03006KT P6SM SKC FM171500
                       29006KT P6SM SKC=
201108161131 TAF KSEA 161131Z 1612/1718 03008KT P6SM SKC FM161400 05004KT P6SM
                       FEW002 FM161800 32008KT P6SM SKC FM170600
                       03006KT P6SM SKC FM171500 29006KT P6SM SKC=
201108160901 KSEA 160901Z 1609/1712 02004KT P6SM SCT250 FM161400 05004KT P6SM
                       FEW002 FEW250 FM161800 32008KT P6SM SKC
                       FM170600 03006KT P6SM SKC=
201108160534 TAF KSEA 160534Z 1606/1712 02004KT P6SM FEW050 SCT250 FM161400
                       05004KT P6SM FEW002 FEW250 FM161800 32008KT
                       P6SM SKC FM170600 03006KT P6SM SKC=
201108160302 KSEA 160302Z 1603/1706 35007KT P6SM FEW035 BKN250 FM160600 02004KT
                       P6SM FEW250 FM161400 05004KT P6SM FEW002
                       FM162000 32008KT P6SM SKC=
201108152336 TAF KSEA 152336Z 1600/1706 31006KT P6SM FEW035 SCT250 FM160600
                       02004KT P6SM FEW250 FM161400 05004KT P6SM
                       FEW002 FM162000 32008KT P6SM SKC=
201108152152 KSEA 152152Z 1522/1624 24006KT P6SM SCT035 SCT250 FM152300 34007KT
                       P6SM FEW050 SCT250 FM160600 02004KT P6SM
                       FEW250 FM161400 05004KT P6SM FEW003 FM162000
                       32008KT P6SM SKC=
201108151736 TAF KSEA 151736Z 1518/1624 20004KT P6SM SCT025 BKN045
                      TEMPO 1518/1519 BKN025 BKN045 FM152000 VRB03KT
                       P6SM SCT035 BKN060 FM152300 34007KT P6SM
                       SCT060 FM160600 02004KT P6SM SCT100 FM161300
                       06004KT P6SM BCFG FEW005=
201108151505 KSEA 151505Z 1515/1618 20004KT P6SM SCT020 BKN035 FM151800 VRB03KT
                       P6SM SCT035 BKN060 FM152200 34007KT P6SM
                       SCT060 FM160300 34006KT P6SM SCT100=
201108151138 TAF KSEA 151138Z 1512/1618 21006KT P6SM SCT030 BKN045 OVC060
                      TEMPO 1512/1515 BKN030 OVC045 FM151800 VRB03KT
                       P6SM SCT035 BKN060 FM152200 34006KT P6SM
                       BKN060 FM160300 34006KT P6SM SCT100=
201108150910 KSEA 150910Z 1509/1612 21006KT P6SM BKN040 BKN070 FM151900 33006KT
                       P6SM SCT035 BKN060 FM160300 33006KT P6SM
                       SCT100=
201108150540 TAF KSEA 150540Z 1506/1612 VRB03KT P6SM BKN080 FM151100 18006KT
                       P6SM SCT025 BKN040 OVC070 FM152100 33006KT
                       P6SM SCT035 BKN060 FM160300 33006KT P6SM
                       SCT100=
201108150331 KSEA 150331Z 1504/1606 VRB03KT P6SM BKN060 OVC120 FM151100 18006KT
                       P6SM VCSH OVC018 FM152100 31008KT P6SM BKN035
                       OVC080 FM160100 31008KT P6SM SCT100=
201108142320 TAF KSEA 142320Z 1500/1606 27008KT P6SM BKN050
                      TEMPO 1500/1502 SCT050 FM150200 31007KT P6SM
                       BKN050 OVC120 FM150700 19005KT P6SM VCSH
                       OVC040 FM151100 18006KT P6SM VCSH OVC018
                       FM152100 31008KT P6SM BKN035 OVC080 FM160100
                       31008KT P6SM SCT100=
201108142200 KSEA 142200Z 1422/1524 24008KT P6SM SCT035 BKN050 BKN140
                      TEMPO 1423/1503 SCT045 BKN090 FM150300 31007KT
                       P6SM BKN050 OVC120 FM150700 19005KT P6SM
                       VCSH OVC040 FM151100 18006KT P6SM VCSH OVC018
                       FM152100 31008KT P6SM SCT035=
201108141722 TAF KSEA 141722Z 1418/1524 18006KT P6SM SCT018 OVC045 FM142200
                       22007KT P6SM BKN045 OVC070
                      TEMPO 1423/1503 SCT045 BKN090 FM150300 31007KT
                       P6SM BKN050 OVC120 FM150700 19005KT P6SM
                       VCSH OVC040 FM151100 18006KT P6SM VCSH OVC018
                       FM152100 31008KT P6SM SCT035=
201108141500 TAF AMD KSEA 141500Z 1415/1518 17006KT P6SM SCT024 BKN045 OVC100
                       TEMPO 1415/1418 BKN024 OVC045 FM142000 25006KT
                       P6SM BKN040 OVC090 FM151100 18006KT P6SM
                       OVC021=
201108141133 TAF KSEA 141133Z 1412/1518 19006KT P6SM SCT022 OVC040
                      TEMPO 1414/1418 BKN022 OVC040 FM142000 25006KT
                       P6SM BKN040 OVC090 FM151100 21006KT P6SM
                       OVC021=
201108140909 KSEA 140909Z 1409/1512 24006KT P6SM BKN040 OVC200 FM141200 21006KT
                       P6SM BKN021 OVC040 FM141900 21006KT P6SM
                       BKN035 OVC090 FM150900 21006KT P6SM BKN020
                       OVC035=
201108140538 TAF KSEA 140538Z 1406/1512 26006KT P6SM SCT045 FM140800 24006KT
                       P6SM BKN045 FM141200 21006KT P6SM OVC021
                       FM141900 21006KT P6SM BKN035 OVC090 FM150900
                       21006KT P6SM BKN020 OVC035=
201108140303 KSEA 140303Z 1403/1506 26006KT P6SM SCT050 FM140900 VRB04KT P6SM
                       OVC012 FM141900 24006KT P6SM BKN035 OVC090=
201108132328 TAF KSEA 132328Z 1400/1506 27008KT P6SM SCT035 FM140200 24006KT
                       P6SM BKN035 BKN050 FM140900 VRB04KT P6SM
                       OVC012 FM141900 24006KT P6SM BKN035 OVC090=
201108132106 KSEA 132106Z 1321/1424 24007KT P6SM BKN030 BKN060 FM132300 29007KT
                       P6SM SCT030 BKN060 FM140200 24006KT P6SM
                       BKN030 BKN060 FM140800 20005KT P6SM OVC012
                       FM141900 24005KT P6SM BKN040 OVC090=
201108131900 KSEA 131900Z 1319/1424 24007KT P6SM FEW020 SCT028 BKN060
                      TEMPO 1319/1321 BKN030 BKN060 FM140100 28007KT
                       P6SM SCT060 FM140800 20005KT P6SM OVC012
                       FM141900 24005KT P6SM BKN040 OVC090=
201108131735 TAF KSEA 131735Z 1318/1424 20007KT P6SM SCT030 BKN070
                      TEMPO 1318/1319 BKN030 BKN070 FM131900 22007KT
                       P6SM SCT050 FM140100 28007KT P6SM SCT050
                       FM140800 20005KT P6SM OVC012 FM141900 24005KT
                       P6SM BKN040 OVC090=
201108131506 KSEA 131506Z 1315/1418 18006KT P6SM OVC006 FM131700 23006KT P6SM
                       BKN012 FM131900 25006KT P6SM SCT200 FM140800
                       20006KT P6SM OVC012=
201108131223 KSEA 131223Z 1312/1418 21004KT P6SM BKN010 FM131300 21005KT P6SM
                       OVC008 FM131800 23006KT P6SM BKN015 FM131900
                       25006KT P6SM SCT200 FM132100 VRB03KT P6SM
                       OVC015=
201108131139 TAF KSEA 131139Z 1312/1418 VRB03KT P6SM SCT008
                      TEMPO 1313/1315 BKN008 FM131500 21006KT P6SM
                       OVC008 FM131800 23006KT P6SM BKN015 FM131900
                       25006KT P6SM SCT200 FM132100 VRB03KT P6SM
                       OVC015=
201108130903 TAF AMD KSEA 130903Z 1309/1412 VRB03KT P6SM SCT200 FM131400 21006KT
                       P6SM OVC011 FM131800 23006KT P6SM BKN021
                       FM131900 25006KT P6SM SCT200 FM132100 33006KT
                       P6SM SCT200 FM141100 VRB03KT P6SM OVC015=
201108130536 TAF KSEA 130536Z 1306/1412 VRB03KT P6SM SKC FM131300 21006KT P6SM
                       OVC011 FM131800 23006KT P6SM BKN021 FM131900
                       25006KT P6SM SCT200 FM132100 33006KT P6SM
                       SCT200 FM141100 VRB03KT P6SM OVC015=
201108130317 KSEA 130317Z 1303/1406 VRB03KT P6SM SKC FM131200 21006KT P6SM OVC012
                       FM131800 27005KT P6SM SCT200 FM140300 32005KT
                       P6SM SCT120 BKN200=
201108122321 TAF KSEA 122321Z 1300/1406 34005KT P6SM SKC FM131200 21006KT P6SM
                       OVC012 FM131800 27005KT P6SM SCT200 FM140300
                       32005KT P6SM SCT120 BKN200=
201108122102 KSEA 122102Z 1221/1324 25005KT P6SM SKC FM131200 21006KT P6SM OVC012=
201108121733 TAF KSEA 121733Z 1218/1324 28003KT 2SM BR OVC003 FM121900 31004KT
                       P6SM SKC FM131200 21006KT P6SM OVC012=
201108121505 KSEA 121505Z 1215/1318 00000KT 2SM BR OVC002
                      TEMPO 1215/1216 1SM BR OVC002 FM121700 35006KT
                       P6SM BKN004 FM121800 35006KT P6SM SCT200
                       FM131200 21006KT P6SM OVC012=
201108121130 TAF KSEA 121130Z 1212/1318 35006KT P6SM SKC FM121300 35006KT 5SM
                       BR OVC002
                      TEMPO 1214/1216 1SM BR OVC002 FM121700 35006KT
                       P6SM BKN004 FM121800 35006KT P6SM SCT200
                       FM131200 21006KT P6SM OVC012=
201108120902 KSEA 120902Z 1209/1312 VRB03KT P6SM SKC
                      TEMPO 1213/1216 SCT005 FM121900 34006KT P6SM
                       SCT200=
201108120529 TAF KSEA 120529Z 1206/1312 VRB03KT P6SM SKC
                      TEMPO 1213/1216 SCT015 FM122100 34006KT P6SM
                       SCT200=
201108120306 KSEA 120306Z 1203/1306 VRB03KT P6SM SKC
                      TEMPO 1212/1215 SCT015 FM122100 34006KT P6SM
                       SCT200=
201108112331 TAF KSEA 112331Z 1200/1306 33005KT P6SM SKC
                      TEMPO 1212/1215 22005KT BKN015 FM122100 34006KT
                       P6SM SCT200=
201108112102 KSEA 112102Z 1121/1224 VRB06KT P6SM FEW025 BKN250 FM121200 22005KT
                       P6SM OVC015 FM121800 29006KT P6SM SCT035=
201108111732 TAF KSEA 111732Z 1118/1224 21004KT P6SM BKN016 OVC021 FM111900
                       VRB03KT P6SM BKN035 FM112100 34006KT P6SM
                       SCT040 FM121200 22005KT P6SM OVC015=
201108111508 KSEA 111508Z 1115/1218 23003KT P6SM BKN016 OVC023
                      TEMPO 1115/1117 SCT020 OVC035 FM111900 VRB03KT
                       P6SM BKN045 FM112100 34006KT P6SM SCT040=
201108111133 TAF KSEA 111133Z 1112/1218 VRB03KT P6SM SCT021 OVC035
                      TEMPO 1113/1117 BKN021 OVC035 FM111900 VRB03KT
                       P6SM BKN045 FM112100 34006KT P6SM SCT040=
201108110908 TAF AMD KSEA 110908Z 1109/1212 22004KT P6SM SCT040 FM111300 22004KT
                       P6SM SCT025 BKN040
                      TEMPO 1114/1117 BKN025 FM111700 22004KT P6SM
                       SCT040 FM112200 34006KT P6SM SKC=
201108110536 TAF KSEA 110536Z 1106/1212 22004KT P6SM SCT050 FM110900 22004KT
                       P6SM BKN090 FM111300 22004KT P6SM SCT025
                       BKN040
                      TEMPO 1114/1117 BKN025 FM111700 22004KT P6SM
                       SCT040 FM112200 34006KT P6SM SKC=
201108102337 TAF KSEA 102337Z 1100/1206 19007KT P6SM BKN035 FM110100 25005KT
                       P6SM SCT040 FM111200 22005KT P6SM BKN020
                       FM111700 21005KT P6SM SCT040 FM120100 33005KT
                       P6SM SKC=
201108102103 KSEA 102103Z 1021/1124 18006KT P6SM SCT025 BKN040 FM110900 22005KT
                       P6SM BKN020 FM111700 28005KT P6SM SCT040=
201108101733 TAF KSEA 101733Z 1018/1124 22007KT P6SM FEW020 BKN035 FM101900
                       24006KT P6SM FEW035 BKN050 FM102200 25007KT
                       P6SM SCT040 SCT060 FM110900 22005KT P6SM
                       BKN020 FM111700 28005KT P6SM SCT040=
201108101607 KSEA 101607Z 1016/1118 22004KT P6SM FEW020 BKN035
                      TEMPO 1016/1018 BKN020 BKN040 FM102000 24006KT
                       P6SM BKN060 FM102300 24007KT P6SM SCT040
                       SCT060 FM111100 22005KT P6SM OVC020=
201108101506 KSEA 101506Z 1015/1118 22004KT P6SM BKN021 BKN040
                      TEMPO 1017/1020 FEW040 BKN060 FM102000 24006KT
                       P6SM BKN060 FM102300 24007KT P6SM SCT040
                       SCT060 FM111100 22005KT P6SM OVC020=
201108101301 KSEA 101301Z 1013/1118 26003KT P6SM OVC050 FM102100 24006KT P6SM
                       BKN060 FM102300 24007KT P6SM SCT040 SCT060
                       FM111100 22005KT P6SM OVC020=
201108101120 TAF KSEA 101120Z 1012/1118 21004KT P6SM OVC030 FM102100 24006KT
                       P6SM BKN040 FM102300 24007KT P6SM SCT040
                       SCT060 FM111100 22005KT P6SM OVC020=
201108101006 KSEA 101006Z 1010/1112 21004KT P6SM OVC030 FM102100 24006KT P6SM
                       BKN040 FM102300 24007KT P6SM SCT040 SCT060
                       FM110800 22005KT P6SM BKN030 BKN050=
201108100520 TAF KSEA 100520Z 1006/1112 21005KT P6SM FEW025 OVC040 FM101000
                       20004KT P6SM OVC025 FM102100 24006KT P6SM
                       BKN040 FM102300 24007KT P6SM SCT040 SCT060
                       FM110800 22005KT P6SM BKN030 BKN050=
201108100336 KSEA 100336Z 1004/1106 20005KT P6SM SCT035 BKN045 FM100600 21005KT
                       P6SM SCT025 OVC040 FM100800 20004KT P6SM
                       OVC025 FM102100 24006KT P6SM BKN035=
201108100328 KSEA 100328Z 1003/1106 20005KT P6SM SCT035 BKN045 FM100600 21005KT
                       P6SM SCT025 OVC040 FM100800 20004KT P6SM
                       OVC035 FM102100 24006KT P6SM BKN035=
201108092331 TAF KSEA 092331Z 1000/1106 20005KT P6SM BKN035 FM100600 21005KT
                       P6SM SCT015 OVC040 FM100800 20004KT P6SM
                       OVC015 FM102200 24006KT P6SM BKN025=
201108091733 TAF KSEA 091733Z 0918/1024 21006KT P6SM SCT035 BKN060 FM100100
                       27007KT P6SM SCT040 FM100600 21005KT P6SM
                       SCT015 BKN040 FM100800 20004KT P6SM OVC015
                       FM102200 20006KT P6SM SCT025=
201108091503 KSEA 091503Z 0915/1018 25006KT P6SM FEW012 BKN035 FM092100 26008KT
                       P6SM BKN040 FM100100 27007KT P6SM SCT040
                       FM100600 21005KT P6SM SCT015 BKN040 FM100800
                       20004KT P6SM OVC015=
201108091120 TAF KSEA 091120Z 0912/1018 20005KT P6SM OVC035 FM092100 26008KT
                       P6SM BKN040 FM100100 27007KT P6SM SCT040
                       FM100600 21005KT P6SM SCT015 BKN040 FM100800
                       20004KT P6SM OVC015=
201108090912 KSEA 090912Z 0909/1012 20005KT P6SM OVC035 FM092200 26008KT P6SM
                       BKN035 FM100600 21005KT P6SM OVC020=
201108090520 TAF KSEA 090520Z 0906/1012 21005KT P6SM BKN030 FM090800 20005KT
                       P6SM OVC020 FM092200 26008KT P6SM BKN035
                       FM100600 21005KT P6SM OVC020=
201108090301 KSEA 090301Z 0903/1006 21005KT P6SM SCT030 FM091200 20005KT P6SM
                       OVC020 FM092200 24007KT P6SM BKN025=
201108082325 TAF KSEA 082325Z 0900/1006 31005KT P6SM SCT030 FM091200 20005KT
                       P6SM OVC020 FM092200 24007KT P6SM BKN025=
201108082100 KSEA 082100Z 0821/0924 20008KT P6SM SCT025 BKN035 FM090100 30005KT
                       P6SM SCT040 FM091200 20005KT P6SM OVC020
                       FM092200 24007KT P6SM BKN025=
201108081903 KSEA 081903Z 0819/0924 19007KT P6SM FEW019 BKN035 FM082000 23007KT
                       P6SM SCT035 FM090100 30005KT P6SM SCT040
                       FM091200 20005KT P6SM OVC020 FM092200 24007KT
                       P6SM BKN025=
201108081720 TAF KSEA 081720Z 0818/0924 21008KT P6SM BKN025 OVC035 FM082000
                       23007KT P6SM SCT035 FM090100 30005KT P6SM
                       SCT040 FM091200 20005KT P6SM OVC020 FM092200
                       24007KT P6SM BKN025=
201108081501 KSEA 081501Z 0815/0918 20007KT P6SM SCT010 OVC017 FM082000 30007KT
                       P6SM SCT040 FM090400 27005KT P6SM SCT040
                       FM090900 20005KT P6SM OVC020=
201108081240 KSEA 081240Z 0813/0918 21006KT P6SM SCT010 OVC025 FM082000 30007KT
                       P6SM SCT040 FM090400 27005KT P6SM SCT040
                       FM090900 20005KT P6SM OVC020=
201108081120 TAF KSEA 081120Z 0812/0918 20005KT P6SM OVC018 FM081900 23005KT
                       P6SM BKN025 FM082000 30007KT P6SM SCT040
                       FM090400 27005KT P6SM SCT040 FM090900 20005KT
                       P6SM OVC020=
201108080810 KSEA 080810Z 0808/0912 20005KT P6SM SCT250 FM081200 20005KT P6SM
                       OVC020 FM081900 23005KT P6SM BKN025 FM082000
                       30007KT P6SM SCT040 FM090400 27005KT P6SM
                       SCT040 FM090900 20005KT P6SM OVC015=
201108080520 TAF KSEA 080520Z 0806/0912 24004KT P6SM SCT030 BKN250 FM081000
                       VRB03KT P6SM SCT012
                      TEMPO 0810/0812 BKN012 FM081200 20005KT P6SM
                       BKN012 FM081700 23005KT P6SM BKN020 FM082000
                       30007KT P6SM SCT040 FM090400 27005KT P6SM
                       SCT040 FM090900 20005KT P6SM OVC015=
201108072320 TAF KSEA 072320Z 0800/0906 VRB05KT P6SM SCT030 SCT250 FM081000
                       00000KT P6SM SCT012
                      TEMPO 0810/0812 BKN012 FM081200 18005KT P6SM
                       BKN012 FM081700 23005KT P6SM BKN020 FM082000
                       30007KT P6SM SCT040=
201108072111 KSEA 072111Z 0721/0824 VRB04KT P6SM SCT030 SCT250 FM080800 00000KT
                       P6SM BKN015 FM081200 18005KT P6SM OVC012
                       FM081700 23005KT P6SM BKN020 FM082000 30007KT
                       P6SM SCT040=
201108071745 KSEA 071745Z 0718/0824 VRB03KT P6SM SCT015 BKN035 FM072000 30007KT
                       P6SM SCT040 FM081000 VRB03KT P6SM BKN012
                       TEMPO 0812/0816 OVC010 FM081700 23005KT
                       P6SM BKN020 FM082000 30007KT P6SM SCT040=
201108071730 TAF KSEA 071730Z 0718/0824 VRB03KT P6SM SCT015 BKN035
                      TEMPO 0718/0720 BKN015 OVC030 FM072100 30007KT
                       P6SM SCT040 FM081000 VRB03KT P6SM BKN012
                       TEMPO 0812/0816 OVC010 FM081700 23005KT
                       P6SM BKN020 FM082000 30007KT P6SM SCT040=
201108071615 KSEA 071615Z 0716/0818 00000KT P6SM BKN010 BKN030 FM071800 21006KT
                       P6SM BKN035 FM071930 28005KT P6SM SCT040
                       FM080000 35007KT P6SM SCT050 FM081000 20004KT
                       P6SM OVC015 FM081700 21006KT P6SM BKN025=
201108071340 KSEA 071340Z 0714/0818 00000KT P6SM OVC030 FM071430 VRB04KT P6SM
                       SCT004 OVC030
                      TEMPO 0715/0718 4SM BR OVC004 FM071800 21006KT
                       P6SM BKN035 FM071900 28005KT P6SM SCT050
                       FM080000 35007KT P6SM FEW050 FM080600 24005KT
                       P6SM SCT040 FM081000 20004KT P6SM FEW025
                       BKN040 FM081200 21004KT P6SM BKN025 FM081700
                       21006KT P6SM BKN035=
201108071120 TAF KSEA 071120Z 0712/0818 VRB03KT P6SM BKN025 FM071800 28006KT
                       P6SM SCT040 FM080000 35007KT P6SM FEW050
                       FM080600 24005KT P6SM SCT040 FM081000 20004KT
                       P6SM FEW025 BKN040 FM081200 21004KT P6SM
                       BKN025 FM081700 21006KT P6SM BKN035=
201108070917 KSEA 070917Z 0709/0812 VRB03KT P6SM BKN025 FM071800 28006KT P6SM
                       SCT040 FM080000 35007KT P6SM FEW050 FM080600
                       24005KT P6SM SCT040 FM081000 20004KT P6SM
                       FEW025 BKN040=
201108070520 TAF KSEA 070520Z 0706/0812 30006KT P6SM FEW040 FM070900 VRB03KT
                       P6SM FEW025 BKN040 FM071200 VRB03KT P6SM
                       BKN025 FM071800 28006KT P6SM SCT040 FM080000
                       35007KT P6SM FEW050 FM080600 24005KT P6SM
                       SCT040 FM081000 20004KT P6SM FEW025 BKN040=
201108070322 KSEA 070322Z 0703/0806 30006KT P6SM FEW040 FM070900 VRB03KT P6SM
                       FEW025 BKN040 FM071200 VRB03KT P6SM BKN025
                       FM071800 30006KT P6SM SCT040=
201108062320 TAF KSEA 062320Z 0700/0806 30006KT P6SM SCT040
                      TEMPO 0704/0708 BKN040 FM070800 VRB03KT P6SM
                       SCT025 BKN040 FM071300 VRB03KT P6SM BKN020
                       FM071800 30006KT P6SM SCT040=
201108062102 KSEA 062102Z 0621/0724 30006KT P6SM SCT022 BKN040
                      TEMPO 0622/0702 SCT040 FM071000 18005KT P6SM
                       BKN020 OVC035
                      TEMPO 0712/0716 OVC015 FM071700 VRB04KT P6SM
                       BKN025 BKN040 FM072000 30007KT P6SM SCT025
                       BKN040=
201108061857 KSEA 061857Z 0619/0724 30006KT P6SM SCT022 BKN040
                      TEMPO 0619/0621 BKN022 OVC040 FM071000 18005KT
                       P6SM BKN020
                      TEMPO 0712/0716 OVC015 FM071700 VRB04KT P6SM
                       BKN025 BKN040 FM072000 30007KT P6SM SCT025
                       BKN040=
201108061720 TAF KSEA 061720Z 0618/0724 VRB03KT P6SM BKN018 OVC035 FM062000
                       30007KT P6SM SCT025 BKN040
                      TEMPO 0620/0622 BKN025 OVC040 FM071000 18005KT
                       P6SM BKN020
                      TEMPO 0712/0716 OVC015 FM071700 VRB04KT P6SM
                       BKN025 BKN040 FM072000 30007KT P6SM SCT025
                       BKN040=
201108061503 KSEA 061503Z 0615/0718 VRB04KT P6SM SCT005 OVC015 FM061700 VRB04KT
                       P6SM BKN025 OVC040 FM062000 27007KT P6SM
                       SCT025 BKN040 FM070000 30007KT P6SM SCT045
                       FM071000 VRB04KT P6SM BKN020
                      TEMPO 0712/0716 OVC015=
201108061342 KSEA 061342Z 0614/0718 00000KT P6SM OVC011 FM061700 21006KT P6SM
                       BKN025 OVC040 FM062100 23007KT P6SM SCT025
                       SCT040 FM070000 28006KT P6SM SCT045 FM071000
                       01004KT P6SM SCT015 BKN025 FM071200 18004KT
                       P6SM BKN015 OVC025 FM071700 19005KT P6SM
                       FEW018 BKN025=
201108061120 TAF KSEA 061120Z 0612/0718 VRB04KT P6SM SCT015 OVC030
                      TEMPO 0612/0616 BKN015 FM061900 21007KT P6SM
                       BKN025 OVC040 FM062100 23007KT P6SM SCT025
                       SCT040 FM070000 28006KT P6SM SCT045 FM071000
                       01004KT P6SM SCT015 BKN025 FM071200 18004KT
                       P6SM BKN015 OVC025 FM071700 19005KT P6SM
                       FEW018 BKN025=
201108061031 KSEA 061031Z 0611/0712 18006KT P6SM SCT015 OVC030
                      TEMPO 0612/0616 OVC015 FM061900 21007KT P6SM
                       BKN025 OVC040 FM062200 23007KT P6SM SCT025
                       BKN040 FM070000 28006KT P6SM FEW025 SCT040
                       FM071000 01004KT P6SM SCT015 BKN025=
201108060902 KSEA 060902Z 0609/0712 18006KT P6SM SCT015 OVC030
                      TEMPO 0610/0612 OVC015 FM061200 18005KT P6SM
                       OVC012
                      TEMPO 0613/0617 5SM BR OVC008 FM061900 21007KT
                       P6SM BKN020 OVC040 FM062200 23007KT P6SM
                       SCT025 BKN040 FM070000 28006KT P6SM FEW025
                       SCT040 FM071000 01004KT P6SM SCT015 BKN025=
201108060537 TAF KSEA 060537Z 0606/0712 VRB04KT P6SM FEW015 BKN030 FM060800
                       18006KT P6SM OVC015
                      TEMPO 0613/0617 5SM BR OVC008 FM061900 21007KT
                       P6SM BKN020 OVC040 FM062200 23007KT P6SM
                       SCT025 BKN040 FM070000 28006KT P6SM FEW025
                       SCT040 FM071000 01004KT P6SM SCT015 BKN025=
201108060343 KSEA 060343Z 0604/0706 VRB04KT P6SM BKN030 FM060800 18006KT P6SM
                       OVC018
                      TEMPO 0613/0617 3SM -DZ BR OVC008 FM061900
                       21007KT P6SM BKN020 OVC040 FM062200 23007KT
                       P6SM SCT025 BKN040=
201108052358 KSEA 052358Z 0600/0706 23007KT P6SM BKN020 OVC035
                      TEMPO 0600/0604 VRB04KT SCT025 BKN040 FM060800
                       18006KT P6SM OVC012
                      TEMPO 0613/0617 3SM -DZ BR OVC008 FM061900
                       21007KT P6SM BKN020 OVC040 FM062200 23007KT
                       P6SM SCT025 BKN040=
201108052320 TAF KSEA 052320Z 0600/0706 23007KT P6SM BKN020 OVC035
                      TEMPO 0600/0604 VRB04KT SCT025 BKN040 FM060800
                       18006KT P6SM OVC012
                      TEMPO 0613/0617 3SM -DZ BR OVC008 FM062200
                       23007KT P6SM SCT025 BKN040=
201108052203 KSEA 052203Z 0522/0624 23007KT P6SM BKN022 OVC035
                      TEMPO 0600/0604 VRB04KT SCT025 BKN040 FM060800
                       18006KT P6SM OVC012
                      TEMPO 0613/0617 3SM -DZ BR OVC008 FM062200
                       23007KT P6SM SCT025 BKN040=
201108052007 KSEA 052007Z 0520/0624 24006KT P6SM BKN020 OVC035 FM052200 VRB05KT
                       P6SM SCT020 BKN035 FM060800 18006KT P6SM
                       OVC020
                      TEMPO 0613/0617 4SM -DZ BR OVC010 FM062000
                       23007KT P6SM SCT025 BKN040=
201108051732 TAF KSEA 051732Z 0518/0624 23007KT P6SM SCT010 OVC018 FM052000
                       23007KT P6SM SCT020 BKN035 FM060000 27007KT
                       P6SM SCT040 FM060400 VRB04KT P6SM SCT025
                       BKN040 FM060900 18006KT P6SM OVC020
                      TEMPO 0613/0617 4SM -DZ BR OVC010 FM062000
                       23007KT P6SM SCT025 BKN040=
201108051502 KSEA 051502Z 0515/0618 22004KT 4SM BR SCT003 OVC006
                      TEMPO 0515/0517 1SM -DZ BR BKN003 OVC006
                       FM051800 21007KT P6SM SCT005 BKN015 OVC030
                       FM052200 23008KT P6SM SCT020 BKN035 FM060000
                       23008KT P6SM SCT040 FM060400 VRB04KT P6SM
                       SCT025 BKN040 FM060900 18006KT P6SM OVC020=
201108051354 KSEA 051354Z 0514/0618 22004KT 4SM BR OVC005
                      TEMPO 0514/0517 1SM -DZ BR FM051700 21007KT
                       P6SM OVC012 FM051900 23008KT P6SM SCT040
                       FM060400 34005KT P6SM BKN070
                      TEMPO 0610/0614 BKN010=
201108051120 TAF KSEA 051120Z 0512/0618 21007KT P6SM OVC005 FM051700 21007KT
                       P6SM OVC012 FM051900 23008KT P6SM SCT040
                       FM060400 34005KT P6SM BKN070
                      TEMPO 0610/0614 BKN010=
201108050901 KSEA 050901Z 0509/0612 20004KT P6SM SCT007 BKN014
                      TEMPO 0509/0513 BKN007 FM051300 21005KT P6SM
                       OVC007 FM051900 23005KT P6SM SCT040=
201108050522 TAF KSEA 050522Z 0506/0612 28004KT P6SM SCT060 FM050900 20004KT
                       P6SM SCT015 SCT060
                      TEMPO 0509/0513 BKN010 FM051300 21005KT P6SM
                       OVC010 FM051900 23005KT P6SM SCT040=
201108050303 KSEA 050303Z 0503/0606 01007KT P6SM FEW050 SCT250 FM050900 20004KT
                       P6SM SCT250 FM051300 21005KT P6SM OVC015
                       FM051900 24006KT P6SM SCT250=
201108042324 TAF KSEA 042324Z 0500/0606 33008KT P6SM FEW050 FM050300 02004KT
                       P6SM SCT250 FM050900 20004KT P6SM SCT250
                       FM051300 21005KT P6SM OVC015 FM051900 24006KT
                       P6SM SCT250=
201108042101 KSEA 042101Z 0421/0524 32008KT P6SM FEW050 FM050300 02004KT P6SM
                       SCT250 FM050900 20004KT P6SM SCT250 FM051300
                       21005KT P6SM BKN015 FM051900 24006KT P6SM
                       SCT250=
201108041720 TAF KSEA 041720Z 0418/0524 30006KT P6SM SKC FM042100 33008KT P6SM
                       FEW060 FM050300 02004KT P6SM SCT250 FM050900
                       20004KT P6SM SCT250 FM051300 21005KT P6SM
                       BKN015 FM051900 24006KT P6SM SCT250=
201108041500 KSEA 041500Z 0415/0518 02004KT P6SM FEW250
                      TEMPO 0415/0416 SCT007 FM042100 33008KT P6SM
                       FEW060 FM050300 30004KT P6SM SCT060=
201108041120 TAF KSEA 041120Z 0412/0518 02006KT P6SM SKC
                      TEMPO 0413/0416 SCT007 FM042100 33008KT P6SM
                       FEW060 FM050300 30004KT P6SM SCT060=
201108040902 KSEA 040902Z 0409/0512 03009KT P6SM SKC
                      TEMPO 0411/0415 SCT015 FM042100 33006KT P6SM
                       FEW050 FM050300 30004KT P6SM SCT050=
201108040525 TAF KSEA 040525Z 0406/0512 36006KT P6SM FEW050 SCT150 FM041100
                       00000KT P6SM FEW050
                      TEMPO 0413/0417 SCT015 FM042100 33006KT P6SM
                       FEW050 FM050300 30004KT P6SM SCT050=
201108040303 KSEA 040303Z 0403/0506 36006KT P6SM FEW050 SCT250 FM041300 00000KT
                       P6SM SCT015 SCT090
                      TEMPO 0413/0417 BKN015 BKN090 FM042100 31006KT
                       P6SM FEW050 FM050000 34008KT P6SM FEW050=
201108032320 TAF KSEA 032320Z 0400/0506 32007KT P6SM FEW040 FM040800 VRB03KT
                       P6SM FEW090 FM041300 00000KT P6SM SCT015
                       SCT090
                      TEMPO 0413/0417 BKN015 BKN090 FM042100 31006KT
                       P6SM FEW050 FM050000 34008KT P6SM FEW050=
201108032106 KSEA 032106Z 0321/0424 29006KT P6SM FEW050 FM040000 34006KT P6SM
                       FEW080 FM040800 VRB03KT P6SM FEW090 FM041300
                       00000KT P6SM SCT015 SCT090
                      TEMPO 0413/0417 BKN015 BKN090 FM042100 31006KT
                       P6SM FEW100=
201108031724 TAF KSEA 031724Z 0318/0424 00000KT P6SM BKN090 FM032000 25006KT
                       P6SM SCT100 FM040000 34006KT P6SM SCT100
                       FM040800 VRB03KT P6SM FEW090 FM041300 00000KT
                       P6SM SCT015 SCT090
                      TEMPO 0413/0417 BKN015 BKN090 FM042100 31006KT
                       P6SM FEW100=
201108031500 KSEA 031500Z 0315/0418 00000KT P6SM BKN090 FM032000 25006KT P6SM
                       SCT070 SCT100 FM032300 31006KT P6SM SCT100=
201108031120 TAF KSEA 031120Z 0312/0418 18004KT P6SM BKN090 FM032000 25006KT
                       P6SM SCT070 SCT100 FM032300 31006KT P6SM
                       SCT100=
201108030904 KSEA 030904Z 0309/0412 20004KT P6SM BKN100 FM031200 18004KT P6SM
                       BKN070 FM032000 25006KT P6SM FEW070 SCT120
                       FM032300 29006KT P6SM SCT120=
201108030533 TAF KSEA 030533Z 0306/0412 20004KT P6SM BKN100 FM031200 18004KT
                       P6SM BKN070 FM032000 25006KT P6SM FEW070
                       SCT120 FM032300 29006KT P6SM SCT120=
201108030305 KSEA 030305Z 0303/0406 23005KT P6SM FEW060 SCT150 FM030600 20004KT
                       P6SM SCT060 SCT120 FM031200 18004KT P6SM
                       SCT012 BKN050
                      TEMPO 0313/0317 OVC012 FM032000 25006KT P6SM
                       FEW025 SCT120 FM032300 29006KT P6SM FEW050
                       SCT200=
201108022324 TAF KSEA 022324Z 0300/0406 26005KT P6SM SCT250 FM030200 29005KT
                       P6SM SCT150 FM030600 20004KT P6SM SCT060
                       SCT120 FM031200 18004KT P6SM SCT012 BKN050
                       TEMPO 0313/0317 OVC012 FM032000 25006KT
                       P6SM FEW025 SCT120 FM032300 29006KT P6SM
                       FEW050 SCT200=
201108022101 KSEA 022101Z 0221/0324 24005KT P6SM FEW050 SCT120 BKN180 FM030200
                       29005KT P6SM BKN070 OVC150 FM030600 20004KT
                       P6SM BKN050 OVC120 FM031200 18004KT P6SM
                       BKN015 OVC050 FM032000 25006KT P6SM SCT025
                       BKN120=
201108021722 TAF KSEA 021722Z 0218/0324 23006KT P6SM BKN180 FM030200 29005KT
                       P6SM BKN070 OVC150 FM030600 20004KT P6SM
                       BKN050 OVC120 FM031200 18004KT P6SM BKN015
                       OVC050 FM032000 25006KT P6SM SCT025 BKN120=
201108021500 KSEA 021500Z 0215/0318 20006KT P6SM SCT150 BKN200 FM021800 24008KT
                       P6SM BKN120 FM030600 33005KT P6SM BKN070=
201108021120 TAF KSEA 021120Z 0212/0318 VRB03KT P6SM SCT150 BKN250 FM021800
                       29007KT P6SM BKN120 FM030600 33005KT P6SM
                       BKN070=
201108020901 KSEA 020901Z 0209/0312 30006KT P6SM SCT250 FM021000 VRB03KT P6SM
                       SCT120 BKN250 FM021800 28006KT P6SM BKN120
                       FM030200 33006KT P6SM SCT100=
201108020521 TAF KSEA 020521Z 0206/0312 30006KT P6SM FEW250 FM021000 VRB03KT
                       P6SM SCT120 BKN250 FM021800 28006KT P6SM
                       BKN120 FM030200 33006KT P6SM SCT100=
201108020303 KSEA 020303Z 0203/0306 36006KT P6SM SKC FM020800 VRB03KT P6SM SKC
                       FM022000 28006KT P6SM BKN120 FM030200 33006KT
                       P6SM SCT100=
201108012328 TAF KSEA 012328Z 0200/0306 36008KT P6SM SKC FM020800 VRB03KT P6SM
                       SKC FM022000 28006KT P6SM BKN120 FM030200
                       33006KT P6SM SCT100=
201108012112 KSEA 012112Z 0121/0224 36008KT P6SM SKC FM020800 VRB03KT P6SM SKC
                       FM022000 30006KT P6SM SCT200=
201108011722 TAF KSEA 011722Z 0118/0224 36008KT P6SM SKC FM020800 VRB03KT P6SM
                       SKC FM022000 30006KT P6SM SCT200=
201108011500 KSEA 011500Z 0115/0218 36008KT P6SM SKC=
201108011133 TAF KSEA 011133Z 0112/0218 36008KT P6SM SKC=
201108010910 KSEA 010910Z 0109/0212 02010KT P6SM SCT045 FM011800 32008KT P6SM
                       FEW250=
201108010536 TAF KSEA 010536Z 0106/0212 02010KT P6SM SCT045 FM011100 36006KT
                       P6SM SCT045 FM011800 32008KT P6SM FEW250=
201108010320 KSEA 010320Z 0103/0206 34008KT P6SM SCT045 FM011200 32006KT P6SM
                       SCT030 FM012000 31008KT P6SM FEW250=