##########################################################
# Query made at 02/17/2025 18:32:48 UTC
# Time interval: from 08/01/2012 00:00  to 08/31/2012 23:59  UTC
##########################################################

##########################################################
# KSEA, Seattle, Seattle-Tacoma International Airport (United States)
# WMO index: 72793. WIGOS ID: 0-20000-0-72793
# Latitude 47-27-00N. Longitude 122-17-59W. Altitude 130 m.
##########################################################

###################################
#  METAR/SPECI from KSEA
###################################
201208312353 METAR KSEA 312353Z 33007KT 10SM FEW040 22/07 A2996 RMK AO2 SLP150 T02170067 10222 20172 56003=
201208312253 METAR KSEA 312253Z VRB05KT 10SM SCT040 22/07 A2996 RMK AO2 SLP151 T02170067=
201208312153 METAR KSEA 312153Z 28006KT 10SM SCT037 21/07 A2996 RMK AO2 SLP151 T02110072=
201208312053 METAR KSEA 312053Z 30010KT 10SM SCT030 19/09 A2997 RMK AO2 SLP153 T01940089 58003=
201208311953 METAR KSEA 311953Z 28005KT 10SM SCT030 19/09 A2997 RMK AO2 SLP154 T01890089=
201208311853 METAR KSEA 311853Z VRB05KT 10SM SCT030 19/09 A2997 RMK AO2 SLP155 T01890089=
201208311753 METAR KSEA 311753Z 34007KT 10SM SCT025 18/08 A2998 RMK AO2 SLP156 T01780083 10183 20106 53005=
201208311653 METAR KSEA 311653Z 33007KT 10SM SCT030 SCT200 17/08 A2997 RMK AO2 SLP153 T01670083=
201208311553 METAR KSEA 311553Z 01005KT 10SM FEW055 SCT200 16/08 A2997 RMK AO2 SLP153 T01560078=
201208311453 METAR KSEA 311453Z 03005KT 10SM FEW050 SCT200 14/07 A2996 RMK AO2 SLP151 T01440072 53006=
201208311353 METAR KSEA 311353Z 04004KT 10SM SCT055 SCT200 11/06 A2995 RMK AO2 SLP147 T01110061=
201208311253 METAR KSEA 311253Z 01004KT 10SM BKN055 BKN200 11/06 A2994 RMK AO2 SLP145 T01110061=
201208311153 METAR KSEA 311153Z 05003KT 10SM BKN055 BKN200 13/07 A2994 RMK AO2 SLP144 T01280067 10156 20122 53004=
201208311053 METAR KSEA 311053Z 03006KT 10SM BKN050 BKN200 13/07 A2994 RMK AO2 SLP143 T01280067=
201208310953 METAR KSEA 310953Z 01005KT 10SM BKN050 BKN200 12/07 A2993 RMK AO2 SLP141 T01220072=
201208310853 METAR KSEA 310853Z 36005KT 10SM SCT050 BKN200 13/07 A2993=
201208310753 METAR KSEA 310753Z 03008KT 10SM BKN050 14/07 A2993 RMK AO2 SLP139 T01440072 402280128=
201208310653 METAR KSEA 310653Z 04008KT 10SM BKN050 15/08 A2993 RMK AO2 SLP140 T01500083=
201208310553 METAR KSEA 310553Z 36007KT 10SM BKN050 14/09 A2993 RMK AO2 SLP141 T01440089 10228 20144 51008=
201208310453 METAR KSEA 310453Z 35007KT 10SM SCT050 15/09 A2992 RMK AO2 SLP138 T01500089=
201208310353 METAR KSEA 310353Z 35007KT 10SM FEW050 16/09 A2992 RMK AO2 SLP136 T01560089=
201208310253 METAR KSEA 310253Z 35007KT 10SM FEW050 SCT200 17/09 A2991 RMK AO2 SLP133 T01720094 56006=
201208310153 METAR KSEA 310153Z 34006KT 10SM FEW050 SCT200 21/09 A2991 RMK AO2 SLP134 T02060089=
201208310053 METAR KSEA 310053Z 29006KT 10SM FEW050 SCT200 22/09 A2991 RMK AO2 SLP134 T02170089=
201208302353 METAR KSEA 302353Z 00000KT 10SM FEW040 SCT200 22/08 A2993 RMK AO2 SLP138 T02220078 10228 20172 58018=
201208302253 METAR KSEA 302253Z 00000KT 10SM FEW030 SCT200 22/09 A2994 RMK AO2 SLP144 T02170089=
201208302153 METAR KSEA 302153Z VRB05KT 10SM FEW030 SCT200 21/09 A2996=
201208302053 METAR KSEA 302053Z 26007KT 10SM SCT030 SCT150 21/09 A2998 RMK AO2 SLP156 T02060094 58013=
201208301953 METAR KSEA 301953Z 28005KT 10SM SCT025 SCT180 19/11 A2999 RMK AO2 SLP160 T01940106=
201208301900 METAR KSEA NIL=
201208301853 METAR KSEA 301853Z 00000KT 10SM SCT020 18/11 A3001 RMK AO2 SLP166 T01830106=
201208301800 METAR KSEA NIL=
201208301753 METAR KSEA 301753Z 19005KT 10SM SCT015 17/11 A3002 RMK AO2 SLP169 T01720111 10172 20128 57005=
201208301653 METAR KSEA 301653Z 16004KT 10SM FEW009 SCT023 BKN045 16/11 A3002 RMK AO2 SLP171 T01610111=
201208301639 SPECI KSEA 301639Z 20003KT 10SM FEW009 SCT023 BKN045 16/11 A3002 RMK AO2=
201208301614 SPECI KSEA 301614Z 20004KT 10SM FEW005 SCT014 BKN025 14/11 A3002 RMK AO2=
201208301553 METAR KSEA 301553Z 20005KT 10SM FEW005 BKN014 BKN025 14/11 A3003 RMK AO2 SLP173 T01440111=
201208301453 METAR KSEA 301453Z 00000KT 10SM FEW005 BKN014 OVC025 14/12 A3003 RMK AO2 SLP175 T01390117 55000=
201208301437 SPECI KSEA 301437Z 24003KT 10SM FEW008 BKN014 BKN025 14/11 A3003 RMK AO2=
201208301353 METAR KSEA 301353Z 00000KT 10SM FEW015 BKN025 BKN055 13/11 A3003 RMK AO2 SLP173 T01330111=
201208301253 METAR KSEA 301253Z 00000KT 10SM BKN015 BKN055 13/11 A3002 RMK AO2 SLP172 T01330111=
201208301222 SPECI KSEA 301222Z 00000KT 10SM BKN015 BKN055 13/11 A3003 RMK AO2=
201208301153 METAR KSEA 301153Z 00000KT 10SM BKN055 14/11 A3003 RMK AO2 SLP173 T01390111 10167 20139 56008=
201208301053 METAR KSEA 301053Z 00000KT 10SM FEW040 OVC055 14/11 A3004 RMK AO2 SLP176 T01440111=
201208300953 METAR KSEA 300953Z 00000KT 10SM SCT040 BKN060 15/11 A3004 RMK AO2 SLP178 T01500111=
201208300853 METAR KSEA 300853Z 00000KT 10SM FEW041 OVC060 16/11 A3005 RMK AO2 SLP181 T01560111 58009=
201208300753 METAR KSEA 300753Z 18003KT 10SM SCT041 OVC060 16/11 A3007 RMK AO2 SLP185 T01560111 402280133=
201208300653 METAR KSEA 300653Z 00000KT 10SM BKN043 OVC060 16/11 A3007 RMK AO2 SLP188 T01610111=
201208300553 METAR KSEA 300553Z 00000KT 10SM BKN060 16/11 A3008 RMK AO2 SLP191 T01560106 10222 20150 50004=
201208300453 METAR KSEA 300453Z 24003KT 10SM SCT070 17/11 A3008 RMK AO2 SLP193 T01670106=
201208300353 METAR KSEA 300353Z 25005KT 10SM FEW030 SCT080 18/10 A3008 RMK AO2 SLP190 T01830100=
201208300253 METAR KSEA 300253Z 23004KT 10SM FEW030 SCT085 19/10 A3007 RMK AO2 SLP187 T01940100 58009=
201208300153 METAR KSEA 300153Z 21006KT 10SM FEW030 BKN095 21/09 A3008 RMK AO2 SLP190 T02060089=
201208300053 METAR KSEA 300053Z 24005KT 10SM FEW030 BKN095 21/09 A3009 RMK AO2 SLP194 T02110089=
201208292353 METAR KSEA 292353Z 27005KT 10SM FEW030 SCT100 22/08 A3009 RMK AO2 SLP195 SHRA NW T02170083 10228 20178 56011 $=
201208292253 METAR KSEA 292253Z VRB06KT 10SM FEW030 SCT095 22/08 A3010 RMK AO2 SLP198 T02220083 $=
201208292153 METAR KSEA 292153Z 22008KT 10SM FEW030 BKN090 22/08 A3012 RMK AO2 SLP203 T02170083 $=
201208292053 METAR KSEA 292053Z VRB05KT 10SM FEW030 BKN090 21/09 A3013 RMK AO2 SLP206 T02110089 58012 $=
201208291953 METAR KSEA 291953Z 20007KT 170V240 10SM FEW028 BKN090 21/09 A3014 RMK AO2 SLP210 T02060094=
201208291853 METAR KSEA 291853Z 16007KT 10SM SCT025 SCT055 BKN085 19/10 A3015 RMK AO2 SLP214 T01940100=
201208291803 SPECI KSEA 291803Z VRB05KT 10SM SCT021 BKN050 BKN085 18/11 A3016 RMK AO2=
201208291753 METAR KSEA 291753Z 16006KT 10SM BKN021 BKN050 BKN085 18/11 A3016 RMK AO2 SLP219 T01780106 10178 20133 53009=
201208291713 SPECI KSEA 291713Z 17005KT 10SM FEW015 BKN024 BKN050 17/11 A3016 RMK AO2=
201208291653 METAR KSEA 291653Z 19007KT 10SM FEW012 SCT019 BKN050 17/11 A3015 RMK AO2 SLP215 T01720111=
201208291553 METAR KSEA 291553Z 19005KT 10SM FEW011 BKN042 BKN080 16/12 A3014 RMK AO2 SLP213 T01560117=
201208291538 SPECI KSEA 291538Z 18006KT 10SM SCT011 BKN042 BKN080 16/12 A3014 RMK AO2=
201208291500 SPECI KSEA 291500Z 22006KT 10SM FEW009 BKN020 BKN080 15/12 A3014 RMK AO2=
201208291453 METAR KSEA 291453Z 22006KT 10SM FEW009 BKN020 BKN080 15/12 A3013 RMK AO2 SLP210 T01500117 53008=
201208291439 SPECI KSEA 291439Z 21005KT 10SM FEW009 SCT017 BKN085 14/12 A3013 RMK AO2=
201208291353 METAR KSEA 291353Z 16004KT 10SM BKN011 BKN085 13/11 A3013 RMK AO2 SLP207 T01330111=
201208291346 SPECI KSEA 291346Z 16004KT 10SM BKN011 BKN085 13/11 A3012 RMK AO2=
201208291253 METAR KSEA 291253Z 15003KT 10SM SCT023 BKN080 13/11 A3011 RMK AO2 SLP202 T01330111=
201208291153 METAR KSEA 291153Z 24005KT 10SM SCT023 14/11 A3011 RMK AO2 SLP200 T01390111 10161 20133 51005=
201208291113 SPECI KSEA 291113Z 00000KT 10SM SCT023 BKN080 13/11 A3011 RMK AO2=
201208291053 METAR KSEA 291053Z 15003KT 10SM BKN021 BKN080 14/11 A3011 RMK AO2 SLP200 T01390111=
201208291045 SPECI KSEA 291045Z 15004KT 10SM BKN021 BKN080 14/11 A3011 RMK AO2=
201208291034 SPECI KSEA 291034Z 17003KT 10SM SCT021 BKN060 OVC080 14/11 A3011 RMK AO2=
201208290953 METAR KSEA 290953Z 16004KT 10SM OVC019 14/11 A3010 RMK AO2 SLP198 T01440111=
201208290935 SPECI KSEA 290935Z 24004KT 10SM BKN017 OVC070 14/11 A3010 RMK AO2=
201208290853 METAR KSEA 290853Z 22004KT 10SM FEW012 SCT070 14/11 A3009 RMK AO2 SLP195 T01390111 51007=
201208290753 METAR KSEA 290753Z 22006KT 10SM BKN065 14/11 A3009 RMK AO2 SLP195 T01440111 402280122=
201208290653 METAR KSEA 290653Z 23009KT 10SM BKN075 BKN095 16/11 A3008 RMK AO2 SLP191 T01560106=
201208290553 METAR KSEA 290553Z 22007KT 10SM FEW075 OVC090 16/10 A3007 RMK AO2 SLP189 T01610100 10211 20161 51010=
201208290453 METAR KSEA 290453Z 22006KT 10SM SCT065 BKN085 17/08 A3007 RMK AO2 SLP189 T01670083=
201208290353 METAR KSEA 290353Z 24006KT 10SM SCT075 BKN095 17/08 A3007 RMK AO2 SLP187 T01720083=
201208290253 METAR KSEA 290253Z 22006KT 10SM FEW040 BKN100 19/08 A3004 RMK AO2 SLP178 T01890078 53003=
201208290153 METAR KSEA 290153Z 22006KT 10SM FEW040 BKN100 20/07 A3004 RMK AO2 SLP177 T02000072=
201208290053 METAR KSEA 290053Z 23008KT 10SM FEW040 BKN100 20/08 A3003 RMK AO2 SLP176 T02000078=
201208282353 METAR KSEA 282353Z 25008KT 10SM FEW040 BKN100 21/08 A3003 RMK AO2 SLP174 T02110078 10228 20172 55002=
201208282253 METAR KSEA 282253Z 24007KT 10SM FEW040 BKN100 22/07 A3003 RMK AO2 SLP173 T02220067=
201208282153 METAR KSEA 282153Z 25010KT 10SM FEW040 SCT080 23/07 A3003 RMK AO2 SLP175 T02280067=
201208282053 METAR KSEA 282053Z VRB06KT 10SM FEW040 22/07 A3004 RMK AO2 SLP177 T02170067 57008=
201208281953 METAR KSEA 281953Z 20007KT 10SM FEW045 21/08 A3004 RMK AO2 SLP179 T02060078=
201208281853 METAR KSEA 281853Z 19009KT 10SM FEW035 20/09 A3006 RMK AO2 SLP183 T02000094=
201208281753 METAR KSEA 281753Z 19007KT 10SM SCT047 BKN065 BKN200 17/10 A3006 RMK AO2 SLP186 T01720100 10178 20139 51004=
201208281653 METAR KSEA 281653Z 21007KT 10SM BKN045 BKN065 16/11 A3006 RMK AO2 SLP185 T01610106=
201208281553 METAR KSEA 281553Z 20009KT 10SM OVC065 14/11 A3006 RMK AO2 SLP184 T01440106=
201208281453 METAR KSEA 281453Z 17005KT 10SM FEW055 BKN080 BKN200 14/10 A3005 RMK AO2 SLP182 T01440100 53005=
201208281353 METAR KSEA 281353Z 18004KT 10SM SCT070 BKN080 BKN200 14/10 A3004 RMK AO2 SLP176 T01390100=
201208281253 METAR KSEA 281253Z 19004KT 10SM SCT070 BKN085 14/09 A3003 RMK AO2 SLP173 T01440089=
201208281153 METAR KSEA 281153Z 18004KT 10SM FEW070 OVC080 14/09 A3004 RMK AO2 SLP176 T01440094 10167 20122 58005=
201208281053 METAR KSEA 281053Z 14004KT 10SM OVC085 14/10 A3004 RMK AO2 SLP178 T01390100=
201208280953 METAR KSEA 280953Z 00000KT 10SM OVC080 13/10 A3005 RMK AO2 SLP179 T01330100=
201208280853 METAR KSEA 280853Z 18005KT 10SM SCT110 13/10 A3005 RMK AO2 SLP180 T01280100 53001=
201208280753 METAR KSEA 280753Z 00000KT 10SM SCT075 14/09 A3005 RMK AO2 SLP179 T01390094 402390133=
201208280653 METAR KSEA 280653Z 00000KT 10SM FEW065 16/09 A3004 RMK AO2 SLP178 T01560094=
201208280553 METAR KSEA 280553Z 28004KT 10SM FEW060 16/09 A3005 RMK AO2 SLP179 T01610089 10233 20161 51003=
201208280453 METAR KSEA 280453Z 28003KT 10SM FEW080 SCT200 18/08 A3005 RMK AO2 SLP180 T01780083=
201208280353 METAR KSEA 280353Z 00000KT 10SM FEW030 SCT080 SCT200 19/08 A3005 RMK AO2 SLP179 T01940083=
201208280253 METAR KSEA 280253Z 21004KT 10SM SCT030 SCT080 20/08 A3004 RMK AO2 SLP176 T02000078 57001=
201208280153 METAR KSEA 280153Z 24003KT 10SM SCT030 SCT080 22/08 A3004 RMK AO2 SLP176 T02170078=
201208280053 METAR KSEA 280053Z 26004KT 10SM SCT030 SCT080 22/08 A3004 RMK AO2 SLP176 T02220078=
201208272353 METAR KSEA 272353Z 27007KT 10SM SCT030 SCT080 BKN200 23/08 A3004 RMK AO2 SLP177 T02330078 10239 20189 56008=
201208272253 METAR KSEA 272253Z VRB06KT 10SM SCT030 SCT080 BKN200 24/08 A3004 RMK AO2 SLP178 T02390083=
201208272153 METAR KSEA 272153Z 26007KT 10SM FEW030 SCT080 SCT250 23/09 A3006 RMK AO2 SLP183 T02280089=
201208272053 METAR KSEA 272053Z 27009KT 10SM FEW030 SCT250 22/09 A3006 RMK AO2 SLP185 T02220094 58003=
201208271953 METAR KSEA 271953Z 25007KT 10SM FEW030 SCT250 21/09 A3007 RMK AO2 SLP188 T02060094=
201208271853 METAR KSEA 271853Z 26008KT 10SM FEW027 19/09 A3007 RMK AO2 SLP188 T01940094=
201208271753 METAR KSEA 271753Z 24008KT 10SM FEW026 19/09 A3007 RMK AO2 SLP189 T01890094 10194 20133 51007=
201208271653 METAR KSEA 271653Z 23004KT 10SM FEW025 18/11 A3007 RMK AO2 SLP187 T01780106=
201208271553 METAR KSEA 271553Z 26005KT 10SM FEW023 17/11 A3006 RMK AO2 SLP183 T01670111=
201208271453 METAR KSEA 271453Z 23005KT 10SM FEW022 SCT200 16/11 A3005 RMK AO2 SLP181 T01560111 51009=
201208271353 METAR KSEA 271353Z 00000KT 10SM FEW021 SCT200 13/11 A3004 RMK AO2 SLP178 T01330106=
201208271307 SPECI KSEA 271307Z 20003KT 10SM SCT019 SCT045 SCT200 14/11 A3003 RMK AO2=
201208271253 METAR KSEA 271253Z 00000KT 10SM BKN018 BKN040 BKN085 14/11 A3003 RMK AO2 SLP175 T01440106=
201208271222 SPECI KSEA 271222Z 00000KT 10SM SCT020 BKN040 14/11 A3002 RMK AO2=
201208271153 METAR KSEA 271153Z 00000KT 10SM BKN020 BKN040 15/11 A3002 RMK AO2 SLP172 T01500106 10156 20144 51008=
201208271053 METAR KSEA 271053Z 00000KT 10SM OVC020 15/11 A3002 RMK AO2 SLP170 T01500111=
201208270953 METAR KSEA 270953Z 00000KT 10SM BKN020 OVC027 15/11 A3001 RMK AO2 SLP165 T01500106=
201208270853 METAR KSEA 270853Z 00000KT 10SM BKN015 OVC029 15/11 A3000 RMK AO2 SLP163 T01500111 51013=
201208270753 METAR KSEA 270753Z 00000KT 10SM BKN015 OVC027 15/12 A2999 RMK AO2 SLP160 T01500117 402110122=
201208270653 METAR KSEA 270653Z 25007KT 10SM SCT012 BKN015 OVC030 15/12 A2998 RMK AO2 SLP158 T01500117=
201208270631 SPECI KSEA 270631Z 27006KT 10SM BKN015 BKN040 OVC060 15/11 A2997 RMK AO2=
201208270553 METAR KSEA 270553Z 26003KT 10SM BKN050 OVC060 15/11 A2996 RMK AO2 SLP151 T01500111 10189 20150 51025=
201208270453 METAR KSEA 270453Z 23009KT 10SM BKN065 BKN120 16/10 A2995 RMK AO2 SLP147 T01610100=
201208270353 METAR KSEA 270353Z 23008KT 10SM SCT070 BKN100 BKN120 17/09 A2992 RMK AO2 SLP137 T01670094=
201208270253 METAR KSEA 270253Z 21006KT 10SM FEW048 SCT120 BKN180 18/09 A2988 RMK AO2 SLP125 T01780094 53012=
201208270153 METAR KSEA 270153Z 16004KT 10SM FEW048 BKN180 18/09 A2986 RMK AO2 SLP117 T01830094=
201208270053 METAR KSEA 270053Z 18004KT 10SM SCT046 BKN180 19/09 A2985 RMK AO2 SLP114 T01890094=
201208262353 METAR KSEA 262353Z 24009KT 10SM FEW070 OVC180 18/10 A2985 RMK AO2 SLP112 T01830100 10211 20178 53013=
201208262253 METAR KSEA 262253Z 24010KT 10SM FEW160 OVC200 19/10 A2983 RMK AO2 SLP106 T01890100=
201208262153 METAR KSEA 262153Z 24010KT 10SM SCT160 BKN210 20/11 A2982 RMK AO2 SLP103 T02000106=
201208262053 METAR KSEA 262053Z 21010KT 10SM SCT170 BKN220 20/11 A2981 RMK AO2 SLP099 T02000106 56001=
201208261953 METAR KSEA 261953Z 22013KT 10SM FEW170 SCT220 20/10 A2981 RMK AO2 SLP098 T02000100=
201208261853 METAR KSEA 261853Z 22011KT 10SM FEW170 SCT220 19/11 A2981 RMK AO2 SLP098 T01890106=
201208261753 METAR KSEA 261753Z 20008KT 10SM FEW180 BKN240 19/10 A2981 RMK AO2 SLP098 T01890100 10189 20122 53005=
201208261653 METAR KSEA 261653Z 20006KT 10SM FEW180 BKN240 16/10 A2980 RMK AO2 SLP096 T01610100=
201208261553 METAR KSEA 261553Z 19005KT 10SM FEW180 BKN240 15/11 A2980 RMK AO2 SLP096 T01500106=
201208261453 METAR KSEA 261453Z 19006KT 10SM SCT170 BKN240 14/10 A2979 RMK AO2 SLP093 T01390100 53005=
201208261353 METAR KSEA 261353Z 19004KT 10SM SCT160 BKN230 12/09 A2979 RMK AO2 SLP090 T01220094=
201208261253 METAR KSEA 261253Z 21005KT 10SM FEW010 BKN230 12/09 A2978 RMK AO2 SLP088 T01220089=
201208261153 METAR KSEA 261153Z 17005KT 10SM SCT250 13/08 A2978 RMK AO2 SLP088 T01280083 10172 20128 50004=
201208261053 METAR KSEA 261053Z 20004KT 10SM SCT250 14/08 A2978 RMK AO2 SLP088 T01440083=
201208260953 METAR KSEA 260953Z 19005KT 10SM FEW250 14/09 A2977 RMK AO2 SLP085 T01440094=
201208260853 METAR KSEA 260853Z 17005KT 10SM FEW250 14/09 A2977 RMK AO2 SLP083 T01440094 53001=
201208260753 METAR KSEA 260753Z 00000KT 10SM FEW250 15/09 A2977 RMK AO2 SLP084 T01500094 402610117=
201208260653 METAR KSEA 260653Z 00000KT 10SM FEW250 17/09 A2976 RMK AO2 SLP081 T01720089=
201208260553 METAR KSEA 260553Z 00000KT 10SM FEW250 17/09 A2976 RMK AO2 SLP083 T01670089 10261 20161 50003=
201208260453 METAR KSEA 260453Z 01007KT 10SM FEW250 19/09 A2976 RMK AO2 SLP083 T01940089=
201208260353 METAR KSEA 260353Z 36004KT 10SM FEW200 19/09 A2976 RMK AO2 SLP083 T01940089=
201208260253 METAR KSEA 260253Z 00000KT 10SM FEW200 21/09 A2975 RMK AO2 SLP080 T02110089 56008=
201208260153 METAR KSEA 260153Z 34005KT 10SM FEW200 24/08 A2976 RMK AO2 SLP081 T02440078=
201208260053 METAR KSEA 260053Z 34005KT 10SM FEW200 26/06 A2977 RMK AO2 SLP083 T02560056=
201208252353 METAR KSEA 252353Z 30007KT 10SM FEW200 25/08 A2978 RMK AO2 SLP087 T02500078 10250 20194 56022=
201208252253 METAR KSEA 252253Z 30007KT 10SM CLR 24/10 A2979 RMK AO2 SLP092 T02440100=
201208252153 METAR KSEA 252153Z 29009KT 10SM FEW200 24/10 A2982 RMK AO2 SLP101 T02390100=
201208252053 METAR KSEA 252053Z 30008KT 10SM CLR 22/09 A2984 RMK AO2 SLP110 T02220094 56019=
201208251953 METAR KSEA 251953Z 30009KT 10SM CLR 22/09 A2986 RMK AO2 SLP116 T02170094=
201208251853 METAR KSEA 251853Z 35006KT 10SM CLR 21/09 A2988 RMK AO2 SLP122 T02110089=
201208251753 METAR KSEA 251753Z 02009KT 10SM CLR 19/09 A2990 RMK AO2 SLP130 T01940089 10194 20117 58011=
201208251653 METAR KSEA 251653Z 01007KT 10SM CLR 17/09 A2992 RMK AO2 SLP137 T01720089=
201208251553 METAR KSEA 251553Z 03007KT 10SM CLR 16/09 A2993 RMK AO2 SLP140 T01610089=
201208251453 METAR KSEA 251453Z 01011KT 10SM CLR 14/09 A2993 RMK AO2 SLP142 T01390089 56007=
201208251353 METAR KSEA 251353Z 03005KT 10SM FEW200 13/09 A2994 RMK AO2 SLP143 T01280089=
201208251253 METAR KSEA 251253Z 04007KT 10SM CLR 12/09 A2994 RMK AO2 SLP144 T01220089=
201208251153 METAR KSEA 251153Z 01007KT 10SM CLR 12/08 A2995 RMK AO2 SLP148 T01170078 10161 20117 56009=
201208251053 METAR KSEA 251053Z 04010KT 10SM CLR 13/08 A2996 RMK AO2 SLP150 T01330078=
201208250953 METAR KSEA 250953Z 03008KT 10SM CLR 14/08 A2997 RMK AO2 SLP152 T01390078=
201208250853 METAR KSEA 250853Z 02010KT 10SM CLR 14/07 A2998 RMK AO2 SLP157 T01390072 58020=
201208250753 METAR KSEA 250753Z 03008KT 10SM CLR 15/07 A3001 RMK AO2 SLP165 T01500072 402220100=
201208250653 METAR KSEA 250653Z 03008KT 10SM CLR 16/07 A3003 RMK AO2 SLP173 T01560072=
201208250553 METAR KSEA 250553Z 02010KT 10SM CLR 16/07 A3004 RMK AO2 SLP178 T01610072 10222 20156 58008=
201208250453 METAR KSEA 250453Z 01008KT 10SM CLR 16/07 A3005 RMK AO2 SLP182 T01560067=
201208250353 METAR KSEA 250353Z 36013KT 10SM CLR 17/07 A3006 RMK AO2 SLP186 T01670072=
201208250253 METAR KSEA 250253Z 34011KT 10SM CLR 17/07 A3007 RMK AO2 SLP186 T01720072 56015=
201208250153 METAR KSEA 250153Z 35014KT 10SM FEW040 20/06 A3007 RMK AO2 SLP188 T02000056=
201208250053 METAR KSEA 250053Z 33012KT 10SM FEW040 21/06 A3009 RMK AO2 SLP194 T02110056=
201208242353 METAR KSEA 242353Z 32008KT 10SM FEW040 22/06 A3011 RMK AO2 SLP202 T02170056 10222 20161 56021=
201208242253 METAR KSEA 242253Z 34008KT 10SM FEW040 22/07 A3013 RMK AO2 SLP207 T02220067=
201208242153 METAR KSEA 242153Z 34010G14KT 300V020 10SM FEW040 21/07 A3015 RMK AO2 SLP215 T02110072=
201208242053 METAR KSEA 242053Z 01009G14KT 10SM FEW035 21/06 A3017 RMK AO2 SLP222 T02110061 56014=
201208241953 METAR KSEA 241953Z 06005KT 10SM FEW030 21/07 A3018 RMK AO2 SLP227 T02060067=
201208241853 METAR KSEA 241853Z 04004KT 10SM FEW030 19/07 A3020 RMK AO2 SLP233 T01890072=
201208241753 METAR KSEA 241753Z 00000KT 10SM FEW030 16/08 A3022 RMK AO2 SLP238 T01560083 10161 20100 50003=
201208241653 METAR KSEA 241653Z 21004KT 10SM FEW029 BKN047 13/08 A3023 RMK AO2 SLP241 T01330078=
201208241553 METAR KSEA 241553Z 15003KT 10SM FEW028 BKN047 13/08 A3022 RMK AO2 SLP238 T01280078=
201208241453 METAR KSEA 241453Z 12003KT 10SM FEW080 12/08 A3021 RMK AO2 SLP235 T01170078 53013=
201208241353 METAR KSEA 241353Z 16003KT 10SM FEW024 10/07 A3019 RMK AO2 SLP229 T01000072=
201208241253 METAR KSEA 241253Z 17003KT 10SM FEW080 10/07 A3018 RMK AO2 SLP226 T01000072=
201208241153 METAR KSEA 241153Z 17003KT 10SM FEW080 10/07 A3017 RMK AO2 SLP222 T01000067 10150 20100 53007=
201208241053 METAR KSEA 241053Z 00000KT 10SM FEW080 12/07 A3016 RMK AO2 SLP219 T01170072=
201208240953 METAR KSEA 240953Z 18004KT 10SM FEW080 12/07 A3015 RMK AO2 SLP215 T01220067=
201208240853 METAR KSEA 240853Z 08004KT 10SM FEW050 SCT080 14/06 A3015 RMK AO2 SLP215 T01390061 51012=
201208240753 METAR KSEA 240753Z 06005KT 10SM SCT050 SCT080 14/06 A3014 RMK AO2 SLP212 T01390061 402110139=
201208240653 METAR KSEA 240653Z 08005KT 10SM BKN060 BKN080 14/07 A3013 RMK AO2 SLP207 T01440067=
201208240553 METAR KSEA 240553Z 07009KT 10SM BKN060 BKN080 15/07 A3011 RMK AO2 SLP203 T01500067 10200 20150 51014=
201208240453 METAR KSEA 240453Z 05011KT 10SM BKN065 BKN080 16/07 A3011 RMK AO2 SLP202 T01560067=
201208240353 METAR KSEA 240353Z 04010KT 10SM SCT050 16/07 A3010 RMK AO2 SLP197 T01560067=
201208240253 METAR KSEA 240253Z 03012KT 10SM SCT050 17/07 A3007 RMK AO2 SLP189 T01670072 55002=
201208240153 METAR KSEA 240153Z 01013KT 10SM FEW040 SCT070 18/08 A3007 RMK AO2 SLP189 T01780078=
201208240053 METAR KSEA 240053Z 01012KT 10SM SCT070 19/08 A3007 RMK AO2 SLP187 T01940078=
201208232353 METAR KSEA 232353Z 02012KT 10SM FEW035 BKN070 19/09 A3008 RMK AO2 SLP191 T01890094 10211 20167 56005=
201208232253 METAR KSEA 232253Z 30005KT 10SM FEW035 BKN075 20/08 A3008 RMK AO2 SLP190 T02000083=
201208232153 METAR KSEA 232153Z 21007KT 10SM SCT034 BKN080 20/08 A3008 RMK AO2 SLP192 T02000083=
201208232053 METAR KSEA 232053Z 18006KT 10SM SCT032 BKN070 19/09 A3009 RMK AO2 SLP195 T01940094 58002=
201208231953 METAR KSEA 231953Z 22006KT 10SM SCT027 BKN035 BKN200 19/09 A3010 RMK AO2 SLP196 T01890094=
201208231853 METAR KSEA 231853Z 28005KT 10SM FEW028 BKN035 BKN048 17/09 A3010 RMK AO2 SLP198 T01720094=
201208231753 METAR KSEA 231753Z 24003KT 10SM SCT025 BKN031 BKN050 17/09 A3010 RMK AO2 SLP198 T01670094 10178 20144 51005=
201208231653 METAR KSEA 231653Z 03003KT 10SM FEW023 SCT031 BKN041 17/09 A3010 RMK AO2 SLP198 T01720094=
201208231553 METAR KSEA 231553Z 08004KT 10SM SCT030 BKN055 BKN070 16/09 A3009 RMK AO2 SLP196 T01560089=
201208231453 METAR KSEA 231453Z 05007KT 10SM BKN070 15/09 A3008 RMK AO2 SLP193 T01500094 52006=
201208231353 METAR KSEA 231353Z 05006KT 10SM BKN065 15/09 A3008 RMK AO2 SLP190 T01500089=
201208231253 METAR KSEA 231253Z 03007KT 10SM OVC060 15/09 A3007 RMK AO2 SLP187 T01500089=
201208231153 METAR KSEA 231153Z 03006KT 10SM OVC065 15/09 A3007 RMK AO2 SLP185 T01500089 10172 20150 51005=
201208231053 METAR KSEA 231053Z 05006KT 10SM FEW045 OVC065 15/08 A3007 RMK AO2 SLP185 T01500083=
201208230953 METAR KSEA 230953Z 03008KT 10SM OVC041 15/08 A3006 RMK AO2 SLP182 T01500083=
201208230853 METAR KSEA 230853Z 02007KT 10SM OVC041 16/08 A3005 RMK AO2 SLP180 T01560083 55003=
201208230753 METAR KSEA 230753Z 03012KT 10SM BKN044 OVC055 16/09 A3005 RMK AO2 SLP181 T01610089 402220133=
201208230653 METAR KSEA 230653Z 02010KT 10SM FEW044 OVC055 17/10 A3005 RMK AO2 SLP182 T01720100=
201208230553 METAR KSEA 230553Z 34005KT 10SM OVC055 17/10 A3006 RMK AO2 SLP185 T01670100 10222 20156 53000=
201208230453 METAR KSEA 230453Z 36006KT 10SM SCT049 17/10 A3006 RMK AO2 SLP184 T01670100=
201208230353 METAR KSEA 230353Z 36005KT 10SM FEW040 18/10 A3006 RMK AO2 SLP184 T01780100=
201208230253 METAR KSEA 230253Z 33006KT 10SM FEW050 SCT200 19/09 A3006 RMK AO2 SLP184 T01890094 56008=
201208230153 METAR KSEA 230153Z 29006KT 10SM FEW045 SCT200 21/09 A3006 RMK AO2 SLP185 T02060089=
201208230053 METAR KSEA 230053Z 30005KT 10SM FEW045 SCT200 22/08 A3007 RMK AO2 SLP188 T02170083=
201208222353 METAR KSEA 222353Z 28006KT 10SM SCT042 SCT200 22/09 A3008 RMK AO2 SLP192 T02220089 10222 20167 58009=
201208222253 METAR KSEA 222253Z 00000KT 10SM SCT039 SCT200 21/08 A3009 RMK AO2 SLP194 T02060083=
201208222153 METAR KSEA 222153Z 32005KT 10SM SCT035 BKN200 21/09 A3010 RMK AO2 SLP198 T02060094=
201208222053 METAR KSEA 222053Z VRB03KT 10SM FEW033 BKN041 BKN200 21/10 A3011 RMK AO2 SLP200 T02110100 58007=
201208221953 METAR KSEA 221953Z 27007KT 10SM BKN032 BKN045 18/11 A3012 RMK AO2 SLP204 T01780106=
201208221853 METAR KSEA 221853Z VRB03KT 10SM SCT029 BKN046 19/10 A3013 RMK AO2 SLP206 T01940100=
201208221835 SPECI KSEA 221835Z 08005KT 10SM SCT027 BKN046 18/10 A3013 RMK AO2=
201208221753 METAR KSEA 221753Z 05004KT 10SM BKN025 BKN040 17/10 A3013 RMK AO2 SLP209 T01720100 10172 20133 53008=
201208221653 METAR KSEA 221653Z 15006KT 10SM BKN018 BKN023 17/10 A3012 RMK AO2 SLP205 T01670100=
201208221627 SPECI KSEA 221627Z 00000KT 10SM SCT016 BKN023 17/11 A3012 RMK AO2=
201208221553 METAR KSEA 221553Z 21003KT 10SM BKN013 OVC024 15/11 A3012 RMK AO2 SLP203 T01500106=
201208221545 SPECI KSEA 221545Z 00000KT 10SM BKN013 OVC028 15/11 A3011 RMK AO2=
201208221525 SPECI KSEA 221525Z 00000KT 10SM OVC028 14/11 A3011 RMK AO2=
201208221453 METAR KSEA 221453Z 20003KT 10SM BKN031 14/11 A3011 RMK AO2 SLP201 T01390106 51008=
201208221353 METAR KSEA 221353Z 00000KT 10SM FEW028 BKN035 14/11 A3010 RMK AO2 SLP198 T01390106=
201208221253 METAR KSEA 221253Z 00000KT 10SM BKN038 BKN060 13/11 A3009 RMK AO2 SLP196 T01330106=
201208221153 METAR KSEA 221153Z 17004KT 10SM BKN034 BKN055 14/11 A3009 RMK AO2 SLP192 T01390106 10172 20139 51008=
201208221053 METAR KSEA 221053Z 00000KT 10SM OVC050 14/11 A3008 RMK AO2 SLP191 T01440111=
201208220953 METAR KSEA 220953Z 19003KT 10SM BKN050 14/11 A3007 RMK AO2 SLP188 T01440106=
201208220853 METAR KSEA 220853Z 06005KT 10SM BKN037 BKN047 17/10 A3006 RMK AO2 SLP184 T01670100 53004=
201208220753 METAR KSEA 220753Z 05009KT 10SM OVC031 17/10 A3006 RMK AO2 SLP183 T01670100 402330133=
201208220653 METAR KSEA 220653Z 05008KT 10SM FEW035 SCT050 OVC075 17/10 A3005 RMK AO2 SLP179 T01670100=
201208220553 METAR KSEA 220553Z 04012KT 10SM BKN035 OVC050 17/10 A3005 RMK AO2 SLP180 T01720100 10222 20172 51007=
201208220453 METAR KSEA 220453Z 04010KT 10SM BKN065 BKN080 18/11 A3004 RMK AO2 SLP178 T01780111=
201208220353 METAR KSEA 220353Z 03010KT 10SM BKN070 19/11 A3004 RMK AO2 SLP178 T01890111=
201208220253 METAR KSEA 220253Z 35005KT 10SM BKN080 18/11 A3003 RMK AO2 SLP174 T01830111 53002=
201208220153 METAR KSEA 220153Z 29003KT 10SM FEW040 BKN080 19/11 A3002 RMK AO2 SLP171 T01940106=
201208220053 METAR KSEA 220053Z 22010KT 10SM FEW035 BKN080 21/09 A3002 RMK AO2 SLP170 T02110094=
201208212353 METAR KSEA 212353Z 22009KT 10SM FEW035 BKN075 22/10 A3002 RMK AO2 SLP171 T02220100 10233 20172 51002=
201208212253 METAR KSEA 212253Z 26005KT 10SM BKN050 20/11 A3002 RMK AO2 SLP172 T02000111=
201208212153 METAR KSEA 212153Z 25008KT 10SM BKN050 20/11 A3002 RMK AO2 SLP172 T02000106=
201208212053 METAR KSEA 212053Z 23010KT 10SM FEW023 SCT045 22/11 A3002 RMK AO2 SLP169 T02170106 58003=
201208211953 METAR KSEA 211953Z 22008KT 10SM FEW021 BKN047 19/11 A3002 RMK AO2 SLP172 T01940111=
201208211853 METAR KSEA 211853Z 23006KT 10SM FEW019 BKN040 18/12 A3003 RMK AO2 SLP172 T01830117=
201208211753 METAR KSEA 211753Z 21007KT 10SM FEW018 SCT040 BKN200 18/12 A3003 RMK AO2 RAB14E20 SLP174 P0000 60000 T01780117 10178 20133 53008=
201208211653 METAR KSEA 211653Z 16006KT 10SM BKN036 BKN045 17/12 A3002 RMK AO2 SLP169 T01720117=
201208211553 METAR KSEA 211553Z 22005KT 10SM FEW033 BKN045 16/11 A3001 RMK AO2 SLP167 T01560111=
201208211453 METAR KSEA 211453Z 18003KT 10SM BKN043 15/12 A3000 RMK AO2 SLP164 T01500117 53006=
201208211353 METAR KSEA 211353Z 22004KT 10SM OVC041 15/12 A2999 RMK AO2 SLP159 T01500117=
201208211253 METAR KSEA 211253Z 00000KT 10SM OVC043 14/11 A2999=
201208211153 METAR KSEA 211153Z 00000KT 10SM SCT200 14/11 A2999 RMK AO2 SLP158 T01390106 10172 20133 53001=
201208211053 METAR KSEA 211053Z 00000KT 10SM SCT200 14/11 A2998 RMK AO2 SLP158 T01390106=
201208210953 METAR KSEA 210953Z 00000KT 10SM SCT200 14/11 A2998 RMK AO2 SLP157 T01440111=
201208210853 METAR KSEA 210853Z 33003KT 10SM BKN200 16/11 A2998 RMK AO2 SLP157 T01560106 53003=
201208210753 METAR KSEA 210753Z 03005KT 10SM BKN200 17/11 A2998 RMK AO2 SLP155 T01720106 402560150=
201208210653 METAR KSEA 210653Z 35005KT 10SM SCT200 17/11 A2997 RMK AO2 SLP154 T01670106=
201208210553 METAR KSEA 210553Z 29005KT 10SM SCT200 17/11 A2997 RMK AO2 SLP154 T01670106 10256 20167 51005=
201208210453 METAR KSEA 210453Z 35007KT 10SM SCT220 18/11 A2997 RMK AO2 SLP153 T01830111=
201208210353 METAR KSEA 210353Z 29004KT 10SM SCT220 20/11 A2996 RMK AO2 SLP151 T02000111=
201208210253 METAR KSEA 210253Z 21004KT 10SM BKN220 23/10 A2996 RMK AO2 SLP149 T02280100 56010=
201208210153 METAR KSEA 210153Z 21005KT 10SM FEW040 SCT250 24/10 A2996=
201208210053 METAR KSEA 210053Z 20004KT 10SM FEW040 SCT230 24/11 A2998 RMK AO2 SLP155 T02440106=
201208202353 METAR KSEA 202353Z 29005KT 10SM FEW040 SCT230 25/11 A2999 RMK AO2 SLP159 T02500106 10250 20194 56015=
201208202253 METAR KSEA 202253Z 29005KT 10SM FEW035 BKN230 24/11 A3000 RMK AO2 SLP164 T02390106=
201208202153 METAR KSEA 202153Z 29006KT 10SM FEW035 SCT180 BKN230 23/11 A3002 RMK AO2 SLP169 T02330111=
201208202053 METAR KSEA 202053Z 29007KT 10SM FEW035 BKN180 BKN230 23/11 A3003 RMK AO2 SLP174 T02330111 56012=
201208201953 METAR KSEA 201953Z 28007KT 10SM FEW030 SCT200 23/11 A3004 RMK AO2 SLP175 T02280111=
201208201853 METAR KSEA 201853Z 30004KT 10SM FEW030 SCT230 21/11 A3006=
201208201753 METAR KSEA 201753Z VRB03KT 10SM FEW030 BKN230 20/12 A3007 RMK AO2 SLP186 T02000122 10200 20150 52008=
201208201653 METAR KSEA 201653Z 00000KT 10SM BKN200 18/12 A3006 RMK AO2 SLP183 T01830122=
201208201553 METAR KSEA 201553Z 18003KT 10SM FEW045 BKN200 17/12 A3005 RMK AO2 SLP181 T01670122=
201208201453 METAR KSEA 201453Z 00000KT 10SM SCT045 BKN200 16/12 A3004 RMK AO2 SLP178 T01560117 55001=
201208201353 METAR KSEA 201353Z 00000KT 10SM BKN045 BKN200 15/12 A3004 RMK AO2 SLP177 T01500117=
201208201253 METAR KSEA 201253Z 00000KT 10SM OVC045 15/12 A3004 RMK AO2 SLP177 T01500117=
201208201153 METAR KSEA 201153Z 14004KT 10SM FEW016 OVC045 16/12 A3005 RMK AO2 SLP179 T01610117 10172 20150 58003=
201208201053 METAR KSEA 201053Z 10004KT 10SM SCT016 OVC040 17/12 A3006 RMK AO2 SLP184 T01670122=
201208200953 METAR KSEA 200953Z 00000KT 10SM BKN016 OVC040 16/12 A3006 RMK AO2 SLP183 T01560117=
201208200927 SPECI KSEA 200927Z 28003KT 10SM BKN016 OVC040 15/12 A3005 RMK AO2=
201208200853 METAR KSEA 200853Z 00000KT 10SM OVC039 15/12 A3006 RMK AO2 SLP184 T01500117 53004=
201208200753 METAR KSEA 200753Z 00000KT 10SM FEW037 16/11 A3005 RMK AO2 SLP179 T01560111 402330150=
201208200653 METAR KSEA 200653Z 02004KT 10SM FEW037 17/12 A3005 RMK AO2 SLP179 T01720117=
201208200553 METAR KSEA 200553Z 35005KT 10SM FEW037 16/12 A3004 RMK AO2 SLP179 T01610117 10233 20161 51013=
201208200453 METAR KSEA 200453Z 35005KT 10SM BKN037 17/12 A3004 RMK AO2 SLP177 T01720117=
201208200353 METAR KSEA 200353Z 00000KT 10SM SCT029 19/12 A3003 RMK AO2 SLP173 T01890122=
201208200253 METAR KSEA 200253Z 18005KT 10SM FEW030 BKN250 21/13 A3001 RMK AO2 SLP165 T02110128 55002=
201208200153 METAR KSEA 200153Z 14005KT 10SM FEW030 SCT200 22/13 A3000 RMK AO2 SLP163 T02220128=
201208200053 METAR KSEA 200053Z 23005KT 10SM FEW029 23/12 A3000 RMK AO2 SLP164 T02280117=
201208192353 METAR KSEA 192353Z 19009KT 10SM FEW029 SCT200 22/12 A3001 RMK AO2 SLP167 T02220122 10228 20178 58012=
201208192302 SPECI KSEA 192302Z 19006KT 10SM SCT029 22/12 A3002 RMK AO2=
201208192253 SPECI KSEA 192253Z 19006KT 10SM BKN029 22/12 A3002 RMK AO2 SLP171 T02170117=
201208192253 METAR KSEA 192253Z 19006KT 10SM BKN029 22/12 A3002=
201208192153 METAR KSEA 192153Z 20006KT 10SM OVC027 20/12 A3004 RMK AO2 SLP176 T02000117=
201208192053 METAR KSEA 192053Z 19006KT 10SM OVC031 19/12 A3005 RMK AO2 SLP179 T01940117 58002=
201208191953 METAR KSEA 191953Z 21006KT 10SM SCT024 OVC033 19/12 A3005 RMK AO2 SLP180 T01940117=
201208191937 SPECI KSEA 191937Z 22006KT 10SM SCT024 OVC033 19/11 A3005 RMK AO2=
201208191853 METAR KSEA 191853Z 20008KT 10SM FEW010 BKN024 OVC035 19/11 A3005 RMK AO2 SLP181 T01890111=
201208191753 METAR KSEA 191753Z 23005KT 10SM FEW010 OVC022 18/11 A3005 RMK AO2 SLP182 T01780111 10183 20156 51006=
201208191653 METAR KSEA 191653Z 23003KT 10SM OVC020 17/12 A3005 RMK AO2 SLP180 T01720117=
201208191553 METAR KSEA 191553Z 22007KT 10SM OVC018 17/12 A3004 RMK AO2 SLP178 T01670117=
201208191453 METAR KSEA 191453Z 22005KT 10SM BKN018 OVC028 16/12 A3003 RMK AO2 SLP176 T01610117 53007=
201208191353 METAR KSEA 191353Z 21007KT 10SM BKN016 BKN026 16/12 A3002 RMK AO2 SLP169 T01560122=
201208191253 METAR KSEA 191253Z 21007KT 10SM OVC016 16/13 A3002=
201208191234 SPECI KSEA 191234Z 21006KT 10SM OVC016 16/13 A3001 RMK AO2=
201208191153 METAR KSEA 191153Z 21007KT 10SM OVC012 16/13 A3001 RMK AO2 SLP167 T01560128 10167 20156 50008=
201208191138 SPECI KSEA 191138Z 21007KT 10SM OVC010 16/13 A3001 RMK AO2=
201208191053 METAR KSEA 191053Z COR 20006KT 6SM BR OVC005 16/13 A3001 RMK AO2 SLP168 T01560128=
201208190953 METAR KSEA 190953Z 21004KT 6SM BR OVC005 16/13 A3000 RMK AO2 SLP163 T01560133=
201208190853 METAR KSEA 190853Z 22006KT 10SM OVC005 16/14 A2999 RMK AO2 SLP159 T01610139 51015=
201208190753 METAR KSEA 190753Z 20008KT 10SM OVC003 17/14 A2998 RMK AO2 SLP156 T01670144 402170144=
201208190653 METAR KSEA 190653Z 21006KT 10SM OVC003 17/14 A2996 RMK AO2 SLP150 T01670144=
201208190615 SPECI KSEA 190615Z 22010KT 10SM BKN005 OVC020 17/14 A2995 RMK AO2=
201208190553 METAR KSEA 190553Z 20008KT 10SM FEW005 SCT020 BKN160 17/14 A2994 RMK AO2 SLP145 T01670144 10206 20167 51017=
201208190453 METAR KSEA 190453Z 20008KT 10SM BKN160 17/14 A2994 RMK AO2 SLP143 T01670144=
201208190353 METAR KSEA 190353Z 24004KT 10SM BKN160 18/14 A2992 RMK AO2 SLP137 T01780144=
201208190253 METAR KSEA 190253Z 29006KT 10SM BKN150 18/14 A2989 RMK AO2 SLP128 T01830144 56021=
201208190153 METAR KSEA 190153Z 35006KT 10SM SCT120 BKN200 21/14 A2990 RMK AO2 SLP129 T02060144=
201208190053 METAR KSEA 190053Z 30006KT 10SM SCT120 BKN200 21/14 A2993 RMK AO2 SLP138 T02060144=
201208182353 METAR KSEA 182353Z 29005KT 10SM SCT070 BKN170 20/14 A2996 RMK AO2 SLP148 T02000144 10217 20167 58006=
201208182253 METAR KSEA 182253Z 28003KT 10SM SCT070 BKN160 20/14 A2997 RMK AO2 SLP154 T02000144=
201208182153 METAR KSEA 182153Z 23005KT 10SM FEW015 SCT060 BKN150 21/14 A2998 RMK AO2 SLP155 T02060144=
201208182053 METAR KSEA 182053Z 19003KT 10SM FEW015 SCT060 BKN150 19/14 A2997 RMK AO2 SLP154 T01940139 58005=
201208181953 METAR KSEA 181953Z 19006KT 10SM SCT015 SCT050 BKN170 19/14 A2998 RMK AO2 SLP156 T01890139=
201208181940 SPECI KSEA 181940Z 17006KT 10SM FEW009 SCT015 BKN050 18/14 A2999 RMK AO2=
201208181853 METAR KSEA 181853Z 21009KT 10SM OVC007 17/13 A3000 RMK AO2 SLP162 T01720133=
201208181753 METAR KSEA 181753Z 21004KT 10SM OVC005 17/13 A2999 RMK AO2 SLP159 T01720133 10172 20144 58000=
201208181731 SPECI KSEA 181731Z 20004KT 2SM OVC005 17/13 A3000 RMK AO2 SFC VIS 10=
201208181653 METAR KSEA 181653Z 23003KT 2SM OVC003 16/13 A2999 RMK AO2 SFC VIS 9 SLP160 T01560133=
201208181637 SPECI KSEA 181637Z 21005KT 1/2SM OVC003 16/13 A2999 RMK AO2 SFC VIS 7=
201208181553 METAR KSEA 181553Z 22006KT 1/2SM R16L/4500VP6000FT BR OVC001 15/13 A3000 RMK AO2 SFC VIS 3 SLP164 T01500133=
201208181512 SPECI KSEA 181512Z 21005KT 1/2SM BR OVC001 15/13 A2999 RMK AO2 SFC VIS 2=
201208181453 METAR KSEA 181453Z 23004KT 1/2SM BR OVC003 15/13 A2999 RMK AO2 SFC VIS 4 SLP159 T01500133 55002=
201208181353 METAR KSEA 181353Z 22004KT 1/2SM BR OVC003 14/13 A2998 RMK AO2 SFC VIS 6 SLP155 T01440133=
201208181253 METAR KSEA 181253Z 20006KT 1/2SM BR OVC003 15/13 A2999 RMK AO2 SFC VIS 6 SLP160 T01500133=
201208181153 METAR KSEA 181153Z 22006KT 1/2SM OVC003 15/13 A3000 RMK AO2 SFC VIS 7 SLP160 T01500133 10200 20150 51008=
201208181151 SPECI KSEA 181151Z 22007KT 1/2SM OVC003 15/13 A3000 RMK AO2 SFC VIS 10=
201208181053 METAR KSEA 181053Z 20008KT 3SM OVC003 16/13 A2999 RMK AO2 SFC VIS 10 SLP159 T01560133=
201208181038 SPECI KSEA 181038Z 19006KT 10SM BKN003 16/13 A2999 RMK AO2=
201208180953 METAR KSEA 180953Z 21007KT 10SM FEW005 16/13 A2998 RMK AO2 SLP155 T01560133=
201208180853 METAR KSEA 180853Z 20008KT 10SM CLR 17/13 A2997 RMK AO2 SLP152 T01670133 53013=
201208180753 METAR KSEA 180753Z 26003KT 10SM CLR 18/12 A2995 RMK AO2 SLP146 T01830122 403280161=
201208180653 METAR KSEA 180653Z 26003KT 10SM CLR 20/12 A2994 RMK AO2 SLP140 T02000122=
201208180553 METAR KSEA 180553Z 31005KT 10SM CLR 19/13 A2993=
201208180453 METAR KSEA 180453Z 28004KT 10SM CLR 23/14 A2993 RMK AO2 SLP137 T02330139=
201208180353 METAR KSEA 180353Z 00000KT 10SM FEW160 26/14 A2992 RMK AO2 SLP135 T02560139=
201208180253 METAR KSEA 180253Z 30005KT 10SM FEW160 28/12 A2991 RMK AO2 SLP132 T02830117 56007=
201208180153 METAR KSEA 180153Z 30005KT 10SM FEW160 31/13 A2991 RMK AO2 SLP133 T03110133=
201208180053 METAR KSEA 180053Z 28006KT 10SM FEW160 32/13 A2992 RMK AO2 SLP135 T03170128=
201208172353 METAR KSEA 172353Z 29006KT 10SM FEW140 SCT250 33/11 A2993 RMK AO2 SLP139 T03280111 10328 20244 57013=
201208172253 METAR KSEA 172253Z 27006KT 10SM FEW140 SCT250 32/11 A2995 RMK AO2 SLP144 T03170111=
201208172153 METAR KSEA 172153Z 28006KT 10SM FEW140 SCT250 31/12 A2996 RMK AO2 SLP148 T03110122=
201208172053 METAR KSEA 172053Z 27006KT 10SM FEW120 SCT250 29/12 A2997 RMK AO2 SLP152 T02890117 58007=
201208171953 METAR KSEA 171953Z 26004KT 10SM FEW080 SCT250 28/13 A2998 RMK AO2 SLP155 T02780133=
201208171853 METAR KSEA 171853Z 00000KT 10SM FEW080 SCT250 26/13 A2999 RMK AO2 SLP157 T02610128=
201208171753 METAR KSEA 171753Z 29005KT 10SM FEW250 24/14 A2999 RMK AO2 SLP160 T02390139 10244 20161 50002=
201208171653 METAR KSEA 171653Z 00000KT 10SM FEW250 22/14 A2999 RMK AO2 SLP160 T02220139=
201208171553 METAR KSEA 171553Z 00000KT 10SM FEW250 20/13 A2999 RMK AO2 SLP160 T02000133=
201208171453 METAR KSEA 171453Z 21004KT 10SM FEW250 18/13 A2999=
201208171353 METAR KSEA 171353Z 18003KT 10SM FEW250 17/13 A2997 RMK AO2 SLP153 T01670133=
201208171253 METAR KSEA 171253Z 15003KT 10SM FEW250 17/13 A2996 RMK AO2 SLP149 T01670133=
201208171153 METAR KSEA 171153Z 18003KT 10SM CLR 17/13 A2996 RMK AO2 SLP149 T01670133 10244 20167 51007=
201208171053 METAR KSEA 171053Z 18006KT 10SM CLR 18/13 A2996 RMK AO2 SLP147 T01780133=
201208170953 METAR KSEA 170953Z 17003KT 10SM CLR 19/13 A2995 RMK AO2 SLP144 T01890133=
201208170853 METAR KSEA 170853Z 00000KT 10SM CLR 21/13 A2994 RMK AO2 SLP141 T02060133 53006=
201208170753 METAR KSEA 170753Z 00000KT 10SM CLR 21/14 A2993 RMK AO2 SLP139 T02060139 403440183=
201208170653 METAR KSEA 170653Z 00000KT 10SM CLR 23/13 A2992 RMK AO2 SLP134 T02280128=
201208170553 METAR KSEA 170553Z 31003KT 10SM CLR 23/12 A2992 RMK AO2 SLP135 T02280122 10344 20222 51009=
201208170453 METAR KSEA 170453Z 36006KT 10SM CLR 24/12 A2992 RMK AO2 SLP133 T02440122=
201208170353 METAR KSEA 170353Z 35006KT 10SM CLR 26/12 A2991 RMK AO2 SLP131 T02610122=
201208170253 METAR KSEA 170253Z 33005KT 10SM CLR 29/13 A2989=
201208170153 METAR KSEA 170153Z 35007KT 10SM CLR 32/11 A2989 RMK AO2 SLP124 T03220106=
201208170053 METAR KSEA 170053Z 35007KT 10SM CLR 34/09 A2989 RMK AO2 SLP124 T03390094=
201208162353 METAR KSEA 162353Z 29005KT 10SM CLR 33/11 A2990 RMK AO2 SLP128 T03280106 10344 20272 58012=
201208162253 METAR KSEA 162253Z 27006KT 10SM CLR 33/12 A2991 RMK AO2 SLP132 T03330117=
201208162153 METAR KSEA 162153Z 29008KT 10SM CLR 33/12 A2993=
201208162053 METAR KSEA 162053Z 28008KT 10SM CLR 32/12 A2994=
201208161953 METAR KSEA 161953Z 02006KT 10SM CLR 32/11 A2995 RMK AO2 SLP143 T03170111=
201208161853 METAR KSEA 161853Z 29004KT 10SM CLR 30/13 A2995 RMK AO2 SLP144 T03000133=
201208161753 METAR KSEA 161753Z 29005KT 10SM CLR 27/13 A2996 RMK AO2 SLP146 T02720133 10278 20183 51002=
201208161653 METAR KSEA 161653Z 36007KT 10SM CLR 26/12 A2996 RMK AO2 SLP146 T02610122=
201208161553 METAR KSEA 161553Z 35008KT 10SM CLR 24/13 A2995 RMK AO2 SLP146 T02390133=
201208161453 METAR KSEA 161453Z 01008KT 10SM CLR 22/13 A2995 RMK AO2 SLP145 T02170128 53009=
201208161353 METAR KSEA 161353Z 00000KT 10SM CLR 20/12 A2994 RMK AO2 SLP141 T02000122=
201208161253 METAR KSEA 161253Z 00000KT 10SM CLR 19/11 A2993 RMK AO2 SLP137 T01890111=
201208161153 METAR KSEA 161153Z 03007KT 10SM CLR 21/11 A2992 RMK AO2 SLP135 T02060111 10250 20206 51002=
201208161053 METAR KSEA 161053Z 03007KT 10SM CLR 22/11 A2992 RMK AO2 SLP134 T02170106=
201208160953 METAR KSEA 160953Z 03008KT 10SM CLR 22/09 A2992 RMK AO2 SLP135 T02220094=
201208160853 METAR KSEA 160853Z 04008KT 10SM CLR 23/10 A2992 RMK AO2 SLP133 T02280100 50007=
201208160753 METAR KSEA 160753Z 03004KT 10SM CLR 23/09 A2992 RMK AO2 SLP134 T02280094 403110167=
201208160653 METAR KSEA 160653Z 04010KT 10SM CLR 24/09 A2991 RMK AO2 SLP130 T02440089=
201208160553 METAR KSEA 160553Z 02013KT 10SM CLR 25/10 A2989=
201208160453 METAR KSEA 160453Z 01010KT 10SM CLR 25/10 A2989 RMK AO2 SLP125 T02500100=
201208160353 METAR KSEA 160353Z 35009KT 10SM CLR 24/11 A2988 RMK AO2 SLP122 T02390106=
201208160253 METAR KSEA 160253Z 36009KT 10SM CLR 27/11 A2987 RMK AO2 SLP118 T02670111 55007=
201208160153 METAR KSEA 160153Z 36009KT 10SM CLR 28/11 A2987 RMK AO2 SLP117 T02830111=
201208160053 METAR KSEA 160053Z 35009KT 10SM CLR 29/12 A2988 RMK AO2 SLP120 T02940117=
201208152353 METAR KSEA 152353Z 35009KT 10SM CLR 31/12 A2989 RMK AO2 SLP125 T03060117 10311 20244 56015=
201208152253 METAR KSEA 152253Z 35012KT 10SM CLR 31/11 A2990 RMK AO2 SLP128 T03060111=
201208152153 METAR KSEA 152153Z 36012G17KT 10SM CLR 29/12 A2992 RMK AO2 SLP136 T02940117=
201208152053 METAR KSEA 152053Z 36009G15KT 10SM CLR 29/12 A2994 RMK AO2 SLP141 T02890122 58009=
201208151953 METAR KSEA 151953Z 36010KT 10SM CLR 27/13 A2995 RMK AO2 SLP145 T02720133=
201208151853 METAR KSEA 151853Z 01008KT 10SM CLR 26/14 A2996 RMK AO2 SLP148 T02560139=
201208151753 METAR KSEA 151753Z 36010KT 10SM CLR 24/14 A2996=
201208151653 METAR KSEA 151653Z 02013KT 10SM CLR 22/13 A2997 RMK AO2 SLP151 T02220133=
201208151553 METAR KSEA 151553Z 02012KT 10SM CLR 20/13 A2997 RMK AO2 SLP151 T02000133=
201208151453 METAR KSEA 151453Z 36010KT 10SM CLR 19/14 A2996 RMK AO2 SLP149 T01890139 51006=
201208151353 METAR KSEA 151353Z 02006KT 10SM CLR 17/13 A2996=
201208151253 METAR KSEA 151253Z 02007KT 10SM CLR 17/13 A2995 RMK AO2 SLP144 T01670133=
201208151153 METAR KSEA 151153Z 02008KT 10SM CLR 17/13 A2994 RMK AO2 SLP142 T01720133 10200 20172 51005=
201208151053 METAR KSEA 151053Z 02006KT 10SM CLR 17/13 A2994 RMK AO2 SLP140 T01720133=
201208150953 METAR KSEA 150953Z 03009KT 10SM CLR 18/13 A2993 RMK AO2 SLP140 T01780133=
201208150853 METAR KSEA 150853Z 02008KT 10SM CLR 18/13 A2993 RMK AO2 SLP137 T01830133 50000=
201208150753 METAR KSEA 150753Z 03009KT 10SM CLR 19/13 A2993 RMK AO2 SLP139 T01890133 402890139=
201208150653 METAR KSEA 150653Z 01009KT 10SM CLR 19/13 A2992 RMK AO2 SLP137 T01940133=
201208150553 METAR KSEA 150553Z 36007KT 10SM CLR 19/13 A2993 RMK AO2 SLP138 T01940133 10278 20194 50007=
201208150453 METAR KSEA 150453Z 36007KT 10SM CLR 20/14 A2993 RMK AO2 SLP138 T02000139=
201208150353 METAR KSEA 150353Z 36009KT 10SM FEW250 21/14 A2992 RMK AO2 SLP135 T02110139=
201208150253 METAR KSEA 150253Z 34007KT 10SM FEW250 23/14 A2990 RMK AO2 SLP130 T02280139 55006=
201208150153 METAR KSEA 150153Z 34010KT 10SM FEW040 26/14 A2990 RMK AO2 SLP130 T02560139=
201208150053 METAR KSEA 150053Z 35007KT 10SM FEW040 27/14 A2991 RMK AO2 SLP132 T02720139=
201208142353 METAR KSEA 142353Z 34009KT 10SM FEW040 28/15 A2992 RMK AO2 SLP135 T02780150 10289 20211 56011=
201208142253 METAR KSEA 142253Z 36006KT 10SM FEW040 28/14 A2993 RMK AO2 SLP138 T02780144=
201208142153 METAR KSEA 142153Z 30009KT 10SM FEW040 27/13 A2994 RMK AO2 SLP143 T02720128=
201208142053 METAR KSEA 142053Z 29007KT 10SM FEW040 25/14 A2996 RMK AO2 SLP148 T02500144 56010=
201208141953 METAR KSEA 141953Z 26005KT 10SM FEW200 23/13 A2996 RMK AO2 SLP150 T02330133=
201208141853 METAR KSEA 141853Z 26004KT 10SM FEW200 22/12 A2998 RMK AO2 SLP155 T02220117=
201208141753 METAR KSEA 141753Z VRB06KT 10SM FEW200 22/13 A2999 RMK AO2 SLP159 T02170128 10217 20139 58006=
201208141653 METAR KSEA 141653Z 25004KT 10SM SCT200 19/13 A3000 RMK AO2 SLP163 T01890128=
201208141553 METAR KSEA 141553Z 00000KT 10SM FEW200 18/13 A3000 RMK AO2 SLP163 FG BANK W-NW T01780133=
201208141500 METAR KSEA NIL=
201208141453 METAR KSEA 141453Z 30003KT 10SM FEW200 17/13 A3001 RMK AO2 SLP164 FG BANK S-W T01720128 50003=
201208141353 METAR KSEA 141353Z 31003KT 10SM FEW200 14/12 A3001 RMK AO2 SLP165 FG BANK S-W T01440122=
201208141253 METAR KSEA 141253Z 00000KT 10SM CLR 14/11 A3000 RMK AO2 SLP162 T01440106=
201208141153 METAR KSEA 141153Z 00000KT 10SM CLR 16/11 A3000=
201208141053 METAR KSEA 141053Z 00000KT 10SM CLR 17/09 A3000 RMK AO2 SLP163 T01670094=
201208140953 METAR KSEA 140953Z 34005KT 10SM CLR 17/09 A3000 RMK AO2 SLP162 T01720089=
201208140853 METAR KSEA 140853Z 33004KT 10SM CLR 17/08 A3000 RMK AO2 SLP163 T01720083 53001=
201208140753 METAR KSEA 140753Z 35006KT 10SM CLR 18/08 A3000 RMK AO2 SLP164 T01780083 403060150=
201208140653 METAR KSEA 140653Z 03013KT 10SM CLR 19/07 A3000 RMK AO2 SLP162 T01940067=
201208140553 METAR KSEA 140553Z 02008KT 10SM CLR 21/06 A3000 RMK AO2 SLP164 T02060056 10306 20206 50003=
201208140453 METAR KSEA 140453Z 04010KT 10SM FEW250 22/05 A3000 RMK AO2 SLP164 T02220050=
201208140353 METAR KSEA 140353Z 03008KT 10SM SCT250 24/07 A3000 RMK AO2 SLP161 T02440072=
201208140253 METAR KSEA 140253Z 01011KT 10SM SCT250 26/07 A2999 RMK AO2 SLP160 T02610067 56004=
201208140153 METAR KSEA 140153Z 02009KT 10SM BKN250 27/04 A2999 RMK AO2 SLP161 T02720044=
201208140053 METAR KSEA 140053Z 36007KT 10SM BKN250 29/10 A3000 RMK AO2 SLP160 T02940100=
201208132353 METAR KSEA 132353Z 35007KT 10SM BKN250 31/11 A3001 RMK AO2 SLP164 T03060106 10306 20222 58008=
201208132253 METAR KSEA 132253Z 30007KT 10SM BKN250 29/11 A3002 RMK AO2 SLP167 T02940106=
201208132153 METAR KSEA 132153Z 29005KT 10SM BKN250 28/09 A3002 RMK AO2 SLP170 T02830094=
201208132053 METAR KSEA 132053Z 32006KT 10SM BKN250 28/11 A3003 RMK AO2 SLP172 T02780111 56004=
201208131953 METAR KSEA 131953Z 29006KT 10SM BKN250 26/13 A3003 RMK AO2 SLP172 T02610128=
201208131853 METAR KSEA 131853Z 28006KT 10SM BKN250 24/13 A3004 RMK AO2 SLP175 T02440133=
201208131753 METAR KSEA 131753Z 26005KT 10SM BKN250 22/14 A3004 RMK AO2 SLP177 T02170139 10222 20150 51003=
201208131653 METAR KSEA 131653Z 28004KT 10SM BKN250 21/14 A3004 RMK AO2 SLP175 T02060144=
201208131553 METAR KSEA 131553Z 28003KT 10SM BKN250 19/14 A3004 RMK AO2 SLP176 T01940144=
201208131453 METAR KSEA 131453Z 00000KT 10SM BKN250 18/14 A3003 RMK AO2 SLP173 T01830139 53009=
201208131353 METAR KSEA 131353Z 00000KT 10SM SCT250 15/13 A3002 RMK AO2 SLP169 T01500128=
201208131253 METAR KSEA 131253Z 00000KT 10SM FEW250 16/13 A3001 RMK AO2 SLP165 T01560128=
201208131153 METAR KSEA 131153Z 00000KT 10SM CLR 16/13 A3000 RMK AO2 SLP164 T01560128 10233 20156 51008=
201208131053 METAR KSEA 131053Z 00000KT 10SM CLR 17/13 A3000 RMK AO2 SLP162 T01670128=
201208130953 METAR KSEA 130953Z 36006KT 10SM CLR 18/13 A3000 RMK AO2 SLP160 T01830128=
201208130853 METAR KSEA 130853Z 01003KT 10SM CLR 19/13 A2998 RMK AO2 SLP156 T01890133 53005=
201208130753 METAR KSEA 130753Z 36005KT 10SM CLR 19/13 A2998 RMK AO2 SLP154 T01940128 403060150=
201208130653 METAR KSEA 130653Z 02003KT 10SM CLR 22/13 A2996=
201208130553 METAR KSEA 130553Z 02006KT 10SM FEW150 23/12 A2997 RMK AO2 SLP151 T02280122 10306 20222 51009=
201208130453 METAR KSEA 130453Z 02006KT 10SM FEW150 24/13 A2996 RMK AO2 SLP148 T02440128=
201208130353 METAR KSEA 130353Z 35004KT 10SM FEW150 24/14 A2995 RMK AO2 SLP146 T02390139=
201208130253 METAR KSEA 130253Z 36005KT 10SM FEW150 26/14 A2994 RMK AO2 SLP141 T02610139 55001=
201208130153 METAR KSEA 130153Z 36008KT 10SM CLR 28/14 A2994=
201208130053 METAR KSEA 130053Z 35009KT 10SM FEW050 30/14 A2993 RMK AO2 SLP140 T03000139=
201208122353 METAR KSEA 122353Z 33009KT 10SM CLR 30/13 A2994 RMK AO2 SLP142 T03000128 10306 20244 57010=
201208122253 METAR KSEA 122253Z 34010KT 10SM CLR 29/13 A2995 RMK AO2 SLP145 T02940133=
201208122153 METAR KSEA 122153Z 33010G16KT 10SM CLR 29/13 A2996 RMK AO2 SLP148 T02940133=
201208122053 METAR KSEA 122053Z 35009KT 10SM CLR 29/14 A2997 RMK AO2 SLP152 T02890139 56007=
201208121953 METAR KSEA 121953Z 27007KT 10SM CLR 26/14 A2998 RMK AO2 SLP154 T02610139=
201208121853 METAR KSEA 121853Z VRB05KT 10SM CLR 26/13 A2998 RMK AO2 SLP155 T02560133=
201208121753 METAR KSEA 121753Z 36006KT 10SM CLR 24/13 A2999 RMK AO2 SLP159 T02440133 10244 20150 58006=
201208121653 METAR KSEA 121653Z VRB04KT 10SM CLR 22/13 A3000 RMK AO2 SLP162 T02220133=
201208121553 METAR KSEA 121553Z 00000KT 10SM CLR 21/14 A3001 RMK AO2 SLP166 T02110139=
201208121453 METAR KSEA 121453Z 36004KT 10SM CLR 18/13 A3001 RMK AO2 SLP165 T01830128 53007=
201208121353 METAR KSEA 121353Z 28004KT 10SM CLR 16/12 A3000 RMK AO2 SLP163 T01610122=
201208121253 METAR KSEA 121253Z 02004KT 10SM CLR 17/12 A2999 RMK AO2 SLP160 T01670122=
201208121153 METAR KSEA 121153Z 02007KT 10SM CLR 17/12 A2999=
201208121053 METAR KSEA 121053Z 35004KT 10SM CLR 16/12 A3000 RMK AO2 SLP161 T01610117=
201208120953 METAR KSEA 120953Z 01006KT 10SM CLR 18/12 A2999 RMK AO2 SLP159 T01780117=
201208120853 METAR KSEA 120853Z 02007KT 10SM CLR 18/13 A2999 RMK AO2 SLP160 T01830128 58002=
201208120753 METAR KSEA 120753Z 03008KT 10SM CLR 20/13 A3000 RMK AO2 SLP163 T02000133 402830133=
201208120653 METAR KSEA 120653Z 02010KT 10SM CLR 21/13 A3000 RMK AO2 SLP162 T02060128=
201208120553 METAR KSEA 120553Z 01007KT 10SM CLR 21/13 A3000 RMK AO2 SLP163 T02060128 10283 20194 51004=
201208120453 METAR KSEA 120453Z 01006KT 10SM CLR 22/13 A3000 RMK AO2 SLP163 T02220128=
201208120353 METAR KSEA 120353Z 36007KT 10SM CLR 22/13 A2999 RMK AO2 SLP160 T02170128=
201208120253 METAR KSEA 120253Z 36007KT 10SM CLR 26/12 A2999 RMK AO2 SLP159 T02560117 55007=
201208120153 METAR KSEA 120153Z 35008KT 10SM CLR 27/12 A2999 RMK AO2 SLP159 T02720117=
201208120053 METAR KSEA 120053Z 02010KT 10SM CLR 28/11 A2999 RMK AO2 SLP160 T02830111=
201208112353 METAR KSEA 112353Z 33007KT 10SM CLR 28/12 A3001 RMK AO2 SLP166 T02780117 10283 20211 58014=
201208112253 METAR KSEA 112253Z 36010KT 10SM CLR 28/11 A3003 RMK AO2 SLP171 T02780111=
201208112153 METAR KSEA 112153Z 35008KT 10SM CLR 28/11 A3004 RMK AO2 WSHFT 2118 SLP175 T02780111=
201208112138 SPECI KSEA 112138Z 02010KT 10SM CLR 27/11 A3004 RMK AO2 WSHFT 2118=
201208112053 METAR KSEA 112053Z VRB05KT 10SM CLR 26/12 A3005 RMK AO2 SLP180 T02560122 56012=
201208111953 METAR KSEA 111953Z VRB05KT 10SM CLR 24/12 A3006 RMK AO2 SLP183 T02440122=
201208111853 METAR KSEA 111853Z 30008KT 10SM CLR 22/12 A3007=
201208111753 METAR KSEA 111753Z 29005KT 10SM FEW210 21/13 A3009=
201208111653 METAR KSEA 111653Z 25004KT 10SM FEW210 19/13 A3010 RMK AO2 SLP196 T01890128=
201208111553 METAR KSEA 111553Z 00000KT 10SM FEW210 19/13 A3010 RMK AO2 SLP198 T01940128=
201208111453 METAR KSEA 111453Z 00000KT 10SM FEW220 16/12 A3010 RMK AO2 SLP196 T01560122 53007=
201208111353 METAR KSEA 111353Z 00000KT 10SM FEW220 14/12 A3009 RMK AO2 SLP194 T01440117=
201208111253 METAR KSEA 111253Z 00000KT 10SM FEW240 14/11 A3008 RMK AO2 SLP190 T01440111=
201208111153 METAR KSEA 111153Z 00000KT 10SM SCT250 14/11 A3008 RMK AO2 SLP189 T01390111 10183 20139 53001=
201208111053 METAR KSEA 111053Z 00000KT 10SM SCT250 15/12 A3007 RMK AO2 SLP188 T01500117=
201208110953 METAR KSEA 110953Z 00000KT 10SM FEW250 17/12 A3007 RMK AO2 SLP186 T01670117=
201208110853 METAR KSEA 110853Z 02003KT 10SM FEW250 17/12 A3007 RMK AO2 SLP188 T01670117 58001=
201208110753 METAR KSEA 110753Z 36003KT 10SM FEW250 17/11 A3008 RMK AO2 SLP190 T01720111 402560122=
201208110653 METAR KSEA 110653Z 00000KT 10SM FEW250 18/11 A3008 RMK AO2 SLP189 T01780111=
201208110553 METAR KSEA 110553Z 35005KT 10SM FEW140 SCT250 18/11 A3007 RMK AO2 SLP188 T01830111 10250 20183 51004=
201208110453 METAR KSEA 110453Z 35003KT 10SM FEW140 SCT250 19/11 A3007 RMK AO2 SLP188 T01940111=
201208110353 METAR KSEA 110353Z 00000KT 10SM FEW030 SCT140 SCT250 21/12 A3007 RMK AO2 SLP187 T02060117=
201208110253 METAR KSEA 110253Z 34005KT 10SM FEW030 SCT140 SCT250 22/11 A3006 RMK AO2 SLP184 T02220111 56006=
201208110153 METAR KSEA 110153Z 35009KT 10SM FEW030 SCT150 SCT250 24/11 A3007 RMK AO2 SLP185 T02390106=
201208110053 METAR KSEA 110053Z 35006KT 10SM FEW030 SCT250 24/10 A3007 RMK AO2 SLP187 T02440100=
201208102353 METAR KSEA 102353Z 01011KT 10SM FEW030 SCT250 25/11 A3008 RMK AO2 SLP191 T02500106 10256 20200 58005=
201208102253 METAR KSEA 102253Z 01011KT 10SM FEW030 SCT250 26/11 A3009 RMK AO2 SLP193 T02560106=
201208102153 METAR KSEA 102153Z 28011KT 10SM FEW030 23/11 A3010 RMK AO2 SLP196 T02330111=
201208102053 METAR KSEA 102053Z 29008KT 10SM FEW030 24/12 A3010 RMK AO2 SLP196 T02390117 56010=
201208101953 METAR KSEA 101953Z 29009KT 280V340 10SM FEW020 23/12 A3010 RMK AO2 SLP198 T02280122=
201208101853 METAR KSEA 101853Z 30006KT 10SM FEW020 22/12 A3012 RMK AO2 SLP204 T02170117=
201208101753 METAR KSEA 101753Z 29005KT 10SM FEW020 20/12 A3013 RMK AO2 SLP207 T02000117 10200 20122 58007=
201208101653 METAR KSEA 101653Z 20004KT 10SM FEW020 19/12 A3014 RMK AO2 SLP210 T01940122=
201208101553 METAR KSEA 101553Z 00000KT 10SM FEW180 19/12 A3015 RMK AO2 SLP214 T01890117=
201208101453 METAR KSEA 101453Z 29003KT 10SM FEW180 16/12 A3015 RMK AO2 SLP214 T01610122 51006=
201208101353 METAR KSEA 101353Z 32003KT 10SM FEW180 13/11 A3014 RMK AO2 SLP211 T01330111=
201208101253 METAR KSEA 101253Z 00000KT 10SM FEW030 SCT130 13/11 A3014 RMK AO2 SLP210 T01330106=
201208101153 METAR KSEA 101153Z 00000KT 10SM CLR 14/11 A3013 RMK AO2 SLP207 T01390106 10189 20133 50002=
201208101053 METAR KSEA 101053Z 00000KT 10SM CLR 14/11 A3013 RMK AO2 SLP208 T01390111=
201208100953 METAR KSEA 100953Z 00000KT 10SM CLR 14/11 A3013 RMK AO2 SLP209 T01390111=
201208100853 METAR KSEA 100853Z 04005KT 10SM FEW150 17/11 A3013 RMK AO2 SLP206 T01670111 58002=
201208100753 METAR KSEA 100753Z 04009KT 10SM FEW150 17/11 A3013 RMK AO2 SLP207 T01720111 402440144=
201208100653 METAR KSEA 100653Z 02007KT 10SM FEW150 18/12 A3013 RMK AO2 SLP209 T01780117=
201208100553 METAR KSEA 100553Z 02007KT 10SM FEW150 18/12 A3013 RMK AO2 SLP207 T01780117 10239 20172 53005=
201208100453 METAR KSEA 100453Z 36006KT 10SM FEW040 SCT150 18/11 A3013 RMK AO2 SLP206 T01830111=
201208100353 METAR KSEA 100353Z 34005KT 10SM FEW040 19/11 A3012 RMK AO2 SLP203 T01890111=
201208100253 METAR KSEA 100253Z 35004KT 10SM FEW040 SCT250 21/11 A3011 RMK AO2 SLP202 T02110106 56005=
201208100153 METAR KSEA 100153Z 32006KT 10SM FEW040 SCT250 23/09 A3012 RMK AO2 SLP202 T02280094=
201208100053 METAR KSEA 100053Z 34010KT 10SM FEW040 BKN240 23/09 A3013 RMK AO2 SLP206 T02330094=
201208092353 METAR KSEA 092353Z 34008KT 10SM FEW040 BKN240 23/10 A3013 RMK AO2 SLP207 T02330100 10244 20189 58010=
201208092253 METAR KSEA 092253Z 34010KT 10SM FEW030 BKN240 23/10 A3014 RMK AO2 SLP210 T02280100=
201208092153 METAR KSEA 092153Z 36008KT 10SM FEW030 BKN240 23/11 A3016 RMK AO2 SLP217 T02330111=
201208092053 METAR KSEA 092053Z 35009KT 10SM FEW030 BKN230 23/11 A3016 RMK AO2 SLP218 T02280111 57009=
201208091953 METAR KSEA 091953Z 31010G15KT 10SM FEW028 BKN230 22/12 A3017=
201208091853 METAR KSEA 091853Z 35008KT 10SM SCT020 BKN230 21/12 A3018 RMK AO2 SLP225 T02060122=
201208091753 METAR KSEA 091753Z 35006KT 10SM SCT016 BKN250 18/13 A3019 RMK AO2 SLP228 T01830128 10194 20144 56008=
201208091653 METAR KSEA 091653Z 01008KT 10SM FEW020 BKN250 18/12 A3020 RMK AO2 SLP230 T01830122=
201208091553 METAR KSEA 091553Z 01007KT 10SM FEW020 BKN250 18/12 A3020 RMK AO2 SLP233 T01780122=
201208091453 METAR KSEA 091453Z 04007KT 10SM FEW020 SCT250 17/12 A3021 RMK AO2 SLP236 T01720122 53001=
201208091353 METAR KSEA 091353Z 03007KT 10SM FEW040 SCT250 16/12 A3020 RMK AO2 SLP233 T01560122=
201208091253 METAR KSEA 091253Z 02007KT 10SM FEW041 15/12 A3020 RMK AO2 SLP233 T01500122=
201208091153 METAR KSEA 091153Z 03007KT 10SM CLR 15/12 A3021 RMK AO2 SLP235 T01500122 10189 20150 55003=
201208091053 METAR KSEA 091053Z 02007KT 10SM FEW041 16/12 A3021 RMK AO2 SLP233 T01560117=
201208090953 METAR KSEA 090953Z 03007KT 10SM FEW041 16/13 A3021 RMK AO2 SLP234 T01610128=
201208090853 METAR KSEA 090853Z 01006KT 10SM FEW041 17/13 A3022 RMK AO2 SLP238 T01670128 58003=
201208090753 METAR KSEA 090753Z 02007KT 10SM BKN041 18/13 A3023 RMK AO2 SLP240 T01780128 402220150=
201208090653 METAR KSEA 090653Z 35005KT 10SM OVC043 19/12 A3022 RMK AO2 SLP239 T01890122=
201208090553 METAR KSEA 090553Z 00000KT 10SM OVC043 19/12 A3023 RMK AO2 SLP241 T01890122 10222 20189 50003=
201208090453 METAR KSEA 090453Z 35004KT 10SM OVC043 19/12 A3023 RMK AO2 SLP241 T01940117=
201208090353 METAR KSEA 090353Z 35004KT 10SM BKN043 19/12 A3022 RMK AO2 SLP238 T01940117=
201208090253 METAR KSEA 090253Z 31003KT 10SM BKN043 20/11 A3022 RMK AO2 SLP238 T02000111 55000=
201208090153 METAR KSEA 090153Z 29005KT 10SM BKN045 20/11 A3022 RMK AO2 SLP237 T02000111=
201208090053 METAR KSEA 090053Z 26005KT 10SM BKN043 22/11 A3022 RMK AO2 SLP238 T02170106=
201208082353 METAR KSEA 082353Z 24004KT 10SM SCT043 22/11 A3022 RMK AO2 SLP238 T02170106 10222 20189 51001=
201208082253 METAR KSEA 082253Z 26007KT 10SM SCT046 22/11 A3022 RMK AO2 SLP238 T02170106=
201208082153 METAR KSEA 082153Z 21006KT 10SM FEW033 BKN046 22/11 A3022 RMK AO2 SLP238 T02170106=
201208082053 METAR KSEA 082053Z VRB05KT 10SM FEW033 BKN044 21/11 A3022 RMK AO2 SLP236 T02110111 51005=
201208081953 METAR KSEA 081953Z 23008KT 10SM BKN033 BKN045 20/11 A3021 RMK AO2 SLP236 T02000106=
201208081853 METAR KSEA 081853Z 23010KT 10SM FEW024 BKN033 BKN045 19/11 A3021 RMK AO2 SLP233 T01940106=
201208081753 METAR KSEA 081753Z 22010KT 10SM FEW022 SCT033 BKN045 19/10 A3020 RMK AO2 SLP231 T01940100 10200 20161 52014=
201208081715 SPECI KSEA 081715Z 20005KT 10SM FEW021 SCT029 BKN045 19/11 A3019 RMK AO2=
201208081653 METAR KSEA 081653Z 21009KT 10SM FEW021 BKN029 BKN044 18/11 A3018 RMK AO2 SLP226 T01830111=
201208081553 METAR KSEA 081553Z 17007KT 10SM FEW019 BKN028 BKN044 17/12 A3017 RMK AO2 SLP222 T01720117=
201208081542 SPECI KSEA 081542Z 18007KT 10SM FEW019 SCT028 BKN042 17/12 A3017 RMK AO2=
201208081453 METAR KSEA 081453Z 17007KT 10SM FEW019 BKN028 BKN042 17/12 A3016 RMK AO2 SLP217 T01670117 53012=
201208081353 METAR KSEA 081353Z 15007KT 10SM SCT019 BKN025 16/12 A3015 RMK AO2 SLP213 T01610117=
201208081253 METAR KSEA 081253Z 16006KT 10SM FEW015 OVC027 16/12 A3013 RMK AO2 SLP208 T01610117=
201208081153 METAR KSEA 081153Z 19006KT 10SM OVC028 16/11 A3012 RMK AO2 SLP205 T01610111 10167 20150 53010=
201208081053 METAR KSEA 081053Z 18007KT 10SM OVC022 16/11 A3011 RMK AO2 SLP202 T01610111=
201208080953 METAR KSEA 080953Z 18006KT 10SM OVC020 16/11 A3010 RMK AO2 SLP197 T01560111=
201208080853 METAR KSEA 080853Z 19006KT 10SM OVC020 15/11 A3009=
201208080753 METAR KSEA 080753Z 19004KT 10SM BKN020 OVC025 16/11 A3010 RMK AO2 SLP197 T01560111 402110150=
201208080653 METAR KSEA 080653Z VRB04KT 10SM OVC022 16/11 A3009 RMK AO2 SLP194 T01610111=
201208080553 METAR KSEA 080553Z 25007KT 10SM BKN020 OVC090 17/12 A3009 RMK AO2 SLP194 T01670117 10206 20167 51010=
201208080453 METAR KSEA 080453Z 22004KT 10SM BKN020 BKN090 18/13 A3008 RMK AO2 SLP191 T01780128=
201208080440 SPECI KSEA 080440Z 23005KT 10SM BKN020 BKN090 18/13 A3008 RMK AO2=
201208080353 METAR KSEA 080353Z 23004KT 10SM SCT020 BKN090 BKN200 18/14 A3007 RMK AO2 SLP188 T01830139=
201208080308 SPECI KSEA 080308Z 22005KT 10SM SCT020 BKN120 BKN200 19/14 A3006 RMK AO2=
201208080253 METAR KSEA 080253Z 24005KT 10SM BKN020 BKN120 19/14 A3006 RMK AO2 SLP183 T01940144 56001=
201208080153 METAR KSEA 080153Z 20007KT 10SM OVC020 19/14 A3006 RMK AO2 SLP185 T01940144=
201208080053 METAR KSEA 080053Z 20008KT 10SM OVC020 20/14 A3006 RMK AO2 SLP183 T02000144=
201208072353 METAR KSEA 072353Z 24008KT 10SM OVC020 21/14 A3006 RMK AO2 SLP185 T02060144 10211 20167 54000=
201208072253 METAR KSEA 072253Z 22008KT 10SM OVC016 21/14 A3006 RMK AO2 SLP184 T02110144=
201208072153 METAR KSEA 072153Z 21010KT 10SM OVC016 21/14 A3007 RMK AO2 SLP186 T02060144=
201208072053 METAR KSEA 072053Z 19006KT 10SM OVC014 19/14 A3006 RMK AO2 SLP185 T01940139 56008=
201208071953 METAR KSEA 071953Z 23003KT 10SM BKN010 OVC014 18/14 A3007 RMK AO2 SLP187 T01830144=
201208071947 SPECI KSEA 071947Z 27004KT 10SM BKN010 OVC014 18/14 A3007 RMK AO2=
201208071853 METAR KSEA 071853Z VRB03KT 8SM BKN008 OVC011 18/14 A3008 RMK AO2 SLP190 T01830144=
201208071753 METAR KSEA 071753Z 30004KT 7SM OVC005 17/14 A3009 RMK AO2 SLP193 T01670139 10167 20150 58002=
201208071653 METAR KSEA 071653Z 00000KT 3SM OVC004 16/14 A3010 RMK AO2 SFC VIS 7 SLP196 T01610139=
201208071553 METAR KSEA 071553Z 25005KT 3SM OVC004 16/14 A3010 RMK AO2 SFC VIS 7 SLP196 T01560139=
201208071453 METAR KSEA 071453Z 26003KT 3SM BR OVC004 16/14 A3010 RMK AO2 SFC VIS 6 SLP196 T01560139 58003=
201208071353 METAR KSEA 071353Z 22003KT 3SM OVC004 15/13 A3010 RMK AO2 SFC VIS 8 SLP197 T01500133=
201208071253 METAR KSEA 071253Z 21004KT 3SM OVC004 15/13 A3010 RMK AO2 SFC VIS 8 SLP197 T01500133=
201208071153 METAR KSEA 071153Z 19004KT 2SM BR OVC002 15/13 A3010 RMK AO2 SFC VIS 5 SLP197 T01500133 10183 20150 53000=
201208071053 METAR KSEA 071053Z 20005KT 10SM OVC002 15/13 A3011 RMK AO2 SLP198 T01500133=
201208070953 METAR KSEA 070953Z 19006KT 10SM BKN004 15/13 A3010 RMK AO2 SLP197 T01500133=
201208070942 SPECI KSEA 070942Z 20004KT 10SM BKN004 15/13 A3010 RMK AO2=
201208070853 METAR KSEA 070853Z 21005KT 10SM FEW004 16/13 A3010 RMK AO2 SLP198 T01560133 51006=
201208070848 SPECI KSEA 070848Z 21005KT 10SM FEW006 16/13 A3010 RMK AO2=
201208070753 METAR KSEA 070753Z 22003KT 10SM CLR 17/14 A3009 RMK AO2 SLP195 T01670139 402830156=
201208070653 METAR KSEA 070653Z 30004KT 10SM CLR 17/14 A3008 RMK AO2 SLP192 T01670139=
201208070553 METAR KSEA 070553Z 29003KT 10SM CLR 18/14 A3008 RMK AO2 SLP190 T01830139 10283 20183 51008=
201208070453 METAR KSEA 070453Z 36004KT 10SM CLR 20/14 A3008 RMK AO2 SLP190 T02000144=
201208070353 METAR KSEA 070353Z 31004KT 10SM FEW060 20/14 A3007 RMK AO2 SLP188 CB DSNT E T02000144=
201208070253 METAR KSEA 070253Z 30006KT 10SM FEW060 24/15 A3006 RMK AO2 SLP182 CB DSNT E T02390150 55006=
201208070153 METAR KSEA 070153Z 29006KT 10SM FEW060 26/15 A3005 RMK AO2 SLP181 CB DSNT SE T02610150=
201208070053 METAR KSEA 070053Z 29006KT 10SM FEW060 28/16 A3006 RMK AO2 SLP184 TCU DSNT SE T02780156=
201208062353 METAR KSEA 062353Z 30006KT 10SM FEW060 28/16 A3007 RMK AO2 SLP187 T02780156 10278 20178 58011=
201208062253 METAR KSEA 062253Z 36003KT 10SM FEW060 28/15 A3009 RMK AO2 SLP192 T02780150=
201208062153 METAR KSEA 062153Z VRB03KT 10SM FEW045 SCT150 26/15 A3010 RMK AO2 SLP196 T02610150=
201208062053 METAR KSEA 062053Z VRB03KT 10SM FEW045 SCT150 24/14 A3011 RMK AO2 SLP198 T02440144 50004=
201208061953 METAR KSEA 061953Z 24005KT 10SM FEW090 SCT140 BKN210 22/14 A3011 RMK AO2 SLP200 T02220139=
201208061853 METAR KSEA 061853Z 27004KT 10SM FEW090 BKN140 BKN210 19/14 A3011 RMK AO2 SLP200 T01940144=
201208061753 METAR KSEA 061753Z 25004KT 10SM FEW090 BKN140 BKN190 18/14 A3009 RMK AO2 RAB30E39 SLP195 P0000 60000 T01830139 10183 20156 51001=
201208061653 METAR KSEA 061653Z 18005KT 10SM BKN130 BKN190 18/14 A3009 RMK AO2 SLP194 T01830139=
201208061553 METAR KSEA 061553Z 22005KT 10SM BKN130 BKN190 17/13 A3009=
201208061453 METAR KSEA 061453Z 17006KT 10SM SCT130 BKN190 17/13 A3009 RMK AO2 SLP192 T01720133 51014=
201208061353 METAR KSEA 061353Z 19007KT 10SM FEW120 BKN230 16/13 A3009 RMK AO2 SLP191 T01610133=
201208061253 METAR KSEA 061253Z 23004KT 10SM SCT120 BKN200 16/13 A3006 RMK AO2 SLP182 T01610133=
201208061153 METAR KSEA 061153Z 20005KT 10SM FEW120 SCT200 16/13 A3005 RMK AO2 SLP178 T01610133 10228 20161 51006=
201208061053 METAR KSEA 061053Z 23006KT 10SM SCT200 16/13 A3004 RMK AO2 SLP176 T01610133=
201208060953 METAR KSEA 060953Z 20005KT 10SM SCT120 BKN200 17/13 A3004 RMK AO2 SLP176 T01720133=
201208060853 METAR KSEA 060853Z 21008KT 10SM OVC200 18/13 A3003 RMK AO2 SLP173 T01830133 51015=
201208060753 METAR KSEA 060753Z 20005KT 10SM BKN200 21/12 A3002 RMK AO2 SLP171 T02060117 403390178=
201208060653 METAR KSEA 060653Z 20006KT 10SM BKN200 21/11 A3000 RMK AO2 SLP163 T02060106=
201208060553 METAR KSEA 060553Z 21009KT 10SM SCT200 23/12 A2999 RMK AO2 SLP158 T02280117 10333 20228 51021=
201208060453 METAR KSEA 060453Z 23006KT 10SM BKN250 24/14 A2997 RMK AO2 SLP154 T02390144=
201208060353 METAR KSEA 060353Z 24003KT 10SM BKN250 26/15 A2995 RMK AO2 SLP144 T02610150=
201208060253 METAR KSEA 060253Z 29004KT 10SM BKN250 29/16 A2992 RMK AO2 SLP135 T02940156 53001=
201208060153 METAR KSEA 060153Z 27004KT 10SM SCT250 32/13 A2992 RMK AO2 SLP133 T03220133=
201208060053 METAR KSEA 060053Z 27005KT 10SM SCT250 33/14 A2992=
201208052353 METAR KSEA 052353Z 25006KT 10SM FEW250 33/14 A2992 RMK AO2 SLP134 T03280144 10339 20267 58003=
201208052253 METAR KSEA 052253Z 27006KT 10SM FEW250 33/14 A2992 RMK AO2 SLP135 T03280139=
201208052153 METAR KSEA 052153Z 30005KT 10SM SCT250 32/14 A2993 RMK AO2 SLP137 T03220144=
201208052053 METAR KSEA 052053Z VRB05KT 10SM SCT250 31/14 A2993 RMK AO2 SLP137 T03110139 58004=
201208051953 METAR KSEA 051953Z 30006KT 10SM SCT250 29/14 A2994 RMK AO2 SLP141 T02940144=
201208051853 METAR KSEA 051853Z 27006KT 10SM FEW250 28/15 A2995 RMK AO2 SLP143 T02830150=
201208051753 METAR KSEA 051753Z 27006KT 10SM FEW250 26/15 A2994 RMK AO2 SLP142 T02610150 10272 20178 51005=
201208051653 METAR KSEA 051653Z 00000KT 10SM FEW200 25/15 A2994 RMK AO2 SLP141 T02500150=
201208051553 METAR KSEA 051553Z 29004KT 10SM FEW200 23/16 A2994 RMK AO2 SLP141 T02280156=
201208051453 METAR KSEA 051453Z 00000KT 10SM FEW200 23/15 A2993 RMK AO2 SLP137 T02280150 53009=
201208051353 METAR KSEA 051353Z 00000KT 10SM FEW200 21/16 A2992 RMK AO2 SLP132 T02110156=
201208051253 METAR KSEA 051253Z 00000KT 10SM CLR 19/15 A2990 RMK AO2 SLP129 T01890150=
201208051153 METAR KSEA 051153Z 00000KT 10SM CLR 19/15 A2990 RMK AO2 SLP127 T01890150 10239 20189 51007=
201208051053 METAR KSEA 051053Z 00000KT 10SM CLR 22/16 A2989 RMK AO2 SLP124 T02220156=
201208050953 METAR KSEA 050953Z 36004KT 10SM CLR 21/15 A2989 RMK AO2 SLP124 T02060150=
201208050853 METAR KSEA 050853Z 00000KT 10SM CLR 22/15 A2988 RMK AO2 SLP120 T02170150 50002=
201208050753 METAR KSEA 050753Z 00000KT 10SM CLR 21/16 A2988 RMK AO2 SLP122 T02110156 403390167=
201208050653 METAR KSEA 050653Z 35004KT 10SM CLR 23/15 A2988 RMK AO2 SLP119 T02330150=
201208050553 METAR KSEA 050553Z 33003KT 10SM CLR 24/15 A2987 RMK AO2 SLP118 T02390150 10339 20233 51010=
201208050453 METAR KSEA 050453Z 36006KT 10SM CLR 24/15 A2986 RMK AO2 SLP116 T02390150=
201208050353 METAR KSEA 050353Z 33004KT 10SM CLR 26/14 A2986 RMK AO2 SLP114 T02560144=
201208050253 METAR KSEA 050253Z 35007KT 10SM CLR 29/14 A2984 RMK AO2 SLP108 T02940144 56012=
201208050153 METAR KSEA 050153Z 30005KT 10SM CLR 31/16 A2985 RMK AO2 SLP112 T03060156=
201208050053 METAR KSEA 050053Z 35007KT 10SM CLR 34/12 A2986 RMK AO2 SLP115 T03390117=
201208042353 METAR KSEA 042353Z 01007KT 10SM CLR 33/13 A2988 RMK AO2 SLP122 T03280133 10333 20267 57014=
201208042253 METAR KSEA 042253Z 35008KT 10SM CLR 33/13 A2989 RMK AO2 SLP126 T03280133=
201208042153 METAR KSEA 042153Z 30006KT 10SM CLR 32/14 A2991 RMK AO2 SLP131 T03220144=
201208042053 METAR KSEA 042053Z 35008KT 10SM CLR 31/14 A2992 RMK AO2 SLP135 T03110139 58010=
201208041953 METAR KSEA 041953Z 01008KT 10SM CLR 30/14 A2994 RMK AO2 SLP139 T03000139=
201208041853 METAR KSEA 041853Z 34009KT 10SM CLR 29/15 A2994 RMK AO2 SLP142 T02890150=
201208041753 METAR KSEA 041753Z 35009KT 10SM CLR 27/14 A2995 RMK AO2 SLP147 T02720144 10272 20167 56000=
201208041653 METAR KSEA 041653Z 01011KT 10SM CLR 25/14 A2995 RMK AO2 SLP147 T02500139=
201208041553 METAR KSEA 041553Z 01016KT 10SM CLR 23/14 A2995 RMK AO2 SLP146 T02280139=
201208041453 METAR KSEA 041453Z 02015KT 10SM CLR 21/14 A2996 RMK AO2 SLP147 T02110139 58000=
201208041353 METAR KSEA 041353Z 01012KT 10SM CLR 19/14 A2996 RMK AO2 SLP147 T01890144=
201208041253 METAR KSEA 041253Z 01006KT 10SM CLR 18/13 A2996 RMK AO2 SLP147 T01780133=
201208041153 METAR KSEA 041153Z 36003KT 10SM CLR 17/13 A2996 RMK AO2 SLP147 T01720128 10228 20167 58008=
201208041053 METAR KSEA 041053Z 34007KT 10SM CLR 17/12 A2997 RMK AO2 SLP152 T01720122=
201208040953 METAR KSEA 040953Z 01004KT 10SM CLR 19/13 A2997 RMK AO2 SLP153 T01890133=
201208040853 METAR KSEA 040853Z 01006KT 10SM CLR 20/12 A2998 RMK AO2 SLP155 T02000122 56007=
201208040753 METAR KSEA 040753Z 03009KT 10SM CLR 21/12 A2999 RMK AO2 SLP157 T02110122 402720128=
201208040653 METAR KSEA 040653Z 03005KT 10SM CLR 22/12 A2999=
201208040553 METAR KSEA 040553Z 02008KT 10SM CLR 23/11 A3000 RMK AO2 SLP162 T02280111 10267 20228 58001=
201208040453 METAR KSEA 040453Z 03009KT 10SM CLR 23/13 A3001 RMK AO2 SLP164 T02330128=
201208040353 METAR KSEA 040353Z 02009KT 10SM CLR 24/14 A3000 RMK AO2 SLP164 T02390139=
201208040253 METAR KSEA 040253Z 36010KT 10SM CLR 24/14 A3000 RMK AO2 SLP164 T02390139 56009=
201208040153 METAR KSEA 040153Z 35010KT 10SM CLR 26/14 A3001 RMK AO2 SLP165 T02560139=
201208040053 METAR KSEA 040053Z 34009KT 10SM CLR 26/14 A3002 RMK AO2 SLP169 T02610139=
201208032353 METAR KSEA 032353Z 34008KT 10SM CLR 27/14 A3003 RMK AO2 SLP173 T02670139 10272 20206 58017=
201208032253 METAR KSEA 032253Z 36008KT 320V020 10SM CLR 26/13 A3005 RMK AO2 SLP180 T02610133=
201208032153 METAR KSEA 032153Z 32009KT 10SM FEW250 27/13 A3006 RMK AO2 SLP185 T02670133=
201208032053 METAR KSEA 032053Z 01008KT 10SM FEW030 SCT250 25/13 A3008 RMK AO2 SLP191 T02500128 58018=
201208031953 METAR KSEA 031953Z 35009KT 10SM FEW030 SCT250 24/13 A3010 RMK AO2 SLP197 T02440128=
201208031853 METAR KSEA 031853Z 01008KT 10SM FEW030 SCT250 22/13 A3012 RMK AO2 SLP203 T02220128=
201208031753 METAR KSEA 031753Z 36007KT 10SM FEW025 SCT250 21/12 A3013 RMK AO2 SLP209 T02110122 10211 20128 58001=
201208031653 METAR KSEA 031653Z VRB04KT 10SM FEW020 SCT250 19/12 A3013 RMK AO2 SLP209 T01940122=
201208031553 METAR KSEA 031553Z 01004KT 10SM FEW005 SCT015 18/12 A3014=
201208031453 METAR KSEA 031453Z 36009KT 10SM FEW005 SCT010 16/12 A3014 RMK AO2 SLP210 T01610117 52006=
201208031353 METAR KSEA 031353Z 02006KT 10SM FEW005 SCT010 SCT130 15/12 A3013 RMK AO2 SLP208 T01500117=
201208031253 METAR KSEA 031253Z 36006KT 10SM FEW005 SCT010 SCT130 13/11 A3012 RMK AO2 SLP205 T01280106=
201208031153 METAR KSEA 031153Z 02007KT 10SM CLR 15/12 A3012 RMK AO2 SLP204 T01500117 10178 20150 56000=
201208031053 METAR KSEA 031053Z 04008KT 10SM CLR 16/12 A3012 RMK AO2 SLP204 T01560117=
201208030953 METAR KSEA 030953Z 04007KT 10SM CLR 16/12 A3012 RMK AO2 SLP204 T01560122=
201208030853 METAR KSEA 030853Z 05006KT 10SM CLR 16/12 A3012 RMK AO2 SLP204 T01610122 56004=
201208030753 METAR KSEA 030753Z 03008KT 10SM CLR 17/12 A3012 RMK AO2 SLP205 T01670122 402330122=
201208030653 METAR KSEA 030653Z 03007KT 10SM CLR 17/13 A3012 RMK AO2 SLP205 T01720128=
201208030553 METAR KSEA 030553Z 02010KT 10SM CLR 18/12 A3013 RMK AO2 SLP209 T01780122 10228 20178 51002=
201208030453 METAR KSEA 030453Z 36006KT 10SM CLR 19/12 A3013 RMK AO2 SLP208 T01890122=
201208030353 METAR KSEA 030353Z 01006KT 10SM FEW035 19/12 A3013 RMK AO2 SLP207 T01940122=
201208030253 METAR KSEA 030253Z 30005KT 10SM FEW035 21/12 A3012 RMK AO2 SLP206 T02110122 56010=
201208030153 METAR KSEA 030153Z 32005KT 10SM FEW035 SCT080 22/12 A3013 RMK AO2 SLP208 T02220122=
201208030053 METAR KSEA 030053Z 29008KT 10SM FEW032 SCT080 22/12 A3014 RMK AO2 SLP209 T02220122=
201208022353 METAR KSEA 022353Z 30010KT 10SM FEW032 SCT080 22/12 A3015 RMK AO2 SLP215 T02220122 10233 20167 58013=
201208022253 METAR KSEA 022253Z 29008KT 10SM FEW030 BKN070 22/12 A3017 RMK AO2 SLP221 T02170122=
201208022153 METAR KSEA 022153Z AUTO 31007KT 270V330 10SM FEW030 SCT050 22/12 A3018 RMK AO2 SLP226 T02170117 TSNO=
201208022053 METAR KSEA 022053Z 29008KT 10SM SCT028 BKN050 BKN200 21/12 A3019 RMK AO2 SLP229 T02110117 56004=
201208022019 SPECI KSEA 022019Z VRB03KT 10SM SCT028 BKN090 BKN200 20/12 A3019 RMK AO2=
201208021953 METAR KSEA 021953Z 28005KT 10SM BKN027 BKN049 BKN090 19/11 A3019 RMK AO2 SLP229 T01890111=
201208021941 SPECI KSEA 021941Z 28007KT 10SM BKN028 BKN049 BKN090 19/11 A3019 RMK AO2=
201208021853 METAR KSEA 021853Z VRB04KT 10SM FEW017 SCT030 BKN090 BKN200 19/11 A3020 RMK AO2 SLP231 T01890111=
201208021753 METAR KSEA 021753Z VRB03KT 10SM SCT016 BKN090 BKN200 17/11 A3020 RMK AO2 SLP233 T01670106 10172 20122 50001=
201208021707 SPECI KSEA 021707Z 23004KT 10SM FEW009 BKN015 BKN041 15/11 A3021 RMK AO2=
201208021653 METAR KSEA 021653Z 20005KT 10SM FEW008 BKN014 BKN041 BKN200 15/11 A3021 RMK AO2 SLP234 T01500106=
201208021553 METAR KSEA 021553Z 00000KT 10SM FEW007 OVC011 14/11 A3021 RMK AO2 SLP234 T01390106=
201208021453 METAR KSEA 021453Z 24004KT 10SM FEW007 BKN011 OVC020 13/10 A3020=
201208021406 SPECI KSEA 021406Z 22003KT 10SM FEW007 BKN014 BKN024 BKN200 12/10 A3019 RMK AO2=
201208021353 METAR KSEA 021353Z 23003KT 10SM SCT014 BKN024 BKN200 12/10 A3019 RMK AO2 SLP228 T01220100=
201208021342 SPECI KSEA 021342Z 22004KT 10SM SCT014 BKN024 BKN200 12/10 A3019 RMK AO2=
201208021253 METAR KSEA 021253Z 00000KT 10SM BKN014 BKN027 OVC200 13/10 A3018 RMK AO2 SLP225 T01280100=
201208021153 METAR KSEA 021153Z 27004KT 10SM OVC014 13/10 A3018 RMK AO2 SLP225 T01280100 10150 20128 53002=
201208021053 METAR KSEA 021053Z 00000KT 10SM OVC014 13/10 A3018 RMK AO2 SLP224 T01330100=
201208020953 METAR KSEA 020953Z 27003KT 10SM BKN014 OVC036 13/11 A3018 RMK AO2 SLP224 T01330106=
201208020853 METAR KSEA 020853Z 00000KT 10SM FEW014 BKN060 13/11 A3018 RMK AO2 SLP225 T01330106 54000=
201208020753 METAR KSEA 020753Z 29003KT 10SM BKN060 13/11 A3018 RMK AO2 SLP225 T01330106 402390133=
201208020653 METAR KSEA 020653Z 26004KT 10SM SCT065 14/11 A3018 RMK AO2 SLP224 T01440106=
201208020553 METAR KSEA 020553Z 28003KT 10SM BKN065 15/11 A3018 RMK AO2 SLP224 T01500111 10239 20150 53007=
201208020453 METAR KSEA 020453Z 29005KT 10SM SCT120 SCT200 16/12 A3017 RMK AO2 SLP222 T01610117=
201208020353 METAR KSEA 020353Z 28003KT 10SM SCT120 SCT200 18/12 A3016 RMK AO2 SLP219 T01830122=
201208020253 METAR KSEA 020253Z 30003KT 10SM FEW120 SCT200 21/13 A3016 RMK AO2 SLP217 T02060128 56007=
201208020153 METAR KSEA 020153Z 23005KT 10SM FEW100 SCT200 22/12 A3016 RMK AO2 SLP218 T02220122=
201208020053 METAR KSEA 020053Z 21006KT 10SM FEW030 SCT100 SCT200 23/12 A3017 RMK AO2 SLP220 T02330122=
201208012353 METAR KSEA 012353Z VRB03KT 10SM FEW030 SCT120 SCT200 23/12 A3018 RMK AO2 SLP224 T02330122 10239 20172 58013=
201208012253 METAR KSEA 012253Z COR 18004KT 10SM FEW030 SCT250 23/11 A3019 RMK AO2 SLP229 T02280111=
201208012153 METAR KSEA 012153Z 00000KT 10SM FEW030 SCT250 22/12 A3021 RMK AO2 SLP234 T02220117=
201208012053 METAR KSEA 012053Z 25005KT 10SM FEW030 21/12 A3022 RMK AO2 SLP237 T02060117 58003=
201208011953 METAR KSEA 011953Z 27006KT 10SM FEW025 20/12 A3022 RMK AO2 SLP239 T02000122=
201208011853 METAR KSEA 011853Z 28006KT 10SM SCT018 SCT250 18/12 A3023 RMK AO2 SLP240 T01830117=
201208011817 SPECI KSEA 011817Z 26005KT 10SM SCT016 SCT250 17/12 A3023 RMK AO2=
201208011753 METAR KSEA 011753Z 15004KT 10SM BKN012 18/11 A3023 RMK AO2 SLP242 T01780111 10183 20133 50002=
201208011726 SPECI KSEA 011726Z 27004KT 10SM BKN010 17/12 A3023 RMK AO2=
201208011718 SPECI KSEA 011718Z 00000KT 9SM BKN009 17/12 A3023 RMK AO2=
201208011653 METAR KSEA 011653Z 00000KT 8SM BKN007 15/12 A3023 RMK AO2 SLP243 T01500117=
201208011553 METAR KSEA 011553Z 00000KT 8SM OVC007 14/11 A3023 RMK AO2 SLP241 T01390111=
201208011453 METAR KSEA 011453Z 06003KT 10SM BKN009 OVC200 14/11 A3022 RMK AO2 SLP239 T01390106 53010=
201208011409 SPECI KSEA 011409Z 00000KT 10SM BKN009 BKN200 14/11 A3022 RMK AO2=
201208011353 METAR KSEA 011353Z 00000KT 10SM FEW008 13/10 A3021 RMK AO2 SLP235 T01330100=
201208011253 METAR KSEA 011253Z 04006KT 10SM FEW035 13/09 A3020 RMK AO2 SLP230 T01330094=
201208011153 METAR KSEA 011153Z 03008KT 10SM FEW035 13/09 A3019 RMK AO2 SLP228 T01330094 10167 20133 53004=
201208011053 METAR KSEA 011053Z 02008KT 10SM FEW035 14/10 A3019 RMK AO2 SLP226 T01390100=
201208010953 METAR KSEA 010953Z 02009KT 10SM CLR 14/10 A3018 RMK AO2 SLP223 T01440100=
201208010853 METAR KSEA 010853Z 01009KT 10SM SCT033 14/11 A3018 RMK AO2 SLP224 T01440106 50001=
201208010753 METAR KSEA 010753Z 02009KT 10SM SCT200 15/10 A3018 RMK AO2 SLP225 T01500100 402280139=
201208010653 METAR KSEA 010653Z 02010KT 10SM CLR 17/11 A3018 RMK AO2 SLP224 T01670111=
201208010553 METAR KSEA 010553Z 36006KT 10SM CLR 16/11 A3018 RMK AO2 SLP224 T01560106 10228 20156 51006=
201208010453 METAR KSEA 010453Z 00000KT 10SM CLR 18/11 A3017 RMK AO2 SLP222 T01830106=
201208010353 METAR KSEA 010353Z 30005KT 10SM FEW040 18/10 A3016 RMK AO2 SLP219 T01830100=
201208010253 METAR KSEA 010253Z 30005KT 10SM FEW040 21/11 A3016 RMK AO2 SLP216 T02060106 56005=
201208010153 METAR KSEA 010153Z 28006KT 10SM FEW041 22/11 A3016 RMK AO2 SLP217 T02170111=
201208010053 METAR KSEA 010053Z 27008KT 10SM FEW041 22/11 A3016 RMK AO2 SLP218 T02220106=

# No short TAF reports from KSEA in databse.

###################################
#  large TAF from KSEA
###################################
201208312321 TAF KSEA 312321Z 0100/0206 30008KT P6SM SCT040 FM010400 36005KT
                       P6SM SKC FM011000 VRB03KT P6SM SKC FM011400
                       VRB03KT P6SM SCT015 FM011800 23006KT P6SM
                       SCT035 FM020000 29006KT P6SM SKC=
201208312101 KSEA 312101Z 3121/0124 30008KT P6SM SCT035 FM011000 VRB03KT P6SM
                       SKC FM011400 VRB03KT P6SM SCT020 FM011800
                       23006KT P6SM SKC=
201208311725 TAF KSEA 311725Z 3118/0124 32006KT P6SM SCT045 FM011000 VRB03KT
                       P6SM SKC FM011400 VRB03KT P6SM SCT020 FM011800
                       23006KT P6SM SKC=
201208311503 KSEA 311503Z 3115/0118 03005KT P6SM SCT050 FM311900 32007KT P6SM
                       SCT050 FM011000 VRB03KT P6SM SKC=
201208311120 TAF KSEA 311120Z 3112/0118 03005KT P6SM BKN050 FM311900 32007KT
                       P6SM SCT050 FM011000 VRB03KT P6SM SKC=
201208310901 KSEA 310901Z 3109/0112 35005KT P6SM SCT050
                      TEMPO 3110/3114 BKN050 FM311400 VRB03KT P6SM
                       BKN050 FM311900 32007KT P6SM SCT050=
201208310520 TAF KSEA 310520Z 3106/0112 36007KT P6SM SCT050 FM310900 VRB03KT
                       P6SM BKN050 FM311900 32007KT P6SM SCT050=
201208310305 KSEA 310305Z 3103/0106 35007KT P6SM SCT040 FM310900 VRB03KT P6SM
                       BKN040 FM311900 32007KT P6SM SCT040=
201208302331 TAF KSEA 302331Z 3100/0106 32005KT P6SM SCT030 SCT090 FM310400
                       04006KT P6SM SCT030 FM311400 04005KT P6SM
                       VCFG SCT005 FM311900 32007KT P6SM SCT030=
201208302104 KSEA 302104Z 3021/3124 30007KT P6SM SCT030 SCT150 FM310400 04006KT
                       P6SM SCT030 FM311900 32007KT P6SM SKC=
201208301720 TAF KSEA 301720Z 3018/3124 16004KT P6SM SCT023 BKN045 FM301900
                       25006KT P6SM SCT050 FM302000 32007KT P6SM
                       SCT050 FM310400 04006KT P6SM SCT035 FM311900
                       32007KT P6SM SKC=
201208301644 KSEA 301644Z 3017/3118 20003KT P6SM FEW009 SCT023 BKN045 FM301900
                       32008KT P6SM SCT050 FM310800 VRB03KT P6SM
                       BKN035=
201208301502 KSEA 301502Z 3015/3118 00000KT P6SM BKN014 OVC025 FM301630 VRB03KT
                       P6SM BKN030 BKN050 FM301800 32008KT P6SM
                       SCT050 FM310800 VRB03KT P6SM BKN035=
201208301235 KSEA 301235Z 3013/3118 VRB03KT P6SM SCT015 BKN050
                      TEMPO 3013/3016 BKN015 BKN050 FM301900 32008KT
                       P6SM BKN050 FM310800 VRB03KT P6SM BKN035=
201208301120 TAF KSEA 301120Z 3012/3118 VRB03KT P6SM SCT020 BKN050 FM301900
                       32008KT P6SM BKN050 FM310800 VRB03KT P6SM
                       BKN035=
201208300902 KSEA 300902Z 3009/3112 00000KT P6SM BKN060 FM301200 VRB03KT P6SM
                       SCT015 BKN050 FM301900 32008KT P6SM BKN050=
201208300520 TAF KSEA 300520Z 3006/3112 VRB04KT P6SM SCT050
                      TEMPO 3014/3018 BKN015 BKN050 FM302200 30007KT
                       P6SM BKN050=
201208300301 KSEA 300301Z 3003/3106 VRB04KT P6SM SCT040 SCT080
                      TEMPO 3014/3018 BKN015 BKN040 FM302200 30007KT
                       P6SM BKN050=
201208292320 TAF KSEA 292320Z 3000/3106 VRB04KT P6SM SCT030 BKN100 FM301400
                       VRB02KT P6SM BKN015 FM302000 30005KT P6SM
                       SCT025 SCT050=
201208292100 KSEA 292100Z 2921/3024 VRB04KT P6SM SCT040 BKN090 FM301400 VRB02KT
                       P6SM BKN015 FM302000 32005KT P6SM SCT025
                       SCT050=
201208291739 TAF KSEA 291739Z 2918/3024 17005KT P6SM SCT024 BKN050
                      TEMPO 2918/2920 BKN025 BKN050 FM292000 21007KT
                       P6SM SCT025 BKN050 FM300200 VRB04KT P6SM
                       SCT050 SCT080 FM301400 VRB02KT P6SM BKN015
                       FM302000 32005KT P6SM SCT025 SCT050=
201208291515 KSEA 291515Z 2915/3018 22006KT P6SM SCT020 BKN080
                      TEMPO 2915/2918 BKN015 OVC080 FM292000 21007KT
                       P6SM SCT025 BKN040 FM300000 24007KT P6SM
                       SCT050 BKN100=
201208291342 KSEA 291342Z 2914/3018 20007KT P6SM SCT020 BKN080
                      TEMPO 2914/2918 BKN015 OVC080 FM292000 21007KT
                       P6SM SCT025 BKN040 FM300000 24007KT P6SM
                       SCT050 BKN100=
201208291124 TAF KSEA 291124Z 2912/3018 19006KT P6SM SCT020 BKN070
                      TEMPO 2912/2914 BKN020 OVC070 FM291400 20007KT
                       P6SM VCSH OVC016 FM292000 21007KT P6SM SCT025
                       BKN040 FM300000 24007KT P6SM SCT050 BKN100=
201208290907 KSEA 290907Z 2909/3012 20006KT P6SM VCSH SCT012 BKN070
                      TEMPO 2909/2913 OVC012 FM291300 20007KT P6SM
                       VCSH OVC012 FM292000 21007KT P6SM SCT025
                       BKN040=
201208290522 TAF KSEA 290522Z 2906/3012 22006KT P6SM SCT050 BKN080 FM290800
                       20007KT P6SM VCSH SCT012 BKN070
                      TEMPO 2908/2912 OVC012 FM291200 20007KT P6SM
                       VCSH OVC012 FM292000 21007KT P6SM SCT025
                       BKN040=
201208290303 KSEA 290303Z 2903/3006 22006KT P6SM SCT040 BKN100 FM290800 20007KT
                       P6SM VCSH SCT012 BKN100
                      TEMPO 2908/2912 OVC012 FM291200 20007KT P6SM
                       VCSH OVC012 FM292000 21007KT P6SM SCT025
                       BKN040=
201208282320 TAF KSEA 282320Z 2900/3006 24007KT P6SM SCT045 BKN100 FM290300
                       22006KT P6SM VCSH BKN045 OVC070 FM291000
                       19007KT P6SM VCSH OVC011 FM292000 21007KT
                       P6SM SCT025 BKN040=
201208282100 KSEA 282100Z 2821/2924 20006KT P6SM SCT040 FM290300 22006KT P6SM
                       BKN060 OVC080 FM291000 19005KT P6SM OVC011
                       FM292000 21007KT P6SM SCT025 BKN040=
201208281720 TAF KSEA 281720Z 2818/2924 21007KT P6SM SCT045 BKN070 FM282000
                       22007KT P6SM SCT080 BKN200 FM290300 22006KT
                       P6SM BKN060 OVC080 FM291000 19005KT P6SM
                       OVC011 FM292000 21007KT P6SM SCT025 BKN040=
201208281507 KSEA 281507Z 2815/2918 17005KT P6SM BKN080 BKN200 FM281900 22007KT
                       P6SM SCT080 BKN200 FM290200 25006KT P6SM
                       BKN050 BKN080 FM290900 20006KT P6SM BKN020
                       OVC040=
201208281120 TAF KSEA 281120Z 2812/2918 VRB03KT P6SM OVC080 FM281900 22007KT
                       P6SM SCT080 BKN200 FM290200 25006KT P6SM
                       BKN050 BKN080 FM290900 20006KT P6SM BKN020
                       OVC040=
201208280903 KSEA 280903Z 2809/2912 VRB03KT P6SM BKN080 FM281800 22007KT P6SM
                       SCT080 BKN200 FM290200 25006KT P6SM BKN060
                       BKN200=
201208280527 TAF KSEA 280527Z 2806/2912 VRB03KT P6SM FEW070 SCT200 FM281200
                       VRB03KT P6SM SCT060 BKN200 FM281800 22007KT
                       P6SM SCT060 BKN200 FM290200 25006KT P6SM
                       BKN060 BKN200=
201208280303 KSEA 280303Z 2803/2906 VRB03KT P6SM SCT030 SCT080 FM280900 VRB03KT
                       P6SM SCT060 FM281600 17004KT P6SM SCT060
                       FM282200 22006KT P6SM SCT060=
201208272320 TAF KSEA 272320Z 2800/2906 26006KT P6SM SCT030 SCT080 BKN200 FM280400
                       34005KT P6SM BKN060 BKN200 FM280900 VRB03KT
                       P6SM BKN060 BKN250 FM281600 17004KT P6SM
                       SCT060 FM282200 22006KT P6SM SCT060=
201208272106 KSEA 272106Z 2721/2824 27009KT P6SM SCT250 FM280400 34005KT P6SM
                       SCT250 FM280900 VRB02KT P6SM SCT080 SCT250
                       FM281500 17004KT P6SM BKN080=
201208271724 TAF KSEA 271724Z 2718/2824 23004KT P6SM FEW025 SCT250 FM280000
                       28005KT P6SM SCT250 FM280400 34005KT P6SM
                       SCT250 FM280900 VRB02KT P6SM SCT080 SCT250
                       FM281500 17004KT P6SM BKN080=
201208271410 KSEA 271410Z 2714/2818 20003KT P6SM FEW021 BKN200 FM271800 24006KT
                       P6SM SCT025 SCT050 FM280000 28005KT P6SM
                       SCT250 FM280400 34005KT P6SM SCT250=
201208271120 TAF KSEA 271120Z 2712/2818 VRB03KT P6SM BKN020 OVC030 FM271700
                       20003KT P6SM SCT020 BKN050 FM271900 24006KT
                       P6SM SCT025 SCT050 FM280000 28005KT P6SM
                       SCT250 FM280400 34005KT P6SM SCT250=
201208270904 KSEA 270904Z 2709/2812 VRB03KT P6SM BKN015 OVC030 FM271800 21006KT
                       P6SM SCT020 BKN060 FM272000 24007KT P6SM
                       SCT035 BKN250 FM280200 31005KT P6SM SCT250=
201208270730 KSEA 270730Z 2708/2812 24005KT P6SM BKN015 OVC030 FM271200 17004KT
                       P6SM BKN015 OVC030 FM271800 21006KT P6SM
                       SCT025 BKN060 FM272000 24007KT P6SM SCT035
                       BKN250 FM280200 31005KT P6SM SCT250=
201208270540 TAF KSEA 270540Z 2706/2812 23008KT P6SM BKN060 OVC090 FM270900
                       16005KT P6SM OVC060 FM271200 17004KT P6SM
                       BKN030 OVC060 FM271800 21006KT P6SM SCT030
                       BKN060 FM272000 24007KT P6SM SCT035 BKN250
                       FM280200 31005KT P6SM SCT250=
201208270306 KSEA 270306Z 2703/2806 20006KT P6SM SCT040 BKN120 FM270600 20006KT
                       P6SM BKN040 OVC090 FM270900 16005KT P6SM
                       OVC040 FM271200 17004KT P6SM OVC030 FM271800
                       23006KT P6SM SCT030 BKN070 BKN250 FM272000
                       23008KT P6SM SCT035 SCT070 BKN250=
201208262345 TAF KSEA 262345Z 2700/2806 23011KT P6SM SCT090 OVC150 FM270300
                       20009KT P6SM SCT035 OVC090 FM270600 20006KT
                       P6SM BKN035 OVC090 FM271200 17004KT P6SM
                       OVC025 FM271800 23006KT P6SM SCT030 BKN070
                       BKN250 FM272000 23008KT P6SM SCT035 SCT070
                       BKN250=
201208262101 KSEA 262101Z 2621/2724 22011KT P6SM SCT150 OVC250 FM270000 22009KT
                       P6SM SCT100 OVC200 FM270900 18005KT P6SM
                       SCT028 BKN100 BKN200
                      TEMPO 2713/2717 BKN028 OVC100 FM271800 23006KT
                       P6SM SCT035 SCT100 BKN200=
201208261748 TAF KSEA 261748Z 2618/2724 20009KT P6SM SCT150 OVC250 FM262100
                       22009KT P6SM SCT150 OVC250 FM270000 22009KT
                       P6SM SCT100 OVC200 FM270900 18005KT P6SM
                       SCT028 BKN100 BKN200
                      TEMPO 2713/2717 BKN028 OVC100 FM271800 23006KT
                       P6SM SCT035 SCT100 BKN200=
201208261120 TAF KSEA 261120Z 2612/2718 19005KT P6SM BKN250 FM261400 19005KT
                       P6SM SCT006 BKN250 FM261800 22006KT P6SM
                       SCT030 BKN200 FM270000 22007KT P6SM SCT045
                       BKN100 FM270400 19005KT P6SM BKN040 OVC080
                       FM270900 18004KT P6SM OVC030=
201208260902 KSEA 260902Z 2609/2712 17005KT P6SM BKN250 FM261400 19005KT P6SM
                       FEW006 BKN250 FM261800 22006KT P6SM BKN200
                       FM270000 22007KT P6SM SCT045 BKN100 FM270500
                       20007KT P6SM BKN040 OVC080=
201208260532 TAF KSEA 260532Z 2606/2712 36005KT P6SM SCT250 FM260900 20004KT
                       P6SM SCT250 FM261400 19005KT P6SM BKN250
                       FM261800 22006KT P6SM BKN200 FM270000 22007KT
                       P6SM SCT045 BKN100 FM270500 20007KT P6SM
                       BKN040 OVC080=
201208260303 KSEA 260303Z 2603/2706 34005KT P6SM SCT250 FM260900 20004KT P6SM
                       SCT250 FM261400 19006KT P6SM BKN250 FM261800
                       21007KT P6SM SCT150 BKN250 FM262000 23009KT
                       P6SM SCT045 BKN200 FM270300 20007KT P6SM
                       BKN040 OVC100=
201208252340 TAF KSEA 252340Z 2600/2706 32007KT P6SM SCT250 FM260300 VRB03KT
                       P6SM SCT250 FM261400 19006KT P6SM VCFG FEW002
                       BKN250 FM261800 21007KT P6SM SCT150 BKN250
                       FM262000 23009KT P6SM SCT150 BKN250 FM270300
                       20007KT P6SM SCT100 OVC200=
201208252101 KSEA 252101Z 2521/2624 31008KT P6SM SKC FM260300 VRB03KT P6SM SKC
                       FM261400 19006KT P6SM VCFG FEW002 SCT250
                       FM261800 21007KT P6SM SCT250 FM262000 23009KT
                       P6SM BKN250=
201208251734 TAF KSEA 251734Z 2518/2624 01008KT P6SM SKC FM252100 33008KT P6SM
                       SKC FM260300 VRB03KT P6SM SKC FM261400 19006KT
                       P6SM VCFG FEW002 SCT250 FM261800 21007KT
                       P6SM SCT250 FM262000 23009KT P6SM BKN250=
201208251514 KSEA 251514Z 2515/2618 01009KT P6SM SKC FM251800 36008KT P6SM SKC
                       FM260200 34004KT P6SM FEW250 FM260900 21003KT
                       P6SM FEW250=
201208251120 TAF KSEA 251120Z 2512/2618 03008KT P6SM SKC FM251800 36008KT P6SM
                       SKC FM260200 34004KT P6SM FEW250 FM260900
                       21003KT P6SM FEW250=
201208250902 TAF AMD KSEA 250902Z 2509/2612 01009KT P6SM SKC FM251200 02007KT
                       P6SM SKC FM251800 36008KT P6SM SKC FM260200
                       34004KT P6SM FEW250 FM260900 21003KT P6SM
                       FEW250=
201208250520 TAF KSEA 250520Z 2506/2612 01009KT P6SM SKC FM250900 02006KT P6SM
                       SKC FM251800 36008KT P6SM SKC FM260300 VRB03KT
                       P6SM FEW250=
201208250407 KSEA 250407Z 2504/2606 35011KT P6SM SKC FM250900 02006KT P6SM SKC
                       FM251800 33006KT P6SM SKC FM260300 VRB03KT
                       P6SM FEW250=
201208242326 TAF KSEA 242326Z 2500/2606 34009KT P6SM FEW040 FM250300 02009KT
                       P6SM SKC FM251200 02006KT P6SM SKC FM251800
                       33006KT P6SM SKC FM260300 VRB03KT P6SM FEW250=
201208242144 KSEA 242144Z 2422/2524 35009KT P6SM FEW035 FM250300 02008KT P6SM
                       SKC FM251800 34006KT P6SM SKC=
201208242003 KSEA 242003Z 2420/2524 35006KT P6SM FEW035 FM250300 02008KT P6SM
                       SKC FM251800 34006KT P6SM SKC=
201208241725 TAF KSEA 241725Z 2418/2524 28004KT P6SM FEW030 SCT050
                      TEMPO 2418/2420 BKN050 FM242000 32008KT P6SM
                       FEW050 FM250300 02008KT P6SM SKC FM251800
                       34006KT P6SM SKC=
201208241632 KSEA 241632Z 2417/2518 VRB03KT P6SM FEW030 BKN045 FM241800 33006KT
                       P6SM SCT050 SCT250 FM242100 32009KT P6SM
                       SCT250 FM250600 02007KT P6SM SCT250=
201208241512 KSEA 241512Z 2415/2518 VRB03KT P6SM FEW080 FM241800 33006KT P6SM
                       SCT250 FM242100 32009KT P6SM SCT250 FM250600
                       02007KT P6SM SCT250=
201208241120 TAF KSEA 241120Z 2412/2518 18004KT P6SM SCT050
                      TEMPO 2413/2416 BKN045 FM241800 33006KT P6SM
                       SCT250 FM242100 32009KT P6SM SCT250 FM250600
                       02007KT P6SM SCT250=
201208240903 KSEA 240903Z 2409/2512 08004KT P6SM SCT050
                      TEMPO 2413/2416 BKN045 FM241800 33006KT P6SM
                       SCT250 FM242100 32009KT P6SM SCT250 FM250600
                       02007KT P6SM SCT250=
201208240520 TAF KSEA 240520Z 2406/2512 04009KT P6SM BKN050 FM240900 07007KT
                       P6SM BKN045 FM241300 14004KT P6SM OVC040
                       FM241800 33006KT P6SM SCT040 FM242100 32010KT
                       P6SM SCT250 FM250500 02010KT P6SM SCT250=
201208240322 KSEA 240322Z 2403/2506 03009KT P6SM SCT050 FM240900 07005KT P6SM
                       SCT040 FM241300 14004KT P6SM BKN040 FM241800
                       33006KT P6SM SCT040 FM242100 32010KT P6SM
                       FEW250 FM250200 34010KT P6SM SKC=
201208232320 TAF KSEA 232320Z 2400/2506 30006KT P6SM SCT030 BKN060 FM240300
                       02006KT P6SM BKN060 FM240900 VRB03KT P6SM
                       BKN030 FM241800 24006KT P6SM SCT035 FM242100
                       30007KT P6SM SCT040 FM250200 36007KT P6SM
                       SCT045=
201208232104 KSEA 232104Z 2321/2424 VRB05KT P6SM SCT030 BKN060 FM232300 30006KT
                       P6SM SCT030 BKN060 FM240300 02006KT P6SM
                       BKN060 FM240900 VRB03KT P6SM BKN030 FM241800
                       24006KT P6SM SCT035=
201208231735 TAF KSEA 231735Z 2318/2424 26006KT P6SM SCT030 BKN050 FM231900
                       24006KT P6SM SCT030 BKN060
                      TEMPO 2319/2322 BKN030 BKN060 FM240000 29006KT
                       P6SM SCT030 BKN060 FM240300 02006KT P6SM
                       BKN060 FM240900 VRB03KT P6SM BKN035 FM241800
                       24006KT P6SM SCT040=
201208231507 KSEA 231507Z 2315/2418 04006KT P6SM SCT030 BKN060 FM231700 26006KT
                       P6SM SCT030 BKN060 FM231900 24006KT P6SM
                       SCT030 BKN060 FM240000 29006KT P6SM SCT030
                       BKN060 FM240300 02006KT P6SM BKN060 FM240900
                       VRB03KT P6SM BKN035=
201208231120 TAF KSEA 231120Z 2312/2418 02007KT P6SM BKN040 OVC060 FM231300
                       VRB03KT P6SM SCT020 OVC040
                      TEMPO 2313/2316 BKN020 OVC040 FM231900 26006KT
                       P6SM SCT020 BKN040 FM240000 29006KT P6SM
                       BKN045 FM240300 02005KT P6SM SCT050=
201208230902 KSEA 230902Z 2309/2412 02007KT P6SM OVC040 FM231300 VRB03KT P6SM
                       SCT020 OVC040
                      TEMPO 2313/2316 BKN020 OVC040 FM231900 26006KT
                       P6SM SCT020 BKN040 FM240000 29006KT P6SM
                       BKN045 FM240400 VRB04KT P6SM SCT050=
201208230709 KSEA 230709Z 2307/2412 02007KT P6SM OVC050 FM231300 VRB03KT P6SM
                       SCT020 OVC045
                      TEMPO 2313/2317 BKN020 OVC045 FM231900 24007KT
                       P6SM SCT025 BKN050 FM240000 29006KT P6SM
                       BKN050 FM240400 VRB04KT P6SM SCT050=
201208230546 TAF KSEA 230546Z 2306/2412 36005KT P6SM SCT045 FM230900 03005KT
                       P6SM BKN045 FM231300 VRB03KT P6SM SCT020
                       OVC045
                      TEMPO 2313/2317 BKN020 OVC045 FM231900 24007KT
                       P6SM SCT025 BKN050 FM240000 29006KT P6SM
                       BKN050 FM240400 VRB04KT P6SM SCT050=
201208230342 KSEA 230342Z 2304/2406 33005KT P6SM FEW060 FM230900 03005KT P6SM
                       BKN040 FM231300 VRB03KT P6SM BKN020 OVC040
                       FM231900 25006KT P6SM SCT030 BKN040 FM240200
                       VRB04KT P6SM OVC040=
201208222348 TAF KSEA 222348Z 2300/2406 32005KT P6SM SCT040 FM230300 32004KT
                       P6SM FEW060 FM230900 03005KT P6SM BKN040
                       FM231300 VRB03KT P6SM BKN025 OVC040
                      TEMPO 2315/2318 BKN015 OVC025 FM231900 25006KT
                       P6SM SCT030 BKN040 FM240200 VRB04KT P6SM
                       OVC040=
201208222105 KSEA 222105Z 2221/2324 26005KT P6SM BKN040 FM230100 33006KT P6SM
                       BKN060 FM231300 VRB03KT P6SM BKN025 OVC040
                       TEMPO 2315/2318 BKN015 OVC025 FM232100 25006KT
                       P6SM SCT030 BKN040=
201208221751 TAF KSEA 221751Z 2218/2324 VRB03KT P6SM BKN015 BKN025 FM221900
                       VRB04KT P6SM SCT015 BKN030 FM222100 26006KT
                       P6SM BKN040 FM230100 33006KT P6SM BKN060
                       FM231300 VRB03KT P6SM BKN025 OVC040
                      TEMPO 2315/2318 BKN015 OVC025 FM232100 25006KT
                       P6SM SCT030 BKN040=
201208221500 KSEA 221500Z 2215/2318 VRB03KT P6SM SCT025 BKN050
                      TEMPO 2215/2217 BKN030 FM222100 25006KT P6SM
                       BKN060 FM230100 33006KT P6SM BKN060 FM231300
                       VRB03KT P6SM BKN025 OVC040=
201208221130 TAF KSEA 221130Z 2212/2318 VRB03KT P6SM SCT025 BKN050
                      TEMPO 2214/2217 BKN025 FM222100 25006KT P6SM
                       BKN060 FM230100 33006KT P6SM BKN060 FM231300
                       VRB03KT P6SM BKN025 OVC040=
201208220913 KSEA 220913Z 2209/2312 01006KT P6SM BKN050 FM221300 VRB03KT P6SM
                       BKN050 FM222100 25006KT P6SM SCT060 FM230000
                       33006KT P6SM SCT110 BKN200=
201208220534 TAF KSEA 220534Z 2206/2312 01006KT P6SM BKN060 FM221000 VRB03KT
                       P6SM SCT060 FM221300 19006KT P6SM SCT015
                       SCT060 FM222100 25006KT P6SM SCT060 FM230000
                       33006KT P6SM SCT110 BKN200=
201208220311 KSEA 220311Z 2203/2306 35006KT P6SM BKN060 FM221200 19006KT P6SM
                       OVC018 FM222100 25006KT P6SM BKN028 BKN200
                       FM230000 29006KT P6SM SCT035 SCT110 BKN200=
201208212320 TAF KSEA 212320Z 2200/2306 25006KT P6SM FEW030 BKN050 FM220900
                       19007KT P6SM BKN025 BKN050 FM221200 19005KT
                       P6SM OVC018 FM222100 25006KT P6SM BKN028
                       BKN200 FM230000 29006KT P6SM SCT035 SCT110
                       BKN200=
201208212108 KSEA 212108Z 2121/2224 23009KT P6SM FEW025 BKN050 FM220900 19007KT
                       P6SM BKN025 BKN050 FM221200 19005KT P6SM
                       OVC018 FM222100 25006KT P6SM BKN028 BKN200=
201208211740 TAF KSEA 211740Z 2118/2224 19006KT P6SM SCT035 BKN050
                      TEMPO 2118/2121 BKN035 BKN050 FM212100 23009KT
                       P6SM SCT035 BKN050 FM220900 19007KT P6SM
                       BKN025 BKN050 FM221200 19005KT P6SM OVC018
                       FM222100 25006KT P6SM BKN028 BKN200=
201208211659 KSEA 211659Z 2117/2218 17006KT P6SM BKN035 BKN045 FM211900 20008KT
                       P6SM SCT035 SCT045 FM220300 24006KT P6SM
                       BKN050 FM221000 20008KT P6SM OVC015=
201208211505 KSEA 211505Z 2115/2218 VRB03KT P6SM FEW004 OVC045 FM211800 20008KT
                       P6SM SCT045 FM220300 24006KT P6SM BKN050
                       FM221000 20008KT P6SM OVC015=
201208211504 KSEA 211504Z 2115/2218 VRB03KT P6SM FEW004 BKN045 FM211800 20008KT
                       P6SM SCT045 FM220300 24006KT P6SM BKN050
                       FM221000 20008KT P6SM OVC015=
201208211335 KSEA 211335Z 2114/2218 20005KT P6SM BKN045 FM211800 20008KT P6SM
                       SCT045 FM220300 24006KT P6SM BKN050 FM221000
                       20008KT P6SM OVC015=
201208211134 TAF KSEA 211134Z 2112/2218 VRB03KT P6SM SCT200 FM211400 20008KT
                       P6SM SCT045 FM220300 24006KT P6SM BKN050
                       FM221000 20008KT P6SM OVC015=
201208210907 KSEA 210907Z 2109/2212 34004KT P6SM SCT200 FM211100 VRB03KT P6SM
                       SCT200 FM211400 20006KT P6SM SCT010 FM211700
                       23008KT P6SM SCT250 FM220600 23008KT P6SM
                       SCT015 BKN050 FM221000 23008KT P6SM OVC015=
201208210538 TAF KSEA 210538Z 2106/2212 34006KT P6SM SCT200 FM211000 VRB03KT
                       P6SM SCT200 FM211400 20006KT P6SM SCT010
                       FM211700 23008KT P6SM SCT250 FM220600 23008KT
                       P6SM SCT015 BKN050 FM221000 23008KT P6SM
                       OVC015=
201208202320 TAF KSEA 202320Z 2100/2206 31006KT P6SM BKN200 FM210600 34004KT
                       P6SM SCT200 FM211200 20004KT P6SM OVC012
                       FM211900 21005KT P6SM SCT015 SCT050 FM212100
                       24008KT P6SM SCT250=
201208202104 KSEA 202104Z 2021/2124 29007KT P6SM FEW080 BKN200 FM210000 31005KT
                       P6SM SCT200 FM211200 19006KT P6SM OVC015
                       FM212100 21005KT P6SM SCT030 BKN050=
201208201741 TAF KSEA 201741Z 2018/2124 VRB03KT P6SM BKN200 FM202000 26005KT
                       P6SM SCT200 FM210000 31005KT P6SM SCT200
                       FM211200 19006KT P6SM OVC015 FM212100 21005KT
                       P6SM SCT030 BKN050=
201208201500 KSEA 201500Z 2015/2118 VRB03KT P6SM SCT045 BKN200 FM202000 26006KT
                       P6SM SCT050 SCT200 FM210000 31006KT P6SM
                       SCT050 FM211100 19006KT P6SM OVC015=
201208201134 TAF KSEA 201134Z 2012/2118 VRB03KT P6SM SCT021 OVC040
                      TEMPO 2013/2017 BKN021 OVC040 FM201800 VRB03KT
                       P6SM BKN040 FM202000 31006KT P6SM SCT045
                       FM211100 19006KT P6SM OVC015=
201208200905 KSEA 200905Z 2009/2112 VRB03KT P6SM BKN035 FM201400 21006KT P6SM
                       OVC011 FM201700 24006KT P6SM OVC020 FM202000
                       31006KT P6SM SCT035 FM211100 19006KT P6SM
                       OVC015=
201208200528 TAF KSEA 200528Z 2006/2112 VRB03KT P6SM BKN035
                      TEMPO 2008/2012 SCT035 FM201200 21006KT P6SM
                       OVC011 FM201700 24006KT P6SM OVC020 FM202000
                       31006KT P6SM SCT035 FM211100 19006KT P6SM
                       OVC015=
201208200309 KSEA 200309Z 2003/2106 24006KT P6SM SCT030 FM201200 VRB03KT P6SM
                       OVC011 FM201800 24005KT P6SM OVC020 FM202100
                       29006KT P6SM SCT030=
201208192337 TAF KSEA 192337Z 2000/2106 24006KT P6SM SCT030
                      TEMPO 2003/2007 BKN030 FM200700 VRB03KT P6SM
                       OVC020 FM201200 VRB03KT P6SM OVC011 FM201800
                       24005KT P6SM OVC020 FM202100 26005KT P6SM
                       BKN025 FM202300 29006KT P6SM SCT030=
201208192005 KSEA 192005Z 1920/2024 23006KT P6SM SCT025 OVC035 FM192300 27006KT
                       P6SM SCT025 BKN035 FM200600 VRB03KT P6SM
                       OVC015 FM201200 VRB03KT P6SM OVC011 FM201800
                       24005KT P6SM OVC020 FM202100 26005KT P6SM
                       BKN025=
201208191721 TAF KSEA 191721Z 1918/2024 23006KT P6SM BKN020 OVC030 FM192100
                       23006KT P6SM BKN025 OVC035 FM192300 27006KT
                       P6SM SCT025 BKN035 FM200600 VRB03KT P6SM
                       OVC015 FM201200 VRB03KT P6SM OVC011 FM201800
                       24005KT P6SM OVC020 FM202100 26005KT P6SM
                       BKN025=
201208191507 KSEA 191507Z 1915/2018 21006KT P6SM BKN018 OVC030
                      TEMPO 1917/1921 SCT018 OVC030 FM192100 23006KT
                       P6SM BKN030 OVC040 FM192300 24006KT P6SM
                       SCT030 BKN040 FM200600 23006KT P6SM OVC015=
201208191303 KSEA 191303Z 1913/2018 20008KT P6SM OVC016 FM192100 23006KT P6SM
                       BKN025 FM200600 23006KT P6SM OVC015=
201208191133 TAF KSEA 191133Z 1912/2018 20008KT P6SM OVC004 FM191500 20008KT
                       P6SM OVC008 FM191800 20008KT P6SM OVC012
                       FM192100 23006KT P6SM BKN025 FM200600 23006KT
                       P6SM OVC015=
201208190904 KSEA 190904Z 1909/2012 20008KT P6SM OVC004 FM191400 20008KT P6SM
                       OVC008 FM191900 20008KT P6SM OVC012 FM192200
                       23006KT P6SM BKN020 FM200000 23006KT P6SM
                       BKN025 FM200600 23006KT P6SM OVC015=
201208190538 TAF KSEA 190538Z 1906/2012 20008KT P6SM BKN120 FM190700 20008KT
                       P6SM OVC004 FM191600 20008KT P6SM OVC008
                       FM191900 20008KT P6SM OVC012 FM192200 23006KT
                       P6SM BKN020 FM200000 23006KT P6SM SCT020
                       FM200600 23006KT P6SM OVC012=
201208190311 KSEA 190311Z 1903/2006 30006KT P6SM SCT070 BKN120CB FM190700 21006KT
                       P6SM BKN120 FM190900 21006KT P6SM OVC012
                       FM191300 20006KT P6SM OVC008 FM191900 23006KT
                       P6SM OVC012 FM192200 24006KT P6SM BKN020
                       FM200000 24006KT P6SM SCT020=
201208182320 TAF KSEA 182320Z 1900/2006 26006KT P6SM VCTS SCT070 BKN120CB FM190900
                       21006KT P6SM OVC012 FM191300 20006KT P6SM
                       OVC008 FM191900 23006KT P6SM OVC012 FM192200
                       24006KT P6SM BKN020 FM200000 24006KT P6SM
                       SCT020=
201208182102 KSEA 182102Z 1821/1924 22006KT P6SM SCT070 BKN120 FM182300 24006KT
                       P6SM VCTS SCT070 BKN120CB FM190800 21008KT
                       P6SM OVC008 FM191300 21008KT P6SM OVC012
                       FM192200 24006KT P6SM BKN020=
201208181951 KSEA 181951Z 1820/1924 22006KT P6SM SCT015 BKN120 FM182100 24006KT
                       P6SM VCTS SCT070 BKN120CB FM190800 21008KT
                       P6SM OVC008 FM191300 21008KT P6SM OVC012
                       FM192200 24006KT P6SM BKN020=
201208181740 TAF KSEA 181740Z 1818/1924 22006KT P6SM OVC005 FM182000 22006KT
                       P6SM BKN007 BKN120CB FM182100 24006KT P6SM
                       VCTS SCT070 BKN120CB FM190800 21008KT P6SM
                       OVC008 FM191300 21008KT P6SM OVC012 FM192200
                       24006KT P6SM BKN020=
201208181602 KSEA 181602Z 1816/1918 22006KT 4SM BR OVC004
                      TEMPO 1816/1818 1SM BR OVC002 FM181800 22006KT
                       P6SM OVC008 FM182100 24006KT P6SM SCT070
                       BKN120CB FM190800 21008KT P6SM OVC008 FM191300
                       21008KT P6SM OVC012=
201208181503 KSEA 181503Z 1815/1918 22006KT 5SM BR OVC003 FM181600 22006KT P6SM
                       OVC006 FM181800 22006KT P6SM OVC010 FM182100
                       24006KT P6SM SCT070 BKN120CB FM190800 21008KT
                       P6SM OVC008 FM191300 21008KT P6SM OVC012=
201208181139 TAF KSEA 181139Z 1812/1918 21008KT P6SM OVC003 FM181600 21008KT
                       P6SM OVC006 FM181900 24006KT P6SM SCT070
                       BKN120CB FM190800 21008KT P6SM OVC008 FM191300
                       21008KT P6SM OVC012=
201208180903 KSEA 180903Z 1809/1912 21008KT P6SM SKC FM181000 21008KT P6SM OVC003
                       TEMPO 1811/1815 4SM BR FM181600 21008KT
                       P6SM OVC006 FM181800 24006KT P6SM BKN120CB
                       FM190800 21008KT P6SM OVC008=
201208180537 TAF KSEA 180537Z 1806/1912 30006KT P6SM SKC FM180700 VRB03KT P6SM
                       SKC FM181200 22006KT P6SM OVC003
                      TEMPO 1812/1815 4SM BR FM181700 22006KT P6SM
                       BKN006 FM181800 24006KT P6SM BKN120CB FM190800
                       21008KT P6SM OVC008=
201208180318 KSEA 180318Z 1803/1906 30006KT P6SM SKC FM180700 VRB03KT P6SM SKC
                       FM181000 22005KT P6SM SKC FM181300 22005KT
                       P6SM SCT003 SCT140 FM181700 20005KT P6SM
                       BKN140CB FM182200 24006KT P6SM BKN120CB=
201208172320 TAF KSEA 172320Z 1800/1906 28006KT P6SM SKC FM180500 VRB03KT P6SM
                       SKC FM181000 22005KT P6SM SKC FM181300 22005KT
                       P6SM SCT003 SCT140 FM181700 20005KT P6SM
                       BKN140CB FM182200 24006KT P6SM BKN120CB=
201208172104 KSEA 172104Z 1721/1824 26006KT P6SM SKC FM180100 30006KT P6SM SKC
                       FM180500 VRB03KT P6SM SKC FM181000 22005KT
                       P6SM SKC FM181300 22005KT P6SM SCT003 SCT140
                       FM181700 20005KT P6SM BKN140CB=
201208171722 TAF KSEA 171722Z 1718/1824 21004KT P6SM SKC FM172100 26006KT P6SM
                       SKC FM180100 30006KT P6SM SKC FM180500 VRB03KT
                       P6SM SKC FM181000 22005KT P6SM SKC FM181300
                       22005KT P6SM SCT003 SCT140 FM181700 20005KT
                       P6SM BKN140CB=
201208171505 KSEA 171505Z 1715/1818 21004KT P6SM SKC FM172100 28006KT P6SM SKC
                       FM180400 VRB03KT P6SM SKC FM181100 19004KT
                       P6SM SCT005
                      TEMPO 1812/1815 BKN003 FM181700 19005KT P6SM
                       SKC=
201208171126 TAF KSEA 171126Z 1712/1818 VRB03KT P6SM SKC FM172100 28006KT P6SM
                       SKC FM180400 VRB03KT P6SM SKC FM181100 19004KT
                       P6SM SCT005
                      TEMPO 1812/1815 BKN003 FM181700 19005KT P6SM
                       SKC=
201208170902 KSEA 170902Z 1709/1812 VRB03KT P6SM SKC FM172100 28006KT P6SM SKC
                       FM180400 VRB03KT P6SM SKC FM181100 18004KT
                       P6SM SCT005=
201208170520 TAF KSEA 170520Z 1706/1812 VRB03KT P6SM SKC FM172100 28006KT P6SM
                       SKC FM180400 VRB03KT P6SM SKC FM181100 18004KT
                       P6SM SCT005=
201208170301 KSEA 170301Z 1703/1806 36005KT P6SM SKC FM170600 VRB03KT P6SM SKC
                       FM172000 26007KT P6SM SKC FM180300 22007KT
                       P6SM SKC=
201208162336 TAF KSEA 162336Z 1700/1806 25006KT P6SM SKC FM170300 VRB03KT P6SM
                       SKC FM172000 26007KT P6SM SKC FM180300 22007KT
                       P6SM SKC=
201208162103 KSEA 162103Z 1621/1724 28008KT P6SM SKC FM170600 02006KT P6SM SKC
                       FM171200 VRB03KT P6SM SKC FM172100 26006KT
                       P6SM SKC=
201208161729 TAF KSEA 161729Z 1618/1724 35008KT P6SM SKC FM162100 32008KT P6SM
                       SKC FM170600 02006KT P6SM SKC FM171200 VRB03KT
                       P6SM SKC FM172100 26006KT P6SM SKC=
201208161500 KSEA 161500Z 1615/1718 03008KT P6SM SKC FM161800 32008KT P6SM SKC
                       FM170600 03006KT P6SM SKC FM171200 VRB03KT
                       P6SM SKC=
201208161120 TAF KSEA 161120Z 1612/1718 03008KT P6SM SKC FM161800 32008KT P6SM
                       SKC FM170600 03006KT P6SM SKC FM171200 VRB03KT
                       P6SM SKC=
201208160903 KSEA 160903Z 1609/1712 03008KT P6SM SKC FM161800 32008KT P6SM SKC
                       FM170600 03006KT P6SM SKC=
201208160520 TAF KSEA 160520Z 1606/1712 03008KT P6SM SKC FM161800 32008KT P6SM
                       SKC FM170600 03006KT P6SM SKC=
201208160300 KSEA 160300Z 1603/1706 35009KT P6SM SKC FM160600 03007KT P6SM SKC
                       FM161800 32010KT P6SM SKC=
201208152325 TAF KSEA 152325Z 1600/1706 35012KT P6SM SKC FM160500 03007KT P6SM
                       SKC FM161800 32010KT P6SM SKC=
201208152100 KSEA 152100Z 1521/1624 36012KT P6SM SKC FM160500 03008KT P6SM SKC
                       FM161800 35010KT P6SM SKC=
201208151725 TAF KSEA 151725Z 1518/1624 36012KT P6SM SKC FM160500 03008KT P6SM
                       SKC FM161800 35010KT P6SM SKC=
201208151120 TAF KSEA 151120Z 1512/1618 02007KT P6SM SKC FM151700 36008KT P6SM
                       SKC FM152000 33012KT P6SM SKC FM160500 03008KT
                       P6SM SKC=
201208150904 KSEA 150904Z 1509/1612 02008KT P6SM SKC
                      TEMPO 1512/1514 FEW002 FM151700 36008KT P6SM
                       SKC FM152000 33010KT P6SM SKC FM160600 03008KT
                       P6SM SKC=
201208150520 TAF KSEA 150520Z 1506/1612 01008KT P6SM SKC FM151700 36008KT P6SM
                       SKC FM152000 33010KT P6SM SKC FM160600 03008KT
                       P6SM SKC=
201208142320 TAF KSEA 142320Z 1500/1606 32010KT P6SM FEW040 FM150600 04006KT
                       P6SM SKC
                      TEMPO 1512/1516 SCT005 FM151700 36008KT P6SM
                       SKC=
201208142101 KSEA 142101Z 1421/1524 31006KT P6SM FEW040
                      TEMPO 1504/1508 BKN040 FM151200 VRB03KT P6SM
                       SCT005 SCT040
                      TEMPO 1512/1516 BKN005 FM151700 36007KT P6SM
                       SKC=
201208141722 TAF KSEA 141722Z 1418/1524 VRB04KT P6SM SCT200 FM142100 35007KT
                       P6SM SCT040 SCT150
                      TEMPO 1504/1508 BKN040 FM151200 VRB03KT P6SM
                       SCT005 SCT040
                      TEMPO 1512/1516 BKN005 FM151700 36007KT P6SM
                       SKC=
201208141503 KSEA 141503Z 1415/1518 VRB04KT P6SM SCT200 FM142000 35007KT P6SM
                       SCT040 SCT120 FM150200 35008KT P6SM BKN040
                       FM151200 03006KT P6SM SCT010 SCT040 FM151600
                       30006KT P6SM SKC=
201208141120 TAF KSEA 141120Z 1412/1518 36004KT P6SM SCT250
                      TEMPO 1413/1415 FEW002 FM141500 30005KT P6SM
                       FEW060 SCT250 FM142000 35007KT P6SM FEW035
                       SCT060 FM150200 35008KT P6SM BKN035 FM150600
                       03006KT P6SM FEW035 FM151200 03006KT P6SM
                       SCT010 FM151600 30006KT P6SM SKC=
201208140903 KSEA 140903Z 1409/1512 36006KT P6SM SCT250 FM141000 02005KT P6SM
                       SCT250
                      TEMPO 1413/1415 FEW002 FM141500 23007KT P6SM
                       BKN035 BKN060 FM150200 35008KT P6SM SCT120
                       FM150400 03006KT P6SM SCT120=
201208140520 TAF KSEA 140520Z 1406/1512 03008KT P6SM SCT250 FM141000 VRB04KT
                       P6SM SCT250 FM141600 23007KT P6SM BKN035
                       BKN060 FM150200 35008KT P6SM SCT120 FM150400
                       03006KT P6SM SCT120=
201208140304 KSEA 140304Z 1403/1506 01006KT P6SM SCT250 FM140400 03008KT P6SM
                       SCT250 FM141000 VRB04KT P6SM SCT250 FM141600
                       23007KT P6SM BKN035 BKN060 FM150200 33008KT
                       P6SM SCT060 BKN120=
201208132320 TAF KSEA 132320Z 1400/1506 32006KT P6SM SCT250 FM140400 01009KT
                       P6SM SCT250 FM141000 21004KT P6SM SCT250
                       FM141600 23007KT P6SM BKN035 BKN060 FM150200
                       33008KT P6SM SCT060 BKN120=
201208132105 KSEA 132105Z 1321/1424 32006KT P6SM BKN250 FM140400 02006KT P6SM
                       SCT250 FM141500 22003KT P6SM SCT250 FM142100
                       30006KT P6SM SCT250=
201208131740 TAF KSEA 131740Z 1318/1424 30004KT P6SM SCT250 FM140400 02006KT
                       P6SM SKC FM141500 22003KT P6SM SCT250 FM142100
                       30006KT P6SM SCT250=
201208131505 KSEA 131505Z 1315/1418 00000KT P6SM SCT250 FM131800 33006KT P6SM
                       SKC FM132100 35010KT P6SM SKC=
201208131120 TAF KSEA 131120Z 1312/1418 04006KT P6SM SCT250 FM131800 33006KT
                       P6SM SKC FM132100 35010KT P6SM SKC=
201208130900 KSEA 130900Z 1309/1412 04006KT P6SM SCT250 FM131800 33006KT P6SM
                       SKC FM132100 35010KT P6SM SKC=
201208130520 TAF KSEA 130520Z 1306/1412 04006KT P6SM SKC FM131800 33006KT P6SM
                       SKC FM132100 35010KT P6SM SKC=
201208130302 KSEA 130302Z 1303/1406 35006KT P6SM SKC FM130600 04006KT P6SM SKC
                       FM132100 35010KT P6SM SKC=
201208122320 TAF KSEA 122320Z 1300/1406 35012KT P6SM SKC FM130600 04006KT P6SM
                       SKC FM132100 35010KT P6SM SKC=
201208122104 KSEA 122104Z 1221/1324 35012KT P6SM SKC FM130600 04006KT P6SM SKC
                       FM132100 35010KT P6SM SKC=
201208121720 TAF KSEA 121720Z 1218/1324 36005KT P6SM SKC FM122100 36012KT P6SM
                       SKC FM130600 04006KT P6SM SKC=
201208121506 KSEA 121506Z 1215/1318 36005KT P6SM SKC FM122100 36012KT P6SM SKC=
201208121120 TAF KSEA 121120Z 1212/1318 02005KT P6SM SKC FM121800 33007KT P6SM
                       SKC FM122100 36012KT P6SM SKC=
201208120900 KSEA 120900Z 1209/1312 02005KT P6SM SKC FM121800 33007KT P6SM SKC
                       FM122100 36012KT P6SM SKC=
201208120522 TAF KSEA 120522Z 1206/1312 02005KT P6SM SKC FM121800 33007KT P6SM
                       SKC FM122100 36012KT P6SM SKC=
201208120300 KSEA 120300Z 1203/1306 36007KT P6SM SKC FM120400 02004KT P6SM SKC
                       FM122100 36012KT P6SM SKC=
201208112328 TAF KSEA 112328Z 1200/1306 36010KT P6SM SKC FM120400 02004KT P6SM
                       SKC FM122100 36012KT P6SM SKC=
201208112101 KSEA 112101Z 1121/1224 36010KT P6SM SKC FM120400 02004KT P6SM SKC
                       FM122100 36012KT P6SM SKC=
201208111720 TAF KSEA 111720Z 1118/1224 VRB04KT P6SM SCT250 FM112000 36010KT
                       P6SM SKC FM120400 02004KT P6SM SKC=
201208111502 KSEA 111502Z 1115/1218 VRB03KT P6SM SCT250 FM112000 36010KT P6SM
                       SKC FM120400 02004KT P6SM SKC=
201208111120 TAF KSEA 111120Z 1112/1218 04004KT P6SM SKC FM111400 35006KT P6SM
                       SKC FM112000 36010KT P6SM SKC FM120400 02004KT
                       P6SM SKC=
201208110902 KSEA 110902Z 1109/1212 04004KT P6SM SKC FM111400 35006KT P6SM SKC
                       FM112000 36010KT P6SM SKC=
201208110520 TAF KSEA 110520Z 1106/1212 04004KT P6SM SKC FM111400 35006KT P6SM
                       SKC FM112000 36010KT P6SM SKC=
201208110301 KSEA 110301Z 1103/1206 36006KT P6SM SKC FM110600 04006KT P6SM SKC
                       FM111200 VRB03KT P6SM SKC FM112000 36010KT
                       P6SM SKC=
201208102320 TAF KSEA 102320Z 1100/1206 36010KT P6SM SKC FM110600 04006KT P6SM
                       SKC FM111200 VRB03KT P6SM SKC FM112000 36010KT
                       P6SM SKC=
201208102100 KSEA 102100Z 1021/1124 32007KT P6SM SKC=
201208101720 TAF KSEA 101720Z 1018/1124 VRB03KT P6SM SKC FM102100 34007KT P6SM
                       SKC=
201208101120 TAF KSEA 101120Z 1012/1118 02006KT P6SM SCT040
                      TEMPO 1012/1016 BKN040 FM101800 34008KT P6SM
                       SKC=
201208100900 KSEA 100900Z 1009/1112 02006KT P6SM SKC FM101800 34008KT P6SM SKC=
201208100532 TAF KSEA 100532Z 1006/1112 02006KT P6SM SCT200 FM100900 02006KT
                       P6SM SKC FM101800 34008KT P6SM SKC=
201208100300 KSEA 100300Z 1003/1106 36008KT P6SM SCT250 FM100600 02006KT P6SM
                       SKC FM101800 34008KT P6SM SKC=
201208092320 TAF KSEA 092320Z 1000/1106 36008KT P6SM BKN250 FM100600 02006KT
                       P6SM SCT200 FM101800 34008KT P6SM SKC=
201208092100 KSEA 092100Z 0921/1024 36008KT P6SM BKN250 FM100600 02006KT P6SM
                       SCT200=
201208091720 TAF KSEA 091720Z 0918/1024 36008KT P6SM BKN250 FM100600 02006KT
                       P6SM SCT200=
201208091501 KSEA 091501Z 0915/1018 03006KT P6SM SCT200 FM092100 34007KT P6SM
                       SCT200=
201208091120 TAF KSEA 091120Z 0912/1018 02007KT P6SM FEW040 FM091600 34006KT
                       P6SM SCT200 FM092100 34007KT P6SM SCT200=
201208090803 KSEA 090803Z 0908/1012 02007KT P6SM SCT040
                      TEMPO 0908/0911 BKN040 FM091900 34006KT P6SM
                       SKC FM092100 34007KT P6SM SKC=
201208090523 TAF KSEA 090523Z 0906/1012 33005KT P6SM BKN045 FM091400 02003KT
                       P6SM OVC030 FM091900 34006KT P6SM SCT040
                       FM092100 34007KT P6SM SCT250=
201208090301 KSEA 090301Z 0903/1006 33005KT P6SM BKN045 FM091400 02003KT P6SM
                       OVC025 FM091900 34006KT P6SM SCT250=
201208082329 TAF KSEA 082329Z 0900/1006 31005KT P6SM BKN045 FM090200 33006KT
                       P6SM SCT045 FM091400 02003KT P6SM OVC025
                       FM091900 34006KT P6SM SCT250=
201208082100 KSEA 082100Z 0821/0924 VRB05KT P6SM FEW035 BKN045 FM082300 33004KT
                       P6SM BKN045 FM091200 02004KT P6SM BKN015=
201208081729 TAF KSEA 081729Z 0818/0924 20005KT P6SM SCT030 BKN045 FM082000
                       23007KT P6SM BKN045 FM082300 33004KT P6SM
                       BKN045 FM091200 02004KT P6SM BKN015=
201208081501 KSEA 081501Z 0815/0918 17007KT P6SM FEW019 BKN028 BKN040 FM082000
                       22005KT P6SM BKN025 FM090500 VRB02KT P6SM
                       OVC025 FM091200 04005KT P6SM OVC015=
201208081120 TAF KSEA 081120Z 0812/0918 18006KT P6SM OVC020 FM081300 18006KT
                       P6SM OVC015
                      TEMPO 0813/0817 5SM -DZ BR OVC009 FM082000
                       22005KT P6SM BKN025 FM090500 VRB02KT P6SM
                       OVC025 FM091200 04005KT P6SM OVC015=
201208080814 KSEA 080814Z 0808/0912 19004KT P6SM BKN020 OVC025 FM081100 19005KT
                       P6SM OVC015
                      TEMPO 0812/0816 3SM -DZ BR OVC005 FM082000
                       22005KT P6SM BKN025 FM090500 VRB02KT P6SM
                       OVC020=
201208080520 TAF KSEA 080520Z 0806/0912 22004KT P6SM BKN020 BKN090 FM080800
                       20005KT P6SM OVC015 FM081100 19005KT P6SM
                       OVC008
                      TEMPO 0812/0816 2SM -DZ BR OVC002 FM081800
                       19005KT P6SM OVC012 FM082300 22005KT P6SM
                       BKN025 FM090500 VRB02KT P6SM OVC020=
201208080304 KSEA 080304Z 0803/0906 24005KT P6SM BKN020 BKN120 FM080600 22008KT
                       P6SM OVC012
                      TEMPO 0812/0816 2SM -DZ BR OVC002 FM082300
                       19006KT P6SM BKN020=
201208072327 TAF KSEA 072327Z 0800/0906 22008KT P6SM OVC016
                      TEMPO 0802/0806 SCT020 BKN200 FM080900 22008KT
                       P6SM OVC012
                      TEMPO 0812/0816 2SM -DZ BR OVC002 FM082300
                       19006KT P6SM BKN020=
201208072101 KSEA 072101Z 0721/0824 19006KT P6SM OVC014 FM080000 22008KT P6SM
                       SCT018 BKN200 FM080900 22008KT P6SM OVC012
                       TEMPO 0812/0816 2SM -DZ BR OVC002 FM082300
                       19006KT P6SM BKN020=
201208071726 TAF KSEA 071726Z 0718/0824 00000KT P6SM OVC005
                      TEMPO 0719/0721 SCT008 BKN120 FM072100 24007KT
                       P6SM SCT120 SCT200 FM080900 22008KT P6SM
                       OVC012
                      TEMPO 0812/0816 2SM -DZ BR OVC002 FM082300
                       19006KT P6SM BKN020=
201208071500 KSEA 071500Z 0715/0818 26003KT P6SM OVC004 FM071600 20005KT P6SM
                       SCT004 OVC009 FM071800 VRB04KT P6SM BKN012
                       FM071900 24007KT P6SM SCT120 SCT200 FM080900
                       22008KT P6SM OVC010
                      TEMPO 0812/0816 2SM -DZ BR OVC002=
201208071120 TAF KSEA 071120Z 0712/0818 20005KT P6SM OVC004 FM071600 20005KT
                       P6SM SCT004 OVC009 FM071800 VRB04KT P6SM
                       BKN012 FM071900 24007KT P6SM SCT120 SCT200
                       FM080900 22008KT P6SM OVC010
                      TEMPO 0812/0816 2SM -DZ BR OVC002=
201208070820 KSEA 070820Z 0708/0812 22003KT P6SM SKC FM070900 22004KT P6SM OVC005
                       FM071800 VRB04KT P6SM BKN012 FM071900 24007KT
                       P6SM SCT120 SCT200 FM080900 22008KT P6SM
                       OVC012=
201208070527 TAF KSEA 070527Z 0706/0812 36004KT P6SM SKC FM071000 20004KT P6SM
                       OVC009 FM071800 VRB04KT P6SM BKN015 FM071900
                       24007KT P6SM SCT120 SCT200 FM080900 22008KT
                       P6SM OVC012=
201208070302 KSEA 070302Z 0703/0806 30006KT P6SM SKC FM071000 20004KT P6SM OVC009
                       FM071800 VRB04KT P6SM BKN015 FM071900 24005KT
                       P6SM SCT120 SCT200=
201208062324 TAF KSEA 062324Z 0700/0806 36003KT P6SM SKC FM071500 20004KT P6SM
                       BKN015 FM071800 VRB04KT P6SM SCT250=
201208062101 KSEA 062101Z 0621/0724 31003KT P6SM SCT200 FM071200 21006KT P6SM
                       OVC007 FM072100 24007KT P6SM SCT250=
201208061727 TAF KSEA 061727Z 0618/0724 18005KT P6SM BKN130 BKN190 FM062000
                       20005KT P6SM SCT250 FM071200 21006KT P6SM
                       OVC007 FM072100 24007KT P6SM SCT250=
201208061429 KSEA 061429Z 0614/0718 19007KT P6SM SCT120 BKN230 FM061900 22008KT
                       P6SM SCT100 FM071100 20005KT P6SM OVC008=
201208061120 TAF KSEA 061120Z 0612/0718 23006KT P6SM SCT120 SCT200 FM061300
                       22008KT P6SM SCT006 SCT120 BKN200
                      TEMPO 0613/0617 BKN006 BKN120 BKN200 FM061700
                       22008KT P6SM SCT011 BKN100 BKN200
                      TEMPO 0617/0619 BKN011 BKN100 BKN200 FM061900
                       22008KT P6SM SCT100 FM071100 20005KT P6SM
                       OVC008=
201208061031 KSEA 061031Z 0611/0712 20005KT P6SM SCT120 BKN200 FM061300 22008KT
                       P6SM SCT006 BKN120 BKN200
                      TEMPO 0613/0617 BKN006 BKN120 BKN200 FM061700
                       22008KT P6SM SCT011 BKN100 BKN200
                      TEMPO 0617/0619 BKN011 BKN100 BKN200 FM061900
                       22008KT P6SM SCT100 FM070700 20005KT P6SM
                       OVC008=
201208060900 KSEA 060900Z 0609/0712 21008KT P6SM OVC200 FM061100 22008KT P6SM
                       OVC005 FM061600 22008KT P6SM OVC008 FM061800
                       22008KT P6SM BKN011 BKN100 FM061900 22008KT
                       P6SM SCT100 FM070700 20005KT P6SM OVC008=
201208060520 TAF KSEA 060520Z 0606/0712 23006KT P6SM BKN250 FM061000 22008KT
                       P6SM OVC005 FM061600 22008KT P6SM OVC008
                       FM061800 22008KT P6SM BKN011 BKN100 FM061900
                       22008KT P6SM SCT100 FM070700 20005KT P6SM
                       OVC008=
201208060303 KSEA 060303Z 0603/0706 29004KT P6SM BKN250 FM060400 24010KT P6SM
                       SCT200 FM061000 22008KT P6SM OVC005 FM061600
                       22008KT P6SM OVC008 FM061800 22008KT P6SM
                       BKN011 BKN100 FM061900 22008KT P6SM SCT100=
201208052339 TAF KSEA 052339Z 0600/0706 32006KT P6SM SCT200 FM060400 24010KT
                       P6SM SCT200 FM061000 22008KT P6SM OVC005
                       FM061600 22008KT P6SM OVC008 FM061800 22008KT
                       P6SM BKN011 BKN100 FM061900 22008KT P6SM
                       SCT100=
201208051745 TAF KSEA 051745Z 0518/0624 32006KT P6SM SKC FM060300 24010KT P6SM
                       SCT200 FM061000 22007KT 4SM BR OVC005 FM061600
                       22007KT P6SM OVC008 FM061800 22007KT P6SM
                       BKN011 BKN100 FM061900 22007KT P6SM SCT020
                       SCT100=
201208051558 KSEA 051558Z 0516/0618 34005KT P6SM SKC FM060300 24010KT P6SM SCT200
                       FM061100 22007KT 4SM BR OVC005=
201208051120 TAF KSEA 051120Z 0512/0618 36005KT P6SM SKC FM060300 24010KT P6SM
                       SCT200 FM061100 22007KT 4SM BR OVC005=
201208050901 TAF AMD KSEA 050901Z 0509/0612 02005KT P6SM SKC FM051800 34006KT
                       P6SM FEW250 FM060300 24010KT P6SM SCT200
                       FM061100 22007KT 4SM BR OVC005=
201208050522 TAF KSEA 050522Z 0506/0612 02006KT P6SM SKC FM051800 34006KT P6SM
                       FEW250 FM060300 24010KT P6SM SCT200 FM061100
                       22007KT 4SM BR OVC005=
201208050301 KSEA 050301Z 0503/0606 35007KT P6SM SKC FM050600 03004KT P6SM SKC
                       FM051800 30008KT P6SM FEW250 FM060300 24008KT
                       P6SM SCT200=
201208042332 TAF KSEA 042332Z 0500/0606 35009KT P6SM SKC FM050600 03004KT P6SM
                       SKC FM051800 30008KT P6SM FEW250 FM060300
                       24008KT P6SM SCT200=
201208042038 KSEA 042038Z 0421/0524 35010KT P6SM SKC FM050600 03005KT P6SM SKC
                       FM051800 30006KT P6SM SKC=
201208041730 TAF KSEA 041730Z 0418/0524 01011KT P6SM SKC FM041900 35011KT P6SM
                       SKC FM050600 03005KT P6SM SKC FM051800 30006KT
                       P6SM SKC=
201208041503 KSEA 041503Z 0415/0518 01011KT P6SM SKC FM041900 35011KT P6SM SKC
                       FM050400 03006KT P6SM SKC=
201208041120 TAF KSEA 041120Z 0412/0518 01006KT P6SM SKC FM041900 35011KT P6SM
                       SKC FM050400 03006KT P6SM SKC=
201208040900 KSEA 040900Z 0409/0512 03007KT P6SM SKC FM041900 35011KT P6SM SKC
                       FM050400 03006KT P6SM SKC=
201208040530 TAF KSEA 040530Z 0406/0512 04008KT P6SM SKC FM041900 35011KT P6SM
                       SKC FM050400 03006KT P6SM SKC=
201208040300 KSEA 040300Z 0403/0506 36010KT P6SM SKC FM040600 04006KT P6SM SKC
                       FM041900 36008KT P6SM SKC=
201208032339 TAF KSEA 032339Z 0400/0506 36010KT P6SM SKC FM040600 04006KT P6SM
                       SKC FM041900 36008KT P6SM SKC=
201208032101 KSEA 032101Z 0321/0424 36010KT P6SM SKC FM040600 04006KT P6SM SKC
                       FM041900 35008KT P6SM SKC=
201208031722 TAF KSEA 031722Z 0318/0424 35006KT P6SM SKC FM032200 35012KT P6SM
                       SKC FM040400 04006KT P6SM SKC FM041900 35008KT
                       P6SM SKC=
201208031507 KSEA 031507Z 0315/0418 36008KT P6SM SCT010 FM031700 34011KT P6SM
                       SKC FM040400 02006KT P6SM SKC=
201208031120 TAF KSEA 031120Z 0312/0418 02006KT P6SM SKC FM031400 02006KT P6SM
                       FEW003
                      TEMPO 0314/0318 1SM BR BKN003 FM031900 34011KT
                       P6SM SKC FM040400 02006KT P6SM SKC=
201208030901 KSEA 030901Z 0309/0412 03006KT P6SM SKC FM031300 02006KT P6SM SCT003
                       TEMPO 0314/0317 1SM BR BKN003 FM031900 34011KT
                       P6SM SKC FM040400 02006KT P6SM SKC=
201208030520 TAF KSEA 030520Z 0306/0412 01006KT P6SM SKC FM031900 34011KT P6SM
                       SKC FM040400 02006KT P6SM SKC=
201208030301 KSEA 030301Z 0303/0406 33005KT P6SM FEW035 FM030700 02003KT P6SM
                       SKC FM031900 34011KT P6SM SKC=
201208022327 TAF KSEA 022327Z 0300/0406 31007KT P6SM FEW025 SCT070 FM030200
                       35006KT P6SM SCT250 FM030700 02003KT P6SM
                       SKC FM031900 34011KT P6SM SKC=
201208022102 KSEA 022102Z 0221/0324 29005KT P6SM SCT030 SCT050
                      TEMPO 0221/0223 SCT030 BKN050 FM022300 30006KT
                       P6SM SCT025 BKN045 FM030200 34006KT P6SM
                       SCT045 SCT250 FM030400 02005KT P6SM FEW250=
201208021732 TAF KSEA 021732Z 0218/0324 22005KT P6SM SCT007 BKN014 OVC040 FM022000
                       25005KT P6SM BKN020 OVC040
                      TEMPO 0221/0223 SCT020 BKN040 FM022300 28006KT
                       P6SM SCT025 BKN045 FM030200 32007KT P6SM
                       SCT045 SCT250 FM030400 02006KT P6SM FEW250=
201208021438 KSEA 021438Z 0215/0318 22005KT P6SM SCT007 BKN014 OVC025
                      TEMPO 0215/0218 BKN007 OVC014 FM021800 23006KT
                       P6SM OVC020 FM022200 27006KT P6SM SCT020
                       OVC040 FM030100 32007KT P6SM SCT045 SCT100
                       FM030400 02006KT P6SM FEW050=
201208021120 TAF KSEA 021120Z 0212/0318 00000KT P6SM OVC014 FM021400 20005KT
                       P6SM OVC010
                      TEMPO 0214/0218 4SM -DZ BR OVC007 FM021900
                       23006KT P6SM OVC020 FM022200 27006KT P6SM
                       SCT020 OVC040 FM030100 32007KT P6SM SCT045
                       SCT100 FM030400 02006KT P6SM FEW050=
201208021050 KSEA 021050Z 0211/0312 27003KT P6SM BKN014 OVC035
                      TEMPO 0211/0214 SCT014 OVC050 FM021400 19005KT
                       P6SM OVC012 FM021800 23006KT P6SM OVC020
                       FM022100 27006KT P6SM SCT020 OVC040 FM030000
                       32007KT P6SM SCT045 SCT100 FM030400 02005KT
                       P6SM FEW050=
201208020900 KSEA 020900Z 0209/0312 00000KT P6SM BKN060 BKN150 FM021000 21005KT
                       P6SM BKN050 OVC100 FM021400 19005KT P6SM
                       BKN012 OVC040 FM021800 23006KT P6SM OVC020
                       FM022100 27006KT P6SM SCT020 OVC040 FM030000
                       32007KT P6SM SCT045 SCT100 FM030400 02005KT
                       P6SM FEW050=
201208020525 TAF KSEA 020525Z 0206/0312 31005KT P6SM SCT120 BKN200 FM021000
                       21005KT P6SM BKN050 OVC100 FM021400 19005KT
                       P6SM BKN012 OVC040 FM021800 23006KT P6SM
                       OVC020 FM022100 27006KT P6SM SCT020 OVC040
                       FM030000 32007KT P6SM SCT045 SCT100 FM030400
                       02005KT P6SM FEW050=
201208020300 KSEA 020300Z 0203/0306 31005KT P6SM FEW120 SCT200 FM020500 33004KT
                       P6SM BKN045 BKN250 FM021000 20006KT P6SM
                       BKN012 OVC040 FM021300 20006KT P6SM OVC010
                       FM021800 23006KT P6SM OVC020 FM022000 23006KT
                       P6SM SCT020 OVC040=
201208012323 TAF KSEA 012323Z 0200/0306 27005KT P6SM SCT250 FM020300 30004KT
                       P6SM SCT250 FM020500 27006KT P6SM BKN045
                       BKN250 FM021000 20006KT P6SM BKN012 OVC040
                       FM021300 20006KT P6SM OVC010 FM021800 23006KT
                       P6SM OVC020 FM022000 23006KT P6SM SCT020
                       OVC040=
201208012107 KSEA 012107Z 0121/0224 28005KT P6SM SKC FM020000 30007KT P6SM SCT050
                       BKN250 FM020500 27006KT P6SM BKN045 OVC200
                       FM021000 21006KT P6SM BKN020 OVC040 FM021300
                       20006KT P6SM OVC015=
201208011743 TAF KSEA 011743Z 0118/0224 VRB03KT P6SM BKN007 FM011900 28005KT
                       P6SM SKC FM020000 30007KT P6SM SCT050 BKN250
                       FM020500 27006KT P6SM BKN045 OVC200 FM021000
                       21006KT P6SM BKN020 OVC040 FM021300 20006KT
                       P6SM OVC015=
201208011509 KSEA 011509Z 0115/0218 VRB03KT P6SM BKN009 FM011730 28005KT P6SM
                       SKC FM012300 30007KT P6SM SKC FM020700 35004KT
                       P6SM BKN090 BKN200 FM021300 19005KT P6SM
                       BKN020 OVC040=
201208011333 KSEA 011333Z 0114/0218 02006KT P6SM SCT009
                      TEMPO 0114/0116 BKN009 FM011700 28006KT P6SM
                       SCT250 FM012300 34007KT P6SM SCT250 FM020700
                       35004KT P6SM BKN090 BKN200 FM021300 19005KT
                       P6SM BKN020 OVC040=
201208011120 TAF KSEA 011120Z 0112/0218 02006KT P6SM FEW035 FM011400 VRB04KT
                       P6SM SCT015 SCT035
                      TEMPO 0114/0118 BKN015 BKN035 FM011900 28006KT
                       P6SM SCT020 SCT250 FM012300 34007KT P6SM
                       SCT250 FM020700 35004KT P6SM BKN090 BKN200
                       FM021300 19005KT P6SM BKN020 OVC040=
201208010902 KSEA 010902Z 0109/0212 01004KT P6SM SCT035
                      TEMPO 0109/0113 BKN035 FM011300 VRB04KT P6SM
                       SCT015 SCT035
                      TEMPO 0113/0117 BKN015 BKN035 FM011900 28006KT
                       P6SM SCT020 SCT250 FM012300 34007KT P6SM
                       SCT250 FM020700 35004KT P6SM BKN090 BKN200=
201208010520 TAF KSEA 010520Z 0106/0212 01004KT P6SM SKC FM011300 21004KT P6SM
                       BKN015 FM011900 28006KT P6SM SCT020 SCT250
                       FM012300 34007KT P6SM SCT250 FM020700 35004KT
                       P6SM BKN090 BKN200=
201208010300 KSEA 010300Z 0103/0206 30005KT P6SM FEW040 FM010500 01005KT P6SM
                       FEW050 FM011300 21004KT P6SM BKN015 FM011900
                       28006KT P6SM SCT020 SCT250 FM012300 34007KT
                       P6SM SCT250=