##########################################################
# Query made at 02/17/2025 18:34:26 UTC
# Time interval: from 09/01/2012 00:00  to 09/30/2012 23:59  UTC
##########################################################

##########################################################
# KSEA, Seattle, Seattle-Tacoma International Airport (United States)
# WMO index: 72793. WIGOS ID: 0-20000-0-72793
# Latitude 47-27-00N. Longitude 122-17-59W. Altitude 130 m.
##########################################################

###################################
#  METAR/SPECI from KSEA
###################################
201209302353 METAR KSEA 302353Z 34011KT 10SM CLR 20/04 A3038 RMK AO2 SLP292 T02000039 10211 20156 56006=
201209302253 METAR KSEA 302253Z 35007KT 320V020 10SM FEW240 21/06 A3038 RMK AO2 SLP292 T02060056=
201209302153 METAR KSEA 302153Z 35008KT 10SM FEW240 20/07 A3039 RMK AO2 SLP295 T02000067=
201209302053 METAR KSEA 302053Z 32005KT 10SM FEW240 19/07 A3039 RMK AO2 SLP298 T01890072 58006=
201209301953 METAR KSEA 301953Z 31007KT 10SM FEW240 18/07 A3040 RMK AO2 SLP301 T01780072=
201209301853 METAR KSEA 301853Z 04006KT 10SM FEW240 17/07 A3040 RMK AO2 SLP301 T01670067=
201209301753 METAR KSEA 301753Z 02006KT 10SM FEW230 16/07 A3041 RMK AO2 SLP304 T01560072 10156 20083 51012=
201209301653 METAR KSEA 301653Z 03004KT 10SM SCT220 14/08 A3041 RMK AO2 SLP303 T01390078=
201209301553 METAR KSEA 301553Z 35003KT 10SM BKN220 12/08 A3040 RMK AO2 SLP301 T01170078=
201209301453 METAR KSEA 301453Z 03004KT 10SM BKN220 10/07 A3038 RMK AO2 SLP293 T01000072 53014=
201209301353 METAR KSEA 301353Z 02007KT 10SM FEW210 10/07 A3036 RMK AO2 SLP287 T01000072=
201209301253 METAR KSEA 301253Z 03006KT 10SM FEW240 10/07 A3034 RMK AO2 SLP279 T01000072=
201209301153 METAR KSEA 301153Z 34003KT 10SM FEW250 09/06 A3033 RMK AO2 SLP277 T00890056 10133 20078 53005=
201209301053 METAR KSEA 301053Z 00000KT 10SM FEW250 10/06 A3032 RMK AO2 SLP273 T01000061=
201209300953 METAR KSEA 300953Z 03005KT 10SM FEW250 11/06 A3032 RMK AO2 SLP273 T01110061=
201209300853 METAR KSEA 300853Z 04007KT 10SM SCT250 12/06 A3032 RMK AO2 SLP272 T01220061 53009=
201209300753 METAR KSEA 300753Z 04011KT 10SM FEW045 SCT250 12/06 A3030=
201209300653 METAR KSEA 300653Z 04013KT 10SM BKN045 BKN250 13/06 A3029 RMK AO2 SLP264 T01280061=
201209300553 METAR KSEA 300553Z 04010KT 10SM SCT045 BKN250 13/07 A3029 RMK AO2 SLP263 T01330067 10200 20133 51013=
201209300453 METAR KSEA 300453Z 03012KT 10SM SCT250 14/09 A3028 RMK AO2 SLP260 T01390089=
201209300353 METAR KSEA 300353Z 01010KT 10SM FEW200 14/08 A3027 RMK AO2 SLP255 T01390083=
201209300253 METAR KSEA 300253Z 35008KT 10SM FEW040 14/06 A3025 RMK AO2 SLP249 T01390061 53008=
201209300153 METAR KSEA 300153Z 35008KT 10SM FEW048 SCT250 16/06 A3024 RMK AO2 SLP245 T01560056=
201209300053 METAR KSEA 300053Z 36008KT 10SM FEW048 SCT250 18/08 A3023 RMK AO2 SLP242 T01830083=
201209292353 METAR KSEA 292353Z 33008KT 10SM FEW044 19/07 A3023 RMK AO2 SLP241 T01940067 10206 20161 53002=
201209292253 METAR KSEA 292253Z 34009KT 10SM FEW044 SCT210 20/06 A3023 RMK AO2 SLP240 T02000056=
201209292153 METAR KSEA 292153Z 35005KT 10SM FEW044 BKN210 18/06 A3022 RMK AO2 SLP237 T01830061=
201209292053 METAR KSEA 292053Z 02006KT 10SM BKN044 BKN210 19/06 A3022 RMK AO2 SLP240 T01890056 50002=
201209291953 METAR KSEA 291953Z VRB06KT 10SM FEW044 BKN060 BKN210 18/07 A3023 RMK AO2 SLP243 T01780067=
201209291853 METAR KSEA 291853Z 02006G15KT 10SM BKN042 BKN060 17/06 A3022 RMK AO2 SLP239 T01720061=
201209291753 METAR KSEA 291753Z 02007KT 10SM FEW029 BKN040 OVC060 16/06 A3022 RMK AO2 SLP238 T01610056 10161 20144 51023=
201209291653 METAR KSEA 291653Z 01006KT 10SM SCT029 OVC034 15/07 A3020 RMK AO2 SLP233 T01500072=
201209291553 METAR KSEA 291553Z 03013KT 10SM BKN029 OVC038 15/07 A3017 RMK AO2 SLP222 T01500067=
201209291453 METAR KSEA 291453Z 03012KT 10SM FEW010 BKN029 OVC040 15/07 A3015 RMK AO2 SLP215 T01500072 53016=
201209291353 METAR KSEA 291353Z 05012KT 10SM OVC027 15/07 A3013 RMK AO2 SLP208 T01500072=
201209291253 METAR KSEA 291253Z 02012KT 10SM FEW010 SCT015 OVC025 15/07 A3011 RMK AO2 SLP201 T01500072=
201209291218 SPECI KSEA 291218Z 04009KT 10SM FEW010 SCT015 OVC025 16/08 A3011 RMK AO2=
201209291153 METAR KSEA 291153Z 05009KT 10SM FEW010 SCT020 OVC030 16/10 A3010 RMK AO2 SLP198 T01560100 10167 20144 51009=
201209291053 METAR KSEA 291053Z 04006KT 10SM FEW010 SCT020 OVC030 16/12 A3010 RMK AO2 SLP196 T01610122=
201209291031 SPECI KSEA 291031Z 05006KT 10SM SCT010 BKN025 OVC040 16/13 A3009 RMK AO2=
201209290953 METAR KSEA 290953Z 02004KT 10SM BKN010 BKN025 OVC040 17/13 A3008 RMK AO2 SLP192 T01670128=
201209290853 METAR KSEA 290853Z 00000KT 10SM BKN010 OVC025 15/12 A3008 RMK AO2 SLP189 T01500122 53018=
201209290812 SPECI KSEA 290812Z 28003KT 10SM BKN025 BKN100 14/12 A3006 RMK AO2=
201209290803 SPECI KSEA 290803Z 00000KT 10SM SCT025 BKN100 14/12 A3005 RMK AO2=
201209290753 METAR KSEA 290753Z COR 29003KT 10SM SCT025 BKN100 14/12 A3005 RMK AO2 SLP179 T01440122 402500122=
201209290653 METAR KSEA 290653Z 00000KT 10SM BKN100 14/11 A3002 RMK AO2 SLP172 T01440106=
201209290553 METAR KSEA 290553Z 00000KT 10SM BKN120 15/11 A3002 RMK AO2 SLP172 T01500106 10250 20150 53013=
201209290453 METAR KSEA 290453Z 00000KT 10SM BKN160 17/10 A3000 RMK AO2 SLP165 T01720100=
201209290353 METAR KSEA 290353Z 30003KT 10SM BKN160 17/10 A3000 RMK AO2 SLP164 T01720100=
201209290253 METAR KSEA 290253Z 00000KT 10SM BKN150 19/09 A2998 RMK AO2 SLP158 T01890094 53006=
201209290153 METAR KSEA 290153Z 34004KT 10SM SCT160 19/09 A2997 RMK AO2 SLP154 T01940089=
201209290053 METAR KSEA 290053Z 02006KT 10SM FEW140 BKN170 24/09 A2996 RMK AO2 SLP149 T02390094=
201209282353 METAR KSEA 282353Z 00000KT 10SM FEW140 BKN170 24/05 A2997 RMK AO2 SLP152 T02390050 10244 20172 56005=
201209282253 METAR KSEA 282253Z 00000KT 10SM SCT140 BKN200 24/07 A2997 RMK AO2 SLP153 T02390072=
201209282153 METAR KSEA 282153Z VRB03KT 10SM FEW180 BKN250 24/09 A2997 RMK AO2 SLP154 T02390089=
201209282053 METAR KSEA 282053Z 00000KT 10SM FEW180 BKN250 22/11 A2998 RMK AO2 SLP157 T02220106 58004=
201209281953 METAR KSEA 281953Z 18004KT 10SM FEW140 BKN250 21/11 A2999 RMK AO2 SLP160 T02060111=
201209281853 METAR KSEA 281853Z 00000KT 10SM FEW160 BKN230 18/11 A3000 RMK AO2 SLP163 T01830111=
201209281753 METAR KSEA 281753Z 21003KT 10SM FEW110 SCT160 BKN230 17/11 A2999 RMK AO2 SLP162 60000 T01720111 10172 20122 50012=
201209281653 METAR KSEA 281653Z 00000KT 10SM FEW110 BKN160 OVC230 15/11 A3000 RMK AO2 SLP163 T01500111=
201209281553 METAR KSEA 281553Z 16004KT 9SM FEW100 BKN160 BKN250 14/11 A2999 RMK AO2 SLP160 T01390111=
201209281453 METAR KSEA 281453Z 13007KT 9SM BKN110 14/11 A2996 RMK AO2 RAE28 SLP149 P0000 60000 T01440111 50003=
201209281353 METAR KSEA 281353Z 25004KT 10SM -RA FEW060 SCT090 OVC110 12/11 A2997 RMK AO2 RAB53 SLP153 P0000 T01220106=
201209281253 METAR KSEA 281253Z 12006KT 10SM FEW030 SCT085 OVC130 14/11 A2995 RMK AO2 SLP145 T01390106=
201209281153 METAR KSEA 281153Z 00000KT 10SM FEW030 SCT085 OVC130 14/11 A2995 RMK AO2 SLP145 T01390106 10150 20128 55004=
201209281053 METAR KSEA 281053Z 00000KT 10SM FEW085 OVC130 14/11 A2995 RMK AO2 SLP145 T01390111=
201209280953 METAR KSEA 280953Z 12003KT 10SM BKN150 13/11 A2995 RMK AO2 SLP146 T01330106=
201209280853 METAR KSEA 280853Z 00000KT 10SM BKN150 13/09 A2996 RMK AO2 SLP151 T01280089 56003=
201209280753 METAR KSEA 280753Z 00000KT 10SM SCT150 13/09 A2996 RMK AO2 SLP151 T01330094 402280100=
201209280653 METAR KSEA 280653Z 00000KT 10SM FEW150 13/09 A2996 RMK AO2 SLP152 T01330094=
201209280553 METAR KSEA 280553Z 00000KT 10SM FEW150 15/09 A2997 RMK AO2 SLP154 T01500094 10228 20139 53004=
201209280453 METAR KSEA 280453Z 02005KT 10SM FEW200 17/09 A2996 RMK AO2 SLP151 T01720094=
201209280353 METAR KSEA 280353Z 01003KT 10SM FEW250 17/09 A2996 RMK AO2 SLP150 T01670094=
201209280253 METAR KSEA 280253Z 00000KT 10SM FEW250 18/10 A2996 RMK AO2 SLP149 T01830100 55006=
201209280153 METAR KSEA 280153Z 00000KT 10SM SCT250 18/10 A2995 RMK AO2 SLP148 T01830100=
201209280053 METAR KSEA 280053Z 29004KT 10SM FEW250 21/11 A2996 RMK AO2 SLP152 T02110106=
201209272353 METAR KSEA 272353Z 35007KT 10SM FEW250 23/11 A2998 RMK AO2 SLP156 T02280106 10228 20172 58018=
201209272253 METAR KSEA 272253Z 28007KT 10SM FEW250 22/10 A2999 RMK AO2 SLP162 T02170100=
201209272153 METAR KSEA 272153Z 30007KT 10SM FEW250 21/10 A3001 RMK AO2 SLP168 T02110100=
201209272053 METAR KSEA 272053Z VRB05KT 10SM FEW250 21/10 A3003 RMK AO2 SLP174 T02060100 58014=
201209271953 METAR KSEA 271953Z VRB06KT 10SM FEW250 20/10 A3005 RMK AO2 SLP182 T02000100=
201209271853 METAR KSEA 271853Z 28005KT 10SM FEW250 18/11 A3006 RMK AO2 SLP186 T01780106=
201209271753 METAR KSEA 271753Z 34004KT 10SM FEW250 17/09 A3007 RMK AO2 SLP188 T01720094 10172 20106 58001=
201209271653 METAR KSEA 271653Z 04005KT 3SM HZ FEW002 14/10 A3007 RMK AO2 SLP190 T01440100=
201209271644 SPECI KSEA 271644Z 03004KT 3SM HZ FEW002 13/10 A3007 RMK AO2=
201209271553 METAR KSEA 271553Z 04004KT 1/4SM R16L/P6000FT BR BKN002 12/11 A3008 RMK AO2 SFC VIS 1 SLP191 T01220106=
201209271539 SPECI KSEA 271539Z 36003KT 1/2SM R16L/1800VP6000FT FG BKN002 11/10 A3008 RMK AO2=
201209271526 SPECI KSEA 271526Z 35004KT 1/2SM R16L/1000V2000FT FG BKN002 11/10 A3008 RMK AO2=
201209271453 METAR KSEA 271453Z 36003KT 1/2SM R16L/1400V4500FT FG VV001 11/09 A3007 RMK AO2 SLP190 T01060094 55002=
201209271445 SPECI KSEA 271445Z 36003KT 1/4SM R16L/1200V4500FT FG VV001 11/09 A3007 RMK AO2 TWR VIS 1/2=
201209271422 SPECI KSEA 271422Z 00000KT 1/4SM R16L/1000V1600FT FG VV002 11/10 A3007 RMK AO2 TWR VIS 1/2=
201209271353 METAR KSEA 271353Z 04003KT 1/2SM R16L/4000VP6000FT FG VV002 11/10 A3007 RMK AO2 SLP189 T01060100=
201209271320 SPECI KSEA 271320Z 06005KT 1/2SM BR BKN002 11/09 A3007 RMK AO2 SFC VIS 2=
201209271253 METAR KSEA 271253Z 01003KT 6SM BR SCT003 11/09 A3008 RMK AO2 SLP190 T01110094=
201209271153 METAR KSEA 271153Z 00000KT 6SM BR SCT003 11/09 A3008 RMK AO2 SLP192 T01060094 10133 20100 52003=
201209271112 SPECI KSEA 271112Z 00000KT 7SM BKN003 11/09 A3007 RMK AO2=
201209271053 METAR KSEA 271053Z 01003KT 8SM FEW008 11/09 A3008 RMK AO2 SLP190 T01060089=
201209270953 METAR KSEA 270953Z 00000KT 10SM CLR 11/09 A3007 RMK AO2 SLP189 T01110089=
201209270853 METAR KSEA 270853Z 35003KT 10SM CLR 12/09 A3007 RMK AO2 SLP188 T01170089 55001=
201209270753 METAR KSEA 270753Z 04003KT 10SM CLR 12/09 A3007 RMK AO2 SLP188 T01220094 401940094=
201209270653 METAR KSEA 270653Z 34003KT 10SM CLR 12/09 A3007 RMK AO2 SLP189 T01220089=
201209270553 METAR KSEA 270553Z 02005KT 10SM CLR 13/09 A3007 RMK AO2 SLP190 T01280089 10183 20122 51003=
201209270453 METAR KSEA 270453Z 34005KT 10SM CLR 13/08 A3007 RMK AO2 SLP189 T01280083=
201209270353 METAR KSEA 270353Z 00000KT 10SM CLR 14/09 A3007 RMK AO2 SLP188 T01390089=
201209270253 METAR KSEA 270253Z 01004KT 10SM SCT200 16/09 A3006 RMK AO2 SLP186 T01560089 56001=
201209270153 METAR KSEA 270153Z 36007KT 10SM FEW150 BKN200 17/09 A3006 RMK AO2 SLP186 T01720089=
201209270053 METAR KSEA 270053Z 35007KT 10SM FEW150 BKN200 18/08 A3006 RMK AO2 SLP185 T01830083=
201209262353 METAR KSEA 262353Z 29005KT 10SM FEW150 BKN220 17/09 A3007 RMK AO2 SLP186 T01720089 10194 20133 56010=
201209262253 METAR KSEA 262253Z 32006KT 10SM SCT250 18/09 A3007 RMK AO2 SLP189 T01830089=
201209262153 METAR KSEA 262153Z 28005KT 10SM FEW250 18/09 A3008 RMK AO2 SLP190 T01830089=
201209262053 METAR KSEA 262053Z 28006KT 10SM FEW250 17/09 A3010 RMK AO2 SLP197 T01670089 58012=
201209261953 METAR KSEA 261953Z 31004KT 10SM SCT200 17/09 A3011 RMK AO2 SLP202 T01670089=
201209261853 METAR KSEA 261853Z 29004KT 10SM FEW013 SCT200 15/09 A3012 RMK AO2 SLP206 T01500089=
201209261819 SPECI KSEA 261819Z 27005KT 10SM FEW008 SCT012 SCT200 14/09 A3013 RMK AO2=
201209261753 METAR KSEA 261753Z 27004KT 6SM HZ SCT008 BKN011 BKN180 14/09 A3013 RMK AO2 SLP210 T01390094 10144 20094 51005=
201209261653 METAR KSEA 261653Z 03005KT 4SM HZ BKN007 BKN180 13/09 A3013 RMK AO2 SLP210 T01330089=
201209261637 SPECI KSEA 261637Z 35004KT 2SM HZ BKN006 BKN180 12/09 A3013 RMK AO2 SFC VIS 3=
201209261602 SPECI KSEA 261602Z 36003KT 2SM BR BKN004 BKN200 12/09 A3013 RMK AO2 SFC VIS 2 1/2=
201209261553 METAR KSEA 261553Z 00000KT 1/2SM BR BKN004 12/09 A3013 RMK AO2 SFC VIS 1 3/4 SLP208 T01170094=
201209261453 METAR KSEA 261453Z 35003KT 1/2SM R16L/1400VP6000FT FG VV002 11/09 A3012 RMK AO2 SLP205 T01110094 53003=
201209261423 SPECI KSEA 261423Z 03003KT 1/2SM R16L/1000V4000FT FG VV002 11/09 A3012 RMK AO2=
201209261353 METAR KSEA 261353Z 00000KT 1/2SM R16L/1000V1400FT FG VV002 11/09 A3011 RMK AO2 SLP203 T01060094=
201209261333 SPECI KSEA 261333Z 00000KT 1/2SM R16L/1000V1200FT FG VV001 09/08 A3011 RMK AO2=
201209261316 SPECI KSEA 261316Z 00000KT 1/2SM R16L/1800VP6000FT FG VV001 11/09 A3011 RMK AO2=
201209261253 METAR KSEA 261253Z 00000KT 1/2SM R16L/P6000FT BR BKN002 11/09 A3011 RMK AO2 SFC VIS 1 SLP201 T01060094=
201209261230 SPECI KSEA 261230Z 00000KT 1/2SM R16L/3500VP6000FT BR OVC002 11/10 A3011 RMK AO2 SFC VIS 2=
201209261153 METAR KSEA 261153Z 07005KT 4SM BR OVC002 11/10 A3011 RMK AO2 SLP201 T01110100 10133 20100 57006=
201209261114 SPECI KSEA 261114Z 04003KT 10SM BKN004 11/08 A3011 RMK AO2=
201209261053 METAR KSEA 261053Z 00000KT 7SM FEW008 11/09 A3012 RMK AO2 SLP204 T01110089=
201209260953 METAR KSEA 260953Z 00000KT 10SM FEW010 12/09 A3012 RMK AO2 SLP204 T01170089=
201209260853 METAR KSEA 260853Z 00000KT 10SM SCT010 12/09 A3013 RMK AO2 SLP207 T01170094 51001=
201209260753 METAR KSEA 260753Z 00000KT 10SM CLR 13/09 A3013 RMK AO2 SLP207 T01280089 401940111=
201209260653 METAR KSEA 260653Z 00000KT 10SM CLR 13/09 A3013 RMK AO2 SLP209 T01280094=
201209260553 METAR KSEA 260553Z 00000KT 10SM CLR 13/09 A3012 RMK AO2 SLP207 T01330094 10183 20133 55001=
201209260453 METAR KSEA 260453Z 00000KT 10SM FEW033 14/09 A3012 RMK AO2 SLP207 T01390094=
201209260353 METAR KSEA 260353Z 28003KT 10SM SCT033 15/09 A3012 RMK AO2 SLP205 T01500094=
201209260253 METAR KSEA 260253Z 00000KT 10SM BKN044 16/09 A3013 RMK AO2 SLP207 T01610094 55000=
201209260153 METAR KSEA 260153Z 00000KT 10SM BKN035 BKN250 17/10 A3012 RMK AO2 SLP206 T01720100=
201209260053 METAR KSEA 260053Z 27004KT 10SM FEW030 SCT250 18/10 A3013 RMK AO2 SLP208 T01830100=
201209252353 METAR KSEA 252353Z 24006KT 10SM FEW032 SCT250 18/09 A3013 RMK AO2 SLP207 T01830094 10194 20139 55000=
201209252253 METAR KSEA 252253Z 32003KT 10SM SCT028 SCT250 19/09 A3012 RMK AO2 SLP205 T01940094=
201209252153 METAR KSEA 252153Z 31004KT 10SM SCT024 SCT250 18/09 A3012 RMK AO2 SLP204 T01830094=
201209252053 SPECI KSEA 252053Z 32004KT 10SM FEW020 SCT035 18/09 A3013 RMK AO2 SLP208 T01830089 58009=
201209252053 METAR KSEA 252053Z 32004KT 10SM FEW020 SCT035 18/09 A3013 RMK AO2 SLP208 T01830089 58009=
201209251953 METAR KSEA 251953Z 34007KT 10SM FEW018 BKN037 17/09 A3015 RMK AO2 SLP214 T01720094=
201209251853 METAR KSEA 251853Z 33004KT 10SM FEW010 BKN025 BKN037 15/10 A3016 RMK AO2 SLP218 T01500100=
201209251829 SPECI KSEA 251829Z 32006KT 10SM SCT009 BKN018 OVC027 14/09 A3016 RMK AO2=
201209251753 METAR KSEA 251753Z 30007KT 10SM BKN009 OVC020 14/10 A3015 RMK AO2 SLP216 T01390100 10139 20111 51007=
201209251730 SPECI KSEA 251730Z 28005KT 10SM BKN009 OVC021 13/10 A3015 RMK AO2=
201209251717 SPECI KSEA 251717Z 28006KT 10SM BKN011 OVC018 13/09 A3015 RMK AO2=
201209251653 METAR KSEA 251653Z 28005KT 10SM SCT011 OVC018 13/09 A3015 RMK AO2 SLP215 T01330094=
201209251553 METAR KSEA 251553Z 36008KT 10SM OVC020 14/09 A3015 RMK AO2 SLP213 T01390094=
201209251453 METAR KSEA 251453Z 03006KT 10SM BKN024 BKN042 13/10 A3013 RMK AO2 SLP209 T01330100 53007=
201209251419 SPECI KSEA 251419Z 34004KT 10SM BKN024 BKN042 12/10 A3013 RMK AO2=
201209251353 METAR KSEA 251353Z 34004KT 10SM SCT042 BKN060 12/09 A3012 RMK AO2 SLP206 T01170094=
201209251253 METAR KSEA 251253Z 00000KT 10SM SCT045 BKN060 12/11 A3011 RMK AO2 SLP202 T01220106=
201209251153 METAR KSEA 251153Z 31003KT 10SM BKN045 OVC060 14/11 A3011 RMK AO2 SLP201 T01390111 10167 20139 53000=
201209251053 METAR KSEA 251053Z 35005KT 10SM BKN040 OVC060 14/11 A3011 RMK AO2 SLP200 T01440106=
201209250953 METAR KSEA 250953Z 34003KT 10SM BKN036 OVC050 15/11 A3011 RMK AO2 SLP200 T01500111=
201209250853 METAR KSEA 250853Z 02005KT 10SM BKN036 OVC048 16/11 A3011 RMK AO2 SLP200 T01560111 55003=
201209250753 METAR KSEA 250753Z 00000KT 10SM BKN040 OVC050 16/11 A3011 RMK AO2 SLP199 T01610106 402110100=
201209250653 METAR KSEA 250653Z 01005KT 10SM BKN035 OVC050 17/11 A3011 RMK AO2 SLP201 T01670106=
201209250553 METAR KSEA 250553Z 36005KT 10SM BKN035 OVC044 17/11 A3012 RMK AO2 SLP204 T01670106 10200 20167 50003=
201209250453 METAR KSEA 250453Z 34004KT 10SM OVC042 17/11 A3012 RMK AO2 SLP205 T01670106=
201209250353 METAR KSEA 250353Z 02011KT 10SM BKN050 17/10 A3012 RMK AO2 SLP205 T01720100=
201209250253 METAR KSEA 250253Z 02007KT 10SM BKN047 BKN120 18/09 A3011 RMK AO2 SLP201 T01830094 53003=
201209250153 METAR KSEA 250153Z 36007KT 10SM SCT050 BKN120 BKN200 18/08 A3010 RMK AO2 SLP199 T01830083=
201209250053 METAR KSEA 250053Z 31005KT 10SM SCT046 BKN160 BKN220 19/09 A3010 RMK AO2 SLP199 T01940089=
201209242353 METAR KSEA 242353Z 30007KT 10SM FEW040 SCT170 BKN250 20/09 A3010 RMK AO2 SLP198 T02000094 10211 20156 56012=
201209242253 METAR KSEA 242253Z 28007KT 10SM FEW040 SCT170 BKN250 19/09 A3011 RMK AO2 SLP200 T01890094=
201209242153 METAR KSEA 242153Z 36007KT 10SM FEW030 SCT250 21/09 A3012=
201209242053 METAR KSEA 242053Z 27004KT 10SM FEW030 SCT250 19/10 A3014 RMK AO2 SLP211 T01940100 58003=
201209241953 METAR KSEA 241953Z 00000KT 10SM SCT250 19/10 A3014 RMK AO2 SLP212 T01940100=
201209241853 METAR KSEA 241853Z 28005KT 10SM FEW250 17/11 A3015 RMK AO2 SLP215 T01720106=
201209241753 METAR KSEA 241753Z 27003KT 10SM CLR 16/11 A3015 RMK AO2 SLP214 T01610106 10161 20100 56001=
201209241653 METAR KSEA 241653Z 27003KT 7SM CLR 14/11 A3015 RMK AO2 SLP215 T01390106=
201209241553 METAR KSEA 241553Z 00000KT 7SM FEW200 13/11 A3014 RMK AO2 SLP213 T01280106=
201209241453 METAR KSEA 241453Z 00000KT 7SM CLR 11/09 A3015 RMK AO2 SLP216 T01060089 53004=
201209241353 METAR KSEA 241353Z 00000KT 8SM CLR 11/09 A3014 RMK AO2 SLP212 T01060089=
201209241253 METAR KSEA 241253Z 00000KT 10SM CLR 11/09 A3013 RMK AO2 SLP209 T01110094=
201209241153 METAR KSEA 241153Z 05003KT 10SM CLR 12/09 A3014 RMK AO2 SLP211 T01170094 10150 20111 52001=
201209241053 METAR KSEA 241053Z 00000KT 10SM CLR 12/09 A3014 RMK AO2 SLP211 T01170089=
201209240953 METAR KSEA 240953Z 00000KT 10SM CLR 12/09 A3014 RMK AO2 SLP210 T01220089=
201209240853 METAR KSEA 240853Z 00000KT 10SM CLR 13/09 A3014 RMK AO2 SLP210 T01280089 55001=
201209240753 METAR KSEA 240753Z 00000KT 10SM CLR 13/09 A3013 RMK AO2 SLP210 T01280089 401940100=
201209240653 METAR KSEA 240653Z 05003KT 10SM CLR 14/10 A3013 RMK AO2 SLP210 T01440100=
201209240553 METAR KSEA 240553Z 02003KT 10SM CLR 14/09 A3014 RMK AO2 SLP211 T01440089 10189 20133 50000=
201209240453 METAR KSEA 240453Z 00000KT 10SM CLR 16/08 A3014 RMK AO2 SLP212 T01560083=
201209240353 METAR KSEA 240353Z 00000KT 10SM CLR 16/08 A3014 RMK AO2 SLP212 T01560083=
201209240253 METAR KSEA 240253Z 00000KT 10SM CLR 16/08 A3014 RMK AO2 SLP212 T01560083 51004=
201209240153 METAR KSEA 240153Z 00000KT 10SM CLR 17/08 A3013 RMK AO2 SLP211 T01670083=
201209240053 METAR KSEA 240053Z 32004KT 10SM CLR 18/08 A3013 RMK AO2 SLP209 T01830083=
201209232353 METAR KSEA 232353Z 28006KT 10SM CLR 19/08 A3013 RMK AO2 SLP207 T01890083 10194 20156 55002=
201209232253 METAR KSEA 232253Z 26006KT 10SM CLR 19/08 A3012 RMK AO2 SLP205 T01890078=
201209232153 METAR KSEA 232153Z 31008KT 10SM CLR 18/07 A3013 RMK AO2 SLP207 T01830072=
201209232053 METAR KSEA 232053Z 33006KT 10SM CLR 19/08 A3013 RMK AO2 SLP209 T01940078 58013=
201209231953 METAR KSEA 231953Z 01003KT 10SM FEW040 18/07 A3016 RMK AO2 SLP219 T01830072=
201209231853 METAR KSEA 231853Z 28003KT 10SM FEW040 17/08 A3017 RMK AO2 SLP223 T01670078=
201209231753 METAR KSEA 231753Z 01006KT 10SM CLR 17/08 A3017 RMK AO2 SLP222 T01670083 10167 20100 51005=
201209231653 METAR KSEA 231653Z 02006KT 10SM CLR 15/08 A3016 RMK AO2 SLP220 T01500078=
201209231553 METAR KSEA 231553Z 03004KT 10SM CLR 14/09 A3016 RMK AO2 SLP220 T01390094=
201209231453 METAR KSEA 231453Z 00000KT 10SM CLR 11/09 A3015 RMK AO2 SLP218 T01060089 53004=
201209231400 SPECI KSEA 231400Z 05003KT 6SM BCFG FEW001 SCT190 11/09 A3015 RMK AO2 FG BANK NE-S=
201209231353 METAR KSEA 231353Z 00000KT 9SM FEW010 SCT210 11/08 A3015 RMK AO2 SLP215 T01060083=
201209231253 METAR KSEA 231253Z 05003KT 10SM FEW035 SCT210 11/09 A3014 RMK AO2 SLP211 T01110089=
201209231153 METAR KSEA 231153Z 00000KT 10SM FEW035 SCT200 11/08 A3014 RMK AO2 SLP212 70001 T01060083 10139 20106 55001=
201209231053 METAR KSEA 231053Z 05003KT 10SM FEW033 SCT110 SCT200 12/09 A3014 RMK AO2 SLP212 T01170089=
201209230953 METAR KSEA 230953Z 00000KT 10SM FEW035 SCT200 12/09 A3014 RMK AO2 SLP212 T01170089=
201209230853 METAR KSEA 230853Z 00000KT 10SM SCT200 12/09 A3014 RMK AO2 SLP213 T01220089 53005=
201209230753 METAR KSEA 230753Z 00000KT 10SM SCT200 12/09 A3013 RMK AO2 SLP209 T01220089 401940117=
201209230653 METAR KSEA 230653Z 00000KT 10SM SCT200 13/09 A3013 RMK AO2 SLP208 T01330094=
201209230553 METAR KSEA 230553Z 00000KT 10SM SCT200 14/10 A3013 RMK AO2 SLP209 T01390100 10194 20139 56002=
201209230453 METAR KSEA 230453Z 00000KT 10SM CLR 14/09 A3013 RMK AO2 SLP209 T01440094=
201209230353 METAR KSEA 230353Z 11004KT 10SM FEW030 15/09 A3013 RMK AO2 SLP210 T01500094=
201209230253 METAR KSEA 230253Z 08005KT 10SM FEW030 17/09 A3014 RMK AO2 SLP210 T01670089 56003=
201209230153 METAR KSEA 230153Z 04004KT 10SM FEW030 17/09 A3014 RMK AO2 SLP210 T01720089=
201209230053 METAR KSEA 230053Z 00000KT 10SM FEW032 BKN042 18/07 A3014 RMK AO2 SLP211 T01830072=
201209222353 METAR KSEA 222353Z 00000KT 10SM SCT030 BKN040 19/08 A3014 RMK AO2 SLP213 T01890083 10194 20139 58005=
201209222253 METAR KSEA 222253Z 00000KT 10SM SCT028 BKN040 19/09 A3015 RMK AO2 SLP214 T01890089=
201209222153 METAR KSEA 222153Z 04003KT 10SM SCT023 BKN041 18/09 A3016 RMK AO2 SLP217 T01780094=
201209222053 METAR KSEA 222053Z 26003KT 10SM BKN020 OVC050 16/09 A3016 RMK AO2 SLP218 T01610094 58004=
201209221953 METAR KSEA 221953Z 00000KT 10SM OVC020 16/09 A3017 RMK AO2 SLP220 T01610089=
201209221853 METAR KSEA 221853Z 08004KT 10SM OVC020 15/09 A3017 RMK AO2 SLP222 T01500094=
201209221753 METAR KSEA 221753Z 09003KT 10SM OVC020 14/09 A3017 RMK AO2 SLP222 60001 T01390094 10144 20128 50002=
201209221653 METAR KSEA 221653Z 05007KT 9SM BKN015 OVC027 13/11 A3017 RMK AO2 RAE03 SLP223 P0000 T01330111=
201209221621 SPECI KSEA 221621Z 03010KT 8SM BKN017 OVC027 13/11 A3017 RMK AO2 RAE03 P0000=
201209221553 METAR KSEA 221553Z 02012KT 2 1/2SM -RA BR FEW007 BKN014 OVC027 13/11 A3017 RMK AO2 SFC VIS 3 RAB1456 SLP223 P0001 T01280106=
201209221509 SPECI KSEA 221509Z 03008KT 2 1/2SM -RA BR SCT005 BKN010 OVC027 13/11 A3017 RMK AO2 SFC VIS 3 RAB1456 P0000=
201209221501 SPECI KSEA 221501Z 02008KT 3SM -RA BR FEW005 BKN010 OVC025 13/11 A3017 RMK AO2 RAB1456 P0000=
201209221453 METAR KSEA 221453Z 36005KT 7SM FEW005 SCT012 OVC025 13/11 A3017 RMK AO2 SLP221 T01330111 52004=
201209221427 SPECI KSEA 221427Z 32003KT 10SM SCT007 SCT012 OVC025 13/11 A3016 RMK AO2=
201209221400 SPECI KSEA 221400Z 00000KT 10SM FEW007 SCT017 OVC032 14/11 A3016 RMK AO2=
201209221353 METAR KSEA 221353Z 00000KT 10SM SCT017 OVC032 13/11 A3016 RMK AO2 SLP218 T01330111=
201209221253 METAR KSEA 221253Z 00000KT 10SM FEW015 BKN032 14/11 A3016 RMK AO2 SLP219 T01390111=
201209221153 METAR KSEA 221153Z 00000KT 10SM SCT015 OVC034 14/11 A3015 RMK AO2 SLP216 T01390111 10150 20139 53000=
201209221053 METAR KSEA 221053Z 00000KT 10SM FEW015 OVC032 14/11 A3014 RMK AO2 SLP212 T01440106=
201209220953 METAR KSEA 220953Z 23003KT 10SM FEW015 OVC034 14/11 A3016 RMK AO2 SLP218 T01440106=
201209220853 METAR KSEA 220853Z 00000KT 10SM FEW015 OVC032 14/11 A3015 RMK AO2 SLP216 T01440106 51002=
201209220753 METAR KSEA 220753Z 17003KT 10SM OVC032 14/11 A3015 RMK AO2 SLP216 T01440106 401610128=
201209220653 METAR KSEA 220653Z 00000KT 10SM FEW020 OVC032 14/11 A3015 RMK AO2 SLP215 T01440106=
201209220553 METAR KSEA 220553Z 17004KT 10SM SCT024 OVC030 15/11 A3015 RMK AO2 DZE06 SLP214 P0000 60000 T01500106 10161 20144 51006=
201209220453 METAR KSEA 220453Z 00000KT 10SM -DZ FEW022 OVC030 15/11 A3014 RMK AO2 DZB51 SLP213 P0000 T01500106=
201209220353 METAR KSEA 220353Z 00000KT 10SM SCT018 OVC030 14/11 A3014=
201209220253 METAR KSEA 220253Z 22003KT 10SM OVC031 14/11 A3013 RMK AO2 SLP208 T01440106 58001=
201209220153 METAR KSEA 220153Z 22006KT 10SM OVC031 15/11 A3013 RMK AO2 SLP208 T01500111=
201209220109 SPECI KSEA 220109Z 22004KT 10SM OVC028 16/10 A3013 RMK AO2=
201209220053 METAR KSEA 220053Z 22004KT 10SM OVC030 16/10 A3013 RMK AO2 SLP210 T01610100=
201209212353 METAR KSEA 212353Z VRB03KT 10SM OVC030 16/10 A3013 RMK AO2 SLP209 T01610100 10161 20150 58005=
201209212340 SPECI KSEA 212340Z 19004KT 10SM OVC030 16/10 A3013 RMK AO2=
201209212253 METAR KSEA 212253Z 17004KT 10SM OVC024 16/10 A3014 RMK AO2 SLP211 T01560100=
201209212153 METAR KSEA 212153Z 20006KT 10SM OVC022 16/11 A3014 RMK AO2 SLP212 T01560106=
201209212053 METAR KSEA 212053Z 24003KT 10SM FEW014 OVC020 16/11 A3015 RMK AO2 SLP213 T01560106 58003=
201209211953 METAR KSEA 211953Z 23007KT 10SM FEW013 OVC022 15/11 A3016 RMK AO2 SLP217 T01500106=
201209211853 METAR KSEA 211853Z 21007KT 10SM SCT012 OVC019 15/11 A3016 RMK AO2 SLP217 T01500111=
201209211753 METAR KSEA 211753Z 18007KT 10SM FEW010 OVC015 15/11 A3015 RMK AO2 SLP217 60000 T01500111 10150 20128 53005=
201209211653 METAR KSEA 211653Z 16005KT 10SM FEW010 OVC015 14/11 A3015 RMK AO2 SLP215 T01390111=
201209211553 METAR KSEA 211553Z 14006KT 10SM FEW010 OVC015 14/11 A3014 RMK AO2 SLP211 T01390111=
201209211453 METAR KSEA 211453Z 13006KT 10SM OVC016 14/11 A3014 RMK AO2 SLP212 60000 T01390111 51003=
201209211353 METAR KSEA 211353Z 15005KT 10SM OVC015 13/11 A3014 RMK AO2 DZE33 SLP211 P0000 T01330106=
201209211334 SPECI KSEA 211334Z 17006KT 9SM OVC015 13/11 A3014 RMK AO2 DZE33 P0000=
201209211253 METAR KSEA 211253Z 17005KT 7SM -DZ OVC012 13/11 A3014 RMK AO2 DZB46 SLP211 P0000 T01330111=
201209211153 METAR KSEA 211153Z 19006KT 10SM OVC010 13/11 A3013 RMK AO2 SLP208 T01330106 10133 20133 58001=
201209211137 SPECI KSEA 211137Z 19004KT 10SM OVC010 13/11 A3013 RMK AO2=
201209211053 METAR KSEA 211053Z 00000KT 10SM OVC008 13/11 A3013 RMK AO2 SLP210 T01330106=
201209210953 METAR KSEA 210953Z 22003KT 10SM OVC008 13/11 A3013 RMK AO2 SLP209 T01330106=
201209210853 METAR KSEA 210853Z 21004KT 10SM OVC008 13/11 A3013 RMK AO2 SLP209 T01330106 51006=
201209210753 METAR KSEA 210753Z 21006KT 10SM OVC006 13/11 A3013 RMK AO2 SLP208 T01330111 401940100=
201209210653 METAR KSEA 210653Z 20008KT 10SM OVC006 13/11 A3013 RMK AO2 SLP208 T01330111=
201209210553 METAR KSEA 210553Z 21007KT 10SM OVC006 13/11 A3012 RMK AO2 SLP205 T01330111 10194 20133 51014=
201209210505 SPECI KSEA 210505Z 22008KT 10SM OVC006 13/11 A3011 RMK AO2=
201209210453 METAR KSEA 210453Z 22008KT 10SM SCT008 13/11 A3010 RMK AO2 SLP200 T01330106=
201209210353 METAR KSEA 210353Z 21006KT 10SM FEW250 14/11 A3009 RMK AO2 SLP194 T01440111=
201209210253 METAR KSEA 210253Z 25005KT 10SM FEW250 16/12 A3007 RMK AO2 SLP190 T01560117 53007=
201209210153 METAR KSEA 210153Z 20005KT 10SM CLR 17/12 A3006 RMK AO2 SLP184 T01720117=
201209210053 METAR KSEA 210053Z 22007KT 10SM CLR 19/12 A3005 RMK AO2 SLP181 T01890117=
201209202353 METAR KSEA 202353Z 21009KT 10SM CLR 19/11 A3005 RMK AO2 SLP182 T01940111 10194 20122 56008=
201209202253 METAR KSEA 202253Z 21007KT 10SM CLR 18/11 A3006 RMK AO2 SLP184 T01830111=
201209202153 METAR KSEA 202153Z 22006KT 10SM CLR 18/11 A3007 RMK AO2 SLP187 T01780111=
201209202053 METAR KSEA 202053Z 20008KT 7SM CLR 16/11 A3008 RMK AO2 SLP190 T01610111 58006=
201209202008 SPECI KSEA 202008Z 19005KT 4SM HZ SCT004 15/11 A3009 RMK AO2=
201209201953 METAR KSEA 201953Z 22006KT 1 1/2SM HZ BKN004 13/11 A3009 RMK AO2 SFC VIS 2 SLP196 T01330106=
201209201937 SPECI KSEA 201937Z 20006KT 1 1/2SM HZ OVC004 14/11 A3009 RMK AO2=
201209201853 METAR KSEA 201853Z 22004KT 1/4SM R16L/2200VP6000FT BR OVC004 13/11 A3009=
201209201844 SPECI KSEA 201844Z 24005KT 1/4SM R16L/P6000FT BR OVC004 12/10 A3009 RMK AO2 SFC VIS 3/4=
201209201753 METAR KSEA 201753Z 26004KT 1 1/4SM BR OVC003 12/11 A3009 RMK AO2 SLP196 T01220106 10128 20100 55002=
201209201719 SPECI KSEA 201719Z 29004KT 1 1/4SM BR OVC003 12/11 A3009 RMK AO2 SFC VIS 1 1/2=
201209201653 METAR KSEA 201653Z 31003KT 1/2SM R16L/P6000FT BR OVC002 12/12 A3009 RMK AO2 SFC VIS 3/4 SLP196 T01220117=
201209201638 SPECI KSEA 201638Z 00000KT 1/8SM R16L/3500VP6000FT BR OVC002 12/11 A3010 RMK AO2 SFC VIS 3/4=
201209201614 SPECI KSEA 201614Z 00000KT 1/8SM R16L/1200VP6000FT FG VV001 12/11 A3010 RMK AO2 SFC VIS 1/2=
201209201553 METAR KSEA 201553Z 34003KT 1/8SM R16L/0800V1600FT FG VV001 12/11 A3010 RMK AO2 SFC VIS 1/4 SLP198 T01170106=
201209201551 SPECI KSEA 201551Z 35003KT 1/8SM R16L/0800V1600FT FG VV001 12/11 A3010 RMK AO2=
201209201521 SPECI KSEA 201521Z 36005KT 1/8SM R16L/2000V4000FT FG VV002 12/11 A3010 RMK AO2 SFC VIS 1/2=
201209201506 SPECI KSEA 201506Z 33003KT 1/4SM R16L/1800V2800FT FG OVC002 11/10 A3010 RMK AO2 SFC VIS 1/2=
201209201453 METAR KSEA 201453Z 32004KT 1/4SM R16L/0600V2200FT BR BKN001 11/10 A3010 RMK AO2 SFC VIS 3/4 SLP198 T01060100 58001=
201209201408 SPECI KSEA 201408Z 34003KT 1/8SM R16L/0500V0600FT FG VV001 11/10 A3010 RMK AO2=
201209201353 METAR KSEA 201353Z 00000KT 1/4SM R16L/0600V0700FT FG VV001 11/10 A3011 RMK AO2 SLP200 T01110100=
201209201322 SPECI KSEA 201322Z 00000KT 1/4SM R16L/1000V1200FT FG BKN001 11/10 A3010 RMK AO2 SFC VIS 1/2=
201209201320 SPECI KSEA 201320Z 00000KT 3/4SM R16L/1000V1200FT BR BKN002 11/10 A3010 RMK AO2=
201209201313 SPECI KSEA 201313Z 16003KT 3/4SM R16L/1000V2400FT BR BKN002 11/10 A3010 RMK AO2=
201209201308 SPECI KSEA 201308Z 16003KT 3/4SM R16L/1200VP6000FT BR SCT001 11/10 A3010 RMK AO2=
201209201253 METAR KSEA 201253Z 18003KT 5SM R16L/2800VP6000FT BCFG FEW001 10/09 A3010 RMK AO2 SLP198 FG BANK S T01000094=
201209201153 METAR KSEA 201153Z 06004KT 8SM FEW001 11/09 A3010 RMK AO2 SLP199 FG BANK S T01060089 10161 20106 50003=
201209201053 METAR KSEA 201053Z 00000KT 7SM FEW002 11/09 A3011 RMK AO2 SLP201 T01060089=
201209200953 METAR KSEA 200953Z 19005KT 10SM CLR 11/09 A3010 RMK AO2 SLP197 T01060089=
201209200853 METAR KSEA 200853Z 00000KT 10SM CLR 12/09 A3010 RMK AO2 SLP196 T01220094 51001=
201209200753 METAR KSEA 200753Z 00000KT 10SM CLR 13/10 A3010 RMK AO2 SLP196 T01280100 402390117=
201209200653 METAR KSEA 200653Z 00000KT 10SM CLR 14/09 A3009 RMK AO2 SLP196 T01390094=
201209200553 METAR KSEA 200553Z 00000KT 10SM CLR 16/09 A3009 RMK AO2 SLP195 T01610094 10233 20156 51006=
201209200453 METAR KSEA 200453Z 01006KT 10SM CLR 17/09 A3008 RMK AO2 SLP193 T01670094=
201209200353 METAR KSEA 200353Z 36004KT 10SM FEW250 18/09 A3008 RMK AO2 SLP192 T01830094=
201209200253 METAR KSEA 200253Z 35004KT 10SM FEW250 18/09 A3007 RMK AO2 SLP189 T01830089 55005=
201209200153 METAR KSEA 200153Z 31004KT 10SM CLR 20/10 A3007 RMK AO2 SLP188 T02000100=
201209200053 METAR KSEA 200053Z 30006KT 10SM CLR 22/10 A3007=
201209192353 METAR KSEA 192353Z 29005KT 10SM CLR 23/11 A3009 RMK AO2 SLP193 T02330111 10239 20133 56014=
201209192253 METAR KSEA 192253Z 31007KT 10SM CLR 22/12 A3010 RMK AO2 SLP197 T02220122=
201209192153 METAR KSEA 192153Z 30006KT 10SM CLR 21/12 A3011 RMK AO2 SLP202 T02110117=
201209192053 METAR KSEA 192053Z 28006KT 7SM CLR 18/12 A3013 RMK AO2 SLP208 T01780117 58015=
201209191953 METAR KSEA 191953Z VRB04KT 7SM BCFG CLR 16/11 A3014 RMK AO2 SLP213 FG BANK SW-NW T01610111=
201209191853 METAR KSEA 191853Z 28004KT 6SM HZ FEW008 16/12 A3016 RMK AO2 SLP219 T01610117=
201209191844 SPECI KSEA 191844Z 29005KT 6SM HZ SCT008 16/12 A3016 RMK AO2=
201209191809 SPECI KSEA 191809Z 29004KT 2 1/2SM HZ OVC006 14/12 A3017 RMK AO2 SFC VIS 3=
201209191753 METAR KSEA 191753Z 00000KT 2 1/2SM BR OVC004 13/11 A3017 RMK AO2 SLP223 T01330111 10133 20117 51004=
201209191653 METAR KSEA 191653Z 00000KT 1/4SM R16L/1600V3000FT FG VV002 12/11 A3017 RMK AO2 SFC VIS 1/2 SLP223 T01220111=
201209191642 SPECI KSEA 191642Z 00000KT 1/4SM R16L/1400V2600FT FG VV002 12/11 A3017 RMK AO2=
201209191606 SPECI KSEA 191606Z 17003KT 1/4SM R16L/1200V5000FT FG VV001 12/11 A3017 RMK AO2=
201209191553 METAR KSEA 191553Z 16004KT 1/4SM R16L/1000V1400FT FG VV001 12/11 A3017 RMK AO2 SLP221 T01170111=
201209191541 SPECI KSEA 191541Z 00000KT 1/4SM R16L/1000V2200FT FG VV001 12/11 A3017 RMK AO2=
201209191531 SPECI KSEA 191531Z 22003KT 1/4SM R16L/1600V4500FT FG VV001 12/11 A3017 RMK AO2=
201209191453 METAR KSEA 191453Z 22003KT 1/4SM R16L/0800V1400FT FG VV001 12/11 A3016 RMK AO2 SLP219 T01170111 51005=
201209191414 SPECI KSEA 191414Z 00000KT 1/4SM R16L/1000V1400FT FG VV001 12/11 A3016 RMK AO2 TWR VIS 1/4=
201209191353 METAR KSEA 191353Z 22003KT 1/4SM R16L/1400V4000FT FG VV001 12/11 A3016 RMK AO2 SFC VIS 1/2 SLP217 T01170111=
201209191253 METAR KSEA 191253Z 22004KT 1/4SM R16L/1800V4000FT FG OVC001 12/11 A3015 RMK AO2 SLP214 T01170111=
201209191230 SPECI KSEA 191230Z 21005KT 1/4SM R16L/1200V2400FT FG OVC001 12/11 A3015 RMK AO2=
201209191219 SPECI KSEA 191219Z 21004KT 1/4SM R16L/1400V2200FT FG OVC001 12/11 A3015 RMK AO2=
201209191208 SPECI KSEA 191208Z 23003KT 1/4SM R16L/1200V2600FT FG OVC001 12/11 A3015 RMK AO2=
201209191153 METAR KSEA 191153Z 20003KT 1/4SM R16L/1200V2000FT FG OVC001 12/11 A3015 RMK AO2 SLP213 T01170111 10150 20117 53008=
201209191118 SPECI KSEA 191118Z 20004KT 1/4SM R16L/1400V3500FT FG OVC001 12/11 A3014 RMK AO2=
201209191053 METAR KSEA 191053Z 20004KT 1/2SM R16L/1200V2000FT FG OVC001 12/11 A3013 RMK AO2 SLP209 T01170111=
201209191044 SPECI KSEA 191044Z 19004KT 1/2SM R16L/1200V2000FT FG OVC001 12/11 A3013 RMK AO2=
201209191031 SPECI KSEA 191031Z 20003KT 1/2SM R16L/1200V3000FT FG OVC001 12/11 A3013 RMK AO2=
201209190953 METAR KSEA 190953Z 22006KT 1/2SM R16L/1600V6000FT FG OVC002 12/11 A3013 RMK AO2 SLP207 T01220111=
201209190904 SPECI KSEA 190904Z 21006KT 3/4SM R16L/6000VP6000FT BR BKN003 12/11 A3012 RMK AO2=
201209190853 METAR KSEA 190853Z 21006KT 9SM BKN003 12/11 A3012 RMK AO2 SLP204 T01220111 51014=
201209190844 SPECI KSEA 190844Z 20006KT 10SM BKN005 12/11 A3012 RMK AO2=
201209190753 METAR KSEA 190753Z 20006KT 10SM FEW005 13/11 A3011 RMK AO2 SLP201 T01280106 402780117=
201209190653 METAR KSEA 190653Z 19007KT 10SM CLR 13/11 A3010 RMK AO2 SLP196 T01330111=
201209190553 METAR KSEA 190553Z 18007KT 10SM CLR 15/11 A3008 RMK AO2 SLP190 T01500111 10278 20150 53015=
201209190453 METAR KSEA 190453Z 20003KT 10SM CLR 17/09 A3006 RMK AO2 SLP185 T01720094=
201209190353 METAR KSEA 190353Z 29004KT 10SM CLR 19/08 A3005 RMK AO2 SLP179 T01890083=
201209190253 METAR KSEA 190253Z 29003KT 10SM CLR 22/09 A3003 RMK AO2 SLP175 T02170089 53002=
201209190153 METAR KSEA 190153Z 29004KT 10SM CLR 23/09 A3002 RMK AO2 SLP171 T02330089=
201209190053 METAR KSEA 190053Z 29003KT 10SM CLR 27/09 A3003 RMK AO2 SLP172 T02670089=
201209182353 METAR KSEA 182353Z 28004KT 10SM CLR 28/09 A3003 RMK AO2 SLP173 T02780089 10278 20211 56008=
201209182253 METAR KSEA 182253Z 28005KT 10SM CLR 27/08 A3004 RMK AO2 SLP176 T02720083=
201209182153 METAR KSEA 182153Z 28004KT 10SM CLR 26/10 A3004=
201209182053 METAR KSEA 182053Z 29005KT 10SM CLR 25/11 A3005 RMK AO2 SLP181 T02500106 58004=
201209181953 METAR KSEA 181953Z 29004KT 10SM CLR 24/11 A3006 RMK AO2 SLP185 T02440111=
201209181853 METAR KSEA 181853Z VRB04KT 10SM CLR 22/11 A3007 RMK AO2 SLP187 T02220111=
201209181753 METAR KSEA 181753Z 29003KT 10SM CLR 22/10 A3007 RMK AO2 SLP186 T02170100 10217 20117 51008=
201209181653 METAR KSEA 181653Z 00000KT 10SM CLR 19/12 A3006 RMK AO2 SLP184 T01890117=
201209181553 METAR KSEA 181553Z 00000KT 10SM CLR 16/12 A3005 RMK AO2 SLP181 T01610117=
201209181453 METAR KSEA 181453Z 00000KT 10SM CLR 13/10 A3004 RMK AO2 SLP177 T01330100 53006=
201209181353 METAR KSEA 181353Z 00000KT 10SM CLR 13/09 A3003 RMK AO2 SLP174 T01280094=
201209181253 METAR KSEA 181253Z 00000KT 10SM CLR 12/09 A3003 RMK AO2 SLP173 T01220089=
201209181153 METAR KSEA 181153Z 00000KT 10SM CLR 13/11 A3002 RMK AO2 SLP171 T01330106 10206 20133 58001=
201209181053 METAR KSEA 181053Z 00000KT 10SM CLR 15/10 A3003 RMK AO2 SLP172 T01500100=
201209180953 METAR KSEA 180953Z 00000KT 10SM CLR 15/09 A3003 RMK AO2 SLP172 T01500094=
201209180853 METAR KSEA 180853Z 00000KT 10SM CLR 15/10 A3003 RMK AO2 SLP172 T01500100 53000=
201209180753 METAR KSEA 180753Z 35003KT 10SM CLR 18/09 A3002 RMK AO2 SLP169 T01780094 402780117=
201209180653 METAR KSEA 180653Z 35005KT 10SM CLR 18/10 A3002 RMK AO2 SLP169 T01780100=
201209180553 METAR KSEA 180553Z 02007KT 10SM CLR 21/10 A3002 RMK AO2 SLP171 T02060100 10261 20172 50003=
201209180453 METAR KSEA 180453Z 36006KT 10SM CLR 18/09 A3003 RMK AO2 SLP172 T01780094=
201209180353 METAR KSEA 180353Z 00000KT 10SM CLR 20/09 A3003 RMK AO2 SLP172 T02000094=
201209180253 METAR KSEA 180253Z 36004KT 10SM CLR 22/09 A3002 RMK AO2 SLP169 T02220089 56005=
201209180153 METAR KSEA 180153Z 34004KT 10SM CLR 23/09 A3002 RMK AO2 SLP170 T02280089=
201209180053 METAR KSEA 180053Z 30005KT 10SM CLR 24/08 A3002 RMK AO2 SLP170 T02440083=
201209172353 METAR KSEA 172353Z 28006KT 10SM CLR 26/10 A3003 RMK AO2 SLP174 T02610100 10278 20206 56016=
201209172253 METAR KSEA 172253Z 36005KT 10SM CLR 27/09 A3004 RMK AO2 SLP177 T02670094=
201209172153 METAR KSEA 172153Z 36007KT 10SM CLR 26/10 A3006 RMK AO2 SLP184 T02610100=
201209172053 METAR KSEA 172053Z 30006KT 10SM FEW250 25/11 A3008 RMK AO2 SLP190 T02500111 57017=
201209171953 METAR KSEA 171953Z 36007KT 10SM CLR 24/11 A3010 RMK AO2 SLP195 T02390106=
201209171853 METAR KSEA 171853Z 03010KT 10SM CLR 22/10 A3012 RMK AO2 SLP202 T02220100=
201209171753 METAR KSEA 171753Z 02009KT 10SM CLR 21/11 A3013 RMK AO2 SLP208 T02060106 10211 20117 50002=
201209171653 METAR KSEA 171653Z 02007KT 10SM FEW250 18/11 A3014 RMK AO2 SLP209 T01830111=
201209171553 METAR KSEA 171553Z 03006KT 10SM FEW250 16/11 A3013 RMK AO2 SLP208 T01610111=
201209171453 METAR KSEA 171453Z 03004KT 7SM BCFG FEW250 13/11 A3012 RMK AO2 SLP206 T01330111 53002 $=
201209171403 SPECI KSEA 171403Z 00000KT 7SM FEW001 12/10 A3012 RMK AO2 VIS W-N 1 1/2 FG BANK W-N=
201209171353 METAR KSEA 171353Z 00000KT 10SM FEW250 12/09 A3012 RMK AO2 SLP204 T01170094=
201209171253 METAR KSEA 171253Z 00000KT 10SM FEW250 12/10 A3011 RMK AO2 SLP201 T01220100=
201209171153 METAR KSEA 171153Z 00000KT 10SM FEW250 14/11 A3012 RMK AO2 SLP203 T01390106 10189 20128 57003=
201209171053 METAR KSEA 171053Z 04003KT 10SM FEW250 15/11 A3012 RMK AO2 SLP204 T01500106=
201209170953 METAR KSEA 170953Z 00000KT 10SM FEW250 14/11 A3013 RMK AO2 SLP206 T01440106=
201209170853 METAR KSEA 170853Z 00000KT 10SM FEW250 15/11 A3013 RMK AO2 SLP207 T01500106 55003=
201209170753 METAR KSEA 170753Z 05003KT 10SM CLR 16/10 A3012 RMK AO2 SLP205 T01610100 402440094=
201209170653 METAR KSEA 170653Z 05007KT 10SM CLR 18/11 A3013 RMK AO2 SLP206 T01780111=
201209170553 METAR KSEA 170553Z 03009KT 10SM CLR 19/11 A3014 RMK AO2 SLP210 T01890106 10244 20172 51001=
201209170453 METAR KSEA 170453Z 03007KT 10SM CLR 19/11 A3014 RMK AO2 SLP210 T01890106=
201209170353 METAR KSEA 170353Z 36007KT 10SM CLR 18/10 A3014 RMK AO2 SLP211 T01780100=
201209170253 METAR KSEA 170253Z 36006KT 10SM FEW080 19/10 A3013 RMK AO2 SLP209 T01940100 55003=
201209170153 METAR KSEA 170153Z 32004KT 10SM CLR 21/11 A3013 RMK AO2 SLP209 T02060106=
201209170053 METAR KSEA 170053Z 32004KT 10SM CLR 23/11 A3013 RMK AO2 SLP209 T02280106=
201209162353 METAR KSEA 162353Z VRB03KT 10SM CLR 24/09 A3014 RMK AO2 SLP211 T02390094 10244 20172 56014=
201209162253 METAR KSEA 162253Z 36007KT 10SM CLR 23/11 A3015 RMK AO2 SLP215 T02330111=
201209162153 METAR KSEA 162153Z VRB05KT 10SM CLR 23/11 A3016 RMK AO2 SLP218 T02280111=
201209162053 METAR KSEA 162053Z 35005KT 10SM CLR 22/10 A3018 RMK AO2 SLP226 T02220100 58012=
201209161953 METAR KSEA 161953Z 26005KT 10SM CLR 19/11 A3020 RMK AO2 SLP233 T01940111=
201209161853 METAR KSEA 161853Z 36005KT 10SM CLR 20/11 A3021 RMK AO2 SLP237 T02000106=
201209161753 METAR KSEA 161753Z 36007KT 10SM FEW230 17/11 A3022=
201209161653 METAR KSEA 161653Z 04006KT 10SM FEW230 16/10 A3023 RMK AO2 SLP241 T01610100=
201209161553 METAR KSEA 161553Z 00000KT 10SM FEW220 13/11 A3023 RMK AO2 SLP241 T01280106=
201209161453 METAR KSEA 161453Z 00000KT 10SM SCT210 12/10 A3022 RMK AO2 SLP238 T01170100 51011=
201209161353 METAR KSEA 161353Z 17003KT 10SM SCT200 11/08 A3021 RMK AO2 SLP234 T01110083=
201209161253 METAR KSEA 161253Z 00000KT 10SM SCT200 12/09 A3020 RMK AO2 SLP232 T01220089=
201209161153 METAR KSEA 161153Z 00000KT 10SM SCT200 12/08 A3019 RMK AO2 SLP227 T01170083 10150 20111 58002=
201209161053 METAR KSEA 161053Z 00000KT 10SM SCT200 13/09 A3019 RMK AO2 SLP230 T01280089=
201209160953 METAR KSEA 160953Z 02007KT 10SM SCT200 14/09 A3019 RMK AO2 SLP229 T01390094=
201209160853 METAR KSEA 160853Z 01007KT 10SM SCT200 14/10 A3019 RMK AO2 SLP229 T01390100 53006=
201209160753 METAR KSEA 160753Z 02008KT 10SM SCT200 15/10 A3018 RMK AO2 SLP226 T01500100 402220111=
201209160653 METAR KSEA 160653Z 34005KT 10SM SCT200 12/08 A3017 RMK AO2 SLP223 T01220078=
201209160553 METAR KSEA 160553Z 00000KT 10SM SCT200 15/09 A3018 RMK AO2 SLP224 T01500089 10217 20150 51008=
201209160453 METAR KSEA 160453Z 00000KT 10SM SCT220 17/09 A3017 RMK AO2 SLP221 T01670089=
201209160353 METAR KSEA 160353Z 03008KT 10SM SCT220 19/10 A3017 RMK AO2 SLP221 T01890100=
201209160253 METAR KSEA 160253Z 34003KT 10SM SCT220 19/08 A3015 RMK AO2 SLP216 T01890083 53001=
201209160153 METAR KSEA 160153Z 00000KT 10SM BKN220 21/10 A3015 RMK AO2 SLP214 T02060100=
201209160053 METAR KSEA 160053Z 28004KT 10SM BKN170 21/09 A3015 RMK AO2 SLP215 T02110094=
201209152353 METAR KSEA 152353Z 29005KT 10SM FEW150 BKN200 22/09 A3015 RMK AO2 SLP215 T02170094 10222 20144 56009=
201209152253 METAR KSEA 152253Z 29006KT 10SM FEW150 BKN220 22/09 A3016 RMK AO2 SLP217 T02170094=
201209152153 METAR KSEA 152153Z 27005KT 10SM SCT150 BKN220 21/11 A3016 RMK AO2 SLP219 T02110106=
201209152053 METAR KSEA 152053Z 00000KT 10SM SCT150 BKN220 21/10 A3018 RMK AO2 SLP223 T02060100 50001=
201209151953 METAR KSEA 151953Z 18004KT 10SM SCT150 BKN220 18/09 A3019 RMK AO2 SLP227 T01830094=
201209151853 METAR KSEA 151853Z 19005KT 10SM SCT150 BKN220 17/10 A3018 RMK AO2 SLP226 T01670100=
201209151753 METAR KSEA 151753Z 19005KT 10SM SCT150 BKN250 14/09 A3017 RMK AO2 SLP223 T01440094 10150 20111 53008=
201209151653 METAR KSEA 151653Z 18003KT 10SM SCT150 BKN250 15/10 A3016 RMK AO2 SLP219 T01500100=
201209151553 METAR KSEA 151553Z 19004KT 10SM FEW150 BKN250 13/10 A3016 RMK AO2 SLP218 T01280100=
201209151453 METAR KSEA 151453Z 00000KT 10SM BKN250 12/10 A3015=
201209151353 METAR KSEA 151353Z 16006KT 10SM BKN250 12/09 A3013 RMK AO2 SLP209 T01170094=
201209151253 METAR KSEA 151253Z 16003KT 10SM FEW250 12/09 A3012 RMK AO2 SLP205 T01170089=
201209151153 METAR KSEA 151153Z 18003KT 10SM CLR 13/09 A3012 RMK AO2 SLP202 T01280089 10172 20117 53009=
201209151053 METAR KSEA 151053Z 17003KT 10SM CLR 12/08 A3010 RMK AO2 SLP199 T01170078=
201209150953 METAR KSEA 150953Z 14003KT 10SM CLR 14/09 A3009 RMK AO2 SLP195 T01440089=
201209150853 METAR KSEA 150853Z 13004KT 10SM CLR 14/09 A3009 RMK AO2 SLP193 T01440089 53012=
201209150753 METAR KSEA 150753Z 00000KT 10SM CLR 16/08 A3007 RMK AO2 SLP188 T01560083 402610111=
201209150653 METAR KSEA 150653Z 00000KT 10SM CLR 17/08 A3006 RMK AO2 SLP184 T01670078=
201209150553 METAR KSEA 150553Z 36005KT 10SM CLR 16/08 A3005 RMK AO2 SLP182 T01610078 10256 20161 51007=
201209150453 METAR KSEA 150453Z 02005KT 10SM CLR 20/08 A3005 RMK AO2 SLP181 T02000078=
201209150353 METAR KSEA 150353Z 32003KT 10SM FEW250 18/08 A3005 RMK AO2 SLP181 T01780078=
201209150253 METAR KSEA 150253Z 35005KT 10SM FEW050 SCT250 20/08 A3003 RMK AO2 SLP175 T02000078 55002=
201209150153 METAR KSEA 150153Z 30004KT 10SM FEW060 SCT250 22/08 A3002 RMK AO2 SLP172 T02220078=
201209150053 METAR KSEA 150053Z 33004KT 10SM FEW060 SCT250 26/06 A3003 RMK AO2 SLP173 T02560061=
201209142353 METAR KSEA 142353Z 30006KT 10SM FEW060 SCT250 26/08 A3004 RMK AO2 SLP177 60000 T02560078 10261 20194 57009=
201209142253 METAR KSEA 142253Z 28006KT 10SM FEW060 SCT250 26/08 A3005 RMK AO2 SLP180 T02560078=
201209142153 METAR KSEA 142153Z 31007KT 10SM FEW060 SCT250 25/08 A3006 RMK AO2 SLP183 T02500078 $=
201209142053 METAR KSEA 142053Z COR 28007KT 10SM FEW060 SCT250 24/09 A3007 RMK AO2 SLP186 P0000 60000 T02390089 56009=
201209141953 METAR KSEA 141953Z 28006KT 10SM SCT060 22/09 A3007 RMK AO2 SLP188 T02220094=
201209141853 METAR KSEA 141853Z 29005KT 10SM SCT060 21/11 A3009 RMK AO2 SLP192 T02110106=
201209141753 METAR KSEA 141753Z 28003KT 9SM FEW060 19/11 A3009 RMK AO2 SLP195 T01940111 10194 20111 50002=
201209141653 METAR KSEA 141653Z 00000KT 10SM FEW050 SCT200 18/11 A3010 RMK AO2 SLP196 T01780111=
201209141553 METAR KSEA 141553Z 00000KT 10SM SCT060 SCT200 16/11 A3009 RMK AO2 SLP196 T01560106=
201209141453 METAR KSEA 141453Z 34003KT 10SM FEW100 SCT250 13/09 A3009 RMK AO2 SLP194 T01330094 53006=
201209141353 METAR KSEA 141353Z 00000KT 10SM FEW120 SCT250 11/08 A3008 RMK AO2 SLP189 T01110083=
201209141253 METAR KSEA 141253Z 00000KT 10SM SCT250 12/09 A3007 RMK AO2 SLP188 T01220089=
201209141153 METAR KSEA 141153Z 00000KT 10SM SCT250 13/09 A3007 RMK AO2 SLP187 T01330089 10178 20122 55003=
201209141053 METAR KSEA 141053Z 00000KT 10SM SCT250 15/10 A3007 RMK AO2 SLP186 T01500100=
201209140953 METAR KSEA 140953Z 00000KT 10SM SCT250 14/08 A3008 RMK AO2 SLP189 T01390083=
201209140853 METAR KSEA 140853Z 00000KT 10SM SCT250 15/09 A3008 RMK AO2 SLP190 T01500094 57001=
201209140753 METAR KSEA 140753Z 00000KT 10SM SCT250 17/08 A3008=
201209140653 METAR KSEA 140653Z 00000KT 10SM SCT250 17/08 A3008 RMK AO2 SLP190 T01670078=
201209140553 METAR KSEA 140553Z 35003KT 10SM SCT250 18/07 A3008 RMK AO2 SLP191 T01780067 10267 20178 51005=
201209140453 METAR KSEA 140453Z 00000KT 10SM SCT250 19/07 A3008 RMK AO2 SLP190 T01890067=
201209140353 METAR KSEA 140353Z 36006KT 10SM SCT250 19/07 A3008 RMK AO2 SLP189 T01890067=
201209140253 METAR KSEA 140253Z 36006KT 10SM SCT250 21/07 A3007 RMK AO2 SLP187 T02060072 53002=
201209140153 METAR KSEA 140153Z 34007KT 10SM BKN250 24/04 A3006 RMK AO2 SLP182 T02390044=
201209140053 METAR KSEA 140053Z 29005KT 9SM SCT250 26/06 A3006 RMK AO2 SLP182 T02560061=
201209132353 METAR KSEA 132353Z 31007KT 10SM SCT250 27/06 A3006 RMK AO2 SLP184 T02670061 10278 20200 56020=
201209132253 METAR KSEA 132253Z 31007KT 9SM FEW250 27/07 A3008 RMK AO2 SLP189 T02670067=
201209132153 METAR KSEA 132153Z 36007KT 8SM FEW250 27/04 A3010 RMK AO2 SLP196 T02720044=
201209132053 METAR KSEA 132053Z 31005KT 7SM FEW250 25/06 A3012 RMK AO2 SLP205 T02500061 58019=
201209131953 METAR KSEA 131953Z 34009KT 10SM FEW250 25/06 A3015 RMK AO2 SLP213 T02500061=
201209131853 METAR KSEA 131853Z 35009KT 10SM FEW250 22/07 A3017 RMK AO2 SLP221 T02220067=
201209131753 METAR KSEA 131753Z 35010KT 10SM SCT250 20/07 A3018 RMK AO2 SLP224 T02000067 10200 20117 58005=
201209131653 METAR KSEA 131653Z 36009KT 10SM SCT250 18/07 A3019=
201209131553 METAR KSEA 131553Z 36009KT 10SM FEW250 16/08 A3019 RMK AO2 SLP230 T01610078=
201209131453 METAR KSEA 131453Z 01009KT 10SM FEW250 13/08 A3020 RMK AO2 SLP231 T01330083 55000=
201209131353 METAR KSEA 131353Z 02010KT 10SM FEW040 BKN250 12/08 A3019 RMK AO2 SLP230 T01220078=
201209131253 METAR KSEA 131253Z 01012KT 10SM CLR 12/08 A3019 RMK AO2 SLP230 T01220078=
201209131153 METAR KSEA 131153Z 01009KT 10SM CLR 12/07 A3020 RMK AO2 SLP231 T01220072 10156 20122 58010=
201209131053 METAR KSEA 131053Z 02012KT 10SM FEW034 13/07 A3021 RMK AO2 SLP234 T01280072=
201209130953 METAR KSEA 130953Z 02011KT 10SM SCT034 13/07 A3022 RMK AO2 SLP238 T01330072=
201209130853 METAR KSEA 130853Z 36008KT 10SM OVC040 13/07 A3023 RMK AO2 SLP241 T01280067 55004=
201209130753 METAR KSEA 130753Z 36009KT 10SM CLR 14/07 A3023 RMK AO2 SLP241 T01390072 402220100=
201209130653 METAR KSEA 130653Z 02014KT 10SM CLR 15/07 A3023 RMK AO2 SLP243 T01500067=
201209130553 METAR KSEA 130553Z 01017KT 10SM CLR 16/07 A3024 RMK AO2 SLP245 T01560067 10211 20150 50000=
201209130453 METAR KSEA 130453Z 02013KT 10SM CLR 16/07 A3024 RMK AO2 SLP247 T01560072=
201209130353 METAR KSEA 130353Z 02013KT 10SM CLR 16/07 A3024 RMK AO2 SLP247 T01610072=
201209130253 METAR KSEA 130253Z 36008KT 10SM CLR 16/07 A3024 RMK AO2 SLP245 T01560072 55006=
201209130153 METAR KSEA 130153Z 36009KT 10SM CLR 18/07 A3023 RMK AO2 SLP244 T01830072=
201209130053 METAR KSEA 130053Z 35009KT 10SM CLR 21/07 A3024 RMK AO2 SLP247 T02060072=
201209122353 METAR KSEA 122353Z 35011KT 10SM CLR 21/07 A3025 RMK AO2 SLP251 T02110072 10222 20156 57020=
201209122253 METAR KSEA 122253Z 34009KT 10SM CLR 22/07 A3028 RMK AO2 SLP258 T02220067=
201209122153 METAR KSEA 122153Z 01012KT 10SM FEW250 21/06 A3029 RMK AO2 SLP263 T02110056=
201209122053 METAR KSEA 122053Z 36012G16KT 10SM FEW250 20/06 A3031 RMK AO2 SLP271 T02000056 58013=
201209121953 METAR KSEA 121953Z 03013G18KT 10SM CLR 19/06 A3033 RMK AO2 SLP277 T01890061=
201209121853 METAR KSEA 121853Z 36010KT 10SM CLR 18/07 A3034 RMK AO2 SLP281 T01830072=
201209121753 METAR KSEA 121753Z 01012KT 10SM CLR 16/07 A3035 RMK AO2 SLP284 T01610067 10167 20100 51004=
201209121653 METAR KSEA 121653Z 01014KT 10SM FEW020 14/07 A3035 RMK AO2 SLP285 T01390067 $=
201209121553 METAR KSEA 121553Z 02013KT 10SM FEW020 12/07 A3034 RMK AO2 SLP282 T01220067=
201209121453 METAR KSEA 121453Z 03016KT 10SM CLR 11/06 A3034 RMK AO2 SLP281 T01060061 53009=
201209121353 METAR KSEA 121353Z 02009KT 10SM CLR 10/06 A3033 RMK AO2 SLP277 T01000056 $=
201209121253 METAR KSEA 121253Z 03011KT 10SM CLR 10/06 A3032 RMK AO2 SLP275 T01000056 $=
201209121153 METAR KSEA 121153Z 03007KT 10SM CLR 10/07 A3031 RMK AO2 SLP271 T01000067 10133 20100 53001 $=
201209121053 METAR KSEA 121053Z 01007KT 10SM CLR 10/06 A3031=
201209120953 METAR KSEA 120953Z 04006KT 10SM CLR 11/06 A3031 RMK AO2 SLP269 T01060056 $=
201209120853 METAR KSEA 120853Z 05008KT 10SM CLR 11/05 A3031 RMK AO2 SLP270 T01110050 57001 $=
201209120753 METAR KSEA 120753Z 04007KT 10SM CLR 12/04 A3031 RMK AO2 SLP269 T01170044 402000089 $=
201209120653 METAR KSEA 120653Z 03008KT 10SM CLR 12/04 A3032 RMK AO2 SLP272 T01220039 $=
201209120553 METAR KSEA 120553Z 01009KT 10SM CLR 13/03 A3031 RMK AO2 SLP271 T01330033 10189 20133 51010 $=
201209120453 METAR KSEA 120453Z 02012KT 10SM CLR 13/03 A3031 RMK AO2 SLP271 T01330033 $=
201209120353 METAR KSEA 120353Z 36010KT 10SM CLR 13/04 A3030 RMK AO2 SLP268 T01330044 $=
201209120253 METAR KSEA 120253Z 35011KT 10SM CLR 14/04 A3028 RMK AO2 SLP261 T01390039 53002 $=
201209120153 METAR KSEA 120153Z 35012KT 10SM CLR 16/03 A3027 RMK AO2 SLP257 T01610033 $=
201209120053 METAR KSEA 120053Z 35014KT 10SM CLR 18/04 A3028 RMK AO2 SLP259 T01780039 $=
201209112353 METAR KSEA 112353Z 35008KT 10SM FEW035 19/04 A3028 RMK AO2 SLP258 T01940044 10200 20150 56009 $=
201209112253 METAR KSEA 112253Z 35011G14KT 10SM FEW035 19/04 A3028 RMK AO2 SLP260 T01940044 $=
201209112153 METAR KSEA 112153Z 34009G14KT 10SM FEW035 19/04 A3029=
201209112053 METAR KSEA 112053Z 01010KT 10SM FEW035 18/05 A3030 RMK AO2 SLP267 T01830050 58006=
201209111953 METAR KSEA 111953Z 34010KT 10SM SCT030 18/07 A3031 RMK AO2 SLP270 T01830067=
201209111853 METAR KSEA 111853Z 34005KT 10SM SCT025 17/07 A3032 RMK AO2 SLP272 T01670067=
201209111753 METAR KSEA 111753Z 01007KT 10SM SCT021 16/07 A3032 RMK AO2 SLP273 T01610072 10161 20089 53004=
201209111717 SPECI KSEA 111717Z 35008KT 10SM SCT021 14/07 A3032 RMK AO2=
201209111653 METAR KSEA 111653Z 36009KT 10SM BKN021 13/07 A3032 RMK AO2 SLP272 T01330067=
201209111607 SPECI KSEA 111607Z 36008KT 10SM BKN021 BKN032 13/07 A3031 RMK AO2=
201209111553 METAR KSEA 111553Z 36008KT 10SM FEW021 BKN032 12/07 A3031 RMK AO2 SLP270 T01220072=
201209111453 METAR KSEA 111453Z 35004KT 10SM SCT034 11/07 A3031 RMK AO2 SLP270 T01060067 53011=
201209111353 METAR KSEA 111353Z 01003KT 10SM SCT032 11/06 A3030 RMK AO2 SLP266 T01060061=
201209111253 METAR KSEA 111253Z 05005KT 10SM SCT032 11/06 A3029 RMK AO2 SLP262 T01060056=
201209111153 METAR KSEA 111153Z 06005KT 10SM FEW020 10/05 A3028 RMK AO2 SLP259 70001 T01000050 10128 20100 51012=
201209111053 METAR KSEA 111053Z 06008KT 10SM FEW050 11/05 A3027=
201209110953 METAR KSEA 110953Z 07007KT 10SM FEW050 12/04 A3026 RMK AO2 SLP251 T01170044=
201209110853 METAR KSEA 110853Z 07007KT 10SM SCT050 12/04 A3024 RMK AO2 SLP246 T01220039 51010=
201209110753 METAR KSEA 110753Z 05006KT 10SM BKN050 13/04 A3023 RMK AO2 SLP243 T01280044 402000117=
201209110653 METAR KSEA 110653Z 06006KT 10SM SCT046 BKN065 13/05 A3022 RMK AO2 SLP239 T01280050=
201209110553 METAR KSEA 110553Z 05010KT 10SM SCT046 BKN060 13/06 A3021 RMK AO2 SLP237 60000 T01280061 10178 20128 51014=
201209110453 METAR KSEA 110453Z 06010KT 10SM BKN044 13/07 A3021 RMK AO2 SLP235 T01330072=
201209110353 METAR KSEA 110353Z 03008KT 10SM BKN050 14/07 A3019 RMK AO2 SLP231 T01440072=
201209110253 METAR KSEA 110253Z 03012KT 10SM BKN042 16/07 A3017 RMK AO2 SLP223 60000 T01560072 53005=
201209110153 METAR KSEA 110153Z 05009KT 10SM OVC050 17/06 A3016 RMK AO2 SLP218 T01670061=
201209110053 METAR KSEA 110053Z 04008KT 10SM FEW040 BKN060 17/08 A3015 RMK AO2 RAE00 SLP215 P0000 T01720083=
201209102353 METAR KSEA 102353Z 02005KT 10SM -RA FEW040 BKN060 16/08 A3015 RMK AO2 SLP218 P0001 60001 T01560083 10200 20144 56001=
201209102253 METAR KSEA 102253Z 00000KT 9SM -RA FEW040 BKN070 17/07 A3016 RMK AO2 RAB27 SLP217 P0000 T01720067=
201209102153 METAR KSEA 102153Z VRB05KT 10SM SCT045 19/04 A3015 RMK AO2 SLP216 T01890044=
201209102053 METAR KSEA 102053Z 18005KT 10SM SCT038 18/03 A3016=
201209101953 METAR KSEA 101953Z VRB04KT 10SM SCT036 18/06 A3017 RMK AO2 SLP220 T01780056=
201209101853 METAR KSEA 101853Z VRB04KT 10SM SCT030 17/05 A3017 RMK AO2 SLP220 T01670050=
201209101753 METAR KSEA 101753Z 26006KT 10SM SCT028 14/07 A3016 RMK AO2 SLP219 T01440072 10150 20117 51016=
201209101653 METAR KSEA 101653Z 12005KT 10SM FEW027 SCT043 14/06 A3015 RMK AO2 SLP215 T01440061=
201209101553 METAR KSEA 101553Z 17006KT 10SM FEW026 SCT043 BKN060 13/07 A3014 RMK AO2 SLP210 T01280072=
201209101515 SPECI KSEA 101515Z 18006KT 10SM SCT025 BKN043 BKN055 12/08 A3012 RMK AO2=
201209101453 METAR KSEA 101453Z 13009KT 10SM BKN023 BKN030 OVC050 12/08 A3012 RMK AO2 SLP204 T01220083 53023=
201209101353 METAR KSEA 101353Z 07008KT 10SM BKN025 BKN032 12/08 A3009 RMK AO2 SLP195 T01220078=
201209101333 SPECI KSEA 101333Z 08010KT 10SM BKN027 BKN032 12/08 A3008 RMK AO2=
201209101253 METAR KSEA 101253Z 06013KT 10SM FEW015 BKN030 BKN050 12/08 A3007 RMK AO2 SLP188 T01170083=
201209101244 SPECI KSEA 101244Z 06011KT 10SM SCT015 BKN030 12/08 A3007 RMK AO2=
201209101226 SPECI KSEA 101226Z 05015G19KT 10SM FEW010 BKN018 OVC031 12/08 A3006 RMK AO2=
201209101153 METAR KSEA 101153Z 05013KT 10SM OVC008 12/09 A3005 RMK AO2 WSHFT 1137 SLP180 60001 70001 T01170089 10156 20117 53025=
201209101126 SPECI KSEA 101126Z 33007KT 290V360 10SM BKN008 OVC014 13/10 A3003 RMK AO2=
201209101053 METAR KSEA 101053Z 25006KT 10SM BKN014 OVC017 14/11 A3001 RMK AO2 SLP168 T01390111=
201209101026 SPECI KSEA 101026Z 21009KT 10SM BKN013 OVC030 14/12 A3000 RMK AO2=
201209100953 METAR KSEA 100953Z 19012KT 7SM SCT015 BKN030 OVC060 14/12 A2997 RMK AO2 RAB25E50 SLP155 P0000 T01440122=
201209100944 SPECI KSEA 100944Z 19014KT 7SM -RA SCT015 BKN032 OVC075 14/12 A2997 RMK AO2 RAB25 P0000=
201209100931 SPECI KSEA 100931Z 19014KT 2SM -RA BR FEW012 BKN019 OVC080 14/12 A2997 RMK AO2 RAB25 P0000=
201209100853 METAR KSEA 100853Z 18011KT 10SM BKN021 OVC027 15/12 A2997 RMK AO2 SLP155 60001 T01500122 58003=
201209100753 METAR KSEA 100753Z 17011KT 7SM SCT010 OVC027 14/12 A2998 RMK AO2 SLP157 T01440122 401890139=
201209100733 SPECI KSEA 100733Z 18012KT 10SM FEW010 OVC027 14/12 A2998 RMK AO2=
201209100653 METAR KSEA 100653Z 20014G20KT 10SM SCT010 BKN030 OVC045 14/12 A2998 RMK AO2 RAB35E49 SLP157 P0001 T01440122=
201209100553 METAR KSEA 100553Z 19012KT 10SM FEW010 SCT045 BKN060 16/11 A2998 RMK AO2 SLP158 T01560111 10172 20156 58002=
201209100527 SPECI KSEA 100527Z 19012KT 10SM SCT030 BKN090 OVC110 16/11 A2998 RMK AO2=
201209100453 METAR KSEA 100453Z 20012KT 10SM FEW018 BKN023 OVC030 16/11 A2998 RMK AO2 SLP159 T01560111=
201209100353 METAR KSEA 100353Z 21012KT 10SM BKN026 OVC031 16/11 A3000 RMK AO2 SLP164 T01610106=
201209100253 METAR KSEA 100253Z 21012KT 10SM BKN028 OVC060 16/11 A2999 RMK AO2 SLP161 T01610106 57003=
201209100216 SPECI KSEA 100216Z 21011KT 10SM SCT028 OVC060 16/11 A3000 RMK AO2=
201209100153 METAR KSEA 100153Z 21014G19KT 10SM BKN028 OVC060 17/10 A3000 RMK AO2 SLP164 T01670100=
201209100151 SPECI KSEA 100151Z 21012KT 10SM BKN028 OVC060 17/10 A3000 RMK AO2=
201209100053 METAR KSEA 100053Z 20012G18KT 10SM FEW034 OVC060 17/10 A3001 RMK AO2 SLP167 T01720100=
201209092353 METAR KSEA 092353Z 22012G18KT 10SM BKN035 BKN042 OVC060 17/10 A3002 RMK AO2 SLP170 T01720100 10189 20161 55003=
201209092253 METAR KSEA 092253Z 22010KT 10SM FEW020 SCT040 OVC060 18/10 A3001 RMK AO2 SLP168 T01830100=
201209092153 METAR KSEA 092153Z 21009KT 10SM FEW020 SCT040 OVC060 18/10 A3001=
201209092053 METAR KSEA 092053Z 22010KT 10SM SCT026 BKN039 OVC060 18/11 A3003 RMK AO2 SLP173 T01780106 50000=
201209091953 METAR KSEA 091953Z 21009KT 10SM BKN039 BKN049 17/10 A3004 RMK AO2 SLP176 T01720100=
201209091853 METAR KSEA 091853Z 24011KT 10SM FEW028 BKN045 OVC055 17/09 A3003 RMK AO2 SLP175 T01720089=
201209091753 METAR KSEA 091753Z 22006KT 10SM BKN034 OVC049 17/09 A3003 RMK AO2 SLP173 T01720089 10172 20139 51007=
201209091653 METAR KSEA 091653Z 19008KT 10SM OVC041 16/09 A3003 RMK AO2 SLP173 T01610094=
201209091553 METAR KSEA 091553Z 20006KT 10SM FEW020 BKN045 BKN060 16/09 A3002 RMK AO2 SLP169 T01560094=
201209091453 METAR KSEA 091453Z 16007KT 10SM FEW020 OVC047 14/10 A3001 RMK AO2 SLP166 T01440100 53004=
201209091353 METAR KSEA 091353Z 17007KT 10SM BKN022 OVC045 14/10 A3000 RMK AO2 SLP162 T01390100=
201209091253 METAR KSEA 091253Z 16008KT 10SM OVC020 14/11 A2999 RMK AO2 SLP160 T01390106=
201209091153 METAR KSEA 091153Z 14008KT 10SM SCT022 OVC028 14/11 A2999 RMK AO2 SLP161 T01440106 10156 20144 57000=
201209091053 METAR KSEA 091053Z 18007KT 10SM OVC022 15/10 A3000 RMK AO2 SLP163 T01500100=
201209090953 METAR KSEA 090953Z 20006KT 10SM OVC022 15/09 A2999 RMK AO2 SLP159 T01500094=
201209090853 METAR KSEA 090853Z 18009KT 10SM OVC020 15/09 A2999 RMK AO2 SLP161 T01500094 53003=
201209090753 METAR KSEA 090753Z 21008KT 10SM BKN025 15/09 A2998 RMK AO2 SLP158 T01500094 402500133=
201209090653 METAR KSEA 090653Z 21009KT 10SM SCT120 14/09 A2998 RMK AO2 SLP158 T01440094=
201209090553 METAR KSEA 090553Z 21011KT 10SM BKN120 16/11 A2998 RMK AO2 SLP158 T01560111 10244 20156 51012=
201209090453 METAR KSEA 090453Z 21008KT 10SM BKN120 16/11 A2998 RMK AO2 SLP156 T01610111=
201209090353 METAR KSEA 090353Z 21008KT 10SM BKN150 16/12 A2996 RMK AO2 SLP152 OCNL LTGCG DSNT E CB DSNT E T01610117=
201209090253 METAR KSEA 090253Z 21008KT 10SM BKN170 18/12 A2995 RMK AO2 SLP147 T01780122 51003=
201209090153 METAR KSEA 090153Z 22007KT 10SM BKN170 20/13 A2994 RMK AO2 SLP144 T02000128=
201209090053 METAR KSEA 090053Z 20010KT 10SM FEW140 BKN200 22/12 A2995 RMK AO2 SLP145 T02170122=
201209082353 METAR KSEA 082353Z 20010KT 10SM FEW140 BKN200 24/13 A2994 RMK AO2 SLP142 T02440128 10250 20194 56011=
201209082253 METAR KSEA 082253Z 21010KT 10SM FEW200 24/12 A2994 RMK AO2 SLP143 T02440122=
201209082153 METAR KSEA 082153Z 22007KT 10SM BKN200 24/11 A2996 RMK AO2 SLP148 T02390106=
201209082053 METAR KSEA 082053Z 20010KT 10SM BKN220 24/09 A2997 RMK AO2 SLP153 T02440094 58011=
201209081953 METAR KSEA 081953Z 20005KT 10SM BKN220 23/11 A2998 RMK AO2 SLP157 T02280106=
201209081853 METAR KSEA 081853Z 21005KT 10SM BKN230 22/11 A3000 RMK AO2 SLP163 T02170111=
201209081753 METAR KSEA 081753Z 21004KT 10SM BKN230 19/11 A3000 RMK AO2 SLP164 T01940111 10200 20133 55002=
201209081653 METAR KSEA 081653Z 29004KT 10SM BKN220 18/12 A3000 RMK AO2 SLP163 T01830117=
201209081553 METAR KSEA 081553Z 26004KT 10SM BKN220 18/11 A3001 RMK AO2 SLP165 T01830111=
201209081453 METAR KSEA 081453Z 00000KT 10SM SCT210 16/11 A3001 RMK AO2 SLP167 T01610111 56004=
201209081353 METAR KSEA 081353Z 23003KT 10SM FEW200 14/10 A3001 RMK AO2 SLP167 T01390100=
201209081253 METAR KSEA 081253Z 00000KT 10SM CLR 14/11 A3002 RMK AO2 SLP167 T01440106=
201209081153 METAR KSEA 081153Z 14005KT 10SM CLR 16/11 A3002 RMK AO2 SLP169 T01560106 10211 20139 56002=
201209081053 METAR KSEA 081053Z 00000KT 10SM CLR 15/10 A3002 RMK AO2 SLP170 T01500100=
201209080953 METAR KSEA 080953Z 00000KT 10SM CLR 17/10 A3002 RMK AO2 SLP169 T01670100=
201209080853 METAR KSEA 080853Z 36004KT 10SM CLR 17/10 A3003 RMK AO2 SLP172 T01720100 56007=
201209080753 METAR KSEA 080753Z 01006KT 10SM CLR 19/10 A3003 RMK AO2 SLP174 T01890100 403220133=
201209080653 METAR KSEA 080653Z 03005KT 10SM CLR 21/09 A3004 RMK AO2 SLP176 T02060094=
201209080553 METAR KSEA 080553Z 35003KT 10SM CLR 21/09 A3005 RMK AO2 SLP179 T02110094 10317 20200 50003=
201209080453 METAR KSEA 080453Z 36004KT 10SM CLR 22/09 A3005 RMK AO2 SLP179 T02170094=
201209080353 METAR KSEA 080353Z 35006KT 10SM FEW250 22/09 A3005 RMK AO2 SLP180 T02220094=
201209080253 METAR KSEA 080253Z 36007KT 10SM FEW250 26/08 A3004 RMK AO2 SLP177 T02560083 55004=
201209080153 METAR KSEA 080153Z 35007KT 10SM FEW250 29/07 A3004 RMK AO2 SLP175 T02890067=
201209080053 METAR KSEA 080053Z 35009KT 10SM FEW250 31/03 A3004 RMK AO2 SLP176 T03110033=
201209072353 METAR KSEA 072353Z 35009KT 10SM FEW250 32/04 A3005 RMK AO2 SLP180 T03170039 10322 20244 56019=
201209072253 METAR KSEA 072253Z 31007KT 10SM FEW250 31/08 A3007 RMK AO2 SLP185 T03110083=
201209072153 METAR KSEA 072153Z 32007KT 10SM FEW250 30/07 A3009 RMK AO2 SLP193 T03000072=
201209072053 METAR KSEA 072053Z 29006KT 10SM FEW250 28/09 A3011 RMK AO2 SLP199 T02830089 58012=
201209071953 METAR KSEA 071953Z 29006KT 10SM FEW250 27/09 A3012 RMK AO2 SLP204 T02670089=
201209071853 METAR KSEA 071853Z 34007KT 10SM FEW250 27/09 A3013 RMK AO2 SLP207 T02670089=
201209071753 METAR KSEA 071753Z 36006KT 10SM FEW250 24/09 A3014 RMK AO2 SLP211 T02440094 10244 20133 51005=
201209071653 METAR KSEA 071653Z VRB04KT 10SM FEW250 22/11 A3014 RMK AO2 SLP212 T02220106=
201209071553 METAR KSEA 071553Z 02005KT 10SM FEW250 19/11 A3014 RMK AO2 SLP210 T01940111=
201209071453 METAR KSEA 071453Z 03005KT 10SM CLR 17/12 A3013 RMK AO2 SLP207 T01670117 53010=
201209071353 METAR KSEA 071353Z 00000KT 10SM FEW250 14/11 A3012=
201209071253 METAR KSEA 071253Z VRB03KT 10SM CLR 16/10 A3011 RMK AO2 SLP199 T01560100=
201209071153 METAR KSEA 071153Z 01003KT 10SM CLR 17/11 A3010 RMK AO2 SLP196 T01670106 10200 20167 52009=
201209071053 METAR KSEA 071053Z 03011KT 10SM CLR 18/09 A3009 RMK AO2 SLP193 T01780094=
201209070953 METAR KSEA 070953Z 03011KT 10SM CLR 18/08 A3008 RMK AO2 SLP190 T01830078=
201209070853 METAR KSEA 070853Z 03007KT 10SM CLR 19/08 A3007 RMK AO2 SLP187 T01890083 51007=
201209070753 METAR KSEA 070753Z 01007KT 10SM CLR 19/08 A3007 RMK AO2 SLP185 T01890078 402830144=
201209070653 METAR KSEA 070653Z 02005KT 10SM CLR 19/09 A3006 RMK AO2 SLP181 T01940089=
201209070553 METAR KSEA 070553Z 36005KT 10SM CLR 19/09 A3005 RMK AO2 SLP180 T01890089 10283 20183 51011=
201209070453 METAR KSEA 070453Z 36006KT 10SM CLR 19/10 A3004 RMK AO2 SLP177 T01940100=
201209070353 METAR KSEA 070353Z 36007KT 10SM CLR 20/09 A3004 RMK AO2 SLP175 T02000094=
201209070253 METAR KSEA 070253Z 35007KT 10SM CLR 22/09 A3002 RMK AO2 SLP169 T02170094 53001=
201209070153 METAR KSEA 070153Z 35007KT 10SM CLR 26/10 A3001 RMK AO2 SLP167 T02560100=
201209070053 METAR KSEA 070053Z 36008KT 10SM CLR 27/09 A3001=
201209062353 METAR KSEA 062353Z 34011KT 10SM CLR 28/08 A3001 RMK AO2 SLP167 T02780078 10278 20211 57008=
201209062253 METAR KSEA 062253Z 33009KT 10SM FEW045 27/08 A3002 RMK AO2 SLP169 T02720078=
201209062153 METAR KSEA 062153Z 34011KT 10SM FEW045 27/10 A3003 RMK AO2 SLP172 T02720100=
201209062053 METAR KSEA 062053Z 34007KT 10SM FEW045 27/11 A3004 RMK AO2 SLP175 T02670106 58003=
201209061953 METAR KSEA 061953Z 02007KT 10SM FEW250 26/11 A3004 RMK AO2 SLP176 T02560111=
201209061853 METAR KSEA 061853Z 02010KT 10SM FEW250 23/11 A3005 RMK AO2 SLP178 T02330111=
201209061753 METAR KSEA 061753Z 36010KT 10SM FEW250 22/11 A3005=
201209061653 METAR KSEA 061653Z 01010KT 10SM FEW250 19/12 A3004 RMK AO2 SLP176 T01940117=
201209061553 METAR KSEA 061553Z 03009KT 10SM FEW250 17/12 A3003 RMK AO2 SLP172 T01720117=
201209061453 METAR KSEA 061453Z 03008KT 10SM FEW250 16/12 A3002 RMK AO2 SLP170 T01560122 53012=
201209061353 METAR KSEA 061353Z 04009KT 10SM FEW200 14/12 A3001 RMK AO2 SLP166 T01440122=
201209061253 METAR KSEA 061253Z 02009KT 10SM CLR 15/12 A2999 RMK AO2 SLP160 T01500117=
201209061153 METAR KSEA 061153Z 36008KT 10SM CLR 15/11 A2998 RMK AO2 SLP157 T01500111 10183 20150 53005=
201209061053 METAR KSEA 061053Z 03011KT 10SM CLR 16/11 A2998 RMK AO2 SLP156 T01560111=
201209060953 METAR KSEA 060953Z 03008KT 10SM CLR 16/11 A2997 RMK AO2 SLP154 T01610111=
201209060853 METAR KSEA 060853Z 02009KT 10SM CLR 17/11 A2997 RMK AO2 SLP153 T01670111 52002=
201209060753 METAR KSEA 060753Z 36005KT 10SM CLR 16/11 A2997 RMK AO2 SLP153 T01560111 402610117=
201209060653 METAR KSEA 060653Z 01006KT 10SM SCT200 17/12 A2996 RMK AO2 SLP150 T01670117=
201209060553 METAR KSEA 060553Z 03006KT 10SM CLR 18/11 A2996 RMK AO2 SLP150 T01780111 10244 20167 53004=
201209060453 METAR KSEA 060453Z 36009KT 10SM CLR 18/11 A2996=
201209060353 METAR KSEA 060353Z 35007KT 10SM SCT240 18/11 A2995 RMK AO2 SLP147 T01830111=
201209060253 METAR KSEA 060253Z 34007KT 10SM SCT180 BKN240 20/11 A2995 RMK AO2 SLP147 T02000111 56005=
201209060153 METAR KSEA 060153Z 36007KT 10SM SCT180 BKN240 22/11 A2995 RMK AO2 SLP148 T02220111=
201209060053 METAR KSEA 060053Z 36009KT 10SM BKN240 24/10 A2995 RMK AO2 SLP147 T02390100=
201209052353 METAR KSEA 052353Z 35013KT 10SM BKN250 24/09 A2997 RMK AO2 SLP151 T02440089 10261 20189 58014=
201209052253 METAR KSEA 052253Z 35009KT 10SM BKN250 26/11 A2998 RMK AO2 SLP156 T02560106=
201209052153 METAR KSEA 052153Z 36011KT 10SM SCT250 26/12 A2999 RMK AO2 SLP161 T02610117=
201209052053 METAR KSEA 052053Z COR 34007KT 10SM FEW250 26/11 A3001 RMK AO2 SLP166 P0000 T02560111 56019=
201209051953 METAR KSEA 051953Z 31007KT 10SM SCT250 23/12 A3002 RMK AO2 SLP171 T02330117=
201209051853 METAR KSEA 051853Z 00000KT 10SM SCT250 22/12 A3004 RMK AO2 SLP177 T02170117=
201209051753 METAR KSEA 051753Z 26006KT 10SM SCT250 19/12 A3007 RMK AO2 SLP186 T01940122 10194 20117 58008=
201209051653 METAR KSEA 051653Z 29004KT 10SM FEW250 18/12 A3008 RMK AO2 SLP190 T01780117=
201209051553 METAR KSEA 051553Z 00000KT 10SM CLR 17/12 A3008 RMK AO2 SLP192 T01670117=
201209051453 METAR KSEA 051453Z 00000KT 10SM FEW250 14/11 A3009 RMK AO2 SLP195 T01440111 55001=
201209051353 METAR KSEA 051353Z 00000KT 10SM CLR 12/11 A3009=
201209051253 METAR KSEA 051253Z 00000KT 10SM CLR 12/09 A3009 RMK AO2 SLP193 T01220094=
201209051153 METAR KSEA 051153Z 00000KT 10SM CLR 12/10 A3009 RMK AO2 SLP195 T01220100 10183 20122 56006=
201209051053 METAR KSEA 051053Z 00000KT 10SM CLR 14/11 A3010 RMK AO2 SLP197 T01440111=
201209050953 METAR KSEA 050953Z 01005KT 10SM CLR 14/12 A3010 RMK AO2 SLP198 T01440117=
201209050853 METAR KSEA 050853Z 01003KT 10SM CLR 16/11 A3011=
201209050753 METAR KSEA 050753Z 36003KT 10SM CLR 16/12 A3011 RMK AO2 SLP201 T01610117 402440111=
201209050653 METAR KSEA 050653Z 03007KT 10SM CLR 18/12 A3012 RMK AO2 SLP203 T01780122=
201209050553 METAR KSEA 050553Z 03007KT 10SM CLR 18/12 A3013 RMK AO2 SLP206 T01830117 10244 20161 53002=
201209050453 METAR KSEA 050453Z 01007KT 10SM CLR 18/11 A3012 RMK AO2 SLP204 T01830111=
201209050353 METAR KSEA 050353Z 36006KT 10SM CLR 17/10 A3012 RMK AO2 SLP205 T01670100=
201209050253 METAR KSEA 050253Z 36005KT 10SM CLR 20/09 A3012 RMK AO2 SLP206 T02000094 56009=
201209050153 METAR KSEA 050153Z 35009KT 10SM CLR 22/08 A3013 RMK AO2 SLP208 T02170083=
201209050053 METAR KSEA 050053Z 33010KT 10SM CLR 24/09 A3014 RMK AO2 SLP210 T02390089=
201209042353 METAR KSEA 042353Z 35008KT 10SM CLR 24/08 A3015 RMK AO2 SLP214 T02440083 10244 20194 56015=
201209042253 METAR KSEA 042253Z 35011KT 10SM FEW045 24/09 A3016 RMK AO2 SLP218 T02440089=
201209042153 METAR KSEA 042153Z 01011KT 10SM FEW045 23/09 A3018 RMK AO2 SLP224 T02330094=
201209042053 METAR KSEA 042053Z 35014G18KT 10SM FEW045 23/09 A3019 RMK AO2 SLP229 T02280094 56008=
201209041953 METAR KSEA 041953Z 34011G19KT 10SM CLR 23/10 A3020 RMK AO2 SLP230 T02280100=
201209041853 METAR KSEA 041853Z VRB05KT 10SM CLR 21/11 A3021 RMK AO2 SLP234 T02060111=
201209041753 METAR KSEA 041753Z 03003KT 10SM CLR 19/11 A3022 RMK AO2 SLP238 T01940106 10200 20111 51001=
201209041653 METAR KSEA 041653Z 03005KT 10SM CLR 18/10 A3022 RMK AO2 SLP237 T01830100=
201209041553 METAR KSEA 041553Z 35005KT 10SM CLR 16/11 A3022 RMK AO2 SLP238 T01560106=
201209041453 METAR KSEA 041453Z 03005KT 10SM FEW100 14/11 A3022 RMK AO2 SLP238 T01440106 52007=
201209041353 METAR KSEA 041353Z 31003KT 10SM CLR 12/09 A3021 RMK AO2 SLP235 T01170094=
201209041253 METAR KSEA 041253Z 00000KT 10SM CLR 12/09 A3020 RMK AO2 SLP233 T01220089=
201209041153 METAR KSEA 041153Z 00000KT 10SM CLR 13/10 A3019 RMK AO2 SLP229 T01280100 10172 20122 53008=
201209041053 METAR KSEA 041053Z 00000KT 10SM CLR 13/09 A3019 RMK AO2 SLP227 T01280094=
201209040953 METAR KSEA 040953Z 35004KT 10SM CLR 14/11 A3018 RMK AO2 SLP223 T01390106=
201209040853 METAR KSEA 040853Z 03006KT 10SM CLR 14/10 A3017 RMK AO2 SLP222 T01440100 53002=
201209040753 METAR KSEA 040753Z 04005KT 10SM CLR 16/11 A3017 RMK AO2 SLP219 T01610106 402280128=
201209040653 METAR KSEA 040653Z 35004KT 10SM CLR 14/09 A3016 RMK AO2 SLP219 T01440089=
201209040553 METAR KSEA 040553Z 33004KT 10SM CLR 15/09 A3016 RMK AO2 SLP220 T01500089 10228 20150 51009=
201209040453 METAR KSEA 040453Z 03004KT 10SM CLR 18/09 A3016 RMK AO2 SLP217 T01830089=
201209040353 METAR KSEA 040353Z 36006KT 10SM FEW040 18/09 A3015 RMK AO2 SLP217 T01780089=
201209040253 METAR KSEA 040253Z 35006KT 10SM FEW040 18/09 A3014 RMK AO2 SLP211 T01830089 55003=
201209040153 METAR KSEA 040153Z 36007KT 10SM FEW040 21/09 A3013 RMK AO2 SLP209 T02110094=
201209040053 METAR KSEA 040053Z 34008KT 10SM FEW040 22/09 A3014 RMK AO2 SLP211 T02170089=
201209032353 METAR KSEA 032353Z 35010KT 10SM FEW040 23/09 A3015 RMK AO2 SLP214 T02280094 10228 20167 56009=
201209032253 METAR KSEA 032253Z 29009KT 10SM FEW040 22/11 A3015 RMK AO2 SLP215 T02170106=
201209032153 METAR KSEA 032153Z 32005KT 10SM FEW040 22/10 A3016 RMK AO2 SLP219 T02220100=
201209032053 METAR KSEA 032053Z 28008KT 10SM FEW030 20/11 A3018 RMK AO2 SLP223 T02000106 56006=
201209031953 METAR KSEA 031953Z 31008KT 10SM FEW025 19/11 A3018 RMK AO2 SLP225 T01940111=
201209031853 METAR KSEA 031853Z 30005KT 10SM FEW020 18/11 A3018 RMK AO2 SLP227 T01780106=
201209031802 SPECI KSEA 031802Z 36006KT 10SM SCT013 18/11 A3019 RMK AO2=
201209031753 METAR KSEA 031753Z 33004KT 10SM BKN013 17/11 A3019 RMK AO2 SLP230 T01670106 10167 20128 50005=
201209031740 SPECI KSEA 031740Z 32006KT 10SM SCT009 BKN013 17/11 A3020 RMK AO2=
201209031653 METAR KSEA 031653Z 05006KT 10SM BKN009 BKN013 15/11 A3020=
201209031553 METAR KSEA 031553Z 05006KT 10SM BKN008 14/11 A3019 RMK AO2 SLP228 T01390106=
201209031453 METAR KSEA 031453Z 01005KT 10SM OVC005 14/11 A3018 RMK AO2 SLP225 T01390106 53007=
201209031353 METAR KSEA 031353Z 05005KT 10SM OVC006 13/11 A3017 RMK AO2 SLP221 T01330106=
201209031253 METAR KSEA 031253Z 03008KT 10SM BKN006 BKN200 13/11 A3016 RMK AO2 SLP219 T01280106=
201209031244 SPECI KSEA 031244Z 03009KT 10SM BKN006 BKN200 13/10 A3016 RMK AO2=
201209031234 SPECI KSEA 031234Z 02009KT 10SM SCT006 SCT200 13/10 A3016 RMK AO2=
201209031153 METAR KSEA 031153Z 01007KT 10SM FEW200 13/09 A3016 RMK AO2 SLP218 T01330094 10172 20133 53002=
201209031053 METAR KSEA 031053Z 03008KT 10SM FEW200 14/09 A3016 RMK AO2 SLP217 T01390094=
201209030953 METAR KSEA 030953Z 03008KT 10SM FEW200 14/09 A3015 RMK AO2 SLP215 T01440094=
201209030853 METAR KSEA 030853Z 04008KT 10SM FEW200 15/09 A3015 RMK AO2 SLP216 T01500089 51001=
201209030753 METAR KSEA 030753Z 02007KT 10SM FEW200 16/09 A3015 RMK AO2 SLP216 T01560089 402110100=
201209030653 METAR KSEA 030653Z 02005KT 10SM CLR 16/08 A3015 RMK AO2 SLP215 T01610083=
201209030553 METAR KSEA 030553Z 03006KT 10SM CLR 17/08 A3015 RMK AO2 SLP215 T01720078 10211 20161 50002=
201209030453 METAR KSEA 030453Z 03006KT 10SM CLR 18/09 A3015 RMK AO2 SLP216 T01780089=
201209030353 METAR KSEA 030353Z 35005KT 10SM FEW030 17/07 A3015 RMK AO2 SLP214 T01720072=
201209030253 METAR KSEA 030253Z 01005KT 10SM FEW030 19/06 A3014 RMK AO2 SLP213 T01890061 56007=
201209030153 METAR KSEA 030153Z 01005KT 10SM FEW030 21/06 A3015 RMK AO2 SLP214 T02060056=
201209030053 METAR KSEA 030053Z 32004KT 10SM FEW040 21/04 A3016 RMK AO2 SLP217 T02110039=
201209022353 METAR KSEA 022353Z 30005KT 10SM FEW040 21/04 A3016 RMK AO2 SLP220 T02060044 10211 20144 56009=
201209022253 METAR KSEA 022253Z COR 27006KT 10SM FEW040 21/07 A3017 RMK AO2 SLP222 T02060067=
201209022153 METAR KSEA 022153Z 23005KT 10SM FEW040 19/08 A3018 RMK AO2 SLP224 T01940078=
201209022053 METAR KSEA 022053Z VRB03KT 10SM FEW030 18/08 A3019 RMK AO2 SLP230 T01780078 58006=
201209021953 METAR KSEA 021953Z 27005KT 10SM FEW030 17/08 A3020 RMK AO2 SLP234 T01720083=
201209021853 METAR KSEA 021853Z 27008KT 10SM FEW020 SCT110 16/09 A3021 RMK AO2 SLP235 T01610089=
201209021753 METAR KSEA 021753Z 24004KT 10SM SCT018 BKN100 BKN200 14/08 A3021 RMK AO2 SLP236 T01440083 10156 20117 51003=
201209021653 METAR KSEA 021653Z 23003KT 10SM FEW014 BKN100 BKN200 13/08 A3021 RMK AO2 SLP236 T01330083=
201209021553 METAR KSEA 021553Z 18004KT 10SM FEW027 SCT120 BKN190 13/09 A3021=
201209021453 METAR KSEA 021453Z 16004KT 10SM FEW027 SCT100 BKN180 12/09 A3020 RMK AO2 SLP233 T01170089 53007=
201209021443 SPECI KSEA 021443Z 15003KT 10SM FEW027 BKN170 12/08 A3020 RMK AO2=
201209021353 METAR KSEA 021353Z 00000KT 10SM BKN027 BKN170 12/08 A3019 RMK AO2 SLP229 T01170083=
201209021253 METAR KSEA 021253Z 17003KT 10SM OVC027 12/09 A3018 RMK AO2 SLP225 T01170089=
201209021153 METAR KSEA 021153Z 00000KT 10SM OVC025 12/09 A3018 RMK AO2 SLP225 T01220089 10150 20100 53003=
201209021104 SPECI KSEA 021104Z 00000KT 10SM BKN025 OVC040 11/08 A3018 RMK AO2=
201209021053 METAR KSEA 021053Z 00000KT 10SM FEW040 SCT100 SCT200 11/08 A3018 RMK AO2 SLP225 T01060078=
201209020953 METAR KSEA 020953Z 00000KT 10SM FEW040 SCT100 SCT200 12/09 A3017 RMK AO2 SLP222 T01170089=
201209020853 METAR KSEA 020853Z 00000KT 10SM FEW040 SCT100 SCT200 12/09 A3017 RMK AO2 SLP222 T01220089 53007=
201209020753 METAR KSEA 020753Z 00000KT 10SM FEW040 SCT100 SCT200 12/09 A3016 RMK AO2 SLP219 T01170089 402170106=
201209020653 METAR KSEA 020653Z 00000KT 10SM FEW100 13/08 A3015 RMK AO2 SLP214 T01280083=
201209020553 METAR KSEA 020553Z 06003KT 10SM FEW100 15/08 A3015 RMK AO2 SLP214 T01500083 10217 20150 50008=
201209020453 METAR KSEA 020453Z 01008KT 10SM FEW040 SCT100 16/09 A3015 RMK AO2 SLP214 T01610094=
201209020353 METAR KSEA 020353Z 00000KT 10SM FEW040 16/09 A3014 RMK AO2 SLP213 T01560094=
201209020253 METAR KSEA 020253Z 29005KT 10SM FEW040 BKN200 17/09 A3012 RMK AO2 SLP206 T01720094 53002=
201209020153 METAR KSEA 020153Z 19003KT 10SM FEW040 BKN200 21/08 A3011 RMK AO2 SLP203 T02060083=
201209020053 METAR KSEA 020053Z 22005KT 10SM FEW040 SCT200 21/08 A3012 RMK AO2 SLP203 T02110083=
201209012353 METAR KSEA 012353Z 19006KT 10SM FEW040 21/09 A3012 RMK AO2 SLP204 T02110089 10217 20150 56008=
201209012253 METAR KSEA 012253Z 22005KT 10SM FEW040 21/08 A3012 RMK AO2 SLP206 T02110083=
201209012153 METAR KSEA 012153Z 22006KT 10SM FEW020 21/07 A3013 RMK AO2 SLP209 T02060072=
201209012053 METAR KSEA 012053Z 19006KT 10SM FEW020 19/08 A3014 RMK AO2 SLP212 T01890083 56004=
201209011953 METAR KSEA 011953Z 19008KT 10SM FEW020 18/09 A3014 RMK AO2 SLP212 T01780094=
201209011853 METAR KSEA 011853Z 20007KT 10SM FEW010 17/09 A3015 RMK AO2 SLP216 T01720094=
201209011753 METAR KSEA 011753Z VRB05KT 10SM FEW009 15/09 A3015 RMK AO2 SLP216 T01500094 10150 20106 51014=
201209011653 METAR KSEA 011653Z 23009KT 10SM SCT009 14/09 A3014 RMK AO2 SLP213 T01390089=
201209011611 SPECI KSEA 011611Z 20007KT 10SM SCT005 13/09 A3013 RMK AO2=
201209011553 METAR KSEA 011553Z 20007KT 10SM BKN005 12/09 A3013 RMK AO2 SLP207 T01170089=
201209011453 METAR KSEA 011453Z 19007KT 10SM BKN005 12/09 A3011 RMK AO2 SLP202 T01170094 53016=
201209011357 SPECI KSEA 011357Z 20004KT 10SM BKN005 BKN045 11/09 A3010 RMK AO2=
201209011353 METAR KSEA 011353Z 18003KT 10SM SCT010 SCT045 11/08 A3010 RMK AO2 SLP197 T01060083=
201209011253 METAR KSEA 011253Z 20003KT 10SM FEW065 11/08 A3007 RMK AO2 SLP189 T01110083=
201209011153 METAR KSEA 011153Z 00000KT 10SM FEW060 11/09 A3007 RMK AO2 SLP187 T01110089 10161 20111 51013=
201209011053 METAR KSEA 011053Z 00000KT 10SM FEW060 12/09 A3006 RMK AO2 SLP184 T01170089=
201209010953 METAR KSEA 010953Z 18003KT 10SM FEW045 SCT060 12/08 A3005 RMK AO2 SLP180 T01220083=
201209010853 METAR KSEA 010853Z 00000KT 10SM FEW045 SCT060 13/08 A3003 RMK AO2 SLP174 T01280078 53012=
201209010753 METAR KSEA 010753Z 05003KT 10SM FEW045 SCT060 15/08 A3001 RMK AO2 SLP169 T01500083 402220106=
201209010653 METAR KSEA 010653Z 03008KT 10SM BKN045 BKN060 16/08 A3000 RMK AO2 SLP163 T01610078=
201209010553 METAR KSEA 010553Z 36006KT 10SM FEW060 15/07 A2999 RMK AO2 SLP162 T01500072 10217 20150 51009=
201209010453 METAR KSEA 010453Z 36007KT 10SM BKN060 17/07 A2999 RMK AO2 SLP160 T01720067=
201209010353 METAR KSEA 010353Z 36007KT 10SM BKN065 18/07 A2998 RMK AO2 SLP157 T01830072=
201209010253 METAR KSEA 010253Z 31003KT 10SM BKN070 18/08 A2997 RMK AO2 SLP152 T01780078 53002=
201209010153 METAR KSEA 010153Z 29005KT 10SM FEW050 20/08 A2996 RMK AO2 SLP151 T02000078=
201209010053 METAR KSEA 010053Z 29006KT 10SM FEW045 21/07 A2996 RMK AO2 SLP149 T02060072=

# No short TAF reports from KSEA in databse.

###################################
#  large TAF from KSEA
###################################
201209302320 TAF KSEA 302320Z 0100/0206 36007KT P6SM SCT250 FM010800 00000KT
                       P6SM BKN200 FM011600 22006KT P6SM BKN100
                       FM020200 32008KT P6SM BKN040 BKN080=
201209302103 KSEA 302103Z 3021/0124 34005KT P6SM SCT250 FM010500 00000KT P6SM
                       SCT120 BKN250 FM011000 VRB03KT P6SM BKN120
                       BKN200 FM012200 23005KT P6SM VCSH BKN050
                       BKN100=
201209301720 TAF KSEA 301720Z 3018/0124 36005KT P6SM SCT200 FM010800 VRB03KT
                       P6SM BKN120 BKN200 FM012100 20007KT P6SM
                       BKN060 BKN120=
201209301501 KSEA 301501Z 3015/0118 03006KT P6SM SCT200 FM301800 34006KT P6SM
                       SCT200 FM010600 03005KT P6SM SCT120 BKN200
                       FM011200 34005KT P6SM BKN080 BKN200=
201209301120 TAF KSEA 301120Z 3012/0118 03006KT P6SM SCT200 FM301800 34006KT
                       P6SM SCT200 FM010400 03005KT P6SM SCT120
                       SCT200 FM011700 34005KT P6SM BKN080 BKN200=
201209300520 TAF KSEA 300520Z 3006/0112 03008KT P6SM SCT150 FM301800 34006KT
                       P6SM SCT200 FM010400 03005KT P6SM SCT120
                       SCT200=
201209300303 KSEA 300303Z 3003/0106 35008KT P6SM SCT040 SCT250 FM300600 03006KT
                       P6SM SCT150 FM301800 34006KT P6SM BKN200=
201209292320 TAF KSEA 292320Z 3000/0106 34008KT P6SM BKN150 FM300600 04006KT
                       P6SM SCT150 FM301800 34006KT P6SM BKN200=
201209291724 TAF KSEA 291724Z 2918/3024 01008KT P6SM BKN040 FM292200 34008KT
                       P6SM SCT050 SCT200 FM300600 04006KT P6SM
                       BKN200=
201209291502 KSEA 291502Z 2915/3018 03010KT P6SM SCT030 BKN050
                      TEMPO 2915/2918 BKN030 OVC050 FM292100 34008KT
                       P6SM SCT050 SCT200 FM300300 02006KT P6SM
                       SKC=
201209291122 TAF KSEA 291122Z 2912/3018 04005KT P6SM SCT020 BKN030 BKN100
                      TEMPO 2912/2916 BKN020 FM291600 34008KT P6SM
                       BKN040 BKN100 FM291800 34008KT P6SM SCT050
                       SCT200 FM300300 02006KT P6SM SKC=
201209290831 KSEA 290831Z 2909/3012 25004KT P6SM VCSH BKN025 BKN100 FM291000
                       34006KT P6SM VCSH BKN025 BKN040 FM291700
                       33008KT P6SM SCT040=
201209290520 TAF KSEA 290520Z 2906/3012 VRB03KT P6SM SCT100 BKN150 BKN250 FM290800
                       24006KT P6SM SCT025 BKN050 FM291000 34006KT
                       P6SM VCSH BKN025 BKN040 FM291700 33008KT
                       P6SM SCT040=
201209290300 KSEA 290300Z 2903/3006 VRB03KT P6SM BKN150 BKN250 FM290800 34006KT
                       P6SM VCSH SCT025 BKN050 FM291000 34006KT
                       P6SM VCSH BKN025 BKN040 FM291700 34008KT
                       P6SM SCT040=
201209282320 TAF KSEA 282320Z 2900/3006 VRB03KT P6SM BKN150 BKN250 FM290600
                       34006KT P6SM VCSH SCT025 BKN050 FM291000
                       34006KT P6SM VCSH BKN025 BKN040 FM291700
                       34008KT P6SM SCT040=
201209282105 KSEA 282105Z 2821/2924 VRB03KT P6SM BKN150 BKN250 FM290600 34006KT
                       P6SM VCSH SCT025 BKN050 FM291000 34006KT
                       P6SM VCSH BKN025 BKN040 FM291700 34008KT
                       P6SM SCT040=
201209281720 TAF KSEA 281720Z 2818/2924 VRB03KT P6SM BKN150 BKN250 FM290600
                       34006KT P6SM VCSH SCT025 BKN050 FM291000
                       34006KT P6SM BKN025 BKN040 FM291700 34008KT
                       P6SM SCT040=
201209281504 KSEA 281504Z 2815/2918 VRB03KT P6SM SCT050 BKN100 OVC200 FM290400
                       36006KT P6SM SCT025 BKN050 FM290900 VRB03KT
                       P6SM BKN025 BKN040 FM291700 30007KT P6SM
                       SCT040=
201209281122 TAF KSEA 281122Z 2812/2918 VRB03KT P6SM OVC200 FM281800 21004KT
                       P6SM BKN120 OVC150 FM282300 25004KT P6SM
                       SCT040 OVC090 FM290600 01003KT P6SM BKN040
                       OVC070=
201209280902 KSEA 280902Z 2809/2912 VRB03KT P6SM BKN200 FM281200 20004KT P6SM
                       BKN150 FM281800 21006KT P6SM BKN120 OVC150
                       FM282300 24004KT P6SM SCT040 OVC090=
201209280523 TAF KSEA 280523Z 2806/2912 01003KT P6SM FEW250 FM281200 20004KT
                       P6SM SCT200 FM281800 21006KT P6SM BKN120
                       OVC200 FM282300 24004KT P6SM SCT040 OVC090=
201209280303 KSEA 280303Z 2803/2906 01003KT P6SM FEW250 FM281200 20004KT P6SM
                       SCT200 FM281800 21006KT P6SM BKN120 OVC200
                       FM282300 24004KT P6SM SCT040 OVC090=
201209272322 TAF KSEA 272322Z 2800/2906 28007KT P6SM FEW250 FM281800 21006KT
                       P6SM BKN120 OVC200 FM282300 24004KT P6SM
                       SCT040 OVC090=
201209272100 KSEA 272100Z 2721/2824 02005KT P6SM FEW250 FM272300 VRB03KT P6SM
                       SCT250 FM281200 15003KT 4SM BR BKN250 FM281800
                       23005KT P6SM BKN250 FM282100 22006KT P6SM
                       OVC090=
201209271733 TAF KSEA 271733Z 2718/2824 04005KT P6SM SKC FM272300 VRB03KT P6SM
                       SCT250 FM281200 15003KT 4SM BR BKN250 FM281800
                       23005KT P6SM BKN250 FM282100 22006KT P6SM
                       OVC090=
201209271500 KSEA 271500Z 2715/2818 VRB03KT 5SM BR SCT008
                      TEMPO 2715/2717 1/2SM FG VV001 FM271800 33006KT
                       P6SM SCT200 FM280300 02004KT P6SM SCT150
                       BKN200 FM281200 18004KT P6SM SCT120 OVC150=
201209271127 TAF KSEA 271127Z 2712/2818 VRB03KT 5SM BR SCT008
                      TEMPO 2712/2716 1/2SM FG BKN001 FM271800
                       33006KT P6SM SCT200 FM280300 02004KT P6SM
                       SCT150 BKN200 FM281200 18004KT P6SM SCT120
                       OVC150=
201209270901 KSEA 270901Z 2709/2812 02003KT P6SM SKC FM271200 VRB03KT 5SM BR
                       SCT008 FM271800 33008KT P6SM SCT200=
201209270528 TAF KSEA 270528Z 2706/2812 01004KT P6SM SKC FM270800 02003KT P6SM
                       SKC FM271200 VRB03KT 5SM BR SCT008 FM271800
                       33008KT P6SM SCT200=
201209270301 KSEA 270301Z 2703/2806 01004KT P6SM SCT200 FM270600 02003KT P6SM
                       SKC FM271200 VRB03KT 5SM BR SCT008 FM271800
                       33008KT P6SM SKC=
201209262336 TAF KSEA 262336Z 2700/2806 32006KT P6SM SCT150 BKN250 FM270600
                       02003KT P6SM SKC FM271200 VRB03KT 5SM BR
                       SCT008 FM271800 33008KT P6SM SKC=
201209262103 KSEA 262103Z 2621/2724 29006KT P6SM FEW250 FM270600 02003KT P6SM
                       SKC FM271200 VRB03KT 5SM BR SCT008 FM271800
                       33005KT P6SM SKC=
201209261814 KSEA 261814Z 2618/2724 27005KT 5SM BR BKN010 FM261900 31006KT P6SM
                       SCT008 SCT250 FM262200 33008KT P6SM SCT250
                       FM270600 02003KT P6SM SKC FM271200 VRB03KT
                       5SM BR SCT008 FM271800 33005KT P6SM SKC=
201209261739 TAF KSEA 261739Z 2618/2724 03005KT 5SM BR BKN008 FM262000 31006KT
                       P6SM SCT008 SCT250 FM262200 33008KT P6SM
                       SCT250 FM270600 02003KT P6SM SKC FM271200
                       VRB03KT 5SM BR SCT008 FM271800 33005KT P6SM
                       SKC=
201209261554 KSEA 261554Z 2616/2718 35003KT 1/2SM FG VV002 FM261800 31003KT
                       P6SM BKN008 FM261900 31006KT P6SM SCT008
                       SCT250 FM262000 33007KT P6SM SCT250 FM270600
                       02003KT P6SM SKC=
201209261434 KSEA 261434Z 2615/2718 07005KT 1/2SM FG OVC002
                      TEMPO 2615/2616 P6SM NSW BKN004 FM261600
                       VRB03KT P6SM SCT008 FM261700 33007KT P6SM
                       SCT250 FM270600 02003KT P6SM SKC=
201209261310 KSEA 261310Z 2613/2718 07005KT 1SM BR OVC002
                      TEMPO 2613/2616 P6SM NSW BKN004 FM261600
                       VRB03KT P6SM SCT008 FM261700 33007KT P6SM
                       SCT250 FM270600 02003KT P6SM SKC=
201209261221 KSEA 261221Z 2612/2718 07005KT 4SM BR OVC002
                      TEMPO 2612/2616 P6SM NSW BKN004 FM261600
                       VRB03KT P6SM SCT008 FM261700 33007KT P6SM
                       SCT250 FM270600 02003KT P6SM SKC=
201209261127 KSEA 261127Z 2611/2718 03003KT P6SM FEW008 SCT200
                      TEMPO 2612/2616 BKN004 FM261700 33007KT P6SM
                       SCT200 FM270600 02003KT P6SM SKC=
201209261120 TAF KSEA 261120Z 2612/2718 03003KT P6SM FEW008 SCT200
                      TEMPO 2612/2616 SCT008 FM261700 33007KT P6SM
                       SCT200 FM270600 02003KT P6SM SKC=
201209260901 TAF AMD KSEA 260901Z 2609/2712 03003KT P6SM SCT010 SCT200 FM261700
                       33007KT P6SM SCT200 FM270300 35003KT P6SM
                       SKC=
201209260522 TAF KSEA 260522Z 2606/2712 03003KT P6SM FEW035 FM261200 VRB03KT
                       P6SM BKN035 FM261700 33007KT P6SM SCT250
                       FM270300 35003KT P6SM SKC=
201209260259 KSEA 260259Z 2603/2706 35003KT P6SM BKN045 FM261200 VRB03KT P6SM
                       BKN035 FM261700 33007KT P6SM SCT250 FM270300
                       35003KT P6SM SKC=
201209252325 TAF KSEA 252325Z 2600/2706 32005KT P6SM SCT025 SCT250 FM260300
                       35003KT P6SM FEW040 FM260600 02003KT P6SM
                       SCT040 FM261200 VRB03KT P6SM BKN035 FM261700
                       33007KT P6SM SCT250 FM270300 35003KT P6SM
                       SKC=
201209252102 KSEA 252102Z 2521/2624 32006KT P6SM FEW020 SCT035 SCT200 FM260300
                       03003KT P6SM FEW040 FM261700 35006KT P6SM
                       SCT200=
201209251753 TAF KSEA 251753Z 2518/2624 28005KT P6SM BKN010 OVC020 FM251900
                       30006KT P6SM SCT020 BKN030 FM252000 32008KT
                       P6SM SCT045 BKN200 FM260300 03003KT P6SM
                       FEW040 FM261700 35006KT P6SM SCT200=
201209251459 KSEA 251459Z 2515/2618 VRB03KT P6SM BKN025 OVC040 FM251700 30006KT
                       P6SM SCT025 OVC035 FM252000 32008KT P6SM
                       SCT045 FM260300 03003KT P6SM FEW040 SCT120
                       FM261700 35006KT P6SM SCT120=
201209251120 TAF KSEA 251120Z 2512/2618 VRB03KT P6SM OVC040 FM251700 30006KT
                       P6SM SCT025 OVC035 FM252000 32008KT P6SM
                       SCT045 FM260300 03003KT P6SM FEW040 SCT120
                       FM261700 35006KT P6SM SCT120=
201209250901 KSEA 250901Z 2509/2612 VRB04KT P6SM BKN035 OVC045 FM251100 VRB03KT
                       P6SM OVC025 FM251700 30006KT P6SM SCT028
                       BKN040 FM252000 32008KT P6SM SCT040 FM260300
                       03004KT P6SM FEW040=
201209250532 TAF KSEA 250532Z 2506/2612 02004KT P6SM BKN045 BKN120 FM250800
                       VRB03KT P6SM BKN040 OVC070 FM251000 VRB03KT
                       P6SM OVC020 FM251700 30006KT P6SM SCT020
                       BKN035 FM252000 32008KT P6SM SCT035 FM260300
                       03004KT P6SM FEW035=
201209250306 KSEA 250306Z 2503/2606 02004KT P6SM BKN045 BKN100 OVC200 FM250700
                       VRB03KT P6SM BKN040 OVC070 FM251000 VRB03KT
                       P6SM OVC020 FM251700 30006KT P6SM SCT020
                       BKN035 FM252000 32008KT P6SM SCT035=
201209242328 TAF KSEA 242328Z 2500/2606 28006KT P6SM SCT045 BKN200 FM250400
                       VRB03KT P6SM SCT045 BKN100 OVC200 FM250700
                       VRB03KT P6SM BKN040 OVC070 FM251100 VRB03KT
                       P6SM OVC020 FM251700 30006KT P6SM SCT020
                       BKN035 FM252000 32008KT P6SM SCT035=
201209242105 KSEA 242105Z 2421/2524 27005KT P6SM FEW030 SCT250 FM250900 04005KT
                       P6SM BKN045 BKN120 FM251300 VRB04KT P6SM
                       OVC015 FM251700 30006KT P6SM BKN030 FM252000
                       32008KT P6SM SCT035=
201209241751 TAF KSEA 241751Z 2418/2524 27003KT P6SM SKC FM241900 28005KT P6SM
                       SCT200 FM250900 04005KT P6SM BKN045 BKN120
                       FM251300 VRB04KT P6SM OVC015 FM251700 30006KT
                       P6SM BKN030 FM252000 32008KT P6SM SCT035=
201209241503 KSEA 241503Z 2415/2518 VRB03KT P6SM SCT010 FM241800 28005KT P6SM
                       SCT200 FM250900 05005KT P6SM BKN045 BKN120
                       FM251300 32004KT P6SM OVC022=
201209241120 TAF KSEA 241120Z 2412/2518 00000KT P6SM SKC FM241300 VRB03KT P6SM
                       SCT010 FM241800 28005KT P6SM SCT200 FM250900
                       05005KT P6SM BKN045 BKN120 FM251300 32004KT
                       P6SM OVC022=
201209240901 KSEA 240901Z 2409/2512 00000KT P6SM SKC FM241300 VRB03KT P6SM SCT010
                       FM241800 28005KT P6SM SCT200 FM250900 05005KT
                       P6SM BKN045=
201209240520 TAF KSEA 240520Z 2406/2512 00000KT P6SM SKC FM241300 VRB03KT P6SM
                       SCT010 FM241800 28005KT P6SM SCT200 FM250900
                       05005KT P6SM BKN045=
201209232320 TAF KSEA 232320Z 2400/2506 31006KT P6SM SKC FM240400 36003KT P6SM
                       SKC FM241300 VRB03KT P6SM SCT010 FM241800
                       28005KT P6SM SCT200=
201209232112 KSEA 232112Z 2321/2424 32006KT P6SM SKC FM240400 36003KT P6SM SKC
                       FM241300 VRB03KT P6SM SCT010 FM241700 20004KT
                       P6SM SCT250=
201209231741 TAF KSEA 231741Z 2318/2424 01006KT P6SM SKC FM232100 32006KT P6SM
                       SKC FM240400 36003KT P6SM SKC FM241300 VRB03KT
                       P6SM SCT010 FM241700 20004KT P6SM SCT250=
201209231441 KSEA 231441Z 2315/2418 VRB03KT P6SM SKC FM231800 VRB03KT P6SM SCT035
                       SCT120 FM232100 32005KT P6SM SCT120 FM240400
                       VRB03KT P6SM SKC=
201209231120 TAF KSEA 231120Z 2312/2418 05003KT P6SM SCT012 BKN035
                      TEMPO 2313/2317 BKN012 OVC035 FM231800 VRB03KT
                       P6SM SCT035 SCT120 FM232100 32005KT P6SM
                       SCT120 FM240400 VRB03KT P6SM SKC=
201209230902 TAF AMD KSEA 230902Z 2309/2412 00000KT P6SM FEW007 SCT040 SCT200
                       FM231200 00000KT P6SM VCFG SCT005 SCT040
                       TEMPO 2314/2318 3SM BR BKN004 FM231800 VRB03KT
                       P6SM SCT025 SCT120 FM232100 32005KT P6SM
                       SCT120 FM240400 VRB03KT P6SM SKC=
201209230520 TAF KSEA 230520Z 2306/2412 05003KT P6SM SKC FM231200 05004KT P6SM
                       VCFG SCT002
                      TEMPO 2314/2318 1SM BR BKN002 FM231800 VRB03KT
                       P6SM SCT025 SCT120 FM232100 32005KT P6SM
                       SCT120 FM240400 VRB03KT P6SM SKC=
201209230258 KSEA 230258Z 2303/2406 04004KT P6SM FEW030 FM231200 05004KT P6SM
                       VCFG SCT004 SCT015
                      TEMPO 2314/2316 3SM BCFG BKN004 BKN015 FM231800
                       35005KT P6SM SCT025 FM232100 31006KT P6SM
                       SCT250=
201209222339 TAF KSEA 222339Z 2300/2406 VRB03KT P6SM SCT028 SCT040 FM231200
                       VRB02KT P6SM BKN015
                      TEMPO 2314/2316 3SM BCFG BKN004 BKN015 FM231800
                       35005KT P6SM SCT025 FM232100 31006KT P6SM
                       SCT250=
201209222218 KSEA 222218Z 2222/2324 VRB03KT P6SM SCT023 BKN040 FM222300 VRB04KT
                       P6SM BKN045 FM230300 VRB03KT P6SM SCT045
                       SCT100 FM231200 VRB03KT P6SM BKN020=
201209222102 TAF AMD KSEA 222102Z 2221/2324 VRB03KT P6SM BKN020 BKN045 FM222300
                       30005KT P6SM BKN045 FM230300 05003KT P6SM
                       SCT045 SCT100 FM231200 VRB03KT P6SM BKN020=
201209221741 TAF KSEA 221741Z 2218/2324 05006KT P6SM BKN015 OVC030 FM222100
                       35006KT P6SM SCT015 OVC030 FM222300 34005KT
                       P6SM BKN040 FM230300 05003KT P6SM SCT045
                       SCT100 FM231200 VRB03KT P6SM BKN020=
201209221506 KSEA 221506Z 2215/2318 36004KT P6SM SCT005 BKN012 OVC025
                      TEMPO 2215/2217 4SM BR BKN005 OVC012 FM221800
                       VRB04KT P6SM SCT015 OVC030 FM222100 VRB03KT
                       P6SM OVC035 FM230700 VRB03KT P6SM OVC025=
201209221120 TAF KSEA 221120Z 2212/2318 VRB03KT P6SM SCT015 OVC035
                      TEMPO 2214/2218 BKN015 OVC030 FM222100 VRB03KT
                       P6SM OVC035 FM230700 VRB03KT P6SM OVC025=
201209220808 KSEA 220808Z 2208/2312 17003KT P6SM OVC030 FM221200 00000KT P6SM
                       SCT015 OVC025
                      TEMPO 2212/2216 BKN015 OVC025 FM222100 VRB03KT
                       P6SM OVC035 FM230700 VRB03KT P6SM OVC025=
201209220703 KSEA 220703Z 2207/2312 00000KT P6SM SCT020 OVC030 FM220900 00000KT
                       P6SM BKN015 OVC025 FM221800 VRB03KT P6SM
                       OVC025 FM222100 VRB03KT P6SM OVC035 FM230700
                       VRB03KT P6SM OVC025=
201209220520 TAF KSEA 220520Z 2206/2312 00000KT P6SM -DZ FEW022 OVC030 FM220700
                       00000KT P6SM OVC020
                      TEMPO 2207/2211 5SM -DZ FM221100 VRB03KT
                       4SM -DZ BR OVC010 FM221800 VRB03KT P6SM
                       OVC020 FM222100 VRB03KT P6SM OVC035 FM230700
                       VRB03KT P6SM OVC025=
201209220310 KSEA 220310Z 2203/2306 22003KT P6SM OVC030 FM220800 20003KT P6SM
                       OVC020 FM221200 VRB03KT 5SM BR OVC005 FM221800
                       VRB03KT P6SM OVC015 FM222100 26004KT P6SM
                       BKN025 OVC040=
201209212322 TAF KSEA 212322Z 2200/2306 20005KT P6SM OVC025 FM220800 20003KT
                       P6SM OVC020 FM221200 VRB03KT 5SM BR OVC005
                       FM221800 VRB03KT P6SM OVC015 FM222100 26004KT
                       P6SM BKN025 OVC040=
201209212059 TAF AMD KSEA 212059Z 2121/2224 22006KT P6SM OVC020 FM220000 23006KT
                       P6SM OVC025 FM220300 22005KT P6SM OVC030
                       FM220800 20003KT P6SM OVC020 FM221200 VRB03KT
                       P6SM OVC010=
201209211726 TAF KSEA 211726Z 2118/2224 15006KT P6SM OVC015 FM212000 22006KT
                       P6SM OVC020 FM212200 23006KT P6SM OVC030
                       FM220000 23006KT P6SM BKN035 FM220300 22005KT
                       P6SM OVC045 FM220800 20003KT P6SM OVC020
                       FM221200 VRB03KT P6SM OVC010=
201209211508 KSEA 211508Z 2115/2218 15006KT P6SM OVC018 FM211800 22006KT P6SM
                       OVC020 FM212100 23006KT P6SM OVC030 FM212300
                       23006KT P6SM BKN035 FM220200 22005KT P6SM
                       OVC040 FM220600 20003KT P6SM OVC020 FM220900
                       20003KT P6SM OVC010=
201209211203 KSEA 211203Z 2112/2218 19006KT P6SM OVC010 FM212000 22006KT P6SM
                       OVC019 FM212200 23006KT P6SM BKN025 FM220200
                       23005KT P6SM OVC015 FM220900 18005KT P6SM
                       OVC010=
201209211120 TAF KSEA 211120Z 2112/2218 00000KT P6SM OVC008 FM212000 22006KT
                       P6SM OVC012 FM212200 23006KT P6SM BKN025
                       FM220200 23005KT P6SM OVC015 FM220900 18005KT
                       P6SM OVC010=
201209210859 KSEA 210859Z 2109/2212 21004KT P6SM OVC007 FM212000 22006KT P6SM
                       OVC012 FM212200 23006KT P6SM BKN025 FM220200
                       23005KT P6SM OVC015 FM220900 20005KT P6SM
                       OVC010=
201209210528 TAF KSEA 210528Z 2106/2212 22008KT P6SM OVC006 FM211200 19004KT
                       4SM BR OVC003 FM212000 22006KT P6SM OVC012
                       FM212200 23006KT P6SM BKN025 FM220200 23005KT
                       P6SM OVC015 FM220900 20005KT P6SM OVC009=
201209210257 KSEA 210257Z 2103/2206 20006KT P6SM SKC FM210600 20006KT P6SM OVC004
                       FM211200 19004KT 4SM BR OVC003 FM212000
                       22006KT P6SM OVC012 FM212200 23006KT P6SM
                       BKN025 FM220200 23005KT P6SM OVC015=
201209202320 TAF KSEA 202320Z 2100/2206 21006KT P6SM SKC FM210900 20006KT 4SM
                       BR OVC005
                      TEMPO 2110/2114 1/2SM FG VV002 FM211900 23006KT
                       6SM HZ OVC012 FM212000 23006KT P6SM BKN025
                       FM212200 VRB04KT P6SM SCT030 BKN120 BKN200=
201209202102 KSEA 202102Z 2021/2124 21006KT 6SM HZ SKC FM210900 20006KT 4SM
                       BR OVC005
                      TEMPO 2110/2114 1/2SM FG VV002 FM211900 23006KT
                       6SM HZ OVC012 FM212000 23006KT P6SM BKN025
                       FM212200 VRB04KT P6SM SCT030 BKN120 BKN200=
201209201926 KSEA 201926Z 2019/2124 VRB04KT 6SM HZ VCFG SCT003
                      TEMPO 2019/2020 1SM BR BKN003 FM202100 VRB04KT
                       P6SM SKC FM210300 VRB04KT P6SM SKC FM210900
                       20006KT 4SM BR OVC005
                      TEMPO 2110/2114 1/2SM FG VV002 FM211900 VRB04KT
                       6SM HZ BKN010 FM212100 30005KT P6SM SCT120
                       SCT200=
201209201721 TAF KSEA 201721Z 2018/2124 VRB03KT 6SM HZ VCFG SCT002
                      TEMPO 2018/2019 2SM BR BKN002 FM202000 32005KT
                       P6SM SKC FM210300 VRB04KT P6SM SKC FM210900
                       20006KT 4SM BR OVC005
                      TEMPO 2110/2114 1/2SM FG VV002 FM211900 VRB04KT
                       6SM HZ BKN010 FM212100 30005KT P6SM SCT120
                       SCT200=
201209201606 KSEA 201606Z 2016/2118 VRB03KT 1SM BR BKN002
                      TEMPO 2016/2017 1/4SM FG VV001 FM201800 30004KT
                       P6SM SKC FM210100 VRB04KT P6SM SKC FM210900
                       22006KT 4SM BR OVC004
                      TEMPO 2110/2114 1/2SM FG VV002=
201209201424 KSEA 201424Z 2014/2118 VRB03KT 1SM BR BKN002
                      TEMPO 2014/2016 1/4SM FG VV001 FM201700 VRB03KT
                       P6SM VCFG FEW003 FM201830 30004KT P6SM SKC
                       FM210100 22006KT P6SM SKC FM210700 22006KT
                       5SM BR OVC006=
201209201237 KSEA 201237Z 2013/2118 VRB03KT P6SM VCFG FEW002
                      TEMPO 2013/2016 1/2SM FG VV001 FM201700 VRB03KT
                       P6SM VCFG FEW003 FM201830 30004KT P6SM SKC
                       FM210100 22006KT P6SM SKC FM210700 22006KT
                       5SM BR OVC006=
201209201120 TAF KSEA 201120Z 2012/2118 00000KT 1/4SM FG VV001 FM201700 VRB03KT
                       3SM BR BKN003 FM201830 30004KT P6SM SKC
                       FM210100 22006KT P6SM SKC FM210700 22006KT
                       5SM BR OVC006=
201209201029 KSEA 201029Z 2010/2112 19005KT P6SM SKC FM201130 20003KT 1/4SM
                       FG VV001 FM201800 30004KT P6SM SKC FM210100
                       22006KT P6SM SKC FM210700 22006KT P6SM OVC006=
201209200901 TAF AMD KSEA 200901Z 2009/2112 00000KT P6SM SKC FM201300 22002KT
                       3SM BR BKN003
                      TEMPO 2013/2016 1/2SM FG VV001 FM201800 30004KT
                       P6SM SKC FM210100 22006KT P6SM SKC FM210700
                       22006KT P6SM OVC006=
201209200534 TAF KSEA 200534Z 2006/2112 01005KT P6SM SKC
                      TEMPO 2010/2013 4SM HZ FM201300 22002KT 3SM
                       BR BKN003
                      TEMPO 2013/2016 1/2SM FG VV001 FM201800 30004KT
                       P6SM SKC FM210100 22006KT P6SM SKC FM210700
                       22006KT P6SM OVC006=
201209200301 KSEA 200301Z 2003/2106 35004KT P6SM FEW250 FM200600 VRB03KT P6SM
                       SKC
                      TEMPO 2010/2013 4SM HZ FM201300 00000KT 3SM
                       BR BKN003
                      TEMPO 2013/2016 1/2SM FG VV001 FM201700 VRB04KT
                       P6SM SCT120 SCT200=
201209192320 TAF KSEA 192320Z 2000/2106 32007KT P6SM SKC FM200600 VRB03KT P6SM
                       SKC
                      TEMPO 2010/2013 4SM HZ FM201300 00000KT 3SM
                       BR BKN003
                      TEMPO 2013/2016 1/2SM FG VV001 FM201700 VRB04KT
                       P6SM SCT120 SCT200=
201209192100 KSEA 192100Z 1921/2024 VRB04KT P6SM SKC FM201200 20004KT 3SM BR
                       BKN003
                      TEMPO 2012/2016 1/4SM FG VV001 FM201700 VRB04KT
                       P6SM SCT120 SCT200=
201209191801 KSEA 191801Z 1918/2024 00000KT 3SM BR BKN004 FM191900 00000KT P6SM
                       SCT005 FM192000 VRB04KT P6SM SKC FM201200
                       20004KT 3SM BR BKN003
                      TEMPO 2012/2016 1/4SM FG VV001 FM201700 VRB04KT
                       P6SM SCT120 SCT200=
201209191727 TAF KSEA 191727Z 1918/2024 00000KT 3SM BR BKN003
                      TEMPO 1918/1920 1/2SM FG VV002 FM192000 VRB04KT
                       P6SM SKC FM201200 20004KT 3SM BR BKN003
                       TEMPO 2012/2016 1/4SM FG VV001 FM201700
                       VRB04KT P6SM SCT120 SCT200=
201209191504 KSEA 191504Z 1915/2018 21005KT 2SM BR OVC004
                      TEMPO 1915/1917 1/4SM FG VV001 FM191800 VRB04KT
                       P6SM SKC FM201200 23004KT 3SM BR BKN003
                       TEMPO 2012/2016 1/4SM FG VV001 FM201700
                       VRB04KT P6SM SCT120 SCT200=
201209191217 KSEA 191217Z 1912/2018 21005KT 1/2SM FG OVC001
                      TEMPO 1912/1914 1/4SM FG FM191400 21005KT
                       1/4SM FG OVC001 FM191600 21005KT 2SM BR
                       OVC004 FM191800 30005KT P6SM SKC FM201200
                       23004KT P6SM BKN005=
201209191132 TAF AMD KSEA 191132Z 1912/2018 20004KT 1/2SM FG OVC001
                      TEMPO 1912/1914 1/4SM FG FM191400 22004KT
                       1/4SM FG OVC001 FM191600 21005KT 2SM BR
                       SCT002 FM191800 34004KT P6SM SKC FM201200
                       23004KT P6SM BKN005=
201209191120 TAF KSEA 191120Z 1912/2018 20004KT 1/2SM FG OVC001 FM191400 22004KT
                       1/4SM FG OVC001 FM191600 21005KT 2SM BR
                       SCT002 FM191800 34004KT P6SM SKC FM201200
                       23004KT P6SM BKN005=
201209190910 KSEA 190910Z 1909/2012 20006KT P6SM BKN005
                      TEMPO 1909/1913 1SM BR OVC003 FM191300 20004KT
                       4SM BR OVC003
                      TEMPO 1913/1917 2SM BR BKN003 FM191800 31006KT
                       P6SM SKC=
201209190849 KSEA 190849Z 1909/2012 20006KT P6SM BKN005
                      TEMPO 1913/1917 2SM BR BKN003 FM191800 31006KT
                       P6SM SKC=
201209190532 TAF KSEA 190532Z 1906/2012 20003KT P6SM SKC FM191300 21004KT P6SM
                       SCT003
                      TEMPO 1913/1917 2SM BR BKN003 FM192000 31006KT
                       P6SM SKC=
201209190301 KSEA 190301Z 1903/2006 29003KT P6SM SKC FM191300 21004KT P6SM SCT003
                       TEMPO 1913/1917 2SM BR BKN003 FM192000 31006KT
                       P6SM SKC=
201209182320 TAF KSEA 182320Z 1900/2006 30004KT P6SM SKC FM190300 VRB03KT P6SM
                       SKC FM191300 21004KT P6SM SCT003
                      TEMPO 1913/1917 2SM BR BKN003 FM192000 31006KT
                       P6SM SKC=
201209182100 KSEA 182100Z 1821/1924 30005KT P6SM SKC FM190300 VRB03KT P6SM SKC
                       FM191300 21004KT P6SM SCT003
                      TEMPO 1913/1917 2SM BR BKN003=
201209181721 TAF KSEA 181721Z 1818/1924 31006KT P6SM SKC FM190300 VRB03KT P6SM
                       SKC FM191300 21004KT P6SM SCT003
                      TEMPO 1913/1917 2SM BR BKN003=
201209181501 KSEA 181501Z 1815/1918 00000KT P6SM SKC FM181900 31006KT P6SM SKC=
201209181120 TAF KSEA 181120Z 1812/1918 00000KT P6SM SKC FM181900 31006KT P6SM
                       SKC=
201209180920 KSEA 180920Z 1809/1912 00000KT P6SM SKC FM181900 31006KT P6SM SKC=
201209180522 TAF KSEA 180522Z 1806/1912 36006KT P6SM SKC FM181900 31006KT P6SM
                       SKC=
201209180300 KSEA 180300Z 1803/1906 36004KT P6SM SKC FM180400 02004KT P6SM SKC
                       FM181900 31006KT P6SM SKC=
201209172320 TAF KSEA 172320Z 1800/1906 36008KT P6SM SKC FM180400 02004KT P6SM
                       SKC FM181900 31006KT P6SM SKC=
201209172100 KSEA 172100Z 1721/1824 34008KT P6SM SKC FM180400 36004KT P6SM SKC=
201209171731 TAF KSEA 171731Z 1718/1824 02006KT P6SM FEW250 FM172000 33008KT
                       P6SM SKC FM180400 36004KT P6SM SKC=
201209171500 KSEA 171500Z 1715/1818 03004KT P6SM FEW250 FM172000 33008KT P6SM
                       SKC FM180400 36004KT P6SM SKC=
201209171120 TAF KSEA 171120Z 1712/1818 04003KT P6SM FEW250 FM172000 33008KT
                       P6SM SKC FM180400 36004KT P6SM SKC=
201209170900 KSEA 170900Z 1709/1812 00000KT P6SM FEW250 FM172000 33008KT P6SM
                       SKC FM180400 36004KT P6SM SKC=
201209170520 TAF KSEA 170520Z 1706/1812 03007KT P6SM SKC FM172000 33008KT P6SM
                       SKC FM180400 36004KT P6SM SKC=
201209170300 TAF AMD KSEA 170300Z 1703/1806 36006KT P6SM FEW080 FM170500 02004KT
                       P6SM SKC FM172000 33008KT P6SM SKC FM180400
                       36004KT P6SM SKC=
201209162320 TAF KSEA 162320Z 1700/1806 36006KT P6SM SKC FM170400 02004KT P6SM
                       SKC FM172000 33008KT P6SM SKC FM180400 36004KT
                       P6SM SKC=
201209162120 KSEA 162120Z 1621/1724 35008KT P6SM SKC FM170400 36005KT P6SM SKC
                       FM170600 02004KT P6SM SKC FM172000 32008KT
                       P6SM SKC=
201209161720 TAF KSEA 161720Z 1618/1724 VRB03KT P6SM SKC FM161900 34010KT P6SM
                       SKC FM170400 36005KT P6SM SKC FM170600 02004KT
                       P6SM SKC FM172000 32008KT P6SM SKC=
201209161501 TAF AMD KSEA 161501Z 1615/1718 00000KT P6SM SCT200 FM161800 35008KT
                       P6SM SKC FM162000 32010KT P6SM SKC FM170400
                       36004KT P6SM SKC=
201209161120 TAF KSEA 161120Z 1612/1718 00000KT P6SM SCT200 FM161800 35008KT
                       P6SM SKC FM162000 32010KT P6SM SKC FM170400
                       36004KT P6SM SKC=
201209160904 KSEA 160904Z 1609/1712 01007KT P6SM SCT200 FM161800 35008KT P6SM
                       SKC FM162000 32010KT P6SM SKC FM170400 36004KT
                       P6SM SKC=
201209160524 TAF KSEA 160524Z 1606/1712 00000KT P6SM SCT220 FM161800 35008KT
                       P6SM SKC FM162000 32010KT P6SM SKC FM170400
                       36004KT P6SM SKC=
201209160301 KSEA 160301Z 1603/1706 34003KT P6SM SCT220 FM161800 35008KT P6SM
                       SKC FM162000 32010KT P6SM SKC FM170400 36004KT
                       P6SM SKC=
201209152320 TAF KSEA 152320Z 1600/1706 29005KT P6SM SCT150 BKN250 FM160100
                       35005KT P6SM SCT150 BKN250 FM160300 VRB03KT
                       P6SM SCT250 FM161800 35008KT P6SM SKC FM162000
                       32010KT P6SM SKC FM170400 36004KT P6SM SKC=
201209152100 KSEA 152100Z 1521/1624 VRB04KT P6SM SCT150 BKN250 FM152200 31005KT
                       P6SM SCT150 BKN250 FM160100 02005KT P6SM
                       SCT150 BKN250 FM160300 VRB03KT P6SM SCT250
                       FM161800 35008KT P6SM SKC FM162000 32010KT
                       P6SM SKC=
201209151720 TAF KSEA 151720Z 1518/1624 18004KT P6SM FEW150 BKN250 FM152000
                       33008KT P6SM BKN250 FM160100 02005KT P6SM
                       SCT250 FM160300 VRB03KT P6SM SCT250 FM161800
                       35008KT P6SM SKC FM162000 32010KT P6SM SKC=
201209151502 KSEA 151502Z 1515/1618 VRB04KT P6SM BKN250 FM151800 34007KT P6SM
                       SCT250 FM160100 02005KT P6SM SKC FM160300
                       VRB03KT P6SM SKC=
201209151340 KSEA 151340Z 1514/1618 17003KT P6SM SCT250 FM151800 34007KT P6SM
                       SKC=
201209151120 TAF KSEA 151120Z 1512/1618 17003KT P6SM SKC
                      TEMPO 1512/1516 4SM HZ SCT007 FM151800 34007KT
                       P6SM SKC=
201209150909 KSEA 150909Z 1509/1612 13004KT P6SM SKC
                      TEMPO 1512/1516 4SM HZ SCT007 FM151800 34007KT
                       P6SM SKC=
201209150520 TAF KSEA 150520Z 1506/1612 02005KT P6SM SCT250 FM151000 VRB03KT
                       P6SM SCT120 SCT250
                      TEMPO 1512/1516 4SM HZ FM151800 34007KT P6SM
                       SKC=
201209150300 KSEA 150300Z 1503/1606 35005KT P6SM FEW050 SCT250 FM151000 VRB03KT
                       P6SM SCT120 SCT250
                      TEMPO 1512/1516 4SM HZ FM151800 34007KT P6SM
                       SCT200=
201209142320 TAF KSEA 142320Z 1500/1606 34007KT P6SM SCT250 FM151000 VRB03KT
                       P6SM SCT120 SCT250
                      TEMPO 1512/1516 4SM HZ FM151800 34007KT P6SM
                       SCT200=
201209142101 KSEA 142101Z 1421/1524 30006KT P6SM FEW060 SCT250 FM151200 VRB03KT
                       P6SM SCT120 SCT250
                      TEMPO 1512/1516 4SM HZ FM151700 VRB03KT P6SM
                       SCT200 FM152000 30008KT P6SM SCT200=
201209141720 TAF KSEA 141720Z 1418/1524 30006KT P6SM SCT100 SCT250 FM151200
                       VRB03KT 5SM BR SCT002
                      TEMPO 1512/1516 2SM BR BKN002 FM151700 VRB03KT
                       P6SM SCT010 BKN200 FM152000 30008KT P6SM
                       SCT200=
201209141502 KSEA 141502Z 1415/1518 VRB03KT P6SM SCT250 FM141800 30007KT P6SM
                       SCT100 SCT250 FM151000 VRB03KT 5SM BR SCT004
                       FM151200 VRB03KT 2SM BR OVC004
                      TEMPO 1512/1516 1/2SM FG VV001=
201209141120 TAF KSEA 141120Z 1412/1518 VRB03KT P6SM SKC FM141800 30007KT P6SM
                       SCT250 FM150200 VRB03KT P6SM SCT250 FM151000
                       VRB03KT 5SM BR SCT004 FM151200 VRB03KT 2SM
                       BR OVC004
                      TEMPO 1512/1516 1/2SM FG VV001=
201209140520 TAF KSEA 140520Z 1406/1512 VRB03KT P6SM FEW250 FM141800 30007KT
                       P6SM SCT250 FM150200 VRB03KT P6SM SCT250=
201209140307 KSEA 140307Z 1403/1506 02005KT P6SM BKN250 FM141200 VRB03KT P6SM
                       VCFG SKC FM141700 31006KT P6SM SKC FM141900
                       34008KT P6SM SKC FM150200 VRB04KT P6SM SCT250=
201209132320 TAF KSEA 132320Z 1400/1506 33007KT P6SM SCT250 FM140200 VRB03KT
                       P6SM SKC FM141200 VRB03KT P6SM VCFG SKC
                       FM141700 31006KT P6SM SKC FM141900 34008KT
                       P6SM SKC FM150200 VRB04KT P6SM SCT250=
201209132127 KSEA 132127Z 1321/1424 33008KT P6SM SCT250 FM140200 VRB03KT P6SM
                       SKC FM141200 VRB03KT P6SM VCFG SKC FM141700
                       31006KT P6SM SKC FM141900 29008KT P6SM SKC=
201209131720 TAF KSEA 131720Z 1318/1424 36010KT P6SM SCT050 FM132000 34010KT
                       P6SM SCT070 FM140200 VRB03KT P6SM SKC FM141200
                       VRB03KT P6SM VCFG SKC FM141700 31006KT P6SM
                       SKC FM141900 29008KT P6SM SKC=
201209131500 KSEA 131500Z 1315/1418 04009KT P6SM SCT045 SCT250 FM131700 07005KT
                       P6SM SCT050 FM132000 33006KT P6SM SCT070
                       FM140200 VRB03KT P6SM SKC FM141200 VRB03KT
                       P6SM VCFG SKC=
201209131131 TAF KSEA 131131Z 1312/1418 04009KT P6SM SCT035
                      TEMPO 1312/1316 BKN035 FM131700 07005KT P6SM
                       SCT050 FM132000 33006KT P6SM SCT070 FM140200
                       VRB03KT P6SM SKC FM141200 VRB03KT P6SM VCFG
                       SKC=
201209130915 KSEA 130915Z 1309/1412 02010KT P6SM SCT040
                      TEMPO 1309/1312 BKN040 FM131200 04006KT P6SM
                       BKN040 FM131700 07004KT P6SM SCT060 FM132000
                       33006KT P6SM SKC FM140200 VRB03KT P6SM SKC=
201209130521 TAF KSEA 130521Z 1306/1412 02010KT P6SM SKC FM131200 04006KT P6SM
                       SKC FM131700 07004KT P6SM SKC FM132000 33006KT
                       P6SM SKC FM140200 VRB03KT P6SM SKC=
201209130307 KSEA 130307Z 1303/1406 02009KT P6SM SKC FM130600 05007KT P6SM SKC
                       FM131700 35009KT P6SM SKC=
201209122320 TAF KSEA 122320Z 1300/1406 36010G18KT P6SM SKC FM130300 02009KT
                       P6SM SKC FM130600 05007KT P6SM SKC FM131700
                       35009KT P6SM SKC=
201209122102 KSEA 122102Z 1221/1324 02013KT P6SM SKC
                      TEMPO 1221/1224 34013G20KT FM130200 02009KT
                       P6SM SKC FM130600 05007KT P6SM SKC FM131700
                       35009KT P6SM SKC=
201209121721 TAF KSEA 121721Z 1218/1324 02013KT P6SM SKC
                      TEMPO 1220/1224 34013G20KT FM130200 02009KT
                       P6SM SKC FM130600 05007KT P6SM SKC FM131700
                       35009KT P6SM SKC=
201209121213 TAF KSEA 121213Z 1212/1318 02008KT P6SM SKC FM121800 34013KT P6SM
                       SKC
                      TEMPO 1220/1224 34010G20KT FM130200 02009KT
                       P6SM SKC FM130600 05007KT P6SM SKC=
201209120902 KSEA 120902Z 1209/1312 04009KT P6SM SKC FM121800 34013KT P6SM SKC
                       TEMPO 1220/1224 34010G20KT FM130200 02009KT
                       P6SM SKC FM130600 04007KT P6SM SKC=
201209120525 TAF KSEA 120525Z 1206/1312 02009KT P6SM SKC FM121800 34013KT P6SM
                       SKC
                      TEMPO 1220/1224 34010G20KT FM130200 02009KT
                       P6SM SKC FM130600 04007KT P6SM SKC=
201209120306 KSEA 120306Z 1203/1306 35010KT P6SM SKC FM120600 02009KT P6SM SKC
                       FM121800 34012KT P6SM SKC=
201209112320 TAF KSEA 112320Z 1200/1306 34012KT P6SM SKC FM120600 02009KT P6SM
                       SKC FM121800 34012KT P6SM SKC=
201209112102 KSEA 112102Z 1121/1224 34012KT P6SM SKC FM120600 02009KT P6SM SKC=
201209111721 TAF KSEA 111721Z 1118/1224 35008KT P6SM SCT021 FM111900 34012KT
                       P6SM SKC FM120600 02009KT P6SM SKC=
201209111639 KSEA 111639Z 1117/1218 35006KT P6SM BKN021 BKN030 FM111900 34012KT
                       P6SM SKC FM120600 02009KT P6SM SKC=
201209111501 KSEA 111501Z 1115/1218 35006KT P6SM SCT035 FM111800 34012KT P6SM
                       SKC FM120600 02009KT P6SM SKC=
201209111127 TAF KSEA 111127Z 1112/1218 04007KT P6SM FEW025 SCT040 FM111800
                       34012KT P6SM SKC FM120600 02009KT P6SM SKC=
201209110903 KSEA 110903Z 1109/1212 05006KT P6SM SCT050
                      TEMPO 1109/1111 BKN050 FM111200 03005KT P6SM
                       FEW011 FM111800 34011KT P6SM SKC FM120600
                       02009KT P6SM SKC=
201209110546 TAF KSEA 110546Z 1106/1212 05010KT P6SM BKN045 FM110900 03005KT
                       P6SM SCT040
                      TEMPO 1109/1111 BKN040 FM111200 03005KT P6SM
                       FEW011 FM111800 34011KT P6SM SKC FM120600
                       02009KT P6SM SKC=
201209110245 KSEA 110245Z 1103/1206 05010KT P6SM VCSH FEW030 OVC050 FM110600
                       05010KT P6SM SCT030 BKN050 FM110900 03006KT
                       P6SM SCT030 SCT050 FM111200 00000KT P6SM
                       VCFG SCT005 FM111700 33007KT P6SM SCT030=
201209102320 TAF KSEA 102320Z 1100/1206 VRB04KT P6SM SCT040 FM111200 00000KT
                       P6SM VCFG SCT005 FM111700 33007KT P6SM SCT030=
201209102100 KSEA 102100Z 1021/1124 VRB04KT P6SM SCT040 FM111200 00000KT P6SM
                       VCFG SCT005 FM111700 33007KT P6SM SCT030=
201209101720 TAF KSEA 101720Z 1018/1124 18006KT P6SM SCT040 FM102100 VRB04KT
                       P6SM BKN050 FM110000 33006KT P6SM SCT050
                       FM111200 VRB03KT P6SM VCFG SCT005 FM111700
                       33007KT P6SM SCT030=
201209101639 KSEA 101639Z 1017/1118 17007KT P6SM VCSH SCT030 BKN050 FM110000
                       33006KT P6SM SCT050=
201209101506 KSEA 101506Z 1015/1118 14007KT P6SM VCSH BKN025 BKN050 FM101700
                       VRB04KT P6SM SCT025 BKN050 FM110000 33006KT
                       P6SM SCT050=
201209101341 KSEA 101341Z 1014/1118 06008KT P6SM BKN027 BKN050 FM101600 21006KT
                       P6SM SCT020 BKN035 BKN050 FM101800 18006KT
                       P6SM BKN045 FM110000 33006KT P6SM SCT050=
201209101145 TAF KSEA 101145Z 1012/1118 33006KT P6SM BKN006 OVC012 FM101400
                       VRB03KT P6SM SCT006 BKN015 OVC030 FM101600
                       21006KT P6SM SCT020 BKN035 BKN050 FM101800
                       18006KT P6SM BKN045 FM110000 33006KT P6SM
                       SCT050=
201209100914 KSEA 100914Z 1009/1112 20012G18KT P6SM BKN021 OVC035 FM101200 20012KT
                       P6SM SCT025 BKN040 BKN060 FM101700 18008KT
                       P6SM BKN050 FM110100 VRB03KT P6SM SCT050=
201209100541 TAF KSEA 100541Z 1006/1112 20012G18KT P6SM SCT015 BKN025 OVC040
                       TEMPO 1007/1009 -RA BKN015 OVC025 FM101200
                       23012KT P6SM SCT025 BKN040 BKN060 FM101700
                       18008KT P6SM BKN050 FM110100 VRB03KT P6SM
                       SCT050=
201209100306 KSEA 100306Z 1003/1106 20010G18KT P6SM VCSH SCT025 OVC050
                      TEMPO 1003/1006 BKN025 OVC050 FM100600 20012G22KT
                       P6SM -RA OVC022 FM101200 23012KT P6SM -SHRA
                       SCT025 BKN040 FM101500 18008KT P6SM BKN040=
201209092320 TAF KSEA 092320Z 1000/1106 20010G18KT P6SM VCSH SCT025 OVC040 FM100500
                       20010G18KT P6SM VCSH SCT025 OVC030 FM100800
                       20012G20KT P6SM -RA OVC022 FM101200 23012KT
                       P6SM -SHRA SCT025 BKN040 FM101500 18008KT
                       P6SM BKN040=
201209092101 KSEA 092101Z 0921/1024 20010KT P6SM SCT025 OVC040 FM100600 20010KT
                       P6SM SCT025 OVC030 FM100900 20010KT P6SM
                       -RA OVC022 FM101200 21012KT P6SM -SHRA SCT025
                       BKN040 FM101500 18012KT P6SM BKN040=
201209091725 TAF KSEA 091725Z 0918/1024 19010KT P6SM OVC040 FM100600 20010KT
                       P6SM SCT025 OVC030 FM100900 20010KT P6SM
                       -RA OVC022 FM101200 21012KT P6SM -SHRA SCT025
                       BKN040 FM101500 18012KT P6SM BKN040=
201209091501 KSEA 091501Z 0915/1018 19008KT P6SM OVC021 FM092200 19008KT P6SM
                       OVC035 FM101000 17008KT P6SM -RA OVC022
                       FM101400 21012KT P6SM -SHRA SCT025 BKN040=
201209091139 TAF KSEA 091139Z 0912/1018 19008KT P6SM OVC021 FM092200 19008KT
                       P6SM OVC035 FM101000 17008KT P6SM -RA OVC022
                       FM101400 21012KT P6SM -SHRA SCT025 BKN040=
201209090906 KSEA 090906Z 0909/1012 19008KT P6SM OVC021 FM092300 19008KT P6SM
                       OVC030 FM101000 17008KT P6SM -RA OVC025=
201209090536 TAF KSEA 090536Z 0906/1012 21010KT P6SM BKN150 FM090700 21010KT
                       P6SM OVC015 FM091900 21010KT P6SM OVC022=
201209090308 KSEA 090308Z 0903/1006 21010KT P6SM BKN150 FM090700 21010KT P6SM
                       OVC011 FM091900 21010KT P6SM OVC018 FM092200
                       21010KT P6SM OVC022=
201209082320 TAF KSEA 082320Z 0900/1006 21010KT P6SM FEW150 SCT200 FM090700
                       21010KT P6SM OVC004 FM091800 22012G18KT
                       P6SM OVC011=
201209082101 KSEA 082101Z 0821/0924 21010KT P6SM BKN200 FM090800 21010KT P6SM
                       OVC004 FM091800 21010KT P6SM OVC011=
201209081819 KSEA 081819Z 0818/0924 21004KT P6SM FEW120 FEW200 FM091000 21010KT
                       P6SM OVC004 FM091800 21010KT P6SM OVC011=
201209081720 TAF KSEA 081720Z 0818/0924 32004KT P6SM FEW120 FEW200 FM091000
                       21010KT P6SM OVC004 FM091800 21010KT P6SM
                       OVC011=
201209081500 KSEA 081500Z 0815/0918 34004KT P6SM FEW200 FM090800 21010KT P6SM
                       OVC006 FM091600 21010KT P6SM OVC011=
201209081134 TAF KSEA 081134Z 0812/0918 34004KT P6SM SKC FM090800 21010KT P6SM
                       OVC006 FM091600 21010KT P6SM OVC011=
201209080912 KSEA 080912Z 0809/0912 01008KT P6SM SKC FM081700 30006KT P6SM SKC
                       FM090800 21010KT P6SM OVC006=
201209080536 TAF KSEA 080536Z 0806/0912 01008KT P6SM SKC FM081700 30006KT P6SM
                       SKC FM090800 21010KT P6SM OVC006=
201209080308 KSEA 080308Z 0803/0906 01008KT P6SM SKC FM081700 30006KT P6SM SKC=
201209072320 TAF KSEA 072320Z 0800/0906 33008KT P6SM SKC FM080700 03005KT P6SM
                       SKC FM081700 30006KT P6SM SKC=
201209072101 KSEA 072101Z 0721/0824 35008KT P6SM SKC FM080700 03008KT P6SM SKC
                       FM081700 25006KT P6SM SKC=
201209071720 TAF KSEA 071720Z 0718/0824 35008KT P6SM SKC FM080700 03008KT P6SM
                       SKC FM081700 25006KT P6SM SKC=
201209071502 KSEA 071502Z 0715/0818 03005KT P6SM SKC FM071900 35008KT P6SM SKC
                       FM080700 03008KT P6SM SKC FM081700 25006KT
                       P6SM SKC=
201209071127 TAF KSEA 071127Z 0712/0818 03010KT P6SM SKC FM071900 35008KT P6SM
                       SKC FM080700 03008KT P6SM SKC FM081700 25006KT
                       P6SM SKC=
201209070906 KSEA 070906Z 0709/0812 03008KT P6SM SKC FM071900 35008KT P6SM SKC
                       FM080700 03008KT P6SM SKC=
201209070522 TAF KSEA 070522Z 0706/0812 35008KT P6SM SKC FM070700 03008KT P6SM
                       SKC FM071900 35008KT P6SM SKC FM080700 03008KT
                       P6SM SKC=
201209070303 KSEA 070303Z 0703/0806 35008KT P6SM SKC FM070700 03008KT P6SM SKC
                       FM071900 35008KT P6SM SKC=
201209062320 TAF KSEA 062320Z 0700/0806 34010KT P6SM SKC FM070500 03005KT P6SM
                       SKC FM071900 34008KT P6SM SKC FM080500 03005KT
                       P6SM SKC=
201209062100 KSEA 062100Z 0621/0724 34008KT P6SM SKC FM070700 04006KT P6SM SKC
                       FM071900 33008KT P6SM SKC=
201209061720 TAF KSEA 061720Z 0618/0724 02008KT P6SM SKC FM061900 34008KT P6SM
                       SKC FM070700 04006KT P6SM SKC FM071900 33008KT
                       P6SM SKC=
201209061532 KSEA 061532Z 0616/0718 02008KT P6SM SKC FM061900 34008KT P6SM SKC
                       FM070700 04006KT P6SM SKC=
201209061126 TAF KSEA 061126Z 0612/0718 02008KT P6SM SKC FM061900 34008KT P6SM
                       SKC FM070700 04006KT P6SM SKC=
201209060910 TAF AMD KSEA 060910Z 0609/0712 02008KT P6SM SKC FM061900 34008KT
                       P6SM SKC FM070700 04006KT P6SM SKC=
201209060532 TAF KSEA 060532Z 0606/0712 02008KT P6SM SKC FM061900 34008KT P6SM
                       SKC FM070700 04006KT P6SM SKC=
201209052320 TAF KSEA 052320Z 0600/0706 34008KT P6SM SCT250 FM060500 03006KT
                       P6SM SKC FM061900 34009KT P6SM SKC FM070400
                       04006KT P6SM SKC=
201209052135 KSEA 052135Z 0522/0624 34008KT P6SM SKC FM060500 03006KT P6SM SKC
                       FM061900 34008KT P6SM SKC=
201209051720 TAF KSEA 051720Z 0518/0624 00000KT P6SM SKC FM051900 31008KT P6SM
                       SKC FM060500 03006KT P6SM SKC FM061900 34008KT
                       P6SM SKC=
201209051120 TAF KSEA 051120Z 0512/0618 00000KT P6SM SKC FM051900 34008KT P6SM
                       SKC FM060500 03006KT P6SM SKC=
201209050900 KSEA 050900Z 0509/0612 01003KT P6SM SKC FM051900 34008KT P6SM SKC
                       FM060500 03006KT P6SM SKC=
201209050520 TAF KSEA 050520Z 0506/0612 02006KT P6SM SKC FM051900 34008KT P6SM
                       SKC FM060500 03006KT P6SM SKC=
201209050300 KSEA 050300Z 0503/0606 36005KT P6SM SKC FM050400 03005KT P6SM SKC
                       FM051900 34008KT P6SM SKC FM060300 03005KT
                       P6SM SKC=
201209042320 TAF KSEA 042320Z 0500/0606 35013KT P6SM SKC FM050400 03005KT P6SM
                       SKC FM051900 34008KT P6SM SKC FM060300 03005KT
                       P6SM SKC=
201209042108 TAF AMD KSEA 042108Z 0421/0524 35013KT P6SM SKC FM050500 03005KT
                       P6SM SKC FM052000 34008KT P6SM SKC=
201209041733 TAF KSEA 041733Z 0418/0524 36005KT P6SM SKC FM042000 34010KT P6SM
                       SKC FM050500 03005KT P6SM SKC FM052000 34008KT
                       P6SM SKC=
201209041442 KSEA 041442Z 0415/0518 31004KT P6SM SKC FM041800 33010KT P6SM SKC
                       FM050400 02008KT P6SM SKC=
201209041120 TAF KSEA 041120Z 0412/0518 00000KT P6SM SKC FM041800 33010KT P6SM
                       SKC FM050400 02008KT P6SM SKC=
201209040901 KSEA 040901Z 0409/0512 03006KT P6SM SKC FM041200 03004KT P6SM FEW005
                       FM041800 33010KT P6SM SKC FM050400 02008KT
                       P6SM SKC=
201209040520 TAF KSEA 040520Z 0406/0512 03004KT P6SM SKC FM041200 03004KT P6SM
                       SCT005
                      TEMPO 0413/0416 BKN005 FM042100 33010KT P6SM
                       SKC FM050400 02008KT P6SM SKC=
201209040301 KSEA 040301Z 0403/0506 35006KT P6SM FEW040 FM040500 03005KT P6SM
                       SKC FM041200 03004KT P6SM SCT005
                      TEMPO 0413/0416 BKN005 FM042100 33010KT P6SM
                       SKC=
201209032320 TAF KSEA 032320Z 0400/0506 32008KT P6SM SKC FM040500 03005KT P6SM
                       SKC FM041200 03004KT P6SM SCT005
                      TEMPO 0413/0416 BKN005 FM042100 33010KT P6SM
                       SKC=
201209032056 KSEA 032056Z 0321/0424 32008KT P6SM FEW025 FM040500 03005KT P6SM
                       SKC FM041200 03005KT P6SM SCT005
                      TEMPO 0413/0416 BKN005 FM041800 33008KT P6SM
                       SKC=
201209031739 TAF KSEA 031739Z 0318/0424 05005KT P6SM SCT015
                      TEMPO 0318/0319 BKN015 FM032100 34009KT P6SM
                       SKC FM040500 03005KT P6SM SKC FM041200 03005KT
                       P6SM SCT005
                      TEMPO 0413/0416 BKN005 FM041800 33008KT P6SM
                       SKC=
201209031510 KSEA 031510Z 0315/0418 03005KT P6SM OVC006
                      TEMPO 0317/0318 BKN010 FM031800 34005KT P6SM
                       SCT020 FM032100 33008KT P6SM SCT250 FM040300
                       01008KT P6SM SKC=
201209031120 TAF KSEA 031120Z 0312/0418 03006KT P6SM FEW002
                      TEMPO 0312/0316 1SM BR BKN002 FM032000 33008KT
                       P6SM SCT250 FM040300 01008KT P6SM SKC=
201209030902 KSEA 030902Z 0309/0412 04008KT P6SM FEW200 FM032000 33008KT P6SM
                       SCT250 FM040300 01008KT P6SM SKC=
201209030523 TAF KSEA 030523Z 0306/0412 03006KT P6SM SCT250 FM032000 33008KT
                       P6SM SCT250 FM040300 01008KT P6SM SKC=
201209030303 KSEA 030303Z 0303/0406 01005KT P6SM FEW030 FM030700 01005KT P6SM
                       SKC FM031400 03003KT P6SM SCT018
                      TEMPO 0315/0317 BKN018 FM032000 33008KT P6SM
                       FEW035=
201209022332 TAF KSEA 022332Z 0300/0406 33007KT P6SM FEW200 FM030700 01005KT
                       P6SM SKC FM031400 03003KT P6SM SCT018
                      TEMPO 0315/0317 BKN018 FM032000 33008KT P6SM
                       FEW035=
201209022101 KSEA 022101Z 0221/0324 VRB03KT P6SM FEW030 SCT100 FM022300 33007KT
                       P6SM SCT100 FM030700 01005KT P6SM SKC FM031400
                       03003KT P6SM SCT020
                      TEMPO 0314/0317 BKN020 FM031900 35008KT P6SM
                       FEW035=
201209021749 TAF KSEA 021749Z 0218/0324 23004KT P6SM SCT025 SCT100 BKN200 FM022200
                       33007KT P6SM SCT090 SCT150 FM030700 01005KT
                       P6SM SKC FM031400 03003KT P6SM SCT020
                      TEMPO 0314/0317 BKN020 FM031900 35008KT P6SM
                       FEW035=
201209021607 KSEA 021607Z 0216/0318 18004KT P6SM FEW030 SCT120 BKN200
                      TEMPO 0216/0217 BKN020 OVC100 FM022200 32007KT
                       P6SM SCT090 SCT150 FM030100 36008KT P6SM
                       SCT100 FM030700 03005KT P6SM SCT250=
201209021507 KSEA 021507Z 0215/0318 16004KT P6SM SCT025 SCT180
                      TEMPO 0215/0216 BKN025 BKN180 FM021600 23004KT
                       P6SM SCT040 BKN100 FM022200 32007KT P6SM
                       SCT090 SCT150 FM030100 36008KT P6SM SCT100
                       FM030700 03005KT P6SM SCT250=
201209021122 KSEA 021122Z 0212/0318 00000KT P6SM SCT025 SCT200
                      TEMPO 0212/0216 BKN025 BKN200 FM021600 23004KT
                       P6SM SCT040 BKN100 FM022200 32007KT P6SM
                       SCT090 SCT150 FM030100 36008KT P6SM SCT100
                       FM030700 03005KT P6SM SCT250=
201209021120 TAF KSEA 021120Z 0212/0318 00000KT P6SM SCT025 SCT200
                      TEMPO 0212/0216 BKN050 BKN200 FM021600 23004KT
                       P6SM SCT040 BKN100 FM022200 32007KT P6SM
                       SCT090 SCT150 FM030100 36008KT P6SM SCT100
                       FM030700 03005KT P6SM SCT250=
201209020901 KSEA 020901Z 0209/0312 00000KT P6SM FEW040 SCT100 SCT200 FM021100
                       18005KT P6SM SCT010 SCT090
                      TEMPO 0213/0216 BKN010 FM021900 25005KT P6SM
                       SCT020 SCT080 FM022200 32007KT P6SM FEW090
                       SCT200 FM030100 36008KT P6SM SCT250 FM030700
                       03005KT P6SM SCT250=
201209020527 TAF KSEA 020527Z 0206/0312 01005KT P6SM FEW040 SCT100 FM021100
                       18005KT P6SM SCT010 SCT090
                      TEMPO 0213/0216 BKN010 FM021900 25005KT P6SM
                       SCT020 SCT080 FM022200 32007KT P6SM FEW090
                       SCT200 FM030100 36008KT P6SM SCT250 FM030700
                       03005KT P6SM SCT250=
201209020312 KSEA 020312Z 0203/0306 30005KT P6SM FEW040 BKN200 FM020600 VRB03KT
                       P6SM FEW200 FM021100 18005KT P6SM SCT010
                       BKN080
                      TEMPO 0213/0216 BKN010 FM021900 25005KT P6SM
                       SCT020 SCT080=
201209012320 TAF KSEA 012320Z 0200/0306 22006KT P6SM SKC FM020100 34006KT P6SM
                       SKC FM020600 VRB03KT P6SM FEW200 FM021100
                       18005KT P6SM SCT010 BKN080
                      TEMPO 0213/0216 BKN010 FM021900 25005KT P6SM
                       SCT020 SCT080=
201209012100 KSEA 012100Z 0121/0224 19006KT P6SM FEW020 FM020100 34006KT P6SM
                       FEW040 FM020600 VRB03KT P6SM SKC FM021200
                       18004KT P6SM SCT007
                      TEMPO 0213/0216 BKN007 FM021800 25004KT P6SM
                       SCT020 SCT100=
201209011741 TAF KSEA 011741Z 0118/0224 21007KT P6SM SCT015 FM020100 34006KT
                       P6SM FEW050 FM020600 VRB03KT P6SM SKC FM021200
                       18004KT P6SM SCT007
                      TEMPO 0213/0216 BKN007 FM021800 25004KT P6SM
                       SCT020 SCT100=
201209011512 KSEA 011512Z 0115/0218 VRB03KT P6SM BKN005 FM011600 VRB03KT P6SM
                       SCT005
                      TEMPO 0116/0117 BKN005 FM011800 23006KT P6SM
                       SCT035 FM020100 34005KT P6SM SCT050 FM020600
                       VRB02KT P6SM SKC FM021300 18003KT P6SM SCT015=
201209011347 KSEA 011347Z 0114/0218 VRB03KT P6SM BKN005 FM011600 VRB03KT P6SM
                       SCT005
                      TEMPO 0116/0117 BKN005 FM011800 23006KT P6SM
                       SCT035 FM020100 34005KT P6SM SCT050 FM020600
                       VRB02KT P6SM SKC FM021300 18003KT P6SM SCT015=
201209011120 TAF KSEA 011120Z 0112/0218 00000KT P6SM FEW060 FM011400 VRB03KT
                       P6SM SCT015 FM011800 23006KT P6SM SCT035
                       FM020100 34005KT P6SM SCT050 FM020600 VRB02KT
                       P6SM SKC FM021300 18003KT P6SM SCT015=
201209010907 KSEA 010907Z 0109/0212 00000KT P6SM SCT060 FM011000 VRB03KT P6SM
                       SKC FM011400 VRB03KT P6SM SCT015 FM011800
                       23006KT P6SM SCT035 FM020100 34006KT P6SM
                       SKC=
201209010528 TAF KSEA 010528Z 0106/0212 36006KT P6SM SCT060 FM011000 VRB03KT
                       P6SM SKC FM011400 VRB03KT P6SM SCT015 FM011800
                       23006KT P6SM SCT035 FM020100 34006KT P6SM
                       SKC=
201209010300 KSEA 010300Z 0103/0206 31004KT P6SM BKN070 FM010500 36005KT P6SM
                       FEW070 FM011000 VRB03KT P6SM SKC FM011400
                       VRB03KT P6SM SCT015 FM011800 23006KT P6SM
                       SCT035 FM020000 29006KT P6SM SKC=