##########################################################
# Query made at 02/17/2025 18:21:08 UTC
# Time interval: from 01/01/2012 00:00  to 01/31/2012 23:59  UTC
##########################################################

##########################################################
# KSEA, Seattle, Seattle-Tacoma International Airport (United States)
# WMO index: 72793. WIGOS ID: 0-20000-0-72793
# Latitude 47-27-00N. Longitude 122-17-59W. Altitude 130 m.
##########################################################

###################################
#  METAR/SPECI from KSEA
###################################
201201312353 METAR KSEA 312353Z 26003KT 10SM FEW045 BKN100 OVC200 09/03 A2999 RMK AO2 SLP163 T00890028 10094 20072 56021=
201201312253 METAR KSEA 312253Z 22004KT 10SM FEW045 SCT120 OVC200 08/03 A3000 RMK AO2 SLP167 T00830028=
201201312153 METAR KSEA 312153Z 21007KT 10SM FEW040 BKN110 OVC180 09/03 A3003 RMK AO2 SLP178 T00890028=
201201312053 METAR KSEA 312053Z 21005KT 10SM SCT041 OVC180 09/03 A3005 RMK AO2 SLP184 T00890033 58005=
201201311953 METAR KSEA 311953Z 23007KT 10SM SCT042 BKN200 09/03 A3007 RMK AO2 SLP190 T00890028=
201201311853 METAR KSEA 311853Z 20013KT 10SM FEW040 SCT200 09/03 A3007 RMK AO2 SLP190 T00940028=
201201311753 METAR KSEA 311753Z 19012KT 10SM SCT040 SCT200 07/02 A3006 RMK AO2 SLP189 T00720022 10072 20061 50001=
201201311653 METAR KSEA 311653Z 17008KT 10SM BKN030 BKN200 07/03 A3008 RMK AO2 SLP193 T00720028=
201201311553 METAR KSEA 311553Z 17008KT 10SM BKN034 BKN200 07/03 A3007 RMK AO2 SLP192 T00670028=
201201311453 METAR KSEA 311453Z 18012KT 10SM OVC035 06/03 A3006 RMK AO2 SLP188 T00610028 53006=
201201311353 METAR KSEA 311353Z 19009G17KT 10SM OVC032 06/03 A3005=
201201311304 SPECI KSEA 311304Z 20015KT 10SM FEW022 BKN035 OVC085 06/03 A3005 RMK AO2=
201201311304 SPECI KSEA 311304Z 20015KT 10SM FEW022 BKN035 OVC085 06/03 A3005 RMK AO2=
201201311253 METAR KSEA 311253Z 20016KT 10SM SCT024 BKN029 OVC080 06/03 A3005 RMK AO2 SLP184 T00610033=
201201311239 SPECI KSEA 311239Z 21010KT 10SM SCT023 BKN028 OVC090 06/03 A3005 RMK AO2=
201201311239 SPECI KSEA 311239Z 21010KT 10SM SCT023 BKN028 OVC090 06/03 A3005 RMK AO2=
201201311153 METAR KSEA 311153Z 21010KT 10SM FEW028 BKN034 OVC075 07/03 A3004 RMK AO2 SLP182 60000 70003 T00670033 10067 20061 53002=
201201311053 METAR KSEA 311053Z 21012KT 10SM BKN075 BKN095 06/03 A3004 RMK AO2 SLP179 T00610033=
201201310953 METAR KSEA 310953Z 21010KT 10SM OVC055 06/04 A3004 RMK AO2 RAB10E23 SLP181 P0000 T00610039=
201201310853 METAR KSEA 310853Z 21010KT 10SM FEW030 BKN048 BKN110 06/04 A3004 RMK AO2 SLP180 T00610044 53006=
201201310753 METAR KSEA 310753Z 20008KT 10SM FEW026 OVC100 07/04 A3003=
201201310653 METAR KSEA 310653Z 21008KT 10SM BKN036 OVC110 07/04 A3003 RMK AO2 SLP176 T00670044=
201201310553 METAR KSEA 310553Z 18008KT 10SM FEW041 SCT080 BKN110 07/04 A3002 RMK AO2 RAE0456 SLP173 P0000 60003 T00670044 10083 20061 58012=
201201310453 METAR KSEA 310453Z 19006KT 10SM -RA SCT034 BKN047 OVC055 07/04 A3004 RMK AO2 SLP180 P0002 T00670044=
201201310353 METAR KSEA 310353Z 19008KT 10SM -RA FEW029 BKN040 OVC048 07/05 A3005 RMK AO2 RAB25 SLP183 P0001 T00670050=
201201310253 METAR KSEA 310253Z 21006KT 10SM FEW013 BKN050 07/04 A3005 RMK AO2 SLP185 T00720044 58001=
201201310219 SPECI KSEA 310219Z 21010KT 10SM FEW022 BKN034 OVC044 07/04 A3005 RMK AO2=
201201310219 SPECI KSEA 310219Z 21010KT 10SM FEW022 BKN034 OVC044 07/04 A3005 RMK AO2=
201201310153 METAR KSEA 310153Z 20007KT 10SM BKN022 OVC034 07/04 A3005=
201201310127 SPECI KSEA 310127Z 21005KT 10SM BKN024 OVC045 08/04 A3006 RMK AO2=
201201310127 SPECI KSEA 310127Z 21005KT 10SM BKN024 OVC045 08/04 A3006 RMK AO2=
201201310053 METAR KSEA 310053Z 21006KT 10SM FEW034 BKN045 BKN250 08/04 A3006 RMK AO2 SLP187 T00780044=
201201302353 METAR KSEA 302353Z 21011KT 10SM FEW022 OVC036 08/04 A3006 RMK AO2 SLP187 60000 T00830039 10083 20072 53000=
201201302253 METAR KSEA 302253Z 20010KT 10SM FEW023 BKN034 BKN250 08/04 A3005 RMK AO2 SLP184 T00830039=
201201302211 SPECI KSEA 302211Z 20012KT 10SM FEW020 BKN031 BKN250 08/04 A3005 RMK AO2=
201201302211 SPECI KSEA 302211Z 20012KT 10SM FEW020 BKN031 BKN250 08/04 A3005 RMK AO2=
201201302153 METAR KSEA 302153Z 20012G20KT 10SM FEW020 BKN028 BKN250 08/04 A3005=
201201302053 METAR KSEA 302053Z 20014KT 10SM FEW017 BKN028 BKN250 08/04 A3006 RMK AO2 RAB02E16 SLP186 P0000 60000 T00780044 56006=
201201301953 METAR KSEA 301953Z 22013KT 10SM BKN017 BKN030 08/04 A3006 RMK AO2 SLP188 T00780039=
201201301853 METAR KSEA 301853Z 20012G17KT 10SM BKN016 BKN023 BKN200 08/04 A3007 RMK AO2 SLP189 T00780044=
201201301841 SPECI KSEA 301841Z 20011G17KT 10SM SCT014 BKN020 BKN200 07/04 A3007 RMK AO2=
201201301841 SPECI KSEA 301841Z 20011G17KT 10SM SCT014 BKN020 BKN200 07/04 A3007 RMK AO2=
201201301753 METAR KSEA 301753Z 20010KT 10SM BKN014 OVC025 07/04 A3008 RMK AO2 SLP193 T00720044 10072 20061 51018=
201201301653 METAR KSEA 301653Z 20010KT 10SM BKN014 BKN250 07/04 A3007 RMK AO2 SLP190 T00670044=
201201301553 METAR KSEA 301553Z 19009KT 10SM BKN013 06/04 A3005 RMK AO2 SLP183 T00610044=
201201301453 METAR KSEA 301453Z 19010KT 10SM OVC012 07/04 A3002 RMK AO2 SLP174 T00670044 51031=
201201301353 METAR KSEA 301353Z 22014G27KT 10SM BKN013 07/04 A3000 RMK AO2 PK WND 22028/1328 PRESRR SLP166 T00670044=
201201301253 METAR KSEA 301253Z 21012G22KT 10SM OVC011 07/05 A2996 RMK AO2 SLP153 T00720050=
201201301153 METAR KSEA 301153Z 21014G19KT 10SM OVC011 07/06 A2993 RMK AO2 SLP142 60033 70109 T00720056 10083 20072 51027=
201201301053 METAR KSEA 301053Z 22011KT 10SM OVC007 08/06 A2991 RMK AO2 SLP137 T00780061=
201201300953 METAR KSEA 300953Z 21010KT 10SM OVC007 08/07 A2988 RMK AO2 RAE36 SLP124 P0002 T00780067=
201201300853 METAR KSEA 300853Z 22008KT 8SM -RA OVC003 08/07 A2985=
201201300753 METAR KSEA 300753Z 22008KT 5SM RA BR OVC007 08/07 A2983 RMK AO2 SLP108 P0010 T00780072 400940039=
201201300739 SPECI KSEA 300739Z 21011KT 8SM -RA BKN005 OVC010 08/07 A2983 RMK AO2 P0008=
201201300739 SPECI KSEA 300739Z 21011KT 8SM -RA BKN005 OVC010 08/07 A2983 RMK AO2 P0008=
201201300726 SPECI KSEA 300726Z 21009KT 10SM -RA SCT005 BKN010 OVC030 08/07 A2982 RMK AO2 P0007=
201201300726 SPECI KSEA 300726Z 21009KT 10SM -RA SCT005 BKN010 OVC030 08/07 A2982 RMK AO2 P0007=
201201300701 SPECI KSEA 300701Z 20007KT 6SM RA BR BKN005 BKN008 OVC028 08/08 A2981 RMK AO2 P0003=
201201300701 SPECI KSEA 300701Z 20007KT 6SM RA BR BKN005 BKN008 OVC028 08/08 A2981 RMK AO2 P0003=
201201300653 METAR KSEA 300653Z 23003KT 6SM RA BR BKN003 OVC008 08/08 A2982 RMK AO2 SLP104 P0010 T00780078=
201201300627 SPECI KSEA 300627Z 20008KT 5SM -RA BR SCT005 BKN008 OVC015 08/08 A2981 RMK AO2 P0003=
201201300627 SPECI KSEA 300627Z 20008KT 5SM -RA BR SCT005 BKN008 OVC015 08/08 A2981 RMK AO2 P0003=
201201300614 SPECI KSEA 300614Z 19008KT 8SM -RA FEW006 BKN017 OVC043 08/08 A2980 RMK AO2 P0002=
201201300614 SPECI KSEA 300614Z 19008KT 8SM -RA FEW006 BKN017 OVC043 08/08 A2980 RMK AO2 P0002=
201201300553 METAR KSEA 300553Z 20009KT 8SM -RA FEW017 OVC047 08/07 A2979 RMK AO2 SLP097 P0007 60018 T00780072 10094 20078 53001=
201201300530 SPECI KSEA 300530Z 19012KT 10SM -RA SCT017 OVC047 08/07 A2979 RMK AO2 P0003=
201201300530 SPECI KSEA 300530Z 19012KT 10SM -RA SCT017 OVC047 08/07 A2979 RMK AO2 P0003=
201201300453 METAR KSEA 300453Z 19010KT 10SM -RA FEW011 OVC019 08/07 A2979 RMK AO2 RAB30 SLP094 P0001 T00830072=
201201300353 METAR KSEA 300353Z 20013KT 10SM BKN023 BKN031 OVC080 08/07 A2979 RMK AO2 RAE27 SLP096 P0001 T00830072=
201201300253 METAR KSEA 300253Z 19014KT 10SM -RA FEW023 BKN036 OVC055 09/08 A2979=
201201300223 SPECI KSEA 300223Z 19012KT 10SM -RA SCT023 SCT036 OVC055 09/08 A2980 RMK AO2 P0001=
201201300223 SPECI KSEA 300223Z 19012KT 10SM -RA SCT023 SCT036 OVC055 09/08 A2980 RMK AO2 P0001=
201201300153 METAR KSEA 300153Z 19014KT 10SM -RA BKN026 BKN042 OVC055 09/08 A2980 RMK AO2 SLP099 P0002 T00890083=
201201300115 SPECI KSEA 300115Z 19013KT 10SM -RA FEW007 BKN026 OVC055 09/08 A2981 RMK AO2 P0001=
201201300115 SPECI KSEA 300115Z 19013KT 10SM -RA FEW007 BKN026 OVC055 09/08 A2981 RMK AO2 P0001=
201201300053 METAR KSEA 300053Z 20014KT 10SM -RA BKN007 OVC010 09/08 A2982 RMK AO2 SLP104 P0006 T00890078=
201201292353 METAR KSEA 292353Z 20007KT 5SM -RA BR BKN007 OVC013 09/08 A2983 RMK AO2 SLP110 P0006 60020 T00940083 10094 20078 56023=
201201292326 SPECI KSEA 292326Z 19006KT 6SM -RA BR BKN007 BKN013 OVC047 09/08 A2984 RMK AO2 P0004=
201201292326 SPECI KSEA 292326Z 19006KT 6SM -RA BR BKN007 BKN013 OVC047 09/08 A2984 RMK AO2 P0004=
201201292253 METAR KSEA 292253Z 18006KT 6SM -RA BR FEW006 OVC023 09/08 A2985 RMK AO2 SLP114 P0006 T00940083=
201201292153 METAR KSEA 292153Z 18006KT 6SM -RA BR FEW013 OVC023 09/08 A2987 RMK AO2 RAB08 SLP124 P0002 T00940078=
201201292053 METAR KSEA 292053Z 18008KT 10SM SCT012 OVC027 09/09 A2990 RMK AO2 RAE27 SLP133 P0001 60006 T00940089 58024=
201201291953 METAR KSEA 291953Z 18009KT 9SM -RA FEW015 BKN019 OVC024 09/08 A2994 RMK AO2 SLP146 P0003 T00890083=
201201291853 METAR KSEA 291853Z 17009KT 10SM -RA BKN020 OVC026 08/08 A2996 RMK AO2 SLP154 P0002 T00830078=
201201291753 METAR KSEA 291753Z 17007KT 6SM -RA BR FEW004 BKN020 OVC026 08/08 A2997 RMK AO2 SLP157 P0009 60038 T00780078 10078 20056 56010=
201201291730 SPECI KSEA 291730Z 19008KT 2SM -RA BR BKN004 OVC022 08/07 A2998 RMK AO2 SFC VIS 3 P0006=
201201291730 SPECI KSEA 291730Z 19008KT 2SM -RA BR BKN004 OVC022 08/07 A2998 RMK AO2 SFC VIS 3 P0006=
201201291654 SPECI KSEA 291654Z 20008KT 2SM RA BR FEW004 SCT018 OVC025 08/08 A2998 RMK AO2 P0000=
201201291654 SPECI KSEA 291654Z 20008KT 2SM RA BR FEW004 SCT018 OVC025 08/08 A2998 RMK AO2 P0000=
201201291653 METAR KSEA 291653Z 20008KT 3SM RA BR FEW004 OVC025 08/08 A2998 RMK AO2 SLP161 P0008 T00780078=
201201291650 SPECI KSEA 291650Z 20007KT 2 1/2SM -RA BR FEW004 OVC027 08/08 A2998 RMK AO2 P0007=
201201291650 SPECI KSEA 291650Z 20007KT 2 1/2SM -RA BR FEW004 OVC027 08/08 A2998 RMK AO2 P0007=
201201291553 METAR KSEA 291553Z 18010KT 6SM -RA BR FEW025 OVC041 07/07 A2998 RMK AO2 SLP160 P0005 T00720067=
201201291453 METAR KSEA 291453Z 20013G19KT 5SM -RA BR OVC025 07/07 A3000 RMK AO2 SLP167 P0004 60016 T00720067 58008=
201201291353 METAR KSEA 291353Z 18009KT 9SM -RA FEW015 BKN023 OVC030 06/04 A3001 RMK AO2 SLP171 P0005 T00610044=
201201291253 METAR KSEA 291253Z 21006KT 10SM -RA FEW015 BKN030 OVC040 07/04 A3002 RMK AO2 SLP175 P0007 T00670039=
201201291153 METAR KSEA 291153Z 17010KT 7SM RA FEW038 OVC060 06/02 A3002 RMK AO2 RAB04 SLP175 P0011 60011 70011 T00610022 10083 20039 58006=
201201291053 METAR KSEA 291053Z 27007KT 10SM OVC038 08/00 A3006 RMK AO2 SLP187 T00780000=
201201290953 METAR KSEA 290953Z 00000KT 8SM BKN042 BKN075 OVC130 05/01 A3006 RMK AO2 SLP188 T00500006=
201201290853 METAR KSEA 290853Z 15008KT 8SM FEW044 SCT075 OVC200 05/M01 A3004 RMK AO2 SLP182 T00501011 58041=
201201290753 METAR KSEA 290753Z 20006KT 9SM FEW044 SCT075 04/M02 A3010 RMK AO2 SLP203 T00441017 400670006=
201201290653 METAR KSEA 290653Z 00000KT 8SM SCT044 BKN075 06/M01 A3015 RMK AO2 SLP218 T00611011=
201201290553 METAR KSEA 290553Z 17003KT 8SM OVC044 06/M02 A3016 RMK AO2 SLP224 60000 T00611017 10067 20056 57028=
201201290453 METAR KSEA 290453Z 16003KT 10SM OVC040 06/M02 A3019 RMK AO2 SLP232 T00611022=
201201290353 METAR KSEA 290353Z 19004KT 10SM BKN070 06/M02 A3022 RMK AO2 SLP244 T00561017=
201201290253 METAR KSEA 290253Z 16004KT 10SM FEW065 BKN130 06/M02 A3025 RMK AO2 SLP252 60000 T00561022 56016=
201201290153 METAR KSEA 290153Z 16004KT 10SM OVC065 06/M02 A3026 RMK AO2 SLP258 T00611017=
201201290053 METAR KSEA 290053Z 15005KT 10SM BKN065 OVC100 06/M02 A3028 RMK AO2 RAE2357 SLP263 P0000 T00611017=
201201282353 METAR KSEA 282353Z 13007KT 10SM -RA OVC047 06/M01 A3030 RMK AO2 SLP269 P0000 60000 T00611006 10067 20028 58017=
201201282253 METAR KSEA 282253Z 16007KT 10SM -RA BKN047 OVC070 07/M01 A3032 RMK AO2 RAB33 SLP275 P0000 T00671011=
201201282153 METAR KSEA 282153Z 17006KT 10SM BKN050 OVC070 06/M01 A3033 RMK AO2 RAB35E44 SLP280 P0000 T00611011=
201201282053 METAR KSEA 282053Z 21007KT 10SM BKN050 OVC070 05/M02 A3035 RMK AO2 RAB41E50 SLP286 P0000 60000 T00501017 58015=
201201281953 METAR KSEA 281953Z 17004KT 10SM BKN050 OVC070 04/M01 A3036 RMK AO2 RAB29E40 SLP290 P0000 T00391006=
201201281853 METAR KSEA 281853Z 19004KT 10SM BKN050 OVC070 03/M01 A3039 RMK AO2 SLP300 T00331006=
201201281753 METAR KSEA 281753Z 16006KT 10SM SCT050 BKN070 OVC100 03/M02 A3039 RMK AO2 SLP302 T00281017 10028 20006 58016=
201201281653 METAR KSEA 281653Z 15005KT 10SM BKN050 OVC070 02/M02 A3041 RMK AO2 SLP309 T00221022=
201201281553 METAR KSEA 281553Z 14005KT 10SM BKN060 OVC070 02/M02 A3044 RMK AO2 SLP318 T00171022=
201201281453 METAR KSEA 281453Z 15003KT 10SM OVC055 02/M02 A3044 RMK AO2 SLP317 T00171022 55003=
201201281353 METAR KSEA 281353Z 00000KT 10SM BKN065 OVC100 01/M02 A3043 RMK AO2 SLP316 T00111022=
201201281253 METAR KSEA 281253Z 16004KT 10SM FEW085 SCT110 OVC200 01/M03 A3044 RMK AO2 SLP317 T00111028=
201201281153 METAR KSEA 281153Z 14006KT 10SM BKN100 OVC200 01/M03 A3045 RMK AO2 SLP320 T00111028 10017 20006 58014=
201201281053 METAR KSEA 281053Z 16003KT 10SM OVC100 01/M02 A3048 RMK AO2 SLP330 T00111022=
201201280953 METAR KSEA 280953Z 12005KT 10SM BKN120 OVC200 01/M02 A3047=
201201280853 METAR KSEA 280853Z 00000KT 10SM BKN200 01/M02 A3049 RMK AO2 SLP334 T00061022 57003=
201201280753 METAR KSEA 280753Z 12006KT 10SM BKN200 01/M02 A3049 RMK AO2 SLP334 T00111022 400671022=
201201280653 METAR KSEA 280653Z 13005KT 10SM FEW250 01/M02 A3050 RMK AO2 SLP338 T00111022=
201201280553 METAR KSEA 280553Z 12006KT 10SM FEW250 02/M02 A3050 RMK AO2 SLP338 T00171022 10061 20011 56001=
201201280453 METAR KSEA 280453Z 00000KT 10SM FEW250 03/M02 A3050 RMK AO2 SLP339 T00281022=
201201280353 METAR KSEA 280353Z 35003KT 10SM CLR 02/M03 A3050 RMK AO2 SLP338 T00221033=
201201280253 METAR KSEA 280253Z 03003KT 10SM FEW250 03/M03 A3050 RMK AO2 SLP339 T00331033 58015=
201201280153 METAR KSEA 280153Z 01004KT 10SM FEW120 SCT250 02/M03 A3053 RMK AO2 SLP351 T00221028=
201201280053 METAR KSEA 280053Z 35004KT 10SM FEW120 BKN250 04/M03 A3054 RMK AO2 SLP351 T00391028=
201201272353 METAR KSEA 272353Z 36003KT 10SM FEW020 SCT250 06/M03 A3055 RMK AO2 SLP354 T00611028 10067 20017 58006=
201201272253 METAR KSEA 272253Z 34004KT 10SM FEW020 SCT250 07/M02 A3056 RMK AO2 SLP358 T00671017=
201201272153 METAR KSEA 272153Z 36004KT 10SM FEW015 SCT250 07/M02 A3056 RMK AO2 SLP359 T00671017=
201201272053 METAR KSEA 272053Z 00000KT 10SM FEW010 SCT250 06/M02 A3057 RMK AO2 SLP360 T00561022 58012=
201201271953 METAR KSEA 271953Z 00000KT 10SM FEW005 SCT250 04/M02 A3059=
201201271853 METAR KSEA 271853Z 13005KT 10SM FEW004 SCT250 03/M02 A3060 RMK AO2 SLP372 T00281017=
201201271753 METAR KSEA 271753Z 00000KT 10SM FEW004 SCT250 02/M02 A3060 RMK AO2 SLP374 FG BANK W T00171022 10017 21022 55004=
201201271653 METAR KSEA 271653Z 15004KT 10SM FEW004 SCT200 01/M02 A3060 RMK AO2 SLP373 T00061017=
201201271553 METAR KSEA 271553Z 15004KT 10SM FEW004 SCT200 M01/M03 A3060 RMK AO2 SLP372 T10111028=
201201271453 METAR KSEA 271453Z 00000KT 6SM BR FEW004 SCT050 SCT200 M02/M03 A3061 RMK AO2 SLP378 T10171028 58004=
201201271439 SPECI KSEA 271439Z 00000KT 6SM BR FEW004 SCT045 M01/M02 A3062 RMK AO2=
201201271439 SPECI KSEA 271439Z 00000KT 6SM BR FEW004 SCT045 M01/M02 A3062 RMK AO2=
201201271353 METAR KSEA 271353Z 00000KT 6SM BR FEW045 M01/M02 A3062 RMK AO2 SLP379 T10111022=
201201271253 METAR KSEA 271253Z 11004KT 10SM FEW045 M01/M02 A3062 RMK AO2 SLP380 T10111022=
201201271153 METAR KSEA 271153Z 00000KT 10SM SCT045 M01/M02 A3063 RMK AO2 SLP381 70008 T10061017 10022 21011 53011=
201201271053 METAR KSEA 271053Z 00000KT 10SM FEW029 M01/M03 A3061 RMK AO2 SLP375 T10061028=
201201270953 METAR KSEA 270953Z 13003KT 10SM FEW029 01/M02 A3059 RMK AO2 SLP370 T00061017=
201201270853 METAR KSEA 270853Z 15003KT 10SM CLR 00/M02 A3059 RMK AO2 SLP370 T00001017 51006=
201201270753 METAR KSEA 270753Z 13006KT 10SM CLR 02/M01 A3059 RMK AO2 SLP369 T00171011 400890011=
201201270653 METAR KSEA 270653Z 12005KT 10SM FEW080 02/M01 A3059 RMK AO2 SLP367 T00171006=
201201270553 METAR KSEA 270553Z 12005KT 10SM FEW030 SCT080 02/M01 A3058 RMK AO2 SLP364 T00221006 10078 20022 51027=
201201270453 METAR KSEA 270453Z 13006KT 10SM FEW030 SCT080 03/00 A3055 RMK AO2 SLP355 T00330000=
201201270353 METAR KSEA 270353Z 10006KT 10SM SCT024 BKN031 BKN080 04/01 A3053 RMK AO2 SLP347 T00440006=
201201270253 METAR KSEA 270253Z 12004KT 10SM FEW034 SCT070 04/M01 A3050 RMK AO2 SLP337 T00391006 53027=
201201270153 METAR KSEA 270153Z 21004KT 10SM SCT050 BKN070 05/M01 A3047 RMK AO2 SLP327 T00501006=
201201270053 METAR KSEA 270053Z 20007KT 10SM FEW040 SCT049 BKN070 06/M01 A3044 RMK AO2 SLP315 T00611006=
201201262353 METAR KSEA 262353Z 23008KT 10SM SCT039 BKN047 08/M02 A3041 RMK AO2 SLP308 T00781017 10078 20039 53019=
201201262253 METAR KSEA 262253Z 23003KT 10SM SCT030 07/M01 A3039 RMK AO2 SLP301 T00721006=
201201262153 METAR KSEA 262153Z 22006KT 10SM SCT027 07/00 A3038 RMK AO2 SLP295 T00720000=
201201262141 SPECI KSEA 262141Z 23006KT 10SM SCT027 SCT034 07/01 A3037 RMK AO2=
201201262141 SPECI KSEA 262141Z 23006KT 10SM SCT027 SCT034 07/01 A3037 RMK AO2=
201201262053 METAR KSEA 262053Z 23008KT 10SM BKN024 07/01 A3036 RMK AO2 SLP289 T00670011 51019=
201201262019 SPECI KSEA 262019Z 23011KT 10SM BKN022 BKN065 07/02 A3035 RMK AO2=
201201262019 SPECI KSEA 262019Z 23011KT 10SM BKN022 BKN065 07/02 A3035 RMK AO2=
201201261953 METAR KSEA 261953Z 24011KT 10SM SCT022 SCT065 06/01 A3034 RMK AO2 SLP284 T00610011=
201201261939 SPECI KSEA 261939Z 23010KT 10SM SCT022 SCT065 06/01 A3034 RMK AO2=
201201261939 SPECI KSEA 261939Z 23010KT 10SM SCT022 SCT065 06/01 A3034 RMK AO2=
201201261931 SPECI KSEA 261931Z 23010KT 10SM BKN021 BKN065 06/01 A3034 RMK AO2=
201201261931 SPECI KSEA 261931Z 23010KT 10SM BKN021 BKN065 06/01 A3034 RMK AO2=
201201261853 METAR KSEA 261853Z 21011KT 10SM SCT016 SCT044 BKN200 06/02 A3033 RMK AO2 SLP280 T00560017=
201201261843 SPECI KSEA 261843Z 20011KT 10SM SCT016 SCT044 BKN200 06/02 A3033 RMK AO2=
201201261843 SPECI KSEA 261843Z 20011KT 10SM SCT016 SCT044 BKN200 06/02 A3033 RMK AO2=
201201261756 SPECI KSEA 261756Z 13008KT 10SM BKN020 BKN034 04/03 A3030 RMK AO2=
201201261756 SPECI KSEA 261756Z 13008KT 10SM BKN020 BKN034 04/03 A3030 RMK AO2=
201201261753 METAR KSEA 261753Z 13009KT 10SM BKN020 BKN034 04/03 A3030 RMK AO2 RAE52 SLP270 P0001 60008 T00390033 10061 20028 53043=
201201261734 SPECI KSEA 261734Z 14010KT 10SM -RA FEW020 BKN034 04/03 A3029 RMK AO2 P0001=
201201261734 SPECI KSEA 261734Z 14010KT 10SM -RA FEW020 BKN034 04/03 A3029 RMK AO2 P0001=
201201261653 METAR KSEA 261653Z 15007KT 9SM -RA FEW015 OVC028 03/03 A3026 RMK AO2 SLP256 P0001 T00330028 $=
201201261553 METAR KSEA 261553Z 11009KT 10SM -RA FEW012 OVC022 03/03 A3021 RMK AO2 SLP239 P0006 T00330028 $=
201201261453 METAR KSEA 261453Z 07013KT 8SM RA FEW012 OVC020 05/01 A3017 RMK AO2 RAB29 SLP225 P0000 60000 T00500011 53059=
201201261353 METAR KSEA 261353Z 19014KT 10SM BKN021 05/02 A3010 RMK AO2 SLP202 T00500017=
201201261253 METAR KSEA 261253Z 21014G21KT 10SM BKN019 OVC024 06/03 A3005 RMK AO2 PK WND 22026/1237 SLP184 T00610028=
201201261153 METAR KSEA 261153Z 20017G27KT 10SM OVC015 06/03 A3000 RMK AO2 PK WND 20027/1147 SLP166 60021 70043 T00610033 10089 20056 53021=
201201261101 SPECI KSEA 261101Z 21013G20KT 10SM BKN019 07/04 A2996 RMK AO2=
201201261101 SPECI KSEA 261101Z 21013G20KT 10SM BKN019 07/04 A2996 RMK AO2=
201201261053 METAR KSEA 261053Z 20013G23KT 10SM SCT019 BKN060 07/04 A2996 RMK AO2 PK WND 22031/0954 RAE08 SLP152 P0001 T00670044=
201201261018 SPECI KSEA 261018Z 21015G24KT 10SM FEW006 BKN060 08/07 A2994 RMK AO2 PK WND 22031/0954 RAE08 P0001=
201201261018 SPECI KSEA 261018Z 21015G24KT 10SM FEW006 BKN060 08/07 A2994 RMK AO2 PK WND 22031/0954 RAE08 P0001=
201201261004 SPECI KSEA 261004Z 20021G29KT 10SM -RA FEW006 BKN020 OVC049 08/08 A2993 RMK AO2 PK WND 22031/0954 P0001=
201201261004 SPECI KSEA 261004Z 20021G29KT 10SM -RA FEW006 BKN020 OVC049 08/08 A2993 RMK AO2 PK WND 22031/0954 P0001=
201201260953 METAR KSEA 260953Z 21021G33KT 5SM -RA BR FEW006 BKN014 OVC028 08/08 A2995 RMK AO2 PK WND 21033/0947 PRESRR SLP148 P0003 T00830078=
201201260944 SPECI KSEA 260944Z 21020G30KT 7SM -RA FEW010 BKN021 OVC028 08/08 A2993 RMK AO2 PK WND 19033/0909 P0003=
201201260944 SPECI KSEA 260944Z 21020G30KT 7SM -RA FEW010 BKN021 OVC028 08/08 A2993 RMK AO2 PK WND 19033/0909 P0003=
201201260853 METAR KSEA 260853Z 19018G25KT 10SM -RA FEW025 OVC035 09/07 A2993 RMK AO2 SLP143 P0009 60017 T00890072 56041=
201201260753 METAR KSEA 260753Z 18012KT 8SM RA BKN030 OVC037 08/06 A2997 RMK AO2 SLP157 P0004 T00830056 400890044=
201201260653 METAR KSEA 260653Z 16007KT 8SM -RA OVC035 07/04 A3001 RMK AO2 SLP171 P0004 T00670044=
201201260553 METAR KSEA 260553Z 14006KT 10SM -RA SCT037 OVC046 06/03 A3006 RMK AO2 SLP186 P0002 60003 T00560028 10078 20050 58040=
201201260453 METAR KSEA 260453Z 14008KT 10SM -RA SCT037 BKN055 OVC085 06/03 A3009 RMK AO2 SLP199 P0000 T00560028=
201201260353 METAR KSEA 260353Z 14004KT 10SM -RA BKN033 BKN042 OVC049 06/03 A3015 RMK AO2 RAB05 SLP218 P0001 T00610028=
201201260253 METAR KSEA 260253Z 12007KT 10SM FEW050 SCT060 OVC090 07/02 A3018 RMK AO2 RAB0155E05 SLP227 P0000 60000 T00720017 58031=
201201260153 METAR KSEA 260153Z 00000KT 10SM FEW031 SCT040 OVC050 07/02 A3021 RMK AO2 SLP240 T00670017=
201201260053 METAR KSEA 260053Z 21006KT 10SM FEW020 BKN095 OVC200 07/01 A3025 RMK AO2 SLP251 T00670011=
201201252353 METAR KSEA 252353Z 22014KT 10SM FEW020 BKN100 BKN200 08/02 A3027 RMK AO2 SLP258 60000 T00780017 10089 20044 51006=
201201252253 METAR KSEA 252253Z 22014G23KT 10SM FEW020 SCT120 BKN200 08/02 A3027 RMK AO2 PK WND 22027/2233 SLP258 T00780017=
201201252153 METAR KSEA 252153Z 23018G25KT 10SM FEW020 SCT140 BKN200 08/02 A3026 RMK AO2 SLP256 T00830022=
201201252134 SPECI KSEA 252134Z 22017G24KT 10SM SCT020 SCT140 BKN200 08/03 A3026 RMK AO2=
201201252134 SPECI KSEA 252134Z 22017G24KT 10SM SCT020 SCT140 BKN200 08/03 A3026 RMK AO2=
201201252053 METAR KSEA 252053Z 21011KT 10SM BKN020 BKN140 OVC200 08/04 A3025 RMK AO2 SLP251 60000 T00830044 51013=
201201252041 SPECI KSEA 252041Z 23011G19KT 10SM BKN020 BKN140 BKN200 08/04 A3025 RMK AO2=
201201252041 SPECI KSEA 252041Z 23011G19KT 10SM BKN020 BKN140 BKN200 08/04 A3025 RMK AO2=
201201252023 SPECI KSEA 252023Z 22013G21KT 10SM FEW014 SCT020 BKN140 OVC200 08/04 A3026 RMK AO2=
201201252023 SPECI KSEA 252023Z 22013G21KT 10SM FEW014 SCT020 BKN140 OVC200 08/04 A3026 RMK AO2=
201201251953 METAR KSEA 251953Z 22017G23KT 10SM SCT013 BKN020 BKN200 08/04 A3025 RMK AO2 SLP252 T00780044=
201201251921 SPECI KSEA 251921Z 20010KT 10SM BKN013 OVC020 07/05 A3025 RMK AO2=
201201251921 SPECI KSEA 251921Z 20010KT 10SM BKN013 OVC020 07/05 A3025 RMK AO2=
201201251853 METAR KSEA 251853Z 19014G21KT 10SM FEW009 BKN021 OVC030 06/04 A3025 RMK AO2 RAE02B33E47 SLP251 P0000 T00610044=
201201251755 SPECI KSEA 251755Z 18010KT 7SM -RA FEW009 BKN028 BKN200 04/03 A3021 RMK AO2 P0000=
201201251755 SPECI KSEA 251755Z 18010KT 7SM -RA FEW009 BKN028 BKN200 04/03 A3021 RMK AO2 P0000=
201201251753 METAR KSEA 251753Z 18009KT 7SM -RA FEW009 BKN028 BKN200 05/03 A3021 RMK AO2 SLP239 P0008 60019 T00500033 10072 20044 53010=
201201251740 SPECI KSEA 251740Z 21009KT 4SM -RA BR FEW009 BKN013 OVC023 04/03 A3022 RMK AO2 P0007=
201201251740 SPECI KSEA 251740Z 21009KT 4SM -RA BR FEW009 BKN013 OVC023 04/03 A3022 RMK AO2 P0007=
201201251714 SPECI KSEA 251714Z 23009KT 4SM RA BR SCT012 OVC027 05/03 A3022 RMK AO2 PRESRR P0002=
201201251714 SPECI KSEA 251714Z 23009KT 4SM RA BR SCT012 OVC027 05/03 A3022 RMK AO2 PRESRR P0002=
201201251653 METAR KSEA 251653Z 20007KT 6SM -RA BR FEW011 SCT025 OVC032 05/03 A3020 RMK AO2 SLP234 P0002 T00500033=
201201251553 METAR KSEA 251553Z 21009G18KT 7SM -RA FEW026 OVC034 05/03 A3019 RMK AO2 SLP230 P0002 T00500033=
201201251453 METAR KSEA 251453Z 20004KT 10SM -RA SCT025 OVC042 05/04 A3018 RMK AO2 SLP229 P0003 60007 T00500039 51034=
201201251412 SPECI KSEA 251412Z 23008KT 6SM -RA BR FEW011 BKN025 OVC046 05/03 A3017 RMK AO2 P0001=
201201251412 SPECI KSEA 251412Z 23008KT 6SM -RA BR FEW011 BKN025 OVC046 05/03 A3017 RMK AO2 P0001=
201201251353 METAR KSEA 251353Z 24005KT 8SM -RA SCT019 BKN032 OVC047 05/03 A3016 RMK AO2 SLP223 P0004 T00500033=
201201251339 SPECI KSEA 251339Z 27005KT 6SM -RA BR FEW016 BKN028 OVC036 05/03 A3016 RMK AO2 P0003=
201201251339 SPECI KSEA 251339Z 27005KT 6SM -RA BR FEW016 BKN028 OVC036 05/03 A3016 RMK AO2 P0003=
201201251253 METAR KSEA 251253Z 25013G19KT 10SM -RA BKN038 BKN050 06/02 A3015 RMK AO2 PK WND 24032/1224 RAB40 SLP219 P0000 T00610022=
201201251153 METAR KSEA 251153Z 23022G35KT 10SM BKN080 07/01 A3008 RMK AO2 PK WND 24035/1146 SLP195 60001 70034 T00720006 10100 20061 52041=
201201251053 METAR KSEA 251053Z COR 20017G25KT 10SM SCT024 BKN032 06/03 A3003 RMK AO2 PK WND 22028/1013 SLP178 T00610028=
201201250953 METAR KSEA 250953Z 23014G33KT 10SM SCT026 07/02 A3001 RMK AO2 PK WND 22034/0927 SLP170 T00720017=
201201250853 METAR KSEA 250853Z 24015G28KT 10SM SCT024 08/03 A2996 RMK AO2 PK WND 24039/0810 SLP153 60001 T00780028 53063=
201201250753 METAR KSEA 250753Z 24026G38KT 10SM SCT025 09/03 A2988 RMK AO2 PK WND 23045/0726 SLP126 T00890028 401000022=
201201250653 METAR KSEA 250653Z 22024G36KT 9SM BKN035 BKN060 09/05 A2984 RMK AO2 PK WND 23043/0638 RAB0556E37 SLP114 P0001 T00940050=
201201250553 METAR KSEA 250553Z 21022G41KT 10SM FEW017 SCT040 SCT080 10/08 A2977 RMK AO2 PK WND 22041/0546 RAB0456E18 SLP090 P0002 60010 T01000083 10100 20072 53023=
201201250453 METAR KSEA 250453Z 21021G32KT 10SM FEW008 SCT015 BKN100 10/08 A2975 RMK AO2 PK WND 22035/0428 RAE02 PRESRR SLP083 P0000 T01000083=
201201250443 SPECI KSEA 250443Z 21021G31KT 10SM FEW008 BKN015 10/08 A2974 RMK AO2 PK WND 22035/0428 RAE02 P0000=
201201250443 SPECI KSEA 250443Z 21021G31KT 10SM FEW008 BKN015 10/08 A2974 RMK AO2 PK WND 22035/0428 RAE02 P0000=
201201250353 METAR KSEA 250353Z 21022G30KT 10SM -RA SCT015 BKN019 10/08 A2972 RMK AO2 PK WND 21033/0341 RAB10E29B48 SLP072 P0001 T01000083=
201201250326 SPECI KSEA 250326Z 21019G30KT 10SM -RA SCT008 BKN017 BKN030 10/09 A2971 RMK AO2 PK WND 20030/0322 RAB10 P0000=
201201250326 SPECI KSEA 250326Z 21019G30KT 10SM -RA SCT008 BKN017 BKN030 10/09 A2971 RMK AO2 PK WND 20030/0322 RAB10 P0000=
201201250253 METAR KSEA 250253Z 20019G27KT 10SM FEW005 BKN008 OVC015 09/08 A2970 RMK AO2 PK WND 20030/0239 RAE45 SLP066 P0001 60007 T00940083 53005=
201201250224 SPECI KSEA 250224Z 21019G30KT 7SM -RA BKN006 OVC011 09/08 A2970 RMK AO2 PK WND 22030/0224 P0001=
201201250224 SPECI KSEA 250224Z 21019G30KT 7SM -RA BKN006 OVC011 09/08 A2970 RMK AO2 PK WND 22030/0224 P0001=
201201250153 METAR KSEA 250153Z 19016G22KT 10SM -RA BKN016 OVC023 09/08 A2968 RMK AO2 SLP059 P0003 T00890078=
201201250053 METAR KSEA 250053Z 15008KT 8SM -RA OVC029 08/07 A2966 RMK AO2 SLP051 P0003 T00780067=
201201242353 METAR KSEA 242353Z 17003KT 6SM -RA BR OVC027 07/07 A2969 RMK AO2 SLP063 P0005 60011 T00720067 10072 20039 55031=
201201242327 SPECI KSEA 242327Z 14008KT 6SM -RA BR FEW028 OVC035 07/06 A2967 RMK AO2 P0003=
201201242327 SPECI KSEA 242327Z 14008KT 6SM -RA BR FEW028 OVC035 07/06 A2967 RMK AO2 P0003=
201201242253 METAR KSEA 242253Z 14007KT 9SM -RA BKN026 OVC034 07/06 A2968 RMK AO2 RAB2156 SLP061 P0006 T00670056=
201201242227 SPECI KSEA 242227Z 15007KT 3SM -RA BR FEW026 OVC036 07/06 A2970 RMK AO2 RAB2156 P0003=
201201242227 SPECI KSEA 242227Z 15007KT 3SM -RA BR FEW026 OVC036 07/06 A2970 RMK AO2 RAB2156 P0003=
201201242216 SPECI KSEA 242216Z 16009KT 4SM -RA BR BKN028 OVC034 06/05 A2970 RMK AO2 RAB2156 P0001=
201201242216 SPECI KSEA 242216Z 16009KT 4SM -RA BR BKN028 OVC034 06/05 A2970 RMK AO2 RAB2156 P0001=
201201242153 SPECI KSEA 242153Z 15006KT 6SM BR FEW012 OVC030 07/04 A2972 RMK AO2 RAB09E51 SLP074 P0000 T00670044=
201201242144 SPECI KSEA 242144Z 14006KT 3SM -RA BR FEW012 OVC030 06/04 A2972 RMK AO2 RAB09 PRESFR P0000=
201201242144 SPECI KSEA 242144Z 14006KT 3SM -RA BR FEW012 OVC030 06/04 A2972 RMK AO2 RAB09 PRESFR P0000=
201201242139 SPECI KSEA 242139Z 15005KT 3SM -RA BR FEW012 OVC030 06/04 A2973 RMK AO2 RAB09 P0000=
201201242139 SPECI KSEA 242139Z 15005KT 3SM -RA BR FEW012 OVC030 06/04 A2973 RMK AO2 RAB09 P0000=
201201242053 METAR KSEA 242053Z 15004KT 10SM FEW015 OVC027 06/03 A2978 RMK AO2 SLP094 60000 T00560033 58023=
201201242044 SPECI KSEA 242044Z 14006KT 10SM FEW015 OVC027 06/03 A2979 RMK AO2=
201201242044 SPECI KSEA 242044Z 14006KT 10SM FEW015 OVC027 06/03 A2979 RMK AO2=
201201241953 METAR KSEA 241953Z 16005KT 10SM FEW027 OVC036 05/03 A2982 RMK AO2 RAE51 PRESFR SLP105 P0000 T00500028=
201201241853 METAR KSEA 241853Z 00000KT 10SM -RA FEW025 OVC032 04/02 A2987 RMK AO2 SLP125 P0000 T00390022=
201201241753 METAR KSEA 241753Z 13014KT 9SM -RA FEW028 BKN036 OVC055 04/02 A2985 RMK AO2 PRESFR SLP118 P0004 60012 T00390017 10044 20022 58029=
201201241653 METAR KSEA 241653Z 14005KT 7SM -RA OVC031 04/01 A2991 RMK AO2 SLP137 P0002 T00390011=
201201241553 METAR KSEA 241553Z 12006KT 7SM -RA FEW025 OVC033 04/01 A2992 RMK AO2 SLP139 P0003 T00440011=
201201241513 SPECI KSEA 241513Z 11007KT 10SM -RA SCT027 OVC039 03/01 A2994 RMK AO2 UPB05E07 P0000=
201201241513 SPECI KSEA 241513Z 11007KT 10SM -RA SCT027 OVC039 03/01 A2994 RMK AO2 UPB05E07 P0000=
201201241453 METAR KSEA 241453Z 20003KT 9SM -RA BKN027 OVC040 03/01 A2994 RMK AO2 SLP147 P0002 60003 T00280011 58018=
201201241408 SPECI KSEA 241408Z 14006KT 6SM -RA BR BKN025 OVC034 03/01 A2999 RMK AO2 P0000=
201201241408 SPECI KSEA 241408Z 14006KT 6SM -RA BR BKN025 OVC034 03/01 A2999 RMK AO2 P0000=
201201241353 METAR KSEA 241353Z 13007KT 8SM -RA FEW028 OVC034 03/01 A2999 RMK AO2 RAB12 SLP165 P0001 T00280011=
201201241253 METAR KSEA 241253Z 22004KT 10SM OVC060 03/01 A3001 RMK AO2 SLP171 T00280011=
201201241153 METAR KSEA 241153Z 13003KT 10SM OVC080 03/M01 A2999 RMK AO2 SLP164 T00281006 10039 20022 53002=
201201241053 METAR KSEA 241053Z 16003KT 10SM FEW080 BKN100 OVC110 03/M01 A2999 RMK AO2 SLP164 T00331011=
201201240953 METAR KSEA 240953Z 15005KT 10SM SCT110 OVC200 03/M01 A2998 RMK AO2 SLP160 T00281011=
201201240853 METAR KSEA 240853Z 13003KT 10SM OVC200 03/M01 A2999 RMK AO2 SLP163 T00331011 58011=
201201240753 METAR KSEA 240753Z 15004KT 10SM OVC200 03/M01 A3000 RMK AO2 SLP168 T00281006 400830011=
201201240653 METAR KSEA 240653Z 12006KT 10SM OVC200 03/M01 A3003=
201201240553 METAR KSEA 240553Z 12009KT 10SM OVC200 03/M01 A3002 RMK AO2 SLP175 T00331006 10072 20033 50002=
201201240453 METAR KSEA 240453Z 13007KT 10SM OVC200 04/M01 A3003 RMK AO2 SLP178 T00391006=
201201240353 METAR KSEA 240353Z 14007KT 10SM BKN200 04/00 A3002 RMK AO2 SLP176 T00390000=
201201240253 METAR KSEA 240253Z 15005KT 10SM SCT200 04/01 A3001 RMK AO2 SLP173 T00440006 50002=
201201240153 METAR KSEA 240153Z 15004KT 10SM BKN200 05/00 A3002 RMK AO2 SLP173 T00500000=
201201240053 METAR KSEA 240053Z 23004KT 10SM FEW040 BKN200 06/01 A3002 RMK AO2 SLP174 T00610006=
201201232353 METAR KSEA 232353Z 23008KT 10SM FEW040 BKN200 08/00 A3001 RMK AO2 SLP170 T00780000 10083 20050 53001=
201201232253 METAR KSEA 232253Z 22007KT 10SM FEW040 SCT200 08/02 A3000 RMK AO2 SLP167 T00830017=
201201232153 METAR KSEA 232153Z 20009KT 10SM FEW040 SCT200 08/02 A3000 RMK AO2 SLP166 T00780022=
201201232053 METAR KSEA 232053Z 17007KT 10SM FEW040 SCT200 08/02 A3001 RMK AO2 SLP169 T00780017 51009=
201201231953 METAR KSEA 231953Z 20008KT 10SM CLR 07/02 A2999 RMK AO2 SLP164 T00670017=
201201231853 METAR KSEA 231853Z 17004KT 10SM BKN034 BKN043 05/01 A3000 RMK AO2 SLP167 T00500006=
201201231753 METAR KSEA 231753Z 17005KT 10SM SCT045 BKN200 05/01 A2998 RMK AO2 SLP161 T00500011 10050 20011 51026=
201201231653 METAR KSEA 231653Z 19004KT 10SM BKN041 BKN200 03/M01 A2996 RMK AO2 SLP154 T00281006=
201201231553 METAR KSEA 231553Z 17005KT 10SM FEW028 SCT200 01/M01 A2993 RMK AO2 SLP144 T00111006=
201201231453 METAR KSEA 231453Z 16010KT 10SM FEW025 03/M01 A2990 RMK AO2 SLP134 T00281006 53012=
201201231353 METAR KSEA 231353Z 18005KT 10SM FEW025 SCT070 03/00 A2989 RMK AO2 SLP130 T00280000=
201201231253 METAR KSEA 231253Z 17009KT 10SM FEW025 SCT070 03/01 A2988 RMK AO2 SLP126 T00330011=
201201231153 METAR KSEA 231153Z 20009KT 10SM FEW025 SCT070 04/01 A2987 RMK AO2 SLP122 60000 70024 T00390011 10050 20033 53010=
201201231053 METAR KSEA 231053Z 20011KT 10SM FEW035 SCT080 04/02 A2985 RMK AO2 RAE03 SLP117 P0000 T00390017=
201201230953 METAR KSEA 230953Z 19008KT 8SM -RA SCT036 BKN080 04/02 A2985 RMK AO2 RAB52 SLP116 P0000 T00390017=
201201230853 METAR KSEA 230853Z 16011KT 10SM FEW036 BKN060 03/01 A2984 RMK AO2 SLP112 T00330011 53024=
201201230753 METAR KSEA 230753Z 18006KT 10SM SCT034 SCT065 04/02 A2982 RMK AO2 SLP105 T00390017 400670022=
201201230653 METAR KSEA 230653Z 18011G19KT 10SM SCT034 05/02 A2978 RMK AO2 SLP093 T00500022=
201201230553 METAR KSEA 230553Z 18010KT 10SM SCT036 05/02 A2976 RMK AO2 SLP088 60005 T00500022 10067 20044 53023=
201201230453 METAR KSEA 230453Z 20014KT 10SM FEW032 05/02 A2973 RMK AO2 SLP075 T00500022=
201201230353 METAR KSEA 230353Z 20016G20KT 10SM FEW016 SCT032 OVC080 06/03 A2970 RMK AO2 RAB26E42 SLP065 P0000 T00560028=
201201230351 SPECI KSEA 230351Z 21016G20KT 10SM FEW016 BKN055 OVC080 06/03 A2970 RMK AO2 RAB26E42 P0000=
201201230351 SPECI KSEA 230351Z 21016G20KT 10SM FEW016 BKN055 OVC080 06/03 A2970 RMK AO2 RAB26E42 P0000=
201201230253 METAR KSEA 230253Z 20015G22KT 10SM SCT019 BKN025 OVC033 06/03 A2966 RMK AO2 PK WND 19026/0230 RAB13E50 SLP051 P0003 60005 T00610033 53039=
201201230228 SPECI KSEA 230228Z 19012KT 6SM -RA FEW021 BKN026 OVC037 07/03 A2963 RMK AO2 RAB13 P0001=
201201230228 SPECI KSEA 230228Z 19012KT 6SM -RA FEW021 BKN026 OVC037 07/03 A2963 RMK AO2 RAB13 P0001=
201201230153 METAR KSEA 230153Z 17011G18KT 10SM FEW030 BKN050 06/03 A2961 RMK AO2 RAE0056 SLP035 P0000 T00610033=
201201230053 METAR KSEA 230053Z 17014G25KT 10SM -RA SCT014 BKN037 OVC046 06/04 A2958 RMK AO2 SLP026 P0002 T00610044=
201201222353 METAR KSEA 222353Z COR 15011KT 9SM -RA SCT006 BKN037 BKN045 05/04 A2954 RMK AO2 SLP011 P0003 60017 T00500044 10067 20033 50032=
201201222351 SPECI KSEA 222351Z 15011KT 9SM -RA SCT006 BKN037 OVC045 05/04 A2954 RMK AO2 P0003=
201201222351 SPECI KSEA 222351Z 15011KT 9SM -RA SCT006 BKN037 OVC045 05/04 A2954 RMK AO2 P0003=
201201222317 SPECI KSEA 222317Z 17008KT 5SM -RA BR FEW006 BKN022 OVC030 05/04 A2952 RMK AO2 P0002=
201201222317 SPECI KSEA 222317Z 17008KT 5SM -RA BR FEW006 BKN022 OVC030 05/04 A2952 RMK AO2 P0002=
201201222253 METAR KSEA 222253Z 20011KT 8SM -RA OVC032 05/04 A2950 RMK AO2 WSHFT 2144 SLP997 P0006 T00500039=
201201222204 SPECI KSEA 222204Z 18015G23KT 6SM -RA OVC033 07/03 A2945 RMK AO2 WSHFT 2144 P0001=
201201222204 SPECI KSEA 222204Z 18015G23KT 6SM -RA OVC033 07/03 A2945 RMK AO2 WSHFT 2144 P0001=
201201222153 METAR KSEA 222153Z 16014KT 7SM -RA BKN035 OVC046 06/02 A2944 RMK AO2 RAE23B41 SLP979 P0002 T00610017=
201201222053 METAR KSEA 222053Z 19011KT 6SM -RA OVC032 06/02 A2944 RMK AO2 PK WND 15037/2036 WSHFT 2033 SLP979 P0002 60006 T00560022 56047=
201201221953 METAR KSEA 221953Z 11008KT 10SM -RA OVC048 06/03 A2946 RMK AO2 RAE1859B46 SLP985 P0000 T00560028=
201201221853 METAR KSEA 221853Z 09011KT 10SM -RA FEW010 BKN036 OVC060 04/03 A2951 RMK AO2 PRESFR SLP003 P0004 T00390028=
201201221753 METAR KSEA 221753Z 10009KT 10SM -RA OVC023 04/M01 A2959 RMK AO2 RAB06 SLP027 P0002 60002 T00441006 10050 20022 58038=
201201221730 SPECI KSEA 221730Z 11012KT 090V160 9SM -RA OVC025 05/M02 A2962 RMK AO2 RAB06 P0001=
201201221730 SPECI KSEA 221730Z 11012KT 090V160 9SM -RA OVC025 05/M02 A2962 RMK AO2 RAB06 P0001=
201201221653 METAR KSEA 221653Z 13003KT 10SM OVC044 04/M02 A2963 RMK AO2 RAB36E43 SLP043 P0000 T00441022=
201201221553 METAR KSEA 221553Z 11007KT 10SM BKN050 OVC085 04/M03 A2966 RMK AO2 SLP052 T00441028=
201201221453 METAR KSEA 221453Z 10009KT 10SM BKN050 OVC075 04/M02 A2970 RMK AO2 SLP066 T00391022 58039=
201201221353 METAR KSEA 221353Z 14008KT 10SM BKN047 OVC130 03/M02 A2975 RMK AO2 SLP084 T00331017=
201201221253 METAR KSEA 221253Z 14004KT 10SM SCT055 BKN130 OVC200 03/M02 A2977 RMK AO2 SLP090 T00281017=
201201221153 METAR KSEA 221153Z 13005KT 10SM BKN060 OVC130 03/M01 A2981 RMK AO2 SLP105 60000 T00281011 10044 20022 56020=
201201221053 METAR KSEA 221053Z 14007KT 10SM FEW065 SCT130 SCT200 03/M01 A2984 RMK AO2 SLP112 T00281011=
201201220953 METAR KSEA 220953Z 18005KT 10SM FEW065 SCT130 SCT200 03/M01 A2985 RMK AO2 SLP117 T00281006=
201201220853 METAR KSEA 220853Z 19006KT 10SM FEW065 BKN095 OVC130 03/00 A2987 RMK AO2 SLP125 60000 T00330000 50002=
201201220753 METAR KSEA 220753Z 19012KT 10SM FEW050 BKN095 OVC130 04/00 A2989 RMK AO2 RAB08E19 SLP132 P0000 T00390000 400830033=
201201220653 METAR KSEA 220653Z 19015G23KT 10SM FEW028 SCT055 BKN065 04/00 A2989 RMK AO2 SLP130 T00440000=
201201220553 METAR KSEA 220553Z 20017G24KT 10SM FEW028 SCT130 SCT200 04/01 A2987 RMK AO2 SLP123 T00390006 10056 20033 51028=
201201220453 METAR KSEA 220453Z 20016KT 10SM FEW028 SCT120 03/01 A2986 RMK AO2 SLP120 T00330006=
201201220353 METAR KSEA 220353Z 20013G20KT 10SM FEW020 03/01 A2982 RMK AO2 SLP106 T00330006=
201201220311 SPECI KSEA 220311Z 21017G23KT 10SM FEW014 SCT020 BKN110 04/01 A2980 RMK AO2=
201201220311 SPECI KSEA 220311Z 21017G23KT 10SM FEW014 SCT020 BKN110 04/01 A2980 RMK AO2=
201201220253 METAR KSEA 220253Z 21017G26KT 10SM BKN016 BKN110 04/01 A2978 RMK AO2 PK WND 21026/0251 SLP094 T00390011 51038=
201201220223 SPECI KSEA 220223Z 21016G25KT 10SM FEW018 BKN027 04/01 A2976 RMK AO2=
201201220223 SPECI KSEA 220223Z 21016G25KT 10SM FEW018 BKN027 04/01 A2976 RMK AO2=
201201220153 METAR KSEA 220153Z 21017G23KT 10SM FEW120 04/00 A2975 RMK AO2 SLP083 T00440000=
201201220053 METAR KSEA 220053Z 22011G20KT 10SM SCT020 05/01 A2972 RMK AO2 SLP071 T00500011=
201201220029 SPECI KSEA 220029Z 21010G23KT 10SM BKN020 BKN110 05/01 A2970 RMK AO2=
201201220029 SPECI KSEA 220029Z 21010G23KT 10SM BKN020 BKN110 05/01 A2970 RMK AO2=
201201212353 METAR KSEA 212353Z 22021G28KT 10SM FEW020 BKN110 06/02 A2967 RMK AO2 PK WND 21032/2315 PRESRR SLP055 60000 T00560017 10061 20044 53040=
201201212322 SPECI KSEA 212322Z 23018G32KT 10SM FEW020 BKN110 06/02 A2964 RMK AO2 PK WND 21032/2315=
201201212322 SPECI KSEA 212322Z 23018G32KT 10SM FEW020 BKN110 06/02 A2964 RMK AO2 PK WND 21032/2315=
201201212253 METAR KSEA 212253Z 22017G31KT 10SM FEW015 BKN020 BKN110 06/02 A2962 RMK AO2 PK WND 23031/2245 SLP037 T00610022=
201201212153 METAR KSEA 212153Z 21018G24KT 10SM BKN018 BKN025 BKN100 06/02 A2957 RMK AO2 PK WND 20026/2118 SLP021 T00560022=
201201212053 METAR KSEA 212053Z 21012G23KT 10SM FEW012 BKN019 BKN095 06/03 A2955 RMK AO2 PK WND 22028/2038 SLP014 60000 T00560028 51028=
201201211953 METAR KSEA 211953Z 21016G24KT 10SM SCT017 BKN050 BKN095 05/02 A2952 RMK AO2 PK WND 22029/1858 SLP006 T00500022=
201201211941 SPECI KSEA 211941Z 20016G25KT 10SM SCT017 BKN050 OVC120 06/02 A2952 RMK AO2 PK WND 22029/1858=
201201211941 SPECI KSEA 211941Z 20016G25KT 10SM SCT017 BKN050 OVC120 06/02 A2952 RMK AO2 PK WND 22029/1858=
201201211853 METAR KSEA 211853Z 21016G26KT 10SM BKN014 OVC022 05/02 A2949 RMK AO2 PK WND 21026/1853 RAB11E24 SLP995 P0000 T00500022=
201201211826 SPECI KSEA 211826Z 20017G24KT 10SM BKN014 OVC022 04/02 A2949 RMK AO2 RAB11E24 P0000=
201201211826 SPECI KSEA 211826Z 20017G24KT 10SM BKN014 OVC022 04/02 A2949 RMK AO2 RAB11E24 P0000=
201201211753 METAR KSEA 211753Z 18016G22KT 10SM SCT013 BKN024 OVC080 04/02 A2947 RMK AO2 SLP986 60000 T00440022 10067 20044 51042=
201201211653 METAR KSEA 211653Z 19015KT 10SM SCT013 BKN022 OVC027 04/02 A2943 RMK AO2 RAB31E46 SLP973 P0000 T00440022=
201201211553 METAR KSEA 211553Z 20013G22KT 10SM BKN015 OVC020 04/02 A2939 RMK AO2 SLP960 T00440022=
201201211453 METAR KSEA 211453Z 19015G25KT 10SM FEW010 BKN017 BKN080 05/02 A2934 RMK AO2 PK WND 20026/1438 SLP943 60000 T00500022 51059=
201201211353 METAR KSEA 211353Z 21019G27KT 10SM BKN013 OVC020 05/02 A2929 RMK AO2 PK WND 20029/1324 DZE11B29E50RAB11E29 SLP928 P0000 T00500022=
201201211312 SPECI KSEA 211312Z 20017G27KT 10SM -RA BKN013 OVC020 05/03 A2925 RMK AO2 PK WND 22027/1307 DZE11RAB11 P0000=
201201211312 SPECI KSEA 211312Z 20017G27KT 10SM -RA BKN013 OVC020 05/03 A2925 RMK AO2 PK WND 22027/1307 DZE11RAB11 P0000=
201201211253 METAR KSEA 211253Z 20020G26KT 10SM -DZ SCT013 OVC020 06/03 A2923 RMK AO2 PK WND 23035/1207 DZB40 SLP907 P0000 T00560033=
201201211153 METAR KSEA 211153Z 20026G39KT 10SM BKN018 OVC024 07/04 A2916=
201201211053 METAR KSEA 211053Z 19023G34KT 8SM RA BKN024 BKN030 OVC040 08/06 A2906=
201201210953 METAR KSEA 210953Z 15009KT 10SM -DZ BKN030 OVC040 05/03 A2902 RMK AO2 RAE36DZB40 SLP836 P0003 T00500033 $=
201201210853 METAR KSEA 210853Z 14010KT 9SM -RA SCT030 OVC047 06/04 A2904 RMK AO2 SLP840 P0005 60018 T00560039 56023=
201201210753 METAR KSEA 210753Z 14011KT 8SM -RA SCT035 OVC050 05/03 A2905 RMK AO2 SLP844 P0007 T00500028 400721011=
201201210653 METAR KSEA 210653Z 13009KT 9SM -RA BKN035 OVC075 06/03 A2908=
201201210553 METAR KSEA 210553Z 11007KT 4SM RA SCT035 OVC048 06/03 A2911 RMK AO2 RAB19 SLP864 4/003 P0003 60008 T00560028 10061 20044 56003=
201201210453 METAR KSEA 210453Z 11009KT 10SM BKN050 OVC070 06/02 A2911 RMK AO2 RAE47 SLP865 P0002 T00560022=
201201210353 METAR KSEA 210353Z 12008KT 110V170 10SM -RA OVC038 06/02 A2911 RMK AO2 RAB0257 SLP864 P0001 T00560017=
201201210253 METAR KSEA 210253Z 14003KT 10SM OVC044 05/04 A2912 RMK AO2 SLP867 60002 T00500039 57061=
201201210153 METAR KSEA 210153Z 11012KT 10SM OVC048 05/04 A2917 RMK AO2 RAE31 SLP887 P0000 T00500039=
201201210053 METAR KSEA 210053Z 11015KT 10SM -RA OVC055 04/03 A2924 RMK AO2 SLP910 P0002 T00440033=
201201202353 METAR KSEA 202353Z 11007KT 8SM -RA OVC048 04/04 A2930 RMK AO2 SLP930 P0003 60024 4/003 T00440039 10044 20011 58068=
201201202253 METAR KSEA 202253Z 10012KT 5SM -RA BR OVC042 04/03 A2936 RMK AO2 PRESFR SLP953 P0009 T00390033=
201201202153 METAR KSEA 202153Z 11010KT 3SM RA BR BKN040 OVC048 04/03 A2945 RMK AO2 SLP981 P0007 T00390028=
201201202140 SPECI KSEA 202140Z 13006KT 2SM -RA BR BKN040 OVC048 02/02 A2946 RMK AO2 PRESFR P0005=
201201202140 SPECI KSEA 202140Z 13006KT 2SM -RA BR BKN040 OVC048 02/02 A2946 RMK AO2 PRESFR P0005=
201201202135 SPECI KSEA 202135Z 14006KT 1 1/2SM -RA BR BKN038 OVC046 02/02 A2947 RMK AO2 P0005=
201201202135 SPECI KSEA 202135Z 14006KT 1 1/2SM -RA BR BKN038 OVC046 02/02 A2947=
201201202115 SPECI KSEA 202115Z 15004KT 1/2SM R16L/1000V3500FT -RA FG OVC038 02/01 A2949 RMK AO2 TWR VIS 1 P0003=
201201202115 SPECI KSEA 202115Z 15004KT 1/2SM R16L/1000V3500FT -RA FG OVC038 02/01 A2949 RMK AO2 TWR VIS 1 P0003=
201201202057 SPECI KSEA 202057Z 00000KT 1/2SM R16L/0800V2000FT -RA FG SCT025 OVC036 02/02 A2950 RMK AO2 TWR VIS 3 P0000=
201201202057 SPECI KSEA 202057Z 00000KT 1/2SM R16L/0800V2000FT -RA FG SCT025 OVC036 02/02 A2950 RMK AO2 TWR VIS 3 P0000=
201201202053 METAR KSEA 202053Z 26003KT 2SM R16L/0800V6000FT -RA BR SCT025 OVC036 02/02 A2950 RMK AO2 TWR VIS 3 SLP999 VIS NE-SE 5 VIS SW-NW 1 P0004 60005 T00220022 56031=
201201201953 METAR KSEA 201953Z 00000KT 5SM -RA BR FEW035 OVC050 02/01 A2951 RMK AO2 RAB26 SLP003 P0001 T00220011=
201201201853 METAR KSEA 201853Z 00000KT 6SM BR FEW035 SCT055 SCT085 OVC200 02/01 A2956 RMK AO2 SLP019 T00220011=
201201201753 METAR KSEA 201753Z VRB03KT 5SM BR BKN050 BKN085 OVC200 02/00 A2959 RMK AO2 SLP030 60003 4/003 933029 T00170000 10022 20000 58026 $=
201201201653 METAR KSEA 201653Z 00000KT 5SM BR SCT038 BKN100 OVC200 02/01 A2962 RMK AO2 SLP039 T00220006 $=
201201201553 METAR KSEA 201553Z 00000KT 4SM BR FEW027 BKN038 OVC049 01/00 A2965 RMK AO2 RAE26 SLP050 P0000 T00110000 $=
201201201453 METAR KSEA 201453Z 00000KT 3SM -RA BR SCT028 OVC036 01/00 A2967 RMK AO2 SLP058 P0002 60003 T00060000 58019 $=
201201201353 METAR KSEA 201353Z 00000KT 3SM -RA BR FEW020 OVC032 01/00 A2970 RMK AO2 DZE06B36E49RAB06 SLP066 P0001 T00060000 $=
201201201330 SPECI KSEA 201330Z 00000KT 3SM -RA BR SCT020 BKN030 OVC045 01/M01 A2969 RMK AO2 DZE06RAB06 P0001 $=
201201201330 SPECI KSEA 201330Z 00000KT 3SM -RA BR SCT020 BKN030 OVC045 01/M01 A2969 RMK AO2 DZE06RAB06 P0001 $=
201201201253 METAR KSEA 201253Z 00000KT 4SM -DZ BR BKN020 BKN035 OVC055 00/M01 A2972 RMK AO2 DZB53FZDZB28E53 SLP073 P0000 T00001011 $=
201201201229 SPECI KSEA 201229Z 00000KT 4SM -FZDZ BR BKN020 OVC055 00/00 A2972 RMK AO2 FZDZB28 4/003 P0000 $=
201201201229 SPECI KSEA 201229Z 00000KT 4SM -FZDZ BR BKN020 OVC055 00/00 A2972 RMK AO2 FZDZB28 4/003 P0000 $=
201201201153 METAR KSEA 201153Z 00000KT 4SM BR FEW002 OVC018 00/00 A2973 RMK AO2 FZDZE17 SLP077 4/003 P0000 60003 70063 T00000000 10000 21022 58002 $=
201201201141 SPECI KSEA 201141Z 00000KT 3SM BR FEW002 OVC015 00/M01 A2973 RMK AO2 FZDZE17 P0000 $=
201201201141 SPECI KSEA 201141Z 00000KT 3SM BR FEW002 OVC015 00/M01 A2973 RMK AO2 FZDZE17 P0000 $=
201201201139 SPECI KSEA 201139Z 00000KT 5SM BR OVC017 00/M01 A2973 RMK AO2 FZDZE17 P0000 $=
201201201139 SPECI KSEA 201139Z 00000KT 5SM BR OVC017 00/M01 A2973 RMK AO2 FZDZE17 P0000 $=
201201201118 SPECI KSEA 201118Z 00000KT 1 1/2SM BR FEW002 OVC015 00/M01 A2973 RMK AO2 SFC VIS 2 FZDZE17 P0000 $=
201201201118 SPECI KSEA 201118Z 00000KT 1 1/2SM BR FEW002 OVC015 00/M01 A2973 RMK AO2 SFC VIS 2 FZDZE17 P0000 $=
201201201053 METAR KSEA 201053Z 00000KT 1 1/2SM -FZDZ BR FEW004 BKN015 OVC030 00/M01 A2975 RMK AO2 SFC VIS 4 RAE07FZDZB07SNE07 SLP083 P0001 T00001006 $=
201201201030 SPECI KSEA 201030Z 00000KT 1 1/2SM -FZDZ BR FEW002 SCT008 OVC010 00/M01 A2975 RMK AO2 SFC VIS 2 RAE07FZDZB07SNE07 P0001 $=
201201201030 SPECI KSEA 201030Z 00000KT 1 1/2SM -FZDZ BR FEW002 SCT008 OVC010 00/M01 A2975 RMK AO2 SFC VIS 2 RAE07FZDZB07SNE07 P0001 $=
201201201007 SPECI KSEA 201007Z 00000KT 1 1/2SM R16L/6000VP6000FT -FZDZ BR FEW002 BKN008 OVC010 M01/M01 A2975 RMK AO2 RAE07FZDZB07SNE07 P0000 $=
201201201007 SPECI KSEA 201007Z 00000KT 1 1/2SM R16L/6000VP6000FT -FZDZ BR FEW002 BKN008 OVC010 M01/M01 A2975 RMK AO2 RAE07FZDZB07SNE07 P0000 $=
201201200953 METAR KSEA 200953Z 00000KT 1 1/4SM -RASN BR SCT002 OVC010 M01/M01 A2975 RMK AO2 TWR VIS 1 1/2 SLP086 P0001 T10061011 $=
201201200949 SPECI KSEA 200949Z 00000KT 1 1/4SM -RASN BR SCT002 OVC010 M01/M01 A2975 RMK AO2 TWR VIS 1 1/2 P0001 $=
201201200949 SPECI KSEA 200949Z 00000KT 1 1/4SM -RASN BR SCT002 OVC010 M01/M01 A2975 RMK AO2 TWR VIS 1 1/2 P0001 $=
201201200922 SPECI KSEA 200922Z 00000KT 1 1/2SM -RASN BR BKN012 OVC017 M01/M01 A2974 RMK AO2 SFC VIS 3 P0001 $=
201201200922 SPECI KSEA 200922Z 00000KT 1 1/2SM -RASN BR BKN012 OVC017 M01/M01 A2974 RMK AO2 SFC VIS 3 P0001 $=
201201200918 SPECI KSEA 200918Z 00000KT 3SM -RASN BR OVC015 M01/M01 A2974 RMK AO2 P0001 $=
201201200918 SPECI KSEA 200918Z 00000KT 3SM -RASN BR OVC015 M01/M01 A2974 RMK AO2 P0001 $=
201201200853 METAR KSEA 200853Z 00000KT 2 1/2SM -RASN BR OVC017 M01/M02 A2973 RMK AO2 RAB18 SLP079 P0001 60001 T10111022 58002 $=
201201200840 SPECI KSEA 200840Z 00000KT 3SM -RASN BR OVC017 M01/M02 A2974 RMK AO2 RAB18 P0001 $=
201201200840 SPECI KSEA 200840Z 00000KT 3SM -RASN BR OVC017 M01/M02 A2974 RMK AO2 RAB18 P0001 $=
201201200753 METAR KSEA 200753Z 00000KT 5SM -SN BR OVC015 M01/M02 A2976 RMK AO2 SLP088 P0000 T10111017 410111028 $=
201201200653 METAR KSEA 200653Z 00000KT 4SM -SN BR OVC011 M02/M03 A2974 RMK AO2 SLP080 P0000 T10171028 $=
201201200620 SPECI KSEA 200620Z 00000KT 5SM -SN BR OVC013 M02/M03 A2975 RMK AO2 P0000 $=
201201200620 SPECI KSEA 200620Z 00000KT 5SM -SN BR OVC013 M02/M03 A2975 RMK AO2 P0000 $=
201201200553 METAR KSEA 200553Z 00000KT 5SM -SN BR OVC015 M02/M03 A2974 RMK AO2 SNB28 SLP082 4/003 P0000 60008 T10221033 11017 21028 53015 $=
201201200453 METAR KSEA 200453Z 00000KT 10SM OVC017 M02/M04 A2973 RMK AO2 FZDZE26 SLP079 P0000 T10221039 $=
201201200426 SPECI KSEA 200426Z 00000KT 10SM FEW006 OVC019 M02/M04 A2972 RMK AO2 FZDZE26 P0000 $=
201201200426 SPECI KSEA 200426Z 00000KT 10SM FEW006 OVC019 M02/M04 A2972 RMK AO2 FZDZE26 P0000 $=
201201200353 METAR KSEA 200353Z 00000KT 7SM -FZDZ FEW006 OVC021 M02/M04 A2970 RMK AO2 FZDZB37SNE27 SLP068 P0001 T10221039 $=
201201200338 SPECI KSEA 200338Z 00000KT 10SM -FZDZ OVC021 M02/M04 A2971 RMK AO2 FZDZB37SNE27 P0001 $=
201201200338 SPECI KSEA 200338Z 00000KT 10SM -FZDZ OVC021 M02/M04 A2971 RMK AO2 FZDZB37SNE27 P0001 $=
201201200253 METAR KSEA 200253Z VRB03KT 6SM -SN BR FEW006 OVC023 M02/M03 A2970 RMK AO2 SLP067 P0003 60007 T10221033 51026 $=
201201200153 METAR KSEA 200153Z 36003KT 1 1/4SM -SN BR FEW010 OVC026 M02/M04 A2968 RMK AO2 SFC VIS 1 3/4 SLP060 P0003 T10221039 $=
201201200053 METAR KSEA 200053Z 36005KT 1 1/4SM -SN BR FEW006 SCT019 OVC028 M03/M04 A2965 RMK AO2 SFC VIS 1 1/2 SLP051 P0001 T10281044 $=
201201200035 SPECI KSEA 200035Z 36005KT 1 1/4SM -SN BR SCT005 BKN019 OVC026 M02/M04 A2964 RMK AO2 SFC VIS 1 1/2 P0001 $=
201201200035 SPECI KSEA 200035Z 36005KT 1 1/4SM -SN BR SCT005 BKN019 OVC026 M02/M04 A2964 RMK AO2 SFC VIS 1 1/2 P0001 $=
201201192353 METAR KSEA 192353Z 34005KT 1 1/4SM -SN BR SCT004 OVC008 M02/M03 A2962 RMK AO2 SFC VIS 1 1/2 SLP040 P0000 60022 4/003 T10221033 11017 21022 53021 $=
201201192317 SPECI KSEA 192317Z 34005KT 1SM R16L/P6000FT -SN BR BKN006 OVC016 M02/M03 A2960 RMK AO2 TWR VIS 1 1/4 P0001 $=
201201192317 SPECI KSEA 192317Z 34005KT 1SM R16L/P6000FT -SN BR BKN006 OVC016 M02/M03 A2960 RMK AO2 TWR VIS 1 1/4 P0001 $=
201201192253 METAR KSEA 192253Z 34005KT 1SM R16L/P6000FT -SN BR FEW006 OVC015 M02/M03 A2959 RMK AO2 TWR VIS 1 1/4 SNB2159PLE24 SLP029 P0005 T10221033 $=
201201192224 SPECI KSEA 192224Z 31005KT 1 1/4SM -SN BR SCT006 OVC015 M02/M03 A2957 RMK AO2 SNB2159PLE24 P0003 $=
201201192224 SPECI KSEA 192224Z 31005KT 1 1/4SM -SN BR SCT006 OVC015 M02/M03 A2957 RMK AO2 SNB2159PLE24 P0003 $=
201201192204 SPECI KSEA 192204Z 31005KT 2SM -SNPL BR BKN006 OVC011 M02/M03 A2956 RMK AO2 SNB2159 P0001 $=
201201192204 SPECI KSEA 192204Z 31005KT 2SM -SNPL BR BKN006 OVC011 M02/M03 A2956 RMK AO2 SNB2159 P0001 $=
201201192153 METAR KSEA 192153Z 31005KT 4SM -PL BR BKN006 OVC010 M02/M03 A2956 RMK AO2 FZRAE26 SLP020 P0003 T10221033 $=
201201192126 SPECI KSEA 192126Z 33005KT 4SM -PL BR BKN006 OVC010 M02/M03 A2955 RMK AO2 FZRAE26 P0001 $=
201201192126 SPECI KSEA 192126Z 33005KT 4SM -PL BR BKN006 OVC010 M02/M03 A2955 RMK AO2 FZRAE26 P0001 $=
201201192114 SPECI KSEA 192114Z 33005KT 4SM -FZRAPL BR BKN005 OVC009 M02/M03 A2955 RMK AO2 P0001 $=
201201192114 SPECI KSEA 192114Z 33005KT 4SM -FZRAPL BR BKN005 OVC009 M02/M03 A2955 RMK AO2 P0001 $=
201201192053 METAR KSEA 192053Z 33005KT 3SM -FZRAPL BR BKN003 OVC007 M02/M03 A2955 RMK AO2 SLP019 P0004 60012 T10171033 56014 $=
201201192016 SPECI KSEA 192016Z 33005KT 3SM -FZRAPL BR BKN003 OVC008 M02/M03 A2956 RMK AO2 P0001 $=
201201192016 SPECI KSEA 192016Z 33005KT 3SM -FZRAPL BR BKN003 OVC008 M02/M03 A2956 RMK AO2 P0001 $=
201201191953 METAR KSEA 191953Z 33005KT 4SM -FZRAPL BR BKN005 OVC013 M02/M03 A2957 RMK AO2 SLP022 P0004 T10171028 $=
201201191853 METAR KSEA 191853Z 33005KT 4SM -FZRAPL BR BKN005 OVC015 M02/M03 A2958 RMK AO2 PLB51 SLP028 P0004 T10171033 $=
201201191814 SPECI KSEA 191814Z 00000KT 4SM -FZRA BR BKN004 OVC016 M02/M03 A2959 RMK AO2 P0001 $=
201201191814 SPECI KSEA 191814Z 00000KT 4SM -FZRA BR BKN004 OVC016 M02/M03 A2959 RMK AO2 P0001 $=
201201191753 METAR KSEA 191753Z 00000KT 4SM -FZRA BR SCT004 BKN016 OVC033 M02/M03 A2960 RMK AO2 SLP033 P0004 60029 4/003 933027 T10171033 11017 21028 56016 $=
201201191740 SPECI KSEA 191740Z 00000KT 4SM -FZRA BR SCT004 BKN015 OVC033 M02/M03 A2960 RMK AO2 P0004 $=
201201191740 SPECI KSEA 191740Z 00000KT 4SM -FZRA BR SCT004 BKN015 OVC033 M02/M03 A2960 RMK AO2 P0004 $=
201201191653 METAR KSEA 191653Z 00000KT 3SM -FZRA BR BKN004 OVC008 M02/M03 A2960 RMK AO2 SLP034 P0006 T10171033 $=
201201191610 SPECI KSEA 191610Z 00000KT 4SM -FZRA BR BKN004 OVC017 M02/M03 A2961 RMK AO2 P0001 $=
201201191610 SPECI KSEA 191610Z 00000KT 4SM -FZRA BR BKN004 OVC017 M02/M03 A2961 RMK AO2 P0001 $=
201201191553 METAR KSEA 191553Z 00000KT 4SM FZRA BR BKN004 OVC018 M02/M03 A2962 RMK AO2 SLP040 P0007 T10171028 $=
201201191453 METAR KSEA 191453Z 00000KT 4SM FZRA BR OVC004 M02/M03 A2964 RMK AO2 SLP049 P0006 60012 T10171028 58029 $=
201201191441 SPECI KSEA 191441Z 33003KT 4SM FZRA BR OVC004 M02/M03 A2965 RMK AO2 P0004 $=
201201191441 SPECI KSEA 191441Z 33003KT 4SM FZRA BR OVC004 M02/M03 A2965 RMK AO2 P0004 $=
201201191353 METAR KSEA 191353Z 33003KT 4SM -FZRA BR OVC004 M02/M03 A2968 RMK AO2 SLP062 P0003 T10221033 $=
201201191253 METAR KSEA 191253Z 34003KT 4SM -FZRA BR OVC003 M02/M03 A2970 RMK AO2 FZDZE52FZRAB52 SLP070 P0003 T10221033 $=
201201191153 METAR KSEA 191153Z 33009KT 4SM -FZDZ BKN007 OVC021 M03/M04 A2973 RMK AO2 SLP078 P0000 60049 70129 4/003 T10281039 11022 21028 58011 $=
201201191053 METAR KSEA 191053Z 34008KT 4SM -FZDZ OVC007 M03/M04 A2975 RMK AO2 SLP087 P0000 T10281039 $=
201201190953 METAR KSEA 190953Z 30010KT 4SM -FZDZ BKN006 OVC012 M03/M04 A2975 RMK AO2 FZRAB26E31FZDZB31 SLP086 P0000 T10281044 $=
201201190931 SPECI KSEA 190931Z 34006KT 4SM -FZDZ BKN007 OVC013 M03/M04 A2976 RMK AO2 FZRAB26E31FZDZB31 P0000 $=
201201190931 SPECI KSEA 190931Z 34006KT 4SM -FZDZ BKN007 OVC013 M03/M04 A2976 RMK AO2 FZRAB26E31FZDZB31 P0000 $=
201201190853 METAR KSEA 190853Z 33005KT 10SM OVC012 M03/M04 A2976 RMK AO2 SLP089 P0000 60049 T10281044 58003 $=
201201190753 METAR KSEA 190753Z 32006KT 10SM BKN008 OVC014 M03/M04 A2978 RMK AO2 FZDZE49 SLP095 P0000 T10281039 400001028 $=
201201190732 SPECI KSEA 190732Z 33008KT 3SM -FZDZ OVC006 M03/M04 A2979 RMK AO2 P0000 $=
201201190732 SPECI KSEA 190732Z 33008KT 3SM -FZDZ OVC006 M03/M04 A2979 RMK AO2 P0000 $=
201201190653 METAR KSEA 190653Z 33008KT 2SM -FZDZ BKN006 OVC021 M03/M04 A2978 RMK AO2 SLP097 P0049 T10281039 $=
201201190553 METAR KSEA 190553Z 34007KT 1 1/2SM -FZDZ OVC004 M02/M03 A2977 RMK AO2 SFC VIS 3 SLP092 P0000 60008 T10221033 11011 21022 51015 $=
201201190453 METAR KSEA 190453Z 34007KT 1 1/2SM -FZDZ OVC004 M02/M03 A2976 RMK AO2 SFC VIS 3 FZRAE52FZDZB52 SLP088 P0001 T10221028 $=
201201190353 METAR KSEA 190353Z 34008KT 1 1/2SM -FZRA OVC004 M02/M03 A2975 RMK AO2 SFC VIS 2 SLP085 P0001 T10171028 $=
201201190332 SPECI KSEA 190332Z 34008KT 1 1/2SM -FZRA OVC004 M02/M03 A2973 RMK AO2 SFC VIS 2 P0001 $=
201201190332 SPECI KSEA 190332Z 34008KT 1 1/2SM -FZRA OVC004 M02/M03 A2973 RMK AO2 SFC VIS 2 P0001 $=
201201190253 METAR KSEA 190253Z 34010KT 1 1/2SM -FZRA SCT004 BKN008 OVC013 M02/M03 A2973 RMK AO2 SFC VIS 2 FZRAB15SNE15 SLP077 P0001 60006 T10171028 51028 $=
201201190216 SPECI KSEA 190216Z 34010KT 1 1/2SM -FZRA BR BKN003 OVC017 M02/M03 A2971 RMK AO2 SFC VIS 2 FZRAB15SNE15 P0001 $=
201201190216 SPECI KSEA 190216Z 34010KT 1 1/2SM -FZRA BR BKN003 OVC017 M02/M03 A2971 RMK AO2 SFC VIS 2 FZRAB15SNE15 P0001 $=
201201190153 METAR KSEA 190153Z 32011KT 1 1/2SM -SN BR OVC004 M01/M03 A2971 RMK AO2 SFC VIS 2 SLP070 P0002 T10111028 $=
201201190053 METAR KSEA 190053Z 32011KT 1 1/2SM -SN BR BKN002 OVC006 M01/M03 A2968 RMK AO2 SFC VIS 2 SLP060 P0003 T10111028 $=
201201190004 SPECI KSEA 190004Z 34011KT 1 1/2SM -SN BR OVC004 M01/M03 A2965 RMK AO2 P0001 $=
201201190004 SPECI KSEA 190004Z 34011KT 1 1/2SM -SN BR OVC004 M01/M03 A2965 RMK AO2 P0001 $=
201201182353 METAR KSEA 182353Z 33009KT 1/2SM R16L/P6000FT -SN BR BKN004 OVC020 M01/M03 A2964 RMK AO2 SFC VIS 1 SLP048 P0002 60037 4/005 T10111028 11011 21017 51009 $=
201201182311 SPECI KSEA 182311Z 32010KT 1/2SM R16L/5500VP6000FT -SN BR SCT004 OVC018 M01/M03 A2964 RMK AO2 SFC VIS 1 P0001 $=
201201182311 SPECI KSEA 182311Z 32010KT 1/2SM R16L/5500VP6000FT -SN BR SCT004 OVC018 M01/M03 A2964 RMK AO2 SFC VIS 1 P0001 $=
201201182253 METAR KSEA 182253Z 33014KT 1/2SM R16L/4000V5000FT -SN BR BKN004 OVC011 M01/M02 A2964 RMK AO2 SFC VIS 3/4 SLP048 P0005 T10111022 $=
201201182153 METAR KSEA 182153Z 32008KT 1/2SM R16L/4000VP6000FT -SN BR BKN004 OVC015 M01/M03 A2962 RMK AO2 SFC VIS 3/4 SLP041 P0015 T10111028 $=
201201182053 METAR KSEA 182053Z 36014KT 1/2SM R16L/4000VP6000FT -SN BR BKN004 OVC011 M01/M03 A2961 RMK AO2 SFC VIS 3/4 SLP039 P0005 60015 T10111028 58001=
201201181953 METAR KSEA 181953Z 35014KT 1/2SM R16L/4000V4500FT -SN BR BKN004 OVC013 M01/M02 A2961 RMK AO2 SFC VIS 3/4 SLP038 P0003 T10111022=
201201181942 SPECI KSEA 181942Z 35013KT 1/2SM R16L/4000V5000FT -SN BR BKN004 OVC012 M01/M02 A2962 RMK AO2 SFC VIS 3/4 P0002=
201201181942 SPECI KSEA 181942Z 35013KT 1/2SM R16L/4000V5000FT -SN BR BKN004 OVC012 M01/M02 A2962 RMK AO2 SFC VIS 3/4 P0002=
201201181853 METAR KSEA 181853Z 35013KT 1/2SM R16L/2800V4000FT SN FZFG VV006 M01/M03 A2962 RMK AO2 SLP041 P0007 T10111028=
201201181753 METAR KSEA 181753Z 36015KT 1/2SM R16L/2800V4000FT SN FZFG VV005 M02/M03 A2962 RMK AO2 SLP040 P0006 60034 4/003 933011 T10171028 11017 21017 56025=
201201181653 METAR KSEA 181653Z 36015KT 1/2SM R16L/3500V4500FT SN FZFG FEW003 OVC008 M02/M03 A2963 RMK AO2 SLP043 P0005 T10171028=
201201181553 METAR KSEA 181553Z 01014KT 3/4SM R16L/P6000FT -SN BR SCT004 OVC009 M02/M03 A2964 RMK AO2 SLP048 P0007 T10171028=
201201181528 SPECI KSEA 181528Z 01013KT 3/4SM R16L/P6000FT -SN BR SCT004 OVC009 M02/M03 A2966 RMK AO2 P0004=
201201181528 SPECI KSEA 181528Z 01013KT 3/4SM R16L/P6000FT -SN BR SCT004 OVC009 M02/M03 A2966 RMK AO2 P0004=
201201181453 METAR KSEA 181453Z 02010KT 3/4SM R16L/5000VP6000FT -SN BR BKN004 OVC008 M02/M03 A2969 RMK AO2 SLP064 P0006 60016 T10171028 58069=
201201181414 SPECI KSEA 181414Z 03012KT 3/4SM R16L/P6000FT -SN BR BKN004 OVC012 M02/M03 A2976 RMK AO2 PRESFR P0001=
201201181414 SPECI KSEA 181414Z 03012KT 3/4SM R16L/P6000FT -SN BR BKN004 OVC012 M02/M03 A2976 RMK AO2 PRESFR P0001=
201201181353 METAR KSEA 181353Z 04008KT 3/4SM R16L/P6000FT -SN BR FEW004 OVC011 M02/M03 A2978 RMK AO2 SLP094 P0007 T10171028=
201201181342 SPECI KSEA 181342Z 05008KT 3/4SM R16L/P6000FT -SN BR VV010 M02/M03 A2979 RMK AO2 P0006=
201201181342 SPECI KSEA 181342Z 05008KT 3/4SM R16L/P6000FT -SN BR VV010 M02/M03 A2979 RMK AO2 P0006=
201201181258 SPECI KSEA 181258Z 04007KT 3/4SM R16L/5000VP6000FT -SN BR VV009 M02/M03 A2984 RMK AO2 PRESFR P0001=
201201181258 SPECI KSEA 181258Z 04007KT 3/4SM R16L/5000VP6000FT -SN BR VV009 M02/M03 A2984 RMK AO2 PRESFR P0001=
201201181253 METAR KSEA 181253Z 04006KT 1SM R16L/5500VP6000FT -SN BR FEW005 OVC011 M02/M03 A2984 RMK AO2 PRESFR SLP116 P0003 T10171028=
201201181159 SPECI KSEA 181159Z 05006KT 1SM R16L/P6000FT -SN BR SCT007 OVC011 M02/M03 A2989 RMK AO2 P0000=
201201181159 SPECI KSEA 181159Z 05006KT 1SM R16L/P6000FT -SN BR SCT007 OVC011 M02/M03 A2989 RMK AO2 P0000=
201201181153 METAR KSEA 181153Z 05006KT 3/4SM R16L/P6000FT -SN BR VV009 M02/M03 A2990 RMK AO2 SLP135 P0009 60009 70026 4/001 T10171028 10006 21022 58020=
201201181053 METAR KSEA 181053Z 05007KT 3/4SM R16L/P6000FT -SN BR VV009 M02/M03 A2993 RMK AO2 SLP145 P0004 T10171033=
201201181043 SPECI KSEA 181043Z 05008KT 3/4SM R16L/6000VP6000FT -SN BR VV009 M02/M03 A2994 RMK AO2 P0003=
201201181043 SPECI KSEA 181043Z 05008KT 3/4SM R16L/6000VP6000FT -SN BR VV009 M02/M03 A2994 RMK AO2 P0003=
201201181031 SPECI KSEA 181031Z 05008KT 3/4SM R16L/3500VP6000FT -SN BR VV011 M02/M03 A2994 RMK AO2 P0002=
201201181031 SPECI KSEA 181031Z 05008KT 3/4SM R16L/3500VP6000FT -SN BR VV011 M02/M03 A2994 RMK AO2 P0002=
201201181020 SPECI KSEA 181020Z 06006KT 3/4SM R16L/P6000FT -SN BR OVC015 M01/M03 A2994 RMK AO2 P0001=
201201181020 SPECI KSEA 181020Z 06006KT 3/4SM R16L/P6000FT -SN BR OVC015 M01/M03 A2994 RMK AO2 P0001=
201201181015 SPECI KSEA 181015Z 07005KT 1 1/2SM -SN BR OVC019 M01/M03 A2994 RMK AO2 P0000=
201201181015 SPECI KSEA 181015Z 07005KT 1 1/2SM -SN BR OVC019 M01/M03 A2994 RMK AO2 P0000=
201201180953 METAR KSEA 180953Z 09007KT 4SM -SN OVC029 M01/M04 A2995 RMK AO2 SNB33 SLP152 P0000 T10061039=
201201180853 METAR KSEA 180853Z 08004KT 10SM OVC034 00/M03 A2996 RMK AO2 SLP154 T00001028 50001=
201201180753 METAR KSEA 180753Z 08005KT 10SM OVC030 01/M04 A2996 RMK AO2 SLP155 T00061039 400330000=
201201180723 SPECI KSEA 180723Z 08005KT 10SM BKN028 OVC034 00/M03 A2996 RMK AO2=
201201180723 SPECI KSEA 180723Z 08005KT 10SM BKN028 OVC034 00/M03 A2996 RMK AO2=
201201180653 METAR KSEA 180653Z 08004KT 10SM OVC032 01/M03 A2996 RMK AO2 SLP154 T00061033=
201201180553 METAR KSEA 180553Z 03007KT 10SM FEW022 BKN042 01/M03 A2995 RMK AO2 SLP153 T00061028 10022 20000 51010=
201201180505 SPECI KSEA 180505Z 33004KT 10SM FEW024 BKN032 BKN041 01/M03 A2995 RMK AO2=
201201180505 SPECI KSEA 180505Z 33004KT 10SM FEW024 BKN032 BKN041 01/M03 A2995 RMK AO2=
201201180453 METAR KSEA 180453Z 30004KT 10SM FEW017 BKN025 BKN030 01/M03 A2995 RMK AO2 SLP151 T00061033=
201201180426 SPECI KSEA 180426Z 22004KT 10SM SCT019 BKN025 01/M03 A2994 RMK AO2=
201201180426 SPECI KSEA 180426Z 22004KT 10SM SCT019 BKN025 01/M03 A2994 RMK AO2=
201201180353 METAR KSEA 180353Z 22005KT 10SM FEW020 01/M03 A2994 RMK AO2 SLP148 T00061033=
201201180253 METAR KSEA 180253Z 22012KT 10SM FEW020 SCT110 01/M03 A2992 RMK AO2 SLP143 T00111033 53014=
201201180153 METAR KSEA 180153Z 22011G19KT 10SM FEW020 BKN100 02/M03 A2990=
201201180053 METAR KSEA 180053Z 22009G17KT 10SM SCT019 BKN110 02/M03 A2989 RMK AO2 SLP132 T00171028=
201201172353 METAR KSEA 172353Z 22011KT 10SM SCT017 BKN110 02/M01 A2988 RMK AO2 SLP129 60008 T00221011 10033 20006 53016=
201201172253 METAR KSEA 172253Z 23011G19KT 10SM FEW020 SCT080 BKN200 02/M02 A2986 RMK AO2 SLP122 T00221017=
201201172153 METAR KSEA 172153Z 23016KT 10SM SCT015 BKN090 BKN200 03/02 A2984 RMK AO2 SLP116 T00330022=
201201172144 SPECI KSEA 172144Z 23015G22KT 10SM SCT015 BKN090 BKN200 03/02 A2983 RMK AO2=
201201172144 SPECI KSEA 172144Z 23015G22KT 10SM SCT015 BKN090 BKN200 03/02 A2983 RMK AO2=
201201172053 METAR KSEA 172053Z 24012G19KT 10SM SCT008 BKN015 OVC200 03/03 A2983 RMK AO2 SLP112 60008 T00330028 53005=
201201171953 METAR KSEA 171953Z 22012G22KT 10SM FEW004 BKN008 BKN200 03/03 A2981 RMK AO2 SNE11 SLP106 P0004 T00280028=
201201171928 SPECI KSEA 171928Z 21013G20KT 9SM SCT003 BKN007 BKN016 02/02 A2981 RMK AO2 SNE11 P0004=
201201171928 SPECI KSEA 171928Z 21013G20KT 9SM SCT003 BKN007 BKN016 02/02 A2981 RMK AO2 SNE11 P0004=
201201171917 SPECI KSEA 171917Z 21014G18KT 2SM BR BKN003 OVC011 01/01 A2982 RMK AO2 SFC VIS 5 SNE11 P0004=
201201171917 SPECI KSEA 171917Z 21014G18KT 2SM BR BKN003 OVC011 01/01 A2982 RMK AO2 SFC VIS 5 SNE11 P0004=
201201171903 SPECI KSEA 171903Z 20011KT 1SM R16L/3500VP6000FT -SN BR BKN005 BKN200 01/01 A2981 RMK AO2 SFC VIS 3 P0003=
201201171903 SPECI KSEA 171903Z 20011KT 1SM R16L/3500VP6000FT -SN BR BKN005 BKN200 01/01 A2981 RMK AO2 SFC VIS 3 P0003=
201201171853 METAR KSEA 171853Z 21011G19KT 1/2SM R16L/3500VP6000FT SN FG OVC005 01/01 A2981 RMK AO2 SNB39 SLP106 P0004 T00060006=
201201171847 SPECI KSEA 171847Z 23014G22KT 1SM R16L/3500VP6000FT -SN BR OVC006 01/01 A2982 RMK AO2 TWR VIS 2 SNB39 P0002=
201201171847 SPECI KSEA 171847Z 23014G22KT 1SM R16L/3500VP6000FT -SN BR OVC006 01/01 A2982 RMK AO2 TWR VIS 2 SNB39 P0002=
201201171839 SPECI KSEA 171839Z 22016G22KT 2SM -SN BR OVC006 02/02 A2981 RMK AO2 SNB39 P0000=
201201171839 SPECI KSEA 171839Z 22016G22KT 2SM -SN BR OVC006 02/02 A2981 RMK AO2 SNB39 P0000=
201201171753 METAR KSEA 171753Z 21013KT 10SM BKN006 OVC011 02/02 A2981 RMK AO2 SLP104 60009 4/001 T00170017 10017 20006 55002=
201201171653 METAR KSEA 171653Z 20013G20KT 10SM BKN006 OVC010 02/02 A2980 RMK AO2 SNE04 SLP100 P0000 T00170017=
201201171553 METAR KSEA 171553Z 19011KT 7SM -SN OVC005 01/01 A2980 RMK AO2 SLP102 P0003 T00110011=
201201171524 SPECI KSEA 171524Z 20013G22KT 1 1/2SM -SN BR OVC005 01/01 A2981 RMK AO2 SFC VIS 2 1/2 P0001=
201201171524 SPECI KSEA 171524Z 20013G22KT 1 1/2SM -SN BR OVC005 01/01 A2981 RMK AO2 SFC VIS 2 1/2 P0001=
201201171453 METAR KSEA 171453Z 20011G20KT 6SM -SN BR BKN005 OVC008 01/01 A2982 RMK AO2 SLP106 P0002 60006 T00110011 56017=
201201171353 METAR KSEA 171353Z 20015G22KT 3SM -SN BR OVC005 01/01 A2982 RMK AO2 SNE08B30 SLP109 P0001 T00110006=
201201171253 METAR KSEA 171253Z 19016G20KT 5SM -SN BR OVC005 01/01 A2984 RMK AO2 SLP115 P0003 T00110006=
201201171235 SPECI KSEA 171235Z 19016G20KT 5SM -SN BR OVC003 01/01 A2985 RMK AO2 P0003=
201201171235 SPECI KSEA 171235Z 19016G20KT 5SM -SN BR OVC003 01/01 A2985 RMK AO2 P0003=
201201171153 METAR KSEA 171153Z COR 19012KT 3SM -SN BR OVC005 01/01 A2987 RMK AO2 SLP123 P0005 60018 70023 4/002 T00060006 10011 20006 58020=
201201171129 SPECI KSEA 171129Z 18010G18KT 5SM -SN BR OVC005 01/00 A2987 RMK AO2 P0005=
201201171129 SPECI KSEA 171129Z 18010G18KT 5SM -SN BR OVC005 01/00 A2987 RMK AO2 P0005=
201201171121 SPECI KSEA 171121Z 18013KT 2SM R16L/6000VP6000FT -SN BR OVC005 01/00 A2987 RMK AO2 P0004=
201201171121 SPECI KSEA 171121Z 18013KT 2SM R16L/6000VP6000FT -SN BR OVC005 01/00 A2987 RMK AO2 P0004=
201201171114 SPECI KSEA 171114Z 18011KT 1 1/4SM R16L/5500VP6000FT -SN BR OVC005 01/01 A2988 RMK AO2 P0004=
201201171114 SPECI KSEA 171114Z 18011KT 1 1/4SM R16L/5500VP6000FT -SN BR OVC005 01/01 A2988 RMK AO2 P0004=
201201171053 METAR KSEA 171053Z 20012KT 5SM -SN BR OVC005 01/01 A2989 RMK AO2 SLP133 P0001 T00110006=
201201171041 SPECI KSEA 171041Z 19013G22KT 9SM -SN OVC005 01/01 A2990 RMK AO2 P0001=
201201171041 SPECI KSEA 171041Z 19013G22KT 9SM -SN OVC005 01/01 A2990 RMK AO2 P0001=
201201171020 SPECI KSEA 171020Z 19015G23KT 4SM -SN BR OVC003 01/01 A2990 RMK AO2 P0001=
201201171020 SPECI KSEA 171020Z 19015G23KT 4SM -SN BR OVC003 01/01 A2990 RMK AO2 P0001=
201201170953 METAR KSEA 170953Z 19017G23KT 2 1/2SM -SN BR OVC005 01/01 A2991 RMK AO2 SLP138 P0005 T00110006=
201201170853 METAR KSEA 170853Z 20013G22KT 3SM -SN BR BKN005 OVC010 01/01 A2993 RMK AO2 SLP144 P0004 60007 T00110011 58015=
201201170831 SPECI KSEA 170831Z 19016G21KT 3SM -SN BR OVC005 01/01 A2993 RMK AO2 P0003=
201201170831 SPECI KSEA 170831Z 19016G21KT 3SM -SN BR OVC005 01/01 A2993 RMK AO2 P0003=
201201170813 SPECI KSEA 170813Z 19015G21KT 1 3/4SM -SN BR OVC005 01/01 A2994 RMK AO2 P0002=
201201170813 SPECI KSEA 170813Z 19015G21KT 1 3/4SM -SN BR OVC005 01/01 A2994 RMK AO2 P0002=
201201170753 METAR KSEA 170753Z 19015G25KT 3SM -SN BR OVC005 01/00 A2994 RMK AO2 SLP149 P0002 T00110000 400171028=
201201170727 SPECI KSEA 170727Z 19014G19KT 3SM -SN BR OVC007 01/01 A2995 RMK AO2 P0001=
201201170727 SPECI KSEA 170727Z 19014G19KT 3SM -SN BR OVC007 01/01 A2995 RMK AO2 P0001=
201201170653 METAR KSEA 170653Z 19016G23KT 2SM -SN BR OVC007 01/00 A2996=
201201170553 METAR KSEA 170553Z 18011KT 2SM -SN BR OVC005 01/M01 A2997 RMK AO2 SFC VIS 6 SLP159 P0000 60003 4/002 T00061006 10011 20006 56017=
201201170534 SPECI KSEA 170534Z 19010G18KT 2SM -SN BR OVC008 01/M01 A2998 RMK AO2 SFC VIS 3 P0000=
201201170534 SPECI KSEA 170534Z 19010G18KT 2SM -SN BR OVC008 01/M01 A2998 RMK AO2 SFC VIS 3 P0000=
201201170453 METAR KSEA 170453Z COR 18011KT 7SM -SN OVC007 01/00 A2999 RMK AO2 SLP165 P0002 T00110000=
201201170353 METAR KSEA 170353Z 19012KT 1 1/2SM -SN BR BKN007 OVC011 01/M01 A3000 RMK AO2 SFC VIS 2 SLP169 P0001 T00061006=
201201170346 SPECI KSEA 170346Z 19012KT 1 1/2SM -SN BR BKN007 OVC022 01/M01 A3000 RMK AO2 SFC VIS 3 P0001=
201201170346 SPECI KSEA 170346Z 19012KT 1 1/2SM -SN BR BKN007 OVC022 01/M01 A3000 RMK AO2 SFC VIS 3 P0001=
201201170333 SPECI KSEA 170333Z 18013KT 4SM -SN BR BKN007 OVC011 01/M01 A3000 RMK AO2 P0001=
201201170333 SPECI KSEA 170333Z 18013KT 4SM -SN BR BKN007 OVC011 01/M01 A3000 RMK AO2 P0001=
201201170318 SPECI KSEA 170318Z 19011KT 2SM -SN BR BKN007 OVC011 01/M01 A3001 RMK AO2 SFC VIS 3 P0001=
201201170318 SPECI KSEA 170318Z 19011KT 2SM -SN BR BKN007 OVC011 01/M01 A3001 RMK AO2 SFC VIS 3 P0001=
201201170253 METAR KSEA 170253Z 19013G18KT 4SM -SN BR OVC005 01/00 A3002 RMK AO2 RAB10E14SNB14 SLP176 P0000 60000 T00110000 58008=
201201170153 METAR KSEA 170153Z 19009KT 9SM OVC007 01/M01 A3003 RMK AO2 SNE51 SLP181 P0000 T00061006=
201201170053 METAR KSEA 170053Z 19014G23KT 7SM -SN OVC009 01/M01 A3004 RMK AO2 SNB50 SLP181 P0000 T00111006=
201201170036 SPECI KSEA 170036Z 19015G19KT 10SM BKN009 OVC095 01/M01 A3004 RMK AO2=
201201170036 SPECI KSEA 170036Z 19015G19KT 10SM BKN009 OVC095 01/M01 A3004 RMK AO2=
201201162353 METAR KSEA 162353Z 20014KT 10SM BKN013 OVC070 01/M01 A3004 RMK AO2 PK WND 19026/2301 SLP184 60001 T00111011 10017 21006 55006=
201201162330 SPECI KSEA 162330Z 20013KT 10SM BKN015 BKN019 OVC070 01/M01 A3005 RMK AO2 PK WND 19026/2301=
201201162330 SPECI KSEA 162330Z 20013KT 10SM BKN015 BKN019 OVC070 01/M01 A3005 RMK AO2 PK WND 19026/2301=
201201162253 METAR KSEA 162253Z 19018KT 10SM BKN012 OVC025 01/M01 A3004 RMK AO2 SLP184 T00111011=
201201162153 METAR KSEA 162153Z 20014G24KT 10SM BKN010 OVC022 01/M01 A3004 RMK AO2 SLP183 T00111011=
201201162146 SPECI KSEA 162146Z 20014G22KT 10SM BKN010 OVC015 01/M01 A3004 RMK AO2=
201201162146 SPECI KSEA 162146Z 20014G22KT 10SM BKN010 OVC015 01/M01 A3004 RMK AO2=
201201162053 METAR KSEA 162053Z 19009KT 9SM BKN007 OVC012 00/M01 A3006 RMK AO2 SNE33 SLP191 P0001 60001 T00001011 58015=
201201162037 SPECI KSEA 162037Z 19012KT 7SM BKN007 OVC029 00/M01 A3007 RMK AO2 SNE33 P0001=
201201162037 SPECI KSEA 162037Z 19012KT 7SM BKN007 OVC029 00/M01 A3007 RMK AO2 SNE33 P0001=
201201162001 SPECI KSEA 162001Z 18017KT 2SM -SN BR BKN006 OVC010 00/M01 A3007 RMK AO2 SFC VIS 2 1/2 P0000=
201201162001 SPECI KSEA 162001Z 18017KT 2SM -SN BR BKN006 OVC010 00/M01 A3007 RMK AO2 SFC VIS 2 1/2 P0000=
201201161953 METAR KSEA 161953Z 18013G22KT 1 1/2SM -SN BR BKN006 OVC010 00/M02 A3008 RMK AO2 TWR VIS 2 SNB46 SLP196 P0000 T00001017=
201201161946 SPECI KSEA 161946Z 19013G23KT 2SM -SN BKN008 OVC012 00/M02 A3008 RMK AO2 SNB46 P0000=
201201161946 SPECI KSEA 161946Z 19013G23KT 2SM -SN BKN008 OVC012 00/M02 A3008 RMK AO2 SNB46 P0000=
201201161853 METAR KSEA 161853Z 20010KT 10SM FEW013 BKN024 OVC080 01/M02 A3010 RMK AO2 SNB20E51 SLP205 P0000 T00061022=
201201161839 SPECI KSEA 161839Z 20007KT 9SM R16L/5500VP6000FT -SN FEW009 BKN017 OVC080 00/M02 A3011 RMK AO2 SNB20 P0000=
201201161839 SPECI KSEA 161839Z 20007KT 9SM R16L/5500VP6000FT -SN FEW009 BKN017 OVC080 00/M02 A3011 RMK AO2 SNB20 P0000=
201201161831 SPECI KSEA 161831Z 19009G19KT 1 1/4SM R16L/6000VP6000FT -SN BR FEW009 OVC017 00/M02 A3011 RMK AO2 SNB20 P0000=
201201161831 SPECI KSEA 161831Z 19009G19KT 1 1/4SM R16L/6000VP6000FT -SN BR FEW009 OVC017 00/M02 A3011 RMK AO2 SNB20 P0000=
201201161822 SPECI KSEA 161822Z 20012KT 1 1/2SM R16L/6000VP6000FT -SN SCT012 OVC021 00/M03 A3011 RMK AO2 SNB20 P0000=
201201161822 SPECI KSEA 161822Z 20012KT 1 1/2SM R16L/6000VP6000FT -SN SCT012 OVC021 00/M03 A3011 RMK AO2 SNB20 P0000=
201201161753 METAR KSEA 161753Z 21004KT 10SM FEW012 BKN021 OVC080 M01/M03 A3011 RMK AO2 SLP206 4/002 933003 T10061033 11006 21028 55001=
201201161653 METAR KSEA 161653Z 20006KT 10SM FEW012 BKN021 OVC070 M01/M03 A3010 RMK AO2 SLP205 T10111033=
201201161620 SPECI KSEA 161620Z 17005KT 10SM FEW012 BKN028 OVC070 M02/M04 A3011 RMK AO2=
201201161620 SPECI KSEA 161620Z 17005KT 10SM FEW012 BKN028 OVC070 M02/M04 A3011 RMK AO2=
201201161553 METAR KSEA 161553Z 17005KT 10SM FEW012 BKN034 BKN070 BKN200 M02/M04 A3011 RMK AO2 SLP207 T10171039=
201201161530 SPECI KSEA 161530Z 16003KT 10SM SCT012 SCT038 BKN070 M03/M04 A3011 RMK AO2=
201201161530 SPECI KSEA 161530Z 16003KT 10SM SCT012 SCT038 BKN070 M03/M04 A3011 RMK AO2=
201201161453 METAR KSEA 161453Z 18005KT 10SM SCT012 BKN020 BKN038 M01/M03 A3011 RMK AO2 SLP207 T10111033 56001=
201201161353 METAR KSEA 161353Z 20005KT 10SM FEW008 BKN016 BKN022 M02/M03 A3011 RMK AO2 SLP207 T10171033=
201201161341 SPECI KSEA 161341Z 19004KT 10SM FEW008 BKN026 M02/M03 A3011 RMK AO2=
201201161341 SPECI KSEA 161341Z 19004KT 10SM FEW008 BKN026 M02/M03 A3011 RMK AO2=
201201161313 SPECI KSEA 161313Z 16007KT 10SM FEW008 SCT025 BKN050 M02/M03 A3010 RMK AO2=
201201161313 SPECI KSEA 161313Z 16007KT 10SM FEW008 SCT025 BKN050 M02/M03 A3010 RMK AO2=
201201161253 METAR KSEA 161253Z 17007KT 7SM SCT025 BKN050 M02/M03 A3010 RMK AO2 SLP203 4/002 T10171033=
201201161246 SPECI KSEA 161246Z 16006KT 7SM SCT025 BKN050 M02/M03 A3010 RMK AO2 4/002=
201201161246 SPECI KSEA 161246Z 16006KT 7SM SCT025 BKN050 M02/M03 A3010 RMK AO2 4/002=
201201161153 METAR KSEA 161153Z 19007KT 7SM FEW010 BKN025 BKN055 M01/M02 A3011 RMK AO2 SNB12E42 SLP208 4/002 P0000 60001 70022 T10061017 11006 21033 50003=
201201161053 METAR KSEA 161053Z 15005KT 10SM FEW010 BKN025 BKN055 M01/M02 A3011 RMK AO2 SLP209 T10111022=
201201160953 METAR KSEA 160953Z 15006KT 7SM FEW010 BKN018 OVC030 M01/M02 A3011 RMK AO2 SNE51 SLP208 P0000 T10111022=
201201160853 METAR KSEA 160853Z 16003KT 7SM -SN BKN018 OVC030 M01/M02 A3010 RMK AO2 SNB26 SLP204 P0001 60001 T10111022 51010=
201201160832 SPECI KSEA 160832Z 15004KT 6SM -SN BR BKN016 BKN030 OVC050 M01/M02 A3010 RMK AO2 SNB26 P0001=
201201160832 SPECI KSEA 160832Z 15004KT 6SM -SN BR BKN016 BKN030 OVC050 M01/M02 A3010 RMK AO2 SNB26 P0001=
201201160753 METAR KSEA 160753Z 15003KT 10SM SCT020 BKN035 OVC055 M01/M02 A3010 RMK AO2 SLP204 T10111022 400111033=
201201160653 METAR KSEA 160653Z 17004KT 7SM SCT015 M02/M03 A3009 RMK AO2 SLP201 T10221033=
201201160553 METAR KSEA 160553Z 18003KT 6SM BR FEW001 SCT010 M03/M03 A3007 RMK AO2 SLP194 60000 4/002 T10281033 10000 21028 51012 $=
201201160547 SPECI KSEA 160547Z 17005KT 6SM BR FEW001 M03/M03 A3007 RMK AO2=
201201160547 SPECI KSEA 160547Z 17005KT 6SM BR FEW001 M03/M03 A3007 RMK AO2=
201201160453 METAR KSEA 160453Z 05006KT 10SM SCT015 M01/M03 A3005 RMK AO2 SLP187 T10061028=
201201160353 METAR KSEA 160353Z 03007KT 10SM FEW010 M01/M03 A3004 RMK AO2 SLP182 T10061028=
201201160253 METAR KSEA 160253Z 02007KT 10SM FEW020 SCT110 M01/M02 A3002 RMK AO2 SNE04 SLP177 P0000 60000 T10111022 51007=
201201160212 SPECI KSEA 160212Z 36004KT 6SM BR FEW005 BKN045 OVC110 M01/M02 A3001 RMK AO2 SNE04 P0000=
201201160212 SPECI KSEA 160212Z 36004KT 6SM BR FEW005 BKN045 OVC110 M01/M02 A3001 RMK AO2 SNE04 P0000=
201201160153 METAR KSEA 160153Z 35004KT 4SM -SN BR SCT005 BKN018 OVC047 M01/M02 A3001 RMK AO2 SNB35 SLP174 P0000 T10111017=
201201160149 SPECI KSEA 160149Z 35004KT 4SM -SN BR SCT005 BKN018 OVC047 M01/M02 A3001 RMK AO2 SNB35 P0000=
201201160149 SPECI KSEA 160149Z 35004KT 4SM -SN BR SCT005 BKN018 OVC047 M01/M02 A3001 RMK AO2 SNB35 P0000=
201201160124 SPECI KSEA 160124Z 34004KT 6SM BR BKN005 BKN033 OVC070 M01/M02 A3001 RMK AO2=
201201160124 SPECI KSEA 160124Z 34004KT 6SM BR BKN005 BKN033 OVC070 M01/M02 A3001 RMK AO2=
201201160053 METAR KSEA 160053Z 03006KT 7SM SCT003 BKN035 OVC050 00/M02 A3000 RMK AO2 SNE01 SLP169 P0000 T00001017=
201201160015 SPECI KSEA 160015Z 06006KT 10SM FEW006 BKN027 BKN060 00/M02 A2999 RMK AO2 SNE01 P0000=
201201160015 SPECI KSEA 160015Z 06006KT 10SM FEW006 BKN027 BKN060 00/M02 A2999 RMK AO2 SNE01 P0000=
201201152353 METAR KSEA 152353Z 04007KT 4SM -SN BR SCT016 BKN060 BKN150 M01/M02 A2999 RMK AO2 SLP165 P0001 60019 4/002 T10061022 10011 21006 53005=
201201152343 SPECI KSEA 152343Z 02005KT 4SM -SN BR SCT020 BKN060 BKN160 M01/M02 A2999 RMK AO2 P0001=
201201152343 SPECI KSEA 152343Z 02005KT 4SM -SN BR SCT020 BKN060 BKN160 M01/M02 A2999 RMK AO2 P0001=
201201152335 SPECI KSEA 152335Z 01005KT 2SM -SN BR BKN024 BKN060 BKN160 M01/M02 A2999 RMK AO2 P0001=
201201152335 SPECI KSEA 152335Z 01005KT 2SM -SN BR BKN024 BKN060 BKN160 M01/M02 A2999 RMK AO2 P0001=
201201152323 SPECI KSEA 152323Z 01005KT 2SM -SN BR BKN030 OVC060 M01/M02 A2999 RMK AO2 P0001=
201201152323 SPECI KSEA 152323Z 01005KT 2SM -SN BR BKN030 OVC060 M01/M02 A2999 RMK AO2 P0001=
201201152253 METAR KSEA 152253Z 36007KT 1 1/2SM -SN BR FEW006 BKN024 OVC030 00/M02 A2998 RMK AO2 SLP163 SNINCR 1/2 P0005 T00001017=
201201152243 SPECI KSEA 152243Z 35007KT 1 1/2SM -SN BR FEW005 BKN024 OVC030 00/M01 A2998 RMK AO2 P0005=
201201152243 SPECI KSEA 152243Z 35007KT 1 1/2SM -SN BR FEW005 BKN024 OVC030 00/M01 A2998 RMK AO2 P0005=
201201152224 SPECI KSEA 152224Z 33006KT 1SM R16L/3500V5500FT -SN BR BKN005 BKN010 OVC016 M01/M01 A2998 RMK AO2 P0005=
201201152224 SPECI KSEA 152224Z 33006KT 1SM R16L/3500V5500FT -SN BR BKN005 BKN010 OVC016 M01/M01 A2998 RMK AO2 P0005=
201201152215 SPECI KSEA 152215Z 33009KT 1/2SM R16L/2000V4500FT SN BKN003 BKN010 OVC016 M01/M01 A2997 RMK AO2 P0005=
201201152215 SPECI KSEA 152215Z 33009KT 1/2SM R16L/2000V4500FT SN BKN003 BKN010 OVC016 M01/M01 A2997 RMK AO2 P0005=
201201152153 METAR KSEA 152153Z 34006KT 1/2SM R16L/1400V1800FT SN BKN002 BKN010 OVC016 00/M01 A2997 RMK AO2 SFC VIS 3/4 SLP159 P0009 T00001006=
201201152146 SPECI KSEA 152146Z 34005KT 1/4SM R16L/1400V1600FT SN BKN002 BKN006 OVC018 00/M01 A2997 RMK AO2 TWR VIS 1/2 P0007=
201201152146 SPECI KSEA 152146Z 34005KT 1/4SM R16L/1400V1600FT SN BKN002 BKN006 OVC018 00/M01 A2997 RMK AO2 TWR VIS 1/2 P0007=
201201152134 SPECI KSEA 152134Z 30005KT 1/2SM R16L/2200VP6000FT -SN BR SCT006 BKN012 OVC023 00/M02 A2997 RMK AO2 SFC VIS 1 VIS M1/4V5 P0002=
201201152134 SPECI KSEA 152134Z 30005KT 1/2SM R16L/2200VP6000FT -SN BR SCT006 BKN012 OVC023 00/M02 A2997 RMK AO2 SFC VIS 1 VIS M1/4V5 P0002=
201201152118 SPECI KSEA 152118Z 00000KT 3SM -SN BR SCT006 BKN012 OVC022 01/M01 A2997 RMK AO2 SFC VIS 4 P0000=
201201152118 SPECI KSEA 152118Z 00000KT 3SM -SN BR SCT006 BKN012 OVC022 01/M01 A2997 RMK AO2 SFC VIS 4 P0000=
201201152053 METAR KSEA 152053Z 00000KT 2SM R16L/4500VP6000FT -SN BR SCT005 BKN027 OVC033 01/00 A2997 RMK AO2 SLP160 P0002 60004 T00060000 58007=
201201151953 METAR KSEA 151953Z 17004KT 2SM R16L/4500VP6000FT -SN BR FEW005 BKN009 OVC013 00/M01 A2998 RMK AO2 SLP164 P0002 T00001006=
201201151944 SPECI KSEA 151944Z 00000KT 4SM -SN BR BKN009 OVC013 00/M01 A2999 RMK AO2 P0001=
201201151944 SPECI KSEA 151944Z 00000KT 4SM -SN BR BKN009 OVC013 00/M01 A2999 RMK AO2 P0001=
201201151929 SPECI KSEA 151929Z 16004KT 3SM -SN BR SCT008 BKN016 OVC065 00/M01 A2999 RMK AO2 P0001=
201201151929 SPECI KSEA 151929Z 16004KT 3SM -SN BR SCT008 BKN016 OVC065 00/M01 A2999 RMK AO2 P0001=
201201151853 METAR KSEA 151853Z 17005KT 2SM -SN BR BKN008 OVC024 01/M01 A3000=
201201151851 SPECI KSEA 151851Z 17005KT 1 3/4SM -SN BR BKN008 BKN011 OVC029 00/M01 A3000 RMK AO2 SNE12B30 P0000=
201201151851 SPECI KSEA 151851Z 17005KT 1 3/4SM -SN BR BKN008 BKN011 OVC029 00/M01 A3000 RMK AO2 SNE12B30 P0000=
201201151826 SPECI KSEA 151826Z 17006KT 10SM SCT008 BKN011 OVC029 01/M01 A3000 RMK AO2 SNE12 P0000=
201201151826 SPECI KSEA 151826Z 17006KT 10SM SCT008 BKN011 OVC029 01/M01 A3000 RMK AO2 SNE12 P0000=
201201151753 METAR KSEA 151753Z 17006KT 4SM -SN BR BKN011 OVC027 01/M01 A2999 RMK AO2 SNB26 SLP167 P0001 60002 T00061011 10006 21006 53004=
201201151653 METAR KSEA 151653Z 18006KT 10SM BKN013 OVC027 00/M01 A2998 RMK AO2 SNE13 SLP163 P0000 T00001011=
201201151632 SPECI KSEA 151632Z 16004KT 10SM SCT013 OVC022 00/M01 A2998 RMK AO2 SNE13 P0000=
201201151632 SPECI KSEA 151632Z 16004KT 10SM SCT013 OVC022 00/M01 A2998 RMK AO2 SNE13 P0000=
201201151604 SPECI KSEA 151604Z 17004KT 2SM -SN BR SCT009 OVC020 M01/M01 A2998 RMK AO2 SFC VIS 4 P0000=
201201151604 SPECI KSEA 151604Z 17004KT 2SM -SN BR SCT009 OVC020 M01/M01 A2998 RMK AO2 SFC VIS 4 P0000=
201201151556 SPECI KSEA 151556Z 17004KT 1/2SM R16L/4500VP6000FT -SN BR BKN011 BKN022 OVC030 M01/M02 A2998 RMK AO2 SFC VIS 2 P0000=
201201151556 SPECI KSEA 151556Z 17004KT 1/2SM R16L/4500VP6000FT -SN BR BKN011 BKN022 OVC030 M01/M02 A2998 RMK AO2 SFC VIS 2 P0000=
201201151553 METAR KSEA 151553Z 17005KT 3SM -SN BR BKN011 BKN022 OVC034 M01/M02 A2998 RMK AO2 SFC VIS 5 SNB22 SLP161 P0001 T10061017=
201201151525 SPECI KSEA 151525Z 16006KT 3SM -SN BR BKN013 BKN019 OVC034 00/M02 A2998 RMK AO2 SFC VIS 6 SNB22 P0000=
201201151525 SPECI KSEA 151525Z 16006KT 3SM -SN BR BKN013 BKN019 OVC034 00/M02 A2998 RMK AO2 SFC VIS 6 SNB22 P0000=
201201151453 METAR KSEA 151453Z 16006KT 10SM SCT013 BKN018 OVC023 00/M02 A2998 RMK AO2 SLP163 T00001022 56004=
201201151355 SPECI KSEA 151355Z 17005KT 10SM SCT009 OVC013 00/M02 A2999 RMK AO2=
201201151355 SPECI KSEA 151355Z 17005KT 10SM SCT009 OVC013 00/M02 A2999 RMK AO2=
201201151353 METAR KSEA 151353Z 18007KT 10SM SCT010 BKN015 OVC026 00/M02 A2999 RMK AO2 SLP165 T00001017=
201201151322 SPECI KSEA 151322Z 17005KT 10SM SCT010 BKN025 OVC032 01/M02 A2999 RMK AO2=
201201151322 SPECI KSEA 151322Z 17005KT 10SM SCT010 BKN025 OVC032 01/M02 A2999 RMK AO2=
201201151253 METAR KSEA 151253Z 20009KT 10SM BKN010 BKN015 OVC030 01/M02 A2999 RMK AO2 SLP167 T00061017=
201201151250 SPECI KSEA 151250Z 21009KT 10SM BKN010 BKN015 OVC030 01/M02 A3000 RMK AO2=
201201151250 SPECI KSEA 151250Z 21009KT 10SM BKN010 BKN015 OVC030 01/M02 A3000 RMK AO2=
201201151153 METAR KSEA 151153Z 21013KT 10SM BKN010 BKN025 01/M02 A3000 RMK AO2 SLP169 70016 T00061017 10011 20006 53004=
201201151053 METAR KSEA 151053Z 20013KT 10SM BKN010 BKN016 BKN100 01/M02 A2999 RMK AO2 SLP166 T00061022=
201201150953 METAR KSEA 150953Z 18007KT 10SM BKN009 OVC015 01/M02 A2999 RMK AO2 SLP166 T00061017=
201201150935 SPECI KSEA 150935Z 18008KT 10SM BKN009 OVC015 01/M02 A2999 RMK AO2=
201201150935 SPECI KSEA 150935Z 18008KT 10SM BKN009 OVC015 01/M02 A2999 RMK AO2=
201201150853 METAR KSEA 150853Z 20009KT 10SM SCT009 BKN015 OVC020 01/M02 A2999 RMK AO2 SLP164 T00111017 55001=
201201150844 SPECI KSEA 150844Z 20010KT 10SM FEW009 BKN015 OVC020 01/M02 A2999 RMK AO2=
201201150844 SPECI KSEA 150844Z 20010KT 10SM FEW009 BKN015 OVC020 01/M02 A2999 RMK AO2=
201201150823 SPECI KSEA 150823Z 21009KT 10SM BKN013 OVC020 01/M02 A2999 RMK AO2=
201201150823 SPECI KSEA 150823Z 21009KT 10SM BKN013 OVC020 01/M02 A2999 RMK AO2=
201201150753 METAR KSEA 150753Z 21012KT 10SM BKN015 BKN020 01/M02 A2998 RMK AO2 SLP162 T00111017 400440006=
201201150719 SPECI KSEA 150719Z 20011KT 10SM BKN016 OVC024 01/M02 A2998 RMK AO2=
201201150719 SPECI KSEA 150719Z 20011KT 10SM BKN016 OVC024 01/M02 A2998 RMK AO2=
201201150653 METAR KSEA 150653Z 20013G20KT 10SM BKN012 OVC020 01/M02 A2998 RMK AO2 SLP162 T00061017=
201201150553 METAR KSEA 150553Z 20012G19KT 10SM BKN013 OVC020 01/M02 A2999 RMK AO2 SLP165 T00111017 10028 20006 53002=
201201150453 METAR KSEA 150453Z 19014G21KT 10SM BKN015 BKN100 01/M02 A2998 RMK AO2 SLP160 T00111017=
201201150353 METAR KSEA 150353Z 19008G17KT 10SM BKN019 OVC110 02/M02 A2998 RMK AO2 SLP163 T00171022=
201201150253 METAR KSEA 150253Z 20010G20KT 10SM BKN017 02/M02 A2998 RMK AO2 SLP161 T00171017 53013=
201201150240 SPECI KSEA 150240Z 22013G20KT 10SM BKN015 02/M01 A2997 RMK AO2=
201201150240 SPECI KSEA 150240Z 22013G20KT 10SM BKN015 02/M01 A2997 RMK AO2=
201201150201 SPECI KSEA 150201Z 21008KT 10SM BKN013 BKN018 OVC110 02/M01 A2996 RMK AO2=
201201150201 SPECI KSEA 150201Z 21008KT 10SM BKN013 BKN018 OVC110 02/M01 A2996 RMK AO2=
201201150153 METAR KSEA 150153Z 21013G21KT 10SM BKN015 OVC110 02/M02 A2996 RMK AO2 SLP155 T00171017=
201201150135 SPECI KSEA 150135Z 23011G24KT 10SM BKN016 BKN021 BKN100 02/M02 A2996 RMK AO2=
201201150135 SPECI KSEA 150135Z 23011G24KT 10SM BKN016 BKN021 BKN100 02/M02 A2996 RMK AO2=
201201150053 METAR KSEA 150053Z 21018G23KT 10SM FEW020 BKN120 02/M01 A2994=
201201142353 METAR KSEA 142353Z 22014G25KT 10SM FEW021 BKN120 03/M02 A2994 RMK AO2 PK WND 22030/2314 SLP147 60007 T00281022 10044 20028 53004=
201201142253 METAR KSEA 142253Z 23017G28KT 10SM FEW021 BKN090 BKN110 04/M02 A2993 RMK AO2 PK WND 23028/2244 SLP143 T00391022=
201201142153 METAR KSEA 142153Z 23014G22KT 10SM SCT020 BKN032 BKN070 04/M01 A2993 RMK AO2 PK WND 21029/2130 SLP143 T00391006=
201201142053 METAR KSEA 142053Z 22018G26KT 10SM FEW012 BKN065 BKN080 04/01 A2992 RMK AO2 PK WND 23028/2037 RAE22 SLP142 P0000 60007 T00390006 53009=
201201142023 SPECI KSEA 142023Z 21012KT 10SM SCT010 BKN030 BKN080 04/02 A2992 RMK AO2 RAE22 P0000=
201201142023 SPECI KSEA 142023Z 21012KT 10SM SCT010 BKN030 BKN080 04/02 A2992 RMK AO2 RAE22 P0000=
201201142015 SPECI KSEA 142015Z 21015G22KT 10SM -RA OVC010 04/02 A2991 RMK AO2 P0000=
201201142015 SPECI KSEA 142015Z 21015G22KT 10SM -RA OVC010 04/02 A2991 RMK AO2 P0000=
201201141953 METAR KSEA 141953Z 21017G22KT 10SM -RA BKN008 OVC012 04/02 A2990 RMK AO2 PK WND 20028/1913 SLP133 P0000 T00390022=
201201141910 SPECI KSEA 141910Z 22014G25KT 9SM -RA OVC008 04/03 A2989 RMK AO2 P0000=
201201141910 SPECI KSEA 141910Z 22014G25KT 9SM -RA OVC008 04/03 A2989 RMK AO2 P0000=
201201141853 METAR KSEA 141853Z 22014G23KT 7SM -RA OVC004 04/03 A2990 RMK AO2 SLP133 P0007 T00440033=
201201141753 METAR KSEA 141753Z 19009KT 3SM -RA BR OVC004 04/03 A2990 RMK AO2 SLP133 P0001 60009 T00390033 10039 20022 56014=
201201141653 METAR KSEA 141653Z 18013G21KT 3SM -RA BR OVC004 04/03 A2990 RMK AO2 SLP135 P0001 T00390028=
201201141553 METAR KSEA 141553Z 17010KT 4SM -RA BR BKN006 OVC011 03/02 A2992 RMK AO2 RAE10B44SNB10E44 SLP142 P0003 T00280017=
201201141533 SPECI KSEA 141533Z 17009KT 4SM -SN BR BKN008 OVC013 03/02 A2993 RMK AO2 RAE10SNB10 P0002=
201201141533 SPECI KSEA 141533Z 17009KT 4SM -SN BR BKN008 OVC013 03/02 A2993 RMK AO2 RAE10SNB10 P0002=
201201141521 SPECI KSEA 141521Z 18010KT 3SM -SN BR BKN010 OVC014 03/02 A2994 RMK AO2 RAE10SNB10 P0001=
201201141521 SPECI KSEA 141521Z 18010KT 3SM -SN BR BKN010 OVC014 03/02 A2994 RMK AO2 RAE10SNB10 P0001=
201201141453 METAR KSEA 141453Z 16008KT 9SM -RA OVC017 03/01 A2994 RMK AO2 SLP147 P0002 60004 T00280006 58017=
201201141419 SPECI KSEA 141419Z 15010KT 10SM -RA BKN021 OVC031 03/01 A2994 RMK AO2 P0001=
201201141419 SPECI KSEA 141419Z 15010KT 10SM -RA BKN021 OVC031 03/01 A2994 RMK AO2 P0001=
201201141353 METAR KSEA 141353Z 17008KT 8SM -RA OVC031 03/00 A2996 RMK AO2 SLP156 P0002 T00280000=
201201141253 METAR KSEA 141253Z 16006KT 10SM -RA FEW012 OVC043 03/01 A2997 RMK AO2 RAB10 SLP157 P0000 T00330006=
201201141153 METAR KSEA 141153Z 00000KT 10SM OVC040 03/M01 A2999 RMK AO2 SLP164 T00281011 10039 20028 56010=
201201141053 METAR KSEA 141053Z 00000KT 10SM OVC039 03/M01 A3000 RMK AO2 SLP167 T00331011=
201201140953 METAR KSEA 140953Z 00000KT 10SM OVC039 03/M01 A3000 RMK AO2 SLP170 T00281011=
201201140853 METAR KSEA 140853Z 00000KT 10SM OVC043 03/M02 A3002 RMK AO2 SLP174 T00331017 58017=
201201140753 METAR KSEA 140753Z 13003KT 10SM OVC045 03/M02 A3004 RMK AO2 SLP182 T00331017 400501028=
201201140653 METAR KSEA 140653Z 13006KT 10SM OVC045 03/M01 A3006 RMK AO2 SLP187 T00281011=
201201140553 METAR KSEA 140553Z 15006KT 10SM BKN050 OVC150 03/M01 A3007 RMK AO2 SLP192 T00281011 10044 20017 56014=
201201140453 METAR KSEA 140453Z 00000KT 10SM OVC180 03/M01 A3008 RMK AO2 SLP196 T00281011=
201201140353 METAR KSEA 140353Z 00000KT 10SM OVC180 03/M01 A3009 RMK AO2 SLP198 T00331011=
201201140253 METAR KSEA 140253Z 00000KT 10SM OVC200 02/M02 A3011 RMK AO2 SLP206 T00221017 58017=
201201140153 METAR KSEA 140153Z 00000KT 10SM FEW140 BKN200 03/M01 A3012 RMK AO2 SLP210 T00281006=
201201140053 METAR KSEA 140053Z 00000KT 10SM SCT140 BKN200 03/M01 A3015 RMK AO2 SLP221 T00331011=
201201132353 METAR KSEA 132353Z 00000KT 10SM SCT140 OVC200 04/M01 A3016 RMK AO2 SLP223 T00441006 10050 20017 56021=
201201132253 METAR KSEA 132253Z 00000KT 10SM FEW140 OVC200 04/M01 A3018 RMK AO2 SLP231 T00441011=
201201132153 METAR KSEA 132153Z 00000KT 10SM BKN180 OVC250 05/M01 A3019 RMK AO2 SLP234 T00501011=
201201132053 METAR KSEA 132053Z 03003KT 10SM BKN180 BKN250 05/M02 A3022 RMK AO2 SLP244 T00501017 58023=
201201131953 METAR KSEA 131953Z 34004KT 10SM FEW120 BKN180 BKN250 04/M01 A3025 RMK AO2 SLP254 T00441011=
201201131853 METAR KSEA 131853Z 32003KT 10SM SCT180 BKN250 03/M01 A3028 RMK AO2 SLP266 T00281011=
201201131753 METAR KSEA 131753Z 05004KT 10SM FEW180 BKN250 02/M02 A3029 RMK AO2 SLP268 T00171017 10017 21028 50000=
201201131653 METAR KSEA 131653Z 00000KT 10SM FEW180 BKN250 M01/M03 A3030 RMK AO2 SLP270 T10111028=
201201131553 METAR KSEA 131553Z 03006KT 10SM SCT200 M01/M03 A3031 RMK AO2 SLP273 T10111033=
201201131453 METAR KSEA 131453Z 04006KT 10SM FEW200 M01/M04 A3029 RMK AO2 SLP268 T10111039 58004=
201201131353 METAR KSEA 131353Z 02003KT 10SM CLR M01/M03 A3030 RMK AO2 SLP272 T10061028=
201201131253 METAR KSEA 131253Z 05006KT 10SM CLR M01/M03 A3030 RMK AO2 SLP272 T10111033=
201201131153 METAR KSEA 131153Z 02004KT 10SM CLR 00/M03 A3030 RMK AO2 SLP271 T00001028 10028 21017 53001=
201201131053 METAR KSEA 131053Z 02004KT 10SM CLR M01/M03 A3029 RMK AO2 SLP268 T10061033=
201201130953 METAR KSEA 130953Z 00000KT 10SM CLR M01/M03 A3030 RMK AO2 SLP270 T10061033=
201201130853 METAR KSEA 130853Z 12003KT 10SM CLR 00/M03 A3030 RMK AO2 SLP270 T00001028 58002=
201201130753 METAR KSEA 130753Z 02006KT 10SM FEW090 SCT200 02/M03 A3032 RMK AO2 SLP275 T00171033 400611017=
201201130653 METAR KSEA 130653Z 35004KT 10SM FEW085 SCT200 01/M03 A3031=
201201130553 METAR KSEA 130553Z 00000KT 10SM FEW100 SCT200 03/M03 A3030 RMK AO2 SLP272 T00281028 10056 20022 55001=
201201130453 METAR KSEA 130453Z 04006KT 10SM BKN200 04/M02 A3029 RMK AO2 SLP269 T00391017=
201201130353 METAR KSEA 130353Z 36006KT 10SM BKN200 02/M02 A3031 RMK AO2 SLP275 T00221022=
201201130253 METAR KSEA 130253Z 33004KT 10SM BKN200 03/M02 A3031 RMK AO2 SLP273 T00281022 53001=
201201130153 METAR KSEA 130153Z 17003KT 10SM BKN200 03/M01 A3029 RMK AO2 SLP267 T00331011=
201201130053 METAR KSEA 130053Z 00000KT 10SM BKN200 04/M01 A3030 RMK AO2 SLP270 T00441006=
201201122353 METAR KSEA 122353Z 00000KT 10SM SCT017 OVC250 06/M01 A3030 RMK AO2 SLP271 T00561011 10061 20017 52004=
201201122253 METAR KSEA 122253Z 00000KT 10SM SCT180 BKN250 06/00 A3030 RMK AO2 SLP269 T00560000=
201201122153 METAR KSEA 122153Z 26004KT 10SM SCT180 BKN250 05/M01 A3030 RMK AO2 SLP270 T00501011=
201201122053 METAR KSEA 122053Z 00000KT 10SM BKN200 06/M04 A3029 RMK AO2 SLP267 T00561044 58013=
201201121953 METAR KSEA 121953Z 14003KT 10SM BKN200 04/M02 A3031 RMK AO2 SLP275 T00391022=
201201121853 METAR KSEA 121853Z 00000KT 10SM BKN200 03/M04 A3033 RMK AO2 SLP280 T00331039=
201201121753 METAR KSEA 121753Z 00000KT 10SM BKN200 02/M03 A3033 RMK AO2 SLP281 T00171033 10017 21017 56005=
201201121653 METAR KSEA 121653Z 00000KT 10SM BKN200 01/M04 A3034 RMK AO2 SLP283 T00061039=
201201121553 METAR KSEA 121553Z 04006KT 10SM BKN250 01/M04 A3034 RMK AO2 SLP284 T00061044=
201201121453 METAR KSEA 121453Z 10004KT 10SM BKN250 00/M04 A3034 RMK AO2 SLP286 T00001044 53001=
201201121353 METAR KSEA 121353Z 03007KT 10SM BKN250 M01/M04 A3034 RMK AO2 SLP285 T10061044=
201201121253 METAR KSEA 121253Z 32006KT 10SM SCT200 01/M05 A3034 RMK AO2 SLP286 T00061050=
201201121153 METAR KSEA 121153Z VRB05KT 10SM SCT200 00/M05 A3034 RMK AO2 SLP284 T00001050 10011 21017 58011 $=
201201121053 METAR KSEA 121053Z 03009KT 10SM BKN200 01/M04 A3037 RMK AO2 SLP295 T00061039=
201201120953 METAR KSEA 120953Z 01007KT 10SM FEW200 M01/M04 A3038 RMK AO2 SLP297 T10061039=
201201120853 METAR KSEA 120853Z 02009KT 10SM CLR M01/M04 A3037 RMK AO2 SLP295 T10061044 55006=
201201120753 METAR KSEA 120753Z 05009KT 10SM CLR 01/M04 A3037 RMK AO2 PRESFR SLP294 T00061044 400611011=
201201120653 METAR KSEA 120653Z 02009KT 10SM CLR 01/M04 A3039 RMK AO2 SLP300 T00061039=
201201120553 METAR KSEA 120553Z 02009KT 10SM CLR 01/M03 A3039 RMK AO2 SLP302 T00061033 10056 20000 53002=
201201120453 METAR KSEA 120453Z 01008KT 10SM CLR 00/M03 A3038 RMK AO2 SLP299 T00001033=
201201120353 METAR KSEA 120353Z 02010KT 10SM CLR 02/M03 A3039 RMK AO2 SLP301 T00171033=
201201120253 METAR KSEA 120253Z 02010KT 10SM CLR 02/M03 A3038 RMK AO2 SLP300 T00221033 58008=
201201120153 METAR KSEA 120153Z 36008KT 10SM FEW200 02/M04 A3040 RMK AO2 SLP306 T00221039=
201201120053 METAR KSEA 120053Z 01010KT 10SM SCT200 04/M04 A3041 RMK AO2 SLP307 T00391039=
201201112353 METAR KSEA 112353Z 36007KT 10SM FEW200 05/M03 A3041 RMK AO2 SLP307 T00501028 10061 20022 56005=
201201112253 METAR KSEA 112253Z 02013KT 10SM FEW200 06/M04 A3041 RMK AO2 SLP308 T00561039=
201201112153 METAR KSEA 112153Z 02013KT 10SM FEW200 06/M05 A3040 RMK AO2 SLP304 T00561050=
201201112053 METAR KSEA 112053Z 36011KT 10SM BKN200 06/M03 A3043 RMK AO2 SLP312 T00561028 58019=
201201111953 METAR KSEA 111953Z 36010KT 10SM BKN200 04/M04 A3044 RMK AO2 SLP318 T00391039=
201201111853 METAR KSEA 111853Z 01013KT 10SM BKN200 04/M03 A3046 RMK AO2 SLP326 T00391028=
201201111753 METAR KSEA 111753Z 02010KT 10SM BKN200 02/M03 A3048 RMK AO2 SLP332 T00221033 10022 20000 58003=
201201111653 METAR KSEA 111653Z 01009KT 10SM BKN200 01/M02 A3049 RMK AO2 SLP335 T00111022=
201201111553 METAR KSEA 111553Z 02010KT 10SM BKN200 01/M03 A3049 RMK AO2 SLP336 T00061028=
201201111453 METAR KSEA 111453Z 03011KT 10SM OVC200 01/M02 A3049 RMK AO2 SLP336 T00061022 52001=
201201111353 METAR KSEA 111353Z 03008KT 10SM SCT200 00/M02 A3049 RMK AO2 SLP337 T00001017=
201201111253 METAR KSEA 111253Z 03008KT 10SM CLR 01/M02 A3048 RMK AO2 SLP334 T00061022=
201201111153 METAR KSEA 111153Z 01009KT 10SM SCT200 00/M02 A3049=
201201111053 METAR KSEA 111053Z 04011KT 10SM CLR 01/M02 A3051 RMK AO2 SLP340 T00061017=
201201110953 METAR KSEA 110953Z 03010KT 10SM FEW200 01/M02 A3050 RMK AO2 SLP339 T00111017=
201201110853 METAR KSEA 110853Z 03009KT 10SM CLR 02/M01 A3051 RMK AO2 SLP340 T00171011 56000=
201201110753 METAR KSEA 110753Z 02008KT 10SM CLR 01/M01 A3051 RMK AO2 SLP341 T00111006 400610006=
201201110653 METAR KSEA 110653Z 02009KT 10SM CLR 01/M02 A3050 RMK AO2 SLP338 T00111017=
201201110553 METAR KSEA 110553Z 03007KT 10SM CLR 02/M01 A3051 RMK AO2 SLP340 T00171011 10056 20011 58002=
201201110453 METAR KSEA 110453Z 04009KT 10SM CLR 02/M01 A3051 RMK AO2 SLP343 T00221011=
201201110353 METAR KSEA 110353Z 03008KT 10SM CLR 03/M01 A3052 RMK AO2 SLP346 T00281011=
201201110253 METAR KSEA 110253Z 35006KT 10SM CLR 02/M02 A3051 RMK AO2 SLP342 T00171022 53002=
201201110153 METAR KSEA 110153Z 01007KT 10SM FEW040 SCT250 02/M02 A3051 RMK AO2 SLP341 T00221022=
201201110053 METAR KSEA 110053Z 35007KT 10SM FEW040 SCT250 03/M02 A3050 RMK AO2 SLP340 T00281017=
201201102353 METAR KSEA 102353Z 35005KT 10SM FEW030 BKN042 BKN250 06/M01 A3051 RMK AO2 SLP341 T00561011 10061 20033 51006=
201201102253 METAR KSEA 102253Z 36008KT 10SM FEW032 BKN046 06/M01 A3050 RMK AO2 SLP339 T00611011=
201201102153 METAR KSEA 102153Z 35007KT 10SM FEW032 BKN044 06/M01 A3050 RMK AO2 SLP337 T00561011=
201201102053 METAR KSEA 102053Z 34007KT 10SM FEW030 BKN044 06/M01 A3049 RMK AO2 SLP334 T00561011 51010=
201201101953 METAR KSEA 101953Z 33006KT 10SM FEW030 BKN046 05/01 A3049 RMK AO2 SLP333 T00500006=
201201101853 METAR KSEA 101853Z 32005KT 10SM BKN039 OVC047 04/00 A3048 RMK AO2 SLP331 T00440000=
201201101753 METAR KSEA 101753Z 29003KT 10SM FEW028 BKN039 OVC050 03/01 A3046 RMK AO2 RAE1656 SLP325 P0000 60001 T00330011 10044 20028 53022=
201201101653 METAR KSEA 101653Z 02006KT 9SM -RA FEW026 BKN031 OVC040 03/01 A3044 RMK AO2 SLP316 P0001 T00330006=
201201101644 SPECI KSEA 101644Z 02007KT 10SM -RA SCT027 BKN033 OVC041 03/01 A3043 RMK AO2 RAB1554UPB37E38 P0001=
201201101644 SPECI KSEA 101644Z 02007KT 10SM -RA SCT027 BKN033 OVC041 03/01 A3043 RMK AO2 RAB1554UPB37E38 P0001=
201201101553 METAR KSEA 101553Z 04010KT 10SM BKN027 BKN035 04/00 A3042=
201201101453 METAR KSEA 101453Z 04006KT 10SM BKN023 OVC031 04/02 A3040 RMK AO2 SLP302 T00440017 53015=
201201101353 METAR KSEA 101353Z 01005KT 10SM SCT024 BKN030 04/01 A3038 RMK AO2 SLP295 T00390011=
201201101312 SPECI KSEA 101312Z 02005KT 10SM BKN025 BKN038 04/01 A3036 RMK AO2=
201201101312 SPECI KSEA 101312Z 02005KT 10SM BKN025 BKN038 04/01 A3036 RMK AO2=
201201101253 METAR KSEA 101253Z 04005KT 10SM SCT038 BKN055 04/01 A3036 RMK AO2 SLP289 T00390006=
201201101153 METAR KSEA 101153Z 03007KT 10SM FEW025 OVC048 04/01 A3035 RMK AO2 RAE17 SLP286 P0002 60004 70020 T00440006 10061 20039 51019=
201201101135 SPECI KSEA 101135Z 01009KT 10SM OVC042 05/01 A3035 RMK AO2 RAE17 P0002=
201201101135 SPECI KSEA 101135Z 01009KT 10SM OVC042 05/01 A3035 RMK AO2 RAE17 P0002=
201201101053 METAR KSEA 101053Z 02012KT 10SM -RA OVC029 04/01 A3034 RMK AO2 RAB05 SLP281 P0001 T00390011=
201201100953 METAR KSEA 100953Z 03005KT 10SM OVC045 04/01 A3031 RMK AO2 RAB32E41 SLP274 P0000 T00390011=
201201100853 METAR KSEA 100853Z 36003KT 10SM FEW040 OVC060 06/02 A3029 RMK AO2 SLP267 60001 T00560017 52015=
201201100753 METAR KSEA 100753Z 00000KT 10SM OVC070 05/04 A3028 RMK AO2 SLP263 T00500039 400940050=
201201100653 METAR KSEA 100653Z 05006KT 10SM OVC049 06/02 A3026=
201201100553 METAR KSEA 100553Z 07008KT 10SM -RA OVC034 06/03 A3025 RMK AO2 SLP252 P0006 60016 T00560033 10078 20056 50008=
201201100453 METAR KSEA 100453Z 02007KT 5SM RA BR OVC034 06/04 A3025 RMK AO2 SLP253 P0007 T00610039=
201201100353 METAR KSEA 100353Z 01008KT 9SM -RA OVC030 07/04 A3025 RMK AO2 RAB03 SLP250 P0002 T00670044=
201201100325 SPECI KSEA 100325Z 36008KT 10SM -RA BKN030 OVC037 07/04 A3024 RMK AO2 RAB03 P0001=
201201100325 SPECI KSEA 100325Z 36008KT 10SM -RA BKN030 OVC037 07/04 A3024 RMK AO2 RAB03 P0001=
201201100253 METAR KSEA 100253Z 03006KT 10SM BKN024 OVC030 07/05 A3023 RMK AO2 SLP244 60001 T00720050 50001=
201201100153 METAR KSEA 100153Z 01007KT 10SM FEW009 OVC016 07/05 A3024 RMK AO2 SLP249 T00720050=
201201100143 SPECI KSEA 100143Z 02007KT 10SM FEW009 OVC016 07/06 A3024 RMK AO2=
201201100143 SPECI KSEA 100143Z 02007KT 10SM FEW009 OVC016 07/06 A3024 RMK AO2=
201201100105 SPECI KSEA 100105Z 03006KT 10SM SCT009 OVC014 07/06 A3023 RMK AO2=
201201100105 SPECI KSEA 100105Z 03006KT 10SM SCT009 OVC014 07/06 A3023 RMK AO2=
201201100053 METAR KSEA 100053Z 03008KT 10SM BKN009 OVC014 07/06 A3023 RMK AO2 RAE52 SLP244 P0001 T00720061=
201201100039 SPECI KSEA 100039Z 01008KT 8SM -RA BKN009 OVC014 08/06 A3023 RMK AO2 P0001=
201201100039 SPECI KSEA 100039Z 01008KT 8SM -RA BKN009 OVC014 08/06 A3023 RMK AO2 P0001=
201201100030 SPECI KSEA 100030Z 00000KT 7SM -RA SCT009 OVC016 08/07 A3023 RMK AO2 P0001=
201201100030 SPECI KSEA 100030Z 00000KT 7SM -RA SCT009 OVC016 08/07 A3023 RMK AO2 P0001=
201201092353 METAR KSEA 092353Z 00000KT 6SM -RA BR BKN015 OVC034 08/07 A3022 RMK AO2 RAB25 SLP243 P0000 60000 T00780067 10094 20078 56009=
201201092253 METAR KSEA 092253Z 25003KT 10SM OVC015 08/06 A3022 RMK AO2 SLP242 T00830056=
201201092215 SPECI KSEA 092215Z 25003KT 10SM BKN015 BKN026 OVC036 09/06 A3022 RMK AO2=
201201092215 SPECI KSEA 092215Z 25003KT 10SM BKN015 BKN026 OVC036 09/06 A3022 RMK AO2=
201201092153 METAR KSEA 092153Z 22006KT 10SM BKN012 BKN017 OVC036 09/06 A3023 RMK AO2 SLP244 T00890061=
201201092053 METAR KSEA 092053Z 21007KT 10SM BKN014 OVC020 09/06 A3025 RMK AO2 SLP251 60000 T00890061 58006=
201201092000 SPECI KSEA 092000Z 00000KT 10SM BKN014 OVC025 09/06 A3026 RMK AO2=
201201092000 SPECI KSEA 092000Z 00000KT 10SM BKN014 OVC025 09/06 A3026 RMK AO2=
201201091953 METAR KSEA 091953Z 00000KT 10SM BKN016 OVC028 09/07 A3026 RMK AO2 RAE02 SLP255 P0000 T00890067=
201201091853 METAR KSEA 091853Z 20010KT 8SM -RA BKN016 OVC025 08/06 A3027 RMK AO2 RAB50 SLP258 P0000 T00830061=
201201091753 METAR KSEA 091753Z 19012KT 10SM BKN016 OVC030 08/06 A3027 RMK AO2 DZE12RAB12E18 SLP259 P0000 60000 T00830056 10083 20067 53002=
201201091653 METAR KSEA 091653Z 20013KT 7SM -DZ BKN022 OVC045 08/04 A3027 RMK AO2 DZB51 SLP257 P0000 T00830039=
201201091553 METAR KSEA 091553Z 19009KT 10SM BKN024 OVC043 08/03 A3025 RMK AO2 SLP252 T00780033=
201201091516 SPECI KSEA 091516Z 19008KT 10SM FEW017 BKN028 OVC045 07/03 A3026 RMK AO2=
201201091516 SPECI KSEA 091516Z 19008KT 10SM FEW017 BKN028 OVC045 07/03 A3026 RMK AO2=
201201091453 METAR KSEA 091453Z 20010KT 10SM BKN035 OVC050 08/03 A3026 RMK AO2 SLP256 60000 T00780033 53003=
201201091353 METAR KSEA 091353Z 20007KT 10SM BKN055 OVC090 07/04 A3026 RMK AO2 SLP254 T00720039=
201201091253 METAR KSEA 091253Z 17006KT 10SM BKN070 OVC090 07/04 A3025 RMK AO2 RAB12E30 SLP251 P0000 T00720039=
201201091153 METAR KSEA 091153Z 19008KT 10SM OVC090 08/04 A3026 RMK AO2 SLP253 T00780039 10089 20061 52007=
201201091053 METAR KSEA 091053Z 21009KT 10SM OVC090 08/04 A3025 RMK AO2 SLP251 T00780039=
201201090953 METAR KSEA 090953Z 17005KT 10SM BKN090 BKN110 07/04 A3024 RMK AO2 SLP249 T00670039=
201201090853 METAR KSEA 090853Z 15005KT 10SM BKN100 07/04 A3023 RMK AO2 SLP247 T00720039 51001=
201201090753 METAR KSEA 090753Z 15005KT 10SM BKN100 07/04 A3023 RMK AO2 SLP246 T00720039 401000028=
201201090653 METAR KSEA 090653Z 00000KT 10SM BKN100 09/03 A3024 RMK AO2 SLP248 T00890033=
201201090553 METAR KSEA 090553Z 14005KT 10SM FEW100 07/03 A3023 RMK AO2 SLP245 T00720033 10100 20072 58008=
201201090453 METAR KSEA 090453Z 14003KT 10SM BKN100 09/04 A3024 RMK AO2 SLP248 T00890039=
201201090353 METAR KSEA 090353Z 13004KT 10SM BKN090 10/04 A3025 RMK AO2 SLP252 T01000039=
201201090253 METAR KSEA 090253Z 18004KT 10SM BKN090 09/04 A3025 RMK AO2 SLP253 T00890044 58005=
201201090153 METAR KSEA 090153Z 00000KT 10SM BKN085 09/04 A3026 RMK AO2 SLP256 T00890044=
201201090053 METAR KSEA 090053Z 00000KT 10SM FEW040 BKN080 09/04 A3026 RMK AO2 SLP256 T00940044=
201201082353 METAR KSEA 082353Z 16003KT 10SM FEW040 BKN080 10/04 A3027 RMK AO2 SLP259 T01000044 10100 20050 56015=
201201082253 METAR KSEA 082253Z 17003KT 10SM FEW040 BKN080 09/04 A3028 RMK AO2 SLP263 T00890044=
201201082153 METAR KSEA 082153Z 17003KT 10SM FEW040 BKN085 BKN210 08/03 A3030 RMK AO2 SLP268 T00830033=
201201082053 METAR KSEA 082053Z 19006KT 10SM FEW040 BKN080 BKN210 08/03 A3032 RMK AO2 SLP274 T00830028 58009=
201201081953 METAR KSEA 081953Z 19005KT 10SM FEW040 BKN080 BKN220 07/03 A3032 RMK AO2 SLP277 T00720033=
201201081853 METAR KSEA 081853Z 21004KT 10SM FEW045 BKN075 BKN210 06/03 A3035 RMK AO2 SLP284 T00610033=
201201081753 METAR KSEA 081753Z 21006KT 10SM FEW050 BKN070 BKN210 06/03 A3034 RMK AO2 SLP283 T00560028 10056 20028 55001=
201201081653 METAR KSEA 081653Z 00000KT 10SM FEW055 SCT075 BKN200 04/03 A3034 RMK AO2 SLP282 T00440028=
201201081553 METAR KSEA 081553Z 18004KT 10SM SCT055 BKN075 03/02 A3034 RMK AO2 SLP283 T00330022=
201201081453 METAR KSEA 081453Z 15004KT 10SM SCT045 BKN075 03/02 A3034 RMK AO2 SLP285 T00330022 57007=
201201081353 METAR KSEA 081353Z 18004KT 10SM FEW030 BKN110 04/03 A3035=
201201081253 METAR KSEA 081253Z 13005KT 10SM FEW030 BKN100 04/03 A3036 RMK AO2 SLP288 T00440028=
201201081153 METAR KSEA 081153Z 15007KT 10SM BKN030 BKN100 06/03 A3037 RMK AO2 SLP291 T00560033 10061 20050 58004=
201201081053 METAR KSEA 081053Z 14005KT 10SM FEW010 BKN030 OVC100 06/04 A3038 RMK AO2 SLP296 T00560039=
201201080953 METAR KSEA 080953Z 15006KT 10SM SCT010 BKN030 OVC100 06/03 A3038 RMK AO2 SLP295 T00560033=
201201080853 METAR KSEA 080853Z 18006KT 10SM FEW008 BKN030 OVC100 06/03 A3038 RMK AO2 SLP295 T00560033 58007=
201201080837 SPECI KSEA 080837Z 17005KT 10SM FEW008 BKN030 OVC100 06/04 A3038 RMK AO2=
201201080837 SPECI KSEA 080837Z 17005KT 10SM FEW008 BKN030 OVC100 06/04 A3038 RMK AO2=
201201080753 METAR KSEA 080753Z 19009KT 10SM FEW020 SCT045 OVC100 06/04 A3039 RMK AO2 SLP299 T00560039 400720028=
201201080653 METAR KSEA 080653Z 17003KT 10SM BKN045 OVC150 06/03 A3040 RMK AO2 SLP304 T00560033=
201201080553 METAR KSEA 080553Z 16006KT 10SM FEW050 BKN200 06/03 A3040 RMK AO2 SLP303 T00560033 10067 20056 56009=
201201080453 METAR KSEA 080453Z COR 19005KT 10SM FEW039 BKN055 06/04 A3040 RMK AO2 SLP303 T00610039=
201201080353 METAR KSEA 080353Z 17009KT 10SM BKN050 06/03 A3040 RMK AO2 SLP303 T00610033=
201201080253 METAR KSEA 080253Z 18003KT 10SM FEW026 OVC055 06/04 A3042 RMK AO2 SLP312 T00610044 58001=
201201080153 METAR KSEA 080153Z 19005KT 10SM OVC055 06/04 A3043 RMK AO2 SLP314 T00610039=
201201080053 METAR KSEA 080053Z 21003KT 10SM OVC060 06/04 A3042 RMK AO2 SLP312 T00610039=
201201072353 METAR KSEA 072353Z 21006KT 10SM OVC070 06/03 A3043 RMK AO2 SLP314 60000 T00610033 10072 20044 53007=
201201072253 METAR KSEA 072253Z 22005KT 10SM SCT035 OVC070 07/03 A3042 RMK AO2 SLP310 T00670028=
201201072153 METAR KSEA 072153Z 18005KT 10SM FEW031 OVC070 07/03 A3039 RMK AO2 SLP302 T00670028=
201201072053 METAR KSEA 072053Z 15006KT 10SM SCT031 OVC070 06/03 A3041 RMK AO2 RAE1959B19E31 SLP306 P0000 60000 T00610028 58011=
201201071953 METAR KSEA 071953Z 15004KT 10SM -RA SCT019 OVC031 04/03 A3044 RMK AO2 RAB49 SLP317 P0000 T00440028=
201201071853 METAR KSEA 071853Z 15005KT 10SM FEW011 BKN016 OVC027 05/02 A3045 RMK AO2 SLP322 T00500022=
201201071753 METAR KSEA 071753Z 15005KT 10SM BKN011 OVC016 04/02 A3044 RMK AO2 SLP318 T00440022 10044 20033 53016=
201201071653 METAR KSEA 071653Z 15005KT 4SM BR OVC012 04/02 A3043=
201201071553 METAR KSEA 071553Z 16004KT 10SM BKN010 OVC014 03/02 A3040 RMK AO2 SLP305 T00330017=
201201071453 METAR KSEA 071453Z 15004KT 10SM OVC012 03/02 A3039=
201201071414 SPECI KSEA 071414Z 00000KT 10SM OVC015 03/02 A3039 RMK AO2=
201201071414 SPECI KSEA 071414Z 00000KT 10SM OVC015 03/02 A3039 RMK AO2=
201201071353 METAR KSEA 071353Z 12003KT 10SM OVC013 03/02 A3038=
201201071253 METAR KSEA 071253Z 00000KT 6SM BR OVC013 03/02 A3037 RMK AO2 SLP293 T00330017=
201201071247 SPECI KSEA 071247Z 00000KT 6SM BR OVC013 03/02 A3037 RMK AO2=
201201071247 SPECI KSEA 071247Z 00000KT 6SM BR OVC013 03/02 A3037 RMK AO2=
201201071153 METAR KSEA 071153Z 15003KT 10SM OVC019 03/02 A3036 RMK AO2 SLP291 70010 T00330017 10033 20022 53007=
201201071053 METAR KSEA 071053Z 16003KT 10SM OVC019 03/02 A3036 RMK AO2 SLP289 T00280017=
201201070953 METAR KSEA 070953Z 13005KT 10SM BKN021 OVC030 03/02 A3035 RMK AO2 SLP286 T00330017=
201201070853 METAR KSEA 070853Z 00000KT 10SM BKN023 OVC030 03/01 A3034 RMK AO2 SLP284 T00330011 51008=
201201070812 SPECI KSEA 070812Z 09003KT 10SM BKN023 OVC030 03/02 A3033 RMK AO2=
201201070812 SPECI KSEA 070812Z 09003KT 10SM BKN023 OVC030 03/02 A3033 RMK AO2=
201201070753 METAR KSEA 070753Z 12005KT 10SM FEW023 BKN048 OVC060 03/01 A3033 RMK AO2 SLP281 T00330011 400440022=
201201070653 METAR KSEA 070653Z 12004KT 10SM FEW025 SCT042 BKN070 03/01 A3033=
201201070553 METAR KSEA 070553Z 12005KT 10SM FEW020 BKN075 02/01 A3032 RMK AO2 RAB10E21 SLP276 P0000 60005 T00220011 10039 20022 51004=
201201070453 METAR KSEA 070453Z 14007KT 10SM FEW020 BKN060 OVC070 03/01 A3031 RMK AO2 RAE31 SLP274 P0001 T00280011=
201201070353 METAR KSEA 070353Z 16004KT 9SM -RA OVC034 03/02 A3031 RMK AO2 SLP274 P0002 T00280017=
201201070320 SPECI KSEA 070320Z 17003KT 10SM -RA OVC026 03/02 A3031 RMK AO2 P0001=
201201070320 SPECI KSEA 070320Z 17003KT 10SM -RA OVC026 03/02 A3031 RMK AO2 P0001=
201201070253 METAR KSEA 070253Z 00000KT 10SM -RA FEW015 BKN048 OVC070 03/02 A3030 RMK AO2 DZE04RAB04E15B39 SLP271 P0000 60002 T00330017 53006=
201201070153 METAR KSEA 070153Z 17004KT 10SM -DZ FEW009 SCT015 OVC044 03/02 A3029 RMK AO2 RAE27DZB53 SLP268 P0000 T00280017=
201201070114 SPECI KSEA 070114Z 17004KT 10SM -RA BKN009 OVC014 03/02 A3029 RMK AO2 P0000=
201201070114 SPECI KSEA 070114Z 17004KT 10SM -RA BKN009 OVC014 03/02 A3029 RMK AO2 P0000=
201201070053 METAR KSEA 070053Z 18003KT 10SM -RA BKN010 OVC014 03/02 A3029 RMK AO2 SLP267 P0002 T00330017=
201201070009 SPECI KSEA 070009Z 20006KT 8SM -RA BKN010 BKN013 OVC017 03/02 A3029 RMK AO2 P0001=
201201070009 SPECI KSEA 070009Z 20006KT 8SM -RA BKN010 BKN013 OVC017 03/02 A3029 RMK AO2 P0001=
201201062353 METAR KSEA 062353Z 21004KT 8SM -RA SCT010 BKN017 OVC026 04/02 A3029 RMK AO2 SLP266 P0002 60003 T00390017 10044 20033 53002=
201201062253 METAR KSEA 062253Z 21005KT 10SM -RA BKN028 OVC041 04/01 A3028 RMK AO2 RAB2158 SLP264 P0001 T00390011=
201201062232 SPECI KSEA 062232Z 24007KT 7SM -RA OVC028 04/01 A3028 RMK AO2 RAB2158 P0001=
201201062232 SPECI KSEA 062232Z 24007KT 7SM -RA OVC028 04/01 A3028 RMK AO2 RAB2158 P0001=
201201062153 METAR KSEA 062153Z 23005KT 10SM FEW025 OVC055 04/01 A3028 RMK AO2 SLP264 T00440006=
201201062053 METAR KSEA 062053Z 18003KT 10SM FEW025 OVC110 04/01 A3028 RMK AO2 SLP263 T00440006 58008=
201201061953 METAR KSEA 061953Z 19005KT 10SM FEW012 BKN140 OVC200 04/01 A3030 RMK AO2 SLP269 T00390006=
201201061915 SPECI KSEA 061915Z 20007KT 10SM SCT010 BKN120 BKN200 04/01 A3031 RMK AO2=
201201061915 SPECI KSEA 061915Z 20007KT 10SM SCT010 BKN120 BKN200 04/01 A3031 RMK AO2=
201201061853 METAR KSEA 061853Z 20007KT 10SM BKN010 BKN017 BKN200 04/01 A3031 RMK AO2 SLP274 T00390011=
201201061842 SPECI KSEA 061842Z 20007KT 10SM BKN010 BKN017 04/02 A3031 RMK AO2=
201201061842 SPECI KSEA 061842Z 20007KT 10SM BKN010 BKN017 04/02 A3031 RMK AO2=
201201061753 METAR KSEA 061753Z 19004KT 10SM BKN008 OVC020 04/02 A3031 RMK AO2 SLP272 60002 T00390017 10039 20028 53000=
201201061717 SPECI KSEA 061717Z 21005KT 10SM BKN008 OVC020 03/02 A3031 RMK AO2=
201201061717 SPECI KSEA 061717Z 21005KT 10SM BKN008 OVC020 03/02 A3031 RMK AO2=
201201061705 SPECI KSEA 061705Z 17004KT 10SM SCT008 BKN012 OVC022 03/02 A3030 RMK AO2=
201201061705 SPECI KSEA 061705Z 17004KT 10SM SCT008 BKN012 OVC022 03/02 A3030 RMK AO2=
201201061653 METAR KSEA 061653Z 19004KT 10SM SCT008 BKN016 OVC022 03/02 A3030 RMK AO2 SLP271 T00330022=
201201061646 SPECI KSEA 061646Z 00000KT 10SM SCT008 BKN016 OVC022 03/02 A3030 RMK AO2=
201201061646 SPECI KSEA 061646Z 00000KT 10SM SCT008 BKN016 OVC022 03/02 A3030 RMK AO2=
201201061628 SPECI KSEA 061628Z 20005KT 10SM SCT008 BKN014 OVC022 03/02 A3031 RMK AO2=
201201061628 SPECI KSEA 061628Z 20005KT 10SM SCT008 BKN014 OVC022 03/02 A3031 RMK AO2=
201201061612 SPECI KSEA 061612Z 22004KT 10SM BKN009 BKN013 OVC020 03/02 A3030 RMK AO2=
201201061612 SPECI KSEA 061612Z 22004KT 10SM BKN009 BKN013 OVC020 03/02 A3030 RMK AO2=
201201061553 METAR KSEA 061553Z 18003KT 10SM FEW009 BKN020 OVC040 03/01 A3030 RMK AO2 SLP270 T00280011=
201201061453 METAR KSEA 061453Z 16005KT 10SM FEW009 BKN019 OVC045 03/01 A3030 RMK AO2 SLP272 60002 T00280011 58014=
201201061425 SPECI KSEA 061425Z 16004KT 10SM SCT011 BKN019 OVC045 03/01 A3031 RMK AO2=
201201061425 SPECI KSEA 061425Z 16004KT 10SM SCT011 BKN019 OVC045 03/01 A3031 RMK AO2=
201201061353 METAR KSEA 061353Z 15005KT 10SM BKN011 OVC030 03/02 A3032 RMK AO2 RAE24 SLP278 P0001 T00330017=
201201061253 METAR KSEA 061253Z 00000KT 10SM -RA OVC013 03/02 A3034 RMK AO2 RAB49 SLP283 P0001 T00330017=
201201061153 METAR KSEA 061153Z 21005KT 10SM FEW009 OVC013 04/01 A3035 RMK AO2 SLP285 70002 T00390011 10039 20028 56003=
201201061146 SPECI KSEA 061146Z 21006KT 10SM FEW009 OVC013 04/01 A3035 RMK AO2=
201201061146 SPECI KSEA 061146Z 21006KT 10SM FEW009 OVC013 04/01 A3035 RMK AO2=
201201061053 METAR KSEA 061053Z 14003KT 10SM BKN017 OVC022 03/00 A3035 RMK AO2 SLP288 T00330000=
201201060953 METAR KSEA 060953Z 16005KT 10SM BKN017 03/01 A3035 RMK AO2 SLP285 T00330006=
201201060853 METAR KSEA 060853Z 17007KT 10SM BKN015 03/01 A3036 RMK AO2 SLP288 T00330006 50001=
201201060753 METAR KSEA 060753Z 18008KT 10SM BKN020 04/01 A3037 RMK AO2 SLP292 T00390011 400890028=
201201060729 SPECI KSEA 060729Z 19008KT 10SM BKN020 03/01 A3037 RMK AO2=
201201060729 SPECI KSEA 060729Z 19008KT 10SM BKN020 03/01 A3037 RMK AO2=
201201060653 METAR KSEA 060653Z 16008KT 10SM SCT020 03/01 A3035=
201201060553 METAR KSEA 060553Z 18008KT 10SM FEW020 03/01 A3035 RMK AO2 SLP288 T00330011 10072 20028 55001=
201201060453 METAR KSEA 060453Z 18007KT 10SM FEW019 04/01 A3035 RMK AO2 SLP287 T00390011=
201201060353 METAR KSEA 060353Z 19006KT 10SM FEW019 04/01 A3036 RMK AO2 SLP288 T00440011=
201201060253 METAR KSEA 060253Z 19008KT 10SM FEW025 05/02 A3035 RMK AO2 SLP288 T00500017 50005=
201201060153 METAR KSEA 060153Z 21009KT 10SM FEW025 06/02 A3036 RMK AO2 SLP288 T00560022=
201201060053 METAR KSEA 060053Z 21013KT 10SM FEW025 SCT200 06/03 A3035 RMK AO2 SLP286 T00610028=
201201052353 METAR KSEA 052353Z 19007KT 10SM SCT020 07/04 A3034 RMK AO2 SLP283 60000 T00670039 10083 20067 55005=
201201052253 METAR KSEA 052253Z 20019G26KT 10SM FEW017 SCT035 SCT090 07/03 A3032 RMK AO2 PK WND 19026/2249 SLP277 T00670033=
201201052153 METAR KSEA 052153Z 19015G22KT 10SM FEW022 SCT035 SCT090 07/03 A3033 RMK AO2 RAE04 SLP279 P0000 T00720033=
201201052053 METAR KSEA 052053Z 21018G24KT 10SM -RA SCT022 BKN033 BKN085 07/03 A3036 RMK AO2 RAB41 SLP288 P0000 60000 T00720033 58003=
201201051953 METAR KSEA 051953Z 19014G23KT 10SM FEW022 SCT031 SCT110 08/03 A3035 RMK AO2 SLP286 T00830033=
201201051933 SPECI KSEA 051933Z 19013KT 10SM FEW022 SCT031 08/03 A3035 RMK AO2=
201201051933 SPECI KSEA 051933Z 19013KT 10SM FEW022 SCT031 08/03 A3035 RMK AO2=
201201051853 METAR KSEA 051853Z 19016G21KT 10SM BKN023 BKN031 07/03 A3037 RMK AO2 SLP291 T00720028=
201201051753 METAR KSEA 051753Z 18012G19KT 10SM FEW020 BKN026 07/03 A3036 RMK AO2 RAB13E23 SLP290 P0000 60002 T00670028 10072 20056 53028=
201201051710 SPECI KSEA 051710Z 20010KT 10SM FEW015 BKN022 07/03 A3035 RMK AO2=
201201051710 SPECI KSEA 051710Z 20010KT 10SM FEW015 BKN022 07/03 A3035 RMK AO2=
201201051653 METAR KSEA 051653Z 20010KT 10SM FEW015 SCT027 06/03 A3034 RMK AO2 SLP280 T00610028=
201201051553 METAR KSEA 051553Z 21011G19KT 10SM FEW015 SCT035 06/03 A3030=
201201051453 METAR KSEA 051453Z 20014G20KT 10SM FEW015 SCT046 BKN070 06/04 A3028=
201201051436 SPECI KSEA 051436Z 21016G23KT 10SM FEW015 BKN046 BKN070 06/02 A3027 RMK AO2 PK WND 22032/1405 RAB1356E19 P0002=
201201051436 SPECI KSEA 051436Z 21016G23KT 10SM FEW015 BKN046 BKN070 06/02 A3027 RMK AO2 PK WND 22032/1405 RAB1356E19 P0002=
201201051353 METAR KSEA 051353Z 19014KT 10SM BKN022 07/04 A3026 RMK AO2 SLP254 T00670039=
201201051253 METAR KSEA 051253Z 19013KT 10SM FEW021 BKN027 OVC034 07/04 A3026 RMK AO2 RAB00E22 SLP253 P0000 T00720044=
201201051153 METAR KSEA 051153Z 20014G23KT 10SM BKN030 BKN035 07/04 A3023 RMK AO2 RAB36E45 SLP246 P0000 60003 70083 T00720044 10094 20072 53013=
201201051053 METAR KSEA 051053Z 19014G19KT 10SM FEW019 08/06 A3022 RMK AO2 SLP239 T00780056=
201201051008 SPECI KSEA 051008Z 20013G19KT 10SM FEW014 SCT019 SCT050 07/06 A3020 RMK AO2=
201201051008 SPECI KSEA 051008Z 20013G19KT 10SM FEW014 SCT019 SCT050 07/06 A3020 RMK AO2=
201201050953 METAR KSEA 050953Z 20010KT 10SM SCT016 BKN024 BKN050 08/06 A3020 RMK AO2 RAE06 SLP233 P0000 T00780061=
201201050853 METAR KSEA 050853Z 20016G25KT 10SM -RA SCT015 SCT021 BKN042 08/06 A3018 RMK AO2 PK WND 18026/0825 SLP227 P0003 60003 T00830056 51007=
201201050811 SPECI KSEA 050811Z 18008KT 10SM BKN019 BKN024 OVC045 09/06 A3018 RMK AO2 RAE08 P0000=
201201050811 SPECI KSEA 050811Z 18008KT 10SM BKN019 BKN024 OVC045 09/06 A3018 RMK AO2 RAE08 P0000=
201201050753 METAR KSEA 050753Z 21014G19KT 10SM -RA FEW028 SCT038 BKN045 09/06 A3018 RMK AO2 RAB48 SLP226 P0000 T00890056 401220056=
201201050653 METAR KSEA 050653Z 20012KT 10SM FEW011 SCT060 BKN200 09/06 A3017 RMK AO2 SLP224 T00890061=
201201050553 METAR KSEA 050553Z 20011KT 10SM FEW016 SCT200 09/08 A3016 RMK AO2 SLP220 60010 T00940078 10111 20094 53037=
201201050521 SPECI KSEA 050521Z 21015G20KT 10SM SCT016 SCT200 10/08 A3014 RMK AO2=
201201050521 SPECI KSEA 050521Z 21015G20KT 10SM SCT016 SCT200 10/08 A3014 RMK AO2=
201201050453 METAR KSEA 050453Z 21013G22KT 10SM SCT017 BKN023 BKN055 10/08 A3012 RMK AO2 PK WND 22027/0417 RAE53 SLP207 P0001 T01000083=
201201050353 METAR KSEA 050353Z 21014G24KT 8SM -RA BKN015 BKN020 OVC035 11/09 A3008=
201201050253 METAR KSEA 050253Z 18017KT 10SM -RA SCT060 BKN070 OVC090 11/08 A3005 RMK AO2 PK WND 19029/0215 RAE05B48 SLP182 P0001 60005 T01110083 55003=
201201050153 METAR KSEA 050153Z 18018G25KT 7SM -RA FEW026 BKN049 OVC075 11/09 A3004=
201201050053 METAR KSEA 050053Z 17014KT 7SM -RA FEW049 BKN060 OVC070 11/09 A3004 RMK AO2 SLP181 P0003 T01060089=
201201050003 SPECI KSEA 050003Z 17013KT 4SM -RA BR FEW004 BKN045 OVC070 10/09 A3005 RMK AO2 P0001=
201201050003 SPECI KSEA 050003Z 17013KT 4SM -RA BR FEW004 BKN045 OVC070 10/09 A3005 RMK AO2 P0001=
201201042353 METAR KSEA 042353Z 17012KT 2SM -RA BR SCT004 BKN041 OVC050 10/09 A3006 RMK AO2 SFC VIS 3 SLP185 P0009 60069 T01000089 10100 20083 56015=
201201042350 SPECI KSEA 042350Z 16012KT 2SM -RA BR SCT004 BKN041 OVC050 10/09 A3006 RMK AO2 SFC VIS 3 P0009=
201201042350 SPECI KSEA 042350Z 16012KT 2SM -RA BR SCT004 BKN041 OVC050 10/09 A3006 RMK AO2 SFC VIS 3 P0009=
201201042326 SPECI KSEA 042326Z 16011KT 1 1/2SM -RA BR BKN004 BKN018 OVC025 09/09 A3007 RMK AO2 SFC VIS 2 P0007=
201201042326 SPECI KSEA 042326Z 16011KT 1 1/2SM -RA BR BKN004 BKN018 OVC025 09/09 A3007 RMK AO2 SFC VIS 2 P0007=
201201042256 SPECI KSEA 042256Z 16008KT 1 1/2SM -RA BR FEW008 OVC024 09/09 A3008 RMK AO2 SFC VIS 2 P0000=
201201042256 SPECI KSEA 042256Z 16008KT 1 1/2SM -RA BR FEW008 OVC024 09/09 A3008 RMK AO2 SFC VIS 2 P0000=
201201042253 METAR KSEA 042253Z 16008KT 3SM -RA BR FEW008 BKN024 OVC030 09/09 A3008 RMK AO2 SLP192 P0011 T00940089=
201201042153 METAR KSEA 042153Z 15008KT 3SM RA BR FEW012 OVC026 09/09 A3008 RMK AO2 SLP192 P0020 T00890089=
201201042126 SPECI KSEA 042126Z 16007KT 3SM -RA BR OVC027 09/08 A3009 RMK AO2 P0013=
201201042126 SPECI KSEA 042126Z 16007KT 3SM -RA BR OVC027 09/08 A3009 RMK AO2 P0013=
201201042053 METAR KSEA 042053Z 15006KT 3SM RA BR OVC032 09/08 A3010 RMK AO2 SLP201 P0012 60029 T00890078 58013=
201201041953 METAR KSEA 041953Z 14007KT 3SM RA BR OVC034 08/07 A3012 RMK AO2 SLP206 P0012 T00830072=
201201041853 METAR KSEA 041853Z 20008KT 5SM -RA OVC039 09/07 A3014 RMK AO2 SLP212 P0005 T00940067=
201201041753 METAR KSEA 041753Z 24009G16KT 6SM -RA BKN046 OVC070 09/06 A3014 RMK AO2 PK WND 21026/1715 RAB05 SLP214 P0001 60001 T00940061 10122 20067 51025=
201201041653 METAR KSEA 041653Z 23011G18KT 10SM BKN047 BKN060 OVC200 12/04 A3012 RMK AO2 RAB37E53 SLP205 P0000 T01170044=
201201041553 METAR KSEA 041553Z 26004KT 10SM BKN065 BKN080 BKN200 11/04 A3010 RMK AO2 SLP198 T01060039=
201201041453 METAR KSEA 041453Z 19006KT 10SM BKN080 BKN200 09/04 A3007 RMK AO2 SLP189 T00890039 58024=
201201041353 METAR KSEA 041353Z 18007KT 10SM BKN065 08/04 A3010 RMK AO2 SLP199 T00830039=
201201041253 METAR KSEA 041253Z 17005KT 10SM SCT100 07/03 A3012 RMK AO2 SLP207 T00670033=
201201041153 METAR KSEA 041153Z 16003KT 10SM SCT085 SCT100 08/04 A3014 RMK AO2 SLP213 70003 T00780044 10100 20056 58016=
201201041053 METAR KSEA 041053Z 16003KT 10SM FEW070 SCT090 07/04 A3016 RMK AO2 SLP220 T00720044=
201201040953 METAR KSEA 040953Z 12006KT 10SM BKN080 08/05 A3018=
201201040853 METAR KSEA 040853Z 16003KT 10SM SCT095 06/04 A3019 RMK AO2 SLP229 T00610039 55001=
201201040753 METAR KSEA 040753Z 27003KT 10SM FEW095 08/05 A3017 RMK AO2 SLP224 T00780050 401170072=
201201040653 METAR KSEA 040653Z 00000KT 10SM FEW075 BKN090 08/05 A3018 RMK AO2 SLP228 T00830050=
201201040553 METAR KSEA 040553Z 00000KT 10SM OVC075 09/07 A3019 RMK AO2 SLP231 60002 T00940067 10106 20089 58015=
201201040453 METAR KSEA 040453Z 13006KT 10SM OVC080 10/07 A3021 RMK AO2 SLP237 T01000072=
201201040353 METAR KSEA 040353Z 14003KT 10SM BKN060 OVC085 09/08 A3023 RMK AO2 RAB39E51 SLP244 P0000 T00940083=
201201040253 METAR KSEA 040253Z 00000KT 10SM OVC050 09/08 A3024 RMK AO2 RAE17 SLP246 P0000 60002 T00890083 53007=
201201040153 METAR KSEA 040153Z 16004KT 10SM -RA OVC060 10/08 A3022 RMK AO2 SLP240 P0002 T01000078=
201201040053 METAR KSEA 040053Z 00000KT 10SM -RA BKN060 OVC100 10/08 A3022=
201201032353 METAR KSEA 032353Z 24004KT 10SM FEW055 SCT075 BKN100 BKN200 11/07 A3022 RMK AO2 RAE2254 SLP240 60001 T01060072 10117 20083 58010=
201201032253 METAR KSEA 032253Z 00000KT 10SM -RA BKN055 BKN080 OVC200 11/08 A3023 RMK AO2 SLP245 P0001 T01110083=
201201032153 METAR KSEA 032153Z 18003KT 10SM -RA BKN055 BKN075 OVC200 11/07 A3024 RMK AO2 RAB49 SLP246 P0000 T01110067=
201201032053 METAR KSEA 032053Z 16005KT 10SM FEW040 BKN085 OVC200 11/07 A3025 RMK AO2 SLP250 T01110067 58015=
201201031953 METAR KSEA 031953Z 18009KT 10SM SCT045 BKN085 OVC200 11/07 A3027 RMK AO2 SLP257 T01060067 $=
201201031853 METAR KSEA 031853Z 16006KT 10SM BKN045 BKN110 BKN200 10/04 A3029 RMK AO2 SLP266 T01000044 $=
201201031753 METAR KSEA 031753Z 18003KT 10SM BKN040 BKN120 OVC200 08/05 A3029 RMK AO2 SLP266 60000 T00830050 10089 20078 53012 $=
201201031653 METAR KSEA 031653Z 14007KT 10SM FEW035 BKN048 OVC180 08/05 A3028 RMK AO2 SLP261 T00830050 $=
201201031553 METAR KSEA 031553Z 14007KT 10SM BKN038 BKN180 08/05 A3027 RMK AO2 SLP257 T00830050 $=
201201031453 METAR KSEA 031453Z 14004KT 10SM BKN035 BKN200 08/05 A3026 RMK AO2 SLP254 60000 T00830050 55008 $=
201201031353 METAR KSEA 031353Z 13006KT 10SM BKN044 BKN200 08/05 A3025=
201201031253 METAR KSEA 031253Z 16008KT 10SM OVC043 09/06 A3026 RMK AO2 RAB20E30 SLP256 P0000 T00890056 $=
201201031153 METAR KSEA 031153Z 18006KT 10SM OVC047 08/05 A3028 RMK AO2 SLP261 70043 T00830050 10094 20072 51006 $=
201201031053 METAR KSEA 031053Z 19007KT 10SM OVC039 08/05 A3027 RMK AO2 SLP259 T00830050 $=
201201030953 METAR KSEA 030953Z 17007KT 10SM SCT050 BKN100 08/05 A3028 RMK AO2 SLP260 T00780050 $=
201201030853 METAR KSEA 030853Z 19008KT 10SM SCT055 08/04 A3026=
201201030753 METAR KSEA 030753Z 19008KT 10SM SCT050 08/04 A3025=
201201030653 METAR KSEA 030653Z 20010KT 10SM FEW030 BKN050 09/04 A3022 RMK AO2 SLP242 T00890044 $=
201201030553 METAR KSEA 030553Z 19016G22KT 10SM SCT032 BKN050 09/05 A3018 RMK AO2 RAB13E46 SLP228 P0000 60037 T00940050 10100 20089 51048 $=
201201030453 METAR KSEA 030453Z 18013KT 10SM SCT038 OVC050 09/07 A3016 RMK AO2 PK WND 19031/0413 SLP220 T00940072 $=
201201030414 SPECI KSEA 030414Z 20023G31KT 10SM SCT020 OVC045 09/08 A3013 RMK AO2 PK WND 19031/0413 $=
201201030414 SPECI KSEA 030414Z 20023G31KT 10SM SCT020 OVC045 09/08 A3013 RMK AO2 PK WND 19031/0413 $=
201201030353 METAR KSEA 030353Z 20019G32KT 7SM FEW010 BKN020 OVC040 09/08 A3011 RMK AO2 PK WND 20032/0351 RAE32 PRESRR SLP204 P0003 T00940083 $=
201201030253 METAR KSEA 030253Z 21017G22KT 4SM -RA BR FEW010 BKN015 OVC025 09/08 A3004 RMK AO2 PK WND 19032/0159 SLP180 P0020 60034 T00890083 53039 $=
201201030153 METAR KSEA 030153Z 19018G34KT 5SM RA BR BKN022 OVC028 09/08 A2997 RMK AO2 PK WND 20035/0141 SLP156 P0008 T00940078 $=
201201030114 SPECI KSEA 030114Z 17019G27KT 7SM -RA BKN028 OVC037 10/07 A2993 RMK AO2 PK WND 16028/0056 P0002 $=
201201030114 SPECI KSEA 030114Z 17019G27KT 7SM -RA BKN028 OVC037 10/07 A2993 RMK AO2 PK WND 16028/0056 P0002 $=
201201030053 METAR KSEA 030053Z 17018G25KT 7SM -RA SCT030 OVC040 09/08 A2993 RMK AO2 SLP144 P0006 T00940078 $=
201201022353 METAR KSEA 022353Z 18009KT 6SM -RA BKN040 OVC050 09/06 A2992 RMK AO2 SLP141 P0005 60006 T00940061 10106 20050 55010 $=
201201022253 METAR KSEA 022253Z 15008KT 080V200 10SM -RA BKN050 OVC100 10/04 A2990 RMK AO2 RAB25 SLP131 P0001 T01000044 $=
201201022153 METAR KSEA 022153Z 14008KT 10SM FEW070 BKN100 BKN200 10/01 A2992 RMK AO2 SLP139 SHRA DSNT NW T01000006 $=
201201022053 METAR KSEA 022053Z 11011KT 10SM BKN065 BKN100 OVC200 08/01 A2995 RMK AO2 SLP150 T00780006 50003 $=
201201021953 METAR KSEA 021953Z 19003KT 10SM SCT110 OVC160 08/01 A2998 RMK AO2 SLP161 T00780006 $=
201201021853 METAR KSEA 021853Z 20006KT 10SM SCT100 OVC200 06/02 A2998 RMK AO2 SLP158 T00610017 $=
201201021753 METAR KSEA 021753Z 19007KT 10SM FEW075 BKN100 OVC200 07/01 A2994 RMK AO2 SLP147 T00720006 10078 20028 58003 $=
201201021653 METAR KSEA 021653Z 00000KT 10SM FEW140 OVC200 04/01 A2996 RMK AO2 SLP153 T00390011 $=
201201021553 METAR KSEA 021553Z 17003KT 10SM OVC200 04/M01 A2995 RMK AO2 SLP151 T00391006 $=
201201021453 METAR KSEA 021453Z 00000KT 10SM OVC200 04/M01 A2995 RMK AO2 SLP150 T00441006 56021 $=
201201021353 METAR KSEA 021353Z 00000KT 10SM OVC200 04/01 A2997 RMK AO2 SLP158 T00440011 $=
201201021253 METAR KSEA 021253Z 16006KT 10SM BKN200 03/00 A2999 RMK AO2 SLP162 T00330000 $=
201201021153 METAR KSEA 021153Z 14006KT 10SM BKN200 06/M02 A3001 RMK AO2 SLP170 T00561017 10106 20056 58009 $=
201201021053 METAR KSEA 021053Z 14006KT 10SM BKN200 07/M03 A3003 RMK AO2 SLP177 T00721028 $=
201201020953 METAR KSEA 020953Z 11010KT 10SM BKN200 08/M03 A3003=
201201020853 METAR KSEA 020853Z 11009KT 10SM BKN200 10/M03 A3004 RMK AO2 SLP178 T01001033 58008 $=
201201020753 METAR KSEA 020753Z 10010KT 10SM BKN200 10/M03 A3006 RMK AO2 SLP185 T01001033 401280050 $=
201201020653 METAR KSEA 020653Z 11010KT 10SM SCT200 11/M03 A3006 RMK AO2 SLP187 T01061033 $=
201201020553 METAR KSEA 020553Z 23003KT 10SM SCT200 09/M03 A3006 RMK AO2 SLP188 T00941033 10111 20094 58018 $=
201201020453 METAR KSEA 020453Z 10013KT 10SM SCT200 10/M04 A3008 RMK AO2 SLP193 T01001039 $=
201201020353 METAR KSEA 020353Z 10011KT 10SM SCT200 10/M04 A3011 RMK AO2 SLP202 T01001039 $=
201201020253 METAR KSEA 020253Z 11013KT 10SM SCT200 11/M03 A3012 RMK AO2 SLP206 T01061033 56007 $=
201201020153 METAR KSEA 020153Z 11007KT 10SM BKN200 11/M03 A3012 RMK AO2 SLP207 T01061033 $=
201201020053 METAR KSEA 020053Z 10011G22KT 10SM SCT200 11/M03 A3012 RMK AO2 SLP208 T01061033 $=
201201012353 METAR KSEA 012353Z 10009KT 10SM FEW060 SCT160 BKN210 11/M03 A3014 RMK AO2 SLP213 T01111028 10128 20089 56019 $=
201201012253 METAR KSEA 012253Z 11013G18KT 10SM FEW060 SCT160 BKN210 12/M03 A3015 RMK AO2 SLP217 T01221028 $=
201201012153 METAR KSEA 012153Z 11012KT 10SM FEW050 SCT160 BKN220 12/M02 A3016 RMK AO2 SLP220 T01221022 $=
201201012053 METAR KSEA 012053Z 09005KT 10SM FEW050 SCT160 BKN220 12/M02 A3019 RMK AO2 SLP232 T01221022 56021 $=
201201011953 METAR KSEA 011953Z 09011KT 10SM FEW040 SCT140 BKN220 12/M02 A3021 RMK AO2 SLP238 T01171022 $=
201201011853 METAR KSEA 011853Z 10010KT 10SM FEW050 SCT150 BKN210 10/M02 A3024 RMK AO2 SLP248 T01001022 $=
201201011753 METAR KSEA 011753Z 09007KT 10SM SCT060 BKN140 BKN200 09/M03 A3026 RMK AO2 SLP254 T00891028 10089 20056 50001 $=
201201011653 METAR KSEA 011653Z 10010KT 10SM SCT060 BKN170 08/M03 A3026 RMK AO2 SLP256 T00781028 $=
201201011553 METAR KSEA 011553Z 08008KT 10SM BKN060 BKN170 07/M03 A3026 RMK AO2 SLP256 T00721028 $=
201201011453 METAR KSEA 011453Z 11007KT 10SM OVC060 07/M03 A3025 RMK AO2 SLP253 T00721028 55008 $=
201201011353 METAR KSEA 011353Z 10011KT 10SM OVC065 07/M02 A3024 RMK AO2 SLP250 T00671017 $=
201201011253 METAR KSEA 011253Z 09007KT 10SM BKN070 OVC080 07/M02 A3026 RMK AO2 SLP254 T00671017 $=
201201011153 METAR KSEA 011153Z 06005KT 10SM OVC060 06/M01 A3028 RMK AO2 DZE29 SLP261 P0000 60000 T00561011 10061 20039 55002 $=
201201011053 METAR KSEA 011053Z 08008KT 10SM -DZ FEW035 BKN065 OVC075 06/M02 A3027 RMK AO2 DZB41 SLP260 P0000 T00611017 $=
201201010953 METAR KSEA 010953Z 08008KT 10SM SCT035 BKN055 OVC070 06/M02 A3027 RMK AO2 DZE26 SLP258 P0000 T00561017 $=
201201010853 METAR KSEA 010853Z 12010KT 10SM -DZ OVC049 06/M02 A3028 RMK AO2 DZB50 SLP263 P0000 60000 T00561017 51005 $=
201201010753 METAR KSEA 010753Z 08010G17KT 10SM OVC060 06/M04 A3028 RMK AO2 SLP261 T00611039 400610000 $=
201201010653 METAR KSEA 010653Z 05004KT 10SM OVC060 05/M03 A3028 RMK AO2 SLP262 T00501033 $=
201201010553 METAR KSEA 010553Z 35003KT 10SM BKN075 OVC090 04/M04 A3027 RMK AO2 SLP259 T00441039 10056 20028 55001 $=
201201010453 METAR KSEA 010453Z 12006KT 10SM OVC200 05/M04 A3026 RMK AO2 SLP255 T00501044 $=
201201010353 METAR KSEA 010353Z 07003KT 10SM OVC200 04/M04 A3028 RMK AO2 SLP262 T00441039 $=
201201010253 METAR KSEA 010253Z 03008KT 10SM BKN200 03/M01 A3027 RMK AO2 SLP260 T00331006 58019 $=
201201010153 METAR KSEA 010153Z 01008KT 10SM BKN200 03/M01 A3029 RMK AO2 SLP268 T00331011 $=
201201010053 METAR KSEA 010053Z 02008KT 10SM SCT140 BKN200 04/M02 A3031 RMK AO2 SLP273 T00441017 $=

# No short TAF reports from KSEA in databse.

###################################
#  large TAF from KSEA
###################################
201201312320 TAF KSEA 312320Z 0100/0206 18008KT P6SM BKN050 OVC100 FM010300
                       16012KT P6SM -RA SCT020 OVC040 FM010900
                       16012G20KT 5SM -RA BR OVC020
                      TEMPO 0112/0114 3SM -RA BR OVC012 FM011500
                       22008KT P6SM -SHRA BKN015 OVC030 FM011900
                       30006KT P6SM VCSH BKN025 BKN050=
201201311721 TAF KSEA 311721Z 3118/0124 18012KT P6SM BKN050 BKN120 BKN200
                      TEMPO 3119/3121 -SHRA BKN040 OVC080 FM010300
                       18012G20KT P6SM -RA SCT020 OVC035
                      TEMPO 0104/0108 4SM -RA BR BKN015 OVC030
                       FM011000 22010KT P6SM -SHRA BKN020 OVC035
                       FM011600 VRB04KT P6SM SCT020 BKN030=
201201311405 KSEA 311405Z 3114/0118 19012KT P6SM OVC035 FM311700 19014G22KT
                       P6SM SCT025 OVC045 FM010100 18012G20KT P6SM
                       -RA SCT020 OVC035
                      TEMPO 0103/0107 4SM -RA BR BKN015 OVC030
                       FM010700 22010KT P6SM -SHRA BKN020 OVC035
                       FM011400 22006KT P6SM SCT020 BKN030=
201201311120 TAF KSEA 311120Z 3112/0118 21012KT P6SM SCT025 BKN045 BKN100
                      TEMPO 3113/3117 BKN025 OVC045 FM311700 19014G22KT
                       P6SM SCT025 OVC045 FM010100 18012G20KT P6SM
                       -RA SCT020 OVC035
                      TEMPO 0103/0107 4SM -RA BR BKN015 OVC030
                       FM010700 22010KT P6SM -SHRA BKN020 OVC035
                       FM011400 22006KT P6SM SCT020 BKN030=
201201310902 KSEA 310902Z 3109/0112 21010KT P6SM VCSH FEW030 BKN045 BKN110 FM311200
                       18010KT P6SM VCSH SCT025 BKN045 BKN100
                      TEMPO 3113/3117 BKN025 OVC045 FM311700 19014G22KT
                       P6SM SCT025 OVC045 FM010100 18012G20KT P6SM
                       -RA SCT020 OVC035 FM010800 22010KT P6SM
                       -SHRA BKN020 OVC035=
201201310751 KSEA 310751Z 3108/0112 21008KT P6SM VCSH BKN035 OVC110 FM311100
                       18009KT P6SM VCSH BKN025 OVC035 FM311400
                       18012KT P6SM BKN025 OVC035 FM311800 19014G22KT
                       P6SM SCT025 BKN035 OVC050 FM010100 18012G20KT
                       P6SM -RA SCT020 OVC035 FM010800 22010KT
                       P6SM -SHRA BKN020 OVC035=
201201310530 TAF KSEA 310530Z 3106/0112 18008KT P6SM -SHRA SCT025 BKN035 OVC050
                       TEMPO 3106/3110 BKN025 OVC035 FM311000 18009KT
                       P6SM VCSH BKN025 OVC035 FM311400 18012KT
                       P6SM BKN025 OVC035 FM311800 19014G22KT P6SM
                       SCT025 BKN035 OVC050 FM010100 18012G20KT
                       P6SM -RA SCT020 OVC035 FM010800 22010KT
                       P6SM -SHRA BKN020 OVC035=
201201310302 KSEA 310302Z 3103/0106 21006KT P6SM SCT022 BKN050
                      TEMPO 3105/3108 BKN022 OVC050 FM310800 18012KT
                       P6SM VCSH BKN025 OVC050 FM312100 16012G20KT
                       P6SM -RA OVC025=
201201302320 TAF KSEA 302320Z 3100/0106 20012KT P6SM SCT020 BKN035 BKN050 FM310800
                       18012KT P6SM VCSH BKN025 OVC050 FM312100
                       16012G20KT P6SM -RA OVC025=
201201302106 KSEA 302106Z 3021/3124 20014KT P6SM BKN030 BKN050 FM310800 16012KT
                       P6SM VCSH BKN025 OVC050 FM312100 16012G20KT
                       P6SM -RA OVC025=
201201301720 TAF KSEA 301720Z 3018/3124 20012KT P6SM BKN020 BKN050
                      TEMPO 3018/3021 OVC015 FM302100 18008KT P6SM
                       VCSH BKN030 BKN050 FM310800 16012KT P6SM
                       VCSH BKN025 OVC050 FM311700 16012KT P6SM
                       -RA OVC025=
201201301303 KSEA 301303Z 3013/3118 22012G20KT P6SM OVC015 FM301800 21008KT
                       P6SM VCSH SCT009 OVC015 FM310000 21006KT
                       P6SM VCSH SCT018 BKN030 OVC050 FM310800
                       17005KT P6SM VCSH OVC025=
201201301135 TAF KSEA 301135Z 3012/3118 22012KT P6SM VCSH OVC007 FM301800 21008KT
                       P6SM VCSH SCT009 OVC015 FM310000 21006KT
                       P6SM VCSH SCT018 BKN030 OVC050 FM310800
                       17005KT P6SM VCSH OVC025=
201201300905 KSEA 300905Z 3009/3112 22008KT 5SM -SHRA BR OVC003
                      TEMPO 3010/3014 P6SM NSW SCT003 BKN008 OVC020
                       FM301400 20010KT P6SM VCSH SCT015 OVC025
                       TEMPO 3014/3018 -SHRA BKN015 OVC025 FM301800
                       21010KT P6SM VCSH BKN020 OVC040 FM310000
                       20007KT P6SM VCSH SCT020 BKN045=
201201300535 TAF KSEA 300535Z 3006/3112 19010G18KT P6SM -SHRA SCT008 OVC019
                       TEMPO 3006/3010 -SHRA BKN008 OVC013 FM301200
                       20010KT P6SM VCSH SCT015 OVC025
                      TEMPO 3012/3016 -SHRA BKN015 OVC025 FM301800
                       21010KT P6SM VCSH BKN020 OVC040 FM310000
                       20007KT P6SM VCSH SCT020 BKN045=
201201300300 KSEA 300300Z 3003/3106 19014G22KT P6SM -RA SCT023 BKN035 OVC060
                       TEMPO 3003/3006 4SM -RA BR BKN012 OVC025
                       FM300600 20010G20KT P6SM -SHRA BKN020 BKN040
                       FM301600 18010KT P6SM VCSH SCT020 BKN040=
201201300024 KSEA 300024Z 3000/3106 19008KT P6SM -RA SCT007 OVC025
                      TEMPO 3000/3004 4SM -RA BR BKN007 OVC025
                       FM300400 20010G20KT P6SM -SHRA BKN020 BKN040
                       FM301600 18010KT P6SM VCSH SCT020 BKN040=
201201292320 TAF KSEA 292320Z 3000/3106 18010KT P6SM -RA SCT015 OVC025
                      TEMPO 3000/3004 4SM -RA BR BKN015 OVC025
                       FM300400 20010G20KT P6SM -SHRA BKN020 BKN040
                       FM301600 18010KT P6SM VCSH SCT020 BKN040=
201201292106 KSEA 292106Z 2921/3024 19010G20KT 5SM -RA BR SCT015 OVC030
                      TEMPO 2921/2924 3SM -RA BR OVC015 FM300400
                       20010G20KT P6SM -SHRA BKN020 BKN040 FM301600
                       18010KT P6SM VCSH SCT020 BKN040=
201201291720 TAF KSEA 291720Z 2918/3024 20012G20KT 5SM -RA BR SCT015 OVC030
                       TEMPO 2918/2922 2SM RA BR OVC015 FM300400
                       20010G20KT P6SM -SHRA BKN020 BKN040 FM301600
                       18010KT P6SM VCSH SCT020 BKN040=
201201291331 KSEA 291331Z 2914/3018 21008KT P6SM -SHRA SCT015 OVC030
                      TEMPO 2914/2916 5SM SHRA BKN015 OVC030 FM291600
                       17008KT P6SM -RA OVC040 FM300400 20007KT
                       P6SM -RA OVC015 FM300900 21009KT P6SM VCSH
                       OVC015=
201201291137 TAF KSEA 291137Z 2912/3018 24007G14KT P6SM -SHRA OVC040 FM300400
                       20007KT P6SM -RA OVC015 FM300900 21009KT
                       P6SM VCSH OVC015=
201201290905 KSEA 290905Z 2909/3012 15008KT P6SM SCT045 BKN080 OVC200 FM291000
                       16012KT 4SM -RA BR BKN035 OVC060 FM291400
                       21012G22KT 5SM -RA BR OVC020 FM292200 20010G18KT
                       P6SM -SHRA BKN020 BKN040 FM300600 22012G22KT
                       P6SM VCSH OVC025=
201201290529 TAF KSEA 290529Z 2906/3012 16003KT P6SM VCSH OVC040 FM290800 17012G22KT
                       P6SM -RA SCT020 OVC040 FM291500 17012G22KT
                       5SM -RA BR OVC020 FM292200 20010G20KT P6SM
                       -SHRA BKN020 BKN040=
201201290310 KSEA 290310Z 2903/3006 16004KT P6SM VCSH FEW070 BKN130 FM290800
                       17012G22KT P6SM -RA SCT020 OVC040 FM291500
                       17012G22KT 5SM -RA BR OVC020 FM292200 20010G20KT
                       P6SM -SHRA BKN020 BKN040=
201201282320 TAF KSEA 282320Z 2900/3006 19010KT P6SM VCSH BKN050 OVC070 FM290800
                       17012G22KT P6SM -RA SCT020 OVC040 FM291500
                       17012G22KT 5SM -RA BR OVC020 FM292200 20010G20KT
                       P6SM -SHRA BKN020 BKN040=
201201282101 KSEA 282101Z 2821/2924 19010KT P6SM VCSH BKN050 OVC070 FM290800
                       17012G22KT P6SM -RA SCT020 OVC040 FM291500
                       17012G22KT 5SM -RA BR OVC020 FM292200 20010G20KT
                       P6SM -SHRA BKN020 BKN040=
201201281720 TAF KSEA 281720Z 2818/2924 16008KT P6SM VCSH BKN050 OVC100 FM290800
                       17012KT P6SM -RA SCT020 OVC040 FM291500
                       17014KT 5SM -RA BR OVC020 FM292200 20012G22KT
                       P6SM -SHRA BKN020 BKN040=
201201281400 KSEA 281400Z 2814/2918 VRB03KT P6SM BKN060 OVC100 FM281800 19006KT
                       P6SM BKN060 OVC120 FM290800 19010KT P6SM
                       -RA BKN025 OVC045=
201201281137 TAF KSEA 281137Z 2812/2918 16003KT P6SM BKN120 OVC200 FM281800
                       19006KT P6SM BKN060 OVC120 FM290800 19010KT
                       P6SM -RA BKN025 OVC045=
201201280915 KSEA 280915Z 2809/2912 00000KT P6SM SCT250 FM281100 13004KT P6SM
                       BKN120 OVC200 FM281900 20006KT P6SM OVC100
                       FM282300 21005KT P6SM OVC045=
201201280535 TAF KSEA 280535Z 2806/2912 00000KT P6SM SCT250 FM281100 13004KT
                       P6SM BKN120 OVC200 FM281900 20006KT P6SM
                       OVC100 FM282300 21005KT P6SM OVC045=
201201280315 KSEA 280315Z 2803/2906 03003KT P6SM FEW250 FM281000 13004KT P6SM
                       SCT100 BKN200 FM281500 16006KT P6SM BKN050
                       OVC200 FM290300 19010KT P6SM -RA BKN040
                       OVC060=
201201272344 TAF KSEA 272344Z 2800/2906 06003KT P6SM BKN250 FM281000 13004KT
                       P6SM SCT100 BKN200 FM281500 16006KT P6SM
                       BKN050 OVC200 FM290300 19010KT P6SM -RA
                       BKN040 OVC060=
201201272100 KSEA 272100Z 2721/2824 VRB03KT P6SM BKN250 FM281000 14004KT P6SM
                       BKN120 FM281500 14006KT P6SM BKN050 OVC200=
201201271738 TAF KSEA 271738Z 2718/2824 16004KT P6SM VCFG FEW004 FM271900 VRB03KT
                       P6SM SCT250 FM281000 14004KT P6SM BKN120
                       FM281500 14006KT P6SM BKN050 OVC200=
201201271400 KSEA 271400Z 2714/2818 00000KT P6SM VCFG FEW045
                      TEMPO 2714/2717 4SM BR SCT006 FM271800 29003KT
                       P6SM SCT250 FM280900 14004KT P6SM BKN200=
201201271132 TAF KSEA 271132Z 2712/2818 00000KT P6SM SCT030 FM271300 VRB03KT
                       P6SM VCFG FEW006 FM271800 29003KT P6SM SCT250
                       FM280900 14004KT P6SM BKN200=
201201270900 KSEA 270900Z 2709/2812 15003KT P6SM SKC FM271300 VRB03KT P6SM VCFG
                       FEW010 FM271800 VRB03KT P6SM SCT250=
201201270530 TAF KSEA 270530Z 2706/2812 13006KT P6SM FEW030 SCT080 FM270800
                       VRB03KT P6SM SKC FM271300 VRB03KT P6SM VCFG
                       FEW010
                      TEMPO 2713/2716 2SM BCFG BKN007 FM271800
                       VRB03KT P6SM SCT250=
201201270302 KSEA 270302Z 2703/2806 12004KT P6SM FEW035 SCT070 FM270800 VRB03KT
                       P6SM SKC FM271300 VRB03KT P6SM VCFG FEW010
                       TEMPO 2713/2716 2SM BCFG BKN007 FM271800
                       VRB03KT P6SM SCT250=
201201262320 TAF KSEA 262320Z 2700/2806 26005KT P6SM SCT028
                      TEMPO 2700/2704 35003KT FM270400 19005KT
                       P6SM FEW030 FM270800 VRB03KT P6SM SKC FM271300
                       VRB03KT P6SM VCFG FEW010
                      TEMPO 2713/2716 2SM BCFG BKN007 FM271800
                       VRB03KT P6SM SCT250=
201201262032 KSEA 262032Z 2621/2724 23010KT P6SM SCT022 SCT060
                      TEMPO 2621/2623 BKN022 BKN060 FM270000 26007KT
                       P6SM SCT025 SCT060
                      TEMPO 2700/2704 35004KT FM270400 17007KT
                       P6SM SCT025 BKN050=
201201261910 KSEA 261910Z 2619/2724 21010KT P6SM SCT018 SCT045 BKN200
                      TEMPO 2619/2622 SCT020 BKN045 BKN200 FM262200
                       22008KT P6SM VCSH SCT015 BKN035 BKN050
                      TEMPO 2622/2702 33007KT -SHRA FM270400 18007KT
                       P6SM SCT025 BKN050=
201201261746 TAF KSEA 261746Z 2618/2724 15010KT P6SM -SHRA SCT018 BKN025 OVC045
                       TEMPO 2618/2622 SCT020 BKN040 BKN050 FM262200
                       22008KT P6SM -SHRA SCT015 BKN025 BKN045
                       TEMPO 2622/2702 33007KT FM270400 18007KT
                       P6SM SCT025 BKN050=
201201261506 KSEA 261506Z 2615/2718 05011KT 6SM -SHRA BR SCT012 OVC018 FM261700
                       12007KT P6SM VCSH SCT018 BKN030 FM261900
                       22015G23KT P6SM BKN045 FM262300 22014G21KT
                       P6SM SCT250 FM270100 18007KT P6SM SCT250=
201201261132 TAF KSEA 261132Z 2612/2718 21013G23KT P6SM VCSH SCT019 BKN070
                      TEMPO 2612/2616 -SHRA OVC015 FM261900 22015G23KT
                       P6SM BKN045 FM262300 22014G21KT P6SM SCT250
                       FM270100 18007KT P6SM SCT250=
201201260904 TAF AMD KSEA 260904Z 2609/2712 19018G25KT P6SM -RA SCT025 OVC035
                       FM261400 21010G18KT P6SM VCSH BKN015 OVC035
                       FM262000 24010KT P6SM BKN045 FM270000 23006KT
                       P6SM SCT045 SCT250=
201201260520 TAF KSEA 260520Z 2606/2712 14008KT P6SM -RA BKN030 OVC050 FM260800
                       14008KT P6SM -RA BKN015 OVC035 FM261400
                       21010KT P6SM VCSH BKN015 OVC035 FM262000
                       24010KT P6SM BKN045 FM270000 23006KT P6SM
                       SCT045 SCT250=
201201260302 KSEA 260302Z 2603/2706 12007KT P6SM SCT050 OVC090
                      TEMPO 2603/2607 -RA BKN040 OVC070 FM261300
                       21008KT P6SM BKN025 FM261900 25006KT P6SM
                       BKN050 FM270000 VRB06KT P6SM SCT250=
201201252344 TAF KSEA 252344Z 2600/2706 22010G20KT P6SM SCT025 BKN120 OVC200
                       FM260400 19010G18KT P6SM SCT030 BKN045 OVC070
                       TEMPO 2604/2606 -RA FM260600 17012KT P6SM
                       -RA BKN022 OVC045 FM260900 19012KT 5SM -RA
                       BR OVC015 FM261100 22012G22KT P6SM -RA BKN015
                       OVC025 FM261500 23012G24KT P6SM BKN025 BKN040
                       TEMPO 2615/2618 -SHRA FM261900 24010KT P6SM
                       VCSH SCT025 BKN050=
201201252059 KSEA 252059Z 2521/2624 21010KT P6SM SCT025 BKN060 BKN140
                      TEMPO 2521/2601 -SHRA BKN020 BKN060 BKN140
                       FM260100 17008KT P6SM VCSH SCT030 BKN050
                       FM260600 17012KT 5SM -RA BR OVC022 FM260900
                       20012G20KT 5SM -RA BR OVC015 FM261500 23012G20KT
                       P6SM BKN025 BKN040
                      TEMPO 2615/2618 -SHRA=
201201251734 TAF KSEA 251734Z 2518/2624 20010KT P6SM -SHRA SCT025 BKN035 OVC050
                       TEMPO 2518/2521 4SM -SHRA BR BKN025 OVC035
                       FM252100 20010KT P6SM SCT025 BKN040 BKN060
                       TEMPO 2521/2601 -SHRA FM260100 17008KT P6SM
                       VCSH SCT030 BKN050 FM260600 17012KT 5SM
                       -RA BR OVC022 FM260900 20012G20KT 5SM -RA
                       BR OVC015 FM261500 23012G20KT P6SM BKN025
                       BKN040
                      TEMPO 2615/2618 -SHRA=
201201251425 KSEA 251425Z 2514/2618 23012G18KT 6SM -SHRA BR SCT012 BKN025 OVC045
                       FM251800 20012KT P6SM SCT035 BKN050 BKN100
                       FM260000 17008KT P6SM -RA BKN035 OVC050
                       FM260600 17012KT 5SM -RA BR OVC022 FM260900
                       20012G20KT 5SM -RA BR OVC015 FM261500 23012G20KT
                       P6SM BKN025 BKN040
                      TEMPO 2615/2618 -SHRA=
201201251238 KSEA 251238Z 2513/2618 21015G23KT P6SM SCT025 SCT040
                      TEMPO 2513/2515 21020G30KT BKN025 BKN040
                       FM251500 20013G20KT P6SM BKN025 BKN040 FM251800
                       20012KT P6SM SCT035 BKN050 BKN100 FM260000
                       17008KT P6SM -RA BKN035 OVC050 FM260600
                       17012KT 5SM -RA BR OVC022 FM260900 20012G20KT
                       5SM -RA BR OVC015 FM261500 23012G20KT P6SM
                       BKN025 BKN040
                      TEMPO 2615/2618 -SHRA=
201201251146 TAF KSEA 251146Z 2512/2618 21015G23KT P6SM SCT025 SCT040
                      TEMPO 2512/2515 BKN025 BKN040 FM251500 20013G20KT
                       P6SM BKN025 BKN040 FM251800 20012KT P6SM
                       SCT035 BKN050 BKN100
                      PROB30 2521/2524 -SHRA FM260000 17008KT P6SM
                       -RA BKN035 OVC050 FM260600 17012KT 5SM -RA
                       BR OVC022 FM260900 20012G20KT 5SM -RA BR
                       OVC015 FM261500 23012G20KT P6SM BKN025 BKN040
                       TEMPO 2615/2618 -SHRA=
201201251020 KSEA 251020Z 2510/2612 22014G23KT P6SM SCT025 SCT050
                      TEMPO 2510/2512 22020G30KT BKN025 BKN050
                       FM251400 19012G20KT P6SM BKN022 OVC050
                      TEMPO 2514/2518 -SHRA FM251800 21013G23KT
                       P6SM -SHRA BKN028 BKN050 OVC100 FM260000
                       19010KT P6SM -RA BKN028 OVC050 FM260600
                       17012KT 5SM -RA BR SCT009 OVC018=
201201250818 KSEA 250818Z 2508/2612 24020G30KT P6SM SCT025 SCT050
                      TEMPO 2508/2510 BKN025 BKN050 FM251000 21014G23KT
                       P6SM SCT022 BKN050
                      TEMPO 2510/2514 -SHRA BKN022 BKN050 FM251400
                       19012G20KT P6SM BKN022 OVC050
                      TEMPO 2514/2518 -SHRA FM251800 21013G23KT
                       P6SM -SHRA BKN028 BKN050 OVC100 FM260000
                       19010KT P6SM -RA BKN028 OVC050 FM260600
                       17012KT 5SM -RA BR SCT009 OVC018=
201201250542 TAF KSEA 250542Z 2506/2612 21020G30KT P6SM FEW008 SCT015 BKN060
                       TEMPO 2506/2510 -SHRA FEW008 BKN015 OVC030
                       FM251000 21014G23KT P6SM SCT022 BKN050
                      TEMPO 2510/2514 -SHRA BKN022 BKN050 FM251400
                       19012G20KT P6SM BKN022 OVC050
                      TEMPO 2514/2518 -SHRA FM251800 21013G23KT
                       P6SM -SHRA BKN028 BKN050 OVC100 FM260000
                       19010KT P6SM -RA BKN028 OVC050 FM260600
                       17012KT 5SM -RA BR SCT009 OVC018=
201201250412 KSEA 250412Z 2504/2606 21020G30KT P6SM -SHRA BKN019 OVC030 FM250600
                       21015G25KT P6SM -SHRA BKN015 OVC030 FM250800
                       21015G25KT P6SM -SHRA BKN020 BKN040 FM251800
                       18012G22KT P6SM VCSH BKN030 BKN050=
201201250234 KSEA 250234Z 2503/2606 21019G30KT P6SM -RA BKN006 OVC011 FM250500
                       21015G25KT P6SM -SHRA BKN015 OVC030 FM250800
                       21015G25KT P6SM -SHRA BKN020 BKN040 FM251800
                       18012G22KT P6SM VCSH BKN030 BKN050=
201201242320 TAF KSEA 242320Z 2500/2606 15012G22KT 5SM -RA BR SCT012 OVC025
                       WS020/19045KT
                      TEMPO 2500/2502 3SM RA BR OVC012 FM250200
                       19020G30KT 5SM -SHRA BR BKN020 OVC040 FM250800
                       21015G25KT P6SM -SHRA BKN020 BKN040 FM251800
                       18012G22KT P6SM VCSH BKN030 BKN050=
201201242103 KSEA 242103Z 2421/2524 16012G22KT 5SM -RA BR OVC025 WS020/19045KT
                       FM250000 20020G30KT P6SM -SHRA BKN020 OVC040
                       FM250600 20015G25KT P6SM -SHRA BKN025 BKN050
                       FM251200 19012G20KT P6SM -SHRA BKN025 BKN050=
201201241731 TAF KSEA 241731Z 2418/2524 14010KT 5SM -RA BR OVC025 FM242100 16012G22KT
                       5SM -RA BR OVC020 WS020/19045KT FM250000
                       20020G30KT P6SM -SHRA BKN020 OVC040 FM250600
                       20013G23KT P6SM -SHRA BKN028 OVC050 FM251200
                       19012KT P6SM BKN035 BKN050
                      PROB30 2512/2515 -SHRA=
201201241441 KSEA 241441Z 2415/2518 13007KT 6SM -RA BR BKN025 OVC035 WS020/20030KT
                       FM241500 10008KT 6SM -RA BR SCT018 OVC035
                       WS020/19040KT FM241800 14011KT 5SM -RA BR
                       OVC018 WS020/19040KT FM242100 18013G23KT
                       5SM -RA BR SCT008 OVC015 WS020/20040KT FM250000
                       20020G30KT P6SM -SHRA BKN020 OVC040 FM250600
                       20013G23KT P6SM -SHRA BKN028 OVC050 FM251200
                       19012KT P6SM BKN035 BKN050
                      PROB30 2512/2515 -SHRA=
201201241147 TAF KSEA 241147Z 2412/2518 14005KT P6SM -RA SCT028 OVC050 WS020/20030KT
                       FM241500 10008KT P6SM -RA SCT018 OVC035
                       WS020/19040KT FM241800 14011KT 5SM -RA BR
                       OVC018 WS020/19040KT FM242100 18013G23KT
                       5SM -RA BR SCT008 OVC015 WS020/20040KT FM250000
                       20020G30KT P6SM -SHRA BKN020 OVC040 FM250600
                       20013G23KT P6SM -SHRA BKN028 OVC050 FM251200
                       19012KT P6SM BKN035 BKN050
                      PROB30 2512/2515 -SHRA=
201201240907 KSEA 240907Z 2409/2512 10005KT P6SM SCT050 BKN110 OVC200 WS020/20025KT
                       FM241200 10009KT P6SM -RA SCT028 OVC050
                       WS020/20030KT FM241500 10009KT P6SM -RA
                       SCT018 OVC035 WS020/19040KT FM241800 14011KT
                       5SM -RA BR OVC018 WS020/19040KT FM242100
                       18013G23KT 5SM -RA BR SCT008 OVC015 WS020/20040KT
                       FM250000 20020G30KT P6SM -SHRA BKN020 OVC040
                       FM250600 20013G23KT P6SM -SHRA BKN028 OVC050=
201201240543 TAF KSEA 240543Z 2406/2512 13007KT P6SM SCT110 OVC200 FM240900
                       10007KT P6SM SCT050 OVC110 WS020/20025KT
                       FM241200 10009KT P6SM -RA SCT028 OVC050
                       WS020/20030KT FM241500 10009KT P6SM -RA
                       SCT018 OVC035 WS020/19040KT FM241800 14011KT
                       5SM -RA BR OVC018 WS020/19040KT FM242100
                       18013G23KT 5SM -RA BR SCT008 OVC015 WS020/20040KT
                       FM250000 20020G30KT P6SM -SHRA BKN020 OVC040
                       FM250600 20013G23KT P6SM -SHRA BKN028 OVC050=
201201240305 KSEA 240305Z 2403/2506 15006KT P6SM SCT110 BKN200 FM241200 14007KT
                       P6SM SCT050 OVC120 FM241500 13009KT P6SM
                       RA SCT024 OVC045 FM241800 18012KT 6SM -RA
                       OVC020 FM242000 19014G24KT P6SM -SHRA BKN020
                       OVC040 FM242200 20016G32KT P6SM -SHRA BKN030
                       OVC060 FM250500 21012G25KT P6SM -SHRA BKN028
                       OVC040=
201201232339 TAF KSEA 232339Z 2400/2506 21007KT P6SM FEW040 BKN200 FM240400
                       15006KT P6SM SCT090 OVC150 FM241200 14007KT
                       P6SM SCT050 OVC120 FM241500 13009KT P6SM
                       RA SCT024 OVC045 FM241800 18012KT 6SM -RA
                       OVC020 FM242000 19014G24KT P6SM -SHRA BKN020
                       OVC040 FM242200 20016G32KT P6SM -SHRA BKN030
                       OVC060 FM250500 21012G25KT P6SM -SHRA BKN028
                       OVC040=
201201232103 KSEA 232103Z 2321/2424 18006KT P6SM SCT040 SCT200 FM240400 15007KT
                       P6SM SCT090 OVC150 FM241200 14007KT P6SM
                       SCT050 OVC120 FM241500 13009KT P6SM RA SCT028
                       OVC050 FM241700 12009KT 6SM -RA OVC024 FM242100
                       19015G22KT P6SM -SHRA BKN030 BKN090=
201201231741 TAF KSEA 231741Z 2318/2424 18006KT P6SM SCT040 SCT200
                      TEMPO 2318/2321 BKN040 BKN200 FM240400 15007KT
                       P6SM SCT090 OVC150 FM241200 14007KT P6SM
                       SCT050 OVC120 FM241500 13009KT P6SM RA SCT028
                       OVC050 FM241700 12009KT 6SM -RA OVC024 FM242100
                       19015G22KT P6SM -SHRA BKN030 BKN090=
201201231401 KSEA 231401Z 2314/2418 18005KT P6SM VCFG FEW025 SCT070
                      TEMPO 2314/2318 BKN025 BKN060 FM231800 22006KT
                       P6SM FEW035 SCT060 SCT200 FM240000 23006KT
                       P6SM FEW060 BKN200 FM240600 15006KT P6SM
                       SCT090 OVC150 FM241200 11006KT P6SM SCT050
                       OVC120 FM241500 11008KT P6SM -RA SCT028
                       OVC050=
201201231142 TAF KSEA 231142Z 2312/2418 19009KT P6SM VCFG SCT028 SCT060
                      TEMPO 2314/2318 BKN028 BKN060 FM231800 22006KT
                       P6SM FEW035 SCT060 SCT200 FM240000 23006KT
                       P6SM FEW060 BKN200 FM240600 15006KT P6SM
                       SCT090 OVC150 FM241200 11006KT P6SM SCT050
                       OVC120 FM241500 11008KT P6SM -RA SCT028
                       OVC050=
201201230819 KSEA 230819Z 2308/2412 19008KT P6SM SCT028 SCT050
                      TEMPO 2309/2312 BKN028 BKN050 FM231200 19005KT
                       P6SM BKN025 BKN050 FM231800 22005KT P6SM
                       SCT035 SCT050 SCT200 FM240000 23005KT P6SM
                       SCT070 BKN200 FM240600 15005KT P6SM SCT090
                       OVC150=
201201230544 TAF KSEA 230544Z 2306/2412 20013G20KT P6SM SCT035 SCT050
                      TEMPO 2306/2309 BKN035 BKN050 FM230900 19008KT
                       P6SM SCT028 SCT050
                      TEMPO 2309/2312 BKN028 BKN050 FM231200 19005KT
                       P6SM BKN025 BKN050 FM231800 22005KT P6SM
                       SCT035 SCT050 SCT200 FM240000 23005KT P6SM
                       SCT070 BKN200 FM240600 15005KT P6SM SCT090
                       OVC150=
201201230518 KSEA 230518Z 2305/2406 20013G20KT P6SM SCT030 SCT050 FM230700 19013G20KT
                       P6SM SCT035 BKN050 FM231200 17008KT P6SM
                       BKN035 BKN050=
201201230359 KSEA 230359Z 2304/2406 20015G22KT P6SM SCT030 BKN060
                      TEMPO 2304/2306 -SHRA BKN030 OVC060 FM230600
                       19013G20KT P6SM VCSH SCT035 BKN050 FM231200
                       17008KT P6SM BKN035 BKN050=
201201230233 KSEA 230233Z 2303/2406 18015G22KT P6SM -SHRA BKN025 OVC040
                      TEMPO 2303/2306 5SM SHRA FM230600 19013G20KT
                       P6SM VCSH BKN028 BKN050 FM231200 17008KT
                       P6SM BKN035 BKN050=
201201222325 TAF KSEA 222325Z 2300/2406 17012G20KT 6SM -RA BR OVC030 FM230200
                       18020G30KT P6SM -SHRA BKN030 BKN050 FM230600
                       19013G20KT P6SM VCSH BKN028 BKN050 FM231200
                       17008KT P6SM BKN035 BKN050=
201201222107 KSEA 222107Z 2221/2324 17012KT 5SM -RA BR OVC030 WS020/17035KT
                       FM230000 18020G30KT 5SM -RA OVC015 FM230300
                       21020G30KT P6SM -SHRA BKN028 OVC050 FM230900
                       19013G20KT P6SM VCSH BKN028 BKN050 FM231200
                       17008KT P6SM BKN035 BKN050=
201201221733 TAF KSEA 221733Z 2218/2324 13010KT P6SM -RA SCT025 OVC040 WS020/17035KT
                       FM222000 15013KT 5SM -RA BR OVC025 WS020/17035KT
                       FM230000 18020G30KT 5SM RA OVC015 FM230300
                       21020G30KT P6SM -SHRA BKN028 OVC050 FM230900
                       19013G20KT P6SM VCSH BKN028 BKN050 FM231200
                       17008KT P6SM BKN035 BKN050=
201201221401 KSEA 221401Z 2214/2318 14008KT P6SM BKN045 OVC130 WS020/18028KT
                       FM221500 10010KT P6SM -RA SCT025 OVC050
                       WS020/17032KT FM222000 15013KT 5SM -RA BR
                       OVC025 WS020/17035KT FM230000 18020G30KT
                       5SM RA OVC015 FM230300 21020G30KT P6SM -SHRA
                       BKN028 OVC050 FM230900 19013G20KT P6SM BKN028
                       BKN050
                      PROB30 2309/2312 -SHRA FM231200 17008KT P6SM
                       BKN035 BKN050
                      PROB30 2312/2318 -SHRA=
201201221143 TAF KSEA 221143Z 2212/2318 13006KT P6SM SCT050 BKN110 OVC200 WS020/18028KT
                       FM221500 10010KT P6SM -RA SCT025 OVC050
                       WS020/17032KT FM222000 15013KT 5SM -RA BR
                       OVC025 WS020/17035KT FM230000 18020G30KT
                       5SM RA OVC015 FM230300 21020G30KT P6SM -SHRA
                       BKN028 OVC050 FM230900 19013G20KT P6SM BKN028
                       BKN050
                      PROB30 2309/2312 -SHRA FM231200 17008KT P6SM
                       BKN035 BKN050
                      PROB30 2312/2318 -SHRA=
201201220909 KSEA 220909Z 2209/2312 17006KT P6SM BKN080 OVC110 FM221200 13006KT
                       P6SM SCT050 OVC110 FM221500 10010KT P6SM
                       -RA SCT025 OVC050 FM222000 15013KT 5SM -RA
                       BR OVC025 FM230000 18020G30KT 5SM RA OVC015
                       FM230300 21020G30KT P6SM -SHRA BKN028 OVC050
                       FM230900 19013G20KT P6SM BKN028 BKN050
                      PROB30 2309/2312 -SHRA=
201201220701 KSEA 220701Z 2207/2312 19013G20KT P6SM FEW030 BKN060 BKN110 FM220900
                       17008KT P6SM SCT050 BKN110 OVC200 FM221200
                       13006KT P6SM SCT050 OVC110 FM221500 10010KT
                       P6SM -RA SCT025 OVC050 FM222000 15013KT
                       5SM -RA BR OVC025 FM230000 18020G30KT 5SM
                       RA OVC015 FM230300 21020G30KT P6SM -SHRA
                       BKN028 OVC050 FM230900 19013G20KT P6SM BKN028
                       BKN050
                      PROB30 2309/2312 -SHRA=
201201220544 TAF KSEA 220544Z 2206/2312 20013KT P6SM FEW030 SCT110 BKN200 FM220900
                       17008KT P6SM SCT050 BKN110 OVC200 FM221200
                       13006KT P6SM SCT050 OVC110 FM221500 10010KT
                       P6SM -RA SCT025 OVC050 FM222000 15013KT
                       5SM -RA BR OVC025 FM230000 18020G30KT 5SM
                       RA OVC015 FM230300 21020G30KT P6SM -SHRA
                       BKN028 OVC050 FM230900 19013G20KT P6SM BKN028
                       BKN050
                      PROB30 2309/2312 -SHRA=
201201220303 KSEA 220303Z 2203/2306 21015G25KT P6SM VCSH BKN018 BKN110 FM220500
                       19010KT P6SM SCT030 BKN120 FM220700 17006KT
                       P6SM BKN050 BKN120 FM221500 15010KT P6SM
                       -RA BKN025 OVC050 FM222000 18012KT P6SM
                       -SHRA BKN030 BKN050=
201201212336 TAF KSEA 212336Z 2200/2306 22015G25KT P6SM VCSH SCT020 BKN030 BKN120
                       TEMPO 2200/2204 BKN020 FM220400 20010KT
                       P6SM SCT030 BKN120 FM220700 17006KT P6SM
                       BKN050 BKN120 FM221500 15010KT P6SM -RA
                       BKN025 OVC050 FM222000 18012KT P6SM -SHRA
                       BKN030 BKN050=
201201212103 KSEA 212103Z 2121/2224 22015G25KT P6SM VCSH SCT020 BKN030 OVC050
                       TEMPO 2122/2202 -SHRA BKN020 FM220200 22013G20KT
                       P6SM VCSH BKN030 BKN050 FM220400 20010KT
                       P6SM SCT050 BKN120 FM220700 17006KT P6SM
                       BKN050 BKN120 FM221500 15010KT P6SM -RA
                       BKN030 OVC050=
201201211726 TAF KSEA 211726Z 2118/2224 22015G25KT P6SM VCSH BKN030 OVC050
                      TEMPO 2118/2122 -SHRA BKN025 FM212200 22013G20KT
                       P6SM VCSH BKN030 BKN050 FM220200 20010KT
                       P6SM SCT050 BKN120 FM220700 17006KT P6SM
                       BKN050 BKN120 FM221500 15010KT P6SM -RA
                       BKN030 OVC050=
201201211408 KSEA 211408Z 2114/2218 21019G27KT P6SM BKN013 OVC020 FM211500 22015G25KT
                       P6SM -SHRA BKN025 OVC050 FM211800 22015G25KT
                       P6SM BKN035 OVC050
                      TEMPO 2118/2122 -SHRA FM212200 22013G20KT
                       P6SM BKN050 FM220200 20010KT P6SM SCT050
                       BKN120 FM220600 17006KT P6SM SCT050 BKN120
                       PROB30 2209/2215 -RA OVC050=
201201211159 KSEA 211159Z 2112/2218 20022G32KT P6SM -RA BKN018 OVC030
                      TEMPO 2112/2114 5SM RA BR FM211500 22015G25KT
                       P6SM -SHRA BKN025 OVC050 FM211800 22015G25KT
                       P6SM BKN035 OVC050
                      TEMPO 2118/2122 -SHRA FM212200 22013G20KT
                       P6SM BKN050
                      PROB30 2122/2202 -SHRA FM220200 20010KT P6SM
                       SCT050 BKN120 FM220600 17006KT P6SM SCT050
                       BKN120
                      PROB30 2209/2215 -RA OVC050=
201201211147 TAF KSEA 211147Z 2112/2218 20018G28KT P6SM -RA BKN022 OVC040
                      TEMPO 2112/2114 5SM RA BR FM211500 22015G25KT
                       P6SM -SHRA BKN028 OVC050 FM211800 22015G25KT
                       P6SM BKN035 OVC050
                      TEMPO 2118/2122 -SHRA FM212200 22013G20KT
                       P6SM BKN050
                      PROB30 2122/2202 -SHRA FM220200 20010KT P6SM
                       SCT050 BKN120 FM220600 17006KT P6SM SCT050
                       BKN120
                      PROB30 2209/2215 -RA OVC050=
201201210920 KSEA 210920Z 2109/2212 14013KT P6SM -RA SCT028 OVC045 FM211000
                       17013G22KT 5SM -RA BR SCT011 OVC020
                      TEMPO 2110/2112 3SM RA BR OVC011 FM211200
                       20018G28KT 5SM -RA BR BKN011 OVC020
                      TEMPO 2112/2114 3SM RA BR FM211500 22015G25KT
                       P6SM -SHRA BKN020 OVC040 FM211800 22015G25KT
                       P6SM BKN028 OVC050
                      TEMPO 2118/2122 -SHRA FM212200 22013G20KT
                       P6SM BKN035 BKN050
                      PROB30 2122/2202 -SHRA FM220200 20011KT P6SM
                       SCT035 SCT050 BKN120 FM220600 17006KT P6SM
                       SCT035 BKN050 OVC120=
201201210647 KSEA 210647Z 2107/2212 11009KT P6SM SCT030 OVC050
                      TEMPO 2107/2108 4SM RA BKN030 OVC050 FM210800
                       14013KT P6SM -RA SCT020 OVC035 FM211000
                       17013G22KT 5SM -RA BR SCT011 OVC020
                      TEMPO 2110/2112 3SM RA BR OVC011 FM211200
                       20018G28KT 5SM -RA BR BKN011 OVC020
                      TEMPO 2112/2114 3SM RA BR FM211500 22015G25KT
                       P6SM -SHRA BKN020 OVC040 FM211800 22015G25KT
                       P6SM BKN028 OVC050
                      TEMPO 2118/2122 -SHRA FM212200 22013G20KT
                       P6SM BKN035 BKN050
                      PROB30 2122/2202 -SHRA FM220200 20011KT P6SM
                       SCT035 SCT050 BKN120 FM220600 17006KT P6SM
                       SCT035 BKN050 OVC120=
201201210545 TAF KSEA 210545Z 2106/2212 11009KT P6SM SCT030 OVC050
                      TEMPO 2106/2108 -RA FM210800 14013KT P6SM
                       -RA SCT020 OVC035 FM211000 17013G22KT 5SM
                       -RA BR SCT011 OVC020
                      TEMPO 2110/2112 3SM RA BR OVC011 FM211200
                       20018G28KT 5SM -RA BR BKN011 OVC020
                      TEMPO 2112/2114 3SM RA BR FM211500 22015G25KT
                       P6SM -SHRA BKN020 OVC040 FM211800 22015G25KT
                       P6SM BKN028 OVC050
                      TEMPO 2118/2122 -SHRA FM212200 22013G20KT
                       P6SM BKN035 BKN050
                      PROB30 2122/2202 -SHRA FM220200 20011KT P6SM
                       SCT035 SCT050 BKN120 FM220600 17006KT P6SM
                       SCT035 BKN050 OVC120=
201201210306 KSEA 210306Z 2103/2206 13009KT P6SM OVC040
                      TEMPO 2103/2106 5SM RA BR OVC030 FM210600
                       14012KT 5SM -RA BR OVC025 FM210900 18016G24KT
                       5SM -RA BR OVC025
                      TEMPO 2110/2114 19022G30KT FM211500 20018G30KT
                       P6SM -SHRA BKN025 OVC050 FM212300 22012G18KT
                       P6SM -SHRA BKN030 OVC050=
201201202332 TAF KSEA 202332Z 2100/2206 13012KT 5SM -RA BR SCT020 OVC040 FM210600
                       14012KT 5SM -RA BR OVC025 FM210900 18016G24KT
                       5SM -RA BR OVC025
                      TEMPO 2110/2114 19022G30KT FM211500 20018G30KT
                       P6SM -SHRA BKN025 OVC050 FM212300 22012G18KT
                       P6SM -SHRA BKN030 OVC050=
201201202107 KSEA 202107Z 2021/2124 VRB03KT 2SM -RA SCT025 OVC035
                      TEMPO 2021/2024 1/2SM FG FM210000 14006KT
                       3SM -RA SCT020 OVC035 FM210300 14012KT P6SM
                       -RA OVC025 FM211000 19016G24KT P6SM -RA
                       OVC025=
201201201721 TAF KSEA 201721Z 2018/2124 VRB03KT 5SM BR VCSH SCT035 BKN100
                      TEMPO 2018/2022 4SM -SHRA SCT025 BKN030 FM202200
                       14006KT P6SM -RA SCT020 OVC035 FM210300
                       14012KT P6SM -RA OVC025 FM211000 19016G24KT
                       P6SM -RA OVC025=
201201201405 KSEA 201405Z 2014/2118 00000KT 3SM -RA BR SCT020 OVC030
                      TEMPO 2014/2016 1SM -FZDZ BR OVC020 FM201600
                       00000KT P6SM SCT007 OVC020
                      TEMPO 2016/2020 4SM -RA BR OVC007 FM202000
                       14006KT P6SM -RA SCT020 OVC035 FM210300
                       14012KT P6SM -RA OVC025 FM211000 19016G24KT
                       P6SM -RA OVC025=
201201201138 TAF KSEA 201138Z 2012/2118 00000KT 3SM BR SCT002 OVC015
                      TEMPO 2012/2016 1SM -FZDZ BR BKN002 OVC010
                       FM201600 00000KT P6SM -FZDZ SCT007 OVC015
                       TEMPO 2016/2020 4SM -RASN BR OVC007 FM202000
                       14006KT P6SM -RA SCT020 OVC035 FM210300
                       14012KT P6SM -RA OVC025 FM211000 19016G24KT
                       P6SM -RA OVC025=
201201200905 TAF AMD KSEA 200905Z 2009/2112 00000KT 5SM -RASN BR OVC017
                      TEMPO 2009/2013 2SM -SN FM201300 05003KT
                       P6SM OVC015
                      TEMPO 2013/2016 4SM -FZDZ FM201600 00000KT
                       P6SM OVC015
                      TEMPO 2016/2020 5SM -RASN BR FM202000 14006KT
                       P6SM -RA SCT020 OVC035 FM210300 14011KT
                       P6SM -RA OVC025=
201201200538 TAF KSEA 200538Z 2006/2112 03003KT P6SM OVC023
                      TEMPO 2006/2010 4SM -SN OVC017 FM201000 05003KT
                       P6SM OVC015
                      TEMPO 2010/2014 4SM -FZDZ FM201400 00000KT
                       P6SM OVC015
                      TEMPO 2014/2018 5SM -RASN BR FM201800 14006KT
                       P6SM -RA SCT020 OVC035 FM210300 14011KT
                       P6SM -RA OVC025=
201201200300 KSEA 200300Z 2003/2106 VRB03KT 6SM -SN BR SCT006 OVC023
                      TEMPO 2003/2007 2SM -SN BR BKN006 OVC023
                       FM200700 14003KT 6SM BR SCT013 OVC030
                      TEMPO 2007/2011 -SN FM201100 14004KT 4SM
                       BR OVC015
                      PROB30 2013/2016 2SM -FZRA OVC007 FM201600
                       14005KT 2SM -RA BR OVC007 FM202200 16008KT
                       4SM -RA BR OVC015=
201201192349 TAF KSEA 192349Z 2000/2106 34005KT 1SM -SN BR BKN006 OVC016 FM200200
                       34004KT 2SM BR BKN006 OVC015 FM201100 14004KT
                       4SM BR OVC015
                      PROB30 2013/2016 2SM -FZRA OVC007 FM201600
                       14005KT 2SM -RA BR OVC007 FM202200 16008KT
                       4SM -RA BR OVC015=
201201192239 KSEA 192239Z 1923/2024 35004KT 3SM -SNPL SCT006 OVC013
                      TEMPO 1923/2002 1SM -SN OVC006 FM200300 35004KT
                       P6SM -SHRASN OVC015 FM200900 16006KT P6SM
                       OVC015 FM201700 16006KT P6SM -RA OVC020=
201201192041 KSEA 192041Z 1921/2024 33005KT 4SM -FZRAPL OVC008
                      TEMPO 1921/1923 3SM -FZRAPL OVC003 FM192300
                       35004KT 4SM -SHRA OVC012 FM200100 14004KT
                       P6SM -SHRA OVC020 FM201400 16006KT P6SM
                       OVC025 FM201700 16006KT P6SM -RA OVC020=
201201192034 KSEA 192034Z 1921/2024 33005KT 5SM -FZRAPL OVC008
                      TEMPO 1921/1923 -FZRAPL OVC003 FM192300 35004KT
                       4SM -SHRA OVC012 FM200100 14004KT P6SM -SHRA
                       OVC020 FM201400 16006KT P6SM OVC025 FM201700
                       16006KT P6SM -RA OVC020=
201201191747 TAF KSEA 191747Z 1918/2024 35003KT 4SM -FZRA BR OVC004 FM192000
                       35003KT 5SM -FZRA OVC008
                      TEMPO 1921/1922 -RA FM192200 35004KT P6SM
                       -RA OVC015 FM200000 33004KT P6SM OVC020
                       FM200300 14004KT P6SM -SHRA OVC020 FM201400
                       16006KT P6SM OVC025 FM201700 16006KT P6SM
                       -RA OVC020=
201201191533 KSEA 191533Z 1916/2018 33003KT 4SM -FZRA BR OVC004 FM192000 33003KT
                       5SM -RA OVC008 FM200000 14004KT P6SM -SHRA
                       OVC020 FM201400 16006KT P6SM OVC025
                      TEMPO 2014/2018 -RA=
201201191526 KSEA 191526Z 1915/2018 33003KT 4SM -FZRA BR OVC004
                      TEMPO 1920/1924 2SM -SHRA BR OVC007 FM200000
                       14004KT P6SM -RA OVC020 FM201400 16006KT
                       P6SM OVC025
                      TEMPO 2014/2018 -RA=
201201191404 KSEA 191404Z 1914/2018 33003KT 4SM -FZRA BR OVC004
                      TEMPO 1914/1918 2SM -SN OVC004 FM191800 02006KT
                       5SM BR OVC015
                      TEMPO 1920/1924 2SM -RASN BR OVC007 FM200100
                       14004KT P6SM -RA OVC020 FM201400 16006KT
                       P6SM OVC025
                      TEMPO 2014/2018 -RA=
201201191135 TAF KSEA 191135Z 1912/2018 34008KT 4SM -FZDZ OVC007
                      TEMPO 1914/1918 2SM -SN OVC004 FM191800 02006KT
                       5SM BR OVC015
                      TEMPO 1920/1924 2SM -RASN BR OVC007 FM200100
                       14004KT P6SM -RA OVC020 FM201400 16006KT
                       P6SM OVC025
                      TEMPO 2014/2018 -RA=
201201190900 KSEA 190900Z 1909/2012 33005KT P6SM OVC012
                      TEMPO 1909/1912 2SM BR OVC004 FM191500 03006KT
                       2SM BR OVC007
                      TEMPO 1917/1921 -SN FM192100 01004KT 4SM
                       BR OVC007
                      TEMPO 1921/2001 -RASN FM200100 16006KT P6SM
                       -RA OVC015=
201201190530 TAF KSEA 190530Z 1906/2012 34007KT 4SM BR OVC004
                      TEMPO 1908/1912 2SM BR OVC001 FM191500 03006KT
                       2SM BR OVC007
                      TEMPO 1917/1921 -SN FM192100 01004KT 4SM
                       BR OVC007
                      TEMPO 1921/2001 -RASN FM200100 16006KT P6SM
                       -RA OVC015=
201201190420 KSEA 190420Z 1904/2006 34008KT 2SM -FZRA OVC004
                      TEMPO 1904/1906 5SM BR SCT004 BKN013 OVC020
                       FM191500 04007KT 4SM BR OVC015 FM192100
                       36006KT P6SM VCSH OVC015=
201201190222 KSEA 190222Z 1902/2006 34010KT 1SM -SN BR SCT004 OVC018
                      TEMPO 1902/1904 3SM -FZRA BR BKN004 OVC015
                       FM190400 07010KT 4SM BR OVC007 FM191500
                       04007KT 4SM BR OVC015 FM192100 36006KT P6SM
                       VCSH OVC015=
201201182326 TAF KSEA 182326Z 1900/2006 32010KT 1SM -SN BR SCT004 OVC018
                      TEMPO 1900/1904 4SM -RASN BKN004 OVC015 FM190400
                       07010KT 4SM BR OVC007 FM191500 04007KT 4SM
                       BR OVC015 FM192100 36006KT P6SM VCSH OVC015=
201201182200 KSEA 182200Z 1822/1924 32008KT 3SM BR VCSH BKN004 OVC015
                      TEMPO 1822/1902 1SM -SHSN OVC008 FM190600
                       36009KT 5SM BR BKN012 BKN030 FM191500 03005KT
                       P6SM OVC020
                      TEMPO 1915/1918 4SM -SHSN FM192000 36005KT
                       P6SM OVC020=
201201182004 KSEA 182004Z 1820/1924 35013KT 1/2SM SN OVC003 FM182200 03012KT
                       P6SM VCSH BKN012 OVC035
                      TEMPO 1822/1902 2SM -SHSN OVC008 FM190600
                       36009KT 5SM BR BKN012 BKN030 FM191500 03005KT
                       P6SM OVC020
                      TEMPO 1915/1918 4SM -SHSN FM192000 36005KT
                       P6SM OVC020=
201201181750 TAF KSEA 181750Z 1818/1924 36015KT 1SM -SN BR SCT004 OVC009
                      TEMPO 1818/1820 1/2SM SN FZFG VV003 FM182000
                       03012G20KT P6SM SCT004 OVC015
                      TEMPO 1820/1823 3SM -SHSN BR OVC003 FM182300
                       03012KT P6SM VCSH BKN012 OVC035 FM190900
                       04006KT 5SM BR BKN012 BKN030 FM191500 03005KT
                       P6SM OVC020
                      TEMPO 1915/1918 4SM -SN FM192000 36005KT
                       P6SM OVC020=
201201181452 KSEA 181452Z 1815/1918 03012KT 1SM -SN BR SCT004 OVC009
                      TEMPO 1816/1820 1/2SM SN FG VV003 FM182000
                       03012G20KT P6SM SCT004 OVC015
                      TEMPO 1820/1822 2SM -SHSN BR OVC003 FM182200
                       03012KT P6SM VCSH BKN012 OVC035 FM190900
                       04006KT 5SM BR BKN012 BKN030 FM191500 03005KT
                       P6SM OVC020
                      TEMPO 1915/1918 4SM -SN=
201201181405 KSEA 181405Z 1814/1918 05007KT 1SM -SN BR SCT004 OVC009
                      TEMPO 1816/1820 1/2SM SN FG VV003 FM182000
                       03012G20KT P6SM SCT004 OVC015
                      TEMPO 1820/1822 2SM -SN BR OVC003 FM182200
                       03012KT P6SM VCSH BKN012 OVC035 FM190900
                       04006KT 5SM BR BKN012 BKN030 FM191500 03005KT
                       P6SM OVC020
                      TEMPO 1915/1918 4SM -SN=
201201181135 TAF KSEA 181135Z 1812/1918 05007KT 2SM -SN BR VV009
                      TEMPO 1812/1816 1/2SM SN FG VV003 FM181800
                       03012G20KT P6SM SCT004 OVC015
                      TEMPO 1818/1822 2SM -SN BR OVC003 FM182200
                       03010KT P6SM VCSH BKN012 OVC035 FM190900
                       04006KT 5SM BR BKN012 BKN030 FM191500 03005KT
                       P6SM OVC020
                      TEMPO 1915/1918 4SM -SN=
201201180835 TAF AMD KSEA 180835Z 1809/1912 08005KT P6SM OVC030 FM181000 06006KT
                       5SM -SN BR OVC025 FM181100 04010KT 3SM -SN
                       BR BKN004 OVC025
                      TEMPO 1811/1815 1/2SM SN FG OVC003 FM181800
                       03012G20KT P6SM SCT004 OVC015
                      TEMPO 1818/1822 2SM -SN BR OVC003 FM182200
                       03010KT P6SM VCSH BKN012 OVC035 FM190900
                       04006KT 5SM BR BKN012 BKN030=
201201180544 TAF KSEA 180544Z 1806/1912 VRB05KT P6SM SCT025 BKN050 OVC080
                      TEMPO 1806/1809 BKN022 OVC050 FM180900 06006KT
                       P6SM BKN025 BKN050 FM181100 05010KT 2SM
                       -SN OVC012 FM181700 04011KT 1SM -SN OVC005
                       FM190200 05008KT 3SM -SHSN BKN010 BKN030
                       FM190900 04006KT 5SM BR BKN012 BKN030=
201201180203 KSEA 180203Z 1802/1906 22010G18KT P6SM SCT020 BKN090 FM180300 25006KT
                       P6SM SCT020 BKN080 OVC200 FM180500 03005KT
                       P6SM SCT020 BKN050 OVC080 FM181100 05011KT
                       2SM -SN OVC012 FM181600 04011KT 1SM -SN
                       OVC005=
201201172344 TAF KSEA 172344Z 1800/1906 22013G22KT P6SM VCSH SCT020 BKN080 FM180200
                       25006KT P6SM VCSH SCT020 BKN080 OVC200 FM180400
                       03005KT P6SM VCSH SCT020 BKN050 OVC080 FM181100
                       05011KT 2SM -SN OVC012 FM181600 04011KT
                       1SM -SN OVC005=
201201172104 KSEA 172104Z 1721/1824 22013G22KT P6SM SCT008 BKN015 OVC200
                      TEMPO 1721/1801 3SM -SHSN BR BKN008 OVC015
                       FM180100 35006KT P6SM -SHSN SCT008 BKN015
                       OVC050 FM180400 03006KT P6SM VCSH BKN020
                       OVC035 FM181100 05011KT 2SM -SN OVC008=
201201171908 KSEA 171908Z 1719/1824 21013G22KT 6SM BR BKN005 OVC010
                      TEMPO 1719/1722 1/2SM -SHSN FG FM172200 21010KT
                       P6SM BKN012 OVC025
                      TEMPO 1722/1801 1SM -SHSN BR BKN007 OVC012
                       FM180100 35008KT 5SM -SHSN BKN006 OVC010
                       FM180400 03006KT P6SM VCSH BKN020 OVC035
                       FM181200 05011KT 2SM -SN OVC008=
201201171740 TAF KSEA 171740Z 1718/1824 18013G22KT 6SM BR BKN005 OVC010
                      TEMPO 1718/1722 1SM -SHSN BR FM172200 21010KT
                       P6SM BKN012 OVC025
                      TEMPO 1722/1801 1SM -SHSN BR BKN007 OVC012
                       FM180100 35008KT 5SM -SHSN BKN006 OVC010
                       FM180400 03006KT P6SM VCSH BKN020 OVC035
                       FM181200 05011KT 2SM -SN OVC008=
201201171431 KSEA 171431Z 1715/1818 18013G22KT 5SM -SN BR OVC005
                      TEMPO 1715/1719 1SM -SN BR FM171900 19010KT
                       P6SM VCSH BKN015 OVC035 FM172200 35008KT
                       5SM -SHSN BKN022 OVC040 FM180200 03006KT
                       P6SM VCSH SCT022 BKN045 FM181200 05011KT
                       2SM -SN OVC008=
201201171135 TAF KSEA 171135Z 1712/1818 18013G21KT 5SM -SN BR OVC005
                      TEMPO 1712/1716 1SM -SN BR FM171600 19010KT
                       P6SM VCSH BKN015 OVC035 FM172200 35008KT
                       5SM -SHSN BKN022 OVC040 FM180200 03006KT
                       P6SM VCSH SCT022 BKN045 FM181200 05011KT
                       2SM -SN OVC008=
201201170904 TAF AMD KSEA 170904Z 1709/1812 20013G22KT 6SM -SN BR SCT005 OVC010
                       TEMPO 1709/1713 3SM -SN BR OVC005 FM171600
                       19010KT P6SM VCSH BKN015 OVC035 FM172200
                       35008KT 5SM -SHSN BKN022 OVC040 FM180200
                       03006KT P6SM VCSH SCT022 BKN045=
201201170535 TAF KSEA 170535Z 1706/1812 18012G20KT P6SM -SN OVC007
                      TEMPO 1706/1710 3SM -SN BR OVC005 FM171600
                       19010KT P6SM VCSH BKN015 OVC035 FM172200
                       35008KT 5SM -SHSN BKN022 OVC040 FM180200
                       03006KT P6SM VCSH SCT022 BKN045=
201201170305 KSEA 170305Z 1703/1806 19013G23KT P6SM OVC009
                      TEMPO 1703/1707 4SM -SHSN BR OVC005 FM170700
                       19011KT 4SM -SHSN BR BKN012 OVC025 FM171600
                       25008KT P6SM VCSH BKN015 OVC035 FM172200
                       20008KT 5SM -SHSN BKN022 OVC040=
201201162346 TAF KSEA 162346Z 1700/1806 20013G22KT 5SM -SHSN BR BKN012 OVC025
                       FM170700 19011KT 4SM -SHSN BR BKN012 OVC025
                       FM171800 25008KT 1SM -SN OVC002 FM172100
                       35006KT 3SM -SHSN BKN006 OVC015 FM180300
                       20008KT 5SM -SHRA BKN022 OVC040=
201201162245 KSEA 162245Z 1623/1724 20013G24KT 5SM -SHSN BR BKN012 OVC040 FM170200
                       18010KT P6SM SCT025 BKN060 FM170700 19008KT
                       4SM -SHSN BR BKN012 OVC025 FM171500 25008KT
                       1/2SM SN OVC002 FM171900 35006KT 2SM -SHSN
                       BKN006 OVC015=
201201162100 KSEA 162100Z 1621/1724 19008KT P6SM FEW007 OVC012
                      TEMPO 1621/1622 3SM -SHSN BR BKN007 OVC012
                       FM162200 18010KT 5SM -SHSN BR BKN020 OVC040
                       FM170200 18010KT P6SM SCT025 BKN060 FM170700
                       19008KT 4SM -SHSN BR BKN012 OVC025 FM171500
                       25008KT 1/2SM SN OVC002 FM171900 35006KT
                       2SM -SHSN BKN006 OVC015=
201201161754 TAF KSEA 161754Z 1618/1724 19008KT P6SM FEW015 BKN022 BKN060
                      TEMPO 1618/1622 4SM -SHSN BR BKN015 OVC025
                       FM162200 18010KT 5SM -SHSN BR BKN020 OVC040
                       FM170200 18010KT P6SM SCT025 BKN060 FM170700
                       19008KT 4SM -SHSN BR BKN012 OVC025 FM171500
                       25008KT 1/2SM SN OVC002 FM171900 35006KT
                       2SM -SHSN BKN006 OVC015=
201201161402 KSEA 161402Z 1614/1718 18005KT P6SM FEW015 BKN025 BKN060
                      TEMPO 1617/1621 5SM -SHSN BR BKN015 OVC025
                       FM162100 16012KT 5SM -SHSN BR BKN020 OVC040
                       FM170200 18010KT P6SM SCT025 BKN060 FM170700
                       19008KT 4SM -SHSN BR BKN012 OVC025 FM171600
                       17008KT P6SM BKN025 BKN040=
201201161120 TAF KSEA 161120Z 1612/1718 15005KT P6SM FEW015 BKN025 BKN060
                      TEMPO 1612/1616 5SM -SHSN BR BKN015 OVC025
                       FM162100 16012KT 5SM -SHSN BR BKN020 OVC040
                       FM170200 18010KT P6SM SCT025 BKN060 FM170700
                       19008KT 4SM -SHSN BR BKN012 OVC025 FM171600
                       17008KT P6SM BKN025 BKN040=
201201161004 KSEA 161004Z 1610/1712 15006KT P6SM FEW010 SCT018 BKN040
                      TEMPO 1610/1612 BKN018 OVC040 FM161400 16006KT
                       P6SM BKN040 BKN120 FM162100 16012KT 5SM
                       -SHSN BKN020 OVC040 FM170200 18010KT P6SM
                       SCT025 BKN060 FM170700 19008KT 4SM -SN BR
                       BKN015 OVC030=
201201160816 KSEA 160816Z 1608/1712 17004KT P6SM SCT020 BKN040
                      TEMPO 1608/1610 5SM -SHSN BKN020 OVC040 FM161400
                       16006KT P6SM BKN040 BKN120 FM162100 16012KT
                       5SM -SHSN BKN020 OVC040 FM170200 18010KT
                       P6SM SCT025 BKN060 FM170700 19008KT 4SM
                       -SN BR BKN015 OVC030=
201201160532 TAF KSEA 160532Z 1606/1712 VRB04KT P6SM FEW015 FM161400 16006KT
                       P6SM BKN040 BKN120 FM162100 16012KT 5SM
                       -SHSN BKN020 OVC040 FM170200 18010KT P6SM
                       SCT025 BKN060 FM170700 19008KT 4SM -SN BR
                       BKN015 OVC030=
201201160315 KSEA 160315Z 1603/1706 02007KT P6SM FEW020 SCT110 FM160600 VRB03KT
                       P6SM SCT015 SCT030 FM161400 16006KT P6SM
                       BKN040 BKN120 FM162100 16012KT 5SM -SHSN
                       BKN020 OVC040=
201201160212 KSEA 160212Z 1602/1706 36005KT P6SM VCSH SCT005 SCT015 BKN035
                      TEMPO 1602/1604 2SM -SHSN SCT005 BKN015 OVC035
                       FM160600 VRB03KT P6SM SCT015 SCT030 FM161400
                       16006KT P6SM BKN040 BKN120 FM162100 16012KT
                       5SM -SHSN BKN020 OVC040=
201201152321 TAF KSEA 152321Z 1600/1706 36008KT P6SM VCSH SCT015 BKN035
                      TEMPO 1600/1604 2SM -SHSN BKN015 OVC030 FM160800
                       VRB03KT P6SM VCSH SCT040 FM161400 16006KT
                       P6SM BKN040 BKN120 FM162100 16012KT 5SM
                       -SHSN BKN020 OVC040=
201201152103 KSEA 152103Z 1521/1624 VRB04KT 3SM -SHSN SCT007 BKN025 OVC040
                      TEMPO 1521/1524 1SM -SHSN BKN007 OVC020 FM160000
                       34007KT P6SM VCSH SCT020 BKN040 FM160400
                       VRB04KT P6SM BKN040
                      TEMPO 1604/1608 SCT040 FM160800 18008KT P6SM
                       VCSH BKN030 FM162000 16012KT 5SM -SHSN BKN020
                       OVC040=
201201151725 TAF KSEA 151725Z 1518/1624 18006KT P6SM VCSH SCT012 BKN035
                      TEMPO 1518/1521 2SM -SHSN BKN012 OVC030 FM152100
                       VRB04KT 4SM -SHSN SCT010 BKN025 OVC050
                      TEMPO 1521/1524 1SM -SHSN OVC010 FM160000
                       34007KT P6SM SCT020 BKN040 FM160400 VRB04KT
                       P6SM BKN040
                      TEMPO 1604/1608 SCT040 FM160800 18008KT P6SM
                       VCSH BKN030=
201201151535 KSEA 151535Z 1516/1618 18006KT 5SM -SHSN SCT010 BKN020 OVC035
                      TEMPO 1516/1518 1SM -SHSN BR OVC010 FM151800
                       23006KT 5SM -SHSN SCT005 BKN015 OVC030
                      TEMPO 1518/1522 1SM -SHSN BR BKN005 OVC015
                       FM160000 34007KT P6SM SCT020 BKN035 FM160400
                       16005KT P6SM SCT030 BKN060=
201201151410 KSEA 151410Z 1514/1618 18006KT P6SM SCT006 BKN012 OVC020 FM152000
                       23006KT P6SM -SHSN BKN010 OVC040
                      TEMPO 1520/1523 1SM -SHSN BR OVC005 FM160000
                       34007KT P6SM SCT020 BKN035 FM160400 16005KT
                       P6SM SCT030 BKN060=
201201151124 TAF KSEA 151124Z 1512/1618 20010KT P6SM BKN010 BKN016 BKN100
                      TEMPO 1515/1518 3SM -SHSN OVC010 FM151800
                       23006KT P6SM -SHSN BKN010 OVC040
                      TEMPO 1519/1523 1SM -SHSN BR OVC005 FM160000
                       34007KT P6SM SCT020 BKN035 FM160400 16005KT
                       P6SM SCT030 BKN060=
201201150900 KSEA 150900Z 1509/1612 20009KT P6SM SCT010 BKN015 OVC020
                      TEMPO 1514/1518 3SM -SHSN OVC010 FM151800
                       21006KT P6SM -SHSN BKN015 OVC040
                      TEMPO 1520/1524 1SM -SHSN BR OVC005 FM160100
                       34007KT P6SM SCT020 BKN035 FM160400 16005KT
                       P6SM SCT030 BKN060=
201201150522 TAF KSEA 150522Z 1506/1612 19012KT P6SM BKN015 BKN100 FM150800
                       19006KT P6SM BKN015 OVC035
                      TEMPO 1514/1518 3SM -SHSN OVC010 FM151800
                       21006KT P6SM -SHSN BKN015 OVC040
                      TEMPO 1520/1524 1SM -SHSN BR OVC005 FM160100
                       34007KT P6SM SCT020 BKN035 FM160400 16005KT
                       P6SM SCT030 BKN060=
201201150215 KSEA 150215Z 1502/1606 21010KT P6SM BKN015 OVC110 FM150500 20012KT
                       P6SM VCSH SCT015 BKN035 FM150800 19006KT
                       P6SM VCSH BKN015 OVC035
                      TEMPO 1512/1516 3/4SM -SHSN BKN004 OVC012
                       FM152000 VRB03KT P6SM VCSH SCT025 BKN040=
201201142326 TAF KSEA 142326Z 1500/1606 23017G28KT P6SM VCSH FEW021 BKN100 FM150500
                       20012KT P6SM VCSH SCT015 BKN035 FM150800
                       19006KT P6SM VCSH BKN015 OVC035
                      TEMPO 1512/1516 3/4SM -SHSN BKN004 OVC012
                       FM152000 VRB03KT P6SM VCSH SCT025 BKN040=
201201142112 KSEA 142112Z 1421/1524 22018G26KT P6SM VCSH FEW012 BKN070 BKN080
                       FM150800 19006KT P6SM VCSH BKN015 OVC035
                       TEMPO 1512/1516 3/4SM -SHSN BKN004 OVC012=
201201141942 KSEA 141942Z 1420/1524 22014G25KT P6SM -RA OVC008 FM142100 21016G26KT
                       P6SM VCSH SCT015 BKN035 FM150800 19006KT
                       P6SM VCSH BKN015 OVC035
                      TEMPO 1512/1516 3/4SM -SHSN BKN004 OVC012=
201201141742 TAF KSEA 141742Z 1418/1524 18013G21KT 3SM -RA BR OVC004 FM142100
                       21016G26KT P6SM VCSH SCT015 BKN035 FM150800
                       19006KT P6SM VCSH BKN015 OVC035
                      TEMPO 1512/1516 3/4SM -SHSN BKN004 OVC012=
201201141715 KSEA 141715Z 1417/1518 18013G21KT 3SM -RA BR OVC004 FM142000 21016G26KT
                       P6SM VCSH SCT015 BKN035 FM150700 19008KT
                       P6SM BKN050 BKN100
                      PROB30 1512/1518 5SM -SHSN BKN020 OVC040=
201201141459 KSEA 141459Z 1415/1518 16008KT P6SM -RA OVC017 FM141700 19008KT
                       P6SM BKN015 OVC035 FM142000 21016G26KT P6SM
                       SCT025 BKN040 FM150100 20012KT P6SM SCT040
                       BKN120 FM150700 19008KT P6SM BKN050 BKN100
                       PROB30 1512/1518 5SM -SHSN BKN020 OVC040=
201201141403 KSEA 141403Z 1414/1518 16008KT P6SM -RA OVC035 FM141500 16008KT
                       P6SM -RA BKN015 OVC035 FM141700 19008KT
                       P6SM BKN015 OVC035 FM142000 21016G26KT P6SM
                       SCT025 BKN040 FM150100 20012KT P6SM SCT040
                       BKN120 FM150700 19008KT P6SM BKN050 BKN100
                       PROB30 1512/1518 5SM -SHSN BKN020 OVC040=
201201141122 TAF KSEA 141122Z 1412/1518 00000KT P6SM OVC040 FM141300 14004KT
                       P6SM -RA OVC035
                      TEMPO 1413/1417 5SM -RASN BKN015 OVC035 FM141700
                       19008KT P6SM BKN015 OVC035 FM142000 21016G26KT
                       P6SM SCT025 BKN040 FM150100 20012KT P6SM
                       SCT040 BKN120 FM150700 19008KT P6SM BKN050
                       BKN100
                      PROB30 1512/1518 5SM -SHSN BKN020 OVC040=
201201140901 KSEA 140901Z 1409/1512 16004KT P6SM OVC045 FM141200 18006KT P6SM
                       -RA BKN025 OVC040 FM141700 19008KT P6SM
                       BKN015 OVC035 FM142000 21016G26KT P6SM SCT025
                       BKN040 FM150100 20012KT P6SM SCT040 BKN120
                       FM150700 19008KT P6SM BKN050 BKN100=
201201140526 TAF KSEA 140526Z 1406/1512 16004KT P6SM SCT090 OVC200 FM141000
                       18006KT P6SM -RA OVC040 FM141700 19008KT
                       P6SM BKN015 OVC035 FM142000 21016G26KT P6SM
                       SCT025 BKN040 FM150100 20012KT P6SM SCT040
                       BKN120 FM150700 19008KT P6SM BKN050 BKN100=
201201140305 KSEA 140305Z 1403/1506 00000KT P6SM SCT100 OVC200 FM140600 18005KT
                       P6SM BKN080 OVC200 FM141000 18006KT P6SM
                       -RA OVC040 FM141700 19008KT P6SM BKN015
                       OVC035 FM142000 19012G18KT P6SM VCSH BKN020
                       BKN035=
201201132328 TAF KSEA 132328Z 1400/1506 00000KT P6SM FEW140 OVC200 FM140300
                       18006KT P6SM OVC050 FM140600 18006KT P6SM
                       -RA OVC040 FM141100 19008KT P6SM VCSH BKN015
                       OVC035 FM142000 19012G18KT P6SM VCSH BKN020
                       BKN035=
201201132101 KSEA 132101Z 1321/1424 03003KT P6SM BKN180 BKN250 FM140300 18006KT
                       P6SM OVC050 FM140600 18006KT P6SM -RA OVC040
                       FM141100 19008KT P6SM VCSH BKN015 OVC035=
201201131737 TAF KSEA 131737Z 1318/1424 VRB03KT P6SM BKN150 FM140300 18006KT
                       P6SM OVC050 FM140600 18006KT P6SM -RA OVC040
                       FM141100 19008KT P6SM VCSH BKN015 OVC035=
201201131422 KSEA 131422Z 1314/1418 01003KT P6SM SCT250 FM132100 VRB03KT P6SM
                       SCT120 BKN200 FM140100 19004KT P6SM BKN100
                       OVC200 FM140800 17006KT P6SM BKN040 OVC080
                       FM141100 18008KT P6SM -RA BKN025 OVC040=
201201131120 TAF KSEA 131120Z 1312/1418 01003KT P6SM SCT250 FM132100 VRB03KT
                       P6SM SCT120 BKN200 FM140100 19004KT P6SM
                       BKN100 OVC200 FM140800 17006KT P6SM BKN040
                       OVC080 FM141100 18008KT P6SM -RA BKN025
                       OVC040=
201201130900 KSEA 130900Z 1309/1412 VRB03KT P6SM BKN200=
201201130526 TAF KSEA 130526Z 1306/1412 VRB03KT P6SM SCT100 BKN200=
201201130300 TAF AMD KSEA 130300Z 1303/1406 33004KT P6SM BKN200 FM130600 VRB03KT
                       P6SM SCT120 BKN200 FM131500 VRB03KT P6SM
                       SCT200=
201201122321 TAF KSEA 122321Z 1300/1406 36004KT P6SM BKN200 FM130600 VRB03KT
                       P6SM SCT120 BKN200 FM131500 VRB03KT P6SM
                       SCT200=
201201122102 KSEA 122102Z 1221/1324 36004KT P6SM BKN200 FM130100 VRB02KT P6SM
                       BKN200=
201201121722 TAF KSEA 121722Z 1218/1324 03005KT P6SM BKN200 FM122100 36004KT
                       P6SM SCT200 FM130100 VRB02KT P6SM BKN200=
201201121402 KSEA 121402Z 1214/1318 03007KT P6SM BKN250 FM121500 06005KT P6SM
                       BKN250 FM122100 36004KT P6SM SCT200 FM130100
                       VRB02KT P6SM BKN200=
201201121120 TAF KSEA 121120Z 1212/1318 03008KT P6SM SCT250 FM121500 06005KT
                       P6SM SCT250 FM122100 36004KT P6SM SCT200
                       FM130100 VRB02KT P6SM BKN200=
201201120903 KSEA 120903Z 1209/1312 02008KT P6SM SKC FM121400 06005KT P6SM SKC
                       FM122100 36004KT P6SM SCT200 FM130100 VRB02KT
                       P6SM BKN200=
201201120520 TAF KSEA 120520Z 1206/1312 01007KT P6SM SKC FM121400 06005KT P6SM
                       SKC FM122100 36004KT P6SM SCT200 FM130100
                       VRB02KT P6SM BKN200=
201201120300 KSEA 120300Z 1203/1306 02010KT P6SM SKC FM120600 03007KT P6SM SKC
                       FM121400 06005KT P6SM SKC FM122100 VRB05KT
                       P6SM SCT200=
201201112320 TAF KSEA 112320Z 1200/1306 02012KT P6SM SKC FM120600 03007KT P6SM
                       SKC FM121400 06005KT P6SM SKC FM122100 VRB05KT
                       P6SM SCT200=
201201112055 KSEA 112055Z 1121/1224 01010KT P6SM SKC FM120300 03006KT P6SM SKC
                       FM121400 06005KT P6SM SKC=
201201111739 TAF KSEA 111739Z 1118/1224 01010KT P6SM BKN200 FM120300 03006KT
                       P6SM FEW250 FM121400 06005KT P6SM SKC=
201201111400 KSEA 111400Z 1114/1218 03008KT P6SM SCT200 FM111700 01007KT P6SM
                       BKN200=
201201111134 TAF KSEA 111134Z 1112/1218 04011KT P6SM FEW250 FM111800 01007KT
                       P6SM BKN200=
201201110910 KSEA 110910Z 1109/1212 03009KT P6SM SKC FM111800 01007KT P6SM SCT250=
201201110533 TAF KSEA 110533Z 1106/1212 04009KT P6SM SKC FM111800 01007KT P6SM
                       SCT250=
201201110305 KSEA 110305Z 1103/1206 35006KT P6SM SKC FM110400 03006KT P6SM SKC
                       FM111800 01007KT P6SM SCT250=
201201102321 TAF KSEA 102321Z 1100/1206 01007KT P6SM SCT050 FM110400 04006KT
                       P6SM SKC FM111800 01007KT P6SM SCT250=
201201102058 KSEA 102058Z 1021/1124 35007KT P6SM BKN050 FM110000 02007KT P6SM
                       SCT050 FM110400 04007KT P6SM SKC FM111800
                       01007KT P6SM SCT250=
201201101732 TAF KSEA 101732Z 1018/1124 01007KT P6SM SCT025 BKN045 FM110000
                       02006KT P6SM SCT050 FM110400 04007KT P6SM
                       SKC FM111800 01007KT P6SM SCT250=
201201101358 KSEA 101358Z 1014/1118 02007KT P6SM SCT025 BKN040
                      TEMPO 1014/1018 BKN022 OVC040 FM101800 36008KT
                       P6SM SCT040 FM110400 04007KT P6SM SKC=
201201101213 KSEA 101213Z 1012/1118 02008KT P6SM SCT025 BKN045 FM101800 36008KT
                       P6SM SCT040 FM110400 04007KT P6SM SKC=
201201101120 TAF KSEA 101120Z 1012/1118 02010KT P6SM VCSH BKN030 FM101400 36010KT
                       P6SM SCT040
                      TEMPO 1014/1018 BKN040 FM110400 04007KT P6SM
                       SKC=
201201100904 KSEA 100904Z 1009/1112 02007KT P6SM SCT020 BKN050 FM101800 36007KT
                       P6SM SCT040=
201201100527 TAF KSEA 100527Z 1006/1112 02007KT 5SM -RA BR OVC035 FM100800 02007KT
                       P6SM SCT015 BKN035 FM101800 36007KT P6SM
                       SCT040=
201201100308 KSEA 100308Z 1003/1106 03006KT P6SM BKN025 BKN040
                      TEMPO 1003/1006 4SM -SHRA BR OVC020 FM100600
                       03006KT P6SM VCSH SCT008 BKN020 FM100900
                       05006KT P6SM SCT015 BKN035 FM101800 35008KT
                       P6SM SCT045 FM110300 02006KT P6SM SCT045=
201201092337 TAF KSEA 092337Z 1000/1106 26006KT P6SM VCSH FEW008 BKN015 OVC035
                       FM100100 30006KT 6SM -SHRA BR SCT008 OVC015
                       TEMPO 1001/1005 5SM -SHRA BR OVC008 FM100500
                       36005KT P6SM VCSH SCT008 BKN020 FM100900
                       05005KT P6SM SCT015 BKN035 FM101800 35008KT
                       P6SM SCT045 FM110300 02006KT P6SM SCT045=
201201091914 KSEA 091914Z 0919/1024 21011KT P6SM VCSH SCT018 BKN045
                      TEMPO 0919/0922 -SHRA BKN018 FM092200 30006KT
                       P6SM -SHRA BKN025 OVC040 FM100300 05005KT
                       P6SM SCT020 BKN040 FM101000 05005KT P6SM
                       SCT040 FM101800 35008KT P6SM SCT040=
201201091742 TAF KSEA 091742Z 0918/1024 21012G22KT P6SM SCT025 OVC045
                      TEMPO 0918/0919 -RA BKN025 OVC050 FM091900
                       23012G20KT P6SM VCSH SCT025 BKN045
                      TEMPO 0919/0922 -SHRA BKN025 FM092200 30006KT
                       P6SM -SHRA BKN025 OVC040 FM100300 05005KT
                       P6SM SCT020 BKN040 FM101000 05005KT P6SM
                       SCT040 FM101800 35008KT P6SM SCT040=
201201091655 KSEA 091655Z 0917/1018 20011KT P6SM -RA SCT030 OVC060
                      TEMPO 0917/0919 -RA BKN025 OVC050 FM091900
                       23012G20KT P6SM VCSH SCT025 BKN045 FM092200
                       VRB04KT P6SM -SHRA BKN025 OVC040 FM100600
                       36006KT P6SM SCT020 BKN040=
201201091407 KSEA 091407Z 0914/1018 20008KT P6SM BKN050 OVC090 FM091600 20012G20KT
                       P6SM -RA SCT030 OVC060
                      TEMPO 0916/0918 -RA BKN030 OVC050 FM091800
                       23012KT P6SM VCSH SCT025 BKN045 FM100000
                       VRB04KT P6SM -SHRA BKN025 OVC040 FM100600
                       36006KT P6SM SCT020 BKN040=
201201091120 TAF KSEA 091120Z 0912/1018 20012G20KT P6SM -RA SCT030 OVC060
                      TEMPO 0913/0917 -RA BKN030 OVC050 FM091800
                       23012KT P6SM VCSH SCT025 BKN045 FM100000
                       VRB04KT P6SM -SHRA BKN025 OVC040 FM100600
                       36006KT P6SM SCT020 BKN040=
201201090905 KSEA 090905Z 0909/1012 14006KT P6SM BKN080 FM091200 17010KT P6SM
                       SCT028 OVC050 FM091500 19013KT P6SM -RA
                       SCT012 OVC028
                      TEMPO 0915/0919 5SM -RA BR BKN012 OVC028
                       FM092000 21008KT P6SM SCT012 OVC028
                      TEMPO 0920/0924 -SHRA FM100000 VRB04KT P6SM
                       VCSH BKN012 OVC028=
201201090520 TAF KSEA 090520Z 0906/1012 14006KT P6SM BKN080 FM091200 17010KT
                       P6SM SCT028 OVC050 FM091500 19013KT P6SM
                       -RA SCT012 OVC028
                      TEMPO 0915/0919 5SM -RA BR BKN012 OVC028
                       FM092000 21008KT P6SM SCT012 OVC028
                      TEMPO 0920/0924 -SHRA FM100000 VRB04KT P6SM
                       VCSH BKN012 OVC028=
201201090305 KSEA 090305Z 0903/1006 17005KT P6SM BKN080 FM091200 17010KT P6SM
                       SCT028 OVC050 FM091500 19013KT P6SM -RA
                       SCT012 OVC028
                      TEMPO 0915/0919 5SM -RA BR BKN012 OVC028
                       FM092000 21008KT P6SM SCT012 OVC028
                      TEMPO 0920/0924 -SHRA FM100000 VRB04KT P6SM
                       VCSH BKN012 OVC028=
201201082349 TAF KSEA 082349Z 0900/1006 17005KT P6SM BKN080 FM090200 17005KT
                       P6SM SCT080 FM090600 17006KT P6SM BKN080
                       FM091200 17010KT P6SM SCT028 OVC050
                      PROB30 0912/0915 -RA FM091500 19013KT P6SM
                       -RA SCT012 OVC028
                      TEMPO 0915/0919 5SM -RA BR BKN012 OVC028
                       FM092000 21008KT P6SM SCT012 OVC028
                      TEMPO 0920/0924 -SHRA FM100000 VRB04KT P6SM
                       BKN012 OVC028
                      PROB30 1000/1006 -SHRA=
201201082110 KSEA 082110Z 0821/0924 19006KT P6SM BKN080 BKN200 FM090600 17006KT
                       P6SM BKN060 OVC120 FM091200 17010KT P6SM
                       SCT028 OVC050
                      PROB30 0912/0915 -RA FM091500 19013KT P6SM
                       -RA SCT012 OVC028
                      TEMPO 0915/0919 5SM -RA BR BKN012 OVC028=
201201081756 TAF KSEA 081756Z 0818/0924 VRB04KT P6SM SCT080 BKN200 FM090600
                       17006KT P6SM BKN060 OVC120 FM091200 17010KT
                       P6SM SCT028 OVC050
                      PROB30 0912/0915 -RA FM091500 19013KT P6SM
                       -RA SCT012 OVC028
                      TEMPO 0915/0919 5SM -RA BR BKN012 OVC028=
201201081405 KSEA 081405Z 0814/0918 16006KT P6SM SCT050 BKN150 FM090800 18012KT
                       P6SM BKN050 OVC100 FM091500 18014KT P6SM
                       -RA OVC040=
201201081120 TAF KSEA 081120Z 0812/0918 16006KT P6SM BKN030 OVC100 FM081600
                       16006KT P6SM BKN040 BKN100 FM081900 16010KT
                       P6SM SCT050 BKN150 FM090800 18012KT P6SM
                       BKN050 OVC100 FM091500 18014KT P6SM -RA
                       OVC040=
201201080922 KSEA 080922Z 0809/0912 18006KT P6SM BKN030 OVC100 FM081500 17007KT
                       P6SM BKN040 BKN100 FM081800 17007KT P6SM
                       SCT050 BKN150 FM090800 18012KT P6SM -RA
                       BKN040 OVC080=
201201080521 TAF KSEA 080521Z 0806/0912 18006KT P6SM BKN050 FM081800 20005KT
                       P6SM SCT050 SCT100 OVC200 FM090000 17007KT
                       P6SM SCT050 OVC100=
201201072349 TAF KSEA 072349Z 0800/0906 20005KT P6SM SCT035 OVC070 FM080600
                       15005KT P6SM SCT050 BKN100 OVC200 FM081800
                       20005KT P6SM SCT050 SCT100 OVC200 FM090000
                       17007KT P6SM SCT050 OVC100=
201201072127 KSEA 072127Z 0721/0824 17005KT P6SM SCT035 OVC070 FM080000 20005KT
                       P6SM SCT035 BKN050 OVC100 FM080600 15005KT
                       P6SM SCT050 BKN100 OVC200=
201201071747 TAF KSEA 071747Z 0718/0824 15005KT P6SM FEW006 OVC012
                      TEMPO 0718/0720 4SM -DZ BR FM072000 17005KT
                       P6SM OVC022 FM072200 20005KT P6SM BKN035
                       BKN050 OVC100 FM080000 20005KT P6SM SCT035
                       BKN050 OVC100 FM080600 15005KT P6SM SCT050
                       BKN100 OVC200=
201201071719 KSEA 071719Z 0717/0818 VRB03KT P6SM OVC012
                      TEMPO 0717/0719 4SM BR FM071900 15005KT P6SM
                       BKN025 OVC050 FM072100 15007KT P6SM SCT050
                       BKN150 FM080600 16010KT P6SM BKN050 BKN100=
201201071404 KSEA 071404Z 0714/0818 VRB03KT P6SM OVC020 FM071800 15005KT P6SM
                       BKN025 OVC050 FM072100 15007KT P6SM SCT050
                       BKN150 FM080600 16010KT P6SM BKN050 BKN100=
201201071120 TAF KSEA 071120Z 0712/0818 VRB03KT P6SM OVC020 FM071800 15005KT
                       P6SM BKN025 OVC050 FM072100 15007KT P6SM
                       SCT050 BKN150 FM080600 16010KT P6SM BKN050
                       BKN100=
201201070900 KSEA 070900Z 0709/0812 VRB03KT P6SM VCSH BKN022 OVC040 FM071400
                       VRB03KT P6SM OVC015 FM072000 VRB03KT P6SM
                       BKN020 OVC060 FM072200 VRB03KT P6SM SCT030
                       SCT060 BKN150=
201201070520 TAF KSEA 070520Z 0706/0812 14007KT P6SM SCT015 OVC050
                      TEMPO 0707/0711 BKN015 OVC040 FM071100 VRB03KT
                       P6SM VCSH BKN015 OVC040 FM071400 VRB03KT
                       P6SM OVC011 FM072000 VRB03KT P6SM BKN020
                       OVC060 FM072200 VRB03KT P6SM SCT030 SCT060
                       BKN150=
201201070303 KSEA 070303Z 0703/0806 VRB03KT P6SM -RA SCT015 OVC045
                      TEMPO 0704/0708 BKN015 OVC040 FM070800 VRB03KT
                       P6SM VCSH BKN015 OVC040 FM071200 VRB03KT
                       P6SM OVC011 FM072000 VRB03KT P6SM BKN020
                       OVC060 FM072200 VRB03KT P6SM SCT030 SCT060
                       BKN110=
201201062345 TAF KSEA 062345Z 0700/0806 19005KT P6SM -RA BKN022 OVC040 FM070300
                       14005KT P6SM OVC022
                      TEMPO 0703/0707 -RA FM071200 VRB03KT P6SM
                       OVC011 FM072000 VRB03KT P6SM BKN020 OVC060
                       FM072200 VRB03KT P6SM SCT030 SCT060 BKN110=
201201062258 KSEA 062258Z 0623/0724 19005KT P6SM -RA BKN022 OVC040 FM070200
                       15005KT P6SM BKN022 OVC050
                      TEMPO 0702/0706 -RA FM070600 11005KT P6SM
                       OVC022 FM071200 VRB03KT P6SM OVC011 FM072000
                       VRB03KT P6SM BKN020 OVC060 FM072200 VRB03KT
                       P6SM SCT030 BKN100=
201201062109 KSEA 062109Z 0621/0724 19005KT P6SM SCT022 SCT050 OVC110 FM062300
                       19005KT P6SM SCT022 BKN050 OVC110
                      TEMPO 0623/0702 -RA BKN022 OVC050 FM070200
                       15005KT P6SM BKN022 OVC050
                      TEMPO 0702/0706 -RA FM070600 11005KT P6SM
                       OVC022 FM071200 VRB03KT P6SM OVC011 FM072000
                       VRB03KT P6SM BKN020 OVC060 FM072200 VRB03KT
                       P6SM SCT030 BKN100=
201201061937 KSEA 061937Z 0620/0724 19005KT P6SM SCT010 SCT050 OVC110 FM062100
                       19005KT P6SM SCT022 BKN050 OVC110 FM062300
                       19005KT P6SM SCT022 BKN050 OVC110
                      TEMPO 0623/0702 -RA BKN022 OVC050 FM070200
                       15005KT P6SM BKN022 OVC050
                      TEMPO 0702/0706 -RA FM070600 11005KT P6SM
                       OVC022 FM071200 VRB03KT P6SM OVC011 FM072000
                       VRB03KT P6SM BKN020 OVC060 FM072200 VRB03KT
                       P6SM SCT030 BKN100=
201201061743 TAF KSEA 061743Z 0618/0724 19005KT P6SM SCT008 OVC020
                      TEMPO 0618/0620 -RA BKN008 OVC020 FM062100
                       19005KT P6SM BKN022 BKN050 OVC110 FM062300
                       19005KT P6SM SCT022 BKN050 OVC110
                      TEMPO 0623/0702 -RA BKN022 OVC050 FM070200
                       15005KT P6SM BKN022 OVC050
                      TEMPO 0702/0706 -RA FM070600 11005KT P6SM
                       OVC022 FM071200 VRB03KT P6SM OVC011 FM072000
                       VRB03KT P6SM BKN020 OVC060 FM072200 VRB03KT
                       P6SM SCT030 BKN100=
201201061402 KSEA 061402Z 0614/0718 16005KT P6SM BKN015 OVC030 FM061800 16005KT
                       P6SM SCT020 BKN150 FM062000 20006KT P6SM
                       SCT020 BKN100 OVC150 FM070100 18005KT P6SM
                       -RA BKN025 OVC060=
201201061137 TAF KSEA 061137Z 0612/0718 16005KT P6SM BKN015 OVC200 FM061800
                       16005KT P6SM SCT020 BKN150 FM062000 20006KT
                       P6SM SCT020 BKN100 OVC150 FM070100 18005KT
                       P6SM -RA BKN025 OVC060=
201201060908 KSEA 060908Z 0609/0712 19006KT P6SM BKN015 BKN200 FM061800 17005KT
                       P6SM SCT020 BKN150 FM062000 21006KT P6SM
                       BKN100 OVC150 FM070100 18005KT P6SM BKN030
                       OVC060=
201201060734 KSEA 060734Z 0608/0712 19007KT P6SM BKN020 BKN200
                      TEMPO 0608/0610 SCT020 BKN200 FM061200 17005KT
                       P6SM SCT020 BKN150
                      TEMPO 0612/0616 BKN020 BKN150 FM062000 21006KT
                       P6SM BKN100 OVC150 FM070100 18005KT P6SM
                       BKN030 OVC060=
201201060532 TAF KSEA 060532Z 0606/0712 19007KT P6SM FEW020 BKN200 FM061200
                       17005KT P6SM SCT020 BKN150
                      TEMPO 0612/0616 BKN020 BKN150 FM062000 21006KT
                       P6SM BKN100 OVC150 FM070100 18005KT P6SM
                       BKN030 OVC060=
201201060303 KSEA 060303Z 0603/0706 19008KT P6SM FEW025 BKN200 FM060700 18007KT
                       P6SM BKN045 FM062100 20005KT P6SM BKN090
                       OVC200 FM070100 18005KT P6SM OVC090=
201201052329 TAF KSEA 052329Z 0600/0706 20019G26KT P6SM VCSH SCT015 BKN035 FM060300
                       18009KT P6SM BKN045 FM062100 20005KT P6SM
                       BKN090 OVC200 FM070100 18005KT P6SM OVC090=
201201052114 KSEA 052114Z 0521/0624 21018G24KT P6SM VCSH SCT022 BKN035 BKN090
                       FM060000 22012KT P6SM BKN045 FM061200 18003KT
                       P6SM BKN090 BKN200 FM062100 20005KT P6SM
                       BKN060 OVC120=
201201051741 TAF KSEA 051741Z 0518/0624 20010G20KT P6SM VCSH SCT015 BKN022 FM052100
                       20013KT P6SM VCSH BKN025 FM060000 22012KT
                       P6SM BKN045 FM061200 18003KT P6SM BKN090
                       BKN200 FM062100 20005KT P6SM BKN060 OVC120=
201201051406 KSEA 051406Z 0514/0618 20012G22KT P6SM SCT022 BKN050
                      TEMPO 0514/0516 -SHRA BKN022 BKN050 FM051800
                       21010KT P6SM VCSH SCT025 BKN070
                      TEMPO 0520/0524 -SHRA BKN025 BKN070 FM060100
                       21008KT P6SM SCT025 BKN080=
201201051136 TAF KSEA 051136Z 0512/0618 21012G22KT P6SM SCT020 BKN050
                      TEMPO 0512/0516 -SHRA BKN020 BKN050 FM051800
                       21010KT P6SM VCSH SCT025 BKN070
                      TEMPO 0520/0524 -SHRA BKN025 BKN070 FM060100
                       21008KT P6SM SCT025 BKN080=
201201050904 KSEA 050904Z 0509/0612 21012G22KT P6SM SCT020 BKN040
                      TEMPO 0509/0513 BKN020 OVC050 FM051300 20012KT
                       P6SM BKN020 BKN040 FM051800 21010KT P6SM
                       SCT025 BKN070 FM052100 22008KT P6SM SCT025
                       BKN100=
201201050541 TAF KSEA 050541Z 0506/0612 21012G22KT P6SM SCT024 BKN050 OVC070
                       TEMPO 0507/0511 BKN024 OVC050 FM051100 20012KT
                       P6SM BKN022 BKN050 FM051800 21010KT P6SM
                       SCT025 BKN070 FM052100 22008KT P6SM SCT025
                       BKN100=
201201050304 KSEA 050304Z 0503/0606 18018G28KT P6SM SCT024 BKN050 OVC070
                      TEMPO 0503/0505 -RA BKN024 OVC050 FM050700
                       20014G22KT P6SM VCSH SCT025 BKN050 FM051400
                       21010KT P6SM VCSH BKN022 OVC045 FM052100
                       22008KT P6SM BKN045=
201201050101 KSEA 050101Z 0501/0606 17014G20KT P6SM -RA SCT024 BKN050 OVC070
                       TEMPO 0501/0503 5SM -RA BR BKN024 OVC050
                       FM050700 20011KT 4SM BR VCSH OVC025 FM051400
                       21007KT P6SM OVC015 FM052100 22008KT P6SM
                       BKN045=
201201042338 TAF KSEA 042338Z 0500/0606 21010G20KT 2SM -RA BR SCT008 OVC024
                       TEMPO 0500/0502 5SM -RA BR BKN008 OVC024
                       FM050700 20011KT 4SM BR VCSH OVC025 FM051400
                       21007KT P6SM OVC015 FM052100 22008KT P6SM
                       BKN045=
201201042100 KSEA 042100Z 0421/0524 15006KT 3SM RA BR OVC030 FM042300 19011G21KT
                       4SM -RA BR OVC025 FM050700 21011KT P6SM
                       VCSH OVC045 FM051400 21008KT P6SM BKN020=
201201041724 TAF KSEA 041724Z 0418/0524 23011G18KT P6SM -RA BKN035 OVC060 FM042300
                       19011G21KT 4SM -RA BR OVC025 FM050700 21011KT
                       P6SM VCSH OVC045 FM051400 21008KT P6SM BKN020=
201201041400 KSEA 041400Z 0414/0518 18007KT P6SM BKN060 FM041700 17010KT P6SM
                       -RA BKN050 OVC080 FM041900 18010G20KT 5SM
                       -RA BR OVC020 FM042300 21012G22KT P6SM -RA
                       OVC015 FM050300 21012G22KT P6SM -SHRA OVC012=
201201041138 TAF KSEA 041138Z 0412/0518 13006KT P6SM BKN080 FM041700 17010KT
                       P6SM -RA BKN050 OVC080 FM041900 18010KT
                       5SM -RA BR OVC020 FM042300 21012G22KT P6SM
                       -RA OVC015 FM050300 21012G22KT P6SM -SHRA
                       OVC012=
201201040921 KSEA 040921Z 0409/0512 13006KT P6SM OVC080 FM041800 19012KT P6SM
                       -RA BKN035 OVC060 FM042300 21012G22KT 4SM
                       -RA BR OVC015 FM050300 19012G22KT P6SM -SHRA
                       OVC015=
201201040522 TAF KSEA 040522Z 0406/0512 13006KT P6SM SCT050 OVC080 FM041800
                       19012KT P6SM -RA BKN035 OVC060 FM042300
                       21012G22KT 4SM -RA BR OVC015 FM050300 19012G22KT
                       P6SM -SHRA OVC015=
201201040304 KSEA 040304Z 0403/0506 00000KT P6SM SCT025 OVC050
                      TEMPO 0403/0407 -RA FM040700 18006KT P6SM
                       SCT050 OVC100 FM041800 19012KT P6SM -RA
                       BKN035 OVC060 FM042300 21012G22KT 4SM -RA
                       BR OVC015 FM050300 19012G22KT P6SM -SHRA
                       OVC015=
201201032330 TAF KSEA 032330Z 0400/0506 00000KT P6SM -RA SCT025 OVC060 FM040600
                       16007KT P6SM BKN040 OVC080 FM041800 19012KT
                       P6SM -RA BKN035 OVC060 FM042300 21012G22KT
                       4SM -RA BR OVC015 FM050300 19012G22KT P6SM
                       -SHRA OVC015=
201201032100 KSEA 032100Z 0321/0424 16005KT P6SM -RA FEW040 BKN090 OVC200 FM040600
                       16007KT P6SM OVC090 FM041900 19010G20KT
                       P6SM -RA BKN040 OVC070=
201201031731 TAF KSEA 031731Z 0318/0424 14007KT P6SM FEW035 BKN050 OVC180 FM032100
                       17008G14KT P6SM -RA BKN040 OVC080 FM040600
                       16007KT P6SM OVC090 FM041900 19010G20KT
                       P6SM -RA BKN040 OVC070=
201201031400 KSEA 031400Z 0314/0418 14007KT P6SM BKN040 OVC100 FM032000 17007KT
                       P6SM -RA OVC050 FM040400 17007KT P6SM BKN040
                       OVC120 FM040600 17007KT P6SM SCT040 BKN120=
201201031139 TAF KSEA 031139Z 0312/0418 19007KT P6SM BKN040 OVC100 FM032000
                       17007KT P6SM -RA OVC050 FM040400 17007KT
                       P6SM BKN040 OVC120 FM040600 17007KT P6SM
                       SCT040 BKN120=
201201030930 KSEA 030930Z 0310/0412 19008KT P6SM BKN050 FM031200 16008KT P6SM
                       SCT020 OVC050 FM031800 16007KT P6SM -RA
                       SCT020 OVC040=
201201030531 TAF KSEA 030531Z 0306/0412 19012KT P6SM SCT030 OVC050 FM031200
                       16008KT P6SM SCT020 OVC050
                      TEMPO 0314/0318 BKN020 OVC050 FM031800 16007KT
                       P6SM -RA SCT020 OVC040=
201201030314 KSEA 030314Z 0303/0406 21018G28KT P6SM -RA BKN015 OVC025
                      TEMPO 0303/0306 4SM RA BR BKN010 OVC015 FM030600
                       21014G26KT P6SM -RA BKN015 OVC025 FM030800
                       17007G17KT P6SM -SHRA SCT020 OVC050 FM031700
                       19007KT P6SM VCSH OVC045=
201201030219 KSEA 030219Z 0302/0406 19018G32KT P6SM -RA BKN022 OVC028
                      TEMPO 0302/0303 5SM RA BR OVC020 FM030300
                       18016G26KT P6SM -RA OVC025 FM030500 17007G17KT
                       P6SM -SHRA OVC050 FM031700 19007KT P6SM
                       VCSH OVC045=
201201022335 TAF KSEA 022335Z 0300/0406 15008KT P6SM -RA BKN050 OVC080 FM030300
                       18013G20KT P6SM -RA OVC025 FM030600 17007G17KT
                       P6SM -SHRA OVC050 FM031700 19007KT P6SM
                       VCSH OVC045=
201201022105 TAF AMD KSEA 022105Z 0221/0324 13008KT P6SM BKN070 BKN100 OVC200
                       TEMPO 0221/0223 -RA BKN045 OVC070 FM022300
                       16008KT P6SM -RA OVC045 FM030100 19012KT
                       P6SM -RA OVC022 FM030400 21008KT P6SM VCSH
                       SCT015 BKN025 BKN040 FM031200 14006KT P6SM
                       SCT040 BKN080=
201201021735 TAF KSEA 021735Z 0218/0324 00000KT P6SM SCT140 OVC200 FM022000
                       14008KT P6SM OVC070 FM022200 16008KT P6SM
                       -RA OVC045 FM030000 19012KT P6SM -RA OVC022
                       FM030400 21008KT P6SM VCSH SCT015 BKN025
                       BKN040 FM031200 14006KT P6SM SCT040 BKN080=
201201021400 KSEA 021400Z 0214/0318 16006KT P6SM BKN200 FM021600 14008KT P6SM
                       BKN100 OVC200 FM022000 14008KT P6SM OVC070
                       FM022200 16008KT P6SM -RA OVC045 FM030000
                       19012KT P6SM -RA OVC022 FM030400 21008KT
                       P6SM VCSH SCT015 BKN025 BKN040 FM031200
                       14006KT P6SM SCT040 BKN080=
201201021140 TAF KSEA 021140Z 0212/0318 14008KT P6SM BKN200 FM021600 14008KT
                       P6SM BKN100 OVC200 FM022000 14008KT P6SM
                       OVC070 FM022200 16008KT P6SM -RA OVC045
                       FM030000 19012KT P6SM -RA OVC022 FM030400
                       21008KT P6SM VCSH SCT015 BKN025 BKN040 FM031200
                       14006KT P6SM SCT040 BKN080=
201201020909 KSEA 020909Z 0209/0312 11012KT P6SM BKN200 FM021400 15010KT P6SM
                       BKN100 OVC200 FM021900 15010KT P6SM OVC070
                       FM022200 16008KT P6SM -RA OVC045 FM030100
                       19012KT P6SM -RA OVC022 FM030400 21008KT
                       P6SM VCSH SCT015 BKN025 BKN040=
201201020541 TAF KSEA 020541Z 0206/0312 11012KT P6SM BKN200 FM021400 15010KT
                       P6SM BKN100 OVC200 FM021900 15010KT P6SM
                       OVC070 FM022200 16008KT P6SM -RA OVC045
                       FM030100 19012KT P6SM -RA OVC022 FM030400
                       21008KT P6SM VCSH SCT015 BKN025 BKN040=
201201020311 KSEA 020311Z 0203/0306 11012G18KT P6SM BKN200 FM021400 15010KT
                       P6SM SCT045 BKN080 OVC130 FM021800 16008KT
                       P6SM -RA OVC045 FM022200 19012KT P6SM -RA
                       OVC025 FM030300 21008KT P6SM VCSH BKN023
                       OVC050=
201201012335 TAF KSEA 012335Z 0200/0306 11012G18KT P6SM SCT060 SCT160 BKN210
                       FM021400 15010KT P6SM SCT045 BKN080 OVC130
                       FM021800 16008KT P6SM -RA OVC045 FM022200
                       19012KT P6SM -RA OVC025 FM030300 21008KT
                       P6SM VCSH BKN023 OVC050=
201201012105 KSEA 012105Z 0121/0224 09005KT P6SM FEW050 SCT160 BKN220
                      TEMPO 0121/0122 BKN060 OVC200 FM012300 07009KT
                       P6SM BKN250 FM021800 16008KT P6SM -RA OVC050
                       FM022200 20012KT P6SM -RA OVC025=
201201011730 TAF KSEA 011730Z 0118/0224 10011G17KT P6SM SCT060 BKN200
                      TEMPO 0118/0122 BKN060 OVC200 FM012300 07009KT
                       P6SM BKN250 FM021800 16008KT P6SM -RA OVC050
                       FM022200 20012KT P6SM -RA OVC025=
201201011404 KSEA 011404Z 0114/0218 09010KT P6SM OVC060 FM011900 04005KT P6SM
                       SCT050 BKN080 OVC120 FM012300 08009KT P6SM
                       BKN200 FM021500 17008KT P6SM SCT040 OVC080
                       PROB30 0215/0218 -RA=
201201011147 TAF KSEA 011147Z 0112/0218 08007KT P6SM BKN050 OVC070 FM011900
                       04005KT P6SM SCT050 BKN080 OVC120 FM012300
                       08009KT P6SM BKN200 FM021500 17008KT P6SM
                       SCT040 OVC080
                      PROB30 0215/0218 -RA=
201201010901 KSEA 010901Z 0109/0212 12007KT P6SM -RA OVC050 FM011200 06004KT
                       P6SM -RA OVC035 FM011800 04005KT P6SM SCT035
                       BKN070 OVC120 FM020000 VRB04KT P6SM BKN100=
201201010529 TAF KSEA 010529Z 0106/0212 07006KT P6SM SCT080 OVC200 FM010800
                       06005KT P6SM -RA BKN040 OVC060 FM011200
                       06004KT P6SM -RA OVC035 FM011800 04005KT
                       P6SM SCT035 BKN070 OVC120 FM020000 VRB04KT
                       P6SM BKN100=
201201010307 TAF AMD KSEA 010307Z 0103/0206 03008KT P6SM BKN200 FM010800 06005KT
                       P6SM -RA BKN035 OVC060 FM011200 06004KT
                       P6SM -RA OVC035 FM011800 04005KT P6SM SCT035
                       BKN070 OVC120=