##########################################################
# Query made at 02/17/2025 18:36:06 UTC
# Time interval: from 10/01/2012 00:00  to 10/31/2012 23:59  UTC
##########################################################

##########################################################
# KSEA, Seattle, Seattle-Tacoma International Airport (United States)
# WMO index: 72793. WIGOS ID: 0-20000-0-72793
# Latitude 47-27-00N. Longitude 122-17-59W. Altitude 130 m.
##########################################################

###################################
#  METAR/SPECI from KSEA
###################################
201210312353 METAR KSEA 312353Z 17010KT 10SM -RA BKN065 BKN080 OVC090 14/11 A2969 RMK AO2 SLP058 P0000 60006 T01440106 10156 20144 53016=
201210312253 METAR KSEA 312253Z 19008KT 10SM -RA FEW045 BKN065 OVC090 15/12 A2967 RMK AO2 SLP053 P0002 T01500122=
201210312153 METAR KSEA 312153Z 19007KT 9SM -RA FEW039 BKN055 OVC075 15/12 A2965 RMK AO2 SLP045 P0001 T01500122=
201210312053 METAR KSEA 312053Z 19009KT 10SM -RA FEW050 SCT055 OVC070 15/12 A2964 RMK AO2 SLP041 P0001 60003 T01500122 55003=
201210311953 METAR KSEA 311953Z 15003KT 10SM -RA BKN050 OVC075 15/12 A2963 RMK AO2 SLP039 P0002 T01500122=
201210311853 METAR KSEA 311853Z 13004KT 10SM -RA BKN070 OVC085 16/12 A2964 RMK AO2 SLP042 P0000 T01560122=
201210311753 METAR KSEA 311753Z VRB03KT 10SM -RA BKN070 OVC085 14/12 A2965 RMK AO2 SLP044 P0003 60014 T01440122 10144 20133 58005=
201210311653 METAR KSEA 311653Z 10007KT 10SM -RA FEW012 BKN065 OVC080 14/12 A2966 RMK AO2 SLP050 P0003 T01390117=
201210311553 METAR KSEA 311553Z 12005KT 10SM -RA FEW011 BKN065 OVC080 14/12 A2966 RMK AO2 SLP047 P0001 T01390117=
201210311453 METAR KSEA 311453Z 10006KT 10SM -RA BKN075 OVC090 14/12 A2966 RMK AO2 SLP049 P0001 60007 T01390117 56017=
201210311353 METAR KSEA 311353Z 10006KT 10SM -RA FEW011 OVC070 14/12 A2967 RMK AO2 SLP054 P0001 T01390122=
201210311336 SPECI KSEA 311336Z 10003KT 10SM -RA FEW006 SCT011 OVC080 14/12 A2968 RMK AO2 P0001=
201210311253 METAR KSEA 311253Z 00000KT 10SM -RA FEW006 BKN011 OVC070 14/12 A2970 RMK AO2 SLP061 P0005 T01390122=
201210311206 SPECI KSEA 311206Z 11007KT 6SM RA BR FEW006 BKN013 OVC040 14/12 A2971 RMK AO2 P0002=
201210311153 METAR KSEA 311153Z 12005KT 8SM -RA FEW010 BKN016 OVC040 14/13 A2971 RMK AO2 SLP067 P0010 60043 70149 T01390128 10144 20133 57014=
201210311143 SPECI KSEA 311143Z 13003KT 7SM -RA SCT006 BKN016 OVC040 14/12 A2971 RMK AO2 P0009=
201210311124 SPECI KSEA 311124Z 16003KT 4SM RA BR SCT003 BKN010 OVC020 14/13 A2971 RMK AO2 P0006=
201210311102 SPECI KSEA 311102Z 12005KT 5SM RA BR BKN003 BKN009 OVC038 14/12 A2972 RMK AO2 P0000=
201210311053 METAR KSEA 311053Z 10003KT 7SM -RA SCT003 BKN007 OVC030 14/12 A2972 RMK AO2 SLP071 P0005 T01390122=
201210311039 SPECI KSEA 311039Z 00000KT 6SM -RA BR FEW003 BKN009 OVC030 14/13 A2972 RMK AO2 P0004=
201210310953 METAR KSEA 310953Z 18004KT 4SM -RA BR SCT003 BKN010 OVC015 14/12 A2974 RMK AO2 SLP077 P0005 T01390122=
201210310938 SPECI KSEA 310938Z 19005KT 5SM -RA BR SCT005 OVC016 14/13 A2975 RMK AO2 P0004=
201210310853 METAR KSEA 310853Z 21008KT 4SM RA BR BKN005 BKN009 OVC014 14/13 A2975 RMK AO2 SLP080 P0013 60023 T01390128 56006=
201210310829 SPECI KSEA 310829Z 22004KT 3SM RA BR BKN007 BKN016 OVC032 14/13 A2976 RMK AO2 P0005=
201210310818 SPECI KSEA 310818Z 21004KT 4SM RA BR SCT007 OVC032 14/13 A2976 RMK AO2 P0003=
201210310753 METAR KSEA 310753Z 00000KT 10SM -RA OVC038 14/13 A2976 RMK AO2 SLP082 P0004 T01390128 401500122=
201210310653 METAR KSEA 310653Z 16005KT 9SM -RA OVC040 14/13 A2977=
201210310553 METAR KSEA 310553Z 13006KT 6SM RA BR BKN034 OVC047 14/13 A2977 RMK AO2 SLP087 P0005 60036 T01440128 10150 20139 53002=
201210310453 METAR KSEA 310453Z 17006KT 10SM -RA OVC035 15/13 A2977 RMK AO2 SLP084 P0006 T01500128=
201210310353 METAR KSEA 310353Z 16009KT 10SM -RA SCT034 BKN070 OVC090 15/13 A2976 RMK AO2 SLP085 P0004 T01500128=
201210310253 METAR KSEA 310253Z 15008KT 10SM -RA FEW034 SCT070 OVC090 14/13 A2977 RMK AO2 SLP086 P0004 60021 T01440128 56007=
201210310153 METAR KSEA 310153Z 15011KT 9SM -RA FEW029 SCT055 OVC080 14/13 A2977 RMK AO2 SLP088 P0010 T01440128=
201210310053 METAR KSEA 310053Z 14010KT 9SM -RA FEW009 OVC085 14/13 A2977 RMK AO2 SLP089 P0007 T01440128=
201210310040 SPECI KSEA 310040Z COR 14007KT 7SM -RA FEW009 SCT028 OVC080 14/13 A2978 RMK AO2 P0006=
201210310011 SPECI KSEA 310011Z 22005KT 5SM -RA BR SCT005 BKN024 OVC028 14/13 A2979 RMK AO2 P0003=
201210302353 METAR KSEA 302353Z 15005KT 5SM -RA BR BKN028 OVC050 14/12 A2979 RMK AO2 SLP093 P0008 60047 T01390122 10150 20139 58013=
201210302317 SPECI KSEA 302317Z 12006KT 4SM RA BR SCT022 BKN042 OVC055 14/12 A2979 RMK AO2 P0004=
201210302253 METAR KSEA 302253Z 11009KT 4SM RA BR FEW005 BKN022 OVC032 14/12 A2980 RMK AO2 SLP097 P0014 T01390122=
201210302208 SPECI KSEA 302208Z 12006KT 3SM -RA BR SCT007 BKN016 OVC034 14/12 A2981 RMK AO2 P0008=
201210302200 SPECI KSEA 302200Z 13004KT 2SM +RA BR BKN007 BKN016 OVC034 14/13 A2982 RMK AO2 P0005=
201210302153 METAR KSEA 302153Z 24004KT 3SM RA BR BKN007 BKN026 OVC034 14/13 A2983 RMK AO2 SLP106 P0014 T01440128=
201210302143 SPECI KSEA 302143Z 16006KT 2 1/2SM +RA BR BKN007 BKN026 OVC045 14/13 A2981 RMK AO2 P0011=
201210302125 SPECI KSEA 302125Z 16007KT 3SM RA BR FEW007 BKN015 OVC045 15/13 A2982 RMK AO2 P0006=
201210302116 SPECI KSEA 302116Z 14007KT 2 1/2SM RA BR SCT007 BKN018 OVC050 15/13 A2982 RMK AO2 P0005=
201210302112 SPECI KSEA 302112Z 13006KT 2 1/2SM RA BR FEW005 BKN012 OVC050 15/13 A2982 RMK AO2 P0004=
201210302101 SPECI KSEA 302101Z 13006KT 4SM RA BR FEW005 BKN013 OVC055 15/13 A2983 RMK AO2 P0001=
201210302053 METAR KSEA 302053Z 12005KT 6SM -RA BR FEW005 SCT014 OVC060 15/13 A2983 RMK AO2 SLP107 P0006 60011 T01500133 58013=
201210302043 SPECI KSEA 302043Z 11006KT 6SM -RA BR FEW005 SCT013 OVC060 15/13 A2983 RMK AO2 P0005=
201210301953 METAR KSEA 301953Z 13005KT 6SM -RA BR SCT004 BKN013 OVC065 15/13 A2985 RMK AO2 SLP115 P0002 T01500128=
201210301945 SPECI KSEA 301945Z 14004KT 6SM -RA BR SCT003 BKN022 OVC085 15/13 A2985 RMK AO2 P0002=
201210301924 SPECI KSEA 301924Z 16004KT 6SM -RA BR FEW007 SCT022 OVC085 15/13 A2986 RMK AO2 P0001=
201210301853 METAR KSEA 301853Z 17005KT 6SM -RA BR SCT015 OVC080 14/13 A2987 RMK AO2 SLP119 P0003 T01440133=
201210301837 SPECI KSEA 301837Z 17006KT 6SM -RA BR SCT022 OVC080 14/13 A2987 RMK AO2 P0002=
201210301753 METAR KSEA 301753Z 16005KT 6SM -RA BR SCT007 BKN022 OVC037 14/12 A2987=
201210301653 METAR KSEA 301653Z 14006KT 5SM -RA BR BKN007 OVC018 13/12 A2987 RMK AO2 RAB18 SLP121 P0001 T01330117=
201210301553 METAR KSEA 301553Z 13007KT 4SM BR FEW004 OVC007 13/11 A2987 RMK AO2 RAE45 SLP121 P0000 T01280111=
201210301453 METAR KSEA 301453Z 11004KT 2 1/2SM -RA BR FEW006 OVC009 13/11 A2986 RMK AO2 SLP118 P0006 60022 T01280111 56007=
201210301443 SPECI KSEA 301443Z 10004KT 2 1/2SM -RA BR FEW005 OVC009 12/11 A2986 RMK AO2 P0006=
201210301423 SPECI KSEA 301423Z 09003KT 2 1/2SM -RA BR FEW005 OVC011 12/11 A2987 RMK AO2 P0004=
201210301353 METAR KSEA 301353Z 05003KT 2 1/2SM -RA BR BKN003 OVC011 12/11 A2987 RMK AO2 SLP121 P0013 T01220111=
201210301344 SPECI KSEA 301344Z 04003KT 2 1/2SM -RA BR BKN003 OVC011 12/11 A2987 RMK AO2 P0011=
201210301321 SPECI KSEA 301321Z 00000KT 2 1/2SM RA BR FEW003 SCT014 OVC020 12/11 A2987 RMK AO2 P0007=
201210301253 METAR KSEA 301253Z 08004KT 4SM -RA BR SCT014 BKN020 OVC026 12/11 A2987 RMK AO2 SLP120 P0003 T01220106=
201210301223 SPECI KSEA 301223Z 09004KT 9SM -RA SCT008 BKN025 OVC035 13/11 A2987 RMK AO2 P0001=
201210301153 METAR KSEA 301153Z 07003KT 10SM -RA FEW005 OVC035 12/11 A2988 RMK AO2 SLP125 P0010 60020 70028 T01220111 10128 20117 58023=
201210301053 METAR KSEA 301053Z 00000KT 6SM -RA BR BKN041 OVC050 12/11 A2990 RMK AO2 SLP133 P0002 T01220111=
201210300953 METAR KSEA 300953Z 12003KT 8SM -RA FEW022 SCT032 OVC070 12/11 A2993 RMK AO2 SLP142 P0003 T01220111=
201210300853 METAR KSEA 300853Z 13008KT 9SM -RA FEW032 BKN060 OVC070 13/11 A2995 RMK AO2 RAB0755 SLP149 P0005 60005 T01280111 56015=
201210300753 METAR KSEA 300753Z 13004KT 10SM FEW013 BKN050 OVC060 13/11 A2997 RMK AO2 SLP153 T01280111 401560100=
201210300653 METAR KSEA 300653Z 00000KT 10SM FEW011 SCT037 BKN065 12/11 A2998 RMK AO2 SLP158 T01220106=
201210300553 METAR KSEA 300553Z 16005KT 10SM FEW018 BKN031 BKN085 12/11 A3000 RMK AO2 SLP164 60004 T01220111 10133 20117 55007=
201210300453 METAR KSEA 300453Z 14005KT 10SM FEW026 SCT065 BKN090 12/11 A3000 RMK AO2 SLP164 T01220106=
201210300353 METAR KSEA 300353Z 15006KT 10SM SCT028 BKN038 BKN090 13/11 A3001 RMK AO2 SLP167 T01280111=
201210300253 METAR KSEA 300253Z 17003KT 10SM FEW028 SCT055 BKN085 12/11 A3002 RMK AO2 RAB10E41 SLP172 P0004 60004 T01220106 58003=
201210300232 SPECI KSEA 300232Z 21003KT 7SM -RA BKN027 BKN040 OVC070 13/11 A3003 RMK AO2 RAB10 P0004=
201210300153 METAR KSEA 300153Z 23006KT 10SM FEW016 SCT035 OVC095 13/11 A3003 RMK AO2 RAE0058 SLP174 P0000 T01280111=
201210300053 METAR KSEA 300053Z 21003KT 9SM -RA SCT015 BKN045 BKN120 BKN200 13/11 A3002 RMK AO2 RAB20 SLP172 P0000 T01280111=
201210292353 METAR KSEA 292353Z 20007KT 10SM SCT025 SCT060 BKN110 BKN200 13/11 A3003 RMK AO2 SLP173 60001 T01330111 10156 20133 51014=
201210292253 METAR KSEA 292253Z 21010KT 10SM FEW025 SCT065 BKN080 BKN200 14/11 A3002 RMK AO2 RAE10 SLP172 P0001 T01390111=
201210292153 METAR KSEA 292153Z 24008KT 8SM -RA SCT042 BKN080 BKN095 14/11 A3001 RMK AO2 RAB46 SLP167 P0000 T01440111=
201210292053 METAR KSEA 292053Z 21013KT 10SM FEW035 BKN095 15/11 A2999 RMK AO2 SLP160 60000 T01500106 51019=
201210291953 METAR KSEA 291953Z 21012KT 10SM SCT026 BKN035 14/11 A2999 RMK AO2 RAB06E16 SLP160 P0000 T01440111=
201210291938 SPECI KSEA 291938Z 23011G16KT 10SM SCT026 BKN033 14/11 A2998 RMK AO2 RAB06E16 P0000=
201210291853 METAR KSEA 291853Z 21013G23KT 10SM FEW017 BKN028 BKN100 14/11 A2996 RMK AO2 RAB35E44 SLP153 P0000 T01440111=
201210291753 METAR KSEA 291753Z 21012G20KT 10SM FEW017 BKN027 BKN036 15/12 A2993 RMK AO2 PK WND 22026/1723 RAE32 SLP141 P0000 60003 T01500117 10156 20144 51040=
201210291653 METAR KSEA 291653Z 21017G23KT 10SM -RA FEW016 BKN023 OVC030 14/12 A2990 RMK AO2 PK WND 20029/1607 SLP131 P0001 T01440117=
201210291611 SPECI KSEA 291611Z 21019G29KT 8SM -RA BKN016 OVC035 15/12 A2987 RMK AO2 PK WND 20029/1607 P0000=
201210291553 METAR KSEA 291553Z 21017G26KT 6SM -RA BKN014 OVC022 15/12 A2985 RMK AO2 PK WND 21033/1537 RAB1454E16B33 SLP115 P0000 T01500122=
201210291453 METAR KSEA 291453Z 21013G20KT 10SM OVC014 15/13 A2981 RMK AO2 RAE33 SLP101 P0000 60002 T01500128 53021=
201210291353 METAR KSEA 291353Z 19018G25KT 6SM -RA BR BKN013 OVC022 15/13 A2977 RMK AO2 RAE17B34 SLP087 P0002 T01500128=
201210291347 SPECI KSEA 291347Z 19013KT 10SM BKN013 OVC025 15/13 A2977 RMK AO2 RAE17B34E43 P0002=
201210291253 METAR KSEA 291253Z 19013KT 7SM -RA FEW010 BKN020 OVC025 16/13 A2976 RMK AO2 RAB1157E10B36 SLP081 P0000 T01560128=
201210291153 METAR KSEA 291153Z 19012G21KT 10SM FEW005 SCT015 BKN020 15/13 A2975 RMK AO2 SLP079 60041 70059 T01500128 10150 20100 51001=
201210291053 METAR KSEA 291053Z 18011KT 10SM SCT005 BKN010 OVC015 14/13 A2975 RMK AO2 RAE45 SLP079 P0003 T01390128=
201210291036 SPECI KSEA 291036Z 18006KT 4SM -RA BR BKN010 BKN015 OVC030 13/12 A2975 RMK AO2 P0003=
201210291025 SPECI KSEA 291025Z 18009KT 4SM -RA BR SCT010 BKN020 OVC035 13/12 A2975 RMK AO2 P0003=
201210290953 METAR KSEA 290953Z 19010KT 10SM -RA SCT003 SCT020 BKN040 12/12 A2975 RMK AO2 SLP081 P0006 T01220117=
201210290853 METAR KSEA 290853Z 13010KT 5SM RA BR FEW003 SCT015 BKN045 11/09 A2975 RMK AO2 SLP079 P0026 60032 T01060094 56019=
201210290829 SPECI KSEA 290829Z 15005KT 1SM +RA BR SCT003 BKN010 BKN040 10/09 A2976 RMK AO2 SFC VIS 4 P0016=
201210290753 METAR KSEA 290753Z 00000KT 1SM -RA BR BKN004 OVC010 10/09 A2977 RMK AO2 SFC VIS 4 SLP087 P0002 T01000094 401440100=
201210290742 SPECI KSEA 290742Z 00000KT 1SM -RA BR BKN004 OVC010 10/09 A2977 RMK AO2 SFC VIS 4 P0001=
201210290729 SPECI KSEA 290729Z 00000KT 1SM -RA BR SCT004 BKN009 OVC015 10/09 A2977 RMK AO2 SFC VIS 3 P0001=
201210290722 SPECI KSEA 290722Z 15003KT 3SM -RA BR SCT004 BKN010 OVC018 10/09 A2977 RMK AO2 P0001=
201210290653 METAR KSEA 290653Z 12003KT 6SM -RA BR BKN004 BKN010 OVC020 10/09 A2977 RMK AO2 SLP087 P0004 T01000089=
201210290553 METAR KSEA 290553Z 00000KT 8SM -RA FEW006 BKN010 OVC020 10/09 A2980 RMK AO2 SLP097 P0001 60018 T01000089 10133 20100 56017=
201210290525 SPECI KSEA 290525Z 00000KT 7SM -RA BKN012 OVC025 11/08 A2980 RMK AO2 P0000=
201210290511 SPECI KSEA 290511Z 00000KT 6SM -RA BR FEW012 BKN025 OVC030 11/08 A2980 RMK AO2 P0000=
201210290453 METAR KSEA 290453Z 00000KT 7SM -RA OVC035 11/08 A2980 RMK AO2 SLP098 P0006 T01060083=
201210290353 METAR KSEA 290353Z 32005KT 5SM -RA BR OVC037 11/08 A2983 RMK AO2 SLP109 P0005 T01060083=
201210290253 METAR KSEA 290253Z 00000KT 10SM -RA SCT050 BKN070 OVC080 12/08 A2985 RMK AO2 SLP115 P0004 60006 T01220078 58015=
201210290153 METAR KSEA 290153Z 20005KT 9SM -RA SCT055 OVC070 13/11 A2988 RMK AO2 SLP124 P0002 T01280106=
201210290121 SPECI KSEA 290121Z 20003KT 10SM -RA SCT009 BKN065 OVC095 13/11 A2988 RMK AO2 P0000=
201210290053 METAR KSEA 290053Z 00000KT 10SM -RA FEW030 OVC070 13/11 A2988 RMK AO2 RAB24 SLP125 P0000 T01280111=
201210282353 METAR KSEA 282353Z 21003KT 10SM FEW065 BKN090 OVC120 13/11 A2990 RMK AO2 SLP130 60000 T01330106 10144 20122 58012=
201210282253 METAR KSEA 282253Z 25003KT 10SM SCT030 BKN095 14/11 A2991 RMK AO2 SLP136 T01390106=
201210282153 METAR KSEA 282153Z 21007KT 10SM FEW014 BKN190 14/10 A2992 RMK AO2 SLP137 T01390100=
201210282125 SPECI KSEA 282125Z 22008KT 10SM SCT014 BKN190 14/11 A2992 RMK AO2=
201210282053 METAR KSEA 282053Z 21010KT 10SM BKN012 BKN019 BKN190 14/10 A2993 RMK AO2 SLP142 60000 T01440100 58005=
201210281953 METAR KSEA 281953Z 22009KT 10SM SCT014 BKN019 BKN190 13/09 A2994 RMK AO2 SLP146 T01330094=
201210281853 METAR KSEA 281853Z 21007KT 10SM BKN019 BKN120 OVC200 13/11 A2995 RMK AO2 RAB11E19 SLP147 P0000 T01330106=
201210281753 METAR KSEA 281753Z 21011KT 10SM FEW014 SCT020 BKN120 OVC200 12/10 A2995 RMK AO2 SLP147 T01220100 10128 20117 51007=
201210281653 METAR KSEA 281653Z 21010KT 10SM SCT014 SCT024 BKN120 12/10 A2995 RMK AO2 SLP147 T01220100=
201210281553 METAR KSEA 281553Z 21012KT 10SM FEW005 SCT014 BKN110 12/10 A2993 RMK AO2 SLP142 T01170100=
201210281453 METAR KSEA 281453Z 21010KT 10SM SCT005 SCT020 BKN100 12/10 A2993 RMK AO2 SLP140 T01170100 53001=
201210281353 METAR KSEA 281353Z 20011KT 10SM FEW014 SCT040 BKN100 12/10 A2992 RMK AO2 SLP138 T01170100=
201210281253 METAR KSEA 281253Z 19011KT 10SM FEW004 SCT035 BKN090 12/11 A2992 RMK AO2 SLP138 T01220106=
201210281153 METAR KSEA 281153Z 18013KT 10SM SCT005 SCT015 BKN035 12/11 A2992 RMK AO2 SLP139 60004 70091 T01220106 10144 20122 51022=
201210281053 METAR KSEA 281053Z 22013KT 10SM FEW006 SCT012 BKN035 13/11 A2991 RMK AO2 RAB05E17 SLP134 P0000 T01280111=
201210281035 SPECI KSEA 281035Z 21014G22KT 10SM FEW006 SCT012 BKN035 13/12 A2991 RMK AO2 RAB05E17 P0000=
201210281023 SPECI KSEA 281023Z 21015KT 10SM SCT006 BKN012 BKN065 13/12 A2990 RMK AO2 RAB05E17 P0000=
201210281007 SPECI KSEA 281007Z 21014G22KT 10SM -RA SCT004 BKN008 BKN015 13/12 A2989 RMK AO2 RAB05 P0000=
201210280953 METAR KSEA 280953Z 21014KT 10SM SCT004 BKN010 OVC130 13/12 A2989 RMK AO2 PK WND 21027/0903 SLP127 T01330122=
201210280853 METAR KSEA 280853Z 21018G24KT 10SM SCT006 BKN010 OVC130 13/12 A2986 RMK AO2 SLP117 60004 T01330117 53017=
201210280850 SPECI KSEA 280850Z 21018G24KT 10SM SCT006 BKN010 OVC130 13/12 A2986 RMK AO2=
201210280753 METAR KSEA 280753Z 20014G23KT 10SM BKN004 OVC010 14/13 A2984 RMK AO2 RAE37 SLP111 P0001 T01390128 401440094=
201210280711 SPECI KSEA 280711Z 19015KT 6SM -RA BR BKN004 OVC010 14/13 A2983 RMK AO2 P0001=
201210280653 METAR KSEA 280653Z 19015KT 9SM -RA BKN006 OVC010 14/13 A2983 RMK AO2 SLP106 P0003 T01440128=
201210280553 METAR KSEA 280553Z 19014KT 4SM -RA BR BKN006 OVC009 14/13 A2981 RMK AO2 SLP100 P0002 60027 T01390128 10139 20094 53010=
201210280518 SPECI KSEA 280518Z 18012KT 3SM -RA BR BKN006 OVC009 14/12 A2980 RMK AO2 P0001=
201210280453 METAR KSEA 280453Z 18013KT 2SM -RA BR OVC006 13/12 A2979 RMK AO2 SLP095 P0002 T01330122=
201210280353 METAR KSEA 280353Z 18014KT 2SM -RA BR BKN006 OVC010 12/11 A2977 RMK AO2 SFC VIS 4 SLP088 P0002 T01220111=
201210280319 SPECI KSEA 280319Z 18010KT 2SM -RA BR BKN006 OVC012 12/11 A2978 RMK AO2 SFC VIS 5 P0001=
201210280253 METAR KSEA 280253Z 16010KT 2SM -RA BR FEW007 BKN014 OVC019 11/10 A2978 RMK AO2 SFC VIS 4 SLP091 P0009 60021 T01110100 56008=
201210280236 SPECI KSEA 280236Z 16009KT 1 1/2SM RA BR SCT004 BKN010 OVC028 11/10 A2977 RMK AO2 SFC VIS 3 P0007=
201210280212 SPECI KSEA 280212Z 16007KT 1 1/2SM RA BR OVC004 11/09 A2978 RMK AO2 SFC VIS 3 P0003=
201210280153 METAR KSEA 280153Z 16011KT 1/2SM -RA BR BKN004 BKN014 OVC020 11/09 A2978=
201210280148 SPECI KSEA 280148Z 16010KT 1/2SM -RA BR BKN004 BKN007 OVC015 10/09 A2978 RMK AO2 SFC VIS 4 P0003=
201210280139 SPECI KSEA 280139Z 16009KT 1/2SM BR SCT004 BKN016 OVC080 10/09 A2978 RMK AO2 SFC VIS 4 RAE38 P0002=
201210280130 SPECI KSEA 280130Z 15009KT 1/2SM -RA BR SCT004 BKN043 OVC095 10/08 A2977 RMK AO2 SFC VIS 5 P0002=
201210280121 SPECI KSEA 280121Z 15010KT 1 1/2SM -RA BR FEW007 BKN043 OVC100 10/08 A2977 RMK AO2 SFC VIS 6 P0002=
201210280110 SPECI KSEA 280110Z 15007KT 8SM -RA FEW023 SCT038 OVC095 10/08 A2979 RMK AO2 P0002=
201210280053 METAR KSEA 280053Z 15008KT 4SM RA BR BKN017 BKN026 OVC070 10/08 A2980 RMK AO2 SLP099 P0009 T01000083=
201210280024 SPECI KSEA 280024Z 13007KT 1 1/4SM -RA BR BKN011 OVC016 10/08 A2982 RMK AO2 SFC VIS 5 P0005=
201210280008 SPECI KSEA 280008Z 12009KT 1 1/4SM RA BR FEW009 BKN016 OVC060 10/08 A2982 RMK AO2 SFC VIS 4 P0003=
201210280004 SPECI KSEA 280004Z 12009KT 1 1/4SM RA BR FEW011 BKN016 OVC060 10/08 A2982 RMK AO2 SFC VIS 4 PRESFR P0002=
201210272353 METAR KSEA 272353Z 12008KT 3SM -RA BR SCT011 BKN018 OVC055 10/08 A2983 RMK AO2 RAB04 SLP109 P0006 60009 T01000083 10100 20094 56030=
201210272318 SPECI KSEA 272318Z 10004KT 4SM -RA BR OVC013 10/08 A2986 RMK AO2 RAB04 P0000=
201210272253 METAR KSEA 272253Z 12008KT 6SM BR OVC016 10/08 A2986 RMK AO2 SLP116 T01000083=
201210272245 SPECI KSEA 272245Z 13007KT 7SM SCT012 OVC018 10/08 A2986 RMK AO2=
201210272225 SPECI KSEA 272225Z 12008KT 8SM BKN013 OVC020 10/08 A2987 RMK AO2=
201210272153 METAR KSEA 272153Z 13007KT 10SM FEW007 BKN017 OVC030 10/08 A2988 RMK AO2 SLP125 T01000078=
201210272142 SPECI KSEA 272142Z 11007KT 10SM BKN019 BKN026 OVC031 10/08 A2989 RMK AO2=
201210272109 SPECI KSEA 272109Z 10009KT 8SM SCT023 BKN031 OVC040 10/07 A2991 RMK AO2=
201210272053 METAR KSEA 272053Z 11008KT 4SM BR SCT007 BKN025 OVC035 10/08 A2992 RMK AO2 SLP140 60003 T01000078 58023=
201210272039 SPECI KSEA 272039Z 11008KT 3SM BR SCT007 BKN025 OVC035 10/08 A2993 RMK AO2=
201210272011 SPECI KSEA 272011Z 12008KT 5SM BR FEW007 SCT025 OVC035 10/08 A2995 RMK AO2=
201210271953 METAR KSEA 271953Z 12008KT 3SM BR FEW010 OVC033 10/08 A2995 RMK AO2 RAE26 SLP150 P0000 T01000078=
201210271853 METAR KSEA 271853Z 13007KT 7SM -RA FEW010 SCT020 OVC055 09/08 A2999 RMK AO2 SLP162 P0003 T00940078=
201210271753 METAR KSEA 271753Z 15007KT 7SM -RA FEW025 OVC055 09/08 A2999 RMK AO2 SLP163 P0004 60051 T00940078 10111 20094 56011=
201210271653 METAR KSEA 271653Z 16006KT 5SM RA BR FEW020 OVC050 09/08 A3000 RMK AO2 SLP166 P0011 T00940078=
201210271617 SPECI KSEA 271617Z 16008KT 3SM RA BR FEW025 OVC045 09/08 A3001 RMK AO2 P0004=
201210271553 METAR KSEA 271553Z 16008KT 2SM RA BR FEW025 OVC045 09/08 A3001 RMK AO2 TWR VIS 3 SLP169 P0014 T00940078=
201210271544 SPECI KSEA 271544Z 15009KT 1 1/2SM RA BR FEW025 OVC045 09/08 A3001 RMK AO2 TWR VIS 3 P0012=
201210271529 SPECI KSEA 271529Z 15010KT 1SM R16L/P6000FT RA BR FEW020 OVC050 10/08 A3001 RMK AO2 TWR VIS 3 P0009=
201210271453 METAR KSEA 271453Z 17010KT 3SM RA BR FEW020 SCT030 OVC050 10/08 A3002 RMK AO2 SLP175 P0008 60022 T01000078 58007=
201210271353 METAR KSEA 271353Z 17009KT 5SM RA BR BKN030 OVC040 10/08 A3004 RMK AO2 SLP179 P0009 T01000078=
201210271253 METAR KSEA 271253Z 17009KT 7SM -RA BKN035 OVC045 10/08 A3006 RMK AO2 RAB1159 SLP185 P0005 T01000078=
201210271153 METAR KSEA 271153Z 19010KT 10SM SCT025 OVC035 12/07 A3005 RMK AO2 SLP182 60000 70006 T01170072 10117 20106 53002=
201210271053 METAR KSEA 271053Z 21011KT 10SM OVC025 12/07 A3004 RMK AO2 RAE21 SLP180 P0000 T01170072=
201210270953 METAR KSEA 270953Z 20011KT 10SM -RA FEW010 BKN025 OVC030 11/07 A3004 RMK AO2 RAB0855E24B49 SLP180 P0000 T01110072=
201210270853 METAR KSEA 270853Z 20009KT 10SM FEW010 SCT025 OVC030 11/08 A3004 RMK AO2 RAB02E12B29E40 SLP180 P0000 60000 T01110078 55002=
201210270753 METAR KSEA 270753Z 21014G20KT 10SM FEW010 SCT025 OVC030 11/08 A3003 RMK AO2 RAB17E46 SLP178 P0000 T01110078 401110072=
201210270729 SPECI KSEA 270729Z 21011KT 10SM -RA FEW010 BKN030 OVC035 11/08 A3004 RMK AO2 RAB17 P0000=
201210270653 METAR KSEA 270653Z 21012G18KT 10SM FEW010 BKN028 OVC035 11/08 A3004 RMK AO2 SLP180 T01110083=
201210270553 METAR KSEA 270553Z 20010KT 10SM OVC030 11/08 A3005 RMK AO2 SLP181 60003 T01060083 10111 20083 58008=
201210270453 METAR KSEA 270453Z 18008KT 10SM OVC031 11/08 A3005 RMK AO2 SLP184 T01060083=
201210270438 SPECI KSEA 270438Z 19009KT 10SM OVC031 11/08 A3005 RMK AO2=
201210270353 METAR KSEA 270353Z 18008KT 10SM SCT023 OVC029 10/08 A3006 RMK AO2 SLP187 T01000083=
201210270253 METAR KSEA 270253Z 17009KT 10SM FEW008 OVC020 09/08 A3007 RMK AO2 RAB06E16 SLP189 P0000 60003 T00940078 55003=
201210270226 SPECI KSEA 270226Z 16010KT 9SM OVC008 09/08 A3007 RMK AO2 RAB06E16 P0000=
201210270153 METAR KSEA 270153Z 13007KT 7SM FEW004 BKN010 OVC016 09/08 A3006 RMK AO2 RAE44 SLP188 P0002 T00890078=
201210270150 SPECI KSEA 270150Z 14008KT 7SM BKN010 OVC016 09/07 A3007 RMK AO2 RAE44 P0002=
201210270132 SPECI KSEA 270132Z 13009KT 2 1/2SM -RA BR OVC008 09/07 A3006 RMK AO2 SFC VIS 4 P0002=
201210270053 METAR KSEA 270053Z 12005KT 2 1/2SM -RA BR FEW005 OVC012 08/07 A3007 RMK AO2 SFC VIS 3 SLP192 P0001 T00830072=
201210270008 SPECI KSEA 270008Z 13003KT 2 1/2SM -RA BR FEW004 BKN011 OVC017 09/07 A3007 RMK AO2 SFC VIS 3 P0000=
201210262353 METAR KSEA 262353Z 13004KT 2 1/2SM -RA BR SCT004 BKN019 OVC023 09/07 A3008 RMK AO2 SFC VIS 3 SLP192 P0001 60002 T00890072 10100 20078 56014=
201210262334 SPECI KSEA 262334Z 13005KT 2 1/2SM -RA BR FEW006 BKN018 OVC023 09/07 A3008 RMK AO2 P0000=
201210262331 SPECI KSEA 262331Z 14005KT 4SM -RA BR FEW006 BKN018 OVC023 09/07 A3008 RMK AO2 P0000=
201210262253 METAR KSEA 262253Z 15007KT 5SM -RA FEW010 BKN019 OVC026 09/06 A3009 RMK AO2 RAB24 SLP198 P0000 T00940061=
201210262237 SPECI KSEA 262237Z 16007KT 4SM -RA BKN020 BKN028 OVC038 09/06 A3009 RMK AO2 RAB24 P0000=
201210262153 METAR KSEA 262153Z 13005KT 10SM FEW037 SCT048 OVC070 10/06 A3010 RMK AO2 SLP199 T01000056=
201210262121 SPECI KSEA 262121Z 15007KT 10SM SCT029 SCT035 BKN048 10/05 A3011 RMK AO2=
201210262053 METAR KSEA 262053Z 13005KT 10SM BKN028 OVC040 09/05 A3012 RMK AO2 SLP206 60001 T00890050 58015=
201210262044 SPECI KSEA 262044Z VRB04KT 10SM BKN028 OVC040 09/05 A3012 RMK AO2=
201210261953 METAR KSEA 261953Z 11005KT 9SM FEW029 OVC038 08/06 A3013 RMK AO2 RAE19 SLP211 P0000 T00830056=
201210261853 METAR KSEA 261853Z 16003KT 7SM -RA FEW026 BKN035 OVC047 08/05 A3015 RMK AO2 RAE08B30 SLP218 P0001 T00830050=
201210261753 METAR KSEA 261753Z 23003KT 9SM -RA BKN040 OVC055 08/04 A3016 RMK AO2 RAE1657B30 SLP221 P0000 60001 T00830044 10094 20072 53001=
201210261653 METAR KSEA 261653Z 25004KT 10SM -RA BKN043 BKN055 OVC200 08/04 A3015 RMK AO2 SLP218 P0001 T00830044=
201210261553 METAR KSEA 261553Z 00000KT 10SM -RA FEW040 OVC055 08/05 A3016 RMK AO2 RAB50 SLP219 P0000 T00780050=
201210261453 METAR KSEA 261453Z 18003KT 10SM SCT060 OVC085 07/04 A3016 RMK AO2 SLP220 T00720039 58018=
201210261353 METAR KSEA 261353Z 00000KT 10SM SCT060 OVC095 09/03 A3018=
201210261253 METAR KSEA 261253Z 00000KT 10SM FEW060 OVC090 07/03 A3021 RMK AO2 SLP236 T00720033=
201210261153 METAR KSEA 261153Z 00000KT 10SM FEW065 OVC095 08/03 A3021 RMK AO2 SLP238 T00830028 10089 20072 58020=
201210261053 METAR KSEA 261053Z 00000KT 10SM FEW075 OVC110 07/04 A3024 RMK AO2 SLP248 T00720039=
201210260953 METAR KSEA 260953Z 00000KT 10SM FEW080 OVC120 08/03 A3026 RMK AO2 SLP253 T00780033=
201210260853 METAR KSEA 260853Z 11003KT 10SM FEW100 OVC150 08/03 A3027 RMK AO2 SLP258 T00780033 58023=
201210260753 METAR KSEA 260753Z 14003KT 10SM OVC150 08/04 A3029 RMK AO2 SLP264 T00780039 401170067=
201210260653 METAR KSEA 260653Z 14003KT 10SM OVC150 08/04 A3033 RMK AO2 SLP277 T00830039=
201210260553 METAR KSEA 260553Z 11007KT 10SM OVC200 08/04 A3034 RMK AO2 SLP282 T00830039 10100 20083 58015=
201210260453 METAR KSEA 260453Z 11008KT 10SM OVC200 09/04 A3037 RMK AO2 SLP290 T00890044=
201210260353 METAR KSEA 260353Z 13004KT 10SM OVC240 09/05 A3038 RMK AO2 SLP295 T00890050=
201210260253 METAR KSEA 260253Z 13004KT 10SM OVC240 09/04 A3039 RMK AO2 SLP297 T00940044 56007=
201210260153 METAR KSEA 260153Z 00000KT 10SM SCT060 OVC240 09/04 A3039 RMK AO2 SLP299 T00890044=
201210260053 METAR KSEA 260053Z 00000KT 10SM FEW025 SCT060 OVC240 09/05 A3040 RMK AO2 SLP302 T00940050=
201210252353 METAR KSEA 252353Z 00000KT 10SM FEW025 BKN060 OVC240 10/05 A3041 RMK AO2 SLP304 T01000050 10117 20089 58002=
201210252253 METAR KSEA 252253Z 27003KT 10SM FEW023 BKN049 OVC240 10/05 A3042 RMK AO2 SLP308 T01000050=
201210252153 METAR KSEA 252153Z 00000KT 10SM FEW020 SCT049 BKN240 11/04 A3041=
201210252053 METAR KSEA 252053Z 20004KT 10SM FEW015 BKN048 BKN120 BKN250 10/05 A3041 RMK AO2 SLP307 T01000050 50003=
201210251953 METAR KSEA 251953Z 23005KT 10SM SCT015 BKN048 09/05 A3042 RMK AO2 SLP309 T00940050=
201210251853 METAR KSEA 251853Z VRB03KT 10SM FEW012 BKN048 09/06 A3042 RMK AO2 SLP307 T00940056=
201210251753 METAR KSEA 251753Z 18004KT 10SM FEW012 SCT026 BKN049 09/06 A3041 RMK AO2 SLP304 T00890061 10089 20067 51024=
201210251658 SPECI KSEA 251658Z 15003KT 10SM FEW012 BKN025 BKN049 08/06 A3039 RMK AO2=
201210251653 METAR KSEA 251653Z 15004KT 10SM FEW012 BKN025 BKN049 08/06 A3038 RMK AO2 SLP297 T00780056=
201210251605 SPECI KSEA 251605Z 15003KT 10SM FEW010 BKN019 OVC048 07/05 A3037 RMK AO2=
201210251553 METAR KSEA 251553Z 16003KT 10SM FEW010 BKN048 07/05 A3036 RMK AO2 SLP290 T00720050=
201210251453 METAR KSEA 251453Z 12004KT 10SM FEW010 BKN048 07/06 A3033 RMK AO2 SLP280 T00720056 51022=
201210251417 SPECI KSEA 251417Z 12004KT 10SM FEW006 SCT019 OVC048 07/05 A3032 RMK AO2=
201210251401 SPECI KSEA 251401Z 12003KT 10SM FEW010 BKN019 BKN042 07/05 A3032 RMK AO2=
201210251353 METAR KSEA 251353Z 00000KT 10SM FEW010 SCT019 BKN042 07/05 A3032 RMK AO2 SLP275 T00720050=
201210251339 SPECI KSEA 251339Z 00000KT 10SM FEW010 SCT023 BKN044 07/05 A3031 RMK AO2=
201210251253 METAR KSEA 251253Z 00000KT 10SM BKN017 OVC024 07/06 A3029 RMK AO2 SLP265 T00720056=
201210251153 METAR KSEA 251153Z 13003KT 10SM OVC017 07/05 A3027 RMK AO2 SLP257 60000 70025 T00720050 10072 20067 51019=
201210251053 METAR KSEA 251053Z 00000KT 10SM OVC019 07/05 A3025 RMK AO2 SLP252 T00720050=
201210251002 SPECI KSEA 251002Z 12004KT 10SM BKN019 OVC046 07/04 A3023 RMK AO2=
201210250953 METAR KSEA 250953Z 12004KT 10SM SCT019 OVC046 07/04 A3023 RMK AO2 SLP244 T00720044=
201210250924 SPECI KSEA 250924Z 11003KT 8SM FEW024 OVC048 07/05 A3022 RMK AO2=
201210250853 METAR KSEA 250853Z 13003KT 10SM BKN021 OVC050 07/05 A3021 RMK AO2 SLP238 60000 T00670050 53019=
201210250810 SPECI KSEA 250810Z 15003KT 10SM SCT020 BKN043 07/05 A3020 RMK AO2=
201210250753 METAR KSEA 250753Z 13005KT 10SM OVC020 07/05 A3019 RMK AO2 SLP231 T00670050 401170061=
201210250653 METAR KSEA 250653Z 10004KT 10SM BKN023 OVC030 07/05 A3017 RMK AO2 RAE16 SLP223 P0000 T00720050=
201210250609 SPECI KSEA 250609Z 12005KT 10SM -RA BKN027 OVC034 07/05 A3016 RMK AO2 P0000=
201210250553 METAR KSEA 250553Z 14003KT 8SM -RA OVC034 07/05 A3015 RMK AO2 SLP220 P0006 60023 T00720050 10094 20067 51024=
201210250453 METAR KSEA 250453Z 00000KT 6SM -RA BR OVC032 07/06 A3013=
201210250429 SPECI KSEA 250429Z 00000KT 4SM RA BR FEW007 OVC032 07/05 A3012 RMK AO2 P0010=
201210250358 SPECI KSEA 250358Z 19006KT 9SM -RA FEW009 BKN027 OVC035 07/06 A3011 RMK AO2 P0000=
201210250353 METAR KSEA 250353Z 18006KT 10SM -RA SCT029 BKN038 OVC060 08/05 A3011 RMK AO2 RAB40 SLP205 P0001 T00780050=
201210250307 SPECI KSEA 250307Z 06007KT 10SM SCT027 SCT034 OVC085 08/04 A3008 RMK AO2=
201210250253 METAR KSEA 250253Z 07009KT 10SM BKN025 BKN030 OVC080 08/04 A3008 RMK AO2 SLP195 60001 T00780044 53020=
201210250153 METAR KSEA 250153Z 05005KT 10SM BKN023 OVC040 08/05 A3006 RMK AO2 RAE35 SLP188 P0000 T00830050=
201210250114 SPECI KSEA 250114Z 04004KT 10SM -RA FEW023 BKN028 OVC042 09/06 A3005 RMK AO2 P0000=
201210250053 METAR KSEA 250053Z 00000KT 3SM RA SCT030 BKN035 BKN080 BKN200 09/04 A3004 RMK AO2 RAB44 SLP180 P0001 T00940044=
201210242353 METAR KSEA 242353Z 00000KT 10SM SCT028 BKN090 BKN110 BKN200 09/05 A3002 RMK AO2 RAB03E44 SLP173 P0001 60001 T00940050 10117 20083 53014=
201210242253 METAR KSEA 242253Z 29005KT 10SM FEW028 SCT047 BKN065 BKN200 10/04 A3000 RMK AO2 SLP168 SHRA SW T01000039=
201210242153 METAR KSEA 242153Z VRB03KT 10SM FEW025 SCT048 BKN200 11/04 A2999 RMK AO2 SLP162 T01110039=
201210242053 METAR KSEA 242053Z 21006KT 10SM FEW020 BKN047 BKN200 10/04 A2998 RMK AO2 SLP159 60000 T01000039 53009=
201210241953 METAR KSEA 241953Z 17004KT 10SM FEW015 BKN039 BKN200 10/03 A2997 RMK AO2 RAB27E37 SLP155 P0000 T01000033=
201210241853 METAR KSEA 241853Z 16003KT 10SM FEW015 BKN043 BKN200 09/04 A2996 RMK AO2 SLP153 T00890044=
201210241753 METAR KSEA 241753Z 15005KT 10SM FEW028 BKN050 OVC200 08/04 A2995 RMK AO2 SLP149 60001 T00830044 10083 20061 51017=
201210241653 METAR KSEA 241653Z 11004KT 10SM FEW008 BKN032 OVC041 08/04 A2993 RMK AO2 RAB00E09B26E44 SLP144 P0000 T00780044=
201210241553 METAR KSEA 241553Z 06004KT 10SM FEW006 BKN032 OVC043 07/05 A2992 RMK AO2 SLP141 T00720050=
201210241517 SPECI KSEA 241517Z 36004KT 10SM FEW006 BKN034 OVC043 07/05 A2991 RMK AO2=
201210241453 METAR KSEA 241453Z 01003KT 10SM FEW012 BKN036 OVC045 07/05 A2990 RMK AO2 SLP133 60001 T00670050 52013=
201210241353 METAR KSEA 241353Z 00000KT 10SM FEW011 BKN035 BKN046 07/04 A2989 RMK AO2 RAE51 SLP130 P0001 T00670044=
201210241253 METAR KSEA 241253Z 16005KT 10SM -RA BKN037 OVC044 07/03 A2988 RMK AO2 RAE1155B37 SLP124 P0000 T00670033=
201210241153 METAR KSEA 241153Z 05004KT 10SM -RA SCT047 OVC060 07/04 A2986 RMK AO2 RAB09 SLP120 P0000 60003 70003 T00670044 10083 20067 50003=
201210241053 METAR KSEA 241053Z 08006KT 10SM SCT043 OVC065 07/04 A2987 RMK AO2 RAE46 SLP121 P0002 T00670044=
201210240953 METAR KSEA 240953Z 20005KT 10SM -RA OVC043 07/04 A2987 RMK AO2 RAB36 SLP122 P0001 T00670039=
201210240853 METAR KSEA 240853Z 08006KT 10SM OVC080 08/03 A2985 RMK AO2 SLP117 60000 T00780028 58004=
201210240753 METAR KSEA 240753Z 08003KT 10SM OVC065 08/03 A2986 RMK AO2 RAE02 SLP118 P0000 T00780028 401110056=
201210240653 METAR KSEA 240653Z 12003KT 10SM -RA BKN044 OVC060 08/03 A2987 RMK AO2 RAB39 SLP122 P0000 T00780033=
201210240553 METAR KSEA 240553Z 11004KT 10SM BKN070 OVC085 08/03 A2987 RMK AO2 SLP121 T00830028 10100 20078 58000=
201210240453 METAR KSEA 240453Z 11004KT 10SM BKN055 OVC070 08/03 A2987 RMK AO2 SLP123 T00830028=
201210240353 METAR KSEA 240353Z 11005KT 10SM BKN049 OVC080 08/03 A2987 RMK AO2 SLP122 T00830028=
201210240253 METAR KSEA 240253Z 00000KT 10SM BKN046 BKN200 09/02 A2987 RMK AO2 SLP122 T00940022 51004=
201210240153 METAR KSEA 240153Z 19003KT 10SM SCT050 BKN080 BKN200 09/02 A2987 RMK AO2 SLP121 T00890022=
201210240053 METAR KSEA 240053Z 21005KT 10SM FEW033 BKN080 BKN200 09/02 A2986 RMK AO2 SLP120 T00940022=
201210232353 METAR KSEA 232353Z 22006KT 10SM FEW037 BKN070 BKN200 10/03 A2985 RMK AO2 SLP116 T01000028 10111 20083 53006=
201210232253 METAR KSEA 232253Z 21013G16KT 10SM SCT041 BKN070 BKN180 11/03 A2984 RMK AO2 SLP112 T01060028=
201210232153 METAR KSEA 232153Z 20009G17KT 10SM FEW036 BKN047 BKN055 BKN180 11/03 A2984 RMK AO2 SLP111 T01110028=
201210232053 METAR KSEA 232053Z 21007KT 10SM FEW025 BKN033 BKN180 11/04 A2984 RMK AO2 SLP110 SHRA NW T01060039 51006=
201210231953 METAR KSEA 231953Z 20007KT 10SM FEW020 BKN033 BKN050 09/03 A2984 RMK AO2 SLP111 T00940028=
201210231853 METAR KSEA 231853Z 18006KT 10SM FEW020 BKN042 BKN250 08/04 A2983 RMK AO2 SLP108 T00830039=
201210231753 METAR KSEA 231753Z 21009KT 10SM FEW020 BKN037 BKN070 BKN250 08/04 A2982 RMK AO2 SLP105 T00830039 10083 20056 51014=
201210231653 METAR KSEA 231653Z 18005KT 10SM FEW020 BKN034 BKN230 07/04 A2981 RMK AO2 SLP102 T00720039=
201210231553 METAR KSEA 231553Z 17004KT 10SM FEW012 BKN035 BKN100 BKN230 07/04 A2980 RMK AO2 SLP097 T00670039=
201210231453 METAR KSEA 231453Z 16004KT 10SM FEW012 SCT027 BKN100 BKN230 06/04 A2978 RMK AO2 SLP091 T00610039 51017=
201210231353 METAR KSEA 231353Z 21007KT 10SM FEW011 BKN100 BKN230 06/04 A2976 RMK AO2 SLP085 T00610039=
201210231329 SPECI KSEA 231329Z 20005KT 10SM FEW011 SCT027 BKN230 06/04 A2975 RMK AO2=
201210231253 METAR KSEA 231253Z 20005KT 10SM FEW013 BKN025 06/03 A2974 RMK AO2 SLP079 T00560033 $=
201210231153 METAR KSEA 231153Z 20005KT 10SM FEW015 BKN033 06/03 A2972 RMK AO2 SLP073 60000 70035 T00610033 10067 20056 53014=
201210231053 METAR KSEA 231053Z 19009KT 10SM FEW015 BKN048 BKN065 07/04 A2971 RMK AO2 RAB19E27 SLP069 P0000 T00670039=
201210230953 METAR KSEA 230953Z 19009KT 10SM FEW018 BKN028 OVC060 06/04 A2970 RMK AO2 RAE16 SLP064 P0000 T00610039=
201210230853 METAR KSEA 230853Z 20008KT 10SM -RA OVC024 06/04 A2968 RMK AO2 RAB48 SLP060 P0000 60000 T00610039 53015=
201210230753 METAR KSEA 230753Z 18008KT 10SM BKN028 OVC036 06/04 A2966 RMK AO2 RAB19E28 SLP053 P0000 T00610039 400780033=
201210230734 SPECI KSEA 230734Z 18008KT 10SM OVC032 06/04 A2966 RMK AO2 RAB19E28 P0000=
201210230653 METAR KSEA 230653Z 17006KT 10SM BKN025 OVC035 06/04 A2965 RMK AO2 SLP048 T00610039=
201210230634 SPECI KSEA 230634Z 18006KT 10SM BKN025 OVC035 06/04 A2965 RMK AO2=
201210230553 METAR KSEA 230553Z 17005KT 10SM OVC039 06/04 A2964 RMK AO2 SLP044 60008 T00610044 10061 20056 53006=
201210230512 SPECI KSEA 230512Z 15005KT 10SM FEW029 OVC041 06/04 A2963 RMK AO2=
201210230453 METAR KSEA 230453Z 15006KT 10SM BKN029 OVC036 06/04 A2963 RMK AO2 RAB06E22 SLP042 P0000 T00610039=
201210230417 SPECI KSEA 230417Z 14005KT 10SM -RA BKN024 OVC044 06/04 A2962 RMK AO2 RAB06 P0000=
201210230353 METAR KSEA 230353Z 12008KT 10SM FEW023 BKN042 OVC080 06/04 A2962 RMK AO2 RAB09E18 SLP039 P0000 T00560039=
201210230253 METAR KSEA 230253Z 13005KT 10SM FEW006 OVC023 06/04 A2962 RMK AO2 RAE52 SLP038 P0001 60008 T00560039 53005=
201210230153 METAR KSEA 230153Z 13004KT 9SM -RA FEW004 OVC025 06/04 A2961 RMK AO2 SLP037 P0003 T00560039=
201210230121 SPECI KSEA 230121Z 08003KT 9SM -RA SCT007 OVC028 06/04 A2961 RMK AO2 P0002=
201210230113 SPECI KSEA 230113Z 00000KT 8SM -RA SCT007 BKN010 OVC031 06/04 A2961 RMK AO2 P0002=
201210230053 METAR KSEA 230053Z 00000KT 6SM -RA BR FEW009 BKN025 OVC034 06/04 A2961 RMK AO2 SLP036 P0004 T00610044=
201210230016 SPECI KSEA 230016Z 21003KT 7SM -RA FEW007 BKN015 OVC030 06/04 A2961 RMK AO2 P0002=
201210222353 METAR KSEA 222353Z 23005KT 6SM -RA BR SCT005 BKN012 OVC030 06/04 A2961 RMK AO2 SLP033 P0005 60027 T00610044 10078 20061 53009=
201210222334 SPECI KSEA 222334Z 24004KT 5SM -RA BR SCT003 BKN012 OVC019 06/05 A2960 RMK AO2 P0004=
201210222323 SPECI KSEA 222323Z 22004KT 3SM -RA BR BKN003 BKN011 OVC030 07/05 A2960 RMK AO2 P0003=
201210222253 METAR KSEA 222253Z 23003KT 2 1/2SM -RA BR BKN003 OVC009 07/05 A2960 RMK AO2 SLP030 P0012 T00670050=
201210222243 SPECI KSEA 222243Z 22003KT 2 1/2SM RA BR SCT003 OVC008 06/05 A2960 RMK AO2 P0010=
201210222223 SPECI KSEA 222223Z 23005KT 3SM RA BR SCT005 BKN010 OVC016 06/05 A2959 RMK AO2 P0006=
201210222153 METAR KSEA 222153Z 21004KT 3SM -RA BR BKN005 OVC028 07/05 A2959 RMK AO2 SLP026 P0009 T00670050=
201210222114 SPECI KSEA 222114Z 00000KT 4SM -RA BR BKN007 OVC015 07/05 A2958 RMK AO2 P0003=
201210222102 SPECI KSEA 222102Z 31004KT 6SM -RA BR FEW009 BKN015 OVC034 07/05 A2958 RMK AO2 P0002=
201210222053 METAR KSEA 222053Z 30005KT 6SM -RA BR FEW017 BKN032 OVC045 07/05 A2958 RMK AO2 RAB15 SLP024 P0001 60001 T00720050 53003=
201210221953 METAR KSEA 221953Z 00000KT 10SM FEW025 OVC065 07/04 A2957 RMK AO2 SLP022 T00720044=
201210221853 METAR KSEA 221853Z 00000KT 10SM FEW020 OVC055 07/03 A2958 RMK AO2 SLP023 T00720028=
201210221753 METAR KSEA 221753Z 00000KT 10SM FEW030 BKN050 OVC080 07/03 A2957 RMK AO2 SLP022 T00720033 10072 20039 56005=
201210221653 METAR KSEA 221653Z 02010KT 10SM FEW035 BKN080 OVC110 07/02 A2957 RMK AO2 SLP022 T00670022=
201210221553 METAR KSEA 221553Z 02010KT 10SM FEW080 BKN110 OVC180 06/02 A2958 RMK AO2 SLP023 T00610022=
201210221453 METAR KSEA 221453Z 01007KT 10SM SCT080 BKN140 OVC200 05/03 A2959 RMK AO2 SLP027 T00500028 58019=
201210221353 METAR KSEA 221353Z 36006KT 10SM FEW080 OVC180 04/03 A2961 RMK AO2 SLP033 T00440028=
201210221253 METAR KSEA 221253Z 35006KT 10SM FEW090 BKN200 04/02 A2963 RMK AO2 SLP042 T00390022 $=
201210221153 METAR KSEA 221153Z 02008KT 10SM SCT090 BKN200 04/03 A2964 RMK AO2 SLP046 70008 T00440028 10056 20033 58030 $=
201210221053 METAR KSEA 221053Z 02007KT 10SM BKN090 OVC200 04/03 A2968 RMK AO2 SLP059 T00440028 $=
201210220953 METAR KSEA 220953Z 03005KT 10SM BKN080 BKN200 04/03 A2971 RMK AO2 SLP068 T00390028 $=
201210220923 SPECI KSEA 220923Z 02003KT 3SM BR FEW001 SCT070 SCT200 03/02 A2972 RMK AO2 $=
201210220900 SPECI KSEA 220900Z 00000KT 3/4SM R16L/3500VP6000FT BR SCT001 BKN070 BKN200 04/03 A2973 RMK AO2 $=
201210220853 METAR KSEA 220853Z 07003KT 3/4SM R16L/P6000FT BR BKN001 BKN070 BKN200 04/03 A2973 RMK AO2 SLP076 T00440028 56011 $=
201210220851 SPECI KSEA 220851Z 05004KT 3/4SM R16L/P6000FT BR BKN001 BKN085 BKN200 04/03 A2973 RMK AO2 $=
201210220812 SPECI KSEA 220812Z 01004KT 1 3/4SM R16L/2000VP6000FT BR SCT001 BKN085 BKN200 04/03 A2974 RMK AO2 VIS N 3/4 $=
201210220753 METAR KSEA 220753Z 01005KT 2 1/2SM R16L/3500VP6000FT BR SCT001 BKN085 BKN200 04/03 A2975 RMK AO2 SLP081 VIS N 1 T00440033 401170044 $=
201210220734 SPECI KSEA 220734Z 02003KT 8SM FEW001 SCT085 BKN200 05/03 A2976 RMK AO2 $=
201210220653 METAR KSEA 220653Z 00000KT 10SM FEW090 BKN200 05/03 A2977 RMK AO2 SLP088 T00500028 $=
201210220553 METAR KSEA 220553Z 00000KT 10SM FEW090 BKN200 06/03 A2979 RMK AO2 SLP096 60005 T00560028 10089 20050 58014 $=
201210220453 METAR KSEA 220453Z 08006KT 10SM FEW090 BKN200 06/03 A2981 RMK AO2 SLP101 T00560028 $=
201210220353 METAR KSEA 220353Z 07005KT 10SM BKN200 07/03 A2982 RMK AO2 SLP106 T00670033 $=
201210220253 METAR KSEA 220253Z VRB06KT 10SM SCT100 07/03 A2983 RMK AO2 RAB03E21 SLP110 P0000 60005 T00720033 58000 $=
201210220153 METAR KSEA 220153Z 09004KT 10SM BKN055 07/03 A2983 RMK AO2 RAB06E35 SLP111 P0005 T00720033 $=
201210220053 METAR KSEA 220053Z 17004KT 10SM FEW011 BKN036 08/03 A2984 RMK AO2 SLP113 SHRA W T00780033 $=
201210212353 METAR KSEA 212353Z 15009KT 10SM FEW034 SCT050 SCT065 09/03 A2983 RMK AO2 RAE2257B26E40 SLP110 P0000 60000 T00890033 10117 20078 56006 $=
201210212253 METAR KSEA 212253Z 18010KT 10SM -RA SCT034 BKN044 BKN065 09/04 A2984 RMK AO2 RAB24 SLP112 P0000 T00940044 $=
201210212153 METAR KSEA 212153Z 20004KT 10SM FEW021 SCT045 BKN075 11/03 A2984 RMK AO2 SLP111 T01060028 $=
201210212053 METAR KSEA 212053Z VRB04KT 10SM FEW021 BKN047 BKN060 10/03 A2985 RMK AO2 SLP115 T01000028 58010 $=
201210211953 METAR KSEA 211953Z 21005KT 10SM FEW021 SCT050 BKN120 10/03 A2987 RMK AO2 SLP121 T01000033 $=
201210211853 METAR KSEA 211853Z 23007KT 10SM FEW021 SCT030 BKN120 09/04 A2988 RMK AO2 SLP124 T00940039 $=
201210211753 METAR KSEA 211753Z 19005KT 10SM FEW015 BKN030 BKN110 08/04 A2988 RMK AO2 SLP126 60003 T00830039 10083 20050 50000 $=
201210211653 METAR KSEA 211653Z 19005KT 10SM SCT027 BKN035 BKN080 08/04 A2988 RMK AO2 SLP127 T00780044 $=
201210211634 SPECI KSEA 211634Z 17005KT 10SM FEW008 BKN035 BKN080 07/04 A2988 RMK AO2 $=
201210211553 METAR KSEA 211553Z 16006KT 10SM FEW008 BKN029 OVC035 06/04 A2988 RMK AO2 SLP126 T00610039 $=
201210211453 METAR KSEA 211453Z 20005KT 10SM SCT014 BKN021 OVC042 06/04 A2988 RMK AO2 SLP126 60003 T00560039 53007 $=
201210211353 METAR KSEA 211353Z 16008KT 10SM BKN024 BKN028 OVC036 06/04 A2987 RMK AO2 RAE18 SLP122 P0001 T00560039 $=
201210211253 METAR KSEA 211253Z 16008KT 10SM -RA FEW015 SCT020 OVC030 06/04 A2986 RMK AO2 SLP119 P0002 T00560039 $=
201210211240 SPECI KSEA 211240Z 20006KT 10SM -RA FEW015 SCT020 OVC030 06/04 A2986 RMK AO2 P0002 $=
201210211153 METAR KSEA 211153Z 15006KT 10SM -RA SCT007 BKN020 OVC025 06/04 A2986 RMK AO2 SLP118 P0005 60017 70019 T00560039 10072 20056 56005 $=
201210211053 METAR KSEA 211053Z 24005KT 6SM -RA BR FEW010 OVC025 06/04 A2986 RMK AO2 SLP119 P0012 T00560039 $=
201210211015 SPECI KSEA 211015Z 25005KT 5SM RA OVC025 06/03 A2987 RMK AO2 P0004 $=
201210210953 METAR KSEA 210953Z 23005KT 8SM -RA BKN030 OVC045 07/03 A2987 RMK AO2 RAB35 SLP121 P0000 T00670028 $=
201210210853 METAR KSEA 210853Z 24005KT 10SM FEW040 SCT060 OVC100 07/02 A2987 RMK AO2 SLP122 T00670022 53001 $=
201210210753 METAR KSEA 210753Z 20007KT 10SM FEW040 SCT060 BKN090 07/02 A2986 RMK AO2 SLP120 T00670022 401110061 $=
201210210653 METAR KSEA 210653Z 20006KT 10SM FEW040 SCT060 BKN085 07/02 A2986 RMK AO2 SLP120 T00670017 $=
201210210553 METAR KSEA 210553Z 18008KT 10SM FEW040 SCT055 SCT080 07/02 A2987 RMK AO2 SLP123 T00670017 10078 20061 51003 $=
201210210453 METAR KSEA 210453Z 19011KT 10SM FEW043 SCT080 07/02 A2987 RMK AO2 SLP123 T00670022 $=
201210210353 METAR KSEA 210353Z 19012G19KT 10SM BKN080 07/03 A2986 RMK AO2 SLP120 T00720028 $=
201210210253 METAR KSEA 210253Z 17010KT 10SM BKN034 OVC046 07/03 A2986 RMK AO2 SLP119 T00720028 58002 $=
201210210153 METAR KSEA 210153Z 16008KT 10SM FEW026 BKN031 OVC039 07/03 A2987 RMK AO2 SLP123 T00670028 $=
201210210053 METAR KSEA 210053Z 16013KT 10SM FEW017 SCT024 BKN140 07/03 A2986 RMK AO2 SLP121 T00720033 $=
201210210000 SPECI KSEA 210000Z 17011KT 10SM FEW017 BKN024 08/04 A2987 RMK AO2 $=
201210202353 METAR KSEA 202353Z 17012KT 10SM SCT024 BKN100 08/04 A2986 RMK AO2 SLP121 60002 T00780039 10111 20061 56005=
201210202253 METAR KSEA 202253Z 20010KT 10SM SCT035 BKN075 BKN100 08/04 A2988 RMK AO2 PK WND 29030/2205 WSHFT 2152 RAB2159E39 SLP124 P0002 T00830039=
201210202214 SPECI KSEA 202214Z 29010G30KT 6SM R16L/5000VP6000FT +RA FEW021 BKN028 OVC055 07/03 A2988 RMK AO2 PK WND 29030/2205 WSHFT 2152 RAB2159 P0001=
201210202209 SPECI KSEA 202209Z 29015G30KT 4SM R16L/5000VP6000FT RA FEW021 BKN032 OVC070 07/03 A2989 RMK AO2 PK WND 29030/2205 WSHFT 2152 RAB2159 P0000=
201210202153 METAR KSEA 202153Z 20013G21KT 10SM SCT038 BKN050 OVC080 10/02 A2986 RMK AO2 RAB25E40 SLP119 VCSH P0000 T01000022=
201210202053 METAR KSEA 202053Z 19016G19KT 10SM SCT025 BKN032 BKN110 11/02 A2988 RMK AO2 SLP126 T01060022 58002=
201210201953 METAR KSEA 201953Z 18011G17KT 10SM SCT023 BKN028 OVC120 10/04 A2990 RMK AO2 SLP131 T01000039=
201210201853 METAR KSEA 201853Z 19012KT 10SM SCT023 SCT029 BKN130 09/03 A2990 RMK AO2 SLP131 T00940033=
201210201753 METAR KSEA 201753Z 22014KT 10SM SCT021 BKN090 BKN120 09/03 A2989 RMK AO2 SLP128 T00890033 10089 20067 52007=
201210201653 METAR KSEA 201653Z 19011G17KT 10SM SCT019 BKN024 BKN120 08/03 A2988 RMK AO2 SLP125 T00780033=
201210201553 METAR KSEA 201553Z 19011KT 10SM FEW027 SCT080 BKN090 07/03 A2988 RMK AO2 SLP124 T00670033=
201210201453 METAR KSEA 201453Z 18010KT 10SM SCT027 SCT070 BKN095 07/03 A2987 RMK AO2 SLP121 T00720028 51008=
201210201353 METAR KSEA 201353Z 21013G19KT 10SM SCT022 SCT050 BKN060 08/03 A2986 RMK AO2 SLP119 T00780033=
201210201253 METAR KSEA 201253Z 19010KT 10SM SCT020 BKN025 BKN095 08/04 A2984 RMK AO2 SLP113 T00780039=
201210201231 SPECI KSEA 201231Z 17013G19KT 10SM SCT020 BKN025 BKN095 07/04 A2985 RMK AO2=
201210201153 METAR KSEA 201153Z 19013G23KT 10SM FEW015 SCT020 SCT095 08/03 A2984 RMK AO2 SLP113 70013 T00780033 10100 20078 51009=
201210201053 METAR KSEA 201053Z 21013G21KT 10SM FEW015 SCT020 BKN095 08/04 A2984 RMK AO2 SLP110 T00830039=
201210200953 METAR KSEA 200953Z 20012KT 10SM FEW015 SCT020 BKN095 08/04 A2983 RMK AO2 SLP106 T00830044=
201210200853 METAR KSEA 200853Z 21015G20KT 10SM FEW015 SCT020 BKN095 09/05 A2982 RMK AO2 SLP102 T00890050 51009=
201210200753 METAR KSEA 200753Z 21010KT 10SM FEW008 SCT015 BKN020 09/07 A2981 RMK AO2 SLP100 T00940067 401500094=
201210200653 METAR KSEA 200653Z 24009KT 10SM FEW004 SCT008 BKN015 10/07 A2980 RMK AO2 SLP096 T01000072=
201210200553 METAR KSEA 200553Z 22006KT 10SM FEW004 BKN008 OVC015 10/08 A2979 RMK AO2 RAE0454 SLP093 60003 T01000078 10128 20100 53007=
201210200510 SPECI KSEA 200510Z 22006KT 10SM FEW005 BKN011 BKN040 10/08 A2978 RMK AO2 RAE0454=
201210200453 METAR KSEA 200453Z 21007KT 10SM -RA FEW005 BKN045 BKN055 10/08 A2977 RMK AO2 SLP088 P0001 T01000083=
201210200431 SPECI KSEA 200431Z 21007KT 10SM -RA FEW009 OVC048 10/08 A2977 RMK AO2 P0001=
201210200414 SPECI KSEA 200414Z 23007KT 10SM -RA SCT011 BKN042 OVC050 10/08 A2978 RMK AO2 P0000=
201210200353 METAR KSEA 200353Z 23013KT 6SM RA BR BKN013 BKN018 OVC022 10/08 A2978 RMK AO2 RAB21 SLP089 P0002 T01000078=
201210200340 SPECI KSEA 200340Z 24007KT 9SM -RA SCT015 BKN022 OVC065 11/08 A2977 RMK AO2 RAB21 P0000=
201210200320 SPECI KSEA 200320Z 24007KT 10SM SCT024 BKN065 OVC085 11/07 A2977 RMK AO2=
201210200253 METAR KSEA 200253Z 23008KT 10SM OVC024 11/07 A2977 RMK AO2 SLP086 T01110067 58003=
201210200153 METAR KSEA 200153Z 23008KT 10SM BKN022 BKN070 12/07 A2977 RMK AO2 SLP087 T01170067=
201210200053 METAR KSEA 200053Z 22004KT 10SM BKN024 BKN070 12/07 A2978 RMK AO2 SLP089 T01220072=
201210192353 METAR KSEA 192353Z 21007KT 10SM FEW025 BKN060 13/07 A2978 RMK AO2 SLP089 T01280072 10133 20128 58012=
201210192253 METAR KSEA 192253Z 21008KT 10SM SCT024 OVC065 13/08 A2979 RMK AO2 SLP094 T01280083=
201210192222 SPECI KSEA 192222Z 22008KT 10SM SCT022 BKN030 OVC070 13/08 A2979 RMK AO2=
201210192153 METAR KSEA 192153Z 22007KT 10SM BKN018 OVC080 13/09 A2980 RMK AO2 SLP097 T01330089=
201210192115 SPECI KSEA 192115Z 20008KT 10SM BKN020 OVC080 13/09 A2981 RMK AO2=
201210192053 METAR KSEA 192053Z 21007G16KT 10SM SCT018 BKN080 13/09 A2981 RMK AO2 SLP101 T01280089 56005=
201210191953 METAR KSEA 191953Z 21015G20KT 10SM FEW009 BKN100 13/09 A2981 RMK AO2 SLP101 T01330089=
201210191853 METAR KSEA 191853Z 21014G22KT 10SM FEW009 BKN085 13/11 A2982 RMK AO2 SLP105 T01330106=
201210191836 SPECI KSEA 191836Z 21016G23KT 10SM FEW009 SCT022 BKN085 13/11 A2982 RMK AO2=
201210191805 SPECI KSEA 191805Z 21011G18KT 10SM SCT008 BKN016 BKN100 13/11 A2983 RMK AO2=
201210191753 METAR KSEA 191753Z 21011KT 10SM BKN008 BKN014 OVC100 13/11 A2983 RMK AO2 SLP106 60010 T01330111 10150 20133 53011=
201210191653 METAR KSEA 191653Z 19011G17KT 7SM BKN005 OVC011 14/12 A2982 RMK AO2 RAE16 SLP102 P0001 T01390122=
201210191553 METAR KSEA 191553Z 19009G17KT 1 1/2SM -RA BR BKN007 OVC018 14/12 A2980 RMK AO2 SFC VIS 2 RAB1454 SLP098 P0005 T01390122=
201210191453 METAR KSEA 191453Z 18012KT 1 1/2SM BR BKN009 OVC014 14/12 A2979 RMK AO2 SFC VIS 2 1/2 RAE53 SLP095 P0004 60004 T01390122 58002=
201210191447 SPECI KSEA 191447Z 18011KT 1 1/2SM -RA BR BKN009 OVC014 14/12 A2979 RMK AO2 SFC VIS 2 P0003=
201210191422 SPECI KSEA 191422Z 19012KT 4SM -RA BR FEW007 BKN012 OVC024 14/12 A2980 RMK AO2 P0001=
201210191353 METAR KSEA 191353Z 18014KT 6SM -RA BKN018 OVC024 14/12 A2980 RMK AO2 RAB17 SLP097 P0000 T01440117=
201210191253 METAR KSEA 191253Z 17014G23KT 10SM FEW015 BKN020 BKN025 15/12 A2979 RMK AO2 RAB28E38 SLP094 P0000 T01500117=
201210191246 SPECI KSEA 191246Z 17018G23KT 10SM FEW015 SCT020 BKN025 15/12 A2980 RMK AO2 RAB28E38 P0000=
201210191232 SPECI KSEA 191232Z 16014KT 10SM -RA SCT015 SCT020 BKN030 14/12 A2980 RMK AO2 RAB28 P0000=
201210191153 METAR KSEA 191153Z 18015G22KT 10SM FEW007 OVC014 14/12 A2980 RMK AO2 RAE13 SLP096 P0000 60016 70088 T01440122 10144 20111 56010=
201210191053 METAR KSEA 191053Z 17013G20KT 9SM -RA FEW007 BKN012 OVC020 14/12 A2981 RMK AO2 DZE29RAB29 SLP100 P0001 T01390122=
201210190953 METAR KSEA 190953Z 18014G20KT 6SM -DZ BR FEW003 SCT007 OVC014 14/12 A2981 RMK AO2 RAE51DZB53 SLP101 P0003 T01440122=
201210190936 SPECI KSEA 190936Z 18012G18KT 3SM -RA BR SCT003 SCT009 OVC011 14/12 A2982 RMK AO2 P0002=
201210190915 SPECI KSEA 190915Z 18011KT 3SM -RA BR SCT003 SCT009 BKN015 14/12 A2983 RMK AO2 P0001=
201210190853 METAR KSEA 190853Z 17011KT 2 1/2SM -RA BR SCT003 BKN009 OVC015 13/12 A2983 RMK AO2 RAE14B39 SLP106 P0002 60012 T01330117 58001=
201210190753 METAR KSEA 190753Z 19005KT 4SM -RA BR BKN003 OVC025 12/11 A2983 RMK AO2 SLP108 P0006 T01170106 401780067=
201210190653 METAR KSEA 190653Z 22005KT 3SM RA BR SCT003 BKN020 OVC025 11/10 A2983 RMK AO2 SLP108 P0004 T01110100=
201210190553 METAR KSEA 190553Z 19003KT 4SM -RA BR FEW003 SCT020 BKN025 11/11 A2983 RMK AO2 SLP108 P0013 60072 T01110106 10161 20100 58006=
201210190525 SPECI KSEA 190525Z 15006KT 5SM -RA BR FEW003 BKN025 OVC050 11/10 A2982 RMK AO2 P0011=
201210190453 METAR KSEA 190453Z 17007KT 5SM RA BR FEW003 BKN040 OVC047 11/09 A2983 RMK AO2 SLP108 P0022 T01060094=
201210190353 METAR KSEA 190353Z 20007KT 3SM RA BR OVC039 10/09 A2986 RMK AO2 SLP119 P0025 T01000089=
201210190253 METAR KSEA 190253Z 22005KT 6SM RA BKN070 OVC090 12/09 A2985 RMK AO2 RAB09 SLP115 P0012 60012 T01220089 55007=
201210190153 METAR KSEA 190153Z 23006KT 10SM BKN060 OVC100 16/05 A2985 RMK AO2 SLP114 T01560050=
201210190053 METAR KSEA 190053Z 17007KT 10SM BKN100 OVC180 15/06 A2984 RMK AO2 SLP112 T01500056=
201210182353 METAR KSEA 182353Z 20007KT 10SM FEW060 BKN120 OVC200 16/06 A2987 RMK AO2 SLP122 T01560056 10178 20133 56024=
201210182253 METAR KSEA 182253Z 22007KT 10SM BKN120 OVC200 17/04 A2989 RMK AO2 SLP129 T01720044=
201210182153 METAR KSEA 182153Z 25004KT 10SM FEW050 BKN130 BKN220 16/06 A2992 RMK AO2 SLP137 T01610056=
201210182053 METAR KSEA 182053Z 23005KT 10SM FEW050 BKN140 BKN220 17/07 A2995 RMK AO2 SLP146 T01720067 56034=
201210181953 METAR KSEA 181953Z 18004KT 10SM BKN130 BKN220 15/07 A2997 RMK AO2 SLP156 T01500067=
201210181853 METAR KSEA 181853Z 20003KT 10SM BKN130 BKN220 13/07 A3001 RMK AO2 SLP169 T01330072=
201210181753 METAR KSEA 181753Z 19003KT 10SM SCT180 BKN250 13/06 A3005 RMK AO2 SLP181 T01330056 10133 20067 58017=
201210181653 METAR KSEA 181653Z 19003KT 10SM FEW180 BKN250 11/05 A3007 RMK AO2 SLP190 T01110050=
201210181553 METAR KSEA 181553Z 00000KT 10SM FEW180 BKN250 09/06 A3009 RMK AO2 SLP197 T00890061=
201210181453 METAR KSEA 181453Z 00000KT 10SM FEW180 BKN250 08/04 A3010 RMK AO2 SLP199 T00780044 58020=
201210181353 METAR KSEA 181353Z 00000KT 10SM FEW180 BKN250 08/04 A3011 RMK AO2 SLP204 T00780044=
201210181253 METAR KSEA 181253Z 00000KT 10SM SCT200 08/05 A3015 RMK AO2 SLP215 T00830050=
201210181153 METAR KSEA 181153Z 13005KT 10SM FEW100 BKN230 09/05 A3016 RMK AO2 SLP219 T00890050 10100 20078 58018=
201210181053 METAR KSEA 181053Z 00000KT 10SM FEW140 09/06 A3019 RMK AO2 SLP229 T00940056=
201210180953 METAR KSEA 180953Z 13003KT 10SM SCT140 09/06 A3020 RMK AO2 SLP234 T00890061=
201210180853 METAR KSEA 180853Z 17003KT 10SM SCT120 09/06 A3021 RMK AO2 SLP237 T00940061 56003=
201210180753 METAR KSEA 180753Z 00000KT 10SM BKN200 09/06 A3021 RMK AO2 SLP237 T00890061 401440061=
201210180653 METAR KSEA 180653Z 12003KT 10SM BKN230 10/07 A3021 RMK AO2 SLP237 T01000067=
201210180553 METAR KSEA 180553Z 00000KT 10SM BKN230 10/06 A3022 RMK AO2 SLP241 T01000061 10133 20100 56005=
201210180453 METAR KSEA 180453Z 00000KT 10SM FEW100 BKN200 11/06 A3022 RMK AO2 SLP242 T01110056=
201210180353 METAR KSEA 180353Z 00000KT 10SM BKN100 11/06 A3023 RMK AO2 SLP245 T01110056=
201210180253 METAR KSEA 180253Z 34003KT 10SM BKN085 12/06 A3024 RMK AO2 SLP246 T01220056 55004=
201210180153 METAR KSEA 180153Z 35003KT 10SM BKN095 BKN200 12/06 A3023 RMK AO2 SLP243 T01220056=
201210180053 METAR KSEA 180053Z 29003KT 10SM BKN100 BKN200 12/06 A3024 RMK AO2 SLP246 T01220056=
201210172353 METAR KSEA 172353Z 30004KT 10SM BKN110 BKN200 13/06 A3025 RMK AO2 SLP250 T01280056 10144 20111 56009=
201210172253 METAR KSEA 172253Z 31006KT 10SM FEW031 BKN140 BKN200 13/05 A3026 RMK AO2 SLP254 T01330050=
201210172153 METAR KSEA 172153Z 25006KT 10SM FEW031 SCT110 BKN200 14/05 A3026 RMK AO2 SLP252 T01390050=
201210172053 METAR KSEA 172053Z 31004KT 10SM FEW028 SCT200 13/06 A3027 RMK AO2 SLP258 T01330056 58018=
201210171953 METAR KSEA 171953Z VRB03KT 10SM FEW020 SCT200 13/05 A3030 RMK AO2 SLP268 T01280050=
201210171853 METAR KSEA 171853Z 26004KT 10SM FEW019 BKN190 BKN250 12/06 A3031 RMK AO2 SLP273 T01170056=
201210171753 METAR KSEA 171753Z VRB03KT 10SM FEW012 BKN150 BKN220 11/06 A3033 RMK AO2 SLP277 T01110056 10117 20061 50004=
201210171653 METAR KSEA 171653Z 19004KT 10SM FEW012 BKN150 BKN250 10/06 A3033 RMK AO2 SLP278 T01000056=
201210171553 METAR KSEA 171553Z 12004KT 10SM FEW012 BKN150 BKN250 08/04 A3031 RMK AO2 SLP272 T00780044=
201210171453 METAR KSEA 171453Z 00000KT 10SM FEW012 SCT170 SCT250 07/04 A3031 RMK AO2 PRESRR SLP273 T00670039 53005=
201210171353 METAR KSEA 171353Z 16004KT 10SM FEW012 BKN170 07/04 A3030 RMK AO2 SLP268 T00670044=
201210171253 METAR KSEA 171253Z 13003KT 10SM FEW012 07/04 A3031 RMK AO2 SLP270 T00720044=
201210171153 METAR KSEA 171153Z 14004KT 10SM FEW015 07/04 A3030 RMK AO2 SLP268 T00670044 10094 20067 51002=
201210171053 METAR KSEA 171053Z 12006KT 10SM FEW020 08/05 A3030 RMK AO2 SLP266 T00780050=
201210170953 METAR KSEA 170953Z 16005KT 10SM FEW021 08/05 A3030 RMK AO2 SLP268 T00830050=
201210170909 SPECI KSEA 170909Z 15004KT 10SM SCT021 08/06 A3030 RMK AO2=
201210170853 METAR KSEA 170853Z 16004KT 10SM BKN021 09/06 A3029 RMK AO2 SLP264 T00890056 51009=
201210170753 METAR KSEA 170753Z 16004KT 10SM OVC019 09/06 A3028 RMK AO2 SLP261 T00940061 401610083=
201210170653 METAR KSEA 170653Z 16005KT 10SM OVC015 09/06 A3028 RMK AO2 SLP260 T00890061=
201210170604 SPECI KSEA 170604Z 13005KT 10SM BKN015 09/06 A3027 RMK AO2=
201210170553 METAR KSEA 170553Z 15006KT 10SM FEW030 09/06 A3027 RMK AO2 SLP255 T00890061 10133 20089 53019=
201210170453 METAR KSEA 170453Z 20006KT 10SM FEW085 09/06 A3024 RMK AO2 SLP247 T00940061=
201210170353 METAR KSEA 170353Z 17007KT 10SM SCT085 10/06 A3022 RMK AO2 SLP239 T01000061=
201210170253 METAR KSEA 170253Z 19007KT 10SM FEW040 11/06 A3021 RMK AO2 SLP237 T01060061 53025=
201210170153 METAR KSEA 170153Z 20009KT 10SM FEW040 SCT100 11/07 A3018 RMK AO2 SLP226 T01110067=
201210170053 METAR KSEA 170053Z 22010KT 10SM FEW045 SCT100 13/07 A3016 RMK AO2 SLP218 T01280067=
201210162353 METAR KSEA 162353Z 22014KT 10SM FEW045 SCT100 13/07 A3013 RMK AO2 SLP211 T01330067 10161 20133 53016=
201210162253 METAR KSEA 162253Z 24013G18KT 10SM FEW045 SCT110 14/06 A3011 RMK AO2 SLP204 T01440061=
201210162153 METAR KSEA 162153Z 21012KT 10SM FEW044 BKN110 14/07 A3009 RMK AO2 SLP197 T01390067=
201210162053 METAR KSEA 162053Z 23012KT 10SM FEW033 16/06 A3009=
201210161953 METAR KSEA 161953Z 24013KT 10SM SCT032 15/06 A3007 RMK AO2 SLP188 T01500061=
201210161853 METAR KSEA 161853Z 24008KT 10SM FEW025 14/06 A3005 RMK AO2 SLP182 T01440056=
201210161753 METAR KSEA 161753Z 20013KT 10SM FEW025 13/06 A3003 RMK AO2 SLP175 T01330061 10133 20100 51047=
201210161653 METAR KSEA 161653Z 18010KT 10SM FEW023 13/06 A3000 RMK AO2 SLP165 T01280061=
201210161553 METAR KSEA 161553Z 18008KT 10SM FEW022 12/06 A2996 RMK AO2 SLP151 T01170061=
201210161453 METAR KSEA 161453Z 21008KT 10SM SCT020 SCT100 10/07 A2989 RMK AO2 SLP129 T01000067 53057=
201210161353 METAR KSEA 161353Z 21010KT 10SM FEW020 11/06 A2983 RMK AO2 PK WND 21027/1305 PRESRR SLP109 T01110061=
201210161253 METAR KSEA 161253Z 22017G23KT 10SM FEW019 12/07 A2977 RMK AO2 PK WND 22029/1217 SLP088 T01170072=
201210161153 METAR KSEA 161153Z 22018G29KT 10SM FEW019 12/08 A2972 RMK AO2 PK WND 19029/1151 SLP071 60000 70031 T01170078 10161 20117 51035=
201210161141 SPECI KSEA 161141Z 22020G29KT 10SM SCT019 12/08 A2972 RMK AO2 PK WND 23029/1135=
201210161131 SPECI KSEA 161131Z 22018G24KT 10SM BKN019 12/08 A2971 RMK AO2 PK WND 22028/1105=
201210161053 METAR KSEA 161053Z 22017G24KT 10SM FEW016 12/08 A2969 RMK AO2 PK WND 22029/1038 SLP061 T01220083=
201210161026 SPECI KSEA 161026Z 21014G23KT 10SM FEW016 12/08 A2968 RMK AO2=
201210160953 METAR KSEA 160953Z 20012KT 10SM BKN016 12/09 A2965 RMK AO2 PK WND 20029/0920 SLP048 T01220094=
201210160911 SPECI KSEA 160911Z 20015G23KT 10SM BKN018 13/10 A2964 RMK AO2=
201210160853 METAR KSEA 160853Z 20018G24KT 10SM SCT016 13/10 A2962 RMK AO2 PK WND 20033/0801 SLP035 60000 T01330100 53013=
201210160839 SPECI KSEA 160839Z 21014G24KT 10SM SCT016 13/11 A2962 RMK AO2 PK WND 20033/0801=
201210160809 SPECI KSEA 160809Z 21019G33KT 10SM BKN016 13/11 A2960 RMK AO2 PK WND 20033/0801=
201210160753 METAR KSEA 160753Z 20020G26KT 10SM FEW011 14/11 A2959 RMK AO2 PK WND 22028/0704 SLP025 T01390111 401720111=
201210160653 METAR KSEA 160653Z 21013G23KT 10SM FEW060 15/12 A2959 RMK AO2 PK WND 21026/0631 RAB00E15 SLP025 P0000 T01500117=
201210160604 SPECI KSEA 160604Z 20015G21KT 9SM -RA FEW009 BKN015 OVC019 16/14 A2959 RMK AO2 RAB00 P0000=
201210160553 METAR KSEA 160553Z 20014G23KT 10SM BKN009 BKN015 OVC022 16/14 A2958 RMK AO2 SLP022 60017 T01610139 10172 20150 55000=
201210160549 SPECI KSEA 160549Z 20015G23KT 10SM BKN009 BKN016 OVC022 16/14 A2958 RMK AO2=
201210160453 METAR KSEA 160453Z 20013G20KT 10SM BKN012 OVC018 16/14 A2957 RMK AO2 PK WND 21028/0409 RAE34 SLP019 P0000 T01610144=
201210160353 METAR KSEA 160353Z 21017G26KT 10SM -RA OVC014 17/14 A2957 RMK AO2 PK WND 19027/0343 SLP017 P0001 T01670144=
201210160327 SPECI KSEA 160327Z 20016G25KT 10SM -RA FEW009 OVC016 17/14 A2956 RMK AO2 P0001=
201210160253 METAR KSEA 160253Z 20014KT 10SM -RA FEW006 BKN013 OVC020 16/14 A2958 RMK AO2 SLP023 P0001 60016 T01610144 56014=
201210160234 SPECI KSEA 160234Z 18015KT 4SM -RA BR SCT006 BKN011 OVC016 16/14 A2956 RMK AO2 P0001=
201210160153 METAR KSEA 160153Z 17012KT 2SM -RA BR SCT004 BKN013 OVC024 16/14 A2958 RMK AO2 SFC VIS 4 SLP023 P0006 T01560139=
201210160131 SPECI KSEA 160131Z 16009KT 2SM -RA BR FEW005 BKN026 OVC034 15/14 A2958 RMK AO2 SFC VIS 4 P0005=
201210160117 SPECI KSEA 160117Z 17007KT 2SM -RA BR FEW007 BKN013 OVC033 15/14 A2960 RMK AO2 SFC VIS 4 P0004=
201210160104 SPECI KSEA 160104Z 15006KT 2SM -RA BR FEW007 BKN024 OVC040 15/14 A2960 RMK AO2 SFC VIS 3 P0004=
201210160053 METAR KSEA 160053Z 17005KT 2SM RA BR SCT024 BKN040 OVC065 15/14 A2961 RMK AO2 SFC VIS 3 SLP034 P0009 T01500139=
201210160043 SPECI KSEA 160043Z 15006KT 2SM RA BR BKN024 OVC030 15/13 A2961 RMK AO2 SFC VIS 4 P0007=
201210152353 METAR KSEA 152353Z 12004KT 5SM -RA BR OVC028 16/13 A2962 RMK AO2 SLP036 P0008 60014 T01560133 10161 20144 56062=
201210152253 METAR KSEA 152253Z 13006KT 5SM -RA OVC034 16/13 A2968 RMK AO2 PRESFR SLP056 P0005 T01560128=
201210152153 METAR KSEA 152153Z 12009KT 9SM -RA SCT036 BKN048 OVC070 15/12 A2973 RMK AO2 PRESFR SLP073 P0001 T01500117=
201210152053 METAR KSEA 152053Z 14006KT 7SM -RA FEW030 BKN055 OVC100 16/12 A2981 RMK AO2 RAB49 SLP099 P0000 60000 T01560117 58040=
201210151953 METAR KSEA 151953Z 15004KT 10SM FEW016 BKN035 BKN200 16/11 A2986 RMK AO2 SLP116 T01560106=
201210151853 METAR KSEA 151853Z 11006KT 10SM FEW015 BKN037 BKN250 16/11 A2988 RMK AO2 SLP124 T01560111=
201210151753 METAR KSEA 151753Z 18006KT 10SM SCT013 BKN250 14/11 A2993 RMK AO2 SLP140 T01440106 10144 20111 58012=
201210151653 METAR KSEA 151653Z 16005KT 10SM FEW010 SCT015 BKN250 13/10 A2995 RMK AO2 SLP147 T01330100=
201210151626 SPECI KSEA 151626Z 21007KT 10SM FEW010 BKN015 BKN200 12/09 A2996 RMK AO2=
201210151606 SPECI KSEA 151606Z 22010KT 10SM FEW010 SCT015 BKN200 12/09 A2997 RMK AO2=
201210151553 METAR KSEA 151553Z 20011KT 10SM FEW009 BKN013 BKN200 12/10 A2997 RMK AO2 SLP154 T01220100=
201210151453 METAR KSEA 151453Z 20008KT 10SM FEW008 BKN011 BKN200 12/09 A2996 RMK AO2 SLP153 T01170094 51016=
201210151440 SPECI KSEA 151440Z 20006KT 10SM FEW008 BKN011 BKN200 12/09 A2996 RMK AO2=
201210151353 METAR KSEA 151353Z 24007KT 10SM BKN008 OVC012 12/09 A2996 RMK AO2 SLP150 T01170094=
201210151314 SPECI KSEA 151314Z 23010KT 10SM BKN007 OVC012 12/11 A2994 RMK AO2=
201210151302 SPECI KSEA 151302Z 23008KT 10SM SCT008 BKN012 12/11 A2993 RMK AO2=
201210151253 METAR KSEA 151253Z 22009KT 10SM BKN010 BKN045 13/11 A2993 RMK AO2 SLP140 T01280106=
201210151218 SPECI KSEA 151218Z 24006KT 10SM BKN010 BKN015 OVC045 13/11 A2992 RMK AO2=
201210151153 METAR KSEA 151153Z 26006KT 10SM BKN005 OVC014 13/12 A2992 RMK AO2 SLP136 60005 70065 T01330117 10150 20133 51007=
201210151137 SPECI KSEA 151137Z 26004KT 10SM BKN005 OVC014 13/12 A2991 RMK AO2=
201210151053 METAR KSEA 151053Z 24007KT 10SM BKN003 OVC010 14/12 A2991 RMK AO2 SLP133 T01390122=
201210151027 SPECI KSEA 151027Z 24006KT 10SM BKN003 OVC010 14/13 A2990 RMK AO2=
201210150953 METAR KSEA 150953Z 24005KT 7SM BKN005 OVC010 14/13 A2990 RMK AO2 RAE0859 SLP132 P0000 T01390128=
201210150946 SPECI KSEA 150946Z 22006KT 7SM BKN005 OVC010 14/13 A2990 RMK AO2 RAE0859 P0000=
201210150933 SPECI KSEA 150933Z 22007KT 7SM SCT005 OVC010 14/13 A2990 RMK AO2 RAE0859 P0000=
201210150853 METAR KSEA 150853Z 20009KT 3SM -RA BR SCT002 OVC035 14/13 A2989 RMK AO2 SLP128 FG BANK S P0001 60005 T01390128 57001=
201210150848 SPECI KSEA 150848Z 20010KT 3SM -RA BR SCT002 OVC035 14/13 A2990 RMK AO2 FG BANK S P0001=
201210150835 SPECI KSEA 150835Z 19012KT 2SM -RA BR BKN002 OVC008 14/13 A2989 RMK AO2 P0001=
201210150815 SPECI KSEA 150815Z 20009KT 1SM R16L/P6000FT BR BKN004 OVC010 14/13 A2990 RMK AO2 RAE06 P0001=
201210150753 METAR KSEA 150753Z 20006KT 1SM R16L/P6000FT -RA BR BKN005 OVC012 14/13 A2990 RMK AO2 SLP129 P0001 T01440133 401780133=
201210150711 SPECI KSEA 150711Z 20006KT 7SM -RA SCT009 BKN011 OVC020 14/13 A2990 RMK AO2 P0001=
201210150653 METAR KSEA 150653Z 23006KT 10SM -RA BKN011 OVC020 15/13 A2990 RMK AO2 SLP129 P0003 T01500128=
201210150616 SPECI KSEA 150616Z 22006KT 10SM -RA BKN013 BKN037 OVC050 15/13 A2990 RMK AO2 P0001=
201210150553 METAR KSEA 150553Z 18009KT 7SM -RA SCT015 BKN035 OVC085 14/13 A2990 RMK AO2 RAE36B52 SLP130 P0000 60032 T01440128 10150 20144 50001=
201210150547 SPECI KSEA 150547Z 17011KT 7SM SCT015 BKN035 OVC085 14/13 A2989 RMK AO2 RAE36 P0000=
201210150529 SPECI KSEA 150529Z 19007KT 2SM -RA BR FEW009 BKN015 OVC025 14/13 A2990 RMK AO2 P0000=
201210150453 METAR KSEA 150453Z 18008KT 9SM -RA FEW014 BKN021 OVC034 15/13 A2991 RMK AO2 SLP132 P0001 T01500133=
201210150353 METAR KSEA 150353Z 17008KT 4SM -RA BR FEW013 OVC025 15/13 A2989 RMK AO2 SLP128 P0001 T01500133=
201210150253 METAR KSEA 150253Z 16007KT 10SM -RA BKN025 OVC034 15/13 A2990 RMK AO2 SLP130 P0005 60030 T01500133 55009=
201210150250 SPECI KSEA 150250Z 15011KT 10SM -RA BKN025 OVC034 15/13 A2990 RMK AO2 P0005=
201210150153 METAR KSEA 150153Z 14009KT 4SM -RA BR FEW008 OVC033 15/13 A2991 RMK AO2 SLP133 P0009 T01500133=
201210150053 METAR KSEA 150053Z 17006KT 2SM -RA BR SCT017 BKN028 OVC050 15/13 A2993 RMK AO2 SLP139 P0016 T01500133=
201210150037 SPECI KSEA 150037Z 16005KT 2SM RA BR FEW005 BKN028 OVC044 15/13 A2992 RMK AO2 P0013=
201210150023 SPECI KSEA 150023Z 20005KT 2SM RA BR BKN009 BKN031 OVC075 15/13 A2993 RMK AO2 P0008=
201210142353 METAR KSEA 142353Z 18005KT 4SM -RA BR FEW043 BKN055 OVC075 16/14 A2994 RMK AO2 SLP143 P0009 60028 T01560139 10178 20150 56010=
201210142344 SPECI KSEA 142344Z 17005KT 8SM -RA FEW039 BKN045 OVC060 16/14 A2994 RMK AO2 P0008=
201210142253 METAR KSEA 142253Z 20004KT 3SM RA BR BKN024 BKN030 OVC036 16/13 A2995 RMK AO2 SLP146 P0007 T01560133=
201210142211 SPECI KSEA 142211Z 18006KT 5SM RA OVC028 16/13 A2995 RMK AO2 P0002=
201210142153 METAR KSEA 142153Z 17007KT 6SM RA BKN032 OVC042 16/13 A2996 RMK AO2 SLP149 P0009 T01610133=
201210142053 METAR KSEA 142053Z 20010KT 8SM -RA BKN029 BKN035 OVC045 17/13 A2997 RMK AO2 SLP153 P0003 60003 T01670128 58005=
201210141953 METAR KSEA 141953Z 21012KT 10SM -RA BKN029 OVC036 17/12 A2998 RMK AO2 RAB37 SLP157 P0000 T01720122=
201210141926 SPECI KSEA 141926Z 21013KT 10SM OVC029 17/12 A2997 RMK AO2=
201210141853 METAR KSEA 141853Z 21014KT 10SM OVC031 18/12 A2998 RMK AO2 SLP158 T01780122=
201210141753 METAR KSEA 141753Z 20006KT 10SM OVC033 17/13 A2998 RMK AO2 RAB35E52 SLP158 P0000 60000 T01670128 10167 20133 55001=
201210141653 METAR KSEA 141653Z 14005KT 10SM OVC037 16/12 A2998 RMK AO2 SLP156 T01610122=
201210141553 METAR KSEA 141553Z 16005KT 10SM OVC039 16/12 A2998 RMK AO2 SLP157 T01560122=
201210141453 METAR KSEA 141453Z 14008KT 10SM BKN043 BKN050 OVC150 16/12 A2999 RMK AO2 SLP159 T01560122 58019=
201210141353 METAR KSEA 141353Z 15003KT 10SM BKN045 OVC055 14/12 A3002 RMK AO2 SLP171 T01440122=
201210141253 METAR KSEA 141253Z 00000KT 10SM BKN046 BKN070 14/12 A3003 RMK AO2 SLP175 T01390122=
201210141153 METAR KSEA 141153Z 17003KT 10SM BKN035 BKN045 14/12 A3004 RMK AO2 SLP178 60000 70019 T01440122 10150 20144 58015=
201210141053 METAR KSEA 141053Z 18005KT 10SM OVC033 14/12 A3006 RMK AO2 SLP186 T01440122=
201210140953 METAR KSEA 140953Z 18005KT 10SM OVC035 14/12 A3008 RMK AO2 RAB00E35 SLP192 P0000 T01440122=
201210140853 METAR KSEA 140853Z 18005KT 10SM OVC037 15/12 A3009 RMK AO2 SLP193 60000 T01500122 58010=
201210140753 METAR KSEA 140753Z 20004KT 10SM OVC035 15/12 A3012 RMK AO2 SLP204 T01500122 401560122=
201210140653 METAR KSEA 140653Z 17006KT 10SM OVC033 14/13 A3012 RMK AO2 RAB19E31 SLP206 P0000 T01440128=
201210140626 SPECI KSEA 140626Z 16006KT 10SM -RA OVC033 14/13 A3012 RMK AO2 RAB19 P0000=
201210140553 METAR KSEA 140553Z 18008KT 10SM FEW010 BKN028 OVC035 14/13 A3012 RMK AO2 RAB18E29 SLP204 P0001 60007 T01440128 10156 20144 58006=
201210140453 METAR KSEA 140453Z 18007KT 10SM FEW010 BKN023 OVC035 14/13 A3012 RMK AO2 RAE38 SLP205 P0003 T01440128=
201210140411 SPECI KSEA 140411Z 19007KT 10SM -RA BKN027 BKN036 OVC065 14/13 A3013 RMK AO2 P0001=
201210140353 METAR KSEA 140353Z 20008KT 8SM -RA FEW031 SCT046 OVC070 14/13 A3014 RMK AO2 RAB0258 SLP213 P0003 T01440128=
201210140253 METAR KSEA 140253Z 20005KT 10SM OVC018 14/12 A3013 RMK AO2 RAB20E41 SLP210 P0000 60000 T01440122 53001=
201210140153 METAR KSEA 140153Z 22007KT 10SM OVC020 15/12 A3013 RMK AO2 SLP207 T01500122=
201210140053 METAR KSEA 140053Z 20010KT 10SM OVC018 16/13 A3013 RMK AO2 RAB15E25 SLP207 P0000 T01560128=
201210132353 METAR KSEA 132353Z 20011KT 10SM FEW015 BKN025 OVC040 16/13 A3013 RMK AO2 RAB2255E14B31E40 SLP208 P0000 60005 T01560128 10156 20139 58001=
201210132309 SPECI KSEA 132309Z 18010KT 10SM -RA BKN019 OVC043 16/13 A3013 RMK AO2 RAB2255 P0000=
201210132253 METAR KSEA 132253Z 18010KT 10SM FEW019 BKN035 OVC043 16/13 A3013 RMK AO2 RAB03E32 SLP209 P0000 T01560128=
201210132153 METAR KSEA 132153Z 19010KT 10SM FEW020 BKN037 OVC050 15/13 A3014 RMK AO2 RAE41 SLP211 P0005 T01500128=
201210132144 SPECI KSEA 132144Z 18008KT 10SM SCT023 BKN050 OVC090 15/13 A3014 RMK AO2 RAE41 P0005=
201210132101 SPECI KSEA 132101Z 19011KT 4SM RA BKN021 OVC028 15/12 A3013=
201210132053 METAR KSEA 132053Z 19009KT 8SM -RA BKN021 OVC027 15/12 A3013 RMK AO2 RAB41 SLP210 P0000 60000 T01500122 57005=
201210131953 METAR KSEA 131953Z 18009KT 10SM BKN017 BKN023 OVC039 15/12 A3014 RMK AO2 SLP212 T01500122=
201210131853 METAR KSEA 131853Z 17009KT 10SM BKN019 OVC025 14/12 A3014 RMK AO2 RAB1756E17 SLP213 P0000 T01440122=
201210131753 METAR KSEA 131753Z 17008KT 10SM OVC024 14/12 A3015 RMK AO2 RAE41 SLP215 P0001 60007 T01390122 10139 20128 51013=
201210131742 SPECI KSEA 131742Z 17007KT 10SM BKN024 OVC030 14/12 A3014 RMK AO2 RAE41 P0001=
201210131653 METAR KSEA 131653Z 18007KT 2SM -RA BR OVC021 13/12 A3014 RMK AO2 SFC VIS 5 SLP212 P0002 T01330117=
201210131644 SPECI KSEA 131644Z 19006KT 2SM RA BR BKN021 OVC033 13/12 A3014 RMK AO2 SFC VIS 4 P0001=
201210131553 METAR KSEA 131553Z 19004KT 9SM -RA SCT013 BKN019 OVC026 13/11 A3012 RMK AO2 SLP206 P0000 T01330111=
201210131519 SPECI KSEA 131519Z 19003KT 10SM -RA BKN013 BKN027 OVC050 13/11 A3011 RMK AO2 P0000=
201210131453 METAR KSEA 131453Z 20003KT 3SM -RA SCT015 BKN022 OVC028 13/11 A3011 RMK AO2 SFC VIS 10 RAB1359 SLP202 P0004 60004 T01280111 53009=
201210131430 SPECI KSEA 131430Z 19004KT 3SM RA BR FEW015 BKN022 OVC028 13/11 A3010 RMK AO2 SFC VIS 4 RAB1359 P0002=
201210131353 METAR KSEA 131353Z 18010KT 10SM FEW017 BKN024 BKN050 13/11 A3009 RMK AO2 SLP197 T01330106=
201210131253 METAR KSEA 131253Z 20009KT 10SM SCT015 BKN085 13/10 A3008 RMK AO2 SLP193 T01330100=
201210131251 SPECI KSEA 131251Z 20010KT 10SM SCT015 BKN085 13/10 A3008 RMK AO2=
201210131153 METAR KSEA 131153Z 22010KT 10SM OVC015 13/10 A3008 RMK AO2 SLP192 70008 T01280100 10128 20117 53011=
201210131053 METAR KSEA 131053Z 21008KT 10SM OVC016 13/09 A3007 RMK AO2 SLP187 T01280094=
201210130953 METAR KSEA 130953Z 21006KT 10SM OVC016 13/09 A3005 RMK AO2 SLP184 T01280094=
201210130853 METAR KSEA 130853Z 21006KT 10SM OVC020 13/09 A3005 RMK AO2 SLP181 T01280094 53017=
201210130753 METAR KSEA 130753Z 20008KT 10SM OVC018 13/10 A3002 RMK AO2 SLP171 T01280100 401390089=
201210130653 METAR KSEA 130653Z 21010KT 10SM SCT009 OVC023 12/10 A3000 RMK AO2 SLP164 T01170100=
201210130626 SPECI KSEA 130626Z 20012KT 10SM FEW009 BKN014 OVC021 12/10 A3000 RMK AO2=
201210130553 METAR KSEA 130553Z 21008KT 10SM OVC021 12/10 A3000 RMK AO2 SLP164 60005 T01170100 10133 20117 53015=
201210130453 METAR KSEA 130453Z 20008KT 10SM OVC025 12/10 A2997 RMK AO2 RAE33 SLP154 P0002 T01170100=
201210130353 METAR KSEA 130353Z 22013G18KT 4SM RA OVC024 12/09 A2997 RMK AO2 RAB07 SLP153 P0003 T01220094=
201210130253 METAR KSEA 130253Z 23009KT 10SM OVC024 13/09 A2995 RMK AO2 SLP149 T01280089 53010=
201210130153 METAR KSEA 130153Z 22010KT 10SM OVC024 13/09 A2994 RMK AO2 SLP143 T01280089=
201210130053 METAR KSEA 130053Z 21013KT 10SM OVC024 13/09 A2992 RMK AO2 SLP139 T01280094=
201210122353 METAR KSEA 122353Z 22010KT 10SM FEW017 OVC024 13/09 A2992 RMK AO2 SLP138 60001 T01330094 10139 20117 55000=
201210122253 METAR KSEA 122253Z 22011KT 10SM FEW008 OVC015 13/10 A2992 RMK AO2 SLP138 T01280100=
201210122223 SPECI KSEA 122223Z 21011KT 10SM SCT007 OVC015 13/11 A2992 RMK AO2=
201210122153 METAR KSEA 122153Z 20010KT 5SM BR FEW007 BKN011 OVC019 13/11 A2992 RMK AO2 SLP137 T01280106=
201210122131 SPECI KSEA 122131Z 19010KT 10SM SCT008 BKN019 OVC029 13/11 A2992 RMK AO2=
201210122053 METAR KSEA 122053Z 19011KT 10SM BKN006 BKN021 OVC029 13/11 A2992 RMK AO2 RAE02 SLP138 P0000 60001 T01330111 50002=
201210122036 SPECI KSEA 122036Z 19010KT 8SM BKN004 OVC009 12/11 A2992 RMK AO2 RAE02 P0000=
201210122021 SPECI KSEA 122021Z 20009KT 2SM BR BKN004 OVC009 12/11 A2992 RMK AO2 SFC VIS 6 RAE02 P0000=
201210121953 METAR KSEA 121953Z 20009KT 2SM -RA BR SCT008 BKN016 OVC027 12/10 A2993 RMK AO2 SFC VIS 4 RAB08 SLP143 P0001 T01170100=
201210121929 SPECI KSEA 121929Z 21009KT 3SM -RA BKN016 OVC032 12/09 A2994 RMK AO2 SFC VIS 7 RAB08 P0000=
201210121853 METAR KSEA 121853Z 22007KT 10SM FEW009 BKN016 OVC032 12/09 A2993 RMK AO2 SLP143 T01220089=
201210121753 METAR KSEA 121753Z 21007KT 10SM FEW009 BKN025 OVC041 12/09 A2992 RMK AO2 SLP137 60002 T01170094 10122 20094 51012=
201210121742 SPECI KSEA 121742Z 20006KT 10SM FEW009 BKN025 OVC041 12/09 A2991 RMK AO2=
201210121653 METAR KSEA 121653Z 18006KT 8SM FEW009 BKN023 OVC041 11/09 A2990 RMK AO2 SLP134 T01110089=
201210121553 METAR KSEA 121553Z 18008KT 7SM SCT009 BKN019 OVC030 11/09 A2989 RMK AO2 RAE23 SLP129 P0000 T01060089=
201210121453 METAR KSEA 121453Z 15008KT 6SM -RA BR FEW004 BKN030 OVC050 10/08 A2988 RMK AO2 SLP124 P0002 60002 T01000083 53003=
201210121353 METAR KSEA 121353Z 15012KT 8SM -RA FEW004 BKN030 OVC070 10/08 A2986 RMK AO2 RAE21B46 SLP119 P0000 T01000078=
201210121313 SPECI KSEA 121313Z 16009KT 6SM -RA BR FEW004 BKN022 OVC028 10/08 A2986 RMK AO2 P0000=
201210121309 SPECI KSEA 121309Z 16010KT 1/2SM -RA BR SCT004 BKN022 OVC028 10/08 A2987 RMK AO2 SFC VIS 5 P0000=
201210121253 METAR KSEA 121253Z 13011KT 1/2SM -RA BR BKN004 BKN013 OVC022 09/08 A2986 RMK AO2 SFC VIS 4 RAB52 SLP119 P0000 T00940083=
201210121153 METAR KSEA 121153Z 18006KT 1/2SM R16L/P6000FT BR OVC002 09/08 A2987 RMK AO2 SFC VIS 3/4 SLP121 T00940083 10100 20072 51010=
201210121140 SPECI KSEA 121140Z 17006KT 1/2SM R16L/3000VP6000FT FG OVC002 09/08 A2987 RMK AO2=
201210121107 SPECI KSEA 121107Z 16005KT 1/2SM R16L/P6000FT BR OVC005 10/08 A2986 RMK AO2 SFC VIS 3/4=
201210121053 METAR KSEA 121053Z 19006KT 7SM SCT007 OVC010 10/08 A2986 RMK AO2 SLP119 T01000078=
201210121031 SPECI KSEA 121031Z 21008KT 10SM SCT004 OVC010 10/07 A2986 RMK AO2=
201210120953 METAR KSEA 120953Z 22006KT 7SM BKN004 OVC010 10/08 A2985 RMK AO2 SLP115 T01000078=
201210120933 SPECI KSEA 120933Z 21008KT 7SM OVC004 10/08 A2985 RMK AO2=
201210120853 METAR KSEA 120853Z 21006KT 1SM R16L/P6000FT BR OVC002 09/08 A2984 RMK AO2 SLP111 T00940078 53004=
201210120753 METAR KSEA 120753Z 25005KT 3/4SM R16L/P6000FT BR OVC001 09/08 A2983 RMK AO2 SLP110 T00890078 401390072=
201210120743 SPECI KSEA 120743Z 27005KT 1SM R16L/P6000FT BR OVC004 09/07 A2983 RMK AO2=
201210120706 SPECI KSEA 120706Z 23003KT 3/4SM R16L/1600VP6000FT BR VV003 08/07 A2983 RMK AO2=
201210120657 SPECI KSEA 120657Z 00000KT 1/2SM R16L/0700V1600FT FG VV002 08/07 A2983 RMK AO2=
201210120653 METAR KSEA 120653Z 25003KT 1SM R16L/0800V5000FT BR SCT002 08/06 A2983 RMK AO2 SLP109 FG BANK S AND N T00780061=
201210120646 SPECI KSEA 120646Z 00000KT 2SM R16L/1400VP6000FT BR SCT002 07/05 A2983 RMK AO2=
201210120643 SPECI KSEA 120643Z 00000KT 4SM R16L/1800VP6000FT BR FEW004 07/05 A2983 RMK AO2=
201210120632 SPECI KSEA 120632Z 00000KT 5SM BR CLR 08/06 A2982 RMK AO2=
201210120628 SPECI KSEA 120628Z 00000KT 1 1/4SM BR CLR 08/06 A2982 RMK AO2=
201210120553 METAR KSEA 120553Z 00000KT 6SM BR CLR 08/06 A2983 RMK AO2 SLP108 T00830061 10139 20083 53004=
201210120453 METAR KSEA 120453Z 00000KT 7SM CLR 09/07 A2982 RMK AO2 SLP104 T00890067=
201210120353 METAR KSEA 120353Z 00000KT 8SM CLR 11/07 A2981 RMK AO2 SLP102 T01060072=
201210120253 METAR KSEA 120253Z 12003KT 8SM CLR 12/07 A2982 RMK AO2 SLP105 T01170072 56012=
201210120153 METAR KSEA 120153Z 00000KT 8SM FEW250 12/07 A2983 RMK AO2 SLP109 T01170072=
201210120053 METAR KSEA 120053Z 00000KT 9SM SCT250 13/08 A2984 RMK AO2 SLP110 T01330078=
201210112353 METAR KSEA 112353Z 27003KT 9SM SCT250 13/07 A2985 RMK AO2 SLP116 T01330072 10139 20100 56021=
201210112253 METAR KSEA 112253Z 27004KT 9SM FEW015 SCT250 13/07 A2987 RMK AO2 SLP121 T01330072=
201210112153 METAR KSEA 112153Z 27007KT 9SM FEW015 SCT250 13/07 A2990 RMK AO2 SLP130 T01280072=
201210112053 METAR KSEA 112053Z 00000KT 7SM FEW012 SCT250 13/07 A2992 RMK AO2 SLP137 T01280072 58018=
201210112034 SPECI KSEA 112034Z VRB03KT 8SM SCT012 SCT250 13/07 A2993 RMK AO2=
201210112013 SPECI KSEA 112013Z 25003KT 7SM BKN010 12/07 A2994 RMK AO2=
201210111953 METAR KSEA 111953Z 22003KT 6SM HZ BKN009 11/07 A2995 RMK AO2 SLP147 T01110072=
201210111853 METAR KSEA 111853Z 26003KT 6SM HZ OVC009 11/07 A2996 RMK AO2 SLP152 T01060067=
201210111753 METAR KSEA 111753Z 29003KT 6SM HZ OVC008 10/07 A2997 RMK AO2 SLP156 T01000067 10106 20094 58001=
201210111653 METAR KSEA 111653Z 00000KT 6SM HZ OVC006 10/07 A2998 RMK AO2 SLP160 T01000067=
201210111553 METAR KSEA 111553Z 00000KT 6SM BR OVC006 09/07 A2998 RMK AO2 SLP159 T00940072=
201210111453 METAR KSEA 111453Z 00000KT 6SM BR OVC006 09/07 A2998 RMK AO2 SLP158 T00940072 55002=
201210111353 METAR KSEA 111353Z VRB04KT 7SM OVC006 09/07 A2997 RMK AO2 SLP157 T00940072=
201210111253 METAR KSEA 111253Z VRB04KT 7SM OVC006 10/07 A2998 RMK AO2 SLP159 T01000072=
201210111153 METAR KSEA 111153Z 06005KT 7SM OVC006 10/07 A2998 RMK AO2 SLP160 T01000072 10117 20100 58004=
201210111053 METAR KSEA 111053Z 05005KT 7SM OVC006 10/07 A2999 RMK AO2 SLP160 T01000072=
201210110953 METAR KSEA 110953Z 04006KT 7SM OVC006 10/07 A2999 RMK AO2 SLP162 T01000072=
201210110853 METAR KSEA 110853Z 02003KT 7SM OVC008 11/07 A2999 RMK AO2 SLP164 T01060072 56002=
201210110851 SPECI KSEA 110851Z 02003KT 7SM OVC008 11/07 A2999 RMK AO2=
201210110753 METAR KSEA 110753Z 03005KT 8SM OVC012 11/07 A2999 RMK AO2 SLP164 T01110072 401220083=
201210110653 METAR KSEA 110653Z 03006KT 8SM OVC012 12/08 A3000 RMK AO2 SLP165 T01170078=
201210110553 METAR KSEA 110553Z 34003KT 9SM OVC012 11/08 A3000 RMK AO2 SLP167 T01110078 10117 20111 50002=
201210110453 METAR KSEA 110453Z 27003KT 9SM OVC014 11/08 A3000 RMK AO2 SLP168 T01110083=
201210110353 METAR KSEA 110353Z 28004KT 9SM OVC014 11/08 A3000 RMK AO2 SLP166 T01110078=
201210110253 METAR KSEA 110253Z 30003KT 7SM OVC014 11/08 A3000 RMK AO2 SLP165 T01110083 55001=
201210110153 METAR KSEA 110153Z 30003KT 6SM HZ OVC014 11/08 A2999 RMK AO2 SLP163 T01110078=
201210110112 SPECI KSEA 110112Z 28003KT 5SM HZ OVC012 11/08 A2999 RMK AO2=
201210110053 METAR KSEA 110053Z 28003KT 2 1/2SM HZ OVC012 11/08 A2999=
201210102353 METAR KSEA 102353Z 27004KT 2 1/2SM HZ OVC012 11/08 A3000 RMK AO2 SFC VIS 5 SLP167 T01110078 10122 20094 57003=
201210102253 METAR KSEA 102253Z 29005KT 2 1/2SM HZ OVC012 12/08 A3000 RMK AO2 SFC VIS 5 SLP167 T01170078=
201210102153 METAR KSEA 102153Z 28005KT 2 1/2SM HZ OVC010 12/08 A3001 RMK AO2 SFC VIS 3 SLP169 T01170078=
201210102137 SPECI KSEA 102137Z 27003KT 2 1/2SM HZ OVC008 12/08 A3001 RMK AO2 SFC VIS 3=
201210102053 METAR KSEA 102053Z 00000KT 1 1/2SM HZ OVC008 11/08 A3002 RMK AO2 SFC VIS 2 SLP172 T01060078 58009=
201210101953 METAR KSEA 101953Z 00000KT 1 1/2SM BR OVC007 10/08 A3004 RMK AO2 SFC VIS 2 SLP178 T01000078=
201210101921 SPECI KSEA 101921Z 29003KT 1 1/2SM BR OVC005 10/08 A3004 RMK AO2 SFC VIS 2=
201210101853 METAR KSEA 101853Z 00000KT 1 1/2SM BR OVC003 10/08 A3004 RMK AO2 SLP181 T01000078=
201210101844 SPECI KSEA 101844Z 00000KT 1 1/2SM BR OVC003 09/08 A3004 RMK AO2=
201210101753 METAR KSEA 101753Z 00000KT 1/2SM R16L/P6000FT BR OVC002 09/08 A3004 RMK AO2 SFC VIS 3/4 SLP181 T00940078 10094 20089 51003=
201210101653 METAR KSEA 101653Z 01004KT 1/4SM R16L/4500VP6000FT FG VV001 09/08 A3004 RMK AO2 SLP181 T00890078=
201210101601 SPECI KSEA 101601Z 06004KT 1/4SM R16L/1200V2000FT FG VV001 09/08 A3004 RMK AO2=
201210101553 METAR KSEA 101553Z 05003KT 1/4SM R16L/1600V4500FT FG VV001 09/08 A3004 RMK AO2 SLP181 T00940078=
201210101453 METAR KSEA 101453Z 02003KT 1/4SM R16L/1000V2000FT FG VV001 09/08 A3004 RMK AO2 SLP179 T00890078 53003=
201210101410 SPECI KSEA 101410Z 00000KT 1/4SM R16L/1400V1800FT FG VV001 09/08 A3003 RMK AO2=
201210101400 SPECI KSEA 101400Z 06003KT 1/4SM R16L/1200V2400FT FG VV001 09/08 A3003 RMK AO2=
201210101353 METAR KSEA 101353Z 08003KT 1/4SM R16L/1200V1800FT FG VV001 09/08 A3003 RMK AO2 SLP175 T00890078=
201210101312 SPECI KSEA 101312Z 09003KT 1/4SM R16L/1200V3500FT FG VV001 09/08 A3002 RMK AO2=
201210101253 METAR KSEA 101253Z 08003KT 1/4SM R16L/1000FT FG VV001 09/08 A3002 RMK AO2 SLP172 T00890078=
201210101153 METAR KSEA 101153Z 00000KT 1/4SM R16L/1200V1600FT FG VV001 09/08 A3003 RMK AO2 SLP175 T00890083 10106 20083 58001=
201210101053 METAR KSEA 101053Z 00000KT 1/4SM R16L/1000V1200FT FG VV001 09/08 A3003 RMK AO2 SLP175 T00940083=
201210100953 METAR KSEA 100953Z 01004KT 1/4SM R16L/1000V1600FT FG VV001 10/09 A3003 RMK AO2 SLP175 T01000089=
201210100940 SPECI KSEA 100940Z 36005KT 1/4SM R16L/1400VP6000FT FG VV001 10/09 A3004 RMK AO2=
201210100907 SPECI KSEA 100907Z 00000KT 3/4SM R16L/P6000FT BR BKN002 09/07 A3004 RMK AO2=
201210100853 METAR KSEA 100853Z 00000KT 3SM BR BKN004 09/07 A3004 RMK AO2 SLP179 T00890067 56001=
201210100825 SPECI KSEA 100825Z 00000KT 4SM BR SCT004 09/07 A3004 RMK AO2=
201210100753 METAR KSEA 100753Z 00000KT 4SM BR BKN004 09/07 A3004 RMK AO2 SLP179 T00940072 401610089=
201210100732 SPECI KSEA 100732Z 00000KT 4SM BR FEW004 09/07 A3004 RMK AO2=
201210100653 METAR KSEA 100653Z 32003KT 6SM BR CLR 09/07 A3004 RMK AO2 SLP179 T00890072=
201210100553 METAR KSEA 100553Z 00000KT 7SM CLR 11/07 A3004 RMK AO2 SLP180 T01060072 10150 20100 56002=
201210100453 METAR KSEA 100453Z 35003KT 8SM CLR 11/08 A3004 RMK AO2 SLP180 T01060078=
201210100353 METAR KSEA 100353Z 36003KT 10SM CLR 11/08 A3004 RMK AO2 SLP180 T01060078=
201210100253 METAR KSEA 100253Z 00000KT 10SM CLR 12/08 A3005 RMK AO2 SLP181 T01170078 56006=
201210100153 METAR KSEA 100153Z 00000KT 10SM CLR 13/08 A3005 RMK AO2 SLP182 T01280078=
201210100053 METAR KSEA 100053Z 28003KT 10SM CLR 14/08 A3006 RMK AO2 SLP185 T01390083=
201210092353 METAR KSEA 092353Z 28005KT 10SM CLR 15/08 A3007 RMK AO2 SLP187 T01500078 10161 20106 56014=
201210092253 METAR KSEA 092253Z 29004KT 10SM CLR 16/08 A3008 RMK AO2 SLP192 T01560078=
201210092153 METAR KSEA 092153Z 00000KT 10SM CLR 15/07 A3009 RMK AO2 SLP197 T01500072=
201210092114 SPECI KSEA 092114Z 30004KT 10SM SCT013 13/07 A3010 RMK AO2=
201210092053 METAR KSEA 092053Z 00000KT 10SM BKN013 12/07 A3011 RMK AO2 SLP202 T01220072 58009=
201210091953 METAR KSEA 091953Z 26005KT 10SM OVC011 12/07 A3012 RMK AO2 SLP206 T01170072=
201210091853 METAR KSEA 091853Z 22004KT 10SM OVC010 11/07 A3013 RMK AO2 SLP211 T01110072=
201210091846 SPECI KSEA 091846Z 20003KT 10SM OVC010 11/07 A3013 RMK AO2=
201210091753 METAR KSEA 091753Z 00000KT 10SM OVC009 11/07 A3014 RMK AO2 SLP212 T01060072 10111 20100 50007=
201210091653 METAR KSEA 091653Z 00000KT 10SM OVC008 11/07 A3014 RMK AO2 SLP213 T01060072=
201210091553 METAR KSEA 091553Z 19005KT 10SM OVC008 10/07 A3013 RMK AO2 SLP209 T01000072=
201210091453 METAR KSEA 091453Z 21004KT 10SM OVC008 10/08 A3012 RMK AO2 SLP204 T01000078 51008=
201210091353 METAR KSEA 091353Z 20007KT 9SM OVC008 10/08 A3011 RMK AO2 SLP202 T01000078 $=
201210091253 METAR KSEA 091253Z 13005KT 8SM OVC007 10/07 A3010 RMK AO2 SLP199 T01000072 $=
201210091153 METAR KSEA 091153Z 16007KT 8SM OVC005 10/08 A3009 RMK AO2 SLP196 T01000078 10106 20094 51006 $=
201210091053 METAR KSEA 091053Z 16006KT 10SM OVC005 10/08 A3009 RMK AO2 SLP195 T01000083 $=
201210090953 METAR KSEA 090953Z 19005KT 10SM OVC005 11/08 A3008=
201210090853 METAR KSEA 090853Z 17004KT 10SM BKN007 09/08 A3007 RMK AO2 SLP189 T00940078 53011 $=
201210090825 SPECI KSEA 090825Z 18003KT 10SM FEW007 09/08 A3007 RMK AO2 $=
201210090753 METAR KSEA 090753Z 19004KT 10SM CLR 10/08 A3006 RMK AO2 SLP186 T01000078 402110078 $=
201210090653 METAR KSEA 090653Z 16004KT 10SM CLR 10/08 A3005 RMK AO2 SLP183 T01000078 $=
201210090553 METAR KSEA 090553Z 21004KT 10SM CLR 11/08 A3004 RMK AO2 SLP179 T01060078 10206 20106 53021 $=
201210090453 METAR KSEA 090453Z 23003KT 10SM CLR 12/08 A3002 RMK AO2 SLP172 T01170078 $=
201210090353 METAR KSEA 090353Z 23005KT 10SM CLR 13/08 A3000 RMK AO2 SLP164 T01330078 $=
201210090253 METAR KSEA 090253Z 24004KT 10SM CLR 15/07 A2998 RMK AO2 SLP158 T01500072 53006 $=
201210090153 METAR KSEA 090153Z 23005KT 10SM SCT250 16/07 A2997 RMK AO2 SLP153 T01610067 $=
201210090053 METAR KSEA 090053Z 21006KT 10SM FEW250 19/06 A2996=
201210082353 METAR KSEA 082353Z 19006KT 10SM FEW250 21/05 A2996 RMK AO2 SLP150 T02060050 10211 20144 56003 $=
201210082253 METAR KSEA 082253Z 00000KT 10SM SCT250 21/05 A2996 RMK AO2 SLP151 T02060050 $=
201210082153 METAR KSEA 082153Z 00000KT 10SM SCT250 21/06 A2996 RMK AO2 SLP151 T02060056 $=
201210082053 METAR KSEA 082053Z 21005KT 10SM SCT250 19/06 A2997 RMK AO2 SLP153 T01890056 58003 $=
201210081953 METAR KSEA 081953Z 23005KT 10SM SCT250 18/06 A2998 RMK AO2 SLP157 T01780056 $=
201210081853 METAR KSEA 081853Z 20006KT 10SM SCT250 16/06 A2998 RMK AO2 SLP158 T01610056=
201210081753 METAR KSEA 081753Z 20007KT 10SM SCT250 15/04 A2998 RMK AO2 SLP157 T01500044 10150 20078 51006=
201210081653 METAR KSEA 081653Z 14004KT 10SM FEW250 13/03 A2998 RMK AO2 SLP157 T01330033=
201210081553 METAR KSEA 081553Z 16005KT 10SM FEW250 12/03 A2997 RMK AO2 SLP156 T01220033=
201210081453 METAR KSEA 081453Z 13004KT 10SM FEW250 08/03 A2996 RMK AO2 SLP151 T00830033 53005=
201210081353 METAR KSEA 081353Z 14003KT 10SM FEW250 09/03 A2995 RMK AO2 SLP148 T00890033=
201210081253 METAR KSEA 081253Z 14003KT 10SM CLR 09/04 A2994 RMK AO2 SLP145 T00890039=
201210081153 METAR KSEA 081153Z 00000KT 10SM CLR 09/03 A2994 RMK AO2 SLP145 T00940033 10150 20083 53001=
201210081053 METAR KSEA 081053Z 16003KT 10SM CLR 10/04 A2994 RMK AO2 SLP144 T01000044=
201210080953 METAR KSEA 080953Z 12004KT 10SM CLR 11/04 A2994 RMK AO2 SLP143 T01110044=
201210080853 METAR KSEA 080853Z 00000KT 10SM CLR 11/05 A2994 RMK AO2 SLP144 T01060050 55000=
201210080753 METAR KSEA 080753Z 00000KT 10SM CLR 12/05 A2994 RMK AO2 SLP142 T01170050 402390078=
201210080653 METAR KSEA 080653Z 00000KT 10SM CLR 13/05 A2994 RMK AO2 SLP143 T01330050=
201210080553 METAR KSEA 080553Z 00000KT 10SM CLR 14/05 A2994 RMK AO2 SLP143 T01390050 10233 20133 50001=
201210080453 METAR KSEA 080453Z 36003KT 10SM CLR 16/05 A2994 RMK AO2 SLP145 T01560050=
201210080353 METAR KSEA 080353Z 00000KT 10SM CLR 16/06 A2994 RMK AO2 SLP145 T01560056=
201210080253 METAR KSEA 080253Z 00000KT 10SM CLR 17/04 A2994 RMK AO2 SLP144 T01670044 56008=
201210080153 METAR KSEA 080153Z 30003KT 10SM FEW200 17/05 A2994 RMK AO2 SLP144 T01720050=
201210080053 METAR KSEA 080053Z 31004KT 10SM CLR 21/04 A2995 RMK AO2 SLP146 T02110039=
201210072353 METAR KSEA 072353Z 33005KT 10SM CLR 23/03 A2996 RMK AO2 SLP151 T02330028 10239 20161 56019=
201210072253 METAR KSEA 072253Z 01003KT 10SM CLR 23/01 A2998 RMK AO2 SLP157 T02330011=
201210072153 METAR KSEA 072153Z 34007KT 10SM CLR 23/00 A3000 RMK AO2 SLP163 T02330000=
201210072053 METAR KSEA 072053Z 33004KT 10SM CLR 22/04 A3002 RMK AO2 SLP170 T02220039 58019=
201210071953 METAR KSEA 071953Z 28005KT 10SM CLR 20/05 A3004 RMK AO2 SLP178 T02000050=
201210071853 METAR KSEA 071853Z 00000KT 10SM CLR 19/M01 A3006 RMK AO2 SLP185 T01941006=
201210071753 METAR KSEA 071753Z 29003KT 10SM CLR 17/05 A3007 RMK AO2 SLP189 T01670050 10172 20078 58001=
201210071653 METAR KSEA 071653Z 00000KT 10SM CLR 14/04 A3008 RMK AO2 SLP192 T01390039=
201210071553 METAR KSEA 071553Z 00000KT 10SM CLR 12/05 A3008 RMK AO2 SLP192 T01170050=
201210071453 METAR KSEA 071453Z 00000KT 10SM CLR 10/04 A3008 RMK AO2 SLP191 T01000044 55002=
201210071353 METAR KSEA 071353Z 02008KT 10SM CLR 10/05 A3007 RMK AO2 SLP189 T01000050=
201210071253 METAR KSEA 071253Z 02007KT 10SM CLR 09/04 A3008 RMK AO2 SLP191 T00940039=
201210071153 METAR KSEA 071153Z 33003KT 10SM CLR 09/05 A3009 RMK AO2 SLP193 T00940050 10156 20083 56005=
201210071053 METAR KSEA 071053Z 00000KT 10SM CLR 10/04 A3009 RMK AO2 SLP194 T01000044=
201210070953 METAR KSEA 070953Z 34004KT 10SM CLR 09/04 A3009 RMK AO2 SLP196 T00940039=
201210070853 METAR KSEA 070853Z 33004KT 10SM CLR 11/04 A3010 RMK AO2 SLP198 T01060044 56004=
201210070753 METAR KSEA 070753Z 01008KT 10SM CLR 12/02 A3010 RMK AO2 SLP199 T01220022 402390078=
201210070653 METAR KSEA 070653Z 03010KT 10SM CLR 15/01 A3011 RMK AO2 SLP201 T01500011=
201210070553 METAR KSEA 070553Z 02010KT 10SM CLR 16/01 A3011 RMK AO2 SLP203 T01560006 10217 20150 58006=
201210070453 METAR KSEA 070453Z 02009KT 10SM CLR 17/M01 A3012 RMK AO2 SLP205 T01671006=
201210070353 METAR KSEA 070353Z 02010KT 10SM CLR 18/M01 A3013 RMK AO2 SLP208 T01781011=
201210070253 METAR KSEA 070253Z 03011KT 10SM CLR 18/00 A3013 RMK AO2 SLP208 T01830000 55002=
201210070153 METAR KSEA 070153Z 02012KT 10SM SCT200 19/01 A3013 RMK AO2 SLP208 T01890006=
201210070053 METAR KSEA 070053Z 01012KT 10SM FEW200 21/M04 A3012 RMK AO2 SLP206 T02061044=
201210062353 METAR KSEA 062353Z 36011KT 10SM FEW200 22/M04 A3014 RMK AO2 SLP210 T02171039 10239 20183 56015=
201210062253 METAR KSEA 062253Z 35009KT 10SM FEW200 23/M03 A3014 RMK AO2 SLP213 T02281033=
201210062153 METAR KSEA 062153Z 35015KT 10SM FEW200 23/M03 A3016 RMK AO2 SLP217 T02331028=
201210062053 METAR KSEA 062053Z 36011KT 10SM FEW200 23/M02 A3018 RMK AO2 SLP224 T02281022 58014=
201210061953 METAR KSEA 061953Z 01012KT 10SM FEW200 21/M01 A3020 RMK AO2 SLP233 T02111011=
201210061853 METAR KSEA 061853Z 01013KT 10SM CLR 19/M01 A3022 RMK AO2 SLP239 T01941006=
201210061753 METAR KSEA 061753Z 02010KT 10SM CLR 18/M01 A3022 RMK AO2 SLP239 T01831011 10183 20078 58003=
201210061653 METAR KSEA 061653Z 02012KT 10SM CLR 16/M01 A3023 RMK AO2 SLP243 T01561006=
201210061553 METAR KSEA 061553Z 35008KT 10SM CLR 13/02 A3023 RMK AO2 SLP243 T01280017=
201210061453 METAR KSEA 061453Z 36003KT 10SM CLR 10/02 A3023 RMK AO2 SLP243 T01000017 53005=
201210061353 METAR KSEA 061353Z 01007KT 10SM CLR 08/02 A3022 RMK AO2 SLP241 T00780017=
201210061253 METAR KSEA 061253Z 02009KT 10SM CLR 09/03 A3021 RMK AO2 SLP238 T00940033=
201210061153 METAR KSEA 061153Z 03005KT 10SM CLR 10/03 A3022 RMK AO2 SLP237 T01000033 10144 20100 55005=
201210061053 METAR KSEA 061053Z 03011KT 10SM CLR 11/04 A3021=
201210060953 METAR KSEA 060953Z 04011KT 10SM CLR 11/04 A3023 RMK AO2 SLP241 T01060044=
201210060853 METAR KSEA 060853Z 07011KT 10SM CLR 13/02 A3023 RMK AO2 SLP243 T01280017 55000=
201210060753 METAR KSEA 060753Z 04012KT 10SM CLR 12/03 A3023 RMK AO2 SLP243 T01170033 402170089=
201210060653 METAR KSEA 060653Z 03011KT 10SM CLR 13/04 A3023 RMK AO2 SLP242 T01280039=
201210060553 METAR KSEA 060553Z 03009KT 10SM CLR 14/02 A3023 RMK AO2 SLP243 T01440017 10200 20139 50000=
201210060453 METAR KSEA 060453Z 03009KT 10SM CLR 14/02 A3024 RMK AO2 SLP245 T01390022=
201210060353 METAR KSEA 060353Z 02009KT 10SM CLR 15/01 A3023 RMK AO2 SLP243 T01500011=
201210060253 METAR KSEA 060253Z 02009KT 10SM CLR 16/01 A3023 RMK AO2 SLP243 T01560006 53006=
201210060153 METAR KSEA 060153Z 01009KT 10SM CLR 16/01 A3022 RMK AO2 SLP240 T01560006=
201210060053 METAR KSEA 060053Z 35008KT 10SM CLR 18/01 A3022 RMK AO2 SLP239 T01780006=
201210052353 METAR KSEA 052353Z 34010KT 10SM CLR 19/01 A3021 RMK AO2 SLP236 T01940006 10217 20161 56007=
201210052253 METAR KSEA 052253Z 35015KT 10SM CLR 21/M01 A3022 RMK AO2 SLP238 T02111006=
201210052153 METAR KSEA 052153Z 36014KT 10SM CLR 21/M02 A3022 RMK AO2 SLP239 T02111017=
201210052053 METAR KSEA 052053Z 35013G19KT 10SM CLR 21/M01 A3023 RMK AO2 SLP243 T02111011 58016=
201210051953 METAR KSEA 051953Z 36012KT 10SM CLR 20/01 A3026 RMK AO2 SLP251 T02000006=
201210051853 METAR KSEA 051853Z 35012KT 10SM CLR 18/01 A3027 RMK AO2 SLP256 T01780011=
201210051753 METAR KSEA 051753Z 02011KT 10SM CLR 16/01 A3028 RMK AO2 SLP259 T01610006 10161 20089 58001=
201210051653 METAR KSEA 051653Z 02012KT 10SM CLR 13/02 A3029=
201210051553 METAR KSEA 051553Z 02012KT 10SM CLR 11/02 A3029 RMK AO2 SLP263 T01110017=
201210051453 METAR KSEA 051453Z 03013KT 10SM CLR 10/01 A3028 RMK AO2 SLP261 T01000006 53009=
201210051353 METAR KSEA 051353Z 02012KT 10SM CLR 09/03 A3027 RMK AO2 SLP256 T00940033=
201210051253 METAR KSEA 051253Z 02012KT 10SM CLR 09/04 A3026 RMK AO2 SLP254 T00890044=
201210051153 METAR KSEA 051153Z 02011KT 10SM CLR 09/04 A3026 RMK AO2 SLP252 T00940044 10128 20094 56004=
201210051053 METAR KSEA 051053Z 01009KT 10SM CLR 09/05 A3026 RMK AO2 SLP253 T00940050=
201210050953 METAR KSEA 050953Z 36009KT 10SM CLR 09/05 A3027 RMK AO2 SLP254 T00940050=
201210050853 METAR KSEA 050853Z 02011KT 10SM CLR 11/05 A3027 RMK AO2 SLP255 T01110050 53000=
201210050753 METAR KSEA 050753Z 03006KT 10SM CLR 11/04 A3027 RMK AO2 SLP255 T01110039 401890083=
201210050653 METAR KSEA 050653Z 03010KT 10SM CLR 12/03 A3027 RMK AO2 SLP255 T01220033=
201210050553 METAR KSEA 050553Z 02008KT 10SM CLR 12/03 A3027 RMK AO2 SLP256 T01220033 10178 20122 52009=
201210050453 METAR KSEA 050453Z 02012KT 10SM CLR 13/03 A3026 RMK AO2 SLP253 T01330028=
201210050353 METAR KSEA 050353Z 02009KT 10SM FEW250 13/03 A3025 RMK AO2 SLP250 T01330028=
201210050253 METAR KSEA 050253Z 02014KT 10SM BKN250 14/03 A3024 RMK AO2 SLP247 T01440033 56002=
201210050153 METAR KSEA 050153Z 35008KT 10SM BKN250 14/02 A3024 RMK AO2 SLP246 T01390022=
201210050053 METAR KSEA 050053Z 36011KT 10SM SCT250 17/02 A3024 RMK AO2 SLP247 T01670022=
201210042353 METAR KSEA 042353Z 36011KT 10SM FEW250 18/02 A3024 RMK AO2 SLP248 T01780017 10189 20139 56006=
201210042253 METAR KSEA 042253Z 35013KT 10SM FEW250 18/03 A3025 RMK AO2 SLP247 T01830028=
201210042153 METAR KSEA 042153Z 36016KT 10SM CLR 19/03 A3025 RMK AO2 SLP248 T01890033=
201210042053 METAR KSEA 042053Z 35013KT 10SM CLR 18/04 A3026 RMK AO2 SLP254 T01830039 58009=
201210041953 METAR KSEA 041953Z 34014KT 10SM CLR 17/04 A3028 RMK AO2 SLP258 T01720039=
201210041853 METAR KSEA 041853Z 01014KT 10SM CLR 17/02 A3028 RMK AO2 SLP259 T01670017=
201210041753 METAR KSEA 041753Z 02013KT 10SM CLR 14/03 A3029 RMK AO2 SLP264 T01390028 10139 20083 51006=
201210041653 METAR KSEA 041653Z 01014KT 10SM CLR 12/03 A3029 RMK AO2 SLP264 T01220033=
201210041553 METAR KSEA 041553Z 02014KT 10SM CLR 11/03 A3028 RMK AO2 SLP260 T01060033=
201210041453 METAR KSEA 041453Z 02013KT 10SM FEW250 09/03 A3027 RMK AO2 SLP257 T00890033 51005=
201210041353 METAR KSEA 041353Z 02011KT 10SM CLR 09/03 A3027 RMK AO2 SLP256 T00940033=
201210041253 METAR KSEA 041253Z 02015KT 10SM CLR 10/03 A3026 RMK AO2 SLP255 T01000028=
201210041153 METAR KSEA 041153Z 01015KT 10SM CLR 10/02 A3026 RMK AO2 SLP252 T01000017 10122 20100 56005=
201210041053 METAR KSEA 041053Z 03015KT 10SM CLR 10/03 A3026 RMK AO2 SLP252 T01000028=
201210040953 METAR KSEA 040953Z 03016KT 10SM CLR 11/02 A3026 RMK AO2 SLP253 T01060022=
201210040853 METAR KSEA 040853Z 02017KT 10SM CLR 11/02 A3027 RMK AO2 SLP256 T01110017 55003=
201210040753 METAR KSEA 040753Z 01016KT 10SM CLR 12/01 A3027 RMK AO2 SLP256 T01170006 401890078=
201210040653 METAR KSEA 040653Z 01016KT 10SM CLR 12/00 A3028 RMK AO2 SLP259 T01220000=
201210040553 METAR KSEA 040553Z 02014KT 10SM CLR 12/01 A3028 RMK AO2 SLP260 T01220011 10178 20122 51001=
201210040453 METAR KSEA 040453Z 02014KT 10SM CLR 12/02 A3028 RMK AO2 SLP260 T01220017=
201210040353 METAR KSEA 040353Z 01016KT 10SM CLR 13/01 A3028 RMK AO2 SLP261 T01330011=
201210040253 METAR KSEA 040253Z 01013KT 10SM CLR 14/01 A3028 RMK AO2 SLP259 T01390006 56004=
201210040153 METAR KSEA 040153Z 01014KT 10SM CLR 14/01 A3028 RMK AO2 SLP260 T01390006=
201210040053 METAR KSEA 040053Z 36015KT 10SM CLR 16/00 A3028 RMK AO2 SLP261 T01610000=
201210032353 METAR KSEA 032353Z 36015KT 10SM CLR 18/M01 A3029 RMK AO2 SLP263 T01781006 10189 20139 56014=
201210032253 METAR KSEA 032253Z 35015KT 10SM CLR 18/M01 A3030 RMK AO2 SLP267 T01831006=
201210032153 METAR KSEA 032153Z 36015G21KT 10SM CLR 19/01 A3031 RMK AO2 SLP270 T01890006=
201210032053 METAR KSEA 032053Z 36016KT 10SM FEW250 18/01 A3033 RMK AO2 SLP277 T01830011 58014=
201210031953 METAR KSEA 031953Z 02018KT 10SM FEW250 17/00 A3035 RMK AO2 SLP285 T01720000=
201210031853 METAR KSEA 031853Z 02016KT 10SM SCT250 16/02 A3036 RMK AO2 SLP287 T01560017=
201210031753 METAR KSEA 031753Z 36018KT 10SM SCT250 14/02 A3037 RMK AO2 SLP291 T01390022 10139 20083 51005=
201210031653 METAR KSEA 031653Z 02015KT 10SM FEW250 12/01 A3037 RMK AO2 SLP291 T01170011=
201210031553 METAR KSEA 031553Z 03015KT 10SM FEW250 10/02 A3036 RMK AO2 SLP288 T01000017=
201210031453 METAR KSEA 031453Z 02015KT 10SM FEW250 09/02 A3036 RMK AO2 SLP287 T00890017 52009=
201210031353 METAR KSEA 031353Z 02017KT 10SM CLR 09/01 A3034 RMK AO2 SLP282 T00890011=
201210031253 METAR KSEA 031253Z 03009KT 10SM CLR 08/04 A3034 RMK AO2 SLP281 T00830039=
201210031153 METAR KSEA 031153Z 02010KT 10SM CLR 09/04 A3033 RMK AO2 SLP277 T00890044 10117 20078 53010=
201210031053 METAR KSEA 031053Z 01013KT 10SM CLR 09/06 A3032 RMK AO2 SLP272 T00890056=
201210030953 METAR KSEA 030953Z 36007KT 10SM CLR 08/06 A3030 RMK AO2 SLP268 T00830056=
201210030853 METAR KSEA 030853Z 03008KT 10SM CLR 09/06 A3030 RMK AO2 SLP266 T00940056 51011=
201210030753 METAR KSEA 030753Z 04004KT 10SM CLR 10/05 A3029 RMK AO2 SLP264 T01000050 401780100=
201210030653 METAR KSEA 030653Z 03011KT 10SM CLR 11/04 A3028 RMK AO2 SLP260 T01110044=
201210030553 METAR KSEA 030553Z COR 03011KT 10SM CLR 12/04 A3026 RMK AO2 SLP255 T01170044 10167 20111 53015=
201210030453 METAR KSEA 030453Z 03010KT 10SM CLR 12/04 A3025 RMK AO2 SLP249 T01170039=
201210030353 METAR KSEA 030353Z 02013KT 10SM CLR 12/03 A3023 RMK AO2 SLP245 T01170033=
201210030253 METAR KSEA 030253Z 35008KT 10SM FEW050 12/02 A3022 RMK AO2 SLP239 T01220022 53010=
201210030153 METAR KSEA 030153Z 35010KT 10SM FEW050 13/02 A3021 RMK AO2 SLP235 T01280022=
201210030053 METAR KSEA 030053Z 34011KT 10SM FEW050 16/02 A3019 RMK AO2 SLP231 T01560017=
201210022353 METAR KSEA 022353Z 32009KT 10SM SCT050 17/01 A3019 RMK AO2 SLP229 T01670006 10178 20150 53002=
201210022253 METAR KSEA 022253Z 31008KT 10SM SCT045 18/02 A3018 RMK AO2 SLP225 T01780017=
201210022153 METAR KSEA 022153Z 33008KT 10SM SCT045 18/03 A3017 RMK AO2 SLP223 T01780028=
201210022053 METAR KSEA 022053Z 29006KT 10SM SCT045 17/01 A3018 RMK AO2 SLP225 T01670011 58005=
201210021953 METAR KSEA 021953Z 33006KT 10SM BKN043 17/01 A3019 RMK AO2 SLP230 T01720011=
201210021853 METAR KSEA 021853Z 01010KT 10SM BKN040 16/M02 A3020 RMK AO2 SLP234 T01611022=
201210021753 METAR KSEA 021753Z 03010KT 10SM BKN035 15/M02 A3020 RMK AO2 SLP231 T01501017 10150 20100 58002=
201210021653 METAR KSEA 021653Z 02010KT 10SM BKN032 14/01 A3021 RMK AO2 SLP236 T01390006=
201210021630 SPECI KSEA 021630Z 02007KT 10SM BKN030 13/01 A3021 RMK AO2=
201210021553 METAR KSEA 021553Z 04011KT 10SM BKN028 13/01 A3021 RMK AO2 SLP235 T01280011=
201210021458 SPECI KSEA 021458Z 03010KT 10SM BKN028 12/04 A3021 RMK AO2=
201210021453 METAR KSEA 021453Z 03009KT 10SM BKN030 12/04 A3020 RMK AO2 SLP234 T01220044 51004=
201210021353 METAR KSEA 021353Z 00000KT 10SM BKN030 BKN045 10/07 A3020 RMK AO2 SLP232 T01000067=
201210021253 METAR KSEA 021253Z 35004KT 10SM FEW045 10/07 A3020 RMK AO2 SLP232 T01000072=
201210021153 METAR KSEA 021153Z 34004KT 10SM SCT045 11/08 A3019 RMK AO2 SLP230 T01110078 10144 20111 53007=
201210021053 METAR KSEA 021053Z 35005KT 10SM OVC049 12/08 A3018 RMK AO2 SLP226 T01220083=
201210020953 METAR KSEA 020953Z 02005KT 10SM BKN049 13/08 A3018 RMK AO2 SLP223 T01330083=
201210020853 METAR KSEA 020853Z 04007KT 10SM BKN060 13/08 A3017 RMK AO2 SLP223 T01330083 53016=
201210020753 METAR KSEA 020753Z 02010KT 10SM OVC045 14/08 A3016 RMK AO2 SLP219 T01390078 402330089=
201210020653 METAR KSEA 020653Z 03014KT 10SM OVC035 14/08 A3013 RMK AO2 SLP209 T01440083=
201210020553 METAR KSEA 020553Z 02015KT 10SM OVC035 14/10 A3013 RMK AO2 SLP207 T01440100 10233 20144 53006=
201210020453 METAR KSEA 020453Z 03018G22KT 10SM BKN047 17/12 A3011 RMK AO2 SLP202 T01720122=
201210020353 METAR KSEA 020353Z 04014KT 10SM BKN041 19/13 A3011 RMK AO2 SLP200 T01940133=
201210020253 METAR KSEA 020253Z 04010KT 10SM BKN043 21/12 A3011 RMK AO2 SLP200 T02060117 56015=
201210020153 METAR KSEA 020153Z 03004KT 10SM FEW050 SCT090 BKN250 21/12 A3011 RMK AO2 SLP203 T02110117=
201210020053 METAR KSEA 020053Z 28003KT 10SM FEW050 SCT090 BKN250 22/12 A3013 RMK AO2 SLP209 T02220117=
201210012353 METAR KSEA 012353Z 29005KT 10SM FEW050 SCT250 23/12 A3015 RMK AO2 SLP216 T02330117 10233 20161 58021=
201210012253 METAR KSEA 012253Z 30009KT 10SM FEW050 SCT250 23/11 A3018 RMK AO2 SLP225 T02280106=
201210012153 METAR KSEA 012153Z 29008KT 10SM FEW050 SCT250 23/10 A3019 RMK AO2 SLP229 T02330100=
201210012053 METAR KSEA 012053Z 26005KT 10SM FEW050 SCT250 21/09 A3022 RMK AO2 SLP237 T02110089 58023=
201210011953 METAR KSEA 011953Z 30003KT 10SM FEW050 SCT250 21/09 A3025 RMK AO2 SLP250 T02060089=
201210011853 METAR KSEA 011853Z 00000KT 10SM FEW050 SCT250 19/08 A3027 RMK AO2 SLP256 T01890083=
201210011753 METAR KSEA 011753Z 28005KT 10SM SCT250 16/09 A3028 RMK AO2 SLP260 T01610089 10167 20089 58010=
201210011653 METAR KSEA 011653Z 00000KT 10SM CLR 16/08 A3029 RMK AO2 SLP263 T01560078=
201210011553 METAR KSEA 011553Z 00000KT 10SM FEW250 12/08 A3031 RMK AO2 SLP268 T01220078=
201210011453 METAR KSEA 011453Z 00000KT 10SM FEW250 10/07 A3031 RMK AO2 SLP271 T01000072 58004=
201210011353 METAR KSEA 011353Z 00000KT 10SM FEW250 10/07 A3032 RMK AO2 SLP274 T01000072=
201210011253 METAR KSEA 011253Z 05003KT 10SM FEW250 11/07 A3032 RMK AO2 SLP272 T01110072=
201210011153 METAR KSEA 011153Z 00000KT 10SM SCT250 11/08 A3032 RMK AO2 SLP274 T01060078 10150 20106 57007=
201210011053 METAR KSEA 011053Z 03006KT 10SM SCT250 12/08 A3033 RMK AO2 SLP275 T01170078=
201210010953 METAR KSEA 010953Z 01004KT 10SM SCT250 11/07 A3034 RMK AO2 SLP281 T01110072=
201210010853 METAR KSEA 010853Z 02003KT 10SM FEW250 12/07 A3035 RMK AO2 SLP282 T01220072 56007=
201210010753 METAR KSEA 010753Z 01005KT 10SM FEW250 12/07 A3035 RMK AO2 SLP284 T01220067 402110078=
201210010653 METAR KSEA 010653Z 36005KT 10SM FEW250 13/07 A3036 RMK AO2 SLP285 T01280067=
201210010553 METAR KSEA 010553Z COR 03006KT 10SM CLR 15/07 A3037 RMK AO2 SLP289 T01500067 10200 20144 58002=
201210010453 METAR KSEA 010453Z 03009KT 10SM CLR 16/07 A3037 RMK AO2 SLP291 T01560067=
201210010353 METAR KSEA 010353Z 02008KT 10SM CLR 16/05 A3037 RMK AO2 SLP291 T01610050=
201210010253 METAR KSEA 010253Z 01008KT 10SM CLR 16/04 A3037 RMK AO2 SLP292 T01560044 56001=
201210010153 METAR KSEA 010153Z 01008KT 10SM FEW240 17/04 A3037 RMK AO2 SLP292 T01670039=
201210010053 METAR KSEA 010053Z 34008KT 10SM FEW240 19/04 A3037 RMK AO2 SLP290 T01890044=

# No short TAF reports from KSEA in databse.

###################################
#  large TAF from KSEA
###################################
201210312320 TAF KSEA 312320Z 0100/0206 19008KT P6SM -RA SCT030 OVC050 FM010600
                       16006KT P6SM -RA BKN030 OVC050 FM011200
                       15006KT P6SM -SHRA BKN015 OVC030 FM011800
                       21006KT P6SM -SHRA BKN025 OVC050=
201210312109 TAF AMD KSEA 312109Z 3121/0124 19009KT P6SM -RA SCT025 OVC060
                      TEMPO 3121/3124 BKN025 OVC060 FM010000 17006KT
                       P6SM -RA BKN025 OVC045 FM010600 18008KT
                       P6SM -SHRA SCT015 BKN025 BKN040 FM011200
                       18004KT P6SM -SHRA BKN012 OVC020=
201210311734 TAF KSEA 311734Z 3118/0124 15006KT P6SM -RA SCT020 OVC060
                      TEMPO 3120/3124 BKN020 OVC060 FM010000 17006KT
                       P6SM -RA SCT020 OVC050 FM010600 18008KT
                       P6SM -SHRA SCT015 BKN025 BKN040 FM011200
                       18004KT P6SM -SHRA BKN012 OVC020=
201210311445 TAF AMD KSEA 311445Z 3115/0118 12006KT P6SM -RA BKN011 OVC070
                      TEMPO 3115/3119 SCT011 OVC070 FM312000 13006KT
                       P6SM -RA SCT012 BKN020 OVC040 FM010200 18008KT
                       P6SM -SHRA SCT015 BKN025 BKN040 FM011200
                       18004KT P6SM SCT012 OVC020=
201210311136 TAF KSEA 311136Z 3112/0118 13006KT P6SM -RA SCT003 BKN008 OVC020
                       TEMPO 3112/3115 3SM RA BKN003 OVC008 FM311500
                       13006KT P6SM -RA SCT006 BKN012 OVC020 FM312000
                       13006KT P6SM -RA SCT012 BKN020 OVC040 FM010200
                       18008KT P6SM -SHRA SCT015 BKN025 BKN040
                       FM011200 18004KT P6SM SCT012 OVC020=
201210310907 TAF AMD KSEA 310907Z 3109/0112 18008KT 5SM -RA BR SCT006 OVC015
                       TEMPO 3109/3112 3SM RA BR BKN006 OVC015
                       FM311400 18008KT P6SM -RA SCT012 BKN020
                       OVC040 FM010000 18008KT P6SM -SHRA SCT020
                       BKN040 BKN060=
201210310541 TAF KSEA 310541Z 3106/0112 15006KT P6SM -RA OVC030 FM310900 15006KT
                       5SM -RA BR SCT007 OVC020
                      TEMPO 3116/3120 3SM RA BR BKN007 OVC020 FM312000
                       17008KT P6SM -RA BKN020 OVC040 FM010000
                       17008KT P6SM -SHRA SCT020 BKN040 BKN060=
201210310315 TAF AMD KSEA 310315Z 3103/0106 14006KT P6SM -RA SCT030 OVC060 FM310700
                       14006KT 5SM -RA BR SCT007 OVC020
                      TEMPO 3116/3120 3SM RA BR BKN007 OVC020 FM312000
                       17008KT P6SM -RA BKN020 OVC040=
201210302320 TAF KSEA 302320Z 3100/0106 11006KT 5SM -RA BR SCT007 OVC020
                      TEMPO 3100/3104 3SM RA BR BKN007 OVC020 FM311000
                       17008KT P6SM -RA BKN020 OVC040=
201210302200 TAF AMD KSEA 302200Z 3022/3124 VRB03KT 5SM -RA BR SCT007 OVC020
                       TEMPO 3022/3102 3SM RA BR BKN007 OVC020
                       FM311000 17008KT P6SM -RA BKN020 OVC040=
201210302102 KSEA 302102Z 3021/3124 12005KT 5SM -RA BR SCT005 BKN015 OVC030
                       FM311000 17008KT P6SM -RA BKN020 OVC040=
201210301720 TAF KSEA 301720Z 3018/3124 13006KT 5SM -RA BR SCT007 OVC015
                      TEMPO 3018/3021 3SM -RA BR BKN007 OVC012
                       FM302100 13006KT 3SM RA BR BKN007 OVC012
                       FM310300 17008KT 4SM -RA BKN007 OVC012 FM311400
                       17008KT 5SM -RA SCT007 BKN012 OVC020=
201210301502 TAF AMD KSEA 301502Z 3015/3118 12004KT 3SM -RA BR OVC010 FM301800
                       13006KT 5SM -RA SCT012 OVC020 FM302200 13006KT
                       3SM RA BR OVC012 FM310300 17008KT 4SM -RA
                       BKN006 OVC012 FM311400 17008KT 5SM -RA SCT006
                       BKN012 OVC020=
201210301349 TAF AMD KSEA 301349Z 3014/3118 08006KT P6SM -RA SCT012 BKN020 OVC030
                       TEMPO 3014/3018 3SM RA BR BKN012 OVC020
                       FM301800 13006KT 5SM -RA SCT015 OVC025 FM302200
                       13006KT 3SM RA BR OVC012 FM310300 17008KT
                       4SM -RA BKN006 OVC012 FM311400 17008KT 5SM
                       -RA SCT006 BKN012 OVC020=
201210301140 TAF KSEA 301140Z 3012/3118 13006KT P6SM SCT025 OVC035
                      TEMPO 3012/3016 4SM -RA BKN025 OVC035 FM301800
                       13006KT 5SM -RA SCT015 OVC025 FM302200 13006KT
                       3SM RA BR OVC012 FM310300 17008KT 4SM -RA
                       BKN006 OVC012 FM311400 17008KT 5SM -RA SCT006
                       BKN012 OVC020=
201210300902 TAF AMD KSEA 300902Z 3009/3112 13006KT P6SM -RA SCT030 BKN060 OVC080
                       FM301000 13006KT P6SM -RA OVC035 FM301400
                       13006KT 5SM -RA SCT012 OVC020 FM310200 15006KT
                       3SM RA BR OVC012=
201210300540 TAF KSEA 300540Z 3006/3112 15006KT P6SM SCT030 BKN060 OVC100 FM301000
                       15006KT P6SM -RA OVC035 FM301400 15006KT
                       5SM -RA SCT012 OVC020 FM310200 15006KT 3SM
                       RA BR OVC012=
201210300310 TAF AMD KSEA 300310Z 3003/3106 18006KT P6SM SCT030 BKN060 OVC100
                       TEMPO 3005/3009 BKN030 OVC060 FM300900 15006KT
                       P6SM -RA BKN030 OVC060 FM301400 15006KT
                       5SM -RA SCT012 OVC020 FM310200 15006KT 3SM
                       RA BR OVC012=
201210292320 TAF KSEA 292320Z 3000/3106 20012KT P6SM SCT030 BKN060 FM300900
                       15006KT P6SM -RA BKN030 OVC060 FM301400
                       15006KT 5SM -RA SCT012 OVC020 FM310200 15006KT
                       3SM RA BR OVC012=
201210292103 KSEA 292103Z 2921/3024 21012G20KT P6SM SCT030 BKN090 FM300300 18012KT
                       P6SM SCT030 BKN050 OVC090 FM300800 16007KT
                       P6SM -RA OVC030 FM301300 12004KT 5SM -RA
                       SCT012 OVC020=
201210291720 TAF KSEA 291720Z 2918/3024 21015G25KT P6SM SCT025 BKN050
                      TEMPO 2918/2922 BKN025 BKN050 FM300300 18012KT
                       P6SM SCT030 BKN060 OVC100 FM300800 16006KT
                       P6SM -RA OVC035 FM301300 16006KT 5SM -RA
                       SCT012 OVC020=
201210291501 KSEA 291501Z 2915/3018 21015G25KT P6SM VCSH BKN015 OVC040 FM292100
                       20012G22KT P6SM SCT025 BKN040 BKN070 FM300300
                       16006KT P6SM SCT030 BKN045 OVC070 FM300800
                       16006KT P6SM -RA OVC035 FM301300 16006KT
                       5SM -RA SCT012 OVC020=
201210291138 TAF KSEA 291138Z 2912/3018 20014G22KT P6SM -SHRA SCT006 BKN012
                       OVC020 FM291500 20014G22KT P6SM SCT012 BKN022
                       OVC050 FM292000 20012KT P6SM SCT025 BKN040
                       BKN070 FM300300 16006KT P6SM SCT030 BKN045
                       OVC070 FM300800 16006KT P6SM -RA OVC035
                       FM301300 16006KT 5SM -RA SCT012 OVC020=
201210290805 TAF AMD KSEA 290805Z 2908/3012 VRB03KT 4SM -RA BKN004 OVC010 FM291300
                       20012G20KT P6SM -SHRA SCT006 BKN012 OVC022
                       FM291800 20012KT P6SM VCSH SCT025 BKN040
                       BKN070 FM300300 16006KT P6SM SCT030 BKN045
                       OVC070=
201210290541 TAF KSEA 290541Z 2906/3012 VRB03KT 4SM -RA SCT012 BKN022 OVC035
                       FM290900 VRB03KT 4SM -RA SCT006 OVC012 FM291300
                       20012G20KT P6SM -SHRA SCT012 BKN022 OVC030
                       FM292000 20012KT P6SM VCSH SCT020 BKN035
                       FM300300 16006KT P6SM SCT030 BKN045 OVC070=
201210290233 TAF AMD KSEA 290233Z 2903/3006 20004KT P6SM -RA SCT035 OVC060 FM290700
                       20004KT 4SM -RA SCT006 OVC012 FM291300 18012G20KT
                       P6SM -SHRA SCT012 BKN022 OVC030 FM292000
                       20012G18KT P6SM VCSH BKN030=
201210282334 TAF KSEA 282334Z 2900/3006 22004KT P6SM -RA SCT014 BKN030 OVC100
                       TEMPO 2900/2904 5SM -RA BR BKN012 FM290600
                       18003KT 4SM -RA SCT006 OVC012 FM291300 18012G20KT
                       P6SM -SHRA SCT012 BKN022 OVC030 FM292000
                       20012G18KT P6SM VCSH BKN030=
201210282103 KSEA 282103Z 2821/2924 22009KT P6SM BKN020 BKN100 OVC200
                      TEMPO 2821/2901 BKN012 FM290100 18005KT P6SM
                       -RA BKN020 OVC040 FM290600 VRB03KT 4SM -RA
                       SCT006 OVC012 FM291300 18012G20KT P6SM -SHRA
                       SCT012 BKN022 OVC030 FM291800 20012KT P6SM
                       VCSH BKN030=
201210281726 TAF KSEA 281726Z 2818/2924 20010KT P6SM SCT015 SCT025 BKN120 FM282000
                       22007KT P6SM SCT030 BKN120 OVC200 FM290200
                       VRB03KT 5SM -RA OVC040 FM290600 VRB03KT
                       4SM -RA SCT006 OVC012 FM291300 18012G20KT
                       P6SM -SHRA SCT012 BKN022 OVC030 FM291800
                       20012KT P6SM VCSH BKN030=
201210281508 TAF AMD KSEA 281508Z 2815/2918 20010KT P6SM SCT005 SCT025 BKN120
                       FM281900 22007KT P6SM SCT030 BKN120 OVC200
                       FM290200 VRB03KT 5SM -RA OVC040 FM290600
                       VRB03KT 4SM -RA SCT006 OVC012 FM291300 18012KT
                       P6SM -RA SCT012 BKN022 OVC035=
201210281140 TAF KSEA 281140Z 2812/2918 21014KT P6SM SCT022 BKN040
                      TEMPO 2812/2815 BKN022 FM281500 20006KT P6SM
                       SCT030 BKN050 FM281900 VRB03KT P6SM SCT050
                       BKN100 OVC200 FM290200 VRB03KT 5SM -RA OVC040
                       FM290600 VRB03KT 4SM -RA SCT006 OVC012 FM291300
                       18012KT P6SM -RA SCT012 BKN022 OVC035=
201210280930 TAF AMD KSEA 280930Z 2810/2912 20014G20KT P6SM SCT004 BKN008 OVC015
                       FM281200 20014KT P6SM SCT008 BKN015 OVC030
                       FM281500 20006KT P6SM SCT015 BKN025 OVC040
                       FM281800 VRB03KT P6SM SCT030 BKN050 OVC120
                       FM290300 VRB03KT 4SM -RA SCT008 OVC015=
201210280540 TAF KSEA 280540Z 2806/2912 20014G20KT 5SM -RA SCT003 OVC006
                      TEMPO 2806/2809 2SM -RA BKN003 OVC006 FM280900
                       20014KT P6SM SCT004 BKN008 OVC015 FM281100
                       20014KT P6SM SCT008 BKN015 OVC030 FM281600
                       20006KT P6SM SCT015 BKN025 OVC040 FM281900
                       VRB03KT P6SM SCT030 BKN050 OVC120 FM290300
                       VRB03KT 4SM -RA SCT008 OVC015=
201210280404 TAF AMD KSEA 280404Z 2804/2906 20014G20KT P6SM SCT006 OVC011
                      TEMPO 2804/2808 3SM -RA OVC006 FM280900 20014KT
                       P6SM SCT015 BKN025 OVC040 FM281800 VRB03KT
                       P6SM BKN030 OVC200=
201210272330 TAF KSEA 272330Z 2800/2906 14008KT P6SM -RA SCT015 OVC020
                      TEMPO 2800/2804 4SM RA BR SCT008 BKN012 FM280400
                       20012KT P6SM -SHRA SCT012 OVC020 FM281200
                       20008KT P6SM VCSH BKN025 FM281800 19006KT
                       P6SM BKN030 OVC200=
201210272102 KSEA 272102Z 2721/2824 14008KT P6SM -RA SCT025 OVC035
                      TEMPO 2721/2724 4SM RA BR SCT007 BKN025 FM280500
                       20012KT P6SM -SHRA SCT015 BKN025 OVC035
                       FM281200 20008KT P6SM VCSH SCT025 BKN050
                       OVC100 FM281600 19006KT P6SM BKN030=
201210271732 TAF KSEA 271732Z 2718/2824 17008KT P6SM -RA SCT025 OVC045
                      TEMPO 2718/2722 5SM RA BR BKN025 FM280500
                       20012KT P6SM -SHRA SCT015 BKN025 OVC035
                       FM281200 20008KT P6SM VCSH SCT025 BKN050
                       OVC100 FM281600 19006KT P6SM BKN030=
201210271424 TAF AMD KSEA 271424Z 2714/2818 17010KT P6SM -RA SCT025 BKN030 OVC040
                       TEMPO 2714/2718 5SM -RA BR SCT020 OVC025
                       FM271900 14006KT 3SM -RA BR SCT005 OVC011
                       FM280500 20012KT P6SM SCT015 BKN025 OVC035
                       FM281400 VRB03KT P6SM SCT025 BKN050 OVC100=
201210271138 TAF KSEA 271138Z 2712/2818 20010KT P6SM SCT025 BKN035 OVC045 FM271600
                       18008KT P6SM -RA OVC020 FM271900 14006KT
                       3SM -RA BR SCT005 OVC011 FM280500 20012KT
                       P6SM SCT015 BKN025 OVC035 FM281400 VRB03KT
                       P6SM SCT025 BKN050 OVC100=
201210270916 TAF AMD KSEA 270916Z 2709/2812 18008KT P6SM SCT015 BKN025 OVC035
                       FM271600 18008KT P6SM -RA OVC020 FM271900
                       14006KT 3SM -RA BR SCT005 OVC011 FM280700
                       18008KT P6SM SCT015 BKN025 OVC035=
201210270540 TAF KSEA 270540Z 2706/2812 18008KT P6SM SCT025 OVC035 FM271000
                       18008KT P6SM SCT015 BKN025 OVC035 FM271600
                       18008KT P6SM -RA OVC020 FM271900 14006KT
                       3SM -RA BR SCT005 OVC011 FM280700 18008KT
                       P6SM SCT015 BKN025 OVC035=
201210262339 TAF KSEA 262339Z 2700/2806 16007KT P6SM -RA SCT010 BKN030 OVC040
                       TEMPO 2700/2704 2SM BR FEW006 OVC018 FM270600
                       16010KT 5SM BR OVC012 FM271600 18008KT P6SM
                       -RA OVC020
                      TEMPO 2718/2722 4SM -RA BR BKN012=
201210262322 TAF KSEA 262322Z 2700/2806 16007KT P6SM -RA SCT010 BKN030 OVC040
                       TEMPO 2700/2704 5SM BR OVC020 FM270600 16010KT
                       5SM BR OVC012 FM271600 18008KT P6SM -RA
                       OVC020
                      TEMPO 2718/2722 4SM -RA BR BKN012=
201210262101 KSEA 262101Z 2621/2724 16005KT P6SM -RA SCT025 BKN030 OVC040 FM270400
                       16010KT P6SM OVC012 FM271600 17006KT P6SM
                       -RA OVC020=
201210261733 TAF KSEA 261733Z 2618/2724 14004KT P6SM -RA BKN035 OVC050
                      TEMPO 2618/2621 SCT025 OVC030 FM262100 17007KT
                       5SM -RA BR OVC015 FM270400 16010KT P6SM
                       OVC012 FM271600 17006KT P6SM -RA OVC020=
201210261506 TAF AMD KSEA 261506Z 2615/2718 14003KT P6SM VCSH SCT030 SCT060
                       OVC080
                      TEMPO 2615/2618 -RA BKN030 OVC050 FM261800
                       13006KT P6SM -RA OVC030 FM262100 17007KT
                       5SM -RA BR OVC015 FM270200 16006KT P6SM
                       OVC015
                      TEMPO 2708/2712 -RA OVC007=
201210261125 TAF KSEA 261125Z 2612/2718 00000KT P6SM SCT070 OVC110 FM261300
                       09005KT P6SM BKN050 OVC080
                      TEMPO 2613/2616 -RA FM261600 11006KT P6SM
                       -RA OVC030 FM262100 17007KT 5SM -RA BR OVC015
                       FM270200 16006KT P6SM OVC015
                      TEMPO 2708/2712 -RA OVC007=
201210260525 TAF KSEA 260525Z 2606/2712 11008KT P6SM OVC200 FM261000 09005KT
                       P6SM SCT040 OVC080 FM261600 11006KT P6SM
                       -RA OVC030 FM262100 17007KT 5SM -RA BR OVC015=
201210260300 TAF AMD KSEA 260300Z 2603/2706 13004KT P6SM SCT060 OVC250 FM260600
                       12005KT P6SM BKN050 BKN120 OVC200 FM261000
                       09005KT P6SM SCT040 OVC080 FM261600 11006KT
                       P6SM -RA OVC030=
201210252326 TAF KSEA 252326Z 2600/2706 20004KT P6SM FEW025 BKN050 OVC200 FM260600
                       12005KT P6SM BKN050 BKN120 OVC200 FM261000
                       09005KT P6SM SCT040 OVC080 FM261600 11006KT
                       P6SM -RA OVC030=
201210252105 TAF AMD KSEA 252105Z 2521/2624 20004KT P6SM FEW015 BKN050 BKN120
                       FM252200 24004KT P6SM SCT030 SCT050 BKN250
                       FM261000 09005KT P6SM SCT040 OVC080 FM261600
                       11006KT P6SM -RA OVC030=
201210251727 TAF KSEA 251727Z 2518/2624 15005KT P6SM FEW012 SCT025 BKN050
                      TEMPO 2518/2520 BKN025 FM252000 20004KT P6SM
                       SCT030 BKN050 FM252200 24004KT P6SM SCT040
                       BKN250 FM261000 09005KT P6SM SCT040 OVC080
                       FM261600 11006KT P6SM -RA OVC030=
201210251505 TAF AMD KSEA 251505Z 2515/2618 12005KT P6SM FEW010 BKN045 FM251900
                       24004KT P6SM BKN050 OVC080 FM252200 24004KT
                       P6SM SCT040 BKN250 FM261000 09005KT P6SM
                       SCT040 OVC080 FM261600 11006KT P6SM -RA
                       OVC040=
201210251135 TAF KSEA 251135Z 2512/2618 10005KT P6SM VCSH SCT019 OVC040
                      TEMPO 2512/2516 OVC019 FM251900 24004KT P6SM
                       BKN035 OVC080 FM252200 24004KT P6SM SCT040
                       BKN250 FM261000 09005KT P6SM SCT040 OVC080
                       FM261600 11006KT P6SM -RA OVC040=
201210250900 KSEA 250900Z 2509/2612 13003KT P6SM VCSH BKN020 OVC045 FM251000
                       10005KT P6SM SCT018 OVC030
                      TEMPO 2512/2516 OVC018 FM251900 24004KT P6SM
                       BKN035 OVC080 FM252200 24004KT P6SM SCT040
                       BKN250=
201210250520 TAF KSEA 250520Z 2506/2612 00000KT P6SM VCSH OVC030 FM251000 10005KT
                       P6SM SCT018 OVC030
                      TEMPO 2512/2516 OVC018 FM251900 24004KT P6SM
                       BKN035 OVC080 FM252200 24004KT P6SM SCT040
                       BKN250=
201210250300 KSEA 250300Z 2503/2606 07009KT P6SM VCSH BKN025 BKN035 OVC080
                      TEMPO 2503/2507 SCT025 BKN035 OVC080 FM251100
                       11004KT P6SM OVC022 FM251700 18005KT P6SM
                       BKN035 FM252000 18006KT P6SM SCT035 SCT045
                       FM260300 VRB04KT P6SM SCT045=
201210242320 TAF KSEA 242320Z 2500/2606 20006KT P6SM VCSH SCT030 BKN045
                      TEMPO 2500/2501 -SHRA BKN030 FM250600 15004KT
                       P6SM FEW025 SCT040 BKN060 FM251100 11004KT
                       P6SM OVC022 FM251700 18005KT P6SM BKN035
                       FM252000 18006KT P6SM SCT035 SCT045 FM260300
                       VRB04KT P6SM SCT045=
201210242103 TAF AMD KSEA 242103Z 2421/2524 20006KT P6SM VCSH SCT030 BKN045
                       TEMPO 2422/2501 -SHRA BKN030 FM250100 20005KT
                       P6SM VCSH BKN040 BKN060 FM250600 15004KT
                       P6SM FEW025 SCT040 BKN060 FM251100 11004KT
                       P6SM OVC022 FM251700 18005KT P6SM BKN035
                       FM252000 18006KT P6SM SCT035 SCT045=
201210241739 TAF KSEA 241739Z 2418/2524 14005KT P6SM -SHRA FEW010 BKN035 OVC045
                       FM242000 18006KT P6SM -SHRA BKN035 BKN045
                       FM250000 20005KT P6SM VCSH BKN040 BKN060
                       FM250600 15004KT P6SM FEW025 SCT040 BKN060
                       FM251100 11004KT P6SM OVC022 FM251700 18005KT
                       P6SM BKN035 FM252000 18006KT P6SM SCT035
                       SCT045=
201210241521 TAF AMD KSEA 241521Z 2415/2518 03004KT P6SM -SHRA FEW012 BKN035
                       OVC045 FM241900 20006KT P6SM VCSH BKN035
                       OVC060 FM250000 20005KT P6SM VCSH BKN040
                       BKN070 FM250900 11004KT P6SM SCT045 BKN100=
201210241120 TAF KSEA 241120Z 2412/2518 08006KT P6SM -SHRA BKN035 OVC070 FM241400
                       08004KT P6SM -SHRA BKN023 OVC040
                      TEMPO 2414/2418 5SM SHRA BR OVC020 FM242000
                       19006KT P6SM VCSH BKN035 OVC060 FM250000
                       20005KT P6SM VCSH BKN040 BKN070 FM250900
                       11004KT P6SM SCT045 BKN100=
201210240535 TAF KSEA 240535Z 2406/2512 11004KT P6SM VCSH OVC060 FM241200 08004KT
                       P6SM -SHRA BKN023 OVC040
                      TEMPO 2414/2418 5SM SHRA BR OVC020 FM242000
                       19006KT P6SM VCSH BKN035 OVC060 FM250000
                       20005KT P6SM VCSH BKN040 BKN070 FM250900
                       11004KT P6SM SCT045 BKN100=
201210232320 TAF KSEA 232320Z 2400/2506 18010G18KT P6SM -SHRA VCTS BKN035CB
                       BKN060 FM240100 16008KT P6SM -SHRA BKN035
                       BKN050 FM240500 10005KT P6SM VCSH SCT030
                       BKN060 BKN250 FM241200 04006KT P6SM VCSH
                       BKN030 OVC050 FM241600 16005KT P6SM VCSH
                       SCT035 BKN050 FM241800 16008KT P6SM SCT025=
201210231720 TAF KSEA 231720Z 2318/2424 17006KT P6SM SCT015 OVC035
                      TEMPO 2318/2321 -SHRA BKN015 BKN035 OVC050
                       FM232100 18006KT P6SM -SHRA VCTS BKN035CB
                       BKN060 FM240100 14005KT P6SM -SHRA SCT030
                       BKN060 BKN250 FM240500 10005KT P6SM VCSH
                       SCT030 BKN060 BKN250 FM241200 04006KT P6SM
                       VCSH BKN030 OVC050 FM241600 17005KT P6SM
                       VCSH BKN035 BKN050=
201210231503 KSEA 231503Z 2315/2418 19009KT P6SM -SHRA SCT012 SCT025 OVC100
                       TEMPO 2315/2316 -SHRA BKN012 OVC025 FM231700
                       16007KT P6SM -SHRA OVC014
                      TEMPO 2317/2320 SCT014 BKN030 OVC050 FM232000
                       20004KT P6SM VCTS BKN035CB BKN060 FM240200
                       12005KT P6SM -SHRA SCT030 BKN060 BKN250
                       FM240500 02005KT P6SM VCSH SCT030 BKN060
                       BKN250 FM241200 08006KT P6SM VCSH BKN030
                       OVC050=
201210231120 TAF KSEA 231120Z 2312/2418 19009KT P6SM -SHRA SCT014 BKN045 OVC070
                       TEMPO 2312/2316 -SHRA BKN014 OVC035 FM231600
                       16007KT P6SM -SHRA OVC014
                      TEMPO 2316/2320 SCT014 BKN030 OVC050 FM232000
                       20004KT P6SM VCSH SCT030 BKN060 FM240600
                       04005KT P6SM SCT035 BKN080 BKN250 FM241200
                       08006KT P6SM VCSH BKN030 OVC050=
201210230900 TAF AMD KSEA 230900Z 2309/2412 20008KT P6SM -SHRA OVC024
                      TEMPO 2309/2312 -SHRA BKN025 OVC040 FM231200
                       17004KT P6SM -SHRA BKN018 OVC025 FM232100
                       20004KT P6SM VCSH SCT030 BKN080 FM240600
                       07005KT P6SM SCT035 BKN080 BKN250=
201210230535 TAF KSEA 230535Z 2306/2412 15005KT P6SM -SHRA SCT029 OVC040
                      TEMPO 2306/2310 -SHRA BKN025 OVC040 FM231200
                       17004KT P6SM -SHRA BKN018 OVC025 FM232100
                       20004KT P6SM VCSH SCT030 BKN080 FM240600
                       07005KT P6SM SCT035 BKN080 BKN250=
201210230305 KSEA 230305Z 2303/2406 13005KT P6SM -SHRA SCT006 OVC023 FM230900
                       17008KT P6SM -SHRA SCT008 OVC025 FM231600
                       20008KT P6SM VCSH SCT013 BKN030 OVC050=
201210222321 TAF KSEA 222321Z 2300/2406 21004KT 6SM -RA BR SCT004 BKN015 OVC035
                       TEMPO 2300/2301 3SM -RA BR OVC004 FM230200
                       21006KT P6SM -SHRA FEW008 BKN018 BKN040
                       FM230300 20008KT P6SM -SHRA BKN025 BKN045
                       FM231200 18010KT P6SM VCSH SCT030 BKN045
                       FM240200 16004KT P6SM VCSH SCT030 BKN045=
201210222320 TAF AMD KSEA 222320Z 2223/2324 VRB04KT 6SM -RA BR SCT004 BKN015
                       OVC035
                      TEMPO 2223/2301 3SM -RA BR OVC004 FM230100
                       20006KT P6SM -SHRA BKN018 BKN040 FM230400
                       21008KT P6SM -SHRA BKN025 BKN045 FM231200
                       18010KT P6SM VCSH SCT035 BKN070=
201210222242 TAF AMD KSEA 222242Z 2223/2324 VRB04KT 6SM -RA BR BKN015 OVC035
                       TEMPO 2223/2301 3SM -RA BR OVC006 FM230100
                       20006KT P6SM -SHRA BKN018 BKN040 FM230400
                       21008KT P6SM -SHRA BKN025 BKN045 FM231200
                       18010KT P6SM VCSH SCT035 BKN070=
201210222125 TAF KSEA 222125Z 2221/2324 VRB04KT 6SM -RA BR BKN015 OVC035
                      TEMPO 2300/2303 BKN025 OVC035 FM230300 16008KT
                       P6SM -SHRA SCT035 BKN070 FM231200 18010KT
                       P6SM VCSH SCT035 BKN070=
201210222124 TAF AMD KSEA 222124Z 2221/2324 16008KT 6SM -RA BR BKN015 OVC035
                       TEMPO 2221/2224 3SM -RA BR OVC006 FM230000
                       16010KT P6SM -SHRA BKN030 BKN060 FM231200
                       18012KT P6SM VCSH SCT035 BKN070=
201210222112 KSEA 222112Z 2221/2324 16008KT 6SM -RA BR BKN015 OVC035
                      TEMPO 2300/2303 BKN025 OVC035 FM230300 16010KT
                       P6SM -SHRA SCT035 BKN070 FM231200 18012KT
                       P6SM VCSH SCT035 BKN070=
201210221742 TAF KSEA 221742Z 2218/2324 36010KT P6SM -RA SCT035 OVC080 FM222000
                       16008KT 6SM -RA BR BKN030 OVC050
                      TEMPO 2302/2306 BKN025 OVC035 FM230600 16010KT
                       P6SM -SHRA SCT035 BKN070 FM231200 18012KT
                       P6SM VCSH SCT035 BKN070=
201210221536 TAF AMD KSEA 221536Z 2216/2318 01008KT P6SM SCT080 BKN120 OVC200
                       FM221700 35007KT P6SM -RA OVC080 FM222000
                       16008KT P6SM -RA BKN035 OVC050
                      TEMPO 2302/2306 BKN025 OVC035 FM230600 16006KT
                       P6SM SCT035 BKN070=
201210221120 TAF KSEA 221120Z 2212/2318 02007KT P6SM BKN090 OVC200 FM221500
                       05007KT P6SM OVC045 FM222300 18008KT P6SM
                       -RA BKN035 OVC050
                      TEMPO 2300/2304 BKN025 OVC035 FM230600 16006KT
                       P6SM SCT035 BKN070=
201210220832 TAF AMD KSEA 220832Z 2209/2312 03004KT 2SM BR SCT001 BKN090 BKN200
                       TEMPO 2209/2213 3/4SM BR BKN001 OVC090 FM221500
                       05007KT P6SM OVC045 FM222300 18008KT P6SM
                       -RA BKN035 OVC050
                      TEMPO 2300/2304 BKN025 OVC035=
201210220527 TAF KSEA 220527Z 2206/2312 08005KT P6SM FEW070 BKN200 FM221500
                       05007KT P6SM OVC045 FM222300 18008KT P6SM
                       -RA BKN035 OVC050
                      TEMPO 2300/2304 BKN025 OVC035=
201210220302 TAF AMD KSEA 220302Z 2203/2306 VRB03KT P6SM SCT035 BKN100 FM220800
                       07004KT P6SM SCT070 BKN150 FM221500 05007KT
                       P6SM OVC045 FM222300 18008KT P6SM -RA BKN035
                       OVC050
                      TEMPO 2300/2304 BKN025 OVC035=
201210220026 TAF AMD KSEA 220026Z 2200/2306 21006KT P6SM VCSH SCT030 SCT050
                       TEMPO 2200/2203 VRB10KT -SHRA BKN030 OVC050
                       FM220300 VRB03KT P6SM SCT050 BKN120 FM220800
                       07004KT P6SM SCT070 BKN150 FM221500 05007KT
                       P6SM OVC045 FM222300 18008KT P6SM -RA BKN035
                       OVC050
                      TEMPO 2300/2304 BKN025 OVC035=
201210212320 TAF KSEA 212320Z 2200/2306 18010KT P6SM -SHRA SCT035 BKN045 BKN070
                       TEMPO 2200/2203 -SHRA BKN030 OVC040 FM220300
                       VRB03KT P6SM SCT050 BKN120 FM220800 07004KT
                       P6SM SCT070 BKN150 FM221500 05007KT P6SM
                       OVC045 FM222300 18008KT P6SM -RA BKN035
                       OVC050
                      TEMPO 2300/2304 BKN025 OVC035=
201210212207 TAF AMD KSEA 212207Z 2122/2224 20004KT P6SM FEW021 SCT045 BKN080
                       TEMPO 2122/2201 -SHRA BKN020 OVC040 FM220100
                       VRB03KT P6SM SCT050 BKN120 FM220800 07004KT
                       P6SM SCT070 BKN150 FM221500 05007KT P6SM
                       OVC045 FM222200 18008KT P6SM -RA BKN035
                       OVC050=
201210212108 TAF AMD KSEA 212108Z 2121/2224 VRB04KT P6SM SCT021 BKN045 BKN060
                       FM220100 VRB03KT P6SM SCT050 BKN120 FM220800
                       07004KT P6SM SCT070 BKN150 FM221500 05007KT
                       P6SM OVC045 FM222200 18008KT P6SM -RA BKN035
                       OVC050=
201210211726 TAF KSEA 211726Z 2118/2224 19005KT P6SM SCT027 BKN035 BKN080 FM212000
                       21008KT P6SM SCT040 BKN100 FM220100 VRB03KT
                       P6SM SCT050 BKN120 FM220800 07004KT P6SM
                       SCT070 BKN150 FM221500 05007KT P6SM OVC045
                       FM222200 18008KT P6SM -RA BKN035 OVC050=
201210211509 TAF AMD KSEA 211509Z 2115/2218 20005KT P6SM VCSH SCT014 BKN021
                       OVC040 FM211900 21008KT P6SM SCT040 BKN100
                       FM220100 VRB03KT P6SM SCT050 BKN120 FM220800
                       07004KT P6SM SCT070 BKN150=
201210211120 TAF KSEA 211120Z 2112/2218 19006KT P6SM FEW010 SCT035 BKN080
                      TEMPO 2112/2116 -SHRA SCT010 OVC025 FM212000
                       21008KT P6SM SCT040 BKN100 FM220100 VRB03KT
                       P6SM SCT050 BKN120 FM220800 07004KT P6SM
                       SCT070 BKN150=
201210210521 TAF KSEA 210521Z 2106/2212 19010KT P6SM FEW020 BKN040 BKN080
                      TEMPO 2113/2117 -SHRA SCT018 BKN030 OVC040
                       FM212000 21008KT P6SM SCT040 BKN100 FM220100
                       VRB03KT P6SM SCT050 BKN120=
201210210302 TAF AMD KSEA 210302Z 2103/2206 18010KT P6SM FEW018 SCT030 BKN080
                       TEMPO 2103/2107 -SHRA SCT018 BKN030 OVC040
                       FM210700 17008KT P6SM SCT025 BKN050 FM212000
                       22008KT P6SM SCT030 BKN050=
201210210022 TAF AMD KSEA 210022Z 2100/2206 19010KT P6SM VCSH FEW018 SCT025
                       BKN080
                      TEMPO 2100/2104 5SM SHRA FEW018 BKN025 OVC040
                       FM210500 18012KT P6SM -SHRA OVC015 FM211600
                       22008KT P6SM -SHRA BKN025 OVC050 FM212000
                       22008KT P6SM VCSH SCT030 BKN050=
201210202328 TAF KSEA 202328Z 2100/2206 20010KT P6SM VCSH SCT035 BKN080 BKN100
                       TEMPO 2101/2105 5SM SHRA SCT020 BKN028 OVC040
                       FM210500 18012KT P6SM -SHRA OVC015 FM211600
                       22008KT P6SM -SHRA BKN025 OVC050 FM212000
                       22008KT P6SM VCSH SCT030 BKN050=
201210202216 TAF AMD KSEA 202216Z 2022/2124 29015G30KT 4SM RA VCTS FEW021 BKN030CB
                       OVC070 FM202300 19012G18KT P6SM VCSH SCT020
                       BKN040 BKN070 FM210600 19012KT P6SM -SHRA
                       OVC015 FM211600 17006KT P6SM -SHRA BKN025
                       OVC050=
201210202014 TAF AMD KSEA 202014Z 2020/2124 18011G17KT P6SM -SHRA VCTS SCT020
                       BKN028CB OVC120 FM202200 18011G17KT P6SM
                       -SHRA SCT020 BKN028 OVC120 FM210600 19012KT
                       P6SM -SHRA OVC015 FM211600 17006KT P6SM
                       -SHRA BKN025 OVC050=
201210201959 TAF AMD KSEA 201959Z 2020/2124 18011G17KT P6SM -SHRA SCT020 BKN028
                       OVC120 FM210600 19012KT P6SM -SHRA OVC015
                       FM211600 17006KT P6SM -SHRA BKN025 OVC050=
201210201732 TAF KSEA 201732Z 2018/2124 19011G17KT P6SM SCT020 BKN120 FM202000
                       19011G17KT P6SM VCSH SCT020 BKN080
                      TEMPO 2022/2101 -SHRA BKN020 BKN080 FM210100
                       18008KT P6SM -SHRA BKN020 BKN080 FM210600
                       19012KT P6SM -SHRA OVC015 FM211600 17006KT
                       P6SM -SHRA BKN025 OVC050=
201210201120 TAF KSEA 201120Z 2012/2118 20012G20KT P6SM SCT020 BKN100
                      TEMPO 2012/2016 -SHRA BKN020 OVC100 FM210100
                       19008KT P6SM SCT025 BKN080 FM211000 17006KT
                       P6SM -SHRA BKN025 OVC050=
201210200903 TAF AMD KSEA 200903Z 2009/2112 21012G20KT P6SM SCT015 BKN080
                      TEMPO 2009/2013 -SHRA BKN015 OVC080 FM201300
                       22012G18KT P6SM -SHRA BKN025 OVC050 FM210100
                       19008KT P6SM -SHRA BKN020 OVC040=
201210200521 TAF KSEA 200521Z 2006/2112 21010KT P6SM SCT012 OVC050
                      TEMPO 2006/2010 -SHRA OVC012 FM201000 22012G18KT
                       P6SM -SHRA BKN025 OVC050 FM210100 19008KT
                       P6SM -SHRA BKN020 OVC040=
201210200300 KSEA 200300Z 2003/2106 23008KT P6SM OVC025
                      TEMPO 2003/2005 SCT025 OVC060 FM200500 20010G18KT
                       P6SM -SHRA BKN020 OVC035 FM202000 19008KT
                       P6SM VCSH SCT020 BKN035 BKN050=
201210200035 TAF AMD KSEA 200035Z 2001/2106 21008KT P6SM FEW025 BKN060 FM200400
                       20010G18KT P6SM -SHRA BKN020 OVC035 FM202000
                       19008KT P6SM VCSH SCT020 BKN035 BKN050=
201210192323 TAF KSEA 192323Z 2000/2106 21008KT P6SM VCSH SCT024 OVC070
                      TEMPO 2000/2004 BKN025 BKN050 FM200400 20010G18KT
                       P6SM -SHRA BKN020 OVC035 FM202000 19008KT
                       P6SM VCSH SCT020 BKN035 BKN050=
201210192226 TAF AMD KSEA 192226Z 1922/2024 22008KT P6SM SCT022 BKN030 OVC070
                       FM192300 16006KT P6SM VCSH SCT020 OVC050
                       TEMPO 2000/2004 BKN025 BKN050 FM200400 20010G18KT
                       P6SM -SHRA BKN020 OVC035=
201210192104 TAF AMD KSEA 192104Z 1921/2024 21007G16KT P6SM SCT018 BKN080 FM192300
                       16006KT P6SM VCSH SCT020 OVC050
                      TEMPO 2000/2004 BKN025 BKN050 FM200400 20010G18KT
                       P6SM -SHRA BKN020 OVC035=
201210191852 TAF AMD KSEA 191852Z 1919/2024 21016G23KT P6SM SCT009 SCT022 BKN090
                       FM192300 16006KT P6SM VCSH SCT025 BKN050
                       TEMPO 1923/2003 BKN025 BKN050 FM200400 20016G25KT
                       P6SM -SHRA BKN020 OVC035=
201210191720 TAF KSEA 191720Z 1918/2024 19011G17KT P6SM SCT005 OVC011
                      TEMPO 1918/1920 BKN005 OVC011 FM192000 19010G17KT
                       P6SM SCT015 BKN020 BKN050 FM200000 18010KT
                       P6SM -SHRA BKN025 BKN050 FM200400 20016G25KT
                       P6SM -SHRA BKN020 OVC035=
201210191503 TAF AMD KSEA 191503Z 1915/2018 18012KT 6SM BR SCT009 OVC014
                      TEMPO 1915/1918 2SM -SHRA BR BKN008 OVC015
                       FM191800 22010KT P6SM -SHRA SCT020 BKN030
                       OVC050 FM200000 21010KT P6SM -SHRA SCT025
                       BKN050 FM200400 20016G25KT P6SM -SHRA BKN020
                       OVC035=
201210191120 TAF KSEA 191120Z 1912/2018 17013G22KT P6SM -SHRA SCT008 OVC020
                       TEMPO 1912/1916 4SM -SHRA BR BKN008 OVC015
                       FM191800 22010KT P6SM -SHRA SCT020 BKN030
                       OVC050 FM200000 21010KT P6SM -SHRA SCT025
                       BKN050 FM200400 20016G25KT P6SM -SHRA BKN020
                       OVC035=
201210190800 KSEA 190800Z 1908/2012 19008KT P6SM BKN003 OVC025
                      TEMPO 1908/1912 4SM -SHRA BR SCT003 OVC025
                       FM191200 19010KT 4SM -SHRA BR BKN015 OVC025
                       FM191800 22010KT P6SM -SHRA SCT020 BKN030
                       OVC050 FM200000 21010KT P6SM -SHRA SCT025
                       BKN050 FM200400 20014G22KT P6SM SCT035 BKN060=
201210190522 TAF KSEA 190522Z 1906/2012 20008KT P6SM -SHRA BKN030 OVC050 FM191200
                       19010KT 4SM -SHRA BR BKN015 OVC025 FM191800
                       22010KT P6SM -SHRA SCT020 BKN030 OVC050
                       FM200000 21010KT P6SM -SHRA SCT025 BKN050
                       FM200400 20014G22KT P6SM SCT035 BKN060=
201210190301 TAF AMD KSEA 190301Z 1903/2006 18008KT P6SM -RA BKN030 OVC080 FM190500
                       19010G18KT P6SM -RA BKN020 OVC040 FM191200
                       20010G18KT 4SM -RA BR BKN015 OVC025 FM191800
                       22010KT P6SM -SHRA SCT020 BKN030=
201210182325 TAF KSEA 182325Z 1900/2006 18006KT P6SM -RA SCT050 OVC100 FM190200
                       18008KT P6SM -RA OVC030 FM190700 19010G18KT
                       P6SM -RA BKN020 OVC040 FM191200 20010G18KT
                       4SM -RA BR BKN015 OVC025 FM191800 22010KT
                       P6SM -SHRA SCT020 BKN030=
201210182102 KSEA 182102Z 1821/1924 18006KT P6SM SCT050 OVC100 FM190200 18008KT
                       P6SM -RA OVC030 FM190700 19010G18KT P6SM
                       -SHRA BKN020 OVC040 FM191400 20008KT P6SM
                       VCSH SCT025 OVC030=
201210181720 TAF KSEA 181720Z 1818/1924 17004KT P6SM SCT100 BKN200 FM182200
                       18006KT P6SM BKN080 OVC200 FM190200 18008KT
                       P6SM -RA OVC030 FM190700 19010G18KT P6SM
                       -SHRA BKN020 OVC040 FM191400 20008KT P6SM
                       VCSH SCT025 OVC030=
201210181501 KSEA 181501Z 1815/1918 00000KT P6SM SCT100 BKN250 FM181700 14004KT
                       P6SM SCT100 BKN200 FM182300 18006KT P6SM
                       BKN090 BKN200 FM190200 18008KT P6SM -RA
                       OVC030 FM190700 19010KT P6SM -SHRA BKN020
                       OVC040=
201210181120 TAF KSEA 181120Z 1812/1918 00000KT P6SM SCT100 BKN250 FM181700
                       14004KT P6SM SCT100 BKN200 FM182300 18006KT
                       P6SM BKN090 BKN200 FM190200 18008KT P6SM
                       -RA OVC030 FM190700 19010KT P6SM -SHRA BKN020
                       OVC040=
201210180900 TAF AMD KSEA 180900Z 1809/1912 17003KT P6SM BKN120 BKN200 FM181700
                       14004KT P6SM SCT100 BKN200 FM182300 18006KT
                       P6SM BKN090 BKN200 FM190200 18008KT P6SM
                       -RA OVC030 FM190700 19010KT P6SM -SHRA BKN030
                       OVC060=
201210180526 TAF KSEA 180526Z 1806/1912 00000KT P6SM BKN100 BKN200 FM181700
                       14004KT P6SM SCT100 BKN200 FM182300 18006KT
                       P6SM BKN090 BKN200 FM190200 18008KT P6SM
                       -RA OVC030 FM190700 19010KT P6SM -SHRA BKN030
                       OVC060=
201210180300 TAF AMD KSEA 180300Z 1803/1906 VRB03KT P6SM BKN090 FM181800 14004KT
                       P6SM BKN060 OVC100 FM182300 17005KT P6SM
                       BKN030 OVC060 FM190200 18010KT P6SM -RA
                       OVC030=
201210172320 TAF KSEA 172320Z 1800/1906 VRB04KT P6SM FEW030 BKN120 OVC200 FM181800
                       14004KT P6SM BKN060 OVC100 FM182300 17005KT
                       P6SM BKN030 OVC060 FM190200 18010KT P6SM
                       -RA OVC030=
201210172103 TAF AMD KSEA 172103Z 1721/1824 VRB04KT P6SM FEW030 SCT200 FM180000
                       VRB04KT P6SM SCT150 BKN200 FM181000 14007KT
                       P6SM BKN060 OVC100=
201210171720 TAF KSEA 171720Z 1718/1824 18004KT P6SM FEW012 SCT150 BKN250 FM172000
                       18004KT P6SM SCT150 BKN250 FM180000 VRB04KT
                       P6SM OVC120 FM181000 14007KT P6SM BKN060
                       OVC100=
201210171505 KSEA 171505Z 1715/1818 16004KT P6SM FEW012 SCT150 SCT250 FM171800
                       17004KT P6SM SCT030 BKN120 FM180000 VRB04KT
                       P6SM OVC090 FM181000 14007KT P6SM OVC060=
201210171120 TAF KSEA 171120Z 1712/1818 16004KT P6SM SCT015
                      TEMPO 1713/1716 5SM BR BKN015 FM171800 00000KT
                       P6SM SCT030 BKN120 FM180000 VRB04KT P6SM
                       OVC090 FM181000 14007KT P6SM OVC060=
201210170959 TAF AMD KSEA 170959Z 1710/1812 16004KT P6SM SCT022
                      TEMPO 1711/1715 5SM BR BKN018 FM171800 00000KT
                       P6SM SCT030 BKN120 FM180000 VRB04KT P6SM
                       OVC090 FM181000 14007KT P6SM OVC060=
201210170904 KSEA 170904Z 1709/1812 16004KT P6SM BKN022
                      TEMPO 1711/1715 5SM BR BKN018 FM171800 00000KT
                       P6SM SCT030 BKN120 FM180000 VRB04KT P6SM
                       OVC090 FM181000 14007KT P6SM OVC060=
201210170659 TAF AMD KSEA 170659Z 1707/1812 16005KT P6SM BKN015 BKN030
                      TEMPO 1712/1716 VRB04KT 3SM BR OVC012 FM171800
                       VRB04KT P6SM SCT030 BKN120=
201210170520 TAF KSEA 170520Z 1706/1812 18006KT P6SM SCT025 SCT050
                      TEMPO 1708/1711 BKN020 BKN050 FM171100 16005KT
                       5SM BR BKN015 BKN030
                      TEMPO 1712/1716 VRB04KT 3SM BR OVC012 FM171800
                       VRB04KT P6SM SCT030 BKN120=
201210170306 TAF KSEA 170306Z 1703/1806 20008KT P6SM SCT040 FM170600 18007KT
                       P6SM VCSH BKN030 FM171100 16005KT 5SM BR
                       SCT012 BKN030
                      TEMPO 1712/1716 VRB04KT 5SM BR BKN012 FM171800
                       VRB04KT P6SM SCT030 BKN120=
201210170304 TAF AMD KSEA 170304Z 1703/1806 20008KT P6SM SCT040 FM170600 18007KT
                       P6SM VCSH BKN030 FM171100 16005KT 5SM BR
                       SCT012 BKN030
                      TEMPO 1712/1716 VRB04KT 5SM BR BKN012 FM171800
                       VRB04KT P6SM FEW015 BKN035 FM172100 36006KT
                       P6SM BKN040 BKN200=
201210162326 TAF KSEA 162326Z 1700/1806 22011KT P6SM SCT030 BKN050 FM170600
                       18007KT P6SM BKN030 FM171100 16005KT 5SM
                       BR SCT012 BKN030
                      TEMPO 1712/1716 VRB04KT 5SM BR BKN012 FM171800
                       VRB04KT P6SM FEW015 BKN035 FM172100 36006KT
                       P6SM BKN040 BKN200=
201210161720 TAF KSEA 161720Z 1618/1724 22010KT P6SM SCT020 SCT040 FM162000
                       22010KT P6SM SCT030 BKN050 FM170900 16007KT
                       P6SM BKN030 FM171100 16005KT 5SM BR SCT003
                       BKN030
                      TEMPO 1712/1716 VRB04KT 2SM BR BKN006 FM171800
                       VRB04KT P6SM FEW010 BKN035 FM172100 36005KT
                       P6SM SCT035=
201210161502 TAF AMD KSEA 161502Z 1615/1718 22010G18KT P6SM SCT020 FM161600
                       22010KT P6SM VCSH SCT020 SCT040 FM162000
                       23010KT P6SM SCT030 BKN050 FM170600 18007KT
                       P6SM BKN030=
201210161334 TAF AMD KSEA 161334Z 1614/1718 22015G25KT P6SM SCT020 FM161600
                       22012G20KT P6SM VCSH BKN020 BKN040 FM162000
                       23010KT P6SM SCT030 BKN050 FM170600 18007KT
                       P6SM BKN030=
201210161125 TAF KSEA 161125Z 1612/1718 22015G25KT P6SM SCT020 SCT040
                      TEMPO 1612/1615 BKN020 BKN040 FM161500 22012G20KT
                       P6SM VCSH BKN020 BKN040 FM162000 23010KT
                       P6SM SCT030 BKN050 FM170600 18007KT P6SM
                       BKN030=
201210160930 TAF AMD KSEA 160930Z 1610/1712 21012G22KT P6SM VCSH SCT020 BKN040
                       TEMPO 1610/1614 BKN018 BKN040 FM162000 21010KT
                       P6SM SCT030 BKN050 FM170600 18007KT P6SM
                       BKN030=
201210160734 TAF AMD KSEA 160734Z 1608/1712 21012G22KT P6SM SCT040 FM161000
                       21012G20KT P6SM VCSH SCT020 BKN040
                      TEMPO 1610/1614 BKN020 BKN040 FM162000 21010KT
                       P6SM SCT030 BKN050 FM170600 18007KT P6SM
                       BKN030=
201210160520 TAF KSEA 160520Z 1606/1712 21015G25KT P6SM VCSH BKN015 BKN040 FM161200
                       21012G20KT P6SM VCSH BKN020 BKN040 FM161800
                       20010KT P6SM SCT030 BKN040=
201210160301 KSEA 160301Z 1603/1706 21017G27KT P6SM -SHRA BKN015 BKN040 FM160900
                       21015G25KT P6SM -SHRA BKN020 BKN040 FM161400
                       24012G18KT P6SM VCSH BKN020 BKN040 FM161800
                       20010KT P6SM SCT030 BKN040=
201210152320 TAF KSEA 152320Z 1600/1706 14008KT 5SM -RA SCT020 OVC035CB
                      TEMPO 1600/1603 18012G20KT 3SM -TSRA BKN025CB
                       FM160300 21020G32KT P6SM -SHRA BKN020 BKN040
                       FM160900 24018G26KT P6SM -SHRA BKN020 BKN040
                       FM161400 24012G18KT P6SM VCSH BKN020 BKN040
                       FM161800 20010KT P6SM SCT030 BKN040=
201210152101 TAF AMD KSEA 152101Z 1521/1624 14008KT P6SM -RA SCT030 BKN050 OVC100
                       FM152300 17012G20KT P6SM -RA BKN025 OVC050
                       TEMPO 1523/1603 4SM RA BR OVC015 FM160300
                       21020G32KT P6SM -SHRA BKN020 BKN040 FM160900
                       24018G26KT P6SM -SHRA BKN020 BKN040 FM161400
                       24012G18KT P6SM VCSH BKN020 BKN040=
201210151736 TAF KSEA 151736Z 1518/1624 16005KT P6SM FEW010 SCT015 BKN250 FM151900
                       16008KT P6SM SCT025 BKN050 OVC120 FM152100
                       17012G20KT P6SM -RA BKN025 OVC050
                      TEMPO 1523/1603 4SM RA BR OVC015 FM160300
                       21020G32KT P6SM -SHRA BKN020 BKN040 FM160900
                       24018G26KT P6SM -SHRA BKN020 BKN040 FM161400
                       24012G18KT P6SM VCSH BKN020 BKN040=
201210151433 TAF AMD KSEA 151433Z 1515/1618 24007KT P6SM BKN008 OVC012 FM151700
                       17007KT P6SM SCT009 BKN015 BKN050 FM151900
                       16008KT P6SM SCT025 BKN050 OVC120 FM152200
                       16012G20KT P6SM -RA BKN025 OVC050
                      TEMPO 1522/1602 4SM RA BR OVC015 FM160300
                       21012G22KT P6SM -SHRA BKN020 BKN040=
201210151120 TAF KSEA 151120Z 1512/1618 22007KT P6SM SCT005 OVC012
                      TEMPO 1512/1515 5SM BR BKN005 OVC010 FM151600
                       17007KT P6SM SCT005 BKN015 BKN050 FM151900
                       16008KT P6SM SCT025 BKN050 OVC120 FM152200
                       16012G20KT P6SM -RA BKN025 OVC050
                      TEMPO 1522/1602 4SM RA BR OVC015 FM160300
                       21012G22KT P6SM -SHRA BKN020 BKN040=
201210150811 TAF AMD KSEA 150811Z 1508/1612 17007KT P6SM SCT005 OVC012
                      TEMPO 1508/1512 1SM -DZ BR BKN005 OVC012
                       FM151600 17007KT P6SM BKN015 BKN050 FM151900
                       16008KT P6SM SCT025 BKN050 OVC120 FM152200
                       16012G20KT P6SM -RA BKN025 OVC050
                      TEMPO 1522/1602 4SM RA BR OVC015 FM160300
                       21012G22KT P6SM -SHRA BKN020 BKN040=
201210150535 TAF KSEA 150535Z 1506/1612 17007KT P6SM -RA OVC025
                      TEMPO 1506/1509 4SM -DZ BR OVC015 FM150900
                       17007KT P6SM OVC015 FM151600 17007KT P6SM
                       BKN020 BKN040 FM151900 16008KT P6SM SCT025
                       BKN050 OVC120 FM152200 16012G20KT P6SM -RA
                       BKN025 OVC050
                      TEMPO 1522/1602 4SM RA BR OVC015 FM160300
                       21012G22KT P6SM -SHRA BKN020 BKN040=
201210150304 TAF AMD KSEA 150304Z 1503/1606 17007KT P6SM -SHRA BKN025 OVC035
                       FM150800 17007KT P6SM OVC015 FM151600 17007KT
                       P6SM BKN020 BKN040 FM151900 16008KT P6SM
                       SCT025 BKN050 OVC120 FM152200 16012KT P6SM
                       -RA BKN025 OVC050=
201210142324 TAF KSEA 142324Z 1500/1606 20004KT 6SM -RA SCT015 BKN024 OVC035
                       TEMPO 1500/1504 3SM RA BR OVC015 FM150400
                       19010KT P6SM -SHRA BKN020 OVC040 FM150600
                       20008KT P6SM OVC015 FM151800 16008KT P6SM
                       SCT030 OVC080=
201210142100 TAF AMD KSEA 142100Z 1421/1524 20010KT P6SM -RA BKN025 OVC040
                      TEMPO 1422/1502 4SM -RA BR OVC015 FM150300
                       19010KT P6SM -SHRA BKN020 OVC040 FM150600
                       20008KT P6SM OVC015 FM151800 16008KT P6SM
                       SCT030 OVC080=
201210141722 TAF KSEA 141722Z 1418/1524 14005KT P6SM OVC035 FM142100 19012G20KT
                       P6SM -RA BKN020 OVC035
                      TEMPO 1422/1502 4SM -RA BR OVC015 FM150300
                       19010KT P6SM -SHRA BKN020 OVC040 FM150600
                       20008KT P6SM OVC015 FM151800 16008KT P6SM
                       SCT030 OVC080=
201210141500 KSEA 141500Z 1415/1518 14008KT P6SM BKN045 OVC150 FM141800 19012G22KT
                       P6SM -RA OVC020 FM150600 21008KT P6SM VCSH
                       BKN020 BKN040=
201210141120 TAF KSEA 141120Z 1412/1518 18008KT P6SM OVC035 FM141800 19012G22KT
                       P6SM -RA OVC020 FM150600 21008KT P6SM VCSH
                       BKN020 BKN040=
201210140902 TAF AMD KSEA 140902Z 1409/1512 19008KT P6SM OVC035 FM141900 19012G22KT
                       P6SM -RA OVC020 FM150500 21008KT P6SM VCSH
                       BKN020 BKN040=
201210140520 TAF KSEA 140520Z 1406/1512 19010KT P6SM OVC030
                      TEMPO 1406/1410 -RA OVC020 FM141900 19012G22KT
                       P6SM -RA OVC020 FM150500 21008KT P6SM VCSH
                       BKN020 BKN040=
201210140303 KSEA 140303Z 1403/1506 19007KT P6SM OVC018 FM141200 19012KT P6SM
                       -RA OVC015 FM142000 19012G22KT P6SM -RA
                       BKN015 OVC030=
201210132330 TAF KSEA 132330Z 1400/1506 18010KT P6SM SCT019 BKN030 OVC045
                      TEMPO 1400/1404 6SM -RA BKN019 OVC030 FM140400
                       18007KT P6SM SCT015 OVC025
                      TEMPO 1404/1408 -RA FM140800 18008KT P6SM
                       -RA OVC015 FM141500 17006KT 4SM -RA BR OVC015
                       FM142000 20012KT 4SM -RA BR BKN016 OVC025=
201210131720 TAF KSEA 131720Z 1318/1424 18007KT 5SM -RA BR BKN021 OVC070 FM132300
                       20006KT 4SM BR OVC025
                      TEMPO 1323/1402 4SM -RA OVC025 FM140200 19006KT
                       4SM -RA BR OVC015 FM140900 18006KT P6SM
                       VCSH OVC025 FM141600 18010KT P6SM -RA OVC015=
201210131501 KSEA 131501Z 1315/1418 20003KT P6SM -RA SCT015 BKN022 OVC028 FM132000
                       21008KT P6SM SCT020 BKN035 FM140300 17012KT
                       P6SM -RA SCT020 OVC035 FM140700 18014KT
                       P6SM -RA OVC020=
201210131120 TAF KSEA 131120Z 1312/1418 21008KT P6SM VCSH BKN015 OVC050 FM132000
                       21008KT P6SM SCT020 BKN035 FM140300 17012KT
                       P6SM -RA SCT020 OVC035 FM140700 18014KT
                       P6SM -RA OVC020=
201210130904 TAF AMD KSEA 130904Z 1309/1412 21008KT P6SM VCSH BKN020 OVC040
                       FM131800 21008KT P6SM SCT020 BKN035 FM140300
                       17012KT P6SM -RA SCT020 OVC035=
201210130521 TAF KSEA 130521Z 1306/1412 21010KT P6SM VCSH BKN025 OVC040 FM132000
                       21010KT P6SM SCT020 BKN035 FM140300 17012KT
                       P6SM -RA SCT020 OVC035=
201210130303 TAF AMD KSEA 130303Z 1303/1406 21010KT P6SM VCSH OVC025 FM132000
                       20010KT P6SM BKN035 FM140300 20010KT P6SM
                       -RA OVC035=
201210122349 TAF KSEA 122349Z 1300/1406 20012KT P6SM VCSH SCT008 BKN015 OVC020
                       TEMPO 1300/1304 3SM -RA BR OVC015 FM130700
                       18008KT P6SM VCSH OVC010
                      TEMPO 1312/1315 3SM BR OVC008 FM131800 19010KT
                       P6SM VCSH BKN015 OVC025 FM132100 20010KT
                       P6SM BKN025 OVC030 FM140300 18008KT P6SM
                       OVC035=
201210122104 KSEA 122104Z 1221/1324 20010KT P6SM VCSH BKN020 OVC030
                      TEMPO 1221/1224 4SM -RA BR BKN006 OVC020
                       FM130700 18008KT P6SM VCSH OVC012 FM131800
                       19010KT P6SM VCSH OVC025=
201210121746 TAF KSEA 121746Z 1218/1324 18008KT P6SM VCSH BKN025 OVC040 FM122000
                       21010KT P6SM VCSH SCT015 OVC025 FM130700
                       18008KT P6SM VCSH OVC012 FM131800 19010KT
                       P6SM VCSH OVC025=
201210121447 TAF AMD KSEA 121447Z 1215/1318 16010KT 6SM -RA BR BKN025 OVC070
                       FM122000 21008KT P6SM VCSH SCT015 OVC025
                       FM130600 18008KT P6SM VCSH OVC012=
201210121231 TAF AMD KSEA 121231Z 1213/1318 19009KT 1SM BR OVC002
                      TEMPO 1214/1215 4SM -RA BR SCT002 OVC006
                       FM121500 18009KT 6SM -RA BR BKN008 OVC015
                       FM121700 18009KT P6SM -RA SCT008 BKN015
                       OVC025 FM122000 21008KT P6SM VCSH SCT015
                       OVC025 FM130600 18008KT P6SM VCSH OVC012=
201210121120 TAF KSEA 121120Z 1212/1318 19009KT P6SM SCT007 OVC010 FM121400
                       18009KT 6SM -RA BR BKN015 OVC025 FM122000
                       21008KT P6SM VCSH SCT015 OVC025 FM130600
                       18008KT P6SM VCSH OVC012=
201210120905 TAF AMD KSEA 120905Z 1209/1312 20005KT 1SM BR OVC002 FM121100 20006KT
                       4SM BR OVC008 FM121400 18006KT 6SM -RA BR
                       BKN015 OVC025 FM122000 21008KT P6SM VCSH
                       SCT015 OVC025 FM130400 18010KT P6SM OVC012=
201210120702 TAF AMD KSEA 120702Z 1207/1312 00000KT 3SM BR SCT002 BKN150
                      TEMPO 1207/1209 1/2SM FG OVC002 FM120900
                       18004KT 5SM BR OVC008 FM121400 18006KT 6SM
                       -RA BR BKN015 OVC025 FM122000 21008KT P6SM
                       VCSH SCT015 OVC025 FM130400 18010KT P6SM
                       OVC012=
201210120546 TAF KSEA 120546Z 1206/1312 00000KT 5SM BR BKN150 FM120700 18004KT
                       5SM BR OVC010 FM121400 18006KT 6SM -RA BR
                       BKN015 OVC025 FM122000 21008KT P6SM VCSH
                       SCT015 OVC025 FM130400 18010KT P6SM OVC012=
201210120303 TAF AMD KSEA 120303Z 1203/1306 27004KT P6SM FEW250 FM120600 18004KT
                       P6SM BKN150 FM120900 18006KT P6SM OVC015
                       FM121300 18012KT 6SM -RA BR SCT010 OVC020
                       FM122100 20012KT P6SM VCSH SCT015 BKN025
                       OVC040=
201210112323 TAF KSEA 112323Z 1200/1306 27004KT P6SM FEW015 SCT250 FM120600
                       18004KT P6SM BKN150 FM120900 18006KT P6SM
                       OVC010 FM121300 18012KT 6SM -RA BR SCT010
                       OVC020 FM122100 20012KT P6SM VCSH SCT015
                       BKN025 OVC040=
201210112050 TAF AMD KSEA 112050Z 1121/1224 VRB03KT P6SM SCT012 SCT250 FM120600
                       18004KT P6SM BKN150 FM121100 18006KT P6SM
                       OVC010 FM121700 18012KT P6SM SCT010 OVC020
                       TEMPO 1218/1222 -RA=
201210111721 TAF KSEA 111721Z 1118/1224 00000KT 6SM BR OVC006 FM111930 00000KT
                       P6SM OVC010 FM112200 29004KT P6SM SCT015
                       SCT250 FM120600 18004KT P6SM BKN150 FM121100
                       18006KT P6SM OVC010 FM121700 18012KT P6SM
                       SCT010 OVC020
                      TEMPO 1218/1222 -RA=
201210111502 TAF AMD KSEA 111502Z 1115/1218 00000KT 6SM BR OVC006 FM111800 21004KT
                       6SM BR OVC011 FM112200 29004KT P6SM SCT015
                       SCT250 FM120600 18004KT P6SM BKN150 FM121200
                       18006KT P6SM BKN020 OVC060=
201210111125 TAF KSEA 111125Z 1112/1218 00000KT 5SM BR OVC005 FM111800 21004KT
                       6SM BR OVC012 FM112200 29004KT P6SM SCT015
                       SCT250 FM120600 18004KT P6SM BKN150 FM121200
                       18006KT P6SM BKN020 OVC060=
201210110824 KSEA 110824Z 1108/1212 VRB03KT 5SM BR OVC012 FM111100 00000KT 3SM
                       BR OVC006 FM111800 21004KT 5SM BR OVC012
                       FM112200 31004KT P6SM SCT015 SCT250 FM120400
                       18004KT P6SM BKN200=
201210110534 TAF KSEA 110534Z 1106/1212 VRB03KT 5SM BR OVC012 FM110900 00000KT
                       1/2SM FG OVC005 FM111800 21004KT 2SM BR
                       BKN007 FM112200 31004KT P6SM SCT250 FM120400
                       18004KT P6SM BKN200=
201210110304 TAF AMD KSEA 110304Z 1103/1206 VRB03KT 5SM BR OVC015 FM110600 00000KT
                       2SM BR OVC009 FM110900 00000KT 1/4SM FG
                       OVC003 FM111800 21004KT 2SM BR BKN003 FM112200
                       31004KT P6SM SCT250 FM120400 18004KT P6SM
                       BKN200=
201210102332 TAF KSEA 102332Z 1100/1206 29005KT 5SM BR OVC012 FM110200 01003KT
                       4SM BR BKN015 FM110900 00000KT 1/4SM FG
                       OVC003 FM111800 21004KT 2SM BR BKN003 FM112200
                       31004KT P6SM SCT250 FM120400 18004KT P6SM
                       BKN200=
201210102102 TAF AMD KSEA 102102Z 1021/1124 00000KT 2SM BR OVC008 FM102300 VRB02KT
                       P6SM SCT010 FM110000 29005KT P6SM SKC FM110900
                       00000KT 3SM BR BKN003 FM111200 00000KT 1/2SM
                       FG BKN001 FM111900 VRB03KT P6SM SCT250=
201210101906 KSEA 101906Z 1019/1124 00000KT 2SM BR OVC003
                      TEMPO 1019/1021 4SM BR SCT005 FM102100 21004KT
                       P6SM SCT008 FM110000 29005KT P6SM SKC FM110900
                       00000KT 3SM BR BKN003 FM111200 00000KT 1/2SM
                       FG BKN001 FM111900 VRB03KT P6SM SCT250=
201210101728 TAF KSEA 101728Z 1018/1124 01004KT 1/4SM FG VV001 FM102000 21004KT
                       P6SM SCT015 FM110000 29005KT P6SM SKC FM110900
                       00000KT 3SM BR BKN003 FM111200 00000KT 1/2SM
                       FG BKN001 FM111900 VRB03KT P6SM SCT250=
201210101508 TAF AMD KSEA 101508Z 1015/1118 02003KT 1/4SM FG VV001 FM101900
                       21004KT P6SM SCT015 FM110000 29005KT P6SM
                       SKC FM110900 00000KT 3SM BR BKN003 FM111200
                       00000KT 1/2SM FG BKN001=
201210101120 TAF KSEA 101120Z 1012/1118 00000KT 1/4SM FG VV001 FM101900 21004KT
                       P6SM SCT015 FM110000 29005KT P6SM SKC FM110900
                       00000KT 3SM BR BKN003 FM111200 00000KT 1/2SM
                       FG BKN001=
201210100829 TAF AMD KSEA 100829Z 1008/1112 00000KT 3SM BR BKN004
                      TEMPO 1009/1012 3/4SM BR BKN002 FM101200
                       00000KT 1/4SM FG BKN001 FM101900 21004KT
                       P6SM SCT015 FM110000 29005KT P6SM SKC FM110900
                       00000KT 3SM BR BKN003=
201210100536 TAF KSEA 100536Z 1006/1112 VRB03KT P6SM SKC
                      TEMPO 1010/1012 BKN010 FM101200 17004KT 4SM
                       BR OVC008 FM102000 21004KT P6SM SCT020 FM110100
                       29005KT P6SM FEW030 FM111000 VRB03KT P6SM
                       BKN010=
201210100303 TAF AMD KSEA 100303Z 1003/1106 VRB03KT P6SM SKC FM100900 VRB03KT
                       P6SM BKN010 FM101200 17004KT 4SM BR OVC008
                       FM102000 21004KT P6SM SCT020 FM110100 29005KT
                       P6SM FEW030=
201210092323 TAF KSEA 092323Z 1000/1106 29004KT P6SM SKC FM100900 20004KT P6SM
                       BKN010 FM101200 17004KT 4SM BR OVC008 FM102000
                       21004KT P6SM SKC=
201210092103 TAF AMD KSEA 092103Z 0921/1024 00000KT P6SM BKN013 FM092200 21004KT
                       P6SM SCT015 FM092300 29005KT P6SM SKC FM100900
                       20004KT P6SM BKN010 FM101200 17004KT 4SM
                       BR OVC008=
201210091924 TAF AMD KSEA 091924Z 0919/1024 22004KT P6SM OVC010 FM092200 21004KT
                       P6SM SCT011 FM092300 29005KT P6SM SKC FM100900
                       20004KT P6SM BKN010 FM101200 17004KT 4SM
                       BR OVC008=
201210091720 TAF KSEA 091720Z 0918/1024 00000KT P6SM OVC008 FM092000 21004KT
                       P6SM SCT011 FM092300 29005KT P6SM SKC FM100900
                       20004KT P6SM BKN010 FM101200 17004KT 4SM
                       BR OVC008=
201210091519 TAF AMD KSEA 091519Z 0915/1018 19004KT P6SM OVC008
                      TEMPO 0915/0917 4SM BR FM091900 21004KT P6SM
                       SCT007 FM092300 29005KT P6SM SKC FM100900
                       20004KT P6SM BKN010 FM101200 17004KT 4SM
                       BR OVC008=
201210091120 TAF KSEA 091120Z 0912/1018 19004KT P6SM OVC005
                      TEMPO 0914/0917 2SM BR FM091800 21004KT P6SM
                       SCT007 FM092300 29005KT P6SM SKC FM100900
                       20004KT P6SM BKN010 FM101200 17004KT 4SM
                       BR OVC008=
201210090904 KSEA 090904Z 0909/1012 20003KT 5SM BR BKN007 FM091200 VRB03KT 3/4SM
                       BR OVC005 FM091800 21004KT P6SM SCT007 FM092300
                       29005KT P6SM SKC FM100900 20003KT P6SM BKN008=
201210090554 TAF KSEA 090554Z 0906/1012 23003KT P6SM SKC FM091400 VRB03KT 1/2SM
                       FG VV001 FM091800 31003KT P6SM SKC=
201210090301 TAF AMD KSEA 090301Z 0903/1006 23004KT P6SM FEW250 FM090400 VRB03KT
                       P6SM SKC FM091400 VRB03KT 1/2SM FG VV001
                       FM091800 31003KT P6SM SKC=
201210082326 TAF KSEA 082326Z 0900/1006 00000KT P6SM SCT250 FM090400 VRB03KT
                       P6SM SKC FM091400 VRB03KT 1/2SM FG VV001
                       FM091800 31003KT P6SM SKC=
201210082100 TAF AMD KSEA 082100Z 0821/0924 21005KT P6SM SCT250 FM090400 VRB03KT
                       P6SM SKC FM091400 VRB03KT 1/2SM FG VV001
                       FM091800 31003KT P6SM SKC=
201210081722 TAF KSEA 081722Z 0818/0924 14004KT P6SM FEW250 FM082000 31006KT
                       P6SM SKC FM090400 VRB03KT P6SM SKC FM091400
                       VRB03KT 1/2SM FG VV001 FM091800 31003KT
                       P6SM SKC=
201210081500 KSEA 081500Z 0815/0918 13004KT P6SM FEW250 FM082000 31006KT P6SM
                       SKC FM090400 VRB03KT P6SM SKC FM091400 VRB03KT
                       1/2SM FG VV001=
201210081130 TAF KSEA 081130Z 0812/0918 VRB03KT P6SM SKC FM082000 31006KT P6SM
                       SKC FM090400 VRB03KT P6SM SKC FM091400 VRB03KT
                       1/2SM FG VV001=
201210080909 TAF AMD KSEA 080909Z 0809/0912 VRB03KT P6SM SKC FM082000 31006KT
                       P6SM SKC FM090400 VRB03KT P6SM SKC=
201210080542 TAF KSEA 080542Z 0806/0912 VRB03KT P6SM SKC FM082000 31006KT P6SM
                       SKC FM090400 VRB03KT P6SM SKC=
201210080310 TAF AMD KSEA 080310Z 0803/0906 VRB03KT P6SM SKC FM082000 31006KT
                       P6SM SKC FM090400 VRB03KT P6SM SKC=
201210072322 TAF KSEA 072322Z 0800/0906 34006KT P6SM SKC FM080200 02006KT P6SM
                       SKC FM080600 VRB03KT P6SM SKC FM081300 VRB03KT
                       P6SM VCFG SKC FM081700 VRB03KT P6SM SKC
                       FM082000 31006KT P6SM SKC FM090400 VRB03KT
                       P6SM SKC=
201210072205 TAF AMD KSEA 072205Z 0722/0824 34006KT P6SM SKC FM080200 02006KT
                       P6SM SKC FM080600 VRB03KT P6SM SKC FM081300
                       VRB03KT P6SM VCFG SKC FM081700 VRB03KT P6SM
                       SKC FM082000 31006KT P6SM SKC=
201210071728 TAF KSEA 071728Z 0718/0824 32006KT P6SM SKC FM080200 02006KT P6SM
                       SKC FM080600 VRB03KT P6SM SKC FM081300 VRB03KT
                       P6SM VCFG SKC FM081700 VRB03KT P6SM SKC
                       FM082000 31006KT P6SM SKC=
201210071501 KSEA 071501Z 0715/0818 VRB03KT P6SM SKC FM071700 36008KT P6SM SKC
                       FM080400 VRB03KT P6SM SKC=
201210071132 TAF KSEA 071132Z 0712/0818 VRB03KT P6SM SKC FM071700 36008KT P6SM
                       SKC FM080400 VRB03KT P6SM SKC=
201210070918 KSEA 070918Z 0709/0812 36008KT P6SM SKC FM080500 02004KT P6SM SKC=
201210070528 TAF KSEA 070528Z 0706/0812 03008KT P6SM SKC FM071700 36010KT P6SM
                       SKC FM080500 02006KT P6SM SKC=
201210070304 KSEA 070304Z 0703/0806 03010KT P6SM SKC FM072100 34008KT P6SM SKC
                       FM080300 02005KT P6SM SKC=
201210062325 TAF KSEA 062325Z 0700/0806 35012KT P6SM SKC FM070300 03010KT P6SM
                       SKC FM072100 34008KT P6SM SKC FM080300 02005KT
                       P6SM SKC=
201210062206 KSEA 062206Z 0622/0724 35012KT P6SM SKC FM070300 03010KT P6SM SKC
                       FM072100 34008KT P6SM SKC=
201210062102 KSEA 062102Z 0621/0724 01010KT P6SM SKC FM070300 03008KT P6SM SKC
                       FM072100 34008KT P6SM SKC=
201210061746 TAF KSEA 061746Z 0618/0724 01008KT P6SM SKC FM070300 03008KT P6SM
                       SKC FM072100 34008KT P6SM SKC=
201210061501 KSEA 061501Z 0615/0718 36005KT P6SM SKC FM061900 36010KT P6SM SKC
                       FM070300 03008KT P6SM SKC=
201210061130 TAF KSEA 061130Z 0612/0718 03010KT P6SM SKC FM061900 36010KT P6SM
                       SKC FM070300 03008KT P6SM SKC=
201210060914 KSEA 060914Z 0609/0712 05010KT P6SM SKC FM061900 36010KT P6SM SKC
                       FM070300 03008KT P6SM SKC=
201210060538 TAF KSEA 060538Z 0606/0712 03008KT P6SM SKC FM061900 36010KT P6SM
                       SKC FM070300 03008KT P6SM SKC=
201210060347 KSEA 060347Z 0604/0706 03008KT P6SM SKC FM061900 36010KT P6SM SKC
                       FM070300 02007KT P6SM SKC=
201210052320 TAF KSEA 052320Z 0600/0706 35013KT P6SM SKC FM060200 01010KT P6SM
                       SKC FM060800 03008KT P6SM SKC FM061900 36010KT
                       P6SM SKC FM070300 02007KT P6SM SKC=
201210052103 KSEA 052103Z 0521/0624 36012G18KT P6SM SKC FM060200 01010KT P6SM
                       SKC FM060800 03008KT P6SM SKC FM061800 01010KT
                       P6SM SKC=
201210051720 TAF KSEA 051720Z 0518/0624 02012KT P6SM SKC FM060800 03008KT P6SM
                       SKC FM061800 01010KT P6SM SKC=
201210051503 KSEA 051503Z 0515/0618 02012KT P6SM SKC FM060800 02008KT P6SM SKC=
201210051128 TAF KSEA 051128Z 0512/0618 02008KT P6SM SKC FM051700 02012KT P6SM
                       SKC FM060800 02008KT P6SM SKC=
201210050910 KSEA 050910Z 0509/0612 02012KT P6SM SKC FM051000 02008KT P6SM SKC
                       FM051700 02012KT P6SM SKC FM060800 02008KT
                       P6SM SKC=
201210050532 TAF KSEA 050532Z 0506/0612 02012KT P6SM SKC FM051000 02008KT P6SM
                       SKC FM051700 02012KT P6SM SKC FM060800 02008KT
                       P6SM SKC=
201210050309 KSEA 050309Z 0503/0606 02012KT P6SM SCT250=
201210042334 TAF KSEA 042334Z 0500/0606 35013KT P6SM SKC FM050200 02009KT P6SM
                       SKC FM051200 05007KT P6SM SKC FM051800 02011KT
                       P6SM SKC FM060200 05008KT P6SM SKC=
201210042002 KSEA 042002Z 0420/0524 35013KT P6SM SKC
                      TEMPO 0420/0422 35013G20KT FM050200 02009KT
                       P6SM SKC FM051200 05007KT P6SM SKC FM051800
                       02010KT P6SM SKC=
201210041721 TAF KSEA 041721Z 0418/0524 02013KT P6SM SKC
                      TEMPO 0418/0422 02013G20KT FM050200 02009KT
                       P6SM SKC FM051200 05007KT P6SM SKC FM051800
                       02010KT P6SM SKC=
201210041512 KSEA 041512Z 0415/0518 02012KT P6SM SKC=
201210041136 TAF KSEA 041136Z 0412/0518 02012KT P6SM SKC=
201210040909 KSEA 040909Z 0409/0512 02012KT P6SM SKC=
201210040534 TAF KSEA 040534Z 0406/0512 02012KT P6SM SKC=
201210040304 KSEA 040304Z 0403/0506 01012KT P6SM SKC FM040900 02008KT P6SM SKC=
201210032327 TAF KSEA 032327Z 0400/0506 35015KT P6SM SKC FM040100 02011KT P6SM
                       SKC FM041200 04009KT P6SM SKC FM041900 01009KT
                       P6SM SKC FM050100 03009KT P6SM SKC=
201210032044 KSEA 032044Z 0321/0424 02015KT P6SM FEW250
                      TEMPO 0321/0323 02014G22KT FM040200 03010KT
                       P6SM SKC FM041100 04006KT P6SM SKC=
201210031744 TAF KSEA 031744Z 0318/0424 02015KT P6SM FEW250
                      TEMPO 0319/0323 02014G22KT FM040200 03010KT
                       P6SM SKC FM041100 04006KT P6SM SKC=
201210031528 KSEA 031528Z 0315/0418 02014KT P6SM SKC
                      TEMPO 0319/0323 02014G22KT FM040200 03010KT
                       P6SM SKC=
201210031120 TAF KSEA 031120Z 0312/0418 02008KT P6SM SKC FM031700 02013KT P6SM
                       SKC FM040400 03010KT P6SM SKC=
201210030911 KSEA 030911Z 0309/0412 02010KT P6SM SKC FM031700 02013KT P6SM SKC
                       FM040400 03010KT P6SM SKC=
201210030520 TAF KSEA 030520Z 0306/0412 02012KT P6SM SKC FM031700 02013KT P6SM
                       SKC FM040400 03010KT P6SM SKC=
201210030300 KSEA 030300Z 0303/0406 35008KT P6SM SKC FM030600 03009KT P6SM SKC
                       FM031700 03012KT P6SM SKC=
201210022324 TAF KSEA 022324Z 0300/0406 33009KT P6SM SCT045 FM030200 36009KT
                       P6SM SKC FM030900 03009KT P6SM SKC FM031700
                       03012KT P6SM SKC=
201210022102 KSEA 022102Z 0221/0324 31009KT P6SM SCT045 FM030100 35009KT P6SM
                       SKC FM030900 04009KT P6SM SKC FM031800 02012KT
                       P6SM SKC=
201210021924 KSEA 021924Z 0219/0324 35013KT P6SM BKN040
                      TEMPO 0220/0224 35013G22KT FM030100 02011KT
                       P6SM FEW040 FM030900 04009KT P6SM SKC FM031800
                       02012KT P6SM SKC=
201210021722 TAF KSEA 021722Z 0218/0324 02010KT P6SM BKN035 FM022000 35013KT
                       P6SM FEW035
                      TEMPO 0220/0224 35013G22KT FM030100 02011KT
                       P6SM SKC FM030900 04009KT P6SM SKC FM031800
                       02012KT P6SM SKC=
201210021523 KSEA 021523Z 0215/0318 02009KT P6SM BKN028 FM021800 36014KT P6SM
                       SCT035 FM030400 03009KT P6SM SKC=
201210021401 KSEA 021401Z 0214/0318 02006KT P6SM SCT030 SCT050
                      TEMPO 0214/0218 BKN030 BKN050 FM021800 36014KT
                       P6SM SKC FM030400 03009KT P6SM SKC=
201210021120 TAF KSEA 021120Z 0212/0318 02010KT P6SM SCT050
                      TEMPO 0212/0214 BKN050 FM021800 36014KT P6SM
                       SKC FM030400 03009KT P6SM SKC=
201210020840 KSEA 020840Z 0209/0312 02010KT P6SM BKN045 FM021200 35010KT P6SM
                       SCT045 FM021700 36014KT P6SM SKC FM030300
                       03012KT P6SM SKC=
201210020520 TAF KSEA 020520Z 0206/0312 04015G22KT P6SM BKN045 FM020800 02012G20KT
                       P6SM SCT015 BKN035
                      TEMPO 0210/0214 BKN015 FM021700 35010KT P6SM
                       SCT050 FM021900 36014KT P6SM SKC FM030300
                       03012KT P6SM SKC=
201210020303 KSEA 020303Z 0203/0306 02009KT P6SM BKN045 FM020700 02008KT P6SM
                       SCT015 BKN035
                      TEMPO 0210/0214 BKN015 FM021700 35013KT P6SM
                       SCT050 FM021900 36013KT P6SM SKC=
201210020058 KSEA 020058Z 0201/0306 30005KT P6SM FEW050 SCT090 BKN250 FM020400
                       33009KT P6SM SCT035 SCT060 FM020600 02007KT
                       P6SM SCT028
                      TEMPO 0210/0214 BKN028 FM021800 35013KT P6SM
                       SKC=
201210012346 TAF KSEA 012346Z 0200/0306 30008KT P6SM FEW060 SCT100 BKN200 FM020100
                       24010KT P6SM FEW035 BKN060 BKN100 FM020400
                       33009KT P6SM SCT035 SCT060 FM020600 02007KT
                       P6SM SCT028
                      TEMPO 0210/0214 BKN028 FM021800 35013KT P6SM
                       SKC=
201210012109 KSEA 012109Z 0121/0224 25006KT P6SM FEW060 SCT100 BKN250 FM020000
                       24009KT P6SM FEW060 BKN100 OVC200 FM020600
                       24012KT P6SM SCT028 BKN060 FM021200 02007KT
                       P6SM FEW011 BKN028 FM021800 35013KT P6SM
                       FEW040=
201210011742 TAF KSEA 011742Z 0118/0224 VRB03KT P6SM SCT250 FM012100 28006KT
                       P6SM SCT100 BKN250 FM020000 24009KT P6SM
                       FEW060 BKN100 OVC200 FM020600 24012KT P6SM
                       SCT028 BKN060 FM021200 02007KT P6SM FEW011
                       BKN028 FM021800 35013KT P6SM FEW040=
201210011502 TAF AMD KSEA 011502Z 0115/0218 VRB03KT P6SM FEW250 FM011800 22006KT
                       P6SM SCT120 BKN200 FM012200 VRB04KT P6SM
                       FEW060 OVC100 FM020200 31009KT P6SM BKN040
                       BKN080 FM020700 02007KT P6SM VCSH BKN035
                       FM021200 04005KT P6SM SCT035=
201210011120 TAF KSEA 011120Z 0112/0218 02005KT P6SM BKN200 FM011700 22006KT
                       P6SM SCT120 BKN200 FM012200 VRB04KT P6SM
                       FEW060 OVC100 FM020200 31009KT P6SM BKN040
                       BKN080 FM020700 02007KT P6SM VCSH BKN035
                       FM021200 04005KT P6SM SCT035=
201210010900 KSEA 010900Z 0109/0212 02004KT P6SM SCT200 FM011700 22006KT P6SM
                       SCT120 BKN200 FM012200 VRB04KT P6SM FEW060
                       OVC100 FM020200 31009KT P6SM BKN040 BKN080
                       FM020700 02007KT P6SM VCSH BKN035=
201210010522 TAF KSEA 010522Z 0106/0212 02008KT P6SM SCT250 FM010900 02004KT
                       P6SM BKN200 FM011600 22006KT P6SM BKN120
                       FM012200 VRB04KT P6SM FEW060 OVC100 FM020200
                       31009KT P6SM BKN040 BKN080 FM020700 02007KT
                       P6SM VCSH BKN035=
201210010433 KSEA 010433Z 0105/0206 02008KT P6SM SCT250 FM010900 02004KT P6SM
                       BKN200 FM011600 22006KT P6SM BKN120 FM012200
                       VRB04KT P6SM FEW060 OVC100 FM020200 32008KT
                       P6SM BKN040 BKN080=