##########################################################
# Query made at 02/17/2025 18:57:40 UTC
# Time interval: from 11/01/2013 00:00  to 11/30/2013 23:59  UTC
##########################################################

##########################################################
# KSEA, Seattle, Seattle-Tacoma International Airport (United States)
# WMO index: 72793. WIGOS ID: 0-20000-0-72793
# Latitude 47-27-00N. Longitude 122-17-59W. Altitude 130 m.
##########################################################

###################################
#  METAR/SPECI from KSEA
###################################
201311302353 METAR KSEA 302353Z 20009KT 10SM OVC018 11/06 A3025 RMK AO2 SLP250 T01110061 10111 20100 58014=
201311302253 METAR KSEA 302253Z 21008KT 10SM OVC018 11/06 A3026 RMK AO2 SLP256 T01110061=
201311302153 METAR KSEA 302153Z 19010KT 10SM OVC018 11/06 A3027 RMK AO2 SLP259 T01110061=
201311302053 METAR KSEA 302053Z 18007KT 10SM OVC022 11/06 A3029 RMK AO2 SLP265 T01060061 58011=
201311301953 METAR KSEA 301953Z 19004KT 10SM OVC025 11/06 A3031 RMK AO2 SLP271 T01060056=
201311301853 METAR KSEA 301853Z 19009KT 10SM OVC025 11/06 A3032 RMK AO2 SLP276 T01060056=
201311301753 METAR KSEA 301753Z 18008KT 10SM OVC027 10/06 A3032 RMK AO2 SLP276 T01000056 10100 20072 53000=
201311301653 METAR KSEA 301653Z 16010KT 10SM OVC025 09/06 A3032 RMK AO2 SLP273 T00940056=
201311301553 METAR KSEA 301553Z 15008KT 10SM OVC031 09/05 A3032 RMK AO2 SLP275 T00890050=
201311301532 SPECI KSEA 301532Z 14010KT 10SM FEW023 OVC033 09/05 A3032 RMK AO2=
201311301453 METAR KSEA 301453Z 14009KT 10SM BKN025 OVC040 08/05 A3032 RMK AO2 SLP276 T00830050 54000=
201311301450 SPECI KSEA 301450Z 15008KT 10SM BKN025 OVC040 08/06 A3032 RMK AO2=
201311301353 METAR KSEA 301353Z 16006KT 10SM SCT040 BKN100 08/05 A3032 RMK AO2 SLP276 T00830050=
201311301253 METAR KSEA 301253Z 16008KT 10SM FEW080 OVC110 08/05 A3032 RMK AO2 SLP276 T00780050=
201311301153 METAR KSEA 301153Z 16003KT 10SM FEW015 SCT090 BKN110 07/04 A3033 RMK AO2 SLP278 60003 70005 T00720044 10094 20072 50000=
201311301053 METAR KSEA 301053Z 15006KT 10SM FEW015 BKN050 BKN085 08/05 A3033 RMK AO2 SLP279 T00780050=
201311300953 METAR KSEA 300953Z 17007KT 10SM FEW010 SCT015 OVC060 08/06 A3034 RMK AO2 RAE15 SLP282 P0001 T00830056=
201311300853 METAR KSEA 300853Z 17005KT 9SM -RA FEW015 OVC060 09/06 A3033 RMK AO2 RAE0755B26 SLP278 P0002 60002 T00890061 53006=
201311300824 SPECI KSEA 300824Z 16005KT 10SM SCT017 OVC055 09/06 A3033 RMK AO2 RAE0755 P0000=
201311300753 METAR KSEA 300753Z 17004KT 10SM -RA SCT010 OVC017 09/06 A3032 RMK AO2 RAB47 SLP276 P0000 T00890061 400940050=
201311300653 METAR KSEA 300653Z 18005KT 10SM SCT010 OVC017 09/06 A3031 RMK AO2 SLP272 T00890061=
201311300553 METAR KSEA 300553Z 16006KT 10SM OVC018 09/06 A3031 RMK AO2 SLP271 60000 T00890061 10094 20089 58002=
201311300508 SPECI KSEA 300508Z 16006KT 10SM FEW008 OVC016 09/06 A3032 RMK AO2=
201311300453 METAR KSEA 300453Z 15006KT 7SM FEW008 OVC014 09/06 A3032 RMK AO2 SLP274 T00940061=
201311300430 SPECI KSEA 300430Z 17005KT 7SM SCT007 OVC012 09/06 A3032 RMK AO2=
201311300353 METAR KSEA 300353Z 16006KT 1 1/2SM BR OVC005 09/07 A3032 RMK AO2 SFC VIS 5 SLP275 T00940067=
201311300253 METAR KSEA 300253Z 17004KT 1 1/2SM BR OVC005 09/07 A3031 RMK AO2 SFC VIS 5 SLP273 60000 T00940067 53005=
201311300153 METAR KSEA 300153Z 19003KT 1 1/2SM BR OVC005 09/07 A3031 RMK AO2 SFC VIS 4 SLP271 T00940067=
201311300110 SPECI KSEA 300110Z 00000KT 1 1/2SM BR SCT003 BKN008 OVC031 09/07 A3030 RMK AO2 SFC VIS 4=
201311300053 METAR KSEA 300053Z 18004KT 1 1/2SM BR SCT003 BKN015 OVC031 09/07 A3030 RMK AO2 SFC VIS 4 DZE50 SLP267 P0000 T00890067=
201311292353 METAR KSEA 292353Z 00000KT 1 1/2SM -DZ SCT005 BKN010 OVC026 09/07 A3030 RMK AO2 SFC VIS 2 RAE15DZB24 SLP267 P0001 60002 T00890067 10094 20089 53011=
201311292341 SPECI KSEA 292341Z 00000KT 1SM -DZ BKN005 BKN010 OVC026 09/07 A3030 RMK AO2 SFC VIS 1 1/2 RAE15DZB24 P0001=
201311292253 METAR KSEA 292253Z 00000KT 1SM R16L/5500VP6000FT -RA BR OVC003 09/07 A3028=
201311292239 SPECI KSEA 292239Z 21004KT 1SM R16L/5000V6000FT -DZ OVC003 09/07 A3028 RMK AO2 SFC VIS 1 1/4 P0001=
201311292227 SPECI KSEA 292227Z 22003KT 1 1/2SM R16L/5500VP6000FT -DZ OVC003 09/07 A3028 RMK AO2 TWR VIS 2 P0000=
201311292153 METAR KSEA 292153Z 22005KT 2SM -DZ OVC005 09/07 A3027 RMK AO2 DZB49 SLP257 P0000 T00940067=
201311292053 METAR KSEA 292053Z 20006KT 2SM HZ OVC005 09/07 A3027 RMK AO2 DZB10E52 SLP256 P0000 60000 T00940067 58001=
201311292010 SPECI KSEA 292010Z 20007KT 2SM -DZ OVC007 09/06 A3028 RMK AO2 DZB10 P0000=
201311291953 METAR KSEA 291953Z 21005KT 10SM OVC007 09/05 A3027=
201311291931 SPECI KSEA 291931Z 20004KT 10SM OVC008 09/04 A3027 RMK AO2=
201311291853 METAR KSEA 291853Z 17005KT 10SM OVC010 09/04 A3027=
201311291753 METAR KSEA 291753Z 16005KT 10SM OVC010 09/04 A3027 RMK AO2 RAB24E42 SLP259 P0000 60000 T00890039 10089 20072 51016=
201311291723 SPECI KSEA 291723Z 13004KT 10SM OVC010 08/03 A3027 RMK AO2=
201311291653 METAR KSEA 291653Z 15005KT 10SM OVC009 08/03 A3026 RMK AO2 SLP257 T00830033=
201311291615 SPECI KSEA 291615Z 24003KT 10SM OVC009 08/03 A3026 RMK AO2=
201311291553 METAR KSEA 291553Z 00000KT 10SM OVC011 08/03 A3024 RMK AO2 SLP249 T00830033=
201311291453 METAR KSEA 291453Z 20003KT 10SM BKN014 OVC020 08/03 A3022 RMK AO2 SLP243 T00830028 53007=
201311291420 SPECI KSEA 291420Z 00000KT 10SM BKN019 OVC040 08/03 A3022 RMK AO2=
201311291353 METAR KSEA 291353Z 15004KT 10SM SCT024 OVC040 08/03 A3021 RMK AO2 SLP237 T00830033=
201311291331 SPECI KSEA 291331Z 16005KT 10SM FEW028 OVC040 07/02 A3021 RMK AO2=
201311291253 METAR KSEA 291253Z 00000KT 10SM OVC028 07/02 A3021 RMK AO2 SLP237 T00720017=
201311291153 METAR KSEA 291153Z 17003KT 10SM BKN039 OVC085 07/02 A3020 RMK AO2 SLP235 T00720017 10072 20050 50003=
201311291053 METAR KSEA 291053Z 14006KT 10SM OVC080 07/02 A3020 RMK AO2 SLP236 T00670017=
201311290953 METAR KSEA 290953Z 13005KT 10SM OVC080 07/03 A3020 RMK AO2 SLP235 T00720028=
201311290853 METAR KSEA 290853Z 14006KT 10SM BKN080 07/02 A3019 RMK AO2 SLP233 T00670022 51011=
201311290753 METAR KSEA 290753Z 13007KT 10SM FEW200 06/02 A3019 RMK AO2 SLP230 T00560022 401170033=
201311290653 METAR KSEA 290653Z 00000KT 9SM FEW200 06/03 A3018 RMK AO2 SLP229 T00560028=
201311290553 METAR KSEA 290553Z 00000KT 9SM CLR 07/03 A3016 RMK AO2 SLP221 T00670033 10100 20050 53007=
201311290453 METAR KSEA 290453Z 13007KT 8SM FEW200 07/03 A3014 RMK AO2 SLP216 T00670033=
201311290353 METAR KSEA 290353Z 14004KT 10SM SCT200 06/03 A3015 RMK AO2 SLP218 T00560028=
201311290253 METAR KSEA 290253Z 00000KT 10SM SCT200 07/03 A3014 RMK AO2 SLP215 T00720028 51008=
201311290153 METAR KSEA 290153Z 00000KT 10SM SCT200 08/03 A3013 RMK AO2 SLP213 T00780028=
201311290053 METAR KSEA 290053Z 00000KT 10SM SCT200 08/03 A3012 RMK AO2 SLP209 T00830033=
201311282353 METAR KSEA 282353Z 00000KT 10SM SCT200 10/04 A3012 RMK AO2 SLP207 T01000039 10117 20061 51004=
201311282253 METAR KSEA 282253Z 00000KT 7SM FEW002 SCT200 12/05 A3011 RMK AO2 SLP204 FG BANK W T01170050=
201311282153 METAR KSEA 282153Z 29004KT 7SM BCFG FEW002 SCT200 11/04 A3011 RMK AO2 SLP205 FG BANK S-W T01060044=
201311282053 METAR KSEA 282053Z 00000KT 7SM BCFG FEW002 SCT200 09/06 A3011 RMK AO2 SLP203 T00890056 58000=
201311282036 SPECI KSEA 282036Z 00000KT 3SM BCFG FEW002 SCT200 09/06 A3011 RMK AO2 FG BANK S AND W-N=
201311282019 SPECI KSEA 282019Z 00000KT 1 1/2SM HZ SCT002 SCT200 08/06 A3011 RMK AO2=
201311282004 SPECI KSEA 282004Z 00000KT 1/4SM R16L/1400V3500FT HZ BKN002 08/05 A3011 RMK AO2 SFC VIS 1/2=
201311281953 METAR KSEA 281953Z 00000KT 1/4SM R16L/1200V1600FT FG OVC001 08/06 A3011 RMK AO2 SFC VIS 1/2 SLP204 T00780056=
201311281928 SPECI KSEA 281928Z 00000KT 1/4SM R16L/1600V3000FT FG OVC001 07/05 A3011 RMK AO2 SFC VIS 1/2=
201311281853 METAR KSEA 281853Z 32003KT 1/4SM R16L/0600V0800FT FG VV001 07/05 A3011 RMK AO2 SLP205 T00720050=
201311281753 METAR KSEA 281753Z 00000KT 1/4SM R16L/0500V0800FT FG OVC001 06/04 A3011 RMK AO2 SLP203 T00610039 10061 20033 51010=
201311281741 SPECI KSEA 281741Z 00000KT 1/4SM R16L/0600V0800FT FG OVC001 06/03 A3010 RMK AO2=
201311281738 SPECI KSEA 281738Z 00000KT 1/4SM R16L/0600V1400FT FG OVC001 06/03 A3010 RMK AO2 TWR VIS 10=
201311281721 SPECI KSEA 281721Z 00000KT 1/2SM R16L/0700V2400FT FG BKN001 BKN200 05/03 A3011 RMK AO2 TWR VIS 10=
201311281712 SPECI KSEA 281712Z 15005KT 1/2SM R16L/0500V1200FT FG BKN001 BKN200 06/03 A3009 RMK AO2 TWR VIS 10=
201311281653 METAR KSEA 281653Z 00000KT 1/8SM R16L/0400V0500FT FG VV001 06/03 A3010 RMK AO2 TWR VIS 10 SLP201 T00560033=
201311281638 SPECI KSEA 281638Z 00000KT 1/8SM R16L/0400V0500FT FG VV001 05/03 A3010 RMK AO2 TWR VIS 10=
201311281617 SPECI KSEA 281617Z 00000KT 1/4SM R16L/0400V1200FT HZ OVC001 04/01 A3009 RMK AO2 TWR VIS 10=
201311281606 SPECI KSEA 281606Z 00000KT 1/2SM R16L/1200V1600FT FG SCT001 BKN100 BKN200 04/02 A3009 RMK AO2 TWR VIS 10=
201311281553 METAR KSEA 281553Z 00000KT 1/2SM R16L/1800VP6000FT FG SCT001 SCT100 BKN200 03/02 A3008 RMK AO2 TWR VIS 10 SLP196 T00330017=
201311281527 SPECI KSEA 281527Z 15004KT 0SM R16L/0500VP6000FT FG BKN001 BKN200 05/03 A3007 RMK AO2 SFC VIS 1/4=
201311281453 METAR KSEA 281453Z 00000KT 0SM R16L/0500FT FG VV001 06/03 A3008 RMK AO2 SFC VIS 1/8 SLP193 T00560033 53009=
201311281447 SPECI KSEA 281447Z 00000KT 0SM R16L/0500V0800FT FG VV001 06/03 A3007 RMK AO2 SFC VIS 1/8=
201311281412 SPECI KSEA 281412Z 00000KT 1/2SM R16L/1200V1600FT FG BKN001 04/02 A3007 RMK AO2 TWR VIS 3/4=
201311281405 SPECI KSEA 281405Z 00000KT 1/2SM R16L/1200VP6000FT FG BKN001 04/02 A3006 RMK AO2 TWR VIS 3/4=
201311281353 METAR KSEA 281353Z 23003KT 1SM R16L/P6000FT BCFG SCT001 SCT200 04/02 A3006 RMK AO2 SLP187 T00390022=
201311281338 SPECI KSEA 281338Z 00000KT 1SM R16L/1400VP6000FT BCFG SCT001 04/02 A3005 RMK AO2=
201311281331 SPECI KSEA 281331Z 00000KT 1/4SM R16L/0700V2400FT FG BKN001 04/03 A3006 RMK AO2=
201311281305 SPECI KSEA 281305Z 00000KT 1/8SM R16L/0700V1000FT FG VV001 06/03 A3006 RMK AO2=
201311281253 METAR KSEA 281253Z 00000KT 1/2SM R16L/0600V0700FT FG VV001 06/03 A3005 RMK AO2 SLP186 T00560033=
201311281239 SPECI KSEA 281239Z 00000KT 1/2SM R16L/0700V1000FT FG VV001 06/03 A3005 RMK AO2=
201311281230 SPECI KSEA 281230Z 00000KT 1/2SM R16L/1000V4500FT FG VV001 04/02 A3004 RMK AO2=
201311281213 SPECI KSEA 281213Z 00000KT 1SM R16L/P6000FT BCFG BKN001 04/02 A3005 RMK AO2=
201311281153 METAR KSEA 281153Z 18003KT 8SM FEW002 SCT150 04/02 A3005 RMK AO2 SLP183 T00390017 10078 20033 50003=
201311281053 METAR KSEA 281053Z 00000KT 10SM BKN160 05/02 A3005 RMK AO2 SLP183 T00500022=
201311280953 METAR KSEA 280953Z 00000KT 9SM CLR 04/02 A3004 RMK AO2 SLP181 T00440017=
201311280853 METAR KSEA 280853Z 00000KT 10SM CLR 05/02 A3004 RMK AO2 SLP178 T00500022 51008=
201311280753 METAR KSEA 280753Z 00000KT 10SM CLR 06/03 A3003 RMK AO2 SLP177 T00610028 401440056=
201311280653 METAR KSEA 280653Z 00000KT 10SM CLR 07/03 A3002 RMK AO2 SLP173 T00670028=
201311280553 METAR KSEA 280553Z 00000KT 10SM CLR 07/03 A3001 RMK AO2 SLP170 T00670028 10106 20061 53006=
201311280453 METAR KSEA 280453Z 00000KT 10SM FEW200 08/03 A3000 RMK AO2 SLP167 T00830033=
201311280353 METAR KSEA 280353Z 03007KT 10SM FEW200 09/04 A3000 RMK AO2 SLP165 T00890039=
201311280253 METAR KSEA 280253Z 33005KT 10SM SCT200 08/03 A2999 RMK AO2 SLP165 T00780033 53006=
201311280153 METAR KSEA 280153Z 02004KT 10SM SCT200 11/04 A2998 RMK AO2 SLP160 T01060039=
201311280053 METAR KSEA 280053Z 35003KT 10SM FEW120 SCT200 10/04 A2998 RMK AO2 SLP160 T01000039=
201311272353 METAR KSEA 272353Z 32004KT 10SM FEW120 SCT190 BKN250 11/05 A2998 RMK AO2 SLP158 T01060050 10144 20106 56004=
201311272253 METAR KSEA 272253Z 27003KT 10SM FEW100 BKN250 13/05 A2998 RMK AO2 SLP157 T01330050=
201311272153 METAR KSEA 272153Z 00000KT 10SM FEW100 BKN220 14/03 A2998 RMK AO2 SLP160 T01440033=
201311272053 METAR KSEA 272053Z 01003KT 10SM SCT100 BKN220 13/04 A2999 RMK AO2 SLP161 T01330044 58013=
201311271953 METAR KSEA 271953Z 08003KT 10SM SCT100 BKN220 12/04 A3001 RMK AO2 SLP170 T01170039=
201311271853 METAR KSEA 271853Z 00000KT 10SM SCT100 BKN210 11/06 A3003 RMK AO2 SLP175 T01110056=
201311271753 METAR KSEA 271753Z 35005KT 10SM SCT100 BKN200 11/03 A3003 RMK AO2 SLP174 T01110028 10111 20067 56000=
201311271653 METAR KSEA 271653Z 36004KT 10SM SCT100 BKN210 09/03 A3003 RMK AO2 SLP176 T00940028=
201311271553 METAR KSEA 271553Z 03004KT 10SM BKN090 BKN210 08/02 A3002 RMK AO2 SLP173 T00830022=
201311271453 METAR KSEA 271453Z 00000KT 10SM SCT085 BKN210 08/02 A3003 RMK AO2 SLP176 T00780017 56011=
201311271353 METAR KSEA 271353Z 04003KT 10SM BKN220 08/03 A3004 RMK AO2 SLP178 T00830028=
201311271253 METAR KSEA 271253Z 04006KT 10SM FEW060 BKN190 09/03 A3004 RMK AO2 SLP181 T00890033=
201311271153 METAR KSEA 271153Z 04004KT 10SM FEW070 OVC085 08/03 A3006 RMK AO2 SLP187 T00830033 10106 20083 58010=
201311271053 METAR KSEA 271053Z 00000KT 10SM OVC060 10/02 A3007 RMK AO2 SLP190 T01000017=
201311270953 METAR KSEA 270953Z 00000KT 10SM BKN070 OVC080 09/03 A3009 RMK AO2 SLP194 T00940028=
201311270853 METAR KSEA 270853Z 07004KT 10SM OVC070 09/03 A3009 RMK AO2 SLP197 T00940028 58010=
201311270753 METAR KSEA 270753Z 00000KT 10SM OVC065 09/03 A3011 RMK AO2 SLP202 T00940033 401220028=
201311270653 METAR KSEA 270653Z 00000KT 10SM FEW047 BKN060 OVC080 10/03 A3012 RMK AO2 SLP206 T01000033=
201311270553 METAR KSEA 270553Z 13005KT 10SM BKN046 OVC070 11/02 A3012 RMK AO2 SLP208 60000 T01060022 10117 20089 58007=
201311270453 METAR KSEA 270453Z 00000KT 10SM OVC050 10/02 A3013 RMK AO2 SLP211 T01000022=
201311270353 METAR KSEA 270353Z 15006KT 10SM OVC048 10/02 A3014 RMK AO2 SLP215 T01000022=
201311270253 METAR KSEA 270253Z 13008KT 10SM OVC050 10/02 A3014 RMK AO2 RAE03 SLP216 P0000 60000 T01000017 51003=
201311270153 METAR KSEA 270153Z 14003KT 10SM -RA OVC055 10/03 A3014 RMK AO2 RAE09B27 SLP216 P0000 T01000033=
201311270053 METAR KSEA 270053Z 24003KT 10SM -RA BKN070 OVC100 09/04 A3014 RMK AO2 RAB07 SLP215 P0000 T00940039=
201311262353 METAR KSEA 262353Z 00000KT 10SM SCT090 BKN110 BKN250 11/03 A3013 RMK AO2 SLP213 T01060028 10122 20044 56010=
201311262253 METAR KSEA 262253Z 27003KT 10SM FEW120 BKN250 12/03 A3014 RMK AO2 SLP214 T01170033=
201311262153 METAR KSEA 262153Z 00000KT 10SM FEW110 SCT200 12/03 A3015 RMK AO2 SLP216 T01220033=
201311262053 METAR KSEA 262053Z 00000KT 10SM FEW180 SCT250 09/04 A3016 RMK AO2 SLP223 T00940039 58017=
201311261953 METAR KSEA 261953Z 26005KT 10SM FEW180 SCT250 09/02 A3018 RMK AO2 SLP230 T00890022=
201311261853 METAR KSEA 261853Z 15003KT 10SM FEW180 BKN240 07/02 A3020 RMK AO2 SLP234 FG BANK W T00670022=
201311261753 METAR KSEA 261753Z 15004KT 3SM BCFG FEW001 BKN250 04/02 A3022 RMK AO2 TWR VIS 10 SLP240 VIS SW-W-NW 1 FG BANK SW-W-NW T00440017 10050 20028 58002=
201311261659 SPECI KSEA 261659Z 21004KT 3SM BR FEW001 BKN250 03/02 A3023 RMK AO2 TWR VIS 10 VIS SW-W-NW 1 FG BANK S-SW-W-NW=
201311261653 METAR KSEA 261653Z 13005KT 3/4SM R16L/P6000FT BR FEW001 BKN250 03/02 A3022 RMK AO2 TWR VIS 10 SLP243 T00330017=
201311261623 SPECI KSEA 261623Z 12005KT 1/8SM R16L/1800VP6000FT FG VV001 03/01 A3022 RMK AO2 TWR VIS 10=
201311261611 SPECI KSEA 261611Z 12005KT 1/8SM R16L/1000V1600FT FG VV001 04/02 A3022 RMK AO2 TWR VIS 10=
201311261600 SPECI KSEA 261600Z 13004KT 1/8SM R16L/0600V4000FT FG VV001 04/02 A3022 RMK AO2 TWR VIS 10=
201311261553 METAR KSEA 261553Z 15004KT 1/8SM R16L/0600V0800FT FG VV001 04/02 A3022 RMK AO2 SLP243 T00440022=
201311261453 METAR KSEA 261453Z 00000KT 1/16SM R16L/0800V1000FT FG VV001 04/02 A3022 RMK AO2 SLP242 T00390022 55006=
201311261437 SPECI KSEA 261437Z 00000KT 1/4SM R16L/0600V1000FT FG BKN001 04/02 A3023 RMK AO2 TWR VIS 10=
201311261420 SPECI KSEA 261420Z 15003KT 1/4SM R16L/1200VP6000FT FG BKN001 04/02 A3022 RMK AO2 TWR VIS 10=
201311261353 METAR KSEA 261353Z 00000KT 1/16SM R16L/0600V0800FT FG VV001 05/03 A3021 RMK AO2 SLP240 T00500028=
201311261253 METAR KSEA 261253Z 00000KT 1/16SM R16L/0500V0600FT FG VV001 04/03 A3023 RMK AO2 SLP244 T00440028=
201311261153 METAR KSEA 261153Z 00000KT 1/16SM R16L/0600V0800FT FG VV001 04/03 A3024 RMK AO2 SLP248 T00440028 10067 20033 57008=
201311261144 SPECI KSEA 261144Z 00000KT 1/16SM R16L/0500V0700FT FG VV001 04/02 A3024 RMK AO2=
201311261101 SPECI KSEA 261101Z 00000KT 1/4SM R16L/0400V0500FT FG BKN001 04/02 A3025 RMK AO2=
201311261053 METAR KSEA 261053Z 00000KT 1/4SM R16L/0500V2800FT FG BKN001 04/02 A3025 RMK AO2 SLP251 T00390017=
201311261042 SPECI KSEA 261042Z 00000KT 1/4SM R16L/1600V4500FT FG BKN001 03/01 A3025 RMK AO2=
201311261040 SPECI KSEA 261040Z 00000KT 2 1/2SM R16L/1600VP6000FT BR CLR 03/01 A3025 RMK AO2=
201311260953 METAR KSEA 260953Z 00000KT 10SM BKN240 04/01 A3025 RMK AO2 SLP251 T00440011=
201311260853 METAR KSEA 260853Z 00000KT 10SM BKN240 04/01 A3026 RMK AO2 SLP256 T00390011 58006=
201311260753 METAR KSEA 260753Z 12004KT 7SM BKN240 04/02 A3028 RMK AO2 SLP261 T00440017 401220022=
201311260653 METAR KSEA 260653Z 00000KT 7SM BKN240 06/03 A3028 RMK AO2 SLP260 T00560028=
201311260553 METAR KSEA 260553Z 28003KT 8SM BKN240 06/03 A3028 RMK AO2 SLP262 T00610033 10111 20050 55002=
201311260453 METAR KSEA 260453Z 00000KT 10SM BKN240 06/01 A3027 RMK AO2 SLP261 T00560011=
201311260353 METAR KSEA 260353Z 00000KT 10SM BKN240 08/02 A3028 RMK AO2 SLP263 T00780022=
201311260253 METAR KSEA 260253Z 04003KT 9SM BKN250 09/02 A3028 RMK AO2 SLP264 T00890022 57003=
201311260153 METAR KSEA 260153Z 00000KT 10SM BKN250 08/01 A3029 RMK AO2 SLP266 T00830011=
201311260053 METAR KSEA 260053Z 00000KT 10SM FEW180 BKN250 10/01 A3029 RMK AO2 SLP265 T01000011=
201311252353 METAR KSEA 252353Z 00000KT 10SM FEW180 BKN250 10/02 A3029=
201311252253 METAR KSEA 252253Z 00000KT 10SM FEW180 BKN250 11/03 A3029 RMK AO2 SLP267 T01110028=
201311252153 METAR KSEA 252153Z 00000KT 10SM FEW180 BKN250 12/03 A3029 RMK AO2 SLP266 T01220033=
201311252053 METAR KSEA 252053Z 28003KT 10SM BKN250 11/03 A3030 RMK AO2 SLP269 T01110033 58005=
201311251953 METAR KSEA 251953Z VRB03KT 10SM BKN250 11/03 A3031 RMK AO2 SLP273 T01060033=
201311251853 METAR KSEA 251853Z 21003KT 10SM BKN250 08/03 A3032 RMK AO2 SLP276 T00830033=
201311251753 METAR KSEA 251753Z 19003KT 10SM BCFG BKN250 06/04 A3032 RMK AO2 SLP275 T00610039 10061 20022 51012 $=
201311251717 SPECI KSEA 251717Z 00000KT 4SM R16L/2600VP6000FT BR SCT001 SCT250 04/03 A3031 RMK AO2 FG BANK S-W-NW $=
201311251653 METAR KSEA 251653Z 00000KT 1/2SM R16L/2000VP6000FT FG SCT001 SCT250 04/02 A3031=
201311251645 SPECI KSEA 251645Z 00000KT 1/4SM R16L/0400V4500FT FG SCT001 SCT250 04/02 A3031 RMK AO2 TWR VIS 10 $=
201311251557 SPECI KSEA 251557Z 00000KT 1/8SM R16L/0500V0800FT FG VV001 03/02 A3030 RMK AO2 $=
201311251553 METAR KSEA 251553Z 00000KT 1/4SM R16L/0400V0800FT FG OVC001 03/01 A3029 RMK AO2 SLP268 T00330011 $=
201311251542 SPECI KSEA 251542Z 00000KT 3/4SM R16L/1200VP6000FT BR SCT001 SCT250 03/01 A3029 RMK AO2 TWR VIS 10 $=
201311251453 METAR KSEA 251453Z 00000KT 1 1/2SM R16L/2000VP6000FT BCFG FEW001 SCT250 02/00 A3028 RMK AO2 TWR VIS 10 SLP263 VIS SW-W-NW 3/4 T00220000 51001 $=
201311251414 SPECI KSEA 251414Z 15003KT 1 1/2SM BR FEW001 SCT250 03/01 A3028 RMK AO2 TWR VIS 10 $=
201311251353 METAR KSEA 251353Z 00000KT 1/2SM R16L/4500VP6000FT FG SCT001 BKN200 03/01 A3028 RMK AO2 TWR VIS 10 SLP263 T00330011 $=
201311251328 SPECI KSEA 251328Z 00000KT 1/4SM R16L/0600V6000FT FG BKN001 03/01 A3028 RMK AO2 TWR VIS 10 $=
201311251253 METAR KSEA 251253Z 00000KT 1/4SM R16L/0600FT FG BKN001 03/01 A3028 RMK AO2 SLP264 T00280006 $=
201311251203 SPECI KSEA 251203Z 00000KT 1/4SM R16L/1600V2200FT FG BKN001 03/01 A3027 RMK AO2 $=
201311251153 METAR KSEA 251153Z 00000KT 1/4SM R16L/1600V2400FT FG BKN001 03/01 A3028 RMK AO2 SLP261 T00330006 10067 20033 51006 $=
201311251133 SPECI KSEA 251133Z 00000KT 1/4SM R16L/1400V2400FT FG BKN001 03/01 A3028 RMK AO2 $=
201311251123 SPECI KSEA 251123Z 00000KT 1/4SM R16L/1200V2400FT BR BKN001 04/02 A3028 RMK AO2 $=
201311251105 SPECI KSEA 251105Z 12004KT 1/4SM R16L/0700V1000FT BR BKN001 04/02 A3027 RMK AO2 $=
201311251053 METAR KSEA 251053Z 12004KT 3/4SM R16L/1400VP6000FT BR BKN001 04/02 A3027 RMK AO2 SLP259 VIS S-W 3/4 T00440022=
201311251036 SPECI KSEA 251036Z 15003KT 3SM BR BKN001 04/01 A3028 RMK AO2 VIS S-W 3/4=
201311250953 METAR KSEA 250953Z 00000KT 3SM BR SCT001 BKN200 04/01 A3027 RMK AO2 SLP257 T00440011=
201311250853 METAR KSEA 250853Z 00000KT 7SM FEW001 BKN200 04/01 A3026 RMK AO2 SLP255 FG BANK S-SW T00440006 53002=
201311250845 SPECI KSEA 250845Z 00000KT 9SM FEW001 BKN200 05/02 A3025 RMK AO2 FG BANK S-SW=
201311250753 METAR KSEA 250753Z 00000KT 7SM BKN200 05/01 A3025 RMK AO2 SLP252 FG BANK S-SW T00500011 401170006=
201311250653 METAR KSEA 250653Z 00000KT 10SM BKN200 06/02 A3025 RMK AO2 SLP253 T00610022=
201311250553 METAR KSEA 250553Z 00000KT 8SM BKN200 06/03 A3025 RMK AO2 SLP253 T00560028 10089 20050 51005=
201311250453 METAR KSEA 250453Z 00000KT 10SM BKN230 06/03 A3025 RMK AO2 SLP253 T00560028=
201311250353 METAR KSEA 250353Z 00000KT 10SM SCT180 06/03 A3024 RMK AO2 SLP249 T00560028=
201311250253 METAR KSEA 250253Z 00000KT 10SM BKN230 07/04 A3024 RMK AO2 SLP248 T00670039 53011=
201311250153 METAR KSEA 250153Z 00000KT 10SM BKN230 07/03 A3022 RMK AO2 SLP244 T00670028=
201311250053 METAR KSEA 250053Z 00000KT 10SM FEW060 SCT230 07/03 A3021 RMK AO2 SLP239 T00720033=
201311242353 METAR KSEA 242353Z 00000KT 10SM BKN230 09/04 A3020 RMK AO2 SLP236 T00890039 10117 20061 53003=
201311242253 METAR KSEA 242253Z 00000KT 10SM BKN230 11/04 A3019 RMK AO2 SLP232 T01060044=
201311242153 METAR KSEA 242153Z 31003KT 10SM FEW030 BKN230 10/04 A3019 RMK AO2 SLP232 T01000044=
201311242053 METAR KSEA 242053Z 00000KT 10SM FEW020 BKN220 11/02 A3019 RMK AO2 SLP232 T01060017 58004=
201311241953 METAR KSEA 241953Z 02004KT 10SM FEW030 SCT210 09/02 A3020 RMK AO2 SLP235 T00940017=
201311241853 METAR KSEA 241853Z 01006KT 10SM FEW020 SCT190 08/02 A3022 RMK AO2 SLP241 T00780017=
201311241753 METAR KSEA 241753Z 00000KT 10SM FEW020 SCT180 06/01 A3020 RMK AO2 SLP236 T00610011 10061 20006 51010=
201311241653 METAR KSEA 241653Z 04003KT 10SM FEW010 SCT170 04/01 A3020 RMK AO2 SLP236 T00440011=
201311241553 METAR KSEA 241553Z 04003KT 6SM BR FEW010 SCT180 01/M01 A3019 RMK AO2 SLP233 T00111011=
201311241453 METAR KSEA 241453Z 00000KT 6SM BR FEW010 SCT180 02/M01 A3017 RMK AO2 SLP227 T00171006 53002=
201311241353 METAR KSEA 241353Z 01003KT 7SM SCT180 02/M01 A3016 RMK AO2 SLP224 T00221006=
201311241253 METAR KSEA 241253Z 03004KT 10SM SCT180 03/M01 A3017 RMK AO2 SLP224 T00281006=
201311241153 METAR KSEA 241153Z 01004KT 10SM SCT180 03/M01 A3017 RMK AO2 SLP225 T00281006 10050 20017 56007=
201311241053 METAR KSEA 241053Z 01005KT 10SM CLR 03/00 A3018 RMK AO2 SLP228 T00330000=
201311240953 METAR KSEA 240953Z 06004KT 10SM CLR 03/00 A3018 RMK AO2 SLP227 T00280000=
201311240853 METAR KSEA 240853Z 34004KT 10SM CLR 03/M01 A3019 RMK AO2 SLP232 T00281006 58007=
201311240753 METAR KSEA 240753Z 00000KT 10SM CLR 04/00 A3019 RMK AO2 SLP233 T00440000 401110011=
201311240653 METAR KSEA 240653Z 36005KT 10SM CLR 04/M01 A3021 RMK AO2 SLP238 T00391006=
201311240553 METAR KSEA 240553Z 02004KT 10SM CLR 05/00 A3021 RMK AO2 SLP239 T00500000 10094 20039 58005=
201311240453 METAR KSEA 240453Z 01004KT 10SM CLR 06/00 A3022 RMK AO2 SLP241 T00560000=
201311240353 METAR KSEA 240353Z 33005KT 10SM CLR 04/00 A3022 RMK AO2 SLP243 T00390000=
201311240253 METAR KSEA 240253Z 35005KT 10SM BKN250 05/01 A3022 RMK AO2 SLP244 T00500006 55003=
201311240153 METAR KSEA 240153Z 35006KT 10SM BKN250 06/01 A3022 RMK AO2 SLP244 T00560006=
201311240053 METAR KSEA 240053Z 31003KT 10SM BKN250 07/02 A3022 RMK AO2 SLP244 T00670017=
201311232353 METAR KSEA 232353Z 31005KT 10SM BKN250 09/00 A3023 RMK AO2 SLP247 T00940000 10111 20056 56021=
201311232253 METAR KSEA 232253Z 02006KT 10SM BKN250 11/01 A3025 RMK AO2 SLP251 T01060011=
201311232153 METAR KSEA 232153Z 32004KT 10SM BKN250 10/02 A3026 RMK AO2 SLP257 T01000022=
201311232053 METAR KSEA 232053Z 32004KT 10SM BKN250 10/01 A3030 RMK AO2 SLP269 T01000006 58021=
201311231953 METAR KSEA 231953Z 01003KT 10SM BKN250 09/M02 A3032 RMK AO2 SLP276 T00891017=
201311231853 METAR KSEA 231853Z 02006KT 10SM BKN250 08/M02 A3034 RMK AO2 SLP283 T00781022=
201311231753 METAR KSEA 231753Z 36004KT 10SM BKN250 06/M01 A3036 RMK AO2 SLP291 T00561006 10056 20011 56004=
201311231653 METAR KSEA 231653Z 03006KT 10SM CLR 05/M01 A3036 RMK AO2 SLP292 T00501011=
201311231553 METAR KSEA 231553Z 02008KT 10SM SCT250 03/M01 A3037 RMK AO2 SLP294 T00331011=
201311231453 METAR KSEA 231453Z 01004KT 10SM FEW250 02/M02 A3037 RMK AO2 SLP295 T00171022 56009=
201311231353 METAR KSEA 231353Z 02006KT 10SM CLR 02/M02 A3038 RMK AO2 SLP297 T00171022=
201311231253 METAR KSEA 231253Z 01006KT 10SM CLR 02/M02 A3039 RMK AO2 SLP302 T00221017=
201311231153 METAR KSEA 231153Z 03007KT 10SM CLR 02/M01 A3040=
201311231053 METAR KSEA 231053Z 03008KT 10SM CLR 03/M01 A3041 RMK AO2 SLP305 T00281006=
201311230953 METAR KSEA 230953Z 02006KT 10SM CLR 03/M01 A3041 RMK AO2 SLP306 T00331006=
201311230853 METAR KSEA 230853Z 03003KT 10SM CLR 03/M01 A3042=
201311230753 METAR KSEA 230753Z 02008KT 10SM CLR 04/M01 A3045 RMK AO2 SLP320 T00441011 400940000=
201311230653 METAR KSEA 230653Z 03008KT 10SM CLR 04/M01 A3046 RMK AO2 SLP326 T00391011=
201311230553 METAR KSEA 230553Z 02009KT 10SM CLR 04/M02 A3047 RMK AO2 SLP327 T00391017 10061 20039 56004=
201311230453 METAR KSEA 230453Z 02009KT 10SM CLR 04/M03 A3047 RMK AO2 SLP328 T00441028=
201311230353 METAR KSEA 230353Z 01013KT 10SM SCT250 04/M02 A3047 RMK AO2 SLP328 T00441022=
201311230253 METAR KSEA 230253Z 02012KT 10SM SCT250 04/M02 A3048 RMK AO2 SLP331 T00441022 56011=
201311230153 METAR KSEA 230153Z 02010KT 10SM SCT250 05/M02 A3048 RMK AO2 SLP333 T00501022=
201311230053 METAR KSEA 230053Z 36009KT 10SM FEW180 BKN240 05/M02 A3050 RMK AO2 SLP337 T00501022=
201311222353 METAR KSEA 222353Z 35006KT 10SM FEW180 BKN240 06/M02 A3051 RMK AO2 SLP342 T00611017 10094 20044 56014=
201311222253 METAR KSEA 222253Z 36010KT 10SM BKN240 08/M03 A3052 RMK AO2 SLP346 T00831028=
201311222153 METAR KSEA 222153Z 01008KT 10SM BKN250 09/M02 A3054 RMK AO2 SLP350 T00891017=
201311222053 METAR KSEA 222053Z 35007KT 10SM SCT250 09/M02 A3055 RMK AO2 SLP355 T00891022 56019=
201311221953 METAR KSEA 221953Z 01009KT 10SM BKN250 08/M02 A3057 RMK AO2 SLP361 T00781022=
201311221853 METAR KSEA 221853Z 01010KT 10SM FEW250 06/M03 A3059 RMK AO2 SLP369 T00611028=
201311221753 METAR KSEA 221753Z 02008KT 10SM FEW250 04/M03 A3061 RMK AO2 SLP375 T00441028 10044 20000 55001=
201311221653 METAR KSEA 221653Z 02009KT 10SM FEW250 03/M03 A3061 RMK AO2 SLP375 T00281033=
201311221553 METAR KSEA 221553Z 03010KT 10SM FEW250 01/M04 A3061 RMK AO2 SLP377 T00111044=
201311221453 METAR KSEA 221453Z 01010KT 10SM FEW250 01/M04 A3061 RMK AO2 SLP377 T00111039 51001=
201311221353 METAR KSEA 221353Z 02009KT 10SM CLR 01/M03 A3061 RMK AO2 SLP375 T00111028=
201311221253 METAR KSEA 221253Z 04006KT 10SM CLR 01/M03 A3062 RMK AO2 SLP378 T00111033=
201311221153 METAR KSEA 221153Z 02010KT 10SM CLR 01/M04 A3061 RMK AO2 SLP376 T00111039 10022 20006 58007=
201311221053 METAR KSEA 221053Z 04009KT 10SM CLR 01/M04 A3062 RMK AO2 SLP380 T00111044=
201311220953 METAR KSEA 220953Z 02009KT 10SM CLR 02/M04 A3063 RMK AO2 SLP382 T00171039=
201311220853 METAR KSEA 220853Z 01007KT 10SM CLR 02/M03 A3063 RMK AO2 SLP383 T00171033 55000=
201311220753 METAR KSEA 220753Z 03009KT 10SM CLR 02/M04 A3063=
201311220653 METAR KSEA 220653Z 02009KT 10SM CLR 02/M04 A3063 RMK AO2 SLP384 T00221039=
201311220553 METAR KSEA 220553Z 36007KT 10SM CLR 02/M04 A3063 RMK AO2 SLP384 T00171044 10061 20017 55005=
201311220453 METAR KSEA 220453Z 02010KT 10SM CLR 03/M04 A3063 RMK AO2 SLP381 T00281044=
201311220353 METAR KSEA 220353Z 04012KT 10SM CLR 03/M05 A3063 RMK AO2 SLP383 T00331050=
201311220253 METAR KSEA 220253Z 01010KT 10SM CLR 03/M04 A3065 RMK AO2 SLP390 T00331044 53009=
201311220153 METAR KSEA 220153Z 02007KT 10SM CLR 04/M04 A3064 RMK AO2 SLP387 T00391044=
201311220053 METAR KSEA 220053Z 36007KT 10SM FEW250 04/M04 A3063 RMK AO2 SLP383 T00391039=
201311212353 METAR KSEA 212353Z 36008KT 10SM FEW250 06/M04 A3062 RMK AO2 SLP380 T00611039 10078 20033 55001=
201311212253 METAR KSEA 212253Z 02008KT 10SM FEW250 07/M06 A3061 RMK AO2 SLP377 T00721056=
201311212153 METAR KSEA 212153Z 01009KT 10SM FEW250 08/M06 A3062 RMK AO2 SLP377 T00781056=
201311212053 METAR KSEA 212053Z 02009KT 10SM SCT250 07/M05 A3063 RMK AO2 SLP382 T00671050 58001=
201311211953 METAR KSEA 211953Z 01008KT 10SM SCT250 06/M03 A3063 RMK AO2 SLP382 T00561028=
201311211853 METAR KSEA 211853Z VRB04KT 10SM SCT250 06/M03 A3063 RMK AO2 SLP383 T00561028=
201311211753 METAR KSEA 211753Z 00000KT 10SM FEW250 04/M02 A3063 RMK AO2 SLP382 T00391022 10044 21006 51013=
201311211653 METAR KSEA 211653Z 04004KT 10SM SCT200 03/M03 A3063 RMK AO2 SLP381 T00281028=
201311211553 METAR KSEA 211553Z 01003KT 10SM SCT200 00/M04 A3062 RMK AO2 SLP378 T00001039=
201311211453 METAR KSEA 211453Z 01006KT 10SM SCT250 00/M04 A3059 RMK AO2 SLP371 T00001039 52020=
201311211353 METAR KSEA 211353Z 07005KT 10SM CLR 00/M03 A3057 RMK AO2 SLP364 T00001033=
201311211253 METAR KSEA 211253Z 02008KT 10SM CLR 00/M03 A3055 RMK AO2 SLP357 T00001033=
201311211153 METAR KSEA 211153Z 03006KT 10SM CLR 01/M04 A3053 RMK AO2 SLP350 T00061039 10028 21006 51010=
201311211053 METAR KSEA 211053Z 35007KT 10SM CLR 00/M05 A3053 RMK AO2 SLP347 T00001050=
201311210953 METAR KSEA 210953Z 02007KT 10SM CLR 01/M04 A3052 RMK AO2 SLP343 T00111044=
201311210853 METAR KSEA 210853Z 05007KT 10SM CLR 02/M04 A3050 RMK AO2 SLP339 T00171044 51013=
201311210753 METAR KSEA 210753Z 05006KT 10SM CLR 02/M04 A3050 RMK AO2 SLP338 T00171044 400780017=
201311210653 METAR KSEA 210653Z 05005KT 10SM CLR 02/M04 A3048 RMK AO2 SLP332 T00221044=
201311210553 METAR KSEA 210553Z 04006KT 10SM CLR 03/M05 A3046 RMK AO2 SLP326 T00281050 10061 20028 51018=
201311210453 METAR KSEA 210453Z 03012KT 10SM CLR 03/M05 A3045 RMK AO2 SLP322 T00331050=
201311210353 METAR KSEA 210353Z 03007KT 10SM CLR 03/M04 A3043 RMK AO2 SLP314 T00331044=
201311210253 METAR KSEA 210253Z 03006KT 10SM CLR 04/M04 A3041 RMK AO2 SLP308 T00391039 51015=
201311210153 METAR KSEA 210153Z 01007KT 10SM CLR 04/M05 A3041 RMK AO2 SLP306 T00391050=
201311210053 METAR KSEA 210053Z 01008KT 10SM CLR 04/M06 A3038 RMK AO2 SLP296 T00441056=
201311202353 METAR KSEA 202353Z 01010KT 10SM CLR 06/M06 A3037 RMK AO2 SLP291 T00611061 10078 20056 53012=
201311202253 METAR KSEA 202253Z 36012KT 10SM FEW250 07/M07 A3035 RMK AO2 SLP286 T00671067=
201311202153 METAR KSEA 202153Z 01011G16KT 10SM FEW250 07/M06 A3034 RMK AO2 SLP282 T00721061=
201311202053 METAR KSEA 202053Z 02010KT 10SM FEW250 07/M04 A3033 RMK AO2 SLP279 T00721044 51004=
201311201953 METAR KSEA 201953Z 36010G17KT 10SM FEW025 07/M04 A3032 RMK AO2 SLP277 T00671039=
201311201853 METAR KSEA 201853Z 02011KT 10SM FEW025 06/M04 A3033 RMK AO2 SLP279 T00611044=
201311201753 METAR KSEA 201753Z 01010KT 10SM FEW025 06/M04 A3032 RMK AO2 SLP275 T00561039 10056 20017 51022=
201311201653 METAR KSEA 201653Z 36005KT 10SM FEW025 04/M02 A3030 RMK AO2 SLP270 T00391022=
201311201553 METAR KSEA 201553Z 02009KT 10SM FEW030 03/M03 A3027 RMK AO2 SLP261 T00281028=
201311201453 METAR KSEA 201453Z 02006KT 10SM FEW034 02/M03 A3025 RMK AO2 SLP253 T00171033 52029=
201311201353 METAR KSEA 201353Z 02010KT 10SM SCT033 04/M03 A3022 RMK AO2 SLP242 T00391033=
201311201300 SPECI KSEA 201300Z VRB05KT 10SM BKN037 04/M03 A3020 RMK AO2=
201311201253 METAR KSEA 201253Z VRB04KT 10SM BKN026 BKN034 04/M03 A3020 RMK AO2 SLP234 T00391033=
201311201239 SPECI KSEA 201239Z 08004KT 10SM BKN026 BKN034 04/M03 A3019 RMK AO2=
201311201153 METAR KSEA 201153Z 01010KT 10SM OVC032 04/M03 A3017 RMK AO2 SLP223 70001 T00441033 10056 20022 53027=
201311201120 SPECI KSEA 201120Z 00000KT 10SM OVC032 04/M04 A3015 RMK AO2=
201311201053 METAR KSEA 201053Z 01004KT 10SM BKN029 03/M04 A3013 RMK AO2 SLP212 T00281039=
201311201045 SPECI KSEA 201045Z 36005KT 10SM BKN029 03/M04 A3013 RMK AO2=
201311200953 METAR KSEA 200953Z 02007KT 10SM CLR 03/M04 A3011=
201311200853 METAR KSEA 200853Z 01013KT 10SM FEW070 04/M04 A3009 RMK AO2 SLP196 T00391044 51030=
201311200753 METAR KSEA 200753Z 01012KT 10SM SCT070 04/M06 A3006 RMK AO2 SLP188 T00441056 401330044=
201311200653 METAR KSEA 200653Z 36017KT 10SM OVC050 06/M06 A3004 RMK AO2 SLP179 T00561056=
201311200553 METAR KSEA 200553Z 01010KT 10SM BKN060 06/M05 A3000 RMK AO2 SLP166 T00561050 10078 20056 53027=
201311200453 METAR KSEA 200453Z 01010KT 10SM BKN050 OVC060 06/M06 A2996 RMK AO2 SLP154 T00611056=
201311200353 METAR KSEA 200353Z 01011KT 10SM OVC045 07/M06 A2993 RMK AO2 SLP145 T00671056=
201311200253 METAR KSEA 200253Z 01005KT 10SM OVC045 07/M03 A2991 RMK AO2 SLP138 T00671033 51013=
201311200153 METAR KSEA 200153Z 03009KT 10SM FEW015 OVC039 07/M01 A2991 RMK AO2 SLP135 T00721006=
201311200053 METAR KSEA 200053Z 03003KT 10SM FEW020 BKN041 OVC070 08/02 A2989=
201311192353 METAR KSEA 192353Z 02005KT 10SM FEW020 BKN050 OVC220 08/02 A2988 RMK AO2 SLP124 60001 T00780022 10083 20072 53004=
201311192253 METAR KSEA 192253Z 35005KT 10SM FEW020 BKN045 BKN220 08/02 A2987 RMK AO2 RAE10 SLP121 P0000 T00780022=
201311192153 METAR KSEA 192153Z 35006KT 10SM -RA FEW015 BKN034 OVC060 08/03 A2986 RMK AO2 RAE03B50 SLP119 P0001 T00780028=
201311192128 SPECI KSEA 192128Z 36007KT 10SM FEW015 BKN035 BKN200 08/03 A2986 RMK AO2 RAE03 P0000=
201311192053 METAR KSEA 192053Z 34005KT 8SM -RA FEW012 BKN016 OVC034 07/03 A2986 RMK AO2 RAE00B44 SLP120 P0000 60000 T00720033 51017=
201311192022 SPECI KSEA 192022Z 01012KT 10SM FEW012 BKN025 OVC060 07/03 A2986 RMK AO2 RAE00 P0000=
201311191953 METAR KSEA 191953Z 05010KT 10SM -RA FEW012 BKN037 BKN050 08/03 A2984 RMK AO2 SLP113 P0000 T00780033=
201311191932 SPECI KSEA 191932Z 06009KT 10SM -RA SCT022 BKN035 08/04 A2984 RMK AO2 P0000=
201311191853 METAR KSEA 191853Z 07011KT 8SM -RA FEW015 BKN028 OVC048 08/03 A2984 RMK AO2 RAB1757 SLP111 P0000 T00780033=
201311191753 METAR KSEA 191753Z 06011KT 10SM FEW008 BKN023 OVC037 08/03 A2981 RMK AO2 RAB40E50 SLP102 P0000 60000 T00780033 10122 20078 51020=
201311191653 METAR KSEA 191653Z 05011KT 10SM FEW008 BKN019 OVC050 08/04 A2980 RMK AO2 RAE27 SLP097 P0000 T00780044=
201311191624 SPECI KSEA 191624Z 06011KT 10SM -RA FEW007 BKN023 OVC049 08/04 A2978 RMK AO2 P0000=
201311191553 METAR KSEA 191553Z 04016KT 10SM -RA FEW006 BKN014 OVC027 08/04 A2978 RMK AO2 RAB1455 SLP090 P0000 T00830044=
201311191453 METAR KSEA 191453Z 10007KT 10SM SCT006 OVC012 08/04 A2975 RMK AO2 RAE1356 SLP082 P0000 60000 T00830044 51041 $=
201311191447 SPECI KSEA 191447Z 07006KT 10SM SCT006 OVC011 08/05 A2975 RMK AO2 RAE1356 PRESRR P0000 $=
201311191353 METAR KSEA 191353Z 06011KT 6SM -RA BKN005 OVC011 08/06 A2971 RMK AO2 RAB09 SLP068 P0000 T00830056 $=
201311191253 METAR KSEA 191253Z 02007KT 10SM OVC007 09/07 A2968 RMK AO2 SLP058 T00940067 $=
201311191153 METAR KSEA 191153Z 23010G17KT 10SM BKN005 OVC050 12/09 A2963 RMK AO2 SLP040 FG BANK S-SW 60006 70103 T01220094 10133 20117 53021 $=
201311191124 SPECI KSEA 191124Z 20011G22KT 6SM BR BKN005 OVC019 12/10 A2961 RMK AO2 FG BANK S-SW $=
201311191053 METAR KSEA 191053Z 21015G23KT 2SM BR BKN005 OVC019 12/10 A2960 RMK AO2 RAE51 SLP030 P0002 T01220100 $=
201311191007 SPECI KSEA 191007Z 20014G20KT 2SM -RA BKN009 OVC019 13/10 A2959 RMK AO2 P0001 $=
201311190953 METAR KSEA 190953Z 20014G23KT 7SM -RA SCT009 BKN016 OVC023 13/09 A2958 RMK AO2 RAE15B40 SLP023 P0001 T01280094 $=
201311190951 SPECI KSEA 190951Z 20016G23KT 7SM -RA SCT009 BKN016 OVC023 13/09 A2958 RMK AO2 RAE15B40 P0001 $=
201311190939 SPECI KSEA 190939Z 20016G22KT 7SM BKN014 OVC025 13/09 A2958 RMK AO2 RAE15 P0001=
201311190853 METAR KSEA 190853Z 19019G23KT 10SM -RA BKN016 BKN022 OVC028 13/09 A2957 RMK AO2 RAB16E18B40 SLP018 P0000 60003 T01280094 58002=
201311190838 SPECI KSEA 190838Z 20016G22KT 10SM BKN018 BKN024 OVC032 13/09 A2957 RMK AO2 RAB16E18 P0000=
201311190828 SPECI KSEA 190828Z 20014G21KT 10SM FEW015 SCT022 OVC032 13/09 A2957 RMK AO2 RAB16E18 P0000=
201311190753 METAR KSEA 190753Z 19014G20KT 10SM BKN024 OVC034 13/09 A2957 RMK AO2 RAB0655E52 SLP018 P0003 T01280089 401280094=
201311190653 METAR KSEA 190653Z 19012KT 10SM OVC020 13/09 A2958 RMK AO2 SLP021 T01280089=
201311190553 METAR KSEA 190553Z 18011KT 10SM OVC022 12/08 A2957 RMK AO2 RAE42 SLP020 P0004 60040 T01170078 10117 20111 56006 $=
201311190453 METAR KSEA 190453Z 19008G15KT 10SM -RA FEW016 BKN027 OVC041 12/08 A2958 RMK AO2 SLP024 P0009 T01170078=
201311190449 SPECI KSEA 190449Z 18011KT 10SM -RA FEW020 BKN027 OVC043 12/08 A2958 RMK AO2 P0009=
201311190353 METAR KSEA 190353Z 18013KT 8SM RA BKN055 OVC070 11/08 A2959 RMK AO2 SLP027 P0010 T01110083=
201311190253 METAR KSEA 190253Z 17010KT 7SM RA BKN032 BKN042 OVC050 11/08 A2961 RMK AO2 SLP033 P0008 60017 T01110083 56023=
201311190153 METAR KSEA 190153Z 19005KT 7SM RA OVC034 11/08 A2963 RMK AO2 SLP039 P0006 T01110078=
201311190053 METAR KSEA 190053Z 14011KT 9SM -RA SCT041 OVC055 11/08 A2964 RMK AO2 SLP044 P0003 T01110083=
201311190017 SPECI KSEA 190017Z 15009KT 7SM -RA SCT029 SCT037 OVC049 11/08 A2967 RMK AO2 P0001=
201311182353 METAR KSEA 182353Z 17005KT 8SM -RA BKN029 OVC041 11/08 A2968 RMK AO2 SLP058 P0006 60040 T01110083 10117 20106 58031=
201311182253 METAR KSEA 182253Z 15007KT 6SM -RA FEW006 OVC049 12/09 A2971 RMK AO2 SLP068 P0008 T01170089=
201311182153 METAR KSEA 182153Z 17009KT 6SM -RA FEW006 BKN040 OVC055 12/09 A2975 RMK AO2 SLP080 P0006 T01170089=
201311182141 SPECI KSEA 182141Z 17011KT 6SM -RA SCT006 BKN032 OVC055 12/09 A2975 RMK AO2 P0004=
201311182134 SPECI KSEA 182134Z 17011KT 6SM -RA SCT006 BKN026 OVC055 12/09 A2975 RMK AO2 P0004=
201311182128 SPECI KSEA 182128Z 17010KT 2 1/2SM -RA SCT005 OVC026 12/09 A2976 RMK AO2 P0003=
201311182053 METAR KSEA 182053Z 17007KT 2 1/2SM -RA BR BKN004 BKN014 12/09 A2977 RMK AO2 SLP089 P0008 60020 T01170094 58021=
201311182021 SPECI KSEA 182021Z 17006KT 2 1/2SM RA BR BKN004 OVC018 11/09 A2978 RMK AO2 P0004=
201311181953 METAR KSEA 181953Z 17003KT 2 1/2SM -RA BR BKN007 BKN018 OVC026 11/09 A2980 RMK AO2 SLP097 P0006 T01110089=
201311181853 METAR KSEA 181853Z 18003KT 2 1/2SM R16L/5500VP6000FT -RA BR BKN005 OVC017 11/09 A2982 RMK AO2 SLP106 P0006 T01110089=
201311181814 SPECI KSEA 181814Z 17006KT 1SM R16L/6000VP6000FT RA BR BKN004 OVC009 11/09 A2983 RMK AO2 TWR VIS 1 1/2 P0003=
201311181753 METAR KSEA 181753Z 17006KT 2SM RA BR BKN004 OVC008 11/08 A2983 RMK AO2 SLP110 P0007 60017 T01060083 10106 20100 58009=
201311181653 METAR KSEA 181653Z 17005KT 1 1/2SM -RA BR BKN003 OVC006 11/08 A2985 RMK AO2 TWR VIS 2 RAE06B22 SLP116 P0002 T01060083=
201311181612 SPECI KSEA 181612Z 16006KT 1 1/2SM BR OVC005 11/08 A2985 RMK AO2 RAE06 P0001=
201311181553 METAR KSEA 181553Z 17005KT 1/2SM R16L/6000VP6000FT -RA BR BKN003 OVC007 10/08 A2986 RMK AO2 SFC VIS 1 DZE1456RAB1456 SLP117 P0003 T01000083=
201311181545 SPECI KSEA 181545Z 19005KT 1/2SM R16L/6000VP6000FT -RA BR BKN002 OVC006 11/08 A2986 RMK AO2 SFC VIS 1 DZE1456RAB1456 P0002=
201311181453 METAR KSEA 181453Z 21006KT 2SM -DZ BR OVC004 11/08 A2986 RMK AO2 SFC VIS 2 1/2 DZB23 SLP119 P0002 60005 T01060083 58010 $=
201311181420 SPECI KSEA 181420Z 22006KT 2SM BR BKN004 OVC012 10/08 A2986 RMK AO2 P0001=
201311181404 SPECI KSEA 181404Z 22008KT 3SM BR SCT004 OVC012 10/08 A2987 RMK AO2=
201311181353 METAR KSEA 181353Z 22008KT 2SM BR BKN004 BKN020 OVC029 10/08 A2987 RMK AO2 RAE26 SLP121 P0001 T01000078=
201311181338 SPECI KSEA 181338Z 21008KT 2SM BR BKN004 BKN020 OVC042 10/08 A2987 RMK AO2 RAE26 P0001=
201311181253 METAR KSEA 181253Z 22009KT 1SM R16L/P6000FT -RA BR BKN004 OVC008 10/08 A2989 RMK AO2 RAB00 SLP128 P0002 T01000078=
201311181248 SPECI KSEA 181248Z 21008KT 1SM R16L/P6000FT -RA BR BKN004 OVC008 10/08 A2989 RMK AO2 RAB00 P0002=
201311181153 METAR KSEA 181153Z 21007KT 10SM BKN004 OVC035 10/08 A2989 RMK AO2 SLP129 60003 70024 T01000078 10100 20094 57006=
201311181100 SPECI KSEA 181100Z 18004KT 10SM BKN004 OVC013 10/07 A2990 RMK AO2=
201311181053 METAR KSEA 181053Z 17005KT 10SM SCT004 BKN015 OVC044 10/07 A2990 RMK AO2 SLP132 FG BANK S T01000072=
201311180953 METAR KSEA 180953Z 20007KT 10SM FEW003 BKN022 OVC043 09/07 A2990 RMK AO2 RAE41 SLP133 FG BANK S P0000 T00940072=
201311180912 SPECI KSEA 180912Z 20008KT 5SM BR FEW005 BKN022 OVC030 09/07 A2991 RMK AO2 RAE04 FG BANK S P0000=
201311180853 METAR KSEA 180853Z 20008KT 2SM -RA BR SCT007 OVC019 09/07 A2991 RMK AO2 RAB0758 SLP135 P0003 60003 T00940072 58001=
201311180845 SPECI KSEA 180845Z 21008KT 2SM -RA BR SCT007 OVC019 09/07 A2991 RMK AO2 RAB0758 P0002=
201311180812 SPECI KSEA 180812Z 23008KT 7SM -RA FEW007 SCT010 OVC019 09/07 A2991 RMK AO2 RAB0758 P0000=
201311180753 METAR KSEA 180753Z 22009KT 10SM FEW010 BKN026 OVC031 10/07 A2992 RMK AO2 SLP138 T01000067 401170072=
201311180744 SPECI KSEA 180744Z 22008KT 10SM FEW011 BKN026 OVC033 10/07 A2991 RMK AO2=
201311180653 METAR KSEA 180653Z 19007KT 10SM FEW012 BKN032 OVC041 10/07 A2991 RMK AO2 SLP137 T01000072=
201311180553 METAR KSEA 180553Z 21007KT 10SM FEW009 BKN048 OVC065 09/07 A2991 RMK AO2 RAB13E51 SLP136 P0001 60005 T00940072 10100 20094 53006=
201311180453 METAR KSEA 180453Z 22009KT 10SM FEW009 OVC040 10/07 A2991 RMK AO2 RAB27E45 SLP135 P0000 T01000072=
201311180422 SPECI KSEA 180422Z 23008KT 10SM FEW009 BKN033 OVC044 10/07 A2990 RMK AO2=
201311180353 METAR KSEA 180353Z 20009KT 10SM OVC040 10/07 A2989 RMK AO2 RAE01B26E41 SLP129 P0000 T01000072=
201311180253 METAR KSEA 180253Z 20008KT 10SM -RA FEW022 OVC035 10/07 A2989 RMK AO2 SLP130 P0001 60004 T01000067 50006=
201311180245 SPECI KSEA 180245Z 21008KT 10SM -RA FEW022 OVC035 10/07 A2990 RMK AO2 P0001=
201311180200 SPECI KSEA 180200Z 22008KT 7SM -RA SCT005 BKN014 OVC022 09/07 A2989 RMK AO2 P0000=
201311180153 METAR KSEA 180153Z 22010KT 7SM -RA BKN005 BKN014 OVC020 09/07 A2990 RMK AO2 SLP130 P0001 T00940072=
201311180053 METAR KSEA 180053Z 23010KT 10SM -RA BKN007 OVC036 10/07 A2988 RMK AO2 RAB2354 SLP127 P0002 T01000072=
201311180038 SPECI KSEA 180038Z 22012KT 10SM -RA BKN007 BKN014 OVC041 10/07 A2988 RMK AO2 RAB2354 P0001=
201311180021 SPECI KSEA 180021Z 22012KT 10SM -RA FEW007 BKN014 OVC055 10/07 A2988 RMK AO2 RAB2354 P0001=
201311172353 METAR KSEA 172353Z 21012KT 10SM FEW012 BKN049 BKN060 10/07 A2988 RMK AO2 RAB06E52 SLP124 P0000 60009 T01000067 10117 20089 53004=
201311172339 SPECI KSEA 172339Z 20013KT 10SM -RA FEW012 BKN049 BKN060 11/07 A2987 RMK AO2 RAB06 P0000=
201311172319 SPECI KSEA 172319Z 20012KT 10SM -RA FEW014 BKN028 BKN049 11/07 A2987 RMK AO2 RAB06 P0000=
201311172253 METAR KSEA 172253Z 19014KT 10SM FEW016 SCT039 BKN050 11/07 A2986 RMK AO2 RAB28E41 SLP118 P0000 T01060072=
201311172153 METAR KSEA 172153Z 20016G22KT 10SM SCT011 BKN023 11/07 A2986 RMK AO2 RAE01B20E30 SLP117 P0000 T01110072=
201311172053 METAR KSEA 172053Z 20016G23KT 10SM -RA BKN012 OVC024 11/07 A2986 RMK AO2 SLP120 P0002 60009 T01060072 50001=
201311172049 SPECI KSEA 172049Z 20014G19KT 10SM -RA BKN010 BKN015 OVC032 11/07 A2986 RMK AO2 P0002=
201311171953 METAR KSEA 171953Z 19010KT 4SM R16L/5000VP6000FT -RA BR FEW005 SCT015 OVC034 09/07 A2987 RMK AO2 SLP120 P0006 T00940072=
201311171911 SPECI KSEA 171911Z 18012KT 9SM -RA FEW007 SCT029 OVC046 09/07 A2986 RMK AO2 P0002=
201311171853 METAR KSEA 171853Z 19012KT 9SM -RA FEW011 BKN040 OVC050 09/06 A2987 RMK AO2 SLP122 P0001 T00940061=
201311171841 SPECI KSEA 171841Z 18011KT 7SM -RA FEW009 BKN029 OVC033 09/06 A2987 RMK AO2 P0001=
201311171831 SPECI KSEA 171831Z 18013G20KT 6SM -RA BKN013 OVC021 09/06 A2987 RMK AO2 P0000=
201311171753 METAR KSEA 171753Z 18007KT 5SM -RA BKN017 OVC021 09/05 A2986 RMK AO2 SLP119 P0006 60007 T00890050 10094 20078 53010=
201311171731 SPECI KSEA 171731Z 17007KT 4SM -RA SCT019 OVC026 09/06 A2986 RMK AO2 P0004=
201311171653 METAR KSEA 171653Z 19011G19KT 10SM -RA SCT023 BKN032 OVC046 09/04 A2985 RMK AO2 RAB46 SLP116 P0001 T00940044=
201311171553 METAR KSEA 171553Z 18009KT 10SM SCT023 BKN034 BKN090 09/04 A2983 RMK AO2 SLP110 T00890039=
201311171453 METAR KSEA 171453Z 19011KT 10SM SCT018 BKN029 OVC085 09/04 A2983 RMK AO2 SLP108 T00890044 53007=
201311171353 METAR KSEA 171353Z 17009KT 10SM SCT012 SCT018 BKN080 08/04 A2982 RMK AO2 SLP104 T00830039=
201311171330 SPECI KSEA 171330Z 18010KT 10SM SCT012 SCT018 BKN080 08/04 A2982 RMK AO2=
201311171253 METAR KSEA 171253Z 20010KT 10SM SCT012 BKN018 OVC085 08/04 A2982 RMK AO2 SLP104 T00830039=
201311171153 METAR KSEA 171153Z 21012KT 10SM FEW012 SCT020 OVC100 08/03 A2981 RMK AO2 SLP102 T00780033 10083 20072 50008=
201311171135 SPECI KSEA 171135Z 20012KT 10SM FEW012 SCT020 BKN100 08/03 A2981 RMK AO2=
201311171053 METAR KSEA 171053Z 20010KT 10SM BKN014 OVC100 08/03 A2982 RMK AO2 SLP104 T00780033=
201311171034 SPECI KSEA 171034Z 19008KT 10SM BKN014 OVC100 08/03 A2981 RMK AO2=
201311170953 METAR KSEA 170953Z 21012G19KT 10SM SCT017 BKN100 08/03 A2980 RMK AO2 SLP097 T00780033=
201311170946 SPECI KSEA 170946Z 21013G19KT 10SM SCT017 BKN100 08/03 A2979 RMK AO2=
201311170853 METAR KSEA 170853Z 19010G15KT 10SM BKN019 BKN085 08/03 A2979 RMK AO2 SLP094 T00830028 51009=
201311170847 SPECI KSEA 170847Z 20007KT 10SM BKN019 OVC090 08/03 A2979 RMK AO2=
201311170753 METAR KSEA 170753Z 18011G20KT 10SM SCT017 OVC095 08/03 A2977 RMK AO2 SLP088 T00780028 401000050=
201311170653 METAR KSEA 170653Z 17008G15KT 140V210 10SM FEW025 OVC095 08/02 A2976 RMK AO2 SLP084 T00830022=
201311170553 METAR KSEA 170553Z 20010KT 10SM SCT025 BKN100 08/02 A2974 RMK AO2 SLP079 T00830022 10094 20078 53019=
201311170453 METAR KSEA 170453Z 21011KT 10SM SCT023 BKN090 08/02 A2973 RMK AO2 SLP074 T00830022=
201311170353 METAR KSEA 170353Z 22009KT 10SM BKN023 08/02 A2970 RMK AO2 SLP067 T00830017=
201311170253 METAR KSEA 170253Z 24010G18KT 10SM SCT029 OVC100 09/02 A2969 RMK AO2 SLP061 T00890017 53020=
201311170153 METAR KSEA 170153Z 22010G18KT 10SM OVC100 09/01 A2966 RMK AO2 SLP051 T00890011=
201311170053 METAR KSEA 170053Z 21018G24KT 10SM FEW030 BKN110 09/02 A2964 RMK AO2 SLP044 T00890022=
201311162353 METAR KSEA 162353Z 22012G20KT 10SM FEW043 OVC120 09/02 A2963 RMK AO2 PK WND 23027/2306 SLP039 T00890017 10100 20083 53014=
201311162253 METAR KSEA 162253Z 22013G21KT 10SM BKN032 OVC120 10/01 A2961=
201311162153 METAR KSEA 162153Z 22013G19KT 10SM SCT032 BKN120 10/02 A2960 RMK AO2 SLP029 T01000017 $=
201311162053 METAR KSEA 162053Z 22009KT 10SM FEW030 BKN043 09/02 A2959 RMK AO2 SLP026 T00940022 51008 $=
201311161953 METAR KSEA 161953Z 22011G16KT 10SM SCT028 BKN045 09/02 A2958 RMK AO2 SLP024 T00940022 $=
201311161853 METAR KSEA 161853Z 20010KT 10SM SCT024 BKN030 09/03 A2958 RMK AO2 SLP023 T00940033 $=
201311161753 METAR KSEA 161753Z 18008KT 10SM FEW070 BKN180 08/02 A2956 RMK AO2 SLP017 T00830022 10083 20050 51022 $=
201311161653 METAR KSEA 161653Z 16007KT 10SM FEW080 07/02 A2955 RMK AO2 SLP012 T00720022 $=
201311161553 METAR KSEA 161553Z 14006KT 10SM SCT080 06/01 A2952 RMK AO2 SLP006 T00560011 $=
201311161453 METAR KSEA 161453Z 16005KT 10SM BKN075 06/02 A2950 RMK AO2 SLP996 T00560017 51023 $=
201311161353 METAR KSEA 161353Z 20005KT 10SM SCT080 07/02 A2947 RMK AO2 SLP989 T00670017 $=
201311161253 METAR KSEA 161253Z 20005KT 10SM FEW050 SCT070 06/02 A2946 RMK AO2 SLP984 T00610017 $=
201311161153 METAR KSEA 161153Z 23005KT 10SM FEW050 SCT075 07/02 A2943 RMK AO2 SLP972 70012 T00720017 10106 20072 51021 $=
201311161053 METAR KSEA 161053Z 23005KT 10SM SCT022 SCT060 08/02 A2941 RMK AO2 SLP966 T00830022 $=
201311160953 METAR KSEA 160953Z VRB06G16KT 10SM FEW025 SCT040 BKN070 08/03 A2939 RMK AO2 SLP959 T00830028 $=
201311160853 METAR KSEA 160853Z 24006KT 10SM FEW025 SCT090 08/03 A2936 RMK AO2 SLP950 T00830028 50009 $=
201311160753 METAR KSEA 160753Z 26008KT 10SM FEW020 SCT070 09/04 A2937 RMK AO2 SLP950 T00890039 401060072 $=
201311160706 SPECI KSEA 160706Z 24015G22KT 10SM SCT014 SCT070 09/05 A2935 RMK AO2 $=
201311160653 METAR KSEA 160653Z 24014G24KT 10SM BKN014 09/05 A2934 RMK AO2 PK WND 22031/0558 SLP942 T00940050 $=
201311160634 SPECI KSEA 160634Z 22013G25KT 10SM BKN012 10/06 A2934 RMK AO2 PK WND 22031/0558 $=
201311160553 METAR KSEA 160553Z 21021G29KT 10SM OVC007 10/07 A2934 RMK AO2 PK WND 20029/0550 RAE0456 SLP941 P0000 60005 T01000072 10100 20083 56049 $=
201311160453 METAR KSEA 160453Z 18016G25KT 10SM -RA OVC005 09/06 A2938 RMK AO2 PK WND 17033/0404 DZE43RAB43 SLP955 P0001 T00890061 $=
201311160415 SPECI KSEA 160415Z 20016G28KT 4SM -DZ BKN009 OVC014 08/06 A2939 RMK AO2 PK WND 17033/0404 P0000 $=
201311160353 METAR KSEA 160353Z 18021G32KT 4SM -DZ SCT009 BKN016 OVC022 08/06 A2941=
201311160253 METAR KSEA 160253Z 18016G22KT 10SM -RA FEW007 OVC010 08/06 A2948 RMK AO2 PK WND 19027/0155 DZE38RAB38 PRESFR SLP991 P0003 60004 T00830056 56055 $=
201311160153 METAR KSEA 160153Z 19015G25KT 6SM -DZ OVC012 09/06 A2955 RMK AO2 PK WND 20026/0143 RAE30DZB50 SLP013 P0001 T00890056 $=
201311160053 METAR KSEA 160053Z 20019G24KT 10SM -RA OVC012 09/05 A2958 RMK AO2 RAB24 SLP024 P0000 T00890050 $=
201311152353 METAR KSEA 152353Z 19015G22KT 10SM BKN010 OVC014 09/05 A2965 RMK AO2 SLP046 60007 T00890050 10089 20083 56045 $=
201311152303 SPECI KSEA 152303Z 19015G23KT 10SM FEW008 BKN014 OVC018 09/06 A2968 RMK AO2 $=
201311152253 METAR KSEA 152253Z 19015G25KT 10SM BKN010 OVC016 09/05 A2968 RMK AO2 PK WND 18027/2241 SLP058 T00890050 $=
201311152232 SPECI KSEA 152232Z 19015G20KT 10SM OVC010 08/06 A2970 RMK AO2 PRESFR $=
201311152153 METAR KSEA 152153Z 19015KT 10SM OVC008 08/06 A2973 RMK AO2 RAE47 SLP075 P0002 T00830056 $=
201311152053 METAR KSEA 152053Z 18013KT 10SM -RA BKN009 OVC014 08/06 A2978 RMK AO2 PRESFR SLP093 P0002 60005 T00830056 58043 $=
201311152024 SPECI KSEA 152024Z 19011G18KT 8SM -RA BKN008 OVC014 08/06 A2981 RMK AO2 P0001 $=
201311151953 METAR KSEA 151953Z 20012G21KT 8SM -RA OVC011 08/05 A2984 RMK AO2 SLP112 P0001 T00830050 $=
201311151853 METAR KSEA 151853Z 20010KT 9SM -RA BKN011 OVC015 08/05 A2988 RMK AO2 RAB06 SLP126 P0002 T00830050 $=
201311151753 METAR KSEA 151753Z 20007KT 10SM BKN014 OVC080 09/04 A2991 RMK AO2 SLP136 T00890044 10089 20078 58020 $=
201311151653 METAR KSEA 151653Z 21009KT 10SM BKN012 BKN019 OVC029 08/04 A2993 RMK AO2 SLP145 T00830039 $=
201311151553 METAR KSEA 151553Z 19012G16KT 10SM OVC012 08/04 A2995 RMK AO2 SLP148 T00780039 $=
201311151453 METAR KSEA 151453Z 17005KT 10SM BKN012 OVC022 08/04 A2997 RMK AO2 SLP156 T00780039 58014 $=
201311151353 METAR KSEA 151353Z 17004KT 10SM BKN012 BKN020 OVC026 08/04 A2999 RMK AO2 SLP162 T00780039 $=
201311151253 METAR KSEA 151253Z 18010KT 10SM OVC012 08/04 A3000 RMK AO2 SLP167 T00780039 $=
201311151241 SPECI KSEA 151241Z 19007KT 10SM BKN012 OVC020 08/04 A3000 RMK AO2 $=
201311151201 SPECI KSEA 151201Z 19007KT 10SM SCT009 OVC016 08/05 A3001 RMK AO2 $=
201311151153 METAR KSEA 151153Z 17006KT 10SM BKN009 OVC016 08/05 A3001 RMK AO2 SLP170 70005 T00780050 10083 20067 56016 $=
201311151053 METAR KSEA 151053Z 20009KT 10SM OVC005 08/06 A3001=
201311150953 METAR KSEA 150953Z 13003KT 10SM BKN005 OVC016 08/05 A3005 RMK AO2 SLP183 T00780050 $=
201311150942 SPECI KSEA 150942Z 15004KT 10SM BKN007 BKN016 OVC050 07/05 A3005 RMK AO2 $=
201311150933 SPECI KSEA 150933Z 14005KT 10SM FEW007 BKN016 OVC050 07/04 A3005 RMK AO2 $=
201311150853 METAR KSEA 150853Z 13005KT 10SM FEW013 OVC050 07/04 A3006 RMK AO2 SLP186 T00720044 57014 $=
201311150753 METAR KSEA 150753Z 17005KT 9SM FEW002 BKN046 07/04 A3007 RMK AO2 SLP189 T00720044 401110061 $=
201311150653 METAR KSEA 150653Z 16005KT 10SM OVC046 08/06 A3009 RMK AO2 SLP196 T00830056 $=
201311150553 METAR KSEA 150553Z 00000KT 10SM SCT002 BKN046 07/04 A3010 RMK AO2 SLP200 60002 T00720044 10100 20061 55003 $=
201311150519 SPECI KSEA 150519Z 14003KT 10SM FEW004 SCT046 07/05 A3010 RMK AO2 $=
201311150453 METAR KSEA 150453Z 15004KT 10SM FEW090 07/04 A3010 RMK AO2 SLP199 T00720044 $=
201311150353 METAR KSEA 150353Z 13004KT 10SM FEW090 08/05 A3010 RMK AO2 SLP200 T00830050 $=
201311150253 METAR KSEA 150253Z 00000KT 10SM FEW020 SCT080 08/05 A3011 RMK AO2 SLP204 60002 T00830050 56007 $=
201311150153 METAR KSEA 150153Z 00000KT 10SM FEW035 SCT080 09/06 A3012 RMK AO2 SLP206 T00890056 $=
201311150053 METAR KSEA 150053Z 00000KT 10SM SCT035 BKN065 10/07 A3012 RMK AO2 RAE29 SLP207 P0002 T01000067 $=
201311142353 METAR KSEA 142353Z 33003KT 6SM -RA FEW012 SCT035 BKN045 10/07 A3013 RMK AO2 RAB06 SLP211 P0000 60000 T01000072 10111 20094 55004 $=
201311142323 SPECI KSEA 142323Z 29003KT 10SM SCT012 BKN037 OVC050 10/07 A3013 RMK AO2 RAB06E22 P0000 $=
201311142253 METAR KSEA 142253Z 00000KT 10SM BKN019 BKN033 OVC050 11/06 A3013=
201311142204 SPECI KSEA 142204Z 00000KT 10SM BKN021 OVC055 11/07 A3013 RMK AO2 $=
201311142153 METAR KSEA 142153Z 25005KT 10SM FEW007 SCT021 BKN055 11/06 A3013 RMK AO2 SLP211 T01060061 $=
201311142053 METAR KSEA 142053Z 23004KT 10SM FEW006 BKN048 10/06 A3014 RMK AO2 SLP215 60000 T01000061 56016 $=
201311142043 SPECI KSEA 142043Z 25005KT 10SM SCT006 SCT025 BKN040 10/07 A3014 RMK AO2 $=
201311141953 METAR KSEA 141953Z 22003KT 8SM BKN006 OVC021 09/07 A3015 RMK AO2 SLP219 T00940067 $=
201311141905 SPECI KSEA 141905Z 22004KT 7SM BKN006 OVC015 09/06 A3017 RMK AO2 $=
201311141853 METAR KSEA 141853Z 20007KT 8SM FEW005 BKN015 OVC022 09/06 A3018 RMK AO2 RAE21 SLP226 P0000 T00940061 $=
201311141818 SPECI KSEA 141818Z 19004KT 7SM -RA SCT005 BKN016 OVC023 09/07 A3019 RMK AO2 P0000 $=
201311141753 METAR KSEA 141753Z 00000KT 6SM -RA BKN005 OVC016 09/07 A3019 RMK AO2 RAB40 SLP231 P0000 60003 T00940067 10100 20089 56005 $=
201311141734 SPECI KSEA 141734Z 19003KT 7SM BKN005 BKN013 OVC045 09/07 A3019 RMK AO2 $=
201311141715 SPECI KSEA 141715Z 15004KT 7SM FEW004 BKN018 OVC041 09/07 A3019 RMK AO2 $=
201311141653 METAR KSEA 141653Z 18005KT 8SM FEW004 SCT018 OVC035 09/07 A3019 RMK AO2 RAB08E47 SLP231 P0003 T00940067 $=
201311141645 SPECI KSEA 141645Z 17004KT 8SM -RA FEW004 SCT018 OVC035 09/07 A3019 RMK AO2 RAB08 P0003 $=
201311141619 SPECI KSEA 141619Z 18004KT 7SM -RA SCT004 BKN008 OVC031 09/07 A3020 RMK AO2 RAB08 P0000 $=
201311141553 METAR KSEA 141553Z 17004KT 8SM OVC004 09/07 A3020=
201311141508 SPECI KSEA 141508Z 00000KT 7SM BKN004 OVC018 09/07 A3020 RMK AO2 $=
201311141453 METAR KSEA 141453Z 00000KT 2 1/2SM HZ OVC004 09/07 A3020 RMK AO2 SFC VIS 6 SLP235 T00940067 56009 $=
201311141442 SPECI KSEA 141442Z 00000KT 2 1/2SM HZ OVC004 09/07 A3020 RMK AO2 SFC VIS 6 $=
201311141353 METAR KSEA 141353Z 00000KT 10SM OVC004 09/07 A3021 RMK AO2 SLP237 T00940067 $=
201311141342 SPECI KSEA 141342Z 00000KT 10SM BKN004 BKN032 09/07 A3021 RMK AO2 $=
201311141253 METAR KSEA 141253Z 00000KT 10SM FEW006 BKN032 09/07 A3022 RMK AO2 SLP241 T00890067 $=
201311141153 METAR KSEA 141153Z 00000KT 10SM BKN006 OVC030 09/07 A3023 RMK AO2 SLP244 T00940067 10117 20083 56022 $=
201311141053 METAR KSEA 141053Z 00000KT 10SM OVC006 09/07 A3025 RMK AO2 SLP250 T00940067 $=
201311141005 SPECI KSEA 141005Z 18003KT 10SM BKN006 08/06 A3027 RMK AO2 $=
201311140953 METAR KSEA 140953Z 21003KT 10SM FEW040 BKN200 09/06 A3028 RMK AO2 SLP259 T00940061 $=
201311140853 METAR KSEA 140853Z 00000KT 10SM BKN200 10/07 A3030 RMK AO2 SLP266 T01000067 56021 $=
201311140753 METAR KSEA 140753Z 00000KT 10SM BKN200 11/06 A3032 RMK AO2 SLP273 T01110061 401390106 $=
201311140653 METAR KSEA 140653Z 20007KT 10SM OVC055 11/07 A3034 RMK AO2 SLP279 T01110067 $=
201311140553 METAR KSEA 140553Z 18004KT 10SM OVC049 12/07 A3036 RMK AO2 SLP287 T01170067 10133 20111 58012 $=
201311140453 METAR KSEA 140453Z 21008KT 10SM OVC049 12/07 A3038 RMK AO2 SLP294 T01170067 $=
201311140353 METAR KSEA 140353Z 19007KT 10SM OVC049 12/07 A3038 RMK AO2 SLP293 T01220072 $=
201311140253 METAR KSEA 140253Z 20006KT 10SM OVC049 13/07 A3039 RMK AO2 SLP299 T01280072 58007 $=
201311140153 METAR KSEA 140153Z 21006KT 10SM OVC045 13/07 A3041 RMK AO2 SLP303 T01280072 $=
201311140053 METAR KSEA 140053Z 21006KT 10SM BKN043 OVC100 13/07 A3041 RMK AO2 SLP303 T01280067 $=
201311132353 METAR KSEA 132353Z 21008KT 10SM BKN043 BKN250 13/07 A3041 RMK AO2 SLP306 T01330067 10139 20117 56006 $=
201311132253 METAR KSEA 132253Z 22005KT 10SM BKN036 BKN250 14/07 A3042 RMK AO2 SLP307 T01390072 $=
201311132153 METAR KSEA 132153Z 22008KT 10SM FEW020 SCT032 BKN250 14/07 A3042=
201311132147 SPECI KSEA 132147Z 22008KT 10SM SCT022 BKN032 BKN250 14/07 A3042 RMK AO2 $=
201311132112 SPECI KSEA 132112Z 24009KT 10SM FEW018 BKN022 13/07 A3043 RMK AO2 $=
201311132053 METAR KSEA 132053Z 23011KT 10SM FEW018 SCT024 13/07 A3043 RMK AO2 SLP312 T01330072 58005 $=
201311131953 METAR KSEA 131953Z 22013KT 10SM FEW015 SCT021 14/08 A3044 RMK AO2 SLP315 T01390078 $=
201311131853 METAR KSEA 131853Z 22007KT 10SM SCT012 BKN018 13/09 A3045 RMK AO2 SLP317 T01280089 $=
201311131846 SPECI KSEA 131846Z 23006KT 10SM SCT010 BKN017 13/09 A3045 RMK AO2 $=
201311131753 METAR KSEA 131753Z 20007KT 10SM BKN008 OVC012 12/08 A3045 RMK AO2 SLP317 T01170083 10117 20111 51011 $=
201311131653 METAR KSEA 131653Z 19006KT 10SM BKN009 OVC013 12/08 A3044 RMK AO2 SLP313 T01170083 $=
201311131553 METAR KSEA 131553Z 21007KT 10SM BKN008 BKN015 12/08 A3043 RMK AO2 SLP311 T01170083 $=
201311131536 SPECI KSEA 131536Z 20005KT 10SM BKN008 BKN040 12/08 A3043 RMK AO2 $=
201311131453 METAR KSEA 131453Z 20011KT 10SM BKN012 11/08 A3041 RMK AO2 SLP305 BKN V SCT T01110083 50005 $=
201311131448 SPECI KSEA 131448Z 19010KT 10SM BKN012 11/08 A3041 RMK AO2 BKN V SCT $=
201311131353 METAR KSEA 131353Z 20011KT 10SM SCT018 BKN060 12/08 A3042 RMK AO2 SLP306 T01170083 $=
201311131253 METAR KSEA 131253Z 20012KT 10SM FEW021 BKN070 12/08 A3040 RMK AO2 SLP300 T01170083 $=
201311131153 METAR KSEA 131153Z 16007KT 10SM FEW010 BKN049 OVC060 12/09 A3040 RMK AO2 SLP301 70016 T01170089 10128 20106 53002 $=
201311131053 METAR KSEA 131053Z 18006KT 10SM FEW050 BKN060 BKN075 12/09 A3039 RMK AO2 SLP297 T01170089 $=
201311130953 METAR KSEA 130953Z 18007KT 10SM BKN090 11/09 A3039 RMK AO2 SLP296 T01110089 $=
201311130853 METAR KSEA 130853Z 20007KT 10SM SCT013 BKN075 11/08 A3039 RMK AO2 SLP298 T01110083 53006 $=
201311130818 SPECI KSEA 130818Z 21007KT 10SM BKN015 12/09 A3038 RMK AO2 $=
201311130753 METAR KSEA 130753Z 19007KT 10SM FEW012 11/09 A3038 RMK AO2 SLP293 T01110089 401560089 $=
201311130737 SPECI KSEA 130737Z 19010KT 10SM FEW010 12/09 A3038 RMK AO2 $=
201311130713 SPECI KSEA 130713Z 20009KT 10SM BKN010 BKN015 OVC034 12/09 A3039 RMK AO2 $=
201311130653 METAR KSEA 130653Z 22007KT 10SM BKN015 BKN034 12/09 A3038 RMK AO2 SLP295 T01220094 $=
201311130643 SPECI KSEA 130643Z 21008KT 10SM BKN015 BKN027 12/09 A3038 RMK AO2 $=
201311130619 SPECI KSEA 130619Z 20009KT 10SM BKN013 OVC027 13/09 A3037 RMK AO2 $=
201311130553 METAR KSEA 130553Z 21007KT 10SM BKN016 13/09 A3037 RMK AO2 SLP292 T01280094 10144 20122 53013 $=
201311130530 SPECI KSEA 130530Z 22006KT 10SM BKN016 12/09 A3037 RMK AO2 $=
201311130453 METAR KSEA 130453Z 22006KT 10SM SCT036 SCT070 12/09 A3036 RMK AO2 SLP287 T01220089 $=
201311130353 METAR KSEA 130353Z 20007KT 10SM FEW040 BKN070 13/09 A3034 RMK AO2 SLP281 T01280094 $=
201311130253 METAR KSEA 130253Z 22005KT 10SM FEW028 SCT038 BKN047 13/09 A3033 RMK AO2 SLP279 T01330094 53012 $=
201311130153 METAR KSEA 130153Z 20006KT 10SM FEW030 BKN037 BKN100 13/09 A3032 RMK AO2 SLP275 T01330094 $=
201311130053 METAR KSEA 130053Z 20006KT 10SM SCT039 BKN095 14/09 A3031 RMK AO2 SLP271 T01390094 $=
201311122353 METAR KSEA 122353Z 21006KT 10SM FEW030 SCT100 BKN200 14/09 A3030 RMK AO2 SLP267 60000 T01440094 10156 20111 51006 $=
201311122253 METAR KSEA 122253Z 22008KT 10SM FEW027 SCT065 BKN200 15/09 A3029 RMK AO2 SLP265 T01500094 $=
201311122153 METAR KSEA 122153Z 23008KT 10SM SCT027 BKN065 14/10 A3029 RMK AO2 SLP263 T01440100 $=
201311122053 METAR KSEA 122053Z 21005KT 10SM FEW006 SCT037 BKN065 14/10 A3028 RMK AO2 SLP261 60000 T01390100 51016 $=
201311121953 METAR KSEA 121953Z 20003KT 10SM FEW005 SCT028 OVC035 13/09 A3027 RMK AO2 DZE35 SLP258 P0000 T01280094 $=
201311121853 METAR KSEA 121853Z 00000KT 7SM -DZ FEW004 OVC028 12/09 A3026 RMK AO2 RAB18E25DZB39 SLP255 P0000 T01170089 $=
201311121839 SPECI KSEA 121839Z 02003KT 7SM -DZ FEW004 OVC028 12/09 A3026 RMK AO2 RAB18E25DZB39 P0000 $=
201311121808 SPECI KSEA 121808Z 00000KT 3SM HZ BKN004 OVC031 11/08 A3025 RMK AO2 SFC VIS 4 $=
201311121753 METAR KSEA 121753Z 00000KT 3SM HZ SCT003 OVC032 11/08 A3024 RMK AO2 SFC VIS 4 RAE17 SLP245 P0000 60016 T01110083 10111 20100 51030 $=
201311121735 SPECI KSEA 121735Z 00000KT 1 1/2SM HZ BKN003 OVC034 11/08 A3023 RMK AO2 SFC VIS 2 1/2 RAE17 P0000 $=
201311121704 SPECI KSEA 121704Z 24003KT 1 1/2SM BR SCT003 OVC032 11/08 A3021 RMK AO2 SFC VIS 2 RAE02 P0000 $=
201311121653 METAR KSEA 121653Z 21003KT 1/2SM -RA BR SCT003 OVC034 11/08 A3021 RMK AO2 SFC VIS 2 RAB1557 SLP236 P0002 T01060083 $=
201311121627 SPECI KSEA 121627Z 21003KT 1 1/4SM -RA BR OVC032 11/08 A3020 RMK AO2 SFC VIS 1 1/2 RAB1557 P0002 $=
201311121613 SPECI KSEA 121613Z 21003KT 3SM -RA OVC032 11/08 A3019 RMK AO2 RAB1557 P0001 $=
201311121553 METAR KSEA 121553Z 00000KT 10SM OVC032 11/08 A3017 RMK AO2 RAE33 SLP224 P0001 T01060078 $=
201311121453 METAR KSEA 121453Z 00000KT 8SM -RA OVC041 11/08 A3015 RMK AO2 SLP215 P0006 60013 T01060078 51019 $=
201311121353 METAR KSEA 121353Z 00000KT 5SM -RA BR OVC055 11/08 A3013 RMK AO2 SLP210 P0005 T01060078 $=
201311121253 METAR KSEA 121253Z 00000KT 10SM -RA FEW050 OVC075 11/07 A3012 RMK AO2 RAB1154 SLP204 P0002 T01110072 $=
201311121153 METAR KSEA 121153Z 20003KT 10SM FEW050 SCT070 OVC090 11/07 A3009 RMK AO2 SLP196 T01110067 10144 20089 53013 $=
201311121053 METAR KSEA 121053Z 20004KT 10SM BKN120 OVC210 11/06 A3008 RMK AO2 SLP193 T01060061 $=
201311120953 METAR KSEA 120953Z 14007KT 10SM SCT120 OVC210 10/06 A3006=
201311120853 METAR KSEA 120853Z 13006KT 10SM SCT120 OVC210 10/07 A3005 RMK AO2 SLP183 T01000067 53011 $=
201311120753 METAR KSEA 120753Z 14004KT 7SM FEW120 BKN210 09/06 A3004 RMK AO2 SLP179 T00890061 401610061 $=
201311120653 METAR KSEA 120653Z 00000KT 10SM SCT210 11/06 A3002 RMK AO2 SLP173 T01060056 $=
201311120553 METAR KSEA 120553Z 11011KT 10SM SCT220 14/03 A3002 RMK AO2 SLP172 T01440028 10150 20106 58005 $=
201311120453 METAR KSEA 120453Z 15007KT 10SM SCT220 12/05 A3004 RMK AO2 SLP179 T01170050 $=
201311120353 METAR KSEA 120353Z 14009KT 10SM BKN220 14/03 A3004 RMK AO2 SLP178 T01440033 $=
201311120253 METAR KSEA 120253Z 12004KT 10SM FEW140 BKN220 11/06 A3003 RMK AO2 SLP178 T01110056 56010 $=
201311120153 METAR KSEA 120153Z 12010KT 10SM FEW140 BKN220 14/04 A3005 RMK AO2 SLP182 T01440039 $=
201311120053 METAR KSEA 120053Z 10005KT 10SM SCT140 BKN250 14/06 A3004 RMK AO2 SLP180 T01440056 $=
201311112353 METAR KSEA 112353Z 29004KT 10SM FEW140 BKN250 13/07 A3006 RMK AO2 SLP188 T01280067 10161 20089 56019 $=
201311112253 METAR KSEA 112253Z 28004KT 10SM FEW120 BKN250 13/07 A3008 RMK AO2 SLP192 T01280072 $=
201311112153 METAR KSEA 112153Z 00000KT 10SM FEW120 SCT190 BKN250 15/07 A3009 RMK AO2 SLP194 T01500067 $=
201311112053 METAR KSEA 112053Z 00000KT 10SM FEW120 SCT180 BKN240 12/07 A3012=
201311111953 METAR KSEA 111953Z 00000KT 10SM FEW120 BKN180 BKN250 12/07 A3013 RMK AO2 SLP211 T01220072 $=
201311111853 METAR KSEA 111853Z 28004KT 10SM SCT180 BKN250 11/07 A3015 RMK AO2 SLP217 T01060067 $=
201311111753 METAR KSEA 111753Z 00000KT 10SM SCT180 BKN240 09/06 A3016 RMK AO2 SLP220 FG BANK SE-S T00890056 10089 20061 53001 $=
201311111653 METAR KSEA 111653Z 00000KT 10SM BCFG FEW001 BKN180 08/06 A3016=
201311111553 METAR KSEA 111553Z 09005KT 10SM BCFG FEW001 BKN180 08/05 A3014 RMK AO2 SLP214 FG BANK E-S-SW T00780050 $=
201311111453 METAR KSEA 111453Z 18004KT 10SM FEW006 BKN180 07/04 A3016 RMK AO2 SLP219 T00720044 53012 $=
201311111353 METAR KSEA 111353Z 36007KT 10SM SCT100 07/05 A3013 RMK AO2 SLP209 T00720050 $=
201311111253 METAR KSEA 111253Z 36007KT 10SM CLR 08/05 A3012 RMK AO2 SLP206 T00780050 $=
201311111153 METAR KSEA 111153Z 03009KT 10SM SCT100 08/05 A3012 RMK AO2 SLP207 T00780050 10094 20078 51002 $=
201311111053 METAR KSEA 111053Z 01009KT 10SM BKN100 08/06 A3012 RMK AO2 SLP206 T00830056 $=
201311110953 METAR KSEA 110953Z 01008KT 10SM FEW004 OVC100 08/06 A3012 RMK AO2 SLP208 T00830056 $=
201311110853 METAR KSEA 110853Z 01009KT 10SM FEW004 SCT050 OVC100 09/06 A3011 RMK AO2 SLP205 T00890056 57008 $=
201311110753 METAR KSEA 110753Z 01010KT 10SM FEW004 SCT050 BKN090 09/06 A3012 RMK AO2 SLP207 T00890061 401110083 $=
201311110743 SPECI KSEA 110743Z 01008KT 10SM FEW004 SCT050 BKN090 09/06 A3012 RMK AO2 $=
201311110653 METAR KSEA 110653Z 03011KT 10SM FEW050 BKN090 OVC200 09/06 A3013 RMK AO2 SLP210 T00940056 $=
201311110553 METAR KSEA 110553Z 01010KT 10SM SCT050 OVC200 09/06 A3014 RMK AO2 SLP212 T00890056 10106 20089 51001 $=
201311110453 METAR KSEA 110453Z 01010KT 10SM BKN200 09/06 A3013 RMK AO2 SLP211 T00940056 $=
201311110353 METAR KSEA 110353Z 01010KT 10SM BKN060 09/06 A3014 RMK AO2 SLP213 T00940056 $=
201311110253 METAR KSEA 110253Z 36007KT 10SM OVC050 10/06 A3013 RMK AO2 SLP211 T01000061 53002 $=
201311110153 METAR KSEA 110153Z 36007KT 10SM FEW009 BKN055 BKN070 10/06 A3013 RMK AO2 SLP211 T01000061 $=
201311110124 SPECI KSEA 110124Z 35006KT 10SM SCT009 SCT041 OVC070 10/06 A3013 RMK AO2 $=
201311110053 METAR KSEA 110053Z 36008KT 10SM FEW042 BKN055 OVC070 10/06 A3012 RMK AO2 SLP208 T01000061 $=
201311102353 METAR KSEA 102353Z 36010KT 10SM FEW036 OVC044 11/06 A3013 RMK AO2 SLP209 T01060061 10111 20100 55001 $=
201311102253 METAR KSEA 102253Z 01011KT 10SM FEW009 BKN036 OVC047 11/06 A3012 RMK AO2 SLP208 T01110061 $=
201311102153 METAR KSEA 102153Z 02011KT 10SM FEW009 BKN036 OVC043 11/06 A3013 RMK AO2 SLP210 T01060061 $=
201311102053 METAR KSEA 102053Z 01012KT 10SM FEW009 BKN045 OVC055 11/06 A3013 RMK AO2 SLP210 T01060061 58003 $=
201311101953 METAR KSEA 101953Z 36010KT 10SM FEW009 BKN039 OVC060 11/06 A3014 RMK AO2 SLP215 T01060061 $=
201311101853 METAR KSEA 101853Z 01010KT 10SM FEW004 BKN037 OVC044 11/07 A3015 RMK AO2 SLP217 T01060067 $=
201311101753 METAR KSEA 101753Z 01010KT 10SM FEW004 OVC039 10/06 A3014 RMK AO2 SLP213 T01000061 10100 20083 51007 $=
201311101653 METAR KSEA 101653Z 35010KT 10SM FEW004 OVC041 09/06 A3014 RMK AO2 SLP213 T00890061 $=
201311101553 METAR KSEA 101553Z 36008KT 10SM FEW008 OVC045 09/06 A3013 RMK AO2 SLP209 T00890061 $=
201311101453 METAR KSEA 101453Z 36006KT 10SM FEW003 OVC050 09/06 A3012 RMK AO2 SLP206 T00890056 53008 $=
201311101353 METAR KSEA 101353Z 36009KT 10SM FEW003 OVC055 08/06 A3010 RMK AO2 SLP200 T00830056 $=
201311101253 METAR KSEA 101253Z 36006KT 10SM FEW005 OVC060 09/06 A3010 RMK AO2 SLP199 T00890061 $=
201311101153 METAR KSEA 101153Z 01008KT 10SM FEW005 OVC060 09/06 A3009 RMK AO2 SLP198 60001 70007 T00890061 10094 20089 58003 $=
201311101053 METAR KSEA 101053Z 34005KT 10SM FEW005 OVC060 09/06 A3010 RMK AO2 SLP200 T00890061 $=
201311100953 METAR KSEA 100953Z 35006KT 10SM FEW005 OVC060 09/06 A3010 RMK AO2 RAE28 SLP200 P0000 T00890061 $=
201311100853 METAR KSEA 100853Z 00000KT 10SM -RA FEW005 OVC050 09/07 A3010 RMK AO2 RAE32B50 SLP201 P0000 60001 T00890067 56005 $=
201311100753 METAR KSEA 100753Z 01003KT 10SM -RA FEW005 SCT050 OVC070 09/06 A3010 RMK AO2 SLP201 P0000 T00890061 401110050 $=
201311100653 METAR KSEA 100653Z 36006KT 5SM -RA BR FEW005 BKN050 OVC070 09/07 A3011 RMK AO2 SLP202 P0001 T00890067 $=
201311100553 METAR KSEA 100553Z 00000KT 4SM -RA SCT002 BKN047 OVC055 09/07 A3012 RMK AO2 SLP206 P0001 60006 T00940067 10100 20089 53004 $=
201311100453 METAR KSEA 100453Z 35004KT 3SM -RA BKN002 OVC070 09/07 A3011 RMK AO2 SLP202 P0000 T00940067 $=
201311100445 SPECI KSEA 100445Z 36004KT 9SM -RA BKN002 OVC070 09/07 A3010 RMK AO2 P0000 $=
201311100434 SPECI KSEA 100434Z 36006KT 8SM -RA SCT002 OVC070 09/07 A3010 RMK AO2 P0000 $=
201311100353 METAR KSEA 100353Z 02006KT 10SM -RA SCT046 OVC075 09/07 A3010 RMK AO2 SLP201 P0001 T00940067 $=
201311100253 METAR KSEA 100253Z 04007KT 10SM -RA SCT045 OVC050 09/07 A3011 RMK AO2 SLP203 P0001 60004 T00940067 50002 $=
201311100153 METAR KSEA 100153Z 03006KT 10SM -RA BKN040 OVC080 09/06 A3011 RMK AO2 SLP205 P0002 T00940061 $=
201311100053 METAR KSEA 100053Z 00000KT 7SM -RA BKN042 OVC080 09/07 A3011 RMK AO2 SLP205 P0001 T00940067 $=
201311092353 METAR KSEA 092353Z 32003KT 10SM -RA BKN050 OVC100 10/06 A3010 RMK AO2 RAE00B29 SLP200 P0000 60000 T01000061 10111 20089 53004 $=
201311092253 METAR KSEA 092253Z 00000KT 10SM -RA BKN060 OVC080 10/06 A3009 RMK AO2 RAB47 SLP198 P0000 T01000056 $=
201311092153 METAR KSEA 092153Z 26004KT 10SM FEW060 BKN085 OVC100 10/06 A3009 RMK AO2 SLP195 T01000056 $=
201311092053 METAR KSEA 092053Z 00000KT 10SM FEW007 BKN110 11/06 A3009 RMK AO2 SLP196 T01060061 58007 $=
201311091958 SPECI KSEA 091958Z 00000KT 10SM SCT007 OVC110 11/06 A3010 RMK AO2 $=
201311091953 METAR KSEA 091953Z 00000KT 10SM BKN007 BKN110 10/06 A3010 RMK AO2 SLP202 T01000056 $=
201311091918 SPECI KSEA 091918Z 00000KT 10SM SCT007 OVC110 09/06 A3011 RMK AO2 $=
201311091853 METAR KSEA 091853Z 00000KT 9SM BKN005 OVC120 09/06 A3012 RMK AO2 SLP206 T00890056 $=
201311091822 SPECI KSEA 091822Z 36003KT 8SM OVC005 08/06 A3012 RMK AO2 $=
201311091807 SPECI KSEA 091807Z 02005KT 7SM OVC003 08/06 A3011 RMK AO2 $=
201311091756 SPECI KSEA 091756Z 35007KT 3/4SM BR OVC003 08/06 A3011 RMK AO2 SFC VIS 4 $=
201311091753 METAR KSEA 091753Z 34004KT 4SM BR OVC003 08/06 A3011 RMK AO2 SLP203 T00780056 10083 20050 55003 $=
201311091751 SPECI KSEA 091751Z 34004KT 4SM BR OVC003 08/06 A3011 RMK AO2 $=
201311091733 SPECI KSEA 091733Z 34005KT 1/2SM R16L/1000VP6000FT FG BKN001 08/06 A3011 RMK AO2 $=
201311091710 SPECI KSEA 091710Z 00000KT 1/2SM R16L/0800V1000FT FG BKN001 08/06 A3011 RMK AO2 $=
201311091659 SPECI KSEA 091659Z 00000KT 1/2SM R16L/1000V3500FT FG VV001 08/05 A3010 RMK AO2 $=
201311091653 METAR KSEA 091653Z 36003KT 1/2SM R16L/1600V2200FT FG BKN002 08/05 A3010 RMK AO2 SLP201 T00780050 $=
201311091615 SPECI KSEA 091615Z 05005KT 1/2SM R16L/1800V6000FT FG BKN002 BKN160 07/05 A3010 RMK AO2 $=
201311091608 SPECI KSEA 091608Z 06004KT 1/2SM R16L/1600V2200FT FG BKN002 BKN160 07/05 A3010 RMK AO2 $=
201311091553 METAR KSEA 091553Z 03004KT 3/4SM R16L/P6000FT BCFG BKN002 BKN160 07/04 A3011 RMK AO2 SLP205 T00720039 $=
201311091547 SPECI KSEA 091547Z 04004KT 3/4SM R16L/P6000FT BCFG BKN002 BKN160 07/04 A3012 RMK AO2 $=
201311091529 SPECI KSEA 091529Z 00000KT 10SM FEW004 BKN160 07/03 A3012 RMK AO2 $=
201311091453 METAR KSEA 091453Z 36003KT 10SM BKN170 06/02 A3012 RMK AO2 SLP207 T00560022 55006 $=
201311091353 METAR KSEA 091353Z 14003KT 10SM BKN170 06/03 A3012=
201311091253 METAR KSEA 091253Z 00000KT 10SM FEW120 06/03 A3013 RMK AO2 SLP209 T00610028 $=
201311091153 METAR KSEA 091153Z 13004KT 10SM FEW120 07/04 A3014 RMK AO2 SLP213 T00720039 10089 20061 56005 $=
201311091053 METAR KSEA 091053Z 00000KT 10SM FEW080 SCT120 07/03 A3014 RMK AO2 SLP213 T00670028 $=
201311090953 METAR KSEA 090953Z 09004KT 10SM FEW040 BKN080 08/04 A3014 RMK AO2 SLP213 T00830039 $=
201311090853 METAR KSEA 090853Z 12004KT 10SM FEW020 BKN040 08/04 A3015 RMK AO2 SLP217 T00830039 58005 $=
201311090753 METAR KSEA 090753Z 13004KT 10SM FEW020 SCT030 BKN120 09/04 A3016=
201311090653 METAR KSEA 090653Z 16005KT 10SM SCT020 SCT090 08/04 A3017 RMK AO2 SLP222 T00780044 $=
201311090553 METAR KSEA 090553Z 16007KT 10SM FEW035 SCT090 08/04 A3017 RMK AO2 SLP223 T00830044 10122 20078 51006 $=
201311090453 METAR KSEA 090453Z 18005KT 10SM SCT028 BKN035 BKN090 09/05 A3017 RMK AO2 SLP223 T00940050 $=
201311090353 METAR KSEA 090353Z 17006KT 10SM FEW028 BKN044 BKN090 09/05 A3015 RMK AO2 SLP218 T00940050 $=
201311090253 METAR KSEA 090253Z 18005KT 10SM SCT044 BKN080 09/04 A3015 RMK AO2 SLP216 T00940044 51004 $=
201311090153 METAR KSEA 090153Z 16004KT 10SM FEW046 SCT080 BKN220 11/05 A3014 RMK AO2 SLP215 T01060050 $=
201311090053 METAR KSEA 090053Z 21006KT 10SM FEW040 SCT140 BKN220 11/05 A3014 RMK AO2 SLP214 T01110050 $=
201311082353 METAR KSEA 082353Z 21007KT 10SM FEW035 SCT050 BKN140 12/06 A3013 RMK AO2 SLP211 T01220056 10133 20106 53000=
201311082253 METAR KSEA 082253Z 21011G15KT 10SM SCT035 BKN049 BKN140 13/05 A3013 RMK AO2 SLP211 T01280050=
201311082153 METAR KSEA 082153Z 21007KT 10SM BKN031 BKN038 12/06 A3013 RMK AO2 SLP209 T01220056=
201311082133 SPECI KSEA 082133Z 21008KT 10SM FEW025 BKN032 12/06 A3014 RMK AO2=
201311082053 METAR KSEA 082053Z 21008KT 10SM BKN025 BKN030 12/06 A3013 RMK AO2 SLP210 T01170056 58005=
201311081953 METAR KSEA 081953Z 20010KT 10SM BKN020 OVC028 11/06 A3014 RMK AO2 SLP213 T01110056=
201311081853 METAR KSEA 081853Z 20009KT 10SM BKN017 BKN200 11/06 A3014 RMK AO2 SLP214 T01110061=
201311081839 SPECI KSEA 081839Z 20010KT 10SM BKN016 BKN140 11/06 A3015 RMK AO2=
201311081753 METAR KSEA 081753Z 20008KT 10SM BKN014 BKN140 11/06 A3015 RMK AO2 SLP216 T01060061 10106 20100 51019=
201311081746 SPECI KSEA 081746Z 20009KT 10SM BKN013 BKN140 11/06 A3015 RMK AO2=
201311081653 METAR KSEA 081653Z 21007KT 10SM BKN016 BKN140 BKN200 11/06 A3014 RMK AO2 SLP212 T01060061=
201311081620 SPECI KSEA 081620Z 23007KT 10SM BKN019 BKN140 BKN200 11/06 A3013 RMK AO2=
201311081553 METAR KSEA 081553Z 22011KT 10SM SCT020 BKN140 BKN200 11/06 A3012 RMK AO2 SLP205 T01060056=
201311081453 METAR KSEA 081453Z 21008KT 10SM BKN020 BKN130 OVC200 10/06 A3009 RMK AO2 SLP197 T01000061 51012=
201311081353 METAR KSEA 081353Z 21010KT 10SM BKN020 OVC130 10/06 A3008 RMK AO2 SLP195 T01000056=
201311081253 METAR KSEA 081253Z 20008KT 10SM OVC018 10/06 A3007=
201311081153 METAR KSEA 081153Z 20008KT 10SM OVC020 10/06 A3006 RMK AO2 SLP186 70111 T01000056 10111 20100 51018=
201311081053 METAR KSEA 081053Z 19010KT 10SM OVC020 11/06 A3005 RMK AO2 SLP182 T01060056=
201311080953 METAR KSEA 080953Z 20013G19KT 10SM BKN020 11/06 A3002 RMK AO2 SLP174 T01060056=
201311080853 METAR KSEA 080853Z 21012G20KT 10SM OVC016 11/06 A3000 RMK AO2 SLP167 T01060061 53014=
201311080753 METAR KSEA 080753Z 23018G26KT 10SM OVC018 11/06 A2999 RMK AO2 PK WND 22027/0743 SLP161 T01060061 401110100=
201311080653 METAR KSEA 080653Z 21015KT 10SM OVC016 11/06 A2997 RMK AO2 SLP156 T01060061=
201311080615 SPECI KSEA 080615Z 21014G23KT 10SM OVC016 11/07 A2997 RMK AO2=
201311080553 METAR KSEA 080553Z 21017G21KT 10SM OVC014 11/07 A2996 RMK AO2 RAB0454E40 SLP153 P0001 60009 T01110067 10111 20100 51049=
201311080453 METAR KSEA 080453Z 24009G17KT 8SM OVC012 11/07 A2993 RMK AO2 SLP142 T01060072=
201311080353 METAR KSEA 080353Z 23014G23KT 10SM OVC010 11/07 A2988 RMK AO2 PK WND 21029/0312 PRESRR SLP125 T01110067=
201311080253 METAR KSEA 080253Z 21022G26KT 10SM OVC010 11/08 A2982 RMK AO2 PK WND 22028/0235 RAE13DZB18E49 SLP103 P0000 60008 T01110078 53022=
201311080222 SPECI KSEA 080222Z 21019G25KT 10SM -DZ OVC010 11/08 A2979 RMK AO2 RAE13DZB18 P0000=
201311080153 METAR KSEA 080153Z 20017G28KT 7SM -RA OVC008 11/08 A2977 RMK AO2 PK WND 19032/0129 RAB03 SLP089 P0004 T01060078=
201311080110 SPECI KSEA 080110Z 19020G28KT 3SM -RA BKN008 OVC013 11/07 A2975 RMK AO2 PK WND 20028/0106 RAB03 P0001=
201311080104 SPECI KSEA 080104Z 18017G24KT 3SM -RA BKN010 OVC015 11/07 A2975 RMK AO2 RAB03 P0001=
201311080053 METAR KSEA 080053Z 17019G28KT 4SM HZ OVC012 11/07 A2974 RMK AO2 PK WND 16029/0036 RAE53 SLP077 P0004 T01060067=
201311072353 METAR KSEA 072353Z 17016G27KT 6SM -RA SCT016 BKN024 OVC031 10/07 A2975 RMK AO2 PK WND 17027/2345 SLP082 P0002 60022 T01000067 10111 20100 58011=
201311072337 SPECI KSEA 072337Z 18018G23KT 10SM -RA SCT016 BKN024 OVC038 10/07 A2976 RMK AO2 P0001=
201311072319 SPECI KSEA 072319Z 18018G25KT 10SM -RA FEW016 SCT028 OVC039 10/07 A2976 RMK AO2 P0000=
201311072253 METAR KSEA 072253Z 17017KT 7SM -RA SCT014 BKN025 OVC039 10/07 A2977 RMK AO2 PK WND 19026/2203 SLP087 P0009 T01000067=
201311072153 METAR KSEA 072153Z 21023G32KT 3SM +RA FEW015 OVC023 11/07 A2978 RMK AO2 PK WND 22032/2152 RAB2059 SLP090 P0008 T01060067=
201311072143 SPECI KSEA 072143Z 17017G24KT 3SM RA FEW015 OVC027 11/07 A2978 RMK AO2 PK WND 17028/2119 RAB2059 P0005=
201311072053 METAR KSEA 072053Z 17017G23KT 10SM FEW012 BKN050 OVC100 11/06 A2979 RMK AO2 SLP093 60003 T01110061 58007=
201311072040 SPECI KSEA 072040Z 17014G25KT 10SM FEW012 SCT025 OVC090 11/06 A2979 RMK AO2=
201311071953 METAR KSEA 071953Z 17014G22KT 10SM BKN024 OVC035 11/06 A2981 RMK AO2 SLP102 T01060061=
201311071923 SPECI KSEA 071923Z 16015G21KT 10SM FEW011 BKN020 OVC042 11/07 A2983 RMK AO2=
201311071853 METAR KSEA 071853Z 17012G23KT 10SM FEW010 BKN031 10/07 A2983 RMK AO2 PK WND 20026/1805 RAE38 SLP107 P0003 T01000067=
201311071842 SPECI KSEA 071842Z 18013G22KT 10SM SCT011 OVC032 10/07 A2982 RMK AO2 PK WND 20026/1805 RAE38 P0003=
201311071753 METAR KSEA 071753Z 19014KT 8SM RA SCT007 OVC012 11/08 A2981 RMK AO2 SLP100 P0007 60080 T01060078 10111 20100 50021=
201311071747 SPECI KSEA 071747Z 19014G19KT 7SM RA FEW008 BKN012 OVC018 11/08 A2981 RMK AO2 P0006=
201311071713 SPECI KSEA 071713Z 21017G23KT 8SM -RA FEW010 BKN014 OVC060 11/08 A2979 RMK AO2 P0003=
201311071653 METAR KSEA 071653Z 21011KT 7SM RA SCT011 BKN020 OVC039 11/08 A2978 RMK AO2 PK WND 24032/1612 WSHFT 1600 SLP089 P0022 T01110083=
201311071624 SPECI KSEA 071624Z 23010G19KT 4SM R16L/6000VP6000FT RA FEW014 BKN024 OVC038 11/08 A2977 RMK AO2 PK WND 24032/1612 WSHFT 1600 P0017=
201311071615 SPECI KSEA 071615Z 24020G32KT 1 1/2SM +RA FEW009 OVC022 11/07 A2979 RMK AO2 PK WND 24032/1612 WSHFT 1600 TWR VIS 2 PRESRR P0003=
201311071614 SPECI KSEA 071614Z 24020G32KT 3SM RA FEW009 OVC032 11/08 A2979 RMK AO2 PK WND 24032/1612 WSHFT 1600 PRESRR P0001=
201311071553 METAR KSEA 071553Z 13011KT 5SM -RA FEW021 BKN030 OVC055 11/08 A2974 RMK AO2 SLP078 P0001 T01060078=
201311071545 SPECI KSEA 071545Z 12011KT 6SM -RA FEW018 BKN030 OVC055 11/08 A2975 RMK AO2 P0001=
201311071512 SPECI KSEA 071512Z 14007KT 10SM -RA FEW014 BKN028 OVC060 11/08 A2977 RMK AO2 P0000=
201311071453 METAR KSEA 071453Z 12011KT 9SM -RA SCT014 BKN037 OVC060 11/08 A2979 RMK AO2 SLP095 P0009 60050 T01060078 58034=
201311071419 SPECI KSEA 071419Z 13008KT 7SM RA FEW008 BKN014 OVC065 10/08 A2981 RMK AO2 P0003=
201311071353 METAR KSEA 071353Z 11011KT 6SM RA BR SCT010 BKN019 OVC025 10/08 A2984 RMK AO2 SLP110 P0026 T01000078=
201311071326 SPECI KSEA 071326Z 12010KT 4SM RA BR BKN008 BKN013 OVC033 10/08 A2986 RMK AO2 P0018=
201311071319 SPECI KSEA 071319Z 13010KT 3SM +RA BR SCT008 BKN013 OVC022 10/08 A2986 RMK AO2 P0013=
201311071253 METAR KSEA 071253Z 14009KT 4SM +RA SCT019 OVC024 10/07 A2987 RMK AO2 SLP122 P0015 T01000072=
201311071200 SPECI KSEA 071200Z 13008KT 10SM -RA BKN028 OVC070 11/07 A2989 RMK AO2 P0001=
201311071153 METAR KSEA 071153Z 12009KT 10SM -RA SCT028 OVC070 11/07 A2989 RMK AO2 RAB02 SLP128 P0000 60016 70022 T01060072 10106 20100 56038=
201311071053 METAR KSEA 071053Z 15007KT 10SM BKN075 BKN095 OVC110 11/07 A2992 RMK AO2 RAE48 SLP138 P0001 T01060072=
201311070953 METAR KSEA 070953Z 14010KT 10SM -RA FEW032 BKN055 OVC075 11/07 A2997 RMK AO2 SLP155 P0002 T01060072=
201311070930 SPECI KSEA 070930Z 13010KT 10SM -RA SCT023 BKN032 OVC075 10/07 A2998 RMK AO2 P0002=
201311070853 METAR KSEA 070853Z 14010KT 9SM -RA BKN027 BKN031 OVC065 10/07 A3000 RMK AO2 SLP167 P0005 60013 T01000072 56036=
201311070753 METAR KSEA 070753Z 14012KT 10SM -RA OVC025 10/07 A3003 RMK AO2 SLP178 P0005 T01000072 401280078=
201311070653 METAR KSEA 070653Z 14009KT 8SM -RA BKN025 OVC042 10/07 A3007 RMK AO2 SLP191 P0003 T01000067=
201311070553 METAR KSEA 070553Z 15005KT 10SM -RA OVC027 10/06 A3011 RMK AO2 SLP204 P0001 60006 T01000061 10117 20100 56026=
201311070453 METAR KSEA 070453Z 09007KT 10SM -RA OVC029 11/06 A3013 RMK AO2 RAB03E14B30 SLP211 P0000 T01110061=
201311070441 SPECI KSEA 070441Z 10007KT 10SM -RA OVC029 11/06 A3014 RMK AO2 RAB03E14B30 P0000=
201311070353 METAR KSEA 070353Z 09007KT 10SM OVC039 11/07 A3016 RMK AO2 RAE43 SLP221 P0002 T01110067=
201311070253 METAR KSEA 070253Z 00000KT 9SM -RA BKN050 OVC075 11/08 A3019=
201311070153 METAR KSEA 070153Z 00000KT 10SM -RA OVC065 11/07 A3020 RMK AO2 RAB0055 SLP234 P0002 T01060072=
201311070053 METAR KSEA 070053Z 00000KT 10SM SCT039 BKN048 OVC085 11/06 A3021 RMK AO2 SLP237 T01110061=
201311062353 METAR KSEA 062353Z 01004KT 10SM SCT040 BKN100 OVC200 12/06 A3023 RMK AO2 SLP245 T01170056 10128 20100 56017=
201311062253 METAR KSEA 062253Z 01005KT 10SM FEW020 BKN090 BKN220 12/06 A3025 RMK AO2 SLP250 T01220056=
201311062153 METAR KSEA 062153Z 36005KT 10SM FEW015 BKN110 OVC150 12/06 A3026 RMK AO2 SLP253 T01220056=
201311062053 METAR KSEA 062053Z 00000KT 10SM FEW009 BKN090 BKN120 12/06 A3028 RMK AO2 SLP262 T01170056 58012=
201311061953 METAR KSEA 061953Z 01003KT 10SM FEW008 OVC090 11/06 A3031 RMK AO2 SLP270 T01110061=
201311061853 METAR KSEA 061853Z 01003KT 10SM SCT006 OVC085 11/06 A3032 RMK AO2 SLP276 T01060061=
201311061753 METAR KSEA 061753Z 03004KT 10SM FEW006 BKN100 OVC180 10/06 A3032 RMK AO2 SLP274 T01000061 10100 20078 50005=
201311061653 METAR KSEA 061653Z 33003KT 8SM FEW008 OVC110 10/06 A3032 RMK AO2 SLP275 T01000061=
201311061615 SPECI KSEA 061615Z 03003KT 8SM FEW006 SCT015 OVC110 09/06 A3032 RMK AO2=
201311061553 METAR KSEA 061553Z 00000KT 8SM FEW008 BKN015 OVC130 09/06 A3032 RMK AO2 SLP274 T00890061=
201311061524 SPECI KSEA 061524Z 00000KT 7SM FEW007 SCT013 OVC130 08/06 A3031 RMK AO2=
201311061453 METAR KSEA 061453Z 00000KT 9SM BKN013 OVC130 08/06 A3030 RMK AO2 SLP269 T00830056 53007=
201311061353 METAR KSEA 061353Z 17004KT 10SM SCT016 BKN130 08/06 A3029 RMK AO2 SLP266 T00830056=
201311061332 SPECI KSEA 061332Z 15004KT 10SM SCT016 08/06 A3029 RMK AO2=
201311061253 METAR KSEA 061253Z 00000KT 10SM SCT016 BKN021 09/06 A3029 RMK AO2 SLP265 T00890061=
201311061205 SPECI KSEA 061205Z 14004KT 10SM BKN016 BKN021 09/06 A3028 RMK AO2=
201311061153 METAR KSEA 061153Z 13003KT 10SM OVC014 09/06 A3028 RMK AO2 SLP261 70006 T00940061 10100 20078 51006=
201311061053 METAR KSEA 061053Z 00000KT 10SM OVC013 09/06 A3028 RMK AO2 SLP259 T00890061=
201311061032 SPECI KSEA 061032Z 00000KT 10SM OVC011 09/06 A3028 RMK AO2=
201311061008 SPECI KSEA 061008Z 00000KT 10SM BKN009 08/06 A3028 RMK AO2=
201311060953 METAR KSEA 060953Z 00000KT 10SM FEW020 SCT230 08/05 A3027 RMK AO2 SLP258 T00780050=
201311060853 METAR KSEA 060853Z 16006KT 10SM FEW050 SCT230 08/05 A3026 RMK AO2 SLP256 T00830050 51008=
201311060753 METAR KSEA 060753Z 00000KT 10SM SCT015 BKN040 BKN230 09/05 A3026 RMK AO2 SLP253 T00890050 401330072=
201311060653 METAR KSEA 060653Z 00000KT 10SM OVC017 09/05 A3025 RMK AO2 SLP251 T00890050=
201311060553 METAR KSEA 060553Z 00000KT 10SM FEW022 SCT027 BKN055 09/04 A3024 RMK AO2 SLP247 T00940044 10122 20089 53015=
201311060453 METAR KSEA 060453Z 00000KT 10SM SCT065 10/04 A3022 RMK AO2 SLP241 T01000044=
201311060353 METAR KSEA 060353Z 23003KT 10SM FEW045 BKN070 11/05 A3021 RMK AO2 SLP237 T01060050=
201311060253 METAR KSEA 060253Z 22005KT 10SM FEW024 SCT044 BKN070 11/05 A3019 RMK AO2 SLP232 T01110050 53021=
201311060153 METAR KSEA 060153Z 23009KT 10SM SCT024 BKN050 BKN250 12/05 A3017 RMK AO2 SLP223 T01170050=
201311060053 METAR KSEA 060053Z 22010KT 10SM FEW027 BKN048 BKN250 12/06 A3015 RMK AO2 SLP216 T01220056=
201311052353 METAR KSEA 052353Z 23005KT 10SM FEW025 SCT031 BKN050 BKN250 12/06 A3013 RMK AO2 SLP210 T01220061 10133 20111 53019=
201311052253 METAR KSEA 052253Z 22012KT 10SM FEW032 SCT055 BKN250 13/06 A3011 RMK AO2 SLP203 T01280056=
201311052153 METAR KSEA 052153Z 21011G20KT 10SM FEW011 SCT024 BKN048 BKN250 13/07 A3009 RMK AO2 SLP196 T01280072=
201311052053 METAR KSEA 052053Z 20013G21KT 10SM FEW011 SCT046 BKN120 BKN250 13/07 A3007 RMK AO2 SLP191 T01280072 51006=
201311051953 METAR KSEA 051953Z 20014KT 10SM FEW009 BKN046 12/08 A3007 RMK AO2 SLP190 T01220078=
201311051931 SPECI KSEA 051931Z 21014G20KT 10SM SCT009 BKN044 12/08 A3007 RMK AO2=
201311051853 METAR KSEA 051853Z 21010KT 10SM BKN007 OVC013 12/09 A3007 RMK AO2 SLP191 T01220089=
201311051756 SPECI KSEA 051756Z 21012KT 7SM OVC004 11/09 A3006 RMK AO2=
201311051753 METAR KSEA 051753Z 20009KT 1/2SM BR OVC003 11/09 A3006 RMK AO2 SFC VIS 6 RAE37 SLP185 P0002 60006 T01110089 10111 20083 50008=
201311051723 SPECI KSEA 051723Z 19010KT 1/2SM R16L/P6000FT -RA BR OVC003 11/08 A3005 RMK AO2 SFC VIS 1 P0001=
201311051705 SPECI KSEA 051705Z 18010KT 2SM -RA BR BKN005 OVC012 10/08 A3006 RMK AO2 P0001=
201311051653 METAR KSEA 051653Z 18007KT 2SM -RA BR FEW009 OVC014 10/08 A3006 RMK AO2 RAB10 SLP185 P0002 T01000078=
201311051647 SPECI KSEA 051647Z 18007KT 2SM -RA BR FEW009 OVC014 10/08 A3005 RMK AO2 RAB10 P0002=
201311051627 SPECI KSEA 051627Z 18004KT 1 1/2SM R16L/6000VP6000FT -RA FEW011 OVC017 10/07 A3005 RMK AO2 TWR VIS 2 RAB10 P0000=
201311051553 METAR KSEA 051553Z 17005KT 6SM HZ FEW010 OVC018 09/07 A3004 RMK AO2 RAB22E43 SLP181 P0002 T00940067=
201311051530 SPECI KSEA 051530Z 15006KT 2SM -RA FEW011 OVC016 09/06 A3004 RMK AO2 SFC VIS 2 1/2 RAB22 P0001=
201311051453 METAR KSEA 051453Z 12003KT 10SM OVC016 09/06 A3003 RMK AO2 SLP176 T00890056 55005=
201311051353 METAR KSEA 051353Z 13003KT 10SM OVC018 08/06 A3002 RMK AO2 SLP173 T00830056 $=
201311051253 METAR KSEA 051253Z 12006KT 10SM OVC018 08/06 A3003 RMK AO2 SLP176 T00830056 $=
201311051153 METAR KSEA 051153Z 12006KT 7SM FEW005 OVC018 08/06 A3004 RMK AO2 RAE32 SLP181 P0000 60004 70004 T00830056 10089 20072 53000 $=
201311051129 SPECI KSEA 051129Z 11008KT 7SM -RA FEW005 OVC018 08/06 A3004 RMK AO2 P0000 $=
201311051053 METAR KSEA 051053Z 11007KT 2SM -RA BR OVC018 08/05 A3004 RMK AO2 SLP178 P0002 T00780050 $=
201311050953 METAR KSEA 050953Z 11003KT 2SM -RA BR SCT019 OVC024 08/04 A3004 RMK AO2 SLP179 P0002 T00780044 $=
201311050943 SPECI KSEA 050943Z 15003KT 2SM -RA BR FEW018 OVC024 07/04 A3004 RMK AO2 P0001 $=
201311050853 METAR KSEA 050853Z 15005KT 7SM -RA OVC028 08/03 A3004 RMK AO2 RAB51 SLP181 P0000 60000 T00830033 56019 $=
201311050843 SPECI KSEA 050843Z 14007KT 7SM OVC028 08/03 A3004 RMK AO2 $=
201311050753 METAR KSEA 050753Z 11008KT 10SM OVC033 08/03 A3005 RMK AO2 RAB09E28 SLP183 P0000 T00830028 401060039 $=
201311050653 METAR KSEA 050653Z 11006KT 10SM OVC050 08/03 A3008 RMK AO2 RAB15E31 SLP192 P0000 T00830028 $=
201311050553 METAR KSEA 050553Z 13006KT 10SM FEW028 OVC048 09/02 A3010 RMK AO2 RAE25 SLP200 P0000 60000 T00890022 10100 20083 57006 $=
201311050515 SPECI KSEA 050515Z 13007KT 10SM -RA FEW026 OVC050 09/02 A3010 RMK AO2 P0000 $=
201311050453 METAR KSEA 050453Z 14005KT 10SM -RA BKN028 OVC055 09/02 A3011 RMK AO2 RAB25 SLP202 P0000 T00890022 $=
201311050430 SPECI KSEA 050430Z 12005KT 10SM -RA BKN028 OVC050 09/02 A3011 RMK AO2 RAB25 P0000 $=
201311050353 METAR KSEA 050353Z 11004KT 10SM FEW032 OVC070 09/01 A3011 RMK AO2 SLP205 T00940011 $=
201311050253 METAR KSEA 050253Z 11004KT 10SM OVC036 10/02 A3012 RMK AO2 SLP208 T01000017 58010 $=
201311050153 METAR KSEA 050153Z 00000KT 10SM BKN042 OVC049 10/01 A3015 RMK AO2 SLP217 T01000011 $=
201311050053 METAR KSEA 050053Z 03003KT 10SM BKN050 OVC100 10/01 A3014 RMK AO2 SLP216 T01000011 $=
201311042353 METAR KSEA 042353Z 36004KT 10SM SCT060 BKN110 OVC160 10/01 A3015 RMK AO2 SLP218 T01000011 10106 20078 55005 $=
201311042253 METAR KSEA 042253Z 00000KT 10SM FEW028 SCT120 BKN180 10/01 A3015 RMK AO2 SLP217 T01000006 $=
201311042153 METAR KSEA 042153Z 27003KT 10SM FEW028 BKN180 10/02 A3015 RMK AO2 SLP218 T01000017 $=
201311042053 METAR KSEA 042053Z 21003KT 10SM FEW025 BKN200 10/02 A3017 RMK AO2 SLP222 T01000017 58007 $=
201311041953 METAR KSEA 041953Z 22004KT 10SM SCT018 BKN200 09/02 A3018 RMK AO2 SLP228 T00940022 $=
201311041853 METAR KSEA 041853Z 00000KT 10SM SCT011 BKN200 09/03 A3019 RMK AO2 SLP231 T00890033=
201311041753 METAR KSEA 041753Z 00000KT 9SM SCT007 SCT200 08/03 A3019 RMK AO2 SLP229 T00830033 10083 20039 51006=
201311041653 METAR KSEA 041653Z 00000KT 9SM SCT006 SCT200 07/03 A3018 RMK AO2 SLP228 T00720033=
201311041628 SPECI KSEA 041628Z 00000KT 8SM SCT006 SCT020 SCT200 07/04 A3018 RMK AO2=
201311041553 METAR KSEA 041553Z 00000KT 10SM BKN006 BKN060 BKN200 06/03 A3017 RMK AO2 SLP226 T00560028=
201311041453 METAR KSEA 041453Z 14004KT 9SM BKN006 OVC024 04/02 A3017 RMK AO2 SLP224 T00440017 51011 $=
201311041413 SPECI KSEA 041413Z 12005KT 10SM SCT006 BKN060 04/02 A3016 RMK AO2 $=
201311041353 METAR KSEA 041353Z 00000KT 10SM FEW060 04/02 A3016 RMK AO2 SLP222 T00440022 $=
201311041253 METAR KSEA 041253Z 11004KT 10SM SCT055 05/02 A3016 RMK AO2 SLP220 T00500022 $=
201311041153 METAR KSEA 041153Z 12005KT 10SM BKN055 05/02 A3013 RMK AO2 SLP211 60002 70002 T00500017 10083 20044 51006 $=
201311041053 METAR KSEA 041053Z 13003KT 10SM SCT060 06/02 A3013 RMK AO2 RAE0954 SLP210 T00560022 $=
201311040953 METAR KSEA 040953Z 13004KT 7SM -RA FEW040 OVC055 06/03 A3012 RMK AO2 RAB43 SLP208 P0000 T00610028 $=
201311040853 METAR KSEA 040853Z 13005KT 10SM BKN050 OVC075 07/03 A3012 RMK AO2 SLP205 60002 T00670033 53003 $=
201311040753 METAR KSEA 040753Z 13003KT 10SM BKN055 OVC075 07/03 A3011 RMK AO2 RAB0655E05 SLP202 P0000 T00720028 401220044 $=
201311040653 METAR KSEA 040653Z 13005KT 10SM SCT030 BKN060 OVC075 08/02 A3011 RMK AO2 RAE38 SLP204 P0002 T00780022 $=
201311040646 SPECI KSEA 040646Z 11003KT 10SM SCT030 BKN060 OVC075 08/02 A3011 RMK AO2 RAE38 P0002 $=
201311040617 SPECI KSEA 040617Z 01009KT 3SM -RA BKN022 OVC031 07/03 A3012 RMK AO2 P0000 PNO $=
201311040553 METAR KSEA 040553Z 12004KT 10SM -RA SCT033 BKN048 OVC065 08/03 A3011 RMK AO2 RAB49 SLP202 P0000 60000 T00830033 10111 20078 53009=
201311040453 METAR KSEA 040453Z 00000KT 10SM FEW047 BKN065 OVC085 08/02 A3009 RMK AO2 SLP198 T00830017=
201311040353 METAR KSEA 040353Z 12003KT 10SM SCT048 08/01 A3009 RMK AO2 SLP196 T00830011=
201311040253 METAR KSEA 040253Z 00000KT 10SM BKN042 OVC048 09/03 A3008 RMK AO2 SLP194 T00940028 53007=
201311040153 METAR KSEA 040153Z 04007KT 10SM FEW048 BKN080 09/02 A3006 RMK AO2 SLP188 T00890022=
201311040053 METAR KSEA 040053Z 03008KT 10SM BKN043 BKN090 09/02 A3006 RMK AO2 SLP187 SHRA W T00940017=
201311032353 METAR KSEA 032353Z 00000KT 10SM SCT035 BKN047 11/02 A3006 RMK AO2 SLP186 T01110017 10122 20089 50004=
201311032253 METAR KSEA 032253Z 31003KT 10SM FEW023 SCT048 BKN180 12/01 A3006 RMK AO2 SLP187 T01220011=
201311032153 METAR KSEA 032153Z 22005KT 10SM FEW023 SCT035 BKN180 11/02 A3005 RMK AO2 SLP183 T01110022=
201311032053 METAR KSEA 032053Z 27006KT 10SM FEW023 SCT029 BKN080 11/02 A3005 RMK AO2 SLP182 T01110022 58001=
201311031953 METAR KSEA 031953Z 22007KT 180V260 10SM FEW020 BKN025 BKN060 11/03 A3005 RMK AO2 SLP184 T01110033=
201311031853 METAR KSEA 031853Z VRB05KT 10SM SCT016 BKN029 BKN050 09/04 A3006 RMK AO2 SLP186 T00940039=
201311031753 METAR KSEA 031753Z 18006KT 10SM SCT013 BKN021 OVC050 09/05 A3005 RMK AO2 SLP183 T00940050 10094 20044 51009=
201311031653 METAR KSEA 031653Z 17004KT 10SM SCT013 BKN050 08/04 A3005 RMK AO2 SLP182 T00780044=
201311031553 METAR KSEA 031553Z 16005KT 10SM FEW011 BKN043 06/03 A3004 RMK AO2 SLP181 T00610033=
201311031453 METAR KSEA 031453Z 17005KT 10SM SCT011 BKN041 05/02 A3002 RMK AO2 SLP175 T00500022 51015=
201311031353 METAR KSEA 031353Z 14006KT 10SM FEW015 SCT080 06/03 A3001 RMK AO2 SLP169 T00610028=
201311031253 METAR KSEA 031253Z 15004KT 10SM FEW015 SCT070 06/03 A3000 RMK AO2 SLP166 T00610028=
201311031153 METAR KSEA 031153Z 17004KT 10SM FEW015 SCT065 06/03 A2998 RMK AO2 SLP158 70008 T00610028 10089 20061 51016=
201311031053 METAR KSEA 031053Z 19004KT 10SM FEW015 SCT065 08/04 A2996 RMK AO2 SLP154 T00780039=
201311030953 METAR KSEA 030953Z 18005KT 10SM SCT014 SCT060 08/04 A2996 RMK AO2 SLP151 T00830039=
201311030853 METAR KSEA 030853Z 23011KT 10SM SCT016 08/03 A2993 RMK AO2 SLP142 T00830033 53012=
201311030753 METAR KSEA 030753Z 21009KT 10SM FEW025 SCT060 08/03 A2991 RMK AO2 SLP134 T00830033 401440083=
201311030653 METAR KSEA 030653Z 22010KT 10SM FEW025 SCT060 09/03 A2989 RMK AO2 SLP130 T00890033=
201311030609 SPECI KSEA 030609Z 22005KT 10SM FEW021 BKN060 OVC080 09/03 A2989 RMK AO2=
201311030553 METAR KSEA 030553Z 22006KT 10SM BKN025 OVC075 09/03 A2989 RMK AO2 SLP130 T00890033 10117 20089 51019=
201311030453 METAR KSEA 030453Z 22007KT 10SM BKN023 OVC100 09/03 A2988 RMK AO2 SLP125 T00940033=
201311030353 METAR KSEA 030353Z 22009G17KT 10SM BKN025 09/03 A2986 RMK AO2 SLP116 T00940028=
201311030335 SPECI KSEA 030335Z 21011G17KT 10SM BKN025 09/03 A2986 RMK AO2=
201311030253 METAR KSEA 030253Z 22014G23KT 10SM FEW030 09/03 A2984 RMK AO2 PK WND 22028/0226 SLP109 T00940028 53012=
201311030153 METAR KSEA 030153Z 23019G27KT 10SM FEW030 BKN120 10/02 A2982 RMK AO2 PK WND 23031/0108 SLP103 T01000022=
201311030053 METAR KSEA 030053Z 24016G28KT 10SM FEW030 BKN120 11/03 A2980 RMK AO2 PK WND 21033/0023 SLP098 T01060028=
201311022353 METAR KSEA 022353Z 23016G33KT 10SM FEW030 BKN120 11/03 A2980 RMK AO2 PK WND 22033/2344 SLP097 T01110028 10122 20111 51037=
201311022253 METAR KSEA 022253Z 23020G35KT 10SM SCT030 BKN120 12/03 A2978 RMK AO2 PK WND 21035/2246 SLP090 T01220028=
201311022153 METAR KSEA 022153Z 23023G34KT 10SM SCT030 OVC120 12/04 A2973 RMK AO2 PK WND 23036/2130 SLP075 T01170039=
201311022053 METAR KSEA 022053Z 22024G33KT 10SM BKN030 OVC120 12/04 A2969 RMK AO2 PK WND 22046/1957 SLP060 T01170039 53032=
201311021953 METAR KSEA 021953Z 22028G41KT 10SM BKN026 OVC035 12/04 A2964 RMK AO2 PK WND 21051/1934 SLP042 T01170044=
201311021853 METAR KSEA 021853Z 21028G41KT 10SM BKN022 BKN026 OVC031 12/05 A2960 RMK AO2 PK WND 20041/1846 SLP029 T01170050=
201311021753 METAR KSEA 021753Z 20020G33KT 10SM BKN022 OVC031 12/06 A2959 RMK AO2 PK WND 21042/1659 RAB39E49 SLP027 P0000 60008 T01170056 10144 20117 51024=
201311021653 METAR KSEA 021653Z 20024G37KT 10SM OVC018 12/07 A2957 RMK AO2 PK WND 20037/1646 SLP020 T01170067=
201311021553 METAR KSEA 021553Z 20024G33KT 10SM FEW016 BKN023 OVC047 12/07 A2955 RMK AO2 PK WND 21035/1541 RAE26 SLP012 P0003 T01220072=
201311021521 SPECI KSEA 021521Z 22023G30KT 8SM -RA BKN016 OVC023 13/09 A2955 RMK AO2 PK WND 19034/1509 P0003 $=
201311021453 METAR KSEA 021453Z 19020G32KT 9SM RA FEW024 SCT031 OVC040 14/08 A2952 RMK AO2 PK WND 19032/1450 RAB1358 SLP002 P0001 60005 T01390083 56046 $=
201311021353 METAR KSEA 021353Z 17013KT 10SM BKN040 BKN048 OVC055 13/09 A2955 RMK AO2 RAB12E27 SLP011 P0000 T01330089 $=
201311021253 METAR KSEA 021253Z 12013KT 10SM SCT004 BKN030 OVC055 13/09 A2958 RMK AO2 RAE47 SLP021 P0004 T01280094 $=
201311021153 METAR KSEA 021153Z 14009KT 3SM -RA SCT004 BKN018 OVC037 12/09 A2966 RMK AO2 SLP049 FG BANK SW-NW P0007 60047 70047 T01220094 10139 20122 56040 $=
201311021114 SPECI KSEA 021114Z 16005KT 4SM RA SCT007 OVC028 12/09 A2969 RMK AO2 P0006 $=
201311021053 METAR KSEA 021053Z 17005KT 4SM -RA SCT007 OVC032 12/09 A2969 RMK AO2 SLP060 P0013 T01220094 $=
201311021024 SPECI KSEA 021024Z 24004KT 4SM -RA SCT007 OVC041 12/09 A2972 RMK AO2 P0007 $=
201311020953 METAR KSEA 020953Z 15007KT 4SM -RA SCT010 OVC041 13/09 A2973 RMK AO2 PRESFR SLP071 P0008 T01280094 $=
201311020853 METAR KSEA 020853Z 18005KT 3SM -RA BR SCT010 OVC050 13/10 A2978 RMK AO2 SLP090 P0015 60019 T01280100 58031 $=
201311020753 METAR KSEA 020753Z 16007KT 7SM RA FEW050 OVC070 13/09 A2983 RMK AO2 SLP106 P0004 T01330094 401780117 $=
201311020653 METAR KSEA 020653Z 26004KT 10SM -RA OVC070 13/09 A2986 RMK AO2 RAB48 SLP116 P0000 T01330089 $=
201311020553 METAR KSEA 020553Z 00000KT 10SM BKN075 OVC140 14/08 A2988 RMK AO2 SLP123 T01390083 10172 20122 56028 $=
201311020453 METAR KSEA 020453Z 16003KT 10SM BKN085 OVC140 13/08 A2989 RMK AO2 SLP129 T01330083 $=
201311020353 METAR KSEA 020353Z 00000KT 10SM SCT075 BKN100 BKN200 13/08 A2993 RMK AO2 SLP140 T01280078 $=
201311020253 METAR KSEA 020253Z 00000KT 10SM SCT130 BKN230 14/08 A2996 RMK AO2 SLP151 T01390083 56041 $=
201311020153 METAR KSEA 020153Z 00000KT 10SM FEW090 SCT140 BKN230 14/08 A3000=
201311020053 METAR KSEA 020053Z 00000KT 10SM FEW018 SCT090 BKN230 16/08 A3003 RMK AO2 SLP177 T01560083 $=
201311012353 METAR KSEA 012353Z 00000KT 10SM FEW018 BKN090 BKN230 17/08 A3008 RMK AO2 SLP192 T01670083 10178 20139 56028=
201311012253 METAR KSEA 012253Z 00000KT 10SM FEW018 BKN100 18/08 A3011 RMK AO2 SLP200 T01780078=
201311012153 METAR KSEA 012153Z 00000KT 10SM FEW015 BKN100 17/08 A3014 RMK AO2 SLP211 T01670083=
201311012053 METAR KSEA 012053Z 27005KT 10SM FEW015 BKN095 16/08 A3017 RMK AO2 SLP221 T01610083 58025=
201311011953 METAR KSEA 011953Z 00000KT 10SM FEW015 BKN100 16/08 A3019 RMK AO2 SLP230 ACSL DSNT SE T01610078=
201311011853 METAR KSEA 011853Z 16005KT 10SM FEW015 BKN100 15/08 A3022 RMK AO2 SLP239 T01500083=
201311011753 METAR KSEA 011753Z 00000KT 10SM FEW015 BKN100 14/08 A3024 RMK AO2 SLP247 T01390083 10139 20117 58008=
201311011653 METAR KSEA 011653Z 14006KT 10SM FEW020 BKN110 13/09 A3025 RMK AO2 SLP251 T01330089=
201311011553 METAR KSEA 011553Z 15003KT 10SM BKN033 BKN130 13/09 A3026 RMK AO2 SLP254 T01280089=
201311011505 SPECI KSEA 011505Z 14004KT 10SM SCT021 BKN130 12/09 A3027 RMK AO2=
201311011453 METAR KSEA 011453Z 16004KT 10SM BKN021 BKN140 12/09 A3027 RMK AO2 SLP256 T01220089 58004=
201311011353 METAR KSEA 011353Z 15005KT 10SM FEW006 BKN023 12/09 A3027 RMK AO2 SLP258 T01220089=
201311011311 SPECI KSEA 011311Z 15005KT 9SM FEW006 BKN015 12/09 A3027 RMK AO2=
201311011253 METAR KSEA 011253Z 16004KT 8SM BKN015 OVC030 12/09 A3028 RMK AO2 SLP259 T01220089=
201311011153 METAR KSEA 011153Z 18005KT 10SM FEW006 BKN019 OVC028 13/09 A3028 RMK AO2 SLP260 T01280094 10139 20128 50000=
201311011119 SPECI KSEA 011119Z 22005KT 10SM BKN004 OVC019 13/09 A3028 RMK AO2=
201311011053 METAR KSEA 011053Z 19006KT 10SM FEW004 OVC023 13/09 A3028 RMK AO2 SLP261 T01280094=
201311011036 SPECI KSEA 011036Z 20004KT 10SM FEW007 OVC023 13/10 A3028 RMK AO2=
201311010953 METAR KSEA 010953Z 22006KT 9SM BKN005 OVC023 13/09 A3028 RMK AO2 SLP260 T01280094=
201311010918 SPECI KSEA 010918Z 21006KT 9SM BKN005 OVC010 13/10 A3028 RMK AO2=
201311010853 METAR KSEA 010853Z 21004KT 7SM FEW004 OVC010 13/10 A3028 RMK AO2 SLP261 T01330100 53003=
201311010835 SPECI KSEA 010835Z 24004KT 7SM FEW004 OVC012 13/10 A3028 RMK AO2=
201311010807 SPECI KSEA 010807Z 21005KT 7SM BKN010 OVC014 13/10 A3028 RMK AO2=
201311010753 METAR KSEA 010753Z 21005KT 7SM SCT003 OVC015 13/10 A3027 RMK AO2 SLP258 T01330100 401440106=
201311010737 SPECI KSEA 010737Z 22003KT 5SM BR SCT003 SCT008 OVC015 13/10 A3027 RMK AO2=
201311010729 SPECI KSEA 010729Z 22003KT 4SM BR SCT003 BKN007 OVC013 13/10 A3027 RMK AO2=
201311010718 SPECI KSEA 010718Z 21003KT 7SM SCT003 BKN010 OVC015 13/11 A3027 RMK AO2=
201311010653 METAR KSEA 010653Z 16005KT 9SM FEW007 OVC015 13/10 A3026 RMK AO2 SLP252 T01330100=
201311010553 METAR KSEA 010553Z 14003KT 10SM OVC013 14/11 A3027 RMK AO2 SLP258 T01390106 10144 20133 53006=
201311010537 SPECI KSEA 010537Z 15003KT 10SM OVC013 13/10 A3027 RMK AO2=
201311010528 SPECI KSEA 010528Z 16003KT 10SM SCT010 OVC015 14/10 A3027 RMK AO2=
201311010453 METAR KSEA 010453Z 16004KT 9SM OVC011 13/10 A3026 RMK AO2 SLP253 T01330100=
201311010431 SPECI KSEA 010431Z 00000KT 9SM OVC011 14/10 A3026 RMK AO2=
201311010353 METAR KSEA 010353Z 00000KT 10SM OVC009 14/10 A3026 RMK AO2 SLP252 T01390100=
201311010253 METAR KSEA 010253Z 00000KT 10SM OVC007 14/10 A3026 RMK AO2 SLP252 T01390100 53011=
201311010240 SPECI KSEA 010240Z 00000KT 10SM OVC007 13/10 A3025 RMK AO2=
201311010153 METAR KSEA 010153Z 00000KT 10SM FEW009 BKN016 OVC032 13/10 A3023 RMK AO2 SLP242 T01330100=
201311010138 SPECI KSEA 010138Z 18003KT 10SM SCT010 BKN020 OVC032 13/10 A3022 RMK AO2=
201311010102 SPECI KSEA 010102Z 18003KT 10SM FEW009 BKN012 OVC021 14/09 A3022 RMK AO2=
201311010053 METAR KSEA 010053Z 17003KT 10SM SCT009 BKN016 OVC021 14/09 A3022 RMK AO2 SLP241 T01390094=

# No short TAF reports from KSEA in databse.

###################################
#  large TAF from KSEA
###################################
201311302320 TAF KSEA 302320Z 0100/0206 21008KT P6SM OVC018
                      TEMPO 0100/0104 -RA FM010400 18012G18KT P6SM
                       -RA OVC015
                      TEMPO 0110/0114 5SM RA BR OVC006 FM011400
                       21018G27KT P6SM -RA BKN018 OVC030=
201311302105 TAF AMD KSEA 302105Z 3021/0124 18007KT P6SM OVC022 FM302200 19009KT
                       P6SM OVC025
                      TEMPO 0100/0104 -RA FM010400 18012G18KT P6SM
                       -RA OVC015
                      TEMPO 0110/0114 5SM RA BR OVC006 FM011400
                       21018G27KT P6SM -RA BKN018 OVC030=
201311301730 TAF KSEA 301730Z 3018/0124 16010KT P6SM OVC025
                      TEMPO 3018/3022 SCT025 OVC040 FM302200 19009KT
                       P6SM OVC025
                      TEMPO 0100/0104 -RA FM010400 18012G18KT P6SM
                       -RA OVC015
                      TEMPO 0110/0114 5SM RA BR OVC006 FM011400
                       21018G27KT P6SM -RA BKN018 OVC030=
201311301307 TAF AMD KSEA 301307Z 3013/0118 17006KT P6SM SCT015 SCT045 BKN120
                       TEMPO 3014/3018 SCT015 BKN045 BKN120 FM301800
                       18007KT P6SM SCT013 BKN025 OVC040 FM010300
                       17010KT P6SM -RA OVC012 FM010800 19013G22KT
                       P6SM -RA OVC015=
201311301120 TAF KSEA 301120Z 3012/0118 18006KT P6SM BKN015 FM301800 18007KT
                       P6SM SCT013 BKN025 OVC040 FM010300 17010KT
                       P6SM -RA OVC012 FM010800 19013G22KT P6SM
                       -RA OVC015=
201311300854 KSEA 300854Z 3009/0112 17005KT P6SM SCT015 OVC050 FM301100 18006KT
                       P6SM OVC015 FM301800 18007KT P6SM SCT013
                       BKN025 OVC040 FM010300 17010KT P6SM -RA
                       OVC012=
201311300521 TAF KSEA 300521Z 3006/0112 17005KT P6SM SCT007 OVC015
                      TEMPO 3006/3010 4SM -RA BR OVC008 FM301100
                       18006KT P6SM OVC015 FM301800 18007KT P6SM
                       SCT013 BKN025 OVC040 FM010300 17010KT P6SM
                       -RA OVC012=
201311300318 TAF AMD KSEA 300318Z 3003/0106 00000KT 5SM BR OVC005 FM300400 17005KT
                       4SM BR OVC007
                      TEMPO 3004/3008 -RA FM301100 18006KT P6SM
                       OVC011 FM301800 18007KT P6SM SCT013 BKN025
                       OVC040 FM010300 17010KT P6SM -RA OVC012=
201311292320 TAF KSEA 292320Z 3000/0106 00000KT 1SM -RA BR OVC003
                      TEMPO 3000/3004 P6SM NSW SCT005 OVC012 FM300400
                       17005KT 4SM BR OVC007
                      TEMPO 3004/3008 -RA FM301100 18006KT P6SM
                       OVC011 FM301800 18007KT P6SM SCT013 BKN025
                       OVC040 FM010300 17010KT P6SM -RA OVC012=
201311292105 TAF AMD KSEA 292105Z 2921/3024 20006KT 2SM HZ OVC005
                      TEMPO 2922/3002 P6SM NSW SCT005 OVC012 FM300200
                       19006KT P6SM SCT010 BKN016 OVC030
                      TEMPO 3002/3006 3SM -RA BR OVC009 FM301100
                       18006KT P6SM OVC011 FM301800 18007KT P6SM
                       SCT013 BKN025 OVC040=
201311291735 TAF KSEA 291735Z 2918/3024 15005KT P6SM OVC009
                      TEMPO 2918/2922 SCT009 BKN018 OVC100 FM292200
                       19006KT P6SM BKN018 OVC030
                      TEMPO 3002/3006 -RA FM301100 18006KT P6SM
                       OVC011 FM301800 18007KT P6SM SCT013 BKN025
                       OVC040=
201311291312 TAF AMD KSEA 291312Z 2913/3018 VRB03KT P6SM BKN030 OVC070 FM291800
                       19005KT P6SM SCT020 OVC050 FM300000 17005KT
                       P6SM BKN018 OVC040
                      PROB30 3002/3006 -RA FM300800 18006KT P6SM
                       OVC015=
201311291120 TAF KSEA 291120Z 2912/3018 VRB03KT P6SM OVC070 FM291800 19005KT
                       P6SM SCT020 OVC050 FM300000 17005KT P6SM
                       BKN018 OVC040
                      PROB30 3002/3006 -RA FM300800 18006KT P6SM
                       OVC015=
201311290900 KSEA 290900Z 2909/3012 14004KT P6SM BKN100 FM291200 VRB03KT P6SM
                       OVC070 FM291800 19005KT P6SM SCT020 OVC050
                       FM300000 17005KT P6SM BKN018 OVC040
                      PROB30 3002/3006 -RA=
201311290522 TAF KSEA 290522Z 2906/3012 14004KT P6SM VCFG FEW002 SCT200
                      TEMPO 2906/2910 2SM BR SCT002 BKN200 FM291200
                       VRB03KT 6SM BR SCT007 OVC070 FM291800 19005KT
                       P6SM SCT018 OVC050 FM300000 17005KT P6SM
                       BKN018 OVC040
                      PROB30 3002/3006 -RA=
201311290253 TAF AMD KSEA 290253Z 2903/3006 VRB03KT P6SM VCFG FEW002 SCT200
                       FM290600 VRB03KT 3SM BR SCT002 SCT070 BKN200
                       TEMPO 2906/2910 1/2SM FG VV002 FM291200
                       VRB03KT 6SM BR SCT007 OVC070 FM291800 19005KT
                       P6SM SCT018 OVC050 FM300000 17005KT P6SM
                       BKN018 OVC040
                      PROB30 3002/3006 -RA=
201311282349 TAF KSEA 282349Z 2900/3006 VRB03KT 6SM HZ VCFG FEW002 BKN200 FM290600
                       VRB03KT 3SM BR SCT002 SCT070 BKN200
                      TEMPO 2906/2910 1/2SM FG VV002 FM291200 VRB03KT
                       6SM BR SCT007 OVC070 FM291800 19005KT P6SM
                       SCT018 OVC050 FM300000 19005KT P6SM BKN018
                       OVC040
                      PROB30 3000/3006 -RA=
201311282104 TAF AMD KSEA 282104Z 2821/2924 VRB03KT P6SM BCFG FEW002 SCT200
                       FM282200 VRB03KT P6SM SCT200 FM290600 VRB03KT
                       4SM BR SCT002 BKN200 FM291000 VRB03KT 1/2SM
                       FG VV002 FM291800 19005KT 5SM BR BKN011
                       BKN060 OVC120 FM292000 19005KT P6SM SCT025
                       BKN060 OVC120=
201311282043 TAF AMD KSEA 282043Z 2821/2924 VRB03KT 4SM BR HZ FEW003 BKN200
                       FM282200 VRB03KT 6SM HZ SCT200 FM290600
                       VRB03KT 4SM BR SCT002 BKN200 FM291000 VRB03KT
                       1/2SM FG VV002 FM291800 19005KT 5SM BR BKN011
                       BKN060 OVC120 FM292000 19005KT P6SM SCT025
                       BKN060 OVC120=
201311282003 TAF AMD KSEA 282003Z 2820/2924 VRB03KT 2SM BR HZ BKN003 BKN200
                       TEMPO 2820/2821 1/2SM FG VV001 FM282200
                       VRB03KT 6SM HZ SCT200 FM290600 VRB03KT 4SM
                       BR SCT002 BKN200 FM291000 VRB03KT 1/2SM
                       FG VV002 FM291800 19005KT 5SM BR BKN011
                       BKN060 OVC120 FM292000 19005KT P6SM SCT025
                       BKN060 OVC120=
201311281858 TAF AMD KSEA 281858Z 2819/2924 VRB03KT 1/2SM FG VV001
                      TEMPO 2819/2820 1/4SM FG FM282000 VRB03KT
                       4SM BR HZ BKN004 BKN200 FM282200 VRB03KT
                       6SM HZ SCT200 FM290600 VRB03KT 4SM BR SCT002
                       BKN200 FM291000 VRB03KT 1/2SM FG VV002 FM291800
                       19005KT 5SM BR BKN011 BKN060 OVC120 FM292000
                       19005KT P6SM SCT025 BKN060 OVC120=
201311281744 TAF KSEA 281744Z 2818/2924 VRB03KT 1/2SM FG VV001 FM282000 VRB03KT
                       4SM BR HZ BKN004 BKN200 FM282200 VRB03KT
                       6SM HZ SCT200 FM290600 VRB03KT 4SM BR SCT002
                       BKN200 FM291000 VRB03KT 1/2SM FG VV002 FM291800
                       19005KT 5SM BR BKN011 BKN060 OVC120 FM292000
                       19005KT P6SM SCT025 BKN060 OVC120=
201311281504 TAF AMD KSEA 281504Z 2815/2918 00000KT 1/4SM FG VV001 FM281800
                       00000KT 1SM BR OVC003 FM282000 VRB03KT 4SM
                       BR HZ BKN005 BKN200 FM282200 VRB03KT 6SM
                       HZ FEW008 BKN200 FM290000 VRB03KT P6SM SCT100
                       BKN200=
201311281401 TAF AMD KSEA 281401Z 2814/2918 VRB03KT 2SM BR FEW001 FEW100 SCT200
                       TEMPO 2814/2816 1/2SM FG BKN001 FM281700
                       35004KT P6SM BKN100 BKN200 FM282100 VRB03KT
                       P6SM SCT100 BKN200=
201311281217 TAF AMD KSEA 281217Z 2812/2918 VRB03KT 2SM BR FEW001 FEW100 SCT200
                       TEMPO 2812/2815 1/2SM FG BKN001 FM281600
                       35004KT P6SM BKN100 BKN200 FM282100 VRB03KT
                       P6SM SCT100 BKN200=
201311281120 TAF KSEA 281120Z 2812/2918 VRB03KT P6SM FEW100 SCT200
                      TEMPO 2812/2814 4SM BR FM281800 35004KT P6SM
                       BKN100 BKN200 FM282100 VRB03KT P6SM SCT100
                       BKN200=
201311280527 TAF KSEA 280527Z 2806/2912 36004KT P6SM FEW100 SCT200
                      TEMPO 2810/2814 3SM BR FM281800 VRB03KT P6SM
                       BKN100 BKN200 FM282100 VRB03KT P6SM SCT100
                       BKN200=
201311280302 TAF AMD KSEA 280302Z 2803/2906 36004KT P6SM FEW100 SCT200 FM281800
                       VRB03KT P6SM BKN100 BKN200 FM282100 VRB03KT
                       P6SM SCT100 BKN200=
201311272334 TAF KSEA 272334Z 2800/2906 VRB03KT P6SM FEW100 BKN200 FM281800
                       VRB03KT P6SM BKN100 BKN200 FM282100 VRB03KT
                       P6SM SCT100 BKN200=
201311272111 TAF AMD KSEA 272111Z 2721/2824 VRB03KT P6SM SCT090 BKN200=
201311271741 TAF KSEA 271741Z 2718/2824 VRB03KT P6SM SCT090 BKN200
                      TEMPO 2718/2722 BKN090 OVC200 FM281800 VRB03KT
                       P6SM SCT090 SCT200=
201311271401 TAF AMD KSEA 271401Z 2714/2818 04003KT P6SM SCT060 BKN200 FM271500
                       03004KT P6SM BKN200=
201311271125 TAF KSEA 271125Z 2712/2818 VRB03KT P6SM BKN060 BKN200 FM271500
                       03004KT P6SM BKN200=
201311270900 TAF AMD KSEA 270900Z 2709/2812 07004KT P6SM BKN060 OVC120 FM271200
                       VRB03KT P6SM SCT060 BKN250 FM271500 03004KT
                       P6SM BKN200=
201311270520 TAF KSEA 270520Z 2706/2812 14004KT P6SM BKN050 OVC120 FM271200
                       VRB03KT 4SM BR SCT050 BKN250 FM271500 03004KT
                       P6SM BKN200=
201311270305 TAF AMD KSEA 270305Z 2703/2806 14004KT P6SM BKN050 OVC120 FM271200
                       09003KT 2SM BR BKN250 FM271500 03004KT P6SM
                       BKN250=
201311262322 TAF KSEA 262322Z 2700/2806 27003KT P6SM BKN120 OVC200 FM271200
                       07003KT 2SM BR BKN250 FM271500 VRB03KT P6SM
                       BKN250=
201311262109 TAF AMD KSEA 262109Z 2621/2724 00000KT P6SM FEW180 SCT250 FM270000
                       16004KT P6SM BKN120 OVC200 FM271200 07003KT
                       2SM BR BKN120 BKN200 FM271600 18003KT P6SM
                       BKN120 BKN200=
201311261734 TAF KSEA 261734Z 2618/2724 21004KT 3SM BR FEW001 BKN250 FM261900
                       14003KT P6SM BKN250 FM270000 16004KT P6SM
                       BKN120 OVC200 FM271200 07003KT 2SM BR BKN120
                       BKN200 FM271600 18003KT P6SM BKN120 BKN200=
201311261510 TAF AMD KSEA 261510Z 2615/2718 00000KT 2SM BR SCT180 BKN250
                      TEMPO 2615/2618 1/4SM FG VV001 FM261800 12003KT
                       P6SM SCT120 BKN200 FM270100 12003KT P6SM
                       SCT100 BKN150 FM271200 09003KT P6SM SCT200=
201311261400 TAF AMD KSEA 261400Z 2614/2718 00000KT 2SM BR SCT180 BKN250
                      TEMPO 2614/2616 1/4SM FG VV001 FM261600 12003KT
                       P6SM SCT120 BKN200 FM270100 12003KT P6SM
                       SCT100 BKN150 FM271200 09003KT P6SM SCT200=
201311261224 TAF AMD KSEA 261224Z 2612/2718 00000KT 2SM BR SCT180 BKN250
                      TEMPO 2612/2615 1/4SM FG VV001 FM261600 12003KT
                       P6SM SCT120 BKN200 FM270100 12003KT P6SM
                       SCT100 BKN150 FM271200 09003KT P6SM SCT200=
201311261120 TAF KSEA 261120Z 2612/2718 00000KT 4SM BR SCT180 BKN250
                      TEMPO 2612/2614 1/2SM FG OVC001 FM261600
                       12003KT P6SM SCT120 BKN200 FM270100 12003KT
                       P6SM SCT100 BKN150 FM271200 09003KT P6SM
                       SCT200=
201311261050 TAF AMD KSEA 261050Z 2611/2712 00000KT 4SM BR SCT180 BKN250
                      TEMPO 2611/2614 1/2SM FG OVC001 FM261600
                       16003KT P6SM SCT120 BKN200=
201311260525 TAF KSEA 260525Z 2606/2712 00000KT P6SM SCT180 BKN250
                      TEMPO 2610/2613 4SM BR FM261400 16003KT P6SM
                       SCT120 BKN200=
201311260300 KSEA 260300Z 2603/2706 00000KT P6SM SCT180 BKN250 FM260900 13004KT
                       4SM BR SCT250 FM261500 16003KT P6SM BKN200=
201311252321 TAF KSEA 252321Z 2600/2706 00000KT P6SM SCT180 BKN250 FM260600
                       13004KT 4SM BR SCT250 FM261500 16003KT P6SM
                       BKN200=
201311252101 KSEA 252101Z 2521/2624 28003KT P6SM BKN250 FM260600 13004KT 4SM
                       BR SCT250 FM260900 12004KT 2SM BR SCT250
                       TEMPO 2612/2616 1/2SM FG FM261600 16005KT
                       P6SM SCT250=
201311251737 TAF KSEA 251737Z 2518/2624 00000KT 5SM BR SCT001 SCT250 FM251900
                       19003KT P6SM SCT250 FM260600 13004KT 4SM
                       BR SCT250 FM260900 12004KT 2SM BR SCT250
                       TEMPO 2612/2616 1/2SM FG FM261600 16005KT
                       P6SM SCT250=
201311251506 KSEA 251506Z 2515/2618 00000KT 1/2SM FG BKN001
                      TEMPO 2515/2518 3SM BR SCT001 SCT250 FM251800
                       16007KT P6SM BKN250=
201311251320 TAF AMD KSEA 251320Z 2513/2618 00000KT 1/2SM FG BKN001
                      TEMPO 2516/2518 3SM BR SCT001 FM251800 16007KT
                       P6SM BKN250=
201311251137 TAF AMD KSEA 251137Z 2512/2618 14004KT 3SM BR SCT002 SCT200
                      TEMPO 2512/2516 1/2SM FG BKN001 FM251800
                       16007KT P6SM BKN250=
201311251120 TAF KSEA 251120Z 2512/2618 14004KT 4SM BR SCT002 SCT200
                      TEMPO 2512/2516 1SM BR BKN001 FM251800 16007KT
                       P6SM BKN250=
201311251055 TAF AMD KSEA 251055Z 2511/2612 14004KT 5SM BR SCT002 SCT200
                      TEMPO 2511/2515 2SM BR BKN001 FM251800 16007KT
                       P6SM BKN250=
201311250520 TAF KSEA 250520Z 2506/2612 VRB03KT P6SM BKN200 FM251200 12006KT
                       P6SM VCFG SCT002 SCT200
                      TEMPO 2513/2516 3SM BR SCT002 FM252000 16007KT
                       P6SM BKN250=
201311250301 KSEA 250301Z 2503/2606 VRB03KT P6SM BKN200 FM251200 12006KT P6SM
                       VCFG SCT002 SCT200
                      TEMPO 2514/2518 2SM BR SCT002 FM252000 16007KT
                       P6SM BKN250=
201311242320 TAF KSEA 242320Z 2500/2606 VRB03KT P6SM BKN200 FM251200 12006KT
                       P6SM VCFG SCT002 SCT200
                      TEMPO 2514/2518 2SM BR SCT002 FM252000 16007KT
                       P6SM BKN250=
201311242107 KSEA 242107Z 2421/2524 VRB03KT P6SM SCT200 FM251200 12006KT P6SM
                       VCFG SCT002 SCT200
                      TEMPO 2514/2518 2SM BR SCT002=
201311241720 TAF KSEA 241720Z 2418/2524 02004KT P6SM SCT200 FM250600 00000KT
                       P6SM SKC FM251200 12006KT P6SM VCFG SCT002
                       SCT200
                      TEMPO 2514/2518 2SM BR SCT002=
201311241400 TAF AMD KSEA 241400Z 2414/2518 02004KT P6SM SCT180=
201311241123 TAF KSEA 241123Z 2412/2518 03006KT P6SM BKN250=
201311240520 TAF KSEA 240520Z 2406/2512 03006KT P6SM BKN250=
201311240308 KSEA 240308Z 2403/2506 35006KT P6SM BKN250 FM240600 03006KT P6SM
                       BKN250=
201311232320 TAF KSEA 232320Z 2400/2506 02006KT P6SM BKN250=
201311232100 KSEA 232100Z 2321/2424 36006KT P6SM BKN250=
201311231723 TAF KSEA 231723Z 2318/2424 03006KT P6SM SCT250=
201311231400 TAF AMD KSEA 231400Z 2314/2418 02006KT P6SM SKC=
201311231120 TAF KSEA 231120Z 2312/2418 03006KT P6SM SCT250=
201311230900 TAF AMD KSEA 230900Z 2309/2412 03006KT P6SM SCT250=
201311230520 TAF KSEA 230520Z 2306/2412 03008KT P6SM SCT250=
201311230301 KSEA 230301Z 2303/2406 02010KT P6SM BKN250 FM230600 05006KT P6SM
                       SCT250=
201311222320 TAF KSEA 222320Z 2300/2406 02008KT P6SM BKN250 FM230600 05006KT
                       P6SM SCT250=
201311222205 TAF AMD KSEA 222205Z 2222/2324 02008KT P6SM BKN250 FM230600 05006KT
                       P6SM SCT250=
201311221720 TAF KSEA 221720Z 2218/2324 02008KT P6SM FEW250=
201311221400 TAF AMD KSEA 221400Z 2214/2318 03007KT P6SM FEW250=
201311221131 TAF KSEA 221131Z 2212/2318 03007KT P6SM FEW250=
201311220902 KSEA 220902Z 2209/2312 02007KT P6SM FEW250=
201311220532 TAF KSEA 220532Z 2206/2312 02007KT P6SM FEW250=
201311220353 TAF AMD KSEA 220353Z 2204/2306 02007KT P6SM FEW250=
201311212324 TAF KSEA 212324Z 2200/2306 02007KT P6SM FEW250=
201311212100 KSEA 212100Z 2121/2224 01007KT P6SM SCT250=
201311211733 TAF KSEA 211733Z 2118/2224 01007KT P6SM SCT250=
201311211403 KSEA 211403Z 2114/2218 01007KT P6SM SKC=
201311211120 TAF KSEA 211120Z 2112/2218 01007KT P6SM SKC=
201311210904 TAF AMD KSEA 210904Z 2109/2212 03009KT P6SM SKC=
201311210524 TAF KSEA 210524Z 2106/2212 03009KT P6SM SKC=
201311210300 KSEA 210300Z 2103/2206 02008KT P6SM SKC=
201311202320 TAF KSEA 202320Z 2100/2206 36009KT P6SM SKC=
201311202101 KSEA 202101Z 2021/2124 01010KT P6SM SKC=
201311201721 TAF KSEA 201721Z 2018/2124 36007KT P6SM FEW025=
201311201400 TAF AMD KSEA 201400Z 2014/2118 02010KT P6SM SCT035 FM201800 36011KT
                       P6SM SKC=
201311201120 TAF KSEA 201120Z 2012/2118 01006KT P6SM SCT030
                      TEMPO 2012/2016 BKN025 FM201800 36011KT P6SM
                       SKC=
201311200901 KSEA 200901Z 2009/2112 01012KT P6SM FEW070 FM201000 01010KT P6SM
                       SKC FM201800 35009KT P6SM SKC=
201311200520 TAF KSEA 200520Z 2006/2112 01010KT P6SM BKN050 FM201000 04005KT
                       P6SM SCT250 FM201800 35009KT P6SM SCT250=
201311200301 TAF AMD KSEA 200301Z 2003/2106 36006KT P6SM SCT020 BKN045 FM200600
                       03006KT P6SM FEW025 SCT050 BKN250 FM201000
                       04005KT P6SM BKN250 FM201800 35009KT P6SM
                       SCT250=
201311192320 TAF KSEA 192320Z 2000/2106 36006KT P6SM SCT020 BKN045 FM200600
                       03006KT P6SM FEW025 SCT050 BKN250 FM201000
                       04005KT P6SM BKN250 FM201800 35009KT P6SM
                       SCT250=
201311192103 TAF AMD KSEA 192103Z 1921/2024 34007KT P6SM -RA FEW015 SCT030 BKN060
                       TEMPO 1921/1924 -SHRA BKN015 BKN030 FM200600
                       03006KT P6SM SKC=
201311191724 TAF KSEA 191724Z 1918/2024 05010KT P6SM VCSH FEW008 BKN020 OVC050
                       FM192100 01008KT P6SM SCT030 BKN060
                      TEMPO 1921/1923 BKN030 FM200600 03006KT P6SM
                       SKC=
201311191405 KSEA 191405Z 1914/2018 06011KT P6SM SCT005 OVC011
                      TEMPO 1914/1916 34008KT 2SM -SHRA BR BKN005
                       OVC011 FM191600 33010KT P6SM VCSH BKN015
                       OVC030 FM192100 33008KT P6SM SCT030 BKN060
                       FM200600 03006KT P6SM SKC=
201311191200 TAF AMD KSEA 191200Z 1912/2018 21010G18KT P6SM -SHRA SCT015 BKN025
                       OVC040
                      TEMPO 1912/1914 34008KT 2SM BR BKN005 FM191600
                       33010KT P6SM VCSH BKN015 OVC030 FM192100
                       33008KT P6SM SCT030 BKN060 FM200600 03006KT
                       P6SM SKC=
201311191120 TAF KSEA 191120Z 1912/2018 21015G25KT P6SM -SHRA SCT015 BKN025
                       OVC040
                      TEMPO 1912/1916 2SM BR BKN005 FM191600 33010KT
                       P6SM VCSH BKN015 OVC030 FM192100 33008KT
                       P6SM SCT030 BKN060 FM200600 03006KT P6SM
                       SKC=
201311191018 TAF AMD KSEA 191018Z 1910/2012 21015G25KT P6SM -SHRA SCT015 BKN025
                       OVC040
                      TEMPO 1910/1912 2SM BR BKN009 FM191200 23008KT
                       P6SM VCSH BKN015 OVC030 FM192000 33007KT
                       P6SM SCT030 BKN060=
201311190904 KSEA 190904Z 1909/2012 21015G25KT P6SM -SHRA SCT015 BKN025 OVC040
                       TEMPO 1909/1912 BKN015 FM191200 23008KT
                       P6SM VCSH BKN015 OVC030 FM192000 33007KT
                       P6SM SCT030 BKN060=
201311190526 TAF KSEA 190526Z 1906/2012 21012G20KT P6SM -SHRA SCT015 BKN025
                       OVC040
                      TEMPO 1906/1910 6SM BR BKN012 FM191200 23008KT
                       P6SM VCSH BKN015 OVC030 FM192000 33007KT
                       P6SM SCT030 BKN060=
201311190205 TAF AMD KSEA 190205Z 1902/2006 18012G18KT 6SM -RA SCT006 OVC035
                       TEMPO 1902/1906 3SM RA BKN006 OVC015 FM190600
                       21014G20KT P6SM -SHRA SCT008 BKN013 OVC020
                       FM191400 23008KT P6SM BKN015 OVC030 FM192000
                       33007KT P6SM SCT030 BKN060=
201311182323 TAF KSEA 182323Z 1900/2006 16008KT P6SM -RA FEW006 SCT018 OVC050
                       TEMPO 1900/1902 3SM -RA BR BKN006 OVC018
                       FM190200 18012G18KT 3SM -RA BKN006 OVC015
                       FM190700 21014G20KT P6SM -SHRA SCT008 BKN013
                       OVC020 FM191400 23008KT P6SM BKN015 OVC030
                       FM192000 33007KT P6SM SCT030 BKN060=
201311182141 TAF AMD KSEA 182141Z 1822/1924 17010KT P6SM -RA SCT005 BKN025 OVC050
                       TEMPO 1822/1824 3SM -RA BKN005 OVC025 FM190000
                       18010KT 3SM -RA BKN005 OVC015 FM190700 21012G18KT
                       P6SM -SHRA SCT008 BKN013 OVC020=
201311182101 TAF AMD KSEA 182101Z 1821/1924 17008KT 2SM -RA BR BKN005 OVC015
                       FM190700 21012G18KT P6SM -SHRA SCT008 BKN013
                       OVC020=
201311181722 TAF KSEA 181722Z 1818/1924 17006KT 2SM -RA BR BKN003 OVC006 FM190700
                       21012G18KT P6SM -SHRA SCT008 BKN013 OVC020=
201311181405 KSEA 181405Z 1814/1918 22008KT 5SM BR SCT004 BKN020 OVC029
                      TEMPO 1814/1818 2SM -RA BR BKN004 OVC020
                       FM181800 16008KT 4SM -RA BR SCT008 BKN012
                       OVC020
                      TEMPO 1903/1907 2SM RA OVC008 FM190700 21012G18KT
                       P6SM -SHRA SCT010 BKN020 OVC030=
201311181138 TAF KSEA 181138Z 1812/1918 16006KT P6SM SCT004 BKN012 OVC020
                      TEMPO 1812/1814 BKN004 OVC012 FM181500 16006KT
                       P6SM -RA SCT012 OVC020 FM182000 16008KT
                       4SM -RA BR SCT008 BKN012 OVC020
                      TEMPO 1903/1907 2SM RA OVC008 FM190700 21012G18KT
                       P6SM -SHRA SCT010 BKN020 OVC030=
201311180911 TAF AMD KSEA 180911Z 1809/1912 19010KT P6SM SCT015 OVC040
                      TEMPO 1809/1811 2SM -SHRA OVC015 FM181400
                       16008KT P6SM -RA OVC030 FM182000 16008KT
                       4SM -RA BR SCT008 BKN015 OVC025
                      TEMPO 1903/1907 2SM RA OVC008 FM190700 19010KT
                       P6SM -SHRA SCT010 BKN020 OVC030=
201311180538 TAF KSEA 180538Z 1806/1912 19010KT P6SM SCT015 OVC040 FM181000
                       16008KT P6SM SCT035 BKN060 OVC100 FM181400
                       16008KT P6SM -RA OVC030 FM182000 16008KT
                       4SM -RA BR SCT008 BKN015 OVC025
                      TEMPO 1903/1907 2SM RA OVC008 FM190700 19010KT
                       P6SM -SHRA SCT010 BKN020 OVC030=
201311180323 TAF AMD KSEA 180323Z 1803/1906 19010KT P6SM -SHRA SCT025 BKN040
                       FM180900 15008KT P6SM SCT030 BKN060 FM181400
                       18008KT P6SM -RA OVC030 FM181700 18009KT
                       5SM -RA BR OVC020=
201311180051 TAF AMD KSEA 180051Z 1801/1906 19012G20KT P6SM BKN025 OVC040
                      TEMPO 1801/1804 -SHRA BKN012 OVC040 FM180400
                       18010KT P6SM BKN025 BKN045 FM181400 18008KT
                       P6SM -RA OVC030 FM181700 18009KT 5SM -RA
                       BR OVC020=
201311172324 TAF KSEA 172324Z 1800/1906 19012G20KT P6SM BKN025 OVC040
                      TEMPO 1800/1804 -SHRA SCT025 OVC040 FM180400
                       18010KT P6SM BKN025 BKN045 FM181400 18008KT
                       P6SM -RA OVC030 FM181700 18009KT 5SM -RA
                       BR OVC020=
201311172100 KSEA 172100Z 1721/1824 19012G22KT P6SM -SHRA BKN025 OVC045
                      TEMPO 1721/1724 BKN012 OVC025 FM180000 20010KT
                       P6SM SCT030 BKN050
                      TEMPO 1800/1804 -SHRA BKN030 OVC050 FM180400
                       18008KT P6SM BKN030 BKN060 FM181500 16008KT
                       P6SM -RA OVC035=
201311171738 TAF KSEA 171738Z 1718/1824 19012G20KT P6SM -SHRA BKN025 OVC045
                       FM180000 20010KT P6SM SCT030 BKN050
                      TEMPO 1800/1804 -SHRA BKN030 OVC050 FM180400
                       18008KT P6SM BKN030 BKN060 FM181500 16008KT
                       P6SM -RA OVC035=
201311171551 TAF AMD KSEA 171551Z 1716/1818 19012KT P6SM SCT015 BKN025 OVC040
                       TEMPO 1716/1720 SCT025 BKN040 BKN080 FM172100
                       20014KT P6SM SCT030 BKN050 FM180600 16008KT
                       P6SM SCT050 OVC100 FM181500 16008KT P6SM
                       -RA OVC035=
201311171408 TAF AMD KSEA 171408Z 1714/1818 17009KT P6SM SCT012 SCT018 BKN080
                       TEMPO 1714/1716 BKN018 BKN080 FM172100 20014KT
                       P6SM SCT030 BKN050 FM180600 16008KT P6SM
                       SCT050 OVC100 FM181500 16008KT P6SM -RA
                       OVC035=
201311171136 TAF KSEA 171136Z 1712/1818 20010KT P6SM SCT025 BKN090
                      TEMPO 1712/1715 BKN025 BKN090 FM172100 20014KT
                       P6SM SCT030 BKN050 FM180600 16008KT P6SM
                       SCT050 OVC100 FM181500 16008KT P6SM -RA
                       OVC035=
201311170906 KSEA 170906Z 1709/1812 21010KT P6SM SCT025 BKN090
                      TEMPO 1709/1712 BKN025 BKN090 FM171800 19008KT
                       P6SM BKN030 BKN060 FM180200 19008KT P6SM
                       SCT030 BKN060=
201311170536 TAF KSEA 170536Z 1706/1812 21010KT P6SM SCT030 BKN090 FM171800
                       19008KT P6SM BKN030 BKN060 FM180200 19008KT
                       P6SM SCT030 BKN060=
201311170329 TAF AMD KSEA 170329Z 1703/1806 21010G16KT P6SM SCT030 OVC100 FM170900
                       19008KT P6SM BKN025 BKN100 FM171900 20010KT
                       P6SM BKN025 BKN050=
201311162336 TAF KSEA 162336Z 1700/1806 22012G20KT P6SM SCT030 OVC120
                      TEMPO 1700/1702 BKN030 OVC120 FM170200 21010KT
                       P6SM SCT030 OVC120 FM170900 19008KT P6SM
                       BKN025 BKN120 FM171900 20010KT P6SM BKN025
                       BKN050=
201311162100 KSEA 162100Z 1621/1724 22010KT P6SM BKN025 OVC045
                      TEMPO 1621/1701 SCT025 BKN045 FM170100 20008KT
                       P6SM SCT030 BKN050 OVC080 FM170900 18008KT
                       P6SM BKN025=
201311161945 TAF AMD KSEA 161945Z 1620/1724 20010KT P6SM BKN025 BKN060
                      TEMPO 1620/1624 SCT025 BKN060 FM170000 20008KT
                       P6SM SCT030 BKN080 FM170900 18008KT P6SM
                       BKN025=
201311161740 TAF KSEA 161740Z 1618/1724 18007KT P6SM FEW080 SCT140 FM162100
                       20008KT P6SM SCT050 FM170900 18008KT P6SM
                       BKN025=
201311161400 TAF AMD KSEA 161400Z 1614/1718 20005KT P6SM SCT080 FM161800 20008KT
                       P6SM SCT035 BKN050 FM170700 20008KT P6SM
                       OVC022=
201311161140 TAF KSEA 161140Z 1612/1718 23008KT P6SM SCT030 SCT060 FM161800
                       20008KT P6SM SCT035 BKN050 FM170700 20008KT
                       P6SM OVC022=
201311160906 TAF AMD KSEA 160906Z 1609/1712 20008KT P6SM SCT030 SCT060 FM161800
                       20008KT P6SM SCT035 BKN050 FM170700 20008KT
                       P6SM OVC022=
201311160539 TAF KSEA 160539Z 1606/1712 20015G25KT P6SM OVC005 FM160900 20015G25KT
                       P6SM SCT006 BKN011 OVC020 FM161200 20012G18KT
                       P6SM SCT011 BKN020 OVC035 FM161800 20012KT
                       P6SM SCT020 BKN035 FM162100 20012KT P6SM
                       SCT030 BKN045 FM170700 20008KT P6SM OVC022=
201311160315 TAF AMD KSEA 160315Z 1603/1706 20015G28KT P6SM -RA BKN008 OVC015
                       TEMPO 1603/1605 5SM -RA BR FM160600 20012G25KT
                       P6SM -SHRA BKN015 OVC025 FM161500 21012KT
                       P6SM VCSH SCT020 BKN035 FM161900 21010KT
                       P6SM VCSH SCT025 BKN040=
201311152330 TAF KSEA 152330Z 1600/1706 20015G28KT P6SM -RA BKN008 OVC015
                      TEMPO 1601/1605 5SM -RA BR FM160600 20012G25KT
                       P6SM -SHRA BKN015 OVC025 FM161500 21012KT
                       P6SM VCSH SCT020 BKN035 FM161900 21010KT
                       P6SM VCSH SCT025 BKN040=
201311152108 TAF AMD KSEA 152108Z 1521/1624 20014G24KT P6SM -RA BKN008 OVC015
                       TEMPO 1522/1602 5SM -RA BR FM160200 20020G30KT
                       P6SM -RA BKN012 OVC020 FM160800 22015G24KT
                       P6SM VCSH SCT020 BKN035=
201311151728 TAF KSEA 151728Z 1518/1624 19010KT P6SM -RA BKN012 OVC020 FM152000
                       20014G24KT P6SM -RA BKN012 OVC020
                      TEMPO 1522/1602 5SM -RA BR FM160200 20020G30KT
                       P6SM -RA BKN012 OVC020 FM160800 22015G24KT
                       P6SM VCSH SCT020 BKN035=
201311151404 TAF AMD KSEA 151404Z 1514/1618 18008KT P6SM BKN012 OVC020 FM151700
                       18008KT P6SM -RA BKN012 OVC020 FM152000
                       20014G24KT P6SM -RA SCT012 OVC020
                      TEMPO 1522/1602 5SM -RA BR FM160200 20020G30KT
                       P6SM -SHRA SCT012 BKN020 OVC040 FM160800
                       22015G24KT P6SM VCSH SCT020 BKN035=
201311151138 TAF KSEA 151138Z 1512/1618 18008KT P6SM BKN006 OVC015 FM151600
                       20014G24KT P6SM -RA BKN012 OVC020
                      TEMPO 1522/1602 5SM -RA BR FM160200 20020G30KT
                       P6SM -SHRA SCT012 BKN020 OVC040 FM160800
                       22015G24KT P6SM VCSH SCT020 BKN035=
201311150908 KSEA 150908Z 1509/1612 14005KT P6SM SCT018 OVC045 FM151500 21014G24KT
                       P6SM -RA BKN015 OVC025 FM160300 22018G30KT
                       P6SM -SHRA SCT018 BKN030 OVC060=
201311150548 TAF KSEA 150548Z 1506/1612 15005KT P6SM SCT025 BKN080 FM151000
                       17007KT P6SM SCT018 OVC040 FM151500 21014G24KT
                       P6SM -RA BKN015 OVC025 FM160300 22018G30KT
                       P6SM -SHRA SCT018 BKN030 OVC060=
201311150310 TAF AMD KSEA 150310Z 1503/1606 VRB03KT P6SM SCT025 OVC050 FM150600
                       20005KT P6SM BKN020 OVC040 FM151200 20010KT
                       P6SM BKN015 OVC030 FM151600 21012G18KT P6SM
                       -RA OVC035 FM152000 20013G20KT P6SM -RA
                       OVC030
                      TEMPO 1520/1524 4SM BR OVC020=
201311150138 TAF AMD KSEA 150138Z 1502/1606 VRB04KT P6SM SCT030 OVC050 FM150600
                       20005KT P6SM BKN025 OVC050 FM151200 20010KT
                       P6SM BKN020 OVC040 FM151600 21012G18KT P6SM
                       -RA OVC035 FM152000 20013G20KT P6SM -RA
                       OVC030
                      TEMPO 1520/1524 4SM BR OVC020=
201311142320 TAF KSEA 142320Z 1500/1606 24006KT P6SM BKN020 OVC050 FM151200
                       20010KT P6SM BKN020 OVC040 FM151600 21012G18KT
                       P6SM -RA OVC035 FM152000 20013G20KT P6SM
                       -RA OVC030
                      TEMPO 1520/1524 4SM BR OVC020=
201311142054 TAF AMD KSEA 142054Z 1421/1524 20006KT P6SM SCT006 BKN020 OVC040
                       TEMPO 1421/1423 -SHRA BKN006 OVC010 FM150000
                       24006KT P6SM SCT020 BKN040 FM151200 20010KT
                       P6SM BKN020 OVC040 FM151600 21012G18KT P6SM
                       -RA OVC035=
201311141743 TAF AMD KSEA 141743Z 1418/1524 20006KT P6SM BKN005 BKN010 OVC040
                       FM141900 20006KT P6SM BKN020 OVC040
                      TEMPO 1419/1423 -SHRA OVC020 FM150000 24006KT
                       P6SM SCT020 BKN040 FM151200 20010KT P6SM
                       BKN020 OVC040 FM151600 21012G18KT P6SM -RA
                       OVC035=
201311141733 TAF KSEA 141733Z 1418/1524 20006KT P6SM SCT006 SCT020 BKN040 FM141900
                       20006KT P6SM BKN020 OVC040
                      TEMPO 1419/1423 -SHRA OVC020 FM150000 24006KT
                       P6SM SCT020 BKN040 FM151200 20010KT P6SM
                       BKN020 OVC040 FM151600 21012G18KT P6SM -RA
                       OVC035=
201311141410 TAF AMD KSEA 141410Z 1414/1518 00000KT P6SM BKN006 FM141700 20006KT
                       P6SM SCT006 BKN040 FM141900 20006KT P6SM
                       -SHRA BKN020 OVC040 FM150000 24006KT P6SM
                       SCT020 BKN040 FM151600 21012G18KT P6SM -RA
                       OVC035=
201311141130 TAF KSEA 141130Z 1412/1518 00000KT P6SM BKN006 FM141700 20006KT
                       P6SM SCT006 BKN040 FM141900 20006KT P6SM
                       -SHRA BKN020 OVC040 FM150000 24006KT P6SM
                       SCT020 BKN040 FM151600 21012G18KT P6SM -RA
                       OVC035=
201311140904 TAF AMD KSEA 140904Z 1409/1512 20006KT P6SM SCT040 BKN200 FM141400
                       20006KT P6SM BKN040 OVC100 FM141700 20006KT
                       P6SM -SHRA BKN020 OVC040 FM150000 24006KT
                       P6SM SCT020 BKN040=
201311140534 TAF KSEA 140534Z 1406/1512 20006KT P6SM OVC040 FM141600 20006KT
                       P6SM -SHRA BKN020 OVC040 FM150000 24006KT
                       P6SM SCT020 BKN040=
201311140307 TAF AMD KSEA 140307Z 1403/1506 20006KT P6SM OVC040 FM141500 20006KT
                       P6SM BKN020 BKN040 FM142100 24007KT P6SM
                       SCT020 BKN050=
201311132321 TAF KSEA 132321Z 1400/1506 21008KT P6SM BKN040 FM140700 20005KT
                       P6SM OVC030 FM141500 20008KT P6SM BKN020
                       FM142100 27007KT P6SM SCT020 BKN050=
201311132056 TAF AMD KSEA 132056Z 1321/1424 21008KT P6SM SCT020 BKN045 FM140700
                       20005KT P6SM OVC012 FM141500 20008KT P6SM
                       BKN015 FM142100 27007KT P6SM SCT020 BKN050=
201311131720 TAF KSEA 131720Z 1318/1424 19006KT P6SM BKN012 FM132000 VRB03KT
                       P6SM BKN045 FM140700 20005KT P6SM OVC012=
201311131404 TAF AMD KSEA 131404Z 1314/1418 20010KT P6SM SCT018 BKN050
                      TEMPO 1314/1316 BKN018 OVC050 FM131600 19006KT
                       P6SM OVC012 FM132000 VRB03KT P6SM BKN045
                       FM140700 19005KT P6SM OVC012=
201311131238 TAF AMD KSEA 131238Z 1313/1418 18006KT P6SM VCSH FEW010 OVC050
                       FM131500 19006KT P6SM OVC012 FM132000 VRB03KT
                       P6SM BKN045 FM140700 19005KT P6SM OVC012=
201311131122 TAF KSEA 131122Z 1312/1418 18006KT P6SM VCSH SCT050 BKN080 FM131400
                       19006KT P6SM OVC012 FM132000 VRB03KT P6SM
                       BKN045 FM140700 19005KT P6SM OVC012=
201311130902 TAF AMD KSEA 130902Z 1309/1412 20007KT P6SM SCT013 BKN080 FM131000
                       20008KT P6SM -SHRA BKN013 OVC070 FM131400
                       19005KT P6SM OVC012 FM132200 VRB04KT P6SM
                       OVC045 FM140500 17004KT P6SM OVC025=
201311130531 TAF KSEA 130531Z 1306/1412 22006KT P6SM BKN035 BKN070 FM130900
                       20005KT P6SM OVC012 FM132200 VRB04KT P6SM
                       OVC045 FM140500 17004KT P6SM OVC025=
201311122331 TAF KSEA 122331Z 1300/1406 21008KT P6SM FEW030 BKN090 FM130300
                       19005KT P6SM BKN035 BKN070 FM130900 19005KT
                       P6SM OVC015 FM131900 21007KT P6SM SCT030
                       BKN070=
201311122102 KSEA 122102Z 1221/1324 21005KT P6SM SCT035 BKN070 FM130200 19005KT
                       P6SM BKN035 OVC070 FM130500 19006KT P6SM
                       OVC015=
201311121839 TAF AMD KSEA 121839Z 1219/1324 00000KT 4SM BR BKN004 OVC030
                      TEMPO 1219/1221 P6SM NSW SCT004 BKN035 OVC070
                       FM122100 19008KT P6SM SCT025 OVC045 FM130200
                       19007KT P6SM OVC015=
201311121729 TAF KSEA 121729Z 1218/1324 21004KT P6SM FEW005 OVC040
                      TEMPO 1218/1220 2SM -SHRA BR OVC025 FM122100
                       19008KT P6SM VCSH SCT025 OVC045 FM130200
                       19007KT P6SM OVC015=
201311121646 TAF AMD KSEA 121646Z 1217/1318 19004KT P6SM -RA OVC040
                      TEMPO 1217/1219 2SM -RA BR OVC025 FM122100
                       19008KT P6SM VCSH SCT025 OVC045 FM130200
                       19007KT P6SM OVC015=
201311121335 TAF AMD KSEA 121335Z 1214/1318 VRB03KT P6SM -RA OVC070 FM121500
                       17008KT 6SM -RA BR SCT025 OVC045 FM122100
                       19008KT P6SM VCSH SCT025 OVC045 FM130200
                       19007KT P6SM OVC015=
201311121120 TAF KSEA 121120Z 1212/1318 20004KT P6SM BKN120 OVC200 FM121300
                       17008KT P6SM -RA SCT030 OVC045 FM122100
                       19008KT P6SM VCSH SCT025 OVC045 FM130200
                       19007KT P6SM OVC015=
201311120848 TAF AMD KSEA 120848Z 1209/1312 14004KT P6SM FEW120 BKN210 FM121200
                       11005KT P6SM -RA BKN090 OVC200 FM121800
                       17004KT 4SM -RA BR OVC025 FM122200 18005KT
                       P6SM VCSH SCT025 OVC045=
201311120535 TAF KSEA 120535Z 1206/1312 15007KT P6SM SCT220 FM121200 11005KT
                       P6SM -RA BKN090 OVC200 FM121800 17004KT
                       4SM -RA BR OVC025 FM122200 18005KT P6SM
                       VCSH SCT025 OVC045=
201311120353 TAF AMD KSEA 120353Z 1204/1306 12004KT P6SM FEW140 BKN220 FM120900
                       16005KT P6SM BKN060 OVC090 FM121500 17006KT
                       P6SM -SHRA SCT025 BKN035 OVC045 FM121900
                       18009KT P6SM VCSH SCT020 BKN035=
201311112338 TAF KSEA 112338Z 1200/1306 11005KT P6SM SCT120 OVC200 FM120900
                       16005KT P6SM BKN060 OVC090 FM121500 17006KT
                       P6SM -SHRA SCT025 BKN035 OVC045 FM121900
                       18009KT P6SM VCSH SCT020 BKN035=
201311112102 TAF AMD KSEA 112102Z 1121/1224 10005KT P6SM SCT120 OVC200 FM120900
                       16005KT P6SM BKN060 OVC090 FM121400 17006KT
                       P6SM SCT030 BKN045 OVC060
                      TEMPO 1214/1218 6SM -SHRA BR SCT020 OVC030=
201311111742 TAF KSEA 111742Z 1118/1224 06005KT P6SM SCT120 OVC200
                      TEMPO 1118/1119 3SM BR SCT001 BKN120 FM120900
                       12005KT P6SM BKN060 OVC090 FM121400 17006KT
                       P6SM SCT030 BKN045 OVC060
                      TEMPO 1214/1218 6SM -SHRA BR SCT020 OVC030=
201311111701 TAF AMD KSEA 111701Z 1117/1218 04005KT P6SM SCT120 BKN200
                      TEMPO 1117/1118 3SM BR SCT001 BKN120 FM120900
                       12005KT P6SM BKN090 OVC200 FM121400 17006KT
                       P6SM -RA BKN045 OVC080=
201311111523 TAF AMD KSEA 111523Z 1115/1218 03005KT 3SM BR BKN005 OVC100
                      TEMPO 1115/1118 1/4SM FG SCT001 OVC003 FM111900
                       06005KT P6SM SCT100 BKN200 FM120900 12005KT
                       P6SM BKN090 OVC200 FM121400 17006KT P6SM
                       -RA BKN045 OVC080=
201311111514 TAF AMD KSEA 111514Z 1115/1218 03005KT P6SM SCT005 BKN100 BKN200
                       TEMPO 1115/1118 6SM BR BKN005 OVC100 FM120900
                       12005KT P6SM BKN090 OVC200 FM121400 17006KT
                       P6SM -RA BKN045 OVC080=
201311111124 TAF KSEA 111124Z 1112/1218 01009KT P6SM BKN100 BKN200
                      TEMPO 1112/1116 4SM BR SCT006 OVC100 FM120900
                       12005KT P6SM BKN090 OVC200 FM121400 17006KT
                       P6SM -RA BKN045 OVC080=
201311110906 TAF AMD KSEA 110906Z 1109/1212 01009KT P6SM FEW004 SCT050 OVC100
                       TEMPO 1112/1116 00000KT 3SM BR BKN004 FM111600
                       05005KT 5SM BR BKN011 BKN050 BKN250 FM111800
                       07005KT P6SM SCT011 SCT050 BKN200=
201311110520 TAF KSEA 110520Z 1106/1212 01010KT P6SM BKN200 FM110900 04004KT
                       P6SM SCT008 OVC035
                      TEMPO 1112/1116 00000KT 3SM BR BKN008 FM111600
                       05005KT 5SM BR BKN011 BKN050 BKN250 FM111800
                       07005KT P6SM SCT011 SCT050 BKN200=
201311110307 TAF AMD KSEA 110307Z 1103/1206 36007KT P6SM OVC050 FM110900 04004KT
                       P6SM SCT008 OVC035
                      TEMPO 1112/1116 00000KT 3SM BR BKN008 FM111600
                       05005KT 5SM BR BKN011 BKN050 BKN250 FM111800
                       07005KT P6SM SCT011 SCT050 BKN200=
201311102346 TAF KSEA 102346Z 1100/1206 36004KT P6SM SCT008 BKN035 OVC050 FM110900
                       04004KT P6SM SCT008 OVC035
                      TEMPO 1112/1116 00000KT 3SM BR BKN008 FM111600
                       05005KT 5SM BR BKN011 BKN050 BKN250 FM111800
                       07005KT P6SM SCT011 SCT050 BKN200=
201311101731 TAF KSEA 101731Z 1018/1124 36004KT P6SM SCT008 OVC045 FM110100
                       04005KT P6SM SCT050 BKN100 FM110500 04004KT
                       P6SM BKN250
                      TEMPO 1112/1116 00000KT 3SM BR BKN011=
201311101459 TAF AMD KSEA 101459Z 1015/1118 36005KT P6SM VCSH FEW005 OVC060
                       TEMPO 1015/1016 BKN005 FM101600 34005KT
                       P6SM OVC025 FM101800 03004KT P6SM OVC050
                       FM110100 04006KT P6SM BKN100 FM110500 04004KT
                       P6SM BKN250=
201311101125 TAF KSEA 101125Z 1012/1118 34005KT P6SM VCSH FEW005 OVC060
                      TEMPO 1012/1016 BKN005 FM101600 34005KT P6SM
                       OVC020 FM101800 03004KT P6SM OVC050 FM110100
                       04006KT P6SM BKN100 FM110500 04004KT P6SM
                       BKN250=
201311100901 TAF AMD KSEA 100901Z 1009/1112 00000KT P6SM -RA FEW005 OVC050 FM101700
                       04004KT P6SM VCSH OVC025 FM102000 04004KT
                       P6SM OVC050 FM110000 04004KT P6SM OVC100=
201311100530 TAF KSEA 100530Z 1006/1112 35004KT 3SM -RA SCT002 OVC070
                      TEMPO 1006/1010 BKN002 FM101800 04004KT P6SM
                       VCSH OVC025 FM102000 04004KT P6SM OVC050
                       FM110000 04004KT P6SM OVC100=
201311100358 TAF AMD KSEA 100358Z 1004/1106 04007KT P6SM -RA SCT045 OVC050
                      TEMPO 1009/1013 5SM BR BKN015 FM101300 04005KT
                       P6SM BKN025 BKN045 FM101900 01006KT P6SM
                       SCT060 BKN120=
201311092325 TAF KSEA 092325Z 1000/1106 VRB03KT P6SM -RA BKN050 OVC100 FM100300
                       04005KT P6SM -RA SCT025 OVC040
                      TEMPO 1009/1013 5SM BR BKN015 FM101300 04005KT
                       P6SM BKN025 BKN045 FM101900 01006KT P6SM
                       SCT060 BKN120=
201311092100 TAF AMD KSEA 092100Z 0921/1024 36004KT P6SM FEW007 OVC100 FM092300
                       VRB03KT P6SM BKN045 OVC100 FM100200 04005KT
                       P6SM -RA SCT025 OVC040
                      TEMPO 1009/1013 5SM BR BKN015 FM101300 04005KT
                       P6SM BKN025 BKN045 FM102000 01006KT P6SM
                       BKN080 BKN120=
201311091801 TAF KSEA 091801Z 0918/1024 36004KT P6SM FEW005 BKN140
                      TEMPO 0918/0919 3SM BR BKN002 FM092200 VRB03KT
                       P6SM BKN045 OVC100 FM100200 04005KT P6SM
                       -RA SCT025 OVC040
                      TEMPO 1009/1013 5SM BR BKN015 FM101300 04005KT
                       P6SM BKN025 BKN045 FM102000 01006KT P6SM
                       BKN080 BKN120=
201311091700 TAF AMD KSEA 091700Z 0917/1018 00000KT P6SM FEW080 SCT120 BKN200
                       TEMPO 0917/0918 01004KT 1/2SM FG OVC002
                       FM092000 VRB03KT P6SM OVC045 FM100200 04005KT
                       P6SM -RA SCT025 OVC040=
201311091555 TAF AMD KSEA 091555Z 0916/1018 00000KT P6SM FEW080 SCT120 BKN200
                       TEMPO 0916/0917 04004KT 1/2SM FG BKN002
                       FM092000 VRB03KT P6SM OVC045 FM100200 04005KT
                       P6SM -RA SCT025 OVC040=
201311091128 TAF KSEA 091128Z 0912/1018 00000KT P6SM FEW080 SCT120 BKN200 FM092000
                       VRB03KT P6SM OVC045 FM100200 04005KT P6SM
                       -RA SCT025 OVC040=
201311090911 TAF AMD KSEA 090911Z 0909/1012 12004KT P6SM FEW020 BKN040 FM091700
                       16005KT P6SM BKN060 OVC100 FM092100 14005KT
                       P6SM -RA BKN035 OVC060=
201311090525 TAF KSEA 090525Z 0906/1012 18005KT P6SM SCT028 BKN035 BKN090 FM091700
                       16005KT P6SM BKN060 OVC100 FM092100 14005KT
                       P6SM -RA BKN035 OVC060=
201311090314 TAF AMD KSEA 090314Z 0903/1006 18005KT P6SM SCT045 BKN080 FM090400
                       15004KT P6SM SCT030 BKN120 FM091700 16005KT
                       P6SM BKN060 OVC100 FM092100 14005KT P6SM
                       -RA OVC060=
201311082332 TAF KSEA 082332Z 0900/1006 20009KT P6SM BKN025 BKN140 FM090400
                       15004KT P6SM SCT030 BKN120 FM091700 16005KT
                       P6SM BKN060 OVC100 FM092100 14005KT P6SM
                       -RA OVC060=
201311082101 TAF AMD KSEA 082101Z 0821/0924 18006KT P6SM BKN025 FM090400 VRB03KT
                       P6SM SCT030 BKN120 FM091700 16005KT P6SM
                       BKN060 OVC100 FM092100 14005KT P6SM -RA
                       OVC060=
201311081728 TAF KSEA 081728Z 0818/0924 21007KT P6SM BKN022 BKN045 BKN120 FM082100
                       18006KT P6SM SCT028 BKN120 FM090400 VRB03KT
                       P6SM SCT060 OVC100 FM091700 16005KT P6SM
                       BKN060 OVC100 FM092100 14005KT P6SM -RA
                       OVC060=
201311081502 KSEA 081502Z 0815/0918 20010KT P6SM BKN022 BKN120 FM081800 19006KT
                       P6SM SCT020 BKN030 OVC045 FM082200 17006KT
                       P6SM SCT030 BKN050 FM090400 VRB03KT P6SM
                       SCT060 OVC100=
201311081139 TAF KSEA 081139Z 0812/0918 19012KT P6SM OVC022 FM081800 19006KT
                       P6SM SCT020 BKN030 OVC045 FM082200 17006KT
                       P6SM SCT030 BKN050 FM090400 VRB03KT P6SM
                       SCT060 OVC100=
201311080935 TAF AMD KSEA 080935Z 0810/0912 23012KT P6SM OVC018 FM081800 21006KT
                       P6SM SCT015 BKN025 OVC040 FM082200 21006KT
                       P6SM SCT025 BKN040 BKN070 FM090400 VRB03KT
                       P6SM SCT060=
201311080540 TAF KSEA 080540Z 0806/0912 23010KT P6SM OVC012 FM081000 21010KT
                       P6SM SCT012 BKN018 OVC030 FM081800 21006KT
                       P6SM SCT015 BKN025 OVC040 FM082200 21006KT
                       P6SM SCT025 BKN040 BKN070 FM090400 VRB03KT
                       P6SM SCT060=
201311080307 TAF AMD KSEA 080307Z 0803/0906 20018G28KT P6SM BKN010 OVC020 FM080700
                       20015KT P6SM SCT010 BKN025 OVC050 FM081000
                       20012KT P6SM SCT028 BKN050
                      TEMPO 0816/0820 BKN028 OVC050 FM082000 21006KT
                       P6SM SCT035 BKN050 BKN090
                      PROB30 0820/0902 -SHRA=
201311080101 TAF AMD KSEA 080101Z 0801/0906 19018G28KT 6SM -RA BR BKN015 OVC040
                       FM080600 20015KT P6SM BKN035 OVC050
                      TEMPO 0806/0810 -SHRA FM081000 19012KT P6SM
                       SCT028 BKN050
                      PROB30 0810/0816 -SHRA FM081600 19009KT P6SM
                       SCT028 BKN050
                      TEMPO 0816/0820 BKN028 OVC050 FM082000 21006KT
                       P6SM SCT035 BKN050 BKN090
                      PROB30 0820/0902 -SHRA=
201311072353 TAF AMD KSEA 072353Z 0800/0906 20018G28KT P6SM -RA SCT015 BKN025
                       OVC040 FM080600 20015KT P6SM BKN035 OVC050
                       TEMPO 0806/0810 -SHRA FM081000 19012KT P6SM
                       SCT028 BKN050
                      PROB30 0810/0816 -SHRA FM081600 19009KT P6SM
                       SCT028 BKN050
                      TEMPO 0816/0820 BKN028 OVC050 FM082000 21006KT
                       P6SM SCT035 BKN050 BKN090
                      PROB30 0820/0902 -SHRA=
201311072339 TAF KSEA 072339Z 0800/0906 18018G25KT P6SM -RA FEW016 SCT028 OVC040
                       FM080600 21015KT P6SM BKN025 OVC050 FM081200
                       19013KT P6SM BKN025 BKN050
                      PROB30 0812/0818 -SHRA FM081800 21009KT P6SM
                       SCT030 BKN050=
201311072148 TAF AMD KSEA 072148Z 0722/0824 19018G28KT P6SM -SHRA BKN025 OVC050
                       TEMPO 0722/0724 3SM SHRA BKN020 OVC040 FM080000
                       21018G28KT P6SM -SHRA BKN020 OVC040 FM080600
                       21015KT P6SM BKN025 OVC050 FM081200 19013KT
                       P6SM BKN025 BKN050
                      PROB30 0812/0818 -SHRA FM081800 21009KT P6SM
                       SCT030 BKN050=
201311072110 TAF AMD KSEA 072110Z 0721/0824 17015G22KT P6SM SCT020 OVC050
                      TEMPO 0721/0723 -SHRA BKN020 OVC050 FM072300
                       22018G28KT P6SM -SHRA SCT020 BKN035 OVC050
                       TEMPO 0723/0724 BKN020 OVC035 FM080000 21018G28KT
                       P6SM -SHRA BKN020 OVC040 FM080600 21015KT
                       P6SM BKN025 OVC050
                      PROB30 0806/0812 -SHRA FM081200 19013KT P6SM
                       BKN025 BKN050
                      PROB30 0812/0818 -SHRA FM081800 21009KT P6SM
                       SCT030 BKN050=
201311071933 TAF AMD KSEA 071933Z 0720/0824 17015G22KT P6SM SCT020 OVC050
                      TEMPO 0720/0722 -SHRA BKN020 OVC050 FM072200
                       22018G28KT P6SM -SHRA SCT020 BKN035 OVC050
                       TEMPO 0722/0724 BKN020 OVC035 FM080000 21018G28KT
                       P6SM -SHRA BKN020 OVC040 FM080600 21015KT
                       P6SM BKN025 OVC050
                      PROB30 0806/0812 -SHRA FM081200 19013KT P6SM
                       BKN025 BKN050
                      PROB30 0812/0818 -SHRA FM081800 21009KT P6SM
                       SCT030 BKN050=
201311071908 TAF AMD KSEA 071908Z 0719/0824 19015G22KT P6SM -SHRA FEW009 BKN035
                       OVC050 FM072100 21018G28KT P6SM -SHRA SCT020
                       BKN035 OVC050
                      TEMPO 0721/0724 BKN020 OVC035 FM080000 21018G28KT
                       P6SM -SHRA BKN020 OVC040 FM080600 21015KT
                       P6SM BKN025 OVC050
                      PROB30 0806/0812 -SHRA FM081200 19013KT P6SM
                       BKN025 BKN050
                      PROB30 0812/0818 -SHRA FM081800 21009KT P6SM
                       SCT030 BKN050=
201311071741 TAF KSEA 071741Z 0718/0824 19015G22KT P6SM -SHRA SCT009 BKN015
                       OVC050 FM072000 21018G28KT P6SM -SHRA SCT020
                       BKN035 OVC050
                      TEMPO 0720/0724 BKN020 OVC035 FM080000 21018G28KT
                       P6SM -SHRA BKN020 OVC040 FM080600 21015KT
                       P6SM BKN025 OVC050
                      PROB30 0806/0812 -SHRA FM081200 19013KT P6SM
                       BKN025 BKN050
                      PROB30 0812/0818 -SHRA FM081800 21009KT P6SM
                       SCT030 BKN050=
201311071616 TAF AMD KSEA 071616Z 0716/0818 22020G30KT 6SM SHRA SCT015 OVC030
                       TEMPO 0716/0718 4SM SHRA BKN015 OVC030 FM071800
                       20016G26KT P6SM -SHRA BKN015 BKN030 OVC050
                       FM080000 20016G26KT P6SM -SHRA BKN025 OVC050
                       FM080400 20012KT P6SM SCT025 BKN050 FM081100
                       20008KT P6SM SCT012 OVC022=
201311071140 TAF KSEA 071140Z 0712/0818 14012KT P6SM -RA BKN025 OVC040 FM071600
                       14012KT 4SM -RA BR SCT007 OVC012 FM071800
                       20016G26KT P6SM -SHRA BKN015 BKN030 OVC050
                       FM080000 20016G26KT P6SM -SHRA BKN025 OVC050
                       FM080400 20012KT P6SM SCT025 BKN050 FM081100
                       20008KT P6SM SCT012 OVC022=
201311070905 KSEA 070905Z 0709/0812 14012KT P6SM -RA OVC030 FM071500 14012KT
                       4SM -RA BR SCT007 OVC012 FM071800 20020G30KT
                       P6SM -SHRA BKN015 BKN030 OVC050 FM080000
                       20016G25KT P6SM -SHRA BKN025 OVC050 FM080400
                       20012KT P6SM -SHRA BKN025 OVC050=
201311070541 TAF KSEA 070541Z 0706/0812 10008KT P6SM -RA OVC030 FM071100 15010KT
                       4SM -RA BR SCT007 OVC012 FM071800 20020G30KT
                       P6SM -SHRA BKN015 BKN030 OVC050 FM080000
                       20016G25KT P6SM -SHRA BKN025 OVC050 FM080400
                       20012KT P6SM -SHRA BKN025 OVC050=
201311070317 TAF AMD KSEA 070317Z 0703/0806 VRB03KT P6SM -RA SCT030 OVC050 FM071100
                       14008KT 6SM -RA BR SCT012 OVC030 FM071500
                       17013G20KT 4SM -RA BR SCT007 OVC012 FM071800
                       20020G30KT P6SM -SHRA BKN015 BKN030 OVC050
                       FM080000 20016G25KT P6SM -SHRA BKN025 OVC050=
201311062340 TAF KSEA 062340Z 0700/0806 03005KT P6SM -RA FEW025 OVC070 FM070300
                       09007KT P6SM -RA SCT030 OVC050 FM070900
                       14011KT 6SM -RA BR SCT012 OVC030 FM071500
                       17013G20KT 4SM -RA BR SCT007 OVC012 FM071800
                       20020G30KT P6SM -SHRA BKN015 BKN030 OVC050
                       FM080000 20016G25KT P6SM -SHRA BKN025 OVC050=
201311062101 TAF AMD KSEA 062101Z 0621/0724 04005KT P6SM FEW009 SCT050 OVC090
                       TEMPO 0621/0624 -RA FM070000 12008KT P6SM
                       -RA SCT030 OVC050 FM070900 15011KT 6SM -RA
                       BR SCT012 OVC030 FM071500 17013G20KT 4SM
                       -RA BR SCT007 OVC012 FM071800 20020G30KT
                       P6SM -SHRA BKN015 BKN030 OVC050=
201311061736 TAF KSEA 061736Z 0618/0724 VRB03KT P6SM FEW011 BKN110 OVC200 FM062100
                       09005KT P6SM BKN050 OVC110
                      TEMPO 0621/0624 -RA FM070000 12008KT P6SM
                       -RA SCT030 OVC050 FM070900 15011KT 6SM -RA
                       BR SCT012 OVC030 FM071500 17013G20KT 4SM
                       -RA BR SCT007 OVC012 FM071800 20020G30KT
                       P6SM -SHRA BKN015 BKN030 OVC050=
201311061524 TAF AMD KSEA 061524Z 0615/0718 VRB03KT P6SM SCT015 BKN130 OVC200
                       TEMPO 0615/0618 BKN015 OVC130 FM061800 11006KT
                       P6SM SCT050 OVC100 FM062200 11006KT P6SM
                       -RA OVC040 FM070800 14008KT 4SM -RA OVC020
                       FM071700 20020G30KT P6SM -RA OVC020=
201311061136 TAF KSEA 061136Z 0612/0718 11006KT P6SM SCT012 BKN050
                      TEMPO 0612/0615 BKN012 OVC050 FM061800 11006KT
                       P6SM SCT050 OVC100 FM062200 11006KT P6SM
                       -RA OVC040 FM070800 14008KT 4SM -RA OVC020
                       FM071700 20020G30KT P6SM -RA OVC020=
201311060937 TAF AMD KSEA 060937Z 0610/0712 16006KT P6SM BKN070 BKN250 FM061100
                       11006KT P6SM SCT070 BKN250 FM061800 11006KT
                       P6SM SCT060 OVC100 FM062200 11006KT P6SM
                       -RA OVC040 FM070800 14008KT P6SM -RA OVC020=
201311060540 TAF KSEA 060540Z 0606/0712 20006KT P6SM BKN070 FM061100 11006KT
                       P6SM SCT070 FM061800 11006KT P6SM SCT060
                       OVC100 FM062200 11006KT P6SM -RA OVC040
                       FM070800 14008KT P6SM -RA OVC020=
201311060208 KSEA 060208Z 0602/0706 23009KT P6SM SCT024 BKN050 BKN250
                      TEMPO 0603/0607 BKN024 OVC050 FM060700 18005KT
                       P6SM OVC025 FM061200 12004KT P6SM OVC020
                       FM061800 14004KT P6SM BKN035 OVC100=
201311052326 TAF KSEA 052326Z 0600/0706 20007KT P6SM VCSH SCT030 BKN050
                      TEMPO 0600/0602 33008KT BKN025 FM060200 VRB05KT
                       P6SM VCSH SCT015 OVC025
                      TEMPO 0603/0607 33006KT 5SM -SHRA BKN015
                       FM061200 12004KT P6SM OVC020 FM061800 14004KT
                       P6SM BKN035 OVC100=
201311052103 KSEA 052103Z 0521/0624 20012G20KT P6SM FEW012 BKN045 BKN120 FM060400
                       20005KT P6SM VCSH SCT018 OVC025 FM061200
                       VRB04KT P6SM VCSH OVC020=
201311051940 TAF AMD KSEA 051940Z 0520/0624 20010KT P6SM SCT009 BKN035 FM052100
                       20010KT P6SM BKN035 FM060300 VRB04KT P6SM
                       VCSH SCT018 OVC025=
201311051721 TAF KSEA 051721Z 0518/0624 18007KT P6SM VCSH SCT009 BKN016 OVC020
                       TEMPO 0518/0520 2SM -RA BR BKN005 FM052000
                       20006KT P6SM OVC020 FM060300 VRB04KT P6SM
                       VCSH SCT018 OVC025=
201311051524 TAF AMD KSEA 051524Z 0515/0618 13004KT P6SM VCSH BKN016 OVC020
                       FM052000 20006KT P6SM SCT018 OVC025 FM060000
                       20006KT P6SM BKN025 OVC040=
201311051140 TAF KSEA 051140Z 0512/0618 12006KT P6SM -RA OVC015
                      TEMPO 0512/0514 3SM -RA FM051400 15006KT
                       P6SM SCT006 BKN012 OVC020
                      TEMPO 0514/0518 4SM BR BKN006 OVC012 FM052000
                       20006KT P6SM SCT012 OVC020 FM060000 20006KT
                       P6SM BKN025 OVC040=
201311050918 TAF AMD KSEA 050918Z 0509/0612 14006KT P6SM -RA OVC025 FM051400
                       18006KT P6SM BKN010 OVC020 FM051900 20006KT
                       P6SM SCT012 OVC020 FM052300 20006KT P6SM
                       BKN025 OVC040=
201311050541 TAF KSEA 050541Z 0506/0612 13006KT P6SM -RA OVC035 FM051000 15006KT
                       P6SM -RA BKN015 OVC025 FM051400 18006KT
                       P6SM BKN010 OVC020 FM051900 20006KT P6SM
                       SCT012 OVC020 FM052300 20006KT P6SM BKN025
                       OVC040=
201311050310 TAF AMD KSEA 050310Z 0503/0606 13006KT P6SM -RA OVC035 FM050800
                       15006KT P6SM -RA OVC018 FM051200 17004KT
                       P6SM -RA OVC010 FM051600 20006KT P6SM SCT012
                       OVC020=
201311042320 TAF KSEA 042320Z 0500/0606 VRB04KT P6SM SCT040 OVC100 FM050400
                       15006KT P6SM -RA OVC040 FM050800 15006KT
                       P6SM -RA OVC018 FM051200 17004KT P6SM -RA
                       OVC010 FM051900 20006KT P6SM OVC020=
201311042054 TAF AMD KSEA 042054Z 0421/0524 VRB04KT P6SM SCT030 BKN200 FM042300
                       VRB04KT P6SM BKN040 OVC100 FM050400 15006KT
                       P6SM -RA OVC040 FM050800 15006KT P6SM -RA
                       OVC018 FM051200 17004KT P6SM -RA OVC010
                       FM051900 20006KT P6SM OVC030=
201311041720 TAF KSEA 041720Z 0418/0524 13003KT P6SM SCT006 SCT060 FM041900
                       VRB04KT P6SM SCT060 BKN100 FM042300 VRB04KT
                       P6SM BKN060 OVC100 FM050400 15006KT P6SM
                       -RA OVC040 FM050800 15006KT P6SM -RA OVC018
                       FM051200 17004KT P6SM -RA OVC010=
201311041135 TAF KSEA 041135Z 0412/0518 13003KT P6SM SCT060
                      TEMPO 0412/0416 SCT030 BKN050 FM041900 VRB04KT
                       P6SM SCT060 BKN100 FM042300 VRB04KT P6SM
                       BKN060 OVC100 FM050400 15006KT P6SM -RA
                       OVC040 FM050800 15006KT P6SM -RA OVC018=
201311040905 TAF AMD KSEA 040905Z 0409/0512 13005KT P6SM BKN050 OVC080 FM041200
                       10006KT P6SM SCT012 BKN250 FM042000 12004KT
                       P6SM SCT030 BKN120 OVC250 FM050600 13004KT
                       P6SM -RA OVC025=
201311040630 TAF AMD KSEA 040630Z 0407/0512 01009KT 3SM -SHRA BKN022 OVC030
                       FM040700 VRB04KT P6SM SCT030 BKN060 FM041200
                       10006KT P6SM SCT012 BKN250 FM042000 12004KT
                       P6SM SCT030 BKN120 OVC250 FM050600 13004KT
                       P6SM -RA OVC025=
201311040525 TAF KSEA 040525Z 0406/0512 00000KT P6SM FEW045 BKN070 OVC090 FM041200
                       10006KT P6SM SCT012 BKN250 FM042000 12004KT
                       P6SM SCT030 BKN120 OVC250 FM050600 13004KT
                       P6SM -RA OVC025=
201311040300 TAF AMD KSEA 040300Z 0403/0506 00000KT P6SM VCSH BKN040 OVC050
                       FM040500 14005KT P6SM SCT025 BKN250 FM041200
                       10006KT P6SM SCT012 BKN250 FM042000 12004KT
                       P6SM SCT030 BKN120 OVC250=
201311040123 TAF AMD KSEA 040123Z 0401/0506 03006KT P6SM VCSH BKN045 BKN090
                       FM040500 14005KT P6SM SCT025 BKN250 FM041200
                       10006KT P6SM SCT012 BKN250 FM042000 12004KT
                       P6SM SCT030 BKN120 OVC250=
201311032320 TAF KSEA 032320Z 0400/0506 VRB04KT P6SM VCSH FEW025 SCT050 FM040600
                       14005KT P6SM SCT025 BKN250 FM041200 10006KT
                       P6SM SCT012 BKN250 FM042000 12004KT P6SM
                       SCT030 BKN120 OVC250=
201311032111 TAF AMD KSEA 032111Z 0321/0424 24006KT P6SM VCSH FEW025 SCT030
                       BKN050 FM040400 14005KT P6SM SCT030 BKN250
                       FM041200 14006KT P6SM SCT018 BKN250 FM042000
                       12004KT P6SM SCT020 BKN120 BKN250=
201311031805 TAF AMD KSEA 031805Z 0318/0424 19006KT P6SM SCT020 BKN050
                      TEMPO 0318/0320 BKN020 FM032000 18006KT P6SM
                       VCSH SCT030 BKN050 FM040400 14005KT P6SM
                       SCT030 BKN250 FM041200 14006KT P6SM SCT018
                       BKN250 FM042000 12004KT P6SM SCT020 BKN120
                       BKN250=
201311031730 TAF KSEA 031730Z 0318/0424 19006KT P6SM SCT015 BKN050 FM032000
                       18006KT P6SM VCSH SCT030 BKN050 FM040400
                       14005KT P6SM SCT030 BKN250 FM041200 14006KT
                       P6SM SCT018 BKN250 FM042000 12004KT P6SM
                       SCT020 BKN120 BKN250=
201311031504 TAF AMD KSEA 031504Z 0315/0418 18004KT P6SM SCT015 BKN040 FM031800
                       20007KT P6SM VCSH SCT030 BKN050 FM032300
                       23006KT P6SM SCT040 BKN080 FM040400 14005KT
                       P6SM BKN100 BKN250 FM041200 14006KT P6SM
                       BKN018=
201311031135 TAF KSEA 031135Z 0312/0418 19004KT P6SM SCT015 SCT070
                      TEMPO 0312/0316 BKN015 FM031800 20007KT P6SM
                       VCSH SCT030 BKN050 FM032300 23006KT P6SM
                       SCT040 BKN080 FM040400 14005KT P6SM BKN100
                       BKN250 FM041200 14006KT P6SM BKN018=
201311030900 TAF AMD KSEA 030900Z 0309/0412 23011KT P6SM SCT016
                      TEMPO 0309/0312 BKN016 FM031200 19008KT P6SM
                       BKN015 OVC030 FM031800 19007KT P6SM VCSH
                       SCT030 BKN050 FM032200 24006KT P6SM SCT040
                       BKN080 FM040600 VRB03KT P6SM SCT080 BKN250=
201311030530 TAF KSEA 030530Z 0306/0412 22007KT P6SM VCSH BKN023 OVC100
                      TEMPO 0307/0310 32007KT SCT023 BKN100 FM031000
                       19008KT P6SM OVC025 FM031800 19007KT P6SM
                       VCSH SCT030 BKN050 FM032200 24006KT P6SM
                       SCT040 BKN080 FM040600 VRB03KT P6SM SCT080
                       BKN250=
201311030345 TAF AMD KSEA 030345Z 0304/0406 21012G20KT P6SM VCSH BKN025
                      TEMPO 0306/0310 SCT030 BKN040 FM031000 20010KT
                       P6SM OVC025=
201311022320 TAF KSEA 022320Z 0300/0406 21020G35KT P6SM VCSH SCT030 BKN040 BKN120
                       FM030600 22012G22KT P6SM VCSH SCT030 BKN040
                       FM031000 20010KT P6SM OVC025=
201311022102 TAF AMD KSEA 022102Z 0221/0324 21030G40KT P6SM VCSH BKN030 BKN040
                       FM030100 20025G35KT P6SM VCSH SCT025 BKN040
                       FM030600 22014G22KT P6SM VCSH SCT030 BKN050
                       FM031000 20010KT P6SM OVC025=
201311021720 TAF KSEA 021720Z 0218/0324 20030G45KT P6SM VCSH SCT020 BKN040
                      TEMPO 0218/0222 -SHRA BKN020 FM030100 20025G35KT
                       P6SM VCSH SCT025 BKN040 FM030600 22014G22KT
                       P6SM VCSH SCT030 BKN050 FM031000 20010KT
                       P6SM OVC025=
201311021503 KSEA 021503Z 0215/0318 20020G35KT P6SM -SHRA SCT025 BKN040
                      TEMPO 0215/0218 BKN025 FM021800 20020G35KT
                       P6SM VCSH SCT030 BKN040
                      TEMPO 0220/0224 22030G40KT FM030600 22014G22KT
                       P6SM VCSH BKN050 FM031000 20010KT P6SM VCSH
                       OVC025=
201311021130 TAF KSEA 021130Z 0212/0318 17010KT 6SM -RA SCT007 BKN023 OVC030
                       TEMPO 0212/0216 3SM -RA BR BKN007 OVC023
                       FM021600 17016G24KT P6SM -RA OVC018 FM021800
                       20020G30KT P6SM VCSH BKN022 BKN030
                      TEMPO 0220/0224 22025G35KT FM030600 22014G22KT
                       P6SM VCSH BKN050 FM031000 20010KT P6SM VCSH
                       OVC025=
201311020905 KSEA 020905Z 0209/0312 18005KT 5SM -RA BR SCT010 OVC040
                      TEMPO 0209/0212 3SM -RA BR BKN010 OVC035
                       FM021200 18007KT 3SM -RA BR OVC018 FM021400
                       15014G22KT P6SM -SHRA OVC018 FM021800 20020G30KT
                       P6SM VCSH BKN022 BKN030
                      TEMPO 0220/0224 22025G35KT FM030600 22014G22KT
                       P6SM VCSH BKN050=
201311020530 TAF KSEA 020530Z 0206/0312 16003KT P6SM OVC090
                      TEMPO 0206/0208 5SM -RA BR OVC050 FM020800
                       18007KT 5SM -RA BR OVC018 FM021400 15014G22KT
                       P6SM -SHRA OVC018 FM021800 20020G30KT P6SM
                       VCSH BKN022 BKN030
                      TEMPO 0220/0224 22025G35KT FM030600 22014G22KT
                       P6SM VCSH BKN050=
201311020305 TAF AMD KSEA 020305Z 0203/0306 00000KT P6SM SCT130 BKN230 FM020400
                       12006KT P6SM -RA SCT020 OVC040 FM020800
                       18007KT 5SM -RA BR OVC018 FM021400 15014G22KT
                       P6SM -SHRA OVC018 FM021800 20020G30KT P6SM
                       VCSH BKN022 BKN030
                      TEMPO 0220/0224 22025G35KT=
201311012325 TAF KSEA 012325Z 0200/0306 12006KT P6SM SCT015 OVC100 FM020400
                       12006KT P6SM -RA SCT020 OVC040 FM020800
                       18007KT 5SM -RA BR OVC018 FM021400 15014G22KT
                       P6SM -SHRA OVC018 FM021800 20020G30KT P6SM
                       VCSH BKN022 BKN030
                      TEMPO 0220/0224 22025G35KT=
201311012103 TAF AMD KSEA 012103Z 0121/0224 16006KT P6SM FEW015 BKN100 FM020000
                       12004KT P6SM SCT015 OVC100 FM020400 12006KT
                       P6SM -RA SCT020 OVC040 FM020800 18007KT
                       5SM -RA BR OVC018 FM021400 15014G22KT P6SM
                       -RA OVC018 FM021800 20020G30KT P6SM -SHRA
                       BKN022 BKN030=
201311011720 TAF KSEA 011720Z 0118/0224 16006KT P6SM SCT020 BKN120 FM020000
                       04004KT P6SM SCT020 OVC100 FM020400 09006KT
                       P6SM -RA SCT020 OVC040 FM020800 18007KT
                       5SM -RA BR OVC018 FM021400 15014G22KT P6SM
                       -RA OVC018 FM021800 20020G30KT P6SM -SHRA
                       BKN022 BKN030=
201311011506 TAF AMD KSEA 011506Z 0115/0218 18006KT P6SM BKN020 BKN140 FM011800
                       16006KT P6SM SCT020 BKN120 FM020000 04004KT
                       P6SM SCT020 OVC100 FM020400 09006KT P6SM
                       -RA SCT020 OVC040 FM020800 18007KT 5SM -RA
                       BR OVC018 FM021500 15014G22KT P6SM -RA OVC018=
201311011125 TAF KSEA 011125Z 0112/0218 19006KT P6SM SCT004 OVC023
                      TEMPO 0112/0116 4SM BR OVC004 FM011800 00000KT
                       P6SM BKN015 FM012000 12006KT P6SM SCT015
                       BKN120 FM020000 04004KT P6SM SCT020 OVC100
                       FM020400 09006KT P6SM -RA SCT020 OVC040
                       FM020800 18007KT 5SM -RA BR OVC018 FM021500
                       15014G22KT P6SM -RA OVC018=
201311010520 TAF KSEA 010520Z 0106/0212 16004KT P6SM OVC011 FM011000 16004KT
                       P6SM OVC007
                      TEMPO 0112/0116 4SM BR OVC004 FM011600 00000KT
                       P6SM BKN015 FM012000 12006KT P6SM SCT015
                       BKN120 FM020000 04004KT P6SM SCT020 OVC100
                       FM020400 09006KT P6SM -RA SCT020 OVC040=
201311010300 KSEA 010300Z 0103/0206 00000KT P6SM OVC007
                      TEMPO 0103/0106 P6SM BKN011 OVC022 FM011000
                       16004KT P6SM OVC007
                      TEMPO 0112/0116 4SM BR OVC004 FM011600 00000KT
                       P6SM BKN015 FM012000 12007KT P6SM SCT015
                       BKN120 FM020000 12010KT P6SM SCT020 OVC100=