##########################################################
# Query made at 02/17/2025 19:00:59 UTC
# Time interval: from 01/01/2014 00:00  to 01/31/2014 23:59  UTC
##########################################################

##########################################################
# KSEA, Seattle, Seattle-Tacoma International Airport (United States)
# WMO index: 72793. WIGOS ID: 0-20000-0-72793
# Latitude 47-27-00N. Longitude 122-17-59W. Altitude 130 m.
##########################################################

###################################
#  METAR/SPECI from KSEA
###################################
201401312353 METAR KSEA 312353Z 03003KT 10SM SCT030 BKN036 07/02 A3011 RMK AO2 SLP205 T00720017 10078 20056 53008=
201401312253 METAR KSEA 312253Z 35004KT 10SM FEW027 BKN038 08/01 A3010 RMK AO2 SLP202 T00780006=
201401312232 SPECI KSEA 312232Z 36005KT 10SM SCT027 BKN036 07/01 A3010 RMK AO2=
201401312153 METAR KSEA 312153Z 34006KT 10SM FEW011 BKN027 BKN040 08/02 A3009 RMK AO2 SLP198 T00780017=
201401312141 SPECI KSEA 312141Z 34005KT 10SM FEW011 BKN027 BKN040 08/02 A3009 RMK AO2=
201401312102 SPECI KSEA 312102Z 00000KT 10SM SCT011 BKN032 BKN080 07/03 A3009 RMK AO2=
201401312053 METAR KSEA 312053Z 01005KT 10SM SCT010 BKN029 BKN080 08/03 A3009 RMK AO2 SLP197 T00780033 50005=
201401311953 METAR KSEA 311953Z 32004KT 10SM SCT007 OVC025 06/03 A3009 RMK AO2 SLP198 T00610028=
201401311853 METAR KSEA 311853Z 36007KT 10SM FEW006 SCT013 OVC021 06/04 A3009 RMK AO2 SLP198 T00610039=
201401311823 SPECI KSEA 311823Z 36008KT 10SM FEW005 SCT013 BKN020 06/04 A3008 RMK AO2=
201401311753 METAR KSEA 311753Z 36008KT 7SM SCT005 OVC012 06/04 A3007 RMK AO2 DZE51 SLP192 P0001 60009 T00560039 10061 20056 51025=
201401311717 SPECI KSEA 311717Z 36007KT 4SM -DZ BR BKN005 OVC009 06/04 A3006 RMK AO2 P0001=
201401311653 METAR KSEA 311653Z 34005KT 2 1/2SM -DZ BR BKN003 OVC009 06/04 A3005 RMK AO2 SLP184 P0003 T00560044=
201401311553 METAR KSEA 311553Z 00000KT 2SM -DZ BR BKN003 OVC012 06/04 A3002 RMK AO2 TWR VIS 3 SLP175 P0004 T00560044=
201401311547 SPECI KSEA 311547Z 33003KT 2SM -DZ BR BKN003 OVC012 06/04 A3002 RMK AO2 P0004=
201401311453 METAR KSEA 311453Z 23006KT 2SM -DZ BR BKN006 OVC012 06/04 A3000 RMK AO2 SLP167 VIS E 5 P0000 60001 T00610044 53012=
201401311353 METAR KSEA 311353Z 23004KT 5SM -DZ BR OVC006 06/04 A2999 RMK AO2 RAB24E35DZB35 SLP163 P0001 T00610044=
201401311351 SPECI KSEA 311351Z 24004KT 5SM -DZ BR OVC006 06/04 A2999 RMK AO2 RAB24E35DZB35 P0001=
201401311335 SPECI KSEA 311335Z 22005KT 2SM -DZ BR OVC004 06/04 A2998 RMK AO2 RAB24E35DZB35 P0000=
201401311253 METAR KSEA 311253Z 21007KT 6SM BR OVC008 06/04 A2997 RMK AO2 RAE36 SLP158 P0000 T00610044=
201401311153 METAR KSEA 311153Z 22007KT 3SM -RA BR OVC008 06/04 A2996 RMK AO2 RAB01E26B46 SLP155 P0000 60000 T00610044 10067 20061 53014=
201401311053 METAR KSEA 311053Z 20005KT 9SM OVC008 06/04 A2995 RMK AO2 SLP149 T00610044=
201401310953 METAR KSEA 310953Z 20008KT 10SM OVC010 06/04 A2994 RMK AO2 RAB01E10 SLP146 P0000 T00610039=
201401310853 METAR KSEA 310853Z 20010KT 10SM OVC013 06/03 A2992 RMK AO2 SLP141 T00610033 50005=
201401310753 METAR KSEA 310753Z 19007KT 10SM OVC013 07/03 A2992 RMK AO2 SLP141 T00670033 400830061=
201401310721 SPECI KSEA 310721Z 20009KT 10SM OVC015 07/03 A2991 RMK AO2=
201401310653 METAR KSEA 310653Z 19009KT 10SM OVC013 07/03 A2992 RMK AO2 SLP139 T00670033=
201401310553 METAR KSEA 310553Z 19008KT 10SM OVC013 07/03 A2991 RMK AO2 SLP136 T00670033 10078 20061 51009=
201401310453 METAR KSEA 310453Z 19009KT 10SM OVC013 07/03 A2990 RMK AO2 SLP134 T00670033=
201401310353 METAR KSEA 310353Z 18010KT 10SM OVC011 06/03 A2989 RMK AO2 SLP130 T00610033=
201401310253 METAR KSEA 310253Z 18008KT 10SM OVC013 06/03 A2988 RMK AO2 SLP127 T00610033 53009=
201401310153 METAR KSEA 310153Z 19011KT 10SM OVC013 07/03 A2987 RMK AO2 SLP124 T00670033=
201401310142 SPECI KSEA 310142Z 19011KT 10SM OVC013 07/03 A2987 RMK AO2=
201401310053 METAR KSEA 310053Z 19013G18KT 10SM OVC015 07/04 A2986 RMK AO2 SLP120 T00720039=
201401302353 METAR KSEA 302353Z 21013KT 10SM BKN017 OVC021 08/04 A2986 RMK AO2 SLP118 T00780039 10083 20072 53000=
201401302253 METAR KSEA 302253Z 21015KT 10SM BKN017 BKN023 OVC090 08/04 A2984 RMK AO2 PK WND 22026/2155 SLP112 T00780039=
201401302224 SPECI KSEA 302224Z 19015G24KT 10SM FEW015 BKN028 BKN090 08/04 A2984 RMK AO2 PK WND 22026/2155=
201401302153 METAR KSEA 302153Z 22017G23KT 10SM FEW025 BKN090 BKN200 08/03 A2984 RMK AO2 SLP114 T00830033=
201401302121 SPECI KSEA 302121Z 22017G24KT 10SM SCT025 BKN095 08/04 A2985 RMK AO2=
201401302053 METAR KSEA 302053Z 22015G23KT 10SM SCT022 BKN029 BKN120 08/03 A2985 RMK AO2 PK WND 21027/2042 SLP117 T00780033 58005=
201401302014 SPECI KSEA 302014Z 21016G23KT 10SM BKN025 BKN080 08/03 A2986 RMK AO2=
201401301953 METAR KSEA 301953Z 21016G26KT 10SM SCT025 BKN070 OVC080 08/03 A2986 RMK AO2 PK WND 20026/1948 SLP120 T00830033=
201401301918 SPECI KSEA 301918Z 22015G25KT 10SM SCT022 BKN080 OVC095 08/04 A2987 RMK AO2=
201401301853 METAR KSEA 301853Z 21014G24KT 10SM SCT020 BKN025 08/04 A2988 RMK AO2 SLP125 T00780039=
201401301753 METAR KSEA 301753Z 21018G25KT 10SM BKN020 OVC026 07/04 A2987 RMK AO2 SLP123 T00720039 10072 20067 53012=
201401301653 METAR KSEA 301653Z 21011G19KT 10SM OVC016 07/04 A2986 RMK AO2 SLP118 T00720044=
201401301553 METAR KSEA 301553Z 20013KT 10SM OVC016 07/04 A2984 RMK AO2 SLP114 T00670039=
201401301453 METAR KSEA 301453Z 20013KT 10SM OVC016 07/04 A2983 RMK AO2 SLP110 T00720039 58000=
201401301353 METAR KSEA 301353Z 20012KT 10SM OVC016 07/04 A2983 RMK AO2 SLP110 T00670044=
201401301253 METAR KSEA 301253Z 20009G17KT 10SM OVC018 07/04 A2984 RMK AO2 SLP113 T00720044=
201401301222 SPECI KSEA 301222Z 21015KT 10SM OVC016 07/04 A2984 RMK AO2=
201401301153 METAR KSEA 301153Z 20013KT 10SM OVC014 07/05 A2983 RMK AO2 SLP111 60002 70048 T00720050 10083 20072 53007=
201401301053 METAR KSEA 301053Z 20012G19KT 10SM OVC014 07/05 A2983 RMK AO2 SLP107 T00720050=
201401301008 SPECI KSEA 301008Z 19010G20KT 10SM BKN012 OVC020 07/05 A2982 RMK AO2=
201401300953 METAR KSEA 300953Z 19018G23KT 10SM FEW010 BKN016 OVC021 07/05 A2982 RMK AO2 SLP104 T00720050=
201401300853 METAR KSEA 300853Z 19014G20KT 10SM SCT020 OVC027 08/05 A2981 RMK AO2 SLP103 60002 T00780050 50000=
201401300801 SPECI KSEA 300801Z 21012G21KT 10SM BKN016 BKN020 OVC025 08/06 A2981 RMK AO2=
201401300753 METAR KSEA 300753Z 20016G22KT 10SM OVC014 08/06 A2981 RMK AO2 RAE37 SLP103 P0001 T00830056 401110072=
201401300707 SPECI KSEA 300707Z 20009KT 4SM -RA BR BKN003 OVC018 08/07 A2982 RMK AO2 P0001=
201401300653 METAR KSEA 300653Z 18009KT 4SM -RA BR FEW005 OVC018 08/07 A2982 RMK AO2 RAB51 SLP104 P0001 T00780067=
201401300621 SPECI KSEA 300621Z 18008KT 9SM SCT002 OVC026 08/06 A2981 RMK AO2=
201401300553 METAR KSEA 300553Z 19006KT 2SM BR BKN002 OVC028 08/07 A2981 RMK AO2 SFC VIS 4 RAB35E44 SLP103 P0000 60011 T00780067 10083 20078 51018=
201401300530 SPECI KSEA 300530Z 21008KT 2SM BR FEW003 OVC028 08/07 A2981 RMK AO2 SFC VIS 5=
201401300528 SPECI KSEA 300528Z 21007KT 2SM BR OVC028 08/07 A2981 RMK AO2 SFC VIS 5=
201401300453 METAR KSEA 300453Z 18005KT 10SM FEW018 OVC033 08/07 A2980 RMK AO2 RAB02E12B35E47 SLP098 P0000 T00780067=
201401300435 SPECI KSEA 300435Z 00000KT 9SM -RA FEW014 OVC031 08/06 A2980 RMK AO2 RAB02E12B35 P0000=
201401300353 METAR KSEA 300353Z 00000KT 10SM FEW009 OVC029 08/06 A2979 RMK AO2 SLP093 T00830061=
201401300322 SPECI KSEA 300322Z 06005KT 10SM SCT009 OVC029 08/06 A2977 RMK AO2=
201401300305 SPECI KSEA 300305Z 00000KT 10SM SCT009 BKN035 OVC055 08/06 A2977 RMK AO2=
201401300253 METAR KSEA 300253Z 35003KT 10SM BKN037 OVC055 08/06 A2976 RMK AO2 RAE36 SLP085 P0009 60011 T00780061 51027=
201401300153 METAR KSEA 300153Z 35006KT 6SM -RA BR FEW006 SCT010 OVC042 08/06 A2975 RMK AO2 RAB0057 SLP081 P0001 T00780061=
201401300142 SPECI KSEA 300142Z 34006KT 10SM -RA FEW006 SCT011 OVC042 08/06 A2975 RMK AO2 RAB0057 P0000=
201401300053 METAR KSEA 300053Z 35013KT 10SM OVC006 08/07 A2971 RMK AO2 RAE25 SLP068 P0001 T00830067=
201401300004 SPECI KSEA 300004Z 35010KT 7SM -RA BKN006 BKN020 OVC025 08/07 A2969 RMK AO2 P0000=
201401292353 METAR KSEA 292353Z 35011KT 2 1/2SM -RA BR BKN006 BKN010 OVC022 08/07 A2968 RMK AO2 SFC VIS 3 SLP058 P0012 60020 T00830067 10111 20083 53012=
201401292324 SPECI KSEA 292324Z 35011KT 2 1/2SM -RA BR BKN004 OVC018 09/07 A2966 RMK AO2 P0010=
201401292301 SPECI KSEA 292301Z 25006KT 2SM RA BR SCT003 BKN008 OVC024 10/09 A2965 RMK AO2 TWR VIS 2 1/2 P0001=
201401292253 METAR KSEA 292253Z 24005KT 2 1/2SM -RA BR FEW006 BKN019 OVC024 11/09 A2964 RMK AO2 SFC VIS 3 RAB20 SLP044 P0002 T01060089=
201401292215 SPECI KSEA 292215Z 23005KT 2 1/2SM BR FEW006 BKN015 OVC019 11/09 A2963 RMK AO2 SFC VIS 4=
201401292153 METAR KSEA 292153Z 20005KT 7SM SCT006 OVC016 11/09 A2963 RMK AO2 RAE53 SLP041 P0001 T01060094=
201401292134 SPECI KSEA 292134Z 22007KT 7SM BKN006 BKN011 OVC018 11/09 A2963 RMK AO2 RAE34 P0001=
201401292053 METAR KSEA 292053Z 20009KT 5SM -RA BR SCT009 BKN018 OVC047 11/08 A2965 RMK AO2 SLP045 P0004 60005 T01060083 56023=
201401291953 METAR KSEA 291953Z 21007KT 7SM -RA SCT008 BKN021 OVC032 11/08 A2967 RMK AO2 RAE02B18 SLP052 P0000 T01060083=
201401291916 SPECI KSEA 291916Z 19009KT 5SM BR FEW008 BKN022 OVC041 11/09 A2968 RMK AO2 RAE02 P0000=
201401291853 METAR KSEA 291853Z 19008KT 10SM -RA FEW008 BKN035 OVC049 11/08 A2969 RMK AO2 SLP059 P0001 T01110083=
201401291832 SPECI KSEA 291832Z 18009KT 9SM -RA FEW008 BKN031 OVC043 11/09 A2970 RMK AO2 P0000=
201401291753 METAR KSEA 291753Z 21006KT 3SM R16L/4500VP6000FT RA BR SCT007 OVC015 10/08 A2971 RMK AO2 RAE10B45 SLP069 VIS SW-NW 1 P0003 60015 T01000083 10106 20072 58019=
201401291731 SPECI KSEA 291731Z 20004KT 10SM FEW007 BKN016 OVC026 11/08 A2972 RMK AO2 RAE10 P0000=
201401291653 METAR KSEA 291653Z 15007KT 4SM -RA BR SCT007 BKN012 OVC027 10/08 A2973 RMK AO2 RAE1556B38 SLP073 P0000 T01000083=
201401291643 SPECI KSEA 291643Z 14007KT 3SM -RA BR BKN008 OVC027 09/08 A2973 RMK AO2 RAE1556B38 P0000=
201401291558 SPECI KSEA 291558Z 14007KT 7SM SCT003 BKN023 OVC070 09/08 A2976 RMK AO2 RAE56 P0000=
201401291553 METAR KSEA 291553Z 15007KT 4SM -RA BR BKN003 BKN024 OVC035 09/08 A2976 RMK AO2 RAE21B39 SLP084 P0001 T00890078=
201401291523 SPECI KSEA 291523Z 17006KT 3SM BR BKN003 OVC006 08/07 A2977 RMK AO2 RAE21 P0001=
201401291453 METAR KSEA 291453Z 15008KT 3SM -RA BR SCT003 OVC005 08/07 A2977 RMK AO2 SLP088 P0002 60011 T00830072 58014=
201401291400 SPECI KSEA 291400Z 13006KT 3SM -RA BR BKN007 OVC012 08/07 A2978 RMK AO2 P0001=
201401291353 METAR KSEA 291353Z 14007KT 3SM -RA BR BKN010 OVC014 08/07 A2978 RMK AO2 SLP092 P0006 T00780067=
201401291341 SPECI KSEA 291341Z 11005KT 3SM -RA BR FEW008 OVC014 08/07 A2978 RMK AO2 P0006=
201401291328 SPECI KSEA 291328Z 12005KT 2SM -RA BR SCT008 OVC014 08/07 A2978 RMK AO2 P0005=
201401291253 METAR KSEA 291253Z 12005KT 3SM RA BR OVC006 08/07 A2980 RMK AO2 RAB18 SLP099 P0003 T00780067=
201401291231 SPECI KSEA 291231Z 14005KT 3SM -RA BR FEW003 OVC008 08/07 A2981 RMK AO2 RAB18 P0002=
201401291211 SPECI KSEA 291211Z 14008KT 10SM SCT003 OVC010 08/07 A2981 RMK AO2=
201401291153 METAR KSEA 291153Z 14007KT 10SM OVC003 07/07 A2981 RMK AO2 RAE45 SLP102 P0003 60061 70072 T00720067 10083 20072 56022=
201401291146 SPECI KSEA 291146Z 14008KT 3SM BR OVC003 07/07 A2982 RMK AO2 RAE45 P0003=
201401291138 SPECI KSEA 291138Z 12009KT 1 1/2SM R16L/4500VP6000FT -RA BR OVC003 07/07 A2981 RMK AO2 P0003=
201401291053 METAR KSEA 291053Z 13006KT 7SM -RA OVC003 07/06 A2984 RMK AO2 SLP110 P0008 T00720061=
201401290953 METAR KSEA 290953Z 15003KT 5SM -RA BR BKN007 BKN019 OVC025 07/06 A2985 RMK AO2 SLP115 P0014 T00720061=
201401290904 SPECI KSEA 290904Z 00000KT 4SM RA BR BKN005 BKN016 OVC027 08/07 A2988 RMK AO2 P0003=
201401290853 METAR KSEA 290853Z 00000KT 2SM RA BR SCT005 BKN014 OVC034 08/07 A2988 RMK AO2 SLP124 P0013 60036 T00780067 56031=
201401290846 SPECI KSEA 290846Z 00000KT 2 1/2SM RA BR SCT005 BKN014 OVC023 08/07 A2988 RMK AO2 P0012=
201401290837 SPECI KSEA 290837Z 23003KT 5SM RA BR SCT005 BKN014 OVC030 08/07 A2989 RMK AO2 P0010=
201401290753 METAR KSEA 290753Z 04004KT 5SM RA BR FEW005 OVC026 08/07 A2989 RMK AO2 SLP130 P0014 T00780067 401110061=
201401290735 SPECI KSEA 290735Z 02004KT 4SM RA BR FEW005 BKN028 OVC033 08/07 A2991 RMK AO2 P0010=
201401290728 SPECI KSEA 290728Z 05004KT 4SM R16L/6000VP6000FT RA BR FEW005 SCT025 OVC031 08/07 A2991 RMK AO2 P0009=
201401290653 METAR KSEA 290653Z 03005KT 5SM RA BR FEW010 BKN046 OVC055 08/07 A2994 RMK AO2 SLP147 P0009 T00780067=
201401290553 METAR KSEA 290553Z 03006KT 6SM RA BR SCT042 OVC050 08/07 A2997 RMK AO2 SLP157 P0008 60011 T00830067 10106 20083 56025=
201401290453 METAR KSEA 290453Z 35005KT 6SM -RA BR FEW034 SCT040 OVC050 08/07 A3000 RMK AO2 SLP166 P0003 T00830067=
201401290353 METAR KSEA 290353Z 36004KT 10SM -RA BKN040 BKN065 OVC110 09/06 A3001 RMK AO2 RAB31 SLP171 P0000 T00890061=
201401290253 METAR KSEA 290253Z 01005KT 10SM SCT036 BKN042 OVC095 09/06 A3005 RMK AO2 SLP182 T00940056 58028=
201401290234 SPECI KSEA 290234Z 00000KT 10SM FEW025 OVC036 10/06 A3006 RMK AO2=
201401290153 METAR KSEA 290153Z 04007KT 10SM BKN018 OVC037 10/06 A3009 RMK AO2 SLP197 T01000056=
201401290053 METAR KSEA 290053Z 35003KT 10SM OVC018 10/06 A3012 RMK AO2 SLP208 T01000056=
201401282353 METAR KSEA 282353Z 00000KT 10SM OVC018 11/06 A3013 RMK AO2 SLP211 T01060056 10111 20072 58012=
201401282253 METAR KSEA 282253Z 00000KT 10SM OVC020 11/06 A3015 RMK AO2 SLP218 T01060056=
201401282153 METAR KSEA 282153Z 04003KT 10SM BKN020 OVC040 11/06 A3016 RMK AO2 SLP221 T01060056=
201401282053 METAR KSEA 282053Z 02003KT 10SM FEW015 OVC026 10/06 A3017 RMK AO2 SLP223 T01000061 58019=
201401282017 SPECI KSEA 282017Z 00000KT 10SM SCT014 OVC026 09/06 A3018 RMK AO2=
201401281953 METAR KSEA 281953Z 33004KT 10SM BKN014 OVC025 09/06 A3019 RMK AO2 SLP231 T00890056=
201401281853 METAR KSEA 281853Z 26003KT 8SM OVC013 08/06 A3021 RMK AO2 SLP239 T00780056=
201401281753 METAR KSEA 281753Z 00000KT 7SM OVC013 07/06 A3023 RMK AO2 SLP244 T00720056 10072 20067 50003=
201401281653 METAR KSEA 281653Z 00000KT 8SM OVC017 07/05 A3023 RMK AO2 SLP246 T00670050=
201401281553 METAR KSEA 281553Z 20005KT 7SM OVC020 07/05 A3022 RMK AO2 SLP243 T00670050=
201401281453 METAR KSEA 281453Z 20006KT 10SM OVC025 07/05 A3022 RMK AO2 SLP240 T00670050 55001=
201401281353 METAR KSEA 281353Z 00000KT 10SM BKN025 OVC032 07/05 A3021 RMK AO2 SLP239 T00670050=
201401281253 METAR KSEA 281253Z 18003KT 10SM OVC038 07/05 A3022 RMK AO2 SLP241 T00670050=
201401281153 METAR KSEA 281153Z 15003KT 10SM OVC038 07/05 A3022 RMK AO2 SLP241 60000 T00670050 10094 20061 58003=
201401281053 METAR KSEA 281053Z 19003KT 7SM OVC042 07/05 A3023 RMK AO2 SLP244 T00670050=
201401280953 METAR KSEA 280953Z 00000KT 7SM BKN060 OVC075 06/05 A3022 RMK AO2 RAE0856B13E23 SLP243 P0000 T00610050=
201401280853 METAR KSEA 280853Z 00000KT 10SM -RA FEW050 OVC070 07/04 A3023=
201401280753 METAR KSEA 280753Z 00000KT 10SM SCT070 OVC090 07/03 A3022 RMK AO2 SLP240 T00670033 400940017=
201401280653 METAR KSEA 280653Z 13008KT 10SM FEW075 OVC100 09/01 A3021 RMK AO2 SLP239 T00890011=
201401280553 METAR KSEA 280553Z 11003KT 10SM SCT110 OVC140 07/03 A3021 RMK AO2 SLP237 T00720033 10072 20050 51006=
201401280453 METAR KSEA 280453Z 12005KT 6SM BR OVC130 06/04 A3021 RMK AO2 SLP238 T00560039=
201401280353 METAR KSEA 280353Z 15005KT 5SM BR FEW120 OVC140 06/04 A3020 RMK AO2 SLP235 T00610044=
201401280253 METAR KSEA 280253Z 19003KT 3SM BR FEW002 OVC150 05/04 A3019 RMK AO2 TWR VIS 4 SLP233 T00500039 55001=
201401280216 SPECI KSEA 280216Z 16003KT 3SM BR FEW002 OVC160 05/04 A3019 RMK AO2 TWR VIS 4=
201401280212 SPECI KSEA 280212Z 17003KT 2SM BR SCT002 OVC160 05/04 A3019 RMK AO2 SFC VIS 3=
201401280153 METAR KSEA 280153Z 18004KT 2SM BR OVC002 05/04 A3018 RMK AO2 SFC VIS 2 1/2 SLP231 T00500039=
201401280053 METAR KSEA 280053Z 19004KT 1/4SM BR OVC002 05/04 A3019 RMK AO2 SFC VIS 2 SLP231 T00500039=
201401272353 METAR KSEA 272353Z 21003KT 1/4SM R16L/P6000FT BR BKN002 OVC190 05/04 A3019 RMK AO2 SFC VIS 1 SLP234 T00500039 10056 20039 53001=
201401272350 SPECI KSEA 272350Z 23003KT 1/4SM BR BKN002 OVC190 05/04 A3019 RMK AO2 SFC VIS 2=
201401272322 SPECI KSEA 272322Z 00000KT 1SM BR SCT002 OVC190 06/04 A3019 RMK AO2 SFC VIS 2=
201401272253 METAR KSEA 272253Z 00000KT 1/4SM BR OVC002 05/04 A3018 RMK AO2 SFC VIS 1 1/2 SLP230 T00500039=
201401272208 SPECI KSEA 272208Z 29004KT 1/4SM R16L/4500V6000FT BR VV002 05/04 A3018 RMK AO2 SFC VIS 1=
201401272153 METAR KSEA 272153Z 26006KT 2SM BR FEW002 OVC210 06/04 A3018 RMK AO2 TWR VIS 5 SLP228 T00560044=
201401272053 METAR KSEA 272053Z 00000KT 1 1/4SM BR SCT002 OVC200 06/04 A3019 RMK AO2 SLP233 T00560044 50002=
201401272044 SPECI KSEA 272044Z 00000KT 1 1/4SM BR SCT002 OVC200 06/04 A3020 RMK AO2=
201401271953 METAR KSEA 271953Z 05003KT 1/8SM R16L/1000V2000FT FG VV002 05/04 A3020 RMK AO2 SFC VIS 1/2 SLP237 T00500039=
201401271943 SPECI KSEA 271943Z 00000KT 1/8SM R16L/1000V1400FT FG VV002 05/04 A3022 RMK AO2 SFC VIS 1/2=
201401271930 SPECI KSEA 271930Z 00000KT 1/8SM R16L/1200V4000FT FG VV002 04/04 A3022 RMK AO2 SFC VIS 1/2=
201401271853 METAR KSEA 271853Z 00000KT 1/8SM R16L/1000V2000FT FG VV002 04/04 A3021 RMK AO2 SFC VIS 1/4 SLP239 T00440039=
201401271753 METAR KSEA 271753Z 28003KT 1/8SM R16L/1000V1200FT FG VV001 04/03 A3019 RMK AO2 SLP231 T00390028 10039 20017 53010=
201401271725 SPECI KSEA 271725Z 00000KT 1/8SM R16L/0800V1000FT FG VV001 03/03 A3019 RMK AO2=
201401271653 METAR KSEA 271653Z 00000KT 1/4SM R16L/1200V1400FT FG VV002 03/02 A3017 RMK AO2 SLP226 T00280022=
201401271642 SPECI KSEA 271642Z 00000KT 1/4SM R16L/1400V1800FT FG VV002 03/02 A3017 RMK AO2=
201401271616 SPECI KSEA 271616Z 03003KT 1/4SM R16L/1600VP6000FT FG VV002 03/01 A3017 RMK AO2=
201401271553 METAR KSEA 271553Z 00000KT 1/4SM R16L/1400V1600FT FG VV002 02/01 A3017 RMK AO2 SLP225 T00220006=
201401271453 METAR KSEA 271453Z 03003KT 1/4SM R16L/1200V2000FT FG VV001 02/01 A3016 RMK AO2 SLP221 T00220006 50005=
201401271439 SPECI KSEA 271439Z 00000KT 1/4SM R16L/1200FT FG VV001 02/01 A3016 RMK AO2=
201401271402 SPECI KSEA 271402Z 00000KT 1/4SM R16L/1200V1400FT FG VV002 02/01 A3015 RMK AO2=
201401271351 METAR KSEA 271351Z 09003KT 1/4SM R16L/1400V2600FT FG VV002 02/01 A3016 RMK AO2 SLP221 T00220006=
201401271350 SPECI KSEA 271350Z 08003KT 1/4SM R16L/1400V2600FT FG VV002 02/01 A3016 RMK AO2=
201401271335 SPECI KSEA 271335Z 00000KT 1/8SM R16L/1600V2200FT FG VV002 02/01 A3016 RMK AO2=
201401271331 SPECI KSEA 271331Z 10003KT 1/8SM R16L/1400V2400FT FG VV001 02/01 A3015 RMK AO2=
201401271253 METAR KSEA 271253Z 14003KT 1/8SM R16L/1400V1600FT FG VV001 02/00 A3015 RMK AO2 SLP219 T00170000=
201401271153 METAR KSEA 271153Z 00000KT 1/8SM R16L/1000V1200FT FG VV001 03/01 A3014 RMK AO2 SLP215 T00280011 10039 20028 53005=
201401271053 METAR KSEA 271053Z 00000KT 1/8SM R16L/0800V1000FT FG VV001 03/02 A3013 RMK AO2 SLP211 T00330017=
201401271044 SPECI KSEA 271044Z 03005KT 1/8SM R16L/0800V1200FT FG VV001 03/01 A3012 RMK AO2=
201401270953 METAR KSEA 270953Z 00000KT 1/4SM R16L/1000FT FG VV001 03/02 A3012 RMK AO2 SLP208 T00280017=
201401270853 METAR KSEA 270853Z 06003KT 1/4SM R16L/1400V1800FT FG VV001 03/02 A3012 RMK AO2 SLP210 T00330017 53001=
201401270836 SPECI KSEA 270836Z 05004KT 1/4SM R16L/1200V1400FT FG VV001 03/02 A3012 RMK AO2=
201401270825 SPECI KSEA 270825Z 00000KT 1/4SM R16L/1400V2800FT FG VV001 03/02 A3012 RMK AO2=
201401270753 METAR KSEA 270753Z 00000KT 1/4SM R16L/0800V1200FT FG VV001 03/02 A3012 RMK AO2 SLP208 T00330017 400830006=
201401270653 METAR KSEA 270653Z 03003KT 1/4SM R16L/0800V1000FT FG VV001 03/02 A3011 RMK AO2 SLP205 T00330022=
201401270553 METAR KSEA 270553Z 00000KT 1/4SM R16L/1200V1800FT FG VV001 03/01 A3012 RMK AO2 SLP209 T00330011 10072 20022 53003=
201401270541 SPECI KSEA 270541Z 28003KT 1/4SM R16L/1200V2000FT FG VV001 02/01 A3013 RMK AO2=
201401270528 SPECI KSEA 270528Z 00000KT 1/4SM R16L/1800VP6000FT FG VV001 03/01 A3012 RMK AO2=
201401270511 SPECI KSEA 270511Z 00000KT 3/4SM R16L/2000VP6000FT BCFG SCT001 03/02 A3011 RMK AO2=
201401270453 METAR KSEA 270453Z 34003KT 1/2SM R16L/0700V1200FT FG BKN001 03/01 A3011=
201401270426 SPECI KSEA 270426Z 01004KT 1/4SM R16L/1000V1200FT FG VV001 03/02 A3011 RMK AO2=
201401270408 SPECI KSEA 270408Z 01004KT 1/2SM R16L/1600VP6000FT FG BKN001 04/02 A3011 RMK AO2=
201401270402 SPECI KSEA 270402Z 01003KT 3SM BCFG BKN001 04/02 A3011 RMK AO2=
201401270353 METAR KSEA 270353Z 00000KT 6SM BR FEW005 04/02 A3011 RMK AO2 SLP206 T00390022=
201401270253 METAR KSEA 270253Z 00000KT 7SM FEW005 SCT220 04/02 A3011 RMK AO2 SLP206 T00440017 55005=
201401270153 METAR KSEA 270153Z 28003KT 9SM FEW220 04/02 A3011 RMK AO2 SLP205 T00440022=
201401270053 METAR KSEA 270053Z 31005KT 9SM FEW220 06/03 A3011 RMK AO2 SLP206 T00560028=
201401262353 METAR KSEA 262353Z 29004KT 10SM FEW220 07/03 A3013 RMK AO2 SLP211 T00720033 10083 20028 56016=
201401262253 METAR KSEA 262253Z 00000KT 10SM FEW005 SCT220 07/03 A3014 RMK AO2 SLP215 T00720033=
201401262153 METAR KSEA 262153Z 28004KT 10SM FEW005 SCT220 07/03 A3015 RMK AO2 SLP219 T00720028=
201401262053 METAR KSEA 262053Z 30006KT 10SM SCT004 SCT240 06/03 A3017 RMK AO2 SLP226 T00610028 58008=
201401262044 SPECI KSEA 262044Z 26007KT 10SM SCT004 07/03 A3018 RMK AO2=
201401262017 SPECI KSEA 262017Z 05003KT 1 1/4SM BR BKN004 06/03 A3017 RMK AO2 SFC VIS 4=
201401261953 METAR KSEA 261953Z VRB03KT 1/2SM BR FEW001 OVC004 06/03 A3018 RMK AO2 SFC VIS 3 SLP228 T00560033=
201401261937 SPECI KSEA 261937Z 00000KT 1 1/4SM BR SCT001 OVC004 05/03 A3018 RMK AO2 SFC VIS 3=
201401261930 SPECI KSEA 261930Z 36003KT 1 1/4SM BR BKN001 OVC004 04/03 A3019 RMK AO2 SFC VIS 2 1/2=
201401261926 SPECI KSEA 261926Z 00000KT 1 1/4SM BR OVC001 04/03 A3019 RMK AO2 SFC VIS 2=
201401261853 METAR KSEA 261853Z 30005KT 1SM R16L/4000VP6000FT BR OVC001 04/02 A3020 RMK AO2 SLP237 T00390017=
201401261842 SPECI KSEA 261842Z 30004KT 1 1/2SM R16L/2000V5000FT BR OVC001 04/02 A3020 RMK AO2=
201401261832 SPECI KSEA 261832Z 29003KT 1/4SM R16L/1600V3000FT FG VV001 03/02 A3020 RMK AO2=
201401261753 METAR KSEA 261753Z 34003KT 1/4SM R16L/0600V0800FT FG VV001 03/01 A3020 RMK AO2 SLP236 T00280011 10033 20006 56012=
201401261653 METAR KSEA 261653Z 03004KT 1/4SM R16L/0700V1200FT FG VV001 03/01 A3021 RMK AO2 SLP238 T00280006=
201401261553 METAR KSEA 261553Z 03004KT 1/4SM R16L/0700V1000FT FG VV001 02/M01 A3022 RMK AO2 SLP244 T00171006=
201401261453 METAR KSEA 261453Z 00000KT 1/4SM R16L/1200V1600FT FG VV001 01/M01 A3023 RMK AO2 SLP248 T00111011 55005=
201401261413 SPECI KSEA 261413Z 35003KT 1/4SM R16L/1200V2600FT FG VV001 01/M01 A3023 RMK AO2=
201401261353 METAR KSEA 261353Z 02005KT 1/2SM R16L/1000V1400FT FG BKN001 01/M01 A3023 RMK AO2 SLP247 T00111011=
201401261342 SPECI KSEA 261342Z 36005KT 1/2SM R16L/1200V1800FT FG BKN001 01/M01 A3024 RMK AO2=
201401261334 SPECI KSEA 261334Z 32003KT 1/2SM R16L/1600V2600FT FG BKN001 01/M01 A3024 RMK AO2=
201401261325 SPECI KSEA 261325Z 01003KT 2SM R16L/2600VP6000FT BR BKN001 02/M01 A3024 RMK AO2=
201401261253 METAR KSEA 261253Z 04003KT 4SM BR FEW002 03/01 A3024 RMK AO2 SLP248 T00330011=
201401261153 METAR KSEA 261153Z 35003KT 3SM R16L/1800V2400FT BR SCT002 02/00 A3025 RMK AO2 SLP252 T00220000 10072 20022 57001=
201401261134 SPECI KSEA 261134Z 00000KT 5SM R16L/2000VP6000FT BR FEW002 03/01 A3025 RMK AO2=
201401261053 METAR KSEA 261053Z 00000KT 6SM BR CLR 03/00 A3025 RMK AO2 SLP253 T00280000=
201401260953 METAR KSEA 260953Z 00000KT 6SM BR CLR 04/01 A3025 RMK AO2 SLP252 FG BANK SW T00390011=
201401260853 METAR KSEA 260853Z 36003KT 6SM BR CLR 04/02 A3025 RMK AO2 SLP253 T00440017 58007=
201401260753 METAR KSEA 260753Z 00000KT 10SM CLR 04/01 A3027 RMK AO2 SLP259 T00390006 401220011=
201401260653 METAR KSEA 260653Z 00000KT 10SM CLR 06/01 A3028 RMK AO2 SLP261 T00610011=
201401260553 METAR KSEA 260553Z 00000KT 10SM CLR 07/01 A3028 RMK AO2 SLP261 T00720011 10122 20056 58004=
201401260453 METAR KSEA 260453Z 00000KT 10SM CLR 08/02 A3028 RMK AO2 SLP261 T00780022=
201401260353 METAR KSEA 260353Z 00000KT 10SM FEW200 07/03 A3029 RMK AO2 SLP266 T00720028=
201401260253 METAR KSEA 260253Z 00000KT 10SM FEW200 07/02 A3029 RMK AO2 SLP266 T00720022 56012=
201401260153 METAR KSEA 260153Z 00000KT 10SM FEW200 08/03 A3030 RMK AO2 SLP268 T00780028=
201401260053 METAR KSEA 260053Z 00000KT 10SM CLR 11/M01 A3031 RMK AO2 SLP273 T01111006=
201401252353 METAR KSEA 252353Z 00000KT 10SM CLR 12/M02 A3033 RMK AO2 SLP278 T01221022 10122 20033 56011=
201401252253 METAR KSEA 252253Z 26004KT 10SM CLR 11/02 A3034 RMK AO2 SLP282 T01060022=
201401252153 METAR KSEA 252153Z 00000KT 10SM CLR 12/04 A3034 RMK AO2 SLP284 T01170039=
201401252053 METAR KSEA 252053Z 00000KT 10SM CLR 10/03 A3036 RMK AO2 SLP289 T01000028 58008=
201401251953 METAR KSEA 251953Z 00000KT 10SM FEW001 06/04 A3038 RMK AO2 SLP296 T00610039=
201401251907 SPECI KSEA 251907Z 00000KT 4SM BCFG FEW001 05/03 A3039 RMK AO2=
201401251900 SPECI KSEA 251900Z 00000KT 1SM R16L/2000VP6000FT BCFG SCT001 05/04 A3039 RMK AO2=
201401251853 METAR KSEA 251853Z 00000KT 3/4SM R16L/1000V3000FT BCFG BKN001 04/03 A3039 RMK AO2 SLP301 T00440033=
201401251753 METAR KSEA 251753Z 00000KT 1/4SM R16L/0600V0800FT FG VV001 03/02 A3038 RMK AO2 SLP298 T00330022 10039 20011 53012=
201401251734 SPECI KSEA 251734Z 26003KT 1/4SM R16L/0700V0800FT FG VV001 03/01 A3038 RMK AO2=
201401251724 SPECI KSEA 251724Z 26004KT 3/4SM R16L/1000VP6000FT BCFG BKN001 02/01 A3038 RMK AO2=
201401251653 METAR KSEA 251653Z 00000KT 7SM CLR 03/01 A3037 RMK AO2 SLP292 T00280011=
201401251605 SPECI KSEA 251605Z 15003KT 7SM BCFG FEW001 01/00 A3035 RMK AO2 FG BANK S-W $=
201401251553 METAR KSEA 251553Z 15004KT 1SM R16L/1000V4000FT BCFG FEW001 01/00 A3035 RMK AO2 SLP287 FG BANK S-W T00110000 $=
201401251541 SPECI KSEA 251541Z 17003KT 1SM R16L/0600V1400FT BCFG SCT001 02/00 A3035 RMK AO2 $=
201401251502 SPECI KSEA 251502Z 00000KT 1/4SM R16L/0600V0800FT FG BKN001 01/01 A3035 RMK AO2 $=
201401251453 METAR KSEA 251453Z 00000KT 1/2SM R16L/0800V5000FT FG BKN001 02/01 A3035 RMK AO2 SLP287 T00170006 53001 $=
201401251353 METAR KSEA 251353Z 12008KT 9SM FEW001 03/02 A3034 RMK AO2 SLP282 T00330017 $=
201401251312 SPECI KSEA 251312Z 13004KT 6SM BR SCT001 03/01 A3035 RMK AO2 $=
201401251300 SPECI KSEA 251300Z 13004KT 1/8SM R16L/1800VP6000FT FG VV001 02/00 A3035 RMK AO2 SFC VIS 1/2 $=
201401251253 METAR KSEA 251253Z 13004KT 1/8SM R16L/1400V2200FT FG VV001 02/01 A3035 RMK AO2 SLP286 T00170006 $=
201401251235 SPECI KSEA 251235Z 12005KT 1/8SM R16L/1200FT FG VV001 02/01 A3034 RMK AO2 $=
201401251225 SPECI KSEA 251225Z 14004KT 1/8SM R16L/1000V5500FT FG VV001 02/01 A3034 RMK AO2 $=
201401251153 METAR KSEA 251153Z 13007KT 1/8SM R16L/0600V0800FT FG VV001 03/01 A3035 RMK AO2 SLP285 T00280011 10056 20022 51008 $=
201401251053 METAR KSEA 251053Z 00000KT 1/8SM R16L/0600V1800FT FG VV001 03/02 A3034 RMK AO2 SLP282 T00330017 $=
201401251016 SPECI KSEA 251016Z 12003KT 1/8SM R16L/2000V2800FT FG VV001 02/01 A3032 RMK AO2 $=
201401250953 METAR KSEA 250953Z 13005KT 1/8SM R16L/0800FT FG VV001 03/02 A3032 RMK AO2 SLP276 T00330017 $=
201401250853 METAR KSEA 250853Z 13003KT 1/8SM R16L/0500V0600FT FG VV001 04/03 A3033 RMK AO2 SLP278 T00440033 51002 $=
201401250821 SPECI KSEA 250821Z 00000KT 1/4SM R16L/0800V1200FT FG BKN001 03/02 A3032 RMK AO2 TWR VIS 10 $=
201401250753 METAR KSEA 250753Z 20003KT 1/2SM R16L/3000VP6000FT FG BKN001 03/01 A3032 RMK AO2 TWR VIS 10 SLP277 T00280011 401280011 $=
201401250703 SPECI KSEA 250703Z 12005KT 1/2SM R16L/P6000FT FG BKN001 03/02 A3032 RMK AO2 TWR VIS 10 $=
201401250653 METAR KSEA 250653Z 12008KT 7SM FEW001 03/02 A3032 RMK AO2 SLP278 T00330017 $=
201401250642 SPECI KSEA 250642Z 10005KT 7SM FEW001 04/02 A3032 RMK AO2 $=
201401250553 METAR KSEA 250553Z 18003KT 10SM CLR 05/03 A3032 RMK AO2 SLP277 T00500028 10106 20044 53010 $=
201401250453 METAR KSEA 250453Z 35003KT 10SM CLR 06/02 A3030 RMK AO2 SLP270 T00560022 $=
201401250353 METAR KSEA 250353Z 36007KT 10SM CLR 06/03 A3029 RMK AO2 SLP265 T00610033 $=
201401250253 METAR KSEA 250253Z 01005KT 10SM CLR 06/03 A3029 RMK AO2 SLP266 T00610028 58007 $=
201401250153 METAR KSEA 250153Z 00000KT 10SM FEW250 07/04 A3030 RMK AO2 SLP270 T00720039 $=
201401250053 METAR KSEA 250053Z 00000KT 10SM FEW250 08/04 A3031 RMK AO2 SLP271 T00830044 $=
201401242353 METAR KSEA 242353Z 28004KT 10SM FEW250 11/05 A3031 RMK AO2 SLP273 T01060050 10128 20050 56021 $=
201401242253 METAR KSEA 242253Z 04004KT 10SM SCT250 12/03 A3033 RMK AO2 SLP279 T01220033 $=
201401242153 METAR KSEA 242153Z 27004KT 10SM FEW250 10/04 A3035 RMK AO2 SLP285 T01000039=
201401242053 METAR KSEA 242053Z 27004KT 10SM BCFG FEW250 10/05 A3037 RMK AO2 SLP294 T01000050 58008=
201401241953 METAR KSEA 241953Z 02005KT 10SM BCFG FEW250 09/03 A3039 RMK AO2 SLP298 T00940033=
201401241853 METAR KSEA 241853Z 00000KT 10SM BCFG FEW250 07/04 A3040 RMK AO2 SLP303 T00670044=
201401241753 METAR KSEA 241753Z 33004KT 5SM BCFG FEW001 SCT250 05/03 A3040 RMK AO2 SLP303 VIS W 2 T00500033 10050 20011 53006=
201401241734 SPECI KSEA 241734Z 36005KT 1 1/4SM BR SCT001 SCT250 04/03 A3039 RMK AO2 TWR VIS 10=
201401241653 METAR KSEA 241653Z 00000KT 1/4SM R16L/0600V0800FT FG BKN001 BKN250 03/02 A3039 RMK AO2 SLP300 T00330017=
201401241553 METAR KSEA 241553Z 03005KT 1/4SM R16L/0700V1800FT FG VV001 02/01 A3038 RMK AO2 SLP297 T00220011=
201401241537 SPECI KSEA 241537Z 36004KT 1/4SM R16L/0800V2600FT FG VV001 02/01 A3038 RMK AO2=
201401241533 SPECI KSEA 241533Z 36006KT 1/4SM R16L/0800V2600FT FG OVC002 02/01 A3038 RMK AO2=
201401241516 SPECI KSEA 241516Z VRB05KT 1 1/2SM R16L/1000V1200FT BR BKN002 BKN250 02/00 A3038 RMK AO2 VIS W-N 3/4=
201401241501 SPECI KSEA 241501Z 33005KT 6SM R16L/4000VP6000FT BCFG FEW002 SCT250 02/00 A3038 RMK AO2=
201401241453 METAR KSEA 241453Z 33003KT 10SM BCFG SCT250 02/00 A3038 RMK AO2 SLP297 T00170000 56010=
201401241353 METAR KSEA 241353Z 34003KT 10SM CLR 03/01 A3039 RMK AO2 SLP300 T00280011=
201401241253 METAR KSEA 241253Z 36006KT 10SM FEW001 03/01 A3039 RMK AO2 SLP300 T00280011=
201401241244 SPECI KSEA 241244Z 35003KT 10SM FEW001 03/02 A3039 RMK AO2=
201401241215 SPECI KSEA 241215Z 01007KT 1/4SM R16L/1400V2800FT FG VV001 03/02 A3040 RMK AO2=
201401241156 SPECI KSEA 241156Z 35005KT 1SM R16L/3000VP6000FT BCFG BKN001 03/01 A3041 RMK AO2=
201401241153 METAR KSEA 241153Z 35005KT 1 3/4SM R16L/3500VP6000FT BCFG BKN001 03/01 A3041 RMK AO2 SLP306 T00280011 10050 20017 50000=
201401241151 SPECI KSEA 241151Z 36006KT 1 3/4SM R16L/5500VP6000FT BCFG BKN001 03/01 A3041 RMK AO2=
201401241053 METAR KSEA 241053Z 03005KT 3SM BCFG SCT001 03/02 A3041 RMK AO2 SLP306 T00330017=
201401241034 SPECI KSEA 241034Z 36005KT 1SM R16L/3000VP6000FT BCFG SCT001 02/00 A3041 RMK AO2=
201401241008 SPECI KSEA 241008Z 00000KT 1/2SM R16L/P6000FT FG BKN001 03/01 A3041 RMK AO2=
201401240953 METAR KSEA 240953Z 01003KT 2SM BCFG BKN002 03/02 A3041 RMK AO2 SLP306 T00280017=
201401240853 METAR KSEA 240853Z 35006KT 8SM CLR 03/02 A3041 RMK AO2 SLP305 T00330017 56003=
201401240753 METAR KSEA 240753Z 35006KT 8SM CLR 03/02 A3041 RMK AO2 SLP306 T00330017 401000028=
201401240653 METAR KSEA 240653Z 36005KT 9SM CLR 04/02 A3041 RMK AO2 SLP308 T00390022=
201401240553 METAR KSEA 240553Z 36008KT 9SM CLR 04/03 A3042 RMK AO2 SLP309 T00440028 10089 20044 53007=
201401240453 METAR KSEA 240453Z 36008KT 10SM CLR 05/02 A3041 RMK AO2 SLP306 T00500022=
201401240353 METAR KSEA 240353Z 35006KT 10SM CLR 06/03 A3039 RMK AO2 SLP300 T00610028=
201401240253 METAR KSEA 240253Z 01008KT 10SM CLR 06/02 A3039 RMK AO2 SLP301 T00610022 53003=
201401240153 METAR KSEA 240153Z 32005KT 10SM FEW250 07/02 A3039 RMK AO2 SLP299 T00670022=
201401240053 METAR KSEA 240053Z 36009KT 10SM FEW250 08/03 A3038 RMK AO2 SLP297 T00780028=
201401232353 METAR KSEA 232353Z 36009KT 10SM FEW250 09/03 A3039 RMK AO2 SLP298 T00890028 10100 20044 56006=
201401232253 METAR KSEA 232253Z 34008KT 10SM FEW200 09/03 A3039 RMK AO2 SLP299 T00940033=
201401232153 METAR KSEA 232153Z 36009KT 10SM FEW200 09/04 A3039 RMK AO2 SLP301 T00940039=
201401232053 METAR KSEA 232053Z 01012KT 10SM FEW200 09/03 A3040 RMK AO2 SLP304 T00890033 58013=
201401231953 METAR KSEA 231953Z 36006KT 10SM FEW007 SCT200 08/03 A3043 RMK AO2 SLP312 T00780033=
201401231926 SPECI KSEA 231926Z 36009KT 7SM SCT004 SCT200 06/03 A3043 RMK AO2=
201401231853 METAR KSEA 231853Z 35007KT 5SM HZ BKN004 06/03 A3044 RMK AO2 SLP317 T00610033=
201401231827 SPECI KSEA 231827Z 36009KT 3SM HZ BKN004 06/03 A3045 RMK AO2 SFC VIS 4=
201401231753 METAR KSEA 231753Z 02011KT 1 1/2SM BR OVC003 05/03 A3044 RMK AO2 SFC VIS 2 1/2 SLP317 T00500028 10061 20044 50001=
201401231653 METAR KSEA 231653Z 01015KT 1 1/2SM BR OVC003 04/03 A3045 RMK AO2 SLP320 T00440028=
201401231602 SPECI KSEA 231602Z 02017KT 1 1/4SM BR OVC003 04/03 A3045 RMK AO2 SFC VIS 2=
201401231553 METAR KSEA 231553Z 02018KT 1/2SM BR OVC003 05/03 A3045 RMK AO2 SFC VIS 2 SLP319 T00500028=
201401231503 SPECI KSEA 231503Z 01018KT 2SM BR OVC004 05/03 A3044 RMK AO2 SFC VIS 3=
201401231453 METAR KSEA 231453Z 02017G24KT 4SM BR OVC004 05/03 A3044 RMK AO2 SLP316 T00500028 53004=
201401231353 METAR KSEA 231353Z 01014KT 7SM OVC004 06/03 A3043 RMK AO2 SLP314 T00560028=
201401231341 SPECI KSEA 231341Z 01012KT 7SM OVC004 06/03 A3043 RMK AO2=
201401231253 METAR KSEA 231253Z 01014KT 6SM BR OVC008 06/03 A3042 RMK AO2 SLP311 T00560033=
201401231153 METAR KSEA 231153Z 02016KT 9SM OVC008 06/03 A3043 RMK AO2 SLP312 T00610028 10072 20056 55002=
201401231053 METAR KSEA 231053Z 01013KT 9SM OVC006 06/03 A3042 RMK AO2 SLP308 T00610033=
201401230953 METAR KSEA 230953Z 36011KT 8SM OVC006 06/03 A3042 RMK AO2 SLP311 T00610033=
201401230853 METAR KSEA 230853Z 01010KT 8SM OVC006 06/03 A3043 RMK AO2 SLP313 T00610033 58000=
201401230753 METAR KSEA 230753Z 01008KT 8SM OVC006 06/03 A3044 RMK AO2 SLP315 T00610033 400940056=
201401230711 SPECI KSEA 230711Z 02010KT 9SM OVC008 07/03 A3044 RMK AO2=
201401230653 METAR KSEA 230653Z 01007KT 10SM OVC010 06/03 A3044 RMK AO2 SLP317 T00610033=
201401230553 METAR KSEA 230553Z 02008KT 10SM OVC012 07/03 A3043 RMK AO2 SLP314 T00720033 10089 20072 51010=
201401230453 METAR KSEA 230453Z 01010KT 10SM OVC012 07/04 A3043 RMK AO2 SLP313 T00720039=
201401230353 METAR KSEA 230353Z 03011KT 10SM OVC012 08/04 A3041 RMK AO2 SLP305 T00780039=
201401230253 METAR KSEA 230253Z 01012KT 10SM OVC014 08/04 A3040 RMK AO2 SLP304 T00780039 55001=
201401230153 METAR KSEA 230153Z 01010KT 10SM FEW009 BKN014 08/04 A3039 RMK AO2 SLP300 T00780044=
201401230100 SPECI KSEA 230100Z 35007KT 10SM SCT009 BKN014 08/05 A3040 RMK AO2=
201401230053 METAR KSEA 230053Z 36007KT 10SM BKN011 08/05 A3040 RMK AO2 SLP303 T00780050=
201401222353 METAR KSEA 222353Z 02005KT 10SM SCT011 BKN040 09/06 A3040 RMK AO2 SLP304 T00890056 10094 20072 58004=
201401222310 SPECI KSEA 222310Z 03006KT 10SM SCT008 OVC039 09/06 A3041 RMK AO2=
201401222308 SPECI KSEA 222308Z 02007KT 10SM BKN008 OVC039 09/06 A3041 RMK AO2=
201401222253 METAR KSEA 222253Z 03006KT 10SM FEW016 OVC039 09/06 A3041 RMK AO2 SLP305 T00940056=
201401222228 SPECI KSEA 222228Z 03006KT 10SM SCT016 OVC039 09/06 A3041 RMK AO2=
201401222153 METAR KSEA 222153Z 01005KT 7SM BKN012 OVC018 09/06 A3041 RMK AO2 SLP307 T00890056=
201401222149 SPECI KSEA 222149Z 03007KT 7SM OVC012 09/06 A3041 RMK AO2=
201401222053 METAR KSEA 222053Z 02007KT 7SM BKN008 OVC012 09/06 A3042 RMK AO2 SLP308 T00890056 50007=
201401222031 SPECI KSEA 222031Z 04007KT 8SM BKN008 OVC014 09/06 A3042 RMK AO2=
201401221953 METAR KSEA 221953Z 36004KT 8SM FEW006 BKN014 OVC038 09/06 A3042 RMK AO2 SLP310 T00890056=
201401221853 METAR KSEA 221853Z 04004KT 7SM FEW003 BKN014 BKN040 08/06 A3041 RMK AO2 SLP307 T00830056=
201401221803 SPECI KSEA 221803Z 00000KT 5SM BR SCT003 OVC012 07/06 A3040 RMK AO2=
201401221756 SPECI KSEA 221756Z 32003KT 4SM BR BKN003 OVC012 07/06 A3039 RMK AO2=
201401221753 METAR KSEA 221753Z 32003KT 1/4SM BR BKN003 OVC012 07/06 A3039 RMK AO2 SFC VIS 4 SLP300 T00720056 10072 20067 53003=
201401221719 SPECI KSEA 221719Z 00000KT 1/4SM BR BKN003 OVC012 07/06 A3038 RMK AO2 SFC VIS 1 1/4=
201401221653 METAR KSEA 221653Z 00000KT 1SM R16L/P6000FT BR OVC003 07/06 A3038 RMK AO2 TWR VIS 1 1/2 SLP296 T00720056=
201401221553 METAR KSEA 221553Z 00000KT 3SM BR BKN003 OVC012 07/05 A3038 RMK AO2 SLP296 T00670050=
201401221453 METAR KSEA 221453Z 00000KT 3SM BR BKN004 OVC016 07/05 A3038 RMK AO2 SLP297 T00670050 50002=
201401221353 METAR KSEA 221353Z 00000KT 4SM BR OVC003 07/06 A3039 RMK AO2 SLP299 T00670056=
201401221310 SPECI KSEA 221310Z 00000KT 4SM BR OVC003 07/06 A3038 RMK AO2=
201401221253 METAR KSEA 221253Z 00000KT 6SM BR OVC005 07/05 A3038 RMK AO2 SLP296 T00670050=
201401221153 METAR KSEA 221153Z 16004KT 7SM BKN005 OVC014 07/05 A3038 RMK AO2 DZE07 SLP294 P0000 60002 70002 T00670050 10078 20067 53011=
201401221053 METAR KSEA 221053Z 12005KT 6SM -DZ BR OVC009 07/05 A3036 RMK AO2 RAE0957B48E50DZB50 SLP289 P0000 T00670050=
201401220953 METAR KSEA 220953Z 13004KT 4SM -RA BR OVC013 07/05 A3035 RMK AO2 SLP283 P0002 T00670050=
201401220853 METAR KSEA 220853Z 16003KT 3SM -RA OVC015 07/04 A3034 RMK AO2 RAB35 SLP284 P0000 60000 T00670039 51008=
201401220753 METAR KSEA 220753Z 15010KT 10SM FEW016 OVC024 08/04 A3033 RMK AO2 SLP280 T00780039 401000017=
201401220653 METAR KSEA 220653Z 15005KT 10SM FEW019 BKN025 BKN100 07/03 A3035 RMK AO2 SLP285 T00720033=
201401220640 SPECI KSEA 220640Z 16004KT 10SM SCT019 BKN025 BKN100 07/04 A3034 RMK AO2=
201401220553 METAR KSEA 220553Z 19003KT 10SM OVC100 07/03 A3032 RMK AO2 SLP277 T00670033 10100 20067 53001=
201401220453 METAR KSEA 220453Z 00000KT 10SM FEW018 SCT110 BKN200 07/03 A3030 RMK AO2 SLP271 T00720033=
201401220421 SPECI KSEA 220421Z 00000KT 10SM SCT017 BKN120 OVC200 08/03 A3031 RMK AO2=
201401220353 METAR KSEA 220353Z 12004KT 10SM BKN017 OVC120 08/04 A3032 RMK AO2 SLP275 T00830039=
201401220343 SPECI KSEA 220343Z 14004KT 10SM BKN017 OVC110 08/04 A3032 RMK AO2=
201401220253 METAR KSEA 220253Z 15011KT 10SM SCT130 BKN220 08/04 A3032 RMK AO2 SLP275 T00830039 51024=
201401220153 METAR KSEA 220153Z 22008KT 10SM SCT130 BKN220 09/04 A3030 RMK AO2 SLP268 T00890039=
201401220053 METAR KSEA 220053Z 25006KT 10SM FEW100 SCT120 BKN140 BKN220 08/04 A3027 RMK AO2 SLP258 T00780039=
201401212353 METAR KSEA 212353Z 15003KT 10SM SCT150 BKN220 09/03 A3025 RMK AO2 SLP251 T00940033 10100 20028 56008=
201401212253 METAR KSEA 212253Z 17005KT 10SM SCT150 OVC220 09/03 A3026 RMK AO2 SLP254 T00940033=
201401212153 METAR KSEA 212153Z 00000KT 10SM FEW120 BKN210 09/03 A3026 RMK AO2 SLP256 T00940028=
201401212053 METAR KSEA 212053Z 00000KT 10SM FEW120 BKN180 06/04 A3027 RMK AO2 SLP260 T00610039 58007=
201401211953 METAR KSEA 211953Z 17003KT 5SM BR FEW002 BKN190 05/03 A3028 RMK AO2 SLP263 T00500033=
201401211934 SPECI KSEA 211934Z VRB03KT 2 1/2SM BR SCT002 BKN200 04/03 A3029 RMK AO2=
201401211909 SPECI KSEA 211909Z 00000KT 1/4SM R16L/1400V4000FT FG SCT002 BKN200 03/02 A3030 RMK AO2 SFC VIS 1/2=
201401211853 METAR KSEA 211853Z 00000KT 1/4SM R16L/1200V1600FT FG BKN002 BKN200 03/02 A3030 RMK AO2 SFC VIS 1/2 SLP270 T00280017=
201401211844 SPECI KSEA 211844Z 17003KT 1/4SM R16L/1200V1800FT FG OVC002 03/02 A3030 RMK AO2=
201401211803 SPECI KSEA 211803Z 00000KT 1/4SM R16L/1200V2400FT FG VV002 03/03 A3029 RMK AO2=
201401211753 METAR KSEA 211753Z 12003KT 1/4SM R16L/1000V1400FT FG VV001 03/02 A3029 RMK AO2 SLP267 T00330022 10039 20022 53007=
201401211653 METAR KSEA 211653Z 00000KT 1/4SM R16L/0800V1800FT FG VV001 03/02 A3027 RMK AO2 SLP261 T00330017=
201401211553 METAR KSEA 211553Z 00000KT 1/4SM R16L/0700V0800FT FG VV001 03/02 A3027 RMK AO2 SLP259 T00280017=
201401211524 SPECI KSEA 211524Z 00000KT 1/4SM R16L/0800V1200FT FG VV001 02/01 A3028 RMK AO2=
201401211453 METAR KSEA 211453Z 00000KT 1/4SM R16L/1200V5500FT FG VV001 02/01 A3027 RMK AO2 SLP260 T00220011 58002=
201401211443 SPECI KSEA 211443Z 12004KT 1/4SM R16L/1400V1800FT FG VV001 02/01 A3027 RMK AO2=
201401211410 SPECI KSEA 211410Z 14004KT 1/4SM R16L/1400V2200FT FG VV002 03/01 A3027 RMK AO2=
201401211353 METAR KSEA 211353Z 14006KT 1/2SM R16L/2000V4000FT FG VV002 02/01 A3027 RMK AO2 SLP260 T00220011=
201401211304 SPECI KSEA 211304Z 00000KT 1/4SM R16L/1600V2400FT FG VV002 04/03 A3027 RMK AO2=
201401211253 METAR KSEA 211253Z 18003KT 1/4SM R16L/1400V1800FT FG VV001 04/02 A3028 RMK AO2 SLP262 T00390022=
201401211228 SPECI KSEA 211228Z 00000KT 1/8SM R16L/1000V1200FT FG VV001 03/02 A3028 RMK AO2=
201401211153 METAR KSEA 211153Z 00000KT 1/4SM R16L/0600V1400FT FG VV001 03/02 A3028 RMK AO2 SLP261 T00330022 10050 20017 50002=
201401211101 SPECI KSEA 211101Z 00000KT 1/2SM R16L/1200FT FG VV001 02/01 A3028 RMK AO2=
201401211053 METAR KSEA 211053Z 00000KT 1/2SM R16L/1200V1400FT FG VV002 02/01 A3028 RMK AO2 SLP263 T00220011=
201401211048 SPECI KSEA 211048Z 00000KT 1/2SM R16L/1200V1600FT FG VV002 03/01 A3028 RMK AO2=
201401211025 SPECI KSEA 211025Z 00000KT 1/2SM R16L/1800V2600FT FG BKN002 02/01 A3028 RMK AO2=
201401210953 METAR KSEA 210953Z 00000KT 3/4SM R16L/2200V5000FT BR SCT002 03/01 A3027 RMK AO2 SLP259 VIS S 1/2 T00330011=
201401210940 SPECI KSEA 210940Z 00000KT 1 1/2SM BR SCT004 03/01 A3027 RMK AO2=
201401210853 METAR KSEA 210853Z 00000KT 3SM BR FEW003 03/01 A3028 RMK AO2 SLP261 T00280011 58005=
201401210839 SPECI KSEA 210839Z 00000KT 3SM BR FEW003 02/01 A3029 RMK AO2=
201401210753 METAR KSEA 210753Z 00000KT 5SM BR CLR 03/01 A3029 RMK AO2 SLP266 T00330011 401000028=
201401210653 METAR KSEA 210653Z 00000KT 7SM CLR 04/02 A3029 RMK AO2 SLP268 T00390022=
201401210553 METAR KSEA 210553Z 02003KT 7SM CLR 05/02 A3029 RMK AO2 SLP267 T00500022 10094 20033 51007=
201401210453 METAR KSEA 210453Z 36003KT 9SM CLR 04/02 A3028 RMK AO2 SLP264 T00390017=
201401210353 METAR KSEA 210353Z 00000KT 10SM CLR 05/02 A3028 RMK AO2 SLP264 T00500022=
201401210253 METAR KSEA 210253Z 00000KT 10SM CLR 06/02 A3027 RMK AO2 SLP260 T00560022 55005=
201401210153 METAR KSEA 210153Z 35006KT 10SM CLR 06/02 A3027 RMK AO2 SLP259 T00560017=
201401210053 METAR KSEA 210053Z 36005KT 10SM CLR 07/02 A3027 RMK AO2 SLP260 T00720017=
201401202353 METAR KSEA 202353Z 36006KT 10SM CLR 09/02 A3029 RMK AO2 SLP264 T00940022 10100 20044 55003=
201401202253 METAR KSEA 202253Z 32004KT 10SM CLR 09/03 A3028 RMK AO2 SLP263 T00940028=
201401202153 METAR KSEA 202153Z 05003KT 10SM CLR 09/02 A3028 RMK AO2 SLP262 T00940017=
201401202053 METAR KSEA 202053Z 02004KT 10SM CLR 09/02 A3029 RMK AO2 SLP267 T00890022 58016=
201401202012 SPECI KSEA 202012Z 00000KT 10SM FEW008 08/02 A3031 RMK AO2=
201401201953 METAR KSEA 201953Z 03004KT 7SM FEW250 07/02 A3032 RMK AO2 SLP274 T00720022=
201401201908 SPECI KSEA 201908Z 03005KT 6SM HZ SCT006 SCT250 06/02 A3033 RMK AO2=
201401201853 METAR KSEA 201853Z 01005KT 4SM HZ BKN006 BKN250 06/02 A3034 RMK AO2 SLP284 BKN006 V SCT T00560017=
201401201842 SPECI KSEA 201842Z 02007KT 4SM HZ BKN006 06/02 A3034 RMK AO2=
201401201753 METAR KSEA 201753Z 36009KT 2SM HZ OVC005 04/02 A3034 RMK AO2 SFC VIS 3 SLP284 T00440017 10044 20028 51006=
201401201749 SPECI KSEA 201749Z 01007KT 2SM HZ OVC005 04/02 A3034 RMK AO2 SFC VIS 3=
201401201653 METAR KSEA 201653Z 01008KT 1 1/4SM BR OVC003 03/01 A3033 RMK AO2 SFC VIS 2 SLP281 T00330011=
201401201553 METAR KSEA 201553Z 02006KT 1/2SM BR OVC002 03/01 A3033 RMK AO2 SFC VIS 1 1/4 SLP279 T00280011=
201401201453 METAR KSEA 201453Z 03005KT 2SM BR OVC003 03/02 A3032 RMK AO2 SFC VIS 3 SLP277 T00330017 51003=
201401201353 METAR KSEA 201353Z 05005KT 6SM BR OVC004 04/02 A3032 RMK AO2 SLP275 T00390017=
201401201253 METAR KSEA 201253Z 05004KT 7SM OVC005 04/02 A3032 RMK AO2 SLP276 T00440017=
201401201153 METAR KSEA 201153Z 01005KT 5SM BR OVC005 04/02 A3031 RMK AO2 SLP273 T00440022 10044 20039 53005=
201401201053 METAR KSEA 201053Z 36006KT 1SM BR OVC005 04/02 A3030 RMK AO2 SFC VIS 3 SLP271 T00390017=
201401200953 METAR KSEA 200953Z 02005KT 1SM R16L/P6000FT BR OVC003 04/02 A3030 RMK AO2 SLP268 T00390022=
201401200949 SPECI KSEA 200949Z 03005KT 1SM R16L/P6000FT BR OVC003 04/02 A3030 RMK AO2=
201401200853 METAR KSEA 200853Z 02008KT 1/4SM R16L/P6000FT BR OVC001 04/02 A3030 RMK AO2 SFC VIS 3/4 SLP269 T00390017 58003=
201401200753 METAR KSEA 200753Z 03007KT 1/4SM R16L/P6000FT FG OVC001 04/02 A3031 RMK AO2 SFC VIS 1/2 SLP272 T00390017 400610033=
201401200735 SPECI KSEA 200735Z 04005KT 1/4SM R16L/P6000FT BR OVC001 04/02 A3031 RMK AO2 SFC VIS 3/4=
201401200653 METAR KSEA 200653Z 03007KT 1 1/2SM BR OVC003 04/02 A3031 RMK AO2 SFC VIS 2 SLP274 VIS S 3/4 T00390022=
201401200553 METAR KSEA 200553Z 36004KT 1 1/2SM BR OVC004 04/03 A3031 RMK AO2 SFC VIS 4 SLP273 T00440028 10061 20044 51008=
201401200530 SPECI KSEA 200530Z 03007KT 1 1/2SM BR OVC004 04/02 A3031 RMK AO2 SFC VIS 4=
201401200453 METAR KSEA 200453Z 04007KT 5SM BR OVC004 05/02 A3030 RMK AO2 SLP272 T00500022=
201401200353 METAR KSEA 200353Z 05005KT 5SM BR OVC004 05/03 A3030 RMK AO2 SLP269 T00500028=
201401200253 METAR KSEA 200253Z 04006KT 4SM BR OVC004 06/03 A3028 RMK AO2 SLP264 T00560028 53014=
201401200153 METAR KSEA 200153Z 36004KT 2SM BR OVC004 06/03 A3026 RMK AO2 SFC VIS 5 SLP256 T00560033=
201401200106 SPECI KSEA 200106Z 31003KT 2SM BR OVC004 06/03 A3025 RMK AO2 SFC VIS 5=
201401200053 METAR KSEA 200053Z 00000KT 5SM BR OVC004 06/03 A3025 RMK AO2 SLP252 T00560033=
201401192353 METAR KSEA 192353Z 03004KT 3SM BR OVC004 06/03 A3024 RMK AO2 SLP250 T00610033 10061 20050 50001=
201401192253 METAR KSEA 192253Z 03008KT 1/2SM BR OVC004 06/04 A3026 RMK AO2 SFC VIS 1 1/4 SLP255 T00610039=
201401192153 METAR KSEA 192153Z 04004KT 1/2SM R16L/4000VP6000FT FG VV002 06/04 A3024 RMK AO2 SLP250 T00610044 $=
201401192053 METAR KSEA 192053Z 01007KT 1/2SM R16L/P6000FT BR OVC002 06/04 A3024 RMK AO2 SFC VIS 3/4 SLP249 T00560044 53013=
201401191953 METAR KSEA 191953Z 01005KT 1/2SM R16L/5000VP6000FT BR OVC002 06/04 A3022 RMK AO2 SFC VIS 3/4 SLP242 T00560039=
201401191853 METAR KSEA 191853Z 01003KT 1/8SM R16L/1800V3000FT FG VV002 06/04 A3021 RMK AO2 SFC VIS 1/4 SLP240 T00560039=
201401191803 SPECI KSEA 191803Z 02003KT 1/8SM R16L/1400V3000FT FG VV002 05/04 A3021 RMK AO2 SFC VIS 1/4=
201401191753 METAR KSEA 191753Z 05003KT 1/8SM R16L/1400V1600FT FG VV002 05/04 A3020 RMK AO2 SFC VIS 1/4 SLP236 T00500039 10050 20033 53004=
201401191731 SPECI KSEA 191731Z 04003KT 1/8SM R16L/1200V1600FT FG VV001 04/03 A3020 RMK AO2=
201401191653 METAR KSEA 191653Z 05006KT 1/8SM R16L/1200V3000FT FG VV001 04/03 A3019 RMK AO2 SLP234 T00440033=
201401191627 SPECI KSEA 191627Z 05007KT 1/8SM R16L/0800V2000FT FG VV001 04/03 A3019 RMK AO2 TWR VIS 1/2=
201401191620 SPECI KSEA 191620Z 06007KT 1/8SM R16L/1400V2400FT FG VV001 04/03 A3018 RMK AO2 TWR VIS 1/2=
201401191607 SPECI KSEA 191607Z 03008KT 1/4SM R16L/1400V3500FT FG VV001 04/03 A3019 RMK AO2 TWR VIS 1/2=
201401191553 METAR KSEA 191553Z 04006KT 1/4SM R16L/2000V4000FT FG VV002 04/03 A3019 RMK AO2 TWR VIS 1/2 SLP231 T00440028=
201401191512 SPECI KSEA 191512Z 04007KT 1/2SM R16L/2600V6000FT FG VV002 04/03 A3019 RMK AO2=
201401191453 METAR KSEA 191453Z 04008KT 1/4SM R16L/2800V4000FT FG VV001 04/03 A3019 RMK AO2 TWR VIS 1/2 SLP233 T00440028 50000=
201401191353 METAR KSEA 191353Z 00000KT 1/2SM R16L/4500V5500FT FG VV002 04/03 A3019 RMK AO2 SLP232 T00390028=
201401191310 SPECI KSEA 191310Z 04004KT 1/2SM R16L/2800V3500FT FG VV002 03/02 A3019 RMK AO2=
201401191253 METAR KSEA 191253Z 02006KT 1/4SM R16L/2400V4500FT FG VV001 03/02 A3020 RMK AO2 TWR VIS 1/2 SLP235 T00330022=
201401191153 METAR KSEA 191153Z 36006KT 1/4SM R16L/1000V1200FT FG VV001 03/02 A3019 RMK AO2 TWR VIS 1/2 SLP231 T00330017 10050 20028 53009=
201401191053 METAR KSEA 191053Z 36004KT 1/4SM R16L/1000V1200FT FG VV001 03/02 A3018 RMK AO2 TWR VIS 1/2 SLP229 T00330022=
201401190953 METAR KSEA 190953Z 03003KT 1/4SM R16L/1200V1400FT FG VV001 04/03 A3017 RMK AO2 TWR VIS 1/2 SLP224 T00440028=
201401190853 METAR KSEA 190853Z 05005KT 1/4SM R16L/1000FT FG VV001 04/03 A3016=
201401190824 SPECI KSEA 190824Z 04006KT 1/4SM R16L/1000V1200FT FG BKN001 03/02 A3017 RMK AO2 TWR VIS 1/2=
201401190815 SPECI KSEA 190815Z 05003KT 1/4SM R16L/1200V3000FT FG BKN001 03/02 A3016 RMK AO2 TWR VIS 1/2=
201401190807 SPECI KSEA 190807Z 03004KT 2SM R16L/1600V6000FT BR BKN001 03/02 A3017 RMK AO2 VIS SW-W 1=
201401190753 METAR KSEA 190753Z 02004KT 3SM R16L/2400VP6000FT BR SCT001 SCT070 BKN200 03/02 A3016 RMK AO2 SLP223 VIS SW-W 1 1/2 T00280017 400940006=
201401190737 SPECI KSEA 190737Z 01006KT 6SM BR FEW001 SCT070 BKN200 03/01 A3016 RMK AO2=
201401190653 METAR KSEA 190653Z 32003KT 7SM SCT070 SCT200 03/01 A3017 RMK AO2 SLP226 T00330011=
201401190553 METAR KSEA 190553Z 00000KT 7SM SCT070 SCT200 04/02 A3017 RMK AO2 SLP226 T00440017 10078 20039 58022=
201401190453 METAR KSEA 190453Z 12005KT 9SM CLR 06/03 A3019 RMK AO2 SLP233 T00560028=
201401190353 METAR KSEA 190353Z 03005KT 10SM BKN070 06/03 A3022 RMK AO2 SLP243 T00610028=
201401190253 METAR KSEA 190253Z 30007KT 10SM SCT070 SCT180 06/02 A3024 RMK AO2 PRESRR SLP248 T00560022 55005=
201401190153 METAR KSEA 190153Z 07006KT 10SM BKN070 BKN180 07/03 A3023 RMK AO2 SLP245 T00720028=
201401190053 METAR KSEA 190053Z 00000KT 10SM BKN075 BKN180 07/03 A3025 RMK AO2 SLP255 T00670028=
201401190009 SPECI KSEA 190009Z 00000KT 10SM SCT015 BKN070 08/03 A3026 RMK AO2=
201401182353 METAR KSEA 182353Z 02004KT 10SM BKN015 OVC070 08/03 A3025 RMK AO2 SLP253 T00780033 10094 20017 58004=
201401182253 METAR KSEA 182253Z 31003KT 10SM BKN015 BKN200 08/04 A3026 RMK AO2 SLP256 T00830039=
201401182153 METAR KSEA 182153Z 23003KT 10SM FEW010 SCT200 09/04 A3026 RMK AO2 SLP257 T00890039=
201401182053 METAR KSEA 182053Z 26004KT 10SM SCT010 08/03 A3026 RMK AO2 SLP256 T00780033 58000=
201401182033 SPECI KSEA 182033Z 23004KT 10SM SCT010 08/03 A3027 RMK AO2=
201401182003 SPECI KSEA 182003Z 15003KT 10SM BKN010 06/02 A3026 RMK AO2=
201401181953 METAR KSEA 181953Z 15004KT 10SM FEW006 SCT170 06/02 A3027 RMK AO2 SLP258 T00610022=
201401181853 METAR KSEA 181853Z 14008KT 10SM FEW001 BKN200 03/02 A3027 RMK AO2 SLP260 T00330017=
201401181837 SPECI KSEA 181837Z 14009KT 7SM BCFG FEW001 SCT006 BKN200 03/01 A3027 RMK AO2=
201401181834 SPECI KSEA 181834Z 12010KT 5SM BCFG FEW001 BKN006 03/01 A3027 RMK AO2=
201401181753 METAR KSEA 181753Z 14009KT 1/8SM R16L/2400V3500FT FG BKN001 02/01 A3026 RMK AO2 SFC VIS 1/2 SLP257 T00220006 10028 20006 53017=
201401181653 METAR KSEA 181653Z 15007KT 1/8SM R16L/P6000FT FG BKN001 BKN150 02/01 A3024 RMK AO2 SFC VIS 1/2 SLP250 T00220011=
201401181620 SPECI KSEA 181620Z 21006KT 1/8SM R16L/P6000FT FG BKN001 BKN150 02/01 A3022 RMK AO2 SFC VIS 1/2=
201401181617 SPECI KSEA 181617Z 22007KT 1/2SM R16L/P6000FT FG BKN001 BKN150 02/01 A3022 RMK AO2=
201401181558 SPECI KSEA 181558Z 18005KT 2SM R16L/1000V6000FT BCFG FEW001 BKN150 02/01 A3021 RMK AO2=
201401181553 METAR KSEA 181553Z 19006KT 1/2SM R16L/1000V1400FT FG BKN001 BKN150 02/01 A3021 RMK AO2 SLP240 T00220006=
201401181527 SPECI KSEA 181527Z 20004KT 1/4SM R16L/1200V1400FT FG BKN001 BKN150 01/00 A3021 RMK AO2=
201401181519 SPECI KSEA 181519Z 00000KT 1/2SM R16L/1400V2800FT FG BKN001 BKN150 01/00 A3021 RMK AO2=
201401181450 METAR KSEA 181450Z 00000KT 1 1/2SM R16L/2200VP6000FT BCFG FEW001 BKN150 01/M01 A3021=
201401181449 SPECI KSEA 181449Z 00000KT 1 1/2SM R16L/2000VP6000FT BR FEW001 BKN150 01/M01 A3021 RMK AO2 TWR VIS 7=
201401181424 SPECI KSEA 181424Z 17003KT 1/8SM R16L/1400V6000FT FG VV001 01/M01 A3021 RMK AO2 TWR VIS 1/4=
201401181414 SPECI KSEA 181414Z 16004KT 1/8SM R16L/1200V2200FT FG VV001 01/00 A3021 RMK AO2 TWR VIS 1/4=
201401181404 SPECI KSEA 181404Z 16003KT 1/8SM R16L/1200V2400FT FG VV001 01/00 A3021 RMK AO2 TWR VIS 1/4=
201401181353 METAR KSEA 181353Z 14005KT 1/8SM R16L/1200V1800FT FG VV001 01/00 A3021 RMK AO2 TWR VIS 1/4 SLP240 T00110000=
201401181253 METAR KSEA 181253Z 14004KT 1/8SM R16L/1200V1400FT FG VV001 02/01 A3021 RMK AO2 TWR VIS 1/4 SLP239 T00220011=
201401181153 METAR KSEA 181153Z 16003KT 1/8SM R16L/1000V1200FT FG VV001 02/01 A3022 RMK AO2 TWR VIS 1/4 SLP244 T00220011 10033 20022 51010=
201401181053 METAR KSEA 181053Z 14004KT 1/8SM R16L/1400V1600FT FG VV001 03/02 A3021 RMK AO2 TWR VIS 1/4 SLP241 T00280017=
201401180953 METAR KSEA 180953Z 17005KT 1/8SM R16L/1200FT FG VV001 03/02 A3020 RMK AO2 TWR VIS 1/4 SLP237 T00280017=
201401180937 SPECI KSEA 180937Z 14005KT 1/8SM R16L/1200V2400FT FG VV001 03/02 A3019 RMK AO2 TWR VIS 1/4=
201401180903 SPECI KSEA 180903Z 13004KT 1/4SM R16L/1400V1600FT FG VV001 03/02 A3019 RMK AO2=
201401180853 METAR KSEA 180853Z 12004KT 1/4SM R16L/1400V2400FT FG VV002 03/02 A3019 RMK AO2 SLP234 T00280017 56006=
201401180829 SPECI KSEA 180829Z 13005KT 1/4SM R16L/1600V2000FT FG VV002 03/02 A3020 RMK AO2=
201401180753 METAR KSEA 180753Z 13003KT 1/4SM R16L/4000VP6000FT FG VV002 03/02 A3019 RMK AO2 SLP234 T00280017 400560028=
201401180707 SPECI KSEA 180707Z 15007KT 1/4SM R16L/1600V2600FT FG VV002 03/02 A3020 RMK AO2=
201401180653 METAR KSEA 180653Z 13005KT 1/4SM R16L/1400V2200FT FG VV002 03/02 A3021 RMK AO2 SLP238 T00330022=
201401180645 SPECI KSEA 180645Z 14006KT 1/4SM R16L/1400V2200FT FG VV002 04/02 A3021 RMK AO2=
201401180553 METAR KSEA 180553Z 14003KT 1/4SM R16L/1600V2400FT FG VV002 04/02 A3021 RMK AO2 SFC VIS 1/2 SLP240 T00390022 10056 20033 53003=
201401180519 SPECI KSEA 180519Z 11003KT 1/4SM R16L/1600V2400FT FG VV002 04/02 A3021 RMK AO2=
201401180453 METAR KSEA 180453Z 15004KT 1/4SM R16L/1400V1800FT FG VV001 04/02 A3020 RMK AO2 SLP236 T00390022=
201401180423 SPECI KSEA 180423Z 00000KT 1/4SM R16L/1400V1800FT FG VV001 04/03 A3020 RMK AO2=
201401180401 SPECI KSEA 180401Z 00000KT 1/4SM R16L/1600V3000FT FG VV001 04/03 A3019 RMK AO2=
201401180353 METAR KSEA 180353Z 07003KT 1/4SM R16L/1600V1800FT FG VV001 04/03 A3020 RMK AO2 SLP235 T00390028=
201401180349 SPECI KSEA 180349Z 00000KT 1/4SM R16L/1600V2200FT FG VV001 04/03 A3020 RMK AO2=
201401180319 SPECI KSEA 180319Z 01004KT 1/2SM R16L/2800V6000FT BR VV002 04/03 A3020 RMK AO2 SFC VIS 3/4=
201401180253 METAR KSEA 180253Z 02004KT 1/2SM R16L/P6000FT BR OVC001 04/03 A3020 RMK AO2 SFC VIS 1 SLP237 T00440028 58007=
201401180205 SPECI KSEA 180205Z 02007KT 1/2SM BR OVC001 04/03 A3021 RMK AO2 SFC VIS 2=
201401180153 METAR KSEA 180153Z 03006KT 1/2SM BR OVC003 04/03 A3021 RMK AO2 SFC VIS 3 SLP240 T00440028=
201401180126 SPECI KSEA 180126Z 03006KT 1/2SM BR OVC003 05/03 A3022 RMK AO2 SFC VIS 3=
201401180053 METAR KSEA 180053Z 02003KT 2SM BR OVC003 06/03 A3022 RMK AO2 SFC VIS 3 SLP244 T00560033=
201401172353 METAR KSEA 172353Z 03007KT 2SM BR OVC003 06/03 A3022 RMK AO2 SFC VIS 3 SLP244 T00560028 10056 20039 56012=
201401172324 SPECI KSEA 172324Z 02006KT 2SM BR OVC003 05/03 A3022 RMK AO2 SFC VIS 3=
201401172253 METAR KSEA 172253Z 36007KT 1/8SM BR OVC003 06/03 A3023 RMK AO2 SFC VIS 2 SLP246 T00560033=
201401172153 METAR KSEA 172153Z VRB03KT 1/8SM BR OVC003 05/03 A3023 RMK AO2 SFC VIS 1 1/4 SLP247 T00500028=
201401172053 METAR KSEA 172053Z 01006KT 1/8SM R16L/P6000FT FG VV002 04/03 A3026 RMK AO2 SFC VIS 1/2 SLP256 T00440028 58017=
201401172013 SPECI KSEA 172013Z 35007KT 1/8SM R16L/1800V4500FT FG VV002 04/03 A3027 RMK AO2 SFC VIS 1/2=
201401171953 METAR KSEA 171953Z 01005KT 1/8SM R16L/1600V4000FT FG VV001 04/03 A3028 RMK AO2 SFC VIS 1/2 SLP263 T00440028=
201401171853 METAR KSEA 171853Z 02006KT 1/8SM R16L/0800V1400FT FG VV001 04/02 A3029 RMK AO2 SFC VIS 1/4 SLP268 T00390022=
201401171753 METAR KSEA 171753Z 03006KT 1/8SM R16L/0800V1200FT FG VV001 04/02 A3031=
201401171653 METAR KSEA 171653Z 04005KT 1/8SM R16L/0700V1600FT FG VV001 03/02 A3030 RMK AO2 SLP271 T00330022=
201401171553 METAR KSEA 171553Z 00000KT 1/8SM R16L/1000V2000FT FG VV001 04/02 A3029 RMK AO2 SLP266 T00390022=
201401171453 METAR KSEA 171453Z 02007KT 1/8SM R16L/1200V1800FT FG VV001 03/02 A3030 RMK AO2 SLP270 T00330022 58009=
201401171445 SPECI KSEA 171445Z 03007KT 1/8SM R16L/1200V1800FT FG VV001 04/02 A3030 RMK AO2=
201401171440 SPECI KSEA 171440Z 02006KT 1/8SM R16L/1200V3000FT FG VV001 04/02 A3030 RMK AO2=
201401171353 METAR KSEA 171353Z 03007KT 1/8SM R16L/1000V1400FT FG VV001 04/02 A3031 RMK AO2 SLP273 T00390022=
201401171253 METAR KSEA 171253Z 02004KT 1/8SM R16L/1000V1400FT FG VV001 04/02 A3032 RMK AO2 SLP277 T00390022=
201401171153 METAR KSEA 171153Z 03003KT 1/8SM R16L/0800V1000FT FG VV001 04/02 A3033 RMK AO2 SLP279 T00390022 10050 20039 58007=
201401171053 METAR KSEA 171053Z 01003KT 1/8SM R16L/0800V1000FT FG VV001 04/03 A3033 RMK AO2 SLP282 T00390028=
201401170953 METAR KSEA 170953Z 36004KT 1/8SM R16L/1000FT FG VV001 04/03 A3034 RMK AO2 SLP284 T00440033=
201401170853 METAR KSEA 170853Z 04005KT 1/4SM R16L/1000V1400FT FG VV001 04/03 A3035 RMK AO2 SLP286 T00440033 58008=
201401170753 METAR KSEA 170753Z 35004KT 1/4SM R16L/1400V2000FT FG VV001 05/04 A3035 RMK AO2 SLP288 T00500039 400670044=
201401170653 METAR KSEA 170653Z 02004KT 1/4SM R16L/2000V3000FT FG VV001 05/04 A3037 RMK AO2 SLP292 T00500039=
201401170636 SPECI KSEA 170636Z 02003KT 1/4SM R16L/2200VP6000FT FG VV001 05/04 A3037 RMK AO2=
201401170553 METAR KSEA 170553Z 01005KT 1/4SM R16L/3000VP6000FT FG VV002 05/03 A3037 RMK AO2 SFC VIS 1/2 SLP294 T00500033 10061 20050 58004=
201401170453 METAR KSEA 170453Z 03005KT 1/2SM R16L/2000V6000FT BR OVC002 05/03 A3038 RMK AO2 SFC VIS 3/4 SLP298 T00500033=
201401170353 METAR KSEA 170353Z 34004KT 1/2SM BR OVC002 06/04 A3038 RMK AO2 SFC VIS 3 SLP296 T00560039=
201401170253 METAR KSEA 170253Z 02005KT 1/2SM BR OVC002 06/04 A3038 RMK AO2 SFC VIS 3 SLP297 T00560039 58012=
201401170237 SPECI KSEA 170237Z 02005KT 1 1/4SM BR OVC002 06/04 A3039 RMK AO2 SFC VIS 3=
201401170153 METAR KSEA 170153Z 05006KT 2SM BR OVC004 06/03 A3040 RMK AO2 SFC VIS 3 SLP302 T00560033=
201401170053 METAR KSEA 170053Z 03005KT 2SM BR OVC004 06/03 A3042 RMK AO2 SFC VIS 3 SLP309 T00610033=
201401162353 METAR KSEA 162353Z 01005KT 2SM BR OVC004 06/04 A3042 RMK AO2 SFC VIS 3 SLP309 T00610039 10067 20050 56009=
201401162338 SPECI KSEA 162338Z 01004KT 2SM BR OVC004 06/04 A3042 RMK AO2 SFC VIS 3=
201401162253 METAR KSEA 162253Z 01004KT 1/4SM R16L/P6000FT BR OVC002 06/04 A3042 RMK AO2 SFC VIS 1 SLP309 T00610044=
201401162153 METAR KSEA 162153Z 03003KT 1/4SM R16L/P6000FT FG OVC002 06/04 A3042 RMK AO2 SFC VIS 1/2 SLP310 T00560044=
201401162129 SPECI KSEA 162129Z VRB03KT 1/4SM R16L/5000VP6000FT FG OVC002 06/04 A3043 RMK AO2 SFC VIS 1/2=
201401162053 METAR KSEA 162053Z 03004KT 1/4SM R16L/4000VP6000FT FG OVC001 06/04 A3045 RMK AO2 SFC VIS 1/2 SLP319 T00560044 58016=
201401161953 METAR KSEA 161953Z 01003KT 1/4SM R16L/1600VP6000FT FG VV001 06/04 A3047 RMK AO2 SFC VIS 1/2 SLP328 T00560044=
201401161853 METAR KSEA 161853Z VRB03KT 1/4SM R16L/1000V3500FT FG VV001 06/04 A3048 RMK AO2 SLP332 T00560044=
201401161753 METAR KSEA 161753Z 34004KT 1/4SM R16L/0800V1200FT FG VV001 05/04 A3049 RMK AO2 SLP334 T00500039 10056 20044 50002=
201401161653 METAR KSEA 161653Z 36003KT 1/4SM R16L/0800V1400FT FG VV001 05/04 A3050 RMK AO2 SLP336 T00500039=
201401161608 SPECI KSEA 161608Z 05006KT 1/4SM R16L/0800V1400FT FG VV001 05/03 A3049 RMK AO2=
201401161553 METAR KSEA 161553Z 06005KT 1/4SM R16L/1400V2800FT FG VV001 05/03 A3049 RMK AO2 SLP332 T00500033=
201401161510 SPECI KSEA 161510Z 36007KT 1/4SM R16L/1400V2000FT FG VV001 05/03 A3049 RMK AO2=
201401161453 METAR KSEA 161453Z 02005KT 1/4SM R16L/1400V2800FT FG VV001 05/04 A3049 RMK AO2 SLP332 T00500039 57002=
201401161419 SPECI KSEA 161419Z 02005KT 1/4SM R16L/1200V2800FT FG VV001 05/04 A3049 RMK AO2=
201401161406 SPECI KSEA 161406Z 04006KT 1/4SM R16L/1000V1200FT FG VV001 06/04 A3049 RMK AO2=
201401161353 METAR KSEA 161353Z 02008KT 1/4SM R16L/1200V2400FT FG VV001 06/04 A3049 RMK AO2 SLP333 T00560039=
201401161253 METAR KSEA 161253Z 02008KT 1/4SM R16L/1400V2000FT FG VV001 05/04 A3049 RMK AO2 SLP334 T00500039=
201401161243 SPECI KSEA 161243Z 02008KT 1/4SM R16L/1400V1800FT FG VV001 05/04 A3049 RMK AO2=
201401161233 SPECI KSEA 161233Z 01007KT 1/4SM R16L/1200V2800FT FG VV001 05/04 A3049 RMK AO2=
201401161153 METAR KSEA 161153Z 02006KT 1/4SM R16L/1200V1400FT FG VV001 06/04 A3049 RMK AO2 SLP333 T00560039 10072 20050 55002=
201401161053 METAR KSEA 161053Z 01007KT 1/4SM R16L/1200V1400FT FG VV001 06/04 A3049 RMK AO2 SLP333 T00560044=
201401161044 SPECI KSEA 161044Z 02010KT 1/4SM R16L/1200V1400FT FG VV001 06/04 A3049 RMK AO2=
201401161034 SPECI KSEA 161034Z 01009KT 1/4SM R16L/1200V2400FT FG VV001 06/04 A3050 RMK AO2=
201401161022 SPECI KSEA 161022Z 02005KT 1/4SM R16L/1800V2000FT FG VV001 06/04 A3050 RMK AO2=
201401160953 METAR KSEA 160953Z 02008KT 1/4SM R16L/1800V2600FT FG VV001 06/04 A3050 RMK AO2 SLP335 T00560044=
201401160928 SPECI KSEA 160928Z 02008KT 1/2SM R16L/1600V2200FT FG VV001 06/04 A3049 RMK AO2=
201401160918 SPECI KSEA 160918Z 02007KT 1/2SM R16L/1400V2400FT FG VV001 06/04 A3049 RMK AO2=
201401160906 SPECI KSEA 160906Z 01009KT 1/2SM R16L/1600V2200FT FG VV001 06/04 A3050 RMK AO2=
201401160853 METAR KSEA 160853Z 04011KT 1/2SM R16L/1800V2400FT FG VV001 06/04 A3050 RMK AO2 SLP335 T00610044 58005=
201401160821 SPECI KSEA 160821Z 03005KT 1/2SM R16L/2000VP6000FT FG VV001 06/05 A3050 RMK AO2=
201401160753 METAR KSEA 160753Z 01009KT 1/2SM R16L/1400V1800FT FG VV001 06/05 A3050 RMK AO2 SLP337 T00610050 401110056=
201401160746 SPECI KSEA 160746Z 02009KT 1/2SM R16L/1200V1400FT FG VV001 06/05 A3050 RMK AO2=
201401160653 METAR KSEA 160653Z 02008KT 3/4SM R16L/6000VP6000FT BR OVC001 07/05 A3051 RMK AO2 SLP339 T00670050=
201401160635 SPECI KSEA 160635Z 01009KT 2SM BR OVC001 07/05 A3051 RMK AO2 TWR VIS 3=
201401160553 METAR KSEA 160553Z 02010KT 3SM BKN003 07/05 A3051 RMK AO2 SFC VIS 7 SLP341 T00720050 10100 20061 56002=
201401160520 SPECI KSEA 160520Z 02009KT 8SM FEW003 07/04 A3051 RMK AO2=
201401160453 METAR KSEA 160453Z 01008KT 10SM CLR 07/04 A3051 RMK AO2 SLP341 T00670044=
201401160353 METAR KSEA 160353Z 02007KT 10SM CLR 08/05 A3051 RMK AO2 SLP342 T00780050=
201401160253 METAR KSEA 160253Z 36004KT 10SM SCT250 07/04 A3052 RMK AO2 SLP343 T00670044 56009=
201401160153 METAR KSEA 160153Z 35007KT 10SM FEW160 SCT250 07/04 A3052 RMK AO2 SLP345 T00720044=
201401160053 METAR KSEA 160053Z 36007KT 10SM FEW160 BKN240 09/04 A3053 RMK AO2 SLP345 T00890044=
201401152353 METAR KSEA 152353Z 01007KT 10SM FEW160 BKN240 11/05 A3054 RMK AO2 SLP350 T01060050 10111 20083 55007=
201401152253 METAR KSEA 152253Z 01005KT 10SM FEW180 BKN240 11/04 A3053 RMK AO2 SLP347 T01060044=
201401152153 METAR KSEA 152153Z 01005KT 10SM FEW007 BKN180 BKN250 11/04 A3054 RMK AO2 SLP349 FG BANK SW-NW T01060044=
201401152053 METAR KSEA 152053Z VRB04KT 10SM FEW006 SCT120 BKN180 BKN250 11/05 A3056 RMK AO2 SLP358 ACSL DSNT SE T01060050 58014=
201401151953 METAR KSEA 151953Z 36003KT 9SM FEW006 SCT180 BKN250 10/06 A3059 RMK AO2 SLP365 T01000061=
201401151853 METAR KSEA 151853Z 03004KT 7SM FEW005 BKN250 09/06 A3060 RMK AO2 SLP370 T00940061=
201401151836 SPECI KSEA 151836Z 01003KT 7SM FEW005 BKN250 09/06 A3060 RMK AO2=
201401151753 METAR KSEA 151753Z 02007KT 6SM HZ OVC005 08/06 A3061 RMK AO2 SLP372 T00830056 10083 20056 53015=
201401151738 SPECI KSEA 151738Z 02007KT 5SM BR OVC005 08/06 A3060 RMK AO2=
201401151653 METAR KSEA 151653Z 04003KT 9SM OVC006 08/04 A3059 RMK AO2 SLP366 T00780044=
201401151553 METAR KSEA 151553Z 00000KT 10SM BKN007 OVC200 07/04 A3057 RMK AO2 SLP361 T00670039=
201401151453 METAR KSEA 151453Z 13003KT 10SM BKN007 OVC015 07/04 A3056 RMK AO2 SLP358 T00670039 58014=
201401151353 METAR KSEA 151353Z 18003KT 9SM SCT003 OVC009 07/04 A3058 RMK AO2 SLP363 T00670044=
201401151315 SPECI KSEA 151315Z 00000KT 10SM OVC003 07/04 A3060 RMK AO2=
201401151253 METAR KSEA 151253Z 12004KT 10SM BKN007 07/04 A3060 RMK AO2 SLP370 T00720044=
201401151248 SPECI KSEA 151248Z 10005KT 10SM BKN007 07/04 A3060 RMK AO2=
201401151206 SPECI KSEA 151206Z 12004KT 10SM FEW013 BKN043 07/05 A3062 RMK AO2=
201401151153 METAR KSEA 151153Z 07004KT 10SM SCT004 BKN013 OVC043 08/06 A3062 RMK AO2 SLP376 T00780056 10089 20078 53013=
201401151140 SPECI KSEA 151140Z 06003KT 7SM BKN002 BKN006 OVC043 08/06 A3062 RMK AO2=
201401151053 METAR KSEA 151053Z 00000KT 1SM R16L/P6000FT BR OVC002 08/07 A3061 RMK AO2 SLP374 T00830067=
201401150953 METAR KSEA 150953Z 00000KT 1/2SM R16L/2800V5000FT FG OVC002 08/07 A3058 RMK AO2 SLP364 T00830067=
201401150853 METAR KSEA 150853Z 05004KT 6SM BR OVC004 08/06 A3058 RMK AO2 SLP363 T00780056 58004=
201401150753 METAR KSEA 150753Z 00000KT 4SM BR BKN004 OVC032 09/07 A3058 RMK AO2 SLP365 T00890067 401110072=
201401150727 SPECI KSEA 150727Z 00000KT 3SM BR BKN004 OVC031 08/07 A3058 RMK AO2=
201401150726 SPECI KSEA 150726Z 00000KT 2 1/2SM BR BKN001 OVC025 08/07 A3059 RMK AO2 VIS 3/4V5=
201401150706 SPECI KSEA 150706Z 00000KT 1/2SM R16L/1200VP6000FT FG BKN001 OVC025 08/07 A3059 RMK AO2=
201401150704 SPECI KSEA 150704Z 00000KT 1SM R16L/1200VP6000FT BR OVC025 08/07 A3059 RMK AO2=
201401150653 METAR KSEA 150653Z 00000KT 5SM BR FEW015 OVC025 08/07 A3059 RMK AO2 SLP367 T00780067=
201401150553 METAR KSEA 150553Z 00000KT 5SM BR OVC029 08/07 A3059 RMK AO2 SLP367 T00830067 10100 20072 58010=
201401150453 METAR KSEA 150453Z 00000KT 10SM OVC029 08/07 A3061 RMK AO2 SLP372 T00830067=
201401150353 METAR KSEA 150353Z 29003KT 10SM FEW015 OVC025 08/06 A3061 RMK AO2 SLP373 T00830061=
201401150253 METAR KSEA 150253Z 00000KT 10SM BKN025 BKN220 09/07 A3062 RMK AO2 SLP377 T00890067 58001=
201401150153 METAR KSEA 150153Z 36004KT 10SM FEW025 BKN220 08/06 A3062 RMK AO2 SLP377 T00780056=
201401150053 METAR KSEA 150053Z 31004KT 10SM FEW025 SCT150 BKN220 09/07 A3063 RMK AO2 SLP380 T00890067=
201401142353 METAR KSEA 142353Z 00000KT 10SM SCT024 BKN140 BKN220 10/07 A3062 RMK AO2 SLP378 ACSL SE T01000072 10111 20100 58005=
201401142338 SPECI KSEA 142338Z 00000KT 10SM SCT024 BKN140 BKN200 11/08 A3062 RMK AO2 ACSL SE=
201401142253 METAR KSEA 142253Z 00000KT 10SM FEW012 BKN020 BKN140 BKN200 11/07 A3063 RMK AO2 SLP380 ACSL SE T01110072=
201401142228 SPECI KSEA 142228Z 29003KT 10SM SCT012 BKN020 BKN140 OVC200 11/07 A3063 RMK AO2 ACSL SE=
201401142153 METAR KSEA 142153Z 00000KT 10SM BKN012 BKN020 OVC200 11/07 A3063 RMK AO2 SLP381 T01110067=
201401142053 METAR KSEA 142053Z 00000KT 10SM FEW008 OVC012 11/07 A3064 RMK AO2 SLP383 T01060072 58010=
201401142045 SPECI KSEA 142045Z 00000KT 10SM SCT008 OVC012 11/07 A3064 RMK AO2=
201401141953 METAR KSEA 141953Z 19003KT 10SM BKN007 OVC020 10/07 A3065 RMK AO2 SLP388 T01000072=
201401141917 SPECI KSEA 141917Z 19004KT 10SM BKN009 OVC013 10/07 A3067 RMK AO2=
201401141853 METAR KSEA 141853Z 25003KT 10SM BKN010 OVC021 10/07 A3067 RMK AO2 SLP395 T01000072=
201401141753 METAR KSEA 141753Z 00000KT 7SM FEW007 BKN013 OVC220 10/07 A3067 RMK AO2 SLP393 60000 T01000072 10100 20089 55003=
201401141714 SPECI KSEA 141714Z 00000KT 10SM FEW008 BKN013 OVC200 09/07 A3067 RMK AO2=
201401141653 METAR KSEA 141653Z 00000KT 10SM SCT010 SCT028 OVC220 09/07 A3066 RMK AO2 SLP391 T00940067=
201401141646 SPECI KSEA 141646Z 16003KT 10SM SCT010 SCT028 OVC220 09/07 A3066 RMK AO2=
201401141553 METAR KSEA 141553Z 15004KT 10SM BKN010 OVC027 10/07 A3066 RMK AO2 SLP392 T01000067=
201401141542 SPECI KSEA 141542Z 15003KT 10SM BKN011 OVC027 10/07 A3066 RMK AO2=
201401141453 METAR KSEA 141453Z 15003KT 10SM FEW008 OVC025 10/07 A3068 RMK AO2 DZB1356E50 SLP396 P0000 60000 T01000072 53004=
201401141353 METAR KSEA 141353Z 20003KT 10SM FEW015 OVC027 09/07 A3066 RMK AO2 SLP391 T00940072=
201401141253 METAR KSEA 141253Z 21005KT 7SM BKN015 BKN019 OVC027 10/07 A3067 RMK AO2 SLP393 T01000072=
201401141153 METAR KSEA 141153Z 18007KT 10SM SCT011 BKN021 OVC032 10/07 A3066 RMK AO2 SLP391 60000 T01000072 10106 20100 53009=
201401141053 METAR KSEA 141053Z 19006KT 10SM SCT012 BKN021 10/07 A3066 RMK AO2 RAE01 SLP389 P0000 T01000072=
201401141046 SPECI KSEA 141046Z 18007KT 10SM SCT012 BKN019 10/07 A3065 RMK AO2 RAE01 P0000=
201401140953 METAR KSEA 140953Z 19009KT 7SM -RA BKN012 OVC020 10/07 A3064 RMK AO2 RAB52 SLP384 P0000 T01000072=
201401140853 METAR KSEA 140853Z 17007KT 10SM BKN012 OVC020 11/07 A3064 RMK AO2 SLP382 T01060072 51007=
201401140753 METAR KSEA 140753Z 18008KT 10SM BKN014 OVC020 11/07 A3063 RMK AO2 SLP380 T01060072 401060100=
201401140653 METAR KSEA 140653Z 19008KT 10SM BKN014 OVC030 11/08 A3063 RMK AO2 SLP379 T01060078=
201401140616 SPECI KSEA 140616Z 20007KT 10SM OVC014 11/08 A3062 RMK AO2=
201401140553 METAR KSEA 140553Z 21009KT 10SM OVC016 10/08 A3061 RMK AO2 SLP375 T01000078 10106 20100 51012=
201401140550 SPECI KSEA 140550Z 20009KT 10SM OVC016 10/08 A3061 RMK AO2=
201401140511 SPECI KSEA 140511Z 20011KT 10SM OVC012 10/08 A3059 RMK AO2=
201401140453 METAR KSEA 140453Z 20007KT 10SM OVC009 10/08 A3059 RMK AO2 SLP366 T01000078=
201401140423 SPECI KSEA 140423Z 22008KT 10SM OVC009 10/08 A3059 RMK AO2=
201401140353 METAR KSEA 140353Z 21009KT 10SM OVC011 10/08 A3058 RMK AO2 SLP362 T01000078=
201401140253 METAR KSEA 140253Z 21009KT 10SM OVC011 11/08 A3057 RMK AO2 SLP360 T01060078 51008=
201401140153 METAR KSEA 140153Z 20007KT 10SM OVC013 11/08 A3056 RMK AO2 SLP358 T01060078=
201401140053 METAR KSEA 140053Z 20010KT 10SM OVC013 11/08 A3056 RMK AO2 SLP357 T01060078=
201401132353 METAR KSEA 132353Z 21009KT 10SM OVC013 11/08 A3055 RMK AO2 SLP351 T01060078 10106 20100 53014=
201401132253 METAR KSEA 132253Z 20011KT 10SM OVC013 11/08 A3053 RMK AO2 SLP345 T01060078=
201401132223 SPECI KSEA 132223Z 20010KT 10SM OVC013 11/08 A3052 RMK AO2=
201401132153 METAR KSEA 132153Z 21008KT 10SM OVC009 11/08 A3051 RMK AO2 SLP340 T01060078=
201401132053 METAR KSEA 132053Z 20012G21KT 10SM OVC009 11/08 A3050 RMK AO2 SLP337 T01060078 53005=
201401132027 SPECI KSEA 132027Z 19011G17KT 10SM OVC008 11/08 A3050 RMK AO2=
201401131953 METAR KSEA 131953Z 20014G25KT 10SM OVC010 11/07 A3049 RMK AO2 PK WND 21030/1914 SLP332 T01060072=
201401131853 METAR KSEA 131853Z 21015G22KT 10SM OVC010 10/07 A3049 RMK AO2 PK WND 19027/1817 SLP332 T01000072=
201401131753 METAR KSEA 131753Z 21012G23KT 10SM SCT008 OVC012 10/07 A3049 RMK AO2 PK WND 21034/1701 SLP331 T01000067 10100 20100 53023=
201401131707 SPECI KSEA 131707Z 21021G34KT 10SM OVC013 10/07 A3045 RMK AO2 PK WND 21034/1701=
201401131653 METAR KSEA 131653Z 21024G36KT 10SM OVC015 10/07 A3043 RMK AO2 PK WND 20036/1652 SLP314 T01000067=
201401131629 SPECI KSEA 131629Z 21021G33KT 10SM BKN015 OVC020 10/06 A3042 RMK AO2 PK WND 20033/1621=
201401131553 METAR KSEA 131553Z 21014G26KT 10SM BKN014 OVC020 10/07 A3044 RMK AO2 PK WND 20029/1530 SLP315 T01000067=
201401131453 METAR KSEA 131453Z 21018G26KT 10SM BKN014 OVC020 10/07 A3042 RMK AO2 PK WND 22028/1424 SLP308 T01000067 53014=
201401131353 METAR KSEA 131353Z 21018G28KT 10SM OVC014 10/07 A3039 RMK AO2 PK WND 21039/1335 SLP300 T01000067=
201401131253 METAR KSEA 131253Z 21021G32KT 10SM BKN012 OVC019 10/07 A3038 RMK AO2 PK WND 20032/1250 SLP297 T01000067=
201401131153 METAR KSEA 131153Z 20024G32KT 10SM BKN012 OVC030 10/07 A3038 RMK AO2 PK WND 20032/1150 SLP294 70006 T01000067 10106 20100 51020=
201401131053 METAR KSEA 131053Z 19022G27KT 10SM OVC012 10/07 A3037 RMK AO2 PK WND 21032/1010 SLP291 T01000072=
201401130953 METAR KSEA 130953Z 19022G29KT 10SM BKN012 OVC030 10/07 A3033 RMK AO2 PK WND 20031/0907 SLP280 T01000072=
201401130853 METAR KSEA 130853Z 20020G30KT 10SM OVC010 10/07 A3032 RMK AO2 PK WND 21034/0756 SLP274 T01000072 53018=
201401130753 METAR KSEA 130753Z 20024G32KT 10SM OVC009 10/07 A3029 RMK AO2 PK WND 20032/0748 SLP265 T01000072 401110056=
201401130653 METAR KSEA 130653Z 20020G26KT 10SM OVC014 11/07 A3029 RMK AO2 PK WND 19029/0611 SLP263 T01060072=
201401130553 METAR KSEA 130553Z 20014G25KT 10SM OVC014 11/07 A3026 RMK AO2 SLP256 T01060067 10111 20100 52022=
201401130453 METAR KSEA 130453Z 19014G22KT 10SM OVC013 11/07 A3024 RMK AO2 SLP249 T01060067=
201401130353 METAR KSEA 130353Z 20015G26KT 10SM OVC013 11/07 A3022 RMK AO2 PK WND 20026/0344 SLP240 T01060067=
201401130253 METAR KSEA 130253Z 21019G25KT 10SM BKN014 OVC035 11/07 A3020 RMK AO2 PK WND 20029/0154 SLP233 T01060067 53026=
201401130153 METAR KSEA 130153Z 21019G28KT 10SM BKN012 OVC030 11/07 A3016 RMK AO2 PK WND 21029/0141 SLP221 T01060072=
201401130053 METAR KSEA 130053Z 21018G24KT 10SM BKN012 OVC023 11/08 A3014 RMK AO2 PK WND 19029/0016 SLP215 T01060078=
201401122353 METAR KSEA 122353Z 20016G24KT 10SM BKN010 OVC014 11/08 A3012 RMK AO2 PK WND 19026/2332 SLP207 T01060078 10106 20061 53018=
201401122253 METAR KSEA 122253Z 21019G31KT 10SM BKN010 OVC014 10/07 A3009 RMK AO2 PK WND 20031/2247 SLP198 T01000072=
201401122153 METAR KSEA 122153Z 21023G30KT 10SM OVC007 10/07 A3007 RMK AO2 PK WND 22030/2152 SLP190 T01000072=
201401122053 METAR KSEA 122053Z 20020G29KT 10SM OVC009 09/07 A3007 RMK AO2 PK WND 20030/2023 SLP189 T00940067 50001=
201401121953 METAR KSEA 121953Z 20018G24KT 10SM OVC009 09/06 A3007 RMK AO2 PK WND 18030/1917 SLP189 T00890061=
201401121935 SPECI KSEA 121935Z 20016G28KT 10SM BKN009 OVC014 08/06 A3007 RMK AO2 PK WND 18030/1917=
201401121853 METAR KSEA 121853Z 20018KT 10SM OVC010 08/05 A3007 RMK AO2 SLP191 T00780050=
201401121833 SPECI KSEA 121833Z 19015KT 10SM BKN010 OVC015 07/04 A3007 RMK AO2=
201401121753 METAR KSEA 121753Z 16008KT 10SM OVC021 06/03 A3006 RMK AO2 RAE33 SLP188 P0001 60006 T00610033 10078 20056 53008=
201401121653 METAR KSEA 121653Z 17011KT 9SM -RA SCT012 OVC034 06/03 A3005 RMK AO2 SLP184 P0002 T00560028=
201401121644 SPECI KSEA 121644Z 17011KT 9SM -RA BKN012 BKN026 OVC038 06/03 A3006 RMK AO2 P0002=
201401121635 SPECI KSEA 121635Z 17011G19KT 10SM -RA SCT009 BKN015 OVC034 06/03 A3005 RMK AO2 P0002=
201401121553 METAR KSEA 121553Z 19015KT 10SM -RA BKN009 OVC015 06/03 A3005 RMK AO2 SLP184 P0003 T00610033=
201401121502 SPECI KSEA 121502Z 20014KT 10SM -RA SCT014 BKN022 OVC050 07/03 A3004 RMK AO2 P0001=
201401121453 METAR KSEA 121453Z 20013KT 10SM -RA FEW022 OVC060 07/04 A3004 RMK AO2 PK WND 22026/1421 RAB34 SLP180 P0000 60000 T00670039 51026=
201401121406 SPECI KSEA 121406Z 22013G26KT 10SM FEW022 SCT047 OVC070 07/03 A3003 RMK AO2 PK WND 22026/1358=
201401121353 METAR KSEA 121353Z 22017G23KT 10SM BKN025 OVC080 08/02 A3002 RMK AO2 SLP173 T00780022=
201401121309 SPECI KSEA 121309Z 21011G22KT 10SM BKN024 OVC065 08/02 A3001 RMK AO2=
201401121253 METAR KSEA 121253Z 22014G22KT 10SM SCT024 OVC075 08/02 A3000=
201401121153 METAR KSEA 121153Z 21012G25KT 10SM FEW021 OVC100 08/02 A2996 RMK AO2 PK WND 23027/1140 SLP154 70079 T00780022 10078 20072 51042=
201401121053 METAR KSEA 121053Z 22009G18KT 10SM BKN100 OVC200 07/02 A2993 RMK AO2 SLP144 T00720022=
201401120953 METAR KSEA 120953Z 22014G18KT 10SM SCT100 OVC200 08/02 A2989 RMK AO2 SLP128 T00780017=
201401120853 METAR KSEA 120853Z 24010G16KT 10SM SCT110 OVC200 07/02 A2984 RMK AO2 SLP111 T00720022 51052=
201401120753 METAR KSEA 120753Z 21007KT 10SM FEW020 SCT110 OVC200 07/03 A2979 RMK AO2 SLP094 T00720028 401440072=
201401120653 METAR KSEA 120653Z 21009KT 10SM SCT110 07/03 A2975 RMK AO2 SLP080 T00720028=
201401120553 METAR KSEA 120553Z 22004KT 10SM FEW110 07/03 A2968 RMK AO2 SLP058 60000 T00720033 10083 20072 53063=
201401120521 SPECI KSEA 120521Z VRB06G17KT 10SM SCT015 08/04 A2965 RMK AO2=
201401120453 METAR KSEA 120453Z 21017G25KT 10SM BKN015 OVC022 08/04 A2960 RMK AO2 PK WND 21027/0425 SLP032 T00780039=
201401120353 METAR KSEA 120353Z 23014G19KT 10SM BKN017 OVC023 08/04 A2956 RMK AO2 PK WND 21028/0254 SLP015 T00830039=
201401120253 METAR KSEA 120253Z 22020G27KT 10SM BKN019 BKN045 08/04 A2949 RMK AO2 PK WND 23031/0220 SLP993 60000 T00830039 53023=
201401120153 METAR KSEA 120153Z 22018G34KT 7SM FEW019 BKN045 BKN110 08/04 A2945 RMK AO2 PK WND 22034/0149 RAE05 SLP979 P0000 T00830044=
201401120140 SPECI KSEA 120140Z 21019G29KT 5SM HZ FEW019 BKN045 BKN110 08/04 A2944 RMK AO2 PK WND 22031/0128 RAE05 P0000=
201401120053 METAR KSEA 120053Z 20021G32KT 5SM -RA BKN017 BKN024 OVC043 08/05 A2941 RMK AO2 PK WND 19032/0048 RAB04 PRESFR SLP964 P0000 T00780050=
201401112353 METAR KSEA 112353Z 20017G27KT 10SM FEW017 OVC023 08/05 A2942 RMK AO2 PK WND 20035/2323 RAB2255E53 SLP970 P0003 60027 T00780050 10094 20078 53008=
201401112253 METAR KSEA 112253Z 21017G31KT 5SM HZ FEW017 BKN028 OVC042 08/05 A2940 RMK AO2 PK WND 19033/2201 RAE48 SLP960 P0011 T00830050=
201401112230 SPECI KSEA 112230Z 21021G28KT 2 1/2SM +RA BKN019 BKN028 OVC035 08/05 A2939 RMK AO2 PK WND 19033/2201 P0004=
201401112153 METAR KSEA 112153Z 19021G28KT 10SM -RA FEW015 BKN019 OVC033 08/05 A2938 RMK AO2 PK WND 19045/2121 SLP953 P0005 T00830050=
201401112134 SPECI KSEA 112134Z 19022G33KT 6SM -RA FEW015 BKN026 OVC037 08/05 A2939 RMK AO2 PK WND 19045/2121 P0005=
201401112053 METAR KSEA 112053Z 19017G31KT 10SM -RA SCT018 BKN037 OVC055 08/05 A2940 RMK AO2 PK WND 20049/1959 PRESFR SLP960 P0006 60008 T00830050 56030=
201401112024 SPECI KSEA 112024Z 20022G38KT 10SM -RA BKN018 OVC027 08/05 A2943 RMK AO2 PK WND 20049/1959 P0005=
201401112005 SPECI KSEA 112005Z 21025G49KT 2 1/2SM RA FEW018 BKN027 OVC035 08/04 A2943 RMK AO2 PK WND 20049/1959 PRESRR P0003=
201401111953 METAR KSEA 111953Z 20028G39KT 7SM -RA OVC032 09/04 A2942 RMK AO2 PK WND 22039/1951 SLP967 P0002 T00890044 $=
201401111853 METAR KSEA 111853Z 18016G24KT 10SM -RA BKN030 OVC036 09/04 A2944 RMK AO2 PK WND 17028/1837 SLP975 P0000 T00890044 $=
201401111753 METAR KSEA 111753Z 18019G28KT 10SM -RA SCT038 BKN055 OVC070 08/04 A2949 RMK AO2 PK WND 17028/1749 RAE02B42 SLP992 P0000 60052 T00830044 10094 20072 58013 $=
201401111653 METAR KSEA 111653Z 20018G25KT 10SM -RA FEW020 BKN060 BKN110 08/04 A2952 RMK AO2 PK WND 20035/1606 RAE18B52 SLP002 P0004 T00780039 $=
201401111638 SPECI KSEA 111638Z 20016G23KT 10SM FEW014 BKN060 BKN110 07/04 A2952 RMK AO2 PK WND 20035/1606 RAE18 P0004 $=
201401111553 METAR KSEA 111553Z 22017G28KT 7SM -RA BKN018 OVC025 08/05 A2954 RMK AO2 PK WND 20028/1548 SLP011 P0007 T00780050 $=
201401111519 SPECI KSEA 111519Z 17008KT 4SM +RA BR FEW008 BKN020 OVC028 08/06 A2953 RMK AO2 P0003 $=
201401111453 METAR KSEA 111453Z 22017G27KT 8SM -RA SCT014 BKN025 OVC029 08/05 A2953 RMK AO2 PK WND 20027/1444 SLP005 P0002 60041 T00780050 51033 $=
201401111417 SPECI KSEA 111417Z 19017G21KT 10SM SCT013 BKN034 OVC047 08/06 A2951 RMK AO2 PK WND 20026/1406 RAE16 P0000 $=
201401111353 METAR KSEA 111353Z 20017G22KT 10SM -RA SCT015 BKN021 OVC040 08/06 A2951 RMK AO2 PK WND 24034/1331 SLP000 P0005 T00830056 $=
201401111331 SPECI KSEA 111331Z 23026G34KT 9SM RA FEW007 BKN017 OVC030 09/06 A2952 RMK AO2 PK WND 24034/1331 PRESRR P0003 $=
201401111253 METAR KSEA 111253Z 22018G32KT 4SM RA FEW007 SCT021 OVC035 09/07 A2948 RMK AO2 PK WND 24037/1224 WSHFT 1212 SLP989 P0034 T00940067 $=
201401111238 SPECI KSEA 111238Z 25018G27KT 3SM RA BR FEW007 BKN021 OVC032 10/08 A2947 RMK AO2 PK WND 24037/1224 WSHFT 1212 P0030 $=
201401111228 SPECI KSEA 111228Z 23026G37KT 1SM R16L/P6000FT RA FEW007 SCT016 OVC028 11/07 A2946 RMK AO2 PK WND 24037/1224 WSHFT 1212 P0025 $=
201401111224 SPECI KSEA 111224Z 24025G37KT 1SM R16L/P6000FT +RA BR SCT007 BKN028 OVC039 11/08 A2945 RMK AO2 PK WND 24037/1224 PRESRR P0014 $=
201401111220 SPECI KSEA 111220Z 24020G27KT 3SM +RA BR FEW009 BKN025 OVC037 12/09 A2945 RMK AO2 PK WND 21029/1155 PRESRR P0009 $=
201401111153 METAR KSEA 111153Z 21019G26KT 7SM RA SCT035 OVC050 12/09 A2943 RMK AO2 PK WND 19039/1124 SLP971 P0005 60007 70022 T01220089 10144 20094 56022 $=
201401111053 METAR KSEA 111053Z 20018G34KT 10SM -RA BKN043 OVC050 14/07 A2944 RMK AO2 PK WND 19038/0959 SLP974 P0000 T01440072 $=
201401110953 METAR KSEA 110953Z 19024G35KT 10SM -RA FEW020 BKN040 OVC050 14/08 A2947 RMK AO2 PK WND 19035/0948 SLP986 P0000 T01390078=
201401110853 METAR KSEA 110853Z 18018G24KT 10SM -RA FEW020 BKN048 OVC060 13/08 A2949 RMK AO2 PK WND 19028/0843 SLP992 P0000 60002 T01330078 58059=
201401110753 METAR KSEA 110753Z 18012KT 7SM -RA BKN036 OVC046 13/08 A2955 RMK AO2 SLP014 P0001 T01280078 401280083=
201401110653 METAR KSEA 110653Z 18006KT 7SM -RA FEW020 OVC036 11/08 A2962 RMK AO2 SLP036 P0001 T01060078=
201401110553 METAR KSEA 110553Z 14011KT 10SM -RA SCT031 BKN037 OVC050 09/07 A2967 RMK AO2 PRESFR SLP053 P0001 60014 T00940072 10094 20083 58055=
201401110508 SPECI KSEA 110508Z 15007KT 10SM -RA OVC033 09/06 A2972 RMK AO2 P0000=
201401110453 METAR KSEA 110453Z 14007KT 10SM -RA OVC029 09/06 A2973 RMK AO2 SLP074 P0002 T00890061=
201401110353 METAR KSEA 110353Z 14011KT 10SM -RA OVC029 08/06 A2978 RMK AO2 SLP093 P0005 T00830056=
201401110331 SPECI KSEA 110331Z 17012KT 10SM RA OVC029 09/06 A2980 RMK AO2 P0003=
201401110253 METAR KSEA 110253Z 15010KT 10SM -RA OVC033 08/05 A2983 RMK AO2 SLP109 P0003 60006 T00830050 56050=
201401110231 SPECI KSEA 110231Z 14010G18KT 10SM -RA BKN029 OVC036 08/05 A2984 RMK AO2 P0002=
201401110153 METAR KSEA 110153Z 15008KT 10SM -RA SCT032 OVC046 08/05 A2988 RMK AO2 SLP126 P0002 T00830050=
201401110053 METAR KSEA 110053Z 16010KT 10SM -RA SCT033 OVC043 09/05 A2993 RMK AO2 RAB2354 SLP142 P0001 T00890050=
201401102353 METAR KSEA 102353Z 18009KT 10SM FEW018 BKN045 OVC100 09/06 A2998 RMK AO2 RAB2258E43 SLP159 P0000 60000 T00890056 10094 20083 56023=
201401102329 SPECI KSEA 102329Z 18008KT 10SM -RA SCT017 OVC038 09/06 A2999 RMK AO2 RAB2258 P0000=
201401102253 METAR KSEA 102253Z 20011G17KT 10SM BKN019 BKN044 OVC055 09/06 A3001 RMK AO2 SLP169 T00940056=
201401102233 SPECI KSEA 102233Z 20010KT 10SM BKN019 BKN034 OVC095 09/06 A3001 RMK AO2=
201401102208 SPECI KSEA 102208Z 22011KT 10SM SCT014 BKN032 OVC095 09/06 A3002 RMK AO2=
201401102153 METAR KSEA 102153Z 21012KT 10SM BKN014 BKN032 OVC095 09/06 A3002 RMK AO2 SLP172 T00940056=
201401102053 METAR KSEA 102053Z 19012KT 10SM BKN014 BKN020 OVC100 09/06 A3005 RMK AO2 SLP183 60000 T00940056 58016=
201401101953 METAR KSEA 101953Z 20012G18KT 10SM BKN014 OVC021 09/06 A3007 RMK AO2 RAE1858 SLP190 P0000 T00890056=
201401101853 METAR KSEA 101853Z 20011KT 10SM -RA BKN013 OVC018 09/06 A3010 RMK AO2 SLP200 P0000 T00890056=
201401101753 METAR KSEA 101753Z 20011G18KT 10SM -RA BKN014 OVC020 08/06 A3010 RMK AO2 SLP199 P0001 60001 T00830056 10089 20083 51026=
201401101653 METAR KSEA 101653Z 19017G22KT 10SM -RA BKN011 OVC019 08/06 A3009 RMK AO2 PK WND 19028/1608 RAB48 PRESRR SLP196 P0000 T00830056=
201401101553 METAR KSEA 101553Z 19016G24KT 10SM BKN010 OVC016 08/06 A3004 RMK AO2 PK WND 21031/1531 SLP179 T00830056=
201401101453 METAR KSEA 101453Z 21017G22KT 10SM BKN012 OVC018 08/05 A3002 RMK AO2 PK WND 21028/1424 SLP173 T00830050 53020 $=
201401101353 METAR KSEA 101353Z 20017G24KT 10SM BKN014 OVC019 08/05 A3000 RMK AO2 PK WND 19028/1337 SLP165 T00830050 $=
201401101253 METAR KSEA 101253Z 19021G28KT 10SM OVC014 08/06 A2998 RMK AO2 PK WND 19035/1211 SLP159 T00830056=
201401101153 METAR KSEA 101153Z 20019G27KT 10SM OVC012 08/06 A2996 RMK AO2 PK WND 20031/1103 SLP154 60000 70023 T00830056 10089 20083 51031=
201401101053 METAR KSEA 101053Z 21023G32KT 10SM BKN019 BKN060 08/05 A2993 RMK AO2 PK WND 21034/1021 SLP144 T00830050=
201401100953 METAR KSEA 100953Z 21020G32KT 10SM BKN019 09/06 A2990 RMK AO2 PK WND 21032/0946 RAE11 SLP132 P0000 T00890056=
201401100944 SPECI KSEA 100944Z 21020G32KT 10SM SCT019 08/06 A2990 RMK AO2 PK WND 20032/0937 RAE11 P0000=
201401100853 METAR KSEA 100853Z 21022G27KT 8SM -RA BKN019 09/06 A2987 RMK AO2 PK WND 20036/0834 RAB46 SLP121 P0000 60000 T00890056 53025=
201401100753 METAR KSEA 100753Z 21020G31KT 10SM BKN015 09/06 A2984 RMK AO2 PK WND 21033/0732 SLP112 T00890056 400940056=
201401100708 SPECI KSEA 100708Z 21022G28KT 10SM BKN017 09/06 A2983 RMK AO2 PK WND 21029/0656=
201401100653 METAR KSEA 100653Z 21022G33KT 10SM BKN008 OVC015 09/06 A2982 RMK AO2 PK WND 20035/0626 SLP105 T00890061=
201401100553 METAR KSEA 100553Z 20017G25KT 10SM FEW008 OVC015 09/06 A2979 RMK AO2 PK WND 23036/0456 SLP096 60011 T00890061 10094 20067 53017=
201401100500 SPECI KSEA 100500Z 21021G36KT 10SM FEW008 BKN015 OVC070 09/07 A2977 RMK AO2 PK WND 23036/0456=
201401100453 METAR KSEA 100453Z 21022G30KT 10SM OVC015 09/07 A2976 RMK AO2 PK WND 21033/0423 SLP085 T00890067=
201401100353 METAR KSEA 100353Z 21018G24KT 10SM FEW009 OVC019 09/07 A2975 RMK AO2 PK WND 21027/0312 SLP080 T00940067=
201401100339 SPECI KSEA 100339Z 20019G25KT 10SM FEW009 OVC019 09/07 A2975 RMK AO2 PK WND 21027/0312=
201401100253 METAR KSEA 100253Z 20015G24KT 6SM BR BKN008 BKN012 OVC018 09/07 A2974 RMK AO2 PK WND 20026/0230 RAE48 SLP080 P0001 60011 T00890072 55016=
201401100153 METAR KSEA 100153Z 17012G18KT 2SM -RA BR BKN009 OVC013 08/06 A2974 RMK AO2 SLP079 P0005 T00780061=
201401100138 SPECI KSEA 100138Z 14010KT 2SM -RA BR BKN009 OVC015 07/06 A2974 RMK AO2 P0004=
201401100135 SPECI KSEA 100135Z 15011KT 2SM -RA BR BKN011 OVC016 07/06 A2974 RMK AO2 P0004=
201401100053 METAR KSEA 100053Z 13008KT 2SM -RA BR SCT007 OVC014 07/05 A2977 RMK AO2 SLP088 P0005 T00670050=
201401100035 SPECI KSEA 100035Z 15006KT 2SM -RA BR FEW005 BKN010 OVC016 07/05 A2978 RMK AO2 P0004=
201401092353 METAR KSEA 092353Z 16008KT 2SM -RA BR FEW005 OVC019 07/04 A2979 RMK AO2 SLP096 P0003 60012 T00670044 10078 20067 56039=
201401092341 SPECI KSEA 092341Z 16007KT 2SM -RA BR FEW008 OVC021 07/04 A2979 RMK AO2 SFC VIS 3 P0003=
201401092306 SPECI KSEA 092306Z 18009KT 2SM -RA FEW010 BKN023 OVC030 07/04 A2981 RMK AO2 SFC VIS 3 P0001=
201401092253 METAR KSEA 092253Z 18010KT 4SM RA FEW010 BKN028 OVC035 07/04 A2981 RMK AO2 SLP103 P0002 T00720044=
201401092234 SPECI KSEA 092234Z 16010KT 10SM -RA BKN012 BKN034 OVC048 07/04 A2982 RMK AO2 PRESFR P0001=
201401092153 METAR KSEA 092153Z 17010KT 4SM -RA FEW021 OVC029 07/04 A2985 RMK AO2 PRESFR SLP116 P0002 T00720044=
201401092053 METAR KSEA 092053Z 17011KT 7SM -RA FEW026 BKN035 OVC046 07/04 A2991 RMK AO2 SLP135 P0003 60005 T00720039 58031=
201401091953 METAR KSEA 091953Z 18010KT 7SM -RA BKN035 OVC050 07/03 A2996 RMK AO2 RAB23 SLP153 P0002 T00720033=
201401091853 METAR KSEA 091853Z 17011KT 10SM FEW020 BKN070 OVC080 07/03 A2999 RMK AO2 SLP163 T00720028=
201401091831 SPECI KSEA 091831Z 18009KT 10SM SCT017 BKN050 OVC090 07/03 A2999 RMK AO2=
201401091753 METAR KSEA 091753Z 18012KT 10SM BKN017 BKN024 OVC100 07/03 A3000 RMK AO2 RAB12E38 SLP165 P0000 60000 T00720033 10072 20056 51006=
201401091719 SPECI KSEA 091719Z 18008KT 4SM -RA BKN019 BKN024 07/04 A3000 RMK AO2 RAB12 P0000=
201401091653 METAR KSEA 091653Z 19012KT 10SM SCT020 BKN100 OVC200 07/03 A2999 RMK AO2 SLP165 T00670033=
201401091553 METAR KSEA 091553Z 18009G16KT 10SM SCT020 BKN100 OVC200 07/03 A2999 RMK AO2 SLP163 T00670028=
201401091453 METAR KSEA 091453Z 17008KT 10SM CLR BKN200 06/02 A2998 RMK AO2 SLP161 T00560022 53009=
201401091408 SPECI KSEA 091408Z 19007KT 10SM SCT016 BKN200 06/02 A2998 RMK AO2=
201401091353 METAR KSEA 091353Z 19006KT 10SM BKN016 06/03 A2997 RMK AO2 SLP158 T00610028=
201401091253 METAR KSEA 091253Z 22012KT 10SM BKN018 07/02 A2996 RMK AO2 SLP151 T00720022=
201401091233 SPECI KSEA 091233Z 22008KT 10SM BKN018 07/03 A2996 RMK AO2=
201401091153 METAR KSEA 091153Z 21007KT 10SM FEW019 07/03 A2995 RMK AO2 SLP150 70038 T00720028 10089 20072 51026=
201401091139 SPECI KSEA 091139Z 22013KT 10SM FEW019 SCT110 07/03 A2995 RMK AO2=
201401091053 METAR KSEA 091053Z 21012KT 10SM BKN022 OVC085 07/03 A2993 RMK AO2 SLP141 T00720028=
201401090953 METAR KSEA 090953Z 21011KT 10SM FEW022 SCT085 OVC150 07/02 A2990 RMK AO2 SLP134 T00720022=
201401090853 METAR KSEA 090853Z 20009KT 10SM FEW085 OVC150 07/02 A2988 RMK AO2 SLP124 T00720022 51043=
201401090753 METAR KSEA 090753Z 21012KT 10SM FEW020 OVC150 08/03 A2984 RMK AO2 SLP111 T00780033 401000072=
201401090653 METAR KSEA 090653Z 23016G23KT 10SM OVC015 08/04 A2980 RMK AO2 SLP097 T00830044=
201401090553 METAR KSEA 090553Z 21018G25KT 10SM OVC013 09/06 A2975 RMK AO2 SLP081 60012 T00890056 10100 20089 51010=
201401090551 SPECI KSEA 090551Z 21016G25KT 10SM OVC013 09/06 A2975 RMK AO2=
201401090514 SPECI KSEA 090514Z 20016G21KT 10SM OVC015 09/06 A2973 RMK AO2=
201401090453 METAR KSEA 090453Z 18017G25KT 10SM BKN011 OVC015 09/06 A2973 RMK AO2 PK WND 17026/0414 SLP074 T00890061=
201401090353 METAR KSEA 090353Z 18017G21KT 10SM BKN011 OVC017 09/06 A2972 RMK AO2 SLP071 T00890061=
201401090323 SPECI KSEA 090323Z 19012KT 10SM SCT016 BKN021 OVC110 09/06 A2972 RMK AO2=
201401090253 METAR KSEA 090253Z 18021G28KT 10SM BKN014 OVC021 09/06 A2970 RMK AO2 PK WND 18028/0252 RAE12 SLP065 P0001 60012 T00890061 58005=
201401090213 SPECI KSEA 090213Z 19017G24KT 10SM SCT014 BKN034 OVC120 09/07 A2970 RMK AO2 RAE12 P0001=
201401090153 METAR KSEA 090153Z 19012G24KT 8SM -RA FEW013 BKN026 OVC035 09/07 A2971 RMK AO2 RAB0059 SLP068 P0008 T00940072=
201401090138 SPECI KSEA 090138Z 19019G24KT 6SM RA FEW013 BKN019 OVC038 10/07 A2972 RMK AO2 RAB0059 P0004=
201401090053 METAR KSEA 090053Z 19013KT 10SM FEW009 SCT017 OVC070 10/07 A2972 RMK AO2 RAE29 SLP070 P0003 T01000067=
201401090046 SPECI KSEA 090046Z 19013G20KT 10SM FEW009 SCT017 OVC050 10/07 A2971 RMK AO2 RAE29 P0003=
201401090024 SPECI KSEA 090024Z 18012G24KT 10SM -RA FEW006 BKN018 OVC037 10/07 A2971 RMK AO2 P0003=
201401082353 METAR KSEA 082353Z 16009KT 6SM RA BR BKN009 BKN015 OVC037 09/08 A2972 RMK AO2 SLP070 P0004 60024 T00940078 10100 20089 56029=
201401082345 SPECI KSEA 082345Z 16007KT 9SM -RA SCT009 BKN015 OVC037 09/08 A2972 RMK AO2 P0004=
201401082338 SPECI KSEA 082338Z 16008KT 10SM -RA FEW009 BKN037 OVC046 10/08 A2972 RMK AO2 P0004=
201401082318 SPECI KSEA 082318Z 16008KT 4SM -RA BR FEW008 BKN028 OVC045 09/08 A2972 RMK AO2 P0003=
201401082253 METAR KSEA 082253Z 16006KT 5SM RA BR FEW014 SCT022 OVC036 09/08 A2973 RMK AO2 SLP074 P0008 T00940078=
201401082153 METAR KSEA 082153Z 16008KT 7SM RA FEW007 SCT028 OVC035 09/07 A2975 RMK AO2 SLP083 P0007 T00940072=
201401082053 METAR KSEA 082053Z 16006KT 7SM -RA FEW006 BKN041 OVC060 10/07 A2981 RMK AO2 SLP100 P0001 60005 T01000072 58036=
201401081953 METAR KSEA 081953Z 15005KT 10SM -RA FEW004 BKN034 OVC049 09/08 A2985 RMK AO2 SLP114 P0001 T00940078=
201401081853 METAR KSEA 081853Z 16006KT 8SM -RA FEW006 BKN031 OVC050 09/07 A2989 RMK AO2 SLP129 P0003 T00940067=
201401081813 SPECI KSEA 081813Z 15005KT 10SM -RA FEW006 BKN031 OVC080 09/07 A2991 RMK AO2 P0001=
201401081753 METAR KSEA 081753Z 17005KT 9SM RA OVC028 09/07 A2991 RMK AO2 RAB07 SLP137 P0001 60002 T00890067 10089 20078 56014=
201401081653 METAR KSEA 081653Z 17005KT 10SM FEW004 OVC030 09/07 A2992 RMK AO2 RAB1557E11 SLP139 P0000 T00890067=
201401081553 METAR KSEA 081553Z 18006KT 10SM FEW004 BKN039 OVC100 09/07 A2994 RMK AO2 SLP144 T00890067=
201401081535 SPECI KSEA 081535Z 19009KT 10SM FEW004 BKN039 OVC100 08/07 A2994 RMK AO2 $=
201401081453 METAR KSEA 081453Z 21007KT 2SM BR BKN004 BKN017 OVC040 08/07 A2995 RMK AO2 SFC VIS 3 RAE20 SLP150 BKN004 V SCT P0001 60001 T00830067 58015 $=
201401081400 SPECI KSEA 081400Z 19007KT 2SM -RA BR BKN004 OVC014 08/07 A2997 RMK AO2 P0001 $=
201401081353 METAR KSEA 081353Z 19007KT 4SM -RA BR SCT007 BKN014 OVC022 08/07 A2997 RMK AO2 RAB37 SLP156 P0000 T00830067 $=
201401081346 SPECI KSEA 081346Z 19006KT 5SM -RA BR SCT007 BKN014 OVC022 08/07 A2997 RMK AO2 RAB37 P0000 $=
201401081253 METAR KSEA 081253Z 20004KT 10SM SCT004 OVC018 08/07 A2998 RMK AO2 RAB07E18 SLP161 P0000 T00830067 $=
201401081153 METAR KSEA 081153Z 24003KT 6SM BR SCT006 BKN013 OVC020 08/06 A3000 RMK AO2 RAB41E51 SLP166 P0000 60001 70027 T00780061 10083 20072 56005 $=
201401081118 SPECI KSEA 081118Z 17006KT 10SM BKN006 OVC015 08/06 A3000 RMK AO2 $=
201401081102 SPECI KSEA 081102Z 15005KT 10SM FEW006 OVC017 08/06 A3000 RMK AO2 $=
201401081053 METAR KSEA 081053Z 16004KT 10SM OVC017 08/06 A3000 RMK AO2 SLP167 T00780056 $=
201401080953 METAR KSEA 080953Z 15003KT 10SM OVC021 08/06 A3000 RMK AO2 SLP167 T00780061 $=
201401080853 METAR KSEA 080853Z 17003KT 10SM OVC021 08/06 A3001 RMK AO2 SLP170 60001 T00830061 58003 $=
201401080843 SPECI KSEA 080843Z 17005KT 10SM OVC019 08/06 A3001 RMK AO2 $=
201401080753 METAR KSEA 080753Z 15004KT 2SM SCT004 BKN007 OVC019 08/06 A3002 RMK AO2 SFC VIS 7 RAE01 SLP174 P0000 T00780061 400830050 $=
201401080653 METAR KSEA 080653Z 14006KT 2SM -RA BR BKN007 OVC016 08/06 A3002 RMK AO2 SFC VIS 3 RAB22 SLP175 P0001 T00780061 $=
201401080553 METAR KSEA 080553Z 15005KT 2SM BR SCT005 BKN012 OVC020 08/06 A3002 RMK AO2 SFC VIS 5 SLP174 60017 T00780061 10083 20078 53003 $=
201401080453 METAR KSEA 080453Z 16004KT 2SM BR FEW005 BKN009 OVC025 08/06 A3001 RMK AO2 SFC VIS 3 RAB02E22 SLP171 P0001 T00780061 $=
201401080431 SPECI KSEA 080431Z 15004KT 2SM BR SCT009 OVC026 08/06 A3001 RMK AO2 SFC VIS 3 RAB02E22 P0001 $=
201401080353 METAR KSEA 080353Z 00000KT 2SM BR BKN006 BKN011 OVC027 08/06 A3001 RMK AO2 SFC VIS 4 RAE43 SLP172 P0001 T00780061 $=
201401080348 SPECI KSEA 080348Z 28003KT 2SM BR BKN005 OVC027 08/06 A3001 RMK AO2 SFC VIS 4 RAE43 P0001 $=
201401080304 SPECI KSEA 080304Z 14004KT 2SM RA BR SCT004 BKN022 OVC027 08/06 A3000 RMK AO2 SFC VIS 3 P0000 PNO $=
201401080300 SPECI KSEA 080300Z 14004KT 2SM RA BR SCT002 BKN008 OVC025 08/06 A3000 RMK AO2 SFC VIS 3 P0000 PNO=
201401080255 SPECI KSEA 080255Z 14003KT 3SM RA BR SCT002 BKN021 OVC025 08/06 A3000 RMK AO2 P0000=
201401080253 METAR KSEA 080253Z 14004KT 2SM RA BR SCT002 BKN021 OVC025 08/06 A3000 RMK AO2 SLP168 P0006 60015 T00780056 58001=
201401080241 SPECI KSEA 080241Z 15003KT 2 1/2SM -RA BR OVC002 08/06 A3001 RMK AO2 P0004=
201401080207 SPECI KSEA 080207Z 00000KT 5SM -RA BR BKN004 BKN010 OVC029 08/06 A3000 RMK AO2 P0001=
201401080153 METAR KSEA 080153Z 00000KT 4SM -RA BR FEW004 BKN012 OVC031 08/06 A3000 RMK AO2 SLP168 P0002 T00780061=
201401080053 METAR KSEA 080053Z 14003KT 5SM -RA BR FEW009 BKN032 OVC042 08/06 A3000 RMK AO2 SLP169 P0007 T00780061=
201401080023 SPECI KSEA 080023Z 16004KT 4SM RA BR FEW006 BKN035 OVC044 08/06 A3001 RMK AO2 P0004=
201401072353 METAR KSEA 072353Z 17006KT 5SM RA BR OVC034 08/06 A3000 RMK AO2 RAE05B21 SLP169 P0003 60003 T00830061 10083 20061 55005=
201401072253 METAR KSEA 072253Z 13005KT 9SM -RA OVC048 08/06 A3000 RMK AO2 RAE24B44 SLP167 P0000 T00830056=
201401072153 METAR KSEA 072153Z 13003KT 7SM -RA FEW004 BKN050 OVC080 08/06 A3001 RMK AO2 RAB50 SLP169 P0000 T00830056=
201401072053 METAR KSEA 072053Z 16007KT 7SM FEW004 SCT008 OVC060 08/06 A3002 RMK AO2 RAB27E48 SLP174 P0000 60000 T00780056 56012=
201401072033 SPECI KSEA 072033Z 14008KT 7SM -RA FEW004 SCT008 OVC055 08/06 A3002 RMK AO2 RAB27 P0000=
201401072009 SPECI KSEA 072009Z 00000KT 1 1/2SM BR BKN004 BKN008 OVC050 08/06 A3003 RMK AO2 SFC VIS 3=
201401071953 METAR KSEA 071953Z 23004KT 1/4SM BR BKN002 OVC050 07/06 A3004 RMK AO2 SFC VIS 1 1/2 SLP179 T00720056=
201401071938 SPECI KSEA 071938Z 27006KT 1/4SM R16L/3500VP6000FT FG BKN002 OVC045 07/05 A3003 RMK AO2 SFC VIS 1/2=
201401071933 SPECI KSEA 071933Z 27005KT 1/4SM R16L/P6000FT BR SCT002 OVC045 07/06 A3003 RMK AO2 SFC VIS 3/4=
201401071853 METAR KSEA 071853Z VRB03KT 5SM BCFG FEW002 BKN045 OVC200 07/05 A3004 RMK AO2 RAB28E47 SLP179 P0000 T00720050=
201401071847 SPECI KSEA 071847Z 10005KT 1 1/4SM BR FEW007 OVC045 07/04 A3004 RMK AO2 SFC VIS 2 RAB28E47 P0000=
201401071815 SPECI KSEA 071815Z 13005KT 1 1/4SM BR FEW002 BKN007 OVC045 06/04 A3005 RMK AO2=
201401071753 METAR KSEA 071753Z 15006KT 1 1/4SM BR SCT002 BKN032 OVC047 07/04 A3006 RMK AO2 SFC VIS 1 1/2 RAE46 SLP186 P0003 60006 T00670044 10067 20056 53002=
201401071741 SPECI KSEA 071741Z 00000KT 1 1/4SM R16L/6000VP6000FT -RA BR SCT002 BKN020 OVC049 07/04 A3006 RMK AO2 SFC VIS 1 1/2 P0003=
201401071653 METAR KSEA 071653Z 00000KT 1/4SM R16L/2200V3500FT -RA BR BKN002 OVC012 06/04 A3006 RMK AO2 SFC VIS 3/4 SLP187 P0002 T00610044=
201401071635 SPECI KSEA 071635Z 00000KT 1/4SM R16L/2600V5500FT -RA BR BKN002 OVC013 06/04 A3005 RMK AO2 SFC VIS 3/4 P0001=
201401071553 METAR KSEA 071553Z 00000KT 1 1/2SM R16L/5000VP6000FT -RA BR SCT002 OVC026 06/04 A3004 RMK AO2 RAB22 SLP180 P0001 T00560039=
201401071547 SPECI KSEA 071547Z 00000KT 1 1/2SM R16L/5000VP6000FT -RA BR SCT002 OVC026 06/04 A3004 RMK AO2 RAB22 P0001=
201401071453 METAR KSEA 071453Z 00000KT 3SM BR SCT002 OVC028 06/04 A3005 RMK AO2 RAB41E46 SLP184 SCT V BKN P0000 60000 T00610039 56019=
201401071402 SPECI KSEA 071402Z 00000KT 1/2SM BR OVC002 06/04 A3007 RMK AO2 SFC VIS 1 1/2=
201401071353 METAR KSEA 071353Z 00000KT 3SM BR SCT001 OVC034 06/04 A3007 RMK AO2 SLP189 FG BANK N T00560039=
201401071334 SPECI KSEA 071334Z 00000KT 3SM BR FEW005 SCT030 OVC040 06/04 A3007 RMK AO2 FG BANK S-W=
201401071253 METAR KSEA 071253Z 00000KT 6SM BR FEW023 BKN080 OVC095 06/03 A3008 RMK AO2 SLP196 FG BANK W T00560033=
201401071232 SPECI KSEA 071232Z 00000KT 6SM BR FEW023 BKN080 OVC095 06/04 A3009 RMK AO2 FG BANK W=
201401071153 METAR KSEA 071153Z 00000KT 7SM BKN021 OVC030 06/03 A3010 RMK AO2 RAE37 SLP203 P0001 60022 70022 T00560033 10072 20050 58008=
201401071135 SPECI KSEA 071135Z 00000KT 6SM -RA BR BKN021 OVC026 06/04 A3011 RMK AO2 P0001=
201401071053 METAR KSEA 071053Z 16006KT 6SM -RA BR BKN030 OVC040 06/04 A3012 RMK AO2 SLP209 P0006 T00560039=
201401070953 METAR KSEA 070953Z 16006KT 5SM -RA BR OVC034 06/03 A3012 RMK AO2 SLP209 P0006 T00560033=
201401070946 SPECI KSEA 070946Z 17005KT 5SM RA BR FEW024 OVC034 06/03 A3012 RMK AO2 P0006=
201401070906 SPECI KSEA 070906Z 14006KT 6SM -RA BR BKN026 OVC030 05/03 A3012 RMK AO2 P0001=
201401070853 METAR KSEA 070853Z 00000KT 5SM -RA BR SCT026 BKN034 OVC041 05/03 A3013 RMK AO2 SLP212 P0008 60009 T00500028 58005=
201401070753 METAR KSEA 070753Z 16005KT 10SM -RA OVC032 06/01 A3014 RMK AO2 RAB0654 SLP213 P0001 T00560011 400781006=
201401070653 METAR KSEA 070653Z 19003KT 10SM BKN035 OVC100 06/00 A3015 RMK AO2 SLP219 T00610000=
201401070553 METAR KSEA 070553Z 19005KT 10SM FEW075 OVC100 07/M01 A3014 RMK AO2 SLP217 T00671011 10078 20050 58001=
201401070453 METAR KSEA 070453Z 16004KT 10SM BKN065 OVC080 07/M01 A3015 RMK AO2 SLP219 T00671006=
201401070353 METAR KSEA 070353Z 15004KT 10SM FEW070 BKN095 OVC110 08/M02 A3015 RMK AO2 SLP220 T00781022=
201401070253 METAR KSEA 070253Z 14009KT 10SM BKN110 OVC180 06/M01 A3015 RMK AO2 SLP218 T00611011 55007=
201401070153 METAR KSEA 070153Z 15008KT 10SM SCT110 OVC180 06/00 A3015 RMK AO2 SLP218 T00610000=
201401070053 METAR KSEA 070053Z 14009KT 10SM BKN110 OVC180 06/01 A3016 RMK AO2 SLP222 T00560011=
201401062353 METAR KSEA 062353Z 15006KT 10SM BKN150 BKN220 05/02 A3017 RMK AO2 SLP226 T00500022 10061 20028 55003=
201401062253 METAR KSEA 062253Z 00000KT 10SM OVC180 06/02 A3016 RMK AO2 SLP221 T00560022=
201401062153 METAR KSEA 062153Z 00000KT 10SM BKN180 OVC250 06/01 A3016 RMK AO2 SLP221 T00610011 $=
201401062053 METAR KSEA 062053Z 14004KT 10SM BKN180 OVC230 05/01 A3018 RMK AO2 SLP229 T00500011 58016 $=
201401061953 METAR KSEA 061953Z 17003KT 6SM HZ FEW002 BKN180 BKN230 05/02 A3020 RMK AO2 SLP236 T00500017=
201401061933 SPECI KSEA 061933Z 19003KT 2SM HZ SCT002 BKN220 04/02 A3020 RMK AO2=
201401061907 SPECI KSEA 061907Z 00000KT 1/2SM R16L/1400V3500FT BR OVC002 03/01 A3022 RMK AO2 SFC VIS 3/4=
201401061853 METAR KSEA 061853Z 16004KT 3/4SM R16L/1600VP6000FT BR SCT001 BKN220 03/01 A3022 RMK AO2 TWR VIS 1 1/4 SLP244 T00280006=
201401061753 METAR KSEA 061753Z 15003KT 10SM FEW004 BKN180 OVC250 03/01 A3023 RMK AO2 SLP245 T00330006 10033 21006 50005=
201401061735 SPECI KSEA 061735Z 00000KT 10SM FEW004 BKN180 OVC250 02/M01 A3023 RMK AO2=
201401061653 METAR KSEA 061653Z 00000KT 10SM BKN180 BKN230 01/M02 A3023 RMK AO2 SLP246 FG BANK W-NW T00111022=
201401061553 METAR KSEA 061553Z 00000KT 10SM BKN250 01/M02 A3022 RMK AO2 SLP242 FG BANK W T00061017 $=
201401061453 METAR KSEA 061453Z 12005KT 10SM SCT200 01/M02 A3021 RMK AO2 SLP242 T00061017 58013 $=
201401061353 METAR KSEA 061353Z 11004KT 10SM CLR 01/M02 A3023 RMK AO2 SLP247 T00061017 $=
201401061253 METAR KSEA 061253Z 36007KT 10SM CLR 02/M01 A3024 RMK AO2 SLP249 T00221011 $=
201401061153 METAR KSEA 061153Z 35006KT 10SM CLR 01/M02 A3025 RMK AO2 SLP254 T00111017 10044 20011 56013 $=
201401061053 METAR KSEA 061053Z 02012KT 10SM CLR 03/M01 A3026 RMK AO2 SLP255 T00331006 $=
201401060953 METAR KSEA 060953Z 02010KT 10SM FEW200 02/M01 A3028 RMK AO2 SLP264 T00221011 $=
201401060853 METAR KSEA 060853Z 36007KT 10SM FEW200 02/M01 A3029 RMK AO2 SLP267 T00221011 58017 $=
201401060753 METAR KSEA 060753Z 36007KT 10SM FEW200 03/M01 A3031 RMK AO2 SLP272 T00281006 400831006 $=
201401060653 METAR KSEA 060653Z 35006KT 10SM FEW200 03/M01 A3033 RMK AO2 SLP281 T00281006 $=
201401060553 METAR KSEA 060553Z 03011KT 10SM CLR 04/M01 A3034 RMK AO2 SLP285 T00441006 10072 20033 58013 $=
201401060453 METAR KSEA 060453Z 02008KT 10SM CLR 04/M01 A3036 RMK AO2 SLP292 T00391011 $=
201401060353 METAR KSEA 060353Z 01008KT 10SM SCT200 04/M01 A3037 RMK AO2 SLP295 T00391011 $=
201401060253 METAR KSEA 060253Z 36009KT 10SM BKN250 04/M01 A3038 RMK AO2 SLP299 T00391006 56013 $=
201401060153 METAR KSEA 060153Z 01010KT 10SM BKN250 04/00 A3040 RMK AO2 SLP304 T00440000 $=
201401060053 METAR KSEA 060053Z 35008KT 10SM BKN250 04/00 A3040 RMK AO2 SLP305 T00440000 $=
201401052353 METAR KSEA 052353Z 35008KT 10SM BKN240 07/01 A3042 RMK AO2 SLP311 T00720006 10083 20017 56009 $=
201401052253 METAR KSEA 052253Z 35007KT 10SM BKN240 08/01 A3043 RMK AO2 SLP314 T00780006 $=
201401052153 METAR KSEA 052153Z 02008KT 10SM BKN220 08/M01 A3043 RMK AO2 SLP313 T00781006 $=
201401052053 METAR KSEA 052053Z 02007KT 10SM SCT210 07/M01 A3045 RMK AO2 SLP320 T00721006 58014 $=
201401051953 METAR KSEA 051953Z 01009KT 10SM SCT200 06/M01 A3047 RMK AO2 SLP327 T00561006 $=
201401051853 METAR KSEA 051853Z 36006KT 10SM FEW020 03/00 A3049 RMK AO2 SLP335 T00330000 $=
201401051753 METAR KSEA 051753Z 34006KT 10SM FEW003 01/00 A3049 RMK AO2 SLP335 T00110000 10011 21006 51008 $=
201401051725 SPECI KSEA 051725Z 36008KT 10SM FEW002 01/M01 A3049 RMK AO2 $=
201401051704 SPECI KSEA 051704Z 36006KT 1/4SM R16L/1200V2400FT FG VV001 01/M01 A3048 RMK AO2 $=
201401051655 SPECI KSEA 051655Z 02006KT 1/4SM R16L/1200V1800FT FG VV001 01/M01 A3048 RMK AO2 $=
201401051653 METAR KSEA 051653Z 02007KT 1/4SM R16L/1200V2800FT FG VV001 01/M01 A3048 RMK AO2 SLP332 T00061006 $=
201401051648 SPECI KSEA 051648Z 01004KT 1/4SM R16L/1400V3000FT FG VV001 01/M01 A3048 RMK AO2 $=
201401051641 SPECI KSEA 051641Z 36006KT 1/4SM R16L/1000V2200FT FG VV001 01/M01 A3048 RMK AO2 $=
201401051553 METAR KSEA 051553Z 04006KT 1/4SM R16L/1600V5000FT FG VV001 00/M02 A3046 RMK AO2 SLP327 T00001017 $=
201401051453 METAR KSEA 051453Z 04006KT 1/2SM R16L/3000VP6000FT FG BKN001 00/M02 A3046 RMK AO2 SLP326 T00001022 56005 $=
201401051447 SPECI KSEA 051447Z 02007KT 1/2SM R16L/P6000FT FG BKN001 00/M02 A3046 RMK AO2 $=
201401051428 SPECI KSEA 051428Z 01005KT 6SM R16L/2800VP6000FT BR FEW001 00/M02 A3046 RMK AO2 $=
201401051402 SPECI KSEA 051402Z 36005KT 1 1/2SM BR BKN001 M01/M02 A3047 RMK AO2=
201401051353 METAR KSEA 051353Z 02006KT 3SM BR SCT001 00/M02 A3046 RMK AO2 SLP327 FG BANK SW-W T00001017=
201401051253 METAR KSEA 051253Z 03006KT 10SM FEW001 01/M02 A3046 RMK AO2 SLP327 T00061017=
201401051221 SPECI KSEA 051221Z 02003KT 5SM BR SCT001 01/M01 A3047 RMK AO2 VIS S 1=
201401051153 METAR KSEA 051153Z 02005KT 1/8SM R16L/1200V2600FT FG BKN001 01/M01 A3048 RMK AO2 TWR VIS 1/4 SLP330 T00061011 10033 20000 50007=
201401051108 SPECI KSEA 051108Z 03003KT 1/4SM R16L/1800V2000FT FG VV001 01/M01 A3048 RMK AO2 TWR VIS 1/2=
201401051053 METAR KSEA 051053Z 03005KT 1/4SM R16L/2000V5500FT FG VV001 02/M01 A3048 RMK AO2 TWR VIS 1/2 SLP331 T00171006=
201401051030 SPECI KSEA 051030Z 05004KT 1/2SM R16L/5000VP6000FT BR OVC001 02/00 A3048 RMK AO2 SFC VIS 1=
201401051010 SPECI KSEA 051010Z 03006KT 1/2SM BR BKN003 01/M01 A3047 RMK AO2 SFC VIS 6=
201401050953 METAR KSEA 050953Z 02003KT 9SM FEW005 01/M01 A3046 RMK AO2 SLP326 T00111011=
201401050924 SPECI KSEA 050924Z 02005KT 7SM FEW005 02/M01 A3046 RMK AO2=
201401050853 METAR KSEA 050853Z 01009KT 7SM CLR 01/M02 A3046 RMK AO2 SLP323 T00111017 53004=
201401050753 METAR KSEA 050753Z 01005KT 10SM CLR 01/M02 A3044 RMK AO2 SLP319 T00111017 400780011=
201401050653 METAR KSEA 050653Z 02007KT 10SM CLR 02/M01 A3045 RMK AO2 SLP322 T00221006=
201401050553 METAR KSEA 050553Z 04006KT 10SM CLR 03/M01 A3044 RMK AO2 SLP319 T00281006 10061 20011 51006=
201401050453 METAR KSEA 050453Z 04009KT 10SM CLR 03/M01 A3044 RMK AO2 SLP318 T00281006=
201401050353 METAR KSEA 050353Z 36007KT 10SM CLR 02/M02 A3044 RMK AO2 SLP319 T00171017=
201401050253 METAR KSEA 050253Z 01007KT 10SM CLR 03/M01 A3043 RMK AO2 SLP313 T00331006 55001=
201401050153 METAR KSEA 050153Z 01007KT 10SM SCT200 03/00 A3042 RMK AO2 SLP310 T00330000 $=
201401050053 METAR KSEA 050053Z 34005KT 10SM SCT200 04/00 A3042 RMK AO2 SLP312 T00390000 $=
201401042353 METAR KSEA 042353Z 33006KT 10SM FEW150 06/01 A3043 RMK AO2 SLP314 T00610006 10078 20044 58001=
201401042253 METAR KSEA 042253Z 36006KT 10SM FEW020 08/00 A3043 RMK AO2 SLP314 T00780000 $=
201401042153 METAR KSEA 042153Z 36005KT 10SM FEW002 07/M01 A3043 RMK AO2 SLP313 T00721006 $=
201401042053 METAR KSEA 042053Z 02008KT 10SM FEW002 07/M01 A3043 RMK AO2 SLP315 T00721006 58006=
201401041953 METAR KSEA 041953Z 35005KT 10SM FEW002 07/01 A3045 RMK AO2 SLP319 T00720006 $=
201401041853 METAR KSEA 041853Z 04004KT 10SM FEW002 BKN240 06/01 A3045 RMK AO2 SLP322 T00610011=
201401041753 METAR KSEA 041753Z 02007KT 10SM FEW001 SCT240 04/02 A3045 RMK AO2 SLP321 T00440017 10044 20022 53008=
201401041728 SPECI KSEA 041728Z 36005KT 7SM R16L/2600VP6000FT BCFG FEW001 SCT240 03/01 A3045 RMK AO2 FG BANK W-N=
201401041716 SPECI KSEA 041716Z 36006KT 3/4SM R16L/P6000FT HZ VV001 04/01 A3045 RMK AO2=
201401041653 METAR KSEA 041653Z 03006KT 10SM FEW001 BKN240 03/01 A3045 RMK AO2 SLP321 T00330006=
201401041553 METAR KSEA 041553Z 09004KT 7SM BCFG FEW001 BKN220 03/00 A3043 RMK AO2 SLP313 T00280000=
201401041510 SPECI KSEA 041510Z 09005KT 10SM FEW001 SCT031 03/01 A3043 RMK AO2=
201401041453 METAR KSEA 041453Z 08008KT 10SM SCT031 03/01 A3043 RMK AO2 SLP313 T00330006 50006=
201401041353 METAR KSEA 041353Z 04005KT 10SM OVC033 03/01 A3043 RMK AO2 SLP314 T00330011=
201401041253 METAR KSEA 041253Z 00000KT 10SM OVC030 03/01 A3042 RMK AO2 SLP310 T00330011=
201401041153 METAR KSEA 041153Z 00000KT 8SM OVC030 02/01 A3041 RMK AO2 SLP306 70003 T00220006 10044 20022 51014=
201401041053 METAR KSEA 041053Z 00000KT 10SM BKN030 03/01 A3040 RMK AO2 SLP302 T00280006=
201401040953 METAR KSEA 040953Z 10005KT 10SM BKN035 03/01 A3038 RMK AO2 SLP296 T00330006=
201401040853 METAR KSEA 040853Z 11004KT 10SM FEW015 SCT040 03/01 A3036 RMK AO2 SLP292 T00280006 51008=
201401040753 METAR KSEA 040753Z 00000KT 10SM SCT025 SCT050 03/01 A3036 RMK AO2 SLP291 T00330011 400890033=
201401040653 METAR KSEA 040653Z 36006KT 10SM SCT025 SCT050 04/01 A3035 RMK AO2 SLP288 T00390011=
201401040553 METAR KSEA 040553Z 00000KT 10SM BKN050 04/01 A3034 RMK AO2 SLP284 60003 T00390011 10078 20033 52017=
201401040453 METAR KSEA 040453Z 09003KT 10SM FEW043 BKN065 05/01 A3033 RMK AO2 RAB10E34 SLP279 P0002 T00500011=
201401040441 SPECI KSEA 040441Z 00000KT 10SM FEW023 SCT043 BKN065 05/02 A3032 RMK AO2 RAB10E34 P0002=
201401040418 SPECI KSEA 040418Z 03012KT 4SM RA BKN023 BKN028 OVC050 05/02 A3032 RMK AO2 RAB10 P0000=
201401040353 METAR KSEA 040353Z 06006KT 10SM BKN055 06/01 A3031 RMK AO2 SLP272 T00560006=
201401040253 METAR KSEA 040253Z 08006KT 10SM FEW032 SCT060 05/01 A3029 RMK AO2 RAE11 SLP267 P0000 60001 T00500006 51015=
201401040153 METAR KSEA 040153Z 03008KT 10SM -RA SCT025 SCT032 OVC044 06/02 A3029 RMK AO2 RAB09 SLP267 P0001 T00610017=
201401040053 METAR KSEA 040053Z 00000KT 10SM SCT045 BKN075 07/01 A3026 RMK AO2 SLP255 T00670006=
201401032353 METAR KSEA 032353Z 27004KT 10SM BKN043 08/01 A3025 RMK AO2 SLP252 T00780011 10083 20056 52017=
201401032253 METAR KSEA 032253Z 16005KT 10SM SCT025 BKN043 08/01 A3023 RMK AO2 SLP245 T00830006=
201401032153 METAR KSEA 032153Z 12005KT 10SM SCT023 BKN040 08/01 A3022 RMK AO2 SLP241 T00830011=
201401032053 METAR KSEA 032053Z 14004KT 10SM FEW015 SCT022 07/01 A3020 RMK AO2 SLP235 T00720011 51004=
201401031953 METAR KSEA 031953Z 17005KT 10SM FEW016 SCT023 07/01 A3019 RMK AO2 SLP233 T00670011=
201401031937 SPECI KSEA 031937Z 15005KT 10SM FEW015 SCT024 06/01 A3019 RMK AO2=
201401031853 METAR KSEA 031853Z 11004KT 10SM BKN015 BKN023 06/01 A3020 RMK AO2 SLP236 T00610011=
201401031753 METAR KSEA 031753Z 17006KT 10SM BKN015 BKN035 06/02 A3019 RMK AO2 SLP231 T00560017 10061 20033 53010=
201401031653 METAR KSEA 031653Z 16003KT 10SM BKN020 BKN031 05/01 A3018 RMK AO2 SLP227 T00500011=
201401031638 SPECI KSEA 031638Z 18004KT 10SM BKN022 BKN031 04/01 A3018 RMK AO2=
201401031553 METAR KSEA 031553Z 17009KT 10SM FEW020 SCT031 03/01 A3016 RMK AO2 SLP221 T00330006=
201401031524 SPECI KSEA 031524Z 17006KT 10SM FEW007 SCT024 BKN031 04/02 A3016 RMK AO2=
201401031453 METAR KSEA 031453Z 16006KT 10SM FEW007 BKN022 BKN034 04/02 A3016 RMK AO2 SLP220 T00440017 53012=
201401031430 SPECI KSEA 031430Z 20006KT 10SM FEW007 BKN018 BKN034 05/02 A3015 RMK AO2=
201401031353 METAR KSEA 031353Z 18008KT 10SM BKN034 04/01 A3013 RMK AO2 SLP213 T00390011=
201401031313 SPECI KSEA 031313Z 18008KT 10SM SCT023 05/02 A3013 RMK AO2=
201401031253 METAR KSEA 031253Z 19008KT 10SM BKN023 05/02 A3013 RMK AO2 SLP210 T00500022=
201401031153 METAR KSEA 031153Z 15007KT 10SM OVC019 06/03 A3012 RMK AO2 SLP207 60006 70017 T00610033 10089 20061 51032=
201401031125 SPECI KSEA 031125Z 19006KT 10SM SCT016 OVC021 07/03 A3012 RMK AO2=
201401031053 METAR KSEA 031053Z 20010KT 10SM BKN010 BKN014 OVC025 07/04 A3011 RMK AO2 SLP202 T00670039=
201401030953 METAR KSEA 030953Z 13007KT 10SM OVC025 07/04 A3006 RMK AO2 RAE11 SLP188 P0000 T00720039=
201401030907 SPECI KSEA 030907Z 07004KT 10SM -RA FEW017 OVC023 08/05 A3002 RMK AO2 P0000=
201401030853 METAR KSEA 030853Z 00000KT 8SM -RA BKN006 BKN011 OVC019 08/05 A3002 RMK AO2 RAB18 SLP174 P0003 60006 T00780050 53027=
201401030832 SPECI KSEA 030832Z 24006KT 4SM -RA OVC008 08/06 A3001 RMK AO2 RAB18 P0001=
201401030753 METAR KSEA 030753Z 23010KT 10SM OVC012 09/06 A2998 RMK AO2 SLP159 T00890061 401060061=
201401030724 SPECI KSEA 030724Z 24012KT 10SM BKN010 OVC014 09/06 A2997 RMK AO2=
201401030653 METAR KSEA 030653Z 24009G16KT 10SM BKN006 OVC013 09/07 A2996 RMK AO2 RAE38 SLP153 P0003 T00890067=
201401030553 METAR KSEA 030553Z 23007KT 7SM RA OVC006 09/07 A2994 RMK AO2 SLP147 P0003 60011 T00890067 10106 20089 53007=
201401030519 SPECI KSEA 030519Z 21009KT 6SM RA OVC008 09/06 A2993 RMK AO2 P0001=
201401030453 METAR KSEA 030453Z 20009G15KT 10SM -RA OVC012 09/06 A2992 RMK AO2 SLP138 P0004 T00940061=
201401030445 SPECI KSEA 030445Z 20008KT 10SM -RA OVC014 09/06 A2992 RMK AO2 P0003=
201401030353 METAR KSEA 030353Z 21012KT 10SM -RA OVC022 09/06 A2991 RMK AO2 SLP137 P0002 T00940056=
201401030326 SPECI KSEA 030326Z 21012KT 10SM -RA BKN024 OVC050 09/06 A2992 RMK AO2 P0002=
201401030253 METAR KSEA 030253Z 20009G17KT 10SM -RA SCT028 SCT038 OVC060 09/06 A2992 RMK AO2 SLP140 P0002 60002 T00940056 56026=
201401030153 METAR KSEA 030153Z 20008KT 10SM -RA OVC040 10/05 A2995 RMK AO2 SLP148 P0000 T01000050=
201401030053 METAR KSEA 030053Z 17005KT 10SM -RA BKN060 OVC100 09/05 A2996 RMK AO2 RAB24 SLP154 P0000 T00940050=
201401022353 METAR KSEA 022353Z 26006KT 10SM FEW015 OVC070 10/04 A3000 RMK AO2 SLP166 T01000044 10106 20072 56016=
201401022253 METAR KSEA 022253Z 21009KT 10SM BKN075 OVC200 11/04 A3000 RMK AO2 SLP166 T01060044=
201401022153 METAR KSEA 022153Z 19008KT 10SM BKN080 OVC200 10/05 A3002 RMK AO2 SLP174 T01000050=
201401022053 METAR KSEA 022053Z 22012KT 10SM FEW090 BKN150 OVC250 09/05 A3005 RMK AO2 SLP183 T00890050 58027=
201401021953 METAR KSEA 021953Z 18010G17KT 10SM FEW080 BKN150 OVC250 08/06 A3008 RMK AO2 SLP194 T00830056=
201401021853 METAR KSEA 021853Z 14007KT 10SM FEW006 SCT080 BKN140 BKN250 08/05 A3011 RMK AO2 SLP204 T00780050=
201401021753 METAR KSEA 021753Z 17005KT 10SM FEW006 SCT090 OVC130 07/05 A3013 RMK AO2 SLP211 60000 T00720050 10072 20061 56013=
201401021653 METAR KSEA 021653Z 18003KT 5SM BR FEW002 BKN100 OVC150 07/04 A3014 RMK AO2 SLP214 T00670044=
201401021553 METAR KSEA 021553Z 00000KT 10SM FEW080 OVC100 07/05 A3014 RMK AO2 SLP216 T00670050=
201401021453 METAR KSEA 021453Z 17006KT 10SM FEW004 OVC110 06/04 A3017=
201401021353 METAR KSEA 021353Z 00000KT 5SM BR FEW002 BKN060 BKN080 07/05 A3019 RMK AO2 RAE08 SLP232 P0000 T00670050 $=
201401021337 SPECI KSEA 021337Z 00000KT 1 1/4SM R16L/5500VP6000FT BR BKN002 BKN055 OVC080 06/05 A3020 RMK AO2 RAE08 P0000 $=
201401021253 METAR KSEA 021253Z 00000KT 5SM -RA BR FEW002 OVC060 07/05 A3020 RMK AO2 RAE1154B52 SLP236 P0000 T00670050 $=
201401021212 SPECI KSEA 021212Z 00000KT 1 1/2SM BR SCT002 OVC075 06/04 A3022 RMK AO2 SFC VIS 3 RAE1154 $=
201401021153 METAR KSEA 021153Z 18003KT 1/8SM -RA BR BKN002 OVC075 06/04 A3023 RMK AO2 SFC VIS 2 SLP245 P0001 60002 70002 T00610044 10067 20061 55005 $=
201401021115 SPECI KSEA 021115Z 15006KT 1/8SM R16L/4500VP6000FT -RA BR BKN002 BKN060 OVC080 06/04 A3023 RMK AO2 SFC VIS 1 P0000 $=
201401021111 SPECI KSEA 021111Z 15006KT 1SM R16L/4500VP6000FT -RA BR BKN004 BKN070 OVC080 06/04 A3023 RMK AO2 P0000 $=
201401021053 METAR KSEA 021053Z 12006KT 4SM -RA BR BKN004 BKN050 OVC070 06/04 A3022 RMK AO2 RAE00B44 SLP243 P0000 T00610044 $=
201401021044 SPECI KSEA 021044Z 11006KT 4SM -RA BR BKN004 BKN050 OVC065 06/04 A3023 RMK AO2 RAE00B44 P0000 $=
201401020953 METAR KSEA 020953Z 14004KT 6SM -RA BR FEW003 OVC075 07/04 A3023 RMK AO2 RAB15 SLP245 P0001 T00670044 $=
201401020902 SPECI KSEA 020902Z 00000KT 6SM BR FEW003 BKN080 OVC100 07/04 A3023 RMK AO2 $=
201401020853 METAR KSEA 020853Z 11003KT 1 1/4SM BR SCT003 BKN080 OVC100 07/04 A3024 RMK AO2 SFC VIS 5 SLP250 T00670044 58008 $=
201401020842 SPECI KSEA 020842Z 11005KT 1 1/4SM BR BKN003 BKN090 OVC100 07/04 A3024 RMK AO2 SFC VIS 5 $=
201401020822 SPECI KSEA 020822Z 16004KT 1 1/4SM BR BKN005 BKN090 OVC100 06/04 A3025 RMK AO2 SFC VIS 5 $=
201401020808 SPECI KSEA 020808Z 15003KT 6SM BR BKN005 OVC090 06/04 A3025 RMK AO2 $=
201401020753 METAR KSEA 020753Z 16004KT 8SM FEW005 OVC090 06/04 A3025 RMK AO2 SLP253 T00610044 400720033 $=
201401020653 METAR KSEA 020653Z 00000KT 10SM OVC090 07/04 A3026 RMK AO2 SLP256 T00670044 $=
201401020553 METAR KSEA 020553Z 32004KT 8SM FEW002 OVC065 07/04 A3027 RMK AO2 SLP258 60000 T00670044 10072 20061 56022 $=
201401020530 SPECI KSEA 020530Z 34006KT 6SM BR FEW002 OVC065 07/04 A3027 RMK AO2 $=
201401020453 METAR KSEA 020453Z 35006KT 9SM OVC070 07/04 A3027 RMK AO2 SLP259 T00670044 $=
201401020353 METAR KSEA 020353Z 02004KT 5SM BR FEW004 OVC090 07/04 A3030 RMK AO2 RAE49 SLP269 P0000 T00670044 $=
201401020253 METAR KSEA 020253Z 05004KT 7SM -RA FEW004 OVC090 07/04 A3033 RMK AO2 SLP281 P0000 60000 T00670044 58003 $=
201401020153 METAR KSEA 020153Z 00000KT 7SM -RA FEW004 OVC070 07/04 A3035 RMK AO2 SLP287 P0000 T00720044 $=
201401020053 METAR KSEA 020053Z 03003KT 6SM -RA FEW005 OVC070 07/04 A3035 RMK AO2 RAB28 SLP287 P0000 T00720044 $=
201401012353 METAR KSEA 012353Z 00000KT 4SM BR FEW004 OVC110 07/04 A3034 RMK AO2 SLP284 T00720044 10072 20056 55003=
201401012338 SPECI KSEA 012338Z 36004KT 3SM BR SCT004 OVC110 07/04 A3034 RMK AO2=
201401012253 METAR KSEA 012253Z 36003KT 1 1/2SM BR OVC004 07/04 A3033 RMK AO2 SFC VIS 3 SLP279 T00720044=
201401012153 METAR KSEA 012153Z 00000KT 1 1/2SM BR OVC004 06/04 A3034 RMK AO2 SLP282 T00610044=
201401012115 SPECI KSEA 012115Z 00000KT 1 1/2SM BR OVC004 06/05 A3034 RMK AO2=
201401012053 METAR KSEA 012053Z 00000KT 1/8SM R16L/P6000FT FG OVC002 06/04 A3035 RMK AO2 SFC VIS 1/2 SLP286 T00560044 58012=
201401011953 METAR KSEA 011953Z 00000KT 1/8SM R16L/5000VP6000FT FG VV002 06/04 A3036 RMK AO2 SFC VIS 1/2 SLP290 T00560039=
201401011853 METAR KSEA 011853Z 00000KT 1/8SM R16L/1600V5500FT FG OVC002 06/04 A3039 RMK AO2 SFC VIS 1/2 SLP299 T00560039=
201401011804 SPECI KSEA 011804Z 00000KT 1/8SM R16L/1600V5000FT FG VV002 06/04 A3039 RMK AO2 SFC VIS 1/4=
201401011753 METAR KSEA 011753Z 05003KT 1/8SM R16L/1000V1800FT FG VV002 06/04 A3039 RMK AO2 SFC VIS 1/4 SLP298 T00560039 10056 20033 50002=
201401011748 SPECI KSEA 011748Z 05003KT 1/8SM R16L/0800V1400FT FG VV002 06/04 A3039 RMK AO2 SFC VIS 1/4=
201401011653 METAR KSEA 011653Z 00000KT 1/8SM R16L/0800V1200FT FG VV001 05/04 A3040 RMK AO2 SLP303 T00500039=
201401011553 METAR KSEA 011553Z 05005KT 1/8SM R16L/1200V1600FT FG VV001 05/03 A3038 RMK AO2 SFC VIS 1/4 SLP297 T00500033=
201401011453 METAR KSEA 011453Z 00000KT 1/8SM R16L/1200V1600FT FG VV001 04/03 A3038 RMK AO2 SLP296 T00440033 55006=
201401011353 METAR KSEA 011353Z 06003KT 1/8SM R16L/1000V1400FT FG VV001 04/03 A3037 RMK AO2 SLP294 T00440028=
201401011345 SPECI KSEA 011345Z 04004KT 1/8SM R16L/0800V1000FT FG VV001 04/03 A3037 RMK AO2=
201401011253 METAR KSEA 011253Z 03006KT 1/2SM R16L/1000V1200FT FG BKN001 OVC025 03/02 A3039 RMK AO2 SLP299 T00330017=
201401011217 SPECI KSEA 011217Z 01006KT 1/2SM R16L/1000V1200FT FG BKN001 OVC025 03/02 A3040 RMK AO2=
201401011153 METAR KSEA 011153Z 00000KT 1/2SM R16L/2200VP6000FT FG BKN001 OVC027 05/03 A3040 RMK AO2 SLP302 70002 T00500033 10056 20039 50005=
201401011113 SPECI KSEA 011113Z 00000KT 3/4SM R16L/2400VP6000FT BCFG SCT001 OVC027 04/03 A3040 RMK AO2=
201401011053 METAR KSEA 011053Z 06003KT 1/4SM R16L/1400VP6000FT FG VV001 04/03 A3041 RMK AO2 SLP305 T00440033=
201401010953 METAR KSEA 010953Z 10005KT 1/4SM R16L/0700V0800FT FG BKN001 OVC028 04/02 A3040 RMK AO2 SLP303 T00390022=
201401010943 SPECI KSEA 010943Z 15003KT 1/4SM R16L/0800V1400FT FG BKN001 OVC028 04/03 A3039 RMK AO2=
201401010929 SPECI KSEA 010929Z 05003KT 1/2SM R16L/1600VP6000FT FG BKN001 OVC028 04/03 A3040 RMK AO2=
201401010913 SPECI KSEA 010913Z 00000KT 1SM R16L/2600VP6000FT BCFG FEW001 OVC028 05/03 A3039 RMK AO2=
201401010903 SPECI KSEA 010903Z 00000KT 3/4SM R16L/1400V2800FT BCFG SCT001 OVC028 05/03 A3039 RMK AO2=
201401010900 SPECI KSEA 010900Z 00000KT 1/8SM R16L/1000V2800FT FG SCT001 OVC028 05/03 A3039 RMK AO2=
201401010853 METAR KSEA 010853Z 00000KT 1/8SM R16L/0800V1800FT FG BKN001 OVC028 05/03 A3038 RMK AO2 SLP298 T00500033 53002=
201401010846 SPECI KSEA 010846Z 00000KT 1/8SM R16L/0700V0800FT FG VV001 05/03 A3039 RMK AO2=
201401010807 SPECI KSEA 010807Z 00000KT 1/4SM R16L/0800V1400FT FG VV001 06/04 A3038 RMK AO2=
201401010753 METAR KSEA 010753Z 00000KT 1/4SM R16L/1400VP6000FT FG VV001 05/04 A3037 RMK AO2 SLP294 T00500039 400830050=
201401010740 SPECI KSEA 010740Z 00000KT 3/4SM R16L/1000V1400FT BR BKN001 OVC031 06/04 A3038 RMK AO2=
201401010653 METAR KSEA 010653Z 00000KT 1/2SM R16L/3000VP6000FT FG BKN001 OVC031 05/04 A3038 RMK AO2 SLP296 T00500039=
201401010646 SPECI KSEA 010646Z 00000KT 1/2SM R16L/1600VP6000FT FG BKN001 OVC031 05/04 A3037 RMK AO2=
201401010624 SPECI KSEA 010624Z 00000KT 1/8SM R16L/1000VP6000FT FG VV001 06/04 A3037 RMK AO2=
201401010553 METAR KSEA 010553Z 00000KT 1/8SM R16L/0800V1400FT FG VV001 07/05 A3037 RMK AO2 SLP293 T00670050 10078 20050 51006=
201401010525 SPECI KSEA 010525Z 00000KT 1/8SM R16L/1200V1600FT FG VV001 07/05 A3036 RMK AO2 SFC VIS 1/4=
201401010519 SPECI KSEA 010519Z 00000KT 1/8SM R16L/1400V1800FT FG VV002 06/05 A3036 RMK AO2 SFC VIS 1/4=
201401010510 SPECI KSEA 010510Z 00000KT 1/8SM R16L/1800V5000FT FG OVC002 06/05 A3036 RMK AO2 SFC VIS 1/2=
201401010453 METAR KSEA 010453Z 00000KT 1/4SM BR VV002 05/04 A3037 RMK AO2 SFC VIS 1 1/2 VIS 1V2 1/2 SLP291 T00500039=
201401010353 METAR KSEA 010353Z VRB03KT 5SM BR SCT002 07/06 A3036 RMK AO2 SLP288 T00720056=
201401010320 SPECI KSEA 010320Z 07006KT 1SM BR BKN004 BKN032 07/05 A3035 RMK AO2 SFC VIS 3=
201401010318 SPECI KSEA 010318Z 07005KT 7SM FEW004 BKN032 07/05 A3034 RMK AO2=
201401010253 METAR KSEA 010253Z 00000KT 9SM SCT025 OVC033 08/06 A3035 RMK AO2 SLP286 T00780056 51013=
201401010153 METAR KSEA 010153Z 00000KT 10SM FEW003 SCT012 OVC023 08/06 A3035 RMK AO2 SLP285 T00780056=
201401010118 SPECI KSEA 010118Z 36003KT 7SM FEW003 SCT008 OVC023 08/06 A3034 RMK AO2=
201401010053 METAR KSEA 010053Z 00000KT 6SM BR BKN005 BKN009 OVC023 08/06 A3034 RMK AO2 SLP282 T00780061=

# No short TAF reports from KSEA in databse.

###################################
#  large TAF from KSEA
###################################
201401312322 TAF KSEA 312322Z 0100/0206 36005KT P6SM SCT025 BKN040 FM010900
                       00000KT P6SM BKN020 OVC040 FM011800 VRB04KT
                       P6SM SCT025 BKN040=
201401312101 KSEA 312101Z 3121/0124 01005KT P6SM VCSH SCT015 BKN035 FM010900
                       VRB04KT P6SM BKN015 OVC030 FM011700 VRB04KT
                       P6SM SCT020 BKN040=
201401311730 TAF KSEA 311730Z 3118/0124 36006KT P6SM BKN015 OVC030
                      TEMPO 3118/3120 4SM -DZ BR OVC010 FM312200
                       VRB04KT P6SM SCT020 BKN040 FM011200 VRB04KT
                       P6SM BKN015 OVC030 FM011700 VRB04KT P6SM
                       SCT020 BKN040=
201401311401 KSEA 311401Z 3114/0118 23005KT P6SM OVC005
                      TEMPO 3114/3117 4SM -DZ FM311900 VRB04KT
                       P6SM OVC012 FM312200 02003KT P6SM OVC020
                       FM010100 36004KT P6SM BKN025 BKN050 FM010600
                       17003KT P6SM BKN035 BKN050 FM011200 15003KT
                       P6SM BKN015 OVC035=
201401311120 TAF KSEA 311120Z 3112/0118 20005KT P6SM OVC008
                      TEMPO 3112/3116 4SM -SHRA BR OVC005 FM311600
                       VRB04KT P6SM OVC012 FM311900 02003KT P6SM
                       OVC020 FM312200 36004KT P6SM BKN025 BKN050
                       FM010100 VRB02KT P6SM SCT050 FM010600 17003KT
                       P6SM BKN035 BKN050 FM011200 15003KT P6SM
                       BKN015 OVC035=
201401310904 TAF AMD KSEA 310904Z 3109/0112 20008KT P6SM OVC013 FM311500 VRB04KT
                       P6SM OVC020 FM311900 02003KT P6SM BKN025
                       FM312200 36004KT P6SM SCT025 BKN050 FM010100
                       VRB02KT P6SM SCT050=
201401310529 TAF KSEA 310529Z 3106/0112 19007KT P6SM OVC015 FM311500 VRB04KT
                       P6SM OVC020 FM311900 02003KT P6SM BKN025
                       FM312200 36004KT P6SM SCT025 BKN050 FM010100
                       VRB02KT P6SM SCT050=
201401310217 TAF AMD KSEA 310217Z 3102/0106 19010KT P6SM OVC013 FM310500 VRB05KT
                       P6SM -SHRA BKN015 OVC025
                      TEMPO 3105/3109 35007KT 4SM -SHRA OVC015
                       FM310900 36006KT 4SM -SHRA OVC015 FM311800
                       VRB04KT P6SM BKN025=
201401302320 TAF KSEA 302320Z 3100/0106 20015G25KT P6SM VCSH SCT015 BKN025 OVC080
                       TEMPO 3101/3105 -SHRA BKN015 FM310500 VRB05KT
                       P6SM -SHRA BKN015 OVC025
                      TEMPO 3105/3109 35007KT 4SM -SHRA OVC015
                       FM310900 36006KT 4SM -SHRA OVC015 FM311800
                       VRB04KT P6SM BKN025=
201401302004 TAF AMD KSEA 302004Z 3020/3124 20015G25KT P6SM VCSH SCT025 BKN030
                       OVC080
                      TEMPO 3023/3103 -SHRA BKN025 FM310300 35007KT
                       P6SM -SHRA SCT015 OVC020 FM310900 02004KT
                       P6SM OVC015=
201401301727 TAF KSEA 301727Z 3018/3124 20010G18KT P6SM VCSH OVC016 FM302000
                       20010KT P6SM VCSH OVC020 FM310300 35007KT
                       P6SM -SHRA SCT015 OVC020 FM310900 02004KT
                       P6SM OVC015=
201401301411 TAF AMD KSEA 301411Z 3014/3118 20012KT P6SM OVC015 FM301700 20010KT
                       P6SM -SHRA OVC020 FM310300 35007KT P6SM
                       SCT025 OVC050 FM310700 02004KT P6SM OVC025=
201401301121 TAF KSEA 301121Z 3012/3118 20012G20KT P6SM OVC015 FM301700 20010KT
                       P6SM -SHRA OVC020 FM310300 35007KT P6SM
                       SCT025 OVC050 FM310700 02004KT P6SM OVC025=
201401300904 TAF AMD KSEA 300904Z 3009/3112 19012G20KT P6SM SCT015 OVC027
                      TEMPO 3009/3012 BKN013 FM301700 20010KT P6SM
                       -SHRA OVC020=
201401300600 TAF AMD KSEA 300600Z 3006/3112 19006KT 5SM BR SCT002 OVC028
                      TEMPO 3006/3009 2SM BR BKN002 FM300900 18008KT
                       P6SM OVC015 FM301700 20010KT P6SM -SHRA
                       OVC020=
201401300520 TAF KSEA 300520Z 3006/3112 18005KT P6SM FEW018 OVC035 FM300900
                       18008KT P6SM OVC015 FM301700 20010KT P6SM
                       -SHRA OVC020=
201401300205 TAF AMD KSEA 300205Z 3002/3106 35009KT P6SM -SHRA SCT006 SCT015
                       OVC040
                      TEMPO 3002/3005 2SM SHRA BKN006 OVC015 FM300900
                       18007KT 4SM -SHRA OVC008 FM301500 20008KT
                       P6SM VCSH OVC020=
201401300125 TAF AMD KSEA 300125Z 3001/3106 35013KT P6SM -SHRA BKN006 OVC020
                       TEMPO 3001/3005 2SM SHRA OVC006 FM300900
                       18007KT 4SM -SHRA OVC008 FM301500 20008KT
                       P6SM VCSH OVC020=
201401292328 TAF KSEA 292328Z 3000/3106 VRB05KT 2SM -SHRA SCT008 BKN015 OVC030
                       TEMPO 3000/3001 34008KT BKN008 FM300100
                       35007KT 2SM -SHRA BKN008 OVC012 FM300900
                       18007KT 4SM -SHRA OVC008 FM301500 20008KT
                       P6SM VCSH OVC020=
201401292232 TAF AMD KSEA 292232Z 2923/3024 VRB05KT 4SM -SHRA SCT008 BKN015
                       OVC030
                      TEMPO 2923/2924 34008KT 2SM -SHRA BKN008
                       FM300000 35007KT 2SM -SHRA BKN008 OVC012
                       FM300900 18007KT 4SM -SHRA OVC008=
201401292101 KSEA 292101Z 2921/3024 18010G18KT 5SM -RA BR SCT008 BKN015 OVC030
                       FM300200 VRB04KT 2SM -SHRA BKN008 OVC012
                       TEMPO 3002/3006 35006KT FM300900 18007KT
                       4SM -SHRA OVC008=
201401291731 TAF KSEA 291731Z 2918/3024 18010G18KT 4SM -RA BR SCT008 BKN015
                       OVC020
                      TEMPO 2918/2922 3SM -RA BR BKN008 FM300200
                       VRB04KT 2SM -SHRA BKN008 OVC012
                      TEMPO 3002/3006 35006KT FM300900 18007KT
                       4SM -SHRA OVC008=
201401291359 TAF AMD KSEA 291359Z 2914/3018 13006KT 3SM -RA BR SCT003 BKN009
                       OVC015
                      TEMPO 2914/2916 6SM -RA BR SCT009 OVC015
                       FM291600 18010KT P6SM -SHRA OVC015 FM300300
                       21008KT P6SM BKN018 OVC035=
201401291121 TAF KSEA 291121Z 2912/3018 13006KT P6SM -RA SCT003 BKN009 OVC015
                       TEMPO 2912/2916 4SM -RA BR BKN003 OVC009
                       FM291600 18010KT P6SM -SHRA OVC013 FM300300
                       21008KT P6SM BKN018 OVC035=
201401290921 TAF AMD KSEA 290921Z 2909/3012 00000KT 4SM -RA BR SCT005 BKN016
                       OVC027
                      TEMPO 2909/2913 2SM RA BR BKN005 OVC016 FM291300
                       18010KT 3SM -RA BR BKN008 OVC015 FM291700
                       20012KT P6SM -SHRA OVC015 FM300200 20008KT
                       P6SM BKN020 OVC040=
201401290520 TAF KSEA 290520Z 2906/3012 35005KT 6SM -RA BR SCT035 OVC050
                      TEMPO 2906/2910 4SM -RA BR BKN020 OVC035
                       FM291000 18010KT 3SM -RA BR SCT008 OVC012
                       FM291700 20012KT P6SM -SHRA OVC015 FM300200
                       20008KT P6SM BKN020 OVC040=
201401290319 TAF AMD KSEA 290319Z 2903/3006 01005KT P6SM -DZ BKN040 OVC100
                      TEMPO 2904/2906 BKN020 OVC040 FM290600 16006KT
                       5SM -RA BR OVC015 FM291000 18010KT 3SM -RA
                       BR SCT008 OVC012 FM291700 20012KT P6SM -RA
                       OVC020=
201401282325 TAF KSEA 282325Z 2900/3006 VRB04KT P6SM VCSH SCT015 OVC020 FM290600
                       16006KT 5SM -RA BR OVC015 FM291000 18010KT
                       3SM -RA BR SCT008 OVC012 FM291700 20012KT
                       P6SM -RA OVC020=
201401281725 TAF KSEA 281725Z 2818/2924 16004KT P6SM VCSH SCT015 OVC020 FM290600
                       18008KT 5SM -RA BR OVC015=
201401281400 TAF AMD KSEA 281400Z 2814/2918 13004KT P6SM OVC035
                      TEMPO 2814/2818 -RA BKN025 FM282000 16006KT
                       P6SM OVC050
                      TEMPO 2902/2906 -RA OVC025 FM290600 18008KT
                       5SM RA BR OVC015=
201401281123 TAF KSEA 281123Z 2812/2918 13004KT P6SM OVC040
                      TEMPO 2814/2818 -RA BKN025 FM282000 16006KT
                       P6SM OVC050
                      TEMPO 2902/2906 -RA OVC025 FM290600 18008KT
                       5SM RA BR OVC015=
201401280520 TAF KSEA 280520Z 2806/2912 12005KT 6SM BR FEW002 OVC130
                      TEMPO 2809/2813 -RA OVC080 FM281300 12006KT
                       P6SM -RA SCT030 OVC050 FM281800 16006KT
                       P6SM -RA OVC030 FM290600 18008KT 5SM RA
                       BR OVC015=
201401280346 TAF AMD KSEA 280346Z 2804/2906 19003KT 3SM BR FEW002 OVC150 FM280900
                       12004KT 5SM BR FEW003 OVC100 FM281500 12006KT
                       P6SM -RA SCT030 OVC050 FM281800 16006KT
                       P6SM -RA OVC030=
201401272334 TAF KSEA 272334Z 2800/2906 00000KT 3SM HZ SCT002 OVC200
                      TEMPO 2800/2804 2SM HZ BKN002 FM280900 12004KT
                       1SM BR BKN001 OVC100 FM281500 12006KT P6SM
                       -RA SCT030 OVC050 FM281800 16006KT P6SM
                       -RA OVC030=
201401272104 TAF AMD KSEA 272104Z 2721/2824 00000KT 1SM BR SCT002 OVC200
                      TEMPO 2721/2723 BKN002 FM272300 VRB03KT 3SM
                       BR BKN004 OVC200 FM280900 12006KT P6SM OVC100
                       FM281400 12006KT P6SM -RA OVC040=
201401272036 TAF AMD KSEA 272036Z 2721/2824 00000KT 1/2SM FG VV002 FM272300
                       VRB03KT 3SM BR BKN004 OVC200 FM280900 12006KT
                       P6SM OVC100 FM281400 12006KT P6SM -RA OVC040=
201401271723 TAF KSEA 271723Z 2718/2824 00000KT 1/4SM FG VV001
                      TEMPO 2720/2721 2SM BR BKN002 FM272100 VRB03KT
                       P6SM BKN200 FM280900 12006KT P6SM OVC100
                       FM281400 12006KT P6SM -RA OVC040=
201401271400 KSEA 271400Z 2714/2818 00000KT 1/4SM FG VV001
                      TEMPO 2720/2721 2SM BR BKN002 FM272100 VRB03KT
                       P6SM BKN200 FM280900 12006KT P6SM OVC100
                       FM281400 12006KT P6SM -RA OVC040=
201401271136 TAF KSEA 271136Z 2712/2818 00000KT 1/4SM FG OVC001
                      TEMPO 2720/2721 2SM BR BKN002 FM272100 VRB03KT
                       P6SM BKN200 FM280900 12006KT P6SM OVC100
                       FM281400 12006KT P6SM -RA OVC040=
201401270913 TAF AMD KSEA 270913Z 2709/2812 00000KT 1/4SM FG OVC001 FM272000
                       VRB03KT P6SM BKN200 FM280900 12006KT P6SM
                       OVC100=
201401270536 TAF KSEA 270536Z 2706/2812 00000KT 1/4SM FG OVC001
                      TEMPO 2706/2708 1SM BR SCT001 FM272000 VRB03KT
                       P6SM BKN200 FM280900 12006KT P6SM OVC100=
201401270416 TAF AMD KSEA 270416Z 2704/2806 00000KT 1/2SM FG BKN001
                      TEMPO 2704/2706 3SM BR SCT001 FM270600 02005KT
                       1/2SM FG OVC001 FM272000 05006KT P6SM BKN200=
201401270309 KSEA 270309Z 2703/2806 00000KT P6SM SCT250 FM270800 04005KT 1/2SM
                       FG OVC001 FM272000 05006KT P6SM BKN200=
201401262324 TAF KSEA 262324Z 2700/2806 00000KT P6SM SCT250 FM270800 04005KT
                       1/2SM FG OVC001 FM272000 05006KT P6SM BKN200=
201401262015 TAF AMD KSEA 262015Z 2620/2724 VRB03KT 3SM BR FEW001 OVC004 FM262100
                       01004KT P6SM SKC FM270800 04005KT 1/2SM
                       FG OVC001 FM272000 05006KT P6SM BKN200=
201401261725 TAF KSEA 261725Z 2618/2724 03004KT 1/4SM FG VV001 FM262000 01004KT
                       P6SM SKC FM270800 04005KT 1/2SM FG OVC001
                       FM272000 05006KT P6SM BKN200=
201401261432 TAF AMD KSEA 261432Z 2615/2718 00000KT 1/4SM FG VV001
                      TEMPO 2615/2619 3SM BR BKN002 FM261900 00000KT
                       P6SM SCT200 FM271000 00000KT 2SM BR SCT002
                       BKN200
                      TEMPO 2712/2716 1/2SM FG VV002=
201401261341 TAF AMD KSEA 261341Z 2614/2718 00000KT 4SM BR SCT002 SCT200
                      TEMPO 2614/2617 1/2SM FG OVC001 FM261800
                       00000KT P6SM SCT200 FM271000 00000KT 2SM
                       BR SCT002 BKN200
                      TEMPO 2712/2716 1/2SM FG VV002=
201401261227 TAF AMD KSEA 261227Z 2612/2718 00000KT 4SM BR SCT002 SCT200
                      TEMPO 2612/2616 1SM BR FM261800 00000KT P6SM
                       SCT200 FM271000 00000KT 2SM BR SCT002 BKN200
                       TEMPO 2712/2716 1/2SM FG VV002=
201401261120 TAF KSEA 261120Z 2612/2718 00000KT 5SM BR SCT200
                      TEMPO 2613/2617 1SM BR FM261800 00000KT P6SM
                       SCT200 FM271000 00000KT 2SM BR SCT002 BKN200
                       TEMPO 2712/2716 1/2SM FG VV002=
201401261032 TAF AMD KSEA 261032Z 2611/2712 00000KT 5SM BR VCFG SKC FM261200
                       00000KT 2SM BR SCT002
                      TEMPO 2613/2617 1/2SM FG VV002 FM261800 00000KT
                       P6SM SCT200 FM271000 00000KT 1/2SM FG VV002=
201401260900 KSEA 260900Z 2609/2712 00000KT 4SM BR VCFG SKC
                      TEMPO 2609/2611 2SM BR FM261100 00000KT 1/2SM
                       FG VV002
                      TEMPO 2617/2620 2SM BR FM262000 VRB03KT P6SM
                       SKC FM271000 00000KT 1/2SM FG VV002=
201401260520 TAF KSEA 260520Z 2606/2712 00000KT P6SM SKC
                      TEMPO 2608/2610 2SM BR FM261000 00000KT 1/2SM
                       FG VV002
                      TEMPO 2617/2620 2SM BR FM262000 VRB03KT P6SM
                       SKC FM271000 00000KT 1/2SM FG VV002=
201401260301 KSEA 260301Z 2603/2706 00000KT P6SM SKC
                      TEMPO 2607/2609 2SM BR FM260900 00000KT 1/2SM
                       FG VV002
                      TEMPO 2617/2620 2SM BR FM262000 VRB03KT P6SM
                       SKC=
201401252327 TAF KSEA 252327Z 2600/2706 26004KT P6SM SKC FM260800 05003KT 1/4SM
                       FG VV001 FM262000 VRB03KT P6SM SKC=
201401252106 KSEA 252106Z 2521/2624 00000KT P6SM SKC FM260600 04005KT 2SM BR
                       SKC FM260900 05003KT 1/4SM FG VV001 FM261900
                       02003KT P6SM SKC=
201401251755 TAF AMD KSEA 251755Z 2518/2624 26003KT 1/4SM FG VV001 FM252000
                       VRB03KT P6SM SKC FM260600 04005KT 2SM BR
                       SKC FM260900 05003KT 1/4SM FG VV001 FM261900
                       02003KT P6SM SKC=
201401251722 TAF KSEA 251722Z 2518/2624 18003KT P6SM SKC FM260600 04005KT 2SM
                       BR SKC FM260900 05003KT 1/4SM FG VV001 FM261900
                       02003KT P6SM SKC=
201401251459 TAF AMD KSEA 251459Z 2515/2618 00000KT P6SM SCT001
                      TEMPO 2515/2518 1/2SM FG BKN001 FM251800
                       VRB03KT P6SM SKC FM260800 00000KT 1/2SM
                       FG VV002=
201401251403 TAF AMD KSEA 251403Z 2514/2618 00000KT P6SM SCT001
                      TEMPO 2516/2517 1SM BR BKN001 FM251800 VRB03KT
                       P6SM SKC FM260800 00000KT 1/2SM FG VV002=
201401251120 TAF KSEA 251120Z 2512/2618 00000KT 1/4SM FG VV001
                      TEMPO 2516/2518 2SM BR BKN002 FM251800 VRB03KT
                       P6SM SKC FM260800 00000KT 1/2SM FG VV002=
201401250905 TAF AMD KSEA 250905Z 2509/2612 00000KT 1/4SM FG VV001
                      TEMPO 2517/2519 2SM BR BKN002 FM251900 VRB03KT
                       P6SM SKC FM260800 00000KT 1/2SM FG VV002=
201401250701 TAF AMD KSEA 250701Z 2507/2612 12006KT 5SM BR VCFG SCT001
                      TEMPO 2508/2510 2SM BR BKN001 FM251000 00000KT
                       1/2SM FG VV002 FM251900 VRB03KT P6SM SKC=
201401250520 TAF KSEA 250520Z 2506/2612 36004KT P6SM SKC FM251200 00000KT 1/2SM
                       FG VV002 FM251900 VRB03KT P6SM SKC=
201401250300 TAF AMD KSEA 250300Z 2503/2606 04004KT P6SM SKC FM251200 VRB03KT
                       1/2SM FG VV002 FM251900 14005KT P6SM SKC=
201401242323 TAF KSEA 242323Z 2500/2606 04004KT P6SM SKC FM251200 VRB03KT 1/4SM
                       FG VV001 FM252000 14005KT P6SM SKC=
201401242104 TAF AMD KSEA 242104Z 2421/2524 27004KT P6SM FEW250 FM251200 06005KT
                       1/4SM FG VV001=
201401241732 TAF KSEA 241732Z 2418/2524 00000KT P6SM SKC
                      TEMPO 2418/2419 1/2SM FG BKN001 FM242000
                       04005KT P6SM SKC FM251200 06005KT 1/4SM
                       FG VV001=
201401241531 TAF AMD KSEA 241531Z 2416/2518 36006KT P6SM SCT002 SCT250
                      TEMPO 2416/2418 2SM BR BKN002 BKN250 FM241800
                       04003KT P6SM SKC=
201401241402 TAF AMD KSEA 241402Z 2414/2518 36006KT P6SM SKC
                      TEMPO 2414/2416 5SM BR SCT001=
201401241120 TAF KSEA 241120Z 2412/2518 02006KT 3SM BR SCT001
                      TEMPO 2412/2416 1/2SM FG VV001 FM241700 02006KT
                       P6SM SKC=
201401241027 TAF AMD KSEA 241027Z 2410/2512 02006KT 2SM BR BKN002
                      TEMPO 2411/2415 1/2SM FG VV001 FM241700 02006KT
                       P6SM SKC=
201401240520 TAF KSEA 240520Z 2406/2512 02008KT P6SM SKC FM241000 06005KT 3SM
                       BR SCT003
                      TEMPO 2412/2416 1/2SM FG BKN001 FM241700
                       02006KT P6SM SKC=
201401240304 TAF AMD KSEA 240304Z 2403/2506 02008KT P6SM SKC FM241000 06005KT
                       3SM BR SCT003
                      TEMPO 2412/2416 1/2SM FG BKN001 FM241700
                       02006KT P6SM SKC=
201401232320 TAF KSEA 232320Z 2400/2506 34008KT P6SM FEW200 FM240300 02008KT
                       P6SM SKC FM241000 06005KT 1/2SM FG BKN001
                       FM241700 02006KT P6SM SKC=
201401232101 TAF AMD KSEA 232101Z 2321/2424 01010KT P6SM FEW200 FM240100 02008KT
                       P6SM SKC FM241000 06005KT 1/2SM FG BKN001
                       FM241700 02006KT P6SM SKC=
201401231734 TAF KSEA 231734Z 2318/2424 01015KT 2SM BR OVC003
                      TEMPO 2319/2320 5SM BR BKN003 FM232000 06008KT
                       P6SM SKC FM241000 06005KT 1/2SM FG BKN001
                       FM241700 02006KT P6SM SKC=
201401231518 TAF AMD KSEA 231518Z 2315/2418 01018KT 3SM BR OVC004 FM231800 03012KT
                       P6SM BKN006 FM232000 06008KT P6SM SKC FM241200
                       09008KT P6SM SKC=
201401231411 TAF AMD KSEA 231411Z 2314/2418 02012KT P6SM OVC004 FM231800 03012KT
                       P6SM BKN006 FM232000 06008KT P6SM SKC FM241200
                       09008KT P6SM SKC=
201401231120 TAF KSEA 231120Z 2312/2418 02012KT P6SM BKN007
                      TEMPO 2312/2316 4SM BR FM231900 06006KT P6SM
                       SKC FM241200 09008KT P6SM SKC=
201401230904 TAF AMD KSEA 230904Z 2309/2412 01010KT P6SM OVC006 FM231100 04008KT
                       5SM BR BKN004
                      TEMPO 2312/2316 2SM BR FM231800 06006KT P6SM
                       SKC=
201401230520 TAF KSEA 230520Z 2306/2412 01010KT P6SM OVC012 FM230900 04008KT
                       5SM BR VCFG SCT004 BKN012 FM231200 06008KT
                       2SM BR BKN004 BKN010 FM231700 06006KT 3SM
                       BR SCT005 FM231800 06006KT P6SM SKC=
201401230301 TAF AMD KSEA 230301Z 2303/2406 01010KT P6SM OVC014 FM230600 04005KT
                       5SM BR VCFG SCT004 BKN012 FM230900 05003KT
                       2SM BR BKN004 BKN010 FM231600 07005KT 3SM
                       BR SCT005 FM231800 09005KT P6SM SKC=
201401230138 TAF AMD KSEA 230138Z 2302/2406 35007KT P6SM SCT008 BKN014 FM230600
                       04005KT 3SM BR VCFG SCT004 FM230800 05003KT
                       1/2SM FG VV001 FM231600 07005KT 3SM BR SCT002
                       FM231800 09005KT P6SM SKC=
201401222320 TAF KSEA 222320Z 2300/2406 03006KT P6SM SCT008 BKN040 FM230600
                       04005KT 3SM BR VCFG SCT003 FM230800 05003KT
                       1/2SM FG VV001 FM231600 07005KT 3SM BR SCT002
                       FM231800 09005KT P6SM SKC=
201401222101 KSEA 222101Z 2221/2324 02007KT P6SM BKN008 OVC012 FM222230 02006KT
                       P6SM SCT008 BKN015 FM230000 03005KT P6SM
                       SCT008 SCT015 FM230300 04005KT 3SM BR VCFG
                       SCT003 FM230600 05003KT 1/2SM FG VV001 FM231600
                       07005KT 3SM BR SCT002 FM231800 09005KT P6SM
                       SKC=
201401221931 TAF AMD KSEA 221931Z 2220/2324 04004KT P6SM FEW003 BKN014 BKN040
                       FM222200 04004KT P6SM SCT008 SCT015
                      TEMPO 2222/2224 SCT008 BKN015 FM230300 04005KT
                       3SM BR VCFG SCT003 FM230600 05003KT 1/2SM
                       FG VV001 FM231600 07005KT 3SM BR SCT002
                       FM231800 09005KT P6SM SKC=
201401221746 TAF KSEA 221746Z 2218/2324 00000KT 1SM BR BKN003 OVC012
                      TEMPO 2218/2222 1/2SM FG VV001 FM222200 00000KT
                       4SM BR BKN005 BKN008
                      TEMPO 2223/2303 P6SM NSW SCT008 FM230300
                       04005KT 3SM BR VCFG SCT003 FM230600 05003KT
                       1/2SM FG VV001 FM231600 07005KT 3SM BR SCT002
                       FM231800 09005KT P6SM SKC=
201401221714 TAF AMD KSEA 221714Z 2217/2318 00000KT 1SM BR OVC003 FM221800 00000KT
                       4SM BR SCT003 BKN006 OVC015 FM222000 00000KT
                       P6SM SCT006 OVC015 FM222200 04005KT P6SM
                       BKN020 OVC030 FM230200 01006KT P6SM BKN025
                       FM230600 01006KT P6SM SCT020=
201401221411 TAF AMD KSEA 221411Z 2214/2318 00000KT 3SM BR OVC003 FM221800 00000KT
                       P6SM SCT003 BKN006 OVC015 FM222000 00000KT
                       P6SM SCT006 OVC015 FM222200 04005KT P6SM
                       BKN020 OVC030 FM230200 01006KT P6SM BKN025
                       FM230600 01006KT P6SM SCT020=
201401221202 TAF AMD KSEA 221202Z 2212/2318 16004KT P6SM OVC014
                      TEMPO 2212/2216 3SM -DZ BR OVC005 FM221600
                       VRB03KT P6SM OVC015 FM221900 04005KT P6SM
                       BKN020 OVC030 FM222200 01006KT P6SM BKN025
                       FM230100 01006KT P6SM SCT020=
201401221124 TAF KSEA 221124Z 2212/2318 16004KT P6SM OVC014
                      TEMPO 2212/2216 3SM -DZ BR OVC008 FM221600
                       VRB03KT P6SM OVC015 FM221900 04005KT P6SM
                       BKN020 OVC030 FM222200 01006KT P6SM BKN025
                       FM230100 01006KT P6SM SCT020=
201401220901 TAF AMD KSEA 220901Z 2209/2312 16005KT P6SM BKN015 OVC040
                      TEMPO 2209/2212 3SM -DZ BR FM221500 06004KT
                       P6SM OVC015 FM222200 01005KT P6SM SCT025
                       BKN050=
201401220520 TAF KSEA 220520Z 2206/2312 14005KT P6SM SCT015 OVC120
                      TEMPO 2206/2209 BKN015 OVC120 FM220900 18005KT
                       P6SM BKN015 OVC040 FM221500 06004KT P6SM
                       OVC020 FM222200 01005KT P6SM SCT025 BKN050=
201401220421 TAF AMD KSEA 220421Z 2204/2306 14005KT P6SM SCT015 OVC120
                      TEMPO 2204/2206 BKN015 OVC120 FM220600 18005KT
                       P6SM BKN015 OVC045 FM221500 06004KT P6SM
                       OVC020 FM222100 01005KT P6SM SCT035 SCT150=
201401220312 TAF AMD KSEA 220312Z 2203/2306 18007KT P6SM SCT120 BKN200 FM220700
                       18005KT P6SM OVC045 FM221500 06004KT P6SM
                       OVC030 FM222100 01005KT P6SM SCT035 SCT150=
201401212320 TAF KSEA 212320Z 2200/2306 20005KT P6SM SCT100 BKN200 FM220900
                       19005KT P6SM OVC070 FM221500 06004KT P6SM
                       BKN050 FM222100 01005KT P6SM SCT150=
201401212055 KSEA 212055Z 2121/2224 20005KT P6SM BKN150 FM220900 19005KT P6SM
                       OVC020 FM221500 06004KT P6SM BKN050 FM222100
                       01005KT P6SM BKN150=
201401211914 TAF AMD KSEA 211914Z 2119/2224 14006KT 1/2SM FG SCT002 BKN200 FM212000
                       20005KT P6SM BKN150
                      TEMPO 2120/2122 1/2SM FG BKN002 FM220900
                       19005KT P6SM OVC020 FM221500 04004KT P6SM
                       BKN050=
201401211723 TAF KSEA 211723Z 2118/2224 14006KT 1/4SM FG VV001
                      TEMPO 2118/2120 4SM BR BKN002 FM212000 20005KT
                       P6SM BKN150 FM220900 19005KT P6SM OVC020
                       FM221500 04004KT P6SM BKN050=
201401211404 TAF AMD KSEA 211404Z 2114/2218 14006KT 1/2SM FG VV002
                      TEMPO 2118/2119 4SM BR BKN002 FM211900 20005KT
                       P6SM BKN150 FM220900 19005KT P6SM OVC020=
201401211123 TAF KSEA 211123Z 2112/2218 00000KT 4SM BR BKN002
                      TEMPO 2112/2116 1/2SM BCFG VV001 FM211900
                       20005KT P6SM BKN150 FM220900 19005KT P6SM
                       OVC020=
201401211012 TAF AMD KSEA 211012Z 2110/2212 00000KT 4SM BR SCT002
                      TEMPO 2110/2112 1/2SM BCFG BKN001 FM211200
                       00000KT 4SM BR BKN002
                      TEMPO 2112/2116 1/2SM BCFG OVC001 FM211800
                       21004KT P6SM BKN150 FM220700 18005KT P6SM
                       OVC025=
201401210909 KSEA 210909Z 2109/2212 00000KT P6SM SKC
                      TEMPO 2109/2112 2SM BR BKN001 FM211200 00000KT
                       3SM BR OVC003
                      TEMPO 2112/2116 1/2SM FG OVC001 FM211800
                       21004KT P6SM BKN150 FM220700 18005KT P6SM
                       OVC025=
201401210530 TAF KSEA 210530Z 2106/2212 01003KT P6SM SKC
                      TEMPO 2107/2109 2SM BR BKN001 FM210900 05004KT
                       1/2SM FG OVC001 FM211800 18004KT 2SM BR
                       OVC003 FM212000 21004KT P6SM BKN150 FM220700
                       18005KT P6SM BKN020=
201401210309 TAF AMD KSEA 210309Z 2103/2206 01005KT P6SM SKC
                      TEMPO 2105/2108 2SM BR BKN001 FM210800 05004KT
                       1/2SM FG OVC001 FM211800 VRB04KT 2SM BR
                       OVC003 FM212100 18004KT P6SM OVC010=
201401202325 TAF KSEA 202325Z 2100/2206 01005KT P6SM SKC
                      TEMPO 2105/2108 2SM BR BKN001 FM210800 05004KT
                       1/2SM FG OVC001 FM211800 VRB04KT 2SM BR
                       OVC003 FM212100 18004KT P6SM OVC010=
201401202100 KSEA 202100Z 2021/2124 01006KT P6SM SKC FM210800 05004KT 1/2SM
                       FG OVC001 FM211800 VRB04KT 2SM BR OVC003=
201401201923 TAF AMD KSEA 201923Z 2019/2124 01008KT 6SM HZ SCT006 FM202100 03007KT
                       P6SM SCT010 FM210800 05004KT 1/2SM FG OVC001
                       FM211800 VRB04KT 2SM BR OVC003=
201401201901 TAF AMD KSEA 201901Z 2019/2124 01008KT 4SM HZ BKN006 FM202100 02008KT
                       5SM HZ BKN008 FM210800 05004KT 1/2SM FG
                       OVC001 FM211800 VRB04KT 2SM BR OVC003=
201401201731 TAF KSEA 201731Z 2018/2124 01008KT 2SM BR OVC003 FM202100 02008KT
                       5SM BR BKN008 FM210800 05004KT 1/2SM FG
                       OVC001 FM211800 VRB04KT 2SM BR OVC003=
201401201425 TAF AMD KSEA 201425Z 2014/2118 05005KT 6SM BR OVC004
                      TEMPO 2014/2016 1/2SM BCFG OVC001 FM201800
                       04006KT P6SM OVC007 FM202100 03006KT P6SM
                       BKN010 BKN250
                      TEMPO 2022/2102 SCT010 SCT250 FM210400 05006KT
                       5SM BR OVC008=
201401201126 TAF KSEA 201126Z 2012/2118 03006KT 5SM BR OVC004
                      TEMPO 2012/2016 1/2SM BCFG OVC001 FM201800
                       04006KT P6SM OVC007 FM202100 03006KT P6SM
                       BKN010 BKN250
                      TEMPO 2022/2102 SCT010 SCT250 FM210400 05006KT
                       5SM BR OVC008=
201401200901 TAF AMD KSEA 200901Z 2009/2112 03006KT 2SM BR OVC003
                      TEMPO 2009/2011 1/2SM FG OVC001 FM201100
                       03004KT 1/4SM FG VV001 FM202100 05006KT
                       3SM BR OVC004 FM202300 05006KT 6SM BR BKN008
                       FM210300 05006KT 4SM BR OVC006=
201401200708 TAF AMD KSEA 200708Z 2007/2112 04005KT 2SM BR OVC003
                      TEMPO 2008/2010 1/2SM FG VV002 FM201000 03004KT
                       1/4SM FG VV001 FM202100 05006KT 3SM BR OVC004
                       FM202300 05006KT 6SM BR BKN008 FM210300
                       05006KT 4SM BR OVC006=
201401200529 TAF KSEA 200529Z 2006/2112 04005KT 5SM BR OVC004 FM200800 04005KT
                       2SM BR OVC002
                      TEMPO 2008/2010 1/2SM FG VV002 FM201000 03004KT
                       1/4SM FG VV001 FM202100 05006KT 3SM BR OVC004
                       FM202300 05006KT 6SM BR BKN008 FM210300
                       05006KT 4SM BR OVC006=
201401200357 TAF AMD KSEA 200357Z 2004/2106 04005KT 3SM BR OVC004 FM200600 04005KT
                       2SM BR OVC002
                      TEMPO 2006/2008 1/2SM FG VV002 FM200800 03004KT
                       1/4SM FG VV001 FM202100 05006KT 3SM BR OVC004
                       FM202300 05006KT 6SM BR BKN008 FM210300
                       05006KT 4SM BR OVC006=
201401200036 TAF AMD KSEA 200036Z 2001/2106 03004KT 3SM BR OVC004
                      TEMPO 2001/2003 1SM BR FM200300 03004KT 1SM
                       BR OVC003
                      TEMPO 2003/2005 1/2SM FG VV002 FM200500 03004KT
                       1/4SM FG VV001 FM201800 05006KT 3SM BR BKN004
                       FM201900 05006KT 6SM BR BKN011 FM202000
                       05006KT P6SM SCT015=
201401192320 TAF KSEA 192320Z 2000/2106 03004KT 1/2SM FG VV002
                      TEMPO 2000/2002 1SM BR OVC004 FM200500 03004KT
                       1/4SM FG VV001 FM201800 05006KT 3SM BR BKN004
                       FM201900 05006KT 6SM BR BKN011 FM202000
                       05006KT P6SM SCT015=
201401192213 TAF AMD KSEA 192213Z 1922/2024 03004KT 1/2SM FG VV002
                      TEMPO 1923/2002 1SM BR OVC004 FM200500 03004KT
                       1/4SM FG VV001 FM201800 05006KT 3SM BR BKN004
                       FM201900 05006KT 6SM BR BKN011 FM202000
                       05006KT P6SM SCT015=
201401192102 TAF AMD KSEA 192102Z 1921/2024 02005KT 1/2SM FG OVC002 FM192200
                       36003KT 1SM BR OVC004 FM192300 35003KT 3SM
                       BR BKN008 FM200500 03004KT 4SM BR OVC006
                       FM200800 03004KT 1/2SM FG VV002 FM201800
                       05006KT 3SM BR BKN004 FM201900 05006KT 6SM
                       BR BKN011 FM202100 05006KT P6SM SCT015=
201401191732 TAF KSEA 191732Z 1918/2024 04006KT 1/4SM FG VV001 FM192000 04004KT
                       1/2SM FG OVC001 FM192200 35003KT 4SM BR
                       OVC004 FM192300 35003KT P6SM BKN008 FM200500
                       03004KT 6SM BR OVC006 FM200800 03004KT 1/2SM
                       FG VV002 FM201800 05006KT 3SM BR BKN004
                       FM201900 05006KT 6SM BR BKN011 FM202100
                       05006KT P6SM SCT015=
201401191646 TAF AMD KSEA 191646Z 1917/2018 04006KT 1/4SM FG VV001 FM191900
                       04004KT 1/2SM FG OVC001 FM192200 35003KT
                       4SM BR OVC004 FM192300 35003KT P6SM BKN008
                       FM200500 03004KT 6SM BR OVC006=
201401191400 KSEA 191400Z 1914/2018 00000KT 1/2SM FG VV002 FM191800 04003KT
                       1/2SM FG OVC001 FM192000 35003KT 4SM BR
                       OVC004 FM192300 35003KT P6SM BKN008 FM200500
                       03004KT 6SM BR OVC006=
201401191120 TAF KSEA 191120Z 1912/2018 04004KT 1/4SM FG VV001 FM191800 04003KT
                       1/2SM FG OVC001 FM192000 35003KT 4SM BR
                       OVC004 FM192300 35003KT P6SM BKN008 FM200500
                       03004KT 6SM BR OVC006=
201401190830 KSEA 190830Z 1909/2012 04004KT 1/4SM FG VV001 FM192000 35003KT
                       4SM BR OVC004 FM192200 35003KT P6SM BKN008
                       FM200300 03004KT P6SM SCT015 SCT250=
201401190814 TAF AMD KSEA 190814Z 1908/2012 03003KT 2SM BR BKN001 FM190900 03004KT
                       1/2SM FG OVC001 FM191100 03003KT 1/4SM FG
                       VV001 FM192000 35003KT 4SM BR OVC004 FM192200
                       35003KT P6SM BKN008 FM200300 03004KT P6SM
                       SCT015 SCT250=
201401190526 TAF KSEA 190526Z 1906/2012 07005KT P6SM SCT070 BKN200 FM190900
                       03003KT 4SM BR SCT005 BKN200 FM191200 03003KT
                       1/2SM FG OVC002 FM191900 35003KT 4SM BR
                       OVC005 FM192200 35003KT P6SM BKN008 FM200300
                       03004KT P6SM SCT015 SCT250=
201401190201 TAF AMD KSEA 190201Z 1902/2006 07006KT P6SM FEW020 BKN070 BKN180
                       TEMPO 1905/1909 4SM BR BKN020 OVC070 FM190900
                       03003KT 4SM BR SCT006 BKN012 FM191200 03003KT
                       3SM BR BKN006
                      TEMPO 1912/1916 1/2SM FG BKN002 FM191900
                       35005KT P6SM SCT015 SCT250 FM200300 03004KT
                       P6SM SCT015 SCT250=
201401182327 TAF KSEA 182327Z 1900/2006 31005KT P6SM SCT015 SCT150
                      TEMPO 1900/1902 OVC015 FM190200 02004KT P6SM
                       BKN012 FM190900 03003KT 4SM BR SCT006 BKN012
                       FM191200 03003KT 3SM BR BKN006
                      TEMPO 1912/1916 1/2SM FG BKN002 FM191900
                       35005KT P6SM SCT015 SCT250 FM200300 03004KT
                       P6SM SCT015 SCT250=
201401182103 TAF AMD KSEA 182103Z 1821/1924 26006KT P6SM SCT012 BKN150 FM182200
                       28005KT P6SM SCT012 SCT150 FM190200 02004KT
                       P6SM SCT012 SCT060 FM190900 03003KT 4SM
                       BR BKN012 FM191200 03003KT 3SM BR BKN008
                       TEMPO 1912/1916 1/2SM FG BKN002 FM191900
                       35005KT P6SM SCT010 SCT250=
201401181858 TAF AMD KSEA 181858Z 1819/1924 14008KT P6SM SCT006 BKN150
                      TEMPO 1819/1821 4SM BR BKN006 FM182100 18006KT
                       P6SM SCT012 BKN150 FM182200 29005KT P6SM
                       SCT012 SCT150 FM190200 02004KT P6SM SCT010
                       BKN045 FM190900 03003KT 4SM BR BKN012 BKN045
                       FM191200 03003KT 3SM BR BKN008
                      TEMPO 1912/1916 1/2SM FG BKN002 FM191900
                       35005KT P6SM SCT010 SCT250=
201401181720 TAF KSEA 181720Z 1818/1924 00000KT 2SM BR BKN001 BKN150
                      TEMPO 1818/1820 1/2SM FG VV001 FM182100 20006KT
                       3SM BR BKN006 FM182200 29005KT P6SM BKN008
                       FM190200 02004KT P6SM SCT010 BKN045 FM190900
                       03003KT 4SM BR BKN012 BKN045 FM191200 03003KT
                       3SM BR BKN008
                      TEMPO 1912/1916 1/2SM FG BKN002 FM191900
                       35005KT P6SM SCT010 SCT250=
201401181456 TAF AMD KSEA 181456Z 1815/1918 00000KT 2SM BCFG FEW001 BKN150
                      TEMPO 1815/1818 1/4SM FG VV002 FM182000 20006KT
                       3SM BR BKN005 FM182200 29005KT P6SM BKN008
                       FM190200 VRB03KT 3SM BR BKN005 BKN050 FM190700
                       03003KT 1/2SM FG OVC002=
201401181400 TAF AMD KSEA 181400Z 1814/1918 13005KT 1/4SM FG VV002 FM182000
                       20006KT 3SM BR BKN005 FM182200 29005KT P6SM
                       BKN008 FM190200 VRB03KT 3SM BR BKN005 BKN050
                       FM190700 03003KT 1/2SM FG OVC002=
201401181132 TAF KSEA 181132Z 1812/1918 13005KT 1/4SM FG VV002 FM182000 20006KT
                       3SM BR BKN005 FM182200 29005KT P6SM BKN008
                       FM190200 VRB03KT 3SM BR BKN005 BKN050 FM190700
                       03003KT 1/2SM FG OVC002=
201401180903 KSEA 180903Z 1809/1912 13005KT 1/4SM FG VV002 FM182000 20006KT
                       3SM BR BKN005 FM182200 29005KT P6SM BKN008
                       FM190500 03003KT 1/2SM FG OVC002=
201401180533 TAF KSEA 180533Z 1806/1912 15005KT 1/4SM FG VV001 FM182000 20006KT
                       3SM BR BKN005 FM182200 29005KT P6SM SCT250=
201401180302 TAF AMD KSEA 180302Z 1803/1906 02005KT 1/2SM FG OVC001
                      TEMPO 1803/1805 3SM BR FM181000 17004KT 1/4SM
                       FG VV001 FM182100 29005KT 4SM BR OVC009=
201401180201 KSEA 180201Z 1802/1906 03005KT 1/2SM FG OVC003
                      TEMPO 1802/1805 3SM BR FM181000 17004KT 1/4SM
                       FG VV002 FM182100 29005KT 4SM BR OVC009=
201401172320 TAF KSEA 172320Z 1800/1906 35006KT 2SM BR OVC004 FM180400 VRB03KT
                       1/2SM FG OVC002 FM181000 17004KT 1/4SM FG
                       VV002 FM182100 29005KT 4SM BR OVC009=
201401172021 KSEA 172021Z 1720/1824 01007KT 1/2SM FG VV002 FM172200 35005KT
                       1SM BR OVC002 FM172300 35005KT 2SM BR OVC004
                       FM180900 13004KT 1/4SM FG VV001 FM181200
                       17004KT 1/2SM FG VV002 FM182200 30005KT
                       3SM BR OVC006=
201401171720 TAF KSEA 171720Z 1718/1824 03007KT 1/4SM FG VV001 FM172200 02004KT
                       1SM BR OVC002 FM180000 02004KT 2SM BR OVC004
                       FM180900 13004KT 1/4SM FG VV001 FM181200
                       17004KT 1/2SM FG VV002 FM182200 30005KT
                       3SM BR OVC006=
201401171615 TAF AMD KSEA 171615Z 1716/1818 03007KT 1/4SM FG VV001 FM172200
                       02004KT 1SM BR OVC002 FM180000 02004KT 2SM
                       BR OVC004 FM181000 VRB03KT 1/4SM FG VV001=
201401171400 TAF AMD KSEA 171400Z 1714/1818 03007KT 1/4SM FG VV001 FM172200
                       02004KT 1SM BR OVC002 FM180000 02004KT 2SM
                       BR OVC003 FM181000 VRB03KT 1/4SM FG VV001=
201401171140 TAF KSEA 171140Z 1712/1818 02004KT 1/4SM FG VV001 FM172200 02004KT
                       1SM BR OVC002 FM180000 02004KT 2SM BR OVC003
                       FM181000 VRB03KT 1/4SM FG VV001=
201401170910 TAF AMD KSEA 170910Z 1709/1812 02004KT 1/4SM FG VV001 FM172200
                       02004KT 1SM BR OVC002 FM180000 02004KT 2SM
                       BR OVC003 FM181000 VRB03KT 1/4SM FG VV001=
201401170534 TAF KSEA 170534Z 1706/1812 02004KT 3/4SM BR OVC002 FM170800 02004KT
                       1/4SM FG VV001 FM172200 02004KT 1SM BR OVC002
                       FM180000 02004KT 2SM BR OVC003 FM181000
                       VRB03KT 1/4SM FG VV001=
201401170307 KSEA 170307Z 1703/1806 01004KT 3SM BR OVC002
                      TEMPO 1705/1707 3/4SM BR FM170700 01004KT
                       1/4SM FG VV001 FM172200 02004KT 2SM BR OVC004
                       FM180000 02004KT 6SM HZ VCFG BKN007 BKN250=
201401162345 TAF KSEA 162345Z 1700/1806 01004KT 2SM BR OVC004
                      TEMPO 1700/1704 3/4SM BR FM170400 05004KT
                       3/4SM BR OVC002 FM170600 05004KT 1/4SM FG
                       VV001 FM172200 02004KT 2SM BR OVC004 FM180000
                       02004KT 6SM HZ VCFG BKN007 BKN250=
201401162202 TAF AMD KSEA 162202Z 1622/1724 02005KT 1SM BR OVC003
                      TEMPO 1622/1624 1/2SM FG VV001 FM170000 02005KT
                       5SM BR HZ OVC005 FM170100 36005KT 6SM HZ
                       VCFG BKN007 FM170500 05005KT 2SM BR BKN004
                       FM170700 05005KT 1/4SM FG VV001 FM172000
                       05005KT 2SM BR OVC004 FM172200 01005KT 6SM
                       HZ VCFG SCT007 SCT250=
201401162102 TAF AMD KSEA 162102Z 1621/1724 02005KT 1SM BR OVC003
                      TEMPO 1621/1622 1/2SM FG VV001 FM162200 02005KT
                       4SM BR HZ OVC005 FM170000 36005KT 6SM HZ
                       VCFG BKN007 FM170500 05005KT 2SM BR BKN004
                       FM170700 05005KT 1/4SM FG VV001 FM172000
                       05005KT 2SM BR OVC004 FM172200 01005KT 6SM
                       HZ VCFG SCT007 SCT250=
201401161746 TAF KSEA 161746Z 1618/1724 02005KT 1/4SM FG VV001 FM162000 36005KT
                       1SM BR OVC003 FM162200 36005KT 5SM BR HZ
                       BKN005 FM162300 36005KT 6SM HZ VCFG SCT007
                       FM170500 05005KT 2SM BR BKN004 FM170700
                       05005KT 1/4SM FG VV001 FM172000 05005KT
                       2SM BR OVC004 FM172200 01005KT 6SM HZ VCFG
                       SCT007 SCT250=
201401161358 KSEA 161358Z 1614/1718 02008KT 1/4SM FG VV001 FM162000 02005KT
                       1SM BR OVC002 FM162200 02005KT 4SM BR BKN004
                       FM162300 02005KT 6SM HZ SCT004 FM170500
                       02005KT 2SM BR BKN004 FM170700 02005KT 1/2SM
                       FG VV002=
201401161139 TAF KSEA 161139Z 1612/1718 02005KT 1/4SM FG VV001 FM162000 02005KT
                       1SM BR OVC002 FM162200 02005KT 4SM BR BKN004
                       FM162300 02005KT 6SM HZ SCT004 FM170500
                       02005KT 2SM BR BKN004 FM170700 02005KT 1/2SM
                       FG VV002=
201401160910 TAF AMD KSEA 160910Z 1609/1712 02005KT 1/4SM FG VV001 FM162000
                       02005KT 1SM BR OVC002 FM162200 02005KT 6SM
                       HZ VCFG SCT004 FM170500 02005KT 2SM BR BKN004
                       FM170700 02005KT 1/2SM FG VV002=
201401160541 TAF KSEA 160541Z 1606/1712 02005KT P6SM SCT002
                      TEMPO 1607/1608 3SM BR BKN002 FM160800 02005KT
                       1/4SM FG VV001 FM162000 02005KT 1SM BR OVC002
                       FM162200 02005KT 6SM HZ VCFG SCT004 FM170500
                       02005KT 2SM BR BKN004 FM170700 02005KT 1/2SM
                       FG VV002=
201401160310 TAF AMD KSEA 160310Z 1603/1706 01005KT P6SM SCT200 FM161000 VRB03KT
                       1/4SM FG VV001 FM162000 02005KT 2SM BR OVC004
                       FM162200 02005KT 6SM HZ VCFG SCT007 FM170400
                       05005KT 2SM BR BKN004=
201401152329 TAF KSEA 152329Z 1600/1706 01005KT P6SM BKN200 FM160500 04005KT
                       4SM BR BKN005 FM161000 VRB03KT 1/4SM FG
                       VV001 FM162000 02005KT 2SM BR OVC004 FM162200
                       02005KT 6SM HZ VCFG SCT007 FM170400 05005KT
                       2SM BR BKN004=
201401152107 TAF AMD KSEA 152107Z 1521/1624 VRB03KT P6SM BKN200 FM160500 VRB03KT
                       4SM BR BKN005 FM161000 VRB03KT 1/4SM FG
                       VV001 FM162000 VRB03KT 2SM BR OVC005 FM162200
                       VRB03KT 6SM HZ BKN008=
201401151841 TAF AMD KSEA 151841Z 1519/1624 VRB03KT P6SM VCFG FEW007 BKN200
                       FM152000 VRB03KT P6SM BKN200 FM160500 VRB03KT
                       4SM BR BKN005 FM161000 VRB03KT 1/4SM FG
                       VV001 FM162000 VRB03KT 2SM BR OVC005 FM162200
                       VRB03KT 6SM HZ BKN008=
201401151745 TAF KSEA 151745Z 1518/1624 VRB03KT P6SM VCFG OVC006
                      TEMPO 1518/1520 2SM BR OVC004 FM152000 VRB03KT
                       P6SM VCFG BKN009 BKN200 FM152100 VRB03KT
                       P6SM FEW012 BKN200 FM160500 VRB03KT 4SM
                       BR BKN005 FM161000 VRB03KT 1/4SM FG VV001
                       FM162000 VRB03KT 2SM BR OVC005 FM162200
                       VRB03KT 6SM HZ BKN008=
201401151531 TAF AMD KSEA 151531Z 1516/1618 VRB03KT P6SM BKN007 OVC015
                      TEMPO 1516/1518 1SM BR OVC004 FM152000 00000KT
                       P6SM SCT004 BKN012 FM152200 00000KT P6SM
                       SCT015 SCT200 FM160900 00000KT 1/4SM FG
                       VV001=
201401151403 KSEA 151403Z 1514/1618 00000KT P6SM SCT003 OVC009
                      TEMPO 1514/1516 BKN003 FM152000 00000KT P6SM
                       SCT004 BKN012 FM152200 00000KT P6SM SCT015
                       SCT200 FM160900 00000KT 1/4SM FG VV001=
201401151139 TAF KSEA 151139Z 1512/1618 00000KT 2SM BR OVC002
                      TEMPO 1513/1517 1/2SM FG FM151700 00000KT
                       3SM BR BKN004 OVC008 FM152000 00000KT P6SM
                       SCT004 BKN008 FM152200 00000KT P6SM SCT008
                       SCT200 FM160900 00000KT 1/4SM FG VV001=
201401150908 TAF AMD KSEA 150908Z 1509/1612 00000KT 4SM BR BKN004 OVC008 FM152000
                       00000KT P6SM SCT004 BKN008 FM152200 01005KT
                       P6SM SCT008 SCT200 FM161100 03004KT 1/4SM
                       FG VV001=
201401150538 TAF KSEA 150538Z 1506/1612 00000KT P6SM SCT012 OVC030 FM151100
                       00000KT 4SM BR BKN004 OVC008 FM152000 00000KT
                       P6SM SCT004 BKN008 FM152200 01005KT P6SM
                       SCT008 SCT200 FM161100 03004KT 1/4SM FG
                       VV001=
201401150410 TAF AMD KSEA 150410Z 1504/1606 VRB03KT P6SM BKN025 BKN200 FM150900
                       00000KT P6SM SCT025 BKN200 FM151300 00000KT
                       1/2SM FG VV001 FM152000 VRB03KT 4SM BR HZ
                       OVC004 FM152200 01005KT 6SM HZ SCT008 SCT200=
201401150013 TAF AMD KSEA 150013Z 1500/1606 VRB03KT P6SM SCT022 OVC150
                      TEMPO 1500/1504 BKN022 OVC150 FM150400 VRB03KT
                       P6SM BKN012 OVC150 FM150900 00000KT 2SM
                       BR OVC005 FM151300 00000KT 1/2SM FG VV001
                       FM152000 VRB03KT 4SM BR HZ OVC004 FM152200
                       01005KT 6SM HZ SCT008 SCT200=
201401142342 TAF KSEA 142342Z 1500/1606 VRB03KT P6SM BKN020 OVC150 FM150400
                       VRB03KT P6SM OVC010 FM150900 00000KT 2SM
                       BR OVC005 FM151300 00000KT 1/2SM FG VV001
                       FM152000 VRB03KT 4SM BR HZ OVC004 FM152200
                       01005KT 6SM HZ SCT008 SCT200=
201401142129 TAF AMD KSEA 142129Z 1421/1524 VRB03KT P6SM SCT009 OVC015 FM150000
                       VRB03KT P6SM SCT020 SCT070 BKN150 FM150300
                       VRB03KT P6SM SCT200 FM150900 00000KT 2SM
                       BR BKN005 FM151300 00000KT 1/2SM FG VV001
                       FM152000 VRB03KT 4SM BR HZ OVC004 FM152200
                       01004KT 6SM HZ SCT008 SCT200=
201401141925 KSEA 141925Z 1419/1524 VRB03KT P6SM SCT009 BKN020 OVC150
                      TEMPO 1419/1422 BKN009 BKN020 OVC150 FM150000
                       VRB03KT P6SM SCT030 SCT070 BKN150 FM150300
                       VRB03KT P6SM SCT200 FM150900 00000KT 2SM
                       BR BKN005 FM151300 00000KT 1/2SM FG VV001
                       FM152000 VRB03KT 4SM BR HZ OVC004 FM152200
                       01004KT 6SM HZ SCT008 SCT200=
201401141747 TAF KSEA 141747Z 1418/1524 VRB03KT P6SM FEW008 SCT020 OVC150
                      TEMPO 1418/1422 FEW008 BKN020 OVC150 FM150000
                       VRB03KT P6SM SCT030 SCT070 BKN150 FM150300
                       VRB03KT P6SM SCT200 FM150900 00000KT 2SM
                       BR BKN005 FM151300 00000KT 1/2SM FG VV001
                       FM152000 VRB03KT 4SM BR HZ OVC004 FM152200
                       01004KT 6SM HZ SCT008 SCT200=
201401141509 KSEA 141509Z 1415/1518 VRB03KT P6SM FEW008 OVC025 FM142100 VRB03KT
                       P6SM SCT025 FM150900 VRB03KT 1SM BR BKN002
                       FM151300 VRB03KT 1/2SM FG VV001=
201401141401 KSEA 141401Z 1414/1518 19006KT P6SM OVC021 FM142100 VRB03KT P6SM
                       SCT025 FM150900 VRB03KT 1SM BR BKN002 FM151300
                       VRB03KT 1/2SM FG VV001=
201401141138 TAF KSEA 141138Z 1412/1518 19006KT P6SM OVC021 FM142100 VRB03KT
                       P6SM SCT025 FM150900 VRB03KT 1SM BR BKN002
                       FM151300 VRB03KT 1/2SM FG VV001=
201401140905 TAF AMD KSEA 140905Z 1409/1512 19008KT P6SM BKN011 OVC020 FM142000
                       VRB03KT P6SM BKN020 FM142100 VRB03KT P6SM
                       FEW020 FM150900 VRB03KT 1SM BR BKN002=
201401140538 TAF KSEA 140538Z 1406/1512 19008KT P6SM OVC009 FM141200 VRB03KT
                       P6SM OVC005 FM142000 VRB03KT P6SM BKN012
                       FM142100 VRB03KT P6SM FEW015 FM150900 VRB03KT
                       1SM BR BKN002=
201401140419 TAF AMD KSEA 140419Z 1404/1506 20011KT P6SM OVC011 FM140600 19006KT
                       P6SM OVC009 FM141200 VRB03KT 2SM BR OVC005
                       FM142000 VRB03KT P6SM BKN009 FM142200 VRB03KT
                       P6SM FEW015 FM150300 VRB03KT P6SM VCFG FEW007=
201401132345 TAF KSEA 132345Z 1400/1506 20011KT P6SM VCSH BKN015 BKN030 OVC060
                       FM140600 19006KT P6SM OVC009 FM141200 VRB03KT
                       2SM BR OVC005 FM142000 VRB03KT P6SM BKN009
                       FM142200 VRB03KT P6SM FEW015 FM150300 VRB03KT
                       P6SM VCFG FEW007=
201401132214 TAF AMD KSEA 132214Z 1322/1424 21011KT P6SM SCT008 OVC012
                      TEMPO 1322/1324 BKN008 OVC012 FM140000 21011KT
                       P6SM OVC015 FM140600 19007KT P6SM OVC015
                       FM141200 VRB03KT P6SM SCT006 OVC012 FM142000
                       VRB03KT P6SM BKN018 FM142200 VRB03KT P6SM
                       SCT020=
201401132032 TAF AMD KSEA 132032Z 1321/1424 21013G20KT P6SM SCT008 OVC012
                      TEMPO 1321/1324 BKN008 OVC012 FM140000 21012KT
                       P6SM OVC015 FM140600 19007KT P6SM OVC015
                       FM141200 VRB03KT P6SM SCT006 OVC012 FM142000
                       VRB03KT P6SM BKN018 FM142200 VRB03KT P6SM
                       SCT020=
201401131738 TAF KSEA 131738Z 1318/1424 21018KT P6SM OVC015
                      TEMPO 1318/1322 21018G28KT FM140000 21012KT
                       P6SM OVC020 FM140600 19007KT P6SM OVC015
                       FM141200 VRB03KT P6SM SCT006 OVC012 FM142000
                       VRB03KT P6SM BKN018 FM142200 VRB03KT P6SM
                       SCT020=
201401131400 TAF AMD KSEA 131400Z 1314/1418 20020G30KT P6SM OVC012 FM131900
                       20013G20KT P6SM OVC025 FM140400 19010KT
                       P6SM OVC022 FM140900 16006KT P6SM OVC015
                       FM141200 VRB04KT P6SM OVC015=
201401131127 TAF KSEA 131127Z 1312/1418 20012G25KT P6SM OVC012 FM131900 20013G20KT
                       P6SM OVC025 FM140400 19010KT P6SM OVC022
                       FM140900 16006KT P6SM OVC015 FM141200 VRB04KT
                       P6SM OVC015=
201401130906 TAF AMD KSEA 130906Z 1309/1412 21020G30KT P6SM BKN012 OVC035 FM131200
                       20015G25KT P6SM BKN012 OVC025 FM131900 20013G20KT
                       P6SM OVC025 FM140400 19010KT P6SM OVC025
                       FM140900 16006KT P6SM OVC015=
201401130525 TAF KSEA 130525Z 1306/1412 21015G25KT P6SM BKN012 OVC035 FM131200
                       20014G22KT P6SM BKN012 OVC025 FM131900 20013G20KT
                       P6SM OVC025 FM140400 19010KT P6SM OVC025
                       FM140900 16006KT P6SM OVC015=
201401130305 TAF AMD KSEA 130305Z 1303/1406 21018G28KT P6SM BKN012 OVC035 FM131200
                       20014G22KT P6SM BKN012 OVC025=
201401122320 TAF KSEA 122320Z 1300/1406 21018G30KT P6SM BKN010 OVC020 FM131200
                       20014G22KT P6SM BKN013 OVC025=
201401122100 TAF AMD KSEA 122100Z 1221/1324 20020G30KT P6SM OVC010 FM131200
                       20014KT P6SM BKN023 OVC035=
201401121720 TAF KSEA 121720Z 1218/1324 17014G22KT P6SM -RA SCT012 OVC035
                      TEMPO 1218/1220 4SM -RA BR BKN012 FM122000
                       20016G28KT P6SM -SHRA BKN018 OVC035 FM131200
                       20014KT P6SM BKN023 OVC035=
201401121408 TAF AMD KSEA 121408Z 1214/1318 22015G25KT P6SM -RA BKN025 OVC070
                       FM130000 20016G28KT P6SM -SHRA BKN018 OVC035
                       FM130600 20012G20KT P6SM VCSH OVC022 FM131200
                       20010KT P6SM VCSH BKN028 OVC035=
201401121127 TAF KSEA 121127Z 1212/1318 22010G18KT P6SM SCT025 OVC080 FM121300
                       18012G20KT P6SM -RA SCT025 OVC050 FM121800
                       18014G24KT P6SM -RA OVC025 FM130000 20016G28KT
                       P6SM -SHRA BKN018 OVC035 FM130600 20012G20KT
                       P6SM VCSH OVC022 FM131200 20010KT P6SM VCSH
                       BKN028 OVC035=
201401120908 TAF AMD KSEA 120908Z 1209/1312 24010G18KT P6SM SCT025 OVC120 FM121200
                       22010KT P6SM SCT025 OVC080 FM121400 18012KT
                       P6SM -RA SCT025 OVC050 FM121700 18014G24KT
                       P6SM -RA OVC022 FM130000 19016G28KT P6SM
                       VCSH BKN018 OVC035=
201401120520 TAF KSEA 120520Z 1206/1312 22015G25KT P6SM VCSH SCT018 OVC025
                      TEMPO 1206/1209 OVC018 FM120900 20013G20KT
                       P6SM SCT018 OVC025 FM121400 18012KT P6SM
                       -RA BKN025 OVC060 FM121800 18014G24KT P6SM
                       -RA OVC022 FM130000 19016G28KT P6SM VCSH
                       BKN018 OVC035=
201401120407 TAF AMD KSEA 120407Z 1204/1306 20015G25KT P6SM VCSH SCT018 OVC025
                       TEMPO 1204/1207 -SHRA OVC018 FM120700 20014G22KT
                       P6SM FEW018 BKN035 BKN120 FM121300 20012KT
                       P6SM -RA BKN025 OVC060 FM121800 20016G24KT
                       P6SM -RA BKN015 OVC025=
201401112320 TAF KSEA 112320Z 1200/1306 20022G35KT P6SM -SHRA SCT018 BKN040
                       OVC060
                      TEMPO 1200/1203 4SM SHRA BKN018 OVC028 FM120800
                       20018G28KT P6SM FEW025 BKN060 BKN120 FM121300
                       20012KT P6SM -RA BKN025 OVC060 FM121800
                       20016G24KT P6SM -RA BKN015 OVC025=
201401112101 TAF AMD KSEA 112101Z 1121/1224 19020G35KT P6SM -SHRA SCT018 BKN040
                       BKN060
                      TEMPO 1121/1201 4SM SHRA BKN018 OVC040 FM120800
                       20018G28KT P6SM FEW025 BKN060 BKN120 FM121300
                       20012KT P6SM -RA BKN025 OVC060=
201401111729 TAF KSEA 111729Z 1118/1224 20020G32KT P6SM -SHRA SCT020 BKN060
                       BKN120
                      TEMPO 1118/1122 4SM SHRA BKN020 OVC060 FM120800
                       20018G28KT P6SM FEW025 BKN060 BKN120 FM121300
                       20012KT P6SM -RA BKN025 OVC060=
201401111401 TAF AMD KSEA 111401Z 1114/1218 20018G32KT P6SM -SHRA BKN020 OVC030
                       FM111900 20025G40KT P6SM -SHRA OVC017 FM120900
                       20018G28KT P6SM -SHRA OVC022 FM121400 20014G22KT
                       P6SM -SHRA OVC025=
201401111132 TAF KSEA 111132Z 1112/1218 20018G32KT P6SM -RA OVC030 FM111900
                       20025G40KT P6SM -SHRA OVC017 FM120900 20018G28KT
                       P6SM -SHRA OVC022 FM121400 20014G22KT P6SM
                       -SHRA OVC025=
201401111021 TAF AMD KSEA 111021Z 1110/1212 19025G35KT P6SM -RA SCT020 OVC035
                       TEMPO 1112/1114 4SM RA BR OVC018 FM111400
                       20018G32KT P6SM -RA OVC025 FM112000 20024G38KT
                       P6SM -SHRA OVC017 FM120900 20018G28KT P6SM
                       -SHRA OVC022=
201401110729 TAF AMD KSEA 110729Z 1107/1212 18010G20KT 6SM -RA BR BKN022 OVC035
                       FM110900 20022G32KT 3SM RA BR OVC016 FM111300
                       20018G32KT P6SM -RA OVC025 FM112000 20024G38KT
                       P6SM -SHRA OVC017 FM120900 20018G28KT P6SM
                       -SHRA OVC022=
201401110545 TAF KSEA 110545Z 1106/1212 19012G18KT P6SM -RA SCT016 OVC035 FM110700
                       19018G30KT 5SM -RA BR OVC016 FM110900 20023G38KT
                       3SM RA BR OVC016 FM111300 20018G32KT P6SM
                       -RA OVC025 FM112000 20024G38KT P6SM -SHRA
                       OVC017 FM120900 20018G28KT P6SM -SHRA OVC022=
201401110305 TAF AMD KSEA 110305Z 1103/1206 19012G18KT P6SM -RA SCT017 OVC035
                       TEMPO 1104/1107 2SM RA BR OVC017 FM110700
                       19018G30KT 5SM -RA BR OVC015 FM110900 20025G40KT
                       5SM -RA BR OVC015 FM111400 20018G32KT P6SM
                       -RA OVC025 FM111900 20024G38KT P6SM -SHRA
                       OVC017=
201401102327 TAF KSEA 102327Z 1100/1206 19012G18KT P6SM -RA BKN019 BKN045 OVC060
                       TEMPO 1102/1106 2SM RA BR OVC012 FM110600
                       19018G30KT 5SM -RA BR OVC015 FM110900 20025G40KT
                       5SM -RA BR OVC015 FM111400 20018G32KT P6SM
                       -RA OVC025 FM111900 20024G38KT P6SM -SHRA
                       OVC017=
201401102101 KSEA 102101Z 1021/1124 19012KT P6SM BKN014 BKN020 OVC100 FM102300
                       17012KT 3SM RA BR OVC012
                      TEMPO 1100/1104 2SM +RA BR OVC012 FM110600
                       19018G30KT 5SM -RA BR OVC015 FM110800 20025G40KT
                       5SM -RA BR OVC015 FM111400 20018G32KT P6SM
                       -RA OVC025 FM111900 20024G38KT P6SM -SHRA
                       BKN035 BKN060=
201401101728 TAF KSEA 101728Z 1018/1124 19014G22KT P6SM -RA BKN011 OVC019 FM102200
                       17012KT 3SM RA BR OVC012
                      TEMPO 1100/1104 2SM +RA BR OVC012 FM110600
                       19018G30KT 5SM -RA BR OVC015 FM110800 20025G40KT
                       5SM -RA BR OVC015 FM111400 20018G32KT P6SM
                       -RA OVC025 FM111900 20024G38KT P6SM -SHRA
                       BKN035 BKN060=
201401101405 TAF AMD KSEA 101405Z 1014/1118 20015G22KT P6SM VCSH BKN014 OVC019
                       FM101800 17010KT 4SM -RA BR OVC015 FM102100
                       17012KT 3SM RA BR OVC012
                      TEMPO 1100/1104 2SM +RA BR OVC012 FM110600
                       19018G30KT 5SM -RA BR OVC015 FM110800 20025G40KT
                       5SM -RA BR OVC015 FM111400 20018G32KT P6SM
                       -RA OVC025=
201401101144 TAF KSEA 101144Z 1012/1118 20020G30KT P6SM VCSH OVC018 FM101600
                       19012G20KT P6SM VCSH OVC018 FM101800 17010KT
                       4SM -RA BR OVC015 FM102100 17012KT 3SM RA
                       BR OVC012
                      TEMPO 1100/1104 2SM +RA BR OVC012 FM110600
                       19018G30KT 5SM -RA BR OVC015 FM110800 20025G40KT
                       5SM -RA BR OVC015 FM111400 20018G32KT P6SM
                       -RA OVC025=
201401100557 TAF KSEA 100557Z 1006/1112 20018G30KT P6SM VCSH OVC015 FM101600
                       19012KT P6SM VCSH OVC015 FM102000 17010KT
                       4SM -RA BR OVC015 FM102200 17012KT 3SM RA
                       BR OVC012
                      TEMPO 1102/1106 2SM +RA BR OVC012 FM110600
                       19018G30KT 5SM -RA BR OVC015 FM110900 20025G35KT
                       5SM -RA BR OVC015=
201401100407 TAF AMD KSEA 100407Z 1004/1106 18016G26KT P6SM VCSH SCT009 BKN018
                       OVC030
                      TEMPO 1004/1006 OVC009 FM100600 20018G30KT
                       P6SM VCSH OVC011 FM101600 19008KT P6SM VCSH
                       OVC015 FM110000 17012KT 4SM -RA BR OVC015=
201401100248 TAF AMD KSEA 100248Z 1003/1106 18013G23KT 4SM -RA BKN012 OVC030
                       TEMPO 1003/1006 2SM -RA BR OVC009 FM100600
                       20018G30KT P6SM VCSH OVC011 FM101600 19008KT
                       P6SM VCSH OVC015 FM110000 17012KT 4SM -RA
                       BR OVC015=
201401092335 TAF KSEA 092335Z 1000/1106 18013G23KT 3SM -RA SCT012 BKN023 OVC030
                       TEMPO 1000/1004 BKN012 OVC020 FM100600 20018G30KT
                       P6SM VCSH SCT013 OVC025 FM101600 19008KT
                       P6SM VCSH OVC015 FM110000 17012KT 4SM -RA
                       BR OVC015=
201401091735 TAF KSEA 091735Z 0918/1024 18008KT 4SM -RA BKN019 BKN024 FM092000
                       18012KT P6SM -RA OVC015 FM100000 18013KT
                       P6SM -RA OVC012 FM100300 20015G25KT P6SM
                       -SHRA BKN018 OVC030=
201401091400 KSEA 091400Z 0914/1018 19006KT P6SM BKN016 FM092000 18012KT P6SM
                       -RA OVC015 FM100000 18013KT P6SM -RA OVC012
                       FM100300 20015G25KT P6SM -SHRA BKN018 OVC030=
201401091148 TAF KSEA 091148Z 0912/1018 21010KT P6SM VCSH SCT015 BKN025 FM092000
                       18012KT P6SM -RA OVC015 FM100000 18013KT
                       P6SM -RA OVC012 FM100300 20015G25KT P6SM
                       -SHRA BKN018 OVC030=
201401090901 TAF AMD KSEA 090901Z 0909/1012 20013KT P6SM VCSH SCT022 BKN045
                       TEMPO 0909/0912 BKN022 FM091200 20008KT
                       P6SM VCSH SCT015 BKN025 FM092000 18012KT
                       P6SM -RA OVC015 FM100000 18013KT P6SM -RA
                       OVC012 FM100600 20015G25KT P6SM -SHRA OVC012=
201401090545 TAF KSEA 090545Z 0906/1012 20015G25KT P6SM VCSH OVC015
                      TEMPO 0908/0912 5SM -SHRA BR OVC006 FM091200
                       20010KT P6SM VCSH SCT015 BKN025 FM092000
                       18012KT P6SM -RA OVC015 FM100000 18013KT
                       P6SM -RA OVC012 FM100600 20015G25KT P6SM
                       -SHRA OVC012=
201401090224 TAF AMD KSEA 090224Z 0902/1006 19014G24KT P6SM -SHRA SCT015 BKN028
                       OVC120 FM090600 20015G25KT 2SM -SHRA BKN005
                       OVC012 FM091200 20010KT P6SM VCSH SCT012
                       BKN025 FM092200 20010KT P6SM -RA OVC015=
201401082335 TAF KSEA 082335Z 0900/1006 16008KT 4SM -RA BR FEW008 BKN025 OVC035
                       TEMPO 0900/0902 3SM RA BR BKN008 OVC020
                       FM090200 19013G18KT 3SM -RA BR BKN007 OVC015
                       FM090600 20015G25KT 2SM -SHRA BKN005 OVC012
                       FM091200 20010KT P6SM VCSH SCT012 BKN025
                       FM092200 20010KT P6SM -RA OVC015=
201401082105 KSEA 082105Z 0821/0924 16006KT P6SM -RA FEW006 BKN040 OVC060 FM082200
                       17010KT 4SM -RA BR BKN007 OVC014 FM090000
                       19013G18KT 3SM -RA BR BKN007 OVC015 FM090300
                       20015G25KT 2SM -SHRA BKN005 OVC012 FM091200
                       20010KT P6SM VCSH SCT012 BKN025=
201401081720 TAF KSEA 081720Z 0818/0924 17005KT P6SM FEW004 OVC030 FM082000
                       17010KT 4SM -RA BR BKN007 OVC014 FM090000
                       19013G18KT 3SM -RA BR BKN007 OVC015 FM090300
                       20015G25KT 2SM -SHRA BKN005 OVC012 FM091200
                       20010KT P6SM VCSH SCT012 BKN025=
201401081429 TAF AMD KSEA 081429Z 0814/0918 19007KT 2SM -RA BR BKN004 OVC014
                       FM081600 17010KT 4SM -RA BR BKN007 OVC014
                       FM090000 19013G18KT 3SM -RA BR BKN007 OVC015
                       FM090300 20015G25KT 2SM -SHRA BKN005 OVC012=
201401081358 TAF AMD KSEA 081358Z 0814/0918 15005KT P6SM SCT005 BKN014 OVC022
                       TEMPO 0814/0816 4SM -RA BR FM081600 17010KT
                       5SM -RA BR SCT007 OVC015 FM090000 19013G18KT
                       3SM -RA BR BKN007 OVC015 FM090300 20015G25KT
                       2SM -SHRA BKN005 OVC012=
201401081135 TAF KSEA 081135Z 0812/0918 15005KT P6SM VCSH SCT010 OVC020
                      TEMPO 0812/0815 BKN006 OVC015 FM081500 17010KT
                       5SM -RA BR SCT007 OVC015 FM090000 19013G18KT
                       3SM -RA BR BKN007 OVC015 FM090300 20015G25KT
                       2SM -SHRA BKN005 OVC012=
201401080902 KSEA 080902Z 0809/0912 15005KT P6SM VCSH OVC020 FM081500 17010KT
                       P6SM -RA SCT007 OVC015 FM090000 19013KT
                       4SM -RA BR BKN011 OVC030=
201401080521 TAF KSEA 080521Z 0806/0912 15005KT 4SM BR SCT008 OVC020
                      TEMPO 0806/0810 3SM -RA BR BKN008 FM081800
                       17010KT 4SM -RA BR BKN007 OVC015 FM090000
                       19013KT 6SM -RA BR BKN011 OVC030=
201401080306 TAF AMD KSEA 080306Z 0803/0906 15005KT 4SM -RA BR SCT008 OVC020
                       TEMPO 0803/0806 3SM BR BKN008 FM081200 17006KT
                       4SM -RA BR SCT007 OVC015 FM081800 17010KT
                       4SM -RA BR BKN007 OVC015 FM090000 19013KT
                       6SM -RA BR BKN011 OVC030=
201401072346 TAF KSEA 072346Z 0800/0906 17009KT P6SM -RA SCT025 OVC050
                      TEMPO 0800/0804 4SM -RA BR BKN025 OVC050
                       FM080400 17006KT P6SM -RA OVC025 FM080600
                       17006KT P6SM -RA FEW009 OVC020 FM081200
                       17006KT 4SM -RA BR SCT007 OVC015 FM081800
                       17010KT 4SM -RA BR BKN007 OVC015 FM090000
                       19013KT 6SM -RA BR BKN011 OVC030=
201401072107 TAF AMD KSEA 072107Z 0721/0824 17005KT P6SM SCT006 SCT030 OVC050
                       TEMPO 0721/0724 2SM -RA BR BKN005 OVC011
                       FM080000 17005KT 4SM -RA BR SCT005 OVC011
                       FM080600 VRB03KT 6SM BR BKN011 OVC025
                      PROB30 0806/0812 4SM -RA BR FM081200 17006KT
                       5SM -RA BR SCT007 OVC015 FM081800 17010KT
                       4SM -RA BR BKN007 OVC015=
201401071918 TAF AMD KSEA 071918Z 0719/0824 VRB03KT 5SM BCFG SCT005 SCT030 OVC050
                       TEMPO 0719/0721 2SM -RA BR BKN002 OVC015
                       FM072200 15005KT 2SM -RA BR BKN005 OVC011
                       FM080000 17005KT 4SM -RA BR SCT005 OVC011
                       FM080600 VRB03KT 6SM BR BKN011 OVC025
                      PROB30 0806/0812 4SM -RA BR FM081200 17006KT
                       5SM -RA BR SCT007 OVC015 FM081800 17010KT
                       4SM -RA BR BKN007 OVC015=
201401071816 TAF AMD KSEA 071816Z 0718/0824 VRB03KT 1 1/2SM -RA BR SCT005 BKN030
                       OVC050
                      TEMPO 0718/0721 BKN002 OVC015 FM072200 15005KT
                       2SM -RA BR BKN005 OVC011 FM080000 17005KT
                       4SM -RA BR SCT005 OVC011 FM080600 VRB03KT
                       6SM BR BKN011 OVC025
                      PROB30 0806/0812 4SM -RA BR FM081200 17006KT
                       5SM -RA BR SCT007 OVC015 FM081800 17010KT
                       4SM -RA BR BKN007 OVC015=
201401071745 TAF KSEA 071745Z 0718/0824 VRB03KT 1 1/2SM -RA BR BKN005 OVC011
                       TEMPO 0718/0721 1/2SM -RA FG VV002 FM072200
                       15005KT 2SM -RA BR BKN005 OVC011 FM080000
                       17005KT 4SM -RA BR SCT005 OVC011 FM080600
                       VRB03KT 6SM BR BKN011 OVC025
                      PROB30 0806/0812 4SM -RA BR FM081200 17006KT
                       5SM -RA BR SCT007 OVC015 FM081800 17010KT
                       4SM -RA BR BKN007 OVC015=
201401071640 TAF AMD KSEA 071640Z 0717/0818 VRB03KT 2SM -RA BR SCT002 OVC012
                       TEMPO 0717/0719 3/4SM -RA BR BKN002 OVC012
                       FM072100 19008KT P6SM -SHRA OVC020=
201401071509 TAF AMD KSEA 071509Z 0715/0818 00000KT 3SM BR FEW002 OVC030
                      TEMPO 0715/0717 1 1/2SM -RA BR BKN002 OVC030
                       FM071700 16007KT 4SM -RA SCT008 BKN015 OVC025
                       FM072100 19008KT P6SM -SHRA OVC020=
201401071356 TAF AMD KSEA 071356Z 0714/0818 00000KT 5SM BR FEW005 SCT030 OVC040
                       TEMPO 0714/0716 2SM BR BKN005 OVC030 FM071600
                       16007KT 4SM -RA SCT008 BKN015 OVC025 FM072100
                       19008KT P6SM -SHRA OVC020=
201401071127 TAF KSEA 071127Z 0712/0818 18005KT 5SM -RA BKN030 OVC040
                      TEMPO 0712/0716 BKN025 FM071600 16007KT 4SM
                       -RA BKN015 OVC025 FM072100 19008KT P6SM
                       -SHRA OVC020=
201401070900 TAF AMD KSEA 070900Z 0709/0812 19005KT P6SM -RA SCT025 BKN035 OVC040
                       FM071200 14005KT P6SM -RA BKN025 OVC040
                       FM071800 16007KT P6SM -RA BKN015 OVC025
                       FM080000 19008KT P6SM -SHRA OVC020=
201401070700 TAF AMD KSEA 070700Z 0707/0812 19005KT P6SM -RA BKN035 OVC080 FM071200
                       14005KT P6SM -RA BKN025 OVC040 FM071800
                       16007KT P6SM -RA BKN015 OVC025 FM080000
                       19008KT P6SM -SHRA OVC020=
201401070527 TAF KSEA 070527Z 0706/0812 16008KT P6SM BKN060 OVC080 FM070900
                       14007KT P6SM BKN040 OVC080 FM071200 14005KT
                       P6SM -RA BKN025 OVC040 FM071800 16007KT
                       P6SM -RA BKN015 OVC025 FM080000 19008KT
                       P6SM -SHRA OVC020=
201401070301 TAF AMD KSEA 070301Z 0703/0806 16008KT P6SM BKN100 OVC200 FM070900
                       14007KT P6SM BKN040 OVC100 FM071200 14005KT
                       P6SM -RA BKN025 OVC040 FM071800 16007KT
                       P6SM -RA BKN015 OVC025=
201401062327 TAF KSEA 062327Z 0700/0806 17004KT P6SM OVC200 FM070900 14005KT
                       P6SM BKN040 OVC100 FM071200 14005KT P6SM
                       -RA BKN025 OVC040 FM071800 16007KT P6SM
                       -RA BKN015 OVC025=
201401062104 TAF AMD KSEA 062104Z 0621/0724 14004KT P6SM BKN180 OVC230 FM070000
                       18006KT P6SM BKN100 BKN200 FM070900 17006KT
                       P6SM BKN040 OVC100 FM071200 16008KT P6SM
                       -RA BKN025 OVC040=
201401061900 TAF AMD KSEA 061900Z 0619/0724 15003KT 4SM BR SCT001 BKN250
                      TEMPO 0619/0620 3/4SM BR BKN001 BKN250 FM062100
                       17005KT P6SM BKN250 FM070000 18006KT P6SM
                       BKN100 BKN200 FM070900 17006KT P6SM BKN040
                       OVC100 FM071200 16008KT P6SM -RA BKN025
                       OVC040=
201401061735 TAF KSEA 061735Z 0618/0724 14003KT P6SM BKN250 FM070000 18006KT
                       P6SM BKN100 BKN200 FM070900 17006KT P6SM
                       BKN040 OVC100 FM071200 16008KT P6SM -RA
                       BKN025 OVC040=
201401061405 TAF AMD KSEA 061405Z 0614/0718 11004KT P6SM SKC FM061700 12005KT
                       P6SM BKN200 FM070000 18006KT P6SM BKN100
                       BKN200 FM070900 17006KT P6SM BKN040 OVC100
                       FM071200 16008KT P6SM -RA BKN025 OVC040=
201401061122 TAF KSEA 061122Z 0612/0718 02011KT P6SM SCT200 FM061700 12005KT
                       P6SM BKN200 FM070000 18006KT P6SM BKN100
                       BKN200 FM070900 17006KT P6SM BKN040 OVC100
                       FM071200 16008KT P6SM -RA BKN025 OVC040=
201401060907 TAF AMD KSEA 060907Z 0609/0712 05008KT P6SM SCT200
                      TEMPO 0612/0616 2SM BR SCT001 FM061700 12007KT
                       P6SM BKN200 FM070200 15006KT P6SM SCT060
                       BKN100 BKN200 FM070900 17006KT P6SM BKN040
                       OVC100=
201401060528 TAF KSEA 060528Z 0606/0712 05008KT P6SM SKC
                      TEMPO 0612/0616 2SM BR SCT001 FM061700 12007KT
                       P6SM BKN200 FM070200 15006KT P6SM SCT060
                       BKN100 BKN200 FM070900 17006KT P6SM BKN040
                       OVC100=
201401060305 TAF AMD KSEA 060305Z 0603/0706 02008KT P6SM SCT200 FM060400 05008KT
                       P6SM SKC FM061100 07004KT P6SM SKC
                      TEMPO 0612/0616 3/4SM BCFG SCT001 FM061700
                       12007KT P6SM BKN200 FM070200 15006KT P6SM
                       BKN100 BKN200=
201401052320 TAF KSEA 052320Z 0600/0706 02008KT P6SM SCT200 FM060400 05008KT
                       P6SM SKC FM061100 07004KT P6SM SKC
                      TEMPO 0612/0616 3/4SM BCFG SCT001 FM061700
                       12007KT P6SM BKN200 FM070200 15006KT P6SM
                       BKN100 BKN200=
201401052101 KSEA 052101Z 0521/0624 02008KT P6SM SCT200 FM060600 08008KT P6SM
                       SKC=
201401051730 TAF AMD KSEA 051730Z 0518/0624 02006KT P6SM BCFG SCT001 FM051900
                       02008KT P6SM SKC FM060600 08008KT P6SM SKC=
201401051720 TAF KSEA 051720Z 0518/0624 02006KT P6SM BCFG SCT001
                      TEMPO 0518/0519 1/2SM FG BKN001 FM051900
                       02008KT P6SM SKC FM060600 08008KT P6SM SKC=
201401051517 TAF AMD KSEA 051517Z 0515/0618 03006KT 1/2SM FG OVC001
                      TEMPO 0515/0517 4SM BCFG SCT001 FM051700
                       04006KT P6SM BCFG SCT001
                      TEMPO 0517/0518 3/4SM BR BKN001 FM051900
                       03008KT P6SM SKC FM060600 08008KT P6SM SKC=
201401051357 TAF AMD KSEA 051357Z 0514/0618 03006KT P6SM FEW001
                      TEMPO 0514/0516 1/2SM FG BKN001 FM051600
                       03008KT P6SM SKC=
201401051121 TAF KSEA 051121Z 0512/0618 05004KT 1SM BR BKN003
                      TEMPO 0512/0516 1/4SM FG OVC001 FM051800
                       03008KT 4SM BR SCT005 FM052000 03008KT P6SM
                       SKC=
201401051040 TAF AMD KSEA 051040Z 0511/0612 05004KT 1SM BR BKN003
                      TEMPO 0511/0515 1/2SM FG OVC001 FM051800
                       03008KT P6SM SKC=
201401051016 TAF AMD KSEA 051016Z 0510/0612 01008KT P6SM SCT003
                      TEMPO 0510/0514 2SM BR BKN003 FM051800 03008KT
                       P6SM SKC=
201401050900 KSEA 050900Z 0509/0612 01008KT P6SM SKC FM051800 03008KT P6SM SKC=
201401050521 TAF KSEA 050521Z 0506/0612 05008KT P6SM SKC FM051800 03008KT P6SM
                       SKC=
201401050301 KSEA 050301Z 0503/0606 01006KT P6SM SKC FM050600 05005KT P6SM SKC=
201401042322 TAF KSEA 042322Z 0500/0606 01006KT P6SM SKC FM050600 05005KT P6SM
                       SKC=
201401042104 TAF AMD KSEA 042104Z 0421/0524 02006KT P6SM SCT200 FM050600 04005KT
                       P6SM SKC FM051700 08006KT P6SM SKC=
201401041743 TAF KSEA 041743Z 0418/0524 03006KT P6SM BCFG FEW001 SCT200 FM042000
                       03006KT P6SM SCT200 FM051700 08006KT P6SM
                       SKC=
201401041539 TAF AMD KSEA 041539Z 0416/0518 08005KT P6SM FEW001 FEW200 FM041800
                       03005KT P6SM FEW200=
201401041400 TAF AMD KSEA 041400Z 0414/0518 04005KT P6SM OVC035
                      TEMPO 0414/0416 SCT007 BKN020 FM042000 02005KT
                       P6SM SCT060=
201401041128 TAF KSEA 041128Z 0412/0518 02005KT P6SM SCT015 BKN030
                      TEMPO 0412/0416 SCT007 BKN020 FM042000 02005KT
                       P6SM SCT060=
201401040901 TAF AMD KSEA 040901Z 0409/0512 02005KT P6SM FEW015 SCT040 FM041000
                       05003KT P6SM VCFG SCT010
                      TEMPO 0412/0416 1/2SM FG BKN002 FM041600
                       03003KT P6SM SCT008 FM041900 02005KT P6SM
                       SKC=
201401040520 TAF KSEA 040520Z 0406/0512 02005KT P6SM SCT040 BKN060 FM040700
                       02005KT P6SM SKC FM041000 05003KT P6SM VCFG
                       SCT010
                      TEMPO 0412/0416 1/2SM FG BKN002 FM041600
                       03003KT P6SM SCT008 FM041900 02005KT P6SM
                       SKC=
201401040303 KSEA 040303Z 0403/0506 02005KT P6SM SCT030 SCT050 FM040600 03005KT
                       P6SM SKC FM041000 05003KT P6SM VCFG SCT010
                       TEMPO 0412/0416 5SM BR BKN008 FM041600 03003KT
                       P6SM SCT008 FM041800 02005KT P6SM SKC=
201401040003 TAF KSEA 040003Z 0400/0506 16005KT P6SM SCT025 BKN040 FM040400
                       02005KT P6SM SCT050 FM040600 03005KT P6SM
                       SKC FM041000 05003KT P6SM VCFG SCT010
                      TEMPO 0412/0416 5SM BR BKN008 FM041600 03003KT
                       P6SM SCT008 FM041800 02005KT P6SM SKC=
201401032109 TAF AMD KSEA 032109Z 0321/0424 17004KT P6SM FEW015 SCT022 FM040000
                       32005KT P6SM SCT030 FM040200 03005KT P6SM
                       SCT050 FM040600 03005KT P6SM SKC=
201401031742 TAF KSEA 031742Z 0318/0424 17003KT P6SM BKN020 BKN030 FM031900
                       20005KT P6SM BKN035 FM032100 36006KT P6SM
                       SCT035 FM040200 03005KT P6SM SCT050 FM040600
                       03005KT P6SM SKC=
201401031400 TAF AMD KSEA 031400Z 0314/0418 18008KT P6SM BKN035 FM031800 36006KT
                       P6SM SCT025 BKN050 FM040200 03005KT P6SM
                       SCT050 FM040600 03005KT P6SM SKC=
201401031122 TAF KSEA 031122Z 0312/0418 20010KT P6SM BKN014 OVC025 FM031500
                       VRB04KT P6SM SCT015 BKN025 BKN050 FM031800
                       36006KT P6SM SCT025 BKN050 FM040200 03005KT
                       P6SM SCT050 FM040600 03005KT P6SM SKC=
201401030844 TAF AMD KSEA 030844Z 0309/0412 24006KT 4SM -RA OVC008 FM030930
                       VRB04KT P6SM SCT010 BKN018 BKN040 FM031800
                       36006KT P6SM SCT025 BKN050 FM040200 03005KT
                       P6SM SCT050=
201401030745 TAF AMD KSEA 030745Z 0308/0412 24012KT P6SM BKN010 OVC014 FM031000
                       20006KT P6SM SCT010 BKN015 BKN040 FM031800
                       36006KT P6SM SCT025 BKN050 FM040200 03005KT
                       P6SM SCT050=
201401030532 TAF KSEA 030532Z 0306/0412 20009G15KT 6SM -RA OVC008 FM030800 17007KT
                       P6SM BKN020 OVC050 FM031800 36006KT P6SM
                       SCT025 BKN050 FM040200 03005KT P6SM SCT050=
201401030303 TAF AMD KSEA 030303Z 0303/0406 20009G17KT P6SM -RA SCT028 OVC040
                       TEMPO 0303/0305 5SM -RA BR BKN025 OVC080
                       FM030500 21012G20KT 5SM -SHRA BR BKN020
                       OVC050 FM031000 19010KT P6SM BKN020 OVC050
                       FM032100 22005KT P6SM SCT025 BKN050=
201401022329 TAF KSEA 022329Z 0300/0406 20010KT P6SM -RA SCT025 BKN080 OVC200
                       TEMPO 0301/0305 5SM -RA BR BKN025 OVC080
                       FM030500 21012G20KT 5SM -SHRA BR BKN020
                       OVC050 FM031000 19010KT P6SM BKN020 OVC050
                       FM032100 22005KT P6SM SCT025 BKN050=
201401022101 KSEA 022101Z 0221/0324 20012KT P6SM FEW090 BKN150 OVC250 FM022300
                       18008KT P6SM -RA BKN060 OVC100 FM030300
                       20012G18KT 5SM -SHRA BR BKN020 BKN050 FM031000
                       19006KT P6SM VCSH BKN020 BKN050=
201401021724 TAF KSEA 021724Z 0218/0324 18005KT P6SM FEW060 BKN100 OVC150
                      TEMPO 0218/0222 5SM -RA BR BKN060 FM022300
                       18008KT P6SM -RA BKN060 OVC100 FM030300
                       20012G18KT 5SM -SHRA BR BKN020 BKN050 FM031000
                       19006KT P6SM VCSH BKN020 BKN050=
201401021628 TAF AMD KSEA 021628Z 0216/0318 18005KT P6SM FEW060 OVC100
                      TEMPO 0218/0222 -RA BKN060 FM022200 18008KT
                       P6SM -RA BKN060 OVC100 FM030200 20012G18KT
                       5SM -SHRA BR BKN020 BKN050 FM031000 19006KT
                       P6SM VCSH BKN020 BKN050=
201401021405 TAF AMD KSEA 021405Z 0214/0318 17004KT 5SM BR FEW002 BKN060 BKN080
                       TEMPO 0214/0216 1SM -RA BR BKN002 OVC070
                       FM021600 19010KT 5SM -RA BKN018 OVC050 FM030200
                       20012G18KT 5SM -SHRA BR BKN020 BKN050 FM031000
                       19006KT P6SM VCSH BKN020 BKN050=
201401021124 TAF KSEA 021124Z 0212/0318 15006KT 5SM -RA BR SCT004 OVC070
                      TEMPO 0212/0215 1SM -RA BR BKN002 OVC070
                       FM021600 19010KT 5SM -RA BKN018 OVC050 FM030200
                       20012G18KT 5SM -SHRA BR BKN020 BKN050 FM031000
                       19006KT P6SM VCSH BKN020 BKN050=
201401021003 KSEA 021003Z 0210/0312 14004KT 6SM -RA BR SCT003 OVC070 FM021600
                       19010KT 5SM -RA BKN018 OVC050 FM030200 20012G18KT
                       5SM -SHRA BR BKN025 BKN050=
201401020815 TAF AMD KSEA 020815Z 0208/0312 15003KT 6SM BR BKN005 OVC090 FM021000
                       14004KT 4SM BR BKN005 OVC060 FM021600 19010KT
                       5SM -RA BKN018 OVC050 FM030200 20012G18KT
                       5SM -SHRA BR BKN025 BKN050=
201401020531 TAF KSEA 020531Z 0206/0312 35004KT P6SM OVC070
                      TEMPO 0206/0210 4SM BR FEW005 OVC070 FM021000
                       14004KT 4SM BR SCT005 OVC040
                      TEMPO 0210/0214 BKN005 OVC040 FM021600 19010KT
                       5SM -RA BKN018 OVC050 FM030200 20012G18KT
                       5SM -SHRA BR BKN025 BKN050=
201401020440 TAF AMD KSEA 020440Z 0205/0306 02004KT 5SM BR FEW004 OVC090 FM020800
                       14004KT 3SM BR SCT008 OVC040
                      TEMPO 0210/0214 BKN008 OVC040 FM021600 19006KT
                       4SM -RA BKN012 OVC050 FM030200 20012G18KT
                       5SM -SHRA BR BKN025 BKN050=
201401020200 TAF AMD KSEA 020200Z 0202/0306 VRB03KT 6SM -RA BR SCT006 OVC050
                       FM020500 VRB03KT 3SM -RA BR OVC006 FM020800
                       14004KT 2SM BR BKN008 OVC040 FM021600 19006KT
                       4SM -RA BKN012 OVC050 FM030200 20012G18KT
                       5SM -SHRA BR BKN025 BKN050=
201401012349 TAF KSEA 012349Z 0200/0306 01003KT 3SM -RA BR SCT006 OVC050
                      TEMPO 0201/0202 OVC006 FM020200 VRB03KT 1SM
                       -RA BR OVC006 FM020800 14004KT 2SM BR BKN008
                       OVC040 FM021600 19006KT 4SM -RA BKN012 OVC050
                       FM030200 20012G18KT 5SM -SHRA BR BKN025
                       BKN050=
201401012136 TAF AMD KSEA 012136Z 0122/0224 VRB03KT 3SM BR BKN008 BKN060
                      TEMPO 0122/0123 1SM BR OVC004 FM020000 VRB03KT
                       5SM BR SCT010 BKN060 FM020400 VRB03KT 3SM
                       BR SCT008 OVC050 FM020900 14004KT 2SM BR
                       SCT008 OVC040 FM021500 19006KT P6SM -RA
                       OVC050=
201401012110 TAF AMD KSEA 012110Z 0121/0224 VRB03KT 1/2SM FG OVC002 FM012200
                       VRB03KT 3SM BR BKN008 BKN060
                      TEMPO 0122/0123 1/2SM FG OVC004 FM020000
                       VRB03KT 5SM BR SCT010 BKN060 FM020400 VRB03KT
                       3SM BR SCT008 OVC050 FM020900 14004KT 2SM
                       BR SCT008 OVC040 FM021500 19006KT P6SM -RA
                       OVC050=
201401011740 TAF KSEA 011740Z 0118/0224 VRB03KT 1/4SM FG VV002 FM012100 VRB03KT
                       4SM BR SCT003 BKN012 FM012300 VRB03KT 6SM
                       HZ SCT008 BKN060 FM020400 VRB03KT 3SM BR
                       SCT008 OVC050 FM020900 14004KT 2SM BR SCT008
                       OVC040 FM021500 19006KT P6SM -RA OVC050=
201401011415 TAF AMD KSEA 011415Z 0114/0218 03005KT 1/4SM FG VV001 FM011800
                       VRB03KT 1SM BR BKN003 OVC008 FM012000 VRB03KT
                       4SM BR SCT003 BKN012 FM012200 VRB03KT 6SM
                       HZ SCT008 BKN060 FM020400 VRB03KT 3SM BR
                       SCT008 OVC050=
201401011336 TAF AMD KSEA 011336Z 0114/0218 03005KT 1/2SM FG BKN001 OVC025 FM011500
                       VRB03KT 3SM BR FEW001 SCT025 BKN120
                      TEMPO 0115/0118 1/2SM FG VV001 FM011800 VRB03KT
                       1SM BR BKN003 OVC008 FM012000 VRB03KT 4SM
                       BR SCT003 BKN012 FM012200 VRB03KT 6SM HZ
                       SCT008 BKN060 FM020400 VRB03KT 3SM BR SCT008
                       OVC050=
201401011120 TAF KSEA 011120Z 0112/0218 06003KT 1/4SM FG VV001
                      TEMPO 0112/0114 1SM BR SCT003 OVC025 FM011400
                       06003KT 1/4SM FG VV001
                      TEMPO 0114/0118 1SM BR SCT003 BKN028 FM011800
                       VRB03KT 1SM BR BKN003 OVC008 FM012000 VRB03KT
                       4SM BR SCT003 BKN012 FM012200 VRB03KT 6SM
                       HZ SCT008 BKN060 FM020400 VRB03KT 3SM BR
                       SCT008 OVC050=
201401010901 TAF AMD KSEA 010901Z 0109/0212 00000KT 1/4SM FG BKN001 OVC028 FM011800
                       VRB03KT 1SM BR OVC003 FM012000 VRB03KT 4SM
                       BR SCT003 OVC008 FM012200 VRB03KT 6SM HZ
                       SCT008 BKN060=
201401010530 TAF KSEA 010530Z 0106/0212 00000KT 1/4SM FG VV001
                      TEMPO 0106/0108 2SM BR BKN002 FM011800 VRB03KT
                       1SM BR OVC003 FM012000 VRB03KT 4SM BR SCT003
                       OVC008 FM012200 VRB03KT 6SM HZ SCT008 BKN060=
201401010341 TAF AMD KSEA 010341Z 0104/0206 07005KT 3SM BR BKN004 BKN030 FM010800
                       VRB03KT 1SM BR OVC003 FM012100 VRB03KT 4SM
                       BR SCT003 OVC008=
201401010213 TAF AMD KSEA 010213Z 0102/0206 VRB03KT 6SM BR SCT012 OVC022
                      TEMPO 0102/0105 5SM BR SCT006 OVC012 FM010500
                       VRB03KT 4SM BR SCT003 OVC006 FM010800 VRB03KT
                       1SM BR OVC003 FM012100 VRB03KT 4SM BR SCT003
                       OVC008=