##########################################################
# Query made at 02/17/2025 19:19:06 UTC
# Time interval: from 12/01/2014 00:00  to 12/31/2014 23:59  UTC
##########################################################

##########################################################
# KSEA, Seattle, Seattle-Tacoma International Airport (United States)
# WMO index: 72793. WIGOS ID: 0-20000-0-72793
# Latitude 47-27-00N. Longitude 122-17-59W. Altitude 130 m.
##########################################################

###################################
#  METAR/SPECI from KSEA
###################################
201412312353 METAR KSEA 312353Z 35006KT 10SM FEW250 02/M06 A3051 RMK AO2 SLP341 T00221061 10033 20006 56013 $=
201412312253 METAR KSEA 312253Z 01007KT 10SM FEW250 03/M07 A3051 RMK AO2 SLP344 T00331067 $=
201412312153 METAR KSEA 312153Z 01008KT 10SM FEW250 03/M07 A3053 RMK AO2 SLP349 T00331072 $=
201412312053 METAR KSEA 312053Z 14014G24KT 200V130 10SM FEW250 03/M08 A3054 RMK AO2 SLP354 T00281078 58022 $=
201412311953 METAR KSEA 311953Z 01009KT 10SM FEW250 02/M06 A3058 RMK AO2 SLP367 T00221061=
201412311853 METAR KSEA 311853Z 04005KT 10SM FEW250 01/M07 A3060 RMK AO2 SLP373 T00111067=
201412311753 METAR KSEA 311753Z 04008KT 10SM FEW250 01/M06 A3061 RMK AO2 SLP377 T00061061 10006 21028 55006=
201412311653 METAR KSEA 311653Z 05008KT 10SM FEW250 M01/M07 A3061 RMK AO2 SLP377 T10111067=
201412311553 METAR KSEA 311553Z 09004KT 10SM FEW035 M02/M06 A3062 RMK AO2 SLP379 T10221056=
201412311453 METAR KSEA 311453Z 07004KT 10SM FEW140 M02/M06 A3063 RMK AO2 SLP384 T10171061 56010=
201412311353 METAR KSEA 311353Z 01003KT 10SM BKN140 M03/M06 A3064 RMK AO2 SLP387 T10281061=
201412311253 METAR KSEA 311253Z 00000KT 10SM BKN150 M02/M06 A3065 RMK AO2 SLP391 T10171061=
201412311153 METAR KSEA 311153Z 00000KT 10SM BKN160 M02/M07 A3066 RMK AO2 SLP393 T10171072 11006 21017 58016=
201412311053 METAR KSEA 311053Z 00000KT 10SM BKN170 M02/M08 A3068 RMK AO2 SLP401 T10171078=
201412310953 METAR KSEA 310953Z 00000KT 10SM BKN200 M01/M08 A3070 RMK AO2 SLP407 T10111078=
201412310853 METAR KSEA 310853Z 00000KT 10SM BKN170 M01/M07 A3071 RMK AO2 SLP409 T10111072 58013=
201412310753 METAR KSEA 310753Z 04004KT 10SM SCT250 M02/M08 A3072 RMK AO2 SLP415 T10171078 400331022=
201412310653 METAR KSEA 310653Z 05005KT 10SM BKN200 M01/M08 A3074 RMK AO2 SLP419 T10111078=
201412310553 METAR KSEA 310553Z 04005KT 10SM CLR M01/M08 A3075 RMK AO2 SLP422 T10111078 10022 21022 58007=
201412310453 METAR KSEA 310453Z 02005KT 10SM CLR M01/M09 A3076 RMK AO2 SLP427 T10111089=
201412310353 METAR KSEA 310353Z 03007KT 10SM CLR M01/M09 A3076 RMK AO2 SLP428 T10061089=
201412310253 METAR KSEA 310253Z 02008KT 10SM CLR M01/M09 A3077 RMK AO2 SLP431 T10061089 55006=
201412310153 METAR KSEA 310153Z 03006KT 10SM CLR 01/M09 A3076 RMK AO2 SLP430 T00061094=
201412310053 METAR KSEA 310053Z 01007KT 10SM FEW250 00/M09 A3078 RMK AO2 SLP434 T00001094=
201412302353 METAR KSEA 302353Z 01007KT 10SM FEW250 02/M09 A3078 RMK AO2 SLP436 T00221094 10033 20006 58006=
201412302253 METAR KSEA 302253Z 03008KT 10SM FEW250 03/M12 A3079 RMK AO2 SLP438 T00281117=
201412302153 METAR KSEA 302153Z 01009KT 10SM FEW250 03/M12 A3080 RMK AO2 SLP441 T00281117=
201412302053 METAR KSEA 302053Z 03010KT 10SM FEW250 02/M10 A3080 RMK AO2 SLP442 T00221100 58011=
201412301953 METAR KSEA 301953Z 02008KT 10SM FEW250 02/M12 A3083 RMK AO2 SLP450 T00221117=
201412301853 METAR KSEA 301853Z 06005KT 10SM FEW250 01/M13 A3084 RMK AO2 SLP454 T00111133=
201412301753 METAR KSEA 301753Z 07008KT 10SM SCT250 01/M13 A3084=
201412301653 METAR KSEA 301653Z 05008KT 10SM CLR M01/M13 A3082 RMK AO2 SLP449 T10111128=
201412301553 METAR KSEA 301553Z 04007KT 10SM CLR M02/M13 A3081 RMK AO2 SLP444 T10171128=
201412301453 METAR KSEA 301453Z 06006KT 10SM CLR M02/M12 A3081 RMK AO2 SLP444 T10171122 51004=
201412301353 METAR KSEA 301353Z 08008KT 10SM CLR M02/M11 A3081 RMK AO2 SLP444 T10171111=
201412301253 METAR KSEA 301253Z 05009KT 10SM CLR M02/M11 A3081 RMK AO2 SLP444 T10171106=
201412301153 METAR KSEA 301153Z 08011KT 10SM CLR M01/M12 A3080 RMK AO2 SLP440 T10061117 10022 21017 51017=
201412301053 METAR KSEA 301053Z VRB04KT 10SM CLR M01/M09 A3079 RMK AO2 SLP438 T10061094=
201412300953 METAR KSEA 300953Z 05007KT 10SM FEW040 00/M09 A3077 RMK AO2 SLP429 T00001094=
201412300853 METAR KSEA 300853Z 06007KT 10SM FEW040 00/M09 A3074 RMK AO2 SLP421 T00001089 51023=
201412300753 METAR KSEA 300753Z 09003KT 10SM FEW035 01/M10 A3072 RMK AO2 SLP414 T00111100 400610011=
201412300653 METAR KSEA 300653Z 06006KT 10SM FEW030 SCT060 01/M08 A3070 RMK AO2 SLP407 T00111083=
201412300553 METAR KSEA 300553Z 08007KT 10SM BKN034 02/M09 A3067 RMK AO2 SLP397 T00221089 10044 20017 53027=
201412300453 METAR KSEA 300453Z 10004KT 10SM FEW040 BKN055 02/M07 A3064 RMK AO2 SLP386 T00221072=
201412300353 METAR KSEA 300353Z 06005KT 10SM BKN038 03/M06 A3062 RMK AO2 SLP379 T00331056=
201412300253 METAR KSEA 300253Z 03006KT 10SM SCT048 BKN070 03/M05 A3059 RMK AO2 SLP370 T00331050 53029=
201412300153 METAR KSEA 300153Z 02009KT 10SM BKN044 03/M05 A3056 RMK AO2 SLP359 T00331050=
201412300053 METAR KSEA 300053Z 34012G20KT 10SM BKN042 04/M05 A3053 RMK AO2 SLP349 T00391050=
201412292353 METAR KSEA 292353Z 36007KT 10SM SCT040 04/M04 A3050 RMK AO2 SLP339 T00391044 10061 20033 53018=
201412292253 METAR KSEA 292253Z 04011KT 10SM FEW040 05/M04 A3048 RMK AO2 SLP331 T00501044=
201412292153 METAR KSEA 292153Z 03011KT 10SM FEW040 06/M03 A3046 RMK AO2 SLP323 T00611033=
201412292053 METAR KSEA 292053Z 02012KT 10SM FEW040 06/M03 A3045 RMK AO2 SLP321 T00561028 51011=
201412291953 METAR KSEA 291953Z 04007KT 10SM FEW040 06/M01 A3044 RMK AO2 SLP318 T00561011=
201412291853 METAR KSEA 291853Z 05009KT 10SM FEW045 04/M02 A3044 RMK AO2 SLP318 T00441017=
201412291753 METAR KSEA 291753Z 04012KT 10SM FEW045 03/M02 A3042 RMK AO2 SLP310 T00281017 10033 20017 53039=
201412291653 METAR KSEA 291653Z 03012KT 10SM FEW030 03/M01 A3038 RMK AO2 SLP296 T00281011 $=
201412291553 METAR KSEA 291553Z 05008KT 10SM FEW019 SCT100 02/M01 A3033=
201412291453 METAR KSEA 291453Z 01007KT 10SM FEW016 SCT200 02/00 A3030 RMK AO2 SLP270 T00170000 53025 $=
201412291353 METAR KSEA 291353Z 01010KT 10SM SCT016 SCT095 03/01 A3027 RMK AO2 SLP260 T00280006 $=
201412291253 METAR KSEA 291253Z 01011KT 10SM SCT014 SCT060 03/01 A3024 RMK AO2 SLP249 T00280011 $=
201412291232 SPECI KSEA 291232Z 01008KT 10SM FEW009 SCT014 BKN060 03/01 A3023 RMK AO2 $=
201412291153 METAR KSEA 291153Z 03009KT 10SM FEW004 OVC009 03/02 A3023 RMK AO2 SLP245 70016 T00330017 10039 20022 51021 $=
201412291053 METAR KSEA 291053Z 01009KT 10SM FEW015 BKN065 03/02 A3020=
201412290953 METAR KSEA 290953Z 01006KT 10SM FEW015 SCT070 BKN100 03/02 A3019 RMK AO2 SLP231 T00280017 $=
201412290853 METAR KSEA 290853Z 02006KT 7SM FEW021 SCT036 03/02 A3016 RMK AO2 SLP223 T00280017 53004 $=
201412290753 METAR KSEA 290753Z 00000KT 8SM FEW008 SCT040 BKN060 03/02 A3015 RMK AO2 SLP221 T00330022 400670028 $=
201412290653 METAR KSEA 290653Z 04004KT 9SM SCT003 SCT008 BKN041 04/02 A3015 RMK AO2 SLP220 T00390022 $=
201412290602 SPECI KSEA 290602Z 04006KT 9SM FEW004 SCT019 BKN039 04/02 A3015 RMK AO2 $=
201412290600 SPECI KSEA 290600Z 05006KT 10SM FEW004 BKN019 OVC039 04/02 A3015 RMK AO2 $=
201412290553 METAR KSEA 290553Z 05005KT 10SM FEW019 BKN039 BKN065 04/02 A3015 RMK AO2 SLP219 60005 T00390022 10056 20039 55000 $=
201412290453 METAR KSEA 290453Z 04005KT 10SM FEW017 OVC038 04/03 A3015 RMK AO2 RAE06 SLP218 P0001 T00440028 $=
201412290426 SPECI KSEA 290426Z 06005KT 10SM FEW017 OVC036 04/03 A3015 RMK AO2 RAE06 P0001 $=
201412290353 METAR KSEA 290353Z 13006KT 7SM -RA BKN024 OVC032 04/02 A3015 RMK AO2 RAB26 SLP218 P0003 T00440022 $=
201412290253 METAR KSEA 290253Z 11004KT 10SM OVC020 04/02 A3015 RMK AO2 SLP219 P0001 60001 T00440022 56008 $=
201412290244 SPECI KSEA 290244Z 09003KT 10SM OVC020 04/02 A3015 RMK AO2 P0001 $=
201412290214 SPECI KSEA 290214Z 06004KT 10SM SCT020 OVC035 04/02 A3015 RMK AO2 P0001 $=
201412290153 METAR KSEA 290153Z 05005KT 10SM BKN019 OVC030 04/02 A3016 RMK AO2 SLP222 T00440022=
201412290053 METAR KSEA 290053Z 04008KT 10SM FEW007 BKN017 OVC040 04/02 A3016 RMK AO2 RAE2358B15E31 SLP224 P0000 T00440022=
201412290033 SPECI KSEA 290033Z 36004KT 10SM SCT007 BKN017 OVC024 06/03 A3017 RMK AO2 RAE2358B15E31 P0000=
201412282353 METAR KSEA 282353Z 00000KT 10SM -RA SCT012 BKN023 OVC032 06/02 A3017 RMK AO2 RAB49 SLP226 P0003 60003 T00560022 10067 20044 56006=
201412282253 METAR KSEA 282253Z 00000KT 10SM BKN010 BKN015 OVC049 06/03 A3018 RMK AO2 RAB2159E41 SLP228 P0000 T00610033=
201412282200 SPECI KSEA 282200Z 18005KT 10SM -RA BKN013 OVC049 06/03 A3018 RMK AO2 RAB2159 P0000=
201412282153 METAR KSEA 282153Z VRB04KT 10SM BKN015 OVC049 06/03 A3018 RMK AO2 SLP228 T00610033=
201412282130 SPECI KSEA 282130Z 19003KT 10SM BKN017 BKN049 OVC055 06/03 A3018 RMK AO2=
201412282053 METAR KSEA 282053Z 18005KT 10SM FEW013 BKN049 06/03 A3019 RMK AO2 SLP233 T00560033 58007=
201412281953 METAR KSEA 281953Z 25004KT 10SM SCT008 BKN020 OVC047 06/03 A3021 RMK AO2 SLP238 T00560033=
201412281853 METAR KSEA 281853Z 20004KT 10SM BKN008 BKN014 OVC022 05/03 A3022 RMK AO2 SLP241 T00500033=
201412281834 SPECI KSEA 281834Z 17003KT 10SM FEW008 OVC021 05/03 A3022 RMK AO2=
201412281753 METAR KSEA 281753Z 00000KT 10SM BKN015 OVC065 05/03 A3021=
201412281745 SPECI KSEA 281745Z 00000KT 10SM BKN015 BKN065 04/03 A3021 RMK AO2=
201412281653 METAR KSEA 281653Z 00000KT 10SM FEW020 BKN036 BKN043 04/03 A3020 RMK AO2 SLP235 T00440028=
201412281553 METAR KSEA 281553Z 00000KT 10SM BKN034 BKN044 OVC060 04/03 A3019 RMK AO2 SLP231 T00440028=
201412281453 METAR KSEA 281453Z 00000KT 10SM BKN028 BKN039 04/02 A3018 RMK AO2 RAE36 SLP227 P0001 60008 T00390022 51017=
201412281353 METAR KSEA 281353Z 05008KT 8SM -RA FEW013 BKN028 OVC037 04/03 A3016 RMK AO2 SLP222 P0004 T00440028=
201412281253 METAR KSEA 281253Z 05008KT 10SM -RA SCT008 BKN013 OVC021 04/03 A3014 RMK AO2 RAB11 SLP216 P0003 T00440033=
201412281153 METAR KSEA 281153Z 04007KT 10SM BKN008 OVC017 06/04 A3012 RMK AO2 SLP209 70006 T00610039 10072 20056 51014=
201412281145 SPECI KSEA 281145Z 04007KT 10SM BKN008 OVC017 06/04 A3012 RMK AO2=
201412281053 METAR KSEA 281053Z 00000KT 10SM FEW017 BKN037 OVC060 06/04 A3011 RMK AO2 SLP205 T00610039=
201412280953 METAR KSEA 280953Z 16005KT 10SM BKN035 OVC060 06/04 A3010 RMK AO2 SLP200 T00560039=
201412280853 METAR KSEA 280853Z 18004KT 10SM BKN060 06/04 A3008 RMK AO2 SLP195 T00610039 51004=
201412280753 METAR KSEA 280753Z 22006KT 10SM BKN065 BKN075 OVC090 06/04 A3008 RMK AO2 SLP193 T00610039 400940044=
201412280653 METAR KSEA 280653Z 22007KT 10SM FEW015 BKN090 07/03 A3008 RMK AO2 SLP193 T00670033=
201412280553 METAR KSEA 280553Z 22008KT 10SM BKN015 07/04 A3007 RMK AO2 SLP191 T00720039 10094 20067 53006=
201412280453 METAR KSEA 280453Z 23010KT 10SM BKN017 07/03 A3005 RMK AO2 SLP186 T00720033=
201412280353 METAR KSEA 280353Z 21014KT 10SM BKN017 07/04 A3005 RMK AO2 SLP183 T00720039=
201412280334 SPECI KSEA 280334Z 21011KT 10SM BKN017 07/03 A3004 RMK AO2=
201412280253 METAR KSEA 280253Z 22012KT 10SM FEW015 SCT035 07/03 A3005 RMK AO2 SLP185 T00720033 50002=
201412280153 METAR KSEA 280153Z 20006KT 10SM FEW015 SCT030 07/03 A3007 RMK AO2 SLP190 T00670028=
201412280135 SPECI KSEA 280135Z 20006KT 10SM SCT016 BKN034 07/03 A3007 RMK AO2=
201412280053 METAR KSEA 280053Z 22007KT 10SM BKN016 BKN030 08/05 A3006 RMK AO2 SLP187 T00830050=
201412272353 METAR KSEA 272353Z 24008KT 10SM SCT015 BKN028 09/06 A3005 RMK AO2 SLP183 T00940061 10094 20078 55002=
201412272253 METAR KSEA 272253Z 22009G18KT 10SM BKN017 09/06 A3003 RMK AO2 SLP178 T00940061=
201412272205 SPECI KSEA 272205Z 21016G21KT 10SM BKN017 BKN110 09/06 A3003 RMK AO2=
201412272153 METAR KSEA 272153Z 21016G23KT 10SM BKN014 OVC110 09/06 A3003 RMK AO2 PK WND 22029/2139 SLP179 T00890061=
201412272110 SPECI KSEA 272110Z 21019G27KT 10SM BKN012 OVC017 09/07 A3003 RMK AO2 PK WND 21027/2110=
201412272053 METAR KSEA 272053Z 20016G22KT 10SM BKN008 OVC014 08/07 A3005=
201412272033 SPECI KSEA 272033Z 21015G24KT 10SM BKN008 OVC014 08/07 A3006 RMK AO2=
201412271953 METAR KSEA 271953Z 21015G31KT 10SM OVC013 08/06 A3008 RMK AO2 PK WND 21031/1947 SLP193 T00830061=
201412271853 METAR KSEA 271853Z 21016G21KT 10SM SCT006 BKN014 OVC100 08/07 A3011 RMK AO2 PK WND 22026/1837 SLP203 T00780067=
201412271829 SPECI KSEA 271829Z 21016G25KT 10SM SCT006 BKN013 OVC017 08/07 A3011 RMK AO2=
201412271753 METAR KSEA 271753Z 21015KT 9SM BKN006 OVC011 08/06 A3012 RMK AO2 SLP207 60006 T00780061 10078 20044 58007=
201412271653 METAR KSEA 271653Z 19011KT 9SM OVC008 07/06 A3012 RMK AO2 SLP209 T00720061=
201412271553 METAR KSEA 271553Z 17010KT 10SM OVC008 06/05 A3014 RMK AO2 RAB37E50 SLP214 P0001 T00610050=
201412271549 SPECI KSEA 271549Z 17011KT 10SM -RA OVC008 06/05 A3014 RMK AO2 RAB37 P0001=
201412271453 METAR KSEA 271453Z 16009KT 6SM BR OVC010 06/04 A3016 RMK AO2 SLP222 60005 T00560044 56030=
201412271414 SPECI KSEA 271414Z 15009KT 8SM OVC012 05/04 A3017 RMK AO2=
201412271353 METAR KSEA 271353Z 15009KT 10SM OVC015 05/03 A3019 RMK AO2 RAE44 SLP231 P0002 T00500033=
201412271253 METAR KSEA 271253Z 15006KT 10SM -RA OVC018 04/03 A3022 RMK AO2 SLP243 P0003 T00440028=
201412271153 METAR KSEA 271153Z 14004KT 6SM -RA BR FEW016 OVC020 04/03 A3025 RMK AO2 SLP254 P0006 60007 70007 T00440028 10056 20044 58015=
201412271053 METAR KSEA 271053Z 15005KT 6SM -RA BR OVC017 04/02 A3028 RMK AO2 RAB29 SLP262 P0001 T00440022=
201412270953 METAR KSEA 270953Z 16006KT 10SM OVC019 05/02 A3029 RMK AO2 SLP266 T00500017=
201412270853 METAR KSEA 270853Z 12005KT 10SM BKN015 OVC023 05/02 A3030 RMK AO2 SLP269 T00500017 58016=
201412270753 METAR KSEA 270753Z 14004KT 10SM OVC013 05/02 A3032 RMK AO2 SLP278 T00500017 400560017=
201412270653 METAR KSEA 270653Z 11004KT 10SM OVC011 05/02 A3034 RMK AO2 SLP282 T00500017=
201412270553 METAR KSEA 270553Z 08003KT 10SM OVC014 05/02 A3035 RMK AO2 SLP285 T00500017 10056 20039 55002=
201412270453 METAR KSEA 270453Z 00000KT 10SM BKN014 OVC040 04/02 A3034 RMK AO2 SLP285 T00440017=
201412270353 METAR KSEA 270353Z 16004KT 10SM BKN014 OVC040 04/02 A3034 RMK AO2 SLP285 T00440022=
201412270253 METAR KSEA 270253Z 00000KT 10SM BKN014 OVC040 05/03 A3035 RMK AO2 SLP288 T00500028 50002=
201412270153 METAR KSEA 270153Z 00000KT 10SM BKN012 05/03 A3036=
201412270123 SPECI KSEA 270123Z 00000KT 10SM BKN012 05/03 A3035 RMK AO2=
201412270053 METAR KSEA 270053Z 01003KT 10SM FEW004 SCT014 BKN100 BKN200 04/02 A3035 RMK AO2 SLP288 T00440022=
201412262353 METAR KSEA 262353Z 31003KT 10SM FEW004 SCT080 SCT200 04/02 A3035 RMK AO2 SLP286 T00390022 10056 20017 56002=
201412262253 METAR KSEA 262253Z 00000KT 10SM SCT004 SCT080 BKN250 05/03 A3035 RMK AO2 SLP286 T00500028=
201412262153 METAR KSEA 262153Z 00000KT 10SM SCT004 SCT250 05/03 A3035 RMK AO2 SLP286 T00500028=
201412262053 METAR KSEA 262053Z 00000KT 7SM BCFG FEW003 BKN250 03/02 A3035 RMK AO2 SLP289 T00330017 58008=
201412262039 SPECI KSEA 262039Z 00000KT 7SM BCFG SCT003 BKN250 03/02 A3036 RMK AO2=
201412262027 SPECI KSEA 262027Z 00000KT 2SM BR SCT003 BKN250 03/02 A3036 RMK AO2=
201412261953 METAR KSEA 261953Z 00000KT 2SM R16L/5000VP6000FT BR BKN003 BKN250 03/02 A3037 RMK AO2 SLP294 T00280017=
201412261853 METAR KSEA 261853Z 00000KT 1/2SM R16L/5500VP6000FT BR OVC003 02/01 A3039 RMK AO2 SFC VIS 1 SLP299 T00220011=
201412261809 SPECI KSEA 261809Z 11003KT 1/4SM R16L/1600V4000FT FG OVC002 02/01 A3038 RMK AO2=
201412261753 METAR KSEA 261753Z 14003KT 1/4SM R16L/1200V2000FT FG OVC002 02/01 A3038 RMK AO2 SLP297 T00170006 10039 20017 51009=
201412261653 METAR KSEA 261653Z 15003KT 1/4SM R16L/2600V5000FT FG OVC002 02/02 A3037 RMK AO2 SLP293 T00220017=
201412261553 METAR KSEA 261553Z 14004KT 1/4SM R16L/3500VP6000FT FG OVC002 02/02 A3035 RMK AO2 SLP287 T00220017=
201412261453 METAR KSEA 261453Z 13004KT 1/4SM R16L/P6000FT FG OVC002 03/02 A3035 RMK AO2 SFC VIS 1/2 SLP287 T00280017 53005=
201412261353 METAR KSEA 261353Z 12003KT 1/4SM R16L/P6000FT BR OVC003 03/02 A3034 RMK AO2 SFC VIS 3/4 SLP284 T00280017=
201412261253 METAR KSEA 261253Z 11004KT 2SM OVC004 03/02 A3033 RMK AO2 SFC VIS 7 SLP281 T00330022=
201412261153 METAR KSEA 261153Z 15003KT 2SM OVC004 03/02 A3033 RMK AO2 SFC VIS 8 SLP282 T00330022 10039 20028 51016=
201412261053 METAR KSEA 261053Z 11004KT 2SM OVC004 04/02 A3033 RMK AO2 SFC VIS 10 SLP279 T00390022=
201412260953 METAR KSEA 260953Z 14003KT 2SM OVC004 04/02 A3031 RMK AO2 SFC VIS 7 SLP272 T00390022=
201412260853 METAR KSEA 260853Z 13005KT 2SM OVC004 04/02 A3029 RMK AO2 SFC VIS 7 SLP264 T00390022 58002=
201412260753 METAR KSEA 260753Z 16006KT 2SM OVC004 03/02 A3028 RMK AO2 SFC VIS 7 SLP265 T00330022 400780028=
201412260653 METAR KSEA 260653Z 20003KT 2SM OVC004 03/02 A3030 RMK AO2 SFC VIS 7 SLP271 T00330022=
201412260553 METAR KSEA 260553Z 15006KT 2SM BR BKN004 BKN070 04/02 A3029 RMK AO2 SLP268 T00390022 10061 20028 53014=
201412260520 SPECI KSEA 260520Z 14004KT 2SM BR BKN004 OVC070 03/02 A3029 RMK AO2=
201412260453 METAR KSEA 260453Z 15005KT 8SM SCT007 SCT016 BKN065 03/02 A3028 RMK AO2 SLP263 T00330022=
201412260435 SPECI KSEA 260435Z 14003KT 9SM FEW007 BKN016 03/02 A3027 RMK AO2=
201412260353 METAR KSEA 260353Z 17005KT 10SM BKN007 03/02 A3026 RMK AO2 SLP257 T00330022=
201412260311 SPECI KSEA 260311Z 20003KT 10SM BKN007 04/03 A3026 RMK AO2=
201412260253 METAR KSEA 260253Z 24003KT 10SM SCT007 04/02 A3025 RMK AO2 SLP253 T00390022 53004=
201412260153 METAR KSEA 260153Z 00000KT 10SM FEW009 SCT070 BKN250 04/03 A3024 RMK AO2 SLP251 T00440028=
201412260053 METAR KSEA 260053Z 24003KT 10SM BKN080 BKN250 05/03 A3024=
201412252353 METAR KSEA 252353Z 26003KT 10SM SCT085 BKN250 06/02 A3024 RMK AO2 SLP248 T00610022 10078 20061 53009=
201412252253 METAR KSEA 252253Z 23004KT 10SM SCT040 BKN090 BKN250 07/03 A3022 RMK AO2 SLP241 T00720028=
201412252153 METAR KSEA 252153Z 20004KT 10SM FEW012 SCT060 SCT250 07/03 A3021 RMK AO2 SLP237 T00720028=
201412252053 METAR KSEA 252053Z 23006KT 10SM FEW012 SCT060 SCT250 07/03 A3021 RMK AO2 SLP238 T00720033 51001=
201412252016 SPECI KSEA 252016Z 22005KT 10SM FEW011 SCT021 BKN060 07/03 A3020 RMK AO2=
201412251953 METAR KSEA 251953Z 25005KT 10SM BKN018 BKN060 07/04 A3021 RMK AO2 SLP238 T00670039=
201412251853 METAR KSEA 251853Z 21003KT 10SM FEW015 SCT032 SCT200 07/03 A3021 RMK AO2 SLP240 T00670028=
201412251753 METAR KSEA 251753Z 12004KT 10SM FEW015 06/03 A3021 RMK AO2 SLP237 T00610028 10061 20039 53018=
201412251653 METAR KSEA 251653Z 13003KT 10SM FEW011 BKN031 05/03 A3019 RMK AO2 SLP232 T00500033=
201412251647 SPECI KSEA 251647Z 12003KT 10SM FEW015 BKN031 05/03 A3019 RMK AO2=
201412251611 SPECI KSEA 251611Z 10004KT 9SM FEW007 BKN015 04/03 A3017 RMK AO2=
201412251553 METAR KSEA 251553Z 13005KT 10SM FEW007 SCT012 SCT180 04/02 A3017 RMK AO2 SLP224 T00390022=
201412251453 METAR KSEA 251453Z 17004KT 7SM BCFG FEW002 SCT017 BKN050 04/03 A3015 RMK AO2 SLP218 T00440033 53010=
201412251438 SPECI KSEA 251438Z 12005KT 7SM BCFG FEW002 SCT017 BKN050 04/03 A3014 RMK AO2=
201412251353 METAR KSEA 251353Z 11004KT 10SM FEW008 BKN016 05/03 A3014 RMK AO2 SLP215 T00500033=
201412251341 SPECI KSEA 251341Z 08003KT 10SM FEW009 OVC014 05/03 A3014 RMK AO2=
201412251253 METAR KSEA 251253Z 11004KT 10SM OVC013 05/03 A3013 RMK AO2 SLP210 T00500028=
201412251153 METAR KSEA 251153Z 15004KT 8SM BKN011 05/03 A3012 RMK AO2 SLP208 70003 T00500033 10056 20044 51020=
201412251117 SPECI KSEA 251117Z 15005KT 10SM OVC009 05/04 A3011 RMK AO2=
201412251053 METAR KSEA 251053Z 14006KT 1/4SM BR SCT002 OVC009 05/03 A3011 RMK AO2 SFC VIS 6 SLP205 T00500033=
201412251015 SPECI KSEA 251015Z 12008KT 1/4SM BR FEW002 BKN007 BKN026 04/03 A3009 RMK AO2 SFC VIS 4=
201412251011 SPECI KSEA 251011Z 11006KT 1/4SM BR BKN007 OVC026 04/03 A3009 RMK AO2 SFC VIS 3=
201412251002 SPECI KSEA 251002Z 13007KT 2SM BR OVC007 04/03 A3009 RMK AO2 SFC VIS 5=
201412250953 METAR KSEA 250953Z 12006KT 9SM OVC007 05/04 A3009 RMK AO2 SLP196 T00500039=
201412250937 SPECI KSEA 250937Z 13005KT 9SM BKN007 OVC012 05/04 A3008 RMK AO2=
201412250919 SPECI KSEA 250919Z 14004KT 10SM BKN013 BKN036 04/03 A3007 RMK AO2=
201412250853 METAR KSEA 250853Z 16005KT 10SM FEW009 BKN018 BKN039 05/04 A3006 RMK AO2 SLP188 T00500039 51010=
201412250753 METAR KSEA 250753Z 12007KT 10SM SCT006 BKN012 OVC016 05/04 A3006 RMK AO2 SLP187 T00500039 400720039=
201412250653 METAR KSEA 250653Z 13005KT 10SM BKN008 OVC120 05/04 A3005 RMK AO2 SLP183 T00500039=
201412250553 METAR KSEA 250553Z 14006KT 10SM SCT014 BKN065 BKN120 06/03 A3003 RMK AO2 SLP179 T00560033 10067 20044 51018=
201412250453 METAR KSEA 250453Z 13003KT 10SM SCT027 05/03 A3002 RMK AO2 SLP174 T00500028=
201412250353 METAR KSEA 250353Z 10004KT 10SM SCT036 06/02 A3000 RMK AO2 SLP166 T00610022=
201412250253 METAR KSEA 250253Z 00000KT 10SM BKN038 OVC065 07/03 A2998 RMK AO2 SLP160 T00670028 51012=
201412250153 METAR KSEA 250153Z 00000KT 10SM BKN038 OVC048 06/03 A2997 RMK AO2 SLP156 T00610028=
201412250053 METAR KSEA 250053Z 00000KT 10SM SCT040 BKN050 BKN070 07/03 A2996 RMK AO2 SLP153 T00670028=
201412242353 METAR KSEA 242353Z 18004KT 10SM FEW028 BKN042 BKN070 07/02 A2994 RMK AO2 SLP148 T00670022 10072 20044 51010=
201412242335 SPECI KSEA 242335Z 17008KT 10SM FEW028 BKN042 BKN070 07/03 A2994 RMK AO2=
201412242253 METAR KSEA 242253Z 20004KT 10SM FEW013 BKN023 BKN065 07/03 A2994 RMK AO2 SLP146 T00670033=
201412242153 METAR KSEA 242153Z 21003KT 10SM OVC015 06/04 A2992 RMK AO2 SLP141 T00610039=
201412242053 METAR KSEA 242053Z 20004KT 10SM OVC011 06/03 A2991 RMK AO2 SLP138 T00610033 55006=
201412241953 METAR KSEA 241953Z 20005KT 10SM OVC008 06/04 A2991 RMK AO2 SLP137 T00610039=
201412241924 SPECI KSEA 241924Z 17006KT 10SM BKN008 OVC200 06/03 A2992 RMK AO2=
201412241853 METAR KSEA 241853Z 16005KT 10SM SCT008 SCT030 BKN200 05/03 A2992 RMK AO2 SLP140 T00500033=
201412241827 SPECI KSEA 241827Z 19005KT 10SM SCT008 BKN030 BKN200 05/04 A2993 RMK AO2=
201412241753 METAR KSEA 241753Z 18005KT 10SM OVC008 04/03 A2993 RMK AO2 SLP145 60003 T00440033 10044 20039 53007=
201412241653 METAR KSEA 241653Z 17003KT 10SM BKN008 OVC024 04/03 A2992 RMK AO2 SLP139 T00440028=
201412241553 METAR KSEA 241553Z 15003KT 7SM BKN008 OVC031 04/03 A2990=
201412241518 SPECI KSEA 241518Z 17004KT 10SM BKN008 BKN031 OVC090 04/03 A2991 RMK AO2=
201412241515 SPECI KSEA 241515Z 17003KT 10SM SCT008 BKN031 OVC090 04/03 A2991 RMK AO2=
201412241502 SPECI KSEA 241502Z 16005KT 10SM BKN008 BKN033 OVC080 04/03 A2991 RMK AO2=
201412241453 METAR KSEA 241453Z 16004KT 10SM SCT010 BKN020 OVC080 04/03 A2991 RMK AO2 RAB25E37 SLP137 P0001 60003 T00390028 56021=
201412241428 SPECI KSEA 241428Z 00000KT 8SM -RA FEW010 BKN025 OVC036 04/03 A2992 RMK AO2 RAB25 P0000=
201412241353 METAR KSEA 241353Z 00000KT 10SM FEW015 OVC045 04/03 A2993 RMK AO2 RAB32E50 SLP145 P0000 T00390028=
201412241253 METAR KSEA 241253Z 00000KT 10SM FEW040 OVC060 04/03 A2995 RMK AO2 RAE25 SLP149 P0002 T00390028=
201412241153 METAR KSEA 241153Z 16005KT 10SM -RA OVC034 04/03 A2997 RMK AO2 SLP158 P0001 60031 70099 T00390028 10056 20039 56022=
201412241053 METAR KSEA 241053Z 15004KT 10SM -RA FEW014 OVC042 04/03 A2999 RMK AO2 SLP164 P0003 T00390028=
201412240953 METAR KSEA 240953Z 16007KT 10SM -RA OVC032 04/03 A3002 RMK AO2 SLP172 P0005 T00440028=
201412240853 METAR KSEA 240853Z 12005KT 7SM -RA BKN027 OVC033 04/03 A3004 RMK AO2 SLP181 P0010 60022 T00440028 58016=
201412240753 METAR KSEA 240753Z 11006KT 6SM -RA BR OVC030 05/03 A3007 RMK AO2 SLP190 P0007 T00500033 401220050=
201412240653 METAR KSEA 240653Z 10008KT 8SM -RA OVC035 05/03 A3008 RMK AO2 SLP195 P0005 T00500028=
201412240553 METAR KSEA 240553Z 08012KT 7SM -RA FEW021 OVC035 06/03 A3009 RMK AO2 SLP197 P0010 60063 T00560033 10117 20056 58003=
201412240542 SPECI KSEA 240542Z 08009KT 8SM -RA FEW017 OVC035 06/04 A3010 RMK AO2 P0008=
201412240510 SPECI KSEA 240510Z 07012KT 7SM -RA FEW009 BKN021 OVC038 06/04 A3010 RMK AO2 P0003=
201412240453 METAR KSEA 240453Z 06012KT 7SM -RA FEW009 OVC040 07/04 A3011 RMK AO2 SLP204 P0007 T00670044=
201412240353 METAR KSEA 240353Z 05014G22KT 7SM -RA FEW005 SCT029 OVC046 07/05 A3009=
201412240253 METAR KSEA 240253Z 05010KT 3SM RA BR SCT004 BKN023 OVC033 08/06 A3010 RMK AO2 SLP200 P0011 60037 T00780061 53000=
201412240153 METAR KSEA 240153Z 04018G23KT 3SM -RA BR SCT004 OVC023 08/07 A3008 RMK AO2 SLP195 P0016 T00830067=
201412240143 SPECI KSEA 240143Z 05014KT 3SM -RA BR SCT004 BKN016 OVC025 08/07 A3009 RMK AO2 P0015=
201412240053 METAR KSEA 240053Z 03012KT 2 1/2SM RA BR SCT002 OVC010 09/07 A3010 RMK AO2 SLP203 P0010 T00890072=
201412240037 SPECI KSEA 240037Z 04010G19KT 2SM +RA BR SCT002 BKN010 OVC015 09/08 A3011 RMK AO2 P0005=
201412240029 SPECI KSEA 240029Z 33011G17KT 3SM RA BR SCT002 BKN010 OVC015 12/10 A3011 RMK AO2 P0001=
201412232353 METAR KSEA 232353Z 19008KT 4SM -RA BR BKN018 OVC026 12/10 A3010 RMK AO2 RAB2254 SLP199 P0002 60003 T01170100 10122 20072 56016=
201412232253 METAR KSEA 232253Z 19008KT 7SM OVC025 12/09 A3011 RMK AO2 SLP203 T01170094=
201412232232 SPECI KSEA 232232Z 17009KT 10SM BKN029 BKN049 OVC055 12/09 A3011 RMK AO2=
201412232153 METAR KSEA 232153Z 18011KT 10SM FEW016 SCT025 OVC060 12/09 A3012 RMK AO2 SLP207 T01170094=
201412232053 METAR KSEA 232053Z 17007KT 10SM FEW020 BKN060 OVC100 11/09 A3015 RMK AO2 SLP216 60001 T01060094 58024=
201412232022 SPECI KSEA 232022Z 20005KT 10SM FEW007 SCT020 BKN100 11/09 A3016 RMK AO2=
201412232009 SPECI KSEA 232009Z 21007KT 10SM SCT007 BKN020 OVC130 11/09 A3016 RMK AO2=
201412231953 METAR KSEA 231953Z 21005KT 10SM BKN007 BKN020 OVC200 10/09 A3017 RMK AO2 RAB21E31 SLP222 P0000 T01000089=
201412231922 SPECI KSEA 231922Z 16007KT 10SM -RA BKN007 BKN014 OVC055 09/08 A3018 RMK AO2 RAB21 P0000=
201412231916 SPECI KSEA 231916Z 16009KT 10SM SCT008 BKN013 OVC055 09/07 A3018 RMK AO2=
201412231853 METAR KSEA 231853Z 17006KT 10SM FEW008 BKN027 OVC060 08/06 A3020 RMK AO2 DZE1758RAB1758E14 SLP236 P0001 T00830061=
201412231844 SPECI KSEA 231844Z 16008KT 10SM FEW007 BKN027 OVC060 08/06 A3021 RMK AO2 DZE1758RAB1758E14 P0001=
201412231830 SPECI KSEA 231830Z 16011KT 10SM FEW008 SCT020 OVC055 08/05 A3021 RMK AO2 DZE1758RAB1758E14 P0001=
201412231803 SPECI KSEA 231803Z 14011KT 6SM -RA FEW012 SCT019 OVC049 07/04 A3021 RMK AO2 DZE1758RAB1758 P0000=
201412231753 METAR KSEA 231753Z 15010KT 6SM -DZ SCT012 BKN019 OVC050 07/04 A3022 RMK AO2 RAB21E36DZB53 SLP241 P0000 60002 T00720039 10078 20061 55005=
201412231653 METAR KSEA 231653Z 16006KT 10SM BKN019 OVC035 07/04 A3022 RMK AO2 RAE51 SLP241 P0002 T00670039=
201412231553 METAR KSEA 231553Z 16003KT 8SM -RA OVC019 07/03 A3022 RMK AO2 RAB51 SLP243 P0000 T00720028=
201412231453 METAR KSEA 231453Z 14006KT 10SM BKN026 OVC040 07/03 A3023 RMK AO2 SLP246 T00720028 58007=
201412231443 SPECI KSEA 231443Z 14005KT 10SM BKN026 OVC038 07/03 A3024 RMK AO2=
201412231353 METAR KSEA 231353Z 00000KT 10SM BKN035 OVC043 08/03 A3025 RMK AO2 SLP251 T00780028=
201412231253 METAR KSEA 231253Z 16004KT 10SM FEW035 OVC060 07/02 A3025 RMK AO2 SLP253 T00670022=
201412231153 METAR KSEA 231153Z 13007KT 10SM FEW038 BKN080 OVC100 07/02 A3025 RMK AO2 SLP252 T00720017 10078 20061 58018=
201412231053 METAR KSEA 231053Z 00000KT 10SM BKN070 OVC080 07/03 A3030=
201412230953 METAR KSEA 230953Z 17003KT 10SM OVC100 07/03 A3030 RMK AO2 SLP269 T00670028=
201412230853 METAR KSEA 230853Z 09004KT 10SM OVC095 07/02 A3031 RMK AO2 SLP270 T00720022 58012=
201412230753 METAR KSEA 230753Z 14004KT 10SM OVC090 07/03 A3033 RMK AO2 SLP277 T00720028 401060061=
201412230653 METAR KSEA 230653Z 00000KT 10SM OVC100 07/04 A3034 RMK AO2 SLP283 T00670039=
201412230553 METAR KSEA 230553Z 14004KT 10SM BKN095 OVC150 07/03 A3034 RMK AO2 SLP283 T00720033 10094 20067 58006=
201412230453 METAR KSEA 230453Z 09004KT 10SM BKN110 OVC180 08/04 A3035 RMK AO2 SLP286 T00780039=
201412230353 METAR KSEA 230353Z 14003KT 10SM BKN110 OVC180 08/04 A3035 RMK AO2 SLP287 T00780039=
201412230253 METAR KSEA 230253Z 07003KT 10SM SCT120 BKN180 08/04 A3036 RMK AO2 SLP289 T00830039 56005=
201412230153 METAR KSEA 230153Z 00000KT 10SM BKN120 08/03 A3036 RMK AO2 SLP289 T00830033=
201412230053 METAR KSEA 230053Z 00000KT 10SM BKN140 08/05 A3037 RMK AO2 SLP291 T00830050=
201412222353 METAR KSEA 222353Z 00000KT 10SM FEW026 BKN140 09/06 A3038 RMK AO2 SLP294 T00890056 10106 20078 53003=
201412222253 METAR KSEA 222253Z 21003KT 10SM FEW026 BKN140 09/05 A3038 RMK AO2 SLP294 T00940050=
201412222240 SPECI KSEA 222240Z 20004KT 10SM SCT026 BKN140 09/06 A3037 RMK AO2=
201412222218 SPECI KSEA 222218Z 21003KT 10SM FEW023 BKN028 BKN140 10/05 A3037 RMK AO2=
201412222153 METAR KSEA 222153Z 20004KT 10SM FEW020 BKN140 11/05 A3036 RMK AO2 SLP289 T01060050=
201412222053 METAR KSEA 222053Z 26003KT 10SM FEW020 BKN140 11/05 A3037 RMK AO2 SLP290 T01060050 55002=
201412221953 METAR KSEA 221953Z 00000KT 10SM FEW018 BKN035 BKN150 10/04 A3036 RMK AO2 SLP289 T01000044=
201412221901 SPECI KSEA 221901Z 17005KT 10SM FEW016 SCT025 BKN160 09/04 A3037 RMK AO2=
201412221853 METAR KSEA 221853Z 17004KT 10SM FEW016 BKN025 BKN160 09/05 A3037 RMK AO2 SLP292 T00890050=
201412221820 SPECI KSEA 221820Z 15005KT 10SM FEW016 BKN028 BKN160 09/04 A3038 RMK AO2=
201412221753 METAR KSEA 221753Z 00000KT 10SM FEW015 BKN160 08/05 A3037 RMK AO2 SLP292 T00780050 10089 20061 53027=
201412221653 METAR KSEA 221653Z 12008KT 10SM FEW025 BKN160 08/04 A3034=
201412221553 METAR KSEA 221553Z 13004KT 10SM FEW023 SCT075 07/03 A3032 RMK AO2 SLP274 T00720033=
201412221453 METAR KSEA 221453Z 14004KT 10SM FEW023 07/03 A3029 RMK AO2 SLP265 T00670028 53025=
201412221353 METAR KSEA 221353Z 10004KT 10SM FEW022 08/03 A3025 RMK AO2 SLP249 T00780033=
201412221253 METAR KSEA 221253Z 09004KT 10SM SCT025 08/06 A3023 RMK AO2 SLP245 T00780061=
201412221153 METAR KSEA 221153Z 18003KT 10SM FEW024 SCT030 07/06 A3021 RMK AO2 SLP239 T00720056 10100 20067 53027=
201412221053 METAR KSEA 221053Z 00000KT 10SM SCT035 08/06 A3018 RMK AO2 SLP227 T00780056=
201412220953 METAR KSEA 220953Z 20003KT 10SM FEW019 08/06 A3015 RMK AO2 SLP217 T00780056=
201412220853 METAR KSEA 220853Z 24006KT 10SM SCT015 BKN100 10/07 A3013 RMK AO2 SLP211 T01000067 53019=
201412220753 METAR KSEA 220753Z 20006KT 10SM SCT013 BKN095 10/08 A3011 RMK AO2 SLP204 T01000078 401280100=
201412220653 METAR KSEA 220653Z 21009KT 10SM SCT013 OVC085 10/08 A3009 RMK AO2 SLP197 T01000078=
201412220553 METAR KSEA 220553Z 21011KT 10SM SCT015 OVC110 10/08 A3008 RMK AO2 SLP193 T01000078 10111 20100 50001=
201412220453 METAR KSEA 220453Z 21010KT 10SM SCT015 OVC120 11/07 A3010=
201412220353 METAR KSEA 220353Z 22011KT 10SM SCT017 OVC140 10/07 A3008 RMK AO2 SLP195 T01000072=
201412220332 SPECI KSEA 220332Z 21010KT 10SM SCT017 OVC140 11/07 A3007 RMK AO2=
201412220253 METAR KSEA 220253Z 20009KT 10SM BKN017 OVC140 11/07 A3007 RMK AO2 SLP191 T01060072 51022=
201412220200 SPECI KSEA 220200Z 19008KT 10SM BKN019 10/07 A3006 RMK AO2=
201412220153 METAR KSEA 220153Z 19008KT 10SM SCT022 OVC140 10/07 A3006 RMK AO2 SLP188 T01000072=
201412220053 METAR KSEA 220053Z 18005KT 10SM FEW016 OVC140 11/07 A3003=
201412212353 METAR KSEA 212353Z 22011KT 10SM FEW025 BKN110 OVC150 11/07 A3001 RMK AO2 SLP168 T01110072 10128 20106 50018=
201412212253 METAR KSEA 212253Z 23009G20KT 10SM SCT025 BKN090 OVC220 12/07 A3002 RMK AO2 PRESRR SLP171 T01220067=
201412212153 METAR KSEA 212153Z 22012G21KT 10SM SCT018 BKN130 OVC220 12/07 A2999 RMK AO2 SLP162 T01220072=
201412212143 SPECI KSEA 212143Z 22014G19KT 10SM SCT018 BKN130 OVC220 12/07 A2999 RMK AO2=
201412212053 METAR KSEA 212053Z 21011G17KT 10SM BKN018 BKN120 BKN210 12/08 A2996 RMK AO2 SLP150 T01170083 51008=
201412212023 SPECI KSEA 212023Z 21013G18KT 10SM BKN018 BKN120 BKN210 12/08 A2997 RMK AO2=
201412211953 METAR KSEA 211953Z 21010G18KT 10SM SCT020 BKN120 BKN200 12/08 A2995 RMK AO2 SLP148 T01170078=
201412211936 SPECI KSEA 211936Z 21010G16KT 10SM SCT018 SCT120 BKN200 11/08 A2994 RMK AO2=
201412211853 METAR KSEA 211853Z 23009G17KT 10SM BKN020 BKN025 BKN100 11/07 A2994 RMK AO2 SLP146 T01110072=
201412211753 METAR KSEA 211753Z 23004KT 10SM BKN018 11/08 A2993 RMK AO2 SLP142 T01060078 10111 20106 51047=
201412211653 METAR KSEA 211653Z 23008KT 10SM BKN014 11/08 A2989 RMK AO2 SLP126 T01060078=
201412211553 METAR KSEA 211553Z 21011G21KT 10SM OVC014 11/08 A2985 RMK AO2 SLP113 T01060078=
201412211453 METAR KSEA 211453Z 21012KT 10SM BKN012 11/08 A2979 RMK AO2 SLP094 T01060078 51018=
201412211353 METAR KSEA 211353Z 22010G21KT 10SM SCT016 11/08 A2978 RMK AO2 SLP092 T01060078=
201412211253 METAR KSEA 211253Z 22011G19KT 10SM FEW010 BKN100 11/07 A2976 RMK AO2 SLP086 T01060072=
201412211153 METAR KSEA 211153Z 22013G21KT 10SM FEW010 BKN100 11/07 A2974 RMK AO2 SLP076 60001 70063 T01060072 10128 20106 51042=
201412211053 METAR KSEA 211053Z 22014G20KT 10SM FEW010 BKN100 11/07 A2972 RMK AO2 PRESRR SLP070 T01060072=
201412210953 METAR KSEA 210953Z 23012G22KT 10SM BKN100 11/08 A2964=
201412210853 METAR KSEA 210853Z 22017G24KT 10SM FEW015 SCT100 12/09 A2961 RMK AO2 PK WND 22029/0821 SLP034 60001 T01170094 53039=
201412210814 SPECI KSEA 210814Z 22016G27KT 10SM SCT015 BKN095 12/09 A2956 RMK AO2 PK WND 22028/0755=
201412210753 METAR KSEA 210753Z 22019G35KT 10SM BKN015 12/09 A2954 RMK AO2 PK WND 24035/0744 SLP010 T01220094 401280067=
201412210653 METAR KSEA 210653Z 21021G30KT 10SM FEW009 BKN015 OVC021 12/10 A2952 RMK AO2 PK WND 22040/0617 RAE03 SLP004 P0001 T01220100=
201412210635 SPECI KSEA 210635Z 22018G27KT 10SM FEW009 SCT015 OVC021 12/11 A2951 RMK AO2 PK WND 22040/0617 RAE03 P0001=
201412210611 SPECI KSEA 210611Z 22022G34KT 10SM SCT009 BKN014 OVC021 12/11 A2949 RMK AO2 PK WND 23034/0603 RAE03 P0001=
201412210607 SPECI KSEA 210607Z 21019G34KT 10SM BKN009 BKN014 OVC021 12/11 A2950 RMK AO2 PK WND 23034/0603 RAE03 P0001=
201412210553 METAR KSEA 210553Z 21014G29KT 10SM -RA OVC011 12/11 A2949 RMK AO2 PK WND 21029/0549 RAB47 SLP994 P0000 60010 T01220111 10128 20094 51011=
201412210453 METAR KSEA 210453Z 20017G25KT 10SM BKN011 OVC017 12/11 A2949 RMK AO2 PK WND 21031/0442 RAB14E31 SLP992 P0000 T01220111=
201412210353 METAR KSEA 210353Z 20017G23KT 10SM BKN009 BKN011 OVC016 12/11 A2948 RMK AO2 RAE12 SLP988 P0001 T01220111=
201412210253 METAR KSEA 210253Z 19016G25KT 10SM -RA BKN009 OVC015 12/11 A2946 RMK AO2 PK WND 20026/0239 SLP983 P0001 60009 T01220106 57006=
201412210153 METAR KSEA 210153Z 19014KT 4SM -RA BR BKN009 OVC021 12/10 A2947 RMK AO2 RAB02 SLP986 P0005 T01170100=
201412210053 METAR KSEA 210053Z 16012KT 5SM BR FEW017 BKN023 OVC027 10/09 A2947 RMK AO2 RAE45 SLP986 P0003 T01000089=
201412202353 METAR KSEA 202353Z 15008KT 5SM -RA BR OVC021 09/08 A2948 RMK AO2 SLP989 P0004 60030 T00940083 10094 20072 56023=
201412202337 SPECI KSEA 202337Z 16006KT 3SM -RA BR OVC025 09/08 A2947 RMK AO2 SFC VIS 5 P0003=
201412202314 SPECI KSEA 202314Z 15005KT 2 1/2SM -RA BR OVC023 09/08 A2950 RMK AO2 TWR VIS 3 P0001=
201412202253 METAR KSEA 202253Z 14009KT 8SM -RA BKN025 OVC032 09/08 A2950 RMK AO2 SLP995 P0005 T00940078=
201412202153 METAR KSEA 202153Z 16007KT 8SM -RA OVC027 09/07 A2952 RMK AO2 SLP004 P0004 T00890072=
201412202053 METAR KSEA 202053Z 13009KT 5SM -RA BR BKN031 OVC060 08/07 A2955 RMK AO2 SLP013 P0007 60017 T00830067 58028=
201412201953 METAR KSEA 201953Z 13010KT 4SM -RA BR OVC022 08/06 A2959 RMK AO2 SLP027 P0008 T00780061=
201412201916 SPECI KSEA 201916Z 11008KT 4SM R16L/6000VP6000FT -RA BR BKN020 OVC025 08/06 A2961 RMK AO2 P0003=
201412201853 METAR KSEA 201853Z 10009KT 2 1/2SM -RA BR OVC020 08/06 A2962 RMK AO2 RAE1759B18 SLP037 P0002 T00780061=
201412201753 METAR KSEA 201753Z 09008KT 3SM -RA BR OVC022 07/06 A2963 RMK AO2 DZE08RAB08 SLP042 P0001 60022 T00720061 10078 20067 55008=
201412201653 METAR KSEA 201653Z 07009KT 4SM -DZ BR OVC026 07/06 A2963 RMK AO2 RAE1555B22E31DZB49 SLP040 P0000 T00720056=
201412201553 METAR KSEA 201553Z 10006KT 7SM -RA OVC031 07/05 A2964 RMK AO2 SLP042 P0006 T00720050=
201412201453 METAR KSEA 201453Z 06004KT 9SM -RA OVC044 07/05 A2966 RMK AO2 SLP049 P0011 60015 T00720050 56026=
201412201353 METAR KSEA 201353Z 11008KT 10SM -RA OVC042 07/04 A2967 RMK AO2 RAB14 SLP055 P0002 T00720044=
201412201253 METAR KSEA 201253Z 11006KT 10SM OVC044 07/04 A2970 RMK AO2 RAE50 SLP064 P0002 T00670044=
201412201153 METAR KSEA 201153Z 12009KT 10SM -RA OVC042 07/04 A2973 RMK AO2 SLP076 P0002 60014 70014 T00670044 10083 20067 58036=
201412201053 METAR KSEA 201053Z 12010KT 10SM -RA OVC040 07/04 A2977 RMK AO2 SLP088 P0003 T00670039=
201412200953 METAR KSEA 200953Z 12009KT 8SM -RA OVC038 07/04 A2981 RMK AO2 SLP101 P0005 T00720044=
201412200853 METAR KSEA 200853Z 11007KT 8SM -RA OVC038 07/04 A2984 RMK AO2 SLP112 P0004 60004 T00720039 58011=
201412200753 METAR KSEA 200753Z 11005KT 10SM -RA OVC040 08/03 A2987=
201412200653 METAR KSEA 200653Z 15006KT 10SM SCT065 BKN080 OVC100 08/02 A2987 RMK AO2 SLP122 T00780022=
201412200553 METAR KSEA 200553Z 13008KT 10SM BKN100 OVC180 08/02 A2987 RMK AO2 SLP123 T00830022 10100 20078 58026=
201412200453 METAR KSEA 200453Z 13008KT 10SM FEW050 OVC150 08/02 A2991 RMK AO2 SLP136 T00830022=
201412200353 METAR KSEA 200353Z 15008KT 10SM BKN055 09/02 A2994 RMK AO2 SLP145 T00890022=
201412200253 METAR KSEA 200253Z 18006KT 10SM SCT049 BKN060 BKN100 09/02 A2995 RMK AO2 SLP149 T00940022 56002=
201412200153 METAR KSEA 200153Z 19006KT 10SM SCT045 BKN060 09/03 A2996 RMK AO2 SLP151 T00890028=
201412200053 METAR KSEA 200053Z 18007KT 10SM SCT040 BKN055 BKN080 10/03 A2995 RMK AO2 SLP148 T01000028=
201412192353 METAR KSEA 192353Z 18011KT 10SM SCT045 BKN065 OVC080 10/03 A2996 RMK AO2 SLP151 60000 T01000033 10111 20089 55000=
201412192253 METAR KSEA 192253Z 19009KT 10SM SCT036 BKN050 BKN250 10/03 A2995 RMK AO2 SLP150 T01000033=
201412192153 METAR KSEA 192153Z 17011G15KT 10SM FEW025 BKN050 BKN250 11/04 A2995 RMK AO2 SLP148 SHRA NW T01060044=
201412192053 METAR KSEA 192053Z 20011G16KT 10SM SCT025 SCT048 BKN250 10/04 A2996 RMK AO2 RAB42E51 SLP151 P0000 60000 T01000044 51012=
201412191953 METAR KSEA 191953Z 21011G18KT 10SM SCT035 BKN048 10/05 A2995 RMK AO2 SLP151 T01000050=
201412191853 METAR KSEA 191853Z 19011KT 10SM FEW035 SCT050 SCT230 10/05 A2994 RMK AO2 SLP147 T01000050=
201412191753 METAR KSEA 191753Z 19016KT 10SM FEW034 SCT050 BKN230 09/05 A2992 RMK AO2 SLP139 T00890050 10089 20078 51022=
201412191653 METAR KSEA 191653Z 18008KT 10SM BKN032 BKN050 BKN180 08/05 A2991 RMK AO2 SLP135 T00830050=
201412191553 METAR KSEA 191553Z 19009KT 10SM OVC033 08/04 A2988 RMK AO2 SLP126 T00830044=
201412191453 METAR KSEA 191453Z 19007KT 10SM FEW015 SCT046 OVC180 08/05 A2985 RMK AO2 SLP117 T00780050 51009=
201412191353 METAR KSEA 191353Z 17006KT 10SM BKN046 OVC055 08/06 A2985 RMK AO2 SLP116 T00830056=
201412191253 METAR KSEA 191253Z 16006KT 10SM FEW046 BKN060 BKN150 08/06 A2983 RMK AO2 RAE1154 SLP110 T00830061=
201412191153 METAR KSEA 191153Z 17005KT 10SM -RA BKN031 OVC044 08/07 A2983 RMK AO2 RAB06 SLP107 P0003 60027 70056 T00830067 10094 20083 51008=
201412191053 METAR KSEA 191053Z 17005KT 10SM BKN029 OVC035 08/07 A2982 RMK AO2 RAE23 SLP106 P0001 T00830067=
201412191042 SPECI KSEA 191042Z 20003KT 10SM BKN027 OVC038 08/08 A2982 RMK AO2 RAE23 P0001=
201412190953 METAR KSEA 190953Z 16008KT 10SM -RA OVC044 09/07 A2981 RMK AO2 SLP103 P0005 T00890072=
201412190853 METAR KSEA 190853Z 16010KT 10SM -RA FEW013 OVC040 09/07 A2980 RMK AO2 SLP099 P0003 60018 T00890072 51023=
201412190808 SPECI KSEA 190808Z 19008KT 10SM -RA SCT005 OVC039 09/08 A2979 RMK AO2 P0001=
201412190753 METAR KSEA 190753Z 19006KT 10SM -RA BKN007 BKN014 OVC037 09/08 A2979 RMK AO2 SLP094 P0008 T00940078 400940067=
201412190722 SPECI KSEA 190722Z 19007KT 10SM -RA BKN007 BKN014 OVC018 09/08 A2978 RMK AO2 P0007=
201412190705 SPECI KSEA 190705Z 21006KT 4SM RA BR SCT007 BKN019 OVC031 09/08 A2978 RMK AO2 P0004=
201412190653 METAR KSEA 190653Z 22007KT 5SM RA BR SCT013 BKN019 OVC033 09/07 A2977 RMK AO2 SLP089 P0007 T00890072=
201412190553 METAR KSEA 190553Z 13005KT 9SM -RA OVC046 08/06 A2973 RMK AO2 SLP076 P0004 60023 T00830056 10094 20078 55002=
201412190453 METAR KSEA 190453Z 12006KT 10SM -RA OVC060 08/06 A2972 RMK AO2 SLP072 P0005 T00830056=
201412190353 METAR KSEA 190353Z 11009KT 10SM -RA OVC050 08/04 A2973 RMK AO2 RAB06 SLP076 P0008 T00830044=
201412190253 METAR KSEA 190253Z 11009KT 10SM OVC046 08/04 A2974 RMK AO2 RAE31 SLP079 P0003 60006 T00830044 56022=
201412190153 METAR KSEA 190153Z 11010KT 10SM -RA OVC050 08/05 A2976 RMK AO2 RAE0055B27 SLP085 P0000 T00830050=
201412190053 METAR KSEA 190053Z 11010KT 10SM -RA BKN041 OVC049 09/06 A2977 RMK AO2 SLP089 P0003 T00890061=
201412182353 METAR KSEA 182353Z 13008KT 5SM -RA BR FEW034 BKN044 OVC065 09/07 A2981=
201412182253 METAR KSEA 182253Z 19004KT 7SM -RA FEW030 BKN049 OVC070 09/06 A2982 RMK AO2 RAB17 SLP106 P0001 T00890061=
201412182153 METAR KSEA 182153Z 14006KT 10SM BKN034 OVC060 09/05 A2983 RMK AO2 RAE01 SLP107 P0000 T00940050=
201412182053 METAR KSEA 182053Z 12006KT 10SM -RA BKN040 OVC055 09/05 A2984 RMK AO2 RAE04B30 SLP112 P0000 60002 T00890050 58026=
201412181953 METAR KSEA 181953Z 13005KT 10SM -RA BKN045 OVC060 08/05 A2988 RMK AO2 RAB33 SLP125 P0002 T00830050=
201412181853 METAR KSEA 181853Z 11006KT 10SM FEW044 BKN065 OVC200 08/04 A2990=
201412181753 METAR KSEA 181753Z 11008KT 10SM FEW043 OVC080 08/03 A2992 RMK AO2 SLP140 T00780033 10078 20067 58005=
201412181653 METAR KSEA 181653Z 15005KT 10SM BKN036 OVC050 07/04 A2993 RMK AO2 SLP142 T00670044 $=
201412181553 METAR KSEA 181553Z 12003KT 10SM FEW039 OVC047 07/06 A2994 RMK AO2 SLP145 T00720056 $=
201412181453 METAR KSEA 181453Z 11004KT 10SM FEW035 BKN065 OVC200 07/05 A2993 RMK AO2 SLP145 T00720050 58000 $=
201412181353 METAR KSEA 181353Z 15004KT 10SM FEW043 OVC070 07/06 A2994 RMK AO2 SLP145 T00670056 $=
201412181253 METAR KSEA 181253Z 14004KT 10SM FEW025 BKN038 OVC090 07/06 A2994 RMK AO2 SLP145 T00720056 $=
201412181153 METAR KSEA 181153Z 15005KT 3SM BR SCT005 BKN016 OVC021 07/06 A2995 RMK AO2 SFC VIS 6 DZB02E27 SLP149 P0000 60009 70017 T00720061 10072 20072 50002 $=
201412181140 SPECI KSEA 181140Z 16006KT 3/4SM BR BKN005 OVC016 07/06 A2995 RMK AO2 SFC VIS 6 DZB02E27 P0000 $=
201412181115 SPECI KSEA 181115Z 18007KT 4SM -DZ BR OVC006 07/06 A2995 RMK AO2 DZB02 P0000 $=
201412181053 METAR KSEA 181053Z 18006KT 7SM BKN004 OVC008 07/06 A2995 RMK AO2 RAE04 SLP150 P0001 T00720061 $=
201412180953 METAR KSEA 180953Z 16005KT 1SM -RA BR BKN004 OVC010 07/06 A2994=
201412180853 METAR KSEA 180853Z 18004KT 1SM -RA BR BKN003 BKN026 OVC033 07/06 A2993 RMK AO2 SFC VIS 3 RAB0755E0759B26 SLP143 P0001 60003 T00720061 51006 $=
201412180805 SPECI KSEA 180805Z 17003KT 1SM R16L/6000VP6000FT BR BKN003 BKN014 OVC029 07/06 A2993 RMK AO2 SFC VIS 2 1/2 RAB0755E0759 P0000 $=
201412180753 METAR KSEA 180753Z 18003KT 2SM BR SCT003 BKN012 OVC036 07/06 A2993 RMK AO2 SFC VIS 4 RAB09E40 SLP142 P0001 T00720061 400890061 $=
201412180746 SPECI KSEA 180746Z 18003KT 2SM BR SCT003 BKN016 OVC036 07/06 A2993 RMK AO2 SFC VIS 4 RAB09E40 P0001 $=
201412180733 SPECI KSEA 180733Z 17003KT 2SM -RA BR FEW008 BKN014 OVC038 07/06 A2993 RMK AO2 SFC VIS 6 RAB09 P0000 $=
201412180653 METAR KSEA 180653Z 00000KT 7SM FEW008 OVC040 07/06 A2993 RMK AO2 SLP142 P0001 T00720061 $=
201412180553 METAR KSEA 180553Z 00000KT 3SM BR FEW003 SCT029 OVC036 07/06 A2991 RMK AO2 RAB12E38 SLP138 P0000 60002 T00720061 10083 20072 51005=
201412180453 METAR KSEA 180453Z 00000KT 8SM FEW018 OVC035 08/07 A2991 RMK AO2 RAE48 SLP138 P0002 T00780067=
201412180353 METAR KSEA 180353Z 00000KT 7SM -RA SCT020 BKN027 OVC034 08/06 A2991 RMK AO2 DZB13E49RAB49 SLP136 P0000 T00780061=
201412180253 METAR KSEA 180253Z 14004KT 10SM BKN035 OVC043 08/06 A2990 RMK AO2 SLP132 60000 T00830061 51015=
201412180153 METAR KSEA 180153Z 16003KT 10SM OVC039 08/06 A2989 RMK AO2 RAE11 SLP129 P0000 T00780061=
201412180053 METAR KSEA 180053Z 00000KT 10SM -RA OVC045 08/06 A2987 RMK AO2 RAB50 SLP124 P0000 T00830061=
201412172353 METAR KSEA 172353Z 22003KT 10SM BKN050 BKN200 08/05 A2985 RMK AO2 SLP117 60000 T00780050 10089 20078 53006=
201412172253 METAR KSEA 172253Z 21003KT 10SM OVC048 08/05 A2984 RMK AO2 RAE02 SLP113 P0000 T00830050=
201412172153 METAR KSEA 172153Z 26003KT 10SM -RA BKN044 OVC080 09/05 A2983 RMK AO2 RAB51 SLP110 P0000 T00890050=
201412172053 METAR KSEA 172053Z VRB03KT 10SM FEW045 OVC060 09/04 A2984 RMK AO2 SLP110 T00890044 50003=
201412171953 METAR KSEA 171953Z 00000KT 10SM BKN049 OVC080 08/04 A2984 RMK AO2 SLP111 T00830044=
201412171853 METAR KSEA 171853Z 00000KT 10SM BKN042 OVC080 08/04 A2984 RMK AO2 SLP111 VIRGA S T00830044=
201412171753 METAR KSEA 171753Z 11005KT 10SM BKN043 OVC090 08/03 A2983 RMK AO2 SLP108 60006 T00830028 10083 20061 53006=
201412171653 METAR KSEA 171653Z 10006KT 10SM BKN041 OVC080 08/03 A2982 RMK AO2 RAE29 SLP105 P0001 T00780028=
201412171553 METAR KSEA 171553Z 09005KT 10SM -RA BKN041 OVC055 08/03 A2981 RMK AO2 RAB30 SLP102 P0000 T00780028=
201412171453 METAR KSEA 171453Z 07004KT 10SM OVC041 07/03 A2981=
201412171353 METAR KSEA 171353Z 09006KT 10SM -RA OVC045 07/03 A2981 RMK AO2 SLP101 P0002 T00670033=
201412171253 METAR KSEA 171253Z 11009KT 10SM -RA OVC038 07/03 A2981=
201412171153 METAR KSEA 171153Z 14003KT 10SM -RA OVC043 07/04 A2982 RMK AO2 RAB17 SLP104 P0001 60001 70001 T00670044 10089 20061 50004=
201412171053 METAR KSEA 171053Z 20003KT 10SM BKN055 OVC075 08/01 A2982 RMK AO2 SLP104 T00780006=
201412170953 METAR KSEA 170953Z 15003KT 10SM BKN100 09/M01 A2980 RMK AO2 SLP099 T00891006=
201412170853 METAR KSEA 170853Z 11009KT 10SM BKN130 09/M01 A2980 RMK AO2 SLP099 T00891011 58007=
201412170753 METAR KSEA 170753Z 11010KT 10SM SCT200 09/M01 A2982 RMK AO2 SLP103 T00891011 401000083=
201412170653 METAR KSEA 170653Z 11009KT 10SM SCT200 08/M01 A2982 RMK AO2 SLP105 T00831011=
201412170553 METAR KSEA 170553Z 11011G15KT 10SM SCT200 08/M01 A2982 RMK AO2 SLP106 T00831006 10100 20083 56005=
201412170453 METAR KSEA 170453Z 11010KT 10SM SCT200 08/M01 A2983 RMK AO2 SLP108 T00831006=
201412170353 METAR KSEA 170353Z 11009KT 10SM SCT050 08/M01 A2983 RMK AO2 SLP110 T00831006=
201412170253 METAR KSEA 170253Z 12009KT 10SM SCT050 09/M01 A2984 RMK AO2 SLP112 T00891006 55002=
201412170153 METAR KSEA 170153Z 11008KT 10SM OVC050 09/00 A2984 RMK AO2 SLP111 T00940000=
201412170053 METAR KSEA 170053Z 11006KT 10SM BKN045 OVC050 10/01 A2985 RMK AO2 SLP114 T01000011=
201412162353 METAR KSEA 162353Z 08006KT 10SM OVC037 09/02 A2984 RMK AO2 SLP113 60000 T00940017 10100 20089 50004=
201412162253 METAR KSEA 162253Z 08006KT 10SM OVC035 09/03 A2985 RMK AO2 RAB2159E09 SLP114 P0000 T00940028=
201412162153 METAR KSEA 162153Z 11007KT 10SM OVC035 09/02 A2984 RMK AO2 SLP111 T00940017=
201412162053 METAR KSEA 162053Z 10008KT 10SM OVC037 09/02 A2983 RMK AO2 SLP109 60000 T00940017 58005=
201412161953 METAR KSEA 161953Z 12007KT 10SM BKN037 OVC050 09/02 A2984 RMK AO2 SLP112 T00940017=
201412161853 METAR KSEA 161853Z 11007KT 10SM BKN038 OVC050 09/01 A2985 RMK AO2 RAE36 SLP115 P0000 T00940011=
201412161753 METAR KSEA 161753Z 10006KT 10SM -RA BKN039 OVC070 09/00 A2985 RMK AO2 RAE30B51 SLP114 P0000 60000 T00890000 10094 20083 51006=
201412161653 METAR KSEA 161653Z 14004KT 10SM -RA BKN042 OVC055 08/00 A2985 RMK AO2 RAB53 SLP114 P0000 T00830000=
201412161553 METAR KSEA 161553Z 14005KT 10SM OVC050 08/M02 A2984 RMK AO2 SLP111 T00831017=
201412161453 METAR KSEA 161453Z 12009KT 10SM OVC048 09/M02 A2983 RMK AO2 SLP108 T00891017 53000=
201412161353 METAR KSEA 161353Z 11009KT 10SM BKN045 OVC055 09/M02 A2982 RMK AO2 SLP107 T00891017=
201412161253 METAR KSEA 161253Z 10006KT 10SM BKN050 OVC060 09/M02 A2982 RMK AO2 SLP106 T00891017=
201412161153 METAR KSEA 161153Z 12009KT 10SM OVC060 09/M02 A2983 RMK AO2 SLP107 T00941022 10100 20083 50002=
201412161053 METAR KSEA 161053Z 11009KT 10SM SCT048 OVC060 09/M02 A2983 RMK AO2 SLP109 T00891017=
201412160953 METAR KSEA 160953Z 17005KT 10SM BKN060 OVC070 09/M02 A2983=
201412160853 METAR KSEA 160853Z 11013KT 10SM OVC090 09/M03 A2982 RMK AO2 SLP106 T00941033 58005=
201412160753 METAR KSEA 160753Z 10011G17KT 10SM OVC085 10/M03 A2983 RMK AO2 SLP106 T01001033 401220067=
201412160653 METAR KSEA 160653Z 11011KT 10SM OVC070 10/M03 A2984 RMK AO2 SLP111 T01001028=
201412160553 METAR KSEA 160553Z 12016G22KT 10SM OVC065 09/M03 A2984 RMK AO2 SLP110 T00941028 10111 20094 50000=
201412160453 METAR KSEA 160453Z 12018KT 10SM BKN065 OVC085 10/M03 A2984 RMK AO2 SLP112 T01001033=
201412160353 METAR KSEA 160353Z 13016G22KT 10SM OVC065 10/M03 A2983 RMK AO2 SLP109 T01001033=
201412160253 METAR KSEA 160253Z 12017KT 10SM BKN075 OVC200 10/M03 A2983 RMK AO2 SLP110 T01001033 56006=
201412160153 METAR KSEA 160153Z 12014G22KT 10SM BKN070 OVC200 10/M03 A2984 RMK AO2 SLP111 T01001028=
201412160053 METAR KSEA 160053Z 12013G22KT 10SM BKN060 BKN100 OVC200 11/M03 A2984 RMK AO2 SLP113 T01061028=
201412152353 METAR KSEA 152353Z 11010KT 10SM SCT070 BKN090 BKN250 11/M03 A2985 RMK AO2 SLP117 T01111033 10122 20106 58008=
201412152253 METAR KSEA 152253Z 12010KT 10SM BKN070 BKN120 BKN250 12/M03 A2987 RMK AO2 SLP121 T01171028=
201412152153 METAR KSEA 152153Z 12009KT 10SM BKN070 BKN110 12/M03 A2988 RMK AO2 SLP124 SHRA DSNT W T01171028=
201412152053 METAR KSEA 152053Z 12008KT 10SM BKN065 BKN250 12/M03 A2988 RMK AO2 SLP125 T01171028 58015=
201412151953 METAR KSEA 151953Z 12013KT 10SM FEW055 SCT250 12/M02 A2990 RMK AO2 SLP132 T01221022=
201412151853 METAR KSEA 151853Z 13009KT 10SM SCT055 SCT085 12/M02 A2992 RMK AO2 SLP138 T01171022=
201412151753 METAR KSEA 151753Z 11011KT 10SM BKN055 BKN120 11/M02 A2992 RMK AO2 SLP140 T01061022 10111 20067 53000=
201412151653 METAR KSEA 151653Z 12010G16KT 10SM BKN055 BKN120 09/M03 A2992 RMK AO2 SLP139 T00941028=
201412151553 METAR KSEA 151553Z 11012KT 10SM BKN065 BKN120 09/M04 A2992 RMK AO2 SLP138 T00891039=
201412151453 METAR KSEA 151453Z 10009KT 10SM BKN090 BKN210 08/M04 A2992 RMK AO2 SLP140 T00831039 58009=
201412151353 METAR KSEA 151353Z 12012KT 10SM FEW080 07/M04 A2994 RMK AO2 SLP147 T00721039=
201412151253 METAR KSEA 151253Z 13012KT 10SM CLR 07/M04 A2995 RMK AO2 SLP149 T00721039=
201412151153 METAR KSEA 151153Z 11010KT 10SM CLR 07/M04 A2995 RMK AO2 SLP149 T00721044 10083 20067 58008=
201412151053 METAR KSEA 151053Z 11008G16KT 10SM CLR 07/M04 A2996 RMK AO2 SLP153 T00721044=
201412150953 METAR KSEA 150953Z 12010G19KT 10SM CLR 08/M04 A2997 RMK AO2 SLP156 T00781044=
201412150853 METAR KSEA 150853Z 10006KT 10SM CLR 07/M04 A2998 RMK AO2 SLP158 T00671044 58010=
201412150753 METAR KSEA 150753Z 10007KT 10SM CLR 08/M04 A2999 RMK AO2 SLP161 T00781039 401280017=
201412150653 METAR KSEA 150653Z 11010KT 10SM CLR 08/M04 A3001 RMK AO2 PK WND 12026/0615 SLP170 T00781039=
201412150553 METAR KSEA 150553Z 10012G18KT 10SM CLR 08/M04 A3001 RMK AO2 SLP170 T00831039 10111 20078 52004=
201412150453 METAR KSEA 150453Z 12016G23KT 10SM CLR 08/M04 A3001 RMK AO2 SLP169 T00831039=
201412150353 METAR KSEA 150353Z 10006KT 10SM CLR 08/M04 A3000 RMK AO2 SLP166 T00831044=
201412150253 METAR KSEA 150253Z 08009KT 10SM CLR 09/M04 A3000 RMK AO2 SLP166 T00891044 56010=
201412150153 METAR KSEA 150153Z 07007KT 10SM CLR 09/M04 A3000 RMK AO2 SLP167 T00941044=
201412150053 METAR KSEA 150053Z 08010KT 10SM FEW200 10/M04 A3002 RMK AO2 SLP172 T01001039=
201412142353 METAR KSEA 142353Z 08012KT 10SM FEW250 11/M03 A3002 RMK AO2 SLP175 T01111033 10128 20028 56017=
201412142253 METAR KSEA 142253Z 10012G16KT 10SM FEW250 12/M03 A3004 RMK AO2 SLP178 T01221033=
201412142153 METAR KSEA 142153Z 10008KT 10SM FEW070 SCT240 13/M03 A3005 RMK AO2 SLP183 T01281033=
201412142053 METAR KSEA 142053Z 08009KT 10SM FEW070 SCT240 12/M01 A3007 RMK AO2 SLP191 T01171006 58024=
201412141953 METAR KSEA 141953Z 02004KT 10SM FEW070 SCT240 09/03 A3011 RMK AO2 SLP205 T00890033=
201412141853 METAR KSEA 141853Z 34004KT 10SM FEW003 SCT060 SCT210 05/03 A3014 RMK AO2 SLP216 T00500028=
201412141835 SPECI KSEA 141835Z 31003KT 8SM SCT001 BKN200 04/03 A3015 RMK AO2=
201412141808 SPECI KSEA 141808Z 01004KT 1/2SM R16L/1000V2800FT FG BKN001 BKN200 03/02 A3014 RMK AO2=
201412141753 METAR KSEA 141753Z 00000KT 1/2SM R16L/0600V1200FT FG BKN001 BKN200 03/02 A3015 RMK AO2 SLP218 T00280022 10028 20017 55004=
201412141744 SPECI KSEA 141744Z 00000KT 1/4SM R16L/0600VP6000FT FG VV001 03/02 A3015 RMK AO2 TWR VIS 1/2=
201412141653 METAR KSEA 141653Z 35004KT 1/4SM R16L/0800V1000FT FG VV001 02/02 A3014 RMK AO2 TWR VIS 1/2 SLP217 T00220017=
201412141611 SPECI KSEA 141611Z 02007KT 1/4SM R16L/0800V1000FT FG VV001 03/02 A3015 RMK AO2 TWR VIS 1/2=
201412141601 SPECI KSEA 141601Z 36006KT 1/4SM R16L/0800V2600FT FG VV001 02/02 A3015 RMK AO2 TWR VIS 1/2=
201412141553 METAR KSEA 141553Z 01006KT 1/4SM R16L/0800V1400FT FG VV001 02/02 A3015 RMK AO2 TWR VIS 1/2 SLP219 T00220017=
201412141524 SPECI KSEA 141524Z 02006KT 1/4SM R16L/0800V2600FT FG VV001 03/02 A3015 RMK AO2 TWR VIS 1/2=
201412141453 METAR KSEA 141453Z 02005KT 1/8SM R16L/1000FT FG VV001 02/02 A3016 RMK AO2 TWR VIS 1/2 SLP222 T00220017 56014=
201412141353 METAR KSEA 141353Z 04003KT 1/8SM R16L/0700V1000FT FG VV001 03/02 A3017 RMK AO2 TWR VIS 1/2 SLP224 T00280022=
201412141333 SPECI KSEA 141333Z 07003KT 1/8SM R16L/0700V0800FT FG VV001 03/02 A3017 RMK AO2 TWR VIS 1/2=
201412141253 METAR KSEA 141253Z 07006KT 1/4SM R16L/1200V1600FT FG VV001 03/02 A3018 RMK AO2 TWR VIS 1/2 SLP230 T00280022=
201412141153 METAR KSEA 141153Z 00000KT 1/2SM R16L/2000V6000FT FG VV002 03/03 A3020 RMK AO2 SLP235 T00330028 10061 20033 58003=
201412141053 METAR KSEA 141053Z 09004KT 1/8SM R16L/1000V1600FT FG VV001 04/03 A3021 RMK AO2 TWR VIS 1/2 SLP238 T00390033=
201412141002 SPECI KSEA 141002Z 13003KT 1/4SM R16L/1400V2200FT FG VV001 04/03 A3022 RMK AO2 TWR VIS 1/2=
201412140953 METAR KSEA 140953Z 11004KT 1/2SM R16L/1600VP6000FT FG VV001 04/04 A3022 RMK AO2 SLP241 T00440039=
201412140930 SPECI KSEA 140930Z 09005KT 3SM BR OVC002 05/04 A3021 RMK AO2=
201412140853 METAR KSEA 140853Z 02003KT 2SM BR BKN002 05/04 A3021 RMK AO2 SLP238 T00500044 55000=
201412140840 SPECI KSEA 140840Z 35006KT 2SM BR BKN002 06/05 A3021 RMK AO2=
201412140800 SPECI KSEA 140800Z 32004KT 1SM R16L/2600VP6000FT BR VV002 06/05 A3021 RMK AO2=
201412140753 METAR KSEA 140753Z 32005KT 1/8SM R16L/2200V4500FT FG VV001 06/05 A3021 RMK AO2 SLP238 T00560050 401000039=
201412140741 SPECI KSEA 140741Z 30003KT 1/8SM R16L/1200V2800FT FG VV001 05/04 A3021 RMK AO2=
201412140653 METAR KSEA 140653Z 34004KT 1/8SM R16L/1000V1400FT FG VV001 04/04 A3021 RMK AO2 SLP238 T00440039=
201412140634 SPECI KSEA 140634Z 05004KT 1/4SM R16L/1000V1400FT FG VV001 04/04 A3021 RMK AO2=
201412140607 SPECI KSEA 140607Z 04005KT 1/4SM R16L/1000V5000FT FG VV001 04/04 A3021 RMK AO2=
201412140553 METAR KSEA 140553Z 04005KT 1/4SM R16L/0800V1000FT FG VV001 05/04 A3021 RMK AO2 SLP239 T00500044 10078 20044 58006=
201412140504 SPECI KSEA 140504Z 03005KT 1/4SM R16L/1000V1200FT FG VV001 06/05 A3022 RMK AO2=
201412140453 METAR KSEA 140453Z 04006KT 1/4SM R16L/1400V3000FT FG VV001 06/05 A3022 RMK AO2 SLP243 T00560050=
201412140448 SPECI KSEA 140448Z 04006KT 1/2SM R16L/1600V4500FT FG VV001 06/05 A3022 RMK AO2=
201412140431 SPECI KSEA 140431Z 04005KT 3/4SM R16L/P6000FT BR BKN002 06/05 A3023 RMK AO2 TWR VIS 2=
201412140418 SPECI KSEA 140418Z 04005KT 3/4SM R16L/P6000FT BR BKN005 06/04 A3023 RMK AO2=
201412140353 METAR KSEA 140353Z 00000KT 8SM CLR 06/04 A3023 RMK AO2 SLP245 T00560044=
201412140253 METAR KSEA 140253Z 02004KT 10SM BKN043 06/04 A3023 RMK AO2 SLP244 T00610044 58000=
201412140153 METAR KSEA 140153Z 02005KT 10SM SCT230 07/05 A3023 RMK AO2 SLP246 T00670050=
201412140053 METAR KSEA 140053Z 00000KT 10SM FEW017 07/05 A3023 RMK AO2 SLP247 T00670050=
201412132353 METAR KSEA 132353Z 00000KT 10SM FEW014 08/05 A3023 RMK AO2 SLP244 T00780050 10100 20072 53002=
201412132253 METAR KSEA 132253Z 00000KT 10SM FEW015 10/06 A3022 RMK AO2 SLP240 T01000056=
201412132153 METAR KSEA 132153Z 26003KT 10SM FEW013 SCT018 BKN060 10/06 A3022 RMK AO2 SLP240 T01000056=
201412132127 SPECI KSEA 132127Z 28003KT 10SM SCT013 SCT018 BKN060 10/06 A3022 RMK AO2=
201412132053 METAR KSEA 132053Z 00000KT 10SM SCT010 BKN030 BKN055 09/06 A3022 RMK AO2 SLP241 T00890061 58001=
201412132020 SPECI KSEA 132020Z 00000KT 10SM SCT010 BKN030 BKN055 09/06 A3023 RMK AO2=
201412132010 SPECI KSEA 132010Z 00000KT 10SM BKN010 09/06 A3023 RMK AO2=
201412131953 METAR KSEA 131953Z 00000KT 10SM FEW010 SCT023 BKN031 08/06 A3023 RMK AO2 SLP243 T00830056=
201412131951 SPECI KSEA 131951Z 00000KT 10SM FEW008 SCT017 BKN031 08/06 A3023 RMK AO2=
201412131853 METAR KSEA 131853Z 00000KT 10SM OVC021 08/06 A3023 RMK AO2 SLP247 T00780061=
201412131816 SPECI KSEA 131816Z 27003KT 10SM FEW003 OVC019 07/06 A3023 RMK AO2=
201412131753 METAR KSEA 131753Z 24003KT 8SM BKN019 BKN060 07/06 A3023 RMK AO2 SLP244 T00720056 10072 20061 53020=
201412131706 SPECI KSEA 131706Z 00000KT 5SM BR SCT002 BKN022 07/06 A3021 RMK AO2=
201412131653 METAR KSEA 131653Z 00000KT 2SM BR SCT002 OVC022 07/06 A3020 RMK AO2 SFC VIS 4 SLP236 T00670056=
201412131615 SPECI KSEA 131615Z 00000KT 2SM BR BKN002 OVC015 06/05 A3019 RMK AO2 SFC VIS 5=
201412131608 SPECI KSEA 131608Z 00000KT 2SM BR SCT004 OVC015 06/05 A3019 RMK AO2 SFC VIS 6=
201412131553 METAR KSEA 131553Z 00000KT 9SM SCT004 OVC015 07/05 A3018 RMK AO2 SLP230 T00670050=
201412131453 METAR KSEA 131453Z 19004KT 10SM FEW006 BKN015 BKN055 06/05 A3016 RMK AO2 SLP223 T00610050 53016=
201412131433 SPECI KSEA 131433Z 19003KT 10SM SCT006 OVC015 07/06 A3016 RMK AO2=
201412131353 METAR KSEA 131353Z 00000KT 10SM BKN006 OVC013 07/05 A3015 RMK AO2 SLP218 T00670050=
201412131253 METAR KSEA 131253Z 00000KT 10SM OVC006 07/06 A3013 RMK AO2 SLP212 T00720056=
201412131202 SPECI KSEA 131202Z 17005KT 10SM SCT006 OVC010 07/05 A3012 RMK AO2=
201412131153 METAR KSEA 131153Z 17004KT 10SM BKN006 OVC010 07/06 A3012=
201412131053 METAR KSEA 131053Z 00000KT 10SM OVC006 08/06 A3011 RMK AO2 SLP204 T00780056=
201412131016 SPECI KSEA 131016Z 17004KT 10SM BKN006 OVC045 07/06 A3010 RMK AO2=
201412130953 METAR KSEA 130953Z 17004KT 10SM SCT006 BKN045 08/06 A3009=
201412130915 SPECI KSEA 130915Z 16004KT 10SM -RA SCT008 BKN036 OVC047 08/05 A3007 RMK AO2 RAB06 P0000=
201412130853 METAR KSEA 130853Z 00000KT 10SM OVC010 08/06 A3007 RMK AO2 SLP190 T00780056 51019=
201412130753 METAR KSEA 130753Z 15004KT 10SM OVC010 08/05 A3006 RMK AO2 SLP186 T00780050 401110072=
201412130653 METAR KSEA 130653Z 16004KT 10SM OVC011 08/06 A3004 RMK AO2 SLP180 T00780056=
201412130553 METAR KSEA 130553Z 18004KT 10SM OVC011 08/06 A3001 RMK AO2 SLP171 T00830056 10100 20072 53021=
201412130538 SPECI KSEA 130538Z 19006KT 10SM BKN011 08/06 A3001 RMK AO2=
201412130520 SPECI KSEA 130520Z 19006KT 10SM SCT013 BKN050 08/06 A3000 RMK AO2=
201412130453 METAR KSEA 130453Z 20004KT 10SM BKN013 OVC050 08/06 A2999 RMK AO2 SLP163 T00830056=
201412130444 SPECI KSEA 130444Z 19004KT 10SM BKN013 OVC050 08/06 A2999 RMK AO2=
201412130422 SPECI KSEA 130422Z 18003KT 10SM BKN015 BKN055 08/06 A2998 RMK AO2=
201412130353 METAR KSEA 130353Z 18004KT 10SM FEW030 SCT065 07/05 A2997 RMK AO2 SLP156 T00720050=
201412130253 METAR KSEA 130253Z 18004KT 10SM SCT027 BKN034 BKN050 08/06 A2995 RMK AO2 SLP149 T00780056 51025=
201412130153 METAR KSEA 130153Z 19004KT 10SM FEW020 SCT080 SCT250 08/06 A2993 RMK AO2 SLP141 T00830056=
201412130053 METAR KSEA 130053Z 21004KT 10SM FEW020 SCT080 SCT250 08/06 A2991 RMK AO2 SLP134 T00830056=
201412122353 METAR KSEA 122353Z 20005KT 10SM FEW020 SCT070 BKN250 10/07 A2988 RMK AO2 SLP124 T01000067 10111 20094 53016=
201412122253 METAR KSEA 122253Z 19006KT 10SM FEW020 SCT070 BKN250 11/06 A2985 RMK AO2 SLP116 T01060061=
201412122153 METAR KSEA 122153Z 19006KT 10SM FEW015 SCT060 BKN250 11/07 A2983 RMK AO2 SLP110 T01110067=
201412122053 METAR KSEA 122053Z 20006KT 10SM FEW014 SCT055 BKN250 11/07 A2983 RMK AO2 SLP107 T01060067 51008=
201412121953 METAR KSEA 121953Z 20007KT 10SM FEW013 BKN250 11/07 A2982 RMK AO2 SLP105 T01060072=
201412121853 METAR KSEA 121853Z 19008KT 10SM FEW019 BKN240 10/07 A2981 RMK AO2 SLP101 T01000067=
201412121828 SPECI KSEA 121828Z 22006KT 10SM FEW019 BKN240 09/06 A2981 RMK AO2=
201412121801 SPECI KSEA 121801Z 22006KT 10SM BKN019 BKN240 09/07 A2981 RMK AO2=
201412121753 METAR KSEA 121753Z 21005KT 10SM SCT020 BKN240 09/06 A2980 RMK AO2 SLP098 T00940061 10094 20089 53030=
201412121653 METAR KSEA 121653Z 21006KT 10SM FEW015 BKN180 09/06 A2977 RMK AO2 SLP087 T00940061=
201412121553 METAR KSEA 121553Z 19009KT 10SM FEW015 OVC180 09/06 A2974 RMK AO2 SLP077 T00940056=
201412121453 METAR KSEA 121453Z 19012KT 10SM SCT041 OVC150 09/06 A2971 RMK AO2 SLP067 T00940056 50012=
201412121353 METAR KSEA 121353Z 18008KT 10SM FEW033 BKN041 BKN150 09/06 A2972 RMK AO2 SLP068 T00940061=
201412121253 METAR KSEA 121253Z 19009KT 10SM FEW026 BKN170 09/06 A2969=
201412121153 METAR KSEA 121153Z 18010KT 10SM FEW028 SCT038 OVC045 09/06 A2968 RMK AO2 SLP056 60000 70027 T00940061 10122 20089 53037=
201412121053 METAR KSEA 121053Z 19010KT 10SM SCT030 BKN230 09/06 A2964 RMK AO2 PK WND 18026/0958 SLP044 T00940056=
201412120953 METAR KSEA 120953Z 20015G23KT 10SM SCT230 09/06 A2960 RMK AO2 SLP029 T00940061=
201412120853 METAR KSEA 120853Z 19017G26KT 10SM FEW027 SCT070 BKN230 09/07 A2957 RMK AO2 PK WND 20030/0812 RAB0759E45 SLP018 P0000 60000 T00940067 51045=
201412120753 METAR KSEA 120753Z 19019G27KT 10SM BKN039 BKN049 OVC075 11/06 A2955 RMK AO2 PK WND 19030/0739 SLP014 T01060061 401440083=
201412120653 METAR KSEA 120653Z 18016G28KT 10SM SCT031 BKN038 OVC046 10/07 A2951 RMK AO2 PK WND 18043/0557 SLP999 T01000067=
201412120553 METAR KSEA 120553Z 18030G42KT 10SM OVC040 12/04 A2943 RMK AO2 PK WND 17042/0553 SLP972 60000 T01220044 10144 20117 53065=
201412120453 METAR KSEA 120453Z 17030G39KT 10SM OVC044 13/04 A2938 RMK AO2 PK WND 18039/0453 PRESRR SLP953 T01330044=
201412120353 METAR KSEA 120353Z 18022G42KT 10SM SCT050 OVC060 13/04 A2929 RMK AO2 PK WND 16042/0348 SLP923 T01330044=
201412120253 METAR KSEA 120253Z 17010G19KT 10SM OVC060 14/06 A2924 RMK AO2 SLP906 60000 T01390056 53031=
201412120153 METAR KSEA 120153Z 16011KT 10SM BKN080 13/07 A2919 RMK AO2 SLP888 T01280072=
201412120053 METAR KSEA 120053Z 12015KT 10SM FEW040 SCT090 BKN150 12/08 A2917 RMK AO2 RAE2359 SLP883 P0000 T01170083=
201412112353 METAR KSEA 112353Z 11013G22KT 10SM -RA FEW042 SCT070 BKN090 BKN200 12/08 A2915 RMK AO2 RAB06E25B45 SLP876 P0002 60026 T01170083 10122 20089 58015=
201412112253 METAR KSEA 112253Z 08010KT 10SM FEW040 SCT075 BKN100 11/08 A2918 RMK AO2 RAE06 SLP887 SHRA S P0001 T01110083=
201412112153 METAR KSEA 112153Z 07009G18KT 7SM RA FEW005 BKN055 BKN070 09/08 A2917 RMK AO2 SLP885 P0011 T00940083=
201412112137 SPECI KSEA 112137Z 05013G21KT 9SM -RA FEW003 OVC060 09/08 A2917 RMK AO2 P0009=
201412112053 METAR KSEA 112053Z 34005KT 10SM -RA FEW040 OVC060 09/08 A2919 RMK AO2 WSHFT 1943 RAE01B20 SLP891 P0002 60012 T00940078 53002=
201412111958 SPECI KSEA 111958Z 33012KT 10SM -RA FEW040 OVC060 09/07 A2917 RMK AO2 WSHFT 1943 P0000=
201412111953 METAR KSEA 111953Z 34013G19KT 10SM -RA FEW040 OVC060 09/07 A2918 RMK AO2 SLP887 P0002 T00940072=
201412111853 METAR KSEA 111853Z 11009KT 9SM -RA BKN055 OVC070 11/07 A2917 RMK AO2 SLP884 P0008 T01060067=
201412111753 METAR KSEA 111753Z 10013KT 10SM -RA FEW050 OVC070 12/04 A2918 RMK AO2 PK WND 09027/1654 WSHFT 1647 RAE01B22 SLP887 P0000 60001 T01220044 10133 20083 56031=
201412111712 SPECI KSEA 111712Z 11013G22KT 10SM FEW055 OVC070 13/04 A2920 RMK AO2 PK WND 09027/1654 WSHFT 1647 RAE01 P0000=
201412111653 METAR KSEA 111653Z 10014G24KT 10SM -RA FEW055 OVC070 12/04 A2920 RMK AO2 SLP892 P0001 T01220044=
201412111553 METAR KSEA 111553Z 04008KT 10SM -RA BKN038 OVC060 12/03 A2923 RMK AO2 RAB50 SLP902 P0000 T01170028=
201412111453 METAR KSEA 111453Z 04012KT 10SM OVC140 10/03 A2928 RMK AO2 SLP919 T01000033 58057=
201412111353 METAR KSEA 111353Z 07007KT 10SM BKN150 11/03 A2937 RMK AO2 PRESFR SLP951 T01060028=
201412111253 METAR KSEA 111253Z 10007KT 10SM BKN210 09/04 A2940 RMK AO2 SLP960 T00890044=
201412111153 METAR KSEA 111153Z 06008KT 10SM FEW050 BKN230 09/04 A2944 RMK AO2 PRESFR SLP976 60000 70015 T00940044 10117 20089 58044=
201412111053 METAR KSEA 111053Z 11004KT 10SM OVC050 11/06 A2954 RMK AO2 PRESFR SLP010 T01060056=
201412110953 METAR KSEA 110953Z 17006KT 10SM BKN050 09/05 A2956 RMK AO2 SLP015 T00940050=
201412110853 METAR KSEA 110853Z 18007KT 10SM FEW045 11/05 A2958 RMK AO2 SLP021 60000 T01060050 51016=
201412110753 METAR KSEA 110753Z 17008KT 10SM SCT040 OVC055 11/06 A2957=
201412110653 METAR KSEA 110653Z 18013G20KT 10SM -RA FEW050 BKN060 BKN075 12/06 A2955 RMK AO2 RAB53 SLP010 P0000 T01170061=
201412110553 METAR KSEA 110553Z 19012G22KT 10SM FEW040 BKN065 OVC110 11/06 A2953 RMK AO2 PK WND 18032/0524 SLP004 60005 T01060056 10144 20106 53043=
201412110453 METAR KSEA 110453Z 19021G31KT 10SM SCT033 BKN047 OVC095 12/07 A2948 RMK AO2 PK WND 20031/0447 RAB28E42 PRESRR SLP988 P0000 T01170067=
201412110353 METAR KSEA 110353Z 18010KT 10SM FEW038 BKN050 OVC065 11/08 A2943=
201412110253 METAR KSEA 110253Z 18010KT 10SM FEW047 BKN060 OVC100 12/08 A2940 RMK AO2 RAE0156 PRESRR SLP962 P0000 60004 T01170078 53046=
201412110153 METAR KSEA 110153Z 19012KT 10SM -RA SCT018 BKN065 OVC080 12/09 A2935 RMK AO2 PK WND 23036/0125 RAB0056 SLP945 P0003 T01220094=
201412110126 SPECI KSEA 110126Z 21025G36KT 9SM -RA FEW016 BKN022 OVC047 13/10 A2934 RMK AO2 PK WND 23036/0125 RAB0056 P0002=
201412110053 METAR KSEA 110053Z 17020G27KT 10SM OVC045 14/09 A2928 RMK AO2 PK WND 16029/0040 RAE27 SLP920 P0001 T01390089=
201412102353 METAR KSEA 102353Z 12014KT 10SM -RA BKN055 OVC070 13/10 A2926 RMK AO2 SLP915 P0005 60010 T01280100 10189 20128 58036=
201412102253 METAR KSEA 102253Z 17015G21KT 10SM -RA OVC065 13/09 A2931 RMK AO2 PK WND 16028/2234 SLP931 P0004 T01330094=
201412102153 METAR KSEA 102153Z 18011KT 10SM -RA FEW043 OVC065 14/10 A2934 RMK AO2 PK WND 17033/2107 SLP942 P0000 T01440100=
201412102053 METAR KSEA 102053Z 18017G28KT 10SM -RA FEW042 BKN050 OVC070 16/09 A2937 RMK AO2 PK WND 16033/2017 SLP951 P0001 60001 T01560094 56011=
201412101953 METAR KSEA 101953Z 18015G21KT 10SM -RA FEW040 OVC060 17/08 A2937 RMK AO2 PK WND 19028/1900 RAB39 SLP951 P0000 T01720078=
201412101853 METAR KSEA 101853Z 17017G34KT 10SM FEW050 BKN070 OVC100 19/07 A2939 RMK AO2 PK WND 16040/1829 SLP957 SHRA SW-NW T01890067=
201412101753 METAR KSEA 101753Z 16019G28KT 10SM FEW060 BKN100 OVC150 18/07 A2940 RMK AO2 PK WND 16029/1721 SLP961 T01830067 10183 20117 58037=
201412101653 METAR KSEA 101653Z 16015G25KT 10SM FEW060 SCT080 OVC150 17/08 A2944 RMK AO2 SLP974 T01720083=
201412101553 METAR KSEA 101553Z 13012KT 10SM BKN060 OVC120 15/09 A2948 RMK AO2 SLP987 T01500089=
201412101453 METAR KSEA 101453Z 14014G27KT 10SM OVC065 15/10 A2951 RMK AO2 PK WND 14027/1452 SLP000 T01500100 58034=
201412101353 METAR KSEA 101353Z 12012KT 10SM FEW065 BKN090 BKN150 14/11 A2954 RMK AO2 SLP010 T01390106=
201412101253 METAR KSEA 101253Z 12006KT 10SM BKN060 BKN070 12/10 A2959 RMK AO2 SLP024 T01170100=
201412101153 METAR KSEA 101153Z 13010KT 10SM FEW038 BKN045 OVC055 12/11 A2962 RMK AO2 RAE29 SLP034 P0003 60045 70059 T01220106 10133 20111 56026=
201412101053 METAR KSEA 101053Z 12013KT 9SM -RA FEW048 BKN075 OVC090 12/09 A2962 RMK AO2 SLP037 P0007 T01170094=
201412100953 METAR KSEA 100953Z 12008KT 8SM RA FEW045 BKN060 OVC075 11/09 A2964 RMK AO2 SLP043 P0019 T01110094=
201412100853 METAR KSEA 100853Z 13009KT 7SM RA FEW048 BKN060 OVC070 12/09 A2969 RMK AO2 SLP061 P0007 60016 T01170094 56037=
201412100753 METAR KSEA 100753Z 11012KT 10SM -RA OVC070 11/09 A2971 RMK AO2 PRESFR SLP066 P0003 T01110089 401610106=
201412100653 METAR KSEA 100653Z 12007KT 9SM -RA SCT042 BKN049 OVC070 11/09 A2976 RMK AO2 SLP083 P0006 T01110089=
201412100553 METAR KSEA 100553Z 11008KT 7SM RA OVC065 12/09 A2981 RMK AO2 RAB0458 PRESFR SLP099 P0006 60006 T01170094 10144 20117 58023=
201412100453 METAR KSEA 100453Z 15007KT 10SM BKN065 BKN080 OVC110 13/09 A2984 RMK AO2 SLP110 T01280089=
201412100353 METAR KSEA 100353Z 13005KT 10SM FEW032 SCT070 BKN140 13/09 A2985=
201412100253 METAR KSEA 100253Z 17006KT 10SM FEW032 BKN070 12/09 A2987 RMK AO2 SLP122 T01220089 58004=
201412100153 METAR KSEA 100153Z 18006KT 10SM FEW033 BKN050 14/09 A2990 RMK AO2 SLP132 T01390094=
201412100053 METAR KSEA 100053Z 18011KT 10SM FEW040 SCT060 14/09 A2989 RMK AO2 SLP127 T01390094=
201412092353 METAR KSEA 092353Z 18009KT 10SM SCT043 SCT060 BKN250 14/10 A2989=
201412092253 METAR KSEA 092253Z 19010KT 10SM FEW030 SCT060 SCT250 14/10 A2987=
201412092153 METAR KSEA 092153Z 22014KT 10SM FEW030 BKN250 15/11 A2988 RMK AO2 SLP123 T01500106=
201412092053 METAR KSEA 092053Z 21016G23KT 10SM FEW015 SCT034 BKN230 15/12 A2987 RMK AO2 SLP121 60003 T01500117 53034=
201412092009 SPECI KSEA 092009Z 19013KT 10SM FEW014 SCT030 BKN230 14/12 A2984 RMK AO2=
201412091953 METAR KSEA 091953Z 21014G19KT 10SM FEW014 BKN027 BKN200 14/12 A2984 RMK AO2 RAE25 SLP111 P0002 T01440122=
201412091923 SPECI KSEA 091923Z 23011KT 10SM -RA FEW014 BKN028 OVC065 14/12 A2982 RMK AO2 PRESRR P0002=
201412091853 METAR KSEA 091853Z 17016G22KT 8SM -RA BKN040 OVC065 15/12 A2978 RMK AO2 PK WND 15026/1812 RAE12B43 SLP089 P0001 T01500117=
201412091753 METAR KSEA 091753Z 16014KT 7SM -RA BKN055 OVC080 14/12 A2977 RMK AO2 RAE1655B11 SLP087 P0005 60005 T01440117 10161 20111 55005=
201412091653 METAR KSEA 091653Z 18012KT 10SM -RA FEW020 BKN036 OVC090 16/11 A2976 RMK AO2 RAB34 SLP084 P0000 T01560106=
201412091553 METAR KSEA 091553Z 18014G20KT 10SM BKN036 OVC050 16/10 A2977 RMK AO2 SLP088 T01610100=
201412091453 METAR KSEA 091453Z 19012KT 10SM FEW040 BKN055 OVC160 16/10 A2979 RMK AO2 SLP092 60000 T01560100 55010=
201412091353 METAR KSEA 091353Z 17007KT 10SM OVC042 13/10 A2977 RMK AO2 RAE1259 SLP086 P0000 T01280100=
201412091253 METAR KSEA 091253Z 16005KT 10SM -RA OVC042 11/10 A2980 RMK AO2 RAB50 SLP099 P0000 T01110100=
201412091153 METAR KSEA 091153Z 12007KT 10SM OVC044 12/09 A2982 RMK AO2 RAE22 SLP103 P0003 60018 70049 T01170094 10133 20100 58005=
201412091053 METAR KSEA 091053Z 15006KT 10SM -RA BKN050 OVC060 12/11 A2983 RMK AO2 SLP107 P0005 T01220106=
201412090953 METAR KSEA 090953Z 17013G19KT 5SM RA BKN070 OVC085 13/11 A2983 RMK AO2 SLP106 P0008 T01330106=
201412090853 METAR KSEA 090853Z 15007KT 10SM -RA FEW065 SCT080 OVC095 12/08 A2983=
201412090753 METAR KSEA 090753Z 12005KT 10SM OVC046 10/07 A2985 RMK AO2 RAE26 SLP116 P0000 T01000072 401440089=
201412090653 METAR KSEA 090653Z 10006KT 10SM -RA OVC048 10/07 A2986 RMK AO2 RAB19 SLP116 P0002 T01000067=
201412090553 METAR KSEA 090553Z 11007KT 10SM OVC050 10/07 A2986 RMK AO2 SLP116 60026 T01000067 10117 20094 58009=
201412090453 METAR KSEA 090453Z 09011KT 10SM OVC050 10/07 A2986=
201412090353 METAR KSEA 090353Z 12008KT 6SM RA OVC060 10/07 A2988 RMK AO2 SLP127 P0011 T01000067=
201412090253 METAR KSEA 090253Z 10009KT 10SM -RA OVC070 10/06 A2988 RMK AO2 RAE08B24 SLP126 P0003 60010 T01000061 56028=
201412090153 METAR KSEA 090153Z 10009G16KT 10SM -RA BKN070 OVC085 11/06 A2989 RMK AO2 RAE03B52 SLP128 P0000 T01060061=
201412090053 METAR KSEA 090053Z 08014KT 10SM -RA OVC060 11/07 A2992 RMK AO2 PRESFR SLP139 P0007 T01060067=
201412082353 METAR KSEA 082353Z 05004KT 6SM -RA BR OVC060 11/08 A2996 RMK AO2 SLP154 P0005 60005 T01060083 10144 20100 50004=
201412082253 METAR KSEA 082253Z 26008KT 10SM -RA BKN070 OVC120 11/07 A2997 RMK AO2 RAB27 SLP156 P0000 T01110067=
201412082153 METAR KSEA 082153Z 13009KT 10SM FEW060 BKN110 OVC200 14/03 A2995 RMK AO2 SLP148 T01440033=
201412082053 METAR KSEA 082053Z VRB05KT 10SM FEW050 BKN110 OVC200 13/06 A2995 RMK AO2 SLP149 T01330056 58017=
201412081953 METAR KSEA 081953Z 11010KT 10SM FEW050 BKN110 OVC210 14/03 A2998 RMK AO2 SLP159 T01390033=
201412081853 METAR KSEA 081853Z 11011KT 10SM FEW055 SCT130 BKN240 13/03 A2999 RMK AO2 SLP161 T01330033=
201412081753 METAR KSEA 081753Z 10011KT 10SM FEW055 SCT130 BKN250 12/03 A3000 RMK AO2 SLP167 T01220033 10122 20100 58002=
201412081653 METAR KSEA 081653Z 12007KT 10SM FEW060 BKN130 BKN250 12/03 A3001 RMK AO2 SLP170 T01170033=
201412081553 METAR KSEA 081553Z 11011KT 10SM FEW060 BKN110 BKN250 11/03 A3001 RMK AO2 SLP168 T01060033=
201412081453 METAR KSEA 081453Z 12011KT 10SM SCT060 BKN110 11/04 A3001 RMK AO2 SLP169 T01110039 55006=
201412081353 METAR KSEA 081353Z 12008KT 10SM FEW055 OVC100 11/04 A3001 RMK AO2 SLP168 T01060039 $=
201412081253 METAR KSEA 081253Z 11009KT 10SM BKN055 OVC090 11/04 A3002 RMK AO2 SLP171 T01060039 $=
201412081153 METAR KSEA 081153Z 10009KT 10SM BKN060 OVC100 10/05 A3003 RMK AO2 SLP175 60003 70003 T01000050 10133 20089 50001 $=
201412081053 METAR KSEA 081053Z 09005KT 10SM OVC060 10/07 A3006 RMK AO2 RAE43 SLP184 P0001 T01000067 $=
201412080953 METAR KSEA 080953Z 14005KT 10SM -RA OVC065 09/07 A3005=
201412080853 METAR KSEA 080853Z 08003KT 10SM OVC075 10/06 A3002 RMK AO2 SLP174 T01000061 51014 $=
201412080753 METAR KSEA 080753Z 18003KT 10SM FEW060 BKN080 OVC090 11/04 A3001 RMK AO2 SLP169 T01110044 401440061 $=
201412080653 METAR KSEA 080653Z 19008KT 10SM BKN085 OVC160 13/02 A3000 RMK AO2 SLP166 T01280017 $=
201412080553 METAR KSEA 080553Z 12011KT 10SM FEW085 BKN160 13/02 A2998 RMK AO2 SLP159 T01280017 10133 20111 58003 $=
201412080453 METAR KSEA 080453Z 11014KT 10SM FEW160 BKN200 13/02 A2999 RMK AO2 SLP162 T01280017 $=
201412080353 METAR KSEA 080353Z 12007KT 10SM BKN220 12/02 A3000 RMK AO2 SLP167 T01170022 $=
201412080253 METAR KSEA 080253Z 10012KT 10SM BKN200 13/02 A2999 RMK AO2 SLP164 T01280022 56021 $=
201412080153 METAR KSEA 080153Z 11012KT 10SM CLR 13/03 A3001 RMK AO2 SLP170 T01280033 $=
201412080053 METAR KSEA 080053Z 11009KT 10SM BKN200 13/04 A3003 RMK AO2 SLP178 T01280039 $=
201412072353 METAR KSEA 072353Z 11008KT 10SM FEW160 BKN230 13/04 A3006 RMK AO2 SLP184 T01330044 10144 20106 56015 $=
201412072253 METAR KSEA 072253Z 11008KT 10SM SCT170 BKN230 14/04 A3006 RMK AO2 SLP186 T01390044 $=
201412072153 METAR KSEA 072153Z 00000KT 10SM SCT170 OVC250 13/07 A3008 RMK AO2 SLP194 T01330067 $=
201412072053 METAR KSEA 072053Z 00000KT 10SM SCT170 OVC250 12/07 A3010 RMK AO2 SLP200 T01220072 56015 $=
201412071953 METAR KSEA 071953Z 00000KT 10SM SCT170 OVC250 13/05 A3012 RMK AO2 SLP204 T01280050 $=
201412071853 METAR KSEA 071853Z 10006KT 10SM BKN170 12/04 A3013 RMK AO2 SLP208 T01170044 $=
201412071753 METAR KSEA 071753Z 10004KT 10SM BKN170 11/04 A3015 RMK AO2 SLP216 T01060044 10106 20061 56011 $=
201412071653 METAR KSEA 071653Z 11005KT 10SM BKN170 09/04 A3015 RMK AO2 SLP216 T00890044 $=
201412071641 SPECI KSEA 071641Z 09005KT 10SM BKN170 08/04 A3016 RMK AO2 $=
201412071553 METAR KSEA 071553Z 10SM BKN170 07/05 A3017 RMK AO2 SLP224 T00720050 $=
201412071453 METAR KSEA 071453Z 00000KT 9SM BKN170 07/06 A3018 RMK AO2 SLP227 T00670056 55002=
201412071353 METAR KSEA 071353Z 00000KT 10SM BKN170 07/04 A3017=
201412071253 METAR KSEA 071253Z 00000KT 10SM BKN170 08/05 A3018 RMK AO2 SLP227 T00780050=
201412071153 METAR KSEA 071153Z 08006KT 10SM FEW060 09/06 A3019 RMK AO2 SLP229 70004 T00890056 10106 20072 58017=
201412071053 METAR KSEA 071053Z 09007KT 10SM SCT060 08/06 A3022 RMK AO2 SLP242 T00780061=
201412070953 METAR KSEA 070953Z 11004KT 10SM SCT035 BKN060 08/06 A3022 RMK AO2 SLP242 T00830061=
201412070853 METAR KSEA 070853Z 00000KT 10SM BKN037 OVC060 10/07 A3023 RMK AO2 SLP246 T01000072 50001=
201412070753 METAR KSEA 070753Z 12004KT 10SM SCT035 OVC050 09/07 A3024 RMK AO2 SLP247 T00940072 401170078=
201412070653 METAR KSEA 070653Z 15003KT 10SM OVC042 10/08 A3024 RMK AO2 SLP247 T01000078=
201412070553 METAR KSEA 070553Z 11006KT 10SM OVC038 11/08 A3023 RMK AO2 SLP245 T01060078 10111 20094 51012=
201412070453 METAR KSEA 070453Z 18003KT 10SM SCT025 OVC042 09/08 A3023 RMK AO2 SLP243 T00940083=
201412070353 METAR KSEA 070353Z 00000KT 10SM BKN024 OVC033 10/09 A3021 RMK AO2 SLP238 T01000089=
201412070324 SPECI KSEA 070324Z 14003KT 10SM SCT026 OVC033 09/08 A3020 RMK AO2=
201412070253 METAR KSEA 070253Z 19007KT 10SM FEW028 SCT039 10/08 A3020 RMK AO2 SLP233 T01000078 51014=
201412070153 METAR KSEA 070153Z 21008KT 10SM SCT028 10/08 A3019 RMK AO2 SLP229 T01000083=
201412070053 METAR KSEA 070053Z 18006KT 10SM BKN026 BKN033 11/09 A3017 RMK AO2 SLP224 T01060089=
201412062353 METAR KSEA 062353Z 18009KT 10SM SCT019 SCT024 BKN029 11/09 A3016 RMK AO2 SLP219 60003 T01110094 10117 20089 51023=
201412062253 METAR KSEA 062253Z 20012KT 10SM FEW010 BKN019 BKN040 11/09 A3013=
201412062153 METAR KSEA 062153Z 18009KT 10SM OVC013 11/09 A3011=
201412062110 SPECI KSEA 062110Z 18009KT 10SM OVC013 11/08 A3009 RMK AO2=
201412062053 METAR KSEA 062053Z 17009KT 8SM OVC015 10/08 A3009 RMK AO2 RAE1958 SLP196 P0000 60003 T01000083 52020=
201412062004 SPECI KSEA 062004Z 15008KT 10SM FEW006 OVC018 10/08 A3007 RMK AO2 RAE1958 P0000=
201412061953 METAR KSEA 061953Z 16008KT 9SM -RA SCT006 BKN010 OVC018 09/08 A3006 RMK AO2 RAE30B51 SLP187 P0001 T00940078=
201412061931 SPECI KSEA 061931Z 17010KT 4SM BR BKN008 OVC015 09/08 A3006 RMK AO2 RAE30 P0001=
201412061914 SPECI KSEA 061914Z 17007KT 5SM -RA BR FEW008 OVC015 09/07 A3006 RMK AO2 P0001=
201412061853 METAR KSEA 061853Z 18009KT 10SM -RA BKN017 OVC022 09/07 A3005 RMK AO2 SLP182 P0002 T00890067=
201412061753 METAR KSEA 061753Z 18008KT 10SM -RA BKN030 BKN037 OVC050 09/06 A3003 RMK AO2 RAB41 SLP175 P0001 60001 T00940061 10094 20078 53029=
201412061653 METAR KSEA 061653Z 18009KT 10SM FEW036 BKN045 BKN060 09/06 A2999 RMK AO2 RAB07E22 SLP164 P0000 T00890061=
201412061553 METAR KSEA 061553Z 17010KT 10SM BKN047 BKN060 09/07 A2996 RMK AO2 SLP153 T00890067=
201412061453 METAR KSEA 061453Z 20003KT 10SM BKN048 OVC060 08/07 A2994 RMK AO2 SLP145 60000 T00830072 53022=
201412061353 METAR KSEA 061353Z 18007KT 10SM FEW020 BKN060 OVC120 08/07 A2991 RMK AO2 SLP136 T00830072=
201412061253 METAR KSEA 061253Z 15008KT 10SM FEW050 BKN100 OVC120 08/07 A2989 RMK AO2 RAE20 SLP128 P0000 T00830067=
201412061153 METAR KSEA 061153Z 12006KT 10SM -RA BKN035 OVC043 08/07 A2987 RMK AO2 SLP123 P0003 60026 70035 T00830067 10128 20078 50009=
201412061053 METAR KSEA 061053Z 13009KT 5SM -RA BR FEW015 OVC050 08/07 A2988 RMK AO2 SLP125 P0008 T00830072=
201412060953 METAR KSEA 060953Z 14009KT 6SM -RA BR SCT015 OVC055 08/07 A2987 RMK AO2 SLP120 P0007 T00830067=
201412060853 METAR KSEA 060853Z 18007KT 6SM RA BR FEW038 SCT046 OVC060 08/07 A2985 RMK AO2 RAB0756 SLP113 P0008 60008 T00830067 53024=
201412060753 METAR KSEA 060753Z 23005KT 10SM BKN075 OVC100 09/06 A2981 RMK AO2 RAB33E49 SLP101 P0000 T00940056 401280067=
201412060653 METAR KSEA 060653Z 11016G21KT 10SM BKN100 OVC180 13/03 A2975 RMK AO2 SLP080 T01280033=
201412060553 METAR KSEA 060553Z 11012KT 10SM BKN095 OVC170 12/03 A2977 RMK AO2 SLP089 T01170028 10117 20106 56014=
201412060453 METAR KSEA 060453Z 10004KT 10SM SCT095 OVC200 11/03 A2978 RMK AO2 SLP091 T01110028=
201412060353 METAR KSEA 060353Z 00000KT 10SM BKN090 BKN200 12/03 A2980 RMK AO2 SLP097 T01170033=
201412060253 METAR KSEA 060253Z 12014KT 10SM SCT070 BKN120 BKN220 12/03 A2982 RMK AO2 SLP103 T01170028 58022=
201412060153 METAR KSEA 060153Z 10011G17KT 10SM BKN070 BKN110 BKN220 12/03 A2983 RMK AO2 SLP110 T01170033=
201412060053 METAR KSEA 060053Z 09009KT 10SM SCT075 BKN100 BKN220 11/04 A2986 RMK AO2 SLP119 T01110039=
201412052353 METAR KSEA 052353Z 11006KT 10SM SCT065 BKN085 BKN220 11/05 A2988 RMK AO2 SLP125 60005 T01110050 10111 20089 57013=
201412052253 METAR KSEA 052253Z 11005KT 8SM BKN065 OVC200 11/06 A2990 RMK AO2 SLP130 T01110056=
201412052153 METAR KSEA 052153Z 00000KT 10SM FEW002 BKN070 BKN090 BKN200 11/06 A2990 RMK AO2 SLP133 T01110061=
201412052053 METAR KSEA 052053Z 09004KT 10SM FEW002 SCT050 BKN070 BKN200 11/07 A2992 RMK AO2 RAE03 SLP138 P0000 60005 T01060072 57015=
201412052047 SPECI KSEA 052047Z 13003KT 10SM FEW002 BKN050 BKN200 11/07 A2992 RMK AO2 RAE03 P0000=
201412051953 METAR KSEA 051953Z 12006KT 9SM -RA BKN050 OVC075 09/07 A2993 RMK AO2 RAB34 SLP144 P0001 T00890072=
201412051853 METAR KSEA 051853Z 11008G14KT 10SM FEW025 OVC048 09/07 A2995 RMK AO2 RAE48 SLP148 P0004 T00890067=
201412051753 METAR KSEA 051753Z 00000KT 8SM -RA FEW020 OVC037 09/06 A2996 RMK AO2 RAB22 SLP155 P0001 60004 T00890056 10094 20067 53008=
201412051653 METAR KSEA 051653Z 10009KT 10SM BKN044 BKN065 OVC200 09/06 A2993 RMK AO2 SLP145 T00890056=
201412051553 METAR KSEA 051553Z 00000KT 10SM FEW019 OVC034 08/05 A2994 RMK AO2 RAE1455B37E52 SLP147 P0000 T00830050=
201412051453 METAR KSEA 051453Z 08004KT 10SM -RA SCT017 BKN034 OVC060 08/05 A2994 RMK AO2 DZE25RAB45 SLP147 P0001 60003 T00780050 58005=
201412051447 SPECI KSEA 051447Z 11004KT 10SM -RA SCT017 BKN034 OVC060 08/05 A2994 RMK AO2 DZE25RAB45 P0001=
201412051425 SPECI KSEA 051425Z 09011KT 10SM BKN017 OVC032 08/04 A2994 RMK AO2 DZE25 P0001=
201412051353 METAR KSEA 051353Z 09009KT 10SM -DZ SCT023 OVC030 07/04 A2995 RMK AO2 RAE10DZB53 SLP149 P0000 T00720039=
201412051253 METAR KSEA 051253Z 00000KT 10SM -RA FEW036 BKN050 OVC070 07/04 A2996 RMK AO2 RAB11 SLP153 P0002 T00720039=
201412051153 METAR KSEA 051153Z 09003KT 10SM BKN065 OVC075 07/03 A2996 RMK AO2 SLP152 60003 70005 T00720033 10078 20067 51001=
201412051053 METAR KSEA 051053Z 10008KT 10SM OVC035 08/03 A2996 RMK AO2 SLP152 T00780033=
201412051042 SPECI KSEA 051042Z 10007KT 10SM BKN035 OVC050 07/03 A2996 RMK AO2=
201412050953 METAR KSEA 050953Z 13005KT 10SM OVC027 07/04 A2996 RMK AO2 RAE31 SLP153 P0000 T00720044=
201412050944 SPECI KSEA 050944Z 12005KT 10SM OVC027 07/04 A2996 RMK AO2 RAE31 P0000=
201412050853 METAR KSEA 050853Z 13008KT 3SM -RA BR BKN009 OVC020 07/04 A2995 RMK AO2 RAE03B38 SLP151 P0002 60003 T00670044 51011=
201412050849 SPECI KSEA 050849Z 12008KT 3SM -RA BR BKN009 BKN012 OVC020 07/04 A2995 RMK AO2 RAE03B38 P0001=
201412050753 METAR KSEA 050753Z 11009KT 5SM -RA SCT010 OVC016 07/04 A2994=
201412050707 SPECI KSEA 050707Z 09004KT 6SM -RA BKN010 OVC024 07/04 A2994 RMK AO2 P0001=
201412050653 METAR KSEA 050653Z 13004KT 6SM -RA FEW012 OVC022 07/04 A2994 RMK AO2 RAB28 SLP145 P0000 T00720044=
201412050614 SPECI KSEA 050614Z 00000KT 10SM BKN024 OVC034 07/05 A2993 RMK AO2=
201412050553 METAR KSEA 050553Z 00000KT 10SM BKN033 OVC045 07/05 A2992 RMK AO2 SLP140 60001 T00670050 10072 20061 51017=
201412050453 METAR KSEA 050453Z 17003KT 10SM OVC030 06/05 A2990 RMK AO2 RAE0357B15E47 SLP133 P0001 T00610050=
201412050353 METAR KSEA 050353Z 00000KT 8SM -RA OVC036 07/06 A2989 RMK AO2 RAB40 SLP131 P0000 T00670056=
201412050253 METAR KSEA 050253Z 00000KT 10SM OVC040 06/05 A2987 RMK AO2 SLP122 T00610050 53011=
201412050153 METAR KSEA 050153Z 00000KT 9SM OVC040 06/04 A2985 RMK AO2 SLP116 T00610044=
201412050053 METAR KSEA 050053Z 01006KT 10SM OVC044 06/04 A2984 RMK AO2 SLP113 T00610044=
201412042353 METAR KSEA 042353Z 01004KT 10SM FEW012 SCT027 OVC040 07/04 A2984 RMK AO2 DZE15 SLP111 P0000 60001 T00670044 10083 20061 51004=
201412042253 METAR KSEA 042253Z 01004KT 6SM -DZ FEW013 OVC025 07/04 A2983 RMK AO2 RAB08E42DZB44 SLP108 P0001 T00720044=
201412042220 SPECI KSEA 042220Z 00000KT 4SM -RA OVC021 07/04 A2982 RMK AO2 RAB08 P0000=
201412042153 METAR KSEA 042153Z 00000KT 10SM FEW025 OVC034 08/03 A2982 RMK AO2 SLP107 T00830028=
201412042112 SPECI KSEA 042112Z 00000KT 10SM FEW025 OVC033 08/02 A2982 RMK AO2=
201412042053 METAR KSEA 042053Z 05003KT 10SM BKN027 OVC031 08/02 A2983 RMK AO2 SLP108 T00830022 58005=
201412042028 SPECI KSEA 042028Z 00000KT 10SM BKN029 OVC036 08/02 A2983 RMK AO2=
201412041953 METAR KSEA 041953Z 00000KT 10SM OVC036 07/02 A2983 RMK AO2 SLP110 T00720017=
201412041853 METAR KSEA 041853Z 36005KT 10SM OVC032 07/02 A2984 RMK AO2 SLP112 T00670017=
201412041753 METAR KSEA 041753Z 01005KT 10SM OVC032 06/02 A2984 RMK AO2 RAB1654E05 SLP113 P0000 60000 T00610022 10061 20044 53008=
201412041653 METAR KSEA 041653Z 36004KT 10SM OVC030 06/02 A2984 RMK AO2 SLP111 T00560017=
201412041553 METAR KSEA 041553Z 00000KT 10SM OVC030 05/01 A2982 RMK AO2 SLP107 T00500011=
201412041453 METAR KSEA 041453Z 00000KT 10SM OVC038 05/00 A2982 RMK AO2 SLP105 T00500000 50005=
201412041353 METAR KSEA 041353Z 00000KT 10SM BKN038 OVC050 04/01 A2982 RMK AO2 SLP107 T00440006=
201412041253 METAR KSEA 041253Z 00000KT 10SM OVC046 04/01 A2982 RMK AO2 SLP106 T00440006=
201412041153 METAR KSEA 041153Z 00000KT 10SM OVC050 04/01 A2980 RMK AO2 RAE1059 SLP101 P0000 60000 T00440006 10056 20039 50008=
201412041053 METAR KSEA 041053Z 14003KT 10SM -RA OVC050 04/01 A2981 RMK AO2 RAB51 SLP101 P0000 T00390006=
201412040953 METAR KSEA 040953Z 00000KT 10SM BKN050 OVC060 05/01 A2979 RMK AO2 SLP095 T00500006=
201412040853 METAR KSEA 040853Z 00000KT 10SM OVC065 04/00 A2978 RMK AO2 SLP092 T00440000 51007=
201412040753 METAR KSEA 040753Z 00000KT 10SM OVC070 05/M01 A2977 RMK AO2 SLP089 T00501006 401000000=
201412040653 METAR KSEA 040653Z 36004KT 10SM OVC070 05/M02 A2976 RMK AO2 SLP087 T00501017=
201412040553 METAR KSEA 040553Z 03005KT 10SM OVC075 06/M01 A2976 RMK AO2 SLP085 T00561011 10061 20050 55000=
201412040453 METAR KSEA 040453Z 01005KT 10SM SCT080 BKN200 06/M01 A2975 RMK AO2 SLP083 T00561011=
201412040353 METAR KSEA 040353Z 01007KT 10SM BKN075 BKN200 05/M02 A2975 RMK AO2 SLP083 T00501017=
201412040253 METAR KSEA 040253Z 03005KT 10SM BKN075 BKN250 06/M01 A2976 RMK AO2 SLP085 T00561011 56002=
201412040153 METAR KSEA 040153Z 02005KT 10SM BKN075 BKN250 05/M02 A2976 RMK AO2 SLP085 T00501017=
201412040053 METAR KSEA 040053Z 03008KT 10SM SCT120 BKN250 06/M02 A2975 RMK AO2 SLP084 T00561017=
201412032353 METAR KSEA 032353Z 36007KT 10SM SCT100 BKN250 06/M02 A2976 RMK AO2 SLP087 T00561017 10100 20039 56010=
201412032253 METAR KSEA 032253Z 36008KT 10SM SCT100 BKN250 07/M03 A2976 RMK AO2 SLP088 T00721028=
201412032153 METAR KSEA 032153Z 02005KT 10SM FEW075 BKN250 09/M04 A2978 RMK AO2 SLP091 T00941039=
201412032053 METAR KSEA 032053Z 36004KT 10SM FEW050 BKN250 09/M05 A2979 RMK AO2 SLP097 T00941050 56013=
201412031953 METAR KSEA 031953Z 02005KT 10SM FEW050 BKN250 08/M04 A2979 RMK AO2 SLP098 T00831039=
201412031853 METAR KSEA 031853Z 36007KT 10SM FEW050 BKN250 07/M03 A2981 RMK AO2 SLP104 T00671028=
201412031753 METAR KSEA 031753Z 36007KT 10SM FEW050 BKN250 04/M03 A2983 RMK AO2 SLP111 T00391028 10039 20000 56004=
201412031653 METAR KSEA 031653Z 08008KT 10SM FEW050 BKN250 01/M03 A2984 RMK AO2 SLP113 T00061033 $=
201412031553 METAR KSEA 031553Z 04007KT 10SM FEW080 BKN250 02/M03 A2983 RMK AO2 SLP113 T00221033=
201412031453 METAR KSEA 031453Z 01008KT 10SM BKN250 01/M04 A2984 RMK AO2 SLP116 T00111039 55005=
201412031353 METAR KSEA 031353Z 35009KT 10SM SCT250 02/M03 A2984 RMK AO2 SLP115 T00171033=
201412031253 METAR KSEA 031253Z 01012KT 10SM SCT250 02/M03 A2985 RMK AO2 SLP117 T00171033=
201412031153 METAR KSEA 031153Z 02008KT 10SM SCT250 01/M04 A2986 RMK AO2 SLP122 T00111039 10022 20011 58008=
201412031053 METAR KSEA 031053Z 01009KT 10SM SCT250 01/M04 A2987 RMK AO2 SLP126 T00111039=
201412030953 METAR KSEA 030953Z 01010KT 10SM SCT250 02/M04 A2988 RMK AO2 SLP128 T00171044=
201412030853 METAR KSEA 030853Z 01013KT 10SM SCT250 02/M03 A2988 RMK AO2 SLP128 T00171033 58019=
201412030753 METAR KSEA 030753Z 01011KT 10SM SCT250 02/M03 A2990 RMK AO2 SLP136 T00171028 400561033=
201412030653 METAR KSEA 030653Z 02010KT 10SM BKN250 01/M03 A2992 RMK AO2 SLP143 T00111028=
201412030553 METAR KSEA 030553Z 02013KT 10SM SCT250 01/M03 A2994 RMK AO2 SLP149 T00111033 10033 20011 58017=
201412030453 METAR KSEA 030453Z 02014KT 10SM SCT250 02/M03 A2997 RMK AO2 SLP158 T00171033=
201412030353 METAR KSEA 030353Z 02015KT 10SM SCT250 02/M03 A3000 RMK AO2 SLP167 T00221028=
201412030253 METAR KSEA 030253Z 01017KT 10SM SCT250 02/M03 A2999 RMK AO2 SLP166 T00171033 58008=
201412030153 METAR KSEA 030153Z 02014KT 10SM SCT250 02/M03 A3001 RMK AO2 SLP171 T00221033=
201412030053 METAR KSEA 030053Z 01017KT 10SM SCT250 02/M03 A3001 RMK AO2 SLP172 T00221033=
201412022353 METAR KSEA 022353Z 36014KT 10SM SCT250 03/M03 A3001 RMK AO2 SLP174 T00331033 10056 20011 56025=
201412022253 METAR KSEA 022253Z 01015KT 10SM SCT250 04/M03 A3003 RMK AO2 SLP179 T00441028=
201412022153 METAR KSEA 022153Z 03013KT 10SM SCT250 05/M03 A3005 RMK AO2 SLP187 T00501028=
201412022053 METAR KSEA 022053Z 01012KT 10SM SCT250 04/M02 A3009 RMK AO2 SLP199 T00441022 58023=
201412021953 METAR KSEA 021953Z 01011KT 10SM FEW250 04/M03 A3011 RMK AO2 SLP208 T00391033=
201412021853 METAR KSEA 021853Z 01013KT 10SM FEW250 03/M03 A3015 RMK AO2 SLP222 T00281028=
201412021753 METAR KSEA 021753Z 36009KT 10SM FEW250 01/M03 A3016 RMK AO2 SLP222 T00111028 10011 21028 55010=
201412021653 METAR KSEA 021653Z 02013G18KT 10SM FEW250 00/M03 A3015 RMK AO2 SLP221 T00001033=
201412021553 METAR KSEA 021553Z 02013KT 10SM FEW007 M01/M03 A3018 RMK AO2 SLP229 T10111033=
201412021532 SPECI KSEA 021532Z 02015KT 10SM FEW006 M02/M03 A3018 RMK AO2=
201412021453 METAR KSEA 021453Z 01008KT 10SM FEW200 M02/M03 A3019 RMK AO2 SLP234 T10171033 55003=
201412021417 SPECI KSEA 021417Z 01008KT 10SM FEW003 M02/M03 A3019 RMK AO2=
201412021353 METAR KSEA 021353Z 01012KT 10SM BKN003 M02/M03 A3019 RMK AO2 SLP233 T10171033=
201412021253 METAR KSEA 021253Z 36006KT 7SM SCT002 M02/M03 A3019 RMK AO2 SLP233 FG BANK S-SW T10221028=
201412021226 SPECI KSEA 021226Z 02007KT 5SM BR BKN002 M02/M03 A3019 RMK AO2=
201412021153 METAR KSEA 021153Z 02007KT 8SM SCT001 M02/M03 A3020 RMK AO2 SLP236 FG BANK SW-W T10171028 11006 21033 58002=
201412021139 SPECI KSEA 021139Z 01008KT 6SM BR SCT001 M02/M04 A3020 RMK AO2=
201412021107 SPECI KSEA 021107Z 03006KT 10SM BKN003 M02/M03 A3021 RMK AO2=
201412021053 METAR KSEA 021053Z 02005KT 10SM FEW003 M02/M04 A3021 RMK AO2 SLP241 T10221039=
201412020953 METAR KSEA 020953Z 03005KT 10SM CLR M02/M04 A3021 RMK AO2 SLP240 T10221044=
201412020853 METAR KSEA 020853Z 00000KT 10SM CLR M02/M04 A3020 RMK AO2 SLP239 T10221044 58004=
201412020753 METAR KSEA 020753Z 04004KT 10SM CLR M01/M04 A3022 RMK AO2 SLP243 T10111039 400441033=
201412020653 METAR KSEA 020653Z 03007KT 10SM CLR M01/M04 A3022 RMK AO2 SLP243 T10061044=
201412020553 METAR KSEA 020553Z 02004KT 10SM CLR M01/M05 A3022 RMK AO2 SLP243 T10111050 10022 21011 53010=
201412020453 METAR KSEA 020453Z 03008KT 10SM CLR 00/M05 A3020 RMK AO2 SLP238 T00001050=
201412020353 METAR KSEA 020353Z 03008KT 10SM CLR 01/M05 A3019 RMK AO2 SLP234 T00061050=
201412020253 METAR KSEA 020253Z 02007KT 10SM CLR 01/M05 A3018 RMK AO2 SLP233 T00061050 53008=
201412020153 METAR KSEA 020153Z 36005KT 10SM FEW030 SCT250 M01/M06 A3017 RMK AO2 SLP229 T10061061=
201412020053 METAR KSEA 020053Z 35003KT 10SM FEW030 SCT250 01/M06 A3016 RMK AO2 SLP225 T00061061=
201412012353 METAR KSEA 012353Z 36003KT 10SM FEW040 SCT250 02/M06 A3016 RMK AO2 SLP223 T00221061 10044 20011 53004=
201412012253 METAR KSEA 012253Z 35005KT 10SM FEW120 SCT250 03/M06 A3015 RMK AO2 SLP220 T00331061=
201412012153 METAR KSEA 012153Z 36005KT 10SM FEW040 SCT250 04/M06 A3014 RMK AO2 SLP218 T00391056=
201412012053 METAR KSEA 012053Z 30003KT 10SM FEW080 SCT250 03/M04 A3015 RMK AO2 SLP219 T00331039 58001=
201412011953 METAR KSEA 011953Z 00000KT 10SM FEW080 BKN250 03/M04 A3015 RMK AO2 SLP221 T00331044=
201412011853 METAR KSEA 011853Z 34003KT 10SM FEW080 SCT250 02/M04 A3016 RMK AO2 SLP223 T00221044=
201412011753 METAR KSEA 011753Z 00000KT 10SM FEW080 SCT250 01/M06 A3015 RMK AO2 SLP220 T00111056 10017 21033 51015=
201412011653 METAR KSEA 011653Z 00000KT 10SM FEW070 00/M07 A3013 RMK AO2 SLP215 T00001067=
201412011553 METAR KSEA 011553Z 00000KT 10SM FEW080 M03/M07 A3012 RMK AO2 SLP211 T10281072=
201412011453 METAR KSEA 011453Z 06005KT 10SM FEW080 M02/M07 A3010 RMK AO2 SLP205 T10171072 53003=
201412011353 METAR KSEA 011353Z 07007KT 10SM FEW200 M03/M09 A3009 RMK AO2 SLP199 T10281094=
201412011253 METAR KSEA 011253Z 11006KT 10SM SCT200 M02/M11 A3009 RMK AO2 SLP200 T10171111=
201412011153 METAR KSEA 011153Z 03004KT 10SM SCT200 M02/M11 A3009 RMK AO2 SLP202 T10221111 10000 21028 50002=
201412011053 METAR KSEA 011053Z 05004KT 10SM SCT200 M02/M11 A3010 RMK AO2 SLP203 T10221111=
201412010953 METAR KSEA 010953Z 08007KT 10SM FEW200 M01/M11 A3009 RMK AO2 SLP200 T10111111=
201412010853 METAR KSEA 010853Z 11007KT 10SM FEW200 M01/M11 A3009 RMK AO2 SLP199 T10111111 58004=
201412010758 SPECI KSEA 010758Z 11008KT 10SM CLR M01/M11 A3010 RMK AO2=
201412010753 METAR KSEA 010753Z 11008KT 10SM CLR M01/M11 A3010 RMK AO2 SLP204 T10061106 400281050=
201412010653 METAR KSEA 010653Z 11006KT 10SM FEW200 M01/M11 A3011 RMK AO2 SLP206 T10061106=
201412010553 METAR KSEA 010553Z 05008KT 10SM CLR M01/M08 A3010 RMK AO2 SLP204 T10061078 10011 21017 58001=
201412010453 METAR KSEA 010453Z 04005KT 10SM CLR M01/M07 A3010 RMK AO2 SLP205 T10061067=
201412010353 METAR KSEA 010353Z 02008KT 10SM CLR M01/M06 A3010 RMK AO2 SLP205 T10111056=
201412010253 METAR KSEA 010253Z 02007KT 10SM CLR M01/M05 A3010 RMK AO2 SLP205 T10061050 58003=
201412010153 METAR KSEA 010153Z 03010KT 10SM CLR M01/M05 A3011 RMK AO2 SLP208 T10061050=
201412010053 METAR KSEA 010053Z 01011KT 10SM FEW200 00/M05 A3011 RMK AO2 SLP208 T00001050=

# No short TAF reports from KSEA in databse.

###################################
#  large TAF from KSEA
###################################
201412312330 TAF KSEA 312330Z 0100/0206 04006KT P6SM SKC FM020500 13006KT P6SM
                       BKN150=
201412312102 TAF AMD KSEA 312102Z 3121/0124 04006KT P6SM SKC=
201412311738 TAF KSEA 311738Z 3118/0124 04006KT P6SM SKC=
201412311401 TAF AMD KSEA 311401Z 3114/0118 03004KT P6SM SKC FM312000 36005KT
                       P6SM SKC FM010100 VRB03KT P6SM SKC=
201412311125 TAF KSEA 311125Z 3112/0118 VRB03KT P6SM SCT130 BKN200 FM311500
                       04005KT P6SM SKC FM312000 36005KT P6SM SKC
                       FM010100 VRB03KT P6SM SKC=
201412310904 KSEA 310904Z 3109/0112 05006KT P6SM BKN130 OVC200 FM312000 01006KT
                       P6SM SKC FM010100 VRB03KT P6SM SKC=
201412310520 TAF KSEA 310520Z 3106/0112 02006KT P6SM BKN200 FM310900 05006KT
                       P6SM SCT130 OVC200 FM312000 01006KT P6SM
                       SKC FM010100 VRB03KT P6SM SKC=
201412310324 TAF AMD KSEA 310324Z 3103/0106 02008KT P6SM SKC FM310900 05006KT
                       P6SM SKC FM312000 01006KT P6SM SKC=
201412302330 TAF KSEA 302330Z 3100/0106 05008KT P6SM SKC=
201412302102 TAF AMD KSEA 302102Z 3021/3124 05008KT P6SM SKC=
201412301728 TAF KSEA 301728Z 3018/3124 05006KT P6SM SKC=
201412301400 TAF AMD KSEA 301400Z 3014/3118 07008KT P6SM SKC FM302100 02008KT
                       P6SM SKC FM310000 VRB03KT P6SM SCT250=
201412301133 TAF KSEA 301133Z 3012/3118 05008KT P6SM SKC FM302100 02008KT P6SM
                       SKC FM310000 VRB03KT P6SM SCT250=
201412300909 TAF AMD KSEA 300909Z 3009/3112 05008KT P6SM FEW050 FM301200 07008KT
                       P6SM SKC FM302100 02005KT P6SM SKC FM310000
                       VRB03KT P6SM SKC=
201412300522 TAF KSEA 300522Z 3006/3112 05008KT P6SM SCT050
                      TEMPO 3006/3010 BKN050 FM301200 07008KT P6SM
                       SKC FM302100 02005KT P6SM SKC FM310000 VRB03KT
                       P6SM SKC=
201412300320 TAF AMD KSEA 300320Z 3003/3106 03009KT P6SM FEW045 BKN070 FM300600
                       05010KT P6SM SCT070 FM301200 06007KT P6SM
                       FEW250 FM302100 02005KT P6SM FEW250=
201412292320 TAF KSEA 292320Z 3000/3106 04010KT P6SM FEW040
                      TEMPO 3000/3004 04014G22KT FM300600 05010KT
                       P6SM SKC FM301200 06007KT P6SM FEW250 FM302100
                       02005KT P6SM FEW250=
201412292057 TAF AMD KSEA 292057Z 2921/3024 04010KT P6SM SCT040 SCT100 FM292200
                       04014G22KT P6SM SKC FM300600 05010KT P6SM
                       SKC FM301200 06007KT P6SM FEW250=
201412291720 TAF KSEA 291720Z 2918/3024 01010G18KT P6SM SCT030 SCT100 FM292200
                       04014G22KT P6SM SKC FM300600 05010KT P6SM
                       SKC FM301200 06007KT P6SM FEW250=
201412291401 TAF AMD KSEA 291401Z 2914/3018 01010G18KT P6SM SCT020 BKN100
                      TEMPO 2914/2916 BKN020 BKN100 FM292200 04014G22KT
                       P6SM SKC FM300600 05010KT P6SM SKC=
201412291130 TAF KSEA 291130Z 2912/3018 01009KT P6SM SCT015 BKN070
                      TEMPO 2912/2914 BKN015 FM291400 03010KT P6SM
                       SCT030 BKN100 FM292200 04014G22KT P6SM SKC
                       FM300600 05010KT P6SM SKC=
201412290900 TAF AMD KSEA 290900Z 2909/3012 02006KT P6SM SCT021 SCT035
                      TEMPO 2909/2912 -SHRA BKN021 BKN035 FM291400
                       03010KT P6SM BKN100 FM292200 04014G22KT
                       P6SM SKC=
201412290535 TAF KSEA 290535Z 2906/3012 04005KT P6SM SCT017 OVC040
                      TEMPO 2906/2910 -SHRA BKN017 OVC030 FM291000
                       05005KT P6SM VCSH OVC015 FM291400 03010KT
                       P6SM BKN100 FM292200 04014G22KT P6SM SKC=
201412290300 TAF AMD KSEA 290300Z 2903/3006 11004KT P6SM OVC020 FM290800 04010KT
                       P6SM SCT040 BKN080 FM291500 03012KT P6SM
                       SCT080 BKN250 FM292200 04014G22KT P6SM SCT100
                       SCT250=
201412282320 TAF KSEA 282320Z 2900/3006 03005KT P6SM BKN020 OVC050 FM290800
                       04010KT P6SM SCT040 BKN080 FM291500 03012KT
                       P6SM SCT080 BKN250 FM292200 04014G22KT P6SM
                       SCT100 SCT250=
201412282105 KSEA 282105Z 2821/2924 VRB03KT P6SM VCSH FEW013 BKN040 OVC060 FM282200
                       03005KT P6SM SCT040 OVC060 FM290800 04010KT
                       P6SM SCT040 BKN080 FM291500 03012KT P6SM
                       SCT080 BKN250=
201412281720 TAF KSEA 281720Z 2818/2924 VRB03KT P6SM VCSH FEW013 BKN035 OVC060
                       FM282200 03005KT P6SM SCT035 OVC060 FM290800
                       04010KT P6SM SCT040 BKN080 FM291500 03012KT
                       P6SM SCT080 BKN250=
201412281401 TAF AMD KSEA 281401Z 2814/2918 05008KT P6SM -RA FEW013 BKN028 OVC035
                       TEMPO 2814/2818 BKN013 OVC028 FM282200 03008KT
                       P6SM VCSH BKN025 OVC040 FM290800 04010KT
                       P6SM SCT030 BKN060 FM291500 03012KT P6SM
                       SCT080 BKN250=
201412281156 TAF KSEA 281156Z 2812/2918 00000KT P6SM BKN008 OVC017
                      TEMPO 2812/2816 SCT008 BKN017 OVC035 FM282200
                       03008KT P6SM VCSH BKN025 OVC040 FM290800
                       04010KT P6SM SCT030 BKN060 FM291500 03012KT
                       P6SM SCT080 BKN250=
201412281130 TAF KSEA 281130Z 2812/2918 00000KT P6SM SCT010 BKN035 OVC060
                      TEMPO 2812/2816 BKN010 OVC035 FM282200 03008KT
                       P6SM VCSH BKN025 OVC040 FM290800 04010KT
                       P6SM SCT030 BKN060 FM291500 03012KT P6SM
                       SCT080 BKN250=
201412280940 TAF AMD KSEA 280940Z 2810/2912 18004KT P6SM SCT011 BKN060
                      TEMPO 2812/2816 BKN011 OVC050 FM282100 33006KT
                       P6SM BKN025 FM290000 05005KT P6SM BKN050=
201412280535 TAF KSEA 280535Z 2806/2912 23010KT P6SM BKN017 FM281000 22009KT
                       P6SM OVC015 FM281500 17005KT P6SM OVC020
                       FM282100 33006KT P6SM BKN025 FM290000 05005KT
                       P6SM BKN050=
201412280300 TAF AMD KSEA 280300Z 2803/2906 22012KT P6SM FEW015 SCT035
                      TEMPO 2803/2807 SCT015 BKN035 FM280700 21010KT
                       P6SM VCSH SCT010 BKN020 OVC050 FM281000
                       22009KT P6SM OVC020 FM281500 17005KT P6SM
                       OVC020 FM282100 21007KT P6SM OVC020=
201412272320 TAF KSEA 272320Z 2800/2906 20014G22KT P6SM -SHRA BKN010 OVC020
                       FM280400 21010KT P6SM VCSH SCT010 BKN020
                       OVC050 FM281000 22009KT P6SM OVC020 FM281500
                       17005KT P6SM OVC020 FM282100 21007KT P6SM
                       OVC020=
201412272058 KSEA 272058Z 2721/2824 20014G22KT P6SM -SHRA BKN010 OVC020 FM280400
                       21010KT P6SM VCSH SCT010 BKN020 OVC050 FM281000
                       22009KT P6SM OVC020 FM281500 17005KT P6SM
                       OVC020 FM282100 21007KT P6SM OVC020=
201412271720 TAF KSEA 271720Z 2718/2824 17008KT P6SM -RA OVC010 FM271900 20014G22KT
                       P6SM -SHRA SCT010 BKN020 OVC035 FM280400
                       21010KT P6SM VCSH SCT017 BKN030 OVC050 FM281000
                       22009KT P6SM OVC020 FM281500 17005KT P6SM
                       OVC020=
201412271408 TAF AMD KSEA 271408Z 2714/2818 17008KT P6SM -RA OVC015 FM271800
                       20014G22KT P6SM -SHRA SCT012 BKN020 OVC035
                       FM280400 21010KT P6SM VCSH SCT017 BKN030
                       OVC050 FM281000 22009KT P6SM OVC020=
201412271130 TAF KSEA 271130Z 2712/2818 15005KT 6SM -RA OVC017 FM271300 19007KT
                       6SM -RA BR OVC013
                      TEMPO 2713/2717 3SM -RA BR OVC007 FM271800
                       20014G22KT P6SM -SHRA SCT012 BKN020 OVC035
                       FM280400 21010KT P6SM VCSH SCT017 BKN030
                       OVC050 FM281000 22009KT P6SM OVC020=
201412270532 TAF KSEA 270532Z 2706/2812 00000KT P6SM BKN014 OVC040
                      TEMPO 2707/2711 OVC013 FM271100 19007KT P6SM
                       -RA OVC013
                      TEMPO 2712/2716 4SM -RA BR OVC007 FM271800
                       20014G22KT P6SM -SHRA SCT012 BKN020 OVC035
                       FM280400 21010KT P6SM VCSH SCT017 BKN030
                       OVC050 FM281000 22009KT P6SM OVC020=
201412270305 TAF AMD KSEA 270305Z 2703/2806 00000KT P6SM BKN014 OVC040 FM270800
                       17005KT P6SM OVC013 FM271200 18005KT P6SM
                       -RA OVC010 FM271600 19008KT 5SM -RA BR OVC007
                       FM272000 20010KT P6SM -RA OVC010=
201412262320 TAF KSEA 262320Z 2700/2806 15003KT P6SM SCT010 BKN200 FM270600
                       17005KT P6SM SCT010 BKN050 FM271200 18005KT
                       P6SM -RA OVC010 FM271600 19008KT 5SM -RA
                       BR OVC007 FM272000 20010KT P6SM -RA OVC010=
201412262056 TAF AMD KSEA 262056Z 2621/2724 15003KT P6SM SCT005 BKN200 FM262200
                       15003KT P6SM SCT010 BKN200 FM270600 17005KT
                       P6SM SCT010 BKN050 FM271200 18005KT P6SM
                       -RA OVC010 FM271600 19008KT 5SM -RA BR OVC007
                       FM272000 20009KT 5SM -RA BR OVC010=
201412261721 TAF KSEA 261721Z 2618/2724 14003KT 1/2SM FG OVC002 FM262000 20004KT
                       2SM BR OVC004 FM262100 15003KT P6SM SCT006
                       OVC010 FM262200 15003KT P6SM SCT010 BKN020
                       OVC050 FM270600 17005KT P6SM OVC010 FM271200
                       18005KT P6SM -RA OVC010 FM271600 19008KT
                       5SM -RA BR OVC007=
201412261410 TAF AMD KSEA 261410Z 2614/2718 11004KT 1/2SM FG OVC002 FM261700
                       20004KT 2SM BR OVC004 FM262100 15003KT P6SM
                       SCT006 OVC015 FM262200 15003KT P6SM SCT018
                       BKN035 OVC070 FM270600 17005KT P6SM OVC012
                       FM271200 17005KT P6SM -RA OVC012=
201412261135 TAF KSEA 261135Z 2612/2718 11004KT P6SM OVC004
                      TEMPO 2613/2617 2SM BR OVC001 FM261700 20004KT
                       P6SM OVC007 FM262000 15003KT P6SM OVC015
                       FM262200 15003KT P6SM SCT018 BKN035 OVC070
                       FM270600 17005KT P6SM OVC012 FM271200 17005KT
                       P6SM -RA OVC012=
201412260937 TAF AMD KSEA 260937Z 2610/2712 13005KT P6SM OVC004 FM261800 VRB03KT
                       P6SM SCT006 BKN015 FM262200 15003KT P6SM
                       SCT018 BKN035 OVC070 FM270600 17005KT P6SM
                       OVC015 FM270900 17005KT P6SM -RA OVC015=
201412260530 TAF KSEA 260530Z 2606/2712 15005KT P6SM SCT007 SCT016 BKN070
                      TEMPO 2606/2610 BKN007 OVC030 FM261000 VRB03KT
                       P6SM SCT007 OVC015
                      TEMPO 2610/2614 OVC007 FM262200 15003KT P6SM
                       SCT018 BKN035 OVC070 FM270600 17005KT P6SM
                       OVC015 FM270900 17005KT P6SM -RA OVC015=
201412260300 KSEA 260300Z 2603/2706 24003KT P6SM SCT007 FM260600 15004KT P6SM
                       OVC040 FM261200 08003KT P6SM OVC030 FM262000
                       12003KT P6SM BKN025 OVC040=
201412252327 TAF KSEA 252327Z 2600/2706 24006KT P6SM FEW015 SCT040 BKN080 FM260200
                       18004KT P6SM SCT040 BKN080 FM260600 15004KT
                       P6SM OVC040 FM261200 08003KT P6SM OVC030
                       FM262000 12003KT P6SM BKN025 OVC040=
201412252059 KSEA 252059Z 2521/2624 24006KT P6SM FEW015 SCT020 OVC060 FM260200
                       18004KT P6SM SCT025 BKN060 FM260600 15004KT
                       P6SM OVC035 FM261200 08003KT P6SM OVC015
                       FM262000 VRB03KT P6SM BKN020 OVC040=
201412251724 TAF KSEA 251724Z 2518/2624 21006KT P6SM SCT010 BKN018 OVC030 FM252000
                       24006KT P6SM SCT016 BKN025 OVC050 FM260200
                       18004KT P6SM SCT025 BKN050 FM260600 15004KT
                       P6SM OVC035 FM261200 08003KT P6SM OVC015=
201412251415 TAF AMD KSEA 251415Z 2514/2618 13004KT P6SM SCT006 BKN016 OVC030
                       TEMPO 2514/2517 BKN006 OVC016 FM251800 21006KT
                       P6SM SCT010 BKN018 OVC030 FM252000 24006KT
                       P6SM VCSH SCT016 BKN025 OVC050 FM260200
                       18004KT P6SM VCSH SCT025 BKN050 FM260600
                       15004KT P6SM OVC035 FM261200 08003KT P6SM
                       OVC015=
201412251120 TAF KSEA 251120Z 2512/2618 14006KT 6SM BR SCT002 OVC009
                      TEMPO 2513/2517 3SM BR BKN002 OVC006 FM251800
                       21006KT P6SM SCT010 BKN017 OVC030 FM252200
                       24006KT P6SM VCSH SCT016 BKN030 OVC050 FM260200
                       18004KT P6SM VCSH SCT025 BKN050 FM260600
                       15004KT P6SM OVC035 FM261200 08003KT P6SM
                       OVC015=
201412250800 KSEA 250800Z 2508/2612 12007KT P6SM SCT006 BKN012 OVC016
                      TEMPO 2510/2514 -SHRA OVC006 FM260000 VRB03KT
                       P6SM BKN050 FM260900 14005KT P6SM OVC015=
201412250530 TAF KSEA 250530Z 2506/2612 13003KT P6SM SCT027 OVC070 FM250900
                       19006KT P6SM VCSH SCT022 OVC035
                      TEMPO 2510/2514 -SHRA BKN022 OVC030 FM260000
                       VRB03KT P6SM BKN050 FM260900 14005KT P6SM
                       OVC015=
201412242320 TAF KSEA 242320Z 2500/2606 18005KT P6SM BKN010 OVC030 FM250100
                       18006KT P6SM SCT030 BKN060 FM251500 14004KT
                       P6SM SCT015 BKN030 FM251900 24004KT P6SM
                       SCT030 BKN060=
201412242106 KSEA 242106Z 2421/2524 18005KT P6SM BKN010 OVC030 FM250100 18006KT
                       P6SM SCT030 BKN060 FM251500 08004KT P6SM
                       SCT015 BKN030 FM251900 26004KT P6SM SCT030
                       BKN060=
201412241738 TAF KSEA 241738Z 2418/2524 15004KT P6SM BKN010 OVC030 FM242000
                       18005KT P6SM VCSH BKN030 OVC050
                      TEMPO 2420/2424 -SHRA BKN010 OVC030 FM250100
                       18006KT P6SM SCT030 BKN060 FM251500 08004KT
                       P6SM SCT015 BKN030=
201412241610 KSEA 241610Z 2416/2518 15004KT P6SM BKN010 OVC030
                      TEMPO 2416/2418 -RA FM241800 18005KT P6SM
                       -SHRA BKN030 OVC050 FM250100 18006KT P6SM
                       SCT030 BKN060=
201412241405 TAF AMD KSEA 241405Z 2414/2518 15004KT P6SM SCT020 OVC040
                      TEMPO 2414/2418 -RA FM241800 18005KT P6SM
                       -SHRA BKN030 OVC050 FM250100 18006KT P6SM
                       SCT030 BKN060=
201412241128 TAF KSEA 241128Z 2412/2518 15004KT P6SM -RA SCT020 OVC040
                      TEMPO 2412/2416 OVC020 FM241800 18005KT P6SM
                       -SHRA BKN030 OVC050 FM250100 18006KT P6SM
                       SCT030 BKN060=
201412240849 KSEA 240849Z 2409/2512 11006KT 6SM -RA BR OVC030 FM241200 17005KT
                       4SM -RA BR BKN020 OVC030 FM241800 18005KT
                       5SM -SHRA BR BKN025 OVC050 FM250100 18006KT
                       P6SM SCT030 BKN050=
201412240520 TAF KSEA 240520Z 2406/2512 06010KT P6SM -RA SCT015 OVC040
                      TEMPO 2406/2407 4SM -RA BR BKN015 OVC025
                       FM240800 36006KT 4SM RA BR BKN015 OVC025
                       FM241200 20010KT 4SM -RA BR OVC012 FM241800
                       20010KT 5SM -SHRA BR OVC025 FM250100 18006KT
                       P6SM SCT030 BKN050=
201412240417 TAF AMD KSEA 240417Z 2404/2506 05012G20KT P6SM -RA FEW010 SCT025
                       OVC045
                      TEMPO 2404/2407 4SM -RA BR BKN010 OVC025
                       FM240700 36006KT 4SM RA BR OVC015 FM241200
                       20010KT 4SM -RA BR OVC012 FM241800 20010KT
                       5SM -SHRA BR OVC025=
201412240205 TAF AMD KSEA 240205Z 2402/2506 04013KT 3SM -RA BR SCT004 BKN015
                       OVC025
                      TEMPO 2402/2404 04013G22KT FM240400 01010KT
                       5SM -RA BR OVC012 FM240600 36006KT 4SM RA
                       BR OVC012 FM241200 20010KT 4SM -RA BR OVC012
                       FM241800 20010KT 5SM -SHRA BR OVC025=
201412240157 TAF AMD KSEA 240157Z 2402/2506 04013KT 3SM -RA BR SCT004 BKN015
                       OVC025 FM240400 01010KT 5SM -RA BR OVC012
                       FM240600 36006KT 4SM RA BR OVC012 FM241200
                       20010KT 4SM -RA BR OVC012 FM241800 20010KT
                       5SM -SHRA BR OVC025=
201412240106 TAF AMD KSEA 240106Z 2401/2506 02012KT 2SM RA BR SCT002 OVC010
                       FM240400 33010KT 5SM -RA BR OVC012 FM240600
                       36006KT 4SM RA BR OVC012 FM241200 20010KT
                       4SM -RA BR OVC012 FM241800 20010KT 5SM -SHRA
                       BR OVC025=
201412232320 TAF KSEA 232320Z 2400/2506 18010KT P6SM SCT015 OVC025
                      TEMPO 2400/2402 3SM -RA OVC015 FM240200 33010KT
                       5SM -RA BR OVC012 FM240600 36006KT 4SM RA
                       BR OVC012 FM241200 20010KT 4SM -RA BR OVC012
                       FM241800 20010KT 5SM -SHRA BR OVC025=
201412232217 TAF AMD KSEA 232217Z 2322/2424 18010KT P6SM SCT015 BKN025 OVC035
                       TEMPO 2400/2403 -RA OVC015 FM240300 33010KT
                       5SM -RA BR OVC012 FM240600 36006KT 4SM RA
                       BR OVC012 FM241200 20010KT 4SM -RA BR OVC012
                       FM241800 20010KT 5SM -RA BR OVC020=
201412232210 TAF AMD KSEA 232210Z 2322/2424 18010KT P6SM BKN025 OVC035 FM240000
                       18010KT 5SM -RA BR OVC012 FM240100 21012G22KT
                       5SM RA BR OVC012 FM240600 36006KT 4SM RA
                       BR OVC012 FM241200 20010KT 4SM -RA BR OVC012
                       FM241800 20010KT 5SM -RA BR OVC020=
201412232010 TAF AMD KSEA 232010Z 2320/2424 20006KT P6SM -RA BKN008 OVC015 WS020/18040KT
                       FM232200 20010KT 5SM -RA BR OVC012 FM240100
                       21012G22KT 5SM RA BR OVC012 FM240600 36006KT
                       4SM RA BR OVC012 FM241200 20010KT 4SM -RA
                       BR OVC012 FM241800 20010KT 5SM -RA BR OVC020=
201412231725 TAF KSEA 231725Z 2318/2424 16006KT P6SM -RA OVC025 WS020/18040KT
                       FM232200 18010KT 5SM -RA BR OVC018 FM240100
                       21012G22KT 5SM RA BR OVC018 FM240600 36006KT
                       4SM RA BR OVC018 FM241200 20010KT 4SM -RA
                       BR OVC018 FM241800 20010KT 5SM -RA BR OVC025=
201412231556 TAF AMD KSEA 231556Z 2316/2418 00000KT P6SM -RA BKN025 OVC040 FM231800
                       16010KT P6SM -RA OVC025 WS020/18040KT FM232200
                       18010KT 4SM RA BR OVC018=
201412231415 TAF AMD KSEA 231415Z 2314/2418 00000KT P6SM BKN035 OVC050 FM231800
                       16010KT P6SM -RA OVC025 FM232100 18010KT
                       5SM -RA BR BKN015 OVC025=
201412231120 TAF KSEA 231120Z 2312/2418 00000KT P6SM OVC070 FM231500 17008KT
                       P6SM -RA SCT025 OVC040 FM231800 16010KT
                       P6SM -RA OVC025 FM232100 18010KT 5SM -RA
                       BR BKN015 OVC025=
201412230900 TAF AMD KSEA 230900Z 2309/2412 09004KT P6SM OVC100 FM231500 17008KT
                       P6SM -RA SCT025 OVC040 FM231800 16010KT
                       P6SM -RA OVC025 FM232100 18010KT 5SM -RA
                       BR BKN015 OVC025=
201412230521 TAF KSEA 230521Z 2306/2412 09004KT P6SM BKN100 OVC200 FM230900
                       12005KT P6SM BKN070 OVC120 FM231500 17008KT
                       P6SM -RA SCT025 OVC040 FM231800 16010KT
                       P6SM -RA OVC025 FM232100 18010KT 5SM -RA
                       BR BKN015 OVC025=
201412230300 KSEA 230300Z 2303/2406 07003KT P6SM SCT120 BKN180 FM230900 19005KT
                       P6SM BKN070 OVC120 FM231500 17008KT P6SM
                       -RA SCT025 OVC040 FM231800 16010KT P6SM
                       -RA OVC025 FM232100 18010KT 4SM RA BR OVC012=
201412222323 TAF KSEA 222323Z 2300/2406 20005KT P6SM SCT025 BKN150 FM230900
                       19005KT P6SM BKN070 OVC120 FM231500 17008KT
                       P6SM -RA SCT025 OVC040 FM231800 16010KT
                       P6SM -RA OVC025 FM232100 18010KT 4SM RA
                       BR OVC012=
201412222101 KSEA 222101Z 2221/2324 20005KT P6SM SCT025 BKN150 FM230900 19005KT
                       P6SM BKN070 OVC120 FM231500 17008KT P6SM
                       -RA SCT025 OVC040 FM231800 16010KT P6SM
                       -RA OVC025 FM232000 18010KT 4SM RA BR OVC012=
201412221720 TAF KSEA 221720Z 2218/2324 13006KT P6SM FEW020 SCT050 FM222000
                       14006KT P6SM SCT045 BKN150 FM230900 15005KT
                       P6SM BKN070 OVC120 FM231500 17008KT P6SM
                       -RA SCT025 OVC040 FM231800 16010KT P6SM
                       -RA OVC025 FM232000 18010KT 4SM RA BR OVC012=
201412221430 TAF AMD KSEA 221430Z 2215/2318 VRB03KT P6SM FEW015 SCT035 FM222000
                       VRB04KT P6SM SCT045 BKN150 FM230900 13005KT
                       P6SM BKN070 OVC120 FM231500 17008KT P6SM
                       -RA BKN025 OVC045=
201412221121 TAF KSEA 221121Z 2212/2318 00000KT P6SM FEW015 SCT035
                      TEMPO 2212/2216 BKN015 OVC035 FM222000 VRB04KT
                       P6SM SCT045 BKN150 FM230900 13005KT P6SM
                       BKN070 OVC120 FM231500 17008KT P6SM -RA
                       BKN025 OVC045=
201412220858 TAF AMD KSEA 220858Z 2209/2312 22006KT P6SM SCT015 BKN100
                      TEMPO 2209/2212 BKN015 OVC100 FM221200 19006KT
                       P6SM OVC015 FM222000 15005KT P6SM BKN045
                       BKN120 FM222300 12005KT P6SM SCT045 BKN100=
201412220520 TAF KSEA 220520Z 2206/2312 21008KT P6SM SCT015 OVC120
                      TEMPO 2206/2209 BKN015 OVC120 FM220900 19006KT
                       P6SM OVC015 FM222000 15005KT P6SM BKN045
                       BKN120 FM222300 12005KT P6SM SCT045 BKN100=
201412220218 TAF AMD KSEA 220218Z 2202/2306 19008KT P6SM SCT015 SCT090 OVC150
                       TEMPO 2202/2206 BKN015 OVC090 FM220600 16007KT
                       P6SM BKN018 OVC025 FM222000 15005KT P6SM
                       BKN045 BKN120 FM230000 12005KT P6SM SCT045
                       BKN100=
201412220129 TAF AMD KSEA 220129Z 2201/2306 19008KT P6SM FEW015 SCT090 OVC150
                       FM220600 16007KT P6SM BKN018 OVC025 FM222000
                       15005KT P6SM BKN045 BKN120 FM230000 12005KT
                       P6SM SCT045 BKN100=
201412212324 TAF KSEA 212324Z 2200/2306 23010G20KT P6SM SCT018 BKN025 OVC050
                       FM220200 24010KT P6SM SCT018 OVC025 FM220600
                       16007KT P6SM BKN018 OVC025 FM222000 15005KT
                       P6SM BKN045 BKN120 FM230000 12005KT P6SM
                       SCT045 BKN100=
201412212303 TAF AMD KSEA 212303Z 2123/2224 21012G20KT P6SM SCT025 BKN090
                      TEMPO 2200/2204 BKN025 BKN090 FM220400 19010KT
                       P6SM SCT018 BKN025 OVC050 FM220800 16007KT
                       P6SM BKN018 OVC045 FM222000 15005KT P6SM
                       BKN045=
201412212102 TAF AMD KSEA 212102Z 2121/2224 21012G20KT P6SM BKN018 BKN045 BKN100
                       FM220000 19010KT P6SM SCT018 BKN025 OVC050
                       FM220800 16007KT P6SM BKN018 OVC045 FM222000
                       15005KT P6SM BKN045=
201412211724 TAF KSEA 211724Z 2118/2224 21014G22KT P6SM SCT014 BKN045 BKN100
                       TEMPO 2118/2120 BKN014 BKN025 BKN100 FM220200
                       19010KT P6SM OVC050 FM220800 16007KT P6SM
                       BKN020 OVC045 FM222000 15005KT P6SM BKN045=
201412211531 TAF AMD KSEA 211531Z 2116/2218 21012G22KT P6SM SCT012 BKN100
                      TEMPO 2116/2118 BKN012 FM211800 21014G22KT
                       P6SM SCT022 BKN050 BKN100 FM220200 19010KT
                       P6SM OVC050 FM220800 19008KT P6SM BKN020
                       OVC045=
201412211402 TAF AMD KSEA 211402Z 2114/2218 22014G22KT P6SM SCT015 SCT050 BKN100
                       FM211700 21014G22KT P6SM BKN050 BKN100 FM220200
                       19010KT P6SM OVC050 FM220800 19008KT P6SM
                       BKN020 OVC045=
201412211120 TAF KSEA 211120Z 2112/2218 22014G22KT P6SM SCT050 BKN100 FM211700
                       21014G22KT P6SM BKN050 BKN100 FM220200 19010KT
                       P6SM OVC050 FM220800 19008KT P6SM BKN020
                       OVC045=
201412210916 TAF AMD KSEA 210916Z 2109/2212 22016G26KT P6SM FEW015 BKN100
                      TEMPO 2112/2116 BKN015 OVC100 FM211600 21014G22KT
                       P6SM BKN025 OVC045 FM212200 21012G18KT P6SM
                       SCT025 OVC050 FM220800 19010KT P6SM BKN020
                       OVC035=
201412210520 TAF KSEA 210520Z 2106/2212 20018G28KT P6SM BKN012 OVC025 FM211700
                       21014G22KT P6SM BKN025 OVC045 FM212200 21012G18KT
                       P6SM SCT025 OVC050 FM220800 19010KT P6SM
                       BKN020 OVC035=
201412210205 KSEA 210205Z 2102/2206 19013KT 6SM BR SCT009 OVC025
                      TEMPO 2102/2104 19015G25KT 4SM -RA BR BKN009
                       OVC025 FM210400 21018G26KT 6SM -RA OVC015
                       FM211700 21015G22KT P6SM VCSH OVC025 FM212200
                       21014G21KT P6SM VCSH SCT025 OVC045=
201412210127 TAF AMD KSEA 210127Z 2101/2206 18013KT 6SM BR SCT015 OVC025
                      TEMPO 2101/2103 18013G20KT 4SM -RA BR BKN015
                       OVC025 FM210300 21018G26KT 6SM -RA OVC015
                       FM211700 21015G22KT P6SM VCSH OVC025 FM212200
                       21014G21KT P6SM VCSH SCT025 OVC045=
201412202324 TAF KSEA 202324Z 2100/2206 14009KT 4SM -RA BR BKN025 OVC030 FM210200
                       21018G26KT 6SM -RA OVC015 FM211700 21015G22KT
                       P6SM VCSH OVC025 FM212200 21014G21KT P6SM
                       VCSH SCT025 OVC045=
201412202112 TAF AMD KSEA 202112Z 2021/2124 13009KT 5SM -RA BR BKN030 OVC060
                       FM202200 20015G25KT P6SM -RA BKN020 OVC040
                       FM211100 22012G20KT P6SM -SHRA BKN020 BKN040=
201412201733 TAF KSEA 201733Z 2018/2124 07009KT P6SM OVC026
                      TEMPO 2018/2020 4SM -RA BR BKN020 OVC035
                       FM202200 20015G25KT P6SM -RA BKN020 OVC040
                       FM211100 22012G20KT P6SM -SHRA BKN020 BKN040=
201412201401 TAF AMD KSEA 201401Z 2014/2118 11009KT P6SM -RA OVC040 FM201600
                       15012G22KT P6SM -RA SCT020 OVC035
                      TEMPO 2016/2020 4SM -RA BR BKN020 OVC035
                       FM202200 20015G25KT P6SM -RA BKN020 OVC040
                       FM211100 22012G20KT P6SM -SHRA BKN020 BKN040=
201412201122 TAF KSEA 201122Z 2012/2118 14010KT P6SM -RA OVC035 FM201600 15012G22KT
                       P6SM -RA SCT020 OVC035
                      TEMPO 2016/2020 4SM -RA BR BKN020 OVC035
                       FM202200 20015G25KT P6SM -RA BKN020 OVC040
                       FM211100 22012G20KT P6SM -SHRA BKN020 BKN040=
201412200520 TAF KSEA 200520Z 2006/2112 13008KT P6SM SCT050 OVC100 FM200800
                       14010KT P6SM -RA SCT025 OVC045 FM201600
                       15012KT P6SM -RA OVC025 FM201900 16015G23KT
                       4SM -RA BR OVC025=
201412192331 TAF KSEA 192331Z 2000/2106 19009KT P6SM SCT035 BKN050 BKN250 FM200100
                       17009KT P6SM SCT045 OVC100 FM200300 16009KT
                       P6SM OVC045 FM200700 14010KT P6SM -RA SCT025
                       OVC045 FM201600 15012KT P6SM -RA OVC025
                       FM201900 16015G23KT 4SM -RA BR OVC025=
201412192111 TAF AMD KSEA 192111Z 1921/2024 20011G16KT P6SM VCSH SCT025 SCT050
                       BKN250 FM200700 15010KT P6SM -RA OVC040=
201412191720 TAF KSEA 191720Z 1918/2024 18008KT P6SM VCSH BKN035 BKN050 BKN180
                       FM200700 15010KT P6SM -RA OVC040=
201412191407 TAF AMD KSEA 191407Z 1914/2018 18008KT P6SM VCSH SCT020 BKN045
                       FM200000 18008KT P6SM SCT045 BKN100 FM200700
                       15010KT P6SM -RA OVC040=
201412191120 TAF KSEA 191120Z 1912/2018 18008KT P6SM VCSH SCT020 BKN040 FM201000
                       15010KT P6SM -RA OVC040=
201412190902 KSEA 190902Z 1909/2012 16010KT P6SM -RA SCT015 OVC040
                      TEMPO 1909/1911 5SM -RA BR BKN015 OVC040
                       FM191100 18012G18KT P6SM -SHRA BKN020 BKN035
                       FM192000 20010KT P6SM VCSH SCT020 BKN035=
201412190733 TAF AMD KSEA 190733Z 1908/2012 18010KT P6SM -RA SCT007 OVC020
                      TEMPO 1908/1911 5SM -RA BR BKN007 OVC015
                       FM191100 18012G18KT P6SM -SHRA BKN020 BKN035
                       FM192000 20010KT P6SM VCSH SCT020 BKN035=
201412190520 TAF KSEA 190520Z 1906/2012 16012KT P6SM -RA OVC040 FM190900 18012G18KT
                       P6SM -SHRA BKN020 BKN035 FM192000 20010KT
                       P6SM VCSH SCT020 BKN035=
201412182330 TAF KSEA 182330Z 1900/2006 15004KT P6SM -RA FEW030 BKN050 OVC070
                       FM190200 15010KT P6SM -RA OVC030 FM190500
                       15012KT 5SM -RA BR OVC015 WS020/20045KT
                       FM190800 18012G18KT P6SM -SHRA BKN020 BKN035
                       FM192000 20010KT P6SM VCSH SCT020 BKN035=
201412181727 TAF KSEA 181727Z 1818/1924 15005KT P6SM -RA BKN035 OVC050 FM190100
                       13010KT P6SM -RA OVC030 FM190600 15012KT
                       5SM -RA BR OVC015 WS020/20040KT FM190800
                       18012G18KT P6SM -SHRA BKN020 BKN035 FM192000
                       20010KT P6SM VCSH SCT020 BKN035=
201412181505 TAF AMD KSEA 181505Z 1815/1918 11004KT P6SM FEW035 BKN070 OVC200
                       FM181800 14006KT P6SM SCT060 BKN090 FM190100
                       13010KT P6SM -RA OVC035 FM190600 18012G18KT
                       6SM -RA BR OVC020=
201412181305 TAF AMD KSEA 181305Z 1813/1918 15005KT P6SM BKN040 OVC090 FM181500
                       15005KT P6SM BKN050 BKN090 FM181800 14006KT
                       P6SM SCT060 BKN090 FM190100 13010KT P6SM
                       -RA OVC035 FM190600 18012G18KT 6SM -RA BR
                       OVC020=
201412181120 TAF KSEA 181120Z 1812/1918 15005KT 6SM BR VCSH SCT005 BKN012 OVC035
                       TEMPO 1812/1816 4SM -SHRA BR BKN004 OVC010
                       FM181800 13007KT P6SM SCT015 BKN040 OVC090
                       FM190100 13010KT P6SM -RA OVC035 FM190600
                       18012G18KT 6SM -RA BR OVC020=
201412180803 TAF AMD KSEA 180803Z 1808/1912 16005KT 5SM -SHRA BR SCT010 BKN020
                       OVC050
                      TEMPO 1808/1812 2SM -SHRA BR BKN005 OVC012
                       FM181200 15005KT 6SM BR VCSH BKN012 OVC035
                       FM181800 13006KT P6SM BKN050 BKN100 FM190100
                       13009KT P6SM -RA OVC035 FM190900 18012G18KT
                       P6SM -RA OVC022=
201412180520 TAF KSEA 180520Z 1806/1912 16005KT P6SM -SHRA SCT020 BKN035 OVC050
                       TEMPO 1806/1810 BKN015 OVC030 FM181000 15005KT
                       P6SM VCSH BKN017 OVC040 FM181800 13006KT
                       P6SM BKN050 BKN100 FM190100 13009KT P6SM
                       -RA OVC035 FM190900 18012G18KT P6SM -RA
                       OVC022=
201412180303 KSEA 180303Z 1803/1906 16005KT P6SM VCSH BKN035 OVC070
                      TEMPO 1803/1807 BKN025 OVC040 FM180700 16005KT
                       P6SM VCSH BKN025 OVC045 FM181700 13006KT
                       P6SM BKN040 BKN080 FM190100 13010KT P6SM
                       -RA OVC035=
201412180000 TAF KSEA 180000Z 1800/1906 22003KT P6SM VCSH BKN050 BKN200 FM180700
                       16005KT P6SM VCSH OVC010=
201412172103 TAF AMD KSEA 172103Z 1721/1824 10003KT P6SM SCT045 OVC060 FM180000
                       14006KT P6SM VCSH BKN035 BKN070 FM180700
                       16005KT P6SM VCSH OVC010=
201412171721 TAF KSEA 171721Z 1718/1824 10006KT P6SM -SHRA BKN040 OVC080 FM180000
                       14006KT P6SM VCSH BKN035 BKN070 FM180700
                       16005KT P6SM VCSH OVC010=
201412171403 TAF AMD KSEA 171403Z 1714/1818 15006KT P6SM BKN045 OVC070
                      TEMPO 1714/1716 -SHRA BKN035 OVC070 FM171600
                       15006KT P6SM -SHRA BKN040 OVC060 FM180000
                       17006KT P6SM VCSH BKN035 BKN070 FM180700
                       18005KT P6SM VCSH BKN022 OVC045=
201412171129 TAF KSEA 171129Z 1712/1818 15006KT P6SM BKN050 OVC080
                      TEMPO 1712/1716 -SHRA BKN040 OVC070 FM171600
                       15006KT P6SM -SHRA BKN040 OVC060 FM180000
                       17006KT P6SM VCSH BKN035 BKN070 FM180700
                       18005KT P6SM VCSH BKN022 OVC045=
201412170901 KSEA 170901Z 1709/1812 11009KT P6SM SCT050 BKN100 FM171000 10007KT
                       P6SM BKN050 OVC100
                      TEMPO 1713/1717 -SHRA BKN040 OVC070 FM171700
                       11006KT P6SM -SHRA BKN035 OVC060 FM172300
                       15006KT P6SM VCSH BKN040 BKN070=
201412170520 TAF KSEA 170520Z 1706/1812 11009KT P6SM SCT050 BKN100 FM171000
                       10007KT P6SM BKN050 OVC100
                      TEMPO 1713/1717 -SHRA BKN040 OVC070 FM171700
                       11006KT P6SM -SHRA BKN035 OVC060 FM172300
                       15006KT P6SM VCSH BKN040 BKN070=
201412170303 TAF AMD KSEA 170303Z 1703/1806 12008KT P6SM VCSH SCT035 OVC050
                       TEMPO 1703/1707 FEW035 SCT050 FM170700 10007KT
                       P6SM BKN050 OVC100 FM171800 08006KT P6SM
                       VCSH BKN045 OVC070=
201412162325 TAF KSEA 162325Z 1700/1806 08006KT P6SM VCSH OVC035 FM170400 08006KT
                       P6SM BKN060 BKN100=
201412162104 TAF AMD KSEA 162104Z 1621/1724 10008KT P6SM OVC035 FM170400 08006KT
                       P6SM BKN060 BKN100=
201412161732 TAF KSEA 161732Z 1618/1724 12006KT P6SM -RA BKN040 OVC060 FM170400
                       08006KT P6SM BKN060 BKN100=
201412161402 TAF AMD KSEA 161402Z 1614/1718 12010KT P6SM VCSH OVC045 FM161900
                       09008KT P6SM VCSH BKN045 OVC080 FM170500
                       08006KT P6SM BKN060 BKN100 FM171100 10005KT
                       P6SM BKN040 OVC070=
201412161140 TAF KSEA 161140Z 1612/1718 12010KT P6SM VCSH OVC050 FM161900 09008KT
                       P6SM VCSH BKN045 OVC080 FM170500 08006KT
                       P6SM BKN060 BKN100 FM171100 10005KT P6SM
                       BKN040 OVC070=
201412160900 KSEA 160900Z 1609/1712 12012G18KT P6SM BKN060 OVC120 FM161000 12010KT
                       P6SM -SHRA OVC050 FM162000 09008KT P6SM
                       VCSH BKN045 OVC080 FM170500 08006KT P6SM
                       BKN060 BKN100=
201412160521 TAF KSEA 160521Z 1606/1712 12012G18KT P6SM BKN060 OVC120 FM161000
                       12010KT P6SM -SHRA OVC050 FM162000 09008KT
                       P6SM VCSH BKN045 OVC080 FM170500 08006KT
                       P6SM BKN060 BKN100=
201412160302 KSEA 160302Z 1603/1706 12012KT P6SM BKN070 BKN120 BKN200 FM160900
                       10007KT P6SM -RA OVC040=
201412152320 TAF KSEA 152320Z 1600/1706 12010KT P6SM BKN070 BKN120 BKN250 FM160900
                       10007KT P6SM -RA OVC040=
201412152103 KSEA 152103Z 1521/1624 12008KT P6SM BKN070 BKN250 FM160700 10007KT
                       P6SM -RA OVC040=
201412151720 TAF KSEA 151720Z 1518/1624 12010G16KT P6SM BKN060 BKN120 FM152000
                       07009KT P6SM SCT060 OVC090 FM160700 10007KT
                       P6SM -RA OVC040=
201412151503 KSEA 151503Z 1515/1618 10009KT P6SM BKN090 BKN210 FM152000 07009KT
                       P6SM OVC070
                      PROB30 1602/1608 -RA OVC060 FM160800 10007KT
                       P6SM VCSH OVC045=
201412151134 TAF KSEA 151134Z 1512/1618 10010G18KT P6SM SCT100 BKN200 FM151600
                       09009KT P6SM BKN100 OVC200 FM152000 07009KT
                       P6SM OVC070
                      PROB30 1602/1608 -RA OVC060 FM160800 10007KT
                       P6SM VCSH OVC045=
201412150900 KSEA 150900Z 1509/1612 10011KT P6SM BKN200 FM151500 09009KT P6SM
                       BKN120 OVC200 FM152000 07009KT P6SM OVC070
                       PROB30 1522/1604 -RA FM160400 10007KT P6SM
                       VCSH OVC070=
201412150535 TAF KSEA 150535Z 1506/1612 12012G20KT P6SM SCT200 FM151000 10012KT
                       P6SM BKN200 FM151500 09009KT P6SM BKN120
                       OVC200 FM152000 07009KT P6SM OVC070
                      PROB30 1522/1604 -RA FM160400 10007KT P6SM
                       VCSH OVC070=
201412150301 KSEA 150301Z 1503/1606 09012KT P6SM SCT200 FM150900 09009KT P6SM
                       SCT120 OVC200 FM151500 09009KT P6SM SCT070
                       OVC120
                      PROB30 1518/1524 -RA OVC070 FM160000 07009KT
                       P6SM OVC070
                      PROB30 1600/1606 -RA=
201412142343 TAF KSEA 142343Z 1500/1606 09012KT P6SM SCT200 FM150900 09009KT
                       P6SM SCT120 OVC200 FM151500 09009KT P6SM
                       SCT070 OVC120
                      PROB30 1518/1524 -RA OVC070 FM160000 07009KT
                       P6SM OVC070
                      PROB30 1600/1606 -RA=
201412142306 TAF AMD KSEA 142306Z 1423/1524 09010KT P6SM SCT200 FM150000 09010KT
                       P6SM BKN200 FM150900 05009KT P6SM SCT130
                       OVC200 FM151500 08009KT P6SM SCT090 BKN130
                       OVC200=
201412142147 TAF AMD KSEA 142147Z 1422/1524 07009KT P6SM SCT200 FM150000 05009KT
                       P6SM BKN200 FM150900 05009KT P6SM SCT130
                       OVC200 FM151500 08009KT P6SM SCT090 BKN130
                       OVC200=
201412141840 TAF AMD KSEA 141840Z 1419/1524 35006KT P6SM VCFG FEW003 SCT200
                       FM142000 02009KT P6SM SCT200 FM150000 05009KT
                       P6SM BKN200 FM150900 05009KT P6SM SCT130
                       OVC200 FM151500 08009KT P6SM SCT090 BKN130
                       OVC200=
201412141748 TAF KSEA 141748Z 1418/1524 02006KT 3/4SM BR BKN003 FM141900 02009KT
                       P6SM VCFG FEW005 SCT200 FM142000 02009KT
                       P6SM SCT200 FM150000 05009KT P6SM BKN200
                       FM150900 05009KT P6SM SCT130 OVC200 FM151500
                       08009KT P6SM SCT090 BKN130 OVC200=
201412141414 TAF AMD KSEA 141414Z 1414/1518 04004KT 1/4SM FG VV001 FM141800
                       04004KT 1SM BR BKN002 FM141900 08008KT P6SM
                       FEW010 SCT200 FM150000 07008KT P6SM BKN200
                       FM150700 08010KT P6SM SCT120 BKN200=
201412141138 TAF KSEA 141138Z 1412/1518 09006KT 1/4SM FG VV001
                      TEMPO 1413/1417 3SM BR BKN003 FM141700 07007KT
                       5SM BR BKN006 FM141900 08008KT P6SM FEW010
                       SCT200 FM150000 07008KT P6SM BKN200 FM150700
                       08010KT P6SM SCT120 BKN200=
201412140900 KSEA 140900Z 1409/1512 04006KT 4SM BR SCT004 SCT200
                      TEMPO 1409/1413 1SM BR BKN002 FM141300 04008KT
                       6SM BR SCT005 SCT200
                      TEMPO 1413/1417 4SM BR BKN005 FM141700 07008KT
                       P6SM SCT200 FM150000 07008KT P6SM BKN200=
201412140520 TAF KSEA 140520Z 1406/1512 04006KT 1/2SM FG VV001
                      TEMPO 1412/1416 3SM BR BKN002 FM141600 06009KT
                       5SM BR BKN005
                      TEMPO 1416/1418 6SM BR SCT005 SCT200 FM141800
                       07008KT P6SM SCT200 FM150000 07008KT P6SM
                       BKN200=
201412140438 TAF AMD KSEA 140438Z 1405/1506 04005KT P6SM SCT004
                      TEMPO 1405/1409 1SM BR BKN002 FM140900 06005KT
                       5SM BR SCT004
                      TEMPO 1409/1413 2SM BR BKN002 FM141800 07008KT
                       P6SM SCT200 FM150000 07008KT P6SM BKN200=
201412140258 KSEA 140258Z 1403/1506 02005KT P6SM FEW008 FM140600 06005KT 2SM
                       BR OVC004
                      TEMPO 1412/1416 1/2SM FG VV002 FM141800 07008KT
                       6SM BR BKN007 FM141900 05008KT P6SM FEW011
                       BKN200 FM150000 07008KT P6SM BKN200=
201412132346 TAF KSEA 132346Z 1400/1506 VRB03KT P6SM FEW015 FM140300 VRB03KT
                       6SM BR FEW008 FM140600 06005KT 2SM BR OVC004
                       TEMPO 1412/1416 1/2SM FG VV002 FM141800
                       07008KT 6SM BR BKN007 FM141900 05008KT P6SM
                       FEW011 BKN200 FM150000 07008KT P6SM BKN200=
201412132210 TAF AMD KSEA 132210Z 1322/1424 VRB03KT P6SM SCT018 BKN060 FM140000
                       VRB03KT P6SM FEW022 SCT060 FM140600 06006KT
                       P6SM BCFG FEW002
                      TEMPO 1412/1416 2SM BR VV002 FM141900 04009KT
                       P6SM SCT200=
201412132114 TAF AMD KSEA 132114Z 1321/1424 VRB03KT P6SM FEW015 BKN030 BKN060
                       FM140000 VRB03KT P6SM SCT035 SCT060 FM140600
                       06006KT P6SM BCFG FEW002
                      TEMPO 1412/1416 2SM BR VV002 FM141900 04009KT
                       P6SM SCT200=
201412131745 TAF KSEA 131745Z 1318/1424 VRB03KT 6SM BR SCT002 BKN022
                      TEMPO 1318/1320 4SM BR FM132100 VRB03KT P6SM
                       BKN035 FM140000 VRB03KT P6SM SCT035 FM140600
                       06006KT P6SM BCFG FEW002
                      TEMPO 1412/1416 2SM BR VV002 FM141900 04009KT
                       P6SM SCT200=
201412131626 TAF AMD KSEA 131626Z 1316/1418 VRB03KT 5SM BR SCT002 OVC015
                      TEMPO 1316/1318 2SM BR BKN002 OVC015 FM132100
                       VRB03KT P6SM SCT022 BKN060 FM140000 07005KT
                       P6SM SCT035 SCT200 FM140900 09006KT 3SM
                       BCFG SCT003 FM141700 06009KT P6SM SCT200=
201412131541 TAF AMD KSEA 131541Z 1316/1418 VRB03KT P6SM FEW006 BKN015 BKN060
                       FM132100 VRB03KT P6SM SCT022 BKN060 FM140000
                       07005KT P6SM SCT035 SCT200 FM140900 09006KT
                       3SM BCFG SCT003 FM141700 06009KT P6SM SCT200=
201412131409 TAF AMD KSEA 131409Z 1314/1418 00000KT P6SM VCSH BKN006 OVC012
                       FM131700 VRB03KT P6SM BKN010 BKN025 FM132200
                       VRB03KT P6SM SCT015 BKN035 FM140000 07005KT
                       P6SM SCT035 SCT200 FM140900 09006KT 3SM
                       BCFG SCT003 FM141700 06009KT P6SM SCT200=
201412131124 TAF KSEA 131124Z 1312/1418 17004KT P6SM VCSH SCT008 BKN030
                      TEMPO 1312/1316 BKN006 FM131600 18004KT P6SM
                       BKN010 BKN030 FM132200 VRB03KT P6SM SCT015
                       BKN035 FM140000 07005KT P6SM SCT035 SCT200
                       FM140900 09006KT 3SM BCFG SCT003 FM141700
                       06009KT P6SM SCT200=
201412130916 TAF AMD KSEA 130916Z 1309/1412 VRB04KT P6SM OVC010 FM131100 VRB03KT
                       P6SM OVC009 FM132100 VRB03KT P6SM SCT020
                       FM140000 07005KT P6SM SCT200 FM140800 09006KT
                       3SM BCFG SCT003=
201412130522 TAF KSEA 130522Z 1306/1412 19005KT P6SM VCSH SCT017 BKN045
                      TEMPO 1306/1309 BKN013 OVC040 FM130900 VRB04KT
                       P6SM BKN012 BKN040 FM131100 VRB03KT P6SM
                       OVC010 FM132100 VRB03KT P6SM SCT020 FM140000
                       07005KT P6SM SCT200 FM140800 09006KT 3SM
                       BCFG SCT003=
201412130303 KSEA 130303Z 1303/1406 19005KT P6SM SCT022 BKN040 BKN200
                      TEMPO 1303/1307 BKN020 FM130700 VRB04KT P6SM
                       BKN020 BKN040 FM130900 VRB03KT P6SM OVC012
                       FM132100 VRB03KT P6SM SCT025 FM140000 VRB03KT
                       P6SM SCT200=
201412122345 TAF KSEA 122345Z 1300/1406 19005KT P6SM SCT070 BKN200 FM130600
                       VRB03KT P6SM SCT020
                      TEMPO 1306/1309 BKN020 FM130900 VRB03KT P6SM
                       OVC012 FM132100 VRB03KT P6SM SCT025 FM140000
                       VRB03KT P6SM SCT200=
201412122103 KSEA 122103Z 1221/1324 21007KT P6SM FEW020 SCT060 BKN150 FM130100
                       VRB03KT P6SM SCT060 SCT150 FM130900 VRB03KT
                       P6SM BKN022 FM131200 VRB03KT P6SM OVC012
                       FM132100 VRB03KT P6SM BKN035=
201412121748 TAF KSEA 121748Z 1218/1324 21007KT P6SM FEW015 SCT030 OVC150 FM122100
                       21007KT P6SM SCT035 SCT060 BKN150 FM130100
                       VRB03KT P6SM SCT060 SCT150 FM130900 VRB03KT
                       P6SM BKN022 FM131200 VRB03KT P6SM OVC012
                       FM132100 VRB03KT P6SM BKN035=
201412121400 TAF AMD KSEA 121400Z 1214/1318 18008KT P6SM FEW035 BKN040 BKN150
                       FM122000 22005KT P6SM SCT045 BKN060 FM130900
                       19005KT P6SM SCT010 BKN020 FM131200 17005KT
                       P6SM BKN010 FM131600 16005KT P6SM OVC020=
201412121149 TAF KSEA 121149Z 1212/1318 19010KT P6SM SCT030 BKN230 FM121400
                       20006KT P6SM SCT015 BKN040 FM122000 22005KT
                       P6SM SCT045 BKN060 FM130900 19005KT P6SM
                       SCT010 BKN020 FM131200 17005KT P6SM BKN010
                       FM131600 16005KT P6SM OVC020=
201412120847 TAF AMD KSEA 120847Z 1209/1312 19015G25KT P6SM -RA SCT030 OVC040
                       FM121200 18008KT P6SM SCT010 OVC030 FM122000
                       22005KT P6SM SCT030 BKN050 FM130900 19005KT
                       P6SM SCT010 BKN020=
201412120527 TAF KSEA 120527Z 1206/1312 17030G40KT P6SM -SHRA SCT015 OVC045
                       FM120900 20012G25KT P6SM -RA SCT015 OVC040
                       FM121200 18008KT P6SM SCT010 OVC025 FM122000
                       22005KT P6SM SCT030 BKN050 FM130900 19005KT
                       P6SM SCT010 BKN020=
201412120302 TAF AMD KSEA 120302Z 1203/1306 17010G20KT P6SM OVC060 FM120400
                       18030G45KT P6SM -SHRA SCT015 BKN030 FM120500
                       20028G40KT P6SM -SHRA SCT015 BKN030 FM120800
                       20012G25KT P6SM -RA SCT015 OVC030 FM121200
                       18008KT P6SM SCT010 OVC025 FM122000 22005KT
                       P6SM SCT030 BKN050=
201412120143 TAF AMD KSEA 120143Z 1202/1306 12015KT P6SM FEW040 SCT090 BKN150
                       WS020/18050KT FM120300 18030G45KT P6SM -SHRA
                       SCT015 BKN030 FM120500 20028G40KT P6SM -SHRA
                       SCT015 BKN030 FM120800 20012G25KT P6SM -RA
                       SCT015 OVC030 FM121200 18008KT P6SM SCT010
                       OVC025 FM122000 22005KT P6SM SCT030 BKN050=
201412112349 TAF AMD KSEA 112349Z 1200/1306 10010KT P6SM -RA SCT030 BKN050 WS015/16020KT
                       FM120300 15015G25KT P6SM -RA SCT015 BKN030
                       TEMPO 1204/1207 19020G30KT FM120900 20012G25KT
                       P6SM -RA SCT015 OVC030 FM121200 18008KT
                       P6SM SCT010 OVC025 FM122000 22005KT P6SM
                       SCT030 BKN050=
201412112320 TAF KSEA 112320Z 1200/1306 10010KT P6SM -RA SCT030 BKN050 FM120300
                       15015G25KT P6SM -RA SCT015 BKN030
                      TEMPO 1204/1207 19020G30KT FM120900 20012G25KT
                       P6SM -RA SCT015 OVC030 FM121200 18008KT
                       P6SM SCT010 OVC025 FM122000 22005KT P6SM
                       SCT030 BKN050=
201412112057 TAF AMD KSEA 112057Z 1121/1224 33012KT P6SM -RA BKN050 OVC100 FM112200
                       10010KT P6SM -RA SCT030 BKN050 FM120300
                       15015G25KT P6SM -RA SCT015 BKN030
                      TEMPO 1204/1207 19020G30KT FM120900 20012G25KT
                       P6SM -RA SCT015 OVC030 FM121200 18008KT
                       P6SM SCT010 OVC025 FM122000 22005KT P6SM
                       SCT030 BKN050=
201412111728 TAF KSEA 111728Z 1118/1224 05010KT P6SM VCSH BKN050 OVC100
                      TEMPO 1118/1122 10014G23KT -RA FM112200 10010KT
                       P6SM -RA SCT030 BKN050 FM120300 15015G25KT
                       P6SM -RA SCT015 BKN030
                      TEMPO 1204/1207 19020G30KT FM120900 20012G25KT
                       P6SM -RA SCT015 OVC030 FM121200 18008KT
                       P6SM SCT010 OVC025=
201412111400 TAF AMD KSEA 111400Z 1114/1218 07007KT P6SM BKN150 FM111700 05010KT
                       P6SM VCSH BKN050 OVC100 FM112200 10010KT
                       P6SM -RA SCT030 BKN050 FM120300 15015G25KT
                       P6SM -RA SCT015 BKN030
                      TEMPO 1204/1207 19020G30KT FM120900 20012G25KT
                       P6SM -RA SCT015 OVC030 FM121200 18008KT
                       P6SM SCT010 OVC025=
201412111212 TAF KSEA 111212Z 1112/1218 06008KT P6SM BKN050 OVC100 FM111700
                       05010KT P6SM VCSH BKN050 OVC100 FM112200
                       10010KT P6SM -RA SCT030 BKN050 FM120300
                       15015G25KT P6SM -RA SCT015 BKN030
                      TEMPO 1204/1207 19020G30KT FM120900 20012G25KT
                       P6SM -RA SCT015 OVC030 FM121200 18008KT
                       P6SM SCT010 OVC025=
201412110913 TAF AMD KSEA 110913Z 1109/1212 18008KT P6SM BKN050 OVC100 FM111700
                       05010KT P6SM VCSH BKN050 OVC100 FM112200
                       10010KT P6SM -RA SCT030 BKN050 FM120300
                       15015G25KT P6SM -RA SCT015 BKN030
                      TEMPO 1203/1206 19025G35KT FM120900 20012G25KT
                       P6SM -RA SCT015 OVC030=
201412110611 TAF KSEA 110611Z 1106/1212 19010KT P6SM BKN050 OVC100
                      TEMPO 1106/1108 19012G25KT FM111700 05010KT
                       P6SM VCSH BKN050 OVC100 FM112200 10010KT
                       P6SM -RA SCT030 BKN050 FM120300 15015G25KT
                       P6SM -RA SCT015 BKN030
                      TEMPO 1203/1206 19025G35KT FM120900 20012G25KT
                       P6SM -RA SCT015 OVC030=
201412102323 TAF KSEA 102323Z 1100/1206 18020G30KT P6SM -RA BKN040 OVC050 FM110200
                       17012KT P6SM -SHRA SCT030 OVC050 FM111200
                       04012KT P6SM BKN050 OVC100 FM111700 05010KT
                       P6SM VCSH BKN050 OVC100 FM112200 10008KT
                       P6SM -RA SCT030 BKN050=
201412102059 TAF AMD KSEA 102059Z 1021/1124 18020G30KT P6SM -RA BKN040 OVC050
                       FM110200 17012KT P6SM -SHRA SCT030 OVC050
                       FM111200 04012KT P6SM BKN050 OVC100 FM111700
                       05010KT P6SM VCSH BKN050 OVC100 FM112000
                       10008KT P6SM -RA SCT030 BKN050=
201412101723 TAF KSEA 101723Z 1018/1124 14015G25KT P6SM -RA SCT030 OVC050 WS020/18055KT
                       FM102000 18020G30KT P6SM -RA BKN030 OVC050
                       FM110200 17012KT P6SM -SHRA SCT030 OVC050
                       FM111200 04012KT P6SM BKN050 OVC100 FM111700
                       05010KT P6SM VCSH BKN050 OVC100=
201412101120 TAF KSEA 101120Z 1012/1118 14015G25KT P6SM -RA SCT030 OVC050 WS020/18055KT
                       FM102000 18020G30KT P6SM -RA BKN030 OVC050
                       FM110600 17012KT P6SM -SHRA SCT030 OVC050
                       FM111600 04012KT P6SM BKN050 OVC100=
201412100544 TAF KSEA 100544Z 1006/1112 17008KT P6SM -RA BKN050 OVC070 FM101000
                       10010KT P6SM -RA OVC040 WS020/18055KT FM102200
                       18018G28KT P6SM -RA SCT030 OVC050 FM110600
                       15010KT P6SM -SHRA SCT030 OVC050=
201412100306 TAF AMD KSEA 100306Z 1003/1106 17008KT P6SM SCT035 BKN060 OVC150
                       FM101000 10010KT P6SM -RA OVC040 WS020/18055KT
                       FM102200 18022G32KT P6SM -SHRA BKN025 OVC035=
201412092327 TAF KSEA 092327Z 1000/1106 19010KT P6SM FEW030 SCT060 SCT250 FM100300
                       17008KT P6SM SCT035 OVC050 FM101000 10010KT
                       P6SM -RA OVC040 WS020/18055KT FM102200 18022G32KT
                       P6SM -SHRA BKN025 OVC035=
201412092153 TAF AMD KSEA 092153Z 0922/1024 20015G25KT P6SM -SHRA SCT025 BKN035
                       BKN250 FM100000 17010KT P6SM SCT025 BKN045
                       FM101000 10010KT P6SM -RA OVC040 WS020/18055KT
                       FM102200 18022G32KT P6SM -SHRA BKN025 OVC035=
201412091734 TAF KSEA 091734Z 0918/1024 18010KT P6SM -RA OVC040 WS020/18050KT
                       FM092000 18018G25KT 5SM -SHRA BKN025 OVC035
                       FM100000 17010KT P6SM SCT025 BKN045 FM101000
                       10010KT P6SM -RA OVC040 WS020/18055KT=
201412091405 TAF AMD KSEA 091405Z 0914/1018 17007KT P6SM -RA OVC040 WS020/18050KT
                       FM092000 18018G25KT 5SM -SHRA BKN025 OVC035
                       FM100000 17010KT P6SM SCT025 BKN045 FM100900
                       13012KT P6SM -RA OVC040=
201412091143 TAF KSEA 091143Z 0912/1018 14010KT P6SM -RA BKN045 OVC060 WS020/18050KT
                       FM092000 18018G25KT 5SM -SHRA BKN025 OVC035
                       FM100000 17010KT P6SM SCT025 BKN045 FM100900
                       13012KT P6SM -RA OVC040=
201412090915 TAF AMD KSEA 090915Z 0909/1012 14010KT P6SM -RA SCT035 OVC060 WS020/18050KT
                       FM092000 18018G25KT 5SM -RA BKN025 OVC035
                       FM100000 17010KT P6SM SCT025 BKN045 FM100900
                       13012KT P6SM -RA OVC040=
201412090542 TAF KSEA 090542Z 0906/1012 11012KT P6SM -RA OVC050 WS020/17045KT
                       FM091200 13014KT 5SM RA OVC035 WS020/19055KT
                       FM092000 18018G25KT 5SM -RA BKN025 OVC035
                       FM100000 17010KT P6SM SCT025 BKN045 FM100900
                       13012KT P6SM -RA OVC040=
201412090320 TAF AMD KSEA 090320Z 0903/1006 12012KT P6SM -RA OVC050 WS020/17045KT
                       FM091000 15014KT 5SM RA OVC035 WS020/19055KT
                       FM092000 18018G25KT 5SM -RA BKN025 OVC035
                       FM100000 17010KT P6SM SCT025 BKN045=
201412082320 TAF KSEA 082320Z 0900/1006 13008KT P6SM -RA BKN070 OVC120 FM090400
                       15013KT 5SM RA OVC035 WS020/19045KT FM091000
                       15013KT 3SM RA OVC030 WS020/19055KT FM092000
                       18018G25KT 5SM -RA BKN025 OVC035 FM100000
                       17010KT P6SM SCT025 BKN045=
201412082101 TAF AMD KSEA 082101Z 0821/0924 11006KT P6SM FEW050 BKN110 OVC200
                       FM090000 15011KT P6SM -RA OVC040 FM090400
                       15013KT 5SM RA OVC035 WS020/19045KT FM091000
                       15013KT 3SM RA OVC030 WS020/19055KT FM091800
                       18018G25KT 5SM -RA BKN025 OVC035=
201412081733 TAF KSEA 081733Z 0818/0924 12007KT P6SM FEW060 BKN130 BKN250 FM090000
                       15011KT P6SM -RA OVC040 FM090400 15013KT
                       5SM RA OVC035 WS020/19045KT FM091000 15013KT
                       3SM RA OVC030 WS020/19055KT FM091800 18018G25KT
                       5SM -RA BKN025 OVC035=
201412081403 KSEA 081403Z 0814/0918 11006KT P6SM OVC060 FM081800 11006KT P6SM
                       SCT060 BKN100 OVC200 FM090100 15008KT P6SM
                       -RA OVC040=
201412081134 TAF KSEA 081134Z 0812/0918 11006KT P6SM OVC060 FM081800 11006KT
                       P6SM SCT060 BKN100 OVC200 FM090100 15008KT
                       P6SM -RA OVC040=
201412080908 TAF AMD KSEA 080908Z 0809/0912 11006KT P6SM OVC070 FM081500 11006KT
                       P6SM BKN050 OVC070 FM090200 15008KT P6SM
                       -RA OVC040=
201412080540 TAF KSEA 080540Z 0806/0912 11010KT P6SM SCT100 BKN200 FM081000
                       11010KT P6SM BKN100 OVC200 FM081500 11010KT
                       P6SM BKN050 OVC080 FM090200 15008KT P6SM
                       -RA OVC040=
201412080313 TAF AMD KSEA 080313Z 0803/0906 09008KT P6SM SCT100 BKN200 FM080700
                       09008KT P6SM BKN100 OVC200 FM081200 12008KT
                       P6SM BKN050 OVC080 FM081900 15006KT P6SM
                       VCSH SCT030 OVC050=
201412072320 TAF KSEA 072320Z 0800/0906 09008KT P6SM SCT100 BKN200 FM080700
                       09008KT P6SM BKN100 OVC200 FM081200 12008KT
                       P6SM BKN050 OVC080 FM081900 15006KT P6SM
                       VCSH SCT030 OVC050=
201412072058 TAF AMD KSEA 072058Z 0721/0824 09008KT P6SM SCT100 BKN200 FM080700
                       09008KT P6SM BKN100 OVC200 FM081200 12008KT
                       P6SM BKN050 OVC080 FM081900 15006KT P6SM
                       VCSH SCT030 OVC050=
201412071721 TAF KSEA 071721Z 0718/0824 09008KT P6SM SCT050 BKN200 FM080700
                       09008KT P6SM BKN120 OVC200 FM081200 12008KT
                       P6SM BKN045 OVC080=
201412071400 TAF AMD KSEA 071400Z 0714/0818 09008KT P6SM SCT050 BKN200 FM080700
                       09008KT P6SM BKN120 OVC200 FM081200 12008KT
                       P6SM BKN045 OVC080=
201412071132 TAF KSEA 071132Z 0712/0818 09008KT P6SM SCT050 BKN200 FM080700
                       09008KT P6SM BKN120 OVC200 FM081200 12008KT
                       P6SM BKN045 OVC080=
201412070915 TAF AMD KSEA 070915Z 0709/0812 VRB03KT P6SM BKN040 BKN060 FM071600
                       09006KT P6SM SCT050 BKN200 FM081100 09006KT
                       P6SM BKN120 OVC200=
201412070540 TAF KSEA 070540Z 0706/0812 14006KT P6SM BKN045 FM071100 09006KT
                       P6SM SCT050 BKN200 FM081100 09006KT P6SM
                       BKN120 OVC200=
201412070308 TAF AMD KSEA 070308Z 0703/0806 17006KT P6SM SCT040 SCT200 FM071100
                       10006KT P6SM SCT050 BKN200 FM071800 07004KT
                       P6SM SCT060 BKN200=
201412062320 TAF KSEA 062320Z 0700/0806 18010KT P6SM BKN020 BKN040 FM070500
                       10006KT P6SM SCT050 BKN200 FM071800 07004KT
                       P6SM SCT060 BKN200=
201412062057 TAF AMD KSEA 062057Z 0621/0724 18010KT P6SM BKN015 OVC020 FM062300
                       18010KT P6SM BKN025 BKN045 FM070500 10006KT
                       P6SM SCT050 BKN200=
201412061720 TAF KSEA 061720Z 0618/0724 17008KT P6SM VCSH SCT025 OVC045 FM061900
                       18010KT P6SM -SHRA SCT015 BKN025 OVC045
                       FM062300 18010KT P6SM SCT025 BKN045 FM070500
                       10006KT P6SM SCT050 BKN200=
201412061614 TAF AMD KSEA 061614Z 0616/0718 17008KT P6SM VCSH SCT025 OVC045
                       FM061800 18010KT P6SM -SHRA SCT015 BKN025
                       OVC045 FM062100 18010KT P6SM SCT025 BKN045
                       FM070500 10006KT P6SM SCT050 BKN200=
201412061400 TAF AMD KSEA 061400Z 0614/0718 17008KT P6SM VCSH SCT025 OVC045
                       FM061500 18010KT P6SM -SHRA SCT015 BKN025
                       OVC045 FM062100 18010KT P6SM SCT025 BKN045
                       FM070500 10006KT P6SM SCT050 BKN200=
201412061140 TAF KSEA 061140Z 0612/0718 15008KT P6SM SCT025 OVC045 FM061500
                       18010KT P6SM -SHRA SCT015 BKN025 OVC045
                       FM062100 18010KT P6SM SCT025 BKN045 FM070500
                       10006KT P6SM SCT050 BKN200=
201412060906 KSEA 060906Z 0609/0712 15008KT P6SM -RA OVC045 FM061700 17008KT
                       P6SM -SHRA SCT015 BKN025 OVC045 FM070300
                       13006KT P6SM SCT025 BKN050=
201412060536 TAF KSEA 060536Z 0606/0712 11005KT P6SM BKN100 OVC200 FM060900
                       11008KT P6SM -RA OVC045 FM061800 17008KT
                       P6SM -SHRA BKN015 OVC030 FM070300 13006KT
                       P6SM SCT025 BKN050=
201412052320 TAF KSEA 052320Z 0600/0706 11005KT P6SM BKN070 OVC200 FM060900
                       10005KT 4SM -RA BR OVC015 FM061900 17006KT
                       5SM -RA BR OVC025=
201412052107 TAF AMD KSEA 052107Z 0521/0624 08005KT P6SM -RA SCT025 OVC040
                      TEMPO 0521/0523 6SM -RA BR OVC025 FM052300
                       04005KT P6SM -SHRA SCT035 BKN050 OVC080
                       FM060900 12006KT 4SM -RA BR OVC015 FM061900
                       17006KT 5SM -RA BR OVC020=
201412051720 TAF KSEA 051720Z 0518/0624 08006KT P6SM -RA SCT025 OVC035
                      TEMPO 0520/0524 4SM -RA BR OVC025 FM060000
                       04005KT P6SM -SHRA SCT035 BKN050 OVC080
                       FM060800 12006KT 4SM -RA BR OVC015 FM061900
                       17006KT 5SM -RA BR OVC020=
201412051413 TAF AMD KSEA 051413Z 0514/0618 10006KT P6SM VCSH OVC035
                      TEMPO 0514/0516 4SM -RA BR OVC020 FM051600
                       10006KT P6SM OVC040
                      TEMPO 0516/0520 5SM -RA BR OVC030 FM060000
                       04005KT P6SM SCT035 BKN050 OVC080 FM060800
                       12006KT 4SM -RA BR OVC015=
201412051130 TAF KSEA 051130Z 0512/0618 10006KT P6SM OVC035
                      TEMPO 0512/0516 4SM -RA BR OVC020 FM051600
                       10006KT P6SM OVC040
                      TEMPO 0516/0520 5SM -RA BR OVC030 FM060000
                       04005KT P6SM SCT035 BKN050 OVC080 FM060800
                       12006KT 4SM -RA BR OVC015=
201412050910 TAF AMD KSEA 050910Z 0509/0612 13008KT 5SM -RA BR SCT009 OVC026
                       TEMPO 0509/0513 3SM -RA BR BKN009 OVC020
                       FM051300 VRB03KT 5SM -RA OVC020 FM051800
                       16005KT 5SM -RA OVC025=
201412050530 TAF KSEA 050530Z 0506/0612 17003KT P6SM OVC030 FM051000 VRB03KT
                       5SM -RA OVC020 FM051800 16005KT 5SM -RA
                       OVC025=
201412050210 TAF AMD KSEA 050210Z 0502/0606 VRB03KT P6SM SCT025 OVC040
                      TEMPO 0502/0506 5SM -RA BR BKN025 OVC040
                       FM050600 VRB03KT 5SM -RA OVC020 FM051800
                       16005KT 5SM -RA OVC025=
201412042320 TAF KSEA 042320Z 0500/0606 VRB03KT 5SM -RA OVC025
                      TEMPO 0500/0504 4SM -RA BR FM050400 VRB03KT
                       5SM -RA OVC020 FM051800 16005KT 5SM -RA
                       OVC025=
201412042229 TAF AMD KSEA 042229Z 0422/0524 VRB03KT P6SM -RA OVC025
                      TEMPO 0422/0502 4SM -RA BR FM050200 VRB03KT
                       5SM -SHRA OVC022 FM050800 VRB04KT 4SM -RA
                       BR OVC022 FM051800 12006KT 5SM -RA OVC025
                       FM052000 12006KT 6SM -SHRA OVC030=
201412042044 TAF AMD KSEA 042044Z 0421/0524 07005KT P6SM -RA OVC028 FM050000
                       10006KT 5SM -SHRA OVC022 FM050800 12006KT
                       4SM -RA BR OVC022 FM051800 12006KT 5SM -RA
                       OVC025 FM052000 12006KT 6SM -SHRA OVC030=
201412041725 TAF KSEA 041725Z 0418/0524 07005KT P6SM -RA OVC030
                      TEMPO 0420/0424 4SM -RA BR OVC015 FM050000
                       10006KT 5SM -SHRA OVC015 FM050800 12006KT
                       4SM -RA BR OVC015 FM051800 12006KT 5SM -RA
                       OVC025 FM052000 12006KT 6SM -SHRA OVC030=
201412041720 TAF KSEA 041720Z 0418/0524 07005KT P6SM -RA OVC030
                      TEMPO 0420/0424 4SM -RA BR OVC015 FM050000
                       10006KT 5SM -SHRA OVC015 FM050800 12006KT
                       4SM -RA BR OVC015 FM051800 12006KT 5SM -RA
                       OVC025 FM052000 12006KT 6SM -SHRA OVC030=
201412041431 TAF AMD KSEA 041431Z 0415/0518 14003KT P6SM VCSH BKN040 OVC050
                       FM041600 09005KT P6SM -RA OVC035 FM041800
                       07004KT P6SM -RA OVC025
                      TEMPO 0420/0424 4SM -RA BR OVC015 FM050000
                       13006KT 5SM -RA BR OVC025=
201412041130 TAF KSEA 041130Z 0412/0518 14003KT P6SM OVC050
                      TEMPO 0412/0416 -RA OVC035 FM041600 09005KT
                       P6SM -RA OVC035 FM041800 07004KT P6SM -RA
                       OVC025
                      TEMPO 0420/0424 4SM -RA BR OVC015 FM050000
                       13006KT 5SM -RA BR OVC025=
201412040905 TAF AMD KSEA 040905Z 0409/0512 00000KT P6SM OVC070 FM041400 11006KT
                       P6SM -RA OVC050 FM041800 13007KT 5SM -RA
                       BR OVC025 FM050100 12007KT 5SM -RA BR OVC020=
201412040600 TAF KSEA 040600Z 0406/0512 03005KT P6SM OVC080 FM041400 11006KT
                       P6SM -RA OVC050 FM041800 13007KT 5SM -RA
                       BR OVC025 FM050100 12007KT 5SM -RA BR OVC020=
201412032320 TAF KSEA 032320Z 0400/0506 06008KT P6SM SCT080 BKN250 FM040600
                       08006KT P6SM BKN080 OVC150 FM041400 11006KT
                       P6SM -RA OVC050 FM041800 13007KT 5SM -RA
                       BR OVC025 FM050100 12007KT 5SM -RA BR OVC020=
201412032100 KSEA 032100Z 0321/0424 36008KT P6SM FEW080 SCT250 FM040000 06008KT
                       P6SM SCT080 BKN250 FM040600 08006KT P6SM
                       BKN080 OVC150 FM041600 11006KT P6SM -RA
                       OVC050 FM041900 13007KT P6SM -RA OVC035=
201412031720 TAF KSEA 031720Z 0318/0424 35009KT P6SM FEW100 SCT250 FM040000
                       06008KT P6SM SCT100 BKN250 FM040600 08006KT
                       P6SM BKN080 OVC150 FM041600 11006KT P6SM
                       -RA OVC050 FM041900 13007KT P6SM -RA OVC035=
201412031401 KSEA 031401Z 0314/0418 35009KT P6SM SCT250 FM040000 06008KT P6SM
                       SCT120 BKN250 FM040600 08006KT P6SM BKN080
                       OVC150 FM041400 10006KT P6SM -RA OVC050=
201412031135 TAF KSEA 031135Z 0312/0418 01009KT P6SM BKN250
                      TEMPO 0313/0315 SCT002 BKN250 FM040000 06008KT
                       P6SM SCT120 BKN250 FM040600 08006KT P6SM
                       BKN080 OVC150 FM041400 10006KT P6SM -RA
                       OVC050=
201412030525 TAF KSEA 030525Z 0306/0412 02014KT P6SM SCT250 FM030800 06008KT
                       P6SM BKN200
                      TEMPO 0311/0314 SCT002 FM031700 VRB04KT P6SM
                       SCT060 BKN150=
201412030300 KSEA 030300Z 0303/0406 01014KT P6SM BKN250 FM030600 06008KT P6SM
                       BKN200 FM031700 VRB04KT P6SM SCT060 BKN150=
201412022320 TAF KSEA 022320Z 0300/0406 01012KT P6SM BKN250 FM030600 06006KT
                       P6SM BKN200 FM031700 VRB04KT P6SM SCT060
                       BKN150=
201412022104 KSEA 022104Z 0221/0324 01012KT P6SM SCT250 FM030600 06006KT P6SM
                       BKN200 FM031700 VRB04KT P6SM SCT060 BKN150=
201412021720 TAF KSEA 021720Z 0218/0324 02014KT P6SM SKC FM030600 06006KT P6SM
                       SKC FM031700 VRB04KT P6SM BKN200=
201412021351 TAF AMD KSEA 021351Z 0214/0318 36009KT P6SM SCT002
                      TEMPO 0214/0216 5SM BR BKN002 FM021700 03008KT
                       P6SM SKC FM030000 04011KT P6SM SKC FM030700
                       05006KT P6SM SKC FM031200 05006KT P6SM BKN004=
201412021200 TAF KSEA 021200Z 0212/0318 03006KT P6SM SCT001
                      TEMPO 0212/0216 5SM BR BKN001 FM021700 03008KT
                       P6SM SKC FM030000 04011KT P6SM SKC FM030700
                       05006KT P6SM SKC FM031200 05006KT P6SM BKN004=
201412021130 TAF KSEA 021130Z 0212/0318 03006KT P6SM BKN003
                      TEMPO 0213/0217 SCT003 FM021700 03008KT P6SM
                       SKC FM030000 04011KT P6SM SKC FM030700 05006KT
                       P6SM SKC FM031200 05006KT P6SM BKN004=
201412021110 TAF AMD KSEA 021110Z 0211/0312 03006KT P6SM BKN003
                      TEMPO 0214/0218 SCT003 FM021800 03006KT P6SM
                       SCT250 FM030000 04008KT P6SM SKC=
201412020520 TAF KSEA 020520Z 0206/0312 03008KT P6SM SKC
                      TEMPO 0207/0211 SCT060 FM021800 03006KT P6SM
                       SCT250 FM030000 04008KT P6SM SKC=
201412020300 KSEA 020300Z 0203/0306 02007KT P6SM SKC FM020600 04005KT P6SM SCT080
                       SCT200 FM030000 04008KT P6SM SKC=
201412012341 TAF KSEA 012341Z 0200/0306 36005KT P6SM FEW100 SCT200 FM020600
                       04005KT P6SM SCT080 SCT200 FM030000 04008KT
                       P6SM SKC=
201412012102 TAF AMD KSEA 012102Z 0121/0224 01005KT P6SM FEW100 SCT250=
201412011720 TAF KSEA 011720Z 0118/0224 05007KT P6SM FEW100 SCT200=
201412011409 TAF AMD KSEA 011409Z 0114/0218 07007KT P6SM FEW200=
201412011120 TAF KSEA 011120Z 0112/0218 03006KT P6SM SCT200=
201412010904 TAF AMD KSEA 010904Z 0109/0212 08006KT P6SM BKN250 FM011800 02006KT
                       P6SM SCT250=
201412010520 TAF KSEA 010520Z 0106/0212 02006KT P6SM BKN250=
201412010300 KSEA 010300Z 0103/0206 02010KT P6SM FEW250 FM010600 06006KT P6SM
                       SCT250 FM011800 VRB03KT P6SM BKN250=