##########################################################
# Query made at 02/17/2025 19:15:47 UTC
# Time interval: from 10/01/2014 00:00  to 10/31/2014 23:59  UTC
##########################################################

##########################################################
# KSEA, Seattle, Seattle-Tacoma International Airport (United States)
# WMO index: 72793. WIGOS ID: 0-20000-0-72793
# Latitude 47-27-00N. Longitude 122-17-59W. Altitude 130 m.
##########################################################

###################################
#  METAR/SPECI from KSEA
###################################
201410312353 METAR KSEA 312353Z 19004KT 10SM FEW020 BKN050 BKN110 12/08 A2985 RMK AO2 SLP115 60003 T01170083 10128 20106 53005=
201410312253 METAR KSEA 312253Z 19007KT 10SM FEW015 SCT050 BKN100 12/09 A2984 RMK AO2 SLP112 T01220089=
201410312153 METAR KSEA 312153Z 23009KT 10SM FEW012 SCT070 BKN100 BKN200 12/08 A2984 RMK AO2 SLP110 T01170083=
201410312053 METAR KSEA 312053Z 20007KT 10SM FEW008 SCT015 BKN065 BKN200 12/09 A2984 RMK AO2 SLP109 60003 T01170094 51009=
201410311953 METAR KSEA 311953Z 21006KT 10SM FEW008 SCT014 OVC041 11/09 A2983 RMK AO2 SLP106 T01060094=
201410311942 SPECI KSEA 311942Z 20007KT 10SM FEW006 SCT014 OVC039 11/09 A2983 RMK AO2=
201410311912 SPECI KSEA 311912Z 21006KT 9SM SCT006 BKN011 OVC029 11/10 A2983 RMK AO2=
201410311853 METAR KSEA 311853Z 21005KT 8SM FEW005 BKN008 OVC016 11/09 A2983 RMK AO2 RAB1759E53 SLP107 P0003 T01060094=
201410311753 METAR KSEA 311753Z 19005KT 10SM BKN008 BKN013 OVC060 11/09 A2981 RMK AO2 RAE52 SLP100 P0009 60046 T01060094 10106 20100 51033=
201410311653 METAR KSEA 311653Z 22003KT 3SM -RA BKN006 BKN015 OVC050 11/09 A2979 RMK AO2 SFC VIS 7 SLP094 P0008 T01060094=
201410311635 SPECI KSEA 311635Z 29003KT 3SM -RA BR BKN005 OVC017 11/09 A2978 RMK AO2 SFC VIS 5 P0006=
201410311553 METAR KSEA 311553Z 24008KT 1/2SM RA BR BKN003 OVC009 11/09 A2975 RMK AO2 SFC VIS 2 SLP081 P0016 T01060094=
201410311453 METAR KSEA 311453Z 24005KT 1/2SM R16L/3000VP6000FT RA BR BKN003 OVC008 11/09 A2971 RMK AO2 SFC VIS 1 1/2 SLP066 P0007 60013 T01060094 55002=
201410311443 SPECI KSEA 311443Z 25004KT 1/2SM R16L/5000VP6000FT RA BR BKN003 OVC007 11/09 A2970 RMK AO2 SFC VIS 1 P0005=
201410311353 METAR KSEA 311353Z 29003KT 5SM -RA BR FEW003 BKN007 OVC028 10/09 A2970=
201410311344 SPECI KSEA 311344Z 00000KT 5SM -RA BR FEW003 BKN007 OVC028 10/09 A2970 RMK AO2 P0003=
201410311253 METAR KSEA 311253Z 31003KT 6SM -RA BR FEW007 OVC028 10/09 A2970 RMK AO2 SLP063 P0002 T01000094=
201410311245 SPECI KSEA 311245Z 00000KT 7SM -RA FEW008 OVC028 10/09 A2970 RMK AO2 P0002=
201410311153 METAR KSEA 311153Z 00000KT 10SM -RA OVC035 11/09 A2972 RMK AO2 RAB07E24B47 SLP069 P0001 60043 70118 T01060094 10122 20100 58019=
201410311053 METAR KSEA 311053Z 25003KT 7SM FEW006 OVC039 11/09 A2974 RMK AO2 RAE47 SLP077 P0004 T01060094=
201410310953 METAR KSEA 310953Z 00000KT 6SM -RA BR FEW006 OVC041 11/10 A2976 RMK AO2 SLP085 P0003 T01110100=
201410310853 METAR KSEA 310853Z 00000KT 6SM RA BR SCT006 OVC037 11/10 A2977 RMK AO2 SLP088 P0012 60035 T01060100 58003=
201410310753 METAR KSEA 310753Z 21004KT 4SM RA BR FEW005 BKN039 OVC055 11/11 A2978 RMK AO2 SLP089 P0018 T01110106 401560111=
201410310737 SPECI KSEA 310737Z 18007KT 4SM RA BR BKN005 BKN011 OVC049 12/11 A2978 RMK AO2 P0010=
201410310703 SPECI KSEA 310703Z 15005KT 7SM -RA SCT007 OVC037 12/11 A2979 RMK AO2 P0002=
201410310653 METAR KSEA 310653Z 15006KT 9SM -RA OVC037 12/11 A2979 RMK AO2 SLP093 P0005 T01170106=
201410310553 METAR KSEA 310553Z 18005KT 10SM -RA OVC036 12/11 A2978 RMK AO2 RAB39 SLP090 P0001 60032 T01220111 10139 20122 58003=
201410310453 METAR KSEA 310453Z 18006KT 10SM OVC030 12/11 A2979 RMK AO2 RAE16 SLP095 P0001 T01220111=
201410310448 SPECI KSEA 310448Z 17008KT 10SM OVC030 13/11 A2979 RMK AO2 RAE16 P0001=
201410310353 METAR KSEA 310353Z 20006KT 7SM -RA SCT007 BKN022 OVC045 13/12 A2979 RMK AO2 RAB0255 SLP093 P0008 T01280117=
201410310345 SPECI KSEA 310345Z 19007KT 9SM -RA SCT007 BKN021 OVC044 13/12 A2979 RMK AO2 RAB0255 P0008=
201410310253 METAR KSEA 310253Z 21004KT 5SM BR OVC005 14/13 A2978 RMK AO2 RAE52 SLP089 P0020 60022 T01390128 53006=
201410310227 SPECI KSEA 310227Z 18005KT 3SM +RA BR BKN007 BKN039 OVC075 14/13 A2978 RMK AO2 P0010=
201410310218 SPECI KSEA 310218Z 22005KT 5SM -RA BR SCT007 BKN047 OVC075 13/13 A2978 RMK AO2 P0004=
201410310153 METAR KSEA 310153Z 12007KT 8SM -RA BKN049 OVC070 14/12 A2977 RMK AO2 RAB15 SLP087 P0002 T01390122=
201410310053 METAR KSEA 310053Z 20003KT 10SM BKN047 BKN060 OVC110 13/12 A2976 RMK AO2 SLP083 T01330122=
201410302353 METAR KSEA 302353Z 21005KT 10SM SCT048 BKN055 OVC110 14/12 A2976 RMK AO2 RAB2255E04 SLP083 P0001 60037 T01390122 10156 20133 56010=
201410302253 METAR KSEA 302253Z 00000KT 9SM FEW030 BKN044 OVC095 14/13 A2976 RMK AO2 RAE14 SLP084 P0000 T01440128=
201410302153 METAR KSEA 302153Z 13010KT 10SM -RA BKN048 OVC060 15/12 A2978 RMK AO2 RAE16B50 SLP091 P0005 T01500117=
201410302053 METAR KSEA 302053Z 10012KT 7SM R16L/5000VP6000FT +RA BKN039 OVC055 15/11 A2979 RMK AO2 SLP094 P0018 60031 T01500111 58017=
201410301953 METAR KSEA 301953Z 07007KT 7SM R16L/5500VP6000FT RA SCT038 BKN070 OVC085 13/12 A2983 RMK AO2 RAB1854 SLP108 P0011 T01330122=
201410301853 METAR KSEA 301853Z 10011KT 10SM FEW060 BKN075 OVC090 15/11 A2983 RMK AO2 RAB07E51 PRESFR SLP107 P0002 T01500111=
201410301753 METAR KSEA 301753Z 11011KT 10SM SCT065 BKN090 OVC120 16/11 A2984 RMK AO2 RAE23 SLP110 P0001 60006 T01560111 10156 20128 58009=
201410301653 METAR KSEA 301653Z 12011KT 8SM -RA FEW044 BKN065 OVC090 14/11 A2988 RMK AO2 RAB1556 SLP123 P0004 T01440106=
201410301553 METAR KSEA 301553Z 15009KT 10SM BKN070 OVC095 15/09 A2989 RMK AO2 RAE35 PRESRR SLP125 P0001 T01500094=
201410301453 METAR KSEA 301453Z 12012KT 10SM -RA FEW065 BKN085 OVC200 16/09 A2987 RMK AO2 RAB51 SLP120 P0000 60000 T01560094 56020=
201410301353 METAR KSEA 301353Z 16004KT 10SM FEW065 BKN090 OVC200 14/09 A2988 RMK AO2 SLP125 T01390094=
201410301253 METAR KSEA 301253Z 12006KT 10SM BKN060 OVC200 15/09 A2990 RMK AO2 SLP131 T01500089=
201410301153 METAR KSEA 301153Z 14005KT 10SM OVC090 14/09 A2993 RMK AO2 RAE02 SLP140 P0000 60000 70002 T01440089 10144 20111 58022=
201410301053 METAR KSEA 301053Z 00000KT 10SM -RA BKN050 OVC090 13/09 A2996 RMK AO2 RAB51 SLP149 P0000 T01280089=
201410300953 METAR KSEA 300953Z 29003KT 10SM BKN050 OVC090 11/09 A2998 RMK AO2 SLP158 T01110094=
201410300853 METAR KSEA 300853Z 07003KT 10SM FEW055 BKN100 12/09 A3000 RMK AO2 SLP163 T01220094 58015=
201410300753 METAR KSEA 300753Z 00000KT 10SM SCT055 BKN090 OVC110 12/09 A3001 RMK AO2 SLP170 T01170094 401670117=
201410300653 METAR KSEA 300653Z 00000KT 10SM BKN100 13/09 A3003 RMK AO2 SLP174 T01280089=
201410300553 METAR KSEA 300553Z 00000KT 10SM FEW080 BKN140 13/09 A3004 RMK AO2 SLP179 T01280089 10161 20122 56013=
201410300453 METAR KSEA 300453Z 12006KT 10SM FEW080 SCT250 13/09 A3005 RMK AO2 SLP181 T01280094=
201410300353 METAR KSEA 300353Z 07005KT 10SM FEW060 SCT070 BKN240 14/10 A3006 RMK AO2 SLP186 T01390100=
201410300253 METAR KSEA 300253Z 06005KT 10SM FEW060 BKN240 14/10 A3008 RMK AO2 SLP192 T01390100 56010=
201410300153 METAR KSEA 300153Z 00000KT 10SM FEW060 BKN240 15/09 A3008 RMK AO2 SLP194 T01500094=
201410300053 METAR KSEA 300053Z 09003KT 10SM FEW030 SCT060 BKN240 15/09 A3009 RMK AO2 SLP197 T01500094=
201410292353 METAR KSEA 292353Z 13003KT 10SM FEW030 SCT065 BKN240 16/09 A3011 RMK AO2 SLP201 T01560094 10167 20150 57009=
201410292253 METAR KSEA 292253Z 00000KT 10SM FEW025 SCT065 BKN240 16/11 A3012 RMK AO2 SLP206 T01560106=
201410292153 METAR KSEA 292153Z 22003KT 10SM FEW025 SCT070 BKN220 16/11 A3012 RMK AO2 SLP207 T01560106=
201410292053 METAR KSEA 292053Z 18006KT 10SM FEW020 BKN070 BKN200 16/11 A3014 RMK AO2 SLP211 T01610111 50004=
201410291953 METAR KSEA 291953Z 20008KT 10SM FEW015 BKN075 16/11 A3015 RMK AO2 SLP214 T01560106=
201410291853 METAR KSEA 291853Z 20009KT 10SM SCT013 SCT080 16/12 A3014 RMK AO2 SLP212 T01560117=
201410291753 METAR KSEA 291753Z 21010KT 10SM FEW014 15/12 A3012 RMK AO2 SLP206 60002 T01500117 10150 20122 51014=
201410291653 METAR KSEA 291653Z 20008KT 10SM FEW012 13/12 A3012 RMK AO2 SLP206 T01330117=
201410291553 METAR KSEA 291553Z 19008KT 10SM FEW010 SCT023 SCT080 13/11 A3011 RMK AO2 RAE09 SLP202 P0000 T01280111=
201410291510 SPECI KSEA 291510Z 19011KT 10SM FEW010 BKN042 BKN080 13/11 A3009 RMK AO2 RAE09 P0000=
201410291453 METAR KSEA 291453Z 19009KT 10SM -RA FEW007 BKN010 OVC024 12/11 A3008 RMK AO2 SLP194 P0001 60002 T01220111 52018=
201410291441 SPECI KSEA 291441Z 18011KT 8SM -RA FEW007 BKN010 OVC032 12/11 A3008 RMK AO2 P0001=
201410291413 SPECI KSEA 291413Z 19011KT 10SM -RA FEW009 BKN025 OVC090 13/11 A3008 RMK AO2 P0001=
201410291353 METAR KSEA 291353Z 19010KT 10SM -RA SCT024 BKN070 OVC100 13/11 A3006 RMK AO2 DZE1258RAB25 SLP187 P0001 T01280111=
201410291320 SPECI KSEA 291320Z 19011KT 10SM SCT025 SCT050 BKN100 13/11 A3006 RMK AO2 DZE1258 P0000=
201410291253 METAR KSEA 291253Z 19010KT 10SM -DZ FEW019 BKN025 OVC033 13/11 A3005 RMK AO2 RAE00B17E22DZB50 SLP181 P0000 T01280111=
201410291234 SPECI KSEA 291234Z 19011G17KT 10SM FEW019 BKN025 OVC043 13/11 A3004 RMK AO2 RAE00B17E22 P0000=
201410291153 METAR KSEA 291153Z 18013G19KT 10SM -RA FEW024 BKN034 OVC070 13/11 A3003 RMK AO2 RAB50 SLP174 P0000 60002 70030 T01330106 10139 20128 51017=
201410291131 SPECI KSEA 291131Z 17010KT 10SM FEW021 BKN060 OVC110 13/11 A3002 RMK AO2=
201410291053 METAR KSEA 291053Z 15008KT 10SM BKN025 OVC031 13/11 A3002 RMK AO2 SLP171 T01280111=
201410290953 METAR KSEA 290953Z 17010KT 10SM BKN031 13/11 A3000 RMK AO2 SLP166 T01330111=
201410290853 METAR KSEA 290853Z 18009KT 10SM BKN038 13/11 A2998 RMK AO2 SLP156 60002 T01330111 53014=
201410290753 METAR KSEA 290753Z 20010KT 10SM BKN024 BKN045 13/11 A2996 RMK AO2 RAE26 SLP151 P0000 T01330111 401500094=
201410290653 METAR KSEA 290653Z 17007KT 4SM RA BR BKN025 BKN034 OVC055 13/11 A2995 RMK AO2 RAE11B31 SLP148 P0002 T01330111=
201410290610 SPECI KSEA 290610Z 17009KT 10SM -RA BKN025 BKN030 OVC043 14/11 A2994 RMK AO2 P0000=
201410290553 METAR KSEA 290553Z 17008KT 8SM -RA FEW015 BKN060 OVC070 13/11 A2993 RMK AO2 RAB41 SLP143 P0000 60002 T01330111 10150 20133 52017=
201410290453 METAR KSEA 290453Z 16010KT 10SM FEW025 SCT030 BKN047 14/11 A2992 RMK AO2 SLP137 T01390111=
201410290353 METAR KSEA 290353Z 15007KT 10SM FEW029 BKN050 BKN100 13/11 A2990 RMK AO2 SLP131 T01330111=
201410290253 METAR KSEA 290253Z 16009KT 10SM FEW032 BKN044 13/11 A2988 RMK AO2 RAE08 SLP126 P0000 60002 T01330111 53006=
201410290153 METAR KSEA 290153Z 18011KT 10SM -RA FEW041 BKN075 OVC090 13/12 A2987 RMK AO2 RAB28 SLP122 P0002 T01330117=
201410290053 METAR KSEA 290053Z 13008KT 10SM FEW026 BKN034 OVC090 14/11 A2987 RMK AO2 SLP120 T01390111=
201410290025 SPECI KSEA 290025Z 17009KT 10SM SCT026 BKN043 BKN090 14/11 A2987 RMK AO2=
201410282353 METAR KSEA 282353Z 18005KT 10SM BKN026 BKN046 BKN090 15/12 A2987 RMK AO2 SLP120 60000 T01500122 10150 20111 53001=
201410282253 METAR KSEA 282253Z 16011KT 10SM SCT041 BKN060 BKN085 15/12 A2985 RMK AO2 SLP115 T01500117=
201410282215 SPECI KSEA 282215Z 17009KT 10SM BKN030 14/12 A2986 RMK AO2=
201410282153 METAR KSEA 282153Z 18007KT 10SM BKN028 OVC037 14/12 A2986 RMK AO2 SLP118 T01440117=
201410282111 SPECI KSEA 282111Z 18012KT 10SM FEW023 OVC028 15/12 A2987 RMK AO2=
201410282053 METAR KSEA 282053Z 18010KT 10SM BKN030 OVC038 15/12 A2986 RMK AO2 SLP119 60000 T01500117 58002=
201410281953 METAR KSEA 281953Z 18005KT 10SM FEW010 BKN030 OVC040 13/11 A2987 RMK AO2 SLP122 T01330111=
201410281853 METAR KSEA 281853Z 15009KT 10SM FEW015 OVC033 12/10 A2987 RMK AO2 RAB20E31 SLP122 P0000 T01170100=
201410281753 METAR KSEA 281753Z 12008KT 6SM BR FEW015 BKN028 OVC036 11/09 A2987 RMK AO2 RAE21 SLP121 P0002 60026 T01110094 10111 20094 53005=
201410281720 SPECI KSEA 281720Z 12007KT 3SM -RA BR SCT010 BKN028 OVC034 11/09 A2987 RMK AO2 P0002=
201410281702 SPECI KSEA 281702Z 12005KT 1 1/2SM -RA BR FEW008 SCT029 OVC033 11/09 A2986 RMK AO2 TWR VIS 3 P0001=
201410281653 METAR KSEA 281653Z 14006KT 1 1/2SM -RA BR SCT020 BKN033 OVC047 11/09 A2986 RMK AO2 TWR VIS 3 RAB12 SLP119 P0008 T01110094=
201410281620 SPECI KSEA 281620Z 16005KT 1 1/2SM -RA BR FEW020 BKN028 OVC033 11/09 A2986 RMK AO2 TWR VIS 3 RAB12 P0001=
201410281553 METAR KSEA 281553Z 12007KT 10SM FEW015 BKN030 OVC037 11/09 A2986 RMK AO2 RAE34 SLP116 P0008 T01060089=
201410281532 SPECI KSEA 281532Z 10006KT 7SM -RA FEW016 BKN028 OVC041 11/08 A2986 RMK AO2 P0008=
201410281453 METAR KSEA 281453Z 12003KT 4SM +RA BR OVC034 11/08 A2986 RMK AO2 SLP118 P0005 60008 T01060083 56007=
201410281353 METAR KSEA 281353Z 13005KT 6SM -RA BR OVC036 10/08 A2987 RMK AO2 SLP120 P0001 T01000083=
201410281253 METAR KSEA 281253Z 12010KT 8SM -RA BKN034 OVC045 10/08 A2987 RMK AO2 SLP121 P0002 T01000083=
201410281153 METAR KSEA 281153Z 08003KT 5SM -RA BR OVC042 09/08 A2989 RMK AO2 SLP126 P0014 60023 70023 T00940078 10122 20094 58024=
201410281053 METAR KSEA 281053Z 13009KT 10SM -RA BKN042 OVC049 10/07 A2991 RMK AO2 RAE05B21 SLP135 P0002 T01000072=
201410280953 METAR KSEA 280953Z 10009KT 6SM RA OVC050 10/07 A2994 RMK AO2 RAB32 SLP144 P0001 T01000067=
201410280853 METAR KSEA 280853Z 13005KT 10SM BKN065 OVC080 10/07 A2996 RMK AO2 RAE49 SLP151 P0003 60006 T01000072 55009=
201410280753 METAR KSEA 280753Z 10005KT 10SM -RA OVC065 11/06 A2996 RMK AO2 SLP150 P0001 T01110056 401560067=
201410280653 METAR KSEA 280653Z 14006KT 10SM -RA OVC065 11/06 A2998 RMK AO2 RAB10 SLP159 P0002 T01110061=
201410280553 METAR KSEA 280553Z 13006KT 10SM BKN060 OVC070 12/06 A2999 RMK AO2 SLP160 T01220056 10133 20122 56007=
201410280453 METAR KSEA 280453Z 13008KT 10SM OVC065 12/06 A2999 RMK AO2 SLP164 T01220056=
201410280353 METAR KSEA 280353Z 14007KT 10SM OVC090 12/07 A3000 RMK AO2 SLP165 T01220067=
201410280253 METAR KSEA 280253Z 12007KT 10SM OVC100 13/06 A3001 RMK AO2 SLP168 T01280061 56018=
201410280153 METAR KSEA 280153Z 11004KT 10SM BKN085 OVC110 13/07 A3002 RMK AO2 SLP173 T01280067=
201410280053 METAR KSEA 280053Z 00000KT 10SM FEW060 BKN110 OVC170 13/07 A3004 RMK AO2 SLP180 T01280067=
201410272353 METAR KSEA 272353Z 25003KT 10SM FEW035 SCT060 OVC170 13/07 A3006 RMK AO2 SLP186 T01280067 10156 20106 56014=
201410272253 METAR KSEA 272253Z 26005KT 10SM FEW035 SCT060 BKN160 13/06 A3007 RMK AO2 SLP191 T01330061=
201410272153 METAR KSEA 272153Z 26004KT 10SM FEW038 SCT055 BKN110 BKN200 15/06 A3008 RMK AO2 SLP191 T01500061=
201410272053 METAR KSEA 272053Z 00000KT 10SM FEW050 SCT120 BKN200 14/05 A3010 RMK AO2 SLP199 T01440050 58014=
201410271953 METAR KSEA 271953Z 16004KT 10SM FEW040 SCT060 BKN120 BKN200 13/04 A3012 RMK AO2 SLP207 T01330044 $=
201410271853 METAR KSEA 271853Z 15004KT 10SM FEW040 SCT120 BKN150 12/06 A3013 RMK AO2 SLP211 T01170061 $=
201410271753 METAR KSEA 271753Z 14004KT 10SM SCT042 BKN120 11/06 A3014 RMK AO2 SLP214 T01060056 10106 20072 53000=
201410271653 METAR KSEA 271653Z 12006KT 10SM FEW030 BKN120 09/05 A3014 RMK AO2 SLP214 T00890050=
201410271553 METAR KSEA 271553Z 12006KT 10SM FEW030 BKN120 08/05 A3014 RMK AO2 SLP212 T00780050=
201410271453 METAR KSEA 271453Z 13006KT 10SM SCT030 OVC150 08/05 A3014 RMK AO2 SLP214 T00780050 58005=
201410271353 METAR KSEA 271353Z 12006KT 10SM SCT030 08/05 A3015 RMK AO2 SLP216 T00780050=
201410271253 METAR KSEA 271253Z 15004KT 10SM SCT031 BKN060 07/06 A3016 RMK AO2 SLP220 T00720056=
201410271153 METAR KSEA 271153Z 12005KT 10SM SCT031 07/06 A3016 RMK AO2 SLP219 70005 T00720056 10089 20067 58003=
201410271053 METAR KSEA 271053Z 16003KT 10SM FEW029 07/06 A3016 RMK AO2 SLP220 T00670061=
201410270953 METAR KSEA 270953Z 17003KT 10SM SCT018 BKN029 08/06 A3017 RMK AO2 SLP223 T00780061=
201410270853 METAR KSEA 270853Z 15004KT 10SM OVC016 08/07 A3016 RMK AO2 SLP222 T00830067 51011=
201410270836 SPECI KSEA 270836Z 13004KT 10SM BKN016 08/07 A3016 RMK AO2=
201410270753 METAR KSEA 270753Z 13007KT 10SM SCT026 08/06 A3015 RMK AO2 SLP218 T00780061 401280078=
201410270653 METAR KSEA 270653Z 14004KT 10SM SCT026 08/07 A3015 RMK AO2 SLP217 T00830067=
201410270553 METAR KSEA 270553Z 15005KT 10SM SCT026 08/07 A3013 RMK AO2 SLP211 T00830067 10117 20083 53009=
201410270453 METAR KSEA 270453Z 13005KT 10SM FEW065 09/07 A3012 RMK AO2 SLP208 T00940067=
201410270353 METAR KSEA 270353Z 14004KT 10SM FEW048 BKN070 09/07 A3011 RMK AO2 SLP204 T00940067=
201410270253 METAR KSEA 270253Z 11004KT 10SM OVC046 11/07 A3010 RMK AO2 SLP201 T01060072 51017=
201410270153 METAR KSEA 270153Z 08004KT 10SM OVC040 12/07 A3009 RMK AO2 SLP197 T01170067=
201410270053 METAR KSEA 270053Z 03007KT 10SM BKN034 BKN044 12/07 A3007 RMK AO2 SLP191 T01170067=
201410262353 METAR KSEA 262353Z 04008KT 10SM FEW034 BKN043 BKN055 12/08 A3005 RMK AO2 SLP184 60003 T01170078 10128 20094 53023=
201410262253 METAR KSEA 262253Z 02007KT 10SM FEW011 BKN044 12/08 A3002 RMK AO2 RAE15 SLP173 P0000 T01220083=
201410262213 SPECI KSEA 262213Z 26008G14KT 10SM -RA FEW019 BKN034 BKN042 12/08 A3000 RMK AO2 P0000=
201410262153 METAR KSEA 262153Z 24010KT 7SM RA SCT019 BKN027 OVC043 12/08 A3000 RMK AO2 RAB37 SLP164 P0000 T01220083=
201410262053 METAR KSEA 262053Z 21013KT 10SM BKN022 BKN027 OVC041 12/08 A2999 RMK AO2 SLP160 60003 T01220083 53004=
201410261953 METAR KSEA 261953Z 20014G20KT 10SM SCT015 BKN027 OVC041 11/08 A2997 RMK AO2 SLP156 T01110083=
201410261853 METAR KSEA 261853Z 19013G20KT 10SM SCT025 BKN031 OVC085 10/08 A2997 RMK AO2 RAE38 SLP155 P0003 T01000078=
201410261753 METAR KSEA 261753Z 18012KT 8SM -RA SCT031 BKN041 BKN055 09/07 A2997 RMK AO2 RAB50 SLP157 P0001 60002 T00940072 10106 20089 51015=
201410261653 METAR KSEA 261653Z 19016KT 10SM SCT031 BKN047 BKN060 09/06 A2996 RMK AO2 SLP153 T00940061=
201410261553 METAR KSEA 261553Z 19012KT 10SM FEW015 SCT040 BKN095 09/07 A2994 RMK AO2 RAB1457E05 SLP147 P0000 T00890067=
201410261453 METAR KSEA 261453Z 20012KT 10SM FEW010 SCT036 BKN075 09/06 A2993 RMK AO2 RAB19E35 SLP141 P0000 60001 T00940061 53017=
201410261353 METAR KSEA 261353Z 20011G19KT 10SM SCT080 BKN120 09/06 A2991 RMK AO2 SLP135 T00890061=
201410261253 METAR KSEA 261253Z 20016KT 10SM FEW029 BKN075 OVC110 09/07 A2989 RMK AO2 RAB36E50 SLP129 P0001 T00940067=
201410261159 SPECI KSEA 261159Z 18015KT 10SM FEW021 SCT080 SCT100 10/06 A2988 RMK AO2=
201410261153 METAR KSEA 261153Z 19015G19KT 10SM FEW021 BKN029 OVC055 10/06 A2988 RMK AO2 RAB27E47 SLP123 P0001 60001 70025 T01000061 10117 20100 51016=
201410261127 SPECI KSEA 261127Z 18012KT 10SM -RA BKN029 BKN036 OVC055 10/06 A2988 RMK AO2 RAB27 P0000=
201410261053 METAR KSEA 261053Z 18012KT 10SM FEW025 SCT080 SCT200 10/07 A2987 RMK AO2 SLP122 T01000067=
201410260953 METAR KSEA 260953Z 20011G18KT 10SM FEW030 SCT110 BKN200 10/06 A2985 RMK AO2 SLP114 T01000061=
201410260853 METAR KSEA 260853Z 20011KT 10SM FEW022 SCT100 OVC200 11/07 A2983 RMK AO2 SLP107 T01060072 51044=
201410260753 METAR KSEA 260753Z 20013G25KT 10SM FEW022 SCT100 OVC200 11/07 A2978 RMK AO2 PK WND 21027/0731 SLP091 T01060072 401670083=
201410260653 METAR KSEA 260653Z 20017G22KT 10SM SCT022 SCT100 OVC220 11/07 A2976 RMK AO2 PK WND 20030/0615 SLP082 T01110072=
201410260553 METAR KSEA 260553Z 21019G29KT 10SM SCT024 OVC150 12/08 A2970 RMK AO2 PK WND 23032/0512 PRESRR SLP062 60016 T01170078 10167 20117 51094=
201410260453 METAR KSEA 260453Z 21023G35KT 10SM FEW012 SCT021 OVC110 12/08 A2961 RMK AO2 PK WND 21043/0429 SLP034 T01170083=
201410260425 SPECI KSEA 260425Z 21027G39KT 10SM FEW012 SCT021 OVC120 12/08 A2958 RMK AO2 PK WND 20043/0412=
201410260353 METAR KSEA 260353Z 21023G37KT 10SM FEW010 BKN023 OVC042 12/09 A2953 RMK AO2 PK WND 22042/0308 RAE47 PRESRR SLP006 P0002 T01170089=
201410260348 SPECI KSEA 260348Z 20026G37KT 10SM FEW010 BKN023 OVC042 12/09 A2952 RMK AO2 PK WND 22042/0308 RAE47 PRESRR P0002=
201410260253 METAR KSEA 260253Z 20023G34KT 7SM -RA FEW008 BKN012 OVC023 12/11 A2942 RMK AO2 PK WND 21038/0237 PRESRR SLP967 P0005 60014 T01220106 53044=
201410260235 SPECI KSEA 260235Z 21022G34KT 7SM -RA FEW007 BKN012 OVC028 13/12 A2938 RMK AO2 PK WND 20034/0233 PRESRR P0005=
201410260216 SPECI KSEA 260216Z 20015G25KT 7SM -RA FEW018 BKN028 OVC046 14/12 A2935 RMK AO2 PRESRR P0004=
201410260153 METAR KSEA 260153Z 20018G30KT 6SM -RA BKN036 OVC044 14/11 A2933 RMK AO2 PK WND 20030/0144 SLP936 P0009 T01440111=
201410260053 METAR KSEA 260053Z 17015G24KT 10SM -RA BKN060 OVC075 16/09 A2928 RMK AO2 PK WND 15028/2354 RAB51 SLP921 P0000 T01610094=
201410252353 METAR KSEA 252353Z 16018G27KT 10SM BKN060 OVC080 17/09 A2928 RMK AO2 PK WND 17029/2342 RAE05 SLP922 P0000 60004 T01670094 10167 20122 56018=
201410252253 METAR KSEA 252253Z 17008KT 10SM -RA BKN055 OVC070 14/11 A2930 RMK AO2 PK WND 34026/2203 SLP927 P0003 T01440106=
201410252153 METAR KSEA 252153Z 10008KT 10SM -RA FEW045 OVC065 16/10 A2931 RMK AO2 SLP932 P0001 T01560100=
201410252053 METAR KSEA 252053Z 07003KT 10SM -RA OVC065 15/11 A2934 RMK AO2 RAE01B52 SLP940 P0000 60000 T01500106 56037=
201410251953 METAR KSEA 251953Z 35004KT 10SM -RA OVC080 13/11 A2937 RMK AO2 RAB50 SLP951 P0000 T01330111=
201410251853 METAR KSEA 251853Z 32006KT 10SM FEW028 OVC085 12/11 A2941 RMK AO2 RAB44E51 SLP965 P0000 T01220106=
201410251753 METAR KSEA 251753Z 30004KT 10SM FEW085 BKN110 OVC200 14/11 A2945 RMK AO2 SLP978 60004 T01390106 10150 20083 58040=
201410251653 METAR KSEA 251653Z VRB05KT 10SM BKN085 12/09 A2950 RMK AO2 RAE06 SLP994 P0001 T01220094=
201410251553 METAR KSEA 251553Z 11015KT 6SM -RA BR SCT003 OVC070 10/09 A2956 RMK AO2 RAB04 PRESFR SLP014 P0003 T01000089=
201410251453 METAR KSEA 251453Z 23007KT 10SM OVC075 10/09 A2957 RMK AO2 SLP018 T01000089 53015=
201410251431 SPECI KSEA 251431Z 22018G24KT 10SM SCT004 OVC110 10/09 A2956 RMK AO2=
201410251353 METAR KSEA 251353Z 02004KT 10SM OVC110 09/08 A2948 RMK AO2 SLP987 T00940078=
201410251253 METAR KSEA 251253Z 02003KT 10SM FEW090 08/07 A2948 RMK AO2 SLP989 T00830072=
201410251153 METAR KSEA 251153Z 01005KT 10SM SCT120 09/08 A2952 RMK AO2 SLP003 60000 70015 T00890078 10111 20089 58047=
201410251053 METAR KSEA 251053Z 00000KT 10SM FEW060 OVC120 09/08 A2958 RMK AO2 SLP023 T00940083=
201410250953 METAR KSEA 250953Z 35005KT 10SM BKN090 OVC110 10/09 A2962 RMK AO2 SLP037 T01000089=
201410250853 METAR KSEA 250853Z 33007KT 10SM BKN090 OVC110 10/09 A2967 RMK AO2 SLP052 60000 T01000089 56044=
201410250753 METAR KSEA 250753Z 33006KT 10SM SCT060 OVC090 10/08 A2970 RMK AO2 SLP064 T01000083 401440089=
201410250653 METAR KSEA 250653Z 01007KT 10SM OVC060 11/09 A2974 RMK AO2 RAE21 SLP076 P0000 T01110089=
201410250553 METAR KSEA 250553Z 03004KT 10SM -RA BKN060 OVC075 11/09 A2980 RMK AO2 SLP096 P0003 60015 T01110089 10133 20106 58020=
201410250453 METAR KSEA 250453Z 08007KT 9SM -RA FEW045 OVC065 11/08 A2983 RMK AO2 SLP107 P0007 T01110083=
201410250353 METAR KSEA 250353Z 05006KT 10SM -RA OVC065 12/08 A2985 RMK AO2 SLP114 P0003 T01170083=
201410250253 METAR KSEA 250253Z 08009KT 9SM -RA OVC060 12/08 A2986 RMK AO2 RAB30 SLP118 P0002 60002 T01220083 56011=
201410250153 METAR KSEA 250153Z 01008KT 10SM OVC090 12/08 A2987 RMK AO2 SLP122 T01220078=
201410250053 METAR KSEA 250053Z 02010KT 10SM OVC110 13/08 A2987 RMK AO2 SLP121 T01330083 $=
201410242353 METAR KSEA 242353Z 01011KT 10SM OVC130 13/08 A2989 RMK AO2 SLP128 T01330078 10144 20117 58027=
201410242253 METAR KSEA 242253Z 01010KT 10SM FEW100 OVC150 14/08 A2994 RMK AO2 SLP143 T01390083=
201410242153 METAR KSEA 242153Z 35007KT 10SM FEW100 OVC150 13/08 A2995 RMK AO2 SLP148 T01330083=
201410242053 METAR KSEA 242053Z 36008KT 10SM FEW100 OVC180 13/07 A2997 RMK AO2 SLP156 T01330072 58022=
201410241953 METAR KSEA 241953Z 05006KT 10SM OVC200 14/08 A3000 RMK AO2 SLP164 T01390078=
201410241853 METAR KSEA 241853Z 00000KT 10SM OVC210 14/08 A3003 RMK AO2 SLP174 T01390083=
201410241753 METAR KSEA 241753Z 05004KT 10SM FEW130 BKN240 12/07 A3004 RMK AO2 SLP179 T01170072 10117 20089 58002=
201410241653 METAR KSEA 241653Z 12005KT 10SM FEW130 BKN230 11/07 A3005 RMK AO2 SLP182 T01060067=
201410241553 METAR KSEA 241553Z 13004KT 10SM FEW030 SCT130 BKN240 09/07 A3005 RMK AO2 SLP183 T00940067=
201410241453 METAR KSEA 241453Z 00000KT 10SM FEW028 SCT120 OVC240 09/06 A3005 RMK AO2 SLP182 T00890061 53003=
201410241353 METAR KSEA 241353Z 12004KT 10SM FEW028 OVC240 09/06 A3003 RMK AO2 SLP177 T00940061=
201410241253 METAR KSEA 241253Z 10007KT 10SM FEW037 SCT230 09/07 A3003 RMK AO2 SLP176 T00940067=
201410241153 METAR KSEA 241153Z 09005KT 10SM FEW035 OVC047 10/08 A3004 RMK AO2 SLP179 60002 70037 T01000078 10100 20094 50002=
201410241053 METAR KSEA 241053Z 11006KT 10SM OVC031 09/08 A3004 RMK AO2 SLP180 T00940078=
201410240953 METAR KSEA 240953Z 14006KT 10SM OVC041 09/08 A3004 RMK AO2 SLP177 T00940078=
201410240853 METAR KSEA 240853Z 14009KT 10SM BKN060 BKN080 OVC090 09/08 A3003 RMK AO2 RAE44 SLP176 P0001 60002 T00940078 51013=
201410240753 METAR KSEA 240753Z 16004KT 10SM -RA FEW037 BKN045 OVC060 09/07 A3003 RMK AO2 RAB40 SLP175 P0001 T00940072 401440083=
201410240653 METAR KSEA 240653Z 14006KT 10SM SCT080 OVC100 10/07 A3001 RMK AO2 SLP168 T01000067=
201410240553 METAR KSEA 240553Z 15010KT 10SM BKN095 10/07 A2999 RMK AO2 SLP164 60006 T01000067 10106 20089 53013=
201410240453 METAR KSEA 240453Z 15008KT 10SM FEW070 SCT095 BKN180 09/08 A2998 RMK AO2 SLP160 T00940078=
201410240353 METAR KSEA 240353Z 16008G16KT 10SM FEW070 SCT110 BKN180 09/07 A2997 RMK AO2 SLP154 T00940072=
201410240253 METAR KSEA 240253Z 18008KT 10SM FEW070 SCT110 BKN180 10/07 A2995 RMK AO2 SLP150 60006 T01000072 53012=
201410240153 METAR KSEA 240153Z 20007KT 10SM FEW030 SCT070 BKN100 10/08 A2994 RMK AO2 SLP146 T01000078=
201410240053 METAR KSEA 240053Z 18007KT 10SM FEW020 SCT055 BKN110 BKN200 10/08 A2992 RMK AO2 RAE36 SLP139 P0006 T01000078=
201410232353 METAR KSEA 232353Z 18011KT 10SM -RA FEW019CB BKN047 BKN090 09/06 A2992 RMK AO2 PK WND 27028/2330 RAB32 SLP138 CB OHD MOV NE P0015 60017 T00890061 10144 20083 53027=
201410232332 SPECI KSEA 232332Z 25014G28KT 4SM R16L/6000VP6000FT -RA FEW019 BKN029CB OVC036 11/07 A2992 RMK AO2 PK WND 27028/2330 RAB32 PRESRR CB OHD MOV NE P0000=
201410232253 METAR KSEA 232253Z 19008KT 10SM FEW033 SCT041CB BKN080 BKN200 13/09 A2988 RMK AO2 RAB17E40 SLP124 CB W-N MOV NE SHRA W-N P0001 T01330094=
201410232153 METAR KSEA 232153Z 20011KT 10SM FEW020 SCT040CB BKN070 BKN200 13/08 A2985 RMK AO2 SLP114 CB SW-W MOV NE SHRA SW T01330078=
201410232053 METAR KSEA 232053Z 20008KT 10SM SCT030 BKN070 BKN200 14/09 A2984 RMK AO2 SLP109 60001 T01390089 51012=
201410231953 METAR KSEA 231953Z 19015G21KT 10SM FEW015 SCT030 BKN180 14/10 A2983 RMK AO2 RAE1855 SLP106 P0000 T01440100=
201410231853 METAR KSEA 231853Z 18011KT 10SM -RA SCT030 BKN050 BKN070 12/10 A2982 RMK AO2 SLP104 P0001 T01220100=
201410231753 METAR KSEA 231753Z 14009KT 10SM -RA FEW026 BKN035 OVC090 11/09 A2980 RMK AO2 SLP097 P0002 60012 T01060089 10111 20106 51017=
201410231653 METAR KSEA 231653Z 17005KT 10SM -RA BKN045 OVC055 11/09 A2978 RMK AO2 RAE1554B12 SLP092 P0002 T01060089=
201410231553 METAR KSEA 231553Z 14010KT 10SM -RA BKN055 OVC070 11/08 A2977 RMK AO2 RAE20B37 SLP086 P0002 T01060083=
201410231453 METAR KSEA 231453Z 14017G23KT 10SM -RA BKN055 OVC070 11/09 A2975 RMK AO2 RAE21B53 SLP080 P0001 60006 T01060089 50009=
201410231353 METAR KSEA 231353Z 16011KT 10SM -RA OVC055 11/09 A2976 RMK AO2 SLP083 P0003 T01060089=
201410231253 METAR KSEA 231253Z 18012G20KT 10SM -RA BKN060 OVC100 11/09 A2974 RMK AO2 RAB22 SLP077 P0002 T01110089=
201410231153 METAR KSEA 231153Z 19006KT 10SM FEW040 BKN050 OVC110 11/09 A2972 RMK AO2 RAB06E51 SLP070 P0001 60009 70117 T01110089 10139 20111 57009=
201410231053 METAR KSEA 231053Z 17006KT 10SM SCT050 BKN060 OVC075 12/09 A2973 RMK AO2 SLP072 T01170089=
201410230953 METAR KSEA 230953Z 16008KT 10SM FEW033 SCT060 BKN100 11/09 A2974 RMK AO2 SLP077 T01110094=
201410230853 METAR KSEA 230853Z 15006KT 10SM BKN060 12/09 A2975 RMK AO2 SLP079 60008 T01170094 51018=
201410230753 METAR KSEA 230753Z 16010KT 10SM FEW022 BKN046 OVC060 12/09 A2974 RMK AO2 RAB09E39 SLP077 P0008 T01170094 401560117=
201410230730 SPECI KSEA 230730Z 20012KT 3SM +RA BR FEW022 BKN044 OVC050 12/09 A2973 RMK AO2 RAB09 P0006=
201410230653 METAR KSEA 230653Z 20014G19KT 10SM BKN025 OVC035 13/09 A2972 RMK AO2 RAB38E48 SLP070 P0000 T01330094=
201410230644 SPECI KSEA 230644Z 19014G17KT 10SM -RA BKN025 BKN035 OVC050 13/09 A2971 RMK AO2 RAB38 P0000=
201410230553 METAR KSEA 230553Z 19014G21KT 10SM FEW060 BKN110 14/10 A2969 RMK AO2 SLP061 60011 T01390100 10139 20128 53038=
201410230453 METAR KSEA 230453Z 19016G21KT 10SM SCT021 SCT035 BKN110 14/11 A2964 RMK AO2 RAB0357E06 SLP043 P0000 T01390111=
201410230439 SPECI KSEA 230439Z 19011KT 10SM SCT021 BKN035 BKN110 14/11 A2963 RMK AO2 RAB0357E06 P0000=
201410230411 SPECI KSEA 230411Z 19011G18KT 10SM FEW012 BKN027 OVC110 14/11 A2963 RMK AO2 RAB0357E06 P0000=
201410230353 METAR KSEA 230353Z 25009KT 10SM SCT012 BKN031 OVC039 13/11 A2963 RMK AO2 RAE49 SLP039 P0002 T01330111=
201410230253 METAR KSEA 230253Z 18008KT 10SM -RA BKN043 OVC050 13/11 A2958 RMK AO2 SLP023 P0001 60009 T01330106 55015=
201410230153 METAR KSEA 230153Z 13013KT 10SM -RA FEW055 BKN075 OVC085 13/11 A2957 RMK AO2 SLP020 P0003 T01330111=
201410230053 METAR KSEA 230053Z 15010G18KT 10SM -RA OVC070 13/11 A2960 RMK AO2 SLP029 P0005 T01330111=
201410222353 METAR KSEA 222353Z 13013G19KT 7SM -RA OVC075 13/12 A2963 RMK AO2 SLP038 P0012 60049 T01330117 10139 20133 56023=
201410222253 METAR KSEA 222253Z 15006KT 5SM RA BR OVC065 13/12 A2965 RMK AO2 SLP047 P0009 T01330122=
201410222153 METAR KSEA 222153Z 12008KT 8SM -RA FEW008 SCT040 OVC080 14/12 A2965 RMK AO2 SLP048 P0005 T01390122=
201410222053 METAR KSEA 222053Z 15007KT 9SM -RA FEW006 SCT030 OVC070 14/12 A2969 RMK AO2 SLP060 P0006 60023 T01390122 58015=
201410222032 SPECI KSEA 222032Z 15006KT 10SM -RA SCT006 BKN030 OVC060 14/12 A2970 RMK AO2 P0004=
201410222016 SPECI KSEA 222016Z 17003KT 8SM -RA SCT006 BKN020 OVC060 13/12 A2971 RMK AO2 P0003=
201410221953 METAR KSEA 221953Z 17005KT 6SM -RA BR SCT006 BKN011 OVC028 13/13 A2972 RMK AO2 SLP069 P0007 T01330128=
201410221934 SPECI KSEA 221934Z 15007KT 6SM -RA BR FEW006 BKN011 OVC028 13/12 A2973 RMK AO2 P0005=
201410221853 METAR KSEA 221853Z 16006KT 2SM R16L/5500VP6000FT RA BR SCT006 BKN011 OVC028 13/12 A2974 RMK AO2 SFC VIS 3 SLP076 P0010 T01330122=
201410221827 SPECI KSEA 221827Z 15007KT 2SM -RA BR SCT008 BKN015 OVC025 13/12 A2973 RMK AO2 SFC VIS 4 P0005=
201410221753 METAR KSEA 221753Z 17005KT 1 1/2SM -RA BR SCT005 BKN010 OVC019 13/12 A2974 RMK AO2 TWR VIS 2 SLP075 P0015 60048 T01330122 10133 20128 51012=
201410221731 SPECI KSEA 221731Z 21005KT 1SM R16L/P6000FT -RA BR SCT005 BKN015 OVC032 13/12 A2974 RMK AO2 TWR VIS 2 P0012=
201410221703 SPECI KSEA 221703Z 19006KT 2SM RA BR FEW012 BKN027 OVC037 13/12 A2973 RMK AO2 TWR VIS 3 P0004=
201410221653 METAR KSEA 221653Z 19007KT 4SM RA BR FEW012 BKN030 OVC043 13/12 A2973 RMK AO2 RAB1557E13B33 SLP072 P0006 T01330122=
201410221553 METAR KSEA 221553Z 18006KT 10SM BKN032 BKN044 OVC055 13/12 A2972=
201410221453 METAR KSEA 221453Z 16005KT 10SM SCT025 OVC036 13/12 A2970 RMK AO2 RAE21 SLP063 P0002 60026 T01330117 51013=
201410221400 SPECI KSEA 221400Z 17010KT 9SM -RA SCT029 OVC039 13/12 A2970 RMK AO2 P0000=
201410221353 METAR KSEA 221353Z 17011KT 6SM -RA BR BKN025 OVC040 13/12 A2970 RMK AO2 SLP063 P0009 T01280117=
201410221339 SPECI KSEA 221339Z 18011KT 7SM -RA BKN025 OVC037 13/11 A2969 RMK AO2 P0007=
201410221253 METAR KSEA 221253Z 16012KT 5SM RA BR FEW034 BKN050 OVC070 13/11 A2968 RMK AO2 SLP055 P0015 T01330111=
201410221153 METAR KSEA 221153Z 17014G21KT 9SM -RA SCT042 BKN049 OVC070 13/11 A2966 RMK AO2 SLP050 P0006 60010 70011 T01330106 10156 20133 56010=
201410221053 METAR KSEA 221053Z 16012KT 8SM -RA OVC080 13/09 A2967 RMK AO2 SLP052 P0004 T01330094=
201410220953 METAR KSEA 220953Z 19009KT 10SM -RA OVC048 14/09 A2969 RMK AO2 RAB35 SLP059 P0000 T01390089=
201410220853 METAR KSEA 220853Z 18013G19KT 10SM OVC044 16/07 A2970 RMK AO2 RAB16E53 SLP061 P0000 60000 T01560072 56026=
201410220753 METAR KSEA 220753Z 15010KT 10SM BKN070 OVC090 14/08 A2972 RMK AO2 RAB00E12B33E45 SLP069 P0000 T01390078 401610117=
201410220653 METAR KSEA 220653Z 15009KT 10SM BKN080 OVC090 14/07 A2975 RMK AO2 SLP079 T01440072=
201410220553 METAR KSEA 220553Z 15009KT 10SM OVC080 15/07 A2977 RMK AO2 SLP087 T01500072 10156 20144 56022=
201410220453 METAR KSEA 220453Z 18011G19KT 10SM BKN070 OVC095 15/07 A2980 RMK AO2 SLP095 T01500072=
201410220353 METAR KSEA 220353Z 17012KT 10SM BKN070 15/07 A2981 RMK AO2 SLP102 T01500072=
201410220253 METAR KSEA 220253Z 17010KT 10SM BKN065 OVC100 15/08 A2984 RMK AO2 SLP110 T01500078 58017=
201410220153 METAR KSEA 220153Z 17010KT 10SM OVC060 15/08 A2987 RMK AO2 SLP121 T01500083=
201410220053 METAR KSEA 220053Z 16009KT 10SM BKN060 BKN100 15/08 A2988 RMK AO2 SLP124 T01500083=
201410212353 METAR KSEA 212353Z 17008KT 10SM BKN040 BKN090 15/09 A2989 RMK AO2 SLP128 60001 T01500094 10161 20139 58013=
201410212253 METAR KSEA 212253Z 14009KT 10SM BKN036 BKN080 14/10 A2991 RMK AO2 SLP133 T01440100=
201410212153 METAR KSEA 212153Z 14010KT 10SM OVC038 14/10 A2992 RMK AO2 RAB2054E01 SLP138 P0000 T01390100=
201410212053 METAR KSEA 212053Z 17007KT 10SM FEW020 SCT034 OVC055 14/11 A2993 RMK AO2 RAE49 SLP141 P0001 60001 T01390106 50000=
201410211953 METAR KSEA 211953Z 22011KT 10SM -RA SCT033 BKN040 OVC060 14/10 A2994 RMK AO2 RAB49 SLP145 P0000 T01440100=
201410211853 METAR KSEA 211853Z 19012G19KT 10SM FEW030 SCT070 BKN110 16/09 A2993 RMK AO2 SLP140 T01610094=
201410211753 METAR KSEA 211753Z 19010KT 10SM SCT050 BKN070 BKN200 14/09 A2993 RMK AO2 SLP141 60000 T01440094 10150 20117 51015=
201410211653 METAR KSEA 211653Z 18011KT 10SM FEW040 SCT080 BKN200 14/09 A2992 RMK AO2 SLP139 T01440094=
201410211553 METAR KSEA 211553Z 17009KT 10SM SCT025 BKN085 BKN200 13/10 A2991 RMK AO2 SLP133 T01280100=
201410211502 SPECI KSEA 211502Z 17009KT 10SM SCT020 BKN032 BKN050 12/10 A2989 RMK AO2=
201410211453 METAR KSEA 211453Z 17010KT 10SM FEW015 BKN027 BKN035 12/10 A2988 RMK AO2 RAE1356 SLP126 P0000 60000 T01220100 51014=
201410211353 METAR KSEA 211353Z 19007KT 10SM -RA FEW015 BKN025 OVC060 12/10 A2988 RMK AO2 RAB46 SLP123 P0000 T01170100=
201410211253 METAR KSEA 211253Z 18009KT 10SM BKN030 BKN044 12/09 A2985 RMK AO2 SLP116 T01220094=
201410211153 METAR KSEA 211153Z 17008KT 10SM FEW025 BKN049 BKN055 12/10 A2984 RMK AO2 RAE42 SLP111 P0002 60003 70028 T01220100 10128 20122 53005=
201410211053 METAR KSEA 211053Z 22007KT 10SM -RA BKN040 OVC049 12/10 A2984 RMK AO2 RAB19 SLP110 P0001 T01220100=
201410210953 METAR KSEA 210953Z 21004KT 10SM BKN044 OVC060 12/10 A2983 RMK AO2 RAE06 SLP106 P0000 T01220100=
201410210853 METAR KSEA 210853Z 15007KT 10SM -RA OVC041 12/10 A2983 RMK AO2 RAB52 SLP107 P0000 60000 T01220100 53007=
201410210753 METAR KSEA 210753Z 14005KT 10SM BKN060 13/11 A2982 RMK AO2 SLP103 T01280106 401610122=
201410210653 METAR KSEA 210653Z 17006KT 10SM BKN065 13/11 A2981 RMK AO2 SLP100 T01280106=
201410210553 METAR KSEA 210553Z 18008KT 10SM SCT055 SCT070 13/11 A2981 RMK AO2 RAE09 SLP100 P0001 60017 T01280106 10161 20128 51011=
201410210453 METAR KSEA 210453Z 00000KT 10SM -RA FEW021 BKN029 OVC070 13/12 A2980 RMK AO2 RAB13 SLP098 P0016 T01280117=
201410210433 SPECI KSEA 210433Z 26006KT 3SM +RA BR BKN025 OVC035 13/11 A2980 RMK AO2 RAB13 P0016=
201410210353 METAR KSEA 210353Z 17006KT 10SM SCT045 BKN060 14/10 A2978 RMK AO2 SLP091 T01390100=
201410210253 METAR KSEA 210253Z 18007KT 10SM FEW035 SCT080 14/10 A2978 RMK AO2 SLP089 T01390100 53003=
201410210153 METAR KSEA 210153Z 19010KT 10SM FEW035 SCT080 14/11 A2977=
201410210053 METAR KSEA 210053Z 17009KT 10SM FEW035 SCT100 SCT220 15/12 A2977=
201410202353 METAR KSEA 202353Z 16006KT 10SM FEW034 SCT100 BKN220 16/12 A2977 RMK AO2 RAE16 SLP085 P0000 60001 T01610122 10161 20150 58003 $=
201410202253 METAR KSEA 202253Z 21007KT 8SM -RA SCT034 BKN065 BKN200 16/12 A2978 RMK AO2 RAB48 SLP088 P0001 T01560122=
201410202153 METAR KSEA 202153Z 17007KT 10SM FEW020 SCT065 BKN080 BKN200 16/13 A2977 RMK AO2 RAE2054 SLP085 T01610128=
201410202053 METAR KSEA 202053Z 19004KT 10SM -RA FEW015 BKN060 BKN075 15/12 A2977 RMK AO2 RAB35 SLP087 P0000 60000 T01500122 55002 $=
201410201957 SPECI KSEA 201957Z 21005G35KT 10SM BKN050 BKN060 OVC085 16/12 A2976 RMK AO2 $=
201410201953 METAR KSEA 201953Z 10SM FEW015 BKN050 BKN070 16/12 A2976 RMK AO2 SLP082 T01560122 $=
201410201853 METAR KSEA 201853Z 20004KT 10SM FEW012 BKN070 BKN085 16/13 A2977 RMK AO2 SLP087 T01560128=
201410201753 METAR KSEA 201753Z 18006KT 10SM FEW007 SCT045 BKN055 15/13 A2978 RMK AO2 SLP089 60007 T01500133 10150 20139 53016=
201410201731 SPECI KSEA 201731Z 19005KT 10SM FEW007 BKN055 BKN085 15/13 A2977 RMK AO2=
201410201653 METAR KSEA 201653Z 22003KT 10SM FEW015 SCT035 BKN065 15/14 A2976 RMK AO2 SLP083 T01500139=
201410201553 METAR KSEA 201553Z 20007KT 10SM FEW010 SCT035 BKN060 OVC130 14/13 A2975 RMK AO2 RAE19 SLP078 P0001 T01390128=
201410201453 METAR KSEA 201453Z 19007KT 6SM -RA BR FEW004 SCT015 BKN050 14/13 A2973 RMK AO2 RAB06 SLP073 P0006 60006 T01390128 53007=
201410201440 SPECI KSEA 201440Z 20010KT 6SM -RA BR FEW004 SCT015 BKN035 14/13 A2973 RMK AO2 RAB06 P0004=
201410201404 SPECI KSEA 201404Z 22007KT 5SM BR SCT003 BKN012 OVC027 14/13 A2972 RMK AO2 VIS W 1=
201410201353 METAR KSEA 201353Z 23006KT 5SM R16L/5000VP6000FT BR SCT002 BKN027 OVC035 14/13 A2971 RMK AO2 RAB1254E30 SLP067 VIS W 1 P0000 T01440133=
201410201347 SPECI KSEA 201347Z 24005KT 5SM R16L/5000VP6000FT BR SCT003 BKN027 OVC041 14/13 A2972 RMK AO2 RAB1254E30 P0000=
201410201333 SPECI KSEA 201333Z 26006KT 5SM BR SCT001 BKN030 OVC039 14/13 A2971 RMK AO2 RAB1254E30 P0000=
201410201253 METAR KSEA 201253Z 20004KT 10SM OVC035 15/13 A2971=
201410201153 METAR KSEA 201153Z 12007KT 10SM OVC041 14/13 A2970 RMK AO2 RAE52 SLP063 P0005 60021 70021 T01440133 10161 20144 58008=
201410201053 METAR KSEA 201053Z 12008KT 10SM -RA BKN080 OVC095 14/13 A2971 RMK AO2 SLP066 P0009 T01440133=
201410200953 METAR KSEA 200953Z 13008KT 8SM -RA OVC075 15/13 A2973 RMK AO2 SLP070 P0006 T01500133=
201410200853 METAR KSEA 200853Z 12005KT 10SM -RA FEW060 OVC075 15/13 A2973 RMK AO2 RAB29 SLP071 P0001 60001 T01500133 53007=
201410200753 METAR KSEA 200753Z 12003KT 10SM BKN055 OVC075 16/13 A2972 RMK AO2 SLP067 T01560128 402220128=
201410200653 METAR KSEA 200653Z 00000KT 10SM BKN060 BKN110 16/13 A2971 RMK AO2 SLP066 T01610128=
201410200553 METAR KSEA 200553Z 30003KT 10SM BKN120 15/13 A2971 RMK AO2 SLP065 T01500128 10211 20150 53001=
201410200453 METAR KSEA 200453Z 01004KT 10SM BKN110 16/13 A2971 RMK AO2 SLP064 T01610133=
201410200353 METAR KSEA 200353Z 25005KT 10SM BKN120 16/13 A2971 RMK AO2 SLP066 T01610133=
201410200253 METAR KSEA 200253Z 23008KT 10SM FEW040 SCT150 18/12 A2971 RMK AO2 SLP065 T01830117 53003=
201410200153 METAR KSEA 200153Z 18008KT 10SM FEW040 SCT110 19/11 A2970 RMK AO2 SLP061 T01890111=
201410200053 METAR KSEA 200053Z 20009KT 10SM FEW040 SCT110 19/12 A2969 RMK AO2 SLP060 T01940122=
201410192353 METAR KSEA 192353Z 21010KT 10SM FEW040 SCT070 21/13 A2970 RMK AO2 SLP061 T02110128 10222 20172 56012=
201410192253 METAR KSEA 192253Z 22012G19KT 10SM FEW040 SCT065 SCT160 22/13 A2971 RMK AO2 SLP064 T02170128=
201410192153 METAR KSEA 192153Z 23011G17KT 10SM FEW040 SCT065 SCT160 22/13 A2972 RMK AO2 SLP068 T02170133=
201410192053 METAR KSEA 192053Z 18010KT 10SM FEW040 SCT065 SCT160 21/14 A2974 RMK AO2 SLP073 T02060139 58009=
201410191953 METAR KSEA 191953Z 18006KT 10SM FEW040 SCT065 BKN190 20/14 A2976 RMK AO2 SLP080 T02000139=
201410191853 METAR KSEA 191853Z 21011KT 10SM FEW040 SCT070 SCT180 18/13 A2977 RMK AO2 SLP085 T01780128=
201410191753 METAR KSEA 191753Z 20009KT 10SM FEW040 SCT070 SCT160 17/13 A2976 RMK AO2 SLP084 T01720133 10172 20128 53005=
201410191653 METAR KSEA 191653Z 21004KT 10SM FEW030 SCT070 BKN140 16/13 A2976 RMK AO2 SLP083 T01560128=
201410191553 METAR KSEA 191553Z 13012KT 10SM FEW020 SCT070 BKN095 14/11 A2974 RMK AO2 SLP076 T01440111=
201410191453 METAR KSEA 191453Z 16005KT 10SM SCT070 BKN095 13/12 A2975 RMK AO2 SLP078 T01330122 56004=
201410191353 METAR KSEA 191353Z 13003KT 10SM FEW075 BKN095 13/12 A2975 RMK AO2 SLP078 T01330122=
201410191253 METAR KSEA 191253Z 29004KT 10SM BKN085 13/12 A2976 RMK AO2 SLP081 T01330117=
201410191153 METAR KSEA 191153Z 00000KT 10SM SCT085 14/12 A2976 RMK AO2 SLP082 70030 T01390117 10167 20128 56018=
201410191053 METAR KSEA 191053Z 15004KT 10SM BKN080 14/12 A2978 RMK AO2 SLP088 T01390122=
201410190953 METAR KSEA 190953Z 13006KT 10SM FEW070 SCT180 15/12 A2979 RMK AO2 SLP092 T01500117=
201410190853 METAR KSEA 190853Z 16003KT 10SM FEW180 14/12 A2981 RMK AO2 SLP100 T01440122 56008=
201410190753 METAR KSEA 190753Z 19003KT 10SM SCT180 16/13 A2982 RMK AO2 SLP101 T01560128 401940139=
201410190653 METAR KSEA 190653Z 15004KT 10SM SCT180 16/13 A2981 RMK AO2 SLP101 T01610128=
201410190553 METAR KSEA 190553Z 13006KT 10SM BKN180 17/14 A2984 RMK AO2 SLP108 T01670139 10189 20167 58022=
201410190453 METAR KSEA 190453Z 11009KT 10SM BKN180 17/14 A2986 RMK AO2 SLP117 T01720144=
201410190353 METAR KSEA 190353Z 11003KT 10SM FEW070 BKN180 17/14 A2988 RMK AO2 SLP124 T01720144=
201410190253 METAR KSEA 190253Z 09004KT 10SM FEW055 BKN070 17/14 A2990 RMK AO2 SLP130 T01720144 56013=
201410190153 METAR KSEA 190153Z 09004KT 10SM FEW020 SCT070 BKN180 18/14 A2991 RMK AO2 SLP133 T01780144=
201410190053 METAR KSEA 190053Z 15004KT 10SM SCT019 BKN075 18/14 A2992 RMK AO2 SLP138 T01780144=
201410190043 SPECI KSEA 190043Z 17003KT 10SM FEW024 BKN070 18/14 A2992 RMK AO2=
201410182353 METAR KSEA 182353Z 00000KT 10SM FEW015 BKN024 OVC070 18/14 A2994 RMK AO2 SLP143 60006 T01830144 10194 20144 56011=
201410182316 SPECI KSEA 182316Z 22004KT 10SM BKN015 BKN065 18/15 A2994 RMK AO2=
201410182253 METAR KSEA 182253Z 16004KT 10SM FEW013 SCT023 BKN070 19/15 A2994 RMK AO2 SLP144 T01890150=
201410182244 SPECI KSEA 182244Z 13004KT 10SM FEW011 BKN023 OVC065 18/15 A2995 RMK AO2=
201410182219 SPECI KSEA 182219Z 00000KT 10SM BKN013 BKN027 OVC048 18/15 A2996 RMK AO2=
201410182200 SPECI KSEA 182200Z 12003KT 10SM SCT011 BKN039 OVC055 18/15 A2996 RMK AO2=
201410182153 METAR KSEA 182153Z VRB03KT 10SM SCT008 BKN013 OVC042 18/15 A2996=
201410182113 SPECI KSEA 182113Z 13004KT 10SM SCT008 BKN013 OVC039 18/15 A2996 RMK AO2=
201410182053 METAR KSEA 182053Z VRB03KT 10SM SCT008 BKN018 OVC065 17/15 A2997 RMK AO2 SLP154 60006 T01670150 50003=
201410181953 METAR KSEA 181953Z 16003KT 10SM FEW008 BKN027 BKN065 16/14 A2997 RMK AO2 SLP155 T01610144=
201410181853 METAR KSEA 181853Z 19003KT 9SM SCT005 OVC011 15/13 A2997 RMK AO2 RAE44 SLP155 P0006 T01500133=
201410181839 SPECI KSEA 181839Z 21005KT 3SM R16L/5000VP6000FT -RA BR SCT005 OVC014 14/13 A2997 RMK AO2 P0005=
201410181833 SPECI KSEA 181833Z 22006KT 2SM R16L/5000VP6000FT -RA BR BKN003 OVC014 14/13 A2997 RMK AO2 P0005=
201410181753 METAR KSEA 181753Z 17003KT 1SM R16L/4500V6000FT RA BR OVC003 15/14 A2996 RMK AO2 SLP151 P0018 60024 T01500144 10150 20139 51012=
201410181713 SPECI KSEA 181713Z 17005KT 1SM R16L/4500V6000FT RA BR OVC003 14/14 A2996 RMK AO2 P0005=
201410181653 METAR KSEA 181653Z 15005KT 2 1/2SM R16L/6000VP6000FT -RA BR OVC005 15/14 A2995 RMK AO2 RAB24 SLP148 P0002 T01500139 $=
201410181632 SPECI KSEA 181632Z 17004KT 2 1/2SM -RA BR OVC007 15/14 A2995 RMK AO2 VIS 2V4 RAB24 P0000 $=
201410181553 METAR KSEA 181553Z 21004KT 10SM OVC007 14/14 A2994 RMK AO2 SLP143 T01440139=
201410181453 METAR KSEA 181453Z 19006KT 10SM BKN007 BKN010 OVC018 14/14 A2993 RMK AO2 SLP139 60004 T01440139 51009=
201410181440 SPECI KSEA 181440Z 18004KT 8SM BKN007 BKN010 OVC021 14/14 A2992 RMK AO2=
201410181429 SPECI KSEA 181429Z 18004KT 10SM SCT007 BKN012 OVC021 14/13 A2992 RMK AO2=
201410181353 METAR KSEA 181353Z 16003KT 10SM SCT009 BKN025 OVC065 14/13 A2992 RMK AO2 RAE19 SLP135 P0004 T01440133=
201410181322 SPECI KSEA 181322Z 00000KT 10SM BKN009 OVC020 14/13 A2991 RMK AO2 RAE19 P0004=
201410181253 METAR KSEA 181253Z 00000KT 6SM -RA BR FEW004 BKN024 OVC030 14/13 A2991 RMK AO2 RAE05B32 SLP135 P0000 T01390133=
201410181153 METAR KSEA 181153Z 11004KT 10SM -RA FEW004 BKN030 OVC045 14/13 A2990 RMK AO2 SLP130 P0012 60029 70041 T01390133 10150 20139 51007=
201410181115 SPECI KSEA 181115Z 18003KT 4SM -RA BR SCT026 OVC035 14/13 A2990 RMK AO2 P0000=
201410181107 SPECI KSEA 181107Z 14003KT 9SM BKN026 OVC039 14/13 A2990 RMK AO2 RAE02 P0000=
201410181053 METAR KSEA 181053Z 00000KT 4SM -RA BR FEW028 OVC039 14/13 A2990 RMK AO2 SLP128 P0016 T01440133=
201410180953 METAR KSEA 180953Z 00000KT 6SM -RA BR BKN025 BKN030 OVC034 14/13 A2989 RMK AO2 RAB03E18B43 SLP127 P0001 T01440128=
201410180853 METAR KSEA 180853Z 14009KT 10SM BKN032 BKN040 OVC050 15/12 A2987 RMK AO2 SLP121 T01500122 53012=
201410180753 METAR KSEA 180753Z 16007KT 10SM BKN037 OVC048 15/13 A2986 RMK AO2 SLP117 T01500128 401670117=
201410180653 METAR KSEA 180653Z 14007KT 10SM BKN042 14/12 A2985 RMK AO2 SLP113 T01440122=
201410180553 METAR KSEA 180553Z 15007KT 10SM BKN035 OVC055 14/12 A2984 RMK AO2 SLP109 60002 T01440122 10144 20139 51010=
201410180453 METAR KSEA 180453Z 15007KT 10SM OVC037 14/12 A2984 RMK AO2 SLP108 T01440122=
201410180353 METAR KSEA 180353Z 15009KT 10SM SCT031 OVC041 14/12 A2982 RMK AO2 RAE10 SLP103 P0000 T01440122=
201410180253 METAR KSEA 180253Z 14007KT 6SM -RA BR SCT036 OVC045 14/12 A2981 RMK AO2 RAE09B39 SLP100 P0001 60002 T01390122 51013=
201410180153 METAR KSEA 180153Z 14009KT 9SM -RA SCT036 OVC048 14/12 A2980 RMK AO2 RAB03 SLP096 P0001 T01390122=
201410180053 METAR KSEA 180053Z 15003KT 10SM OVC036 14/12 A2979 RMK AO2 RAB14E36 SLP092 P0000 T01390122=
201410172353 METAR KSEA 172353Z 13006KT 10SM OVC042 14/12 A2977 RMK AO2 RAE37 SLP086 P0001 60007 T01390117 10167 20139 51011=
201410172253 METAR KSEA 172253Z 14007KT 8SM -RA OVC048 14/12 A2977 RMK AO2 SLP085 P0003 T01390117=
201410172153 METAR KSEA 172153Z 11007KT 10SM -RA OVC055 16/11 A2975 RMK AO2 SLP079 P0002 T01560106=
201410172053 METAR KSEA 172053Z 08006KT 10SM -RA BKN055 OVC080 17/09 A2974 RMK AO2 RAB28 SLP075 P0000 60001 T01670094 58004=
201410171953 METAR KSEA 171953Z 12010KT 10SM BKN065 OVC080 16/09 A2974 RMK AO2 RAE07 SLP075 P0001 T01610094=
201410171853 METAR KSEA 171853Z VRB05KT 10SM -RA BKN060 OVC080 15/10 A2975 RMK AO2 RAB34 SLP081 P0000 T01500100=
201410171753 METAR KSEA 171753Z 11007KT 10SM BKN075 OVC095 15/09 A2975 RMK AO2 RAB11E43 SLP079 P0001 60003 T01500089 10150 20117 57018=
201410171653 METAR KSEA 171653Z 16003KT 10SM SCT055 OVC085 14/09 A2977 RMK AO2 SLP086 T01390089=
201410171553 METAR KSEA 171553Z VRB04KT 10SM SCT060 OVC095 14/08 A2978 RMK AO2 RAE34 SLP090 P0000 T01390083=
201410171453 METAR KSEA 171453Z 00000KT 10SM -RA BKN060 OVC080 12/09 A2980 RMK AO2 RAE21B49 SLP097 P0001 60002 T01220094 50004=
201410171353 METAR KSEA 171353Z 18003KT 10SM -RA OVC070 12/10 A2981 RMK AO2 RAE1259B24 SLP101 P0001 T01170100=
201410171253 METAR KSEA 171253Z 18003KT 10SM -RA OVC090 12/09 A2981 RMK AO2 RAB21 SLP098 P0000 T01220094=
201410171153 METAR KSEA 171153Z 00000KT 10SM OVC085 14/09 A2979 RMK AO2 RAB1059E40 SLP093 P0001 60001 70001 T01440089 10167 20128 56006=
201410171053 METAR KSEA 171053Z 17004KT 10SM FEW070 OVC080 14/07 A2980 RMK AO2 SLP096 T01440067=
201410170953 METAR KSEA 170953Z 13006KT 10SM SCT075 OVC100 16/04 A2979 RMK AO2 SLP093 T01610044=
201410170853 METAR KSEA 170853Z 13011KT 10SM BKN100 17/04 A2981 RMK AO2 SLP098 T01670044 56009=
201410170853 METAR KSEA 170853Z 13011KT 10SM BKN100 17/04 A2981=
201410170753 METAR KSEA 170753Z 12012G20KT 10SM BKN160 17/04 A2982 RMK AO2 SLP101 T01670044 402060111=
201410170653 METAR KSEA 170653Z 12011KT 10SM SCT220 16/04 A2982 RMK AO2 SLP104 T01610044=
201410170553 METAR KSEA 170553Z 12010KT 10SM SCT220 16/05 A2984 RMK AO2 SLP109 T01610050 10194 20156 56020=
201410170453 METAR KSEA 170453Z 12009KT 10SM SCT240 16/05 A2986 RMK AO2 SLP116 T01610050=
201410170353 METAR KSEA 170353Z 10012KT 10SM SCT240 16/06 A2988 RMK AO2 SLP122 T01610056=
201410170253 METAR KSEA 170253Z 09006KT 10SM SCT250 16/07 A2990 RMK AO2 SLP130 T01610067 56007=
201410170153 METAR KSEA 170153Z 02004KT 10SM SCT100 BKN250 17/07 A2990 RMK AO2 SLP130 T01670067=
201410170053 METAR KSEA 170053Z 32004KT 10SM SCT100 BKN250 16/07 A2991=
201410162353 METAR KSEA 162353Z 17005KT 10SM FEW035 SCT090 SCT250 19/06 A2992 RMK AO2 SLP136 T01940056 10206 20156 56017=
201410162253 METAR KSEA 162253Z 14005KT 10SM FEW035 SCT090 SCT250 20/05 A2993 RMK AO2 SLP140 T02000050=
201410162153 METAR KSEA 162153Z 14006KT 10SM FEW035 SCT090 SCT250 20/06 A2994 RMK AO2 SLP145 T02000061=
201410162053 METAR KSEA 162053Z 08003KT 10SM FEW035 SCT250 19/06 A2997 RMK AO2 SLP153 T01940061 58021=
201410161953 METAR KSEA 161953Z 15006KT 10SM FEW035 SCT250 18/06 A3000 RMK AO2 SLP164 T01830056=
201410161853 METAR KSEA 161853Z VRB04KT 10SM FEW040 SCT250 17/07 A3003 RMK AO2 SLP173 T01720067=
201410161753 METAR KSEA 161753Z 10006KT 10SM FEW050 SCT090 BKN250 16/08 A3003 RMK AO2 SLP175 T01560078 10156 20111 50003=
201410161653 METAR KSEA 161653Z 12006KT 10SM FEW045 BKN060 BKN100 BKN200 13/08 A3004 RMK AO2 SLP178 T01330078=
201410161553 METAR KSEA 161553Z 12005KT 10SM FEW046 BKN060 OVC090 12/07 A3003 RMK AO2 SLP175 T01220072=
201410161453 METAR KSEA 161453Z 16004KT 10SM FEW046 BKN070 OVC100 12/08 A3002 RMK AO2 SLP172 T01170078 53008=
201410161353 METAR KSEA 161353Z 13004KT 10SM BKN046 OVC140 12/07 A3001 RMK AO2 SLP169 T01170072=
201410161253 METAR KSEA 161253Z 13006KT 10SM FEW065 BKN140 12/07 A3001 RMK AO2 SLP167 T01170072=
201410161153 METAR KSEA 161153Z 18005KT 10SM SCT065 BKN150 12/07 A3000 RMK AO2 SLP165 60001 70020 T01220072 10128 20117 58001=
201410161053 METAR KSEA 161053Z 17006KT 10SM SCT080 12/07 A3001 RMK AO2 SLP169 T01170072=
201410160953 METAR KSEA 160953Z 15007KT 10SM FEW042 BKN080 12/07 A3001 RMK AO2 SLP170 T01220072=
201410160853 METAR KSEA 160853Z 17006KT 10SM BKN065 BKN080 12/08 A3000 RMK AO2 RAE14 SLP165 P0000 60001 T01170078 51007=
201410160753 METAR KSEA 160753Z 19005KT 10SM -RA FEW060 OVC080 12/08 A3000 RMK AO2 RAB50 SLP164 P0000 T01170078 401610117=
201410160653 METAR KSEA 160653Z 13009KT 10SM FEW042 BKN050 OVC070 12/08 A2999 RMK AO2 RAE50 SLP160 P0001 T01220078=
201410160553 METAR KSEA 160553Z 15009KT 10SM -RA BKN060 OVC080 12/08 A2998 RMK AO2 RAB0455E03B44 SLP158 P0001 60001 T01220078 10144 20117 51019=
201410160453 METAR KSEA 160453Z 17011KT 10SM SCT038 BKN065 12/07 A2996 RMK AO2 SLP152 T01220067=
201410160353 METAR KSEA 160353Z 16010KT 10SM SCT039 BKN045 12/07 A2994 RMK AO2 SLP145 T01220072=
201410160253 METAR KSEA 160253Z 17009KT 10SM FEW030 SCT090 SCT250 12/07 A2992 RMK AO2 SLP138 T01220072 51024=
201410160153 METAR KSEA 160153Z 18011KT 10SM FEW030 SCT085 SCT250 13/08 A2990 RMK AO2 SLP132 T01280083=
201410160053 METAR KSEA 160053Z 19012KT 10SM FEW025 SCT040 SCT110 BKN250 14/09 A2988 RMK AO2 SLP123 T01390089=
201410152353 METAR KSEA 152353Z 20011G17KT 10SM FEW035 SCT050 BKN100 14/10 A2985 RMK AO2 SLP113 60002 T01440100 10161 20122 53038=
201410152253 METAR KSEA 152253Z 19015G21KT 10SM SCT026 BKN047 BKN060 16/11 A2981 RMK AO2 SLP099 T01610111=
201410152153 METAR KSEA 152153Z 20014KT 10SM FEW016 SCT027 BKN036 14/11 A2977 RMK AO2 SLP086 T01390111=
201410152132 SPECI KSEA 152132Z 20014G20KT 10SM SCT015 BKN090 BKN220 14/12 A2976 RMK AO2=
201410152108 SPECI KSEA 152108Z 20014G19KT 10SM SCT011 BKN016 OVC090 13/11 A2974 RMK AO2=
201410152053 METAR KSEA 152053Z 21012G19KT 10SM BKN011 BKN017 OVC040 12/11 A2973 RMK AO2 RAE47 SLP075 P0000 60002 T01220106 51038=
201410152041 SPECI KSEA 152041Z 20013G19KT 10SM -RA BKN013 BKN018 OVC060 12/10 A2972 RMK AO2 P0000=
201410151953 METAR KSEA 151953Z 18015G20KT 10SM -RA FEW018 BKN027 OVC070 12/10 A2970 RMK AO2 RAB29 SLP063 P0001 T01220100=
201410151853 METAR KSEA 151853Z 20012G21KT 10SM BKN017 OVC040 13/10 A2966 RMK AO2 RAE53 SLP050 P0001 T01280100=
201410151820 SPECI KSEA 151820Z 19012G18KT 9SM -RA FEW015 BKN022 OVC044 13/10 A2963 RMK AO2 P0000=
201410151753 METAR KSEA 151753Z 18012KT 10SM -RA FEW020 BKN035 OVC200 13/10 A2962 RMK AO2 SLP037 P0003 60016 T01280100 10128 20117 53023=
201410151653 METAR KSEA 151653Z 18008KT 9SM -RA FEW020 BKN042 OVC200 13/11 A2959 RMK AO2 RAE10B39 SLP026 P0001 T01280106=
201410151553 METAR KSEA 151553Z 16007KT 10SM -RA FEW025 BKN042 OVC050 12/11 A2957 RMK AO2 SLP019 P0006 T01220106=
201410151453 METAR KSEA 151453Z 19004KT 6SM RA BR SCT035 OVC049 12/11 A2955 RMK AO2 RAE04B34 SLP014 P0004 60006 T01220106 53012=
201410151353 METAR KSEA 151353Z 15006KT 10SM -RA BKN055 OVC100 12/11 A2953 RMK AO2 RAB01 SLP007 P0002 T01220106 $=
201410151253 METAR KSEA 151253Z 16009KT 10SM OVC055 13/10 A2953 RMK AO2 SLP006 T01280100 $=
201410151153 METAR KSEA 151153Z 13004KT 10SM FEW065 BKN085 OVC110 12/11 A2952 RMK AO2 RAB42E51 SLP001 P0000 60017 70017 T01220111 10139 20122 58009 $=
201410151053 METAR KSEA 151053Z VRB03KT 10SM BKN050 BKN065 OVC085 12/11 A2952 RMK AO2 RAE17 SLP003 P0001 T01220111 $=
201410150953 METAR KSEA 150953Z 14007KT 5SM RA BR OVC055 13/11 A2954 RMK AO2 SLP008 P0011 T01280111 $=
201410150853 METAR KSEA 150853Z 12004KT 10SM -RA FEW050 OVC070 13/11 A2954 RMK AO2 SLP009 P0003 60005 T01280111 55008 $=
201410150753 METAR KSEA 150753Z 12005KT 8SM RA FEW050 OVC065 13/11 A2954 RMK AO2 RAB32 SLP008 P0002 T01330111 401670117 $=
201410150653 METAR KSEA 150653Z 08004KT 10SM OVC060 14/10 A2955 RMK AO2 SLP011 T01390100 $=
201410150553 METAR KSEA 150553Z 00000KT 10SM SCT065 BKN090 13/11 A2957 RMK AO2 SLP018 T01280106 10150 20128 56021 $=
201410150453 METAR KSEA 150453Z 05003KT 10SM FEW075 BKN110 14/11 A2958 RMK AO2 SLP022 T01390111 $=
201410150353 METAR KSEA 150353Z 03004KT 10SM SCT070 OVC090 14/11 A2961 RMK AO2 SLP033 T01440106 $=
201410150253 METAR KSEA 150253Z 03005KT 10SM BKN055 BKN070 OVC090 14/10 A2963 RMK AO2 SLP040 T01440100 58018 $=
201410150153 METAR KSEA 150153Z 31003KT 10SM FEW030 BKN065 OVC200 14/11 A2965 RMK AO2 SLP047 T01390106 $=
201410150053 METAR KSEA 150053Z 35003KT 10SM FEW030 BKN075 BKN190 14/10 A2968 RMK AO2 SLP055 T01440100 $=
201410142353 METAR KSEA 142353Z 30004KT 10SM FEW025 SCT080 BKN180 14/11 A2969 RMK AO2 SLP058 60000 T01440106 10167 20139 56028 $=
201410142253 METAR KSEA 142253Z 00000KT 10SM FEW025 SCT085 OVC200 15/10 A2971 RMK AO2 SLP066 T01500100 $=
201410142153 METAR KSEA 142153Z 27005KT 10SM SCT025 BKN080 OVC200 16/11 A2973 RMK AO2 SLP075 T01610106 $=
201410142103 SPECI KSEA 142103Z 00000KT 10SM SCT021 BKN027 BKN070 OVC200 16/11 A2976 RMK AO2 $=
201410142053 METAR KSEA 142053Z 00000KT 10SM FEW013 SCT021 BKN070 OVC200 16/10 A2977 RMK AO2 SLP087 60000 T01610100 56023 $=
201410141953 METAR KSEA 141953Z 20003KT 10SM FEW012 SCT019 BKN034 BKN200 16/11 A2979 RMK AO2 SLP094 T01560106 $=
201410141853 METAR KSEA 141853Z VRB04KT 10SM FEW012 SCT034 BKN080 BKN200 15/11 A2982 RMK AO2 SLP103 T01500106 $=
201410141753 METAR KSEA 141753Z 00000KT 10SM FEW010 BKN037 BKN080 14/11 A2984 RMK AO2 SLP111 T01390111 10139 20117 50001 $=
201410141653 METAR KSEA 141653Z 17008KT 10SM FEW012 SCT030 BKN080 BKN200 13/11 A2985 RMK AO2 SLP114 T01280106 $=
201410141629 SPECI KSEA 141629Z 15009KT 10SM SCT012 BKN030 BKN080 13/11 A2985 RMK AO2 $=
201410141553 METAR KSEA 141553Z 17005KT 10SM BKN015 BKN065 BKN200 12/11 A2984 RMK AO2 SLP112 T01220106 $=
201410141549 SPECI KSEA 141549Z 17005KT 10SM BKN015 BKN065 BKN200 12/10 A2984 RMK AO2 $=
201410141453 METAR KSEA 141453Z 14008KT 10SM FEW026 BKN060 BKN200 12/10 A2984 RMK AO2 SLP108 T01170100 50006 $=
201410141353 METAR KSEA 141353Z 17006KT 10SM SCT026 OVC070 12/10 A2984 RMK AO2 SLP109 T01170100 $=
201410141253 METAR KSEA 141253Z 17006KT 10SM SCT028 BKN045 OVC070 12/10 A2983 RMK AO2 SLP105 T01170100 $=
201410141153 METAR KSEA 141153Z 17008KT 10SM FEW010 SCT033 OVC070 12/11 A2982 RMK AO2 RAE11 SLP102 P0000 60041 70055 T01170106 10139 20117 51007 $=
201410141133 SPECI KSEA 141133Z 18006KT 10SM FEW010 SCT033 OVC070 12/11 A2982 RMK AO2 RAE11 P0000 $=
201410141110 SPECI KSEA 141110Z 17006KT 5SM -RA BR SCT007 BKN015 OVC023 12/11 A2982 RMK AO2 P0000 $=
201410141053 METAR KSEA 141053Z 17006KT 4SM -RA BR BKN007 BKN015 OVC023 12/11 A2982 RMK AO2 SLP102 P0003 T01170106 $=
201410141044 SPECI KSEA 141044Z 17004KT 4SM RA BR BKN005 BKN021 OVC037 12/11 A2981 RMK AO2 P0002 $=
201410141036 SPECI KSEA 141036Z 21006KT 7SM -RA SCT007 BKN021 OVC046 12/11 A2982 RMK AO2 P0002 $=
201410140953 METAR KSEA 140953Z VRB05KT 6SM -RA BR FEW005 OVC055 12/11 A2981 RMK AO2 SLP098 P0010 T01170106 $=
201410140944 SPECI KSEA 140944Z 14010KT 6SM -RA BR FEW005 OVC055 12/11 A2981 RMK AO2 P0009 $=
201410140853 METAR KSEA 140853Z 13009KT 6SM RA BR FEW010 OVC055 12/10 A2979=
201410140837 SPECI KSEA 140837Z 15009KT 6SM RA BR FEW010 OVC055 12/10 A2980 RMK AO2 P0011 $=
201410140753 METAR KSEA 140753Z 20005KT 3SM RA BR FEW010 BKN019 OVC055 12/11 A2981 RMK AO2 SLP101 P0013 T01170106 402110100 $=
201410140722 SPECI KSEA 140722Z 24008KT 5SM RA BR FEW013 BKN023 OVC055 12/11 A2977 RMK AO2 P0005 $=
201410140653 METAR KSEA 140653Z 24009KT 10SM -RA FEW010 OVC060 13/10 A2974 RMK AO2 RAB03E15B42 PRESRR SLP076 P0000 T01330100 $=
201410140553 METAR KSEA 140553Z 21012KT 10SM SCT007 BKN030 OVC065 14/12 A2969 RMK AO2 RAE34 SLP060 P0008 60014 T01390117 10206 20139 53007 $=
201410140544 SPECI KSEA 140544Z 20011KT 10SM SCT007 BKN030 OVC065 14/12 A2969 RMK AO2 RAE34 P0008 $=
201410140521 SPECI KSEA 140521Z 20013G18KT 4SM RA BR BKN007 OVC026 14/13 A2967 RMK AO2 P0007 $=
201410140515 SPECI KSEA 140515Z 19006KT 5SM -RA SCT007 BKN024 OVC028 16/13 A2968 RMK AO2 P0005 $=
201410140502 SPECI KSEA 140502Z 19009KT 6SM -RA BR FEW010 BKN028 OVC035 14/13 A2968 RMK AO2 P0002 $=
201410140453 METAR KSEA 140453Z 19010KT 4SM RA BR BKN030 OVC036 14/13 A2967 RMK AO2 RAB07 SLP054 P0005 T01440128 $=
201410140353 METAR KSEA 140353Z 24009KT 10SM BKN047 OVC070 16/12 A2968 RMK AO2 RAB29E48 SLP055 P0001 T01560122 $=
201410140253 METAR KSEA 140253Z 23014G19KT 10SM BKN032 OVC080 18/11 A2967 RMK AO2 RAB05E11 SLP052 P0000 60000 T01780111 56006 $=
201410140153 METAR KSEA 140153Z 18012G17KT 10SM BKN042 OVC100 19/12 A2967 RMK AO2 RAB22E36 SLP052 P0000 T01940117 $=
201410140053 METAR KSEA 140053Z 23006KT 10SM BKN048 OVC120 19/09 A2967 RMK AO2 SLP053 T01940094 $=
201410132353 METAR KSEA 132353Z 24011G16KT 10SM BKN055 BKN120 BKN220 21/09 A2969=
201410132253 METAR KSEA 132253Z 20005KT 10SM BKN065 BKN140 BKN220 20/09 A2970 RMK AO2 SLP062 T02000089 $=
201410132153 METAR KSEA 132153Z 19006KT 10SM SCT075 BKN140 BKN240 21/09 A2973 RMK AO2 SLP071 T02060094 $=
201410132053 METAR KSEA 132053Z 17008KT 10SM FEW060 SCT140 BKN240 19/09 A2976 RMK AO2 SLP083 T01940094 58019 $=
201410131953 METAR KSEA 131953Z 21004KT 10SM FEW130 BKN240 17/08 A2979 RMK AO2 SLP092 T01670083 $=
201410131853 METAR KSEA 131853Z VRB05KT 10SM FEW130 BKN240 16/10 A2981 RMK AO2 SLP100 T01610100 $=
201410131753 METAR KSEA 131753Z 18006KT 10SM FEW130 OVC230 14/11 A2982 RMK AO2 SLP102 T01440106 10150 20100 55004 $=
201410131653 METAR KSEA 131653Z 00000KT 10SM BCFG FEW130 OVC250 13/11 A2981 RMK AO2 SLP100 T01330106 $=
201410131553 METAR KSEA 131553Z 16003KT 10SM BCFG FEW130 OVC250 11/10 A2982 RMK AO2 SLP104 T01110100 $=
201410131453 METAR KSEA 131453Z 27003KT 10SM FEW080 SCT130 OVC250 11/09 A2983 RMK AO2 SLP107 T01060089 56035 $=
201410131353 METAR KSEA 131353Z 00000KT 10SM FEW120 BKN250 11/09 A2985 RMK AO2 SLP115 T01110089 $=
201410131253 METAR KSEA 131253Z 16003KT 10SM FEW240 12/09 A2989 RMK AO2 SLP129 T01170094 $=
201410131153 METAR KSEA 131153Z 14003KT 10SM SCT160 12/10 A2993 RMK AO2 SLP141 T01220100 10144 20122 58028 $=
201410131053 METAR KSEA 131053Z 12005KT 10SM BKN160 12/09 A2996 RMK AO2 SLP152 T01220094 $=
201410130953 METAR KSEA 130953Z 12005KT 10SM BKN080 OVC130 13/10 A3000 RMK AO2 SLP164 T01330100 $=
201410130853 METAR KSEA 130853Z 09003KT 10SM SCT080 OVC130 14/11 A3002 RMK AO2 SLP170 T01390106 58016 $=
201410130753 METAR KSEA 130753Z 00000KT 10SM SCT095 OVC130 14/12 A3004 RMK AO2 SLP177 T01440117 401780117 $=
201410130653 METAR KSEA 130653Z 36003KT 10SM BKN110 14/12 A3005 RMK AO2 SLP182 T01440117 $=
201410130553 METAR KSEA 130553Z 16003KT 10SM OVC095 14/12 A3006 RMK AO2 SLP186 60000 T01440117 10172 20144 58022 $=
201410130453 METAR KSEA 130453Z 11005KT 10SM BKN110 15/11 A3009=
201410130353 METAR KSEA 130353Z 00000KT 10SM FEW060 BKN140 16/11 A3012=
201410130253 METAR KSEA 130253Z 12004KT 10SM BKN120 16/11 A3013 RMK AO2 RAE18 SLP208 P0000 60000 T01610111 56017 $=
201410130153 METAR KSEA 130153Z 22003KT 10SM -RA OVC075 16/11 A3015 RMK AO2 RAB46 SLP215 P0000 T01560111 $=
201410130053 METAR KSEA 130053Z 00000KT 10SM FEW040 OVC085 16/11 A3015 RMK AO2 SLP216 T01610106 $=
201410122353 METAR KSEA 122353Z VRB03KT 10SM BKN080 OVC090 17/10 A3018 RMK AO2 SLP225 T01720100 10178 20150 56013 $=
201410122253 METAR KSEA 122253Z 31004KT 10SM OVC090 17/11 A3020 RMK AO2 SLP231 T01720106 $=
201410122153 METAR KSEA 122153Z 22005KT 10SM FEW045 BKN110 OVC210 17/09 A3020 RMK AO2 SLP232 T01720094 $=
201410122053 METAR KSEA 122053Z 25007KT 10SM SCT020 BKN041 BKN210 17/11 A3022 RMK AO2 SLP239 T01670106 58010 $=
201410121953 METAR KSEA 121953Z VRB05KT 10SM FEW014 SCT030 BKN041 16/12 A3023 RMK AO2 SLP244 T01610117 $=
201410121937 SPECI KSEA 121937Z VRB03KT 10SM BKN031 OVC041 16/12 A3024 RMK AO2 $=
201410121853 METAR KSEA 121853Z 22006KT 10SM SCT015 BKN021 OVC036 16/12 A3024 RMK AO2 SLP247 T01560117 $=
201410121753 METAR KSEA 121753Z 19007KT 10SM FEW013 SCT024 OVC033 15/12 A3025 RMK AO2 SLP250 T01500117 10150 20128 58001 $=
201410121653 METAR KSEA 121653Z 18005KT 10SM FEW013 OVC020 14/12 A3026 RMK AO2 SLP253 T01390117 $=
201410121553 METAR KSEA 121553Z 18003KT 10SM SCT015 OVC022 13/12 A3026 RMK AO2 SLP255 T01330117 $=
201410121453 METAR KSEA 121453Z 17004KT 10SM OVC016 13/11 A3025 RMK AO2 SLP251 T01280111 50003 $=
201410121353 METAR KSEA 121353Z 21005KT 10SM SCT010 OVC016 13/11 A3025 RMK AO2 SLP251 T01280111 $=
201410121253 METAR KSEA 121253Z 21004KT 10SM SCT010 OVC019 13/12 A3024 RMK AO2 SLP247 T01280117 $=
201410121208 SPECI KSEA 121208Z 16005KT 10SM SCT010 BKN019 13/11 A3024 RMK AO2 $=
201410121204 SPECI KSEA 121204Z 16005KT 10SM FEW010 BKN046 13/11 A3024 RMK AO2 $=
201410121153 METAR KSEA 121153Z 16004KT 10SM BKN014 13/12 A3024 RMK AO2 SLP247 70027 T01280117 10128 20117 50003 $=
201410121053 METAR KSEA 121053Z 15005KT 10SM BKN014 12/11 A3024 RMK AO2 SLP247 T01220111 $=
201410120953 METAR KSEA 120953Z 17005KT 10SM OVC014 12/11 A3024 RMK AO2 SLP245 T01220111 $=
201410120937 SPECI KSEA 120937Z 15005KT 10SM BKN014 BKN085 12/11 A3024 RMK AO2 $=
201410120853 METAR KSEA 120853Z 14005KT 10SM SCT090 12/11 A3023 RMK AO2 SLP243 T01170106 53012 $=
201410120753 METAR KSEA 120753Z 14003KT 10SM FEW090 12/11 A3022 RMK AO2 SLP239 T01170106 401830117 $=
201410120653 METAR KSEA 120653Z 15005KT 10SM SCT090 13/11 A3021 RMK AO2 SLP234 T01280106 $=
201410120619 SPECI KSEA 120619Z 16005KT 10SM SCT016 BKN090 13/11 A3020 RMK AO2 $=
201410120553 METAR KSEA 120553Z 15006KT 10SM BKN016 BKN100 13/11 A3020 RMK AO2 SLP231 60025 T01280111 10178 20122 51018 $=
201410120524 SPECI KSEA 120524Z 12006KT 10SM BKN016 BKN090 13/11 A3019 RMK AO2 $=
201410120453 METAR KSEA 120453Z 12006KT 10SM SCT018 BKN080 13/12 A3019=
201410120437 SPECI KSEA 120437Z 13006KT 10SM BKN018 BKN085 13/12 A3018 RMK AO2 $=
201410120353 METAR KSEA 120353Z 11008KT 10SM SCT018 BKN070 13/11 A3016 RMK AO2 SLP220 T01330111 $=
201410120253 METAR KSEA 120253Z 11004KT 10SM SCT070 14/11 A3014 RMK AO2 TSE04RAE13 SLP213 P0014 60025 T01390106 53018 $=
201410120204 SPECI KSEA 120204Z 17003KT 5SM RA FEW024CB BKN040 13/09 A3012 RMK AO2 TSE04 CB E MOV SE P0013 $=
201410120153 METAR KSEA 120153Z 03005G23KT 2SM R16L/4500VP6000FT +TSRA FEW024 OVC029CB 14/08 A3012 RMK AO2 TSB29RAB29 SLP205 OCNL LTGCGIC OHD TS OHD MOV SE P0011 T01390083 $=
201410120141 SPECI KSEA 120141Z 02017G23KT 2SM R16L/4000VP6000FT +TSRA BKN028CB BKN040 OVC060 17/11 A3013 RMK AO2 TSB29RAB29 OCNL LTGCG OHD TS OHD MOV SE P0000 PNO $=
201410120130 SPECI KSEA 120130Z 00000KT 7SM -TSRA BKN028CB BKN040 OVC060 17/11 A3011 RMK AO2 TSB29RAB29 OCNL LTGCG OHD TS OHD MOV SE P0000 $=
201410120123 SPECI KSEA 120123Z 17004KT 10SM BKN028 BKN040 OVC060 17/11 A3011 RMK AO2 $=
201410120053 METAR KSEA 120053Z 20005KT 10SM FEW026 BKN040 17/12 A3010 RMK AO2 SLP200 T01670117 $=
201410112353 METAR KSEA 112353Z 17003KT 10SM FEW019 SCT045 BKN150 18/12 A3009 RMK AO2 SLP195 60002 T01780117 10183 20150 53008 $=
201410112253 METAR KSEA 112253Z 07004KT 10SM SCT019 BKN045 BKN170 18/12 A3008 RMK AO2 SLP192 CB DSNT SE T01830117 $=
201410112153 METAR KSEA 112153Z 00000KT 10SM FEW023 SCT080 BKN110 17/13 A3007 RMK AO2 RAE09 SLP188 P0002 T01720133 $=
201410112118 SPECI KSEA 112118Z 00000KT 10SM FEW023 BKN039 BKN110 16/13 A3006 RMK AO2 RAE09 P0002 $=
201410112053 METAR KSEA 112053Z 28008KT 9SM -RA BKN021 BKN047 OVC070 17/12 A3006 RMK AO2 RAB47 SLP186 P0000 60000 T01670117 53009 $=
201410111953 METAR KSEA 111953Z 22011G21KT 10SM FEW020 BKN075 BKN120 16/12 A3005 RMK AO2 SLP181 T01560122 $=
201410111853 METAR KSEA 111853Z 21016G22KT 10SM FEW020 BKN090 OVC110 16/12 A3004 RMK AO2 SLP179 T01610117 $=
201410111753 METAR KSEA 111753Z 21013G21KT 10SM SCT014 BKN090 BKN110 16/13 A3004 RMK AO2 SLP177 T01560128 10156 20144 55001 $=
201410111653 METAR KSEA 111653Z 21010KT 10SM FEW009 BKN012 OVC016 15/13 A3003 RMK AO2 SLP175 T01500128 $=
201410111553 METAR KSEA 111553Z 20008KT 10SM SCT009 BKN012 OVC016 15/13 A3003 RMK AO2 SLP176 T01500128 $=
201410111453 METAR KSEA 111453Z VRB04KT 10SM BKN007 BKN012 OVC016 14/13 A3004=
201410111406 SPECI KSEA 111406Z 19005KT 10SM BKN012 OVC021 14/13 A3003 RMK AO2 $=
201410111353 METAR KSEA 111353Z 19005KT 10SM BKN009 OVC016 14/13 A3003 RMK AO2 SLP176 T01440133=
201410111253 METAR KSEA 111253Z 21007KT 10SM BKN009 15/13 A3003 RMK AO2 SLP173 T01500133=
201410111153 METAR KSEA 111153Z 20009G16KT 10SM OVC007 15/13 A3002 RMK AO2 SLP170 60003 70003 T01500133 10156 20139 57001=
201410111053 METAR KSEA 111053Z 19004KT 10SM OVC004 14/13 A3002 RMK AO2 SLP170 T01440133=
201410110953 METAR KSEA 110953Z 18011KT 7SM SCT004 SCT009 OVC014 14/13 A3002 RMK AO2 SLP172 T01390128=
201410110853 METAR KSEA 110853Z 18012KT 7SM SCT004 BKN019 OVC055 14/13 A3002 RMK AO2 RAB17E43 SLP172 P0002 60003 T01390133 58002=
201410110753 METAR KSEA 110753Z 20008KT 10SM SCT019 BKN030 OVC070 14/13 A3003 RMK AO2 SLP173 T01440128 401830100=
201410110653 METAR KSEA 110653Z 20010KT 10SM FEW019 BKN080 OVC110 14/13 A3004 RMK AO2 RAE00B17E49 SLP178 P0001 T01440128=
201410110553 METAR KSEA 110553Z 20007KT 9SM -RA FEW030 BKN055 OVC075 16/12 A3003 RMK AO2 RAB47 SLP175 P0000 60000 T01560122 10167 20156 56003=
201410110453 METAR KSEA 110453Z 20008KT 10SM FEW060 BKN110 16/12 A3004 RMK AO2 SLP176 T01610117=
201410110353 METAR KSEA 110353Z 21007KT 10SM FEW030 BKN110 16/12 A3003 RMK AO2 SLP175 T01610117=
201410110253 METAR KSEA 110253Z 20007KT 10SM SCT030 BKN100 17/12 A3004 RMK AO2 SLP177 T01670117 56007=
201410110153 METAR KSEA 110153Z 18006KT 10SM SCT030 BKN085 BKN240 16/12 A3004 RMK AO2 SLP179 T01610122=
201410110053 METAR KSEA 110053Z 14010KT 10SM FEW025 BKN095 BKN240 16/12 A3005 RMK AO2 SLP181 T01610122=
201410102353 METAR KSEA 102353Z 15008KT 10SM FEW022 SCT100 BKN230 17/12 A3006=
201410102253 METAR KSEA 102253Z 19009KT 10SM FEW022 SCT060 BKN230 18/12 A3007 RMK AO2 SLP188 T01830117=
201410102153 METAR KSEA 102153Z 19013G18KT 10SM FEW021 SCT060 BKN080 17/12 A3008 RMK AO2 SLP191 T01720117=
201410102053 METAR KSEA 102053Z 18012KT 10SM FEW010 BKN080 BKN200 17/12 A3008 RMK AO2 SLP192 T01670122 50000=
201410102016 SPECI KSEA 102016Z 18010KT 10SM SCT009 BKN080 BKN200 15/12 A3008 RMK AO2=
201410101953 METAR KSEA 101953Z 20010KT 10SM OVC009 14/12 A3009 RMK AO2 SLP194 T01440122=
201410101853 METAR KSEA 101853Z 21008KT 10SM OVC005 13/12 A3008 RMK AO2 SLP192 T01330122=
201410101835 SPECI KSEA 101835Z 21009KT 10SM BKN005 OVC011 13/12 A3007 RMK AO2=
201410101804 SPECI KSEA 101804Z 19007KT 1 1/2SM BR OVC003 13/12 A3007 RMK AO2=
201410101753 METAR KSEA 101753Z 19006KT 1 1/2SM BR OVC001 12/12 A3008 RMK AO2 SLP191 T01220117 10122 20111 51008=
201410101744 SPECI KSEA 101744Z 18008KT 1 1/2SM BR OVC001 12/12 A3007 RMK AO2=
201410101653 METAR KSEA 101653Z 18010KT 3/4SM R16L/P6000FT BR OVC001 12/12 A3007 RMK AO2 SLP190 T01220117=
201410101635 SPECI KSEA 101635Z 19007KT 1/2SM R16L/1600V4000FT FG VV001 12/12 A3008 RMK AO2=
201410101553 METAR KSEA 101553Z 19008KT 1/4SM R16L/1400FT FG VV001 12/11 A3008 RMK AO2 SLP191 T01170111=
201410101541 SPECI KSEA 101541Z 20010KT 1/4SM R16L/1000V1200FT FG VV001 12/11 A3007 RMK AO2=
201410101537 SPECI KSEA 101537Z 21010KT M1/4SM R16L/1000V1200FT FG VV001 12/11 A3007 RMK AO2=
201410101520 SPECI KSEA 101520Z 21008KT 1/4SM R16L/1200V1400FT FG VV001 12/11 A3007 RMK AO2=
201410101453 METAR KSEA 101453Z 21008KT 1/8SM R16L/0700V0800FT FG VV001 12/11 A3005 RMK AO2 SLP183 T01170111 51008=
201410101353 METAR KSEA 101353Z 19006KT 1/8SM R16L/0700V0800FT FG VV001 12/11 A3004 RMK AO2 SLP180 T01170111=
201410101253 METAR KSEA 101253Z 21005KT 1/8SM R16L/1000FT FG VV001 11/11 A3004 RMK AO2 SLP180 T01110106=
201410101153 METAR KSEA 101153Z 14005KT 1/4SM R16L/1200V1400FT FG VV001 11/11 A3003 RMK AO2 SLP174 T01110106 10128 20100 55000=
201410101053 METAR KSEA 101053Z 15004KT 1/4SM R16L/1400V2000FT FG VV001 11/11 A3002 RMK AO2 SLP173 T01110106=
201410101036 SPECI KSEA 101036Z 15003KT 1/4SM R16L/1600V2400FT FG VV001 11/11 A3002 RMK AO2=
201410101007 SPECI KSEA 101007Z 00000KT 1/2SM R16L/1400VP6000FT FG BKN002 11/10 A3003 RMK AO2=
201410100953 METAR KSEA 100953Z 00000KT 3/4SM R16L/3000VP6000FT BCFG SCT002 10/10 A3003 RMK AO2 SLP174 T01000100=
201410100917 SPECI KSEA 100917Z 00000KT 3/4SM R16L/2600VP6000FT BCFG SCT002 11/09 A3003 RMK AO2=
201410100853 METAR KSEA 100853Z 17003KT 5SM BCFG FEW002 11/10 A3003 RMK AO2 SLP174 T01060100 50000=
201410100753 METAR KSEA 100753Z 00000KT 8SM CLR 11/10 A3003 RMK AO2 SLP177 T01110100 401720111=
201410100653 METAR KSEA 100653Z 00000KT 10SM CLR 12/11 A3003 RMK AO2 SLP174 T01220111=
201410100553 METAR KSEA 100553Z 00000KT 10SM CLR 13/12 A3003 RMK AO2 SLP174 T01330117 10161 20133 51002=
201410100453 METAR KSEA 100453Z 03004KT 10SM CLR 15/12 A3003 RMK AO2 SLP173 T01500117=
201410100353 METAR KSEA 100353Z 00000KT 10SM CLR 14/12 A3003 RMK AO2 SLP174 T01390117=
201410100253 METAR KSEA 100253Z 00000KT 10SM CLR 13/12 A3002 RMK AO2 SLP172 T01330117 56002=
201410100153 METAR KSEA 100153Z 00000KT 10SM FEW004 SCT250 13/12 A3002 RMK AO2 SLP172 T01330122=
201410100053 METAR KSEA 100053Z 00000KT 10SM FEW004 SCT250 16/13 A3002=
201410092353 METAR KSEA 092353Z 29003KT 7SM FEW003 SCT250 16/13 A3003 RMK AO2 SLP173 FG BANK S-W T01610128 10172 20139 56007=
201410092300 SPECI KSEA 092300Z 28004KT 5SM BR SCT003 BKN250 14/13 A3003 RMK AO2 VIS S-W 1 $=
201410092253 METAR KSEA 092253Z 28005KT 5SM BR BKN003 BKN250 14/12 A3003 RMK AO2 SLP175 VIS W 1 T01440122=
201410092241 SPECI KSEA 092241Z 31005KT 4SM BR BKN003 BKN250 15/13 A3004 RMK AO2 VIS W 1=
201410092153 METAR KSEA 092153Z 27006KT 6SM HZ FEW007 BKN250 16/13 A3004 RMK AO2 SLP176 T01610128=
201410092053 METAR KSEA 092053Z 31006KT 6SM HZ FEW006 BKN250 17/13 A3005 RMK AO2 SLP181 T01670128 58008=
201410091953 METAR KSEA 091953Z 26004KT 6SM HZ SCT006 SCT010 BKN250 16/13 A3006 RMK AO2 SLP186 T01610133=
201410091946 SPECI KSEA 091946Z 30004KT 6SM BR SCT006 BKN010 BKN250 16/13 A3006 RMK AO2=
201410091853 METAR KSEA 091853Z 00000KT 4SM BR OVC006 15/13 A3007 RMK AO2 SLP189 T01500128=
201410091846 SPECI KSEA 091846Z 00000KT 4SM BR OVC006 15/13 A3007 RMK AO2=
201410091801 SPECI KSEA 091801Z 00000KT 1 1/2SM BR OVC004 14/13 A3007 RMK AO2=
201410091753 METAR KSEA 091753Z 04003KT 1SM R16L/P6000FT BR OVC003 14/13 A3007 RMK AO2 SLP189 60000 T01390128 10139 20133 51009=
201410091750 SPECI KSEA 091750Z 34003KT 1SM R16L/P6000FT BR OVC003 14/13 A3008 RMK AO2=
201410091653 METAR KSEA 091653Z 33003KT 1/4SM R16L/1200V2400FT FG VV001 13/13 A3007 RMK AO2 DZE49 SLP188 P0000 T01330128=
201410091601 SPECI KSEA 091601Z 03004KT 1/4SM R16L/1000V1200FT -DZ FG VV001 13/13 A3006 RMK AO2 P0000=
201410091553 METAR KSEA 091553Z 00000KT 1/4SM R16L/1000V2400FT -DZ FG VV001 13/13 A3006 RMK AO2 DZB52 SLP185 P0000 T01330128=
201410091508 SPECI KSEA 091508Z 00000KT 1/4SM R16L/1200V1600FT FG VV001 13/13 A3005 RMK AO2=
201410091453 METAR KSEA 091453Z 00000KT 1/4SM R16L/2000VP6000FT FG VV001 13/13 A3005 RMK AO2 SLP180 T01330128 53003=
201410091428 SPECI KSEA 091428Z 00000KT 1/4SM R16L/2200VP6000FT FG VV002 13/13 A3004 RMK AO2 SFC VIS 1/2=
201410091353 METAR KSEA 091353Z 31003KT 1/4SM R16L/1800V2600FT FG VV001 13/13 A3004 RMK AO2 SLP177 T01330128=
201410091328 SPECI KSEA 091328Z 34004KT 1/4SM R16L/1600V4000FT FG VV001 13/13 A3004 RMK AO2=
201410091310 SPECI KSEA 091310Z 00000KT 1/4SM R16L/1400V2000FT FG VV001 13/13 A3004 RMK AO2=
201410091253 METAR KSEA 091253Z 36004KT 1/4SM R16L/1400V2600FT FG VV001 13/13 A3004 RMK AO2 SLP177 T01330128=
201410091153 METAR KSEA 091153Z 03004KT 1/4SM R16L/1000V1200FT FG VV001 14/13 A3004 RMK AO2 SLP177 T01390133 10144 20128 56001=
201410091145 SPECI KSEA 091145Z 00000KT 1/4SM R16L/1200V1400FT FG VV001 14/13 A3004 RMK AO2=
201410091122 SPECI KSEA 091122Z 02003KT 1/4SM R16L/1200V3000FT FG VV001 14/13 A3004 RMK AO2=
201410091053 METAR KSEA 091053Z 00000KT 1/4SM R16L/1600V2200FT FG VV001 14/13 A3004 RMK AO2 SLP177 T01390133=
201410090953 METAR KSEA 090953Z 05004KT 1/4SM R16L/0800V1200FT FG VV001 14/13 A3004 RMK AO2 SLP177 T01390133=
201410090853 METAR KSEA 090853Z 00000KT 1/4SM R16L/1000V1400FT FG VV001 14/13 A3004 RMK AO2 SLP178 T01390133 51002=
201410090753 METAR KSEA 090753Z 36003KT 1/4SM R16L/1000V1200FT FG VV001 14/13 A3004=
201410090715 SPECI KSEA 090715Z 00000KT 1/2SM R16L/1000V1400FT FG VV001 13/13 A3004 RMK AO2=
201410090704 SPECI KSEA 090704Z 00000KT 1/2SM R16L/1400VP6000FT FG VV001 13/12 A3004 RMK AO2=
201410090700 SPECI KSEA 090700Z 34003KT 1SM R16L/1800VP6000FT BR VV001 13/12 A3004 RMK AO2=
201410090657 SPECI KSEA 090657Z 33003KT 3SM BR BKN002 13/12 A3004 RMK AO2=
201410090653 METAR KSEA 090653Z 00000KT 5SM BR SCT002 13/12 A3004 RMK AO2 SLP176 T01330122=
201410090637 SPECI KSEA 090637Z 02004KT 7SM FEW002 14/13 A3003 RMK AO2=
201410090553 METAR KSEA 090553Z 05003KT 8SM CLR 14/13 A3003 RMK AO2 SLP175 T01440128 10183 20139 51003=
201410090453 METAR KSEA 090453Z 04005KT 10SM CLR 15/13 A3003 RMK AO2 SLP174 T01500133=
201410090353 METAR KSEA 090353Z 01004KT 10SM CLR 14/12 A3003 RMK AO2 SLP174 T01440122=
201410090253 METAR KSEA 090253Z 36004KT 10SM FEW140 SCT220 15/13 A3002 RMK AO2 SLP172 T01500128 53000=
201410090153 METAR KSEA 090153Z 32005KT 10SM FEW140 SCT220 15/13 A3002 RMK AO2 SLP173 T01500128=
201410090053 METAR KSEA 090053Z 31004KT 10SM FEW020 SCT140 SCT220 17/13 A3002 RMK AO2 SLP171 T01720128=
201410082353 METAR KSEA 082353Z 31006KT 10SM FEW015 SCT130 BKN220 18/13 A3002 RMK AO2 SLP172 T01830133 10206 20156 50000=
201410082253 METAR KSEA 082253Z 35007KT 10SM FEW015 SCT150 BKN220 19/13 A3003 RMK AO2 SLP173 T01940133=
201410082153 METAR KSEA 082153Z VRB04KT 10SM FEW015 SCT140 BKN240 18/13 A3002 RMK AO2 SLP172 T01830128=
201410082053 METAR KSEA 082053Z 30005KT 10SM FEW011 SCT120 BKN200 18/13 A3002 RMK AO2 SLP172 T01780133 58002=
201410081953 METAR KSEA 081953Z 28003KT 10SM FEW013 BKN150 BKN250 17/14 A3003 RMK AO2 SLP175 T01720139=
201410081853 METAR KSEA 081853Z 31004KT 6SM BR SCT008 BKN150 BKN250 16/13 A3003 RMK AO2 SLP174 T01560133=
201410081753 METAR KSEA 081753Z 00000KT 5SM HZ BKN006 OVC180 16/13 A3003 RMK AO2 SLP174 T01560128 10156 20133 53007=
201410081653 METAR KSEA 081653Z 36005KT 4SM BR OVC006 15/13 A3002 RMK AO2 SLP172 T01500128=
201410081553 METAR KSEA 081553Z 03005KT 3SM BR FEW003 BKN007 OVC200 14/13 A3001 RMK AO2 SLP168 T01440128=
201410081525 SPECI KSEA 081525Z 35004KT 3SM BR FEW003 BKN007 BKN021 OVC200 14/13 A3002 RMK AO2=
201410081521 SPECI KSEA 081521Z 35005KT 2SM BR FEW003 BKN007 BKN021 BKN200 14/13 A3001 RMK AO2=
201410081453 METAR KSEA 081453Z 32004KT 2SM BR FEW003 SCT007 BKN021 OVC200 14/13 A3001 RMK AO2 SLP166 T01390128 52010=
201410081446 SPECI KSEA 081446Z 31004KT 2SM BR SCT003 SCT008 BKN021 OVC200 13/13 A3001 RMK AO2=
201410081428 SPECI KSEA 081428Z 33003KT 1 1/4SM BR FEW002 SCT008 BKN021 BKN200 13/13 A3000 RMK AO2=
201410081353 METAR KSEA 081353Z 00000KT 1/2SM R16L/2800VP6000FT BR BKN002 OVC006 14/13 A3000 RMK AO2 SFC VIS 3/4 SLP164 T01390133=
201410081253 METAR KSEA 081253Z 31003KT 3/4SM R16L/P6000FT BR BKN002 OVC007 14/13 A2999 RMK AO2 SLP160 T01390133=
201410081153 METAR KSEA 081153Z 00000KT 1SM R16L/P6000FT BR OVC002 14/14 A2998 RMK AO2 SLP157 T01440139 10150 20139 50001=
201410081053 METAR KSEA 081053Z 30003KT 1/2SM R16L/2000V4000FT FG VV002 14/13 A2998 RMK AO2 SLP157 T01390133=
201410081037 SPECI KSEA 081037Z 28003KT 1/2SM R16L/2000V2800FT FG VV002 14/13 A2998 RMK AO2=
201410080953 METAR KSEA 080953Z 28003KT 1/2SM R16L/2000V2600FT FG VV001 14/13 A2998 RMK AO2 SLP156 T01440133=
201410080951 SPECI KSEA 080951Z 28003KT 1/2SM R16L/2000V2600FT FG VV001 14/14 A2998 RMK AO2=
201410080937 SPECI KSEA 080937Z 00000KT 1/2SM R16L/1800V2200FT FG VV001 14/14 A2997 RMK AO2=
201410080853 METAR KSEA 080853Z 00000KT 1/2SM R16L/4500VP6000FT BR OVC002 14/13 A2997 RMK AO2 SFC VIS 1 SLP154 T01440133 53006=
201410080825 SPECI KSEA 080825Z 32003KT 1/2SM BR OVC002 14/13 A2997 RMK AO2 SFC VIS 2=
201410080753 METAR KSEA 080753Z 35005KT 5SM BR BKN002 OVC038 15/14 A2996 RMK AO2 SLP150 T01500139 401890139=
201410080701 SPECI KSEA 080701Z 29004KT 5SM BR BKN004 OVC027 15/14 A2996 RMK AO2=
201410080653 METAR KSEA 080653Z 34005KT 6SM BR SCT004 BKN025 OVC034 15/14 A2996 RMK AO2 SLP149 T01500139=
201410080641 SPECI KSEA 080641Z 34005KT 6SM BR SCT004 BKN029 OVC034 15/14 A2995 RMK AO2=
201410080553 METAR KSEA 080553Z 36006KT 8SM BKN030 15/14 A2995 RMK AO2 SLP148 T01500139 10189 20144 53006=
201410080453 METAR KSEA 080453Z 00000KT 10SM BKN037 15/13 A2994 RMK AO2 SLP145 T01500133=
201410080353 METAR KSEA 080353Z 00000KT 10SM OVC033 16/14 A2994 RMK AO2 SLP143 T01560139=
201410080339 SPECI KSEA 080339Z 31004KT 10SM OVC031 16/14 A2994 RMK AO2=
201410080253 METAR KSEA 080253Z 30003KT 10SM OVC029 16/14 A2993 RMK AO2 SLP141 T01610139 53000=
201410080153 METAR KSEA 080153Z 00000KT 10SM BKN027 BKN250 17/14 A2993 RMK AO2 SLP139 T01720144=
201410080140 SPECI KSEA 080140Z 00000KT 10SM BKN025 BKN250 17/14 A2993 RMK AO2=
201410080053 METAR KSEA 080053Z 30003KT 10SM FEW010 SCT250 18/14 A2993 RMK AO2 SLP140 T01780144=
201410072353 METAR KSEA 072353Z 00000KT 7SM FEW007 BKN250 19/15 A2993 RMK AO2 SLP141 T01890150 10189 20150 58011=
201410072322 SPECI KSEA 072322Z 00000KT 6SM HZ SCT006 BKN250 18/15 A2994 RMK AO2=
201410072310 SPECI KSEA 072310Z 00000KT 5SM HZ BKN006 BKN250 18/14 A2994 RMK AO2=
201410072253 METAR KSEA 072253Z 00000KT 2 1/2SM BR OVC006 18/14 A2995 RMK AO2 SFC VIS 3 SLP146 T01780144=
201410072153 METAR KSEA 072153Z 00000KT 2 1/2SM BR OVC006 16/14 A2995 RMK AO2 SLP148 T01610144=
201410072053 METAR KSEA 072053Z 00000KT 2 1/2SM BR OVC006 16/14 A2996=
201410071953 METAR KSEA 071953Z 16004KT 2SM BR OVC005 16/14 A2998 RMK AO2 SLP156 T01610144=
201410071932 SPECI KSEA 071932Z 00000KT 1 1/4SM BR OVC004 16/14 A2998 RMK AO2=
201410071853 METAR KSEA 071853Z 00000KT 1/2SM R16L/P6000FT BR OVC002 16/14 A2999 RMK AO2 SFC VIS 1 SLP160 T01560144=
201410071753 METAR KSEA 071753Z 30004KT 1/4SM R16L/2800V3000FT FG VV002 15/14 A2999 RMK AO2 SFC VIS 1/2 SLP160 T01500144 10150 20139 51006=
201410071653 METAR KSEA 071653Z 28003KT 1/4SM R16L/2600VP6000FT FG VV002 15/14 A2998 RMK AO2 SFC VIS 1/2 SLP159 T01500139=
201410071647 SPECI KSEA 071647Z 00000KT 1/4SM R16L/2400VP6000FT FG VV002 15/14 A2998 RMK AO2 SFC VIS 1/2=
201410071630 SPECI KSEA 071630Z 00000KT 1/4SM R16L/1400V2600FT FG VV001 14/14 A2998 RMK AO2 SFC VIS 1/2=
201410071553 METAR KSEA 071553Z 00000KT 1/4SM R16L/1000FT FG VV001 14/14 A2998 RMK AO2 SLP156 T01390139=
201410071453 METAR KSEA 071453Z 00000KT 1/4SM R16L/1200V2200FT FG VV001 14/13 A2997 RMK AO2 SLP154 T01390133 55000=
201410071353 METAR KSEA 071353Z 00000KT 1/4SM R16L/1800V2200FT FG VV001 14/13 A2996 RMK AO2 SLP151 T01390133=
201410071350 SPECI KSEA 071350Z 00000KT 1/4SM R16L/1800V2200FT FG VV001 14/13 A2996 RMK AO2=
201410071310 SPECI KSEA 071310Z 00000KT 1/4SM R16L/P6000FT BR OVC002 14/13 A2996 RMK AO2 SFC VIS 3/4=
201410071253 METAR KSEA 071253Z 00000KT 1/2SM R16L/P6000FT BR BKN001 OVC004 14/13 A2996 RMK AO2 SFC VIS 3/4 SLP150 T01440133=
201410071229 SPECI KSEA 071229Z 00000KT 1SM R16L/P6000FT BR FEW001 OVC004 14/13 A2996 RMK AO2 TWR VIS 1 1/4=
201410071153 METAR KSEA 071153Z 00000KT 4SM BR OVC004 14/13 A2997 RMK AO2 SLP153 T01440133 10172 20139 55003=
201410071130 SPECI KSEA 071130Z 30003KT 4SM BR BKN004 14/13 A2997 RMK AO2=
201410071053 METAR KSEA 071053Z 34003KT 7SM FEW004 14/13 A2997 RMK AO2 SLP152 T01440133=
201410071040 SPECI KSEA 071040Z 35003KT 7SM FEW002 14/13 A2997 RMK AO2=
201410070953 METAR KSEA 070953Z 02005KT 10SM CLR 16/14 A2997 RMK AO2 SLP153 T01560139=
201410070853 METAR KSEA 070853Z 02008KT 10SM CLR 16/14 A2998 RMK AO2 SLP156 T01610144 56003=
201410070753 METAR KSEA 070753Z 01006KT 10SM CLR 16/14 A2998 RMK AO2 SLP156 T01610144 402560133=
201410070653 METAR KSEA 070653Z 36005KT 10SM CLR 17/14 A2998 RMK AO2 SLP156 T01670144=
201410070553 METAR KSEA 070553Z 36008KT 10SM CLR 17/14 A2999 RMK AO2 SLP159 T01720144 10244 20172 58002=
201410070453 METAR KSEA 070453Z 01009KT 10SM CLR 18/14 A2999 RMK AO2 SLP161 T01830144=
201410070353 METAR KSEA 070353Z 02012KT 10SM CLR 19/14 A2999 RMK AO2 SLP162 T01890144=
201410070253 METAR KSEA 070253Z 35006KT 10SM FEW050 19/15 A2999 RMK AO2 SLP161 T01890150 55002=
201410070153 METAR KSEA 070153Z 35008KT 10SM FEW050 21/16 A2999 RMK AO2 SLP161 T02060156=
201410070053 METAR KSEA 070053Z 36008KT 10SM FEW050 23/14 A3000 RMK AO2 SLP161 T02330144=
201410062353 METAR KSEA 062353Z 36009KT 10SM FEW040 24/15 A3000 RMK AO2 SLP162 T02440150 10256 20178 56009=
201410062253 METAR KSEA 062253Z 36007KT 10SM FEW040 26/15 A3000 RMK AO2 SLP164 T02560150=
201410062153 METAR KSEA 062153Z 34008KT 10SM FEW040 25/14 A3001 RMK AO2 SLP168 T02500144=
201410062053 METAR KSEA 062053Z 36007KT 10SM FEW040 25/14 A3002 RMK AO2 SLP172 T02500139 58014=
201410061953 METAR KSEA 061953Z 29006KT 10SM CLR 22/15 A3004 RMK AO2 SLP178 T02170150=
201410061853 METAR KSEA 061853Z 26003KT 10SM CLR 21/15 A3006 RMK AO2 SLP182 T02060150=
201410061753 METAR KSEA 061753Z 28003KT 10SM FEW003 17/16 A3007 RMK AO2 SLP187 T01720156 10172 20133 50001=
201410061730 SPECI KSEA 061730Z 00000KT 10SM FEW003 16/15 A3007 RMK AO2=
201410061709 SPECI KSEA 061709Z 00000KT 1SM R16L/P6000FT BR SCT001 15/14 A3008 RMK AO2=
201410061702 SPECI KSEA 061702Z 00000KT 1/4SM R16L/1200VP6000FT FG BKN001 OVC005 15/15 A3008 RMK AO2 SFC VIS 1/2=
201410061653 METAR KSEA 061653Z 00000KT 1/4SM R16L/0800V1600FT FG BKN001 OVC005 15/14 A3008 RMK AO2 SLP191 T01500144=
201410061553 METAR KSEA 061553Z 00000KT 1/4SM R16L/0600V1600FT FG BKN001 OVC006 15/14 A3007 RMK AO2 SLP186 T01500144=
201410061453 METAR KSEA 061453Z 05003KT 1/4SM R16L/0500V1200FT FG VV001 14/14 A3006 RMK AO2 TWR VIS 1/2 SLP186 T01440139 50000=
201410061411 SPECI KSEA 061411Z 34004KT 1/4SM R16L/1000V1600FT FG VV001 13/13 A3007 RMK AO2 TWR VIS 10=
201410061353 METAR KSEA 061353Z 00000KT 1/2SM R16L/1600V2800FT FG VV001 13/13 A3007 RMK AO2 TWR VIS 10 SLP187 T01330128=
201410061348 SPECI KSEA 061348Z 00000KT 1/2SM R16L/1600V2800FT FG VV001 14/13 A3007 RMK AO2 TWR VIS 10=
201410061253 METAR KSEA 061253Z 36003KT 1/4SM R16L/1200V1400FT FG VV001 14/14 A3007=
201410061240 SPECI KSEA 061240Z 00000KT 1/8SM R16L/1200V1600FT FG VV001 14/14 A3007 RMK AO2 TWR VIS 1/2=
201410061211 SPECI KSEA 061211Z 36003KT 1/4SM R16L/1400V2000FT FG OVC001 14/13 A3008 RMK AO2 TWR VIS 1/2=
201410061203 SPECI KSEA 061203Z 35003KT 1/2SM R16L/1800V3000FT BR BKN001 14/12 A3008 RMK AO2 SFC VIS 2=
201410061153 METAR KSEA 061153Z 00000KT 4SM R16L/3000VP6000FT BR SCT001 13/12 A3008 RMK AO2 SLP190 T01330122 10167 20133 55004=
201410061140 SPECI KSEA 061140Z 00000KT 8SM FEW005 15/14 A3007 RMK AO2=
201410061053 METAR KSEA 061053Z 04003KT 10SM CLR 15/13 A3007 RMK AO2 SLP188 T01500128=
201410060953 METAR KSEA 060953Z 06003KT 10SM CLR 16/13 A3008 RMK AO2 SLP190 T01560133=
201410060853 METAR KSEA 060853Z 00000KT 10SM CLR 14/13 A3009 RMK AO2 SLP194 T01440128 55003=
201410060753 METAR KSEA 060753Z 00000KT 10SM CLR 15/13 A3008 RMK AO2 SLP192 T01500133 402390117=
201410060653 METAR KSEA 060653Z 00000KT 10SM CLR 17/13 A3009 RMK AO2 SLP192 T01670133=
201410060553 METAR KSEA 060553Z 35003KT 10SM SCT220 16/13 A3010 RMK AO2 SLP197 T01610133 10228 20161 50002=
201410060453 METAR KSEA 060453Z 02005KT 10SM SCT220 17/13 A3010 RMK AO2 SLP198 T01720133=
201410060353 METAR KSEA 060353Z 01006KT 10SM SCT250 17/13 A3010 RMK AO2 SLP198 T01720133=
201410060253 METAR KSEA 060253Z 35005KT 10SM SCT250 18/14 A3009 RMK AO2 SLP195 T01830139 55004=
201410060153 METAR KSEA 060153Z 33007KT 10SM SCT250 19/14 A3008 RMK AO2 SLP193 T01940139=
201410060053 METAR KSEA 060053Z 30004KT 10SM SCT250 21/14 A3009 RMK AO2 SLP194 T02110144=
201410052353 METAR KSEA 052353Z 30004KT 10SM SCT250 23/14 A3010 RMK AO2 SLP198 T02280144 10239 20178 58010=
201410052253 METAR KSEA 052253Z 34008KT 10SM FEW180 23/14 A3012 RMK AO2 SLP203 T02330139=
201410052153 METAR KSEA 052153Z 30004KT 10SM FEW180 23/14 A3013 RMK AO2 SLP208 T02280139=
201410052053 METAR KSEA 052053Z 32006KT 10SM FEW180 22/14 A3013 RMK AO2 SLP208 T02170139 56008=
201410051953 METAR KSEA 051953Z 00000KT 10SM FEW070 BKN160 21/13 A3014 RMK AO2 SLP209 T02060133=
201410051853 METAR KSEA 051853Z 33004KT 10SM FEW060 18/13 A3015=
201410051753 METAR KSEA 051753Z 00000KT 10SM FEW060 18/14 A3016 RMK AO2 SLP217 T01780139 10178 20117 50000=
201410051705 SPECI KSEA 051705Z 00000KT 4SM BR FEW002 SCT020 16/13 A3016 RMK AO2=
201410051653 METAR KSEA 051653Z 00000KT 2SM R16L/2400VP6000FT BR FEW002 SCT020 14/13 A3016 RMK AO2 TWR VIS 3 SLP217 T01440133=
201410051629 SPECI KSEA 051629Z 31003KT 3/4SM R16L/4000VP6000FT BR FEW002 SCT010 14/13 A3016 RMK AO2 TWR VIS 1=
201410051617 SPECI KSEA 051617Z 00000KT 1/4SM R16L/3000VP6000FT FG BKN002 14/13 A3016 RMK AO2 TWR VIS 1/2=
201410051553 METAR KSEA 051553Z 00000KT 1/4SM R16L/1800VP6000FT FG BKN001 13/13 A3016 RMK AO2 TWR VIS 1/2 SLP218 T01330128=
201410051527 SPECI KSEA 051527Z 00000KT 1/4SM R16L/1000V3000FT FG BKN001 13/13 A3016 RMK AO2 TWR VIS 1/2=
201410051453 METAR KSEA 051453Z 05004KT 1/4SM R16L/0800V2800FT FG BKN001 13/12 A3016 RMK AO2 TWR VIS 10 SLP217 T01280117 50001=
201410051431 SPECI KSEA 051431Z 00000KT 1/4SM R16L/1000V4500FT FG OVC001 12/11 A3016 RMK AO2 TWR VIS 6=
201410051423 SPECI KSEA 051423Z 36004KT M1/4SM R16L/0800V1200FT FG VV001 12/11 A3016 RMK AO2 TWR VIS 6=
201410051409 SPECI KSEA 051409Z 36003KT 1/2SM R16L/1000V2800FT FG BKN001 12/12 A3016 RMK AO2 TWR VIS 6=
201410051353 METAR KSEA 051353Z 02003KT 3/4SM R16L/0800V1000FT BR BKN001 12/11 A3016 RMK AO2 TWR VIS 6 SLP219 T01170111=
201410051333 SPECI KSEA 051333Z 33003KT 1SM R16L/1000V1200FT BR BKN001 12/11 A3016 RMK AO2 TWR VIS 5=
201410051256 SPECI KSEA 051256Z 00000KT 6SM BR SCT001 12/11 A3016 RMK AO2=
201410051253 METAR KSEA 051253Z 00000KT 6SM BR BKN001 12/11 A3016 RMK AO2 SLP217 T01220111=
201410051248 SPECI KSEA 051248Z 00000KT 6SM BR BKN001 12/11 A3015 RMK AO2=
201410051153 METAR KSEA 051153Z 00000KT 10SM CLR 13/11 A3015 RMK AO2 SLP216 T01280111 10150 20122 55004=
201410051053 METAR KSEA 051053Z 00000KT 10SM CLR 13/11 A3015 RMK AO2 SLP214 T01280106=
201410050953 METAR KSEA 050953Z 35003KT 10SM CLR 13/11 A3015 RMK AO2 SLP214 T01330106=
201410050853 METAR KSEA 050853Z 00000KT 10SM CLR 14/12 A3016 RMK AO2 SLP219 T01440117 55002=
201410050753 METAR KSEA 050753Z 00000KT 10SM CLR 14/12 A3016 RMK AO2 SLP218 T01440117 402170122=
201410050653 METAR KSEA 050653Z 00000KT 10SM CLR 14/12 A3016 RMK AO2 SLP219 T01390117=
201410050553 METAR KSEA 050553Z 35005KT 10SM CLR 14/12 A3017 RMK AO2 SLP221 T01440117 10217 20139 53004=
201410050453 METAR KSEA 050453Z 30004KT 10SM CLR 14/11 A3016 RMK AO2 SLP219 T01440111=
201410050353 METAR KSEA 050353Z 02003KT 10SM SCT120 17/11 A3015 RMK AO2 SLP215 T01670111=
201410050253 METAR KSEA 050253Z 35004KT 10SM SCT120 16/10 A3015 RMK AO2 SLP216 T01610100 55004=
201410050153 METAR KSEA 050153Z 31003KT 10SM CLR 17/10 A3014 RMK AO2 SLP213 T01720100=
201410050053 METAR KSEA 050053Z 32007KT 10SM FEW085 SCT120 21/11 A3016 RMK AO2 SLP218 T02060111=
201410042353 METAR KSEA 042353Z 32004KT 10SM FEW095 SCT120 22/12 A3017 RMK AO2 SLP220 T02170117 10217 20178 58012=
201410042253 METAR KSEA 042253Z 00000KT 10SM SCT095 BKN120 21/12 A3018 RMK AO2 SLP224 T02060117=
201410042153 METAR KSEA 042153Z VRB03KT 10SM BKN090 BKN120 19/12 A3019 RMK AO2 SLP230 T01940117=
201410042053 METAR KSEA 042053Z 27004KT 10SM BKN100 BKN120 19/12 A3020 RMK AO2 SLP232 T01890117 58004=
201410041953 METAR KSEA 041953Z 00000KT 10SM FEW031 OVC090 19/13 A3021 RMK AO2 SLP234 T01890128=
201410041853 METAR KSEA 041853Z 27004KT 10SM OVC100 18/12 A3021 RMK AO2 SLP236 T01780122=
201410041753 METAR KSEA 041753Z 00000KT 10SM OVC085 18/12 A3021 RMK AO2 SLP236 T01830122 10189 20122 51011=
201410041653 METAR KSEA 041653Z 20003KT 10SM BKN090 BKN110 17/12 A3021 RMK AO2 SLP235 T01670117=
201410041553 METAR KSEA 041553Z 15003KT 10SM BKN095 15/12 A3019 RMK AO2 SLP230 T01500117=
201410041453 METAR KSEA 041453Z 15004KT 10SM SCT095 BKN160 12/11 A3018 RMK AO2 SLP225 T01220106 58005=
201410041353 METAR KSEA 041353Z 00000KT 10SM BKN095 13/11 A3019 RMK AO2 SLP228 T01330111=
201410041253 METAR KSEA 041253Z 14003KT 10SM SCT100 13/11 A3019 RMK AO2 SLP228 T01330111=
201410041153 METAR KSEA 041153Z 00000KT 10SM FEW080 OVC100 14/12 A3019 RMK AO2 SLP229 T01390117 10156 20133 53002=
201410041053 METAR KSEA 041053Z 00000KT 10SM FEW090 BKN130 14/11 A3019 RMK AO2 SLP227 T01390111=
201410040953 METAR KSEA 040953Z 30003KT 10SM OVC120 14/11 A3018 RMK AO2 SLP226 T01440111=
201410040853 METAR KSEA 040853Z 00000KT 10SM BKN120 15/12 A3019 RMK AO2 SLP227 T01500117 51005=
201410040753 METAR KSEA 040753Z 04004KT 10SM CLR 16/11 A3019 RMK AO2 SLP228 T01560106 402220089=
201410040653 METAR KSEA 040653Z 00000KT 10SM CLR 14/09 A3018 RMK AO2 SLP226 T01390094=
201410040553 METAR KSEA 040553Z 00000KT 10SM CLR 14/09 A3017 RMK AO2 SLP223 T01440089 10211 20139 53002=
201410040453 METAR KSEA 040453Z 00000KT 10SM CLR 14/09 A3017 RMK AO2 SLP222 T01440089=
201410040353 METAR KSEA 040353Z 00000KT 10SM FEW160 17/07 A3016 RMK AO2 SLP219 T01670072=
201410040253 METAR KSEA 040253Z 00000KT 10SM FEW160 SCT250 17/08 A3017 RMK AO2 SLP222 T01720083 55006=
201410040153 METAR KSEA 040153Z 00000KT 10SM FEW160 SCT230 18/08 A3017 RMK AO2 SLP222 T01830078=
201410040053 METAR KSEA 040053Z 28003KT 10SM FEW160 SCT250 21/08 A3017 RMK AO2 SLP222 T02060083=
201410032353 METAR KSEA 032353Z 30006KT 10SM FEW160 BKN250 21/08 A3019 RMK AO2 SLP228 T02110083 10222 20156 56006=
201410032253 METAR KSEA 032253Z 30005KT 10SM SCT180 BKN250 21/08 A3019 RMK AO2 SLP230 T02060083=
201410032153 METAR KSEA 032153Z 30004KT 10SM SCT180 BKN250 21/10 A3020 RMK AO2 SLP231 T02060100=
201410032053 METAR KSEA 032053Z 28005KT 10SM FEW150 BKN250 21/12 A3021 RMK AO2 SLP234 T02110117 58014=
201410031953 METAR KSEA 031953Z 00000KT 10SM FEW120 BKN250 19/11 A3023 RMK AO2 SLP242 T01890106=
201410031853 METAR KSEA 031853Z 26003KT 10SM FEW120 BKN250 17/11 A3024 RMK AO2 SLP244 T01720106=
201410031753 METAR KSEA 031753Z 28004KT 10SM FEW150 BKN250 16/11 A3025 RMK AO2 SLP249 T01560106 10161 20089 58003 $=
201410031653 METAR KSEA 031653Z 00000KT 10SM SCT220 14/10 A3025 RMK AO2 SLP252 T01440100 $=
201410031553 METAR KSEA 031553Z 00000KT 10SM FEW120 SCT220 12/09 A3026 RMK AO2 SLP253 T01170094 $=
201410031453 METAR KSEA 031453Z 35003KT 10SM FEW120 BKN220 10/09 A3025 RMK AO2 SLP251 T01000089 56012 $=
201410031353 METAR KSEA 031353Z 00000KT 10SM SCT200 09/08 A3026 RMK AO2 SLP253 T00940083 $=
201410031253 METAR KSEA 031253Z 03005KT 10SM CLR 11/09 A3027 RMK AO2 SLP255 T01110089 $=
201410031153 METAR KSEA 031153Z 00000KT 10SM CLR 11/08 A3029 RMK AO2 SLP263 T01060083 10128 20094 58001 $=
201410031053 METAR KSEA 031053Z 00000KT 10SM CLR 10/08 A3030 RMK AO2 SLP265 T01000078 $=
201410030953 METAR KSEA 030953Z 00000KT 10SM CLR 11/08 A3030 RMK AO2 SLP265 T01060078 $=
201410030853 METAR KSEA 030853Z 01004KT 10SM CLR 11/07 A3029 RMK AO2 SLP264 T01110072 58005 $=
201410030753 METAR KSEA 030753Z 00000KT 10SM FEW250 12/08 A3030 RMK AO2 SLP267 T01220078 401940100 $=
201410030653 METAR KSEA 030653Z 36005KT 10SM SCT250 12/07 A3031 RMK AO2 SLP268 T01170072 $=
201410030553 METAR KSEA 030553Z 35005KT 10SM SCT250 12/07 A3031 RMK AO2 SLP270 T01220067 10189 20122 52001 $=
201410030453 METAR KSEA 030453Z 36004KT 10SM SCT250 13/07 A3031 RMK AO2 SLP270 T01330072 $=
201410030353 METAR KSEA 030353Z 02007KT 10SM SCT250 14/07 A3031 RMK AO2 SLP271 T01440072 $=
201410030253 METAR KSEA 030253Z 36006KT 10SM SCT240 14/07 A3031 RMK AO2 SLP270 T01440067 51008 $=
201410030153 METAR KSEA 030153Z 32004KT 10SM SCT240 15/04 A3030 RMK AO2 SLP267 T01500044 $=
201410030053 METAR KSEA 030053Z 32006KT 10SM FEW100 SCT240 18/03 A3029 RMK AO2 SLP264 T01830033 $=
201410022353 METAR KSEA 022353Z 29006KT 10SM FEW100 SCT220 19/06 A3028 RMK AO2 SLP260 T01890061 10194 20172 58005 $=
201410022253 METAR KSEA 022253Z 30006KT 10SM SCT090 SCT140 BKN220 19/06 A3029 RMK AO2 SLP262 ACSL DSNT SE T01940061=
201410022153 METAR KSEA 022153Z 29009KT 10SM SCT100 SCT120 BKN200 18/09 A3029 RMK AO2 SLP264 ACSL DSNT SE T01780089=
201410022053 METAR KSEA 022053Z 35008KT 10SM FEW030 SCT120 BKN200 18/08 A3030 RMK AO2 SLP265 ACSL DSNT SE T01830078=
201410021953 METAR KSEA 021953Z 01007KT 10SM FEW200 18/08 A3030 RMK AO2 SLP267 T01780078=
201410021853 METAR KSEA 021853Z VRB04KT 10SM FEW025 SCT200 17/09 A3031 RMK AO2 SLP268 T01720089 $=
201410021753 METAR KSEA 021753Z VRB04KT 10SM FEW025 16/09 A3031 RMK AO2 SLP269 T01610089 10161 20100 51010 $=
201410021653 METAR KSEA 021653Z 05004KT 10SM FEW025 15/09 A3031 RMK AO2 SLP269 T01500089=
201410021553 METAR KSEA 021553Z 00000KT 10SM FEW200 14/09 A3029 RMK AO2 SLP264 T01390089=
201410021453 METAR KSEA 021453Z 00000KT 10SM FEW060 11/08 A3028 RMK AO2 SLP260 T01110083 52012=
201410021353 METAR KSEA 021353Z 00000KT 10SM FEW060 10/07 A3027 RMK AO2 SLP256 T01000072=
201410021253 METAR KSEA 021253Z 00000KT 10SM FEW060 11/07 A3025 RMK AO2 SLP252 T01110072=
201410021153 METAR KSEA 021153Z 00000KT 10SM BKN060 12/08 A3024 RMK AO2 SLP247 T01220078 10144 20122 53006=
201410021053 METAR KSEA 021053Z 00000KT 10SM OVC050 13/08 A3023 RMK AO2 SLP244 T01280078=
201410020953 METAR KSEA 020953Z 19003KT 10SM OVC049 12/08 A3023 RMK AO2 SLP244 T01220083=
201410020853 METAR KSEA 020853Z 09005KT 10SM OVC049 14/07 A3023 RMK AO2 SLP241 T01390072 51007=
201410020753 METAR KSEA 020753Z 11005KT 10SM BKN045 14/07 A3022 RMK AO2 SLP240 T01390072 401830111=
201410020653 METAR KSEA 020653Z 08005KT 10SM SCT040 BKN050 OVC065 14/07 A3022 RMK AO2 SLP240 T01390072=
201410020553 METAR KSEA 020553Z 07008KT 10SM OVC065 14/07 A3021 RMK AO2 SLP234 T01440072 10178 20139 51009=
201410020453 METAR KSEA 020453Z 05008KT 10SM SCT060 BKN180 15/08 A3020 RMK AO2 SLP233 T01500078=
201410020353 METAR KSEA 020353Z 03009KT 10SM BKN048 15/08 A3019 RMK AO2 SLP229 T01500078=
201410020253 METAR KSEA 020253Z 32003KT 10SM BKN049 14/09 A3018 RMK AO2 SLP225 T01440094 53001=
201410020153 METAR KSEA 020153Z 00000KT 10SM FEW030 BKN060 BKN180 17/08 A3018 RMK AO2 SLP224 T01670083=
201410020053 METAR KSEA 020053Z 21003KT 10SM FEW030 SCT170 SCT250 17/08 A3018 RMK AO2 SLP225 T01670083=
201410012353 METAR KSEA 012353Z 21007KT 10SM FEW025 SCT220 18/09 A3018 RMK AO2 SLP224 T01780089 10183 20133 56010=
201410012253 METAR KSEA 012253Z 23005KT 10SM FEW025 SCT200 17/09 A3018 RMK AO2 SLP226 T01720089=
201410012153 METAR KSEA 012153Z 26004KT 10SM FEW025 SCT200 17/09 A3020 RMK AO2 SLP230 T01720094=
201410012053 METAR KSEA 012053Z 26004KT 10SM FEW020 17/09 A3021 RMK AO2 SLP234 T01670094 56011=
201410011953 METAR KSEA 011953Z 26006KT 10SM SCT019 SCT200 16/09 A3022 RMK AO2 SLP238 T01560094=
201410011944 SPECI KSEA 011944Z 00000KT 10SM SCT019 SCT200 15/09 A3022 RMK AO2=
201410011853 METAR KSEA 011853Z 00000KT 10SM FEW009 BKN015 14/10 A3023 RMK AO2 SLP241 T01440100=
201410011845 SPECI KSEA 011845Z 19003KT 10SM FEW009 BKN015 14/09 A3023 RMK AO2=
201410011753 METAR KSEA 011753Z 19006KT 10SM FEW008 BKN011 14/10 A3024 RMK AO2 SLP245 T01390100 10139 20111 50006=
201410011740 SPECI KSEA 011740Z 17003KT 10SM FEW008 BKN011 13/10 A3024 RMK AO2=
201410011653 METAR KSEA 011653Z 20006KT 10SM BKN008 OVC018 12/10 A3025 RMK AO2 SLP249 T01220100=
201410011553 METAR KSEA 011553Z 21003KT 10SM BKN006 BKN037 12/10 A3023 RMK AO2 SLP244 T01170100=
201410011453 METAR KSEA 011453Z 17003KT 10SM FEW006 SCT012 SCT037 11/10 A3022 RMK AO2 SLP240 T01110100 51005=
201410011450 SPECI KSEA 011450Z 17004KT 10SM FEW006 SCT012 SCT037 11/10 A3022 RMK AO2=
201410011411 SPECI KSEA 011411Z 19004KT 8SM SCT008 BKN012 OVC037 12/10 A3022 RMK AO2=
201410011353 METAR KSEA 011353Z 17003KT 8SM SCT010 OVC037 12/10 A3022 RMK AO2 SLP239 T01170100=
201410011253 METAR KSEA 011253Z 16003KT 10SM FEW010 BKN032 11/10 A3021 RMK AO2 SLP236 T01110100=
201410011232 SPECI KSEA 011232Z 00000KT 10SM BKN032 11/09 A3021 RMK AO2=
201410011153 METAR KSEA 011153Z 14004KT 10SM BKN029 BKN080 11/09 A3020 RMK AO2 SLP233 T01110094 10150 20111 51005=
201410011140 SPECI KSEA 011140Z 00000KT 10SM BKN029 12/10 A3020 RMK AO2=
201410011053 METAR KSEA 011053Z 00000KT 10SM SCT049 12/09 A3020 RMK AO2 SLP231 T01170094=
201410010953 METAR KSEA 010953Z 00000KT 10SM FEW025 BKN049 12/09 A3020 RMK AO2 SLP233 T01220094=
201410010928 SPECI KSEA 010928Z 00000KT 10SM FEW031 BKN047 12/09 A3020 RMK AO2=
201410010853 METAR KSEA 010853Z 00000KT 10SM OVC029 14/09 A3019 RMK AO2 SLP228 T01390094 51004=
201410010823 SPECI KSEA 010823Z 08004KT 10SM BKN025 BKN034 OVC050 14/09 A3019 RMK AO2=
201410010753 METAR KSEA 010753Z 07004KT 10SM FEW034 BKN045 BKN050 14/09 A3019 RMK AO2 SLP228 T01440094 401940122=
201410010653 METAR KSEA 010653Z 09005KT 10SM OVC021 14/09 A3018 RMK AO2 SLP225 T01440094=
201410010553 METAR KSEA 010553Z 10004KT 10SM OVC021 15/09 A3018 RMK AO2 SLP224 T01500094 10194 20144 51013=
201410010514 SPECI KSEA 010514Z 06007KT 10SM BKN023 OVC060 15/09 A3017 RMK AO2=
201410010453 METAR KSEA 010453Z 09006KT 10SM BKN055 BKN080 15/09 A3016 RMK AO2 SLP218 T01500094=
201410010353 METAR KSEA 010353Z 08007KT 10SM SCT055 OVC080 16/09 A3015 RMK AO2 SLP216 T01610094=
201410010253 METAR KSEA 010253Z 07005KT 10SM SCT060 BKN075 16/10 A3014 RMK AO2 SLP210 T01610100 53012=
201410010153 METAR KSEA 010153Z 08004KT 10SM FEW050 SCT065 17/09 A3012 RMK AO2 SLP204 T01670094=
201410010053 METAR KSEA 010053Z 04007KT 10SM FEW050 SCT070 17/09 A3010 RMK AO2 SLP199 T01720094=

###################################
#  short TAF from KSEA
###################################
201410170907 TAF KSEA 170907Z 1709/1812 12012KT P6SM BKN100 OVC200 FM171100
                       14006KT P6SM -RA BKN060 OVC120 FM171500
                       15008KT P6SM -RA OVC045 FM172200 16012KT
                       P6SM -RA BKN025 OVC045
                      TEMPO 1722/1802 4SM RA BR OVC025 FM180200
                       19013G20KT P6SM -SHRA BKN030 OVC045 FM180600
                       17010KT P6SM VCSH OVC025=

###################################
#  large TAF from KSEA
###################################
201410312329 TAF KSEA 312329Z 0100/0206 19007KT P6SM VCSH SCT015 BKN050 BKN100
                       FM010500 VRB03KT P6SM BKN025 OVC045 FM011000
                       VRB03KT P6SM SCT015 OVC025
                      TEMPO 0112/0116 4SM BR BKN004 FM011800 27005KT
                       P6SM BKN250=
201410312005 TAF AMD KSEA 312005Z 3120/0124 21006KT P6SM VCSH FEW008 SCT014
                       OVC040
                      TEMPO 3120/3122 4SM -SHRA BR OVC015 FM312200
                       25005KT P6SM SCT015 OVC040
                      TEMPO 3122/3124 4SM -SHRA OVC025 FM010000
                       VRB03KT P6SM VCSH OVC025 FM010900 05003KT
                       5SM BR OVC015=
201410311732 TAF KSEA 311732Z 3118/0124 22003KT P6SM -RA BKN006 BKN015 OVC050
                       TEMPO 3118/3121 4SM -RA BR OVC025 FM312100
                       25005KT P6SM OVC015
                      TEMPO 3121/3124 4SM -SHRA OVC025 FM010000
                       VRB03KT P6SM VCSH OVC025 FM010900 05003KT
                       5SM BR OVC015=
201410311508 TAF AMD KSEA 311508Z 3115/0118 VRB03KT P6SM -SHRA SCT020 OVC040
                       TEMPO 3115/3118 2SM -SHRA BR BKN003 OVC008
                       FM312000 21006KT P6SM VCSH SCT020 BKN040
                       FM010600 18006KT P6SM BKN015 OVC040=
201410311120 TAF KSEA 311120Z 3112/0118 VRB03KT P6SM -SHRA SCT020 OVC040
                      TEMPO 3112/3116 5SM -SHRA BR BKN020 OVC040
                       FM312000 21006KT P6SM VCSH SCT020 BKN040
                       FM010600 18006KT P6SM BKN015 OVC040=
201410310806 TAF AMD KSEA 310806Z 3108/0112 20005KT P6SM -RA SCT010 OVC040
                      TEMPO 3108/3111 4SM RA BR BKN010 OVC030 FM311200
                       18007KT P6SM SCT015 OVC040
                      TEMPO 3112/3116 5SM -SHRA BR BKN015 OVC040
                       FM312000 21008KT P6SM VCSH SCT020 BKN040
                       FM010600 18006KT P6SM BKN015 OVC040=
201410310520 TAF KSEA 310520Z 3106/0112 18008KT P6SM -SHRA SCT020 OVC040
                      TEMPO 3106/3110 -SHRA BKN020 OVC040 FM312000
                       21008KT P6SM VCSH SCT030 BKN050=
201410310300 KSEA 310300Z 3103/0106 20008KT 5SM -SHRA BR BKN005 OVC020 FM310600
                       18010KT P6SM VCSH SCT005 BKN020 OVC040 FM310900
                       18008KT 5SM -RA BR SCT008 OVC015 FM311600
                       20010KT P6SM -SHRA BKN015 BKN035 FM311900
                       21008KT P6SM VCSH BKN035=
201410302339 TAF KSEA 302339Z 3100/0106 12006KT 5SM -RA BR SCT015 OVC030 FM311100
                       18005KT 5SM -RA BR SCT008 OVC015 FM311600
                       20010KT P6SM -SHRA BKN015 BKN035 FM311900
                       21008KT P6SM VCSH BKN035=
201410302044 TAF AMD KSEA 302044Z 3021/3124 07007KT 6SM RA SCT040 OVC070
                      TEMPO 3021/3024 4SM -RA BR OVC040 FM310000
                       16008KT 5SM -RA BR SCT015 OVC030 FM311100
                       18005KT 5SM -RA BR SCT008 OVC015 FM311600
                       20011KT P6SM -SHRA BKN015 BKN035=
201410301735 TAF KSEA 301735Z 3018/3124 12011KT P6SM -RA BKN060 OVC090 FM310000
                       16008KT P6SM -RA SCT015 OVC030 FM311100
                       18005KT 5SM -RA BR SCT008 OVC015 FM311600
                       20011KT P6SM -SHRA BKN015 BKN035=
201410301500 KSEA 301500Z 3015/3118 12012KT P6SM -RA BKN070 OVC200 FM301700
                       12012KT P6SM -RA OVC050 FM310000 18008KT
                       P6SM -RA SCT015 OVC030 FM311100 18006KT
                       P6SM OVC015=
201410301120 TAF KSEA 301120Z 3012/3118 VRB03KT P6SM -RA BKN050 OVC090 FM301700
                       12010KT P6SM -RA OVC050 FM310000 18008KT
                       P6SM -RA SCT015 OVC030 FM311100 18006KT
                       P6SM OVC015=
201410300520 TAF KSEA 300520Z 3006/3112 12006KT P6SM SCT070 BKN200 FM301000
                       08006KT P6SM BKN050 OVC120 FM301400 07010KT
                       P6SM -RA OVC050 FM302200 11008KT 5SM -RA
                       BR SCT015 OVC030=
201410292325 TAF KSEA 292325Z 3000/3106 00000KT P6SM FEW025 SCT070 BKN240 FM300700
                       09006KT P6SM SCT050 BKN200 FM301000 08006KT
                       P6SM BKN050 OVC120 FM301400 07010KT P6SM
                       -RA OVC050 FM302200 11008KT 5SM -RA BR SCT015
                       OVC030=
201410292106 TAF AMD KSEA 292106Z 2921/3024 18006KT P6SM FEW020 SCT070 BKN200
                       FM292300 14005KT P6SM SCT070 BKN200 FM300700
                       09006KT P6SM SCT050 BKN200 FM301000 08006KT
                       P6SM BKN060 OVC120 FM301400 07010KT P6SM
                       -RA OVC050=
201410291740 TAF KSEA 291740Z 2918/3024 20008KT P6SM SCT023 SCT040 SCT080 FM292300
                       14005KT P6SM SCT040 FM300700 09006KT P6SM
                       SCT050 BKN200 FM301000 08006KT P6SM BKN060
                       OVC120 FM301400 07010KT P6SM -RA OVC050=
201410291623 TAF AMD KSEA 291623Z 2916/3018 19008KT P6SM SCT023 SCT040 SCT080
                       TEMPO 2916/2918 BKN025 BKN040 BKN080 FM291800
                       18007KT P6SM BKN020 BKN035 FM292300 14005KT
                       P6SM SCT040 FM300800 09006KT P6SM BKN050
                       OVC080=
201410291503 KSEA 291503Z 2915/3018 18011KT P6SM -SHRA FEW007 BKN010 OVC024
                       FM291800 18007KT P6SM BKN020 BKN035 FM291900
                       16009KT P6SM SCT020 BKN035 FM292300 14005KT
                       P6SM SCT040 FM300800 09006KT P6SM BKN050
                       OVC080=
201410291120 TAF KSEA 291120Z 2912/3018 17010KT P6SM SCT025 BKN040
                      TEMPO 2912/2916 -SHRA BKN025 BKN040 FM291600
                       18010KT P6SM BKN020 BKN040 FM291900 20009KT
                       P6SM SCT020 BKN040 FM292200 21006KT P6SM
                       SCT045 BKN250 FM300800 09006KT P6SM BKN050
                       OVC080=
201410290904 KSEA 290904Z 2909/3012 17010KT P6SM SCT025 BKN040
                      TEMPO 2909/2912 -SHRA BKN025 BKN040 FM291200
                       18010KT P6SM VCSH BKN020 BKN040 FM291800
                       19008KT P6SM BKN040 FM292200 21006KT P6SM
                       SCT040 BKN250=
201410290534 TAF KSEA 290534Z 2906/3012 17010KT P6SM VCSH SCT025 BKN045
                      TEMPO 2906/2909 -SHRA BKN025 BKN040 FM290900
                       18010KT P6SM VCSH BKN020 BKN040 FM291800
                       19008KT P6SM BKN040 FM292200 21006KT P6SM
                       SCT040 BKN250=
201410290308 TAF AMD KSEA 290308Z 2903/3006 17010KT P6SM VCSH SCT025 BKN040
                       TEMPO 2905/2908 -SHRA BKN025 BKN040 FM290800
                       18008KT P6SM VCSH BKN020 BKN040 FM291800
                       19008KT P6SM BKN040=
201410282322 TAF KSEA 282322Z 2900/3006 17012KT P6SM -SHRA FEW025 BKN040 BKN060
                       FM290300 19010KT P6SM -SHRA BKN025 OVC040
                       FM290600 18008KT P6SM -SHRA OVC020 FM291800
                       19008KT P6SM BKN030=
201410282101 TAF AMD KSEA 282101Z 2821/2924 18010G20KT P6SM -SHRA BKN030 BKN040
                       FM290300 19010KT P6SM -SHRA BKN025 OVC040
                       FM290600 18008KT P6SM -SHRA OVC020=
201410281732 TAF KSEA 281732Z 2818/2924 13008KT P6SM -SHRA BKN030 OVC045
                      TEMPO 2818/2819 3SM SHRA SCT010 BKN022 FM281900
                       18012G20KT P6SM -SHRA BKN030 OVC045 FM282200
                       19014G22KT P6SM -SHRA SCT025 BKN040 FM290300
                       19010KT P6SM -SHRA BKN025 OVC040 FM290600
                       18008KT P6SM -SHRA OVC020=
201410281504 TAF AMD KSEA 281504Z 2815/2918 13008KT P6SM -SHRA BKN030 OVC045
                       TEMPO 2815/2818 4SM SHRA BKN025 FM281800
                       18012G20KT P6SM -SHRA BKN025 OVC040 FM282200
                       19014G22KT P6SM -SHRA SCT025 BKN040=
201410281123 TAF KSEA 281123Z 2812/2918 13010KT P6SM -RA BKN030 OVC045 FM281500
                       17012KT P6SM -RA BKN025 OVC040 FM281800
                       18012G20KT P6SM -SHRA BKN025 OVC040 FM282200
                       19014G22KT P6SM -SHRA SCT025 BKN040=
201410280908 TAF AMD KSEA 280908Z 2809/2912 13007KT P6SM -RA OVC060 FM281200
                       13010KT P6SM -RA OVC030 FM281500 17012KT
                       P6SM -RA BKN025 OVC040 FM281900 19012KT
                       P6SM -SHRA BKN040=
201410280535 TAF KSEA 280535Z 2806/2912 13007KT P6SM -RA OVC060 FM281200 13010KT
                       P6SM -RA OVC030 FM281500 17012KT P6SM -RA
                       BKN025 OVC040 FM281900 19012KT P6SM -SHRA
                       BKN040=
201410280308 TAF AMD KSEA 280308Z 2803/2906 12007KT P6SM OVC080 FM280500 15009KT
                       P6SM -RA BKN040 OVC080 FM281500 18010KT
                       P6SM -SHRA BKN025 OVC050 FM282100 19012KT
                       P6SM -SHRA BKN030=
201410272332 TAF KSEA 272332Z 2800/2906 15007KT P6SM SCT040 BKN070 OVC120 FM280300
                       15009KT P6SM -RA BKN040 OVC080 FM281500
                       18010KT P6SM -SHRA BKN025 OVC050 FM282100
                       19012KT P6SM -SHRA BKN030=
201410272103 TAF AMD KSEA 272103Z 2721/2824 13005KT P6SM SCT050 BKN120 BKN200
                       FM280000 15007KT P6SM SCT040 BKN070 OVC100
                       FM280300 15009KT P6SM -RA BKN040 OVC080
                       FM281800 18010KT P6SM -SHRA BKN030=
201410271739 TAF KSEA 271739Z 2718/2824 13005KT P6SM SCT030 BKN120 FM280000
                       15007KT P6SM SCT040 BKN070 OVC100 FM280300
                       15009KT P6SM -RA BKN040 OVC080 FM281800
                       18010KT P6SM -SHRA BKN030=
201410271503 KSEA 271503Z 2715/2818 14005KT P6SM SCT020 SCT030 BKN150 FM271700
                       18006KT P6SM SCT045 BKN120 FM280200 15009KT
                       P6SM -RA BKN040 OVC080=
201410271121 TAF KSEA 271121Z 2712/2818 14005KT P6SM SCT020 SCT030 BKN150
                      TEMPO 2712/2716 BKN020 BKN030 BKN150 FM271700
                       18006KT P6SM SCT045 BKN120 FM280200 15009KT
                       P6SM -RA BKN040 OVC080=
201410270905 TAF AMD KSEA 270905Z 2709/2812 14005KT P6SM BKN015 OVC025 FM271700
                       18006KT P6SM SCT045 OVC120 FM280200 15010KT
                       P6SM -RA BKN035 OVC050=
201410270530 TAF KSEA 270530Z 2706/2812 14005KT P6SM FEW045 FM271200 15005KT
                       P6SM VCFG OVC040 FM271800 18006KT P6SM SCT045
                       OVC120 FM280200 15010KT P6SM -RA BKN035
                       OVC050=
201410270309 TAF AMD KSEA 270309Z 2703/2806 14005KT P6SM VCSH OVC045 FM271200
                       15005KT P6SM OVC040 FM271800 16006KT P6SM
                       SCT040 OVC100 FM280100 14010KT P6SM -RA
                       OVC035=
201410262330 TAF KSEA 262330Z 2700/2806 02007KT P6SM VCSH SCT019 BKN040
                      TEMPO 2700/2704 30006KT FM270600 17005KT
                       P6SM BKN050 FM271300 15004KT P6SM SCT013
                       TEMPO 2713/2717 5SM BR OVC013 FM271800 16006KT
                       P6SM SCT025 OVC100 FM280100 14010KT P6SM
                       -RA OVC035=
201410262100 TAF AMD KSEA 262100Z 2621/2724 21013KT P6SM VCSH BKN022 BKN027
                       OVC040 FM262200 21010KT P6SM VCSH SCT040
                       BKN080
                      TEMPO 2700/2704 30006KT FM270600 17005KT
                       P6SM BKN050 FM271300 15004KT 5SM BR OVC013
                       FM271800 16006KT P6SM SCT025 OVC100=
201410261720 TAF KSEA 261720Z 2618/2724 19016G22KT P6SM SCT030 BKN045 BKN080
                       TEMPO 2618/2622 -SHRA BKN030 BKN045 FM262200
                       21010KT P6SM VCSH SCT040 BKN080 FM270600
                       17005KT P6SM BKN050 FM271300 15004KT 5SM
                       BR OVC013 FM271800 16006KT P6SM SCT025 OVC100=
201410261500 KSEA 261500Z 2615/2718 20012KT P6SM VCSH SCT010 SCT035 BKN080
                      TEMPO 2615/2618 -SHRA SCT010 BKN035 BKN080
                       FM261800 21012G22KT P6SM -SHRA SCT020 BKN045
                       BKN100 FM270100 21006KT P6SM SCT045 SCT100
                       FM270800 17005KT P6SM BKN050 BKN080=
201410261120 TAF KSEA 261120Z 2612/2718 20010G20KT P6SM VCSH SCT040 BKN100
                      TEMPO 2612/2616 -SHRA BKN040 BKN100 FM261800
                       21012G22KT P6SM -SHRA SCT020 BKN045 BKN100
                       FM270100 21006KT P6SM SCT045 SCT100 FM270800
                       17005KT P6SM BKN050 BKN080=
201410260925 TAF AMD KSEA 260925Z 2609/2712 21012KT P6SM VCSH SCT040 BKN100
                       TEMPO 2609/2612 -SHRA BKN040 BKN100 FM261200
                       21012KT P6SM -SHRA SCT020 BKN040 BKN080
                       FM261800 22012G22KT P6SM -SHRA SCT020 BKN045
                       BKN080=
201410260536 TAF KSEA 260536Z 2606/2712 21020G32KT P6SM SCT020 BKN100
                      TEMPO 2606/2610 -SHRA SCT020 BKN040 BKN100
                       FM261200 20014G25KT P6SM -SHRA SCT015 BKN030
                       BKN080 FM261800 22012G22KT P6SM -SHRA SCT020
                       BKN045 BKN080=
201410260301 TAF AMD KSEA 260301Z 2603/2706 18020G32KT P6SM -RA BKN012 OVC060
                       TEMPO 2603/2607 20032G48KT FM261300 22014G22KT
                       P6SM -SHRA BKN015 BKN035 FM262100 22014G22KT
                       P6SM -SHRA SCT020 BKN040=
201410260115 TAF AMD KSEA 260115Z 2601/2706 17015G25KT P6SM -RA BKN060 OVC080
                       TEMPO 2602/2604 -RA BKN025 OVC060 FM260400
                       18020G32KT P6SM -RA BKN022 OVC060
                      TEMPO 2604/2608 20032G48KT FM261300 22014G22KT
                       P6SM -SHRA BKN015 BKN035 FM262100 22014G22KT
                       P6SM -SHRA SCT020 BKN040=
201410252330 TAF KSEA 252330Z 2600/2706 17012G18KT P6SM -RA SCT030 OVC060
                      TEMPO 2600/2601 5SM -RA BR BKN030 OVC060
                       FM260100 18020G30KT P6SM -RA OVC022
                      TEMPO 2604/2608 20032G48KT FM261300 22014G22KT
                       P6SM -SHRA BKN015 BKN035 FM262100 22014G22KT
                       P6SM -SHRA SCT020 BKN040=
201410252105 TAF AMD KSEA 252105Z 2521/2624 06008KT P6SM -RA SCT030 OVC070
                      TEMPO 2521/2601 4SM -RA BR BKN030 OVC060
                       FM260100 20020G30KT P6SM -RA OVC022
                      TEMPO 2604/2608 20032G48KT FM261300 22014G22KT
                       P6SM -SHRA BKN015 BKN035=
201410251735 TAF KSEA 251735Z 2518/2624 VRB05KT P6SM SCT030 BKN090
                      TEMPO 2518/2521 -RA BKN030 OVC080 FM252100
                       06008KT P6SM -RA SCT022 OVC045
                      TEMPO 2521/2601 4SM -RA BR OVC022 FM260100
                       20020G30KT P6SM -RA OVC022
                      TEMPO 2604/2608 20030G40KT FM261300 22014G22KT
                       P6SM -SHRA BKN015 BKN035=
201410251505 TAF AMD KSEA 251505Z 2515/2618 23007KT P6SM SCT035 OVC080
                      TEMPO 2515/2519 -RA OVC035 FM252200 07008KT
                       P6SM -RA OVC020 FM260200 21017G30KT P6SM
                       -RA BKN020 OVC040=
201410251123 TAF KSEA 251123Z 2512/2618 36005KT P6SM OVC090 FM251500 18008KT
                       P6SM -RA OVC040 FM252200 18008KT P6SM -RA
                       OVC020 FM260200 21017G30KT P6SM -RA BKN020
                       OVC040=
201410250913 KSEA 250913Z 2509/2612 36007KT P6SM OVC090 FM251200 06006KT 6SM
                       BR SCT012 OVC060 FM251600 16008KT P6SM -RA
                       OVC035 FM251800 18008KT P6SM -RA OVC015
                       FM260200 20014G22KT P6SM -RA BKN020 OVC035=
201410250543 TAF KSEA 250543Z 2506/2612 08007KT P6SM -RA OVC040 FM251200 06006KT
                       6SM BR SCT012 OVC060 FM251600 16008KT P6SM
                       -RA OVC035 FM251800 18008KT P6SM -RA OVC015
                       FM260200 20014G22KT P6SM -RA BKN020 OVC035=
201410250307 TAF AMD KSEA 250307Z 2503/2606 08009KT P6SM -RA OVC060 FM250600
                       07009KT P6SM -RA OVC035 FM251300 07008KT
                       4SM -RA BR OVC013 FM251800 16008KT P6SM
                       -RA BKN020 OVC035 FM260200 20014G22KT P6SM
                       -RA BKN020 OVC035=
201410242330 TAF KSEA 242330Z 2500/2606 01010KT P6SM FEW100 OVC150 FM250400
                       04010KT P6SM -RA OVC080 FM250700 05009KT
                       P6SM -RA OVC040 FM251300 07008KT 4SM -RA
                       BR OVC013 FM251800 16008KT P6SM -RA BKN020
                       OVC035 FM260200 20014G22KT P6SM -RA BKN020
                       OVC035=
201410242120 TAF AMD KSEA 242120Z 2421/2524 36008KT P6SM FEW100 OVC180 FM250400
                       05005KT P6SM -RA OVC080 FM250700 05009KT
                       P6SM -RA OVC040 FM251300 07008KT 4SM -RA
                       BR OVC013 FM251800 16008KT P6SM -RA SCT020
                       OVC035=
201410241725 TAF KSEA 241725Z 2418/2524 12005KT P6SM FEW130 BKN230 FM242200
                       03006KT P6SM SCT130 OVC230 FM250400 05005KT
                       P6SM -RA OVC080 FM250700 05009KT P6SM -RA
                       OVC040 FM251300 07008KT 4SM -RA BR OVC013
                       FM251800 16008KT P6SM -RA SCT020 OVC035=
201410241500 KSEA 241500Z 2415/2518 00000KT P6SM SCT028 SCT120 OVC240 FM241800
                       04006KT P6SM BKN060 OVC100 FM250400 09010KT
                       P6SM -RA OVC040=
201410241136 TAF KSEA 241136Z 2412/2518 11006KT P6SM SCT025 OVC040
                      TEMPO 2412/2414 BKN025 OVC040 FM241800 04006KT
                       P6SM BKN060 OVC100 FM250400 09010KT P6SM
                       -RA OVC040=
201410240910 TAF AMD KSEA 240910Z 2409/2512 15008KT P6SM BKN060 BKN100 FM241400
                       13006KT P6SM SCT060 BKN100 FM241800 03008KT
                       P6SM BKN100 BKN200 FM250400 09008KT P6SM
                       -RA OVC045=
201410240534 TAF KSEA 240534Z 2406/2512 15008KT P6SM SCT060 BKN100 FM240800
                       15008KT P6SM -SHRA BKN045 BKN070 FM241000
                       13006KT P6SM SCT060 BKN100 FM241800 03008KT
                       P6SM BKN100 BKN200 FM250400 03008KT P6SM
                       -RA OVC045=
201410240315 TAF AMD KSEA 240315Z 2403/2506 19007KT P6SM FEW035 SCT060 BKN110
                       FM240800 13005KT P6SM SCT060 BKN110 FM241800
                       04008KT P6SM SCT110 BKN200 FM250300 04013KT
                       P6SM OVC110
                      PROB30 2503/2506 -RA OVC080=
201410232346 TAF KSEA 232346Z 2400/2506 20009KT P6SM VCTS SCT035CB BKN060
                      TEMPO 2400/2402 23013G23KT 3SM +SHRA OVC028
                       FM240200 19007KT P6SM VCSH FEW035 SCT060
                       BKN110 FM240600 13005KT P6SM SCT060 BKN110
                       FM241800 04008KT P6SM SCT110 BKN200 FM250300
                       04013KT P6SM OVC110
                      PROB30 2503/2506 -RA OVC080=
201410232103 KSEA 232103Z 2321/2424 19015KT P6SM VCTS SCT035CB BKN060
                      TEMPO 2321/2324 19013G23KT -SHRA BKN035 OVC060
                       FM240000 19010KT P6SM SCT035 BKN060
                      TEMPO 2400/2404 -SHRA FM240400 17007KT P6SM
                       SCT028 BKN060 BKN110 FM241200 11005KT P6SM
                       SCT060 BKN110 FM241800 05008KT P6SM SCT110
                       BKN200=
201410231731 TAF KSEA 231731Z 2318/2424 16013KT P6SM -SHRA SCT035 OVC050 FM232000
                       19015KT P6SM VCSH SCT035 BKN060
                      TEMPO 2320/2324 19013G23KT -SHRA BKN035 OVC060
                       FM240000 19010KT P6SM SCT035 BKN060
                      TEMPO 2400/2404 -SHRA FM240400 17007KT P6SM
                       SCT028 BKN060 BKN110 FM241200 11005KT P6SM
                       SCT060 BKN110 FM241800 05008KT P6SM SCT110
                       BKN200=
201410231503 TAF KSEA 231503Z 2315/2418 15013KT P6SM -SHRA SCT035 OVC050
                      TEMPO 2315/2318 15013G23KT 5SM SHRA BKN035
                       OVC050 FM231800 19008KT P6SM -SHRA SCT025
                       BKN035 BKN050 FM240200 19008KT P6SM SCT035
                       BKN060 FM241200 19008KT P6SM BKN022 OVC040=
201410231502 KSEA 231502Z 2315/2418 15013KT P6SM -SHRA SCT035 OVC050
                      TEMPO 2315/2318 5SM SHRA BKN035 OVC050 FM231800
                       19008KT P6SM -SHRA SCT025 BKN035 BKN050
                       FM240200 19008KT P6SM SCT035 BKN060 FM241200
                       19008KT P6SM BKN022 OVC040=
201410231132 TAF KSEA 231132Z 2312/2418 17008KT P6SM -SHRA SCT035 BKN060 BKN100
                       FM231700 19008KT P6SM -SHRA SCT025 BKN035
                       BKN050 FM240200 19008KT P6SM SCT035 BKN060
                       FM241200 19008KT P6SM BKN022 OVC040=
201410230902 KSEA 230902Z 2309/2412 17008KT P6SM SCT030 BKN060 BKN100 FM231700
                       19008KT P6SM -SHRA SCT025 BKN035 BKN050
                       FM240200 19008KT P6SM SCT035 BKN060=
201410230538 TAF KSEA 230538Z 2306/2412 19012KT P6SM SCT030 BKN060 BKN100
                      TEMPO 2306/2308 -SHRA BKN030 OVC060 FM231700
                       19008KT P6SM -SHRA SCT025 BKN035 BKN050
                       FM240200 19008KT P6SM SCT035 BKN060=
201410230302 TAF AMD KSEA 230302Z 2303/2406 18008KT P6SM -RA BKN035 OVC050 FM230500
                       20010KT P6SM -SHRA SCT030 BKN050 BKN080
                       FM232100 21011KT P6SM -SHRA SCT030 BKN050
                       BKN090
                      PROB30 2321/2402 5SM TSRA OVC025CB FM240200
                       19008KT P6SM SCT035 SCT050 BKN090
                      PROB30 2402/2406 -SHRA=
201410222350 TAF KSEA 222350Z 2300/2406 15007KT P6SM -RA FEW015 SCT030 OVC050
                       TEMPO 2300/2302 5SM -RA BR FEW015 BKN030
                       OVC050 FM230200 15007KT 5SM -RA BR BKN015
                       OVC030 FM230600 19011KT P6SM -SHRA SCT015
                       BKN030 OVC050 FM232100 21011KT P6SM -SHRA
                       SCT030 BKN050 BKN090
                      PROB30 2321/2402 5SM TSRA OVC025CB FM240200
                       19008KT P6SM SCT035 SCT050 BKN090
                      PROB30 2402/2406 -SHRA=
201410222237 TAF AMD KSEA 222237Z 2223/2324 14009KT P6SM -RA SCT030 SCT050 OVC090
                       TEMPO 2223/2301 BKN030 OVC050 FM230100 17012KT
                       3SM -RA BR SCT011 BKN025 OVC040 FM230600
                       19010KT P6SM -SHRA BKN030 OVC050 FM232100
                       19010KT P6SM -SHRA SCT030 BKN050 OVC090
                       PROB30 2321/2324 5SM TSRA OVC025CB=
201410222059 TAF AMD KSEA 222059Z 2221/2324 15009KT P6SM -RA SCT015 BKN030 OVC050
                       TEMPO 2221/2224 4SM -RA BR SCT006 BKN015
                       OVC030 FM230000 17012KT 3SM -RA BR SCT011
                       BKN025 OVC040 FM230600 19010KT P6SM -SHRA
                       BKN030 OVC050 FM232100 19010KT P6SM -SHRA
                       SCT030 BKN050 OVC090
                      PROB30 2321/2324 5SM TSRA OVC025CB=
201410221720 TAF KSEA 221720Z 2218/2324 17009KT 5SM -RA BR SCT011 BKN025 OVC040
                       TEMPO 2218/2220 2SM RA BR FM222000 17012KT
                       3SM -RA BR SCT011 BKN025 OVC040 FM230600
                       19010KT P6SM -SHRA BKN030 OVC050 FM232100
                       19010KT P6SM -SHRA SCT030 BKN050 OVC090
                       PROB30 2321/2324 5SM TSRA OVC025CB=
201410221436 TAF AMD KSEA 221436Z 2215/2318 17013KT P6SM -RA SCT028 OVC040
                      TEMPO 2215/2218 BKN028 OVC040 FM221800 18013G23KT
                       P6SM -RA SCT028 OVC040 FM222200 19012KT
                       P6SM -RA OVC035 FM230600 20010KT P6SM VCSH
                       OVC035=
201410221120 TAF KSEA 221120Z 2212/2318 17012G22KT P6SM -RA OVC045 FM221400
                       18013G22KT P6SM -RA OVC040 FM222200 19012KT
                       P6SM -RA OVC035 FM230600 20010KT P6SM VCSH
                       OVC035=
201410220815 TAF AMD KSEA 220815Z 2208/2312 16012KT P6SM OVC060 FM220900 17015G25KT
                       P6SM -RA OVC035 FM221400 18013G22KT 5SM
                       -RA BR OVC025 FM222200 15012KT 5SM RA BR
                       OVC025 FM230600 18013G22KT P6SM -RA OVC025=
201410220520 TAF KSEA 220520Z 2206/2312 17012KT P6SM -RA OVC040 FM220900 17015G25KT
                       P6SM RA OVC030 FM221400 18013G22KT 5SM RA
                       BR OVC025 FM222200 15012KT 5SM RA BR OVC025
                       FM230600 18013G22KT P6SM -RA OVC025=
201410220252 TAF AMD KSEA 220252Z 2203/2306 16012KT P6SM VCSH OVC050 FM220400
                       16012KT P6SM -RA OVC035 FM220900 17015G25KT
                       P6SM RA OVC030 FM221800 18012KT P6SM -SHRA
                       BKN030 OVC060=
201410212320 TAF KSEA 212320Z 2200/2306 18012KT P6SM BKN030 BKN060 FM220300
                       16012KT P6SM -RA BKN030 OVC040 FM220900
                       17015G25KT P6SM RA OVC030 FM221800 18012KT
                       P6SM -SHRA BKN030 OVC060=
201410212059 TAF AMD KSEA 212059Z 2121/2224 18012KT P6SM FEW020 SCT030 BKN050
                       FM220300 16012KT P6SM -RA SCT020 OVC040
                       FM220900 17015G25KT P6SM RA OVC020 FM221800
                       18012KT P6SM -SHRA BKN030 OVC060=
201410211723 TAF KSEA 211723Z 2118/2224 18012KT P6SM FEW040 SCT080 BKN150
                      TEMPO 2118/2121 -SHRA SCT025 BKN040 FM220300
                       16012KT P6SM -RA OVC040 FM220900 17015G25KT
                       P6SM RA OVC025 FM221800 18012KT P6SM -SHRA
                       BKN030 OVC060=
201410211501 TAF AMD KSEA 211501Z 2115/2218 17010KT P6SM -SHRA SCT025 BKN060
                       TEMPO 2115/2119 -SHRA BKN025 OVC040 FM211900
                       18010KT P6SM -SHRA OVC050 FM220000 16013KT
                       P6SM -RA OVC035 FM220900 17015G25KT P6SM
                       RA OVC025=
201410211120 TAF KSEA 211120Z 2112/2218 16006KT P6SM -SHRA OVC040 FM211600 18010KT
                       P6SM -SHRA OVC050 FM220000 16013KT P6SM
                       -RA OVC035 FM220900 17015G25KT P6SM RA OVC025=
201410210805 TAF AMD KSEA 210805Z 2108/2212 15006KT P6SM VCSH BKN050
                      TEMPO 2108/2112 -SHRA OVC035 FM211300 18007KT
                       P6SM VCSH BKN025 OVC035 FM211900 19012KT
                       P6SM VCSH OVC040 FM220000 16013KT P6SM -RA
                       OVC035 FM220600 16015G25KT P6SM RA OVC025=
201410210529 TAF KSEA 210529Z 2106/2212 19008KT P6SM VCSH BKN035 BKN050
                      TEMPO 2106/2110 -SHRA OVC025 FM211000 18007KT
                       P6SM BKN025 OVC035 FM211900 19012KT P6SM
                       OVC040 FM220000 16013KT P6SM -RA OVC035
                       FM220600 16015G25KT P6SM RA OVC025=
201410210343 TAF AMD KSEA 210343Z 2104/2206 19009KT P6SM -SHRA VCTS BKN035 BKN060CB
                       TEMPO 2104/2105 VRB10KT 4SM SHRA BR OVC035
                       FM210500 19008KT P6SM -SHRA BKN035 BKN060
                       FM210800 18007KT P6SM BKN040 FM212000 19012KT
                       P6SM BKN040=
201410210213 TAF AMD KSEA 210213Z 2102/2206 21009KT P6SM -SHRA SCT035 BKN060
                       TEMPO 2102/2104 SHRA OVC035 FM210600 18007KT
                       P6SM BKN040 FM212000 19012KT P6SM BKN040=
201410202324 TAF KSEA 202324Z 2100/2206 21009KT P6SM VCSH SCT035 BKN060
                      TEMPO 2100/2103 -SHRA BKN035 FM210300 19006KT
                       P6SM VCSH OVC035 FM210600 18007KT P6SM BKN040
                       FM212000 19012KT P6SM BKN040=
201410202102 TAF AMD KSEA 202102Z 2021/2124 21005KT P6SM VCSH SCT035 BKN050
                       FM202300 21009KT P6SM VCSH BKN035 OVC050
                       TEMPO 2023/2103 -SHRA BKN030 FM210300 19006KT
                       P6SM VCSH OVC035 FM210600 18007KT P6SM OVC030=
201410201727 TAF KSEA 201727Z 2018/2124 21005KT P6SM SCT035 BKN060 FM202000
                       21009KT P6SM -SHRA BKN035 OVC050 FM210300
                       19006KT P6SM VCSH OVC035 FM210600 18007KT
                       P6SM OVC030=
201410201456 TAF AMD KSEA 201456Z 2015/2118 14007KT 6SM -RA BR SCT015 OVC040
                       TEMPO 2015/2017 5SM -RA BR OVC010 FM201800
                       21009KT P6SM -SHRA BKN035 OVC050 FM210600
                       19006KT P6SM VCSH OVC030=
201410201120 TAF KSEA 201120Z 2012/2118 14007KT 6SM -RA BR SCT030 OVC050
                      TEMPO 2013/2016 5SM -RA BR OVC025 FM201800
                       21009KT P6SM -SHRA BKN035 OVC050 FM210600
                       19006KT P6SM VCSH OVC030=
201410200907 TAF AMD KSEA 200907Z 2009/2112 12005KT P6SM -RA OVC050 FM201200
                       16006KT 5SM -RA BR OVC025 FM201900 21008KT
                       P6SM -SHRA SCT025 BKN050 FM210600 19006KT
                       P6SM VCSH OVC025=
201410200520 TAF KSEA 200520Z 2006/2112 21006KT P6SM SCT050 OVC100 FM200900
                       20006KT P6SM -RA OVC050 FM201200 18008KT
                       5SM -RA BR BKN020 OVC040 FM201900 21010KT
                       P6SM -SHRA SCT025 BKN050 FM210600 19006KT
                       P6SM VCSH OVC025=
201410192321 TAF KSEA 192321Z 2000/2106 21010KT P6SM FEW040 SCT070 FM200500
                       18006KT P6SM BKN050 OVC150 FM200700 18006KT
                       P6SM -RA OVC050 FM201100 18008KT 4SM -RA
                       BR BKN020 OVC040 FM202000 21008KT P6SM -SHRA
                       SCT025 BKN050=
201410192100 TAF AMD KSEA 192100Z 1921/2024 18010KT P6SM FEW040 SCT070 BKN150
                       FM200300 18006KT P6SM OVC050 FM200800 18006KT
                       6SM -RA OVC050 FM201400 18008KT 4SM -RA
                       BR BKN020 OVC040 FM202000 21008KT P6SM -SHRA
                       BKN025 OVC050=
201410191722 TAF KSEA 191722Z 1918/2024 20008KT P6SM FEW070 BKN120 FM200300
                       18006KT P6SM OVC050
                      PROB30 2004/2008 -RA FM200800 18006KT 6SM
                       -RA OVC050 FM201400 18008KT 4SM -RA BR BKN020
                       OVC040 FM202000 21008KT P6SM -SHRA BKN025
                       OVC050=
201410191501 KSEA 191501Z 1915/2018 16005KT P6SM FEW002 SCT070 BKN100 FM191700
                       17006KT P6SM SCT060 BKN120 FM200600 18008KT
                       P6SM -RA OVC050 FM201200 15006KT P6SM -RA
                       OVC030=
201410191120 TAF KSEA 191120Z 1912/2018 13004KT P6SM FEW002 SCT070 BKN150
                      TEMPO 1913/1916 15004KT 1SM BR OVC002 FM191600
                       17004KT 3SM BR BKN006 OVC150 FM191700 17006KT
                       P6SM SCT050 BKN150 FM200600 18008KT P6SM
                       -RA OVC050 FM201200 15006KT P6SM -RA OVC030=
201410190900 TAF AMD KSEA 190900Z 1909/2012 15004KT P6SM BKN150 FM191300 15004KT
                       1SM BR OVC002 FM191700 17004KT 3SM BR BKN006
                       OVC150 FM191800 17006KT P6SM SCT050 BKN150
                       FM200600 18008KT P6SM -RA OVC050=
201410190713 TAF AMD KSEA 190713Z 1907/2012 15004KT P6SM SCT060 BKN150 FM191300
                       15004KT 1SM BR OVC002 FM191700 17004KT 3SM
                       BR BKN006 OVC150 FM191800 17006KT P6SM SCT050
                       BKN150 FM200600 18008KT P6SM -RA OVC050=
201410190525 TAF KSEA 190525Z 1906/2012 11007KT P6SM SCT060 BKN150 FM192000
                       14006KT P6SM SCT050 BKN150 FM200600 18008KT
                       P6SM -RA OVC050=
201410182320 TAF KSEA 182320Z 1900/2006 16004KT P6SM SCT020 BKN070
                      TEMPO 1900/1903 BKN020 OVC070 FM190400 11004KT
                       P6SM SCT040 BKN150 FM192000 17006KT P6SM
                       SCT050 BKN150=
201410182102 TAF AMD KSEA 182102Z 1821/1924 VRB03KT P6SM BKN020 OVC070 FM182200
                       21006KT P6SM SCT025 BKN040 BKN150 FM190300
                       11004KT P6SM SCT040 BKN150=
201410181721 TAF KSEA 181721Z 1818/1924 18005KT P6SM SCT008 BKN025 OVC040
                      TEMPO 1818/1820 3SM -SHRA BR BKN005 OVC025
                       FM182200 21006KT P6SM SCT025 BKN040 BKN150
                       FM190300 11004KT P6SM SCT040 BKN150=
201410181533 TAF AMD KSEA 181533Z 1816/1918 19006KT P6SM BKN007 OVC018
                      TEMPO 1816/1818 SCT010 BKN025 OVC040 FM181800
                       18005KT P6SM SCT025 BKN040 FM182100 21006KT
                       P6SM SCT025 BKN040 BKN150 FM190300 11004KT
                       P6SM SCT040 BKN150=
201410181120 TAF KSEA 181120Z 1812/1918 15007KT P6SM VCSH SCT025 OVC035
                      TEMPO 1812/1816 4SM -SHRA BKN025 FM181700
                       18005KT P6SM SCT025 BKN030 FM182100 21006KT
                       P6SM SCT025 BKN040 BKN150 FM190300 11004KT
                       P6SM SCT040 BKN150=
201410180906 TAF AMD KSEA 180906Z 1809/1912 15008KT P6SM -SHRA OVC035 FM181200
                       17006KT P6SM VCSH OVC025 FM181700 18005KT
                       P6SM SCT015 BKN030 FM182100 21006KT P6SM
                       SCT025 BKN040 FM190300 11004KT P6SM SCT040=
201410180524 TAF KSEA 180524Z 1806/1912 15008KT P6SM -SHRA OVC035 FM181000 17006KT
                       P6SM VCSH BKN015 OVC025 FM181700 18005KT
                       P6SM SCT015 BKN025 FM182100 21006KT P6SM
                       SCT025 BKN040 FM190300 11004KT P6SM SCT040=
201410180304 TAF AMD KSEA 180304Z 1803/1906 15008KT P6SM -SHRA SCT035 OVC045
                       FM180800 17006KT P6SM -SHRA SCT012 OVC025
                       FM181200 17006KT P6SM VCSH SCT008 BKN012
                       OVC020 FM181700 18005KT P6SM SCT010 BKN020
                       FM182100 21006KT P6SM SCT025 BKN040 FM190300
                       11004KT P6SM SCT040=
201410172335 TAF KSEA 172335Z 1800/1906 15008KT P6SM -RA SCT025 OVC040 FM180800
                       17006KT P6SM -SHRA SCT012 OVC025 FM181200
                       17006KT P6SM VCSH SCT008 BKN012 OVC020 FM181700
                       18005KT P6SM SCT010 BKN020 FM182100 21006KT
                       P6SM SCT025 BKN040 FM190300 11004KT P6SM
                       SCT040=
201410172103 TAF AMD KSEA 172103Z 1721/1824 11006KT P6SM -RA SCT045 OVC060 FM172200
                       14005KT P6SM -RA SCT035 OVC050 FM180100
                       16009KT P6SM -SHRA SCT025 OVC040 FM181000
                       17006KT P6SM -SHRA SCT012 OVC025 FM181300
                       17006KT P6SM VCSH SCT008 BKN014 OVC020 FM181700
                       18005KT P6SM SCT012 BKN020 FM182100 21006KT
                       P6SM SCT025 BKN040=
201410171741 TAF KSEA 171741Z 1718/1824 13006KT P6SM -RA SCT050 OVC070 FM172200
                       14005KT P6SM -RA SCT035 OVC050 FM180100
                       16009KT P6SM -SHRA SCT025 OVC040 FM181000
                       17006KT P6SM -SHRA SCT012 OVC025 FM181300
                       17006KT P6SM VCSH SCT008 BKN014 OVC020 FM181700
                       18005KT P6SM SCT012 BKN020 FM182100 21006KT
                       P6SM SCT025 BKN040=
201410171510 TAF AMD KSEA 171510Z 1715/1818 13006KT P6SM -RA OVC050 FM172200
                       16012KT P6SM -RA BKN025 OVC045
                      TEMPO 1722/1802 4SM RA BR OVC025 FM180200
                       19013G20KT P6SM -SHRA BKN030 OVC045 FM180600
                       17010KT P6SM VCSH OVC025 FM181200 17006KT
                       P6SM OVC015=
201410171121 TAF KSEA 171121Z 1712/1818 14006KT P6SM -RA BKN060 OVC120 FM171500
                       15008KT P6SM -RA OVC045 FM172200 16012KT
                       P6SM -RA BKN025 OVC045
                      TEMPO 1722/1802 4SM RA BR OVC025 FM180200
                       19013G20KT P6SM -SHRA BKN030 OVC045 FM180600
                       17010KT P6SM VCSH OVC025 FM181200 17006KT
                       P6SM OVC015=
201410170907 TAF AMD KSEA 170907Z 1709/1812 12012KT P6SM BKN100 OVC200 FM171100
                       14006KT P6SM -RA BKN060 OVC120 FM171500
                       15008KT P6SM -RA OVC045 FM172200 16012KT
                       P6SM -RA BKN025 OVC045
                      TEMPO 1722/1802 4SM RA BR OVC025 FM180200
                       19013G20KT P6SM -SHRA BKN030 OVC045 FM180600
                       17010KT P6SM VCSH OVC025=
201410170539 TAF KSEA 170539Z 1706/1812 12006KT P6SM BKN120 OVC200 FM171300
                       14006KT P6SM BKN080 OVC120 FM171500 15008KT
                       P6SM -RA OVC045 FM172200 16012KT P6SM -RA
                       BKN025 OVC045
                      TEMPO 1722/1802 4SM RA BR OVC025 FM180200
                       19013G20KT P6SM -SHRA BKN030 OVC045 FM180600
                       17010KT P6SM VCSH OVC025=
201410170302 TAF AMD KSEA 170302Z 1703/1806 09006KT P6SM SCT090 SCT250 FM170600
                       10006KT P6SM BKN090 OVC200 FM171300 10006KT
                       P6SM -RA OVC045 FM171600 11008KT P6SM -RA
                       BKN025 OVC045 FM172200 14012KT P6SM -RA
                       BKN025 OVC045=
201410162333 TAF KSEA 162333Z 1700/1806 14005KT P6SM SCT090 SCT250 FM170500
                       10005KT P6SM BKN090 OVC200 FM171300 10005KT
                       P6SM -RA OVC045 FM171600 11008KT P6SM -RA
                       BKN025 OVC045 FM172200 14012KT P6SM -RA
                       BKN025 OVC045=
201410162101 TAF AMD KSEA 162101Z 1621/1724 08003KT P6SM FEW035 SCT250 FM170500
                       10005KT P6SM BKN090 OVC200 FM171300 10005KT
                       P6SM -RA OVC045 FM171600 11008KT 4SM -RA
                       BKN025 OVC045=
201410161728 TAF KSEA 161728Z 1618/1724 12006KT P6SM BKN060 BKN100 BKN200 FM162100
                       VRB05KT P6SM BKN200 FM170500 10005KT P6SM
                       BKN090 OVC200 FM171300 10005KT P6SM -RA
                       OVC045 FM171600 11008KT 4SM -RA BKN025 OVC045=
201410161507 TAF AMD KSEA 161507Z 1615/1718 16004KT P6SM VCSH FEW045 BKN070
                       OVC100 FM161800 16007KT P6SM SCT045 BKN120
                       BKN200 FM170400 16007KT P6SM BKN100 OVC150
                       FM171000 12005KT P6SM BKN070 OVC100 FM171300
                       12005KT P6SM -RA OVC060=
201410161122 TAF KSEA 161122Z 1612/1718 16006KT P6SM SCT035 BKN080 FM161800
                       16007KT P6SM SCT045 BKN120 BKN200 FM170400
                       16007KT P6SM BKN100 OVC150 FM171000 12005KT
                       P6SM BKN070 OVC100 FM171300 12005KT P6SM
                       -RA OVC060=
201410160901 KSEA 160901Z 1609/1712 17008KT P6SM VCSH SCT035 BKN060 FM161200
                       16007KT P6SM BKN035 FM161800 15006KT P6SM
                       SCT045 BKN200 FM170400 15006KT P6SM BKN100
                       OVC150 FM171000 16008KT P6SM BKN070 OVC100=
201410160532 TAF KSEA 160532Z 1606/1712 18010KT P6SM -SHRA SCT035 BKN060 FM161000
                       16007KT P6SM BKN035 FM161800 15006KT P6SM
                       SCT045 BKN200 FM170400 15006KT P6SM BKN100
                       OVC150 FM171000 16008KT P6SM BKN070 OVC100=
201410160302 TAF AMD KSEA 160302Z 1603/1706 18010KT P6SM VCSH SCT025 BKN060
                       FM161300 16006KT 4SM BR BKN045 FM161700
                       22007KT P6SM SCT045 BKN200=
201410152331 TAF KSEA 152331Z 1600/1706 19015G21KT P6SM VCSH SCT026 BKN045 BKN060
                       FM160300 20012KT P6SM BKN025 BKN060 FM161300
                       16006KT 4SM BR BKN045 FM161700 22007KT P6SM
                       SCT045 BKN200=
201410151924 KSEA 151924Z 1519/1624 20012G21KT P6SM -SHRA BKN017 OVC040 FM152100
                       20012G22KT P6SM -SHRA BKN045 OVC060 FM160300
                       18007KT P6SM VCSH BKN035=
201410151727 TAF KSEA 151727Z 1518/1624 18008KT P6SM -SHRA FEW020 BKN040 OVC200
                       FM152100 20012G22KT P6SM -SHRA BKN045 OVC060
                       FM160300 18007KT P6SM VCSH BKN035=
201410151501 KSEA 151501Z 1515/1618 19007KT P6SM -SHRA SCT035 OVC050 FM152100
                       20012G22KT P6SM -SHRA BKN045 OVC060 FM160300
                       18007KT P6SM VCSH BKN040=
201410151123 TAF KSEA 151123Z 1512/1618 14004KT P6SM -SHRA BKN050 OVC080 FM151700
                       19009KT P6SM -SHRA BKN050 BKN070 FM152100
                       20015G25KT P6SM -SHRA BKN045 OVC060 FM160300
                       18007KT P6SM VCSH BKN040=
201410150905 KSEA 150905Z 1509/1612 12004KT P6SM -SHRA BKN050 OVC070 FM151700
                       19009KT P6SM -SHRA OVC040 FM152100 21012KT
                       P6SM VCSH BKN040
                      TEMPO 1521/1524 -SHRA BKN030=
201410150527 TAF KSEA 150527Z 1506/1612 VRB05KT P6SM VCSH SCT040 BKN050 BKN090
                       FM150700 16004KT P6SM -SHRA BKN035 OVC060
                       FM151700 19009KT P6SM -SHRA OVC030 FM152100
                       21012KT P6SM VCSH BKN035
                      TEMPO 1521/1524 -SHRA BKN030=
201410150304 TAF AMD KSEA 150304Z 1503/1606 VRB05KT P6SM VCSH SCT030 BKN050
                       OVC090
                      TEMPO 1503/1506 -SHRA BKN030 FM150600 14004KT
                       P6SM -SHRA OVC030 FM151700 19009KT P6SM
                       -SHRA OVC020 FM152100 21007KT P6SM VCSH
                       BKN030
                      TEMPO 1521/1524 -SHRA BKN025=
201410142320 TAF KSEA 142320Z 1500/1606 15005KT P6SM SCT030 BKN070 OVC110
                      TEMPO 1503/1506 -SHRA BKN030 FM150600 14004KT
                       P6SM -SHRA OVC030 FM151700 19009KT P6SM
                       -SHRA OVC020 FM152100 21007KT P6SM VCSH
                       BKN030
                      TEMPO 1521/1524 -SHRA BKN025=
201410142057 KSEA 142057Z 1421/1524 17006KT P6SM SCT015 BKN030 BKN100 FM142200
                       16005KT P6SM VCSH SCT025 SCT040 BKN080 FM150000
                       15005KT P6SM VCSH SCT030 BKN070 OVC110
                      TEMPO 1502/1506 -SHRA BKN030 FM150600 14004KT
                       P6SM -SHRA OVC030 FM151700 19009KT P6SM
                       -SHRA OVC020=
201410141730 TAF KSEA 141730Z 1418/1524 17006KT P6SM SCT015 SCT030 BKN070 FM142200
                       16005KT P6SM VCSH SCT025 SCT040 BKN080 FM150000
                       15005KT P6SM VCSH SCT030 BKN070 OVC110
                      TEMPO 1502/1506 -SHRA BKN030 FM150600 14004KT
                       P6SM -SHRA OVC030 FM151700 19009KT P6SM
                       -SHRA OVC020=
201410141457 TAF AMD KSEA 141457Z 1415/1518 17006KT P6SM SCT028 SCT045 BKN070
                       FM141800 19006KT P6SM VCSH BKN025 BKN040
                       FM142200 16005KT P6SM -SHRA SCT025 BKN040
                       OVC070 FM150000 15005KT P6SM -SHRA SCT030
                       BKN070 OVC110 FM150600 18004KT P6SM -SHRA
                       OVC030=
201410141258 TAF AMD KSEA 141258Z 1413/1518 17006KT P6SM SCT028 BKN045 OVC070
                       TEMPO 1413/1416 5SM -SHRA BR BKN015 OVC025
                       FM141800 19006KT P6SM VCSH BKN025 BKN040
                       FM142200 16005KT P6SM -SHRA SCT025 BKN040
                       OVC070 FM150000 15005KT P6SM -SHRA SCT030
                       BKN070 OVC110 FM150600 18004KT P6SM -SHRA
                       OVC030=
201410141126 TAF KSEA 141126Z 1412/1518 17007KT 5SM -RA BR FEW010 OVC025
                      TEMPO 1412/1414 4SM -RA BR BKN007 BKN015
                       FM141800 19006KT P6SM VCSH BKN025 BKN040
                       FM142200 16005KT P6SM -SHRA SCT025 BKN040
                       OVC070 FM150000 15005KT P6SM -SHRA SCT030
                       BKN070 OVC110 FM150600 18004KT P6SM -SHRA
                       OVC030=
201410140905 TAF KSEA 140905Z 1409/1512 17007KT 6SM -RA FEW010 OVC025 FM141800
                       VRB05KT P6SM VCSH BKN025 OVC040 FM142100
                       18005KT P6SM VCSH SCT025 BKN040 OVC070 FM150000
                       18005KT P6SM VCSH SCT035 BKN070 OVC110=
201410140904 TAF AMD KSEA 140904Z 1409/1512 17007KT 6SM -RA FEW010 OVC025 FM141800
                       VRB05KT P6SM VCSH BKN018 BKN025 OVC040 FM142100
                       18005KT P6SM VCSH SCT025 BKN040 OVC070 FM150000
                       18005KT P6SM VCSH SCT035 BKN070 OVC110=
201410140527 TAF KSEA 140527Z 1406/1512 20010KT 6SM -RA OVC025
                      TEMPO 1406/1410 4SM RA BR BKN007 OVC020 FM141000
                       17005KT 4SM -RA BR FEW007 OVC012 FM141800
                       VRB05KT P6SM -RA BKN018 BKN025 OVC040 FM142100
                       18005KT P6SM VCSH SCT025 BKN040 OVC070 FM150000
                       18005KT P6SM VCSH SCT035 BKN070 OVC110=
201410140303 KSEA 140303Z 1403/1506 22012G20KT P6SM -RA BKN030 OVC080 FM140600
                       20010KT P6SM -RA OVC025 FM141200 17005KT
                       4SM -RA BR FEW007 OVC012 FM141800 VRB05KT
                       P6SM -RA BKN018 BKN025 OVC040 FM142100 18005KT
                       P6SM -RA SCT025 BKN040 OVC070 FM150000 18005KT
                       P6SM -RA SCT035 BKN070 OVC110=
201410132332 TAF KSEA 132332Z 1400/1506 20011KT P6SM -RA SCT025 OVC050
                      TEMPO 1400/1402 20013G23KT FM140300 19008KT
                       6SM -RA BR FEW012 OVC025 FM141200 17005KT
                       4SM -RA BR FEW007 OVC012 FM141800 VRB05KT
                       P6SM -RA BKN018 BKN025 OVC040 FM142100 VRB05KT
                       P6SM -RA SCT025 BKN040 OVC070 FM150000 VRB05KT
                       P6SM -RA SCT035 BKN070 OVC110=
201410132259 TAF AMD KSEA 132259Z 1323/1424 20011KT P6SM VCSH BKN050 OVC110
                       FM140000 20015G23KT P6SM -RA SCT025 OVC050
                       FM140300 19009KT 6SM -RA BR FEW012 OVC025
                       FM141200 17005KT 4SM -RA BR FEW007 OVC012
                       FM141800 VRB05KT P6SM -SHRA BKN018 BKN025
                       OVC040 FM142100 VRB05KT P6SM -SHRA SCT025
                       BKN040 OVC070=
201410132101 KSEA 132101Z 1321/1424 19012KT P6SM SCT050 BKN110 OVC200 FM132200
                       20015G23KT P6SM VCSH BKN050 OVC110 FM140000
                       20015KT P6SM -RA SCT025 OVC050 FM140300
                       19009KT 6SM -RA BR FEW012 OVC025 FM141200
                       17005KT 4SM -RA BR FEW007 OVC012 FM141800
                       VRB05KT P6SM -SHRA BKN018 BKN025 OVC040
                       FM142100 VRB05KT P6SM -SHRA SCT025 BKN040
                       OVC070=
201410131746 TAF KSEA 131746Z 1318/1424 17006KT P6SM SCT110 OVC200 FM132100
                       20015G23KT P6SM VCSH SCT050 OVC110 FM140000
                       20015KT P6SM -RA SCT025 OVC050 FM140300
                       19009KT 6SM -RA BR FEW012 OVC025 FM141200
                       17005KT 4SM -RA BR FEW007 OVC012 FM141800
                       VRB05KT P6SM -SHRA BKN018 BKN025 OVC040
                       FM142100 VRB05KT P6SM -SHRA SCT025 BKN040
                       OVC070=
201410131518 TAF AMD KSEA 131518Z 1315/1418 VRB03KT P6SM SCT110 OVC200 FM131800
                       17008KT P6SM SCT080 BKN150 FM132100 20012KT
                       P6SM BKN050 OVC080 FM140000 20015G25KT P6SM
                       -RA OVC050 FM140500 18008KT P6SM -RA OVC025=
201410131129 TAF KSEA 131129Z 1312/1418 12004KT P6SM SCT080 BKN120 OVC150 FM131600
                       17008KT P6SM SCT080 BKN150 FM132100 20012KT
                       P6SM BKN050 OVC080 FM140000 20015G25KT P6SM
                       -RA OVC050 FM140500 18008KT P6SM -RA OVC025=
201410130904 TAF AMD KSEA 130904Z 1309/1412 12004KT P6SM SCT080 BKN100 OVC150
                       FM131600 17008KT P6SM SCT080 BKN200 FM132200
                       20014KT P6SM -RA OVC050=
201410130521 TAF KSEA 130521Z 1306/1412 14006KT P6SM BKN100 OVC150 FM131600
                       17008KT P6SM SCT080 BKN200 FM132200 20014KT
                       P6SM -RA OVC050=
201410130301 KSEA 130301Z 1303/1406 16006KT P6SM BKN100 OVC150 FM130600 14004KT
                       P6SM OVC080 FM131600 17008KT P6SM SCT080
                       BKN200 FM132200 20014KT P6SM -RA OVC050=
201410122320 TAF KSEA 122320Z 1300/1406 22006KT P6SM BKN100 OVC150 FM130600
                       14004KT P6SM OVC080 FM131600 17008KT P6SM
                       SCT080 BKN200 FM132200 20014KT P6SM -RA
                       OVC050=
201410122030 TAF AMD KSEA 122030Z 1221/1324 22006KT P6SM BKN045 BKN120 FM130000
                       20005KT P6SM BKN045 OVC100 FM130600 14004KT
                       P6SM OVC080=
201410121741 TAF KSEA 121741Z 1218/1324 18006KT P6SM BKN020 OVC150 FM122100
                       22006KT P6SM BKN030 OVC120 FM130000 20005KT
                       P6SM BKN045 OVC100 FM130600 14004KT P6SM
                       OVC080=
201410121528 TAF AMD KSEA 121528Z 1215/1318 15005KT P6SM BKN014 BKN080 FM121800
                       21006KT P6SM SCT025 BKN040 BKN120 FM122200
                       18005KT P6SM BKN050 BKN120 FM130300 13005KT
                       P6SM BKN030 BKN050 OVC100=
201410121121 TAF KSEA 121121Z 1212/1318 15005KT P6SM BKN014 BKN080 FM121800
                       21006KT P6SM SCT025 BKN040 BKN120 FM122200
                       18005KT P6SM BKN050 BKN120 FM130300 13005KT
                       P6SM BKN030 BKN050 OVC100=
201410120902 KSEA 120902Z 1209/1312 15005KT P6SM SCT015 BKN080
                      TEMPO 1210/1214 BKN015 FM121800 21006KT P6SM
                       SCT025 BKN040 FM122200 27005KT P6SM BKN050
                       BKN120=
201410120521 TAF KSEA 120521Z 1206/1312 15005KT P6SM SCT018 BKN080
                      TEMPO 1206/1209 BKN018 FM120900 20005KT P6SM
                       OVC015 FM121200 18004KT P6SM OVC007 FM121800
                       21006KT P6SM SCT020 BKN035 FM122200 27005KT
                       P6SM BKN050 BKN120=
201410120205 TAF AMD KSEA 120205Z 1202/1306 VRB05KT P6SM VCTS FEW025 BKN030CB
                       FM120300 21006KT P6SM BKN025 OVC060 FM120900
                       20005KT P6SM OVC015 FM121200 18004KT P6SM
                       OVC007 FM121800 21006KT P6SM SCT020 BKN035
                       FM122200 27005KT P6SM BKN050 BKN120=
201410120025 TAF AMD KSEA 120025Z 1200/1306 25005KT P6SM SCT045 BKN100
                      TEMPO 1200/1202 5SM TSRA OVC045CB FM120600
                       21006KT P6SM BKN025 OVC060 FM120900 20005KT
                       P6SM OVC015 FM121200 18004KT P6SM OVC007
                       FM121800 21006KT P6SM SCT020 BKN035 FM122200
                       27005KT P6SM BKN050 BKN120=
201410112342 TAF KSEA 112342Z 1200/1306 25005KT P6SM SCT025 SCT080 BKN100 FM120600
                       21006KT P6SM BKN025 OVC060 FM120900 20005KT
                       P6SM OVC015 FM121200 18004KT P6SM OVC007
                       FM121800 21006KT P6SM SCT020 BKN035 FM122200
                       27005KT P6SM BKN050 BKN120=
201410112105 TAF AMD KSEA 112105Z 1121/1224 22012KT P6SM VCSH SCT020 BKN045
                       TEMPO 1121/1124 -SHRA BKN020 BKN045 FM120000
                       21014KT P6SM SCT025 BKN050 BKN100 FM120600
                       23008KT P6SM BKN025 OVC060 FM120900 18005KT
                       P6SM BKN007 OVC015 FM121800 19006KT P6SM
                       SCT020 BKN035=
201410111741 TAF KSEA 111741Z 1118/1224 21010KT P6SM -SHRA BKN012 OVC020
                      TEMPO 1118/1121 2SM SHRA BKN007 OVC012 FM112100
                       21012KT P6SM -SHRA BKN020 BKN030 FM112300
                       21014KT P6SM VCSH SCT025 BKN040 BKN100 FM120200
                       23008KT P6SM VCSH BKN025 OVC060 FM120900
                       18005KT P6SM BKN007 OVC015 FM121800 19006KT
                       P6SM SCT020 BKN035=
201410111500 TAF AMD KSEA 111500Z 1115/1218 19006KT P6SM SCT007 BKN015 OVC025
                       TEMPO 1115/1117 BKN007 OVC015 FM111800 21010KT
                       P6SM VCSH BKN020 BKN030 FM112100 21012KT
                       P6SM SCT025 BKN030 BKN100 FM120000 23010KT
                       P6SM VCSH BKN030 OVC060=
201410111120 TAF KSEA 111120Z 1112/1218 19008KT P6SM SCT004 OVC012
                      TEMPO 1112/1116 BKN004 FM111800 21010KT P6SM
                       OVC020 FM112100 21012KT P6SM SCT025 BKN030
                       BKN100 FM120000 23010KT P6SM VCSH BKN030
                       OVC060=
201410110903 TAF AMD KSEA 110903Z 1109/1212 19009KT P6SM VCSH SCT004 BKN020
                       OVC050 FM111100 19008KT P6SM OVC012 FM111800
                       21010KT P6SM OVC020 FM112100 21012KT P6SM
                       SCT020 BKN030 BKN100=
201410110520 TAF KSEA 110520Z 1106/1212 20007KT P6SM VCSH SCT030 BKN060 BKN100
                       TEMPO 1107/1109 OVC020 FM110900 19008KT
                       P6SM OVC012 FM111800 21010KT P6SM OVC020
                       FM112100 21012KT P6SM SCT020 BKN030 BKN100=
201410110301 TAF AMD KSEA 110301Z 1103/1206 20007KT P6SM SCT030 BKN100 FM110600
                       19008KT P6SM BKN020 OVC040 FM110900 19008KT
                       P6SM OVC012 FM111200 21006KT 5SM BR BKN008
                       OVC015 FM111800 21010KT P6SM OVC020 FM112100
                       21012KT P6SM SCT020 BKN030 BKN100=
201410102340 TAF KSEA 102340Z 1100/1206 19010KT P6SM SCT060 BKN100 FM110600
                       19008KT P6SM BKN020 OVC040 FM110900 19008KT
                       P6SM OVC012 FM111200 21006KT 5SM BR BKN008
                       OVC015 FM111800 21010KT P6SM OVC020 FM112100
                       21012KT P6SM SCT020 BKN030 BKN100=
201410102048 TAF AMD KSEA 102048Z 1021/1124 18010KT P6SM SCT009 BKN080 BKN150
                       FM110600 19008KT P6SM BKN015 OVC040 FM111000
                       18008KT P6SM OVC010=
201410101907 TAF AMD KSEA 101907Z 1019/1124 21010KT P6SM OVC005 FM102000 18010KT
                       P6SM SCT006 OVC012 FM102200 19010KT P6SM
                       BKN020 OVC100 FM110600 19008KT P6SM BKN015
                       OVC040 FM111000 18008KT P6SM OVC010=
201410101742 TAF KSEA 101742Z 1018/1124 18010KT 1SM BR OVC003 FM102000 18010KT
                       P6SM BKN008 OVC012 FM102100 19010KT P6SM
                       OVC012 FM102300 19010KT P6SM BKN020 OVC100
                       FM110600 19008KT P6SM BKN015 OVC040 FM111000
                       18008KT P6SM OVC010=
201410101505 KSEA 101505Z 1015/1118 00000KT 1/4SM FG VV001 FM101800 18006KT
                       1SM BR OVC002 FM102000 18010KT P6SM BKN015
                       OVC100 FM110000 18010KT P6SM SCT012 BKN025
                       OVC050 FM111200 18008KT P6SM BKN012 OVC020=
201410101120 TAF KSEA 101120Z 1012/1118 00000KT 1/4SM FG VV001 FM101700 15006KT
                       1SM BR BKN002 BKN150 FM101900 18010KT P6SM
                       BKN015 OVC100 FM110000 18010KT P6SM SCT012
                       BKN025 OVC050 FM111200 18008KT P6SM BKN012
                       OVC020=
201410100907 KSEA 100907Z 1009/1112 00000KT 5SM BR SCT002
                      TEMPO 1010/1011 1SM BR BKN002 FM101100 00000KT
                       1/2SM FG VV001 FM101700 15005KT 3SM BR BKN003
                       BKN150 FM101900 18010KT P6SM BKN015 OVC100
                       FM110000 18010KT P6SM SCT012 BKN022 OVC035=
201410100540 TAF KSEA 100540Z 1006/1112 28004KT P6SM SCT200
                      TEMPO 1009/1010 2SM BR FM101000 00000KT 1/2SM
                       FG VV001 FM101700 15005KT 3SM BR BKN003
                       BKN150 FM101900 18010KT P6SM BKN015 OVC100
                       FM110000 18010KT P6SM SCT012 BKN022 OVC035=
201410100308 TAF AMD KSEA 100308Z 1003/1106 28004KT P6SM SCT200
                      TEMPO 1006/1007 2SM BR FM100700 00000KT 1/2SM
                       FG VV001 FM101700 15005KT 3SM BR BKN003
                       BKN150 FM102000 18007KT P6SM BKN015 BKN100
                       FM110000 18010KT P6SM -DZ OVC020=
201410092330 TAF KSEA 092330Z 1000/1106 28004KT P6SM SCT200
                      TEMPO 1004/1007 2SM BR FM100700 00000KT 1/2SM
                       FG VV001 FM101700 15005KT 3SM BR BKN003
                       BKN150 FM102000 18007KT P6SM BKN015 BKN100
                       FM110000 18010KT P6SM -DZ OVC020=
201410092207 TAF AMD KSEA 092207Z 0922/1024 VRB04KT P6SM VCFG SCT002 BKN250
                       TEMPO 0922/0924 3SM BR FM100500 21005KT
                       3SM BR BKN003 FM100800 00000KT 1/2SM FG
                       VV001 FM101700 15005KT 3SM BR BKN003 BKN150
                       FM102000 18007KT P6SM SCT015 BKN100=
201410091839 TAF AMD KSEA 091839Z 0919/1024 VRB03KT 3SM BR BKN005 FM092100 36005KT
                       6SM HZ SKC
                      TEMPO 1005/1008 2SM BR BKN002 FM100800 00000KT
                       1/2SM FG VV001 FM101700 15005KT 3SM BR BKN003
                       BKN150 FM102000 18007KT P6SM SCT015 BKN100=
201410091720 TAF KSEA 091720Z 0918/1024 VRB03KT 2SM BR BKN002
                      TEMPO 0918/0920 1/4SM FG VV001 FM092100 36005KT
                       6SM HZ SKC
                      TEMPO 1005/1008 2SM BR BKN002 FM100800 00000KT
                       1/2SM FG VV001 FM101700 15005KT 3SM BR BKN003
                       BKN150 FM102000 18007KT P6SM SCT015 BKN100=
201410091120 TAF KSEA 091120Z 0912/1018 00000KT 1/4SM FG VV001 FM091900 36003KT
                       3SM BR BKN002 FM092100 33005KT 6SM HZ SKC
                       FM100300 04005KT 6SM HZ SKC FM101000 00000KT
                       1/2SM FG VV001=
201410090813 TAF AMD KSEA 090813Z 0908/1012 00000KT 1/4SM FG VV001 FM091900
                       36003KT 3SM BR BKN002 FM092100 33005KT P6SM
                       SKC FM100300 04005KT P6SM SKC FM101000 00000KT
                       1/2SM FG VV001=
201410090712 TAF AMD KSEA 090712Z 0907/1012 00000KT 1/2SM FG VV001 FM091900
                       36003KT 3SM BR BKN002 FM092100 33005KT P6SM
                       SKC FM100300 04005KT P6SM SKC FM101000 00000KT
                       1/2SM FG VV001=
201410090520 TAF KSEA 090520Z 0906/1012 04005KT P6SM SKC FM090900 00000KT 2SM
                       BR SCT002 FM091000 00000KT 1/2SM FG VV001
                       FM091900 36003KT 3SM BR BKN002 FM092100
                       33005KT P6SM SKC FM100300 04005KT P6SM SKC
                       FM101000 00000KT 1/2SM FG VV001=
201410090300 TAF AMD KSEA 090300Z 0903/1006 36004KT P6SM FEW140 SCT220 FM091000
                       00000KT 2SM BR SCT002
                      TEMPO 0914/0916 1/2SM FG VV002 FM091700 36006KT
                       P6SM SKC=
201410082320 TAF KSEA 082320Z 0900/1006 36006KT P6SM SCT150 FM091000 00000KT
                       2SM BR SCT002
                      TEMPO 0914/0916 1/2SM FG VV002 FM091700 36006KT
                       P6SM SKC=
201410082007 TAF AMD KSEA 082007Z 0820/0924 VRB03KT P6SM BKN150 FM090000 36006KT
                       P6SM SCT150 FM091000 00000KT 2SM BR SCT002
                       TEMPO 0914/0916 1/2SM FG VV002 FM091700
                       35007KT P6SM SKC=
201410081720 TAF KSEA 081720Z 0818/0924 36006KT 5SM HZ BKN010 BKN150 FM082100
                       36006KT P6SM SCT015 BKN150 FM090300 02004KT
                       P6SM SCT150 FM091000 00000KT 2SM BR SCT002
                       TEMPO 0914/0916 1/2SM FG VV002 FM091700
                       35007KT P6SM SKC=
201410081250 TAF AMD KSEA 081250Z 0813/0918 00000KT 1SM BR VV002
                      TEMPO 0813/0815 1/2SM FG VV001 FM081500 00000KT
                       3SM BR BKN005 BKN150 FM082000 VRB03KT P6SM
                       SCT010 BKN150 FM082200 35006KT P6SM BKN150
                       FM090300 02004KT P6SM SCT150 FM091000 02004KT
                       1/2SM FG VV001=
201410081120 TAF KSEA 081120Z 0812/0918 30003KT 1/2SM FG VV002 FM081500 00000KT
                       3SM BR BKN005 BKN150 FM082000 00000KT P6SM
                       SCT010 BKN120 FM082200 35006KT P6SM BKN150
                       FM090300 02004KT P6SM SCT120 FM091000 02004KT
                       1/2SM FG VV001=
201410080945 TAF AMD KSEA 080945Z 0810/0912 00000KT 1/2SM FG VV001 FM081500
                       00000KT 3SM BR BKN005 BKN120 FM082000 00000KT
                       P6SM SCT010 BKN120 FM082200 35006KT P6SM
                       BKN150 FM090300 02004KT P6SM SCT120=
201410080839 TAF AMD KSEA 080839Z 0809/0912 32003KT 2SM BR OVC002 FM081400 00000KT
                       5SM BR BKN006 BKN120 FM082000 00000KT P6SM
                       SCT010 BKN120 FM082200 35006KT P6SM BKN150
                       FM090300 02004KT P6SM SCT120=
201410080820 TAF AMD KSEA 080820Z 0808/0912 35005KT 5SM BR BKN002 OVC040 FM081400
                       00000KT 5SM BR BKN006 BKN120 FM082000 00000KT
                       P6SM SCT010 BKN120 FM082200 35006KT P6SM
                       BKN150 FM090300 02004KT P6SM SCT120=
201410080650 TAF AMD KSEA 080650Z 0807/0912 34005KT 6SM BR SCT004 BKN029 OVC035
                       FM080830 00000KT 2SM BR BKN002 BKN035 FM081000
                       00000KT 1/2SM FG VV002 FM081400 00000KT
                       2SM BR BKN003 BKN120 FM082000 00000KT P6SM
                       SCT010 BKN120 FM082200 35006KT P6SM BKN150
                       FM090300 02004KT P6SM SCT120=
201410080520 TAF KSEA 080520Z 0806/0912 00000KT P6SM BKN035 FM080800 00000KT
                       2SM BR BKN002 BKN035 FM081000 00000KT 1/2SM
                       FG VV002 FM081400 00000KT 2SM BR BKN003
                       BKN120 FM082000 00000KT P6SM SCT010 BKN120
                       FM082200 35006KT P6SM BKN150 FM090300 02004KT
                       P6SM SCT120=
201410080302 KSEA 080302Z 0803/0906 00000KT P6SM BKN025 BKN250
                      TEMPO 0804/0807 5SM BR FM080700 00000KT 1/2SM
                       FG VV002 FM081400 00000KT 2SM BR BKN003
                       BKN120 FM082000 00000KT P6SM SCT010 BKN120
                       FM082200 35006KT P6SM BKN150=
201410080146 KSEA 080146Z 0802/0906 00000KT P6SM BKN025 BKN250
                      TEMPO 0804/0807 5SM BR FM080700 00000KT 1/2SM
                       FG VV002 FM082000 00000KT P6SM SCT010 BKN200
                       FM082200 35006KT P6SM BKN150=
201410072320 TAF KSEA 072320Z 0800/0906 00000KT P6SM SCT010
                      TEMPO 0804/0807 5SM BR BKN007 FM080700 00000KT
                       1/2SM FG VV002 FM082000 00000KT P6SM SCT010
                       BKN200 FM082200 35006KT P6SM BKN150=
201410072215 TAF AMD KSEA 072215Z 0722/0824 00000KT 5SM BR BKN008 FM080000 VRB03KT
                       P6SM SCT010
                      TEMPO 0804/0807 5SM BR BKN008 FM080700 06003KT
                       1/2SM FG VV001 FM082000 VRB03KT P6SM SCT010=
201410072000 TAF AMD KSEA 072000Z 0720/0824 VRB03KT 3SM BR BKN006 FM072130 VRB03KT
                       P6SM SCT010 FM072200 34005KT P6SM SKC FM080700
                       06003KT 1/2SM FG VV001 FM082000 VRB03KT
                       P6SM SCT010=
201410071720 TAF KSEA 071720Z 0718/0824 VRB03KT 3SM BR OVC003
                      TEMPO 0718/0720 1SM BR OVC002 FM072000 VRB03KT
                       P6SM SCT010 FM072200 34005KT P6SM SKC FM080900
                       06003KT 1/2SM FG VV001 FM082000 VRB03KT
                       P6SM SCT010=
201410071348 TAF AMD KSEA 071348Z 0714/0818 00000KT 3/4SM BR VV002
                      TEMPO 0714/0717 1/4SM FG VV001 FM071800 36004KT
                       3SM BR BKN004 FM072000 34006KT P6SM FEW010
                       FM072100 34005KT P6SM SKC FM080400 02006KT
                       P6SM SKC FM081000 06003KT 1/2SM FG VV001=
201410071216 TAF AMD KSEA 071216Z 0712/0818 00000KT 2SM BR OVC004 FM071300 02004KT
                       1/4SM FG VV001 FM071800 36004KT 3SM BR BKN004
                       FM072000 34006KT P6SM FEW010 FM072100 34005KT
                       P6SM SKC FM080400 02006KT P6SM SKC FM081000
                       06003KT 1/2SM FG VV001=
201410071120 TAF KSEA 071120Z 0712/0818 36003KT P6SM FEW002 FM071230 02004KT
                       1/4SM FG VV001 FM071800 36004KT 3SM BR BKN004
                       FM072000 34006KT P6SM FEW010 FM072100 34005KT
                       P6SM SKC FM080400 02006KT P6SM SKC FM081000
                       06003KT 1/2SM FG VV001=
201410070900 KSEA 070900Z 0709/0812 02008KT P6SM SKC FM071100 02006KT 2SM BR
                       BKN002 FM071300 02004KT 1/2SM FG VV001 FM071800
                       36004KT 3SM BR BKN004 FM072000 34006KT P6SM
                       FEW010 FM072100 34005KT P6SM SKC FM080400
                       02006KT P6SM SKC FM081000 06003KT 1/2SM
                       FG VV001=
201410070524 TAF KSEA 070524Z 0706/0812 01009KT P6SM SKC FM071000 02006KT 2SM
                       BR BKN002 FM071300 02004KT 1/2SM FG VV001
                       FM071800 36004KT 3SM BR BKN004 FM072000
                       34006KT P6SM FEW010 FM072100 34005KT P6SM
                       SKC FM080400 02006KT P6SM SKC FM081000 06003KT
                       1/2SM FG VV001=
201410070404 TAF AMD KSEA 070404Z 0704/0806 02012KT P6SM SKC FM071000 02006KT
                       2SM BR BKN002
                      TEMPO 0712/0716 1/2SM FG VV002 FM071700 VRB03KT
                       P6SM BKN005 FM071900 36006KT P6SM SCT010
                       FM072100 36008KT P6SM SKC=
201410070303 TAF AMD KSEA 070303Z 0703/0806 35006KT P6SM FEW050 FM071000 02006KT
                       2SM BR BKN002
                      TEMPO 0712/0716 1/2SM FG VV002 FM071700 VRB03KT
                       P6SM BKN005 FM071900 36006KT P6SM SCT010
                       FM072100 36008KT P6SM SKC=
201410062320 TAF KSEA 062320Z 0700/0806 36008KT P6SM SKC FM071000 02006KT 2SM
                       BR BKN002
                      TEMPO 0712/0716 1/2SM FG VV002 FM071700 VRB03KT
                       P6SM BKN005 FM071900 36006KT P6SM SCT010
                       FM072100 36008KT P6SM SKC=
201410061733 TAF KSEA 061733Z 0618/0724 00000KT 4SM BR VCFG SCT002 FM061900
                       VRB04KT P6SM SKC FM071000 35005KT 4SM BR
                       OVC004
                      TEMPO 0712/0716 1/2SM FG VV002 FM071700 35005KT
                       P6SM BKN007 FM072100 35005KT P6SM SCT015=
201410061714 TAF AMD KSEA 061714Z 0617/0718 00000KT 2SM BR VCFG SCT002 FM061900
                       VRB04KT P6SM SKC FM071000 35005KT 4SM BR
                       OVC004
                      TEMPO 0712/0716 1/2SM FG VV002 FM071700 35005KT
                       P6SM BKN007=
201410061217 TAF AMD KSEA 061217Z 0612/0718 VRB03KT 1/4SM FG VV001 FM061800
                       VRB04KT P6SM SCT045 BKN200
                      TEMPO 0618/0622 BKN045 BKN200 FM071000 03003KT
                       4SM BR OVC004=
201410061207 TAF AMD KSEA 061207Z 0612/0718 VRB03KT 1 1/2SM BR VV001
                      TEMPO 0612/0613 1/2SM FG FM061300 VRB03KT
                       1/4SM FG VV001 FM061800 VRB04KT P6SM SCT045
                       BKN200
                      TEMPO 0618/0622 BKN045 BKN200 FM071000 03003KT
                       4SM BR OVC004=
201410061153 TAF AMD KSEA 061153Z 0612/0718 04003KT 6SM BR SCT004
                      TEMPO 0612/0613 2SM BR BKN004 FM061300 00000KT
                       1SM BR OVC002
                      TEMPO 0613/0617 1/4SM FG VV001 FM061800 VRB04KT
                       P6SM SCT045 BKN200
                      TEMPO 0618/0622 BKN045 BKN200 FM071000 03003KT
                       4SM BR OVC004=
201410061130 TAF KSEA 061130Z 0612/0718 04003KT P6SM SKC FM061300 00000KT 1SM
                       BR OVC002
                      TEMPO 0613/0617 1/4SM FG VV001 FM061800 VRB04KT
                       P6SM SCT045 BKN200
                      TEMPO 0618/0622 BKN045 BKN200 FM071000 03003KT
                       4SM BR OVC004=
201410060905 TAF AMD KSEA 060905Z 0609/0712 00000KT P6SM SKC FM061300 00000KT
                       1SM BR BKN002 FM061400 00000KT 1/4SM FG
                       VV001 FM061700 00000KT 1SM BR BKN002 FM061800
                       VRB04KT P6SM BKN050 BKN200=
201410060530 TAF KSEA 060530Z 0606/0712 02005KT P6SM SCT220 FM061300 00000KT
                       1SM BR BKN002 FM061400 00000KT 1/4SM FG
                       VV001 FM061700 00000KT 1SM BR BKN002 FM061800
                       00000KT P6SM SCT200=
201410060300 KSEA 060300Z 0603/0706 35005KT P6SM SCT250 FM061300 00000KT 1SM
                       BR BKN002 FM061400 00000KT 1/4SM FG VV001
                       FM061700 00000KT 1SM BR BKN002 FM061800
                       00000KT P6SM SCT200=
201410052322 TAF KSEA 052322Z 0600/0706 33005KT P6SM SCT200 FM061300 00000KT
                       1SM BR BKN002 FM061400 00000KT 1/4SM FG
                       VV001 FM061700 00000KT 1SM BR BKN002 FM061800
                       00000KT P6SM SCT200=
201410052107 TAF AMD KSEA 052107Z 0521/0624 33005KT P6SM SCT200 FM061300 00000KT
                       1SM BR BKN002 FM061400 00000KT 1/4SM FG
                       VV001 FM061700 00000KT 1SM BR BKN002 FM061800
                       00000KT P6SM SCT200=
201410051732 TAF KSEA 051732Z 0518/0624 33005KT P6SM SCT200 FM061300 00000KT
                       1SM BR BKN002 FM061400 00000KT 1/4SM FG
                       VV001 FM061700 00000KT 1SM BR BKN002 FM061800
                       00000KT P6SM SCT200=
201410051504 TAF AMD KSEA 051504Z 0515/0618 00000KT 1/4SM FG BKN001
                      TEMPO 0516/0517 1SM BR FM051700 VRB03KT 3SM
                       BR BKN002
                      TEMPO 0517/0518 5SM BR SCT002 FM051800 33005KT
                       P6SM SCT200 FM061300 00000KT 1SM BR BKN002=
201410051256 TAF AMD KSEA 051256Z 0513/0618 00000KT 5SM BR SCT001
                      TEMPO 0513/0514 3/4SM BR VV001 FM051400 00000KT
                       3/4SM BR VV001
                      TEMPO 0514/0517 1/4SM FG VV001 FM051700 VRB03KT
                       2SM BR BKN004 FM051900 33005KT P6SM SCT200=
201410051120 TAF KSEA 051120Z 0512/0618 00000KT P6SM SKC
                      TEMPO 0513/0517 5SM BR SCT002 FM051700 VRB03KT
                       P6SM SCT200=
201410050918 TAF AMD KSEA 050918Z 0509/0612 00000KT P6SM SKC FM051300 VRB03KT
                       5SM BR SCT002 SCT200 FM051600 VRB03KT P6SM
                       SCT200=
201410050524 TAF KSEA 050524Z 0506/0612 30004KT P6SM SCT200 FM051300 VRB03KT
                       5SM BR SCT002 SCT200 FM051600 VRB03KT P6SM
                       SCT200=
201410050301 TAF AMD KSEA 050301Z 0503/0606 35004KT P6SM SCT120 SCT200 FM051300
                       VRB03KT 5SM BR SCT002 SCT200 FM051600 VRB03KT
                       P6SM SCT200=
201410042334 TAF KSEA 042334Z 0500/0606 VRB03KT P6SM SCT200 FM050600 VRB03KT
                       P6SM BKN100 BKN200 FM051300 VRB03KT 5SM
                       BR SCT002 BKN200 FM051600 VRB03KT P6SM SCT200=
201410042110 TAF AMD KSEA 042110Z 0421/0524 VRB03KT P6SM BKN100 FM050600 VRB03KT
                       P6SM SCT200 FM051300 VRB03KT 5SM BR SCT002
                       FM051600 VRB03KT P6SM SCT200=
201410041739 TAF KSEA 041739Z 0418/0524 VRB03KT P6SM BKN100 FM050600 VRB03KT
                       P6SM SCT200 FM051300 VRB03KT 5SM BR SCT002
                       FM051600 VRB03KT P6SM SCT200=
201410041508 TAF AMD KSEA 041508Z 0415/0518 VRB03KT P6SM BKN120 BKN200 FM050500
                       VRB03KT P6SM SCT250=
201410041120 TAF KSEA 041120Z 0412/0518 00000KT P6SM BKN130 OVC200 FM050500
                       36002KT P6SM SCT250=
201410040902 TAF AMD KSEA 040902Z 0409/0512 00000KT P6SM BKN120 OVC200 FM041200
                       04002KT P6SM BKN100 OVC200 FM050500 36002KT
                       P6SM SCT250=
201410040528 TAF KSEA 040528Z 0406/0512 00000KT P6SM BKN250 FM041200 04002KT
                       P6SM BKN100 OVC200 FM050500 36002KT P6SM
                       SCT250=
201410040318 TAF AMD KSEA 040318Z 0403/0506 00000KT P6SM FEW160 SCT250 FM040600
                       VRB03KT P6SM BKN200=
201410032330 TAF KSEA 032330Z 0400/0506 32006KT P6SM BKN200 FM040500 VRB03KT
                       P6SM BKN200=
201410032110 TAF AMD KSEA 032110Z 0321/0424 VRB03KT P6SM BKN200=
201410031738 TAF KSEA 031738Z 0318/0424 36004KT P6SM BKN200=
201410031505 TAF AMD KSEA 031505Z 0315/0418 36004KT P6SM BKN200=
201410031120 TAF KSEA 031120Z 0312/0418 00000KT P6SM SKC
                      TEMPO 0313/0316 SCT004 FM040200 36004KT P6SM
                       BKN200=
201410030901 KSEA 030901Z 0309/0412 01004KT P6SM SKC FM031200 03003KT P6SM SCT004
                       FM031700 36004KT P6SM BKN200=
201410030520 TAF KSEA 030520Z 0306/0412 36004KT P6SM SCT250 FM031200 03003KT
                       P6SM SCT004 SCT070 FM031700 36004KT P6SM
                       BKN200=
201410030300 KSEA 030300Z 0303/0406 36006KT P6SM SCT240 FM030400 03004KT P6SM
                       BKN090 BKN200 FM031200 03003KT P6SM SCT004
                       SCT070 FM031700 36004KT P6SM BKN200=
201410022320 TAF KSEA 022320Z 0300/0406 35006KT P6SM BKN100 FM030400 03004KT
                       P6SM BKN090 FM031200 03003KT P6SM SCT004
                       SCT070 FM031700 36004KT P6SM BKN200=
201410022108 TAF AMD KSEA 022108Z 0221/0324 35007KT P6SM BKN120 FM030300 03004KT
                       P6SM SCT080 FM030900 00000KT P6SM SCT060
                       FM031500 VRB03KT P6SM SCT200=
201410021735 TAF KSEA 021735Z 0218/0324 33005KT P6SM SCT150 FM022100 33005KT
                       P6SM BKN120 FM030300 03004KT P6SM SCT080
                       FM030900 00000KT P6SM SCT060 FM031500 VRB03KT
                       P6SM SCT200=
201410021441 TAF AMD KSEA 021441Z 0215/0318 VRB03KT P6SM FEW060 FM021800 34004KT
                       P6SM FEW060 SCT150 FM030900 00000KT P6SM
                       SCT060=
201410021132 TAF KSEA 021132Z 0212/0318 00000KT P6SM OVC050
                      TEMPO 0213/0217 2SM BCFG SCT005 SCT050 FM021800
                       34004KT P6SM SCT070 SCT150 FM030900 00000KT
                       3SM BR SCT005 BKN050=
201410020904 KSEA 020904Z 0209/0312 09005KT P6SM OVC050 FM021200 00000KT P6SM
                       BKN050
                      TEMPO 0212/0216 2SM BCFG SCT005 SCT050 FM021800
                       34004KT P6SM SCT070 SCT150 FM030900 00000KT
                       5SM BR BKN050=
201410020531 TAF KSEA 020531Z 0206/0312 05008KT P6SM BKN060 BKN180 FM021200
                       00000KT 1SM BCFG BKN003 FM021800 34004KT
                       P6SM SCT100 SCT250=
201410020305 TAF AMD KSEA 020305Z 0203/0306 32003KT P6SM BKN050 FM021200 00000KT
                       1SM BCFG BKN003 FM021800 34004KT P6SM SCT100
                       SCT250=
201410012320 TAF KSEA 012320Z 0200/0306 26006KT P6SM SCT025 FM020200 VRB04KT
                       P6SM SCT200 FM021200 00000KT 1SM BCFG BKN003
                       FM021800 34004KT P6SM SCT100 SCT250=
201410012102 TAF AMD KSEA 012102Z 0121/0224 26006KT P6SM SCT025 FM020200 32005KT
                       P6SM SCT200 FM020600 04003KT P6SM BKN200
                       FM021200 00000KT 1SM BCFG BKN003=
201410011732 TAF KSEA 011732Z 0118/0224 19004KT P6SM SCT008 BKN012 BKN035 FM012100
                       23006KT P6SM SCT035 SCT050 FM020200 32005KT
                       P6SM SCT200 FM020600 04003KT P6SM BKN200
                       FM021200 00000KT 1SM BCFG BKN003=
201410011444 TAF AMD KSEA 011444Z 0115/0218 19004KT P6SM SCT008 BKN012 BKN035
                       TEMPO 0115/0117 BKN008 BKN012 BKN035 FM011800
                       23006KT P6SM SCT035 SCT050 BKN200 FM012000
                       25008KT P6SM SCT070 BKN200 FM020100 32005KT
                       P6SM BKN200 FM020600 04005KT P6SM BKN200=
201410011140 TAF KSEA 011140Z 0112/0218 VRB03KT P6SM SCT025 SCT050 BKN200
                      TEMPO 0114/0118 BKN025 OVC050 FM011800 23006KT
                       P6SM SCT035 SCT050 BKN200 FM012000 25008KT
                       P6SM SCT070 BKN200 FM020100 32005KT P6SM
                       BKN200 FM020600 04005KT P6SM BKN200=
201410011014 TAF AMD KSEA 011014Z 0110/0212 VRB03KT P6SM SCT025 BKN050
                      TEMPO 0114/0118 BKN025 BKN050 FM011800 21008KT
                       P6SM BKN028 BKN200 FM012000 25008KT P6SM
                       SCT035 BKN200 FM020100 32006KT P6SM FEW050
                       BKN200 FM020300 VRB03KT P6SM BKN200=
201410010901 TAF AMD KSEA 010901Z 0109/0212 VRB03KT P6SM OVC025 FM011200 VRB03KT
                       P6SM OVC020 FM011800 21008KT P6SM BKN028
                       BKN200 FM012000 25008KT P6SM SCT035 BKN200
                       FM020100 32006KT P6SM FEW050 BKN200 FM020300
                       VRB03KT P6SM BKN200=
201410010540 TAF KSEA 010540Z 0106/0212 VRB05KT P6SM SCT022 BKN050
                      TEMPO 0106/0110 BKN022 BKN050 FM011000 VRB03KT
                       P6SM OVC020 FM011800 21008KT P6SM BKN028
                       BKN200 FM012000 25008KT P6SM SCT035 BKN200
                       FM020100 32006KT P6SM FEW050 BKN200 FM020300
                       VRB03KT P6SM BKN200=
201410010304 KSEA 010304Z 0103/0206 VRB04KT P6SM BKN070 FM011100 18005KT P6SM
                       BKN015 BKN040 FM011800 21006KT P6SM SCT020
                       BKN050 BKN200=