##########################################################
# Query made at 02/17/2025 19:04:17 UTC
# Time interval: from 03/01/2014 00:00  to 03/31/2014 23:59  UTC
##########################################################

##########################################################
# KSEA, Seattle, Seattle-Tacoma International Airport (United States)
# WMO index: 72793. WIGOS ID: 0-20000-0-72793
# Latitude 47-27-00N. Longitude 122-17-59W. Altitude 130 m.
##########################################################

###################################
#  METAR/SPECI from KSEA
###################################
201403312353 METAR KSEA 312353Z 30009KT 10SM FEW035 SCT075 BKN250 15/03 A2974 RMK AO2 SLP077 T01500033 10156 20094 56018=
201403312253 METAR KSEA 312253Z 31009KT 10SM FEW035 BKN250 15/03 A2975 RMK AO2 SLP080 T01500033=
201403312153 METAR KSEA 312153Z 30010KT 10SM FEW035 BKN250 14/03 A2977=
201403312053 METAR KSEA 312053Z 31007KT 10SM FEW035 BKN250 14/03 A2979 RMK AO2 SLP095 T01440033 58023=
201403311953 METAR KSEA 311953Z 36008KT 10SM BKN250 13/04 A2982 RMK AO2 SLP105 T01330039=
201403311853 METAR KSEA 311853Z 01011KT 10SM BKN230 11/03 A2984 RMK AO2 SLP113 T01110028=
201403311753 METAR KSEA 311753Z 01009KT 10SM BKN230 09/03 A2986 RMK AO2 SLP119 T00940028 10094 20022 58009=
201403311653 METAR KSEA 311653Z 34006KT 10SM BKN240 07/03 A2987 RMK AO2 SLP124 T00720033=
201403311553 METAR KSEA 311553Z 02006KT 10SM BKN240 06/03 A2988 RMK AO2 SLP126 T00560028=
201403311453 METAR KSEA 311453Z 36004KT 10SM FEW005 BKN230 04/03 A2989 RMK AO2 SLP129 T00440028 56014=
201403311353 METAR KSEA 311353Z 02007KT 10SM BKN230 03/02 A2990 RMK AO2 SLP133 T00330017=
201403311253 METAR KSEA 311253Z 03004KT 10SM BKN200 04/02 A2991 RMK AO2 SLP136 T00390017=
201403311153 METAR KSEA 311153Z 01004KT 10SM CLR 03/02 A2993 RMK AO2 SLP143 T00330017 10067 20028 56014=
201403311053 METAR KSEA 311053Z 00000KT 10SM CLR 03/02 A2994 RMK AO2 SLP147 T00330017=
201403310953 METAR KSEA 310953Z 00000KT 10SM CLR 05/02 A2996 RMK AO2 SLP153 T00500022=
201403310853 METAR KSEA 310853Z 00000KT 10SM CLR 06/03 A2997=
201403310753 METAR KSEA 310753Z 12004KT 10SM CLR 05/03 A2998 RMK AO2 SLP160 T00500028 401110050=
201403310653 METAR KSEA 310653Z 12005KT 10SM CLR 06/03 A2999 RMK AO2 SLP162 T00560033=
201403310553 METAR KSEA 310553Z 14005KT 10SM CLR 07/03 A3000 RMK AO2 SLP165 T00670033 10111 20061 50004=
201403310453 METAR KSEA 310453Z 13008KT 10SM CLR 07/04 A3000 RMK AO2 SLP167 T00720039=
201403310353 METAR KSEA 310353Z 17006KT 10SM SCT070 BKN080 07/03 A3000 RMK AO2 SLP166 T00720033=
201403310253 METAR KSEA 310253Z 17006KT 10SM FEW035 OVC070 08/03 A2999 RMK AO2 SLP163 T00830028 51004=
201403310153 METAR KSEA 310153Z 20008KT 10SM FEW035 BKN095 BKN120 09/03 A2999 RMK AO2 SLP162 T00890033=
201403310053 METAR KSEA 310053Z 20008KT 10SM SCT044 BKN080 OVC090 09/03 A2998 RMK AO2 SLP159 T00940028=
201403302353 METAR KSEA 302353Z 22008KT 190V250 10SM SCT035 BKN090 11/03 A2997 RMK AO2 SLP157 SHRA W T01060033 10111 20089 55001=
201403302253 METAR KSEA 302253Z 20012KT 10SM FEW035 SCT080 BKN090 10/03 A2997 RMK AO2 SLP155 T01000028=
201403302153 METAR KSEA 302153Z 21013KT 10SM FEW035 BKN090 10/04 A2997 RMK AO2 SLP156 T01000039=
201403302053 METAR KSEA 302053Z 22012KT 10SM FEW060 BKN110 10/04 A2998 RMK AO2 SLP158 T01000039 53008=
201403301953 METAR KSEA 301953Z 21015G21KT 10SM SCT040 BKN110 11/04 A2997 RMK AO2 SLP155 T01060039=
201403301853 METAR KSEA 301853Z 21014KT 10SM FEW026 BKN110 11/04 A2996 RMK AO2 SLP153 T01060039=
201403301753 METAR KSEA 301753Z 20014G21KT 10SM SCT024 BKN095 09/04 A2995 RMK AO2 SLP150 T00940039 10094 20056 50010=
201403301653 METAR KSEA 301653Z 20014G19KT 10SM FEW024 BKN080 BKN150 08/03 A2995 RMK AO2 SLP152 T00780033=
201403301553 METAR KSEA 301553Z 19011KT 10SM FEW030 BKN100 BKN150 07/04 A2994 RMK AO2 SLP146 T00670039=
201403301453 METAR KSEA 301453Z 18012KT 10SM SCT034 BKN110 06/04 A2992 RMK AO2 SLP140 T00610039 53014=
201403301353 METAR KSEA 301353Z 19012KT 10SM SCT038 BKN100 06/04 A2991 RMK AO2 SLP135 T00560039=
201403301253 METAR KSEA 301253Z 19011KT 10SM FEW009 SCT038 BKN100 06/04 A2989 RMK AO2 SLP129 T00610044=
201403301239 SPECI KSEA 301239Z 19013KT 10SM FEW009 SCT015 BKN038 06/04 A2989 RMK AO2=
201403301226 SPECI KSEA 301226Z 20012KT 10SM FEW011 BKN017 BKN100 07/04 A2989 RMK AO2=
201403301153 METAR KSEA 301153Z 20010KT 10SM SCT017 OVC100 07/04 A2988 RMK AO2 SLP125 70054 T00670044 10078 20067 53010=
201403301053 METAR KSEA 301053Z 19010KT 10SM SCT015 BKN045 07/05 A2987 RMK AO2 SLP120 T00720050=
201403301046 SPECI KSEA 301046Z 19011KT 10SM SCT015 BKN045 07/05 A2986 RMK AO2=
201403301039 SPECI KSEA 301039Z 20010KT 10SM BKN015 07/05 A2986 RMK AO2=
201403300953 METAR KSEA 300953Z 18012KT 10SM SCT016 BKN110 07/06 A2985=
201403300942 SPECI KSEA 300942Z 19010KT 10SM SCT016 SCT110 07/06 A2985 RMK AO2=
201403300853 METAR KSEA 300853Z 20010KT 10SM FEW012 BKN019 BKN025 07/06 A2985 RMK AO2 SLP114 T00720056 51010=
201403300753 METAR KSEA 300753Z 19011KT 7SM SCT014 BKN024 07/06 A2984 RMK AO2 SLP112 T00720061 401170072=
201403300719 SPECI KSEA 300719Z 18010KT 10SM SCT014 BKN024 BKN030 08/06 A2984 RMK AO2=
201403300653 METAR KSEA 300653Z 18010KT 10SM SCT017 BKN030 08/06 A2983 RMK AO2 SLP109 T00780056=
201403300553 METAR KSEA 300553Z 19011KT 10SM FEW018 BKN030 08/06 A2982 RMK AO2 RAB0458E20 SLP106 P0000 60022 T00780061 10117 20078 53012=
201403300453 METAR KSEA 300453Z 19014G19KT 10SM SCT014 BKN028 OVC042 08/06 A2981 RMK AO2 RAE18 SLP101 P0001 T00780061=
201403300353 METAR KSEA 300353Z 17014G17KT 9SM -RA BKN022 OVC034 08/06 A2979 RMK AO2 SLP095 P0011 T00830061=
201403300253 METAR KSEA 300253Z 19005KT 5SM RA BR BKN015 BKN022 OVC027 08/06 A2978 RMK AO2 SLP092 P0010 60010 T00780061 53004=
201403300216 SPECI KSEA 300216Z 21008KT 5SM -RA BR BKN015 BKN022 OVC036 09/07 A2978 RMK AO2 P0003=
201403300153 METAR KSEA 300153Z 20006KT 9SM -RA BKN032 BKN043 OVC050 09/06 A2977 RMK AO2 RAB39 SLP088 P0000 T00940061=
201403300053 METAR KSEA 300053Z 17012KT 10SM FEW027 BKN037 OVC045 11/05 A2977 RMK AO2 SLP087 T01060050=
201403292353 METAR KSEA 292353Z 19012G16KT 10SM SCT029 BKN037 OVC050 12/06 A2977 RMK AO2 RAB17E48 SLP088 P0000 60006 T01170061 10117 20072 58003=
201403292253 METAR KSEA 292253Z 19008KT 10SM BKN026 OVC037 11/06 A2978=
201403292153 METAR KSEA 292153Z 20009KT 10SM BKN019 OVC027 10/07 A2978 RMK AO2 RAE49 SLP092 P0000 T01000067=
201403292053 METAR KSEA 292053Z 17010KT 10SM -RA SCT019 OVC032 09/07 A2978=
201403291953 METAR KSEA 291953Z 18011KT 10SM FEW014 BKN037 OVC050 08/06 A2978 RMK AO2 RAE04 SLP091 P0000 T00830056=
201403291853 METAR KSEA 291853Z 18013G21KT 7SM -RA FEW014 SCT026 OVC035 07/06 A2977 RMK AO2 RAB05 SLP088 P0005 T00720056=
201403291753 METAR KSEA 291753Z 17014KT 10SM FEW018 SCT045 OVC100 08/06 A2975 RMK AO2 RAE29 SLP082 P0001 60026 T00780056 10089 20072 51013=
201403291653 METAR KSEA 291653Z 17012KT 10SM -RA FEW018 BKN037 OVC047 07/06 A2975 RMK AO2 PK WND 19027/1614 SLP081 P0006 T00720056=
201403291553 METAR KSEA 291553Z 17006KT 7SM -RA FEW018 BKN026 OVC032 08/06 A2974 RMK AO2 SLP078 P0016 T00780061=
201403291453 METAR KSEA 291453Z 18010G20KT 9SM -RA OVC036 09/04 A2971 RMK AO2 RAB16 SLP069 P0003 60003 T00890044 53001=
201403291353 METAR KSEA 291353Z 16009KT 10SM FEW047 SCT070 BKN100 08/05 A2971 RMK AO2 RAB14E23 SLP066 P0000 T00830050=
201403291253 METAR KSEA 291253Z 18008KT 10SM SCT040 BKN050 08/05 A2971 RMK AO2 SLP068 T00830050=
201403291153 METAR KSEA 291153Z 17007KT 10SM FEW040 BKN055 BKN100 08/06 A2971 RMK AO2 RAB21E36 SLP068 P0001 60001 70088 T00830056 10089 20072 56005=
201403291053 METAR KSEA 291053Z 15006KT 10SM FEW036 BKN055 OVC080 08/05 A2972=
201403290953 METAR KSEA 290953Z 15008KT 10SM FEW045 SCT070 BKN090 08/05 A2972 RMK AO2 SLP071 T00780050=
201403290853 METAR KSEA 290853Z 13006KT 10SM BKN050 BKN065 08/06 A2973 RMK AO2 SLP074 T00780056 58002=
201403290753 METAR KSEA 290753Z 14009KT 10SM FEW040 SCT070 08/06 A2973 RMK AO2 SLP075 T00780061 401170072=
201403290653 METAR KSEA 290653Z 16007KT 10SM FEW040 08/06 A2973 RMK AO2 SLP076 T00830061=
201403290553 METAR KSEA 290553Z 16004KT 10SM FEW040 SCT070 08/07 A2974 RMK AO2 SLP076 60023 T00830067 10117 20083 53004=
201403290453 METAR KSEA 290453Z 18009KT 10SM FEW030 BKN070 09/07 A2973 RMK AO2 RAE03 SLP074 P0000 T00940072=
201403290353 METAR KSEA 290353Z 18008KT 10SM -RA FEW019 BKN055 OVC070 09/08 A2972 RMK AO2 RAB44 SLP072 P0002 T00940083=
201403290348 SPECI KSEA 290348Z 18010KT 10SM -RA SCT023 BKN055 OVC070 09/08 A2972 RMK AO2 RAB44 P0001=
201403290329 SPECI KSEA 290329Z 17006KT 10SM SCT023 BKN028 BKN050 10/08 A2972 RMK AO2=
201403290253 METAR KSEA 290253Z 17006KT 10SM FEW025 SCT038 SCT080 09/07 A2971 RMK AO2 RAE05 SLP068 P0000 60021 T00940072 51003=
201403290153 METAR KSEA 290153Z 21014G21KT 5SM -RA FEW024 SCT032 BKN041 10/07 A2971 RMK AO2 WSHFT 0108 SLP067 P0020 T01000067=
201403290128 SPECI KSEA 290128Z 22012KT 10SM -RA FEW018 BKN036 BKN048 11/08 A2971 RMK AO2 WSHFT 0108 P0017=
201403290120 SPECI KSEA 290120Z 22010G18KT 3SM R16L/4000VP6000FT -RA SCT018 BKN034 OVC048 10/07 A2970 RMK AO2 P0016=
201403290111 SPECI KSEA 290111Z 24017G21KT 3SM R16L/4000VP6000FT +RA BR FEW013 BKN019 OVC048 10/08 A2971 RMK AO2 P0004=
201403290053 METAR KSEA 290053Z 20005KT 8SM -RA FEW025 BKN048 OVC060 11/09 A2971 RMK AO2 RAE2359B41 SLP066 P0001 T01110089=
201403282353 METAR KSEA 282353Z 15006KT 7SM -RA FEW020 BKN027 OVC047 10/08 A2970 RMK AO2 SLP064 P0006 60033 T01000083 10100 20089 56004=
201403282330 SPECI KSEA 282330Z 00000KT 3SM R16L/3500VP6000FT RA BR FEW005 BKN022 OVC029 09/08 A2971 RMK AO2 P0004=
201403282253 METAR KSEA 282253Z 17004KT 4SM -RA BR BKN031 OVC035 10/08 A2970 RMK AO2 SLP064 P0013 T01000083=
201403282153 METAR KSEA 282153Z 15005KT 5SM RA BR BKN040 OVC060 10/08 A2971 RMK AO2 RAE09B30 SLP067 P0001 T01000078=
201403282053 METAR KSEA 282053Z 12007KT 10SM -RA BKN034 OVC048 10/08 A2971 RMK AO2 SLP069 P0006 60013 T01000078 56012=
201403281953 METAR KSEA 281953Z 14014G20KT 9SM -RA FEW045 OVC055 10/08 A2971 RMK AO2 RAB25 SLP069 P0001 T01000078=
201403281853 METAR KSEA 281853Z 12009KT 10SM BKN045 OVC060 09/07 A2972 RMK AO2 RAE40 SLP072 P0006 T00940072=
201403281753 METAR KSEA 281753Z 18005KT 4SM RA BR FEW035 OVC046 09/07 A2975 RMK AO2 RAE01B27 SLP080 P0003 60031 T00890072 10089 20072 55003=
201403281653 METAR KSEA 281653Z 14006KT 10SM -RA OVC040 08/06 A2971 RMK AO2 RAB02E13B47 SLP069 P0001 T00830061=
201403281553 METAR KSEA 281553Z 11009KT 10SM BKN032 OVC042 08/06 A2974 RMK AO2 RAE51 SLP077 P0003 T00780056=
201403281453 METAR KSEA 281453Z 10008KT 6SM -RA BR FEW026 OVC038 07/06 A2976 RMK AO2 SLP083 P0011 60024 T00720056 56016=
201403281353 METAR KSEA 281353Z 13013KT 5SM -RA BR FEW026 OVC037 07/06 A2977 RMK AO2 SLP088 P0009 T00720056=
201403281253 METAR KSEA 281253Z 11011KT 9SM -RA OVC040 07/05 A2979 RMK AO2 SLP094 P0004 T00720050=
201403281153 METAR KSEA 281153Z 14006KT 10SM -RA FEW035 OVC048 08/05 A2981 RMK AO2 RAB07E20B48 SLP100 P0000 60000 70001 T00780050 10089 20072 56026=
201403281053 METAR KSEA 281053Z 13007KT 10SM FEW050 OVC085 08/05 A2982 RMK AO2 SLP106 T00780050=
201403280953 METAR KSEA 280953Z 11005KT 10SM OVC049 08/05 A2985 RMK AO2 SLP116 T00830050=
201403280853 METAR KSEA 280853Z 13006KT 10SM SCT037 OVC055 08/06 A2988 RMK AO2 SLP126 T00830056 58003=
201403280753 METAR KSEA 280753Z 15006KT 10SM FEW032 BKN050 08/06 A2989 RMK AO2 SLP129 T00830056 401220067=
201403280726 SPECI KSEA 280726Z 16006KT 10SM BKN034 BKN045 OVC050 09/06 A2990 RMK AO2=
201403280653 METAR KSEA 280653Z 16005KT 10SM FEW020 BKN026 BKN045 08/05 A2990 RMK AO2 SLP131 T00780050=
201403280553 METAR KSEA 280553Z 18010KT 10SM BKN047 08/06 A2989 RMK AO2 SLP129 T00830056 10111 20083 51014=
201403280537 SPECI KSEA 280537Z 19008KT 10SM BKN047 09/06 A2989 RMK AO2=
201403280453 METAR KSEA 280453Z 18010KT 10SM BKN017 OVC046 09/06 A2988 RMK AO2 SLP126 T00890061=
201403280423 SPECI KSEA 280423Z 19006KT 10SM BKN023 BKN044 BKN200 09/06 A2987 RMK AO2=
201403280353 METAR KSEA 280353Z 19006KT 10SM FEW020 SCT044 BKN200 09/06 A2987 RMK AO2 SLP120 T00940056=
201403280253 METAR KSEA 280253Z 21009KT 10SM SCT045 SCT200 09/05 A2985 RMK AO2 SLP115 T00940050 53009=
201403280153 METAR KSEA 280153Z 22011KT 10SM FEW030 SCT070 SCT200 11/05 A2984 RMK AO2 SLP110 T01060050=
201403280053 METAR KSEA 280053Z 20008KT 10SM FEW030 SCT075 BKN200 11/07 A2983 RMK AO2 SLP107 T01060067=
201403272353 METAR KSEA 272353Z 22011KT 10SM FEW022 SCT055 BKN070 11/06 A2982 RMK AO2 SLP105 60000 T01060061 10122 20083 53014=
201403272253 METAR KSEA 272253Z 21009KT 10SM FEW021 BKN033 BKN049 11/06 A2980 RMK AO2 RAB22E36 SLP100 P0000 T01110061=
201403272243 SPECI KSEA 272243Z 22010G16KT 10SM FEW022 BKN031 OVC040 12/06 A2980 RMK AO2 RAB22E36 P0000=
201403272153 METAR KSEA 272153Z 18009KT 10SM SCT043 BKN050 12/06 A2978 RMK AO2 SLP092 T01170056=
201403272053 METAR KSEA 272053Z 19006KT 10SM FEW017 SCT034 BKN070 11/05 A2978 RMK AO2 SLP091 SHRA S-W T01060050 51014=
201403272029 SPECI KSEA 272029Z 18009KT 10SM SCT017 BKN033 BKN070 11/06 A2977 RMK AO2=
201403271953 METAR KSEA 271953Z 19004KT 10SM SCT013 BKN022 BKN070 09/06 A2977 RMK AO2 SLP089 T00890061=
201403271853 METAR KSEA 271853Z 21008KT 10SM SCT013 BKN027 BKN070 09/06 A2976 RMK AO2 SLP084 T00940061=
201403271753 METAR KSEA 271753Z 18006KT 10SM FEW008 BKN022 OVC031 09/06 A2974 RMK AO2 SLP077 60001 T00890061 10089 20067 53025=
201403271734 SPECI KSEA 271734Z 17005KT 10SM FEW006 BKN016 BKN028 08/06 A2973 RMK AO2 $=
201403271653 METAR KSEA 271653Z 00000KT 5SM BR SCT006 BKN011 OVC022 08/06 A2971 RMK AO2 DZE52 SLP069 P0001 T00780061=
201403271633 SPECI KSEA 271633Z 00000KT 5SM -DZ BR SCT008 BKN013 OVC022 08/06 A2970 RMK AO2 P0001=
201403271600 SPECI KSEA 271600Z 17003KT 5SM -DZ BR BKN011 OVC019 07/06 A2969 RMK AO2 P0000=
201403271553 METAR KSEA 271553Z 00000KT 4SM -DZ BR SCT010 OVC016 07/06 A2969 RMK AO2 DZB49 SLP060 P0000 T00720056=
201403271453 METAR KSEA 271453Z 14005KT 10SM SCT017 OVC024 07/05 A2966 RMK AO2 SLP053 T00720050 53016=
201403271408 SPECI KSEA 271408Z 00000KT 10SM OVC028 07/06 A2965 RMK AO2=
201403271353 METAR KSEA 271353Z 00000KT 10SM OVC030 07/05 A2964 RMK AO2 SLP045 T00720050=
201403271253 METAR KSEA 271253Z 11003KT 10SM OVC030 07/05 A2962=
201403271153 METAR KSEA 271153Z 00000KT 10SM OVC039 07/05 A2962 RMK AO2 RAB09E20 SLP035 P0000 60000 70012 T00670050 10072 20067 53008=
201403271053 METAR KSEA 271053Z 18003KT 10SM OVC031 07/05 A2960 RMK AO2 SLP031 T00720050=
201403270953 METAR KSEA 270953Z 17003KT 10SM FEW030 OVC045 07/05 A2960 RMK AO2 SLP029 T00720050=
201403270853 METAR KSEA 270853Z 00000KT 10SM FEW030 OVC038 07/06 A2959 RMK AO2 SLP027 60000 T00670056 51007=
201403270753 METAR KSEA 270753Z 00000KT 10SM BKN033 OVC043 07/06 A2958 RMK AO2 RAB26E30 SLP025 P0000 T00720056 401110056=
201403270653 METAR KSEA 270653Z 18005KT 10SM BKN033 OVC050 07/05 A2958 RMK AO2 SLP024 T00720050=
201403270553 METAR KSEA 270553Z 19007KT 10SM BKN038 BKN110 07/05 A2957 RMK AO2 SLP020 60008 T00720050 10094 20072 51013=
201403270453 METAR KSEA 270453Z 17005KT 10SM FEW038 BKN110 07/06 A2956 RMK AO2 RAE01 SLP017 P0000 T00720056=
201403270353 METAR KSEA 270353Z 18006KT 7SM -RA OVC037 08/06 A2955 RMK AO2 RAB38 SLP015 P0003 T00780061=
201403270253 METAR KSEA 270253Z 18007KT 10SM FEW021 BKN055 OVC085 08/06 A2953 RMK AO2 RAB08E35 SLP007 P0001 60005 T00830061 55004=
201403270222 SPECI KSEA 270222Z 17006KT 7SM -RA BKN022 OVC035 09/07 A2953 RMK AO2 RAB08 P0001=
201403270153 METAR KSEA 270153Z 14007KT 10SM FEW022 BKN040 OVC070 09/07 A2953 RMK AO2 SLP007 T00890072=
201403270053 METAR KSEA 270053Z 15005KT 10SM FEW015 OVC038 09/06 A2953 RMK AO2 RAE28 SLP008 P0004 T00890056=
201403270016 SPECI KSEA 270016Z 19004KT 6SM -RA BR SCT014 BKN030 OVC047 09/07 A2954 RMK AO2 P0004=
201403262353 METAR KSEA 262353Z 21009KT 9SM -RA SCT018 BKN027 OVC032 09/07 A2954 RMK AO2 RAB30 SLP011 P0001 60002 T00940067 10111 20078 55003=
201403262338 SPECI KSEA 262338Z 21008KT 10SM -RA SCT019 BKN025 OVC034 10/07 A2954 RMK AO2 RAB30 P0000=
201403262253 METAR KSEA 262253Z 00000KT 10SM FEW041 OVC055 10/06 A2954 RMK AO2 RAE06 SLP009 P0000 T01000056=
201403262153 METAR KSEA 262153Z 20005KT 10SM -RA FEW023 OVC050 10/06 A2954 RMK AO2 RAB39 SLP011 P0000 T01000056=
201403262053 METAR KSEA 262053Z 19007KT 10SM SCT023 BKN042 OVC200 11/05 A2955 RMK AO2 SLP014 60001 T01110050 58011=
201403261953 METAR KSEA 261953Z 00000KT 10SM FEW016 BKN040 OVC055 10/06 A2957 RMK AO2 SLP018 T01000056=
201403261853 METAR KSEA 261853Z 00000KT 10SM FEW015 BKN039 OVC055 09/06 A2958 RMK AO2 RAE50 SLP023 P0001 T00940056=
201403261753 METAR KSEA 261753Z 08003KT 9SM -RA FEW025 BKN042 OVC055 08/05 A2959 RMK AO2 SLP026 P0002 60002 T00780050 10078 20056 50002=
201403261653 METAR KSEA 261653Z 16004KT 8SM -RA BKN038 OVC050 07/04 A2959 RMK AO2 RAB44 SLP026 P0000 T00720044=
201403261553 METAR KSEA 261553Z 13004KT 10SM FEW037 BKN045 OVC230 07/04 A2958 RMK AO2 SLP023 T00720039=
201403261453 METAR KSEA 261453Z 13004KT 10SM FEW040 SCT120 BKN230 06/03 A2958 RMK AO2 SLP023 T00610033 56008=
201403261353 METAR KSEA 261353Z 11006KT 10SM FEW040 SCT120 BKN200 06/03 A2959 RMK AO2 SLP025 T00610033=
201403261253 METAR KSEA 261253Z 12005KT 10SM FEW035 SCT150 06/03 A2959 RMK AO2 SLP027 T00610033=
201403261153 METAR KSEA 261153Z 16006KT 10SM SCT050 06/04 A2960 RMK AO2 SLP032 60003 70018 T00560039 10078 20056 58010=
201403261053 METAR KSEA 261053Z 18005KT 10SM SCT031 BKN038 OVC060 07/05 A2962 RMK AO2 SLP036 T00670050=
201403260953 METAR KSEA 260953Z 20005KT 10SM BKN034 OVC042 07/04 A2963 RMK AO2 SLP040 T00720044=
201403260853 METAR KSEA 260853Z 21005KT 10SM BKN036 07/04 A2964 RMK AO2 RAB01E18 SLP042 P0002 60003 T00720044 57005=
201403260753 METAR KSEA 260753Z 17006KT 10SM BKN036 OVC048 08/05 A2964 RMK AO2 SLP043 T00780050 401390067=
201403260653 METAR KSEA 260653Z 17009KT 10SM BKN040 BKN049 07/06 A2965 RMK AO2 RAE13 SLP046 P0001 T00720056=
201403260553 METAR KSEA 260553Z 21011G18KT 10SM -RA FEW022 BKN032 OVC060 07/05 A2965 RMK AO2 RAB31 SLP047 P0002 60002 T00720050 10128 20072 51020=
201403260453 METAR KSEA 260453Z 19014G19KT 10SM SCT022 BKN027 OVC044 09/05 A2964 RMK AO2 SLP044 T00890050=
201403260447 SPECI KSEA 260447Z 18012G19KT 10SM SCT022 BKN026 OVC040 09/05 A2964 RMK AO2=
201403260353 METAR KSEA 260353Z 20016G23KT 10SM FEW025 BKN032 09/05 A2961 RMK AO2 PK WND 21027/0327 SLP033 T00890050=
201403260253 METAR KSEA 260253Z 20017G27KT 10SM SCT025 BKN030 OVC045 10/06 A2959 RMK AO2 PK WND 20034/0206 RAB0155E17B38E51 SLP027 P0000 60000 T01000061 53017=
201403260225 SPECI KSEA 260225Z 20018G29KT 10SM BKN027 OVC035 11/06 A2957 RMK AO2 PK WND 20034/0206 RAB0155E17 P0000=
201403260153 METAR KSEA 260153Z 19020G31KT 10SM BKN032 OVC047 11/06 A2956 RMK AO2 PK WND 19037/0133 RAB04E35 SLP016 P0000 T01110056=
201403260053 METAR KSEA 260053Z 19018G25KT 10SM SCT034 BKN043 OVC050 12/06 A2954 RMK AO2 PK WND 17032/0007 RAB20E41 SLP010 P0000 T01170056=
201403252353 METAR KSEA 252353Z 18017G25KT 10SM SCT039 BKN055 OVC200 13/07 A2954 RMK AO2 PK WND 18028/2336 SLP009 RAB2237E26 P0000 60007 T01280067 10133 20094 56023 $=
201403252253 METAR KSEA 252253Z 21016G27KT 4SM R16L/5500VP6000FT HZ SCT032CB BKN050 OVC200 12/08 A2956 RMK AO2 PK WND 21027/2249 RAB37RAEMM SLP015 CB OHD MOV NE P0003 T01170078=
201403252153 METAR KSEA 252153Z 19012G17KT 10SM SCT044CB SCT090 BKN200 12/09 A2958 RMK AO2 PK WND 17026/2058 RAB11E28 SLP022 CB W-N MOV NE P0001 T01220089=
201403252053 METAR KSEA 252053Z 19016G20KT 10SM SCT038 BKN065 BKN080 11/07 A2961 RMK AO2 RAE25 SLP032 SHRA NE-SE-S P0002 60003 T01110072 56014=
201403251953 METAR KSEA 251953Z 23008KT 7SM -RA BKN038 OVC050 11/08 A2962 RMK AO2 RAE00B30 SLP037 P0001 T01060078=
201403251853 METAR KSEA 251853Z 17006KT 10SM -RA BKN050 BKN075 11/07 A2962 RMK AO2 SLP037 P0000 T01110072=
201403251753 METAR KSEA 251753Z 00000KT 9SM -RA BKN048 OVC075 09/07 A2965 RMK AO2 SLP046 P0001 60006 T00940072 10139 20083 56033=
201403251653 METAR KSEA 251653Z 00000KT 10SM -RA BKN050 OVC060 09/07 A2966=
201403251553 METAR KSEA 251553Z 09007KT 10SM -RA BKN048 OVC070 09/06 A2969=
201403251453 METAR KSEA 251453Z 13006KT 9SM -RA BKN048 OVC060 09/06 A2975 RMK AO2 SLP079 P0003 60003 T00890056 58001=
201403251353 METAR KSEA 251353Z 00000KT 8SM -RA BKN049 OVC060 09/04 A2976 RMK AO2 RAB32 SLP085 P0000 T00940039=
201403251253 METAR KSEA 251253Z 00000KT 10SM BKN060 OVC080 11/02 A2975 RMK AO2 RAB35E51 SLP079 P0000 T01060022=
201403251153 METAR KSEA 251153Z 00000KT 10SM BKN080 OVC100 12/01 A2975 RMK AO2 PRESFR SLP079 T01170006 10133 20106 58035=
201403251053 METAR KSEA 251053Z 00000KT 10SM OVC095 12/00 A2979 RMK AO2 SLP093 T01170000=
201403250953 METAR KSEA 250953Z 00000KT 10SM OVC100 12/M01 A2982 RMK AO2 SLP103 T01171011=
201403250853 METAR KSEA 250853Z 09007KT 10SM OVC100 12/M01 A2985 RMK AO2 SLP114 T01221011 58023=
201403250753 METAR KSEA 250753Z 12004KT 10SM BKN090 OVC110 12/M01 A2989 RMK AO2 SLP129 T01171006 401890028=
201403250653 METAR KSEA 250653Z 15006KT 10SM BKN110 OVC200 12/M01 A2991 RMK AO2 SLP134 T01221011=
201403250553 METAR KSEA 250553Z 15004KT 10SM SCT110 BKN220 13/01 A2992 RMK AO2 SLP138 T01330006 10178 20117 51007=
201403250453 METAR KSEA 250453Z 16003KT 10SM FEW110 OVC220 13/04 A2992 RMK AO2 SLP138 T01280039=
201403250353 METAR KSEA 250353Z 17005KT 10SM OVC240 14/03 A2992 RMK AO2 SLP140 T01390033=
201403250253 METAR KSEA 250253Z 15004KT 10SM OVC240 16/03 A2990 RMK AO2 SLP132 T01560028 58015=
201403250153 METAR KSEA 250153Z 00000KT 10SM BKN250 17/03 A2993=
201403250053 METAR KSEA 250053Z 26004KT 10SM BKN250 17/03 A2994 RMK AO2 SLP145 T01720033=
201403242353 METAR KSEA 242353Z 25005KT 10SM BKN250 18/02 A2994 RMK AO2 SLP146 T01830022 10189 20117 56028=
201403242253 METAR KSEA 242253Z 30005KT 10SM BKN250 18/02 A2997 RMK AO2 SLP155 T01830022=
201403242153 METAR KSEA 242153Z 31006KT 10SM BKN250 17/02 A3000 RMK AO2 SLP164 T01670022=
201403242053 METAR KSEA 242053Z 30005KT 10SM FEW180 BKN250 16/02 A3003 RMK AO2 SLP174 T01610017 58022=
201403241953 METAR KSEA 241953Z 32005KT 10SM BKN250 15/04 A3005 RMK AO2 SLP183 T01500039=
201403241853 METAR KSEA 241853Z 29003KT 10SM BKN250 14/04 A3008 RMK AO2 SLP192 T01390044=
201403241753 METAR KSEA 241753Z VRB03KT 10SM SCT240 12/04 A3009 RMK AO2 SLP198 T01170039 10117 20028 56011=
201403241653 METAR KSEA 241653Z 01003KT 10SM SCT240 10/03 A3010 RMK AO2 SLP201 T01000028=
201403241553 METAR KSEA 241553Z 34005KT 10SM FEW120 BKN240 07/02 A3011 RMK AO2 SLP205 T00670022=
201403241453 METAR KSEA 241453Z 02003KT 10SM FEW120 BKN220 05/02 A3013 RMK AO2 SLP210 T00500022 56017=
201403241353 METAR KSEA 241353Z 35008KT 10SM FEW110 BKN220 03/02 A3014=
201403241253 METAR KSEA 241253Z 36005KT 10SM FEW110 SCT200 03/02 A3016 RMK AO2 SLP221 T00330017=
201403241153 METAR KSEA 241153Z 00000KT 10SM SCT110 OVC200 05/02 A3018 RMK AO2 SLP226 T00500022 10072 20044 58015=
201403241053 METAR KSEA 241053Z 02006KT 10SM SCT110 BKN200 06/02 A3019 RMK AO2 SLP230 T00560022=
201403240953 METAR KSEA 240953Z 33003KT 10SM FEW120 05/02 A3022 RMK AO2 SLP240 T00500022=
201403240853 METAR KSEA 240853Z 03005KT 10SM CLR 07/03 A3022 RMK AO2 SLP241 T00670028 58016=
201403240753 METAR KSEA 240753Z 33004KT 10SM CLR 06/02 A3024 RMK AO2 SLP249 T00610022 401280044=
201403240653 METAR KSEA 240653Z 03008KT 10SM CLR 07/02 A3025 RMK AO2 SLP251 T00720022=
201403240553 METAR KSEA 240553Z 01006KT 10SM CLR 06/02 A3027 RMK AO2 SLP258 T00560022 10128 20056 50000=
201403240453 METAR KSEA 240453Z 36006KT 10SM CLR 06/02 A3027 RMK AO2 SLP258 T00610022=
201403240353 METAR KSEA 240353Z 34005KT 10SM CLR 07/01 A3027 RMK AO2 SLP260 T00720011=
201403240253 METAR KSEA 240253Z 34006KT 10SM FEW220 08/01 A3027 RMK AO2 SLP258 T00780006 56007=
201403240153 METAR KSEA 240153Z 31006KT 10SM FEW220 10/01 A3027=
201403240053 METAR KSEA 240053Z 30006KT 10SM FEW040 11/01 A3028 RMK AO2 SLP260 T01110011=
201403232353 METAR KSEA 232353Z 29006KT 10SM SCT200 12/02 A3029 RMK AO2 SLP264 T01220017 10122 20083 58011=
201403232253 METAR KSEA 232253Z 29007KT 10SM FEW040 SCT200 11/02 A3030 RMK AO2 SLP269 T01110017=
201403232153 METAR KSEA 232153Z 30009KT 10SM FEW040 SCT200 11/02 A3031 RMK AO2 SLP271 T01110017=
201403232053 METAR KSEA 232053Z 29007G14KT 10SM FEW040 SCT200 11/02 A3032 RMK AO2 SLP275 T01060017 58005=
201403231953 METAR KSEA 231953Z 31007KT 10SM FEW040 10/02 A3033 RMK AO2 SLP280 T01000017=
201403231853 METAR KSEA 231853Z 33007KT 10SM FEW090 09/01 A3034 RMK AO2 SLP284 T00940006=
201403231753 METAR KSEA 231753Z 03006KT 10SM FEW090 08/01 A3034 RMK AO2 SLP281 T00830006 10089 20044 50007=
201403231653 METAR KSEA 231653Z 35008KT 10SM FEW030 SCT090 07/01 A3034 RMK AO2 SLP282 T00720011 $=
201403231553 METAR KSEA 231553Z 03010KT 10SM BKN030 06/02 A3032 RMK AO2 SLP277 T00560017=
201403231453 METAR KSEA 231453Z 03008KT 10SM BKN034 05/02 A3032=
201403231353 METAR KSEA 231353Z 03007KT 10SM SCT045 BKN060 04/02 A3030 RMK AO2 SLP270 T00440017=
201403231253 METAR KSEA 231253Z 02006KT 10SM SCT045 BKN060 05/02 A3029 RMK AO2 SLP265 T00500022=
201403231153 METAR KSEA 231153Z 36006KT 10SM SCT047 BKN060 06/02 A3028 RMK AO2 SLP262 T00560022 10067 20050 53002=
201403231053 METAR KSEA 231053Z 04005KT 10SM SCT047 BKN060 06/02 A3027 RMK AO2 SLP259 T00560017=
201403230953 METAR KSEA 230953Z 36005KT 10SM SCT045 BKN055 06/02 A3028 RMK AO2 SLP261 T00560022=
201403230853 METAR KSEA 230853Z 00000KT 10SM FEW043 BKN050 06/02 A3028 RMK AO2 SLP260 T00610022 53010=
201403230753 METAR KSEA 230753Z 00000KT 10SM BKN040 06/03 A3027 RMK AO2 SLP258 T00610028 401110011=
201403230653 METAR KSEA 230653Z 34003KT 10SM FEW070 SCT120 06/02 A3025 RMK AO2 SLP253 T00560022=
201403230553 METAR KSEA 230553Z 32005KT 10SM FEW070 SCT120 BKN200 06/02 A3025 RMK AO2 SLP251 T00610022 10111 20061 53011=
201403230453 METAR KSEA 230453Z 32007KT 10SM SCT070 OVC200 07/02 A3024 RMK AO2 SLP248 T00720017=
201403230353 METAR KSEA 230353Z 34005KT 10SM SCT070 OVC200 08/M01 A3022 RMK AO2 SLP243 T00781006=
201403230253 METAR KSEA 230253Z 34005KT 10SM SCT070 BKN085 OVC200 09/M02 A3022=
201403230153 METAR KSEA 230153Z 01007KT 10SM SCT070 BKN085 OVC200 10/M02 A3021 RMK AO2 SLP238 T01001022=
201403230053 METAR KSEA 230053Z 01004KT 10SM SCT095 OVC200 11/M03 A3022 RMK AO2 SLP242 T01111028=
201403222353 METAR KSEA 222353Z 00000KT 10SM SCT080 OVC150 11/M03 A3024 RMK AO2 SLP249 T01111028 10111 20072 56016=
201403222253 METAR KSEA 222253Z 25004KT 10SM FEW090 OVC150 11/M03 A3025 RMK AO2 SLP253 T01061033=
201403222153 METAR KSEA 222153Z 26006KT 10SM FEW100 BKN150 11/M05 A3027=
201403222053 METAR KSEA 222053Z 23003KT 10SM FEW100 BKN150 10/M02 A3029 RMK AO2 SLP265 T01001017 58012=
201403221953 METAR KSEA 221953Z 27004KT 10SM FEW050 BKN100 OVC190 09/M01 A3030 RMK AO2 SLP270 T00941006=
201403221853 METAR KSEA 221853Z 00000KT 10SM FEW050 BKN100 OVC190 08/M01 A3031 RMK AO2 SLP274 T00781011=
201403221753 METAR KSEA 221753Z 13003KT 10SM FEW070 BKN190 07/M02 A3032 RMK AO2 SLP277 T00671017 10072 20011 53002=
201403221653 METAR KSEA 221653Z 15005KT 10SM BKN220 05/M01 A3032 RMK AO2 SLP276 T00501006=
201403221553 METAR KSEA 221553Z 15005KT 10SM BKN220 03/M01 A3031=
201403221453 METAR KSEA 221453Z 00000KT 10SM BKN220 01/M01 A3032 RMK AO2 SLP276 T00111011 51001=
201403221353 METAR KSEA 221353Z 13004KT 10SM FEW250 01/M02 A3032 RMK AO2 SLP275 T00111022=
201403221253 METAR KSEA 221253Z 13003KT 10SM CLR 02/M02 A3032 RMK AO2 SLP275 T00221022=
201403221153 METAR KSEA 221153Z 11004KT 10SM CLR 02/M02 A3031 RMK AO2 SLP274 T00171017 10056 20011 58001=
201403221053 METAR KSEA 221053Z 09005KT 10SM CLR 02/M01 A3031 RMK AO2 SLP274 T00221011=
201403220953 METAR KSEA 220953Z 00000KT 10SM CLR 03/00 A3032 RMK AO2 SLP276 T00280000=
201403220853 METAR KSEA 220853Z 07003KT 10SM CLR 04/00 A3032 RMK AO2 SLP275 T00390000 55003=
201403220753 METAR KSEA 220753Z 04004KT 10SM CLR 04/00 A3031 RMK AO2 SLP273 T00440000 401060028=
201403220653 METAR KSEA 220653Z 05006KT 10SM CLR 05/00 A3032 RMK AO2 SLP277 T00500000=
201403220553 METAR KSEA 220553Z 02007KT 10SM CLR 06/00 A3033 RMK AO2 SLP278 T00560000 10106 20044 53007=
201403220453 METAR KSEA 220453Z 02006KT 10SM CLR 05/M01 A3032 RMK AO2 SLP275 T00501006=
201403220353 METAR KSEA 220353Z 36008KT 10SM FEW030 05/M01 A3031 RMK AO2 SLP274 T00501011=
201403220253 METAR KSEA 220253Z 35009KT 10SM FEW030 06/M02 A3030 RMK AO2 SLP271 T00611017 53002=
201403220153 METAR KSEA 220153Z 35009KT 10SM FEW030 08/M01 A3030 RMK AO2 SLP268 T00831011=
201403220053 METAR KSEA 220053Z 36009KT 10SM FEW030 10/M02 A3030 RMK AO2 SLP268 T01001022=
201403212353 METAR KSEA 212353Z 36011KT 10SM FEW030 11/M04 A3030 RMK AO2 SLP269 T01061039 10106 20067 56008=
201403212253 METAR KSEA 212253Z 34012KT 10SM SCT030 10/00 A3030 RMK AO2 SLP269 T01000000=
201403212153 METAR KSEA 212153Z 34010KT 10SM SCT030 10/00 A3030 RMK AO2 SLP270 T01000000=
201403212053 METAR KSEA 212053Z 34013G18KT 10SM FEW026 SCT060 SCT210 10/01 A3032 RMK AO2 SLP276 T01000011 58006=
201403211953 METAR KSEA 211953Z 01006KT 10SM FEW024 SCT050 SCT200 09/00 A3033 RMK AO2 SLP280 T00890000=
201403211853 METAR KSEA 211853Z 01010G15KT 10SM FEW020 SCT050 SCT200 08/00 A3034 RMK AO2 SLP282 T00830000=
201403211753 METAR KSEA 211753Z 01008KT 10SM FEW020 SCT060 BKN200 07/01 A3034 RMK AO2 SLP283 T00720011 10072 20028 50000=
201403211653 METAR KSEA 211653Z 04008KT 10SM FEW020 SCT070 SCT180 06/00 A3034 RMK AO2 SLP284 T00610000=
201403211553 METAR KSEA 211553Z 04003KT 10SM FEW020 SCT060 BKN170 04/01 A3034 RMK AO2 SLP283 T00390006=
201403211453 METAR KSEA 211453Z 07003KT 10SM FEW027 BKN060 BKN150 03/01 A3034 RMK AO2 SLP283 T00330011 51000=
201403211353 METAR KSEA 211353Z 03007KT 10SM FEW027 BKN060 03/01 A3034 RMK AO2 SLP282 T00330006=
201403211253 METAR KSEA 211253Z 03007KT 10SM SCT050 04/01 A3034 RMK AO2 SLP283 T00390011=
201403211153 METAR KSEA 211153Z 36005KT 10SM FEW050 03/01 A3034 RMK AO2 SLP282 T00280006 10067 20028 58005=
201403211053 METAR KSEA 211053Z 05006KT 10SM SCT050 04/01 A3034 RMK AO2 SLP283 T00390011=
201403211026 SPECI KSEA 211026Z 03007KT 10SM FEW024 BKN050 04/01 A3035 RMK AO2=
201403210953 METAR KSEA 210953Z 01004KT 10SM BKN026 03/01 A3035 RMK AO2 SLP287 T00330006=
201403210853 METAR KSEA 210853Z 05005KT 10SM FEW020 SCT070 05/01 A3035 RMK AO2 SLP287 T00500006 58002=
201403210753 METAR KSEA 210753Z 04008KT 10SM FEW020 SCT080 05/01 A3036 RMK AO2 SLP289 T00500011 401110017=
201403210653 METAR KSEA 210653Z 05008KT 10SM BKN065 OVC085 06/01 A3037 RMK AO2 SLP291 T00560006=
201403210553 METAR KSEA 210553Z 06007KT 10SM BKN080 07/M01 A3036 RMK AO2 SLP289 T00671006 10100 20067 51011=
201403210453 METAR KSEA 210453Z 05010KT 10SM BKN055 BKN080 07/M01 A3035=
201403210353 METAR KSEA 210353Z 02009KT 10SM BKN080 07/M03 A3034 RMK AO2 SLP282 T00721028=
201403210253 METAR KSEA 210253Z 03010KT 10SM SCT075 08/M01 A3033 RMK AO2 SLP278 T00781011 52003=
201403210153 METAR KSEA 210153Z 36007KT 10SM FEW045 BKN075 09/M02 A3032 RMK AO2 SLP277 T00891017=
201403210053 METAR KSEA 210053Z 35006KT 10SM FEW045 BKN070 10/M01 A3032 RMK AO2 SLP276 T01001011=
201403202353 METAR KSEA 202353Z 31008KT 10SM SCT049 10/M02 A3032 RMK AO2 SLP275 T01001017 10111 20056 56005=
201403202253 METAR KSEA 202253Z 00000KT 10SM FEW035 SCT049 10/M04 A3032 RMK AO2 SLP275 T01001039=
201403202153 METAR KSEA 202153Z 00000KT 10SM FEW038 SCT047 09/M03 A3032 RMK AO2 SLP277 T00891028=
201403202053 METAR KSEA 202053Z 00000KT 10SM SCT030 10/M01 A3033 RMK AO2 SLP280 T01001011 58001=
201403201953 METAR KSEA 201953Z VRB04KT 10SM SCT024 08/01 A3034 RMK AO2 SLP284 T00780006=
201403201945 SPECI KSEA 201945Z VRB05KT 10SM SCT024 08/01 A3034 RMK AO2=
201403201853 METAR KSEA 201853Z 20006KT 10SM BKN018 07/01 A3034 RMK AO2 SLP283 T00670011=
201403201753 METAR KSEA 201753Z 19006KT 10SM BKN016 06/02 A3033 RMK AO2 SLP281 T00560017 10056 20022 51007=
201403201748 SPECI KSEA 201748Z 22004KT 10SM BKN016 05/01 A3034 RMK AO2=
201403201653 METAR KSEA 201653Z 19006KT 10SM OVC014 04/01 A3032 RMK AO2 SLP278 T00440011=
201403201553 METAR KSEA 201553Z 19004KT 10SM BKN014 04/01 A3031 RMK AO2 SLP275 T00390011=
201403201453 METAR KSEA 201453Z 16006KT 10SM BKN014 03/01 A3030 RMK AO2 SLP269 T00280006 51006=
201403201353 METAR KSEA 201353Z 16005KT 10SM BKN014 02/00 A3029 RMK AO2 SLP266 T00220000=
201403201349 SPECI KSEA 201349Z 15006KT 10SM BKN014 02/01 A3029 RMK AO2=
201403201253 METAR KSEA 201253Z 15006KT 10SM SCT014 02/00 A3028 RMK AO2 SLP262 T00170000=
201403201234 SPECI KSEA 201234Z 14006KT 10SM SCT014 02/00 A3027 RMK AO2=
201403201153 METAR KSEA 201153Z 15005KT 10SM BKN013 02/00 A3026 RMK AO2 SLP256 70002 T00220000 10050 20017 53006=
201403201127 SPECI KSEA 201127Z 15006KT 10SM BKN013 02/00 A3026 RMK AO2=
201403201053 METAR KSEA 201053Z 15006KT 10SM SCT015 02/00 A3026 RMK AO2 SLP254 T00220000=
201403200953 METAR KSEA 200953Z 16006KT 10SM FEW018 SCT070 02/00 A3025 RMK AO2 SLP252 T00220000=
201403200853 METAR KSEA 200853Z 15007KT 10SM FEW018 02/00 A3024 RMK AO2 SLP250 T00220000 52018=
201403200753 METAR KSEA 200753Z 14006KT 10SM SCT150 04/00 A3022 RMK AO2 SLP242 T00390000 401110033=
201403200653 METAR KSEA 200653Z 20004KT 10SM FEW030 04/01 A3021 RMK AO2 SLP239 T00440006=
201403200553 METAR KSEA 200553Z 21007KT 10SM FEW030 05/00 A3019 RMK AO2 SLP232 T00500000 10111 20044 53020=
201403200453 METAR KSEA 200453Z 23005KT 10SM FEW030 SCT100 04/01 A3017 RMK AO2 SLP225 T00440006=
201403200353 METAR KSEA 200353Z 04003KT 10SM SCT036 BKN095 06/01 A3015 RMK AO2 SLP218 T00560011=
201403200253 METAR KSEA 200253Z 01004KT 10SM SCT042 06/01 A3013=
201403200153 METAR KSEA 200153Z 01011KT 10SM FEW030 BKN050 BKN200 07/02 A3010 RMK AO2 SLP202 T00670017=
201403200053 METAR KSEA 200053Z 02016KT 10SM FEW030 SCT055 SCT200 08/02 A3009 RMK AO2 SLP197 T00780022=
201403192353 METAR KSEA 192353Z 23013G23KT 10SM FEW025 SCT050 SCT200 11/M01 A3006 RMK AO2 SLP187 60002 T01061006 10111 20078 53010=
201403192253 METAR KSEA 192253Z 20016G21KT 10SM FEW025 SCT035 SCT200 11/04 A3004 RMK AO2 PK WND 20028/2216 SLP181 T01060039=
201403192153 METAR KSEA 192153Z 21020G27KT 10SM FEW024 SCT030 BKN100 09/04 A3003 RMK AO2 PK WND 20028/2112 SLP177 T00940044=
201403192053 METAR KSEA 192053Z 20016G23KT 10SM FEW015 SCT040 BKN090 09/05 A3003 RMK AO2 RAE21 SLP176 SHRA DSNT NW-N-NE P0001 60002 T00890050 58006=
201403192030 SPECI KSEA 192030Z 19017G21KT 10SM FEW013 SCT050 BKN080 08/06 A3003 RMK AO2 RAE21 P0001=
201403191953 METAR KSEA 191953Z 20014G22KT 7SM -RA SCT010 BKN024 OVC050 08/07 A3004 RMK AO2 RAB39 SLP181 P0001 T00830067=
201403191853 METAR KSEA 191853Z 20012KT 10SM SCT011 BKN016 BKN055 08/07 A3005 RMK AO2 SLP182 T00830067=
201403191753 METAR KSEA 191753Z 20012KT 10SM OVC015 08/06 A3005 RMK AO2 SLP182 60000 T00830056 10083 20067 55001=
201403191746 SPECI KSEA 191746Z 21012KT 10SM OVC015 08/06 A3005 RMK AO2=
201403191653 METAR KSEA 191653Z 19013KT 10SM FEW009 BKN012 BKN200 08/06 A3004 RMK AO2 SLP180 T00780056=
201403191613 SPECI KSEA 191613Z 20015KT 10SM FEW009 BKN012 BKN050 08/06 A3005 RMK AO2=
201403191553 METAR KSEA 191553Z 20013KT 10SM BKN012 BKN050 BKN200 07/06 A3004 RMK AO2 RAB1455E36 SLP181 P0000 T00720056=
201403191517 SPECI KSEA 191517Z 20014G19KT 10SM -RA BKN015 OVC060 07/05 A3005 RMK AO2 RAB1455 P0000=
201403191453 METAR KSEA 191453Z 20010KT 10SM FEW009 BKN060 OVC100 07/05 A3005 RMK AO2 RAE22B41E52 SLP184 P0000 60000 T00720050 58013=
201403191437 SPECI KSEA 191437Z 21014KT 10SM FEW009 BKN065 OVC100 07/06 A3005 RMK AO2 RAE22 P0000=
201403191406 SPECI KSEA 191406Z 19012KT 10SM -RA SCT009 BKN025 OVC045 07/06 A3007 RMK AO2 P0000 $=
201403191353 METAR KSEA 191353Z 19008KT 10SM -RA BKN009 OVC017 07/06 A3007 RMK AO2 RAB07E16B52 SLP190 P0000 T00720056 $=
201403191253 METAR KSEA 191253Z 19008KT 10SM BKN007 OVC075 07/06 A3007 RMK AO2 SLP191 T00720056=
201403191243 SPECI KSEA 191243Z 18007KT 10SM BKN006 BKN075 OVC090 07/06 A3008 RMK AO2=
201403191234 SPECI KSEA 191234Z 16008KT 10SM SCT007 BKN070 OVC085 07/06 A3007 RMK AO2=
201403191153 METAR KSEA 191153Z 19009KT 10SM OVC005 07/06 A3009 RMK AO2 SLP197 T00720061 10083 20072 56018=
201403191053 METAR KSEA 191053Z 19005KT 10SM OVC007 08/07 A3011 RMK AO2 SLP202 T00780067=
201403191005 SPECI KSEA 191005Z 18005KT 10SM BKN007 OVC011 08/06 A3012 RMK AO2=
201403190953 METAR KSEA 190953Z 18005KT 10SM BKN013 OVC025 08/06 A3013 RMK AO2 SLP209 T00780061=
201403190933 SPECI KSEA 190933Z 17007KT 10SM BKN013 BKN020 OVC065 08/06 A3013 RMK AO2=
201403190853 METAR KSEA 190853Z 17005KT 10SM FEW019 BKN025 OVC080 08/06 A3014 RMK AO2 SLP215 T00780061 57016=
201403190841 SPECI KSEA 190841Z 18004KT 10SM SCT019 BKN025 OVC037 08/06 A3015 RMK AO2=
201403190822 SPECI KSEA 190822Z 17006KT 10SM FEW019 BKN037 OVC110 08/06 A3015 RMK AO2=
201403190753 METAR KSEA 190753Z 16004KT 10SM SCT021 BKN026 OVC120 08/07 A3016 RMK AO2 SLP221 T00780067 401000033=
201403190653 METAR KSEA 190653Z 18004KT 10SM BKN023 BKN050 08/06 A3018 RMK AO2 SLP227 T00780061=
201403190553 METAR KSEA 190553Z 21004KT 10SM BKN021 OVC028 08/06 A3019 RMK AO2 SLP232 T00830061 10100 20078 56008=
201403190453 METAR KSEA 190453Z 00000KT 10SM BKN023 BKN041 OVC055 08/06 A3020 RMK AO2 SLP233 T00830056=
201403190445 SPECI KSEA 190445Z 19003KT 10SM BKN023 BKN039 OVC047 08/06 A3020 RMK AO2=
201403190353 METAR KSEA 190353Z 00000KT 10SM FEW048 OVC080 09/06 A3021 RMK AO2 SLP237 T00890056=
201403190253 METAR KSEA 190253Z 12003KT 10SM SCT070 OVC080 09/05 A3022 RMK AO2 SLP240 T00940050 56012=
201403190153 METAR KSEA 190153Z 10005KT 10SM SCT037 BKN085 OVC200 09/05 A3022 RMK AO2 SLP243 T00940050=
201403190053 METAR KSEA 190053Z 00000KT 10SM SCT028 OVC037 10/05 A3024 RMK AO2 SLP248 T01000050=
201403182353 METAR KSEA 182353Z 00000KT 10SM OVC020 10/05 A3025 RMK AO2 SLP252 60000 T01000050 10100 20067 58011=
201403182253 METAR KSEA 182253Z 00000KT 10SM OVC016 09/05 A3027 RMK AO2 SLP257 T00890050=
201403182153 METAR KSEA 182153Z 00000KT 10SM OVC016 09/05 A3028 RMK AO2 SLP263 T00890050=
201403182148 SPECI KSEA 182148Z 00000KT 10SM OVC016 09/05 A3028 RMK AO2=
201403182053 METAR KSEA 182053Z VRB03KT 10SM BKN013 OVC020 08/05 A3030 RMK AO2 SLP270 60000 T00830050 58008=
201403182001 SPECI KSEA 182001Z 14006KT 10SM BKN013 OVC025 08/04 A3032 RMK AO2=
201403181953 METAR KSEA 181953Z 15003KT 8SM BKN015 OVC026 07/04 A3032 RMK AO2 RAE46 SLP275 P0000 T00720044=
201403181853 METAR KSEA 181853Z 00000KT 7SM -RA BKN017 OVC030 08/03 A3033 RMK AO2 RAB51 SLP279 P0000 T00780033=
201403181753 METAR KSEA 181753Z 15004KT 10SM BKN017 OVC029 07/03 A3033 RMK AO2 SLP278 60000 T00720028 10072 20039 51003=
201403181653 METAR KSEA 181653Z 16003KT 10SM BKN021 OVC036 06/01 A3032 RMK AO2 RAE07 SLP277 P0000 T00610006=
201403181608 SPECI KSEA 181608Z 14005KT 10SM BKN021 OVC035 05/01 A3032 RMK AO2 RAE07 P0000=
201403181553 METAR KSEA 181553Z 11005KT 10SM -RA SCT017 OVC040 05/01 A3032 RMK AO2 RAB53 SLP276 P0000 T00500011=
201403181453 METAR KSEA 181453Z 14005KT 10SM FEW017 SCT028 OVC035 04/01 A3032 RMK AO2 SLP275 T00390006 55003=
201403181437 SPECI KSEA 181437Z 13004KT 10SM BKN028 OVC037 04/01 A3032 RMK AO2=
201403181353 METAR KSEA 181353Z 17004KT 10SM SCT018 OVC039 04/01 A3031 RMK AO2 SLP273 T00440006=
201403181346 SPECI KSEA 181346Z 16003KT 10SM SCT018 OVC039 04/01 A3031 RMK AO2=
201403181253 METAR KSEA 181253Z 17003KT 10SM BKN016 BKN055 04/01 A3032 RMK AO2 SLP275 T00390006=
201403181236 SPECI KSEA 181236Z 15006KT 10SM BKN016 BKN055 04/00 A3032 RMK AO2=
201403181153 METAR KSEA 181153Z 14007KT 10SM SCT016 BKN055 BKN070 04/01 A3033 RMK AO2 SLP278 T00390006 10050 20033 58005=
201403181053 METAR KSEA 181053Z 15005KT 10SM BKN060 04/01 A3034 RMK AO2 SLP283 T00390006=
201403180953 METAR KSEA 180953Z 15005KT 10SM BKN060 BKN080 04/01 A3035 RMK AO2 SLP284 T00390006=
201403180853 METAR KSEA 180853Z 15006KT 10SM FEW050 SCT080 BKN100 04/01 A3034 RMK AO2 SLP283 T00390006 50000=
201403180753 METAR KSEA 180753Z 15005KT 10SM BKN055 BKN100 04/01 A3035 RMK AO2 SLP284 T00440006 401000028=
201403180653 METAR KSEA 180653Z 17004KT 10SM FEW080 04/01 A3034=
201403180553 METAR KSEA 180553Z 18004KT 10SM FEW040 SCT080 05/01 A3034 RMK AO2 SLP283 T00500011 10094 20050 51009=
201403180453 METAR KSEA 180453Z 16005KT 10SM SCT040 SCT080 06/02 A3034 RMK AO2 SLP282 T00610017=
201403180353 METAR KSEA 180353Z 13007KT 10SM BKN041 BKN060 07/02 A3033 RMK AO2 SLP279 T00720022=
201403180253 METAR KSEA 180253Z 09007KT 10SM FEW048 BKN065 BKN200 08/01 A3031=
201403180153 METAR KSEA 180153Z 07009KT 10SM FEW050 BKN070 BKN200 08/00 A3031 RMK AO2 SLP271 T00830000=
201403180053 METAR KSEA 180053Z 04006KT 10SM FEW040 BKN075 BKN200 09/M01 A3030 RMK AO2 SLP269 T00891006=
201403172353 METAR KSEA 172353Z VRB03KT 10SM SCT037 BKN048 BKN080 09/00 A3029 RMK AO2 SLP267 T00940000 10100 20061 53007=
201403172253 METAR KSEA 172253Z 04008KT 10SM FEW040 SCT080 BKN200 10/01 A3028 RMK AO2 SLP263 T01000006=
201403172153 METAR KSEA 172153Z 26004KT 10SM SCT037 BKN080 09/M01 A3027 RMK AO2 SLP259 T00941006=
201403172053 METAR KSEA 172053Z 22004KT 10SM FEW025 BKN039 BKN060 09/M01 A3027 RMK AO2 SLP259 T00941006 50002=
201403171953 METAR KSEA 171953Z 13006KT 10SM FEW025 SCT037 BKN060 09/01 A3028 RMK AO2 SLP261 T00940006=
201403171853 METAR KSEA 171853Z 12006KT 10SM SCT020 BKN041 07/01 A3028=
201403171753 METAR KSEA 171753Z 18004KT 10SM SCT020 SCT250 07/01 A3027 RMK AO2 SLP258 T00670011 10067 20028 51023=
201403171653 METAR KSEA 171653Z 19007KT 10SM FEW033 SCT250 06/02 A3025=
201403171553 METAR KSEA 171553Z 15008KT 10SM FEW036 04/02 A3022 RMK AO2 SLP243 T00440022=
201403171453 METAR KSEA 171453Z 19016G28KT 080V210 10SM SCT035 SCT080 03/02 A3020 RMK AO2 PK WND 09028/1448 SLP235 T00330022 51038=
201403171353 METAR KSEA 171353Z 12008KT 10SM SCT034 BKN080 03/02 A3017 RMK AO2 SLP225 T00330022=
201403171253 METAR KSEA 171253Z 13007KT 10SM SCT040 BKN080 03/02 A3013 RMK AO2 SLP211 T00330022=
201403171153 METAR KSEA 171153Z 17005KT 10SM FEW011 03/02 A3008 RMK AO2 SLP195 60001 70098 T00330017 10056 20028 53019=
201403171115 SPECI KSEA 171115Z 16007KT 10SM SCT011 SCT040 03/02 A3006 RMK AO2=
201403171053 METAR KSEA 171053Z 20006KT 10SM BKN011 BKN040 04/03 A3006 RMK AO2 RAB32E42 SLP188 P0000 T00440033=
201403171018 SPECI KSEA 171018Z 19007KT 10SM FEW009 BKN013 OVC040 05/03 A3005 RMK AO2=
201403170953 METAR KSEA 170953Z 22004KT 10SM FEW010 SCT040 04/03 A3005 RMK AO2 SLP182 T00440033=
201403170926 SPECI KSEA 170926Z 20006KT 10SM FEW020 SCT040 04/04 A3003 RMK AO2=
201403170853 METAR KSEA 170853Z 21008KT 10SM FEW005 OVC015 05/04 A3003 RMK AO2 RAB0756E06DZB20E43 SLP176 P0001 60001 T00500039 50007=
201403170847 SPECI KSEA 170847Z 22007KT 10SM FEW005 OVC015 05/04 A3003 RMK AO2 RAB0756E06DZB20E43 P0001=
201403170821 SPECI KSEA 170821Z 22007KT 3SM -DZ BR BKN007 OVC015 05/04 A3003 RMK AO2 RAB0756E06DZB20 P0000=
201403170802 SPECI KSEA 170802Z 22008KT 7SM -RA SCT007 OVC016 05/04 A3002 RMK AO2 RAB0756 P0000=
201403170753 METAR KSEA 170753Z 25005KT 10SM BKN016 OVC030 05/04 A3002=
201403170653 METAR KSEA 170653Z 14006KT 10SM BKN020 OVC085 05/03 A3000 RMK AO2 SLP168 T00500033=
201403170647 SPECI KSEA 170647Z 13003KT 10SM BKN020 OVC085 05/03 A3000 RMK AO2=
201403170553 METAR KSEA 170553Z 09009KT 10SM FEW015 OVC045 05/03 A3000 RMK AO2 RAE30 SLP165 P0003 60052 T00500033 10072 20044 56001=
201403170530 SPECI KSEA 170530Z 08008KT 10SM FEW005 OVC030 05/03 A3000 RMK AO2 RAE30 P0003=
201403170453 METAR KSEA 170453Z 07011KT 7SM -RA FEW005 OVC023 05/03 A3000 RMK AO2 SLP166 P0009 T00500033=
201403170353 METAR KSEA 170353Z 04011KT 6SM -RA BR FEW005 BKN029 OVC036 06/04 A2999 RMK AO2 WSHFT 0314 SLP164 P0014 T00560039=
201403170329 SPECI KSEA 170329Z 04011KT 6SM -RA BR FEW005 BKN017 OVC025 05/03 A3000 RMK AO2 WSHFT 0314 P0010=
201403170253 METAR KSEA 170253Z 22006KT 5SM RA BR BKN005 BKN009 OVC020 07/05 A3000 RMK AO2 SLP167 P0014 60026 T00670050 55012=
201403170238 SPECI KSEA 170238Z 21005KT 5SM -RA BR SCT003 BKN007 OVC028 07/06 A3000 RMK AO2 P0009=
201403170208 SPECI KSEA 170208Z 23006KT 5SM -RA BR BKN003 OVC010 07/06 A3000 RMK AO2 P0003=
201403170153 METAR KSEA 170153Z 24004KT 5SM -RA BR BKN005 BKN014 OVC027 07/06 A3000 RMK AO2 SLP166 P0007 T00670061=
201403170053 METAR KSEA 170053Z 19006KT 7SM -RA BKN007 OVC014 07/06 A3002 RMK AO2 SLP173 P0005 T00720061=
201403162353 METAR KSEA 162353Z 20007KT 10SM -RA BKN005 BKN012 OVC039 07/06 A3004 RMK AO2 SLP179 P0003 60025 T00720061 10078 20067 58031=
201403162253 METAR KSEA 162253Z 20007KT 10SM -RA BKN005 OVC012 07/06 A3007 RMK AO2 SLP191 P0003 T00720061=
201403162153 METAR KSEA 162153Z 21008KT 10SM -RA BKN005 BKN011 OVC047 07/06 A3010 RMK AO2 SLP199 P0004 T00720061=
201403162053 METAR KSEA 162053Z 20006KT 6SM -RA BR BKN005 OVC017 07/07 A3013 RMK AO2 SLP210 P0007 60015 T00720067 58019=
201403161953 METAR KSEA 161953Z 20007KT 4SM -RA BR BKN005 OVC012 07/06 A3016 RMK AO2 SLP220 P0004 T00720061=
201403161853 METAR KSEA 161853Z 20008KT 6SM -RA BR BKN005 BKN012 OVC034 08/06 A3017 RMK AO2 SLP224 P0004 T00780061=
201403161803 SPECI KSEA 161803Z 19007KT 5SM -RA BR BKN005 BKN012 OVC034 08/07 A3018 RMK AO2 P0001=
201403161753 METAR KSEA 161753Z COR 21005KT 4SM -RA BR BKN005 BKN012 OVC049 08/07 A3019 RMK AO2 SLP229 P0003 60020 T00780067 10083 20078 56003=
201403161653 METAR KSEA 161653Z 18008KT 4SM -RA BR BKN005 OVC043 08/07 A3019 RMK AO2 RAE31B47 SLP230 P0001 T00780067=
201403161649 SPECI KSEA 161649Z 18006KT 4SM -RA BR BKN005 OVC043 08/07 A3019 RMK AO2 RAE31B47 P0001=
201403161553 METAR KSEA 161553Z 16007KT 10SM -RA FEW005 BKN045 OVC055 08/07 A3020 RMK AO2 SLP233 P0004 T00780067=
201403161453 METAR KSEA 161453Z 18005KT 6SM -RA BR OVC012 08/07 A3021=
201403161401 SPECI KSEA 161401Z 18006KT 9SM -RA BKN010 BKN013 OVC050 08/07 A3021 RMK AO2 P0001=
201403161353 METAR KSEA 161353Z 18007KT 9SM -RA SCT013 OVC050 08/07 A3020 RMK AO2 SLP235 P0003 T00780067=
201403161253 METAR KSEA 161253Z 19007KT 10SM -RA SCT025 OVC049 08/07 A3020 RMK AO2 SLP232 P0004 T00780067=
201403161153 METAR KSEA 161153Z 22007G16KT 6SM -RA BR FEW015 SCT024 OVC048 08/07 A3021 RMK AO2 SLP236 P0003 60016 70044 T00830067 10111 20083 56002=
201403161053 METAR KSEA 161053Z 23010G19KT 9SM -RA FEW012 OVC046 09/08 A3021 RMK AO2 RAB42 SLP238 P0001 T00940078=
201403160953 METAR KSEA 160953Z 20011KT 10SM FEW003 OVC040 09/08 A3020 RMK AO2 DZE20 SLP233 P0000 T00940078=
201403160925 SPECI KSEA 160925Z 20008KT 10SM FEW003 OVC040 09/08 A3022 RMK AO2 DZE20 P0000=
201403160853 METAR KSEA 160853Z 20011KT 7SM -DZ SCT003 OVC027 10/09 A3021 RMK AO2 DZE03B47RAB03E41 SLP238 P0009 60012 T01000089 55006=
201403160807 SPECI KSEA 160807Z 23011KT 1SM R16L/5000VP6000FT -RA BR BKN006 OVC012 11/09 A3022 RMK AO2 DZE03RAB03 P0001=
201403160753 METAR KSEA 160753Z 20009KT 1SM R16L/P6000FT -DZ BR FEW006 BKN012 OVC025 11/09 A3021 RMK AO2 RAB0657E07DZB35 SLP237 P0002 T01060094 402440044=
201403160746 SPECI KSEA 160746Z 20011KT 1SM R16L/P6000FT -DZ BR FEW006 BKN012 OVC025 11/09 A3022 RMK AO2 RAB0657E07DZB35 P0002=
201403160735 SPECI KSEA 160735Z 20013KT 1 1/2SM -DZ BR FEW006 SCT010 OVC025 11/09 A3022 RMK AO2 RAB0657E07DZB35 P0002=
201403160720 SPECI KSEA 160720Z 20011KT 3SM BR FEW012 OVC027 11/09 A3021 RMK AO2 RAB0657E07 P0001=
201403160653 METAR KSEA 160653Z 20013KT 4SM BR SCT022 OVC030 11/09 A3023 RMK AO2 RAE10 SLP242 P0001 T01060094=
201403160553 METAR KSEA 160553Z 20007KT 10SM -RA FEW020 OVC035 11/09 A3023 RMK AO2 SLP244 P0006 60027 T01110094 10150 20111 53008=
201403160453 METAR KSEA 160453Z 20006KT 10SM -RA OVC047 11/10 A3021 RMK AO2 SLP236 P0004 T01110100=
201403160353 METAR KSEA 160353Z 22008KT 7SM -RA FEW037 OVC046 12/10 A3021 RMK AO2 SLP238 P0011 T01170100=
201403160253 METAR KSEA 160253Z 22009KT 10SM -RA FEW025 BKN034 OVC060 12/10 A3021 RMK AO2 RAB02 SLP236 P0006 60006 T01220100 50003=
201403160153 METAR KSEA 160153Z 24007KT 10SM BKN034 OVC041 14/09 A3021 RMK AO2 SLP237 T01390089=
201403160053 METAR KSEA 160053Z 27004KT 10SM BKN035 OVC045 14/08 A3021 RMK AO2 SLP236 T01390083 $=
201403152353 METAR KSEA 152353Z 21010KT 10SM OVC036 15/08 A3020 RMK AO2 SLP233 60000 T01500078 10244 20106 56013 $=
201403152253 METAR KSEA 152253Z 20008KT 10SM OVC036 15/07 A3020 RMK AO2 SLP234 T01500067 $=
201403152153 METAR KSEA 152153Z 18009KT 10SM BKN036 OVC075 14/06 A3022 RMK AO2 SLP239 T01440056 $=
201403152053 METAR KSEA 152053Z 17005KT 10SM OVC036 13/04 A3024 RMK AO2 SLP248 60000 T01330044 58013 $=
201403151953 METAR KSEA 151953Z 22004KT 10SM OVC048 11/06 A3026 RMK AO2 SLP256 T01110061 $=
201403151853 METAR KSEA 151853Z 17006KT 10SM OVC050 12/06 A3027 RMK AO2 RAB04E18 SLP257 P0000 T01170056 $=
201403151753 METAR KSEA 151753Z 15004KT 10SM OVC055 11/05 A3028 RMK AO2 RAE10B30E39 SLP261 P0000 60001 T01060050 10194 20067 50004 $=
201403151653 METAR KSEA 151653Z 15006KT 8SM -RA OVC065 17/06 A3029 RMK AO2 RAB43 SLP265 P0001 T01720056=
201403151553 METAR KSEA 151553Z 19003KT 10SM OVC075 14/04 A3027 RMK AO2 SLP258 T01440044 $=
201403151453 METAR KSEA 151453Z 00000KT 10SM OVC095 09/05 A3026 RMK AO2 SLP256 T00940050 58003 $=
201403151353 METAR KSEA 151353Z 00000KT 10SM BKN095 OVC120 12/04 A3027 RMK AO2 SLP257 T01170044 $=
201403151253 METAR KSEA 151253Z 00000KT 10SM OVC130 08/04 A3027 RMK AO2 SLP258 T00780044 $=
201403151153 METAR KSEA 151153Z 13004KT 10SM SCT070 OVC100 07/04 A3027 RMK AO2 SLP259 70016 T00720039 10094 20067 58020 $=
201403151053 METAR KSEA 151053Z 11006KT 10SM BKN120 OVC200 07/04 A3029 RMK AO2 SLP265 T00720044 $=
201403150953 METAR KSEA 150953Z 11007KT 10SM FEW025 SCT200 07/04 A3032 RMK AO2 SLP274 T00720044 $=
201403150853 METAR KSEA 150853Z 14006KT 10SM SCT200 08/04 A3034 RMK AO2 SLP280 T00780044 56005 $=
201403150753 METAR KSEA 150753Z 14006KT 10SM SCT200 08/04 A3034 RMK AO2 SLP282 T00830044 401440083 $=
201403150653 METAR KSEA 150653Z 14005KT 10SM SCT200 08/04 A3034 RMK AO2 SLP282 T00830044 $=
201403150553 METAR KSEA 150553Z 18007KT 10SM SCT200 09/04 A3035 RMK AO2 SLP285 T00890044 10144 20089 51023 $=
201403150453 METAR KSEA 150453Z 21007KT 10SM FEW050 SCT080 09/04 A3034 RMK AO2 SLP280 T00940044 $=
201403150353 METAR KSEA 150353Z 21008KT 10SM FEW040 SCT080 10/04 A3031 RMK AO2 SLP271 T01000044 $=
201403150253 METAR KSEA 150253Z 23008KT 10SM FEW040 SCT070 11/04 A3028 RMK AO2 SLP261 T01110044 51031 $=
201403150153 METAR KSEA 150153Z 23009G17KT 10SM FEW042 SCT060 SCT080 12/04 A3025 RMK AO2 SLP252 T01220039 $=
201403150053 METAR KSEA 150053Z 24011KT 10SM FEW042 SCT065 13/04 A3022 RMK AO2 SLP239 T01330044=
201403142353 METAR KSEA 142353Z 22016G22KT 10SM SCT041 BKN048 OVC065 14/06 A3019 RMK AO2 SLP229 T01390056 10144 20122 53020=
201403142253 METAR KSEA 142253Z 23015G22KT 10SM SCT034 SCT041 BKN080 14/06 A3016 RMK AO2 PK WND 22027/2219 SLP219 T01440061=
201403142153 METAR KSEA 142153Z 22017G23KT 10SM SCT034 BKN060 14/06 A3013 RMK AO2 SLP209 T01390061=
201403142053 METAR KSEA 142053Z 21013G22KT 10SM SCT030 13/07 A3013 RMK AO2 PK WND 20028/1955 SLP208 T01280067 51027=
201403141953 METAR KSEA 141953Z 21018G24KT 10SM SCT027 BKN090 13/07 A3011 RMK AO2 PK WND 21028/1855 SLP202 T01280067=
201403141853 METAR KSEA 141853Z 22018G26KT 10SM FEW015 SCT024 13/07 A3008 RMK AO2 PK WND 22026/1847 SLP193 T01280072=
201403141753 METAR KSEA 141753Z 21017G25KT 10SM FEW009 SCT021 12/08 A3005 RMK AO2 PK WND 21026/1703 SLP181 60016 T01220078 10122 20106 53041=
201403141653 METAR KSEA 141653Z 21015G23KT 10SM FEW009 12/08 A3000 RMK AO2 PRESRR SLP164 T01170083=
201403141553 METAR KSEA 141553Z 20016KT 10SM FEW007 SCT070 BKN095 11/08 A2994 RMK AO2 RAE22B40E50 SLP145 P0002 T01110083=
201403141529 SPECI KSEA 141529Z 20016G23KT 10SM SCT006 BKN032 OVC070 11/09 A2993 RMK AO2 RAE22 P0002=
201403141509 SPECI KSEA 141509Z 21017KT 4SM BR BKN006 OVC010 11/09 A2993 RMK AO2 RAE09 P0002=
201403141453 METAR KSEA 141453Z 19018G24KT 4SM -RA BR SCT006 OVC010 11/09 A2992 RMK AO2 SLP139 P0003 60014 T01060094 56002=
201403141353 METAR KSEA 141353Z 19011G19KT 5SM -RA BR SCT006 OVC011 11/09 A2993 RMK AO2 SLP140 P0005 T01110094=
201403141332 SPECI KSEA 141332Z 19011KT 4SM -RA BR SCT006 BKN011 OVC025 11/09 A2992 RMK AO2 P0003=
201403141311 SPECI KSEA 141311Z 18010KT 3SM -RA BR SCT006 SCT011 OVC026 11/09 A2992 RMK AO2 TWR VIS 4 P0003=
201403141253 METAR KSEA 141253Z 18009KT 5SM -RA BR FEW021 OVC028 11/09 A2993 RMK AO2 SLP140 P0006 T01060094=
201403141153 METAR KSEA 141153Z 18011KT 8SM -RA SCT022 OVC028 11/09 A2993 RMK AO2 SLP141 P0004 60013 70013 T01060089 10106 20094 56017=
201403141053 METAR KSEA 141053Z 17013G20KT 10SM -RA OVC016 11/09 A2993 RMK AO2 SLP143 P0002 T01060089=
201403140953 METAR KSEA 140953Z 17010KT 6SM -RA BR OVC018 10/09 A2996 RMK AO2 SLP150 P0003 T01000089=
201403140933 SPECI KSEA 140933Z 17011KT 10SM -RA OVC016 10/09 A2996 RMK AO2 P0001=
201403140857 SPECI KSEA 140857Z 17009KT 9SM -RA FEW008 BKN014 OVC050 10/09 A2998 RMK AO2 P0000=
201403140853 METAR KSEA 140853Z 17008KT 9SM -RA SCT014 BKN021 OVC048 10/09 A2998 RMK AO2 SLP159 P0003 60004 T01000089 58015=
201403140814 SPECI KSEA 140814Z 18010KT 10SM -RA FEW011 OVC019 10/08 A3000 RMK AO2 P0001=
201403140753 METAR KSEA 140753Z 17008KT 10SM -RA BKN009 OVC015 10/08 A3000 RMK AO2 SLP166 P0001 T01000083 401390050=
201403140708 SPECI KSEA 140708Z 18006KT 7SM -RA BKN008 OVC014 09/08 A3002 RMK AO2 P0001=
201403140653 METAR KSEA 140653Z 19007KT 6SM -RA BR SCT008 BKN014 OVC026 09/08 A3002 RMK AO2 RAB32 SLP174 P0000 T00940083=
201403140651 SPECI KSEA 140651Z 19005KT 6SM -RA BR FEW008 BKN014 OVC026 09/08 A3002 RMK AO2 RAB32 P0000=
201403140632 SPECI KSEA 140632Z 20007KT 10SM -RA BKN028 OVC033 10/08 A3003 RMK AO2 RAB32 P0000=
201403140553 METAR KSEA 140553Z 20007KT 10SM FEW036 SCT043 OVC055 11/07 A3003 RMK AO2 SLP175 T01060072 10133 20106 55000=
201403140453 METAR KSEA 140453Z 20008KT 10SM BKN060 OVC100 11/07 A3003 RMK AO2 SLP175 T01060072=
201403140353 METAR KSEA 140353Z 21008KT 10SM SCT070 BKN100 OVC200 12/07 A3003 RMK AO2 SLP175 T01170067=
201403140253 METAR KSEA 140253Z 19005KT 10SM FEW050 SCT120 BKN220 12/06 A3003 RMK AO2 SLP176 T01220056 58015=
201403140153 METAR KSEA 140153Z 16005KT 10SM FEW050 SCT140 BKN250 13/06 A3004=
201403140053 METAR KSEA 140053Z 18004KT 10SM FEW050 SCT160 OVC250 13/06 A3006 RMK AO2 SLP186 T01330056=
201403132353 METAR KSEA 132353Z 18007KT 10SM FEW050 SCT160 BKN250 13/05 A3007 RMK AO2 SLP191 T01280050 10139 20094 56012=
201403132253 METAR KSEA 132253Z 23007KT 10SM FEW048 SCT160 BKN250 13/04 A3009 RMK AO2 SLP196 T01330044=
201403132153 METAR KSEA 132153Z 23007KT 10SM FEW160 BKN250 13/06 A3009 RMK AO2 SLP197 T01280061=
201403132053 METAR KSEA 132053Z 16003KT 10SM FEW180 SCT250 12/06 A3011 RMK AO2 SLP203 T01220056 58020=
201403131953 METAR KSEA 131953Z 00000KT 10SM FEW015 BKN200 12/06 A3013 RMK AO2 SLP210 T01170061=
201403131853 METAR KSEA 131853Z 25005KT 10SM FEW009 BKN180 BKN250 09/06 A3015 RMK AO2 SLP218 T00940061=
201403131753 METAR KSEA 131753Z 00000KT 10SM SCT007 BKN190 09/05 A3017 RMK AO2 SLP223 T00940050 10094 20050 50005=
201403131653 METAR KSEA 131653Z 00000KT 10SM SCT007 BKN190 08/05 A3018 RMK AO2 SLP227 T00830050=
201403131630 SPECI KSEA 131630Z 02004KT 10SM FEW007 BKN200 08/05 A3017 RMK AO2=
201403131553 METAR KSEA 131553Z 00000KT 10SM FEW015 BKN200 07/04 A3017 RMK AO2 SLP222 T00720044=
201403131453 METAR KSEA 131453Z 06003KT 10SM FEW150 BKN200 06/04 A3015 RMK AO2 SLP218 T00610039 55002=
201403131353 METAR KSEA 131353Z 01005KT 10SM BKN210 06/03 A3014 RMK AO2 SLP213 T00560033=
201403131253 METAR KSEA 131253Z 01007KT 10SM CLR 07/04 A3015 RMK AO2 SLP215 T00670039=
201403131153 METAR KSEA 131153Z 05004KT 10SM CLR 07/04 A3016 RMK AO2 SLP219 T00670044 10117 20067 58006=
201403131053 METAR KSEA 131053Z 02008KT 10SM CLR 08/04 A3017 RMK AO2 SLP222 T00780044=
201403130953 METAR KSEA 130953Z 36003KT 10SM FEW070 07/03 A3017 RMK AO2 SLP223 T00720028=
201403130853 METAR KSEA 130853Z 01003KT 10SM BKN070 09/03 A3018 RMK AO2 SLP225 T00890028 50003=
201403130753 METAR KSEA 130753Z 02006KT 10SM FEW080 09/03 A3018 RMK AO2 SLP226 T00940028 401610033=
201403130653 METAR KSEA 130653Z 02011KT 10SM FEW090 10/02 A3018 RMK AO2 SLP227 T01000022=
201403130553 METAR KSEA 130553Z 02012KT 10SM BKN100 12/01 A3017 RMK AO2 SLP222 T01170006 10161 20100 55003=
201403130453 METAR KSEA 130453Z 01004KT 10SM BKN100 11/01 A3016 RMK AO2 SLP221 T01110006=
201403130353 METAR KSEA 130353Z 03006KT 10SM FEW150 SCT250 12/01 A3017 RMK AO2 SLP223 T01220011=
201403130253 METAR KSEA 130253Z 01007KT 10SM FEW150 SCT250 12/01 A3018=
201403130153 METAR KSEA 130153Z 29005KT 10SM FEW150 SCT250 14/01 A3018 RMK AO2 SLP226 T01390006=
201403130053 METAR KSEA 130053Z 00000KT 10SM FEW250 16/00 A3018 RMK AO2 SLP228 T01610000=
201403122353 METAR KSEA 122353Z 26003KT 10SM FEW250 16/01 A3020 RMK AO2 SLP233 T01560011 10161 20100 56025=
201403122253 METAR KSEA 122253Z 26004KT 10SM SCT250 16/01 A3020 RMK AO2 SLP235 T01560011=
201403122153 METAR KSEA 122153Z 00000KT 10SM SCT250 16/01 A3023 RMK AO2 SLP243 T01560011=
201403122053 METAR KSEA 122053Z VRB04KT 10SM FEW250 14/01 A3027 RMK AO2 SLP258 T01440011 58016 $=
201403121953 METAR KSEA 121953Z 00000KT 10SM FEW250 12/00 A3029 RMK AO2 SLP266 T01220000 $=
201403121853 METAR KSEA 121853Z 00000KT 10SM CLR 11/06 A3030 RMK AO2 SLP269 T01110056=
201403121753 METAR KSEA 121753Z 17004KT 10SM BCFG CLR 10/04 A3032 RMK AO2 SLP275 T01000044 10100 20033 58010=
201403121653 METAR KSEA 121653Z 00000KT 10SM BCFG FEW250 08/06 A3034 RMK AO2 SLP282 T00830056=
201403121553 METAR KSEA 121553Z 00000KT 10SM BCFG FEW250 06/04 A3034 RMK AO2 SLP283 T00610039=
201403121453 METAR KSEA 121453Z 05004KT 4SM R16L/4500VP6000FT BCFG FEW001 04/03 A3035 RMK AO2 SLP286 VIS E-S 3/4 T00390028 58008=
201403121433 SPECI KSEA 121433Z 02004KT 5SM R16L/1800VP6000FT BCFG FEW001 05/03 A3035 RMK AO2 VIS W-N 1 1/2=
201403121353 METAR KSEA 121353Z 34003KT 10SM CLR 04/02 A3036 RMK AO2 SLP290 T00390022=
201403121253 METAR KSEA 121253Z 00000KT 10SM FEW002 04/03 A3037 RMK AO2 SLP292 T00440028=
201403121153 METAR KSEA 121153Z 07004KT 10SM FEW002 05/04 A3037 RMK AO2 SLP293 T00500039 10094 20050 58015=
201403121133 SPECI KSEA 121133Z 00000KT 10SM FEW002 06/04 A3039 RMK AO2=
201403121053 METAR KSEA 121053Z 36003KT 10SM CLR 05/03 A3039 RMK AO2 SLP299 T00500033=
201403120953 METAR KSEA 120953Z 02004KT 9SM CLR 06/04 A3041 RMK AO2 SLP305 T00610044=
201403120853 METAR KSEA 120853Z 36004KT 10SM CLR 06/04 A3042 RMK AO2 SLP309 T00610039 56014=
201403120753 METAR KSEA 120753Z 03006KT 10SM CLR 08/04 A3043 RMK AO2 SLP312 T00780039 401440044=
201403120653 METAR KSEA 120653Z 02008KT 10SM CLR 08/03 A3045 RMK AO2 SLP319 T00780033=
201403120553 METAR KSEA 120553Z 36003KT 10SM CLR 08/03 A3046 RMK AO2 SLP323 T00780033 10139 20078 57007=
201403120453 METAR KSEA 120453Z 01007KT 10SM CLR 10/03 A3047 RMK AO2 SLP325 T01000033=
201403120353 METAR KSEA 120353Z 01007KT 10SM CLR 09/03 A3047 RMK AO2 SLP327 T00940033=
201403120253 METAR KSEA 120253Z 35006KT 10SM FEW250 09/03 A3048 RMK AO2 SLP331 T00940033 55005=
201403120153 METAR KSEA 120153Z 34006KT 10SM FEW250 11/04 A3048 RMK AO2 SLP329 T01110039=
201403120053 METAR KSEA 120053Z 36007KT 10SM FEW025 SCT250 14/04 A3048 RMK AO2 SLP329 T01390039=
201403112353 METAR KSEA 112353Z 30005KT 10SM FEW025 SCT250 13/04 A3050 RMK AO2 SLP335 T01330039 10144 20089 56015=
201403112253 METAR KSEA 112253Z 29004KT 10SM FEW025 SCT250 13/05 A3051 RMK AO2 SLP340 T01330050=
201403112153 METAR KSEA 112153Z 32006KT 10SM FEW025 SCT250 12/06 A3053 RMK AO2 SLP345 T01220056=
201403112053 METAR KSEA 112053Z 29008KT 10SM FEW020 SCT250 12/07 A3054 RMK AO2 SLP351 T01220067 58014=
201403111953 METAR KSEA 111953Z 27004KT 10SM SCT018 SCT250 11/06 A3056 RMK AO2 SLP356 T01110061=
201403111853 METAR KSEA 111853Z 33003KT 10SM FEW007 SCT015 SCT200 11/06 A3057 RMK AO2 SLP361 T01110061=
201403111848 SPECI KSEA 111848Z 00000KT 10SM FEW007 SCT015 10/06 A3057 RMK AO2=
201403111753 METAR KSEA 111753Z 00000KT 10SM FEW005 BKN011 09/05 A3059 RMK AO2 SLP365 T00940050 10094 20044 50006=
201403111653 METAR KSEA 111653Z 03003KT 9SM SCT005 08/05 A3059 RMK AO2 SLP366 T00830050=
201403111641 SPECI KSEA 111641Z 05003KT 7SM BKN005 08/05 A3059 RMK AO2=
201403111553 METAR KSEA 111553Z 01004KT 5SM R16L/3500VP6000FT BCFG SCT002 07/06 A3058 RMK AO2 SLP364 VIS W-N 1 SCT V BKN T00670056=
201403111529 SPECI KSEA 111529Z 00000KT 10SM FEW002 06/05 A3058 RMK AO2 FG BANK S-W-NW=
201403111453 METAR KSEA 111453Z 31003KT 10SM FEW028 04/03 A3057 RMK AO2 SLP360 FG BANK SW-NW T00440033 50005=
201403111426 SPECI KSEA 111426Z 00000KT 10SM FEW028 06/04 A3057 RMK AO2 FG BANK SW-NW=
201403111353 METAR KSEA 111353Z 00000KT 10SM BKN027 06/04 A3057 RMK AO2 SLP360 T00610044=
201403111313 SPECI KSEA 111313Z 00000KT 10SM BKN027 BKN065 06/04 A3057 RMK AO2=
201403111253 METAR KSEA 111253Z 13004KT 10SM SCT025 BKN065 06/04 A3056 RMK AO2 SLP356 T00610044=
201403111153 METAR KSEA 111153Z 08004KT 10SM FEW070 06/04 A3055 RMK AO2 SLP355 70063 T00610044 10072 20056 51016=
201403111053 METAR KSEA 111053Z 00000KT 10SM FEW050 BKN070 07/05 A3053 RMK AO2 SLP347 T00670050=
201403110953 METAR KSEA 110953Z 17004KT 10SM SCT028 BKN070 07/05 A3053 RMK AO2 SLP346 T00670050=
201403110853 METAR KSEA 110853Z 16004KT 10SM BKN055 BKN070 07/04 A3051 RMK AO2 SLP338 T00670044 51025=
201403110753 METAR KSEA 110753Z 14006KT 10SM SCT080 06/04 A3048 RMK AO2 SLP330 T00610044 401220061=
201403110653 METAR KSEA 110653Z 12007KT 10SM SCT019 BKN030 07/05 A3047 RMK AO2 SLP325 T00720050=
201403110641 SPECI KSEA 110641Z 12007KT 10SM BKN019 BKN080 07/05 A3046 RMK AO2=
201403110553 METAR KSEA 110553Z 11006KT 10SM FEW030 SCT040 07/05 A3043 RMK AO2 SLP314 60015 T00720050 10100 20067 51038=
201403110453 METAR KSEA 110453Z 15006KT 10SM FEW029 OVC041 08/06 A3040 RMK AO2 SLP303 T00780061=
201403110353 METAR KSEA 110353Z 20005KT 10SM OVC034 08/06 A3037=
201403110253 METAR KSEA 110253Z 09003KT 10SM FEW045 SCT110 BKN200 09/04 A3032 RMK AO2 SLP274 60015 T00890044 53023=
201403110153 METAR KSEA 110153Z 00000KT 10SM FEW046 BKN095 09/06 A3029 RMK AO2 RAE0055 SLP264 P0000 T00890056=
201403110053 METAR KSEA 110053Z 00000KT 10SM -RA BKN034 BKN065 09/04 A3025 RMK AO2 SLP252 P0015 T00940039=
201403110045 SPECI KSEA 110045Z 06007KT 7SM -RA BKN031 BKN070 09/04 A3026 RMK AO2 P0015=
201403110029 SPECI KSEA 110029Z 01005KT 5SM -RA BR BKN028 OVC070 09/07 A3027 RMK AO2 P0012=
201403102353 METAR KSEA 102353Z 30004KT 4SM RA FEW020 BKN034 OVC070 09/06 A3025 RMK AO2 RAB00 SLP251 P0008 60008 T00940061 10122 20083 53021=
201403102253 METAR KSEA 102253Z 22004KT 10SM FEW023 SCT043 BKN070 11/06 A3021 RMK AO2 SLP238 T01110061=
201403102238 SPECI KSEA 102238Z 20007KT 10SM SCT019 BKN070 12/06 A3020 RMK AO2=
201403102153 METAR KSEA 102153Z 19007KT 10SM SCT019 BKN024 BKN075 12/07 A3019 RMK AO2 SLP231 T01220072=
201403102126 SPECI KSEA 102126Z 20008KT 10SM BKN019 BKN075 11/07 A3019 RMK AO2=
201403102053 METAR KSEA 102053Z 20007KT 10SM FEW015 BKN035 BKN075 11/07 A3019 RMK AO2 SLP230 T01060072 51019=
201403102018 SPECI KSEA 102018Z 19009KT 10SM FEW008 SCT021 BKN038 11/08 A3019 RMK AO2=
201403101953 METAR KSEA 101953Z 21009KT 10SM SCT008 BKN021 BKN039 09/07 A3019 RMK AO2 SLP229 T00940072=
201403101853 METAR KSEA 101853Z 20007KT 10SM SCT007 BKN016 BKN038 09/07 A3017=
201403101846 SPECI KSEA 101846Z 19005KT 10SM SCT007 BKN013 BKN200 09/07 A3016 RMK AO2=
201403101753 METAR KSEA 101753Z 15004KT 10SM FEW005 BKN009 OVC020 08/07 A3013 RMK AO2 RAE15 SLP210 P0002 60040 T00830067 10094 20083 52031=
201403101653 METAR KSEA 101653Z 17004KT 8SM -RA FEW005 BKN009 OVC027 08/07 A3010 RMK AO2 SLP200 P0009 T00830072=
201403101630 SPECI KSEA 101630Z 12004KT 3SM -RA BR FEW004 BKN008 OVC027 09/07 A3008 RMK AO2 P0007=
201403101620 SPECI KSEA 101620Z 12006KT 2 1/2SM RA BR BKN006 BKN016 OVC036 09/07 A3008 RMK AO2 P0004=
201403101553 METAR KSEA 101553Z 03004KT 4SM -RA BR BKN006 OVC047 09/07 A3007 RMK AO2 RAB1456 SLP189 P0004 T00890072=
201403101549 SPECI KSEA 101549Z 05003KT 3SM R16L/5500VP6000FT -RA BR BKN006 OVC047 09/07 A3006 RMK AO2 RAB1456 P0004=
201403101533 SPECI KSEA 101533Z 08004KT 5SM -RA BR SCT005 BKN017 OVC070 09/07 A3005 RMK AO2 RAB1456 P0002=
201403101509 SPECI KSEA 101509Z 04005KT 4SM -RA BR SCT005 BKN012 OVC042 09/08 A3005 RMK AO2 RAB1456 P0000=
201403101453 METAR KSEA 101453Z 05005KT 7SM FEW005 BKN015 OVC044 09/07 A3004 RMK AO2 RAB05E44 SLP179 P0004 60025 T00890072 51018=
201403101446 SPECI KSEA 101446Z 05005KT 7SM FEW005 BKN020 OVC044 09/07 A3003 RMK AO2 RAB05E44 P0004=
201403101353 METAR KSEA 101353Z 00000KT 7SM FEW005 BKN045 OVC060 09/07 A3002 RMK AO2 RAE45 SLP173 P0012 T00890072=
201403101317 SPECI KSEA 101317Z 04005KT 3SM RA BR SCT005 SCT012 OVC031 09/08 A3001 RMK AO2 P0009=
201403101253 METAR KSEA 101253Z 35003KT 1 1/2SM -RA BR SCT007 BKN029 OVC035 09/08 A3000 RMK AO2 TWR VIS 3 SLP168 P0009 T00890078=
201403101232 SPECI KSEA 101232Z 00000KT 1 1/2SM RA BR SCT005 BKN018 OVC038 09/08 A2999 RMK AO2 P0006=
201403101153 METAR KSEA 101153Z 00000KT 2SM -RA BR SCT005 OVC038 09/08 A2998 RMK AO2 SLP159 P0001 60017 70027 T00940083 10100 20094 53006=
201403101053 METAR KSEA 101053Z 35003KT 7SM -RA FEW005 OVC035 09/08 A2997 RMK AO2 SLP155 P0000 T00940083=
201403100955 SPECI KSEA 100955Z 33003KT 7SM -RA FEW005 OVC033 09/08 A2997 RMK AO2 P0000=
201403100953 METAR KSEA 100953Z 34003KT 1SM R16L/P6000FT -RA BKN005 OVC015 09/08 A2997 RMK AO2 SLP155 P0005 T00940083=
201403100914 SPECI KSEA 100914Z 32004KT 1SM R16L/P6000FT -RA BR BKN005 OVC015 09/08 A2997 RMK AO2 P0002=
201403100853 METAR KSEA 100853Z 29003KT 1 1/2SM -RA BR SCT005 BKN015 OVC031 09/08 A2996 RMK AO2 RAE05B50DZB11E50 SLP153 P0006 60011 T00940083 55002=
201403100812 SPECI KSEA 100812Z 00000KT 1 1/2SM -DZ BR SCT005 BKN015 OVC021 09/09 A2996 RMK AO2 RAE05DZB11 P0001=
201403100753 METAR KSEA 100753Z 33004KT 1 1/2SM -RA BR BKN005 OVC015 09/08 A2996 RMK AO2 RAB08 SLP150 P0004 T00940083 401500094=
201403100653 METAR KSEA 100653Z 33005KT 7SM FEW002 OVC005 10/09 A2996 RMK AO2 RAE40 SLP151 P0001 T01000089=
201403100553 METAR KSEA 100553Z 25005KT 6SM -RA BR BKN007 OVC015 10/09 A2997 RMK AO2 SLP155 P0006 60010 T01000089 10133 20100 58000=
201403100525 SPECI KSEA 100525Z 21007KT 4SM -RA BR BKN007 BKN030 OVC044 11/09 A2997 RMK AO2 P0002=
201403100453 METAR KSEA 100453Z 20006KT 10SM -RA FEW009 BKN020 OVC050 11/09 A2997 RMK AO2 SLP156 P0003 T01060094=
201403100414 SPECI KSEA 100414Z 20005KT 10SM -RA SCT012 BKN017 OVC065 11/09 A2997 RMK AO2 P0001=
201403100402 SPECI KSEA 100402Z 19005KT 10SM -RA BKN014 OVC060 11/09 A2997 RMK AO2 P0001=
201403100353 METAR KSEA 100353Z 19004KT 10SM -RA FEW016 SCT028 OVC060 11/09 A2997 RMK AO2 RAB15E36B52 SLP155 P0001 T01110094=
201403100327 SPECI KSEA 100327Z 18004KT 10SM -RA SCT014 SCT022 OVC065 11/09 A2997 RMK AO2 RAB15 P0001=
201403100316 SPECI KSEA 100316Z 19004KT 10SM -RA BKN014 BKN024 OVC075 11/09 A2997 RMK AO2 RAB15 P0001=
201403100253 METAR KSEA 100253Z 18004KT 10SM SCT016 OVC070 11/09 A2997 RMK AO2 RAE0154 SLP155 60000 T01110089 56005=
201403100153 METAR KSEA 100153Z 22007KT 10SM -RA BKN060 OVC080 12/09 A2998 RMK AO2 RAB45 SLP157 P0000 T01170089=
201403100053 METAR KSEA 100053Z 20006KT 10SM FEW038 BKN060 OVC080 12/09 A2998 RMK AO2 RAB31E51 SLP157 P0000 T01220089=
201403092353 METAR KSEA 092353Z 22006KT 10SM SCT055 BKN070 OVC200 13/08 A2999 RMK AO2 RAB34E46 SLP160 P0000 60000 T01330083 10150 20122 56010=
201403092253 METAR KSEA 092253Z 22010KT 10SM FEW040 BKN090 OVC200 14/09 A2999 RMK AO2 SLP161 T01440089=
201403092153 METAR KSEA 092153Z 21012KT 10SM FEW040 BKN090 OVC200 14/09 A3000 RMK AO2 SLP164 T01440089=
201403092053 METAR KSEA 092053Z 22010KT 10SM FEW042 SCT090 BKN200 14/09 A3002 RMK AO2 SLP171 T01390094 50003=
201403091953 METAR KSEA 091953Z 21011KT 10SM FEW012 SCT042 BKN110 14/10 A3002 RMK AO2 SLP172 T01390100=
201403091853 METAR KSEA 091853Z 22011KT 10SM SCT010 BKN049 OVC070 13/10 A3003 RMK AO2 SLP176 T01280100=
201403091753 METAR KSEA 091753Z 21010KT 10SM SCT008 BKN014 OVC085 13/10 A3001 RMK AO2 SLP167 60000 T01280100 10128 20111 51024=
201403091721 SPECI KSEA 091721Z 21012KT 10SM OVC008 12/10 A2999 RMK AO2=
201403091653 METAR KSEA 091653Z 19010KT 10SM OVC010 12/09 A2998 RMK AO2 SLP158 T01170094=
201403091553 METAR KSEA 091553Z 18006KT 10SM BKN013 OVC100 11/09 A2997 RMK AO2 SLP154 T01110094=
201403091453 METAR KSEA 091453Z 20008KT 10SM BKN013 BKN080 OVC100 11/09 A2994 RMK AO2 SLP143 60000 T01110089 53015=
201403091435 SPECI KSEA 091435Z 18008KT 10SM OVC013 11/09 A2993 RMK AO2=
201403091401 SPECI KSEA 091401Z 20007KT 10SM BKN015 BKN060 OVC070 11/09 A2992 RMK AO2=
201403091353 METAR KSEA 091353Z 20006KT 10SM SCT013 BKN060 OVC075 11/09 A2992 RMK AO2 SLP137 T01110089=
201403091253 METAR KSEA 091253Z 20010KT 10SM SCT009 OVC070 11/09 A2991 RMK AO2 RAB16E25 SLP134 P0000 T01110094=
201403091153 METAR KSEA 091153Z 20013G19KT 10SM SCT009 OVC070 11/09 A2989 RMK AO2 SLP129 60013 70128 T01110094 10128 20111 51008=
201403091133 SPECI KSEA 091133Z 20011G18KT 10SM FEW009 BKN070 OVC085 12/09 A2988 RMK AO2=
201403091053 METAR KSEA 091053Z 21013KT 10SM SCT013 OVC080 12/10 A2989 RMK AO2 SLP128 T01170100=
201403091044 SPECI KSEA 091044Z 20015KT 10SM SCT013 OVC080 12/10 A2989 RMK AO2=
201403091007 SPECI KSEA 091007Z 21012G22KT 10SM FEW007 BKN013 OVC075 12/10 A2989 RMK AO2=
201403091000 SPECI KSEA 091000Z 21012G21KT 10SM FEW007 SCT013 OVC075 12/10 A2989 RMK AO2=
201403090953 METAR KSEA 090953Z 21013G21KT 10SM FEW007 BKN013 OVC075 12/10 A2989 RMK AO2 SLP126 T01170100=
201403090927 SPECI KSEA 090927Z 20013KT 10SM SCT007 BKN013 OVC030 12/11 A2988 RMK AO2=
201403090853 METAR KSEA 090853Z 22013G20KT 10SM BKN007 OVC012 12/11 A2987=
201403090759 SPECI KSEA 090759Z 21012G19KT 10SM BKN009 OVC017 13/11 A2983 RMK AO2 RAE58 P0000=
201403090753 METAR KSEA 090753Z 21012KT 10SM -RA BKN010 OVC015 13/11 A2983 RMK AO2 SLP107 P0003 T01280111 401280067=
201403090653 METAR KSEA 090653Z 20011G20KT 5SM -RA BR BKN010 BKN017 OVC026 13/11 A2981 RMK AO2 SLP099 P0009 T01280111=
201403090637 SPECI KSEA 090637Z 20011KT 5SM -RA BR BKN010 BKN017 OVC026 13/11 A2980 RMK AO2 P0008=
201403090553 METAR KSEA 090553Z 20013KT 5SM RA BR BKN005 BKN012 OVC025 13/11 A2979 RMK AO2 SLP095 P0013 60070 T01280111 10128 20106 53015=
201403090453 METAR KSEA 090453Z 18007KT 5SM RA BR BKN003 BKN007 OVC012 12/11 A2978 RMK AO2 SLP091 P0013 T01170106=
201403090412 SPECI KSEA 090412Z 18006KT 5SM -RA BR OVC003 11/10 A2976 RMK AO2 P0003=
201403090353 METAR KSEA 090353Z 17005KT 5SM -RA BR BKN005 OVC010 11/10 A2975 RMK AO2 SLP081 P0009 T01110100=
201403090316 SPECI KSEA 090316Z 17003KT 5SM -RA BR SCT005 BKN010 OVC028 11/10 A2975 RMK AO2 P0004=
201403090309 SPECI KSEA 090309Z 15003KT 1 1/2SM -RA BR BKN005 BKN010 OVC028 11/10 A2975 RMK AO2 SFC VIS 5 P0003=
201403090253 METAR KSEA 090253Z 00000KT 1 1/2SM RA BR FEW007 BKN022 OVC028 11/10 A2975 RMK AO2 SFC VIS 4 SLP081 P0015 60035 T01060100 56019=
201403090153 METAR KSEA 090153Z 00000KT 1 1/2SM RA BR FEW015 BKN025 OVC031 11/10 A2976 RMK AO2 SFC VIS 2 1/2 SLP083 P0012 T01110100=
201403090053 METAR KSEA 090053Z 12006KT 1 1/2SM -RA BR BKN010 OVC020 11/09 A2977 RMK AO2 SFC VIS 3 SLP086 P0008 T01110094=
201403082353 METAR KSEA 082353Z 00000KT 1 1/2SM -RA BR BKN010 OVC020 11/09 A2981 RMK AO2 SFC VIS 2 SLP100 P0008 60045 T01060094 10106 20100 56031=
201403082332 SPECI KSEA 082332Z 00000KT 1 1/2SM -RA BR BKN010 OVC028 11/09 A2981 RMK AO2 SFC VIS 2 P0006=
201403082253 METAR KSEA 082253Z 34003KT 1 1/2SM RA BR BKN016 OVC025 10/09 A2983 RMK AO2 SLP109 P0015 T01000089=
201403082239 SPECI KSEA 082239Z 29003KT 1 1/2SM RA BR FEW003 BKN025 OVC032 10/09 A2984 RMK AO2 SFC VIS 2 P0011=
201403082221 SPECI KSEA 082221Z 00000KT 2 1/2SM R16L/4500VP6000FT RA BR FEW003 SCT020 OVC032 10/09 A2983 RMK AO2 P0005=
201403082153 METAR KSEA 082153Z 07005KT 5SM -RA BR FEW018 OVC034 10/08 A2985 RMK AO2 SLP116 P0007 T01000083 $=
201403082053 METAR KSEA 082053Z 02005KT 3SM -RA BR FEW008 OVC044 10/08 A2990 RMK AO2 SLP132 P0008 60015 T01000083 58019=
201403082045 SPECI KSEA 082045Z 01004KT 4SM RA BR FEW008 OVC044 10/08 A2991 RMK AO2 P0007=
201403081953 METAR KSEA 081953Z 00000KT 7SM -RA OVC055 10/07 A2993 RMK AO2 SLP143 P0005 T01000072=
201403081853 METAR KSEA 081853Z 21003KT 10SM -RA OVC060 10/07 A2995 RMK AO2 SLP151 P0002 T01000072=
201403081753 METAR KSEA 081753Z 10006KT 10SM -RA OVC065 10/06 A2996 RMK AO2 RAB50 SLP151 P0000 60000 T01000061 10100 20067 56019=
201403081653 METAR KSEA 081653Z 20006KT 10SM SCT065 BKN080 OVC095 09/04 A2998 RMK AO2 SLP159 T00890044=
201403081553 METAR KSEA 081553Z 19003KT 10SM OVC100 08/03 A2999 RMK AO2 SLP160 T00830028=
201403081453 METAR KSEA 081453Z 15005KT 10SM OVC140 08/02 A3001 RMK AO2 SLP170 T00830022 58015=
201403081353 METAR KSEA 081353Z 14007KT 10SM FEW120 OVC200 08/03 A3002=
201403081253 METAR KSEA 081253Z 14006KT 10SM FEW120 OVC200 07/04 A3004 RMK AO2 SLP180 T00720039=
201403081153 METAR KSEA 081153Z 15006KT 10SM OVC200 08/04 A3006 RMK AO2 SLP184 T00780044 10106 20067 58019=
201403081053 METAR KSEA 081053Z 13008KT 10SM FEW220 08/04 A3007 RMK AO2 SLP189 T00780039=
201403080953 METAR KSEA 080953Z 17003KT 10SM FEW220 07/04 A3011 RMK AO2 SLP203 T00670039=
201403080853 METAR KSEA 080853Z 12007KT 10SM CLR 09/05 A3011 RMK AO2 SLP203 T00890050 56019=
201403080753 METAR KSEA 080753Z 12004KT 10SM FEW220 09/06 A3013 RMK AO2 SLP208 T00890056 401560089=
201403080653 METAR KSEA 080653Z 12007KT 10SM FEW220 10/06 A3014 RMK AO2 SLP213 T01000061=
201403080553 METAR KSEA 080553Z 11007KT 10SM FEW220 11/06 A3017 RMK AO2 SLP222 T01060061 10156 20106 58014=
201403080453 METAR KSEA 080453Z 11006KT 10SM FEW110 SCT210 12/06 A3019 RMK AO2 SLP229 T01170056=
201403080353 METAR KSEA 080353Z 12003KT 10SM FEW110 SCT200 13/05 A3020 RMK AO2 SLP231 T01330050=
201403080253 METAR KSEA 080253Z 14004KT 10SM FEW050 SCT110 SCT190 13/05 A3021 RMK AO2 SLP236 T01280050 53001=
201403080153 METAR KSEA 080153Z 00000KT 10SM FEW050 SCT110 BKN190 14/06 A3021 RMK AO2 SLP236 T01390056=
201403080053 METAR KSEA 080053Z 23006KT 10SM FEW050 SCT100 BKN210 15/06 A3021 RMK AO2 SLP235 T01500056=
201403072353 METAR KSEA 072353Z 24006KT 10SM FEW040 SCT120 SCT220 16/06 A3021 RMK AO2 SLP235 T01560061 10156 20117 56022=
201403072253 METAR KSEA 072253Z 19007KT 10SM FEW040 SCT100 SCT220 15/06 A3023 RMK AO2 SLP243 T01500061=
201403072153 METAR KSEA 072153Z 21007KT 10SM FEW030 SCT090 BKN200 14/08 A3025 RMK AO2 SLP249 T01440078=
201403072053 METAR KSEA 072053Z 20007KT 10SM SCT025 BKN047 BKN200 14/08 A3027 RMK AO2 SLP258 T01440078 58003=
201403071953 METAR KSEA 071953Z 23008KT 10SM SCT021 BKN042 BKN200 13/08 A3029 RMK AO2 SLP262 T01280078=
201403071930 SPECI KSEA 071930Z 21009KT 10SM SCT021 BKN042 BKN200 13/07 A3028 RMK AO2=
201403071853 METAR KSEA 071853Z 20008KT 10SM SCT019 BKN028 BKN200 13/08 A3028 RMK AO2 SLP259 T01280078=
201403071753 METAR KSEA 071753Z 20008KT 10SM BKN024 BKN200 12/07 A3028=
201403071714 SPECI KSEA 071714Z 19010KT 10SM BKN022 BKN200 11/07 A3027 RMK AO2=
201403071653 METAR KSEA 071653Z 19011KT 10SM SCT022 BKN200 11/07 A3026 RMK AO2 SLP255 T01110067=
201403071641 SPECI KSEA 071641Z 19011G17KT 10SM BKN021 BKN200 11/07 A3026 RMK AO2=
201403071553 METAR KSEA 071553Z 19010KT 10SM SCT015 BKN200 09/06 A3024 RMK AO2 SLP249 T00940061=
201403071531 SPECI KSEA 071531Z 18013KT 10SM SCT015 BKN200 09/06 A3023 RMK AO2=
201403071453 METAR KSEA 071453Z 16010KT 10SM BKN017 BKN200 09/06 A3022 RMK AO2 SLP241 T00890061 53021=
201403071353 METAR KSEA 071353Z 19014G20KT 10SM BKN015 09/06 A3019 RMK AO2 SLP231 T00940061=
201403071308 SPECI KSEA 071308Z 20012G20KT 10SM OVC019 09/07 A3018 RMK AO2=
201403071253 METAR KSEA 071253Z 21014KT 10SM OVC014 09/07 A3018 RMK AO2 SLP226 T00940067=
201403071153 METAR KSEA 071153Z 21010KT 10SM OVC014 09/07 A3016 RMK AO2 SLP220 70008 T00940072 10106 20094 51019=
201403071053 METAR KSEA 071053Z 20011G18KT 10SM OVC014 10/07 A3015 RMK AO2 SLP217 T01000072=
201403070953 METAR KSEA 070953Z 20015G20KT 10SM OVC014 10/08 A3013 RMK AO2 SLP210 T01000078=
201403070853 METAR KSEA 070853Z 20013KT 10SM OVC014 10/08 A3010 RMK AO2 SLP200 T01000078 51029=
201403070753 METAR KSEA 070753Z 20014KT 10SM BKN014 OVC020 10/08 A3008 RMK AO2 SLP191 T01000078 401330100=
201403070653 METAR KSEA 070653Z 21013KT 10SM OVC014 10/08 A3005 RMK AO2 SLP183 T01000078=
201403070553 METAR KSEA 070553Z 21013KT 10SM OVC013 10/08 A3002 RMK AO2 SLP170 T01000083 10117 20100 51032=
201403070523 SPECI KSEA 070523Z 21013KT 10SM OVC013 10/08 A3000 RMK AO2=
201403070453 METAR KSEA 070453Z 21012KT 10SM OVC016 10/08 A2999=
201403070353 METAR KSEA 070353Z 21010G18KT 10SM OVC018 11/08 A2996 RMK AO2 SLP152 T01060083=
201403070312 SPECI KSEA 070312Z 20014G19KT 10SM SCT015 BKN024 OVC038 11/08 A2993 RMK AO2=
201403070253 METAR KSEA 070253Z 21011KT 10SM FEW015 SCT040 BKN140 11/08 A2992 RMK AO2 SLP138 T01060083 51030=
201403070222 SPECI KSEA 070222Z 21013G20KT 10SM FEW012 SCT021 SCT140 BKN220 11/08 A2991 RMK AO2=
201403070153 METAR KSEA 070153Z 20012G21KT 10SM BKN019 BKN140 BKN220 11/08 A2989 RMK AO2 SLP128 T01060078=
201403070123 SPECI KSEA 070123Z 22015KT 10SM BKN019 BKN045 BKN140 11/08 A2988 RMK AO2=
201403070053 METAR KSEA 070053Z 21010G17KT 10SM SCT013 BKN041 BKN140 11/09 A2987=
201403070043 SPECI KSEA 070043Z 21012KT 10SM FEW013 BKN033 BKN043 11/08 A2987 RMK AO2=
201403062353 METAR KSEA 062353Z 20013G21KT 10SM FEW021 BKN027 BKN035 OVC140 12/08 A2983 RMK AO2 PK WND 22028/2306 SLP107 60001 T01170078 10133 20111 51062=
201403062332 SPECI KSEA 062332Z 20017G24KT 10SM BKN022 BKN130 11/07 A2982 RMK AO2 PK WND 22028/2306=
201403062253 METAR KSEA 062253Z 21018G28KT 10SM SCT020 BKN110 BKN200 11/07 A2979 RMK AO2 PK WND 22034/2214 PRESRR SLP092 T01110072=
201403062231 SPECI KSEA 062231Z 21020G32KT 10SM SCT018 BKN100 BKN200 11/08 A2975 RMK AO2 PK WND 22034/2214 PRESRR=
201403062153 METAR KSEA 062153Z 22019G34KT 10SM BKN018 BKN090 BKN200 11/08 A2970 RMK AO2 PK WND 23034/2145 RAE2056 SLP064 P0001 T01110078=
201403062053 METAR KSEA 062053Z 20015G22KT 7SM -RA BKN026 OVC032 12/08 A2964 RMK AO2 PK WND 20029/1957 RAE09B46 SLP044 P0000 60000 T01220083 51030=
201403062048 SPECI KSEA 062048Z 20014G22KT 8SM -RA BKN028 BKN034 OVC043 13/08 A2964 RMK AO2 PK WND 20029/1957 RAE09B46 P0000=
201403061953 METAR KSEA 061953Z 20014G26KT 10SM -RA BKN035 OVC042 13/07 A2960 RMK AO2 PK WND 21026/1944 RAB33 SLP028 P0000 T01330072=
201403061853 METAR KSEA 061853Z 21007KT 10SM BKN044 OVC060 13/09 A2956 RMK AO2 SLP014 T01330089=
201403061753 METAR KSEA 061753Z 19007KT 10SM FEW045 BKN060 OVC075 12/09 A2954 RMK AO2 RAB08E17 SLP008 P0000 60007 T01220089 10122 20106 53001=
201403061653 METAR KSEA 061653Z 18011KT 10SM OVC060 12/08 A2953 RMK AO2 RAE03B34E40 SLP006 P0000 T01170083=
201403061553 METAR KSEA 061553Z 17011KT 10SM -RA BKN050 OVC065 11/08 A2954 RMK AO2 RAB12 SLP009 P0001 T01060078=
201403061453 METAR KSEA 061453Z 17012KT 10SM BKN055 OVC070 11/08 A2954 RMK AO2 RAE49 SLP007 P0000 60006 T01110078 55000=
201403061353 METAR KSEA 061353Z 17013KT 10SM -RA OVC047 11/08 A2952 RMK AO2 SLP003 P0001 T01110078=
201403061253 METAR KSEA 061253Z 14009KT 7SM -RA OVC041 11/08 A2953 RMK AO2 RAB1155 SLP005 P0005 T01060083=
201403061153 METAR KSEA 061153Z 18012KT 10SM FEW025 BKN047 BKN100 12/08 A2954 RMK AO2 RAE23 SLP008 P0001 60019 70123 T01170078 10133 20111 53004=
201403061053 METAR KSEA 061053Z 19013KT 9SM RA SCT035 OVC043 12/08 A2954 RMK AO2 RAE0959B22 SLP007 P0001 T01170083=
201403060953 METAR KSEA 060953Z 17010KT 10SM -RA FEW048 BKN065 BKN110 11/09 A2953 RMK AO2 RAE22B50 SLP004 P0000 T01110089=
201403060930 SPECI KSEA 060930Z 17009KT 10SM SCT018 SCT040 BKN110 11/09 A2953 RMK AO2 RAE22 P0000=
201403060853 METAR KSEA 060853Z 19009KT 10SM -RA SCT018 BKN024 OVC050 11/09 A2953 RMK AO2 PK WND 20030/0757 SLP004 P0004 60017 T01110094 53026=
201403060753 METAR KSEA 060753Z 22018G29KT 8SM -RA FEW030 SCT037 OVC047 12/09 A2949 RMK AO2 PK WND 19029/0747 SLP993 P0012 T01170089 401560106=
201403060653 METAR KSEA 060653Z 20009G17KT 10SM -RA BKN044 OVC050 12/10 A2947 RMK AO2 RAB17 SLP984 P0001 T01220100=
201403060553 METAR KSEA 060553Z 16011KT 10SM FEW015 SCT060 BKN085 12/11 A2945 RMK AO2 SLP977 60044 T01220106 10139 20117 58010=
201403060541 SPECI KSEA 060541Z 15014G23KT 10SM SCT015 BKN055 BKN080 12/11 A2945 RMK AO2=
201403060532 SPECI KSEA 060532Z 14016G20KT 10SM BKN015 BKN220 12/10 A2945 RMK AO2=
201403060513 SPECI KSEA 060513Z 14011G20KT 10SM SCT020 SCT220 12/10 A2946 RMK AO2=
201403060453 METAR KSEA 060453Z 15010KT 10SM BKN022 12/10 A2946 RMK AO2 RAE12 SLP982 P0001 T01170100=
201403060441 SPECI KSEA 060441Z 15008KT 10SM BKN022 BKN030 OVC080 12/11 A2946 RMK AO2 RAE12 P0001=
201403060353 METAR KSEA 060353Z 00000KT 3SM +RA BR SCT024 OVC035 12/11 A2948 RMK AO2 SLP989 P0018 T01220106=
201403060253 METAR KSEA 060253Z 12009KT 6SM RA BR BKN055 OVC065 13/11 A2948 RMK AO2 SLP988 P0013 60025 T01280106 56030=
201403060153 METAR KSEA 060153Z 11009KT 6SM RA BR OVC055 13/11 A2949 RMK AO2 SLP993 P0009 T01330111=
201403060053 METAR KSEA 060053Z 13012KT 7SM -RA FEW009 BKN047 OVC070 14/12 A2953 RMK AO2 DZE2359RAB2359 SLP005 P0003 T01390117=
201403060024 SPECI KSEA 060024Z 12007KT 10SM -RA FEW006 BKN038 OVC049 14/12 A2956 RMK AO2 DZE2359RAB2359 P0001=
201403060005 SPECI KSEA 060005Z 14005KT 8SM -RA FEW006 BKN028 OVC043 13/12 A2957 RMK AO2 DZE2359RAB2359 P0001=
201403052353 METAR KSEA 052353Z 09008KT 10SM -DZ FEW023 BKN031 OVC040 14/12 A2957 RMK AO2 RAE01B31E41DZB51 SLP019 P0000 60004 T01390117 10156 20128 58039=
201403052322 SPECI KSEA 052322Z 11007KT 6SM BR FEW008 BKN029 OVC046 14/12 A2959 RMK AO2 RAE01 P0000=
201403052253 METAR KSEA 052253Z 00000KT 5SM -RA SCT017 BKN037 OVC048 14/11 A2962 RMK AO2 RAB49 SLP035 P0000 T01390111=
201403052153 METAR KSEA 052153Z 25004KT 10SM SCT036 BKN150 BKN230 14/11 A2964 RMK AO2 SLP044 T01440111=
201403052053 METAR KSEA 052053Z 25004KT 10SM FEW010 SCT020 BKN250 15/12 A2969 RMK AO2 SLP058 60004 T01500122 58003=
201403051953 METAR KSEA 051953Z 21005KT 10SM FEW007 BKN019 BKN200 14/11 A2971 RMK AO2 SLP066 T01390111=
201403051853 METAR KSEA 051853Z 24012G17KT 10SM SCT007 BKN023 BKN200 13/12 A2971 RMK AO2 RAB1754E50 SLP067 P0004 T01330117=
201403051817 SPECI KSEA 051817Z 23013KT 7SM -RA BKN007 OVC015 13/12 A2971 RMK AO2 RAB1754 P0000=
201403051753 METAR KSEA 051753Z 21011KT 2 1/2SM BR BKN007 OVC013 13/12 A2969 RMK AO2 RAB07E31 SLP061 P0004 60056 T01280117 10133 20106 53011=
201403051653 METAR KSEA 051653Z 20013KT 2SM R16L/6000VP6000FT BR BKN008 OVC014 13/11 A2968 RMK AO2 RAB23E41 SLP056 P0003 T01280111=
201403051553 METAR KSEA 051553Z 19008KT 3SM BR OVC006 13/11 A2967 RMK AO2 SFC VIS 4 RAE10 SLP052 P0001 T01280111=
201403051453 METAR KSEA 051453Z 16009KT 2SM -RA BR BKN005 OVC008 11/10 A2966 RMK AO2 SLP050 P0006 60048 T01110100 55010=
201403051422 SPECI KSEA 051422Z 14007KT 2SM -RA BR BKN006 OVC011 11/09 A2965 RMK AO2 P0003=
201403051410 SPECI KSEA 051410Z 13007KT 3SM -RA BR SCT004 OVC011 11/09 A2966 RMK AO2 P0003=
201403051353 METAR KSEA 051353Z 14006KT 3SM -RA BR FEW004 BKN017 OVC024 11/09 A2966 RMK AO2 SLP050 P0019 T01060094=
201403051343 SPECI KSEA 051343Z 13007KT 3SM RA BR BKN018 OVC022 11/09 A2966 RMK AO2 P0017=
201403051307 SPECI KSEA 051307Z 11004KT 3SM RA BR FEW006 OVC014 11/09 A2966 RMK AO2 P0004=
201403051253 METAR KSEA 051253Z 10005KT 4SM RA BR OVC018 11/09 A2966 RMK AO2 SLP048 P0023 T01060094=
201403051215 SPECI KSEA 051215Z 12007KT 3SM +RA BR SCT020 BKN025 OVC033 11/10 A2968 RMK AO2 P0011=
201403051153 METAR KSEA 051153Z 12003KT 2 1/2SM +RA BR SCT019 OVC024 11/10 A2969 RMK AO2 SLP060 P0023 60068 70124 T01110100 10117 20106 56031=
201403051146 SPECI KSEA 051146Z 13005KT 2 1/2SM RA BR FEW013 BKN023 OVC034 11/09 A2969 RMK AO2 P0019=
201403051106 SPECI KSEA 051106Z 09009KT 4SM RA BR SCT006 BKN047 OVC055 11/09 A2970 RMK AO2 P0004=
201403051053 METAR KSEA 051053Z 06006KT 2SM RA BR FEW006 BKN045 OVC055 11/09 A2972 RMK AO2 SLP068 P0027 T01060094=
201403051015 SPECI KSEA 051015Z 05006KT 4SM RA BR OVC049 11/10 A2975 RMK AO2 P0006=
201403051000 SPECI KSEA 051000Z 02006KT 5SM -RA BR BKN027 BKN050 OVC055 11/10 A2975 RMK AO2 P0001=
201403050953 METAR KSEA 050953Z 03006KT 2SM RA BR BKN027 OVC048 11/10 A2975 RMK AO2 SLP081 P0012 T01110100=
201403050939 SPECI KSEA 050939Z 00000KT 2 1/2SM +RA BR BKN027 BKN035 OVC050 11/09 A2976 RMK AO2 P0007=
201403050853 METAR KSEA 050853Z 13006KT 10SM -RA OVC060 11/09 A2978 RMK AO2 SLP092 P0004 60006 T01110094 58034=
201403050841 SPECI KSEA 050841Z 12005KT 9SM -RA OVC060 11/09 A2979 RMK AO2 P0004=
201403050753 METAR KSEA 050753Z 12004KT 8SM -RA BKN029 OVC037 11/10 A2982 RMK AO2 RAB0658 SLP105 P0002 T01110100 401390078=
201403050653 METAR KSEA 050653Z 10005KT 10SM OVC025 12/10 A2986 RMK AO2 RAB29E30 SLP116 P0000 T01170100=
201403050553 METAR KSEA 050553Z VRB03KT 10SM FEW013 OVC023 12/10 A2989 RMK AO2 RAE31 SLP127 P0001 60012 T01170100 10133 20111 58012=
201403050453 METAR KSEA 050453Z 20005KT 4SM -RA BR FEW004 SCT017 OVC023 11/10 A2990 RMK AO2 RAB10 SLP131 P0007 T01110100=
201403050436 SPECI KSEA 050436Z 18008KT 4SM RA BR SCT017 BKN030 OVC046 11/10 A2990 RMK AO2 RAB10 P0006=
201403050410 SPECI KSEA 050410Z 19007KT 8SM -RA BKN019 OVC036 12/10 A2991 RMK AO2 RAB10 P0001=
201403050353 METAR KSEA 050353Z 19007KT 10SM FEW019 SCT024 OVC036 12/10 A2991 RMK AO2 RAE45 SLP135 P0001 T01170100=
201403050345 SPECI KSEA 050345Z 18007KT 10SM FEW019 SCT024 OVC038 12/10 A2991 RMK AO2 RAE45 P0001=
201403050253 METAR KSEA 050253Z 19008KT 5SM -RA BR BKN017 BKN023 OVC028 12/10 A2992 RMK AO2 SLP139 P0002 60003 T01170100 55002=
201403050153 METAR KSEA 050153Z 20008KT 7SM -RA FEW013 OVC021 12/10 A2991 RMK AO2 RAB10 SLP137 P0001 T01170100=
201403050111 SPECI KSEA 050111Z 19010KT 9SM -RA SCT015 BKN021 OVC032 12/10 A2992 RMK AO2 RAB10 P0000=
201403050053 METAR KSEA 050053Z 19010KT 10SM FEW014 SCT033 BKN040 12/09 A2992 RMK AO2 SLP136 T01220094=
201403042353 METAR KSEA 042353Z 20014G19KT 10SM FEW020 OVC033 13/09 A2992 RMK AO2 RAE2259 SLP139 P0001 60009 T01330094 10139 20089 50001=
201403042344 SPECI KSEA 042344Z 19013KT 10SM SCT020 SCT028 OVC033 14/10 A2992 RMK AO2 RAE2259 P0001=
201403042303 SPECI KSEA 042303Z 20012G18KT 10SM FEW014 BKN023 OVC032 13/10 A2993 RMK AO2 RAE2259 P0001=
201403042253 METAR KSEA 042253Z 19014G21KT 8SM -RA BKN014 BKN022 OVC026 12/10 A2993 RMK AO2 RAB2154E14B41 SLP142 P0000 T01220100=
201403042153 METAR KSEA 042153Z 21014G20KT 7SM FEW010 BKN023 OVC035 12/09 A2992 RMK AO2 RAB21E49 SLP139 P0000 T01220089=
201403042121 SPECI KSEA 042121Z 21012G20KT 10SM -RA FEW009 BKN022 OVC033 12/09 A2992 RMK AO2 RAB21 P0000=
201403042053 METAR KSEA 042053Z 20013KT 10SM FEW008 BKN014 OVC029 12/09 A2992 RMK AO2 SLP138 60008 T01170094 58011=
201403041953 METAR KSEA 041953Z 18010KT 10SM SCT008 BKN013 OVC028 11/09 A2994 RMK AO2 RAB1857E32 SLP144 P0002 T01110089=
201403041853 METAR KSEA 041853Z 18012KT 7SM BKN008 OVC024 11/09 A2994 RMK AO2 RAE50 SLP147 P0006 T01060089=
201403041831 SPECI KSEA 041831Z 18010KT 5SM -RA BR FEW004 BKN008 OVC016 10/09 A2995 RMK AO2 P0005=
201403041753 METAR KSEA 041753Z 17006KT 1 1/4SM -RA BR SCT004 BKN008 OVC015 09/08 A2995 RMK AO2 SLP150 P0012 60035 T00940083 10100 20078 50003=
201403041742 SPECI KSEA 041742Z 16004KT 1 1/4SM RA BR SCT004 BKN008 OVC027 09/08 A2995 RMK AO2 P0010=
201403041724 SPECI KSEA 041724Z 20005KT 1 1/4SM -RA BR SCT004 BKN016 OVC046 09/08 A2996 RMK AO2 SFC VIS 1 1/2 P0006=
201403041653 METAR KSEA 041653Z 00000KT 3/4SM R16L/P6000FT RA BR OVC004 08/07 A2996 RMK AO2 SFC VIS 1 SLP151 P0005 T00780072=
201403041553 METAR KSEA 041553Z 00000KT 3/4SM -RA BR OVC002 08/07 A2995 RMK AO2 SFC VIS 1 1/4 SLP149 P0004 T00780067=
201403041528 SPECI KSEA 041528Z 21005KT 3/4SM -RA BR BKN002 OVC042 08/08 A2995 RMK AO2 SFC VIS 2 P0003=
201403041518 SPECI KSEA 041518Z 20005KT 2 1/2SM -RA BR BKN004 OVC042 08/07 A2994 RMK AO2 P0003=
201403041502 SPECI KSEA 041502Z 19005KT 3SM -RA BR SCT004 OVC044 08/07 A2994 RMK AO2 P0002=
201403041453 METAR KSEA 041453Z 00000KT 1 1/2SM RA BR BKN004 OVC036 08/07 A2994 RMK AO2 SFC VIS 2 1/2 SLP147 P0011 60014 T00780067 53005=
201403041443 SPECI KSEA 041443Z 29003KT 1 1/2SM RA BR BKN004 OVC029 08/07 A2995 RMK AO2 SFC VIS 2 P0009=
201403041353 METAR KSEA 041353Z 21007KT 1SM R16L/P6000FT -RA BR OVC002 09/08 A2993 RMK AO2 TWR VIS 1 1/2 RAB40 SLP143 P0001 T00940083=
201403041341 SPECI KSEA 041341Z 22008KT 1SM R16L/P6000FT -RA BR OVC002 09/08 A2993 RMK AO2 TWR VIS 1 1/2 RAB40 P0000=
201403041253 METAR KSEA 041253Z 22008KT 1 1/2SM BR BKN002 BKN006 OVC013 09/08 A2993 RMK AO2 RAE50 SLP141 P0002 T00940083=
201403041243 SPECI KSEA 041243Z 21007KT 1 1/2SM -RA BR BKN004 BKN013 OVC020 09/08 A2993 RMK AO2 P0002=
201403041233 SPECI KSEA 041233Z 23007KT 1SM R16L/P6000FT -RA BR SCT004 BKN021 OVC031 09/08 A2993 RMK AO2 P0001=
201403041153 METAR KSEA 041153Z 19009KT 5SM -RA BR FEW007 BKN030 OVC041 10/08 A2993 RMK AO2 SLP140 P0005 60006 70043 T01000083 10100 20094 50000=
201403041145 SPECI KSEA 041145Z 18009KT 5SM -RA BR FEW007 BKN030 OVC041 09/08 A2993 RMK AO2 P0005=
201403041109 SPECI KSEA 041109Z 18006KT 3SM -RA BR FEW009 BKN028 OVC043 10/08 A2993 RMK AO2 P0002=
201403041053 METAR KSEA 041053Z 20006KT 6SM -RA BR FEW016 BKN031 OVC043 10/08 A2993 RMK AO2 RAB38 SLP143 P0001 T01000083=
201403041003 SPECI KSEA 041003Z 20009KT 10SM FEW013 BKN026 OVC035 10/08 A2994 RMK AO2=
201403040953 METAR KSEA 040953Z 19009KT 10SM FEW015 SCT022 OVC030 10/08 A2994 RMK AO2 SLP143 T01000083=
201403040853 METAR KSEA 040853Z 20010KT 10SM SCT015 BKN020 OVC025 10/08 A2993 RMK AO2 SLP140 T01000078 53014=
201403040753 METAR KSEA 040753Z 19011KT 10SM BKN015 BKN020 OVC026 10/08 A2991 RMK AO2 SLP134 T01000078 401440089=
201403040653 METAR KSEA 040653Z 20010KT 10SM SCT015 BKN021 BKN027 10/08 A2990 RMK AO2 SLP133 T01000078=
201403040553 METAR KSEA 040553Z 20012KT 10SM BKN021 BKN026 OVC038 10/08 A2989 RMK AO2 RAE12B31E41 SLP127 P0001 60001 T01000083 10139 20100 52014=
201403040453 METAR KSEA 040453Z 20009KT 9SM -RA FEW019 OVC027 11/08 A2987 RMK AO2 RAB48 SLP122 P0000 T01060078=
201403040353 METAR KSEA 040353Z 20011KT 10SM FEW015 BKN022 BKN200 11/07 A2986 RMK AO2 SLP119 T01060072=
201403040335 SPECI KSEA 040335Z 19012KT 10SM BKN022 BKN100 BKN200 11/07 A2985 RMK AO2=
201403040253 METAR KSEA 040253Z 22010G22KT 10SM FEW025 BKN032 BKN200 11/07 A2984 RMK AO2 SLP113 T01110067 53029=
201403040153 METAR KSEA 040153Z 22009G18KT 10SM FEW030 BKN039 BKN240 12/07 A2981 RMK AO2 SLP101 T01220067=
201403040053 METAR KSEA 040053Z 22012KT 10SM FEW028 SCT100 BKN240 13/07 A2978 RMK AO2 SLP092 T01280067=
201403032353 METAR KSEA 032353Z 24012KT 10SM SCT028 SCT095 BKN240 14/07 A2976 RMK AO2 SLP083 60004 T01390072 10144 20089 53021=
201403032253 METAR KSEA 032253Z 21013G22KT 10SM FEW025 SCT090 BKN200 13/08 A2973 RMK AO2 PK WND 24026/2216 SLP074 T01330078=
201403032153 METAR KSEA 032153Z 21014G19KT 10SM FEW007 SCT090 SCT200 13/08 A2971 RMK AO2 SLP067 T01330083=
201403032053 METAR KSEA 032053Z 23012G18KT 10SM SCT006 SCT012 SCT200 13/10 A2969 RMK AO2 SLP061 60004 T01330100 53005=
201403032044 SPECI KSEA 032044Z 24013G19KT 10SM SCT006 SCT012 SCT200 12/09 A2969 RMK AO2=
201403031953 METAR KSEA 031953Z 20011KT 10SM BKN005 OVC009 12/11 A2968 RMK AO2 RAE13 SLP058 P0001 T01220106=
201403031914 SPECI KSEA 031914Z 17008KT 4SM BR BKN005 OVC009 10/09 A2968 RMK AO2 RAE13 P0001=
201403031853 METAR KSEA 031853Z 14004KT 1 1/2SM -RA BR BKN006 OVC010 09/08 A2968 RMK AO2 SLP059 P0003 T00940083=
201403031841 SPECI KSEA 031841Z 19003KT 1 1/2SM -RA BR BKN006 OVC010 09/08 A2969 RMK AO2 P0003=
201403031825 SPECI KSEA 031825Z 14007KT 1 1/2SM R16L/5500VP6000FT -RA BR SCT005 OVC012 09/08 A2968 RMK AO2 SFC VIS 2 P0003=
201403031814 SPECI KSEA 031814Z 14007KT 1 1/2SM R16L/4500V5500FT -RA BR FEW006 OVC017 09/08 A2968 RMK AO2 P0002=
201403031804 SPECI KSEA 031804Z 14007KT 1 1/2SM R16L/4500VP6000FT -RA BR FEW012 OVC019 09/08 A2968 RMK AO2 P0001=
201403031753 METAR KSEA 031753Z 16008KT 2SM -RA BR FEW012 OVC021 09/07 A2968 RMK AO2 SLP057 P0004 60032 T00890072 10100 20089 55002=
201403031744 SPECI KSEA 031744Z 17009KT 2SM -RA BR FEW012 OVC025 09/07 A2968 RMK AO2 P0002=
201403031719 SPECI KSEA 031719Z 17006KT 3SM -RA BR FEW012 BKN027 OVC039 09/07 A2968 RMK AO2 P0001=
201403031653 METAR KSEA 031653Z 15007KT 8SM -RA FEW010 BKN047 OVC085 09/07 A2968 RMK AO2 SLP056 P0006 T00890067=
201403031618 SPECI KSEA 031618Z 18009KT 6SM RA BR FEW006 BKN031 OVC044 09/07 A2970 RMK AO2 P0004=
201403031553 METAR KSEA 031553Z 17010KT 6SM -RA BR FEW012 BKN024 OVC040 09/07 A2969 RMK AO2 SLP059 P0013 T00940072=
201403031453 METAR KSEA 031453Z 16006KT 6SM -RA BR BKN020 OVC042 09/08 A2969 RMK AO2 SLP059 P0006 60009 T00890078 56018=
201403031419 SPECI KSEA 031419Z 15006KT 6SM -RA BR BKN024 OVC040 09/08 A2969 RMK AO2 P0002=
201403031353 METAR KSEA 031353Z 17005KT 7SM -RA SCT021 OVC030 09/08 A2970 RMK AO2 SLP064 P0003 T00940078=
201403031253 METAR KSEA 031253Z 18010KT 5SM -RA BR FEW015 OVC031 10/08 A2972 RMK AO2 RAB40 SLP072 P0000 T01000083=
201403031153 METAR KSEA 031153Z 16008KT 10SM SCT022 BKN030 09/07 A2974 RMK AO2 RAB18E27 SLP079 P0001 60007 70079 T00890072 10100 20089 58007=
201403031119 SPECI KSEA 031119Z 15008KT 10SM -RA SCT006 SCT025 OVC035 09/08 A2975 RMK AO2 RAB18 P0001=
201403031053 METAR KSEA 031053Z 18010KT 6SM BR FEW006 SCT013 OVC026 09/08 A2975 RMK AO2 RAE43 SLP083 P0002 T00940078=
201403031041 SPECI KSEA 031041Z 19011KT 6SM -RA BR FEW006 SCT013 OVC026 09/08 A2976 RMK AO2 P0002=
201403031030 SPECI KSEA 031030Z 19011KT 2SM -RA BR SCT006 OVC013 09/08 A2976 RMK AO2 P0001=
201403030953 METAR KSEA 030953Z 18013KT 4SM -RA BR SCT009 OVC020 09/08 A2976 RMK AO2 RAE25B48 SLP087 P0002 T00890078=
201403030853 METAR KSEA 030853Z 20012KT 10SM -RA FEW013 OVC020 09/07 A2976 RMK AO2 RAB50 SLP086 P0000 60002 T00940067 51039=
201403030831 SPECI KSEA 030831Z 20010KT 10SM FEW013 BKN020 OVC050 09/07 A2976 RMK AO2=
201403030753 METAR KSEA 030753Z 20011KT 10SM SCT013 OVC050 09/07 A2974 RMK AO2 RAE0655 SLP080 P0000 T00890072 401110028=
201403030653 METAR KSEA 030653Z 20013G23KT 10SM -RA SCT013 OVC050 09/07 A2970 RMK AO2 PK WND 21026/0622 SLP066 P0002 T00890072=
201403030633 SPECI KSEA 030633Z 21018G24KT 10SM -RA SCT013 SCT025 OVC050 09/07 A2969 RMK AO2 PK WND 21026/0622 P0001=
201403030612 SPECI KSEA 030612Z 22015G23KT 10SM -RA SCT009 BKN013 OVC050 09/07 A2967 RMK AO2 PRESRR P0001=
201403030553 METAR KSEA 030553Z 22016G22KT 10SM -RA SCT009 BKN015 OVC050 10/08 A2965 RMK AO2 SLP047 P0005 60025 T01000078 10111 20061 53031=
201403030523 SPECI KSEA 030523Z 21014G24KT 7SM -RA SCT009 BKN016 OVC024 11/09 A2962 RMK AO2 PRESRR P0004=
201403030453 METAR KSEA 030453Z 20016G23KT 10SM -RA OVC013 11/09 A2959 RMK AO2 PK WND 18027/0433 RAB05 SLP027 P0001 T01060089=
201403030404 SPECI KSEA 030404Z 19012KT 10SM BKN019 BKN025 OVC035 11/08 A2956 RMK AO2=
201403030353 METAR KSEA 030353Z 17013G20KT 10SM FEW021 SCT027 OVC035 10/08 A2956 RMK AO2 RAE52 SLP017 P0005 T01000078=
201403030320 SPECI KSEA 030320Z 14009KT 5SM RA BR FEW026 BKN032 OVC040 08/07 A2956 RMK AO2 P0003=
201403030253 METAR KSEA 030253Z 13010KT 8SM -RA BKN026 BKN033 OVC039 08/06 A2955 RMK AO2 RAB20 SLP015 P0004 60014 T00780056 55005=
201403030153 METAR KSEA 030153Z 13012KT 6SM BR SCT025 OVC033 06/04 A2954 RMK AO2 RAE48 SLP011 P0002 T00610044=
201403030145 SPECI KSEA 030145Z 11011KT 5SM -RA BR FEW022 BKN027 OVC033 06/04 A2954 RMK AO2 P0002=
201403030053 METAR KSEA 030053Z 10006KT 1 1/2SM -RA BR OVC023 07/05 A2955 RMK AO2 SFC VIS 2 SLP016 P0008 T00720050=
201403030034 SPECI KSEA 030034Z 09009KT 1 1/2SM RA BR OVC023 07/05 A2955 RMK AO2 SFC VIS 2 P0006=
201403022353 METAR KSEA 022353Z 11009KT 3SM -RA BR SCT014 BKN026 OVC036 07/06 A2957 RMK AO2 SLP021 P0009 60037 T00670056 10072 20039 58012=
201403022253 METAR KSEA 022253Z 13008KT 10SM -RA OVC030 07/05 A2958 RMK AO2 SLP026 P0005 T00670050=
201403022241 SPECI KSEA 022241Z 12010KT 7SM -RA OVC032 06/04 A2959 RMK AO2 P0005=
201403022215 SPECI KSEA 022215Z 12012KT 5SM -RA BR BKN029 OVC041 06/04 A2958 RMK AO2 P0003=
201403022153 METAR KSEA 022153Z 13009KT 4SM -RA BR FEW022 BKN029 OVC045 06/04 A2959 RMK AO2 SLP030 P0005 T00560039=
201403022053 METAR KSEA 022053Z 11012KT 6SM -RA BR BKN025 BKN036 OVC042 06/03 A2960 RMK AO2 SLP034 P0008 60018 T00560033 58017=
201403021953 METAR KSEA 021953Z 11014KT 5SM -RA BR BKN043 OVC050 05/03 A2963 RMK AO2 SLP041 P0006 T00500033=
201403021903 SPECI KSEA 021903Z 12016KT 5SM -RA BR SCT029 OVC039 04/02 A2964 RMK AO2 P0001=
201403021853 METAR KSEA 021853Z 11016KT 6SM -RA BR BKN029 OVC039 04/02 A2965 RMK AO2 SLP048 P0004 T00440022=
201403021805 SPECI KSEA 021805Z 11009KT 3SM -RA BR FEW007 BKN026 OVC038 04/02 A2965 RMK AO2 P0001=
201403021753 METAR KSEA 021753Z 12008KT 2 1/2SM -RA BR BKN007 BKN026 OVC038 04/02 A2966 RMK AO2 SLP051 P0004 60010 T00390022 10039 20028 58006=
201403021653 METAR KSEA 021653Z 12008KT 2 1/2SM -RA BR BKN007 OVC020 03/02 A2967 RMK AO2 DZE49RAB49 SLP056 P0002 T00330022=
201403021553 METAR KSEA 021553Z 11010KT 1 3/4SM R16L/5500VP6000FT -DZ BR BKN009 BKN012 OVC024 03/02 A2967 RMK AO2 DZB01 SLP055 P0003 T00330022=
201403021502 SPECI KSEA 021502Z 12010KT 2 1/2SM -DZ BKN009 BKN019 OVC038 03/02 A2967 RMK AO2 SFC VIS 5 DZB01 P0000=
201403021453 METAR KSEA 021453Z 12011KT 10SM SCT009 BKN019 OVC040 03/02 A2967 RMK AO2 DZE42 SLP057 P0001 60001 T00330017 58011=
201403021353 METAR KSEA 021353Z 12012KT 4SM -DZ BR BKN007 OVC038 03/02 A2969 RMK AO2 DZB00 SLP061 P0000 T00280017=
201403021342 SPECI KSEA 021342Z 12014KT 4SM -DZ BR BKN007 OVC012 03/02 A2969 RMK AO2 DZB00 P0000=
201403021253 METAR KSEA 021253Z 12011KT 10SM BKN010 OVC015 03/01 A2970 RMK AO2 SLP066 T00280011=
201403021231 SPECI KSEA 021231Z 11011KT 10SM BKN010 OVC015 03/01 A2970 RMK AO2=
201403021153 METAR KSEA 021153Z 11010KT 10SM FEW009 OVC015 03/01 A2971 RMK AO2 DZE50 SLP068 P0000 60001 70003 T00330006 10050 20028 51003=
201403021053 METAR KSEA 021053Z 11009KT 6SM -DZ BR SCT009 BKN018 OVC023 03/01 A2970 RMK AO2 SLP066 P0000 T00280011=
201403021038 SPECI KSEA 021038Z 11010KT 1 1/2SM -DZ BR BKN009 BKN015 OVC021 03/01 A2970 RMK AO2 P0000=
201403021018 SPECI KSEA 021018Z 10011KT 3SM -DZ BKN009 BKN012 OVC026 03/01 A2971 RMK AO2 P0000=
201403021010 SPECI KSEA 021010Z 11011KT 3SM -DZ BKN012 BKN022 OVC028 03/01 A2971 RMK AO2 P0000=
201403020953 METAR KSEA 020953Z 11011KT 5SM -DZ OVC024 03/01 A2971 RMK AO2 DZB34 SLP069 P0001 T00330006=
201403020853 METAR KSEA 020853Z 12012KT 10SM OVC020 04/M01 A2970 RMK AO2 SLP065 T00441011 53004=
201403020753 METAR KSEA 020753Z 12014KT 10SM OVC022 04/M02 A2969=
201403020653 METAR KSEA 020653Z 11013KT 10SM OVC022 04/M03 A2969 RMK AO2 SLP061 T00441028=
201403020553 METAR KSEA 020553Z 11012KT 10SM OVC022 05/M03 A2969 RMK AO2 SLP060 60000 T00501028 10056 20050 53010=
201403020453 METAR KSEA 020453Z 11011KT 10SM OVC024 05/M03 A2967 RMK AO2 SLP054 T00501028=
201403020353 METAR KSEA 020353Z 11013KT 10SM OVC026 05/M02 A2966 RMK AO2 SLP050 T00501022=
201403020320 SPECI KSEA 020320Z 11008KT 10SM OVC028 05/M02 A2966 RMK AO2=
201403020253 METAR KSEA 020253Z 11008KT 10SM OVC030 06/M02 A2966 RMK AO2 SLP050 60000 T00561017 53001=
201403020153 METAR KSEA 020153Z 10010KT 10SM OVC031 05/M01 A2964 RMK AO2 SLP046 T00501011=
201403020053 METAR KSEA 020053Z 11010KT 10SM OVC033 05/M02 A2965 RMK AO2 DZE50 SLP047 P0000 T00501017=
201403012353 METAR KSEA 012353Z 11008KT 10SM -DZ OVC033 05/M01 A2965 RMK AO2 SLP049 P0000 60002 T00501006 10067 20044 58004=
201403012253 METAR KSEA 012253Z 10010KT 10SM -DZ OVC035 04/M01 A2967 RMK AO2 SLP054 P0000 T00441006=
201403012153 METAR KSEA 012153Z 11008KT 10SM -DZ OVC033 04/01 A2967 RMK AO2 RAB15E28DZB49 SLP053 P0000 T00440006=
201403012053 METAR KSEA 012053Z 09009KT 10SM OVC037 05/00 A2967 RMK AO2 RAE1954B16E52 SLP054 P0001 60002 T00500000 50001=
201403011953 METAR KSEA 011953Z 11010G18KT 10SM -RA OVC039 06/M01 A2967 RMK AO2 RAE00B39SNE00 SLP056 P0001 T00561011=
201403011853 METAR KSEA 011853Z 11011KT 10SM -RASN BKN043 OVC050 06/M01 A2967 RMK AO2 SLP056 P0000 T00611006=
201403011753 METAR KSEA 011753Z 11010KT 10SM -RASN OVC048 07/M01 A2966 RMK AO2 RAB46SNB46 SLP053 P0000 60000 T00671011 10072 20061 51019=
201403011653 METAR KSEA 011653Z 03003KT 10SM OVC050 07/M01 A2965 RMK AO2 SLP049 T00721006=
201403011553 METAR KSEA 011553Z 02006KT 10SM OVC050 07/M01 A2963 RMK AO2 RAB33E41 SLP041 P0000 T00671006=
201403011453 METAR KSEA 011453Z 01006KT 10SM OVC055 07/M01 A2961 RMK AO2 SLP033 T00671006 51017=
201403011353 METAR KSEA 011353Z 36009KT 10SM BKN055 OVC100 07/M01 A2959 RMK AO2 SLP028 T00671006=
201403011253 METAR KSEA 011253Z 03007KT 10SM BKN055 OVC100 07/M01 A2957 RMK AO2 SLP022 T00721011=
201403011153 METAR KSEA 011153Z 02007KT 10SM FEW055 BKN100 06/M01 A2956 RMK AO2 SLP016 T00611011 10083 20056 51006=
201403011053 METAR KSEA 011053Z 36007KT 10SM FEW055 BKN095 06/M01 A2956 RMK AO2 SLP015 T00611011=
201403010953 METAR KSEA 010953Z 02011KT 10SM FEW060 BKN095 07/M02 A2956 RMK AO2 SLP015 T00671017=
201403010853 METAR KSEA 010853Z 03009KT 10SM SCT090 07/M02 A2954 RMK AO2 SLP010 T00671017 53005=
201403010753 METAR KSEA 010753Z 01014KT 10SM FEW060 07/M01 A2954 RMK AO2 SLP008 T00671011 401440044=
201403010653 METAR KSEA 010653Z 03013KT 10SM FEW060 07/M02 A2953 RMK AO2 SLP006 T00721017=
201403010553 METAR KSEA 010553Z 02016KT 10SM FEW060 08/M02 A2953 RMK AO2 SLP005 T00781022 10133 20078 52002=
201403010453 METAR KSEA 010453Z 02014KT 10SM FEW050 08/M01 A2953 RMK AO2 SLP006 T00831011=
201403010353 METAR KSEA 010353Z 02015G25KT 10SM FEW050 09/M02 A2952 RMK AO2 PK WND 01026/0335 SLP003 T00891022=
201403010253 METAR KSEA 010253Z 02016KT 10SM FEW040 09/M02 A2952 RMK AO2 SLP004 T00941017 55003=
201403010153 METAR KSEA 010153Z 01017KT 10SM FEW040 10/M01 A2952 RMK AO2 SLP002 T01001006=
201403010053 METAR KSEA 010053Z 35014KT 10SM FEW040 12/00 A2952 RMK AO2 SLP002 T01170000=

# No short TAF reports from KSEA in databse.

###################################
#  large TAF from KSEA
###################################
201403312330 TAF KSEA 312330Z 0100/0206 34008KT P6SM FEW035 BKN250 FM010600
                       03005KT P6SM BKN100 BKN250 FM011200 VRB03KT
                       P6SM SCT100 BKN250 FM012000 27006KT P6SM
                       FEW035 SCT120 BKN250=
201403312100 TAF AMD KSEA 312100Z 3121/0124 36008KT P6SM FEW035 BKN250 FM010600
                       03005KT P6SM BKN250 FM011200 21005KT P6SM
                       BKN120 BKN250 FM012000 27006KT P6SM SCT120
                       BKN250=
201403311720 TAF KSEA 311720Z 3118/0124 02008KT P6SM BKN250 FM010600 03005KT
                       P6SM BKN250 FM011200 21005KT P6SM BKN120
                       BKN250 FM012000 27006KT P6SM SCT120 BKN250=
201403311500 TAF AMD KSEA 311500Z 3115/0118 36004KT P6SM FEW005 BKN230 FM311700
                       36007KT P6SM BKN200 FM010600 03005KT P6SM
                       BKN120 OVC200=
201403311120 TAF KSEA 311120Z 3112/0118 00000KT P6SM SCT200 FM311600 36005KT
                       P6SM BKN200 FM010600 03005KT P6SM BKN120
                       OVC200=
201403310903 KSEA 310903Z 3109/0112 03006KT P6SM BKN200=
201403310520 TAF KSEA 310520Z 3106/0112 13008KT P6SM SCT200 FM310900 03006KT
                       P6SM BKN200=
201403310300 TAF AMD KSEA 310300Z 3103/0106 17006KT P6SM VCSH FEW035 OVC070
                       FM310600 07005KT P6SM SCT045 SCT080 FM311200
                       04006KT P6SM SCT080=
201403302321 TAF KSEA 302321Z 3100/0106 21011KT P6SM VCSH SCT030 SCT045 BKN080
                       TEMPO 3100/3102 -SHRA BKN030 FM310300 12004KT
                       P6SM SCT030 SCT045 SCT080 FM310600 07005KT
                       P6SM SCT045 SCT080 FM311200 04006KT P6SM
                       SCT080=
201403302320 TAF KSEA 302320Z 3100/0106 21011KT P6SM VCSH SCT030 SCT045 BKN080
                       FM310300 12004KT P6SM SCT030 SCT045 SCT080
                       FM310600 07005KT P6SM SCT045 SCT080 FM311200
                       04006KT P6SM SCT080=
201403302101 TAF AMD KSEA 302101Z 3021/3124 21011KT P6SM VCSH SCT030 SCT045
                       BKN080
                      TEMPO 3021/3024 -SHRA BKN030 FM310300 08003KT
                       P6SM SCT025 SCT045 FM310600 08004KT P6SM
                       SCT045 FM311200 04006KT P6SM SCT050=
201403301720 TAF KSEA 301720Z 3018/3124 19012KT P6SM VCSH SCT015 BKN045 FM302100
                       21010KT P6SM -SHRA SCT025 BKN045 FM310300
                       08003KT P6SM VCSH SCT025 OVC045 FM310600
                       08004KT P6SM SCT045 FM311200 04006KT P6SM
                       SCT050=
201403301120 TAF KSEA 301120Z 3012/3118 19010KT P6SM VCSH SCT015 BKN045 FM302100
                       21010KT P6SM -SHRA SCT025 BKN045 FM310300
                       08003KT P6SM VCSH SCT025 OVC045=
201403300524 TAF KSEA 300524Z 3006/3112 19014G19KT P6SM VCSH SCT014 BKN028 OVC040
                       TEMPO 3006/3009 5SM -SHRA BR BKN015 OVC022
                       FM300900 20010KT P6SM VCSH SCT020 OVC040
                       FM301300 20009KT P6SM SCT025 BKN045 FM302300
                       22006KT P6SM VCSH BKN045 BKN100 FM310300
                       18005KT P6SM BKN250=
201403300304 TAF KSEA 300304Z 3003/3106 19005KT P6SM VCSH SCT015 BKN022 OVC027
                       TEMPO 3003/3007 5SM RA BR BKN015 OVC022
                       FM300900 20010KT P6SM VCSH SCT020 OVC040
                       FM301300 20009KT P6SM SCT025 BKN045 FM302300
                       22006KT P6SM VCSH BKN045 BKN100 FM310300
                       18005KT P6SM BKN250=
201403300303 TAF AMD KSEA 300303Z 3003/3106 19005KT 5SM RA BR VCSH BKN015 BKN022
                       OVC027
                      TEMPO 3003/3007 5SM RA BR BKN015 OVC022 FM300900
                       20010KT P6SM VCSH SCT020 OVC040 FM301300
                       20009KT P6SM SCT025 BKN045 FM302300 22006KT
                       P6SM VCSH BKN045 BKN100 FM310300 18005KT
                       P6SM BKN250=
201403292320 TAF KSEA 292320Z 3000/3106 20012G22KT P6SM -SHRA VCTS SCT015 OVC025CB
                       FM300300 19011KT P6SM VCSH SCT025 BKN035
                       FM310300 20011KT P6SM SCT025 SCT045=
201403292219 TAF AMD KSEA 292219Z 2922/3024 20012KT P6SM -SHRA VCTS SCT018 OVC025CB
                       FM300300 19012KT P6SM VCSH SCT025 OVC045=
201403292100 KSEA 292100Z 2921/3024 20012G22KT P6SM -SHRA SCT018 OVC035 FM300300
                       19012KT P6SM VCSH SCT025 OVC045=
201403291720 TAF KSEA 291720Z 2918/3024 17012G20KT P6SM -RA SCT025 OVC035 FM292100
                       20013G22KT P6SM -SHRA SCT025 OVC035 FM300300
                       19012KT P6SM VCSH SCT025 OVC045=
201403291501 TAF KSEA 291501Z 2915/3018 18010KT P6SM -RA OVC035 FM291700 19018G25KT
                       P6SM -RA SCT025 OVC035 FM292100 20017G24KT
                       P6SM -SHRA SCT025 OVC045 FM300300 19012KT
                       P6SM VCSH SCT025 OVC045=
201403291500 TAF AMD KSEA 291500Z 2915/3018 18010KT P6SM -RA FEW035 BKN060 OVC080
                       FM291700 19018G25KT P6SM -RA SCT025 OVC045
                       FM292100 20017G24KT P6SM -SHRA SCT025 OVC045
                       FM300300 19012KT P6SM VCSH SCT025 OVC045=
201403291120 TAF KSEA 291120Z 2912/3018 15006KT P6SM -RA FEW035 BKN060 OVC080
                       FM291600 19018G25KT P6SM -RA SCT025 OVC045
                       FM292100 20017G24KT P6SM -SHRA SCT025 OVC045
                       FM300300 19012KT P6SM VCSH SCT025 OVC045=
201403290901 KSEA 290901Z 2909/3012 13006KT P6SM VCSH BKN050 BKN070 FM291200
                       18010KT P6SM -RA SCT025 OVC045 FM291700
                       19018G25KT P6SM -RA SCT025 OVC045 FM292100
                       20017G24KT P6SM -SHRA SCT025 OVC045 FM300300
                       19012KT P6SM VCSH SCT025 OVC045=
201403290530 TAF KSEA 290530Z 2906/3012 18009KT P6SM VCSH SCT030 BKN070 FM291100
                       18010KT P6SM -RA SCT025 OVC045 FM291700
                       19018G25KT P6SM -RA SCT025 OVC045 FM292100
                       20017G24KT P6SM -SHRA SCT025 OVC045 FM300300
                       19012KT P6SM VCSH SCT025 OVC045=
201403290305 TAF AMD KSEA 290305Z 2903/3006 17006KT P6SM VCSH FEW025 SCT040
                       SCT080 FM290600 17010G20KT P6SM VCSH SCT020
                       BKN035 OVC050 FM291300 19012KT P6SM -RA
                       SCT020 OVC035 FM292000 20012KT P6SM -SHRA
                       SCT030 OVC035=
201403282320 TAF KSEA 282320Z 2900/3006 17010KT P6SM -SHRA BKN025 BKN050 FM290600
                       17010G20KT P6SM VCSH SCT020 BKN035 OVC050
                       FM291300 19012KT P6SM -RA SCT020 OVC035
                       FM292000 20012KT P6SM -SHRA SCT030 OVC035=
201403282101 TAF AMD KSEA 282101Z 2821/2924 14012G20KT P6SM -RA SCT020 BKN035
                       OVC050 FM282200 18013G20KT P6SM -SHRA BKN030
                       BKN050 FM290600 17010KT P6SM VCSH SCT020
                       BKN035 OVC050 FM291300 19012KT P6SM -RA
                       SCT020 OVC035=
201403281720 TAF KSEA 281720Z 2818/2924 13008KT P6SM -RA OVC035 FM282000 19014G20KT
                       P6SM -SHRA SCT020 BKN035 OVC050 FM290600
                       17010KT P6SM VCSH SCT020 BKN035 OVC050 FM291300
                       19012KT P6SM -RA SCT020 OVC035=
201403281505 KSEA 281505Z 2815/2918 13008KT P6SM -RA SCT025 OVC035 FM281600
                       17010KT P6SM -RA OVC025 FM282000 19014G20KT
                       P6SM -SHRA SCT020 BKN035 OVC050 FM290600
                       17010KT P6SM -SHRA SCT020 BKN035 OVC050=
201403281139 TAF KSEA 281139Z 2812/2918 15006KT P6SM -RA OVC035 FM281600 17010KT
                       P6SM -RA OVC022 FM282000 19014G20KT P6SM
                       -SHRA SCT020 BKN035 OVC050 FM290600 17010KT
                       P6SM -SHRA SCT020 BKN035 OVC050=
201403280912 TAF AMD KSEA 280912Z 2809/2912 15006KT P6SM SCT035 OVC050 FM281100
                       15006KT P6SM -RA OVC035 FM281600 17010KT
                       P6SM -RA OVC022 FM282000 19014G20KT P6SM
                       -SHRA SCT020 BKN035 OVC050 FM290600 17010KT
                       P6SM -SHRA SCT020 BKN035 OVC050=
201403280538 TAF KSEA 280538Z 2806/2912 18008KT P6SM SCT020 BKN040 OVC070 FM281100
                       15006KT P6SM -RA OVC035 FM281600 17010KT
                       P6SM -RA OVC022 FM282000 19014G20KT P6SM
                       -SHRA SCT020 BKN035 OVC050 FM290600 17010KT
                       P6SM -SHRA SCT020 BKN035 OVC050=
201403280321 TAF AMD KSEA 280321Z 2803/2906 20009KT P6SM SCT050 BKN200 FM280900
                       19007KT P6SM SCT035 BKN080 OVC150 FM281100
                       15006KT P6SM -RA OVC035 FM281600 17014KT
                       P6SM -RA OVC022 FM281800 17014KT P6SM -RA
                       BKN015 OVC025=
201403272320 TAF KSEA 272320Z 2800/2906 20009KT P6SM BKN030 BKN050
                      TEMPO 2800/2803 -SHRA SCT030 BKN050 FM280300
                       19007KT P6SM VCSH SCT035 BKN060 FM281100
                       15006KT P6SM -RA OVC035 FM281600 17014KT
                       P6SM -RA OVC022 FM281800 17014KT P6SM -RA
                       BKN015 OVC025=
201403272106 TAF AMD KSEA 272106Z 2721/2824 19006KT P6SM BKN035 BKN070
                      TEMPO 2721/2724 -SHRA SCT035 BKN070 FM280000
                       19006KT P6SM VCSH SCT040 BKN070 FM280600
                       17006KT P6SM BKN040 BKN080 FM281300 15006KT
                       P6SM -RA OVC035 FM281700 17008KT P6SM -RA
                       OVC022=
201403271732 TAF KSEA 271732Z 2718/2824 VRB03KT P6SM SCT007 BKN012 BKN022
                      TEMPO 2718/2720 3SM -SHRA BR BKN007 BKN012
                       OVC022 FM272000 22004KT P6SM SCT014 BKN024
                       BKN040
                      TEMPO 2720/2722 -SHRA BKN014 OVC024 FM272200
                       22005KT P6SM -SHRA SCT025 BKN040 FM280300
                       17006KT P6SM BKN040 BKN080 FM281300 15006KT
                       P6SM -RA OVC035 FM281700 17008KT P6SM -RA
                       OVC022=
201403271504 KSEA 271504Z 2715/2818 VRB03KT P6SM -SHRA SCT015 BKN025 OVC050
                       FM271900 VRB03KT P6SM SCT025 BKN035 OVC060
                       FM272200 VRB03KT P6SM SCT035 BKN050 FM280800
                       15006KT P6SM BKN050 OVC100 FM281300 15006KT
                       P6SM -RA OVC035 FM281700 17008KT P6SM -RA
                       OVC022=
201403271134 TAF KSEA 271134Z 2712/2818 VRB03KT P6SM -SHRA BKN030 OVC050 FM271700
                       VRB03KT P6SM SCT025 BKN035 OVC060 FM272200
                       VRB03KT P6SM SCT035 BKN050 FM280800 15006KT
                       P6SM BKN050 OVC100 FM281300 15006KT P6SM
                       -RA OVC035 FM281700 17008KT P6SM -RA OVC022=
201403270905 TAF AMD KSEA 270905Z 2709/2812 VRB03KT P6SM SCT025 BKN035 OVC060
                       FM271100 VRB03KT P6SM VCSH SCT020 BKN030
                       OVC050 FM271700 VRB03KT P6SM SCT035 BKN060
                       FM280200 21008KT P6SM -SHRA BKN035 BKN050=
201403270540 TAF KSEA 270540Z 2706/2812 18006KT P6SM -SHRA SCT025 BKN045 BKN070
                       FM271100 15006KT P6SM VCSH SCT020 BKN030
                       OVC050 FM271700 15006KT P6SM SCT035 BKN060
                       FM280200 21008KT P6SM -SHRA BKN035 BKN050=
201403270303 KSEA 270303Z 2703/2806 18006KT P6SM -SHRA SCT025 BKN035 OVC050
                       FM271100 16005KT P6SM VCSH SCT020 BKN030
                       OVC050 FM271900 21008KT P6SM VCSH SCT035
                       BKN050=
201403262341 TAF KSEA 262341Z 2700/2806 18006KT P6SM -SHRA SCT025 BKN035 OVC050
                       FM270600 16005KT P6SM VCSH SCT020 BKN030
                       OVC050 FM271900 21008KT P6SM VCSH SCT035
                       BKN050=
201403262107 TAF AMD KSEA 262107Z 2621/2724 18006KT P6SM -SHRA SCT025 BKN040
                       OVC060 FM270600 16005KT P6SM VCSH SCT020
                       BKN030 OVC050 FM271900 21008KT P6SM VCSH
                       SCT035 BKN050=
201403261740 TAF KSEA 261740Z 2618/2724 15006KT P6SM -SHRA BKN035 OVC060 FM262000
                       18006KT P6SM VCSH SCT035 BKN045 OVC060 FM270600
                       16005KT P6SM VCSH SCT020 BKN030 OVC050 FM271900
                       21008KT P6SM VCSH SCT035 BKN050=
201403261510 TAF AMD KSEA 261510Z 2615/2718 19006KT P6SM SCT040 SCT100 BKN200
                       FM261800 15006KT P6SM VCSH SCT040 BKN060
                       OVC100 FM262200 15006KT P6SM -SHRA BKN035
                       OVC050 FM271200 VRB03KT P6SM SCT012 BKN022
                       OVC035=
201403261138 TAF KSEA 261138Z 2612/2718 19006KT P6SM SCT025 BKN040 BKN060 FM261700
                       15006KT P6SM BKN060 FM262200 15006KT P6SM
                       -SHRA BKN035 OVC050 FM271200 VRB03KT P6SM
                       SCT012 BKN022 OVC035=
201403260908 TAF AMD KSEA 260908Z 2609/2712 19008KT P6SM SCT025 BKN045 FM261700
                       15006KT P6SM BKN060 FM270000 18008KT P6SM
                       -SHRA BKN035 OVC050=
201403260540 TAF KSEA 260540Z 2606/2712 20012G20KT P6SM SCT025 BKN045
                      TEMPO 2606/2607 BKN025 FM261000 18010KT P6SM
                       SCT030 BKN050 FM261700 15006KT P6SM BKN060
                       FM270000 18008KT P6SM -SHRA BKN035 OVC050=
201403260309 TAF AMD KSEA 260309Z 2603/2706 20015G25KT P6SM BKN035 OVC050 FM260800
                       18008KT P6SM BKN035 FM261700 18008KT P6SM
                       SCT035 BKN050 FM270000 18008KT P6SM -SHRA
                       BKN035 OVC050=
201403252320 TAF KSEA 252320Z 2600/2706 20015G25KT P6SM -SHRA SCT035 BKN050
                       TEMPO 2600/2604 BKN035CB FM260600 18010KT
                       P6SM VCSH BKN035 BKN050 FM261000 14006KT
                       P6SM BKN035 FM261800 18008KT P6SM BKN035
                       BKN050=
201403252103 TAF AMD KSEA 252103Z 2521/2624 20015G25KT P6SM -SHRA SCT035 BKN050
                       FM260600 18010KT P6SM BKN035 BKN050 FM261000
                       14006KT P6SM BKN030=
201403251723 TAF KSEA 251723Z 2518/2624 18010KT P6SM -SHRA BKN050 OVC060 FM252100
                       20015G25KT P6SM -SHRA BKN050 FM260600 18010KT
                       P6SM BKN035 BKN050 FM261000 14006KT P6SM
                       BKN030=
201403251504 TAF AMD KSEA 251504Z 2515/2618 13008KT P6SM -RA OVC050 FM251800
                       18010KT P6SM -SHRA BKN035 BKN050 FM260600
                       18010KT P6SM SCT025 BKN035 BKN050 FM261000
                       14006KT P6SM SCT035 BKN060=
201403251138 TAF KSEA 251138Z 2512/2618 10008KT P6SM SCT070 OVC100 FM251400
                       13008KT P6SM -RA OVC050 FM251800 18010KT
                       P6SM -SHRA BKN035 BKN050 FM260600 18010KT
                       P6SM SCT025 BKN035 BKN050 FM261000 14006KT
                       P6SM SCT035 BKN060=
201403250908 TAF AMD KSEA 250908Z 2509/2612 10008KT P6SM SCT070 OVC100 FM251400
                       13008KT P6SM -RA OVC050 FM251800 18010KT
                       P6SM -SHRA BKN035 BKN050 FM260600 18010KT
                       P6SM SCT025 BKN035 BKN050=
201403250528 TAF KSEA 250528Z 2506/2612 15004KT P6SM OVC200 FM250800 15004KT
                       P6SM SCT070 OVC100 FM251400 13008KT P6SM
                       -RA OVC035 FM251800 18010KT P6SM -SHRA BKN035
                       BKN050 FM260600 18010KT P6SM SCT025 BKN035
                       BKN050=
201403250328 TAF AMD KSEA 250328Z 2503/2606 15004KT P6SM BKN200 FM250800 12008KT
                       P6SM SCT070 OVC100 FM251200 10008KT P6SM
                       -RA BKN040 OVC070 FM251800 18010KT P6SM
                       -SHRA BKN040=
201403242321 TAF KSEA 242321Z 2500/2606 34005KT P6SM BKN200 FM250800 12008KT
                       P6SM SCT070 OVC100 FM251200 10008KT P6SM
                       -RA BKN040 OVC070 FM251800 18010KT P6SM
                       -SHRA BKN040=
201403242101 KSEA 242101Z 2421/2524 34005KT P6SM BKN200 FM250800 12008KT P6SM
                       SCT070 OVC100 FM251200 10008KT P6SM -RA
                       BKN040 OVC070=
201403241729 TAF KSEA 241729Z 2418/2524 02007KT P6SM SCT200 FM250300 VRB03KT
                       P6SM BKN200 FM250800 12008KT P6SM SCT070
                       OVC100 FM251200 10008KT P6SM -RA BKN040
                       OVC070=
201403241501 TAF AMD KSEA 241501Z 2415/2518 02006KT P6SM SCT110 BKN200 FM241800
                       04005KT P6SM SCT200 FM250300 VRB03KT P6SM
                       BKN200 FM250800 12008KT P6SM OVC100=
201403241130 TAF KSEA 241130Z 2412/2518 02006KT P6SM SCT110 BKN200 FM241800
                       04005KT P6SM SKC FM250300 VRB03KT P6SM BKN250
                       FM250800 12008KT P6SM OVC100=
201403240900 KSEA 240900Z 2409/2512 03005KT P6SM OVC120 FM241500 04005KT P6SM
                       SKC FM250600 VRB03KT P6SM BKN250=
201403240535 TAF KSEA 240535Z 2406/2512 36006KT P6SM SKC FM240900 02004KT P6SM
                       OVC120 FM241500 04005KT P6SM SKC FM250600
                       VRB03KT P6SM BKN250=
201403240300 TAF AMD KSEA 240300Z 2403/2506 34006KT P6SM FEW220 FM240600 06005KT
                       P6SM SCT100 OVC200 FM241800 35006KT P6SM
                       SCT200=
201403232320 TAF KSEA 232320Z 2400/2506 31008KT P6SM FEW040 SCT200 FM240300
                       36004KT P6SM BKN200 FM240600 06005KT P6SM
                       SCT100 OVC200 FM241800 35006KT P6SM SCT200=
201403232101 TAF AMD KSEA 232101Z 2321/2424 31008KT P6SM FEW040 SCT200 FM240000
                       36004KT P6SM BKN200 FM240600 06005KT P6SM
                       SCT100 OVC200=
201403231723 TAF KSEA 231723Z 2318/2424 35008KT P6SM SCT030 SCT100 FM232000
                       35008KT P6SM SCT040 FM240000 36004KT P6SM
                       BKN200 FM240600 06005KT P6SM SCT100 OVC200=
201403231507 TAF AMD KSEA 231507Z 2315/2418 04007KT P6SM BKN035 FM231800 36005KT
                       P6SM SCT040 SCT250 FM232200 32004KT P6SM
                       BKN250 FM240600 06005KT P6SM SCT100 OVC250=
201403231130 TAF KSEA 231130Z 2312/2418 04005KT P6SM SCT045 BKN060 FM231400
                       03005KT P6SM SCT010 BKN060
                      TEMPO 2314/2317 BKN010 FM231800 36005KT P6SM
                       SCT250 FM232200 32004KT P6SM BKN250 FM240600
                       06005KT P6SM SCT100 OVC250=
201403230900 TAF AMD KSEA 230900Z 2309/2412 00000KT P6SM FEW045 BKN050 FM231400
                       03005KT P6SM SCT010
                      TEMPO 2314/2317 BKN010 FM231800 36005KT P6SM
                       SCT250 FM232200 32004KT P6SM BKN250 FM240600
                       06005KT P6SM OVC250=
201403230530 TAF KSEA 230530Z 2306/2412 32007KT P6SM SCT070 OVC200 FM231400
                       03005KT P6SM SCT010
                      TEMPO 2314/2317 BKN010 FM231800 36005KT P6SM
                       SCT250 FM232200 32004KT P6SM BKN250 FM240600
                       06005KT P6SM OVC250=
201403230305 TAF AMD KSEA 230305Z 2303/2406 34005KT P6SM SCT070 BKN090 OVC200
                       FM230600 01004KT P6SM BKN050 BKN100 FM231200
                       03005KT P6SM BKN035 BKN070 FM231800 34004KT
                       P6SM SCT060 BKN200=
201403222339 TAF KSEA 222339Z 2300/2406 33004KT P6SM BKN100 BKN150 FM230600
                       01004KT P6SM BKN050 BKN100 FM231200 03005KT
                       P6SM BKN035 BKN070 FM231800 34004KT P6SM
                       SCT060 BKN200=
201403221729 TAF KSEA 221729Z 2218/2324 VRB04KT P6SM SCT120 BKN200 FM222000
                       31004KT P6SM BKN120 BKN200 FM230000 35004KT
                       P6SM BKN050 BKN100 FM230900 03005KT P6SM
                       BKN030 BKN070=
201403221508 TAF AMD KSEA 221508Z 2215/2318 VRB03KT P6SM BKN200 FM221800 32004KT
                       P6SM BKN120 BKN200 FM230000 35004KT P6SM
                       BKN050 BKN100=
201403221122 TAF KSEA 221122Z 2212/2318 09005KT P6SM BKN150 FM221800 20004KT
                       P6SM BKN060 BKN120 FM230600 02004KT P6SM
                       BKN050 BKN100=
201403220912 TAF AMD KSEA 220912Z 2209/2312 07003KT P6SM SKC FM221200 04004KT
                       P6SM SCT060 BKN150 BKN250 FM221800 20004KT
                       P6SM BKN060 BKN120 FM230600 02004KT P6SM
                       BKN050 BKN100=
201403220528 TAF KSEA 220528Z 2206/2312 02006KT P6SM SKC FM220800 03006KT P6SM
                       SCT200 FM221200 04004KT P6SM SCT060 BKN120
                       BKN150 FM221800 20004KT P6SM BKN060 BKN120
                       FM230600 02004KT P6SM BKN050 BKN100=
201403220305 TAF AMD KSEA 220305Z 2203/2306 35009KT P6SM FEW030 FM220700 03006KT
                       P6SM SCT200 FM221200 04004KT P6SM SCT060
                       BKN120 BKN150 FM221800 20004KT P6SM BKN060
                       BKN120=
201403212320 TAF KSEA 212320Z 2200/2306 34011KT P6SM SCT030 FM220400 03004KT
                       P6SM SCT200 FM221200 04004KT P6SM SCT060
                       BKN120 BKN150 FM221800 20004KT P6SM BKN060
                       BKN120=
201403212101 TAF AMD KSEA 212101Z 2121/2224 34011KT P6SM SCT060 SCT200 FM220300
                       03004KT P6SM SCT200 FM221200 04004KT P6SM
                       SCT060 BKN120 BKN150=
201403211735 TAF KSEA 211735Z 2118/2224 04007KT P6SM SCT020 SCT070 SCT200
                      TEMPO 2118/2120 BKN020 FM212000 34009KT P6SM
                       FEW070 SCT200 FM220300 03004KT P6SM SCT200
                       FM221200 04004KT P6SM SCT060 BKN120 BKN150=
201403211504 KSEA 211504Z 2115/2218 04004KT P6SM FEW025 BKN060 BKN200 FM211800
                       34007KT P6SM SCT060 SCT200 FM212100 36009KT
                       P6SM SCT060 SCT200 FM220800 08004KT P6SM
                       FEW050 BKN150=
201403211144 TAF KSEA 211144Z 2112/2218 01004KT P6SM BKN026
                      TEMPO 2112/2114 SCT026 FM211400 04006KT P6SM
                       SCT022 SCT200
                      TEMPO 2114/2118 BKN022 OVC200 FM211800 34007KT
                       P6SM FEW025 SCT200 FM212100 36009KT P6SM
                       SCT040 SCT200 FM220800 08004KT P6SM FEW050
                       BKN150=
201403211001 TAF AMD KSEA 211001Z 2110/2212 01004KT P6SM BKN026
                      TEMPO 2110/2114 SCT026 FM211400 04006KT P6SM
                       SCT022 SCT200
                      TEMPO 2114/2118 BKN022 OVC200 FM211800 34007KT
                       P6SM FEW025 SCT200 FM212100 36009KT P6SM
                       SCT040 SCT200 FM220800 08004KT P6SM FEW050
                       BKN150=
201403210903 TAF AMD KSEA 210903Z 2109/2212 05005KT P6SM FEW020 SCT070 FM211200
                       04006KT P6SM SCT015 SCT060 FM211800 34007KT
                       P6SM FEW025 SCT200 FM212100 36009KT P6SM
                       SCT040 SCT200 FM220800 08004KT P6SM FEW050
                       BKN150=
201403210529 TAF KSEA 210529Z 2106/2212 05009KT P6SM BKN060 BKN080 FM211200
                       04006KT P6SM SCT006 SCT060 FM211800 34007KT
                       P6SM FEW025 FM212100 36009KT P6SM SCT040=
201403210304 TAF AMD KSEA 210304Z 2103/2206 03010KT P6SM VCSH SCT080 FM210500
                       02004KT P6SM SCT080 BKN250 FM211200 04004KT
                       P6SM SCT006 FM211800 34006KT P6SM FEW025
                       FM212100 36009KT P6SM FEW035=
201403202320 TAF KSEA 202320Z 2100/2206 31004KT P6SM VCSH SCT025 SCT045 FM210400
                       02004KT P6SM SCT080 BKN250 FM211200 04004KT
                       P6SM SCT006 FM211800 34006KT P6SM FEW025
                       FM212100 36005KT P6SM FEW035=
201403202038 TAF AMD KSEA 202038Z 2021/2124 VRB04KT P6SM VCSH SCT025 SCT050
                       FM210000 31004KT P6SM VCSH SCT020 SCT040
                       BKN070 FM210400 02004KT P6SM SCT080 BKN250
                       FM211200 04004KT P6SM SCT006 FM211800 34006KT
                       P6SM FEW025=
201403201720 TAF KSEA 201720Z 2018/2124 18006KT P6SM VCSH BKN014 BKN050 FM202300
                       31006KT P6SM VCSH SCT020 SCT040 BKN070 FM210400
                       02004KT P6SM SCT080 BKN250 FM211200 04004KT
                       P6SM SCT006 FM211800 34006KT P6SM FEW025=
201403201501 KSEA 201501Z 2015/2118 18006KT P6SM VCSH SCT015 BKN035 BKN060
                      TEMPO 2015/2018 BKN015 FM210000 31006KT P6SM
                       VCSH SCT020 SCT040 BKN070 FM210400 02004KT
                       P6SM SCT080 BKN250 FM211200 04004KT P6SM
                       SCT006=
201403201130 TAF KSEA 201130Z 2012/2118 15006KT P6SM SCT015 FM201400 21006KT
                       P6SM VCSH SCT015 BKN035 BKN060 FM210000
                       31006KT P6SM VCSH SCT040 BKN070 FM210400
                       02004KT P6SM SCT080 BKN250 FM211200 04004KT
                       P6SM SCT006=
201403200900 KSEA 200900Z 2009/2112 15007KT P6SM FEW018 SCT040 FM201200 21007KT
                       P6SM VCSH BKN045 OVC070 FM210000 31006KT
                       P6SM VCSH BKN045 OVC070 FM210400 02004KT
                       P6SM SCT080 BKN250=
201403200530 TAF KSEA 200530Z 2006/2112 23005KT P6SM SCT030 BKN100 FM201200
                       21007KT P6SM VCSH BKN045 OVC070 FM210000
                       31006KT P6SM VCSH BKN045 OVC070 FM210400
                       02004KT P6SM SCT080 BKN250=
201403200205 TAF AMD KSEA 200205Z 2002/2106 01011G18KT P6SM VCSH FEW030 BKN050
                       BKN100 FM200600 16008KT P6SM SCT025 BKN040
                       FM201200 18008KT P6SM SCT045 OVC060 FM201500
                       19010KT P6SM -SHRA OVC040 FM202100 21010KT
                       P6SM SCT040 SCT080=
201403192320 TAF KSEA 192320Z 2000/2106 22015G25KT P6SM VCSH SCT025 BKN035 BKN050
                       FM200100 28013KT P6SM VCSH BKN025 BKN035
                       OVC050 FM200400 16008KT P6SM SCT025 BKN040
                       FM201200 18008KT P6SM SCT045 OVC060 FM201500
                       19010KT P6SM -SHRA OVC040 FM202100 21010KT
                       P6SM SCT040 SCT080=
201403192102 TAF AMD KSEA 192102Z 1921/2024 21015G25KT P6SM -SHRA SCT015 BKN035
                       BKN060 FM192300 23013G22KT P6SM VCSH SCT022
                       BKN035 BKN050 FM200100 28010KT P6SM SCT050
                       BKN100 FM200600 21008KT P6SM SCT100 BKN200
                       FM201200 16008KT P6SM SCT045 OVC060 FM201500
                       19010KT P6SM -SHRA OVC040=
201403191726 TAF KSEA 191726Z 1918/2024 22015G25KT P6SM -SHRA BKN015 BKN060
                       FM192200 23013G22KT P6SM SCT022 BKN050
                      TEMPO 1922/2001 -SHRA BKN022 FM200100 28010KT
                       P6SM SCT050 BKN100 FM200600 21008KT P6SM
                       SCT100 BKN200 FM201200 16008KT P6SM SCT045
                       OVC060 FM201500 19010KT P6SM -SHRA OVC040=
201403191503 TAF AMD KSEA 191503Z 1915/2018 20011KT P6SM -RA BKN010 OVC020 FM191800
                       22015G25KT P6SM -SHRA BKN020 BKN050 FM192200
                       23012KT P6SM SCT025 BKN050
                      TEMPO 1922/2001 -SHRA BKN025 FM200100 33004KT
                       P6SM SCT050 BKN100 FM200600 21005KT P6SM
                       SCT100 BKN200=
201403191239 TAF AMD KSEA 191239Z 1913/2018 19005KT P6SM SCT007 OVC080
                      TEMPO 1913/1914 BKN007 FM191400 17006KT P6SM
                       -RA BKN010 OVC020 FM191800 20015G25KT P6SM
                       -SHRA BKN020 BKN050 FM192200 23012KT P6SM
                       SCT025 BKN050
                      TEMPO 1922/2001 -SHRA BKN025 FM200100 33004KT
                       P6SM SCT050 BKN100 FM200600 21005KT P6SM
                       SCT100 BKN200=
201403191124 TAF KSEA 191124Z 1912/2018 19005KT P6SM OVC007 FM191400 17006KT
                       P6SM -RA BKN010 OVC020 FM191800 20015G25KT
                       P6SM -SHRA BKN020 BKN050 FM192200 23012KT
                       P6SM SCT025 BKN050
                      TEMPO 1922/2001 -SHRA BKN025 FM200100 33004KT
                       P6SM SCT050 BKN100 FM200600 21005KT P6SM
                       SCT100 BKN200=
201403191033 TAF AMD KSEA 191033Z 1911/2012 18005KT P6SM BKN007 OVC011 FM191300
                       17006KT P6SM -RA BKN010 OVC020 FM191800
                       20015G25KT P6SM -SHRA BKN020 BKN050 FM192200
                       23012G22KT P6SM SCT025 BKN050 FM200100 24008KT
                       P6SM SCT050 BKN100 FM200600 21005KT P6SM
                       SCT100 BKN200=
201403190903 KSEA 190903Z 1909/2012 17005KT P6SM BKN025 OVC080 FM191300 16005KT
                       P6SM -RA BKN020 BKN045 OVC060 FM191500 16008KT
                       P6SM -RA OVC015 FM191800 20015G25KT P6SM
                       -SHRA BKN020 BKN050 FM192200 23012G22KT
                       P6SM SCT025 BKN050 FM200100 24008KT P6SM
                       SCT050 BKN100 FM200600 21005KT P6SM SCT100
                       BKN200=
201403190520 TAF KSEA 190520Z 1906/2012 00000KT P6SM SCT025 BKN045 OVC060
                      TEMPO 1906/1910 BKN025 FM191000 14004KT P6SM
                       -RA BKN020 BKN045 OVC060 FM191300 16008KT
                       P6SM -RA OVC015 FM191800 20015G25KT P6SM
                       -SHRA BKN020 BKN050 FM192200 23012G22KT
                       P6SM SCT025 BKN050 FM200100 24008KT P6SM
                       SCT050 BKN100 FM200600 21005KT P6SM SCT100
                       BKN200=
201403190303 TAF AMD KSEA 190303Z 1903/2006 13004KT P6SM SCT045 OVC080 FM191000
                       14004KT P6SM -RA BKN045 OVC070 FM191300
                       16008KT P6SM -RA OVC015 FM191800 20015G25KT
                       P6SM -SHRA BKN020 BKN050 FM192200 23012G22KT
                       P6SM VCSH SCT025 BKN050=
201403190120 KSEA 190120Z 1901/2006 VRB03KT P6SM SCT028 BKN040 OVC200
                      TEMPO 1901/1903 BKN028 OVC040 FM191000 18010KT
                       P6SM -RA OVC015 FM191800 20015G25KT P6SM
                       -SHRA BKN020 BKN050 FM192200 23012G22KT
                       P6SM VCSH SCT025 BKN050=
201403182320 TAF KSEA 182320Z 1900/2006 VRB03KT P6SM OVC015 FM191000 18010KT
                       P6SM -RA OVC015 FM191800 20015G25KT P6SM
                       -SHRA BKN020 BKN050 FM192200 23012G22KT
                       P6SM VCSH SCT025 BKN050=
201403182113 TAF AMD KSEA 182113Z 1821/1924 VRB03KT P6SM BKN015 OVC025 FM191000
                       18010KT P6SM -RA OVC015 FM191700 20015G25KT
                       P6SM -SHRA BKN020 BKN050 FM192200 23012G22KT
                       P6SM VCSH SCT025 BKN050=
201403181720 TAF KSEA 181720Z 1818/1924 VRB03KT P6SM BKN025 OVC040 FM191000
                       18010KT P6SM -RA OVC020 FM191700 20012G22KT
                       P6SM -SHRA BKN020 BKN050=
201403181501 TAF AMD KSEA 181501Z 1815/1918 16005KT P6SM SCT025 OVC040
                      TEMPO 1815/1818 BKN025 OVC040 FM181800 18007KT
                       P6SM BKN030 OVC050 FM190600 18007KT P6SM
                       -DZ OVC020 FM191200 18012KT P6SM -RA OVC015=
201403181302 TAF AMD KSEA 181302Z 1813/1918 16005KT P6SM SCT015 BKN060
                      TEMPO 1813/1816 BKN015 FM181800 18008KT P6SM
                       BKN030 OVC050 FM190300 18006KT P6SM -DZ
                       OVC020 FM190800 19008KT P6SM -RA OVC015=
201403181121 TAF KSEA 181121Z 1812/1918 15006KT P6SM BKN060
                      TEMPO 1814/1818 BKN030 FM181800 18008KT P6SM
                       BKN030 OVC050 FM190300 18006KT P6SM -DZ
                       OVC020 FM190800 19008KT P6SM -RA OVC015=
201403180900 KSEA 180900Z 1809/1912 15006KT P6SM SCT050 BKN100 FM181100 18006KT
                       P6SM BKN025 BKN050 FM181800 18009KT P6SM
                       BKN030 OVC050 FM190300 18006KT P6SM -DZ
                       OVC020 FM190700 19008KT P6SM -RA OVC015=
201403180521 TAF KSEA 180521Z 1806/1912 16005KT P6SM SCT040 SCT080
                      TEMPO 1806/1810 BKN040 BKN080 FM181000 18006KT
                       P6SM BKN020 BKN040 FM181800 18009KT P6SM
                       BKN025 OVC040 FM190300 18006KT P6SM -DZ
                       OVC020 FM190700 19008KT P6SM -RA OVC015=
201403180302 TAF AMD KSEA 180302Z 1803/1906 08005KT P6SM FEW050 BKN070 BKN200
                       FM180900 18006KT P6SM BKN020 BKN040 FM181800
                       18008KT P6SM BKN025 OVC040=
201403180112 TAF AMD KSEA 180112Z 1801/1906 02006KT P6SM FEW040 BKN070 FM180900
                       18006KT P6SM BKN020 BKN040 FM181800 18008KT
                       P6SM BKN025 OVC040=
201403172320 TAF KSEA 172320Z 1800/1906 VRB04KT P6SM SCT030 BKN050 FM180900
                       18006KT P6SM BKN020 BKN040 FM181800 18008KT
                       P6SM BKN025 OVC040=
201403172206 TAF AMD KSEA 172206Z 1722/1824 VRB04KT P6SM SCT030 BKN050 FM180900
                       18006KT P6SM BKN020 BKN040 FM181800 18008KT
                       P6SM BKN025 OVC040=
201403171720 TAF KSEA 171720Z 1718/1824 21007KT P6SM SCT040 FM180300 VRB04KT
                       P6SM BKN040 FM180900 19006KT P6SM BKN020
                       BKN040 FM181600 18008KT P6SM BKN025 OVC050=
201403171122 TAF KSEA 171122Z 1712/1818 19006KT P6SM SCT010 BKN050
                      TEMPO 1712/1715 BKN010 FM171800 29004KT P6SM
                       SCT030 BKN050 FM180000 VRB04KT P6SM OVC040
                       FM180700 19006KT P6SM OVC025=
201403170858 KSEA 170858Z 1709/1812 22007KT P6SM FEW005 OVC015
                      TEMPO 1709/1712 5SM -SHRA BKN005 FM171200
                       21006KT P6SM BKN030 OVC050 FM171800 29004KT
                       P6SM SCT030 BKN050 FM180000 VRB04KT P6SM
                       OVC035 FM180700 19006KT P6SM OVC030=
201403170531 TAF KSEA 170531Z 1706/1812 07006KT P6SM -RA FEW005 OVC025 FM170800
                       23005KT P6SM BKN030 OVC050 FM171800 29004KT
                       P6SM SCT030 BKN050 FM180000 VRB04KT P6SM
                       OVC035 FM180700 19006KT P6SM OVC030=
201403170344 TAF AMD KSEA 170344Z 1704/1806 03006KT P6SM -RA FEW005 BKN015 OVC025
                       FM170700 23005KT P6SM -SHRA BKN015 OVC030
                       FM171300 VRB04KT P6SM SCT012 BKN025 FM171700
                       VRB04KT P6SM SCT025 SCT035 FM172000 22005KT
                       P6SM OVC035=
201403170304 KSEA 170304Z 1703/1806 22006KT 5SM RA BR BKN005 BKN009 OVC020 FM170600
                       22010KT P6SM -SHRA BKN012 OVC030 FM171300
                       VRB04KT P6SM SCT012 BKN025 FM171700 VRB04KT
                       P6SM SCT025 SCT035 FM172000 22005KT P6SM
                       OVC035=
201403162338 TAF KSEA 162338Z 1700/1806 20005KT 6SM -RA BR BKN008 OVC015 FM170300
                       18004KT P6SM -SHRA BKN012 OVC030 FM171300
                       VRB04KT P6SM SCT012 BKN025 FM171700 VRB04KT
                       P6SM SCT025 SCT035 FM172000 22005KT P6SM
                       OVC035=
201403162111 TAF AMD KSEA 162111Z 1621/1724 22005KT 5SM -RA BR BKN008 OVC018
                       FM170400 20008KT P6SM -SHRA BKN015 OVC030
                       FM171000 21009KT P6SM SCT015 BKN025 FM171700
                       22010KT P6SM SCT025 SCT040 FM172000 24010KT
                       P6SM OVC035=
201403161740 TAF KSEA 161740Z 1618/1724 21005KT 6SM -RA BR BKN015 OVC040
                      TEMPO 1618/1622 4SM -RA BR BKN005 OVC015
                       FM162200 25005KT 4SM -RA BR BKN008 OVC015
                       FM170400 20008KT P6SM -SHRA BKN015 OVC030
                       FM171000 21009KT P6SM SCT015 BKN025 FM171700
                       22010KT P6SM SCT025 SCT040 FM172000 24010KT
                       P6SM OVC035=
201403161505 KSEA 161505Z 1615/1718 18005KT 6SM -RA BR OVC014 FM162000 21010KT
                       2SM -RA BR BKN006 OVC015 FM170600 22014G22KT
                       P6SM -SHRA BKN030 OVC060=
201403161120 TAF KSEA 161120Z 1612/1718 20010KT P6SM -RA SCT015 OVC045
                      TEMPO 1612/1614 4SM -RA BR BKN015 FM161400
                       20010KT 4SM -RA BR OVC015 FM162000 21010KT
                       2SM -RA BR BKN006 OVC015 FM170600 22014G22KT
                       P6SM -SHRA BKN030 OVC060=
201403160930 TAF AMD KSEA 160930Z 1610/1712 20008KT P6SM FEW008 OVC040
                      TEMPO 1610/1614 1SM -RA BR BKN008 FM161600
                       20010KT 4SM -RA BR OVC015 FM170600 22014G22KT
                       P6SM -SHRA BKN030 OVC060=
201403160817 TAF AMD KSEA 160817Z 1608/1712 20010KT 3SM -RA BR SCT006 OVC012
                       TEMPO 1608/1612 1SM -RA BR BKN006 FM161600
                       20010KT 4SM -RA BR OVC015 FM170600 22014G22KT
                       P6SM -SHRA BKN030 OVC060=
201403160520 TAF KSEA 160520Z 1606/1712 20006KT P6SM -RA OVC045
                      TEMPO 1606/1609 4SM -RA BKN020 OVC030 FM160900
                       19008KT P6SM -RA BKN025 OVC040 FM161600
                       20010KT 4SM -RA BR OVC015 FM170600 22014G22KT
                       P6SM -SHRA BKN030 OVC060=
201403160301 KSEA 160301Z 1603/1706 21010KT P6SM -RA SCT025 OVC040
                      TEMPO 1603/1607 4SM -RA BKN020 OVC030 FM160700
                       19008KT P6SM -RA OVC030 FM161600 21007KT
                       4SM -RA BR OVC015=
201403160013 TAF AMD KSEA 160013Z 1600/1706 21010KT P6SM OVC035 FM160200 19008KT
                       P6SM -RA OVC030 FM161600 21007KT 4SM -RA
                       BR OVC015=
201403152335 TAF KSEA 152335Z 1600/1706 20008KT P6SM OVC035 FM160400 19008KT
                       P6SM -RA OVC030 FM161600 21007KT 4SM -RA
                       BR OVC015=
201403152048 TAF AMD KSEA 152048Z 1521/1624 22004KT P6SM OVC050 FM152200 15008KT
                       P6SM OVC045 FM160300 19010KT P6SM -RA BKN025
                       OVC040 FM161100 20010KT P6SM -RA OVC015=
201403151737 TAF KSEA 151737Z 1518/1624 15006KT P6SM OVC070
                      TEMPO 1518/1520 -RA FM152200 15008KT P6SM
                       OVC045 FM160300 19010KT P6SM -RA BKN025
                       OVC040 FM161100 20010KT P6SM -RA OVC015=
201403151523 TAF AMD KSEA 151523Z 1515/1618 00000KT P6SM OVC100 FM151600 16008KT
                       P6SM SCT025 BKN050 OVC090
                      TEMPO 1516/1520 -RA BKN025 FM160500 19010KT
                       P6SM -RA BKN025 OVC040 FM160900 20010KT
                       P6SM -RA OVC015=
201403151120 TAF KSEA 151120Z 1512/1618 13005KT P6SM FEW025 BKN200 FM151600
                       16008KT P6SM SCT025 BKN040 OVC070
                      TEMPO 1516/1520 -RA BKN025 FM160500 19010KT
                       P6SM -RA BKN025 OVC040 FM160900 20010KT
                       P6SM -RA OVC015=
201403150900 KSEA 150900Z 1509/1612 14006KT P6SM SCT200 FM151600 16008KT P6SM
                       BKN045 OVC070 FM160500 19010KT P6SM -RA
                       BKN025 OVC040=
201403150525 TAF KSEA 150525Z 1506/1612 16006KT P6SM FEW080 BKN200 FM151600
                       16008KT P6SM BKN045 OVC070
                      PROB30 1516/1522 -RA FM160500 19010KT P6SM
                       -RA BKN025 OVC040=
201403150301 KSEA 150301Z 1503/1606 23008KT P6SM FEW040 SCT070 FM150700 16005KT
                       P6SM FEW070 BKN200 FM151800 16010KT P6SM
                       SCT035 OVC070 FM160100 16012KT P6SM -RA
                       BKN030 OVC050=
201403150108 TAF AMD KSEA 150108Z 1501/1606 24010KT P6SM SCT060 SCT250
                      TEMPO 1501/1503 BKN060 FM150300 21009KT P6SM
                       BKN250 FM151800 16010KT P6SM SCT035 OVC070
                       FM160100 16012KT P6SM -RA BKN030 OVC050=
201403142336 TAF KSEA 142336Z 1500/1606 23015G22KT P6SM SCT035 SCT040 BKN080
                       FM150200 21009KT P6SM BKN250 FM151800 16010KT
                       P6SM SCT035 OVC070 FM160100 16012KT P6SM
                       -RA BKN030 OVC050=
201403141737 TAF KSEA 141737Z 1418/1524 21015G23KT P6SM VCSH SCT012 BKN040 FM142300
                       22020G26KT P6SM SCT040 BKN100 FM150300 22012KT
                       P6SM SCT040 BKN100 FM151200 15009KT P6SM
                       SCT025 OVC045=
201403141501 KSEA 141501Z 1415/1518 19018G24KT 4SM -RA BR SCT006 OVC010 FM141600
                       22015G23KT P6SM -SHRA SCT015 BKN025 OVC040
                       TEMPO 1416/1418 -SHRA OVC012 FM142000 22017G25KT
                       P6SM SCT025 BKN045 FM142300 22015G23KT P6SM
                       SCT045 BKN120 FM150300 21010KT P6SM SCT050
                       BKN150=
201403141324 TAF AMD KSEA 141324Z 1413/1518 17012G20KT P6SM -RA SCT012 OVC025
                       TEMPO 1413/1416 3SM -RA BR BKN012 OVC025
                       FM141600 22015G23KT P6SM -SHRA SCT015 BKN025
                       OVC040 FM142000 22017G25KT P6SM SCT025 BKN045
                       FM142300 22015G23KT P6SM SCT045 BKN120 FM150300
                       21010KT P6SM SCT050 BKN150=
201403141120 TAF KSEA 141120Z 1412/1518 17013G20KT P6SM -RA OVC015 FM141500
                       22015G23KT P6SM -SHRA SCT015 BKN025 OVC040
                       FM142000 22017G25KT P6SM SCT025 BKN045 FM142300
                       22015G23KT P6SM SCT045 BKN120 FM150300 21010KT
                       P6SM SCT050 BKN150=
201403140904 TAF AMD KSEA 140904Z 1409/1512 17009KT P6SM -RA FEW008 BKN014 OVC050
                       TEMPO 1409/1411 4SM -RA BR BKN008 FM141100
                       20010KT 4SM -RA SCT006 BKN012 OVC020 FM141500
                       22014G22KT P6SM -SHRA SCT015 BKN025 BKN040
                       FM142000 22017G25KT P6SM SCT025 BKN045 FM142300
                       22015G23KT P6SM SCT045 BKN120 FM150300 21010KT
                       P6SM SCT050 BKN150=
201403140713 TAF AMD KSEA 140713Z 1407/1512 19008KT P6SM -RA SCT008 OVC020
                      TEMPO 1407/1411 4SM -RA BR BKN008 FM141100
                       20010KT 4SM -RA SCT006 BKN012 OVC020 FM141500
                       22014G22KT P6SM -SHRA SCT015 BKN025 BKN040
                       FM142000 22017G25KT P6SM SCT025 BKN045 FM142300
                       22015G23KT P6SM SCT045 BKN120 FM150300 21010KT
                       P6SM SCT050 BKN150=
201403140521 TAF KSEA 140521Z 1406/1512 20008KT P6SM BKN060 OVC100
                      TEMPO 1407/1409 -RA BKN035 OVC060 FM140900
                       20010KT P6SM -RA OVC025 FM141300 20010KT
                       4SM -RA SCT006 BKN012 OVC020 FM141500 22014G22KT
                       P6SM -SHRA SCT015 BKN025 BKN040 FM142000
                       22017G25KT P6SM SCT025 BKN045 FM142300 22015G23KT
                       P6SM SCT045 BKN120 FM150300 21010KT P6SM
                       SCT050 BKN150=
201403140303 TAF AMD KSEA 140303Z 1403/1506 19005KT P6SM SCT050 BKN120 BKN220
                       TEMPO 1403/1406 BKN050 OVC120 FM140600 20008KT
                       P6SM -RA OVC035 FM140900 20010KT P6SM -RA
                       BKN015 OVC025 FM141300 20010KT 4SM -RA SCT006
                       BKN012 OVC020 FM141500 22014G22KT P6SM -SHRA
                       SCT015 BKN025 BKN040 FM142000 22014G22KT
                       P6SM VCSH SCT025 BKN045=
201403132320 TAF KSEA 132320Z 1400/1506 23007KT P6SM FEW050 SCT160 BKN250 FM140300
                       22006KT P6SM OVC050 FM140600 20008KT P6SM
                       -RA OVC035 FM140900 20010KT P6SM -RA BKN015
                       OVC025 FM141300 20010KT 4SM -RA SCT006 BKN012
                       OVC020 FM141500 22014G22KT P6SM -SHRA SCT015
                       BKN025 BKN040 FM142000 22014G22KT P6SM VCSH
                       SCT025 BKN045=
201403132100 TAF AMD KSEA 132100Z 1321/1424 16003KT P6SM FEW180 SCT250 FM140300
                       22006KT P6SM OVC050 FM140600 20008KT P6SM
                       -RA OVC035 FM140900 20010KT P6SM -RA BKN015
                       OVC025 FM141300 20010KT 4SM -RA SCT006 BKN012
                       OVC020 FM141500 22014G22KT P6SM -SHRA SCT015
                       BKN025 BKN040 FM142000 22014G22KT P6SM VCSH
                       SCT025 BKN045=
201403131745 TAF KSEA 131745Z 1318/1424 00000KT P6SM SCT007 BKN190
                      TEMPO 1318/1319 BKN007 BKN190 FM131900 22006KT
                       P6SM FEW025 BKN150 FM140300 22006KT P6SM
                       OVC050 FM140600 20008KT P6SM -RA OVC035
                       FM140900 20010KT P6SM -RA BKN015 OVC025
                       FM141300 20010KT 4SM -RA SCT006 BKN012 OVC020
                       FM141500 22014G22KT P6SM -SHRA SCT015 BKN025
                       BKN040 FM142000 22014G22KT P6SM VCSH SCT025
                       BKN045=
201403131606 TAF AMD KSEA 131606Z 1316/1418 00000KT P6SM SCT015 BKN200
                      TEMPO 1316/1319 BKN015 BKN200 FM131900 22006KT
                       P6SM SCT025 BKN045 FM140500 22006KT P6SM
                       -RA OVC035 FM140900 20010KT P6SM -RA BKN015
                       OVC025 FM141300 20010KT 4SM -RA SCT006 BKN012
                       OVC020 FM141600 22014G20KT P6SM -SHRA SCT015
                       BKN025 BKN040=
201403131400 TAF AMD KSEA 131400Z 1314/1418 01005KT P6SM BKN210 FM131800 22006KT
                       P6SM SCT025 BKN045 FM140500 22006KT P6SM
                       -RA OVC035 FM140900 20010KT P6SM -RA BKN015
                       OVC025 FM141300 20010KT 4SM -RA SCT006 BKN012
                       OVC020 FM141600 22014G20KT P6SM -SHRA SCT015
                       BKN025 BKN040=
201403131139 TAF KSEA 131139Z 1312/1418 01006KT P6SM SCT100 FM131800 22006KT
                       P6SM SCT025 BKN045 FM140500 22006KT P6SM
                       -RA OVC035 FM140900 20010KT P6SM -RA BKN015
                       OVC025 FM141300 20010KT 4SM -RA SCT006 BKN012
                       OVC020 FM141600 22014G20KT P6SM -SHRA SCT015
                       BKN025 BKN040=
201403131012 TAF AMD KSEA 131012Z 1310/1412 01006KT P6SM SCT100 FM131300 VRB03KT
                       P6SM SCT005 SCT100 FM131800 22006KT P6SM
                       SCT025 BKN060 FM140600 22006KT P6SM -RA
                       BKN015 OVC025 FM141000 20010KT 4SM -RA SCT006
                       BKN012 OVC020=
201403130543 TAF KSEA 130543Z 1306/1412 01006KT P6SM BKN100 FM131100 VRB03KT
                       P6SM SCT005 SCT100 FM131800 22006KT P6SM
                       SCT025 BKN060 FM140600 22006KT P6SM -RA
                       BKN015 OVC025 FM141000 20010KT 4SM -RA SCT006
                       BKN012 OVC020=
201403130311 TAF AMD KSEA 130311Z 1303/1406 01006KT P6SM SCT250 FM130500 VRB03KT
                       P6SM SCT070 SCT150 FM131000 22004KT P6SM
                       SCT012 BKN050 FM132000 22004KT P6SM SCT025
                       SCT050 FM140300 22005KT P6SM SCT012 OVC035
                       FM140500 20010KT 5SM -RA BR SCT008 BKN012
                       OVC025=
201403122333 TAF KSEA 122333Z 1300/1406 VRB04KT P6SM SCT250 FM130500 25004KT
                       P6SM SCT070 SCT150 FM131000 22004KT P6SM
                       SCT012 BKN050 FM132000 22004KT P6SM SCT025
                       SCT050 FM140300 22005KT P6SM SCT012 OVC035
                       FM140500 20010KT 5SM -RA BR SCT008 BKN012
                       OVC025=
201403122104 TAF KSEA 122104Z 1221/1324 32005KT P6SM FEW250 FM130200 04004KT
                       P6SM BKN150 FM130500 25004KT P6SM BKN070
                       BKN150 FM131200 22004KT P6SM SCT008 OVC050
                       FM132000 25004KT P6SM SCT020 SCT050=
201403122103 KSEA 122103Z 1221/1324 VRB04KT P6SM FEW250 FM130200 04004KT P6SM
                       BKN150 FM130500 25004KT P6SM BKN070 BKN150
                       FM131200 22004KT P6SM SCT008 OVC050 FM132000
                       25004KT P6SM SCT020 SCT050=
201403121720 TAF KSEA 121720Z 1218/1324 00000KT P6SM FEW250 FM122000 32006KT
                       P6SM SCT150 FM130200 04004KT P6SM BKN150
                       FM130500 25004KT P6SM BKN070 BKN150 FM131200
                       22004KT P6SM SCT008 OVC050 FM132000 25004KT
                       P6SM SCT020 SCT050=
201403121449 KSEA 121449Z 1215/1318 02004KT 5SM BCFG FEW001
                      TEMPO 1215/1217 1SM BR BKN001 FM121800 VRB03KT
                       P6SM FEW008 FM122000 32006KT P6SM SCT150
                       FM130800 VRB03KT P6SM BKN050 BKN150=
201403121120 TAF KSEA 121120Z 1212/1318 36005KT P6SM SKC FM122000 32006KT P6SM
                       SCT150 FM130800 VRB03KT P6SM BKN050 BKN150=
201403120520 TAF KSEA 120520Z 1206/1312 01007KT P6SM SKC FM122000 32006KT P6SM
                       SCT150=
201403112320 TAF KSEA 112320Z 1200/1306 31005KT P6SM FEW025 SCT250 FM120400
                       05006KT P6SM SKC FM122000 32006KT P6SM BKN130=
201403112100 TAF AMD KSEA 112100Z 1121/1224 31006KT P6SM FEW030 SCT250 FM120400
                       05006KT P6SM SKC FM122000 33006KT P6SM BKN130=
201403111720 TAF KSEA 111720Z 1118/1224 03003KT P6SM VCFG SCT005 FM111830 33006KT
                       P6SM SCT030 FM120400 05006KT P6SM SKC FM122000
                       33006KT P6SM BKN130=
201403111616 TAF AMD KSEA 111616Z 1116/1218 01004KT 5SM BCFG SCT002
                      TEMPO 1116/1118 1SM BR BKN002 FM111800 34005KT
                       P6SM SCT025 SCT050 FM120400 04006KT P6SM
                       SKC=
201403111122 TAF KSEA 111122Z 1112/1218 VRB03KT P6SM SCT025 BKN060
                      TEMPO 1113/1116 BKN025 BKN050 FM111700 VRB03KT
                       P6SM SCT025 SCT050 FM120400 04006KT P6SM
                       SKC=
201403111001 TAF AMD KSEA 111001Z 1110/1212 15005KT P6SM SCT025 BKN050
                      TEMPO 1112/1116 BKN025 BKN050 FM111700 VRB04KT
                       P6SM SCT025 SCT050 FM120400 04006KT P6SM
                       SKC=
201403110520 TAF KSEA 110520Z 1106/1212 15005KT P6SM SCT020 BKN040 FM111000
                       VRB03KT P6SM BKN020 BKN040 FM111900 32006KT
                       P6SM SCT025 SCT050 FM120400 04006KT P6SM
                       SKC=
201403110302 KSEA 110302Z 1103/1206 VRB03KT P6SM SCT040 SCT100 FM111000 VRB03KT
                       P6SM BKN020 BKN040 FM111900 32006KT P6SM
                       SCT025 SCT050=
201403102351 TAF AMD KSEA 102351Z 1100/1206 22004KT P6SM VCTS SCT025CB BKN045
                       OVC070
                      TEMPO 1100/1103 -SHRA BKN025 OVC045 FM110300
                       VRB03KT P6SM -SHRA BKN025 BKN040 FM111000
                       VRB03KT P6SM VCSH SCT009 BKN020 OVC040
                      TEMPO 1110/1114 BKN009 OVC020 FM111900 32006KT
                       P6SM SCT025 SCT050=
201403102324 TAF KSEA 102324Z 1100/1206 22004KT P6SM VCSH SCT029 SCT045 BKN070
                       TEMPO 1100/1102 -SHRA BKN025 OVC045 FM110200
                       VRB03KT P6SM -SHRA BKN025 BKN040 FM111000
                       VRB03KT P6SM VCSH SCT009 BKN020 OVC040
                      TEMPO 1110/1114 BKN009 OVC020 FM111900 32006KT
                       P6SM SCT025 SCT050=
201403102027 TAF AMD KSEA 102027Z 1020/1124 19009KT P6SM VCSH FEW008 SCT021
                       BKN040
                      TEMPO 1021/1024 4SM SHRA SCT005 BKN015 OVC025
                       FM110000 VRB04KT P6SM -SHRA SCT015 BKN027
                       OVC045 FM110700 VRB03KT P6SM VCSH SCT009
                       BKN020 OVC040
                      TEMPO 1110/1114 BKN009 OVC020 FM111900 VRB03KT
                       P6SM SCT025 SCT050=
201403101726 TAF KSEA 101726Z 1018/1124 VRB04KT P6SM -SHRA SCT009 OVC027
                      TEMPO 1018/1021 3SM SHRA SCT005 BKN009 OVC025
                       FM102100 VRB04KT P6SM -SHRA SCT015 BKN027
                       OVC045 FM110700 VRB03KT P6SM VCSH SCT009
                       BKN020 OVC040
                      TEMPO 1110/1114 BKN009 OVC020 FM111900 VRB03KT
                       P6SM SCT025 SCT050=
201403101403 KSEA 101403Z 1014/1118 VRB04KT P6SM VCSH SCT005 OVC040
                      TEMPO 1014/1018 1SM -SHRA BR BKN005 BKN015
                       OVC035 FM101800 VRB04KT P6SM VCSH SCT020
                       OVC045
                      TEMPO 1018/1021 -SHRA BKN020 BKN045 FM102100
                       VRB05KT P6SM VCSH SCT030 BKN050 FM110400
                       26004KT P6SM SCT050 SCT200=
201403101120 TAF KSEA 101120Z 1012/1118 34004KT P6SM -SHRA SCT005 OVC035
                      TEMPO 1012/1015 1SM -SHRA BR BKN005 BKN015
                       OVC035 FM101500 33003KT P6SM -SHRA BKN015
                       OVC040
                      TEMPO 1015/1018 SCT015 BKN040 FM101800 VRB04KT
                       P6SM BKN020 OVC045
                      TEMPO 1018/1021 -SHRA SCT020 BKN045 FM102100
                       VRB05KT P6SM VCSH SCT030 BKN050 FM110400
                       26004KT P6SM SCT050 SCT200=
201403100904 TAF AMD KSEA 100904Z 1009/1112 29004KT P6SM -SHRA SCT005 BKN015
                       OVC045
                      TEMPO 1009/1012 2SM -SHRA BR BKN005 OVC015
                       FM101200 VRB03KT P6SM -SHRA BKN025 OVC040
                       FM101400 18005KT P6SM BKN030 OVC050
                      TEMPO 1014/1018 -SHRA FM101800 22008KT P6SM
                       VCSH SCT035 BKN050 FM102300 24008KT P6SM
                       VCSH SCT050 BKN100=
201403100540 TAF KSEA 100540Z 1006/1112 29006KT P6SM -SHRA BKN015 OVC045
                      TEMPO 1006/1010 3SM -SHRA BR BKN007 OVC015
                       FM101200 VRB03KT P6SM -SHRA BKN025 OVC040
                       FM101400 18005KT P6SM BKN030 OVC050
                      TEMPO 1014/1018 -SHRA FM101800 22008KT P6SM
                       VCSH SCT035 BKN050 FM102300 24008KT P6SM
                       VCSH SCT050 BKN100=
201403100303 TAF AMD KSEA 100303Z 1003/1106 19007KT P6SM -SHRA SCT020 BKN045
                       OVC070
                      TEMPO 1003/1007 BKN020 BKN045 OVC070 FM100900
                       21007KT P6SM -SHRA BKN025 OVC040 FM101800
                       24012KT P6SM SCT035 BKN050 BKN200
                      PROB30 1018/1024 -SHRA FM110200 24006KT P6SM
                       SCT050 SCT200=
201403092344 TAF KSEA 092344Z 1000/1106 21010KT P6SM VCSH SCT040 BKN070 OVC130
                       TEMPO 1000/1002 -SHRA FM100200 19007KT P6SM
                       -SHRA SCT025 BKN040 OVC070 FM100900 21007KT
                       P6SM VCSH SCT025 OVC040
                      PROB30 1009/1015 -SHRA BKN025 OVC040 FM101800
                       24012KT P6SM SCT035 BKN050 BKN200
                      PROB30 1018/1024 -SHRA FM110200 24006KT P6SM
                       SCT050 SCT200=
201403092102 TAF AMD KSEA 092102Z 0921/1024 21010KT P6SM VCSH SCT050 SCT090
                       OVC200
                      TEMPO 0921/0924 BKN050 BKN090 OVC200 FM100300
                       19005KT P6SM -SHRA SCT028 BKN050 OVC100
                       FM100900 22008KT P6SM VCSH SCT025 BKN050
                       OVC100
                      PROB30 1009/1015 -SHRA BKN025 OVC050 FM101800
                       24012KT P6SM FEW035 BKN050 BKN200
                      PROB30 1018/1024 -SHRA=
201403091744 TAF KSEA 091744Z 0918/1024 21010KT P6SM SCT008 SCT050 OVC100
                      TEMPO 0918/0920 BKN008 BKN050 OVC100 FM092000
                       21010KT P6SM SCT028 BKN050 BKN100 FM100300
                       19005KT P6SM -SHRA SCT028 BKN050 OVC100
                       FM100900 22008KT P6SM VCSH SCT025 BKN050
                       OVC100
                      PROB30 1009/1015 -SHRA BKN025 OVC050 FM101800
                       24012KT P6SM FEW035 BKN050 BKN200
                      PROB30 1018/1024 -SHRA=
201403091502 TAF AMD KSEA 091502Z 0915/1018 21008KT P6SM VCSH SCT015 SCT050
                       OVC100
                      TEMPO 0915/0918 -SHRA BKN015 OVC050 FM091800
                       21010KT P6SM BKN025 BKN080 FM092100 23008KT
                       P6SM SCT030 BKN080 FM100000 23006KT P6SM
                       SCT030 BKN100=
201403091123 TAF KSEA 091123Z 0912/1018 22010G20KT P6SM SCT015 OVC070
                      TEMPO 0912/0916 -RA BKN015 OVC070 FM091600
                       21010KT P6SM BKN020 OVC070 FM091900 21010KT
                       P6SM BKN025 BKN080 FM092100 23008KT P6SM
                       SCT030 BKN080 FM100000 23006KT P6SM SCT030
                       BKN100=
201403090924 TAF AMD KSEA 090924Z 0909/1012 22010G20KT P6SM BKN007 OVC015 FM091600
                       21010KT P6SM SCT007 OVC015 FM091900 22010KT
                       P6SM BKN015 OVC030 FM092200 23008KT P6SM
                       SCT030 BKN045 FM100000 25005KT P6SM SCT030
                       BKN050 BKN100=
201403090535 TAF KSEA 090535Z 0906/1012 18008KT 5SM -RA BR SCT003 BKN007 OVC015
                       TEMPO 0906/0910 2SM RA BR BKN003 OVC007
                       FM091000 20008KT 3SM -RA BR BKN003 OVC010
                       FM091700 21010KT P6SM BKN007 OVC015 FM091900
                       22010KT P6SM BKN015 OVC030 FM092200 23008KT
                       P6SM SCT030 BKN045 FM100000 25005KT P6SM
                       SCT030 BKN050 BKN100=
201403090303 TAF AMD KSEA 090303Z 0903/1006 17006KT 5SM -RA BR SCT007 OVC022
                       TEMPO 0903/0906 2SM RA BR BKN007 OVC015
                       FM090600 20013KT 5SM -RA BR SCT007 BKN015
                       OVC030
                      TEMPO 0906/0910 20013G23KT 2SM -RA BR BKN007
                       OVC015 FM091200 20007KT P6SM -SHRA BKN015
                       OVC030 FM091800 23007KT P6SM -SHRA SCT015
                       BKN030 OVC050 FM100000 25005KT P6SM SCT030
                       BKN050 BKN100
                      PROB30 1000/1006 -SHRA=
201403082344 TAF KSEA 082344Z 0900/1006 VRB05KT 2SM RA BR SCT007 OVC015 FM090200
                       17013KT 2SM RA BR BKN007 OVC015 FM090600
                       20013KT 4SM -RA BR SCT007 BKN015 OVC030
                       TEMPO 0906/0910 20013G23KT 2SM RA BR BKN007
                       OVC015 FM091200 20007KT P6SM -SHRA BKN015
                       OVC030 FM091800 23007KT P6SM -SHRA SCT015
                       BKN030 OVC050 FM100000 25005KT P6SM SCT030
                       BKN050 BKN100
                      PROB30 1000/1006 -SHRA=
201403082305 TAF AMD KSEA 082305Z 0823/0924 VRB05KT 3SM -RA BR FEW008 OVC015
                       TEMPO 0823/0902 1 1/2SM RA BR FM090200 17013KT
                       6SM -RA BR BKN015 OVC030 FM090300 17013KT
                       4SM -RA BR SCT007 OVC015 FM090800 20013KT
                       P6SM -RA SCT007 BKN015 OVC030
                      TEMPO 0908/0912 20013G23KT FM091500 20009KT
                       P6SM -SHRA SCT015 BKN030 OVC050=
201403082136 TAF AMD KSEA 082136Z 0822/0924 VRB05KT 3SM -RA BR FEW008 OVC040
                       FM090000 17013KT 6SM -RA BR SCT015 OVC030
                       FM090300 17013KT 4SM -RA BR SCT007 OVC015
                       FM090800 20013KT P6SM -RA SCT007 BKN015
                       OVC030
                      TEMPO 0908/0912 20013G23KT FM091500 20009KT
                       P6SM -SHRA SCT015 BKN030 OVC050=
201403081748 TAF KSEA 081748Z 0818/0924 19006KT P6SM SCT050 OVC080
                      TEMPO 0818/0820 -RA FM082000 17010KT P6SM
                       -RA SCT030 OVC050 FM090000 17013KT 6SM -RA
                       BR SCT015 OVC030 FM090300 17013KT 4SM -RA
                       BR SCT007 OVC015 FM090800 20013KT P6SM -RA
                       SCT007 BKN015 OVC030
                      TEMPO 0908/0912 20013G23KT FM091500 20009KT
                       P6SM -SHRA SCT015 BKN030 OVC050=
201403081400 TAF AMD KSEA 081400Z 0814/0918 13008KT P6SM SCT100 BKN200 FM081500
                       16007KT P6SM OVC070 FM082000 17008KT P6SM
                       -RA SCT030 OVC050 FM090000 18010KT 6SM -RA
                       BR SCT015 OVC025 FM090300 17012KT 5SM -RA
                       BR SCT007 OVC015=
201403081120 TAF KSEA 081120Z 0812/0918 13008KT P6SM SCT100 BKN200 FM081500
                       16007KT P6SM OVC070 FM082000 17008KT P6SM
                       -RA SCT030 OVC050 FM090000 18010KT 6SM -RA
                       BR SCT015 OVC025 FM090300 17012KT 5SM -RA
                       BR SCT007 OVC015=
201403080916 TAF AMD KSEA 080916Z 0809/0912 12007KT P6SM SCT110 BKN200 FM081500
                       16007KT P6SM OVC070 FM082000 17008KT P6SM
                       -RA SCT030 OVC050 FM090000 18010KT 6SM -RA
                       BR SCT015 OVC025 FM090300 17012KT 5SM -RA
                       BR SCT007 OVC015=
201403080528 TAF KSEA 080528Z 0806/0912 14006KT P6SM SCT110 BKN200 FM081500
                       16007KT P6SM OVC070 FM082000 17008KT P6SM
                       -RA SCT030 OVC050 FM090000 18010KT 6SM -RA
                       BR SCT015 OVC025 FM090300 17012KT 5SM -RA
                       BR SCT007 OVC015=
201403080300 TAF AMD KSEA 080300Z 0803/0906 14004KT P6SM FEW050 SCT110 SCT200
                       FM080600 VRB03KT P6SM SCT110 BKN200 FM081200
                       12005KT P6SM SCT050 OVC110
                      PROB30 0814/0818 -RA OVC050 FM081800 15008KT
                       P6SM -RA SCT030 OVC050 FM090000 17010KT
                       6SM -RA BR SCT015 OVC030 FM090300 17013KT
                       4SM -RA BR SCT007 OVC015=
201403072348 TAF KSEA 072348Z 0800/0906 19007KT P6SM FEW050 SCT110 SCT200 FM080600
                       VRB03KT P6SM SCT110 BKN200 FM081200 12005KT
                       P6SM SCT050 OVC110
                      PROB30 0814/0818 -RA OVC050 FM081800 15008KT
                       P6SM -RA SCT030 OVC050 FM090000 17010KT
                       6SM -RA BR SCT015 OVC030 FM090300 17013KT
                       4SM -RA BR SCT007 OVC015=
201403072108 TAF AMD KSEA 072108Z 0721/0824 20009KT P6SM BKN050 OVC200 FM080000
                       17007KT P6SM FEW050 SCT110 OVC200 FM081200
                       12005KT P6SM SCT035 OVC110
                      PROB30 0812/0818 -RA OVC035 FM081800 17009KT
                       P6SM -RA SCT018 OVC035=
201403071740 TAF KSEA 071740Z 0718/0824 20011KT P6SM SCT022 OVC200
                      TEMPO 0718/0720 BKN022 OVC200 FM072000 20011KT
                       P6SM SCT035 SCT110 OVC200
                      TEMPO 0720/0724 BKN035 BKN110 OVC200 FM080000
                       17007KT P6SM FEW035 SCT110 OVC200 FM081200
                       12005KT P6SM SCT035 OVC110
                      PROB30 0812/0818 -RA OVC035 FM081800 17009KT
                       P6SM -RA SCT018 OVC035=
201403071542 TAF AMD KSEA 071542Z 0716/0818 17013KT P6SM SCT015 OVC200
                      TEMPO 0716/0719 BKN015 OVC200 FM071900 21010KT
                       P6SM BKN022 OVC035 FM072200 21010KT P6SM
                       SCT025 BKN100 FM080200 18007KT P6SM FEW030
                       BKN200=
201403071506 KSEA 071506Z 0715/0818 17013KT P6SM BKN015 FM071900 21010KT P6SM
                       BKN022 OVC035 FM072200 21010KT P6SM SCT025
                       BKN100 FM080200 18007KT P6SM FEW030 BKN200=
201403071405 KSEA 071405Z 0714/0818 19014G20KT P6SM BKN015 FM071900 21010KT
                       P6SM BKN022 OVC035 FM072200 21010KT P6SM
                       SCT025 BKN100 FM080200 18007KT P6SM FEW030
                       BKN200=
201403071127 TAF KSEA 071127Z 0712/0818 19012KT P6SM OVC012 FM071900 21010KT
                       P6SM BKN022 OVC035 FM072200 21010KT P6SM
                       SCT025 BKN100 FM080200 18007KT P6SM FEW030
                       BKN200=
201403070901 KSEA 070901Z 0709/0812 20012KT P6SM OVC012 FM071200 20009KT P6SM
                       OVC008 FM071600 19008KT P6SM OVC015 FM071900
                       21010KT P6SM BKN022 OVC040 FM072200 21008KT
                       P6SM SCT025 BKN100=
201403070543 TAF KSEA 070543Z 0706/0812 21012KT P6SM OVC012 FM071200 20009KT
                       P6SM OVC008 FM071600 19008KT P6SM OVC015
                       FM071900 21010KT P6SM BKN022 OVC040 FM072200
                       21008KT P6SM SCT025 BKN100=
201403070322 TAF AMD KSEA 070322Z 0703/0806 21012KT P6SM VCSH SCT024 SCT040
                       BKN100
                      TEMPO 0703/0706 BKN024 BKN040 BKN100 FM070600
                       21012KT P6SM BKN020 BKN040 BKN100 FM071000
                       20009KT P6SM BKN020 OVC040
                      TEMPO 0712/0716 BKN015 OVC040 FM071600 18007KT
                       P6SM SCT020 BKN040 FM072100 21008KT P6SM
                       SCT025 BKN045=
201403070309 TAF AMD KSEA 070309Z 0703/0806 21012KT P6SM VCSH SCT020 SCT040
                       BKN110 FM070600 21012KT P6SM SCT020 BKN040
                       BKN100 FM071000 20009KT P6SM SCT020 OVC040
                       TEMPO 0712/0716 BKN020 OVC040 FM071600 18007KT
                       P6SM SCT020 BKN040 FM072100 21008KT P6SM
                       SCT025 BKN045=
201403062329 TAF KSEA 062329Z 0700/0806 21018G28KT P6SM VCSH SCT020 BKN110 BKN200
                       TEMPO 0700/0704 -SHRA BKN020 OVC045 FM070600
                       20010KT P6SM OVC025 FM072100 21010KT P6SM
                       SCT025 BKN045=
201403062102 TAF AMD KSEA 062102Z 0621/0724 20015G22KT P6SM -RA SCT026 OVC030
                       TEMPO 0621/0623 -RA OVC020 FM062300 21012G22KT
                       P6SM VCSH SCT020 BKN040 FM070600 21011KT
                       P6SM OVC020 FM071800 19008KT P6SM OVC045=
201403061735 TAF KSEA 061735Z 0618/0724 18011KT P6SM -RA SCT030 OVC060
                      TEMPO 0618/0622 -RA OVC025 FM062200 21012G22KT
                       P6SM VCSH SCT020 BKN040 FM070600 21011KT
                       P6SM OVC020 FM071800 19008KT P6SM OVC045=
201403061400 TAF AMD KSEA 061400Z 0614/0718 17013G20KT P6SM -RA OVC045 FM061700
                       21018G28KT P6SM -SHRA SCT012 BKN018 OVC040
                       FM070300 21014KT P6SM -SHRA BKN025 OVC040=
201403061134 TAF KSEA 061134Z 0612/0718 19014G25KT P6SM -SHRA SCT025 OVC040
                       FM061400 19015G25KT P6SM -SHRA BKN025 OVC040
                       FM061700 21018G28KT P6SM -SHRA SCT012 BKN018
                       OVC040 FM070300 21014KT P6SM -SHRA BKN025
                       OVC040=
201403060813 TAF AMD KSEA 060813Z 0608/0712 21015G30KT P6SM -SHRA SCT020 BKN035
                       OVC050 FM061200 21015G25KT P6SM -SHRA SCT012
                       BKN025 OVC045 FM061800 21018G28KT P6SM -SHRA
                       SCT012 BKN020 OVC040=
201403060637 TAF AMD KSEA 060637Z 0607/0712 15012KT P6SM -RA VCTS BKN030CB OVC050
                       TEMPO 0607/0609 5SM -RA BR BKN020 OVC050
                       FM060900 18012G22KT 5SM -RA BR SCT012 BKN020
                       OVC035
                      TEMPO 0609/0612 OVC015 FM061200 18015G25KT
                       5SM -RA BR SCT010 OVC018 FM061800 20015G25KT
                       P6SM -SHRA SCT015 OVC025=
201403060528 TAF KSEA 060528Z 0606/0712 15012KT P6SM -RA BKN020 OVC035
                      TEMPO 0606/0608 5SM -RA BR OVC015 FM060800
                       18012G22KT 5SM -RA BR SCT012 BKN020 OVC035
                       TEMPO 0608/0612 OVC015 FM061200 18015G25KT
                       5SM -RA BR SCT010 OVC018 FM061800 20015G25KT
                       P6SM -SHRA SCT015 OVC025=
201403060310 TAF AMD KSEA 060310Z 0603/0706 12009KT 5SM RA SCT017 BKN035 OVC050
                       FM060800 16014G23KT P6SM -RA SCT012 BKN020
                       OVC040 FM061200 18015G23KT 5SM -RA SCT012
                       OVC025 FM061800 21016G24KT P6SM VCSH SCT015
                       OVC030=
201403052341 TAF KSEA 052341Z 0600/0706 15007KT 5SM -RA SCT017 BKN035 OVC050
                       FM060600 16012G22KT 3SM RA OVC012 FM061200
                       18015G23KT 5SM -RA SCT012 OVC025 FM061800
                       21016G24KT P6SM VCSH SCT015 OVC030=
201403052022 TAF AMD KSEA 052022Z 0520/0624 21005KT P6SM VCSH FEW007 BKN019
                       BKN200 FM052200 14008KT P6SM SCT020 BKN030
                       OVC045 FM060300 14008KT 2SM RA SCT025 OVC040
                       FM061200 18012KT 4SM -RA SCT004 BKN008 OVC015
                       FM061800 21015G25KT P6SM VCSH SCT010 OVC020=
201403051735 TAF KSEA 051735Z 0518/0624 20013KT 2SM BR VCSH BKN008 OVC014 FM052200
                       14008KT P6SM SCT020 BKN030 OVC045 FM060300
                       14008KT 2SM RA SCT025 OVC040 FM061200 18012KT
                       4SM -RA SCT004 BKN008 OVC015 FM061800 21015G25KT
                       P6SM VCSH SCT010 OVC020=
201403051540 TAF AMD KSEA 051540Z 0516/0618 16009KT 2SM -RA BR BKN005 OVC008
                       FM051800 18012KT P6SM -SHRA SCT006 BKN015
                       OVC025 FM052300 14008KT P6SM SCT020 BKN030
                       OVC045 FM060300 14008KT 4SM RA SCT025 OVC040
                       FM061200 18012KT 4SM -RA SCT004 BKN008 OVC015=
201403051400 KSEA 051400Z 0514/0618 14006KT 3SM -RA BR FEW004 BKN017 OVC024
                       FM051600 17008KT 4SM -RA SCT003 BKN006 OVC015
                       FM051800 18012KT P6SM -SHRA SCT006 BKN015
                       OVC025 FM052300 14008KT P6SM SCT020 BKN030
                       OVC045 FM060300 14008KT 4SM RA SCT025 OVC040
                       FM061200 18012KT 4SM -RA SCT004 BKN008 OVC015=
201403051140 TAF KSEA 051140Z 0512/0618 09009KT 3SM RA SCT006 BKN025 OVC040
                       FM051500 17008KT 4SM -RA SCT003 BKN006 OVC015
                       FM051800 18012KT P6SM -SHRA SCT006 BKN015
                       OVC025 FM052300 14008KT P6SM SCT020 BKN030
                       OVC045 FM060300 14008KT 4SM RA SCT025 OVC040
                       FM061200 18012KT 4SM -RA SCT004 BKN008 OVC015=
201403050907 TAF AMD KSEA 050907Z 0509/0612 13008KT P6SM -RA SCT030 OVC050 FM051300
                       17008KT 4SM -RA SCT004 BKN015 OVC025 FM051500
                       17008KT 3SM -RA SCT003 OVC006 FM051800 18012KT
                       P6SM -SHRA SCT006 BKN015 OVC025 FM052100
                       18012KT P6SM -SHRA SCT015 BKN025 OVC040
                       FM060400 14008KT 4SM -RA SCT004 OVC008=
201403050540 TAF KSEA 050540Z 0506/0612 20008KT 4SM -RA SCT004 BKN015 OVC025
                       FM051000 13008KT 3SM -RA SCT003 OVC006 FM051700
                       18012KT P6SM -SHRA SCT006 BKN015 OVC025
                       FM052100 18012KT P6SM -SHRA SCT015 BKN025
                       OVC040 FM060400 14008KT 4SM -RA SCT004 OVC008=
201403050319 TAF AMD KSEA 050319Z 0503/0606 19008KT 5SM -RA BR BKN012 OVC020
                       FM050600 13008KT 3SM -RA BR OVC007 WS020/20040KT
                       FM051500 18015KT P6SM -SHRA BKN015 BKN025
                       OVC040=
201403042329 TAF KSEA 042329Z 0500/0606 20012G18KT P6SM FEW014 BKN023 OVC030
                       FM050300 15005KT 5SM -RA BR OVC010 FM050600
                       06002KT 2SM -RA BR OVC007 WS020/20040KT
                       FM051500 18015KT P6SM -SHRA BKN015 BKN025
                       OVC040=
201403042143 TAF AMD KSEA 042143Z 0422/0524 21012G20KT P6SM -SHRA FEW009 BKN022
                       OVC035 FM050300 15005KT 5SM -RA BR OVC010
                       FM050600 06002KT 2SM -RA BR OVC007 FM051600
                       18010KT P6SM -SHRA BKN015 BKN025 OVC040=
201403041904 TAF AMD KSEA 041904Z 0419/0524 18012KT P6SM BKN008 OVC024
                      TEMPO 0419/0421 3SM -RA BR FM042100 18012KT
                       P6SM -SHRA SCT015 BKN025 OVC040 FM050300
                       15005KT 5SM -RA BR OVC010 FM050600 06002KT
                       2SM -RA BR OVC007 FM051600 18010KT P6SM
                       -SHRA BKN015 BKN025 OVC040=
201403041731 TAF KSEA 041731Z 0418/0524 00000KT 1SM RA BR SCT004 OVC015 FM042200
                       18012KT P6SM -SHRA SCT015 BKN025 OVC040
                       FM050300 15005KT 5SM -RA BR OVC010 FM050600
                       06002KT 2SM -RA BR OVC007 FM051600 18010KT
                       P6SM -SHRA BKN015 BKN025 OVC040=
201403041400 TAF AMD KSEA 041400Z 0414/0518 21007KT 1SM -RA BR OVC002
                      TEMPO 0414/0418 4SM -RA BR SCT003 OVC013
                       FM050000 14006KT P6SM SCT025 BKN040 OVC060
                       FM050800 14006KT P6SM -RA SCT008 BKN015
                       OVC025=
201403041141 TAF KSEA 041141Z 0412/0518 18008KT P6SM -RA SCT012 BKN022 OVC035
                       TEMPO 0412/0416 4SM -RA FM050000 14006KT
                       P6SM SCT025 BKN040 OVC060 FM050800 14006KT
                       P6SM -RA SCT008 BKN015 OVC025=
201403040914 TAF AMD KSEA 040914Z 0409/0512 20008KT P6SM SCT012 BKN022 OVC030
                       FM041200 20008KT P6SM -RA SCT012 BKN022
                       OVC035 FM050000 14006KT P6SM SCT025 BKN045
                       OVC070 FM050800 14006KT P6SM -RA SCT012
                       OVC022=
201403040541 TAF KSEA 040541Z 0406/0512 20008KT P6SM SCT015 SCT025 OVC040
                      TEMPO 0406/0410 -SHRA BKN025 OVC040 FM041200
                       20008KT P6SM -RA SCT012 BKN022 OVC035 FM050000
                       14006KT P6SM SCT025 BKN045 OVC070 FM050800
                       14006KT P6SM -RA SCT012 OVC022=
201403040313 TAF AMD KSEA 040313Z 0403/0506 21014KT P6SM SCT012 BKN035 FM040600
                       19007KT P6SM -SHRA SCT006 BKN012 OVC020
                       FM041400 19007KT P6SM -RA SCT008 BKN015
                       OVC025 FM042200 18008KT P6SM -RA SCT015
                       BKN025 OVC035=
201403032339 TAF KSEA 032339Z 0400/0506 21013G20KT P6SM FEW025 SCT045 BKN200
                       FM040300 21009KT P6SM SCT006 SCT012 BKN035
                       FM040600 19007KT P6SM -SHRA SCT006 BKN012
                       OVC020 FM041400 19007KT P6SM -RA SCT008
                       BKN015 OVC025 FM042200 18008KT P6SM -RA
                       SCT015 BKN025 OVC035=
201403032051 TAF AMD KSEA 032051Z 0321/0424 24013G19KT P6SM SCT006 SCT012 SCT200
                       FM040100 21009KT P6SM SCT006 SCT012 BKN035
                       FM040400 19007KT P6SM -SHRA SCT006 BKN012
                       OVC020 FM041700 19007KT P6SM VCSH SCT015
                       BKN030 OVC045=
201403031958 TAF AMD KSEA 031958Z 0320/0424 20011KT P6SM BKN005 OVC009 FM032200
                       21011KT P6SM VCSH SCT011 SCT015 OVC035
                      TEMPO 0322/0324 SCT011 BKN015 OVC035 FM040600
                       20008KT P6SM -SHRA SCT006 BKN012 OVC020
                       FM041700 20007KT P6SM VCSH SCT015 BKN030
                       OVC045=
201403031850 TAF AMD KSEA 031850Z 0319/0424 14007KT 2SM -RA BR SCT005 OVC012
                       FM032030 19010KT P6SM -SHRA SCT012 BKN025
                       OVC040 FM032200 20008KT P6SM VCSH SCT015
                       BKN030 OVC045 FM040600 20008KT P6SM -SHRA
                       SCT006 BKN012 OVC020 FM041700 20007KT P6SM
                       VCSH SCT015 BKN030 OVC045=
201403031741 TAF KSEA 031741Z 0318/0424 17006KT P6SM -SHRA FEW012 BKN030 OVC045
                       TEMPO 0318/0320 3SM SHRA BR SCT012 BKN025
                       OVC040 FM032200 20008KT P6SM VCSH SCT015
                       BKN030 OVC045 FM040600 20008KT P6SM -SHRA
                       SCT006 BKN012 OVC020 FM041700 20007KT P6SM
                       VCSH SCT015 BKN030 OVC045=
201403031400 TAF AMD KSEA 031400Z 0314/0418 18012KT P6SM -RA SCT015 OVC030 FM031500
                       18012KT P6SM -RA SCT012 BKN022 OVC030 FM032200
                       20008KT P6SM SCT015 BKN025 OVC035 FM040400
                       20008KT P6SM -RA SCT006 BKN012 OVC020=
201403031140 TAF KSEA 031140Z 0312/0418 18012KT P6SM -RA SCT015 OVC030 FM031500
                       18012KT P6SM -RA SCT012 BKN022 OVC030 FM032200
                       20008KT P6SM SCT015 BKN025 OVC035 FM040400
                       20008KT P6SM -RA SCT006 BKN012 OVC020=
201403030908 TAF AMD KSEA 030908Z 0309/0412 20012KT P6SM SCT012 BKN022 OVC035
                       FM032000 20008KT P6SM -RA BKN020 OVC035
                       FM040600 20008KT P6SM SCT006 BKN012 OVC020=
201403030540 TAF KSEA 030540Z 0306/0412 20014G20KT P6SM -RA SCT006 BKN012 OVC020
                       TEMPO 0308/0312 5SM -RA BKN006 OVC012 FM031200
                       20012KT P6SM SCT012 BKN022 OVC035 FM032000
                       20008KT P6SM -RA BKN020 OVC035 FM040600
                       20008KT P6SM SCT006 BKN012 OVC020=
201403030311 TAF AMD KSEA 030311Z 0303/0406 15010KT P6SM -RA BKN025 OVC035 FM030600
                       19014KT P6SM -RA SCT010 BKN015 OVC030 FM031400
                       19010KT P6SM -RA SCT015 BKN025 OVC035 FM032000
                       21008KT P6SM -RA BKN020 OVC035=
201403030022 TAF AMD KSEA 030022Z 0300/0406 15010KT P6SM -RA BKN030 OVC050
                      TEMPO 0300/0304 3SM -RA BR BKN025 OVC035
                       FM030500 19014KT P6SM -RA SCT010 BKN015
                       OVC030 FM031400 19010KT P6SM -RA SCT015
                       BKN025 OVC035 FM032000 21008KT P6SM -RA
                       BKN020 OVC035=
201403022320 TAF KSEA 022320Z 0300/0406 15010KT P6SM -RA BKN030 OVC050 FM030500
                       19014KT P6SM -RA SCT010 BKN015 OVC030 FM031400
                       19010KT P6SM -RA SCT015 BKN025 OVC035 FM032000
                       21008KT P6SM -RA BKN020 OVC035=
201403022100 KSEA 022100Z 0221/0324 15010KT 5SM -RA BR BKN030 OVC050 FM030500
                       19014KT P6SM -RA SCT010 BKN015 OVC030 FM031400
                       19010KT P6SM -RA SCT015 BKN025 OVC035 FM032000
                       21008KT P6SM VCSH BKN020 OVC035=
201403021727 TAF KSEA 021727Z 0218/0324 11010KT P6SM -RA SCT006 BKN012 OVC020
                       TEMPO 0218/0220 2SM -RA BR BKN006 OVC012
                       FM022000 15010KT 3SM -RA BKN006 OVC010 FM030500
                       19014KT P6SM -RA SCT008 BKN015 OVC025 FM031400
                       19008KT P6SM VCSH SCT015 BKN025 OVC035=
201403021602 TAF AMD KSEA 021602Z 0216/0318 11010KT P6SM -RA SCT006 BKN012 OVC020
                       TEMPO 0216/0220 2SM -RA BR BKN006 OVC012
                       FM022000 15010KT P6SM -RA SCT006 OVC012
                       FM030500 19014KT P6SM SCT008 BKN016 OVC025
                       FM031400 19008KT P6SM SCT016 BKN025 OVC035=
201403021400 TAF AMD KSEA 021400Z 0214/0318 11010KT P6SM -RA SCT006 BKN012 OVC020
                       TEMPO 0214/0216 3SM -RA BKN006 OVC012 FM021600
                       11010KT P6SM -RA SCT006 BKN012 OVC020
                      TEMPO 0216/0220 3SM -RA BKN006 OVC012 FM022000
                       15010KT P6SM -RA SCT006 OVC012 FM030500
                       19014KT P6SM SCT008 BKN016 OVC025 FM031400
                       19008KT P6SM SCT016 BKN025 OVC035=
201403021140 TAF KSEA 021140Z 0212/0318 11010KT P6SM -RA SCT006 BKN012 OVC020
                       TEMPO 0212/0216 3SM -RA BKN006 OVC012 FM021600
                       11010KT P6SM -RA SCT006 BKN012 OVC020
                      TEMPO 0216/0220 3SM -RA BKN006 OVC012 FM022000
                       15010KT P6SM -RA SCT006 OVC012 FM030500
                       19014KT P6SM SCT008 BKN016 OVC025 FM031400
                       19008KT P6SM SCT016 BKN025 OVC035=
201403020902 TAF AMD KSEA 020902Z 0209/0312 11010KT P6SM OVC022 FM021500 13010KT
                       P6SM -RA OVC015
                      TEMPO 0223/0303 4SM -RA FM030300 19014KT
                       P6SM SCT006 BKN012 OVC020=
201403020541 TAF KSEA 020541Z 0206/0312 11010KT P6SM OVC022 FM021500 13010KT
                       P6SM -RA OVC015
                      TEMPO 0223/0303 4SM -RA FM030300 19014KT
                       P6SM SCT006 BKN012 OVC020=
201403020306 TAF AMD KSEA 020306Z 0203/0306 11008KT P6SM OVC030 FM020900 11008KT
                       P6SM -RA SCT011 OVC020 FM021700 15008KT
                       P6SM -RA OVC011
                      TEMPO 0220/0224 4SM -RA BR OVC010=
201403012327 TAF KSEA 012327Z 0200/0306 08008KT P6SM OVC030 FM020900 11008KT
                       P6SM -RA SCT011 OVC020 FM021700 15008KT
                       P6SM -RA OVC011
                      TEMPO 0220/0224 4SM -RA BR OVC010=
201403012206 TAF AMD KSEA 012206Z 0122/0224 10008KT P6SM OVC035 FM020000 08008KT
                       P6SM OVC030 FM020900 11008KT P6SM -RA SCT011
                       OVC020 FM021700 15008KT P6SM -RA OVC011=
201403012100 TAF AMD KSEA 012100Z 0121/0224 10008KT P6SM OVC050 FM020000 08008KT
                       P6SM OVC040 FM020900 11008KT P6SM -RA SCT011
                       OVC020 FM021700 15008KT P6SM -RA OVC011=
201403011720 TAF KSEA 011720Z 0118/0224 01008KT P6SM OVC050 FM020000 08008KT
                       P6SM OVC040 FM020900 11008KT P6SM -RA SCT011
                       OVC020 FM021700 15008KT P6SM -RA OVC011=
201403011400 KSEA 011400Z 0114/0218 01008KT P6SM BKN060 OVC100 FM020000 08008KT
                       P6SM BKN040 OVC070 FM020900 11008KT P6SM
                       -RA SCT011 OVC020 FM021700 15008KT P6SM
                       -RA OVC011=
201403011138 TAF KSEA 011138Z 0112/0218 01008KT P6SM BKN070 FM020000 08008KT
                       P6SM BKN040 OVC070 FM020900 11008KT P6SM
                       -RA SCT011 OVC020 FM021700 15008KT P6SM
                       -RA OVC011=
201403010947 TAF AMD KSEA 010947Z 0110/0212 03010KT P6SM BKN070 FM020000 07006KT
                       P6SM BKN040 OVC070 FM020900 11006KT P6SM
                       BKN022 OVC035=
201403010539 TAF KSEA 010539Z 0106/0212 03014KT P6SM SCT200 FM012000 03010KT
                       P6SM BKN120 BKN200 FM020000 07006KT P6SM
                       BKN040 OVC070 FM020900 11006KT P6SM BKN022
                       OVC035=
201403010328 TAF AMD KSEA 010328Z 0103/0206 01014KT P6SM SCT040 SCT100 FM010500
                       06010KT P6SM SCT040 BKN100 FM011200 09013KT
                       P6SM BKN040 FM011800 06010KT P6SM BKN040=