##########################################################
# Query made at 02/17/2025 19:28:54 UTC
# Time interval: from 06/01/2015 00:00  to 06/30/2015 23:59  UTC
##########################################################

##########################################################
# KSEA, Seattle, Seattle-Tacoma International Airport (United States)
# WMO index: 72793. WIGOS ID: 0-20000-0-72793
# Latitude 47-27-00N. Longitude 122-17-59W. Altitude 130 m.
##########################################################

###################################
#  METAR/SPECI from KSEA
###################################
201506302353 METAR KSEA 302353Z 30008KT 10SM FEW060 30/14 A3005 RMK AO2 SLP180 T03000139 10306 20206 58016=
201506302253 METAR KSEA 302253Z 31005KT 10SM FEW060 29/13 A3007 RMK AO2 SLP185 T02940133=
201506302153 METAR KSEA 302153Z 27006KT 9SM FEW060 28/16 A3009 RMK AO2 SLP191 T02780156=
201506302053 METAR KSEA 302053Z 27007KT 10SM FEW070 27/16 A3010 RMK AO2 SLP196 T02670156 58010=
201506301953 METAR KSEA 301953Z VRB04KT 10SM CLR 24/15 A3012 RMK AO2 SLP203 T02440150=
201506301853 METAR KSEA 301853Z VRB04KT 10SM CLR 22/15 A3013 RMK AO2 SLP206 T02220150=
201506301807 SPECI KSEA 301807Z 24005KT 10SM CLR 21/14 A3013 RMK AO2=
201506301801 SPECI KSEA 301801Z 25006KT 1 3/4SM HZ CLR 21/14 A3013 RMK AO2 VIS 1/2V5=
201506301753 METAR KSEA 301753Z VRB05KT 6SM HZ FEW080 21/14 A3013 RMK AO2 SLP206 T02060144 10206 20150 58002=
201506301709 SPECI KSEA 301709Z VRB05KT 7SM SCT006 19/14 A3014 RMK AO2=
201506301653 METAR KSEA 301653Z 24004KT 7SM BKN006 18/14 A3014 RMK AO2 SLP209 T01830144=
201506301622 SPECI KSEA 301622Z 21006KT 7SM BKN004 17/14 A3014 RMK AO2=
201506301553 METAR KSEA 301553Z VRB04KT 2SM HZ BKN004 OVC080 17/14 A3013 RMK AO2 SFC VIS 5 SLP208 T01670139=
201506301528 SPECI KSEA 301528Z VRB03KT 1 1/2SM BR BKN002 OVC080 16/14 A3013 RMK AO2 SFC VIS 5=
201506301453 METAR KSEA 301453Z 19005KT 1/2SM BR OVC002 16/14 A3013 RMK AO2 SFC VIS 4 SLP209 T01560139 51010=
201506301353 METAR KSEA 301353Z 22007KT 1/2SM BR BKN002 OVC080 16/14 A3013 RMK AO2 SFC VIS 4 SLP207 T01560139=
201506301253 METAR KSEA 301253Z 21006KT 1/2SM BR BKN002 OVC080 15/14 A3011 RMK AO2 SFC VIS 6 SLP201 FG BANK S T01500139=
201506301153 METAR KSEA 301153Z 20005KT 6SM BR BKN004 15/14 A3011 RMK AO2 SLP198 FG BANK W T01500139 10206 20150 53006=
201506301133 SPECI KSEA 301133Z 21007KT 10SM BKN004 16/14 A3010 RMK AO2 FG BANK W=
201506301053 METAR KSEA 301053Z 20005KT 10SM FEW006 16/14 A3009 RMK AO2 SLP194 T01560139=
201506301030 SPECI KSEA 301030Z 22004KT 10SM FEW006 16/14 A3010 RMK AO2=
201506300953 METAR KSEA 300953Z 22003KT 10SM CLR 16/14 A3009 RMK AO2 SLP194 T01610139=
201506300853 METAR KSEA 300853Z 20005KT 10SM CLR 17/14 A3009 RMK AO2 SLP192 T01670139 51012=
201506300753 METAR KSEA 300753Z 21006KT 10SM CLR 17/14 A3007 RMK AO2 SLP188 T01720139 402890172=
201506300653 METAR KSEA 300653Z 22006KT 10SM FEW060 18/14 A3007 RMK AO2 SLP184 T01830144=
201506300553 METAR KSEA 300553Z 21006KT 10SM FEW060 21/14 A3005 RMK AO2 SLP180 T02060144 10289 20206 53016=
201506300453 METAR KSEA 300453Z 19004KT 10SM FEW060 22/16 A3003 RMK AO2 SLP173 T02220156=
201506300353 METAR KSEA 300353Z 20006KT 10SM FEW060 24/16 A3001 RMK AO2 SLP165 T02440156=
201506300253 METAR KSEA 300253Z 20007KT 10SM FEW060 26/16 A3000 RMK AO2 SLP163 T02610156 55001=
201506300153 METAR KSEA 300153Z 20005KT 10SM FEW060 27/15 A3000 RMK AO2 SLP162 T02670150=
201506300053 METAR KSEA 300053Z 21005KT 10SM FEW060 28/15 A3000 RMK AO2 SLP162 T02830150=
201506292353 METAR KSEA 292353Z 29007KT 10SM FEW060 28/16 A3001 RMK AO2 SLP164 T02830156 10289 20233 57006=
201506292253 METAR KSEA 292253Z VRB06KT 10SM FEW060 29/15 A3002 RMK AO2 SLP167 T02890150=
201506292153 METAR KSEA 292153Z 27007KT 220V280 10SM FEW060 28/15 A3002 RMK AO2 SLP167 T02780150=
201506292053 METAR KSEA 292053Z 26006KT 10SM FEW060 27/15 A3003 RMK AO2 SLP171 T02720150 52004=
201506291953 METAR KSEA 291953Z 27007KT 10SM FEW060 27/15 A3002 RMK AO2 SLP169 T02670150=
201506291853 METAR KSEA 291853Z 22008KT 10SM FEW060 26/14 A3002 RMK AO2 SLP169 T02560144=
201506291753 METAR KSEA 291753Z 21007KT 10SM FEW060 24/14 A3001 RMK AO2 SLP167 T02390144 10239 20178 51007=
201506291653 METAR KSEA 291653Z 18007KT 10SM FEW120 21/14 A3001 RMK AO2 SLP165 T02110139=
201506291553 METAR KSEA 291553Z 20007KT 10SM FEW120 21/14 A3000 RMK AO2 SLP163 T02060144=
201506291453 METAR KSEA 291453Z 21008KT 10SM FEW090 BKN120 19/14 A2999 RMK AO2 SLP161 T01890144 53012=
201506291353 METAR KSEA 291353Z 00000KT 10SM FEW090 BKN150 BKN240 18/15 A2997 RMK AO2 SLP154 T01780150=
201506291253 METAR KSEA 291253Z 19003KT 10SM BKN140 BKN240 18/15 A2997 RMK AO2 SLP151 T01830150=
201506291153 METAR KSEA 291153Z 25004KT 10SM SCT060 BKN140 BKN210 18/15 A2996 RMK AO2 SLP147 60000 70001 T01830150 10217 20183 50009=
201506291053 METAR KSEA 291053Z 22003KT 10SM FEW060 SCT075 OVC140 19/15 A2997 RMK AO2 RAB34E46 SLP153 OCNL LTGIC DSNT NE CB DSNT NE P0000 T01940150=
201506290953 METAR KSEA 290953Z 00000KT 10SM BKN140 20/14 A2994 RMK AO2 SLP141 T02000139=
201506290853 METAR KSEA 290853Z 00000KT 10SM FEW160 BKN210 19/14 A2993 RMK AO2 SLP138 T01940139 58012=
201506290753 METAR KSEA 290753Z 19004KT 10SM FEW160 BKN210 21/14 A2995 RMK AO2 SLP144 T02060144 402830183=
201506290653 METAR KSEA 290653Z 31003KT 10SM SCT160 BKN210 21/14 A2995 RMK AO2 SLP146 T02060139=
201506290553 METAR KSEA 290553Z 34003KT 10SM BKN160 OVC210 21/14 A2997=
201506290453 METAR KSEA 290453Z 10004KT 10SM OVC160 24/14 A2996 RMK AO2 SLP148 T02390139=
201506290353 METAR KSEA 290353Z 13004KT 10SM OVC180 23/13 A2997 RMK AO2 SLP152 T02280133=
201506290253 METAR KSEA 290253Z 17006KT 10SM OVC150 22/14 A2998=
201506290153 METAR KSEA 290153Z 19013KT 10SM OVC150 23/15 A2998 RMK AO2 SLP156 T02330150=
201506282353 METAR KSEA 282353Z 28003KT 10SM BKN130 OVC200 26/14 A2997 RMK AO2 SLP150 T02560144 10283 20217 55005=
201506282253 METAR KSEA 282253Z 29007KT 10SM BKN160 OVC200 26/14 A2995 RMK AO2 SLP145 T02610144=
201506282153 METAR KSEA 282153Z 30007KT 10SM BKN150 OVC200 27/16 A2997 RMK AO2 SLP151 T02670161=
201506282053 METAR KSEA 282053Z 33004KT 10SM BKN100 OVC210 27/15 A2998 RMK AO2 SLP155 T02670150 58013=
201506281953 METAR KSEA 281953Z 00000KT 10SM FEW060 BKN100 OVC210 26/14 A3001 RMK AO2 SLP165 T02560139=
201506281853 METAR KSEA 281853Z VRB04KT 10SM FEW050 BKN090 OVC110 23/14 A3000 RMK AO2 SLP163 T02330139=
201506281753 METAR KSEA 281753Z 13004KT 10SM FEW060 BKN090 OVC110 22/14 A3002 RMK AO2 DZE1655RAB1655E16 SLP169 P0000 60001 T02220144 10250 20183 53023=
201506281653 METAR KSEA 281653Z 26012KT 10SM -DZ FEW060 SCT090 BKN110 19/14 A3000 RMK AO2 DZB47 PRESRR SLP163 P0001 T01940144=
201506281553 METAR KSEA 281553Z 01005KT 10SM SCT150 BKN210 24/13 A2994 RMK AO2 SLP142 T02440128=
201506281453 METAR KSEA 281453Z 00000KT 10SM SCT160 BKN230 22/14 A2995 RMK AO2 SLP144 T02220139 53005=
201506281353 METAR KSEA 281353Z 00000KT 10SM SCT160 BKN230 21/13 A2995 RMK AO2 SLP143 T02110133=
201506281253 METAR KSEA 281253Z 00000KT 10SM SCT120 BKN200 22/14 A2993 RMK AO2 SLP138 T02170139=
201506281153 METAR KSEA 281153Z 00000KT 10SM FEW120 SCT200 19/12 A2993 RMK AO2 SLP139 T01940117 10267 20194 53001=
201506281053 METAR KSEA 281053Z 03003KT 10SM FEW120 SCT200 22/12 A2993 RMK AO2 SLP138 T02170117=
201506280953 METAR KSEA 280953Z 31003KT 10SM FEW180 21/12 A2993=
201506280853 METAR KSEA 280853Z 02004KT 10SM FEW180 24/11 A2993 RMK AO2 SLP138 T02440111 53000=
201506280753 METAR KSEA 280753Z 36005KT 10SM FEW180 23/11 A2993 RMK AO2 SLP137 T02330111 403330172=
201506280653 METAR KSEA 280653Z 01004KT 10SM CLR 25/12 A2993 RMK AO2 SLP136 T02500122=
201506280553 METAR KSEA 280553Z 02004KT 10SM SCT180 26/12 A2993 RMK AO2 SLP138 T02560117 10333 20244 53005=
201506280453 METAR KSEA 280453Z 34004KT 10SM SCT180 26/12 A2993 RMK AO2 SLP136 T02610117=
201506280353 METAR KSEA 280353Z 33005KT 10SM FEW180 SCT250 29/11 A2991 RMK AO2 SLP132 T02890111=
201506280253 METAR KSEA 280253Z 36011KT 10SM FEW180 SCT250 32/08 A2992 RMK AO2 SLP133 T03170083 56008=
201506280153 METAR KSEA 280153Z 03007KT 10SM FEW180 BKN250 33/11 A2993 RMK AO2 SLP137 T03330111=
201506280053 METAR KSEA 280053Z 36010KT 10SM FEW180 BKN250 33/12 A2992 RMK AO2 SLP134 T03330122=
201506272353 METAR KSEA 272353Z 33007KT 10SM FEW160 SCT250 33/12 A2994 RMK AO2 SLP141 T03280122 10333 20267 56010=
201506272253 METAR KSEA 272253Z 35011KT 10SM FEW160 SCT240 33/11 A2995 RMK AO2 SLP143 T03280111=
201506272153 METAR KSEA 272153Z 34011KT 10SM FEW160 BKN230 31/11 A2996 RMK AO2 SLP149 T03110111=
201506272053 METAR KSEA 272053Z 34014G18KT 10SM BKN220 30/11 A2997 RMK AO2 WSHFT 1945 SLP151 T03000106 55004=
201506272005 SPECI KSEA 272005Z 35014KT 10SM BKN250 30/10 A2997 RMK AO2 WSHFT 1945=
201506271953 METAR KSEA 271953Z 33014KT 10SM BKN250 31/11 A2996 RMK AO2 SLP149 T03110106=
201506271853 METAR KSEA 271853Z 35008KT 10SM SCT250 29/14 A2997 RMK AO2 SLP150 T02890139=
201506271753 METAR KSEA 271753Z 02011KT 10SM SCT250 27/13 A2998 RMK AO2 SLP156 T02670128 10267 20172 58009=
201506271653 METAR KSEA 271653Z 03007KT 10SM FEW150 SCT250 26/13 A3000 RMK AO2 SLP161 T02560133=
201506271553 METAR KSEA 271553Z 02005KT 10SM FEW150 BKN250 23/14 A3002 RMK AO2 SLP168 T02280139=
201506271453 METAR KSEA 271453Z 36006KT 10SM FEW150 BKN250 21/13 A3001 RMK AO2 SLP165 T02060133 53011=
201506271353 METAR KSEA 271353Z 01008KT 10SM FEW150 BKN250 20/13 A2999 RMK AO2 SLP158 T02000128=
201506271253 METAR KSEA 271253Z 36006KT 10SM FEW150 BKN250 18/13 A2998 RMK AO2 SLP156 T01830128=
201506271153 METAR KSEA 271153Z 36006KT 10SM FEW140 BKN250 18/13 A2998 RMK AO2 SLP154 T01780128 10233 20178 56007=
201506271053 METAR KSEA 271053Z 02005KT 10SM FEW250 19/13 A2998 RMK AO2 SLP157 T01940128=
201506270953 METAR KSEA 270953Z 36007KT 10SM FEW250 20/13 A2998 RMK AO2 SLP156 T02000133=
201506270853 METAR KSEA 270853Z 04007KT 10SM SCT250 21/13 A3000 RMK AO2 SLP161 T02060133 51005=
201506270753 METAR KSEA 270753Z 03007KT 10SM CLR 21/13 A3000 RMK AO2 SLP161 T02110133 403170178=
201506270653 METAR KSEA 270653Z 04008KT 10SM FEW200 22/13 A2999 RMK AO2 SLP157 T02220133=
201506270553 METAR KSEA 270553Z 01013KT 10SM FEW200 23/13 A2998 RMK AO2 SLP156 T02330133 10311 20233 53004=
201506270453 METAR KSEA 270453Z 36009KT 10SM FEW250 24/14 A2997 RMK AO2 SLP153 T02390139=
201506270353 METAR KSEA 270353Z 35009KT 10SM FEW250 26/13 A2996 RMK AO2 SLP148 T02560133=
201506270253 METAR KSEA 270253Z 35011KT 10SM FEW250 28/13 A2997 RMK AO2 SLP152 T02830133 56014=
201506270153 METAR KSEA 270153Z 34012KT 10SM FEW250 30/13 A2998 RMK AO2 SLP155 T03000133=
201506270053 METAR KSEA 270053Z 35012KT 10SM SCT250 31/14 A3000 RMK AO2 SLP161 T03060139=
201506262353 METAR KSEA 262353Z 33012KT 10SM SCT250 31/14 A3001 RMK AO2 SLP166 T03060139 10317 20261 58020=
201506262253 METAR KSEA 262253Z 32010KT 10SM SCT250 30/14 A3004 RMK AO2 SLP174 T03000139=
201506262153 METAR KSEA 262153Z 32011KT 10SM SCT250 30/14 A3005 RMK AO2 SLP180 T03000139=
201506262053 METAR KSEA 262053Z 34009G16KT 10SM SCT250 29/14 A3007 RMK AO2 SLP186 T02940144 58006=
201506261953 METAR KSEA 261953Z 35010G16KT 10SM SCT250 29/14 A3008 RMK AO2 SLP190 T02890144=
201506261853 METAR KSEA 261853Z 01008G14KT 10SM SCT250 27/14 A3009 RMK AO2 SLP191 T02720144=
201506261753 METAR KSEA 261753Z 35009KT 10SM FEW250 26/14 A3009 RMK AO2 SLP193 T02610144 10261 20178 58010=
201506261653 METAR KSEA 261653Z VRB04KT 10SM FEW250 24/14 A3011 RMK AO2 SLP199 T02440144=
201506261553 METAR KSEA 261553Z 02007KT 10SM FEW250 22/14 A3012 RMK AO2 SLP201 T02220139=
201506261453 METAR KSEA 261453Z 02007KT 10SM FEW200 21/14 A3012 RMK AO2 SLP203 T02060139 51006=
201506261353 METAR KSEA 261353Z 03010KT 10SM FEW200 19/14 A3012 RMK AO2 SLP202 T01940139=
201506261253 METAR KSEA 261253Z 02006KT 10SM FEW200 18/14 A3011 RMK AO2 SLP199 T01830139=
201506261153 METAR KSEA 261153Z 02005KT 10SM FEW150 18/14 A3010 RMK AO2 SLP197 T01830144 10233 20183 52001=
201506261053 METAR KSEA 261053Z 03010KT 10SM CLR 19/14 A3010 RMK AO2 SLP196 T01890144=
201506260953 METAR KSEA 260953Z 03011KT 10SM CLR 20/14 A3010 RMK AO2 SLP197 T02000144=
201506260853 METAR KSEA 260853Z 02008KT 10SM CLR 21/14 A3010 RMK AO2 SLP195 T02060139 55001=
201506260753 METAR KSEA 260753Z 02010KT 10SM CLR 21/14 A3010 RMK AO2 SLP195 T02110139 403060156=
201506260653 METAR KSEA 260653Z 03010KT 10SM CLR 22/13 A3010 RMK AO2 SLP195 T02220133=
201506260553 METAR KSEA 260553Z 02009KT 10SM CLR 23/12 A3010 RMK AO2 SLP197 T02330122 10300 20228 53003=
201506260453 METAR KSEA 260453Z 01009KT 10SM CLR 23/11 A3010 RMK AO2 SLP196 T02330111=
201506260353 METAR KSEA 260353Z 33007KT 10SM CLR 24/11 A3009 RMK AO2 SLP192 T02390111=
201506260253 METAR KSEA 260253Z 35010KT 10SM CLR 26/11 A3009 RMK AO2 SLP193 T02610106 55006=
201506260153 METAR KSEA 260153Z 34007KT 10SM FEW050 29/11 A3009 RMK AO2 SLP193 T02890106=
201506260053 METAR KSEA 260053Z 35007KT 10SM FEW050 29/12 A3010 RMK AO2 SLP195 T02940117=
201506252353 METAR KSEA 252353Z 32011G15KT 10SM FEW050 30/12 A3011 RMK AO2 SLP200 T03000122 10306 20228 56012=
201506252253 METAR KSEA 252253Z 32004KT 10SM FEW050 30/11 A3012 RMK AO2 SLP202 T03000111=
201506252153 METAR KSEA 252153Z 31006KT 8SM FEW050 29/11 A3013 RMK AO2 SLP206 T02890106=
201506252053 METAR KSEA 252053Z 28005KT 10SM FEW050 28/09 A3014 RMK AO2 SLP211 T02830094 58008=
201506251953 METAR KSEA 251953Z 31006KT 10SM FEW250 27/11 A3016 RMK AO2 SLP215 T02670111=
201506251853 METAR KSEA 251853Z VRB04KT 10SM FEW250 26/11 A3017 RMK AO2 SLP219 T02560111=
201506251753 METAR KSEA 251753Z 00000KT 10SM FEW250 23/13 A3017 RMK AO2 SLP220 T02280128 10233 20156 50005=
201506251653 METAR KSEA 251653Z VRB03KT 10SM FEW250 22/13 A3017 RMK AO2 SLP221 T02170128=
201506251553 METAR KSEA 251553Z 28004KT 10SM FEW250 21/13 A3016 RMK AO2 SLP218 T02060128=
201506251453 METAR KSEA 251453Z 14003KT 10SM FEW250 19/12 A3015 RMK AO2 SLP214 T01940122 51007=
201506251353 METAR KSEA 251353Z 05006KT 10SM FEW250 18/12 A3015 RMK AO2 SLP212 T01830122=
201506251253 METAR KSEA 251253Z 00000KT 10SM FEW250 16/13 A3014 RMK AO2 SLP212 T01610128=
201506251153 METAR KSEA 251153Z 04004KT 10SM FEW250 17/12 A3013 RMK AO2 SLP208 T01670122 10194 20161 53005=
201506251053 METAR KSEA 251053Z 36004KT 10SM FEW150 16/12 A3012=
201506250953 METAR KSEA 250953Z 02008KT 10SM CLR 18/12 A3012 RMK AO2 SLP202 T01780122=
201506250853 METAR KSEA 250853Z 36005KT 10SM CLR 17/12 A3012=
201506250753 METAR KSEA 250753Z 34004KT 10SM CLR 18/13 A3011 RMK AO2 SLP201 T01780128 402560161=
201506250653 METAR KSEA 250653Z 36007KT 10SM CLR 19/12 A3011 RMK AO2 SLP201 T01890122=
201506250553 METAR KSEA 250553Z 01007KT 10SM FEW120 SCT250 19/12 A3011=
201506250453 METAR KSEA 250453Z 33007KT 10SM FEW120 SCT250 19/12 A3011 RMK AO2 SLP199 T01940117=
201506250353 METAR KSEA 250353Z 32004KT 10SM FEW050 SCT120 SCT250 22/11 A3009 RMK AO2 SLP193 T02170106=
201506250253 METAR KSEA 250253Z 30004KT 10SM FEW050 SCT120 SCT250 24/09 A3009 RMK AO2 SLP192 T02390089 55003=
201506250153 METAR KSEA 250153Z 29004KT 10SM FEW050 SCT120 SCT250 24/08 A3008 RMK AO2 SLP191 T02440078=
201506250053 METAR KSEA 250053Z 29006KT 10SM FEW050 SCT120 BKN250 25/08 A3009=
201506242353 METAR KSEA 242353Z 29007KT 10SM SCT100 BKN220 25/10 A3010 RMK AO2 SLP196 60000 T02500100 10256 20217 58008=
201506242253 METAR KSEA 242253Z 31004KT 10SM FEW070 BKN100 BKN210 24/11 A3011=
201506242153 METAR KSEA 242153Z 33005KT 10SM FEW070 SCT100 OVC210 24/11 A3011 RMK AO2 RAE37 SLP201 P0000 T02390111=
201506242053 METAR KSEA 242053Z 23007KT 10SM -RA FEW070 BKN100 OVC150 22/11 A3012 RMK AO2 RAB49 SLP204 P0000 60000 T02220111 51011=
201506241953 METAR KSEA 241953Z 23006KT 10SM FEW070 BKN095 OVC150 22/12 A3011 RMK AO2 SLP201 T02220117=
201506241853 METAR KSEA 241853Z VRB04KT 10SM FEW110 BKN150 OVC250 22/10 A3010 RMK AO2 SLP196 T02220100=
201506241753 METAR KSEA 241753Z 25007KT 10SM SCT110 BKN250 22/11 A3009 RMK AO2 SLP193 T02170111 10228 20161 50000=
201506241653 METAR KSEA 241653Z 29006KT 10SM SCT110 BKN250 21/11 A3009 RMK AO2 SLP193 T02110111=
201506241553 METAR KSEA 241553Z VRB03KT 10SM SCT110 SCT240 21/10 A3009 RMK AO2 SLP193 T02060100=
201506241453 METAR KSEA 241453Z VRB03KT 10SM BKN110 BKN240 20/09 A3009 RMK AO2 SLP191 T02000094 53007=
201506241353 METAR KSEA 241353Z 06003KT 10SM SCT110 BKN240 18/10 A3008 RMK AO2 SLP189 T01830100=
201506241253 METAR KSEA 241253Z 06004KT 10SM BKN120 BKN240 18/10 A3007 RMK AO2 SLP186 T01780100=
201506241153 METAR KSEA 241153Z 00000KT 10SM BKN120 OVC200 16/11 A3007 RMK AO2 SLP185 T01610106 10200 20161 53004=
201506241053 METAR KSEA 241053Z 01006KT 10SM BKN120 OVC200 18/10 A3005 RMK AO2 SLP178 T01830100=
201506240953 METAR KSEA 240953Z 01006KT 10SM SCT160 BKN200 19/09 A3005 RMK AO2 SLP180 T01890094=
201506240853 METAR KSEA 240853Z 02007KT 10SM SCT160 BKN200 19/10 A3005 RMK AO2 SLP181 T01890100 56004=
201506240753 METAR KSEA 240753Z 03009KT 10SM SCT160 OVC250 19/10 A3005 RMK AO2 SLP181 T01890100 402610117=
201506240653 METAR KSEA 240653Z 04009KT 10SM SCT180 OVC250 19/09 A3006 RMK AO2 SLP184 T01940094=
201506240553 METAR KSEA 240553Z 03011KT 10SM SCT180 BKN250 20/09 A3007 RMK AO2 SLP185 T02000089 10261 20200 53005=
201506240453 METAR KSEA 240453Z 01011KT 10SM SCT180 BKN250 21/07 A3006 RMK AO2 SLP184 T02110067=
201506240353 METAR KSEA 240353Z 35008KT 10SM SCT180 BKN250 22/04 A3005 RMK AO2 SLP180 T02170044=
201506240253 METAR KSEA 240253Z 34007KT 10SM FEW050 BKN250 24/04 A3005 RMK AO2 SLP180 T02440039 55010=
201506240153 METAR KSEA 240153Z 28006KT 10SM FEW050 SCT250 24/07 A3005 RMK AO2 SLP180 T02440067=
201506240053 METAR KSEA 240053Z 29006KT 10SM FEW050 SCT250 26/03 A3006=
201506232353 METAR KSEA 232353Z 28005KT 10SM FEW050 SCT250 26/02 A3008 RMK AO2 SLP190 T02560017 10261 20183 58015=
201506232253 METAR KSEA 232253Z 28004KT 10SM FEW050 SCT250 24/06 A3010 RMK AO2 SLP196 T02440056=
201506232153 METAR KSEA 232153Z 29005KT 10SM FEW040 SCT250 24/03 A3011 RMK AO2 SLP201 T02440033=
201506232053 METAR KSEA 232053Z 26006KT 10SM FEW040 SCT250 22/07 A3012 RMK AO2 SLP205 T02220067 58013=
201506231953 METAR KSEA 231953Z 29004KT 10SM FEW040 SCT250 22/08 A3014 RMK AO2 SLP210 T02170083=
201506231853 METAR KSEA 231853Z 26005KT 10SM SCT250 20/08 A3015 RMK AO2 SLP216 T02000083=
201506231753 METAR KSEA 231753Z 24003KT 10SM FEW250 18/09 A3016 RMK AO2 SLP219 T01830089 10183 20117 58004=
201506231653 METAR KSEA 231653Z 29005KT 10SM FEW250 18/08 A3017 RMK AO2 SLP221 T01780083=
201506231553 METAR KSEA 231553Z 00000KT 10SM FEW250 16/09 A3017 RMK AO2 SLP220 T01610089 $=
201506231453 METAR KSEA 231453Z 00000KT 10SM FEW250 14/09 A3017 RMK AO2 SLP222 T01440089 51005 $=
201506231353 METAR KSEA 231353Z 17003KT 10SM FEW020 13/09 A3017 RMK AO2 SLP222 T01280089 $=
201506231253 METAR KSEA 231253Z 00000KT 10SM FEW020 SCT120 SCT250 12/09 A3017 RMK AO2 SLP220 T01170089 $=
201506231153 METAR KSEA 231153Z 21003KT 10SM FEW250 12/08 A3016 RMK AO2 SLP216 T01170083 10150 20117 53007 $=
201506231053 METAR KSEA 231053Z 20003KT 10SM CLR 12/09 A3015 RMK AO2 SLP214 T01220089 $=
201506230953 METAR KSEA 230953Z 00000KT 10SM CLR 13/09 A3014 RMK AO2 SLP211 T01280089 $=
201506230853 METAR KSEA 230853Z 00000KT 10SM CLR 14/09 A3014 RMK AO2 SLP209 T01390094 50004 $=
201506230753 METAR KSEA 230753Z 00000KT 10SM CLR 14/09 A3014 RMK AO2 SLP210 T01440094 402500128 $=
201506230653 METAR KSEA 230653Z 24003KT 10SM CLR 14/09 A3013 RMK AO2 SLP208 T01440094 $=
201506230553 METAR KSEA 230553Z 31003KT 10SM FEW100 14/10 A3012 RMK AO2 SLP206 T01440100 10250 20144 53016 $=
201506230453 METAR KSEA 230453Z 28005KT 10SM FEW100 17/10 A3010 RMK AO2 SLP199 T01670100 $=
201506230353 METAR KSEA 230353Z 29005KT 10SM FEW050 19/09 A3008 RMK AO2 SLP192 T01940094 $=
201506230253 METAR KSEA 230253Z 30005KT 10SM FEW100 23/10 A3007 RMK AO2 SLP188 T02280100 55002 $=
201506230153 METAR KSEA 230153Z 00000KT 10SM FEW035 24/08 A3007 RMK AO2 SLP186 T02390083 $=
201506230053 METAR KSEA 230053Z 26005KT 10SM FEW035 24/08 A3007 RMK AO2 SLP188 T02390083 $=
201506222353 METAR KSEA 222353Z 00000KT 10SM FEW035 23/09 A3008 RMK AO2 SLP190 T02330089 10244 20172 57008 $=
201506222253 METAR KSEA 222253Z 33005KT 10SM FEW035 SCT250 24/09 A3009 RMK AO2 SLP192 T02390094 $=
201506222153 METAR KSEA 222153Z 00000KT 10SM FEW035 BKN250 22/09 A3010 RMK AO2 SLP197 T02220094 $=
201506222053 METAR KSEA 222053Z 20007KT 10SM FEW035 BKN250 22/09 A3010=
201506221953 METAR KSEA 221953Z 21006KT 10SM FEW035 BKN250 21/09 A3011 RMK AO2 SLP200 T02110089 $=
201506221853 METAR KSEA 221853Z 17007KT 10SM FEW030 BKN250 19/09 A3012 RMK AO2 SLP203 T01890094 $=
201506221753 METAR KSEA 221753Z 22007KT 10SM FEW025 BKN240 18/09 A3011 RMK AO2 SLP202 T01780094 10178 20128 58000 $=
201506221653 METAR KSEA 221653Z 22006KT 10SM FEW019 BKN250 17/09 A3012 RMK AO2 SLP204 T01670094 $=
201506221615 SPECI KSEA 221615Z 22006KT 10SM SCT016 BKN200 16/09 A3013 RMK AO2 $=
201506221553 METAR KSEA 221553Z 22008KT 10SM BKN015 BKN200 16/09 A3013 RMK AO2 SLP206 T01560094=
201506221545 SPECI KSEA 221545Z VRB05KT 10SM BKN015 14/09 A3012 RMK AO2=
201506221453 METAR KSEA 221453Z 19008KT 10SM BKN013 14/10 A3012 RMK AO2 SLP202 T01440100 53014 $=
201506221353 METAR KSEA 221353Z 18008KT 10SM BKN012 13/10 A3010 RMK AO2 SLP198 T01330100=
201506221253 METAR KSEA 221253Z 20006KT 10SM BKN012 13/10 A3009 RMK AO2 SLP192 T01330100=
201506221242 SPECI KSEA 221242Z 21008KT 10SM BKN012 13/10 A3008 RMK AO2=
201506221153 METAR KSEA 221153Z 23006KT 10SM FEW015 SCT230 13/09 A3007=
201506221053 METAR KSEA 221053Z 21005KT 10SM CLR 13/09 A3006 RMK AO2 SLP183 T01330089=
201506220953 METAR KSEA 220953Z 19003KT 10SM CLR 14/09 A3005 RMK AO2 SLP179 T01440089=
201506220853 METAR KSEA 220853Z 24005KT 10SM FEW250 16/08 A3004 RMK AO2 SLP177 T01610083 51016=
201506220753 METAR KSEA 220753Z 24008KT 10SM FEW250 17/08 A3004=
201506220653 METAR KSEA 220653Z 22008KT 10SM FEW250 18/08 A3002 RMK AO2 SLP171 T01780078=
201506220553 METAR KSEA 220553Z 23005KT 10SM FEW040 SCT250 20/07 A2999 RMK AO2 SLP161 T02000067 10256 20200 51018=
201506220453 METAR KSEA 220453Z 24006KT 10SM FEW040 SCT250 21/07 A2998 RMK AO2 SLP157 T02060067=
201506220353 METAR KSEA 220353Z 25005KT 10SM FEW045 23/07 A2996 RMK AO2 SLP150 T02330067=
201506220253 METAR KSEA 220253Z 21004KT 10SM FEW040 SCT230 25/06 A2994 RMK AO2 SLP143 T02500061 53003=
201506220153 METAR KSEA 220153Z 16004KT 10SM FEW040 SCT230 25/07 A2993 RMK AO2 SLP139 T02500072=
201506220053 METAR KSEA 220053Z 23003KT 10SM FEW040 SCT230 25/07 A2993 RMK AO2 SLP139 T02500067=
201506212353 METAR KSEA 212353Z VRB05KT 10SM FEW040 SCT230 25/05 A2993 RMK AO2 SLP140 T02500050 10256 20194 50003=
201506212253 METAR KSEA 212253Z VRB05KT 10SM FEW040 BKN230 24/07 A2993 RMK AO2 SLP140 T02440072=
201506212153 METAR KSEA 212153Z 32007KT 10SM FEW150 BKN230 24/08 A2992 RMK AO2 SLP137 T02440083=
201506212053 METAR KSEA 212053Z 29006KT 10SM FEW150 BKN230 23/10 A2992 RMK AO2 SLP137 T02280100 53002=
201506211953 METAR KSEA 211953Z 01008KT 10SM FEW160 BKN230 22/09 A2992 RMK AO2 SLP135 T02170089=
201506211853 METAR KSEA 211853Z 02006KT 10SM FEW150 BKN230 21/09 A2992 RMK AO2 SLP135 T02060089=
201506211753 METAR KSEA 211753Z 34006KT 10SM SCT150 BKN230 19/09 A2992 RMK AO2 SLP134 T01940089 10194 20139 58002=
201506211653 METAR KSEA 211653Z 35008KT 10SM FEW040 SCT160 BKN220 18/09 A2991 RMK AO2 SLP134 T01830089=
201506211553 METAR KSEA 211553Z 36006KT 10SM FEW030 BKN140 OVC220 17/09 A2993 RMK AO2 SLP138 T01720094=
201506211453 METAR KSEA 211453Z 02009KT 10SM FEW030 SCT140 OVC210 16/09 A2992 RMK AO2 SLP136 T01560089 55001=
201506211353 METAR KSEA 211353Z 02008KT 10SM FEW030 SCT140 OVC210 14/08 A2992 RMK AO2 SLP135 T01440083=
201506211253 METAR KSEA 211253Z 02007KT 10SM FEW120 BKN240 14/08 A2992 RMK AO2 SLP137 T01390083=
201506211153 METAR KSEA 211153Z 04008KT 10SM FEW120 OVC250 14/08 A2992 RMK AO2 SLP137 T01390083 10172 20139 55004=
201506211053 METAR KSEA 211053Z 02011KT 10SM BKN250 14/08 A2992 RMK AO2 SLP135 T01440078=
201506210953 METAR KSEA 210953Z 03007KT 10SM BKN250 14/07 A2993 RMK AO2 SLP138 T01440072=
201506210853 METAR KSEA 210853Z 02010KT 10SM FEW070 BKN250 16/07 A2994 RMK AO2 SLP141 T01560067 56011=
201506210753 METAR KSEA 210753Z 01015G22KT 10SM FEW070 BKN250 16/05 A2994 RMK AO2 SLP143 T01610050 402500128=
201506210653 METAR KSEA 210653Z 01010KT 10SM FEW070 BKN250 17/06 A2996 RMK AO2 SLP149 T01670056=
201506210553 METAR KSEA 210553Z 01013KT 10SM FEW070 BKN250 17/06 A2997 RMK AO2 SLP152 T01720061 10250 20167 56006=
201506210253 METAR KSEA 210253Z 34012KT 10SM FEW080 BKN250 22/04 A2999 RMK AO2 SLP159 T02170044 56014=
201506210153 METAR KSEA 210153Z 35012KT 10SM FEW090 BKN250 23/06 A3000 RMK AO2 SLP162 T02330056=
201506210053 METAR KSEA 210053Z 01011KT 10SM FEW090 SCT250 24/02 A3001 RMK AO2 SLP165 T02390022=
201506202353 METAR KSEA 202353Z 33008KT 10SM FEW090 SCT250 24/03 A3003 RMK AO2 SLP173 T02440028 10244 20183 56011=
201506202253 METAR KSEA 202253Z 29011KT 10SM FEW080 SCT250 24/06 A3004 RMK AO2 SLP175 T02390061=
201506202153 METAR KSEA 202153Z 29008KT 10SM FEW080 SCT250 23/07 A3005 RMK AO2 SLP179 T02330067=
201506202053 METAR KSEA 202053Z 28010KT 10SM FEW035 22/08 A3006 RMK AO2 SLP184 T02220078 56012=
201506201953 METAR KSEA 201953Z 29007KT 10SM FEW035 21/07 A3007 RMK AO2 SLP187 T02110072=
201506201853 METAR KSEA 201853Z 30009KT 10SM FEW035 19/09 A3008 RMK AO2 SLP191 T01940089=
201506201753 METAR KSEA 201753Z 28007KT 10SM FEW035 18/09 A3010 RMK AO2 SLP197 T01830089 10183 20128 58010=
201506201653 METAR KSEA 201653Z 04004KT 10SM FEW035 18/09 A3010 RMK AO2 SLP199 T01780089=
201506201553 METAR KSEA 201553Z VRB06KT 10SM FEW035 17/08 A3013 RMK AO2 SLP206 T01720083=
201506201453 METAR KSEA 201453Z 02005KT 10SM FEW050 16/08 A3013 RMK AO2 SLP207 T01560078 53001=
201506201353 METAR KSEA 201353Z 02006KT 10SM FEW250 14/07 A3013=
201506201253 METAR KSEA 201253Z 04004KT 10SM FEW050 BKN250 13/07 A3012 RMK AO2 SLP204 T01330072=
201506201153 METAR KSEA 201153Z 04003KT 10SM FEW050 BKN250 13/07 A3013 RMK AO2 SLP206 70002 T01330067 10167 20128 50000=
201506201053 METAR KSEA 201053Z 01005KT 10SM FEW050 13/06 A3013 RMK AO2 SLP207 T01330061=
201506200953 METAR KSEA 200953Z 04005KT 10SM FEW050 SCT070 14/06 A3013 RMK AO2 SLP207 T01440061=
201506200853 METAR KSEA 200853Z 06006KT 10SM FEW045 SCT070 15/07 A3012 RMK AO2 SLP205 T01500067 58007=
201506200753 METAR KSEA 200753Z 04009KT 10SM FEW070 15/07 A3014 RMK AO2 SLP209 T01500072 402390133=
201506200653 METAR KSEA 200653Z 04011KT 10SM CLR 16/07 A3014 RMK AO2 SLP213 T01560072=
201506200553 METAR KSEA 200553Z 04011KT 10SM SCT080 17/07 A3015 RMK AO2 SLP213 T01670072 10239 20167 51008=
201506200453 METAR KSEA 200453Z 02010KT 10SM FEW100 17/08 A3014 RMK AO2 SLP212 T01720078=
201506200353 METAR KSEA 200353Z 35008KT 10SM FEW100 18/08 A3013 RMK AO2 SLP207 T01780078=
201506200253 METAR KSEA 200253Z 34009KT 10SM FEW085 20/08 A3012 RMK AO2 SLP205 T02000078 56002=
201506200153 METAR KSEA 200153Z 33010KT 10SM FEW085 22/08 A3012 RMK AO2 SLP204 T02170083=
201506200053 METAR KSEA 200053Z 34006KT 10SM FEW048 SCT085 23/09 A3012 RMK AO2 SLP204 T02280094=
201506192353 METAR KSEA 192353Z VRB03KT 10SM SCT048 SCT085 23/07 A3013 RMK AO2 SLP207 T02280067 10239 20178 56007=
201506192253 METAR KSEA 192253Z 16004KT 10SM SCT048 SCT065 23/08 A3013=
201506192153 METAR KSEA 192153Z 00000KT 10SM SCT043 SCT075 22/09 A3014 RMK AO2 SLP212 T02220089=
201506192053 METAR KSEA 192053Z 23003KT 10SM SCT035 SCT075 20/09 A3015 RMK AO2 SLP215 T02000094 58000=
201506191953 METAR KSEA 191953Z 24007KT 10SM SCT030 21/09 A3015 RMK AO2 SLP216 SHRA W T02060094=
201506191853 METAR KSEA 191853Z 21007KT 10SM SCT020 19/10 A3015 RMK AO2 SLP214 T01890100=
201506191753 METAR KSEA 191753Z 23009KT 10SM FEW010 SCT017 SCT090 18/12 A3015 RMK AO2 SLP215 60002 T01830117 10183 20139 50005=
201506191740 SPECI KSEA 191740Z 21009KT 10SM FEW008 SCT016 SCT090 17/12 A3015 RMK AO2=
201506191653 METAR KSEA 191653Z 23006KT 10SM FEW006 BKN011 BKN034 16/13 A3015 RMK AO2 SLP216 P0001 T01560133=
201506191647 SPECI KSEA 191647Z 23006KT 10SM FEW006 BKN011 BKN034 15/13 A3015 RMK AO2 P0001=
201506191553 METAR KSEA 191553Z 20006KT 4SM BR OVC005 14/13 A3014 RMK AO2 RAB24E34 SLP213 VIS S 2 1/2 P0001 T01390128=
201506191453 METAR KSEA 191453Z 21004KT 7SM BKN006 OVC012 14/12 A3014 RMK AO2 RAB19E29 SLP210 P0000 60000 T01390117 53014=
201506191421 SPECI KSEA 191421Z 24004KT 9SM -RA BKN008 OVC015 14/12 A3013 RMK AO2 RAB19 P0000=
201506191353 METAR KSEA 191353Z 23006KT 10SM BKN010 OVC018 14/12 A3012 RMK AO2 SLP205 T01390117=
201506191253 METAR KSEA 191253Z 22006KT 10SM OVC011 14/11 A3011 RMK AO2 SLP199 T01390111=
201506191153 METAR KSEA 191153Z 18004KT 10SM OVC016 14/11 A3010 RMK AO2 SLP195 60000 T01390111 10167 20133 53007=
201506191053 METAR KSEA 191053Z 22005KT 10SM SCT016 BKN025 BKN095 14/11 A3009 RMK AO2 RAE0954 SLP192 T01390111=
201506191040 SPECI KSEA 191040Z 22006KT 10SM BKN016 OVC025 14/12 A3008 RMK AO2 RAE0954=
201506190953 METAR KSEA 190953Z 20005KT 7SM -RA BKN007 BKN018 OVC025 14/12 A3008 RMK AO2 DZE49RAB49 SLP191 P0000 T01390122=
201506190934 SPECI KSEA 190934Z 00000KT 9SM -DZ BKN007 OVC025 14/12 A3008 RMK AO2 P0000=
201506190853 METAR KSEA 190853Z 00000KT 10SM -DZ BKN025 OVC038 14/12 A3007 RMK AO2 SLP188 P0000 60000 T01390122 51008=
201506190753 METAR KSEA 190753Z 27006KT 10SM -DZ BKN025 OVC040 14/12 A3007 RMK AO2 DZB50 SLP187 P0000 T01390117 402440139=
201506190653 METAR KSEA 190653Z 06006KT 10SM BKN040 OVC060 16/11 A3006 RMK AO2 SLP182 T01610106=
201506190553 METAR KSEA 190553Z 01005KT 10SM BKN043 16/11 A3005 RMK AO2 SLP180 T01610106 10233 20161 51017=
201506190453 METAR KSEA 190453Z 35008KT 10SM BKN041 BKN090 16/09 A3004 RMK AO2 SLP178 T01610094=
201506190353 METAR KSEA 190353Z 01010KT 10SM FEW050 SCT080 OVC095 18/09 A3002 RMK AO2 SLP171 T01780094=
201506190253 METAR KSEA 190253Z 03012KT 10SM FEW055 OVC090 19/10 A3000 RMK AO2 SLP163 T01940100 53009=
201506190153 METAR KSEA 190153Z 28007KT 10SM OVC095 20/10 A2998 RMK AO2 SLP157 T02000100=
201506190053 METAR KSEA 190053Z 20008KT 10SM FEW040 BKN100 23/09 A2997 RMK AO2 SLP152 T02330094=
201506182353 METAR KSEA 182353Z 21006KT 10SM FEW045 SCT100 BKN200 23/06 A2997 RMK AO2 SLP154 T02330056 10244 20189 58004=
201506182253 METAR KSEA 182253Z 00000KT 10SM FEW045 BKN095 23/08 A2998 RMK AO2 SLP157 T02280078=
201506182153 METAR KSEA 182153Z 25006KT 10SM FEW045 BKN100 22/08 A2999 RMK AO2 SLP158 T02170083=
201506182053 METAR KSEA 182053Z 29006KT 10SM FEW045 BKN110 BKN180 22/08 A2998 RMK AO2 SLP158 T02220078 58006=
201506181953 METAR KSEA 181953Z 25007KT 10SM FEW045 BKN130 21/08 A2999 RMK AO2 SLP160 T02110083=
201506181853 METAR KSEA 181853Z 22006KT 10SM FEW045 BKN130 20/08 A3000 RMK AO2 SLP161 T02000083=
201506181753 METAR KSEA 181753Z 26005KT 10SM FEW080 BKN130 19/08 A3000 RMK AO2 SLP164 T01940083 10194 20139 58002=
201506181653 METAR KSEA 181653Z 00000KT 10SM FEW080 BKN140 18/07 A3000 RMK AO2 SLP165 T01830072=
201506181553 METAR KSEA 181553Z 28005KT 10SM FEW080 BKN140 16/08 A3001 RMK AO2 SLP168 T01610078=
201506181453 METAR KSEA 181453Z 00000KT 10SM FEW090 BKN130 BKN200 17/06 A3001 RMK AO2 SLP166 T01670056 51005=
201506181353 METAR KSEA 181353Z 06006KT 10SM FEW080 BKN100 OVC180 16/06 A3000 RMK AO2 SLP164 T01610061=
201506181253 METAR KSEA 181253Z 30005KT 10SM SCT090 BKN110 OVC180 14/09 A3001=
201506181153 METAR KSEA 181153Z 32003KT 10SM BKN110 OVC180 14/07 A2999 RMK AO2 SLP161 T01440072 10183 20144 53005=
201506181053 METAR KSEA 181053Z 02007KT 10SM SCT120 OVC180 16/07 A2998 RMK AO2 SLP156 T01560067=
201506180953 METAR KSEA 180953Z 02008KT 10SM SCT120 OVC180 16/07 A2998 RMK AO2 SLP156 T01560072=
201506180853 METAR KSEA 180853Z 03008KT 10SM OVC180 16/07 A2998 RMK AO2 SLP156 T01610067 58007=
201506180753 METAR KSEA 180753Z 02009KT 10SM SCT120 OVC180 17/07 A2999 RMK AO2 SLP159 T01670072 402500111=
201506180653 METAR KSEA 180653Z 01009KT 10SM BKN180 17/08 A3000 RMK AO2 SLP162 T01720078=
201506180553 METAR KSEA 180553Z 02010KT 10SM SCT180 BKN250 18/08 A3000 RMK AO2 SLP163 T01830078 10250 20183 56003=
201506180453 METAR KSEA 180453Z 01010KT 10SM SCT180 BKN250 19/06 A3000 RMK AO2 SLP163 T01940061=
201506180353 METAR KSEA 180353Z 01009KT 10SM SCT150 SCT250 21/07 A3000 RMK AO2 SLP164 T02060067=
201506180253 METAR KSEA 180253Z 36007KT 10SM FEW050 SCT120 SCT250 23/02 A3001 RMK AO2 SLP166 T02280022 56010=
201506180153 METAR KSEA 180153Z 34009KT 10SM FEW050 SCT120 SCT250 24/04 A3001 RMK AO2 SLP168 T02390039=
201506180053 METAR KSEA 180053Z 32006KT 10SM FEW040 SCT250 24/05 A3002 RMK AO2 SLP171 T02440050=
201506172353 METAR KSEA 172353Z 29010KT 10SM FEW040 SCT250 24/06 A3004 RMK AO2 SLP176 T02390056 10244 20167 56013=
201506172253 METAR KSEA 172253Z 32008G14KT 10SM FEW040 24/06 A3005 RMK AO2 SLP179 T02390061=
201506172153 METAR KSEA 172153Z 30006KT 10SM FEW040 23/08 A3006 RMK AO2 SLP184 T02280083=
201506172053 METAR KSEA 172053Z 31007KT 10SM FEW035 22/09 A3008 RMK AO2 SLP190 T02170094 58010=
201506171953 METAR KSEA 171953Z 29004KT 10SM FEW035 20/09 A3010 RMK AO2 SLP199 T02000094=
201506171853 METAR KSEA 171853Z 22005KT 10SM FEW250 19/09 A3011 RMK AO2 SLP201 T01890089=
201506171753 METAR KSEA 171753Z 24004KT 10SM FEW250 17/08 A3011 RMK AO2 SLP201 T01670083 10167 20111 58003=
201506171700 SPECI KSEA 171700Z VRB03KT 10SM FEW010 SCT017 15/08 A3012 RMK AO2=
201506171653 METAR KSEA 171653Z 22004KT 10SM FEW010 BKN017 16/08 A3012 RMK AO2 SLP205 T01560083=
201506171553 METAR KSEA 171553Z VRB03KT 10SM FEW009 BKN019 14/09 A3011 RMK AO2 SLP203 T01390089=
201506171453 METAR KSEA 171453Z 19004KT 10SM FEW009 BKN021 13/09 A3012 RMK AO2 SLP205 T01280089 51004=
201506171422 SPECI KSEA 171422Z 18005KT 10SM FEW008 12/09 A3012 RMK AO2=
201506171353 METAR KSEA 171353Z 21005KT 10SM CLR 12/09 A3012 RMK AO2 SLP204 T01170089=
201506171253 METAR KSEA 171253Z 21005KT 10SM FEW250 11/09 A3011 RMK AO2 SLP202 T01110089=
201506171153 METAR KSEA 171153Z 25003KT 10SM FEW170 12/09 A3011 RMK AO2 SLP200 T01170089 10144 20117 51005=
201506171053 METAR KSEA 171053Z 26003KT 10SM FEW170 SCT240 12/09 A3010 RMK AO2 SLP198 T01220089=
201506171000 METAR KSEA NIL=
201506170800 METAR KSEA NIL=
201506170353 METAR KSEA 170353Z 30003KT 10SM SCT180 BKN250 19/09 A3005 RMK AO2 SLP181 T01890089=
201506170253 METAR KSEA 170253Z 30004KT 10SM FEW150 BKN210 21/07 A3006 RMK AO2 SLP184 ACSL SE T02060067 55007=
201506170153 METAR KSEA 170153Z 28006KT 10SM FEW150 BKN250 22/04 A3006 RMK AO2 SLP183 ACSL SE T02220044=
201506170053 METAR KSEA 170053Z 28006KT 10SM FEW050 BKN250 22/07 A3007 RMK AO2 SLP187 T02220067=
201506162353 METAR KSEA 162353Z 26006KT 10SM FEW050 BKN250 22/08 A3008=
201506162253 METAR KSEA 162253Z 29007KT 10SM FEW050 BKN250 22/09 A3010 RMK AO2 SLP197 T02170094=
201506162153 METAR KSEA 162153Z 25006KT 10SM FEW050 BKN250 19/09 A3011 RMK AO2 SLP201 T01940094=
201506162053 METAR KSEA 162053Z VRB05KT 10SM FEW040 BKN250 18/09 A3012 RMK AO2 SLP204 T01830089 58004=
201506161953 METAR KSEA 161953Z 20005KT 10SM FEW025 BKN250 17/08 A3013 RMK AO2 SLP207 T01720083=
201506161853 METAR KSEA 161853Z 26007KT 10SM FEW022 SCT250 16/08 A3013 RMK AO2 SLP209 T01610083=
201506161753 METAR KSEA 161753Z 23007KT 10SM SCT019 SCT250 15/08 A3013 RMK AO2 SLP208 T01500083 10156 20111 52002=
201506161724 SPECI KSEA 161724Z 22005KT 10SM SCT019 SCT250 14/08 A3013 RMK AO2=
201506161653 METAR KSEA 161653Z 25009KT 10SM BKN017 15/08 A3013 RMK AO2 SLP206 T01500083=
201506161602 SPECI KSEA 161602Z 22005KT 10SM OVC015 13/08 A3013 RMK AO2=
201506161553 METAR KSEA 161553Z 21006KT 10SM OVC013 13/08 A3013 RMK AO2 SLP206 T01280083=
201506161453 METAR KSEA 161453Z 21006KT 10SM OVC011 12/08 A3012 RMK AO2 SLP205 T01220083 51017=
201506161353 METAR KSEA 161353Z 21007KT 10SM BKN010 12/09 A3011 RMK AO2 SLP201 T01220089=
201506161304 SPECI KSEA 161304Z 21008KT 10SM BKN010 BKN250 12/09 A3010 RMK AO2=
201506161253 METAR KSEA 161253Z 22008KT 10SM FEW013 BKN250 11/08 A3009 RMK AO2 SLP195 T01110083=
201506161153 METAR KSEA 161153Z 21006KT 10SM FEW013 SCT200 12/09 A3007 RMK AO2 SLP188 T01170089 10178 20117 51017=
201506161053 METAR KSEA 161053Z 20007KT 10SM CLR 12/09 A3006 RMK AO2 SLP184 T01220094=
201506160953 METAR KSEA 160953Z 20007KT 10SM CLR 13/09 A3005 RMK AO2 SLP179 T01280094=
201506160853 METAR KSEA 160853Z 21007KT 10SM CLR 14/09 A3002 RMK AO2 SLP170 T01440094 53017=
201506160753 METAR KSEA 160753Z 25005KT 10SM CLR 16/10 A3000 RMK AO2 SLP164 T01610100 403000161=
201506160653 METAR KSEA 160653Z 24004KT 10SM CLR 17/08 A2998 RMK AO2 SLP157 T01720083=
201506160553 METAR KSEA 160553Z 28004KT 10SM FEW250 18/09 A2997 RMK AO2 SLP153 T01780089 10300 20178 53020=
201506160453 METAR KSEA 160453Z 34006KT 10SM FEW250 22/06 A2994 RMK AO2 SLP141 T02220061=
201506160353 METAR KSEA 160353Z 36008KT 10SM FEW050 SCT250 24/07 A2992 RMK AO2 SLP136 T02390072=
201506160253 METAR KSEA 160253Z 30007KT 10SM FEW050 SCT250 25/08 A2991 RMK AO2 SLP132 T02500078 53006=
201506160153 METAR KSEA 160153Z 33009KT 10SM FEW050 BKN250 27/05 A2990 RMK AO2 SLP127 T02670050=
201506160053 METAR KSEA 160053Z 33007KT 10SM FEW050 BKN250 29/06 A2989 RMK AO2 SLP124 T02890061=
201506152353 METAR KSEA 152353Z 35007KT 10SM FEW050 BKN250 29/05 A2989 RMK AO2 SLP125 T02940050 10300 20228 56004=
201506152253 METAR KSEA 152253Z 02008KT 10SM FEW050 BKN250 29/07 A2989 RMK AO2 SLP126 T02890067=
201506152153 METAR KSEA 152153Z 30010KT 10SM FEW050 BKN250 28/07 A2990 RMK AO2 SLP128 T02830072=
201506152053 METAR KSEA 152053Z 29008KT 10SM FEW050 BKN250 27/08 A2990 RMK AO2 SLP130 T02720083 58012=
201506151953 METAR KSEA 151953Z 28009KT 10SM FEW050 BKN250 26/09 A2992 RMK AO2 SLP134 T02610094=
201506151853 METAR KSEA 151853Z 31008KT 10SM FEW050 BKN250 24/09 A2993 RMK AO2 SLP139 T02440094=
201506151753 METAR KSEA 151753Z 30006KT 10SM FEW050 BKN250 23/09 A2994 RMK AO2 SLP142 T02280089 10228 20161 58008=
201506151653 METAR KSEA 151653Z 29006KT 10SM BKN230 21/09 A2995 RMK AO2 SLP146 T02110089=
201506151553 METAR KSEA 151553Z 01007KT 10SM BKN230 21/07 A2997 RMK AO2 SLP150 T02060072=
201506151453 METAR KSEA 151453Z 01007KT 10SM BKN230 19/07 A2997 RMK AO2 SLP151 T01890072 51007=
201506151353 METAR KSEA 151353Z 06004KT 10SM FEW110 BKN230 17/08 A2996 RMK AO2 SLP150 T01720078=
201506151253 METAR KSEA 151253Z 04005KT 10SM FEW110 BKN200 17/07 A2996 RMK AO2 SLP147 T01670072=
201506151153 METAR KSEA 151153Z 03008KT 10SM FEW110 17/07 A2995 RMK AO2 SLP144 T01670072 10200 20161 58002=
201506151053 METAR KSEA 151053Z 02007KT 10SM FEW110 17/07 A2995 RMK AO2 SLP145 T01720067=
201506150953 METAR KSEA 150953Z 01007KT 10SM FEW110 17/07 A2995 RMK AO2 SLP146 T01670072=
201506150853 METAR KSEA 150853Z 01006KT 10SM SCT110 17/07 A2995 RMK AO2 SLP146 T01720072 51001=
201506150753 METAR KSEA 150753Z 04012KT 10SM SCT110 19/06 A2995 RMK AO2 SLP145 T01890061 402780117=
201506150653 METAR KSEA 150653Z 03008KT 10SM FEW090 SCT200 20/08 A2996 RMK AO2 SLP147 T02000083=
201506150553 METAR KSEA 150553Z 01009KT 10SM FEW200 20/09 A2995 RMK AO2 SLP146 T02000089 10278 20183 51009=
201506150453 METAR KSEA 150453Z 35007KT 10SM FEW090 SCT200 20/08 A2994 RMK AO2 SLP144 T02000083=
201506150353 METAR KSEA 150353Z 34006KT 10SM FEW090 22/07 A2993 RMK AO2 SLP139 T02220072=
201506150253 METAR KSEA 150253Z 35010KT 10SM FEW090 24/08 A2992 RMK AO2 SLP137 T02440083 55005=
201506150153 METAR KSEA 150153Z 36008KT 10SM FEW090 26/07 A2992 RMK AO2 SLP135 T02610067=
201506150053 METAR KSEA 150053Z 36010KT 10SM FEW090 28/04 A2992 RMK AO2 SLP136 T02780044=
201506142353 METAR KSEA 142353Z 36009KT 10SM FEW090 27/06 A2994 RMK AO2 SLP142 T02720056 10278 20211 56016=
201506142253 METAR KSEA 142253Z 33010KT 310V020 10SM FEW060 27/06 A2995 RMK AO2 SLP146 T02670056=
201506142153 METAR KSEA 142153Z 01010KT 10SM FEW030 27/06 A2997 RMK AO2 SLP152 T02670056=
201506142053 METAR KSEA 142053Z 31009KT 10SM FEW030 24/08 A2999 RMK AO2 SLP158 T02440078 58016=
201506141953 METAR KSEA 141953Z 36008KT 10SM FEW030 24/07 A3000 RMK AO2 SLP164 T02390072=
201506141853 METAR KSEA 141853Z 35010G14KT 10SM FEW030 23/07 A3002 RMK AO2 SLP169 T02280072=
201506141753 METAR KSEA 141753Z 35007KT 10SM FEW020 21/08 A3003 RMK AO2 SLP174 T02110078 10217 20117 58009=
201506141653 METAR KSEA 141653Z VRB04KT 10SM CLR 19/08 A3005 RMK AO2 SLP178 T01940083=
201506141553 METAR KSEA 141553Z VRB05KT 10SM CLR 18/08 A3005 RMK AO2 SLP181 T01780083=
201506141453 METAR KSEA 141453Z 36003KT 10SM CLR 16/08 A3006 RMK AO2 SLP184 T01610078 51008=
201506141353 METAR KSEA 141353Z 00000KT 10SM CLR 13/08 A3005 RMK AO2 SLP180 T01330078=
201506141253 METAR KSEA 141253Z 00000KT 10SM CLR 12/08 A3005 RMK AO2 SLP179 T01220078=
201506141153 METAR KSEA 141153Z 05005KT 10SM CLR 13/08 A3004 RMK AO2 SLP175 T01330078 10172 20133 58001=
201506141053 METAR KSEA 141053Z 03007KT 10SM CLR 14/07 A3004 RMK AO2 SLP176 T01390072=
201506140953 METAR KSEA 140953Z 04009KT 10SM CLR 15/07 A3004 RMK AO2 SLP176 T01500067=
201506140853 METAR KSEA 140853Z 01006KT 10SM CLR 14/07 A3004 RMK AO2 SLP177 T01390072 53002=
201506140753 METAR KSEA 140753Z 00000KT 10SM CLR 15/07 A3003 RMK AO2 SLP175 T01500067 402390094=
201506140653 METAR KSEA 140653Z 01006KT 10SM CLR 17/06 A3003 RMK AO2 SLP175 T01670056=
201506140553 METAR KSEA 140553Z 35005KT 10SM CLR 17/06 A3003 RMK AO2 SLP175 T01670056 10239 20167 53004=
201506140453 METAR KSEA 140453Z 36005KT 10SM FEW050 18/05 A3003 RMK AO2 SLP174 T01830050=
201506140353 METAR KSEA 140353Z 36006KT 10SM FEW050 19/04 A3002 RMK AO2 SLP171 T01940039=
201506140253 METAR KSEA 140253Z 35008KT 10SM FEW050 22/04 A3002 RMK AO2 SLP171 T02220044 55004=
201506140153 METAR KSEA 140153Z 30006KT 10SM FEW050 22/07 A3001 RMK AO2 SLP169 T02220067=
201506140053 METAR KSEA 140053Z 31009KT 10SM FEW050 23/04 A3002 RMK AO2 SLP170 T02330044=
201506132353 METAR KSEA 132353Z 28009KT 10SM FEW050 23/04 A3003 RMK AO2 SLP174 T02280044 10233 20161 58014=
201506132253 METAR KSEA 132253Z 30008KT 10SM FEW050 23/05 A3005 RMK AO2 SLP179 T02280050=
201506132153 METAR KSEA 132153Z 29007KT 270V340 10SM FEW050 21/07 A3006 RMK AO2 SLP183 T02110072=
201506132053 METAR KSEA 132053Z 24007KT 10SM FEW070 21/08 A3007 RMK AO2 SLP188 T02060078 57012=
201506131953 METAR KSEA 131953Z 29004KT 10SM FEW030 19/06 A3008 RMK AO2 SLP193 T01940061=
201506131853 METAR KSEA 131853Z 27006KT 10SM FEW010 17/08 A3009 RMK AO2 SLP196 T01720083=
201506131753 METAR KSEA 131753Z 28005KT 10SM FEW010 16/08 A3011 RMK AO2 SLP200 T01610078 10161 20094 58010=
201506131653 METAR KSEA 131653Z 23004KT 10SM SCT010 14/09 A3012 RMK AO2 SLP205 T01440089=
201506131553 METAR KSEA 131553Z VRB03KT 10SM SCT008 13/09 A3013 RMK AO2 SLP207 T01280089=
201506131453 METAR KSEA 131453Z 16005KT 10SM BKN006 11/09 A3014 RMK AO2 SLP210 T01060089 52004=
201506131353 METAR KSEA 131353Z 18006KT 10SM BKN006 11/09 A3013 RMK AO2 SLP208 T01060089=
201506131312 SPECI KSEA 131312Z 20003KT 10SM BKN006 11/09 A3013 RMK AO2=
201506131253 METAR KSEA 131253Z 18003KT 10SM FEW006 10/08 A3013 RMK AO2 SLP208 T01000083=
201506131233 SPECI KSEA 131233Z 17003KT 10SM FEW006 10/08 A3013 RMK AO2=
201506131153 METAR KSEA 131153Z 00000KT 10SM CLR 10/08 A3012 RMK AO2 SLP206 T01000083 10156 20100 55002=
201506131053 METAR KSEA 131053Z 17003KT 10SM CLR 10/08 A3012 RMK AO2 SLP204 T01000083=
201506130953 METAR KSEA 130953Z 16003KT 10SM CLR 12/09 A3012 RMK AO2 SLP206 T01170089=
201506130853 METAR KSEA 130853Z 21003KT 10SM CLR 12/08 A3013 RMK AO2 SLP208 T01170083 58000=
201506130753 METAR KSEA 130753Z 00000KT 10SM CLR 12/09 A3014 RMK AO2 SLP212 T01220089 402000117=
201506130653 METAR KSEA 130653Z 26004KT 10SM CLR 13/06 A3013 RMK AO2 SLP209 T01280061=
201506130553 METAR KSEA 130553Z 01004KT 10SM CLR 16/06 A3013 RMK AO2 SLP208 T01560061 10200 20144 55001=
201506130453 METAR KSEA 130453Z 32004KT 10SM FEW080 15/06 A3013 RMK AO2 SLP208 T01500056=
201506130353 METAR KSEA 130353Z 31004KT 10SM SCT075 17/06 A3012 RMK AO2 SLP206 T01670061=
201506130253 METAR KSEA 130253Z 36006KT 10SM FEW040 BKN080 19/03 A3013 RMK AO2 SLP209 T01940033 56010=
201506130153 METAR KSEA 130153Z 01005KT 10SM FEW040 BKN080 20/05 A3014=
201506130053 METAR KSEA 130053Z 00000KT 10SM FEW040 BKN070 19/06 A3015 RMK AO2 SLP215 T01940061=
201506122353 METAR KSEA 122353Z 31003KT 10SM FEW040 BKN065 18/07 A3016 RMK AO2 SLP219 T01830072 10189 20133 56012=
201506122253 METAR KSEA 122253Z 29005KT 10SM FEW035 BKN065 18/07 A3017 RMK AO2 SLP222 T01830072=
201506122153 METAR KSEA 122153Z VRB03KT 10SM FEW035 BKN060 18/07 A3018 RMK AO2 SLP227 T01830072=
201506122053 METAR KSEA 122053Z 00000KT 10SM SCT025 SCT035 17/08 A3020 RMK AO2 SLP231 T01720078 58004=
201506121953 METAR KSEA 121953Z 00000KT 10SM SCT022 BKN039 16/08 A3020 RMK AO2 SLP233 T01560083=
201506121937 SPECI KSEA 121937Z 19007KT 10SM SCT022 OVC039 14/08 A3020 RMK AO2=
201506121853 METAR KSEA 121853Z 22007KT 10SM BKN020 OVC030 14/08 A3021 RMK AO2 SLP235 T01440078=
201506121753 METAR KSEA 121753Z 20008KT 10SM BKN018 OVC025 13/08 A3021 RMK AO2 SLP235 T01330078 10133 20122 51005=
201506121653 METAR KSEA 121653Z 18007KT 10SM BKN016 13/08 A3021 RMK AO2 SLP234 T01280078=
201506121553 METAR KSEA 121553Z 23007KT 10SM BKN020 OVC027 12/08 A3021 RMK AO2 SLP234 T01220078=
201506121453 METAR KSEA 121453Z 19006KT 10SM BKN019 OVC026 13/07 A3019 RMK AO2 SLP230 T01280072 51009=
201506121353 METAR KSEA 121353Z 18005KT 10SM BKN019 OVC026 12/08 A3019 RMK AO2 SLP228 T01220078=
201506121253 METAR KSEA 121253Z 17006KT 10SM BKN019 OVC026 12/08 A3018 RMK AO2 SLP224 T01220078=
201506121153 METAR KSEA 121153Z 24005KT 10SM OVC028 12/08 A3017 RMK AO2 SLP219 T01220078 10167 20122 51010=
201506121053 METAR KSEA 121053Z 23005KT 10SM OVC030 13/08 A3016 RMK AO2 SLP216 T01280078=
201506120953 METAR KSEA 120953Z 22004KT 10SM BKN034 BKN041 OVC060 13/08 A3015 RMK AO2 SLP214 T01330078=
201506120853 METAR KSEA 120853Z 06008KT 10SM BKN055 14/07 A3013 RMK AO2 SLP208 T01440072 51010=
201506120753 METAR KSEA 120753Z 05011KT 10SM BKN055 14/07 A3013 RMK AO2 SLP207 T01440072 402440111=
201506120653 METAR KSEA 120653Z 05016KT 10SM BKN060 16/07 A3012 RMK AO2 SLP204 T01560072=
201506120553 METAR KSEA 120553Z 05012G20KT 10SM BKN060 17/08 A3010 RMK AO2 SLP199 T01670078 10244 20167 53012=
201506120453 METAR KSEA 120453Z 03012KT 10SM BKN060 BKN100 17/08 A3009 RMK AO2 SLP195 T01720078=
201506120353 METAR KSEA 120353Z 02009KT 10SM BKN055 21/08 A3008 RMK AO2 SLP189 T02060083=
201506120253 METAR KSEA 120253Z 02009KT 10SM SCT050 22/09 A3007 RMK AO2 SLP186 T02170094 56008=
201506120153 METAR KSEA 120153Z 30005KT 10SM FEW040 SCT250 21/09 A3007 RMK AO2 SLP189 T02110094=
201506120053 METAR KSEA 120053Z 25006KT 10SM FEW040 SCT250 24/09 A3008 RMK AO2 SLP191 T02390094=
201506112353 METAR KSEA 112353Z 28007KT 10SM FEW040 SCT250 24/09 A3009 RMK AO2 SLP194 T02390089 10239 20167 58012=
201506112253 METAR KSEA 112253Z 24006KT 10SM FEW040 SCT250 22/09 A3011 RMK AO2 SLP200 T02220094=
201506112153 METAR KSEA 112153Z VRB05KT 10SM FEW040 SCT250 22/11 A3012 RMK AO2 SLP205 T02170106=
201506112123 SPECI KSEA 112123Z 25007KT 7SM FEW040 SCT250 21/11 A3013 RMK AO2=
201506112121 SPECI KSEA 112121Z 27007KT 7SM FEW002 22/11 A3013 RMK AO2=
201506112053 METAR KSEA 112053Z 22004KT 8SM SCT250 21/11 A3013 RMK AO2 SLP207 T02060106 58008=
201506111953 METAR KSEA 111953Z 26007KT 7SM CLR 19/11 A3014 RMK AO2 SLP211 T01940106=
201506111853 METAR KSEA 111853Z 27006KT 7SM FEW015 SCT250 18/10 A3015 RMK AO2 SLP214 T01780100=
201506111753 METAR KSEA 111753Z VRB05KT 7SM FEW016 SCT250 17/10 A3015 RMK AO2 SLP215 T01670100 10172 20111 50000=
201506111653 METAR KSEA 111653Z 20007KT 7SM FEW016 SCT250 16/09 A3016 RMK AO2 SLP217 T01610094=
201506111553 METAR KSEA 111553Z 19007KT 10SM FEW013 SCT250 15/09 A3015 RMK AO2 SLP214 T01500094=
201506111453 METAR KSEA 111453Z 19005KT 10SM FEW010 SCT250 13/09 A3015 RMK AO2 SLP214 T01330094 51018=
201506111353 METAR KSEA 111353Z 16005KT 10SM FEW010 SCT250 12/09 A3014 RMK AO2 SLP210 T01220089=
201506111253 METAR KSEA 111253Z 20005KT 10SM FEW010 12/09 A3012 RMK AO2 SLP204 T01170089=
201506111153 METAR KSEA 111153Z 20003KT 10SM CLR 12/09 A3010 RMK AO2 SLP195 T01170089 10167 20117 51013=
201506111053 METAR KSEA 111053Z 20004KT 10SM CLR 12/08 A3008 RMK AO2 SLP191 T01170083=
201506110953 METAR KSEA 110953Z 21005KT 10SM CLR 12/09 A3007 RMK AO2 SLP187 T01220089=
201506110853 METAR KSEA 110853Z 22004KT 10SM CLR 13/09 A3006 RMK AO2 SLP182 T01280094 52014=
201506110753 METAR KSEA 110753Z 20006KT 10SM CLR 14/09 A3004 RMK AO2 SLP176 T01390094 402560111=
201506110653 METAR KSEA 110653Z 20007KT 10SM CLR 14/10 A3003 RMK AO2 SLP175 T01440100=
201506110553 METAR KSEA 110553Z 20005KT 10SM FEW250 17/11 A3001 RMK AO2 SLP169 T01670106 10256 20167 53017=
201506110453 METAR KSEA 110453Z 24006KT 10SM FEW250 18/11 A3000 RMK AO2 SLP162 T01830106=
201506110353 METAR KSEA 110353Z 22006KT 10SM SCT250 21/11 A2997 RMK AO2 SLP154 T02060111=
201506110253 METAR KSEA 110253Z 24008KT 10SM SCT250 23/10 A2996 RMK AO2 SLP151 T02330100 55000=
201506110153 METAR KSEA 110153Z 22008KT 10SM SCT250 24/09 A2996 RMK AO2 SLP150 T02440094=
201506110053 METAR KSEA 110053Z 22006KT 10SM SCT250 25/08 A2996 RMK AO2 SLP150 T02500083=
201506102353 METAR KSEA 102353Z 23007KT 10SM FEW250 25/08 A2996 RMK AO2 SLP151 T02500083 10250 20167 56009=
201506102253 METAR KSEA 102253Z 23006KT 10SM FEW250 24/09 A2997 RMK AO2 SLP154 T02390089=
201506102153 METAR KSEA 102153Z VRB03KT 8SM FEW080 SCT250 23/09 A2998 RMK AO2 SLP156 T02330094=
201506102053 METAR KSEA 102053Z VRB03KT 7SM FEW080 SCT250 22/09 A2999 RMK AO2 SLP160 T02220089 58004=
201506101953 METAR KSEA 101953Z 24006KT 7SM FEW250 21/08 A3000 RMK AO2 SLP163 T02110078=
201506101853 METAR KSEA 101853Z 22007KT 10SM FEW250 19/08 A3000 RMK AO2 SLP165 T01890078=
201506101753 METAR KSEA 101753Z 23007KT 10SM CLR 17/09 A3000 RMK AO2 SLP164 T01670089 10172 20111 50004=
201506101653 METAR KSEA 101653Z 21009KT 10SM CLR 16/09 A3000 RMK AO2 SLP164 T01560089=
201506101553 METAR KSEA 101553Z 20006KT 10SM FEW007 14/09 A2999 RMK AO2 SLP160 T01390094=
201506101453 METAR KSEA 101453Z 21005KT 10SM SCT007 12/09 A2999 RMK AO2 SLP160 T01220094 51011=
201506101441 SPECI KSEA 101441Z 19006KT 10SM FEW007 12/09 A2999 RMK AO2=
201506101353 METAR KSEA 101353Z 21006KT 10SM FEW010 12/09 A2998 RMK AO2 SLP156 T01170089=
201506101253 METAR KSEA 101253Z 20006KT 10SM CLR 11/09 A2997 RMK AO2 SLP153 T01110089=
201506101153 METAR KSEA 101153Z 20005KT 10SM CLR 11/08 A2996 RMK AO2 SLP148 T01110083 10194 20111 53007=
201506101053 METAR KSEA 101053Z 20007KT 10SM CLR 12/09 A2995 RMK AO2 SLP145 T01170089=
201506100953 METAR KSEA 100953Z 22003KT 10SM CLR 13/09 A2994 RMK AO2 SLP143 T01280089=
201506100853 METAR KSEA 100853Z 22003KT 10SM CLR 14/09 A2994 RMK AO2 SLP141 T01440089 52009=
201506100753 METAR KSEA 100753Z 00000KT 10SM CLR 16/08 A2993 RMK AO2 SLP138 T01560078 402890144=
201506100653 METAR KSEA 100653Z 27003KT 10SM CLR 16/08 A2992 RMK AO2 SLP135 T01560078=
201506100553 METAR KSEA 100553Z 35007KT 10SM CLR 19/03 A2991 RMK AO2 SLP132 T01940028 10283 20194 53012=
201506100453 METAR KSEA 100453Z 35006KT 10SM CLR 19/04 A2989 RMK AO2 SLP125 T01940044=
201506100353 METAR KSEA 100353Z 36008KT 10SM FEW250 22/02 A2987 RMK AO2 SLP120 T02220022=
201506100253 METAR KSEA 100253Z 35008KT 10SM SCT250 25/M01 A2987 RMK AO2 SLP120 T02501006 55006=
201506100153 METAR KSEA 100153Z 34008KT 10SM FEW250 27/07 A2987 RMK AO2 SLP117 T02720072=
201506100053 METAR KSEA 100053Z 30007KT 10SM FEW250 28/08 A2988 RMK AO2 SLP120 T02780078=
201506092353 METAR KSEA 092353Z 27006KT 10SM FEW250 28/07 A2989 RMK AO2 SLP124 T02830072 10289 20211 58019=
201506092253 METAR KSEA 092253Z 19005KT 10SM FEW250 28/07 A2991 RMK AO2 SLP133 T02780072=
201506092153 METAR KSEA 092153Z 28008KT 10SM FEW250 28/07 A2993 RMK AO2 SLP138 T02780067=
201506092053 METAR KSEA 092053Z 30004KT 10SM FEW250 27/03 A2994 RMK AO2 SLP143 T02720033 58010=
201506091953 METAR KSEA 091953Z 24004KT 10SM FEW250 24/09 A2996 RMK AO2 SLP149 T02440089=
201506091853 METAR KSEA 091853Z 30003KT 10SM FEW250 23/08 A2997 RMK AO2 SLP153 T02330078=
201506091753 METAR KSEA 091753Z 26006KT 10SM FEW250 21/09 A2998 RMK AO2 SLP154 T02060094 10211 20144 58002=
201506091653 METAR KSEA 091653Z 30003KT 10SM FEW250 21/10 A2998 RMK AO2 SLP155 T02060100=
201506091553 METAR KSEA 091553Z 28006KT 10SM SCT250 18/09 A2999 RMK AO2 SLP157 T01830094=
201506091453 METAR KSEA 091453Z 29005KT 10SM SCT250 17/09 A2998 RMK AO2 SLP156 T01670094 51005=
201506091353 METAR KSEA 091353Z 01003KT 10SM SCT250 17/08 A2998 RMK AO2 SLP155 T01670078=
201506091253 METAR KSEA 091253Z 36006KT 10SM SCT250 16/07 A2998 RMK AO2 SLP154 T01560067=
201506091153 METAR KSEA 091153Z 00000KT 10SM SCT250 16/06 A2997 RMK AO2 SLP151 T01560061 10233 20156 53002=
201506091053 METAR KSEA 091053Z 02007KT 10SM CLR 17/04 A2997 RMK AO2 SLP151 T01720044=
201506090953 METAR KSEA 090953Z 03009KT 10SM CLR 18/04 A2996 RMK AO2 SLP148 T01830039=
201506090853 METAR KSEA 090853Z 35006KT 10SM CLR 18/03 A2996 RMK AO2 SLP149 T01780033 53004=
201506090753 METAR KSEA 090753Z 03005KT 10SM CLR 21/03 A2995 RMK AO2 SLP147 T02060028 403060144=
201506090653 METAR KSEA 090653Z 04008KT 10SM CLR 22/02 A2996 RMK AO2 SLP148 T02170022=
201506090553 METAR KSEA 090553Z 04006KT 10SM CLR 23/02 A2995 RMK AO2 SLP146 T02330022 10300 20233 53006=
201506090453 METAR KSEA 090453Z 03011KT 10SM CLR 24/M01 A2994 RMK AO2 SLP143 T02441011=
201506090353 METAR KSEA 090353Z 01012KT 10SM CLR 25/01 A2994 RMK AO2 SLP143 T02500011=
201506090253 METAR KSEA 090253Z 35008KT 10SM CLR 27/09 A2993 RMK AO2 SLP140 T02720094 56008=
201506090153 METAR KSEA 090153Z 36008KT 10SM CLR 28/09 A2994 RMK AO2 SLP141 T02830094=
201506090053 METAR KSEA 090053Z 36012KT 10SM CLR 29/09 A2994=
201506082353 METAR KSEA 082353Z 33011KT 10SM CLR 30/10 A2996 RMK AO2 SLP148 T03000100 10306 20222 56011=
201506082253 METAR KSEA 082253Z 30009KT 10SM CLR 29/12 A2997 RMK AO2 SLP151 T02940117=
201506082153 METAR KSEA 082153Z 30007KT 10SM CLR 28/12 A2998 RMK AO2 SLP155 T02780122=
201506082053 METAR KSEA 082053Z 29010KT 10SM CLR 27/12 A2999 RMK AO2 SLP159 T02670122 58008=
201506081953 METAR KSEA 081953Z VRB05G14KT 10SM CLR 27/12 A3000 RMK AO2 SLP164 T02670122=
201506081853 METAR KSEA 081853Z 30005KT 10SM CLR 24/12 A3001 RMK AO2 SLP166 T02440122=
201506081753 METAR KSEA 081753Z 29006KT 10SM CLR 22/12 A3002 RMK AO2 SLP168 T02220117 10222 20144 58004=
201506081653 METAR KSEA 081653Z 29006KT 10SM CLR 21/12 A3003=
201506081553 METAR KSEA 081553Z 35008KT 10SM CLR 21/11 A3003 RMK AO2 SLP173 T02060106=
201506081453 METAR KSEA 081453Z 35007KT 10SM CLR 19/11 A3003 RMK AO2 SLP172 T01890111 53004=
201506081353 METAR KSEA 081353Z 35005KT 10SM CLR 18/11 A3002 RMK AO2 SLP170 T01780111=
201506081253 METAR KSEA 081253Z 00000KT 10SM CLR 15/11 A3002 RMK AO2 SLP169 T01500111=
201506081153 METAR KSEA 081153Z 00000KT 10SM CLR 16/10 A3002 RMK AO2 SLP168 T01610100 10239 20156 52001=
201506081053 METAR KSEA 081053Z 34004KT 10SM CLR 17/10 A3002 RMK AO2 SLP167 T01670100=
201506080953 METAR KSEA 080953Z 36006KT 10SM CLR 18/10 A3002 RMK AO2 SLP168 T01780100=
201506080853 METAR KSEA 080853Z 35005KT 10SM CLR 18/10 A3002 RMK AO2 SLP167 T01780100 52001=
201506080753 METAR KSEA 080753Z 03006KT 10SM CLR 21/10 A3001 RMK AO2 SLP166 T02110100 403110156=
201506080653 METAR KSEA 080653Z 03007KT 10SM CLR 22/11 A3002=
201506080553 METAR KSEA 080553Z 03009KT 10SM CLR 24/09 A3001 RMK AO2 SLP166 T02390094 10311 20239 53004=
201506080453 METAR KSEA 080453Z 02008KT 10SM CLR 24/10 A3001=
201506080353 METAR KSEA 080353Z 01007KT 10SM CLR 26/08 A3000 RMK AO2 SLP161 T02610083=
201506080253 METAR KSEA 080253Z 35009KT 10SM CLR 28/09 A3000 RMK AO2 SLP162 T02830094 56005=
201506080153 METAR KSEA 080153Z 35008KT 10SM CLR 29/11 A3000 RMK AO2 SLP163 T02940106=
201506080053 METAR KSEA 080053Z 35010KT 10SM CLR 31/11 A3001 RMK AO2 SLP165 T03060106=
201506072353 METAR KSEA 072353Z 36010KT 10SM CLR 31/11 A3002 RMK AO2 SLP168 T03060106 10306 20233 56007=
201506072253 METAR KSEA 072253Z 32009KT 10SM CLR 30/10 A3002 RMK AO2 SLP170 T03000100=
201506072153 METAR KSEA 072153Z 30009KT 10SM CLR 29/09 A3002 RMK AO2 SLP170 T02940094=
201506072053 METAR KSEA 072053Z 29008KT 10SM CLR 28/11 A3004 RMK AO2 SLP175 T02780106 58004=
201506071953 METAR KSEA 071953Z 28007KT 10SM CLR 27/11 A3005 RMK AO2 SLP178 T02670111=
201506071853 METAR KSEA 071853Z 31007KT 10SM CLR 26/11 A3005 RMK AO2 SLP179 T02560111=
201506071753 METAR KSEA 071753Z 30005KT 10SM CLR 24/12 A3005 RMK AO2 SLP179 T02390117 10239 20156 58003=
201506071653 METAR KSEA 071653Z 28005KT 10SM CLR 22/12 A3006 RMK AO2 SLP181 T02170122=
201506071553 METAR KSEA 071553Z 29004KT 10SM CLR 20/11 A3006=
201506071453 METAR KSEA 071453Z 03004KT 10SM FEW230 19/11 A3006 RMK AO2 SLP182 T01940106 51007=
201506071353 METAR KSEA 071353Z 02003KT 10SM FEW250 19/10 A3005 RMK AO2 SLP179 T01890100=
201506071253 METAR KSEA 071253Z 00000KT 10SM FEW250 17/11 A3004 RMK AO2 SLP177 T01670106=
201506071153 METAR KSEA 071153Z 00000KT 10SM CLR 16/10 A3003 RMK AO2 SLP174 T01610100 10228 20156 53008=
201506071053 METAR KSEA 071053Z 34003KT 10SM CLR 17/09 A3002 RMK AO2 SLP169 T01720094=
201506070953 METAR KSEA 070953Z 35004KT 10SM CLR 18/09 A3002 RMK AO2 SLP167 T01780094=
201506070853 METAR KSEA 070853Z 02006KT 10SM CLR 19/09 A3001 RMK AO2 SLP165 T01940094 50001=
201506070753 METAR KSEA 070753Z 04006KT 10SM CLR 21/09 A3001 RMK AO2 SLP167 T02110094 402940133=
201506070653 METAR KSEA 070653Z 05005KT 10SM CLR 22/11 A3001 RMK AO2 SLP165 T02170106=
201506070553 METAR KSEA 070553Z 03007KT 10SM SCT250 23/12 A3001 RMK AO2 SLP164 T02280117 10294 20228 50004=
201506070453 METAR KSEA 070453Z 01007KT 10SM SCT250 23/12 A3001 RMK AO2 SLP165 T02280117=
201506070353 METAR KSEA 070353Z 34007KT 10SM BKN250 24/11 A2999 RMK AO2 SLP160 T02390106=
201506070253 METAR KSEA 070253Z 36006KT 10SM BKN250 27/11 A2999 RMK AO2 SLP160 T02670106 55003=
201506070153 METAR KSEA 070153Z 36008KT 10SM BKN250 28/11 A2999 RMK AO2 SLP159 T02780106=
201506070053 METAR KSEA 070053Z VRB06KT 10SM BKN250 29/09 A2999 RMK AO2 SLP158 T02890094=
201506062353 METAR KSEA 062353Z 34011G18KT 10SM BKN250 28/10 A3000 RMK AO2 SLP163 T02830100 10294 20222 58009=
201506062253 METAR KSEA 062253Z 33009G17KT 300V360 10SM SCT250 28/11 A3002 RMK AO2 SLP169 T02830111=
201506062153 METAR KSEA 062153Z 31009KT 10SM SCT250 28/12 A3003 RMK AO2 SLP172 T02780117=
201506062053 METAR KSEA 062053Z 28008KT 10SM SCT250 27/12 A3003 RMK AO2 SLP172 T02670117 58004=
201506061953 METAR KSEA 061953Z 29007KT 10SM FEW130 BKN220 25/11 A3004 RMK AO2 SLP175 T02500111=
201506061853 METAR KSEA 061853Z 27006KT 10SM FEW140 SCT220 23/11 A3004 RMK AO2 SLP177 T02330106=
201506061753 METAR KSEA 061753Z 28006KT 10SM FEW150 SCT210 22/11 A3004 RMK AO2 SLP177 T02220111 10222 20133 58009=
201506061653 METAR KSEA 061653Z 28003KT 10SM FEW150 SCT210 20/11 A3006 RMK AO2 SLP184 T02000111=
201506061553 METAR KSEA 061553Z 00000KT 10SM SCT140 19/11 A3007 RMK AO2 SLP186 T01940106=
201506061453 METAR KSEA 061453Z 00000KT 10SM SCT120 18/11 A3007 RMK AO2 SLP187 T01780106 50008=
201506061353 METAR KSEA 061353Z 00000KT 10SM FEW090 16/10 A3007 RMK AO2 SLP187 T01560100=
201506061253 METAR KSEA 061253Z 00000KT 10SM FEW100 14/09 A3005 RMK AO2 SLP181 T01390089=
201506061153 METAR KSEA 061153Z 00000KT 10SM FEW100 14/09 A3004 RMK AO2 SLP178 T01440089 10200 20133 50000=
201506061053 METAR KSEA 061053Z 05003KT 10SM CLR 15/08 A3005 RMK AO2 SLP179 T01500083=
201506060953 METAR KSEA 060953Z 34004KT 10SM CLR 13/07 A3005 RMK AO2 SLP179 T01330072=
201506060853 METAR KSEA 060853Z 05005KT 10SM CLR 17/08 A3004 RMK AO2 SLP178 T01720078 51002=
201506060753 METAR KSEA 060753Z 02007KT 10SM CLR 18/08 A3004 RMK AO2 SLP176 T01830078 402670128=
201506060653 METAR KSEA 060653Z 03008KT 10SM CLR 19/08 A3004=
201506060553 METAR KSEA 060553Z 04006KT 10SM CLR 20/09 A3004 RMK AO2 SLP176 T02000089 10267 20200 50001=
201506060453 METAR KSEA 060453Z 01006KT 10SM FEW250 21/08 A3004 RMK AO2 SLP178 T02060083=
201506060353 METAR KSEA 060353Z 35007KT 10SM FEW250 21/09 A3004 RMK AO2 SLP176 T02110089=
201506060253 METAR KSEA 060253Z 35009KT 10SM SCT250 24/08 A3003 RMK AO2 SLP175 T02390083 56007=
201506060153 METAR KSEA 060153Z 35010KT 10SM SCT250 25/10 A3004 RMK AO2 SLP176 T02500100=
201506060053 METAR KSEA 060053Z 01011KT 10SM FEW050 SCT250 26/09 A3005 RMK AO2 SLP179 T02610089=
201506052353 METAR KSEA 052353Z 34015G22KT 10SM FEW050 SCT250 26/08 A3005 RMK AO2 SLP182 T02560083 10267 20211 58009=
201506052253 METAR KSEA 052253Z 34017G24KT 10SM FEW050 SCT250 26/08 A3007 RMK AO2 SLP186 T02560083=
201506052153 METAR KSEA 052153Z 34014KT 10SM FEW050 BKN250 26/09 A3007 RMK AO2 SLP188 T02610089=
201506052053 METAR KSEA 052053Z 02008KT 10SM FEW040 BKN250 25/09 A3008 RMK AO2 SLP191 T02500094 56015=
201506051953 METAR KSEA 051953Z 34012G15KT 10SM FEW040 BKN250 24/11 A3009 RMK AO2 SLP195 T02440106=
201506051853 METAR KSEA 051853Z 35008KT 10SM FEW250 23/11 A3011 RMK AO2 SLP201 T02280106=
201506051753 METAR KSEA 051753Z 35005KT 10SM FEW250 21/11 A3013 RMK AO2 SLP206 T02110106 10211 20128 58005=
201506051653 METAR KSEA 051653Z 30007KT 10SM FEW250 19/11 A3014 RMK AO2 SLP212 T01890106=
201506051553 METAR KSEA 051553Z 36007KT 10SM FEW250 18/10 A3014 RMK AO2 SLP212 T01780100=
201506051453 METAR KSEA 051453Z 02008KT 10SM FEW250 17/09 A3014 RMK AO2 SLP211 T01670089 50002=
201506051353 METAR KSEA 051353Z 04003KT 10SM FEW250 16/09 A3014 RMK AO2 SLP212 T01560094=
201506051253 METAR KSEA 051253Z 06004KT 10SM FEW050 14/09 A3015 RMK AO2 SLP213 T01390089=
201506051153 METAR KSEA 051153Z 05004KT 10SM CLR 14/09 A3014 RMK AO2 SLP209 T01390089 10172 20139 53000=
201506051053 METAR KSEA 051053Z 03008KT 10SM CLR 14/09 A3013 RMK AO2 SLP209 T01440089=
201506050953 METAR KSEA 050953Z 02008KT 10SM CLR 14/09 A3013 RMK AO2 SLP209 T01440089=
201506050853 METAR KSEA 050853Z 03010KT 10SM CLR 15/09 A3013 RMK AO2 SLP210 T01500089 53001=
201506050753 METAR KSEA 050753Z 03009KT 10SM CLR 16/09 A3013 RMK AO2 SLP207 T01610089 402280117=
201506050653 METAR KSEA 050653Z 36007KT 10SM CLR 14/09 A3014 RMK AO2 SLP210 T01440094=
201506050553 METAR KSEA 050553Z 02008KT 10SM CLR 17/09 A3013 RMK AO2 SLP208 T01720089 10228 20161 51010=
201506050453 METAR KSEA 050453Z 36007KT 10SM FEW050 17/08 A3013 RMK AO2 SLP207 T01670083=
201506050353 METAR KSEA 050353Z 33008KT 10SM SCT050 18/07 A3011 RMK AO2 SLP203 T01830072=
201506050253 METAR KSEA 050253Z 32009KT 10SM SCT050 21/08 A3010 RMK AO2 SLP198 T02060083 55003=
201506050153 METAR KSEA 050153Z 34009KT 10SM SCT048 22/08 A3010 RMK AO2 SLP197 T02170078=
201506050053 METAR KSEA 050053Z 32008KT 10SM SCT047 22/09 A3011 RMK AO2 SLP201 T02220089=
201506042353 METAR KSEA 042353Z 32011KT 10SM SCT049 23/09 A3011 RMK AO2 SLP200 T02280089 10228 20172 55006=
201506042253 METAR KSEA 042253Z 33009KT 280V010 10SM SCT045 21/09 A3011 RMK AO2 SLP201 T02060089=
201506042153 METAR KSEA 042153Z 34010KT 10SM SCT035 21/09 A3011 RMK AO2 SLP203 T02110089=
201506042053 METAR KSEA 042053Z 29009KT 10SM BKN035 19/09 A3013 RMK AO2 SLP207 T01940094 58005=
201506041953 METAR KSEA 041953Z 30006KT 10SM FEW030 BKN050 BKN120 19/10 A3014 RMK AO2 SLP211 T01940100=
201506041853 METAR KSEA 041853Z 30007KT 10SM FEW027 SCT065 BKN120 18/10 A3014 RMK AO2 SLP212 T01780100=
201506041753 METAR KSEA 041753Z 32005KT 10SM SCT025 BKN050 18/09 A3014 RMK AO2 SLP213 T01830094 10189 20117 51003=
201506041653 METAR KSEA 041653Z 01008KT 10SM FEW023 SCT050 SCT120 17/09 A3014 RMK AO2 SLP212 T01720089=
201506041553 METAR KSEA 041553Z 34005KT 10SM FEW015 BKN050 15/08 A3014 RMK AO2 SLP211 T01500078=
201506041453 METAR KSEA 041453Z 36007KT 10SM FEW030 BKN055 14/07 A3013 RMK AO2 SLP209 T01390072 53013=
201506041353 METAR KSEA 041353Z 01004KT 10SM FEW030 SCT060 12/07 A3011 RMK AO2 SLP203 T01170067=
201506041253 METAR KSEA 041253Z 02006KT 10SM FEW040 BKN060 12/07 A3010 RMK AO2 SLP198 T01220067=
201506041153 METAR KSEA 041153Z 02006KT 10SM BKN039 13/07 A3009 RMK AO2 SLP196 T01280067 10150 20128 51005=
201506041053 METAR KSEA 041053Z 03007KT 10SM OVC041 13/07 A3009 RMK AO2 SLP195 T01280072=
201506040953 METAR KSEA 040953Z 02009KT 10SM BKN039 13/07 A3009 RMK AO2 SLP195 T01330072=
201506040853 METAR KSEA 040853Z 03009KT 10SM OVC035 14/08 A3008 RMK AO2 SLP191 T01390078 51004=
201506040753 METAR KSEA 040753Z 03009KT 10SM BKN030 14/08 A3008 RMK AO2 SLP191 T01390083 402000117=
201506040653 METAR KSEA 040653Z 03008KT 10SM FEW029 BKN050 14/08 A3007 RMK AO2 SLP189 T01440083=
201506040553 METAR KSEA 040553Z 03010KT 10SM SCT030 BKN070 15/08 A3007 RMK AO2 SLP187 T01500083 10194 20150 51006=
201506040527 SPECI KSEA 040527Z 02009KT 10SM BKN028 BKN070 15/08 A3007 RMK AO2=
201506040453 METAR KSEA 040453Z 01011KT 10SM SCT030 BKN070 16/08 A3007 RMK AO2 SLP187 T01560083=
201506040407 SPECI KSEA 040407Z 36007KT 10SM SCT027 BKN070 BKN250 16/10 A3006 RMK AO2=
201506040353 METAR KSEA 040353Z 35005KT 10SM BKN027 BKN070 BKN250 16/09 A3006 RMK AO2 SLP185 T01610094=
201506040339 SPECI KSEA 040339Z 32005KT 10SM BKN027 BKN070 BKN250 16/09 A3006 RMK AO2=
201506040253 METAR KSEA 040253Z 30006KT 10SM FEW035 SCT070 BKN250 18/09 A3005 RMK AO2 SLP181 T01780094 53002=
201506040153 METAR KSEA 040153Z 29008KT 10SM FEW030 SCT070 SCT250 18/09 A3005 RMK AO2 SLP180 T01830089=
201506040053 METAR KSEA 040053Z 29007KT 10SM FEW030 SCT075 BKN250 18/09 A3005 RMK AO2 SLP180 T01830089=
201506032353 METAR KSEA 032353Z 32007KT 10SM FEW030 SCT075 SCT160 BKN250 19/09 A3004 RMK AO2 SLP179 T01940094 10200 20144 56008=
201506032253 METAR KSEA 032253Z 33004KT 10SM FEW028 SCT160 BKN250 19/09 A3005 RMK AO2 SLP180 T01940094=
201506032153 METAR KSEA 032153Z 32005KT 10SM FEW028 SCT160 BKN250 18/09 A3006 RMK AO2 SLP183 T01830094=
201506032053 METAR KSEA 032053Z 21005KT 10SM SCT025 BKN160 18/09 A3007 RMK AO2 SLP187 T01780089 58005=
201506031953 METAR KSEA 031953Z 28006KT 10SM FEW022 SCT080 BKN160 17/09 A3008 RMK AO2 SLP190 T01670094=
201506031907 SPECI KSEA 031907Z VRB03KT 10SM FEW013 SCT021 OVC080 16/10 A3008 RMK AO2=
201506031853 METAR KSEA 031853Z 00000KT 10SM FEW015 BKN021 OVC080 15/09 A3009 RMK AO2 SLP193 T01500094=
201506031753 METAR KSEA 031753Z 24003KT 10SM FEW013 BKN021 OVC080 14/09 A3008 RMK AO2 SLP193 T01440094 10150 20117 51002=
201506031653 METAR KSEA 031653Z 23005KT 10SM FEW010 BKN015 OVC030 14/09 A3008 RMK AO2 SLP193 T01390089=
201506031553 METAR KSEA 031553Z 21006KT 10SM FEW011 BKN016 OVC030 13/09 A3008 RMK AO2 SLP193 T01330094=
201506031524 SPECI KSEA 031524Z 19007KT 10SM BKN015 OVC050 13/09 A3008 RMK AO2=
201506031453 METAR KSEA 031453Z 19004KT 10SM BKN011 OVC055 13/10 A3008 RMK AO2 SLP191 T01280100 53004=
201506031414 SPECI KSEA 031414Z 21004KT 10SM BKN013 OVC090 12/10 A3007 RMK AO2=
201506031353 METAR KSEA 031353Z 18004KT 10SM BKN015 OVC090 12/10 A3007 RMK AO2 SLP189 T01220100=
201506031253 METAR KSEA 031253Z 17004KT 10SM BKN017 OVC090 12/09 A3007 RMK AO2 SLP188 T01170094=
201506031222 SPECI KSEA 031222Z 16004KT 10SM BKN017 BKN090 12/09 A3006 RMK AO2=
201506031153 METAR KSEA 031153Z 18004KT 10SM SCT017 BKN090 12/09 A3006 RMK AO2 SLP187 70002 T01170094 10133 20117 55003=
201506031148 SPECI KSEA 031148Z 18004KT 10SM SCT017 BKN090 12/09 A3006 RMK AO2=
201506031053 METAR KSEA 031053Z 18006KT 10SM OVC017 12/09 A3007 RMK AO2 SLP187 T01220094=
201506030953 METAR KSEA 030953Z 18006KT 10SM OVC017 13/09 A3007 RMK AO2 SLP189 T01280094=
201506030853 METAR KSEA 030853Z 19005KT 10SM OVC019 13/09 A3007 RMK AO2 SLP189 T01280094 58001=
201506030753 METAR KSEA 030753Z 19009KT 10SM OVC019 13/09 A3008 RMK AO2 SLP191 T01330094 401780128=
201506030653 METAR KSEA 030653Z 22009KT 10SM BKN017 OVC025 13/09 A3008 RMK AO2 SLP191 T01330094=
201506030621 SPECI KSEA 030621Z 22009KT 10SM SCT017 BKN025 OVC080 13/09 A3008 RMK AO2=
201506030553 METAR KSEA 030553Z 21010KT 10SM FEW022 OVC080 13/09 A3008 RMK AO2 SLP191 T01330094 10156 20133 51006=
201506030522 SPECI KSEA 030522Z 21010KT 10SM SCT022 OVC080 13/09 A3008 RMK AO2=
201506030453 METAR KSEA 030453Z 22009KT 10SM BKN024 BKN030 OVC080 14/09 A3008 RMK AO2 SLP191 T01390094=
201506030353 METAR KSEA 030353Z 21009KT 10SM BKN022 OVC050 14/10 A3006 RMK AO2 SLP186 T01390100=
201506030331 SPECI KSEA 030331Z 21008KT 10SM BKN022 BKN050 OVC090 14/10 A3006 RMK AO2=
201506030253 METAR KSEA 030253Z 20008KT 10SM FEW025 OVC090 14/10 A3006 RMK AO2 SLP185 T01440100 51005=
201506030153 METAR KSEA 030153Z 20007KT 10SM FEW023 OVC070 15/10 A3006 RMK AO2 SLP184 T01500100=
201506030053 METAR KSEA 030053Z 21010KT 10SM FEW023 OVC065 15/11 A3005 RMK AO2 SLP183 T01500106=
201506022353 METAR KSEA 022353Z 20010KT 10SM FEW022 OVC060 16/11 A3004 RMK AO2 SLP179 T01560106 10178 20144 50001=
201506022253 METAR KSEA 022253Z 21009KT 10SM FEW030 BKN065 OVC100 16/10 A3004 RMK AO2 SLP179 T01610100=
201506022153 METAR KSEA 022153Z 22015G20KT 10SM SCT025 BKN050 OVC100 16/09 A3004 RMK AO2 SLP178 T01610094=
201506022053 METAR KSEA 022053Z 21014G23KT 10SM SCT019 BKN075 OVC100 17/09 A3004 RMK AO2 SLP177 SHRA E-S T01670094 51004=
201506021953 METAR KSEA 021953Z 21010KT 10SM SCT018 BKN065 OVC090 17/11 A3004 RMK AO2 SLP176 SHRA S T01670106=
201506021853 METAR KSEA 021853Z 22013KT 10SM SCT017 BKN065 OVC100 16/11 A3003 RMK AO2 SLP174 T01560106=
201506021753 METAR KSEA 021753Z 22013KT 10SM SCT016 BKN050 OVC100 15/11 A3003 RMK AO2 SLP173 60002 T01500106 10150 20128 51007=
201506021653 METAR KSEA 021653Z 21008KT 10SM BKN015 OVC055 14/11 A3002 RMK AO2 SLP172 T01390111=
201506021643 SPECI KSEA 021643Z 20008KT 10SM BKN015 OVC055 14/11 A3002 RMK AO2=
201506021553 METAR KSEA 021553Z 21010KT 10SM BKN012 BKN021 OVC065 13/11 A3002 RMK AO2 RAE00B16E44 SLP172 P0000 T01330111=
201506021545 SPECI KSEA 021545Z 21008KT 10SM BKN012 BKN020 OVC065 14/12 A3002 RMK AO2 RAE00B16E44 P0000=
201506021516 SPECI KSEA 021516Z 20009KT 10SM -RA SCT009 BKN016 OVC085 13/11 A3001 RMK AO2 RAE00B16 P0000=
201506021453 METAR KSEA 021453Z 20008KT 10SM -RA BKN008 BKN014 OVC065 13/11 A3000 RMK AO2 SLP166 P0001 60002 T01280111 53011=
201506021353 METAR KSEA 021353Z 19009KT 10SM -RA BKN008 OVC015 13/11 A2999 RMK AO2 RAB45 SLP162 P0001 T01280111=
201506021253 METAR KSEA 021253Z 20009KT 10SM BKN008 OVC012 13/11 A2998 RMK AO2 SLP157 T01280111=
201506021203 SPECI KSEA 021203Z 21008KT 10SM SCT008 BKN014 OVC100 13/11 A2997 RMK AO2=
201506021153 METAR KSEA 021153Z 20010KT 10SM BKN010 BKN014 OVC100 13/11 A2997 RMK AO2 SLP155 70018 T01280111 10139 20128 50003=
201506021053 METAR KSEA 021053Z 18010KT 10SM FEW010 BKN014 OVC060 13/11 A2997 RMK AO2 SLP155 T01280111=
201506021033 SPECI KSEA 021033Z 18006KT 10SM BKN012 BKN065 OVC095 13/11 A2997 RMK AO2=
201506020953 METAR KSEA 020953Z 18008KT 10SM BKN015 OVC060 13/11 A2997 RMK AO2 SLP154 T01280111=
201506020941 SPECI KSEA 020941Z 19006KT 10SM BKN017 OVC060 13/11 A2997 RMK AO2=
201506020853 METAR KSEA 020853Z 20005KT 10SM FEW010 OVC040 13/11 A2996 RMK AO2 SLP152 T01330111 51001=
201506020753 METAR KSEA 020753Z 19006KT 10SM FEW012 OVC040 13/11 A2996=
201506020653 METAR KSEA 020653Z 22008KT 10SM FEW012 OVC037 13/11 A2996 RMK AO2 SLP151 T01330106=
201506020553 METAR KSEA 020553Z 21008KT 10SM FEW012 BKN035 OVC060 14/11 A2996 RMK AO2 SLP151 60000 T01390111 10150 20139 53003=
201506020453 METAR KSEA 020453Z 19006KT 10SM BKN030 BKN045 OVC060 14/11 A2995 RMK AO2 SLP150 T01390111=
201506020353 METAR KSEA 020353Z 19007KT 10SM BKN025 OVC050 14/11 A2994 RMK AO2 SLP145 T01390111=
201506020253 METAR KSEA 020253Z 19005KT 10SM BKN023 OVC050 14/11 A2995 RMK AO2 RAB04E18 SLP147 P0000 60000 T01390111 53002=
201506020153 METAR KSEA 020153Z 20006KT 10SM BKN019 OVC040 14/11 A2994 RMK AO2 SLP145 T01440106=
201506020053 METAR KSEA 020053Z 21006KT 10SM BKN023 OVC049 14/11 A2994 RMK AO2 SLP145 T01440106=
201506020012 SPECI KSEA 020012Z 21008KT 10SM SCT018 BKN047 OVC060 14/11 A2994 RMK AO2=
201506012353 METAR KSEA 012353Z 22008KT 10SM FEW014 BKN020 OVC050 14/11 A2994 RMK AO2 SLP145 60003 T01440106 10156 20128 55002=
201506012253 METAR KSEA 012253Z 22007KT 10SM BKN017 OVC050 14/11 A2994 RMK AO2 SLP144 T01440106=
201506012218 SPECI KSEA 012218Z 21008KT 10SM FEW015 BKN028 OVC055 16/11 A2995 RMK AO2=
201506012153 METAR KSEA 012153Z 22005KT 10SM SCT015 OVC055 15/11 A2994 RMK AO2 SLP145 T01500111=
201506012120 SPECI KSEA 012120Z 23008KT 10SM SCT015 OVC055 14/11 A2994 RMK AO2=
201506012053 METAR KSEA 012053Z 23009KT 10SM BKN016 BKN055 OVC095 14/11 A2995 RMK AO2 SLP146 60003 T01440106 52005=
201506011953 METAR KSEA 011953Z 23008KT 10SM BKN011 BKN020 OVC095 14/12 A2994 RMK AO2 RAE20 SLP144 P0001 T01390117=
201506011853 METAR KSEA 011853Z 18005KT 10SM -RA BKN011 BKN020 OVC095 13/12 A2994 RMK AO2 RAB01 SLP143 P0002 T01330117=
201506011838 SPECI KSEA 011838Z 16009KT 10SM -RA BKN009 BKN017 OVC095 13/11 A2995 RMK AO2 RAB01 P0002=
201506011800 SPECI KSEA 011800Z 20004KT 10SM FEW009 OVC095 13/11 A2993 RMK AO2=
201506011753 METAR KSEA 011753Z 19006KT 10SM SCT009 BKN014 OVC095 13/11 A2993 RMK AO2 RAE26 SLP141 P0003 60015 T01280111 10133 20117 50013=
201506011653 METAR KSEA 011653Z 16006KT 3SM RA BR BKN011 BKN080 OVC095 12/11 A2993 RMK AO2 SLP142 P0009 T01220111=
201506011553 METAR KSEA 011553Z 17007KT 9SM -RA BKN011 BKN014 OVC100 12/11 A2992 RMK AO2 RAB16 SLP138 P0003 T01220106=
201506011521 SPECI KSEA 011521Z 19008KT 10SM -RA SCT009 BKN011 OVC100 12/10 A2990 RMK AO2 RAB16 P0000=
201506011453 METAR KSEA 011453Z 22004KT 7SM BKN009 BKN160 12/09 A2989 RMK AO2 SLP127 T01220094 50013=
201506011353 METAR KSEA 011353Z 20012G17KT 10SM BKN009 BKN160 12/09 A2991 RMK AO2 SLP133 T01220094=
201506011253 METAR KSEA 011253Z 20012KT 10SM BKN007 OVC210 12/10 A2988 RMK AO2 SLP121 T01220100=
201506011239 SPECI KSEA 011239Z 20011KT 10SM BKN007 OVC210 12/10 A2987 RMK AO2=
201506011221 SPECI KSEA 011221Z 20007KT 10SM FEW008 SCT110 BKN210 12/10 A2986 RMK AO2=
201506011153 METAR KSEA 011153Z 20007KT 10SM FEW030 SCT110 SCT200 12/11 A2985 RMK AO2 SLP113 T01220106 10178 20122 51017=
201506011053 METAR KSEA 011053Z 21004KT 10SM FEW110 SCT210 14/10 A2984 RMK AO2 SLP110 T01390100=
201506010953 METAR KSEA 010953Z 00000KT 10SM FEW110 SCT210 14/09 A2981 RMK AO2 SLP099 T01440089=
201506010853 METAR KSEA 010853Z 00000KT 10SM FEW110 OVC210 15/09 A2980 RMK AO2 SLP096 T01500094 51007=
201506010753 METAR KSEA 010753Z 00000KT 10SM OVC210 15/08 A2980 RMK AO2 SLP095 T01500083 402500117=
201506010653 METAR KSEA 010653Z 00000KT 10SM OVC210 16/08 A2979 RMK AO2 SLP094 T01610078=
201506010553 METAR KSEA 010553Z 00000KT 10SM SCT140 BKN210 17/08 A2978 RMK AO2 SLP090 T01670078 10250 20161 56002=
201506010453 METAR KSEA 010453Z 36007KT 10SM SCT140 BKN210 18/07 A2978 RMK AO2 SLP090 T01780072=
201506010353 METAR KSEA 010353Z 33005KT 10SM BKN200 18/09 A2978 RMK AO2 SLP090 T01830094=
201506010253 METAR KSEA 010253Z 35006KT 10SM FEW140 BKN170 21/09 A2979 RMK AO2 SLP092 T02060089 56008=
201506010153 METAR KSEA 010153Z 33008KT 10SM FEW150 BKN190 21/09 A2979 RMK AO2 SLP094 T02110089=
201506010053 METAR KSEA 010053Z 36009KT 10SM FEW150 BKN200 23/08 A2978 RMK AO2 SLP089 T02280078=

# No short TAF reports from KSEA in databse.

###################################
#  large TAF from KSEA
###################################
201506302320 TAF KSEA 302320Z 0100/0206 33008KT P6SM FEW250 FM010400 02006KT
                       P6SM SKC FM011800 29008KT P6SM SKC FM020400
                       01005KT P6SM SKC=
201506301720 TAF KSEA 301720Z 3018/0124 VRB04KT P6SM SCT008 SCT250 FM301900
                       28005KT P6SM SCT250 FM010000 34008KT P6SM
                       FEW250 FM010400 02006KT P6SM SKC FM011800
                       33008KT P6SM SKC=
201506301602 TAF AMD KSEA 301602Z 3016/0118 20005KT 5SM BR BKN004
                      TEMPO 3016/3017 2SM BR OVC004 FM301700 20005KT
                       P6SM BKN006 FM301800 VRB04KT P6SM SCT008
                       FM301900 28005KT P6SM SCT250 FM010000 34008KT
                       P6SM FEW250 FM010600 02008KT P6SM SKC=
201506301515 TAF AMD KSEA 301515Z 3015/0118 20005KT 4SM BR OVC002
                      TEMPO 3015/3017 1/2SM FG OVC002 FM301700
                       20005KT P6SM OVC006 FM301800 VRB04KT P6SM
                       SCT008 FM301900 28005KT P6SM SCT250 FM010000
                       34008KT P6SM FEW250 FM010600 02008KT P6SM
                       SKC=
201506301258 TAF AMD KSEA 301258Z 3013/0118 20005KT 5SM BR OVC002
                      TEMPO 3013/3015 3/4SM BR FM301600 20005KT
                       P6SM OVC004 FM301700 23005KT P6SM SCT008
                       FM301800 25006KT P6SM SCT250 FM010000 31008KT
                       P6SM FEW250 FM010600 02008KT P6SM SKC=
201506301123 TAF KSEA 301123Z 3012/0118 20005KT P6SM BKN006
                      TEMPO 3013/3016 OVC005 FM301700 23005KT P6SM
                       SCT008 FM301800 25006KT P6SM SCT250 FM010000
                       31008KT P6SM FEW250 FM010600 02008KT P6SM
                       SKC=
201506300530 TAF KSEA 300530Z 3006/0112 19004KT P6SM SKC FM301200 19004KT P6SM
                       SCT008
                      TEMPO 3013/3016 OVC008 FM301700 25005KT P6SM
                       SCT250 FM010000 31008KT P6SM FEW250 FM010600
                       02008KT P6SM SKC=
201506300520 TAF KSEA 300520Z 3006/0112 21003KT P6SM SCT060 FM301100 21004KT
                       P6SM BKN020 FM302000 25006KT P6SM SCT025
                       FM010000 34008KT P6SM SCT040 SCT250 FM010400
                       35008KT P6SM BKN040=
201506292346 TAF KSEA 292346Z 3000/0106 22007KT P6SM SCT060 FM300400 21003KT
                       P6SM SKC FM301300 21004KT P6SM BKN020 FM302000
                       25006KT P6SM SCT025 FM010000 32008KT P6SM
                       SCT250=
201506292029 TAF AMD KSEA 292029Z 2920/3024 20007KT P6SM SKC FM300400 22005KT
                       P6SM SKC FM301400 19005KT P6SM BKN015=
201506291722 TAF KSEA 291722Z 2918/3024 23008KT P6SM FEW120 FM291900 20007KT
                       P6SM SKC FM300400 22005KT P6SM SKC FM301400
                       19005KT P6SM BKN015=
201506291502 TAF AMD KSEA 291502Z 2915/3018 21008KT P6SM SCT080 BKN120 FM291800
                       23008KT P6SM SCT200 FM300400 22005KT P6SM
                       SKC FM301400 19005KT P6SM BKN015=
201506291120 TAF KSEA 291120Z 2912/3018 20004KT P6SM SCT080 BKN150 FM291800
                       23008KT P6SM SCT040 SCT150 FM300400 22005KT
                       P6SM SKC=
201506290900 KSEA 290900Z 2909/3012 00000KT P6SM FEW120 BKN200 FM291100 19005KT
                       P6SM SCT010 BKN150
                      TEMPO 2912/2916 BKN010 BKN150 FM291800 23008KT
                       P6SM SCT040 FM300400 22005KT P6SM SKC=
201506290522 TAF KSEA 290522Z 2906/3012 VRB04KT P6SM BKN150 FM291100 19005KT
                       P6SM SCT010 BKN150
                      TEMPO 2912/2916 BKN010 BKN150 FM291800 23008KT
                       P6SM SCT040 FM300400 22005KT P6SM SKC=
201506290302 KSEA 290302Z 2903/3006 17006KT P6SM OVC150 FM291100 19005KT P6SM
                       SCT010 BKN150
                      TEMPO 2912/2916 BKN010 BKN200 FM291800 23008KT
                       P6SM SCT040=
201506282320 TAF KSEA 282320Z 2900/3006 29007KT P6SM VCSH BKN120 OVC200 FM290400
                       20005KT P6SM VCSH BKN070 OVC120 FM291400
                       19005KT P6SM SCT010 SCT050
                      TEMPO 2914/2917 BKN010 BKN200 FM291800 23008KT
                       P6SM SCT040=
201506282106 TAF AMD KSEA 282106Z 2821/2924 29005KT P6SM VCSH BKN100 OVC210
                       FM290400 20005KT P6SM VCSH BKN070 OVC120
                       FM291400 19005KT P6SM SCT010 SCT050
                      TEMPO 2914/2917 BKN010 BKN200 FM291800 23008KT
                       P6SM SCT040=
201506281834 TAF AMD KSEA 281834Z 2819/2924 28005KT P6SM VCSH FEW060 BKN090
                       OVC110 FM282200 26006KT P6SM VCTS SCT060
                       BKN090CB OVC120 FM290400 20005KT P6SM VCSH
                       BKN070 OVC120 FM291400 19005KT P6SM SCT010
                       SCT050
                      TEMPO 2914/2917 BKN010 BKN200 FM291800 23008KT
                       P6SM SCT040=
201506281732 TAF KSEA 281732Z 2818/2924 26008KT P6SM -TSRA FEW060 BKN100CB OVC200
                       FM281900 28006KT P6SM VCTS BKN100CB BKN200
                       FM290400 20005KT P6SM VCSH BKN070 OVC120
                       FM291400 19005KT P6SM SCT010 SCT050
                      TEMPO 2914/2917 BKN010 BKN200 FM291800 23008KT
                       P6SM SCT040=
201506281639 TAF AMD KSEA 281639Z 2817/2918 01005KT P6SM TS BKN100CB BKN200
                       FM281900 28006KT P6SM VCTS BKN100CB BKN200
                       FM290400 20005KT P6SM BKN100 OVC250=
201506281503 KSEA 281503Z 2815/2918 00000KT P6SM SCT160 BKN230 FM281800 26006KT
                       P6SM VCTS BKN100CB BKN200 FM282200 29007KT
                       P6SM BKN100 BKN200 FM290400 20005KT P6SM
                       BKN100 OVC250=
201506281120 TAF KSEA 281120Z 2812/2918 03003KT P6SM FEW120 SCT250 FM281800
                       26006KT P6SM FEW120 BKN250 FM290400 20005KT
                       P6SM BKN100 OVC250=
201506280900 KSEA 280900Z 2809/2912 02004KT P6SM SCT250 FM281800 26006KT P6SM
                       FEW120 BKN250 FM290400 20005KT P6SM BKN100
                       OVC250=
201506280520 TAF KSEA 280520Z 2806/2912 36004KT P6SM SCT250 FM281800 26006KT
                       P6SM FEW120 BKN250 FM290400 20005KT P6SM
                       BKN100 OVC250=
201506280302 TAF AMD KSEA 280302Z 2803/2906 36008KT P6SM SCT250 FM280500 02005KT
                       P6SM SCT250 FM281800 24006KT P6SM FEW120
                       BKN250=
201506272322 TAF KSEA 272322Z 2800/2906 35011KT P6SM SCT150 SCT240 FM280300
                       01009KT P6SM BKN120 BKN250 FM280600 02005KT
                       P6SM BKN120 BKN250 FM281800 28008KT P6SM
                       BKN100 OVC200=
201506272103 TAF AMD KSEA 272103Z 2721/2824 34014G18KT P6SM BKN220 FM280200
                       01009KT P6SM BKN120 BKN250 FM280600 02005KT
                       P6SM BKN120 BKN250 FM281800 28007KT P6SM
                       BKN100 OVC200=
201506271720 TAF KSEA 271720Z 2718/2824 03007KT P6SM FEW150 SCT250 FM272000
                       33009KT P6SM SCT150 BKN250 FM280200 01009KT
                       P6SM BKN120 BKN250 FM280600 02005KT P6SM
                       BKN120 BKN250 FM281800 28007KT P6SM BKN100
                       OVC200=
201506271509 TAF AMD KSEA 271509Z 2715/2818 36006KT P6SM FEW150 BKN250 FM271900
                       33008KT P6SM SCT250 FM280600 02005KT P6SM
                       BKN250=
201506271120 TAF KSEA 271120Z 2712/2818 02005KT P6SM BKN250 FM271900 33008KT
                       P6SM SCT250 FM280600 02005KT P6SM BKN250=
201506270903 KSEA 270903Z 2709/2812 36008KT P6SM SCT250=
201506270520 TAF KSEA 270520Z 2706/2812 36008KT P6SM SCT250=
201506270300 TAF AMD KSEA 270300Z 2703/2806 36010KT P6SM FEW250 FM271900 35007KT
                       P6SM SCT250 FM280200 02006KT P6SM SCT200=
201506270102 TAF AMD KSEA 270102Z 2701/2806 35012KT P6SM SCT250 FM270200 01011KT
                       P6SM SCT250 FM271900 35007KT P6SM SCT250
                       FM280200 02006KT P6SM SCT200=
201506262321 TAF KSEA 262321Z 2700/2806 32011G17KT P6SM SCT250 FM270200 01011KT
                       P6SM SCT250 FM271900 35007KT P6SM SCT250
                       FM280200 02006KT P6SM SCT200=
201506262101 TAF AMD KSEA 262101Z 2621/2724 34011G19KT P6SM SCT250 FM270200
                       01011KT P6SM SCT250 FM271900 35007KT P6SM
                       SCT250=
201506261724 TAF KSEA 261724Z 2618/2724 VRB04KT P6SM FEW250 FM261900 33012KT
                       P6SM FEW250 FM270200 01011KT P6SM SCT250
                       FM271900 35007KT P6SM SCT250=
201506261501 KSEA 261501Z 2615/2718 02007KT P6SM FEW200 FM261900 33010KT P6SM
                       SKC FM270200 01010KT P6SM SCT250=
201506261120 TAF KSEA 261120Z 2612/2718 02008KT P6SM SKC FM261900 33010KT P6SM
                       SKC FM270200 01010KT P6SM SCT250=
201506260903 TAF AMD KSEA 260903Z 2609/2712 02008KT P6SM SKC FM261900 33010KT
                       P6SM SKC FM270200 01010KT P6SM SCT250=
201506260526 TAF KSEA 260526Z 2606/2712 01006KT P6SM SKC FM261900 33010KT P6SM
                       SKC FM270200 01010KT P6SM SCT250=
201506260300 TAF AMD KSEA 260300Z 2603/2706 35008KT P6SM SKC FM261200 01006KT
                       P6SM FEW005 FM261600 35006KT P6SM SKC=
201506260144 TAF KSEA 260144Z 2602/2706 35007KT P6SM FEW050 FM261200 01006KT
                       P6SM FEW005 FM261600 35006KT P6SM SKC=
201506252101 KSEA 252101Z 2521/2624 29005KT P6SM FEW250 FM252300 35007KT P6SM
                       SKC FM261200 01006KT P6SM FEW005 FM261600
                       35006KT P6SM SKC=
201506251720 TAF KSEA 251720Z 2518/2624 29005KT P6SM FEW250 FM252300 35007KT
                       P6SM SKC FM261200 01006KT P6SM FEW005 FM261600
                       35006KT P6SM SKC=
201506251448 TAF AMD KSEA 251448Z 2515/2618 02005KT P6SM FEW250 FM252000 29006KT
                       P6SM FEW250 FM260100 35006KT P6SM SKC=
201506251122 TAF KSEA 251122Z 2512/2618 36004KT P6SM FEW250 FM252000 29006KT
                       P6SM FEW250 FM260100 35006KT P6SM SKC=
201506250907 TAF AMD KSEA 250907Z 2509/2612 36005KT P6SM SCT250 FM251200 VRB04KT
                       P6SM SCT250 FM252000 29005KT P6SM FEW250
                       FM252300 32006KT P6SM SKC=
201506250520 TAF KSEA 250520Z 2506/2612 35006KT P6SM FEW120 SCT250 FM250900
                       04004KT P6SM SCT250 FM251200 VRB04KT P6SM
                       SCT250 FM252000 29005KT P6SM FEW250 FM252300
                       32006KT P6SM SKC=
201506250300 TAF AMD KSEA 250300Z 2503/2606 30004KT P6SM FEW050 SCT120 SCT250
                       FM250600 03004KT P6SM SCT120 SCT250 FM251200
                       VRB04KT P6SM SCT030 SCT120 FM252000 29005KT
                       P6SM FEW250 FM252300 32006KT P6SM SKC=
201506242341 TAF KSEA 242341Z 2500/2606 31006KT P6SM FEW070 BKN120 BKN200 FM250300
                       34005KT P6SM FEW120 FM250600 03004KT P6SM
                       BKN120 FM251200 VRB04KT P6SM SCT030 SCT120
                       FM252000 29005KT P6SM FEW250 FM252300 32006KT
                       P6SM SKC=
201506242210 TAF AMD KSEA 242210Z 2422/2524 34006KT P6SM FEW070 BKN120 OVC200
                       FM250300 VRB03KT P6SM FEW050 BKN200 FM250500
                       03004KT P6SM SCT120 FM251800 33005KT P6SM
                       FEW250=
201506242132 TAF AMD KSEA 242132Z 2422/2524 23007KT P6SM FEW070 OVC150 FM250200
                       VRB03KT P6SM FEW050 BKN200 FM250500 03004KT
                       P6SM SCT120 FM251800 33005KT P6SM FEW250=
201506242104 TAF AMD KSEA 242104Z 2421/2524 23007KT P6SM BKN120 BKN250 FM250500
                       03004KT P6SM SCT120 FM251800 33005KT P6SM
                       FEW250=
201506241720 TAF KSEA 241720Z 2418/2524 31007KT P6SM BKN120 BKN250 FM250500
                       03004KT P6SM SCT120 FM251800 33005KT P6SM
                       FEW250=
201506241503 TAF AMD KSEA 241503Z 2415/2518 02004KT P6SM BKN120 BKN250 FM242000
                       31007KT P6SM BKN120 BKN250 FM250500 03004KT
                       P6SM SCT120=
201506241120 TAF KSEA 241120Z 2412/2518 VRB03KT P6SM BKN150 BKN250 FM242000
                       31007KT P6SM BKN120 FM250500 VRB03KT P6SM
                       SCT050 SCT100=
201506240520 TAF KSEA 240520Z 2406/2512 02007KT P6SM SCT180 BKN250 FM241000
                       VRB03KT P6SM BKN150 BKN250 FM242000 31007KT
                       P6SM BKN120 FM250500 VRB03KT P6SM SCT050
                       SCT100=
201506232320 TAF KSEA 232320Z 2400/2506 30006KT P6SM SCT200 FM240500 VRB03KT
                       P6SM BKN120 BKN200 FM242000 31007KT P6SM
                       SCT120 BKN200 FM250400 VRB03KT P6SM SCT060
                       SCT100=
201506231720 TAF KSEA 231720Z 2318/2424 VRB03KT P6SM SKC FM232100 32006KT P6SM
                       SCT200 FM240500 VRB03KT P6SM BKN120 BKN200
                       FM242000 31007KT P6SM SCT120 BKN200=
201506231502 KSEA 231502Z 2315/2418 VRB03KT P6SM SKC FM232100 32006KT P6SM FEW250
                       FM240400 VRB03KT P6SM BKN120 BKN200=
201506231120 TAF KSEA 231120Z 2312/2418 VRB03KT P6SM SKC FM232100 32006KT P6SM
                       BKN250 FM240400 VRB03KT P6SM BKN120 BKN200=
201506230520 TAF KSEA 230520Z 2306/2412 VRB04KT P6SM SKC FM231200 VRB04KT P6SM
                       SCT015
                      TEMPO 2312/2316 BKN015 FM231800 23006KT P6SM
                       SCT030 SCT200 FM232100 32006KT P6SM BKN250
                       FM240400 32006KT P6SM BKN120 BKN200=
201506230306 TAF AMD KSEA 230306Z 2303/2406 30005KT P6SM FEW100 FM230700 VRB03KT
                       P6SM SKC FM231200 18005KT P6SM SCT015
                      TEMPO 2312/2316 BKN015 FM231700 23006KT P6SM
                       SCT030 FM232100 31006KT P6SM SCT250=
201506222342 TAF KSEA 222342Z 2300/2406 33005KT P6SM FEW035 SCT250 FM230300
                       VRB04KT P6SM FEW250 FM231200 18005KT P6SM
                       BKN015 FM231700 23006KT P6SM SCT030 FM232000
                       24006KT P6SM FEW250 FM240000 31006KT P6SM
                       SCT250=
201506221945 TAF KSEA 221945Z 2220/2324 22006KT P6SM FEW030 BKN250 FM230000
                       24008KT P6SM SCT040 SCT150 FM231200 18005KT
                       P6SM BKN015 FM231700 23006KT P6SM SCT030=
201506221631 TAF AMD KSEA 221631Z 2217/2318 22006KT P6SM SCT015 BKN200 FM230000
                       VRB04KT P6SM SCT040 SCT150 FM231200 18005KT
                       P6SM BKN015 FM231700 23006KT P6SM SCT030=
201506221120 TAF KSEA 221120Z 2212/2318 21006KT P6SM SCT010 SCT200
                      TEMPO 2212/2214 BKN010 BKN200 FM221400 21008KT
                       P6SM BKN010 BKN200 FM221800 23006KT P6SM
                       SCT020 BKN150 FM230000 VRB04KT P6SM SCT040
                       SCT150 FM231200 18005KT P6SM BKN015 FM231700
                       23006KT P6SM SCT030=
201506220902 KSEA 220902Z 2209/2312 23006KT P6SM BKN250 FM221300 19008KT P6SM
                       BKN010 FM221800 23006KT P6SM SCT020 BKN150
                       FM230000 30006KT P6SM SCT040 SCT150=
201506220524 TAF KSEA 220524Z 2206/2312 23006KT P6SM SCT050 SCT150 SCT250 FM221200
                       20008KT P6SM SCT040 BKN150 BKN250 FM222200
                       VRB04KT P6SM SCT040 BKN120 BKN200=
201506212331 TAF KSEA 212331Z 2200/2306 34006KT P6SM FEW040 FEW150 BKN250 FM220300
                       VRB05KT P6SM BKN150 BKN250 FM220600 21008KT
                       P6SM SCT100 BKN150 BKN250 FM221800 23009KT
                       P6SM FEW040 BKN150 BKN250=
201506212102 TAF AMD KSEA 212102Z 2121/2224 34008KT P6SM SCT150 BKN250 FM220600
                       VRB05KT P6SM BKN150 BKN250 FM220800 21008KT
                       P6SM SCT100 BKN150 BKN250=
201506211728 TAF KSEA 211728Z 2118/2224 34008KT P6SM FEW030 BKN150 BKN250 FM220600
                       VRB05KT P6SM BKN150 BKN250 FM220800 21008KT
                       P6SM SCT100 BKN150 BKN250=
201506211509 TAF AMD KSEA 211509Z 2115/2218 02008KT P6SM FEW030 SCT150 BKN250
                       FM211800 34008KT P6SM FEW040 SCT150 BKN250
                       FM220400 21008KT P6SM BKN150 BKN250=
201506211120 TAF KSEA 211120Z 2112/2218 02006KT P6SM BKN250 FM211800 34008KT
                       P6SM SCT120 BKN200 FM220400 21008KT P6SM
                       BKN120 OVC200=
201506210520 TAF KSEA 210520Z 2106/2212 02006KT P6SM BKN250 FM211800 34008KT
                       P6SM SCT250=
201506210234 TAF AMD KSEA 210234Z 2103/2206 35012KT P6SM FEW080 SCT250 FM210500
                       02006KT P6SM BKN250 FM211800 34008KT P6SM
                       SCT250=
201506202321 TAF KSEA 202321Z 2100/2206 31012KT P6SM FEW080 SCT250 FM210500
                       02006KT P6SM BKN250 FM211800 34008KT P6SM
                       SCT250=
201506202102 TAF AMD KSEA 202102Z 2021/2124 31010KT P6SM FEW035 FM210000 34012KT
                       P6SM FEW035 SCT250 FM210500 02006KT P6SM
                       BKN250=
201506201733 TAF KSEA 201733Z 2018/2124 04004KT P6SM FEW035 FM201900 34007KT
                       P6SM SKC FM202100 34011KT P6SM SCT250 FM210500
                       02006KT P6SM BKN250=
201506201502 KSEA 201502Z 2015/2118 04004KT P6SM FEW050 FM201800 34007KT P6SM
                       FEW250 FM202000 34010KT P6SM SCT250 FM210500
                       02006KT P6SM SCT120 BKN250=
201506201120 TAF KSEA 201120Z 2012/2118 04004KT P6SM SCT250 FM202000 34010KT
                       P6SM SCT120 SCT250 FM210500 02006KT P6SM
                       SCT120 BKN250=
201506200520 TAF KSEA 200520Z 2006/2112 02010KT P6SM SCT080 FM201200 04005KT
                       P6SM SKC FM201800 35008KT P6SM SKC=
201506192320 TAF KSEA 192320Z 2000/2106 16004KT P6SM SCT050 SCT070 FM200100
                       35006KT P6SM SCT070 FM200500 02008KT P6SM
                       SCT050 FM201400 04005KT P6SM SCT150 FM201800
                       35008KT P6SM SKC=
201506192040 TAF AMD KSEA 192040Z 1921/2024 24007KT P6SM SCT030 FM192300 36006KT
                       P6SM BKN050 FM200500 02010KT P6SM SCT050
                       BKN150 FM201400 33006KT P6SM SCT150=
201506191927 TAF AMD KSEA 191927Z 1919/2024 21007KT P6SM SCT020 FM192300 36006KT
                       P6SM BKN050 FM200500 02010KT P6SM SCT050
                       BKN150 FM201400 33006KT P6SM SCT150=
201506191721 TAF KSEA 191721Z 1918/2024 23006KT P6SM VCSH FEW006 BKN011 BKN035
                       FM192000 23004KT P6SM SCT005 BKN025 FM192300
                       36006KT P6SM BKN050 FM200500 02010KT P6SM
                       SCT050 BKN150 FM201400 33006KT P6SM SCT150=
201506191644 TAF AMD KSEA 191644Z 1917/2018 20006KT 4SM BR VCSH OVC005 FM192000
                       23004KT P6SM SCT005 BKN025 FM192300 36006KT
                       P6SM BKN050 FM200500 02010KT P6SM SCT050
                       BKN150 FM201400 33006KT P6SM SCT150=
201506191439 TAF AMD KSEA 191439Z 1915/2018 22005KT P6SM VCSH BKN015 BKN030
                       BKN070
                      TEMPO 1915/1918 -RA BKN008 FM191800 VRB04KT
                       P6SM BKN040 BKN080 FM200200 36006KT P6SM
                       BKN050=
201506191120 TAF KSEA 191120Z 1912/2018 22005KT P6SM VCSH SCT015 BKN030 BKN070
                       TEMPO 1912/1915 4SM -SHRA BR BKN012 OVC030
                       FM191800 VRB04KT P6SM BKN040 BKN080 FM200200
                       36006KT P6SM BKN050=
201506190520 TAF KSEA 190520Z 1906/2012 36006KT P6SM VCSH BKN040 OVC080 FM191000
                       VRB04KT P6SM VCSH BKN030 OVC060 FM192200
                       32007KT P6SM BKN040 BKN080=
201506190321 TAF AMD KSEA 190321Z 1903/2006 02012KT P6SM VCSH BKN040 OVC080
                       FM191200 VRB04KT P6SM VCSH BKN030 OVC060
                       FM200000 32007KT P6SM BKN040 BKN080=
201506182324 TAF KSEA 182324Z 1900/2006 00000KT P6SM FEW045 BKN100 BKN200 FM190400
                       31010KT P6SM BKN045 OVC090 FM190900 22013KT
                       P6SM VCSH OVC025 FM200000 32007KT P6SM BKN045=
201506182105 TAF AMD KSEA 182105Z 1821/1924 29006KT P6SM FEW045 BKN110 BKN180
                       FM190000 30008KT P6SM BKN120 OVC200 FM190300
                       30011KT P6SM OVC090 FM190600 22010KT P6SM
                       OVC045 FM190900 19008KT P6SM OVC025 FM191200
                       19007KT P6SM VCSH OVC025=
201506181737 TAF KSEA 181737Z 1818/1924 VRB03KT P6SM BKN120 BKN200 FM190000
                       30008KT P6SM BKN120 OVC200 FM190300 30011KT
                       P6SM OVC090 FM190600 22010KT P6SM OVC045
                       FM190900 19008KT P6SM OVC025 FM191200 19007KT
                       P6SM VCSH OVC025=
201506181507 KSEA 181507Z 1815/1918 00000KT P6SM FEW090 BKN130 BKN200 FM182100
                       33006KT P6SM SCT050 BKN090 OVC150 FM190400
                       VRB04KT P6SM VCSH BKN050 OVC090 FM191100
                       18007KT P6SM -SHRA BKN020 OVC050=
201506181120 TAF KSEA 181120Z 1812/1918 36006KT P6SM BKN120 BKN250 FM182100
                       33006KT P6SM SCT050 BKN090 OVC150 FM190400
                       VRB04KT P6SM VCSH BKN050 OVC090 FM191100
                       18007KT P6SM -SHRA BKN020 OVC050=
201506180520 TAF KSEA 180520Z 1806/1912 02008KT P6SM BKN250 FM181000 VRB03KT
                       P6SM BKN120 BKN250 FM182100 33006KT P6SM
                       BKN120 BKN200 FM190700 VRB04KT P6SM VCSH
                       BKN050 OVC120=
201506172321 TAF KSEA 172321Z 1800/1906 32008KT P6SM SKC FM181000 VRB03KT P6SM
                       BKN120 BKN250 FM182100 33006KT P6SM BKN120
                       BKN200=
201506172100 TAF AMD KSEA 172100Z 1721/1824 31007KT P6SM SKC FM181000 02005KT
                       P6SM BKN120 BKN200
                      TEMPO 1812/1816 BKN020 OVC120 FM181600 20004KT
                       P6SM BKN120 BKN200=
201506171731 TAF KSEA 171731Z 1718/1824 VRB03KT P6SM SCT017 FM172000 31006KT
                       P6SM SKC FM181000 02005KT P6SM BKN120 BKN200
                       TEMPO 1812/1816 BKN020 OVC120 FM181600 20004KT
                       P6SM BKN120 BKN200=
201506171523 TAF AMD KSEA 171523Z 1715/1818 19004KT P6SM FEW009 BKN021 FM171600
                       19004KT P6SM SCT025 FM171700 22007KT P6SM
                       SKC FM172100 31006KT P6SM SKC FM181200 20005KT
                       P6SM SCT020 BKN120 BKN200=
201506171500 TAF AMD KSEA 171500Z 1715/1818 19004KT P6SM FEW009 BKN021 FM171600
                       29006KT P6SM SCT025 FM171700 34007KT P6SM
                       SKC FM181200 20005KT P6SM SCT020 BKN120
                       BKN200=
201506171311 TAF AMD KSEA 171311Z 1713/1818 23003KT P6SM FEW150 SCT250 FM171600
                       29006KT P6SM FEW150 SCT250 FM171900 34007KT
                       P6SM SCT250 FM181200 20005KT P6SM SCT020
                       BKN120 BKN200=
201506171122 TAF KSEA 171122Z 1712/1818 26003KT P6SM FEW170 SCT240
                      TEMPO 1713/1717 BKN012 BKN200 FM171700 29006KT
                       P6SM BKN250 FM181200 22006KT P6SM SCT020=
201506170532 TAF KSEA 170532Z 1706/1812 30004KT P6SM FEW150 BKN210 FM170800
                       22006KT P6SM FEW015 BKN200 FM171100 20004KT
                       P6SM SCT012
                      TEMPO 1711/1714 BKN012 FM171400 20005KT P6SM
                       OVC012 FM171700 29006KT P6SM BKN250=
201506170301 TAF AMD KSEA 170301Z 1703/1806 30004KT P6SM FEW150 BKN210 FM170800
                       22006KT P6SM FEW015 BKN200 FM171100 20004KT
                       P6SM SCT012
                      TEMPO 1711/1714 BKN012 FM171400 20005KT P6SM
                       OVC012 FM171700 29006KT P6SM BKN250=
201506162325 TAF KSEA 162325Z 1700/1806 31007KT P6SM BKN250 FM171200 20004KT
                       P6SM BKN015 FM171700 29006KT P6SM BKN250=
201506162106 KSEA 162106Z 1621/1724 VRB05KT P6SM SCT250 FM171100 21004KT P6SM
                       BKN015 FM171700 23005KT P6SM SCT250=
201506161722 TAF KSEA 161722Z 1618/1724 25009KT P6SM SCT020 SCT250 FM162000
                       31005KT P6SM SCT250 FM171100 21004KT P6SM
                       BKN015 FM171700 23005KT P6SM SCT250=
201506161500 KSEA 161500Z 1615/1718 21006KT P6SM OVC011 FM161700 23008KT P6SM
                       SCT250 FM171200 20007KT P6SM BKN015=
201506161304 TAF AMD KSEA 161304Z 1613/1718 20006KT P6SM FEW008
                      TEMPO 1613/1614 BKN008 FM161400 20007KT P6SM
                       OVC008 FM161700 23008KT P6SM SCT250 FM171200
                       20007KT P6SM BKN015=
201506161125 TAF KSEA 161125Z 1612/1718 20007KT P6SM FEW008
                      TEMPO 1612/1614 BKN008 FM161400 20007KT P6SM
                       OVC008 FM161700 23008KT P6SM SCT250 FM171200
                       20007KT P6SM BKN015=
201506160902 TAF AMD KSEA 160902Z 1609/1712 21007KT P6SM SKC FM161200 22006KT
                       P6SM SCT010
                      TEMPO 1612/1614 BKN010 FM161400 20007KT P6SM
                       OVC010 FM161700 23008KT P6SM SCT250=
201506160537 TAF KSEA 160537Z 1606/1712 34006KT P6SM FEW250 FM161000 22005KT
                       P6SM SKC FM161200 22006KT P6SM SCT010
                      TEMPO 1612/1614 BKN010 FM161400 20007KT P6SM
                       OVC010 FM161700 23008KT P6SM SCT250=
201506160305 TAF AMD KSEA 160305Z 1603/1706 30007KT P6SM FEW050 SCT250 FM161000
                       22005KT P6SM SKC FM161300 20007KT P6SM BKN011
                       FM161600 23009KT P6SM SCT250=
201506152328 TAF KSEA 152328Z 1600/1706 02008KT P6SM BKN250 FM161300 20007KT
                       P6SM BKN011 FM161600 23009KT P6SM SCT250=
201506152112 TAF AMD KSEA 152112Z 1521/1624 29008KT P6SM FEW050 BKN250 FM161000
                       20006KT P6SM SKC FM161200 20006KT P6SM OVC011
                       FM161900 VRB03KT P6SM SKC=
201506151720 TAF KSEA 151720Z 1518/1624 29006KT P6SM BKN230 FM151900 32010KT
                       P6SM SCT200 FM161000 20006KT P6SM SKC FM161200
                       20006KT P6SM OVC011=
201506151505 TAF AMD KSEA 151505Z 1515/1618 01007KT P6SM SCT230 FM151900 32010KT
                       P6SM SKC FM161000 20006KT P6SM SKC FM161200
                       20006KT P6SM OVC011=
201506151305 KSEA 151305Z 1513/1618 03006KT P6SM SCT200 FM151900 32010KT P6SM
                       SKC FM161000 20006KT P6SM SKC FM161200 20006KT
                       P6SM OVC011=
201506151122 TAF KSEA 151122Z 1512/1618 02006KT P6SM SKC FM151900 32010KT P6SM
                       SKC FM161000 20006KT P6SM SKC FM161200 20006KT
                       P6SM OVC011=
201506150909 TAF AMD KSEA 150909Z 1509/1612 02006KT P6SM SKC FM151900 32010KT
                       P6SM SKC FM161100 20006KT P6SM SKC=
201506150528 TAF KSEA 150528Z 1506/1612 02008KT P6SM SKC FM151900 32010KT P6SM
                       SKC FM161100 20006KT P6SM SKC=
201506150323 TAF AMD KSEA 150323Z 1503/1606 35010KT P6SM SKC FM150600 03007KT
                       P6SM SKC FM151900 32010KT P6SM SKC=
201506142320 TAF KSEA 142320Z 1500/1606 33010KT P6SM FEW060 FM150600 03007KT
                       P6SM SKC FM151900 32010KT P6SM SKC=
201506142100 KSEA 142100Z 1421/1524 31010KT P6SM FEW030 FM150600 03006KT P6SM
                       SKC FM152000 32008KT P6SM SKC=
201506141730 TAF KSEA 141730Z 1418/1524 VRB04KT P6SM SKC FM142000 33010KT P6SM
                       SKC FM150600 03006KT P6SM SKC FM152000 32008KT
                       P6SM SKC=
201506141500 TAF AMD KSEA 141500Z 1415/1518 36003KT P6SM SKC FM142000 33010KT
                       P6SM SKC FM150600 03006KT P6SM SKC=
201506141124 TAF KSEA 141124Z 1412/1518 01008KT P6SM SKC
                      TEMPO 1413/1415 SCT002 FM142000 33010KT P6SM
                       SKC FM150600 03006KT P6SM SKC=
201506140901 KSEA 140901Z 1409/1512 01008KT P6SM SKC
                      TEMPO 1413/1415 SCT005 FM142000 33010KT P6SM
                       SKC=
201506140526 TAF KSEA 140526Z 1406/1512 01008KT P6SM SKC
                      TEMPO 1413/1415 SCT005 FM142000 33010KT P6SM
                       SKC=
201506140308 TAF AMD KSEA 140308Z 1403/1506 01008KT P6SM SKC
                      TEMPO 1413/1415 SCT005 FM142000 33010KT P6SM
                       SKC=
201506132330 TAF KSEA 132330Z 1400/1506 30008KT P6SM FEW050 FM140300 32007KT
                       P6SM SKC FM140900 03006KT P6SM SKC
                      TEMPO 1413/1415 SCT005 FM142000 33010KT P6SM
                       SKC=
201506131730 TAF KSEA 131730Z 1318/1424 23004KT P6SM SCT010 FM131900 25006KT
                       P6SM SKC FM132300 36008KT P6SM SKC FM140900
                       03006KT P6SM SKC FM142000 33010KT P6SM SKC=
201506131500 TAF AMD KSEA 131500Z 1315/1418 16005KT P6SM BKN006
                      TEMPO 1316/1317 SCT010 FM131700 29006KT P6SM
                       SKC FM132300 36008KT P6SM SKC=
201506131302 TAF AMD KSEA 131302Z 1313/1418 18003KT P6SM SCT006
                      TEMPO 1313/1316 00000KT 4SM BR OVC006 FM131800
                       29006KT P6SM SKC FM132300 36008KT P6SM SKC=
201506131138 TAF KSEA 131138Z 1312/1418 VRB03KT P6SM SKC FM131800 29006KT P6SM
                       SKC FM132300 36008KT P6SM SKC=
201506130905 TAF AMD KSEA 130905Z 1309/1412 VRB03KT P6SM SKC FM131300 VRB03KT
                       P6SM SCT030 FM131700 29006KT P6SM SCT060
                       FM132300 34008KT P6SM SKC=
201506130532 TAF KSEA 130532Z 1306/1412 34006KT P6SM SCT060 FM131200 VRB03KT
                       P6SM SCT030 SCT060 FM131700 29006KT P6SM
                       SCT060 FM132300 34008KT P6SM SKC=
201506130304 TAF AMD KSEA 130304Z 1303/1406 36006KT P6SM FEW035 BKN070 FM130700
                       36006KT P6SM SCT070 FM131200 VRB03KT P6SM
                       SCT030 SCT060
                      TEMPO 1314/1318 BKN030 BKN060 FM131800 29007KT
                       P6SM SCT060 FM132100 32007KT P6SM SCT060
                       FM140400 36007KT P6SM SKC=
201506122322 TAF KSEA 122322Z 1300/1406 29005KT P6SM FEW035 BKN060 FM130300
                       33005KT P6SM SCT060 FM131200 VRB03KT P6SM
                       SCT030 SCT060
                      TEMPO 1314/1318 BKN030 BKN060 FM131800 29007KT
                       P6SM SCT060 FM132100 32007KT P6SM SCT060
                       FM140400 36007KT P6SM SKC=
201506122218 TAF AMD KSEA 122218Z 1222/1324 25007KT P6SM FEW035 BKN060 FM130000
                       29006KT P6SM SCT060 FM130300 35006KT P6SM
                       SCT060 FM131200 VRB03KT P6SM BKN030 BKN060
                       FM131800 32008KT P6SM SCT035 SCT060=
201506122048 KSEA 122048Z 1221/1324 25007KT P6SM SCT040 FM130000 29006KT P6SM
                       SCT050 FM130300 35006KT P6SM SCT060 FM131200
                       VRB03KT P6SM BKN030 BKN060 FM131800 32008KT
                       P6SM SCT035 SCT060=
201506121956 TAF AMD KSEA 121956Z 1220/1324 21009KT P6SM BKN035 FM130000 29006KT
                       P6SM SCT035 SCT060 FM130300 35006KT P6SM
                       SCT060 FM131200 VRB03KT P6SM BKN030 BKN060
                       FM131800 32008KT P6SM SCT035 SCT060=
201506121741 TAF KSEA 121741Z 1218/1324 24009KT P6SM BKN020 BKN035 FM122100
                       24009KT P6SM BKN035 BKN060 FM130000 29006KT
                       P6SM SCT035 SCT060 FM130300 35006KT P6SM
                       SCT060 FM131200 VRB03KT P6SM BKN030 BKN060
                       FM131800 32008KT P6SM SCT035 SCT060=
201506121411 TAF AMD KSEA 121411Z 1214/1318 20006KT P6SM OVC020 FM121900 VRB04KT
                       P6SM BKN050 FM122300 33008KT P6SM BKN050
                       FM130400 02008KT P6SM SCT050=
201506121126 TAF KSEA 121126Z 1212/1318 22006KT P6SM OVC030 FM121400 22006KT
                       P6SM OVC035 FM121900 VRB04KT P6SM BKN050
                       FM122300 33008KT P6SM BKN050 FM130400 02008KT
                       P6SM SCT050=
201506120909 KSEA 120909Z 1209/1312 04008KT P6SM BKN050 FM121600 VRB04KT P6SM
                       BKN050 FM122300 34008KT P6SM BKN050=
201506120528 TAF KSEA 120528Z 1206/1312 01008KT P6SM BKN050 FM121100 VRB03KT
                       P6SM BKN050 FM121400 19008KT P6SM BKN050
                       FM122100 24008KT P6SM SCT060 FM130000 34008KT
                       P6SM SCT060=
201506120320 TAF AMD KSEA 120320Z 1203/1306 01008KT P6SM SCT060 FM120800 VRB03KT
                       P6SM FEW080 FM121400 19008KT P6SM OVC022
                       FM121800 24009KT P6SM BKN028 BKN060 FM122100
                       24009KT P6SM SCT035 SCT060 FM130000 32008KT
                       P6SM SCT060=
201506112322 TAF KSEA 112322Z 1200/1306 24009KT P6SM FEW080 FM120300 32009KT
                       P6SM FEW080 FM120600 03012KT P6SM FEW080
                       FM121200 19008KT P6SM OVC018 FM122000 24009KT
                       P6SM BKN028 BKN060 FM122100 24009KT P6SM
                       SCT035 SCT060 FM130000 32008KT P6SM SCT060=
201506112100 KSEA 112100Z 1121/1224 23011KT P6SM SCT250 FM120300 32009KT P6SM
                       BKN250 FM120600 05009KT P6SM BKN250 FM120900
                       17006KT P6SM FEW025 BKN250 FM121200 19008KT
                       P6SM OVC018 FM122000 24010KT P6SM BKN028
                       BKN250=
201506111723 TAF KSEA 111723Z 1118/1224 20009KT P6SM FEW020 SCT250 FM120000
                       23013KT P6SM FEW030 BKN250 FM120300 32009KT
                       P6SM BKN250 FM120600 05009KT P6SM BKN250
                       FM120900 17006KT P6SM FEW025 BKN250 FM121200
                       19008KT P6SM OVC018 FM122000 24010KT P6SM
                       BKN028 BKN250=
201506111426 TAF AMD KSEA 111426Z 1114/1218 17005KT P6SM SCT010
                      TEMPO 1114/1118 BKN010 FM111800 20008KT P6SM
                       FEW018 SCT250 FM120000 23012KT P6SM SCT250
                       FM120600 VRB03KT P6SM SCT250 FM121300 21006KT
                       P6SM BKN022=
201506111302 TAF AMD KSEA 111302Z 1113/1218 21006KT P6SM SCT010 FM111700 21006KT
                       P6SM SCT250 FM120000 32006KT P6SM SCT250
                       FM120600 VRB03KT P6SM SCT250 FM121300 21006KT
                       P6SM BKN022=
201506111124 TAF KSEA 111124Z 1112/1218 21006KT P6SM SKC FM111400 21006KT P6SM
                       SCT010 FM111700 21006KT P6SM SCT250 FM120000
                       32006KT P6SM SCT250 FM120600 VRB03KT P6SM
                       SCT250 FM121300 21006KT P6SM BKN022=
201506110910 TAF AMD KSEA 110910Z 1109/1212 22008KT P6SM FEW250 FM111400 22008KT
                       P6SM BKN012
                      TEMPO 1117/1118 SCT012 FM111800 22008KT P6SM
                       SCT250 FM120000 32006KT P6SM SCT250 FM120600
                       VRB03KT P6SM SCT250 FM121100 21006KT P6SM
                       BKN012=
201506110534 TAF KSEA 110534Z 1106/1212 22008KT P6SM FEW250 FM111200 22008KT
                       P6SM BKN009 FM111600 22008KT P6SM BKN012
                       FM111900 22008KT P6SM SCT250 FM120000 32006KT
                       P6SM SCT250 FM120600 VRB03KT P6SM SCT250
                       FM121100 21006KT P6SM BKN012=
201506110303 TAF AMD KSEA 110303Z 1103/1206 22008KT P6SM FEW250 FM111200 22008KT
                       P6SM BKN012 FM111900 22008KT P6SM SCT250=
201506102320 TAF KSEA 102320Z 1100/1206 VRB04KT P6SM FEW250 FM111200 19006KT
                       P6SM BKN012 FM111900 23008KT P6SM SCT250=
201506102108 TAF AMD KSEA 102108Z 1021/1124 24008KT P6SM FEW080 SCT250 FM110300
                       27005KT P6SM SCT250 FM111200 19005KT P6SM
                       OVC009 FM111800 22009KT P6SM OVC015 FM112000
                       24011KT P6SM SCT028 SCT250=
201506101725 TAF KSEA 101725Z 1018/1124 21008KT P6SM SKC FM102000 24008KT P6SM
                       SCT250 FM110300 27005KT P6SM SCT250 FM111200
                       19005KT P6SM OVC009 FM111800 22009KT P6SM
                       OVC015 FM112000 24011KT P6SM SCT028 SCT250=
201506101500 TAF AMD KSEA 101500Z 1015/1118 21006KT P6SM SCT007 FM101900 25008KT
                       P6SM SKC FM102200 31008KT P6SM SKC FM110500
                       20004KT P6SM SKC FM111300 18004KT P6SM OVC010=
201506101300 TAF AMD KSEA 101300Z 1013/1118 21006KT P6SM FEW006 FM101900 25008KT
                       P6SM SKC FM102200 31008KT P6SM SKC FM110500
                       20004KT P6SM SKC FM111300 18004KT P6SM OVC010=
201506101123 TAF KSEA 101123Z 1012/1118 21006KT P6SM FEW006 FM101900 25008KT
                       P6SM SKC FM102200 31008KT P6SM SKC FM110500
                       20004KT P6SM SKC FM111300 18004KT P6SM OVC010=
201506100901 TAF AMD KSEA 100901Z 1009/1112 20004KT P6SM SKC FM101200 20004KT
                       P6SM FEW005 FM101900 30008KT P6SM SKC FM110400
                       02005KT P6SM SKC=
201506100520 TAF KSEA 100520Z 1006/1112 36005KT P6SM SKC FM100700 02004KT P6SM
                       SKC FM101200 VRB04KT P6SM FEW005 FM101900
                       30008KT P6SM SKC FM110400 02005KT P6SM SKC=
201506100302 TAF AMD KSEA 100302Z 1003/1106 36008KT P6SM FEW250 FM100500 03005KT
                       P6SM SKC FM101200 VRB04KT P6SM FEW005 FM101900
                       30008KT P6SM SKC=
201506092328 TAF KSEA 092328Z 1000/1106 29005KT P6SM FEW250 FM100500 03005KT
                       P6SM SKC FM101200 20005KT P6SM SKC=
201506092101 KSEA 092101Z 0921/1024 30004KT P6SM FEW250 FM100500 03005KT P6SM
                       SKC FM101200 20005KT P6SM SKC=
201506091723 TAF KSEA 091723Z 0918/1024 30003KT P6SM FEW250 FM091900 33009KT
                       P6SM SKC FM100500 03005KT P6SM SKC FM101200
                       20005KT P6SM SKC=
201506091501 TAF AMD KSEA 091501Z 0915/1018 29005KT P6SM SCT250 FM091900 33009KT
                       P6SM SKC FM100500 03005KT P6SM SKC FM101200
                       20005KT P6SM SKC=
201506091300 TAF AMD KSEA 091300Z 0913/1018 03005KT P6SM SKC FM091900 33009KT
                       P6SM SKC FM100500 03005KT P6SM SKC FM101200
                       20005KT P6SM SKC=
201506091120 TAF KSEA 091120Z 0912/1018 03005KT P6SM SKC FM091900 33009KT P6SM
                       SKC FM100500 03005KT P6SM SKC FM101200 20005KT
                       P6SM SKC=
201506090520 TAF KSEA 090520Z 0906/1012 03005KT P6SM SKC FM091900 33009KT P6SM
                       SKC FM100500 03005KT P6SM SKC=
201506090309 TAF AMD KSEA 090309Z 0903/1006 36009KT P6SM SKC FM090500 03005KT
                       P6SM SKC FM091900 30009KT P6SM SKC=
201506082332 TAF KSEA 082332Z 0900/1006 30009KT P6SM SKC FM090500 03005KT P6SM
                       SKC=
201506082101 TAF AMD KSEA 082101Z 0821/0924 29010KT P6SM SKC FM090500 03005KT
                       P6SM SKC=
201506081736 TAF KSEA 081736Z 0818/0924 29006KT P6SM SKC FM082000 33010KT P6SM
                       SKC FM090500 03005KT P6SM SKC=
201506081500 TAF AMD KSEA 081500Z 0815/0918 35007KT P6SM SKC FM082000 33010KT
                       P6SM SKC FM090500 03005KT P6SM SKC=
201506081120 TAF KSEA 081120Z 0812/0918 01005KT P6SM SKC FM082000 33010KT P6SM
                       SKC FM090500 03005KT P6SM SKC=
201506080901 KSEA 080901Z 0809/0912 01005KT P6SM SKC FM082000 33010KT P6SM SKC
                       FM090500 03005KT P6SM SKC=
201506080520 TAF KSEA 080520Z 0806/0912 03006KT P6SM SKC FM081000 VRB03KT P6SM
                       SKC FM082000 33010KT P6SM SKC FM090500 03005KT
                       P6SM SKC=
201506080300 TAF AMD KSEA 080300Z 0803/0906 36008KT P6SM SKC FM080500 04006KT
                       P6SM SKC FM081000 VRB03KT P6SM SKC FM082000
                       33010KT P6SM SKC=
201506072322 TAF KSEA 072322Z 0800/0906 33010KT P6SM SKC FM080600 04006KT P6SM
                       SKC FM081000 VRB03KT P6SM SKC FM082100 33010KT
                       P6SM SKC=
201506072106 TAF AMD KSEA 072106Z 0721/0824 30008KT P6SM SKC FM072300 34012KT
                       P6SM SKC FM080600 04006KT P6SM SKC FM081000
                       VRB03KT P6SM SKC FM082100 34012KT P6SM SKC=
201506071720 TAF KSEA 071720Z 0718/0824 33008KT P6SM SKC FM080600 VRB03KT P6SM
                       SKC=
201506071128 TAF KSEA 071128Z 0712/0818 01004KT P6SM SKC FM071900 33010KT P6SM
                       SKC FM080400 02005KT P6SM SKC=
201506070520 TAF KSEA 070520Z 0706/0812 03005KT P6SM SCT250 FM071900 33010KT
                       P6SM SKC FM080400 03005KT P6SM SKC=
201506062320 TAF KSEA 062320Z 0700/0806 33010KT P6SM SCT250 FM070400 03005KT
                       P6SM SKC FM072100 33010KT P6SM SKC=
201506061720 TAF KSEA 061720Z 0618/0724 30005KT P6SM SKC FM062100 34012KT P6SM
                       SKC FM070400 03005KT P6SM SKC=
201506061304 TAF AMD KSEA 061304Z 0613/0718 00000KT P6SM FEW100 FM061600 36004KT
                       P6SM SKC FM061900 34012KT P6SM SKC FM070400
                       03005KT P6SM SKC=
201506061120 TAF KSEA 061120Z 0612/0718 04005KT P6SM SKC FM061400 03005KT P6SM
                       VCFG SKC FM061600 36004KT P6SM SKC FM061900
                       34012KT P6SM SKC FM070400 03005KT P6SM SKC=
201506060906 KSEA 060906Z 0609/0712 03005KT P6SM SKC FM061300 03005KT P6SM VCFG
                       SKC FM061600 36004KT P6SM SKC FM061900 34012KT
                       P6SM SKC FM070400 03005KT P6SM SKC=
201506060520 TAF KSEA 060520Z 0606/0712 03005KT P6SM SKC FM061900 34012KT P6SM
                       SKC FM070400 03005KT P6SM SKC=
201506060307 TAF AMD KSEA 060307Z 0603/0706 36008KT P6SM FEW250 FM060500 04005KT
                       P6SM SKC FM062000 34012KT P6SM SKC=
201506052320 TAF KSEA 052320Z 0600/0706 34014KT P6SM FEW250 FM060400 04006KT
                       P6SM SKC FM062000 34012KT P6SM SKC=
201506051720 TAF KSEA 051720Z 0518/0624 32008KT P6SM SKC FM060400 04006KT P6SM
                       SKC=
201506051120 TAF KSEA 051120Z 0512/0618 04008KT P6SM SKC FM051500 02005KT P6SM
                       SKC FM051900 33010KT P6SM SKC FM060400 04006KT
                       P6SM SKC=
201506050902 KSEA 050902Z 0509/0612 04009KT P6SM SKC FM051200 02005KT P6SM SKC
                       FM051900 33010KT P6SM SKC=
201506050520 TAF KSEA 050520Z 0506/0612 35008KT P6SM FEW050 FM050700 04005KT
                       P6SM SKC FM051900 33010KT P6SM SKC=
201506050301 TAF AMD KSEA 050301Z 0503/0606 35008KT P6SM FEW050 FM050500 04005KT
                       P6SM SKC FM051900 33010KT P6SM SKC=
201506042324 TAF KSEA 042324Z 0500/0606 34010KT P6SM SCT040 BKN060 FM050300
                       35008KT P6SM FEW040 FM050500 04005KT P6SM
                       SKC FM051900 33010KT P6SM SKC=
201506042101 KSEA 042101Z 0421/0524 30008KT P6SM SCT035
                      TEMPO 0421/0423 BKN035 FM042300 34008KT P6SM
                       SCT040 FM050200 35010KT P6SM SKC FM050500
                       04005KT P6SM SKC=
201506041720 TAF KSEA 041720Z 0418/0524 01008KT P6SM FEW025 BKN050
                      TEMPO 0418/0422 FEW025 SCT050 FM042200 34008KT
                       P6SM SCT060 FM050200 35010KT P6SM SKC FM050500
                       04005KT P6SM SKC=
201506041502 TAF AMD KSEA 041502Z 0415/0518 36007KT P6SM FEW030 BKN060 FM042000
                       34008KT P6SM SCT060 FM050000 35010KT P6SM
                       SKC FM050400 04005KT P6SM SKC=
201506041301 TAF AMD KSEA 041301Z 0413/0518 02006KT P6SM FEW040 BKN060 FM041800
                       33005KT P6SM FEW040 BKN060 FM042000 34008KT
                       P6SM SCT050 FM050000 35010KT P6SM SKC FM050400
                       04005KT P6SM SKC=
201506041128 TAF KSEA 041128Z 0412/0518 03008KT P6SM OVC040 FM041800 33005KT
                       P6SM BKN040 BKN080 FM042000 34008KT P6SM
                       SCT050 FM050000 35010KT P6SM SKC FM050400
                       04005KT P6SM SKC=
201506040902 KSEA 040902Z 0409/0512 03008KT P6SM OVC035 FM041500 VRB03KT P6SM
                       BKN035 OVC060 FM042000 34008KT P6SM SCT040
                       SCT080=
201506040526 TAF KSEA 040526Z 0406/0512 02008KT P6SM BKN030 BKN070 FM040900
                       VRB03KT P6SM BKN030 OVC060 FM042000 34008KT
                       P6SM SCT040 SCT080=
201506040303 TAF AMD KSEA 040303Z 0403/0506 33004KT P6SM FEW035 BKN070 BKN250
                       FM040600 02004KT P6SM BKN040 BKN070 FM041100
                       VRB03KT P6SM BKN020 OVC040 FM042000 32008KT
                       P6SM SCT040 SCT150=
201506032320 TAF KSEA 032320Z 0400/0506 33004KT P6SM SCT030 BKN250 FM040600
                       02004KT P6SM BKN040 BKN150 FM041100 VRB03KT
                       P6SM BKN020 OVC040 FM042000 32008KT P6SM
                       SCT040 SCT150=
201506032103 TAF AMD KSEA 032103Z 0321/0424 26005KT P6SM SCT030 BKN150
                      TEMPO 0321/0401 BKN030 OVC150 FM040600 02004KT
                       P6SM OVC030 FM042000 32008KT P6SM SCT040=
201506031720 TAF KSEA 031720Z 0318/0424 23005KT P6SM BKN015 OVC030 FM032000
                       25006KT P6SM BKN025 BKN060 FM032200 33006KT
                       P6SM SCT040 BKN060 BKN120 FM040600 02004KT
                       P6SM OVC030 FM042000 32008KT P6SM SCT040=
201506031500 KSEA 031500Z 0315/0418 19004KT P6SM BKN015 OVC060 FM031900 25006KT
                       P6SM BKN025 BKN060 FM032100 33006KT P6SM
                       SCT040 BKN060 BKN120 FM040600 02004KT P6SM
                       OVC030=
201506031125 TAF KSEA 031125Z 0312/0418 19005KT P6SM OVC017 FM031900 25006KT
                       P6SM BKN025 BKN060 FM032100 33006KT P6SM
                       SCT040 BKN060 BKN120 FM040600 02004KT P6SM
                       OVC030=
201506030904 TAF AMD KSEA 030904Z 0309/0412 19005KT P6SM OVC020 FM031900 25006KT
                       P6SM SCT030 BKN060 FM032200 30006KT P6SM
                       FEW035 SCT060 BKN150=
201506030520 TAF KSEA 030520Z 0306/0412 21008KT P6SM BKN025 OVC060 FM030900
                       21008KT P6SM BKN015 OVC030 FM031900 25006KT
                       P6SM SCT030 BKN060 FM032200 30006KT P6SM
                       FEW035 SCT060 BKN150=
201506030305 TAF AMD KSEA 030305Z 0303/0406 21009KT P6SM FEW025 BKN070 OVC100
                       FM030500 21008KT P6SM BKN025 OVC060 FM030900
                       21008KT P6SM BKN015 OVC030 FM031900 25006KT
                       P6SM SCT030 BKN060 FM032200 30006KT P6SM
                       FEW035 SCT060 BKN150=
201506022322 TAF KSEA 022322Z 0300/0406 21009KT P6SM FEW030 BKN070 OVC100 FM030500
                       21008KT P6SM BKN030 OVC060 FM030900 21008KT
                       P6SM BKN015 OVC030 FM031900 25006KT P6SM
                       SCT030 BKN060 FM032200 30006KT P6SM FEW035
                       SCT060 BKN150=
201506022003 TAF AMD KSEA 022003Z 0220/0324 21010KT P6SM SCT020 OVC080
                      TEMPO 0220/0224 -SHRA BKN020 OVC050 FM030500
                       21008KT P6SM BKN020 OVC060 FM030900 21008KT
                       P6SM BKN012 OVC020=
201506021819 TAF AMD KSEA 021819Z 0218/0324 22013KT P6SM SCT015 BKN050 OVC100
                       TEMPO 0218/0221 BKN015 OVC050 FM022100 21008KT
                       P6SM -SHRA BKN023 OVC060 FM030500 21008KT
                       P6SM BKN012 OVC023=
201506021720 TAF KSEA 021720Z 0218/0324 21008KT P6SM BKN015 OVC060 FM022100
                       21008KT P6SM -SHRA BKN023 OVC060 FM030500
                       21008KT P6SM BKN012 OVC023=
201506021507 TAF AMD KSEA 021507Z 0215/0318 20008KT P6SM SCT008 BKN015 OVC070
                       TEMPO 0215/0218 -SHRA BKN008 OVC015 FM021800
                       20009KT P6SM -SHRA OVC015 FM022000 21008KT
                       P6SM -SHRA OVC023=
201506021310 TAF AMD KSEA 021310Z 0213/0318 20009KT P6SM BKN008 OVC012
                      TEMPO 0213/0216 SCT008 OVC014 FM021600 20009KT
                       P6SM -SHRA OVC015 FM022000 21008KT P6SM
                       -SHRA OVC023=
201506021120 TAF KSEA 021120Z 0212/0318 19010KT P6SM VCSH BKN015 OVC040 FM021300
                       20010KT P6SM VCSH OVC015 FM021600 20009KT
                       P6SM -SHRA OVC015 FM022000 21008KT P6SM
                       -SHRA OVC023=
201506020902 KSEA 020902Z 0209/0312 19005KT P6SM SCT015 OVC040
                      TEMPO 0209/0213 BKN015 FM021300 20005KT P6SM
                       OVC015 FM021600 20008KT P6SM -SHRA OVC015
                       FM022000 21008KT P6SM -SHRA OVC023=
201506020520 TAF KSEA 020520Z 0206/0312 19005KT P6SM BKN020 OVC050 FM020800
                       19006KT P6SM VCSH OVC015 FM021600 20008KT
                       P6SM -SHRA OVC015 FM022000 21008KT P6SM
                       -SHRA OVC023=
201506020302 KSEA 020302Z 0203/0306 19005KT P6SM BKN020 OVC050 FM020800 19006KT
                       P6SM OVC015 FM021600 20008KT P6SM -SHRA
                       OVC015 FM022000 21008KT P6SM -SHRA OVC023=
201506012320 TAF KSEA 012320Z 0200/0306 22007KT P6SM BKN017 OVC050
                      TEMPO 0200/0203 SCT017 BKN060 OVC100 FM020600
                       19006KT P6SM OVC015 FM021600 20008KT P6SM
                       -SHRA OVC015 FM022000 21008KT P6SM -SHRA
                       OVC023=
201506012209 TAF AMD KSEA 012209Z 0122/0224 22005KT P6SM SCT015 BKN060 OVC100
                       TEMPO 0122/0201 BKN015 OVC060 FM020600 19006KT
                       P6SM OVC020=
201506012101 KSEA 012101Z 0121/0224 23009KT P6SM BKN016 BKN060 OVC100 FM012300
                       23008KT P6SM BKN025 BKN060 OVC100 FM020600
                       19006KT P6SM OVC020=
201506011720 TAF KSEA 011720Z 0118/0224 18006KT P6SM -SHRA BKN015 OVC090
                      TEMPO 0118/0121 4SM SHRA BR BKN010 OVC015
                       FM012100 21006KT P6SM SCT020 OVC050 FM020600
                       19006KT P6SM OVC020=
201506011500 KSEA 011500Z 0115/0218 22004KT P6SM BKN009 BKN160 FM011700 22010KT
                       P6SM -SHRA SCT013 SCT025 OVC050 FM020200
                       21007KT P6SM -SHRA OVC020=
201506011310 TAF AMD KSEA 011310Z 0113/0218 20012KT P6SM BKN007 OVC210
                      TEMPO 0113/0117 OVC007 FM011700 22010KT P6SM
                       -SHRA SCT013 SCT025 OVC050 FM020200 21007KT
                       P6SM -SHRA OVC020=
201506011120 TAF KSEA 011120Z 0112/0218 21004KT P6SM FEW110 SCT210 FM011300
                       20007KT 5SM BR BKN004 OVC100 FM011400 22012KT
                       P6SM VCTS BKN015 OVC070CB FM011900 22012KT
                       P6SM -SHRA VCTS SCT025 OVC050CB FM020200
                       21007KT P6SM -SHRA OVC020=
201506010900 TAF AMD KSEA 010900Z 0109/0212 00000KT P6SM FEW110 OVC210 FM011200
                       21014G24KT P6SM -SHRA VCTS BKN020 OVC050CB
                       FM011900 22012KT P6SM -SHRA SCT025 OVC050
                       FM020200 21007KT P6SM -SHRA OVC020=
201506010523 TAF KSEA 010523Z 0106/0212 36007KT P6SM SCT140 BKN210 FM011000
                       21014G24KT P6SM BKN050 OVC120 FM011300 21014G24KT
                       P6SM -SHRA VCTS BKN020 OVC050CB FM011900
                       22012KT P6SM -SHRA SCT025 OVC050 FM020200
                       21007KT P6SM -SHRA OVC020=
201506010305 TAF AMD KSEA 010305Z 0103/0206 35006KT P6SM FEW140 BKN170 FM011000
                       21014G24KT P6SM BKN050 OVC120 FM011300 21014G24KT
                       P6SM -SHRA VCTS BKN020 OVC050CB FM011900
                       22012KT P6SM -SHRA SCT025 BKN040 OVC060=