##########################################################
# Query made at 02/17/2025 19:32:08 UTC
# Time interval: from 08/01/2015 00:00  to 08/31/2015 23:59  UTC
##########################################################

##########################################################
# KSEA, Seattle, Seattle-Tacoma International Airport (United States)
# WMO index: 72793. WIGOS ID: 0-20000-0-72793
# Latitude 47-27-00N. Longitude 122-17-59W. Altitude 130 m.
##########################################################

###################################
#  METAR/SPECI from KSEA
###################################
201508312353 METAR KSEA 312353Z 20011KT 10SM SCT026 BKN030 OVC110 18/13 A2994 RMK AO2 SLP144 60000 T01830133 10183 20161 56013=
201508312331 SPECI KSEA 312331Z 19013KT 10SM BKN026 BKN034 OVC085 18/13 A2995 RMK AO2=
201508312253 METAR KSEA 312253Z 20009G19KT 10SM SCT026 BKN031 OVC120 18/13 A2996 RMK AO2 SLP148 T01830133=
201508312153 METAR KSEA 312153Z 20014G20KT 10SM SCT026 BKN050 OVC110 18/13 A2997 RMK AO2 RAE05 SLP151 P0000 T01780128=
201508312116 SPECI KSEA 312116Z 20013G18KT 10SM BKN026 OVC045 18/13 A2997 RMK AO2 RAE05 P0000=
201508312053 METAR KSEA 312053Z 19011G18KT 10SM -RA FEW020 BKN031 OVC049 18/13 A2998 RMK AO2 RAB51 SLP157 P0000 60000 T01780128 58004=
201508311953 METAR KSEA 311953Z 19012KT 10SM SCT031 BKN080 OVC200 17/13 A2999 RMK AO2 RAE19 SLP161 P0000 T01720128=
201508311853 METAR KSEA 311853Z 19011KT 10SM -RA FEW025 BKN046 OVC200 17/13 A3000 RMK AO2 RAB50 SLP164 P0000 T01670128=
201508311753 METAR KSEA 311753Z 19013KT 10SM SCT025 BKN043 OVC200 17/12 A2999 RMK AO2 SLP162 60000 T01670122 10172 20161 53005=
201508311729 SPECI KSEA 311729Z 21012KT 10SM SCT025 BKN043 OVC200 17/12 A2999 RMK AO2 $=
201508311653 METAR KSEA 311653Z 21013G21KT 10SM BKN024 OVC200 17/12 A2999 RMK AO2 PK WND 21026/1558 SLP159 T01670117=
201508311553 METAR KSEA 311553Z 20014G20KT 10SM OVC028 17/11 A2997 RMK AO2 SLP155 T01720106=
201508311453 METAR KSEA 311453Z 21009G22KT 10SM OVC028 16/11 A2998 RMK AO2 RAB40E51 SLP156 P0000 60000 T01610111 53003=
201508311440 SPECI KSEA 311440Z 20015G21KT 9SM -RA OVC028 17/10 A2997 RMK AO2 RAB40 P0000=
201508311353 METAR KSEA 311353Z 19011KT 10SM OVC032 17/10 A2996 RMK AO2 SLP150 T01720100=
201508311253 METAR KSEA 311253Z 18012KT 10SM OVC031 17/10 A2996 RMK AO2 RAB29E38 SLP148 P0000 T01670100=
201508311153 METAR KSEA 311153Z 18011G15KT 10SM OVC033 17/09 A2997 RMK AO2 SLP152 70035 T01670094 10172 20167 56009=
201508311053 METAR KSEA 311053Z 17013KT 10SM BKN033 OVC050 17/09 A2997 RMK AO2 SLP154 T01670089=
201508310953 METAR KSEA 310953Z 18012KT 10SM BKN045 OVC060 17/09 A2998 RMK AO2 SLP157 T01720094=
201508310853 METAR KSEA 310853Z 19011KT 10SM FEW050 OVC060 17/10 A3000 RMK AO2 SLP162 T01670100 58003=
201508310753 METAR KSEA 310753Z 18010G17KT 10SM BKN065 OVC100 17/10 A3000 RMK AO2 SLP165 T01670100 402000128=
201508310653 METAR KSEA 310653Z 19011KT 10SM SCT090 OVC110 17/09 A3001 RMK AO2 SLP166 T01670094=
201508310553 METAR KSEA 310553Z 19011KT 10SM BKN100 BKN110 17/10 A3001 RMK AO2 SLP166 T01670100 10200 20167 50003=
201508310453 METAR KSEA 310453Z 20009KT 10SM BKN130 17/11 A3001 RMK AO2 SLP169 T01670111=
201508310400 METAR KSEA NIL=
201508310353 METAR KSEA 310353Z 21009KT 10SM FEW031 BKN080 BKN120 17/11 A3001 RMK AO2 SLP169 T01670111=
201508310253 METAR KSEA 310253Z 21010KT 10SM SCT045 BKN085 BKN200 17/11 A3000 RMK AO2 SLP163 T01720106 53008=
201508310153 METAR KSEA 310153Z 22009KT 10SM FEW050 BKN080 BKN200 18/11 A2998 RMK AO2 SLP157 T01830106=
201508310053 METAR KSEA 310053Z 24009KT 10SM FEW035 SCT060 BKN100 19/12 A2998 RMK AO2 SLP156 T01940117=
201508302353 METAR KSEA 302353Z 23010KT 10SM SCT035 BKN130 19/11 A2997 RMK AO2 SLP155 60002 T01890111 10200 20161 52003=
201508302253 METAR KSEA 302253Z 23013G17KT 10SM FEW035 BKN085 BKN120 19/11 A2997 RMK AO2 SLP154 T01940111=
201508302153 METAR KSEA 302153Z 22012KT 10SM FEW030 SCT065 BKN095 19/11 A2997 RMK AO2 SLP153 T01890111=
201508302053 METAR KSEA 302053Z 22012G19KT 10SM FEW030 SCT065 BKN110 19/12 A2996 RMK AO2 RAE05 SLP151 P0000 60002 T01890117 51013=
201508301953 METAR KSEA 301953Z 22011G17KT 10SM -RA FEW030 BKN041 OVC060 17/12 A2995 RMK AO2 SLP147 P0001 T01720117=
201508301853 METAR KSEA 301853Z 19008KT 10SM -RA SCT028 BKN055 OVC070 17/13 A2994 RMK AO2 RAB27 SLP144 P0001 T01670128=
201508301753 METAR KSEA 301753Z 19015KT 10SM SCT014 BKN023 OVC100 17/13 A2992 RMK AO2 SLP138 60033 T01720133 10172 20128 53018=
201508301653 METAR KSEA 301653Z 18009KT 10SM FEW008 SCT014 BKN023 16/14 A2990 RMK AO2 SLP131 T01560139=
201508301553 METAR KSEA 301553Z 16005KT 10SM SCT008 BKN023 OVC060 13/12 A2989 RMK AO2 RAB35E49 SLP126 P0003 T01330122=
201508301453 METAR KSEA 301453Z 16009KT 10SM BKN005 BKN030 BKN070 13/12 A2987 RMK AO2 RAE13 SLP120 P0001 60030 T01330122 53021=
201508301442 SPECI KSEA 301442Z 16009KT 10SM BKN005 BKN070 13/12 A2986 RMK AO2 RAE13 P0001=
201508301353 METAR KSEA 301353Z 16008KT 6SM RA BR FEW008 BKN030 OVC060 13/12 A2983 RMK AO2 SLP108 P0014 T01330122=
201508301313 SPECI KSEA 301313Z 18010KT 6SM RA BR SCT008 BKN027 OVC060 13/12 A2982 RMK AO2 P0006=
201508301253 METAR KSEA 301253Z 18009KT 3SM +RA BR FEW004 BKN008 OVC027 14/12 A2982 RMK AO2 SLP102 P0015 T01390122=
201508301248 SPECI KSEA 301248Z 17008KT 4SM +RA BR FEW004 BKN008 OVC060 14/13 A2982 RMK AO2 P0013=
201508301153 METAR KSEA 301153Z 18005KT 5SM RA BR FEW008 BKN055 OVC070 14/13 A2981 RMK AO2 SLP098 P0004 60057 70131 T01390128 10139 20133 50008=
201508301053 METAR KSEA 301053Z 20004KT 9SM -RA SCT013 BKN027 14/13 A2981 RMK AO2 RAB34 SLP098 P0001 T01390128=
201508300953 METAR KSEA 300953Z 19006KT 10SM SCT015 BKN027 13/12 A2979 RMK AO2 SLP092 T01330122=
201508300853 METAR KSEA 300853Z 18006KT 10SM FEW031 13/12 A2978 RMK AO2 RAE06 SLP090 P0001 60052 T01330122 55001=
201508300753 METAR KSEA 300753Z 18005KT 5SM RA BR SCT055 BKN070 OVC095 13/12 A2976 RMK AO2 SLP084 P0015 T01330122 402220133=
201508300729 SPECI KSEA 300729Z 20009KT 7SM RA FEW055 OVC070 14/13 A2978 RMK AO2 P0013=
201508300653 METAR KSEA 300653Z 24009KT 2SM +RA BR FEW005 BKN015 OVC027 13/12 A2979 RMK AO2 SLP092 P0036 T01330122=
201508300637 SPECI KSEA 300637Z 24007KT 1 3/4SM +RA BR FEW008 BKN015 OVC034 13/12 A2979 RMK AO2 P0014=
201508300553 METAR KSEA 300553Z 18009KT 4SM RA BR SCT005 SCT010 OVC020 14/13 A2978 RMK AO2 SLP091 P0022 60040 T01390133 10206 20139 50010=
201508300522 SPECI KSEA 300522Z 19005KT 6SM -RA BR SCT004 BKN035 OVC080 14/13 A2978 RMK AO2 P0015=
201508300505 SPECI KSEA 300505Z 22006KT 2SM +RA BR SCT006 BKN020 OVC030 14/13 A2979 RMK AO2 P0008=
201508300453 METAR KSEA 300453Z 23006KT 4SM +RA BR SCT006 BKN029 OVC039 14/13 A2980 RMK AO2 SLP095 P0014 T01440133=
201508300412 SPECI KSEA 300412Z 27008KT 5SM -RA BR FEW006 BKN033 OVC049 14/13 A2978 RMK AO2 P0004=
201508300353 METAR KSEA 300353Z 28008KT 3SM RA BR BKN008 BKN041 OVC055 16/14 A2978 RMK AO2 RAB22 SLP090 P0004 T01610139=
201508300351 SPECI KSEA 300351Z 29009G19KT 3SM +RA BR BKN008 BKN041 OVC055 16/14 A2978 RMK AO2 RAB22 P0003=
201508300253 METAR KSEA 300253Z 20009KT 10SM FEW040 OVC060 19/12 A2975 RMK AO2 SLP079 T01940122 58002=
201508300153 METAR KSEA 300153Z 18010G18KT 10SM SCT036 BKN070 OVC110 19/13 A2976 RMK AO2 PK WND 17028/0106 SLP082 T01940128=
201508300053 METAR KSEA 300053Z 18014G22KT 10SM SCT050 BKN080 OVC090 20/13 A2976 RMK AO2 SLP080 SHRA W T02000128=
201508292353 METAR KSEA 292353Z 22017G23KT 10SM FEW035 SCT050 BKN110 21/12 A2976 RMK AO2 PK WND 23030/2258 SLP081 SHRA E-SE 60000 T02060117 10222 20167 50009=
201508292253 METAR KSEA 292253Z 22018G29KT 10SM SCT043 BKN100 BKN120 21/12 A2976 RMK AO2 PK WND 22031/2206 SLP082 T02110117=
201508292153 METAR KSEA 292153Z 21019G30KT 10SM FEW038 SCT055 BKN100 22/13 A2975 RMK AO2 PK WND 20034/2122 SLP079 T02170128=
201508292053 METAR KSEA 292053Z 19021G31KT 10SM FEW029 BKN042 BKN060 21/13 A2973 RMK AO2 PK WND 20035/2033 SLP072 60000 T02110133 51042=
201508291953 METAR KSEA 291953Z 20022G33KT 10SM FEW045 BKN060 BKN095 18/13 A2970 RMK AO2 PK WND 21040/1935 RAB21E49 SLP064 P0000 T01780133=
201508291853 METAR KSEA 291853Z 20021G34KT 10SM OVC050 21/11 A2964 RMK AO2 PK WND 21037/1821 SLP040 T02060106=
201508291753 METAR KSEA 291753Z 18021G28KT 10SM FEW030 BKN050 OVC060 21/10 A2960 RMK AO2 PK WND 18036/1729 SLP029 60034 T02060100 10206 20156 53008=
201508291653 METAR KSEA 291653Z 17020G27KT 10SM FEW010 BKN050 OVC095 20/12 A2958 RMK AO2 PK WND 17028/1632 SLP021 T02000122=
201508291553 METAR KSEA 291553Z 19008KT 10SM FEW010 SCT040 BKN065 18/15 A2959 RMK AO2 SLP024 T01780150=
201508291453 METAR KSEA 291453Z 18004KT 10SM FEW010 SCT047 BKN065 17/15 A2958 RMK AO2 RAE28 SLP020 P0003 60034 T01720150 50017=
201508291353 METAR KSEA 291353Z 15008KT 7SM -RA FEW005 BKN060 OVC075 17/16 A2959 RMK AO2 SLP022 P0022 T01670156=
201508291327 SPECI KSEA 291327Z 18005KT 3SM RA BR FEW005 BKN039 OVC060 17/16 A2960 RMK AO2 P0016=
201508291258 SPECI KSEA 291258Z 21010KT 3SM +RA BR SCT005 BKN030 OVC039 16/15 A2961 RMK AO2 P0003=
201508291253 METAR KSEA 291253Z 20011KT 2 1/2SM +RA BR BKN005 BKN042 OVC070 16/15 A2961 RMK AO2 RAB31 SLP032 P0009 T01610150=
201508291248 SPECI KSEA 291248Z 22010G21KT 2 1/2SM +RA BR BKN005 BKN070 OVC085 16/15 A2961 RMK AO2 RAB31 P0007=
201508291215 SPECI KSEA 291215Z 27006KT 10SM SCT001 BKN090 OVC110 16/14 A2953 RMK AO2=
201508291153 METAR KSEA 291153Z 26006KT 10SM OVC110 17/16 A2953 RMK AO2 RAE38 SLP003 P0001 60002 70004 T01670156 10200 20167 56040=
201508291053 METAR KSEA 291053Z 00000KT 10SM -RA BKN110 17/16 A2954=
201508290953 METAR KSEA 290953Z 04003KT 10SM -RA OVC100 18/14 A2959 RMK AO2 RAB16E31B51 SLP025 P0000 T01780144=
201508290853 METAR KSEA 290853Z 20003KT 10SM FEW070 BKN100 17/15 A2965 RMK AO2 RAB04E19 SLP043 P0001 60001 T01720150 56037=
201508290753 METAR KSEA 290753Z 00000KT 10SM BKN110 17/14 A2967 RMK AO2 SLP051 T01670139 402330156=
201508290653 METAR KSEA 290653Z 04008KT 10SM BKN095 OVC110 19/15 A2969 RMK AO2 RAE51 SLP057 P0000 T01890150=
201508290553 METAR KSEA 290553Z 34004KT 10SM -RA OVC110 19/14 A2976 RMK AO2 RAE0458B50 SLP081 P0000 60000 T01940144 10222 20189 56020=
201508290453 METAR KSEA 290453Z 36008KT 10SM -RA FEW080 BKN100 19/15 A2977 RMK AO2 SLP086 P0000 T01940150=
201508290353 METAR KSEA 290353Z 36005KT 10SM -RA FEW075 OVC110 21/14 A2980 RMK AO2 RAB50 SLP094 P0000 T02110139=
201508290253 METAR KSEA 290253Z 36005KT 10SM FEW040 BKN100 OVC150 22/13 A2982 RMK AO2 SLP101 T02170128 56021=
201508290153 METAR KSEA 290153Z 01004KT 10SM FEW040 BKN100 OVC150 22/13 A2983 RMK AO2 SLP105 T02220128=
201508290053 METAR KSEA 290053Z 30003KT 10SM FEW040 BKN100 OVC150 22/13 A2985 RMK AO2 SLP114 T02170133=
201508282353 METAR KSEA 282353Z 00000KT 10SM FEW035 BKN100 OVC200 22/12 A2988 RMK AO2 SLP122 T02220122 10233 20200 58023=
201508282253 METAR KSEA 282253Z 30004KT 10SM FEW035 BKN110 BKN200 23/13 A2991 RMK AO2 SLP131 T02280133=
201508282153 METAR KSEA 282153Z 25006KT 10SM FEW030 BKN110 BKN200 22/13 A2993 RMK AO2 SLP139 T02220133=
201508282053 METAR KSEA 282053Z 24005KT 10SM FEW030 BKN110 BKN200 23/13 A2995 RMK AO2 SLP144 T02280133 58008=
201508281953 METAR KSEA 281953Z 21004KT 10SM FEW030 BKN090 BKN200 21/13 A2996 RMK AO2 SLP149 T02110133=
201508281853 METAR KSEA 281853Z 23003KT 10SM FEW030 BKN110 BKN200 20/13 A2997 RMK AO2 SLP154 T02000128=
201508281753 METAR KSEA 281753Z 00000KT 10SM BKN044 BKN110 OVC200 20/12 A2997 RMK AO2 SLP153 60002 T02000117 10206 20156 56010=
201508281653 METAR KSEA 281653Z 14005KT 10SM FEW025 BKN110 BKN200 19/12 A2998 RMK AO2 SLP156 T01940122=
201508281553 METAR KSEA 281553Z 00000KT 10SM FEW023 BKN110 BKN200 17/13 A2999 RMK AO2 SLP160 T01720128=
201508281526 SPECI KSEA 281526Z 17004KT 10SM SCT023 BKN120 BKN200 17/13 A2999 RMK AO2=
201508281453 METAR KSEA 281453Z 16005KT 10SM BKN023 BKN046 OVC200 17/13 A3000 RMK AO2 SLP164 60002 T01670133 55004=
201508281440 SPECI KSEA 281440Z 19004KT 10SM BKN023 OVC046 17/13 A3000 RMK AO2=
201508281353 METAR KSEA 281353Z 14009KT 10SM FEW034 BKN046 OVC200 16/13 A3000 RMK AO2 RAE30 SLP161 P0001 T01610133 $=
201508281330 SPECI KSEA 281330Z 14009KT 10SM FEW009 BKN038 OVC055 16/13 A3000 RMK AO2 RAE30 P0001 $=
201508281323 SPECI KSEA 281323Z 15010KT 10SM -RA SCT011 BKN023 OVC055 16/14 A3001 RMK AO2 P0001 $=
201508281310 SPECI KSEA 281310Z 15009KT 7SM -RA BKN011 BKN023 OVC060 16/14 A3001 RMK AO2 P0001 $=
201508281253 METAR KSEA 281253Z 17009KT 8SM -RA FEW025 BKN050 BKN075 16/14 A3001 RMK AO2 RAB20 SLP166 P0001 T01610139 $=
201508281228 SPECI KSEA 281228Z 20008KT 8SM -RA FEW025 OVC080 16/13 A3001 RMK AO2 RAB20 P0000 $=
201508281153 METAR KSEA 281153Z 24012G20KT 10SM BKN021 BKN050 OVC080 17/13 A3002 RMK AO2 SLP168 T01670128 10233 20167 53008 $=
201508281149 SPECI KSEA 281149Z 23011G19KT 10SM BKN019 BKN026 OVC080 17/13 A3002 RMK AO2 $=
201508281053 METAR KSEA 281053Z 23008KT 10SM BKN090 18/11 A2999 RMK AO2 SLP158 T01780106 $=
201508280953 METAR KSEA 280953Z 21006KT 10SM BKN080 19/09 A2999 RMK AO2 SLP160 T01890089=
201508280853 METAR KSEA 280853Z 20010KT 10SM SCT090 BKN170 20/08 A2998 RMK AO2 SLP156 T02000078 55004=
201508280753 METAR KSEA 280753Z 20005KT 10SM BKN170 21/08 A2997 RMK AO2 SLP153 T02060083 402940144=
201508280653 METAR KSEA 280653Z 22006KT 9SM BKN200 22/07 A2997 RMK AO2 SLP152 T02170067=
201508280553 METAR KSEA 280553Z 21007KT 10SM BKN085 23/08 A2999 RMK AO2 SLP159 T02280083 10283 20217 53007=
201508280453 METAR KSEA 280453Z 18005KT 10SM SCT090 BKN200 23/10 A2998 RMK AO2 SLP158 T02280100=
201508280353 METAR KSEA 280353Z 21004KT 10SM FEW090 BKN110 BKN250 25/09 A2997 RMK AO2 SLP152 T02500089=
201508280253 METAR KSEA 280253Z 16004KT 10SM FEW095 SCT120 BKN250 26/08 A2997 RMK AO2 SLP153 T02560083 56010=
201508280153 METAR KSEA 280153Z 19004KT 10SM SCT140 BKN250 27/08 A2997 RMK AO2 SLP152 T02720078=
201508280053 METAR KSEA 280053Z 19005KT 10SM FEW140 BKN250 28/07 A2998 RMK AO2 SLP156 T02780072=
201508272353 METAR KSEA 272353Z 20007KT 10SM BKN250 28/08 A3000 RMK AO2 SLP162 T02830078 10294 20211 56020=
201508272253 METAR KSEA 272253Z 29005KT 10SM SCT250 28/06 A3002 RMK AO2 SLP167 T02780056=
201508272153 METAR KSEA 272153Z 26004KT 10SM SCT250 27/09 A3004 RMK AO2 SLP174 T02720089 $=
201508272053 METAR KSEA 272053Z 29005KT 10SM FEW200 26/09 A3006 RMK AO2 SLP182 T02610089 58014 $=
201508271953 METAR KSEA 271953Z 28006KT 10SM FEW200 25/09 A3008 RMK AO2 SLP191 T02500089 $=
201508271853 METAR KSEA 271853Z 23005KT 10SM FEW160 BKN250 23/09 A3010 RMK AO2 SLP195 T02280094 $=
201508271753 METAR KSEA 271753Z 23004KT 10SM SCT160 BKN250 21/11 A3010 RMK AO2 SLP197 ACSL DSNT SE T02110111 10211 20144 53000=
201508271653 METAR KSEA 271653Z 19005KT 10SM FEW170 SCT250 19/11 A3010 RMK AO2 SLP196 ACSL DSNT SE T01940111=
201508271553 METAR KSEA 271553Z 16003KT 10SM FEW180 BKN250 18/11 A3010 RMK AO2 SLP197 T01780111=
201508271453 METAR KSEA 271453Z 17004KT 10SM BKN180 BKN250 17/12 A3010 RMK AO2 SLP197 T01670117 53012=
201508271353 METAR KSEA 271353Z 19005KT 10SM FEW170 BKN250 16/11 A3008 RMK AO2 SLP192 T01560111=
201508271253 METAR KSEA 271253Z 18005KT 10SM BKN170 15/11 A3007 RMK AO2 SLP187 T01500106=
201508271153 METAR KSEA 271153Z 00000KT 10SM BKN180 16/11 A3007 RMK AO2 SLP184 T01560106 10206 20156 51012=
201508271053 METAR KSEA 271053Z 00000KT 10SM BKN220 16/11 A3005 RMK AO2 SLP180 T01610106=
201508270953 METAR KSEA 270953Z 00000KT 10SM BKN220 16/11 A3005 RMK AO2 SLP179 T01610106=
201508270853 METAR KSEA 270853Z 00000KT 10SM SCT250 17/11 A3003 RMK AO2 SLP174 T01670106 50006=
201508270753 METAR KSEA 270753Z 00000KT 10SM BKN250 17/09 A3003 RMK AO2 SLP174 T01720094 402830139=
201508270653 METAR KSEA 270653Z 00000KT 10SM BKN250 20/07 A3002 RMK AO2 SLP169 T02000067=
201508270553 METAR KSEA 270553Z 34004KT 10SM BKN250 20/06 A3001 RMK AO2 SLP168 T02000061 10278 20200 51011=
201508270453 METAR KSEA 270453Z 36005KT 10SM SCT250 21/07 A3000 RMK AO2 SLP164 T02110067=
201508270353 METAR KSEA 270353Z 36005KT 10SM BKN250 22/07 A2999 RMK AO2 SLP161 T02220072=
201508270253 METAR KSEA 270253Z 33004KT 10SM SCT200 BKN250 24/07 A2998 RMK AO2 SLP156 T02390067 53002=
201508270153 METAR KSEA 270153Z 29006KT 10SM BKN250 26/06 A2997 RMK AO2 SLP153 T02560056=
201508270053 METAR KSEA 270053Z 30006KT 10SM BKN250 26/06 A2997 RMK AO2 SLP153 T02560056=
201508262353 METAR KSEA 262353Z 28006KT 10SM BKN250 28/06 A2997 RMK AO2 SLP153 T02780061 10283 20211 58011=
201508262253 METAR KSEA 262253Z VRB05KT 10SM BKN250 27/07 A2999 RMK AO2 SLP158 T02720072=
201508262153 METAR KSEA 262153Z 29006KT 10SM BKN250 26/08 A3000 RMK AO2 SLP162 T02610083=
201508262053 METAR KSEA 262053Z VRB04KT 10SM BKN220 26/09 A3001 RMK AO2 SLP164 T02560089 58007=
201508261953 METAR KSEA 261953Z 29007KT 270V330 10SM FEW150 BKN220 24/11 A3001 RMK AO2 SLP168 T02390106=
201508261853 METAR KSEA 261853Z 00000KT 10SM BKN220 23/11 A3002 RMK AO2 SLP171 T02280106=
201508261753 METAR KSEA 261753Z 29005KT 10SM BKN220 21/11 A3003 RMK AO2 SLP172 T02110111 10217 20139 58005=
201508261653 METAR KSEA 261653Z 01005KT 10SM BKN220 21/09 A3004 RMK AO2 SLP176 T02060094=
201508261553 METAR KSEA 261553Z 00000KT 10SM FEW065 BKN220 17/09 A3004 RMK AO2 SLP177 T01720094=
201508261453 METAR KSEA 261453Z 00000KT 10SM BKN220 16/09 A3004 RMK AO2 SLP178 T01560094 53011=
201508261353 METAR KSEA 261353Z 00000KT 10SM BKN250 14/09 A3002 RMK AO2 SLP171 T01440089=
201508261253 METAR KSEA 261253Z 00000KT 10SM SCT250 14/09 A3002 RMK AO2 SLP169 T01390094=
201508261153 METAR KSEA 261153Z 00000KT 10SM CLR 15/09 A3001 RMK AO2 SLP167 T01500089 10183 20150 53008=
201508261053 METAR KSEA 261053Z 36004KT 10SM CLR 15/09 A3000 RMK AO2 SLP163 T01500089=
201508260953 METAR KSEA 260953Z 35003KT 10SM CLR 16/09 A3000 RMK AO2 SLP162 T01560089=
201508260853 METAR KSEA 260853Z 03007KT 10SM SCT250 17/08 A2999 RMK AO2 SLP159 T01720083 57003=
201508260753 METAR KSEA 260753Z 03011KT 10SM SCT250 18/08 A2999 RMK AO2 SLP160 T01780078 402560122=
201508260653 METAR KSEA 260653Z 02007KT 10SM BKN250 18/08 A2999 RMK AO2 SLP161 T01830083=
201508260553 METAR KSEA 260553Z 36005KT 10SM BKN250 17/08 A3000 RMK AO2 SLP162 T01720078 10256 20172 58002=
201508260453 METAR KSEA 260453Z 36006KT 10SM BKN250 18/08 A3000 RMK AO2 SLP162 T01830078=
201508260353 METAR KSEA 260353Z 36008KT 10SM FEW120 BKN250 19/07 A3000 RMK AO2 SLP164 T01940067=
201508260253 METAR KSEA 260253Z 34008KT 10SM FEW120 BKN250 21/07 A3000 RMK AO2 SLP163 T02110067 56008=
201508260153 METAR KSEA 260153Z 34011KT 10SM BKN250 23/06 A3000 RMK AO2 SLP164 T02330061=
201508260053 METAR KSEA 260053Z 35010KT 10SM BKN250 24/06 A3001 RMK AO2 SLP166 T02390056=
201508252353 METAR KSEA 252353Z 36010KT 10SM SCT250 26/06 A3002 RMK AO2 SLP171 T02560056 10256 20189 56015=
201508252253 METAR KSEA 252253Z 34009KT 10SM SCT250 25/06 A3003 RMK AO2 SLP173 T02500056=
201508252153 METAR KSEA 252153Z 35009KT 10SM SCT200 24/07 A3005 RMK AO2 SLP179 T02440072=
201508252053 METAR KSEA 252053Z 36009KT 10SM FEW180 23/08 A3007 RMK AO2 SLP186 T02330083 58011=
201508251953 METAR KSEA 251953Z 35009KT 10SM FEW200 23/09 A3008 RMK AO2 SLP190 T02280089=
201508251853 METAR KSEA 251853Z 31005KT 10SM FEW200 21/09 A3009 RMK AO2 SLP193 T02110094=
201508251753 METAR KSEA 251753Z 29006KT 10SM FEW200 19/10 A3010 RMK AO2 SLP197 T01890100 10194 20122 58006=
201508251653 METAR KSEA 251653Z VRB06KT 10SM FEW200 18/09 A3011 RMK AO2 SLP200 T01830089=
201508251553 METAR KSEA 251553Z 01005KT 10SM FEW180 SCT250 17/09 A3012 RMK AO2 SLP203 T01720089=
201508251453 METAR KSEA 251453Z 00000KT 10SM FEW180 SCT250 14/09 A3012 RMK AO2 SLP204 T01440089 53006=
201508251353 METAR KSEA 251353Z 00000KT 10SM FEW180 SCT250 12/08 A3011 RMK AO2 SLP201 T01220083=
201508251253 METAR KSEA 251253Z 06005KT 10SM FEW200 14/08 A3010 RMK AO2 SLP196 T01390078=
201508251153 METAR KSEA 251153Z 05004KT 10SM CLR 14/08 A3010 RMK AO2 SLP196 T01440078 10172 20139 53004=
201508251053 METAR KSEA 251053Z 05004KT 10SM CLR 14/08 A3009 RMK AO2 SLP195 T01390078=
201508250953 METAR KSEA 250953Z 04006KT 10SM CLR 14/08 A3009 RMK AO2 SLP193 T01440078=
201508250853 METAR KSEA 250853Z 04004KT 10SM CLR 15/08 A3009 RMK AO2 SLP192 T01500078 51006=
201508250753 METAR KSEA 250753Z 02008KT 10SM CLR 16/08 A3008 RMK AO2 SLP190 T01560078 402390122=
201508250653 METAR KSEA 250653Z 04007KT 10SM CLR 16/08 A3007 RMK AO2 SLP189 T01610078=
201508250553 METAR KSEA 250553Z 02007KT 10SM CLR 17/07 A3007 RMK AO2 SLP187 T01720072 10239 20167 51010=
201508250453 METAR KSEA 250453Z 35006KT 10SM SCT210 17/07 A3006 RMK AO2 SLP184 T01670072=
201508250353 METAR KSEA 250353Z 35006KT 10SM SCT210 18/08 A3005 RMK AO2 SLP181 T01780078=
201508250253 METAR KSEA 250253Z 33007KT 10SM SCT200 BKN250 20/09 A3004 RMK AO2 SLP177 T02000094 53002=
201508250153 METAR KSEA 250153Z 34004KT 10SM SCT190 BKN250 22/11 A3003 RMK AO2 SLP173 T02170106=
201508250053 METAR KSEA 250053Z 00000KT 10SM SCT190 BKN250 23/08 A3002 RMK AO2 SLP170 T02280083=
201508242353 METAR KSEA 242353Z 00000KT 10SM SCT200 BKN240 23/09 A3003=
201508242253 METAR KSEA 242253Z 22005KT 10SM SCT200 BKN250 23/10 A3004 RMK AO2 SLP177 T02330100=
201508242153 METAR KSEA 242153Z 28008KT 10SM SCT200 BKN250 23/11 A3005 RMK AO2 SLP178 T02280106=
201508242053 METAR KSEA 242053Z 18005KT 10SM SCT180 BKN250 21/11 A3006 RMK AO2 SLP182 T02060106 58004=
201508241953 METAR KSEA 241953Z 19007KT 10SM FEW180 BKN250 20/11 A3006 RMK AO2 SLP184 T02000106=
201508241853 METAR KSEA 241853Z 21005KT 10SM FEW180 BKN250 18/10 A3007 RMK AO2 SLP186 T01780100=
201508241753 METAR KSEA 241753Z 18005KT 10SM FEW180 BKN250 17/10 A3007 RMK AO2 SLP186 T01720100 10178 20122 51002=
201508241653 METAR KSEA 241653Z 21006KT 10SM FEW050 BKN250 16/10 A3007 RMK AO2 SLP186 T01610100=
201508241553 METAR KSEA 241553Z 19005KT 10SM FEW100 BKN250 14/10 A3007 RMK AO2 SLP186 T01440100=
201508241453 METAR KSEA 241453Z 18005KT 10SM FEW100 BKN250 13/09 A3006 RMK AO2 SLP184 T01330094 53007=
201508241353 METAR KSEA 241353Z 20003KT 10SM FEW080 SCT250 13/09 A3005 RMK AO2 SLP181 T01280094=
201508241253 METAR KSEA 241253Z 18003KT 10SM SCT200 13/09 A3005 RMK AO2 SLP178 T01280094=
201508241153 METAR KSEA 241153Z 00000KT 10SM CLR 14/10 A3004 RMK AO2 SLP176 T01390100 10200 20139 53009=
201508241053 METAR KSEA 241053Z 00000KT 10SM CLR 14/11 A3003 RMK AO2 SLP173 T01390106=
201508240953 METAR KSEA 240953Z 26003KT 10SM CLR 15/11 A3002 RMK AO2 SLP170 T01500111=
201508240853 METAR KSEA 240853Z 26003KT 10SM CLR 16/12 A3001 RMK AO2 SLP167 T01610117 53009=
201508240753 METAR KSEA 240753Z 28004KT 10SM CLR 16/11 A3000 RMK AO2 SLP164 T01610111 402780139=
201508240653 METAR KSEA 240653Z 30004KT 10SM CLR 18/11 A2999 RMK AO2 SLP161 T01780106=
201508240553 METAR KSEA 240553Z 00000KT 10SM CLR 20/09 A2998 RMK AO2 SLP158 T02000094 10267 20194 51013=
201508240453 METAR KSEA 240453Z 03009KT 10SM SCT250 22/09 A2997 RMK AO2 SLP154 T02170094=
201508240353 METAR KSEA 240353Z 00000KT 10SM SCT250 21/08 A2996 RMK AO2 SLP150 T02110083=
201508240253 METAR KSEA 240253Z 33003KT 6SM FU SCT250 22/08 A2995 RMK AO2 SLP144 T02220083 53003=
201508240200 METAR KSEA NIL=
201508240100 METAR KSEA NIL=
201508232353 METAR KSEA 232353Z 26006KT 5SM FU FEW250 27/09 A2993 RMK AO2 SLP140 T02670094 10278 20194 56010=
201508232253 METAR KSEA 232253Z 29004KT 5SM FU FEW250 26/09 A2994 RMK AO2 SLP143 T02560094=
201508232153 METAR KSEA 232153Z 29005KT 5SM FU FEW250 24/11 A2995 RMK AO2 SLP148 T02440111=
201508232053 METAR KSEA 232053Z 27005KT 5SM FU FEW250 23/11 A2997 RMK AO2 SLP151 T02330111 58007=
201508231953 METAR KSEA 231953Z 28003KT 6SM FU FEW250 22/12 A2997 RMK AO2 SLP153 T02220117=
201508231853 METAR KSEA 231853Z VRB03KT 9SM FEW250 21/12 A2998 RMK AO2 SLP157 T02110117=
201508231753 METAR KSEA 231753Z 28004KT 10SM FEW250 20/12 A2999 RMK AO2 SLP158 T02000117 10200 20139 51003=
201508231653 METAR KSEA 231653Z 02004KT 10SM FEW250 19/11 A2999 RMK AO2 SLP158 T01940111=
201508231553 METAR KSEA 231553Z 00000KT 10SM FEW250 18/11 A2999 RMK AO2 SLP158 T01780111=
201508231453 METAR KSEA 231453Z 00000KT 10SM FEW250 15/11 A2998 RMK AO2 SLP156 T01500106 52005=
201508231353 METAR KSEA 231353Z 00000KT 10SM SCT250 14/10 A2997 RMK AO2 SLP154 T01440100=
201508231253 METAR KSEA 231253Z 19003KT 10SM FU BKN250 14/10 A2997 RMK AO2 SLP152 T01390100=
201508231153 METAR KSEA 231153Z 00000KT 10SM FU CLR 16/09 A2996 RMK AO2 SLP150 T01610094 10206 20156 50000=
201508231053 METAR KSEA 231053Z 03004KT 10SM FU CLR 17/10 A2996 RMK AO2 SLP150 T01720100=
201508231000 METAR KSEA NIL=
201508230953 METAR KSEA 230953Z 03006KT 10SM FU CLR 18/10 A2996 RMK AO2 SLP150 T01780100=
201508230853 METAR KSEA 230853Z 03009KT 10SM FU CLR 19/10 A2996 RMK AO2 SLP150 T01890100 56007=
201508230753 METAR KSEA 230753Z 02010KT 10SM FU CLR 19/10 A2997 RMK AO2 SLP151 T01940100 402670122=
201508230653 METAR KSEA 230653Z 02010KT 10SM FU CLR 20/09 A2997 RMK AO2 SLP154 T02000089=
201508230553 METAR KSEA 230553Z 36007KT 10SM FU CLR 18/09 A2998 RMK AO2 SLP157 T01780089 10261 20178 57001=
201508230453 METAR KSEA 230453Z 01007KT 7SM HZ FU CLR 19/09 A2999 RMK AO2 SLP159 T01940094=
201508230353 METAR KSEA 230353Z 01008KT 6SM HZ FU CLR 21/09 A2998 RMK AO2 SLP157 T02060089=
201508230253 METAR KSEA 230253Z 35007KT 6SM HZ FU CLR 22/09 A2999 RMK AO2 SLP159 T02170094 56010=
201508230153 METAR KSEA 230153Z 34009KT 6SM HZ FU CLR 24/09 A2999 RMK AO2 SLP159 T02390089=
201508230053 METAR KSEA 230053Z 34007KT 10SM CLR 26/08 A3000 RMK AO2 SLP164 T02560078=
201508222353 METAR KSEA 222353Z 34008KT 10SM CLR 26/07 A3002 RMK AO2 SLP169 T02610072 10267 20183 57019=
201508222253 METAR KSEA 222253Z 32006KT 10SM CLR 25/09 A3004 RMK AO2 SLP175 T02500094=
201508222153 METAR KSEA 222153Z 29005KT 10SM CLR 24/12 A3006 RMK AO2 SLP183 T02390117=
201508222053 METAR KSEA 222053Z 29006KT 10SM CLR 22/12 A3007 RMK AO2 SLP188 T02220117 58014=
201508221953 METAR KSEA 221953Z 29005KT 10SM CLR 21/12 A3009 RMK AO2 SLP194 T02110122=
201508221853 METAR KSEA 221853Z VRB03KT 10SM BKN180 19/13 A3011 RMK AO2 SLP200 T01940128=
201508221753 METAR KSEA 221753Z 29004KT 10SM BKN200 18/12 A3012 RMK AO2 SLP203 T01830117 10189 20122 58001=
201508221653 METAR KSEA 221653Z 36003KT 10SM FEW065 BKN200 17/11 A3012 RMK AO2 SLP204 T01670106=
201508221553 METAR KSEA 221553Z 00000KT 10SM SCT070 BKN200 15/10 A3013 RMK AO2 SLP207 T01500100=
201508221453 METAR KSEA 221453Z 00000KT 10SM SCT070 BKN200 14/10 A3012 RMK AO2 SLP205 T01390100 53005=
201508221353 METAR KSEA 221353Z 00000KT 10SM SCT070 BKN200 13/09 A3012 RMK AO2 SLP203 T01330094=
201508221253 METAR KSEA 221253Z 00000KT 10SM SCT070 13/09 A3011 RMK AO2 SLP200 T01330094=
201508221153 METAR KSEA 221153Z 13003KT 10SM FEW065 14/09 A3011 RMK AO2 SLP199 T01390094 10183 20133 51006=
201508221053 METAR KSEA 221053Z 17003KT 10SM CLR 13/09 A3010 RMK AO2 SLP198 T01330094=
201508220953 METAR KSEA 220953Z 00000KT 10SM CLR 14/09 A3010 RMK AO2 SLP196 T01440094=
201508220853 METAR KSEA 220853Z 13004KT 10SM CLR 16/10 A3009 RMK AO2 SLP192 T01610100 50004=
201508220753 METAR KSEA 220753Z 04003KT 10SM CLR 18/09 A3009 RMK AO2 SLP193 T01780094 402220144=
201508220653 METAR KSEA 220653Z 00000KT 10SM CLR 17/09 A3008 RMK AO2 SLP192 T01670094=
201508220553 METAR KSEA 220553Z 00000KT 10SM CLR 18/09 A3007 RMK AO2 SLP189 T01830094 10222 20172 51015=
201508220453 METAR KSEA 220453Z 00000KT 10SM CLR 19/08 A3007 RMK AO2 SLP187 T01890083=
201508220353 METAR KSEA 220353Z 33003KT 10SM FEW250 19/09 A3005 RMK AO2 SLP182 T01890089=
201508220253 METAR KSEA 220253Z 29004KT 10SM FEW050 20/09 A3003 RMK AO2 SLP175 T02000089 53002=
201508220153 METAR KSEA 220153Z 29004KT 10SM FEW050 22/09 A3003 RMK AO2 SLP173 T02170089=
201508220053 METAR KSEA 220053Z 25005KT 10SM SCT050 22/08 A3003 RMK AO2 SLP172 T02170083=
201508212353 METAR KSEA 212353Z 27006KT 10SM SCT048 22/09 A3003 RMK AO2 SLP172 T02170094 10222 20156 50001=
201508212253 METAR KSEA 212253Z 24007KT 10SM FEW046 SCT060 22/10 A3003 RMK AO2 SLP172 T02170100=
201508212153 METAR KSEA 212153Z 22007KT 10SM FEW035 SCT060 21/10 A3003 RMK AO2 SLP173 T02060100=
201508212053 METAR KSEA 212053Z 20004KT 10SM SCT025 BKN033 BKN055 19/10 A3002 RMK AO2 SLP172 T01940100 53007=
201508212038 SPECI KSEA 212038Z 19008KT 10SM SCT025 BKN036 BKN055 20/11 A3002 RMK AO2=
201508211953 METAR KSEA 211953Z 21007KT 10SM BKN022 BKN050 18/11 A3001 RMK AO2 SLP167 T01830106=
201508211853 METAR KSEA 211853Z 19007KT 10SM BKN019 BKN050 17/11 A3001 RMK AO2 SLP167 T01720106=
201508211835 SPECI KSEA 211835Z 21007KT 170V240 10SM SCT017 BKN050 17/11 A3000 RMK AO2=
201508211753 METAR KSEA 211753Z 23006KT 10SM BKN014 BKN025 16/11 A3000 RMK AO2 SLP165 T01610106 10167 20144 53013=
201508211713 SPECI KSEA 211713Z 22006KT 10SM BKN014 OVC018 14/11 A2999 RMK AO2=
201508211653 METAR KSEA 211653Z 24006KT 10SM FEW014 OVC020 14/11 A2998 RMK AO2 SLP159 T01440106=
201508211553 METAR KSEA 211553Z 18008KT 10SM FEW015 OVC020 15/11 A2996 RMK AO2 SLP151 T01500106=
201508211453 METAR KSEA 211453Z 23005KT 10SM OVC018 14/10 A2996 RMK AO2 SLP151 T01440100 53010=
201508211353 METAR KSEA 211353Z 19005KT 10SM OVC018 14/10 A2994 RMK AO2 SLP144 T01440100=
201508211253 METAR KSEA 211253Z 17007KT 10SM OVC016 14/10 A2993 RMK AO2 SLP141 T01440100=
201508211153 METAR KSEA 211153Z 20007KT 10SM OVC018 14/10 A2993 RMK AO2 SLP140 70008 T01440100 10150 20144 53004=
201508211053 METAR KSEA 211053Z 20008KT 10SM OVC016 14/10 A2993 RMK AO2 SLP138 T01440100=
201508210953 METAR KSEA 210953Z 21007KT 10SM OVC016 14/11 A2992 RMK AO2 SLP135 T01440106=
201508210853 METAR KSEA 210853Z 21007KT 10SM OVC018 15/11 A2992 RMK AO2 SLP135 T01500106 56003=
201508210753 METAR KSEA 210753Z 20009KT 10SM OVC020 15/11 A2992 RMK AO2 SLP137 T01500106 402280144=
201508210736 SPECI KSEA 210736Z 21008KT 10SM BKN020 15/11 A2992 RMK AO2=
201508210653 METAR KSEA 210653Z 20007KT 10SM SCT045 15/11 A2992 RMK AO2 SLP138 T01500106=
201508210553 METAR KSEA 210553Z 21007KT 10SM FEW250 15/11 A2993 RMK AO2 SLP139 T01500106 10228 20150 51007=
201508210453 METAR KSEA 210453Z 22009KT 10SM CLR 16/11 A2992 RMK AO2 SLP139 T01610111=
201508210353 METAR KSEA 210353Z 21008KT 10SM FEW250 17/11 A2991 RMK AO2 SLP134 T01720111=
201508210253 METAR KSEA 210253Z 22005KT 10SM FEW250 19/11 A2991 RMK AO2 SLP132 T01940106 56007=
201508210153 METAR KSEA 210153Z 24007KT 10SM FEW250 21/10 A2991 RMK AO2 SLP132 T02110100=
201508210053 METAR KSEA 210053Z 24009KT 10SM FEW250 22/10 A2992 RMK AO2 SLP135 T02170100=
201508202353 METAR KSEA 202353Z 25009G14KT 10SM FEW250 22/10 A2993 RMK AO2 SLP138 T02220100 10228 20156 58011=
201508202253 METAR KSEA 202253Z 26011KT 10SM FEW050 22/10 A2994 RMK AO2 SLP143 T02170100=
201508202153 METAR KSEA 202153Z 26010G15KT 10SM FEW015 SCT040 21/10 A2995 RMK AO2 SLP147 T02110100=
201508202053 METAR KSEA 202053Z 23009KT 210V270 10SM FEW015 SCT040 21/11 A2996 RMK AO2 SLP149 T02110106 58004=
201508201953 METAR KSEA 201953Z 27011G15KT 10SM FEW012 BKN040 19/11 A2997 RMK AO2 SLP152 T01940111=
201508201853 METAR KSEA 201853Z 25007KT 10SM SCT012 BKN036 17/12 A2998 RMK AO2 SLP156 T01720122=
201508201828 SPECI KSEA 201828Z 22009KT 10SM SCT012 BKN032 16/12 A2998 RMK AO2=
201508201753 METAR KSEA 201753Z 22009KT 10SM BKN012 OVC030 16/13 A2997 RMK AO2 SLP154 60008 T01560128 10172 20144 53007=
201508201653 METAR KSEA 201653Z 21010KT 7SM OVC012 15/13 A2996 RMK AO2 SLP150 T01500128=
201508201651 SPECI KSEA 201651Z 22009KT 7SM OVC012 15/13 A2996 RMK AO2=
201508201616 SPECI KSEA 201616Z 21007KT 1 1/2SM BR SCT005 OVC012 14/14 A2996 RMK AO2 SFC VIS 5=
201508201553 METAR KSEA 201553Z 22008KT 2 1/2SM BR SCT005 OVC010 14/13 A2995 RMK AO2 SFC VIS 5 RAE35 SLP147 P0002 T01440133=
201508201545 SPECI KSEA 201545Z 23007KT 2 1/2SM BR SCT005 OVC010 14/13 A2996 RMK AO2 SFC VIS 5 RAE35 P0002=
201508201534 SPECI KSEA 201534Z 22007KT 1SM R16L/5500VP6000FT -RA BR BKN005 OVC010 14/14 A2996 RMK AO2 SFC VIS 1 1/2 P0001=
201508201453 METAR KSEA 201453Z 21011KT 3/4SM R16L/5000V5500FT -RA BR BKN005 OVC010 15/14 A2994 RMK AO2 TWR VIS 1 DZE49RAB49 SLP144 P0003 60006 T01500139 53011=
201508201429 SPECI KSEA 201429Z 21007KT 3/4SM R16L/5000VP6000FT -DZ BR BKN005 OVC012 15/14 A2994 RMK AO2 TWR VIS 1 P0001=
201508201353 METAR KSEA 201353Z 22007KT 1SM R16L/P6000FT -DZ BR BKN005 OVC009 15/14 A2993 RMK AO2 SLP137 P0002 T01500144=
201508201300 SPECI KSEA 201300Z 20009KT 1SM R16L/P6000FT -DZ OVC005 16/15 A2992 RMK AO2 TWR VIS 3 P0000=
201508201253 METAR KSEA 201253Z 17005KT 5SM -DZ OVC005 16/15 A2992 RMK AO2 DZB43 SLP133 P0001 T01610150=
201508201243 SPECI KSEA 201243Z 18005KT 6SM -DZ BKN005 OVC010 16/15 A2991 RMK AO2 DZB43 P0001=
201508201212 SPECI KSEA 201212Z 20006KT 10SM OVC013 17/14 A2991 RMK AO2=
201508201153 METAR KSEA 201153Z 21007KT 10SM OVC017 17/14 A2991 RMK AO2 SLP132 T01720139 10217 20161 50003=
201508201053 METAR KSEA 201053Z 17005KT 10SM BKN016 17/13 A2991 RMK AO2 SLP133 T01670133=
201508201023 SPECI KSEA 201023Z 17007KT 10SM BKN016 17/13 A2990 RMK AO2=
201508201002 SPECI KSEA 201002Z 17005KT 10SM BKN014 16/13 A2990 RMK AO2=
201508200953 METAR KSEA 200953Z 17005KT 10SM SCT014 16/13 A2990 RMK AO2 SLP129 T01610133=
201508200941 SPECI KSEA 200941Z 20005KT 10SM BKN014 17/13 A2991 RMK AO2=
201508200853 METAR KSEA 200853Z 21009KT 10SM CLR 17/13 A2990 RMK AO2 SLP128 T01670133 51016=
201508200753 METAR KSEA 200753Z 21005KT 10SM FEW250 18/13 A2989 RMK AO2 SLP123 T01780133 403170161=
201508200653 METAR KSEA 200653Z 17005KT 10SM CLR 17/14 A2987 RMK AO2 SLP118 T01720139=
201508200553 METAR KSEA 200553Z 04005KT 10SM CLR 22/13 A2985 RMK AO2 SLP112 T02170133 10311 20217 51014=
201508200453 METAR KSEA 200453Z 00000KT 10SM FEW200 22/14 A2984 RMK AO2 SLP109 T02220139=
201508200353 METAR KSEA 200353Z 24005KT 10SM FEW200 24/13 A2983 RMK AO2 SLP104 T02390128=
201508200253 METAR KSEA 200253Z 36006KT 10SM SCT200 27/12 A2981 RMK AO2 SLP098 T02720117 58014=
201508200153 METAR KSEA 200153Z 30004KT 10SM SCT200 30/11 A2983 RMK AO2 SLP104 T03000106=
201508200053 METAR KSEA 200053Z 00000KT 10SM FEW250 31/10 A2984 RMK AO2 SLP108 T03060100=
201508192353 METAR KSEA 192353Z 27008KT 10SM FEW250 31/12 A2986 RMK AO2 SLP113 T03060117 10317 20239 58019=
201508192253 METAR KSEA 192253Z VRB04KT 10SM FEW050 31/12 A2988 RMK AO2 SLP119 T03110122=
201508192153 METAR KSEA 192153Z 27008KT 10SM FEW050 29/13 A2990 RMK AO2 SLP127 T02940133=
201508192053 METAR KSEA 192053Z 29005KT 10SM FEW250 29/13 A2991 RMK AO2 SLP132 T02890133 58008=
201508191953 METAR KSEA 191953Z 30007KT 10SM FEW250 27/13 A2992 RMK AO2 SLP136 T02720133=
201508191853 METAR KSEA 191853Z 29005KT 10SM FEW250 26/14 A2993 RMK AO2 SLP139 T02610139=
201508191753 METAR KSEA 191753Z 28005KT 10SM FEW250 23/14 A2994 RMK AO2 SLP141 T02330139 10239 20161 58002=
201508191653 METAR KSEA 191653Z 27004KT 10SM CLR 22/14 A2994 RMK AO2 SLP142 T02220139=
201508191553 METAR KSEA 191553Z 29004KT 10SM FEW250 21/14 A2995 RMK AO2 SLP145 T02060139=
201508191453 METAR KSEA 191453Z 00000KT 10SM FEW250 19/14 A2994 RMK AO2 SLP143 T01890139 53003=
201508191353 METAR KSEA 191353Z 00000KT 10SM FEW250 18/14 A2994 RMK AO2 SLP141 T01780144=
201508191253 METAR KSEA 191253Z 00000KT 10SM FEW250 19/14 A2993 RMK AO2 SLP138 T01890144=
201508191153 METAR KSEA 191153Z 04005KT 10SM CLR 19/15 A2993 RMK AO2 SLP139 T01890150 10239 20189 56001=
201508191053 METAR KSEA 191053Z 04005KT 10SM CLR 19/14 A2993=
201508190953 METAR KSEA 190953Z 03005KT 10SM CLR 21/14 A2993 RMK AO2 SLP139 T02060139=
201508190853 METAR KSEA 190853Z 04003KT 10SM CLR 21/13 A2994 RMK AO2 SLP140 T02110133 58002=
201508190753 METAR KSEA 190753Z 01003KT 10SM CLR 22/13 A2994 RMK AO2 SLP143 T02170128 403000150=
201508190653 METAR KSEA 190653Z 02003KT 10SM CLR 22/13 A2994 RMK AO2 SLP142 T02170128=
201508190553 METAR KSEA 190553Z 04005KT 10SM CLR 24/13 A2994 RMK AO2 SLP142 T02390128 10294 20233 50002=
201508190453 METAR KSEA 190453Z 02008KT 10SM CLR 24/13 A2994 RMK AO2 SLP142 T02440128=
201508190353 METAR KSEA 190353Z 35004KT 10SM CLR 23/14 A2994 RMK AO2 SLP141 T02330139=
201508190253 METAR KSEA 190253Z 28004KT 10SM CLR 25/14 A2993 RMK AO2 SLP140 T02500139 56008=
201508190153 METAR KSEA 190153Z 33005KT 10SM CLR 28/14 A2994 RMK AO2 SLP141 T02830139=
201508190053 METAR KSEA 190053Z 35008KT 10SM CLR 29/14 A2995 RMK AO2 SLP146 T02890139=
201508182353 METAR KSEA 182353Z 35008KT 10SM CLR 29/13 A2996 RMK AO2 SLP148 T02940133 10300 20233 58019=
201508182253 METAR KSEA 182253Z 36009KT 10SM CLR 29/14 A2998 RMK AO2 SLP156 T02940139=
201508182153 METAR KSEA 182153Z 35008KT 10SM CLR 28/14 A3000 RMK AO2 SLP162 T02830139=
201508182053 METAR KSEA 182053Z 35010KT 10SM CLR 27/13 A3002 RMK AO2 SLP167 T02720133 56015=
201508182009 SPECI KSEA 182009Z 36009KT 10SM CLR 27/14 A3002 RMK AO2=
201508181953 METAR KSEA 181953Z 02008KT 10SM CLR 26/14 A3003 RMK AO2 SLP171 T02610139=
201508181853 METAR KSEA 181853Z VRB05KT 10SM FEW250 24/14 A3004 RMK AO2 SLP177 T02440139=
201508181753 METAR KSEA 181753Z 36007KT 10SM SCT250 23/13 A3006 RMK AO2 SLP183 T02330133 10233 20150 57004=
201508181653 METAR KSEA 181653Z 36008KT 10SM FEW250 22/13 A3006 RMK AO2 SLP184 T02170133=
201508181553 METAR KSEA 181553Z 03005KT 10SM SCT250 20/13 A3007 RMK AO2 SLP187 T02000133=
201508181453 METAR KSEA 181453Z 02006KT 10SM SCT250 18/13 A3007 RMK AO2 SLP188 T01830133 51006=
201508181353 METAR KSEA 181353Z 31003KT 10SM FEW250 16/13 A3007 RMK AO2 SLP187 T01560128=
201508181253 METAR KSEA 181253Z 03007KT 10SM CLR 17/13 A3007 RMK AO2 SLP184 T01670133=
201508181153 METAR KSEA 181153Z 02006KT 10SM CLR 17/13 A3006 RMK AO2 SLP181 T01720133 10211 20161 58001=
201508181053 METAR KSEA 181053Z 36005KT 10SM CLR 17/13 A3006 RMK AO2 SLP183 T01720133=
201508180953 METAR KSEA 180953Z 00000KT 10SM CLR 18/13 A3006 RMK AO2 SLP181 T01780128=
201508180853 METAR KSEA 180853Z 02005KT 10SM FEW250 19/13 A3006 RMK AO2 SLP182 T01940133 58005=
201508180753 METAR KSEA 180753Z 03005KT 10SM SCT250 20/13 A3007 RMK AO2 SLP186 T02000133 402720139=
201508180653 METAR KSEA 180653Z 02006KT 10SM SCT250 21/13 A3007 RMK AO2 SLP185 T02060133=
201508180553 METAR KSEA 180553Z 03008KT 10SM SCT250 21/13 A3007 RMK AO2 SLP188 T02110133 10272 20211 51004=
201508180453 METAR KSEA 180453Z 02007KT 10SM SCT250 22/13 A3007 RMK AO2 SLP187 T02170128=
201508180353 METAR KSEA 180353Z 01006KT 10SM BKN250 22/13 A3006 RMK AO2 SLP185 T02220128=
201508180253 METAR KSEA 180253Z 36008KT 10SM BKN250 24/12 A3006 RMK AO2 SLP184 T02390122 55004=
201508180153 METAR KSEA 180153Z 35007KT 10SM BKN250 26/11 A3006 RMK AO2 SLP182 T02610111=
201508180053 METAR KSEA 180053Z 34006KT 10SM BKN250 26/11 A3006 RMK AO2 SLP185 T02610106=
201508172353 METAR KSEA 172353Z 01007KT 310V030 10SM BKN250 27/09 A3007 RMK AO2 SLP188 T02670094 10272 20200 56014=
201508172253 METAR KSEA 172253Z 35009KT 10SM SCT250 27/10 A3009 RMK AO2 SLP192 T02670100=
201508172153 METAR KSEA 172153Z 35013G17KT 10SM SCT250 27/09 A3010 RMK AO2 SLP194 T02720089=
201508172053 METAR KSEA 172053Z 31009KT 10SM SCT250 24/11 A3011 RMK AO2 SLP202 T02440106 58012=
201508171953 METAR KSEA 171953Z 31007KT 10SM SCT250 23/11 A3013 RMK AO2 SLP209 T02280111=
201508171853 METAR KSEA 171853Z 29007KT 10SM FEW250 22/12 A3015 RMK AO2 SLP214 T02170117=
201508171753 METAR KSEA 171753Z 29007KT 10SM FEW250 21/11 A3015 RMK AO2 SLP214 T02060111 10206 20139 56003=
201508171653 METAR KSEA 171653Z 25005KT 10SM FEW250 19/12 A3015 RMK AO2 SLP214 T01890117=
201508171553 METAR KSEA 171553Z 01006KT 10SM FEW250 18/11 A3015 RMK AO2 SLP215 T01830111=
201508171453 METAR KSEA 171453Z 02003KT 7SM CLR 17/13 A3016 RMK AO2 SLP216 T01720128 51006=
201508171353 METAR KSEA 171353Z 33003KT 10SM CLR 14/11 A3015 RMK AO2 SLP215 T01390111=
201508171253 METAR KSEA 171253Z 00000KT 10SM CLR 14/11 A3015 RMK AO2 SLP213 T01390111=
201508171153 METAR KSEA 171153Z 00000KT 10SM CLR 14/11 A3014 RMK AO2 SLP210 T01440111 10194 20144 56004=
201508171053 METAR KSEA 171053Z 00000KT 10SM CLR 15/11 A3014 RMK AO2 SLP211 T01500111=
201508170953 METAR KSEA 170953Z 06006KT 10SM CLR 17/11 A3015 RMK AO2 SLP213 T01670111=
201508170853 METAR KSEA 170853Z 03005KT 10SM CLR 17/12 A3015 RMK AO2 SLP214 T01720117 56003=
201508170753 METAR KSEA 170753Z 05008KT 10SM CLR 18/12 A3015 RMK AO2 SLP215 T01780117 402500144=
201508170653 METAR KSEA 170653Z 03007KT 10SM CLR 19/12 A3015 RMK AO2 SLP215 T01890117=
201508170553 METAR KSEA 170553Z 02007KT 10SM FEW250 19/11 A3016 RMK AO2 SLP217 T01890111 10244 20183 50000=
201508170453 METAR KSEA 170453Z 01006KT 10SM SCT250 19/11 A3017 RMK AO2 SLP219 T01890111=
201508170353 METAR KSEA 170353Z 36008KT 10SM FEW045 BKN250 20/11 A3016 RMK AO2 SLP219 T02000111=
201508170253 METAR KSEA 170253Z 34008KT 10SM SCT250 21/11 A3016 RMK AO2 SLP217 T02110106 56008=
201508170153 METAR KSEA 170153Z 30008KT 10SM FEW250 22/11 A3016 RMK AO2 SLP218 T02220111=
201508170053 METAR KSEA 170053Z 32009KT 10SM FEW250 24/09 A3017 RMK AO2 SLP221 T02390094=
201508162353 METAR KSEA 162353Z 35014G17KT 10SM SCT250 24/10 A3018 RMK AO2 SLP225 T02440100 10250 20194 57014=
201508162253 METAR KSEA 162253Z 35010KT 10SM FEW035 24/10 A3020 RMK AO2 SLP230 T02390100=
201508162153 METAR KSEA 162153Z VRB05KT 10SM SCT040 23/12 A3021 RMK AO2 SLP234 T02330117=
201508162053 METAR KSEA 162053Z 30009KT 10SM FEW030 SCT060 SCT180 22/12 A3022=
201508161953 METAR KSEA 161953Z 29008KT 10SM FEW030 SCT060 SCT180 21/13 A3024 RMK AO2 SLP246 T02110128=
201508161853 METAR KSEA 161853Z 32008KT 10SM FEW030 SCT180 21/12 A3026 RMK AO2 SLP251 T02060122=
201508161753 METAR KSEA 161753Z 33004KT 10SM SCT040 19/12 A3026 RMK AO2 SLP252 T01940122 10200 20144 58005=
201508161653 METAR KSEA 161653Z VRB04KT 10SM FEW030 18/12 A3027 RMK AO2 SLP254 T01830117=
201508161553 METAR KSEA 161553Z 03007KT 10SM FEW040 17/12 A3028 RMK AO2 SLP258 T01720117=
201508161453 METAR KSEA 161453Z 02007KT 10SM FEW030 16/11 A3028 RMK AO2 SLP258 T01560111 51006=
201508161353 METAR KSEA 161353Z 03007KT 10SM SCT030 SCT050 14/11 A3027 RMK AO2 SLP256 T01440111=
201508161253 METAR KSEA 161253Z 04006KT 10SM SCT035 14/11 A3027 RMK AO2 SLP254 T01440106=
201508161153 METAR KSEA 161153Z 03005KT 10SM SCT035 14/11 A3026 RMK AO2 SLP252 T01440111 10178 20144 51004=
201508161053 METAR KSEA 161053Z 03004KT 10SM CLR 14/11 A3026 RMK AO2 SLP250 T01440111=
201508160953 METAR KSEA 160953Z 03007KT 10SM FEW045 16/11 A3025 RMK AO2 SLP248 T01560111=
201508160853 METAR KSEA 160853Z 03007KT 10SM SCT045 16/11 A3025 RMK AO2 SLP247 T01610111 58002=
201508160753 METAR KSEA 160753Z 02007KT 10SM BKN044 17/11 A3025 RMK AO2 SLP249 T01670111 402170139=
201508160653 METAR KSEA 160653Z 03008KT 10SM OVC046 17/11 A3025 RMK AO2 SLP250 T01720111=
201508160553 METAR KSEA 160553Z 05007KT 10SM BKN046 17/11 A3025 RMK AO2 SLP249 T01720111 10206 20172 51006=
201508160453 METAR KSEA 160453Z 03008KT 10SM BKN055 18/11 A3025 RMK AO2 SLP250 T01780106=
201508160353 METAR KSEA 160353Z 02009KT 10SM OVC065 18/10 A3024 RMK AO2 SLP247 T01830100=
201508160253 METAR KSEA 160253Z 03010KT 10SM FEW040 OVC065 19/11 A3024 RMK AO2 SLP244 T01890106 56005=
201508160153 METAR KSEA 160153Z 35008KT 10SM OVC070 19/11 A3024 RMK AO2 SLP244 T01940111=
201508160053 METAR KSEA 160053Z 36007KT 10SM FEW033 BKN070 21/11 A3025 RMK AO2 SLP247 T02060111=
201508152353 METAR KSEA 152353Z 34007KT 10SM FEW028 BKN033 BKN070 20/12 A3025 RMK AO2 SLP248 T02000122 10217 20183 58002=
201508152306 SPECI KSEA 152306Z 01007KT 10SM BKN028 BKN037 OVC070 21/12 A3025 RMK AO2=
201508152253 METAR KSEA 152253Z 29005KT 10SM FEW026 BKN041 OVC075 21/12 A3025 RMK AO2 SLP250 T02110117=
201508152153 METAR KSEA 152153Z VRB04KT 10SM FEW019 SCT030 OVC070 21/12 A3026 RMK AO2 SLP250 T02110117=
201508152053 METAR KSEA 152053Z 27005KT 10SM FEW010 SCT024 OVC070 19/12 A3025 RMK AO2 SLP251 T01940117 58002=
201508151953 METAR KSEA 151953Z 28005KT 10SM FEW010 SCT024 OVC070 19/12 A3026 RMK AO2 SLP251 T01940117=
201508151853 METAR KSEA 151853Z 19006KT 10SM SCT022 BKN070 19/12 A3026 RMK AO2 SLP253 T01940122=
201508151753 METAR KSEA 151753Z 18009KT 10SM BKN016 OVC026 18/13 A3026 RMK AO2 SLP252 T01830128 10183 20139 51008=
201508151653 METAR KSEA 151653Z 20006KT 10SM FEW012 OVC022 16/13 A3025 RMK AO2 SLP250 T01610128=
201508151553 METAR KSEA 151553Z 19008KT 10SM SCT014 OVC020 16/13 A3025 RMK AO2 SLP248 T01610128=
201508151513 SPECI KSEA 151513Z 19005KT 10SM BKN014 OVC020 16/13 A3024 RMK AO2=
201508151453 METAR KSEA 151453Z 19008KT 10SM SCT014 OVC020 16/13 A3024 RMK AO2 SLP245 T01560128 53010=
201508151353 METAR KSEA 151353Z 19007KT 10SM OVC018 15/13 A3022 RMK AO2 SLP239 T01500128=
201508151253 METAR KSEA 151253Z 18007KT 10SM BKN018 14/12 A3021 RMK AO2 SLP236 T01440122=
201508151153 METAR KSEA 151153Z 20006KT 10SM BKN016 OVC030 15/13 A3021 RMK AO2 SLP234 70120 T01500128 10156 20150 51009=
201508151053 METAR KSEA 151053Z 19008KT 10SM BKN016 OVC030 15/13 A3020 RMK AO2 SLP232 T01500128=
201508150953 METAR KSEA 150953Z 19008KT 10SM BKN018 BKN026 OVC032 16/13 A3019 RMK AO2 SLP228 T01560133=
201508150853 METAR KSEA 150853Z 19009KT 10SM BKN020 BKN025 OVC037 15/13 A3018 RMK AO2 SLP225 T01500133 51013=
201508150753 METAR KSEA 150753Z 19010KT 10SM FEW015 BKN025 BKN029 16/13 A3017 RMK AO2 SLP221 T01560128 401830150=
201508150700 SPECI KSEA 150700Z 19011KT 10SM BKN023 OVC030 16/13 A3016 RMK AO2=
201508150653 METAR KSEA 150653Z 19011KT 10SM SCT028 15/13 A3015 RMK AO2 SLP216 T01500128=
201508150553 METAR KSEA 150553Z 18010KT 10SM FEW018 15/13 A3014 RMK AO2 SLP211 60031 T01500133 10156 20150 53015=
201508150453 METAR KSEA 150453Z 19012KT 10SM FEW018 SCT095 16/14 A3012 RMK AO2 SLP205 T01560139=
201508150353 METAR KSEA 150353Z 19012G19KT 10SM FEW015 SCT040 BKN095 16/14 A3011 RMK AO2 SLP200 T01560139=
201508150253 METAR KSEA 150253Z 20013KT 10SM FEW015 BKN030 BKN090 16/14 A3009 RMK AO2 RAE19 SLP196 P0002 60031 T01560139 51003=
201508150153 METAR KSEA 150153Z 19012KT 4SM RA BR SCT015 SCT060 OVC085 16/14 A3009 RMK AO2 SLP194 P0015 T01560144=
201508150136 SPECI KSEA 150136Z 20013KT 3SM RA BR SCT014 BKN070 OVC085 16/14 A3009 RMK AO2 P0010=
201508150122 SPECI KSEA 150122Z 20012KT 4SM RA BR BKN013 BKN044 OVC075 16/14 A3010 RMK AO2 P0005=
201508150053 METAR KSEA 150053Z 20010KT 4SM RA BR FEW041 BKN070 OVC090 16/14 A3009 RMK AO2 SLP196 P0014 T01560144=
201508142353 METAR KSEA 142353Z 20014G22KT 4SM RA BR FEW009 OVC080 16/14 A3008 RMK AO2 SLP192 P0033 60089 T01560139 10172 20150 51016=
201508142333 SPECI KSEA 142333Z 20013KT 3SM RA BR FEW009 BKN060 OVC090 16/14 A3008 RMK AO2 P0028=
201508142304 SPECI KSEA 142304Z 21013KT 2SM RA BR SCT008 BKN032 OVC070 15/14 A3009 RMK AO2 P0010=
201508142253 METAR KSEA 142253Z 20013KT 2 1/2SM R16L/6000VP6000FT RA BR SCT008 BKN025 OVC070 15/14 A3008 RMK AO2 SLP192 P0033 T01500144=
201508142224 SPECI KSEA 142224Z 21015KT 2SM R16L/5000VP6000FT +RA BR BKN008 OVC032 15/14 A3007 RMK AO2 P0010=
201508142153 METAR KSEA 142153Z 21015KT 9SM -RA BKN008 BKN055 OVC095 16/14 A3005 RMK AO2 TSE44 SLP181 P0006 T01560144=
201508142147 SPECI KSEA 142147Z 21012KT 9SM -RA BKN008 OVC015 16/14 A3005 RMK AO2 TSE44 OCNL LTGIC NW TS DSNT NW P0005=
201508142116 SPECI KSEA 142116Z 19010KT 4SM -TSRA BR BKN008 OVC032 16/14 A3005 RMK AO2 OCNL LTGICCG VC N-E TS N-E MOV NW P0004=
201508142053 METAR KSEA 142053Z 22010KT 4SM -TSRA BR SCT013CB BKN026 OVC095 16/14 A3004 RMK AO2 SLP176 OCNL LTGICCG VC W-N-NE TS W-N-NE MOV NW P0015 60017 T01560139 53014=
201508141953 METAR KSEA 141953Z 21011KT 7SM -TSRA FEW009 BKN021CB OVC035 17/14 A3001 RMK AO2 TSB34RAB34 SLP169 OCNL LTGICCG OHD TS OHD MOV NW P0002 T01670144=
201508141935 SPECI KSEA 141935Z 21010KT 9SM -TSRA FEW009 BKN019CB OVC030 17/13 A3002 RMK AO2 TSB34RAB34 OCNL LTGICCG OHD TS OHD MOV N P0000=
201508141913 SPECI KSEA 141913Z 21008KT 10SM FEW009 BKN015 OVC025 17/14 A3001 RMK AO2=
201508141853 METAR KSEA 141853Z 21009KT 10SM FEW008 OVC014 17/14 A3001 RMK AO2 RAE13DZB13E35 SLP165 P0000 T01670139=
201508141803 SPECI KSEA 141803Z 22010G18KT 7SM -RA SCT007 OVC014 17/14 A3000 RMK AO2 P0000=
201508141753 METAR KSEA 141753Z 21012G22KT 6SM -RA BKN015 OVC023 17/14 A2999 RMK AO2 RAB53 SLP161 P0000 60000 T01720139 10183 20161 51006=
201508141653 METAR KSEA 141653Z 22007KT 10SM BKN017 OVC025 18/14 A2999 RMK AO2 SLP158 T01780139=
201508141614 SPECI KSEA 141614Z 21009KT 10SM FEW009 OVC017 18/14 A2999 RMK AO2=
201508141553 METAR KSEA 141553Z 20008KT 10SM FEW009 BKN014 BKN060 18/14 A2999 RMK AO2 SLP158 T01780139=
201508141453 METAR KSEA 141453Z 20008KT 10SM SCT008 OVC012 17/14 A2998 RMK AO2 SLP155 60000 T01670144 53003=
201508141421 SPECI KSEA 141421Z 20007KT 10SM FEW008 OVC012 17/14 A2997 RMK AO2=
201508141353 METAR KSEA 141353Z 18005KT 10SM BKN008 OVC100 17/14 A2997=
201508141343 SPECI KSEA 141343Z 21003KT 10SM BKN008 OVC012 17/14 A2996 RMK AO2 TSE43=
201508141253 METAR KSEA 141253Z 21007KT 10SM TS BKN010CB OVC140 17/14 A2997 RMK AO2 TSB08RAB13E21 SLP150 OCNL LTGIC VC W TS W MOV N P0000 T01670139=
201508141241 SPECI KSEA 141241Z 21006KT 10SM TS BKN010CB BKN140 17/14 A2996 RMK AO2 TSB08RAB13E21 OCNL LTGIC VC W TS W MOV N P0000=
201508141209 SPECI KSEA 141209Z 19008KT 10SM TS SCT009 BKN016CB BKN140 17/14 A2996 RMK AO2 TSB08 OCNL LTGIC OHD TS OHD MOV N=
201508141153 METAR KSEA 141153Z 20008KT 10SM SCT009 BKN016 17/14 A2997 RMK AO2 SLP151 T01670139 10194 20161 51010=
201508141143 SPECI KSEA 141143Z 19009KT 10SM FEW009 BKN016 17/14 A2996 RMK AO2=
201508141053 METAR KSEA 141053Z 18009KT 10SM BKN150 BKN210 16/14 A2995 RMK AO2 SLP145 T01610139=
201508140953 METAR KSEA 140953Z 21010KT 10SM FEW007 BKN200 16/14 A2996 RMK AO2 SLP149 OCNL LTG DSNT W CB DSNT W T01610139=
201508140853 METAR KSEA 140853Z 21007KT 10SM SCT250 17/14 A2994 RMK AO2 SLP142 T01670139 58001=
201508140753 METAR KSEA 140753Z 23004KT 10SM SCT250 18/13 A2994 RMK AO2 SLP143 T01780133 402830156=
201508140653 METAR KSEA 140653Z 27003KT 10SM SCT250 19/13 A2994 RMK AO2 SLP142 T01890133=
201508140553 METAR KSEA 140553Z 26003KT 10SM CLR 19/13 A2994 RMK AO2 SLP143 T01940128 10283 20194 51003=
201508140453 METAR KSEA 140453Z 28004KT 10SM SCT250 22/14 A2994 RMK AO2 SLP142 T02170139=
201508140353 METAR KSEA 140353Z 28004KT 10SM CLR 24/14 A2994 RMK AO2 SLP141 T02390144=
201508140253 METAR KSEA 140253Z 29003KT 10SM CLR 25/16 A2993 RMK AO2 SLP140 T02500156 55003=
201508140153 METAR KSEA 140153Z 23006KT 10SM BKN250 27/16 A2993 RMK AO2 SLP138 T02720156=
201508140053 METAR KSEA 140053Z 21004KT 10SM BKN250 28/16 A2994 RMK AO2 SLP140 T02780156=
201508132353 METAR KSEA 132353Z 23006KT 10SM FEW250 28/16 A2994 RMK AO2 SLP142 T02830156 10283 20200 56018=
201508132253 METAR KSEA 132253Z 28006KT 10SM CLR 28/15 A2994 RMK AO2 SLP143 T02780150=
201508132153 METAR KSEA 132153Z 22005KT 10SM FEW200 27/15 A2997 RMK AO2 SLP151 T02670150=
201508132053 METAR KSEA 132053Z VRB04KT 10SM FEW200 26/15 A2999 RMK AO2 SLP159 T02560150 58021=
201508131953 METAR KSEA 131953Z 24005KT 10SM FEW200 23/15 A3002 RMK AO2 SLP168 T02330150=
201508131853 METAR KSEA 131853Z 14004KT 10SM CLR 22/15 A3004 RMK AO2 SLP175 T02220150=
201508131800 SPECI KSEA 131800Z VRB03KT 10SM SCT014 21/15 A3005 RMK AO2=
201508131753 METAR KSEA 131753Z 21005KT 10SM BKN014 20/15 A3005 RMK AO2 SLP181 T02000150 10206 20156 58002=
201508131653 METAR KSEA 131653Z 16006KT 10SM BKN010 18/15 A3006 RMK AO2 SLP184 T01830150=
201508131637 SPECI KSEA 131637Z 19005KT 10SM OVC010 18/14 A3007 RMK AO2=
201508131553 METAR KSEA 131553Z 21005KT 10SM OVC008 18/15 A3007 RMK AO2 SLP184 T01780150=
201508131513 SPECI KSEA 131513Z 22007KT 10SM OVC008 17/15 A3006 RMK AO2=
201508131453 METAR KSEA 131453Z 21007KT 10SM OVC010 17/15 A3006 RMK AO2 SLP182 T01720150 51009=
201508131429 SPECI KSEA 131429Z 16005KT 10SM OVC010 17/15 A3006 RMK AO2=
201508131353 METAR KSEA 131353Z 17004KT 10SM SCT008 16/14 A3005 RMK AO2 SLP180 T01610144=
201508131253 METAR KSEA 131253Z 17004KT 10SM FEW007 SCT250 16/14 A3004 RMK AO2 SLP177 T01560144=
201508131153 METAR KSEA 131153Z 23004KT 10SM FEW008 16/14 A3003 RMK AO2 SLP174 70030 T01610144 10228 20161 51001=
201508131053 METAR KSEA 131053Z 22003KT 10SM FEW250 17/14 A3003 RMK AO2 SLP174 T01720139=
201508130953 METAR KSEA 130953Z 24003KT 10SM SCT250 18/14 A3003 RMK AO2 SLP173 T01830139=
201508130853 METAR KSEA 130853Z 00000KT 10SM SCT250 19/14 A3003 RMK AO2 SLP173 T01890139 51009=
201508130753 METAR KSEA 130753Z 16005KT 10SM SCT250 19/14 A3003 RMK AO2 SLP173 T01940139 402830167=
201508130653 METAR KSEA 130653Z 21008KT 10SM SCT250 21/14 A3002 RMK AO2 SLP168 T02060144=
201508130553 METAR KSEA 130553Z 20006KT 10SM SCT250 23/14 A3000 RMK AO2 SLP163 T02280139 10283 20228 53017=
201508130453 METAR KSEA 130453Z 18004KT 10SM BKN250 23/14 A2999 RMK AO2 SLP157 T02330139=
201508130353 METAR KSEA 130353Z 15005KT 10SM FEW150 BKN250 26/13 A2996 RMK AO2 SLP150 T02610128=
201508130253 METAR KSEA 130253Z 12005KT 10SM FEW150 BKN250 27/13 A2995 RMK AO2 SLP146 T02720128 55001=
201508130153 METAR KSEA 130153Z 15004KT 10SM FEW150 BKN250 28/13 A2994 RMK AO2 SLP143 T02780133=
201508130053 METAR KSEA 130053Z 22004KT 10SM FEW150 BKN250 28/13 A2995 RMK AO2 SLP145 T02780133=
201508122353 METAR KSEA 122353Z 28008KT 10SM FEW150 BKN250 27/13 A2995 RMK AO2 SLP146 60030 T02720128 10272 20178 56015=
201508122253 METAR KSEA 122253Z 28008KT 10SM FEW150 BKN200 27/15 A2997 RMK AO2 SLP150 T02670150=
201508122153 METAR KSEA 122153Z 04003KT 10SM FEW060 SCT140 BKN200 27/14 A2999 RMK AO2 SLP157 T02670144=
201508122053 METAR KSEA 122053Z 33003KT 10SM SCT060 OVC140 23/16 A3000 RMK AO2 SLP162 VIRGA 60030 T02280156 50009=
201508121953 METAR KSEA 121953Z 05004KT 10SM FEW040 SCT060 BKN150 23/14 A3000 RMK AO2 TSE23RAE08 SLP163 P0000 T02280144=
201508121923 SPECI KSEA 121923Z 22006KT 10SM FEW040 BKN060 BKN150 21/17 A3000 RMK AO2 TSE23RAE08 OCNL LTGICCG DSNT NE CB DSNT NE P0000=
201508121853 METAR KSEA 121853Z 16015G19KT 10SM -TSRA SCT039CB BKN060 BKN150 19/16 A2998 RMK AO2 TSB18RAB08GSB34E37GRB37E42 SLP155 OCNL LTGICCG VC N-E TS N-E MOV N P0030 T01890156=
201508121842 SPECI KSEA 121842Z 35009KT 7SM R16L/4000VP6000FT TSRA SCT041CB BKN060 BKN160 18/15 A2996 RMK AO2 TSB18RAB08GSB34E37GRB37E42 OCNL LTGICCG OHD TS OHD MOV N P0021=
201508121837 SPECI KSEA 121837Z 35009KT 5SM R16L/4000VP6000FT TSGRRA BKN060CB OVC160 18/14 A2996 RMK AO2 TSB18RAB08GSB34E37GRB37 PRESFR OCNL LTGICCG OHD TS OHD MOV N GR 1/4 P0017=
201508121834 SPECI KSEA 121834Z 35013G16KT 5SM R16L/5000VP6000FT TSGSRA BKN060CB OVC160 18/14 A2996 RMK AO2 TSB18RAB08GSB34 PRESFR VIS S 2 OCNL LTGICCG OHD TS OHD MOV N P0013=
201508121818 SPECI KSEA 121818Z 30005KT 10SM -TSRA SCT070CB BKN160 19/13 A3000 RMK AO2 TSB18RAB08 OCNL LTGICCG OHD TS OHD MOV N P0000=
201508121753 METAR KSEA 121753Z 27008KT 10SM SCT080 BKN180 21/13 A2997 RMK AO2 PRESRR SLP152 OCNL LTGIC DSNT S CB DSNT S-SW T02110133 10244 20167 53007=
201508121653 METAR KSEA 121653Z 36008KT 10SM SCT120 BKN250 23/13 A2995 RMK AO2 SLP147 T02330133=
201508121553 METAR KSEA 121553Z 02006KT 10SM FEW100 SCT250 23/13 A2996 RMK AO2 SLP147 T02280133=
201508121453 METAR KSEA 121453Z 06003KT 10SM FEW100 SCT250 21/14 A2995 RMK AO2 SLP146 T02060144 53005=
201508121353 METAR KSEA 121353Z 00000KT 10SM FEW100 SCT250 17/13 A2995 RMK AO2 SLP144 T01670128=
201508121253 METAR KSEA 121253Z 00000KT 10SM BKN250 19/13 A2993 RMK AO2 SLP137 T01940133=
201508121153 METAR KSEA 121153Z 02005KT 10SM SCT250 19/12 A2994 RMK AO2 SLP140 T01940122 10250 20178 50000=
201508121053 METAR KSEA 121053Z 02004KT 10SM SCT250 21/12 A2995 RMK AO2 SLP144 T02060122=
201508120953 METAR KSEA 120953Z 34004KT 10SM CLR 19/12 A2993 RMK AO2 SLP140 T01940122=
201508120853 METAR KSEA 120853Z 03006KT 10SM SCT250 23/12 A2993 RMK AO2 SLP139 T02280117 50000=
201508120753 METAR KSEA 120753Z 03003KT 10SM BKN250 22/12 A2994 RMK AO2 SLP142 T02220117 403000167=
201508120653 METAR KSEA 120653Z 06007KT 10SM BKN250 24/12 A2994 RMK AO2 SLP141 T02390117=
201508120553 METAR KSEA 120553Z 01011KT 10SM BKN250 25/11 A2993 RMK AO2 SLP139 T02500106 10294 20244 53015=
201508120453 METAR KSEA 120453Z 02007KT 10SM BKN250 26/12 A2992 RMK AO2 SLP134 T02560117=
201508120353 METAR KSEA 120353Z 01007KT 10SM BKN250 26/11 A2990 RMK AO2 SLP127 T02610111=
201508120253 METAR KSEA 120253Z 01007KT 10SM BKN250 28/11 A2989 RMK AO2 SLP124 T02780106 55003=
201508120153 METAR KSEA 120153Z 35007KT 10SM BKN250 28/12 A2988 RMK AO2 SLP121 T02830122=
201508120053 METAR KSEA 120053Z 35011KT 10SM BKN250 29/13 A2989 RMK AO2 SLP124 T02940133=
201508112353 METAR KSEA 112353Z 36012KT 10SM FEW150 BKN250 29/13 A2990 RMK AO2 SLP127 T02940133 10300 20239 58008=
201508112253 METAR KSEA 112253Z 01007KT 10SM FEW150 BKN250 29/13 A2991 RMK AO2 SLP132 T02940133=
201508112153 METAR KSEA 112153Z 34010G15KT 10SM FEW120 BKN250 28/13 A2992 RMK AO2 SLP134 T02830128=
201508112053 METAR KSEA 112053Z 36009KT 10SM FEW120 BKN250 28/13 A2992 RMK AO2 SLP136 T02780128 56015=
201508111953 METAR KSEA 111953Z 36012KT 10SM FEW060 BKN250 27/12 A2993 RMK AO2 SLP138 T02720122=
201508111853 METAR KSEA 111853Z 01011KT 10SM FEW060 BKN250 25/12 A2995 RMK AO2 SLP145 T02500122=
201508111753 METAR KSEA 111753Z 02014KT 10SM FEW060 BKN250 24/12 A2997 RMK AO2 SLP152 T02390122 10239 20167 58007=
201508111653 METAR KSEA 111653Z 36010KT 10SM FEW060 BKN250 22/13 A2998 RMK AO2 SLP156 T02220128=
201508111553 METAR KSEA 111553Z 02010KT 10SM FEW050 BKN250 20/13 A2999 RMK AO2 SLP158 T02000128=
201508111453 METAR KSEA 111453Z 03008KT 10SM FEW050 BKN250 18/12 A2999 RMK AO2 SLP159 T01830122 51011=
201508111353 METAR KSEA 111353Z 02006KT 10SM FEW090 BKN250 18/12 A2999 RMK AO2 SLP158 T01780122=
201508111253 METAR KSEA 111253Z 02007KT 10SM FEW100 BKN250 18/12 A2997 RMK AO2 SLP152 T01780122=
201508111153 METAR KSEA 111153Z 03008KT 10SM CLR 18/12 A2996 RMK AO2 SLP148 T01830122 10200 20178 58003=
201508111053 METAR KSEA 111053Z 01007KT 10SM CLR 18/12 A2997 RMK AO2 SLP153 T01830122=
201508110953 METAR KSEA 110953Z 03007KT 10SM SCT150 19/12 A2997 RMK AO2 SLP153 T01940122=
201508110853 METAR KSEA 110853Z 02009KT 10SM SCT150 20/12 A2997 RMK AO2 SLP151 T02000122 50002=
201508110753 METAR KSEA 110753Z 35006KT 10SM BKN150 18/12 A2997 RMK AO2 SLP153 T01830117 402890161=
201508110653 METAR KSEA 110653Z 00000KT 10SM BKN150 19/12 A2997 RMK AO2 SLP153 T01890122=
201508110553 METAR KSEA 110553Z 29006KT 10SM BKN200 19/12 A2996 RMK AO2 SLP150 T01940117 10289 20194 51018=
201508110453 METAR KSEA 110453Z 27003KT 10SM BKN200 22/11 A2994 RMK AO2 SLP143 T02220106=
201508110353 METAR KSEA 110353Z 34008KT 10SM FEW050 SCT200 BKN250 23/11 A2993 RMK AO2 SLP139 T02330106=
201508110253 METAR KSEA 110253Z 36006KT 10SM FEW050 SCT200 BKN250 26/11 A2991 RMK AO2 SLP132 T02560111 53003=
201508110153 METAR KSEA 110153Z 03008KT 10SM FEW050 SCT180 BKN250 27/11 A2989 RMK AO2 SLP125 T02720106=
201508110053 METAR KSEA 110053Z 34004KT 10SM FEW050 SCT180 BKN250 29/11 A2989 RMK AO2 SLP124 T02890106=
201508102353 METAR KSEA 102353Z 28005KT 10SM FEW050 SCT180 BKN250 28/10 A2990 RMK AO2 SLP128 T02830100 10289 20222 55005=
201508102253 METAR KSEA 102253Z 29008KT 10SM FEW050 SCT250 28/09 A2990 RMK AO2 SLP127 T02830094=
201508102153 METAR KSEA 102153Z 29007KT 10SM FEW050 SCT250 27/10 A2991 RMK AO2 SLP130 T02720100=
201508102053 METAR KSEA 102053Z 31007KT 9SM FEW050 SCT250 27/11 A2991 RMK AO2 SLP133 T02670106 56017=
201508101953 METAR KSEA 101953Z 26008KT 10SM FEW050 SCT250 25/11 A2992 RMK AO2 SLP135 T02500111=
201508101853 METAR KSEA 101853Z 28007KT 10SM FEW095 SCT250 23/12 A2995 RMK AO2 SLP145 T02330117=
201508101753 METAR KSEA 101753Z 29005KT 10SM FEW095 BKN250 23/13 A2996 RMK AO2 SLP150 60000 T02280133 10228 20161 58001=
201508101653 METAR KSEA 101653Z 12003KT 10SM BKN095 BKN250 19/14 A2997 RMK AO2 SLP154 T01890139=
201508101553 METAR KSEA 101553Z 19005KT 10SM BKN100 17/14 A2998 RMK AO2 RAE26 SLP156 P0000 T01720144=
201508101453 METAR KSEA 101453Z 16005KT 10SM -RA FEW070 OVC095 17/14 A2997 RMK AO2 RAB11 SLP151 P0000 60000 T01670139 53011=
201508101353 METAR KSEA 101353Z 23005KT 10SM BKN100 OVC150 17/12 A2996 RMK AO2 SLP148 T01720122=
201508101253 METAR KSEA 101253Z 00000KT 10SM BKN100 BKN180 18/12 A2993 RMK AO2 SLP139 T01780122=
201508101153 METAR KSEA 101153Z 00000KT 10SM BKN110 18/12 A2993 RMK AO2 SLP139 T01830122 10200 20178 58007=
201508101053 METAR KSEA 101053Z 17004KT 10SM BKN130 18/12 A2995 RMK AO2 SLP144 T01830122=
201508100953 METAR KSEA 100953Z 16003KT 10SM BKN130 18/12 A2995 RMK AO2 SLP146 T01830122=
201508100853 METAR KSEA 100853Z 00000KT 10SM BKN130 19/11 A2995 RMK AO2 SLP146 T01940106 50001=
201508100753 METAR KSEA 100753Z 00000KT 10SM BKN130 19/09 A2996 RMK AO2 SLP147 T01890094 402830150=
201508100653 METAR KSEA 100653Z 28004KT 10SM SCT130 18/11 A2996 RMK AO2 SLP149 T01830106=
201508100553 METAR KSEA 100553Z 28004KT 10SM SCT130 20/11 A2995 RMK AO2 SLP146 T02000106 10283 20200 53010=
201508100453 METAR KSEA 100453Z 34006KT 10SM FEW040 BKN130 21/11 A2994 RMK AO2 SLP142 T02110111=
201508100353 METAR KSEA 100353Z 35007KT 10SM FEW040 BKN230 23/11 A2992 RMK AO2 SLP137 T02280111=
201508100253 METAR KSEA 100253Z 36004KT 10SM FEW040 BKN230 26/11 A2992 RMK AO2 SLP134 T02560106 56007=
201508100153 METAR KSEA 100153Z 29004KT 10SM FEW040 SCT200 27/09 A2992 RMK AO2 SLP135 T02720089=
201508100053 METAR KSEA 100053Z 26003KT 10SM FEW040 SCT130 27/09 A2993 RMK AO2 SLP139 T02720089=
201508092353 METAR KSEA 092353Z 30006KT 10SM FEW040 SCT120 27/08 A2994 RMK AO2 SLP142 T02720083 10278 20211 56011=
201508092253 METAR KSEA 092253Z 00000KT 10SM FEW040 27/08 A2995 RMK AO2 SLP145 T02670083=
201508092153 METAR KSEA 092153Z 31005KT 10SM FEW040 26/09 A2996 RMK AO2 SLP149 T02610089=
201508092053 METAR KSEA 092053Z 25007KT 10SM FEW040 SCT140 25/11 A2997 RMK AO2 SLP153 T02500106 58011=
201508091953 METAR KSEA 091953Z 27007KT 10SM FEW040 SCT150 24/11 A2998 RMK AO2 SLP158 T02390111=
201508091853 METAR KSEA 091853Z 28006KT 10SM FEW030 BKN100 23/12 A3000 RMK AO2 SLP162 T02330117=
201508091753 METAR KSEA 091753Z VRB05KT 10SM FEW030 SCT090 22/12 A3000 RMK AO2 SLP164 T02170117 10217 20150 58005=
201508091653 METAR KSEA 091653Z 00000KT 10SM FEW030 SCT090 20/12 A3002 RMK AO2 SLP168 T02000122=
201508091553 METAR KSEA 091553Z 17005KT 10SM FEW030 SCT080 19/13 A3002 RMK AO2 SLP171 T01890128=
201508091453 METAR KSEA 091453Z 19005KT 10SM FEW030 18/13 A3002 RMK AO2 SLP169 T01780133 53005=
201508091353 METAR KSEA 091353Z 17003KT 10SM FEW030 16/13 A3001 RMK AO2 SLP166 T01610133=
201508091253 METAR KSEA 091253Z 16004KT 10SM FEW060 16/13 A3000 RMK AO2 SLP164 T01560133=
201508091153 METAR KSEA 091153Z 15005KT 10SM CLR 15/13 A3000 RMK AO2 SLP164 T01500128 10172 20150 51004=
201508091053 METAR KSEA 091053Z 15004KT 10SM CLR 16/13 A3000 RMK AO2 SLP164 T01560128=
201508090953 METAR KSEA 090953Z 15005KT 10SM CLR 16/13 A3000 RMK AO2 SLP162 T01610133=
201508090853 METAR KSEA 090853Z 16005KT 10SM CLR 16/13 A2999 RMK AO2 SLP160 T01610133 53010=
201508090753 METAR KSEA 090753Z 18005KT 10SM CLR 16/14 A2998 RMK AO2 SLP156 T01610139 402500156=
201508090653 METAR KSEA 090653Z 21004KT 10SM FEW017 OVC039 17/14 A2997 RMK AO2 SLP154 T01720144=
201508090553 METAR KSEA 090553Z 21007KT 10SM SCT045 BKN100 17/14 A2996 RMK AO2 SLP150 60000 T01720144 10228 20172 51010=
201508090453 METAR KSEA 090453Z 22008KT 10SM SCT045 BKN100 18/15 A2996 RMK AO2 SLP148 T01780150=
201508090353 METAR KSEA 090353Z 22012KT 10SM FEW035 BKN055 BKN100 18/16 A2995 RMK AO2 RAB05E33 SLP146 P0000 T01780156=
201508090253 METAR KSEA 090253Z 23009KT 10SM SCT035 BKN100 19/15 A2993 RMK AO2 SLP140 SHRA DSNT S 60000 T01890150 52011=
201508090153 METAR KSEA 090153Z 24011KT 10SM SCT030 BKN110 21/14 A2992 RMK AO2 RAB06E18 SLP136 VIRGA S AND NW P0000 T02060144=
201508090053 METAR KSEA 090053Z 23009KT 10SM SCT100 22/14 A2991 RMK AO2 SLP133 T02170144=
201508082353 METAR KSEA 082353Z 24008KT 10SM SCT030 BKN100 23/14 A2990 RMK AO2 SLP129 T02280139 10250 20183 53004=
201508082253 METAR KSEA 082253Z 25011KT 10SM SCT030 BKN110 BKN250 24/13 A2989 RMK AO2 SLP126 T02440128=
201508082153 METAR KSEA 082153Z 25013G18KT 10SM SCT035 BKN110 BKN250 24/13 A2989 RMK AO2 SLP126 T02440133=
201508082053 METAR KSEA 082053Z 23008KT 10SM FEW035 SCT140 BKN200 24/14 A2989 RMK AO2 SLP125 T02440139 55004=
201508081953 METAR KSEA 081953Z 23009KT 10SM FEW015 BKN200 22/14 A2989 RMK AO2 SLP124 T02220139=
201508081904 SPECI KSEA 081904Z 18009KT 10SM SCT015 BKN200 22/14 A2989 RMK AO2=
201508081853 METAR KSEA 081853Z 19009KT 10SM BKN015 22/14 A2990 RMK AO2 SLP128 T02170139=
201508081843 SPECI KSEA 081843Z 19011KT 10SM BKN015 21/14 A2990 RMK AO2=
201508081753 METAR KSEA 081753Z 21007KT 10SM OVC011 18/14 A2990 RMK AO2 SLP129 T01830139 10183 20156 58000=
201508081702 SPECI KSEA 081702Z 22007KT 10SM OVC011 17/14 A2990 RMK AO2=
201508081653 METAR KSEA 081653Z 20007KT 10SM OVC009 17/14 A2990 RMK AO2 SLP129 T01720139=
201508081553 METAR KSEA 081553Z 21005KT 8SM OVC005 17/14 A2990 RMK AO2 SLP130 T01670144=
201508081538 SPECI KSEA 081538Z 20006KT 2SM OVC005 17/14 A2990 RMK AO2 SFC VIS 10=
201508081453 METAR KSEA 081453Z 22005KT 2SM OVC003 16/14 A2990 RMK AO2 SFC VIS 10 SLP129 T01610144 53002=
201508081353 METAR KSEA 081353Z 20005KT 2SM OVC003 16/14 A2989 RMK AO2 SFC VIS 10 SLP126 T01610144=
201508081256 SPECI KSEA 081256Z 21006KT 1 1/2SM OVC003 16/14 A2989 RMK AO2 SFC VIS 8=
201508081253 METAR KSEA 081253Z 21004KT 10SM OVC003 16/14 A2989 RMK AO2 SLP126 T01560144=
201508081216 SPECI KSEA 081216Z 20005KT 10SM OVC003 16/14 A2990 RMK AO2=
201508081153 METAR KSEA 081153Z 20005KT 10SM OVC005 16/14 A2990 RMK AO2 SLP126 T01610144 10211 20156 50004=
201508081131 SPECI KSEA 081131Z 20004KT 10SM BKN005 16/14 A2989 RMK AO2=
201508081128 SPECI KSEA 081128Z 19005KT 10SM SCT005 16/14 A2989 RMK AO2=
201508081053 METAR KSEA 081053Z 18004KT 10SM CLR 16/14 A2990 RMK AO2 SLP127 T01560139=
201508080953 METAR KSEA 080953Z 23004KT 10SM CLR 17/14 A2989 RMK AO2 SLP126 T01670139=
201508080853 METAR KSEA 080853Z 00000KT 10SM CLR 17/14 A2988 RMK AO2 SLP124 T01720139 50000=
201508080753 METAR KSEA 080753Z 00000KT 10SM CLR 19/14 A2989 RMK AO2 SLP125 T01890139 402830156=
201508080653 METAR KSEA 080653Z 05006KT 10SM CLR 21/14 A2988 RMK AO2 SLP123 T02060139=
201508080553 METAR KSEA 080553Z 03007KT 10SM CLR 21/14 A2988 RMK AO2 SLP123 T02110139 10283 20206 53004=
201508080453 METAR KSEA 080453Z 36007KT 10SM FEW050 22/13 A2988 RMK AO2 SLP123 T02170133=
201508080353 METAR KSEA 080353Z 35007KT 10SM FEW050 22/13 A2987 RMK AO2 SLP119 T02220128=
201508080253 METAR KSEA 080253Z 36006KT 10SM FEW050 25/12 A2987 RMK AO2 SLP118 T02500117 55009=
201508080153 METAR KSEA 080153Z 01009KT 10SM FEW050 27/10 A2987 RMK AO2 SLP118 T02670100=
201508080053 METAR KSEA 080053Z 01009KT 10SM FEW050 28/09 A2988 RMK AO2 SLP122 T02780089=
201508072353 METAR KSEA 072353Z 35006KT 10SM FEW050 28/08 A2990 RMK AO2 SLP127 T02780083 10283 20222 58017=
201508072253 METAR KSEA 072253Z VRB06KT 10SM FEW040 28/09 A2992 RMK AO2 SLP134 T02780089=
201508072153 METAR KSEA 072153Z 28008KT 10SM FEW040 26/10 A2993 RMK AO2 SLP141 T02610100=
201508072053 METAR KSEA 072053Z 29009KT 10SM FEW030 SCT250 25/11 A2995 RMK AO2 SLP146 T02500106 58011=
201508071953 METAR KSEA 071953Z 31008KT 10SM FEW030 SCT250 24/11 A2996 RMK AO2 SLP149 T02440111=
201508071853 METAR KSEA 071853Z 29008KT 10SM FEW250 23/12 A2997 RMK AO2 SLP154 T02280117=
201508071753 METAR KSEA 071753Z 02004KT 10SM FEW250 22/11 A2998 RMK AO2 SLP157 T02220111 10222 20156 58009=
201508071653 METAR KSEA 071653Z 36008KT 10SM FEW250 21/11 A3000 RMK AO2 SLP164 T02060106=
201508071553 METAR KSEA 071553Z 36005KT 10SM FEW250 19/11 A3001 RMK AO2 SLP165 T01890106=
201508071453 METAR KSEA 071453Z 03007KT 10SM CLR 18/11 A3001 RMK AO2 SLP166 T01780111 55001=
201508071353 METAR KSEA 071353Z 03005KT 10SM FEW250 16/11 A3001 RMK AO2 SLP165 T01610111=
201508071253 METAR KSEA 071253Z 03010KT 10SM CLR 16/11 A3000 RMK AO2 SLP164 T01560111=
201508071153 METAR KSEA 071153Z 03009KT 10SM CLR 16/11 A3001 RMK AO2 SLP167 T01560111 10178 20156 56004=
201508071053 METAR KSEA 071053Z 01009KT 10SM CLR 16/11 A3001 RMK AO2 SLP167 T01610111=
201508070953 METAR KSEA 070953Z 02011KT 10SM CLR 16/11 A3001 RMK AO2 SLP168 T01610111=
201508070853 METAR KSEA 070853Z 01007KT 10SM CLR 16/11 A3002 RMK AO2 SLP171 T01610106 56006=
201508070753 METAR KSEA 070753Z 02008KT 10SM SCT200 18/10 A3003 RMK AO2 SLP172 T01780100 402500150=
201508070653 METAR KSEA 070653Z 36006KT 10SM SCT200 17/09 A3003 RMK AO2 SLP173 T01720094=
201508070553 METAR KSEA 070553Z 35005KT 10SM CLR 18/09 A3004 RMK AO2 SLP177 T01780089 10250 20178 58002=
201508070453 METAR KSEA 070453Z 35008KT 10SM FEW050 19/08 A3005 RMK AO2 SLP179 T01890083=
201508070353 METAR KSEA 070353Z 36008KT 10SM FEW050 21/09 A3005 RMK AO2 SLP179 T02060094=
201508070253 METAR KSEA 070253Z 35008KT 10SM FEW050 23/09 A3005 RMK AO2 SLP179 T02280089 56010=
201508070153 METAR KSEA 070153Z 36009KT 10SM FEW050 24/09 A3005 RMK AO2 SLP181 T02440089=
201508070053 METAR KSEA 070053Z 01010KT 10SM FEW050 24/09 A3006 RMK AO2 SLP185 T02440089=
201508062353 METAR KSEA 062353Z 30008KT 10SM FEW050 24/09 A3007 RMK AO2 SLP189 T02440089 10250 20189 56016=
201508062253 METAR KSEA 062253Z 31009KT 10SM SCT050 25/09 A3009 RMK AO2 SLP193 T02500089=
201508062153 METAR KSEA 062153Z 00000KT 10SM SCT048 23/10 A3011 RMK AO2 SLP200 T02330100=
201508062053 METAR KSEA 062053Z 28006KT 10SM SCT042 23/10 A3012 RMK AO2 SLP205 T02330100 57007=
201508061953 METAR KSEA 061953Z 25004KT 10SM SCT036 22/10 A3013 RMK AO2 SLP207 T02170100=
201508061853 METAR KSEA 061853Z 29008KT 10SM SCT034 21/11 A3014 RMK AO2 SLP211 T02060106=
201508061753 METAR KSEA 061753Z 28007KT 10SM BKN030 20/12 A3015 RMK AO2 SLP212 T02000117 10200 20150 58001=
201508061653 METAR KSEA 061653Z 29005KT 10SM SCT024 BKN033 18/11 A3015 RMK AO2 SLP213 T01780111=
201508061610 SPECI KSEA 061610Z 28005KT 10SM SCT020 18/12 A3015 RMK AO2=
201508061553 METAR KSEA 061553Z 30004KT 10SM BKN020 17/12 A3015 RMK AO2 SLP215 T01670117=
201508061508 SPECI KSEA 061508Z 00000KT 10SM BKN018 BKN032 16/11 A3015 RMK AO2=
201508061453 METAR KSEA 061453Z 00000KT 10SM SCT018 BKN032 16/11 A3015 RMK AO2 SLP214 T01560111 53006=
201508061353 METAR KSEA 061353Z 00000KT 10SM SCT018 BKN034 15/11 A3013 RMK AO2 SLP210 T01500111=
201508061253 METAR KSEA 061253Z 18005KT 10SM FEW022 BKN035 16/11 A3013 RMK AO2 SLP207 T01560111=
201508061225 SPECI KSEA 061225Z 18004KT 10SM FEW022 BKN031 16/11 A3013 RMK AO2=
201508061153 METAR KSEA 061153Z 17004KT 10SM BKN024 OVC029 16/11 A3013 RMK AO2 SLP207 T01560111 10167 20150 53006=
201508061053 METAR KSEA 061053Z 17004KT 10SM OVC021 16/11 A3012 RMK AO2 SLP204 T01560111=
201508060953 METAR KSEA 060953Z 19004KT 10SM OVC024 16/11 A3012 RMK AO2 SLP203 T01560111=
201508060853 METAR KSEA 060853Z 12004KT 10SM OVC024 17/11 A3011 RMK AO2 SLP201 T01670106 53004=
201508060753 METAR KSEA 060753Z 08006KT 10SM BKN026 OVC041 17/11 A3011 RMK AO2 SLP199 T01670106 402330122=
201508060739 SPECI KSEA 060739Z 08005KT 10SM OVC026 17/11 A3011 RMK AO2=
201508060653 METAR KSEA 060653Z 08006KT 10SM BKN030 OVC037 17/11 A3010 RMK AO2 SLP198 T01670111=
201508060553 METAR KSEA 060553Z 06008KT 10SM OVC039 16/11 A3010 RMK AO2 SLP198 T01610111 10222 20161 50008=
201508060453 METAR KSEA 060453Z 04013KT 10SM BKN037 OVC100 17/11 A3010 RMK AO2 SLP198 T01670111=
201508060353 METAR KSEA 060353Z 03013KT 10SM FEW050 BKN100 17/11 A3009 RMK AO2 SLP193 T01720111=
201508060253 METAR KSEA 060253Z 03014KT 10SM FEW050 BKN095 BKN250 18/11 A3008 RMK AO2 SLP190 T01780111 53007=
201508060153 METAR KSEA 060153Z 02015KT 10SM SCT050 BKN100 BKN250 19/11 A3006 RMK AO2 SLP184 T01940111=
201508060053 METAR KSEA 060053Z 33005KT 10SM BKN050 BKN120 22/11 A3005 RMK AO2 SLP183 T02170111=
201508052353 METAR KSEA 052353Z 22007KT 10SM SCT048 BKN140 22/10 A3005 RMK AO2 SLP182 T02170100 10233 20167 56009=
201508052253 METAR KSEA 052253Z 20010KT 10SM SCT048 BKN150 23/10 A3006 RMK AO2 SLP183 T02330100=
201508052153 METAR KSEA 052153Z 20007KT 10SM SCT046 SCT090 BKN250 23/10 A3007 RMK AO2 SLP186 T02280100=
201508052053 METAR KSEA 052053Z 23007KT 10SM FEW035 BKN055 BKN250 22/10 A3008 RMK AO2 SLP191 T02170100 58006=
201508051953 METAR KSEA 051953Z VRB03KT 10SM FEW028 SCT040 BKN250 20/11 A3010 RMK AO2 SLP196 T02000106=
201508051917 SPECI KSEA 051917Z 26008KT 10SM FEW026 BKN035 19/10 A3011 RMK AO2=
201508051853 METAR KSEA 051853Z 24007KT 10SM BKN026 BKN040 18/10 A3011 RMK AO2 SLP200 T01830100=
201508051753 METAR KSEA 051753Z 20005KT 10SM BKN018 17/11 A3010 RMK AO2 SLP198 T01670106 10167 20122 53004=
201508051718 SPECI KSEA 051718Z 23006KT 10SM OVC015 15/11 A3010 RMK AO2=
201508051653 METAR KSEA 051653Z 22005KT 10SM OVC014 15/11 A3010 RMK AO2 SLP197 T01500106=
201508051553 METAR KSEA 051553Z 17008KT 10SM OVC014 15/11 A3009 RMK AO2 SLP194 T01500106=
201508051521 SPECI KSEA 051521Z 15006KT 10SM OVC014 14/11 A3009 RMK AO2=
201508051453 METAR KSEA 051453Z 16004KT 10SM OVC016 14/11 A3009 RMK AO2 SLP193 T01440106 51008=
201508051422 SPECI KSEA 051422Z 16004KT 10SM BKN015 14/11 A3008 RMK AO2=
201508051353 METAR KSEA 051353Z 16005KT 10SM BKN014 14/11 A3008 RMK AO2 SLP190 T01390106=
201508051313 SPECI KSEA 051313Z 17004KT 10SM BKN014 BKN200 13/10 A3008 RMK AO2=
201508051253 METAR KSEA 051253Z 17004KT 10SM SCT014 SCT200 12/10 A3008 RMK AO2 SLP190 T01220100=
201508051153 METAR KSEA 051153Z 17005KT 10SM SCT200 13/10 A3006 RMK AO2 SLP184 T01280100 10167 20128 51006=
201508051053 METAR KSEA 051053Z 18004KT 10SM SCT200 13/11 A3006 RMK AO2 SLP184 T01330106=
201508050953 METAR KSEA 050953Z 22003KT 10SM FEW065 SCT200 14/11 A3005 RMK AO2 SLP182 T01440106=
201508050853 METAR KSEA 050853Z 00000KT 10SM SCT065 SCT200 16/11 A3004 RMK AO2 SLP178 T01560106 51009=
201508050753 METAR KSEA 050753Z 26003KT 10SM CLR 16/11 A3004 RMK AO2 SLP175 T01560106 402610144=
201508050653 METAR KSEA 050653Z 31003KT 10SM FEW200 15/11 A3002 RMK AO2 SLP172 T01500106=
201508050553 METAR KSEA 050553Z 00000KT 10SM FEW050 SCT200 16/11 A3002 RMK AO2 SLP169 T01560111 10261 20156 51016=
201508050453 METAR KSEA 050453Z 21003KT 10SM FEW050 SCT200 17/11 A3000 RMK AO2 SLP164 T01720111=
201508050353 METAR KSEA 050353Z 26003KT 10SM FEW050 SCT200 19/11 A2998 RMK AO2 SLP158 T01940111=
201508050253 METAR KSEA 050253Z 24008KT 10SM FEW050 SCT160 SCT250 23/10 A2997 RMK AO2 SLP152 T02280100 55003=
201508050153 METAR KSEA 050153Z 23007KT 10SM FEW050 SCT210 24/11 A2996 RMK AO2 SLP150 T02440106=
201508050053 METAR KSEA 050053Z 19009KT 10SM FEW050 SCT210 26/09 A2997 RMK AO2 SLP152 T02560089=
201508042353 METAR KSEA 042353Z 24006KT 10SM FEW050 BKN210 25/09 A2998 RMK AO2 SLP155 T02500089 10261 20189 56010=
201508042253 METAR KSEA 042253Z 26006KT 10SM FEW040 BKN210 25/09 A2998 RMK AO2 SLP158 T02500089=
201508042153 METAR KSEA 042153Z 23010G14KT 10SM FEW040 SCT250 26/10 A3000 RMK AO2 SLP162 T02560100=
201508042053 METAR KSEA 042053Z VRB05KT 10SM FEW040 SCT250 23/11 A3001 RMK AO2 SLP165 T02330106 58006=
201508041953 METAR KSEA 041953Z 21010KT 10SM FEW028 SCT250 22/12 A3002 RMK AO2 SLP169 T02170122=
201508041853 METAR KSEA 041853Z 21005KT 10SM SCT020 SCT200 19/12 A3002 RMK AO2 SLP171 T01940122=
201508041753 METAR KSEA 041753Z 19007KT 10SM SCT017 BKN110 BKN200 19/12 A3003 RMK AO2 SLP172 T01940122 10194 20144 51001=
201508041653 METAR KSEA 041653Z 20005KT 10SM BKN013 BKN110 17/12 A3003 RMK AO2 SLP172 T01720122=
201508041553 METAR KSEA 041553Z 21006KT 10SM OVC013 16/12 A3003 RMK AO2 SLP173 T01610122=
201508041453 METAR KSEA 041453Z 21003KT 10SM OVC011 15/12 A3002 RMK AO2 SLP171 T01500122 51008=
201508041353 METAR KSEA 041353Z 21005KT 10SM BKN011 BKN110 BKN220 15/13 A3002 RMK AO2 SLP169 T01500128=
201508041341 SPECI KSEA 041341Z 20005KT 10SM BKN011 BKN110 BKN220 15/12 A3001 RMK AO2=
201508041253 METAR KSEA 041253Z 18005KT 10SM SCT009 BKN100 BKN220 14/12 A3001 RMK AO2 SLP165 T01440122=
201508041206 SPECI KSEA 041206Z 21005KT 10SM SCT009 14/12 A3000 RMK AO2=
201508041153 METAR KSEA 041153Z 20005KT 10SM FEW025 14/12 A3000 RMK AO2 SLP163 T01440122 10183 20144 51004=
201508041053 METAR KSEA 041053Z 21004KT 10SM FEW025 15/12 A3000 RMK AO2 SLP162 T01500122=
201508040953 METAR KSEA 040953Z 21003KT 10SM FEW025 16/13 A2999 RMK AO2 SLP160 T01560128=
201508040853 METAR KSEA 040853Z 20003KT 10SM FEW075 17/13 A2999 RMK AO2 SLP158 T01670128 51008=
201508040753 METAR KSEA 040753Z 22003KT 10SM SCT075 17/13 A2998 RMK AO2 SLP156 T01720133 402830172=
201508040653 METAR KSEA 040653Z 21004KT 10SM FEW070 SCT250 18/13 A2997 RMK AO2 SLP154 T01780133=
201508040553 METAR KSEA 040553Z 20003KT 10SM FEW070 SCT250 18/13 A2996 RMK AO2 SLP150 T01830128 10283 20183 51019=
201508040453 METAR KSEA 040453Z 26003KT 10SM FEW070 SCT250 19/13 A2995 RMK AO2 SLP145 T01890128=
201508040402 SPECI KSEA 040402Z 25004KT 10SM FEW070 SCT250 22/13 A2993 RMK AO2=
201508040353 METAR KSEA 040353Z 25004KT 10SM FEW070 SCT250 22/13 A2992 RMK AO2 SLP137 T02220128=
201508040253 METAR KSEA 040253Z 29006KT 10SM FEW070 SCT250 24/13 A2990 RMK AO2 SLP130 T02440128 55000=
201508040153 METAR KSEA 040153Z 26007KT 10SM FEW080 SCT250 27/13 A2989 RMK AO2 SLP126 T02720128=
201508040053 METAR KSEA 040053Z 22004KT 10SM FEW080 BKN250 28/13 A2990 RMK AO2 SLP128 T02780128=
201508032353 METAR KSEA 032353Z 20007KT 10SM FEW150 BKN250 27/13 A2990 RMK AO2 SLP130 T02720128 10272 20200 58005=
201508032253 METAR KSEA 032253Z VRB06KT 10SM SCT150 BKN200 27/12 A2991 RMK AO2 SLP132 T02670122=
201508032153 METAR KSEA 032153Z 27008KT 10SM BKN150 25/13 A2992 RMK AO2 SLP136 T02500128=
201508032053 METAR KSEA 032053Z 00000KT 10SM SCT180 25/12 A2992 RMK AO2 SLP135 T02500122 58006=
201508031953 METAR KSEA 031953Z 20005KT 10SM BKN180 BKN250 22/12 A2993 RMK AO2 SLP137 T02220122=
201508031853 METAR KSEA 031853Z 21007KT 10SM BKN180 BKN250 21/12 A2994 RMK AO2 SLP140 T02110117=
201508031753 METAR KSEA 031753Z 23006KT 10SM BKN180 BKN220 20/12 A2994 RMK AO2 SLP141 T02000122 10206 20172 58000=
201508031653 METAR KSEA 031653Z 23004KT 10SM BKN170 BKN220 18/12 A2994 RMK AO2 SLP142 T01830117=
201508031553 METAR KSEA 031553Z 21005KT 10SM BKN170 BKN220 18/13 A2995 RMK AO2 SLP144 T01830128=
201508031453 METAR KSEA 031453Z 24003KT 10SM FEW160 BKN200 18/13 A2994 RMK AO2 SLP141 T01780128 53014=
201508031353 METAR KSEA 031353Z 21004KT 10SM BKN160 BKN220 18/13 A2993 RMK AO2 SLP137 T01780128 $=
201508031253 METAR KSEA 031253Z 32003KT 10SM BKN140 BKN220 17/12 A2991 RMK AO2 SLP131 T01720117 $=
201508031153 METAR KSEA 031153Z 33004KT 10SM FEW160 OVC180 17/12 A2990 RMK AO2 SLP128 T01720117 10250 20172 51003 $=
201508031053 METAR KSEA 031053Z 00000KT 10SM CLR 18/12 A2990 RMK AO2 SLP128 T01830122 $=
201508030953 METAR KSEA 030953Z 18005KT 10SM OVC180 18/12 A2990 RMK AO2 SLP127 T01830117=
201508030853 METAR KSEA 030853Z 35006KT 10SM BKN180 21/11 A2989 RMK AO2 SLP124 T02110106 51003=
201508030753 METAR KSEA 030753Z 02003KT 10SM BKN180 22/13 A2989 RMK AO2 SLP124 T02220128 403060161=
201508030653 METAR KSEA 030653Z 34005KT 10SM BKN160 22/13 A2989 RMK AO2 SLP123 T02170128=
201508030553 METAR KSEA 030553Z 01006KT 10SM BKN160 25/12 A2988 RMK AO2 SLP121 T02500117 10306 20244 58006=
201508030453 METAR KSEA 030453Z 35007KT 10SM BKN160 24/12 A2988 RMK AO2 SLP123 T02440117=
201508030353 METAR KSEA 030353Z 00000KT 10SM FEW090 BKN160 28/09 A2989 RMK AO2 SLP125 T02830094=
201508030253 METAR KSEA 030253Z 00000KT 10SM BKN160 28/09 A2990 RMK AO2 SLP127 T02830089 56006=
201508030153 METAR KSEA 030153Z 19003KT 10SM SCT160 BKN250 29/08 A2990 RMK AO2 SLP128 T02890083=
201508030053 METAR KSEA 030053Z 24003KT 10SM SCT160 BKN250 30/10 A2991 RMK AO2 SLP131 T03000100=
201508022353 METAR KSEA 022353Z 00000KT 10SM BKN160 BKN250 30/09 A2991 RMK AO2 SLP133 T03000094 10300 20228 58010=
201508022253 METAR KSEA 022253Z 00000KT 10SM BKN160 BKN250 29/11 A2992 RMK AO2 SLP136 T02890111=
201508022153 METAR KSEA 022153Z 24004KT 10SM BKN160 BKN250 27/12 A2994 RMK AO2 SLP142 T02720117=
201508022053 METAR KSEA 022053Z 27006KT 10SM BKN160 BKN250 26/12 A2995 RMK AO2 SLP144 T02560122 55004=
201508021953 METAR KSEA 021953Z 28005KT 10SM BKN170 BKN250 24/12 A2994 RMK AO2 SLP142 T02440122=
201508021853 METAR KSEA 021853Z VRB04KT 10SM SCT160 BKN250 24/13 A2995 RMK AO2 SLP145 T02440128=
201508021753 METAR KSEA 021753Z 00000KT 10SM FEW160 BKN250 24/13 A2996 RMK AO2 SLP148 T02390128 10239 20161 58002=
201508021653 METAR KSEA 021653Z 28009KT 10SM FEW120 BKN170 22/12 A2997 RMK AO2 SLP153 T02170122=
201508021553 METAR KSEA 021553Z 00000KT 10SM FEW150 BKN220 21/12 A2997 RMK AO2 SLP151 T02110122=
201508021453 METAR KSEA 021453Z 28004KT 10SM FEW150 BKN220 18/12 A2996 RMK AO2 SLP150 T01830122 53011=
201508021353 METAR KSEA 021353Z 29004KT 10SM FEW150 SCT250 18/12 A2995 RMK AO2 SLP145 T01780117=
201508021253 METAR KSEA 021253Z 35005KT 10SM FEW150 SCT250 17/11 A2994 RMK AO2 SLP141 T01670106=
201508021153 METAR KSEA 021153Z 00000KT 10SM CLR 17/11 A2993 RMK AO2 SLP138 T01720111 10250 20172 52003=
201508021053 METAR KSEA 021053Z 35005KT 10SM CLR 20/11 A2993 RMK AO2 SLP136 T02000106=
201508020953 METAR KSEA 020953Z 03012KT 10SM CLR 22/10 A2993 RMK AO2 SLP136 T02170100=
201508020853 METAR KSEA 020853Z 03007KT 10SM CLR 22/10 A2992 RMK AO2 SLP134 T02220100 58001=
201508020753 METAR KSEA 020753Z 06007KT 10SM CLR 23/10 A2993 RMK AO2 SLP136 T02280100 403330156=
201508020653 METAR KSEA 020653Z 03008KT 10SM SCT250 24/09 A2992 RMK AO2 SLP136 T02390089=
201508020553 METAR KSEA 020553Z 04009KT 10SM SCT250 25/08 A2992 RMK AO2 SLP136 T02500083 10333 20250 50003=
201508020453 METAR KSEA 020453Z 03010KT 10SM SCT250 26/09 A2993 RMK AO2 SLP138 T02560089=
201508020353 METAR KSEA 020353Z 35008KT 10SM SCT250 26/08 A2992=
201508020253 METAR KSEA 020253Z 35010KT 10SM SCT250 29/07 A2991 RMK AO2 SLP133 T02890072 56008=
201508020153 METAR KSEA 020153Z 36011KT 10SM SCT250 31/07 A2992 RMK AO2 SLP133 T03110067=
201508020053 METAR KSEA 020053Z 34009KT 10SM SCT250 32/07 A2993 RMK AO2 SLP139 T03220067=
201508012353 METAR KSEA 012353Z 30008KT 10SM SCT250 33/08 A2994 RMK AO2 SLP141 T03330078 10333 20244 56017=
201508012253 METAR KSEA 012253Z 35009KT 10SM SCT250 33/09 A2995 RMK AO2 SLP145 T03280089=
201508012153 METAR KSEA 012153Z 35011KT 10SM SCT250 32/07 A2997 RMK AO2 SLP152 T03220072=
201508012053 METAR KSEA 012053Z 31006KT 10SM FEW250 31/10 A2999 RMK AO2 SLP158 T03110100 58009=
201508011953 METAR KSEA 011953Z 02009KT 10SM FEW250 29/10 A3000 RMK AO2 SLP162 T02890100=
201508011853 METAR KSEA 011853Z 28004KT 10SM SCT250 26/11 A3001 RMK AO2 SLP166 T02610106=
201508011753 METAR KSEA 011753Z 30005KT 10SM SCT250 24/11 A3002 RMK AO2 SLP168 T02440106 10250 20156 58007=
201508011653 METAR KSEA 011653Z 29004KT 10SM SCT250 22/11 A3002 RMK AO2 SLP170 T02220106=
201508011553 METAR KSEA 011553Z 29004KT 10SM SCT250 22/09 A3004 RMK AO2 SLP174 T02170094=
201508011453 METAR KSEA 011453Z 05004KT 10SM SCT250 21/08 A3004 RMK AO2 SLP175 T02110083 51012=
201508011353 METAR KSEA 011353Z 00000KT 10SM SCT250 18/09 A3003 RMK AO2 SLP171 T01780089=
201508011253 METAR KSEA 011253Z 00000KT 10SM SCT250 16/08 A3002 RMK AO2 SLP167 T01560083 $=
201508011153 METAR KSEA 011153Z 00000KT 10SM CLR 18/07 A3000 RMK AO2 SLP162 T01780067 10256 20178 50000=
201508011053 METAR KSEA 011053Z 03004KT 10SM CLR 21/04 A3000 RMK AO2 SLP162 T02060044=
201508010953 METAR KSEA 010953Z 03003KT 10SM CLR 22/04 A3000 RMK AO2 SLP162 T02170039=
201508010853 METAR KSEA 010853Z 01004KT 10SM CLR 21/04 A3000 RMK AO2 SLP162 T02110039 50001=
201508010753 METAR KSEA 010753Z 35003KT 10SM CLR 22/04 A3001 RMK AO2 SLP164 T02220044 403440178=
201508010653 METAR KSEA 010653Z 01004KT 10SM CLR 23/05 A3000 RMK AO2 SLP160 T02330050=
201508010553 METAR KSEA 010553Z 02010KT 10SM CLR 26/06 A3000 RMK AO2 SLP161 T02560056 10344 20239 52005=
201508010453 METAR KSEA 010453Z 01009KT 10SM CLR 25/04 A2999 RMK AO2 SLP159 T02500039=
201508010353 METAR KSEA 010353Z 34005KT 10SM CLR 26/03 A2999 RMK AO2 SLP158 T02610033=
201508010253 METAR KSEA 010253Z 34008KT 10SM CLR 29/05 A2998 RMK AO2 SLP156 T02890050 56011=
201508010153 METAR KSEA 010153Z 36009KT 10SM CLR 33/06 A2998 RMK AO2 SLP155 T03280056=
201508010053 METAR KSEA 010053Z 29006KT 10SM FEW250 33/06 A3000 RMK AO2 SLP159 T03330061=

# No short TAF reports from KSEA in databse.

###################################
#  large TAF from KSEA
###################################
201508312320 TAF KSEA 312320Z 0100/0206 20012G18KT P6SM SCT025 OVC070
                      TEMPO 0102/0106 5SM -RA BR BKN020 OVC050
                       FM010600 20010KT 5SM -RA BR OVC020 FM011200
                       20010KT P6SM -RA BKN020 OVC040 FM012000
                       20008KT P6SM VCSH BKN025 BKN050=
201508311720 TAF KSEA 311720Z 3118/0124 20014G22KT P6SM SCT025 BKN050 OVC120
                       TEMPO 3120/3124 -RA BKN025 OVC050 FM010000
                       20012G18KT P6SM -SHRA SCT020 BKN040 BKN080
                       FM011200 20010KT P6SM -RA BKN020 OVC040=
201508311130 TAF KSEA 311130Z 3112/0118 19012G18KT P6SM -RA SCT022 BKN035 OVC060
                       TEMPO 3115/3119 5SM -RA BR BKN022 OVC035
                       FM010000 20012KT P6SM -SHRA BKN040 BKN080
                       FM011400 20012KT P6SM -RA OVC035=
201508310912 TAF AMD KSEA 310912Z 3109/0112 20012KT P6SM BKN060 OVC100 FM311400
                       20012KT P6SM -RA SCT022 BKN035 OVC060
                      TEMPO 3114/3118 5SM -RA BR BKN022 OVC035
                       FM010000 20012KT P6SM -SHRA BKN040 BKN100=
201508310526 TAF KSEA 310526Z 3106/0112 20012KT P6SM SCT060 OVC100 FM311100
                       20008KT P6SM BKN060 OVC100 FM311400 16008KT
                       P6SM -RA SCT022 BKN035 OVC060
                      TEMPO 3114/3118 5SM -RA BR BKN022 OVC035
                       FM010000 20010KT P6SM -SHRA BKN040 BKN100=
201508310308 TAF AMD KSEA 310308Z 3103/0106 22012KT P6SM BKN080 BKN120 FM310800
                       20008KT P6SM BKN060 OVC100 FM311200 16008KT
                       P6SM BKN030 OVC060
                      TEMPO 3114/3116 3SM -RA BR BKN020 OVC040
                       FM311800 20012KT P6SM -RA BKN035 OVC100
                       FM010000 20010KT P6SM -SHRA BKN040 BKN100=
201508302341 TAF KSEA 302341Z 3100/0106 22012G20KT P6SM BKN080 BKN120 FM310400
                       20008KT P6SM BKN060 OVC100 FM311200 16008KT
                       P6SM BKN030 OVC060
                      TEMPO 3114/3116 3SM -RA BR BKN020 OVC040
                       FM311800 20012KT P6SM -RA BKN035 OVC100
                       FM010000 20010KT P6SM -SHRA BKN040 BKN100=
201508301902 TAF AMD KSEA 301902Z 3019/3124 19008KT P6SM -RA SCT030 BKN050 OVC070
                       FM302100 20010KT P6SM BKN050 BKN070 FM310600
                       20008KT P6SM OVC060 FM311100 16008KT P6SM
                       -RA BKN030 OVC040 FM311800 20010KT P6SM
                       BKN060 OVC100=
201508301750 TAF KSEA 301750Z 3018/3124 16009KT P6SM SCT015 BKN025 FM302000
                       20010KT P6SM SCT035 BKN050 BKN070 FM310600
                       20008KT P6SM OVC060 FM311100 16008KT P6SM
                       -RA BKN030 OVC040 FM311800 20010KT P6SM
                       BKN060 OVC100=
201508301520 TAF AMD KSEA 301520Z 3015/3118 16009KT P6SM SCT025 BKN040
                      TEMPO 3015/3017 3SM -RA BR BKN005 OVC030
                       FM302000 20010KT P6SM SCT035 BKN050 BKN070
                       FM311100 16008KT P6SM -RA OVC040=
201508301128 TAF KSEA 301128Z 3012/3118 20006KT P6SM SCT025 BKN040
                      TEMPO 3012/3016 -SHRA BKN025 OVC040 FM302000
                       20010KT P6SM SCT035 BKN050 BKN070 FM311100
                       16008KT P6SM -RA OVC040=
201508300905 TAF AMD KSEA 300905Z 3009/3112 20010KT P6SM SCT025 BKN040
                      TEMPO 3010/3014 5SM -SHRA BKN025 OVC040 FM301400
                       20010KT P6SM -SHRA BKN035 OVC050 FM302000
                       20010KT P6SM SCT035 BKN050 BKN070 FM311100
                       16008KT P6SM -RA OVC040=
201508300537 TAF KSEA 300537Z 3006/3112 22010KT P6SM -RA SCT006 SCT020 OVC035
                       TEMPO 3006/3008 3SM RA BKN020 OVC035 FM300800
                       20010KT P6SM SCT025 BKN040 FM301400 20010KT
                       P6SM -SHRA BKN035 OVC050 FM302000 20010KT
                       P6SM SCT035 BKN050 BKN070 FM311100 16008KT
                       P6SM -RA OVC040=
201508300300 TAF AMD KSEA 300300Z 3003/3106 22012KT P6SM -RA OVC045
                      TEMPO 3004/3007 4SM RA FM300700 21010KT P6SM
                       -SHRA SCT025 BKN040 FM301400 19008KT P6SM
                       BKN030 OVC060 FM302000 21012KT P6SM BKN050
                       BKN080=
201508292351 TAF KSEA 292351Z 3000/3106 22018G28KT P6SM SCT040 BKN100 FM300100
                       22012KT 5SM -RA BR BKN030 OVC050 FM300400
                       21010KT P6SM -SHRA SCT025 BKN040 FM301400
                       19008KT P6SM BKN030 OVC060 FM302000 21012KT
                       P6SM BKN050 BKN080=
201508292101 TAF AMD KSEA 292101Z 2921/3024 19020G30KT P6SM BKN040 BKN060 FM300000
                       19012KT P6SM SCT050 OVC080 FM300300 23012KT
                       3SM RA BR BKN030 OVC050 FM300900 18008KT
                       P6SM VCSH SCT025 BKN040 FM301500 21010KT
                       P6SM -SHRA BKN030 OVC060 FM302000 21012G20KT
                       P6SM BKN050=
201508291755 TAF KSEA 291755Z 2918/3024 17020G30KT P6SM -RA BKN040 OVC050 FM291900
                       21018G28KT P6SM -SHRA BKN050 OVC080 FM300000
                       19012KT P6SM SCT050 OVC080 FM300300 23012KT
                       3SM RA BR BKN030 OVC050 FM300900 18008KT
                       P6SM VCSH SCT025 BKN040 FM301500 21010KT
                       P6SM -SHRA BKN030 OVC060 FM302000 21012G20KT
                       P6SM BKN050=
201508291450 TAF AMD KSEA 291450Z 2915/3018 18008KT 6SM -RA BR BKN040 OVC070
                       TEMPO 2915/2917 19013G23KT FM291700 21018G28KT
                       4SM RA BKN020 OVC040 FM292100 21018G28KT
                       P6SM -SHRA SCT025 BKN035 OVC050 FM300100
                       19012KT P6SM -RA BKN025 OVC040 FM301200
                       22012KT P6SM SCT025 BKN040=
201508291411 TAF AMD KSEA 291411Z 2914/3018 18008KT 6SM -RA BR BKN040 OVC070
                       TEMPO 2914/2917 19013G23KT 2SM +RA BKN005
                       OVC030 FM291700 21018G28KT 4SM RA BKN020
                       OVC040 FM292100 21018G28KT P6SM -SHRA SCT025
                       BKN035 OVC050 FM300100 19012KT P6SM -RA
                       BKN025 OVC040 FM301200 22012KT P6SM SCT025
                       BKN040=
201508291259 TAF AMD KSEA 291259Z 2913/3018 19013KT 6SM -RA BR VCTS SCT005 SCT030CB
                       OVC050
                      TEMPO 2913/2917 19013G23KT 2SM +RA BKN005
                       OVC030 FM291700 21018G28KT 4SM RA BKN020
                       OVC040 FM292100 21018G28KT P6SM -SHRA SCT025
                       BKN035 OVC050 FM300100 19012KT P6SM -RA
                       BKN025 OVC040 FM301200 22012KT P6SM SCT025
                       BKN040=
201508291151 TAF AMD KSEA 291151Z 2912/3018 VRB03KT P6SM -RA OVC100 FM291400
                       15008KT P6SM -RA SCT030 BKN060 OVC100
                      TEMPO 2914/2916 19013G23KT 3SM TSRA OVC030CB
                       FM291700 21018G28KT 4SM RA BKN020 OVC040
                       FM292100 21018G28KT P6SM -SHRA SCT025 BKN035
                       OVC050 FM300100 19012KT P6SM -RA BKN025
                       OVC040 FM301200 22012KT P6SM SCT025 BKN040=
201508291137 TAF KSEA 291137Z 2912/3018 VRB03KT P6SM -RA OVC100 FM291400 15008KT
                       P6SM -RA BKN060 OVC100 FM291700 21018G28KT
                       4SM RA BKN020 OVC040 FM292100 21018G28KT
                       P6SM -SHRA SCT025 BKN035 OVC050 FM300100
                       19012KT P6SM -RA BKN025 OVC040 FM301200
                       22012KT P6SM SCT025 BKN040=
201508290928 TAF AMD KSEA 290928Z 2909/3012 VRB03KT P6SM BKN100 OVC150 FM291300
                       15008KT P6SM BKN060 OVC100 FM291500 17012KT
                       P6SM -RA BKN020 OVC040 FM291800 21018G28KT
                       P6SM -RA BKN020 OVC040 FM292100 21018G28KT
                       P6SM -SHRA SCT025 BKN035 OVC050 FM300100
                       19012KT P6SM -RA BKN025 OVC040=
201508290541 TAF KSEA 290541Z 2906/3012 35004KT P6SM BKN100 OVC150 FM291300
                       15008KT P6SM BKN060 OVC100 FM291500 17012KT
                       P6SM -RA BKN020 OVC040 FM291800 21018G28KT
                       P6SM -RA BKN020 OVC040 FM292100 21018G28KT
                       P6SM -SHRA SCT025 BKN035 OVC050 FM300100
                       19012KT P6SM -RA BKN025 OVC040=
201508290304 TAF AMD KSEA 290304Z 2903/3006 35004KT P6SM SCT040 BKN100 OVC150
                       FM291200 06004KT P6SM BKN040 OVC080 FM291400
                       15008KT P6SM -RA BKN020 OVC060 FM291800
                       21016G26KT P6SM -SHRA BKN035 OVC060 FM300000
                       21010G20KT P6SM -RA BKN025 OVC060=
201508282353 TAF KSEA 282353Z 2900/3006 30003KT P6SM FEW035 BKN110 FM290400
                       03004KT P6SM SCT060 BKN100 FM291200 06004KT
                       P6SM BKN040 OVC080 FM291400 15008KT P6SM
                       -RA BKN020 OVC060 FM291800 21010G22KT P6SM
                       -SHRA BKN035 OVC080
                      TEMPO 2920/2923 20020G30KT FM300000 20010G20KT
                       P6SM -RA BKN025 OVC060=
201508281807 TAF KSEA 281807Z 2818/2924 14005KT P6SM BKN040 BKN100 FM282200
                       23008KT P6SM SCT035 BKN080 FM290400 03004KT
                       P6SM SCT060 BKN100 FM291400 15008KT P6SM
                       -RA BKN035 OVC060 FM291800 21010G22KT P6SM
                       -SHRA BKN030 OVC050=
201508281505 TAF AMD KSEA 281505Z 2815/2918 19010KT P6SM BKN022 OVC045 FM282200
                       23008KT P6SM SCT035 BKN060 FM290400 03004KT
                       P6SM SCT060 BKN100 FM291400 15006KT P6SM
                       -RA BKN035 OVC060=
201508281304 TAF AMD KSEA 281304Z 2813/2918 19010KT P6SM -RA SCT022 OVC050
                      TEMPO 2813/2817 BKN022 OVC050 FM282200 23008KT
                       P6SM SCT035 BKN060 FM290400 03004KT P6SM
                       SCT060 BKN100 FM291400 15006KT P6SM -RA
                       BKN035 OVC060=
201508281208 TAF AMD KSEA 281208Z 2812/2918 23013KT P6SM VCSH BKN022 OVC050
                       FM281300 23013KT P6SM -RA OVC022 FM282200
                       23008KT P6SM SCT035 BKN060 FM290400 03004KT
                       P6SM SCT060 BKN100 FM291400 15006KT P6SM
                       -RA BKN035 OVC060=
201508281120 TAF KSEA 281120Z 2812/2918 21008KT P6SM BKN090 OVC200 FM281300
                       19008KT P6SM -RA BKN050 OVC090
                      TEMPO 2815/2819 BKN030 OVC050 FM282200 23008KT
                       P6SM SCT035 BKN060 FM290400 03004KT P6SM
                       SCT060 BKN100 FM291400 15006KT P6SM -RA
                       BKN035 OVC060=
201508280915 TAF AMD KSEA 280915Z 2809/2912 20008KT P6SM SCT090 BKN170 FM281200
                       17005KT P6SM BKN080 OVC150 FM281400 18005KT
                       P6SM -RA BKN035 OVC050 FM282200 23008KT
                       P6SM SCT035 BKN060
                      PROB30 2822/2902 -SHRA=
201508280529 TAF KSEA 280529Z 2806/2912 18005KT P6SM SCT090 BKN200 FM281000
                       17005KT P6SM BKN080 OVC150 FM281400 18005KT
                       P6SM -RA BKN035 OVC050 FM282200 23008KT
                       P6SM SCT035 BKN060
                      PROB30 2822/2902 -SHRA=
201508280300 TAF AMD KSEA 280300Z 2803/2906 28006KT P6SM BKN250 FM280600 22004KT
                       P6SM BKN100 OVC140 FM281400 18005KT P6SM
                       -RA BKN035 OVC050 FM281900 23008KT P6SM
                       SCT035 BKN060
                      PROB30 2819/2824 -RA=
201508272320 TAF KSEA 272320Z 2800/2906 28006KT P6SM BKN250 FM280600 22004KT
                       P6SM BKN100 OVC140 FM281400 18005KT P6SM
                       -RA BKN035 OVC050 FM281900 23008KT P6SM
                       SCT035 BKN060
                      PROB30 2819/2824 -RA=
201508272106 TAF AMD KSEA 272106Z 2721/2824 28006KT P6SM SCT250 FM280500 22004KT
                       P6SM BKN070 OVC140 FM281400 18005KT P6SM
                       -RA BKN035 OVC050=
201508271736 TAF KSEA 271736Z 2718/2824 24006KT P6SM BKN250 FM280500 22004KT
                       P6SM BKN070 OVC140 FM281400 18005KT P6SM
                       -RA BKN035 OVC050=
201508271505 TAF AMD KSEA 271505Z 2715/2818 19005KT P6SM BKN200 FM271800 24007KT
                       P6SM BKN250 FM281000 18004KT P6SM BKN100
                       OVC200 FM281500 18005KT P6SM BKN050 OVC100=
201508271300 TAF AMD KSEA 271300Z 2713/2818 19004KT P6SM BKN200 FM271700 23006KT
                       P6SM BKN250 FM281000 18004KT P6SM BKN100
                       OVC200 FM281500 18005KT P6SM BKN050 OVC100=
201508271120 TAF KSEA 271120Z 2712/2818 19004KT P6SM BKN250 FM271700 23006KT
                       P6SM BKN250 FM281000 18004KT P6SM BKN100
                       OVC200 FM281500 18005KT P6SM BKN050 OVC100=
201508270900 TAF AMD KSEA 270900Z 2709/2812 19004KT P6SM BKN250 FM271700 23006KT
                       P6SM BKN250=
201508270525 TAF KSEA 270525Z 2706/2812 36005KT P6SM BKN250 FM270900 19003KT
                       P6SM BKN250 FM271700 23006KT P6SM BKN250=
201508270300 TAF AMD KSEA 270300Z 2703/2806 34004KT P6SM BKN250 FM270900 19003KT
                       P6SM BKN250 FM271700 23006KT P6SM BKN250=
201508262320 TAF KSEA 262320Z 2700/2806 30005KT P6SM BKN250 FM270400 34005KT
                       P6SM BKN250 FM270900 19003KT P6SM BKN250
                       FM271700 23006KT P6SM BKN250=
201508262108 TAF AMD KSEA 262108Z 2621/2724 28006KT P6SM BKN250 FM270300 34005KT
                       P6SM SCT250 FM270900 19003KT P6SM SCT250
                       FM271700 23006KT P6SM BKN250=
201508261720 TAF KSEA 261720Z 2618/2724 28006KT P6SM BKN250 FM270300 35004KT
                       P6SM SCT250 FM270900 19003KT P6SM SCT250=
201508261507 TAF AMD KSEA 261507Z 2615/2718 VRB03KT P6SM BKN250 FM261900 29006KT
                       P6SM BKN250 FM270400 35005KT P6SM BKN250
                       FM270900 19004KT P6SM BKN250=
201508261311 TAF AMD KSEA 261311Z 2613/2718 VRB03KT P6SM BKN250 FM261900 31007KT
                       P6SM BKN250 FM270400 35005KT P6SM BKN250
                       FM270900 19004KT P6SM BKN250=
201508261120 TAF KSEA 261120Z 2612/2718 36004KT P6SM SCT250 FM261900 31007KT
                       P6SM BKN250 FM270400 35005KT P6SM BKN250
                       FM270900 19004KT P6SM BKN250=
201508260900 TAF AMD KSEA 260900Z 2609/2712 03005KT P6SM SCT250 FM261200 04003KT
                       P6SM BKN250 FM261900 31007KT P6SM BKN250
                       FM270400 35005KT P6SM BKN250=
201508260522 TAF KSEA 260522Z 2606/2712 01005KT P6SM BKN250 FM261200 04003KT
                       P6SM BKN250 FM261900 31007KT P6SM BKN250
                       FM270400 35005KT P6SM BKN250=
201508260325 TAF AMD KSEA 260325Z 2603/2706 34008KT P6SM FEW120 BKN250 FM261200
                       04003KT P6SM SCT250 FM261700 31007KT P6SM
                       SCT250=
201508252320 TAF KSEA 252320Z 2600/2706 36009KT P6SM SCT250 FM260300 36006KT
                       P6SM SCT250 FM261200 04003KT P6SM SCT250
                       FM261700 31007KT P6SM SCT250=
201508252101 KSEA 252101Z 2521/2624 36009KT P6SM SCT250 FM260100 36006KT P6SM
                       SCT250 FM261200 04003KT P6SM SCT250 FM261700
                       31007KT P6SM SCT250=
201508251720 TAF KSEA 251720Z 2518/2624 33007KT P6SM SCT250 FM260100 01005KT
                       P6SM SCT250 FM261200 VRB03KT P6SM SCT250=
201508251505 TAF AMD KSEA 251505Z 2515/2618 VRB03KT P6SM SCT250 FM251800 33007KT
                       P6SM SCT250 FM260100 01005KT P6SM SCT250=
201508251120 TAF KSEA 251120Z 2512/2618 05004KT P6SM SCT250 FM251800 33007KT
                       P6SM SCT250 FM260500 01006KT P6SM BKN250=
201508250906 KSEA 250906Z 2509/2612 04004KT P6SM SKC FM251800 33007KT P6SM SCT250
                       FM260500 01006KT P6SM BKN250=
201508250520 TAF KSEA 250520Z 2506/2612 01005KT P6SM SCT250 FM251800 33007KT
                       P6SM SCT250 FM260500 01006KT P6SM BKN250=
201508250301 TAF AMD KSEA 250301Z 2503/2606 33007KT P6SM BKN250 FM250700 VRB04KT
                       P6SM SCT250 FM251800 33007KT P6SM SCT250=
201508242320 TAF KSEA 242320Z 2500/2606 28007KT P6SM BKN250 FM250200 31005KT
                       P6SM BKN250 FM250700 VRB04KT P6SM SCT250
                       FM251800 33007KT P6SM SCT250=
201508242106 TAF AMD KSEA 242106Z 2421/2524 22007KT P6SM BKN250 FM250000 26006KT
                       P6SM BKN250 FM250600 19004KT P6SM SCT250
                       FM251600 36005KT P6SM SCT250=
201508241720 TAF KSEA 241720Z 2418/2524 23007KT P6SM BKN250 FM250000 28006KT
                       P6SM BKN250 FM250600 19004KT P6SM SCT250
                       FM251600 36005KT P6SM SCT250=
201508241508 TAF AMD KSEA 241508Z 2415/2518 18005KT P6SM BKN250 FM241800 24007KT
                       P6SM BKN250 FM250000 28006KT P6SM SCT250
                       FM250300 VRB04KT P6SM SCT250=
201508241121 TAF KSEA 241121Z 2412/2518 20004KT P6SM FEW015 BKN250 FM241800
                       24007KT P6SM BKN250 FM250000 28006KT P6SM
                       SCT250 FM250300 VRB04KT P6SM SCT250=
201508240903 TAF AMD KSEA 240903Z 2409/2512 24004KT P6SM BKN250 FM241200 19004KT
                       P6SM SCT010 SCT250 FM241800 23008KT P6SM
                       BKN250 FM250000 28006KT P6SM SCT250 FM250400
                       VRB04KT P6SM SCT250=
201508240523 TAF KSEA 240523Z 2406/2512 03007KT P6SM BKN250 FM241200 19004KT
                       P6SM SCT010 SCT250 FM241800 23008KT P6SM
                       BKN250 FM250000 28006KT P6SM SCT250 FM250400
                       VRB04KT P6SM SCT250=
201508240416 TAF AMD KSEA 240416Z 2404/2506 VRB03KT P6SM BKN200 FM241300 20006KT
                       P6SM SCT009 FM241700 20006KT P6SM SCT015
                       FM241800 22006KT P6SM SKC FM242200 24007KT
                       P6SM SKC=
201508240306 KSEA 240306Z 2403/2506 35005KT 6SM FU BKN200 FM240600 VRB03KT P6SM
                       BKN200 FM241300 20006KT P6SM SCT009 FM241700
                       20006KT P6SM SCT015 FM241800 22006KT P6SM
                       SKC FM242200 24007KT P6SM SKC=
201508232320 TAF KSEA 232320Z 2400/2506 29006KT 5SM FU SCT250 FM240300 34006KT
                       5SM FU SCT250 FM240700 VRB04KT 5SM FU SCT250
                       FM241300 20006KT 6SM FU SCT009 FM241700
                       20006KT P6SM SCT015 FM241800 22006KT P6SM
                       SKC FM242200 24007KT P6SM SKC=
201508232101 KSEA 232101Z 2321/2424 28006KT 5SM FU SCT250 FM240300 34006KT 6SM
                       FU SCT250 FM240700 21005KT P6SM SCT250 FM241300
                       20004KT P6SM SCT009 FM241700 20006KT P6SM
                       SCT015 FM241800 24006KT P6SM SKC=
201508231720 TAF KSEA 231720Z 2318/2424 33005KT P6SM SCT250 FM232100 30007KT
                       P6SM SCT250 FM240300 34006KT P6SM SCT250
                       FM240700 21005KT P6SM SCT250 FM241300 20004KT
                       P6SM SCT009 FM241700 20006KT P6SM SCT015
                       FM241800 24006KT P6SM SKC=
201508231132 TAF KSEA 231132Z 2312/2418 03005KT P6SM SCT070
                      TEMPO 2313/2317 6SM FU FM231800 33005KT P6SM
                       SCT090 FM232100 29007KT P6SM SCT250 FM240300
                       32006KT P6SM SCT250 FM240600 24006KT P6SM
                       SCT250 FM241200 20004KT P6SM SCT009=
201508230914 TAF AMD KSEA 230914Z 2309/2412 02008KT P6SM SCT070 FM231200 VRB04KT
                       4SM FU VV050 FM231800 32005KT 6SM FU SCT090
                       FM232100 29007KT P6SM SCT250 FM240300 32006KT
                       P6SM SCT250 FM240600 24006KT P6SM SCT250=
201508230540 TAF KSEA 230540Z 2306/2412 02008KT 6SM FU SCT070 FM231200 VRB04KT
                       4SM FU VV050 FM231800 32005KT 6SM FU SCT090
                       FM232100 29007KT P6SM SCT250 FM240300 32006KT
                       P6SM SCT250 FM240600 24006KT P6SM SCT250=
201508230305 TAF AMD KSEA 230305Z 2303/2406 03005KT 6SM FU SCT070 FM231200 VRB04KT
                       P6SM SKC FM231800 30007KT P6SM SKC FM240400
                       34006KT P6SM SKC=
201508222320 TAF KSEA 222320Z 2300/2406 31006KT P6SM SKC FM230300 03005KT P6SM
                       SKC FM231200 VRB04KT P6SM SKC FM231800 30007KT
                       P6SM SKC FM240400 34006KT P6SM SKC=
201508222056 TAF AMD KSEA 222056Z 2221/2324 30006KT P6SM FEW060 FM230300 03005KT
                       P6SM SCT060 FM231200 VRB04KT P6SM SCT060
                       FM231800 30007KT P6SM SKC=
201508221720 TAF KSEA 221720Z 2218/2324 33006KT P6SM BKN070 FM230300 03005KT
                       P6SM SCT070 FM231200 VRB04KT P6SM SCT070
                       FM231800 30007KT P6SM SCT070=
201508221124 TAF KSEA 221124Z 2212/2318 VRB05KT P6SM SKC FM221800 33009KT P6SM
                       SCT250 FM230300 01009KT P6SM SKC FM231200
                       VRB04KT P6SM SCT250=
201508220916 TAF AMD KSEA 220916Z 2209/2312 VRB05KT P6SM SKC FM221800 34009KT
                       P6SM SKC FM230400 02007KT P6SM SKC=
201508220529 TAF KSEA 220529Z 2206/2312 03005KT P6SM SKC FM221800 34009KT P6SM
                       SKC FM230400 02007KT P6SM SKC=
201508220305 TAF AMD KSEA 220305Z 2203/2306 31004KT P6SM FEW050 FM220600 03004KT
                       P6SM SKC FM221800 34007KT P6SM SKC FM230400
                       02004KT P6SM SKC=
201508212320 TAF KSEA 212320Z 2200/2306 28006KT P6SM FEW035 SCT050 FM220100
                       31006KT P6SM FEW050 FM220400 03004KT P6SM
                       SKC FM221800 34007KT P6SM SKC FM230400 02004KT
                       P6SM SKC=
201508211720 TAF KSEA 211720Z 2118/2224 22008KT P6SM OVC022 FM212100 24008KT
                       P6SM BKN035 FM212300 26006KT P6SM SCT035
                       SCT250 FM220200 33004KT P6SM SCT250 FM220600
                       03004KT P6SM SKC FM221800 33007KT P6SM SKC=
201508211601 TAF AMD KSEA 211601Z 2116/2218 20008KT P6SM OVC020 FM211800 21008KT
                       P6SM OVC025 FM212000 24008KT P6SM BKN035
                       FM212300 26006KT P6SM SCT035 SCT250 FM220200
                       33004KT P6SM SCT250 FM220600 03004KT P6SM
                       SKC=
201508211502 KSEA 211502Z 2115/2218 21008KT P6SM OVC018 FM211800 22008KT P6SM
                       OVC025 FM212000 24008KT P6SM BKN035 FM212300
                       26006KT P6SM SCT035 SCT250 FM220200 33004KT
                       P6SM SCT250 FM220600 03004KT P6SM SKC=
201508211131 TAF KSEA 211131Z 2112/2218 19009KT P6SM OVC015 FM211800 21008KT
                       P6SM OVC025 FM212100 24008KT P6SM BKN035
                       FM212300 26006KT P6SM SCT035 SCT250 FM220200
                       33004KT P6SM SCT250 FM220600 02004KT P6SM
                       SKC=
201508210920 TAF AMD KSEA 210920Z 2109/2212 19009KT P6SM OVC018
                      TEMPO 2112/2116 3SM -DZ BR OVC010 FM211800
                       21007KT P6SM OVC028 FM212000 23006KT P6SM
                       BKN035 FM212200 26006KT P6SM SCT040 SCT250
                       FM220200 01004KT P6SM SCT250=
201508210544 TAF KSEA 210544Z 2106/2212 21009KT P6SM FEW028 SCT045 FM210800
                       19009KT P6SM OVC022
                      TEMPO 2112/2116 3SM -DZ BR OVC010 FM211800
                       21007KT P6SM OVC028 FM212000 23006KT P6SM
                       BKN035 FM212200 26006KT P6SM SCT040 SCT250
                       FM220200 01004KT P6SM SCT250=
201508210317 TAF AMD KSEA 210317Z 2103/2206 22006KT P6SM FEW250 FM210700 19009KT
                       P6SM OVC025 FM211200 19009KT P6SM OVC012
                       TEMPO 2112/2116 3SM -DZ BR OVC008 FM211800
                       21008KT P6SM BKN015 OVC030 FM212000 24008KT
                       P6SM BKN035 FM212200 27008KT P6SM SCT035
                       SCT045 FM220400 02004KT P6SM SCT045=
201508202320 TAF KSEA 202320Z 2100/2206 22010KT P6SM FEW025 SCT040 FM210700
                       19009KT P6SM OVC025 FM211200 19009KT P6SM
                       OVC012
                      TEMPO 2112/2116 3SM -DZ BR OVC008 FM211800
                       21008KT P6SM BKN015 OVC030 FM212000 24008KT
                       P6SM BKN035 FM212200 27008KT P6SM SCT035
                       SCT045 FM220400 02004KT P6SM SCT045=
201508201904 TAF AMD KSEA 201904Z 2019/2124 21008KT P6SM SCT015 OVC035
                      TEMPO 2019/2020 BKN015 OVC035 FM202100 22011KT
                       P6SM OVC035 FM202300 22010KT P6SM BKN035
                       BKN250 FM210600 19009KT P6SM OVC025 FM211200
                       19009KT P6SM OVC012
                      TEMPO 2112/2116 3SM -DZ BR OVC008 FM211800
                       21008KT P6SM BKN015 OVC030 FM212000 24008KT
                       P6SM BKN035 FM212200 27008KT P6SM SCT035
                       SCT045=
201508201720 TAF KSEA 201720Z 2018/2124 21010KT P6SM SCT012 OVC020
                      TEMPO 2018/2020 5SM BR OVC012 FM202100 22011KT
                       P6SM OVC025 FM202300 22010KT P6SM BKN035
                       BKN250 FM210600 19009KT P6SM OVC025 FM211200
                       19009KT P6SM OVC012
                      TEMPO 2112/2116 3SM -DZ BR OVC008 FM211800
                       21008KT P6SM BKN015 OVC030 FM212000 24008KT
                       P6SM BKN035 FM212200 27008KT P6SM SCT035
                       SCT045=
201508201409 TAF AMD KSEA 201409Z 2014/2118 21008KT 4SM BR SCT005 OVC012
                      TEMPO 2014/2016 1SM -DZ BR BKN005 OVC010
                       FM201700 22012KT P6SM SCT010 OVC020
                      TEMPO 2017/2018 5SM BR BKN009 OVC020 FM202100
                       22012KT P6SM BKN035 BKN250 FM210000 22009KT
                       P6SM SCT035 BKN250 FM210600 19009KT P6SM
                       OVC025 FM211200 19009KT P6SM OVC018=
201508201259 TAF AMD KSEA 201259Z 2013/2118 19007KT P6SM SCT005 OVC012
                      TEMPO 2013/2016 4SM -DZ BR BKN005 OVC010
                       FM201800 22012KT P6SM OVC020 FM202100 22012KT
                       P6SM BKN035 BKN250 FM210000 22009KT P6SM
                       SCT035 BKN250 FM210600 19009KT P6SM OVC025
                       FM211200 19009KT P6SM OVC018=
201508201132 TAF KSEA 201132Z 2012/2118 19009KT P6SM OVC015 FM201800 22012KT
                       P6SM OVC025 FM202100 22012KT P6SM BKN035
                       BKN250 FM210000 22009KT P6SM SCT035 BKN250
                       FM210600 19009KT P6SM OVC025 FM211200 19009KT
                       P6SM OVC018=
201508200901 KSEA 200901Z 2009/2112 21009KT P6SM SCT015
                      TEMPO 2009/2011 BKN015 FM201100 20009KT P6SM
                       OVC010 FM201800 22011KT P6SM OVC020 FM202200
                       22011KT P6SM BKN035 BKN250 FM210000 22009KT
                       P6SM SCT035 BKN250 FM210600 19009KT P6SM
                       OVC022=
201508200545 TAF KSEA 200545Z 2006/2112 VRB05KT P6SM SKC FM200900 20007KT P6SM
                       SKC FM201200 20007KT P6SM OVC010 FM201800
                       22011KT P6SM OVC020 FM202200 22011KT P6SM
                       BKN035 BKN250 FM210000 22009KT P6SM SCT035
                       BKN250 FM210600 19009KT P6SM OVC022=
201508200311 TAF AMD KSEA 200311Z 2003/2106 36008KT P6SM FEW250 FM200500 02008KT
                       P6SM SKC FM200900 21006KT P6SM SCT250 FM201200
                       20007KT P6SM OVC009 FM201700 20008KT P6SM
                       BKN020 FM202200 20008KT P6SM SCT030=
201508192320 TAF KSEA 192320Z 2000/2106 28006KT P6SM SKC FM200400 24006KT P6SM
                       SKC FM200600 21006KT P6SM SCT250 FM201200
                       20007KT P6SM OVC009 FM201700 20008KT P6SM
                       BKN020 FM202200 20008KT P6SM SCT030=
201508191720 TAF KSEA 191720Z 1918/2024 29007KT P6SM SKC FM200600 21006KT P6SM
                       BKN250 FM201200 19007KT P6SM OVC006 FM201800
                       19008KT P6SM BKN020 FM202200 20008KT P6SM
                       SCT035=
201508191130 TAF KSEA 191130Z 1912/2018 04005KT P6SM SKC FM191700 30006KT P6SM
                       SKC FM200600 21009KT P6SM BKN250 FM201200
                       20009KT P6SM OVC006=
201508190905 TAF AMD KSEA 190905Z 1909/2012 04003KT P6SM SKC FM191700 30006KT
                       P6SM SKC FM200600 21009KT P6SM BKN250=
201508190525 TAF KSEA 190525Z 1906/2012 02008KT P6SM SKC FM191700 30006KT P6SM
                       SKC FM200600 21009KT P6SM BKN250=
201508190300 KSEA 190300Z 1903/2006 31006KT P6SM SKC FM190600 02006KT P6SM SKC
                       FM191700 30006KT P6SM SKC=
201508182320 TAF KSEA 182320Z 1900/2006 34010KT P6SM SKC FM190400 02006KT P6SM
                       SKC FM191700 30006KT P6SM SKC=
201508182105 TAF AMD KSEA 182105Z 1821/1924 34010KT P6SM SKC FM190400 02006KT
                       P6SM SKC FM191700 30006KT P6SM SKC=
201508181720 TAF KSEA 181720Z 1818/1924 34010KT P6SM SKC FM190500 02006KT P6SM
                       SKC FM191700 30006KT P6SM SKC=
201508181502 KSEA 181502Z 1815/1918 36005KT P6SM SKC FM181800 34010KT P6SM SKC
                       FM190500 02007KT P6SM SKC=
201508181120 TAF KSEA 181120Z 1812/1918 36005KT P6SM SKC FM181800 34010KT P6SM
                       SKC FM190600 02007KT P6SM SKC=
201508180900 KSEA 180900Z 1809/1912 02005KT P6SM FEW250 FM181800 34010KT P6SM
                       SKC FM190600 02007KT P6SM SKC=
201508180524 TAF KSEA 180524Z 1806/1912 02007KT P6SM SCT250 FM181800 34010KT
                       P6SM SKC FM190600 02007KT P6SM SKC=
201508180300 TAF AMD KSEA 180300Z 1803/1906 36008KT P6SM BKN250 FM180600 02006KT
                       P6SM SCT250 FM181800 35010KT P6SM SKC=
201508172321 TAF KSEA 172321Z 1800/1906 35011KT P6SM SCT250 FM180300 36007KT
                       P6SM SCT250 FM180600 02006KT P6SM SCT250
                       FM181800 35010KT P6SM SKC=
201508172101 TAF AMD KSEA 172101Z 1721/1824 31008KT P6SM SKC FM180300 36006KT
                       P6SM SKC FM180600 02006KT P6SM SKC FM181800
                       35008KT P6SM SKC=
201508171720 TAF KSEA 171720Z 1718/1824 32008KT P6SM SKC FM180300 36006KT P6SM
                       SKC FM180600 02007KT P6SM SKC FM181800 33008KT
                       P6SM SKC=
201508171504 TAF AMD KSEA 171504Z 1715/1818 36004KT P6SM SKC FM171900 34010KT
                       P6SM SKC FM180600 02007KT P6SM SKC=
201508171130 TAF KSEA 171130Z 1712/1818 00000KT P6SM SKC FM171900 34010KT P6SM
                       SKC FM180600 02007KT P6SM SKC=
201508170900 TAF AMD KSEA 170900Z 1709/1812 03005KT P6SM SKC FM171900 34010KT
                       P6SM SKC FM180600 02007KT P6SM SKC=
201508170520 TAF KSEA 170520Z 1706/1812 02006KT P6SM SCT250 FM171900 34010KT
                       P6SM SKC FM180600 02007KT P6SM SKC=
201508170300 TAF AMD KSEA 170300Z 1703/1806 34008KT P6SM SCT250 FM170600 02007KT
                       P6SM SKC FM171900 34010KT P6SM SKC=
201508162320 TAF KSEA 162320Z 1700/1806 35010KT P6SM FEW035 FM170600 02007KT
                       P6SM SKC FM171900 34010KT P6SM SKC=
201508162100 TAF AMD KSEA 162100Z 1621/1724 30009KT P6SM FEW030 FM170600 02007KT
                       P6SM SKC=
201508161720 TAF KSEA 161720Z 1618/1724 VRB04KT P6SM FEW030 FM161900 32008KT
                       P6SM SKC FM170500 02007KT P6SM SKC FM171900
                       33010KT P6SM SKC=
201508161504 KSEA 161504Z 1615/1718 02007KT P6SM FEW010 FM161900 32008KT P6SM
                       SKC FM170600 02007KT P6SM SKC=
201508161120 TAF KSEA 161120Z 1612/1718 03004KT P6SM SKC
                      TEMPO 1614/1616 SCT005 FM161900 32008KT P6SM
                       SKC FM170600 02007KT P6SM SKC=
201508160900 TAF AMD KSEA 160900Z 1609/1712 03007KT P6SM SCT045 FM161900 32008KT
                       P6SM SKC FM170600 02007KT P6SM SKC=
201508160520 TAF KSEA 160520Z 1606/1712 03008KT P6SM BKN060 FM160900 03006KT
                       P6SM SCT070 FM161900 32008KT P6SM SKC FM170600
                       02007KT P6SM SKC=
201508160300 TAF AMD KSEA 160300Z 1603/1706 03010KT P6SM FEW040 OVC070 FM160600
                       03006KT P6SM SCT070 FM161900 32008KT P6SM
                       SKC=
201508152324 TAF KSEA 152324Z 1600/1706 36007KT P6SM SCT028 BKN040 OVC070 FM160200
                       36008KT P6SM SCT040 BKN070 FM160400 03006KT
                       P6SM SCT070 FM161900 32008KT P6SM SKC=
201508152104 TAF AMD KSEA 152104Z 1521/1624 27005KT P6SM FEW010 SCT024 OVC070
                       FM152300 32008KT P6SM BKN070 FM160100 34008KT
                       P6SM SCT070 FM160400 02006KT P6SM SCT250
                       TEMPO 1613/1616 SCT003 FM161900 32008KT
                       P6SM SCT250=
201508151720 TAF KSEA 151720Z 1518/1624 20006KT P6SM BKN025 OVC050 FM152000
                       25004KT P6SM BKN030 BKN050 FM152200 32008KT
                       P6SM BKN050 FM160000 34008KT P6SM SCT050
                       FM160400 02006KT P6SM SCT250
                      TEMPO 1613/1616 SCT003=
201508151501 KSEA 151501Z 1515/1618 19007KT P6SM OVC018 FM151900 25004KT P6SM
                       SCT025 BKN045 FM152200 32008KT P6SM BKN050
                       FM160400 02006KT P6SM SCT250
                      TEMPO 1613/1616 SCT003=
201508151120 TAF KSEA 151120Z 1512/1618 19008KT P6SM BKN016 OVC030 FM151300
                       19008KT P6SM OVC015 FM151900 25004KT P6SM
                       SCT025 BKN045 FM152200 32008KT P6SM SCT050
                       FM160400 02006KT P6SM SCT250
                      TEMPO 1613/1616 SCT003=
201508150900 KSEA 150900Z 1509/1612 19009KT P6SM VCSH BKN020 BKN025 OVC035 FM151200
                       19008KT P6SM OVC015 FM151900 25004KT P6SM
                       SCT025 BKN045 FM152200 32008KT P6SM SCT050=
201508150530 TAF KSEA 150530Z 1506/1612 19012KT P6SM VCSH FEW018 SCT100 FM151000
                       19008KT P6SM OVC015 FM151900 25004KT P6SM
                       SCT025 BKN045 FM152200 32008KT P6SM SCT050=
201508150306 TAF AMD KSEA 150306Z 1503/1606 20013KT P6SM VCSH FEW015 BKN030
                       BKN090 FM150800 19008KT P6SM OVC015 FM151900
                       25004KT P6SM SCT025 BKN045 FM152200 32008KT
                       P6SM SCT050=
201508142329 TAF KSEA 142329Z 1500/1606 21013KT 2SM RA BR SCT008 BKN030 OVC070
                       FM150100 21013KT P6SM VCSH SCT015 BKN030
                       OVC070 FM150400 19008KT P6SM OVC015 FM151900
                       25004KT P6SM SCT025 BKN045 FM152200 32008KT
                       P6SM SCT050=
201508142228 TAF AMD KSEA 142228Z 1422/1524 21015KT 2SM +RA BR BKN008 OVC030
                       FM150000 21012G20KT P6SM VCSH BKN015 OVC050
                       FM150800 19008KT P6SM OVC015 FM151900 25004KT
                       P6SM SCT025 BKN045=
201508142207 TAF AMD KSEA 142207Z 1422/1524 21015KT P6SM -RA BKN008 BKN060 OVC100
                       FM150300 21012G20KT P6SM VCSH BKN015 OVC050
                       FM150800 19008KT P6SM OVC015 FM151900 25004KT
                       P6SM SCT025 BKN045=
201508142103 TAF AMD KSEA 142103Z 1421/1524 22010KT 4SM -TSRA BR VCTS SCT013CB
                       BKN026 OVC100 FM142230 20012G25KT P6SM -SHRA
                       VCTS SCT015 BKN025 OVC040CB FM150100 21012G20KT
                       P6SM VCSH BKN025 FM150800 19008KT P6SM OVC015
                       FM151900 25004KT P6SM SCT025 BKN045=
201508141918 TAF AMD KSEA 141918Z 1419/1524 21008KT P6SM VCTS FEW009 BKN015
                       OVC025CB
                      TEMPO 1419/1422 3SM TSRA OVC010CB FM142200
                       20012G25KT P6SM -SHRA VCTS SCT015 BKN025
                       OVC040CB FM150300 21012G20KT P6SM BKN025
                       FM150800 19008KT P6SM OVC015 FM151900 25004KT
                       P6SM SCT025 BKN045=
201508141726 TAF KSEA 141726Z 1418/1524 22007KT P6SM BKN017 OVC025 FM142100
                       20012G25KT P6SM -SHRA VCTS SCT015 BKN025
                       OVC040CB FM150300 21012G20KT P6SM BKN025
                       FM150800 19008KT P6SM OVC015 FM151900 25004KT
                       P6SM SCT025 BKN045=
201508141508 TAF AMD KSEA 141508Z 1415/1518 20008KT P6SM SCT008 BKN012 OVC050
                       FM142100 20012KT P6SM -SHRA VCTS BKN020
                       OVC040CB FM150300 21013KT P6SM OVC025=
201508141247 TAF AMD KSEA 141247Z 1413/1518 21006KT P6SM VCTS SCT010CB BKN140
                       TEMPO 1413/1415 BKN010CB FM141500 18008KT
                       P6SM -SHRA BKN007 BKN060 BKN250 FM141900
                       20012KT P6SM -SHRA BKN020 OVC040 FM150300
                       21013KT P6SM OVC025=
201508141122 TAF KSEA 141122Z 1412/1518 18008KT P6SM FEW008 BKN150
                      TEMPO 1412/1415 -SHRA BKN008 OVC150 FM141500
                       18008KT P6SM -SHRA BKN007 BKN060 BKN250
                       FM141900 20012KT P6SM -SHRA BKN020 OVC040
                       FM150300 21013KT P6SM OVC025=
201508140900 KSEA 140900Z 1409/1512 21007KT P6SM SCT250 FM141300 18008KT P6SM
                       BKN010 BKN250 FM141500 18008KT P6SM VCSH
                       BKN007 BKN060 BKN250 FM141900 20012KT P6SM
                       -SHRA BKN020 OVC040=
201508140520 TAF KSEA 140520Z 1406/1512 21004KT P6SM SCT250 FM141300 18008KT
                       P6SM BKN010 BKN250 FM141500 18008KT P6SM
                       VCSH BKN007 BKN060 BKN250 FM141900 20012KT
                       P6SM -SHRA BKN020 OVC040=
201508140303 TAF AMD KSEA 140303Z 1403/1506 32003KT P6SM BKN250 FM140700 21005KT
                       P6SM SCT250 FM141100 18008KT P6SM BKN010
                       BKN250 FM141500 18008KT P6SM VCSH BKN007
                       BKN060 BKN250 FM141900 20012KT P6SM -SHRA
                       BKN020 OVC040=
201508132326 TAF KSEA 132326Z 1400/1506 31006KT P6SM FEW250 FM140700 21005KT
                       P6SM SCT250 FM141100 18008KT P6SM BKN010
                       BKN250 FM141500 18008KT P6SM VCSH BKN007
                       BKN060 BKN250 FM141900 20012KT P6SM -SHRA
                       BKN020 OVC040=
201508132103 TAF AMD KSEA 132103Z 1321/1424 25006KT P6SM SKC FM140600 21005KT
                       P6SM SCT250 FM141100 18008KT P6SM BKN010
                       BKN080 FM141400 18008KT P6SM VCSH BKN007
                       OVC060=
201508131727 TAF KSEA 131727Z 1318/1424 20006KT P6SM SCT010
                      TEMPO 1318/1319 BKN010 FM131900 20006KT P6SM
                       FEW020 FM132000 25006KT P6SM SKC FM140600
                       21005KT P6SM SCT250 FM141100 18008KT P6SM
                       BKN010 BKN080 FM141400 18008KT P6SM VCSH
                       BKN007 OVC060=
201508131503 TAF AMD KSEA 131503Z 1315/1418 20007KT P6SM BKN010 FM131800 29006KT
                       P6SM SCT250 FM140600 21005KT P6SM BKN250
                       FM141100 18008KT P6SM BKN010 BKN080 FM141400
                       18008KT 5SM -SHRA BR BKN007 OVC060=
201508131120 TAF KSEA 131120Z 1312/1418 20004KT P6SM FEW005 SCT250
                      TEMPO 1313/1317 3SM BR BKN005 BKN250 FM131900
                       29006KT P6SM SCT250 FM140600 21005KT P6SM
                       BKN250 FM141100 18008KT P6SM BKN010 BKN080
                       FM141400 18008KT 5SM -SHRA BR BKN007 OVC060=
201508130900 TAF AMD KSEA 130900Z 1309/1412 17005KT P6SM SCT250 FM131900 29006KT
                       P6SM SCT250 FM140600 21005KT P6SM BKN250
                       FM141000 18008KT P6SM BKN010 BKN080=
201508130521 TAF KSEA 130521Z 1306/1412 18004KT P6SM SCT250 FM131900 29006KT
                       P6SM SCT250 FM140600 21005KT P6SM BKN250
                       FM141000 18008KT P6SM BKN010 BKN080=
201508130301 TAF AMD KSEA 130301Z 1303/1406 15004KT P6SM FEW150 BKN250 FM130500
                       20005KT P6SM SCT250=
201508122320 TAF KSEA 122320Z 1300/1406 25008KT P6SM SCT140 BKN250 FM130500
                       20005KT P6SM SCT250=
201508122227 TAF AMD KSEA 122227Z 1222/1324 30004KT P6SM FEW060 BKN140 BKN250
                       FM130000 22005KT P6SM BKN140 BKN250 FM130500
                       20005KT P6SM SCT250=
201508122105 TAF AMD KSEA 122105Z 1221/1324 30004KT P6SM VCSH SCT060 BKN140
                       BKN250 FM130000 22005KT P6SM BKN140 BKN250
                       FM130500 20005KT P6SM SCT250=
201508121801 TAF AMD KSEA 121801Z 1218/1324 33008KT P6SM VCTS FEW070CB SCT120
                       BKN250
                      TEMPO 1218/1219 -TSRA FEW070CB FM122100 30006KT
                       P6SM VCSH SCT070 SCT120 BKN250 FM130000
                       20005KT P6SM SCT070 SCT100 BKN250 FM130500
                       20005KT P6SM SCT250=
201508121731 TAF AMD KSEA 121731Z 1218/1324 33008KT P6SM VCTS FEW070CB SCT120
                       BKN250 FM122100 30006KT P6SM VCSH SCT070
                       SCT120 BKN250 FM130000 20005KT P6SM SCT070
                       SCT100 BKN250 FM130500 20005KT P6SM SCT250=
201508121723 TAF KSEA 121723Z 1218/1324 33008KT P6SM FEW070 SCT120 BKN250 FM122000
                       30006KT P6SM SCT070 SCT120 BKN250 FM130000
                       20005KT P6SM SCT070 SCT100 BKN250 FM130500
                       20005KT P6SM SCT250=
201508121503 KSEA 121503Z 1215/1318 02004KT P6SM FEW100 SCT250 FM121800 31008KT
                       P6SM SCT080 BKN250 FM130500 20005KT P6SM
                       BKN250=
201508121120 TAF KSEA 121120Z 1212/1318 02004KT P6SM SCT250 FM121800 31008KT
                       P6SM FEW120 BKN250 FM130500 20005KT P6SM
                       BKN250=
201508120900 TAF AMD KSEA 120900Z 1209/1312 03006KT P6SM BKN250 FM121800 31008KT
                       P6SM FEW120 BKN250 FM130500 20005KT P6SM
                       BKN250=
201508120520 TAF KSEA 120520Z 1206/1312 02006KT P6SM BKN250 FM121800 31008KT
                       P6SM FEW120 BKN250 FM130500 20005KT P6SM
                       BKN250=
201508120306 TAF AMD KSEA 120306Z 1203/1306 01008KT P6SM BKN250 FM120400 02005KT
                       P6SM SCT250 FM121800 33008KT P6SM FEW120
                       BKN250=
201508112320 TAF KSEA 112320Z 1200/1306 01007KT P6SM FEW150 BKN250 FM120400
                       34006KT P6SM SCT250 FM121800 33008KT P6SM
                       FEW120 BKN250=
201508112100 KSEA 112100Z 1121/1224 36009KT P6SM FEW120 BKN250 FM120400 36004KT
                       P6SM SCT250=
201508111725 TAF KSEA 111725Z 1118/1224 36010KT P6SM SCT250 FM112100 33010KT
                       P6SM SCT070 BKN250 FM120400 36004KT P6SM
                       SCT250=
201508111503 KSEA 111503Z 1115/1218 03008KT P6SM FEW050 BKN250 FM111900 33010KT
                       P6SM FEW090 SCT250 FM120400 36004KT P6SM
                       SCT250=
201508111122 TAF KSEA 111122Z 1112/1218 01006KT P6SM BKN250 FM111900 33010KT
                       P6SM FEW090 SCT250 FM120400 36004KT P6SM
                       SCT250=
201508110900 KSEA 110900Z 1109/1212 02006KT P6SM BKN250 FM112000 33010KT P6SM
                       SCT250=
201508110522 TAF KSEA 110522Z 1106/1212 02004KT P6SM BKN250 FM112000 33010KT
                       P6SM SCT250=
201508110301 KSEA 110301Z 1103/1206 36006KT P6SM FEW050 SCT150 BKN250 FM110600
                       02004KT P6SM BKN200=
201508102330 TAF KSEA 102330Z 1100/1206 29008KT P6SM SCT090 BKN200 FM110400
                       31004KT P6SM SCT200=
201508102105 TAF AMD KSEA 102105Z 1021/1124 31007KT P6SM FEW050 SCT250=
201508101726 TAF KSEA 101726Z 1018/1124 12003KT P6SM BKN110 BKN250 FM101900
                       32004KT P6SM BKN250=
201508101500 KSEA 101500Z 1015/1118 16005KT P6SM VCSH FEW070 OVC100 FM102000
                       VRB04KT P6SM SCT050 SCT150 FM110500 VRB04KT
                       P6SM VCSH BKN050 OVC120=
201508101120 TAF KSEA 101120Z 1012/1118 VRB04KT P6SM VCSH BKN080 OVC150 FM102000
                       VRB04KT P6SM SCT050 SCT150 FM110500 VRB04KT
                       P6SM VCSH BKN050 OVC120=
201508100520 TAF KSEA 100520Z 1006/1112 VRB03KT P6SM SCT060 BKN120 BKN200 FM102000
                       33007KT P6SM SCT050 SCT200=
201508092320 TAF KSEA 092320Z 1000/1106 31005KT P6SM FEW040 SCT200=
201508091730 TAF KSEA 091730Z 0918/1024 00000KT P6SM FEW030 SCT090=
201508091120 TAF KSEA 091120Z 0912/1018 18006KT P6SM SCT015=
201508091003 TAF AMD KSEA 091003Z 0910/1012 18006KT P6SM SCT015
                      TEMPO 0912/0916 BKN015 FM091800 23006KT P6SM
                       SCT025 SCT050 FM101000 VRB04KT P6SM SCT050=
201508090520 TAF KSEA 090520Z 0906/1012 22008KT P6SM VCSH BKN040 BKN100 FM091000
                       18008KT P6SM BKN020 OVC040 FM091800 23006KT
                       P6SM SCT025 BKN050=
201508082321 TAF KSEA 082321Z 0900/1006 25011KT P6SM SCT045 BKN110 BKN250 FM090400
                       21007KT P6SM VCSH SCT025 OVC045 FM091000
                       19004KT P6SM OVC015 FM091800 23004KT P6SM
                       BKN050=
201508081958 TAF AMD KSEA 081958Z 0820/0924 23009KT P6SM FEW015 BKN200 FM082200
                       22008KT P6SM SCT015 OVC045 FM090300 19004KT
                       P6SM VCSH OVC015 FM091700 20004KT P6SM BKN045=
201508081728 TAF KSEA 081728Z 0818/0924 22007KT P6SM OVC011 FM082100 22008KT
                       P6SM SCT015 OVC045 FM090300 19004KT P6SM
                       VCSH OVC015 FM091700 20004KT P6SM BKN045=
201508081500 KSEA 081500Z 0815/0918 22005KT P6SM OVC003 FM081600 20006KT P6SM
                       OVC005 FM081800 20006KT P6SM BKN015 FM082000
                       20006KT P6SM SCT025 OVC070 FM090600 20006KT
                       P6SM -SHRA BKN025 OVC050=
201508081308 TAF AMD KSEA 081308Z 0813/0918 20006KT P6SM OVC003 FM081600 20006KT
                       P6SM OVC008 FM081800 20006KT P6SM BKN015
                       FM082000 20006KT P6SM SCT025 OVC070 FM090600
                       20006KT P6SM -SHRA BKN025 OVC050=
201508081120 TAF KSEA 081120Z 0812/0918 18005KT P6SM BKN008
                      TEMPO 0812/0815 SCT010 FM081700 18007KT P6SM
                       BKN015 FM082100 21007KT P6SM BKN025 FM090600
                       21007KT P6SM -SHRA BKN025 OVC050=
201508080520 TAF KSEA 080520Z 0806/0912 36006KT P6SM FEW050 FM081100 VRB03KT
                       P6SM BKN020 FM081700 19005KT P6SM VCSH OVC025
                       FM090600 VRB04KT P6SM -SHRA BKN025 OVC050=
201508072326 TAF KSEA 072326Z 0800/0906 VRB06KT P6SM FEW040 FM080900 19003KT
                       P6SM BKN100 FM081100 21003KT P6SM SCT025
                       OVC045 FM081400 19003KT P6SM OVC025=
201508072106 TAF AMD KSEA 072106Z 0721/0824 29009KT P6SM SCT250 FM080400 VRB04KT
                       P6SM SCT050 BKN150 FM081100 18005KT P6SM
                       BKN020 BKN050 FM081200 20003KT P6SM OVC020
                       FM081700 22006KT P6SM SCT020 BKN045 FM082000
                       22007KT P6SM OVC100=
201508071727 TAF KSEA 071727Z 0718/0824 36008KT P6SM FEW250 FM080400 VRB04KT
                       P6SM SCT050 BKN150 FM081100 18005KT P6SM
                       BKN020 BKN050=
201508071506 KSEA 071506Z 0715/0818 03007KT P6SM SKC FM080400 VRB04KT P6SM SCT050
                       BKN150 FM081100 18005KT P6SM BKN020 BKN050=
201508071120 TAF KSEA 071120Z 0712/0818 36006KT P6SM SCT250 FM080400 VRB04KT
                       P6SM SCT050 BKN150 FM081100 18005KT P6SM
                       BKN020 BKN050=
201508070520 TAF KSEA 070520Z 0706/0812 02006KT P6SM SCT250 FM071900 32006KT
                       P6SM SCT250=
201508062320 TAF KSEA 062320Z 0700/0806 31009KT P6SM SCT050 FM070400 02006KT
                       P6SM SCT250 FM071900 32006KT P6SM SCT250=
201508062105 TAF AMD KSEA 062105Z 0621/0724 32006KT P6SM SCT040 FM070400 02005KT
                       P6SM SCT250 FM071900 32006KT P6SM SCT250=
201508061720 TAF KSEA 061720Z 0618/0724 29005KT P6SM SCT024 BKN035 FM062000
                       32006KT P6SM FEW035 SCT050 FM070400 02005KT
                       P6SM SCT250 FM071900 32006KT P6SM SCT250=
201508061433 TAF AMD KSEA 061433Z 0615/0718 00000KT P6SM SCT018 BKN035 FM061800
                       VRB04KT P6SM SCT030 BKN050 FM070000 30005KT
                       P6SM SCT050 BKN150 FM071100 VRB04KT P6SM
                       BKN025 FM071700 32006KT P6SM SCT040=
201508061120 TAF KSEA 061120Z 0612/0718 17004KT P6SM OVC021 FM061600 21005KT
                       P6SM BKN025 BKN050 FM061800 VRB04KT P6SM
                       SCT030 BKN050 FM070000 30005KT P6SM SCT050
                       BKN150 FM071100 VRB04KT P6SM BKN025 FM071700
                       32006KT P6SM SCT040=
201508060520 TAF KSEA 060520Z 0606/0712 02012KT P6SM BKN035 BKN100 FM061000
                       VRB04KT P6SM BKN025 BKN050 FM061800 VRB04KT
                       P6SM SCT030 BKN050=
201508060157 TAF AMD KSEA 060157Z 0602/0706 02012KT P6SM BKN050 BKN100 FM061000
                       VRB04KT P6SM BKN025 BKN050 FM061800 VRB04KT
                       P6SM SCT030 BKN050=
201508052328 TAF KSEA 052328Z 0600/0706 24010KT P6SM VCSH SCT025 BKN035 BKN050
                       TEMPO 0602/0606 02010KT 5SM -SHRA BKN020
                       OVC035 FM060600 19005KT P6SM OVC020 FM061800
                       19006KT P6SM SCT025 BKN050=
201508052101 TAF AMD KSEA 052101Z 0521/0624 23007KT P6SM FEW035 BKN060 BKN250
                       FM060000 24010KT P6SM VCSH SCT025 BKN035
                       BKN050
                      TEMPO 0602/0606 02010KT 5SM -SHRA BKN020
                       OVC035 FM060600 19005KT P6SM VCSH OVC020
                       FM061800 19006KT P6SM SCT025 BKN050=
201508051945 TAF AMD KSEA 051945Z 0520/0624 25008KT P6SM FEW026 BKN035 FM052300
                       22012KT P6SM VCSH BKN025 OVC035
                      TEMPO 0602/0606 02010KT 5SM -SHRA OVC020
                       FM060600 19005KT P6SM VCSH OVC020 FM061800
                       19006KT P6SM SCT025 BKN050=
201508051917 TAF AMD KSEA 051917Z 0519/0624 24007KT P6SM BKN026 BKN040 FM052100
                       22012KT P6SM VCSH SCT025 OVC040 FM060000
                       22012KT P6SM VCSH BKN025 OVC035
                      TEMPO 0602/0606 02010KT 5SM -SHRA OVC020
                       FM060600 19005KT P6SM VCSH OVC020 FM061800
                       19006KT P6SM SCT025 BKN050=
201508051734 TAF KSEA 051734Z 0518/0624 22005KT P6SM OVC014 FM052000 22012KT
                       P6SM VCSH SCT025 OVC040 FM060000 22012KT
                       P6SM VCSH BKN025 OVC035
                      TEMPO 0602/0606 02010KT 5SM -SHRA OVC020
                       FM060600 19005KT P6SM VCSH OVC020 FM061800
                       19006KT P6SM SCT025 BKN050=
201508051501 TAF AMD KSEA 051501Z 0515/0618 16004KT P6SM BKN016 OVC050 FM051800
                       22010KT P6SM SCT030 BKN050 FM052100 22010KT
                       P6SM VCSH SCT035 BKN050 FM060700 19006KT
                       P6SM BKN025=
201508051400 TAF AMD KSEA 051400Z 0514/0618 16005KT P6SM BKN014 FM051800 22010KT
                       P6SM SCT030 BKN050 FM052100 22010KT P6SM
                       VCSH SCT035 BKN050 FM060700 19006KT P6SM
                       BKN025=
201508051124 TAF KSEA 051124Z 0512/0618 19005KT P6SM SCT025 SCT050
                      TEMPO 0514/0518 BKN025 BKN050 FM051800 21009KT
                       P6SM BKN050 FM052100 22010KT P6SM VCSH SCT035
                       BKN050 FM060700 19006KT P6SM BKN025=
201508050903 TAF AMD KSEA 050903Z 0509/0612 VRB03KT P6SM FEW050 SCT200 FM051200
                       19005KT P6SM BKN012 BKN030 FM051500 19006KT
                       P6SM BKN022 BKN035 FM051800 21008KT P6SM
                       SCT035 BKN050 FM052100 22010KT P6SM VCSH
                       SCT035 BKN050 FM060700 19006KT P6SM BKN015=
201508050525 TAF KSEA 050525Z 0506/0612 21006KT P6SM FEW050 SCT200 FM051200
                       19007KT P6SM BKN012 BKN030 FM051800 23012KT
                       P6SM VCSH SCT030 BKN050=
201508050302 KSEA 050302Z 0503/0606 23008KT P6SM FEW040 SCT200 FM050600 19009KT
                       P6SM SCT200 FM051100 19010KT P6SM BKN012
                       BKN030 FM051900 23012KT P6SM SCT030 BKN050=
201508042329 TAF KSEA 042329Z 0500/0606 26006KT P6SM FEW040 SCT200 FM050600
                       19008KT P6SM SCT050 FM051100 19010KT P6SM
                       BKN012 BKN030 FM052000 23012KT P6SM BKN030
                       BKN050=
201508042101 TAF AMD KSEA 042101Z 0421/0524 23007KT P6SM FEW040 SCT200 FM050000
                       26005KT P6SM SCT200 FM050600 19005KT P6SM
                       BKN050 FM051200 19008KT P6SM BKN012 BKN030=
201508041724 TAF KSEA 041724Z 0418/0524 20004KT P6SM SCT020 BKN100 BKN200
                      TEMPO 0418/0420 BKN013 FM042100 23007KT P6SM
                       FEW050 SCT200 FM050000 26005KT P6SM SCT200
                       FM050600 19005KT P6SM BKN050 FM051200 19008KT
                       P6SM BKN012 BKN050=
201508041505 TAF AMD KSEA 041505Z 0415/0518 20004KT P6SM SCT009 BKN100 BKN200
                       TEMPO 0415/0418 BKN011 FM041800 23006KT
                       P6SM SCT025 SCT050 FM042100 23007KT P6SM
                       SCT250 FM050000 26005KT P6SM SCT250 FM050600
                       19005KT P6SM BKN050=
201508041301 TAF AMD KSEA 041301Z 0413/0518 19004KT P6SM SCT009 BKN080
                      TEMPO 0413/0417 BKN009 BKN080 FM041700 23006KT
                       P6SM SCT025 SCT050 FM042100 23007KT P6SM
                       SCT250 FM050000 26005KT P6SM SCT250 FM050600
                       19005KT P6SM BKN050=
201508041120 TAF KSEA 041120Z 0412/0518 20004KT P6SM BKN020 FM041700 23006KT
                       P6SM SCT025 SCT050 FM042100 23007KT P6SM
                       SCT250 FM050000 26005KT P6SM SCT250 FM050600
                       19005KT P6SM BKN050=
201508040904 TAF AMD KSEA 040904Z 0409/0512 20004KT P6SM SCT250 FM041200 20004KT
                       P6SM SCT020
                      TEMPO 0413/0417 BKN018 FM041700 23006KT P6SM
                       SCT025 BKN045 FM041900 23007KT P6SM SCT045
                       SCT250=
201508040520 TAF KSEA 040520Z 0406/0512 24004KT P6SM SCT250 FM041200 20004KT
                       P6SM OVC015 FM041800 23006KT P6SM BKN025
                       BKN045 FM042000 23007KT P6SM SCT045 SCT250=
201508040302 TAF AMD KSEA 040302Z 0403/0506 25006KT P6SM SCT250 FM040600 20007KT
                       P6SM SCT250 FM041000 19005KT P6SM OVC015
                       FM041800 22008KT P6SM BKN025 FM042000 23007KT
                       P6SM SCT250=
201508032320 TAF KSEA 032320Z 0400/0506 26005KT P6SM SCT150 BKN200 FM040400
                       20007KT P6SM BKN050 FM041000 19005KT P6SM
                       OVC015 FM041800 22008KT P6SM SCT035 BKN050
                       FM042100 23007KT P6SM SCT050 BKN100=
201508032101 KSEA 032101Z 0321/0424 25004KT P6SM SCT180 FM040400 20005KT P6SM
                       BKN050 FM041000 19005KT P6SM OVC015=
201508031729 TAF KSEA 031729Z 0318/0424 23004KT P6SM BKN170 FM032100 24007KT
                       P6SM SCT200 FM040400 20005KT P6SM BKN050
                       FM041000 19005KT P6SM OVC015=
201508031502 TAF AMD KSEA 031502Z 0315/0418 24003KT P6SM FEW160 BKN200 FM032000
                       23007KT P6SM SCT200 FM040400 24005KT P6SM
                       BKN050 FM041000 19005KT P6SM OVC020=
201508031120 TAF KSEA 031120Z 0312/0418 VRB04KT P6SM OVC160 FM031600 21005KT
                       P6SM BKN200 FM032000 23007KT P6SM SCT200
                       FM040400 24005KT P6SM BKN050 FM041000 19005KT
                       P6SM OVC020=
201508030900 KSEA 030900Z 0309/0412 35006KT P6SM BKN160 FM031600 22006KT P6SM
                       BKN200 FM032000 29006KT P6SM SCT200=
201508030521 TAF KSEA 030521Z 0306/0412 35006KT P6SM BKN160 FM030900 VRB03KT
                       P6SM BKN160 FM031600 22006KT P6SM BKN200
                       FM032000 29006KT P6SM SCT200=
201508030303 TAF AMD KSEA 030303Z 0303/0406 20003KT P6SM BKN160 BKN250 FM030800
                       VRB03KT P6SM SCT120 BKN250 FM032100 29008KT
                       P6SM SCT250=
201508022330 TAF KSEA 022330Z 0300/0406 29006KT P6SM BKN160 BKN250 FM030800
                       VRB04KT P6SM SCT120 BKN250 FM032100 29008KT
                       P6SM SCT250=
201508022105 TAF AMD KSEA 022105Z 0221/0324 27006KT P6SM BKN160 BKN250 FM030800
                       VRB04KT P6SM SCT120 BKN250 FM032000 29008KT
                       P6SM SCT250=
201508021735 TAF KSEA 021735Z 0218/0324 31008KT P6SM FEW120 BKN250 FM030800
                       VRB04KT P6SM SCT120 BKN250 FM032000 29008KT
                       P6SM SCT250=
201508021505 TAF AMD KSEA 021505Z 0215/0318 35005KT P6SM SCT150 BKN220 FM021800
                       32008KT P6SM SCT150 BKN220 FM030900 VRB04KT
                       P6SM SCT120 OVC250=
201508021336 TAF AMD KSEA 021336Z 0214/0318 35005KT P6SM FEW150 SCT200 FM021800
                       32008KT P6SM SCT150 FM030100 36008KT P6SM
                       SCT150=
201508021120 TAF KSEA 021120Z 0212/0318 02007KT P6SM SCT200 FM021800 32008KT
                       P6SM SCT150 FM030100 36008KT P6SM SCT150=
201508020901 KSEA 020901Z 0209/0312 03007KT P6SM SKC FM021200 03004KT P6SM SCT200
                       FM021800 32007KT P6SM SCT150=
201508020520 TAF KSEA 020520Z 0206/0312 02009KT P6SM SKC FM021000 02004KT P6SM
                       SCT200 FM021800 32007KT P6SM SCT150=
201508020310 TAF AMD KSEA 020310Z 0203/0306 35009KT P6SM SKC FM020600 02007KT
                       P6SM SKC FM021200 03003KT P6SM SKC FM021900
                       32007KT P6SM SKC=
201508012330 TAF KSEA 012330Z 0200/0306 35009KT P6SM SKC FM020600 02008KT P6SM
                       SKC FM021200 VRB03KT P6SM SKC FM021900 32006KT
                       P6SM SKC=
201508012105 TAF AMD KSEA 012105Z 0121/0224 31006KT P6SM FEW250 FM020100 02006KT
                       P6SM SKC FM022000 30006KT P6SM SKC=
201508011726 TAF KSEA 011726Z 0118/0224 29004KT P6SM SKC FM011900 33008KT P6SM
                       SKC FM020100 02006KT P6SM SKC FM022000 30006KT
                       P6SM SKC=
201508011500 TAF AMD KSEA 011500Z 0115/0218 05004KT P6SM SCT250 FM011900 33008KT
                       P6SM SKC FM020100 02008KT P6SM SKC=
201508011120 TAF KSEA 011120Z 0112/0218 02005KT P6SM SKC FM011900 33008KT P6SM
                       SKC FM020100 02008KT P6SM SKC=
201508010900 KSEA 010900Z 0109/0212 01004KT P6SM SKC FM011200 02005KT P6SM SKC
                       FM011900 33008KT P6SM SKC=
201508010524 TAF KSEA 010524Z 0106/0212 01007KT P6SM SKC FM011200 02005KT P6SM
                       SKC FM011900 33008KT P6SM SKC=
201508010304 TAF AMD KSEA 010304Z 0103/0206 34007KT P6SM SKC FM010600 02005KT
                       P6SM SKC FM011900 32007KT P6SM SKC=