##########################################################
# Query made at 02/17/2025 19:55:04 UTC
# Time interval: from 10/01/2016 00:00  to 10/31/2016 23:59  UTC
##########################################################

##########################################################
# KSEA, Seattle, Seattle-Tacoma International Airport (United States)
# WMO index: 72793. WIGOS ID: 0-20000-0-72793
# Latitude 47-27-00N. Longitude 122-17-59W. Altitude 130 m.
##########################################################

###################################
#  METAR/SPECI from KSEA
###################################
201610312353 METAR KSEA 312353Z 19013KT 10SM FEW026 BKN110 OVC200 13/08 A2982 RMK AO2 SLP105 60000 T01280083 10139 20117 51001=
201610312253 METAR KSEA 312253Z 21011KT 10SM SCT029 BKN150 BKN250 13/08 A2982 RMK AO2 SLP105 T01330078=
201610312153 METAR KSEA 312153Z 22009KT 10SM FEW015 SCT034 BKN150 BKN250 14/08 A2983 RMK AO2 SLP106 T01390083=
201610312053 METAR KSEA 312053Z 21013KT 10SM FEW015 SCT030 SCT140 BKN250 14/08 A2982 RMK AO2 SLP104 60000 T01390083 51019=
201610311953 METAR KSEA 311953Z 21014KT 10SM FEW012 SCT023 BKN140 13/09 A2980 RMK AO2 PK WND 20027/1855 SLP099 T01280089=
201610311853 METAR KSEA 311853Z 20016G24KT 10SM SCT009 SCT020 BKN110 12/09 A2979 RMK AO2 PK WND 22029/1829 RAE29 SLP093 P0000 T01220094=
201610311832 SPECI KSEA 311832Z 21017G29KT 10SM FEW008 SCT015 BKN035 12/09 A2978 RMK AO2 PK WND 22029/1829 RAE29 P0000 T01170089=
201610311756 SPECI KSEA 311756Z 21015G24KT 9SM -RA FEW008 OVC012 12/09 A2976 RMK AO2 P0000 T01170094=
201610311753 METAR KSEA 311753Z 20016G24KT 8SM -RA FEW009 OVC015 12/09 A2976 RMK AO2 PK WND 22032/1709 RAE27B52 SLP085 P0001 60041 T01170094 10117 20106 53036=
201610311725 SPECI KSEA 311725Z 20018G26KT 10SM -RA FEW009 BKN015 OVC060 12/09 A2975 RMK AO2 PK WND 22032/1709 P0001 T01170094=
201610311653 METAR KSEA 311653Z 21019G31KT 9SM -RA FEW008 OVC011 12/10 A2972 RMK AO2 PK WND 21031/1648 SLP071 P0008 T01170100=
201610311648 SPECI KSEA 311648Z 21022G31KT 7SM -RA FEW008 OVC011 12/10 A2972 RMK AO2 PK WND 21031/1648 P0008=
201610311621 SPECI KSEA 311621Z 21015G26KT 7SM -RA BKN007 OVC012 12/11 A2970 RMK AO2 PK WND 20026/1619 P0005 T01170106=
201610311553 METAR KSEA 311553Z 17014KT 2SM RA BR BKN006 OVC012 11/10 A2968 RMK AO2 SFC VIS 2 1/2 SLP057 P0018 T01110100=
201610311537 SPECI KSEA 311537Z 15009KT 2SM +RA BR BKN009 OVC014 11/09 A2967 RMK AO2 P0008 T01060094=
201610311453 METAR KSEA 311453Z 14011KT 7SM -RA FEW015 BKN022 OVC045 11/09 A2966 RMK AO2 SLP049 P0014 60014 T01060089 51006=
201610311353 METAR KSEA 311353Z 16009KT 7SM -RA BKN028 OVC040 11/09 A2965 RMK AO2 RAB51 SLP049 P0000 T01060089=
201610311347 SPECI KSEA 311347Z 15008KT 10SM BKN030 OVC042 11/09 A2965 RMK AO2=
201610311300 SPECI KSEA 311300Z 14007KT 10SM BKN028 OVC043 11/09 A2964 RMK AO2 T01060089 $=
201610311253 METAR KSEA 311253Z 15005KT 10SM BKN030 OVC043 11/09 A2964 RMK AO2 RAE12 SLP043 P0000 T01060089 $=
201610311239 SPECI KSEA 311239Z 14006KT 10SM BKN030 OVC043 11/09 A2963 RMK AO2 RAE12 P0000 T01060089 $=
201610311209 SPECI KSEA 311209Z 15007KT 10SM -RA BKN028 OVC043 11/09 A2962 RMK AO2 P0000 T01110089 $=
201610311153 METAR KSEA 311153Z 14005KT 10SM -RA BKN031 OVC043 11/09 A2962 RMK AO2 RAB31 SLP038 P0000 60001 70026 T01060089 10111 20100 53009 $=
201610311053 METAR KSEA 311053Z 12003KT 10SM BKN041 OVC050 11/09 A2961 RMK AO2 SLP034 T01060089 $=
201610310953 METAR KSEA 310953Z 12003KT 10SM SCT037 BKN046 OVC055 11/09 A2960 RMK AO2 SLP029 T01060089 $=
201610310853 METAR KSEA 310853Z 00000KT 10SM FEW038 OVC070 10/09 A2959 RMK AO2 SLP028 60001 T01000094 53002 $=
201610310753 METAR KSEA 310753Z 13004KT 10SM FEW002 BKN055 OVC070 11/09 A2958 RMK AO2 SLP024 T01060089 401110067 $=
201610310653 METAR KSEA 310653Z 12006KT 5SM BR FEW002 OVC060 10/09 A2959 RMK AO2 RAE25 SLP026 P0001 T01000089 $=
201610310611 SPECI KSEA 310611Z 13007KT 2SM -RA BR SCT002 OVC060 10/09 A2959 RMK AO2 P0001 T01000089 $=
201610310553 METAR KSEA 310553Z 14006KT 1SM R16L/P6000FT -RA BR BKN002 OVC055 10/09 A2959 RMK AO2 TWR VIS 2 RAE0457B09 SLP026 P0002 60023 T01000094 10100 20094 53009 $=
201610310458 SPECI KSEA 310458Z 16004KT 1SM R16L/P6000FT BR BKN003 OVC021 10/09 A2957 RMK AO2 TWR VIS 2 RAE57 P0000 T01000089 $=
201610310453 METAR KSEA 310453Z 18004KT 5SM -RA BR BKN002 BKN025 OVC049 10/09 A2957 RMK AO2 SLP020 P0005 T01000089 $=
201610310441 SPECI KSEA 310441Z 18004KT 4SM -RA BR BKN002 OVC027 10/09 A2957 RMK AO2 P0004 T01000089 $=
201610310353 METAR KSEA 310353Z 19003KT 4SM -RA BR SCT005 BKN030 OVC050 10/09 A2956 RMK AO2 SLP017 P0007 T01000089 $=
201610310315 SPECI KSEA 310315Z 00000KT 5SM -RA BR SCT003 BKN035 OVC044 10/09 A2956 RMK AO2 P0003 T01000089 $=
201610310253 METAR KSEA 310253Z 00000KT 2 1/2SM -RA BR SCT004 BKN041 OVC049 09/09 A2956 RMK AO2 SFC VIS 5 SLP016 P0003 60009 T00940089 55000 $=
201610310229 SPECI KSEA 310229Z 30003KT 2 1/2SM -RA BR SCT002 BKN047 OVC060 09/09 A2955 RMK AO2 SFC VIS 5 P0002 T00940089 $=
201610310226 SPECI KSEA 310226Z 29004KT 6SM -RA BR SCT005 BKN047 OVC060 09/08 A2955 RMK AO2 P0001 T00940083 $=
201610310153 METAR KSEA 310153Z 00000KT 7SM -RA OVC060 10/09 A2955 RMK AO2 SLP012 P0003 T01000089 $=
201610310053 METAR KSEA 310053Z 36005KT 7SM -RA OVC060 10/08 A2954 RMK AO2 SLP009 P0003 T01000083 $=
201610302353 METAR KSEA 302353Z 35006KT 10SM -RA OVC060 10/08 A2956 RMK AO2 RAB14 SLP016 P0001 60002 T01000083 10111 20100 56019 $=
201610302253 METAR KSEA 302253Z 35009KT 10SM FEW040 OVC070 11/08 A2956 RMK AO2 SLP017 T01060078 $=
201610302153 METAR KSEA 302153Z 34009KT 10SM OVC075 11/08 A2958 RMK AO2 RAE21 SLP022 P0000 T01060083 $=
201610302053 METAR KSEA 302053Z 35007KT 9SM -RA OVC070 11/07 A2962 RMK AO2 RAB30 SLP036 P0001 60001 T01060072 56023 $=
201610301953 METAR KSEA 301953Z 36008KT 10SM BKN070 OVC210 11/07 A2963 RMK AO2 SLP041 T01110067 $=
201610301853 METAR KSEA 301853Z 35008KT 10SM FEW030 SCT085 BKN210 11/07 A2966 RMK AO2 SLP049 T01110067 $=
201610301753 METAR KSEA 301753Z 36010KT 10SM FEW020 SCT090 BKN200 10/06 A2968 RMK AO2 SLP059 T01000061 10100 20067 58025 $=
201610301653 METAR KSEA 301653Z 36010KT 10SM FEW020 SCT090 BKN190 09/06 A2971 RMK AO2 SLP069 T00890061 $=
201610301553 METAR KSEA 301553Z 36008KT 10SM FEW020 SCT090 BKN180 08/06 A2974 RMK AO2 SLP078 T00780056 $=
201610301453 METAR KSEA 301453Z 01006KT 10SM FEW010 FEW020 SCT095 07/06 A2976 RMK AO2 SLP084 T00670056 56025 $=
201610301353 METAR KSEA 301353Z 01006KT 10SM FEW060 SCT095 07/06 A2978 RMK AO2 SLP090 T00720061=
201610301253 METAR KSEA 301253Z 01008KT 10SM FEW070 SCT090 08/07 A2981 RMK AO2 SLP099 T00830067=
201610301153 METAR KSEA 301153Z 02005KT 10SM FEW075 SCT130 08/07 A2983 RMK AO2 SLP109 70019 T00780067 10106 20067 58016=
201610301053 METAR KSEA 301053Z 03006KT 6SM VCFG FEW001 FEW080 08/06 A2985 RMK AO2 SLP114 T00780061=
201610300953 METAR KSEA 300953Z 03005KT 10SM FEW040 FEW220 08/06 A2987 RMK AO2 SLP120 T00780056=
201610300853 METAR KSEA 300853Z 02004KT 10SM SCT220 08/06 A2988 RMK AO2 SLP125 T00830061 58012=
201610300753 METAR KSEA 300753Z 07003KT 10SM FEW040 SCT220 09/07 A2990 RMK AO2 SLP133 T00940072 401560089=
201610300653 METAR KSEA 300653Z 00000KT 10SM FEW060 SCT230 11/08 A2991 RMK AO2 SLP133 T01060078=
201610300553 METAR KSEA 300553Z 03003KT 10SM FEW080 SCT230 11/08 A2992 RMK AO2 SLP138 T01060078 10144 20094 57004=
201610300453 METAR KSEA 300453Z 03007KT 10SM FEW085 SCT250 11/07 A2992 RMK AO2 SLP139 T01060067=
201610300353 METAR KSEA 300353Z 10005KT 10SM FEW085 FEW250 12/07 A2993 RMK AO2 SLP141 T01170067=
201610300253 METAR KSEA 300253Z 09004KT 10SM FEW085 SCT250 12/08 A2993 RMK AO2 SLP142 T01220078 58003=
201610300153 METAR KSEA 300153Z 35003KT 10SM FEW025 FEW085 BKN250 12/09 A2993 RMK AO2 SLP142 T01220089=
201610300053 METAR KSEA 300053Z 00000KT 10SM FEW025 SCT085 BKN250 14/08 A2994 RMK AO2 SLP145 T01390083=
201610292353 METAR KSEA 292353Z 17003KT 10SM SCT025 BKN080 BKN250 14/09 A2994 RMK AO2 SLP145 60002 T01440089 10156 20111 51004=
201610292345 SPECI KSEA 292345Z 15003KT 10SM SCT025 BKN080 BKN250 14/09 A2994 RMK AO2 T01440089=
201610292253 METAR KSEA 292253Z 13005KT 10SM FEW018 BKN029 BKN250 14/09 A2994 RMK AO2 SLP144 T01440089=
201610292249 SPECI KSEA 292249Z 12006KT 10SM FEW018 BKN029 BKN250 14/09 A2994 RMK AO2=
201610292153 METAR KSEA 292153Z 16004KT 10SM FEW018 SCT048 SCT250 15/09 A2993 RMK AO2 SLP140 T01500094=
201610292053 METAR KSEA 292053Z 14007KT 10SM FEW018 BKN048 BKN085 13/10 A2993 RMK AO2 SLP143 60002 T01330100 50000=
201610291953 METAR KSEA 291953Z 15006KT 10SM FEW025 BKN036 BKN050 13/09 A2994 RMK AO2 RAB01E24 SLP146 P0000 T01280094=
201610291853 METAR KSEA 291853Z 18005KT 10SM FEW042 SCT055 OVC070 12/09 A2994 RMK AO2 RAE53 SLP146 P0002 T01170089=
201610291753 METAR KSEA 291753Z 13008KT 10SM -RA FEW045 OVC055 11/09 A2993 RMK AO2 SLP142 P0003 60017 T01110089 10150 20106 51015=
201610291653 METAR KSEA 291653Z 00000KT 10SM -RA BKN055 OVC075 11/09 A2992 RMK AO2 SLP137 P0003 T01110094=
201610291553 METAR KSEA 291553Z 14005KT 5SM -RA BR OVC060 11/09 A2991 RMK AO2 SLP134 P0011 T01060089=
201610291453 METAR KSEA 291453Z 26008KT 10SM -RA BKN055 OVC070 11/08 A2989 RMK AO2 RAB27 PRESRR SLP127 P0000 60000 T01060083 53013=
201610291353 METAR KSEA 291353Z 15009KT 10SM OVC060 14/05 A2986 RMK AO2 SLP116 T01440050=
201610291253 METAR KSEA 291253Z 16005KT 10SM OVC065 13/06 A2985 RMK AO2 SLP114 T01280056=
201610291153 METAR KSEA 291153Z 00000KT 10SM SCT070 BKN110 BKN190 12/05 A2985 RMK AO2 SLP113 T01170050 10144 20117 55004=
201610291053 METAR KSEA 291053Z 00000KT 10SM BKN190 14/04 A2985 RMK AO2 SLP112 T01390039=
201610290953 METAR KSEA 290953Z 10006KT 10SM OVC220 14/04 A2985 RMK AO2 SLP113 T01390039=
201610290853 METAR KSEA 290853Z 09006KT 10SM OVC230 14/03 A2986 RMK AO2 SLP117 T01390033 57002=
201610290753 METAR KSEA 290753Z 09004KT 10SM OVC230 14/03 A2986 RMK AO2 SLP118 T01390033 401940100=
201610290653 METAR KSEA 290653Z 07005KT 10SM OVC240 14/03 A2987 RMK AO2 SLP119 T01390033=
201610290553 METAR KSEA 290553Z 11009KT 10SM OVC240 14/04 A2987 RMK AO2 SLP119 T01390039 10172 20133 55007=
201610290453 METAR KSEA 290453Z 11011KT 10SM BKN220 14/04 A2986 RMK AO2 SLP117 T01440044=
201610290353 METAR KSEA 290353Z 09015KT 10SM BKN240 14/04 A2987 RMK AO2 SLP121 T01440044=
201610290253 METAR KSEA 290253Z 09009KT 10SM BKN240 14/06 A2989 RMK AO2 SLP128 T01440056 58002=
201610290153 METAR KSEA 290153Z 09007KT 10SM FEW070 BKN240 16/07 A2990 RMK AO2 SLP130 T01560072=
201610290053 METAR KSEA 290053Z 01007KT 10SM SCT070 BKN230 15/08 A2990 RMK AO2 SLP130 T01500083=
201610282353 METAR KSEA 282353Z 35008KT 10SM SCT070 BKN250 17/09 A2990 RMK AO2 SLP130 T01720089 10194 20144 56005=
201610282253 METAR KSEA 282253Z 30007KT 10SM SCT050 BKN250 18/09 A2990 RMK AO2 SLP131 T01780089=
201610282153 METAR KSEA 282153Z 27005KT 10SM SCT060 BKN250 19/08 A2990 RMK AO2 SLP132 T01890083=
201610282053 METAR KSEA 282053Z 00000KT 10SM FEW050 SCT070 BKN250 19/05 A2991 RMK AO2 SLP135 T01890050 58010=
201610281953 METAR KSEA 281953Z 15004KT 10SM FEW050 BKN070 BKN250 18/07 A2993 RMK AO2 SLP140 T01780067=
201610281853 METAR KSEA 281853Z 18006KT 10SM FEW050 BKN070 BKN200 16/08 A2995 RMK AO2 SLP148 T01610083=
201610281753 METAR KSEA 281753Z 12005KT 10SM FEW040 BKN065 BKN200 14/08 A2995 RMK AO2 SLP146 T01440078 10150 20106 50002=
201610281653 METAR KSEA 281653Z 12007KT 10SM FEW035 SCT055 14/08 A2995 RMK AO2 SLP147 T01390078=
201610281553 METAR KSEA 281553Z 11009KT 10SM FEW035 BKN050 BKN090 12/07 A2995 RMK AO2 SLP147 SHRA W T01170072=
201610281453 METAR KSEA 281453Z 11011KT 10SM BKN050 BKN090 11/08 A2994 RMK AO2 SLP144 T01110078 55000=
201610281353 METAR KSEA 281353Z 10005KT 10SM BKN055 BKN095 11/08 A2994 RMK AO2 SLP143 T01110078=
201610281253 METAR KSEA 281253Z 11004KT 10SM OVC065 11/08 A2994 RMK AO2 SLP143 T01110083=
201610281153 METAR KSEA 281153Z 12006KT 10SM FEW047 BKN090 BKN110 11/08 A2994 RMK AO2 SLP145 60001 70004 T01060083 10117 20100 51007=
201610281053 METAR KSEA 281053Z 15004KT 10SM BKN065 10/09 A2994 RMK AO2 SLP145 T01000089=
201610280953 METAR KSEA 280953Z 13006KT 10SM FEW070 BKN090 11/09 A2992 RMK AO2 SLP139 T01060089=
201610280853 METAR KSEA 280853Z 12006KT 10SM OVC065 11/09 A2992 RMK AO2 SLP138 60001 T01110094 51008=
201610280753 METAR KSEA 280753Z 11006KT 10SM FEW038 BKN048 OVC070 12/09 A2991 RMK AO2 RAB0655E17 SLP135 P0001 T01170094 401440111=
201610280653 METAR KSEA 280653Z 16005KT 10SM FEW039 OVC060 12/09 A2991 RMK AO2 SLP133 T01170094=
201610280553 METAR KSEA 280553Z 15006KT 10SM OVC038 12/09 A2989 RMK AO2 RAE00 SLP129 P0000 60002 T01170094 10133 20111 51008=
201610280453 METAR KSEA 280453Z 14005KT 10SM -RA OVC049 12/09 A2989 RMK AO2 RAE00B51 SLP128 P0000 T01170094=
201610280353 METAR KSEA 280353Z 13006KT 10SM -RA BKN043 OVC050 12/09 A2988 RMK AO2 RAB50 SLP124 P0000 T01170094=
201610280253 METAR KSEA 280253Z 00000KT 10SM BKN036 OVC060 12/09 A2987 RMK AO2 RAE30 SLP121 P0000 60002 T01170094 50008=
201610280238 SPECI KSEA 280238Z 00000KT 10SM BKN036 OVC065 12/09 A2987 RMK AO2 RAE30 P0000 T01170094=
201610280153 METAR KSEA 280153Z 23003KT 5SM -RA BKN029 OVC050 12/09 A2987 RMK AO2 RAB06 SLP122 P0002 T01170089=
201610280108 SPECI KSEA 280108Z 21007KT 8SM -RA SCT029 OVC055 12/09 A2986 RMK AO2 RAB06 P0001 T01220089=
201610280053 METAR KSEA 280053Z 21011KT 10SM BKN029 OVC060 13/08 A2986 RMK AO2 SLP118 T01330083=
201610280048 SPECI KSEA 280048Z 21011KT 10SM BKN029 OVC060 13/08 A2986 RMK AO2=
201610272353 METAR KSEA 272353Z 14007KT 10SM FEW036 BKN060 BKN100 13/09 A2985 RMK AO2 SLP112 60001 T01330094 10144 20128 56001=
201610272253 METAR KSEA 272253Z 16006KT 10SM SCT049 BKN060 BKN100 14/09 A2985 RMK AO2 RAE02 SLP114 P0000 T01390094=
201610272153 METAR KSEA 272153Z 20007KT 8SM -RA FEW049 BKN065 OVC080 13/09 A2984 RMK AO2 RAB48 SLP112 P0001 T01330094=
201610272053 METAR KSEA 272053Z 19005KT 10SM FEW040 BKN065 BKN180 13/09 A2985 RMK AO2 SLP114 SHRA DSNT W T01330089 51001=
201610271953 METAR KSEA 271953Z 20006KT 10SM FEW045 BKN065 OVC160 13/08 A2985 RMK AO2 SLP114 T01330083=
201610271853 METAR KSEA 271853Z 18003KT 10SM FEW040 BKN065 OVC160 13/08 A2985 RMK AO2 SLP114 T01280083=
201610271753 METAR KSEA 271753Z 20003KT 10SM FEW040 BKN070 OVC180 13/08 A2985 RMK AO2 SLP113 T01280083 10128 20111 58003=
201610271653 METAR KSEA 271653Z 16005KT 10SM FEW045 BKN070 OVC180 12/08 A2985 RMK AO2 SLP114 T01220078=
201610271553 METAR KSEA 271553Z 16005KT 10SM FEW045 BKN065 OVC180 11/08 A2985 RMK AO2 SLP115 T01110078=
201610271453 METAR KSEA 271453Z 15005KT 10SM BKN047 BKN065 OVC180 12/08 A2985 RMK AO2 SLP116 T01170078 55000=
201610271353 METAR KSEA 271353Z 17008KT 10SM FEW050 OVC180 11/07 A2985 RMK AO2 SLP116 T01110072=
201610271253 METAR KSEA 271253Z 16008KT 10SM FEW050 SCT180 12/07 A2985 RMK AO2 SLP113 T01220072=
201610271153 METAR KSEA 271153Z 17009KT 10SM FEW035 SCT042 BKN050 12/07 A2985 RMK AO2 SLP116 60003 70123 T01220072 10133 20117 55003=
201610271053 METAR KSEA 271053Z 14011KT 10SM SCT060 BKN180 12/09 A2985 RMK AO2 SLP115 T01170089=
201610270953 METAR KSEA 270953Z 15010KT 10SM SCT043 BKN060 OVC150 12/10 A2986 RMK AO2 SLP119 T01220100=
201610270853 METAR KSEA 270853Z 14010KT 10SM BKN060 OVC100 12/11 A2986 RMK AO2 RAB31E42 SLP118 P0000 60003 T01220106 58005=
201610270753 METAR KSEA 270753Z 15010KT 10SM OVC110 12/10 A2987 RMK AO2 RAE0656 SLP122 P0000 T01220100 401440111=
201610270653 METAR KSEA 270653Z 17011KT 10SM -RA SCT055 OVC100 12/10 A2987 RMK AO2 SLP122 P0003 T01220100=
201610270553 METAR KSEA 270553Z 17008KT 8SM -RA SCT028 BKN036 OVC055 13/11 A2988 RMK AO2 SLP123 P0002 60034 T01330111 10144 20133 53017=
201610270453 METAR KSEA 270453Z 18007KT 10SM -RA FEW015 FEW028 OVC065 13/12 A2985 RMK AO2 SLP116 P0006 T01330117=
201610270353 METAR KSEA 270353Z 18011KT 9SM -RA SCT060 OVC070 14/12 A2984 RMK AO2 SLP112 P0003 T01390122=
201610270253 METAR KSEA 270253Z 17006KT 10SM -RA FEW045 OVC080 14/13 A2983 RMK AO2 SLP106 P0004 60023 T01390128 51011=
201610270153 METAR KSEA 270153Z 12007KT 9SM -RA FEW020 SCT047 OVC075 13/12 A2982 RMK AO2 RAB11 SLP103 P0004 T01330122=
201610270053 METAR KSEA 270053Z 14007KT 8SM SCT015 BKN060 OVC090 14/12 A2981 RMK AO2 RAE52 SLP100 P0015 T01390122=
201610270007 SPECI KSEA 270007Z 16004KT 3SM RA BR FEW019 BKN029 OVC070 13/12 A2980 RMK AO2 P0006 T01330122=
201610262353 METAR KSEA 262353Z 11006KT 6SM -RA BR FEW010 BKN033 OVC070 13/12 A2979 RMK AO2 SLP095 P0003 60024 T01330117 10139 20122 50009=
201610262253 METAR KSEA 262253Z 19003KT 10SM -RA FEW027 BKN032 OVC070 14/12 A2980 RMK AO2 SLP098 P0003 T01390122=
201610262153 METAR KSEA 262153Z 17003KT 3SM -RA BR OVC034 13/12 A2979 RMK AO2 SLP093 P0004 T01330117=
201610262053 METAR KSEA 262053Z 12007KT 5SM -RA BR FEW034 BKN045 OVC080 13/12 A2977 RMK AO2 SLP086 P0006 60014 T01330117 58008=
201610261953 METAR KSEA 261953Z 12009KT 10SM -RA SCT030 BKN044 OVC080 13/11 A2977 RMK AO2 SLP087 P0005 T01280106=
201610261853 METAR KSEA 261853Z 10008KT 3SM -RA BR FEW005 BKN033 OVC070 13/11 A2979 RMK AO2 RAB05 SLP093 P0003 T01280106=
201610261851 SPECI KSEA 261851Z 10006KT 3SM -RA BR FEW005 BKN033 OVC050 13/11 A2979 RMK AO2 RAB05 P0003=
201610261834 SPECI KSEA 261834Z VRB03KT 5SM -RA BR FEW005 BKN029 OVC035 12/10 A2980 RMK AO2 RAB05 FG BANK W P0001 T01220100=
201610261829 SPECI KSEA 261829Z 06003KT 5SM -RA BR FEW005 BKN031 OVC035 12/10 A2980 RMK AO2 RAB05 FG BANK W P0001 T01220100=
201610261753 METAR KSEA 261753Z 09005KT 10SM FEW010 BKN032 OVC038 12/10 A2981 RMK AO2 RAE50 SLP099 P0007 60062 T01220100 10133 20111 58005=
201610261653 METAR KSEA 261653Z 07009KT 3SM -RA BR SCT026 OVC036 12/10 A2981 RMK AO2 SLP101 P0019 T01170100=
201610261646 SPECI KSEA 261646Z 08008KT 3SM -RA BR SCT026 OVC036 12/09 A2982 RMK AO2 P0017 T01170094=
201610261608 SPECI KSEA 261608Z 10010KT 2 1/2SM RA BR SCT036 BKN046 OVC055 12/09 A2982 RMK AO2 P0007 T01170094=
201610261553 METAR KSEA 261553Z 10011KT 3SM RA BR BKN035 OVC043 12/09 A2982 RMK AO2 SLP105 P0022 T01170094=
201610261453 METAR KSEA 261453Z VRB05KT 7SM -RA BKN050 OVC070 12/09 A2982 RMK AO2 SLP104 P0009 60014 T01220089 58004=
201610261353 METAR KSEA 261353Z 09006KT 10SM -RA OVC055 13/08 A2982 RMK AO2 SLP103 P0003 T01280083=
201610261253 METAR KSEA 261253Z 34006KT 10SM -RA OVC070 11/09 A2984 RMK AO2 SLP110 P0002 T01110089=
201610261153 METAR KSEA 261153Z 02005KT 10SM -RA FEW055 OVC080 13/07 A2983 RMK AO2 RAB50 SLP107 P0000 60000 T01280072 10139 20111 58035=
201610261053 METAR KSEA 261053Z 05008KT 10SM FEW055 BKN080 OVC100 13/07 A2987 RMK AO2 SLP119 T01280067=
201610260953 METAR KSEA 260953Z 04004KT 10SM BKN110 12/07 A2992 RMK AO2 SLP137 T01220072=
201610260853 METAR KSEA 260853Z 05005KT 10SM BKN160 12/08 A2994 RMK AO2 SLP144 T01170078 58012=
201610260800 METAR KSEA NIL=
201610260753 METAR KSEA 260753Z 01008KT 10SM BKN200 12/08 A2995 RMK AO2 SLP148 T01170078 401720100=
201610260653 METAR KSEA 260653Z 01006KT 10SM FEW100 BKN200 12/07 A2997 RMK AO2 SLP155 T01170067=
201610260553 METAR KSEA 260553Z VRB03KT 10SM SCT075 BKN100 14/07 A2997 RMK AO2 SLP155 T01390067 10156 20133 58013=
201610260453 METAR KSEA 260453Z 11006KT 10SM BKN070 OVC120 14/07 A3000 RMK AO2 SLP163 T01390067=
201610260353 METAR KSEA 260353Z 11006KT 10SM BKN070 BKN200 14/07 A3001 RMK AO2 SLP169 T01440067=
201610260253 METAR KSEA 260253Z 11007KT 10SM FEW070 SCT120 BKN200 14/07 A3001 RMK AO2 SLP169 T01440072 58000=
201610260153 METAR KSEA 260153Z 11006KT 10SM FEW035 OVC100 15/06 A3001 RMK AO2 SLP170 T01500061=
201610260053 METAR KSEA 260053Z 18006KT 10SM FEW035 BKN130 BKN250 15/06 A3002 RMK AO2 SLP172 T01500061=
201610252353 METAR KSEA 252353Z 17009KT 10SM FEW035 BKN140 BKN250 16/06 A3001 RMK AO2 SLP169 60000 T01560061 10172 20156 51006=
201610252253 METAR KSEA 252253Z 18011G20KT 10SM FEW035 SCT080 BKN130 16/07 A3001 RMK AO2 SLP169 T01610067=
201610252153 METAR KSEA 252153Z 19014G21KT 10SM FEW035 SCT075 BKN090 17/07 A3001 RMK AO2 RAE2058 SLP167 P0000 T01720067=
201610252053 METAR KSEA 252053Z 19017G20KT 10SM -RA FEW030 SCT050 BKN080 16/07 A2999 RMK AO2 PK WND 19029/2008 RAB45 SLP163 P0000 60000 T01610067 51012=
201610251953 METAR KSEA 251953Z 18013G21KT 10SM SCT043 BKN050 BKN140 16/07 A2999 RMK AO2 PK WND 19028/1908 SLP160 T01610067=
201610251853 METAR KSEA 251853Z 19017G27KT 10SM FEW030 SCT065 SCT080 16/06 A2998 RMK AO2 PK WND 18027/1843 SLP157 T01610056=
201610251753 METAR KSEA 251753Z 19010KT 10SM FEW030 SCT055 BKN140 16/07 A2996 RMK AO2 SLP152 60000 T01610067 10161 20117 51024=
201610251653 METAR KSEA 251653Z 19013G19KT 10SM SCT055 SCT070 BKN100 14/06 A2994 RMK AO2 SLP144 T01440061=
201610251553 METAR KSEA 251553Z 16013KT 10SM BKN065 BKN100 13/06 A2992 RMK AO2 SLP137 T01280061=
201610251453 METAR KSEA 251453Z 16012KT 10SM FEW060 SCT080 SCT110 12/06 A2989 RMK AO2 RAB12E23 SLP127 P0000 60000 T01220056 51022=
201610251353 METAR KSEA 251353Z 17013KT 10SM BKN055 BKN070 13/06 A2987 RMK AO2 RAE1255B27E45 SLP120 P0000 T01280056=
201610251253 METAR KSEA 251253Z 18012KT 9SM -RA BKN050 BKN070 OVC110 13/05 A2985 RMK AO2 RAB45 SLP112 P0000 T01280050=
201610251153 METAR KSEA 251153Z 16010KT 10SM SCT065 BKN090 12/05 A2982 RMK AO2 SLP105 70010 T01170050 10122 20100 51006=
201610251053 METAR KSEA 251053Z 12008KT 10SM BKN075 BKN110 11/06 A2982 RMK AO2 SLP103 T01110061=
201610250953 METAR KSEA 250953Z 13008KT 10SM FEW065 SCT110 SCT160 10/07 A2981 RMK AO2 SLP102 T01000067=
201610250853 METAR KSEA 250853Z 16004KT 10SM FEW050 SCT070 BKN160 11/07 A2980 RMK AO2 SLP099 T01060072 53014=
201610250753 METAR KSEA 250753Z 15004KT 10SM FEW050 BKN065 BKN080 11/07 A2979 RMK AO2 SLP092 T01110072 401720106=
201610250653 METAR KSEA 250653Z 19005KT 10SM SCT090 BKN200 11/07 A2978 RMK AO2 SLP089 T01060067=
201610250553 METAR KSEA 250553Z 16006KT 10SM FEW140 BKN180 11/07 A2976 RMK AO2 SLP084 60010 T01060072 10122 20106 51013=
201610250453 METAR KSEA 250453Z 19005KT 10SM OVC160 12/08 A2975 RMK AO2 SLP080 T01170078=
201610250353 METAR KSEA 250353Z 15008KT 10SM BKN100 OVC120 12/08 A2974 RMK AO2 SLP076 T01170083=
201610250253 METAR KSEA 250253Z 13011KT 10SM OVC070 12/09 A2972 RMK AO2 RAE08 SLP070 P0000 60010 T01220089 50004=
201610250153 METAR KSEA 250153Z 15010KT 10SM -RA BKN060 12/09 A2973 RMK AO2 SLP073 P0002 T01170094=
201610250053 METAR KSEA 250053Z 15013KT 10SM -RA BKN055 OVC070 12/09 A2972 RMK AO2 SLP070 P0008 T01170094=
201610242353 METAR KSEA 242353Z 18008KT 10SM -RA FEW025 BKN045 OVC060 12/09 A2971 RMK AO2 RAE30B43 SLP067 P0000 60000 T01220094 10144 20122 51017=
201610242330 SPECI KSEA 242330Z 20010KT 10SM FEW020 BKN040 OVC060 12/09 A2971 RMK AO2 RAE30 P0000 T01220094=
201610242253 METAR KSEA 242253Z 25012KT 10SM -RA FEW016 BKN025 OVC030 12/09 A2970 RMK AO2 RAB50 SLP064 P0000 T01220089=
201610242153 METAR KSEA 242153Z 24005KT 10SM FEW030 OVC100 14/09 A2967 RMK AO2 SLP054 T01440089=
201610242053 METAR KSEA 242053Z 19005KT 10SM FEW030 OVC100 14/08 A2966 RMK AO2 SLP049 T01390083 51019=
201610241953 METAR KSEA 241953Z 20007KT 10SM OVC110 14/08 A2966 RMK AO2 SLP049 T01440083=
201610241853 METAR KSEA 241853Z 23006KT 10SM OVC110 13/08 A2963 RMK AO2 SLP039 T01330083=
201610241753 METAR KSEA 241753Z 21009KT 10SM SCT080 BKN120 OVC150 12/09 A2960 RMK AO2 SLP030 T01220089 10172 20111 53012=
201610241653 METAR KSEA 241653Z 13006KT 10SM FEW080 BKN110 OVC150 17/05 A2956 RMK AO2 SLP016 T01720050=
201610241600 METAR KSEA NIL=
201610241553 METAR KSEA 241553Z 00000KT 10SM OVC110 13/07 A2958 RMK AO2 SLP021 T01330072=
201610241453 METAR KSEA 241453Z 09008KT 10SM BKN110 BKN150 16/06 A2957 RMK AO2 SLP017 T01610061 56022=
201610241353 METAR KSEA 241353Z 36006KT 10SM SCT110 BKN160 12/08 A2957 RMK AO2 SLP020 T01170078=
201610241253 METAR KSEA 241253Z 31003KT 10SM FEW080 BKN150 11/08 A2961 RMK AO2 SLP032 T01110083 $=
201610241153 METAR KSEA 241153Z 06008KT 10SM SCT080 OVC110 12/08 A2963 RMK AO2 SLP040 70001 T01220078 10144 20111 58014 $=
201610241053 METAR KSEA 241053Z 36004KT 10SM FEW070 SCT085 OVC110 12/09 A2967 RMK AO2 SLP053 T01170089 $=
201610240953 METAR KSEA 240953Z 00000KT 10SM FEW080 BKN095 OVC120 12/08 A2970 RMK AO2 SLP063 T01170078 $=
201610240853 METAR KSEA 240853Z 01007KT 10SM SCT120 BKN140 OVC200 12/08 A2967 RMK AO2 SLP054 T01170078 58021 $=
201610240753 METAR KSEA 240753Z 04006KT 10SM BKN150 12/08 A2969 RMK AO2 SLP060 T01220078 401670094 $=
201610240653 METAR KSEA 240653Z 01006KT 10SM BKN150 13/08 A2972 RMK AO2 SLP070 T01280078 $=
201610240553 METAR KSEA 240553Z 03006KT 10SM BKN140 14/06 A2974 RMK AO2 SLP075 T01440061 10150 20128 56013 $=
201610240453 METAR KSEA 240453Z 34004KT 10SM BKN120 13/08 A2975 RMK AO2 SLP080 T01330078 $=
201610240353 METAR KSEA 240353Z 02006KT 10SM BKN120 14/08 A2976 RMK AO2 SLP083 T01440083 $=
201610240253 METAR KSEA 240253Z 03009KT 10SM OVC100 14/08 A2978 RMK AO2 SLP089 T01390083 56013 $=
201610240153 METAR KSEA 240153Z 03009KT 10SM FEW075 OVC090 15/08 A2979 RMK AO2 SLP093 T01500078 $=
201610240053 METAR KSEA 240053Z 35008KT 10SM BKN080 OVC095 14/08 A2980 RMK AO2 SLP097 T01440083 $=
201610232353 METAR KSEA 232353Z 01008KT 10SM FEW070 BKN095 BKN120 OVC200 15/08 A2982 RMK AO2 SLP103 T01500083 10167 20144 57021 $=
201610232253 METAR KSEA 232253Z 35006KT 10SM FEW070 BKN095 OVC200 16/08 A2984 RMK AO2 SLP110 T01560083 $=
201610232153 METAR KSEA 232153Z 32008KT 10SM FEW060 OVC070 16/08 A2986 RMK AO2 SLP116 T01560083 $=
201610232053 METAR KSEA 232053Z 30004KT 10SM FEW030 SCT060 BKN085 16/07 A2988 RMK AO2 SLP124 T01610072 58013 $=
201610231953 METAR KSEA 231953Z 32006KT 10SM FEW030 SCT060 BKN170 16/08 A2990 RMK AO2 SLP132 T01610083 $=
201610231853 METAR KSEA 231853Z 29005KT 10SM FEW040 BKN070 BKN150 16/09 A2991 RMK AO2 SLP135 T01560094 $=
201610231753 METAR KSEA 231753Z VRB03KT 10SM FEW040 BKN080 15/08 A2992 RMK AO2 SLP138 60001 T01500078 10150 20094 50005 $=
201610231653 METAR KSEA 231653Z 00000KT 10SM BKN055 BKN150 13/08 A2992 RMK AO2 SLP138 T01280083 $=
201610231553 METAR KSEA 231553Z 23003KT 10SM BKN049 BKN060 11/09 A2991 RMK AO2 RAE20 SLP135 P0000 T01060089 $=
201610231453 METAR KSEA 231453Z 14004KT 10SM -RA FEW045 BKN060 OVC150 11/08 A2990 RMK AO2 RAB30 SLP133 P0001 60001 T01060078 53009 $=
201610231353 METAR KSEA 231353Z 15005KT 10SM BKN070 BKN100 10/08 A2989 RMK AO2 SLP128 T01000078 $=
201610231253 METAR KSEA 231253Z 13008KT 10SM FEW043 SCT065 BKN075 11/08 A2988 RMK AO2 SLP125 T01060083 $=
201610231153 METAR KSEA 231153Z 00000KT 10SM SCT048 BKN060 11/08 A2988 RMK AO2 RAE1054 SLP124 P0000 60016 70016 T01110083 10128 20106 51004 $=
201610231053 METAR KSEA 231053Z 10004KT 8SM -RA FEW042 BKN050 OVC060 11/08 A2987 RMK AO2 SLP122 P0005 T01110083 $=
201610230953 METAR KSEA 230953Z 09005KT 8SM -RA SCT045 OVC055 11/08 A2988 RMK AO2 RAE0856B19 SLP124 P0002 T01110083 $=
201610230853 METAR KSEA 230853Z 09008KT 9SM -RA FEW040 BKN060 OVC110 11/08 A2987 RMK AO2 SLP120 P0004 60009 T01060083 50010 $=
201610230753 METAR KSEA 230753Z 02005KT 9SM -RA FEW040 BKN055 OVC065 11/09 A2987 RMK AO2 SLP120 P0004 T01060089 401670067 $=
201610230653 METAR KSEA 230653Z 06003KT 10SM -RA FEW043 BKN055 OVC080 12/07 A2985 RMK AO2 RAE08B28 SLP113 P0001 T01170072 $=
201610230553 METAR KSEA 230553Z 26004KT 9SM -RA BKN050 OVC075 12/07 A2983 RMK AO2 RAB45 SLP109 P0000 60000 T01170072 10156 20111 53007 $=
201610230453 METAR KSEA 230453Z 16004KT 10SM SCT065 OVC110 12/06 A2982 RMK AO2 SLP104 T01220061 $=
201610230353 METAR KSEA 230353Z 13004KT 10SM OVC120 12/06 A2981 RMK AO2 SLP101 T01220061 $=
201610230253 METAR KSEA 230253Z 00000KT 10SM CLR 11/06 A2981 RMK AO2 SLP102 T01110056 56003 $=
201610230153 METAR KSEA 230153Z 00000KT 10SM BKN150 BKN230 12/04 A2981 RMK AO2 SLP103 T01220044 $=
201610230053 METAR KSEA 230053Z 28003KT 10SM BKN150 BKN230 13/04 A2982 RMK AO2 SLP103 T01330044 $=
201610222353 METAR KSEA 222353Z 31004KT 10SM BKN150 BKN230 14/06 A2982 RMK AO2 SLP104 T01440056 10167 20128 56023 $=
201610222253 METAR KSEA 222253Z 35007KT 10SM BKN170 BKN250 16/06 A2983 RMK AO2 SLP107 T01610056 $=
201610222153 METAR KSEA 222153Z 31007KT 10SM FEW020 BKN250 16/07 A2986 RMK AO2 SLP117 T01560072 $=
201610222053 METAR KSEA 222053Z 00000KT 10SM FEW015 BKN250 16/05 A2989 RMK AO2 SLP128 T01610050 58027 $=
201610221953 METAR KSEA 221953Z VRB03KT 10SM FEW015 SCT250 16/07 A2993 RMK AO2 SLP140 T01560067 $=
201610221853 METAR KSEA 221853Z 29003KT 10SM FEW002 BKN250 13/08 A2996 RMK AO2 SLP151 T01280083 $=
201610221753 METAR KSEA 221753Z 00000KT 10SM FEW002 BKN250 12/07 A2997 RMK AO2 SLP156 T01220072 10122 20067 58004 $=
201610221653 METAR KSEA 221653Z 00000KT 10SM FEW001 BKN250 11/08 A2998 RMK AO2 SLP161 T01060078 $=
201610221632 SPECI KSEA 221632Z 00000KT 5SM R16L/1200V3000FT BCFG SCT001 SCT028 BKN250 09/08 A2999 RMK AO2 VIS W 1 T00940083 $=
201610221557 SPECI KSEA 221557Z 25003KT 1SM R16L/2200VP6000FT BCFG BKN001 BKN028 09/08 A2999 RMK AO2 T00890078 $=
201610221553 METAR KSEA 221553Z 27003KT 1 1/4SM R16L/2200VP6000FT BCFG SCT001 BKN028 BKN200 09/07 A2999 RMK AO2 SLP163 T00890072=
201610221538 SPECI KSEA 221538Z 00000KT 1 3/4SM R16L/4000VP6000FT BR FEW005 SCT020 BKN200 08/07 A2999 RMK AO2 VIS 1/2V5 T00830067=
201610221453 METAR KSEA 221453Z 00000KT 10SM FEW005 FEW150 BKN200 07/06 A2998 RMK AO2 SLP160 T00720056 58006=
201610221426 SPECI KSEA 221426Z 00000KT 10SM FEW005 SCT140 08/06 A2999 RMK AO2 T00780061=
201610221353 METAR KSEA 221353Z 00000KT 10SM FEW015 FEW250 07/06 A2999 RMK AO2 SLP164 T00720056=
201610221253 METAR KSEA 221253Z 00000KT 10SM FEW017 FEW200 08/06 A3000 RMK AO2 SLP166 T00780056=
201610221235 SPECI KSEA 221235Z 00000KT 10SM FEW017 FEW200 08/06 A3000 RMK AO2 T00780056=
201610221153 METAR KSEA 221153Z 21006KT 10SM SCT022 BKN028 08/07 A3000 RMK AO2 SLP165 70002 T00830067 10100 20083 51003=
201610221053 METAR KSEA 221053Z 21005KT 10SM BKN020 BKN027 09/07 A3000 RMK AO2 SLP165 T00890067=
201610220953 METAR KSEA 220953Z 19004KT 10SM BKN020 BKN030 09/07 A3000 RMK AO2 SLP165 T00890067=
201610220853 METAR KSEA 220853Z 17005KT 10SM SCT018 BKN028 08/07 A2999 RMK AO2 SLP161 T00830067 53007=
201610220753 METAR KSEA 220753Z 18007KT 10SM SCT016 BKN020 BKN180 09/07 A2998 RMK AO2 SLP159 T00940067 401390089=
201610220653 METAR KSEA 220653Z 16006KT 10SM BKN016 BKN028 BKN180 09/07 A2997 RMK AO2 SLP156 T00940072=
201610220553 METAR KSEA 220553Z 16005KT 10SM FEW019 BKN027 BKN150 10/07 A2997 RMK AO2 SLP154 60002 T01000072 10133 20100 53006=
201610220453 METAR KSEA 220453Z 15005KT 10SM BKN023 OVC150 10/08 A2996 RMK AO2 SLP152 T01000078=
201610220439 SPECI KSEA 220439Z 14004KT 10SM SCT023 OVC150 10/08 A2995 RMK AO2 T01000078=
201610220353 METAR KSEA 220353Z 15006KT 10SM BKN025 OVC150 10/08 A2995 RMK AO2 SLP149 T01000078=
201610220253 METAR KSEA 220253Z 17010KT 10SM SCT070 BKN160 11/08 A2995 RMK AO2 SLP149 60002 T01060078 53000=
201610220153 METAR KSEA 220153Z 20009KT 10SM BKN040 BKN120 11/08 A2994 RMK AO2 RAE08 SLP146 P0000 T01110083=
201610220053 METAR KSEA 220053Z 20009KT 10SM -RA FEW035 BKN060 12/10 A2995 RMK AO2 RAB06 SLP148 P0002 T01170100=
201610212353 METAR KSEA 212353Z 20004KT 10SM FEW040 BKN100 OVC200 13/09 A2995 RMK AO2 SLP148 T01330094 10139 20117 58004=
201610212253 METAR KSEA 212253Z 23007KT 10SM FEW040 BKN110 OVC200 13/09 A2995 RMK AO2 SLP149 T01330094=
201610212153 METAR KSEA 212153Z 22011KT 10SM FEW044 SCT070 BKN250 13/09 A2996 RMK AO2 SLP152 T01330089=
201610212053 METAR KSEA 212053Z 22010KT 10SM SCT046 BKN070 BKN250 13/09 A2996 RMK AO2 SLP152 T01330089 58009=
201610211953 METAR KSEA 211953Z VRB05KT 10SM FEW025 BKN055 BKN250 12/08 A2998 RMK AO2 SLP157 T01220083=
201610211853 METAR KSEA 211853Z 19006KT 10SM FEW010 SCT060 BKN250 12/08 A2998 RMK AO2 SLP159 T01220078=
201610211753 METAR KSEA 211753Z 18005KT 10SM FEW060 BKN250 12/08 A2999 RMK AO2 SLP161 T01170078 10117 20089 58009=
201610211653 METAR KSEA 211653Z 18005KT 10SM FEW040 SCT060 BKN250 11/07 A3001 RMK AO2 SLP168 T01060072=
201610211553 METAR KSEA 211553Z 19004KT 10SM FEW040 SCT060 BKN250 09/07 A3002 RMK AO2 SLP172 T00940067=
201610211453 METAR KSEA 211453Z 17006KT 10SM FEW038 SCT046 BKN060 BKN250 09/07 A3002 RMK AO2 SLP171 T00890072 56010=
201610211353 METAR KSEA 211353Z 16005KT 10SM OVC250 09/08 A3002 RMK AO2 SLP172 T00940078=
201610211253 METAR KSEA 211253Z 14006KT 10SM FEW035 FEW060 BKN250 10/08 A3004 RMK AO2 SLP178 T01000078=
201610211153 METAR KSEA 211153Z 13006KT 10SM FEW037 FEW045 SCT060 BKN250 10/08 A3005 RMK AO2 SLP181 70067 T01000078 10122 20100 57014=
201610211053 METAR KSEA 211053Z 12006KT 10SM FEW025 BKN050 BKN070 10/08 A3006 RMK AO2 SLP186 T01000078=
201610211029 SPECI KSEA 211029Z 13007KT 10SM FEW025 BKN050 BKN070 10/08 A3007 RMK AO2 T01000078=
201610210953 METAR KSEA 210953Z 12006KT 10SM BKN021 BKN026 10/09 A3008 RMK AO2 SLP191 T01000089=
201610210853 METAR KSEA 210853Z 14004KT 10SM BKN019 11/09 A3009 RMK AO2 SLP195 T01060089 56010=
201610210817 SPECI KSEA 210817Z 15005KT 10SM BKN020 10/09 A3009 RMK AO2 T01000089=
201610210753 METAR KSEA 210753Z 16006KT 10SM FEW022 10/08 A3010 RMK AO2 SLP198 T01000083 401560100=
201610210653 METAR KSEA 210653Z 17006KT 10SM CLR 11/09 A3010 RMK AO2 SLP200 T01110094=
201610210553 METAR KSEA 210553Z 00000KT 10SM FEW016 11/09 A3012 RMK AO2 SLP205 T01110089 10144 20106 57001=
201610210508 SPECI KSEA 210508Z 19003KT 10SM SCT016 12/09 A3012 RMK AO2 T01220094=
201610210453 METAR KSEA 210453Z 00000KT 10SM BKN018 12/09 A3012 RMK AO2 SLP207 T01220094=
201610210353 METAR KSEA 210353Z 20006KT 10SM FEW020 13/09 A3012 RMK AO2 SLP205 T01280094=
201610210253 METAR KSEA 210253Z 19007KT 10SM FEW019 SCT100 12/09 A3012 RMK AO2 SLP206 T01220094 52008=
201610210153 METAR KSEA 210153Z 21007KT 10SM FEW025 SCT100 13/09 A3012 RMK AO2 SLP204 T01330094=
201610210053 METAR KSEA 210053Z 22010KT 10SM SCT025 SCT095 14/10 A3010 RMK AO2 SLP200 T01390100=
201610202353 METAR KSEA 202353Z 21011KT 10SM SCT024 BKN095 14/09 A3010 RMK AO2 SLP198 60001 T01440094 10156 20128 51007=
201610202319 SPECI KSEA 202319Z 21012G20KT 10SM SCT024 BKN085 15/10 A3009 RMK AO2 T01500100=
201610202253 METAR KSEA 202253Z 22011KT 10SM BKN026 BKN085 15/10 A3009 RMK AO2 SLP195 T01500100=
201610202235 SPECI KSEA 202235Z 21011KT 10SM SCT022 BKN030 BKN085 14/10 A3008 RMK AO2 T01440100=
201610202153 METAR KSEA 202153Z 20013KT 10SM BKN020 BKN080 15/10 A3008 RMK AO2 SLP194 T01500100=
201610202114 SPECI KSEA 202114Z 21013KT 10SM BKN017 14/11 A3008 RMK AO2 T01390106=
201610202053 METAR KSEA 202053Z 22014G19KT 10SM BKN014 BKN021 14/11 A3007 RMK AO2 SLP190 60001 T01390106 51025=
201610201953 METAR KSEA 201953Z 21012G17KT 10SM OVC013 13/11 A3006 RMK AO2 SLP186 T01330111=
201610201945 SPECI KSEA 201945Z 23009KT 10SM OVC013 13/11 A3006 RMK AO2 T01330111=
201610201920 SPECI KSEA 201920Z 21005KT 10SM SCT008 BKN017 OVC075 13/11 A3005 RMK AO2 T01330111=
201610201853 METAR KSEA 201853Z 21014G22KT 10SM SCT008 BKN045 BKN090 13/11 A3003 RMK AO2 RAB1757E47 SLP175 P0001 T01280106=
201610201828 SPECI KSEA 201828Z 20013KT 10SM -RA SCT005 BKN050 BKN090 13/12 A3001 RMK AO2 RAB1757 P0001 T01280117=
201610201808 SPECI KSEA 201808Z 21010KT 10SM -RA BKN005 BKN050 OVC080 13/12 A3000 RMK AO2 RAB1757 P0000 T01330122=
201610201753 METAR KSEA 201753Z 20011KT 10SM BKN003 BKN050 OVC080 13/12 A3000 RMK AO2 RAE47 SLP165 P0005 60066 T01280122 10133 20111 51012=
201610201722 SPECI KSEA 201722Z 20012KT 3SM -RA BR BKN003 OVC060 13/12 A2998 RMK AO2 VIS S 1 P0003 T01280122=
201610201653 METAR KSEA 201653Z 21009KT 3SM -RA BR SCT009 BKN020 OVC075 13/12 A3000 RMK AO2 SLP164 P0015 T01280122=
201610201622 SPECI KSEA 201622Z 23010KT 3SM -RA BR SCT003 BKN009 OVC080 13/12 A2998 RMK AO2 P0012 T01280117=
201610201602 SPECI KSEA 201602Z 21005KT 3/4SM R16L/5500VP6000FT RA BR BKN005 OVC009 12/12 A2998 RMK AO2 P0007 T01220117=
201610201553 METAR KSEA 201553Z 27005KT 2SM R16L/4500VP6000FT +RA BR BKN005 BKN009 OVC016 12/12 A2998 RMK AO2 SLP157 P0018 T01220117=
201610201525 SPECI KSEA 201525Z 00000KT 2SM RA BR BKN007 OVC012 12/11 A2996 RMK AO2 P0006 T01220111=
201610201453 METAR KSEA 201453Z 01005KT 2SM -RA BR BKN003 OVC010 12/11 A2996 RMK AO2 RAE07B30 SLP153 P0002 60028 T01170106 51004=
201610201435 SPECI KSEA 201435Z 00000KT 2SM -RA BR BKN003 OVC010 12/11 A2996 RMK AO2 RAE07B30 P0001 T01170106=
201610201421 SPECI KSEA 201421Z 00000KT 1 1/2SM BR OVC002 12/11 A2996 RMK AO2 TWR VIS 3 RAE07 P0001 T01170106=
201610201353 METAR KSEA 201353Z 27003KT 3/4SM R16L/P6000FT -RA BR BKN002 OVC019 11/11 A2996 RMK AO2 TWR VIS 1 1/2 SLP152 P0017 T01110106 $=
201610201339 SPECI KSEA 201339Z 30006KT 3/4SM R16L/P6000FT -RA BR BKN002 BKN020 OVC027 12/11 A2996 RMK AO2 TWR VIS 1 1/2 P0015 T01170106 $=
201610201325 SPECI KSEA 201325Z 17004KT 4SM -RA BR FEW002 BKN018 OVC027 12/11 A2994 RMK AO2 P0014 T01170106 $=
201610201316 SPECI KSEA 201316Z 19004KT 3SM RA BR SCT003 BKN009 OVC020 12/11 A2995 RMK AO2 P0011 T01170111 $=
201610201308 SPECI KSEA 201308Z 00000KT 1 3/4SM RA BR SCT002 BKN009 OVC014 11/11 A2995 RMK AO2 P0008 T01110111 $=
201610201253 METAR KSEA 201253Z 29004KT 4SM -RA BR SCT004 BKN007 OVC021 12/11 A2996 RMK AO2 RAB07 SLP152 P0009 T01170106 $=
201610201242 SPECI KSEA 201242Z 24003KT 5SM -RA BR SCT007 BKN012 OVC021 12/11 A2996 RMK AO2 RAB07 P0007 T01170106 $=
201610201153 METAR KSEA 201153Z 14009KT 10SM FEW007 BKN028 OVC070 11/10 A2995 RMK AO2 RAE29 SLP149 P0012 60063 70074 T01110100 10111 20100 58039=
201610201105 SPECI KSEA 201105Z 14011KT 3SM RA BR FEW018 OVC050 11/10 A2998 RMK AO2 PRESFR P0008 T01060100=
201610201053 METAR KSEA 201053Z 15007KT 2 1/2SM RA BR BKN018 BKN048 OVC060 11/09 A3001 RMK AO2 SLP168 P0026 T01060094=
201610201008 SPECI KSEA 201008Z 16003KT 4SM RA BR SCT016 SCT022 OVC028 11/10 A3003 RMK AO2 P0004 T01060100=
201610200953 METAR KSEA 200953Z 30003KT 2SM RA BR BKN018 OVC025 11/09 A3004 RMK AO2 SLP180 P0013 T01060094=
201610200853 METAR KSEA 200853Z 09005KT 4SM -RA BR SCT002 BKN021 OVC030 10/09 A3007 RMK AO2 DZB37E48RAB48 SLP189 P0001 60012 T01000094 58017=
201610200830 SPECI KSEA 200830Z 07003KT 3SM BR BKN002 OVC018 10/09 A3009 RMK AO2 T01000089=
201610200753 METAR KSEA 200753Z 05003KT 4SM BR FEW004 BKN025 OVC035 11/09 A3011 RMK AO2 RAE25 SLP201 P0001 T01060089 401440072=
201610200653 METAR KSEA 200653Z 32004KT 6SM -RA BR FEW007 OVC047 10/09 A3011 RMK AO2 SLP204 P0010 T01000094=
201610200553 METAR KSEA 200553Z 29003KT 10SM -RA OVC047 11/09 A3012 RMK AO2 SLP205 P0002 60011 T01060094 10122 20106 58026=
201610200453 METAR KSEA 200453Z 05005KT 8SM -RA OVC049 11/09 A3014 RMK AO2 SLP215 P0004 T01060094=
201610200353 METAR KSEA 200353Z 00000KT 10SM -RA OVC055 11/09 A3017 RMK AO2 RAB08 SLP225 P0003 T01060094=
201610200253 METAR KSEA 200253Z 23006KT 10SM OVC065 11/09 A3020 RMK AO2 RAE49 SLP233 P0001 60002 T01110094 55011=
201610200153 METAR KSEA 200153Z 00000KT 10SM -RA BKN065 OVC080 12/10 A3019 RMK AO2 RAB17 SLP232 P0001 T01170100=
201610200053 METAR KSEA 200053Z 00000KT 10SM OVC075 12/09 A3021 RMK AO2 RAB2354E06 SLP237 P0000 T01170089=
201610192353 METAR KSEA 192353Z 22004KT 10SM BKN070 OVC085 12/09 A3023 RMK AO2 RAB26E35 SLP244 P0000 60000 T01170089 10144 20117 58012=
201610192253 METAR KSEA 192253Z 27006KT 10SM BKN080 OVC150 12/08 A3025 RMK AO2 SLP250 T01220078=
201610192153 METAR KSEA 192153Z 28003KT 10SM BKN120 OVC200 13/08 A3026 RMK AO2 SLP252 T01330083=
201610192053 METAR KSEA 192053Z 29003KT 10SM FEW060 BKN140 OVC200 13/08 A3027 RMK AO2 SLP256 T01280078 56011=
201610192000 METAR KSEA NIL=
201610191953 METAR KSEA 191953Z 28004KT 10SM FEW060 BKN120 OVC200 12/08 A3027 RMK AO2 SLP258 T01220078=
201610191853 METAR KSEA 191853Z 25004KT 10SM SCT140 BKN210 13/08 A3029 RMK AO2 SLP264 T01330078=
201610191753 METAR KSEA 191753Z 13003KT 10SM FEW140 BKN210 13/07 A3030 RMK AO2 SLP267 T01280067 10128 20078 58006=
201610191653 METAR KSEA 191653Z 13007KT 10SM SCT180 BKN250 11/06 A3032 RMK AO2 SLP274 T01060061=
201610191553 METAR KSEA 191553Z 18005KT 10SM FEW035 FEW060 BKN250 09/07 A3032 RMK AO2 SLP276 T00940067=
201610191453 METAR KSEA 191453Z 13005KT 10SM FEW030 FEW060 BKN250 09/06 A3032 RMK AO2 SLP274 T00890061 56004=
201610191353 METAR KSEA 191353Z 16005KT 10SM FEW060 FEW250 08/06 A3032 RMK AO2 SLP273 T00780056=
201610191253 METAR KSEA 191253Z 12008KT 10SM FEW022 FEW060 09/06 A3031 RMK AO2 SLP272 T00890061=
201610191153 METAR KSEA 191153Z 16005KT 10SM FEW022 BKN060 08/06 A3033 RMK AO2 SLP277 T00780061 10106 20072 52009=
201610191053 METAR KSEA 191053Z 15007KT 10SM FEW022 08/06 A3032 RMK AO2 SLP273 T00830061=
201610190953 METAR KSEA 190953Z 19004KT 10SM SCT022 08/07 A3032 RMK AO2 SLP273 T00830067=
201610190906 SPECI KSEA 190906Z 18006KT 10SM SCT022 09/07 A3031 RMK AO2 T00890067=
201610190853 METAR KSEA 190853Z 16007KT 10SM BKN023 09/07 A3030 RMK AO2 SLP268 T00940072 53012=
201610190753 METAR KSEA 190753Z 18006KT 10SM BKN020 10/07 A3029 RMK AO2 SLP262 T01000072 401440094=
201610190710 SPECI KSEA 190710Z 17007KT 10SM BKN017 10/08 A3028 RMK AO2 T01000078=
201610190653 METAR KSEA 190653Z 16007KT 10SM FEW017 10/08 A3028 RMK AO2 SLP259 T01000078=
201610190625 SPECI KSEA 190625Z 19008KT 10SM FEW018 10/08 A3027 RMK AO2 T01000083=
201610190553 METAR KSEA 190553Z 17009KT 10SM BKN018 11/08 A3027 RMK AO2 SLP256 T01060083 10144 20106 51014=
201610190550 SPECI KSEA 190550Z 17008KT 10SM BKN018 11/08 A3027 RMK AO2=
201610190453 METAR KSEA 190453Z 18010KT 10SM SCT018 11/08 A3025 RMK AO2 SLP251 T01060083=
201610190353 METAR KSEA 190353Z 19010KT 10SM SCT080 11/08 A3023 RMK AO2 SLP244 T01110078=
201610190253 METAR KSEA 190253Z 19010KT 10SM FEW030 SCT080 SCT250 12/08 A3021 RMK AO2 SLP237 T01170083 53020=
201610190153 METAR KSEA 190153Z 18009KT 10SM FEW030 SCT075 BKN250 12/08 A3018 RMK AO2 SLP228 TCU DSNT NE T01170083=
201610190053 METAR KSEA 190053Z 18013KT 10SM FEW030TCU BKN080 BKN250 13/08 A3016 RMK AO2 SLP219 TCU N T01280083=
201610182353 METAR KSEA 182353Z 19014KT 10SM FEW030TCU BKN070 BKN250 14/09 A3015 RMK AO2 SLP215 TCU N 60000 T01390089 10144 20117 51017=
201610182253 METAR KSEA 182253Z 21012G17KT 10SM FEW025 SCT065 BKN250 14/09 A3013 RMK AO2 SLP209 T01390089=
201610182153 METAR KSEA 182153Z 20009KT 10SM FEW020 BKN060 BKN250 13/09 A3011 RMK AO2 SLP203 T01330089=
201610182053 METAR KSEA 182053Z 20011KT 10SM FEW028 BKN060 BKN250 14/08 A3010 RMK AO2 SLP197 SHRA SW 60000 T01390083 51016=
201610181953 METAR KSEA 181953Z 21013KT 10SM FEW008 FEW026 BKN060 BKN250 14/09 A3008 RMK AO2 SLP193 T01390089=
201610181928 SPECI KSEA 181928Z 22014KT 10SM FEW008 SCT026 BKN055 BKN250 14/09 A3008 RMK AO2 T01390094=
201610181853 METAR KSEA 181853Z 20010KT 10SM FEW008 BKN023 BKN048 BKN250 12/09 A3007 RMK AO2 RAE34 SLP188 P0000 T01220094=
201610181843 SPECI KSEA 181843Z 20009KT 10SM FEW008 BKN023 BKN045 BKN250 12/09 A3006 RMK AO2 RAE34 P0000 T01220089=
201610181753 METAR KSEA 181753Z 20009KT 7SM -RA FEW008 BKN036 BKN250 12/09 A3005 RMK AO2 RAB51 SLP181 P0000 60000 T01170089 10122 20094 53024=
201610181653 METAR KSEA 181653Z 19011KT 10SM FEW008 SCT026 BKN250 11/08 A3002 RMK AO2 SLP172 T01110083=
201610181639 SPECI KSEA 181639Z 18010KT 10SM FEW008 SCT026 BKN250 11/09 A3002 RMK AO2 T01060089=
201610181553 METAR KSEA 181553Z 18011KT 10SM FEW008 BKN021 BKN080 BKN250 10/08 A3000 RMK AO2 SLP166 T01000083=
201610181453 METAR KSEA 181453Z 19006KT 10SM FEW008 BKN024 BKN095 BKN250 09/08 A2998 RMK AO2 SLP157 60000 T00940078 53018=
201610181436 SPECI KSEA 181436Z 17007KT 10SM FEW007 BKN026 OVC095 09/08 A2997 RMK AO2 T00940078=
201610181353 METAR KSEA 181353Z 16006KT 10SM FEW015 BKN050 OVC090 09/08 A2996 RMK AO2 RAE53 SLP150 P0000 T00940083 $=
201610181253 METAR KSEA 181253Z 17009KT 10SM -RA SCT016 BKN035 BKN050 09/08 A2994 RMK AO2 SLP145 P0000 T00940078 $=
201610181153 METAR KSEA 181153Z 16008KT 9SM -RA SCT030 OVC055 09/08 A2992 RMK AO2 SLP139 P0003 60012 70019 T00940078 10111 20094 53009 $=
201610181135 SPECI KSEA 181135Z 17008KT 8SM -RA FEW026 SCT036 OVC055 09/08 A2992 RMK AO2 P0002 T00940078 $=
201610181053 METAR KSEA 181053Z 17008KT 9SM -RA FEW016 BKN023 OVC055 10/08 A2991 RMK AO2 SLP136 P0001 T01000083 $=
201610181039 SPECI KSEA 181039Z 18007KT 8SM -RA SCT023 BKN029 OVC040 10/08 A2991 RMK AO2 P0001 T01000083 $=
201610181018 SPECI KSEA 181018Z 18009KT 9SM -RA SCT027 BKN037 OVC050 10/09 A2991 RMK AO2 P0000 T01000089 $=
201610180953 METAR KSEA 180953Z 17008KT 9SM -RA FEW021 BKN025 OVC042 10/09 A2990 RMK AO2 SLP132 P0001 T01000089 $=
201610180906 SPECI KSEA 180906Z 14005KT 8SM -RA SCT012 BKN025 OVC055 10/09 A2990 RMK AO2 P0000 T01000089 $=
201610180853 METAR KSEA 180853Z 16005KT 9SM -RA SCT012 BKN037 OVC043 10/09 A2990 RMK AO2 SLP129 P0005 60007 T01000089 51007 $=
201610180753 METAR KSEA 180753Z 17004KT 7SM -RA BKN018 BKN025 OVC050 10/09 A2988 RMK AO2 RAE0654B42 SLP125 P0000 T01000089 401500100 $=
201610180742 SPECI KSEA 180742Z 18004KT 9SM -RA BKN017 BKN026 OVC050 10/09 A2988 RMK AO2 RAE0654B42 P0000 T01000089=
201610180653 METAR KSEA 180653Z 00000KT 10SM -RA FEW028 SCT036 BKN060 11/09 A2987 RMK AO2 SLP122 P0002 T01060089=
201610180617 SPECI KSEA 180617Z 19010KT 10SM -RA BKN028 BKN047 OVC065 11/08 A2986 RMK AO2 P0000 T01060078=
201610180553 METAR KSEA 180553Z 17008KT 10SM -RA FEW046 BKN070 OVC100 11/08 A2986 RMK AO2 RAB50 SLP117 P0000 60000 T01110078 10144 20111 53013=
201610180453 METAR KSEA 180453Z 15007KT 10SM FEW046 SCT110 BKN170 11/08 A2984 RMK AO2 SLP111 T01110078=
201610180353 METAR KSEA 180353Z 13008KT 10SM SCT027 SCT085 BKN110 11/08 A2983 RMK AO2 SLP107 T01110083=
201610180253 METAR KSEA 180253Z 18008KT 10SM FEW034 SCT100 BKN200 12/08 A2982 RMK AO2 SLP104 T01220083 51009=
201610180153 METAR KSEA 180153Z 21008KT 10SM FEW030 SCT080 BKN200 13/08 A2981 RMK AO2 SLP101 T01280083=
201610180053 METAR KSEA 180053Z 20006KT 10SM SCT028 BKN070 BKN200 13/09 A2981 RMK AO2 SLP099 T01330094=
201610172353 METAR KSEA 172353Z 20011KT 10SM SCT025 SCT080 BKN200 14/09 A2979 RMK AO2 SLP095 60003 T01440094 10150 20111 51021=
201610172253 METAR KSEA 172253Z 20011KT 10SM FEW020 FEW040 SCT075 BKN200 14/10 A2978 RMK AO2 SLP091 T01440100=
201610172153 METAR KSEA 172153Z 20015G18KT 10SM FEW015 SCT030 BKN090 BKN200 13/10 A2976 RMK AO2 SLP083 T01330100=
201610172053 METAR KSEA 172053Z 20013KT 10SM FEW015 SCT025 SCT100 BKN200 13/11 A2973 RMK AO2 RAB1959E10 SLP073 SHRA SE-S P0001 60003 T01330106 53027=
201610172030 SPECI KSEA 172030Z 19015KT 10SM SCT014 BKN032 BKN200 14/12 A2972 RMK AO2 RAB1959E10 SHRA SE-S P0001 T01390117=
201610171953 METAR KSEA 171953Z 19013KT 10SM BKN013 BKN025 BKN200 13/11 A2970 RMK AO2 RAB15E44 SLP064 P0000 T01280106=
201610171904 SPECI KSEA 171904Z 20012KT 10SM BKN013 OVC025 13/11 A2968 RMK AO2 T01280106=
201610171853 METAR KSEA 171853Z 20010KT 10SM BKN015 BKN027 OVC060 12/10 A2967 RMK AO2 RAE20 SLP054 P0002 T01220100=
201610171753 METAR KSEA 171753Z 18010KT 6SM -RA BR BKN024 BKN033 OVC070 11/09 A2965 RMK AO2 RAB1659E23B45 SLP046 P0001 60004 T01110089 10117 20100 53033=
201610171701 SPECI KSEA 171701Z 17011KT 10SM -RA BKN028 BKN060 OVC180 11/08 A2962 RMK AO2 RAB1659 P0000 T01110083=
201610171653 METAR KSEA 171653Z 17011KT 10SM BKN031 BKN060 BKN180 11/08 A2961 RMK AO2 RAB31E40 SLP033 P0000 T01110083=
201610171553 METAR KSEA 171553Z 19009KT 10SM FEW018 BKN030 BKN180 11/08 A2958 RMK AO2 SLP023 SHRA SE-S-SW T01060083=
201610171509 SPECI KSEA 171509Z 18009KT 10SM FEW020 OVC030 11/08 A2956 RMK AO2 T01060083=
201610171453 METAR KSEA 171453Z 18008KT 10SM FEW020 OVC029 11/08 A2955 RMK AO2 SLP013 60003 T01060083 53025=
201610171437 SPECI KSEA 171437Z 18008KT 10SM FEW020 OVC028 10/08 A2954 RMK AO2 T01000083=
201610171353 METAR KSEA 171353Z 18009KT 10SM FEW023 BKN034 OVC045 10/08 A2952 RMK AO2 SLP004 T01000083=
201610171253 METAR KSEA 171253Z 15005KT 10SM FEW010 SCT028 OVC041 10/09 A2950 RMK AO2 RAE48 SLP995 P0003 T01000089=
201610171153 METAR KSEA 171153Z 17006KT 7SM -RA FEW010 BKN028 OVC070 10/09 A2948 RMK AO2 RAB22E31B49 SLP987 P0001 60012 70056 T01000089 10111 20100 51021=
201610171053 METAR KSEA 171053Z 18010KT 10SM FEW010 BKN045 OVC060 10/08 A2946 RMK AO2 RAE43 SLP981 P0002 T01000083=
201610170953 METAR KSEA 170953Z 19008KT 10SM -RA SCT028 BKN036 OVC110 10/08 A2944 RMK AO2 RAE09B28 SLP973 P0001 T01000083=
201610170853 METAR KSEA 170853Z 19009KT 7SM -RA SCT028 BKN033 OVC041 10/08 A2941 RMK AO2 RAB14 SLP966 P0002 60008 T01000083 53017=
201610170753 METAR KSEA 170753Z 18009KT 10SM BKN030 BKN037 OVC080 11/08 A2939 RMK AO2 RAE40 SLP958 P0001 T01060078 401560100=
201610170653 METAR KSEA 170653Z 17007KT 10SM -RA SCT035 OVC044 11/09 A2937 RMK AO2 SLP952 P0005 T01060089=
201610170553 METAR KSEA 170553Z 14008KT 7SM -RA BKN038 OVC048 11/09 A2936 RMK AO2 SLP949 P0004 60026 T01110089 10139 20106 53003=
201610170453 METAR KSEA 170453Z 16006KT 7SM -RA OVC050 11/09 A2936 RMK AO2 SLP947 P0006 T01060089=
201610170353 METAR KSEA 170353Z 18005KT 10SM -RA OVC055 11/09 A2935 RMK AO2 SLP945 P0004 T01110094=
201610170253 METAR KSEA 170253Z 21005KT 10SM -RA OVC050 11/09 A2935 RMK AO2 SLP946 P0004 60012 T01110094 55000=
201610170153 METAR KSEA 170153Z 26005KT 10SM -RA OVC055 12/09 A2935 RMK AO2 SLP944 P0006 T01170094=
201610170053 METAR KSEA 170053Z 27004KT 6SM -RA OVC055 13/10 A2935 RMK AO2 RAB15 SLP945 P0002 T01280100=
201610162353 METAR KSEA 162353Z 32003KT 10SM SCT070 BKN110 OVC180 14/09 A2936 RMK AO2 SLP946 60003 T01390094 10156 20111 56020=
201610162253 METAR KSEA 162253Z 23005KT 10SM FEW025 BKN060 BKN110 14/09 A2938 RMK AO2 SLP953 T01440089=
201610162153 METAR KSEA 162153Z 19008KT 10SM FEW025 SCT055 BKN110 BKN200 16/09 A2939 RMK AO2 SLP956 T01560094=
201610162053 METAR KSEA 162053Z 00000KT 10SM FEW025 BKN050 BKN100 BKN200 13/10 A2942 RMK AO2 RAB04E17 SLP967 P0001 60003 T01330100 58010=
201610161953 METAR KSEA 161953Z 23006KT 10SM FEW020 BKN045 OVC060 12/09 A2944 RMK AO2 RAE12 SLP974 P0000 T01220094=
201610161853 METAR KSEA 161853Z 20008KT 9SM -RA FEW020 BKN044 OVC060 12/09 A2945 RMK AO2 SLP977 P0002 T01170089=
201610161753 METAR KSEA 161753Z 18009KT 10SM -RA FEW020 BKN046 BKN065 OVC200 12/09 A2945 RMK AO2 RAB30 SLP977 P0001 60015 T01170094 10122 20100 53005=
201610161653 METAR KSEA 161653Z 16008KT 10SM FEW013 BKN045 OVC070 11/09 A2944 RMK AO2 RAE42 SLP976 P0000 T01110089=
201610161553 METAR KSEA 161553Z 14011KT 10SM -RA FEW030 BKN055 OVC070 11/09 A2944 RMK AO2 SLP973 P0001 T01060089=
201610161453 METAR KSEA 161453Z 18010KT 6SM -RA BR FEW020 BKN041 OVC060 11/08 A2943 RMK AO2 SLP972 P0012 60013 T01060083 53009=
201610161353 METAR KSEA 161353Z 22010KT 6SM -RA BR BKN033 OVC046 11/08 A2942 RMK AO2 RAB27 SLP969 P0000 T01110083=
201610161253 METAR KSEA 161253Z 16009KT 10SM SCT045 BKN060 OVC100 11/08 A2940 RMK AO2 RAB1159E48 SLP963 P0001 T01110078=
201610161153 METAR KSEA 161153Z 12007KT 10SM SCT050 OVC060 11/08 A2940 RMK AO2 RAB1057E47 SLP963 P0003 60014 70073 T01060078 10122 20106 58006=
201610161053 METAR KSEA 161053Z 16009KT 10SM FEW040 OVC055 11/08 A2943 RMK AO2 RAB0959E49 SLP971 P0003 T01110078=
201610160953 METAR KSEA 160953Z 17010KT 10SM BKN070 12/07 A2943 RMK AO2 SLP971 T01170072=
201610160853 METAR KSEA 160853Z 19011KT 10SM FEW031 SCT043 BKN085 12/08 A2942 RMK AO2 SLP969 60008 T01170078 51024=
201610160753 METAR KSEA 160753Z 18009KT 10SM BKN030 BKN036 12/08 A2941 RMK AO2 SLP965 T01170078 401670100=
201610160653 METAR KSEA 160653Z 18011KT 10SM FEW028 SCT037 BKN050 12/09 A2938 RMK AO2 RAE50 SLP953 P0008 T01170089=
201610160553 METAR KSEA 160553Z 19013G21KT 10SM -RA SCT027 BKN035 BKN050 12/08 A2935 RMK AO2 PK WND 18028/0540 RAB44 SLP945 P0000 60015 T01170083 10167 20117 51037=
201610160453 METAR KSEA 160453Z 17015KT 10SM SCT040 BKN048 OVC065 12/08 A2931 RMK AO2 PK WND 18027/0435 SLP932 T01220083=
201610160353 METAR KSEA 160353Z 17013KT 10SM FEW020 BKN040 OVC050 12/09 A2929 RMK AO2 SLP924 T01170089=
201610160253 METAR KSEA 160253Z 20015G28KT 10SM SCT016 BKN090 BKN110 12/09 A2924 RMK AO2 PK WND 20028/0232 RAE11B29E49 TSE0159 PRESRR SLP907 P0002 60015 T01170094 51036=
201610160205 SPECI KSEA 160205Z 20015G26KT 9SM -RA FEW016 SCT038CB OVC050 12/10 A2920 RMK AO2 PK WND 21026/0157 TSE0159 CB W MOV N P0002 T01170100=
201610160153 METAR KSEA 160153Z 22019G34KT 2 1/2SM TSRA FEW018 BKN035CB OVC050 12/10 A2920 RMK AO2 PK WND 22034/0147 RAB19 TSB50 SLP892 OCNL LTGCCCG W MOV N TS W MOV NE P0013 T01220100=
201610160149 SPECI KSEA 160149Z 21023G34KT 2SM +RA BR FEW018 BKN030 OVC050 12/11 A2919 RMK AO2 PK WND 22034/0147 VIS 1 1/4V4 RAB19 OCNL LTGCCCG W MOV N P0011=
201610160053 METAR KSEA 160053Z 17021G30KT 10SM BKN047 OVC060 16/09 A2913 RMK AO2 PK WND 17033/0006 RAB04E13 SLP871 P0000 T01560089=
201610152353 METAR KSEA 152353Z 16022G34KT 10SM OVC060 17/08 A2912 RMK AO2 PK WND 15034/2351 RAB2257E07B36E53 SLP868 P0000 60013 T01670083 10167 20111 56027=
201610152253 METAR KSEA 152253Z 14015G24KT 10SM BKN065 OVC080 16/08 A2913 RMK AO2 SLP869 T01560083=
201610152153 METAR KSEA 152153Z 11014KT 10SM FEW060 OVC095 13/09 A2914 RMK AO2 RAE26 PRESFR SLP873 P0000 T01330089=
201610152053 METAR KSEA 152053Z 10009KT 10SM -RA OVC060 13/09 A2921 RMK AO2 RAE25B46 SLP895 P0004 60013 T01280089 56051=
201610151953 METAR KSEA 151953Z 10009KT 8SM -RA OVC060 12/08 A2924 RMK AO2 RAE03B25 SLP908 P0002 T01170083=
201610151853 METAR KSEA 151853Z 07013KT 10SM -RA FEW040 OVC060 11/08 A2928 RMK AO2 SLP922 P0007 T01110083=
201610151753 METAR KSEA 151753Z 11011KT 10SM -RA OVC065 11/08 A2936 RMK AO2 SLP947 P0007 60031 T01110083 10111 20100 58047=
201610151653 METAR KSEA 151653Z 11013KT 7SM -RA FEW043 BKN050 OVC065 10/08 A2943 RMK AO2 SLP973 P0007 T01000078=
201610151553 METAR KSEA 151553Z 11011KT 9SM -RA BKN055 OVC070 10/08 A2947 RMK AO2 SLP987 P0005 T01000078=
201610151453 METAR KSEA 151453Z 10007KT 10SM -RA FEW039 OVC055 10/08 A2950 RMK AO2 SLP995 P0007 60012 T01000083 56026=
201610151353 METAR KSEA 151353Z 11011KT 7SM -RA BKN033 OVC060 10/08 A2953 RMK AO2 RAB1257E06B23 SLP005 P0002 T01000083=
201610151253 METAR KSEA 151253Z 10010KT 10SM BKN031 BKN042 OVC060 11/08 A2954 RMK AO2 RAE29 SLP010 P0003 T01060083=
201610151153 METAR KSEA 151153Z 13011KT 9SM -RA SCT027 BKN032 OVC045 11/08 A2958 RMK AO2 RAB10 SLP021 P0001 60037 70133 T01060083 10111 20100 58010=
201610151053 METAR KSEA 151053Z 15007KT 10SM FEW033 BKN060 OVC075 11/09 A2960 RMK AO2 RAB22E51 SLP030 P0001 T01060089=
201610150953 METAR KSEA 150953Z 15008KT 10SM BKN065 10/08 A2961 RMK AO2 SLP033 T01000083=
201610150853 METAR KSEA 150853Z 14009KT 10SM FEW005 SCT020 BKN065 10/08 A2961 RMK AO2 RAE26 SLP032 P0007 60035 T01000083 56001=
201610150830 SPECI KSEA 150830Z 14007KT 10SM SCT020 BKN026 OVC044 10/09 A2961 RMK AO2 RAE26 P0007 T01000089=
201610150800 SPECI KSEA 150800Z 15007KT 6SM RA BR FEW023 BKN044 OVC050 10/08 A2961 RMK AO2 P0003 T01000083=
201610150753 METAR KSEA 150753Z 17006KT 2SM -RA BR SCT023 BKN037 OVC055 10/09 A2961 RMK AO2 SLP033 P0022 T01000089 401390100=
201610150740 SPECI KSEA 150740Z 00000KT 2SM +RA BR SCT023 BKN037 OVC055 10/08 A2962 RMK AO2 P0013 T01000083=
201610150653 METAR KSEA 150653Z 16004KT 6SM -RA BR FEW028 BKN035 OVC047 11/09 A2960 RMK AO2 SLP030 P0006 T01060089=
201610150553 METAR KSEA 150553Z 16010KT 10SM -RA BKN045 OVC060 11/08 A2961 RMK AO2 RAB0457E22B39 SLP033 P0002 60009 T01110083 10133 20111 51011=
201610150453 METAR KSEA 150453Z 16008KT 10SM FEW026 BKN039 OVC055 11/09 A2960 RMK AO2 SLP029 T01110089=
201610150353 METAR KSEA 150353Z 17009KT 10SM FEW042 BKN049 OVC075 11/09 A2959 RMK AO2 RAB43E53 SLP027 P0000 T01110089=
201610150253 METAR KSEA 150253Z 17012KT 10SM SCT037 BKN070 OVC120 12/09 A2958 RMK AO2 RAB0157E06 SLP022 P0000 60007 T01170089 51015=
201610150153 METAR KSEA 150153Z 17012KT 10SM SCT024 BKN030 OVC036 12/09 A2958 RMK AO2 RAE45 SLP021 P0005 T01220094=
201610150053 METAR KSEA 150053Z 18012G18KT 6SM RA SCT029 BKN041 OVC049 13/10 A2955 RMK AO2 PK WND 18027/0000 RAB12E21B47 SLP012 P0002 T01280100=
201610142353 METAR KSEA 142353Z 20015G25KT 10SM SCT045 BKN055 BKN200 13/09 A2953 RMK AO2 PK WND 20037/2321 SLP007 VCSH 60053 T01330094 10139 20111 53033=
201610142253 METAR KSEA 142253Z 20020G31KT 10SM FEW022 BKN050 BKN200 13/10 A2949 RMK AO2 PK WND 18039/2243 RAE33 SLP990 VCSH P0001 T01330100=
201610142153 METAR KSEA 142153Z 19021G35KT 10SM -RA FEW019 BKN040 OVC050 13/10 A2947 RMK AO2 PK WND 20035/2149 SLP984 P0003 T01280100=
201610142053 METAR KSEA 142053Z 18022G34KT 8SM -RA FEW018 BKN050 OVC070 12/09 A2944 RMK AO2 PK WND 18035/2043 RAB45 SLP973 P0000 60049 T01220094 51024=
201610142003 SPECI KSEA 142003Z 17019G30KT 10SM SCT018 BKN040 OVC075 12/09 A2941 RMK AO2 PK WND 18030/1958 T01220094=
201610141953 METAR KSEA 141953Z 18022G35KT 10SM BKN015 OVC040 12/09 A2942 RMK AO2 PK WND 18039/1939 RAE47 SLP967 P0022 T01220094=
201610141910 SPECI KSEA 141910Z 22009KT 3SM R16L/5000VP6000FT +RA BR FEW015 BKN027 OVC038 11/09 A2941 RMK AO2 P0011 T01110094=
201610141853 METAR KSEA 141853Z 17016G24KT 3SM RA BR FEW027 BKN038 OVC060 11/09 A2939 RMK AO2 SLP958 P0027 T01110089=
201610141753 METAR KSEA 141753Z 17018KT 6SM -RA FEW025 BKN044 OVC060 12/07 A2936 RMK AO2 PK WND 18037/1729 RAB03 SLP949 P0004 60034 T01220072 10139 20106 53001=
201610141653 METAR KSEA 141653Z 18024G37KT 10SM FEW025 BKN060 OVC200 14/08 A2936 RMK AO2 PK WND 17039/1640 RAB1557E20 SLP948 VCSH P0000 T01390078=
201610141553 METAR KSEA 141553Z 15016KT 10SM FEW025 BKN050 BKN200 12/09 A2934 RMK AO2 RAE47 SLP941 SHRA W-N P0003 T01220089=
201610141453 METAR KSEA 141453Z 18010KT 7SM -RA FEW015 BKN034 OVC050 11/08 A2936 RMK AO2 PK WND 20027/1441 WSHFT 1404 SLP948 P0015 60027 T01110078 53012=
201610141421 SPECI KSEA 141421Z 19015G21KT 7SM -RA FEW008 BKN034 OVC047 12/09 A2935 RMK AO2 WSHFT 1404 P0012 T01170089=
201610141406 SPECI KSEA 141406Z 22013G20KT 5SM RA BR FEW008 BKN037 OVC048 11/09 A2937 RMK AO2 P0003 T01110094=
201610141353 METAR KSEA 141353Z 25008KT 7SM -RA FEW020 BKN038 OVC050 12/09 A2934 RMK AO2 SLP942 P0012 T01170089=
201610141253 METAR KSEA 141253Z 18016G23KT 10SM -RA FEW020 BKN070 OVC090 12/08 A2934 RMK AO2 PK WND 18027/1157 RAB42 SLP940 P0000 T01220078=
201610141153 METAR KSEA 141153Z 18016G24KT 10SM FEW042 BKN075 12/08 A2933 RMK AO2 SLP937 60024 70161 T01220078 10144 20111 58004=
201610141053 METAR KSEA 141053Z 17012KT 10SM SCT046 BKN060 OVC100 12/09 A2933 RMK AO2 RAB30E50 SLP939 P0001 T01170089=
201610140953 METAR KSEA 140953Z 17012KT 10SM BKN060 12/09 A2935 RMK AO2 SLP944 T01220094=
201610140853 METAR KSEA 140853Z 18011KT 10SM FEW024 SCT029 BKN045 12/10 A2934 RMK AO2 PK WND 19027/0813 RAE30 SLP940 P0010 60023 T01220100 53040=
201610140753 METAR KSEA 140753Z 18016G22KT 6SM RA BR SCT027 BKN035 OVC044 13/11 A2928 RMK AO2 SLP921 P0007 T01280111 401500106=
201610140653 METAR KSEA 140653Z 17017G28KT 10SM -RA FEW047 BKN055 OVC070 13/11 A2924 RMK AO2 PK WND 18028/0646 SLP907 P0006 T01330106=
201610140553 METAR KSEA 140553Z 18014G20KT 9SM -RA FEW019 SCT060 OVC075 14/12 A2922 RMK AO2 SLP899 P0006 60057 T01440122 10150 20117 53002=
201610140504 SPECI KSEA 140504Z 18015G21KT 10SM -RA SCT018 BKN041 OVC060 13/12 A2918 RMK AO2 P0001 T01330117=
201610140453 METAR KSEA 140453Z 18010KT 3SM RA BR SCT018 BKN027 OVC046 13/12 A2916 RMK AO2 SLP880 P0012 T01330117=
201610140353 METAR KSEA 140353Z 11012KT 7SM RA OVC042 12/10 A2916 RMK AO2 SLP879 P0011 T01220100=
201610140253 METAR KSEA 140253Z 10011KT 5SM -RA BR FEW032 OVC043 12/10 A2921 RMK AO2 PRESFR SLP897 P0010 60028 T01220100 58081=
201610140153 METAR KSEA 140153Z 10011KT 8SM -RA SCT050 OVC070 12/10 A2932 RMK AO2 PRESFR SLP934 P0009 T01220100=
201610140053 METAR KSEA 140053Z 09012KT 4SM -RA BR FEW034 OVC075 12/10 A2939 RMK AO2 PRESFR SLP959 P0009 T01220100=
201610132353 METAR KSEA 132353Z 10007KT 5SM -RA BR FEW036 BKN080 OVC090 12/11 A2946 RMK AO2 SLP980 P0008 60035 T01220106 10133 20122 58048=
201610132253 METAR KSEA 132253Z 11008KT 7SM -RA FEW045 OVC080 12/11 A2951 RMK AO2 SLP000 P0005 T01220111=
201610132153 METAR KSEA 132153Z 11009KT 5SM -RA BR SCT045 BKN070 OVC085 13/12 A2955 RMK AO2 SLP013 P0006 T01280117=
201610132053 METAR KSEA 132053Z 12007KT 5SM RA BR FEW008 SCT025 OVC037 13/11 A2960 RMK AO2 SLP029 P0008 60016 T01280111 58023=
201610131953 METAR KSEA 131953Z 13007KT 7SM -RA FEW008 OVC025 13/11 A2964 RMK AO2 SLP042 P0003 T01280111=
201610131853 METAR KSEA 131853Z 13008KT 9SM -RA FEW008 BKN025 OVC037 12/11 A2964 RMK AO2 SLP044 P0005 T01220111=
201610131800 SPECI KSEA 131800Z 14006KT 6SM -RA BR FEW008 BKN020 OVC028 12/11 A2967 RMK AO2 P0001 T01220111=
201610131753 METAR KSEA 131753Z 16005KT 6SM -RA BR FEW011 BKN021 OVC029 12/11 A2967 RMK AO2 SLP053 P0005 60045 T01220111 10122 20106 56004=
201610131729 SPECI KSEA 131729Z 12004KT 5SM -RA BR SCT011 OVC021 12/11 A2967 RMK AO2 P0002 T01170106=
201610131653 METAR KSEA 131653Z 13006KT 5SM -RA BR FEW007 BKN011 OVC024 12/11 A2967 RMK AO2 SLP054 P0010 T01170106=
201610131645 SPECI KSEA 131645Z 12004KT 5SM -RA BR FEW007 BKN011 OVC024 12/11 A2968 RMK AO2 P0010 T01170106=
201610131606 SPECI KSEA 131606Z 10003KT 5SM -RA BR FEW006 FEW012 OVC029 12/11 A2967 RMK AO2 P0003 T01170106=
201610131553 METAR KSEA 131553Z 10006KT 5SM -RA BR FEW006 FEW012 OVC031 12/10 A2967 RMK AO2 SLP053 P0006 T01170100=
201610131533 SPECI KSEA 131533Z 09007KT 7SM -RA FEW007 FEW012 OVC032 12/10 A2967 RMK AO2 P0004 T01170100=
201610131513 SPECI KSEA 131513Z 09005KT 7SM -RA FEW007 BKN012 OVC030 12/11 A2968 RMK AO2 P0002 T01170106=
201610131453 METAR KSEA 131453Z 05005KT 7SM -RA BKN007 OVC030 12/10 A2968 RMK AO2 SLP057 P0010 60024 T01170100 58005=
201610131431 SPECI KSEA 131431Z 00000KT 5SM -RA BR BKN005 OVC031 12/11 A2969 RMK AO2 P0006 T01220106=
201610131421 SPECI KSEA 131421Z 13003KT 7SM -RA FEW007 OVC031 12/11 A2969 RMK AO2 P0005 T01220106=
201610131353 METAR KSEA 131353Z 00000KT 6SM -RA BR FEW012 OVC031 12/11 A2970 RMK AO2 SLP063 P0009 T01220106=
201610131253 METAR KSEA 131253Z 17008KT 6SM -RA BR FEW015 BKN037 OVC060 12/10 A2970 RMK AO2 SLP062 P0005 T01170100=
201610131153 METAR KSEA 131153Z 14009KT 9SM -RA SCT039 OVC060 11/09 A2970 RMK AO2 SLP062 P0005 60024 70024 T01060094 10139 20106 56032=
201610131053 METAR KSEA 131053Z 12012KT 10SM -RA BKN037 BKN070 OVC090 11/09 A2973 RMK AO2 SLP072 P0008 T01060089=
201610130953 METAR KSEA 130953Z 13012KT 6SM -RA BR OVC047 11/08 A2976 RMK AO2 SLP082 P0006 T01060083=
201610130853 METAR KSEA 130853Z 13013KT 8SM -RA FEW047 OVC060 11/08 A2979 RMK AO2 SLP094 P0004 60005 T01110078 58015=
201610130753 METAR KSEA 130753Z 12004KT 10SM -RA OVC050 12/08 A2982 RMK AO2 RAB08 SLP103 P0001 T01170083 401890061=
201610130653 METAR KSEA 130653Z 00000KT 10SM OVC065 13/06 A2982 RMK AO2 RAE0557 SLP104 P0000 T01330056=
201610130553 METAR KSEA 130553Z 12006KT 10SM -RA BKN065 OVC080 13/06 A2984 RMK AO2 RAB0454E06B41 SLP110 P0000 60000 T01330061 10161 20122 58007=
201610130453 METAR KSEA 130453Z 16006KT 10SM FEW065 BKN090 OVC120 13/07 A2987 RMK AO2 SLP121 T01280067=
201610130353 METAR KSEA 130353Z 19003KT 10SM BKN080 OVC100 13/05 A2986 RMK AO2 SLP119 T01330050=
201610130253 METAR KSEA 130253Z 00000KT 10SM OVC100 14/04 A2986 RMK AO2 SLP118 T01440039 58022=
201610130153 METAR KSEA 130153Z 26003KT 10SM SCT075 OVC100 15/03 A2989 RMK AO2 SLP128 T01500033=
201610130053 METAR KSEA 130053Z 00000KT 10SM SCT120 OVC180 16/04 A2991 RMK AO2 SLP134 T01560044=
201610122353 METAR KSEA 122353Z 27004KT 10SM SCT140 BKN200 16/03 A2993 RMK AO2 SLP141 T01610033 10189 20128 56023=
201610122253 METAR KSEA 122253Z 28005KT 10SM SCT160 BKN250 17/04 A2995 RMK AO2 SLP148 ACSL DSNT SE T01670039=
201610122153 METAR KSEA 122153Z 28003KT 10SM FEW160 BKN250 18/03 A2997 RMK AO2 SLP156 ACSL DSNT SE T01830033=
201610122053 METAR KSEA 122053Z 00000KT 10SM FEW160 BKN250 18/04 A3000 RMK AO2 SLP163 ACSL DSNT SE T01780039 58018=
201610121953 METAR KSEA 121953Z 24010KT 10SM FEW160 SCT250 14/04 A3003 RMK AO2 SLP177 ACSL DSNT SE T01440039=
201610121853 METAR KSEA 121853Z 29004KT 10SM FEW180 SCT250 14/06 A3004 RMK AO2 SLP180 T01390056=
201610121753 METAR KSEA 121753Z 00000KT 10SM FEW180 SCT250 13/01 A3005 RMK AO2 SLP182 T01330006 10139 20061 58019=
201610121653 METAR KSEA 121653Z VRB03KT 10SM FEW180 SCT250 12/00 A3007 RMK AO2 SLP188 T01170000=
201610121553 METAR KSEA 121553Z 11007KT 10SM FEW180 SCT250 11/00 A3009 RMK AO2 SLP196 T01060000=
201610121453 METAR KSEA 121453Z 09006KT 10SM SCT250 09/01 A3011 RMK AO2 SLP201 T00940006 58002=
201610121353 METAR KSEA 121353Z 13003KT 10SM BKN250 06/01 A3011 RMK AO2 SLP205 T00610011=
201610121253 METAR KSEA 121253Z 00000KT 10SM FEW200 08/01 A3012 RMK AO2 SLP205 T00830006=
201610121153 METAR KSEA 121153Z 10003KT 10SM CLR 08/00 A3011 RMK AO2 SLP203 T00830000 10117 20067 56012=
201610121053 METAR KSEA 121053Z 03004KT 10SM CLR 07/01 A3012 RMK AO2 SLP207 T00720006=
201610120953 METAR KSEA 120953Z 00000KT 10SM CLR 08/00 A3013 RMK AO2 SLP211 T00830000=
201610120853 METAR KSEA 120853Z 12007KT 10SM FEW250 11/00 A3015 RMK AO2 SLP215 T01060000 58004=
201610120753 METAR KSEA 120753Z 10007KT 10SM CLR 11/00 A3016 RMK AO2 SLP219 T01060000 401670061=
201610120653 METAR KSEA 120653Z 12011KT 10SM CLR 12/01 A3016 RMK AO2 SLP220 T01170006=
201610120553 METAR KSEA 120553Z 12006KT 10SM CLR 11/01 A3016 RMK AO2 SLP220 T01110006 10161 20111 53002=
201610120453 METAR KSEA 120453Z 10008KT 10SM CLR 12/01 A3015 RMK AO2 SLP217 T01220011=
201610120353 METAR KSEA 120353Z 06004KT 10SM CLR 13/02 A3015 RMK AO2 SLP216 T01330022=
201610120253 METAR KSEA 120253Z 03006KT 10SM CLR 13/04 A3015 RMK AO2 SLP218 T01330039 55003=
201610120153 METAR KSEA 120153Z 34006KT 10SM CLR 13/03 A3015 RMK AO2 SLP218 T01280033=
201610120053 METAR KSEA 120053Z 36006KT 10SM CLR 16/03 A3016 RMK AO2 SLP218 T01560028=
201610112353 METAR KSEA 112353Z 31006KT 10SM CLR 16/04 A3016 RMK AO2 SLP221 T01610039 10167 20117 57009=
201610112253 METAR KSEA 112253Z 31007KT 10SM CLR 16/04 A3017 RMK AO2 SLP223 T01610039=
201610112153 METAR KSEA 112153Z 31007KT 10SM CLR 16/04 A3018 RMK AO2 SLP228 T01560039=
201610112053 METAR KSEA 112053Z 30007KT 10SM FEW030 15/04 A3019 RMK AO2 SLP230 T01500044 58010=
201610111953 METAR KSEA 111953Z 31004KT 10SM FEW030 16/03 A3021 RMK AO2 SLP235 T01560033=
201610111853 METAR KSEA 111853Z 33004KT 10SM FEW055 14/03 A3022 RMK AO2 SLP238 T01440033=
201610111753 METAR KSEA 111753Z 36007KT 10SM FEW055 12/05 A3022 RMK AO2 SLP242 T01220050 10122 20061 51015=
201610111653 METAR KSEA 111653Z 36007KT 10SM FEW055 10/06 A3022 RMK AO2 SLP241 T01000056=
201610111553 METAR KSEA 111553Z 36009KT 10SM SCT055 08/06 A3020 RMK AO2 SLP234 T00830056=
201610111453 METAR KSEA 111453Z 02008KT 10SM FEW002 SCT050 06/05 A3018 RMK AO2 SLP227 T00610050 51013=
201610111448 SPECI KSEA 111448Z 01007KT 10SM FEW002 SCT050 06/05 A3018 RMK AO2=
201610111353 METAR KSEA 111353Z 03009KT 10SM FEW050 07/05 A3017 RMK AO2 SLP223 T00670050 $=
201610111253 METAR KSEA 111253Z 01010KT 10SM FEW005 07/05 A3015 RMK AO2 SLP218 T00670050 $=
201610111153 METAR KSEA 111153Z 02009KT 10SM CLR 07/04 A3014 RMK AO2 SLP213 T00720039 10094 20067 51002 $=
201610111053 METAR KSEA 111053Z 02009KT 10SM CLR 07/02 A3014 RMK AO2 SLP212 T00720022 $=
201610110953 METAR KSEA 110953Z 04007KT 10SM CLR 08/03 A3014 RMK AO2 SLP212 T00780028 $=
201610110853 METAR KSEA 110853Z 02006KT 10SM CLR 08/03 A3013 RMK AO2 SLP210 T00830033 53009 $=
201610110753 METAR KSEA 110753Z 02008KT 10SM CLR 09/02 A3012 RMK AO2 SLP205 T00890022 401560072 $=
201610110653 METAR KSEA 110653Z 01007KT 10SM CLR 08/02 A3012 RMK AO2 SLP205 T00830022 $=
201610110553 METAR KSEA 110553Z 01007KT 10SM CLR 09/02 A3011 RMK AO2 SLP202 T00890022 10144 20083 52008 $=
201610110453 METAR KSEA 110453Z 35007KT 10SM CLR 08/03 A3010 RMK AO2 SLP199 T00830028 $=
201610110353 METAR KSEA 110353Z 35008KT 10SM CLR 09/03 A3009 RMK AO2 SLP196 T00890028 $=
201610110253 METAR KSEA 110253Z 34011KT 10SM CLR 10/04 A3008 RMK AO2 SLP193 T01000039 53006 $=
201610110153 METAR KSEA 110153Z 34009KT 10SM FEW035 11/03 A3007 RMK AO2 SLP190 T01110033 $=
201610110053 METAR KSEA 110053Z 34011KT 10SM FEW035 13/05 A3006 RMK AO2 SLP187 T01280050 $=
201610102353 METAR KSEA 102353Z 35012KT 10SM FEW035 14/03 A3006 RMK AO2 SLP186 T01440033 10156 20111 55003 $=
201610102253 METAR KSEA 102253Z 01008KT 10SM SCT033 15/04 A3006 RMK AO2 SLP185 T01500044=
201610102153 METAR KSEA 102153Z VRB03KT 10SM SCT033 14/06 A3006 RMK AO2 SLP186 T01440056=
201610102053 METAR KSEA 102053Z 35005KT 10SM SCT028 14/06 A3007 RMK AO2 SLP189 T01440056 58008=
201610102010 SPECI KSEA 102010Z 34008KT 10SM FEW021 SCT027 13/07 A3008 RMK AO2 T01280072=
201610101953 METAR KSEA 101953Z 35006KT 10SM SCT021 BKN028 13/06 A3008 RMK AO2 SLP192 T01280056=
201610101927 SPECI KSEA 101927Z 06005KT 10SM SCT018 BKN027 13/06 A3008 RMK AO2 T01330061=
201610101853 METAR KSEA 101853Z 00000KT 10SM SCT012 12/08 A3009 RMK AO2 SLP195 T01220078=
201610101838 SPECI KSEA 101838Z 01003KT 10SM BKN011 BKN035 13/08 A3009 RMK AO2 T01330078=
201610101753 METAR KSEA 101753Z 04004KT 10SM BKN007 BKN039 11/08 A3010 RMK AO2 SLP198 T01110078 10111 20072 51009=
201610101653 METAR KSEA 101653Z 00000KT 3SM BR BKN005 10/09 A3010 RMK AO2 SLP198 T01000089=
201610101621 SPECI KSEA 101621Z 00000KT 2SM BR BKN005 08/08 A3009 RMK AO2 T00830083=
201610101604 SPECI KSEA 101604Z 00000KT 1/8SM R16L/4000VP6000FT BR VV002 08/08 A3009 RMK AO2 SFC VIS 3/4 T00830078=
201610101553 METAR KSEA 101553Z 00000KT 1/4SM R16L/3500V5500FT FG VV001 08/08 A3009 RMK AO2 SLP195 T00830078=
201610101521 SPECI KSEA 101521Z 00000KT 1/4SM R16L/1400V5500FT FG VV001 08/08 A3007 RMK AO2 T00830078=
201610101453 METAR KSEA 101453Z 00000KT 1/4SM R16L/0600V1000FT FG VV001 08/08 A3007 RMK AO2 SLP189 T00830078 53006=
201610101410 SPECI KSEA 101410Z 00000KT 1/4SM R16L/0800V1800FT FG VV001 08/08 A3006 RMK AO2 T00780078=
201610101357 SPECI KSEA 101357Z 13004KT 1/4SM R16L/1600VP6000FT FG VV001 08/07 A3006 RMK AO2 T00780072=
201610101353 METAR KSEA 101353Z 13004KT 1SM R16L/3000VP6000FT BR SCT001 08/07 A3006 RMK AO2 SLP185 VIS W 8 T00780067=
201610101348 SPECI KSEA 101348Z 13005KT 1SM R16L/4000VP6000FT BR SCT001 08/07 A3005 RMK AO2 VIS W 8=
201610101253 METAR KSEA 101253Z 00000KT 7SM FEW009 SCT055 09/08 A3006 RMK AO2 SLP185 FG BANK W-NW T00890078=
201610101241 SPECI KSEA 101241Z 00000KT 6SM BR SCT009 BKN055 09/08 A3006 RMK AO2 T00890078=
201610101232 SPECI KSEA 101232Z 00000KT 3SM BR SCT003 BKN009 BKN055 09/08 A3006 RMK AO2 SFC VIS 5 T00890083=
201610101153 METAR KSEA 101153Z 22003KT 1/8SM R16L/3500VP6000FT FG BKN001 OVC045 09/08 A3005 RMK AO2 SFC VIS 1/2 SLP182 70006 T00890078 10094 20072 53015=
201610101139 SPECI KSEA 101139Z 27003KT 1/8SM R16L/P6000FT BR BKN001 OVC044 09/07 A3004 RMK AO2 SFC VIS 2 T00890072=
201610101127 SPECI KSEA 101127Z 00000KT 10SM FEW001 OVC044 08/07 A3004 RMK AO2 T00830072=
201610101053 METAR KSEA 101053Z 00000KT 10SM BKN043 08/07 A3003 RMK AO2 SLP178 T00830072=
201610101024 SPECI KSEA 101024Z 00000KT 5SM BR BKN041 08/06 A3002 RMK AO2 T00830061=
201610101015 SPECI KSEA 101015Z 00000KT 1 3/4SM BR BKN041 08/06 A3002 RMK AO2 T00830061=
201610100953 METAR KSEA 100953Z 07003KT 10SM FEW040 09/07 A3001 RMK AO2 SLP170 T00890067=
201610100853 METAR KSEA 100853Z 00000KT 10SM FEW040 08/07 A3000 RMK AO2 SLP167 T00830067 53014=
201610100753 METAR KSEA 100753Z 00000KT 10SM SCT040 09/08 A2998 RMK AO2 SLP160 T00940078 401330089=
201610100653 METAR KSEA 100653Z 00000KT 10SM FEW004 SCT017 OVC035 09/08 A2997 RMK AO2 SLP156 T00940083=
201610100633 SPECI KSEA 100633Z 29004KT 10SM FEW004 SCT017 OVC032 09/08 A2997 RMK AO2 T00940083=
201610100608 SPECI KSEA 100608Z 30003KT 10SM FEW003 BKN028 OVC070 09/08 A2996 RMK AO2 T00940083=
201610100553 METAR KSEA 100553Z 28004KT 10SM FEW008 SCT024 OVC049 09/08 A2996 RMK AO2 SLP152 60006 T00940083 10117 20094 53006=
201610100453 METAR KSEA 100453Z 32007KT 10SM FEW008 OVC036 09/08 A2995 RMK AO2 RAB0355E10 SLP149 P0000 T00940078=
201610100353 METAR KSEA 100353Z 32009KT 8SM FEW009 OVC042 10/08 A2995 RMK AO2 SLP148 T01000083=
201610100253 METAR KSEA 100253Z 31004KT 10SM OVC047 11/08 A2994 RMK AO2 RAE23 SLP146 P0001 60006 T01060083 56013=
201610100218 SPECI KSEA 100218Z 00000KT 10SM -RA FEW012 OVC049 11/08 A2994 RMK AO2 P0001 T01060083=
201610100153 METAR KSEA 100153Z 17007KT 10SM -RA BKN012 OVC065 11/08 A2995 RMK AO2 SLP148 P0005 T01060083=
201610100053 METAR KSEA 100053Z 21005KT 10SM -RA BKN017 OVC050 12/08 A2997 RMK AO2 RAB52 SLP154 P0000 T01170078=
201610100038 SPECI KSEA 100038Z 25005KT 10SM BKN018 OVC080 12/08 A2997 RMK AO2 T01170078=
201610092353 METAR KSEA 092353Z 30003KT 10SM SCT020 BKN120 12/07 A2998 RMK AO2 SLP158 T01170072 10133 20117 56008=
201610092253 METAR KSEA 092253Z 29005KT 10SM SCT017 BKN150 13/09 A2999 RMK AO2 SLP162 T01280089=
201610092235 SPECI KSEA 092235Z 32005KT 10SM SCT017 BKN150 12/08 A2999 RMK AO2 T01220083=
201610092153 METAR KSEA 092153Z 30006KT 10SM BKN018 OVC023 12/08 A2999 RMK AO2 SLP161 T01220083=
201610092138 SPECI KSEA 092138Z 28005KT 10SM BKN018 12/08 A2998 RMK AO2 T01220083=
201610092053 METAR KSEA 092053Z 35004KT 10SM SCT018 SCT040 BKN120 13/08 A3000 RMK AO2 SLP167 T01280078 58007=
201610091953 METAR KSEA 091953Z 36006KT 10SM SCT017 SCT040 BKN120 13/08 A3002 RMK AO2 SLP171 T01280078=
201610091853 METAR KSEA 091853Z 35007KT 10SM FEW013 SCT040 BKN130 13/08 A3002 RMK AO2 SLP172 T01280078=
201610091753 METAR KSEA 091753Z 36006KT 10SM FEW009 SCT040 BKN140 12/08 A3003 RMK AO2 SLP174 T01220083 10122 20100 50007=
201610091653 METAR KSEA 091653Z 03006KT 10SM FEW005 SCT044 BKN120 12/09 A3003 RMK AO2 SLP175 T01170089=
201610091553 METAR KSEA 091553Z 35005KT 10SM FEW005 BKN044 BKN110 11/09 A3002 RMK AO2 SLP172 T01060089=
201610091453 METAR KSEA 091453Z 35005KT 10SM FEW007 SCT044 BKN070 10/09 A3000 RMK AO2 SLP167 T01000089 51012=
201610091353 METAR KSEA 091353Z 34005KT 10SM FEW007 OVC041 11/09 A3000 RMK AO2 SLP164 T01060094=
201610091253 METAR KSEA 091253Z 31003KT 10SM SCT007 OVC038 11/10 A2999 RMK AO2 SLP162 T01060100=
201610091211 SPECI KSEA 091211Z 33005KT 10SM FEW005 BKN036 OVC100 11/09 A2998 RMK AO2 T01110094=
201610091153 METAR KSEA 091153Z 00000KT 10SM FEW013 BKN035 OVC100 11/09 A2997 RMK AO2 SLP155 60004 70051 T01110094 10156 20106 51017=
201610091138 SPECI KSEA 091138Z 35003KT 10SM FEW005 FEW013 OVC032 11/09 A2996 RMK AO2 T01110094=
201610091053 METAR KSEA 091053Z 36006KT 10SM FEW005 SCT013 OVC022 11/10 A2996 RMK AO2 SLP150 T01110100=
201610090953 METAR KSEA 090953Z 01009KT 7SM FEW005 OVC019 11/09 A2993 RMK AO2 SLP142 T01060094=
201610090932 SPECI KSEA 090932Z 36013KT 8SM SCT005 OVC015 11/09 A2994 RMK AO2 T01060094=
201610090900 SPECI KSEA 090900Z 01016KT 10SM SCT005 OVC011 11/09 A2992 RMK AO2 T01110094=
201610090853 METAR KSEA 090853Z 01016KT 10SM BKN005 OVC011 11/09 A2992 RMK AO2 WSHFT 0750 SLP137 60004 T01110094 53023=
201610090845 SPECI KSEA 090845Z 02015KT 10SM OVC005 11/10 A2992 RMK AO2 WSHFT 0750 T01110100=
201610090805 SPECI KSEA 090805Z 02013KT 10SM OVC003 12/11 A2990 RMK AO2 WSHFT 0750 T01170106=
201610090753 METAR KSEA 090753Z 02014KT 7SM OVC003 13/12 A2989 RMK AO2 RAB0654E15 SLP127 P0001 T01280122 401830111=
201610090717 SPECI KSEA 090717Z 20014KT 6SM BR BKN003 OVC010 15/14 A2986 RMK AO2 RAB0654E15 P0001 T01500144=
201610090653 METAR KSEA 090653Z 20013KT 1 1/2SM BR BKN004 OVC012 15/14 A2986 RMK AO2 RAB11E48 SLP116 P0003 T01500144=
201610090645 SPECI KSEA 090645Z 20013KT 1 1/2SM -RA BR BKN004 OVC012 15/14 A2986 RMK AO2 RAB11 P0003 T01500144=
201610090643 SPECI KSEA 090643Z 20012KT 2SM -RA BR BKN004 OVC012 15/14 A2986 RMK AO2 RAB11 P0003 T01500144=
201610090553 METAR KSEA 090553Z 19014G20KT 2SM BR BKN005 OVC013 16/14 A2985 RMK AO2 RAE53 SLP113 P0004 60031 T01560144 10161 20150 53005=
201610090453 METAR KSEA 090453Z 18008KT 3SM -RA BR BKN005 BKN010 OVC015 16/14 A2983 RMK AO2 SLP108 P0005 T01560144=
201610090413 SPECI KSEA 090413Z 18010KT 4SM -RA BR BKN007 OVC013 16/14 A2983 RMK AO2 CIG 006V009 P0003 T01560144=
201610090353 METAR KSEA 090353Z 18010KT 7SM -RA SCT009 BKN013 OVC031 16/14 A2983 RMK AO2 SLP109 P0005 T01560144=
201610090334 SPECI KSEA 090334Z 19012KT 7SM -RA SCT013 OVC031 16/14 A2983 RMK AO2 P0005 T01560144=
201610090253 METAR KSEA 090253Z 20011KT 9SM -RA BKN016 OVC030 16/14 A2983 RMK AO2 RAE17B49 SLP109 P0003 60017 T01610144 55001=
201610090153 METAR KSEA 090153Z 19014KT 7SM -RA FEW008 BKN014 OVC027 16/14 A2983 RMK AO2 SLP106 P0009 T01610144=
201610090146 SPECI KSEA 090146Z 19014KT 6SM -RA BR SCT013 BKN018 OVC025 16/14 A2983 RMK AO2 P0008 T01610144=
201610090129 SPECI KSEA 090129Z 19014G21KT 2SM -RA BR BKN013 OVC017 16/14 A2983 RMK AO2 P0004 T01610144=
201610090053 METAR KSEA 090053Z 19013G21KT 8SM -RA FEW010 BKN016 OVC025 16/14 A2983 RMK AO2 SLP108 P0005 T01610144=
201610090018 SPECI KSEA 090018Z 18011KT 10SM -RA BKN020 BKN030 OVC036 16/14 A2983 RMK AO2 P0003 T01610144=
201610082353 METAR KSEA 082353Z 19014KT 4SM R16L/6000VP6000FT RA BR FEW021 BKN035 OVC049 16/14 A2984 RMK AO2 SLP110 P0005 60014 T01610144 10183 20156 56001=
201610082253 METAR KSEA 082253Z 20014KT 4SM -RA BKN024 OVC028 17/14 A2984 RMK AO2 RAB21 SLP109 P0006 T01670139=
201610082153 METAR KSEA 082153Z 19013KT 10SM OVC030 17/14 A2983 RMK AO2 RAE27 SLP105 P0000 T01720139=
201610082053 METAR KSEA 082053Z 19013G23KT 10SM -RA OVC030 17/13 A2984 RMK AO2 PK WND 20030/2027 RAB19 SLP109 P0003 60003 T01670133 56013=
201610081953 METAR KSEA 081953Z 19016KT 10SM OVC030 18/13 A2984 RMK AO2 SLP111 T01830133=
201610081853 METAR KSEA 081853Z 18015KT 10SM SCT033 OVC046 18/14 A2987 RMK AO2 SLP118 T01780139=
201610081753 METAR KSEA 081753Z 18013KT 10SM SCT033 BKN048 OVC055 16/14 A2988 RMK AO2 RAB10E25 SLP123 P0000 60002 T01560139 10156 20111 56006=
201610081653 METAR KSEA 081653Z 21009KT 10SM FEW029 BKN047 OVC055 13/12 A2988 RMK AO2 SLP126 T01330122=
201610081553 METAR KSEA 081553Z 15009KT 10SM FEW007 OVC023 12/11 A2988 RMK AO2 DZE52 SLP123 P0000 T01220111=
201610081453 METAR KSEA 081453Z 16007KT 10SM -DZ SCT005 OVC025 12/11 A2990 RMK AO2 DZB53 SLP130 P0000 60002 T01170106 58013=
201610081422 SPECI KSEA 081422Z 15006KT 3SM SCT005 OVC023 12/11 A2991 RMK AO2 SFC VIS 10 T01170106=
201610081353 METAR KSEA 081353Z 15007KT 2SM BR BKN003 OVC019 12/11 A2991 RMK AO2 SFC VIS 4 SLP134 T01170106=
201610081336 SPECI KSEA 081336Z 16007KT 1SM R16L/P6000FT BR BKN004 OVC017 11/11 A2991 RMK AO2 SFC VIS 3 T01110106=
201610081253 METAR KSEA 081253Z 16004KT 1SM R16L/P6000FT BR SCT007 BKN012 OVC019 11/10 A2993 RMK AO2 SFC VIS 3 RAE30 SLP142 P0002 T01110100=
201610081235 SPECI KSEA 081235Z 16006KT 1SM R16L/P6000FT BR BKN006 OVC012 11/10 A2994 RMK AO2 SFC VIS 2 RAE30 CIG 004V009 P0001 T01110100=
201610081155 SPECI KSEA 081155Z 16004KT 3/4SM R16L/P6000FT -RA BR BKN006 BKN010 OVC014 11/10 A2995 RMK AO2 TWR VIS 1 P0000 T01110100=
201610081153 METAR KSEA 081153Z 17004KT 3/4SM R16L/P6000FT -RA BR SCT006 OVC014 11/11 A2995 RMK AO2 TWR VIS 1 RAE06B23 SLP148 P0003 60011 70019 T01110106 10133 20111 58019=
201610081141 SPECI KSEA 081141Z 14003KT 3/4SM R16L/P6000FT -RA BR SCT006 OVC014 12/11 A2995 RMK AO2 RAE06B23 P0002 T01170106=
201610081130 SPECI KSEA 081130Z 13003KT 2 1/2SM -RA BR FEW006 BKN014 OVC019 12/11 A2996 RMK AO2 RAE06B23 P0001 T01170106=
201610081053 METAR KSEA 081053Z 13005KT 10SM -RA OVC026 12/10 A2997 RMK AO2 RAE32B52 SLP155 P0004 T01170100=
201610081043 SPECI KSEA 081043Z 13007KT 10SM OVC028 12/10 A2997 RMK AO2 RAE32 P0003 T01170100=
201610081008 SPECI KSEA 081008Z 12005KT 5SM -RA BR FEW005 BKN034 OVC090 12/11 A2999 RMK AO2 P0003 T01170106=
201610080953 METAR KSEA 080953Z 00000KT 7SM -RA OVC034 12/11 A3001 RMK AO2 SLP167 P0003 T01220111=
201610080853 METAR KSEA 080853Z 09004KT 10SM -RA OVC042 12/11 A3001 RMK AO2 RAB46 SLP166 P0000 60001 T01220106 58021=
201610080753 METAR KSEA 080753Z 01003KT 9SM BKN049 OVC055 13/11 A3003 RMK AO2 SLP175 T01280106 401720117=
201610080653 METAR KSEA 080653Z 09003KT 10SM OVC065 13/11 A3006 RMK AO2 RAE33 SLP185 P0001 T01280106=
201610080553 METAR KSEA 080553Z 00000KT 10SM -RA OVC085 13/11 A3007 RMK AO2 SLP188 P0002 60003 T01280106 10156 20128 58003=
201610080453 METAR KSEA 080453Z 22003KT 10SM -RA OVC080 13/11 A3007 RMK AO2 RAB05 SLP190 P0001 T01280106=
201610080353 METAR KSEA 080353Z 21006KT 10SM SCT040 OVC085 14/10 A3008 RMK AO2 SLP192 T01390100=
201610080253 METAR KSEA 080253Z 20004KT 10SM BKN032 OVC049 15/08 A3008 RMK AO2 SLP191 T01500078 53004=
201610080153 METAR KSEA 080153Z 17006KT 10SM FEW030 OVC110 15/07 A3006 RMK AO2 SLP187 T01500072=
201610080053 METAR KSEA 080053Z 20006KT 10SM FEW025 OVC140 15/08 A3007 RMK AO2 SLP188 T01500078=
201610072353 METAR KSEA 072353Z 19006KT 10SM FEW025 OVC150 16/08 A3007 RMK AO2 SLP186 T01560083 10172 20128 50004=
201610072253 METAR KSEA 072253Z 21008KT 10SM FEW025 OVC210 16/08 A3007 RMK AO2 SLP187 T01610078=
201610072153 METAR KSEA 072153Z 20007KT 10SM FEW020 SCT200 BKN250 17/08 A3006 RMK AO2 SLP186 T01670078=
201610072053 METAR KSEA 072053Z 21012KT 10SM FEW015 FEW030 BKN190 16/08 A3005 RMK AO2 SLP182 T01610083 51021=
201610071953 METAR KSEA 071953Z 20011KT 10SM FEW008 FEW030 BKN200 15/10 A3005 RMK AO2 SLP183 T01500100=
201610071853 METAR KSEA 071853Z 19014KT 10SM FEW008 FEW060 BKN210 14/09 A3003 RMK AO2 PK WND 20026/1755 SLP174 T01390094=
201610071753 METAR KSEA 071753Z 21018G25KT 10SM FEW008 SCT060 BKN200 13/10 A2999 RMK AO2 SLP162 60005 T01280100 10128 20117 51019=
201610071653 METAR KSEA 071653Z 20016KT 10SM FEW005 FEW034 BKN060 12/10 A2997 RMK AO2 RAB1555E09 SLP154 P0001 T01220100=
201610071553 METAR KSEA 071553Z 21016G20KT 6SM BR FEW012 BKN032 OVC043 12/10 A2997 RMK AO2 RAB23E51 SLP154 P0000 T01220100=
201610071523 SPECI KSEA 071523Z 20011KT 7SM -RA FEW020 BKN046 BKN065 12/10 A2995 RMK AO2 RAB23 P0000 T01220100=
201610071453 METAR KSEA 071453Z 19011G20KT 10SM FEW008 BKN020 OVC035 12/10 A2994 RMK AO2 SLP143 60004 T01220100 53027=
201610071353 METAR KSEA 071353Z 18014KT 10SM FEW008 SCT030 OVC060 12/11 A2989 RMK AO2 RAE43 SLP129 P0004 T01170106=
201610071343 SPECI KSEA 071343Z 18014KT 10SM FEW008 BKN055 OVC070 12/11 A2989 RMK AO2 RAE43 P0004 T01170106=
201610071315 SPECI KSEA 071315Z 19013G21KT 6SM -RA BR SCT008 BKN012 OVC038 12/11 A2989 RMK AO2 P0004 T01170106=
201610071303 SPECI KSEA 071303Z 20014G23KT 5SM -RA BR FEW008 BKN015 OVC022 12/10 A2988 RMK AO2 P0000 T01220100=
201610071253 METAR KSEA 071253Z 19015G22KT 5SM -RA BR FEW014 BKN022 OVC033 12/10 A2988 RMK AO2 RAB45 SLP123 P0000 T01220100=
201610071243 SPECI KSEA 071243Z 19013KT 6SM BR FEW016 BKN022 OVC034 12/10 A2987 RMK AO2 T01220100=
201610071226 SPECI KSEA 071226Z 18015KT 10SM FEW019 BKN033 BKN040 13/10 A2986 RMK AO2 T01280100=
201610071153 METAR KSEA 071153Z 21016G25KT 10SM BKN017 BKN025 OVC038 13/11 A2985 RMK AO2 PK WND 18027/1119 RAE1058B24E41 SLP115 P0000 60019 70033 T01280106 10128 20117 51029=
201610071128 SPECI KSEA 071128Z 19016G27KT 6SM -RA BR OVC013 13/11 A2984 RMK AO2 PK WND 18027/1119 RAE1058B24 P0000 T01280106=
201610071053 METAR KSEA 071053Z 19021G29KT 10SM -RA OVC015 13/11 A2982 RMK AO2 PK WND 19029/1053 RAE10B46 SLP104 P0001 T01280106=
201610070953 METAR KSEA 070953Z 20010KT 6SM -RA BR BKN017 BKN021 OVC026 13/11 A2980 RMK AO2 RAB0855E08B18 SLP097 P0000 T01280111=
201610070917 SPECI KSEA 070917Z 18008KT 9SM FEW020 BKN028 OVC037 12/11 A2978 RMK AO2 RAB0855E08 P0000 T01220106=
201610070853 METAR KSEA 070853Z 18012KT 10SM BKN030 OVC041 13/11 A2977 RMK AO2 RAB03E22 SLP085 P0001 60018 T01280106 55016=
201610070753 METAR KSEA 070753Z 15009KT 10SM OVC034 12/11 A2976 RMK AO2 RAE23 SLP084 P0010 T01220106 401670117=
201610070653 METAR KSEA 070653Z 16007KT 4SM RA BR OVC034 12/11 A2979 RMK AO2 SLP095 P0007 T01170106=
201610070553 METAR KSEA 070553Z 11010KT 10SM -RA OVC041 12/10 A2982 RMK AO2 PRESFR SLP103 P0008 60014 T01220100 10144 20117 58035=
201610070453 METAR KSEA 070453Z 16005KT 6SM -RA BR OVC046 12/10 A2987 RMK AO2 SLP120 P0004 T01220100=
201610070353 METAR KSEA 070353Z 20005KT 10SM -RA OVC070 12/10 A2989 RMK AO2 RAE20B36 SLP128 P0002 T01220100=
201610070253 METAR KSEA 070253Z 13009KT 10SM -RA OVC065 13/09 A2992 RMK AO2 RAE25B43 SLP138 P0000 60000 T01330094 58034=
201610070153 METAR KSEA 070153Z 17009KT 10SM -RA OVC060 13/09 A2997 RMK AO2 RAB43 SLP153 P0000 T01330094=
201610070053 METAR KSEA 070053Z 17007KT 10SM FEW030 BKN060 OVC090 14/09 A3000 RMK AO2 SLP165 T01440089=
201610062353 METAR KSEA 062353Z 18007KT 10SM FEW035 OVC070 14/08 A3002 RMK AO2 RAE02 SLP172 P0000 60000 T01440083 10167 20139 58022=
201610062253 METAR KSEA 062253Z 20009KT 10SM -RA FEW035 OVC070 14/09 A3005 RMK AO2 RAB12E33B50 SLP183 P0000 T01390094=
201610062153 METAR KSEA 062153Z 19011KT 10SM FEW036 BKN085 OVC140 16/07 A3007 RMK AO2 SLP190 T01560072=
201610062053 METAR KSEA 062053Z 22008KT 10SM SCT036 BKN070 OVC140 16/08 A3009 RMK AO2 SLP194 T01610083 58013=
201610061953 METAR KSEA 061953Z 22007KT 10SM FEW025 SCT045 BKN075 OVC150 15/08 A3011 RMK AO2 SLP201 T01500083=
201610061853 METAR KSEA 061853Z 22009KT 10SM SCT025 BKN075 OVC150 16/09 A3012 RMK AO2 SLP204 T01560089=
201610061753 METAR KSEA 061753Z 20010KT 10SM SCT025 BKN070 BKN200 15/09 A3012 RMK AO2 SLP206 T01500089 10150 20122 51002=
201610061653 METAR KSEA 061653Z 19009KT 10SM FEW020 SCT035 BKN070 14/09 A3012 RMK AO2 SLP207 T01390089=
201610061553 METAR KSEA 061553Z 18010KT 10SM FEW015 BKN031 BKN060 13/09 A3012 RMK AO2 SLP206 T01280089=
201610061453 METAR KSEA 061453Z 17009KT 10SM FEW015 SCT031 BKN040 12/09 A3012 RMK AO2 SLP205 T01220089 52008=
201610061437 SPECI KSEA 061437Z 18007KT 10SM FEW015 BKN031 BKN060 12/09 A3012 RMK AO2 T01220094=
201610061410 SPECI KSEA 061410Z 18007KT 10SM SCT016 BKN028 OVC040 12/09 A3012 RMK AO2 T01220094=
201610061353 METAR KSEA 061353Z 18008KT 10SM BKN013 OVC030 12/09 A3011 RMK AO2 SLP203 T01220094=
201610061253 METAR KSEA 061253Z 21008KT 10SM OVC012 12/09 A3010 RMK AO2 SLP198 T01220094=
201610061221 SPECI KSEA 061221Z 21009KT 10SM BKN012 OVC017 12/09 A3009 RMK AO2 T01220094=
201610061153 METAR KSEA 061153Z 21010KT 10SM OVC015 12/09 A3009 RMK AO2 SLP196 60000 70004 T01220094 10133 20122 51004=
201610061053 METAR KSEA 061053Z 21009KT 10SM OVC012 12/09 A3009 RMK AO2 SLP195 T01220094=
201610061045 SPECI KSEA 061045Z 22009KT 10SM OVC012 12/09 A3009 RMK AO2 T01220094=
201610060953 METAR KSEA 060953Z 21010KT 10SM OVC009 12/10 A3009 RMK AO2 RAE0858 CIG 006V011 SLP194 P0000 T01220100=
201610060923 SPECI KSEA 060923Z 22010KT 10SM BKN008 OVC013 13/11 A3009 RMK AO2 RAE0858 CIG 006V010 P0000 T01280106=
201610060858 SPECI KSEA 060858Z 22004KT 10SM BKN010 OVC035 13/11 A3008 RMK AO2 RAE58 CIG 007V012 P0000 T01280106=
201610060853 METAR KSEA 060853Z 22005KT 10SM -RA SCT010 OVC035 13/11 A3008 RMK AO2 RAB50 SLP192 P0000 60000 T01280106 51009=
201610060801 SPECI KSEA 060801Z 22004KT 10SM FEW007 BKN039 OVC050 13/11 A3008 RMK AO2 T01280106=
201610060753 METAR KSEA 060753Z 24003KT 10SM BKN041 OVC048 13/11 A3008 RMK AO2 SLP190 T01280106 401830111=
201610060653 METAR KSEA 060653Z 00000KT 10SM FEW030 BKN045 OVC055 13/09 A3007 RMK AO2 SLP188 T01330094=
201610060553 METAR KSEA 060553Z 27004KT 10SM BKN031 OVC055 13/09 A3005 RMK AO2 SLP184 T01330089 10178 20128 51017=
201610060453 METAR KSEA 060453Z 29003KT 10SM FEW031 BKN060 14/08 A3004 RMK AO2 SLP179 T01390083=
201610060353 METAR KSEA 060353Z 00000KT 10SM BKN055 14/09 A3003 RMK AO2 SLP174 T01390094=
201610060253 METAR KSEA 060253Z 32003KT 10SM FEW065 BKN080 15/09 A3001 RMK AO2 SLP167 T01500089 51020=
201610060153 METAR KSEA 060153Z 29004KT 10SM FEW035 SCT060 BKN250 15/09 A2999 RMK AO2 SLP161 T01500089=
201610060053 METAR KSEA 060053Z 30006KT 10SM FEW035 SCT080 SCT250 17/08 A2997 RMK AO2 SLP152 T01670083=
201610052353 METAR KSEA 052353Z 30009KT 10SM FEW035 FEW075 SCT250 18/08 A2995 RMK AO2 SLP146 T01780078 10183 20139 53008=
201610052253 METAR KSEA 052253Z 31006KT 10SM FEW035 SCT075 BKN250 18/08 A2993 RMK AO2 SLP141 T01830083=
201610052153 METAR KSEA 052153Z 32009KT 10SM FEW035 SCT070 BKN250 16/10 A2993 RMK AO2 SLP140 T01610100=
201610052053 METAR KSEA 052053Z 29010KT 10SM FEW035 SCT055 BKN250 16/10 A2992 RMK AO2 SLP138 T01610100 51008=
201610051953 METAR KSEA 051953Z 30006KT 10SM FEW040 BKN055 16/11 A2992 RMK AO2 SLP137 T01560106=
201610051853 METAR KSEA 051853Z 34007KT 10SM FEW040 OVC060 14/09 A2991 RMK AO2 SLP136 T01440094=
201610051753 METAR KSEA 051753Z 03003KT 10SM FEW040 BKN060 OVC200 14/10 A2990 RMK AO2 RAE37 SLP131 P0001 60004 T01390100 10139 20111 51013=
201610051653 METAR KSEA 051653Z 10004KT 10SM -RA FEW035 BKN060 OVC080 13/09 A2989 RMK AO2 RAE04B50 SLP128 P0000 T01280089=
201610051553 METAR KSEA 051553Z 31003KT 10SM -RA FEW035 BKN050 OVC080 12/10 A2988 RMK AO2 RAE1456B41 SLP123 P0000 T01170100=
201610051453 METAR KSEA 051453Z 23006KT 10SM -RA FEW035 OVC049 11/09 A2986 RMK AO2 RAB10 SLP117 P0002 60003 T01110089 53007=
201610051353 METAR KSEA 051353Z 09006KT 10SM FEW035 OVC050 12/08 A2984 RMK AO2 RAE32 SLP111 P0000 T01220078=
201610051253 METAR KSEA 051253Z 10008KT 10SM -RA BKN045 OVC065 12/08 A2984 RMK AO2 RAB12 SLP109 P0001 T01220078=
201610051153 METAR KSEA 051153Z 00000KT 10SM FEW042 SCT065 OVC090 12/08 A2984 RMK AO2 SLP110 60000 70010 T01220078 10128 20117 55005=
201610051053 METAR KSEA 051053Z 12004KT 10SM BKN055 12/08 A2983 RMK AO2 SLP108 T01220078=
201610050953 METAR KSEA 050953Z 11006KT 10SM BKN070 12/08 A2985 RMK AO2 SLP113 T01220078=
201610050853 METAR KSEA 050853Z 13005KT 10SM SCT060 BKN210 12/08 A2985 RMK AO2 SLP116 60000 T01220083 58003=
201610050753 METAR KSEA 050753Z 13005KT 10SM OVC065 13/08 A2986 RMK AO2 RAE15 SLP118 P0000 T01280083 401560111=
201610050653 METAR KSEA 050653Z 16005KT 9SM -RA FEW032 BKN043 OVC060 12/09 A2987 RMK AO2 RAB49 SLP121 P0000 T01220089=
201610050553 METAR KSEA 050553Z 14008KT 10SM BKN055 OVC075 13/09 A2986 RMK AO2 SLP119 60001 T01280089 10144 20128 50002=
201610050453 METAR KSEA 050453Z 14008KT 10SM BKN045 OVC055 13/09 A2987 RMK AO2 RAE50 SLP119 P0001 T01280094=
201610050353 METAR KSEA 050353Z 14009KT 10SM -RA FEW040 BKN050 OVC090 13/10 A2986 RMK AO2 RAB35 SLP119 P0000 T01280100=
201610050253 METAR KSEA 050253Z 15012G18KT 10SM FEW036 BKN070 BKN090 13/10 A2986 RMK AO2 SLP117 T01330100 53002=
201610050153 METAR KSEA 050153Z 14010KT 10SM SCT031 BKN041 BKN060 14/10 A2985 RMK AO2 SLP114 T01390100=
201610050053 METAR KSEA 050053Z 15008KT 10SM SCT028 BKN034 BKN065 14/11 A2985 RMK AO2 SLP115 T01390106=
201610042353 METAR KSEA 042353Z 15010KT 10SM FEW030 SCT055 BKN070 14/11 A2985 RMK AO2 RAB24E50 SLP115 P0001 60007 T01390111 10156 20128 57007=
201610042253 METAR KSEA 042253Z 14009KT 10SM BKN034 OVC044 14/11 A2986 RMK AO2 SLP118 VCSH T01390106=
201610042153 METAR KSEA 042153Z 15009KT 10SM BKN045 BKN060 OVC070 13/10 A2987 RMK AO2 RAE53 SLP120 P0006 T01330100=
201610042053 METAR KSEA 042053Z 20011KT 10SM -RA FEW035 BKN065 OVC085 14/10 A2988 RMK AO2 RAB44 SLP123 P0000 60000 T01390100 55001=
201610041953 METAR KSEA 041953Z 20013KT 10SM BKN031 BKN049 OVC060 15/09 A2987 RMK AO2 SLP122 T01500089=
201610041853 METAR KSEA 041853Z 19012KT 10SM BKN050 OVC070 15/09 A2988 RMK AO2 SLP123 T01500089=
201610041753 METAR KSEA 041753Z 18010KT 10SM FEW015 BKN050 BKN200 14/09 A2988 RMK AO2 SLP124 60002 T01390089 10139 20111 53005=
201610041653 METAR KSEA 041653Z 18012KT 10SM FEW012 SCT038 BKN060 BKN200 13/09 A2988 RMK AO2 SLP123 T01330094=
201610041553 METAR KSEA 041553Z 19008KT 10SM FEW015 BKN038 BKN130 12/10 A2987 RMK AO2 SLP120 T01220100=
201610041453 METAR KSEA 041453Z 16005KT 10SM FEW025 BKN035 BKN065 11/09 A2986 RMK AO2 SLP119 60002 T01110094 53005=
201610041353 METAR KSEA 041353Z 16007KT 10SM FEW018 BKN065 OVC100 11/09 A2985 RMK AO2 RAB1256E51 SLP116 P0002 T01110094=
201610041253 METAR KSEA 041253Z 17009KT 10SM SCT025 BKN050 BKN080 11/09 A2985 RMK AO2 RAB1157E23 SLP114 P0000 T01110094=
201610041153 METAR KSEA 041153Z 15005KT 10SM BKN028 OVC036 11/09 A2985 RMK AO2 RAE38 SLP114 P0003 60003 70003 T01110094 10117 20111 51002=
201610041111 SPECI KSEA 041111Z 18003KT 10SM -RA BKN028 OVC035 11/09 A2985 RMK AO2 P0000 T01110094=
201610041053 METAR KSEA 041053Z 17005KT 8SM -RA SCT033 BKN043 OVC090 11/09 A2985 RMK AO2 RAB49 SLP114 P0000 T01110089=
201610041029 SPECI KSEA 041029Z 16006KT 10SM SCT025 BKN047 OVC085 11/08 A2985 RMK AO2 T01110083=
201610040953 METAR KSEA 040953Z 16005KT 10SM BKN026 OVC041 11/09 A2985 RMK AO2 SLP114 T01110089=
201610040853 METAR KSEA 040853Z 14005KT 10SM OVC027 11/09 A2985 RMK AO2 SLP112 60000 T01110089 56006=
201610040753 METAR KSEA 040753Z 14007KT 10SM OVC029 11/09 A2985 RMK AO2 RAB01E40 SLP114 P0000 T01110089 401560094=
201610040705 SPECI KSEA 040705Z 13008KT 7SM -RA FEW019 SCT024 OVC034 11/09 A2986 RMK AO2 RAB01 P0000 T01110089=
201610040653 METAR KSEA 040653Z 16005KT 10SM FEW010 SCT019 OVC026 11/09 A2986 RMK AO2 RAB28E49 SLP116 P0000 T01110089=
201610040644 SPECI KSEA 040644Z 17005KT 10SM -RA SCT019 BKN026 OVC034 11/09 A2986 RMK AO2 RAB28 P0000 T01110089=
201610040553 METAR KSEA 040553Z 20004KT 10SM SCT034 OVC041 12/08 A2986 RMK AO2 RAE35 SLP118 P0000 60000 T01170083 10150 20117 58001=
201610040453 METAR KSEA 040453Z 22006KT 10SM -RA BKN044 OVC055 12/08 A2987 RMK AO2 RAB16E33B51 SLP119 P0000 T01170083=
201610040353 METAR KSEA 040353Z 24007KT 10SM BKN060 OVC080 13/07 A2986 RMK AO2 RAB35E45 SLP119 P0000 T01280072=
201610040253 METAR KSEA 040253Z 25005KT 10SM OVC080 13/07 A2986 RMK AO2 SLP119 T01330072 56008=
201610040153 METAR KSEA 040153Z 22003KT 10SM FEW030 OVC100 14/07 A2987 RMK AO2 SLP120 T01390067=
201610040053 METAR KSEA 040053Z 00000KT 10SM FEW030 BKN110 OVC180 14/06 A2988 RMK AO2 SLP123 T01440061=
201610032353 METAR KSEA 032353Z 24004KT 10SM FEW030 SCT120 BKN200 15/07 A2989 RMK AO2 SLP127 T01500067 10156 20133 58010=
201610032253 METAR KSEA 032253Z 19007KT 10SM FEW030 OVC140 15/06 A2990 RMK AO2 SLP131 T01500061=
201610032153 METAR KSEA 032153Z 22006KT 10SM FEW025 SCT060 BKN170 15/06 A2991 RMK AO2 SLP135 T01500061=
201610032053 METAR KSEA 032053Z 21012KT 10SM FEW020 SCT060 BKN170 16/06 A2992 RMK AO2 SLP138 T01560056 58009=
201610031953 METAR KSEA 031953Z 23008KT 10SM FEW020 SCT060 BKN200 14/07 A2994 RMK AO2 SLP144 T01440067=
201610031853 METAR KSEA 031853Z 19008KT 10SM FEW020 BKN050 BKN200 14/08 A2995 RMK AO2 SLP147 T01440078=
201610031753 METAR KSEA 031753Z 23007KT 10SM FEW020 BKN050 BKN070 13/08 A2995 RMK AO2 SLP147 T01330078 10133 20111 51004=
201610031653 METAR KSEA 031653Z 21007KT 10SM FEW015 BKN050 BKN070 12/08 A2995 RMK AO2 SLP146 T01220078=
201610031553 METAR KSEA 031553Z 22008KT 10SM BKN050 BKN070 12/08 A2994 RMK AO2 SLP144 T01170083=
201610031453 METAR KSEA 031453Z 21007KT 10SM FEW009 BKN050 OVC070 12/09 A2993 RMK AO2 SLP143 T01170089 53006=
201610031353 METAR KSEA 031353Z 22008KT 10SM FEW009 SCT032 OVC050 11/09 A2992 RMK AO2 SLP139 T01110094=
201610031253 METAR KSEA 031253Z 20005KT 10SM FEW008 OVC045 11/09 A2992 RMK AO2 SLP138 T01110094 $=
201610031153 METAR KSEA 031153Z 20004KT 10SM FEW009 OVC049 11/09 A2992 RMK AO2 SLP137 T01110094 10128 20094 53001 $=
201610031053 METAR KSEA 031053Z 21006KT 10SM SCT008 OVC042 11/09 A2992 RMK AO2 SLP137 T01110094 $=
201610030953 METAR KSEA 030953Z 17005KT 10SM FEW008 BKN042 BKN070 09/08 A2991 RMK AO2 SLP135 T00940078 $=
201610030947 SPECI KSEA 030947Z 16006KT 10SM FEW008 SCT042 BKN070 10/08 A2991 RMK AO2 $=
201610030853 METAR KSEA 030853Z 17005KT 10SM FEW038 SCT055 10/08 A2991 RMK AO2 SLP134 T01000083 58004 $=
201610030753 METAR KSEA 030753Z 19004KT 10SM FEW038 SCT055 11/09 A2992 RMK AO2 SLP138 T01110089 401720100 $=
201610030653 METAR KSEA 030653Z 21005KT 10SM FEW038 BKN055 12/09 A2992 RMK AO2 SLP139 T01220089 $=
201610030553 METAR KSEA 030553Z 17004KT 10SM BKN055 12/08 A2992 RMK AO2 SLP138 T01220078 10150 20122 55001 $=
201610030453 METAR KSEA 030453Z 17004KT 10SM BKN060 13/08 A2992 RMK AO2 SLP138 T01330078 $=
201610030353 METAR KSEA 030353Z 15005KT 10SM BKN060 13/07 A2992 RMK AO2 SLP139 T01330072 $=
201610030253 METAR KSEA 030253Z 22006KT 10SM BKN070 14/07 A2992 RMK AO2 SLP139 T01390072 53004 $=
201610030153 METAR KSEA 030153Z 21003KT 10SM BKN080 BKN110 14/07 A2991 RMK AO2 SLP135 T01440072 $=
201610030053 METAR KSEA 030053Z 20006KT 10SM FEW085 BKN120 15/07 A2991 RMK AO2 SLP133 T01500072 $=
201610022353 METAR KSEA 022353Z 20008KT 10SM FEW035 BKN110 15/08 A2991 RMK AO2 SLP135 T01500083 10172 20133 55001 $=
201610022253 METAR KSEA 022253Z 21009G14KT 10SM FEW035 BKN120 16/08 A2991 RMK AO2 SLPNO T01610083 $=
201610022153 METAR KSEA 022153Z 24007KT 10SM FEW035 SCT120 17/07 A2991 RMK AO2 SLP133 T01670067 $=
201610022053 METAR KSEA 022053Z 28006KT 10SM FEW029 SCT120 17/07 A2991 RMK AO2 SLP136 T01670072 58014 $=
201610021953 METAR KSEA 021953Z 28005KT 10SM SCT024 BKN120 BKN210 16/08 A2993 RMK AO2 SLP141 T01610078 $=
201610021853 METAR KSEA 021853Z 29005KT 10SM SCT017 BKN120 BKN210 15/09 A2995 RMK AO2 SLP146 T01500089 $=
201610021753 METAR KSEA 021753Z 00000KT 10SM FEW014 BKN120 BKN200 13/08 A2996 RMK AO2 SLP150 T01330083 10133 20100 50001 $=
201610021653 METAR KSEA 021653Z 36003KT 10SM FEW015 BKN110 BKN200 12/09 A2996 RMK AO2 SLP151 T01220089 $=
201610021553 METAR KSEA 021553Z 00000KT 10SM FEW010 SCT065 BKN095 11/08 A2996 RMK AO2 SLP150 T01110078 $=
201610021453 METAR KSEA 021453Z 13003KT 10SM FEW070 BKN110 11/08 A2995 RMK AO2 SLP149 T01110083 53002 $=
201610021353 METAR KSEA 021353Z 00000KT 10SM BKN070 OVC085 11/09 A2995 RMK AO2 SLP147 T01110094 $=
201610021253 METAR KSEA 021253Z 00000KT 10SM SCT070 OVC090 11/09 A2995 RMK AO2 SLP147 T01110094 $=
201610021153 METAR KSEA 021153Z 25003KT 10SM OVC065 11/09 A2995 RMK AO2 SLP147 6//// 7//// T01060089 10128 20100 $=
201610021100 METAR KSEA NIL=
201610021053 METAR KSEA 021053Z 03003KT 10SM SCT050 OVC100 11/08 A2995=
201610021000 METAR KSEA NIL=
201610020900 METAR KSEA NIL=
201610020753 METAR KSEA 020753Z 10003KT 10SM FEW070 SCT120 11/08 A2996 RMK AO2 SLP152 T01060083 401720100=
201610020653 METAR KSEA 020653Z 00000KT 10SM FEW070 SCT120 11/09 A2997 RMK AO2 SLP155 T01110089=
201610020553 METAR KSEA 020553Z 11005KT 10SM SCT055 BKN070 12/08 A2998 RMK AO2 RAB16E27 SLP159 P0000 60001 T01220078 10156 20122 58006=
201610020453 METAR KSEA 020453Z 11004KT 10SM BKN055 BKN070 12/08 A2999 RMK AO2 SLP162 T01220083=
201610020353 METAR KSEA 020353Z 13004KT 10SM OVC055 12/08 A3000 RMK AO2 RAE11 SLP164 P0000 T01220083=
201610020253 METAR KSEA 020253Z 15005KT 10SM -RA BKN060 BKN075 OVC100 13/08 A3000 RMK AO2 RAB50 SLP166 P0000 60001 T01280083 51006=
201610020153 METAR KSEA 020153Z VRB04KT 10SM FEW020 BKN060 OVC100 13/08 A3000 RMK AO2 RAE19 SLP164 P0001 T01280083=
201610020053 METAR KSEA 020053Z 20014KT 10SM -RA FEW039 SCT045 OVC055 13/08 A2999 RMK AO2 RAB2355E10B29 SLP163 P0000 T01330083=
201610012353 METAR KSEA 012353Z 20012G17KT 10SM BKN044 BKN065 OVC080 16/07 A2998 RMK AO2 SLP160 60004 T01560072 10172 20128 53008=
201610012253 METAR KSEA 012253Z 21009KT 10SM FEW040 SCT050 BKN090 16/08 A2998 RMK AO2 RAB15E24 SLP157 P0000 T01560078=
201610012153 METAR KSEA 012153Z 20014G21KT 10SM FEW040 BKN050 BKN100 16/08 A2997 RMK AO2 SLP153 T01560078=
201610012053 METAR KSEA 012053Z 19005KT 10SM BKN048 OVC060 13/10 A2996 RMK AO2 RAE41 SLP152 P0004 60004 T01330100 50007=
201610011953 METAR KSEA 011953Z 21011KT 10SM -RA BKN043 OVC055 14/08 A2996 RMK AO2 DZE08RAB36 SLP152 P0000 T01390083=
201610011853 METAR KSEA 011853Z 19007KT 10SM -DZ SCT042 SCT049 OVC055 14/08 A2994 RMK AO2 RAB33E34DZB34 SLP146 P0000 T01440078=
201610011753 METAR KSEA 011753Z 19009KT 10SM BKN044 BKN050 BKN080 16/07 A2994 RMK AO2 SLP145 T01560067 10167 20100 51003=
201610011653 METAR KSEA 011653Z 16006KT 10SM FEW020 SCT040 BKN070 13/07 A2994 RMK AO2 SLP144 T01330072=
201610011553 METAR KSEA 011553Z 15007KT 10SM FEW040 BKN070 BKN150 12/07 A2994 RMK AO2 SLP145 T01170067=
201610011453 METAR KSEA 011453Z 14005KT 10SM FEW040 BKN070 BKN150 12/07 A2993 RMK AO2 SLP141 T01170072 58004=
201610011353 METAR KSEA 011353Z 12006KT 10SM FEW038 BKN060 BKN120 11/07 A2993 RMK AO2 SLP143 T01110072=
201610011253 METAR KSEA 011253Z 14006KT 10SM BKN039 BKN070 OVC100 11/08 A2994 RMK AO2 SLP145 T01110078=
201610011153 METAR KSEA 011153Z 11006KT 9SM SCT038 BKN050 OVC070 12/08 A2994 RMK AO2 RAB1057E27 SLP145 P0000 60000 T01170078 10128 20117 58013=
201610011053 METAR KSEA 011053Z 13003KT 9SM FEW023 BKN037 OVC055 12/08 A2996 RMK AO2 SLP150 T01170078=
201610010953 METAR KSEA 010953Z 12004KT 10SM FEW023 SCT040 BKN065 12/08 A2997 RMK AO2 SLP154 T01170083=
201610010853 METAR KSEA 010853Z 17003KT 10SM BKN038 BKN055 12/08 A2998 RMK AO2 RAB02E18 SLP159 P0000 60000 T01170083 50003=
201610010753 METAR KSEA 010753Z 15004KT 10SM FEW016 BKN055 OVC080 12/08 A2999 RMK AO2 RAB24E33 SLP162 P0000 T01170083 401830078=
201610010653 METAR KSEA 010653Z 23012KT 10SM SCT050 BKN060 OVC080 12/08 A2998 RMK AO2 SLP159 T01220078=
201610010553 METAR KSEA 010553Z 24008KT 10SM FEW040 BKN075 12/06 A2997 RMK AO2 SLP156 T01220061 10172 20122 50006=
201610010453 METAR KSEA 010453Z 22006KT 10SM FEW040 SCT140 13/05 A2998 RMK AO2 SLP158 T01330050=
201610010400 SPECI KSEA 010400Z 23006KT 10SM FEW040 SCT140 14/06 A2996 RMK AO2 T01440061=
201610010353 METAR KSEA 010353Z 23006KT 10SM CLR 14/06 A2996 RMK AO2 SLP151 T01440061=
201610010253 METAR KSEA 010253Z 18003KT 10SM FEW040 SCT200 15/06 A2996 RMK AO2 SLP151 T01500056 58007=
201610010153 METAR KSEA 010153Z 18003KT 10SM FEW040 SCT200 15/05 A2997 RMK AO2 SLP154 T01500050=
201610010053 METAR KSEA 010053Z 20005KT 10SM FEW030 FEW200 17/03 A2997 RMK AO2 SLP155 T01670033=

# No short TAF reports from KSEA in databse.

###################################
#  large TAF from KSEA
###################################
201610312335 TAF KSEA 312335Z 0100/0206 20009KT P6SM -RA SCT028 BKN060 OVC130
                       FM010300 17006KT P6SM -RA BKN028 OVC060
                       FM010600 14005KT P6SM -RA SCT015 OVC028
                       TEMPO 0108/0112 5SM -RA BR BKN015 OVC028
                       FM011200 17005KT 5SM -RA BR FEW009 OVC015
                       FM011800 19009KT P6SM VCSH BKN025 OVC060
                       FM012100 19009KT P6SM VCSH BKN035 BKN070
                       PROB30 0121/0124 -SHRA FM020200 17007KT
                       P6SM VCSH SCT035 BKN070 BKN150=
201610312019 KSEA 312019Z 3120/0124 21013KT P6SM VCSH SCT028 SCT050 BKN130
                      TEMPO 3121/3124 SCT028 BKN050 BKN130 FM010000
                       19006KT P6SM VCSH SCT030 BKN050 OVC100
                      TEMPO 0100/0103 -RA FM010300 17006KT P6SM
                       -RA SCT015 BKN030 OVC050 FM010600 15006KT
                       4SM -RA BR SCT008 BKN015 OVC030 FM011800
                       19009KT P6SM FEW018 BKN030 OVC060
                      PROB30 0118/0124 -SHRA=
201610311745 TAF KSEA 311745Z 3118/0124 21015G23KT P6SM -SHRA BKN015 OVC030
                       FM312100 21012KT P6SM VCSH FEW018 SCT030
                       OVC050
                      TEMPO 3121/3124 -SHRA FEW018 BKN030 OVC050
                       FM010000 19006KT P6SM VCSH SCT030 BKN050
                       OVC100
                      TEMPO 0100/0103 -RA FM010300 17006KT P6SM
                       -RA SCT015 BKN030 OVC050 FM010600 15006KT
                       4SM -RA BR SCT008 BKN015 OVC030 FM011800
                       19009KT P6SM FEW018 BKN030 OVC060
                      PROB30 0118/0124 -SHRA=
201610311654 KSEA 311654Z 3117/0118 21018G28KT P6SM -RA SCT009 BKN015 OVC030
                       TEMPO 3117/3119 5SM RA BKN009 OVC015 FM311900
                       21015G23KT P6SM -SHRA SCT025 BKN040 OVC070
                       FM312200 20008KT P6SM SCT030 BKN050 OVC090
                       FM010200 18005KT P6SM -SHRA BKN025 OVC040
                       FM011200 19005KT 5SM -RA OVC015=
201610311548 KSEA 311548Z 3116/0118 17009KT 5SM -RA BR SCT009 BKN015 OVC030
                       TEMPO 3116/3118 2SM +RA BR BKN009 OVC015
                       FM311800 19015G23KT P6SM -SHRA SCT025 BKN040
                       OVC070 FM312200 20008KT P6SM SCT030 BKN050
                       OVC090 FM010200 18005KT P6SM -SHRA BKN025
                       OVC040 FM011200 19005KT 5SM -RA OVC015=
201610311416 KSEA 311416Z 3114/0118 17009KT P6SM -RA FEW012 BKN028 OVC040
                      TEMPO 3114/3118 4SM -RA BR BKN012 OVC028
                       FM311800 19015G23KT P6SM -SHRA SCT025 BKN040
                       OVC070 FM312200 20008KT P6SM SCT030 BKN050
                       OVC090 FM010200 18005KT P6SM -SHRA BKN025
                       OVC040 FM011200 19005KT 5SM -RA OVC015=
201610311130 TAF KSEA 311130Z 3112/0118 12003KT P6SM BKN040 OVC050
                      TEMPO 3113/3117 5SM -RA BR OVC015 FM311700
                       19015G23KT P6SM -SHRA SCT025 BKN040 OVC070
                       FM312200 20008KT P6SM SCT030 BKN050 OVC090
                       FM010200 18005KT P6SM -SHRA BKN025 OVC040
                       FM011200 19005KT 5SM -RA OVC015=
201610310525 TAF KSEA 310525Z 3106/0112 16004KT 5SM -RA BR SCT003 BKN026 OVC050
                       TEMPO 3106/3110 1SM -RA BR BKN003 OVC021
                       FM311200 16008KT 5SM -RA BR OVC015 FM311800
                       19015G23KT P6SM -SHRA SCT025 BKN040 OVC070
                       FM312200 20008KT P6SM SCT030 BKN050 OVC090
                       FM010200 18005KT P6SM -SHRA BKN025 OVC040=
201610310300 KSEA 310300Z 3103/0106 00000KT P6SM -RA OVC030
                      TEMPO 3106/3110 5SM -RA BR SCT004 BKN040
                       OVC050 FM311200 16008KT 5SM -RA BR OVC015
                       FM311800 19015G23KT P6SM -SHRA SCT025 BKN040
                       OVC070 FM312200 20008KT P6SM SCT030 BKN050
                       OVC090 FM010200 18005KT P6SM -SHRA BKN025
                       OVC040=
201610302320 TAF KSEA 302320Z 3100/0106 36008KT P6SM -RA FEW040 OVC070 FM310300
                       07003KT P6SM -RA OVC030 FM311200 16008KT
                       5SM -RA BR OVC015 FM311800 19015G23KT P6SM
                       -SHRA SCT025 BKN040 OVC070 FM312200 20008KT
                       P6SM SCT030 BKN050 OVC090 FM010200 18005KT
                       P6SM -SHRA BKN025 OVC040=
201610302101 KSEA 302101Z 3021/3124 35006KT P6SM -RA OVC070 FM310300 07003KT
                       P6SM -RA OVC030 FM311200 16008KT 5SM -RA
                       BR OVC015 FM311900 19015G23KT P6SM -SHRA
                       SCT025 BKN040 BKN070=
201610301720 TAF KSEA 301720Z 3018/3124 01008KT P6SM SCT090 BKN150 FM302300
                       02005KT P6SM -RA OVC060 FM310300 07003KT
                       P6SM -RA OVC030 FM311200 16008KT 5SM -RA
                       BR OVC015 FM311900 19015G23KT P6SM -SHRA
                       SCT025 BKN040 BKN070=
201610301500 KSEA 301500Z 3015/3118 01006KT P6SM VCFG FEW010 SCT100 FM301700
                       03006KT P6SM VCSH OVC060 FM302300 02005KT
                       P6SM -RA OVC035 FM310200 07003KT P6SM -RA
                       OVC030 FM310400 14005KT 5SM -RA BR OVC015=
201610301120 TAF KSEA 301120Z 3012/3118 03006KT P6SM VCFG FEW001 FEW080 FM301400
                       04006KT P6SM VCFG FEW001 SCT070 BKN120 FM301700
                       03006KT P6SM VCSH OVC060 FM302300 02005KT
                       P6SM -RA OVC035 FM310200 07003KT P6SM -RA
                       OVC030 FM310400 14005KT 5SM -RA BR OVC015=
201610300906 KSEA 300906Z 3009/3112 02004KT P6SM SCT220 FM301400 03005KT P6SM
                       VCFG FEW001 BKN120 FM301700 02006KT P6SM
                       VCSH OVC060 FM302200 07004KT P6SM -RA OVC030
                       FM310400 12004KT P6SM -RA OVC015=
201610300529 TAF KSEA 300529Z 3006/3112 03007KT P6SM FEW090 SCT250 FM301400
                       03005KT 5SM BR VCFG FEW001 BKN120 FM301700
                       02006KT P6SM VCSH OVC060 FM302200 07004KT
                       P6SM -RA OVC030 FM310400 12004KT P6SM -RA
                       OVC015=
201610300315 KSEA 300315Z 3003/3106 09004KT P6SM FEW090 SCT250 FM300400 07003KT
                       P6SM FEW050 FM301200 02005KT 5SM BR VCFG
                       FEW001 FM301700 01008KT P6SM FEW090 BKN150
                       FM310100 11004KT P6SM -RA BKN050 OVC090
                       FM310400 16005KT P6SM -RA BKN025 OVC040=
201610292321 TAF KSEA 292321Z 3000/3106 13005KT P6SM SCT030 BKN060
                      TEMPO 3000/3002 BKN030 BKN070 FM300400 07003KT
                       P6SM FEW050 FM301200 02005KT 5SM BR VCFG
                       FEW001 FM301700 01008KT P6SM FEW090 BKN150
                       FM310100 11004KT P6SM -RA BKN050 OVC090
                       FM310400 16005KT P6SM -RA BKN025 OVC040=
201610292100 KSEA 292100Z 2921/3024 14006KT P6SM FEW020 BKN050 BKN090 FM300100
                       VRB03KT P6SM SCT050 SCT090 FM301200 02005KT
                       5SM BR VCFG FEW001 FM301700 35006KT P6SM
                       FEW090 BKN150=
201610291725 TAF KSEA 291725Z 2918/3024 16005KT P6SM -RA BKN060 OVC080
                      TEMPO 2918/2922 6SM -RA BR BKN040 OVC060
                       FM300100 VRB03KT P6SM SCT045 FM301200 02005KT
                       5SM BR VCFG FEW001 FM301700 35006KT P6SM
                       FEW090 BKN150=
201610291505 TAF AMD KSEA 291505Z 2915/3018 18006KT P6SM -RA BKN060 OVC090 FM300100
                       VRB03KT P6SM SCT045=
201610291120 TAF KSEA 291120Z 2912/3018 00000KT P6SM BKN200 FM291800 20005KT
                       P6SM -SHRA BKN045 OVC090 FM300100 VRB03KT
                       P6SM SCT045=
201610290936 KSEA 290936Z 2910/3012 09006KT P6SM OVC230 FM291200 17008KT P6SM
                       OVC060 FM291800 20006KT P6SM -SHRA BKN050
                       FM300100 11005KT P6SM SCT050 BKN100=
201610290527 TAF KSEA 290527Z 2906/3012 11011KT P6SM BKN220 FM291200 17008KT
                       P6SM OVC060 FM291800 20006KT P6SM -SHRA
                       BKN050 FM300100 11005KT P6SM SCT050 BKN100=
201610290302 KSEA 290302Z 2903/3006 09009KT P6SM BKN240 FM291200 11005KT P6SM
                       BKN100 BKN200 FM291800 18005KT P6SM -SHRA
                       BKN050 OVC090 FM300100 VRB03KT P6SM SCT050
                       BKN100=
201610282323 TAF KSEA 282323Z 2900/3006 33005KT P6SM SCT070 BKN250 FM290200
                       03005KT P6SM FEW090 BKN250 FM291200 11005KT
                       P6SM BKN100 BKN200 FM291800 18005KT P6SM
                       -SHRA BKN050 OVC090 FM300100 VRB03KT P6SM
                       SCT050 BKN100=
201610282100 KSEA 282100Z 2821/2924 02005KT P6SM SCT070 BKN250 FM291200 11005KT
                       P6SM BKN100 BKN200 FM291800 18005KT P6SM
                       -SHRA BKN050 OVC100=
201610281720 TAF KSEA 281720Z 2818/2924 12006KT P6SM BKN060 BKN200 FM282100
                       02006KT P6SM SCT070 BKN200 FM291200 11005KT
                       P6SM BKN100 BKN200 FM291800 18005KT P6SM
                       -SHRA BKN050 OVC100=
201610281505 TAF AMD KSEA 281505Z 2815/2918 12008KT P6SM BKN050 BKN090 FM282100
                       04005KT P6SM SCT070 BKN200=
201610281120 TAF KSEA 281120Z 2812/2918 15004KT P6SM -RA SCT035 BKN060 OVC120
                       FM281500 13005KT P6SM BKN045 FM282100 04005KT
                       P6SM SCT070 BKN200=
201610280901 KSEA 280901Z 2809/2912 12006KT P6SM VCSH OVC070 FM281100 14006KT
                       P6SM -RA OVC060 FM281500 13005KT P6SM BKN045
                       FM282100 35005KT P6SM SCT070 BKN200=
201610280529 TAF KSEA 280529Z 2806/2912 14005KT P6SM -RA OVC050 FM280900 14005KT
                       P6SM VCSH SCT025 BKN040 OVC060 FM281600
                       13005KT P6SM BKN045 FM282100 35005KT P6SM
                       SCT070 BKN200=
201610280259 KSEA 280259Z 2803/2906 00000KT P6SM BKN035 OVC060
                      TEMPO 2804/2808 5SM -SHRA BR SCT020 BKN030
                       OVC050 FM280800 14005KT P6SM VCSH SCT025
                       BKN040 OVC060 FM281600 09005KT P6SM SCT050
                       BKN080 FM282100 01006KT P6SM SCT070 BKN200=
201610272337 TAF KSEA 272337Z 2800/2906 18007KT P6SM -SHRA SCT030 BKN050 OVC100
                       TEMPO 2802/2806 5SM -SHRA BR SCT020 BKN030
                       OVC050 FM280900 14005KT P6SM VCSH SCT025
                       BKN040 OVC060 FM281600 09005KT P6SM SCT050
                       BKN080 FM282100 01006KT P6SM SCT070 BKN200=
201610272120 KSEA 272120Z 2721/2824 21008KT P6SM VCSH SCT040 BKN060 OVC090
                      TEMPO 2722/2802 -SHRA FM280200 16005KT P6SM
                       -SHRA SCT030 BKN045 OVC070 FM280900 13005KT
                       P6SM SCT025 BKN040 OVC060 FM281600 09005KT
                       P6SM BKN050 BKN080 FM282200 35006KT P6SM
                       SCT070=
201610271734 TAF KSEA 271734Z 2718/2824 17007KT P6SM SCT050 BKN070 OVC120 FM272000
                       21008KT P6SM VCSH SCT035 BKN050 OVC090 FM280200
                       16005KT P6SM -SHRA SCT030 BKN045 OVC070
                       FM280900 13005KT P6SM SCT025 BKN040 OVC060
                       FM281600 09005KT P6SM BKN050 BKN080 FM282200
                       35006KT P6SM SCT070=
201610271516 KSEA 271516Z 2715/2818 17008KT P6SM BKN045 BKN060 OVC090 FM272000
                       19007KT P6SM VCSH SCT035 BKN050 OVC090 FM280300
                       17005KT P6SM -SHRA SCT030 BKN045 OVC080
                       FM280800 15005KT P6SM SCT025 BKN040 OVC060
                       FM281600 10005KT P6SM BKN050 BKN080=
201610271120 TAF KSEA 271120Z 2712/2818 14011KT P6SM SCT060 BKN180 FM271800
                       19006KT P6SM VCSH SCT035 BKN050 BKN110=
201610270904 KSEA 270904Z 2709/2812 14010KT P6SM BKN060 OVC100 FM271800 20006KT
                       P6SM VCSH SCT035 BKN050 BKN110=
201610270523 TAF KSEA 270523Z 2706/2812 18007KT P6SM -RA FEW015 SCT028 OVC070
                       TEMPO 2706/2709 5SM SHRA OVC028 FM270900
                       18008KT P6SM SCT035 BKN050 OVC110 FM271800
                       20006KT P6SM VCSH SCT035 BKN050 BKN110=
201610270316 KSEA 270316Z 2703/2806 17006KT P6SM -RA FEW045 OVC080
                      TEMPO 2703/2707 5SM SHRA OVC028 FM270900
                       18008KT P6SM SCT035 BKN050 OVC110 FM271800
                       20006KT P6SM VCSH SCT035 BKN050 BKN110 FM280000
                       17005KT P6SM -SHRA SCT035 OVC050=
201610262322 TAF KSEA 262322Z 2700/2806 16007KT P6SM -RA BKN035 OVC050 WS020/18030KT
                       TEMPO 2700/2703 3SM RA BR FEW005 OVC028
                       FM270300 18013KT P6SM -SHRA BKN035 OVC050
                       TEMPO 2703/2706 5SM SHRA OVC028 FM270900
                       18008KT P6SM SCT035 BKN050 OVC110
                      PROB30 2709/2715 -SHRA OVC035 FM271800 20006KT
                       P6SM SCT035 BKN050 BKN110
                      PROB30 2718/2724 -SHRA FM280000 17005KT P6SM
                       -SHRA SCT035 OVC050=
201610262110 KSEA 262110Z 2621/2724 12009KT 6SM -RA BR SCT035 OVC060 WS020/19040KT
                       TEMPO 2621/2624 4SM -RA BR BKN035 OVC060
                       FM270000 16009KT P6SM -SHRA SCT022 BKN035
                       OVC060 WS020/20035KT FM270300 18013KT P6SM
                       VCSH SCT022 BKN035 OVC060 FM271800 20006KT
                       P6SM SCT035 BKN060 BKN110
                      PROB30 2718/2724 -SHRA=
201610261745 TAF KSEA 261745Z 2618/2724 06009KT 4SM -RA BR SCT022 OVC035 WS020/17035KT
                       TEMPO 2618/2620 2SM RA BR BKN022 OVC035
                       FM262000 12009KT 6SM -RA BR SCT022 BKN035
                       OVC060 WS020/19040KT
                      TEMPO 2620/2624 BKN022 OVC035 FM270000 16009KT
                       P6SM -SHRA SCT022 BKN035 OVC060 WS020/20035KT
                       FM270300 18013KT P6SM VCSH SCT022 BKN035
                       OVC060
                      PROB30 2703/2709 -SHRA OVC022 FM271800 20006KT
                       P6SM SCT035 BKN060 BKN110
                      PROB30 2718/2724 -SHRA=
201610261609 KSEA 261609Z 2616/2718 09009KT 6SM -RA BR BKN035 OVC050 WS020/15025KT
                       TEMPO 2616/2618 3SM RA BR FM261800 09009KT
                       2SM RA BR BKN025 OVC035 WS020/18030KT FM262100
                       15011KT 6SM -SHRA SCT030 BKN045 FM270400
                       18008KT P6SM VCSH SCT025 BKN040=
201610261450 KSEA 261450Z 2615/2718 09009KT P6SM -RA SCT035 OVC050 FM261800
                       09009KT 2SM RA BR BKN025 OVC035 WS020/18030KT
                       FM262100 15011KT 6SM -SHRA SCT030 BKN045
                       FM270400 18008KT P6SM VCSH SCT025 BKN040=
201610261120 TAF KSEA 261120Z 2612/2718 05008KT P6SM FEW060 BKN080 OVC100 FM261300
                       06008KT P6SM -RA BKN060 OVC080 FM261500
                       07009KT 3SM RA BR SCT025 OVC035 FM261800
                       09009KT 2SM RA BR BKN025 OVC035 WS020/18030KT
                       FM262100 15011KT 6SM -SHRA SCT030 BKN045
                       FM270400 18008KT P6SM VCSH SCT025 BKN040=
201610260901 KSEA 260901Z 2609/2712 11006KT P6SM BKN070 OVC120 FM261300 06005KT
                       P6SM -RA BKN060 OVC080 FM261500 07009KT
                       3SM RA BR SCT025 OVC035 FM261800 09009KT
                       2SM RA BR BKN025 OVC035 WS020/18030KT FM262100
                       15011KT 6SM -SHRA SCT030 BKN045=
201610260523 TAF KSEA 260523Z 2606/2712 11006KT P6SM BKN070 OVC120 FM261100
                       06005KT P6SM -RA BKN060 OVC080 FM261500
                       07009KT 3SM RA BR SCT025 OVC035 FM261800
                       09009KT 2SM RA BR BKN025 OVC035 WS020/18030KT
                       FM262100 17012KT 6SM -SHRA SCT030 BKN045=
201610260304 KSEA 260304Z 2603/2706 12005KT P6SM SCT100 OVC200 FM261100 09010G18KT
                       P6SM -RA BKN060 OVC080 FM261500 10012G20KT
                       3SM RA BR SCT025 OVC035 FM262100 17014G22KT
                       6SM -SHRA SCT030 BKN045 FM270000 19011G18KT
                       P6SM VCSH SCT035 BKN080=
201610252338 TAF KSEA 252338Z 2600/2706 16008KT P6SM VCSH FEW035 SCT080 BKN120
                       FM260200 12005KT P6SM SCT100 OVC200 FM260900
                       09010G18KT P6SM -RA BKN060 OVC080 FM261300
                       10012G20KT 4SM RA BR SCT025 OVC040 FM261800
                       17014G22KT 6SM -SHRA SCT030 BKN045 FM270000
                       19011G18KT P6SM VCSH SCT035 BKN080=
201610252104 KSEA 252104Z 2521/2624 18014G22KT P6SM VCSH SCT060 BKN080 FM260200
                       15005KT P6SM SCT100 OVC200 FM260800 09010G18KT
                       P6SM -RA BKN050 OVC070 FM261200 10012G20KT
                       4SM RA BR SCT025 OVC040 FM261600 17014G22KT
                       P6SM -SHRA SCT030 BKN045=
201610251738 TAF KSEA 251738Z 2518/2624 18014G22KT P6SM VCSH SCT060 BKN080
                      TEMPO 2522/2601 -SHRA BKN060 FM260200 15005KT
                       P6SM SCT100 OVC200 FM261000 09010G18KT P6SM
                       -RA BKN050 OVC070 FM261300 10012G20KT 4SM
                       RA BR SCT025 OVC040 FM261700 17014G22KT
                       P6SM -SHRA SCT030 BKN045=
201610251516 KSEA 251516Z 2515/2618 16012KT P6SM BKN070 OVC120
                      TEMPO 2515/2518 -SHRA FM251900 16008KT P6SM
                       SCT070 BKN120 FM260400 08006KT P6SM BKN070
                       OVC120 FM261100 08006KT P6SM -RA OVC040=
201610251136 TAF KSEA 251136Z 2512/2618 13008KT P6SM BKN070 OVC120 FM251900
                       16008KT P6SM SCT070 BKN120 FM260400 08006KT
                       P6SM BKN070 OVC120 FM261100 08006KT P6SM
                       -RA OVC040=
201610250904 KSEA 250904Z 2509/2612 16008KT P6SM SCT070 BKN120 FM251600 16008KT
                       P6SM BKN070 OVC120 FM260400 11006KT P6SM
                       BKN070 OVC120=
201610250537 TAF KSEA 250537Z 2506/2612 16008KT P6SM SCT070 BKN120 FM251600
                       16008KT P6SM BKN070 OVC120 FM260400 11006KT
                       P6SM BKN070 OVC120=
201610250317 KSEA 250317Z 2503/2606 14010KT P6SM BKN070 OVC120 FM250800 14006KT
                       P6SM SCT070 BKN120 OVC200 FM251500 17012KT
                       P6SM BKN070 OVC120 FM260400 04006KT P6SM
                       BKN070 OVC120=
201610242320 TAF KSEA 242320Z 2500/2606 20008G14KT P6SM FEW025 SCT050 OVC100
                       TEMPO 2500/2503 -SHRA BKN025 OVC060 FM250500
                       15006KT P6SM SCT070 BKN120 OVC200 FM251500
                       17012KT P6SM BKN070 OVC120=
201610242101 KSEA 242101Z 2421/2524 19006KT P6SM FEW060 OVC100 FM250000 17006KT
                       P6SM -SHRA BKN070 OVC120 FM250400 15006KT
                       P6SM SCT070 OVC120 FM251500 17012KT P6SM
                       BKN070 OVC120=
201610241720 TAF KSEA 241720Z 2418/2524 13006KT P6SM FEW080 BKN120 OVC200 FM242000
                       17008KT P6SM SCT070 OVC120 FM250000 17006KT
                       P6SM -SHRA BKN070 OVC120 FM250400 15006KT
                       P6SM SCT070 OVC120 FM251500 17012KT P6SM
                       BKN070 OVC120=
201610241500 KSEA 241500Z 2415/2518 09008KT P6SM BKN100 OVC200 FM242100 16010KT
                       P6SM -SHRA SCT035 BKN060 OVC080 FM250300
                       18006KT P6SM SCT060 BKN100=
201610241135 TAF KSEA 241135Z 2412/2518 01006KT P6SM BKN120 FM242100 16010KT
                       P6SM -SHRA SCT035 BKN060 OVC080 FM250300
                       18006KT P6SM SCT060 BKN100=
201610240920 KSEA 240920Z 2409/2512 01006KT P6SM BKN120 FM241400 09006KT P6SM
                       BKN120 FM242100 16010KT P6SM -SHRA SCT035
                       BKN050 OVC080=
201610240536 TAF KSEA 240536Z 2406/2512 01006KT P6SM BKN120 FM241400 09006KT
                       P6SM BKN120 FM242100 16010KT P6SM -SHRA
                       SCT035 BKN050 OVC080=
201610240351 KSEA 240351Z 2404/2506 02006KT P6SM OVC100 FM241200 12008KT P6SM
                       BKN070 OVC100 FM242100 16011KT P6SM SCT045
                       BKN060 OVC090
                      TEMPO 2423/2503 -SHRA=
201610232338 TAF KSEA 232338Z 2400/2506 36006KT P6SM VCSH BKN060 OVC090 FM240300
                       02006KT P6SM OVC150 FM240600 06004KT P6SM
                       SCT090 OVC120 FM241200 12008KT P6SM BKN070
                       OVC100 FM242100 16011KT P6SM SCT045 BKN060
                       OVC090
                      TEMPO 2423/2503 -SHRA=
201610232104 KSEA 232104Z 2321/2424 31004KT P6SM SCT060 BKN090 FM232300 36005KT
                       P6SM BKN060 OVC090 FM240300 02006KT P6SM
                       OVC120 FM241200 12006KT P6SM BKN070 OVC100
                       FM242100 19008KT P6SM SCT045 BKN060 OVC090
                       TEMPO 2422/2424 -SHRA=
201610231737 TAF KSEA 231737Z 2318/2424 VRB03KT P6SM SCT060 BKN200 FM232300
                       36005KT P6SM VCSH BKN060 OVC090 FM240300
                       02006KT P6SM OVC120 FM241200 12006KT P6SM
                       BKN070 OVC100 FM242100 19008KT P6SM SCT045
                       BKN060 OVC090
                      TEMPO 2422/2424 -SHRA=
201610231508 KSEA 231508Z 2315/2418 15004KT P6SM SCT045 BKN060
                      TEMPO 2315/2316 -RA FM231800 VRB03KT P6SM
                       SCT050 BKN100 FM232300 36005KT P6SM BKN060
                       OVC090 FM240300 02005KT P6SM OVC120 FM241200
                       12006KT P6SM VCSH BKN050 OVC070=
201610231136 TAF KSEA 231136Z 2312/2418 11006KT P6SM BKN045 OVC060 FM231700
                       VRB03KT P6SM SCT050 BKN100 FM240000 VRB03KT
                       P6SM BKN070 OVC120 FM241700 12006KT P6SM
                       BKN045 OVC070=
201610230904 KSEA 230904Z 2309/2412 11006KT P6SM -SHRA BKN050 OVC080 FM231400
                       VRB03KT P6SM BKN040 BKN060 FM231800 34004KT
                       P6SM SCT045 SCT200 FM240000 02004KT P6SM
                       BKN070 OVC120=
201610230540 TAF KSEA 230540Z 2306/2412 16004KT P6SM -SHRA BKN050 OVC080 FM231400
                       16004KT P6SM BKN040 BKN060 FM231800 34004KT
                       P6SM SCT045 SCT200 FM240000 02004KT P6SM
                       BKN070 OVC120=
201610230349 KSEA 230349Z 2304/2406 00000KT P6SM BKN150 FM230600 VRB03KT P6SM
                       SCT070 BKN120 FM231000 18004KT P6SM -SHRA
                       BKN050 OVC070 FM231400 15004KT P6SM BKN040
                       BKN060 FM232000 34004KT P6SM SCT045 FM240000
                       02004KT P6SM BKN070 OVC120=
201610222338 TAF KSEA 222338Z 2300/2406 36004KT P6SM SCT150 BKN250 FM230300
                       13005KT P6SM SCT120 BKN200 FM230600 15006KT
                       P6SM SCT070 BKN120 FM231000 18004KT P6SM
                       -SHRA BKN050 OVC070 FM231400 15004KT P6SM
                       BKN040 BKN060 FM232000 34004KT P6SM SCT045
                       FM240000 02004KT P6SM BKN070 OVC120=
201610222101 KSEA 222101Z 2221/2324 36004KT P6SM FEW018 BKN250 FM230300 08003KT
                       P6SM BKN200 FM230600 15006KT P6SM SCT070
                       BKN150 FM231000 18004KT P6SM BKN050 OVC070
                       TEMPO 2310/2314 -SHRA FM231400 13004KT P6SM
                       BKN040 OVC060 FM231800 30003KT P6SM SCT045=
201610221736 TAF KSEA 221736Z 2218/2324 36005KT P6SM SCT250 FM230300 08003KT
                       P6SM BKN200 FM230600 15006KT P6SM SCT070
                       BKN150 FM231000 18004KT P6SM BKN050 OVC070
                       TEMPO 2310/2314 -SHRA FM231400 13004KT P6SM
                       BKN040 OVC060 FM231800 30003KT P6SM SCT045=
201610221607 KSEA 221607Z 2216/2318 24003KT 6SM BR SCT007 SCT018
                      TEMPO 2216/2217 3/4SM BR BKN001 FM221700
                       08004KT P6SM SCT018 FM221900 02004KT P6SM
                       BKN200 FM230600 12006KT P6SM OVC100 FM231100
                       12006KT P6SM -RA OVC045=
201610221443 KSEA 221443Z 2215/2318 13004KT P6SM VCFG SCT006 SCT015 FM221700
                       08004KT P6SM SCT018 FM221900 02004KT P6SM
                       BKN200 FM230600 12006KT P6SM OVC100 FM231100
                       12006KT P6SM -RA OVC045=
201610221134 TAF KSEA 221134Z 2212/2318 18006KT P6SM BKN022 FM221500 VRB03KT
                       P6SM SCT025 FM222000 02004KT P6SM SCT200
                       FM230000 02004KT P6SM BKN200 FM230600 12006KT
                       P6SM OVC100 FM231100 12006KT P6SM -RA OVC045=
201610220904 KSEA 220904Z 2209/2312 16006KT P6SM BKN022 FM221200 14006KT P6SM
                       SCT025 SCT200 FM221900 02004KT P6SM SCT200
                       FM230000 02004KT P6SM BKN200 FM230600 12006KT
                       P6SM OVC100 FM231000 12006KT P6SM -RA OVC045=
201610220540 TAF KSEA 220540Z 2206/2312 16006KT P6SM BKN022 OVC040 FM221200
                       14006KT P6SM SCT025 SCT200 FM221900 02004KT
                       P6SM SCT200 FM230000 02004KT P6SM BKN200
                       FM230600 12006KT P6SM OVC100 FM231000 12006KT
                       P6SM -RA OVC045=
201610220323 KSEA 220323Z 2203/2306 18010KT P6SM SCT060 BKN100 FM220500 18006KT
                       P6SM SCT025 BKN040 FM220900 18006KT P6SM
                       SCT012 BKN020 FM221200 16005KT 6SM BR BKN012
                       OVC020 FM221800 10004KT P6SM SCT020 SCT200
                       FM222000 02004KT P6SM BKN200=
201610212330 TAF KSEA 212330Z 2200/2306 23007KT P6SM -SHRA SCT040 BKN060 OVC110
                       TEMPO 2200/2204 5SM -SHRA BR BKN035 OVC060
                       FM220400 20006KT P6SM VCSH SCT018 BKN035
                       FM220800 19005KT P6SM SCT012 BKN020 FM221200
                       16005KT 6SM BR BKN012 OVC020 FM221800 10004KT
                       P6SM SCT020 SCT200 FM222000 02004KT P6SM
                       BKN200=
201610212106 KSEA 212106Z 2121/2224 18007KT P6SM SCT040 BKN200 FM220000 19007KT
                       P6SM -SHRA SCT030 BKN040 OVC080
                      TEMPO 2201/2203 5SM -SHRA BR BKN030 FM220400
                       20006KT P6SM VCSH SCT018 BKN035 FM220800
                       19005KT P6SM SCT012 BKN020 FM221200 16005KT
                       6SM BR BKN012 OVC020 FM221800 10004KT P6SM
                       SCT020 SCT200 FM222000 02004KT P6SM BKN200=
201610211739 TAF KSEA 211739Z 2118/2224 18007KT P6SM FEW025 SCT040 BKN200 FM220000
                       19007KT P6SM -SHRA SCT030 BKN040 OVC080
                       FM220400 20006KT P6SM VCSH SCT018 BKN035
                       FM220800 19005KT P6SM SCT012 BKN020 FM221200
                       16005KT 6SM BR BKN012 OVC020 FM221800 10004KT
                       P6SM SCT020 SCT200 FM222000 02004KT P6SM
                       BKN200=
201610211514 KSEA 211514Z 2115/2218 17006KT P6SM SCT025 BKN050 BKN250 FM211800
                       18007KT P6SM SCT025 BKN050 FM212300 20005KT
                       P6SM -RA SCT025 OVC050 FM220300 17005KT
                       P6SM SCT025 OVC050 FM221000 17005KT 4SM
                       BR BKN012 OVC025=
201610211120 TAF KSEA 211120Z 2112/2218 12006KT P6SM SCT025 BKN050 BKN070
                      TEMPO 2112/2116 BKN020 OVC050 FM211800 18007KT
                       P6SM SCT025 BKN050 FM212300 20005KT P6SM
                       -RA SCT025 OVC050 FM220300 17005KT P6SM
                       SCT025 OVC050 FM221000 17005KT 4SM BR BKN012
                       OVC025=
201610210844 KSEA 210844Z 2109/2212 15005KT P6SM BKN020 BKN200 FM211200 15004KT
                       5SM BR BKN015 BKN200 FM211800 20007KT P6SM
                       SCT025 BKN080 FM212300 20007KT P6SM -RA
                       SCT025 OVC050=
201610210755 KSEA 210755Z 2108/2212 17006KT P6SM SCT012 BKN200
                      TEMPO 2112/2116 5SM BR BKN012 BKN200 FM211800
                       20007KT P6SM SCT025 BKN080 FM212300 20007KT
                       P6SM -RA SCT025 OVC050=
201610210522 TAF KSEA 210522Z 2106/2212 15003KT P6SM SCT018
                      TEMPO 2106/2108 BKN018 FM210800 15003KT P6SM
                       OVC015 FM211200 17005KT 4SM BR SCT005 OVC012
                       TEMPO 2113/2117 BKN005 OVC012 FM211800 20007KT
                       P6SM SCT025 BKN080 FM212300 20007KT P6SM
                       -RA SCT025 OVC050=
201610210301 KSEA 210301Z 2103/2206 19007KT P6SM FEW019 SCT100 FM210700 17005KT
                       P6SM BKN015 FM211200 16004KT 4SM BR BKN005
                       OVC012 FM211800 20008KT P6SM SCT025 BKN080
                       FM212300 20008KT P6SM -RA FEW030 OVC050=
201610202324 TAF KSEA 202324Z 2100/2206 21010KT P6SM SCT025 BKN080
                      TEMPO 2100/2102 BKN025 OVC080 FM210200 20008KT
                       P6SM FEW030 SCT080 FM210700 17005KT P6SM
                       BKN015 FM211200 16004KT P6SM SCT007 OVC012
                       FM211800 20008KT P6SM SCT025 BKN080 FM212300
                       20008KT P6SM -RA FEW030 OVC050=
201610202104 KSEA 202104Z 2021/2124 22010G16KT P6SM SCT018 BKN120
                      TEMPO 2021/2023 BKN018 BKN120 FM210100 20008KT
                       P6SM FEW025 SCT050 BKN150 FM210500 16006KT
                       P6SM SCT050 BKN200=
201610201725 TAF KSEA 201725Z 2018/2124 21009KT 5SM -RA BR SCT009 BKN020 OVC080
                       TEMPO 2018/2020 2SM -RA BR BKN009 OVC020
                       FM202000 20008KT P6SM SCT030 BKN045 FM210500
                       16006KT P6SM SCT050 BKN200=
201610201501 KSEA 201501Z 2015/2118 VRB04KT 4SM -RA BR SCT003 BKN018 OVC028
                       TEMPO 2015/2018 2SM RA BKN003 OVC012 FM201800
                       20010KT P6SM -SHRA SCT010 BKN022 OVC040
                       FM210000 20008KT P6SM VCSH SCT030 BKN045
                       FM211200 14006KT P6SM SCT050 BKN200=
201610201302 KSEA 201302Z 2013/2118 15008KT 4SM -RA SCT005 BKN010 OVC020
                      TEMPO 2014/2018 2SM RA BKN004 OVC010 FM201800
                       20010KT P6SM -SHRA SCT010 BKN022 OVC040
                       FM210000 20008KT P6SM VCSH SCT030 BKN045
                       FM211200 14006KT P6SM SCT050 BKN200=
201610201134 TAF KSEA 201134Z 2012/2118 15012KT 4SM -RA SCT018 OVC040 FM201400
                       15008KT 4SM -RA SCT006 BKN015 OVC025
                      TEMPO 2014/2018 2SM RA BKN006 OVC015 FM201800
                       20010KT P6SM -SHRA SCT010 BKN022 OVC040
                       FM210000 20008KT P6SM VCSH SCT030 BKN045
                       FM211200 14006KT P6SM SCT050 BKN200=
201610200911 KSEA 200911Z 2009/2112 VRB03KT 5SM -RA SCT006 BKN015 OVC025 FM201400
                       16006KT 3SM -RA BKN006 OVC015 FM201900 20010KT
                       P6SM -SHRA SCT010 BKN022 OVC040 FM210000
                       20008KT P6SM VCSH SCT030 BKN045=
201610200538 TAF KSEA 200538Z 2006/2112 VRB03KT P6SM -RA OVC040 FM201000 16006KT
                       P6SM -RA OVC040 FM201400 16010KT 4SM -RA
                       BR OVC012 FM202000 20010KT P6SM -SHRA BKN025
                       OVC045 FM210000 20008KT P6SM VCSH SCT030
                       BKN045=
201610200324 KSEA 200324Z 2003/2106 20008KT P6SM -RA OVC050 FM201400 16010KT
                       4SM -RA BR OVC012 FM202000 20010KT P6SM
                       -SHRA BKN025 OVC050 FM210000 20008KT P6SM
                       VCSH SCT030 BKN060=
201610192335 TAF KSEA 192335Z 2000/2106 27006KT P6SM OVC080 FM200300 16008KT
                       P6SM -RA OVC040 FM201000 16010KT P6SM -RA
                       OVC020 FM201400 16010KT 4SM -RA BR OVC012
                       FM202000 20010KT P6SM -SHRA BKN025 OVC050
                       FM210000 20008KT P6SM VCSH SCT030 BKN060=
201610191724 TAF KSEA 191724Z 1918/2024 18005KT P6SM FEW035 FEW060 BKN250 FM192200
                       16006KT P6SM SCT040 BKN100 OVC200 FM200300
                       16010KT P6SM -RA OVC040 FM201100 16010KT
                       P6SM -RA OVC022 FM201600 16010KT P6SM -RA
                       OVC012=
201610191505 KSEA 191505Z 1915/2018 13005KT P6SM FEW030 FEW060 BKN250 FM191800
                       16006KT P6SM SCT100 BKN200 FM192200 16006KT
                       P6SM SCT040 BKN100 OVC200 FM200300 16010KT
                       P6SM -RA OVC040 FM201100 16010KT P6SM -RA
                       OVC022 FM201600 16010KT P6SM -RA OVC012=
201610191301 KSEA 191301Z 1913/2018 12006KT P6SM VCFG FEW022 FEW060 SCT200 FM191800
                       16006KT P6SM SCT100 BKN200 FM192200 16006KT
                       P6SM SCT040 BKN100 OVC200 FM200300 16010KT
                       P6SM -RA OVC040 FM201100 16010KT P6SM -RA
                       OVC022 FM201600 16010KT P6SM -RA OVC012=
201610191128 TAF KSEA 191128Z 1912/2018 16006KT P6SM SCT022 FM191800 16006KT
                       P6SM SCT100 BKN200 FM192200 16006KT P6SM
                       SCT040 BKN100 OVC200 FM200300 16010KT P6SM
                       -RA OVC040 FM201100 16010KT P6SM -RA OVC022
                       FM201600 16010KT P6SM -RA OVC012=
201610190926 KSEA 190926Z 1909/2012 16006KT P6SM SCT022
                      TEMPO 1909/1913 BKN022 FM191300 16006KT P6SM
                       SCT015 FM191800 16006KT P6SM SCT100 BKN200
                       FM192100 16006KT P6SM SCT040 BKN100 OVC200
                       FM200100 16010KT P6SM -RA OVC035 FM201100
                       16010KT P6SM -RA OVC022=
201610190536 TAF KSEA 190536Z 1906/2012 18008KT P6SM SCT020 SCT060 FM190900
                       16006KT P6SM OVC006 FM191800 16006KT P6SM
                       SCT006 BKN015 BKN150 FM191900 13006KT P6SM
                       FEW010 SCT030 BKN150 FM192100 16010KT P6SM
                       BKN040 OVC100 FM200100 16010KT P6SM -RA
                       OVC035 FM201100 16010KT P6SM -RA OVC022=
201610182320 TAF KSEA 182320Z 1900/2006 20010KT P6SM VCSH SCT025 BKN060
                      TEMPO 1900/1901 -SHRA BKN025 BKN060 FM190400
                       16005KT P6SM SCT030 SCT060 FM191000 16005KT
                       P6SM SCT010 BKN025
                      TEMPO 1912/1916 VRB03KT 3SM BR OVC006 FM191800
                       15006KT P6SM FEW010 SCT030 BKN150 FM192100
                       16010KT P6SM BKN040 OVC100 FM200300 16010KT
                       P6SM -RA OVC035=
201610182020 KSEA 182020Z 1820/1924 21013G20KT P6SM VCSH FEW010 SCT025 BKN060
                       FM190000 19007KT P6SM SCT045 BKN080 FM190600
                       16005KT P6SM SCT040 SCT080 FM191100 16005KT
                       P6SM SCT010 BKN035
                      TEMPO 1912/1915 VRB03KT 5SM BR BKN008 BKN035
                       FM191600 15006KT P6SM FEW010 SCT040 BKN150
                       FM192100 17009KT P6SM BKN040 OVC100=
201610181746 TAF KSEA 181746Z 1818/1924 20010KT P6SM VCSH SCT025 BKN040 BKN080
                       FM190000 18006KT P6SM SCT045 BKN080 FM190600
                       16005KT P6SM SCT040 SCT080 FM191100 16005KT
                       P6SM SCT010 BKN035
                      TEMPO 1912/1915 VRB03KT 5SM BR BKN008 BKN035
                       FM191600 15006KT P6SM FEW010 SCT040 BKN150
                       FM192100 17009KT P6SM BKN040 OVC100=
201610181658 KSEA 181658Z 1817/1918 19010KT P6SM VCSH FEW010 SCT025 BKN080
                      TEMPO 1817/1818 -SHRA SCT010 BKN025 BKN080
                       FM181800 20010KT P6SM VCSH SCT025 BKN040
                       BKN080 FM190000 18006KT P6SM SCT045 BKN080
                       FM190600 16005KT P6SM SCT040 SCT080 FM191100
                       16005KT P6SM SCT010 BKN035
                      TEMPO 1912/1915 VRB03KT 5SM BR BKN008 BKN035
                       FM191600 15007KT P6SM FEW010 SCT040 BKN150=
201610181504 KSEA 181504Z 1815/1918 18008KT P6SM VCSH FEW010 BKN025 OVC060 FM181800
                       20008KT P6SM VCSH SCT025 BKN040 BKN060 FM190300
                       17006KT P6SM SCT045 BKN080 FM190600 15004KT
                       P6SM SCT040 SCT080 FM191200 15004KT 5SM
                       BR BKN008 OVC035=
201610181200 KSEA 181200Z 1812/1918 17008KT P6SM -SHRA SCT030 OVC060
                      TEMPO 1812/1816 BKN030 OVC060 FM181900 20008KT
                       P6SM VCSH SCT025 BKN040 BKN060 FM190300
                       17006KT P6SM SCT045 BKN080 FM190600 15004KT
                       P6SM SCT040 SCT080 FM191200 15004KT 5SM
                       BR BKN008 OVC035=
201610181121 TAF KSEA 181121Z 1812/1918 17008KT P6SM -SHRA FEW016 BKN023 OVC060
                       FM181900 20008KT P6SM VCSH SCT025 BKN040
                       BKN060 FM190300 17006KT P6SM SCT045 BKN080
                       FM190600 15004KT P6SM SCT040 SCT080 FM191200
                       15004KT 5SM BR BKN008 OVC035=
201610180803 KSEA 180803Z 1808/1912 17004KT P6SM -SHRA BKN018 BKN025 OVC050
                       FM181900 20008KT P6SM VCSH SCT025 BKN040
                       BKN060 FM190300 17006KT P6SM SCT045 BKN080=
201610180528 TAF KSEA 180528Z 1806/1912 15007KT P6SM VCSH SCT045 BKN120
                      TEMPO 1806/1808 -SHRA BKN035 BKN050 FM180800
                       15007KT P6SM -SHRA BKN035 OVC050 FM181200
                       18008KT P6SM -SHRA BKN025 OVC040 FM181900
                       20008KT P6SM VCSH SCT025 BKN040 BKN060 FM190300
                       17006KT P6SM SCT045 BKN080=
201610180307 KSEA 180307Z 1803/1906 18009KT P6SM SCT035 SCT100 BKN200
                      TEMPO 1803/1807 -SHRA BKN035 BKN050 FM181200
                       18010KT P6SM BKN025 OVC040 FM181900 18010KT
                       P6SM SCT025 BKN040 BKN060 FM190300 15008KT
                       P6SM SCT045 BKN080=
201610172338 TAF KSEA 172338Z 1800/1906 18012KT P6SM SCT045 BKN070 FM181200
                       18010KT P6SM BKN025 OVC040 FM181900 18010KT
                       P6SM SCT025 BKN040 BKN060 FM190300 15008KT
                       P6SM SCT045 BKN080=
201610172114 KSEA 172114Z 1721/1824 18014KT P6SM -SHRA SCT025 BKN045 BKN060
                       FM180900 18010KT P6SM BKN025 OVC040 FM181900
                       18010KT P6SM SCT025 BKN040 BKN060=
201610171740 TAF KSEA 171740Z 1718/1824 18010KT P6SM -SHRA BKN025 BKN045 FM172300
                       18010KT P6SM -SHRA SCT025 BKN045 BKN060
                       FM180900 18010KT P6SM BKN025 OVC040 FM181900
                       18010KT P6SM SCT025 BKN040 BKN060=
201610171510 KSEA 171510Z 1715/1818 18008KT P6SM VCSH FEW020 OVC029
                      TEMPO 1715/1719 -SHRA BKN020 OVC029 FM171900
                       21012KT P6SM -SHRA SCT025 BKN040 OVC060
                       FM180100 19006KT P6SM BKN040 OVC060=
201610171313 KSEA 171313Z 1713/1818 17008KT P6SM VCSH FEW010 SCT028 OVC040
                      TEMPO 1713/1717 -SHRA FEW010 BKN028 OVC040
                       FM171900 21012KT P6SM -SHRA SCT025 BKN040
                       OVC060 FM180100 19006KT P6SM BKN040 OVC060=
201610171120 TAF KSEA 171120Z 1712/1818 18010KT P6SM SCT015 BKN025 OVC040
                      TEMPO 1712/1716 -SHRA SCT010 OVC020 FM171900
                       21012KT P6SM -SHRA SCT025 BKN040 OVC060
                       FM180100 19006KT P6SM BKN040 OVC060=
201610170900 KSEA 170900Z 1709/1812 20006KT P6SM -SHRA SCT025 BKN040 OVC060
                       FM171200 18010KT P6SM SCT015 BKN025 OVC040
                       FM171900 21013KT P6SM -SHRA SCT025 BKN040
                       OVC060 FM180100 19006KT P6SM BKN040 OVC060=
201610170525 TAF KSEA 170525Z 1706/1812 20006KT P6SM -SHRA SCT025 BKN040 OVC060
                       FM171200 18006KT P6SM SCT015 BKN025 OVC040
                       FM171900 21012KT P6SM -SHRA SCT025 BKN040
                       OVC060 FM180100 19006KT P6SM BKN040 OVC060=
201610170258 KSEA 170258Z 1703/1806 20006KT P6SM -SHRA SCT025 BKN040 OVC060
                       FM171200 18006KT P6SM SCT015 BKN025 OVC040
                       FM171900 21012KT P6SM -SHRA SCT025 BKN040
                       OVC060=
201610162339 TAF KSEA 162339Z 1700/1806 20006KT P6SM -SHRA SCT025 BKN040 OVC060
                       FM171200 18006KT P6SM SCT015 BKN025 OVC040
                       FM171900 18012KT P6SM -SHRA SCT025 BKN040
                       OVC060=
201610162129 KSEA 162129Z 1621/1724 18006KT P6SM -SHRA SCT025 BKN040 OVC060
                       FM171200 18006KT P6SM SCT015 BKN025 OVC040
                       FM171900 18008KT P6SM -SHRA SCT025 BKN040
                       OVC060=
201610161733 TAF KSEA 161733Z 1618/1724 17012KT P6SM -SHRA SCT025 BKN040 OVC060
                       FM171200 18008KT P6SM SCT015 BKN025 OVC040
                       FM171900 18008KT P6SM -SHRA SCT025 BKN040
                       OVC060=
201610161518 KSEA 161518Z 1615/1718 17012KT P6SM -SHRA SCT025 BKN040 OVC060
                       FM162200 18008KT P6SM -SHRA SCT030 BKN040
                       FM171100 18008KT P6SM OVC030=
201610161208 KSEA 161208Z 1612/1718 14009KT P6SM VCSH SCT035 OVC060
                      TEMPO 1612/1616 -SHRA FM161600 19015G22KT
                       5SM -SHRA BR SCT030 BKN040 BKN050 FM162200
                       18008KT P6SM -SHRA SCT030 BKN040 FM171100
                       18008KT P6SM OVC030=
201610161120 TAF KSEA 161120Z 1612/1718 17010KT P6SM SCT040 BKN050 FM161600
                       19015G22KT 5SM -SHRA BR SCT030 BKN040 BKN050
                       FM162200 18008KT P6SM -SHRA SCT030 BKN040
                       FM171100 18008KT P6SM OVC030=
201610160901 KSEA 160901Z 1609/1712 19012KT P6SM SCT030 BKN045 BKN080 FM161400
                       19015G22KT 5SM -SHRA BR SCT030 BKN040 BKN050
                       FM162200 18008KT P6SM -SHRA SCT030 BKN040=
201610160520 TAF KSEA 160520Z 1606/1712 19015KT P6SM VCSH SCT030 BKN050 OVC070
                       FM160800 19012KT P6SM -SHRA SCT030 BKN045
                       BKN070 FM161400 19015G22KT 5SM -SHRA BR
                       SCT030 BKN040 BKN050 FM162200 18008KT P6SM
                       SCT030 BKN040=
201610160259 KSEA 160259Z 1603/1706 20017G26KT P6SM SCT015 BKN080 OVC100
                      TEMPO 1603/1605 -SHRA SCT010 BKN020 OVC050
                       FM160500 19018G26KT P6SM -SHRA SCT030 BKN045
                       BKN070 FM160800 19012KT P6SM -SHRA SCT030
                       BKN045 BKN070 FM162300 18008KT P6SM SCT030
                       BKN045=
201610160159 KSEA 160159Z 1602/1706 20020G35KT P6SM -SHRA BKN045 OVC070
                      TEMPO 1602/1605 3SM TSRA BR SCT020 BKN035CB
                       OVC050 FM160500 19018G26KT P6SM -SHRA SCT030
                       BKN045 BKN070 FM160800 19012KT P6SM -SHRA
                       SCT030 BKN045 BKN070 FM162300 16008KT P6SM
                       SCT030 BKN045=
201610152339 TAF KSEA 152339Z 1600/1706 15015G25KT P6SM -SHRA BKN045 OVC070
                       WS020/18040KT FM160100 19020G35KT P6SM -SHRA
                       BKN045 OVC070 FM160500 19018G26KT P6SM -SHRA
                       SCT030 BKN045 BKN070 FM160800 19012KT P6SM
                       -SHRA SCT030 BKN045 BKN070 FM162300 16008KT
                       P6SM SCT030 BKN045=
201610152128 KSEA 152128Z 1521/1624 10012KT P6SM -RA SCT030 OVC045 WS020/15030KT
                       FM160000 15015G22KT P6SM -RA SCT020 OVC035
                       WS020/18040KT FM160200 19020G35KT P6SM -RA
                       SCT020 OVC035 FM160500 19018G26KT P6SM -SHRA
                       SCT030 BKN045 BKN070 FM160800 19012KT P6SM
                       BKN045 BKN070=
201610151751 TAF KSEA 151751Z 1518/1624 10015KT P6SM -RA SCT030 OVC045 WS020/15030KT
                       FM160000 15015G22KT P6SM -RA SCT020 OVC035
                       WS020/18040KT FM160200 19020G35KT P6SM -RA
                       SCT020 OVC035 FM160500 19018G26KT P6SM -SHRA
                       SCT030 BKN045 BKN070 FM160800 19012KT P6SM
                       BKN045 BKN070=
201610151508 KSEA 151508Z 1515/1618 10012KT P6SM -RA SCT030 OVC045 WS020/15030KT
                       FM152200 15016G26KT 5SM -RA SCT010 BKN022
                       OVC035 WS020/18040KT FM160200 19025G40KT
                       P6SM -RA SCT020 BKN035 OVC050 FM160500 19020G30KT
                       P6SM -SHRA SCT030 BKN050 FM160700 19011KT
                       P6SM BKN050 OVC070=
201610151315 KSEA 151315Z 1513/1618 10012KT P6SM -RA BKN035 OVC050 WS020/19030KT
                       TEMPO 1513/1515 BKN028 OVC050 FM151500 10014KT
                       6SM -RA BR BKN028 OVC040 WS020/15030KT FM152200
                       15022G32KT 5SM -RA SCT010 BKN022 OVC035
                       WS020/18040KT FM160200 19032G42KT P6SM -RA
                       SCT020 BKN035 OVC050 FM160500 19020G29KT
                       P6SM -SHRA SCT030 BKN050 FM160700 19011KT
                       P6SM BKN050 OVC070=
201610151120 TAF KSEA 151120Z 1512/1618 16008KT P6SM SCT030 BKN060 OVC070
                      TEMPO 1512/1514 -SHRA SCT030 OVC050 FM151400
                       12007KT P6SM VCSH SCT030 BKN050 OVC080 FM151700
                       09012KT 5SM -RA BR SCT040 OVC060 FM152000
                       08016G25KT P6SM -RA SCT045 OVC060 WS020/18045KT
                       FM160000 18028G42KT 6SM -SHRA BR SCT025
                       BKN045 FM160500 19020G29KT P6SM -SHRA SCT030
                       BKN050 FM160700 19011KT P6SM BKN050 OVC070=
201610150856 KSEA 150856Z 1509/1612 16008KT P6SM SCT020 BKN030 OVC040 FM151400
                       12007KT P6SM VCSH SCT030 BKN050 OVC080 FM151700
                       09012KT 5SM -RA BR SCT040 OVC060 FM152000
                       08016G25KT P6SM -RA SCT045 OVC060 WS020/18045KT
                       FM160000 18028G42KT 6SM -SHRA BR SCT025
                       BKN045 WS020/18045KT FM160500 19020G29KT
                       P6SM -SHRA SCT030 BKN050 FM160700 19013KT
                       P6SM BKN050 OVC070=
201610150624 KSEA 150624Z 1506/1612 18008KT P6SM -RA BKN040 OVC050
                      TEMPO 1507/1511 4SM RA BR OVC030 FM151400
                       12007KT P6SM VCSH SCT030 BKN050 OVC080 FM151700
                       09012KT 5SM -RA BR SCT040 OVC060 FM152000
                       08016G25KT P6SM -RA SCT045 OVC060 WS020/18045KT
                       FM160000 18028G42KT 6SM -SHRA BR SCT025
                       BKN045 WS020/18045KT FM160500 19020G29KT
                       P6SM -SHRA SCT030 BKN050=
201610150520 TAF KSEA 150520Z 1506/1612 18008KT P6SM SCT040 OVC050
                      TEMPO 1507/1510 -SHRA FM151400 12007KT P6SM
                       VCSH SCT030 BKN050 OVC080 FM151700 09012KT
                       5SM -RA BR SCT040 OVC060 FM152000 08016G25KT
                       P6SM -RA SCT045 OVC060 WS020/18045KT FM160000
                       18028G42KT 6SM -SHRA BR SCT025 BKN045 WS020/18045KT
                       FM160500 19020G29KT P6SM -SHRA SCT030 BKN050=
201610150257 KSEA 150257Z 1503/1606 17012KT P6SM -SHRA SCT030 BKN060
                      TEMPO 1503/1506 5SM SHRA BR BKN030 OVC050
                       FM150700 18008KT P6SM BKN020 OVC040
                      TEMPO 1507/1510 -SHRA FM151400 12007KT P6SM
                       VCSH SCT030 BKN050 OVC080 FM151700 09014G22KT
                       5SM RA BR SCT040 OVC060 FM152100 08016G25KT
                       P6SM -RA SCT045 OVC060 WS020/18045KT FM160000
                       18028G42KT 6SM -SHRA BR SCT025 BKN045=
201610142338 TAF KSEA 142338Z 1500/1606 20016G24KT P6SM -SHRA SCT030 BKN050
                       TEMPO 1502/1506 5SM SHRA BR BKN030 OVC050
                       FM150700 18008KT P6SM BKN020 OVC040
                      TEMPO 1507/1510 -SHRA FM151400 12007KT P6SM
                       VCSH SCT030 BKN050 OVC080 FM151700 09014G22KT
                       5SM RA BR SCT040 OVC060 FM152100 08016G25KT
                       P6SM -RA SCT045 OVC060 WS020/18045KT FM160000
                       18028G42KT 6SM -SHRA BR SCT025 BKN045=
201610142101 KSEA 142101Z 1421/1524 19022G34KT P6SM -SHRA SCT025 BKN050 OVC200
                       FM150000 21014G22KT P6SM -SHRA SCT030 BKN050
                       FM150500 17009KT P6SM -RA BKN020 OVC040
                       FM151400 12007KT P6SM -RA SCT030 BKN050
                       OVC080 FM151800 09015G25KT 5SM RA BR SCT040
                       OVC060 FM152100 08018G28KT 6SM -RA BR SCT045
                       OVC060 WS020/18045KT=
201610141736 TAF KSEA 141736Z 1418/1524 20025G40KT P6SM -SHRA SCT030 BKN050
                       OVC200
                      TEMPO 1418/1421 3SM SHRA BR BKN030 OVC050
                       FM150000 21014G22KT P6SM -SHRA SCT030 BKN050
                       FM150500 17009KT P6SM -RA BKN020 OVC040
                       FM151400 12007KT P6SM -RA SCT030 BKN050
                       OVC080 FM151800 09015G25KT 5SM RA BR SCT040
                       OVC060 FM152100 08018G28KT 6SM -RA BR SCT045
                       OVC060 WS020/18045KT=
201610141612 KSEA 141612Z 1416/1518 15016KT P6SM -SHRA SCT025 BKN050 OVC200
                       FM141700 21024G33KT 5SM -SHRA BR BKN025
                       OVC040 FM150400 19013KT P6SM -RA BKN020
                       OVC040 FM150900 17009KT P6SM -RA BKN020
                       OVC040=
201610141120 TAF KSEA 141120Z 1412/1518 18013KT P6SM -RA SCT040 BKN060 OVC080
                       FM141300 18012G22KT P6SM -RA SCT010 BKN030
                       OVC060 FM141700 19024G33KT 5SM -RA BR BKN025
                       OVC040 FM150400 19013KT P6SM -RA BKN020
                       OVC040 FM150900 17009KT P6SM -RA BKN020
                       OVC040=
201610140900 KSEA 140900Z 1409/1512 18013KT P6SM -RA SCT020 BKN025 OVC045 FM141000
                       19015G25KT P6SM -RA SCT015 OVC030 FM141300
                       18012G22KT 5SM -RA BR SCT008 BKN020 OVC030
                       FM141700 19024G33KT 5SM -RA BR BKN025 OVC040
                       FM150400 19013KT P6SM -RA BKN020 OVC040=
201610140526 TAF KSEA 140526Z 1406/1512 18013KT 4SM -RA BR SCT015 BKN025 OVC045
                       FM140700 17020G35KT 4SM -RA BR SCT015 BKN025
                       OVC040 FM140900 19015G25KT P6SM -RA SCT015
                       OVC030 FM141300 18012G22KT 5SM -RA BR SCT008
                       BKN020 OVC030 FM141700 19024G33KT 5SM -RA
                       BR BKN025 OVC040 FM150400 19013KT P6SM -RA
                       BKN020 OVC040=
201610140259 TAF AMD KSEA 140259Z 1403/1506 13014KT 5SM -RA BR SCT030 OVC040
                       FM140400 17020G35KT P6SM -RA SCT015 BKN025
                       OVC040 FM140900 19015G25KT P6SM -RA SCT015
                       OVC030 FM141300 18012G22KT 5SM -RA BR SCT008
                       BKN020 OVC030 FM141700 19020G30KT 5SM -RA
                       BR BKN025 OVC040=
201610132337 TAF KSEA 132337Z 1400/1506 13014KT 5SM -RA BR SCT030 OVC060
                      TEMPO 1400/1404 BKN030 OVC060 FM140400 17020G35KT
                       P6SM -RA SCT015 BKN025 OVC040 FM140900 19015G25KT
                       P6SM -RA SCT015 OVC030 FM141300 18012G22KT
                       5SM -RA BR SCT008 BKN020 OVC030 FM141700
                       19020G30KT 5SM -RA BR BKN025 OVC040=
201610132118 KSEA 132118Z 1321/1424 13008KT 5SM -RA BR SCT015 OVC030 FM140000
                       13014KT 5SM -RA BR SCT010 BKN015 OVC025
                       FM140400 17020G30KT P6SM -RA SCT015 BKN025
                       OVC040 FM140900 19015G25KT P6SM -RA SCT015
                       OVC030 FM141300 18012G22KT 5SM -RA BR SCT008
                       BKN015 OVC025 FM141700 19020G30KT 5SM -RA
                       BR BKN025 OVC040=
201610131739 TAF KSEA 131739Z 1318/1424 12007KT 5SM -RA BR SCT006 BKN012 OVC024
                       TEMPO 1318/1322 3SM -RA BR BKN006 OVC012
                       FM140100 16012G22KT 5SM -RA BR SCT012 OVC025
                       FM140400 19022G35KT P6SM -RA SCT015 OVC035
                       FM140900 20019G27KT P6SM -RA SCT015 OVC035=
201610131458 KSEA 131458Z 1315/1418 14007KT 6SM -RA BR SCT006 OVC030
                      TEMPO 1315/1318 BKN006 OVC030 FM131800 18012KT
                       6SM -RA BR BKN006 BKN020 OVC030 FM140100
                       16015G24KT 4SM -RA BR OVC030 FM140600 19022G31KT
                       5SM -RA BR OVC040 FM140900 20019G27KT P6SM
                       -RA BKN050=
201610131429 KSEA 131429Z 1314/1418 14007KT 6SM -RA BR SCT006 OVC030 FM131800
                       18012KT 6SM -RA BR SCT006 BKN020 OVC030
                       FM140100 16015G24KT 4SM -RA BR OVC030 FM140600
                       19022G31KT 5SM -RA BR OVC040 FM140900 20019G27KT
                       P6SM -RA BKN050=
201610131120 TAF KSEA 131120Z 1312/1418 13010KT P6SM -RA OVC035 FM131400 15012KT
                       4SM -RA BR BKN015 OVC025 FM132000 14010KT
                       4SM -RA BR OVC030 FM140100 16015G24KT 4SM
                       -RA BR OVC030 FM140600 19022G31KT 5SM -RA
                       BR OVC040 FM140900 20019G27KT P6SM -RA BKN050=
201610130907 KSEA 130907Z 1309/1412 15008KT P6SM -RA BKN045 OVC060 FM131000
                       15010KT P6SM -RA OVC035 FM131400 15010KT
                       4SM -RA BR BKN015 OVC025 FM132000 14010KT
                       4SM -RA BR OVC030 FM140100 16015G24KT 4SM
                       -RA BR OVC030 FM140600 19022G31KT 5SM -RA
                       BR OVC040=
201610130524 TAF KSEA 130524Z 1306/1412 16005KT P6SM SCT060 OVC100 FM130700
                       15008KT P6SM -RA BKN050 OVC080 FM131000
                       15010KT P6SM -RA OVC035 FM131400 15010KT
                       4SM -RA BR BKN015 OVC025 FM132000 14010KT
                       4SM -RA BR OVC030 FM140100 16015G24KT 4SM
                       -RA BR OVC030=
201610130258 KSEA 130258Z 1303/1406 VRB05KT P6SM OVC100 FM130500 15008KT P6SM
                       -RA BKN050 OVC080 FM131000 15010KT P6SM
                       -RA OVC035 FM131400 15010KT 4SM -RA BR BKN015
                       OVC025 FM132000 14010KT 4SM -RA BR OVC030
                       FM140100 16015G24KT 4SM -RA BR OVC030=
201610122340 TAF KSEA 122340Z 1300/1406 VRB05KT P6SM BKN100 OVC200 FM130200
                       15007KT P6SM BKN100 OVC150 FM130500 15008KT
                       P6SM -RA BKN050 OVC080 FM131000 15010KT
                       P6SM -RA OVC035 FM131400 15010KT 4SM -RA
                       BR BKN015 OVC025 FM132000 14010KT P6SM -RA
                       OVC030=
201610121742 TAF KSEA 121742Z 1218/1324 11006KT P6SM SCT200 FM122200 18008KT
                       P6SM OVC200 FM130200 15010KT P6SM BKN100
                       OVC150 FM130600 14010KT P6SM -RA BKN050
                       OVC080 FM131200 16010KT P6SM -RA OVC035
                       FM131600 16010KT 6SM -RA BR OVC025=
201610121145 TAF KSEA 121145Z 1212/1318 09005KT P6SM BKN200 FM122000 24005KT
                       P6SM FEW110 BKN200 FM130300 14005KT P6SM
                       BKN110 OVC200 FM130600 14008KT P6SM SCT060
                       OVC110
                      PROB30 1306/1309 -RA FM130900 14008KT P6SM
                       -RA SCT030 OVC060 FM131200 16010KT 6SM -RA
                       BR SCT015 OVC030=
201610120917 KSEA 120917Z 1209/1312 10007KT P6SM FEW200 FM122000 24005KT P6SM
                       FEW110 BKN200 FM130300 14005KT P6SM BKN110
                       OVC200 FM130600 14009KT P6SM SCT060 OVC110
                       PROB30 1306/1309 -RA FM130900 14009KT P6SM
                       -RA SCT025 OVC060=
201610120545 TAF KSEA 120545Z 1206/1312 08007KT P6SM FEW200 FM122000 24005KT
                       P6SM FEW110 BKN200 FM130300 14005KT P6SM
                       BKN110 OVC200 FM130600 14009KT P6SM SCT060
                       OVC110
                      PROB30 1306/1309 -RA FM130900 14009KT P6SM
                       -RA SCT025 OVC060=
201610120307 KSEA 120307Z 1203/1306 05006KT P6SM SKC FM121100 VRB03KT P6SM VCFG
                       SCT200 FM121900 12007KT P6SM FEW100 BKN200
                       FM130300 15008KT P6SM SCT030 OVC060=
201610120150 KSEA 120150Z 1202/1306 36007KT P6SM SKC FM120400 05006KT P6SM FEW200
                       FM121100 VRB03KT P6SM VCFG SCT200 FM121900
                       12007KT P6SM FEW100 BKN200 FM130300 15008KT
                       P6SM SCT030 OVC060=
201610112320 TAF KSEA 112320Z 1200/1306 31007KT P6SM SKC FM120400 05006KT P6SM
                       FEW200 FM121100 VRB03KT P6SM VCFG SCT200
                       FM121900 12007KT P6SM FEW100 BKN200 FM130300
                       15008KT P6SM SCT030 OVC060=
201610112101 KSEA 112101Z 1121/1224 30007KT P6SM FEW030 FM120400 05006KT P6SM
                       FEW200 FM121200 07005KT P6SM VCFG SCT200
                       FM121900 12007KT P6SM FEW100 BKN200=
201610111721 TAF KSEA 111721Z 1118/1224 36007KT P6SM FEW060 FM111900 35007KT
                       P6SM SKC FM120400 05006KT P6SM FEW200 FM121200
                       07005KT P6SM VCFG SCT200 FM121900 12007KT
                       P6SM FEW100 BKN200=
201610111131 TAF KSEA 111131Z 1112/1218 03008KT P6SM SKC FM111900 35007KT P6SM
                       SKC FM120300 05006KT P6SM SCT200 FM121200
                       07005KT P6SM VCFG SCT200=
201610110919 KSEA 110919Z 1109/1212 03007KT P6SM SKC FM111900 35007KT P6SM SKC
                       FM120300 05006KT P6SM SCT200=
201610110537 TAF KSEA 110537Z 1106/1212 36009KT P6SM SKC FM110900 03007KT P6SM
                       VCFG SKC FM111700 03007KT P6SM SKC FM111900
                       35007KT P6SM SKC FM120300 05006KT P6SM SCT200=
201610110323 KSEA 110323Z 1103/1206 36010KT P6SM SKC FM110600 02009KT P6SM SKC
                       FM111200 02005KT P6SM VCFG SCT002 FM111600
                       36006KT P6SM SKC=
201610110127 KSEA 110127Z 1101/1206 36010KT P6SM SKC FM110300 02007KT P6SM SKC
                       FM111200 02005KT P6SM VCFG SCT002 FM111600
                       36006KT P6SM SKC=
201610102320 TAF KSEA 102320Z 1100/1206 01006KT P6SM SKC FM111200 02005KT P6SM
                       VCFG SCT002 FM111600 36006KT P6SM SKC=
201610102122 KSEA 102122Z 1021/1124 34005KT P6SM FEW028 FM110000 02005KT P6SM
                       SKC FM111200 01004KT P6SM VCFG SKC
                      TEMPO 1112/1116 1/2SM FG OVC001=
201610101734 TAF KSEA 101734Z 1018/1124 00000KT P6SM SCT045
                      TEMPO 1018/1019 5SM BR BKN008 BKN045 FM102000
                       33005KT P6SM SKC FM110000 02005KT P6SM SKC
                       FM111200 01004KT P6SM VCFG SKC
                      TEMPO 1112/1116 1/2SM FG OVC001=
201610101525 KSEA 101525Z 1015/1118 00000KT 1/2SM FG OVC001 FM101700 03004KT
                       5SM BR BKN008 FM101900 02006KT P6SM FEW012
                       FM102100 36010KT P6SM SKC FM110200 03007KT
                       P6SM SKC FM111200 06006KT P6SM VCFG SKC=
201610101435 KSEA 101435Z 1015/1118 00000KT 3SM BR SCT001 SCT050
                      TEMPO 1015/1016 1/4SM FG VV001 FM101600 VRB03KT
                       5SM BR SCT005 SCT050
                      TEMPO 1016/1017 3SM BR FM101700 03004KT P6SM
                       SCT010 FM101900 02006KT P6SM FEW012 FM102100
                       36010KT P6SM SKC FM110200 03007KT P6SM SKC
                       FM111200 06006KT P6SM VCFG SKC=
201610101432 KSEA 101432Z 1015/1118 00000KT P6SM SCT001 SCT050
                      TEMPO 1015/1016 1/4SM FG VV001 FM101600 VRB03KT
                       5SM BR SCT005 SCT050
                      TEMPO 1016/1017 3SM BR FM101700 03004KT P6SM
                       SCT010 FM101900 02006KT P6SM FEW012 FM102100
                       36010KT P6SM SKC FM110200 03007KT P6SM SKC
                       FM111200 06006KT P6SM VCFG SKC=
201610101247 KSEA 101247Z 1013/1118 00000KT P6SM SCT007 BKN060
                      TEMPO 1013/1016 1 1/2SM BR BKN007 OVC060
                       FM101900 02006KT P6SM FEW012 FM102100 36010KT
                       P6SM SKC FM110200 03007KT P6SM SKC FM111200
                       06006KT P6SM VCFG SKC=
201610101154 KSEA 101154Z 1012/1118 VRB03KT 3SM BR SCT001 OVC045
                      TEMPO 1012/1014 1/4SM FG VV001 FM101400 VRB03KT
                       5SM BR SCT007 SCT045
                      TEMPO 1014/1017 1 1/2SM BR BKN007 BKN045
                       FM101900 02006KT P6SM FEW012 FM102100 36010KT
                       P6SM SKC FM110200 03007KT P6SM SKC FM111200
                       06006KT P6SM VCFG SKC=
201610101130 TAF KSEA 101130Z 1012/1118 VRB03KT P6SM BCFG FEW007 BKN045 FM101400
                       VRB03KT 5SM BR SCT007 SCT045
                      TEMPO 1014/1017 1 1/2SM BR BKN007 BKN045
                       FM101900 02006KT P6SM FEW012 FM102100 36010KT
                       P6SM SKC FM110200 03007KT P6SM SKC FM111200
                       06006KT P6SM VCFG SKC=
201610100904 TAF AMD KSEA 100904Z 1009/1112 VRB03KT P6SM FEW035 SCT060 FM101200
                       VRB03KT P6SM BCFG SCT007 SCT060 FM101700
                       02006KT P6SM SCT012 FM101900 36010KT P6SM
                       SKC FM110200 03007KT P6SM SKC=
201610100541 TAF KSEA 100541Z 1006/1112 35008KT P6SM -RA FEW009 SCT018 OVC035
                       TEMPO 1006/1008 4SM RA FEW009 BKN018 OVC035
                       FM100900 02005KT P6SM SCT035 BKN060 FM101200
                       VRB03KT P6SM BCFG SCT007 SCT060 FM101700
                       02006KT P6SM SCT012 FM101900 36010KT P6SM
                       SKC FM110200 03007KT P6SM SKC=
201610100333 KSEA 100333Z 1004/1106 33006KT P6SM -RA SCT018 OVC040
                      TEMPO 1004/1006 5SM RA BKN018 OVC040 FM100600
                       02004KT P6SM FEW015 SCT040 BKN150 FM101000
                       05004KT 5SM BR SCT008 FM101100 04004KT 1SM
                       BR BKN002 OVC008
                      TEMPO 1011/1015 1/2SM FG FM101900 34008KT
                       P6SM FEW012 FM102000 35010KT P6SM SKC=
201610100312 KSEA 100312Z 1003/1106 33004KT P6SM VCSH OVC045
                      TEMPO 1003/1005 -RA FM100600 02004KT P6SM
                       FEW015 SCT040 BKN150 FM101000 05004KT 5SM
                       BR SCT008 FM101100 04004KT 1SM BR BKN002
                       OVC008
                      TEMPO 1011/1015 1/2SM FG FM101900 34008KT
                       P6SM FEW012 FM102000 35010KT P6SM SKC=
201610100310 KSEA 100310Z 1003/1106 33004KT P6SM VCSH OVC045 FM100600 02004KT
                       P6SM FEW015 SCT040 BKN150 FM101000 05004KT
                       5SM BR SCT008 FM101100 04004KT 1SM BR BKN002
                       OVC008
                      TEMPO 1011/1015 1/2SM FG FM101900 34008KT
                       P6SM FEW012 FM102000 35010KT P6SM SKC=
201610092323 TAF KSEA 092323Z 1000/1106 33006KT P6SM VCSH SCT020 BKN040 BKN140
                       TEMPO 1000/1004 -RA BKN018 FM100600 02004KT
                       P6SM FEW015 SCT040 BKN150 FM101000 05004KT
                       5SM BR SCT008 FM101100 04004KT 1SM BR BKN002
                       OVC008
                      TEMPO 1011/1015 1/2SM FG FM101900 34008KT
                       P6SM FEW012 FM102000 35010KT P6SM SKC=
201610092103 KSEA 092103Z 0921/1024 34006KT P6SM VCSH SCT020 SCT040 BKN120 FM100600
                       02004KT P6SM SCT030 SCT150 FM100900 04004KT
                       6SM BR FEW005 FM101200 04004KT 2SM BR OVC005
                       FM101900 34008KT P6SM FEW020 FM102100 35010KT
                       P6SM SKC=
201610091721 TAF KSEA 091721Z 0918/1024 36006KT P6SM SCT045 BKN070 BKN120 FM092100
                       34006KT P6SM VCSH BKN040 OVC080 FM100600
                       02004KT P6SM SCT030 SCT150 FM100900 04004KT
                       6SM BR FEW005 FM101200 04004KT 2SM BR OVC005
                       FM101900 34008KT P6SM FEW020 FM102100 35010KT
                       P6SM SKC=
201610091508 KSEA 091508Z 0915/1018 35005KT P6SM FEW007 SCT045 BKN070 FM091800
                       34006KT P6SM VCSH BKN040 OVC070 FM100000
                       34006KT P6SM SCT015 BKN030 OVC150 FM100600
                       34004KT P6SM SCT030 SCT150 FM100900 04004KT
                       6SM BR FEW005 FM101200 04004KT 2SM BR OVC005=
201610091145 TAF KSEA 091145Z 0912/1018 01004KT P6SM FEW005 SCT015 OVC035
                      TEMPO 0912/0916 FEW005 BKN015 OVC035 FM091800
                       24006KT P6SM -RA BKN015 OVC030 FM100000
                       24006KT P6SM SCT015 BKN030 OVC150 FM100600
                       34004KT P6SM SCT030 SCT150 FM100900 04004KT
                       6SM BR FEW005 FM101200 04004KT 2SM BR OVC005=
201610090906 KSEA 090906Z 0909/1012 02013KT P6SM SCT005 OVC012
                      TEMPO 0909/0912 BKN005 OVC012 FM091200 04005KT
                       6SM -DZ BR BKN005 OVC015 FM091800 VRB03KT
                       P6SM BKN015 OVC030 FM092100 23006KT P6SM
                       SCT015 BKN030 OVC050 FM100000 23006KT P6SM
                       SCT030 BKN050 OVC090 FM100600 VRB03KT P6SM
                       SCT025 BKN050=
201610090808 KSEA 090808Z 0908/1012 02012KT P6SM BKN003 OVC010 FM091000 04005KT
                       6SM -DZ BR BKN005 OVC015 FM091800 VRB03KT
                       P6SM BKN015 OVC030 FM092100 23006KT P6SM
                       SCT015 BKN030 OVC050 FM100000 23006KT P6SM
                       SCT030 BKN050 OVC090 FM100600 VRB03KT P6SM
                       SCT025 BKN050=
201610090735 KSEA 090735Z 0908/1012 23009KT 5SM -RA BR BKN003 OVC010 FM090830
                       36009KT 5SM -RA BR BKN003 OVC010 FM091000
                       02004KT 6SM -DZ BR BKN006 OVC015 FM091800
                       VRB03KT P6SM BKN015 OVC030 FM092100 23006KT
                       P6SM SCT015 BKN030 OVC050 FM100000 23006KT
                       P6SM SCT030 BKN050 OVC090 FM100600 VRB03KT
                       P6SM SCT025 BKN050=
201610090622 KSEA 090622Z 0906/1012 20014KT 2SM -DZ BR BKN005 OVC012 FM090700
                       01010G19KT 3SM RA BR BKN005 OVC013 FM090900
                       01010KT 6SM -DZ BR BKN005 OVC012 FM091200
                       03005KT P6SM BKN009 OVC015 FM091800 VRB03KT
                       P6SM BKN015 OVC030 FM092100 23006KT P6SM
                       SCT015 BKN030 OVC050 FM100000 23006KT P6SM
                       SCT030 BKN050 OVC090 FM100600 VRB03KT P6SM
                       SCT025 BKN050=
201610090607 KSEA 090607Z 0906/1012 20013KT 3SM -RA BR BKN005 OVC012 FM090900
                       01010KT 6SM -DZ BR BKN005 OVC012 FM091200
                       03005KT P6SM BKN009 OVC015 FM091800 VRB03KT
                       P6SM BKN015 OVC030 FM092100 23006KT P6SM
                       SCT015 BKN030 OVC050 FM100000 23006KT P6SM
                       SCT030 BKN050 OVC090 FM100600 VRB03KT P6SM
                       SCT025 BKN050=
201610090558 TAF KSEA 090558Z 0906/1012 20008KT 3SM -RA BR BKN005 OVC012 FM090900
                       01010KT 6SM -DZ BR BKN005 OVC012 FM091200
                       03005KT P6SM BKN009 OVC015 FM091800 VRB03KT
                       P6SM BKN015 OVC030 FM092100 23006KT P6SM
                       SCT015 BKN030 OVC050 FM100000 23006KT P6SM
                       SCT030 BKN050 OVC090 FM100600 VRB03KT P6SM
                       SCT025 BKN050=
201610090427 KSEA 090427Z 0904/1006 20010KT P6SM -RA SCT007 BKN015 OVC030
                      TEMPO 0904/0906 4SM -RA BR BKN007 OVC015
                       FM090600 21010KT P6SM -RA FEW008 OVC015
                       FM091000 04005KT 4SM BR BKN008 FM091800
                       34006KT P6SM BKN025=
201610090407 KSEA 090407Z 0904/1006 20010KT P6SM -RA SCT009 BKN015 OVC030
                      TEMPO 0904/0906 5SM -RA BR FM090600 21010KT
                       P6SM -RA FEW008 OVC015 FM091000 04005KT
                       4SM BR BKN008 FM091800 34006KT P6SM BKN025=
201610090317 KSEA 090317Z 0903/1006 21012KT P6SM -RA BKN015 OVC030
                      TEMPO 0903/0906 5SM -RA BR FM090600 21010KT
                       P6SM -RA FEW008 OVC015 FM091000 04005KT
                       4SM BR BKN008 FM091800 34006KT P6SM BKN025=
201610090138 KSEA 090138Z 0902/1006 19013G20KT 6SM -RA BR FEW008 OVC015
                      TEMPO 0902/0904 2SM -RA BR FM090400 19010KT
                       6SM -RA BR FEW008 OVC015 FM091000 04005KT
                       4SM BR BKN008 FM091800 34006KT P6SM BKN025=
201610082329 TAF KSEA 082329Z 0900/1006 20012KT 5SM -RA BR SCT015 OVC020
                      TEMPO 0900/0904 20012G20KT 3SM -RA BR SCT008
                       BKN015 FM091000 04005KT 4SM BR BKN008 FM091800
                       34006KT P6SM BKN025=
201610081959 KSEA 081959Z 0820/0924 18015G22KT P6SM -RA SCT020 OVC030 FM082300
                       19010KT 6SM -RA BR SCT015 OVC030 FM090000
                       21010KT 5SM -RA BR SCT007 BKN015 OVC030
                       FM091000 04005KT 4SM BR BKN007 FM091800
                       34006KT P6SM SCT020=
201610081958 KSEA 081958Z 0820/0924 18015KT P6SM -RA SCT020 OVC030 FM082300
                       19010KT 6SM -RA BR SCT015 OVC030 FM090000
                       21010KT 5SM -RA BR SCT007 BKN015 OVC030
                       FM091000 04005KT 4SM BR BKN007 FM091800
                       34006KT P6SM SCT020=
201610081731 TAF KSEA 081731Z 0818/0924 21011KT P6SM VCSH SCT030 BKN045 OVC060
                       TEMPO 0818/0821 -SHRA BKN030 FM082300 19010KT
                       6SM -RA BR SCT015 OVC030 FM090000 21010KT
                       5SM -RA BR SCT007 BKN015 OVC030 FM091000
                       04005KT 4SM BR BKN007 FM091800 34006KT P6SM
                       SCT020=
201610081513 KSEA 081513Z 0815/0918 16007KT P6SM -RA SCT005 OVC025 FM081800
                       19013KT P6SM -RA SCT015 BKN030 OVC050 FM082100
                       19010KT 6SM -RA BR SCT015 OVC030 FM090000
                       21010KT 5SM -RA BR SCT007 BKN015 OVC030
                       FM091200 23006KT 4SM -DZ BR BKN007 OVC015=
201610081215 KSEA 081215Z 0812/0918 16004KT 3SM -RA BR SCT006 BKN015 OVC030
                       TEMPO 0812/0816 3/4SM -RA BR BKN006 OVC015
                       FM081800 19013KT P6SM -RA SCT015 BKN030
                       OVC050 FM082100 19010KT 6SM -RA BR SCT015
                       OVC030 FM090000 21010KT 5SM -RA BR SCT007
                       BKN015 OVC030 FM091200 23006KT 4SM -DZ BR
                       BKN007 OVC015=
201610081149 KSEA 081149Z 0812/0918 14005KT 4SM -RA BR FEW005 SCT015 OVC028
                       TEMPO 0812/0816 1SM -RA BR SCT005 OVC015
                       FM081800 19013KT P6SM -RA SCT015 BKN030
                       OVC050 FM082100 19010KT 6SM -RA BR SCT015
                       OVC030 FM090000 21010KT 5SM -RA BR SCT007
                       BKN015 OVC030 FM091200 23006KT 4SM -DZ BR
                       BKN007 OVC015=
201610081131 TAF KSEA 081131Z 0812/0918 13007KT P6SM -RA FEW005 SCT015 OVC028
                       TEMPO 0812/0816 5SM -RA BR FEW005 BKN015
                       OVC028 FM081800 19013KT P6SM -RA SCT015
                       BKN030 OVC050 FM082100 19010KT 6SM -RA BR
                       SCT015 OVC030 FM090000 21010KT 5SM -RA BR
                       SCT007 BKN015 OVC030 FM091200 23006KT 4SM
                       -DZ BR BKN007 OVC015=
201610080908 TAF AMD KSEA 080908Z 0809/0912 10004KT P6SM -RA FEW018 BKN035 OVC050
                       FM081200 17006KT 5SM -RA BR FEW009 BKN015
                       OVC030 FM081800 19013KT 5SM -RA BR SCT006
                       OVC015 FM090300 21010KT 5SM -RA BR SCT009
                       OVC020 FM090900 21009KT P6SM -RA BKN020
                       OVC035=
201610080536 TAF KSEA 080536Z 0806/0912 VRB03KT P6SM -RA FEW035 OVC070 FM080900
                       10004KT P6SM -RA SCT015 BKN035 OVC050 FM081200
                       17006KT 5SM -RA BR FEW009 BKN015 OVC030
                       FM081800 19013KT 5SM -RA BR SCT006 OVC015
                       FM090300 21010KT 5SM -RA BR SCT009 OVC020
                       FM090900 21009KT P6SM -RA BKN020 OVC035=
201610080304 KSEA 080304Z 0803/0906 18005KT P6SM SCT035 SCT050 OVC080
                      TEMPO 0803/0806 -RA BKN035 OVC050 FM080600
                       11004KT P6SM -RA SCT015 BKN035 OVC050 FM081100
                       16007KT 4SM -RA BR OVC015 FM081800 18010KT
                       P6SM VCSH SCT020 OVC030 FM090000 20010KT
                       P6SM -RA OVC020=
201610072325 TAF KSEA 072325Z 0800/0906 21008KT P6SM FEW025 SCT040 BKN200 FM080700
                       11004KT P6SM -RA OVC040 FM081100 16007KT
                       4SM -RA BR OVC015 FM081800 18010KT P6SM
                       VCSH SCT020 OVC030 FM090000 20010KT P6SM
                       -RA OVC020=
201610072104 KSEA 072104Z 0721/0824 21012KT P6SM FEW020 SCT030 BKN200 FM080600
                       11004KT P6SM -RA OVC040 FM081100 16007KT
                       4SM -RA BR OVC015=
201610071721 TAF KSEA 071721Z 0718/0824 19015G25KT P6SM VCSH FEW020 SCT035 BKN060
                       TEMPO 0718/0720 -SHRA BKN030 FM072000 21010KT
                       P6SM SCT035 BKN060 FM080600 11004KT P6SM
                       -RA OVC040 FM081100 16007KT 4SM -RA BR OVC015=
201610071435 KSEA 071435Z 0715/0818 19014G24KT P6SM VCSH SCT008 SCT030 BKN060
                       TEMPO 0716/0719 -SHRA BKN030 FM071900 21010KT
                       P6SM VCSH SCT030 BKN060 FM080600 11004KT
                       P6SM -RA OVC040 FM081100 16007KT 4SM -RA
                       BR OVC015=
201610071130 TAF KSEA 071130Z 0712/0818 19018G27KT P6SM -RA OVC015 FM071600
                       19016G24KT P6SM VCSH BKN017 BKN030 OVC050
                       FM072200 21010KT P6SM VCSH SCT030 BKN060
                       FM080600 11004KT P6SM -RA OVC040 FM081100
                       16007KT 4SM -RA BR OVC015=
201610070905 TAF AMD KSEA 070905Z 0709/0812 18014G22KT P6SM VCSH BKN030 OVC040
                       TEMPO 0709/0713 5SM -SHRA BR OVC015 FM071800
                       20012G20KT P6SM BKN030 FM072200 22012G20KT
                       P6SM VCSH SCT030 BKN060=
201610070530 TAF KSEA 070530Z 0706/0812 16008KT 6SM -RA BR OVC045 FM070900 17014G22KT
                       4SM -RA BR OVC015 FM071500 20018G27KT 4SM
                       BR OVC015 FM071800 20012KT P6SM BKN030 FM072200
                       22012G20KT P6SM VCSH SCT030 BKN060=
201610062322 TAF KSEA 062322Z 0700/0806 21008KT P6SM -RA FEW035 BKN070 OVC140
                       FM070300 16011KT P6SM -RA SCT030 BKN050
                       OVC070 FM070900 17014G22KT 4SM -RA BR OVC015
                       FM071500 20018G27KT 4SM BR OVC015 FM071800
                       20012KT P6SM BKN030=
201610062103 KSEA 062103Z 0621/0724 21008KT P6SM SCT035 BKN070 OVC140 FM070300
                       16011KT P6SM -RA BKN050 OVC120 FM070900
                       17014G22KT 4SM -RA BR OVC015 FM071500 20018G27KT
                       4SM BR OVC015=
201610061721 TAF KSEA 061721Z 0618/0724 18009KT P6SM FEW020 SCT035 BKN070 FM062000
                       21008KT P6SM SCT035 BKN070 FM070300 16011KT
                       P6SM -RA BKN050 OVC120 FM070900 17014G22KT
                       4SM -RA BR OVC015 FM071500 20018G27KT 4SM
                       BR OVC015=
201610061503 KSEA 061503Z 0615/0718 18009KT P6SM FEW015 SCT030 BKN040
                      TEMPO 0615/0618 BKN030 FM062000 21008KT P6SM
                       SCT030 BKN050 FM070300 16011KT P6SM -RA
                       OVC050 FM070900 17014G22KT 4SM -RA BR OVC015
                       FM071500 20018G27KT 4SM BR OVC015=
201610061125 TAF KSEA 061125Z 0612/0718 21009KT P6SM OVC012 FM061800 20008KT
                       P6SM SCT015 BKN022 OVC040 FM062000 21008KT
                       P6SM SCT025 BKN050 FM070300 16011KT P6SM
                       -RA OVC050 FM070900 17014G22KT 4SM -RA BR
                       OVC015 FM071500 20018G27KT 4SM BR OVC015=
201610060905 KSEA 060905Z 0609/0712 22004KT P6SM BKN010 OVC035 FM061200 19005KT
                       P6SM BKN022 BKN150
                      TEMPO 0612/0616 OVC015 FM061800 20008KT P6SM
                       SCT022 BKN050 FM070300 16011KT P6SM -RA
                       OVC050=
201610060540 TAF KSEA 060540Z 0606/0712 29003KT P6SM FEW030 BKN060 FM060700
                       19005KT P6SM SCT030 BKN060 FM061200 19005KT
                       P6SM BKN022 BKN150
                      TEMPO 0612/0616 OVC015 FM061800 20008KT P6SM
                       SCT022 BKN050 FM070300 16011KT P6SM -RA
                       OVC050=
201610060305 KSEA 060305Z 0603/0706 32003KT P6SM FEW070 BKN080 FM060700 19005KT
                       P6SM SCT025 BKN050 BKN250 FM061000 19005KT
                       P6SM SCT015 OVC022
                      TEMPO 0612/0616 OVC015 FM061800 18008KT P6SM
                       BKN035 BKN050 OVC120 FM062000 18008KT P6SM
                       BKN050 OVC120 FM070200 16008KT P6SM -RA
                       OVC040=
201610052320 TAF KSEA 052320Z 0600/0706 31008KT P6SM FEW035 SCT060 BKN250 FM060300
                       34005KT P6SM FEW035 BKN060 BKN250 FM060700
                       19005KT P6SM SCT025 BKN050 BKN250 FM061000
                       19005KT P6SM SCT015 OVC022
                      TEMPO 0612/0616 OVC015 FM061800 18008KT P6SM
                       BKN035 BKN050 OVC120 FM062000 18008KT P6SM
                       BKN050 OVC120 FM070200 16008KT P6SM -RA
                       OVC040=
201610052110 KSEA 052110Z 0521/0624 30009KT P6SM FEW035 SCT050 BKN250 FM060600
                       18005KT P6SM SCT025 BKN050 BKN250 FM061000
                       18005KT P6SM SCT015 OVC022
                      TEMPO 0612/0616 OVC015 FM061800 18008KT P6SM
                       BKN035 OVC100=
201610051720 TAF KSEA 051720Z 0518/0624 VRB04KT P6SM -SHRA SCT035 BKN060 BKN080
                       FM052100 34006KT P6SM VCSH BKN060 BKN080
                       FM060600 18005KT P6SM VCSH SCT025 OVC030
                       FM061000 18005KT P6SM VCSH SCT015 OVC022
                       TEMPO 0612/0616 OVC015 FM061800 18008KT
                       P6SM BKN035 OVC100=
201610051505 KSEA 051505Z 0515/0618 08005KT P6SM VCSH SCT025 SCT035 OVC060
                      TEMPO 0515/0518 VRB04KT -RA BKN025 BKN035
                       OVC050 FM051800 03005KT P6SM VCSH SCT030
                       BKN050 OVC070 FM052100 34006KT P6SM SCT060
                       BKN100 FM060600 18005KT P6SM VCSH SCT022
                       OVC040 FM061200 18007KT P6SM VCSH OVC015=
201610051130 TAF KSEA 051130Z 0512/0618 12004KT P6SM VCSH SCT025 BKN060
                      TEMPO 0513/0517 -SHRA BKN025 OVC050 FM051800
                       03005KT P6SM VCSH SCT030 BKN050 OVC070 FM060000
                       29006KT P6SM SCT060 BKN100 FM060600 19005KT
                       P6SM VCSH SCT022 OVC040 FM061200 18007KT
                       P6SM VCSH OVC018=
201610050900 KSEA 050900Z 0509/0612 13005KT P6SM SCT060 BKN210
                      TEMPO 0509/0512 -SHRA BKN030 OVC050 FM051200
                       09006KT P6SM VCSH SCT035 BKN060 OVC210
                      TEMPO 0512/0516 -SHRA BKN030 OVC050 FM052000
                       35004KT P6SM VCSH SCT030 BKN050 FM060800
                       19005KT P6SM VCSH OVC022=
201610050525 TAF KSEA 050525Z 0506/0612 14008KT P6SM BKN045 OVC060 FM050800
                       15005KT P6SM -SHRA OVC035 FM051300 04005KT
                       4SM -RA BR BKN015 OVC030 FM052000 35004KT
                       P6SM VCSH SCT030 BKN050 FM060800 19005KT
                       P6SM VCSH OVC022=
201610042329 TAF KSEA 042329Z 0500/0606 14009KT P6SM BKN035 OVC050 FM050400
                       15005KT P6SM -SHRA OVC035 FM051300 04005KT
                       4SM -RA BR BKN015 OVC030 FM052000 35004KT
                       P6SM VCSH SCT030 BKN050=
201610042100 KSEA 042100Z 0421/0524 19011KT P6SM -SHRA BKN040 BKN060 FM050400
                       15005KT P6SM VCSH OVC040 FM051300 04005KT
                       P6SM VCSH BKN015 OVC030=
201610041724 TAF KSEA 041724Z 0418/0524 18012KT P6SM VCSH FEW012 SCT040 BKN060
                       FM042000 18009KT P6SM -SHRA BKN040 BKN060
                       FM050400 15005KT P6SM VCSH OVC040 FM051300
                       04005KT P6SM VCSH BKN015 OVC030=
201610041504 KSEA 041504Z 0415/0518 16005KT P6SM SCT028 BKN035 BKN070
                      TEMPO 0415/0418 -SHRA BKN028 OVC035 FM041800
                       16008KT P6SM -SHRA OVC030 FM042200 18009KT
                       P6SM -SHRA BKN035 OVC050 FM050600 16006KT
                       P6SM VCSH OVC040 FM051500 04005KT 4SM BR
                       VCSH OVC015=
201610041130 TAF KSEA 041130Z 0412/0518 18003KT P6SM -RA BKN028 OVC035
                      TEMPO 0412/0416 SCT030 OVC040 FM041800 19008KT
                       P6SM -SHRA OVC030 FM042200 20009KT P6SM
                       -SHRA BKN035 OVC050 FM050600 16006KT P6SM
                       VCSH OVC040 FM051500 04005KT 4SM BR VCSH
                       OVC015=
201610040900 KSEA 040900Z 0409/0512 14005KT P6SM -RA OVC027
                      TEMPO 0411/0415 4SM -RA BR SCT015 OVC025
                       FM041500 18007KT P6SM VCSH BKN015 OVC025
                       FM042100 20009KT P6SM -RA BKN025 OVC045=
201610040525 TAF KSEA 040525Z 0406/0512 22006KT P6SM -RA BKN045 OVC060 FM040900
                       17006KT 4SM -RA BR SCT015 OVC025 FM041500
                       18007KT P6SM VCSH BKN015 OVC025 FM042100
                       20009KT P6SM -RA BKN025 OVC045=
201610040104 KSEA 040104Z 0401/0506 19005KT P6SM FEW030 OVC110 FM040300 18005KT
                       P6SM -RA SCT035 OVC060 FM040900 17006KT
                       4SM -RA BR SCT015 OVC025 FM041500 18007KT
                       P6SM VCSH BKN015 OVC025 FM042100 20009KT
                       P6SM -RA BKN025 OVC045=
201610032327 TAF KSEA 032327Z 0400/0506 19007KT P6SM FEW030 OVC140 FM040300
                       18005KT P6SM -RA SCT035 OVC060 FM040900
                       17006KT 4SM -RA BR SCT015 OVC025 FM041500
                       18007KT P6SM VCSH BKN015 OVC025 FM042100
                       20009KT P6SM -RA BKN025 OVC045=
201610032057 KSEA 032057Z 0321/0424 21012KT P6SM FEW020 SCT060 BKN170 FM032200
                       23008KT P6SM BKN050 BKN070 BKN120 FM040200
                       18005KT P6SM -RA SCT035 OVC060 FM040900
                       17006KT P6SM -RA SCT015 OVC025 FM041500
                       18007KT 5SM BR VCSH BKN015 OVC025 FM041800
                       20009KT P6SM -RA BKN025 OVC035=
201610031743 TAF KSEA 031743Z 0318/0424 21008KT P6SM FEW020 BKN050 BKN200 FM032200
                       23008KT P6SM BKN050 BKN070 BKN120 FM040400
                       18005KT P6SM -RA SCT035 OVC060 FM040900
                       17006KT P6SM -RA SCT015 OVC025 FM041500
                       18007KT 5SM BR VCSH BKN015 OVC025 FM041800
                       20009KT P6SM -RA BKN025 OVC035=
201610031729 KSEA 031729Z 0317/0418 21007KT P6SM FEW020 BKN050 OVC070 FM032200
                       22008KT P6SM BKN050 BKN120 FM040400 19005KT
                       P6SM -RA BKN050 OVC090 FM040900 17006KT
                       P6SM -RA BKN020 OVC050=
201610031515 KSEA 031515Z 0315/0418 21007KT P6SM FEW009 BKN050 OVC070
                      TEMPO 0315/0318 BKN008 OVC040 FM032200 21007KT
                       P6SM SCT060 BKN120 FM040400 19005KT P6SM
                       -RA BKN050 OVC090 FM040900 17006KT P6SM
                       -RA BKN020 OVC050=
201610031120 TAF KSEA 031120Z 0312/0418 21006KT P6SM SCT008 BKN040
                      TEMPO 0312/0316 BKN008 OVC040 FM032200 21007KT
                       P6SM SCT060 BKN120 FM040400 19005KT P6SM
                       -RA BKN050 OVC090 FM040900 17006KT P6SM
                       -RA BKN020 OVC050=
201610030914 KSEA 030914Z 0309/0412 17005KT P6SM SCT060 BKN150 FM031200 18005KT
                       P6SM BKN040 BKN060 FM032200 21007KT P6SM
                       SCT060 BKN120 FM040500 19005KT P6SM -RA
                       BKN050 OVC090 FM040900 17006KT P6SM -RA
                       BKN030 OVC050=
201610030523 TAF KSEA 030523Z 0306/0412 17004KT P6SM BKN060 FM031200 18005KT
                       P6SM BKN040 BKN060 FM032200 21007KT P6SM
                       SCT060 BKN120 FM040500 19005KT P6SM -RA
                       BKN050 OVC090 FM040900 17006KT P6SM -RA
                       BKN030 OVC050=
201610030301 KSEA 030301Z 0303/0406 22006KT P6SM BKN070 FM031200 18005KT 5SM
                       BR BKN025 BKN060 FM031800 20006KT P6SM SCT035
                       BKN080 FM032200 21007KT P6SM BKN100=
201610022324 TAF KSEA 022324Z 0300/0406 30005KT P6SM FEW029 SCT100 FM030400
                       18005KT P6SM SCT100 FM031200 18005KT 5SM
                       BR BKN025 BKN120 FM031800 20006KT P6SM SCT035
                       BKN120 FM032200 21007KT P6SM BKN100=
201610022110 KSEA 022110Z 0221/0324 30005KT P6SM FEW029 SCT120 FM030400 18005KT
                       P6SM SCT100 FM031200 18005KT 4SM BR BKN010
                       OVC035 FM031700 18006KT P6SM SCT018 BKN035
                       BKN100=
201610021732 TAF KSEA 021732Z 0218/0324 36003KT P6SM FEW015 BKN110 BKN200 FM022100
                       31006KT P6SM BKN100 BKN200 FM030400 18005KT
                       P6SM SCT100 FM031200 18005KT 4SM BR BKN010
                       OVC035 FM031700 18006KT P6SM SCT018 BKN035
                       BKN100=
201610021507 KSEA 021507Z 0215/0318 13003KT P6SM BKN070 BKN110 FM022000 31006KT
                       P6SM SCT100 FM030600 22004KT P6SM SCT100
                       FM030900 19005KT P6SM BKN035 FM031300 17005KT
                       4SM BR BKN015 OVC035=
201610021120 TAF KSEA 021120Z 0212/0318 VRB03KT P6SM SCT060 BKN100
                      TEMPO 0212/0216 BKN060 OVC100 FM022000 31006KT
                       P6SM SCT100 FM030600 22004KT P6SM SCT100
                       FM030900 19005KT P6SM BKN035 FM031300 17005KT
                       4SM BR BKN015 OVC035=
201610020902 TAF AMD KSEA 020902Z 0209/0312 10003KT P6SM SCT070 BKN120 FM022000
                       31006KT P6SM SCT100 FM030600 22004KT P6SM
                       SCT100=
201610020520 TAF KSEA 020520Z 0206/0312 11004KT P6SM SCT060 BKN100
                      TEMPO 0206/0210 BKN060 OVC100 FM022000 31006KT
                       P6SM SCT100 FM030600 22004KT P6SM SCT100=
201610020301 KSEA 020301Z 0203/0306 15005KT P6SM FEW040 BKN060 OVC100
                      TEMPO 0203/0206 -SHRA BKN040 OVC060 FM021200
                       VRB03KT P6SM SCT040 BKN090 FM021800 32004KT
                       P6SM BKN100=
201610012328 TAF KSEA 012328Z 0200/0306 21009KT P6SM -SHRA BKN040 BKN090 FM020300
                       16006KT P6SM -SHRA BKN040 OVC090 FM021200
                       14005KT P6SM VCSH SCT040 BKN090 FM021800
                       32004KT P6SM BKN100=
201610011729 TAF KSEA 011729Z 0118/0224 18010KT P6SM FEW020 SCT040 BKN070
                      TEMPO 0118/0120 -SHRA SCT025 BKN040 OVC070
                       FM012000 20012G19KT P6SM -SHRA SCT025 OVC050
                       FM020300 16006KT P6SM -SHRA BKN050 OVC090
                       FM020900 14005KT P6SM SCT050 BKN090=
201610011511 KSEA 011511Z 0115/0218 16008KT P6SM SCT040 BKN070 BKN150
                      TEMPO 0116/0119 -SHRA SCT025 BKN040 OVC070
                       FM011900 19012KT P6SM -SHRA SCT025 OVC050
                       FM020100 16006KT P6SM -SHRA BKN050 OVC090
                       FM020500 14003KT P6SM SCT050 BKN090=
201610011120 TAF KSEA 011120Z 0112/0218 12004KT P6SM FEW025 SCT040 BKN070
                      TEMPO 0112/0116 -SHRA SCT025 BKN040 OVC070
                       FM011600 17008KT P6SM SCT025 OVC050 FM011900
                       19012KT P6SM -SHRA SCT025 OVC050 FM020100
                       16006KT P6SM -SHRA BKN050 OVC090 FM020500
                       14003KT P6SM SCT050 BKN090=
201610010905 KSEA 010905Z 0109/0212 17003KT P6SM BKN040 BKN060 FM011600 17010KT
                       P6SM SCT025 OVC050 FM011900 19012KT P6SM
                       -SHRA SCT025 OVC050 FM020100 16006KT P6SM
                       BKN050 OVC090=
201610010520 TAF KSEA 010520Z 0106/0212 22006KT P6SM FEW060 SCT150 FM010900
                       18005KT P6SM BKN060 BKN120 FM011600 17010KT
                       P6SM SCT025 OVC050 FM011900 19012KT P6SM
                       -SHRA SCT025 OVC050 FM020100 16006KT P6SM
                       BKN050 OVC090=
201610010302 KSEA 010302Z 0103/0206 18003KT P6SM FEW040 SCT200 FM010900 21004KT
                       P6SM BKN070 BKN200 FM011200 17008KT P6SM
                       BKN050 OVC150 FM011500 17010KT P6SM VCSH
                       SCT025 OVC050 FM011900 19012KT 6SM -SHRA
                       SCT025 OVC050 FM020000 20011KT 6SM -SHRA
                       SCT020 OVC050=