##########################################################
# Query made at 02/17/2025 19:42:01 UTC
# Time interval: from 02/01/2016 00:00  to 02/29/2016 23:59  UTC
##########################################################

##########################################################
# KSEA, Seattle, Seattle-Tacoma International Airport (United States)
# WMO index: 72793. WIGOS ID: 0-20000-0-72793
# Latitude 47-27-00N. Longitude 122-17-59W. Altitude 130 m.
##########################################################

###################################
#  METAR/SPECI from KSEA
###################################
201602292353 METAR KSEA 292353Z 26004KT 10SM FEW040 BKN140 OVC200 11/03 A3017 RMK AO2 SLP222 T01060028 10117 20078 55005=
201602292253 METAR KSEA 292253Z 26005KT 10SM FEW036 BKN160 OVC250 11/03 A3016 RMK AO2 SLP222 T01110028=
201602292153 METAR KSEA 292153Z 22003KT 10SM SCT036 OVC250 11/02 A3017 RMK AO2 SLP223 T01110022=
201602292053 METAR KSEA 292053Z 17005KT 10SM SCT032 OVC250 11/03 A3018 RMK AO2 SLP228 T01110033 58017=
201602291953 METAR KSEA 291953Z 15006KT 10SM BKN031 BKN210 10/03 A3020 RMK AO2 SLP235 T01000033=
201602291853 METAR KSEA 291853Z 14005KT 10SM FEW028 BKN040 BKN250 09/04 A3023 RMK AO2 SLP244 T00940044=
201602291753 METAR KSEA 291753Z 11006KT 10SM FEW034 BKN045 08/04 A3023 RMK AO2 RAB16E25 SLP246 P0000 60000 T00780039 10083 20056 51006=
201602291653 METAR KSEA 291653Z 15003KT 10SM BKN039 BKN060 07/03 A3023 RMK AO2 RAE19 SLP245 P0000 T00670033=
201602291553 METAR KSEA 291553Z VRB03KT 10SM -RA BKN060 OVC200 06/03 A3022 RMK AO2 RAB52 SLP242 P0000 T00610033 $=
201602291453 METAR KSEA 291453Z 17008KT 10SM FEW041 OVC060 06/03 A3021 RMK AO2 RAE1356 SLP240 P0000 60000 T00560033 53004 $=
201602291353 METAR KSEA 291353Z 17012KT 10SM -RA OVC070 06/03 A3021 RMK AO2 RAB50 SLP237 P0000 T00610028 $=
201602291253 METAR KSEA 291253Z 18007KT 10SM OVC080 06/04 A3020 RMK AO2 SLP235 T00610039 $=
201602291153 METAR KSEA 291153Z 18007KT 10SM OVC075 06/03 A3020 RMK AO2 SLP236 60005 70087 T00610033 10067 20061 53002 $=
201602291053 METAR KSEA 291053Z 23007KT 10SM FEW019 BKN034 07/04 A3020 RMK AO2 SLP236 T00670039 $=
201602290953 METAR KSEA 290953Z 18010KT 10SM SCT020 BKN033 BKN060 07/04 A3019 RMK AO2 SLP232 T00670039 $=
201602290853 METAR KSEA 290853Z 21005KT 10SM SCT013 BKN025 OVC049 06/04 A3020 RMK AO2 RAE52 SLP233 P0005 60005 T00610044 53005 $=
201602290753 METAR KSEA 290753Z 18009KT 10SM -RA BKN020 BKN030 OVC043 07/04 A3019 RMK AO2 RAB41 SLP229 P0000 T00670039 401000044 $=
201602290653 METAR KSEA 290653Z 20004KT 7SM FEW015 BKN022 07/04 A3019 RMK AO2 RAE0558B14E51 SLP230 P0000 T00670044 $=
201602290620 SPECI KSEA 290620Z 19016KT 10SM -RA BKN024 BKN028 OVC039 07/04 A3018 RMK AO2 RAE0558B14 P0000 T00670044 $=
201602290553 METAR KSEA 290553Z 22011G17KT 10SM -RA FEW015 BKN032 OVC039 07/05 A3018 RMK AO2 RAB15 SLP227 P0017 60043 T00670050 10072 20044 53015 $=
201602290520 SPECI KSEA 290520Z 25005G15KT 6SM -RA BR BKN009 BKN012 OVC022 07/05 A3018 RMK AO2 RAB15 PRESRR P0004 T00670050 $=
201602290453 METAR KSEA 290453Z 20012KT 10SM SCT011 BKN016 OVC024 07/05 A3016 RMK AO2 RAB43E53 SLP219 P0000 T00670050 $=
201602290438 SPECI KSEA 290438Z 19011KT 10SM BKN013 BKN024 OVC029 07/04 A3015 RMK AO2 T00670044 $=
201602290353 METAR KSEA 290353Z 20014KT 10SM FEW031 BKN080 OVC120 06/04 A3013 RMK AO2 PK WND 24027/0311 RAE38 SLP213 P0025 T00610039 $=
201602290323 SPECI KSEA 290323Z 22011G19KT 7SM -RA FEW020 OVC030 05/03 A3013 RMK AO2 PK WND 24027/0311 P0025 T00500033 $=
201602290253 METAR KSEA 290253Z 24017G27KT 2SM +RA BR FEW011 BKN020 OVC026 05/03 A3013 RMK AO2 PK WND 27027/0250 VIS 1V5 RAB24 SLP210 60001 T00500028 53030 PNO $=
201602290234 SPECI KSEA 290234Z 22006KT 9SM -RA SCT015 BKN026 OVC047 07/06 A3011 RMK AO2 RAB24 P0000 T00670056 $=
201602290153 METAR KSEA 290153Z 21009KT 10SM SCT016 BKN034 BKN042 07/04 A3009 RMK AO2 RAE13 SLP195 P0001 T00670044 $=
201602290118 SPECI KSEA 290118Z 22011G17KT 10SM SCT016 BKN039 BKN047 07/05 A3008 RMK AO2 RAE13 P0001 T00720050 $=
201602290053 METAR KSEA 290053Z 22013G19KT 10SM -RA BKN018 BKN028 OVC033 07/04 A3007 RMK AO2 RAB47 SLP191 P0000 T00720044 $=
201602282353 METAR KSEA 282353Z 20014G20KT 10SM FEW012 BKN050 BKN060 07/05 A3004 RMK AO2 PK WND 22027/2338 RAE08B24E37 SLP179 P0001 60029 T00720050 10100 20067 53018 $=
201602282253 METAR KSEA 282253Z 25015G31KT 4SM -RA BR FEW012 BKN034 OVC042 07/05 A3001 RMK AO2 PK WND 24031/2248 SLP172 P0009 T00720050 $=
201602282216 SPECI KSEA 282216Z 22013G20KT 4SM -RA BR BKN035 OVC048 07/06 A2998 RMK AO2 P0006 T00720056 $=
201602282153 METAR KSEA 282153Z 24017G27KT 4SM -RA BR FEW016 BKN029 OVC035 07/05 A2998 RMK AO2 PK WND 26032/2131 WSHFT 2040 SLP162 P0015 T00670050 $=
201602282149 SPECI KSEA 282149Z 24017G27KT 4SM -RA BR FEW016 BKN028 OVC033 07/05 A2998 RMK AO2 PK WND 26032/2131 WSHFT 2040 P0015 $=
201602282132 SPECI KSEA 282132Z 25021G32KT 2SM R16L/6000VP6000FT -RA BR BKN016 OVC020 08/06 A2998 RMK AO2 PK WND 26032/2131 WSHFT 2040 VIS 1 1/2V5 P0005 T00780056 $=
201602282100 SPECI KSEA 282100Z 24012G23KT 4SM -RA BR BKN017 OVC023 08/06 A2997 RMK AO2 WSHFT 2040 T00780056 PNO $=
201602282053 METAR KSEA 282053Z 23015G27KT 5SM RA BKN017 BKN023 OVC030 08/05 A2996 RMK AO2 PK WND 24027/2043 WSHFT 2035 RAB43 SLP154 60004 T00830050 51043 PNO=
201602282039 SPECI KSEA 282039Z 20018G26KT 10SM SCT019 BKN024 OVC085 09/07 A2995 RMK AO2 PK WND 20026/2037 T00940067=
201602281953 METAR KSEA 281953Z 20013G24KT 10SM FEW010 SCT014 BKN100 10/07 A2992 RMK AO2 SLP140 T01000072=
201602281853 METAR KSEA 281853Z 21018G26KT 10SM FEW018 BKN038 OVC045 09/08 A2988 RMK AO2 PK WND 18027/1820 RAB10E46 SLP124 P0004 T00940078=
201602281753 METAR KSEA 281753Z 19015KT 10SM SCT026 BKN034 BKN050 09/07 A2983 RMK AO2 PK WND 16028/1702 RAE50 SLP110 P0003 60010 T00940072 10100 20083 53010=
201602281653 METAR KSEA 281653Z 16014G20KT 10SM -RA FEW020 BKN048 BKN090 10/07 A2978 RMK AO2 SLP092 P0002 T01000067=
201602281553 METAR KSEA 281553Z 18009KT 8SM -RA FEW020 BKN042 OVC055 08/06 A2981 RMK AO2 SLP102 P0005 T00830061=
201602281453 METAR KSEA 281453Z 22005KT 10SM -RA SCT020 BKN050 OVC070 09/05 A2980 RMK AO2 RAB47 SLP099 P0000 60000 T00890050 55023=
201602281353 METAR KSEA 281353Z 11006KT 10SM FEW050 SCT090 BKN110 09/04 A2979 RMK AO2 RAE02 PRESFR SLP095 P0000 T00940044=
201602281253 METAR KSEA 281253Z 11008KT 10SM -RA OVC050 09/04 A2985 RMK AO2 RAB32 PRESFR SLP115 P0000 T00940044=
201602281153 METAR KSEA 281153Z 17003KT 10SM FEW065 SCT080 BKN110 08/05 A2987 RMK AO2 SLP123 70004 T00830050 10094 20083 58046=
201602281053 METAR KSEA 281053Z 11009KT 10SM OVC090 08/05 A2993 RMK AO2 SLP143 T00830050=
201602280953 METAR KSEA 280953Z 13009KT 10SM OVC090 09/06 A2998 RMK AO2 SLP159 T00890056=
201602280853 METAR KSEA 280853Z 14004KT 10SM BKN110 OVC180 08/06 A3001 RMK AO2 SLP169 T00830056 56023=
201602280753 METAR KSEA 280753Z 11005KT 10SM SCT140 BKN180 08/06 A3003 RMK AO2 SLP175 T00830061 401330083=
201602280653 METAR KSEA 280653Z 11007KT 10SM FEW080 BKN180 09/07 A3005 RMK AO2 SLP183 T00890067=
201602280553 METAR KSEA 280553Z 12008KT 10SM FEW075 BKN180 09/08 A3008 RMK AO2 SLP193 T00890078 10128 20083 57012=
201602280453 METAR KSEA 280453Z 16006KT 10SM CLR 09/07 A3009 RMK AO2 SLP198 T00890072=
201602280353 METAR KSEA 280353Z 14005KT 10SM SCT075 09/06 A3010 RMK AO2 SLP201 T00940056=
201602280253 METAR KSEA 280253Z 20003KT 10SM FEW030 SCT075 BKN240 09/05 A3011 RMK AO2 SLP205 T00940050 58002=
201602280153 METAR KSEA 280153Z 24006KT 10SM FEW029 SCT100 BKN240 11/06 A3013 RMK AO2 SLP209 T01060056=
201602280053 METAR KSEA 280053Z 21009KT 10SM SCT035 BKN200 12/06 A3013 RMK AO2 SLP209 T01220056=
201602272353 METAR KSEA 272353Z 20011KT 10SM SCT026 BKN034 13/08 A3012 RMK AO2 RAE03 SLP207 P0000 60004 T01280083 10133 20094 57005=
201602272253 METAR KSEA 272253Z 24005KT 4SM -RA SCT025 BKN034 OVC049 12/09 A3013=
201602272153 METAR KSEA 272153Z 19009KT 10SM FEW014 SCT047 BKN100 13/08 A3012 RMK AO2 SLP207 T01280083=
201602272053 METAR KSEA 272053Z 20008KT 10SM FEW010 SCT014 BKN040 12/09 A3014 RMK AO2 SLP212 T01220089 50007=
201602271953 METAR KSEA 271953Z 21007KT 10SM OVC010 11/09 A3014 RMK AO2 CIG 007V014 SLP213 T01110094=
201602271941 SPECI KSEA 271941Z 20008KT 10SM OVC010 11/09 A3014 RMK AO2 T01110089=
201602271853 METAR KSEA 271853Z 21008KT 10SM BKN006 OVC012 10/09 A3013 RMK AO2 SLP210 T01000089=
201602271753 METAR KSEA 271753Z 20005KT 10SM OVC007 09/08 A3011 RMK AO2 CIG 004V010 SLP205 T00940083 10094 20083 51019=
201602271653 METAR KSEA 271653Z 21004KT 10SM BKN005 BKN015 OVC020 09/08 A3010 RMK AO2 SLP200 T00890083=
201602271553 METAR KSEA 271553Z 21003KT 10SM OVC009 09/08 A3008 RMK AO2 CIG 006V011 SLP194 T00890083=
201602271528 SPECI KSEA 271528Z 22003KT 10SM OVC006 09/08 A3007 RMK AO2 CIG 002V009 T00890083=
201602271453 METAR KSEA 271453Z 22004KT 8SM OVC004 09/08 A3006 RMK AO2 SLP186 T00890083 51020=
201602271435 SPECI KSEA 271435Z 20005KT 2 1/2SM BR BKN002 OVC009 09/08 A3005 RMK AO2 T00890083=
201602271420 SPECI KSEA 271420Z 19004KT 1 1/4SM R16L/4500VP6000FT BR BKN004 OVC009 09/08 A3004 RMK AO2 T00890083=
201602271400 SPECI KSEA 271400Z 00000KT 1/4SM R16L/1400V3000FT FG VV002 09/08 A3004 RMK AO2 T00890083=
201602271353 METAR KSEA 271353Z 00000KT 1/4SM R16L/1200V2000FT FG VV001 09/08 A3004 RMK AO2 SLP180 T00890083=
201602271253 METAR KSEA 271253Z 27003KT 1/4SM R16L/1000V1400FT FG VV001 09/08 A3002 RMK AO2 SLP174 T00890083=
201602271222 SPECI KSEA 271222Z 00000KT 1SM R16L/1600V2200FT BR SCT007 BKN018 OVC050 09/08 A3001 RMK AO2 T00890083=
201602271153 METAR KSEA 271153Z 00000KT 1SM R16L/1600V2800FT BR SCT009 SCT050 OVC060 08/08 A3000 RMK AO2 RAE33B36E46 SLP165 P0001 60010 70026 T00830083 10094 20083 53011=
201602271135 SPECI KSEA 271135Z 00000KT 3SM R16L/4000VP6000FT BR SCT007 OVC050 09/08 A2999 RMK AO2 RAE33 VIS W 1 1/2 P0001 T00890083=
201602271053 METAR KSEA 271053Z 00000KT 5SM -RA BR FEW010 OVC055 09/08 A2998 RMK AO2 SLP158 P0004 T00890083=
201602270953 METAR KSEA 270953Z 00000KT 7SM -RA FEW010 SCT025 OVC049 09/08 A2997 RMK AO2 SLP156 P0004 T00890083=
201602270853 METAR KSEA 270853Z 00000KT 6SM -RA BR SCT024 SCT029 OVC038 09/08 A2996 RMK AO2 RAB38 SLP153 P0000 60001 T00890083 53008=
201602270817 SPECI KSEA 270817Z 00000KT 7SM FEW006 BKN017 OVC027 09/08 A2996 RMK AO2 T00940083=
201602270753 METAR KSEA 270753Z 29003KT 7SM FEW006 SCT018 OVC035 09/08 A2995 RMK AO2 RAB09E22 SLP149 P0001 T00890083 401390067=
201602270727 SPECI KSEA 270727Z 00000KT 4SM BR FEW006 SCT028 OVC035 09/08 A2995 RMK AO2 RAB09E22 P0000 T00940083=
201602270709 SPECI KSEA 270709Z 31003KT 6SM -RA BR SCT006 BKN025 OVC033 09/09 A2995 RMK AO2 RAB09 P0000 T00940089=
201602270653 METAR KSEA 270653Z 00000KT 7SM FEW010 SCT020 OVC031 09/08 A2995 RMK AO2 RAE15 SLP147 P0000 T00940083=
201602270638 SPECI KSEA 270638Z 00000KT 5SM BR SCT020 OVC031 09/08 A2994 RMK AO2 RAE15 P0000 T00940083=
201602270553 METAR KSEA 270553Z 00000KT 10SM -RA BKN020 OVC031 09/08 A2994 RMK AO2 SLP144 P0001 60016 T00940083 10122 20094 56006=
201602270524 SPECI KSEA 270524Z 00000KT 10SM -RA BKN023 OVC032 10/08 A2994 RMK AO2 P0000 T01000083=
201602270453 METAR KSEA 270453Z 00000KT 10SM -RA OVC034 10/08 A2994 RMK AO2 SLP146 P0001 T01000078=
201602270353 METAR KSEA 270353Z 00000KT 10SM -RA SCT045 BKN070 OVC090 09/08 A2994 RMK AO2 SLP147 P0001 T00940078=
201602270253 METAR KSEA 270253Z 00000KT 10SM -RA FEW028 OVC060 09/08 A2996 RMK AO2 SLP151 P0003 60013 T00940083 50002=
201602270153 METAR KSEA 270153Z 20005KT 6SM -RA BR BKN048 OVC065 10/09 A2996 RMK AO2 SLP152 P0007 T01000089=
201602270053 METAR KSEA 270053Z 18005KT 7SM -RA BKN060 OVC070 11/08 A2995 RMK AO2 SLP150 P0003 T01060083=
201602262353 METAR KSEA 262353Z 21009KT 10SM -RA BKN060 OVC075 12/06 A2995 RMK AO2 RAE15B50 SLP149 P0000 60000 T01220061 10139 20117 55006=
201602262253 METAR KSEA 262253Z 19008KT 8SM -RA OVC055 13/06 A2994 RMK AO2 RAB48 SLP146 P0000 T01280061=
201602262153 METAR KSEA 262153Z 20006KT 10SM BKN060 OVC150 14/04 A2994 RMK AO2 SLP147 T01390039=
201602262053 METAR KSEA 262053Z 20006KT 10SM BKN070 OVC150 14/04 A2997 RMK AO2 SLP154 T01390044=
201602261953 METAR KSEA 261953Z 20006KT 10SM SCT080 BKN150 BKN250 13/04 A2998 RMK AO2 SLP160 T01330044 $=
201602261853 METAR KSEA 261853Z 22008KT 10SM BKN190 BKN250 13/04 A2999 RMK AO2 SLP160 T01280044 $=
201602261753 METAR KSEA 261753Z 22004KT 10SM SCT190 BKN250 13/06 A3000 RMK AO2 SLP164 T01280056 10128 20067 55003=
201602261653 METAR KSEA 261653Z 19003KT 10SM FEW190 BKN250 12/05 A2999 RMK AO2 SLP163 T01170050=
201602261553 METAR KSEA 261553Z 00000KT 10SM SCT190 BKN250 10/03 A2999 RMK AO2 SLP164 T01000033=
201602261453 METAR KSEA 261453Z 18004KT 10SM BKN190 BKN250 08/03 A3000 RMK AO2 SLP168 T00830033 58015=
201602261353 METAR KSEA 261353Z 17004KT 10SM OVC190 08/04 A3002 RMK AO2 SLP174 T00830039 $=
201602261253 METAR KSEA 261253Z 00000KT 10SM BKN220 08/03 A3004 RMK AO2 SLP180 T00830033 $=
201602261153 METAR KSEA 261153Z 00000KT 10SM BKN250 08/03 A3005 RMK AO2 SLP182 7//// T00830028 10111 20072 56010 $=
201602261053 METAR KSEA 261053Z 00000KT 10SM BKN250 09/06 A3006 RMK AO2 SLP185 T00890056 $=
201602260953 METAR KSEA 260953Z 17004KT 10SM SCT250 07/04 A3007 RMK AO2 SLP189 T00720044 $=
201602260853 METAR KSEA 260853Z 00000KT 10SM SCT250 09/05 A3008 RMK AO2 SLP192 T00890050 58005 $=
201602260753 METAR KSEA 260753Z 00000KT 10SM SCT250 08/05 A3009 RMK AO2 SLP197 T00830050 401670078 $=
201602260653 METAR KSEA 260653Z 16003KT 10SM SCT250 09/04 A3010 RMK AO2 SLPNO T00940044 $=
201602260553 METAR KSEA 260553Z 00000KT 10SM SCT250 10/04 A3010 RMK AO2 SLPNO T01000039 10161 20089 58001 $=
201602260453 METAR KSEA 260453Z 00000KT 10SM SCT250 11/04 A3010 RMK AO2 SLPNO T01060039 $=
201602260353 METAR KSEA 260353Z 00000KT 10SM SCT250 09/06 A3010 RMK AO2 SLPNO T00890056 $=
201602260253 METAR KSEA 260253Z 05004KT 10SM SCT250 12/04 A3010 RMK AO2 SLPNO T01220044 $=
201602260153 METAR KSEA 260153Z 33003KT 10SM SCT250 13/04 A3010 RMK AO2 SLPNO T01280044 $=
201602260100 METAR KSEA NIL=
201602260057 SPECI KSEA 260057Z 29005KT 10SM BKN250 15/06 A3012 RMK AO2 T01500061 $=
201602252353 METAR KSEA 252353Z 00000KT 10SM BKN250 16/05 A3013 RMK AO2 SLPNO 6//// T01610050=
201602252253 METAR KSEA 252253Z 28005KT 10SM BKN250 15/05 A3015 RMK AO2 SLPNO T01500050=
201602252153 METAR KSEA 252153Z 31004KT 10SM SCT250 15/05 A3017 RMK AO2 SLPNO T01500050 $=
201602252053 METAR KSEA 252053Z 27008KT 10SM FEW250 14/06 A3020 RMK A02 T01390062=
201602251953 METAR KSEA 251953Z 34003KT 10SM FEW250 11/06 A3021 RMK AO2 SLPNO T01170061 $=
201602251853 METAR KSEA 251853Z VRB03KT 10SM SCT250 12/07 A3021 RMK AO2 SLPNO T01170067=
201602251753 METAR KSEA 251753Z AUTO 10SM 09/06 A3022 RMK AO2 SLPNO 6//// T00890056 TSNO $=
201602251653 METAR KSEA 251653Z 36004KT 10SM BKN250 07/06 A3022 RMK AO2 SLP241 FG BANK W T00720056=
201602251608 SPECI KSEA 251608Z 00000KT 6SM R16L/1600VP6000FT BCFG FEW001 SCT200 06/05 A3023 RMK AO2 VIS SW-W-N 1 1/2=
201602251553 METAR KSEA 251553Z 36003KT 6SM R16L/1000V1200FT BCFG FEW001 SCT200 06/05 A3023 RMK AO2 SLP245 VIS SW-W-N 1 T00560050=
201602251511 SPECI KSEA 251511Z 04004KT 7SM BCFG FEW001 SCT200 05/04 A3022 RMK AO2 VIS W-N 2=
201602251453 METAR KSEA 251453Z 36004KT 10SM SCT200 04/03 A3023 RMK AO2 SLP244 T00440033 58003=
201602251353 METAR KSEA 251353Z 03005KT 9SM CLR 05/03 A3023 RMK AO2 SLP245 T00500033=
201602251253 METAR KSEA 251253Z 01005KT 10SM CLR 05/03 A3023 RMK AO2 SLP246 T00500028=
201602251153 METAR KSEA 251153Z 00000KT 10SM CLR 06/02 A3024 RMK AO2 SLP246 7//// T00610022 10106 20056 57002=
201602251053 METAR KSEA 251053Z 00000KT 10SM CLR 06/03 A3024 RMK AO2 SLP247 T00610028=
201602250953 METAR KSEA 250953Z 13003KT 10SM CLR 07/03 A3024 RMK AO2 SLP247 T00670033=
201602250853 METAR KSEA 250853Z 00000KT 10SM SCT220 07/04 A3024 RMK AO2 SLP248 T00720039 53005=
201602250753 METAR KSEA 250753Z 00000KT 10SM BKN220 08/06 A3023 RMK AO2 SLP245 T00830061 401390061=
201602250653 METAR KSEA 250653Z 00000KT 10SM BKN220 09/05 A3023 RMK AO2 SLP244 T00940050=
201602250553 METAR KSEA 250553Z 00000KT 10SM FEW060 SCT250 10/04 A3023 RMK AO2 SLP243 60002 T01000044 10139 20094 56007=
201602250453 METAR KSEA 250453Z 08004KT 10SM FEW055 12/06 A3023 RMK AO2 SLP244 T01170056=
201602250353 METAR KSEA 250353Z 00000KT 10SM OVC047 11/08 A3024 RMK AO2 RAE31 SLP246 P0001 T01060083=
201602250253 METAR KSEA 250253Z 26004KT 9SM -RA FEW023 OVC048 11/05 A3025 RMK AO2 RAB48 SLP250 P0001 60001 T01060050 53013=
201602250153 METAR KSEA 250153Z 00000KT 10SM OVC055 13/02 A3023 RMK AO2 SLP244 T01280017=
201602250053 METAR KSEA 250053Z 22003KT 10SM SCT055 BKN075 13/02 A3022 RMK AO2 SLP239 T01330017=
201602242353 METAR KSEA 242353Z 26004KT 10SM BKN065 BKN100 13/02 A3021 RMK AO2 SLP236 6//// T01330022 10133 20106 53002=
201602242253 METAR KSEA 242253Z VRB03KT 10SM BKN060 BKN100 13/03 A3021 RMK AO2 SLP235 T01330028=
201602242153 METAR KSEA 242153Z 26004KT 10SM FEW070 BKN100 BKN250 13/03 A3020 RMK AO2 SLP233 T01280033=
201602242053 METAR KSEA 242053Z 26004KT 10SM BKN090 BKN250 12/01 A3021 RMK AO2 SLP235 6//// T01220011=
201602241953 METAR KSEA 241953Z 28004KT 10SM SCT080 BKN150 BKN250 12/02 A3021 RMK AO2 SLP238 T01170017=
201602241853 METAR KSEA 241853Z 28003KT 10SM BKN095 BKN120 12/04 A3021 RMK AO2 SLP238 T01150039 PNO $=
201602241753 METAR KSEA 241753Z 00000KT 10SM BKN095 BKN120 11/04 A3021 RMK AO2 SLP238 T01060039 10106 20061 51014 $=
201602241653 METAR KSEA 241653Z 00000KT 10SM OVC100 08/03 A3020 RMK AO2 SLP235 T00830033=
201602241553 METAR KSEA 241553Z 00000KT 10SM BKN100 OVC130 07/04 A3018 RMK AO2 SLP229 T00720039=
201602241453 METAR KSEA 241453Z 16004KT 10SM FEW110 OVC140 07/01 A3017 RMK AO2 SLP224 T00720011 53011=
201602241353 METAR KSEA 241353Z 16003KT 10SM BKN140 07/00 A3016 RMK AO2 SLP220 T00670000=
201602241253 METAR KSEA 241253Z 10005KT 10SM BKN140 08/M01 A3014 RMK AO2 SLP215 T00831011=
201602241153 METAR KSEA 241153Z 00000KT 10SM BKN160 09/M02 A3014 RMK AO2 SLP212 T00891017 10106 20083 53007=
201602241053 METAR KSEA 241053Z 13005KT 10SM BKN150 09/M02 A3013 RMK AO2 SLP208 T00941017=
201602240953 METAR KSEA 240953Z 12007KT 10SM BKN160 10/M02 A3012 RMK AO2 SLP207 T01001022=
201602240853 METAR KSEA 240853Z 11006KT 10SM BKN120 10/M02 A3012 RMK AO2 SLP205 T01001022 53003=
201602240753 METAR KSEA 240753Z 10004KT 10SM OVC140 10/M02 A3011 RMK AO2 SLP204 T01001022 401440011=
201602240653 METAR KSEA 240653Z 11009KT 10SM BKN170 11/M02 A3011 RMK AO2 SLP204 T01061022=
201602240553 METAR KSEA 240553Z 11011KT 10SM BKN180 11/M02 A3011 RMK AO2 SLP203 T01061017 10139 20100 53007=
201602240453 METAR KSEA 240453Z 11012KT 10SM OVC200 11/M02 A3010 RMK AO2 SLP200 T01061017=
201602240353 METAR KSEA 240353Z 11012KT 10SM OVC240 11/M02 A3009 RMK AO2 SLP196 T01111017=
201602240253 METAR KSEA 240253Z 10012KT 10SM FEW100 OVC240 12/M02 A3009 RMK AO2 SLP196 T01171022 51004=
201602240153 METAR KSEA 240153Z 09009G15KT 10SM FEW100 OVC230 12/M02 A3008 RMK AO2 SLP195 T01221017=
201602240053 METAR KSEA 240053Z 08009KT 10SM FEW100 OVC250 13/M02 A3009 RMK AO2 SLP196 T01281017=
201602232353 METAR KSEA 232353Z 08011KT 10SM BKN250 14/M01 A3008 RMK AO2 SLP192 T01391011 10144 20083 56016=
201602232253 METAR KSEA 232253Z 10011KT 10SM BKN250 14/M01 A3008 RMK AO2 SLP194 T01441011=
201602232153 METAR KSEA 232153Z 08010KT 10SM BKN250 14/M01 A3009 RMK AO2 SLP198 T01441011=
201602232053 METAR KSEA 232053Z VRB06KT 10SM FEW250 14/M02 A3012 RMK AO2 SLP208 T01391017 56037=
201602231953 METAR KSEA 231953Z 09010KT 10SM FEW250 13/M02 A3015 RMK AO2 SLP218 T01331017=
201602231853 METAR KSEA 231853Z 03007KT 10SM FEW250 11/01 A3020 RMK AO2 SLP234 T01060006=
201602231753 METAR KSEA 231753Z 01009KT 10SM FEW250 08/01 A3023 RMK AO2 SLP246 T00830011 10083 20011 58012=
201602231653 METAR KSEA 231653Z 02010KT 10SM FEW250 06/02 A3024 RMK AO2 SLP250 T00560017=
201602231553 METAR KSEA 231553Z 03011KT 10SM CLR 03/01 A3026 RMK AO2 SLP256 T00330011=
201602231453 METAR KSEA 231453Z 01010KT 10SM CLR 02/01 A3027 RMK AO2 SLP259 T00220006 56015=
201602231353 METAR KSEA 231353Z 28004KT 10SM CLR 02/00 A3028 RMK AO2 SLP262 T00170000=
201602231253 METAR KSEA 231253Z 03006KT 10SM CLR 02/01 A3029 RMK AO2 SLP264 T00170006=
201602231153 METAR KSEA 231153Z 03006KT 10SM CLR 02/01 A3031 RMK AO2 SLP273 70017 T00220011 10056 20022 58010=
201602231053 METAR KSEA 231053Z 05006KT 7SM SCT003 03/02 A3033 RMK AO2 SLP280 T00280017=
201602231026 SPECI KSEA 231026Z 03006KT 7SM SCT003 03/02 A3034 RMK AO2=
201602231014 SPECI KSEA 231014Z 03004KT 2SM BR BKN003 03/02 A3034 RMK AO2 SFC VIS 6=
201602230953 METAR KSEA 230953Z 06006KT 10SM FEW005 03/02 A3034 RMK AO2 SLP283 T00280017=
201602230901 SPECI KSEA 230901Z 06003KT 10SM FEW005 03/02 A3034 RMK AO2=
201602230853 METAR KSEA 230853Z 00000KT 10SM CLR 03/02 A3034 RMK AO2 SLP284 T00330022 58019=
201602230753 METAR KSEA 230753Z 02003KT 10SM CLR 04/02 A3036 RMK AO2 SLP290 T00390022 401060022=
201602230653 METAR KSEA 230653Z 03003KT 10SM CLR 04/02 A3039 RMK AO2 SLP298 T00440022=
201602230553 METAR KSEA 230553Z 05005KT 10SM CLR 05/03 A3040 RMK AO2 SLP303 T00500028 10100 20050 58004=
201602230453 METAR KSEA 230453Z 06005KT 10SM CLR 06/02 A3041 RMK AO2 SLP307 T00610022=
201602230353 METAR KSEA 230353Z 03007KT 10SM CLR 07/02 A3041 RMK AO2 SLP308 T00670022=
201602230253 METAR KSEA 230253Z 01004KT 10SM FEW030 07/02 A3041 RMK AO2 SLP307 T00670022 58002=
201602230153 METAR KSEA 230153Z 35005KT 10SM FEW030 07/02 A3042 RMK AO2 SLP309 T00720022=
201602230053 METAR KSEA 230053Z 35005KT 10SM SCT030 09/03 A3042 RMK AO2 SLP309 T00940028=
201602222353 METAR KSEA 222353Z 29005KT 10SM SCT025 10/03 A3042 RMK AO2 SLP309 T01000033 10106 20056 55003=
201602222253 METAR KSEA 222253Z 00000KT 10SM SCT025 09/03 A3041 RMK AO2 SLP304 T00940033=
201602222153 METAR KSEA 222153Z 00000KT 10SM SCT022 BKN060 09/03 A3042 RMK AO2 SLP310 T00890028=
201602222117 SPECI KSEA 222117Z 28003KT 10SM FEW015 SCT024 SCT060 08/03 A3042 RMK AO2=
201602222053 METAR KSEA 222053Z 23004KT 10SM SCT015 BKN024 08/03 A3043 RMK AO2 SLP313 T00780033 53002=
201602222032 SPECI KSEA 222032Z 30004KT 10SM SCT014 BKN021 08/04 A3043 RMK AO2=
201602221953 METAR KSEA 221953Z 26004KT 10SM FEW008 BKN014 BKN021 07/04 A3043 RMK AO2 SLP314 T00720039=
201602221944 SPECI KSEA 221944Z VRB05KT 10SM FEW008 BKN014 BKN021 07/04 A3043 RMK AO2=
201602221853 METAR KSEA 221853Z 21007KT 10SM FEW008 BKN021 BKN065 07/04 A3042 RMK AO2 SLP309 T00670044=
201602221848 SPECI KSEA 221848Z 21007KT 10SM FEW008 BKN021 BKN065 07/04 A3042 RMK AO2=
201602221828 SPECI KSEA 221828Z 21007KT 10SM SCT007 SCT021 BKN050 06/04 A3042 RMK AO2=
201602221809 SPECI KSEA 221809Z 22005KT 10SM SCT006 BKN021 BKN050 06/04 A3043 RMK AO2=
201602221753 METAR KSEA 221753Z 20007KT 10SM BKN005 OVC018 06/04 A3042 RMK AO2 RAE19 SLP311 P0000 60017 T00560039 10061 20050 53018=
201602221701 SPECI KSEA 221701Z 19007KT 10SM -RA SCT005 BKN018 OVC035 05/04 A3040 RMK AO2 P0000=
201602221653 METAR KSEA 221653Z 20008KT 10SM -RA SCT005 BKN032 OVC041 05/04 A3040 RMK AO2 SLP303 P0008 T00500039=
201602221628 SPECI KSEA 221628Z 18006KT 10SM -RA SCT007 BKN032 OVC050 05/04 A3040 RMK AO2 P0007=
201602221602 SPECI KSEA 221602Z 16009KT 10SM -RA FEW008 BKN028 BKN050 05/04 A3038 RMK AO2 P0003=
201602221553 METAR KSEA 221553Z 18007KT 9SM RA FEW008 BKN032 OVC050 05/04 A3038 RMK AO2 SLP295 P0007 T00500039=
201602221453 METAR KSEA 221453Z 18007KT 10SM -RA FEW008 BKN038 OVC055 05/04 A3037 RMK AO2 SLP293 P0002 60002 T00500039 53003=
201602221353 METAR KSEA 221353Z 18013G19KT 10SM -RA SCT008 OVC043 06/04 A3036 RMK AO2 RAB43 SLP290 P0000 T00610039=
201602221344 SPECI KSEA 221344Z 18013KT 10SM -RA SCT008 OVC050 06/04 A3036 RMK AO2 RAB43 P0000=
201602221253 METAR KSEA 221253Z 18008KT 10SM FEW040 OVC100 06/03 A3036 RMK AO2 SLP291 T00610033=
201602221153 METAR KSEA 221153Z 15008KT 10SM SCT040 BKN100 06/03 A3036 RMK AO2 RAE02 SLP290 P0000 60000 70005 T00560028 10072 20056 53000=
201602221053 METAR KSEA 221053Z 19009KT 10SM -RA FEW022 SCT045 BKN100 07/04 A3036 RMK AO2 RAB50 SLP287 P0000 T00670039=
201602220953 METAR KSEA 220953Z 19011KT 10SM FEW025 SCT100 06/03 A3036 RMK AO2 SLP288 T00610033=
201602220853 METAR KSEA 220853Z 20006KT 10SM FEW030 SCT100 06/03 A3036 RMK AO2 SLP290 T00610033 51008=
201602220753 METAR KSEA 220753Z 20006KT 10SM FEW040 SCT100 06/04 A3036 RMK AO2 SLP288 T00610039 401000017=
201602220653 METAR KSEA 220653Z 20009KT 10SM FEW040 BKN095 07/04 A3034 RMK AO2 SLP283 T00670039=
201602220553 METAR KSEA 220553Z 19011KT 10SM FEW024 07/04 A3034 RMK AO2 SLP282 T00670039 10100 20067 51015=
201602220453 METAR KSEA 220453Z 20012KT 10SM SCT024 07/05 A3032 RMK AO2 SLP276 T00720050=
201602220353 METAR KSEA 220353Z 20010KT 10SM SCT024 07/04 A3031 RMK AO2 SLP272 T00720044=
201602220253 METAR KSEA 220253Z 21014KT 10SM FEW028 08/04 A3029 RMK AO2 SLP266 T00830044 51015=
201602220222 SPECI KSEA 220222Z 21010KT 10SM SCT028 08/04 A3029 RMK AO2=
201602220153 METAR KSEA 220153Z 21011KT 10SM BKN028 09/04 A3029 RMK AO2 SLP265 T00890044=
201602220058 SPECI KSEA 220058Z 20014KT 10SM SCT024 BKN033 BKN060 09/04 A3027 RMK AO2=
201602220053 METAR KSEA 220053Z 21013KT 10SM BKN024 BKN033 09/04 A3027 RMK AO2 SLP258 T00940044=
201602212353 METAR KSEA 212353Z 21016G22KT 10SM BKN027 BKN032 OVC039 09/05 A3025 RMK AO2 RAB40E49 SLP252 P0000 60005 T00940050 10094 20056 51017=
201602212253 METAR KSEA 212253Z 20014G19KT 10SM BKN025 OVC030 09/05 A3024 RMK AO2 WSHFT 2146 RAE02B26E35 SLP249 P0000 T00940050=
201602212219 SPECI KSEA 212219Z 19010G19KT 10SM BKN027 OVC033 09/04 A3023 RMK AO2 WSHFT 2146 RAE02 P0000=
201602212206 SPECI KSEA 212206Z 20010G23KT 10SM SCT025 OVC035 09/05 A3022 RMK AO2 WSHFT 2146 RAE02 P0000=
201602212153 METAR KSEA 212153Z 21012G17KT 10SM -RA SCT029 OVC035 09/05 A3021 RMK AO2 RAB43 SLP240 P0000 T00890050=
201602212053 METAR KSEA 212053Z 15007KT 10SM OVC040 06/04 A3020 RMK AO2 RAE28 SLP235 P0004 60005 T00610039 50024=
201602211953 METAR KSEA 211953Z 20013G18KT 7SM -RA SCT042 BKN060 OVC080 06/03 A3020 RMK AO2 RAB47 SLP234 P0001 T00560028=
201602211853 METAR KSEA 211853Z 20004KT 10SM FEW050 OVC100 07/04 A3014 RMK AO2 SLP215 T00670039=
201602211753 METAR KSEA 211753Z 00000KT 10SM FEW050 SCT120 OVC200 06/03 A3012 RMK AO2 SLP209 T00560028 10056 20017 53004=
201602211653 METAR KSEA 211653Z 00000KT 10SM FEW050 SCT140 OVC200 06/00 A3011 RMK AO2 SLP204 T00560000=
201602211553 METAR KSEA 211553Z 00000KT 10SM FEW050 SCT140 OVC200 04/M01 A3010 RMK AO2 SLP202 T00391006=
201602211453 METAR KSEA 211453Z 00000KT 10SM FEW040 SCT150 BKN190 04/M01 A3011 RMK AO2 SLP205 T00391011 58019=
201602211353 METAR KSEA 211353Z 30003KT 10SM SCT220 02/M01 A3014 RMK AO2 SLP215 T00171006=
201602211253 METAR KSEA 211253Z 00000KT 10SM BKN220 03/M01 A3015 RMK AO2 SLP217 T00331011=
201602211153 METAR KSEA 211153Z 00000KT 10SM CLR 02/M01 A3017 RMK AO2 SLP224 T00221006 10056 20022 56016=
201602211053 METAR KSEA 211053Z 02004KT 10SM CLR 02/00 A3018 RMK AO2 SLP227 T00220000=
201602210953 METAR KSEA 210953Z 00000KT 10SM CLR 03/01 A3019 RMK AO2 SLP233 T00330006=
201602210853 METAR KSEA 210853Z 00000KT 10SM CLR 04/00 A3022 RMK AO2 SLP241 T00390000 56015=
201602210753 METAR KSEA 210753Z 05003KT 10SM SCT220 05/01 A3022 RMK AO2 SLP241 T00500006 401060033=
201602210653 METAR KSEA 210653Z 04004KT 10SM SCT220 05/01 A3024 RMK AO2 SLP248 T00500011=
201602210553 METAR KSEA 210553Z 03006KT 10SM BKN220 06/01 A3026 RMK AO2 SLP256 T00560011 10106 20056 56019=
201602210453 METAR KSEA 210453Z 03007KT 10SM BKN220 07/01 A3027 RMK AO2 SLP259 T00670011=
201602210353 METAR KSEA 210353Z 02006KT 10SM FEW030 SCT120 BKN220 07/01 A3029 RMK AO2 SLP265 T00720011=
201602210253 METAR KSEA 210253Z 01007KT 10SM FEW030 SCT120 BKN220 08/01 A3032 RMK AO2 SLP275 T00780011 56013=
201602210153 METAR KSEA 210153Z 36005KT 10SM FEW030 SCT120 BKN220 08/02 A3032 RMK AO2 SLP276 T00830017=
201602210053 METAR KSEA 210053Z 27003KT 10SM FEW030 BKN250 09/02 A3034 RMK AO2 SLP282 T00940017=
201602202353 METAR KSEA 202353Z 27004KT 10SM FEW030 BKN250 10/02 A3036 RMK AO2 SLP288 T01000017 10106 20067 56010=
201602202253 METAR KSEA 202253Z 00000KT 10SM SCT025 BKN250 11/02 A3037 RMK AO2 SLP292 T01060017=
201602202153 METAR KSEA 202153Z 23004KT 10SM FEW027 BKN250 10/02 A3037 RMK AO2 SLP293 T01000022=
201602202053 METAR KSEA 202053Z 21004KT 10SM SCT028 BKN250 09/03 A3039 RMK AO2 SLP299 T00940028 50003=
201602201953 METAR KSEA 201953Z 22006KT 10SM SCT028 BKN200 09/03 A3039 RMK AO2 SLP300 T00890033=
201602201853 METAR KSEA 201853Z 21007KT 10SM FEW028 SCT035 08/03 A3039 RMK AO2 SLP300 T00780033=
201602201753 METAR KSEA 201753Z 21008KT 10SM FEW028 07/03 A3038 RMK AO2 SLP295 T00670028 10067 20033 51019=
201602201653 METAR KSEA 201653Z 21011KT 10SM FEW028 06/02 A3036 RMK AO2 SLP291 T00560022=
201602201553 METAR KSEA 201553Z 19010KT 10SM FEW028 05/02 A3035 RMK AO2 SLP284 T00500022=
201602201453 METAR KSEA 201453Z 21012KT 10SM FEW028 04/02 A3032 RMK AO2 SLP276 T00440022 53018=
201602201353 METAR KSEA 201353Z 18012KT 10SM FEW028 SCT120 04/02 A3030 RMK AO2 SLP269 T00440017=
201602201253 METAR KSEA 201253Z 16009KT 10SM SCT024 03/02 A3028 RMK AO2 SLP264 T00330017=
201602201153 METAR KSEA 201153Z 15008KT 10SM FEW027 BKN036 BKN043 04/02 A3027 RMK AO2 SLP257 60004 70038 T00390022 10056 20039 51030=
201602201053 METAR KSEA 201053Z 18009KT 10SM FEW030 04/02 A3024 RMK AO2 SLP247 T00390017=
201602200953 METAR KSEA 200953Z 17009KT 10SM FEW015 BKN055 BKN100 04/02 A3021 RMK AO2 SLP238 T00440022=
201602200853 METAR KSEA 200853Z 19014G19KT 10SM SCT010 BKN016 OVC020 05/03 A3017 RMK AO2 SLP226 60004 T00500033 53035=
201602200753 METAR KSEA 200753Z 18012KT 10SM FEW013 SCT070 04/02 A3014 RMK AO2 RAE29 SLP214 P0000 T00440022 401000039=
201602200653 METAR KSEA 200653Z 19009KT 10SM -RA SCT030 BKN041 OVC075 05/03 A3010 RMK AO2 RAB09GSB22E29 SLP202 P0004 T00500028=
201602200634 SPECI KSEA 200634Z 21007KT 5SM -RA BR FEW012 SCT017 OVC029 04/02 A3010 RMK AO2 RAB09GSB22E29 P0004=
201602200622 SPECI KSEA 200622Z 24012G18KT 5SM GS BR SCT011 BKN016 OVC024 04/03 A3010 RMK AO2 RAB09E22GSB22 PRESRR P0001=
201602200553 METAR KSEA 200553Z 20007KT 10SM FEW016 BKN036 BKN048 06/03 A3007 RMK AO2 SLP190 60008 T00560033 10078 20050 53046=
201602200453 METAR KSEA 200453Z 18012KT 10SM FEW009 SCT060 BKN200 05/03 A3002 RMK AO2 SLP172 T00500033=
201602200425 SPECI KSEA 200425Z 18012KT 10SM FEW008 BKN055 06/03 A2999 RMK AO2=
201602200400 SPECI KSEA 200400Z 18013KT 10SM SCT010 BKN036 BKN060 06/04 A2997 RMK AO2=
201602200353 METAR KSEA 200353Z 18014KT 10SM BKN010 BKN030 OVC039 06/04 A2997 RMK AO2 RAB0256E53 SLP156 P0004 T00560039=
201602200328 SPECI KSEA 200328Z 21013G22KT 7SM -RA BKN014 OVC020 06/04 A2996 RMK AO2 RAB0256 P0001=
201602200253 METAR KSEA 200253Z 20013KT 10SM FEW014 OVC025 07/04 A2993 RMK AO2 RAE13 SLP144 P0000 60004 T00670039 53043=
201602200153 METAR KSEA 200153Z 22013G17KT 10SM -RA BKN016 OVC024 07/04 A2989 RMK AO2 RAE0057B19 SLP130 P0002 T00670044=
201602200118 SPECI KSEA 200118Z 21015G20KT 10SM FEW013 BKN028 OVC038 07/04 A2986 RMK AO2 RAE0057 P0000=
201602200053 METAR KSEA 200053Z 20013G21KT 10SM -RA FEW016 BKN031 OVC050 07/04 A2983 RMK AO2 SLP111 P0002 T00670044=
201602192353 METAR KSEA 192353Z 19013KT 10SM -RA FEW016 BKN024 OVC037 08/05 A2980 RMK AO2 SLP100 P0002 60011 T00780050 10100 20078 51056=
201602192253 METAR KSEA 192253Z 19011G19KT 10SM -RA FEW035 BKN050 OVC070 08/06 A2975 RMK AO2 RAE09B46 SLP081 P0000 T00830056=
201602192153 METAR KSEA 192153Z 22013G22KT 10SM -RA SCT015 BKN030 OVC049 08/06 A2970 RMK AO2 PK WND 21030/2101 SLP065 P0007 T00830056=
201602192053 METAR KSEA 192053Z 21020G30KT 4SM -RA FEW020 BKN040 OVC060 09/06 A2964 RMK AO2 PK WND 21030/2051 RAE08B39 PRESRR SLP042 P0001 60002 T00890056 53014=
201602191953 METAR KSEA 191953Z 11011KT 10SM -RA BKN060 OVC080 10/04 A2957 RMK AO2 RAE15B50 SLP020 P0000 T01000044=
201602191853 METAR KSEA 191853Z 09010KT 10SM -RA OVC055 09/05 A2957 RMK AO2 RAB15 SLP020 P0001 T00940050 $=
201602191753 METAR KSEA 191753Z 11008KT 10SM BKN060 OVC075 09/05 A2960 RMK AO2 RAE04 SLP029 P0000 60015 T00890050 10089 20072 58018 $=
201602191653 METAR KSEA 191653Z 08011KT 7SM -RA BKN045 OVC060 08/05 A2962 RMK AO2 SLP038 P0001 T00780050 $=
201602191553 METAR KSEA 191553Z 12007KT 9SM -RA OVC039 08/05 A2964 RMK AO2 SLP044 P0005 T00830050=
201602191453 METAR KSEA 191453Z 10008KT 10SM -RA OVC039 07/05 A2965 RMK AO2 SLP047 P0004 60009 T00720050 58017=
201602191353 METAR KSEA 191353Z 10008KT 9SM -RA OVC039 07/05 A2967 RMK AO2 SLP054 P0003 T00720050=
201602191253 METAR KSEA 191253Z 11006KT 7SM -RA OVC035 07/05 A2970 RMK AO2 SLP063 P0002 T00720050=
201602191153 METAR KSEA 191153Z 15006KT 10SM -RA OVC035 08/04 A2970 RMK AO2 RAB08 SLP064 P0002 60002 70014 T00780044 10078 20072 57012=
201602191053 METAR KSEA 191053Z 15007KT 10SM FEW034 BKN048 OVC070 08/04 A2971 RMK AO2 RAB19E41 SLP068 P0000 T00780044=
201602190953 METAR KSEA 190953Z 13007KT 10SM BKN050 OVC070 07/05 A2972 RMK AO2 RAE05 SLP072 P0000 T00720050=
201602190853 METAR KSEA 190853Z 20004KT 10SM -RA FEW032 BKN050 OVC075 07/05 A2973 RMK AO2 RAB25E34B53 SLP076 P0000 60000 T00720050 53010=
201602190753 METAR KSEA 190753Z 17011KT 10SM SCT039 BKN055 OVC070 08/05 A2973 RMK AO2 RAB01E19 SLP074 P0000 T00780050 401060067=
201602190653 METAR KSEA 190653Z 18015G20KT 10SM FEW023 SCT028 OVC049 08/05 A2970 RMK AO2 SLP066 T00780050=
201602190649 SPECI KSEA 190649Z 18013G19KT 10SM SCT023 SCT032 OVC050 08/05 A2971 RMK AO2=
201602190639 SPECI KSEA 190639Z 18016KT 10SM BKN023 BKN031 BKN050 08/05 A2970 RMK AO2=
201602190558 SPECI KSEA 190558Z 17012G17KT 10SM SCT024 BKN036 OVC050 07/05 A2969 RMK AO2=
201602190553 METAR KSEA 190553Z 16011KT 10SM FEW019 BKN026 OVC055 07/05 A2970 RMK AO2 RAE25 SLP063 P0002 60011 T00720050 10100 20067 51037=
201602190524 SPECI KSEA 190524Z 17011KT 10SM -RA BKN021 OVC032 07/05 A2969 RMK AO2 P0002=
201602190453 METAR KSEA 190453Z 17011KT 8SM RA FEW020 OVC031 07/04 A2967 RMK AO2 SLP055 P0009 T00670044=
201602190439 SPECI KSEA 190439Z 17012KT 7SM RA SCT018 OVC031 07/04 A2967 RMK AO2 P0007=
201602190415 SPECI KSEA 190415Z 19013G22KT 10SM -RA SCT021 BKN029 OVC034 08/04 A2964 RMK AO2 P0003=
201602190353 METAR KSEA 190353Z 19012KT 10SM -RA FEW031 BKN038 OVC080 08/04 A2962 RMK AO2 RAB31 SLP039 P0000 T00830039=
201602190253 METAR KSEA 190253Z 20009KT 10SM BKN040 BKN140 09/03 A2959 RMK AO2 SLP026 T00890033 51040=
201602190153 METAR KSEA 190153Z 21011KT 10SM BKN039 OVC120 09/03 A2955 RMK AO2 SLP014 T00890033=
201602190053 METAR KSEA 190053Z 22012KT 10SM BKN035 BKN150 09/03 A2951 RMK AO2 SLP001 T00940028=
201602182353 METAR KSEA 182353Z 21014G19KT 10SM SCT040 BKN055 10/03 A2947 RMK AO2 SLP985 60000 T01000033 10106 20089 53024=
201602182253 METAR KSEA 182253Z 21012KT 10SM FEW032 BKN055 BKN075 10/03 A2944 RMK AO2 SLP975 T01000028=
201602182153 METAR KSEA 182153Z 21012G16KT 10SM SCT032 BKN055 09/03 A2941 RMK AO2 RAE14 SLP966 P0000 T00940033=
201602182053 METAR KSEA 182053Z 21013G18KT 10SM -RA BKN032 BKN041 09/03 A2940 RMK AO2 PK WND 19027/2026 RAB32 SLP961 P0000 60000 T00890033 51017=
201602181953 METAR KSEA 181953Z 19012G20KT 10SM BKN035 BKN050 BKN085 10/04 A2938 RMK AO2 PK WND 21026/1901 RAB08E19 SLP957 P0000 T01000039=
201602181853 METAR KSEA 181853Z 21015G22KT 10SM BKN038 BKN095 OVC210 10/03 A2937 RMK AO2 PK WND 21028/1829 SLP953 T01000033=
201602181753 METAR KSEA 181753Z 17010KT 10SM FEW060 SCT095 BKN210 10/04 A2935 RMK AO2 SLP944 60001 T01000044 10100 20072 53018=
201602181653 METAR KSEA 181653Z 19005KT 10SM BKN060 BKN095 08/04 A2933 RMK AO2 SLP937 T00830044=
201602181553 METAR KSEA 181553Z 17008KT 10SM FEW044 BKN110 BKN200 07/05 A2930 RMK AO2 SLP929 T00720050=
201602181453 METAR KSEA 181453Z 12005KT 10SM FEW050 BKN070 BKN130 07/06 A2929 RMK AO2 RAE32 SLP926 P0000 60001 T00720056 50004=
201602181353 METAR KSEA 181353Z 16003KT 10SM -RA SCT055 BKN065 OVC110 07/06 A2930 RMK AO2 RAB50 SLP927 P0001 T00720061=
201602181253 METAR KSEA 181253Z 18006KT 10SM SCT090 BKN210 07/06 A2929 RMK AO2 SLP926 T00720056=
201602181153 METAR KSEA 181153Z 19005KT 10SM BKN090 07/06 A2928 RMK AO2 SLP921 60004 70047 T00720061 10089 20072 55001=
201602181053 METAR KSEA 181053Z 17004KT 10SM FEW032 OVC046 08/06 A2928 RMK AO2 SLP919 T00780061=
201602180953 METAR KSEA 180953Z 00000KT 10SM BKN032 OVC050 08/07 A2926 RMK AO2 RAB23E44 SLP916 P0000 T00830067=
201602180853 METAR KSEA 180853Z 19004KT 10SM SCT038 BKN050 OVC060 08/07 A2929 RMK AO2 SLP922 60004 T00830067 58009=
201602180753 METAR KSEA 180753Z 16006KT 10SM SCT050 BKN065 OVC110 08/07 A2930 RMK AO2 RAE40 SLP927 P0002 T00830067 401720083=
201602180653 METAR KSEA 180653Z 17007KT 10SM -RA BKN050 BKN065 OVC080 08/07 A2931 RMK AO2 SLP930 P0002 T00830072=
201602180553 METAR KSEA 180553Z 19009KT 10SM -RA FEW009 SCT037 OVC043 09/07 A2931 RMK AO2 SLP932 P0006 60040 T00890072 10144 20089 53027=
201602180527 SPECI KSEA 180527Z 20011KT 8SM RA FEW009 SCT016 OVC043 09/08 A2930 RMK AO2 P0005=
201602180453 METAR KSEA 180453Z 22012KT 10SM -RA FEW004 BKN016 OVC048 09/08 A2928 RMK AO2 SLP922 P0020 T00940078=
201602180353 METAR KSEA 180353Z 21007KT 5SM RA BR BKN008 OVC026 11/09 A2926 RMK AO2 PRESRR SLP914 P0011 T01060089=
201602180319 SPECI KSEA 180319Z 26007KT 8SM RA SCT008 OVC050 11/09 A2924 RMK AO2 P0002=
201602180253 METAR KSEA 180253Z 24005KT 10SM -RA SCT050 OVC060 11/09 A2923 RMK AO2 RAB19 SLP905 P0003 60003 T01060094 55001=
201602180153 METAR KSEA 180153Z 31004KT 10SM FEW035 BKN100 BKN200 11/09 A2917 RMK AO2 SLP885 T01110089=
201602180100 METAR KSEA NIL=
201602180053 METAR KSEA 180053Z 33006KT 10SM FEW036 BKN090 BKN200 13/09 A2920 RMK AO2 SLP895 T01280089=
201602172353 METAR KSEA 172353Z 08010KT 10SM FEW036 SCT075 BKN090 BKN200 14/08 A2923 RMK AO2 RAE2257B16E25 SLP905 P0000 60003 T01440078 10172 20117 58030=
201602172253 METAR KSEA 172253Z 10009KT 10SM -RA BKN070 OVC150 14/08 A2928 RMK AO2 SLP919 P0003 T01390083=
201602172153 METAR KSEA 172153Z 00000KT 10SM -RA BKN070 OVC085 12/09 A2931 RMK AO2 SLP930 P0000 T01220089=
201602172053 METAR KSEA 172053Z 00000KT 10SM -RA FEW070 BKN095 OVC180 13/08 A2933 RMK AO2 RAB50 SLP936 P0000 60000 T01330078 58024=
201602171953 METAR KSEA 171953Z 14007KT 10SM FEW075 BKN100 OVC190 17/06 A2935 RMK AO2 SLP945 T01670056=
201602171853 METAR KSEA 171853Z 09003KT 10SM FEW075 BKN110 BKN210 16/07 A2938 RMK AO2 SLP954 T01560067=
201602171753 METAR KSEA 171753Z 13004KT 10SM FEW080 BKN110 BKN210 12/07 A2940 RMK AO2 SLP960 T01220067 10128 20089 58015=
201602171653 METAR KSEA 171653Z 00000KT 10SM FEW080 BKN100 BKN250 11/06 A2942 RMK AO2 SLP969 T01060061=
201602171553 METAR KSEA 171553Z 34007KT 10SM SCT085 OVC110 09/06 A2943 RMK AO2 SLP973 T00890061=
201602171453 METAR KSEA 171453Z 34007KT 10SM BKN120 OVC200 09/06 A2944 RMK AO2 SLP976 T00890061 58050=
201602171353 METAR KSEA 171353Z 06009KT 10SM BKN110 OVC200 09/06 A2949 RMK AO2 SLP992 T00940061=
201602171253 METAR KSEA 171253Z 00000KT 10SM OVC100 09/07 A2955 RMK AO2 SLP012 T00890067=
201602171153 METAR KSEA 171153Z 08003KT 10SM FEW060 SCT075 OVC100 09/07 A2959 RMK AO2 RAB30E44 SLP027 P0000 60000 T00890067 10106 20083 58033=
201602171053 METAR KSEA 171053Z 03005KT 10SM OVC110 09/07 A2963 RMK AO2 SLP040 T00890067=
201602170953 METAR KSEA 170953Z 31003KT 10SM BKN110 OVC200 09/06 A2966 RMK AO2 SLP051 T00890061=
201602170853 METAR KSEA 170853Z 04005KT 10SM OVC220 09/06 A2969 RMK AO2 SLP061 T00890061 56026=
201602170753 METAR KSEA 170753Z 02005KT 10SM OVC210 09/07 A2971 RMK AO2 SLP068 T00940067 401220089=
201602170653 METAR KSEA 170653Z 32003KT 10SM FEW120 OVC200 09/07 A2974 RMK AO2 SLP077 T00940072=
201602170553 METAR KSEA 170553Z 02007KT 10SM SCT120 OVC200 10/08 A2977 RMK AO2 SLP087 T01000078 10122 20100 56036=
201602170453 METAR KSEA 170453Z 03005KT 10SM SCT100 BKN200 11/08 A2980 RMK AO2 SLP097 T01060078=
201602170353 METAR KSEA 170353Z 05005KT 10SM BKN100 OVC200 11/08 A2984 RMK AO2 SLP113 T01110078=
201602170253 METAR KSEA 170253Z 12003KT 10SM FEW080 OVC100 12/08 A2988 RMK AO2 SLP124 T01170078 56019=
201602170153 METAR KSEA 170153Z 00000KT 10SM FEW020 BKN120 OVC200 11/08 A2989 RMK AO2 SLP130 T01110083=
201602170053 METAR KSEA 170053Z 00000KT 10SM FEW015 OVC130 12/08 A2991 RMK AO2 SLP135 T01170083=
201602162353 METAR KSEA 162353Z 19004KT 10SM FEW015 BKN140 12/08 A2993 RMK AO2 SLP142 T01220078 10122 20100 58025=
201602162253 METAR KSEA 162253Z 21006KT 10SM FEW015 BKN150 12/08 A2997 RMK AO2 SLP154 T01220083=
201602162153 METAR KSEA 162153Z 23007KT 10SM FEW010 BKN220 12/08 A2999 RMK AO2 SLP161 T01220083=
201602162053 METAR KSEA 162053Z 21008KT 10SM FEW009 SCT044 BKN250 11/08 A3001 RMK AO2 SLP169 T01110083 58012=
201602161953 METAR KSEA 161953Z 21009KT 10SM SCT008 SCT043 BKN250 11/09 A3003 RMK AO2 SLP176 T01110094=
201602161936 SPECI KSEA 161936Z 23006KT 10SM SCT008 BKN043 BKN250 11/09 A3004 RMK AO2=
201602161903 SPECI KSEA 161903Z 23005KT 10SM SCT007 BKN012 BKN046 11/09 A3004 RMK AO2=
201602161853 METAR KSEA 161853Z 21007KT 10SM BKN007 BKN012 BKN050 11/09 A3005 RMK AO2 SLP183 T01060089=
201602161753 METAR KSEA 161753Z 21007KT 10SM BKN005 BKN250 10/09 A3004 RMK AO2 SLP181 T01000089 10100 20094 50002=
201602161653 METAR KSEA 161653Z 20007KT 10SM BKN006 OVC011 10/09 A3005 RMK AO2 SLP183 T01000089=
201602161553 METAR KSEA 161553Z 20007KT 10SM OVC005 09/08 A3004 RMK AO2 SLP181 T00940083=
201602161453 METAR KSEA 161453Z 19007KT 10SM BKN005 OVC011 09/08 A3004 RMK AO2 SLP179 T00940083 58001=
201602161353 METAR KSEA 161353Z 22005KT 10SM OVC005 09/08 A3004 RMK AO2 SLP180 T00940083=
201602161253 METAR KSEA 161253Z 22009KT 10SM BKN007 OVC012 10/08 A3004 RMK AO2 SLP179 T01000083=
201602161248 SPECI KSEA 161248Z 23008KT 10SM BKN007 OVC012 10/08 A3004 RMK AO2=
201602161229 SPECI KSEA 161229Z 21007KT 10SM FEW009 OVC011 10/08 A3004 RMK AO2=
201602161153 METAR KSEA 161153Z 19011KT 10SM OVC011 09/08 A3003 RMK AO2 RAE11 SLP174 P0000 60010 70039 T00940083 10100 20094 53006=
201602161053 METAR KSEA 161053Z 20013KT 10SM -RA BKN010 BKN015 OVC060 09/08 A3002 RMK AO2 RAB10 SLP173 P0000 T00940078=
201602161029 SPECI KSEA 161029Z 19018G24KT 10SM BKN013 OVC038 10/08 A3002 RMK AO2 RAB10E28 P0000=
201602160953 METAR KSEA 160953Z 19015KT 10SM OVC017 10/08 A3002 RMK AO2 SLP171 T01000078=
201602160853 METAR KSEA 160853Z 19011KT 10SM BKN017 OVC023 09/08 A3001 RMK AO2 SLP169 60010 T00940078 53002=
201602160753 METAR KSEA 160753Z 19011KT 7SM BKN012 BKN022 OVC033 09/08 A3000 RMK AO2 RAE40 SLP167 P0005 T00940078 401220094=
201602160717 SPECI KSEA 160717Z 20010KT 7SM -RA BKN012 BKN018 OVC028 09/08 A3000 RMK AO2 P0003=
201602160653 METAR KSEA 160653Z 22012G21KT 7SM -RA OVC015 10/08 A3000 RMK AO2 SLP168 P0005 T01000078=
201602160638 SPECI KSEA 160638Z 22009KT 7SM -RA BKN017 OVC021 10/08 A3001 RMK AO2 P0003=
201602160553 METAR KSEA 160553Z 25006KT 2SM -RA BR OVC021 10/08 A3001 RMK AO2 RAB16 SLP168 P0001 60006 T01000078 10122 20100 53004=
201602160453 METAR KSEA 160453Z 24007KT 10SM OVC025 11/08 A2999 RMK AO2 RAE31 SLP162 P0002 T01060078=
201602160353 METAR KSEA 160353Z 21008KT 5SM -RA BR BKN025 OVC034 11/08 A2998 RMK AO2 RAB19 SLP159 P0003 T01060083=
201602160338 SPECI KSEA 160338Z 22010G17KT 6SM -RA OVC025 11/08 A2999 RMK AO2 RAB19 P0001=
201602160253 METAR KSEA 160253Z 20011KT 10SM OVC037 12/07 A2999 RMK AO2 SLP163 60000 T01170072 58012=
201602160153 METAR KSEA 160153Z 20013KT 10SM BKN028 OVC032 12/07 A3001 RMK AO2 RAB33E42 SLP168 P0000 T01220072=
201602160146 SPECI KSEA 160146Z 20014G22KT 10SM OVC028 12/07 A3001 RMK AO2 RAB33E42 P0000=
201602160053 METAR KSEA 160053Z 19014KT 10SM OVC030 12/07 A3002 RMK AO2 SLP172 T01220072=
201602160020 SPECI KSEA 160020Z 19014G22KT 10SM SCT026 OVC037 12/08 A3002 RMK AO2=
201602152353 METAR KSEA 152353Z 19017G24KT 10SM BKN024 OVC032 12/08 A3003 RMK AO2 RAE50 SLP176 P0000 60016 T01220078 10122 20106 57016=
201602152305 SPECI KSEA 152305Z 19014G20KT 4SM -RA FEW011 OVC018 12/08 A3005 RMK AO2 P0000=
201602152253 METAR KSEA 152253Z 21013G21KT 1 1/2SM -RA OVC018 12/08 A3005 RMK AO2 SFC VIS 2 SLP181 P0004 T01170083=
201602152153 METAR KSEA 152153Z 20014G19KT 1 1/2SM R16L/4500V6000FT -RA BR BKN016 OVC025 11/09 A3006 RMK AO2 RAE32B50 SLP186 P0008 T01110089=
201602152106 SPECI KSEA 152106Z 18010KT 1 1/2SM R16L/4000VP6000FT -RA BKN018 OVC024 11/09 A3007 RMK AO2 P0002=
201602152053 METAR KSEA 152053Z 21009KT 2 1/2SM R16L/5500VP6000FT -RA BKN019 OVC028 11/08 A3008 RMK AO2 SLP192 P0003 60004 T01110083 58008=
201602152048 SPECI KSEA 152048Z 20007KT 2 1/2SM R16L/6000VP6000FT -RA BKN021 OVC028 11/08 A3008 RMK AO2 P0002=
201602151953 METAR KSEA 151953Z 21010G19KT 3SM R16L/5000VP6000FT -RA BKN018 OVC026 11/08 A3011 RMK AO2 RAB02 SLP201 P0001 T01060078=
201602151853 METAR KSEA 151853Z 22015G20KT 8SM BKN018 OVC025 11/08 A3011 RMK AO2 RAE18B41E49 SLP202 P0000 T01110078=
201602151753 METAR KSEA 151753Z 20013KT 7SM -RA FEW012 OVC019 11/08 A3010 RMK AO2 RAE33B49 SLP200 P0001 60007 T01110078 10111 20100 50007=
201602151719 SPECI KSEA 151719Z 21010KT 6SM -RA BR FEW011 BKN016 OVC030 11/08 A3010 RMK AO2 P0000=
201602151653 METAR KSEA 151653Z 22011KT 6SM -RA BR BKN011 OVC016 11/08 A3010 RMK AO2 RAE11B29 SLP201 P0000 T01060083=
201602151643 SPECI KSEA 151643Z 21011KT 6SM BR BKN011 OVC017 11/08 A3009 RMK AO2 RAE11B29E39 P0000=
201602151553 METAR KSEA 151553Z 21010G20KT 7SM -RA BKN008 OVC015 11/09 A3010 RMK AO2 RAE26B46 SLP199 P0001 T01060089=
201602151453 METAR KSEA 151453Z 20013G19KT 4SM -RA BR OVC008 11/09 A3008 RMK AO2 RAB29E35B51 SLP193 P0000 60005 T01060089 56000=
201602151447 SPECI KSEA 151447Z 20011G18KT 4SM BR OVC008 11/09 A3008 RMK AO2 RAB29E35 P0000=
201602151412 SPECI KSEA 151412Z 21014G22KT 7SM OVC010 11/09 A3009 RMK AO2=
201602151353 METAR KSEA 151353Z 21016G25KT 7SM BKN008 OVC015 11/09 A3008=
201602151253 METAR KSEA 151253Z 20017G23KT 3SM -RA BR BKN005 OVC011 11/09 A3008 RMK AO2 RAE22B50 SLP193 P0005 T01060094=
201602151153 METAR KSEA 151153Z 20017G22KT 4SM -RA BR BKN007 OVC010 11/09 A3009 RMK AO2 SLP196 P0003 60008 70022 T01060094 10111 20100 56010=
201602151053 METAR KSEA 151053Z 21013KT 3SM -RA BR BKN005 OVC010 11/09 A3011 RMK AO2 PK WND 21027/1008 RAE14B42 SLP202 P0001 T01060094=
201602150953 METAR KSEA 150953Z 21015G22KT 5SM -RA BR BKN005 OVC013 11/09 A3010 RMK AO2 PK WND 21026/0901 RAE29B49 SLP199 P0002 T01060094=
201602150853 METAR KSEA 150853Z 21013KT 6SM -RA BR SCT005 OVC009 11/09 A3012 RMK AO2 RAB28 SLP206 P0001 60002 T01060094 55006=
201602150753 METAR KSEA 150753Z 19008KT 10SM OVC009 11/09 A3012 RMK AO2 SLP205 T01110094 401170083=
201602150653 METAR KSEA 150653Z 18011G21KT 10SM BKN007 OVC012 11/09 A3011 RMK AO2 RAE09 SLP203 P0001 T01060094=
201602150553 METAR KSEA 150553Z 19011G19KT 3SM -RA BR BKN005 OVC010 11/09 A3014 RMK AO2 RAE01B31 SLP213 P0001 60004 T01060094 10117 20106 58001=
201602150453 METAR KSEA 150453Z 20010KT 5SM -RA BR OVC005 11/09 A3015 RMK AO2 RAE28B45 SLP216 P0001 T01060094=
201602150437 SPECI KSEA 150437Z 21010KT 10SM OVC005 11/09 A3015 RMK AO2 RAE28 P0000=
201602150419 SPECI KSEA 150419Z 21010KT 10SM -RA OVC003 11/10 A3015 RMK AO2 P0000=
201602150353 METAR KSEA 150353Z 20011KT 10SM -RA BKN005 OVC021 11/10 A3014 RMK AO2 SLP215 P0002 T01060100=
201602150333 SPECI KSEA 150333Z 21011G18KT 10SM -RA BKN005 OVC017 11/10 A3015 RMK AO2 P0001=
201602150253 METAR KSEA 150253Z 21014G25KT 10SM -RA FEW007 OVC017 11/10 A3014 RMK AO2 RAB40 SLP214 P0000 60000 T01110100 51005=
201602150153 METAR KSEA 150153Z 20016G22KT 10SM BKN010 BKN080 OVC095 11/10 A3014 RMK AO2 SLP214 T01110100=
201602150053 METAR KSEA 150053Z 21017KT 10SM BKN010 OVC090 12/09 A3014 RMK AO2 PK WND 21026/0010 SLP213 T01170094=
201602150030 SPECI KSEA 150030Z 21018KT 10SM BKN010 OVC100 12/09 A3012 RMK AO2 PK WND 21026/0010=
201602150026 SPECI KSEA 150026Z 22020KT 10SM SCT010 OVC100 12/09 A3012 RMK AO2 PK WND 21026/0010=
201602142353 METAR KSEA 142353Z 21018G28KT 10SM OVC011 12/09 A3013 RMK AO2 PK WND 21028/2345 SLP209 60002 T01170094 10117 20094 53002=
201602142253 METAR KSEA 142253Z 21020G29KT 10SM OVC011 12/09 A3012 RMK AO2 PK WND 20029/2253 SLP207 T01170094=
201602142153 METAR KSEA 142153Z 20016G23KT 10SM OVC013 11/09 A3011 RMK AO2 SLP205 T01110094=
201602142053 METAR KSEA 142053Z 20016KT 10SM OVC011 11/09 A3012 RMK AO2 SLP206 60002 T01110094 58003=
201602141953 METAR KSEA 141953Z 19012KT 10SM OVC009 11/09 A3013 RMK AO2 RAE05 SLP209 P0001 T01060089=
201602141918 SPECI KSEA 141918Z 18010KT 8SM FEW006 SCT009 OVC012 11/09 A3013 RMK AO2 RAE05 P0001=
201602141853 METAR KSEA 141853Z 17012KT 2SM -RA BR SCT006 OVC012 11/09 A3012 RMK AO2 RAB01 SLP208 P0001 T01060089=
201602141849 SPECI KSEA 141849Z 18009KT 2SM -RA BR BKN006 OVC012 10/09 A3013 RMK AO2 RAB01 P0001=
201602141753 METAR KSEA 141753Z 18008KT 2SM BR OVC004 09/09 A3013 RMK AO2 SFC VIS 5 RAE22 SLP209 P0001 60008 T00940089 10094 20089 58001=
201602141653 METAR KSEA 141653Z 17007KT 2SM -RA BR BKN004 OVC008 09/08 A3014 RMK AO2 SFC VIS 3 RAE1557B13 SLP213 P0002 T00890083=
201602141626 SPECI KSEA 141626Z 17006KT 2SM -RA BR OVC006 09/08 A3015 RMK AO2 SFC VIS 4 RAE1557B13 P0000=
201602141553 METAR KSEA 141553Z 18007KT 5SM -RA BR BKN006 OVC017 09/08 A3014 RMK AO2 SLP215 P0001 T00890078=
201602141453 METAR KSEA 141453Z 19007KT 8SM -RA BKN014 OVC019 09/08 A3013 RMK AO2 SLP210 P0002 60004 T00890078 53005=
201602141353 METAR KSEA 141353Z 21007KT 10SM -RA OVC017 09/08 A3011 RMK AO2 RAE34B51 SLP204 P0002 T00890078=
201602141331 SPECI KSEA 141331Z 20008KT 10SM -RA OVC015 09/08 A3010 RMK AO2 P0002=
201602141253 METAR KSEA 141253Z 19009KT 10SM -RA OVC011 09/08 A3011 RMK AO2 RAB36 SLP204 P0000 T00890078=
201602141153 METAR KSEA 141153Z 18009KT 10SM SCT005 OVC011 09/08 A3011 RMK AO2 RAE43 SLP204 P0000 60001 70030 T00890078 10089 20072 58001=
201602141144 SPECI KSEA 141144Z 18008KT 10SM SCT005 OVC011 09/08 A3012 RMK AO2 RAE43 P0000=
201602141053 METAR KSEA 141053Z 18011KT 3SM -RA BR BKN005 OVC017 09/08 A3013 RMK AO2 SLP210 P0000 T00890078=
201602140953 METAR KSEA 140953Z 19012G20KT 5SM -RA BR BKN005 OVC017 09/08 A3013 RMK AO2 SLP209 P0000 T00890078=
201602140853 METAR KSEA 140853Z 19014KT 3SM -RA BR BKN005 OVC017 08/08 A3012 RMK AO2 RAB15 SLP205 P0000 60001 T00830078 53009=
201602140753 METAR KSEA 140753Z 20013KT 4SM BR OVC019 08/07 A3009 RMK AO2 SLP197 T00830067 401000061=
201602140653 METAR KSEA 140653Z 20009KT 10SM OVC019 08/06 A3008 RMK AO2 SLP193 P0001 T00780061=
201602140553 METAR KSEA 140553Z 17006KT 8SM OVC021 07/06 A3009 RMK AO2 RAE45 SLP197 P0001 60010 T00720061 10078 20067 50001=
201602140453 METAR KSEA 140453Z 16009KT 3SM -RA BR OVC019 07/06 A3009 RMK AO2 RAB13 SLP198 P0002 T00720061=
201602140353 METAR KSEA 140353Z 15004KT 5SM BR BKN020 OVC026 07/06 A3011 RMK AO2 SLP203 T00670056=
201602140253 METAR KSEA 140253Z 17006KT 10SM OVC031 07/05 A3009 RMK AO2 RAE28 SLP196 P0001 60007 T00720050 56023=
201602140153 METAR KSEA 140153Z 17008KT 10SM -RA OVC037 07/05 A3009 RMK AO2 SLP197 P0001 T00670050=
201602140053 METAR KSEA 140053Z 17012KT 9SM -RA FEW013 BKN030 OVC033 07/06 A3012 RMK AO2 SLP207 P0005 T00720056=
201602132353 METAR KSEA 132353Z 18009KT 8SM -RA FEW015 SCT021 OVC033 08/06 A3015 RMK AO2 SLP220 P0007 60019 T00780061 10100 20078 58013=
201602132253 METAR KSEA 132253Z 18011KT 8SM -RA SCT027 OVC033 08/06 A3017 RMK AO2 SLP225 P0008 T00780061=
201602132153 METAR KSEA 132153Z 19009KT 7SM -RA FEW016 BKN030 OVC039 08/06 A3019 RMK AO2 PK WND 19026/2057 SLP232 P0004 T00830061=
201602132053 METAR KSEA 132053Z 18013G20KT 10SM -RA BKN037 BKN047 OVC055 10/06 A3019 RMK AO2 RAB12 SLP232 P0000 60000 T01000056 58028=
201602131953 METAR KSEA 131953Z 16007KT 10SM BKN044 OVC050 10/05 A3022 RMK AO2 SLP239 T01000050=
201602131853 METAR KSEA 131853Z 17009KT 10SM FEW026 OVC100 09/04 A3026 RMK AO2 SLP254 T00890044=
201602131753 METAR KSEA 131753Z 19011KT 10SM FEW026 OVC130 08/04 A3028 RMK AO2 SLP260 T00830044 10089 20072 56002=
201602131653 METAR KSEA 131653Z 19013KT 10SM FEW026 OVC140 09/04 A3028 RMK AO2 SLP261 T00890044=
201602131553 METAR KSEA 131553Z 18012KT 10SM FEW028 OVC043 08/05 A3028 RMK AO2 SLP260 T00780050=
201602131453 METAR KSEA 131453Z 19013KT 10SM FEW025 BKN042 07/05 A3028 RMK AO2 SLP262 T00720050 51011=
201602131438 SPECI KSEA 131438Z 19011KT 10SM FEW027 BKN046 07/05 A3028 RMK AO2=
201602131353 METAR KSEA 131353Z 18012KT 10SM BKN021 BKN027 07/05 A3028 RMK AO2 SLP261 T00720050=
201602131253 METAR KSEA 131253Z 17011KT 10SM BKN017 BKN025 07/05 A3027 RMK AO2 SLP257 T00720050=
201602131153 METAR KSEA 131153Z 18010KT 10SM SCT015 BKN024 07/05 A3025 RMK AO2 RAE13 SLP252 P0002 60019 70046 T00720050 10089 20061 53008=
201602131053 METAR KSEA 131053Z 17012G18KT 10SM -RA FEW017 OVC024 07/05 A3024 RMK AO2 RAB49 SLP246 P0000 T00670050=
201602131039 SPECI KSEA 131039Z 15011KT 10SM BKN028 BKN035 07/05 A3023 RMK AO2=
201602130953 METAR KSEA 130953Z 17011KT 10SM SCT036 BKN100 07/04 A3021 RMK AO2 RAE35 SLP237 P0008 T00670044=
201602130945 SPECI KSEA 130945Z 17009KT 10SM BKN036 BKN100 07/04 A3021 RMK AO2 RAE35 P0008=
201602130909 SPECI KSEA 130909Z 22017G23KT 3SM RA BR OVC029 07/04 A3022 RMK AO2 P0006=
201602130853 METAR KSEA 130853Z 25014G19KT 2SM +RA BR SCT019 OVC027 06/04 A3023 RMK AO2 RAB30 SLP243 VIS NW 3 P0009 60009 T00610044 53012=
201602130753 METAR KSEA 130753Z 19007KT 10SM FEW025 SCT070 BKN110 09/05 A3020 RMK AO2 SLP233 T00890050 401390083=
201602130740 SPECI KSEA 130740Z 20009KT 10SM SCT026 SCT031 BKN110 09/06 A3019 RMK AO2=
201602130715 SPECI KSEA 130715Z 19007KT 10SM BKN026 09/06 A3019 RMK AO2=
201602130653 METAR KSEA 130653Z 19006KT 10SM FEW024 SCT065 BKN210 09/06 A3019 RMK AO2 SLP232 T00890056=
201602130553 METAR KSEA 130553Z 20008KT 10SM FEW030 SCT065 BKN210 09/06 A3019 RMK AO2 SLP232 T00890061 10133 20089 53009=
201602130453 METAR KSEA 130453Z 20009KT 10SM FEW030 BKN075 10/06 A3017 RMK AO2 SLP224 T01000061=
201602130353 METAR KSEA 130353Z 20008KT 10SM FEW030 SCT075 10/06 A3017 RMK AO2 SLP223 T01000061=
201602130253 METAR KSEA 130253Z 24008KT 10SM FEW031 SCT038 BKN065 11/06 A3016 RMK AO2 SLP221 T01110061 53007=
201602130153 METAR KSEA 130153Z 22007KT 10SM FEW028 SCT032 BKN085 12/07 A3015 RMK AO2 SLP217 T01170067=
201602130053 METAR KSEA 130053Z 20008KT 10SM SCT034 SCT080 13/07 A3014 RMK AO2 SLP212 T01280072=
201602122353 METAR KSEA 122353Z 19010KT 10SM FEW030 SCT070 13/07 A3014 RMK AO2 SLP214 60013 T01330067 10139 20111 53000=
201602122253 METAR KSEA 122253Z 19009KT 10SM SCT025 SCT120 13/07 A3014 RMK AO2 SLP212 T01330072=
201602122153 METAR KSEA 122153Z 19010KT 10SM SCT023 SCT120 13/07 A3014 RMK AO2 SLP211 SHRA SE-SW T01330072=
201602122107 SPECI KSEA 122107Z 19012KT 10SM FEW015 SCT021 BKN120 13/09 A3014 RMK AO2=
201602122053 METAR KSEA 122053Z 19011KT 10SM FEW013 BKN021 BKN120 12/09 A3014 RMK AO2 SLP213 60013 T01220089 50017=
201602122022 SPECI KSEA 122022Z 18009KT 10SM SCT011 BKN020 BKN120 12/09 A3015 RMK AO2=
201602121953 METAR KSEA 121953Z 18007KT 10SM FEW006 BKN010 BKN070 12/10 A3014 RMK AO2 SLP214 T01170100=
201602121931 SPECI KSEA 121931Z 19012KT 10SM FEW005 BKN010 BKN070 12/10 A3013 RMK AO2=
201602121853 METAR KSEA 121853Z 18008KT 10SM FEW004 SCT032 BKN065 12/11 A3010 RMK AO2 PK WND 22026/1806 RAE48 SLP199 P0013 T01170106=
201602121817 SPECI KSEA 121817Z 23012G20KT 8SM -RA FEW005 BKN032 OVC055 11/09 A3011 RMK AO2 PK WND 22026/1806 P0011=
201602121753 METAR KSEA 121753Z 21007KT 3SM RA BR FEW003 BKN006 OVC039 11/11 A3009 RMK AO2 RAB08 SLP196 P0010 60014 T01110106 10117 20100 53004=
201602121653 METAR KSEA 121653Z 27005KT 10SM BKN005 BKN050 BKN085 12/11 A3006 RMK AO2 SLP186 T01170106=
201602121648 SPECI KSEA 121648Z 27005KT 10SM BKN005 BKN050 BKN085 12/11 A3006 RMK AO2=
201602121553 METAR KSEA 121553Z 15007KT 10SM FEW002 BKN050 BKN085 11/10 A3006 RMK AO2 SLP186 T01110100=
201602121525 SPECI KSEA 121525Z 15007KT 7SM R16L/3500VP6000FT BCFG SCT002 SCT080 11/09 A3007 RMK AO2 VIS E-S 2=
201602121516 SPECI KSEA 121516Z 13009KT 1/2SM R16L/1600V4000FT FG BKN002 OVC050 11/09 A3007 RMK AO2 TWR VIS 10=
201602121453 METAR KSEA 121453Z 14009KT 5SM BR BKN004 BKN009 OVC050 11/10 A3008 RMK AO2 RAE11B30E44 SLP193 BKN004 V SCT P0001 60004 T01060100 58005=
201602121430 SPECI KSEA 121430Z 15006KT 5SM -RA BR BKN004 OVC009 11/10 A3009 RMK AO2 RAE11B30 P0001=
201602121407 SPECI KSEA 121407Z 16005KT 6SM -RA BR FEW004 BKN009 OVC024 11/09 A3009 RMK AO2 P0000=
201602121353 METAR KSEA 121353Z 15005KT 7SM -RA FEW006 BKN015 OVC022 11/09 A3009 RMK AO2 RAB26 SLP197 P0002 T01060094=
201602121253 METAR KSEA 121253Z 14009KT 10SM FEW004 OVC023 10/09 A3009 RMK AO2 RAE30 SLP196 P0001 T01000094=
201602121229 SPECI KSEA 121229Z 13008KT 10SM -RA FEW004 BKN023 OVC041 10/09 A3009 RMK AO2 P0001=
201602121205 SPECI KSEA 121205Z 13012KT 9SM SCT002 OVC007 11/09 A3009 RMK AO2 RAE05 P0000=
201602121153 METAR KSEA 121153Z 13013KT 1SM R16L/P6000FT -RA BR SCT002 OVC005 11/09 A3009 RMK AO2 SLP197 P0006 60080 70101 T01060094 10111 20100 58003=
201602121101 SPECI KSEA 121101Z 17005KT 6SM RA BR BKN005 OVC027 11/10 A3011 RMK AO2 P0001=
201602121053 METAR KSEA 121053Z 15006KT 5SM RA BR SCT005 BKN025 OVC055 11/10 A3011 RMK AO2 SLP202 P0009 T01060100=
201602121041 SPECI KSEA 121041Z 14006KT 7SM RA FEW007 BKN026 OVC060 11/10 A3011 RMK AO2 P0006=
201602121004 SPECI KSEA 121004Z 14006KT 10SM -RA SCT010 BKN035 OVC060 11/09 A3010 RMK AO2 P0001=
201602120953 METAR KSEA 120953Z 13007KT 10SM -RA BKN012 BKN028 OVC049 10/09 A3010 RMK AO2 SLP199 P0013 T01000094=
201602120941 SPECI KSEA 120941Z 12005KT 8SM -RA SCT014 BKN027 OVC038 10/09 A3010 RMK AO2 P0013=
201602120925 SPECI KSEA 120925Z 21003KT 1 1/2SM RA BR FEW001 BKN023 OVC036 10/10 A3010 RMK AO2 P0010=
201602120917 SPECI KSEA 120917Z 00000KT 1 1/2SM R16L/4000VP6000FT RA BR FEW001 BKN012 OVC032 10/10 A3010 RMK AO2 P0008=
201602120907 SPECI KSEA 120907Z 00000KT 1 1/2SM R16L/2800VP6000FT RA BR BKN003 OVC012 10/09 A3010 RMK AO2 P0005=
201602120902 SPECI KSEA 120902Z 26004KT 2SM R16L/2800VP6000FT RA BR SCT003 OVC012 10/09 A3011 RMK AO2 P0003=
201602120853 METAR KSEA 120853Z 26008KT 3SM +RA BR BKN012 OVC029 10/09 A3010 RMK AO2 PRESRR SLP200 P0028 60052 T01000089 53008=
201602120850 SPECI KSEA 120850Z 25007KT 4SM +RA BR BKN012 OVC029 10/09 A3010 RMK AO2 PRESRR P0026=
201602120753 METAR KSEA 120753Z 12009KT 4SM RA BR BKN017 OVC024 10/09 A3008 RMK AO2 SLP193 P0011 T01000089 401280072=
201602120719 SPECI KSEA 120719Z 11012KT 10SM -RA BKN023 OVC080 11/09 A3008 RMK AO2 P0002=
201602120653 METAR KSEA 120653Z 12013KT 4SM RA BR FEW032 BKN048 OVC070 10/09 A3008 RMK AO2 SLP193 P0013 T01000089=
201602120627 SPECI KSEA 120627Z 14009KT 4SM RA BR SCT017 BKN036 OVC046 11/09 A3009 RMK AO2 P0006=
201602120605 SPECI KSEA 120605Z 14005KT 7SM -RA BKN017 BKN036 OVC075 11/09 A3009 RMK AO2 P0001=
201602120553 METAR KSEA 120553Z 11008KT 4SM -RA BR FEW015 BKN038 OVC075 11/09 A3009 RMK AO2 SLP195 P0004 60020 T01060089 10111 20100 56011=
201602120536 SPECI KSEA 120536Z 12006KT 10SM -RA FEW014 BKN026 OVC050 11/09 A3009 RMK AO2 P0001=
201602120453 METAR KSEA 120453Z 11009KT 7SM -RA BKN042 OVC070 11/09 A3009 RMK AO2 RAE08B30 SLP198 P0002 T01060089=
201602120353 METAR KSEA 120353Z 12007KT 10SM -RA OVC034 11/09 A3011 RMK AO2 SLP202 P0003 T01060089=
201602120253 METAR KSEA 120253Z 12007KT 7SM -RA SCT030 OVC039 11/09 A3012 RMK AO2 SLP207 P0005 60011 T01060094 50006=
201602120153 METAR KSEA 120153Z 00000KT 8SM -RA OVC038 10/09 A3013 RMK AO2 SLP209 P0004 T01000089=
201602120053 METAR KSEA 120053Z 27004KT 6SM -RA BR OVC046 11/09 A3011 RMK AO2 SLP203 P0002 T01060094=
201602112353 METAR KSEA 112353Z 00000KT 10SM -RA OVC050 11/09 A3010 RMK AO2 RAE25B44 SLP200 P0000 60001 T01110089 10128 20094 58005=
201602112253 METAR KSEA 112253Z 00000KT 10SM -RA OVC055 11/09 A3011 RMK AO2 SLP203 P0001 T01110089=
201602112153 METAR KSEA 112153Z 00000KT 10SM -RA BKN060 OVC080 12/08 A3011 RMK AO2 RAB50 SLP204 P0000 T01220078=
201602112053 METAR KSEA 112053Z 34007KT 10SM FEW045 BKN060 OVC100 12/08 A3012 RMK AO2 PRESFR SLP205 T01170078 56021=
201602111953 METAR KSEA 111953Z 29003KT 10SM BKN070 OVC090 11/08 A3013 RMK AO2 SLP212 T01110078=
201602111853 METAR KSEA 111853Z 33004KT 10SM BKN070 OVC090 11/08 A3015 RMK AO2 SLP218 T01060078=
201602111753 METAR KSEA 111753Z 16004KT 10SM FEW008 BKN075 OVC090 09/08 A3018 RMK AO2 RAB30E39 SLP226 P0000 60000 T00940078 10094 20078 53000=
201602111653 METAR KSEA 111653Z 12004KT 10SM FEW007 BKN080 OVC150 09/08 A3018 RMK AO2 RAE1558 SLP226 P0000 T00890078=
201602111553 METAR KSEA 111553Z 00000KT 10SM -RA FEW060 BKN080 OVC180 09/07 A3018 RMK AO2 RAB49 SLP226 P0000 T00890072=
201602111453 METAR KSEA 111453Z 33006KT 10SM BKN100 OVC200 08/07 A3018 RMK AO2 SLP226 T00830072 58014=
201602111353 METAR KSEA 111353Z VRB03KT 10SM BKN110 OVC200 08/07 A3019 RMK AO2 SLP229 T00830067=
201602111253 METAR KSEA 111253Z 35003KT 10SM BKN110 08/07 A3022 RMK AO2 SLP240 T00830072=
201602111153 METAR KSEA 111153Z 36005KT 10SM BKN140 08/07 A3022 RMK AO2 SLP239 70013 T00830072 10106 20072 56023=
201602111053 METAR KSEA 111053Z 03006KT 10SM CLR 09/07 A3023 RMK AO2 SLP243 T00890072=
201602110953 METAR KSEA 110953Z 02006KT 10SM BKN160 09/08 A3025 RMK AO2 SLP252 T00890078=
201602110853 METAR KSEA 110853Z 04004KT 10SM FEW019 08/07 A3029 RMK AO2 SLP264 T00780067 58005=
201602110753 METAR KSEA 110753Z 33004KT 9SM FEW019 SCT190 08/07 A3030 RMK AO2 SLP269 T00780067 401330078=
201602110653 METAR KSEA 110653Z 17003KT 10SM SCT190 08/07 A3031 RMK AO2 SLP271 T00830072=
201602110553 METAR KSEA 110553Z 00000KT 10SM FEW013 09/07 A3030 RMK AO2 SLP269 60000 T00890072 10133 20089 50007=
201602110453 METAR KSEA 110453Z 00000KT 10SM SCT015 SCT220 11/08 A3031 RMK AO2 SLP270 T01060083=
201602110353 METAR KSEA 110353Z 21011KT 10SM FEW035 BKN200 11/08 A3028 RMK AO2 SLP263 T01110083=
201602110253 METAR KSEA 110253Z 22009KT 10SM FEW035 BKN220 11/08 A3028 RMK AO2 SLP262 60000 T01110083 50013=
201602110231 SPECI KSEA 110231Z 22007KT 10SM FEW025 SCT035 BKN220 11/08 A3029 RMK AO2=
201602110153 METAR KSEA 110153Z 23006KT 10SM BKN025 BKN032 BKN150 12/09 A3029 RMK AO2 SLP263 T01170089=
201602110053 METAR KSEA 110053Z 27003KT 10SM FEW036 BKN060 BKN140 12/08 A3027 RMK AO2 RAB2357E13 SLP258 P0000 T01170083=
201602102353 METAR KSEA 102353Z 20003KT 10SM BKN036 BKN060 13/09 A3024 RMK AO2 RAB15E27 SLP247 P0000 60012 T01330089 10133 20089 55002=
201602102253 METAR KSEA 102253Z 13008KT 10SM SCT036 OVC050 13/08 A3022 RMK AO2 SLP240 T01330078=
201602102153 METAR KSEA 102153Z 13005KT 10SM BKN038 BKN080 12/07 A3023 RMK AO2 SLP245 T01170072=
201602102053 METAR KSEA 102053Z 13008KT 10SM FEW025 BKN040 BKN100 11/08 A3025 RMK AO2 RAB19E35 SLP251 P0000 60012 T01060078 51022=
201602101953 METAR KSEA 101953Z 13010KT 10SM FEW025 OVC038 09/08 A3024 RMK AO2 RAE49 SLP248 P0002 T00940078=
201602101853 METAR KSEA 101853Z 18005KT 7SM RA BKN042 OVC050 09/08 A3022 RMK AO2 SLP242 P0010 T00940078=
201602101753 METAR KSEA 101753Z 22008KT 10SM -RA BKN070 OVC090 11/06 A3018 RMK AO2 RAB15 SLP228 P0001 60001 T01060061 10111 20083 53030=
201602101653 METAR KSEA 101653Z 00000KT 10SM BKN090 OVC110 09/06 A3014 RMK AO2 SLP213 T00940061=
201602101553 METAR KSEA 101553Z 17003KT 10SM BKN110 OVC200 08/06 A3012 RMK AO2 SLP207 T00830056=
201602101453 METAR KSEA 101453Z 14003KT 10SM BKN110 10/03 A3009 RMK AO2 SLP197 T01000033 53002=
201602101353 METAR KSEA 101353Z 12005KT 10SM BKN130 10/04 A3008 RMK AO2 SLP193 T01000039=
201602101253 METAR KSEA 101253Z 13003KT 10SM BKN150 09/04 A3008 RMK AO2 SLP194 T00940039=
201602101153 METAR KSEA 101153Z 11009KT 10SM BKN180 10/03 A3009 RMK AO2 SLP194 T01000028 10139 20078 58012=
201602101053 METAR KSEA 101053Z 15006KT 10SM SCT150 09/04 A3012 RMK AO2 SLP207 T00890039=
201602100953 METAR KSEA 100953Z 11007KT 10SM BKN150 09/04 A3013 RMK AO2 SLP209 T00890044=
201602100853 METAR KSEA 100853Z 12004KT 10SM CLR 09/06 A3012 RMK AO2 SLP206 T00940056 53003=
201602100753 METAR KSEA 100753Z 21004KT 10SM CLR 10/03 A3012 RMK AO2 SLP205 T01000028 401720033=
201602100653 METAR KSEA 100653Z 15004KT 10SM CLR 12/03 A3011 RMK AO2 SLP203 T01170028=
201602100553 METAR KSEA 100553Z 13005KT 10SM BKN220 13/03 A3011 RMK AO2 SLP204 T01330033 10150 20122 56008=
201602100453 METAR KSEA 100453Z 15003KT 10SM BKN250 13/04 A3012 RMK AO2 SLP206 T01280044=
201602100353 METAR KSEA 100353Z 12008KT 10SM BKN250 14/06 A3013 RMK AO2 SLP209 T01440056=
201602100253 METAR KSEA 100253Z 13008KT 10SM BKN250 15/06 A3014 RMK AO2 SLP212 T01500056 50001=
201602100153 METAR KSEA 100153Z 13008KT 10SM BKN250 14/06 A3014 RMK AO2 SLP214 T01440056=
201602100053 METAR KSEA 100053Z 16006KT 10SM BKN250 13/06 A3013 RMK AO2 SLP212 T01280061=
201602092353 METAR KSEA 092353Z 19006KT 10SM BKN250 14/06 A3013 RMK AO2 SLP212 T01440061 10172 20061 55005=
201602092253 METAR KSEA 092253Z 22005KT 10SM BKN250 17/06 A3013 RMK AO2 SLP208 T01720061=
201602092153 METAR KSEA 092153Z 25004KT 10SM BKN250 17/06 A3013 RMK AO2 SLP208 T01670056 $=
201602092053 METAR KSEA 092053Z 29004KT 10SM BKN250 16/08 A3015 RMK AO2 SLP216 T01560078 58020 $=
201602091953 METAR KSEA 091953Z 00000KT 10SM BCFG SCT250 13/08 A3018 RMK AO2 SLP228 T01280078 $=
201602091853 METAR KSEA 091853Z 17003KT 6SM BCFG FEW001 BKN250 08/07 A3019 RMK AO2 SLP231 T00830067 $=
201602091835 SPECI KSEA 091835Z 16004KT 3SM BCFG FEW001 SCT200 07/07 A3020 RMK AO2 TWR VIS 7 $=
201602091757 SPECI KSEA 091757Z 14003KT 3/4SM R16L/0500VP6000FT BR SCT001 SCT200 07/06 A3020 RMK AO2 TWR VIS 7 $=
201602091753 METAR KSEA 091753Z 13003KT 1/4SM R16L/0500V0800FT FG BKN001 BKN200 06/06 A3021 RMK AO2 TWR VIS 7 SLP238 T00610061 10061 20033 51007=
201602091653 METAR KSEA 091653Z 18003KT 1/8SM R16L/0500FT FG VV001 06/06 A3020 RMK AO2 SLP237 T00610056=
201602091640 SPECI KSEA 091640Z 19003KT 1/8SM R16L/0500FT FG VV001 06/06 A3020 RMK AO2=
201602091553 METAR KSEA 091553Z 24005KT 1/4SM R16L/0500V0700FT FG VV001 06/06 A3019 RMK AO2 SLP233 T00610056=
201602091510 SPECI KSEA 091510Z 00000KT 1/4SM R16L/1200V1600FT FG VV001 05/04 A3019 RMK AO2 SFC VIS 1/2=
201602091453 METAR KSEA 091453Z 00000KT 1/4SM R16L/5000VP6000FT BR OVC002 04/03 A3019 RMK AO2 SFC VIS 3/4 SLP231 T00390033 58006=
201602091439 SPECI KSEA 091439Z 17004KT 1/2SM R16L/5500VP6000FT FG OVC002 03/03 A3019 RMK AO2 TWR VIS 1 1/4=
201602091414 SPECI KSEA 091414Z 13005KT 1/2SM R16L/P6000FT FG BKN001 04/03 A3019 RMK AO2 TWR VIS 1 1/4=
201602091353 METAR KSEA 091353Z 09004KT 3SM R16L/3000VP6000FT BR SCT001 04/03 A3019 RMK AO2 SLP233 VIS W 1 1/2 T00440033=
201602091345 SPECI KSEA 091345Z 14003KT 1/4SM R16L/1400V4000FT FG VV001 04/04 A3020 RMK AO2=
201602091327 SPECI KSEA 091327Z 18003KT 1/4SM R16L/1200V1600FT FG VV001 04/04 A3021 RMK AO2=
201602091312 SPECI KSEA 091312Z 14005KT 1/4SM R16L/4500VP6000FT FG BKN001 04/03 A3021 RMK AO2=
201602091253 METAR KSEA 091253Z 12005KT 10SM CLR 04/03 A3020 RMK AO2 SLP236 T00440033=
201602091153 METAR KSEA 091153Z 00000KT 10SM CLR 06/05 A3021 RMK AO2 SLP236 T00560050 10089 20056 56014=
201602091053 METAR KSEA 091053Z 35008KT 10SM CLR 07/05 A3022 RMK AO2 SLP240 T00670050=
201602090953 METAR KSEA 090953Z 01009KT 10SM CLR 07/05 A3023 RMK AO2 SLP246 T00720050=
201602090853 METAR KSEA 090853Z 01009KT 10SM CLR 07/06 A3025 RMK AO2 SLP251 T00720056 58012=
201602090753 METAR KSEA 090753Z 01009KT 10SM CLR 07/05 A3027 RMK AO2 SLP256 T00720050 401500039=
201602090653 METAR KSEA 090653Z 01008KT 10SM CLR 08/06 A3028 RMK AO2 SLP261 T00830056=
201602090553 METAR KSEA 090553Z 01010KT 10SM CLR 08/06 A3029 RMK AO2 SLP263 T00830056 10150 20083 58014=
201602090453 METAR KSEA 090453Z 01009KT 10SM CLR 09/06 A3030 RMK AO2 SLP270 T00890061=
201602090353 METAR KSEA 090353Z 36010KT 10SM FEW250 09/06 A3031 RMK AO2 SLP274 T00940061=
201602090253 METAR KSEA 090253Z 01010KT 10SM FEW250 10/06 A3033 RMK AO2 SLP278 T01000061 56009=
201602090153 METAR KSEA 090153Z 01009KT 10SM SCT250 11/06 A3033 RMK AO2 SLP281 T01110061=
201602090053 METAR KSEA 090053Z 35008KT 10SM BKN250 13/07 A3034 RMK AO2 SLP282 T01280067=
201602082353 METAR KSEA 082353Z 35007KT 10SM BKN250 14/07 A3035 RMK AO2 SLP286 T01440067 10150 20083 56021=
201602082253 METAR KSEA 082253Z 36005KT 10SM BKN250 14/06 A3037 RMK AO2 SLP292 T01440061=
201602082153 METAR KSEA 082153Z 01005KT 10SM SCT250 14/06 A3039 RMK AO2 SLP297 T01390056=
201602082053 METAR KSEA 082053Z 34006KT 10SM SCT250 13/06 A3042 RMK AO2 SLP307 T01330056 58015=
201602081953 METAR KSEA 081953Z 36006KT 10SM SCT250 12/06 A3044 RMK AO2 SLP316 T01170056=
201602081853 METAR KSEA 081853Z 34007KT 10SM SCT250 11/05 A3046 RMK AO2 SLP324 T01060050=
201602081753 METAR KSEA 081753Z 35006KT 10SM SCT250 08/04 A3046 RMK AO2 SLP323 T00830044 10083 20039 52002=
201602081653 METAR KSEA 081653Z 36006KT 10SM SCT250 07/04 A3046 RMK AO2 SLP323 T00670039=
201602081553 METAR KSEA 081553Z 36003KT 10SM SCT250 04/03 A3045 RMK AO2 SLP322 T00440033=
201602081453 METAR KSEA 081453Z 03012KT 10SM FEW250 06/03 A3045 RMK AO2 SLP322 T00560033 58003=
201602081353 METAR KSEA 081353Z 36005KT 10SM CLR 04/03 A3046 RMK AO2 SLP324 T00440028=
201602081253 METAR KSEA 081253Z 02005KT 10SM CLR 04/03 A3046 RMK AO2 SLP324 T00440028=
201602081153 METAR KSEA 081153Z 01006KT 10SM CLR 04/03 A3046 RMK AO2 SLP325 T00440028 10061 20044 58010=
201602081053 METAR KSEA 081053Z 36008KT 10SM CLR 05/03 A3048 RMK AO2 SLP330 T00500028=
201602080953 METAR KSEA 080953Z 02010KT 10SM CLR 06/03 A3049 RMK AO2 SLP331 T00610033=
201602080853 METAR KSEA 080853Z 35006KT 10SM CLR 05/03 A3050 RMK AO2 SLP336 T00500033 56002=
201602080753 METAR KSEA 080753Z 36007KT 10SM CLR 06/03 A3050 RMK AO2 SLP336 T00560033 401110011=
201602080653 METAR KSEA 080653Z 35007KT 10SM CLR 06/03 A3050 RMK AO2 SLP336 T00560033=
201602080553 METAR KSEA 080553Z 34004KT 10SM CLR 06/03 A3050 RMK AO2 SLP338 T00560028 10106 20056 58005=
201602080453 METAR KSEA 080453Z 36006KT 10SM FEW070 07/03 A3051 RMK AO2 SLP339 T00670033=
201602080353 METAR KSEA 080353Z 01006KT 10SM SCT065 07/03 A3052 RMK AO2 SLP342 T00670028=
201602080253 METAR KSEA 080253Z 35007KT 10SM FEW050 SCT075 07/03 A3052 RMK AO2 SLP344 T00720028 58005=
201602080153 METAR KSEA 080153Z 33004KT 10SM FEW050 BKN075 08/03 A3052 RMK AO2 SLP345 T00830028=
201602080053 METAR KSEA 080053Z 35006KT 10SM FEW050 BKN080 10/03 A3054 RMK AO2 SLP350 T01000033=
201602072353 METAR KSEA 072353Z 35008KT 10SM SCT055 BKN080 BKN190 10/02 A3054 RMK AO2 SLP349 T01000017 10111 20061 56007=
201602072253 METAR KSEA 072253Z 35008KT 10SM BKN050 BKN075 BKN180 10/02 A3054 RMK AO2 SLP349 T01000017=
201602072153 METAR KSEA 072153Z 36008KT 10SM SCT055 BKN080 11/02 A3055 RMK AO2 SLP352 T01060022=
201602072053 METAR KSEA 072053Z 36008KT 10SM FEW060 BKN080 BKN160 10/03 A3056 RMK AO2 SLP356 T01000028 50003=
201602071953 METAR KSEA 071953Z 34004KT 10SM FEW060 BKN080 10/03 A3056 RMK AO2 SLP356 T01000028=
201602071853 METAR KSEA 071853Z 02003KT 10SM FEW028 SCT060 BKN080 08/02 A3056 RMK AO2 SLP356 T00780017=
201602071753 METAR KSEA 071753Z 00000KT 10SM SCT033 OVC120 06/01 A3055 RMK AO2 SLP353 T00610011 10067 20011 51007=
201602071653 METAR KSEA 071653Z 13005KT 10SM BKN080 BKN095 OVC120 04/01 A3054 RMK AO2 SLP350 T00440011=
201602071553 METAR KSEA 071553Z 08003KT 10SM BKN095 04/02 A3054 RMK AO2 SLP351 T00440022=
201602071453 METAR KSEA 071453Z 30003KT 10SM OVC100 03/01 A3053 RMK AO2 SLP347 T00280006 53001=
201602071353 METAR KSEA 071353Z 00000KT 10SM BKN110 03/02 A3050 RMK AO2 SLP338 T00280017=
201602071253 METAR KSEA 071253Z 05004KT 10SM BKN110 02/01 A3050 RMK AO2 SLP338 T00220006=
201602071153 METAR KSEA 071153Z 08005KT 10SM BKN110 04/01 A3052 RMK AO2 SLP345 T00390011 10056 20022 50014=
201602071053 METAR KSEA 071053Z 06005KT 10SM SCT110 03/01 A3053 RMK AO2 SLP346 T00280006=
201602070953 METAR KSEA 070953Z 00000KT 10SM FEW110 03/01 A3051 RMK AO2 SLP342 T00330011=
201602070853 METAR KSEA 070853Z 00000KT 10SM SCT180 04/01 A3048 RMK AO2 SLP331 T00390011 58003=
201602070753 METAR KSEA 070753Z 10005KT 10SM SCT180 05/02 A3049 RMK AO2 SLP335 T00500022 400890039=
201602070653 METAR KSEA 070653Z 11006KT 10SM CLR 04/03 A3049 RMK AO2 SLP333 T00440028=
201602070553 METAR KSEA 070553Z 11003KT 10SM FEW200 06/03 A3049 RMK AO2 SLP334 T00560028 10089 20044 53008=
201602070453 METAR KSEA 070453Z 00000KT 10SM SCT200 06/03 A3047 RMK AO2 SLP328 T00560028=
201602070353 METAR KSEA 070353Z 00000KT 10SM FEW120 SCT200 06/03 A3045 RMK AO2 SLP321 T00610028=
201602070253 METAR KSEA 070253Z 00000KT 10SM FEW120 SCT200 07/03 A3047 RMK AO2 SLP326 T00670033 53005=
201602070153 METAR KSEA 070153Z 00000KT 10SM FEW025 SCT120 BKN200 07/04 A3046 RMK AO2 SLP325 T00670039=
201602070053 METAR KSEA 070053Z 00000KT 10SM FEW025 SCT120 BKN200 08/04 A3045 RMK AO2 SLP320 T00830039=
201602062353 METAR KSEA 062353Z 21005KT 10SM SCT025 OVC120 09/04 A3045 RMK AO2 SLP321 T00890039 10089 20072 58000=
201602062339 SPECI KSEA 062339Z 23004KT 10SM FEW020 SCT030 OVC120 09/04 A3045 RMK AO2=
201602062253 METAR KSEA 062253Z 22006KT 10SM BKN027 OVC150 09/04 A3047 RMK AO2 SLP326 T00890039=
201602062229 SPECI KSEA 062229Z 23008KT 10SM BKN027 OVC150 09/04 A3045 RMK AO2=
201602062153 METAR KSEA 062153Z 22006KT 10SM SCT025 OVC160 09/04 A3045 RMK AO2 SLP320 T00890039=
201602062053 METAR KSEA 062053Z 20007KT 10SM SCT026 OVC160 08/04 A3045 RMK AO2 SLP321 T00830039 58003=
201602061953 METAR KSEA 061953Z 21010KT 10SM BKN030 08/04 A3047 RMK AO2 SLP327 T00830039=
201602061853 METAR KSEA 061853Z 17009KT 10SM SCT021 BKN026 08/04 A3047 RMK AO2 SLP326 T00830039=
201602061753 METAR KSEA 061753Z 16011KT 10SM OVC018 07/04 A3046 RMK AO2 SLP324 T00720039 10072 20061 53020=
201602061653 METAR KSEA 061653Z 16009KT 10SM SCT012 BKN019 OVC210 07/04 A3044=
201602061553 METAR KSEA 061553Z 17010KT 10SM FEW022 SCT100 BKN210 06/04 A3041 RMK AO2 SLP308 T00610039=
201602061453 METAR KSEA 061453Z 20016KT 10SM SCT022 BKN200 06/04 A3040 RMK AO2 SLP304 T00610039 51023=
201602061409 SPECI KSEA 061409Z 20011KT 10SM SCT022 BKN080 06/04 A3039 RMK AO2=
201602061353 METAR KSEA 061353Z 19013G20KT 10SM SCT016 BKN022 07/04 A3039 RMK AO2 SLP299 T00670039=
201602061342 SPECI KSEA 061342Z 19014KT 10SM SCT016 BKN022 06/04 A3039 RMK AO2=
201602061253 METAR KSEA 061253Z 20009KT 10SM BKN013 OVC017 07/04 A3038 RMK AO2 SLP294 T00670039=
201602061153 METAR KSEA 061153Z 19010G15KT 10SM SCT013 BKN017 06/04 A3034 RMK AO2 SLP280 70014 T00610039 10083 20056 51020=
201602061053 METAR KSEA 061053Z 21008KT 10SM FEW016 SCT026 06/03 A3032 RMK AO2 SLP274 T00610033=
201602061043 SPECI KSEA 061043Z 20006KT 10SM FEW018 BKN026 06/03 A3031 RMK AO2=
201602060953 METAR KSEA 060953Z 20014G19KT 10SM FEW018 06/03 A3028 RMK AO2 SLP260 T00610028=
201602060853 METAR KSEA 060853Z 20016KT 10SM FEW065 BKN090 OVC110 06/03 A3026 RMK AO2 PK WND 22027/0814 SLP255 T00610033 51027=
201602060753 METAR KSEA 060753Z 22018KT 10SM SCT022 OVC090 07/03 A3026 RMK AO2 PK WND 22030/0737 SLP255 T00720033 401110039=
201602060653 METAR KSEA 060653Z 21019G25KT 10SM SCT027 08/04 A3021 RMK AO2 PK WND 20030/0555 SLP239 T00780039=
201602060553 METAR KSEA 060553Z 21018G30KT 10SM SCT023 BKN030 08/04 A3018=
201602060514 SPECI KSEA 060514Z 20021G36KT 10SM BKN025 OVC032 09/05 A3016 RMK AO2 PK WND 21036/0507=
201602060453 METAR KSEA 060453Z 19019G31KT 10SM FEW022 BKN030 OVC038 09/06 A3015 RMK AO2 PK WND 19031/0448 RAB44E53 SLP219 P0000 T00890056=
201602060436 SPECI KSEA 060436Z 20017G23KT 10SM SCT019 BKN036 BKN044 09/06 A3014 RMK AO2 PK WND 20029/0409=
201602060353 METAR KSEA 060353Z 19016G22KT 10SM BKN021 BKN029 OVC035 09/06 A3012 RMK AO2 PK WND 18027/0329 SLP209 T00940061=
201602060351 SPECI KSEA 060351Z 20015G22KT 10SM BKN021 BKN029 OVC035 09/06 A3012 RMK AO2 PK WND 18027/0329=
201602060253 METAR KSEA 060253Z 19018G30KT 10SM SCT035 BKN055 OVC070 09/06 A3008 RMK AO2 PK WND 19035/0238 RAE52 SLP195 P0003 60014 T00940056 50031=
201602060153 METAR KSEA 060153Z 20020G30KT 8SM -RA FEW026 OVC042 09/06 A3009 RMK AO2 PK WND 25033/0132 SLP198 P0009 T00890061=
201602060053 METAR KSEA 060053Z 26004KT 10SM -RA FEW043 OVC055 10/05 A3003 RMK AO2 RAB2357 PRESRR SLP178 P0002 T01000050=
201602052353 METAR KSEA 052353Z 17007KT 10SM BKN060 OVC110 10/05 A2999 RMK AO2 SLP163 T01000050 10100 20078 56037=
201602052253 METAR KSEA 052253Z 19005KT 10SM BKN110 OVC200 09/05 A3001 RMK AO2 PRESFR SLP170 T00940050=
201602052153 METAR KSEA 052153Z 16009KT 10SM OVC110 10/05 A3006 RMK AO2 SLP188 T01000050=
201602052053 METAR KSEA 052053Z 16007KT 10SM OVC110 08/04 A3010 RMK AO2 PRESFR SLP200 T00830044 58028=
201602051953 METAR KSEA 051953Z 24004KT 10SM FEW030 BKN110 08/04 A3016 RMK AO2 SLP220 T00830044=
201602051853 METAR KSEA 051853Z 24004KT 10SM CLR 08/05 A3017 RMK AO2 SLP225 T00830050=
201602051753 METAR KSEA 051753Z 00000KT 10SM SCT110 BKN150 08/05 A3018 RMK AO2 SLP229 T00830050 10083 20039 56012=
201602051653 METAR KSEA 051653Z 00000KT 10SM BKN120 07/06 A3019 RMK AO2 SLP233 T00670056=
201602051553 METAR KSEA 051553Z 15004KT 10SM BKN120 05/04 A3020 RMK AO2 SLP236 ACSL DSNT SE T00500039=
201602051453 METAR KSEA 051453Z 14005KT 10SM SCT150 04/02 A3022 RMK AO2 SLP241 T00390022 56022=
201602051353 METAR KSEA 051353Z 00000KT 10SM SCT200 06/03 A3024 RMK AO2 SLP248 T00610033=
201602051253 METAR KSEA 051253Z 00000KT 10SM SCT200 04/03 A3026 RMK AO2 SLP254 T00440028=
201602051153 METAR KSEA 051153Z 11005KT 10SM CLR BKN200 07/03 A3028 RMK AO2 SLP263 70011 T00720033 10089 20061 58020=
201602051053 METAR KSEA 051053Z 00000KT 10SM BKN150 06/04 A3031 RMK AO2 SLP273 T00610039=
201602050953 METAR KSEA 050953Z 00000KT 10SM FEW120 BKN200 07/04 A3033 RMK AO2 SLP279 T00720039=
201602050853 METAR KSEA 050853Z 00000KT 10SM SCT110 OVC220 08/04 A3034 RMK AO2 SLP284 T00780044 56010=
201602050753 METAR KSEA 050753Z 14006KT 10SM OVC140 07/05 A3035 RMK AO2 SLP286 T00720050 400940056=
201602050653 METAR KSEA 050653Z 13009KT 10SM OVC150 08/06 A3035 RMK AO2 SLP285 T00830056=
201602050553 METAR KSEA 050553Z 15006KT 10SM OVC140 09/06 A3037 RMK AO2 SLP293 60000 T00890061 10094 20078 58001=
201602050453 METAR KSEA 050453Z 17004KT 10SM FEW026 BKN042 OVC100 09/07 A3038 RMK AO2 SLP296 T00890067=
201602050431 SPECI KSEA 050431Z 13004KT 10SM SCT026 SCT034 BKN043 09/07 A3038 RMK AO2=
201602050417 SPECI KSEA 050417Z 13003KT 10SM BKN026 BKN031 BKN048 09/06 A3038 RMK AO2=
201602050353 METAR KSEA 050353Z 00000KT 10SM FEW019 BKN034 OVC100 09/07 A3038 RMK AO2 SLP295 T00890072=
201602050253 METAR KSEA 050253Z 14008KT 10SM FEW015 BKN100 OVC200 08/07 A3037 RMK AO2 SLP294 60000 T00830067 58004=
201602050239 SPECI KSEA 050239Z 15010KT 10SM SCT015 BKN120 OVC200 09/07 A3038 RMK AO2=
201602050153 METAR KSEA 050153Z 15009KT 10SM FEW010 BKN015 OVC080 08/06 A3039 RMK AO2 SLP299 T00830061=
201602050140 SPECI KSEA 050140Z 14009KT 10SM SCT010 BKN019 OVC080 08/06 A3039 RMK AO2=
201602050103 SPECI KSEA 050103Z 15006KT 9SM BKN013 OVC060 08/06 A3038 RMK AO2=
201602050053 METAR KSEA 050053Z 16006KT 10SM OVC015 08/06 A3038 RMK AO2 DZE47 SLP297 P0000 T00830061=
201602042353 METAR KSEA 042353Z 15004KT 10SM -DZ OVC017 08/06 A3039 RMK AO2 DZB49 SLP299 P0000 60005 T00830056 10083 20067 53003=
201602042253 METAR KSEA 042253Z 12006KT 10SM BKN021 OVC090 08/05 A3037 RMK AO2 SLP294 T00830050=
201602042212 SPECI KSEA 042212Z 13004KT 10SM OVC027 08/05 A3038 RMK AO2=
201602042153 METAR KSEA 042153Z 12006KT 10SM OVC030 08/06 A3038 RMK AO2 SLP295 T00780056=
201602042053 METAR KSEA 042053Z 19007KT 10SM FEW009 OVC041 07/05 A3038 RMK AO2 RAB17E48 SLP295 P0000 60005 T00720050 51009=
201602042018 SPECI KSEA 042018Z 17008KT 10SM -RA FEW008 SCT027 OVC055 07/05 A3037 RMK AO2 RAB17 P0000=
201602041953 METAR KSEA 041953Z 17010KT 10SM FEW008 BKN027 OVC050 07/05 A3037 RMK AO2 RAE33 SLP292 P0000 T00720050=
201602041916 SPECI KSEA 041916Z 17008KT 10SM -RA FEW008 BKN027 OVC034 07/05 A3037 RMK AO2 P0000=
201602041853 METAR KSEA 041853Z 17008KT 10SM -RA FEW010 SCT022 OVC030 07/05 A3037 RMK AO2 SLP293 P0005 T00720050=
201602041753 METAR KSEA 041753Z 18008KT 7SM -RA FEW010 OVC036 07/06 A3035 RMK AO2 RAB15 SLP286 P0005 60006 T00720056 10072 20061 53031=
201602041653 METAR KSEA 041653Z 19013G16KT 10SM FEW010 OVC070 07/05 A3031 RMK AO2 SLP272 T00720050=
201602041553 METAR KSEA 041553Z 19012KT 10SM FEW008 OVC100 07/04 A3029 RMK AO2 SLP264 T00720044=
201602041453 METAR KSEA 041453Z 19011KT 10SM FEW008 OVC140 07/05 A3026 RMK AO2 SLP254 60001 T00670050 53012=
201602041353 METAR KSEA 041353Z 19012KT 10SM FEW008 BKN150 07/05 A3023 RMK AO2 SLP247 T00670050 $=
201602041253 METAR KSEA 041253Z 19011G20KT 10SM SCT011 BKN090 06/05 A3022 RMK AO2 RAE06 SLP242 P0001 T00610050 $=
201602041230 SPECI KSEA 041230Z 19012G18KT 10SM BKN010 OVC085 07/05 A3021 RMK AO2 RAE06 P0001 $=
201602041222 SPECI KSEA 041222Z 19010KT 10SM BKN008 BKN016 OVC090 07/05 A3021 RMK AO2 RAE06 P0001 $=
201602041211 SPECI KSEA 041211Z 19010KT 10SM BKN012 BKN039 OVC085 07/05 A3021 RMK AO2 RAE06 P0001 $=
201602041157 SPECI KSEA 041157Z 20011G20KT 8SM RA SCT010 BKN015 OVC037 07/05 A3021 RMK AO2 P0001 $=
201602041153 METAR KSEA 041153Z 20014G20KT 9SM -RA BKN011 OVC018 06/04 A3021 RMK AO2 RAB48 SLP238 P0002 60035 70074 T00610044 10072 20056 53022 $=
201602041127 SPECI KSEA 041127Z 16009KT 10SM BKN022 06/04 A3019 RMK AO2 $=
201602041053 METAR KSEA 041053Z 17011KT 10SM FEW022 SCT120 BKN130 06/04 A3017 RMK AO2 SLP225 T00560039 $=
201602041011 SPECI KSEA 041011Z 18011KT 10SM FEW013 SCT026 06/04 A3015 RMK AO2 $=
201602040953 METAR KSEA 040953Z 19014KT 10SM SCT015 BKN026 OVC075 07/04 A3015 RMK AO2 RAE34 SLP216 P0010 T00670044 $=
201602040951 SPECI KSEA 040951Z 19013G18KT 10SM FEW012 BKN018 OVC080 07/05 A3014 RMK AO2 RAE34 P0010 $=
201602040923 SPECI KSEA 040923Z 18013KT 10SM -RA SCT007 BKN037 OVC075 07/04 A3013 RMK AO2 P0009 $=
201602040912 SPECI KSEA 040912Z 21015G19KT 4SM RA BR SCT006 BKN010 OVC022 07/06 A3015 RMK AO2 P0007 $=
201602040904 SPECI KSEA 040904Z 22012KT 4SM +RA BR BKN008 BKN014 OVC025 07/05 A3014 RMK AO2 P0004 $=
201602040857 SPECI KSEA 040857Z 22012KT 5SM RA BR FEW007 BKN020 OVC026 07/06 A3014 RMK AO2 P0001 $=
201602040853 METAR KSEA 040853Z 21012KT 6SM RA BR FEW010 SCT014 OVC026 07/06 A3013 RMK AO2 SLP212 P0012 60023 T00720056 53010 $=
201602040753 METAR KSEA 040753Z 20008KT 6SM RA BR FEW021 OVC029 07/06 A3012 RMK AO2 SLP206 P0008 T00720056 400830039 $=
201602040653 METAR KSEA 040653Z 16007KT 8SM -RA BKN024 OVC033 07/05 A3010 RMK AO2 SLP202 P0003 T00720050 $=
201602040553 METAR KSEA 040553Z 18008KT 9SM -RA FEW016 BKN023 OVC031 07/05 A3010 RMK AO2 RAB38 SLP202 P0000 60020 T00720050 10078 20056 51038 $=
201602040453 METAR KSEA 040453Z 17008KT 10SM FEW009 BKN018 OVC140 07/06 A3010 RMK AO2 RAB24E40 SLP201 P0001 T00720056 $=
201602040438 SPECI KSEA 040438Z 20011G18KT 10SM -RA FEW009 BKN018 BKN140 07/06 A3010 RMK AO2 RAB24 P0001 $=
201602040353 METAR KSEA 040353Z 21016G29KT 10SM BKN019 OVC140 08/05 A3006 RMK AO2 PK WND 22030/0316 RAE0258 PRESRR SLP188 P0000 T00780050 $=
201602040253 METAR KSEA 040253Z 20010G17KT 9SM -RA BKN016 OVC023 07/05 A2999 RMK AO2 SLP163 P0007 60019 T00670050 53004 $=
201602040233 SPECI KSEA 040233Z 16011KT 5SM -RA BR SCT021 OVC029 06/04 A2997 RMK AO2 P0006 $=
201602040153 METAR KSEA 040153Z 14006KT 7SM -RA OVC036 06/03 A2995 RMK AO2 SLP152 P0007 T00560033=
201602040053 METAR KSEA 040053Z 11010KT 7SM -RA OVC040 06/03 A2994 RMK AO2 SLP149 P0005 T00560033=
201602032353 METAR KSEA 032353Z 10011KT 7SM -RA BKN037 OVC044 06/03 A2998 RMK AO2 SLP160 P0006 60019 T00560033 10083 20056 58020=
201602032253 METAR KSEA 032253Z 11009KT 5SM -RA OVC032 06/03 A3001 RMK AO2 SLP170 P0008 T00610033=
201602032153 METAR KSEA 032153Z 10009KT 6SM -RA FEW023 OVC031 07/03 A3003 RMK AO2 SLP177 P0004 T00720028=
201602032053 METAR KSEA 032053Z 12007KT 9SM -RA BKN035 OVC047 08/02 A3004 RMK AO2 SLP179 P0001 60001 T00830017 56019=
201602031953 METAR KSEA 031953Z 12005KT 10SM -RA OVC045 08/M01 A3005 RMK AO2 RAB48 SLP185 P0000 T00831006=
201602031853 METAR KSEA 031853Z 11011KT 10SM BKN050 OVC100 08/M01 A3007 RMK AO2 SLP192 T00781006=
201602031753 METAR KSEA 031753Z 11008KT 10SM FEW060 BKN110 OVC200 07/M01 A3009 RMK AO2 SLP198 60000 T00671006 10067 20039 58017=
201602031653 METAR KSEA 031653Z 11010KT 10SM SCT055 BKN095 OVC250 06/M01 A3011 RMK AO2 SLP203 T00561006=
201602031553 METAR KSEA 031553Z 11010KT 10SM BKN049 OVC140 06/M01 A3013 RMK AO2 SLP212 T00561006=
201602031453 METAR KSEA 031453Z 11007KT 10SM FEW035 SCT050 BKN160 05/00 A3014 RMK AO2 SLP215 60000 T00500000 58014=
201602031353 METAR KSEA 031353Z 12007KT 10SM BKN035 BKN046 OVC140 04/01 A3016 RMK AO2 SLP220 T00440011=
201602031253 METAR KSEA 031253Z 12009KT 10SM BKN032 OVC045 04/02 A3018 RMK AO2 RAB1156E05B25E48 SLP227 P0000 T00440017=
201602031153 METAR KSEA 031153Z 13007KT 10SM OVC029 04/01 A3019 RMK AO2 SLP230 60002 70002 T00440011 10061 20044 55009=
201602031053 METAR KSEA 031053Z 11011KT 10SM BKN035 OVC050 05/01 A3018 RMK AO2 SLP229 T00500006=
201602030953 METAR KSEA 030953Z VRB05KT 10SM OVC035 05/01 A3020 RMK AO2 RAE09 SLP234 P0001 T00500011=
201602030853 METAR KSEA 030853Z 13007KT 10SM -RA BKN031 OVC038 05/02 A3021 RMK AO2 RAB18 SLP239 P0000 60001 T00500017 51004=
201602030753 METAR KSEA 030753Z 11007KT 10SM OVC040 06/02 A3021 RMK AO2 SLP238 T00560017 401000017=
201602030653 METAR KSEA 030653Z 13005KT 10SM OVC036 06/02 A3021 RMK AO2 RAB25E50 SLP238 P0001 T00560017=
201602030553 METAR KSEA 030553Z 16004KT 10SM SCT040 BKN049 OVC070 06/01 A3020 RMK AO2 SLP235 T00610011 10078 20056 53000=
201602030453 METAR KSEA 030453Z 14005KT 10SM OVC050 07/01 A3020 RMK AO2 SLP234 T00670011=
201602030353 METAR KSEA 030353Z 13006KT 10SM SCT055 BKN200 06/00 A3019 RMK AO2 SLP234 T00610000=
201602030253 METAR KSEA 030253Z 16003KT 10SM OVC060 07/01 A3020 RMK AO2 SLP235 T00670011 53001=
201602030153 METAR KSEA 030153Z 24003KT 10SM BKN055 BKN250 07/01 A3019 RMK AO2 SLP234 T00670011=
201602030053 METAR KSEA 030053Z 00000KT 10SM FEW030 BKN055 BKN250 07/01 A3019 RMK AO2 SLP233 T00720006=
201602022353 METAR KSEA 022353Z 24004KT 10SM FEW030 SCT060 BKN250 08/01 A3020 RMK AO2 SLP234 T00780006 10100 20056 53002=
201602022253 METAR KSEA 022253Z 24004KT 10SM FEW030 SCT140 SCT250 09/M01 A3019 RMK AO2 SLP231 T00891006=
201602022153 METAR KSEA 022153Z 21003KT 10SM FEW030 SCT130 SCT200 09/M01 A3018 RMK AO2 SLP228 ACSL DSNT SE T00941006=
201602022053 METAR KSEA 022053Z 00000KT 10SM FEW025 BKN130 09/02 A3019 RMK AO2 SLP231 T00890017 50000=
201602021953 METAR KSEA 021953Z 19003KT 10SM FEW010 SCT250 08/02 A3019 RMK AO2 SLP233 T00780017=
201602021853 METAR KSEA 021853Z 00000KT 10SM FEW008 SCT250 06/02 A3020 RMK AO2 SLP234 T00610017=
201602021753 METAR KSEA 021753Z 11004KT 10SM FEW050 SCT250 06/01 A3019 RMK AO2 SLP231 T00560011 10056 20017 53008=
201602021653 METAR KSEA 021653Z 00000KT 8SM R16L/5000VP6000FT BCFG FEW050 SCT250 03/02 A3018 RMK AO2 SLP228 T00330017=
201602021553 METAR KSEA 021553Z 09004KT 10SM FEW040 03/01 A3017 RMK AO2 SLP227 T00280011=
201602021453 METAR KSEA 021453Z 00000KT 10SM FEW045 02/01 A3016 RMK AO2 SLP224 T00220006 51000=
201602021353 METAR KSEA 021353Z 00000KT 10SM FEW045 02/01 A3016 RMK AO2 SLP224 T00220006=
201602021253 METAR KSEA 021253Z 13004KT 10SM OVC045 03/01 A3017 RMK AO2 SLP224 T00280011=
201602021153 METAR KSEA 021153Z 13004KT 10SM SCT033 BKN043 03/02 A3016 RMK AO2 SLP224 70001 T00330017 10050 20022 55000=
201602021053 METAR KSEA 021053Z 11005KT 10SM FEW038 SCT050 03/02 A3016 RMK AO2 SLP222 T00330017=
201602020953 METAR KSEA 020953Z 12003KT 10SM BKN038 03/02 A3016 RMK AO2 SLP223 T00280022=
201602020853 METAR KSEA 020853Z 10004KT 10SM FEW018 SCT060 03/02 A3017 RMK AO2 SLP224 T00330022 51001=
201602020753 METAR KSEA 020753Z 12003KT 10SM FEW060 04/02 A3016 RMK AO2 SLP224 T00390022 400720033=
201602020653 METAR KSEA 020653Z 00000KT 10SM FEW010 BKN034 04/03 A3017 RMK AO2 SLP225 T00440028=
201602020608 SPECI KSEA 020608Z 15003KT 10SM BKN030 05/03 A3016 RMK AO2=
201602020553 METAR KSEA 020553Z 15004KT 10SM BKN028 BKN037 05/03 A3016 RMK AO2 SLP223 60001 T00500028 10072 20044 58002=
201602020531 SPECI KSEA 020531Z 16003KT 10SM BKN026 OVC037 04/03 A3016 RMK AO2=
201602020453 METAR KSEA 020453Z 15005KT 10SM FEW023 SCT038 BKN070 04/03 A3017 RMK AO2 SLP225 T00440033=
201602020435 SPECI KSEA 020435Z 16005KT 10SM FEW021 BKN039 OVC070 05/03 A3017 RMK AO2=
201602020403 SPECI KSEA 020403Z 18007KT 10SM BKN021 OVC037 05/03 A3017 RMK AO2=
201602020353 METAR KSEA 020353Z 19008KT 10SM SCT023 BKN037 OVC060 06/03 A3017 RMK AO2 RAE0257 SLP225 P0000 T00560028=
201602020337 SPECI KSEA 020337Z 21008KT 10SM SCT025 BKN037 OVC050 06/03 A3017 RMK AO2 RAE0257 P0000=
201602020253 METAR KSEA 020253Z 20005KT 10SM -RA SCT020 BKN025 OVC055 06/03 A3017 RMK AO2 RAE22B44 SLP226 P0000 60001 T00610033 58003=
201602020153 METAR KSEA 020153Z 18003KT 10SM -RA OVC023 06/03 A3018 RMK AO2 RAB27 SLP228 P0001 T00610028=
201602020118 SPECI KSEA 020118Z 16004KT 10SM BKN028 OVC060 07/02 A3018 RMK AO2=
201602020053 METAR KSEA 020053Z 00000KT 10SM SCT028 BKN038 OVC065 07/02 A3018 RMK AO2 SLP227 T00670017=
201602012353 METAR KSEA 012353Z 00000KT 10SM OVC038 07/02 A3018 RMK AO2 SLP228 T00670022 10072 20044 55001=
201602012312 SPECI KSEA 012312Z 19004KT 10SM FEW018 BKN033 OVC041 07/02 A3018 RMK AO2=
201602012253 METAR KSEA 012253Z 00000KT 10SM FEW015 BKN026 OVC037 06/03 A3018 RMK AO2 SLP227 T00610028=
201602012219 SPECI KSEA 012219Z 18005KT 10SM SCT015 BKN020 OVC037 06/02 A3018 RMK AO2=
201602012153 METAR KSEA 012153Z 21004KT 10SM SCT014 BKN039 BKN250 06/03 A3018 RMK AO2 SLP229 T00610028=
201602012139 SPECI KSEA 012139Z 17003KT 10SM SCT012 BKN042 BKN250 06/02 A3018 RMK AO2=
201602012053 METAR KSEA 012053Z 22007KT 10SM FEW008 BKN020 BKN042 BKN250 06/02 A3018 RMK AO2 SLP229 T00610022 58003=
201602012044 SPECI KSEA 012044Z 21005KT 10SM FEW008 BKN019 BKN040 BKN250 06/03 A3019 RMK AO2=
201602011953 METAR KSEA 011953Z 22007KT 10SM FEW008 BKN013 OVC025 05/02 A3019 RMK AO2 SLP234 T00500022=
201602011853 METAR KSEA 011853Z 22003KT 10SM FEW007 BKN022 BKN055 BKN250 05/02 A3020 RMK AO2 SLP235 T00500022=
201602011824 SPECI KSEA 011824Z 21005KT 10SM SCT007 BKN021 BKN250 05/02 A3019 RMK AO2=
201602011801 SPECI KSEA 011801Z 23005KT 10SM FEW007 BKN011 BKN019 04/02 A3019 RMK AO2=
201602011753 METAR KSEA 011753Z 21004KT 10SM BKN010 BKN018 04/02 A3019 RMK AO2 SLP234 60000 T00440022 10044 20033 53005=
201602011742 SPECI KSEA 011742Z 22004KT 10SM BKN010 BKN015 04/02 A3019 RMK AO2=
201602011653 METAR KSEA 011653Z 18004KT 10SM BKN009 OVC014 04/02 A3019 RMK AO2 SLP232 T00390022=
201602011553 METAR KSEA 011553Z 17007KT 10SM BKN007 BKN012 03/02 A3018 RMK AO2 DZE31 SLP228 P0000 T00330022=
201602011531 SPECI KSEA 011531Z 15005KT 10SM BKN007 OVC012 04/03 A3017 RMK AO2 DZE31 P0000=
201602011453 METAR KSEA 011453Z 14006KT 8SM -DZ SCT005 BKN014 OVC028 04/03 A3018 RMK AO2 RAE08DZB50 SLP228 P0000 60000 T00390028 51009=
201602011353 METAR KSEA 011353Z 00000KT 10SM -RA FEW005 BKN010 BKN020 04/02 A3017 RMK AO2 RAB26 SLP224 P0000 T00440022=
201602011330 SPECI KSEA 011330Z 23005KT 10SM -RA SCT008 OVC012 04/03 A3017 RMK AO2 RAB26 P0000=
201602011253 METAR KSEA 011253Z 23005KT 10SM FEW009 BKN015 OVC021 04/03 A3016 RMK AO2 SLP222 T00440028=
201602011200 SPECI KSEA 011200Z 23003KT 10SM SCT005 BKN022 04/03 A3015 RMK AO2=
201602011153 METAR KSEA 011153Z 23003KT 10SM BKN005 BKN022 04/03 A3015 RMK AO2 SLP217 60000 T00440033 10050 20033 53009=
201602011053 METAR KSEA 011053Z 20003KT 10SM BKN007 OVC011 04/03 A3014 RMK AO2 SLP215 T00440033=
201602010953 METAR KSEA 010953Z 17005KT 10SM BKN009 04/03 A3012 RMK AO2 SLP207 T00390033=
201602010853 METAR KSEA 010853Z 20006KT 10SM BKN007 OVC027 04/03 A3012 RMK AO2 RAB30E47 SLP208 P0000 60000 T00440028 50009=
201602010812 SPECI KSEA 010812Z 17005KT 10SM BKN009 BKN025 OVC035 04/03 A3011 RMK AO2=
201602010753 METAR KSEA 010753Z 21006KT 10SM BKN011 OVC020 05/03 A3012 RMK AO2 SLP209 T00500028 400720028=
201602010706 SPECI KSEA 010706Z 21005KT 10SM SCT009 BKN014 OVC023 05/03 A3012 RMK AO2=
201602010653 METAR KSEA 010653Z 20003KT 10SM FEW010 BKN015 04/03 A3012 RMK AO2 SLP207 T00440028=
201602010618 SPECI KSEA 010618Z 17005KT 10SM FEW012 BKN018 04/02 A3010 RMK AO2=
201602010553 METAR KSEA 010553Z 18005KT 10SM SCT014 BKN040 04/02 A3009 RMK AO2 SLP200 60000 T00390022 10072 20039 53010=
201602010453 METAR KSEA 010453Z 19007KT 10SM FEW037 BKN046 05/03 A3008 RMK AO2 SLP196 T00500028=
201602010439 SPECI KSEA 010439Z 20008KT 10SM BKN037 05/03 A3008 RMK AO2=
201602010410 SPECI KSEA 010410Z 22006KT 10SM SCT015 BKN022 OVC039 06/03 A3007 RMK AO2=
201602010353 METAR KSEA 010353Z 19008KT 10SM OVC039 06/03 A3007 RMK AO2 SLP191 T00560028=
201602010253 METAR KSEA 010253Z 21005KT 10SM OVC039 06/02 A3006 RMK AO2 SLP190 60000 T00560022 53011=
201602010153 METAR KSEA 010153Z 19004KT 10SM BKN026 BKN032 BKN046 06/02 A3005 RMK AO2 SLP186 T00610022=
201602010053 METAR KSEA 010053Z 20006KT 10SM BKN026 BKN034 06/02 A3004 RMK AO2 RAB25E50 SLP181 P0000 T00610017=
201602010000 SPECI KSEA 010000Z 20006KT 10SM FEW024 BKN034 OVC049 07/02 A3003 RMK AO2=

# No short TAF reports from KSEA in databse.

###################################
#  large TAF from KSEA
###################################
201602292337 TAF KSEA 292337Z 0100/0206 14006KT P6SM SCT035 OVC150 FM010600
                       11005KT P6SM -RA OVC060 FM011000 10006KT
                       4SM -RA BR SCT020 OVC035 FM011500 14012G18KT
                       P6SM -RA SCT030 OVC045 WS020/20045KT FM012300
                       19022G34KT 5SM -SHRA BR SCT020 BKN030 OVC045=
201602292130 TAF AMD KSEA 292130Z 2922/0124 16006KT P6SM SCT035 OVC150 FM010600
                       11005KT P6SM -RA OVC060 FM011000 10006KT
                       4SM -RA BR SCT020 OVC035 FM011600 16010G18KT
                       P6SM -RA SCT035 OVC050 FM012200 20020G30KT
                       5SM -SHRA BR SCT020 BKN030 OVC045=
201602291739 TAF KSEA 291739Z 2918/0124 16008KT P6SM BKN040 BKN060
                      TEMPO 2918/2922 -SHRA FM292200 18007KT P6SM
                       SCT045 OVC150 FM010600 11005KT P6SM -RA
                       OVC060 FM011000 10006KT 4SM -RA BR SCT020
                       OVC035 FM011600 16010G18KT P6SM -RA SCT035
                       OVC050 FM012200 20020G30KT 5SM -SHRA BR
                       SCT020 BKN030 OVC045=
201602291433 TAF AMD KSEA 291433Z 2915/0118 19007KT P6SM VCSH SCT020 OVC050
                       FM291900 20007KT P6SM BKN035 OVC070 FM010100
                       11007KT P6SM SCT050 OVC100 FM010600 12008KT
                       P6SM -RA OVC050=
201602291123 TAF KSEA 291123Z 2912/0118 19007KT P6SM VCSH SCT020 OVC050 FM291900
                       20007KT P6SM BKN035 OVC070 FM010100 11007KT
                       P6SM SCT050 OVC100 FM010600 12008KT P6SM
                       -RA OVC050=
201602290907 TAF AMD KSEA 290907Z 2909/0112 19007KT P6SM VCSH BKN020 OVC050
                       FM291900 20007KT P6SM BKN035 OVC070 FM010100
                       11007KT P6SM SCT050 OVC100 FM010600 12008KT
                       P6SM -RA BKN050=
201602290535 TAF AMD KSEA 290535Z 2906/0112 21011KT P6SM VCSH SCT015 BKN025
                       OVC030
                      TEMPO 2906/2909 -RA BKN010 FM290900 19007KT
                       P6SM VCSH BKN020 OVC050 FM291900 20007KT
                       P6SM BKN035 OVC070 FM010100 11007KT P6SM
                       SCT050 OVC100=
201602290520 TAF KSEA 290520Z 2906/0112 21011KT P6SM VCSH SCT030 OVC080 FM290900
                       19007KT P6SM VCSH BKN020 OVC050 FM291900
                       20007KT P6SM BKN035 OVC070 FM010100 11007KT
                       P6SM SCT050 OVC100=
201602290307 TAF AMD KSEA 290307Z 2903/0106 25015G25KT P6SM VCSH FEW012 BKN035
                       OVC040
                      TEMPO 2903/2904 2SM SHRA BR BKN020 OVC030
                       FM290400 21011KT P6SM VCSH SCT020 OVC035
                       FM290900 19007KT P6SM VCSH OVC020 FM291900
                       24007KT P6SM BKN035=
201602282333 TAF KSEA 282333Z 2900/0106 25015G25KT P6SM VCSH FEW012 BKN035 OVC040
                       TEMPO 2900/2903 4SM -SHRA BKN020 OVC035
                       FM290300 21011KT P6SM VCSH SCT020 OVC035
                       FM290900 19007KT P6SM VCSH OVC020 FM291900
                       24007KT P6SM BKN035=
201602282001 TAF AMD KSEA 282001Z 2820/2924 20013G24KT P6SM FEW010 SCT014 BKN100
                       TEMPO 2820/2822 5SM -SHRA BR OVC020 FM282200
                       20015G25KT P6SM -SHRA BKN035 BKN050 FM290400
                       19009KT P6SM VCSH OVC030=
201602281737 TAF KSEA 281737Z 2818/2924 16014G20KT P6SM -RA FEW020 BKN050 OVC090
                       TEMPO 2818/2822 5SM -RA BR OVC020 FM282200
                       20015G25KT P6SM -SHRA BKN035 BKN050 FM290400
                       19009KT P6SM VCSH OVC030=
201602281401 TAF AMD KSEA 281401Z 2814/2918 11006KT P6SM -RA SCT040 OVC070 FM281600
                       18012KT P6SM -RA OVC035 FM281800 18015G25KT
                       P6SM -RA OVC030 FM290300 20010KT P6SM -SHRA
                       OVC040 FM290800 19009KT P6SM VCSH OVC050=
201602281120 TAF KSEA 281120Z 2812/2918 13006KT P6SM SCT040 BKN090 FM281600
                       18012KT P6SM -RA OVC030 FM281800 18015G25KT
                       P6SM -RA OVC030 FM290300 20010KT P6SM -SHRA
                       OVC040 FM290800 19009KT P6SM VCSH OVC050=
201602280901 TAF AMD KSEA 280901Z 2809/2912 14006KT P6SM SCT040 BKN100 FM281500
                       18012KT P6SM -RA OVC030 FM281800 18015G25KT
                       P6SM -RA OVC030 FM290300 20010KT P6SM -SHRA
                       OVC040 FM290800 19009KT P6SM VCSH OVC050=
201602280520 TAF KSEA 280520Z 2806/2912 17005KT P6SM SCT040 SCT150 FM280700
                       14006KT P6SM SCT040 BKN150 FM281400 18012KT
                       P6SM -RA OVC030 FM281800 18015G25KT P6SM
                       -RA OVC030 FM290300 20010KT P6SM -SHRA OVC040=
201602280259 KSEA 280259Z 2803/2906 17005KT P6SM SCT040 BKN150 FM281400 18012KT
                       P6SM -RA OVC030 FM281800 18015G25KT P6SM
                       -RA OVC030=
201602272331 TAF KSEA 272331Z 2800/2906 24005KT P6SM SCT035 BKN050 FM280300
                       15006KT P6SM SCT040 BKN120 FM281400 18012KT
                       P6SM -RA OVC030 FM281800 18015G25KT P6SM
                       -RA OVC030=
201602272102 TAF AMD KSEA 272102Z 2721/2824 20008KT P6SM FEW010 SCT014 BKN040
                       FM280200 15006KT P6SM SCT040 OVC100 FM281400
                       18014G21KT P6SM -RA OVC030=
201602271723 TAF KSEA 271723Z 2718/2824 21004KT P6SM BKN005 BKN015 OVC020 FM272100
                       22006KT P6SM BKN012 OVC022 FM272300 22007KT
                       P6SM BKN025 BKN120 FM280200 15006KT P6SM
                       SCT040 OVC100 FM281400 18014G21KT P6SM -RA
                       OVC030=
201602271301 TAF AMD KSEA 271301Z 2713/2818 21003KT 5SM BR SCT015 OVC050
                      TEMPO 2713/2716 1/2SM FG BKN001 OVC015 FM271600
                       21009KT P6SM OVC050 FM272100 22010KT P6SM
                       BKN040 OVC100 FM280200 15005KT P6SM SCT040
                       OVC100=
201602271207 TAF AMD KSEA 271207Z 2712/2818 21009KT P6SM VCSH SCT015 OVC050
                       TEMPO 2712/2714 1SM -RA BR BKN010 FM271600
                       21009KT P6SM OVC050 FM272100 22010KT P6SM
                       BKN040 OVC100 FM280200 15005KT P6SM SCT040
                       OVC100=
201602271120 TAF KSEA 271120Z 2712/2818 21009KT P6SM -SHRA SCT015 OVC050
                      TEMPO 2712/2714 5SM -RA BR BKN010 FM271600
                       21009KT P6SM OVC050 FM272100 22010KT P6SM
                       BKN040 OVC100 FM280200 15005KT P6SM SCT040
                       OVC100=
201602270908 TAF AMD KSEA 270908Z 2709/2812 21009KT P6SM -SHRA SCT025 OVC040
                       TEMPO 2709/2713 5SM -RA BR BKN020 FM271600
                       21009KT P6SM VCSH OVC030 FM272100 22010KT
                       P6SM BKN035 OVC100 FM280200 15005KT P6SM
                       SCT035 OVC100=
201602270520 TAF KSEA 270520Z 2706/2812 19005KT P6SM -RA OVC030 FM270800 21009KT
                       P6SM -SHRA OVC015 FM271600 21009KT P6SM
                       VCSH OVC020 FM272100 22010KT P6SM BKN035
                       OVC100 FM280200 15005KT P6SM SCT035 OVC100=
201602270259 TAF AMD KSEA 270259Z 2703/2806 18005KT P6SM -RA SCT030 OVC060 FM270500
                       19005KT P6SM -RA OVC025 FM270600 21009KT
                       6SM -SHRA BR OVC015 FM271600 21009KT P6SM
                       VCSH OVC020 FM272100 22010KT P6SM BKN035
                       OVC100 FM280200 15005KT P6SM SCT035 OVC100=
201602262339 TAF KSEA 262339Z 2700/2806 19008KT P6SM -RA OVC060 FM270300 18005KT
                       P6SM -RA OVC035 FM270500 19005KT P6SM -RA
                       OVC025 FM270600 21009KT 6SM -SHRA BR OVC015
                       FM271600 21009KT P6SM VCSH OVC020 FM272100
                       22010KT P6SM BKN035 OVC100=
201602262105 TAF AMD KSEA 262105Z 2621/2724 20006KT P6SM BKN070 OVC150 FM270000
                       19006KT P6SM -RA SCT025 OVC050 FM270300
                       17006KT P6SM -RA OVC025 FM270600 20009KT
                       6SM -RA BR OVC015=
201602261734 TAF KSEA 261734Z 2618/2724 19003KT P6SM FEW190 BKN250 FM262000
                       22006KT P6SM SCT050 OVC100 FM270000 19006KT
                       P6SM -RA SCT025 OVC050 FM270300 17006KT
                       P6SM -RA OVC025 FM270600 20009KT 6SM -RA
                       BR OVC015=
201602261401 TAF AMD KSEA 261401Z 2614/2718 16003KT P6SM FEW100 OVC200 FM262000
                       22006KT P6SM SCT050 OVC100 FM270000 19006KT
                       P6SM -RA SCT025 OVC050 FM270300 17006KT
                       P6SM -RA OVC025 FM270600 20009KT 6SM -RA
                       BR OVC015=
201602261141 TAF KSEA 261141Z 2612/2718 10004KT P6SM FEW100 OVC200 FM262000
                       22006KT P6SM SCT050 OVC100 FM270000 19006KT
                       P6SM -RA SCT025 OVC050 FM270300 17006KT
                       P6SM -RA OVC025 FM270600 20009KT 6SM -RA
                       BR OVC015=
201602260913 TAF AMD KSEA 260913Z 2609/2712 10004KT P6SM FEW100 OVC200 FM262000
                       22006KT P6SM SCT050 OVC100
                      PROB30 2620/2624 -RA FM270000 19006KT P6SM
                       -RA SCT025 OVC050 FM270300 17006KT P6SM
                       -RA OVC025 FM270600 20010KT 6SM -RA BR OVC015=
201602260545 TAF KSEA 260545Z 2606/2712 10004KT P6SM FEW100 OVC200 FM262000
                       22006KT P6SM SCT050 OVC100
                      PROB30 2620/2624 -RA FM270000 19006KT P6SM
                       -RA SCT025 OVC050 FM270300 17006KT P6SM
                       -RA OVC025 FM270600 20010KT 6SM -RA BR OVC015=
201602260310 TAF AMD KSEA 260310Z 2603/2706 05005KT P6SM BKN200 FM260900 17005KT
                       P6SM FEW110 BKN200=
201602252327 TAF KSEA 252327Z 2600/2706 28005KT P6SM BKN250 FM260300 07005KT
                       P6SM BKN200 FM260900 17005KT P6SM FEW110
                       BKN200=
201602252106 TAF AMD KSEA 252106Z 2521/2624 27008KT P6SM FEW250 FM260300 04007KT
                       P6SM BKN200 FM260900 08007KT P6SM FEW110
                       BKN200=
201602251733 TAF KSEA 251733Z 2518/2624 36004KT P6SM BKN250 FM260300 04007KT
                       P6SM BKN200 FM260900 08007KT P6SM FEW110
                       BKN200=
201602251402 TAF AMD KSEA 251402Z 2514/2618 03005KT P6SM SCT200 FM251800 01005KT
                       P6SM SCT200 FM252000 35005KT P6SM BKN200
                       FM260300 04007KT P6SM BKN200 FM260900 08007KT
                       P6SM FEW110 BKN200=
201602251137 TAF KSEA 251137Z 2512/2618 07005KT P6SM VCFG FEW005 SCT200 FM251800
                       04005KT P6SM SCT200 FM252000 01005KT P6SM
                       BKN200 FM260300 04007KT P6SM BKN200 FM260900
                       08007KT P6SM FEW110 BKN200=
201602250908 TAF AMD KSEA 250908Z 2509/2612 VRB03KT P6SM SCT200 FM251200 07005KT
                       P6SM VCFG SCT007 SCT200 FM251800 07009KT
                       P6SM BKN200 FM260600 10012KT P6SM BKN200=
201602250538 TAF KSEA 250538Z 2506/2612 VRB03KT P6SM SCT050 BKN200 FM251200
                       07005KT P6SM VCFG SCT015 SCT200 FM251800
                       07009KT P6SM BKN200 FM260600 10012KT P6SM
                       BKN200=
201602250319 TAF AMD KSEA 250319Z 2503/2606 VRB03KT P6SM FEW023 BKN050 BKN100
                       TEMPO 2503/2506 -RA FM250600 00000KT P6SM
                       BKN050 FM251200 VRB03KT P6SM SCT005 SCT040
                       TEMPO 2514/2517 3SM BR BKN005 BKN040 FM252000
                       33006KT P6SM SCT200=
201602242320 TAF KSEA 242320Z 2500/2606 VRB03KT P6SM BKN060 BKN100 FM250600
                       00000KT P6SM BKN050 FM251200 VRB03KT P6SM
                       SCT005 SCT040
                      TEMPO 2514/2517 3SM BR BKN005 BKN040 FM252000
                       33006KT P6SM SCT200=
201602242123 TAF AMD KSEA 242123Z 2421/2524 VRB04KT P6SM BKN090 BKN250 FM250600
                       00000KT P6SM BKN050 FM251200 VRB03KT P6SM
                       SCT005 SCT040
                      TEMPO 2514/2517 3SM BR BKN005 BKN040=
201602241720 TAF KSEA 241720Z 2418/2524 VRB03KT P6SM OVC080 FM250600 VRB03KT
                       P6SM OVC050 FM251600 VRB03KT P6SM BKN040=
201602241402 TAF AMD KSEA 241402Z 2414/2518 16003KT P6SM BKN200 FM241800 VRB03KT
                       P6SM SCT060 SCT110 BKN200 FM250300 VRB03KT
                       P6SM SCT060 BKN110 FM250600 VRB03KT P6SM
                       FEW018 SCT060 SCT110 FM251000 VRB03KT P6SM
                       OVC011=
201602241143 TAF KSEA 241143Z 2412/2518 12006KT P6SM SCT110 BKN200
                      TEMPO 2414/2418 BKN110 BKN200 FM241800 VRB03KT
                       P6SM SCT060 SCT110 BKN200 FM250300 VRB03KT
                       P6SM SCT060 BKN110 FM250600 VRB03KT P6SM
                       FEW018 SCT060 SCT110 FM251000 VRB03KT P6SM
                       OVC011=
201602240905 TAF AMD KSEA 240905Z 2409/2512 11006KT P6SM BKN110 OVC200 FM241800
                       VRB03KT P6SM BKN060 BKN110 BKN200 FM250300
                       VRB03KT P6SM SCT060 BKN110 BKN200=
201602240528 TAF KSEA 240528Z 2406/2512 11010KT P6SM SCT110 OVC200 FM241500
                       11005KT P6SM SCT060 BKN110 BKN200 FM241800
                       VRB03KT P6SM BKN060 BKN110 BKN200 FM250300
                       VRB03KT P6SM SCT060 BKN110 BKN200=
201602240314 TAF AMD KSEA 240314Z 2403/2506 10012KT P6SM SCT110 OVC200 FM240600
                       12008KT P6SM BKN110 OVC200 FM241200 12006KT
                       P6SM BKN060 OVC120 FM241700 14004KT P6SM
                       OVC050=
201602232320 TAF KSEA 232320Z 2400/2506 09012KT P6SM SCT120 BKN200 FM240600
                       12008KT P6SM BKN120 OVC200 FM241200 12006KT
                       P6SM BKN060 OVC120 FM241700 14004KT P6SM
                       OVC050=
201602232222 TAF AMD KSEA 232222Z 2322/2424 08010KT P6SM BKN200 FM241000 10006KT
                       P6SM BKN120 OVC200 FM241700 12004KT P6SM
                       BKN060 BKN120=
201602231720 TAF KSEA 231720Z 2318/2424 02010KT P6SM SKC FM240000 05005KT P6SM
                       BKN200 FM241000 10006KT P6SM BKN120 OVC200
                       FM241700 12004KT P6SM BKN060 BKN120=
201602231404 TAF AMD KSEA 231404Z 2314/2418 04003KT P6SM FEW003 FM231800 04006KT
                       P6SM FEW007 SCT200 FM232000 02009KT P6SM
                       BKN200 FM240300 05005KT P6SM OVC200 FM241200
                       11005KT P6SM SCT110 OVC200=
201602231120 TAF KSEA 231120Z 2312/2418 04006KT P6SM VCFG SCT003
                      TEMPO 2312/2316 5SM BR BKN003 FM231800 04006KT
                       P6SM FEW007 SCT200 FM232000 02009KT P6SM
                       BKN200 FM240300 05005KT P6SM OVC200 FM241200
                       11005KT P6SM SCT110 OVC200=
201602230900 TAF AMD KSEA 230900Z 2309/2412 04005KT P6SM SKC FM232000 02010KT
                       P6SM SKC FM240300 05006KT P6SM SKC=
201602230520 TAF KSEA 230520Z 2306/2412 04006KT P6SM SKC FM232000 02010KT P6SM
                       SKC FM240300 05006KT P6SM SKC=
201602230310 KSEA 230310Z 2303/2406 VRB03KT P6SM FEW030 FM230600 03006KT P6SM
                       SKC FM232000 03008KT P6SM SKC=
201602222320 TAF KSEA 222320Z 2300/2406 VRB03KT P6SM SCT040 FM230600 03006KT
                       P6SM SKC FM232000 03008KT P6SM SKC=
201602221734 TAF KSEA 221734Z 2218/2324 19007KT P6SM VCSH BKN030 FM222000 23006KT
                       P6SM SCT030 BKN045 FM230000 32006KT P6SM
                       SCT035 SCT045 FM230300 03006KT P6SM SKC=
201602221405 TAF AMD KSEA 221405Z 2214/2318 18010KT P6SM SCT020 OVC045
                      TEMPO 2214/2216 -SHRA BKN020 OVC040 FM221600
                       20006KT P6SM VCSH BKN030 FM222000 23006KT
                       P6SM SCT030 BKN045 FM230000 32006KT P6SM
                       SCT035 SCT045 FM230300 03006KT P6SM SKC=
201602221128 TAF KSEA 221128Z 2212/2318 18010KT P6SM VCSH SCT025 BKN040
                      TEMPO 2214/2216 -SHRA BKN020 OVC040 FM221600
                       20006KT P6SM VCSH BKN030 FM222000 23006KT
                       P6SM SCT030 BKN045 FM230000 32006KT P6SM
                       SCT035 SCT045 FM230300 03006KT P6SM SKC=
201602220537 TAF KSEA 220537Z 2206/2312 21010KT P6SM VCSH SCT025 BKN040 FM221200
                       18010KT P6SM -SHRA BKN020 OVC040 FM221700
                       20006KT P6SM VCSH BKN030 FM222000 23006KT
                       P6SM SCT030 BKN045 FM230000 32006KT P6SM
                       SCT035 SCT045 FM230200 03006KT P6SM SCT045=
201602220303 TAF AMD KSEA 220303Z 2203/2306 21010KT P6SM VCSH SCT025 BKN040
                       FM221200 18007KT P6SM -SHRA BKN020 OVC040
                       FM221500 18005KT P6SM VCSH BKN030 FM222100
                       23006KT P6SM SCT030 BKN045 FM230000 32006KT
                       P6SM SCT035 SCT045=
201602212321 TAF KSEA 212321Z 2200/2306 20012G20KT P6SM -SHRA BKN030 BKN040
                       TEMPO 2200/2203 BKN025 FM220300 21010KT
                       P6SM VCSH SCT030 BKN040 FM221200 18007KT
                       P6SM -SHRA BKN020 OVC040 FM221500 18005KT
                       P6SM BKN030=
201602212104 TAF AMD KSEA 212104Z 2121/2224 20012G20KT P6SM -SHRA SCT030 BKN040
                       BKN100 FM220100 21010KT P6SM VCSH SCT030
                       BKN045 FM221200 18007KT P6SM VCSH BKN020
                       BKN045=
201602211722 TAF KSEA 211722Z 2118/2224 14006KT P6SM SCT045 BKN150 OVC200 FM212000
                       17012KT P6SM -RA BKN030 OVC045 FM212200
                       20012G20KT P6SM -RA BKN025 OVC040 FM220100
                       21012G20KT P6SM VCSH BKN030 BKN045 FM220300
                       19008KT P6SM VCSH SCT030 BKN045 FM221200
                       18007KT P6SM VCSH BKN020 BKN045=
201602211402 KSEA 211402Z 2114/2218 VRB03KT P6SM FEW100 BKN250 FM211600 14006KT
                       P6SM SCT045 BKN090 OVC150 FM212000 17012KT
                       P6SM -RA BKN030 OVC045 FM212200 20012G20KT
                       P6SM -RA BKN025 OVC040 FM220100 21012G20KT
                       P6SM -SHRA BKN030 BKN045 FM220600 19008KT
                       P6SM VCSH SCT030 BKN045 FM221200 18007KT
                       P6SM VCSH BKN020 BKN045=
201602211121 TAF KSEA 211121Z 2112/2218 04005KT P6SM SCT120 BKN200 FM211500
                       14006KT P6SM SCT045 BKN090 OVC150 FM212000
                       17012KT P6SM -RA BKN030 OVC045 FM212200
                       20012G20KT P6SM -RA BKN025 OVC040 FM220100
                       21012G20KT P6SM -SHRA BKN030 BKN045 FM220600
                       19008KT P6SM VCSH SCT030 BKN045 FM221200
                       18007KT P6SM VCSH BKN020 BKN045=
201602210903 TAF AMD KSEA 210903Z 2109/2212 04006KT P6SM SCT120 BKN200 FM211400
                       14006KT P6SM SCT045 BKN090 OVC150 FM212000
                       17012KT P6SM -RA BKN030 OVC045 FM212200
                       20012G20KT P6SM -RA BKN025 OVC040 FM220100
                       21012G20KT P6SM -SHRA BKN030 BKN045 FM220600
                       19008KT P6SM VCSH SCT030 BKN045=
201602210522 TAF KSEA 210522Z 2106/2212 04006KT P6SM SCT120 BKN200 FM211400
                       14006KT P6SM SCT045 BKN090 OVC150 FM212000
                       17012KT P6SM -RA BKN030 OVC045 FM212200
                       20012G20KT P6SM -RA BKN025 OVC040 FM220100
                       21012G20KT P6SM -SHRA BKN030 BKN045 FM220600
                       19008KT P6SM VCSH SCT030 BKN045=
201602210303 TAF AMD KSEA 210303Z 2103/2206 02006KT P6SM SCT120 BKN200 FM211400
                       14006KT P6SM SCT050 BKN090 OVC150 FM212000
                       19010KT P6SM -RA BKN030 OVC060=
201602202329 TAF KSEA 202329Z 2100/2206 21004KT P6SM SCT030 BKN250 FM210300
                       04004KT P6SM FEW030 BKN250 FM211400 14006KT
                       P6SM SCT050 BKN120 OVC200 FM212000 19010KT
                       P6SM -RA BKN030 OVC060=
201602202101 TAF AMD KSEA 202101Z 2021/2124 21008KT P6SM SCT030 SCT250 FM210300
                       04005KT P6SM SCT045 BKN200 FM211400 07006KT
                       P6SM BKN120=
201602201727 TAF KSEA 201727Z 2018/2124 20010KT P6SM FEW025 FM202100 28006KT
                       P6SM SCT250 FM210300 04005KT P6SM SCT045
                       BKN200 FM211400 07006KT P6SM BKN120=
201602201400 TAF AMD KSEA 201400Z 2014/2118 18012KT P6SM FEW025 SCT120
                      TEMPO 2014/2016 BKN020 BKN045 FM201600 18008KT
                       P6SM SCT020 BKN045
                      TEMPO 2016/2020 BKN020 BKN045 FM202000 20008KT
                       P6SM SCT025 BKN045 FM202300 28006KT P6SM
                       SCT030 BKN045 FM210300 04005KT P6SM SCT045
                       BKN200 FM211400 07006KT P6SM BKN120=
201602201122 TAF KSEA 201122Z 2012/2118 18008KT P6SM VCSH SCT020 BKN045
                      TEMPO 2012/2016 BKN020 BKN045 FM201600 18008KT
                       P6SM SCT020 BKN045
                      TEMPO 2016/2020 BKN020 BKN045 FM202000 20008KT
                       P6SM SCT025 BKN045 FM202300 28006KT P6SM
                       SCT030 BKN045 FM210300 04005KT P6SM SCT045
                       BKN200 FM211400 07006KT P6SM BKN120=
201602200905 TAF AMD KSEA 200905Z 2009/2112 18011KT P6SM SCT018 BKN040
                      TEMPO 2009/2012 -SHRA BKN018 OVC035 FM201200
                       18008KT P6SM VCSH BKN020 BKN045 FM201900
                       20008KT P6SM SCT025 BKN045 FM202300 28006KT
                       P6SM SCT030 BKN045 FM210300 04005KT P6SM
                       SCT030 BKN070=
201602200523 TAF KSEA 200523Z 2006/2112 18011KT P6SM SCT020 BKN045
                      TEMPO 2006/2010 -SHRA BKN020 OVC040 FM201000
                       18008KT P6SM VCSH BKN020 BKN045 FM201900
                       20008KT P6SM SCT025 BKN045 FM202300 28006KT
                       P6SM SCT030 BKN045 FM210300 04005KT P6SM
                       SCT030 BKN070=
201602200301 TAF AMD KSEA 200301Z 2003/2106 21010G20KT P6SM -SHRA BKN025 BKN045
                       TEMPO 2003/2006 SCT025 OVC045 FM200600 20010KT
                       P6SM -SHRA BKN025 FM201200 18008KT P6SM
                       BKN025=
201602192320 TAF KSEA 192320Z 2000/2106 18015G25KT P6SM -SHRA SCT025 BKN040
                       OVC060 FM200300 21010G20KT P6SM -SHRA BKN030
                       BKN045 FM200600 20010KT P6SM -SHRA BKN025
                       FM201200 18008KT P6SM BKN025=
201602192101 TAF AMD KSEA 192101Z 1921/2024 18020G30KT P6SM -SHRA SCT020 BKN040
                       OVC060 FM200000 21012G22KT P6SM -SHRA BKN030
                       BKN045 FM200600 20010KT P6SM -SHRA BKN025
                       FM201200 18008KT P6SM BKN025=
201602191721 TAF KSEA 191721Z 1918/2024 12010KT P6SM -RA OVC040 FM192100 18014G24KT
                       P6SM -RA BKN040 OVC060 FM200000 21012G22KT
                       P6SM -SHRA BKN030 BKN045 FM200600 20010KT
                       P6SM -SHRA BKN025 FM201200 18008KT P6SM
                       BKN025=
201602191403 TAF AMD KSEA 191403Z 1914/2018 16011KT P6SM -RA SCT025 OVC040 FM191600
                       16011KT P6SM SCT025 BKN040 OVC060
                      TEMPO 1916/1920 -RA BKN025 OVC040 FM192000
                       16014G24KT 5SM -RA BKN020 OVC035 FM200000
                       21012G22KT P6SM -SHRA BKN035 BKN045 FM200600
                       20010KT P6SM -SHRA BKN035 BKN045 FM201200
                       18008KT P6SM VCSH BKN035 BKN045=
201602191127 TAF KSEA 191127Z 1912/2018 16011KT P6SM SCT025 BKN040
                      TEMPO 1912/1916 -RA BKN025 OVC040 FM191600
                       16011KT P6SM SCT025 BKN040 OVC060
                      TEMPO 1916/1920 -RA BKN025 OVC040 FM192000
                       16014G24KT 5SM -RA BKN020 OVC035 FM200000
                       21012G22KT P6SM -SHRA BKN035 BKN045 FM200600
                       20010KT P6SM -SHRA BKN035 BKN045 FM201200
                       18008KT P6SM VCSH BKN035 BKN045=
201602190905 KSEA 190905Z 1909/2012 17011KT P6SM VCSH SCT025 BKN040 FM192000
                       16014G24KT 5SM -RA BKN020 OVC035 FM200100
                       21012G22KT P6SM -SHRA BKN035 BKN045 FM200600
                       20010KT P6SM -SHRA BKN035 BKN045=
201602190523 TAF KSEA 190523Z 1906/2012 17012KT P6SM VCSH SCT020 OVC035 FM192000
                       16014G24KT 5SM -RA BKN020 OVC035 FM200100
                       21012G22KT P6SM -SHRA BKN035 BKN045 FM200600
                       20010KT P6SM -SHRA BKN035 BKN045=
201602190312 TAF AMD KSEA 190312Z 1903/2006 20010KT P6SM BKN035 OVC090 FM190400
                       20010KT P6SM -RA BKN030 OVC045 FM190800
                       16012KT P6SM VCSH SCT020 OVC035 FM191800
                       15009KT P6SM -RA BKN035 OVC045 FM200100
                       21012G22KT P6SM -SHRA BKN035 BKN045=
201602182326 TAF KSEA 182326Z 1900/2006 21012KT P6SM VCSH FEW030 BKN060 BKN080
                       FM190600 19011G22KT P6SM SCT020 OVC035 FM191500
                       15009KT P6SM -RA BKN035 OVC045=
201602182022 TAF AMD KSEA 182022Z 1820/1924 19012G20KT P6SM -SHRA BKN035 BKN050
                       BKN090 FM190600 19011G22KT P6SM VCSH SCT020
                       OVC035 FM191500 15009KT P6SM -RA BKN035
                       OVC045=
201602181720 TAF KSEA 181720Z 1818/1924 19005KT P6SM VCSH BKN060 BKN100 FM182000
                       19008KT P6SM -SHRA SCT025 BKN040 FM190600
                       19011G22KT P6SM VCSH SCT020 OVC035 FM191500
                       15009KT P6SM -RA BKN035 OVC045=
201602181402 TAF AMD KSEA 181402Z 1814/1918 16005KT P6SM BKN025 OVC060
                      TEMPO 1814/1816 -SHRA SCT025 BKN045 FM181600
                       17008KT P6SM VCSH BKN025 OVC045 FM182000
                       21008KT P6SM VCSH SCT025 BKN040 FM190600
                       17008KT P6SM VCSH SCT020 OVC035 FM191200
                       16010KT P6SM -RA BKN035 OVC045=
201602181120 TAF KSEA 181120Z 1812/1918 17007KT P6SM BKN025 OVC045
                      TEMPO 1812/1816 -SHRA SCT025 BKN045 FM181600
                       17008KT P6SM VCSH BKN025 OVC045 FM182000
                       21008KT P6SM VCSH SCT025 BKN040 FM190600
                       17008KT P6SM VCSH SCT020 OVC035 FM191200
                       16010KT P6SM -RA BKN035 OVC045=
201602180907 TAF AMD KSEA 180907Z 1809/1912 21008KT P6SM SCT025 OVC045
                      TEMPO 1809/1813 -SHRA BKN025 OVC040 FM181500
                       21010KT P6SM VCSH BKN025 OVC035 FM182100
                       VRB03KT P6SM VCSH SCT025 BKN040 FM190600
                       VRB03KT P6SM VCSH SCT020 OVC035=
201602180520 TAF KSEA 180520Z 1806/1912 21011KT P6SM -SHRA SCT012 BKN025 OVC040
                       TEMPO 1806/1810 5SM -SHRA BKN012 OVC025
                       FM181500 21010KT P6SM VCSH BKN025 OVC035
                       FM182100 VRB03KT P6SM VCSH SCT025 BKN040
                       FM190600 VRB03KT P6SM VCSH SCT020 OVC035=
201602180405 TAF AMD KSEA 180405Z 1804/1906 20008KT P6SM -SHRA SCT008 OVC045
                       TEMPO 1804/1806 5SM SHRA BKN008 OVC035 FM180600
                       20008KT P6SM -SHRA BKN025 OVC040 FM181500
                       20010KT P6SM VCSH BKN025 OVC040 FM182100
                       21007KT P6SM VCSH SCT025 OVC040=
201602180312 TAF AMD KSEA 180312Z 1803/1906 20008KT P6SM -SHRA SCT025 OVC050
                       TEMPO 1803/1806 5SM SHRA BKN025 OVC045 FM180600
                       20008KT P6SM -SHRA BKN025 OVC040 FM181500
                       20010KT P6SM VCSH BKN025 OVC040 FM182100
                       21007KT P6SM VCSH SCT025 OVC040=
201602172329 TAF KSEA 172329Z 1800/1906 10009KT P6SM VCSH BKN070 OVC150 FM180300
                       13004KT P6SM -RA SCT025 OVC050 FM180600
                       20005KT P6SM -RA BKN025 OVC040 FM181500
                       20010KT P6SM VCSH BKN025 OVC040 FM182100
                       21007KT P6SM VCSH SCT025 OVC040=
201602172101 TAF AMD KSEA 172101Z 1721/1824 00000KT P6SM VCSH FEW070 BKN100
                       OVC180 FM180000 04005KT P6SM VCSH SCT050
                       OVC090 FM180300 17008KT P6SM -RA SCT025
                       OVC050 FM180600 19008KT P6SM -RA BKN025
                       OVC040=
201602171720 TAF KSEA 171720Z 1718/1824 00000KT P6SM FEW080 BKN100 BKN250 FM180000
                       04005KT P6SM SCT050 OVC090 FM180300 17008KT
                       P6SM -RA SCT025 OVC050 FM180600 19008KT
                       P6SM -RA BKN025 OVC040=
201602171402 TAF AMD KSEA 171402Z 1714/1818 04007KT P6SM BKN110 OVC200 FM180000
                       04005KT P6SM SCT050 OVC090 FM180300 17008KT
                       P6SM -RA SCT025 OVC050 FM180600 19008KT
                       P6SM -RA BKN025 OVC040=
201602171121 TAF KSEA 171121Z 1712/1818 03005KT P6SM BKN100 OVC250 FM180000
                       04005KT P6SM SCT050 OVC090 FM180300 17008KT
                       P6SM -RA SCT025 OVC050 FM180600 19008KT
                       P6SM -RA BKN025 OVC040=
201602170907 TAF AMD KSEA 170907Z 1709/1812 04005KT P6SM BKN120 OVC200
                      TEMPO 1709/1713 -RA OVC040 FM171800 06006KT
                       P6SM SCT040 BKN120 FM180300 17008KT P6SM
                       -RA BKN025 OVC040=
201602170528 TAF KSEA 170528Z 1706/1812 03005KT P6SM BKN100 OVC200
                      TEMPO 1709/1713 -RA OVC040 FM171800 06006KT
                       P6SM SCT040 BKN120 FM180300 17008KT P6SM
                       -RA BKN025 OVC040=
201602170300 TAF AMD KSEA 170300Z 1703/1806 12003KT P6SM FEW040 OVC100
                      TEMPO 1703/1707 -RA OVC040 FM171800 06006KT
                       P6SM SCT040 BKN120=
201602162320 TAF KSEA 162320Z 1700/1806 VRB04KT P6SM SCT030 OVC100 FM170300
                       VRB04KT P6SM BKN040 OVC080
                      TEMPO 1703/1707 -RA OVC040 FM171800 06006KT
                       P6SM SCT040 BKN120=
201602161733 TAF KSEA 161733Z 1618/1724 18005KT P6SM SCT006 BKN015 BKN200
                      TEMPO 1618/1620 BKN006 OVC012 FM162100 VRB03KT
                       P6SM SCT030 BKN150
                      TEMPO 1621/1624 BKN030 OVC150 FM170000 VRB03KT
                       P6SM -RA BKN030 OVC060 FM170500 04006KT
                       P6SM OVC030 FM171600 04006KT P6SM SCT030
                       BKN050=
201602161401 KSEA 161401Z 1614/1718 21008KT P6SM OVC005 FM161800 21008KT P6SM
                       SCT005 OVC011 FM162300 18006KT P6SM SCT025
                       BKN060 FM170400 07005KT P6SM -RA BKN025
                       OVC060=
201602161127 TAF KSEA 161127Z 1612/1718 20012KT P6SM -RA BKN015 OVC060 FM162000
                       18006KT P6SM SCT025 BKN060 FM170400 07005KT
                       P6SM -RA BKN025 OVC060=
201602160901 TAF AMD KSEA 160901Z 1609/1712 19010KT P6SM BKN015 OVC025 FM161200
                       21006KT P6SM BKN025 OVC040 FM161700 18006KT
                       P6SM SCT025 BKN050=
201602160520 TAF KSEA 160520Z 1606/1712 21008KT P6SM -RA OVC025 FM161200 21006KT
                       P6SM BKN025 OVC040 FM161700 18006KT P6SM
                       SCT025 BKN050=
201602160302 TAF AMD KSEA 160302Z 1603/1706 20012G20KT P6SM SCT025 OVC035 FM160500
                       21012G22KT 5SM -RA BR BKN020 OVC035 FM161000
                       21008KT P6SM BKN020 BKN040 FM161700 18006KT
                       P6SM SCT025 BKN050=
201602160155 TAF AMD KSEA 160155Z 1602/1706 21012G22KT P6SM OVC025 FM160400
                       21012G22KT 3SM -RA BR BKN008 OVC015 FM161000
                       21008KT P6SM BKN020 BKN040 FM161700 18006KT
                       P6SM SCT025 BKN050=
201602152320 TAF KSEA 152320Z 1600/1706 21012G22KT 5SM -RA BR OVC025
                      TEMPO 1600/1604 3SM -RA BR OVC015 FM160400
                       21012G22KT 3SM -RA BR BKN008 OVC015 FM161000
                       21008KT P6SM BKN020 BKN040 FM161700 18006KT
                       P6SM SCT025 BKN050=
201602152124 TAF AMD KSEA 152124Z 1521/1624 20012KT 4SM -RA BR OVC025
                      TEMPO 1521/1601 1 1/2SM -RA BR OVC015 FM160400
                       21012KT 4SM -RA BR BKN008 OVC015 FM161000
                       21008KT P6SM BKN020 BKN040 FM161700 18006KT
                       P6SM SCT025 BKN050=
201602151720 TAF KSEA 151720Z 1518/1624 21012KT 5SM -RA SCT008 OVC018
                      TEMPO 1518/1522 3SM -RA BR BKN008 OVC015
                       FM152200 21012G22KT P6SM BKN020 OVC040 FM160400
                       21012KT 4SM -RA BR BKN008 OVC015 FM161000
                       21008KT P6SM BKN020 BKN040 FM161700 18006KT
                       P6SM SCT025 BKN050=
201602151401 TAF AMD KSEA 151401Z 1514/1618 19014G25KT 4SM -RA OVC005 FM152100
                       19014KT 6SM -RA BR SCT006 OVC011 FM161400
                       19006KT P6SM SCT008 OVC015=
201602151139 TAF KSEA 151139Z 1512/1618 19014KT 4SM -RA OVC005 FM152100 19014KT
                       6SM -RA BR SCT006 OVC011 FM161400 19006KT
                       P6SM SCT008 OVC015=
201602151026 TAF AMD KSEA 151026Z 1510/1612 19014KT 5SM -RA OVC005 FM151800
                       19014KT 6SM -RA BR SCT006 OVC011=
201602150539 TAF KSEA 150539Z 1506/1612 19014KT 5SM -RA OVC005 FM151200 19014KT
                       6SM -RA BR SCT006 OVC011=
201602150303 KSEA 150303Z 1503/1606 19014G24KT P6SM -RA SCT006 OVC015 FM151400
                       21014G22KT 4SM -RA BR OVC006 FM152000 19017G26KT
                       6SM -RA BR SCT008 OVC015=
201602142339 TAF KSEA 142339Z 1500/1606 19018G30KT 5SM -RA BR OVC010
                      TEMPO 1500/1502 P6SM NSW FM151400 21014G22KT
                       4SM -RA BR OVC008 FM152000 19017G26KT 6SM
                       -RA BR SCT008 OVC015=
201602142107 KSEA 142107Z 1421/1524 19013KT P6SM VCSH SCT008 OVC014 FM150400
                       19018G30KT 6SM -RA BR OVC010 FM151400 21014G22KT
                       4SM -RA BR OVC008 FM152000 20014G22KT 6SM
                       -RA BR OVC015=
201602141741 TAF KSEA 141741Z 1418/1524 17007KT 3SM -RA BR BKN006 OVC010 FM142100
                       19011KT P6SM VCSH SCT008 OVC014 FM150400
                       19018G30KT 6SM -RA BR OVC010 FM151400 21014G22KT
                       4SM -RA BR OVC008 FM152000 20014G22KT 6SM
                       -RA BR OVC015=
201602141446 TAF AMD KSEA 141446Z 1415/1518 18012KT P6SM -RA SCT005 OVC015 FM150900
                       21012KT P6SM SCT012 BKN022 OVC035=
201602141140 TAF KSEA 141140Z 1412/1518 18012KT 3SM -RA BKN005 OVC012 FM141500
                       18012KT 5SM -RA SCT005 OVC012 FM150900 21012KT
                       P6SM SCT012 BKN022 OVC035=
201602140908 TAF AMD KSEA 140908Z 1409/1512 18012KT P6SM SCT006 OVC012
                      TEMPO 1409/1413 3SM BR OVC006 FM142300 21012KT
                       P6SM -RA SCT008 BKN015 OVC030 FM150900 21012KT
                       P6SM SCT015 BKN025 OVC040=
201602140545 TAF KSEA 140545Z 1406/1512 17012KT 4SM BR OVC012 FM141000 19008KT
                       P6SM SCT006 OVC012
                      TEMPO 1410/1414 3SM BR OVC006 FM142300 21012KT
                       P6SM -RA SCT008 BKN015 OVC030 FM150900 21012KT
                       P6SM SCT015 BKN025 OVC040=
201602140311 TAF AMD KSEA 140311Z 1403/1506 17012KT P6SM SCT015 OVC025 FM140900
                       19012G20KT 6SM -RA BR SCT008 OVC015 FM141400
                       19008KT P6SM VCSH SCT007 OVC014 FM142300
                       21011G20KT P6SM -RA BKN014 OVC040=
201602140211 TAF AMD KSEA 140211Z 1402/1506 17012KT P6SM -RA FEW015 OVC035 FM140400
                       19013G21KT P6SM VCSH SCT012 OVC020 FM140900
                       19012G20KT 6SM -RA BR SCT008 OVC015 FM141400
                       19008KT P6SM VCSH SCT007 OVC014 FM142300
                       21011G20KT P6SM -RA BKN014 OVC040=
201602132338 TAF KSEA 132338Z 1400/1506 18013G21KT 6SM -RA BR SCT020 OVC030
                       FM140400 19013G21KT P6SM VCSH SCT012 OVC020
                       FM140900 19012G20KT 6SM -RA BR SCT008 OVC015
                       FM141400 19008KT P6SM VCSH SCT007 OVC014
                       FM142300 21011G20KT P6SM -RA BKN014 OVC040=
201602132106 TAF AMD KSEA 132106Z 1321/1424 18012G20KT P6SM -RA SCT025 BKN035
                       OVC045 FM132200 18014G22KT 5SM -RA BR SCT020
                       OVC030 FM140300 19014G22KT P6SM -RA SCT012
                       OVC018 FM140900 19012G20KT 6SM -RA BR SCT008
                       OVC012=
201602131738 TAF KSEA 131738Z 1318/1424 19012KT P6SM SCT025 OVC120 FM132000
                       18012KT P6SM -RA SCT025 OVC035 FM132200
                       18014G22KT 5SM -RA BR SCT020 OVC030 FM140300
                       19014G22KT P6SM -RA SCT012 OVC018 FM140900
                       19012G20KT 6SM -RA BR SCT008 OVC012=
201602131400 TAF AMD KSEA 131400Z 1314/1418 18014KT P6SM SCT020 BKN030 FM131600
                       18010KT P6SM SCT030 BKN050 FM132000 15008KT
                       P6SM -RA OVC040
                      TEMPO 1400/1404 4SM -RA FM140400 17012KT
                       4SM -RA SCT010 OVC020 FM140900 18010KT 5SM
                       -RA BKN010=
201602131359 TAF AMD KSEA 131359Z 1314/1418 18014KT P6SM SCT025 BKN045 FM131600
                       18010KT P6SM SCT030 BKN050 FM132000 15008KT
                       P6SM -RA OVC040
                      TEMPO 1400/1404 4SM -RA FM140400 17012KT
                       4SM -RA SCT010 OVC020 FM140900 18010KT 5SM
                       -RA BKN010=
201602131133 TAF KSEA 131133Z 1312/1418 18014KT P6SM SCT025 BKN045
                      TEMPO 1312/1316 -SHRA BKN025 OVC045 FM131600
                       18010KT P6SM SCT030 BKN050 FM132000 15008KT
                       P6SM -RA OVC040
                      TEMPO 1400/1404 4SM -RA FM140400 17012KT
                       4SM -RA SCT010 OVC020=
201602130928 TAF AMD KSEA 130928Z 1309/1412 18014KT P6SM SCT025 BKN045
                      TEMPO 1309/1313 4SM -SHRA BKN025 OVC045 FM131600
                       18008KT P6SM SCT025 BKN045 FM132000 15008KT
                       P6SM -RA OVC040
                      TEMPO 1322/1402 4SM -RA FM140200 17013G20KT
                       4SM -RA SCT010 OVC020=
201602130533 TAF KSEA 130533Z 1306/1412 20010KT P6SM SCT030 BKN060 FM130900
                       18008KT P6SM SCT025 BKN045
                      TEMPO 1309/1313 -SHRA BKN025 OVC045 FM132000
                       15008KT P6SM -RA OVC040
                      TEMPO 1322/1402 4SM -RA FM140200 17013G20KT
                       4SM -RA SCT010 OVC020=
201602130307 TAF AMD KSEA 130307Z 1303/1406 22010KT P6SM SCT030 BKN060 FM130900
                       19009KT 5SM -SHRA BR SCT008 OVC015 FM131200
                       19011KT P6SM SCT012 BKN020 FM132000 18011KT
                       6SM -RA BR SCT012 BKN018 OVC030 FM140300
                       17013G20KT P6SM -RA OVC020=
201602122339 TAF KSEA 122339Z 1300/1406 20010KT P6SM SCT025 SCT040
                      TEMPO 1300/1302 6SM -SHRA BKN025 FM130500
                       20009KT P6SM SCT020 BKN035 FM130900 19009KT
                       5SM -SHRA BR SCT008 OVC015 FM131200 19011KT
                       P6SM SCT012 BKN020 FM132000 18011KT 6SM
                       -RA BR SCT012 BKN018 OVC030 FM140300 17013G20KT
                       P6SM -RA OVC020=
201602122103 TAF AMD KSEA 122103Z 1221/1324 19012G21KT P6SM SCT015 BKN025 FM122200
                       21012G20KT P6SM VCSH SCT020 BKN035
                      TEMPO 1222/1302 6SM -SHRA BR BKN020 OVC035
                       FM130800 19009KT 5SM -RA BR SCT008 OVC015
                       FM131400 19011KT P6SM SCT015 BKN030 FM132000
                       18011KT 5SM -RA BR SCT012 BKN018 OVC030=
201602121735 TAF KSEA 121735Z 1218/1324 20012G20KT 3SM -RA BR BKN006 OVC012
                       FM122000 21014G22KT P6SM SCT012 BKN018 OVC040
                       FM122200 23012G20KT P6SM VCSH SCT020 BKN040
                       TEMPO 1222/1302 6SM -SHRA BR BKN020 OVC030
                       FM130800 19009KT 5SM -RA BR SCT008 OVC015
                       FM131400 19011KT P6SM SCT015 BKN030 FM132000
                       18011KT 5SM -RA BR SCT012 BKN018 OVC030=
201602121402 TAF AMD KSEA 121402Z 1214/1318 17006KT P6SM -RA SCT006 OVC025
                      TEMPO 1214/1216 5SM -RA BR BKN006 OVC025
                       FM121900 20014KT P6SM VCSH SCT025 BKN040
                       BKN060 FM131000 19010KT P6SM VCSH BKN025
                       OVC040
                      TEMPO 1310/1314 -SHRA OVC020=
201602121130 TAF KSEA 121130Z 1212/1318 17006KT P6SM -RA SCT006 OVC025
                      TEMPO 1212/1215 5SM -RA BR BKN006 OVC025
                       FM121900 20014KT P6SM VCSH SCT025 BKN040
                       BKN060 FM131000 18008KT P6SM BKN025 OVC040=
201602120931 TAF AMD KSEA 120931Z 1210/1312 17006KT 2SM -RA SCT003 BKN022 OVC035
                       FM121100 17006KT 5SM -RA BR SCT015 OVC025
                       FM122000 20012KT P6SM VCSH SCT025 BKN040
                       BKN060=
201602120533 TAF KSEA 120533Z 1206/1312 12008KT P6SM -RA OVC040 FM121500 18010KT
                       5SM -RA BR OVC025 FM122000 20012KT P6SM
                       VCSH SCT025 BKN040 BKN060=
201602120308 TAF AMD KSEA 120308Z 1203/1306 12006KT 6SM -RA OVC035 FM121200
                       18010KT 5SM -RA BR OVC025 FM121600 20012KT
                       P6SM -SHRA BKN025 BKN050 FM122100 20012KT
                       P6SM VCSH SCT025 BKN050=
201602112322 TAF KSEA 112322Z 1200/1306 04005KT P6SM -RA OVC050 FM120500 10006KT
                       6SM -RA OVC035 FM121200 18010KT 5SM -RA
                       BR OVC025 FM121600 20012KT P6SM -SHRA BKN025
                       BKN050 FM122100 20012KT P6SM VCSH SCT025
                       BKN050=
201602112114 TAF AMD KSEA 112114Z 1121/1224 36007KT P6SM BKN050 OVC100 FM112300
                       02006KT P6SM -RA OVC050 FM120200 15006KT
                       6SM -RA OVC035 FM121200 18010KT 5SM -RA
                       BR OVC025=
201602111724 TAF KSEA 111724Z 1118/1224 05004KT P6SM -RA OVC050 FM120400 15006KT
                       6SM -RA OVC035 FM121200 18010KT 5SM -RA
                       BR OVC025=
201602111418 TAF AMD KSEA 111418Z 1114/1218 03006KT P6SM BKN120 OVC200 FM111700
                       03006KT P6SM BKN050 OVC090 FM112100 VRB04KT
                       P6SM -RA OVC040 FM120400 16006KT 5SM -RA
                       OVC025=
201602111131 TAF KSEA 111131Z 1112/1218 03006KT P6SM BKN120 OVC200 FM111700
                       03006KT P6SM BKN050 OVC090 FM112100 VRB04KT
                       P6SM -RA OVC040 FM120400 16006KT 5SM -RA
                       OVC025=
201602110904 TAF AMD KSEA 110904Z 1109/1212 04004KT P6SM SCT015 BKN200 FM111600
                       VRB04KT P6SM SCT020 BKN050 FM112100 12006KT
                       P6SM -RA OVC040 FM120200 16006KT 5SM -RA
                       OVC030=
201602110520 TAF KSEA 110520Z 1106/1212 00000KT P6SM SCT015
                      TEMPO 1106/1109 BKN015 FM110900 00000KT P6SM
                       BKN015 BKN050 FM111300 VRB04KT P6SM BKN050
                       FM112100 12006KT P6SM -RA OVC040 FM120200
                       16006KT 5SM -RA OVC030=
201602110319 TAF AMD KSEA 110319Z 1103/1206 21008KT P6SM SCT030
                      TEMPO 1104/1108 BKN030 FM110800 VRB04KT P6SM
                       BKN030 BKN060 FM111300 02006KT P6SM BKN050
                       FM112100 02006KT P6SM -RA OVC050 FM120200
                       04006KT 5SM -RA OVC030=
201602102332 TAF KSEA 102332Z 1100/1206 13008KT P6SM -SHRA BKN035 OVC050 FM110200
                       13006KT P6SM VCSH BKN035 BKN080 FM110900
                       09005KT P6SM BKN030 OVC080 FM111300 02006KT
                       P6SM SCT040 OVC060 FM112100 02006KT P6SM
                       -RA OVC050 FM120200 04006KT 5SM -RA OVC030=
201602102106 TAF AMD KSEA 102106Z 1021/1124 13008KT P6SM FEW025 BKN040 BKN100
                       FM102300 13008KT P6SM VCSH SCT040 BKN100
                       FM110200 14006KT P6SM VCSH BKN035 BKN080
                       FM110800 09005KT P6SM BKN030 OVC080 FM111500
                       03007KT P6SM OVC060=
201602101734 TAF KSEA 101734Z 1018/1124 00000KT P6SM -RA OVC070 FM102100 18008KT
                       P6SM -RA OVC050 FM110200 14006KT P6SM VCSH
                       OVC028 FM110800 09005KT P6SM BKN025 OVC080
                       FM111500 03007KT P6SM OVC060=
201602101401 TAF AMD KSEA 101401Z 1014/1118 12006KT P6SM BKN120 BKN200 FM102100
                       18008KT P6SM BKN060 BKN120 FM110600 15006KT
                       P6SM BKN050 BKN100=
201602101120 TAF KSEA 101120Z 1012/1118 15006KT P6SM BKN120 BKN200 FM102100
                       18008KT P6SM BKN060 BKN120 FM110600 15006KT
                       P6SM BKN050 BKN100=
201602100648 TAF KSEA 100648Z 1007/1112 14005KT P6SM BKN250 FM101200 14007KT
                       P6SM OVC120 FM101800 19007KT P6SM OVC060
                       FM102000 19007KT P6SM OVC040
                      TEMPO 1020/1024 -RA=
201602092320 TAF KSEA 092320Z 1000/1106 22005KT P6SM BKN250 FM100300 14005KT
                       P6SM BKN250 FM101200 14007KT P6SM OVC120
                       FM101800 19007KT P6SM OVC060 FM102000 19007KT
                       P6SM OVC040
                      TEMPO 1020/1024 -RA=
201602092101 TAF AMD KSEA 092101Z 0921/1024 29004KT P6SM BKN250 FM100300 14005KT
                       P6SM BKN250 FM101200 14007KT P6SM OVC120
                       FM101800 19007KT P6SM OVC060=
201602091729 TAF KSEA 091729Z 0918/1024 18003KT 1/4SM FG VV001 FM091830 00000KT
                       2SM BR BKN004 FM092000 VRB04KT P6SM BKN250
                       FM100000 14005KT P6SM BKN250 FM101200 14007KT
                       P6SM OVC120 FM101800 19007KT P6SM OVC060=
201602091557 TAF AMD KSEA 091557Z 0916/1018 24005KT 1/4SM FG VV001 FM091800
                       00000KT 2SM BR BKN004 FM092000 VRB04KT P6SM
                       BKN250=
201602091554 TAF AMD KSEA 091554Z 0916/1018 00000KT 1/2SM FG VV001 FM091800
                       00000KT 2SM BR BKN004 FM092000 VRB04KT P6SM
                       BKN250=
201602091317 TAF AMD KSEA 091317Z 0913/1018 12004KT 4SM BR SCT001
                      TEMPO 0913/0915 1/4SM FG BKN001 FM091600
                       12004KT P6SM SKC FM092000 VRB04KT P6SM BKN250=
201602091120 TAF KSEA 091120Z 0912/1018 02007KT P6SM SCT250 FM092000 VRB04KT
                       P6SM BKN250=
201602090520 TAF KSEA 090520Z 0906/1012 02007KT P6SM SCT250=
201602082320 TAF KSEA 082320Z 0900/1006 36006KT P6SM SCT250 FM090400 02007KT
                       P6SM SCT250=
201602082100 KSEA 082100Z 0821/0924 34006KT P6SM SCT250 FM090400 02007KT P6SM
                       SCT250=
201602081726 TAF KSEA 081726Z 0818/0924 36008KT P6SM SCT250 FM091400 02005KT
                       P6SM SCT250=
201602081401 TAF AMD KSEA 081401Z 0814/0918 01008KT P6SM SCT250=
201602081120 TAF KSEA 081120Z 0812/0918 02007KT P6SM SCT200 FM082000 36007KT
                       P6SM SCT250 FM090800 36005KT P6SM SCT250=
201602080901 KSEA 080901Z 0809/0912 02005KT P6SM SCT200 FM081200 04005KT P6SM
                       SCT200 FM082000 01007KT P6SM SCT250=
201602080520 TAF KSEA 080520Z 0806/0912 02005KT P6SM SCT050 SCT080 SCT200 FM080900
                       02005KT P6SM SCT200 FM081200 04005KT P6SM
                       FEW010 SCT200
                      TEMPO 0812/0816 4SM BR SCT005 BKN250 FM082000
                       01007KT P6SM SCT250=
201602080327 TAF AMD KSEA 080327Z 0803/0906 36008KT P6SM SCT050 SCT070 SCT200
                       FM080600 02005KT P6SM SCT050 SCT080 SCT200
                       FM080900 02005KT 5SM MIFG BKN200 FM081200
                       04005KT 4SM BR SCT005 BKN250 FM082000 01007KT
                       P6SM SCT250=
201602072341 TAF KSEA 072341Z 0800/0906 36008KT P6SM BKN050 BKN080 BKN200 FM080600
                       02005KT P6SM SCT050 SCT080 BKN200 FM080900
                       02005KT 5SM MIFG BKN200 FM081200 04005KT
                       2SM BR SCT005 BKN250 FM082000 01007KT P6SM
                       SCT250=
201602072130 TAF AMD KSEA 072130Z 0722/0824 36008KT P6SM FEW060 BKN080 BKN200
                       FM080000 02004KT P6SM SCT120 BKN200 FM080600
                       02004KT P6SM SCT200 FM080900 05004KT 5SM
                       MIFG SCT200 FM081200 05004KT 2SM MIFG FEW003
                       FM081900 01006KT P6SM SKC=
201602071745 TAF KSEA 071745Z 0718/0824 VRB04KT P6SM BKN080 OVC120 FM080000
                       02004KT P6SM SCT120 BKN200 FM080600 02004KT
                       P6SM SCT200 FM080900 05004KT 5SM MIFG SCT200
                       FM081200 05004KT 2SM MIFG FEW003 FM081900
                       01006KT P6SM SKC=
201602071403 TAF AMD KSEA 071403Z 0714/0818 07004KT P6SM OVC100 FM071900 07004KT
                       P6SM VCSH OVC050 FM072300 10005KT P6SM SCT050
                       BKN090 FM080500 04005KT P6SM SCT050 SCT200=
201602071120 TAF KSEA 071120Z 0712/0818 07004KT P6SM SCT150 FM071500 09005KT
                       P6SM SCT050 OVC100 FM071900 VRB03KT P6SM
                       VCSH BKN035 OVC050 FM072300 10005KT P6SM
                       SCT050 BKN090 FM080500 04005KT P6SM SCT050
                       SCT200=
201602070908 KSEA 070908Z 0709/0812 13005KT P6SM SCT150 FM071500 09006KT P6SM
                       SCT050 OVC100 FM071900 VRB03KT P6SM VCSH
                       BKN035 OVC050 FM072300 10005KT P6SM SCT035
                       BKN045 FM080500 10005KT P6SM SCT045 SCT200=
201602070520 TAF KSEA 070520Z 0706/0812 13005KT P6SM BKN100 FM071500 09006KT
                       P6SM SCT035 OVC060 FM071900 VRB03KT P6SM
                       VCSH BKN035 OVC050 FM072300 10005KT P6SM
                       SCT035 BKN045 FM080500 10005KT P6SM SCT045
                       SCT200=
201602070259 TAF AMD KSEA 070259Z 0703/0806 13005KT P6SM BKN100 FM071500 09006KT
                       P6SM SCT035 OVC060 FM071900 VRB03KT P6SM
                       VCSH BKN035 OVC050 FM072300 10005KT P6SM
                       SCT035 BKN045 FM080500 10005KT P6SM SCT045=
201602062337 TAF KSEA 062337Z 0700/0806 20006KT P6SM SCT030 BKN150
                      TEMPO 0700/0701 BKN030 FM070200 13005KT P6SM
                       BKN100 FM071500 09006KT P6SM VCSH SCT035
                       OVC060 FM071900 VRB03KT P6SM BKN035 OVC050
                       TEMPO 0719/0723 -RA SCT025 OVC035 FM072300
                       10005KT P6SM SCT035 BKN045 FM080500 10005KT
                       P6SM SCT045=
201602062141 TAF AMD KSEA 062141Z 0622/0724 20006KT P6SM SCT030 BKN150 FM070100
                       13005KT P6SM BKN100 FM071500 09006KT P6SM
                       SCT035 OVC050 FM072100 VRB03KT P6SM BKN025
                       OVC035
                      PROB30 0721/0724 -RA=
201602061738 TAF KSEA 061738Z 0618/0724 19009KT P6SM BKN018 OVC200 FM061900
                       19008KT P6SM SCT025 OVC200
                      TEMPO 0619/0621 BKN025 OVC200 FM062200 20006KT
                       P6SM SCT035 BKN150 FM070100 13005KT P6SM
                       BKN100 FM071500 09006KT P6SM SCT035 OVC050
                       FM072100 VRB03KT P6SM BKN025 OVC035
                      PROB30 0721/0724 -RA=
201602061401 TAF AMD KSEA 061401Z 0614/0718 21012KT P6SM VCSH SCT025 BKN080
                       TEMPO 0614/0616 BKN025 BKN080 FM061900 20010KT
                       P6SM SCT050 BKN080 OVC100 FM070100 10006KT
                       P6SM SCT050 BKN100=
201602061120 TAF KSEA 061120Z 0612/0718 21010KT P6SM VCSH SCT030 SCT080 BKN100
                       FM061400 20010KT P6SM SCT050 BKN080 OVC100
                       FM070100 10006KT P6SM SCT050 BKN100=
201602060908 TAF AMD KSEA 060908Z 0609/0712 20018G30KT P6SM SCT060 BKN090 OVC100
                       FM061000 21012KT P6SM VCSH SCT080 BKN100
                       FM061400 20010KT P6SM VCSH SCT050 BKN080
                       OVC100 FM070100 10006KT P6SM SCT030 SCT050
                       BKN100=
201602060520 TAF KSEA 060520Z 0606/0712 20018G30KT P6SM -SHRA SCT020 BKN030
                       OVC040 FM061000 21012G20KT P6SM VCSH SCT030
                       BKN080 FM061400 20010KT P6SM VCSH SCT030
                       BKN050 OVC100 FM070100 10006KT P6SM SCT030
                       BKN050 OVC100=
201602060256 TAF AMD KSEA 060256Z 0603/0706 20018G30KT P6SM -SHRA SCT025 OVC040
                       FM061000 21012G20KT P6SM VCSH SCT030 BKN080
                       FM061400 20010KT P6SM VCSH SCT030 BKN050
                       OVC100 FM070100 10006KT P6SM SCT030 BKN050
                       OVC100=
201602052328 TAF KSEA 052328Z 0600/0706 19015G28KT 5SM RA SCT025 OVC040
                      TEMPO 0600/0603 3SM RA FM060300 20018G30KT
                       6SM -SHRA BR SCT015 BKN025 OVC050 FM061000
                       21012G20KT P6SM VCSH SCT030 BKN080 FM061400
                       20010KT P6SM VCSH SCT030 BKN050 OVC100 FM070000
                       19007KT P6SM SCT030 BKN050 OVC100=
201602052100 TAF AMD KSEA 052100Z 0521/0624 16009KT P6SM OVC110 FM060000 19015G25KT
                       6SM -RA SCT025 OVC040
                      TEMPO 0600/0604 19018G30KT 3SM RA BR SCT015
                       OVC025 FM060400 21018G30KT 6SM -SHRA BR
                       SCT015 BKN025 OVC050 FM061000 21014G24KT
                       P6SM VCSH SCT030 BKN080 FM061400 19010KT
                       P6SM VCSH SCT030 BKN050 OVC100=
201602051735 TAF KSEA 051735Z 0518/0624 16009KT P6SM OVC100 FM060000 19015G25KT
                       6SM -RA SCT025 OVC040
                      TEMPO 0600/0604 19018G30KT 3SM RA BR SCT015
                       OVC025 FM060400 21018G30KT 6SM -SHRA BR
                       SCT015 BKN025 OVC050 FM061000 21014G24KT
                       P6SM VCSH SCT030 BKN080 FM061400 19010KT
                       P6SM VCSH SCT030 BKN050 OVC100=
201602051402 TAF AMD KSEA 051402Z 0514/0618 14005KT P6SM SCT100 BKN200 FM051700
                       14005KT P6SM OVC100 FM052000 14008KT P6SM
                       SCT040 OVC080 FM052300 16012KT P6SM SCT030
                       OVC060 FM060100 21018G26KT 5SM -RA BR SCT015
                       BKN025 FM060800 22014G20KT P6SM -RA SCT025
                       BKN050=
201602051121 TAF KSEA 051121Z 0512/0618 14005KT P6SM SCT100 BKN200 FM051400
                       17008KT P6SM OVC100 FM051700 14009KT P6SM
                       SCT045 OVC100 FM052000 15011G18KT P6SM SCT040
                       OVC080 FM052300 17014G20KT P6SM SCT030 OVC060
                       FM060100 21018G26KT 5SM -RA BR SCT015 BKN025
                       FM060800 22014G20KT P6SM -RA SCT025 BKN050=
201602050907 KSEA 050907Z 0509/0612 14005KT P6SM SCT100 BKN200 FM051400 17008KT
                       P6SM OVC100 FM051700 14009KT P6SM SCT045
                       OVC100 FM052000 15011G18KT P6SM SCT040 OVC080
                       FM052300 17014G20KT P6SM SCT030 OVC060
                      TEMPO 0523/0601 -RA BKN025 OVC040 FM060100
                       21018G26KT 5SM -RA BR SCT015 BKN025=
201602050526 TAF KSEA 050526Z 0506/0612 14004KT P6SM SCT040 BKN100 FM050800
                       14005KT P6SM BKN100 FM051700 14009KT P6SM
                       SCT045 OVC080 FM052000 15011G18KT P6SM SCT030
                       OVC060 FM052300 17014G20KT P6SM -RA BKN025
                       OVC040 FM060100 21018G26KT 5SM -RA BR SCT015
                       BKN025=
201602050215 KSEA 050215Z 0502/0606 15009KT P6SM FEW010 BKN015 OVC080 FM050400
                       14004KT P6SM SCT020 BKN040 OVC090 FM050600
                       14004KT P6SM SCT040 BKN100 FM050800 14005KT
                       P6SM BKN100 FM051700 14009KT P6SM SCT045
                       OVC060
                      TEMPO 0517/0520 -RA FM052000 15011G18KT 5SM
                       -RA BR SCT025 OVC040 FM052300 17014G20KT
                       3SM RA BR BKN025 OVC040 FM060100 21018G26KT
                       6SM -SHRA BR SCT015 BKN025=
201602042323 TAF KSEA 042323Z 0500/0606 14007KT P6SM -RA BKN020 OVC040 FM050200
                       14004KT P6SM SCT020 BKN040 OVC090 FM050400
                       14004KT P6SM SCT040 BKN100 FM050700 14005KT
                       P6SM BKN100 FM051700 14009KT P6SM SCT045
                       OVC060
                      TEMPO 0517/0520 -RA FM052000 15011G18KT 5SM
                       -RA BR SCT025 OVC040 FM052300 17014G20KT
                       3SM RA BR BKN025 OVC040 FM060100 21018G26KT
                       6SM -SHRA BR SCT015 BKN025=
201602042104 KSEA 042104Z 0421/0524 19010KT P6SM -RA SCT014 OVC035
                      TEMPO 0421/0424 BKN014 OVC035 FM050000 18006KT
                       P6SM SCT020 BKN035 FM050600 15007KT P6SM
                       BKN100 FM051600 14009KT P6SM SCT040 OVC060
                       FM052000 15011G18KT 5SM -RA BR SCT025 OVC040=
201602041751 TAF KSEA 041751Z 0418/0524 19011KT P6SM -RA BKN012 OVC020 FM050100
                       18006KT P6SM SCT020 BKN035 FM050600 15007KT
                       P6SM BKN100 FM051600 14009KT P6SM SCT040
                       OVC060 FM052000 15011G18KT 5SM -RA BR SCT025
                       OVC040=
201602041358 TAF AMD KSEA 041358Z 0414/0518 19010G18KT P6SM SCT012 BKN025 OVC080
                       TEMPO 0414/0418 -SHRA BKN012 OVC025 FM041800
                       19008KT P6SM -RA OVC012 FM050200 17006KT
                       P6SM SCT015 BKN035 FM050700 17007KT P6SM
                       SCT035 BKN080=
201602041120 TAF KSEA 041120Z 0412/0518 19010KT P6SM SCT010 BKN025 FM041900
                       19007KT P6SM -RA OVC015 FM050200 17006KT
                       P6SM SCT015 BKN035 FM050700 17007KT P6SM
                       SCT035 BKN080=
201602040903 TAF AMD KSEA 040903Z 0409/0512 20010KT 5SM -SHRA BR SCT010 OVC020
                       FM041200 19010KT P6SM SCT010 BKN015 FM041900
                       19007KT P6SM -RA OVC015 FM050300 17006KT
                       P6SM SCT015 BKN035 FM050700 17007KT P6SM
                       SCT035 BKN080=
201602040524 TAF KSEA 040524Z 0406/0512 18012KT P6SM SCT010 BKN020
                      TEMPO 0406/0408 20015G23KT -SHRA SCT010 BKN015
                       OVC020 FM040800 19010KT 5SM -SHRA BR BKN010
                       OVC015 FM041200 19010KT P6SM SCT010 BKN015
                       FM041900 19007KT P6SM -RA OVC015 FM050300
                       17006KT P6SM SCT015 BKN035=
201602040307 KSEA 040307Z 0403/0506 13009KT P6SM -RA BKN015 OVC020 FM040400
                       20015G23KT P6SM VCSH SCT010 BKN015 OVC020
                       FM040900 19010KT 5SM -SHRA BR BKN010 OVC015
                       FM041200 19010KT P6SM SCT010 BKN015 FM041900
                       19007KT P6SM -RA OVC015 FM050300 17006KT
                       P6SM SCT015 BKN035=
201602032354 TAF KSEA 032354Z 0400/0506 13009KT 4SM -RA BR SCT020 OVC030 FM040400
                       20015G23KT P6SM VCSH SCT012 BKN018 OVC030
                       FM040900 19010KT 5SM -SHRA BR BKN012 OVC018
                       FM041200 19010KT P6SM SCT012 BKN018 FM041900
                       19007KT P6SM -RA OVC015 FM050300 17006KT
                       P6SM SCT015 BKN035=
201602032108 TAF AMD KSEA 032108Z 0321/0424 13007KT P6SM -RA BKN035 OVC045 FM032300
                       14008KT 4SM -RA BR SCT020 OVC030 FM040300
                       20015G23KT P6SM -SHRA SCT015 BKN020 OVC030=
201602031751 TAF KSEA 031751Z 0318/0424 11010KT P6SM SCT050 OVC060 FM032000
                       13006KT P6SM -RA SCT035 OVC050 FM032300
                       14008KT 5SM -RA BR SCT025 OVC035 FM040200
                       20011G18KT P6SM -SHRA SCT015 BKN020 OVC030=
201602031142 TAF KSEA 031142Z 0312/0418 11010KT P6SM OVC040 FM032000 13006KT
                       P6SM -RA OVC035 FM040100 18010KT 5SM -RA
                       BR OVC020 FM040500 18010KT P6SM -SHRA SCT010
                       BKN020 OVC030=
201602030910 KSEA 030910Z 0309/0412 13006KT P6SM OVC035 FM032000 13006KT P6SM
                       -RA OVC035 FM040200 18010KT 5SM -RA BR OVC020
                       FM040600 18010KT P6SM -SHRA SCT010 BKN020
                       OVC030=
201602030538 TAF KSEA 030538Z 0306/0412 13006KT P6SM OVC050 FM032000 13006KT
                       P6SM -RA OVC035 FM040200 18010KT 5SM -RA
                       BR OVC020 FM040600 18010KT P6SM -SHRA SCT010
                       BKN020 OVC030=
201602030343 TAF AMD KSEA 030343Z 0304/0406 15006KT P6SM BKN060 OVC080 FM031200
                       11007KT P6SM BKN060 OVC080 FM031800 11007KT
                       P6SM -RA OVC050 FM032300 16009KT 5SM -RA
                       BR OVC035=
201602022327 TAF KSEA 022327Z 0300/0406 24004KT P6SM FEW030 SCT140 SCT250 FM030300
                       15006KT P6SM SCT050 BKN100 OVC200
                      TEMPO 0308/0312 BKN050 OVC100 FM031200 08007KT
                       P6SM SCT050 OVC080 FM031800 12008KT P6SM
                       -RA OVC050 FM032300 16009KT 5SM -RA BR OVC035=
201602022102 TAF AMD KSEA 022102Z 0221/0324 12004KT P6SM FEW025 SCT130 BKN200
                       FM030100 15006KT P6SM SCT050 BKN100 OVC200
                       TEMPO 0308/0312 BKN050 OVC100 FM031200 12008KT
                       P6SM SCT050 BKN100 OVC200 FM031800 12008KT
                       P6SM -RA OVC050=
201602021831 TAF AMD KSEA 021831Z 0219/0324 11004KT P6SM FEW050 SCT250 FM022200
                       15006KT P6SM SCT050 BKN200
                      TEMPO 0308/0312 BKN050 OVC200 FM031200 12008KT
                       P6SM SCT050 BKN100 OVC200 FM031800 12008KT
                       P6SM -RA OVC050=
201602021720 TAF KSEA 021720Z 0218/0324 00000KT P6SM BCFG FEW001 SCT050 SCT250
                       TEMPO 0218/0219 1/2SM FG VV001 FM022000
                       15006KT P6SM SCT050 BKN200
                      TEMPO 0308/0312 BKN050 OVC200 FM031200 12008KT
                       P6SM SCT050 BKN100 OVC200 FM031800 12008KT
                       P6SM -RA OVC050=
201602021400 TAF AMD KSEA 021400Z 0214/0318 13005KT P6SM SCT045
                      TEMPO 0214/0216 BKN045 FM022200 15006KT P6SM
                       SCT050 BKN200 FM031200 12008KT P6SM SCT050
                       BKN100 OVC200=
201602021139 TAF KSEA 021139Z 0212/0318 11006KT P6SM SCT045
                      TEMPO 0212/0216 BKN045 FM022200 15006KT P6SM
                       SCT050 BKN200 FM031200 12008KT P6SM SCT050
                       BKN100 OVC200=
201602020931 TAF AMD KSEA 020931Z 0210/0312 11006KT P6SM SCT025 BKN060 FM021200
                       11006KT P6SM SCT050 BKN100 OVC200 FM030000
                       17006KT P6SM BKN060 OVC100=
201602020540 TAF KSEA 020540Z 0206/0312 16006KT P6SM SCT025 BKN060 FM021200
                       11006KT P6SM SCT050 BKN100 OVC200 FM030000
                       17006KT P6SM BKN060 OVC100=
201602020331 TAF AMD KSEA 020331Z 0204/0306 18006KT P6SM BKN025 OVC050 FM020600
                       16006KT P6SM SCT025 BKN050 FM021200 08005KT
                       P6SM OVC100 FM022300 VRB03KT P6SM OVC060=
201602012324 TAF KSEA 012324Z 0200/0306 00000KT P6SM FEW015 SCT026 OVC035
                      TEMPO 0200/0204 SCT015 BKN026 OVC035 FM020400
                       12006KT P6SM SCT035 BKN200 FM021200 08005KT
                       P6SM OVC100 FM022300 VRB03KT P6SM OVC060=
201602012213 TAF AMD KSEA 012213Z 0122/0224 21004KT P6SM SCT014 BKN040 BKN250
                       FM020000 15006KT P6SM SCT025 BKN050 FM020400
                       12006KT P6SM SCT050 BKN200 FM021200 08005KT
                       P6SM OVC100=
201602012101 TAF AMD KSEA 012101Z 0121/0224 22007KT P6SM BKN020 BKN040 BKN250
                       FM012300 15006KT P6SM SCT025 BKN050 FM020400
                       12006KT P6SM SCT050 BKN200 FM021200 08005KT
                       P6SM OVC100=
201602011840 TAF AMD KSEA 011840Z 0119/0224 21005KT P6SM SCT007 BKN021 BKN250
                       FM012300 15006KT P6SM SCT025 BKN050 FM020400
                       12006KT P6SM SCT050 BKN200 FM021200 08005KT
                       P6SM OVC100=
201602011814 TAF AMD KSEA 011814Z 0118/0224 23005KT P6SM BKN011 BKN019 FM012000
                       22005KT P6SM BKN020 BKN050 FM012300 15006KT
                       P6SM SCT025 BKN050 FM020400 12006KT P6SM
                       SCT050 BKN200 FM021200 08005KT P6SM OVC100=
201602011728 TAF KSEA 011728Z 0118/0224 18004KT P6SM BKN009 OVC014 FM012000
                       18005KT P6SM BKN018 BKN050 FM012300 15006KT
                       P6SM SCT025 BKN050 FM020400 12006KT P6SM
                       SCT050 BKN200 FM021200 08005KT P6SM OVC100=
201602011535 KSEA 011535Z 0116/0218 15005KT P6SM SCT007 BKN012 OVC025
                      TEMPO 0116/0118 BKN007 OVC012 FM011800 VRB03KT
                       P6SM SCT015 OVC025 FM012200 15006KT P6SM
                       SCT025 BKN050 FM020400 12006KT P6SM SCT050
                       BKN200=
201602011325 TAF AMD KSEA 011325Z 0113/0218 VRB03KT P6SM VCSH BKN006 OVC011
                       TEMPO 0113/0115 -SHRA FM011500 VRB03KT P6SM
                       SCT008 BKN015 OVC025 FM011800 VRB03KT P6SM
                       SCT015 OVC025 FM012200 15006KT P6SM SCT025
                       BKN050 FM020400 12006KT P6SM SCT050 BKN200=
201602011138 TAF KSEA 011138Z 0112/0218 VRB03KT P6SM BKN006 OVC011 FM011500
                       VRB03KT P6SM SCT008 BKN015 OVC025 FM011800
                       VRB03KT P6SM SCT015 OVC025 FM012200 15006KT
                       P6SM SCT025 BKN050 FM020400 12006KT P6SM
                       SCT050 BKN200=
201602010925 TAF AMD KSEA 010925Z 0109/0212 19008KT P6SM BKN006 OVC025 FM011200
                       16004KT P6SM SCT010 OVC025 FM012000 21008KT
                       P6SM SCT025 BKN050 FM020400 13006KT P6SM
                       SCT050 BKN200=
201602010533 TAF KSEA 010533Z 0106/0212 19008KT P6SM SCT025 OVC040
                      TEMPO 0109/0112 BKN025 OVC040 FM011200 16004KT
                       P6SM OVC025 FM012000 21008KT P6SM SCT025
                       BKN050 FM020400 13006KT P6SM SCT050 BKN200=
201602010342 TAF AMD KSEA 010342Z 0104/0206 19008KT P6SM SCT025 OVC040 FM011200
                       16004KT P6SM OVC025 FM012000 21008KT P6SM
                       SCT025 BKN050=