##########################################################
# Query made at 02/17/2025 19:56:43 UTC
# Time interval: from 11/01/2016 00:00  to 11/30/2016 23:59  UTC
##########################################################

##########################################################
# KSEA, Seattle, Seattle-Tacoma International Airport (United States)
# WMO index: 72793. WIGOS ID: 0-20000-0-72793
# Latitude 47-27-00N. Longitude 122-17-59W. Altitude 130 m.
##########################################################

###################################
#  METAR/SPECI from KSEA
###################################
201611302353 METAR KSEA 302353Z 22006KT 10SM FEW027 BKN050 BKN100 09/06 A3004 RMK AO2 SLP180 T00940056 10100 20078 53026=
201611302253 METAR KSEA 302253Z 21014KT 10SM BKN027 BKN120 10/06 A3001 RMK AO2 SLP169 T01000056=
201611302153 METAR KSEA 302153Z 21011G22KT 10SM FEW016 BKN024 BKN120 10/06 A2999 RMK AO2 PK WND 19026/2108 SLP162 T01000061=
201611302053 METAR KSEA 302053Z 21018G26KT 10SM FEW014 BKN021 BKN120 10/06 A2996 RMK AO2 PK WND 22031/2001 SLP154 T01000061 53014=
201611301953 METAR KSEA 301953Z 20017G30KT 10SM FEW012 BKN018 BKN120 09/06 A2995 RMK AO2 PK WND 22033/1900 SLP150 T00890061=
201611301853 METAR KSEA 301853Z 20017G27KT 10SM BKN015 BKN023 BKN120 08/06 A2994 RMK AO2 PK WND 19029/1823 SLP145 T00830056=
201611301753 METAR KSEA 301753Z 19020G28KT 10SM SCT015 BKN022 OVC120 08/06 A2992 RMK AO2 PK WND 20031/1741 SLP140 60000 T00780056 10078 20072 51005=
201611301653 METAR KSEA 301653Z 18018G24KT 10SM BKN016 BKN025 BKN140 08/06 A2992 RMK AO2 PK WND 18029/1603 SLP140 T00780056=
201611301647 SPECI KSEA 301647Z 19018G26KT 10SM SCT018 BKN026 BKN140 08/06 A2992 RMK AO2 PK WND 18029/1603=
201611301624 SPECI KSEA 301624Z 19019KT 10SM SCT013 BKN030 BKN140 08/06 A2991 RMK AO2 PK WND 18029/1603 T00780056=
201611301553 METAR KSEA 301553Z 18017G24KT 10SM BKN015 BKN025 BKN200 08/06 A2992 RMK AO2 PK WND 20026/1458 SLP139 T00780056=
201611301453 METAR KSEA 301453Z 19021G31KT 10SM FEW013 BKN024 OVC033 08/06 A2991 RMK AO2 PK WND 19031/1452 RAB03E14 SLP136 P0000 60000 T00780056 53005=
201611301353 METAR KSEA 301353Z 18016G21KT 10SM FEW012 BKN026 BKN040 07/06 A2989 RMK AO2 RAB05E33 SLP131 P0000 T00720056=
201611301336 SPECI KSEA 301336Z 18015G19KT 10SM FEW019 BKN029 OVC038 08/06 A2990 RMK AO2 RAB05E33 P0000 T00780056=
201611301253 METAR KSEA 301253Z 17013KT 10SM BKN036 BKN050 BKN100 07/06 A2990 RMK AO2 RAB29E39 SLP134 P0000 T00720056=
201611301153 METAR KSEA 301153Z 18015KT 10SM FEW025 BKN032 BKN045 08/05 A2989 RMK AO2 RAB02E11 SLP129 P0000 60013 70013 T00780050 10078 20056 51008=
201611301053 METAR KSEA 301053Z 17014G20KT 10SM FEW024 BKN035 OVC046 08/05 A2989 RMK AO2 RAE10 SLP129 P0000 T00780050=
201611301035 SPECI KSEA 301035Z 17011KT 10SM FEW020 BKN025 OVC035 07/06 A2989 RMK AO2 RAE10 P0000 T00720056=
201611300953 METAR KSEA 300953Z 16010KT 10SM -RA OVC030 07/05 A2988 RMK AO2 SLP125 P0003 T00670050=
201611300853 METAR KSEA 300853Z 13009KT 8SM -RA OVC034 06/04 A2987 RMK AO2 SLP122 P0007 60010 T00610044 56013=
201611300753 METAR KSEA 300753Z 13010KT 10SM -RA OVC040 07/04 A2987 RMK AO2 RAB0657 SLP124 P0003 T00670039 401060050=
201611300653 METAR KSEA 300653Z 13008KT 10SM FEW046 OVC065 07/04 A2989 RMK AO2 SLP129 T00670039=
201611300553 METAR KSEA 300553Z 00000KT 10SM SCT060 06/04 A2991 RMK AO2 SLP135 T00560039 10100 20050 56018=
201611300453 METAR KSEA 300453Z 13008KT 10SM SCT090 07/04 A2991 RMK AO2 SLP135 T00720039=
201611300353 METAR KSEA 300353Z 14007KT 10SM OVC100 08/04 A2994 RMK AO2 SLP147 T00780044=
201611300253 METAR KSEA 300253Z 18005KT 10SM OVC095 08/04 A2996 RMK AO2 SLP154 T00780044 56028=
201611300153 METAR KSEA 300153Z 15005KT 10SM BKN090 08/04 A2999 RMK AO2 SLP164 T00830044=
201611300053 METAR KSEA 300053Z 12006KT 10SM FEW030 SCT050 SCT250 08/03 A3001 RMK AO2 SLP172 T00830033=
201611292353 METAR KSEA 292353Z 14008KT 10SM FEW030 SCT041 BKN120 BKN250 10/04 A3005 RMK AO2 SLP182 T01000039 10106 20078 56032=
201611292253 METAR KSEA 292253Z 15007KT 10SM FEW037 SCT048 BKN120 BKN250 10/05 A3008 RMK AO2 SLP194 T01000050=
201611292153 METAR KSEA 292153Z 13006KT 10SM FEW015 FEW045 SCT110 BKN250 11/06 A3010 RMK AO2 SLP202 T01060061=
201611292053 METAR KSEA 292053Z 18004KT 10SM FEW012 BKN039 BKN200 09/06 A3014 RMK AO2 SLP215 T00890061 58014=
201611291953 METAR KSEA 291953Z 20006KT 10SM FEW010 BKN046 OVC200 09/07 A3016 RMK AO2 SLP222 T00890067=
201611291934 SPECI KSEA 291934Z 21006KT 10SM SCT012 BKN048 OVC200 08/06 A3017 RMK AO2 T00830061=
201611291853 METAR KSEA 291853Z 20005KT 10SM BKN012 BKN020 OVC250 08/07 A3018 RMK AO2 SLP230 T00830067=
201611291838 SPECI KSEA 291838Z 18006KT 10SM BKN012 BKN049 BKN250 08/07 A3019 RMK AO2 T00830067=
201611291804 SPECI KSEA 291804Z 19006KT 10SM OVC009 08/07 A3018 RMK AO2 T00830067=
201611291753 METAR KSEA 291753Z 20005KT 10SM OVC010 08/07 A3018 RMK AO2 SLP230 T00780067 10078 20056 53004=
201611291653 METAR KSEA 291653Z 14005KT 10SM BKN010 OVC015 07/06 A3017 RMK AO2 SLP226 T00720061=
201611291647 SPECI KSEA 291647Z 16004KT 10SM BKN010 OVC015 07/06 A3017 RMK AO2=
201611291553 METAR KSEA 291553Z 13007KT 10SM BKN008 OVC015 07/06 A3017 RMK AO2 SLP225 T00670061=
201611291546 SPECI KSEA 291546Z 13007KT 10SM BKN008 OVC015 07/06 A3017 RMK AO2 T00670061=
201611291453 METAR KSEA 291453Z 16006KT 10SM FEW011 BKN015 OVC050 07/06 A3017 RMK AO2 SLP225 T00670056 53002=
201611291353 METAR KSEA 291353Z 14004KT 10SM BKN015 OVC040 07/06 A3017 RMK AO2 SLP224 T00670061=
201611291350 SPECI KSEA 291350Z 13004KT 10SM BKN015 OVC040 07/06 A3017 RMK AO2=
201611291326 SPECI KSEA 291326Z 14005KT 10SM OVC011 07/06 A3017 RMK AO2 T00670056=
201611291253 METAR KSEA 291253Z 14005KT 10SM OVC007 06/06 A3016 RMK AO2 SLP223 T00610056=
201611291236 SPECI KSEA 291236Z 17004KT 10SM BKN008 BKN042 06/06 A3016 RMK AO2 T00560056=
201611291153 METAR KSEA 291153Z 17003KT 10SM FEW006 BKN041 06/06 A3017 RMK AO2 RAE1059 SLP222 P0000 60001 70001 T00610056 10072 20056 51002=
201611291146 SPECI KSEA 291146Z 16004KT 10SM SCT006 BKN041 06/06 A3017 RMK AO2 RAE1059 P0000 T00610056=
201611291053 METAR KSEA 291053Z 15003KT 7SM -RA BKN005 OVC044 07/06 A3017 RMK AO2 RAB30 SLP222 P0001 T00670061=
201611291047 SPECI KSEA 291047Z 15005KT 7SM -RA BKN005 OVC046 07/06 A3017 RMK AO2 RAB30 P0001=
201611291003 SPECI KSEA 291003Z 12004KT 10SM SCT027 BKN040 OVC055 07/06 A3016 RMK AO2 T00670061=
201611290953 METAR KSEA 290953Z 12004KT 10SM FEW010 BKN027 OVC040 07/06 A3016 RMK AO2 SLP220 T00670061=
201611290853 METAR KSEA 290853Z 19003KT 10SM BKN028 OVC039 07/06 A3014 RMK AO2 SLP213 T00670061 51008=
201611290848 SPECI KSEA 290848Z 19003KT 10SM FEW008 BKN028 OVC037 07/06 A3014 RMK AO2=
201611290753 METAR KSEA 290753Z 00000KT 10SM FEW005 SCT027 BKN045 06/06 A3013 RMK AO2 SLP211 T00610056 401000044=
201611290731 SPECI KSEA 290731Z 19003KT 10SM FEW005 SCT029 BKN045 06/06 A3013 RMK AO2 T00610056=
201611290653 METAR KSEA 290653Z 17004KT 10SM FEW010 BKN045 06/05 A3011 RMK AO2 SLP205 T00610050=
201611290553 METAR KSEA 290553Z 15004KT 10SM FEW010 BKN038 07/06 A3010 RMK AO2 SLP200 T00670061 10100 20061 51020=
201611290506 SPECI KSEA 290506Z 22004KT 10SM SCT010 SCT032 08/07 A3009 RMK AO2 T00780067=
201611290453 METAR KSEA 290453Z 00000KT 10SM BKN012 BKN036 07/07 A3009 RMK AO2 SLP196 T00720067=
201611290443 SPECI KSEA 290443Z 28003KT 10SM BKN012 BKN036 07/06 A3008 RMK AO2 T00670056=
201611290353 METAR KSEA 290353Z 00000KT 10SM FEW013 SCT039 SCT065 08/06 A3006 RMK AO2 SLP186 T00780061=
201611290253 METAR KSEA 290253Z 20003KT 10SM FEW040 BKN065 08/06 A3004 RMK AO2 SLP179 T00780061 53018=
201611290153 METAR KSEA 290153Z 16007KT 10SM FEW042 SCT070 07/06 A3001 RMK AO2 SLP171 T00720056=
201611290053 METAR KSEA 290053Z 15003KT 10SM FEW042 SCT075 09/06 A3000 RMK AO2 SLP167 T00890056=
201611282353 METAR KSEA 282353Z 17004KT 10SM SCT039 BKN070 10/06 A2998 RMK AO2 SLP161 T01000061 10100 20072 53016=
201611282253 METAR KSEA 282253Z 14006KT 10SM FEW020 SCT033 SCT070 10/06 A2996 RMK AO2 SLP152 T01000061=
201611282233 SPECI KSEA 282233Z 12004KT 10SM FEW021 SCT029 BKN070 10/06 A2995 RMK AO2 T01000061=
201611282153 METAR KSEA 282153Z 17003KT 10SM BKN021 BKN028 BKN070 10/06 A2994 RMK AO2 SLP148 T01000056=
201611282053 METAR KSEA 282053Z 21009KT 10SM FEW014 BKN019 BKN070 10/06 A2993 RMK AO2 SLP143 T01000061 51016=
201611281953 METAR KSEA 281953Z 21006KT 10SM FEW014 BKN019 BKN070 09/06 A2992 RMK AO2 SLP141 T00890061=
201611281915 SPECI KSEA 281915Z 20011KT 10SM SCT014 BKN022 BKN070 09/06 A2991 RMK AO2 T00890056=
201611281853 METAR KSEA 281853Z 18008KT 10SM FEW020 BKN070 BKN200 08/06 A2991 RMK AO2 SLP137 T00830061=
201611281753 METAR KSEA 281753Z 17008KT 10SM FEW015 BKN075 BKN200 07/06 A2989 RMK AO2 SLP128 T00720056 10072 20044 51023=
201611281653 METAR KSEA 281653Z 19006KT 10SM FEW015 BKN070 07/05 A2987 RMK AO2 SLP122 T00670050=
201611281553 METAR KSEA 281553Z 16006KT 10SM FEW015 BKN070 06/04 A2984 RMK AO2 SLP112 T00560044=
201611281453 METAR KSEA 281453Z 14008KT 10SM FEW015 BKN075 06/04 A2982 RMK AO2 SLP105 T00560039 51034=
201611281353 METAR KSEA 281353Z 14010KT 10SM FEW065 06/04 A2978 RMK AO2 SLP094 T00560039=
201611281253 METAR KSEA 281253Z 11010KT 10SM SCT065 05/04 A2976 RMK AO2 SLP085 T00500039=
201611281153 METAR KSEA 281153Z 11008KT 10SM CLR 05/04 A2972 RMK AO2 SLP071 70030 T00500039 10078 20044 51033=
201611281053 METAR KSEA 281053Z 15005KT 10SM FEW080 04/03 A2969 RMK AO2 SLP062 T00440033=
201611280953 METAR KSEA 280953Z 20005KT 10SM FEW080 06/04 A2966 RMK AO2 SLP052 T00560039=
201611280853 METAR KSEA 280853Z 20006KT 10SM FEW015 SCT080 06/04 A2962 RMK AO2 SLP038 T00610039 51024=
201611280753 METAR KSEA 280753Z 22005KT 10SM SCT015 BKN080 OVC095 07/05 A2960 RMK AO2 SLP030 T00670050 400830056=
201611280722 SPECI KSEA 280722Z 20006KT 10SM BKN016 BKN090 07/05 A2958 RMK AO2 T00720050=
201611280653 METAR KSEA 280653Z 21009KT 10SM SCT014 BKN100 07/05 A2955 RMK AO2 SLP013 T00720050=
201611280618 SPECI KSEA 280618Z 23009KT 10SM SCT014 SCT019 BKN100 07/05 A2954 RMK AO2 T00720050=
201611280553 METAR KSEA 280553Z 21012KT 10SM BKN017 OVC030 08/06 A2952 RMK AO2 SLP002 60020 T00780056 10083 20067 51013=
201611280453 METAR KSEA 280453Z 24009KT 10SM OVC013 08/06 A2952 RMK AO2 SLP002 T00830061=
201611280353 METAR KSEA 280353Z 20011G17KT 10SM OVC014 08/06 A2948 RMK AO2 PK WND 19030/0309 RAE0255 SLP991 P0001 T00780061=
201611280332 SPECI KSEA 280332Z 21013G26KT 10SM BKN014 BKN021 OVC026 08/06 A2947 RMK AO2 PK WND 19030/0309 RAE0255 P0001 T00780061=
201611280323 SPECI KSEA 280323Z 20017G25KT 10SM FEW014 BKN019 OVC026 07/06 A2946 RMK AO2 PK WND 19030/0309 RAE0255 P0001 T00720061=
201611280316 SPECI KSEA 280316Z 20018G30KT 10SM BKN014 BKN019 OVC026 07/06 A2947 RMK AO2 PK WND 19030/0309 RAE0255 P0001 T00720061=
201611280253 METAR KSEA 280253Z 16016G25KT 10SM -RA SCT014 BKN026 OVC036 07/06 A2948 RMK AO2 PK WND 15026/0207 SLP990 P0004 60019 T00720056 56054=
201611280153 METAR KSEA 280153Z 14013KT 10SM -RA OVC027 07/06 A2950 RMK AO2 SLP997 P0010 T00670056=
201611280053 METAR KSEA 280053Z 15013KT 6SM RA BR SCT027 OVC032 07/06 A2957 RMK AO2 SLP022 P0005 T00670056=
201611272353 METAR KSEA 272353Z 17016KT 10SM -RA FEW027 BKN041 OVC085 07/06 A2964 RMK AO2 RAE35B52 SLP044 P0002 60009 T00720056 10078 20067 58033=
201611272253 METAR KSEA 272253Z 18012KT 10SM -RA FEW015 BKN033 OVC043 08/06 A2969 RMK AO2 RAE12B38 SLP062 P0002 T00780061=
201611272224 SPECI KSEA 272224Z 17011KT 10SM FEW013 BKN023 OVC060 08/06 A2971 RMK AO2 RAE12 P0000 T00780061=
201611272153 METAR KSEA 272153Z 17012KT 6SM -RA BR FEW015 BKN031 OVC040 08/06 A2974 RMK AO2 RAE15B24 SLP078 P0003 T00780061=
201611272121 SPECI KSEA 272121Z 17011KT 10SM FEW013 SCT032 OVC110 08/06 A2975 RMK AO2 RAE15 P0000 T00780061=
201611272053 METAR KSEA 272053Z 18010KT 9SM -RA BKN013 BKN021 OVC120 08/07 A2976 RMK AO2 RAE05B31 SLP086 P0001 60002 T00780067 55015=
201611272038 SPECI KSEA 272038Z 20010KT 6SM -RA BR SCT009 BKN016 OVC023 08/07 A2977 RMK AO2 RAE05B31 P0001 T00780067=
201611271953 METAR KSEA 271953Z 19011KT 4SM R16L/6000VP6000FT -RA BKN009 BKN013 OVC038 08/07 A2976 RMK AO2 RAB49 SLP086 P0001 T00780067=
201611271939 SPECI KSEA 271939Z 20014KT 6SM BR BKN009 OVC016 07/07 A2977 RMK AO2 T00720067=
201611271853 METAR KSEA 271853Z 18009KT 10SM SCT008 BKN021 OVC029 07/06 A2979 RMK AO2 SLP095 T00720056=
201611271753 METAR KSEA 271753Z 21011KT 10SM BKN007 OVC014 07/06 A2981 RMK AO2 SLP101 60001 T00670056 10067 20056 53009=
201611271733 SPECI KSEA 271733Z 20011KT 10SM BKN005 OVC013 06/06 A2980 RMK AO2 T00610056=
201611271653 METAR KSEA 271653Z 20011KT 10SM SCT009 OVC013 06/05 A2980 RMK AO2 SLP098 T00610050=
201611271640 SPECI KSEA 271640Z 19007KT 10SM SCT009 OVC013 06/06 A2980 RMK AO2 T00610056=
201611271553 METAR KSEA 271553Z 16006KT 10SM FEW012 OVC021 06/06 A2978 RMK AO2 SLP093 T00610056=
201611271525 SPECI KSEA 271525Z 15009KT 10SM SCT007 BKN013 OVC022 06/05 A2977 RMK AO2 T00560050=
201611271453 METAR KSEA 271453Z 15005KT 3SM BR SCT007 BKN022 OVC036 06/05 A2978 RMK AO2 SLP092 60001 T00560050 53019=
201611271450 SPECI KSEA 271450Z 16006KT 3SM BR SCT005 OVC022 06/05 A2978 RMK AO2=
201611271434 SPECI KSEA 271434Z 16004KT 2SM BR BKN005 OVC022 06/06 A2978 RMK AO2 T00560056=
201611271400 SPECI KSEA 271400Z 15006KT 2SM BR OVC004 06/06 A2974 RMK AO2 T00560056=
201611271353 METAR KSEA 271353Z 14006KT 1SM R16L/P6000FT BR OVC004 06/06 A2974 RMK AO2 DZB07E39 SLP078 P0001 T00560056=
201611271313 SPECI KSEA 271313Z 15007KT 1SM R16L/P6000FT -DZ BR BKN002 OVC008 06/06 A2974 RMK AO2 DZB07 P0001 T00610056=
201611271303 SPECI KSEA 271303Z 15006KT 1 1/2SM BR SCT002 OVC008 06/06 A2974 RMK AO2 T00610056=
201611271253 METAR KSEA 271253Z 18005KT 4SM BR OVC007 06/06 A2974 RMK AO2 SLP080 T00610056=
201611271158 SPECI KSEA 271158Z 13003KT 7SM SCT004 OVC013 06/06 A2972 RMK AO2 T00610056=
201611271153 METAR KSEA 271153Z 09003KT 8SM BKN004 OVC013 06/06 A2972 RMK AO2 SLP072 60007 70036 T00610056 10067 20061 51030=
201611271053 METAR KSEA 271053Z 18003KT 7SM BKN004 BKN008 OVC015 06/06 A2969 RMK AO2 SLP063 T00610061=
201611271050 SPECI KSEA 271050Z 17003KT 9SM BKN004 BKN008 OVC015 06/06 A2969 RMK AO2=
201611270953 METAR KSEA 270953Z 35003KT 10SM FEW010 OVC019 07/06 A2966 RMK AO2 SLP051 T00670056=
201611270853 METAR KSEA 270853Z 00000KT 7SM BKN013 OVC019 07/06 A2963 RMK AO2 RAE25 SLP041 P0002 60007 T00670056 51034=
201611270753 METAR KSEA 270753Z 00000KT 7SM -RA BKN014 OVC021 07/06 A2960 RMK AO2 SLP030 P0002 T00670056 401060061=
201611270715 SPECI KSEA 270715Z 00000KT 9SM -RA SCT008 BKN012 OVC037 07/06 A2958 RMK AO2 P0001 T00670056=
201611270653 METAR KSEA 270653Z 05004KT 8SM -RA BKN010 OVC016 06/06 A2957 RMK AO2 SLP019 P0003 T00610056=
201611270628 SPECI KSEA 270628Z 06006KT 7SM -RA BKN010 OVC015 06/06 A2955 RMK AO2 P0001 T00610056=
201611270553 METAR KSEA 270553Z 04005KT 10SM -RA FEW008 BKN015 OVC034 07/06 A2953 RMK AO2 RAE0454B19 SLP006 P0001 60008 T00670056 10094 20067 53023=
201611270546 SPECI KSEA 270546Z 02007KT 10SM -RA FEW008 BKN015 OVC032 07/06 A2953 RMK AO2 RAE0454B19 P0001 T00670056=
201611270519 SPECI KSEA 270519Z 36008KT 10SM -RA FEW008 SCT015 OVC033 07/06 A2951 RMK AO2 RAE0454B19 P0000 T00670056=
201611270453 METAR KSEA 270453Z 01010KT 10SM -RA FEW008 BKN018 OVC031 07/06 A2950 RMK AO2 SLP995 P0002 T00670056=
201611270412 SPECI KSEA 270412Z 36014KT 8SM -RA FEW008 BKN012 OVC020 07/06 A2948 RMK AO2 P0001 T00670056=
201611270353 METAR KSEA 270353Z 35012KT 8SM -RA SCT008 OVC018 07/06 A2948 RMK AO2 SLP989 P0003 T00670056=
201611270345 SPECI KSEA 270345Z 35012KT 8SM -RA SCT008 OVC018 07/06 A2948 RMK AO2 P0002 T00670056=
201611270340 SPECI KSEA 270340Z 35013KT 7SM -RA BKN008 OVC018 07/06 A2947 RMK AO2 P0002 T00670056=
201611270253 METAR KSEA 270253Z 34011KT 7SM -RA BKN007 OVC018 07/06 A2946 RMK AO2 RAB06 SLP983 P0002 60002 T00670056 53015=
201611270225 SPECI KSEA 270225Z 34012G16KT 7SM -RA BKN006 OVC018 07/06 A2945 RMK AO2 RAB06 P0001 T00720061=
201611270153 METAR KSEA 270153Z 34010KT 7SM SCT006 BKN018 OVC026 08/07 A2944 RMK AO2 RAB07E16 SLP976 P0000 T00830072=
201611270140 SPECI KSEA 270140Z 34009KT 10SM SCT007 BKN018 OVC026 08/07 A2944 RMK AO2 RAB07E16 P0000 T00830072=
201611270053 METAR KSEA 270053Z 32006KT 10SM FEW008 BKN014 OVC060 09/08 A2943 RMK AO2 SLP972 T00890078=
201611270044 SPECI KSEA 270044Z 34011KT 10SM FEW008 BKN014 OVC060 09/08 A2942 RMK AO2 T00890078=
201611262353 METAR KSEA 262353Z 02003KT 10SM FEW012 BKN050 OVC080 09/08 A2941 RMK AO2 RAB18E51 SLP967 P0000 60005 T00940078 10106 20094 56017=
201611262253 METAR KSEA 262253Z 27005KT 10SM FEW013 BKN080 OVC150 09/08 A2942 RMK AO2 SLP968 T00940078=
201611262153 METAR KSEA 262153Z 00000KT 10SM FEW015 BKN080 OVC200 10/07 A2943 RMK AO2 SLP972 T01000072=
201611262053 METAR KSEA 262053Z 23006KT 10SM SCT015 BKN095 11/09 A2946 RMK AO2 SLP984 60005 T01060089 58021=
201611262050 SPECI KSEA 262050Z 23005KT 10SM SCT015 BKN095 11/09 A2946 RMK AO2=
201611262022 SPECI KSEA 262022Z 16005KT 10SM BKN013 OVC070 11/08 A2948 RMK AO2 T01060083=
201611261953 METAR KSEA 261953Z 18005KT 10SM FEW017 BKN055 OVC080 10/09 A2949 RMK AO2 RAE44 SLP992 P0002 T01000089=
201611261853 METAR KSEA 261853Z 15008KT 9SM -RA SCT020 OVC049 10/08 A2952 RMK AO2 SLP002 P0003 T01000083=
201611261753 METAR KSEA 261753Z 16010KT 9SM -RA OVC050 10/08 A2953 RMK AO2 SLP006 P0004 60016 T01000083 10106 20083 56003=
201611261653 METAR KSEA 261653Z 18008KT 9SM -RA FEW038 OVC055 09/08 A2954 RMK AO2 PK WND 11026/1556 RAB27 SLP008 P0000 T00940083=
201611261553 METAR KSEA 261553Z 24009KT 10SM OVC060 10/08 A2953 RMK AO2 RAE34 SLP005 P0002 T01000078=
201611261453 METAR KSEA 261453Z 28004KT 6SM -RA BR OVC050 09/08 A2954 RMK AO2 SLP008 P0006 60010 T00890083 56016=
201611261353 METAR KSEA 261353Z 10007KT 10SM -RA OVC060 10/08 A2954 RMK AO2 SLP009 P0002 T01000078=
201611261253 METAR KSEA 261253Z 23003KT 10SM -RA OVC055 09/08 A2958 RMK AO2 RAB11 SLP022 P0002 T00890078=
201611261153 METAR KSEA 261153Z 11008KT 10SM OVC060 10/07 A2958 RMK AO2 RAE48 SLP025 P0002 60005 70005 T01000067 10106 20078 58031=
201611261053 METAR KSEA 261053Z 10004KT 10SM -RA BKN055 OVC070 08/08 A2964 RMK AO2 SLP044 P0002 T00830078=
201611260953 METAR KSEA 260953Z 20004KT 10SM -RA BKN060 OVC080 09/07 A2965 RMK AO2 RAB49 SLP048 P0000 T00890067=
201611260853 METAR KSEA 260853Z 00000KT 10SM OVC065 08/07 A2968 RMK AO2 RAB16E30 SLP056 P0000 60001 T00830072 56033=
201611260753 METAR KSEA 260753Z 12006KT 10SM SCT060 BKN085 OVC100 09/06 A2971 RMK AO2 SLP067 T00940061 401110050=
201611260653 METAR KSEA 260653Z 05004KT 10SM SCT045 OVC055 08/07 A2974 RMK AO2 RAE44 SLP078 P0001 T00830072=
201611260553 METAR KSEA 260553Z 05003KT 10SM -RA OVC044 09/07 A2978 RMK AO2 RAE08B28 SLP090 P0000 60000 T00890067 10100 20083 58018=
201611260453 METAR KSEA 260453Z 02004KT 10SM -RA BKN045 OVC055 09/06 A2980 RMK AO2 RAB51 SLP098 P0000 T00890061=
201611260353 METAR KSEA 260353Z 36004KT 10SM OVC045 09/06 A2982 RMK AO2 SLP105 T00890056=
201611260253 METAR KSEA 260253Z 03006KT 10SM OVC048 09/06 A2983 RMK AO2 SLP108 T00940056 58016=
201611260153 METAR KSEA 260153Z 02006KT 10SM OVC049 09/06 A2986 RMK AO2 SLP117 T00940056=
201611260053 METAR KSEA 260053Z 02007KT 10SM SCT040 OVC048 09/06 A2987 RMK AO2 SLP122 T00940056=
201611252353 METAR KSEA 252353Z 00000KT 10SM OVC040 10/06 A2988 RMK AO2 SLP125 T01000056 10111 20078 56006=
201611252253 METAR KSEA 252253Z 35003KT 10SM BKN048 OVC200 11/04 A2988 RMK AO2 SLP126 T01060044=
201611252153 METAR KSEA 252153Z 00000KT 10SM FEW043 BKN060 OVC250 11/04 A2988 RMK AO2 SLP126 T01060039=
201611252053 METAR KSEA 252053Z 33003KT 10SM FEW030 BKN045 OVC250 11/04 A2990 RMK AO2 SLP132 T01060044 58012=
201611251953 METAR KSEA 251953Z 18006KT 10SM FEW030 BKN049 BKN250 09/04 A2991 RMK AO2 SLP137 T00940039=
201611251853 METAR KSEA 251853Z VRB03KT 10SM FEW035 BKN090 BKN250 09/05 A2993 RMK AO2 SLP143 T00890050=
201611251753 METAR KSEA 251753Z 11007KT 10SM FEW050 SCT075 BKN250 08/04 A2994 RMK AO2 RAB27E37 SLP144 P0000 60000 T00780039 10083 20050 51005=
201611251653 METAR KSEA 251653Z 00000KT 10SM FEW020 SCT050 BKN085 BKN250 07/04 A2994 RMK AO2 SLP144 T00720044=
201611251553 METAR KSEA 251553Z 00000KT 10SM SCT045 BKN250 06/04 A2993 RMK AO2 SLP142 T00610039=
201611251453 METAR KSEA 251453Z 00000KT 10SM SCT049 OVC230 07/04 A2992 RMK AO2 SLP139 T00720039 53016=
201611251353 METAR KSEA 251353Z 17005KT 10SM FEW060 BKN170 07/04 A2990 RMK AO2 SLP133 T00720039=
201611251253 METAR KSEA 251253Z 18006KT 10SM BKN048 07/04 A2989 RMK AO2 SLP127 T00720044=
201611251153 METAR KSEA 251153Z 18010KT 10SM BKN043 08/04 A2987 RMK AO2 SLP122 60011 70066 T00830039 10083 20072 51021=
201611251053 METAR KSEA 251053Z 18012KT 10SM FEW044 BKN200 08/04 A2985 RMK AO2 SLP116 T00780044=
201611250953 METAR KSEA 250953Z 17013KT 10SM FEW034 BKN044 08/05 A2984 RMK AO2 SLP113 T00780050=
201611250853 METAR KSEA 250853Z 18013G19KT 10SM BKN200 07/04 A2981 RMK AO2 SLP101 60011 T00720044 51048=
201611250753 METAR KSEA 250753Z 19016G23KT 10SM SCT045 OVC110 08/04 A2977 RMK AO2 PK WND 23033/0716 RAE39 SLP087 P0006 T00780044 401060078=
201611250653 METAR KSEA 250653Z 18011KT 7SM -RA FEW017 BKN027 OVC033 08/07 A2972 RMK AO2 RAB0555 SLP070 P0005 T00830072=
201611250553 METAR KSEA 250553Z 17012G19KT 10SM FEW025 OVC048 08/07 A2966 RMK AO2 RAE44 SLP052 P0006 60019 T00830072 10089 20078 53004=
201611250453 METAR KSEA 250453Z 21011KT 10SM -RA OVC044 09/07 A2965 RMK AO2 SLP048 P0005 T00890067=
201611250353 METAR KSEA 250353Z 17012KT 10SM -RA OVC050 08/06 A2963 RMK AO2 SLP040 P0002 T00830061=
201611250253 METAR KSEA 250253Z 17011KT 10SM -RA OVC048 08/06 A2965 RMK AO2 SLP048 P0002 60006 T00830056 58039=
201611250153 METAR KSEA 250153Z 16011KT 10SM -RA FEW032 OVC043 08/06 A2970 RMK AO2 RAB07 SLP065 P0003 T00830061=
201611250053 METAR KSEA 250053Z 13009KT 10SM OVC048 09/06 A2973 RMK AO2 RAE28 SLP075 P0001 T00890056=
201611242353 METAR KSEA 242353Z 19009KT 10SM -RA OVC044 08/06 A2977 RMK AO2 SLP088 P0002 60016 T00830056 10089 20078 58017=
201611242253 METAR KSEA 242253Z 18007KT 10SM -RA OVC045 08/06 A2980 RMK AO2 SLP097 P0002 T00830056=
201611242153 METAR KSEA 242153Z 18012KT 9SM -RA FEW025 OVC045 08/06 A2981 RMK AO2 RAB05 SLP100 P0001 T00830061=
201611242053 METAR KSEA 242053Z 19008KT 10SM FEW025 OVC047 09/07 A2982 RMK AO2 RAE1955 SLP105 P0000 60011 T00890072 58003=
201611241953 METAR KSEA 241953Z 17013G18KT 10SM -RA FEW016 OVC047 08/07 A2983 RMK AO2 SLP109 P0008 T00830067=
201611241853 METAR KSEA 241853Z 20006KT 5SM RA BR FEW027 BKN036 OVC048 08/07 A2985 RMK AO2 RAB04 SLP116 P0003 T00830072=
201611241753 METAR KSEA 241753Z 17008KT 10SM BKN042 OVC060 08/07 A2983 RMK AO2 RAE44 SLP108 P0003 60020 T00830067 10106 20078 58017=
201611241653 METAR KSEA 241653Z 16007KT 10SM -RA BKN041 OVC049 08/07 A2985 RMK AO2 SLP115 P0004 T00830067=
201611241553 METAR KSEA 241553Z 16008KT 10SM -RA BKN039 OVC048 08/07 A2987 RMK AO2 SLP122 P0005 T00780067=
201611241453 METAR KSEA 241453Z 18008KT 9SM -RA BKN038 OVC047 08/07 A2988 RMK AO2 SLP127 P0006 60008 T00780067 58010=
201611241353 METAR KSEA 241353Z 20006KT 8SM -RA BKN037 OVC048 08/06 A2990 RMK AO2 SLP131 P0002 T00830061=
201611241253 METAR KSEA 241253Z 18020G24KT 10SM -RA OVC044 10/04 A2990 RMK AO2 RAB12 SLP133 P0000 T01000039=
201611241153 METAR KSEA 241153Z 19010KT 10SM OVC043 11/03 A2991 RMK AO2 SLP136 60000 70010 T01060033 10106 20078 56012=
201611241053 METAR KSEA 241053Z 18012G21KT 10SM FEW050 SCT060 BKN110 10/03 A2992 RMK AO2 PK WND 17028/1022 RAB07E43 SLP139 P0000 T01000033=
201611240953 METAR KSEA 240953Z 17018G26KT 10SM BKN060 OVC075 10/03 A2993 RMK AO2 PK WND 15027/0857 SLP143 T01000033=
201611240853 METAR KSEA 240853Z 16016G24KT 10SM BKN048 OVC070 09/03 A2995 RMK AO2 SLP149 60000 T00940033 58024=
201611240753 METAR KSEA 240753Z 16012KT 10SM BKN050 BKN075 OVC100 09/03 A2997 RMK AO2 SLP157 T00890033 400890056=
201611240653 METAR KSEA 240653Z 16012KT 10SM OVC050 08/04 A3001 RMK AO2 RAE0556 SLP168 P0000 T00830039=
201611240553 METAR KSEA 240553Z 16014G21KT 10SM -RA OVC037 08/04 A3002 RMK AO2 SLP174 P0001 60006 T00780044 10083 20072 58009=
201611240453 METAR KSEA 240453Z 15009KT 10SM -RA BKN033 OVC040 07/05 A3004 RMK AO2 RAE18B40 SLP180 P0001 T00720050=
201611240420 SPECI KSEA 240420Z 17008KT 10SM SCT028 OVC037 07/06 A3004 RMK AO2 RAE18 P0001 T00720056=
201611240353 METAR KSEA 240353Z 18008KT 7SM -RA BKN025 OVC032 07/06 A3005 RMK AO2 SLP185 P0003 T00720056=
201611240253 METAR KSEA 240253Z 17011KT 10SM -RA BKN032 OVC046 08/05 A3005 RMK AO2 RAE0154B35 SLP184 P0000 60001 T00780050 50001=
201611240153 METAR KSEA 240153Z 17009KT 10SM -RA SCT045 BKN070 OVC200 08/05 A3005 RMK AO2 RAB0057E08B42 SLP185 P0000 T00780050=
201611240053 METAR KSEA 240053Z 17011KT 10SM FEW035 BKN044 OVC065 08/05 A3005 RMK AO2 RAE32 SLP183 P0001 T00830050=
201611232353 METAR KSEA 232353Z 17009KT 10SM -RA FEW018 BKN047 BKN070 OVC200 08/06 A3005 RMK AO2 RAB50 SLP183 P0000 60004 T00780056 10089 20072 53008=
201611232253 METAR KSEA 232253Z 17011KT 10SM SCT019 BKN036 BKN050 08/06 A3003 RMK AO2 RAB09E34 SLP179 P0000 T00830061=
201611232153 METAR KSEA 232153Z 19009KT 9SM FEW018 BKN035 OVC045 08/06 A3003 RMK AO2 RAE45 SLP177 SH VC SE-SW P0004 T00780061=
201611232115 SPECI KSEA 232115Z 20012KT 6SM -RA BR FEW014 SCT019 OVC032 07/06 A3003 RMK AO2 P0003 T00720056=
201611232053 METAR KSEA 232053Z 22012G21KT 7SM -RA BKN018 OVC041 08/05 A3002 RMK AO2 RAB41 SLP175 P0000 60000 T00780050 53012=
201611232015 SPECI KSEA 232015Z 20012KT 10SM BKN023 BKN046 BKN065 08/04 A3001 RMK AO2 T00830044=
201611231953 METAR KSEA 231953Z 20013G20KT 10SM FEW020 BKN046 BKN060 BKN150 09/04 A3000 RMK AO2 SLP168 T00890044=
201611231853 METAR KSEA 231853Z 20011KT 10SM BKN038 BKN050 BKN080 08/05 A3000 RMK AO2 SLP167 T00830050=
201611231753 METAR KSEA 231753Z 20012KT 10SM FEW012 BKN038 BKN050 08/05 A2999 RMK AO2 SLP163 T00780050 10078 20056 51019=
201611231653 METAR KSEA 231653Z 19008KT 10SM FEW015 SCT090 SCT120 BKN210 07/05 A2997 RMK AO2 SLP158 SH W-N T00670050=
201611231553 METAR KSEA 231553Z 21006KT 10SM FEW010 SCT031 BKN055 BKN220 06/04 A2996 RMK AO2 SLP152 T00560044=
201611231453 METAR KSEA 231453Z 19008KT 10SM FEW032 SCT042 BKN120 06/04 A2993 RMK AO2 SLP143 T00610044 51013=
201611231353 METAR KSEA 231353Z 19006KT 10SM FEW033 BKN075 06/05 A2991 RMK AO2 SLP138 T00610050=
201611231253 METAR KSEA 231253Z 19007KT 10SM SCT024 BKN100 06/05 A2991 RMK AO2 SLP136 T00610050=
201611231153 METAR KSEA 231153Z 18009KT 10SM SCT042 BKN090 OVC110 07/05 A2989 RMK AO2 SLP130 60018 70048 T00670050 10078 20067 53003=
201611231053 METAR KSEA 231053Z 17008KT 10SM BKN095 OVC110 07/06 A2989 RMK AO2 RAE0959 SLP129 P0000 T00670056=
201611231021 SPECI KSEA 231021Z 18009KT 10SM FEW020 SCT060 OVC085 07/06 A2988 RMK AO2 RAE0959 P0000 T00670056=
201611230953 METAR KSEA 230953Z 19010KT 10SM -RA SCT012 BKN020 OVC065 07/06 A2988 RMK AO2 RAB0854 SLP125 P0002 T00720061=
201611230853 METAR KSEA 230853Z 19007KT 10SM SCT008 BKN031 OVC044 07/07 A2987 RMK AO2 RAE51 SLP123 P0001 60016 T00720067 53012=
201611230851 SPECI KSEA 230851Z 18009KT 10SM FEW008 BKN014 OVC042 07/07 A2987 RMK AO2 RAE51 P0001=
201611230753 METAR KSEA 230753Z 19009KT 10SM -RA SCT010 BKN016 OVC034 08/07 A2986 RMK AO2 SLP118 P0004 T00780067 401170061=
201611230727 SPECI KSEA 230727Z 18010KT 8SM -RA BKN010 BKN014 OVC036 08/07 A2984 RMK AO2 P0003 T00780067=
201611230653 METAR KSEA 230653Z 19007KT 7SM -RA SCT013 BKN020 OVC035 08/07 A2984 RMK AO2 SLP111 P0011 T00780067=
201611230613 SPECI KSEA 230613Z 00000KT 5SM -RA BR SCT004 BKN014 OVC033 08/07 A2984 RMK AO2 P0004 T00780072=
201611230559 SPECI KSEA 230559Z 00000KT 5SM -RA BR FEW004 SCT019 OVC035 08/07 A2984 RMK AO2 P0001 T00780072=
201611230553 METAR KSEA 230553Z 00000KT 5SM -RA BR FEW020 OVC035 08/07 A2984 RMK AO2 SLP110 P0011 60027 T00780072 10094 20078 53009=
201611230453 METAR KSEA 230453Z 30003KT 6SM -RA BR OVC042 08/07 A2982 RMK AO2 SLP105 P0007 T00780067=
201611230353 METAR KSEA 230353Z 13004KT 9SM -RA OVC047 09/06 A2980 RMK AO2 SLP098 P0003 T00890056=
201611230253 METAR KSEA 230253Z 13007KT 10SM -RA OVC047 09/06 A2981 RMK AO2 SLP101 P0002 60006 T00890061 56021=
201611230153 METAR KSEA 230153Z 09006KT 9SM -RA SCT034 OVC045 09/07 A2983 RMK AO2 RAB12 SLP109 P0003 T00890067=
201611230121 SPECI KSEA 230121Z 00000KT 10SM -RA BKN031 BKN038 OVC050 09/07 A2984 RMK AO2 RAB12 P0000 T00890072=
201611230053 METAR KSEA 230053Z 00000KT 10SM BKN027 BKN048 OVC060 09/07 A2984 RMK AO2 RAE41 SLP113 P0001 T00890072=
201611222353 METAR KSEA 222353Z 28004KT 10SM -RA FEW030 OVC050 08/08 A2987 RMK AO2 SLP123 P0003 60003 T00830078 10117 20083 53002=
201611222253 METAR KSEA 222253Z 28008KT 10SM -RA OVC060 09/07 A2986 RMK AO2 RAB40 SLP119 P0000 T00890072=
201611222153 METAR KSEA 222153Z 12010KT 10SM FEW050 BKN070 BKN100 12/03 A2985 RMK AO2 SLP115 T01170028=
201611222053 METAR KSEA 222053Z 11008KT 10SM FEW050 BKN080 OVC200 12/03 A2987 RMK AO2 SLP120 T01170028 56025=
201611221953 METAR KSEA 221953Z 12008KT 10SM FEW050 BKN100 OVC200 12/03 A2989 RMK AO2 SLP127 T01170028=
201611221853 METAR KSEA 221853Z 13011KT 10SM BKN048 OVC080 11/03 A2991 RMK AO2 SLP137 T01060028=
201611221753 METAR KSEA 221753Z 12011KT 10SM BKN047 OVC060 10/02 A2994 RMK AO2 RAB05E18 SLP145 P0000 60000 T01000022 10100 20061 58005=
201611221653 METAR KSEA 221653Z 13011KT 10SM BKN050 BKN080 09/02 A2995 RMK AO2 SLP150 T00940022=
201611221553 METAR KSEA 221553Z 13009KT 10SM BKN050 BKN095 08/02 A2995 RMK AO2 SLP150 T00830022=
201611221453 METAR KSEA 221453Z 12012KT 10SM BKN060 OVC095 07/02 A2995 RMK AO2 SLP151 T00720022 58019=
201611221353 METAR KSEA 221353Z 11008KT 10SM FEW050 BKN100 07/03 A2998 RMK AO2 SLP160 T00670028=
201611221253 METAR KSEA 221253Z 13008KT 10SM FEW060 SCT100 06/03 A3000 RMK AO2 SLP168 T00610028=
201611221153 METAR KSEA 221153Z 13008KT 10SM SCT060 06/03 A3001 RMK AO2 SLP170 60000 T00610033 10078 20061 58013=
201611221053 METAR KSEA 221053Z 15005KT 10SM BKN060 07/03 A3003 RMK AO2 SLP175 T00720033=
201611220953 METAR KSEA 220953Z 12011KT 10SM BKN055 07/04 A3004 RMK AO2 SLP178 T00720039=
201611220853 METAR KSEA 220853Z 12010KT 10SM SCT050 BKN060 07/04 A3005 RMK AO2 RAB0756E05 SLP183 P0000 60000 T00670039 58002=
201611220753 METAR KSEA 220753Z 13009KT 10SM BKN060 07/04 A3006 RMK AO2 SLP187 T00720044 401170067=
201611220653 METAR KSEA 220653Z 13006KT 10SM BKN050 08/05 A3006 RMK AO2 SLP187 T00780050=
201611220553 METAR KSEA 220553Z 16008KT 10SM SCT050 07/05 A3006 RMK AO2 SLP185 T00720050 10100 20067 52006=
201611220453 METAR KSEA 220453Z 13007KT 10SM FEW025 SCT050 07/06 A3005 RMK AO2 SLP183 T00720061=
201611220353 METAR KSEA 220353Z 14007KT 10SM FEW035 SCT050 08/06 A3005 RMK AO2 SLP181 T00780061=
201611220253 METAR KSEA 220253Z 14008KT 10SM FEW036 BKN049 09/07 A3004 RMK AO2 SLP179 T00890067 51007=
201611220153 METAR KSEA 220153Z 17007KT 10SM SCT047 SCT080 08/06 A3004 RMK AO2 SLP179 T00830061=
201611220053 METAR KSEA 220053Z 17008KT 10SM FEW025 BKN050 BKN080 09/06 A3003 RMK AO2 SLP175 T00890061=
201611212353 METAR KSEA 212353Z 20012KT 10SM FEW020 BKN046 BKN080 10/06 A3002 RMK AO2 SLP172 T01000061 10117 20100 53015=
201611212253 METAR KSEA 212253Z 21011KT 10SM FEW020 BKN047 BKN080 11/07 A3000 RMK AO2 SLP166 T01060067=
201611212153 METAR KSEA 212153Z 20011KT 10SM FEW020 SCT050 BKN080 11/07 A2998 RMK AO2 SLP158 T01110067=
201611212053 METAR KSEA 212053Z 21012KT 10SM FEW020 SCT055 BKN080 11/07 A2997 RMK AO2 SLP157 T01060072 51008=
201611211953 METAR KSEA 211953Z 22010KT 10SM FEW015 SCT048 BKN085 11/07 A2997 RMK AO2 SLP157 T01110072=
201611211921 SPECI KSEA 211921Z 21011KT 10SM SCT014 BKN050 BKN090 11/07 A2997 RMK AO2 T01060072=
201611211853 METAR KSEA 211853Z 20011KT 10SM BKN014 BKN019 BKN080 11/08 A2997 RMK AO2 SLP155 T01060078=
201611211832 SPECI KSEA 211832Z 21011KT 10SM BKN014 BKN020 OVC045 10/08 A2996 RMK AO2 T01000078=
201611211753 METAR KSEA 211753Z 20007KT 10SM BKN008 BKN014 OVC049 11/09 A2995 RMK AO2 SLP149 T01060089 10106 20083 51009=
201611211751 SPECI KSEA 211751Z 19007KT 10SM BKN010 BKN014 OVC049 11/09 A2995 RMK AO2=
201611211733 SPECI KSEA 211733Z 17007KT 10SM SCT009 BKN046 10/08 A2994 RMK AO2 T01000083=
201611211704 SPECI KSEA 211704Z 18007KT 10SM SCT009 BKN015 BKN075 09/08 A2994 RMK AO2 T00940078=
201611211653 METAR KSEA 211653Z 19006KT 10SM FEW008 BKN060 BKN075 09/08 A2994 RMK AO2 SLP145 T00940078=
201611211553 METAR KSEA 211553Z 16006KT 10SM SCT009 BKN055 BKN085 08/08 A2992 RMK AO2 SLP139 T00830078=
201611211546 SPECI KSEA 211546Z 16006KT 10SM SCT008 BKN055 BKN085 08/08 A2992 RMK AO2 T00830078=
201611211521 SPECI KSEA 211521Z 19006KT 10SM SCT006 BKN010 OVC048 09/08 A2991 RMK AO2 T00890078=
201611211453 METAR KSEA 211453Z 18006KT 10SM BKN007 BKN070 OVC090 09/08 A2990 RMK AO2 SLP133 T00890083 52009=
201611211429 SPECI KSEA 211429Z 19008KT 10SM SCT007 BKN040 BKN090 09/08 A2989 RMK AO2 T00890083=
201611211353 METAR KSEA 211353Z 19010KT 10SM BKN007 OVC040 09/08 A2989 RMK AO2 SLP128 T00890083=
201611211318 SPECI KSEA 211318Z 19007KT 10SM BKN008 OVC060 09/08 A2989 RMK AO2 T00890078=
201611211253 METAR KSEA 211253Z 19008KT 10SM FEW008 BKN048 BKN080 09/08 A2989 RMK AO2 SLP128 T00890078=
201611211153 METAR KSEA 211153Z 21011KT 10SM SCT008 BKN090 09/08 A2987 RMK AO2 SLP123 60002 70003 T00890078 10100 20089 52010=
201611211053 METAR KSEA 211053Z 19010KT 10SM FEW009 BKN095 09/08 A2986 RMK AO2 SLP120 T00890083=
201611211040 SPECI KSEA 211040Z 19010KT 10SM FEW008 SCT080 BKN100 09/08 A2986 RMK AO2 T00890083=
201611210953 METAR KSEA 210953Z 19009KT 10SM FEW012 BKN070 OVC090 09/08 A2985 RMK AO2 RAB25E41 SLP116 P0001 T00890083=
201611210853 METAR KSEA 210853Z 19009KT 10SM SCT027 BKN041 OVC060 09/08 A2984 RMK AO2 RAB0755E52 SLP112 P0001 60001 T00890078 51010=
201611210753 METAR KSEA 210753Z 19009KT 10SM SCT027 BKN034 OVC045 09/07 A2984 RMK AO2 SLP111 T00940072 401390083=
201611210653 METAR KSEA 210653Z 18008KT 10SM BKN041 OVC050 10/07 A2982 RMK AO2 SLP105 T01000067=
201611210553 METAR KSEA 210553Z 18006KT 10SM SCT035 BKN055 09/07 A2981 RMK AO2 SLP102 60000 T00940072 10111 20083 53015=
201611210453 METAR KSEA 210453Z 17008KT 10SM SCT044 09/07 A2980 RMK AO2 SLP097 T00890067=
201611210353 METAR KSEA 210353Z 15009KT 10SM BKN044 09/07 A2978 RMK AO2 SLP093 T00940072=
201611210253 METAR KSEA 210253Z 16010KT 10SM SCT036 SCT043 BKN050 09/08 A2977 RMK AO2 SLP087 60000 T00940078 51010=
201611210153 METAR KSEA 210153Z 17011KT 10SM FEW044 BKN055 OVC070 10/08 A2977 RMK AO2 RAE31 SLP086 P0000 T01000078=
201611210053 METAR KSEA 210053Z 20009KT 10SM -RA FEW031 SCT041 OVC050 10/08 A2976 RMK AO2 RAB35 SLP085 P0000 T01000083=
201611202353 METAR KSEA 202353Z 20012KT 10SM FEW025 BKN044 OVC100 11/08 A2974 RMK AO2 SLP077 60001 T01110083 10128 20111 53012=
201611202253 METAR KSEA 202253Z 18013KT 10SM SCT036 BKN044 OVC060 12/08 A2972 RMK AO2 SLP070 T01170083=
201611202153 METAR KSEA 202153Z 20010KT 10SM SCT049 BKN060 OVC090 12/08 A2971 RMK AO2 SLP067 T01220083=
201611202053 METAR KSEA 202053Z 19014G21KT 10SM BKN038 OVC045 13/07 A2971 RMK AO2 RAB17E28 SLP065 P0000 60001 T01280072 58005=
201611201953 METAR KSEA 201953Z 17009KT 10SM OVC040 12/08 A2971 RMK AO2 RAB00E11 SLP066 P0001 T01170078=
201611201853 METAR KSEA 201853Z 18005KT 10SM OVC044 12/07 A2972 RMK AO2 SLP069 T01170067=
201611201753 METAR KSEA 201753Z 19006KT 10SM OVC047 12/07 A2972 RMK AO2 RAB07E32 SLP070 P0000 60000 T01220072 10139 20111 51010=
201611201653 METAR KSEA 201653Z 21006KT 10SM OVC050 12/07 A2971 RMK AO2 RAB1554E03 SLP067 P0000 T01170072=
201611201553 METAR KSEA 201553Z 19004KT 10SM OVC048 12/07 A2971 RMK AO2 RAB33E51 SLP065 P0000 T01170067=
201611201453 METAR KSEA 201453Z 19006KT 10SM OVC060 12/06 A2969 RMK AO2 RAE20 SLP059 P0000 60000 T01220061 53004=
201611201353 METAR KSEA 201353Z 20010KT 10SM -RA OVC050 13/06 A2969 RMK AO2 RAB43 SLP059 P0000 T01330056=
201611201253 METAR KSEA 201253Z 13010KT 10SM OVC060 12/04 A2968 RMK AO2 SLP055 T01220044=
201611201153 METAR KSEA 201153Z 15006KT 10SM OVC060 11/05 A2968 RMK AO2 SLP055 60000 70004 T01110050 10122 20111 58002=
201611201053 METAR KSEA 201053Z 13010KT 10SM BKN060 OVC080 12/04 A2968 RMK AO2 SLP056 T01220044=
201611200953 METAR KSEA 200953Z 13009KT 10SM BKN065 OVC080 12/05 A2969 RMK AO2 SLP059 T01170050=
201611200853 METAR KSEA 200853Z 11009KT 10SM BKN060 OVC070 11/05 A2968 RMK AO2 RAE14B33E42 SLP057 P0000 60000 T01110050 50004=
201611200753 METAR KSEA 200753Z 14009KT 10SM -RA OVC060 12/04 A2969 RMK AO2 RAB51 SLP060 P0000 T01170044 401390089=
201611200653 METAR KSEA 200653Z 10012KT 10SM BKN065 OVC090 12/03 A2968 RMK AO2 SLP058 T01170033=
201611200553 METAR KSEA 200553Z 11011KT 10SM BKN060 BKN075 OVC095 12/03 A2967 RMK AO2 RAE14 SLP054 P0000 60000 T01170033 10128 20111 55001=
201611200453 METAR KSEA 200453Z 11013KT 10SM -RA BKN060 BKN075 OVC100 12/03 A2967 RMK AO2 RAB48 SLP053 P0000 T01170033=
201611200353 METAR KSEA 200353Z 11010KT 10SM FEW065 SCT110 BKN200 11/03 A2966 RMK AO2 SLP052 T01110033=
201611200253 METAR KSEA 200253Z 11014KT 10SM FEW060 BKN070 BKN120 12/03 A2967 RMK AO2 SLP054 T01170033 55001=
201611200153 METAR KSEA 200153Z 11008KT 10SM BKN060 BKN070 BKN150 12/04 A2967 RMK AO2 SLP053 T01170039=
201611200053 METAR KSEA 200053Z 10008KT 10SM FEW065 BKN090 BKN210 12/04 A2967 RMK AO2 SLP055 T01170039=
201611192353 METAR KSEA 192353Z 11007KT 10SM FEW040 SCT060 BKN090 BKN220 13/04 A2968 RMK AO2 SLP056 VIRGA VC S 60002 T01280039 10139 20100 55004=
201611192253 METAR KSEA 192253Z 09007KT 10SM FEW040 SCT060 BKN075 13/04 A2967 RMK AO2 SLP054 T01330044=
201611192153 METAR KSEA 192153Z 10008KT 10SM SCT055 BKN100 13/05 A2968 RMK AO2 RAE04 SLP057 P0000 T01280050=
201611192053 METAR KSEA 192053Z 09009KT 9SM -RA FEW049 BKN060 OVC075 11/05 A2969 RMK AO2 RAB18 SLP061 P0002 60002 T01110050 58006=
201611191953 METAR KSEA 191953Z 11009KT 10SM OVC055 12/03 A2970 RMK AO2 SLP062 T01170033=
201611191853 METAR KSEA 191853Z 12011KT 10SM BKN050 OVC090 11/03 A2971 RMK AO2 SLP067 T01110033=
201611191753 METAR KSEA 191753Z 11008KT 10SM SCT060 OVC075 10/03 A2971 RMK AO2 RAE13 SLP067 P0000 60002 T01000033 10106 20089 50009=
201611191653 METAR KSEA 191653Z 12009KT 10SM -RA SCT049 OVC060 09/03 A2971 RMK AO2 RAE15B37 SLP069 P0001 T00940033=
201611191553 METAR KSEA 191553Z 11007KT 10SM -RA OVC048 09/03 A2971 RMK AO2 RAB31 SLP069 P0001 T00940028=
201611191453 METAR KSEA 191453Z 11010KT 10SM OVC048 10/02 A2968 RMK AO2 RAB14E27 SLP057 P0000 60000 T01000017 55001=
201611191353 METAR KSEA 191353Z 11012KT 10SM OVC050 09/02 A2967 RMK AO2 SLP055 T00940022=
201611191253 METAR KSEA 191253Z 12010KT 10SM OVC055 09/03 A2968 RMK AO2 RAB24E40 SLP058 P0000 T00890028=
201611191153 METAR KSEA 191153Z 12011KT 10SM OVC060 11/M01 A2968 RMK AO2 SLP057 60000 T01061006 10106 20100 55004=
201611191053 METAR KSEA 191053Z 10010KT 10SM OVC070 11/M01 A2968 RMK AO2 SLP056 T01061011=
201611190953 METAR KSEA 190953Z 00000KT 10SM OVC075 10/M01 A2969 RMK AO2 SLP060 T01001006=
201611190853 METAR KSEA 190853Z 06005KT 10SM OVC090 10/M01 A2970 RMK AO2 RAB0759E21 SLP061 P0000 60000 T01001006 56018=
201611190753 METAR KSEA 190753Z 15009KT 10SM BKN060 OVC070 11/M02 A2972 RMK AO2 SLP069 T01061022 401220039=
201611190653 METAR KSEA 190653Z 11012KT 10SM OVC090 11/M03 A2971 RMK AO2 SLP067 T01061028=
201611190553 METAR KSEA 190553Z 12013KT 10SM OVC100 11/M02 A2975 RMK AO2 SLP081 T01061022 10111 20100 55000=
201611190453 METAR KSEA 190453Z 11016G20KT 10SM OVC100 10/M02 A2974 RMK AO2 SLP079 T01001022=
201611190353 METAR KSEA 190353Z 10011KT 10SM OVC120 11/M03 A2975 RMK AO2 SLP082 T01061028=
201611190253 METAR KSEA 190253Z 10015KT 10SM BKN130 OVC180 11/M03 A2975 RMK AO2 PK WND 10028/0230 SLP081 T01061028 56031=
201611190153 METAR KSEA 190153Z 11019G27KT 10SM SCT110 BKN140 OVC180 11/M03 A2975 RMK AO2 PK WND 12031/0136 SLP082 T01111028=
201611190053 METAR KSEA 190053Z 10015G21KT 10SM SCT120 BKN180 11/M02 A2977 RMK AO2 SLP089 T01111022=
201611182353 METAR KSEA 182353Z 13014KT 10SM OVC100 11/M01 A2984 RMK AO2 PK WND 13026/2326 SLP112 T01111011 10122 20106 56021=
201611182253 METAR KSEA 182253Z 11015G28KT 10SM BKN100 BKN150 12/M02 A2987 RMK AO2 PK WND 12028/2245 SLP120 T01171017=
201611182153 METAR KSEA 182153Z 08014KT 10SM BKN095 OVC140 12/M01 A2985 RMK AO2 PRESFR SLP113 T01171011=
201611182053 METAR KSEA 182053Z 10011KT 10SM OVC100 12/M01 A2991 RMK AO2 SLP134 T01171011 58024=
201611181953 METAR KSEA 181953Z 11011KT 10SM SCT090 OVC110 12/M01 A2994 RMK AO2 SLP145 T01171006=
201611181853 METAR KSEA 181853Z 12012KT 10SM FEW090 OVC110 11/00 A2997 RMK AO2 SLP156 T01110000=
201611181753 METAR KSEA 181753Z 11012KT 10SM OVC110 11/M01 A2998 RMK AO2 SLP159 T01061006 10106 20044 58025 $=
201611181653 METAR KSEA 181653Z 11009KT 10SM OVC130 10/M01 A3001 RMK AO2 SLP168 T01001006=
201611181553 METAR KSEA 181553Z 08008KT 10SM OVC140 09/00 A3003 RMK AO2 SLP176 T00890000=
201611181453 METAR KSEA 181453Z 35009KT 10SM OVC190 06/01 A3005 RMK AO2 SLP185 T00560011 56014=
201611181353 METAR KSEA 181353Z 34005KT 10SM OVC190 05/01 A3006 RMK AO2 SLP187 T00500011=
201611181253 METAR KSEA 181253Z 00000KT 10SM BKN250 04/01 A3007 RMK AO2 SLP191 T00440011=
201611181153 METAR KSEA 181153Z 05008KT 10SM BKN250 05/02 A3010 RMK AO2 SLP200 T00500017 10067 20039 58023=
201611181053 METAR KSEA 181053Z 05006KT 10SM SCT250 04/01 A3013 RMK AO2 SLP210 T00440011=
201611180953 METAR KSEA 180953Z 08007KT 10SM CLR 06/01 A3014 RMK AO2 SLP214 T00560006=
201611180853 METAR KSEA 180853Z 06004KT 10SM CLR 04/01 A3017 RMK AO2 SLP223 T00440006 57005=
201611180753 METAR KSEA 180753Z 09004KT 10SM CLR 06/01 A3017 RMK AO2 SLP224 T00610011 401060050=
201611180653 METAR KSEA 180653Z 08007KT 10SM CLR 07/02 A3018 RMK AO2 SLP227 T00670017=
201611180553 METAR KSEA 180553Z 11007KT 10SM CLR 07/02 A3018 RMK AO2 SLP228 T00670022 10094 20067 58001=
201611180453 METAR KSEA 180453Z 10009KT 10SM CLR 07/03 A3019 RMK AO2 SLP230 T00670033=
201611180353 METAR KSEA 180353Z 13007KT 10SM CLR 07/04 A3018 RMK AO2 SLP229 T00720039=
201611180253 METAR KSEA 180253Z 00000KT 10SM CLR 08/03 A3018 RMK AO2 SLP229 T00780033 53002=
201611180153 METAR KSEA 180153Z 00000KT 10SM FEW043 SCT060 SCT200 08/04 A3018 RMK AO2 SLP228 T00830039=
201611180053 METAR KSEA 180053Z 00000KT 10SM FEW043 SCT070 SCT250 09/04 A3017 RMK AO2 SLP225 VIRGA S T00890039=
201611172353 METAR KSEA 172353Z 22004KT 10SM FEW030 SCT070 SCT250 09/04 A3018 RMK AO2 SLP226 T00940039 10106 20078 53001=
201611172253 METAR KSEA 172253Z 00000KT 10SM FEW025 SCT060 BKN250 10/04 A3017 RMK AO2 SLP225 T01000044=
201611172153 METAR KSEA 172153Z 00000KT 10SM FEW025 SCT060 BKN250 11/04 A3017 RMK AO2 SLP225 T01060044=
201611172053 METAR KSEA 172053Z 20005KT 10SM FEW020 BKN055 BKN250 10/03 A3017 RMK AO2 SLP225 T01000033 51002=
201611171953 METAR KSEA 171953Z 12004KT 10SM FEW018 FEW034 SCT065 BKN250 09/04 A3017 RMK AO2 SLP225 T00940039=
201611171853 METAR KSEA 171853Z 00000KT 10SM FEW018 SCT034 BKN060 09/04 A3018 RMK AO2 SLP228 T00890044=
201611171753 METAR KSEA 171753Z 17005KT 10SM SCT029 BKN055 BKN080 08/04 A3017 RMK AO2 SLP224 T00780044 10078 20050 52013=
201611171653 METAR KSEA 171653Z 15004KT 10SM FEW018 SCT027 BKN040 07/03 A3015 RMK AO2 SLP219 T00720033=
201611171648 SPECI KSEA 171648Z 16003KT 10SM FEW018 SCT027 BKN040 07/03 A3016 RMK AO2=
201611171553 METAR KSEA 171553Z 17003KT 10SM FEW017 OVC024 06/04 A3014 RMK AO2 SLP216 T00610039=
201611171510 SPECI KSEA 171510Z 16004KT 10SM BKN026 BKN034 BKN085 05/03 A3013 RMK AO2 T00500028=
201611171453 METAR KSEA 171453Z 15006KT 10SM FEW018 BKN033 BKN085 06/03 A3013 RMK AO2 SLP211 T00560033 53005=
201611171353 METAR KSEA 171353Z 13005KT 10SM SCT035 BKN085 05/03 A3012 RMK AO2 SLP207 T00500033=
201611171253 METAR KSEA 171253Z 14005KT 10SM FEW024 BKN095 BKN110 06/04 A3012 RMK AO2 SLP208 T00610039=
201611171153 METAR KSEA 171153Z 15004KT 10SM FEW015 BKN020 OVC036 07/04 A3011 RMK AO2 SLP205 70020 T00670044 10072 20061 53004=
201611171132 SPECI KSEA 171132Z 15004KT 10SM FEW013 BKN028 OVC034 07/04 A3011 RMK AO2 T00670044=
201611171053 METAR KSEA 171053Z 00000KT 10SM FEW012 OVC037 07/04 A3011 RMK AO2 SLP203 T00670044=
201611170953 METAR KSEA 170953Z 15005KT 10SM OVC034 07/05 A3010 RMK AO2 SLP199 T00670050=
201611170853 METAR KSEA 170853Z 17004KT 10SM FEW030 SCT036 BKN048 06/04 A3010 RMK AO2 SLP201 T00610044 50003=
201611170753 METAR KSEA 170753Z 16004KT 10SM FEW023 BKN033 BKN060 07/05 A3010 RMK AO2 SLP202 T00670050 401000061=
201611170653 METAR KSEA 170653Z 16006KT 10SM SCT020 SCT033 OVC045 07/05 A3010 RMK AO2 SLP200 T00670050=
201611170636 SPECI KSEA 170636Z 17006KT 10SM FEW013 BKN023 OVC038 07/05 A3009 RMK AO2 T00720050=
201611170609 SPECI KSEA 170609Z 17008KT 10SM BKN012 BKN021 OVC032 07/05 A3009 RMK AO2 T00720050=
201611170601 SPECI KSEA 170601Z 17008KT 10SM SCT012 BKN021 OVC030 07/05 A3009 RMK AO2 T00720050=
201611170553 METAR KSEA 170553Z 17007KT 10SM SCT021 BKN030 OVC060 07/05 A3009 RMK AO2 SLP198 60020 T00720050 10094 20061 53006=
201611170453 METAR KSEA 170453Z 19004KT 10SM FEW048 BKN065 BKN085 07/05 A3008 RMK AO2 SLP195 T00670050=
201611170353 METAR KSEA 170353Z 19005KT 10SM SCT036 BKN065 BKN080 07/06 A3007 RMK AO2 RAB07E16 SLP192 P0000 T00720056=
201611170253 METAR KSEA 170253Z 21006KT 10SM FEW020 SCT041 BKN100 OVC200 07/06 A3007 RMK AO2 SLP192 60020 T00720056 53009=
201611170153 METAR KSEA 170153Z 21006KT 10SM SCT019 BKN032 BKN043 BKN200 08/06 A3007 RMK AO2 RAB21E46 SLP190 P0020 T00780056=
201611170121 SPECI KSEA 170121Z 19013G19KT 10SM -RA BKN021 BKN027 BKN050 07/04 A3006 RMK AO2 RAB21 P0004 T00670039=
201611170053 METAR KSEA 170053Z 21004KT 10SM SCT028 BKN047 OVC250 09/05 A3005 RMK AO2 SLP183 T00940050=
201611162353 METAR KSEA 162353Z 00000KT 10SM FEW026 SCT049 BKN250 09/04 A3005 RMK AO2 SLP182 T00940044 10100 20078 53007=
201611162253 METAR KSEA 162253Z 25007KT 10SM FEW025 FEW035 BKN043 10/04 A3004 RMK AO2 SLP179 T01000044=
201611162153 METAR KSEA 162153Z 23007KT 10SM SCT021 BKN040 10/05 A3003 RMK AO2 SLP175 T01000050=
201611162126 SPECI KSEA 162126Z 20005KT 10SM FEW017 SCT026 BKN036 09/05 A3003 RMK AO2 T00940050=
201611162053 METAR KSEA 162053Z 18003KT 10SM SCT016 BKN026 BKN038 09/05 A3003 RMK AO2 SLP175 T00940050 50002=
201611162030 SPECI KSEA 162030Z 20004KT 10SM SCT016 BKN028 09/05 A3003 RMK AO2 T00890050=
201611162010 SPECI KSEA 162010Z 21005KT 10SM SCT014 BKN033 09/05 A3003 RMK AO2 T00890050=
201611161953 METAR KSEA 161953Z 21005KT 10SM BKN016 BKN033 08/05 A3003 RMK AO2 SLP175 T00830050=
201611161933 SPECI KSEA 161933Z 23007KT 10SM BKN016 BKN032 08/05 A3003 RMK AO2 T00830050=
201611161853 METAR KSEA 161853Z 18006KT 10SM BKN012 OVC023 08/05 A3003 RMK AO2 SLP176 T00830050=
201611161835 SPECI KSEA 161835Z 19007KT 10SM BKN012 OVC023 08/04 A3003 RMK AO2 T00780044=
201611161809 SPECI KSEA 161809Z 20006KT 10SM BKN015 OVC023 08/04 A3002 RMK AO2 T00780044=
201611161753 METAR KSEA 161753Z 16006KT 10SM BKN014 OVC018 08/04 A3002 RMK AO2 SLP174 T00780039 10078 20067 53008=
201611161653 METAR KSEA 161653Z 17006KT 10SM BKN014 BKN021 OVC040 07/04 A3001 RMK AO2 SLP171 T00720039=
201611161643 SPECI KSEA 161643Z 17004KT 10SM BKN014 BKN028 07/04 A3001 RMK AO2 T00720044=
201611161553 METAR KSEA 161553Z 22005KT 10SM FEW013 BKN026 07/04 A3000 RMK AO2 SLP166 T00720044=
201611161521 SPECI KSEA 161521Z 21007KT 10SM SCT013 BKN026 OVC060 07/04 A3000 RMK AO2 T00720044=
201611161453 METAR KSEA 161453Z 20004KT 10SM BKN012 OVC038 07/04 A3000 RMK AO2 SLP166 T00720039 53005=
201611161353 METAR KSEA 161353Z 20009KT 10SM BKN014 BKN040 07/04 A2999 RMK AO2 SLP163 T00720039=
201611161320 SPECI KSEA 161320Z 20005KT 10SM FEW016 BKN025 07/04 A2999 RMK AO2 T00670039=
201611161253 METAR KSEA 161253Z 19006KT 10SM SCT012 BKN042 07/04 A2999 RMK AO2 SLP162 T00670039=
201611161153 METAR KSEA 161153Z 19008KT 10SM BKN013 07/04 A2998 RMK AO2 SLP160 70062 T00670039 10083 20067 51005=
201611161053 METAR KSEA 161053Z 21008KT 10SM OVC012 07/04 A2998 RMK AO2 SLP159 T00720044=
201611161041 SPECI KSEA 161041Z 19009KT 10SM BKN012 OVC024 07/04 A2998 RMK AO2 T00720044=
201611160953 METAR KSEA 160953Z 21005KT 10SM SCT013 BKN025 07/04 A2997 RMK AO2 SLP156 T00670039=
201611160853 METAR KSEA 160853Z 18008KT 10SM OVC013 07/04 A2996 RMK AO2 SLP154 T00670044 51013=
201611160753 METAR KSEA 160753Z 22009KT 10SM OVC012 08/05 A2996 RMK AO2 SLP151 T00780050 401220078=
201611160653 METAR KSEA 160653Z 21014G18KT 10SM BKN014 OVC020 08/06 A2994 RMK AO2 SLP146 T00780056=
201611160553 METAR KSEA 160553Z 19013KT 10SM OVC014 08/06 A2992 RMK AO2 SLP140 60004 T00780056 10094 20078 53017=
201611160539 SPECI KSEA 160539Z 20010KT 10SM OVC013 08/06 A2992 RMK AO2 T00780056=
201611160453 METAR KSEA 160453Z 21008KT 10SM OVC015 08/06 A2991 RMK AO2 SLP135 T00780056=
201611160353 METAR KSEA 160353Z 22011G22KT 10SM FEW010 OVC016 08/06 A2989 RMK AO2 RAE46 SLP127 P0001 T00780056=
201611160332 SPECI KSEA 160332Z 21011G20KT 10SM -RA SCT010 OVC016 08/06 A2988 RMK AO2 P0001 T00780056=
201611160253 METAR KSEA 160253Z 21011KT 10SM -RA SCT010 BKN014 OVC050 08/06 A2987 RMK AO2 RAE0154B50 SLP123 P0000 60003 T00830061 53006=
201611160153 METAR KSEA 160153Z 21011KT 10SM -RA FEW015 BKN046 OVC070 08/06 A2986 RMK AO2 RAB07 SLP118 P0003 T00830061=
201611160053 METAR KSEA 160053Z 20010KT 10SM SCT015 BKN032 OVC075 09/07 A2985 RMK AO2 SLP115 T00890072=
201611160012 SPECI KSEA 160012Z 19008KT 10SM BKN014 BKN021 OVC042 09/07 A2986 RMK AO2 T00940067=
201611152353 METAR KSEA 152353Z 20008KT 10SM SCT042 BKN060 BKN200 09/07 A2985 RMK AO2 RAB11E47 SLP116 P0009 60009 T00890067 10122 20083 53005=
201611152253 METAR KSEA 152253Z 21012KT 10SM FEW020 BKN100 OVC250 11/06 A2984 RMK AO2 SLP112 T01110056=
201611152153 METAR KSEA 152153Z 22012G21KT 10SM FEW018 SCT025 BKN110 OVC250 11/05 A2984 RMK AO2 SLP111 SHRA S T01110050=
201611152053 METAR KSEA 152053Z 21012KT 10SM FEW016 SCT024 BKN180 12/07 A2984 RMK AO2 SLP110 T01220072 51005=
201611151953 METAR KSEA 151953Z 21016G23KT 10SM FEW014 SCT024 BKN170 12/08 A2983 RMK AO2 SLP109 T01220078=
201611151949 SPECI KSEA 151949Z 22016G23KT 10SM FEW014 SCT024 BKN170 12/08 A2983 RMK AO2=
201611151933 SPECI KSEA 151933Z 22017G24KT 10SM SCT014 BKN024 BKN080 11/08 A2984 RMK AO2 T01110078=
201611151853 METAR KSEA 151853Z 21012G19KT 10SM FEW009 BKN013 BKN080 11/08 A2984 RMK AO2 SLP113 T01060078=
201611151813 SPECI KSEA 151813Z 21014G23KT 10SM FEW008 BKN013 BKN085 11/08 A2984 RMK AO2 T01060083=
201611151753 METAR KSEA 151753Z 21019G24KT 10SM FEW008 BKN016 BKN095 11/08 A2982 RMK AO2 RAE1659 SLP107 P0000 60049 T01060078 10111 20089 51027=
201611151741 SPECI KSEA 151741Z 22013G22KT 10SM FEW008 SCT016 BKN095 11/08 A2982 RMK AO2 RAE1659 P0000 T01060083=
201611151653 METAR KSEA 151653Z 20014KT 10SM -RA SCT008 BKN018 BKN060 10/08 A2980 RMK AO2 RAB50 SLP098 P0000 T01000083=
201611151646 SPECI KSEA 151646Z 20012G20KT 10SM SCT006 BKN017 BKN055 11/08 A2980 RMK AO2 T01060083=
201611151553 METAR KSEA 151553Z 19009KT 10SM BKN006 OVC014 10/09 A2979 RMK AO2 RAB15E34 SLP093 P0001 T01000089=
201611151453 METAR KSEA 151453Z 00000KT 7SM OVC005 09/08 A2975 RMK AO2 RAB16E39 SLP079 P0001 60048 T00940078 53027=
201611151420 SPECI KSEA 151420Z 26004KT 2SM -RA BR BKN005 OVC014 09/08 A2973 RMK AO2 RAB16 PRESRR P0001 T00890083=
201611151353 METAR KSEA 151353Z 27007KT 1 1/2SM BR BKN002 BKN011 OVC070 09/08 A2969 RMK AO2 TWR VIS 2 RAE45 SLP061 P0016 T00940083=
201611151345 SPECI KSEA 151345Z 31005KT 1SM R16L/P6000FT BR BKN002 BKN011 OVC070 09/08 A2968 RMK AO2 SFC VIS 1 1/2 RAE45 P0016 T00890083=
201611151318 SPECI KSEA 151318Z 30007KT 2SM RA BR FEW002 BKN032 OVC044 09/08 A2967 RMK AO2 P0010 T00890083=
201611151253 METAR KSEA 151253Z 30004KT 2SM RA BR FEW028 BKN044 OVC055 09/08 A2968 RMK AO2 SLP056 P0031 T00890083=
201611151242 SPECI KSEA 151242Z 00000KT 2SM +RA BR SCT026 BKN037 OVC055 09/08 A2967 RMK AO2 P0025 T00890083=
201611151231 SPECI KSEA 151231Z 30003KT 2SM +RA BR FEW003 BKN023 OVC029 09/09 A2968 RMK AO2 P0016 T00890089=
201611151207 SPECI KSEA 151207Z 29016G21KT 3SM -RA BR BKN004 OVC018 09/08 A2969 RMK AO2 P0001 T00940083=
201611151200 SPECI KSEA 151200Z 23004KT 3SM -RA BR BKN005 OVC018 09/09 A2966 RMK AO2 P0001 T00940089=
201611151153 METAR KSEA 151153Z 16004KT 2SM -RA BR BKN005 OVC018 09/08 A2966 RMK AO2 SLP051 P0008 60056 70061 T00940083 10106 20094 58036=
201611151143 SPECI KSEA 151143Z 17004KT 2SM RA BR BKN005 BKN015 OVC026 09/08 A2967 RMK AO2 P0008 T00940083=
201611151053 METAR KSEA 151053Z 18003KT 1 1/2SM R16L/5500VP6000FT RA BR SCT003 BKN008 OVC019 09/09 A2971 RMK AO2 RAE27B40 SLP066 FG BANK W-NW P0008 T00940089=
201611151043 SPECI KSEA 151043Z 00000KT 1 1/2SM R16L/6000VP6000FT -RA BR FEW003 BKN006 OVC026 09/08 A2970 RMK AO2 RAE27B40 FG BANK W-NW P0003 T00940083=
201611151032 SPECI KSEA 151032Z VRB03KT 3SM BR FEW001 SCT006 OVC022 10/08 A2970 RMK AO2 RAE27 FG BANK W-NW P0002 T01000083=
201611151005 SPECI KSEA 151005Z 00000KT 1SM R16L/P6000FT -RA BR BKN003 OVC028 10/09 A2973 RMK AO2 P0001 T01000089=
201611150953 METAR KSEA 150953Z 03003KT 2SM -RA BR SCT003 BKN032 OVC050 10/09 A2973 RMK AO2 SLP073 P0019 T01000089=
201611150934 SPECI KSEA 150934Z 08007KT 2SM RA BR FEW001 BKN034 OVC043 09/08 A2973 RMK AO2 P0017 T00940083=
201611150853 METAR KSEA 150853Z 31005KT 2SM RA BR SCT029 BKN036 OVC047 09/08 A2977 RMK AO2 SLP087 P0012 60021 T00940083 58029=
201611150844 SPECI KSEA 150844Z 31003KT 2SM RA BR FEW029 SCT036 OVC047 09/08 A2977 RMK AO2 P0009 T00940083=
201611150813 SPECI KSEA 150813Z 33005KT 4SM -RA BR SCT050 OVC070 09/08 A2978 RMK AO2 P0003 T00940078=
201611150801 SPECI KSEA 150801Z 02003KT 2 1/2SM RA BR FEW036 OVC050 10/08 A2979 RMK AO2 P0002 T01000083=
201611150753 METAR KSEA 150753Z 00000KT 3SM RA BR SCT036 OVC046 10/08 A2979 RMK AO2 SLP095 P0009 T01000083 401390100=
201611150653 METAR KSEA 150653Z 19004KT 10SM -RA FEW038 BKN050 OVC070 10/08 A2985 RMK AO2 RAB44 SLP113 P0000 T01000083=
201611150553 METAR KSEA 150553Z 02006KT 10SM BKN070 OVC150 11/08 A2986 RMK AO2 PRESFR SLP117 T01060078 10128 20100 58036=
201611150453 METAR KSEA 150453Z 01005KT 10SM BKN070 OVC140 11/08 A2989 RMK AO2 SLP129 T01060078=
201611150353 METAR KSEA 150353Z 02006KT 10SM BKN140 OVC200 11/07 A2994 RMK AO2 SLP144 T01110072=
201611150253 METAR KSEA 150253Z 06004KT 10SM SCT140 OVC200 11/07 A2997 RMK AO2 SLP154 T01110067 58027=
201611150153 METAR KSEA 150153Z VRB05KT 10SM OVC200 12/07 A2999 RMK AO2 SLP161 T01170067=
201611150053 METAR KSEA 150053Z 08004KT 10SM FEW030 BKN250 12/06 A3003 RMK AO2 SLP175 T01220061=
201611142353 METAR KSEA 142353Z 00000KT 10SM FEW030 FEW050 BKN250 12/06 A3005 RMK AO2 SLP182 T01220061 10139 20117 56013=
201611142253 METAR KSEA 142253Z 00000KT 10SM FEW025 SCT050 BKN250 13/07 A3006 RMK AO2 SLP186 T01280067=
201611142153 METAR KSEA 142153Z 24004KT 10SM FEW025 FEW044 BKN250 13/07 A3007 RMK AO2 SLP190 T01330067=
201611142053 METAR KSEA 142053Z 26004KT 10SM FEW027 BKN041 BKN250 13/08 A3009 RMK AO2 SLP195 T01280078 53005=
201611142031 SPECI KSEA 142031Z 22009KT 10SM FEW023 BKN035 BKN250 13/07 A3009 RMK AO2 T01280072=
201611141953 METAR KSEA 141953Z 20007KT 10SM FEW016 BKN023 BKN250 13/08 A3007 RMK AO2 SLP190 T01280078=
201611141853 METAR KSEA 141853Z VRB06KT 10SM FEW011 BKN016 BKN250 12/08 A3009 RMK AO2 SLP194 T01170083=
201611141753 METAR KSEA 141753Z 22006KT 10SM FEW008 BKN013 BKN025 12/09 A3007 RMK AO2 SLP190 60005 T01170089 10117 20111 51026=
201611141653 METAR KSEA 141653Z 23007KT 10SM SCT008 BKN013 11/09 A3005 RMK AO2 SLP183 T01110094=
201611141644 SPECI KSEA 141644Z 24005KT 10SM SCT007 BKN012 11/09 A3005 RMK AO2 T01110094=
201611141553 METAR KSEA 141553Z 25004KT 10SM BKN007 OVC015 11/10 A3003 RMK AO2 SLP174 T01110100=
201611141453 METAR KSEA 141453Z 22005KT 10SM BKN006 OVC060 11/10 A3000 RMK AO2 RAE21 SLP164 P0001 60005 T01110100 53017=
201611141432 SPECI KSEA 141432Z 24007KT 8SM BKN005 OVC020 11/10 A2999 RMK AO2 RAE21 P0001 T01110100 $=
201611141353 METAR KSEA 141353Z 20006KT 10SM -RA SCT005 OVC017 11/10 A2998 RMK AO2 SLP158 P0003 T01110100 $=
201611141308 SPECI KSEA 141308Z 21009KT 7SM -RA SCT005 BKN028 OVC038 11/10 A2997 RMK AO2 P0001 T01110100 $=
201611141306 SPECI KSEA 141306Z 20009KT 7SM -RA BKN026 BKN032 OVC048 11/10 A2996 RMK AO2 P0001 T01110100 $=
201611141253 METAR KSEA 141253Z 20008KT 8SM -RA BKN005 BKN028 OVC060 11/10 A2996 RMK AO2 RAE16B51 SLP152 P0001 T01110100 $=
201611141153 METAR KSEA 141153Z 22004KT 10SM -RA BKN005 BKN013 OVC032 11/11 A2995 RMK AO2 SLP147 P0007 60020 70040 T01110106 10117 20111 56002 $=
201611141114 SPECI KSEA 141114Z 24005KT 7SM -RA BKN008 BKN023 OVC080 11/10 A2996 RMK AO2 P0002 T01110100 $=
201611141111 SPECI KSEA 141111Z 24005KT 8SM -RA SCT010 BKN023 OVC075 11/10 A2996 RMK AO2 P0001 T01110100 $=
201611141053 METAR KSEA 141053Z 21007KT 10SM -RA FEW032 SCT049 OVC075 11/10 A2995 RMK AO2 RAB14 SLP149 P0003 T01110100 $=
201611140953 METAR KSEA 140953Z 18008KT 10SM SCT031 BKN039 OVC075 12/09 A2993 RMK AO2 RAE0857 SLP143 P0000 T01170094 $=
201611140853 METAR KSEA 140853Z 16010KT 10SM -RA SCT030 BKN070 OVC110 12/10 A2995 RMK AO2 SLP149 P0006 60010 T01170100 58004 $=
201611140753 METAR KSEA 140753Z 18007KT 10SM -RA BKN031 BKN055 OVC095 12/09 A2997 RMK AO2 SLP156 P0002 T01170094 401220083 $=
201611140653 METAR KSEA 140653Z 17010KT 10SM -RA SCT034 BKN060 OVC080 12/09 A2997 RMK AO2 SLP155 P0002 T01170089 $=
201611140553 METAR KSEA 140553Z 20003KT 10SM -RA OVC031 12/08 A2996 RMK AO2 RAE22B50 SLP154 P0000 60005 T01170083 10122 20111 56003 $=
201611140453 METAR KSEA 140453Z 16008KT 10SM -RA OVC034 12/08 A2996 RMK AO2 SLP154 P0001 T01170083 $=
201611140353 METAR KSEA 140353Z 17008KT 10SM -RA OVC039 11/08 A2997 RMK AO2 RAB0257 SLP155 P0002 T01110083 $=
201611140253 METAR KSEA 140253Z 17010KT 10SM BKN048 OVC060 12/08 A2997 RMK AO2 RAE24 SLP158 P0001 60002 T01170083 58006 $=
201611140153 METAR KSEA 140153Z 21003KT 10SM -RA BKN060 OVC080 12/08 A2999 RMK AO2 RAB19 SLP163 P0001 T01170083 $=
201611140053 METAR KSEA 140053Z 18006KT 10SM OVC060 12/07 A2998 RMK AO2 SLP159 T01220072 $=
201611132353 METAR KSEA 132353Z 16016KT 10SM OVC060 12/08 A2999 RMK AO2 RAE52 SLP164 P0001 60004 T01170083 10122 20089 56034 $=
201611132253 METAR KSEA 132253Z 16007KT 10SM -RA OVC060 11/09 A3003 RMK AO2 SLP176 P0001 T01110089 $=
201611132153 METAR KSEA 132153Z 14011KT 10SM -RA FEW040 BKN055 OVC070 11/08 A3006 RMK AO2 RAB11 SLP186 P0001 T01110083 $=
201611132053 METAR KSEA 132053Z VRB05KT 10SM FEW040 BKN060 OVC075 11/08 A3009 RMK AO2 SLP198 60001 T01110083 55014 $=
201611131953 METAR KSEA 131953Z 11006KT 10SM SCT046 BKN055 OVC075 11/08 A3009 RMK AO2 SLP197 T01110078 $=
201611131853 METAR KSEA 131853Z 11010KT 10SM FEW010 SCT040 OVC065 11/08 A3012 RMK AO2 RAE22 SLP205 P0001 T01060078 $=
201611131753 METAR KSEA 131753Z 12011KT 10SM -RA OVC065 09/07 A3014 RMK AO2 SLP212 P0005 60011 T00890072 10094 20083 58003 $=
201611131653 METAR KSEA 131653Z 12009KT 4SM -RA BR BKN050 OVC065 09/07 A3017 RMK AO2 RAB02 SLP224 P0006 T00890067 $=
201611131553 METAR KSEA 131553Z 26004KT 10SM BKN037 BKN044 OVC050 09/06 A3017 RMK AO2 SLP223 T00940056 $=
201611131453 METAR KSEA 131453Z 16005KT 10SM BKN050 OVC100 09/05 A3014 RMK AO2 SLP215 T00940050 55000 $=
201611131353 METAR KSEA 131353Z 20004KT 10SM SCT060 BKN110 09/06 A3013 RMK AO2 SLP210 T00890056 $=
201611131253 METAR KSEA 131253Z 15006KT 10SM SCT050 BKN110 BKN160 09/06 A3013 RMK AO2 SLP210 T00940056 $=
201611131153 METAR KSEA 131153Z 15004KT 10SM FEW028 SCT045 BKN180 09/06 A3014 RMK AO2 SLP214 70008 T00890061 10106 20089 58012 $=
201611131053 METAR KSEA 131053Z 13006KT 10SM FEW030 BKN050 BKN100 09/07 A3016 RMK AO2 SLP218 T00940067 $=
201611130953 METAR KSEA 130953Z 12006KT 10SM SCT038 BKN130 09/07 A3017 RMK AO2 SLP223 T00940067 $=
201611130853 METAR KSEA 130853Z 16005KT 10SM SCT043 BKN050 BKN100 10/06 A3018 RMK AO2 SLP226 T01000061 58002 $=
201611130753 METAR KSEA 130753Z 17008KT 10SM FEW045 SCT110 09/07 A3019 RMK AO2 SLP229 T00890067 401440089 $=
201611130653 METAR KSEA 130653Z 18006KT 10SM SCT037 BKN080 BKN230 10/07 A3019 RMK AO2 SLP231 T01000072 $=
201611130553 METAR KSEA 130553Z 16005KT 10SM SCT034 BKN055 11/07 A3018 RMK AO2 SLP228 T01060072 10128 20100 50006 $=
201611130453 METAR KSEA 130453Z 14005KT 10SM SCT080 SCT230 11/07 A3019 RMK AO2 SLP229 T01110072 $=
201611130353 METAR KSEA 130353Z 21013KT 10SM BKN100 BKN220 12/08 A3017 RMK AO2 SLP223 T01170078 $=
201611130253 METAR KSEA 130253Z 20010KT 10SM FEW025 SCT050 BKN110 12/08 A3017 RMK AO2 SLP222 T01170078 51013 $=
201611130153 METAR KSEA 130153Z 22013KT 10SM FEW025 SCT050 BKN110 12/07 A3016 RMK AO2 SLP221 T01220067 $=
201611130053 METAR KSEA 130053Z 22014KT 10SM FEW025 SCT050 OVC120 12/07 A3015 RMK AO2 SLP218 T01220072 $=
201611122353 METAR KSEA 122353Z 21011G19KT 10SM SCT027 BKN050 BKN160 13/08 A3013 RMK AO2 SLP209 60001 T01280078 10144 20128 51025 $=
201611122253 METAR KSEA 122253Z 20012KT 10SM FEW025 BKN038 BKN240 13/08 A3011 RMK AO2 SLP202 T01280078 $=
201611122153 METAR KSEA 122153Z 21017G29KT 10SM FEW025 BKN050 BKN240 14/08 A3008 RMK AO2 PK WND 22029/2120 SLP193 T01390078 $=
201611122053 METAR KSEA 122053Z 21019G27KT 10SM FEW021 BKN050 BKN220 14/09 A3005 RMK AO2 PK WND 21033/1955 RAE10 SLP183 P0000 60001 T01390089 51046=
201611121953 METAR KSEA 121953Z 22015G24KT 10SM -RA OVC019 13/10 A3002 RMK AO2 PK WND 21033/1906 RAB03E32B52 SLP173 P0001 T01330100=
201611121853 METAR KSEA 121853Z 21022G35KT 7SM BKN018 OVC025 14/10 A2998 RMK AO2 PK WND 21036/1838 SLP158 T01390100=
201611121753 METAR KSEA 121753Z 21021G33KT 9SM BKN022 OVC030 14/10 A2992 RMK AO2 PK WND 20036/1712 SLP136 60007 T01440100 10144 20128 53029=
201611121653 METAR KSEA 121653Z 20020G32KT 10SM BKN019 OVC030 14/11 A2988 RMK AO2 PK WND 20033/1641 RAE09 SLP122 P0000 T01440111=
201611121624 SPECI KSEA 121624Z 18016G27KT 10SM BKN021 BKN026 OVC033 14/11 A2985 RMK AO2 PK WND 19027/1617 RAE09 P0000 T01390111=
201611121553 METAR KSEA 121553Z 18013KT 9SM -RA FEW006 BKN033 OVC060 13/11 A2984 RMK AO2 RAB07E25B51 SLP111 P0002 T01330111=
201611121453 METAR KSEA 121453Z 19005KT 10SM BKN035 OVC045 13/11 A2983 RMK AO2 RAE36 SLP107 P0000 60005 T01280106 53006=
201611121353 METAR KSEA 121353Z 20008KT 6SM -RA SCT042 BKN060 OVC070 13/10 A2982 RMK AO2 RAE08B30 SLP102 P0004 T01330100=
201611121253 METAR KSEA 121253Z 17007KT 6SM -RA FEW046 BKN070 BKN120 14/11 A2981 RMK AO2 RAB45 SLP098 P0001 T01390111=
201611121153 METAR KSEA 121153Z 17006KT 10SM FEW055 SCT100 13/11 A2981 RMK AO2 SLP100 60002 70002 T01330106 10144 20128 55003=
201611121053 METAR KSEA 121053Z 17006KT 10SM SCT065 BKN085 13/11 A2980 RMK AO2 RAE40 SLP097 P0001 T01330111=
201611120953 METAR KSEA 120953Z 15007KT 10SM -RA SCT075 OVC095 13/11 A2981 RMK AO2 RAB03 SLP100 P0001 T01330111=
201611120853 METAR KSEA 120853Z 16009KT 10SM SCT070 OVC100 13/11 A2982 RMK AO2 RAB28E48 SLP103 P0000 60000 T01330111 55002=
201611120753 METAR KSEA 120753Z 17005KT 10SM BKN090 OVC100 13/11 A2982 RMK AO2 SLP103 T01330111 401610111=
201611120653 METAR KSEA 120653Z 28004KT 10SM BKN095 OVC110 13/11 A2981 RMK AO2 SLP100 T01330106=
201611120553 METAR KSEA 120553Z 27006KT 10SM FEW060 BKN095 OVC160 14/11 A2983 RMK AO2 SLP106 T01390111 10156 20133 56012=
201611120453 METAR KSEA 120453Z 00000KT 10SM FEW060 OVC110 14/11 A2984 RMK AO2 SLP110 T01390111=
201611120353 METAR KSEA 120353Z 00000KT 10SM BKN120 13/11 A2985 RMK AO2 SLP113 T01330111=
201611120253 METAR KSEA 120253Z 00000KT 10SM FEW060 OVC120 14/11 A2986 RMK AO2 SLP117 T01390111 58010=
201611120153 METAR KSEA 120153Z 00000KT 10SM FEW080 OVC130 14/11 A2988 RMK AO2 SLP125 T01390111=
201611120053 METAR KSEA 120053Z 21004KT 10SM FEW070 OVC110 14/11 A2989 RMK AO2 SLP128 T01440111=
201611112353 METAR KSEA 112353Z VRB04KT 10SM FEW080 BKN150 BKN250 15/11 A2989 RMK AO2 SLP128 T01500111 10161 20139 56004=
201611112253 METAR KSEA 112253Z 00000KT 10SM SCT160 BKN250 16/12 A2989 RMK AO2 SLP129 T01560117=
201611112153 METAR KSEA 112153Z 00000KT 10SM BKN160 OVC200 16/11 A2989 RMK AO2 SLP128 T01560111=
201611112053 METAR KSEA 112053Z 00000KT 10SM BKN160 BKN200 16/11 A2990 RMK AO2 SLP131 T01610111 58020=
201611111953 METAR KSEA 111953Z 00000KT 10SM BKN150 OVC180 15/11 A2993 RMK AO2 SLP140 T01500111=
201611111853 METAR KSEA 111853Z 00000KT 10SM BKN150 OVC180 15/11 A2995 RMK AO2 SLP147 T01500111=
201611111753 METAR KSEA 111753Z 16004KT 10SM CLR 14/10 A2996 RMK AO2 SLP152 T01390100 10144 20111 58001=
201611111653 METAR KSEA 111653Z 00000KT 10SM BKN150 BKN200 13/11 A2997 RMK AO2 SLP156 T01330106=
201611111553 METAR KSEA 111553Z 17004KT 10SM BKN150 12/09 A2998 RMK AO2 SLP159 T01170094=
201611111453 METAR KSEA 111453Z 00000KT 10SM FEW120 OVC150 13/09 A2997 RMK AO2 SLP154 T01280094 56014=
201611111353 METAR KSEA 111353Z 00000KT 10SM BKN160 12/09 A2997 RMK AO2 SLP156 T01170089=
201611111253 METAR KSEA 111253Z 14005KT 10SM BKN140 12/09 A2999 RMK AO2 SLP163 T01170089=
201611111153 METAR KSEA 111153Z 00000KT 10SM BKN140 12/09 A3001 RMK AO2 SLP168 T01170094 10139 20111 57009=
201611111053 METAR KSEA 111053Z 13004KT 10SM OVC140 12/09 A3002 RMK AO2 SLP170 T01220094=
201611110953 METAR KSEA 110953Z 12006KT 10SM OVC140 13/09 A3003 RMK AO2 SLP173 T01280094=
201611110853 METAR KSEA 110853Z 12005KT 10SM OVC190 13/09 A3004 RMK AO2 SLP176 T01280094 50000=
201611110753 METAR KSEA 110753Z 14007KT 10SM BKN200 13/09 A3004 RMK AO2 SLP178 T01280094 401670072=
201611110653 METAR KSEA 110653Z 13005KT 10SM BKN250 13/10 A3003 RMK AO2 SLP177 T01330100=
201611110553 METAR KSEA 110553Z 16004KT 10SM SCT150 BKN250 13/09 A3003 RMK AO2 SLP177 T01330094 10161 20122 53009=
201611110453 METAR KSEA 110453Z 20003KT 10SM SCT140 BKN250 14/09 A3002 RMK AO2 SLP173 T01440094=
201611110353 METAR KSEA 110353Z 15006KT 10SM FEW140 SCT250 14/09 A3001 RMK AO2 SLP168 T01390089=
201611110253 METAR KSEA 110253Z 17004KT 10SM SCT120 SCT250 14/09 A3001 RMK AO2 SLP168 T01390094 58003=
201611110153 METAR KSEA 110153Z 15005KT 10SM SCT130 BKN250 15/09 A3001 RMK AO2 SLP170 T01500094=
201611110053 METAR KSEA 110053Z 16007KT 10SM BKN160 BKN250 16/10 A3002 RMK AO2 SLP171 T01560100=
201611102353 METAR KSEA 102353Z 16006KT 10SM BKN150 BKN250 15/11 A3002 RMK AO2 SLP171 T01500111 10167 20106 56008=
201611102253 METAR KSEA 102253Z 00000KT 10SM BKN150 BKN250 17/12 A3002 RMK AO2 SLP171 ACSL DSNT SE T01670117=
201611102153 METAR KSEA 102153Z 00000KT 10SM FEW160 SCT250 17/11 A3002 RMK AO2 SLP171 ACSL DSNT SE AND W FG BANK W T01670111=
201611102053 METAR KSEA 102053Z 28005KT 10SM BCFG FEW001 SCT160 BKN250 16/11 A3004 RMK AO2 SLP179 ACSL DSNT SE T01560111 58015=
201611101953 METAR KSEA 101953Z 18003KT 10SM BCFG FEW001 SCT160 BKN250 14/11 A3006 RMK AO2 SLP185 VIS S 2 T01390111=
201611101914 SPECI KSEA 101914Z 15003KT 10SM R16L/2200VP6000FT BCFG FEW001 SCT170 BKN250 12/11 A3008 RMK AO2 T01220111=
201611101856 SPECI KSEA 101856Z 18003KT 1 1/2SM R16L/2000V4500FT BR SCT001 SCT170 BKN250 12/11 A3009 RMK AO2 VIS W 3/4 T01170111=
201611101853 METAR KSEA 101853Z 00000KT 1 1/2SM R16L/2000VP6000FT BR SCT001 SCT170 BKN250 12/11 A3009 RMK AO2 SLP195 VIS W 3/4 T01170106=
201611101824 SPECI KSEA 101824Z 00000KT 3SM BCFG FEW001 SCT170 BKN250 11/11 A3009 RMK AO2 T01110111=
201611101753 METAR KSEA 101753Z 14003KT 1 1/4SM R16L/2800VP6000FT BR FEW001 SCT170 BKN250 11/10 A3008 RMK AO2 SLP194 T01060100 10106 20072 53002=
201611101737 SPECI KSEA 101737Z 00000KT 1 1/4SM R16L/0800VP6000FT BR FEW001 SCT170 BKN250 11/10 A3008 RMK AO2 T01060100=
201611101653 METAR KSEA 101653Z 24003KT 1/2SM R16L/0500V0700FT FG BKN001 OVC170 09/09 A3008 RMK AO2 SLP191 T00940089=
201611101647 SPECI KSEA 101647Z 25003KT 1/2SM R16L/0700V6000FT FG BKN001 BKN170 BKN250 09/09 A3007 RMK AO2=
201611101553 METAR KSEA 101553Z 00000KT 10SM BCFG FEW001 BKN170 BKN250 09/09 A3006 RMK AO2 SLP187 T00940089=
201611101529 SPECI KSEA 101529Z 00000KT 10SM BCFG FEW001 BKN170 BKN250 09/08 A3007 RMK AO2 T00890083=
201611101504 SPECI KSEA 101504Z 00000KT 3/4SM R16L/1400VP6000FT BR SCT001 BKN170 BKN250 08/07 A3008 RMK AO2 TWR VIS 5 T00830072=
201611101453 METAR KSEA 101453Z 01003KT 1/2SM R16L/2200VP6000FT FG BKN001 BKN200 08/07 A3008 RMK AO2 TWR VIS 2 SLP191 T00830072 58004=
201611101445 SPECI KSEA 101445Z 00000KT 1/2SM R16L/2200VP6000FT FG BKN001 BKN200 08/08 A3008 RMK AO2 TWR VIS 2 T00830078=
201611101439 SPECI KSEA 101439Z 00000KT 1/4SM R16L/0800VP6000FT FG VV001 08/08 A3008 RMK AO2 TWR VIS 1/2 T00830078=
201611101353 METAR KSEA 101353Z 00000KT 1/4SM R16L/0600V1600FT FG BKN001 08/07 A3009 RMK AO2 TWR VIS 1/2 SLP195 T00780072=
201611101347 SPECI KSEA 101347Z 26004KT 1/4SM R16L/1000V4000FT FG BKN001 08/07 A3009 RMK AO2=
201611101316 SPECI KSEA 101316Z 00000KT 7SM R16L/3500VP6000FT BCFG FEW001 08/07 A3008 RMK AO2 T00830067=
201611101305 SPECI KSEA 101305Z 00000KT 1/2SM R16L/1800V4000FT FG BKN001 08/08 A3008 RMK AO2 T00830078=
201611101253 METAR KSEA 101253Z 00000KT 1/2SM R16L/1200V2200FT FG BKN001 08/08 A3008 RMK AO2 SLP193 T00830078=
201611101203 SPECI KSEA 101203Z 12005KT 1/2SM R16L/P6000FT FG BKN001 09/09 A3009 RMK AO2 T00940089=
201611101153 METAR KSEA 101153Z 11006KT 1SM R16L/3000VP6000FT BCFG BKN001 09/08 A3009 RMK AO2 SLP195 70024 T00940083 10128 20094 58010=
201611101053 METAR KSEA 101053Z VRB03KT 7SM BCFG FEW001 SCT220 10/09 A3011 RMK AO2 SLP203 FG BANK S T01000094=
201611100953 METAR KSEA 100953Z 03003KT 10SM BKN220 11/10 A3010 RMK AO2 SLP197 T01110100=
201611100853 METAR KSEA 100853Z 01005KT 10SM SCT250 11/09 A3012 RMK AO2 SLP205 T01060094 58006=
201611100753 METAR KSEA 100753Z 03007KT 7SM BCFG FEW001 SCT250 12/11 A3013 RMK AO2 SLP208 T01170106 401780106=
201611100736 SPECI KSEA 100736Z 01006KT 7SM R16L/1600VP6000FT BCFG FEW001 SCT250 11/09 A3014 RMK AO2 T01060094=
201611100712 SPECI KSEA 100712Z 33004KT 3/4SM R16L/1000V2000FT BCFG BKN001 11/09 A3015 RMK AO2 T01060094=
201611100703 SPECI KSEA 100703Z 32005KT 3SM R16L/1800V5500FT BCFG FEW001 BKN250 11/09 A3014 RMK AO2 T01060094=
201611100653 METAR KSEA 100653Z 34003KT 7SM FEW005 SCT250 11/09 A3014 RMK AO2 SLP212 T01110094=
201611100553 METAR KSEA 100553Z 05006KT 10SM FEW250 12/11 A3013 RMK AO2 SLP211 T01220106 10178 20122 58013=
201611100453 METAR KSEA 100453Z 06006KT 10SM FEW250 13/12 A3015 RMK AO2 SLP216 T01330117=
201611100353 METAR KSEA 100353Z 01003KT 10SM CLR 14/12 A3018 RMK AO2 SLP225 T01390117=
201611100253 METAR KSEA 100253Z 02006KT 10SM FEW250 15/12 A3017 RMK AO2 SLP224 T01500117 55006=
201611100153 METAR KSEA 100153Z 03006KT 10SM FEW030 SCT250 16/11 A3017 RMK AO2 SLP223 T01560111=
201611100053 METAR KSEA 100053Z 00000KT 10SM FEW030 FEW070 SCT250 17/12 A3018 RMK AO2 SLP226 T01670117=
201611092353 METAR KSEA 092353Z 00000KT 10SM FEW030 SCT070 SCT250 18/12 A3019 RMK AO2 SLP230 60003 T01780122 10178 20133 55001=
201611092253 METAR KSEA 092253Z 30004KT 10SM FEW030 SCT070 SCT250 17/12 A3019 RMK AO2 SLP230 T01720122=
201611092153 METAR KSEA 092153Z 22007KT 10SM FEW028 SCT035 SCT070 17/13 A3020 RMK AO2 SLP231 T01720128=
201611092128 SPECI KSEA 092128Z 20005KT 10SM SCT028 BKN034 BKN070 17/13 A3020 RMK AO2 T01670128=
201611092100 METAR KSEA NIL=
201611092053 METAR KSEA 092053Z 22009KT 10SM BKN023 BKN070 17/13 A3020 RMK AO2 SLP231 60003 T01670128 51009=
201611091953 METAR KSEA 091953Z 18009KT 10SM FEW010 BKN026 BKN065 17/13 A3019 RMK AO2 SLP230 T01670133=
201611091943 SPECI KSEA 091943Z 19009KT 10SM FEW010 BKN028 BKN065 16/13 A3020 RMK AO2 T01610133=
201611091853 METAR KSEA 091853Z 20009KT 10SM FEW010 BKN031 BKN065 15/13 A3019 RMK AO2 DZE1755RAB1755E36 SLP229 P0003 T01500128=
201611091836 SPECI KSEA 091836Z 18007KT 10SM FEW006 SCT025 BKN070 15/13 A3018 RMK AO2 DZE1755RAB1755E36 P0003 T01500133=
201611091753 METAR KSEA 091753Z 17009KT 3SM -DZ BR SCT007 BKN020 OVC065 13/12 A3017 RMK AO2 SLP221 P0012 60021 T01330117 10133 20117 53012=
201611091653 METAR KSEA 091653Z 15007KT 5SM -DZ BR BKN026 BKN037 OVC055 13/12 A3016 RMK AO2 DZE25B50RAB25E50 SLP218 P0001 T01280117=
201611091553 METAR KSEA 091553Z 16006KT 8SM -DZ BKN022 OVC070 12/11 A3014 RMK AO2 RAB42E53 SLP213 P0001 T01220111=
201611091530 SPECI KSEA 091530Z 12008KT 6SM -DZ BR BKN025 BKN036 OVC070 12/11 A3013 RMK AO2 P0000 T01220111=
201611091453 METAR KSEA 091453Z 12005KT 5SM -DZ BR SCT020 OVC034 12/11 A3013 RMK AO2 RAE36DZB50 SLP209 P0005 60007 T01220106 53016=
201611091353 METAR KSEA 091353Z 15003KT 8SM -RA OVC038 12/10 A3011 RMK AO2 SLP202 P0002 T01220100=
201611091253 METAR KSEA 091253Z 18003KT 7SM -RA OVC044 13/09 A3010 RMK AO2 RAB50 SLP199 P0000 T01280094=
201611091153 METAR KSEA 091153Z 16004KT 10SM SCT060 BKN110 13/08 A3008 RMK AO2 SLP192 T01330083 10150 20122 53001=
201611091053 METAR KSEA 091053Z 14010KT 10SM CLR 13/08 A3008 RMK AO2 SLP190 T01330083=
201611090953 METAR KSEA 090953Z 13008KT 10SM FEW050 BKN130 13/08 A3007 RMK AO2 SLP189 T01280083=
201611090853 METAR KSEA 090853Z 12009KT 10SM BKN130 13/09 A3008 RMK AO2 SLP191 T01280089 58001=
201611090753 METAR KSEA 090753Z 13006KT 10SM SCT250 13/09 A3008 RMK AO2 SLP193 T01330094 402110094=
201611090653 METAR KSEA 090653Z 13004KT 10SM CLR 14/09 A3008 RMK AO2 SLP192 T01390094=
201611090553 METAR KSEA 090553Z 12006KT 10SM FEW050 15/10 A3008 RMK AO2 SLP193 T01500100 10189 20144 53013=
201611090453 METAR KSEA 090453Z 17004KT 10SM FEW060 FEW250 15/10 A3007 RMK AO2 SLP188 T01500100=
201611090353 METAR KSEA 090353Z 19006KT 10SM FEW060 FEW250 16/10 A3006 RMK AO2 SLP184 T01560100=
201611090253 METAR KSEA 090253Z 16006KT 10SM FEW060 SCT250 16/10 A3005 RMK AO2 SLP181 T01610100 58001=
201611090153 METAR KSEA 090153Z 17005KT 10SM FEW070 SCT250 16/11 A3005 RMK AO2 SLP181 T01560106=
201611090053 METAR KSEA 090053Z 20005KT 10SM FEW080 SCT250 18/11 A3005 RMK AO2 SLP182 T01780106=
201611082353 METAR KSEA 082353Z 26007KT 10SM FEW080 FEW250 19/11 A3005 RMK AO2 SLP181 T01890106 10211 20161 56009=
201611082253 METAR KSEA 082253Z 20007KT 10SM FEW070 21/11 A3005 RMK AO2 SLP181 T02060106=
201611082153 METAR KSEA 082153Z 19005KT 10SM FEW075 21/10 A3006 RMK AO2 SLP184 T02110100=
201611082053 METAR KSEA 082053Z 14004KT 10SM FEW075 19/11 A3008 RMK AO2 SLP190 T01890106 58010=
201611081953 METAR KSEA 081953Z 28006KT 10SM SCT075 18/11 A3009 RMK AO2 SLP194 T01780106=
201611081853 METAR KSEA 081853Z 00000KT 10SM SCT085 SCT200 18/09 A3010 RMK AO2 SLP197 T01830094=
201611081753 METAR KSEA 081753Z 16003KT 10SM FEW085 16/10 A3011 RMK AO2 SLP200 T01610100 10161 20094 51014=
201611081653 METAR KSEA 081653Z 13005KT 10SM FEW050 14/09 A3010 RMK AO2 SLP198 T01390094=
201611081553 METAR KSEA 081553Z 17005KT 10SM FEW050 10/09 A3008 RMK AO2 SLP193 T01000094=
201611081453 METAR KSEA 081453Z 15003KT 10SM FEW040 FEW200 10/09 A3006 RMK AO2 SLP186 T01000089 51006=
201611081353 METAR KSEA 081353Z 16004KT 10SM FEW200 11/08 A3006 RMK AO2 SLP184 T01060078=
201611081253 METAR KSEA 081253Z 14004KT 10SM SCT200 11/08 A3006 RMK AO2 SLP184 T01060078=
201611081153 METAR KSEA 081153Z 00000KT 10SM SCT200 12/08 A3004 RMK AO2 SLP180 70003 T01170083 10161 20106 58007=
201611081053 METAR KSEA 081053Z 21003KT 10SM SCT200 11/08 A3006 RMK AO2 SLP184 T01110078=
201611080953 METAR KSEA 080953Z 28005KT 10SM BKN200 13/08 A3007 RMK AO2 SLP186 T01280078=
201611080853 METAR KSEA 080853Z 11013KT 10SM BKN200 16/07 A3006 RMK AO2 SLP186 T01560067 58015=
201611080753 METAR KSEA 080753Z 11011KT 10SM BKN200 15/08 A3008 RMK AO2 SLP193 T01500078 401890100=
201611080653 METAR KSEA 080653Z 14005KT 10SM SCT200 12/10 A3010 RMK AO2 SLP198 T01170100=
201611080553 METAR KSEA 080553Z 13004KT 10SM SCT200 12/11 A3011 RMK AO2 SLP202 T01220106 10172 20117 51005=
201611080453 METAR KSEA 080453Z 16003KT 10SM BKN180 12/11 A3011 RMK AO2 SLP201 T01220106=
201611080353 METAR KSEA 080353Z 00000KT 10SM SCT180 13/11 A3010 RMK AO2 SLP199 T01280106=
201611080253 METAR KSEA 080253Z 00000KT 10SM FEW150 SCT250 12/09 A3009 RMK AO2 SLP197 T01220094 53001=
201611080153 METAR KSEA 080153Z 17004KT 10SM FEW140 BKN250 14/09 A3009 RMK AO2 SLP196 T01390094=
201611080053 METAR KSEA 080053Z 12009KT 10SM FEW080 SCT140 OVC240 17/08 A3009 RMK AO2 SLP195 T01720078=
201611072353 METAR KSEA 072353Z 00000KT 10SM FEW080 SCT140 OVC200 15/11 A3009 RMK AO2 SLP195 T01500111 10189 20133 56007=
201611072253 METAR KSEA 072253Z VRB03KT 10SM FEW080 SCT140 OVC200 17/11 A3009 RMK AO2 SLP197 T01670111=
201611072153 METAR KSEA 072153Z 16005KT 10SM FEW070 SCT130 BKN250 18/08 A3010 RMK AO2 SLP199 T01830083=
201611072053 METAR KSEA 072053Z 09006KT 10SM SCT070 SCT130 BKN250 18/08 A3011 RMK AO2 SLP202 T01780083 58006=
201611071953 METAR KSEA 071953Z 14004KT 10SM BKN070 BKN110 OVC200 17/09 A3012 RMK AO2 SLP205 T01670089=
201611071853 METAR KSEA 071853Z 12006KT 10SM SCT065 BKN130 OVC200 14/09 A3012 RMK AO2 SLP207 T01440089=
201611071753 METAR KSEA 071753Z 17006KT 10SM BKN065 OVC120 13/09 A3013 RMK AO2 SLP209 60003 T01330089 10139 20100 51009=
201611071653 METAR KSEA 071653Z 11006KT 10SM BKN065 OVC120 13/08 A3012 RMK AO2 SLP207 T01280078=
201611071553 METAR KSEA 071553Z 36003KT 10SM BKN065 OVC095 11/09 A3011 RMK AO2 RAB1454E07 SLP204 P0000 T01110089=
201611071453 METAR KSEA 071453Z 00000KT 10SM FEW050 BKN065 OVC100 11/09 A3010 RMK AO2 RAE50 SLP200 P0001 60003 T01110089 51008=
201611071353 METAR KSEA 071353Z 04006KT 10SM -RA OVC065 11/09 A3010 RMK AO2 SLP199 P0002 T01110089=
201611071253 METAR KSEA 071253Z 29003KT 9SM -RA OVC070 11/09 A3011 RMK AO2 RAB25 SLP201 P0000 T01060089=
201611071153 METAR KSEA 071153Z 20003KT 10SM SCT055 OVC085 11/08 A3008 RMK AO2 RAB38E47 SLP192 P0000 60001 70002 T01110078 10122 20106 53002=
201611071053 METAR KSEA 071053Z 12007KT 7SM FEW050 SCT090 OVC110 11/08 A3006 RMK AO2 RAE26 SLP186 P0001 T01110078=
201611070953 METAR KSEA 070953Z 14005KT 10SM -RA SCT050 BKN090 OVC120 11/08 A3006 RMK AO2 RAE0857B44 SLP186 P0000 T01110078=
201611070853 METAR KSEA 070853Z 16004KT 10SM -RA SCT060 OVC075 12/08 A3007 RMK AO2 RAB26 SLP189 P0000 60000 T01170078 51003=
201611070753 METAR KSEA 070753Z 12005KT 10SM SCT050 OVC075 12/07 A3007 RMK AO2 SLP189 T01220072 401560089=
201611070653 METAR KSEA 070653Z 13003KT 10SM FEW050 BKN060 OVC090 12/07 A3007 RMK AO2 SLP187 T01170072=
201611070553 METAR KSEA 070553Z 17003KT 10SM SCT060 BKN100 OVC210 12/07 A3006 RMK AO2 SLP186 T01170072 10139 20117 53002=
201611070453 METAR KSEA 070453Z 15008KT 10SM OVC055 12/07 A3004 RMK AO2 SLP180 T01220072=
201611070353 METAR KSEA 070353Z 14006KT 10SM BKN140 13/07 A3004 RMK AO2 SLP179 T01280072=
201611070253 METAR KSEA 070253Z 12005KT 10SM BKN140 14/07 A3006 RMK AO2 SLP184 T01390072 53004=
201611070153 METAR KSEA 070153Z 17005KT 10SM FEW060 BKN150 14/07 A3005 RMK AO2 SLP182 T01390072=
201611070053 METAR KSEA 070053Z 21004KT 10SM SCT060 BKN150 13/08 A3004 RMK AO2 SLP178 T01330078=
201611062353 METAR KSEA 062353Z 22003KT 10SM BKN060 BKN150 14/07 A3004 RMK AO2 SLP180 T01390072 10156 20128 51005=
201611062253 METAR KSEA 062253Z 25007KT 10SM SCT050 BKN170 15/07 A3004 RMK AO2 SLP179 T01500072=
201611062153 METAR KSEA 062153Z 23009KT 10SM FEW044 BKN050 BKN170 15/07 A3004 RMK AO2 SLP177 T01500072=
201611062053 METAR KSEA 062053Z 20007KT 10SM FEW036 SCT044 BKN170 14/07 A3003 RMK AO2 SLP175 T01390072 50002=
201611061953 METAR KSEA 061953Z 20010KT 10SM FEW025 SCT035 BKN180 14/07 A3005 RMK AO2 SLP181 T01440072=
201611061853 METAR KSEA 061853Z 21009KT 10SM FEW020 BKN034 BKN180 14/09 A3004 RMK AO2 SLP178 T01440089=
201611061753 METAR KSEA 061753Z 19010KT 10SM SCT036 BKN050 13/08 A3002 RMK AO2 SLP173 60001 T01280083 10128 20094 53016=
201611061653 METAR KSEA 061653Z 17006KT 10SM OVC039 11/08 A3001 RMK AO2 SLP168 T01110083=
201611061553 METAR KSEA 061553Z 14006KT 10SM BKN037 OVC049 10/08 A2999 RMK AO2 SLP162 T01000078=
201611061453 METAR KSEA 061453Z 16006KT 10SM BKN031 OVC043 10/08 A2998 RMK AO2 RAB04E22 SLP157 P0001 60001 T01000078 51010=
201611061353 METAR KSEA 061353Z 16006KT 10SM OVC047 10/08 A2997 RMK AO2 SLP154 T01000078=
201611061253 METAR KSEA 061253Z 14007KT 10SM SCT032 BKN042 OVC080 10/08 A2996 RMK AO2 SLP151 T01000078=
201611061235 SPECI KSEA 061235Z 14007KT 10SM SCT018 BKN032 OVC090 10/08 A2996 RMK AO2 T01000078=
201611061153 METAR KSEA 061153Z 14007KT 10SM FEW013 BKN020 OVC036 10/08 A2994 RMK AO2 SLP146 60011 70142 T01000078 10111 20089 51019=
201611061121 SPECI KSEA 061121Z 14004KT 10SM BKN014 OVC090 09/08 A2994 RMK AO2 T00890078=
201611061053 METAR KSEA 061053Z 19006KT 10SM FEW026 BKN090 OVC110 09/08 A2993 RMK AO2 RAE09 SLP140 P0001 T00940078=
201611060953 METAR KSEA 060953Z 24006KT 4SM RA BR FEW021 BKN038 OVC048 10/08 A2993 RMK AO2 RAB37 SLP140 P0010 T01000078=
201611060853 METAR KSEA 060853Z 16007KT 10SM FEW025 BKN032 BKN046 11/09 A2989 RMK AO2 RAB16E39 SLP127 P0000 60000 T01110094 53009=
201611060844 SPECI KSEA 060844Z 16007KT 10SM FEW023 BKN034 BKN046 11/09 A2989 RMK AO2 RAB16E39 P0000 T01110094=
201611060753 METAR KSEA 060753Z 18006KT 10SM FEW013 OVC024 11/10 A2988 RMK AO2 RAB29E44 SLP124 P0000 T01110100 401560106=
201611060712 SPECI KSEA 060712Z VRB05KT 10SM FEW005 BKN016 OVC027 11/09 A2986 RMK AO2 T01110094=
201611060653 METAR KSEA 060653Z 14008KT 10SM FEW018 BKN024 OVC032 11/09 A2986 RMK AO2 SLP119 T01110094=
201611060632 SPECI KSEA 060632Z 16008KT 10SM FEW020 BKN026 OVC032 11/09 A2987 RMK AO2 T01110094=
201611060553 METAR KSEA 060553Z 17006KT 10SM FEW040 SCT075 BKN085 11/09 A2986 RMK AO2 RAE25 SLP117 P0002 60040 T01060089 10128 20106 53002=
201611060453 METAR KSEA 060453Z 16008KT 6SM -RA BR BKN030 BKN045 OVC060 11/09 A2986 RMK AO2 SLP117 P0003 T01110094=
201611060353 METAR KSEA 060353Z 14008KT 6SM -RA BR FEW014 SCT025 OVC055 12/11 A2985 RMK AO2 SLP115 P0007 T01220106=
201611060253 METAR KSEA 060253Z 21004KT 5SM -RA BR SCT013 BKN018 OVC042 12/11 A2985 RMK AO2 SLP115 P0008 60028 T01170106 53001=
201611060237 SPECI KSEA 060237Z 22003KT 5SM RA BR BKN014 BKN021 OVC060 12/11 A2985 RMK AO2 P0004 T01170106=
201611060209 SPECI KSEA 060209Z 22005KT 6SM -RA BR FEW007 BKN060 OVC075 12/11 A2985 RMK AO2 P0001 T01170106=
201611060153 METAR KSEA 060153Z 22004KT 8SM -RA SCT004 BKN025 OVC060 12/11 A2985 RMK AO2 SLP112 P0008 T01170111=
201611060140 SPECI KSEA 060140Z 23007KT 2SM -RA BR SCT003 BKN016 OVC055 12/11 A2984 RMK AO2 P0008 T01220111=
201611060134 SPECI KSEA 060134Z 23006KT 2SM -RA BR BKN003 BKN012 OVC046 12/11 A2984 RMK AO2 SFC VIS 3 P0007 T01220111=
201611060116 SPECI KSEA 060116Z 22007KT 2SM RA BR SCT003 BKN020 OVC041 12/12 A2985 RMK AO2 SFC VIS 3 P0005 T01220117=
201611060058 SPECI KSEA 060058Z 23007KT 2SM -RA BR BKN003 BKN009 OVC026 13/12 A2984 RMK AO2 SFC VIS 2 1/2 P0001 T01280117=
201611060053 METAR KSEA 060053Z 22006KT 3SM -RA BR SCT003 BKN012 OVC048 13/12 A2984 RMK AO2 SLP112 P0012 T01280117=
201611060048 SPECI KSEA 060048Z VRB05KT 3SM RA BR FEW003 BKN013 OVC050 13/12 A2984 RMK AO2 P0011=
201611060042 SPECI KSEA 060042Z 21008KT 3SM RA BR SCT014 BKN025 OVC055 13/12 A2985 RMK AO2 P0010 T01280117=
201611052353 METAR KSEA 052353Z 21007KT 3SM -RA BR SCT008 BKN055 OVC070 13/12 A2985 RMK AO2 SLP114 P0010 60035 T01280117 10139 20128 53002=
201611052324 SPECI KSEA 052324Z 20005KT 3SM RA BR FEW003 BKN050 OVC075 13/12 A2985 RMK AO2 SFC VIS 4 P0004 T01280122=
201611052253 METAR KSEA 052253Z 19006KT 9SM -RA FEW029 BKN070 OVC080 13/12 A2985 RMK AO2 SLP113 P0007 T01330122=
201611052247 SPECI KSEA 052247Z 19006KT 6SM -RA BR SCT029 SCT049 OVC070 13/12 A2984 RMK AO2 P0007=
201611052237 SPECI KSEA 052237Z VRB05KT 3SM -RA BR BKN027 BKN037 OVC055 13/12 A2985 RMK AO2 P0006 T01280117=
201611052219 SPECI KSEA 052219Z 23005KT 2SM -RA BR SCT027 BKN036 OVC055 13/12 A2985 RMK AO2 P0003 T01280117=
201611052153 METAR KSEA 052153Z 19005KT 6SM -RA BR FEW045 BKN060 OVC075 13/12 A2984 RMK AO2 SLP112 P0004 T01330122=
201611052053 METAR KSEA 052053Z 15009KT 7SM -RA FEW035 BKN075 OVC085 13/12 A2985 RMK AO2 RAB20 SLP115 P0002 60014 T01330117 58012=
201611051953 METAR KSEA 051953Z 16007KT 10SM SCT032 BKN040 OVC075 13/12 A2988 RMK AO2 RAE51 SLP124 P0007 T01280117=
201611051853 METAR KSEA 051853Z 21009KT 4SM RA BR OVC035 13/12 A2989 RMK AO2 SLP127 P0005 T01330117=
201611051753 METAR KSEA 051753Z 14010KT 4SM -RA BR FEW009 BKN030 OVC070 13/12 A2989 RMK AO2 SLP127 P0010 60056 T01330117 10139 20117 50010=
201611051720 SPECI KSEA 051720Z 14009KT 5SM -RA BR FEW005 BKN035 OVC065 13/12 A2990 RMK AO2 P0004 T01280117=
201611051653 METAR KSEA 051653Z 16009KT 4SM RA BR FEW035 OVC070 13/12 A2991 RMK AO2 SLP134 P0011 T01280117=
201611051628 SPECI KSEA 051628Z 18006KT 6SM -RA BR FEW040 BKN065 OVC080 12/12 A2991 RMK AO2 P0005 T01220117=
201611051550 METAR KSEA 051550Z 20006KT 3SM RA BR SCT004 BKN007 OVC048 12/12 A2992 RMK AO2 RAB02 SLP137 P0027 T01220117=
201611051549 SPECI KSEA 051549Z 21006KT 3SM RA BR SCT004 BKN007 OVC048 12/12 A2992 RMK AO2 RAB02 P0027=
201611051534 SPECI KSEA 051534Z 24007KT 1 3/4SM +RA BR BKN007 OVC035 12/11 A2991 RMK AO2 RAB02 P0017 T01220111=
201611051517 SPECI KSEA 051517Z 27008KT 2 1/2SM +RA BR FEW009 OVC041 12/11 A2990 RMK AO2 RAB02 P0006 T01220106=
201611051453 METAR KSEA 051453Z 31005KT 10SM OVC046 12/11 A2986 RMK AO2 RAE24B41E50 SLP116 P0000 60008 T01220106 55019=
201611051353 METAR KSEA 051353Z 08006KT 10SM -RA BKN050 BKN060 OVC110 13/10 A2985 RMK AO2 SLP113 P0004 T01280100=
201611051253 METAR KSEA 051253Z 00000KT 6SM RA BR BKN060 OVC075 13/11 A2990 RMK AO2 RAB13 SLP130 P0004 T01280106=
201611051153 METAR KSEA 051153Z 27004KT 10SM OVC095 13/09 A2991 RMK AO2 SLP135 T01280094 10156 20128 58010=
201611051053 METAR KSEA 051053Z 23004KT 10SM SCT080 BKN110 13/09 A2992 RMK AO2 SLP137 T01330089=
201611050953 METAR KSEA 050953Z 14005KT 10SM SCT075 OVC100 14/08 A2994 RMK AO2 SLP142 T01390083=
201611050853 METAR KSEA 050853Z 20005KT 10SM SCT080 BKN120 14/08 A2994 RMK AO2 SLP144 T01440083 56005=
201611050753 METAR KSEA 050753Z 17004KT 10SM SCT085 OVC140 15/08 A2995 RMK AO2 SLP148 T01500078 401720056=
201611050653 METAR KSEA 050653Z 13005KT 10SM SCT060 BKN075 OVC120 15/08 A2994 RMK AO2 SLP143 T01500083=
201611050553 METAR KSEA 050553Z 03003KT 10SM BKN060 BKN080 OVC110 14/09 A2996 RMK AO2 SLP150 60000 T01390094 10161 20133 55004=
201611050453 METAR KSEA 050453Z 14008KT 10SM SCT070 BKN085 OVC140 16/08 A2995 RMK AO2 SLP149 T01610083=
201611050353 METAR KSEA 050353Z 17004KT 10SM FEW050 BKN110 OVC150 15/09 A2996 RMK AO2 RAE0258 SLP153 P0000 T01500094=
201611050253 METAR KSEA 050253Z 10005KT 10SM -RA FEW055 BKN090 OVC120 15/09 A2997 RMK AO2 RAB49 SLP154 P0000 60000 T01500094 58010=
201611050153 METAR KSEA 050153Z VRB03KT 10SM BKN130 OVC200 15/08 A2999 RMK AO2 SLP161 T01500083=
201611050053 METAR KSEA 050053Z 17004KT 10SM SCT160 BKN250 13/08 A3000 RMK AO2 SLP166 T01330083=
201611042353 METAR KSEA 042353Z 00000KT 10SM SCT160 BKN250 15/09 A3000 RMK AO2 SLP165 T01500089 10172 20133 55010=
201611042253 METAR KSEA 042253Z 10003KT 10SM SCT160 BKN250 17/08 A3000 RMK AO2 SLP164 T01720083=
201611042153 METAR KSEA 042153Z 24004KT 10SM FEW040 FEW150 BKN250 17/08 A3002 RMK AO2 SLP171 T01670083=
201611042053 METAR KSEA 042053Z 24005KT 10SM FEW040 FEW150 BKN250 17/08 A3003 RMK AO2 SLP175 T01720078 58011=
201611041953 METAR KSEA 041953Z 18005KT 10SM FEW040 FEW120 SCT250 16/08 A3005 RMK AO2 SLP182 T01610078=
201611041853 METAR KSEA 041853Z VRB03KT 10SM FEW050 BKN250 14/08 A3006 RMK AO2 SLP186 T01440083=
201611041753 METAR KSEA 041753Z 24004KT 10SM FEW080 BKN250 13/09 A3006 RMK AO2 SLP186 T01330094 10133 20056 51017=
201611041653 METAR KSEA 041653Z 16003KT 10SM FEW080 BKN250 10/08 A3005 RMK AO2 SLP182 T01000083=
201611041617 SPECI KSEA 041617Z 00000KT 10SM R16L/0600VP6000FT BCFG FEW000 FEW180 BKN250 08/07 A3004 RMK AO2 T00780067=
201611041607 SPECI KSEA 041607Z 00000KT 6SM R16L/0500V0800FT BCFG FEW000 FEW180 BKN250 08/06 A3004 RMK AO2 VIS W-N 1 T00780061=
201611041553 METAR KSEA 041553Z 22003KT 6SM R16L/3500VP6000FT BCFG FEW000 FEW180 BKN250 07/06 A3003 RMK AO2 SLP178 VIS SW-NW 1 T00720061=
201611041453 METAR KSEA 041453Z 15006KT 10SM FEW180 BKN250 08/05 A3001 RMK AO2 SLP170 FG BANK W T00780050 58005=
201611041353 METAR KSEA 041353Z 14005KT 10SM FEW250 07/06 A3003 RMK AO2 SLP175 T00720056=
201611041253 METAR KSEA 041253Z 17004KT 7SM R16L/1600VP6000FT BCFG FEW001 FEW250 06/05 A3003 RMK AO2 SLP178 T00560050=
201611041153 METAR KSEA 041153Z 00000KT 10SM FEW001 07/06 A3003 RMK AO2 SLP174 T00670056 10133 20067 58015=
201611041053 METAR KSEA 041053Z 00000KT 10SM FEW001 08/07 A3005 RMK AO2 SLP181 T00780072=
201611041013 SPECI KSEA 041013Z 00000KT 7SM BCFG FEW001 07/07 A3006 RMK AO2 T00720067=
201611040953 METAR KSEA 040953Z 15003KT 1/2SM R16L/2800V5500FT FG BKN001 08/07 A3007 RMK AO2 SLP189 T00780072=
201611040853 METAR KSEA 040853Z 00000KT 10SM CLR 09/07 A3007 RMK AO2 SLP189 T00940067 56020=
201611040753 METAR KSEA 040753Z 09007KT 10SM FEW250 11/07 A3008 RMK AO2 SLP193 T01110072 401830089=
201611040653 METAR KSEA 040653Z 03003KT 10SM SCT250 11/07 A3012 RMK AO2 SLP204 T01060072=
201611040553 METAR KSEA 040553Z 00000KT 10SM SCT250 10/07 A3013 RMK AO2 SLP210 T01000072 10167 20100 56008=
201611040453 METAR KSEA 040453Z 00000KT 10SM SCT250 11/08 A3014 RMK AO2 SLP212 T01110078=
201611040353 METAR KSEA 040353Z 05003KT 10SM R16L/5000VP6000FT SCT220 14/08 A3014 RMK AO2 SLP213 T01390083=
201611040253 METAR KSEA 040253Z 03006KT 10SM FEW250 13/08 A3015 RMK AO2 SLP217 T01330083 56015=
201611040153 METAR KSEA 040153Z 36004KT 10SM FEW250 13/08 A3017 RMK AO2 SLP221 T01280078=
201611040053 METAR KSEA 040053Z 30003KT 10SM SCT250 14/09 A3018 RMK AO2 SLP226 T01390089=
201611040000 METAR KSEA NIL=
201611032353 METAR KSEA 032353Z 28004KT 10SM SCT250 17/09 A3020 RMK AO2 SLP233 T01670094 10183 20133 56024=
201611032253 METAR KSEA 032253Z 28005KT 10SM SCT250 18/09 A3022 RMK AO2 SLP237 T01830094=
201611032153 METAR KSEA 032153Z 00000KT 10SM FEW020 SCT250 18/08 A3024 RMK AO2 SLP248 T01780083=
201611032053 METAR KSEA 032053Z 00000KT 10SM FEW010 BKN200 16/11 A3027 RMK AO2 SLP257 T01610106 56011=
201611031953 METAR KSEA 031953Z 25004KT 10SM FEW040 SCT150 SCT200 15/10 A3028 RMK AO2 SLP259 T01500100=
201611031853 METAR KSEA 031853Z 16003KT 10SM FEW040 SCT150 SCT200 14/09 A3028 RMK AO2 SLP261 T01440089=
201611031753 METAR KSEA 031753Z 00000KT 10SM FEW040 FEW150 SCT200 13/09 A3030 RMK AO2 SLP268 T01330094 10133 20089 50009=
201611031653 METAR KSEA 031653Z 13005KT 10SM FEW040 SCT150 SCT200 11/08 A3031 RMK AO2 SLP269 T01110083=
201611031553 METAR KSEA 031553Z 14008KT 10SM FEW041 SCT200 11/09 A3029 RMK AO2 SLP265 T01110089=
201611031453 METAR KSEA 031453Z 15005KT 10SM FEW010 SCT050 SCT200 10/08 A3028 RMK AO2 SLP259 T01000083 53008=
201611031353 METAR KSEA 031353Z 15005KT 10SM FEW050 FEW120 10/08 A3026 RMK AO2 SLP252 T01000083=
201611031253 METAR KSEA 031253Z 17005KT 10SM FEW050 09/08 A3025 RMK AO2 SLP250 T00890083=
201611031153 METAR KSEA 031153Z 22003KT 10SM FEW050 11/09 A3025 RMK AO2 SLP250 60013 70043 T01060094 10117 20094 51020=
201611031053 METAR KSEA 031053Z 20008G16KT 10SM BKN050 11/10 A3024 RMK AO2 SLP248 T01110100=
201611030953 METAR KSEA 030953Z 20004KT 10SM FEW001 SCT060 10/09 A3022 RMK AO2 SLP241 T01000094=
201611030923 SPECI KSEA 030923Z 25005KT 9SM FEW001 BKN060 11/09 A3021 RMK AO2 T01060094=
201611030853 METAR KSEA 030853Z 19006KT 10SM SCT080 10/09 A3019 RMK AO2 SLP230 60013 T01000089 53007=
201611030753 METAR KSEA 030753Z 12006KT 10SM BKN080 OVC095 12/10 A3016 RMK AO2 RAE45 SLP221 P0005 T01170100 401330106=
201611030653 METAR KSEA 030653Z 15004KT 9SM -RA OVC060 11/11 A3019 RMK AO2 SLP231 P0008 T01110106=
201611030553 METAR KSEA 030553Z 25011KT 10SM -RA FEW010 OVC060 12/10 A3017 RMK AO2 SLP223 P0002 60004 T01170100 10133 20117 53036=
201611030453 METAR KSEA 030453Z 15010KT 10SM -RA OVC070 13/09 A3010 RMK AO2 SLP198 P0002 T01280089=
201611030353 METAR KSEA 030353Z 15006KT 10SM -RA BKN065 OVC080 13/10 A3007 RMK AO2 RAB41 SLP190 P0000 T01280100=
201611030253 METAR KSEA 030253Z 14004KT 10SM OVC075 12/10 A3006 RMK AO2 SLP187 60000 T01170100 53029=
201611030153 METAR KSEA 030153Z 28003KT 10SM BKN080 OVC100 12/11 A3003 RMK AO2 RAE21 SLP176 P0000 T01170106=
201611030053 METAR KSEA 030053Z 33004KT 10SM -RA FEW080 OVC100 12/11 A3000 RMK AO2 RAB50 SLP166 P0000 T01170106=
201611022353 METAR KSEA 022353Z 28004KT 10SM BKN060 BKN075 OVC095 12/11 A2998 RMK AO2 SLP157 60003 T01220111 10133 20117 55008=
201611022253 METAR KSEA 022253Z 12006KT 10SM SCT060 BKN080 OVC110 13/11 A2997 RMK AO2 SLP155 T01330106=
201611022153 METAR KSEA 022153Z 15005KT 10SM FEW045 SCT070 BKN120 OVC180 13/11 A2999 RMK AO2 SLP160 T01280106=
201611022053 METAR KSEA 022053Z 11007KT 10SM SCT046 OVC080 13/11 A3000 RMK AO2 RAE52 SLP165 P0002 60003 T01280106 58004=
201611021953 METAR KSEA 021953Z 10005KT 9SM -RA OVC046 12/09 A3002 RMK AO2 SLP173 P0001 T01220094=
201611021853 METAR KSEA 021853Z 11006KT 10SM -RA FEW025 OVC039 12/09 A3002 RMK AO2 RAE29B51 SLP173 P0000 T01170094=
201611021753 METAR KSEA 021753Z 11006KT 5SM -RA FEW025 OVC036 12/09 A3001 RMK AO2 SLP169 P0002 60023 T01170089 10117 20106 50009=
201611021653 METAR KSEA 021653Z 11009KT 10SM -RA FEW013 OVC037 11/09 A3002 RMK AO2 SLP172 P0007 T01110089=
201611021553 METAR KSEA 021553Z 15005KT 5SM -RA OVC038 11/08 A3002 RMK AO2 SLP170 P0006 T01110083=
201611021453 METAR KSEA 021453Z 11011G19KT 9SM -RA OVC046 11/08 A2998 RMK AO2 SLP160 P0002 60008 T01060083 56014 $=
201611021353 METAR KSEA 021353Z 11011KT 8SM -RA BKN055 OVC075 11/08 A2999 RMK AO2 RAB04 SLP160 P0003 T01060078 $=
201611021253 METAR KSEA 021253Z 11010KT 10SM BKN060 OVC075 11/08 A3001 RMK AO2 RAE47 SLP167 P0003 T01110078 $=
201611021153 METAR KSEA 021153Z 11007KT 10SM -RA SCT048 OVC060 11/08 A3003 RMK AO2 RAB05 SLP174 P0003 60003 70022 T01060078 10128 20106 58005 $=
201611021053 METAR KSEA 021053Z 12007KT 10SM OVC060 11/07 A3004 RMK AO2 RAB40E51 SLP179 P0000 T01110072 $=
201611020953 METAR KSEA 020953Z 14005KT 10SM BKN070 OVC090 12/07 A3005 RMK AO2 SLP181 T01170067 $=
201611020853 METAR KSEA 020853Z 21003KT 10SM OVC100 12/06 A3004 RMK AO2 SLP179 T01220056 53005 $=
201611020753 METAR KSEA 020753Z 19006KT 10SM BKN100 13/06 A3002 RMK AO2 SLP172 T01280056 401330100 $=
201611020653 METAR KSEA 020653Z 19008KT 10SM BKN090 12/06 A3003 RMK AO2 SLP174 T01220061 $=
201611020553 METAR KSEA 020553Z 16005KT 10SM SCT085 BKN100 12/08 A3003 RMK AO2 SLP174 60001 T01170078 10133 20111 50001 $=
201611020453 METAR KSEA 020453Z 16006KT 10SM FEW040 BKN100 OVC200 12/08 A3003 RMK AO2 SLP175 T01170083 $=
201611020353 METAR KSEA 020353Z 13007KT 10SM FEW040 SCT080 BKN120 OVC200 12/08 A3002 RMK AO2 SLP172 T01170083 $=
201611020253 METAR KSEA 020253Z 17006KT 10SM BKN060 OVC075 12/09 A3002 RMK AO2 RAB15E50 SLP173 P0001 60001 T01170089 51018 $=
201611020153 METAR KSEA 020153Z 20008KT 10SM FEW030 SCT040 OVC060 12/09 A3002 RMK AO2 RAB21E31 SLP171 P0000 T01220089 $=
201611020053 METAR KSEA 020053Z 21013KT 10SM SCT026 BKN034 OVC080 13/08 A2999 RMK AO2 RAB06E24 SLP163 P0000 T01280083 $=
201611020046 SPECI KSEA 020046Z 20010KT 10SM SCT026 OVC032 13/08 A2999 RMK AO2 RAB06E24 P0000 T01280083 $=
201611020031 SPECI KSEA 020031Z 21011KT 10SM BKN026 OVC032 13/08 A2999 RMK AO2 RAB06E24 P0000 T01280083 $=
201611012353 METAR KSEA 012353Z 19011KT 10SM SCT027 BKN036 OVC060 13/08 A2997 RMK AO2 SLP155 60000 T01330083 10133 20111 53004 $=
201611012253 METAR KSEA 012253Z 20010KT 10SM FEW026 SCT035 OVC048 13/09 A2996 RMK AO2 SLP153 T01280089 $=
201611012153 METAR KSEA 012153Z 19013KT 10SM FEW025 BKN036 OVC050 13/09 A2996 RMK AO2 SLP152 T01280089 $=
201611012053 METAR KSEA 012053Z 19010KT 10SM FEW008 SCT030 BKN047 OVC200 12/09 A2996 RMK AO2 SLP150 60000 T01220094 51013 $=
201611012039 SPECI KSEA 012039Z 19012KT 10SM FEW008 FEW025 BKN047 OVC200 13/09 A2995 RMK AO2 T01280094 $=
201611011953 METAR KSEA 011953Z 21013KT 10SM FEW008 BKN027 BKN050 BKN200 13/10 A2994 RMK AO2 SLP146 SHRA SE T01280100 $=
201611011938 SPECI KSEA 011938Z 20006KT 10SM FEW008 BKN026 BKN200 12/11 A2994 RMK AO2 SHRA S T01220106 $=
201611011853 METAR KSEA 011853Z 18008KT 10SM FEW006 SCT020 OVC030 12/10 A2993 RMK AO2 RAE1755 SLP143 P0000 T01170100 $=
201611011846 SPECI KSEA 011846Z 17007KT 10SM FEW006 SCT020 OVC030 12/10 A2993 RMK AO2 RAE1755 P0000 T01170100 $=
201611011803 SPECI KSEA 011803Z 18007KT 10SM FEW006 SCT017 OVC025 11/10 A2992 RMK AO2 RAE1755 P0000 T01110100 $=
201611011753 METAR KSEA 011753Z 19006KT 8SM -RA SCT006 BKN013 OVC021 11/10 A2992 RMK AO2 RAB46 SLP139 P0000 60018 T01110100 10111 20100 51007 $=
201611011747 SPECI KSEA 011747Z 18006KT 4SM -RA BR BKN008 BKN013 OVC019 11/09 A2992 RMK AO2 RAB46 P0000 $=
201611011732 SPECI KSEA 011732Z 17008KT 7SM SCT006 OVC014 11/09 A2991 RMK AO2 T01110094 $=
201611011653 METAR KSEA 011653Z 16006KT 8SM BKN006 OVC017 11/09 A2991 RMK AO2 RAE37 SLP135 P0000 T01060094 $=
201611011636 SPECI KSEA 011636Z 15009KT 4SM -RA BR BKN006 OVC014 11/09 A2990 RMK AO2 P0000 T01060094 $=
201611011621 SPECI KSEA 011621Z 16006KT 2 1/2SM -RA BR BKN006 BKN014 11/09 A2990 RMK AO2 P0000 T01060094 $=
201611011553 METAR KSEA 011553Z 18006KT 8SM -RA BKN006 OVC013 11/09 A2990 RMK AO2 RAE24B42 SLP131 P0003 T01060094 $=
201611011542 SPECI KSEA 011542Z 19004KT 8SM -RA SCT006 BKN013 OVC027 11/09 A2989 RMK AO2 RAE24B42 P0003 T01060094 $=
201611011527 SPECI KSEA 011527Z 19003KT 10SM SCT008 OVC021 11/09 A2989 RMK AO2 RAE24 P0002 T01060094 $=
201611011453 METAR KSEA 011453Z 20007KT 7SM -RA FEW008 OVC011 11/09 A2987 RMK AO2 SLP123 P0005 60015 T01060094 51012 $=
201611011431 SPECI KSEA 011431Z 22007KT 7SM -RA SCT006 BKN015 OVC047 11/09 A2987 RMK AO2 P0002 T01060094 $=
201611011353 METAR KSEA 011353Z 22011G17KT 5SM -RA BR FEW003 BKN007 OVC019 11/09 A2987 RMK AO2 SLP120 P0007 T01060094 $=
201611011338 SPECI KSEA 011338Z 23009KT 3SM RA BR BKN003 BKN009 OVC018 11/09 A2987 RMK AO2 P0004 T01060094 $=
201611011253 METAR KSEA 011253Z 20008KT 4SM -RA BR FEW003 OVC008 11/09 A2985 RMK AO2 SLP115 P0003 T01060094 $=
201611011236 SPECI KSEA 011236Z 20007KT 3SM -RA BR BKN008 OVC020 11/09 A2985 RMK AO2 P0002 T01060094 $=
201611011153 METAR KSEA 011153Z 21006KT 10SM -RA FEW008 BKN019 OVC046 10/09 A2984 RMK AO2 RAB02 SLP110 P0001 60012 70069 T01000094 10100 20100 53006=
201611011053 METAR KSEA 011053Z 17007KT 10SM BKN021 OVC026 10/09 A2983 RMK AO2 RAE28 SLP106 P0001 T01000089=
201611010953 METAR KSEA 010953Z 15005KT 6SM -RA BR FEW008 BKN026 OVC032 10/09 A2982 RMK AO2 RAB29 SLP105 P0000 T01000089=
201611010914 SPECI KSEA 010914Z 14005KT 6SM BR SCT006 BKN015 OVC029 10/09 A2982 RMK AO2 T01000089=
201611010853 METAR KSEA 010853Z 14006KT 7SM BKN005 OVC010 10/09 A2982 RMK AO2 RAE28 SLP104 P0001 60010 T01000089 56002=
201611010753 METAR KSEA 010753Z 16004KT 3SM -RA BR BKN005 OVC013 10/09 A2982 RMK AO2 SLP104 P0002 T01000089 401390100=
201611010736 SPECI KSEA 010736Z 17005KT 3SM -RA BR BKN005 OVC013 10/09 A2982 RMK AO2 P0001 T01000089=
201611010653 METAR KSEA 010653Z 15005KT 3SM -RA BR SCT005 OVC013 10/09 A2982 RMK AO2 SLP105 P0007 T01000089=
201611010624 SPECI KSEA 010624Z 10008KT 6SM -RA BR FEW005 BKN013 OVC021 10/08 A2982 RMK AO2 P0006 T01000083=
201611010553 METAR KSEA 010553Z 11008KT 3SM -RA BR SCT003 BKN016 OVC026 10/08 A2983 RMK AO2 SLP106 P0008 60016 T01000083 10128 20100 50001=
201611010531 SPECI KSEA 010531Z 09008KT 3SM -RA BR FEW003 BKN019 OVC028 10/08 A2982 RMK AO2 P0006 T01000083=
201611010505 SPECI KSEA 010505Z 09007KT 5SM -RA BR FEW013 BKN019 OVC032 10/08 A2982 RMK AO2 P0003 T01000083=
201611010453 METAR KSEA 010453Z 11005KT 5SM RA BR FEW013 SCT019 OVC034 10/08 A2983 RMK AO2 SLP107 P0005 T01000083=
201611010353 METAR KSEA 010353Z 13004KT 10SM -RA BKN038 OVC049 11/08 A2983 RMK AO2 RAB50 SLP106 P0000 T01060083=
201611010253 METAR KSEA 010253Z 16004KT 10SM FEW030 OVC060 11/08 A2982 RMK AO2 RAE50 SLP106 P0002 60003 T01060083 56001=
201611010153 METAR KSEA 010153Z 19007KT 10SM -RA FEW030 OVC060 11/08 A2982 RMK AO2 SLP105 P0001 T01110083=
201611010053 METAR KSEA 010053Z 18009KT 10SM -RA FEW037 BKN070 OVC100 12/08 A2982 RMK AO2 RAB53 SLP103 P0000 T01170083=

# No short TAF reports from KSEA in databse.

###################################
#  large TAF from KSEA
###################################
201611302324 TAF KSEA 302324Z 0100/0206 21014KT P6SM BKN030 BKN120 FM010200
                       20010KT P6SM SCT030 BKN040 FM010600 19008KT
                       P6SM BKN025 BKN040 FM011200 18006KT P6SM
                       BKN020 OVC035=
201611302102 KSEA 302102Z 3021/0124 21015G26KT P6SM FEW015 BKN025 BKN120 FM010200
                       20012G20KT P6SM SCT025 BKN040 FM010600 19008KT
                       P6SM BKN025 BKN040 FM011200 18006KT P6SM
                       BKN020 OVC035=
201611301720 TAF KSEA 301720Z 3018/0124 18018G24KT P6SM BKN016 BKN025 OVC120
                       FM302100 21012KT P6SM SCT025 BKN040 FM010600
                       19008KT P6SM BKN025 BKN040 FM011200 18006KT
                       P6SM BKN020 OVC035=
201611301358 KSEA 301358Z 3014/0118 19012G20KT P6SM VCSH SCT015 BKN025 OVC040
                       TEMPO 3014/3017 -SHRA SCT010 OVC020 FM301800
                       21012G22KT P6SM VCSH BKN025 BKN040 FM302100
                       21012KT P6SM VCSH SCT025 BKN040 FM010600
                       19008KT P6SM VCSH BKN025 BKN040 FM011200
                       18006KT P6SM BKN020 OVC035=
201611301121 TAF KSEA 301121Z 3012/0118 19012G20KT P6SM -SHRA BKN020 OVC030
                       TEMPO 3012/3016 SCT020 OVC035 FM301800 21012G22KT
                       P6SM VCSH BKN025 BKN040 FM302100 21012KT
                       P6SM VCSH SCT025 BKN040 FM010600 19008KT
                       P6SM VCSH BKN025 BKN040 FM011200 18006KT
                       P6SM BKN020 OVC035=
201611300903 KSEA 300903Z 3009/0112 15008KT P6SM -RA OVC035 FM301000 18010KT
                       P6SM -RA BKN020 OVC030 FM301300 20012KT
                       P6SM -SHRA BKN015 OVC025 FM301800 21012KT
                       P6SM VCSH BKN025 BKN040 FM302100 21012KT
                       P6SM VCSH SCT025 BKN040 FM010600 19008KT
                       P6SM VCSH BKN025 BKN040=
201611300617 KSEA 300617Z 3006/0112 15008KT P6SM SCT035 OVC070 FM300700 15008KT
                       P6SM -RA OVC035 FM301000 18010KT P6SM -RA
                       BKN020 OVC030 FM301300 20012KT P6SM -SHRA
                       BKN015 OVC025 FM301800 21012KT P6SM VCSH
                       BKN025 BKN040 FM302100 21012KT P6SM VCSH
                       SCT025 BKN040 FM010600 19008KT P6SM VCSH
                       BKN025 BKN040=
201611300306 KSEA 300306Z 3003/0106 15006KT P6SM SCT035 OVC070 FM300800 15008KT
                       P6SM -RA OVC030 FM301000 18010KT P6SM -RA
                       BKN015 OVC030 FM301800 21012KT P6SM VCSH
                       BKN025 BKN040=
201611292334 TAF KSEA 292334Z 3000/0106 15007KT P6SM SCT050 BKN120 BKN250 FM300300
                       13006KT P6SM SCT025 OVC070 FM300800 14008KT
                       P6SM -RA OVC035 FM301000 18009KT P6SM -RA
                       BKN015 OVC030 FM301800 21011KT P6SM VCSH
                       OVC020=
201611292102 TAF AMD KSEA 292102Z 2921/3024 18004KT P6SM FEW012 BKN040 BKN200
                       FM300100 14006KT P6SM SCT025 OVC045 FM300800
                       14009KT 6SM -RA BKN015 OVC030 FM301800 19012KT
                       P6SM -RA OVC015=
201611291733 TAF KSEA 291733Z 2918/3024 14005KT P6SM BKN010 OVC015 FM292000
                       17005KT P6SM OVC019 FM292200 17005KT P6SM
                       BKN025 FM300100 14006KT P6SM SCT025 OVC045
                       FM300800 14009KT 6SM -RA BKN015 OVC030 FM301800
                       19012KT P6SM -RA OVC015=
201611291418 KSEA 291418Z 2914/3018 VRB03KT P6SM BKN015 OVC040 FM291600 15005KT
                       P6SM BKN015 OVC030 FM292000 18008KT P6SM
                       BKN025 OVC045 FM292200 16008KT P6SM SCT025
                       OVC045 FM300800 16010KT 6SM -RA BKN015 OVC030
                       FM301200 20010KT P6SM -SHRA BKN015 OVC030=
201611291120 TAF KSEA 291120Z 2912/3018 VRB03KT P6SM BKN011 OVC040
                      TEMPO 2912/2916 SCT011 OVC030 FM291600 15005KT
                       P6SM BKN015 OVC030 FM292000 18008KT P6SM
                       BKN025 OVC045 FM292200 16008KT P6SM SCT025
                       OVC045 FM300800 16010KT 6SM -RA BKN015 OVC030
                       FM301200 20010KT P6SM -SHRA BKN015 OVC030=
201611291102 KSEA 291102Z 2911/3012 VRB03KT P6SM -SHRA BKN005 OVC035 FM291200
                       VRB03KT P6SM OVC011 FM292000 18008KT P6SM
                       BKN025 OVC045 FM292200 16008KT P6SM SCT025
                       OVC045=
201611290908 TAF AMD KSEA 290908Z 2909/3012 VRB03KT P6SM SCT012 BKN025 OVC035
                       TEMPO 2909/2912 BKN012 OVC025 FM291200 VRB03KT
                       P6SM OVC011 FM292000 18008KT P6SM BKN025
                       OVC045 FM292200 16008KT P6SM SCT025 OVC045=
201611290522 TAF KSEA 290522Z 2906/3012 VRB03KT P6SM BKN012 BKN035
                      TEMPO 2906/2910 SCT012 BKN035 FM291000 VRB03KT
                       P6SM OVC011 FM292000 18008KT P6SM BKN025
                       OVC045 FM292200 16008KT P6SM SCT025 OVC045=
201611290306 KSEA 290306Z 2903/3006 VRB03KT P6SM FEW020 SCT035 BKN060 FM290600
                       VRB03KT P6SM SCT015 BKN025 FM291000 VRB03KT
                       P6SM OVC011 FM292000 18008KT P6SM BKN025
                       OVC045 FM292200 16008KT P6SM SCT025 OVC045=
201611282325 TAF KSEA 282325Z 2900/3006 14006KT P6SM FEW020 SCT035 BKN070 FM290600
                       16005KT P6SM SCT015 BKN025 FM291000 16005KT
                       P6SM OVC011 FM292000 18008KT P6SM BKN025
                       OVC060=
201611282055 KSEA 282055Z 2821/2924 21006KT P6SM SCT020 BKN070
                      TEMPO 2821/2824 BKN020 OVC070 FM290600 18006KT
                       P6SM SCT015 BKN025 FM291000 18006KT P6SM
                       OVC011 FM291900 18008KT P6SM BKN025 OVC060=
201611281721 TAF KSEA 281721Z 2818/2924 19006KT P6SM FEW015 BKN070 FM290600
                       18006KT P6SM SCT015 BKN025 FM291000 18006KT
                       P6SM OVC011 FM291900 18008KT P6SM BKN025
                       OVC060=
201611281404 KSEA 281404Z 2814/2918 18006KT P6SM SCT030 SCT060 FM290600 18006KT
                       P6SM SCT015 BKN025 FM291000 18006KT P6SM
                       OVC011=
201611281138 TAF KSEA 281138Z 2812/2918 18006KT P6SM SCT030 SCT060 FM290600
                       18006KT P6SM SCT015 BKN025 FM291000 18006KT
                       P6SM OVC011=
201611280911 KSEA 280911Z 2809/2912 20008KT P6SM SCT020 SCT060 FM281500 20008KT
                       P6SM BKN020 OVC035 FM282100 20008KT P6SM
                       SCT020 BKN035 OVC050=
201611280546 TAF KSEA 280546Z 2806/2912 22012KT P6SM OVC012 FM282000 20008KT
                       P6SM SCT015 BKN025 OVC040=
201611280410 KSEA 280410Z 2804/2906 21015G22KT P6SM VCSH OVC015 FM281100 21011G21KT
                       P6SM BKN015 OVC030 FM281800 20009KT P6SM
                       OVC030=
201611272324 TAF KSEA 272324Z 2800/2906 18012KT P6SM -RA SCT015 BKN035 OVC045
                       TEMPO 2801/2805 4SM -RA BR BKN015 OVC030
                       FM280500 21015G22KT P6SM VCSH OVC015 FM281100
                       21011G21KT P6SM BKN015 OVC030 FM281800 20009KT
                       P6SM OVC030=
201611272111 TAF AMD KSEA 272111Z 2721/2824 18010KT P6SM -RA BKN013 BKN021 OVC120
                       FM280000 18013G22KT 5SM -RA OVC015 FM280500
                       21016G25KT P6SM VCSH OVC015 FM281100 21012G23KT
                       P6SM BKN015 OVC030 FM281800 19010KT P6SM
                       OVC015=
201611271744 TAF KSEA 271744Z 2718/2824 20011KT P6SM VCSH BKN005 OVC013 FM271900
                       20010KT P6SM SCT006 OVC015 FM280000 18013G22KT
                       5SM -RA OVC015 FM280500 21016G25KT P6SM
                       VCSH OVC015 FM281100 21012G23KT P6SM BKN015
                       OVC030 FM281800 19010KT P6SM OVC015=
201611271357 KSEA 271357Z 2714/2818 18004KT P6SM VCSH SCT004 OVC015
                      TEMPO 2714/2717 1SM -DZ BR OVC004 FM271900
                       16010KT P6SM SCT020 BKN050 OVC120 FM280000
                       18012G20KT P6SM -RA BKN025 OVC040 FM280500
                       20012G20KT P6SM VCSH BKN020 BKN040 FM281100
                       18007KT P6SM BKN015 OVC030=
201611271308 KSEA 271308Z 2713/2818 18004KT P6SM VCSH SCT004 OVC015
                      TEMPO 2713/2716 1 1/2SM BR BKN004 OVC010
                       FM271900 16010KT P6SM SCT020 BKN050 OVC120
                       FM280000 18012G20KT P6SM -RA BKN025 OVC040
                       FM280500 20012G20KT P6SM VCSH BKN020 BKN040
                       FM281100 18007KT P6SM BKN015 OVC030=
201611271120 TAF KSEA 271120Z 2712/2818 18004KT P6SM VCSH SCT004 OVC015
                      TEMPO 2712/2716 BKN004 OVC015 FM271900 16010KT
                       P6SM SCT020 BKN050 OVC120 FM280000 18012G20KT
                       P6SM -RA BKN025 OVC040 FM280500 20012G20KT
                       P6SM VCSH BKN020 BKN040 FM281100 18007KT
                       P6SM BKN015 OVC030=
201611270528 TAF KSEA 270528Z 2706/2812 36008KT P6SM SCT015 OVC035
                      TEMPO 2706/2710 -RA BKN015 OVC030 FM271000
                       VRB03KT P6SM VCSH BKN015 BKN030 FM271600
                       18005KT P6SM BKN025
                      TEMPO 2717/2721 SCT030 FM272100 16010KT P6SM
                       BKN040 BKN080 FM280000 18012KT P6SM -SHRA
                       BKN030 OVC050 FM280500 VRB04KT P6SM VCSH
                       BKN020 BKN040=
201611270300 KSEA 270300Z 2703/2806 34012KT P6SM -RA SCT007 OVC018
                      TEMPO 2703/2706 5SM -RA BR BKN007 OVC015
                       FM270600 34006KT P6SM VCSH SCT007 BKN018
                       OVC030 FM271000 VRB03KT P6SM VCSH BKN015
                       FM271800 VRB03KT P6SM BKN025
                      TEMPO 2720/2724 SCT030=
201611262323 TAF KSEA 262323Z 2700/2806 27005KT P6SM VCSH FEW013 OVC080 FM270400
                       35004KT P6SM VCSH SCT015 OVC030 FM270600
                       24005KT P6SM VCSH OVC019 FM271700 19008KT
                       P6SM OVC020=
201611262056 KSEA 262056Z 2621/2724 23005KT P6SM VCSH SCT015 OVC100 FM270600
                       22006KT P6SM VCSH OVC020 FM271700 20007KT
                       P6SM OVC025=
201611261728 TAF KSEA 261728Z 2618/2724 18008KT P6SM -RA FEW040 OVC060 FM262200
                       27005KT P6SM -RA BKN030 OVC050 FM270600
                       22006KT P6SM VCSH OVC019 FM271700 20007KT
                       P6SM OVC025=
201611261402 KSEA 261402Z 2614/2718 18006KT P6SM -RA OVC050 FM261500 18010KT
                       P6SM -RA BKN025 OVC045 FM262000 22007KT
                       P6SM VCSH BKN030 FM270600 VRB04KT P6SM BKN025
                       FM271700 VRB04KT P6SM SCT030=
201611261120 TAF KSEA 261120Z 2612/2718 18006KT P6SM -RA OVC050 FM261500 18010KT
                       P6SM -RA BKN025 OVC045 FM262000 22007KT
                       P6SM VCSH BKN030 FM270600 VRB04KT P6SM BKN025
                       FM271700 VRB04KT P6SM SCT030=
201611260520 TAF KSEA 260520Z 2606/2712 02004KT P6SM -RA BKN045 OVC060 FM261100
                       10004KT P6SM -RA OVC045 FM261500 15008KT
                       P6SM -RA BKN025 OVC045 FM270000 20007KT
                       P6SM VCSH BKN025 BKN045=
201611252332 TAF KSEA 252332Z 2600/2706 35003KT P6SM BKN050 OVC200 FM260400
                       06004KT P6SM -RA OVC045 FM261100 10004KT
                       P6SM -RA OVC045 FM261500 15008KT P6SM -RA
                       BKN025 OVC045 FM270000 20007KT P6SM VCSH
                       BKN025 BKN045=
201611252124 KSEA 252124Z 2521/2624 33003KT P6SM FEW030 BKN045 OVC250 FM260300
                       04005KT P6SM -RA OVC045 FM261100 05005KT
                       P6SM -RA BKN025 OVC045 FM261500 15010KT
                       P6SM -RA BKN025 OVC045=
201611251720 TAF KSEA 251720Z 2518/2624 00000KT P6SM SCT045 SCT250 FM260300
                       04005KT P6SM -RA OVC045 FM261100 05005KT
                       P6SM -RA BKN025 OVC045 FM261500 15010KT
                       P6SM -RA BKN025 OVC045=
201611251401 KSEA 251401Z 2514/2618 17005KT P6SM FEW060 BKN150
                      TEMPO 2514/2518 BKN060 OVC150 FM260200 16006KT
                       P6SM -RA BKN025 OVC050=
201611251120 TAF KSEA 251120Z 2512/2618 18010KT P6SM VCSH SCT030 BKN050 FM260200
                       16006KT P6SM -RA BKN025 OVC050=
201611250520 TAF KSEA 250520Z 2506/2612 20015G25KT P6SM -RA SCT025 OVC040 FM251200
                       18010KT P6SM VCSH SCT030 BKN050 FM260500
                       16006KT P6SM BKN025=
201611242325 TAF KSEA 242325Z 2500/2606 18007KT P6SM -RA OVC045 FM250100 16008KT
                       P6SM -RA SCT025 OVC035 FM250400 16010KT
                       5SM -RA BR OVC025 FM250700 18018G28KT P6SM
                       -RA BKN025 OVC045 FM251200 18010KT P6SM
                       VCSH SCT030 BKN050 FM251600 16007KT P6SM
                       SCT030 BKN050=
201611242101 KSEA 242101Z 2421/2524 19008KT P6SM -RA SCT025 OVC045 FM250300
                       15010KT 5SM -RA BR OVC030 FM250900 19017G27KT
                       P6SM -RA BKN030 OVC050 FM251400 18007KT
                       P6SM VCSH SCT035 OVC050=
201611241731 TAF KSEA 241731Z 2418/2524 18010KT P6SM -RA BKN035 OVC050 FM250300
                       15010KT 5SM -RA BR OVC030 FM250900 19017G27KT
                       P6SM -RA BKN030 OVC050 FM251400 18007KT
                       P6SM VCSH SCT035 OVC050=
201611241403 KSEA 241403Z 2414/2518 18012G20KT P6SM -RA BKN035 OVC050 FM250000
                       15010KT P6SM -RA OVC035 FM251100 21012KT
                       P6SM VCSH SCT025 BKN050=
201611241120 TAF KSEA 241120Z 2412/2518 18012G22KT P6SM -RA OVC040 FM241500
                       20012KT P6SM VCSH SCT025 BKN050 FM250000
                       15010KT P6SM -RA OVC035 FM251100 21012KT
                       P6SM VCSH SCT025 BKN050=
201611240923 KSEA 240923Z 2409/2512 16016G24KT P6SM -RA OVC050 FM241200 18012G22KT
                       P6SM -SHRA BKN035 FM250000 15010KT P6SM
                       -RA OVC035=
201611240520 TAF KSEA 240520Z 2406/2512 16012KT P6SM -RA OVC035 FM241200 18012G22KT
                       P6SM -SHRA BKN035 FM250000 15010KT P6SM
                       -RA OVC035=
201611240312 KSEA 240312Z 2403/2506 17011KT P6SM BKN035 OVC050 FM240600 17015G25KT
                       P6SM -RA OVC030 FM241500 18012KT P6SM -SHRA
                       BKN020 BKN040 FM250000 15010KT P6SM -RA
                       OVC030=
201611232338 TAF KSEA 232338Z 2400/2506 17011KT P6SM SCT019 BKN035 BKN050 FM240300
                       17015G25KT P6SM -RA OVC035 FM241200 17015G25KT
                       5SM -RA OVC030 FM241500 18012KT 5SM -RA
                       BKN025 OVC035 FM242300 15010KT 4SM -RA BR
                       OVC025=
201611232101 KSEA 232101Z 2321/2424 22012G21KT P6SM -SHRA BKN020 OVC040 FM240300
                       16012G20KT P6SM -RA OVC040 FM240700 17015G25KT
                       P6SM -RA OVC035 FM241400 17015G25KT 5SM
                       -RA OVC035 FM241800 17012KT P6SM -SHRA BKN035
                       OVC050=
201611231740 TAF KSEA 231740Z 2318/2424 19012KT P6SM -SHRA SCT030 BKN050 FM240300
                       16012G20KT P6SM -RA OVC045 FM240700 17015G25KT
                       P6SM -RA OVC035 FM241400 17015G25KT 5SM
                       -RA OVC035 FM241800 17012KT P6SM -SHRA BKN035
                       OVC050=
201611231402 KSEA 231402Z 2314/2418 19006KT P6SM FEW035 BKN080
                      TEMPO 2314/2316 -SHRA BKN035 OVC050 FM231600
                       19010KT P6SM -SHRA SCT025 BKN050 FM232100
                       20012KT P6SM -SHRA SCT030 BKN060 FM240300
                       18012KT P6SM -RA OVC050 FM240700 17015G25KT
                       P6SM -RA OVC040=
201611231134 TAF KSEA 231134Z 2312/2418 17008KT P6SM SCT025 BKN050
                      TEMPO 2312/2316 -SHRA BKN025 OVC050 FM231600
                       19010KT P6SM -SHRA SCT025 BKN050 FM232100
                       20012KT P6SM -SHRA SCT030 BKN060 FM240300
                       18012KT P6SM -RA OVC050 FM240700 17015G25KT
                       P6SM -RA OVC040=
201611230928 KSEA 230928Z 2309/2412 17007KT P6SM -SHRA SCT010 BKN025 OVC040
                       TEMPO 2309/2313 BKN010 OVC025 FM231300 19010KT
                       P6SM -SHRA SCT012 BKN025 OVC045 FM231800
                       19009KT P6SM -SHRA SCT025 BKN045 FM232100
                       20010KT P6SM SCT025 BKN050 FM240400 17011KT
                       P6SM -RA SCT025 OVC050=
201611230638 KSEA 230638Z 2307/2412 17007KT 5SM -RA BR SCT004 SCT014 OVC030
                       TEMPO 2307/2309 SCT004 BKN014 OVC030 FM230900
                       18008KT 5SM -RA BR SCT004 BKN012 OVC040
                       FM231400 19008KT P6SM BKN020 OVC040 FM231800
                       19009KT P6SM -SHRA SCT020 BKN040 FM232100
                       20010KT P6SM SCT025 BKN050 FM240400 17011KT
                       P6SM -RA SCT025 OVC050=
201611230538 TAF KSEA 230538Z 2306/2412 17007KT 6SM -RA BR OVC040 FM230800 18008KT
                       6SM -RA BR BKN020 OVC040 FM231400 19008KT
                       P6SM BKN020 OVC040 FM231800 19009KT P6SM
                       -SHRA SCT020 BKN040 FM232100 20010KT P6SM
                       SCT025 BKN050 FM240400 17011KT P6SM -RA
                       SCT025 OVC050=
201611230300 KSEA 230300Z 2303/2406 13007KT P6SM -RA SCT025 OVC045
                      TEMPO 2303/2307 BKN025 OVC045 FM230700 17008KT
                       6SM -RA BR BKN020 OVC040 FM231300 18008KT
                       P6SM BKN020 OVC040 FM232100 19009KT P6SM
                       -SHRA BKN025 FM240300 17007KT P6SM -RA SCT025
                       OVC050=
201611230058 KSEA 230058Z 2301/2406 28008KT P6SM -RA SCT025 OVC060
                      TEMPO 2301/2305 BKN025 FM230500 17008KT 6SM
                       -RA BR BKN020 OVC040 FM231000 20009KT P6SM
                       BKN025 FM231300 18008KT P6SM SCT025 BKN050
                       FM232100 19009KT P6SM -SHRA BKN025 FM240300
                       17007KT P6SM -RA SCT025 OVC050=
201611222323 TAF KSEA 222323Z 2300/2406 28008KT P6SM -RA SCT025 OVC060 FM230500
                       17008KT 6SM -RA BR BKN020 OVC040 FM231000
                       20009KT P6SM BKN025 FM231300 18008KT P6SM
                       SCT025 BKN050 FM232100 19009KT P6SM -SHRA
                       BKN025 FM240300 17007KT P6SM -RA SCT025
                       OVC050=
201611222115 TAF AMD KSEA 222115Z 2221/2324 11008KT P6SM FEW050 BKN080 OVC200
                       FM222230 16010KT P6SM -RA OVC050 FM230100
                       15010KT 6SM -RA SCT015 OVC040 FM230500 15010KT
                       6SM -RA BR BKN020 OVC040 FM231000 20009KT
                       5SM -RA BR BKN015 FM231300 20007KT P6SM
                       BKN025 FM232100 19009KT P6SM -SHRA BKN025=
201611221734 TAF KSEA 221734Z 2218/2324 13011KT P6SM BKN050 BKN080 FM222200
                       16010KT P6SM -RA OVC050 FM230100 15010KT
                       6SM -RA SCT015 OVC040 FM230500 15010KT 6SM
                       -RA BR BKN020 OVC040 FM231000 20009KT 5SM
                       -RA BR BKN015 FM231300 20007KT P6SM BKN025
                       FM232100 19009KT P6SM -SHRA BKN025=
201611221401 KSEA 221401Z 2214/2318 11008KT P6SM SCT050 BKN100 FM221900 16010KT
                       P6SM -RA OVC050 FM230100 15008KT 6SM -RA
                       SCT015 OVC040 FM230500 15008KT 6SM -RA BR
                       BKN020 OVC040=
201611221120 TAF KSEA 221120Z 2212/2318 15010KT P6SM OVC050 FM221900 16010KT
                       P6SM -RA OVC050 FM230100 15008KT 6SM -RA
                       SCT015 OVC040 FM230500 15008KT 6SM -RA BR
                       BKN020 OVC040=
201611220918 KSEA 220918Z 2209/2312 13010KT P6SM BKN050 OVC080 FM221200 15010KT
                       P6SM OVC050 FM221900 17009KT P6SM -RA OVC050
                       FM230100 15007KT 5SM -RA SCT015 OVC040 FM230500
                       15007KT P6SM -RA BKN025 OVC050=
201611220528 TAF KSEA 220528Z 2206/2312 14007KT P6SM SCT050 SCT080
                      TEMPO 2206/2209 BKN050 BKN080 FM220900 15008KT
                       P6SM BKN050 OVC080 FM221200 16008KT P6SM
                       OVC050 FM221900 17008KT P6SM -RA OVC050
                       FM230100 15007KT 5SM -RA SCT015 OVC040 FM230500
                       15007KT P6SM -RA BKN025 OVC050=
201611220319 KSEA 220319Z 2203/2306 15006KT P6SM SCT050 SCT080
                      TEMPO 2203/2207 BKN050 BKN080 FM220700 15008KT
                       P6SM SCT050 BKN070 OVC150 FM221200 16008KT
                       P6SM OVC070 FM221900 17008KT P6SM -RA OVC050
                       FM230100 15007KT 5SM -RA SCT015 OVC040 FM230500
                       15007KT P6SM -RA BKN030 OVC050=
201611212344 TAF KSEA 212344Z 2200/2306 21011KT P6SM FEW020 BKN045 BKN080 FM220100
                       20010KT P6SM SCT010 BKN025 FM220500 17007KT
                       P6SM SCT025 BKN040 FM221200 14008KT P6SM
                       SCT050 BKN080 FM221900 15006KT 6SM -SHRA
                       BKN040 FM222300 13007KT 5SM -RA SCT015 BKN040
                       FM230300 15010KT P6SM VCSH BKN050=
201611212101 KSEA 212101Z 2121/2224 21012KT P6SM FEW020 SCT060 BKN080 FM220100
                       20010KT P6SM SCT010 BKN025 FM220500 17007KT
                       P6SM SCT025 BKN040 FM221200 14008KT P6SM
                       SCT050 BKN080 FM221900 15006KT P6SM -SHRA
                       BKN040 FM222300 13007KT 6SM -RA SCT015 BKN040=
201611211741 TAF KSEA 211741Z 2118/2224 18007KT P6SM SCT009 BKN015 BKN080 FM212100
                       21006KT P6SM SCT025 BKN040 FM220100 19005KT
                       P6SM SCT010 BKN025 FM220500 17007KT P6SM
                       SCT025 BKN040 FM221200 14008KT P6SM SCT050
                       BKN080 FM221900 15006KT P6SM -SHRA BKN040
                       FM222300 13007KT 6SM -RA SCT015 BKN040=
201611211639 KSEA 211639Z 2117/2218 16006KT P6SM SCT009 BKN060 BKN090
                      TEMPO 2117/2121 BKN020 FM212100 21006KT P6SM
                       SCT025 BKN040 FM220100 17005KT P6SM SCT035
                       BKN050=
201611211413 KSEA 211413Z 2114/2218 19009KT P6SM FEW009 SCT020 BKN050
                      TEMPO 2114/2115 -SHRA SCT009 BKN010 OVC040
                       FM211500 19007KT P6SM -SHRA SCT007 BKN020
                       OVC040 FM212100 21006KT P6SM SCT025 BKN040
                       FM220100 17005KT P6SM SCT035 BKN050=
201611211137 TAF KSEA 211137Z 2112/2218 19009KT P6SM FEW009 SCT020 BKN050
                      TEMPO 2112/2115 -SHRA SCT009 BKN020 OVC050
                       FM211500 19007KT P6SM -SHRA SCT009 BKN020
                       OVC040 FM212100 21006KT P6SM SCT025 BKN040
                       FM220100 17005KT P6SM SCT035 BKN050=
201611210905 KSEA 210905Z 2109/2212 18009KT P6SM -SHRA SCT025 BKN040 OVC060
                       FM211500 19007KT P6SM -SHRA BKN025 OVC040
                       FM211700 18006KT P6SM VCSH BKN020 OVC035
                       FM211900 21007KT P6SM BKN025 OVC040 FM212200
                       21006KT P6SM BKN050=
201611210537 TAF KSEA 210537Z 2106/2212 18008KT P6SM VCSH BKN045 BKN070 FM210800
                       18008KT P6SM -SHRA SCT030 BKN045 OVC070
                       FM211200 18007KT P6SM -SHRA BKN025 OVC040
                       FM211400 18006KT P6SM VCSH BKN015 OVC030
                       FM211900 21007KT P6SM BKN025 OVC040 FM212200
                       21006KT P6SM BKN050=
201611210314 KSEA 210314Z 2103/2206 18010KT P6SM -SHRA SCT035 BKN045 BKN070
                       FM211000 18010KT P6SM -SHRA BKN025 OVC040
                       FM211200 19008KT P6SM VCSH BKN015 OVC030
                       FM211900 21007KT P6SM BKN025 OVC040 FM212200
                       21006KT P6SM OVC045=
201611202337 TAF KSEA 202337Z 2100/2206 18013G20KT P6SM -SHRA SCT035 BKN045
                       OVC060 FM210800 18010KT P6SM OVC025 FM212200
                       21006KT P6SM OVC040=
201611202103 KSEA 202103Z 2021/2124 19014G21KT P6SM -SHRA BKN040 OVC045 FM210900
                       19007KT P6SM VCSH BKN025 OVC040 FM212100
                       22006KT P6SM OVC040=
201611201725 TAF KSEA 201725Z 2018/2124 21006KT P6SM -SHRA OVC050 FM210000 18010KT
                       P6SM VCSH BKN035 OVC070 FM210800 18008KT
                       P6SM BKN025 OVC040=
201611201358 KSEA 201358Z 2014/2118 15010KT P6SM -SHRA BKN060 OVC080 FM201800
                       17010KT P6SM -SHRA BKN050 OVC080 FM210000
                       18010KT P6SM VCSH BKN035 OVC070 FM210800
                       18008KT P6SM BKN025 OVC040=
201611201136 TAF KSEA 201136Z 2012/2118 15010KT P6SM -SHRA BKN060 OVC080 FM201800
                       17010KT P6SM -SHRA BKN050 OVC080 FM210000
                       18010KT P6SM -SHRA BKN035 OVC070 FM210800
                       18008KT P6SM BKN025 OVC040=
201611200529 TAF KSEA 200529Z 2006/2112 12012KT P6SM -RA BKN060 OVC100 FM201200
                       15010KT P6SM -RA OVC050 FM201800 18011KT
                       P6SM -SHRA BKN040 BKN070=
201611200333 KSEA 200333Z 2004/2106 12012KT P6SM VCSH FEW040 BKN060 BKN120 FM200500
                       14014KT P6SM -RA OVC045 FM202100 17010KT
                       P6SM VCSH OVC045=
201611192326 TAF KSEA 192326Z 2000/2106 09007KT P6SM VCSH FEW040 SCT060 BKN080
                       FM200500 14010KT P6SM -RA OVC045 FM202100
                       17010KT P6SM VCSH OVC045=
201611192114 KSEA 192114Z 1921/2024 09009KT P6SM -SHRA FEW050 BKN060 OVC080
                       FM200000 09009KT P6SM OVC060 FM200500 13010KT
                       P6SM -RA OVC045=
201611191729 TAF KSEA 191729Z 1918/2024 12009KT P6SM -SHRA SCT050 OVC060 FM200000
                       09009KT P6SM OVC060 FM200500 13010KT P6SM
                       -RA OVC045=
201611191355 KSEA 191355Z 1914/2018 10008KT P6SM OVC060
                      TEMPO 1914/1918 -RA OVC050 FM191800 09006KT
                       P6SM BKN070 BKN100 FM200000 08007KT P6SM
                       BKN100 FM200500 12008KT P6SM -RA OVC050=
201611191120 TAF KSEA 191120Z 1912/2018 09008KT P6SM -RA OVC060 FM191800 09006KT
                       P6SM BKN070 BKN100 FM200000 08007KT P6SM
                       BKN100 FM200500 12008KT P6SM -RA OVC050=
201611190900 KSEA 190900Z 1909/2012 09009KT P6SM -RA BKN060 OVC100 FM191600
                       11008KT P6SM -RA OVC050 FM192100 08010KT
                       P6SM -RA BKN050 OVC080=
201611190520 TAF KSEA 190520Z 1906/2012 10010G20KT P6SM OVC100 FM191000 10010KT
                       P6SM -RA BKN060 OVC100 FM191600 11008KT
                       P6SM -RA OVC050 FM192100 08010KT P6SM -RA
                       BKN050 OVC080=
201611190337 KSEA 190337Z 1904/2006 11015G28KT P6SM BKN120 OVC180 FM190800 10009KT
                       P6SM -RA BKN060 OVC100 FM200000 08008KT
                       P6SM BKN050 OVC100=
201611182336 TAF KSEA 182336Z 1900/2006 11015G28KT P6SM BKN100 OVC150 FM190800
                       10009KT P6SM -RA BKN060 OVC100 FM200000
                       08008KT P6SM BKN050 OVC100=
201611182100 KSEA 182100Z 1821/1924 10011KT P6SM OVC100 FM190800 09008KT P6SM
                       -RA BKN060 OVC100=
201611181720 TAF KSEA 181720Z 1818/1924 11009KT P6SM OVC130 FM190800 09008KT
                       P6SM -RA BKN060 OVC100=
201611181431 KSEA 181431Z 1815/1918 05006KT P6SM BKN250 FM181800 05012G18KT
                       P6SM BKN120 BKN250 FM190800 09008KT P6SM
                       -RA BKN060 OVC100=
201611181138 TAF KSEA 181138Z 1812/1918 05006KT P6SM BKN250 FM181800 05012G18KT
                       P6SM BKN120 BKN250 FM190800 07008KT P6SM
                       -RA BKN060 OVC100=
201611180902 TAF AMD KSEA 180902Z 1809/1912 06005KT P6SM BKN250 FM181800 05012G18KT
                       P6SM BKN120 BKN250=
201611180522 TAF KSEA 180522Z 1806/1912 10008KT P6SM BKN250 FM181800 05012G18KT
                       P6SM BKN120 BKN250=
201611180311 KSEA 180311Z 1803/1906 00000KT P6SM FEW045 SCT250 FM181200 05009KT
                       P6SM BKN250=
201611172326 TAF KSEA 172326Z 1800/1906 19005KT P6SM FEW025 SCT060 BKN250 FM180300
                       08005KT P6SM FEW060 BKN250 FM181200 05009KT
                       P6SM BKN250=
201611172102 KSEA 172102Z 1721/1824 19005KT P6SM FEW020 BKN050 BKN250 FM180300
                       08005KT P6SM SCT050 FM181200 06007KT P6SM
                       BKN200=
201611171722 TAF KSEA 171722Z 1718/1824 17005KT P6SM FEW020 SCT025 BKN040 FM172100
                       19005KT P6SM SCT050 BKN100 FM180300 08005KT
                       P6SM SCT050 FM181200 06007KT P6SM BKN200=
201611171124 TAF KSEA 171124Z 1712/1818 16005KT P6SM SCT012 OVC035
                      TEMPO 1712/1716 BKN012 OVC035 FM171900 17005KT
                       P6SM BKN050 BKN100 FM180300 08005KT P6SM
                       SCT050 BKN250=
201611170900 KSEA 170900Z 1709/1812 17004KT P6SM FEW020 BKN050
                      TEMPO 1712/1716 BKN020 OVC050 FM180300 08005KT
                       P6SM SCT050 BKN250=
201611170521 TAF KSEA 170521Z 1706/1812 19004KT P6SM FEW050 BKN070 FM171000
                       18005KT P6SM SCT020 BKN050
                      TEMPO 1712/1716 BKN020 OVC050 FM180300 08005KT
                       P6SM SCT050 BKN250=
201611170302 KSEA 170302Z 1703/1806 21006KT P6SM SCT040 BKN100 OVC200
                      TEMPO 1703/1705 -SHRA BKN040 OVC100 FM170900
                       18005KT P6SM BKN020 OVC030 FM171100 18005KT
                       P6SM OVC015 FM172000 20006KT P6SM SCT025
                       BKN040=
201611170007 KSEA 170007Z 1700/1806 22005KT P6SM SCT025 BKN050 BKN250
                      TEMPO 1700/1704 -SHRA BKN035 FM170900 18005KT
                       P6SM BKN020 OVC030 FM171100 18005KT P6SM
                       OVC015 FM172000 20006KT P6SM SCT025 BKN040=
201611162323 TAF KSEA 162323Z 1700/1806 22005KT P6SM SCT025 BKN040 FM170900
                       18005KT P6SM BKN020 OVC030 FM171100 18005KT
                       P6SM OVC015 FM172000 20006KT P6SM SCT025
                       BKN040=
201611162102 KSEA 162102Z 1621/1724 18005KT P6SM SCT015 BKN025 BKN040 FM170000
                       19004KT P6SM SCT025 BKN040 FM170900 18005KT
                       P6SM BKN020 OVC030=
201611161733 TAF KSEA 161733Z 1618/1724 19008KT P6SM SCT014 BKN025 OVC040
                      TEMPO 1618/1620 BKN014 FM162000 20008KT P6SM
                       VCSH SCT025 BKN040 FM170900 18005KT P6SM
                       BKN020 OVC030=
201611161401 KSEA 161401Z 1614/1718 20008KT P6SM BKN012 FM161700 18006KT P6SM
                       BKN025 BKN050 FM162000 20008KT P6SM SCT025
                       BKN060=
201611161120 TAF KSEA 161120Z 1612/1718 19008KT P6SM OVC012 FM161700 18006KT
                       P6SM BKN025 BKN050 FM162000 20008KT P6SM
                       SCT025 BKN060=
201611160900 KSEA 160900Z 1609/1712 18008KT P6SM OVC013 FM161200 17005KT P6SM
                       BKN020 BKN050 FM161800 20009KT P6SM SCT025
                       BKN060=
201611160520 TAF KSEA 160520Z 1606/1712 21008KT P6SM OVC015
                      TEMPO 1606/1610 -SHRA FM161000 17005KT P6SM
                       BKN020 BKN050 FM161800 20009KT P6SM SCT025
                       BKN060=
201611160301 KSEA 160301Z 1603/1706 21010KT P6SM FEW015 BKN050 BKN200
                      TEMPO 1603/1606 -SHRA BKN015 OVC050 FM160600
                       21008KT P6SM VCSH SCT020 BKN040 BKN100 FM161000
                       17005KT P6SM BKN020 FM161800 20009KT P6SM
                       VCSH SCT025 BKN040=
201611152324 TAF KSEA 152324Z 1600/1706 22012G20KT P6SM -SHRA FEW020 SCT030
                       OVC080
                      TEMPO 1600/1604 -SHRA SCT020 BKN030 FM160600
                       21008KT P6SM VCSH SCT020 BKN040 BKN100 FM161000
                       17005KT P6SM BKN020 FM161800 20009KT P6SM
                       VCSH SCT025 BKN040=
201611152104 KSEA 152104Z 1521/1624 22012G20KT P6SM VCSH FEW015 SCT025 BKN080
                       TEMPO 1521/1601 -SHRA BKN030 FM160100 21008KT
                       P6SM VCSH SCT020 BKN040 BKN100 FM160900
                       17005KT P6SM BKN020=
201611151733 TAF KSEA 151733Z 1518/1624 20014G25KT P6SM -SHRA SCT008 BKN020
                       BKN060 FM152000 22012KT P6SM VCSH SCT025
                       SCT040 BKN060 FM160000 21008KT P6SM VCSH
                       SCT020 BKN040 BKN100 FM160900 17005KT P6SM
                       BKN020=
201611151506 KSEA 151506Z 1515/1618 26007KT P6SM -SHRA BKN005 OVC015 FM151600
                       18008KT P6SM -SHRA SCT007 BKN015 OVC035
                       FM151800 20014G20KT P6SM BKN025 BKN035 FM152100
                       22012KT P6SM SCT035 BKN080 FM160000 21008KT
                       P6SM SCT040 BKN100=
201611151404 KSEA 151404Z 1514/1618 26007KT 1 1/2SM BR BKN002 OVC060
                      TEMPO 1514/1516 2SM -RA BR BKN002 OVC018
                       FM151600 18008KT P6SM BKN020 OVC035 FM151800
                       20014G20KT P6SM BKN025 BKN035 FM152100 22012KT
                       P6SM SCT035 BKN080 FM160000 21008KT P6SM
                       SCT040 BKN100=
201611151215 KSEA 151215Z 1512/1618 25010KT 3SM -RA BR BKN004 OVC018
                      TEMPO 1512/1514 4SM -RA BR SCT004 BKN018
                       OVC035 FM151400 18008KT P6SM BKN020 OVC035
                       FM151800 20014G20KT P6SM BKN025 BKN035 FM152100
                       22012KT P6SM SCT035 BKN080 FM160000 21008KT
                       P6SM SCT040 BKN100=
201611151151 TAF KSEA 151151Z 1512/1618 VRB03KT 1SM -RA BR SCT003 BKN008 OVC019
                       TEMPO 1512/1514 4SM -RA BR SCT008 BKN028
                       OVC035 FM151400 18008KT P6SM BKN020 OVC035
                       FM151800 20014G20KT P6SM BKN025 BKN035 FM152100
                       22012KT P6SM SCT035 BKN080 FM160000 21008KT
                       P6SM SCT040 BKN100=
201611150901 KSEA 150901Z 1509/1612 02005KT 5SM -RA BR SCT025 BKN035 OVC045
                       TEMPO 1509/1513 2SM RA BR BKN025 OVC035
                       FM151500 18008KT P6SM -SHRA OVC018 FM151800
                       20010G20KT P6SM VCSH BKN025 BKN035=
201611150548 TAF KSEA 150548Z 1506/1612 01005KT P6SM BKN070 OVC140 FM150900
                       04006KT P6SM -RA BKN020 OVC040 FM151500
                       18008KT P6SM -SHRA OVC018 FM151800 20010G20KT
                       P6SM VCSH BKN025 BKN035=
201611150314 KSEA 150314Z 1503/1606 06004KT P6SM SCT120 OVC200 FM150500 VRB04KT
                       P6SM SCT040 BKN120 BKN250 FM150900 04006KT
                       P6SM -RA BKN020 OVC040 FM151500 18008KT
                       P6SM -SHRA OVC018 FM151800 20010G20KT P6SM
                       VCSH BKN025 BKN035=
201611142325 TAF KSEA 142325Z 1500/1606 20005KT P6SM FEW025 SCT040 BKN250 FM150400
                       VRB04KT P6SM SCT040 BKN120 BKN250 FM150900
                       04006KT P6SM -RA BKN020 OVC040 FM151500
                       18008KT P6SM -SHRA OVC018 FM151800 20010G20KT
                       P6SM VCSH BKN025 BKN035=
201611142107 KSEA 142107Z 1421/1524 22006KT P6SM FEW030 BKN040 BKN250 FM150500
                       11004KT P6SM OVC050 FM150900 17010KT P6SM
                       -RA OVC020=
201611141905 KSEA 141905Z 1419/1524 19006KT P6SM SCT015 SCT025 BKN250
                      TEMPO 1419/1420 BKN015 FM150000 16007KT P6SM
                       SCT050 BKN080 FM150500 11004KT P6SM OVC050
                       FM150900 17010KT P6SM -RA OVC020=
201611141732 TAF KSEA 141732Z 1418/1524 23007KT P6SM SCT008 BKN013 BKN080 FM141900
                       19006KT P6SM SCT025 SCT080 FM150000 16007KT
                       P6SM SCT050 BKN080 FM150500 11004KT P6SM
                       OVC050 FM150900 17010KT P6SM -RA OVC020=
201611141407 KSEA 141407Z 1414/1518 22006KT P6SM -SHRA SCT005 OVC020
                      TEMPO 1414/1416 5SM -RA BR BKN004 OVC010
                       FM141600 21006KT P6SM VCSH SCT015 BKN030
                       OVC070 FM141900 19006KT P6SM BKN070 OVC120
                       FM150000 16007KT P6SM BKN050 OVC080 FM150500
                       12005KT P6SM -RA OVC050 FM150900 17010KT
                       P6SM -RA OVC030=
201611141212 KSEA 141212Z 1412/1518 22006KT P6SM -SHRA SCT006 BKN030 OVC050
                       TEMPO 1412/1414 5SM -RA BR BKN006 OVC012
                       FM141400 21006KT P6SM VCSH SCT015 BKN030
                       OVC070 FM141900 19006KT P6SM BKN070 OVC120
                       FM150000 16007KT P6SM BKN050 OVC080 FM150500
                       12005KT P6SM -RA OVC050 FM150900 16009KT
                       P6SM -RA OVC035=
201611141143 TAF KSEA 141143Z 1412/1518 23008KT P6SM -SHRA SCT012 BKN030 OVC050
                       TEMPO 1412/1414 5SM -RA BR SCT006 OVC012
                       FM141400 21007KT P6SM VCSH SCT015 BKN030
                       OVC070 FM141900 19006KT P6SM BKN070 OVC120
                       FM150000 16007KT P6SM BKN050 OVC080 FM150500
                       12005KT P6SM -RA OVC050 FM150900 16009KT
                       P6SM -RA OVC035=
201611141026 KSEA 141026Z 1410/1512 20012KT P6SM -SHRA BKN030 OVC050 FM141400
                       20010KT P6SM VCSH BKN030 OVC070 FM141900
                       19007KT P6SM BKN070 OVC120 FM150000 16007KT
                       P6SM BKN050 OVC080 FM150400 12005KT P6SM
                       -RA OVC050=
201611140915 KSEA 140915Z 1409/1512 18010KT P6SM -RA BKN030 OVC050 FM141000
                       20013G23KT P6SM -SHRA BKN030 OVC050 FM141400
                       21011KT P6SM VCSH BKN030 OVC070 FM141900
                       19007KT P6SM BKN070 OVC120 FM150000 16007KT
                       P6SM BKN050 OVC080 FM150400 12005KT P6SM
                       -RA OVC050=
201611140541 TAF KSEA 140541Z 1406/1512 17012KT P6SM -RA OVC030 FM140800 19014G23KT
                       P6SM -RA OVC030 FM141000 20015G25KT P6SM
                       -SHRA OVC030
                      TEMPO 1410/1414 -SHRA OVC022 FM141400 21010KT
                       P6SM VCSH BKN030 OVC070 FM141900 19007KT
                       P6SM BKN070 OVC120 FM150000 16007KT P6SM
                       BKN050 OVC080 FM150400 12005KT P6SM -RA
                       OVC050=
201611132327 TAF KSEA 132327Z 1400/1506 16007KT P6SM -RA OVC060 FM140400 18013KT
                       P6SM RA SCT020 OVC035 FM140800 18014KT P6SM
                       RA BKN020 OVC035 FM140900 19013G21KT P6SM
                       -SHRA OVC020 FM141400 21010KT P6SM VCSH
                       OVC020 FM141900 19007KT P6SM VCSH BKN070=
201611132105 KSEA 132105Z 1321/1424 VRB05KT P6SM -RA FEW040 BKN060 OVC080 FM140400
                       18012KT P6SM RA SCT020 OVC035 FM140900 20011KT
                       P6SM -SHRA OVC019 FM141400 20009KT P6SM
                       VCSH OVC019=
201611131730 TAF KSEA 131730Z 1318/1424 12009KT 4SM -RA BR BKN050 OVC070 FM131900
                       18009KT P6SM -RA SCT025 OVC050 FM140400
                       18012KT P6SM RA SCT020 OVC035 FM140900 20011KT
                       P6SM -SHRA OVC019 FM141400 20009KT P6SM
                       VCSH OVC019=
201611131356 KSEA 131356Z 1314/1418 14006KT P6SM SCT030 BKN050 BKN100 FM131500
                       15006KT P6SM SCT020 OVC050 FM131800 16008KT
                       P6SM OVC050 FM131900 17010KT P6SM -RA SCT025
                       OVC050 FM140400 18012KT P6SM RA OVC025 FM140900
                       21015G25KT P6SM -SHRA OVC025 FM141400 20012G20KT
                       P6SM VCSH BKN035=
201611131139 TAF KSEA 131139Z 1312/1418 14006KT P6SM SCT030 BKN050 BKN100 FM131400
                       15006KT P6SM SCT020 OVC050 FM131800 16008KT
                       P6SM OVC050 FM131900 17010KT P6SM -RA SCT025
                       OVC050 FM140400 18012KT P6SM RA OVC025 FM140900
                       21015G25KT P6SM -SHRA OVC025 FM141400 20012G20KT
                       P6SM VCSH BKN035=
201611130534 TAF KSEA 130534Z 1306/1412 16007KT P6SM SCT080 BKN120 FM130800
                       16006KT P6SM SCT045 BKN080 BKN120 FM131300
                       15006KT P6SM SCT020 OVC045 FM131800 16008KT
                       P6SM OVC045 FM132000 17010KT P6SM -RA SCT025
                       OVC045 FM140400 18012KT P6SM RA OVC025 FM140900
                       21014G24KT P6SM -SHRA OVC025=
201611130316 KSEA 130316Z 1303/1406 20010KT P6SM VCSH FEW025 SCT050 BKN120 FM130800
                       18008KT P6SM SCT020 OVC035 FM131300 15008KT
                       P6SM SCT020 OVC035 FM131800 17010KT P6SM
                       OVC050 FM132200 18012KT P6SM -RA BKN025
                       OVC045=
201611122334 TAF KSEA 122334Z 1300/1406 20012KT P6SM VCSH FEW025 BKN040 BKN240
                       FM130400 16007KT P6SM OVC035 FM131800 18010KT
                       P6SM OVC050 FM132200 18012KT P6SM -RA BKN025
                       OVC045=
201611122103 KSEA 122103Z 1221/1324 21019G27KT P6SM VCSH FEW021 BKN050 BKN220
                       FM130100 21012KT P6SM VCSH OVC040 FM130400
                       16007KT P6SM OVC035 FM131800 15007KT P6SM
                       OVC050=
201611121735 TAF KSEA 121735Z 1218/1324 20020G32KT P6SM VCSH BKN019 OVC030 FM122200
                       21018G26KT P6SM OVC030 FM130100 21012KT
                       P6SM VCSH OVC040 FM130400 16007KT P6SM OVC035
                       FM131800 15007KT P6SM OVC050=
201611121408 KSEA 121408Z 1214/1318 17008KT P6SM -RA BKN060 OVC080 FM121500
                       18013KT P6SM -RA OVC045 FM121700 20019G28KT
                       5SM -SHRA OVC030 FM122200 21014G23KT P6SM
                       -SHRA BKN040 FM130000 20010KT P6SM VCSH
                       OVC040 FM130400 17006KT P6SM OVC030=
201611121129 TAF KSEA 121129Z 1212/1318 17008KT P6SM -RA BKN060 OVC080 FM121500
                       18013KT P6SM -RA OVC045 FM121700 20022G32KT
                       5SM -SHRA OVC030 FM122200 21016G25KT P6SM
                       -SHRA BKN040 FM130000 20012G20KT P6SM VCSH
                       OVC040 FM130400 17006KT P6SM OVC030=
201611120533 TAF KSEA 120533Z 1206/1312 12004KT P6SM SCT080 OVC120 FM120800
                       16006KT 6SM -RA BKN060 OVC090 FM121500 18013KT
                       5SM -RA OVC045 FM121700 20022G32KT 5SM -SHRA
                       OVC025 FM122200 21016G25KT P6SM -SHRA BKN040
                       FM130000 20012G20KT P6SM VCSH OVC040 FM130400
                       17006KT P6SM OVC040=
201611120411 KSEA 120411Z 1204/1306 12004KT P6SM SCT080 OVC120 FM120800 16006KT
                       6SM -RA BKN060 OVC090 FM121500 18013KT 5SM
                       -RA OVC045 FM121700 20022G33KT 5SM -SHRA
                       OVC025 FM122200 20018G25KT P6SM -SHRA BKN040
                       FM130000 21012G22KT P6SM OVC050=
201611112335 TAF KSEA 112335Z 1200/1306 00000KT P6SM SCT160 OVC250 FM120300
                       12004KT P6SM SCT080 OVC120 FM120900 16006KT
                       6SM -RA BKN060 OVC090 FM121500 18013KT 5SM
                       -RA OVC045 FM121700 20018G25KT 5SM -SHRA
                       OVC019 FM130000 21012G19KT P6SM OVC050=
201611112102 KSEA 112102Z 1121/1224 00000KT P6SM BKN160 BKN200 FM120300 13004KT
                       P6SM SCT080 OVC120 FM120900 15007KT 6SM
                       -RA BKN060 OVC090 FM121200 17009KT P6SM
                       -RA OVC045 FM121700 18017G24KT 5SM -SHRA
                       OVC030=
201611111733 TAF KSEA 111733Z 1118/1224 00000KT P6SM BKN150 BKN200 FM120300
                       13004KT P6SM SCT080 OVC120 FM120900 15007KT
                       6SM -RA BKN060 OVC090 FM121200 17009KT P6SM
                       -RA OVC045 FM121700 18017G24KT 5SM -SHRA
                       OVC030=
201611111402 KSEA 111402Z 1114/1218 13006KT P6SM BKN150 OVC200 FM111800 18007KT
                       P6SM BKN150 OVC200 FM120300 16007KT P6SM
                       SCT080 OVC120 FM120900 15006KT P6SM -RA
                       SCT060 OVC080 FM121200 18010KT P6SM -RA
                       OVC050 FM121600 20013G22KT P6SM -SHRA OVC030=
201611111120 TAF KSEA 111120Z 1112/1218 13006KT P6SM BKN150 OVC200 FM111800
                       18007KT P6SM BKN150 OVC200 FM120300 16007KT
                       P6SM SCT080 OVC120 FM120900 15006KT P6SM
                       -RA SCT060 OVC080 FM121200 18010KT P6SM
                       -RA OVC050 FM121600 20013G22KT P6SM -SHRA
                       OVC030=
201611110520 TAF KSEA 110520Z 1106/1212 15005KT P6SM SCT150 BKN250 FM110800
                       15005KT P6SM SCT150 OVC250 FM111200 15005KT
                       P6SM SCT150 BKN200
                      TEMPO 1112/1115 5SM BR BKN005 BKN200 FM111600
                       15005KT P6SM SCT150 OVC200 FM112200 18007KT
                       P6SM BKN150 OVC200 FM120600 18006KT P6SM
                       SCT080 OVC120 FM120900 18006KT P6SM -RA
                       SCT060 OVC080=
201611102341 TAF KSEA 102341Z 1100/1206 00000KT P6SM SCT150 BKN250 FM110800
                       15003KT 4SM BR BKN250 FM111000 15004KT 1/4SM
                       FG OVC001 FM111700 10004KT P6SM SCT001 OVC200
                       FM112000 19005KT P6SM OVC200=
201611102101 KSEA 102101Z 1021/1124 28005KT P6SM SCT160 BKN250 FM110300 01004KT
                       P6SM OVC200 FM110800 15005KT 4SM BR OVC001
                       FM111700 11004KT P6SM OVC200=
201611101729 TAF KSEA 101729Z 1018/1124 24003KT P6SM BCFG SCT001 OVC170
                      TEMPO 1018/1019 1/2SM FG BKN001 OVC170 FM102000
                       VRB03KT P6SM OVC200 FM110300 01004KT P6SM
                       OVC200 FM110800 15005KT 4SM BR OVC001 FM111700
                       11004KT P6SM OVC200=
201611101417 KSEA 101417Z 1014/1118 00000KT 1/4SM FG BKN001 FM101600 00000KT
                       4SM BR SCT002 SCT200
                      TEMPO 1016/1017 1SM BR BKN002 BKN200 FM101700
                       14005KT P6SM SCT010 BKN200 FM102000 16006KT
                       P6SM OVC200 FM110300 13004KT P6SM OVC200=
201611101210 KSEA 101210Z 1012/1118 VRB04KT 3SM BR SCT002 SCT200
                      TEMPO 1012/1016 1/2SM FG OVC002 FM101600
                       04004KT 4SM BR SCT005 SCT200 FM101700 14005KT
                       P6SM SCT010 BKN200 FM102000 16006KT P6SM
                       OVC200 FM110300 13004KT P6SM OVC200=
201611101120 TAF KSEA 101120Z 1012/1118 03004KT 5SM BR SCT002 SCT200
                      TEMPO 1012/1016 VRB03KT 1/2SM FG BKN002 FM101600
                       04004KT 3SM BR SCT005 SCT200 FM101700 14005KT
                       P6SM SCT010 BKN200 FM102000 16006KT P6SM
                       OVC200 FM110300 13004KT P6SM OVC200=
201611100903 KSEA 100903Z 1009/1112 02005KT 5SM BR FEW002 SCT200
                      TEMPO 1009/1011 3SM BR SCT002 FM101100 03004KT
                       3SM BR SCT002
                      TEMPO 1012/1016 VRB03KT 1/2SM FG VV002 FM101700
                       04004KT 2SM BR BKN003 FM101900 VRB03KT P6SM
                       SCT010 SCT200 FM102000 15005KT P6SM OVC200
                       FM110300 VRB04KT P6SM OVC150=
201611100725 KSEA 100725Z 1007/1112 VRB04KT 3SM BR SCT003 SCT200
                      TEMPO 1007/1009 00000KT 1SM BR OVC001 FM100900
                       04004KT 1/2SM FG OVC001 FM101600 04004KT
                       2SM BR BKN003
                      TEMPO 1016/1017 00000KT 1/2SM FG OVC001 FM101900
                       VRB03KT P6SM SCT010 SCT200 FM102000 15005KT
                       P6SM OVC200 FM110300 VRB04KT P6SM OVC150=
201611100551 TAF KSEA 100551Z 1006/1112 06006KT P6SM SCT200 FM101000 09004KT
                       5SM BR BKN005
                      TEMPO 1012/1016 00000KT 3SM BR OVC004 FM101900
                       VRB03KT P6SM SCT010 SCT200 FM102000 15005KT
                       P6SM OVC200 FM110300 VRB04KT P6SM OVC150=
201611092320 TAF KSEA 092320Z 1000/1106 VRB04KT P6SM SCT040 FM101300 00000KT
                       3SM BR BKN003 FM101800 VRB03KT P6SM SCT040=
201611092207 KSEA 092207Z 0922/1024 22007KT P6SM SCT030 SCT070 FM100600 VRB03KT
                       P6SM SCT070 FM101300 00000KT 5SM BR BKN002
                       FM101800 VRB03KT P6SM SCT040=
201611092116 KSEA 092116Z 0921/1024 22008KT P6SM BKN025 BKN070 FM092300 06004KT
                       P6SM SCT030 BKN070 FM101300 06005KT 5SM
                       BR BKN002 FM101800 VRB03KT P6SM SCT045 BKN090=
201611091731 TAF KSEA 091731Z 0918/1024 15007KT 5SM -RA BR BKN026 BKN035 OVC060
                       FM092000 19005KT P6SM BKN035 FM092300 06004KT
                       P6SM SCT035 SCT100 BKN250 FM101300 06005KT
                       5SM BR OVC001 FM101800 VRB03KT P6SM SCT045
                       BKN090=
201611091417 KSEA 091417Z 0914/1018 16004KT P6SM -RA OVC035 FM091800 20006KT
                       P6SM VCSH BKN030 FM092100 20006KT P6SM SCT040
                       FM092300 05005KT P6SM SCT040 SCT100 BKN250=
201611091123 TAF KSEA 091123Z 0912/1018 16007KT P6SM SCT060 BKN100 FM091300
                       18005KT P6SM -RA SCT015 BKN030 OVC060 FM091800
                       20006KT P6SM VCSH BKN030 FM092100 20006KT
                       P6SM SCT040 FM092300 05005KT P6SM SCT040
                       SCT100 BKN250=
201611090859 KSEA 090859Z 0909/1012 16007KT P6SM BKN060 BKN100 FM091200 18005KT
                       P6SM -RA SCT015 BKN030 OVC060 FM091800 20006KT
                       P6SM VCSH BKN030 FM092100 20006KT P6SM SCT040
                       FM092300 VRB03KT P6SM SCT040 SCT100 BKN250=
201611090532 TAF KSEA 090532Z 0906/1012 18006KT P6SM FEW070 SCT250 FM090700
                       16007KT P6SM BKN060 BKN100 FM091200 18005KT
                       P6SM -RA SCT015 BKN030 OVC060 FM091800 20006KT
                       P6SM VCSH BKN030 FM092100 20006KT P6SM SCT040
                       FM092300 VRB03KT P6SM SCT040 SCT100 BKN250=
201611090253 KSEA 090253Z 0903/1006 18006KT P6SM FEW070 SCT250 FM090700 16007KT
                       P6SM BKN060 BKN100 FM091200 18005KT P6SM
                       -RA SCT015 BKN030 OVC060 FM091800 20006KT
                       P6SM VCSH BKN030 FM092100 20006KT P6SM SCT040
                       FM092300 VRB03KT P6SM SCT040 SCT100 BKN250=
201611082320 TAF KSEA 082320Z 0900/1006 18006KT P6SM FEW070 FM090700 16007KT
                       P6SM BKN060 BKN100 FM091200 18005KT P6SM
                       -RA SCT015 BKN030 OVC060 FM091800 20006KT
                       P6SM VCSH BKN030 FM092100 20006KT P6SM SCT040=
201611082107 KSEA 082107Z 0821/0924 16006KT P6SM FEW070 FM082300 18008KT P6SM
                       SCT070 FM090700 16007KT P6SM BKN060 BKN100
                       FM091200 18005KT P6SM VCSH BKN030 OVC060=
201611081720 TAF KSEA 081720Z 0818/0924 15004KT P6SM FEW050 FM082000 18008KT
                       P6SM SCT060 FM090700 16007KT P6SM BKN060
                       BKN100 FM091200 18005KT P6SM VCSH BKN030
                       OVC060=
201611081509 KSEA 081509Z 0815/0918 15004KT P6SM FEW040 FEW200 FM081800 18008KT
                       P6SM SCT060 FM090700 16008KT P6SM BKN060=
201611081120 TAF KSEA 081120Z 0812/0918 11010KT P6SM FEW080 BKN200 FM081400
                       16007KT P6SM SCT060 BKN100 FM081800 18008KT
                       P6SM SCT060 FM090700 16008KT P6SM BKN060=
201611080857 KSEA 080857Z 0809/0912 11010KT P6SM FEW080 BKN200 FM081400 16007KT
                       P6SM SCT060 BKN100 FM081800 18008KT P6SM
                       SCT060 FM090700 16008KT P6SM BKN060=
201611080520 TAF KSEA 080520Z 0806/0912 11005KT P6SM FEW080 BKN150 FM081400
                       16006KT P6SM SCT060 BKN100
                      TEMPO 0814/0818 6SM BR BKN005 FM081800 18008KT
                       P6SM SCT060=
201611080405 KSEA 080405Z 0804/0906 11005KT P6SM FEW080 BKN200 FM081800 18008KT
                       P6SM SCT060=
201611072326 TAF KSEA 072326Z 0800/0906 12006KT P6SM FEW080 SCT140 OVC200 FM080300
                       11005KT P6SM FEW080 BKN200 FM081800 18008KT
                       P6SM SCT060=
201611072106 KSEA 072106Z 0721/0824 12006KT P6SM SCT070 SCT130 BKN200 FM080000
                       11005KT P6SM SCT080 BKN200 FM080600 13005KT
                       P6SM SCT060 BKN100=
201611071722 TAF KSEA 071722Z 0718/0824 12006KT P6SM BKN060 OVC120 FM080000
                       11005KT P6SM SCT080 BKN200 FM080600 13005KT
                       P6SM SCT060 BKN100=
201611071120 TAF KSEA 071120Z 0712/0818 14006KT P6SM SCT060 BKN090
                      TEMPO 0712/0714 -RA BKN060 OVC070 FM071400
                       14007KT P6SM SCT060 BKN100 OVC150 FM071900
                       12007KT P6SM SCT060 BKN150 FM080200 09008KT
                       P6SM SCT080 BKN200 FM080600 13005KT P6SM
                       SCT060 BKN100=
201611070906 KSEA 070906Z 0709/0812 14006KT P6SM -RA BKN060 OVC070 FM071400
                       14007KT P6SM BKN050 OVC080 FM071900 12007KT
                       P6SM SCT060 BKN150 FM080200 09008KT P6SM
                       SCT080 BKN200=
201611070520 TAF KSEA 070520Z 0706/0812 14006KT P6SM OVC050 FM070900 14006KT
                       P6SM -RA OVC050 FM071400 14007KT P6SM BKN050
                       OVC080 FM071900 12007KT P6SM SCT060 BKN150
                       FM080200 09008KT P6SM SCT080 BKN200=
201611070406 KSEA 070406Z 0704/0806 14006KT P6SM BKN060 BKN150 FM070900 14006KT
                       P6SM -RA OVC050 FM071400 14007KT P6SM BKN050
                       OVC080 FM071900 12007KT P6SM SCT060 BKN150
                       FM080200 09008KT P6SM SCT080 BKN200=
201611070050 KSEA 070050Z 0701/0806 22008KT P6SM BKN060 BKN150 FM070500 15006KT
                       P6SM BKN050 BKN080 FM070900 14006KT P6SM
                       -RA OVC050 FM071400 14007KT P6SM BKN050
                       OVC080 FM071900 12007KT P6SM SCT060 BKN150=
201611062321 TAF KSEA 062321Z 0700/0806 22008KT P6SM FEW050 BKN150 FM070500
                       15006KT P6SM BKN050 BKN080 FM070900 14006KT
                       P6SM -RA OVC050 FM071400 14007KT P6SM BKN050
                       OVC080 FM071900 12007KT P6SM SCT060 BKN150=
201611062105 KSEA 062105Z 0621/0724 20008KT P6SM SCT045 FM062300 20007KT P6SM
                       FEW050 SCT180 FM070500 15006KT P6SM BKN050
                       BKN080 FM070900 15007KT P6SM -RA OVC050=
201611061739 TAF KSEA 061739Z 0618/0724 17006KT P6SM BKN040 FM062000 18007KT
                       P6SM BKN050 FM062300 20007KT P6SM SCT050
                       BKN120 FM070500 15006KT P6SM BKN050 OVC080
                       FM070900 15007KT P6SM -RA OVC050=
201611061512 KSEA 061512Z 0615/0718 16006KT P6SM VCSH SCT030 BKN050
                      TEMPO 0615/0618 BKN030 BKN050 FM061800 19008KT
                       P6SM SCT030 BKN050 FM062300 20007KT P6SM
                       SCT050 BKN100 FM070600 15006KT P6SM SCT030
                       BKN100=
201611061120 TAF KSEA 061120Z 0612/0718 17005KT P6SM FEW025 BKN080 OVC100 FM061700
                       17005KT P6SM SCT020 BKN040 OVC080 FM062000
                       20007KT P6SM BKN040 FM070100 17005KT P6SM
                       SCT040 BKN100 FM070600 15006KT P6SM SCT020
                       BKN040=
201611061034 KSEA 061034Z 0611/0712 24006KT 4SM RA BR FEW020 BKN040 OVC050 FM061130
                       17005KT P6SM FEW025 BKN030 OVC050 FM061700
                       17005KT P6SM BKN020 OVC040 FM062000 20007KT
                       P6SM BKN040 FM070100 17005KT P6SM SCT040
                       BKN100 FM070600 15006KT P6SM SCT020 BKN040=
201611060903 KSEA 060903Z 0609/0712 17005KT P6SM FEW025 BKN030 OVC050 FM061700
                       17005KT P6SM BKN020 OVC040 FM062000 20007KT
                       P6SM BKN040 FM070100 17005KT P6SM SCT040
                       BKN100 FM070600 15006KT P6SM SCT020 BKN040=
201611060520 TAF KSEA 060520Z 0606/0712 19007KT 6SM -RA BR FEW015 SCT025 OVC050
                       FM060700 17005KT 6SM -DZ BR FEW005 BKN012
                       OVC040 FM061700 17005KT P6SM BKN020 OVC040
                       FM062000 20007KT P6SM BKN040 FM070100 17005KT
                       P6SM SCT040 BKN100=
201611060300 KSEA 060300Z 0603/0706 23006KT 5SM -RA BR SCT012 BKN020 OVC040
                       FM060400 19007KT 6SM -RA BR FEW015 BKN025
                       OVC040
                      TEMPO 0604/0606 4SM -RA BR BKN015 OVC025
                       FM060700 17005KT 6SM -DZ BR FEW005 BKN012
                       OVC040 FM061700 17005KT P6SM BKN020 OVC040
                       FM062000 20007KT P6SM BKN040 FM070100 17005KT
                       P6SM SCT040 BKN100=
201611060142 KSEA 060142Z 0602/0706 23006KT 2SM -RA BR BKN003 BKN012 OVC045
                       TEMPO 0602/0604 5SM -RA BR SCT003 BKN020
                       OVC045 FM060400 19007KT 6SM -RA BR FEW015
                       BKN025 OVC040
                      TEMPO 0604/0606 4SM -RA BR BKN015 OVC025
                       FM060700 17005KT 6SM -DZ BR FEW005 BKN012
                       OVC040 FM061700 17005KT P6SM BKN020 OVC040
                       FM062000 20007KT P6SM BKN040=
201611052326 TAF KSEA 052326Z 0600/0706 18007KT 6SM -RA BR BKN025 OVC040
                      TEMPO 0600/0603 3SM -RA BR SCT025 OVC040
                       FM060300 19007KT 6SM -RA BR FEW015 BKN025
                       OVC040
                      TEMPO 0603/0606 4SM -RA BR BKN015 OVC025
                       FM060700 17005KT 6SM -DZ BR FEW005 BKN012
                       OVC040 FM061700 17005KT P6SM BKN020 OVC040
                       FM062000 20007KT P6SM BKN040=
201611052130 KSEA 052130Z 0522/0624 16007KT 6SM -RA BR SCT025 OVC040
                      TEMPO 0522/0524 3SM -RA BR BKN025 OVC040
                       FM060000 20007KT 6SM -RA BR SCT010 BKN025
                       OVC040 FM060700 18006KT P6SM SCT020 OVC035=
201611051729 TAF KSEA 051729Z 0518/0624 18007KT 5SM -RA BR SCT010 OVC035
                      TEMPO 0518/0522 1 1/2SM RA BR BKN007 OVC035
                       FM052200 20007KT 5SM -RA BR SCT008 BKN015
                       OVC035 FM060000 19006KT 6SM -RA BR SCT015
                       OVC025 FM060700 18006KT P6SM SCT020 OVC035=
201611051542 KSEA 051542Z 0516/0618 VRB05KT 5SM -RA BR OVC035
                      TEMPO 0516/0518 1 1/2SM RA BR BKN007 OVC035
                       FM051800 18009KT 5SM -RA BR BKN020 OVC040
                       FM060000 19006KT 5SM -RA BR BKN015 OVC025
                       FM060300 18005KT P6SM BKN020 OVC040=
201611051519 KSEA 051519Z 0515/0618 VRB05KT 5SM -RA BR BKN030 OVC045 FM051800
                       18009KT 5SM -RA BR BKN025 OVC040 FM060000
                       19006KT 5SM -RA BR BKN010 OVC020 FM060300
                       18005KT P6SM BKN020 OVC040=
201611051120 TAF KSEA 051120Z 0512/0618 16007KT P6SM SCT070 OVC100 FM051500
                       17012KT 6SM -RA BR BKN030 OVC050 FM051800
                       18009KT 5SM -RA BR BKN025 OVC040 FM060000
                       19006KT 5SM -RA BR BKN010 OVC020 FM060300
                       18005KT P6SM BKN020 OVC040=
201611050903 KSEA 050903Z 0509/0612 16007KT P6SM SCT070 OVC100 FM051000 16008KT
                       P6SM -RA BKN050 OVC080 FM051500 17012KT
                       6SM -RA BR BKN030 OVC050 FM051800 18009KT
                       5SM -RA BR BKN025 OVC040 FM060000 19006KT
                       5SM -RA BR BKN010 OVC020 FM060500 18005KT
                       P6SM BKN020 OVC040=
201611050520 TAF KSEA 050520Z 0506/0612 16007KT P6SM SCT070 OVC100 FM051000
                       16008KT P6SM -RA BKN050 OVC080 FM051500
                       17012KT 6SM -RA BR BKN030 OVC050 FM051800
                       18009KT 5SM -RA BR BKN025 OVC040 FM060000
                       19006KT 5SM -RA BR BKN010 OVC020=
201611050309 KSEA 050309Z 0503/0606 15007KT P6SM SCT050 OVC100
                      TEMPO 0503/0506 -RA FM050600 16007KT P6SM
                       SCT050 OVC100 FM051000 16008KT P6SM -RA
                       BKN050 OVC080 FM051500 17012KT 6SM -RA BR
                       BKN030 OVC050 FM051800 18009KT 5SM -RA BR
                       BKN025 OVC040=
201611042327 TAF KSEA 042327Z 0500/0606 21007KT P6SM BKN200 FM050600 16007KT
                       P6SM SCT050 OVC100 FM051000 16008KT P6SM
                       -RA BKN050 OVC080 FM051500 17012KT 6SM -RA
                       BR BKN030 OVC050 FM051800 18009KT 5SM -RA
                       BR BKN025 OVC040=
201611042116 KSEA 042116Z 0421/0524 18007KT P6SM BKN200 FM050400 16007KT P6SM
                       OVC100 FM050800 16008KT P6SM -RA BKN050
                       OVC080 FM051500 17012KT 6SM -RA BR BKN030
                       OVC050 FM051800 18009KT 5SM -RA BR BKN025
                       OVC040=
201611041740 TAF KSEA 041740Z 0418/0524 18007KT P6SM BKN200 FM050400 16007KT
                       P6SM OVC100 FM050800 16007KT P6SM BKN050
                       OVC080 FM051000 17008KT P6SM -RA OVC050
                       FM051500 17012KT 6SM -RA BR BKN030 OVC050=
201611041441 KSEA 041441Z 0415/0518 14006KT P6SM SCT200 FM042000 20008KT P6SM
                       BKN200 FM050000 18007KT P6SM SCT120 OVC200
                       FM050500 14006KT P6SM SCT050 OVC080 FM051100
                       14006KT P6SM -RA OVC050=
201611041131 TAF KSEA 041131Z 0412/0518 VRB03KT P6SM SCT001 SCT200
                      TEMPO 0412/0416 4SM BR SCT001 BKN200 FM041600
                       14006KT P6SM BKN200 FM050000 14006KT P6SM
                       SCT120 OVC200 FM050500 14006KT P6SM SCT050
                       OVC080 FM051100 14006KT P6SM -RA OVC050=
201611040903 KSEA 040903Z 0409/0512 VRB03KT P6SM SCT200
                      TEMPO 0413/0416 6SM BR SCT002 FM041600 14006KT
                       P6SM BKN200 FM050000 14006KT P6SM SCT120
                       OVC200 FM050500 14006KT P6SM SCT050 OVC080
                       FM051100 14006KT P6SM -RA OVC050=
201611040526 TAF KSEA 040526Z 0406/0512 VRB03KT P6SM SCT200
                      TEMPO 0413/0416 4SM BR SCT002 FM041600 14006KT
                       P6SM BKN200 FM050000 14006KT P6SM SCT120
                       OVC200 FM050500 14006KT P6SM SCT050 OVC080
                       FM051100 14006KT P6SM -RA OVC050=
201611040315 KSEA 040315Z 0403/0506 03006KT P6SM SCT200
                      TEMPO 0413/0416 4SM BR SCT002 FM041600 14006KT
                       P6SM BKN200 FM050000 14006KT P6SM SCT120
                       OVC200=
201611032329 TAF KSEA 032329Z 0400/0506 32004KT P6SM SCT200 FM040300 05004KT
                       P6SM SCT200 FM040900 09004KT P6SM BCFG SCT200
                       FM041200 09005KT 4SM BR FEW004 SCT200
                      TEMPO 0413/0417 1SM BR BKN004 BKN200 FM041900
                       17006KT P6SM BKN200 FM050000 20007KT P6SM
                       SCT120 OVC200=
201611032101 KSEA 032101Z 0321/0424 VRB03KT P6SM FEW100 BKN200 FM040300 05005KT
                       P6SM BKN200 FM040900 09005KT P6SM BCFG SCT200
                       TEMPO 0410/0412 4SM BR FM041200 09005KT
                       4SM BR FEW004 SCT200
                      TEMPO 0413/0417 1SM BR BKN004 BKN200 FM041900
                       19006KT P6SM BKN200=
201611031735 TAF KSEA 031735Z 0318/0424 VRB05KT P6SM FEW040 BKN200 FM040300
                       05005KT P6SM BKN200 FM040900 09005KT P6SM
                       BCFG SCT200
                      TEMPO 0410/0412 4SM BR FM041200 09005KT 4SM
                       BR FEW004 SCT200
                      TEMPO 0413/0417 1SM BR BKN004 BKN200 FM041900
                       19006KT P6SM BKN200=
201611031513 KSEA 031513Z 0315/0418 15005KT P6SM FEW010 SCT050 SCT200 FM031800
                       17006KT P6SM SCT050 SCT200 FM040000 02006KT
                       P6SM SCT200=
201611031133 TAF KSEA 031133Z 0312/0418 19008KT P6SM BKN050 FM031400 19008KT
                       P6SM SCT004 BKN050 FM031800 17006KT P6SM
                       SCT050 SCT200 FM040000 02006KT P6SM SCT200=
201611030924 KSEA 030924Z 0309/0412 19006KT P6SM BKN060 FM031400 19006KT P6SM
                       SCT004 BKN060 FM031800 19006KT P6SM SCT050
                       SCT200 FM040000 02006KT P6SM SCT200=
201611030539 TAF KSEA 030539Z 0306/0412 14008KT P6SM -RA SCT040 OVC060 FM030900
                       19010KT P6SM SCT025 BKN050
                      TEMPO 0312/0316 BKN025 OVC050 FM031800 18006KT
                       P6SM SCT050 SCT200 FM040000 02006KT P6SM
                       SCT200=
201611030307 KSEA 030307Z 0303/0406 14008KT P6SM -RA SCT040 OVC060 FM030900
                       19009KT P6SM SCT028 BKN050 BKN100
                      TEMPO 0309/0313 -SHRA FM031800 17005KT P6SM
                       SCT035 SCT050 BKN200 FM040000 VRB04KT P6SM
                       SCT050 SCT200=
201611022334 TAF KSEA 022334Z 0300/0406 14008KT P6SM FEW030 BKN070 OVC110 WS020/18030KT
                       TEMPO 0300/0304 -RA FEW030 OVC050 FM030400
                       17013G20KT P6SM -RA BKN028 OVC050 FM030600
                       19009KT P6SM SCT028 BKN050 BKN100
                      TEMPO 0306/0310 -SHRA FM031800 17005KT P6SM
                       SCT035 SCT050 BKN200 FM040000 VRB04KT P6SM
                       SCT050 SCT200=
201611022106 KSEA 022106Z 0221/0324 11009KT P6SM -RA SCT045 OVC070 WS020/19030KT
                       FM030000 17012KT P6SM -RA BKN025 OVC040
                       WS020/19035KT FM030400 19013G23KT P6SM -RA
                       BKN025 OVC040 FM030600 19009KT P6SM SCT028
                       BKN050 BKN100
                      PROB30 0306/0312 -SHRA FM031800 17005KT P6SM
                       SCT028 SCT050 BKN200=
201611021740 TAF KSEA 021740Z 0218/0324 13010KT P6SM -RA SCT028 OVC040 WS020/18025KT
                       TEMPO 0218/0220 5SM -RA BR FM022100 11010KT
                       P6SM -RA FEW025 SCT040 OVC070 WS020/19030KT
                       FM030000 17012KT P6SM -RA BKN025 OVC040
                       WS020/19035KT FM030400 19013G23KT P6SM -RA
                       BKN025 OVC040 FM030600 19009KT P6SM SCT028
                       BKN050 BKN100
                      PROB30 0306/0312 -SHRA FM031800 17005KT P6SM
                       SCT028 SCT050 BKN200=
201611021613 KSEA 021613Z 0216/0318 13013KT P6SM -RA FEW028 OVC040
                      TEMPO 0216/0219 11013G20KT 5SM -RA BR OVC028
                       FM030300 18010KT P6SM -RA SCT020 OVC035
                       FM031000 16006KT P6SM BKN022 OVC035=
201611021503 KSEA 021503Z 0215/0318 11013KT P6SM -RA FEW030 OVC045
                      TEMPO 0215/0219 11013G20KT 6SM -RA BR OVC030
                       FM030300 18010KT P6SM -RA SCT020 OVC035
                       FM031000 16006KT P6SM BKN022 OVC035=
201611021136 TAF KSEA 021136Z 0212/0318 14008KT P6SM -RA SCT030 OVC045 FM030300
                       18010KT P6SM -RA SCT020 OVC035 FM031000
                       16006KT P6SM BKN022 OVC035=
201611020906 KSEA 020906Z 0209/0312 17004KT P6SM SCT060 OVC100 FM021400 14008KT
                       P6SM -RA SCT030 OVC045 FM030300 18010KT
                       P6SM -RA SCT020 OVC035 FM031000 20010KT
                       P6SM BKN022 OVC035=
201611020538 TAF KSEA 020538Z 0206/0312 14008KT P6SM SCT045 BKN080 OVC150 FM021400
                       14008KT P6SM -RA SCT030 OVC045 FM030300
                       18010KT P6SM -RA SCT020 OVC035 FM031000
                       20010KT P6SM BKN022 OVC035=
201611020316 KSEA 020316Z 0203/0306 18008KT P6SM SCT035 BKN060 OVC090 FM021200
                       13008KT P6SM SCT045 BKN070 OVC150
                      PROB30 0212/0218 -RA OVC045 FM021800 13008KT
                       P6SM SCT050 OVC110
                      PROB30 0218/0224 -RA OVC050 FM030000 17009KT
                       P6SM -RA SCT025 OVC050=
201611012336 TAF KSEA 012336Z 0200/0306 19010KT P6SM -RA SCT035 OVC050
                      TEMPO 0200/0204 -RA BKN035 OVC050 FM020600
                       17006KT P6SM SCT035 BKN070 OVC150 FM021200
                       13008KT P6SM SCT045 BKN070 OVC150
                      PROB30 0212/0218 -RA OVC045 FM021800 13008KT
                       P6SM SCT050 OVC110
                      PROB30 0218/0224 -RA OVC050 FM030000 17009KT
                       P6SM -RA SCT025 OVC050=
201611012059 KSEA 012059Z 0121/0224 20010KT P6SM VCSH SCT030 BKN050 OVC150 FM020300
                       17006KT P6SM VCSH SCT040 BKN070 OVC150 FM021200
                       13009KT P6SM SCT045 BKN070 OVC150
                      PROB30 0212/0218 -RA OVC045=
201611011959 KSEA 011959Z 0120/0224 20012KT P6SM VCSH FEW009 BKN028 BKN050 FM012100
                       20012KT P6SM VCSH BKN028 BKN060 FM012300
                       20010KT P6SM VCSH BKN035 BKN070 OVC150 FM020300
                       17006KT P6SM VCSH SCT040 BKN070 OVC150 FM021200
                       13009KT P6SM SCT045 BKN070 OVC150
                      PROB30 0212/0218 -RA OVC045=
201611011831 KSEA 011831Z 0119/0224 18008KT P6SM VCSH FEW009 BKN025 OVC040
                      TEMPO 0119/0120 FEW009 BKN020 OVC040 FM012100
                       20010KT P6SM VCSH BKN028 BKN060 FM012300
                       20010KT P6SM VCSH BKN035 BKN070 OVC150 FM020300
                       17006KT P6SM VCSH SCT040 BKN070 OVC150 FM021200
                       13009KT P6SM SCT045 BKN070 OVC150
                      PROB30 0212/0218 -RA OVC045=
201611011740 TAF KSEA 011740Z 0118/0224 18008KT P6SM VCSH SCT006 BKN020 OVC035
                       TEMPO 0118/0120 BKN006 OVC020 FM012100 20010KT
                       P6SM VCSH BKN028 BKN060 FM012300 20010KT
                       P6SM VCSH BKN035 BKN070 OVC150 FM020300
                       17006KT P6SM VCSH SCT040 BKN070 OVC150 FM021200
                       13009KT P6SM SCT045 BKN070 OVC150
                      PROB30 0212/0218 -RA OVC045=
201611011625 KSEA 011625Z 0116/0218 17006KT P6SM -RA SCT006 OVC015
                      TEMPO 0116/0118 2SM -RA BR BKN006 OVC015
                       FM011800 17008KT P6SM BKN015 BKN030 BKN060
                       FM012100 14008KT P6SM SCT030 BKN070 FM020300
                       14008KT P6SM SCT070 BKN120 OVC200 FM021400
                       14008KT P6SM BKN060 OVC100=
201611011500 KSEA 011500Z 0115/0218 20006KT P6SM -RA FEW008 OVC015
                      TEMPO 0115/0118 4SM -RA BR BKN008 OVC015
                       FM011800 17008KT P6SM SCT015 BKN030 BKN060
                       FM012100 14008KT P6SM SCT035 BKN070 FM020300
                       14008KT P6SM SCT070 BKN120 OVC200 FM021400
                       14008KT P6SM BKN060 OVC100=
201611011130 TAF KSEA 011130Z 0112/0218 17006KT P6SM -RA BKN015 OVC025 FM011500
                       17006KT P6SM SCT015 BKN025 OVC035 FM011800
                       17008KT P6SM SCT025 BKN040 BKN060 FM012100
                       14008KT P6SM SCT035 BKN070 FM020300 14008KT
                       P6SM SCT070 BKN120 OVC200 FM021400 14008KT
                       P6SM BKN060 OVC100=
201611010909 KSEA 010909Z 0109/0212 13006KT P6SM BKN005 OVC011 FM011300 17006KT
                       5SM -RA BR SCT006 OVC011 FM011800 17008KT
                       P6SM SCT011 BKN020 OVC035 FM012100 17008KT
                       P6SM SCT020 BKN035 BKN050 FM020200 14008KT
                       P6SM SCT035 BKN070 BKN150=
201611010541 TAF KSEA 010541Z 0106/0212 13006KT P6SM SCT022 OVC030
                      TEMPO 0106/0108 4SM -RA BKN022 OVC030 FM011000
                       13006KT P6SM BKN011 OVC020 FM011300 17006KT
                       5SM -RA BR SCT006 OVC011 FM011800 17008KT
                       P6SM SCT011 BKN020 OVC035 FM012100 17008KT
                       P6SM SCT020 BKN035 BKN050 FM020200 14008KT
                       P6SM SCT035 BKN070 BKN150=
201611010311 KSEA 010311Z 0103/0206 17006KT P6SM -RA SCT025 OVC050
                      TEMPO 0103/0107 BKN025 OVC050 FM010700 14005KT
                       P6SM -RA SCT015 OVC028
                      TEMPO 0108/0112 5SM -RA BR BKN015 OVC028
                       FM011200 17005KT 5SM -RA BR FEW009 OVC015
                       FM011800 19009KT P6SM VCSH BKN025 OVC060
                       FM012100 19009KT P6SM VCSH BKN035 BKN070
                       PROB30 0121/0124 -SHRA FM020200 17007KT
                       P6SM VCSH SCT035 BKN070 BKN150=