##########################################################
# Query made at 02/17/2025 19:58:20 UTC
# Time interval: from 12/01/2016 00:00  to 12/31/2016 23:59  UTC
##########################################################

##########################################################
# KSEA, Seattle, Seattle-Tacoma International Airport (United States)
# WMO index: 72793. WIGOS ID: 0-20000-0-72793
# Latitude 47-27-00N. Longitude 122-17-59W. Altitude 130 m.
##########################################################

###################################
#  METAR/SPECI from KSEA
###################################
201612312353 METAR KSEA 312353Z 17009KT 9SM BKN011 OVC018 02/01 A2989 RMK AO2 SLP131 60001 T00220011 10022 20000 58049=
201612312253 METAR KSEA 312253Z 13008KT 7SM BKN014 OVC021 01/01 A2994 RMK AO2 SNE29 SLP150 P0001 T00110006=
201612312234 SPECI KSEA 312234Z 15009KT 3SM BR FEW008 OVC016 02/01 A2995 RMK AO2 SNE29 P0001 T00170006=
201612312153 METAR KSEA 312153Z 13010KT 2SM -SN BR FEW006 BKN018 OVC028 01/00 A2999 RMK AO2 SLP164 P0000 T00110000=
201612312132 SPECI KSEA 312132Z 14008KT 2SM -SN BR BKN025 BKN033 OVC043 01/00 A3001 RMK AO2 P0000 T00060000=
201612312053 METAR KSEA 312053Z 15008KT 4SM -SN BR BKN023 OVC035 01/M01 A3003 RMK AO2 SNB40 SLP181 P0000 60000 T00111006 58025=
201612311953 METAR KSEA 311953Z 15006KT 10SM FEW010 OVC037 01/M01 A3007 RMK AO2 SLP194 T00061011=
201612311858 SPECI KSEA 311858Z 16003KT 10SM FEW006 FEW012 OVC037 01/M01 A3009 RMK AO2 T00111006=
201612311853 METAR KSEA 311853Z 14004KT 10SM BKN006 BKN012 OVC037 01/M01 A3009 RMK AO2 SLP201 T00061006=
201612311840 SPECI KSEA 311840Z 16005KT 10SM BKN010 OVC031 00/M01 A3010 RMK AO2 T00001011=
201612311753 METAR KSEA 311753Z 14007KT 10SM SCT006 OVC031 00/M02 A3011 RMK AO2 SLP206 T00001017 10006 21017 56023=
201612311653 METAR KSEA 311653Z 14008KT 10SM FEW004 OVC033 M01/M02 A3011 RMK AO2 SLP207 T10061017=
201612311553 METAR KSEA 311553Z 14007KT 10SM FEW004 OVC033 M01/M02 A3015 RMK AO2 SLP219 T10061017=
201612311500 SPECI KSEA 311500Z 13006KT 10SM FEW003 FEW012 OVC030 00/M01 A3017 RMK AO2 T00001011=
201612311453 METAR KSEA 311453Z 13005KT 10SM FEW015 OVC030 01/M01 A3018 RMK AO2 SLP230 T00061006 56018=
201612311353 METAR KSEA 311353Z 13005KT 10SM FEW010 OVC030 M01/M01 A3019 RMK AO2 SLP235 T10061011=
201612311253 METAR KSEA 311253Z 13004KT 6SM BR FEW010 BKN034 M01/M03 A3020 RMK AO2 SLP238 T10111028=
201612311153 METAR KSEA 311153Z 18004KT 10SM FEW025 M02/M02 A3023 RMK AO2 SLP248 70002 T10171022 10028 21017 58014=
201612311053 METAR KSEA 311053Z 11005KT 7SM SCT038 M01/M02 A3025 RMK AO2 SLP252 T10061017=
201612310953 METAR KSEA 310953Z 12005KT 7SM BKN040 00/M01 A3027 RMK AO2 SLP261 T00001006=
201612310853 METAR KSEA 310853Z 00000KT 6SM BR FEW010 01/00 A3027 RMK AO2 SLP261 T00060000 58002=
201612310753 METAR KSEA 310753Z 00000KT 10SM CLR 02/01 A3028 RMK AO2 SLP263 T00170006 400720011=
201612310653 METAR KSEA 310653Z 04006KT 10SM CLR 02/01 A3029 RMK AO2 SLP265 T00220006=
201612310553 METAR KSEA 310553Z 04007KT 10SM CLR 03/01 A3028 RMK AO2 SLP263 T00280006 10050 20017 56007=
201612310453 METAR KSEA 310453Z 05003KT 10SM CLR 02/00 A3028 RMK AO2 SLP265 T00220000=
201612310353 METAR KSEA 310353Z 04003KT 10SM FEW042 03/00 A3029 RMK AO2 SLP265 T00280000=
201612310253 METAR KSEA 310253Z 02005KT 10SM SCT042 03/M01 A3030 RMK AO2 SLP270 T00281006 50000=
201612310153 METAR KSEA 310153Z 36005KT 10SM SCT050 03/M01 A3032 RMK AO2 SLP275 T00331006=
201612310053 METAR KSEA 310053Z 02007KT 10SM BKN050 04/00 A3030 RMK AO2 SLP271 T00440000=
201612302353 METAR KSEA 302353Z 36005KT 10SM FEW020 BKN050 05/01 A3030 RMK AO2 SLP269 T00500006 10072 20050 53002=
201612302253 METAR KSEA 302253Z 36007KT 10SM BKN040 06/01 A3030 RMK AO2 SLP268 T00610006=
201612302153 METAR KSEA 302153Z 02011KT 10SM FEW020 BKN049 06/00 A3029 RMK AO2 SLP266 T00610000=
201612302053 METAR KSEA 302053Z 01011KT 10SM FEW021 BKN050 07/01 A3029 RMK AO2 SLP266 T00720011 58003=
201612301953 METAR KSEA 301953Z 04010KT 10SM FEW035 BKN050 07/01 A3030 RMK AO2 SLP270 T00670011=
201612301853 METAR KSEA 301853Z 01008KT 10SM FEW015 FEW034 BKN050 07/02 A3031 RMK AO2 SLP271 T00670017=
201612301753 METAR KSEA 301753Z 10004KT 10SM FEW014 SCT032 BKN050 05/03 A3030 RMK AO2 RAE51 SLP269 P0000 60002 T00500028 10050 20033 53019=
201612301749 SPECI KSEA 301749Z 13003KT 10SM -RA FEW014 SCT032 BKN050 04/03 A3030 RMK AO2 P0000=
201612301653 METAR KSEA 301653Z 11005KT 10SM -RA FEW014 BKN026 BKN055 04/03 A3027 RMK AO2 RAB51 SLP259 P0000 T00440028=
201612301553 METAR KSEA 301553Z 10006KT 10SM FEW015 BKN023 BKN055 03/03 A3025 RMK AO2 RAE12 SLP253 P0001 T00330028=
201612301453 METAR KSEA 301453Z 32006KT 10SM -RA FEW002 BKN025 OVC034 04/03 A3025 RMK AO2 RAB10 SLP250 P0001 60001 T00390033 53011=
201612301353 METAR KSEA 301353Z 12004KT 9SM FEW001 FEW013 OVC024 04/03 A3022 RMK AO2 RAB07E21 SLP243 P0000 T00390028=
201612301336 SPECI KSEA 301336Z 14005KT 10SM SCT013 BKN024 03/03 A3022 RMK AO2 RAB07E21 P0000 T00330028=
201612301253 METAR KSEA 301253Z 15004KT 10SM BKN042 OVC055 04/03 A3022 RMK AO2 SLP241 T00390028=
201612301243 SPECI KSEA 301243Z 14007KT 10SM FEW026 BKN048 OVC055 04/03 A3022 RMK AO2 T00390028=
201612301153 METAR KSEA 301153Z 14005KT 10SM OVC024 04/03 A3021 RMK AO2 RAE50 SLP239 P0000 60001 70005 T00440033 10056 20044 50006=
201612301053 METAR KSEA 301053Z 11007KT 8SM -RA OVC025 04/03 A3021 RMK AO2 RAB51 SLP240 P0000 T00440033=
201612300953 METAR KSEA 300953Z 10009KT 10SM OVC016 04/03 A3020 RMK AO2 SLP234 T00440033=
201612300853 METAR KSEA 300853Z 09009KT 10SM OVC016 04/03 A3020 RMK AO2 SLP235 60001 T00440033 51004=
201612300753 METAR KSEA 300753Z 04007KT 10SM OVC013 04/03 A3019 RMK AO2 RAE34 SLP233 P0000 T00440033 400890044=
201612300708 SPECI KSEA 300708Z 06006KT 4SM -RA BR SCT006 OVC012 05/04 A3019 RMK AO2 P0000 T00500039=
201612300653 METAR KSEA 300653Z 05010KT 2SM -RA BR BKN006 OVC012 05/04 A3019 RMK AO2 RAE07B28 SLP232 P0001 T00500039=
201612300647 SPECI KSEA 300647Z 06012KT 3SM -RA BR BKN006 OVC010 05/04 A3018 RMK AO2 RAE07B28 P0000=
201612300553 METAR KSEA 300553Z 07006KT 6SM -RA BR OVC010 06/04 A3018 RMK AO2 RAB44 SLP227 P0000 60000 T00560039 10089 20056 53009=
201612300453 METAR KSEA 300453Z 23008KT 10SM OVC015 07/04 A3017 RMK AO2 RAB06E29 SLP225 P0000 T00670044=
201612300353 METAR KSEA 300353Z 21008KT 10SM OVC016 07/04 A3015 RMK AO2 SLP217 T00670044=
201612300348 SPECI KSEA 300348Z 23006KT 10SM OVC016 07/04 A3015 RMK AO2=
201612300253 METAR KSEA 300253Z 23011KT 10SM FEW009 OVC014 07/04 A3013 RMK AO2 RAE49 SLP213 P0000 60000 T00720044 53012=
201612300200 SPECI KSEA 300200Z 24011KT 10SM -RA FEW009 BKN011 OVC049 07/06 A3012 RMK AO2 P0000 T00720056=
201612300153 METAR KSEA 300153Z 22012G19KT 10SM -RA FEW009 SCT014 OVC049 07/06 A3012 RMK AO2 RAB53 SLP206 P0000 T00720056=
201612300148 SPECI KSEA 300148Z 21012G19KT 10SM FEW009 SCT014 OVC049 07/06 A3011 RMK AO2=
201612300110 SPECI KSEA 300110Z 20019G24KT 10SM FEW016 SCT025 OVC046 08/06 A3010 RMK AO2 T00780056=
201612300053 METAR KSEA 300053Z 20017G22KT 10SM SCT016 BKN023 OVC046 08/06 A3010 RMK AO2 SLP201 T00780056=
201612292353 METAR KSEA 292353Z 21012G22KT 10SM OVC023 09/06 A3009 RMK AO2 RAE24 SLP198 P0001 60004 T00890056 10089 20050 55008=
201612292253 METAR KSEA 292253Z 17009KT 10SM -RA OVC025 07/04 A3009 RMK AO2 SLP197 P0002 T00720044=
201612292153 METAR KSEA 292153Z 16009KT 10SM -RA BKN025 OVC035 06/04 A3010 RMK AO2 SLP202 P0001 T00610039=
201612292053 METAR KSEA 292053Z 17006KT 10SM -RA OVC024 06/03 A3012 RMK AO2 RAB32 SLP206 P0000 60000 T00560028 58020=
201612292014 SPECI KSEA 292014Z 16007KT 10SM OVC028 06/02 A3013 RMK AO2 T00560017=
201612291953 METAR KSEA 291953Z 17006KT 10SM OVC034 06/02 A3015 RMK AO2 SLP218 T00560017=
201612291853 METAR KSEA 291853Z 19006KT 10SM OVC046 05/02 A3018 RMK AO2 SLP228 T00500022=
201612291753 METAR KSEA 291753Z 20008KT 10SM BKN070 OVC090 05/02 A3018 RMK AO2 SLP228 T00500022 10056 20044 53001=
201612291653 METAR KSEA 291653Z 18006KT 10SM FEW010 BKN085 BKN100 05/01 A3016 RMK AO2 SLP223 T00500011=
201612291553 METAR KSEA 291553Z 17008KT 10SM FEW010 BKN090 BKN110 04/01 A3017 RMK AO2 SLP227 T00440006=
201612291453 METAR KSEA 291453Z 15005KT 10SM OVC085 04/00 A3017 RMK AO2 SLP226 T00440000 56019=
201612291353 METAR KSEA 291353Z 17003KT 10SM OVC100 04/01 A3019 RMK AO2 SLP231 T00440006=
201612291253 METAR KSEA 291253Z 15006KT 10SM OVC100 06/01 A3020 RMK AO2 SLP236 T00560006=
201612291153 METAR KSEA 291153Z 17003KT 10SM OVC090 04/01 A3023 RMK AO2 SLP245 T00440006 10061 20039 58014=
201612291053 METAR KSEA 291053Z 25004KT 10SM OVC080 05/01 A3024 RMK AO2 SLP250 T00500011=
201612290953 METAR KSEA 290953Z 23006KT 10SM SCT055 BKN075 OVC090 04/M01 A3028 RMK AO2 SLP261 T00441006=
201612290853 METAR KSEA 290853Z 19004KT 10SM OVC075 05/M01 A3027 RMK AO2 SLP259 T00501011 58031=
201612290753 METAR KSEA 290753Z 12009KT 10SM SCT070 OVC085 04/M01 A3031 RMK AO2 SLP272 T00441011 400830033=
201612290653 METAR KSEA 290653Z 14007KT 10SM BKN060 BKN080 OVC095 04/M01 A3034 RMK AO2 SLP282 T00441006=
201612290553 METAR KSEA 290553Z 15005KT 10SM OVC090 04/00 A3036 RMK AO2 SLP291 T00440000 10072 20044 58007=
201612290453 METAR KSEA 290453Z 12006KT 10SM OVC100 05/M01 A3037 RMK AO2 SLP295 T00501006=
201612290353 METAR KSEA 290353Z 13006KT 10SM OVC100 06/00 A3038 RMK AO2 SLP296 T00560000=
201612290253 METAR KSEA 290253Z 11004KT 10SM BKN110 OVC200 06/00 A3038 RMK AO2 SLP298 T00610000 58008=
201612290153 METAR KSEA 290153Z 00000KT 10SM FEW040 BKN100 OVC200 06/02 A3039 RMK AO2 SLP300 T00610022=
201612290053 METAR KSEA 290053Z 19003KT 10SM FEW039 BKN110 OVC250 07/02 A3041 RMK AO2 SLP305 T00670017=
201612282353 METAR KSEA 282353Z 20003KT 10SM SCT036 BKN110 BKN250 07/02 A3041 RMK AO2 SLP306 T00720017 10083 20056 58008=
201612282253 METAR KSEA 282253Z 19006KT 10SM SCT036 SCT120 BKN250 08/01 A3042 RMK AO2 SLP309 T00780011=
201612282153 METAR KSEA 282153Z 20008KT 10SM FEW030 FEW180 SCT250 08/02 A3042 RMK AO2 SLP311 T00830017=
201612282053 METAR KSEA 282053Z 19010KT 10SM FEW030 FEW120 BKN250 08/02 A3043 RMK AO2 SLP314 T00780017 58006=
201612281953 METAR KSEA 281953Z 20011KT 10SM FEW035 FEW110 OVC250 07/02 A3045 RMK AO2 SLP318 T00720017=
201612281853 METAR KSEA 281853Z 19012KT 10SM FEW032 FEW110 OVC250 06/01 A3045 RMK AO2 SLP321 T00610011=
201612281753 METAR KSEA 281753Z 18013KT 10SM FEW018 SCT032 BKN250 05/01 A3045 RMK AO2 SLP321 T00500011 10050 20033 53013=
201612281731 SPECI KSEA 281731Z 20012KT 10SM FEW018 SCT030 BKN250 05/01 A3044 RMK AO2 T00500006=
201612281653 METAR KSEA 281653Z 19012KT 10SM FEW017 BKN028 BKN250 04/01 A3043 RMK AO2 SLP314 T00440006=
201612281553 METAR KSEA 281553Z 17010KT 10SM FEW016 BKN024 BKN200 04/01 A3042 RMK AO2 SLP310 T00390006=
201612281453 METAR KSEA 281453Z 18009KT 10SM BKN016 03/01 A3041 RMK AO2 SLP307 T00330011 51016=
201612281353 METAR KSEA 281353Z 17009KT 10SM BKN016 03/01 A3040 RMK AO2 SLP305 T00330011=
201612281253 METAR KSEA 281253Z 18009KT 10SM BKN015 BKN020 04/02 A3039 RMK AO2 SLP300 T00390017=
201612281153 METAR KSEA 281153Z 17006KT 10SM BKN015 BKN020 03/01 A3036 RMK AO2 SLP291 70005 T00330011 10050 20033 51025=
201612281053 METAR KSEA 281053Z 15006KT 10SM BKN015 OVC023 03/01 A3034 RMK AO2 SLP283 T00330011=
201612280953 METAR KSEA 280953Z 11005KT 10SM BKN013 OVC020 03/02 A3032 RMK AO2 SLP276 T00330017=
201612280853 METAR KSEA 280853Z 23014G20KT 10SM OVC014 04/02 A3029 RMK AO2 SLP264 T00440017 51024=
201612280827 SPECI KSEA 280827Z 21009KT 10SM BKN014 04/02 A3028 RMK AO2 T00440022=
201612280753 METAR KSEA 280753Z 21010KT 10SM BKN017 04/02 A3027 RMK AO2 SLP257 T00440022 400670044=
201612280653 METAR KSEA 280653Z 21010KT 10SM BKN018 04/02 A3024 RMK AO2 SLP251 T00440022=
201612280553 METAR KSEA 280553Z 22011KT 10SM BKN017 05/02 A3021 RMK AO2 SLP240 T00500022 10061 20044 53029=
201612280453 METAR KSEA 280453Z 21010G19KT 10SM BKN016 05/02 A3018 RMK AO2 SLP229 T00500022=
201612280425 SPECI KSEA 280425Z 22008KT 10SM BKN018 05/02 A3017 RMK AO2 T00500022=
201612280353 METAR KSEA 280353Z 22013G19KT 10SM SCT018 05/02 A3014 RMK AO2 SLP217 T00500017=
201612280253 METAR KSEA 280253Z 22010G16KT 10SM SCT019 05/03 A3012 RMK AO2 SLP211 T00500028 51018=
201612280153 METAR KSEA 280153Z 19010KT 10SM BKN018 06/03 A3011 RMK AO2 SLP204 T00560033=
201612280053 METAR KSEA 280053Z 23012KT 10SM BKN017 06/03 A3010 RMK AO2 SLP200 T00560028=
201612272353 METAR KSEA 272353Z 21014G18KT 10SM BKN016 BKN050 BKN120 06/03 A3007 RMK AO2 SLP191 60005 T00610033 10067 20044 53022=
201612272253 METAR KSEA 272253Z 21014KT 10SM FEW016 BKN024 BKN110 BKN250 05/04 A3004 RMK AO2 RAE2155 SLP180 P0001 T00500039=
201612272210 SPECI KSEA 272210Z 21015G21KT 10SM FEW014 SCT049 BKN110 BKN250 05/03 A3002 RMK AO2 RAE2155 P0001 T00500033=
201612272153 METAR KSEA 272153Z 21012G24KT 8SM -RA FEW013 BKN022 BKN035 04/03 A3002 RMK AO2 PK WND 25026/2137 RAB2059 SLP173 P0004 T00440033=
201612272146 SPECI KSEA 272146Z 23017G26KT 7SM -RA FEW013 BKN021 BKN035 05/03 A3002 RMK AO2 PK WND 25026/2137 RAB2059 P0003 T00500033=
201612272137 SPECI KSEA 272137Z 25017G26KT 7SM -RA BKN013 OVC026 06/04 A3002 RMK AO2 PK WND 25026/2137 RAB2059 P0001 T00560039=
201612272053 METAR KSEA 272053Z 20016G22KT 10SM BKN019 OVC027 06/03 A3000 RMK AO2 SLP168 SHRA W T00610028 51009=
201612271953 METAR KSEA 271953Z 20016G23KT 10SM BKN018 BKN026 BKN200 07/03 A3000 RMK AO2 PK WND 20027/1935 SLP165 T00670033=
201612271908 SPECI KSEA 271908Z 20014G20KT 10SM BKN015 BKN050 06/03 A3000 RMK AO2 T00560028=
201612271853 METAR KSEA 271853Z 20015G25KT 10SM BKN014 BKN050 06/03 A2999 RMK AO2 SLP166 T00560028=
201612271753 METAR KSEA 271753Z 21014G23KT 10SM BKN013 BKN050 BKN110 06/03 A2998 RMK AO2 SLP160 60000 T00560033 10056 20044 51013=
201612271653 METAR KSEA 271653Z 19013KT 10SM BKN012 BKN050 BKN110 05/03 A2996 RMK AO2 PK WND 20026/1627 RAB30E48 SLP155 P0000 T00500033=
201612271648 SPECI KSEA 271648Z 19011KT 10SM BKN012 BKN050 BKN110 05/03 A2996 RMK AO2 PK WND 20026/1627 RAB30E48 P0000=
201612271630 SPECI KSEA 271630Z 20015G26KT 10SM -RA SCT012 BKN050 BKN080 05/03 A2995 RMK AO2 PK WND 20026/1627 RAB30 P0000 T00500028=
201612271553 METAR KSEA 271553Z 20014G26KT 10SM BKN012 OVC080 05/03 A2996 RMK AO2 PK WND 22026/1547 SLP154 T00500033=
201612271453 METAR KSEA 271453Z 19014KT 10SM FEW013 BKN020 BKN080 05/03 A2994 RMK AO2 SLP147 T00500033 53000=
201612271400 SPECI KSEA 271400Z 20014KT 10SM FEW013 BKN018 OVC075 05/03 A2992 RMK AO2 T00500033=
201612271353 METAR KSEA 271353Z 19016KT 10SM SCT013 BKN050 OVC070 05/03 A2993 RMK AO2 SLP143 T00500033=
201612271346 SPECI KSEA 271346Z 20015KT 10SM SCT013 BKN050 OVC070 05/03 A2992 RMK AO2 T00500033=
201612271253 METAR KSEA 271253Z 19013KT 10SM FEW010 BKN015 OVC080 05/03 A2994 RMK AO2 SLP146 T00500033=
201612271243 SPECI KSEA 271243Z 18011KT 10SM FEW011 BKN015 OVC080 05/03 A2994 RMK AO2 T00500033=
201612271153 METAR KSEA 271153Z 17014KT 10SM FEW015 SCT024 BKN080 05/03 A2994 RMK AO2 SLP146 60004 70029 T00500033 10056 20044 50001=
201612271055 SPECI KSEA 271055Z 19013KT 10SM FEW060 BKN080 05/03 A2995 RMK AO2 T00500033=
201612271053 METAR KSEA 271053Z 19013KT 10SM SCT026 BKN065 OVC080 05/03 A2995 RMK AO2 PK WND 19030/1012 SLP151 T00500033=
201612270953 METAR KSEA 270953Z 20020G28KT 10SM FEW010 BKN026 OVC050 05/03 A2994 RMK AO2 PK WND 20028/0907 SLP149 T00500033=
201612270853 METAR KSEA 270853Z 20015G22KT 10SM FEW005 BKN026 OVC050 05/03 A2993 RMK AO2 PK WND 20026/0836 RAB0756E14 SLP146 P0000 60004 T00500033 51001=
201612270848 SPECI KSEA 270848Z 21015G22KT 10SM FEW005 BKN026 OVC050 06/03 A2993 RMK AO2 PK WND 20026/0836 RAB0756E14 P0000=
201612270753 METAR KSEA 270753Z 23008G16KT 10SM BKN015 OVC024 06/04 A2994 RMK AO2 SLP148 T00560039 400560006=
201612270653 METAR KSEA 270653Z 17009KT 10SM OVC016 04/03 A2993 RMK AO2 RAE53 SLP145 P0004 T00440033=
201612270553 METAR KSEA 270553Z 16006KT 6SM -RA BR BKN018 OVC030 04/03 A2996 RMK AO2 SLP156 P0006 60023 T00440033 10050 20033 56025=
201612270453 METAR KSEA 270453Z 17008KT 6SM -RA BR OVC024 05/03 A2997 RMK AO2 SLP157 P0003 T00500028=
201612270353 METAR KSEA 270353Z 16007KT 9SM -RA OVC026 04/02 A3000 RMK AO2 SLP166 P0001 T00440022=
201612270328 SPECI KSEA 270328Z 16009KT 9SM -RA BKN024 OVC031 04/02 A3000 RMK AO2 P0001 T00440022=
201612270253 METAR KSEA 270253Z 16006KT 8SM -RA BKN031 OVC037 04/03 A3004 RMK AO2 RAE20B48 SLP181 P0001 60013 T00390028 56034=
201612270218 SPECI KSEA 270218Z 15010KT 8SM -RA SCT015 OVC035 04/02 A3005 RMK AO2 PRESFR P0001 T00390022=
201612270153 METAR KSEA 270153Z 16011KT 6SM -RA BR SCT012 OVC018 03/02 A3007 RMK AO2 SLP193 P0006 T00330022=
201612270053 METAR KSEA 270053Z 17015G29KT 5SM -RA BR FEW014 OVC020 04/02 A3010 RMK AO2 PK WND 17029/0047 SLP202 P0006 T00390022=
201612262353 METAR KSEA 262353Z 18015G26KT 6SM -RA OVC022 04/02 A3014 RMK AO2 PK WND 20026/2353 SLP215 P0002 60002 T00440017 10050 20028 56013=
201612262338 SPECI KSEA 262338Z 19012KT 8SM -RA BKN024 OVC031 05/02 A3014 RMK AO2 P0001 T00500017=
201612262253 METAR KSEA 262253Z 21004KT 10SM -RA FEW038 BKN045 OVC055 04/02 A3014 RMK AO2 RAB52 SLP215 P0000 T00440017=
201612262153 METAR KSEA 262153Z 21004KT 10SM FEW040 OVC055 04/01 A3014 RMK AO2 SLP216 T00440011=
201612262053 METAR KSEA 262053Z 18005KT 10SM FEW050 OVC070 04/M01 A3018 RMK AO2 SLP228 T00441006 58022=
201612261953 METAR KSEA 261953Z 16006KT 10SM FEW055 OVC080 04/M01 A3020 RMK AO2 SLP237 T00441011=
201612261853 METAR KSEA 261853Z 15010KT 10SM FEW035 SCT055 OVC095 03/M02 A3023 RMK AO2 SLP246 T00331017=
201612261753 METAR KSEA 261753Z 14008KT 10SM FEW035 BKN050 OVC180 03/M02 A3024 RMK AO2 SLP251 T00281022 10028 20006 55001=
201612261653 METAR KSEA 261653Z 15008KT 10SM FEW038 FEW060 SCT180 BKN250 02/M02 A3023 RMK AO2 SLP247 T00171017=
201612261553 METAR KSEA 261553Z 14007KT 10SM FEW038 BKN060 OVC200 02/M02 A3024 RMK AO2 SLP251 T00171017=
201612261453 METAR KSEA 261453Z 16004KT 10SM OVC060 02/M02 A3024 RMK AO2 SLP252 T00171022 53001=
201612261353 METAR KSEA 261353Z 15005KT 10SM BKN060 01/M02 A3024 RMK AO2 SLP251 T00111022=
201612261253 METAR KSEA 261253Z 15006KT 10SM SCT060 01/M03 A3024 RMK AO2 SLP250 T00111028=
201612261153 METAR KSEA 261153Z 14005KT 10SM FEW035 BKN060 01/M03 A3024 RMK AO2 SLP250 T00111028 10017 20006 51009=
201612261053 METAR KSEA 261053Z 14008KT 10SM OVC037 01/M02 A3024 RMK AO2 SLP249 T00111022=
201612260953 METAR KSEA 260953Z 14008KT 10SM FEW025 OVC037 01/M02 A3023 RMK AO2 SLP245 T00111022=
201612260853 METAR KSEA 260853Z 16007KT 10SM SCT030 OVC038 01/M02 A3021 RMK AO2 SLP240 T00061022 53006=
201612260753 METAR KSEA 260753Z 12007KT 10SM BKN033 02/M02 A3021 RMK AO2 SLP238 T00171022 400560006=
201612260653 METAR KSEA 260653Z 13006KT 10SM BKN033 02/M01 A3020 RMK AO2 SLP236 T00171011=
201612260553 METAR KSEA 260553Z 12006KT 10SM FEW036 BKN170 01/M01 A3019 RMK AO2 SLP235 T00111011 10033 20011 53010=
201612260453 METAR KSEA 260453Z 13004KT 10SM FEW036 BKN170 02/M01 A3018 RMK AO2 SLP230 T00171011=
201612260353 METAR KSEA 260353Z 11009KT 10SM FEW036 BKN230 03/00 A3016 RMK AO2 SLP223 T00280000=
201612260253 METAR KSEA 260253Z 04005KT 10SM SCT037 BKN150 02/01 A3016 RMK AO2 SLP224 T00220011 53004=
201612260153 METAR KSEA 260153Z 01005KT 8SM BKN038 02/01 A3016 RMK AO2 SLP223 T00220011=
201612260053 METAR KSEA 260053Z 04003KT 10SM FEW015 SCT036 BKN200 03/01 A3015 RMK AO2 SLP220 T00280006=
201612252353 METAR KSEA 252353Z 34004KT 10SM FEW019 BKN036 04/01 A3015 RMK AO2 SLP220 T00390011 10056 20011 53007=
201612252253 METAR KSEA 252253Z 04005KT 10SM SCT021 BKN036 04/00 A3014 RMK AO2 SLP215 T00440000=
201612252153 METAR KSEA 252153Z 00000KT 10SM SCT019 BKN025 BKN042 04/M01 A3013 RMK AO2 SLP213 T00441011=
201612252140 SPECI KSEA 252140Z VRB03KT 10SM BKN017 BKN025 BKN042 05/M01 A3013 RMK AO2 T00501006=
201612252053 METAR KSEA 252053Z 16003KT 10SM SCT017 BKN031 BKN041 04/01 A3013 RMK AO2 SLP213 T00440006 53006=
201612251953 METAR KSEA 251953Z 00000KT 10SM BKN014 BKN041 03/01 A3012 RMK AO2 SLP208 T00330006=
201612251853 METAR KSEA 251853Z 16005KT 10SM FEW002 SCT009 BKN041 02/01 A3012 RMK AO2 SLP208 T00220011=
201612251815 SPECI KSEA 251815Z 15005KT 6SM BR FEW002 SCT009 BKN041 01/01 A3012 RMK AO2 T00110006=
201612251813 SPECI KSEA 251813Z 14005KT 2SM BR FEW002 SCT009 BKN045 01/01 A3012 RMK AO2 SFC VIS 6 T00110011=
201612251803 SPECI KSEA 251803Z 13005KT 1SM R16L/3000VP6000FT BR SCT002 BKN009 01/01 A3012 RMK AO2 TWR VIS 2 T00110011=
201612251753 METAR KSEA 251753Z 13005KT 1/4SM R16L/1000V4000FT FG BKN002 OVC008 01/01 A3011 RMK AO2 TWR VIS 2 SLP208 T00110011 10017 20006 51015=
201612251750 SPECI KSEA 251750Z 12005KT 1/4SM R16L/1000V4000FT FG SCT002 BKN008 01/01 A3011 RMK AO2 TWR VIS 2=
201612251742 SPECI KSEA 251742Z 12004KT 1/2SM R16L/1200V1600FT BCFG BKN008 BKN045 01/01 A3011 RMK AO2 TWR VIS 2 T00060006=
201612251733 SPECI KSEA 251733Z 11005KT 1SM R16L/1400VP6000FT BR SCT008 BKN045 01/01 A3011 RMK AO2 TWR VIS 2 T00110011=
201612251719 SPECI KSEA 251719Z 12005KT 2SM BR SCT008 BKN045 01/01 A3010 RMK AO2 SFC VIS 3 T00060006=
201612251653 METAR KSEA 251653Z 15003KT 9SM FEW005 BKN045 BKN150 01/01 A3009 RMK AO2 SLP199 T00110006=
201612251553 METAR KSEA 251553Z 00000KT 3SM BR FEW003 BKN030 OVC045 01/01 A3007 RMK AO2 SLP192 T00060006=
201612251453 METAR KSEA 251453Z 00000KT 3SM BR BKN030 OVC047 01/01 A3005 RMK AO2 SLP187 T00110006 52001=
201612251427 SPECI KSEA 251427Z 16004KT 3SM BR FEW001 BKN030 OVC047 01/01 A3005 RMK AO2 T00060006=
201612251353 METAR KSEA 251353Z 00000KT 1SM R16L/2400VP6000FT BR SCT001 BKN030 OVC047 01/01 A3005 RMK AO2 TWR VIS 2 SLP187 T00110011=
201612251350 SPECI KSEA 251350Z 00000KT 1SM R16L/2400VP6000FT BR SCT001 BKN030 OVC047 01/01 A3005 RMK AO2 TWR VIS 2=
201612251253 METAR KSEA 251253Z 11003KT 1/2SM R16L/3500VP6000FT FG BKN001 OVC027 01/01 A3005 RMK AO2 TWR VIS 2 SLP185 T00110011=
201612251153 METAR KSEA 251153Z 13003KT 1/2SM R16L/P6000FT FG BKN001 BKN027 OVC037 01/01 A3005 RMK AO2 TWR VIS 2 RAE52SNE52 SLP186 P0000 60000 70010 T00110011 10028 20006 51010=
201612251053 METAR KSEA 251053Z 16003KT 3/4SM R16L/P6000FT -RASN BR SCT001 BKN016 OVC022 01/01 A3004 RMK AO2 TWR VIS 2 RAB07SNB0959 SLP184 P0000 T00110011=
201612251013 SPECI KSEA 251013Z 12003KT 1/2SM R16L/P6000FT -RASN BR SCT001 BKN021 OVC031 01/01 A3004 RMK AO2 SFC VIS 3/4 RAB07SNB0959 P0000 T00110011=
201612250953 METAR KSEA 250953Z 17003KT 1/4SM R16L/4500VP6000FT FG BKN001 BKN015 OVC039 01/01 A3003 RMK AO2 TWR VIS 1/2 SLP178 T00110011=
201612250853 METAR KSEA 250853Z 11005KT 1/8SM R16L/1800V4500FT FG BKN001 BKN025 OVC043 01/01 A3002 RMK AO2 TWR VIS 1/2 SLP174 T00110011 53007=
201612250846 SPECI KSEA 250846Z 14006KT 1/8SM R16L/1600V3000FT FG BKN001 BKN025 OVC045 01/01 A3002 RMK AO2 TWR VIS 1/2 T00110011=
201612250843 SPECI KSEA 250843Z 14005KT 1/8SM R16L/1600V3000FT FG BKN002 BKN025 OVC045 01/01 A3002 RMK AO2 TWR VIS 1/2 T00110011=
201612250802 SPECI KSEA 250802Z 14005KT 1/2SM R16L/5500VP6000FT BR BKN002 OVC045 02/01 A3001 RMK AO2 SFC VIS 3/4 T00170011=
201612250753 METAR KSEA 250753Z 13005KT 10SM OVC044 02/01 A3001 RMK AO2 SLP171 T00170011 400440017=
201612250653 METAR KSEA 250653Z 00000KT 10SM FEW010 FEW025 BKN045 02/02 A3001 RMK AO2 SLP170 T00220017=
201612250553 METAR KSEA 250553Z 00000KT 7SM FEW010 SCT023 OVC043 03/02 A3000 RMK AO2 SLP167 60000 T00280017 10033 20017 53005=
201612250508 SPECI KSEA 250508Z 00000KT 7SM SCT036 OVC042 02/02 A2999 RMK AO2 T00220017=
201612250453 METAR KSEA 250453Z 33003KT 6SM BR BKN026 OVC039 03/02 A2999 RMK AO2 SLP165 P0000 T00280017 $=
201612250353 METAR KSEA 250353Z 02004KT 8SM OVC024 03/01 A2999 RMK AO2 SLP164 T00280011=
201612250253 METAR KSEA 250253Z 35003KT 10SM BKN024 BKN032 OVC039 02/01 A2998 RMK AO2 SLP163 T00220011 51005=
201612250250 SPECI KSEA 250250Z 00000KT 10SM BKN024 BKN032 OVC039 02/02 A2998 RMK AO2=
201612250153 METAR KSEA 250153Z 00000KT 10SM FEW007 BKN030 OVC049 03/02 A2998 RMK AO2 SLP160 T00280022=
201612250150 SPECI KSEA 250150Z 00000KT 10SM FEW007 BKN030 OVC049 03/02 A2998 RMK AO2=
201612250120 SPECI KSEA 250120Z 35003KT 8SM FEW015 OVC029 03/02 A2997 RMK AO2 T00280017=
201612250053 METAR KSEA 250053Z 00000KT 10SM BKN031 OVC050 03/02 A2997 RMK AO2 SLP157 T00280022=
201612242353 METAR KSEA 242353Z 32003KT 7SM FEW006 BKN034 BKN065 03/02 A2996 RMK AO2 RAE11 SLP155 P0000 60010 T00330017 10044 20022 53009=
201612242311 SPECI KSEA 242311Z 01003KT 8SM FEW005 OVC031 03/02 A2996 RMK AO2 RAE11 P0000 T00280022=
201612242253 METAR KSEA 242253Z 29003KT 6SM -RA BR SCT006 BKN023 OVC031 03/02 A2995 RMK AO2 SLP151 P0010 T00280022=
201612242153 METAR KSEA 242153Z 34006KT 6SM -RA BR SCT007 BKN013 OVC031 04/02 A2994 RMK AO2 RAB52 SLP146 P0000 T00390022=
201612242144 SPECI KSEA 242144Z 23004KT 8SM FEW006 BKN013 OVC031 04/03 A2993 RMK AO2 T00390028=
201612242053 METAR KSEA 242053Z 00000KT 10SM SCT016 OVC028 04/02 A2993 RMK AO2 SLP146 T00390017 58002=
201612242032 SPECI KSEA 242032Z 00000KT 10SM FEW010 BKN019 OVC028 04/02 A2994 RMK AO2 T00390022=
201612241953 METAR KSEA 241953Z 32003KT 10SM BKN010 BKN014 OVC019 04/02 A2994 RMK AO2 SLP146 T00390022=
201612241927 SPECI KSEA 241927Z 00000KT 10SM SCT008 BKN012 OVC023 04/03 A2994 RMK AO2 T00390033=
201612241853 METAR KSEA 241853Z 00000KT 10SM SCT004 BKN016 BKN030 03/03 A2994 RMK AO2 SLP148 T00330028=
201612241753 METAR KSEA 241753Z 00000KT 7SM OVC004 03/03 A2994 RMK AO2 SLP147 T00280028 10028 20017 53019=
201612241718 SPECI KSEA 241718Z 28003KT 7SM BKN003 BKN012 OVC030 03/02 A2992 RMK AO2 T00280022=
201612241653 METAR KSEA 241653Z 00000KT 6SM BR SCT003 OVC032 02/02 A2991 RMK AO2 SLP139 T00220022=
201612241553 METAR KSEA 241553Z 00000KT 7SM SCT003 BKN030 02/02 A2989 RMK AO2 SLP133 T00170017=
201612241506 SPECI KSEA 241506Z 00000KT 9SM OVC005 02/02 A2988 RMK AO2 T00220017=
201612241453 METAR KSEA 241453Z 28003KT 9SM BKN004 OVC014 02/02 A2988 RMK AO2 SLP129 T00170017 51013=
201612241417 SPECI KSEA 241417Z 31003KT 10SM BKN003 OVC007 02/02 A2987 RMK AO2 T00220017=
201612241353 METAR KSEA 241353Z 30003KT 10SM BKN007 OVC014 02/02 A2987 RMK AO2 SLP124 T00220022=
201612241327 SPECI KSEA 241327Z 28003KT 10SM BKN007 OVC014 03/02 A2986 RMK AO2 T00280022=
201612241305 SPECI KSEA 241305Z 30003KT 10SM BKN004 OVC013 03/02 A2986 RMK AO2 T00280022=
201612241253 METAR KSEA 241253Z 31003KT 10SM BKN006 OVC016 03/02 A2986 RMK AO2 SLP119 T00280022=
201612241153 METAR KSEA 241153Z 00000KT 6SM BR BKN006 OVC016 03/02 A2984 RMK AO2 SLP115 70039 T00280022 10028 20028 51015=
201612241053 METAR KSEA 241053Z 00000KT 10SM BKN007 OVC017 03/02 A2984 RMK AO2 SLP113 T00280022=
201612240953 METAR KSEA 240953Z 00000KT 7SM BKN005 BKN014 OVC050 03/02 A2981 RMK AO2 SLP105 T00280022=
201612240922 SPECI KSEA 240922Z 00000KT 7SM BKN005 OVC012 03/02 A2981 RMK AO2 T00280022=
201612240853 METAR KSEA 240853Z 00000KT 7SM SCT005 BKN013 OVC026 03/02 A2980 RMK AO2 SLP099 T00280022 51016=
201612240846 SPECI KSEA 240846Z 00000KT 7SM SCT005 BKN013 OVC026 03/02 A2980 RMK AO2 T00280022=
201612240753 METAR KSEA 240753Z 17003KT 7SM OVC006 03/02 A2979 RMK AO2 SLP097 T00280022 400390017=
201612240653 METAR KSEA 240653Z 13003KT 7SM BKN006 OVC013 03/02 A2977 RMK AO2 SLP090 T00280017=
201612240635 SPECI KSEA 240635Z 15005KT 10SM SCT010 OVC015 03/02 A2976 RMK AO2 T00280022=
201612240603 SPECI KSEA 240603Z 12003KT 10SM BKN010 OVC015 03/02 A2975 RMK AO2 T00280017=
201612240553 METAR KSEA 240553Z 16004KT 10SM BKN009 OVC015 03/02 A2975 RMK AO2 SLP083 60001 T00280017 10028 20017 52015=
201612240518 SPECI KSEA 240518Z 16004KT 10SM BKN009 OVC015 02/02 A2974 RMK AO2 T00220017=
201612240453 METAR KSEA 240453Z 13006KT 6SM BR OVC012 02/02 A2974 RMK AO2 SLP078 T00220017=
201612240434 SPECI KSEA 240434Z 12005KT 8SM OVC013 02/02 A2973 RMK AO2 T00220017=
201612240422 SPECI KSEA 240422Z 13007KT 10SM SCT007 OVC140 02/02 A2973 RMK AO2 T00220017=
201612240353 METAR KSEA 240353Z 15005KT 7SM BKN007 OVC014 02/02 A2972 RMK AO2 SLP073 T00220017=
201612240258 SPECI KSEA 240258Z 16005KT 7SM OVC008 02/02 A2970 RMK AO2 T00220017=
201612240253 METAR KSEA 240253Z 16005KT 7SM OVC008 02/02 A2970 RMK AO2 SLP068 60001 T00220017 53004=
201612240153 METAR KSEA 240153Z 17004KT 6SM BR OVC005 02/01 A2969 RMK AO2 RAE48 SLP064 P0000 T00170011=
201612240151 SPECI KSEA 240151Z 17004KT 5SM BR OVC005 02/01 A2969 RMK AO2 RAE48 P0000=
201612240124 SPECI KSEA 240124Z 16005KT 3SM -RA BR BKN004 OVC012 02/02 A2969 RMK AO2 P0000 T00220017=
201612240109 SPECI KSEA 240109Z 17005KT 9SM -RA BKN007 OVC012 02/02 A2969 RMK AO2 P0000 T00220017=
201612240053 METAR KSEA 240053Z 16004KT 6SM -RA SCT009 OVC016 02/02 A2969 RMK AO2 SNE26 SLP063 P0001 T00220017=
201612232353 METAR KSEA 232353Z 18003KT 6SM -RASN SCT008 BKN018 OVC046 02/02 A2967 RMK AO2 SLP056 P0001 60021 T00170017 10028 20017 53025=
201612232253 METAR KSEA 232253Z 00000KT 4SM -RASN FEW006 SCT010 OVC016 02/01 A2964 RMK AO2 RAB29 SLP046 P0006 T00170011=
201612232153 METAR KSEA 232153Z 00000KT 3SM -SN BR SCT005 OVC017 02/02 A2962 RMK AO2 RAE07 SLP040 P0004 T00220017=
201612232143 SPECI KSEA 232143Z 00000KT 3SM -SN BR SCT004 OVC017 02/02 A2962 RMK AO2 RAE07 P0003 T00220017=
201612232053 METAR KSEA 232053Z 36004KT 4SM -RASN BR BKN003 OVC018 02/02 A2960 RMK AO2 RAB51 SLP031 P0003 60010 T00220017 53013=
201612232048 SPECI KSEA 232048Z 35004KT 4SM -SN BR BKN003 OVC018 02/02 A2960 RMK AO2 P0003=
201612232014 SPECI KSEA 232014Z 01007KT 3SM -SN BR SCT006 OVC015 02/01 A2958 RMK AO2 P0001 T00170011=
201612231953 METAR KSEA 231953Z 36007KT 4SM -SN BR SCT004 OVC013 02/01 A2958 RMK AO2 RAE44SNB05 SLP026 P0003 T00170011=
201612231945 SPECI KSEA 231945Z 01007KT 4SM -SN BR SCT004 OVC011 02/01 A2958 RMK AO2 RAE44SNB05 P0003 T00170011=
201612231905 SPECI KSEA 231905Z 36004KT 5SM -RASN BR BKN004 OVC008 03/02 A2958 RMK AO2 SNB05 P0001 T00280022=
201612231853 METAR KSEA 231853Z 35006KT 6SM -RA BR BKN005 OVC021 03/02 A2957 RMK AO2 SLP022 P0004 T00280022=
201612231753 METAR KSEA 231753Z 35006KT 3SM -RA BR FEW001 OVC008 03/02 A2956 RMK AO2 SLP018 FU FEW001 P0004 60017 T00280022 10039 20028 53015=
201612231653 METAR KSEA 231653Z 34003KT 6SM -RA BR SCT003 BKN007 OVC015 03/03 A2954 RMK AO2 SLP010 P0003 T00330033=
201612231632 SPECI KSEA 231632Z 36005KT 4SM -RA BR BKN003 OVC008 03/03 A2953 RMK AO2 P0002 T00330028=
201612231605 SPECI KSEA 231605Z 01006KT 4SM -RA BR FEW003 BKN010 OVC025 03/03 A2951 RMK AO2 P0000 T00330028=
201612231553 METAR KSEA 231553Z 35006KT 4SM -RA BR FEW003 SCT012 OVC024 03/03 A2951 RMK AO2 SLP001 P0003 T00330028=
201612231515 SPECI KSEA 231515Z 35006KT 4SM -RA BR FEW003 OVC024 03/03 A2951 RMK AO2 P0001 T00330028=
201612231453 METAR KSEA 231453Z 35004KT 5SM -RA BR OVC025 03/03 A2951 RMK AO2 SLP002 P0002 60007 T00330028 55011=
201612231407 SPECI KSEA 231407Z 36005KT 4SM -RA BR BKN027 OVC037 03/03 A2951 RMK AO2 P0001 T00330028=
201612231353 METAR KSEA 231353Z 05004KT 9SM -RA SCT026 OVC037 03/03 A2951 RMK AO2 SLP002 P0002 T00330028=
201612231348 SPECI KSEA 231348Z 06005KT 9SM -RA SCT026 OVC037 03/03 A2951 RMK AO2 P0002=
201612231253 METAR KSEA 231253Z 08005KT 7SM -RA OVC026 04/03 A2955 RMK AO2 SLP014 P0003 T00390028=
201612231153 METAR KSEA 231153Z 08006KT 8SM -RA BKN025 OVC030 04/03 A2958 RMK AO2 SLP025 P0004 60032 70049 T00390028 10044 20033 56028=
201612231053 METAR KSEA 231053Z 03005KT 6SM -RA BR OVC026 04/03 A2961 RMK AO2 SLP034 P0005 T00390033=
201612230953 METAR KSEA 230953Z 05010KT 9SM -RA FEW002 OVC029 04/03 A2962 RMK AO2 SLP040 P0003 T00390028=
201612230926 SPECI KSEA 230926Z 05010KT 4SM -RA BR FEW002 BKN024 OVC030 04/03 A2963 RMK AO2 P0001 T00390033=
201612230914 SPECI KSEA 230914Z 05010KT 1/2SM R16L/P6000FT -RA BR SCT002 BKN007 OVC026 04/03 A2964 RMK AO2 SFC VIS 4 P0001 T00390033=
201612230855 SPECI KSEA 230855Z 05008KT 3SM -RA BR FEW002 BKN026 OVC031 04/03 A2966 RMK AO2 P0000 T00390033=
201612230853 METAR KSEA 230853Z 05008KT 1 1/2SM -RA BR FEW002 OVC026 04/03 A2966 RMK AO2 SFC VIS 5 SLP053 P0007 60020 T00390033 58020=
201612230834 SPECI KSEA 230834Z 04007KT 1 1/2SM -RA BR SCT004 OVC031 04/03 A2967 RMK AO2 SFC VIS 5 P0003 T00390033=
201612230822 SPECI KSEA 230822Z 04007KT 5SM -RA BR FEW005 OVC031 04/03 A2968 RMK AO2 P0002 T00390033=
201612230753 METAR KSEA 230753Z 01005KT 7SM -RA SCT024 BKN029 OVC039 04/03 A2969 RMK AO2 SLP064 P0006 T00390033 400670006=
201612230653 METAR KSEA 230653Z 35006KT 5SM -RA BR OVC027 04/03 A2972 RMK AO2 SLP073 P0007 T00390033=
201612230650 SPECI KSEA 230650Z 35006KT 5SM -RA BR OVC027 04/03 A2972 RMK AO2 P0006=
201612230553 METAR KSEA 230553Z 03006KT 8SM -RA OVC037 04/03 A2973 RMK AO2 SLP078 P0003 60017 T00440033 10067 20039 58020=
201612230531 SPECI KSEA 230531Z 01004KT 7SM -RA FEW015 OVC035 04/03 A2974 RMK AO2 P0002 T00390033=
201612230453 METAR KSEA 230453Z 29003KT 7SM -RA BKN024 OVC033 04/03 A2977 RMK AO2 SLP090 P0004 T00390033=
201612230353 METAR KSEA 230353Z 36005KT 8SM -RA OVC028 04/03 A2978 RMK AO2 SLP094 P0006 T00440033=
201612230330 SPECI KSEA 230330Z 33004KT 5SM -RA BR BKN027 OVC036 04/03 A2979 RMK AO2 P0004 T00440033=
201612230253 METAR KSEA 230253Z 00000KT 7SM -RA BKN030 OVC042 05/03 A2979 RMK AO2 RAB12 SLP098 P0003 60004 T00500028 58009=
201612230245 SPECI KSEA 230245Z 03003KT 8SM -RA BKN030 OVC044 05/03 A2980 RMK AO2 RAB12 P0002 T00500028=
201612230153 METAR KSEA 230153Z 02004KT 10SM BKN027 OVC050 06/02 A2981 RMK AO2 SLP103 T00560022=
201612230053 METAR KSEA 230053Z 16007KT 10SM BKN025 BKN046 OVC060 05/03 A2982 RMK AO2 RAB26E43 SLP106 P0001 T00500028=
201612222353 METAR KSEA 222353Z 21009KT 10SM BKN027 BKN050 06/01 A2982 RMK AO2 SLP107 60000 T00610006 10067 20028 56009=
201612222306 SPECI KSEA 222306Z 18005KT 10SM OVC027 06/01 A2983 RMK AO2 T00610011=
201612222253 METAR KSEA 222253Z 19006KT 10SM OVC030 06/01 A2983 RMK AO2 SLP110 T00610011=
201612222153 METAR KSEA 222153Z 23009KT 10SM BKN037 OVC100 06/01 A2984 RMK AO2 RAB41E51 SLP113 VCSH P0000 T00610011=
201612222053 METAR KSEA 222053Z 21008KT 10SM BKN043 BKN065 BKN140 06/M01 A2985 RMK AO2 SLP117 60000 T00611006 58015=
201612221953 METAR KSEA 221953Z 19011KT 10SM FEW042 BKN090 BKN140 05/00 A2988 RMK AO2 RAB11E26 SLP126 P0000 T00500000=
201612221853 METAR KSEA 221853Z 19009KT 10SM FEW040 BKN060 OVC100 05/M01 A2991 RMK AO2 SLP137 VIRGA W T00501006=
201612221812 SPECI KSEA 221812Z 20008KT 10SM SCT040 BKN100 OVC160 04/M01 A2991 RMK AO2 SHRA DSNT W T00391006=
201612221753 METAR KSEA 221753Z 20011KT 10SM BKN110 OVC200 04/M01 A2989 RMK AO2 SLP132 T00391006 10039 20006 53003=
201612221653 METAR KSEA 221653Z 21006KT 10SM FEW140 BKN200 03/01 A2989 RMK AO2 SLP130 T00280006=
201612221553 METAR KSEA 221553Z 22005KT 10SM FEW140 BKN200 01/01 A2988 RMK AO2 SLP127 T00110006=
201612221453 METAR KSEA 221453Z 18006KT 10SM SCT140 OVC190 02/01 A2989 RMK AO2 SLP129 T00170011 58025=
201612221353 METAR KSEA 221353Z 17005KT 10SM BKN170 01/01 A2991 RMK AO2 SLP138 T00110006=
201612221253 METAR KSEA 221253Z 14006KT 10SM SCT150 01/01 A2994 RMK AO2 SLP148 T00110006=
201612221153 METAR KSEA 221153Z 14005KT 10SM BKN150 02/02 A2996 RMK AO2 SLP155 T00220017 10039 20017 56025=
201612221053 METAR KSEA 221053Z 24003KT 9SM FEW004 BKN120 02/02 A2999 RMK AO2 SLP163 T00220017=
201612221018 SPECI KSEA 221018Z 24003KT 10SM FEW003 02/01 A3000 RMK AO2 T00220011=
201612220953 METAR KSEA 220953Z 15004KT 10SM BKN160 03/02 A2999 RMK AO2 SLP164 T00280017=
201612220853 METAR KSEA 220853Z 23003KT 10SM BKN170 03/01 A3004 RMK AO2 SLP180 T00280006 56035=
201612220753 METAR KSEA 220753Z 14006KT 10SM BKN170 02/01 A3006 RMK AO2 PRESFR SLP188 T00220006 400830011=
201612220653 METAR KSEA 220653Z 14011KT 10SM BKN180 03/01 A3009 RMK AO2 SLP200 T00280006=
201612220553 METAR KSEA 220553Z 14007KT 10SM BKN230 03/01 A3014 RMK AO2 SLP216 T00330011 10067 20022 58012=
201612220453 METAR KSEA 220453Z 00000KT 10SM BKN220 04/03 A3016 RMK AO2 SLP221 T00440028=
201612220353 METAR KSEA 220353Z 00000KT 10SM SCT170 BKN230 04/02 A3017 RMK AO2 SLP224 T00440017=
201612220253 METAR KSEA 220253Z 35003KT 10SM BKN230 04/01 A3018 RMK AO2 SLP228 T00440011 56024=
201612220153 METAR KSEA 220153Z 01003KT 10SM BKN200 05/01 A3020 RMK AO2 SLP237 T00500006=
201612220053 METAR KSEA 220053Z 36003KT 10SM FEW170 BKN210 06/01 A3022 RMK AO2 SLP242 T00560011=
201612212353 METAR KSEA 212353Z 29003KT 10SM FEW170 BKN210 07/01 A3025 RMK AO2 SLP251 T00670011 10083 20044 56025=
201612212253 METAR KSEA 212253Z 28005KT 10SM BKN170 07/02 A3026 RMK AO2 SLP254 T00670017=
201612212153 METAR KSEA 212153Z 19004KT 10SM BKN210 08/01 A3029 RMK AO2 SLP265 T00830011=
201612212053 METAR KSEA 212053Z 29004KT 10SM BKN220 07/01 A3032 RMK AO2 SLP277 T00670011 58040=
201612211953 METAR KSEA 211953Z 00000KT 10SM SCT250 06/01 A3037 RMK AO2 SLP293 T00610011=
201612211853 METAR KSEA 211853Z 00000KT 10SM FEW250 06/01 A3041 RMK AO2 SLP307 T00560006=
201612211753 METAR KSEA 211753Z 00000KT 10SM FEW250 04/01 A3044 RMK AO2 SLP319 T00440006 10050 20011 58006=
201612211653 METAR KSEA 211653Z 13003KT 10SM FEW020 03/00 A3045 RMK AO2 SLP322 T00330000=
201612211553 METAR KSEA 211553Z 16003KT 10SM FEW001 FEW033 02/M01 A3046 RMK AO2 SLP325 FU FEW001 T00221006=
201612211453 METAR KSEA 211453Z 00000KT 10SM FEW025 SCT033 02/M01 A3046 RMK AO2 SLP325 T00221006 56009=
201612211353 METAR KSEA 211353Z 14004KT 10SM FEW026 FEW035 03/00 A3047 RMK AO2 SLP327 T00280000=
201612211345 SPECI KSEA 211345Z 14005KT 10SM SCT026 03/00 A3047 RMK AO2 T00280000=
201612211253 METAR KSEA 211253Z 15005KT 10SM BKN024 03/01 A3048 RMK AO2 SLP330 T00330011=
201612211153 METAR KSEA 211153Z 16006KT 10SM OVC025 04/02 A3049 RMK AO2 SLP334 T00390022 10056 20033 58000=
201612211053 METAR KSEA 211053Z 18004KT 10SM BKN023 04/02 A3051 RMK AO2 SLP339 T00390017=
201612210953 METAR KSEA 210953Z 18006KT 10SM OVC023 04/02 A3049 RMK AO2 SLP334 T00440022=
201612210853 METAR KSEA 210853Z 15005KT 10SM OVC024 06/03 A3049 RMK AO2 SLP334 T00560028 50010=
201612210753 METAR KSEA 210753Z 15005KT 10SM OVC020 06/03 A3050 RMK AO2 SLP337 T00560028 401000044=
201612210653 METAR KSEA 210653Z 14005KT 10SM BKN021 05/03 A3049 RMK AO2 SLP334 T00500028=
201612210641 SPECI KSEA 210641Z 14003KT 10SM BKN021 06/03 A3049 RMK AO2 T00560028=
201612210553 METAR KSEA 210553Z 16007KT 10SM SCT019 05/02 A3046 RMK AO2 SLP324 T00500022 10083 20044 51013=
201612210453 METAR KSEA 210453Z 13008KT 10SM SCT019 05/03 A3045 RMK AO2 SLP321 T00500028=
201612210423 SPECI KSEA 210423Z 19006KT 10SM SCT020 06/03 A3044 RMK AO2 T00560028=
201612210353 METAR KSEA 210353Z 17007KT 10SM BKN022 06/03 A3045 RMK AO2 SLP319 T00610028=
201612210253 METAR KSEA 210253Z 18008KT 10SM BKN022 07/03 A3042 RMK AO2 SLP311 T00720033 51026=
201612210153 METAR KSEA 210153Z 19009KT 10SM BKN024 07/04 A3040 RMK AO2 SLP303 T00720039=
201612210053 METAR KSEA 210053Z 21012KT 10SM SCT024 08/03 A3037 RMK AO2 SLP291 T00780028=
201612202353 METAR KSEA 202353Z 22011G23KT 10SM SCT029 08/03 A3034 RMK AO2 SLP283 T00830028 10094 20072 53031=
201612202253 METAR KSEA 202253Z 21011G19KT 10SM SCT027 09/04 A3031 RMK AO2 SLP271 T00890039=
201612202153 METAR KSEA 202153Z 23013G23KT 10SM FEW030 FEW200 09/02 A3028 RMK AO2 PK WND 24026/2109 SLP263 T00890017=
201612202053 METAR KSEA 202053Z 22012G18KT 10SM FEW030 FEW200 09/02 A3025 RMK AO2 SLP252 T00890022 51028=
201612201953 METAR KSEA 201953Z 22016G22KT 10SM FEW030 FEW050 08/02 A3023 RMK AO2 SLP246 T00830022=
201612201853 METAR KSEA 201853Z 23015G23KT 10SM FEW030 FEW200 08/02 A3020 RMK AO2 PK WND 22028/1803 SLP234 T00780022=
201612201753 METAR KSEA 201753Z 23017G25KT 10SM FEW030 SCT200 08/02 A3017 RMK AO2 PK WND 24028/1710 SLP224 T00780022 10100 20067 51054=
201612201653 METAR KSEA 201653Z 23019G28KT 10SM FEW029 FEW250 07/02 A3013 RMK AO2 PK WND 24032/1554 SLP211 T00720022=
201612201553 METAR KSEA 201553Z 23022G33KT 10SM FEW029 FEW085 SCT250 07/02 A3006 RMK AO2 PK WND 25034/1528 SLP187 T00720022=
201612201453 METAR KSEA 201453Z 22011G19KT 10SM SCT029 SCT085 BKN250 08/03 A3001 RMK AO2 PK WND 23033/1408 PRESRR SLP170 T00830033 53051=
201612201427 SPECI KSEA 201427Z 23012G26KT 10SM FEW012 SCT023 BKN240 09/05 A2998 RMK AO2 PK WND 23033/1408 T00890050=
201612201353 METAR KSEA 201353Z 22021G36KT 10SM FEW012 BKN024 OVC240 09/06 A2994 RMK AO2 PK WND 22036/1344 PRESRR SLP146 T00940061=
201612201337 SPECI KSEA 201337Z 22021G32KT 10SM SCT012 BKN019 BKN024 09/07 A2990 RMK AO2 PK WND 22032/1321 T00940067=
201612201320 SPECI KSEA 201320Z 22021G26KT 10SM BKN010 OVC019 09/08 A2990 RMK AO2 PK WND 21028/1256 T00940083=
201612201253 METAR KSEA 201253Z 20018G28KT 10SM OVC008 09/08 A2987 RMK AO2 PK WND 21033/1236 SLP124 T00940083=
201612201233 SPECI KSEA 201233Z 20018G29KT 10SM OVC008 09/08 A2987 RMK AO2 PK WND 19030/1217 T00940083=
201612201153 METAR KSEA 201153Z 18019G22KT 10SM OVC010 09/08 A2986 RMK AO2 PK WND 19033/1116 SLP117 60015 70071 T00940083 10094 20056 58000=
201612201150 SPECI KSEA 201150Z 19014G24KT 10SM OVC010 09/08 A2986 RMK AO2 PK WND 19033/1116=
201612201053 METAR KSEA 201053Z 18016G24KT 10SM BKN008 OVC015 09/08 A2986 RMK AO2 PK WND 19026/1036 SLP119 T00890078=
201612200953 METAR KSEA 200953Z 17010KT 7SM SCT007 BKN013 OVC019 07/06 A2986 RMK AO2 RAE00 SLP118 P0000 T00670061=
201612200946 SPECI KSEA 200946Z 16008KT 9SM SCT007 BKN013 OVC019 07/06 A2986 RMK AO2 RAE00 PRESFR P0000 T00670061=
201612200853 METAR KSEA 200853Z 15005KT 3SM -RA BR FEW004 BKN019 OVC026 06/06 A2989 RMK AO2 RAE08B45 SLP128 P0001 60015 T00610061 56044=
201612200800 SPECI KSEA 200800Z 18004KT 3SM -RA BR SCT004 SCT017 OVC028 06/06 A2992 RMK AO2 TWR VIS 4 P0000 T00610056=
201612200753 METAR KSEA 200753Z 19003KT 2SM -RA BR SCT004 BKN017 OVC028 06/06 A2993 RMK AO2 SLP143 P0008 T00610061 400720017=
201612200653 METAR KSEA 200653Z 15006KT 2SM -RA BR SCT004 BKN017 OVC028 06/06 A2996 RMK AO2 SLP154 P0006 T00560056=
201612200634 SPECI KSEA 200634Z 14007KT 2SM -RA BR SCT004 BKN017 OVC035 06/06 A2998 RMK AO2 P0004 T00560056=
201612200614 SPECI KSEA 200614Z 13010KT 2SM -RA BR BKN004 OVC017 06/06 A2998 RMK AO2 PRESFR P0002 T00560056=
201612200553 METAR KSEA 200553Z 15007KT 2SM -RA BR FEW005 BKN015 OVC023 06/05 A3002 RMK AO2 SLP173 P0006 60015 T00560050 10067 20056 58054=
201612200522 SPECI KSEA 200522Z 05004KT 6SM -RA BR FEW013 BKN025 OVC041 06/06 A3006 RMK AO2 P0003 T00610056=
201612200512 SPECI KSEA 200512Z 05003KT 4SM -RA BR FEW020 BKN030 OVC043 06/05 A3006 RMK AO2 P0003 T00610050=
201612200453 METAR KSEA 200453Z 00000KT 3SM R16L/5000VP6000FT -RA BR FEW010 BKN028 OVC045 06/06 A3008 RMK AO2 SLP195 P0007 T00560056=
201612200353 METAR KSEA 200353Z 08006KT 5SM -RA BR FEW009 OVC017 07/05 A3013 RMK AO2 RAB21E32B49 PRESFR SLP210 P0002 T00670050=
201612200253 METAR KSEA 200253Z 16003KT 10SM SCT009 OVC019 06/04 A3018 RMK AO2 SLP228 T00610044 58015=
201612200215 SPECI KSEA 200215Z 16005KT 10SM SCT009 OVC024 06/04 A3019 RMK AO2 T00610044=
201612200153 METAR KSEA 200153Z 21006KT 10SM FEW010 BKN026 OVC030 06/05 A3021 RMK AO2 SLP238 T00610050=
201612200053 METAR KSEA 200053Z 22008KT 10SM FEW010 OVC026 06/04 A3022 RMK AO2 SLP243 T00610044=
201612192353 METAR KSEA 192353Z 24009KT 10SM OVC024 07/05 A3022 RMK AO2 SLP244 T00670050 10072 20056 53003=
201612192253 METAR KSEA 192253Z 22012KT 10SM BKN015 OVC021 07/05 A3022 RMK AO2 SLP240 T00720050=
201612192153 METAR KSEA 192153Z 20008KT 10SM OVC015 07/05 A3020 RMK AO2 SLP237 T00720050=
201612192119 SPECI KSEA 192119Z 20004KT 10SM OVC015 07/05 A3022 RMK AO2 T00670050=
201612192053 METAR KSEA 192053Z 23008KT 10SM OVC013 07/05 A3021 RMK AO2 SLP239 T00670050 51027=
201612191953 METAR KSEA 191953Z 24007KT 10SM OVC012 07/05 A3019 RMK AO2 SLP233 T00670050=
201612191916 SPECI KSEA 191916Z 23010KT 10SM OVC010 07/05 A3019 RMK AO2 T00670050=
201612191853 METAR KSEA 191853Z 21012KT 10SM OVC009 06/05 A3018 RMK AO2 PK WND 21027/1759 SLP228 T00610050=
201612191753 METAR KSEA 191753Z 20018G24KT 5SM BR BKN007 OVC014 06/04 A3013 RMK AO2 PK WND 21026/1735 RAE16 SLP213 P0002 60041 T00560044 10056 20017 53023=
201612191748 SPECI KSEA 191748Z 21017G25KT 5SM BR BKN007 OVC014 05/04 A3013 RMK AO2 PK WND 21026/1735 RAE16 P0002=
201612191732 SPECI KSEA 191732Z 21019G25KT 3SM BR FEW007 BKN014 OVC025 05/04 A3012 RMK AO2 RAE16 P0002 T00500044=
201612191653 METAR KSEA 191653Z 21014G21KT 3SM -RA BR FEW007 BKN018 OVC027 05/04 A3011 RMK AO2 SLP205 P0004 T00500039=
201612191645 SPECI KSEA 191645Z 23010G20KT 3SM -RA BR FEW007 BKN018 OVC027 04/04 A3011 RMK AO2 P0004 T00440039=
201612191622 SPECI KSEA 191622Z 20014G20KT 4SM -RA BR FEW007 BKN014 OVC023 05/04 A3009 RMK AO2 P0002 T00500039=
201612191607 SPECI KSEA 191607Z 21010KT 3SM -RA BR FEW008 BKN018 OVC024 04/04 A3010 RMK AO2 PRESRR P0002 T00440039=
201612191553 METAR KSEA 191553Z 20013KT 3SM -RA BR BKN019 OVC025 04/03 A3006 RMK AO2 SNE17 SLP189 P0005 T00440033=
201612191518 SPECI KSEA 191518Z 19009KT 7SM -RA BKN019 OVC037 04/03 A3006 RMK AO2 SNE17 P0003 T00390028=
201612191453 METAR KSEA 191453Z 18010KT 7SM -RASN BKN021 OVC030 03/03 A3006 RMK AO2 SLP189 P0006 60030 T00330028 56027=
201612191409 SPECI KSEA 191409Z 16011KT 6SM -RASN BR BKN031 OVC045 02/02 A3007 RMK AO2 P0003 T00220017=
201612191353 METAR KSEA 191353Z 16009KT 3SM -RASN BR FEW008 OVC020 02/01 A3008 RMK AO2 SLP195 P0011 T00170011=
201612191315 SPECI KSEA 191315Z 17012KT 3SM -RASN BR FEW008 OVC018 02/01 A3010 RMK AO2 P0004 T00170011=
201612191253 METAR KSEA 191253Z 18012KT 3SM -RASN BR SCT008 OVC013 02/01 A3011 RMK AO2 RAE29B37SNB29 SLP207 P0013 T00170011=
201612191235 SPECI KSEA 191235Z 18010KT 3SM -SN BR SCT009 OVC013 02/01 A3012 RMK AO2 RAE29SNB29 P0008 T00170011=
201612191201 SPECI KSEA 191201Z 16011KT 6SM -RA BR SCT009 OVC016 02/01 A3013 RMK AO2 P0001 T00220011=
201612191153 METAR KSEA 191153Z 17011KT 7SM -RA FEW011 OVC014 03/01 A3014 RMK AO2 SLP217 P0009 60011 70011 T00280011 10056 20022 55011=
201612191136 SPECI KSEA 191136Z 18013G21KT 6SM -RA BR BKN014 OVC024 03/02 A3015 RMK AO2 P0006 T00280017=
201612191053 METAR KSEA 191053Z 18014G22KT 10SM -RA OVC024 04/01 A3014 RMK AO2 PK WND 18028/1025 SLP217 P0002 T00440011=
201612191011 SPECI KSEA 191011Z 18015G20KT 10SM -RA OVC027 04/M01 A3013 RMK AO2 P0000 T00441006=
201612191000 SPECI KSEA 191000Z 18014KT 10SM -RA OVC031 05/M01 A3014 RMK AO2 P0000 T00501011=
201612190953 METAR KSEA 190953Z 18013G21KT 10SM -RA OVC035 05/M01 A3014 RMK AO2 RAB43 SLP217 P0000 T00501011=
201612190853 METAR KSEA 190853Z 19010KT 10SM SCT045 OVC100 04/M03 A3018 RMK AO2 SLP228 T00391028 58039=
201612190753 METAR KSEA 190753Z 16009KT 10SM OVC039 03/M02 A3021 RMK AO2 SLP241 T00281017 400391028=
201612190653 METAR KSEA 190653Z 21005KT 10SM BKN050 OVC120 03/M01 A3028 RMK AO2 SLP265 T00281011=
201612190553 METAR KSEA 190553Z 17007KT 10SM BKN120 02/M02 A3029 RMK AO2 SLP269 T00221017 10033 20011 56023=
201612190500 SPECI KSEA 190500Z 16007KT 10SM BKN140 01/M02 A3030 RMK AO2 T00111022=
201612190453 METAR KSEA 190453Z 17006KT 10SM CLR 02/M02 A3030 RMK AO2 SLP272 T00171022=
201612190353 METAR KSEA 190353Z 14006KT 10SM BKN120 02/M02 A3034 RMK AO2 SLP283 T00221022=
201612190253 METAR KSEA 190253Z 15006KT 10SM BKN140 03/M02 A3036 RMK AO2 SLP292 T00281017 58016=
201612190153 METAR KSEA 190153Z 17004KT 10SM FEW055 BKN120 02/M02 A3039 RMK AO2 SLP301 T00221022=
201612190053 METAR KSEA 190053Z 16005KT 10SM BKN160 02/M02 A3039 RMK AO2 SLP302 T00221022=
201612182353 METAR KSEA 182353Z 21004KT 10SM FEW080 BKN250 03/M02 A3041 RMK AO2 SLP309 T00331022 10039 20006 56021=
201612182253 METAR KSEA 182253Z 22003KT 10SM FEW080 BKN250 03/M03 A3043 RMK AO2 SLP315 T00331028=
201612182153 METAR KSEA 182153Z 17005KT 10SM SCT033 BKN080 03/M03 A3045 RMK AO2 SLP322 T00331028=
201612182053 METAR KSEA 182053Z 19004KT 10SM BKN033 BKN080 03/M02 A3047 RMK AO2 SLP330 T00331022 58011=
201612181953 METAR KSEA 181953Z 16006KT 10SM FEW032 BKN080 03/M03 A3049 RMK AO2 SLP336 T00281033=
201612181853 METAR KSEA 181853Z 14006KT 10SM SCT032 BKN075 02/M03 A3051 RMK AO2 SLP344 T00171033=
201612181753 METAR KSEA 181753Z 17004KT 10SM FEW010 SCT070 BKN090 01/M04 A3051 RMK AO2 SLP341 T00061039 10006 21017 58004=
201612181653 METAR KSEA 181653Z 15006KT 10SM FEW010 SCT060 OVC095 00/M04 A3052 RMK AO2 SLP346 T00001039=
201612181553 METAR KSEA 181553Z 11005KT 10SM FEW010 SCT060 OVC090 M01/M03 A3051 RMK AO2 SLP343 T10111033=
201612181453 METAR KSEA 181453Z 12007KT 10SM OVC090 M01/M03 A3052 RMK AO2 SLP347 T10111033 50003=
201612181353 METAR KSEA 181353Z 12005KT 10SM SCT065 BKN110 M01/M03 A3053 RMK AO2 SLP349 T10111033=
201612181253 METAR KSEA 181253Z 12003KT 10SM OVC060 M01/M03 A3053 RMK AO2 SLP350 T10111033=
201612181153 METAR KSEA 181153Z 15007KT 10SM BKN060 BKN180 M02/M03 A3051 RMK AO2 SLP343 T10171033 11006 21028 58007=
201612181053 METAR KSEA 181053Z 13005KT 10SM BKN065 BKN180 M02/M04 A3053 RMK AO2 SLP350 T10221044=
201612180953 METAR KSEA 180953Z 00000KT 10SM SCT065 M01/M04 A3053 RMK AO2 SLP352 T10111039=
201612180853 METAR KSEA 180853Z 13006KT 10SM SCT055 M01/M04 A3053 RMK AO2 SLP350 T10111039 51006=
201612180753 METAR KSEA 180753Z 11005KT 10SM BKN055 M01/M04 A3053 RMK AO2 SLP349 T10061039 400061050=
201612180653 METAR KSEA 180653Z 00000KT 10SM FEW035 BKN060 M01/M04 A3052 RMK AO2 SLP348 T10111044=
201612180553 METAR KSEA 180553Z 04003KT 10SM BKN034 M01/M04 A3051 RMK AO2 SLP344 T10061039 10000 21028 52015=
201612180453 METAR KSEA 180453Z 06004KT 10SM BKN034 M01/M04 A3050 RMK AO2 SLP340 T10111039=
201612180353 METAR KSEA 180353Z 02005KT 10SM BKN035 BKN060 M01/M06 A3048 RMK AO2 SLP334 T10111056=
201612180253 METAR KSEA 180253Z 00000KT 10SM SCT033 BKN055 M01/M06 A3047 RMK AO2 SLP330 T10061061 51014=
201612180200 METAR KSEA NIL=
201612180153 METAR KSEA 180153Z 02003KT 10SM BKN033 M01/M06 A3046 RMK AO2 SLP327 T10061056=
201612180053 METAR KSEA 180053Z 01004KT 10SM SCT033 BKN070 M02/M06 A3045 RMK AO2 SLP323 T10171056=
201612172353 METAR KSEA 172353Z 05003KT 10SM BKN033 00/M06 A3043 RMK AO2 SLP316 T00001061 10006 21022 53007=
201612172253 METAR KSEA 172253Z 03003KT 10SM BKN031 01/M06 A3042 RMK AO2 SLP311 T00061061=
201612172153 METAR KSEA 172153Z 05005KT 10SM OVC029 00/M06 A3041 RMK AO2 SLP308 T00001056=
201612172053 METAR KSEA 172053Z 02004KT 10SM OVC028 00/M06 A3042 RMK AO2 SLP311 T00001056 50008=
201612171953 METAR KSEA 171953Z 36004KT 10SM OVC033 M01/M06 A3042 RMK AO2 SLP312 T10061061=
201612171853 METAR KSEA 171853Z 13003KT 10SM BKN038 OVC075 M01/M07 A3041 RMK AO2 SLP311 T10061067=
201612171753 METAR KSEA 171753Z 07005KT 10SM BKN075 M02/M07 A3039 RMK AO2 SLP304 T10221072 11022 21050 53016=
201612171653 METAR KSEA 171653Z 11007KT 10SM BKN075 M03/M08 A3037 RMK AO2 SLP296 T10331078=
201612171553 METAR KSEA 171553Z 14005KT 10SM BKN075 M04/M08 A3036 RMK AO2 SLP291 T10441078=
201612171453 METAR KSEA 171453Z 12008KT 10SM OVC070 M04/M08 A3035 RMK AO2 SLP288 T10441078 53008=
201612171353 METAR KSEA 171353Z 13007KT 10SM SCT060 SCT230 M05/M08 A3034 RMK AO2 SLP285 T10501078=
201612171253 METAR KSEA 171253Z 14008KT 10SM BKN230 M04/M08 A3032 RMK AO2 SLP279 T10441078=
201612171153 METAR KSEA 171153Z 13008KT 10SM BKN230 M04/M07 A3032 RMK AO2 SLP279 T10441072 11022 21050 50009=
201612171053 METAR KSEA 171053Z 14006KT 10SM BKN230 M04/M07 A3033 RMK AO2 SLP281 T10441072=
201612170953 METAR KSEA 170953Z 12006KT 10SM BKN240 M04/M07 A3030 RMK AO2 SLP273 T10441067=
201612170853 METAR KSEA 170853Z 12006KT 10SM SCT240 M04/M07 A3029 RMK AO2 SLP269 T10391067 51009=
201612170753 METAR KSEA 170753Z 12006KT 10SM CLR M04/M07 A3029 RMK AO2 SLP268 T10391072 400111039=
201612170653 METAR KSEA 170653Z 13004KT 10SM CLR M03/M09 A3028 RMK AO2 SLP266 T10281089=
201612170553 METAR KSEA 170553Z 02004KT 10SM CLR M02/M09 A3027 RMK AO2 SLP260 T10221089 10000 21039 53010=
201612170453 METAR KSEA 170453Z 00000KT 10SM CLR M03/M09 A3024 RMK AO2 SLP253 T10281094=
201612170353 METAR KSEA 170353Z 09005KT 10SM CLR M01/M09 A3024 RMK AO2 SLP253 T10111094=
201612170253 METAR KSEA 170253Z 06004KT 10SM CLR M02/M09 A3023 RMK AO2 SLP250 T10221094 51020=
201612170153 METAR KSEA 170153Z 01008KT 10SM CLR M02/M09 A3022 RMK AO2 SLP246 T10221089=
201612170053 METAR KSEA 170053Z 02005KT 10SM FEW030 M01/M10 A3020 RMK AO2 SLP238 T10111100=
201612162353 METAR KSEA 162353Z 35007KT 10SM FEW030 00/M09 A3017 RMK AO2 SLP229 T00001089 10011 21006 53018=
201612162253 METAR KSEA 162253Z 34006KT 10SM FEW030 FEW250 01/M08 A3015 RMK AO2 SLP221 T00061083=
201612162153 METAR KSEA 162153Z 36006KT 10SM FEW030 FEW250 01/M09 A3014 RMK AO2 SLP216 T00111089=
201612162053 METAR KSEA 162053Z 01010KT 10SM FEW030 01/M09 A3012 RMK AO2 SLP210 T00111089 51016=
201612161953 METAR KSEA 161953Z 01013G17KT 10SM FEW030 01/M09 A3012 RMK AO2 SLP209 T00061089=
201612161853 METAR KSEA 161853Z 36011KT 10SM FEW025 01/M06 A3011 RMK AO2 SLP206 T00061061=
201612161753 METAR KSEA 161753Z 02008KT 10SM FEW025 FEW060 M01/M06 A3007 RMK AO2 SLP194 T10061061 11006 21028 53030=
201612161653 METAR KSEA 161653Z 02008KT 10SM SCT023 SCT060 M01/M06 A3004 RMK AO2 SLP183 T10111061=
201612161553 METAR KSEA 161553Z 02006KT 10SM CLR M02/M06 A3001 RMK AO2 SLP172 T10221061=
201612161453 METAR KSEA 161453Z 02009KT 10SM FEW070 M02/M06 A2999 RMK AO2 SLP164 T10221061 53014=
201612161353 METAR KSEA 161353Z 02008KT 10SM FEW070 M02/M07 A2996 RMK AO2 SLP156 T10171072=
201612161253 METAR KSEA 161253Z 01008KT 10SM SCT070 M02/M07 A2995 RMK AO2 SLP153 T10171067=
201612161153 METAR KSEA 161153Z 02010KT 10SM SCT065 M01/M06 A2994 RMK AO2 SLP150 T10111056 10006 21011 53013=
201612161053 METAR KSEA 161053Z 01012KT 10SM BKN060 M01/M06 A2994 RMK AO2 SLP147 T10061056=
201612160953 METAR KSEA 160953Z 01014KT 10SM OVC060 00/M05 A2991 RMK AO2 SLP139 T00001050=
201612160853 METAR KSEA 160853Z 02007KT 10SM OVC060 00/M04 A2991 RMK AO2 SLP137 T00001039 50003=
201612160753 METAR KSEA 160753Z 02008KT 10SM SCT050 OVC060 01/M03 A2991 RMK AO2 SLP138 T00061033 400330000=
201612160653 METAR KSEA 160653Z 02009KT 10SM FEW050 BKN070 00/M04 A2991 RMK AO2 SLP137 T00001039=
201612160553 METAR KSEA 160553Z 01011KT 10SM FEW049 BKN065 00/M03 A2990 RMK AO2 SLP134 T00001033 10028 20000 56003=
201612160453 METAR KSEA 160453Z 02008KT 10SM FEW050 OVC070 01/M03 A2990 RMK AO2 SLP134 T00111028=
201612160353 METAR KSEA 160353Z 02009KT 10SM SCT050 OVC070 01/M03 A2990 RMK AO2 SLP137 T00111028=
201612160253 METAR KSEA 160253Z 04009KT 10SM FEW042 OVC070 02/M03 A2991 RMK AO2 SLP137 T00171033 58000=
201612160153 METAR KSEA 160153Z 02006KT 10SM SCT036 OVC070 02/M03 A2991 RMK AO2 SLP138 T00171033=
201612160053 METAR KSEA 160053Z 01006KT 10SM FEW025 BKN035 OVC070 02/M03 A2991 RMK AO2 SLP138 T00221033=
201612152353 METAR KSEA 152353Z 04006KT 10SM BKN035 OVC070 03/M04 A2991 RMK AO2 SLP138 T00281039 10033 20017 51000=
201612152253 METAR KSEA 152253Z 03006KT 10SM BKN038 BKN080 03/M04 A2991 RMK AO2 SLP137 T00281039=
201612152153 METAR KSEA 152153Z 02006KT 10SM BKN039 BKN090 03/M04 A2991 RMK AO2 SLP139 T00281039=
201612152053 METAR KSEA 152053Z 03003KT 10SM FEW025 BKN037 BKN090 03/M04 A2991 RMK AO2 SLP137 T00281044 58003=
201612151953 METAR KSEA 151953Z 03007KT 10SM FEW020 BKN031 BKN085 02/M04 A2992 RMK AO2 SLP140 T00221044=
201612151933 SPECI KSEA 151933Z 02007KT 10SM FEW020 BKN031 BKN085 02/M04 A2992 RMK AO2 T00221039=
201612151853 METAR KSEA 151853Z 04007KT 10SM FEW020 BKN028 OVC085 02/M04 A2992 RMK AO2 SLP141 T00171039=
201612151834 SPECI KSEA 151834Z 02007KT 10SM FEW020 BKN028 BKN085 02/M04 A2992 RMK AO2 T00171039=
201612151753 METAR KSEA 151753Z 04006KT 10SM FEW030 BKN041 BKN085 02/M04 A2992 RMK AO2 SLP141 T00171039 10017 20000 53015=
201612151653 METAR KSEA 151653Z 05005KT 10SM FEW025 BKN047 OVC080 01/M03 A2990 RMK AO2 SLP135 T00111033=
201612151553 METAR KSEA 151553Z 02005KT 10SM FEW025 BKN046 OVC080 01/M03 A2989 RMK AO2 SLP131 T00061033=
201612151453 METAR KSEA 151453Z 01005KT 10SM BKN044 OVC080 01/M03 A2987 RMK AO2 SLP126 T00061033 53002=
201612151353 METAR KSEA 151353Z 06004KT 10SM BKN045 OVC080 01/M03 A2986 RMK AO2 SLP120 T00061033=
201612151253 METAR KSEA 151253Z 10003KT 10SM SCT040 BKN047 OVC070 01/M03 A2986 RMK AO2 SLP123 T00061033=
201612151153 METAR KSEA 151153Z 00000KT 9SM OVC060 00/M03 A2987 RMK AO2 SNE49 SLP123 P0000 60000 T00001028 10011 20000 50004=
201612151053 METAR KSEA 151053Z 06003KT 9SM -SN FEW038 OVC070 00/M03 A2987 RMK AO2 SLP126 P0000 T00001028=
201612150953 METAR KSEA 150953Z 08005KT 10SM -SN OVC055 01/M04 A2986 RMK AO2 SNB51 SLP121 P0000 T00111044=
201612150853 METAR KSEA 150853Z 03007KT 10SM OVC065 01/M04 A2985 RMK AO2 SLP118 T00111039 51005=
201612150753 METAR KSEA 150753Z 01009KT 10SM OVC060 01/M04 A2985 RMK AO2 SLP119 T00061044 400391011=
201612150653 METAR KSEA 150653Z 03010KT 10SM BKN080 OVC100 01/M05 A2984 RMK AO2 SLP115 T00111050=
201612150553 METAR KSEA 150553Z 03010KT 10SM FEW080 OVC100 01/M04 A2984 RMK AO2 SLP114 T00111044 10011 20006 55007=
201612150453 METAR KSEA 150453Z 02010KT 10SM OVC080 01/M04 A2983 RMK AO2 SLP113 T00111044=
201612150353 METAR KSEA 150353Z 01011KT 10SM OVC075 01/M04 A2984 RMK AO2 SLP115 T00111044=
201612150253 METAR KSEA 150253Z 01014KT 10SM OVC080 01/M04 A2986 RMK AO2 SLP121 T00111044 56010=
201612150153 METAR KSEA 150153Z 01013KT 10SM OVC080 01/M04 A2986 RMK AO2 SLP122 T00111039=
201612150053 METAR KSEA 150053Z 01014KT 10SM BKN080 OVC180 01/M04 A2988 RMK AO2 SLP128 T00111044=
201612142353 METAR KSEA 142353Z 01014KT 10SM FEW120 OVC180 01/M04 A2989 RMK AO2 SLP131 T00111039 10039 20000 58034=
201612142253 METAR KSEA 142253Z 03011KT 10SM FEW060 OVC180 02/M06 A2992 RMK AO2 SLP143 T00221056=
201612142153 METAR KSEA 142153Z 02014KT 10SM FEW060 OVC180 03/M06 A2997 RMK AO2 SLP157 T00281061=
201612142053 METAR KSEA 142053Z 06009KT 10SM FEW050 OVC190 04/M07 A2999 RMK AO2 SLP165 T00391072 58037=
201612141953 METAR KSEA 141953Z 03012KT 10SM OVC210 02/M05 A3003 RMK AO2 SLP179 T00171050=
201612141853 METAR KSEA 141853Z 03012KT 10SM OVC230 01/M05 A3008 RMK AO2 SLP196 T00111050=
201612141753 METAR KSEA 141753Z 03013KT 10SM BKN250 00/M05 A3010 RMK AO2 SLP203 T00001050 10000 21011 56015=
201612141653 METAR KSEA 141653Z 03012KT 10SM FEW015 BKN250 00/M06 A3011 RMK AO2 SLP208 T00001056=
201612141553 METAR KSEA 141553Z 02014KT 10SM BKN250 M01/M05 A3012 RMK AO2 SLP211 T10061050=
201612141453 METAR KSEA 141453Z 01014KT 10SM OVC250 M01/M04 A3014 RMK AO2 SLP218 T10061044 56019=
201612141353 METAR KSEA 141353Z 02012KT 10SM BKN250 M01/M04 A3016 RMK AO2 SLP225 T10061044=
201612141253 METAR KSEA 141253Z 03012KT 10SM BKN250 M01/M04 A3018 RMK AO2 SLP230 T10061039=
201612141153 METAR KSEA 141153Z 01013KT 10SM SCT250 M01/M03 A3020 RMK AO2 SLP238 T10111028 10011 21011 58017=
201612141053 METAR KSEA 141053Z 01011KT 10SM SCT250 M01/M03 A3023 RMK AO2 SLP246 T10061028=
201612140953 METAR KSEA 140953Z 01014KT 10SM CLR 00/M03 A3023 RMK AO2 SLP248 T00001033=
201612140853 METAR KSEA 140853Z 01013KT 10SM CLR M01/M03 A3025 RMK AO2 SLP255 T10061028 58001=
201612140753 METAR KSEA 140753Z 01009KT 10SM CLR M01/M02 A3026 RMK AO2 SLP257 T10061017 400331006=
201612140653 METAR KSEA 140653Z 02010KT 10SM CLR 01/M02 A3026 RMK AO2 SLP258 T00061017=
201612140553 METAR KSEA 140553Z 03012KT 10SM FEW018 01/M01 A3026 RMK AO2 SLP256 T00111011 10033 20006 55003=
201612140453 METAR KSEA 140453Z 01011KT 10SM FEW018 01/M01 A3025 RMK AO2 SLP255 T00061011=
201612140353 METAR KSEA 140353Z 02011KT 10SM FEW018 01/M01 A3026 RMK AO2 SLP256 T00111011=
201612140253 METAR KSEA 140253Z 01008KT 10SM SCT016 01/M01 A3026 RMK AO2 SLP259 T00111011 58003=
201612140246 SPECI KSEA 140246Z 36008KT 10SM SCT016 01/M01 A3026 RMK AO2 T00111011=
201612140153 METAR KSEA 140153Z 01010KT 10SM BKN016 02/M01 A3027 RMK AO2 SLP261 T00221011=
201612140053 METAR KSEA 140053Z 01006KT 10SM BKN016 03/M01 A3028 RMK AO2 SLP262 T00281006=
201612140000 METAR KSEA NIL=
201612132353 METAR KSEA 132353Z 04008KT 10SM BKN019 03/M01 A3027 RMK AO2 SLP261 T00331011 10033 20028 55001=
201612132300 METAR KSEA NIL=
201612132253 METAR KSEA 132253Z 02008KT 10SM BKN017 03/M01 A3027 RMK AO2 SLP260 T00331006=
201612132200 METAR KSEA NIL=
201612132153 METAR KSEA 132153Z 01013KT 10SM FEW012 BKN016 03/00 A3027 RMK AO2 SLP261 T00330000=
201612132100 METAR KSEA NIL=
201612132053 METAR KSEA 132053Z 01008KT 10SM FEW011 OVC017 03/M01 A3028 RMK AO2 SLP262 T00331006 50000=
201612131953 METAR KSEA 131953Z 02010KT 10SM SCT010 OVC016 03/M01 A3028 RMK AO2 SLP263 T00281006=
201612131853 METAR KSEA 131853Z 02011KT 10SM SCT009 BKN020 03/00 A3028 RMK AO2 SLP264 T00280000=
201612131836 SPECI KSEA 131836Z 02008KT 10SM SCT009 BKN018 03/00 A3028 RMK AO2 T00280000=
201612131833 SPECI KSEA 131833Z 03009KT 10SM SCT009 BKN018 03/01 A3028 RMK AO2 T00280006=
201612131753 METAR KSEA 131753Z 01009KT 10SM BKN009 BKN018 03/01 A3027 RMK AO2 SLP261 T00280006 10028 20017 53012=
201612131722 SPECI KSEA 131722Z 01009KT 10SM BKN009 OVC034 02/01 A3027 RMK AO2 T00220006=
201612131653 METAR KSEA 131653Z 36005KT 10SM FEW008 BKN034 02/01 A3026 RMK AO2 SLP257 T00220011=
201612131615 SPECI KSEA 131615Z 01009KT 10SM SCT008 BKN034 02/01 A3025 RMK AO2 T00170006=
201612131553 METAR KSEA 131553Z 36006KT 10SM BKN009 OVC034 02/01 A3025 RMK AO2 SLP252 T00170011=
201612131527 SPECI KSEA 131527Z 01007KT 10SM SCT009 OVC034 02/01 A3024 RMK AO2 T00170006=
201612131453 METAR KSEA 131453Z 36010KT 10SM FEW015 OVC034 02/01 A3024 RMK AO2 SLP249 T00170006 53000=
201612131353 METAR KSEA 131353Z 01010KT 10SM FEW009 BKN034 BKN050 02/01 A3024 RMK AO2 SLP249 T00170006 $=
201612131338 SPECI KSEA 131338Z 01009KT 10SM FEW009 BKN035 BKN050 02/01 A3023 RMK AO2 T00170006 $=
201612131253 METAR KSEA 131253Z 01009KT 10SM BKN005 BKN036 02/01 A3023 RMK AO2 SLP248 T00220011 $=
201612131153 METAR KSEA 131153Z 01009KT 8SM BKN006 OVC021 02/02 A3024 RMK AO2 SLP249 60000 70009 T00220017 10033 20022 58002 $=
201612131114 SPECI KSEA 131114Z 01009KT 8SM BKN006 BKN050 02/01 A3025 RMK AO2 T00220011 $=
201612131053 METAR KSEA 131053Z 03009KT 10SM FEW014 BKN031 BKN050 02/02 A3024 RMK AO2 SLP251 T00220017 $=
201612131022 SPECI KSEA 131022Z 02009KT 10SM FEW013 BKN033 02/02 A3025 RMK AO2 T00220017=
201612130953 METAR KSEA 130953Z 01007KT 10SM BKN019 OVC033 03/02 A3025 RMK AO2 SLP252 T00280022=
201612130935 SPECI KSEA 130935Z 03008KT 8SM SCT004 BKN019 OVC032 03/02 A3025 RMK AO2 T00280022=
201612130853 METAR KSEA 130853Z 02008KT 6SM BR BKN003 OVC032 03/02 A3024 RMK AO2 SLP251 60000 T00280022 58003=
201612130834 SPECI KSEA 130834Z 02006KT 7SM SCT003 SCT013 OVC031 03/02 A3024 RMK AO2 T00280022=
201612130753 METAR KSEA 130753Z 03007KT 6SM BR BKN003 OVC012 03/02 A3025 RMK AO2 SLP254 T00330022 400560033=
201612130653 METAR KSEA 130653Z 02006KT 5SM BR BKN003 OVC012 03/03 A3026 RMK AO2 RAE48 SLP257 SHRA NW-NE P0000 T00330028=
201612130634 SPECI KSEA 130634Z 02005KT 5SM -RA BR BKN003 OVC012 03/03 A3026 RMK AO2 P0000 T00330028=
201612130553 METAR KSEA 130553Z 01005KT 3SM -RA BR BKN008 OVC019 03/03 A3025 RMK AO2 RAB10 SLP254 P0001 60001 T00330028 10044 20033 53005=
201612130453 METAR KSEA 130453Z 03006KT 6SM BR BKN007 OVC025 03/02 A3025 RMK AO2 RAE49 SLP251 P0000 T00330022=
201612130358 SPECI KSEA 130358Z 05006KT 7SM -RA BKN009 OVC025 03/02 A3024 RMK AO2 P0000 T00330022=
201612130353 METAR KSEA 130353Z 05007KT 7SM -RA SCT009 BKN023 OVC027 03/02 A3023 RMK AO2 RAB26 SLP248 P0000 T00330022=
201612130300 METAR KSEA NIL=
201612130253 METAR KSEA 130253Z 06006KT 10SM SCT009 BKN021 BKN027 04/02 A3023 RMK AO2 SLP248 60000 T00390022 51005=
201612130153 METAR KSEA 130153Z 02006KT 10SM BKN008 OVC022 04/03 A3023 RMK AO2 RAB15E29 SLP247 P0000 T00390028=
201612130145 SPECI KSEA 130145Z 03006KT 10SM BKN008 BKN012 OVC022 04/03 A3023 RMK AO2 RAB15E29 P0000 T00390028=
201612130104 SPECI KSEA 130104Z 03007KT 10SM BKN010 OVC020 04/03 A3023 RMK AO2 T00390028=
201612130053 METAR KSEA 130053Z 04006KT 10SM SCT012 OVC022 04/03 A3022 RMK AO2 SLP244 T00390028=
201612122353 METAR KSEA 122353Z 01006KT 10SM FEW008 SCT013 OVC022 04/03 A3022 RMK AO2 RAE09 SLP242 P0000 60008 T00440028 10056 20039 51012=
201612122320 SPECI KSEA 122320Z 36007KT 9SM FEW008 BKN016 OVC024 04/03 A3021 RMK AO2 RAE09 P0000 T00440028=
201612122253 METAR KSEA 122253Z 35005KT 8SM -RA FEW008 BKN011 OVC020 04/03 A3021 RMK AO2 RAE10B47 SLP239 P0002 T00440033=
201612122246 SPECI KSEA 122246Z 34006KT 10SM FEW008 BKN011 OVC020 04/03 A3021 RMK AO2 RAE10 P0002 T00440033=
201612122153 METAR KSEA 122153Z 33005KT 8SM -RA BKN015 OVC021 05/03 A3020 RMK AO2 SLP236 P0006 T00500033=
201612122130 SPECI KSEA 122130Z 31005KT 7SM -RA BKN015 OVC023 04/03 A3019 RMK AO2 P0004 T00440033=
201612122053 METAR KSEA 122053Z 30005KT 7SM -RA BKN010 OVC019 05/04 A3018 RMK AO2 RAB52 SLP230 P0000 60000 T00500039 51016=
201612121953 METAR KSEA 121953Z 24006KT 10SM OVC013 06/03 A3017 RMK AO2 SLP225 T00560033=
201612121853 METAR KSEA 121853Z 21010KT 10SM OVC011 05/03 A3016 RMK AO2 SLP222 T00500028=
201612121753 METAR KSEA 121753Z 19008KT 10SM OVC011 04/03 A3014 RMK AO2 SLP214 60000 T00440028 10044 20033 53022=
201612121653 METAR KSEA 121653Z 18010KT 10SM OVC010 04/03 A3011 RMK AO2 SLP204 T00390028=
201612121553 METAR KSEA 121553Z 19009KT 10SM OVC010 04/03 A3008 RMK AO2 RAE19 SLP196 P0000 T00390028=
201612121526 SPECI KSEA 121526Z 20013KT 10SM BKN010 OVC015 04/03 A3008 RMK AO2 RAE19 P0000 T00390028=
201612121453 METAR KSEA 121453Z 18011KT 10SM -RA SCT014 BKN023 OVC032 04/02 A3007 RMK AO2 RAB46 SLP191 P0000 60000 T00440022 51012 $=
201612121449 SPECI KSEA 121449Z 19011KT 9SM -RA SCT014 BKN023 OVC032 04/02 A3007 RMK AO2 RAB46 P0000 $=
201612121420 SPECI KSEA 121420Z 18012KT 10SM BKN014 BKN023 04/02 A3006 RMK AO2 T00390022 $=
201612121353 METAR KSEA 121353Z 17008KT 10SM BKN025 04/02 A3006 RMK AO2 SLP188 T00390022 $=
201612121253 METAR KSEA 121253Z 19010KT 10SM SCT010 BKN027 04/02 A3005 RMK AO2 SLP185 T00390022 $=
201612121225 SPECI KSEA 121225Z 18009KT 10SM SCT010 SCT022 BKN028 04/02 A3004 RMK AO2 T00390022 $=
201612121153 METAR KSEA 121153Z 19010KT 10SM BKN011 BKN020 04/02 A3003 RMK AO2 SLP180 70005 T00390022 10044 20039 53013 $=
201612121053 METAR KSEA 121053Z 21015G21KT 10SM BKN012 BKN025 04/02 A3002 RMK AO2 SLP176 T00440022 $=
201612120953 METAR KSEA 120953Z 21010KT 10SM SCT009 BKN013 BKN032 04/02 A3000 RMK AO2 SLP169 T00390022 $=
201612120927 SPECI KSEA 120927Z 20011KT 10SM SCT009 OVC013 04/02 A2999 RMK AO2 T00390022=
201612120853 METAR KSEA 120853Z 19010KT 10SM BKN012 BKN033 04/02 A3000 RMK AO2 SLP167 T00390022 50003=
201612120753 METAR KSEA 120753Z 20009KT 10SM BKN013 BKN100 04/02 A3000 RMK AO2 SLP167 T00440022 400560039=
201612120653 METAR KSEA 120653Z 19007KT 10SM FEW018 SCT029 BKN110 04/02 A2999 RMK AO2 SLP164 T00390022=
201612120614 SPECI KSEA 120614Z 21009KT 10SM BKN028 BKN060 OVC100 04/03 A2999 RMK AO2 T00440028=
201612120553 METAR KSEA 120553Z 20007KT 10SM FEW015 BKN030 OVC060 04/02 A2999 RMK AO2 SLP163 T00440022 10050 20039 51008=
201612120453 METAR KSEA 120453Z 18007KT 10SM SCT023 BKN033 BKN040 04/03 A2998 RMK AO2 SLP160 T00440028=
201612120441 SPECI KSEA 120441Z 18012KT 10SM FEW017 SCT039 BKN060 04/03 A2998 RMK AO2 T00440028=
201612120353 METAR KSEA 120353Z 20011KT 10SM FEW014 OVC021 05/03 A2997 RMK AO2 SLP159 T00500028=
201612120317 SPECI KSEA 120317Z 18010KT 10SM FEW012 BKN022 BKN075 04/02 A2997 RMK AO2 T00440022=
201612120253 METAR KSEA 120253Z 19012KT 10SM BKN012 BKN018 OVC070 04/02 A2996 RMK AO2 SLP155 T00440022 53013=
201612120153 METAR KSEA 120153Z 19012G21KT 10SM BKN013 OVC024 04/03 A2995 RMK AO2 SLP150 T00440028=
201612120138 SPECI KSEA 120138Z 19015G21KT 10SM SCT013 BKN024 OVC110 04/02 A2994 RMK AO2 T00390022=
201612120117 SPECI KSEA 120117Z 19014KT 10SM SCT010 BKN090 OVC120 04/03 A2994 RMK AO2 T00390028=
201612120053 METAR KSEA 120053Z 20017G25KT 10SM BKN014 OVC090 04/02 A2993 RMK AO2 SLP144 T00390022=
201612112353 METAR KSEA 112353Z 20015KT 10SM OVC012 05/03 A2992 RMK AO2 SLP142 60002 T00500033 10056 20044 53008=
201612112253 METAR KSEA 112253Z 20014G21KT 10SM OVC013 05/03 A2991 RMK AO2 SLP139 T00500033=
201612112153 METAR KSEA 112153Z 21014KT 10SM OVC014 06/03 A2991 RMK AO2 SLP135 T00560033=
201612112053 METAR KSEA 112053Z 20012G21KT 10SM OVC014 06/04 A2990 RMK AO2 RAB16E31 SLP132 P0001 60002 T00560039 58005=
201612111953 METAR KSEA 111953Z 22016KT 10SM OVC013 05/03 A2990 RMK AO2 RAB16E39 SLP136 P0001 T00500033=
201612111853 METAR KSEA 111853Z 19010KT 10SM BKN014 BKN021 OVC025 05/03 A2992 RMK AO2 SLP139 T00500033=
201612111753 METAR KSEA 111753Z 19010KT 10SM BKN014 OVC024 04/03 A2991 RMK AO2 RAE28 SLP139 P0000 60003 T00440033 10056 20044 53007=
201612111653 METAR KSEA 111653Z 18009KT 10SM -RA BKN013 OVC025 04/03 A2991 RMK AO2 RAB46 SLP138 P0001 T00440028=
201612111553 METAR KSEA 111553Z 20016KT 10SM BKN015 BKN028 OVC090 05/03 A2989 RMK AO2 RAB26E36 SLP132 P0000 T00500028=
201612111453 METAR KSEA 111453Z 19011KT 10SM BKN031 BKN038 OVC110 05/03 A2989 RMK AO2 RAE23 SLP132 P0001 60002 T00500028 58011=
201612111353 METAR KSEA 111353Z 19011G22KT 7SM -RA SCT024 BKN035 OVC065 05/03 A2990 RMK AO2 RAB43 SLP135 P0001 T00500028=
201612111253 METAR KSEA 111253Z 18010KT 10SM FEW030 SCT035 04/02 A2992 RMK AO2 RAE49 SLP141 P0000 T00440022=
201612111153 METAR KSEA 111153Z 17011KT 10SM -RA SCT020 BKN026 OVC032 05/03 A2993 RMK AO2 RAB00 SLP142 P0000 60009 70021 T00500028 10056 20050 51006=
201612111143 SPECI KSEA 111143Z 18013G18KT 10SM -RA FEW020 BKN026 OVC032 05/03 A2993 RMK AO2 RAB00 P0000 T00500033=
201612111141 SPECI KSEA 111141Z 17010KT 10SM -RA FEW020 BKN026 OVC032 05/03 A2993 RMK AO2 RAB00 P0000 T00500033=
201612111053 METAR KSEA 111053Z 18017KT 10SM FEW017 BKN033 OVC090 05/03 A2992 RMK AO2 RAE22B30E42 SLP140 P0001 T00500033=
201612111022 SPECI KSEA 111022Z 19015G24KT 10SM SCT016 BKN023 OVC033 06/03 A2993 RMK AO2 RAE22 P0001 T00560033=
201612111000 SPECI KSEA 111000Z 19016G23KT 10SM -RA FEW016 SCT024 BKN033 05/03 A2991 RMK AO2 P0001 T00500033=
201612110953 METAR KSEA 110953Z 20016G20KT 10SM -RA FEW014 BKN020 OVC035 06/03 A2992 RMK AO2 RAE32B50 SLP139 P0001 T00560033=
201612110853 METAR KSEA 110853Z 18015G22KT 10SM -RA BKN021 OVC027 06/03 A2991 RMK AO2 SLP136 P0002 60007 T00560033 51010=
201612110753 METAR KSEA 110753Z 19014KT 7SM -RA BKN015 BKN024 OVC035 05/04 A2990 RMK AO2 SLP132 P0004 T00500039 400670017=
201612110653 METAR KSEA 110653Z 19013G20KT 7SM -RA SCT016 OVC023 06/04 A2989 RMK AO2 RAB13 SLP130 P0001 T00560039=
201612110613 SPECI KSEA 110613Z 17015G23KT 10SM -RA FEW015 BKN021 OVC041 06/03 A2988 RMK AO2 RAB13 P0000 T00560033=
201612110553 METAR KSEA 110553Z 18011KT 10SM SCT024 BKN032 OVC070 05/03 A2988 RMK AO2 RAB0458E06 SLP126 P0000 60007 T00500033 10056 20050 51007=
201612110548 SPECI KSEA 110548Z 18015KT 10SM SCT024 BKN032 OVC070 05/03 A2988 RMK AO2 RAB0458E06 P0000=
201612110453 METAR KSEA 110453Z 18014G20KT 10SM FEW018 OVC027 05/03 A2987 RMK AO2 RAB11E34 SLP123 P0000 T00500033=
201612110413 SPECI KSEA 110413Z 18012G20KT 10SM -RA FEW015 BKN029 BKN048 05/03 A2986 RMK AO2 RAB11 P0000 T00500033=
201612110353 METAR KSEA 110353Z 18013KT 10SM FEW015 BKN034 BKN041 05/03 A2986 RMK AO2 RAE0259 SLP119 P0000 T00500033=
201612110338 SPECI KSEA 110338Z 17013KT 10SM SCT015 BKN034 BKN047 05/03 A2985 RMK AO2 RAE0259 P0000 T00500033=
201612110253 METAR KSEA 110253Z 19011KT 10SM -RA BKN017 OVC025 05/04 A2985 RMK AO2 RAB20 SLP117 P0003 60007 T00500039 53005=
201612110153 METAR KSEA 110153Z 17012KT 10SM BKN016 OVC023 05/03 A2984 RMK AO2 RAE12 SLP113 P0001 T00500033=
201612110053 METAR KSEA 110053Z 18010KT 8SM -RA FEW012 BKN019 OVC027 05/03 A2984 RMK AO2 RAE19B49 SLP113 P0003 T00500033=
201612102353 METAR KSEA 102353Z 19013KT 8SM -RA BKN016 OVC025 06/03 A2983 RMK AO2 RAB50 SLP112 P0000 60004 T00560033 10067 20044 51004=
201612102253 METAR KSEA 102253Z 17012KT 10SM BKN019 OVC030 06/03 A2983 RMK AO2 RAE2154B15E48 SLP111 P0001 T00560033=
201612102153 METAR KSEA 102153Z 17011G19KT 10SM -RA BKN020 OVC025 06/03 A2983 RMK AO2 RAB17 SLP109 P0001 T00610033=
201612102134 SPECI KSEA 102134Z 20010G22KT 7SM -RA OVC024 06/03 A2983 RMK AO2 RAB17 P0000 T00610033=
201612102053 METAR KSEA 102053Z 18014G22KT 10SM OVC030 06/02 A2982 RMK AO2 PK WND 17030/2006 RAB1956E41 SLP107 P0002 60002 T00610022 58013=
201612101953 METAR KSEA 101953Z 17009G18KT 10SM FEW032 BKN040 OVC055 06/02 A2984 RMK AO2 SLP115 T00610022=
201612101853 METAR KSEA 101853Z 16009KT 10SM FEW037 BKN065 OVC075 06/03 A2985 RMK AO2 SLP118 T00610028=
201612101753 METAR KSEA 101753Z 15009KT 10SM SCT050 BKN075 BKN120 04/03 A2986 RMK AO2 RAE1657 SLP120 P0001 60001 T00440028 10044 20028 50000=
201612101653 METAR KSEA 101653Z 14009KT 7SM -RA FEW010 SCT036 BKN048 04/03 A2986 RMK AO2 RAB47 SLP120 P0000 T00390028=
201612101553 METAR KSEA 101553Z 14010KT 10SM FEW010 SCT036 BKN048 03/02 A2986 RMK AO2 SLP120 T00330022=
201612101453 METAR KSEA 101453Z 18008KT 10SM SCT010 BKN042 BKN085 03/02 A2986 RMK AO2 SLP120 T00330022 51011=
201612101413 SPECI KSEA 101413Z 17007KT 10SM SCT010 BKN060 BKN080 03/02 A2986 RMK AO2 T00330022=
201612101353 METAR KSEA 101353Z 21009KT 10SM SCT010 BKN021 04/03 A2985 RMK AO2 SLP117 T00390028=
201612101320 SPECI KSEA 101320Z 20012KT 10SM FEW010 BKN022 04/03 A2984 RMK AO2 T00390028=
201612101253 METAR KSEA 101253Z 20009KT 10SM FEW009 SCT020 BKN050 04/03 A2984 RMK AO2 SLP112 T00390033=
201612101212 SPECI KSEA 101212Z 20009KT 10SM SCT009 BKN021 04/03 A2983 RMK AO2 T00390028=
201612101153 METAR KSEA 101153Z 19012KT 10SM SCT023 SCT050 BKN110 03/03 A2983 RMK AO2 SLP110 60002 70032 T00330028 10033 20017 51002=
201612101053 METAR KSEA 101053Z 17009KT 10SM FEW024 SCT050 BKN100 02/02 A2982 RMK AO2 SLP109 T00220017=
201612100953 METAR KSEA 100953Z 15007KT 10SM SCT013 BKN021 02/02 A2982 RMK AO2 SLP109 T00220017=
201612100938 SPECI KSEA 100938Z 14009KT 10SM SCT011 BKN023 02/02 A2982 RMK AO2 T00220017=
201612100853 METAR KSEA 100853Z 13010KT 10SM BKN009 OVC017 03/02 A2982 RMK AO2 SLP107 RAE52 P0001 60002 T00280022 55002=
201612100831 SPECI KSEA 100831Z 13008KT 10SM -RA BKN009 OVC020 03/02 A2982 RMK AO2 P0001 T00280022=
201612100753 METAR KSEA 100753Z 13008KT 10SM -RA BKN010 OVC022 02/01 A2982 RMK AO2 SLP106 RAE13B44 P0000 T00220011 400221006=
201612100653 METAR KSEA 100653Z 12013KT 10SM -RA BKN011 OVC024 02/01 A2982 RMK AO2 SLP108 P0001 T00170006=
201612100632 SPECI KSEA 100632Z 11011KT 10SM -RA BKN011 OVC020 02/01 A2982 RMK AO2 P0001 T00220011=
201612100553 METAR KSEA 100553Z 11009KT 10SM -RA BKN009 OVC021 02/01 A2982 RMK AO2 SLP109 P0003 60011 T00170006 10017 20011 55003=
201612100453 METAR KSEA 100453Z 13008KT 4SM -RA BR FEW014 OVC023 02/01 A2982 RMK AO2 SLP108 P0006 T00170006=
201612100414 SPECI KSEA 100414Z 14008KT 7SM -RA OVC030 02/M01 A2981 RMK AO2 P0002 T00171006=
201612100353 METAR KSEA 100353Z 13010KT 10SM -RA OVC028 02/M01 A2981 RMK AO2 RAB51 SLP106 P0000 T00171006=
201612100253 METAR KSEA 100253Z 11013KT 10SM OVC027 02/M01 A2983 RMK AO2 RAE18 SLP113 P0000 60002 T00171006 58018=
201612100241 SPECI KSEA 100241Z 10013KT 10SM OVC027 01/M01 A2984 RMK AO2 RAE18 P0000 T00111006=
201612100153 METAR KSEA 100153Z 10013KT 7SM -RA SCT020 OVC030 01/M01 A2986 RMK AO2 RAB48 SLP122 P0001 T00111006=
201612100100 SPECI KSEA 100100Z 11014KT 10SM FEW006 BKN021 OVC033 01/M01 A2989 RMK AO2 T00111006=
201612100053 METAR KSEA 100053Z 11016KT 10SM FEW006 SCT021 OVC033 01/M01 A2989 RMK AO2 SLP131 RAB08 P0001 T00111006=
201612100050 SPECI KSEA 100050Z 11016KT 10SM FEW006 SCT021 OVC035 01/M01 A2989 RMK AO2 RAB08 P0001=
201612100018 SPECI KSEA 100018Z 11016KT 10SM -RA SCT019 OVC032 01/M01 A2990 RMK AO2 RAB08 P0001 T00111006=
201612092353 METAR KSEA 092353Z 10014KT 10SM BKN018 OVC026 01/M01 A2992 RMK AO2 RAE37 SLP141 P0000 60010 T00111006 10011 20006 56012=
201612092253 METAR KSEA 092253Z 11013KT 10SM -RA BKN015 BKN028 OVC060 01/M01 A2993 RMK AO2 RAB24 SLP146 P0005 T00111006=
201612092153 METAR KSEA 092153Z 11017G22KT 10SM SCT013 BKN028 OVC060 01/00 A2993 RMK AO2 RAE45 SLP146 P0000 T00110000=
201612092145 SPECI KSEA 092145Z 10016KT 10SM SCT013 BKN028 OVC060 01/00 A2993 RMK AO2 RAE45 P0000 T00110000=
201612092108 SPECI KSEA 092108Z 11014KT 10SM -RA BKN013 BKN020 OVC060 01/00 A2994 RMK AO2 P0000 T00110000=
201612092053 METAR KSEA 092053Z 11013KT 10SM -RA SCT013 BKN020 OVC060 01/00 A2995 RMK AO2 RAB30 SLP153 P0001 60005 T00110000 58009=
201612092032 SPECI KSEA 092032Z 12015KT 10SM -RA SCT013 BKN025 OVC060 01/00 A2996 RMK AO2 RAB30 P0000 T00110000=
201612091953 METAR KSEA 091953Z 12015KT 10SM BKN013 OVC060 01/M01 A2996 RMK AO2 RAE50 SLP156 P0001 T00061006=
201612091930 SPECI KSEA 091930Z 11014KT 8SM -RA BKN013 OVC020 01/M01 A2997 RMK AO2 P0001 T00061006=
201612091853 METAR KSEA 091853Z 12013KT 8SM -RA BKN015 OVC023 01/M01 A2998 RMK AO2 FZRAB51E53 SLP163 P0003 T00061006=
201612091753 METAR KSEA 091753Z 13008KT 8SM -RA BKN016 OVC025 01/M01 A2998 RMK AO2 SLP161 P0004 60009 T00061006 10011 20006 51007=
201612091653 METAR KSEA 091653Z 11015G20KT 5SM -RA BR BKN022 OVC030 01/M01 A2997 RMK AO2 SLP158 P0000 T00061011=
201612091553 METAR KSEA 091553Z 11009KT 7SM -RA FEW015 OVC023 01/M01 A2997 RMK AO2 RAB50 SLP160 P0002 T00111006=
201612091453 METAR KSEA 091453Z 11013KT 10SM BKN021 OVC035 01/M01 A2996 RMK AO2 RAE47 SLP154 P0001 60003 T00061011 55004=
201612091353 METAR KSEA 091353Z 10013G19KT 9SM -RA OVC021 01/M01 A2995 RMK AO2 SNE53 SLP154 P0001 T00061011=
201612091253 METAR KSEA 091253Z 11011KT 6SM -RASN BR OVC024 01/M02 A2995 RMK AO2 RAB24SNE1158B24 SLP152 P0001 T00061017=
201612091153 METAR KSEA 091153Z 11011KT 7SM -SN OVC025 01/M02 A2997 RMK AO2 SLP158 P0000 60005 70009 4/001 T00061022 10006 21006 50002=
201612091053 METAR KSEA 091053Z 00000KT 3SM -SN BR OVC030 M01/M01 A2997 RMK AO2 SNE06B30 SLP159 P0000 T10061011=
201612090953 METAR KSEA 090953Z 13004KT 8SM -SN SCT021 OVC030 00/M02 A2996 RMK AO2 SNE29B50 SLP156 P0001 T00001022=
201612090853 METAR KSEA 090853Z 13007KT 3SM -SN BR BKN022 OVC030 M01/M02 A2996 RMK AO2 SLP156 P0002 60004 T10061017 52010=
201612090753 METAR KSEA 090753Z 12005KT 3SM -SN BR FEW017 BKN024 OVC029 M01/M02 A2996 RMK AO2 SLP154 P0002 T10061022 400331011=
201612090653 METAR KSEA 090653Z 11006KT 3SM -SN BR BKN022 OVC030 M01/M03 A2994 RMK AO2 SLP148 P0000 T10061028=
201612090609 SPECI KSEA 090609Z 08009KT 3SM -SN OVC021 M01/M03 A2993 RMK AO2 P0000 T10061033=
201612090555 SPECI KSEA 090555Z 07010KT 3/4SM R16L/P6000FT -SN BR VV015 M01/M03 A2993 RMK AO2 TWR VIS 1 1/2 P0000 T10061028=
201612090553 METAR KSEA 090553Z 07010KT 3/4SM R16L/P6000FT -SN BR VV014 M01/M03 A2993 RMK AO2 TWR VIS 1 1/2 SLP146 P0002 60003 4/001 T10061028 10022 21011 50005=
201612090537 SPECI KSEA 090537Z 11013KT 3/4SM R16L/5500VP6000FT -SN BR VV013 M01/M03 A2994 RMK AO2 P0002 T10111033=
201612090500 SPECI KSEA 090500Z 11012KT 1 1/2SM -SN BR OVC015 M01/M03 A2993 RMK AO2 P0000 T10111033=
201612090453 METAR KSEA 090453Z 11014G17KT 3SM -SN OVC016 M01/M03 A2994 RMK AO2 SNE03B28 SLP148 P0001 T10061033=
201612090433 SPECI KSEA 090433Z 09004KT 7SM -SN OVC026 01/M06 A2994 RMK AO2 SNE03B28 P0000 T00061061=
201612090417 SPECI KSEA 090417Z 10008KT 10SM BKN030 OVC044 00/M05 A2993 RMK AO2 SNE03 P0000 T00001050=
201612090356 SPECI KSEA 090356Z 09006KT 3SM -SN BKN022 OVC045 M01/M03 A2992 RMK AO2 P0000 T10061033=
201612090353 METAR KSEA 090353Z 10009KT 3SM -SN BR BKN023 OVC045 M01/M03 A2992 RMK AO2 SNB02 SLP141 P0000 T10111033=
201612090348 SPECI KSEA 090348Z 09008KT 1SM R16L/P6000FT -SN BR OVC025 M01/M03 A2992 RMK AO2 TWR VIS 2 SNB02 P0000=
201612090337 SPECI KSEA 090337Z 12016KT 1SM R16L/P6000FT -SN OVC033 M01/M04 A2991 RMK AO2 TWR VIS 2 SNB02 P0000 T10061039=
201612090253 METAR KSEA 090253Z 09009KT 10SM OVC060 01/M08 A2992 RMK AO2 SLP141 T00111078 55006=
201612090153 METAR KSEA 090153Z 10013G23KT 10SM BKN060 BKN080 OVC100 02/M09 A2992 RMK AO2 SLP140 T00171094=
201612090053 METAR KSEA 090053Z 09013G18KT 10SM BKN065 OVC095 02/M11 A2993 RMK AO2 SLP147 T00171106=
201612082353 METAR KSEA 082353Z 11007KT 10SM FEW120 BKN140 02/M11 A2994 RMK AO2 SLP147 T00221111 10033 20017 56015=
201612082253 METAR KSEA 082253Z 06009G17KT 10SM FEW120 BKN150 BKN240 02/M11 A2994 RMK AO2 SLP148 T00221111=
201612082153 METAR KSEA 082153Z 09016G23KT 10SM SCT140 BKN190 03/M12 A2996 RMK AO2 SLP156 T00281117=
201612082053 METAR KSEA 082053Z 07017KT 10SM SCT140 BKN190 02/M12 A2998 RMK AO2 SLP162 T00221117 58029=
201612081953 METAR KSEA 081953Z 07015G21KT 10SM SCT140 BKN180 02/M12 A3002 RMK AO2 SLP176 T00221122=
201612081853 METAR KSEA 081853Z 07012KT 10SM FEW140 BKN190 02/M12 A3004 RMK AO2 SLP183 T00171117=
201612081753 METAR KSEA 081753Z 07010KT 10SM FEW140 BKN200 02/M11 A3007 RMK AO2 SLP192 T00221111 10022 20000 58012=
201612081653 METAR KSEA 081653Z 07016G23KT 10SM FEW160 BKN200 01/M12 A3008 RMK AO2 SLP195 T00111117=
201612081553 METAR KSEA 081553Z 07015KT 10SM FEW160 SCT210 01/M11 A3009 RMK AO2 SLP201 T00061111=
201612081453 METAR KSEA 081453Z 07017G21KT 10SM FEW160 BKN210 01/M11 A3010 RMK AO2 SLP203 T00061111 56026=
201612081353 METAR KSEA 081353Z 08015G22KT 10SM FEW160 BKN210 01/M11 A3012 RMK AO2 SLP209 T00061106=
201612081253 METAR KSEA 081253Z 07014KT 10SM CLR 01/M10 A3014 RMK AO2 SLP217 T00061100=
201612081153 METAR KSEA 081153Z 08012KT 10SM SCT250 00/M10 A3018 RMK AO2 SLP229 T00001100 10006 20000 58019=
201612081053 METAR KSEA 081053Z 07014G21KT 10SM CLR 00/M10 A3020 RMK AO2 PK WND 07030/1015 SLP238 T00001100=
201612080953 METAR KSEA 080953Z 08014G21KT 10SM CLR 00/M10 A3021 RMK AO2 SLP242 T00001100=
201612080853 METAR KSEA 080853Z 07018G23KT 10SM FEW250 00/M10 A3023 RMK AO2 PK WND 06029/0836 SLP249 T00001100 56020=
201612080753 METAR KSEA 080753Z 07013G21KT 10SM FEW250 00/M11 A3026 RMK AO2 SLP256 T00001106 400331022=
201612080653 METAR KSEA 080653Z 08017G28KT 10SM CLR 01/M11 A3026 RMK AO2 PK WND 06028/0652 SLP259 T00061106=
201612080553 METAR KSEA 080553Z 07011G18KT 10SM CLR 00/M10 A3029 RMK AO2 SLP269 T00001100 10022 20000 56010=
201612080453 METAR KSEA 080453Z 06009KT 10SM CLR 00/M09 A3030 RMK AO2 SLP271 T00001094=
201612080353 METAR KSEA 080353Z 05011KT 10SM CLR 00/M09 A3031 RMK AO2 SLP275 T00001094=
201612080253 METAR KSEA 080253Z 06013KT 10SM CLR 00/M09 A3032 RMK AO2 SLP280 T00001089 58013=
201612080153 METAR KSEA 080153Z 07012KT 10SM FEW250 01/M09 A3033 RMK AO2 SLP283 T00061089=
201612080053 METAR KSEA 080053Z 05007KT 10SM SCT250 01/M06 A3035 RMK AO2 SLP290 T00061061=
201612072353 METAR KSEA 072353Z 06013KT 10SM SCT250 02/M08 A3036 RMK AO2 SLP291 T00221078 10033 20000 56010=
201612072253 METAR KSEA 072253Z 07012KT 10SM FEW250 03/M07 A3037 RMK AO2 SLP294 T00331072=
201612072153 METAR KSEA 072153Z 06009KT 10SM FEW030 FEW250 03/M05 A3038 RMK AO2 SLP297 T00331050=
201612072053 METAR KSEA 072053Z 01008KT 10SM FEW020 FEW250 03/M05 A3039 RMK AO2 SLP302 T00281050 58006=
201612071953 METAR KSEA 071953Z 36008KT 10SM FEW020 FEW250 02/M04 A3040 RMK AO2 SLP306 T00221044 $=
201612071853 METAR KSEA 071853Z 02008KT 10SM FEW010 FEW250 01/M04 A3041 RMK AO2 SLP310 T00061044 $=
201612071753 METAR KSEA 071753Z 01012KT 10SM FEW010 FEW250 00/M03 A3041 RMK AO2 SLP308 P0000 60000 T00001033 10000 21022 56001=
201612071653 METAR KSEA 071653Z 02010KT 10SM FEW010 FEW250 M01/M04 A3041 RMK AO2 SLP308 T10111044=
201612071553 METAR KSEA 071553Z 02007KT 10SM FEW010 FEW250 M02/M05 A3041 RMK AO2 SLP309 T10221050=
201612071500 METAR KSEA NIL=
201612071453 METAR KSEA 071453Z 01009KT 10SM CLR M02/M06 A3041 RMK AO2 SLP309 T10221061 50001 $=
201612071353 METAR KSEA 071353Z 01010KT 10SM CLR M02/M06 A3042 RMK AO2 SLP311 T10171056 $=
201612071253 METAR KSEA 071253Z 03008KT 10SM FEW070 M01/M06 A3041 RMK AO2 SLP307 T10111056=
201612071153 METAR KSEA 071153Z 03007KT 10SM FEW065 SCT250 M01/M06 A3041 RMK AO2 SLP308 T10061056 10017 21011 51014=
201612071053 METAR KSEA 071053Z 05006KT 10SM FEW065 M01/M04 A3040 RMK AO2 SLP304 T10111039=
201612070953 METAR KSEA 070953Z 04007KT 10SM SCT250 M01/M03 A3039 RMK AO2 SLP301 T10061033=
201612070853 METAR KSEA 070853Z 05006KT 10SM FEW070 M01/M02 A3037 RMK AO2 SLP294 T10061022 51014=
201612070753 METAR KSEA 070753Z VRB03KT 10SM BKN070 01/M02 A3036 RMK AO2 SLP292 T00061022 400441006=
201612070653 METAR KSEA 070653Z 05004KT 10SM OVC070 01/M02 A3034 RMK AO2 SLP286 T00111022=
201612070553 METAR KSEA 070553Z 06003KT 10SM BKN070 01/M03 A3033 RMK AO2 SLP280 T00111028 10028 20011 53016=
201612070453 METAR KSEA 070453Z 02004KT 10SM BKN070 02/M04 A3031 RMK AO2 SLP274 T00171039=
201612070353 METAR KSEA 070353Z 05005KT 10SM BKN070 02/M03 A3029 RMK AO2 SLP268 T00171033=
201612070253 METAR KSEA 070253Z 07005KT 10SM BKN075 02/M04 A3028 RMK AO2 SLP264 T00171044 51018=
201612070153 METAR KSEA 070153Z 34004KT 10SM FEW030 SCT070 01/M05 A3027 RMK AO2 SLP261 T00111050=
201612070053 METAR KSEA 070053Z 33004KT 10SM FEW033 SCT075 02/M04 A3025 RMK AO2 SLP255 T00171039=
201612062353 METAR KSEA 062353Z 01013KT 10SM FEW032 03/M04 A3023 RMK AO2 SLP246 T00281039 10044 20017 53017=
201612062253 METAR KSEA 062253Z 36012KT 10SM SCT033 03/M02 A3021 RMK AO2 SLP239 T00331022=
201612062153 METAR KSEA 062153Z 35011KT 10SM FEW025 04/M02 A3018 RMK AO2 SLP229 T00441022=
201612062053 METAR KSEA 062053Z 36009KT 10SM FEW023 04/M01 A3018 RMK AO2 SLP228 T00441011 52012=
201612061953 METAR KSEA 061953Z 02010KT 10SM CLR 03/M01 A3016 RMK AO2 SLP224 T00331006=
201612061853 METAR KSEA 061853Z 01011KT 10SM FEW015 03/M01 A3016 RMK AO2 SLP222 T00281006=
201612061753 METAR KSEA 061753Z 35009KT 10SM FEW005 FEW015 02/M01 A3014 RMK AO2 SLP217 T00171006 10017 21006 53022=
201612061653 METAR KSEA 061653Z 03005KT 10SM FEW005 FEW015 SCT050 01/M01 A3012 RMK AO2 SLP210 T00061006=
201612061553 METAR KSEA 061553Z 02007KT 10SM FEW003 SCT050 00/M01 A3009 RMK AO2 SLP201 T00001011=
201612061453 METAR KSEA 061453Z 02006KT 10SM FEW003 SCT050 00/M01 A3008 RMK AO2 SLP195 T00001006 53016=
201612061437 SPECI KSEA 061437Z 01007KT 10SM FEW003 SCT050 00/M01 A3007 RMK AO2 T00001011=
201612061353 METAR KSEA 061353Z 01006KT 10SM BKN043 01/00 A3006 RMK AO2 SLP188 T00060000=
201612061253 METAR KSEA 061253Z 02006KT 10SM FEW002 BKN045 BKN110 01/00 A3004 RMK AO2 SLP184 T00060000=
201612061224 SPECI KSEA 061224Z 03008KT 10SM SCT002 01/00 A3003 RMK AO2 T00060000=
201612061153 METAR KSEA 061153Z 03008KT 7SM BKN001 BKN085 BKN120 01/01 A3003 RMK AO2 SLP178 70024 T00060006 10017 20000 51006 $=
201612061143 SPECI KSEA 061143Z 02006KT 6SM BR BKN001 OVC110 01/01 A3002 RMK AO2 T00110006 $=
201612061114 SPECI KSEA 061114Z 02005KT 2SM BR BKN001 OVC035 01/01 A3002 RMK AO2 TWR VIS 3 T00110011=
201612061053 METAR KSEA 061053Z 03007KT 1/2SM R16L/2400V4000FT FG VV001 01/01 A3002 RMK AO2 SLP177 T00110011=
201612061017 SPECI KSEA 061017Z 02005KT 1/2SM R16L/2800V4500FT BR VV001 01/01 A3002 RMK AO2 SFC VIS 3/4 T00110006=
201612061007 SPECI KSEA 061007Z 02007KT 2SM BR BKN001 OVC110 01/00 A3002 RMK AO2 T00110000=
201612061005 SPECI KSEA 061005Z 02006KT 4SM BR BKN001 OVC110 01/00 A3002 RMK AO2 T00110000=
201612060953 METAR KSEA 060953Z 03004KT 8SM FEW021 SCT043 BKN120 01/M01 A3001 RMK AO2 SLP174 T00061006=
201612060853 METAR KSEA 060853Z 00000KT 8SM FEW023 SCT065 BKN120 01/M01 A3001 RMK AO2 SLP172 T00061006 58001=
201612060826 SPECI KSEA 060826Z 09003KT 10SM SCT026 BKN110 01/00 A3001 RMK AO2 T00110000=
201612060753 METAR KSEA 060753Z 07005KT 10SM FEW008 BKN027 BKN120 01/01 A3001 RMK AO2 SLP173 T00110006 400390006=
201612060653 METAR KSEA 060653Z 00000KT 10SM FEW009 SCT025 BKN150 BKN200 02/01 A3001 RMK AO2 SLP173 T00170006=
201612060553 METAR KSEA 060553Z 12005KT 10SM FEW014 SCT030 SCT200 02/01 A3001 RMK AO2 SLP173 60002 T00170006 10033 20011 53001=
201612060453 METAR KSEA 060453Z 12007KT 10SM FEW009 SCT030 SCT200 02/01 A3001 RMK AO2 SLP171 T00170006=
201612060353 METAR KSEA 060353Z 12004KT 10SM FEW006 BKN030 BKN200 02/01 A3000 RMK AO2 SLP171 T00220011=
201612060313 SPECI KSEA 060313Z 13007KT 10SM FEW008 BKN031 BKN200 02/02 A3001 RMK AO2 T00220017=
201612060253 METAR KSEA 060253Z 14005KT 10SM FEW008 BKN027 OVC190 03/02 A3001 RMK AO2 DZB35E36 SLP171 P0000 60002 T00280022 55000=
201612060246 SPECI KSEA 060246Z 13005KT 8SM SCT007 BKN027 BKN033 03/02 A3001 RMK AO2 DZB35E36 P0000 T00280022=
201612060224 SPECI KSEA 060224Z 15004KT 10SM BKN007 BKN013 OVC029 03/02 A3001 RMK AO2 T00280022=
201612060153 METAR KSEA 060153Z 16004KT 10SM SCT005 OVC011 03/02 A3001 RMK AO2 RAE22 SLP170 P0000 T00280022=
201612060128 SPECI KSEA 060128Z 17005KT 10SM FEW006 OVC013 03/02 A3001 RMK AO2 RAE22 P0000 T00280017=
201612060053 METAR KSEA 060053Z 12007KT 4SM -RA BR FEW008 BKN017 OVC023 03/02 A3000 RMK AO2 RAB18 SLP169 P0002 T00280022=
201612060029 SPECI KSEA 060029Z 12006KT 8SM -RA BKN016 BKN023 OVC028 03/02 A3000 RMK AO2 RAB18 P0001 T00330022=
201612052353 METAR KSEA 052353Z 13006KT 10SM BKN013 OVC023 03/02 A3001 RMK AO2 SLP170 60000 T00330022 10039 20011 56008=
201612052253 METAR KSEA 052253Z 17005KT 10SM SCT012 OVC019 03/02 A3002 RMK AO2 SLP173 T00330017=
201612052210 SPECI KSEA 052210Z 16005KT 10SM SCT010 BKN015 BKN027 04/02 A3002 RMK AO2 T00390022=
201612052156 SPECI KSEA 052156Z 19005KT 10SM BKN013 OVC020 04/02 A3002 RMK AO2 T00390022=
201612052153 METAR KSEA 052153Z 18005KT 10SM BKN013 OVC020 03/02 A3002 RMK AO2 SLP175 T00330022=
201612052113 SPECI KSEA 052113Z 18008KT 10SM SCT009 OVC015 03/02 A3003 RMK AO2 T00330022=
201612052053 METAR KSEA 052053Z 18008KT 10SM BKN009 OVC015 03/02 A3003 RMK AO2 RAE14 SLP178 P0000 60000 T00330022 58012=
201612052040 SPECI KSEA 052040Z 18007KT 10SM BKN009 OVC015 03/02 A3003 RMK AO2 RAE14 P0000 T00330022=
201612051953 METAR KSEA 051953Z 17008KT 7SM -RA OVC011 03/02 A3004 RMK AO2 RAB52 SLP183 P0000 T00280017=
201612051853 METAR KSEA 051853Z 17007KT 10SM OVC014 02/01 A3006 RMK AO2 SLP189 P0000 T00170011=
201612051753 METAR KSEA 051753Z 12008KT 6SM -SN BR FEW005 BKN010 OVC015 01/01 A3007 RMK AO2 RAB19E43SNE19B45 SLP192 P0003 60022 T00110006 10033 20006 58005=
201612051737 SPECI KSEA 051737Z 13008KT 6SM -RA BR FEW005 OVC013 01/01 A3007 RMK AO2 RAB19SNE19 P0002 T00110006=
201612051729 SPECI KSEA 051729Z 13009KT 3SM -RA BR SCT007 OVC015 01/01 A3007 RMK AO2 SFC VIS 6 RAB19SNE19 P0002 T00110006=
201612051720 SPECI KSEA 051720Z 15007KT 2SM -RA BR SCT005 OVC013 01/01 A3007 RMK AO2 SFC VIS 6 RAB19SNE19 P0002 T00110006=
201612051658 SPECI KSEA 051658Z 16007KT 1SM R16L/5500VP6000FT -SN BR BKN003 OVC010 01/01 A3007 RMK AO2 P0001 T00060006=
201612051655 SPECI KSEA 051655Z 16007KT 3/4SM R16L/5000VP6000FT -SN BR BKN003 OVC010 01/00 A3007 RMK AO2 TWR VIS 1 P0001 T00060000=
201612051653 METAR KSEA 051653Z 14005KT 1SM R16L/5000VP6000FT -SN BR BKN005 OVC010 01/00 A3007 RMK AO2 SFC VIS 1 1/2 SLP194 P0006 T00060000=
201612051638 SPECI KSEA 051638Z 19004KT 1/2SM R16L/6000VP6000FT -SN BR BKN004 OVC008 01/01 A3007 RMK AO2 SFC VIS 1 P0005 T00060006=
201612051608 SPECI KSEA 051608Z 17007KT 1/2SM R16L/5000VP6000FT SN FG VV006 01/01 A3007 RMK AO2 P0003 T00060006=
201612051553 METAR KSEA 051553Z 17007KT 1/2SM R16L/P6000FT SN FG SCT004 OVC012 01/01 A3008 RMK AO2 SLP195 P0010 T00060006=
201612051535 SPECI KSEA 051535Z 16009KT 1 1/2SM -SN BR SCT006 OVC012 01/01 A3007 RMK AO2 TWR VIS 2 P0007 T00060006=
201612051513 SPECI KSEA 051513Z 17014KT 1 1/2SM -SN BR OVC008 01/01 A3007 RMK AO2 TWR VIS 2 RAE12 P0004 T00110006=
201612051453 METAR KSEA 051453Z 19011KT 4SM -RASN BR BKN008 OVC013 02/01 A3008 RMK AO2 RAB22SNB38 SLP196 P0003 60003 T00170011 56013 $=
201612051450 SPECI KSEA 051450Z 19012KT 4SM -RASN BR BKN008 OVC013 02/01 A3008 RMK AO2 RAB22SNB38 P0003 $=
201612051442 SPECI KSEA 051442Z 19014KT 5SM -RASN BR FEW008 OVC015 02/01 A3008 RMK AO2 RAB22SNB38 P0001 T00170011 $=
201612051423 SPECI KSEA 051423Z 20015G22KT 10SM -RA BKN018 BKN048 OVC055 03/01 A3008 RMK AO2 RAB22 P0000 T00280006 $=
201612051353 METAR KSEA 051353Z 19010KT 10SM FEW017 SCT075 OVC090 03/00 A3008 RMK AO2 SLP196 SHRA DSNT SW T00280000 $=
201612051253 METAR KSEA 051253Z 18010KT 10SM FEW019 BKN065 OVC090 03/00 A3010 RMK AO2 SLP203 T00280000 $=
201612051153 METAR KSEA 051153Z 19010G19KT 10SM SCT016 SCT045 OVC095 03/01 A3012 RMK AO2 SLP208 70017 T00280006 10028 20017 58008 $=
201612051141 SPECI KSEA 051141Z 21012G18KT 10SM FEW014 BKN020 OVC100 03/01 A3012 RMK AO2 T00280006 $=
201612051123 SPECI KSEA 051123Z 20011KT 10SM BKN014 OVC020 03/01 A3013 RMK AO2 T00280006 $=
201612051053 METAR KSEA 051053Z 18009KT 10SM BKN015 BKN020 03/01 A3014 RMK AO2 SLP215 T00280006 $=
201612050953 METAR KSEA 050953Z 18010KT 10SM BKN015 BKN025 02/01 A3014 RMK AO2 SLP216 T00220006 $=
201612050911 SPECI KSEA 050911Z 16012KT 10SM FEW015 BKN021 BKN055 03/00 A3014 RMK AO2 T00280000 $=
201612050853 METAR KSEA 050853Z 18012KT 10SM SCT015 BKN055 02/00 A3014 RMK AO2 SLP217 T00220000 50003 $=
201612050753 METAR KSEA 050753Z 20010KT 10SM BKN017 BKN050 03/00 A3015 RMK AO2 SLP218 T00280000 400720017 $=
201612050738 SPECI KSEA 050738Z 20012KT 10SM BKN017 BKN050 03/00 A3015 RMK AO2 T00280000 $=
201612050653 METAR KSEA 050653Z 18009KT 10SM FEW018 02/M01 A3014 RMK AO2 SLP215 T00171006 $=
201612050553 METAR KSEA 050553Z 16009KT 10SM FEW080 BKN190 02/M01 A3013 RMK AO2 SLP213 T00221011 10056 20022 53009 $=
201612050453 METAR KSEA 050453Z 17010KT 10SM FEW050 OVC110 03/00 A3011 RMK AO2 SLP206 T00330000 $=
201612050353 METAR KSEA 050353Z 15008KT 10SM FEW070 BKN180 03/00 A3011 RMK AO2 SLP204 T00280000 $=
201612050253 METAR KSEA 050253Z 12010KT 10SM FEW040 FEW055 BKN080 03/00 A3011 RMK AO2 SLP204 T00330000 50007 $=
201612050153 METAR KSEA 050153Z 12010KT 10SM FEW019 BKN180 03/01 A3011 RMK AO2 SLP205 T00330006 $=
201612050053 METAR KSEA 050053Z 11007KT 10SM FEW019 SCT170 04/01 A3009 RMK AO2 SLP199 T00440011 $=
201612042353 METAR KSEA 042353Z 17003KT 10SM FEW019 SCT170 06/02 A3009 RMK AO2 SLP196 60000 T00560017 10067 20028 53007 $=
201612042253 METAR KSEA 042253Z 22007KT 10SM FEW019 07/02 A3008 RMK AO2 SLP193 T00670022 $=
201612042153 METAR KSEA 042153Z 19006KT 10SM FEW016 SCT021 SCT036 06/02 A3006 RMK AO2 SLP188 T00610017 $=
201612042053 METAR KSEA 042053Z VRB03KT 10SM SCT012 BKN020 06/03 A3006 RMK AO2 SLP189 60000 T00560028 51010 $=
201612041953 METAR KSEA 041953Z 13005KT 10SM SCT025 06/03 A3006 RMK AO2 SLP186 T00560028 $=
201612041853 METAR KSEA 041853Z 16006KT 10SM FEW019 SCT038 BKN050 03/02 A3006 RMK AO2 RAB31E43 SLP187 P0000 T00330017 $=
201612041753 METAR KSEA 041753Z 17005KT 10SM SCT014 OVC038 03/02 A3003 RMK AO2 RAE20SNB20E32 SLP179 P0002 60017 T00280022 10061 20028 51013 $=
201612041653 METAR KSEA 041653Z 11006KT 6SM -RA BR FEW007 BKN011 OVC018 03/02 A3003 RMK AO2 SLP177 P0007 T00330022 $=
201612041640 SPECI KSEA 041640Z 11007KT 8SM -RA FEW007 BKN014 OVC020 03/02 A3002 RMK AO2 P0006 T00330022 $=
201612041553 METAR KSEA 041553Z VRB04KT 4SM -RA BR FEW010 BKN017 OVC022 04/03 A3000 RMK AO2 SLP168 P0004 T00390033 $=
201612041453 METAR KSEA 041453Z 02006KT 3SM -RA BR FEW010 BKN019 OVC024 04/03 A2999 RMK AO2 SLP165 P0004 60004 T00440033 53001 $=
201612041353 METAR KSEA 041353Z 07010KT 4SM RA BR SCT007 OVC014 05/04 A2998 RMK AO2 RAB08E18B31 SLP162 T00500039 PNO $=
201612041320 SPECI KSEA 041320Z 20004KT 10SM FEW007 BKN014 OVC023 06/04 A2998 RMK AO2 RAB08E18 P0000 T00610039=
201612041253 METAR KSEA 041253Z 23005KT 10SM BKN014 BKN021 OVC031 06/04 A2998 RMK AO2 SLP161 T00610044=
201612041153 METAR KSEA 041153Z 25009KT 10SM BKN011 OVC021 06/04 A2999 RMK AO2 SLP163 60003 70018 T00610044 10078 20061 58010=
201612041053 METAR KSEA 041053Z 25006KT 10SM BKN011 OVC070 07/05 A3001 RMK AO2 SLP170 T00670050=
201612040953 METAR KSEA 040953Z 23017KT 10SM BKN014 BKN075 07/05 A3000 RMK AO2 SLP168 T00670050=
201612040853 METAR KSEA 040853Z 22013G21KT 10SM BKN014 BKN050 OVC070 07/06 A3002 RMK AO2 RAE11 SLP174 P0000 60003 T00720056 56024=
201612040816 SPECI KSEA 040816Z 20013KT 10SM FEW008 BKN012 OVC055 07/06 A3003 RMK AO2 RAE11 P0000 T00720061=
201612040753 METAR KSEA 040753Z 22013KT 10SM -RA SCT012 BKN017 OVC045 07/07 A3004 RMK AO2 RAE13B23 SLP181 P0002 T00720067 400890067=
201612040734 SPECI KSEA 040734Z 21013G21KT 10SM -RA FEW007 BKN015 OVC043 07/07 A3005 RMK AO2 RAE13B23 P0001 T00720067=
201612040719 SPECI KSEA 040719Z 21016KT 9SM BKN009 OVC015 07/07 A3006 RMK AO2 RAE13 P0001 T00720067=
201612040653 METAR KSEA 040653Z 21012KT 9SM -RA BKN015 OVC050 07/07 A3006 RMK AO2 SLP189 P0001 T00720067=
201612040555 SPECI KSEA 040555Z 21014KT 8SM -RA FEW008 BKN018 OVC038 07/06 A3009 RMK AO2 P0000 T00720061=
201612040553 METAR KSEA 040553Z 22013G23KT 9SM -RA FEW010 BKN014 OVC021 07/06 A3009 RMK AO2 RAB03 SLP198 P0006 60015 T00720061 10083 20072 56018=
201612040507 SPECI KSEA 040507Z 22016KT 9SM -RA BKN013 OVC022 08/07 A3010 RMK AO2 RAB03 P0000 T00830067=
201612040453 METAR KSEA 040453Z 20016G21KT 10SM SCT010 BKN015 OVC022 08/07 A3010 RMK AO2 RAE47 SLP201 P0001 T00780067=
201612040441 SPECI KSEA 040441Z 19013G21KT 10SM -RA SCT008 BKN014 OVC020 07/07 A3010 RMK AO2 P0001 T00720067=
201612040353 METAR KSEA 040353Z 21012G17KT 9SM -RA BKN010 BKN016 OVC022 07/07 A3013 RMK AO2 SLP211 P0007 T00720067=
201612040253 METAR KSEA 040253Z 19013KT 10SM -RA SCT014 BKN026 OVC035 08/06 A3014 RMK AO2 RAB48 SLP216 P0000 60001 T00780061 58015=
201612040153 METAR KSEA 040153Z 19012G20KT 10SM BKN016 BKN022 OVC029 08/06 A3016 RMK AO2 RAE07B35E50 SLP222 P0001 T00780061=
201612040109 SPECI KSEA 040109Z 18013KT 10SM FEW010 BKN013 OVC034 08/06 A3019 RMK AO2 RAE07 P0000 T00780061=
201612040053 METAR KSEA 040053Z 18012G19KT 8SM -RA SCT010 BKN017 OVC033 08/06 A3019 RMK AO2 RAB13 SLP231 P0000 T00780061=
201612040051 SPECI KSEA 040051Z 18013G19KT 7SM -RA SCT013 BKN019 OVC033 08/06 A3019 RMK AO2 RAB13 P0000=
201612032353 METAR KSEA 032353Z 20019G23KT 10SM FEW030 SCT090 OVC110 08/06 A3022 RMK AO2 SLP241 T00830056 10089 20078 58018=
201612032253 METAR KSEA 032253Z 21013G19KT 10SM FEW032 BKN070 OVC170 08/05 A3025 RMK AO2 SLP253 T00830050=
201612032153 METAR KSEA 032153Z 20011KT 10SM SCT020 BKN043 BKN070 09/05 A3026 RMK AO2 SLP255 T00890050=
201612032053 METAR KSEA 032053Z 20012KT 10SM SCT020 BKN050 OVC200 08/05 A3027 RMK AO2 SLP258 T00830050 58006=
201612032043 SPECI KSEA 032043Z 21015G22KT 10SM SCT020 BKN050 OVC200 08/05 A3028 RMK AO2 T00830050=
201612032014 SPECI KSEA 032014Z 20012G20KT 10SM BKN020 08/05 A3028 RMK AO2 T00830050=
201612031953 METAR KSEA 031953Z 19012G20KT 10SM SCT019 OVC075 08/05 A3027 RMK AO2 SLP259 T00830050=
201612031853 METAR KSEA 031853Z 21015G22KT 10SM SCT020 BKN075 OVC200 08/05 A3030 RMK AO2 SLP268 T00830050=
201612031835 SPECI KSEA 031835Z 20012KT 10SM SCT020 BKN075 08/05 A3028 RMK AO2 T00830050=
201612031753 METAR KSEA 031753Z 20014KT 10SM SCT015 BKN025 OVC075 08/05 A3029 RMK AO2 SLP264 T00780050 10078 20067 53000=
201612031653 METAR KSEA 031653Z 17010KT 10SM BKN017 BKN050 07/05 A3028 RMK AO2 SLP263 T00720050=
201612031625 SPECI KSEA 031625Z 19008KT 10SM BKN017 07/05 A3029 RMK AO2 T00720050=
201612031553 METAR KSEA 031553Z 18011KT 10SM SCT015 BKN070 BKN200 07/05 A3029 RMK AO2 SLP265 T00670050=
201612031547 SPECI KSEA 031547Z 18011KT 10SM SCT015 BKN070 BKN200 07/05 A3029 RMK AO2=
201612031453 METAR KSEA 031453Z 19010KT 10SM BKN016 07/06 A3026 RMK AO2 SLP257 T00720056 53009=
201612031353 METAR KSEA 031353Z 19009KT 10SM BKN016 BKN023 07/06 A3025 RMK AO2 SLP251 T00720056=
201612031308 SPECI KSEA 031308Z 21007KT 10SM SCT014 BKN019 07/06 A3025 RMK AO2 T00720056=
201612031253 METAR KSEA 031253Z 20008KT 10SM SCT014 SCT020 BKN075 07/06 A3025 RMK AO2 SLP251 T00720056=
201612031153 METAR KSEA 031153Z 21009KT 10SM FEW016 SCT075 07/06 A3024 RMK AO2 SLP248 70027 T00720056 10083 20072 53009=
201612031126 SPECI KSEA 031126Z 23012KT 10SM SCT016 BKN055 07/06 A3023 RMK AO2 T00720056=
201612031053 METAR KSEA 031053Z 21012KT 10SM BKN015 07/06 A3022 RMK AO2 SLP243 T00720056=
201612030953 METAR KSEA 030953Z 21011KT 10SM BKN015 08/06 A3022 RMK AO2 SLP241 T00780061=
201612030900 METAR KSEA NIL=
201612030753 METAR KSEA 030753Z 19011KT 10SM BKN012 OVC019 08/07 A3019 RMK AO2 SLP230 T00830067 400940067=
201612030653 METAR KSEA 030653Z 21008KT 10SM BKN013 OVC030 08/07 A3017 RMK AO2 SLP226 T00830067=
201612030600 SPECI KSEA 030600Z 20009KT 10SM OVC013 08/07 A3016 RMK AO2 T00830067=
201612030553 METAR KSEA 030553Z 22012G16KT 10SM OVC015 08/06 A3015 RMK AO2 SLP220 60011 T00830061 10083 20078 53017=
201612030512 SPECI KSEA 030512Z 19010G18KT 10SM OVC015 08/07 A3014 RMK AO2 T00830067=
201612030453 METAR KSEA 030453Z 19011KT 10SM OVC014 08/06 A3014 RMK AO2 SLP213 T00780061=
201612030353 METAR KSEA 030353Z 19014G20KT 10SM BKN014 OVC020 08/07 A3012 RMK AO2 SLP208 T00830067=
201612030338 SPECI KSEA 030338Z 20018KT 10SM FEW009 SCT012 OVC020 08/07 A3012 RMK AO2 T00830067=
201612030315 SPECI KSEA 030315Z 20015G23KT 10SM SCT005 OVC010 08/07 A3011 RMK AO2 T00780067=
201612030253 METAR KSEA 030253Z 20016G22KT 10SM BKN008 OVC013 08/07 A3010 RMK AO2 RAE50 SLP202 P0001 60011 T00780072 55006=
201612030223 SPECI KSEA 030223Z 21016G24KT 6SM -RA OVC006 08/07 A3009 RMK AO2 P0000 T00780072=
201612030153 METAR KSEA 030153Z 21013G20KT 3SM -RA BR BKN004 BKN009 OVC022 08/08 A3010 RMK AO2 SLP202 P0003 T00780078=
201612030115 SPECI KSEA 030115Z 22011KT 3SM -RA BR BKN004 OVC011 08/07 A3012 RMK AO2 P0002 T00780072=
201612030059 SPECI KSEA 030059Z 21011KT 3SM -RA BR SCT003 BKN006 OVC013 08/07 A3012 RMK AO2 P0001 T00780072=
201612030053 METAR KSEA 030053Z 22006KT 2 1/2SM -RA BR BKN006 OVC013 08/07 A3012 RMK AO2 SLP208 P0007 T00780072=
201612030024 SPECI KSEA 030024Z 18005KT 2SM -RA BR BKN005 OVC013 08/07 A3012 RMK AO2 P0004 T00780072=
201612030005 SPECI KSEA 030005Z 18005KT 2 1/2SM -RA BR FEW005 BKN012 OVC017 08/07 A3012 RMK AO2 P0001 T00780072=
201612022353 METAR KSEA 022353Z 18006KT 2 1/2SM -RA BR BKN015 OVC020 08/07 A3012 RMK AO2 SLP209 P0004 60005 T00830072 10094 20067 56016=
201612022320 SPECI KSEA 022320Z 20006KT 2SM R16L/6000VP6000FT -RA BR OVC019 08/07 A3013 RMK AO2 P0002 T00830067=
201612022253 METAR KSEA 022253Z 18009KT 4SM -RA BR OVC021 08/06 A3013 RMK AO2 RAB15 SLP212 P0001 T00830061=
201612022153 METAR KSEA 022153Z 17012KT 7SM FEW015 BKN028 OVC040 09/06 A3014 RMK AO2 RAB26E51 SLP215 P0000 T00890061=
201612022143 SPECI KSEA 022143Z 18015KT 5SM -RA FEW015 BKN028 OVC040 09/06 A3015 RMK AO2 RAB26 P0000 T00890061=
201612022053 METAR KSEA 022053Z 18013KT 10SM BKN050 OVC085 09/06 A3017 RMK AO2 SLP224 60000 T00940056 58032=
201612021953 METAR KSEA 021953Z 14011KT 10SM FEW015 BKN032 OVC060 08/06 A3020 RMK AO2 SLP237 T00780061=
201612021853 METAR KSEA 021853Z 15012KT 10SM FEW015 OVC044 07/06 A3023 RMK AO2 RAE27 SLP246 P0000 T00720061=
201612021753 METAR KSEA 021753Z 15011KT 10SM -RA FEW025 OVC038 07/06 A3026 RMK AO2 SLP257 P0002 60011 T00670056 10078 20067 58008=
201612021653 METAR KSEA 021653Z 17006KT 10SM -RA FEW025 OVC042 07/06 A3028 RMK AO2 SLP262 P0002 T00670056=
201612021553 METAR KSEA 021553Z 15012KT 9SM -RA FEW025 BKN038 OVC046 07/06 A3028 RMK AO2 RAB1454E17B34 SLP263 P0001 T00720056=
201612021453 METAR KSEA 021453Z 15009KT 10SM FEW024 BKN043 OVC095 07/06 A3029 RMK AO2 RAE52 SLP265 P0005 60006 T00670056 56007=
201612021353 METAR KSEA 021353Z 16009KT 10SM -RA SCT024 BKN033 OVC043 07/06 A3029 RMK AO2 SLP266 P0001 T00670056=
201612021253 METAR KSEA 021253Z 18009KT 7SM -RA BKN020 OVC030 07/05 A3030 RMK AO2 RAB45 SLP270 P0000 T00720050=
201612021224 SPECI KSEA 021224Z 19007KT 10SM BKN021 OVC031 08/04 A3031 RMK AO2 T00780044=
201612021153 METAR KSEA 021153Z 17008KT 10SM BKN035 OVC043 07/04 A3031 RMK AO2 SLP272 70001 T00720044 10078 20061 58008=
201612021053 METAR KSEA 021053Z 17006KT 10SM OVC042 07/05 A3033 RMK AO2 SLP280 T00670050=
201612021027 SPECI KSEA 021027Z 16007KT 10SM FEW028 OVC041 07/05 A3034 RMK AO2 T00670050=
201612020953 METAR KSEA 020953Z 14008KT 10SM OVC028 07/05 A3033 RMK AO2 SLP281 T00720050=
201612020853 METAR KSEA 020853Z 16006KT 10SM BKN020 OVC028 07/06 A3033 RMK AO2 SLP280 T00670056 58000=
201612020753 METAR KSEA 020753Z 15006KT 10SM OVC021 07/05 A3034 RMK AO2 SLP283 T00670050 400780044=
201612020718 SPECI KSEA 020718Z 14006KT 10SM OVC021 07/06 A3034 RMK AO2 T00670056=
201612020653 METAR KSEA 020653Z 14007KT 9SM BKN014 OVC019 07/06 A3034 RMK AO2 SLP281 T00670056=
201612020553 METAR KSEA 020553Z 14009KT 8SM BKN014 07/05 A3033 RMK AO2 SLP280 60001 T00670050 10072 20061 58001=
201612020522 SPECI KSEA 020522Z 13008KT 9SM OVC014 07/05 A3033 RMK AO2 T00670050=
201612020453 METAR KSEA 020453Z 14008KT 10SM OVC018 07/05 A3034 RMK AO2 SLP281 T00670050=
201612020353 METAR KSEA 020353Z 15008KT 10SM OVC017 07/05 A3034 RMK AO2 SLP281 T00670050=
201612020345 SPECI KSEA 020345Z 15009KT 10SM OVC017 07/05 A3034 RMK AO2 T00670050=
201612020253 METAR KSEA 020253Z 16008KT 10SM BKN012 OVC023 07/06 A3034 RMK AO2 RAE08 SLP281 P0001 60001 T00720056 51007=
201612020153 METAR KSEA 020153Z 17007KT 10SM -RA FEW014 BKN021 OVC026 07/05 A3033 RMK AO2 RAB48 SLP278 P0000 T00720050=
201612020053 METAR KSEA 020053Z 17007KT 10SM FEW019 OVC075 07/05 A3033 RMK AO2 SLP278 T00720050=
201612012353 METAR KSEA 012353Z 19006KT 10SM FEW019 BKN070 OVC100 07/04 A3031 RMK AO2 SLP273 T00720044 10078 20067 51009=
201612012309 SPECI KSEA 012309Z 19005KT 10SM SCT019 BKN060 OVC070 08/04 A3031 RMK AO2 T00780044=
201612012253 METAR KSEA 012253Z 19005KT 10SM FEW015 BKN022 OVC065 08/04 A3031 RMK AO2 SLP272 T00780044=
201612012153 METAR KSEA 012153Z 20006KT 10SM BKN018 OVC080 07/04 A3030 RMK AO2 SLP269 T00720039=
201612012053 METAR KSEA 012053Z 17006KT 10SM BKN017 OVC075 07/04 A3029 RMK AO2 SLP264 T00720039 50003=
201612011953 METAR KSEA 011953Z 17004KT 10SM BKN015 OVC085 07/03 A3029 RMK AO2 SLP266 T00670033=
201612011929 SPECI KSEA 011929Z 21005KT 10SM BKN015 OVC090 07/03 A3029 RMK AO2 T00670033=
201612011853 METAR KSEA 011853Z 19007KT 10SM BKN014 BKN140 07/03 A3028 RMK AO2 SLP262 T00670033=
201612011753 METAR KSEA 011753Z 19006KT 10SM BKN013 BKN085 BKN200 07/04 A3028 RMK AO2 SLP262 T00670039 10067 20044 51019=
201612011653 METAR KSEA 011653Z 17005KT 10SM BKN012 BKN085 06/03 A3026 RMK AO2 SLP256 T00560033=
201612011618 SPECI KSEA 011618Z 17005KT 10SM BKN014 BKN085 06/03 A3025 RMK AO2 T00560033=
201612011553 METAR KSEA 011553Z 18005KT 10SM SCT015 BKN200 05/03 A3024 RMK AO2 SLP249 T00500028=
201612011453 METAR KSEA 011453Z 18005KT 10SM OVC015 06/03 A3022 RMK AO2 SLP243 T00560033 53002=
201612011447 SPECI KSEA 011447Z 17005KT 10SM OVC015 06/03 A3022 RMK AO2=
201612011353 METAR KSEA 011353Z 16004KT 10SM OVC012 06/03 A3022 RMK AO2 SLP241 T00560033=
201612011351 SPECI KSEA 011351Z 16004KT 10SM OVC012 06/03 A3022 RMK AO2=
201612011253 METAR KSEA 011253Z 17004KT 10SM OVC015 06/03 A3022 RMK AO2 SLP240 T00560033=
201612011153 METAR KSEA 011153Z 16005KT 10SM BKN015 06/03 A3021 RMK AO2 SLP237 T00560033 10067 20056 51012=
201612011053 METAR KSEA 011053Z 16005KT 10SM BKN017 BKN060 06/03 A3020 RMK AO2 SLP235 T00560033=
201612010953 METAR KSEA 010953Z 17006KT 10SM OVC019 06/03 A3018 RMK AO2 SLP229 T00560033=
201612010853 METAR KSEA 010853Z 16007KT 10SM OVC019 06/03 A3017 RMK AO2 SLP224 T00610033 53015=
201612010753 METAR KSEA 010753Z 16007KT 10SM BKN019 OVC055 06/03 A3015 RMK AO2 SLP219 T00610033 401000061=
201612010653 METAR KSEA 010653Z 17009KT 10SM FEW016 OVC021 06/03 A3014 RMK AO2 SLP216 T00610033=
201612010641 SPECI KSEA 010641Z 17010KT 10SM BKN019 OVC120 06/03 A3014 RMK AO2 T00610033=
201612010553 METAR KSEA 010553Z 17008KT 10SM FEW020 SCT100 06/04 A3013 RMK AO2 SLP210 60000 T00610039 10094 20061 51014=
201612010453 METAR KSEA 010453Z 16007KT 10SM SCT020 BKN030 OVC110 07/04 A3011 RMK AO2 SLP206 T00670039=
201612010435 SPECI KSEA 010435Z 16006KT 10SM SCT021 OVC029 07/04 A3011 RMK AO2 T00670044=
201612010353 METAR KSEA 010353Z 17005KT 10SM FEW022 SCT027 BKN110 07/04 A3010 RMK AO2 SLP201 T00720044=
201612010253 METAR KSEA 010253Z 22008KT 10SM BKN034 OVC110 08/04 A3008 RMK AO2 RAE01 SLP195 P0000 60000 T00830044 53015=
201612010220 SPECI KSEA 010220Z 22009KT 10SM FEW023 SCT050 OVC090 08/04 A3007 RMK AO2 RAE01 P0000 T00830044=
201612010153 METAR KSEA 010153Z 22007KT 10SM -RA BKN022 BKN046 OVC070 09/04 A3006 RMK AO2 RAB47 SLP188 P0000 T00890044=
201612010137 SPECI KSEA 010137Z 23008KT 10SM BKN024 BKN090 09/04 A3006 RMK AO2 T00890044=
201612010053 METAR KSEA 010053Z 22007KT 10SM SCT025 BKN039 BKN100 09/05 A3005 RMK AO2 SLP184 T00940050=

# No short TAF reports from KSEA in databse.

###################################
#  large TAF from KSEA
###################################
201612312323 TAF KSEA 312323Z 0100/0206 15008KT P6SM SCT015 OVC035
                      TEMPO 0100/0102 5SM -SHRASN BKN015 OVC035
                       FM010200 19010KT 6SM -SHRA OVC015 FM011000
                       02008KT 4SM -SHSN BKN008 OVC012
                      TEMPO 0112/0116 1SM -SHSN OVC004 FM011700
                       35015KT P6SM FEW015 BKN030 FM012000 01017G23KT
                       P6SM SCT030 BKN050=
201612312103 KSEA 312103Z 3121/0124 15008KT P6SM SCT022 OVC035
                      TEMPO 3121/3123 4SM -SHRASN BKN022 OVC035
                       FM312300 20010KT P6SM -SHRA BKN022 OVC035
                       FM011000 02008KT 4SM -SHSN BKN008 OVC012
                       TEMPO 0112/0116 1SM -SHSN OVC004 FM011700
                       35015KT P6SM FEW015 BKN030=
201612311723 TAF KSEA 311723Z 3118/0124 14006KT P6SM OVC035 FM312100 19010KT
                       P6SM VCSH OVC035 FM010000 20012KT P6SM -SHRA
                       BKN022 OVC035 FM011000 02008KT 4SM -SHSN
                       BKN008 OVC012
                      TEMPO 0112/0116 1SM -SHSN OVC004 FM011700
                       35015KT P6SM FEW015 BKN030=
201612311406 KSEA 311406Z 3114/0118 12005KT P6SM VCFG FEW010 BKN030 FM311600
                       16006KT P6SM BKN035 FM312100 19010KT P6SM
                       VCSH BKN030 FM010000 20012KT P6SM -SHRA
                       BKN022 OVC035 FM011000 02008KT 4SM -SHSN
                       BKN008 OVC012
                      TEMPO 0112/0116 1SM -SN OVC004=
201612311201 TAF KSEA 311201Z 3112/0118 12005KT P6SM VCFG BKN035
                      TEMPO 3112/3114 VRB03KT 4SM BR SCT005 SCT035
                       FM311500 16006KT P6SM BKN035 FM312100 19010KT
                       P6SM VCSH BKN030 FM010000 20012KT P6SM -SHRA
                       BKN022 OVC035 FM011000 02008KT 4SM -SHSN
                       BKN008 OVC012
                      TEMPO 0112/0116 1SM -SN OVC004=
201612311100 KSEA 311100Z 3111/0112 12005KT P6SM VCFG SCT030
                      TEMPO 3111/3114 VRB03KT 4SM BR SCT005 SCT025
                       FM311400 14006KT 5SM BR SCT008 BKN020 FM311600
                       16008KT P6SM BKN025 BKN060 FM312200 19010KT
                       P6SM VCSH BKN015 OVC030 FM010300 20010KT
                       P6SM -SHRA BKN015 OVC030 FM011000 02010KT
                       5SM -SHSN BKN008 OVC012
                      TEMPO 0110/0112 2SM -SN OVC006=
201612310819 KSEA 310819Z 3108/0112 06004KT P6SM VCFG FEW005 SCT020
                      TEMPO 3110/3114 00000KT 2SM BR SCT005 SCT020
                       FM311400 14006KT 5SM BR SCT008 BKN012 BKN020
                       FM311600 16008KT P6SM BKN025 BKN060 FM312200
                       19010KT P6SM VCSH BKN015 OVC030 FM010300
                       20010KT P6SM -SHRA BKN015 OVC030 FM011000
                       02010KT 5SM -SHSN BKN008 OVC012
                      TEMPO 0110/0112 2SM -SN OVC006=
201612310544 TAF KSEA 310544Z 3106/0112 03005KT P6SM FEW020 SCT040 FM310800
                       08004KT P6SM SCT020 FM311200 12005KT P6SM
                       SCT008 BKN012 BKN020 FM311800 16007KT P6SM
                       BKN025 BKN060 FM312200 20008KT P6SM VCSH
                       BKN015 OVC030 FM010300 20010KT P6SM -SHRA
                       BKN015 OVC030 FM011000 02010KT 5SM -SHSN
                       BKN008 OVC012
                      TEMPO 0110/0112 2SM -SN OVC006=
201612310313 KSEA 310313Z 3103/0106 03005KT P6SM FEW020 SCT040 FM310800 08004KT
                       P6SM SCT020 FM311200 12005KT P6SM SCT008
                       BKN012 BKN020 FM311800 16008KT P6SM BKN025
                       BKN060 FM312100 20010KT P6SM -RA BKN015
                       OVC030=
201612302320 TAF KSEA 302320Z 3100/0106 01008KT P6SM FEW020 BKN040 FM310300
                       05004KT P6SM FEW020 SCT040 FM311200 12005KT
                       P6SM SCT008 BKN012 BKN020 FM311800 16008KT
                       P6SM BKN025 BKN060 FM312100 20010KT P6SM
                       -RA BKN015 OVC030=
201612302109 KSEA 302109Z 3021/3124 01008KT P6SM FEW025 BKN050 FM310300 05004KT
                       P6SM SCT040 FM311200 12006KT P6SM BKN012
                       BKN020 FM311800 16008KT P6SM BKN030 BKN060
                       FM312100 20010KT P6SM -RA BKN020 OVC030=
201612301720 TAF KSEA 301720Z 3018/3124 11004KT P6SM SCT025 BKN050 FM302000
                       01006KT P6SM FEW025 SCT040 FM310300 05004KT
                       P6SM SCT040 FM311200 12006KT P6SM BKN012
                       BKN020 FM311800 16008KT P6SM BKN030 BKN060
                       FM312100 20010KT P6SM -RA BKN020 OVC030=
201612301408 KSEA 301408Z 3014/3118 13005KT P6SM -SHRA SCT015 BKN025
                      TEMPO 3014/3016 -SHRA OVC015 FM301600 12005KT
                       P6SM BKN015 FM301800 12005KT P6SM BKN025
                       BKN035 FM302000 01006KT P6SM SCT025 SCT040
                       FM310800 09006KT P6SM OVC025 FM311000 12006KT
                       P6SM OVC020 FM311600 16007KT P6SM BKN030=
201612301218 KSEA 301218Z 3012/3118 13005KT P6SM -SHRA SCT015 BKN025
                      TEMPO 3012/3014 5SM BR OVC015 FM301400 12005KT
                       P6SM OVC015 FM301800 12005KT P6SM BKN025
                       BKN035 FM302000 01006KT P6SM SCT025 SCT040
                       FM310800 09006KT P6SM OVC025 FM311000 12006KT
                       P6SM OVC020 FM311600 16007KT P6SM BKN030=
201612301136 TAF KSEA 301136Z 3012/3118 11007KT P6SM -SHRA SCT015 BKN025
                      TEMPO 3012/3014 5SM BR OVC015 FM301400 12005KT
                       P6SM OVC015 FM301800 12005KT P6SM BKN025
                       BKN035 FM302000 01006KT P6SM SCT025 SCT040
                       FM310800 09006KT P6SM OVC025 FM311000 12006KT
                       P6SM OVC020 FM311600 16007KT P6SM BKN030=
201612301056 KSEA 301056Z 3011/3112 10008KT P6SM VCSH OVC015 FM301400 12005KT
                       P6SM OVC015 FM301800 12005KT P6SM BKN025
                       BKN035 FM302000 01006KT P6SM SCT025 SCT040
                       FM310600 08006KT P6SM OVC025 FM310900 14006KT
                       P6SM OVC020=
201612300905 KSEA 300905Z 3009/3112 10008KT P6SM VCSH OVC015 FM301200 14006KT
                       P6SM OVC015 FM301800 17005KT P6SM BKN025
                       BKN035 FM302100 01006KT P6SM SCT025 SCT040
                       FM310600 08006KT P6SM OVC025 FM310900 14006KT
                       P6SM OVC020=
201612300714 KSEA 300714Z 3007/3112 06006KT P6SM -SHRA SCT006 OVC015
                      TEMPO 3007/3009 3SM -RA BKN006 OVC012 FM300900
                       12005KT P6SM VCSH OVC015 FM301800 17005KT
                       P6SM BKN025 BKN035 FM302100 01006KT P6SM
                       SCT025 SCT040 FM310600 08006KT P6SM OVC025
                       FM310900 14006KT P6SM OVC020=
201612300554 TAF KSEA 300554Z 3006/3112 23009KT P6SM -SHRA OVC015 FM300900 19007KT
                       P6SM VCSH OVC015 FM301800 17005KT P6SM BKN025
                       BKN035 FM302100 01006KT P6SM SCT025 SCT040
                       FM310600 08006KT P6SM OVC025 FM310900 14006KT
                       P6SM OVC020=
201612300501 KSEA 300501Z 3005/3106 22009KT P6SM -SHRA OVC015 FM300700 19007KT
                       P6SM VCSH OVC015 FM301800 17005KT P6SM BKN025
                       BKN040 FM302100 01006KT P6SM SCT045 BKN250=
201612292330 TAF KSEA 292330Z 3000/3106 17010G18KT P6SM -RA OVC025 FM300300
                       20012KT P6SM -SHRA BKN018 OVC035 FM300800
                       18007KT P6SM VCSH OVC015 FM301800 17005KT
                       P6SM BKN025 BKN040 FM302100 01006KT P6SM
                       SCT045 BKN250=
201612292100 KSEA 292100Z 2921/3024 17006KT P6SM -RA OVC024 FM292200 19012G22KT
                       5SM -RA BR OVC024 FM300100 20012KT P6SM
                       -SHRA BKN018 OVC035 FM300800 18007KT P6SM
                       VCSH OVC015 FM301400 17005KT P6SM BKN025
                       BKN040=
201612291720 TAF KSEA 291720Z 2918/3024 18006KT P6SM FEW010 BKN090 BKN100 FM292000
                       20013G23KT 5SM -RA BR SCT025 OVC040 FM292200
                       19012G22KT 5SM -RA BR OVC025 FM300100 20012KT
                       P6SM -SHRA BKN018 OVC035 FM300800 18007KT
                       P6SM VCSH OVC015 FM301400 17005KT P6SM BKN025
                       BKN040=
201612291402 KSEA 291402Z 2914/3018 19008KT P6SM SCT030 OVC100 FM291900 20013G22KT
                       5SM -RA BR SCT025 OVC040 FM292200 19012G20KT
                       5SM -RA BR OVC025 FM300100 20012KT P6SM
                       -SHRA BKN018 OVC035 FM300800 18007KT P6SM
                       VCSH OVC015 FM301400 17005KT P6SM BKN025
                       BKN040=
201612291143 TAF KSEA 291143Z 2912/3018 23005KT P6SM BKN060 OVC090 FM291400
                       21008KT P6SM SCT030 OVC050 FM291900 20013G22KT
                       5SM -RA BR SCT025 OVC040 FM292200 19012G20KT
                       5SM -RA BR OVC025 FM300100 20012KT P6SM
                       -SHRA BKN018 OVC035 FM300800 18007KT P6SM
                       VCSH OVC015 FM301400 17005KT P6SM BKN025
                       BKN040=
201612291036 KSEA 291036Z 2911/3012 21006KT P6SM SCT035 BKN070 OVC090 FM291400
                       19008KT P6SM -RA SCT030 OVC070 FM291900
                       18013G22KT 5SM -RA BR OVC035 FM292100 18012G22KT
                       5SM -RA BR OVC022 FM300000 20010KT P6SM
                       -SHRA BKN018 OVC035 FM300600 20006KT P6SM
                       VCSH OVC015=
201612290554 TAF KSEA 290554Z 2906/3012 13006KT P6SM SCT035 OVC100 FM291400
                       16008KT P6SM -RA SCT035 OVC080 FM291900
                       18013G22KT 5SM -RA BR OVC035 FM292100 18012G22KT
                       5SM -RA BR OVC022 FM300000 20010KT P6SM
                       -SHRA BKN018 OVC035 FM300600 20006KT P6SM
                       VCSH OVC015=
201612290346 KSEA 290346Z 2904/3006 12005KT P6SM FEW040 BKN100 OVC200 FM290600
                       14006KT P6SM SCT035 OVC100 FM291200 15008KT
                       P6SM -RA SCT035 OVC080 FM291900 17015G23KT
                       5SM -RA BR SCT022 OVC040 FM300000 19009KT
                       P6SM -SHRA BKN018 OVC035=
201612282335 TAF KSEA 282335Z 2900/3006 19006KT P6SM SCT035 SCT120 BKN250 FM290400
                       14008KT P6SM SCT035 BKN100 FM291200 12006KT
                       P6SM -RA SCT035 OVC080 FM291800 18015G23KT
                       5SM -RA BR SCT022 OVC040 FM300000 19009KT
                       P6SM -SHRA BKN018 OVC035=
201612282100 KSEA 282100Z 2821/2924 19010KT P6SM SCT030 BKN250 FM290200 12006KT
                       P6SM SCT050 BKN100 OVC150 FM291100 12006KT
                       P6SM -RA SCT035 OVC080 FM291500 15010KT
                       P6SM -RA OVC035=
201612281730 TAF KSEA 281730Z 2818/2924 19012KT P6SM FEW017 BKN028 BKN250 FM281900
                       16006KT P6SM SCT030 BKN250 FM290200 12006KT
                       P6SM SCT050 BKN100 OVC150 FM291100 12006KT
                       P6SM -RA SCT035 OVC080 FM291500 15010KT
                       P6SM -RA OVC035=
201612281401 KSEA 281401Z 2814/2918 17009KT P6SM BKN016 FM281600 17007KT P6SM
                       BKN025 FM281900 16006KT P6SM SCT025 BKN120
                       OVC200 FM290200 12006KT P6SM SCT050 BKN100
                       OVC150 FM291100 12006KT P6SM -RA SCT035
                       OVC080 FM291500 15010KT P6SM -RA OVC035=
201612281146 TAF KSEA 281146Z 2812/2918 15008KT P6SM BKN015 OVC025 FM281500
                       17007KT P6SM BKN025 BKN035 FM281900 16006KT
                       P6SM SCT025 BKN120 OVC200 FM290200 12006KT
                       P6SM SCT050 BKN100 OVC150 FM291100 12006KT
                       P6SM -RA SCT035 OVC080 FM291500 15010KT
                       P6SM -RA OVC035=
201612280906 KSEA 280906Z 2809/2912 22012G20KT P6SM OVC015 FM281500 19009KT
                       P6SM BKN022 BKN035 FM281900 17008KT P6SM
                       SCT025 BKN120 OVC200 FM290300 12006KT P6SM
                       SCT050 BKN100 OVC150 FM291000 12008KT P6SM
                       -RA SCT030 OVC060=
201612280535 TAF KSEA 280535Z 2806/2912 20010G20KT P6SM VCSH OVC015 FM281500
                       19009KT P6SM BKN022 BKN035 FM281900 17008KT
                       P6SM SCT025 BKN120 OVC200 FM290300 12006KT
                       P6SM SCT050 BKN100 OVC150 FM291000 12008KT
                       P6SM -RA SCT030 OVC060=
201612280325 KSEA 280325Z 2803/2906 22010G18KT P6SM VCSH SCT015 BKN050 BKN100
                       TEMPO 2803/2806 BKN018 BKN050 BKN100 FM280600
                       19010KT P6SM VCSH OVC018 FM281500 19009KT
                       P6SM BKN025 BKN045 FM281900 17008KT P6SM
                       SCT050 OVC200 FM290300 16007KT P6SM SCT050
                       BKN100 OVC150=
201612272335 TAF KSEA 272335Z 2800/2906 21014KT P6SM VCSH FEW016 BKN024 BKN110
                       TEMPO 2800/2804 SCT025 BKN110 FM280400 18008KT
                       P6SM VCSH OVC025 FM280800 19010KT P6SM VCSH
                       OVC018 FM281500 18010KT P6SM SCT022 BKN045
                       FM282000 18009KT P6SM SCT050 OVC250=
201612271735 TAF KSEA 271735Z 2718/2824 19014G26KT P6SM VCSH BKN012 BKN050 BKN110
                       FM272000 21014G24KT P6SM -SHRA BKN020 BKN050
                       TEMPO 2720/2724 SCT025 BKN050 FM280000 20010KT
                       P6SM SCT030 BKN050 FM280600 18008KT P6SM
                       VCSH OVC025=
201612271408 KSEA 271408Z 2714/2818 20014KT P6SM VCSH FEW013 BKN018 OVC080 FM271600
                       21014G23KT P6SM VCSH SCT025 BKN050
                      TEMPO 2716/2719 BKN025 BKN050 FM280000 21010KT
                       P6SM SCT030 BKN050 FM280600 18008KT P6SM
                       OVC025=
201612271214 TAF KSEA 271214Z 2712/2818 19015G25KT P6SM VCSH SCT025 BKN050
                      TEMPO 2712/2716 5SM -SHRA BR OVC025 FM271600
                       21014G23KT P6SM VCSH SCT025 BKN050
                      TEMPO 2716/2719 BKN025 BKN050 FM280000 21010KT
                       P6SM SCT030 BKN050 FM280600 18008KT P6SM
                       OVC025=
201612270957 KSEA 270957Z 2710/2812 20015G25KT P6SM -SHRA SCT010 BKN025 OVC040
                       FM271800 21013G22KT P6SM -SHRA BKN025 BKN040
                       FM280200 20010KT P6SM VCSH SCT030 OVC050=
201612270555 TAF KSEA 270555Z 2706/2812 17010KT P6SM -RA OVC025 WS020/20045KT
                       FM270800 19015G25KT P6SM -SHRA BKN020 OVC035
                       FM271800 21014G23KT P6SM -SHRA BKN025 BKN040
                       FM280200 20012KT P6SM VCSH SCT030 OVC050=
201612270311 KSEA 270311Z 2703/2806 17013G25KT P6SM -RA SCT015 OVC030 WS020/20045KT
                       TEMPO 2704/2708 4SM RA BR OVC013 FM270800
                       19015G25KT P6SM -SHRA BKN015 BKN025 OVC040
                       FM271800 22014G23KT P6SM -SHRA BKN022 OVC035
                       FM280200 20012KT P6SM VCSH SCT030 OVC050=
201612270031 KSEA 270031Z 2701/2806 18018G28KT P6SM -RA SCT013 OVC022 WS020/20045KT
                       TEMPO 2701/2705 4SM RA BR OVC013 FM270800
                       20015G25KT P6SM -SHRA BKN015 BKN025 OVC040
                       FM271800 22014G23KT P6SM -SHRA BKN022 OVC035
                       FM280200 20012KT P6SM VCSH SCT030 OVC050=
201612262325 TAF KSEA 262325Z 2700/2806 17012KT P6SM -RA BKN035 OVC050 FM270300
                       18018G28KT P6SM -RA SCT015 BKN025 OVC035
                       WS020/20045KT FM270800 20015G25KT P6SM -SHRA
                       BKN015 BKN025 OVC040 FM271800 22014G23KT
                       P6SM -SHRA BKN022 OVC035 FM280200 20012KT
                       P6SM VCSH SCT030 OVC050=
201612262100 KSEA 262100Z 2621/2724 18005KT P6SM FEW050 OVC070 FM262200 16012KT
                       P6SM -RA OVC035 FM270400 18014KT P6SM -RA
                       OVC015 FM270800 20018G28KT P6SM -SHRA SCT015
                       BKN025 OVC040 FM271800 22014G23KT P6SM -SHRA
                       BKN022 OVC035=
201612261725 TAF KSEA 261725Z 2618/2724 15008KT P6SM FEW040 BKN060 OVC110 FM262200
                       16012KT P6SM -RA OVC035 FM270400 18014KT
                       P6SM -RA OVC015 FM270800 20018G28KT P6SM
                       -SHRA SCT015 BKN025 OVC040 FM271800 22014G23KT
                       P6SM -SHRA BKN022 OVC035=
201612261401 KSEA 261401Z 2614/2718 15005KT P6SM BKN060 FM262200 16012KT P6SM
                       -RA OVC035 FM270400 18014KT P6SM -RA OVC015
                       FM270800 20018G28KT P6SM -SHRA SCT015 BKN025
                       OVC040=
201612261139 TAF KSEA 261139Z 2612/2718 13008KT P6SM BKN035 OVC060 FM262200
                       16012KT P6SM -RA OVC035 FM270400 18014KT
                       P6SM -RA OVC015 FM270800 20018G28KT P6SM
                       -SHRA SCT015 BKN025 OVC040=
201612260909 KSEA 260909Z 2609/2712 13006KT P6SM BKN035 BKN150 FM261400 13006KT
                       P6SM SCT040 BKN100 OVC200 FM261900 16008KT
                       P6SM BKN060 OVC100 FM262200 16010KT P6SM
                       -RA SCT030 OVC045 FM270500 16012KT P6SM
                       -RA OVC015=
201612260542 TAF KSEA 260542Z 2606/2712 13006KT P6SM SCT035 BKN150 FM261900
                       16008KT P6SM BKN060 OVC100 FM262200 16010KT
                       P6SM -RA SCT030 OVC045 FM270500 16012KT
                       P6SM -RA OVC015=
201612260356 KSEA 260356Z 2604/2706 VRB03KT P6SM SCT035 BKN150 FM260900 14006KT
                       P6SM SCT050 BKN200 FM261700 16006KT P6SM
                       SCT050 BKN120 OVC200 FM262000 17010KT P6SM
                       BKN050 OVC100 FM262200 16011KT P6SM -RA
                       SCT030 OVC050=
201612252327 TAF KSEA 252327Z 2600/2706 VRB03KT P6SM SCT020 OVC040 FM260400
                       VRB03KT P6SM SCT030 OVC100 FM260900 14006KT
                       P6SM SCT050 BKN200 FM261700 16006KT P6SM
                       SCT050 BKN120 OVC200 FM262000 17010KT P6SM
                       BKN050 OVC100 FM262200 16011KT P6SM -RA
                       SCT030 OVC050=
201612252101 KSEA 252101Z 2521/2624 VRB03KT P6SM SCT015 BKN030 OVC040 FM260400
                       VRB03KT P6SM SCT030 OVC100 FM260900 14006KT
                       P6SM SCT050 BKN200 FM261700 16006KT P6SM
                       SCT050 BKN120 OVC200 FM262000 17010KT P6SM
                       BKN050 OVC100=
201612251752 KSEA 251752Z 2518/2624 00000KT P6SM SCT005 BKN050 OVC100
                      TEMPO 2518/2520 1/2SM FG BKN005 FM252000
                       VRB03KT P6SM SCT012 BKN050 OVC100 FM260400
                       VRB03KT P6SM SCT020 OVC100 FM260900 14006KT
                       P6SM SCT050 BKN200 FM261700 16006KT P6SM
                       SCT050 BKN120 OVC200=
201612251726 TAF KSEA 251726Z 2518/2624 00000KT P6SM SCT005 BKN050 OVC100 FM252000
                       VRB03KT P6SM SCT012 BKN050 OVC100 FM260400
                       VRB03KT P6SM SCT020 OVC100 FM260900 14006KT
                       P6SM SCT050 BKN200 FM261700 16006KT P6SM
                       SCT050 BKN120 OVC200=
201612251401 KSEA 251401Z 2514/2618 00000KT 3SM BR SCT001 BKN030 OVC045
                      TEMPO 2514/2516 1SM BR BKN001 OVC018 FM252000
                       VRB03KT P6SM SCT012 BKN022 OVC035 FM260400
                       VRB03KT P6SM SCT020 OVC035 FM260900 14006KT
                       P6SM SCT050 BKN200 FM261700 14006KT P6SM
                       SCT050 BKN120 OVC200=
201612251138 TAF KSEA 251138Z 2512/2618 VRB03KT 4SM BR SCT001 BKN018 OVC030
                       TEMPO 2512/2516 1SM BR BKN001 OVC018 FM252000
                       VRB03KT P6SM SCT012 BKN022 OVC035 FM260400
                       VRB03KT P6SM SCT020 OVC035 FM260900 14006KT
                       P6SM SCT050 BKN200 FM261700 14006KT P6SM
                       SCT050 BKN120 OVC200=
201612250940 KSEA 250940Z 2510/2612 VRB03KT 1/4SM FG BKN001 OVC025 FM251300
                       VRB03KT 4SM BR SCT002 BKN006 OVC011 FM251900
                       VRB03KT P6SM SCT006 BKN012 OVC020 FM260000
                       VRB03KT P6SM SCT012 BKN022 OVC035 FM260400
                       VRB03KT P6SM SCT020 OVC035=
201612250541 TAF KSEA 250541Z 2506/2612 00000KT P6SM SCT015 OVC040 FM250800
                       00000KT P6SM BKN015 OVC040 FM251200 04004KT
                       P6SM BKN005 OVC010 FM251900 VRB03KT P6SM
                       SCT006 BKN012 OVC020 FM260000 VRB03KT P6SM
                       SCT012 BKN022 OVC035 FM260400 VRB03KT P6SM
                       SCT020 OVC035=
201612250327 KSEA 250327Z 2503/2606 VRB03KT P6SM SCT007 BKN020 OVC030 FM250700
                       05003KT P6SM BKN005 OVC015 FM251200 04004KT
                       P6SM BKN005 OVC010 FM251900 VRB03KT P6SM
                       SCT006 BKN012 OVC020=
201612242322 TAF KSEA 242322Z 2500/2606 VRB03KT P6SM SCT007 OVC020
                      TEMPO 2500/2503 -SHRA BKN006 FM250700 05003KT
                       P6SM BKN005 OVC015 FM251200 04004KT P6SM
                       BKN005 OVC010 FM251900 VRB03KT P6SM SCT006
                       BKN012 OVC020=
201612242118 KSEA 242118Z 2421/2524 VRB03KT P6SM SCT010 OVC030 FM250100 VRB03KT
                       P6SM SCT010 OVC020 FM250900 05003KT P6SM
                       BKN010 OVC015 FM251200 04004KT P6SM BKN005
                       OVC010=
201612241729 KSEA 241729Z 2417/2518 VRB03KT P6SM SCT005 OVC030
                      TEMPO 2418/2420 BKN003 OVC010 FM242000 VRB03KT
                       P6SM SCT010 OVC030 FM250100 VRB03KT P6SM
                       SCT010 OVC020 FM250900 05003KT P6SM BKN010
                       OVC015 FM251200 04004KT P6SM BKN005 OVC010=
201612241720 TAF KSEA 241720Z 2418/2524 VRB03KT P6SM SCT005 OVC030 FM242000
                       VRB03KT P6SM SCT010 OVC030 FM250100 VRB03KT
                       P6SM SCT010 OVC020 FM250900 05003KT P6SM
                       BKN010 OVC015 FM251200 04004KT P6SM BKN005
                       OVC010=
201612241421 KSEA 241421Z 2414/2518 31003KT P6SM BKN003 OVC007 FM241600 VRB03KT
                       P6SM BKN007 OVC015 FM242000 VRB03KT P6SM
                       SCT006 OVC015 FM250100 VRB03KT P6SM SCT011
                       OVC020 FM251600 VRB03KT P6SM BKN025 OVC040=
201612241334 KSEA 241334Z 2414/2518 VRB03KT P6SM BKN007 OVC014 FM242000 VRB03KT
                       P6SM SCT006 OVC015 FM250100 VRB03KT P6SM
                       SCT011 OVC020 FM251600 VRB03KT P6SM BKN025
                       OVC040=
201612241139 TAF KSEA 241139Z 2412/2518 VRB03KT P6SM BKN006 OVC015
                      TEMPO 2414/2418 4SM BR FM242000 VRB03KT P6SM
                       SCT006 OVC015 FM250100 VRB03KT P6SM SCT011
                       OVC020 FM251600 VRB03KT P6SM BKN025 OVC040=
201612240918 KSEA 240918Z 2409/2512 VRB03KT P6SM BKN006 OVC012
                      TEMPO 2414/2418 4SM BR FM242000 VRB03KT P6SM
                       SCT006 OVC012 FM250100 01004KT P6SM SCT011
                       OVC020=
201612240540 TAF KSEA 240540Z 2406/2512 VRB03KT P6SM OVC008 FM241000 VRB03KT
                       4SM BR SCT004 OVC008 FM242000 33004KT P6SM
                       SCT006 OVC011 FM250100 01004KT P6SM SCT011
                       OVC020=
201612240338 KSEA 240338Z 2404/2506 VRB03KT P6SM OVC008 FM241000 VRB03KT 4SM
                       BR SCT004 OVC008 FM241700 33004KT P6SM SCT006
                       OVC011=
201612232320 TAF KSEA 232320Z 2400/2506 03005KT 4SM -RASN SCT007 OVC015
                      TEMPO 2400/2404 2SM -SN BR OVC007 FM241000
                       VRB04KT 4SM BR SCT004 OVC008 FM241700 33004KT
                       P6SM SCT006 OVC011=
201612232102 TAF AMD KSEA 232102Z 2321/2424 01006KT 4SM -RA BR BKN005 OVC015
                       TEMPO 2321/2324 -RASN BKN003 OVC010 FM240000
                       03006KT 2SM -SHSN BKN005 OVC010 FM241000
                       VRB04KT 4SM BR SCT004 OVC008 FM241700 VRB04KT
                       P6SM SCT006 OVC011=
201612231725 TAF KSEA 231725Z 2318/2424 03006KT 4SM -RA BR SCT005 BKN010 OVC015
                       FM240200 03006KT 2SM -SHSN BKN004 OVC008
                       FM241000 03006KT 4SM BR SCT004 OVC008 FM241700
                       03006KT P6SM SCT006 OVC011=
201612231522 KSEA 231522Z 2315/2418 03006KT P6SM -RA SCT025 OVC035
                      TEMPO 2315/2317 4SM -RA BR SCT005 OVC025
                       FM231700 03006KT P6SM -RA SCT008 BKN022
                       OVC030 FM232100 03006KT 4SM -RA BKN008 OVC015
                       FM240200 03006KT 2SM -SHSN BKN004 OVC008
                       FM241000 03006KT 4SM BR SCT004 OVC008 FM241700
                       03006KT P6SM SCT006 OVC011=
201612231400 KSEA 231400Z 2314/2418 03006KT P6SM -RA SCT025 OVC035 FM231700
                       03006KT P6SM -RA SCT008 BKN022 OVC030 FM232100
                       03006KT 4SM -RA BKN008 OVC015 FM240200 03006KT
                       2SM -SHSN BKN004 OVC008 FM241000 03006KT
                       4SM BR SCT004 OVC008 FM241700 03006KT P6SM
                       SCT006 OVC011=
201612231140 TAF KSEA 231140Z 2312/2418 03006KT P6SM -RA SCT008 OVC022 FM231800
                       03006KT 4SM -RA BKN008 OVC015 FM240500 03006KT
                       2SM -SHSN BKN004 OVC008 FM241200 03006KT
                       4SM BR SCT004 OVC008 FM241700 03006KT P6SM
                       SCT006 OVC011=
201612230904 KSEA 230904Z 2309/2412 03006KT P6SM -RA BKN022 OVC030
                      TEMPO 2309/2313 3SM -RA FM231300 03006KT
                       4SM -RA BKN008 OVC015 FM232100 03006KT P6SM
                       -RA SCT008 BKN012 OVC020 FM240600 03006KT
                       4SM -SHRASN BKN006 OVC011=
201612230541 TAF KSEA 230541Z 2306/2412 VRB03KT P6SM -RA BKN022 OVC030 FM231300
                       02006KT 4SM -RA BKN008 OVC015 FM232100 02006KT
                       P6SM -RA SCT008 BKN012 OVC020 FM240600 02006KT
                       4SM -SHRASN BKN006 OVC011=
201612230316 KSEA 230316Z 2303/2406 19006KT P6SM -RA BKN025 OVC040 FM230900
                       VRB03KT P6SM -RA BKN006 OVC011 FM231400
                       02006KT 5SM -RA BR BKN006 OVC011=
201612222320 TAF KSEA 222320Z 2300/2406 19006KT P6SM BKN025 OVC035 FM230400
                       15005KT P6SM -RA BKN015 OVC025 FM230900
                       VRB03KT P6SM -RA BKN006 OVC011 FM231400
                       02006KT 5SM -RA BR BKN006 OVC011=
201612222122 KSEA 222122Z 2221/2324 21008KT P6SM -RA BKN045 BKN070 BKN140 FM230400
                       15005KT P6SM -RA BKN015 OVC025 FM230900
                       VRB03KT P6SM -RA BKN006 OVC011 FM231400
                       02006KT P6SM -RA BKN008 OVC015=
201612221725 TAF KSEA 221725Z 2218/2324 19006KT P6SM BKN120 BKN200 FM222200
                       18010KT P6SM -RA BKN045 OVC070 FM230400
                       15005KT P6SM -RA BKN015 OVC025 FM230900
                       VRB03KT P6SM -RA BKN006 OVC011 FM231400
                       02006KT P6SM -RA BKN008 OVC015=
201612221406 KSEA 221406Z 2214/2318 17005KT P6SM SCT120 OVC200 FM221800 16006KT
                       P6SM BKN120 OVC200 FM222200 18010KT P6SM
                       -RA BKN045 OVC070 FM230400 15005KT P6SM
                       -SHRA BKN015 OVC025 FM230900 VRB03KT P6SM
                       BKN006 OVC011=
201612221134 TAF KSEA 221134Z 2212/2318 VRB03KT P6SM SCT120 OVC200 FM221800
                       16006KT P6SM BKN120 OVC200 FM222200 18010KT
                       P6SM -RA BKN045 OVC070 FM230400 15005KT
                       P6SM -SHRA BKN015 OVC025 FM230900 VRB03KT
                       P6SM BKN006 OVC011=
201612220907 TAF AMD KSEA 220907Z 2209/2312 VRB03KT P6SM SCT120 OVC200 FM221600
                       16006KT P6SM BKN120 OVC200 FM222200 18010KT
                       P6SM -RA BKN045 OVC070 FM230400 15005KT
                       P6SM -SHRA BKN020 OVC035=
201612220539 TAF KSEA 220539Z 2206/2312 VRB03KT P6SM BKN200 FM220900 14006KT
                       P6SM SCT120 OVC200 FM221600 14006KT P6SM
                       BKN120 OVC200 FM222200 18010KT P6SM -RA
                       BKN045 OVC070 FM230400 15005KT P6SM -SHRA
                       BKN020 OVC035=
201612220421 KSEA 220421Z 2204/2306 VRB03KT P6SM BKN200 FM220900 16007KT P6SM
                       BKN120 OVC200 FM222100 18010KT P6SM -RA
                       BKN050 OVC090 FM230400 15005KT P6SM -SHRA
                       BKN025 OVC050=
201612212321 TAF KSEA 212321Z 2200/2306 28005KT P6SM BKN200 FM220200 12005KT
                       P6SM BKN200 FM220900 16007KT P6SM BKN120
                       OVC200 FM222100 18010KT P6SM -RA BKN050
                       OVC090 FM230400 15005KT P6SM -SHRA BKN025
                       OVC050=
201612212114 KSEA 212114Z 2121/2224 29004KT P6SM BKN250 FM220100 12005KT P6SM
                       OVC250 FM220900 16007KT P6SM BKN120 OVC200
                       FM222100 18010KT P6SM -RA BKN050 OVC100=
201612211729 TAF KSEA 211729Z 2118/2224 13004KT P6SM FEW025 SCT250 FM212100
                       27004KT P6SM BKN250 FM220100 12005KT P6SM
                       OVC250 FM220900 16007KT P6SM BKN120 OVC200
                       FM222100 18010KT P6SM -RA BKN050 OVC100=
201612211403 KSEA 211403Z 2114/2218 14004KT P6SM SCT020 SCT030 FM211800 16004KT
                       P6SM SCT200 FM220500 15008KT P6SM OVC250
                       FM220900 16007KT P6SM BKN100 OVC200=
201612211120 TAF KSEA 211120Z 2112/2218 18004KT P6SM SCT023 BKN045
                      TEMPO 2112/2116 BKN023 OVC045 FM211700 16004KT
                       P6SM SCT050 BKN250 FM211900 16004KT P6SM
                       BKN250 FM220500 15008KT P6SM OVC250 FM220900
                       16007KT P6SM BKN100 OVC200=
201612210921 KSEA 210921Z 2109/2212 15005KT P6SM SCT024
                      TEMPO 2109/2112 BKN024 FM211200 14005KT P6SM
                       SCT020
                      TEMPO 2112/2116 BKN020 FM211700 12004KT P6SM
                       BKN250=
201612210900 KSEA 210900Z 2109/2212 15005KT P6SM OVC024 FM211100 14005KT P6SM
                       SCT007 BKN015
                      TEMPO 2113/2117 BKN007 BKN015 FM211900 12004KT
                       P6SM BKN250=
201612210706 KSEA 210706Z 2107/2212 14005KT P6SM BKN021 FM211100 14005KT P6SM
                       SCT007 BKN015
                      TEMPO 2113/2117 BKN007 BKN015 FM211900 12004KT
                       P6SM BKN250=
201612210522 TAF KSEA 210522Z 2106/2212 15008KT P6SM SCT019 FM211100 16005KT
                       P6SM SCT007 BKN015
                      TEMPO 2113/2117 BKN007 BKN015 FM211900 12004KT
                       P6SM BKN250=
201612210314 KSEA 210314Z 2103/2206 18008KT P6SM BKN022 FM210800 17006KT P6SM
                       SCT025 BKN250=
201612202320 TAF KSEA 202320Z 2100/2206 21011G19KT P6SM SCT027 FM210100 20009KT
                       P6SM SCT045 FM210800 17006KT P6SM BKN250=
201612202100 KSEA 202100Z 2021/2124 22012G18KT P6SM FEW030 FEW200 FM210100 20010G16KT
                       P6SM SCT050 BKN100 FM210800 16006KT P6SM
                       BKN250=
201612201731 TAF KSEA 201731Z 2018/2124 23019G28KT P6SM SCT025 BKN070 FM210100
                       20012G22KT P6SM SCT050 BKN100 FM210800 16006KT
                       P6SM BKN250=
201612201403 KSEA 201403Z 2014/2118 22021G30KT P6SM VCSH SCT018 BKN030 OVC045
                       FM201900 22016G24KT P6SM SCT025 BKN050 FM210100
                       20011KT P6SM SCT050 BKN100 FM210800 16005KT
                       P6SM BKN050=
201612201129 TAF KSEA 201129Z 2012/2118 18016G24KT P6SM VCSH BKN008 OVC015 FM201500
                       21021G30KT P6SM SCT025 BKN045 FM201900 22016G24KT
                       P6SM SCT025 BKN050 FM210100 20011KT P6SM
                       SCT050 BKN100 FM210800 16005KT P6SM BKN050=
201612200824 KSEA 200824Z 2008/2112 18004KT 3SM -RA BR SCT004 SCT017 OVC028
                       WS020/23045KT FM201100 21023G32KT 4SM -SHRA
                       BR BKN015 OVC025 FM201600 22025G34KT P6SM
                       VCSH SCT025 BKN045 FM202300 22015G22KT P6SM
                       SCT025 BKN050 FM210300 18007KT P6SM BKN050=
201612200652 KSEA 200652Z 2007/2112 14004KT 4SM -RA BR SCT004 OVC017
                      TEMPO 2007/2010 2SM RA BR BKN004 OVC017 FM201000
                       08008KT 3SM -RA BR OVC007 WS020/23045KT
                       FM201300 21023G32KT 5SM -SHRA BR OVC010
                       FM201600 22025G35KT P6SM VCSH SCT025 BKN045
                       FM202300 22015G22KT P6SM SCT025 BKN050 FM210300
                       18007KT P6SM BKN050=
201612200544 TAF KSEA 200544Z 2006/2112 05003KT 4SM -RA BR BKN025 OVC045 FM200800
                       05006KT 4SM RA BR OVC015 FM201000 08008KT
                       3SM -RA BR OVC007 WS020/23045KT FM201300
                       21023G32KT 5SM -SHRA BR OVC010 FM201600
                       22025G35KT P6SM VCSH SCT025 BKN045 FM202300
                       22015G22KT P6SM SCT025 BKN050 FM210300 18007KT
                       P6SM BKN050=
201612200307 KSEA 200307Z 2003/2106 16003KT P6SM SCT009 OVC019 FM200500 16007KT
                       4SM -RA BR OVC015 FM200800 16010KT 4SM -RA
                       BR OVC015 WS020/23035KT FM201300 21022G30KT
                       4SM -RA BR OVC010 FM201800 22021G28KT P6SM
                       VCSH SCT025 OVC045=
201612200302 KSEA 200302Z 2003/2106 16003KT P6SM SCT009 OVC019 FM200500 16007KT
                       4SM -RA BR OVC015 FM201300 21022G30KT 4SM
                       -RA BR OVC010 WS020/23035KT FM201800 22021G28KT
                       P6SM VCSH SCT025 OVC045=
201612200054 KSEA 200054Z 2001/2106 24009KT P6SM OVC024 FM200300 17006KT P6SM
                       OVC015 FM200500 16007KT 4SM -RA BR OVC015
                       FM201300 21022G30KT 4SM -RA BR OVC010 WS020/23035KT
                       FM201800 22021G28KT P6SM VCSH SCT025 OVC045=
201612192333 TAF KSEA 192333Z 2000/2106 22012KT P6SM BKN015 OVC021 FM200300
                       17006KT P6SM OVC015 FM200500 16007KT 4SM
                       -RA BR OVC015 FM201300 21022G30KT 4SM -RA
                       BR OVC010 WS020/23035KT FM201800 22021G28KT
                       P6SM VCSH SCT025 OVC045=
201612192106 KSEA 192106Z 1921/2024 23008KT P6SM OVC013 FM200000 17010KT P6SM
                       OVC015 FM200300 17008KT 6SM -RA OVC015 FM200500
                       16009KT 4SM -RA BR OVC015 FM201000 19016G27KT
                       4SM -RA BR OVC009 WS020/23035KT FM201800
                       23026G35KT P6SM VCSH OVC045=
201612191924 KSEA 191924Z 1919/2024 23010KT P6SM OVC010 FM192100 19015G21KT
                       P6SM OVC019 FM200000 17010KT P6SM OVC035
                       FM200300 17008KT 6SM -RA OVC025 FM200500
                       16009KT 4SM -RA BR OVC015 FM201000 19016G27KT
                       4SM -RA BR OVC009 WS020/23035KT FM201800
                       23026G35KT P6SM VCSH OVC045=
201612191741 TAF KSEA 191741Z 1918/2024 21014G21KT 3SM -RA BR FEW007 BKN018
                       OVC027 FM192000 19015G21KT P6SM OVC019 FM200000
                       17010KT P6SM OVC035 FM200300 17008KT 6SM
                       -RA OVC025 FM200500 16009KT 4SM -RA BR OVC015
                       FM201000 19016G27KT 4SM -RA BR OVC009 WS020/23035KT
                       FM201800 23026G35KT P6SM VCSH OVC045=
201612191416 KSEA 191416Z 1914/2018 17013KT 6SM RASN FEW008 BKN030 OVC050
                      TEMPO 1914/1916 17013G20KT 4SM RASN FEW008
                       OVC020 FM191600 18012G19KT P6SM -RA OVC020
                       FM192000 18010KT P6SM OVC020 FM200000 15006KT
                       P6SM OVC030 FM200300 09005KT P6SM -RA OVC025
                       FM200500 12008KT 4SM -RA BR OVC015 FM200900
                       12010KT 4SM -RA BR OVC009 WS020/23035KT=
201612191220 KSEA 191220Z 1912/2018 17015G24KT 6SM -RA BR SCT009 OVC016 FM191600
                       18012G19KT P6SM -RA OVC020 FM192000 18010KT
                       P6SM OVC020 FM200000 15006KT P6SM OVC030
                       FM200300 09005KT P6SM -RA OVC025 FM200500
                       12008KT 4SM -RA BR OVC015 FM200900 12010KT
                       4SM -RA BR OVC009 WS020/23035KT=
201612191128 TAF KSEA 191128Z 1912/2018 18016G24KT P6SM -RA OVC024 FM191600
                       18012G19KT P6SM -RA OVC020 FM192000 18010KT
                       P6SM OVC020 FM200000 15006KT P6SM OVC030
                       FM200300 09005KT P6SM -RA OVC025 FM200500
                       12008KT 4SM -RA BR OVC015 FM200900 12010KT
                       4SM -RA BR OVC009 WS020/23035KT=
201612190901 KSEA 190901Z 1909/2012 19010KT P6SM OVC040 FM191000 19016G25KT
                       P6SM -RA OVC035 FM191500 18020G28KT P6SM
                       -RA OVC030 FM191700 18012G19KT P6SM -RA
                       OVC015 FM192000 18010KT P6SM OVC015 FM200000
                       15006KT P6SM OVC025 FM200300 09005KT P6SM
                       -RA OVC025 FM200500 09005KT 4SM -RA BR OVC015=
201612190526 TAF KSEA 190526Z 1906/2012 16007KT P6SM BKN140 FM190800 16012KT
                       P6SM -RA BKN035 OVC050
                      TEMPO 1908/1910 5SM -RASN BKN030 OVC050 FM191100
                       17016G25KT P6SM -RA OVC035 FM191500 18020G28KT
                       P6SM -RA OVC030 FM191700 18012G19KT P6SM
                       -RA OVC015 FM192000 18010KT P6SM OVC015
                       FM200000 15006KT P6SM OVC025 FM200300 09005KT
                       P6SM -RA OVC025 FM200500 09005KT 4SM -RA
                       BR OVC015=
201612190308 KSEA 190308Z 1903/2006 15006KT P6SM BKN140 FM190600 16009KT P6SM
                       BKN035 OVC070 FM190800 18014G23KT P6SM -RA
                       OVC035 FM191500 17017G24KT P6SM -RA OVC020
                       FM191800 18012G19KT P6SM -RA OVC015=
201612182340 TAF KSEA 182340Z 1900/2006 22003KT P6SM FEW080 BKN250 FM190600
                       16009KT P6SM BKN035 OVC070 FM190800 18014G23KT
                       P6SM -RA OVC035 FM191500 17017G24KT P6SM
                       -RA OVC020 FM191800 18012G19KT P6SM -RA
                       OVC015=
201612182106 KSEA 182106Z 1821/1924 19004KT P6SM BKN035 BKN080 FM190600 17009KT
                       P6SM SCT035 OVC070 FM190800 17012G22KT P6SM
                       -RA OVC035 FM191500 18016G25KT P6SM -RA
                       OVC019 FM191800 18014G23KT P6SM -RA OVC015=
201612181738 TAF KSEA 181738Z 1818/1924 15006KT P6SM FEW010 SCT060 OVC100 FM182100
                       18006KT P6SM SCT035 OVC070 FM190600 17009KT
                       4SM BR OVC070
                      PROB30 1906/1908 P6SM -SN OVC050 FM190800
                       17012G22KT 6SM -RA BR OVC035 FM191500 18016G25KT
                       6SM -RA BR OVC019 FM191800 18014G23KT P6SM
                       -RA OVC015=
201612181437 KSEA 181437Z 1815/1918 12005KT P6SM VCSH SCT060 BKN110
                      TEMPO 1815/1817 BKN060 OVC110 FM181700 12005KT
                       P6SM VCSH FEW035 OVC060
                      TEMPO 1817/1821 -SHSN FM182100 16008KT P6SM
                       SCT035 OVC050 FM190600 17010KT 4SM -SN BR
                       OVC030 FM190800 17012KT 6SM -RA BR OVC035=
201612181320 KSEA 181320Z 1813/1918 13005KT P6SM FEW035 OVC060 FM181500 15006KT
                       P6SM VCSH BKN035 OVC060
                      TEMPO 1815/1819 -SHSN FM182100 16008KT P6SM
                       SCT035 OVC050 FM190600 17010KT 4SM -SN BR
                       OVC030 FM190800 17012KT 6SM -RA BR OVC035=
201612181127 TAF KSEA 181127Z 1812/1918 13005KT P6SM BKN070 BKN180 FM181500
                       15006KT P6SM OVC035 FM182100 16008KT P6SM
                       SCT035 OVC050 FM190600 17010KT 4SM -SN BR
                       OVC030 FM190800 17012KT 6SM -RA BR OVC035=
201612180900 KSEA 180900Z 1809/1912 13006KT P6SM BKN060 FM181500 15006KT P6SM
                       OVC035 FM182100 18006KT P6SM SCT035 OVC050=
201612180534 TAF KSEA 180534Z 1806/1912 06004KT P6SM BKN035 OVC050 FM180900
                       12004KT P6SM OVC035 FM181500 15006KT P6SM
                       OVC035
                      PROB30 1815/1821 5SM -SN FM182100 18006KT
                       P6SM SCT035 OVC050=
201612180306 KSEA 180306Z 1803/1906 00000KT P6SM SCT035 BKN060 FM180900 12004KT
                       P6SM OVC035 FM181500 15006KT P6SM OVC035
                       PROB30 1815/1820 5SM -SN=
201612172327 TAF KSEA 172327Z 1800/1906 03003KT P6SM BKN035 FM180600 10005KT
                       P6SM OVC035 FM180900 13004KT P6SM OVC035
                       FM181500 17006KT P6SM VCSH BKN045=
201612172048 KSEA 172048Z 1721/1824 36004KT P6SM VCSH OVC035 FM180000 09004KT
                       P6SM OVC035 FM180900 15005KT P6SM OVC035
                       FM181500 17006KT P6SM VCSH BKN050=
201612171738 TAF KSEA 171738Z 1718/1824 11007KT P6SM VCSH BKN080 FM172000 09005KT
                       P6SM VCSH BKN035 OVC050 FM180000 09004KT
                       P6SM OVC035 FM180900 15005KT P6SM OVC035
                       FM181500 17006KT P6SM VCSH BKN050=
201612171408 TAF AMD KSEA 171408Z 1714/1818 13008KT P6SM SCT060 BKN200 FM171500
                       14005KT P6SM VCSH OVC060 FM172000 10005KT
                       P6SM VCSH BKN035 OVC050 FM180000 06003KT
                       P6SM OVC035 FM180900 12005KT P6SM OVC035=
201612171120 TAF KSEA 171120Z 1712/1818 14006KT P6SM SCT070 BKN230 FM171500
                       14005KT P6SM OVC070 FM172000 10005KT P6SM
                       BKN035 OVC050 FM180000 06003KT P6SM OVC035
                       FM180900 12005KT P6SM OVC035=
201612170900 KSEA 170900Z 1709/1812 12006KT P6SM SCT240 FM171200 13005KT P6SM
                       BKN070 OVC200 FM172000 10005KT P6SM BKN035
                       OVC050 FM180000 06003KT P6SM OVC035=
201612170533 TAF KSEA 170533Z 1706/1812 00000KT P6SM SKC FM171200 13005KT P6SM
                       SCT100 BKN200 FM172000 10005KT P6SM BKN035
                       OVC050 FM180000 06003KT P6SM OVC035=
201612170324 KSEA 170324Z 1703/1806 06004KT P6SM SKC FM171200 13005KT P6SM SCT045
                       BKN100 FM171800 09005KT P6SM BKN025 OVC045=
201612162320 TAF KSEA 162320Z 1700/1806 02008KT P6SM FEW040 FEW250 FM170300
                       10006KT P6SM SKC FM171200 13005KT P6SM SCT045
                       BKN100 FM171800 09005KT P6SM BKN025 OVC045=
201612162102 TAF AMD KSEA 162102Z 1621/1724 02008KT P6SM FEW040 FM170300 10006KT
                       P6SM SKC FM171200 13005KT P6SM SCT045 BKN100
                       FM171800 09005KT P6SM SCT025 BKN045=
201612161730 TAF KSEA 161730Z 1618/1724 02008KT P6SM FEW060 FEW250 FM170300
                       10006KT P6SM SCT070 BKN250 FM171200 13005KT
                       P6SM SCT045 BKN100=
201612161412 KSEA 161412Z 1614/1718 02008KT P6SM FEW070 FM161800 36009KT P6SM
                       SKC FM170600 14005KT P6SM SCT200 FM171400
                       15006KT P6SM SCT045 BKN150=
201612161136 TAF KSEA 161136Z 1612/1718 03008KT P6SM FEW025 SCT060 FM161800
                       36009KT P6SM SKC FM170600 14005KT P6SM SCT200
                       FM171400 15006KT P6SM SCT045 BKN150=
201612160536 TAF KSEA 160536Z 1606/1712 03007KT P6SM SCT050 BKN070 FM161500
                       08004KT P6SM FEW015 SCT060 FM161900 36009KT
                       P6SM SKC FM170700 14005KT P6SM SCT200=
201612160308 KSEA 160308Z 1603/1706 03008KT P6SM SCT040 BKN080 FM161500 04008KT
                       P6SM SCT025 SCT040 FM161800 03010KT P6SM
                       SCT030=
201612152331 TAF KSEA 152331Z 1600/1706 03006KT P6SM BKN040 BKN080 FM161500
                       04008KT P6SM SCT025 SCT040 FM161800 03010KT
                       P6SM SCT030=
201612152111 KSEA 152111Z 1521/1624 03006KT P6SM BKN040 OVC080 FM160300 04005KT
                       P6SM SCT040 BKN080 FM160800 03010KT P6SM
                       SCT060=
201612151739 TAF KSEA 151739Z 1518/1624 03005KT P6SM BKN045 OVC080 FM152200
                       01005KT P6SM SCT050 SCT080 FM160800 02008KT
                       P6SM SCT060=
201612151521 KSEA 151521Z 1515/1618 03005KT P6SM BKN045 OVC070 FM152200 01005KT
                       P6SM SCT050 FM160600 04007KT P6SM BKN060=
201612151342 KSEA 151342Z 1514/1618 VRB03KT P6SM BKN045 OVC070 FM152100 01005KT
                       P6SM SCT045 BKN070 FM160000 01007KT P6SM
                       FEW070 FM160400 03009KT P6SM SKC=
201612151129 TAF KSEA 151129Z 1512/1618 08004KT P6SM SCT050 BKN070 OVC100 FM152200
                       36004KT P6SM SKC FM160400 03009KT P6SM SKC=
201612151001 KSEA 151001Z 1510/1612 08005KT P6SM SCT050 OVC070
                      TEMPO 1510/1511 -SN BKN050 OVC070 FM151500
                       09004KT P6SM SCT060 BKN100 FM152200 02006KT
                       P6SM SKC=
201612150732 KSEA 150732Z 1508/1612 04008KT P6SM SCT050 OVC080 FM151500 09004KT
                       P6SM SCT060 BKN100 FM152200 02006KT P6SM
                       SKC=
201612150539 TAF KSEA 150539Z 1506/1612 04008KT P6SM BKN050 OVC080
                      TEMPO 1506/1510 6SM -SN BR SCT020 OVC050
                       FM151500 09004KT P6SM SCT060 BKN100 FM152200
                       02006KT P6SM SKC=
201612150306 KSEA 150306Z 1503/1606 02011KT P6SM OVC080
                      TEMPO 1504/1506 -SN BKN040 OVC060 FM150600
                       05008KT P6SM OVC050
                      TEMPO 1506/1509 6SM -SN BR BKN030 OVC050
                       FM151500 05006KT P6SM SCT060 SCT120=
201612142341 TAF KSEA 142341Z 1500/1606 03012KT P6SM OVC150 FM150300 05010KT
                       P6SM OVC080
                      TEMPO 1504/1506 -SN BKN040 OVC060 FM150600
                       04008KT P6SM OVC060
                      TEMPO 1506/1510 -SN FM151500 05006KT P6SM
                       SCT060 SCT120=
201612142100 KSEA 142100Z 1421/1524 03012KT P6SM OVC200 FM150100 03014KT P6SM
                       OVC150 FM150400 05010KT P6SM OVC080
                      TEMPO 1504/1508 -SN BKN040 OVC060 FM150800
                       05007KT P6SM VCSH BKN050 OVC080 FM151000
                       05006KT P6SM OVC050=
201612141733 TAF KSEA 141733Z 1418/1524 01015KT P6SM BKN250 FM142000 03015G22KT
                       P6SM OVC200 FM150100 03014KT P6SM OVC150
                       FM150400 05010KT P6SM OVC080
                      TEMPO 1504/1508 -SN BKN040 OVC060 FM150800
                       05007KT P6SM VCSH BKN050 OVC080 FM151000
                       05006KT P6SM OVC050=
201612141558 KSEA 141558Z 1416/1518 01015KT P6SM OVC250 FM142000 03015G22KT
                       P6SM OVC200 FM150100 03014KT P6SM OVC150
                       FM150400 05010KT P6SM OVC080
                      TEMPO 1504/1508 -SN BKN040 OVC060 FM150800
                       05007KT P6SM VCSH BKN050 OVC080 FM151000
                       05006KT P6SM OVC050=
201612141405 KSEA 141405Z 1414/1518 02012KT P6SM BKN250 FM142000 04010KT P6SM
                       BKN200=
201612141122 TAF KSEA 141122Z 1412/1518 01011KT P6SM SCT250 FM141400 05012KT
                       P6SM SCT250 FM142000 04010KT P6SM BKN200=
201612140906 KSEA 140906Z 1409/1512 01013KT P6SM SKC FM141400 04009KT P6SM OVC120=
201612140531 TAF KSEA 140531Z 1406/1512 01011KT P6SM FEW018 FM141400 04009KT
                       P6SM OVC120=
201612140414 KSEA 140414Z 1404/1506 02011KT P6SM FEW018 FM140500 04008KT P6SM
                       SKC FM141400 04010KT P6SM SCT250=
201612132335 TAF KSEA 132335Z 1400/1506 01010KT P6SM OVC018 FM140300 02008KT
                       P6SM SCT020 FM140500 04008KT P6SM SKC FM141400
                       04010KT P6SM SCT250=
201612132104 KSEA 132104Z 1321/1424 02008KT P6SM SCT009 OVC017 FM132300 02009KT
                       P6SM SCT017 BKN030 FM140100 02008KT P6SM
                       SCT030 FM140300 03007KT P6SM SKC=
201612131951 KSEA 131951Z 1320/1424 02008KT P6SM SCT009 BKN020
                      TEMPO 1320/1321 BKN009 BKN020 FM132200 02009KT
                       P6SM SCT015 BKN030 FM140000 02008KT P6SM
                       SCT030 FM140300 03007KT P6SM SKC=
201612131742 TAF KSEA 131742Z 1318/1424 02007KT P6SM SCT008 BKN035
                      TEMPO 1318/1320 BKN008 BKN035 FM132000 02007KT
                       P6SM SCT015 BKN035 FM132200 02007KT P6SM
                       SCT035 FM140200 03007KT P6SM SKC=
201612131421 KSEA 131421Z 1314/1418 01010KT P6SM SCT009 OVC035
                      TEMPO 1314/1318 BKN008 OVC035 FM131800 03005KT
                       P6SM SCT012 BKN035 BKN050 FM132300 03008KT
                       P6SM SCT015 BKN040 FM140500 04008KT P6SM
                       SCT009 SCT250=
201612131126 TAF KSEA 131126Z 1312/1418 01009KT P6SM BKN006 BKN050
                      TEMPO 1314/1318 SCT006 BKN035 FM131800 03005KT
                       P6SM OVC012 FM132300 03008KT P6SM SCT015
                       BKN040 FM140500 04008KT P6SM SCT009 SCT250=
201612130907 KSEA 130907Z 1309/1412 02008KT 6SM BR BKN003 OVC030 FM131800 02004KT
                       P6SM OVC012 FM132300 02007KT P6SM SCT015
                       BKN040 FM140500 03006KT P6SM SCT009 SCT250=
201612130542 TAF KSEA 130542Z 1306/1412 03006KT 6SM BR VCSH BKN007 OVC025 FM130800
                       04004KT 5SM BR OVC009 FM132000 02004KT P6SM
                       OVC012 FM132300 02007KT P6SM SCT015 BKN040
                       FM140500 03006KT P6SM SCT009 SCT250=
201612130207 KSEA 130207Z 1302/1406 03006KT P6SM VCSH BKN015 BKN022
                      TEMPO 1302/1303 6SM -SHRA BKN008 OVC022 FM130800
                       08004KT P6SM BKN015 OVC030 FM131400 VRB03KT
                       P6SM OVC012 FM132200 02005KT P6SM SCT015
                       BKN040=
201612130032 KSEA 130032Z 1301/1406 36006KT P6SM VCSH SCT012 OVC022
                      TEMPO 1301/1303 6SM -SHRA BKN012 OVC022 FM130300
                       06004KT P6SM VCSH BKN015 OVC025 FM130800
                       08004KT P6SM BKN015 OVC030 FM131400 VRB03KT
                       P6SM OVC012 FM132200 02005KT P6SM SCT015
                       BKN040=
201612122343 TAF KSEA 122343Z 1300/1406 36006KT P6SM VCSH BKN010 OVC020
                      TEMPO 1300/1303 6SM -SHRA BKN007 OVC020 FM130300
                       06004KT P6SM VCSH BKN015 OVC025 FM130800
                       08004KT P6SM BKN015 OVC030 FM131400 VRB03KT
                       P6SM OVC012 FM132200 02005KT P6SM SCT015
                       BKN040=
201612122109 KSEA 122109Z 1221/1324 30005KT P6SM -SHRA BKN010 OVC020
                      TEMPO 1221/1224 2SM -SHRA BR BKN007 OVC020
                       FM130000 VRB05KT P6SM -SHRA BKN012 OVC025
                       FM130200 36006KT P6SM VCSH SCT012 OVC025
                       FM130400 02006KT P6SM VCSH SCT015 OVC030
                       FM130600 02006KT P6SM BKN035=
201612121748 TAF KSEA 121748Z 1218/1324 18010KT P6SM VCSH BKN010 OVC022 FM122000
                       20010KT P6SM VCSH SCT015 BKN020 OVC030 FM122200
                       VRB05KT P6SM -SHRA BKN015 OVC030 FM130200
                       36006KT 4SM -SHRASN SCT007 OVC012 FM130400
                       02006KT P6SM VCSH BKN010 OVC025 FM130600
                       02006KT P6SM BKN020 BKN030=
201612121545 KSEA 121545Z 1216/1318 18012KT P6SM VCSH SCT015 BKN023
                      TEMPO 1216/1218 -SHRA BKN010 BKN023 FM121800
                       20010KT P6SM VCSH SCT015 BKN025 OVC050 FM122100
                       23008KT P6SM -SHRA SCT015 OVC030 FM130000
                       36008KT 4SM SHRASN SCT007 OVC012 FM130300
                       02006KT 3SM -SHSN BKN007 OVC015 FM130600
                       02006KT P6SM VCSH BKN015 BKN030
                      PROB30 1306/1312 -SHSN=
201612121428 KSEA 121428Z 1214/1318 18012KT P6SM VCSH SCT015 BKN025
                      TEMPO 1214/1216 BKN015 BKN025 FM121800 20010KT
                       P6SM VCSH SCT015 BKN030 OVC050 FM122100
                       23008KT P6SM -SHRA SCT015 OVC030 FM130000
                       33008KT 5SM SHRASN FEW007 OVC015 FM130300
                       02006KT 3SM -SHSN BKN007 OVC015 FM130600
                       02006KT P6SM VCSH BKN015 BKN030
                      PROB30 1306/1312 -SHSN=
201612121410 KSEA 121410Z 1214/1318 17008KT P6SM VCSH SCT010 BKN025 FM121800
                       20009KT P6SM VCSH SCT015 BKN030 OVC050 FM122100
                       23008KT P6SM -SHRA SCT015 OVC030 FM130000
                       33008KT 5SM SHRASN FEW007 OVC015 FM130300
                       02006KT 3SM -SHSN BKN007 OVC015 FM130600
                       02006KT P6SM VCSH BKN015 BKN030
                      PROB30 1306/1312 -SHSN=
201612121145 TAF KSEA 121145Z 1212/1318 20009KT P6SM VCSH SCT015 BKN030 BKN050
                       TEMPO 1212/1214 20012G22KT BKN015 OVC030
                       FM121800 20009KT P6SM VCSH SCT015 BKN030
                       OVC050 FM122100 23008KT P6SM -SHRA SCT015
                       OVC030 FM130000 33008KT 5SM SHRASN FEW007
                       OVC015 FM130300 02006KT 3SM -SHSN BKN007
                       OVC015 FM130600 02006KT P6SM VCSH BKN015
                       BKN030
                      PROB30 1306/1312 -SHSN=
201612120915 KSEA 120915Z 1209/1312 18009KT P6SM VCSH SCT015 BKN035 BKN050
                      TEMPO 1209/1213 BKN015 OVC035 FM121800 19009KT
                       P6SM VCSH BKN040 BKN060
                      PROB30 1218/1221 -SHRA FM122100 23008KT P6SM
                       -SHRA SCT020 OVC040 FM130000 33008KT 5SM
                       SHRASN FEW007 OVC020 FM130300 02006KT 3SM
                       -SHSN BKN007 OVC020 FM130600 02006KT P6SM
                       FEW007 SCT020 BKN030=
201612120552 TAF KSEA 120552Z 1206/1312 17009KT P6SM VCSH SCT022 BKN035 BKN050
                       TEMPO 1206/1209 -SHRA BKN022 OVC040 FM121800
                       19009KT P6SM VCSH BKN040 BKN060
                      PROB30 1218/1221 -SHRA FM122100 23008KT P6SM
                       -SHRA SCT020 OVC040 FM130000 33008KT 5SM
                       SHRASN FEW007 OVC020 FM130300 02006KT 3SM
                       -SHSN BKN007 OVC020 FM130600 02006KT P6SM
                       FEW007 SCT020 BKN030=
201612120313 TAF AMD KSEA 120313Z 1203/1306 19013KT P6SM VCSH BKN018 OVC070
                       TEMPO 1203/1206 -SHRA FM121100 18008KT P6SM
                       BKN015 OVC030 FM122200 24007KT P6SM -SHRA
                       OVC015=
201612112333 TAF KSEA 112333Z 1200/1306 20014G21KT P6SM -SHRA OVC013 FM121100
                       18008KT P6SM BKN015 OVC030 FM122200 24007KT
                       P6SM -SHRA OVC015=
201612112119 KSEA 112119Z 1121/1224 20012G21KT P6SM -SHRA OVC014 FM120000 19008KT
                       P6SM VCSH BKN025 BKN050 FM121200 19008KT
                       P6SM SCT020 OVC035
                      PROB30 1214/1218 -SHRA=
201612111720 TAF KSEA 111720Z 1118/1224 18011KT P6SM -SHRA BKN013 OVC025 FM112100
                       18009KT P6SM -SHRA BKN025 OVC050 FM120000
                       19008KT P6SM VCSH BKN035 BKN060 FM121200
                       19008KT P6SM SCT020 OVC035
                      PROB30 1214/1218 -SHRA=
201612111601 KSEA 111601Z 1116/1218 20016KT P6SM -SHRA BKN015 BKN028 OVC090
                       FM111800 19010KT P6SM -SHRA BKN025 OVC040
                       FM120000 19008KT P6SM BKN035 BKN060 FM121200
                       19008KT P6SM SCT020 OVC035
                      PROB30 1214/1218 -SHRA=
201612111145 TAF KSEA 111145Z 1112/1218 19015KT P6SM -SHRA FEW018 BKN035 OVC060
                       TEMPO 1112/1116 19015G25KT FEW018 BKN030
                       OVC050 FM111600 19013KT P6SM -SHRA FEW018
                       BKN030 OVC050 FM111800 19010KT P6SM -SHRA
                       BKN025 OVC040 FM120000 19008KT P6SM BKN035
                       BKN060
                      PROB30 1200/1206 -SHRA FM121200 19008KT P6SM
                       SCT020 OVC035
                      PROB30 1214/1218 -SHRA=
201612110919 KSEA 110919Z 1109/1212 19013KT P6SM VCSH SCT018 BKN025 OVC050
                      TEMPO 1109/1112 19013G20KT -SHRA OVC018 FM111200
                       19010KT P6SM VCSH OVC018 FM111800 20009KT
                       P6SM -SHRA BKN025 OVC040 FM120000 20007KT
                       P6SM BKN035 BKN060
                      PROB30 1200/1206 -SHRA=
201612110614 KSEA 110614Z 1106/1212 19013KT P6SM VCSH SCT025 OVC050
                      TEMPO 1106/1109 19013G20KT -SHRA BKN025 OVC050
                       FM110900 19013KT P6SM VCSH SCT018 BKN025
                       OVC050
                      TEMPO 1109/1112 -SHRA OVC018 FM111200 19010KT
                       P6SM VCSH OVC018 FM111800 20009KT P6SM -SHRA
                       BKN025 OVC040 FM120000 20007KT P6SM BKN035
                       BKN060
                      PROB30 1200/1206 -SHRA=
201612110548 TAF KSEA 110548Z 1106/1212 19013G20KT P6SM VCSH FEW018 BKN025 OVC050
                       TEMPO 1106/1109 -SHRA OVC018 FM110900 19013KT
                       P6SM VCSH SCT018 BKN025 OVC050
                      TEMPO 1109/1112 -SHRA OVC018 FM111200 19010KT
                       P6SM VCSH OVC018 FM111800 20009KT P6SM -SHRA
                       BKN025 OVC040 FM120000 20007KT P6SM BKN035
                       BKN060
                      PROB30 1200/1206 -SHRA=
201612110408 KSEA 110408Z 1104/1206 19013KT P6SM VCSH FEW015 BKN035
                      TEMPO 1104/1106 -SHRA SCT015 OVC030 FM110600
                       19010KT P6SM VCSH OVC015 FM110900 18010KT
                       P6SM VCSH OVC025 FM111800 18008KT P6SM VCSH
                       BKN025 OVC035=
201612110302 KSEA 110302Z 1103/1206 19013KT P6SM VCSH SCT018 OVC030
                      TEMPO 1103/1106 -SHRA BKN018 OVC030 FM110600
                       19010KT P6SM VCSH OVC015 FM110900 18010KT
                       P6SM VCSH OVC025 FM111800 18008KT P6SM VCSH
                       BKN025 OVC035=
201612102338 TAF KSEA 102338Z 1100/1206 18010KT P6SM -SHRA SCT018 BKN025
                      TEMPO 1100/1104 OVC018 FM110400 19010KT P6SM
                       VCSH OVC015 FM110900 18010KT P6SM VCSH OVC025
                       FM111800 18008KT P6SM VCSH BKN025 OVC035=
201612101906 KSEA 101906Z 1019/1124 16010KT P6SM -RA SCT025 OVC035 FM102100
                       18012KT P6SM -SHRA BKN025 FM110600 19012KT
                       P6SM OVC025 FM110900 18010KT P6SM OVC025
                       FM111800 18010KT P6SM SCT025 OVC035=
201612101746 TAF KSEA 101746Z 1018/1124 15008KT 6SM -RA BR OVC025 FM102100 18012KT
                       P6SM -SHRA BKN025 FM110600 19012KT P6SM
                       OVC025 FM110900 18010KT P6SM OVC025 FM111800
                       18010KT P6SM SCT025 OVC035=
201612101622 KSEA 101622Z 1016/1118 15010KT P6SM SCT012 SCT030 OVC050 FM101800
                       18012KT 5SM -RA BR OVC025 FM102200 19013G20KT
                       P6SM -SHRA BKN025 OVC040 FM110600 19013KT
                       P6SM VCSH OVC025 FM110900 18010KT P6SM OVC025=
201612101357 KSEA 101357Z 1014/1118 17009KT P6SM SCT025 SCT050
                      TEMPO 1014/1016 BKN025 BKN050 FM101600 17009KT
                       P6SM VCSH BKN025 OVC050 FM101800 17011KT
                       6SM -SHRA BR OVC020 FM110300 19013G20KT
                       P6SM VCSH BKN025 OVC040
                      PROB30 1103/1109 -SHRA FM111200 19013KT P6SM
                       VCSH BKN030 OVC050=
201612101144 TAF KSEA 101144Z 1012/1118 17009KT P6SM SCT025 SCT050
                      TEMPO 1012/1016 BKN025 BKN050 FM101600 17009KT
                       P6SM VCSH BKN025 OVC050 FM101800 17011KT
                       6SM -SHRA BR OVC020 FM110300 19013G20KT
                       P6SM VCSH BKN025 OVC040
                      PROB30 1103/1109 -SHRA FM111200 19013KT P6SM
                       VCSH BKN030 OVC050=
201612100851 KSEA 100851Z 1009/1112 14009KT P6SM SCT009 BKN020 OVC035
                      TEMPO 1009/1012 -SHRA BKN009 OVC020 FM101800
                       17009KT P6SM -RA BKN020 OVC035 FM102100
                       17013KT 5SM -RA BR BKN020 OVC035 FM110300
                       19013KT P6SM BKN020 OVC035
                      PROB30 1103/1109 -SHRA=
201612100747 KSEA 100747Z 1008/1112 13010KT P6SM VCSH BKN015 OVC030
                      TEMPO 1008/1009 -SHRA FM100900 17009KT P6SM
                       BKN020 OVC035
                      TEMPO 1009/1012 -SHRA FM101800 17009KT P6SM
                       -RA BKN020 OVC035 FM102100 17013KT 5SM -RA
                       BR BKN020 OVC035 FM110300 19013KT P6SM BKN020
                       OVC035
                      PROB30 1103/1109 -SHRA=
201612100615 KSEA 100615Z 1006/1112 13009KT 4SM -RASN BR SCT008 OVC020
                      TEMPO 1006/1009 BKN008 OVC020 FM100900 17009KT
                       P6SM BKN020 OVC035
                      TEMPO 1009/1012 -SHRA FM101800 17009KT P6SM
                       -RA BKN020 OVC035 FM102100 17013KT 5SM -RA
                       BR BKN020 OVC035 FM110300 19013KT P6SM BKN020
                       OVC035
                      PROB30 1103/1109 -SHRA=
201612100543 TAF KSEA 100543Z 1006/1112 13009KT 4SM -RASN BR FEW008 OVC020 FM100900
                       17009KT P6SM BKN020 OVC035
                      TEMPO 1009/1012 -SHRA FM101800 17009KT P6SM
                       -RA BKN020 OVC035 FM102100 17013KT 5SM -RA
                       BR BKN020 OVC035 FM110300 19013KT P6SM BKN020
                       OVC035
                      PROB30 1103/1109 -SHRA=
201612100506 KSEA 100506Z 1005/1106 13009KT 5SM -RASN BR FEW013 OVC023 FM100700
                       18014G22KT P6SM -SHRA BKN025 OVC040 FM101500
                       17010KT P6SM SCT025 BKN035 OVC050 FM101900
                       17008KT P6SM SCT035 BKN050 FM102200 18008KT
                       P6SM -RA BKN025 OVC035=
201612100307 KSEA 100307Z 1003/1106 11013KT P6SM -RA OVC025
                      TEMPO 1003/1005 5SM -RASN BR OVC018 FM100500
                       12012G18KT 5SM -RASN BR OVC015 FM100700
                       18014G22KT P6SM -SHRA BKN025 OVC040 FM101500
                       17010KT P6SM SCT025 BKN035 OVC050 FM101900
                       17008KT P6SM SCT035 BKN050 FM102200 18008KT
                       P6SM -RA BKN025 OVC035=
201612092355 TAF KSEA 092355Z 1000/1106 11013G22KT P6SM -RASN BKN015 BKN025
                       OVC040
                      TEMPO 1000/1004 5SM -SN OVC012 FM100500 12012G18KT
                       5SM -RASN BR OVC015 FM100700 18014G22KT
                       P6SM -SHRA BKN025 OVC040 FM101500 17010KT
                       P6SM SCT025 BKN035 OVC050 FM101900 17008KT
                       P6SM SCT035 BKN050 FM102200 18008KT P6SM
                       -RA BKN025 OVC035=
201612092324 KSEA 092324Z 0923/1024 11013G22KT P6SM -RASN BKN015 BKN025 OVC040
                       TEMPO 1000/1004 5SM -SN OVC012 FM100500
                       12012G18KT 5SM -RASN BR OVC015 FM100900
                       18014G22KT P6SM -SHRA BKN025 OVC040 FM101500
                       17010KT P6SM SCT025 BKN035 OVC050 FM101900
                       17008KT P6SM SCT035 SCT050=
201612091835 KSEA 091835Z 0919/1024 13010KT 6SM -RA BKN015 OVC030 FM092100 13012KT
                       P6SM -RA BKN025 OVC040 FM100400 14012KT
                       5SM -RA BR OVC015 FM100900 19014G22KT P6SM
                       -SHRA BKN025 OVC040 FM101500 17010KT P6SM
                       SCT025 BKN035 OVC050 FM101900 17008KT P6SM
                       SCT035 SCT050=
201612091732 TAF KSEA 091732Z 0918/1024 11013G20KT P6SM -RA BKN022 OVC030 FM092100
                       13012KT P6SM -RA BKN025 OVC040 FM100400
                       14012KT 5SM -RA BR OVC015 FM100900 19014G22KT
                       P6SM -SHRA BKN025 OVC040 FM101500 17010KT
                       P6SM SCT025 BKN035 OVC050 FM101900 17008KT
                       P6SM SCT035 SCT050=
201612091404 KSEA 091404Z 0914/1018 11010KT P6SM -RA BKN020 OVC030
                      TEMPO 0914/0916 3SM -RASN BR OVC020 FM100300
                       17011KT 6SM -RA BR BKN020 OVC040 FM100900
                       19009KT P6SM BKN025 OVC040
                      PROB30 1009/1015 -SHRA FM101500 17007KT P6SM
                       SCT022 BKN035 OVC050
                      PROB30 1015/1018 -RA=
201612091149 TAF KSEA 091149Z 0912/1018 11006KT P6SM -SN SCT015 OVC030
                      TEMPO 0912/0915 3SM -SN BKN015 OVC030 FM091500
                       13008KT 6SM -RASN BR SCT015 OVC030 FM091700
                       13008KT 6SM -RA BR BKN015 OVC030 FM100300
                       17011KT 6SM -RA BR BKN020 OVC040 FM100900
                       19009KT P6SM BKN025 OVC040
                      PROB30 1009/1015 -SHRA FM101500 17007KT P6SM
                       SCT022 BKN035 OVC050
                      PROB30 1015/1018 -RA=
201612090905 KSEA 090905Z 0909/1012 12008KT 3SM -SN SCT015 OVC025
                      TEMPO 0909/0912 1 1/2SM -SN FM091500 14008KT
                       5SM -RASN BR BKN015 OVC030 FM091800 16008KT
                       5SM -RA BR BKN015 OVC030 FM100600 18011KT
                       P6SM -SHRA BKN020 OVC040 FM100900 20011KT
                       P6SM BKN025 OVC040
                      PROB30 1009/1012 -SHRA=
201612090732 KSEA 090732Z 0908/1012 10010KT 3SM -SN SCT015 OVC025
                      TEMPO 0908/0912 1 1/2SM -SN FM091500 14008KT
                       5SM -RASN BR BKN015 OVC030 FM091800 16008KT
                       5SM -RA BR BKN015 OVC030 FM100600 18011KT
                       P6SM -SHRA BKN020 OVC040 FM100900 20011KT
                       P6SM BKN025 OVC040
                      PROB30 1009/1012 -SHRA=
201612090620 KSEA 090620Z 0906/1012 08010KT 2SM -SN SCT005 OVC013
                      TEMPO 0906/0910 3/4SM -SN VV005 FM091500
                       14008KT 5SM -RASN BR BKN015 OVC030 FM091800
                       16008KT 5SM -RA BR BKN015 OVC030 FM100600
                       18011KT P6SM -SHRA BKN020 OVC040 FM100900
                       20011KT P6SM BKN025 OVC040
                      PROB30 1009/1012 -SHRA=
201612090544 TAF KSEA 090544Z 0906/1012 11013KT 2SM -SN SCT005 OVC013
                      TEMPO 0907/0911 1/2SM SN VV005 FM091500 14008KT
                       5SM -RASN BR BKN015 OVC030 FM091800 16008KT
                       5SM -RA BR BKN015 OVC030 FM100600 18011KT
                       P6SM -SHRA BKN020 OVC040 FM100900 20011KT
                       P6SM BKN025 OVC040
                      PROB30 1009/1012 -SHRA=
201612090342 KSEA 090342Z 0904/1006 11013KT 3SM -SN SCT020 OVC035
                      TEMPO 0904/0906 1SM -SN BKN020 OVC035 FM090600
                       11013KT 1SM -SN SCT008 OVC020
                      TEMPO 0906/0908 3/4SM -SN BR OVC008 FM090900
                       13011G19KT 5SM -RASN SCT015 OVC030 FM091000
                       14010KT P6SM -RA BKN020 OVC035 FM100400
                       18011KT P6SM -RA BKN012 OVC025=
201612090314 KSEA 090314Z 0903/1006 09013KT P6SM -SN SCT022 OVC050
                      TEMPO 0903/0905 4SM -SN BKN022 OVC050 FM090500
                       11015G25KT 2SM -SN SCT008 OVC022
                      TEMPO 0905/0907 3/4SM -SN BR OVC008 FM090900
                       13011G19KT 5SM -RASN SCT015 OVC030 FM091000
                       14010KT P6SM -RA BKN020 OVC035 FM100400
                       18011KT P6SM -RA BKN012 OVC025=
201612082337 TAF KSEA 082337Z 0900/1006 09015G25KT P6SM SCT050 BKN100 OVC200
                       TEMPO 0900/0904 6SM -SN FM090400 11015G25KT
                       3SM -SN SCT015 OVC035
                      TEMPO 0904/0907 3/4SM -SN BR SCT008 OVC015
                       FM090800 13011G19KT 5SM -RASN SCT015 OVC030
                       FM091000 14010KT P6SM -RA BKN020 OVC035
                       FM100400 18011KT P6SM -RA BKN012 OVC025=
201612082119 KSEA 082119Z 0821/0924 08016G25KT P6SM SCT150 BKN200 FM082300 10015G25KT
                       P6SM BKN120 OVC200 FM090300 11015G25KT P6SM
                       -SN SCT040 OVC060 FM090500 12012G22KT 4SM
                       -SN SCT030 OVC045
                      TEMPO 0905/0907 1SM -SN SCT008 BKN030 FM090700
                       13011G19KT 5SM -RASN BKN035 OVC050 FM090900
                       14010KT P6SM -RA BKN030 OVC045=
201612081739 TAF KSEA 081739Z 0818/0924 08016G25KT P6SM BKN200 FM082300 10015G25KT
                       P6SM BKN120 OVC200 FM090300 11015G25KT P6SM
                       -SN SCT040 OVC060 FM090500 12012G22KT 4SM
                       -SN SCT030 OVC045
                      TEMPO 0905/0907 1SM -SN SCT008 BKN030 FM090700
                       13011G19KT 5SM -RASN BKN035 OVC050 FM090900
                       14010KT P6SM -RA BKN030 OVC045=
201612081401 KSEA 081401Z 0814/0918 07015G25KT P6SM BKN200 FM081800 05015G25KT
                       P6SM SCT130 OVC200 FM082100 05015G25KT P6SM
                       FEW070 OVC130 FM090300 09012G22KT P6SM -SN
                       SCT022 OVC050 FM090500 09012KT 2SM -SN SCT005
                       OVC022
                      TEMPO 0905/0909 3/4SM -SN OVC005 FM091000
                       12008KT 5SM -RA BR SCT012 OVC025=
201612081134 TAF KSEA 081134Z 0812/0918 07015G25KT P6SM BKN200 FM081800 05015G25KT
                       P6SM SCT130 OVC200 FM082100 05015G25KT P6SM
                       FEW070 OVC130 FM090300 09012G22KT P6SM -SN
                       SCT022 OVC050 FM090500 09012KT 2SM -SN SCT005
                       OVC022
                      TEMPO 0905/0909 3/4SM -SN OVC005 FM091000
                       12010KT 5SM -RA BR SCT012 OVC025=
201612080950 KSEA 080950Z 0810/0912 07015G25KT P6SM BKN200 FM081800 05013G23KT
                       P6SM SCT130 OVC200 FM082100 05015G25KT P6SM
                       SCT050 OVC130 FM090300 09012G22KT P6SM -SN
                       SCT022 OVC050 FM090500 09012KT 2SM -SN SCT005
                       OVC022
                      TEMPO 0905/0909 3/4SM -SN OVC005 FM091000
                       12010KT 6SM -RA BR SCT015 OVC030=
201612080725 KSEA 080725Z 0807/0912 06013G22KT P6SM BKN200 FM081800 05013G23KT
                       P6SM SCT130 OVC200 FM082100 05015G25KT P6SM
                       SCT050 OVC130 FM090300 09012G22KT P6SM -SN
                       SCT022 OVC050 FM090500 09012KT 2SM -SN SCT005
                       OVC022
                      TEMPO 0905/0909 3/4SM -SN OVC005 FM091000
                       12010KT 6SM -RA BR SCT015 OVC030=
201612080716 KSEA 080716Z 0807/0912 05013G22KT P6SM BKN200 FM081800 05013G23KT
                       P6SM SCT130 OVC200 FM082100 05015G25KT P6SM
                       SCT050 OVC130 FM090300 09012G22KT P6SM -SN
                       SCT022 OVC050 FM090500 09012KT 2SM -SN SCT005
                       OVC022
                      TEMPO 0905/0909 3/4SM -SN OVC005 FM091000
                       12010KT 6SM -RA BR SCT015 OVC030=
201612080542 TAF KSEA 080542Z 0806/0912 05013KT P6SM BKN200 FM081800 05013G23KT
                       P6SM SCT130 OVC200 FM082100 05015G25KT P6SM
                       SCT050 OVC130 FM090300 09012G22KT P6SM -SN
                       SCT022 OVC050 FM090500 09012KT 2SM -SN SCT005
                       OVC022
                      TEMPO 0905/0909 3/4SM -SN OVC005 FM091000
                       12010KT 6SM -RA BR SCT015 OVC030=
201612080304 KSEA 080304Z 0803/0906 05013KT P6SM BKN200 FM081600 10015G25KT
                       P6SM SCT150 BKN200 FM082300 11017G26KT P6SM
                       BKN060 OVC090 FM090200 11015G22KT 4SM -SN
                       BR OVC050=
201612072339 TAF KSEA 072339Z 0800/0906 07012G20KT P6SM SCT200 FM081600 10015G25KT
                       P6SM SCT150 BKN200 FM082300 11017G26KT P6SM
                       BKN060 OVC090 FM090200 11015G22KT 4SM -SN
                       BR OVC050=
201612072032 KSEA 072032Z 0721/0824 01009KT P6SM SKC FM080300 07011G20KT P6SM
                       SCT200 FM081700 10015G24KT P6SM SCT150 BKN200
                       FM082300 11017G26KT P6SM VCSH BKN060 OVC090=
201612071739 TAF KSEA 071739Z 0718/0824 03010KT P6SM SKC FM080300 07011G20KT
                       P6SM SCT200 FM081700 10015G24KT P6SM SCT150
                       BKN200 FM082300 11017G26KT P6SM VCSH BKN060
                       OVC090=
201612071417 KSEA 071417Z 0714/0818 04008KT P6SM FEW070 FM071800 04010KT P6SM
                       SKC FM080300 07014G22KT P6SM SKC FM081200
                       05012KT P6SM SKC=
201612071125 TAF KSEA 071125Z 0712/0818 05006KT P6SM FEW070 FM071800 04010KT
                       P6SM SKC FM080300 07014G22KT P6SM SKC FM081200
                       05012KT P6SM SKC=
201612070525 TAF KSEA 070525Z 0706/0812 02004KT P6SM BKN070 FM070900 04010KT
                       P6SM BKN250 FM071800 04010KT P6SM SKC=
201612070300 KSEA 070300Z 0703/0806 07005KT P6SM BKN080 FM070600 04006KT P6SM
                       SKC FM071800 04010KT P6SM SKC=
201612062337 TAF KSEA 062337Z 0700/0806 01009KT P6SM SKC FM070400 04006KT P6SM
                       SKC FM071800 04010KT P6SM SKC=
201612062112 KSEA 062112Z 0621/0724 01010KT P6SM SKC FM070400 04006KT P6SM SKC=
201612061730 TAF KSEA 061730Z 0618/0724 02008KT P6SM FEW005 FM062000 20008KT
                       P6SM SKC FM070400 04006KT P6SM SKC=
201612061331 KSEA 061331Z 0614/0718 02006KT P6SM FEW005 SCT010 BKN045 FM061800
                       01008KT P6SM SCT050 BKN250 FM070300 03005KT
                       P6SM SCT250=
201612061130 TAF KSEA 061130Z 0612/0718 02005KT 2SM BR BKN001 OVC035
                      TEMPO 0612/0613 1/2SM FG VV001 FM061400 02006KT
                       P6SM SCT010 BKN045 FM061800 01008KT P6SM
                       SCT050 BKN250 FM070300 03005KT P6SM SCT250=
201612061046 KSEA 061046Z 0611/0712 02005KT 1/2SM FG VV001
                      TEMPO 0611/0615 3SM BR BKN006 FM061500 02006KT
                       P6SM SCT010 BKN045
                      TEMPO 0615/0616 4SM BR BKN010 FM061800 01008KT
                       P6SM SCT050 BKN250 FM070300 03005KT P6SM
                       SCT250=
201612060900 KSEA 060900Z 0609/0712 00000KT P6SM VCSH FEW023 SCT070 BKN120 FM061200
                       08005KT P6SM SCT018 BKN045
                      TEMPO 0612/0615 4SM BR BKN018 FM061600 03005KT
                       P6SM OVC100 FM062000 02006KT P6SM BKN250=
201612060530 TAF KSEA 060530Z 0606/0712 12007KT P6SM VCSH FEW009 SCT030 BKN070
                       TEMPO 0606/0610 SCT009 BKN025 FM061000 08005KT
                       P6SM SCT018 BKN045
                      TEMPO 0610/0614 4SM BR BKN018 FM061600 03005KT
                       P6SM OVC100 FM062000 02006KT P6SM BKN250=
201612060300 TAF AMD KSEA 060300Z 0603/0706 14005KT P6SM VCSH FEW008 BKN027
                       OVC190 FM060900 04005KT P6SM BKN008 OVC015
                       FM061600 03007KT P6SM SCT020 BKN035 FM062000
                       02007KT P6SM SCT050=
201612052354 TAF KSEA 052354Z 0600/0706 14006KT P6SM VCSH BKN018 OVC028 FM060900
                       04005KT P6SM BKN008 OVC015 FM061600 03007KT
                       P6SM SCT020 BKN035 FM062000 02007KT P6SM
                       SCT050=
201612052105 TAF AMD KSEA 052105Z 0521/0624 17008KT P6SM BKN009 OVC015 FM060000
                       14005KT P6SM VCSH BKN015 OVC025 FM060300
                       10005KT P6SM BKN020 OVC030 FM061100 05005KT
                       P6SM SCT030 BKN050=
201612051746 TAF KSEA 051746Z 0518/0624 16008KT 6SM -SHRA BR SCT005 OVC012
                      TEMPO 0518/0520 1SM -SHSN BR BKN005 OVC012
                       FM052000 17008KT P6SM SCT007 BKN012 OVC020
                       TEMPO 0520/0524 5SM -SHRA BR BKN007 OVC012
                       FM060000 12004KT P6SM VCSH BKN015 BKN025
                       FM060300 07004KT P6SM BKN025=
201612051627 KSEA 051627Z 0516/0618 17010KT 3SM -SHRA BR SCT006 OVC014
                      TEMPO 0516/0519 1/2SM -SHSN FG BKN004 OVC012
                       FM051900 17010KT P6SM BKN020 OVC030
                      TEMPO 0520/0524 5SM -SHRA BR FM060000 16006KT
                       P6SM SCT020 OVC035
                      TEMPO 0600/0604 5SM -SN BKN010 OVC030 FM060600
                       03008KT P6SM SCT030 BKN080=
201612051527 KSEA 051527Z 0515/0618 17010KT 5SM -SHRA BR SCT008 OVC014
                      TEMPO 0515/0519 1SM -SHSN BR BKN006 OVC012
                       FM051900 17010KT P6SM BKN020 OVC030
                      TEMPO 0520/0524 5SM -SHRA BR FM060000 16006KT
                       P6SM SCT020 OVC035
                      TEMPO 0600/0604 5SM -SN BKN010 OVC030 FM060600
                       03008KT P6SM SCT030 BKN080=
201612051414 KSEA 051414Z 0514/0618 17010KT P6SM SCT020 BKN060
                      TEMPO 0516/0519 5SM -SHSN BR BKN020 OVC060
                       FM051900 17010KT P6SM BKN020 OVC030
                      TEMPO 0520/0524 5SM -SHRASN FM060000 16006KT
                       P6SM SCT020 OVC035
                      TEMPO 0600/0604 5SM -SN BKN010 OVC030 FM060600
                       03008KT P6SM SCT030 BKN080=
201612051140 TAF KSEA 051140Z 0512/0618 17010KT P6SM BKN015 OVC020 FM051300
                       17010KT P6SM -SHRASN OVC015
                      TEMPO 0513/0517 2SM -SHSN BR OVC008 FM051800
                       17010KT P6SM BKN018 OVC030
                      TEMPO 0520/0524 4SM -SHRASN BR OVC015 FM060000
                       16006KT P6SM SCT020 OVC035
                      TEMPO 0600/0604 5SM -SN BKN010 OVC030 FM060600
                       03008KT P6SM SCT030 BKN080=
201612050905 KSEA 050905Z 0509/0612 18012KT P6SM VCSH SCT015 BKN060
                      TEMPO 0509/0512 BKN050 OVC110 FM051200 16006KT
                       P6SM -SHRASN OVC015 FM051400 16005KT 4SM
                       -SHSN BR OVC010 FM051800 16005KT 4SM -SHRASN
                       BR OVC015 FM060300 02005KT 5SM -SN BR BKN010
                       OVC030=
201612050530 TAF KSEA 050530Z 0506/0612 17010KT P6SM VCSH SCT050 OVC110
                      TEMPO 0508/0512 BKN050 OVC110 FM051200 16006KT
                       P6SM -SHRASN OVC015 FM051400 16005KT 4SM
                       -SHSN BR OVC010 FM051800 16005KT 4SM -SHRASN
                       BR OVC015 FM060300 02005KT 5SM -SN BR BKN010
                       OVC030=
201612050310 KSEA 050310Z 0503/0606 12010KT P6SM VCSH FEW040 FEW060 BKN080 FM051200
                       16006KT P6SM -SHRASN OVC015 FM051400 16005KT
                       4SM -SHSN BR OVC010 FM051800 16005KT 4SM
                       -SHRASN BR OVC015 FM060300 02005KT 5SM -SN
                       BR BKN010 OVC030=
201612042329 TAF KSEA 042329Z 0500/0606 22007KT P6SM VCSH SCT020 FM050200 18007KT
                       P6SM SCT030 BKN080 FM051200 16006KT P6SM
                       -SHRASN OVC015 FM051400 16005KT 4SM -SHSN
                       BR OVC010 FM051800 16005KT 4SM -SHRASN BR
                       OVC015 FM060300 02005KT 5SM -SN BR BKN010
                       OVC030=
201612042102 KSEA 042102Z 0421/0524 VRB03KT P6SM VCSH SCT012 SCT020 BKN050
                      TEMPO 0421/0422 BKN020 BKN050 FM050200 18007KT
                       P6SM SCT030 BKN080 FM050800 16006KT P6SM
                       -SHRASN OVC015 FM051400 16005KT 4SM -SHSN
                       BR OVC010=
201612041915 KSEA 041915Z 0419/0524 VRB06KT P6SM VCSH SCT020 BKN050 FM050200
                       18007KT P6SM SCT030 BKN080 FM050800 16006KT
                       P6SM -SHRASN OVC015 FM051400 16005KT 4SM
                       -SHSN BR OVC010=
201612041741 TAF KSEA 041741Z 0418/0524 11006KT 5SM -SHRA BR FEW007 BKN011 OVC018
                       FM042000 VRB06KT P6SM VCSH SCT018 BKN050
                       TEMPO 0420/0422 -SHRA BKN018 OVC035 FM050200
                       18007KT P6SM SCT030 BKN080 FM050800 16006KT
                       P6SM -SHRASN OVC015 FM051400 16005KT 4SM
                       -SHSN BR OVC010=
201612041409 KSEA 041409Z 0414/0518 05008KT P6SM -SHRA SCT006 OVC012
                      TEMPO 0414/0416 4SM -SHRA FM041600 23012KT
                       P6SM -SHRA SCT006 OVC012 FM042000 29011KT
                       P6SM VCSH SCT018 BKN050 FM050200 18007KT
                       P6SM SCT030 BKN080 FM050800 16006KT P6SM
                       -SHSN OVC015=
201612041125 TAF KSEA 041125Z 0412/0518 25010KT P6SM VCSH BKN011 OVC070 FM041600
                       23013G20KT P6SM -SHRA OVC014 FM042000 29011KT
                       P6SM VCSH SCT018 BKN030 BKN050 FM050200
                       18007KT P6SM SCT030 BKN080 FM050800 16006KT
                       P6SM -SHSN OVC015=
201612040925 KSEA 040925Z 0409/0512 22013G21KT P6SM -RA BKN014 BKN050 OVC070
                       FM041500 32010KT P6SM -SHRA BKN015 OVC025
                       FM041800 VRB05KT P6SM VCSH SCT015 BKN025
                       FM042200 29011KT P6SM VCSH SCT025 BKN060
                       FM050600 18008KT P6SM -SHSN SCT020 BKN045
                       OVC070=
201612040530 TAF KSEA 040530Z 0406/0512 22016G24KT P6SM -RA BKN013 OVC022
                      TEMPO 0406/0410 4SM -RA BR FM041000 25010KT
                       P6SM -RA BKN015 OVC025 FM041500 32010KT
                       P6SM -SHRA BKN015 OVC025 FM041800 VRB05KT
                       P6SM VCSH SCT015 BKN025 FM042200 29011KT
                       P6SM VCSH SCT025 BKN060 FM050600 18008KT
                       P6SM -SHSN SCT020 BKN045 OVC070=
201612040102 KSEA 040102Z 0401/0506 18012G19KT P6SM VCSH SCT010 BKN017 OVC035
                       FM040400 20013G20KT 6SM -RA BKN016 OVC035
                       FM040700 20015G22KT 4SM -RA BKN013 OVC025
                       FM041000 25010KT P6SM -SHRA BKN015 OVC025
                       FM041500 32010KT P6SM -SHRA BKN015 OVC025
                       FM041800 VRB05KT P6SM VCSH SCT015 BKN025=
201612032330 TAF KSEA 032330Z 0400/0506 21013G19KT P6SM SCT030 BKN070 OVC170
                       FM040400 20013G20KT 6SM -RA BKN022 OVC035
                       FM040700 20015G22KT 4SM -RA BKN013 OVC025
                       FM041000 25010KT P6SM -SHRA BKN015 OVC025
                       FM041500 32010KT P6SM -SHRA BKN015 OVC025
                       FM041800 VRB05KT P6SM VCSH SCT015 BKN025=
201612032100 KSEA 032100Z 0321/0424 20012KT P6SM SCT020 BKN050 OVC200 FM040300
                       20013G20KT P6SM -RA BKN022 OVC035 FM041200
                       25010KT P6SM -SHRA BKN015 OVC025 FM041600
                       32010KT P6SM -SHRA BKN015 OVC025=
201612031947 KSEA 031947Z 0320/0424 21015G22KT P6SM SCT020 BKN080 OVC200 FM040300
                       20013G20KT P6SM -RA BKN022 OVC035 FM041200
                       25010KT P6SM -SHRA BKN015 OVC025 FM041600
                       32010KT P6SM -SHRA BKN015 OVC025=
201612031729 TAF KSEA 031729Z 0318/0424 17010KT P6SM VCSH BKN017 BKN050 FM032000
                       17012KT P6SM SCT020 BKN050 FM040300 20011KT
                       P6SM -RA BKN022 OVC035 FM040600 21013G20KT
                       P6SM -RA OVC015 FM041300 25010KT P6SM -SHRA
                       BKN015 OVC025 FM041600 32010KT P6SM -SHRA
                       BKN015 OVC025=
201612031402 KSEA 031402Z 0314/0418 19010KT P6SM VCSH BKN015 BKN025 FM031600
                       19010KT P6SM VCSH BKN022 OVC040
                      TEMPO 0320/0324 SCT022 BKN040 FM040300 20011KT
                       P6SM -RA BKN022 OVC035=
201612031135 TAF KSEA 031135Z 0312/0418 21012KT P6SM VCSH BKN015 FM031600 19010KT
                       P6SM VCSH BKN022 OVC040
                      TEMPO 0320/0324 SCT022 BKN040 FM040300 20011KT
                       P6SM -RA BKN022 OVC035=
201612030535 TAF KSEA 030535Z 0306/0412 19010G18KT P6SM VCSH OVC015 FM030800
                       20010KT P6SM VCSH OVC012=
201612030230 KSEA 030230Z 0303/0406 21016G24KT 6SM -RA OVC006 FM030400 19010KT
                       P6SM VCSH SCT020 BKN035 FM030800 20010KT
                       P6SM VCSH OVC012=
201612030046 KSEA 030046Z 0301/0406 18005KT 2SM -RA BR BKN005 OVC013 FM030200
                       19012KT P6SM VCSH SCT020 BKN035 FM030500
                       19010KT P6SM SCT020 BKN035=
201612022332 TAF KSEA 022332Z 0300/0406 18009KT 4SM -RA BR OVC020 FM030100 19012G17KT
                       P6SM VCSH SCT020 OVC035 FM030500 19010KT
                       P6SM SCT020 BKN035=
201612022241 KSEA 022241Z 0223/0324 17012KT 5SM -RA FEW015 BKN028 OVC040 FM030000
                       19011G20KT P6SM -SHRA SCT025 BKN040 FM030500
                       20011KT P6SM VCSH SCT020 BKN035=
201612022113 KSEA 022113Z 0221/0324 18013KT P6SM BKN050 OVC090
                      TEMPO 0222/0301 -RA FM030100 19011G20KT P6SM
                       -SHRA SCT025 BKN040 FM030500 20011KT P6SM
                       VCSH SCT020 BKN035=
201612021735 TAF KSEA 021735Z 0218/0324 17008KT P6SM -RA FEW025 OVC040 FM022000
                       17013G25KT P6SM -RA SCT021 OVC035
                      TEMPO 0222/0301 BKN021 OVC035 FM030100 19011G20KT
                       P6SM SCT025 BKN040
                      TEMPO 0301/0305 -SHRA BKN025 BKN040 FM030500
                       20011KT P6SM VCSH SCT020 BKN035=
201612021402 KSEA 021402Z 0214/0318 17008KT P6SM -RA SCT025 BKN035 OVC050 FM021900
                       17010KT P6SM -RA BKN021 OVC035
                      TEMPO 0221/0301 SCT030 OVC050 FM030300 19010KT
                       P6SM VCSH BKN020 OVC040 FM030900 20011KT
                       P6SM VCSH OVC015=
201612021158 TAF KSEA 021158Z 0212/0318 17006KT P6SM VCSH OVC040 FM021400 17010KT
                       P6SM -RA BKN021 OVC035
                      TEMPO 0221/0301 SCT030 OVC050 FM030300 19010KT
                       P6SM VCSH BKN020 OVC040 FM030900 20011KT
                       P6SM VCSH OVC015=
201612020900 KSEA 020900Z 0209/0312 16006KT P6SM VCSH BKN020 OVC028
                      TEMPO 0210/0214 OVC013 FM021400 17010KT P6SM
                       -RA BKN018 OVC030 FM021900 18014G22KT P6SM
                       -RA BKN025 OVC035
                      TEMPO 0221/0301 SCT030 OVC050 FM030300 19010KT
                       P6SM VCSH BKN020 OVC040 FM030900 20011KT
                       P6SM VCSH OVC015=
201612020525 TAF KSEA 020525Z 0206/0312 14008KT P6SM VCSH OVC018
                      TEMPO 0209/0213 OVC010 FM021400 17010KT P6SM
                       -RA BKN018 OVC030 FM021900 18014G22KT P6SM
                       -RA BKN025 OVC035
                      TEMPO 0221/0301 SCT030 OVC050 FM030300 19010KT
                       P6SM VCSH BKN020 OVC040 FM030900 20011KT
                       P6SM VCSH OVC015=
201612020306 KSEA 020306Z 0203/0306 16008KT P6SM VCSH BKN012 OVC023
                      TEMPO 0203/0206 SCT012 BKN023 OVC030 FM020900
                       16006KT P6SM OVC012 FM021400 17010KT P6SM
                       -RA BKN025 OVC035=
201612012320 TAF KSEA 012320Z 0200/0306 18006KT P6SM VCSH FEW015 BKN025 OVC060
                       TEMPO 0200/0204 BKN020 FM021400 17010KT
                       P6SM -RA BKN025 OVC035=
201612012101 KSEA 012101Z 0121/0224 18006KT P6SM BKN017 OVC080 FM020800 17006KT
                       P6SM BKN020 OVC030 FM021400 17010KT P6SM
                       -RA BKN025 OVC035=
201612011730 TAF KSEA 011730Z 0118/0224 18006KT P6SM SCT015 BKN080
                      TEMPO 0118/0120 BKN012 FM012000 20006KT P6SM
                       SCT025 BKN035 BKN080 FM020300 17006KT P6SM
                       SCT020 BKN030 OVC045 FM020800 17006KT P6SM
                       BKN020 OVC030 FM021400 17010KT P6SM -RA
                       BKN025 OVC035=
201612011402 KSEA 011402Z 0114/0218 18006KT P6SM OVC012 FM011700 18006KT P6SM
                       SCT015 BKN050 FM012100 20006KT P6SM SCT025
                       BKN035 OVC060 FM020300 17006KT P6SM SCT020
                       BKN030 OVC045 FM020800 17006KT P6SM BKN020
                       OVC030 FM021600 17010KT P6SM -RA BKN025
                       OVC035=
201612011127 TAF KSEA 011127Z 0112/0218 18006KT P6SM BKN020 OVC035 FM012100
                       20006KT P6SM SCT025 BKN035 OVC060 FM020300
                       17006KT P6SM SCT020 BKN030 OVC045 FM020800
                       17006KT P6SM BKN020 OVC030 FM021600 17010KT
                       P6SM -RA BKN025 OVC035=
201612010944 KSEA 010944Z 0110/0212 18006KT P6SM BKN020 OVC035 FM012100 21006KT
                       P6SM SCT025 BKN035 OVC060 FM020300 17006KT
                       P6SM SCT020 BKN030 OVC045 FM020800 17006KT
                       P6SM BKN020 OVC030=
201612010527 TAF KSEA 010527Z 0106/0212 19008KT P6SM SCT020 BKN035
                      TEMPO 0106/0110 BKN020 BKN030 FM011000 18006KT
                       P6SM BKN020 OVC035 FM012100 21006KT P6SM
                       SCT025 BKN035 OVC060 FM020300 17006KT P6SM
                       SCT020 BKN030 OVC045 FM020800 17006KT P6SM
                       BKN020 OVC030=
201612010203 KSEA 010203Z 0102/0206 21008KT P6SM VCSH SCT022 BKN040 OVC070
                      TEMPO 0102/0106 -SHRA BKN025 OVC040 FM010600
                       19008KT P6SM BKN025 BKN040 FM011200 18006KT
                       P6SM BKN020 OVC035=
201612010118 KSEA 010118Z 0101/0206 21008KT P6SM VCSH SCT025 BKN040 BKN100 FM010600
                       19008KT P6SM BKN025 BKN040 FM011200 18006KT
                       P6SM BKN020 OVC035=