##########################################################
# Query made at 02/17/2025 20:06:38 UTC
# Time interval: from 05/01/2017 00:00  to 05/31/2017 23:59  UTC
##########################################################

##########################################################
# KSEA, Seattle, Seattle-Tacoma International Airport (United States)
# WMO index: 72793. WIGOS ID: 0-20000-0-72793
# Latitude 47-27-00N. Longitude 122-17-59W. Altitude 130 m.
##########################################################

###################################
#  METAR/SPECI from KSEA
###################################
201705312353 METAR KSEA 312353Z 25007KT 10SM FEW035 OVC070 21/11 A2985 RMK AO2 SLP111 T02060106 10222 20150 58009=
201705312253 METAR KSEA 312253Z 22007KT 10SM FEW035 BKN080 BKN200 21/11 A2986 RMK AO2 SLP115 T02110106=
201705312153 METAR KSEA 312153Z 19008KT 10SM FEW035 SCT120 BKN250 22/10 A2987 RMK AO2 SLP119 T02170100=
201705312053 METAR KSEA 312053Z 19010KT 10SM FEW030 SCT130 SCT250 21/10 A2987 RMK AO2 SLP121 T02110100 56012=
201705311953 METAR KSEA 311953Z 22005KT 10SM FEW025 FEW130 SCT250 19/10 A2989 RMK AO2 SLP125 T01890100=
201705311853 METAR KSEA 311853Z 17004KT 10SM FEW020 BKN250 17/10 A2990 RMK AO2 SLP128 T01720100=
201705311753 METAR KSEA 311753Z 24007KT 10SM FEW018 BKN250 16/10 A2991 RMK AO2 SLP134 T01560100 10156 20111 56004=
201705311723 SPECI KSEA 311723Z 25007KT 10SM SCT018 BKN250 15/09 A2991 RMK AO2 T01500094=
201705311653 METAR KSEA 311653Z 18006KT 10SM OVC017 14/09 A2991 RMK AO2 SLP136 T01440094=
201705311620 SPECI KSEA 311620Z 17006KT 10SM BKN015 BKN250 14/09 A2991 RMK AO2 T01390094=
201705311553 METAR KSEA 311553Z 20004KT 10SM BKN014 OVC020 13/09 A2992 RMK AO2 SLP137 T01280089=
201705311453 METAR KSEA 311453Z 27005KT 10SM OVC014 12/09 A2992 RMK AO2 SLP139 T01170089 51001=
201705311421 SPECI KSEA 311421Z 25004KT 10SM OVC014 12/09 A2992 RMK AO2 T01170089=
201705311353 METAR KSEA 311353Z 23003KT 10SM FEW010 OVC015 12/08 A2992 RMK AO2 SLP138 T01170083=
201705311348 SPECI KSEA 311348Z 23005KT 10SM FEW010 BKN015 OVC030 12/08 A2992 RMK AO2=
201705311332 SPECI KSEA 311332Z 22007KT 10SM FEW009 BKN014 OVC030 12/08 A2992 RMK AO2 T01170083=
201705311326 SPECI KSEA 311326Z 22005KT 10SM OVC014 11/08 A2992 RMK AO2 T01110083=
201705311253 METAR KSEA 311253Z 20004KT 10SM FEW010 BKN017 OVC040 11/08 A2992 RMK AO2 SLP138 T01110083=
201705311153 METAR KSEA 311153Z 20003KT 10SM BKN016 OVC024 11/08 A2993 RMK AO2 SLP140 70001 T01110078 10128 20111 56012=
201705311053 METAR KSEA 311053Z 22003KT 10SM BKN016 OVC024 12/08 A2993 RMK AO2 SLP143 T01170078=
201705310953 METAR KSEA 310953Z 22004KT 10SM BKN016 OVC028 12/08 A2995 RMK AO2 SLP148 T01170083=
201705310853 METAR KSEA 310853Z 21005KT 10SM BKN017 OVC024 12/08 A2996 RMK AO2 SLP152 T01170083 50001=
201705310753 METAR KSEA 310753Z 21006KT 10SM BKN024 OVC029 12/09 A2997 RMK AO2 SLP154 T01220089 401440111=
201705310653 METAR KSEA 310653Z 24008KT 10SM SCT020 BKN029 OVC043 12/09 A2997 RMK AO2 SLP154 T01220089=
201705310553 METAR KSEA 310553Z 20008KT 10SM BKN022 OVC028 13/09 A2996 RMK AO2 SLP151 60000 T01280094 10139 20128 55002=
201705310453 METAR KSEA 310453Z 24005KT 10SM BKN023 BKN039 BKN080 13/10 A2995 RMK AO2 SLP146 T01280100=
201705310441 SPECI KSEA 310441Z 00000KT 10SM BKN023 BKN039 BKN080 13/09 A2994 RMK AO2 T01280094=
201705310353 METAR KSEA 310353Z 24003KT 10SM SCT030 BKN041 BKN080 13/10 A2995 RMK AO2 SLP147 T01330100=
201705310335 SPECI KSEA 310335Z 22005KT 10SM BKN030 BKN043 BKN080 13/10 A2996 RMK AO2 T01330100=
201705310253 METAR KSEA 310253Z 20005KT 10SM BKN023 BKN060 13/09 A2996 RMK AO2 SLP153 60000 T01330094 58012=
201705310230 SPECI KSEA 310230Z 21007KT 10SM BKN025 OVC050 13/10 A2998 RMK AO2 T01330100=
201705310153 METAR KSEA 310153Z 22005KT 10SM FEW019 SCT033 OVC065 14/10 A2999 RMK AO2 RAE04 SLP161 P0000 T01390100=
201705310113 SPECI KSEA 310113Z VRB03KT 10SM SCT019 BKN028 OVC065 14/11 A2998 RMK AO2 RAE04 P0000 T01390106=
201705310053 METAR KSEA 310053Z 24006KT 10SM -RA SCT032 OVC060 14/10 A3000 RMK AO2 RAB49 SLP164 P0000 T01390100=
201705310017 SPECI KSEA 310017Z 24005KT 10SM FEW019 BKN030 OVC048 14/09 A3000 RMK AO2 T01390094=
201705302353 METAR KSEA 302353Z 22006KT 10SM FEW020 BKN029 OVC055 14/09 A3000 RMK AO2 SLP165 60000 T01390094 10144 20122 50001=
201705302253 METAR KSEA 302253Z 21005KT 10SM FEW023 BKN029 OVC050 14/10 A3001 RMK AO2 SLP168 T01440100=
201705302241 SPECI KSEA 302241Z 20006KT 10SM FEW016 SCT023 OVC029 14/10 A3001 RMK AO2 T01440100=
201705302153 METAR KSEA 302153Z 25006KT 10SM FEW012 SCT025 OVC043 14/10 A3000 RMK AO2 RAE04 SLP167 P0000 T01390100=
201705302136 SPECI KSEA 302136Z 26008KT 10SM FEW012 SCT020 OVC043 13/10 A3000 RMK AO2 RAE04 P0000 T01330100=
201705302053 METAR KSEA 302053Z 22005KT 10SM -RA SCT013 BKN017 OVC040 13/10 A3000 RMK AO2 RAB49 SLP164 P0000 60000 T01330100 50000=
201705302045 SPECI KSEA 302045Z 22006KT 10SM SCT013 OVC017 13/09 A3000 RMK AO2 T01330094=
201705301953 METAR KSEA 301953Z 23007KT 10SM OVC011 13/09 A3000 RMK AO2 SLP167 T01280094=
201705301937 SPECI KSEA 301937Z 23005KT 10SM OVC010 13/10 A3000 RMK AO2 T01280100=
201705301853 METAR KSEA 301853Z 23006KT 10SM OVC009 12/09 A3000 RMK AO2 SLP165 T01220094=
201705301753 METAR KSEA 301753Z 22008KT 10SM OVC009 12/10 A3000 RMK AO2 SLP164 60001 T01220100 10122 20111 51010=
201705301653 METAR KSEA 301653Z 23007KT 10SM OVC008 12/10 A2999 RMK AO2 RAE1558 SLP162 P0000 T01170100=
201705301639 SPECI KSEA 301639Z 22005KT 10SM OVC007 12/11 A2999 RMK AO2 RAE1558 P0000 T01170106=
201705301619 SPECI KSEA 301619Z 22007KT 4SM BR OVC004 11/11 A2998 RMK AO2 RAE1558 P0000 T01110106=
201705301553 METAR KSEA 301553Z 22005KT 1 1/2SM -RA BR OVC004 11/11 A2998 RMK AO2 RAB47 SLP157 P0001 T01110106=
201705301538 SPECI KSEA 301538Z 22008KT 2SM BR OVC006 11/10 A2998 RMK AO2 T01110100=
201705301453 METAR KSEA 301453Z 22006KT 10SM OVC007 12/10 A2997 RMK AO2 SLP153 T01170100 53001=
201705301353 METAR KSEA 301353Z 24006KT 10SM OVC005 11/10 A2996 RMK AO2 SLP152 T01110100=
201705301253 METAR KSEA 301253Z 23007KT 10SM OVC004 12/10 A2996 RMK AO2 SLP151 T01170100=
201705301242 SPECI KSEA 301242Z 25005KT 10SM OVC004 12/10 A2996 RMK AO2 T01170100=
201705301153 METAR KSEA 301153Z 24003KT 10SM OVC006 12/10 A2996 RMK AO2 SLP152 T01170100 10133 20117 58006=
201705301053 METAR KSEA 301053Z 20007KT 10SM OVC006 12/10 A2998 RMK AO2 SLP156 T01170100=
201705300953 METAR KSEA 300953Z 21008KT 10SM OVC006 12/10 A2998 RMK AO2 SLP158 T01170100=
201705300853 METAR KSEA 300853Z 23008KT 10SM OVC007 12/10 A2998 RMK AO2 SLP158 T01170100 51005=
201705300800 SPECI KSEA 300800Z 21008KT 10SM OVC008 12/10 A2998 RMK AO2 T01220100=
201705300753 METAR KSEA 300753Z 21007KT 10SM BKN010 OVC040 12/10 A2998 RMK AO2 SLP156 T01220100 402330111=
201705300740 SPECI KSEA 300740Z 22009KT 10SM BKN011 OVC040 12/10 A2998 RMK AO2 T01220100=
201705300653 METAR KSEA 300653Z 21009KT 10SM CLR 13/10 A2998 RMK AO2 SLP157 T01280100=
201705300553 METAR KSEA 300553Z 20007KT 10SM FEW160 SCT250 13/11 A2997 RMK AO2 SLP154 T01330106 10233 20133 51016=
201705300453 METAR KSEA 300453Z 21008KT 10SM FEW035 SCT160 SCT250 15/11 A2996 RMK AO2 SLP152 T01500111=
201705300353 METAR KSEA 300353Z 22005KT 10SM FEW035 FEW160 SCT250 18/12 A2994 RMK AO2 SLP143 T01780117=
201705300253 METAR KSEA 300253Z 24008KT 10SM FEW035 SCT250 21/13 A2992 RMK AO2 SLP137 T02110128 55005=
201705300153 METAR KSEA 300153Z 22007KT 10SM FEW250 23/13 A2992 RMK AO2 SLP136 T02280133=
201705300053 METAR KSEA 300053Z 20010KT 10SM FEW035 SCT250 23/13 A2992 RMK AO2 SLP138 T02280133=
201705292353 METAR KSEA 292353Z 20008KT 10SM FEW035 SCT250 22/13 A2994 RMK AO2 SLP142 T02220128 10222 20128 56019=
201705292253 METAR KSEA 292253Z VRB06KT 10SM FEW035 FEW250 21/13 A2995 RMK AO2 SLP147 T02110128=
201705292153 METAR KSEA 292153Z 27005KT 10SM FEW030 FEW250 21/12 A2997 RMK AO2 SLP154 T02110122=
201705292053 METAR KSEA 292053Z 00000KT 10SM FEW030 FEW250 19/12 A2999 RMK AO2 SLP162 T01940122 58020=
201705291953 METAR KSEA 291953Z 18007KT 10SM FEW020 FEW250 17/12 A3002 RMK AO2 SLP169 T01720117=
201705291918 SPECI KSEA 291918Z VRB03KT 10SM SCT011 16/11 A3003 RMK AO2 T01560111=
201705291909 SPECI KSEA 291909Z 19004KT 10SM BKN010 15/11 A3004 RMK AO2 T01500111=
201705291853 METAR KSEA 291853Z 20006KT 10SM OVC009 14/11 A3004 RMK AO2 SLP179 T01440111=
201705291753 METAR KSEA 291753Z 00000KT 10SM OVC006 13/11 A3005 RMK AO2 SLP182 T01280106 10128 20111 56010=
201705291740 SPECI KSEA 291740Z VRB04KT 9SM OVC006 13/11 A3005 RMK AO2 T01280106=
201705291711 SPECI KSEA 291711Z VRB03KT 7SM OVC004 12/11 A3006 RMK AO2 T01220106=
201705291653 METAR KSEA 291653Z 00000KT 2SM BR OVC004 12/11 A3006 RMK AO2 SFC VIS 6 SLP184 T01170106=
201705291645 SPECI KSEA 291645Z 00000KT 2SM BR OVC004 12/11 A3006 RMK AO2 SFC VIS 6 T01170106=
201705291553 METAR KSEA 291553Z 25003KT 1 1/2SM BR OVC003 11/10 A3007 RMK AO2 SFC VIS 4 SLP189 T01110100=
201705291549 SPECI KSEA 291549Z 24004KT 1 1/2SM BR OVC003 12/10 A3008 RMK AO2 SFC VIS 4=
201705291453 METAR KSEA 291453Z 21006KT 1/2SM R16L/P6000FT BR OVC003 12/11 A3008 RMK AO2 SFC VIS 5 SLP191 T01170106 58002=
201705291353 METAR KSEA 291353Z 21004KT 1SM R16L/P6000FT BR OVC002 11/11 A3009 RMK AO2 SFC VIS 5 SLP194 T01110106=
201705291253 METAR KSEA 291253Z 21005KT 1SM R16L/P6000FT OVC003 11/10 A3009 RMK AO2 SFC VIS 7 SLP194 T01110100=
201705291251 SPECI KSEA 291251Z 20005KT 1SM R16L/P6000FT OVC003 11/10 A3009 RMK AO2 SFC VIS 7=
201705291153 METAR KSEA 291153Z 22008KT 10SM OVC004 11/10 A3009 RMK AO2 SLP193 T01110100 10189 20111 52003=
201705291143 SPECI KSEA 291143Z 23008KT 10SM OVC004 11/10 A3009 RMK AO2 T01110100=
201705291053 METAR KSEA 291053Z 22007KT 10SM OVC007 12/10 A3008 RMK AO2 SLP191 T01170100=
201705291049 SPECI KSEA 291049Z 21009KT 10SM OVC007 12/10 A3008 RMK AO2=
201705291038 SPECI KSEA 291038Z 21007KT 10SM SCT007 12/10 A3008 RMK AO2 T01170100=
201705290953 METAR KSEA 290953Z 20007KT 10SM CLR 12/10 A3008 RMK AO2 SLP190 T01170100=
201705290853 METAR KSEA 290853Z 20010KT 10SM FEW080 12/10 A3007 RMK AO2 SLP185 T01220100 51015=
201705290753 METAR KSEA 290753Z 20007KT 10SM CLR 13/11 A3006 RMK AO2 SLP183 T01330106 403000133=
201705290653 METAR KSEA 290653Z 27007KT 10SM CLR 16/09 A3004 RMK AO2 SLP178 T01610089=
201705290553 METAR KSEA 290553Z 28003KT 10SM CLR 19/09 A3002 RMK AO2 SLP171 T01890089 10300 20189 51004=
201705290453 METAR KSEA 290453Z 32003KT 10SM FEW060 20/09 A3002 RMK AO2 SLP170 T02000094=
201705290353 METAR KSEA 290353Z 29007KT 10SM FEW060 FEW250 21/11 A3002 RMK AO2 SLP168 T02110106=
201705290253 METAR KSEA 290253Z 35007KT 10SM FEW060 FEW250 26/11 A3001 RMK AO2 SLP166 T02610106 55008=
201705290153 METAR KSEA 290153Z 34008KT 10SM FEW050 28/09 A3000 RMK AO2 SLP164 T02830089=
201705290053 METAR KSEA 290053Z 35009KT 10SM FEW050 29/09 A3002 RMK AO2 SLP169 T02890094=
201705282353 METAR KSEA 282353Z 35010KT 10SM FEW050 30/09 A3003 RMK AO2 SLP174 T03000089 10300 20206 56014=
201705282253 METAR KSEA 282253Z 34009KT 10SM FEW050 29/09 A3005 RMK AO2 SLP178 T02940089=
201705282153 METAR KSEA 282153Z 36009KT 10SM FEW050 28/09 A3006 RMK AO2 SLP183 T02830094=
201705282053 METAR KSEA 282053Z 31008KT 10SM FEW060 26/10 A3008 RMK AO2 SLP188 T02610100 58012=
201705281953 METAR KSEA 281953Z 31007KT 10SM FEW050 25/11 A3009 RMK AO2 SLP192 T02500106=
201705281853 METAR KSEA 281853Z 28007KT 10SM FEW040 23/12 A3010 RMK AO2 SLP197 T02280117=
201705281753 METAR KSEA 281753Z 28006KT 10SM CLR 21/11 A3011 RMK AO2 SLP201 T02060111 10206 20133 58002=
201705281653 METAR KSEA 281653Z 27004KT 10SM CLR 19/12 A3012 RMK AO2 SLP203 T01940117=
201705281553 METAR KSEA 281553Z 33003KT 10SM CLR 18/11 A3012 RMK AO2 SLP204 T01830106=
201705281453 METAR KSEA 281453Z 24003KT 10SM CLR 17/11 A3012 RMK AO2 SLP203 T01670111 51011=
201705281353 METAR KSEA 281353Z 24003KT 10SM CLR 15/09 A3011 RMK AO2 SLP200 T01500094=
201705281253 METAR KSEA 281253Z 00000KT 10SM CLR 14/09 A3010 RMK AO2 SLP195 T01440094=
201705281153 METAR KSEA 281153Z 00000KT 10SM CLR 14/10 A3009 RMK AO2 SLP191 T01440100 10206 20144 51006=
201705281053 METAR KSEA 281053Z 00000KT 10SM CLR 15/09 A3008 RMK AO2 SLP189 T01500094=
201705280953 METAR KSEA 280953Z 33004KT 10SM CLR 17/09 A3008 RMK AO2 SLP188 T01720089=
201705280853 METAR KSEA 280853Z 35005KT 10SM CLR 17/09 A3007 RMK AO2 SLP185 T01720089 51004=
201705280753 METAR KSEA 280753Z 35006KT 10SM CLR 18/09 A3007 RMK AO2 SLP184 T01830089 403000128=
201705280653 METAR KSEA 280653Z 00000KT 10SM CLR 19/09 A3006 RMK AO2 SLP183 T01940089=
201705280553 METAR KSEA 280553Z 35005KT 10SM CLR 21/09 A3006 RMK AO2 SLP182 T02060094 10300 20206 53005=
201705280453 METAR KSEA 280453Z 33005KT 10SM CLR 22/09 A3005 RMK AO2 SLP179 T02220094=
201705280353 METAR KSEA 280353Z 36006KT 10SM CLR 24/09 A3004 RMK AO2 SLP177 T02390094=
201705280253 METAR KSEA 280253Z 36007KT 10SM CLR 27/07 A3004 RMK AO2 SLP176 T02670072 56004=
201705280153 METAR KSEA 280153Z 35007KT 10SM CLR 28/08 A3004 RMK AO2 SLP177 T02830083=
201705280053 METAR KSEA 280053Z 36006KT 10SM CLR 29/06 A3005 RMK AO2 SLP179 T02940061=
201705272353 METAR KSEA 272353Z 01006KT 10SM FEW050 29/06 A3005 RMK AO2 SLP181 T02940061 10300 20217 57010=
201705272253 METAR KSEA 272253Z 01009KT 10SM FEW050 29/08 A3006 RMK AO2 SLP184 T02890078=
201705272153 METAR KSEA 272153Z 36009KT 10SM FEW050 28/06 A3008 RMK AO2 SLP188 T02830061=
201705272053 METAR KSEA 272053Z 31009KT 10SM FEW050 26/10 A3008 RMK AO2 SLP192 T02610100 58005=
201705271953 METAR KSEA 271953Z 29007KT 10SM FEW040 25/10 A3010 RMK AO2 SLP194 T02500100=
201705271853 METAR KSEA 271853Z 30007KT 10SM CLR 24/10 A3010 RMK AO2 SLP196 T02390100=
201705271753 METAR KSEA 271753Z 28006KT 10SM CLR 22/09 A3010 RMK AO2 SLP197 T02170094 10222 20128 51005=
201705271653 METAR KSEA 271653Z 27003KT 10SM FEW220 21/09 A3010 RMK AO2 SLP197 T02110089=
201705271553 METAR KSEA 271553Z 29004KT 10SM FEW210 19/11 A3010 RMK AO2 SLP196 T01890106=
201705271453 METAR KSEA 271453Z 18003KT 10SM FEW200 18/09 A3009 RMK AO2 SLP192 T01780089 53012=
201705271353 METAR KSEA 271353Z 00000KT 10SM FEW200 16/09 A3007 RMK AO2 SLP188 T01560089=
201705271253 METAR KSEA 271253Z 00000KT 10SM FEW200 13/09 A3006 RMK AO2 SLP184 T01330094=
201705271153 METAR KSEA 271153Z 00000KT 10SM FEW200 14/08 A3005 RMK AO2 SLP180 T01440083 10206 20144 50002=
201705271053 METAR KSEA 271053Z 00000KT 10SM CLR 16/09 A3005 RMK AO2 SLP180 T01560089=
201705270953 METAR KSEA 270953Z 00000KT 10SM CLR 17/08 A3005 RMK AO2 SLP178 T01720078=
201705270853 METAR KSEA 270853Z 00000KT 10SM CLR 16/08 A3004 RMK AO2 SLP177 T01610083 53011=
201705270753 METAR KSEA 270753Z 05007KT 10SM CLR 19/07 A3003 RMK AO2 SLP173 T01890072 402720106=
201705270653 METAR KSEA 270653Z 04007KT 10SM CLR 19/07 A3002 RMK AO2 SLP170 T01940072=
201705270553 METAR KSEA 270553Z 02009KT 10SM FEW250 21/06 A3001 RMK AO2 SLP166 T02060061 10272 20189 53013=
201705270453 METAR KSEA 270453Z 34006KT 10SM FEW250 20/08 A3000 RMK AO2 SLP163 T02000078=
201705270353 METAR KSEA 270353Z 35008KT 10SM FEW060 FEW250 21/08 A2998 RMK AO2 SLP155 T02110083=
201705270253 METAR KSEA 270253Z 35008KT 10SM FEW060 FEW250 24/08 A2997 RMK AO2 SLP153 T02390083 53004=
201705270153 METAR KSEA 270153Z 34008KT 10SM FEW050 FEW250 26/06 A2996 RMK AO2 SLP150 T02560061=
201705270053 METAR KSEA 270053Z 35009KT 10SM FEW050 FEW090 26/06 A2996 RMK AO2 SLP150 T02610061=
201705262353 METAR KSEA 262353Z 32008KT 10SM FEW050 FEW090 26/08 A2996 RMK AO2 SLP148 T02610078 10267 20194 55003=
201705262253 METAR KSEA 262253Z 35007KT 10SM FEW050 26/08 A2995 RMK AO2 SLP148 T02610083=
201705262153 METAR KSEA 262153Z 34009KT 10SM FEW050 26/09 A2996 RMK AO2 SLP150 T02560089=
201705262053 METAR KSEA 262053Z 31007G15KT 10SM FEW045 24/11 A2997 RMK AO2 SLP152 T02390106 58003=
201705261953 METAR KSEA 261953Z 36009KT 10SM FEW040 23/08 A2997 RMK AO2 SLP153 T02330083=
201705261853 METAR KSEA 261853Z 26005KT 10SM FEW035 21/11 A2998 RMK AO2 SLP155 T02110106=
201705261753 METAR KSEA 261753Z 28005KT 10SM FEW030 19/11 A2998 RMK AO2 SLP156 T01940106 10194 20106 53003=
201705261653 METAR KSEA 261653Z 00000KT 10SM CLR 18/11 A2997 RMK AO2 SLP154 T01780106=
201705261553 METAR KSEA 261553Z 26003KT 10SM CLR 17/11 A2997 RMK AO2 SLP154 T01670106=
201705261453 METAR KSEA 261453Z 00000KT 10SM CLR 14/09 A2997 RMK AO2 SLP153 T01440094 51014=
201705261353 METAR KSEA 261353Z 17003KT 10SM CLR 14/09 A2995 RMK AO2 SLP148 T01390094=
201705261253 METAR KSEA 261253Z 00000KT 10SM CLR 12/09 A2994 RMK AO2 SLP144 T01170089=
201705261153 METAR KSEA 261153Z 00000KT 10SM CLR 11/08 A2993 RMK AO2 SLP139 T01110083 10156 20111 50004=
201705261053 METAR KSEA 261053Z 00000KT 10SM CLR 13/09 A2993 RMK AO2 SLP139 T01280089=
201705260953 METAR KSEA 260953Z 06005KT 10SM CLR 14/09 A2992 RMK AO2 SLP135 T01390089=
201705260853 METAR KSEA 260853Z 00000KT 10SM CLR 13/09 A2991 RMK AO2 SLP135 T01330089 51008=
201705260753 METAR KSEA 260753Z 01008KT 10SM CLR 14/09 A2991 RMK AO2 SLP132 T01390094 402110083=
201705260653 METAR KSEA 260653Z 01005KT 10SM CLR 16/09 A2990 RMK AO2 SLP131 T01560089=
201705260553 METAR KSEA 260553Z 34007KT 10SM CLR 15/09 A2989 RMK AO2 SLP127 T01500094 10211 20150 51015=
201705260453 METAR KSEA 260453Z 02009KT 10SM CLR 17/09 A2988 RMK AO2 SLP124 T01720089=
201705260353 METAR KSEA 260353Z 32007KT 10SM FEW050 17/08 A2986 RMK AO2 SLP117 T01720083=
201705260253 METAR KSEA 260253Z 34009KT 10SM FEW050 19/07 A2985 RMK AO2 SLP112 T01890072 53002=
201705260153 METAR KSEA 260153Z 35008KT 10SM FEW050 21/08 A2984 RMK AO2 SLP109 T02060083=
201705260053 METAR KSEA 260053Z 01005KT 10SM FEW050 21/08 A2984 RMK AO2 SLP109 T02110078=
201705252353 METAR KSEA 252353Z 36010KT 10SM FEW040 21/07 A2984 RMK AO2 SLP110 T02060067 10206 20150 57015=
201705252253 METAR KSEA 252253Z 33010KT 10SM FEW040 20/07 A2986 RMK AO2 SLP116 T02000072=
201705252153 METAR KSEA 252153Z 34009KT 10SM FEW040 20/08 A2987 RMK AO2 SLP120 T02000078=
201705252053 METAR KSEA 252053Z 32006KT 10SM FEW040 19/08 A2989 RMK AO2 SLP125 T01890078 58005=
201705251953 METAR KSEA 251953Z VRB05KT 10SM SCT035 18/08 A2990 RMK AO2 SLP129 T01780078=
201705251853 METAR KSEA 251853Z VRB03KT 10SM SCT033 17/08 A2990 RMK AO2 SLP132 T01670083=
201705251753 METAR KSEA 251753Z 24006KT 10SM FEW024 SCT040 16/08 A2990 RMK AO2 SLP131 T01560083 10156 20083 58007=
201705251653 METAR KSEA 251653Z 31005KT 10SM FEW020 SCT042 14/08 A2991 RMK AO2 SLP135 T01440078=
201705251553 METAR KSEA 251553Z VRB04KT 10SM FEW020 SCT042 SCT250 13/09 A2992 RMK AO2 SLP138 T01330094=
201705251453 METAR KSEA 251453Z 00000KT 10SM SCT042 SCT250 11/08 A2992 RMK AO2 SLP139 T01060083 52001=
201705251353 METAR KSEA 251353Z 16005KT 10SM BKN042 09/08 A2992 RMK AO2 SLP138 T00940078=
201705251253 METAR KSEA 251253Z 13005KT 10SM SCT042 SCT080 09/07 A2992 RMK AO2 SLP138 T00890072=
201705251153 METAR KSEA 251153Z 13006KT 10SM FEW080 08/07 A2992 RMK AO2 SLP137 T00830067 10139 20083 51003=
201705251053 METAR KSEA 251053Z 14003KT 10SM CLR 09/07 A2992 RMK AO2 SLP137 T00940072=
201705250953 METAR KSEA 250953Z 00000KT 10SM CLR 10/07 A2992 RMK AO2 SLP137 T01000067=
201705250853 METAR KSEA 250853Z 00000KT 10SM CLR 10/07 A2991 RMK AO2 SLP135 T01000067 56010=
201705250753 METAR KSEA 250753Z 00000KT 10SM CLR 12/06 A2992 RMK AO2 SLP137 T01170061 401720078=
201705250653 METAR KSEA 250653Z 31004KT 10SM CLR 12/06 A2992 RMK AO2 SLP138 T01220056=
201705250553 METAR KSEA 250553Z 05005KT 10SM CLR 14/06 A2994 RMK AO2 SLP145 T01390056 10167 20128 56002=
201705250453 METAR KSEA 250453Z 02006KT 10SM FEW080 14/04 A2995 RMK AO2 SLP146 T01390039=
201705250353 METAR KSEA 250353Z 36006KT 10SM FEW048 SCT080 BKN250 14/05 A2994 RMK AO2 SLP143 T01440050=
201705250253 METAR KSEA 250253Z 35005KT 10SM BKN048 16/06 A2995 RMK AO2 SLP147 T01560056 55007=
201705250153 METAR KSEA 250153Z 01007KT 10SM SCT048 BKN080 BKN200 16/05 A2994 RMK AO2 SLP146 T01610050=
201705250053 METAR KSEA 250053Z VRB05KT 10SM FEW050 BKN075 BKN200 16/04 A2995 RMK AO2 SLP149 T01610044=
201705242353 METAR KSEA 242353Z 35004KT 10SM OVC050 16/04 A2997 RMK AO2 SLP154 T01560039 10172 20128 55008=
201705242253 METAR KSEA 242253Z 03007KT 10SM FEW040 BKN060 16/03 A2997 RMK AO2 SLP154 T01610033=
201705242153 METAR KSEA 242153Z 00000KT 10SM FEW040 BKN065 16/03 A2998 RMK AO2 SLP158 T01560028=
201705242053 METAR KSEA 242053Z 00000KT 10SM FEW040 BKN075 16/04 A2999 RMK AO2 SLP162 T01610039 56018=
201705241953 METAR KSEA 241953Z VRB03KT 10SM SCT040 BKN075 15/04 A3001 RMK AO2 SLP169 T01500044=
201705241853 METAR KSEA 241853Z 14005KT 10SM FEW045 BKN075 14/06 A3002 RMK AO2 SLP171 T01440056=
201705241753 METAR KSEA 241753Z 23006KT 10SM SCT045 BKN075 13/06 A3004 RMK AO2 SLP180 T01280061 10133 20078 57008=
201705241653 METAR KSEA 241653Z 21006KT 10SM FEW045 BKN075 12/06 A3005 RMK AO2 SLP182 T01220056=
201705241553 METAR KSEA 241553Z 16011KT 10SM FEW045 BKN080 11/05 A3006 RMK AO2 SLP186 T01110050=
201705241453 METAR KSEA 241453Z 12008KT 10SM SCT044 BKN075 10/04 A3007 RMK AO2 SLP189 T01000044 51006=
201705241353 METAR KSEA 241353Z 15005KT 10SM BKN042 09/04 A3007 RMK AO2 SLP188 T00890044=
201705241253 METAR KSEA 241253Z 16005KT 10SM FEW040 08/04 A3006 RMK AO2 SLP183 T00830039=
201705241153 METAR KSEA 241153Z 19007KT 10SM SCT043 09/04 A3005 RMK AO2 SLP181 T00890039 10128 20089 58005=
201705241053 METAR KSEA 241053Z 19007KT 10SM SCT038 BKN046 BKN060 09/04 A3006 RMK AO2 SLP185 T00940039=
201705240953 METAR KSEA 240953Z 08008KT 10SM OVC038 11/02 A3007 RMK AO2 SLP187 T01060022=
201705240853 METAR KSEA 240853Z 05006KT 10SM FEW040 FEW055 11/02 A3007 RMK AO2 SLP185 T01060022 51009=
201705240753 METAR KSEA 240753Z 05012KT 10SM OVC037 12/02 A3006 RMK AO2 SLP185 T01170017 402560117=
201705240708 SPECI KSEA 240708Z 13003KT 10SM OVC030 12/05 A3006 RMK AO2 T01170050=
201705240653 METAR KSEA 240653Z VRB03KT 10SM OVC029 12/05 A3006 RMK AO2 SLP183 T01170050=
201705240553 METAR KSEA 240553Z 22006KT 10SM BKN029 13/06 A3004 RMK AO2 SLP177 T01280061 10228 20128 53024=
201705240453 METAR KSEA 240453Z 26008KT 220V300 10SM BKN027 14/07 A3001 RMK AO2 SLP167 T01390072=
201705240418 SPECI KSEA 240418Z 23009G19KT 10SM BKN028 14/08 A2999 RMK AO2 T01440083=
201705240353 METAR KSEA 240353Z 28005KT 10SM BKN030 14/09 A2998 RMK AO2 SLP157 T01440089=
201705240253 METAR KSEA 240253Z 06011KT 10SM BKN036 17/10 A2997 RMK AO2 SLP152 T01720100 50005=
201705240153 METAR KSEA 240153Z 06013KT 10SM BKN036 18/11 A2997 RMK AO2 SLP155 T01830111=
201705240053 METAR KSEA 240053Z 24008KT 10SM SCT042 21/12 A2997 RMK AO2 SLP152 T02060122=
201705232353 METAR KSEA 232353Z 25008KT 10SM FEW050 FEW250 23/13 A2995 RMK AO2 SLP146 T02280128 10256 20211 56010=
201705232253 METAR KSEA 232253Z 22011KT 10SM FEW050 FEW250 25/11 A2995 RMK AO2 SLP148 T02500111=
201705232153 METAR KSEA 232153Z 20010KT 10SM FEW050 FEW250 25/12 A2997 RMK AO2 SLP152 T02500117=
201705232053 METAR KSEA 232053Z 26006KT 10SM FEW250 25/14 A2998 RMK AO2 SLP156 T02500139 58008=
201705231953 METAR KSEA 231953Z 25007KT 10SM FEW200 24/13 A2999 RMK AO2 SLP158 T02390128=
201705231853 METAR KSEA 231853Z 23006KT 10SM FEW200 22/13 A3000 RMK AO2 SLP162 T02220133=
201705231753 METAR KSEA 231753Z 28007KT 10SM FEW200 22/13 A3000 RMK AO2 SLP163 T02220133 10228 20122 58013=
201705231653 METAR KSEA 231653Z 28005KT 10SM FEW200 21/13 A3002 RMK AO2 SLP170 T02060133=
201705231553 METAR KSEA 231553Z 28004KT 10SM FEW200 19/13 A3004 RMK AO2 SLP177 T01940128=
201705231453 METAR KSEA 231453Z 35003KT 10SM FEW200 18/12 A3004 RMK AO2 SLP176 T01780117 51007=
201705231353 METAR KSEA 231353Z 35004KT 10SM SCT200 15/11 A3004 RMK AO2 SLP177 T01500106=
201705231253 METAR KSEA 231253Z 31003KT 10SM FEW150 12/09 A3003 RMK AO2 SLP173 T01220094=
201705231153 METAR KSEA 231153Z 08005KT 10SM CLR 16/09 A3002 RMK AO2 SLP169 T01560089 10217 20144 58000=
201705231053 METAR KSEA 231053Z 35003KT 10SM CLR 16/08 A3003 RMK AO2 SLP172 T01560083=
201705230953 METAR KSEA 230953Z 00000KT 10SM CLR 16/09 A3003 RMK AO2 SLP172 T01610094=
201705230853 METAR KSEA 230853Z 31004KT 10SM CLR 17/09 A3002 RMK AO2 SLP170 T01720094 56009=
201705230753 METAR KSEA 230753Z 03009KT 10SM CLR 20/09 A3003 RMK AO2 SLP172 T02000089 402830133=
201705230653 METAR KSEA 230653Z 02009KT 10SM CLR 21/09 A3004 RMK AO2 SLP176 T02110094=
201705230553 METAR KSEA 230553Z 01007KT 10SM FEW250 21/10 A3005 RMK AO2 SLP180 T02060100 10283 20206 50002=
201705230453 METAR KSEA 230453Z 02007KT 10SM SCT250 23/10 A3006 RMK AO2 SLP182 T02330100=
201705230353 METAR KSEA 230353Z 33004KT 10SM SCT250 22/11 A3005 RMK AO2 SLP181 T02220111=
201705230253 METAR KSEA 230253Z 35006KT 10SM SCT250 25/11 A3004 RMK AO2 SLP177 T02500111 56008=
201705230153 METAR KSEA 230153Z 34005KT 10SM SCT250 27/11 A3005 RMK AO2 SLP178 T02670106=
201705230053 METAR KSEA 230053Z 34012KT 10SM SCT250 27/09 A3005 RMK AO2 SLP181 T02670094=
201705222353 METAR KSEA 222353Z 34009KT 300V360 10SM SCT250 28/10 A3007 RMK AO2 SLP185 T02830100 10283 20217 56017=
201705222253 METAR KSEA 222253Z 30009KT 10SM SCT250 27/12 A3008 RMK AO2 SLP191 T02670122=
201705222153 METAR KSEA 222153Z 31007KT 10SM SCT250 27/13 A3010 RMK AO2 SLP197 T02670133=
201705222053 METAR KSEA 222053Z 05009KT 10SM FEW050 SCT250 26/11 A3012 RMK AO2 SLP202 T02560111 58013=
201705221953 METAR KSEA 221953Z 35006KT 10SM BKN250 24/12 A3014 RMK AO2 SLP210 T02390122=
201705221853 METAR KSEA 221853Z 34009KT 10SM BKN250 23/12 A3015 RMK AO2 SLP215 T02280117=
201705221753 METAR KSEA 221753Z 30008KT 10SM BKN250 22/12 A3016 RMK AO2 SLP216 T02170122 10222 20133 58006=
201705221653 METAR KSEA 221653Z 02009KT 10SM BKN250 21/11 A3016 RMK AO2 SLP218 T02110106=
201705221553 METAR KSEA 221553Z 34005KT 10SM BKN250 19/12 A3017 RMK AO2 SLP221 T01940122=
201705221453 METAR KSEA 221453Z 06004KT 10SM BKN250 17/12 A3017 RMK AO2 SLP222 T01720117 52001=
201705221353 METAR KSEA 221353Z 06004KT 10SM BKN250 17/11 A3018 RMK AO2 SLP223 T01670111=
201705221253 METAR KSEA 221253Z 04004KT 10SM BKN250 14/10 A3017 RMK AO2 SLP221 T01440100=
201705221153 METAR KSEA 221153Z 04003KT 10SM CLR 14/10 A3017 RMK AO2 SLP221 T01440100 10189 20144 58002=
201705221053 METAR KSEA 221053Z 03006KT 10SM CLR 16/09 A3018 RMK AO2 SLP224 T01560094=
201705220953 METAR KSEA 220953Z 02005KT 10SM CLR 16/09 A3018 RMK AO2 SLP225 T01560094=
201705220853 METAR KSEA 220853Z 05009KT 10SM CLR 17/09 A3018 RMK AO2 SLP223 T01720089 58002=
201705220753 METAR KSEA 220753Z 05007KT 10SM CLR 18/09 A3018 RMK AO2 SLP224 T01780089 402440111=
201705220653 METAR KSEA 220653Z 04009KT 10SM CLR 18/09 A3019 RMK AO2 SLP228 T01830094=
201705220553 METAR KSEA 220553Z 36006KT 10SM CLR 18/09 A3018 RMK AO2 SLP225 T01780094 10244 20178 52007=
201705220453 METAR KSEA 220453Z 01008KT 10SM FEW250 19/09 A3018 RMK AO2 SLP223 T01940094=
201705220353 METAR KSEA 220353Z 35010KT 10SM BKN250 19/11 A3017 RMK AO2 SLP220 T01940106=
201705220253 METAR KSEA 220253Z 34010KT 10SM FEW010 FEW050 BKN250 21/12 A3016 RMK AO2 SLP217 FU FEW010 T02110117 56006=
201705220153 METAR KSEA 220153Z 34010KT 10SM FEW050 BKN250 22/12 A3016 RMK AO2 SLP218 T02220117=
201705220053 METAR KSEA 220053Z 34012KT 10SM FEW050 BKN250 23/11 A3017 RMK AO2 SLP219 T02330106=
201705212353 METAR KSEA 212353Z 34011KT 10SM FEW050 BKN250 24/11 A3018 RMK AO2 SLP223 T02440111 10244 20200 58013=
201705212253 METAR KSEA 212253Z 35008KT 10SM FEW050 BKN250 24/10 A3019 RMK AO2 SLP228 T02390100=
201705212153 METAR KSEA 212153Z 35011KT 10SM FEW050 BKN250 24/11 A3021 RMK AO2 SLP234 T02390106=
201705212053 METAR KSEA 212053Z 36011KT 10SM FEW040 BKN250 23/11 A3022 RMK AO2 SLP236 T02330111 58009=
201705211953 METAR KSEA 211953Z 01010KT 10SM SCT240 23/12 A3022 RMK AO2 SLP239 T02280117=
201705211853 METAR KSEA 211853Z 36009KT 10SM SCT230 22/12 A3024 RMK AO2 SLP243 T02170122=
201705211753 METAR KSEA 211753Z 36007KT 10SM SCT230 20/12 A3024 RMK AO2 SLP245 T02000122 10200 20111 50001=
201705211653 METAR KSEA 211653Z 31006KT 10SM FEW220 17/12 A3024 RMK AO2 SLP247 T01720117=
201705211553 METAR KSEA 211553Z 29005KT 10SM FEW003 FEW220 16/11 A3024 RMK AO2 SLP245 T01560111=
201705211453 METAR KSEA 211453Z 03005KT 10SM FEW002 FEW003 SCT250 15/11 A3024 RMK AO2 SLP245 FG FEW002 FU FEW003 T01500106 53002=
201705211353 METAR KSEA 211353Z 00000KT 10SM FEW005 FEW250 14/11 A3024 RMK AO2 SLP243 FU FEW005 T01390106=
201705211253 METAR KSEA 211253Z 35005KT 10SM FEW250 12/09 A3024 RMK AO2 SLP244 T01170089=
201705211153 METAR KSEA 211153Z 00000KT 10SM CLR 12/09 A3023 RMK AO2 SLP244 T01220089 10161 20117 51003=
201705211053 METAR KSEA 211053Z 34004KT 10SM CLR 13/08 A3023 RMK AO2 SLP241 T01280083=
201705210953 METAR KSEA 210953Z 00000KT 10SM CLR 14/08 A3023 RMK AO2 SLP243 T01390083=
201705210853 METAR KSEA 210853Z 04008KT 10SM CLR 15/08 A3022 RMK AO2 SLP240 T01500083 50006=
201705210753 METAR KSEA 210753Z 04010KT 10SM CLR 16/09 A3023 RMK AO2 SLP240 T01560089 402220117=
201705210653 METAR KSEA 210653Z 03009KT 10SM CLR 16/09 A3022 RMK AO2 SLP237 T01610089=
201705210553 METAR KSEA 210553Z 33004KT 10SM CLR 16/09 A3021 RMK AO2 SLP235 T01560089 10222 20150 51013=
201705210453 METAR KSEA 210453Z 35004KT 10SM FEW045 FEW250 16/09 A3020 RMK AO2 SLP231 T01610089=
201705210353 METAR KSEA 210353Z 34005KT 10SM FEW045 FEW250 17/09 A3018 RMK AO2 SLP226 T01720094=
201705210253 METAR KSEA 210253Z 34007KT 10SM FEW045 20/09 A3017 RMK AO2 SLP222 T02000089 53000=
201705210153 METAR KSEA 210153Z 34007KT 10SM FEW045 22/07 A3016 RMK AO2 SLP220 T02170072=
201705210053 METAR KSEA 210053Z 35009KT 10SM FEW045 22/08 A3017 RMK AO2 SLP221 T02170083=
201705202353 METAR KSEA 202353Z 34007G15KT 10SM FEW040 FEW250 22/08 A3017 RMK AO2 SLP222 T02220078 10222 20161 57007=
201705202253 METAR KSEA 202253Z 30009KT 10SM FEW040 FEW250 22/10 A3018 RMK AO2 SLP224 T02170100=
201705202153 METAR KSEA 202153Z 31011KT 10SM FEW040 FEW250 21/10 A3018 RMK AO2 SLP226 T02060100=
201705202053 METAR KSEA 202053Z 31008KT 10SM FEW040 SCT250 19/10 A3019 RMK AO2 SLP229 T01940100 58004=
201705201953 METAR KSEA 201953Z 31007G18KT 270V340 10SM FEW030 SCT050 19/11 A3020 RMK AO2 SLP232 T01940106=
201705201853 METAR KSEA 201853Z 35009KT 10SM FEW029 SCT040 19/11 A3021 RMK AO2 SLP235 T01890106=
201705201753 METAR KSEA 201753Z 28004KT 10SM FEW024 BKN046 BKN070 16/11 A3020 RMK AO2 SLP233 T01610106 10172 20117 51005=
201705201653 METAR KSEA 201653Z 00000KT 10SM BKN028 BKN031 BKN042 15/11 A3020 RMK AO2 SLP233 T01500106=
201705201553 METAR KSEA 201553Z 19005KT 10SM BKN019 BKN070 BKN150 14/11 A3020 RMK AO2 SLP232 T01440111=
201705201453 METAR KSEA 201453Z 24004KT 10SM BKN070 BKN140 13/10 A3019 RMK AO2 SLP228 T01330100 53013=
201705201353 METAR KSEA 201353Z 00000KT 10SM FEW060 BKN080 BKN130 12/10 A3017 RMK AO2 SLP223 T01220100=
201705201253 METAR KSEA 201253Z 00000KT 10SM FEW065 BKN080 BKN120 12/10 A3015 RMK AO2 SLP217 T01170100=
201705201153 METAR KSEA 201153Z 26004KT 10SM FEW060 BKN075 BKN120 12/10 A3015 RMK AO2 SLP215 T01220100 10156 20122 53010=
201705201053 METAR KSEA 201053Z 24003KT 10SM BKN060 BKN090 13/10 A3014 RMK AO2 SLP210 T01280100=
201705200953 METAR KSEA 200953Z 28003KT 10SM BKN055 OVC080 13/10 A3012 RMK AO2 SLP205 T01330100=
201705200853 METAR KSEA 200853Z 00000KT 10SM BKN055 OVC070 14/10 A3012 RMK AO2 SLP204 T01390100 51004=
201705200753 METAR KSEA 200753Z 01007KT 10SM FEW055 OVC070 16/08 A3012 RMK AO2 SLP204 T01560078 402170100=
201705200653 METAR KSEA 200653Z 34005KT 10SM BKN060 BKN120 15/08 A3011 RMK AO2 SLP202 T01500078=
201705200553 METAR KSEA 200553Z 33004KT 10SM SCT048 SCT120 15/07 A3011 RMK AO2 SLP200 T01500067 10217 20144 50005=
201705200453 METAR KSEA 200453Z 34005KT 10SM BKN048 BKN080 16/06 A3011 RMK AO2 SLP201 T01560061=
201705200353 METAR KSEA 200353Z 34011KT 10SM BKN050 OVC065 17/05 A3010 RMK AO2 SLP198 T01670050=
201705200253 METAR KSEA 200253Z 29004KT 10SM OVC060 19/10 A3009 RMK AO2 SLP195 T01890100 53001=
201705200153 METAR KSEA 200153Z 23008KT 10SM BKN055 20/10 A3008 RMK AO2 SLP192 T02000100=
201705200053 METAR KSEA 200053Z 22008KT 10SM SCT055 SCT140 BKN250 21/10 A3008 RMK AO2 SLP191 T02110100=
201705192353 METAR KSEA 192353Z 23008KT 10SM FEW040 SCT090 SCT140 BKN250 22/10 A3009 RMK AO2 SLP195 T02170100 10217 20167 56010=
201705192253 METAR KSEA 192253Z VRB05KT 10SM FEW040 SCT095 BKN250 21/10 A3010 RMK AO2 SLP198 T02060100=
201705192153 METAR KSEA 192153Z 25007KT 10SM FEW040 SCT090 BKN250 21/10 A3011 RMK AO2 SLP200 T02110100=
201705192053 METAR KSEA 192053Z VRB05KT 10SM FEW030 FEW050 FEW200 20/10 A3012 RMK AO2 SLP204 T02000100 57008=
201705191953 METAR KSEA 191953Z VRB04KT 10SM FEW030 FEW055 FEW200 19/08 A3013 RMK AO2 SLP207 T01890078=
201705191853 METAR KSEA 191853Z 26006KT 10SM FEW025 FEW055 SCT200 19/10 A3013 RMK AO2 SLP210 T01890100=
201705191753 METAR KSEA 191753Z 27005KT 10SM FEW020 FEW050 SCT200 17/11 A3014 RMK AO2 SLP213 T01720106 10172 20100 50001=
201705191653 METAR KSEA 191653Z 27003KT 10SM FEW050 BKN200 15/11 A3015 RMK AO2 SLP215 T01500106=
201705191553 METAR KSEA 191553Z 28003KT 10SM BKN050 BKN200 13/10 A3014 RMK AO2 SLP212 T01330100=
201705191453 METAR KSEA 191453Z 23003KT 10SM BKN050 BKN200 13/10 A3014 RMK AO2 SLP212 T01280100 53007=
201705191353 METAR KSEA 191353Z 06003KT 10SM FEW050 BKN200 11/09 A3013 RMK AO2 SLP208 T01110094=
201705191253 METAR KSEA 191253Z 34003KT 10SM SCT055 BKN200 11/09 A3012 RMK AO2 SLP207 T01060089=
201705191153 METAR KSEA 191153Z 00000KT 10SM SCT055 BKN210 11/08 A3012 RMK AO2 SLP205 T01060083 10144 20100 58003=
201705191053 METAR KSEA 191053Z 36003KT 10SM BKN065 BKN200 11/08 A3012 RMK AO2 SLP207 T01060083=
201705190953 METAR KSEA 190953Z 01005KT 10SM OVC070 12/09 A3013 RMK AO2 SLP208 T01220089=
201705190853 METAR KSEA 190853Z 36005KT 10SM BKN075 12/08 A3013 RMK AO2 SLP207 T01220083 50001=
201705190753 METAR KSEA 190753Z 32003KT 10SM FEW080 SCT120 12/07 A3013 RMK AO2 SLP210 T01220072 401780089=
201705190653 METAR KSEA 190653Z 01005KT 10SM FEW080 BKN120 14/08 A3013 RMK AO2 SLP208 T01390078=
201705190553 METAR KSEA 190553Z 00000KT 10SM SCT080 BKN200 14/08 A3012 RMK AO2 SLP207 T01440078 10172 20139 53002=
201705190453 METAR KSEA 190453Z 00000KT 10SM SCT090 BKN200 15/08 A3012 RMK AO2 SLP205 T01500078=
201705190353 METAR KSEA 190353Z 35004KT 10SM BKN080 BKN200 16/08 A3011 RMK AO2 SLP203 T01560078=
201705190253 METAR KSEA 190253Z 34004KT 10SM FEW040 BKN085 BKN200 16/08 A3012 RMK AO2 SLP205 T01610078 56006=
201705190153 METAR KSEA 190153Z 07006KT 10SM FEW040 BKN090 OVC200 17/07 A3012 RMK AO2 SLP205 T01670072=
201705190053 METAR KSEA 190053Z 00000KT 10SM FEW040 BKN095 BKN200 17/07 A3012 RMK AO2 SLP207 T01670067=
201705182353 METAR KSEA 182353Z 30004KT 10SM FEW040 BKN100 BKN200 17/07 A3014 RMK AO2 SLP211 T01720072 10178 20128 56010=
201705182253 METAR KSEA 182253Z VRB05KT 10SM FEW040 SCT110 BKN200 17/08 A3015 RMK AO2 SLP215 T01720078=
201705182153 METAR KSEA 182153Z 26007KT 10SM FEW036 BKN110 OVC200 16/07 A3016 RMK AO2 SLP218 T01610072=
201705182053 METAR KSEA 182053Z VRB03KT 10SM BKN034 BKN120 OVC200 17/08 A3017 RMK AO2 SLP222 T01670078 56008=
201705181953 METAR KSEA 181953Z VRB03KT 10SM BKN032 BKN130 16/08 A3018 RMK AO2 SLP225 T01560078=
201705181853 METAR KSEA 181853Z VRB03KT 10SM FEW025 SCT042 BKN140 16/08 A3018 RMK AO2 SLP225 T01560083=
201705181753 METAR KSEA 181753Z 00000KT 10SM FEW020 BKN042 OVC250 13/08 A3019 RMK AO2 SLP230 T01330078 10133 20089 58002=
201705181653 METAR KSEA 181653Z 17003KT 10SM FEW020 BKN043 OVC250 12/07 A3020 RMK AO2 SLP232 T01170067=
201705181553 METAR KSEA 181553Z VRB03KT 10SM FEW024 BKN042 OVC250 11/07 A3020 RMK AO2 SLP232 T01060067=
201705181453 METAR KSEA 181453Z 21004KT 10SM FEW024 BKN047 BKN250 10/07 A3020 RMK AO2 SLP232 T01000072 53004=
201705181353 METAR KSEA 181353Z 18004KT 10SM FEW008 FEW024 BKN048 BKN240 09/07 A3019 RMK AO2 SLP228 T00940072=
201705181337 SPECI KSEA 181337Z 17004KT 10SM FEW008 SCT025 BKN048 BKN240 09/07 A3018 RMK AO2 T00940072=
201705181253 METAR KSEA 181253Z 00000KT 10SM FEW008 BKN024 BKN050 BKN240 09/07 A3018 RMK AO2 SLP227 T00940072=
201705181233 SPECI KSEA 181233Z 17003KT 10SM FEW008 BKN024 BKN050 OVC240 09/07 A3018 RMK AO2 T00890072=
201705181153 METAR KSEA 181153Z 18003KT 10SM BKN050 BKN240 09/07 A3018 RMK AO2 SLP228 T00890067 10117 20089 56001=
201705181053 METAR KSEA 181053Z 17004KT 10SM BKN050 09/07 A3018 RMK AO2 SLP228 T00890067=
201705180953 METAR KSEA 180953Z 19004KT 10SM FEW020 BKN050 10/07 A3018 RMK AO2 SLP228 T01000067=
201705180853 METAR KSEA 180853Z 22005KT 10SM FEW020 OVC050 11/07 A3019 RMK AO2 SLP229 T01060067 58003=
201705180753 METAR KSEA 180753Z 21005KT 10SM FEW020 OVC050 11/07 A3019 RMK AO2 SLP230 T01060072 401560072=
201705180653 METAR KSEA 180653Z 23006KT 10SM OVC055 11/07 A3019 RMK AO2 SLP230 T01110072=
201705180553 METAR KSEA 180553Z 21005KT 10SM FEW030 OVC055 12/08 A3020 RMK AO2 SLP231 T01170078 10150 20117 50004=
201705180453 METAR KSEA 180453Z 24005KT 10SM FEW030 OVC055 12/08 A3020 RMK AO2 SLP233 T01170078=
201705180353 METAR KSEA 180353Z 23006KT 10SM FEW025 OVC055 12/08 A3019 RMK AO2 SLP229 T01220083=
201705180253 METAR KSEA 180253Z 24005KT 10SM FEW024 FEW041 BKN055 13/08 A3018 RMK AO2 SLP228 T01330083 53002=
201705180153 METAR KSEA 180153Z 21007KT 10SM FEW025 BKN055 14/08 A3018 RMK AO2 SLP225 T01390083=
201705180053 METAR KSEA 180053Z 23004KT 10SM FEW028 BKN042 OVC060 14/08 A3018 RMK AO2 SLP227 T01390083=
201705172353 METAR KSEA 172353Z 21007KT 10SM FEW027 BKN047 OVC060 14/08 A3018 RMK AO2 SLP226 T01440078 10156 20111 53004=
201705172253 METAR KSEA 172253Z 21010KT 10SM SCT032 OVC060 14/07 A3017 RMK AO2 SLP224 T01440072=
201705172153 METAR KSEA 172153Z 19010KT 10SM SCT030 BKN045 14/07 A3017 RMK AO2 SLP222 T01390072=
201705172127 SPECI KSEA 172127Z 20008KT 10SM SCT028 OVC044 14/07 A3017 RMK AO2 T01390072=
201705172053 METAR KSEA 172053Z 21007KT 10SM BKN028 OVC037 14/07 A3017 RMK AO2 SLP222 T01390072 51009=
201705172032 SPECI KSEA 172032Z 23009G14KT 200V270 10SM BKN026 BKN035 15/08 A3016 RMK AO2 T01500078=
201705172001 SPECI KSEA 172001Z 19008KT 10SM SCT026 BKN035 BKN055 15/08 A3016 RMK AO2 T01500083=
201705171953 METAR KSEA 171953Z VRB06KT 10SM BKN026 BKN037 BKN060 14/08 A3016 RMK AO2 SLP219 T01390083=
201705171853 METAR KSEA 171853Z 18004KT 10SM BKN020 BKN060 13/08 A3015 RMK AO2 SLP218 T01280083=
201705171815 SPECI KSEA 171815Z 14003KT 10SM BKN015 BKN060 11/08 A3015 RMK AO2 T01110078=
201705171753 METAR KSEA 171753Z 15004KT 10SM BKN012 BKN055 11/08 A3014 RMK AO2 SLP213 T01110083 10111 20078 51020=
201705171745 SPECI KSEA 171745Z 19004KT 10SM BKN010 BKN060 11/08 A3014 RMK AO2 T01060078=
201705171653 METAR KSEA 171653Z 21005KT 10SM BKN008 OVC012 09/08 A3013 RMK AO2 SLP209 T00940078=
201705171604 SPECI KSEA 171604Z 19007KT 10SM FEW005 OVC010 09/07 A3010 RMK AO2 T00940072=
201705171553 METAR KSEA 171553Z 20008KT 10SM FEW005 BKN008 OVC015 09/07 A3010 RMK AO2 SLP201 T00940072=
201705171507 SPECI KSEA 171507Z 13006KT 10SM FEW007 BKN012 OVC036 09/07 A3009 RMK AO2 T00890072=
201705171453 METAR KSEA 171453Z 13004KT 10SM FEW007 BKN036 OVC060 09/07 A3008 RMK AO2 SLP193 T00890072 53018=
201705171446 SPECI KSEA 171446Z 16004KT 10SM FEW007 BKN036 OVC060 09/07 A3008 RMK AO2 T00890072=
201705171423 SPECI KSEA 171423Z 14004KT 10SM FEW015 OVC060 08/07 A3007 RMK AO2 T00830072=
201705171353 METAR KSEA 171353Z 13005KT 10SM BKN015 OVC060 08/07 A3006 RMK AO2 SLP186 T00830067=
201705171345 SPECI KSEA 171345Z 13005KT 10SM BKN015 OVC060 08/07 A3005 RMK AO2 T00830067=
201705171253 METAR KSEA 171253Z 14005KT 10SM FEW015 OVC060 08/07 A3003 RMK AO2 SLP178 T00780067=
201705171153 METAR KSEA 171153Z 13005KT 10SM OVC060 08/07 A3002 RMK AO2 SLP174 60000 70010 T00780067 10083 20072 51022=
201705171053 METAR KSEA 171053Z 11005KT 10SM FEW017 FEW040 OVC055 08/07 A3001 RMK AO2 SLP170 T00780067=
201705170953 METAR KSEA 170953Z 13006KT 10SM SCT016 BKN042 OVC055 08/06 A2999 RMK AO2 SLP161 T00780061=
201705170853 METAR KSEA 170853Z 12008KT 10SM BKN015 OVC030 08/06 A2996 RMK AO2 SLP152 60000 T00780061 51019=
201705170753 METAR KSEA 170753Z 12008KT 10SM OVC015 08/06 A2994 RMK AO2 SLP147 T00780061 401220072=
201705170739 SPECI KSEA 170739Z 13008KT 10SM OVC015 08/06 A2994 RMK AO2 T00780061=
201705170702 SPECI KSEA 170702Z 11007KT 10SM BKN014 OVC020 08/06 A2992 RMK AO2 T00780061=
201705170653 METAR KSEA 170653Z 13009KT 10SM FEW010 BKN018 OVC030 08/06 A2992 RMK AO2 RAE12 SLP138 P0000 T00780061=
201705170639 SPECI KSEA 170639Z 11009KT 10SM BKN018 OVC030 08/07 A2992 RMK AO2 RAE12 P0000 T00780067=
201705170553 METAR KSEA 170553Z 14012KT 10SM -RA SCT030 BKN037 OVC060 08/07 A2990 RMK AO2 RAE02B40 SLP132 P0000 60001 T00830067 10106 20083 51025=
201705170453 METAR KSEA 170453Z 14008KT 10SM -RA BKN037 BKN049 OVC060 08/07 A2988 RMK AO2 RAB48 SLP125 P0000 T00830067=
201705170353 METAR KSEA 170353Z 16006KT 10SM FEW020 BKN060 09/07 A2985 RMK AO2 RAB15E28 SLP115 P0000 T00890072=
201705170253 METAR KSEA 170253Z 20007KT 10SM FEW018 SCT041 BKN070 09/07 A2983 RMK AO2 RAB12E45 SLP107 P0001 60001 T00940072 51025=
201705170153 METAR KSEA 170153Z 21005KT 10SM SCT048 BKN070 BKN200 10/05 A2981 RMK AO2 SLP101 T01000050=
201705170053 METAR KSEA 170053Z 23009KT 10SM SCT030 BKN090 BKN200 10/06 A2979 RMK AO2 SLP094 T01000056=
201705162353 METAR KSEA 162353Z 22008KT 10SM FEW025 SCT045 SCT120 BKN200 10/04 A2975 RMK AO2 SLP082 60006 T01000044 10122 20083 51020=
201705162253 METAR KSEA 162253Z 23008KT 10SM SCT021 BKN044 BKN200 11/06 A2973 RMK AO2 RAE2157 SLP076 P0000 T01060056=
201705162236 SPECI KSEA 162236Z 23008KT 10SM SCT019 BKN045 BKN200 12/07 A2973 RMK AO2 RAE2157 P0000 T01170067=
201705162202 SPECI KSEA 162202Z 00000KT 10SM SCT019 BKN028 BKN200 09/06 A2972 RMK AO2 RAE2157 P0000 T00940061=
201705162153 METAR KSEA 162153Z 17006KT 10SM -RA FEW016 SCT028 BKN045 BKN200 09/07 A2971 RMK AO2 SLP069 P0002 T00940067=
201705162117 SPECI KSEA 162117Z 00000KT 7SM -RA FEW015 SCT029 BKN048 09/06 A2970 RMK AO2 P0002 T00890061=
201705162053 METAR KSEA 162053Z 35004KT 10SM -RA FEW014 BKN029 BKN037 09/05 A2969 RMK AO2 RAB1958 SLP062 P0003 60004 T00890050 53014=
201705161953 METAR KSEA 161953Z 26007KT 10SM SCT013 BKN027 BKN050 11/04 A2967 RMK AO2 RAB04E17 SLP054 P0000 T01110044=
201705161853 METAR KSEA 161853Z 19010KT 10SM SCT025 BKN034 BKN080 10/05 A2966 RMK AO2 RAE25 SLP049 P0001 T01000050=
201705161823 SPECI KSEA 161823Z 24009KT 10SM -RA SCT021 BKN028 BKN044 09/06 A2966 RMK AO2 P0001 T00940061=
201705161753 METAR KSEA 161753Z 22013KT 10SM -RA SCT018 BKN034 BKN041 09/04 A2965 RMK AO2 RAB53 SLP047 P0000 60003 T00890044 10094 20072 51007=
201705161653 METAR KSEA 161653Z 21010KT 10SM SCT016 BKN030 OVC040 08/05 A2965 RMK AO2 SLP046 T00830050=
201705161553 METAR KSEA 161553Z 21009KT 10SM FEW006 BKN016 OVC030 08/05 A2964 RMK AO2 SLP044 T00780050=
201705161453 METAR KSEA 161453Z 20007KT 10SM FEW006 BKN017 OVC024 07/06 A2963 RMK AO2 SLP040 60003 T00720056 53013=
201705161353 METAR KSEA 161353Z 23008KT 10SM FEW006 BKN015 BKN055 07/06 A2960 RMK AO2 RAE22 SLP030 P0000 T00720056=
201705161322 SPECI KSEA 161322Z 21013KT 10SM FEW008 BKN015 BKN045 07/06 A2958 RMK AO2 RAE22 P0000 T00720061=
201705161253 METAR KSEA 161253Z 23011KT 10SM -RA FEW006 BKN010 OVC014 08/07 A2958 RMK AO2 SLP025 P0003 T00780067=
201705161235 SPECI KSEA 161235Z 23012KT 10SM -RA FEW006 BKN010 OVC014 08/07 A2958 RMK AO2 P0003 T00780067=
201705161153 METAR KSEA 161153Z 19010KT 10SM -RA BKN006 OVC012 08/07 A2959 RMK AO2 SLP027 P0002 60011 70038 T00780072 10083 20078 58018=
201705161053 METAR KSEA 161053Z 18012KT 4SM -RA BR BKN008 OVC019 08/07 A2961 RMK AO2 SLP035 P0003 T00780067=
201705161034 SPECI KSEA 161034Z 18014KT 7SM -RA BKN008 OVC013 08/07 A2962 RMK AO2 P0002 T00780067=
201705161014 SPECI KSEA 161014Z 18012KT 4SM -RA BR FEW009 BKN016 OVC021 08/07 A2962 RMK AO2 P0001 T00780067=
201705160953 METAR KSEA 160953Z 18011KT 9SM -RA BKN020 BKN028 OVC034 08/06 A2962 RMK AO2 RAB12 SLP038 P0000 T00780061=
201705160853 METAR KSEA 160853Z 20012KT 10SM BKN026 OVC035 08/06 A2964 RMK AO2 SLP045 60006 T00830061 56033=
201705160813 SPECI KSEA 160813Z 16012KT 10SM OVC029 08/07 A2964 RMK AO2 T00830072=
201705160753 METAR KSEA 160753Z 16009KT 10SM BKN030 OVC035 08/07 A2966 RMK AO2 RAE37 SLP050 P0001 T00830072 401110078=
201705160653 METAR KSEA 160653Z 13013KT 10SM -RA FEW009 BKN034 OVC048 08/07 A2969 RMK AO2 SLP061 P0005 T00830072=
201705160553 METAR KSEA 160553Z 17010KT 10SM -RA FEW009 BKN034 OVC042 08/07 A2974 RMK AO2 SLP078 P0005 60022 T00830067 10089 20083 58029=
201705160453 METAR KSEA 160453Z 17009KT 10SM -RA FEW009 OVC038 08/07 A2978 RMK AO2 SLP090 P0003 T00830072=
201705160353 METAR KSEA 160353Z 17008KT 9SM -RA FEW008 OVC043 08/07 A2980 RMK AO2 SLP098 P0003 T00830072=
201705160253 METAR KSEA 160253Z 18008KT 9SM -RA FEW008 OVC045 09/08 A2983 RMK AO2 SLP108 P0004 60011 T00890078 58022=
201705160153 METAR KSEA 160153Z 16005KT 6SM -RA BR FEW009 SCT043 OVC055 08/08 A2986 RMK AO2 SLP119 P0003 T00830078=
201705160053 METAR KSEA 160053Z 20005KT 6SM -RA BR FEW009 SCT042 OVC055 09/08 A2988 RMK AO2 SLP126 P0004 T00890078=
201705152353 METAR KSEA 152353Z 26008KT 9SM -RA FEW007 BKN047 OVC060 09/07 A2990 RMK AO2 SLP130 P0001 60005 T00890072 10111 20089 56013=
201705152350 SPECI KSEA 152350Z 26009KT 9SM -RA FEW007 BKN047 OVC060 09/08 A2990 RMK AO2 P0001=
201705152253 METAR KSEA 152253Z 22008KT 10SM -RA FEW016 BKN048 OVC060 09/07 A2991 RMK AO2 SLP137 P0001 T00940072=
201705152153 METAR KSEA 152153Z 23006KT 10SM -RA FEW015 BKN047 OVC060 10/08 A2993 RMK AO2 SLP143 P0001 T01000078=
201705152053 METAR KSEA 152053Z 22005KT 7SM -RA FEW012 BKN039 OVC050 10/07 A2995 RMK AO2 RAE1956B13 SLP148 P0002 60002 T01000072 56010=
201705151953 METAR KSEA 151953Z 26006KT 10SM -RA SCT025 BKN044 OVC060 11/06 A2995 RMK AO2 RAB42 SLP150 P0000 T01060056=
201705151853 METAR KSEA 151853Z 23007KT 10SM FEW025 BKN041 BKN110 OVC240 11/05 A2996 RMK AO2 SLP153 T01110050=
201705151753 METAR KSEA 151753Z 20009KT 10SM FEW020 BKN034 OVC110 11/04 A2998 RMK AO2 SLP158 T01060044 10106 20078 58004=
201705151653 METAR KSEA 151653Z 19010KT 10SM FEW015 BKN034 OVC065 10/05 A2999 RMK AO2 SLP161 T01000050=
201705151553 METAR KSEA 151553Z 19010KT 10SM FEW015 BKN037 OVC250 11/06 A2999 RMK AO2 SLP162 T01060061=
201705151453 METAR KSEA 151453Z 19009KT 10SM FEW012 BKN041 BKN065 BKN250 10/06 A2999 RMK AO2 SLP161 T01000061 56005=
201705151353 METAR KSEA 151353Z 17009KT 10SM FEW008 BKN042 BKN250 09/06 A2999 RMK AO2 SLP163 T00890061=
201705151253 METAR KSEA 151253Z 19006KT 10SM FEW008 SCT041 BKN250 08/06 A3000 RMK AO2 SLP163 T00830056=
201705151249 SPECI KSEA 151249Z 19007KT 10SM FEW008 SCT041 BKN250 08/06 A3000 RMK AO2=
201705151153 METAR KSEA 151153Z 18009KT 10SM FEW015 SCT041 08/06 A3000 RMK AO2 SLP167 70004 T00780056 10100 20078 56006=
201705151053 METAR KSEA 151053Z 18010KT 10SM FEW015 SCT050 08/06 A3001 RMK AO2 SLP168 T00830061=
201705150953 METAR KSEA 150953Z 18007KT 10SM SCT015 BKN030 08/06 A3001 RMK AO2 SLP170 T00830061=
201705150946 SPECI KSEA 150946Z 18007KT 10SM SCT015 BKN030 08/06 A3001 RMK AO2 T00830061=
201705150853 METAR KSEA 150853Z 20008KT 10SM BKN015 OVC030 09/07 A3002 RMK AO2 SLP172 T00890067 50000=
201705150753 METAR KSEA 150753Z 19007KT 10SM BKN015 OVC030 09/07 A3002 RMK AO2 SLP172 T00890067 401500083=
201705150741 SPECI KSEA 150741Z 18009KT 10SM BKN015 OVC030 09/07 A3002 RMK AO2 T00890067=
201705150701 SPECI KSEA 150701Z 19006KT 10SM SCT017 BKN030 BKN050 09/07 A3002 RMK AO2 T00940067=
201705150653 METAR KSEA 150653Z 20009KT 10SM BKN017 OVC050 09/07 A3002 RMK AO2 SLP174 T00940067=
201705150553 METAR KSEA 150553Z 19009KT 10SM SCT025 BKN035 BKN050 10/07 A3002 RMK AO2 SLP173 T01000072 10133 20100 51008=
201705150522 SPECI KSEA 150522Z 17009KT 10SM SCT024 BKN034 BKN048 11/07 A3002 RMK AO2 T01060067=
201705150453 METAR KSEA 150453Z 20008KT 10SM FEW021 BKN026 11/07 A3002 RMK AO2 SLP173 T01060072=
201705150442 SPECI KSEA 150442Z 19010KT 10SM FEW021 BKN026 11/08 A3002 RMK AO2 T01060078=
201705150353 METAR KSEA 150353Z 20010KT 10SM FEW032 BKN055 11/06 A3000 RMK AO2 SLP168 T01110061=
201705150253 METAR KSEA 150253Z 20012KT 10SM SCT032 BKN049 12/06 A3000 RMK AO2 SLP164 T01220061 53003=
201705150153 METAR KSEA 150153Z 20011KT 10SM FEW027 SCT032 BKN055 12/06 A2999 RMK AO2 SLP162 T01220061=
201705150053 METAR KSEA 150053Z 20013KT 10SM FEW030 SCT045CB BKN080 13/06 A2999 RMK AO2 SLP162 CB SE MOV E T01330061=
201705142353 METAR KSEA 142353Z 21010KT 10SM FEW030 SCT060 BKN080 13/07 A2999 RMK AO2 RAE15 SLP160 P0001 60001 T01280072 10150 20106 58001=
201705142253 METAR KSEA 142253Z 22008KT 8SM -RA FEW026 SCT042 BKN048 11/07 A2999 RMK AO2 RAB41 SLP163 P0000 T01110072=
201705142153 METAR KSEA 142153Z 20012G18KT 10SM FEW030 BKN060 14/08 A2999 RMK AO2 SLP161 T01440078=
201705142053 METAR KSEA 142053Z 19013G19KT 10SM SCT027 BKN038 BKN055 14/08 A2999 RMK AO2 SLP161 T01390083 56006=
201705141953 METAR KSEA 141953Z 20013KT 10SM FEW020 BKN085 13/07 A2999 RMK AO2 SLP162 T01330067=
201705141853 METAR KSEA 141853Z 22009KT 10SM SCT020 BKN070 BKN085 12/07 A3000 RMK AO2 SLP166 T01170067=
201705141753 METAR KSEA 141753Z 17009KT 10SM BKN012 OVC026 11/08 A3001 RMK AO2 SLP169 60003 T01060078 10106 20083 51000=
201705141653 METAR KSEA 141653Z 17010KT 10SM BKN014 OVC020 09/07 A3001 RMK AO2 SLP169 T00940072=
201705141553 METAR KSEA 141553Z 15007KT 10SM FEW009 SCT012 OVC021 08/07 A3001 RMK AO2 RAE03 SLP170 P0001 T00830067=
201705141531 SPECI KSEA 141531Z 16007KT 8SM SCT009 OVC020 08/07 A3001 RMK AO2 RAE03 P0001 T00830067=
201705141453 METAR KSEA 141453Z 17006KT 10SM -RA FEW024 OVC031 08/07 A3001 RMK AO2 SLP168 P0001 60002 T00830067 53003=
201705141353 METAR KSEA 141353Z 18007KT 10SM -RA FEW023 BKN033 OVC041 08/07 A3000 RMK AO2 RAB1255E30B50 SLP165 P0001 T00830067=
201705141319 SPECI KSEA 141319Z 19006KT 10SM -RA FEW023 BKN028 OVC034 08/07 A3000 RMK AO2 RAB1255 P0000 T00830067=
201705141253 METAR KSEA 141253Z 21005KT 10SM FEW018 OVC036 08/06 A3000 RMK AO2 SLP166 T00830061=
201705141153 METAR KSEA 141153Z 20009KT 10SM SCT031 BKN040 OVC065 09/06 A3000 RMK AO2 SLP164 T00890056 10094 20083 58002=
201705141053 METAR KSEA 141053Z 19007KT 10SM FEW023 BKN049 OVC065 09/06 A3000 RMK AO2 SLP166 T00890056=
201705140953 METAR KSEA 140953Z 20008KT 10SM SCT050 09/06 A3000 RMK AO2 SLP167 T00890056=
201705140853 METAR KSEA 140853Z 20008KT 10SM FEW020 BKN050 OVC080 09/06 A3000 RMK AO2 SLP166 T00890061 51001=
201705140753 METAR KSEA 140753Z 19010KT 10SM FEW020 BKN080 OVC150 09/06 A3000 RMK AO2 SLP167 T00890061 401390072=
201705140653 METAR KSEA 140653Z 20010KT 10SM FEW022 SCT065 OVC140 09/06 A3000 RMK AO2 SLP167 T00890061=
201705140553 METAR KSEA 140553Z 20010KT 10SM FEW022 SCT065 BKN150 09/06 A3000 RMK AO2 SLP166 60000 T00940061 10139 20094 51010=
201705140453 METAR KSEA 140453Z 20010KT 10SM FEW025 BKN060 OVC200 10/06 A3000 RMK AO2 SLP165 T01000061=
201705140353 METAR KSEA 140353Z 20010KT 10SM FEW035 BKN055 OVC200 10/06 A2998 RMK AO2 RAE17 SLP158 P0000 T01000056=
201705140253 METAR KSEA 140253Z 22011KT 10SM -RA BKN038 BKN070 BKN200 11/06 A2997 RMK AO2 SLP155 P0000 60000 T01110056 53007=
201705140153 METAR KSEA 140153Z 22011KT 10SM -RA SCT035 BKN048 BKN065 BKN200 12/06 A2996 RMK AO2 RAB12 SLP151 P0000 T01170056=
201705140053 METAR KSEA 140053Z 23008KT 10SM SCT035 BKN060 BKN080 12/05 A2995 RMK AO2 SLP150 T01220050=
201705132353 METAR KSEA 132353Z 22011KT 10SM FEW015 SCT035 BKN065 13/05 A2995 RMK AO2 SLP148 60000 T01280050 10139 20100 58003=
201705132253 METAR KSEA 132253Z 22013G18KT 10SM SCT030 SCT055 13/06 A2995 RMK AO2 SLP150 T01280056=
201705132153 METAR KSEA 132153Z 20011KT 10SM SCT030 SCT065 13/06 A2995 RMK AO2 SLP150 T01330056=
201705132053 METAR KSEA 132053Z 23007KT 200V260 10SM FEW027 SCT060 13/06 A2995 RMK AO2 SLP150 60000 T01280056 58003=
201705131953 METAR KSEA 131953Z 22007KT 10SM FEW046 SCT060 BKN080 12/06 A2996 RMK AO2 RAB21E34 SLP152 P0000 T01170061=
201705131925 SPECI KSEA 131925Z 21007KT 10SM -RA FEW025 BKN035 BKN080 10/06 A2996 RMK AO2 RAB21 P0000 T01000056=
201705131853 METAR KSEA 131853Z 25010KT 10SM FEW021 BKN027 BKN085 11/06 A2996 RMK AO2 SLP154 T01060056=
201705131753 METAR KSEA 131753Z 22007KT 10SM SCT018 BKN050 11/06 A2996 RMK AO2 SLP154 60000 T01110061 10111 20072 51003=
201705131653 METAR KSEA 131653Z 23010KT 10SM FEW013 BKN037 BKN046 10/06 A2996 RMK AO2 SLP154 T01000056=
201705131611 SPECI KSEA 131611Z 20006KT 10SM SCT013 OVC032 08/07 A2996 RMK AO2 T00830067=
201705131553 METAR KSEA 131553Z 19008KT 10SM BKN013 BKN019 OVC031 08/06 A2996 RMK AO2 SLP153 T00830061=
201705131528 SPECI KSEA 131528Z 21009KT 10SM BKN013 OVC019 08/06 A2996 RMK AO2 T00780061=
201705131453 METAR KSEA 131453Z 21006KT 10SM BKN015 OVC025 08/06 A2995 RMK AO2 SLP150 60000 T00780056 53006=
201705131353 METAR KSEA 131353Z 19009KT 10SM FEW012 BKN024 OVC031 07/06 A2995 RMK AO2 DZB29E43 SLP147 P0000 T00720061=
201705131332 SPECI KSEA 131332Z 19010KT 6SM -DZ BR BKN013 BKN019 OVC023 08/06 A2994 RMK AO2 DZB29 P0000 T00780061=
201705131253 METAR KSEA 131253Z 19008KT 10SM SCT017 BKN025 OVC034 08/06 A2994 RMK AO2 SLP144 T00780056=
201705131248 SPECI KSEA 131248Z 18009KT 10SM BKN017 BKN025 OVC046 08/06 A2994 RMK AO2=
201705131207 SPECI KSEA 131207Z 17009KT 10SM FEW017 SCT025 OVC045 08/06 A2993 RMK AO2 T00780056=
201705131153 METAR KSEA 131153Z 18010KT 10SM BKN019 BKN023 OVC043 08/06 A2994 RMK AO2 SLP144 60004 70019 T00780061 10089 20078 55002=
201705131053 METAR KSEA 131053Z 16007KT 10SM BKN022 OVC030 08/06 A2993 RMK AO2 RAE10 SLP144 P0000 T00780061=
201705131016 SPECI KSEA 131016Z 14007KT 10SM BKN023 OVC029 08/06 A2993 RMK AO2 RAE10 P0000 T00780061=
201705130953 METAR KSEA 130953Z 17005KT 8SM -RA FEW025 OVC035 08/06 A2993 RMK AO2 RAE17B33 SLP143 P0002 T00780061=
201705130853 METAR KSEA 130853Z 12006KT 10SM -RA OVC033 08/07 A2994 RMK AO2 RAE32B53 SLP146 P0001 60002 T00780067 56006=
201705130833 SPECI KSEA 130833Z 08005KT 10SM BKN030 OVC034 08/07 A2994 RMK AO2 RAE32 P0001 T00830067=
201705130810 SPECI KSEA 130810Z 14003KT 9SM -RA FEW008 BKN026 OVC034 08/07 A2995 RMK AO2 P0001 T00780067=
201705130753 METAR KSEA 130753Z 00000KT 10SM -RA FEW028 OVC034 08/07 A2995 RMK AO2 RAB25 SLP148 P0001 T00830067 401220061=
201705130653 METAR KSEA 130653Z 09004KT 10SM OVC035 08/06 A2995 RMK AO2 RAE22 SLP149 P0000 T00830061=
201705130553 METAR KSEA 130553Z 07004KT 10SM -RA SCT035 OVC048 08/06 A2996 RMK AO2 SLP152 P0001 60010 T00830061 10106 20083 58006=
201705130453 METAR KSEA 130453Z 07007KT 10SM -RA FEW037 BKN050 OVC070 09/06 A2996 RMK AO2 SLP154 P0000 T00890061=
201705130353 METAR KSEA 130353Z 18004KT 10SM -RA BKN033 OVC050 08/07 A2998 RMK AO2 RAB18 SLP158 P0002 T00830067=
201705130253 METAR KSEA 130253Z 00000KT 10SM OVC046 09/06 A2998 RMK AO2 RAE52 SLP158 P0007 60007 T00890056 58004=
201705130241 SPECI KSEA 130241Z 14004KT 10SM -RA FEW025 BKN049 OVC060 09/06 A2998 RMK AO2 P0007 T00890061=
201705130212 SPECI KSEA 130212Z 15003KT 4SM -RA BR FEW021 BKN029 OVC060 09/07 A2998 RMK AO2 P0006 T00890067=
201705130153 METAR KSEA 130153Z 12008KT 9SM -RA SCT029 BKN065 OVC200 09/06 A2998 RMK AO2 RAB50 SLP161 P0000 T00940056=
201705130053 METAR KSEA 130053Z 15005KT 10SM FEW050 SCT110 OVC220 11/05 A2998 RMK AO2 SLP160 T01060050=
201705122353 METAR KSEA 122353Z 25009KT 10SM FEW030 SCT050 BKN090 BKN220 10/05 A2999 RMK AO2 RAE06 SLP162 CB DSNT E-SE P0001 60005 T01000050 10122 20083 53004=
201705122253 METAR KSEA 122253Z 25003KT 8SM -RA FEW027CB SCT040 BKN080 BKN200 10/06 A2998 RMK AO2 RAB51 SLP159 CB E-SE MOV NE P0000 T01000061=
201705122153 METAR KSEA 122153Z 00000KT 10SM FEW040CB SCT050 BKN080 BKN200 11/07 A2997 RMK AO2 RAB07E25 SLP157 CBMAM OHD MOV N P0000 T01110072=
201705122053 METAR KSEA 122053Z 24007KT 10SM FEW016 BKN036CB BKN070 11/08 A2997 RMK AO2 RAE00B22E51 SLP157 CB S MOV N P0002 60004 T01110078 51002=
201705121953 METAR KSEA 121953Z 28006KT 7SM -RA FEW016 BKN034 BKN060 08/07 A2997 RMK AO2 RAB00 SLP156 P0002 T00830067=
201705121853 METAR KSEA 121853Z 23012G20KT 10SM FEW022 BKN040 BKN070 11/04 A2997 RMK AO2 SLP156 T01060044=
201705121753 METAR KSEA 121753Z 23008KT 200V270 10SM SCT037 BKN055 BKN080 12/07 A2997 RMK AO2 RAB27E42 SLP155 P0000 60000 T01170067 10117 20061 57005=
201705121653 METAR KSEA 121653Z VRB05KT 10SM FEW025 SCT037 BKN050 11/06 A2997 RMK AO2 SLP157 T01110061=
201705121553 METAR KSEA 121553Z 00000KT 10SM FEW015 SCT055 BKN120 09/04 A2998 RMK AO2 SLP158 T00890044=
201705121453 METAR KSEA 121453Z 15004KT 10SM FEW025 SCT070 SCT120 09/05 A2998 RMK AO2 SLP160 T00890050 58002=
201705121353 METAR KSEA 121353Z 16006KT 10SM SCT060 SCT075 BKN120 08/05 A2999 RMK AO2 SLP162 T00780050=
201705121253 METAR KSEA 121253Z 14006KT 10SM FEW055 SCT070 BKN110 07/04 A2999 RMK AO2 SLP161 T00720044=
201705121153 METAR KSEA 121153Z 16007KT 10SM BKN070 06/05 A2999 RMK AO2 SLP162 60000 70039 T00610050 10083 20061 56001=
201705121053 METAR KSEA 121053Z 15006KT 10SM FEW041 BKN070 07/06 A2999 RMK AO2 SLP162 T00720056=
201705120953 METAR KSEA 120953Z 14008KT 10SM FEW041 07/06 A2999 RMK AO2 SLP162 T00720056=
201705120853 METAR KSEA 120853Z 14006KT 10SM SCT041 07/06 A2999 RMK AO2 SLP162 60000 T00720061 58000=
201705120753 METAR KSEA 120753Z 14009KT 10SM BKN044 OVC055 08/06 A3000 RMK AO2 SLP166 T00780061 401560078=
201705120653 METAR KSEA 120653Z 15007KT 10SM BKN045 OVC055 08/06 A3000 RMK AO2 RAE0555 SLP165 P0000 T00780061=
201705120553 METAR KSEA 120553Z 13008KT 10SM -RA BKN049 OVC070 08/06 A2999 RMK AO2 SLP162 P0009 60018 T00830061 10122 20083 50001=
201705120453 METAR KSEA 120453Z 20010G14KT 10SM -RA SCT014 BKN041 09/07 A3000 RMK AO2 RAB50 SLP165 P0000 T00890072=
201705120353 METAR KSEA 120353Z 14004KT 10SM FEW011 SCT016 SCT036 08/07 A2999 RMK AO2 SLP161 T00830072=
201705120253 METAR KSEA 120253Z 20005KT 10SM SCT044 SCT110 SCT200 09/07 A2999 RMK AO2 RAE41 SLP161 P0002 60009 T00890072 50008=
201705120153 METAR KSEA 120153Z 23011G21KT 8SM -RA FEW026 BKN040 OVC080 09/07 A3000 RMK AO2 PK WND 23029/0110 WSHFT 0108 RAB16 SLP166 P0007 T00890067=
201705120128 SPECI KSEA 120128Z 22008KT 4SM -RA BR FEW024 BKN032 OVC080 09/07 A3000 RMK AO2 PK WND 23029/0110 WSHFT 0108 RAB16 P0004 T00890067=
201705120053 METAR KSEA 120053Z 20009KT 10SM SCT043 BKN060 BKN080 12/08 A2998 RMK AO2 SLP160 SHRA S-W T01220078=
201705112353 METAR KSEA 112353Z 15006KT 10SM SCT042 BKN080 BKN200 12/09 A2996 RMK AO2 SLP152 60019 T01170089 10133 20106 58003=
201705112253 METAR KSEA 112253Z 15011KT 10SM FEW018 SCT034 BKN070 12/08 A2998 RMK AO2 SLP158 T01170083=
201705112153 METAR KSEA 112153Z 17011KT 10SM FEW016 BKN038 OVC055 11/08 A2999 RMK AO2 RAB05E16B40E53 SLP162 P0000 T01060083=
201705112053 METAR KSEA 112053Z 18010KT 10SM SCT008 BKN050 OVC065 11/09 A2997 RMK AO2 RAE49 SLP155 P0004 60019 T01110089 51043=
201705111953 METAR KSEA 111953Z 21012KT 7SM -RA FEW008 SCT016 OVC050 11/09 A2993 RMK AO2 RAE22B40 SLP142 P0001 T01110094=
201705111931 SPECI KSEA 111931Z 23014G22KT 10SM FEW007 SCT014 OVC070 12/09 A2991 RMK AO2 RAE22 P0001 T01170094=
201705111900 SPECI KSEA 111900Z 23017G23KT 7SM -RA SCT007 BKN014 OVC050 12/10 A2990 RMK AO2 P0001 T01170100=
201705111853 METAR KSEA 111853Z 24016G23KT 5SM -RA BR BKN009 BKN024 OVC050 12/11 A2990 RMK AO2 SLP129 P0014 T01170106=
201705111848 SPECI KSEA 111848Z 23014G19KT 5SM RA BR BKN009 BKN024 OVC050 12/11 A2990 RMK AO2 P0013=
201705111830 SPECI KSEA 111830Z 24012G21KT 6SM -RA BR FEW011 BKN024 OVC055 12/11 A2988 RMK AO2 PRESRR P0005 T01170106=
201705111753 METAR KSEA 111753Z 20009KT 5SM -RA BR FEW030 BKN065 OVC110 13/11 A2984 RMK AO2 RAB26 SLP111 P0002 60002 T01330111 10156 20122 53001=
201705111653 METAR KSEA 111653Z 20004KT 10SM BKN055 BKN110 OVC250 16/11 A2982 RMK AO2 SLP101 T01560111=
201705111553 METAR KSEA 111553Z VRB03KT 10SM SCT070 BKN120 OVC250 14/10 A2982 RMK AO2 SLP103 T01440100=
201705111453 METAR KSEA 111453Z 00000KT 10SM FEW070 BKN110 OVC200 13/11 A2984 RMK AO2 SLP110 60000 T01280111 56005=
201705111353 METAR KSEA 111353Z 25004KT 10SM FEW040 SCT070 BKN130 12/12 A2985 RMK AO2 SLP112 T01220117=
201705111253 METAR KSEA 111253Z 11003KT 10SM FEW040 BKN070 OVC130 12/11 A2984 RMK AO2 RAB20E35 SLP111 P0000 T01220111=
201705111153 METAR KSEA 111153Z 00000KT 10SM BKN037 OVC080 12/11 A2986 RMK AO2 RAE48 SLP116 P0001 60008 70008 T01220106 10156 20117 58017=
201705111053 METAR KSEA 111053Z 00000KT 10SM -RA BKN042 OVC049 12/11 A2988 RMK AO2 SLP125 P0005 T01220106=
201705110953 METAR KSEA 110953Z 17006KT 8SM -RA OVC048 12/10 A2991 RMK AO2 RAB32 SLP135 P0002 T01220100=
201705110853 METAR KSEA 110853Z 19004KT 10SM BKN047 OVC070 13/08 A2991 RMK AO2 SLP133 T01330083 51008=
201705110753 METAR KSEA 110753Z 24008KT 10SM SCT070 OVC090 13/08 A2990 RMK AO2 SLP130 T01330078 402170106=
201705110653 METAR KSEA 110653Z 25010KT 10SM BKN055 OVC200 14/07 A2990 RMK AO2 SLP129 T01440067=
201705110553 METAR KSEA 110553Z 23007KT 10SM SCT060 BKN200 16/07 A2988 RMK AO2 SLP125 T01560072 10211 20156 50010=
201705110453 METAR KSEA 110453Z 24005KT 10SM BKN060 OVC150 17/08 A2989 RMK AO2 SLP128 T01670083=
201705110353 METAR KSEA 110353Z 26007KT 10SM FEW060 BKN090 OVC200 17/08 A2988 RMK AO2 SLP122 T01720083=
201705110253 METAR KSEA 110253Z 28004KT 10SM FEW050 SCT120 BKN250 19/09 A2985 RMK AO2 SLP114 T01890089 53001=
201705110153 METAR KSEA 110153Z 27004KT 10SM FEW050 SCT120 BKN250 21/09 A2984 RMK AO2 SLP111 T02060089=
201705110053 METAR KSEA 110053Z 20005KT 10SM R16L/5500VP6000FT FEW050 SCT120 BKN250 21/09 A2985 RMK AO2 SLP112 T02060094=
201705102353 METAR KSEA 102353Z 22008KT 10SM FEW050 SCT140 BKN250 21/09 A2985 RMK AO2 SLP113 T02110094 10217 20144 58005=
201705102253 METAR KSEA 102253Z 18008KT 10SM FEW050 SCT140 BKN250 21/09 A2986 RMK AO2 SLP116 T02060094=
201705102153 METAR KSEA 102153Z 23007KT 10SM FEW040 SCT150 SCT250 19/09 A2986 RMK AO2 SLP116 T01940094=
201705102053 METAR KSEA 102053Z 24004KT 10SM FEW040 SCT150 SCT250 19/08 A2987 RMK AO2 SLP118 T01890083 58017=
201705101953 METAR KSEA 101953Z 27005KT 10SM FEW035 SCT170 SCT250 18/09 A2989 RMK AO2 SLP125 T01780089=
201705101853 METAR KSEA 101853Z VRB05KT 10SM FEW110 BKN170 BKN250 17/08 A2990 RMK AO2 SLP130 T01670083=
201705101753 METAR KSEA 101753Z 27006KT 10SM FEW030 SCT110 BKN250 15/08 A2992 RMK AO2 SLP136 T01500083 10150 20106 58007=
201705101653 METAR KSEA 101653Z VRB04KT 10SM FEW025 BKN110 BKN200 13/09 A2992 RMK AO2 SLP140 T01330089=
201705101553 METAR KSEA 101553Z 26005KT 10SM FEW020 BKN110 BKN200 12/08 A2993 RMK AO2 SLP142 T01170083=
201705101453 METAR KSEA 101453Z 27004KT 10SM FEW085 SCT120 SCT200 11/08 A2994 RMK AO2 SLP143 T01060083 58001=
201705101353 METAR KSEA 101353Z 23004KT 10SM FEW085 BKN120 OVC200 11/08 A2995 RMK AO2 SLP146 T01060078=
201705101253 METAR KSEA 101253Z 21003KT 10SM FEW085 BKN130 BKN200 11/08 A2994 RMK AO2 SLP145 T01060083=
201705101153 METAR KSEA 101153Z 21003KT 10SM BKN120 11/09 A2994 RMK AO2 SLP144 T01060089 10128 20106 55000=
201705101053 METAR KSEA 101053Z 00000KT 10SM BKN120 11/08 A2994 RMK AO2 SLP143 T01110083=
201705100953 METAR KSEA 100953Z 29004KT 10SM BKN130 BKN210 11/08 A2993 RMK AO2 SLP141 T01060083=
201705100853 METAR KSEA 100853Z 00000KT 10SM CLR 11/08 A2994 RMK AO2 SLP145 T01110078 58002=
201705100753 METAR KSEA 100753Z 00000KT 10SM CLR 13/07 A2995 RMK AO2 SLP148 T01280067 402110083=
201705100653 METAR KSEA 100653Z 34004KT 10SM FEW250 12/07 A2994 RMK AO2 SLP145 T01220067=
201705100553 METAR KSEA 100553Z 31005KT 10SM SCT250 12/07 A2995 RMK AO2 SLP147 T01220067 10211 20122 58000=
201705100453 METAR KSEA 100453Z 33006KT 10SM FEW120 SCT250 14/06 A2995 RMK AO2 SLP149 T01390061=
201705100353 METAR KSEA 100353Z 33007KT 10SM FEW050 FEW140 BKN250 15/07 A2995 RMK AO2 SLP148 T01500067=
201705100253 METAR KSEA 100253Z 35007KT 10SM FEW050 FEW150 BKN250 18/08 A2995 RMK AO2 SLP147 T01780078 56011=
201705100153 METAR KSEA 100153Z 34007KT 10SM FEW050 FEW150 BKN250 20/08 A2995 RMK AO2 SLP147 T02000078=
201705100053 METAR KSEA 100053Z 27004KT 10SM FEW050 SCT150 BKN250 21/07 A2997 RMK AO2 SLP153 T02060072=
201705092353 METAR KSEA 092353Z 00000KT 10SM FEW050 SCT150 BKN250 21/07 A2998 RMK AO2 SLP158 T02060067 10211 20150 56017=
201705092253 METAR KSEA 092253Z 27009KT 10SM FEW050 SCT150 BKN250 21/07 A2999 RMK AO2 SLP162 T02060067=
201705092153 METAR KSEA 092153Z VRB06KT 10SM FEW050 BKN250 20/07 A3001 RMK AO2 SLP166 T02000067=
201705092053 METAR KSEA 092053Z 31007KT 10SM FEW050 BKN250 19/07 A3003 RMK AO2 SLP175 T01890067 56014=
201705091953 METAR KSEA 091953Z 27007KT 10SM FEW040 BKN250 17/09 A3004 RMK AO2 SLP177 T01720089=
201705091853 METAR KSEA 091853Z 00000KT 10SM FEW040 BKN250 17/08 A3005 RMK AO2 SLP180 T01720083=
201705091753 METAR KSEA 091753Z 29007KT 10SM FEW040 BKN250 15/09 A3008 RMK AO2 SLP191 T01500089 10156 20083 58008=
201705091653 METAR KSEA 091653Z 01004KT 10SM BKN250 14/08 A3008 RMK AO2 SLP194 T01440083=
201705091553 METAR KSEA 091553Z 03003KT 10SM FEW250 13/08 A3010 RMK AO2 SLP198 T01280078=
201705091453 METAR KSEA 091453Z 35005KT 10SM FEW020 FEW250 12/07 A3010 RMK AO2 SLP199 T01170072 55006=
201705091353 METAR KSEA 091353Z 03005KT 10SM FEW080 10/07 A3009 RMK AO2 SLP196 T01000067=
201705091253 METAR KSEA 091253Z 06005KT 10SM FEW100 FEW250 09/06 A3010 RMK AO2 SLP198 T00890056=
201705091153 METAR KSEA 091153Z 04004KT 10SM CLR 09/05 A3012 RMK AO2 SLP205 T00890050 10122 20083 53003=
201705091053 METAR KSEA 091053Z 31004KT 10SM CLR 08/05 A3011 RMK AO2 SLP204 T00830050=
201705090953 METAR KSEA 090953Z 35004KT 10SM CLR 09/06 A3010 RMK AO2 SLP200 T00940056=
201705090853 METAR KSEA 090853Z 02007KT 10SM CLR 11/06 A3011 RMK AO2 SLP201 T01060056 58005=
201705090753 METAR KSEA 090753Z 34005KT 10SM CLR 11/05 A3012 RMK AO2 SLP207 T01060050 401780078=
201705090653 METAR KSEA 090653Z 33004KT 10SM FEW080 10/05 A3013 RMK AO2 SLP208 T01000050=
201705090553 METAR KSEA 090553Z 36007KT 10SM FEW080 12/01 A3012 RMK AO2 SLP207 T01170011 10178 20117 50001=
201705090453 METAR KSEA 090453Z 01007KT 10SM FEW075 SCT120 13/02 A3013 RMK AO2 SLP208 T01280017=
201705090353 METAR KSEA 090353Z 35009KT 10SM SCT055 BKN110 13/03 A3013 RMK AO2 SLP208 T01280028=
201705090253 METAR KSEA 090253Z 35011KT 10SM SCT095 BKN250 14/02 A3012 RMK AO2 SLP206 T01440017 56004=
201705090153 METAR KSEA 090153Z 36010KT 10SM BKN095 16/04 A3012 RMK AO2 SLP207 T01560039=
201705090053 METAR KSEA 090053Z 34009KT 10SM BKN095 BKN250 17/03 A3012 RMK AO2 SLP207 T01720028=
201705082353 METAR KSEA 082353Z 29009KT 10SM SCT095 BKN250 17/03 A3013 RMK AO2 SLP211 T01720033 10178 20117 56015=
201705082253 METAR KSEA 082253Z 29009KT 10SM FEW040 SCT090 SCT250 17/05 A3014 RMK AO2 SLP214 T01720050=
201705082153 METAR KSEA 082153Z 36005KT 10SM FEW040 SCT110 SCT250 17/06 A3016 RMK AO2 SLP219 T01720056=
201705082053 METAR KSEA 082053Z 36006KT 10SM FEW040 SCT090 BKN110 16/05 A3018 RMK AO2 SLP226 T01560050 58009=
201705081953 METAR KSEA 081953Z 29007KT 10SM FEW030 BKN085 14/06 A3019 RMK AO2 SLP229 T01440061=
201705081853 METAR KSEA 081853Z VRB05KT 10SM BKN100 13/07 A3020 RMK AO2 SLP234 T01330072=
201705081753 METAR KSEA 081753Z 25004KT 10SM BKN100 12/07 A3021 RMK AO2 SLP235 T01220072 10128 20078 58002=
201705081653 METAR KSEA 081653Z 00000KT 10SM BKN120 BKN200 11/07 A3021 RMK AO2 SLP236 T01060067=
201705081553 METAR KSEA 081553Z 22003KT 10SM FEW020 BKN130 BKN220 10/05 A3022 RMK AO2 SLP240 T01000050=
201705081453 METAR KSEA 081453Z 02003KT 10SM FEW015 FEW140 BKN250 10/04 A3021 RMK AO2 SLP238 T01000044 51003=
201705081353 METAR KSEA 081353Z 01003KT 10SM FEW020 FEW140 BKN220 09/06 A3021 RMK AO2 SLP238 T00890056=
201705081253 METAR KSEA 081253Z 00000KT 10SM SCT140 BKN220 09/05 A3021 RMK AO2 SLP236 T00890050 $=
201705081153 METAR KSEA 081153Z 10005KT 10SM FEW150 BKN220 08/05 A3020 RMK AO2 SLP235 T00830050 10111 20078 58001 $=
201705081053 METAR KSEA 081053Z 04003KT 10SM BKN190 09/05 A3021 RMK AO2 SLP236 T00890050 $=
201705080953 METAR KSEA 080953Z 34004KT 10SM BKN250 08/04 A3021 RMK AO2 SLP235 T00830044 $=
201705080853 METAR KSEA 080853Z 03009KT 10SM SCT250 09/04 A3021 RMK AO2 SLP236 T00940039 58002 $=
201705080753 METAR KSEA 080753Z 01004KT 10SM FEW250 09/02 A3022 RMK AO2 SLP239 T00940022 401670072 $=
201705080653 METAR KSEA 080653Z 04006KT 10SM CLR 11/02 A3021 RMK AO2 SLP238 T01110017 $=
201705080553 METAR KSEA 080553Z 35005KT 10SM FEW060 10/01 A3022 RMK AO2 SLP239 T01000011 10167 20100 53002 $=
201705080453 METAR KSEA 080453Z 01006KT 10SM SCT060 12/M01 A3021 RMK AO2 SLP237 T01171006 $=
201705080353 METAR KSEA 080353Z 31007KT 10SM SCT060 12/00 A3021 RMK AO2 SLP237 T01220000 $=
201705080253 METAR KSEA 080253Z 34009KT 10SM SCT045 14/01 A3021 RMK AO2 SLP236 T01390006 53002 $=
201705080153 METAR KSEA 080153Z 35009KT 10SM FEW040 16/01 A3020 RMK AO2 SLP232 T01560011 $=
201705080053 METAR KSEA 080053Z 30008KT 10SM FEW030 SCT050 16/01 A3020 RMK AO2 SLP232 T01610006 $=
201705072353 METAR KSEA 072353Z 30011KT 10SM FEW040 16/02 A3020 RMK AO2 SLP234 T01610022 10161 20111 56008 $=
201705072253 METAR KSEA 072253Z 27009KT 10SM FEW040 SCT200 16/03 A3021 RMK AO2 SLP236 T01560033 $=
201705072153 METAR KSEA 072153Z 26008KT 10SM SCT040 SCT250 15/04 A3022 RMK AO2 SLP240 T01500039 $=
201705072053 METAR KSEA 072053Z 03005KT 10SM SCT037 14/04 A3023 RMK AO2 SLP242 T01440039 56009 $=
201705071953 METAR KSEA 071953Z 30006KT 10SM SCT035 BKN044 14/05 A3023 RMK AO2 SLP245 T01390050 $=
201705071853 METAR KSEA 071853Z 31007KT 10SM SCT031 BKN043 12/06 A3025 RMK AO2 SLP250 T01220056 $=
201705071753 METAR KSEA 071753Z VRB04KT 10SM BKN028 BKN034 BKN044 12/05 A3025 RMK AO2 SLP252 T01170050 10122 20072 58002 $=
201705071653 METAR KSEA 071653Z 31003KT 10SM BKN022 BKN027 BKN060 11/05 A3027 RMK AO2 SLP258 T01110050 $=
201705071553 METAR KSEA 071553Z 33006KT 10SM BKN023 BKN026 10/05 A3027 RMK AO2 SLP258 T01000050 $=
201705071453 METAR KSEA 071453Z 03007KT 10SM BKN038 BKN060 09/05 A3026 RMK AO2 SLP254 T00890050 53012 $=
201705071353 METAR KSEA 071353Z 04006KT 10SM OVC030 08/04 A3025 RMK AO2 SLP251 T00830044 $=
201705071253 METAR KSEA 071253Z 05007KT 10SM BKN033 OVC060 08/04 A3023 RMK AO2 SLP244 T00780044 $=
201705071153 METAR KSEA 071153Z 06005KT 10SM FEW044 FEW080 07/04 A3022 RMK AO2 SLP241 70001 T00720039 10100 20072 53006 $=
201705071053 METAR KSEA 071053Z 06004KT 10SM FEW080 07/04 A3022 RMK AO2 SLP239 T00720044 $=
201705070953 METAR KSEA 070953Z 05005KT 10SM FEW080 08/04 A3021 RMK AO2 SLP236 T00780044 $=
201705070853 METAR KSEA 070853Z 05006KT 10SM FEW080 08/04 A3021 RMK AO2 SLP235 T00780044 51009 $=
201705070753 METAR KSEA 070753Z 05008KT 10SM FEW095 08/04 A3021 RMK AO2 SLP236 T00830044 401560061 $=
201705070653 METAR KSEA 070653Z 04005KT 10SM SCT095 09/04 A3018 RMK AO2 SLP229 T00890044 $=
201705070553 METAR KSEA 070553Z 03009KT 10SM BKN095 10/05 A3018 RMK AO2 SLP227 T01000050 10150 20094 51016 $=
201705070453 METAR KSEA 070453Z 01007KT 10SM SCT090 09/03 A3016 RMK AO2 SLP222 T00940033 $=
201705070353 METAR KSEA 070353Z 36008KT 10SM SCT090 10/02 A3014 RMK AO2 SLP215 T01000017 $=
201705070253 METAR KSEA 070253Z 36010KT 10SM SCT075 11/01 A3013 RMK AO2 SLP210 T01060011 53001 $=
201705070153 METAR KSEA 070153Z 34009KT 10SM SCT050 13/03 A3012 RMK AO2 SLP206 T01330028 $=
201705070053 METAR KSEA 070053Z 31009KT 10SM FEW049 SCT060 14/03 A3012 RMK AO2 SLP206 T01390028 $=
201705062353 METAR KSEA 062353Z 34007KT 10SM FEW045 BKN060 15/02 A3013 RMK AO2 SLP209 T01500022 10156 20094 56005 $=
201705062253 METAR KSEA 062253Z 34004KT 10SM FEW047 SCT060 13/01 A3013 RMK AO2 SLP210 T01330006 $=
201705062153 METAR KSEA 062153Z 00000KT 10SM SCT049 SCT065 14/03 A3014 RMK AO2 SLP212 T01440028 $=
201705062053 METAR KSEA 062053Z VRB04KT 10SM SCT041 14/03 A3014 RMK AO2 SLP214 T01390028 58005 $=
201705061953 METAR KSEA 061953Z VRB03KT 10SM SCT033 BKN042 BKN060 12/03 A3015 RMK AO2 SLP218 T01170028 $=
201705061853 METAR KSEA 061853Z 35004KT 10SM FEW024 SCT029 BKN055 11/03 A3016 RMK AO2 SLP219 T01060033 $=
201705061753 METAR KSEA 061753Z 32003KT 10SM BKN026 BKN046 09/04 A3016 RMK AO2 SLP220 60001 T00940039 10106 20061 51006 $=
201705061741 SPECI KSEA 061741Z VRB03KT 10SM BKN027 BKN046 11/04 A3016 RMK AO2 T01060039 $=
201705061653 METAR KSEA 061653Z VRB03KT 10SM SCT020 SCT034 BKN041 09/05 A3016 RMK AO2 SLP219 T00940050 $=
201705061617 SPECI KSEA 061617Z 20004KT 10SM FEW018 BKN024 OVC060 08/04 A3016 RMK AO2 T00780044 $=
201705061553 METAR KSEA 061553Z 15005KT 10SM FEW018 BKN040 OVC060 08/04 A3015 RMK AO2 SLP218 T00780044 $=
201705061453 METAR KSEA 061453Z 17005KT 10SM BKN031 OVC040 07/04 A3014 RMK AO2 SLP214 60001 T00720044 53006 $=
201705061353 METAR KSEA 061353Z 12006KT 10SM FEW020 SCT040 BKN060 06/04 A3013 RMK AO2 RAE37 SLP210 P0000 T00610039 $=
201705061253 METAR KSEA 061253Z 12007KT 10SM -RA FEW024 SCT031 BKN039 06/04 A3012 RMK AO2 SLP208 P0001 T00610039 $=
201705061153 METAR KSEA 061153Z 09011KT 10SM -RA SCT024 BKN034 OVC048 06/04 A3012 RMK AO2 SLP208 P0001 60001 70006 T00610044 10094 20061 51009 $=
201705061121 SPECI KSEA 061121Z 07008KT 10SM -RA FEW009 SCT024 OVC036 07/05 A3013 RMK AO2 T00670050 PNO $=
201705061053 METAR KSEA 061053Z 05008KT 10SM -RA FEW009 BKN024 OVC031 07/06 A3012 RMK AO2 SLP206 T00670056 PNO $=
201705061040 SPECI KSEA 061040Z 05008KT 10SM -RA FEW009 BKN020 OVC025 07/05 A3011 RMK AO2 T00720050 PNO $=
201705060953 METAR KSEA 060953Z 00000KT 10SM -RA BKN019 OVC028 08/04 A3011 RMK AO2 RAB51 SLP202 P0000 T00780039=
201705060904 SPECI KSEA 060904Z 17004KT 10SM SCT020 BKN028 BKN034 08/04 A3010 RMK AO2 T00780039=
201705060853 METAR KSEA 060853Z 17007KT 10SM FEW020 BKN034 BKN055 08/04 A3009 RMK AO2 SLP198 T00780039 51013=
201705060753 METAR KSEA 060753Z 17006KT 10SM FEW022 BKN034 BKN055 08/04 A3008 RMK AO2 SLP193 T00830044 401500078=
201705060653 METAR KSEA 060653Z 22007KT 10SM SCT030 BKN050 08/04 A3007 RMK AO2 SLP190 T00830039=
201705060553 METAR KSEA 060553Z 19007KT 10SM SCT028 BKN040 09/03 A3005 RMK AO2 SLP183 T00940033 10139 20094 51017=
201705060453 METAR KSEA 060453Z 23006KT 10SM FEW024 BKN044 09/04 A3005 RMK AO2 SLP182 T00940039=
201705060353 METAR KSEA 060353Z 27005KT 10SM FEW040 SCT250 10/04 A3003 RMK AO2 SLP174 T01000044=
201705060253 METAR KSEA 060253Z 23009KT 10SM FEW040 FEW090 SCT250 12/03 A3000 RMK AO2 SLP166 T01170028 51007=
201705060153 METAR KSEA 060153Z 22012KT 10SM FEW040 SCT090 SCT140 BKN250 12/04 A3000 RMK AO2 SLP166 T01220044=
201705060053 METAR KSEA 060053Z 21017G23KT 10SM FEW040 SCT090 BKN210 13/06 A2999 RMK AO2 SLP161 T01330056=
201705052353 METAR KSEA 052353Z 21019G25KT 10SM FEW045 SCT100 BKN210 14/06 A2998 RMK AO2 SLP159 60001 T01390056 10150 20122 51014=
201705052253 METAR KSEA 052253Z 20012KT 10SM FEW049 SCT060 BKN100 BKN250 13/07 A2998 RMK AO2 SLP157 T01330072=
201705052153 METAR KSEA 052153Z 21013KT 10SM FEW018 SCT080 BKN100 13/07 A2996 RMK AO2 SLP153 T01330072=
201705052053 METAR KSEA 052053Z 21016G22KT 10SM FEW015 SCT035 BKN090 13/08 A2994 RMK AO2 SLP145 60001 T01330078 53018=
201705051953 METAR KSEA 051953Z 22012KT 10SM FEW009 SCT019 OVC095 14/10 A2992 RMK AO2 RAE01 SLP137 P0000 T01390100=
201705051853 METAR KSEA 051853Z 20012G18KT 10SM -RA FEW008 SCT016 BKN060 BKN200 12/11 A2990 RMK AO2 SLP132 P0001 T01220106=
201705051753 METAR KSEA 051753Z 21010KT 10SM -RA FEW008 BKN032 OVC045 12/11 A2989 RMK AO2 SLP127 RAB12 P0002 60004 T01220111 10133 20117 53014=
201705051746 SPECI KSEA 051746Z 21008KT 7SM -RA FEW008 BKN032 OVC043 12/11 A2989 RMK AO2 RAB12 P0002 T01170106=
201705051653 METAR KSEA 051653Z 24010KT 10SM FEW008 BKN019 OVC040 12/10 A2987 RMK AO2 RAE38 SLP121 P0001 T01220100=
201705051638 SPECI KSEA 051638Z 24009KT 10SM FEW008 SCT017 OVC040 12/10 A2987 RMK AO2 RAE38 P0001 T01220100=
201705051620 SPECI KSEA 051620Z 24009KT 4SM R16L/3500VP6000FT -RA BR SCT008 BKN018 OVC034 12/11 A2986 RMK AO2 P0000 T01220111=
201705051601 SPECI KSEA 051601Z 22010KT 6SM -RA BR BKN012 BKN020 OVC043 13/12 A2986 RMK AO2 P0000 T01280117=
201705051553 METAR KSEA 051553Z 20010KT 5SM -RA BR SCT011 BKN022 OVC046 13/11 A2985 RMK AO2 RAB37 SLP114 P0001 T01330111=
201705051537 SPECI KSEA 051537Z 19008KT 7SM -RA SCT021 BKN034 OVC046 13/11 A2985 RMK AO2 RAB37 P0000 T01330111=
201705051453 METAR KSEA 051453Z 19011KT 10SM FEW006 BKN040 BKN110 BKN250 13/12 A2985 RMK AO2 RAE04 SLP112 P0000 60000 T01330117 53017=
201705051409 SPECI KSEA 051409Z 20010KT 10SM FEW008 FEW014 SCT110 BKN250 12/11 A2983 RMK AO2 RAE04 P0000 T01170106=
201705051353 METAR KSEA 051353Z 21009KT 10SM -RA SCT008 BKN014 OVC110 12/11 A2983 RMK AO2 RAB52 SLP106 P0000 T01170111=
201705051327 SPECI KSEA 051327Z 20009KT 10SM FEW007 BKN013 BKN110 BKN230 12/11 A2982 RMK AO2 T01170106=
201705051253 METAR KSEA 051253Z 20013KT 10SM SCT008 BKN100 OVC230 12/11 A2980 RMK AO2 SLP097 T01170111=
201705051249 SPECI KSEA 051249Z 20013KT 10SM SCT008 BKN100 OVC230 12/11 A2980 RMK AO2=
201705051211 SPECI KSEA 051211Z 21011KT 10SM SCT008 BKN014 OVC100 12/12 A2979 RMK AO2 T01220117=
201705051153 METAR KSEA 051153Z 21014KT 10SM FEW014 BKN090 BKN110 12/11 A2978 RMK AO2 PK WND 22028/1126 RAE1056 SLP090 P0000 60020 70064 T01170111 10161 20117 53018=
201705051113 SPECI KSEA 051113Z 21019KT 10SM FEW011 BKN043 BKN080 12/11 A2976 RMK AO2 RAE1056 P0000 T01170111=
201705051053 METAR KSEA 051053Z 21019G25KT 10SM -RA SCT008 BKN024 OVC031 12/12 A2975 RMK AO2 TSB03E28 SLP078 OCNL LTG DSNT N CB DSNT N P0018 T01170117=
201705051050 SPECI KSEA 051050Z 22019G25KT 7SM -RA SCT008 BKN024 OVC031 12/12 A2974 RMK AO2 TSB03E28 OCNL LTG DSNT N CB DSNT N P0018=
201705051031 SPECI KSEA 051031Z 21014KT 8SM -RA SCT005 BKN010 OVC031 12/12 A2975 RMK AO2 TSB03E28 OCNL LTG DSNT N CB DSNT N P0013 T01170117=
201705051003 SPECI KSEA 051003Z 18015G22KT 6SM -TSRA BR OVC005CB 12/12 A2975 RMK AO2 TSB03 OCNL LTGICCG OHD TS OHD MOV N P0003 T01220122=
201705050953 METAR KSEA 050953Z 20011KT 9SM -RA OVC005 12/12 A2973 RMK AO2 RAB38 SLP070 P0002 T01220122=
201705050920 SPECI KSEA 050920Z 21010KT 7SM OVC004 13/13 A2974 RMK AO2 T01280128=
201705050853 METAR KSEA 050853Z 22011KT 1/4SM R16L/2200VP6000FT FG VV001 13/13 A2973 RMK AO2 SLP071 T01330133 55003=
201705050842 SPECI KSEA 050842Z 20007KT 1/2SM R16L/1200VP6000FT FG VV001 14/14 A2973 RMK AO2 T01390139=
201705050753 METAR KSEA 050753Z 22007KT 1/8SM R16L/1000FT FG VV001 15/15 A2971 RMK AO2 SLP066 T01500150 402440117=
201705050710 SPECI KSEA 050710Z 24004KT 1/4SM R16L/1200V1400FT FG VV001 16/16 A2972 RMK AO2 T01560156=
201705050659 SPECI KSEA 050659Z 25004KT 1/2SM R16L/1400V2800FT FG VV001 16/16 A2972 RMK AO2 T01560156=
201705050653 METAR KSEA 050653Z 22004KT 1SM R16L/2200V2800FT BCFG SCT002 OVC008 16/16 A2972 RMK AO2 SLP071 T01560156=
201705050650 SPECI KSEA 050650Z 21006KT 1SM R16L/2200V3500FT BCFG SCT002 OVC008 16/16 A2973 RMK AO2=
201705050642 SPECI KSEA 050642Z 22004KT 1/2SM R16L/1800VP6000FT FG VV001 16/16 A2973 RMK AO2 T01610156=
201705050631 SPECI KSEA 050631Z 27003KT 1/2SM R16L/1600V2000FT FG VV001 16/16 A2973 RMK AO2 T01560156=
201705050617 SPECI KSEA 050617Z 21004KT 1/2SM R16L/1600V3000FT FG BKN001 16/16 A2974 RMK AO2 T01610156=
201705050558 SPECI KSEA 050558Z 00000KT 1/2SM R16L/1400V1800FT FG BKN001 BKN090 16/16 A2973 RMK AO2 T01560156=
201705050553 METAR KSEA 050553Z 26005KT 3/4SM R16L/1600V2200FT BCFG SCT001 BKN090 16/15 A2974 RMK AO2 RAE0459 SLP075 P0000 60043 T01560150 10200 20156 58007=
201705050533 SPECI KSEA 050533Z 08006KT 1/2SM R16L/1800VP6000FT FG BKN001 17/16 A2974 RMK AO2 RAE0459 P0000 T01670156=
201705050523 SPECI KSEA 050523Z 00000KT 1SM R16L/P6000FT BCFG BKN002 BKN090 16/16 A2973 RMK AO2 RAE0459 P0000 T01610156=
201705050514 SPECI KSEA 050514Z 36003KT 8SM FEW002 FEW037 SCT090 16/16 A2973 RMK AO2 RAE0459 OCNL LTGICCG DSNT NE CB DSNT NE P0000 T01610156=
201705050453 METAR KSEA 050453Z 03008KT 6SM -RA BR FEW005 SCT039CB BKN070 16/16 A2974 RMK AO2 RAB16 PRESFR SLP075 OCNL LTGICCG W CB W MOV NE P0004 T01610156=
201705050439 SPECI KSEA 050439Z 00000KT 8SM -RA FEW005 SCT060CB OVC110 16/16 A2978 RMK AO2 RAB16 OCNL LTGICCG SE CB SE MOV NE P0003 T01610161=
201705050353 METAR KSEA 050353Z 29006KT 10SM FEW020 BKN100 BKN120 OVC200 17/16 A2976 RMK AO2 RAE42 SLP082 OCNL LTGICCG DSNT S-SW CB DSNT S-SW P0000 T01670156=
201705050253 METAR KSEA 050253Z 01005KT 10SM -RA SCT040 BKN090 BKN110 18/17 A2976 RMK AO2 RAB0154E09B23 TSB18E36 SLP082 P0000 60039 T01830167 58022=
201705050237 SPECI KSEA 050237Z 04009KT 10SM -RA SCT040 BKN090 BKN110 18/17 A2975 RMK AO2 RAB0154E09B23 TSB18E36 CB DSNT NE P0000 T01830172=
201705050220 SPECI KSEA 050220Z 09010KT 7SM TS FEW008 SCT030CB BKN090 19/17 A2979 RMK AO2 RAB0154E09 TSB18 OCNL LTGCG SE-S TS SE-S MOV NE P0000 T01890167=
201705050153 METAR KSEA 050153Z 08009KT 10SM FEW010 SCT035 BKN100 BKN240 18/17 A2977 RMK AO2 WSHFT 0104 RAE12 TSE11 SLP087 VIRGA W P0020 T01830167=
201705050124 SPECI KSEA 050124Z 09011KT 10SM FEW025 BKN039 BKN110 17/16 A2980 RMK AO2 WSHFT 0104 RAE12 TSE11 CB DSNT NE P0020 T01720161=
201705050112 SPECI KSEA 050112Z 10013KT 10SM SCT023 SCT040 BKN060 17/16 A2981 RMK AO2 WSHFT 0042 RAE12 TSE11 CB DSNT NE P0020 T01720156=
201705050102 SPECI KSEA 050102Z 04008KT 360V060 3SM R16L/3500VP6000FT -TSRA SCT024 BKN040 OVC065 16/15 A2980 RMK AO2 WSHFT 0042 OCNL LTGICCG E AND SW-NW TS E AN SW-NW P0019 T01560150=
201705050053 METAR KSEA 050053Z 33016KT 3SM R16L/3500VP6000FT -TSRA SCT024 BKN065CB OVC100 16/14 A2982 RMK AO2 RAB00 TSB00E43B52 SLP105 OCNL LTG E AND SW-NW TS E AND SW-NW P0019 T01560144=
201705050043 SPECI KSEA 050043Z 23014G19KT 10SM -RA FEW040CB BKN070 BKN100 17/16 A2986 RMK AO2 RAB00 TSB00E43 PRESRR OCNL LTGCCCG E AND W-NW CB E AND W-NW P0006 T01720156=
201705050001 SPECI KSEA 050001Z 16006KT 5SM -TSRA FEW040CB BKN075 OVC110 18/15 A2983 RMK AO2 RAB00 TSB00 OCNL LTG OHD CB OHD MOV N P0000 T01830150=
201705042359 SPECI KSEA 042359Z 17011KT 1 3/4SM HZ BKN075 BKN090 OVC110 19/15 A2983 RMK AO2 T01890150=
201705042353 METAR KSEA 042353Z 00000KT 10SM FEW060 BKN075 OVC110 20/14 A2982 RMK AO2 RAB2257E12B40E49 TSE12 PRESRR SLP104 CB DSNT E-SE P0001 60001 T02000144 10244 20172 55008=
201705042313 SPECI KSEA 042313Z 33004KT 10SM FEW031CB BKN050 BKN080 20/16 A2979 RMK AO2 RAB2257E12 TSE12 OCNL LTGCGCC E AND W CB E AND W MOV N P0000 T02000156=
201705042253 METAR KSEA 042253Z 27010KT 10SM TS FEW040CB BKN110 BKN200 18/13 A2982 RMK AO2 TSB43 SLP103 OCNL LTGCGCC N AND W TS N MOV N CB W MOVG N T01830128=
201705042244 SPECI KSEA 042244Z 23011KT 10SM TS FEW040CB BKN110 BKN200 22/14 A2979 RMK AO2 TSB43 OCNL LTGCGCC OHD CB OHD MOV N T02170144=
201705042222 SPECI KSEA 042222Z 36006KT 10SM FEW040CB SCT130 BKN200 23/14 A2979 RMK AO2 OCNL LTGCG SE CB SE MOV N T02330144=
201705042153 METAR KSEA 042153Z 30006KT 10SM FEW040 SCT130 BKN250 24/15 A2981 RMK AO2 SLP097 ACC S T02390150=
201705042053 METAR KSEA 042053Z 31008KT 10SM FEW040 FEW080 BKN250 23/14 A2985 RMK AO2 SLP112 ACC SE-S T02280144 58027=
201705041953 METAR KSEA 041953Z 28004KT 10SM FEW040 FEW080 FEW250 21/14 A2989 RMK AO2 SLP125 ACC S T02060144=
201705041853 METAR KSEA 041853Z VRB04KT 10SM FEW040 FEW250 19/14 A2991 RMK AO2 SLP133 T01890144=
201705041753 METAR KSEA 041753Z 00000KT 7SM FEW005 FEW250 17/14 A2993 RMK AO2 SLP140 T01670139 10167 20117 58010=
201705041730 SPECI KSEA 041730Z 00000KT 6SM BR SCT005 SCT250 16/13 A2994 RMK AO2 T01560133=
201705041653 METAR KSEA 041653Z 30003KT 2SM BR OVC005 14/13 A2994 RMK AO2 SFC VIS 2 1/2 SLP145 T01390128=
201705041646 SPECI KSEA 041646Z 00000KT 1SM R16L/P6000FT BR OVC005 14/13 A2995 RMK AO2 SFC VIS 2 1/2 T01390128=
201705041630 SPECI KSEA 041630Z VRB03KT 1SM R16L/P6000FT BR OVC003 14/12 A2995 RMK AO2 SFC VIS 1 1/2 T01390122=
201705041553 METAR KSEA 041553Z 34004KT 1/4SM R16L/3500VP6000FT BR OVC002 13/13 A2995 RMK AO2 SFC VIS 3/4 SLP148 T01280128=
201705041520 SPECI KSEA 041520Z 33004KT 1/2SM R16L/1800VP6000FT FG OVC002 12/12 A2996 RMK AO2 T01220122=
201705041453 METAR KSEA 041453Z 00000KT 1/4SM R16L/0300V0400FT FG VV001 12/12 A2996 RMK AO2 SLP150 T01220122 55002=
201705041353 METAR KSEA 041353Z 28004KT 1/4SM R16L/0800V1200FT FG VV001 12/12 A2995 RMK AO2 SLP149 T01170117=
201705041253 METAR KSEA 041253Z 36004KT 1/4SM R16L/1000V1400FT FG VV001 12/12 A2995 RMK AO2 SLP148 T01220122=
201705041245 SPECI KSEA 041245Z 01004KT 1/4SM R16L/0800V1200FT FG VV001 12/12 A2995 RMK AO2 T01220122=
201705041153 METAR KSEA 041153Z 36006KT 1/2SM R16L/1800V5000FT FG VV001 12/12 A2997 RMK AO2 SLP152 70001 T01220122 10139 20122 56008=
201705041119 SPECI KSEA 041119Z 02005KT 1/4SM R16L/1400V2800FT FG VV001 13/13 A2997 RMK AO2 T01280128=
201705041053 METAR KSEA 041053Z 02005KT 1/4SM R16L/1200V1600FT FG VV001 13/13 A2997 RMK AO2 SLP155 T01280128=
201705040953 METAR KSEA 040953Z 36006KT 1/4SM R16L/1400V1800FT FG VV001 13/13 A2998 RMK AO2 SLP158 T01280128=
201705040853 METAR KSEA 040853Z 34006KT 1/4SM R16L/1400V2000FT FG VV001 13/13 A2999 RMK AO2 SLP161 T01280128 58014=
201705040815 SPECI KSEA 040815Z 35007KT 1/2SM R16L/1600V2200FT FG OVC001 13/13 A3000 RMK AO2 T01330128=
201705040753 METAR KSEA 040753Z 36005KT 1/2SM R16L/1600V4000FT FG OVC001 13/13 A3001 RMK AO2 SLP167 T01330128 402330128=
201705040745 SPECI KSEA 040745Z 36006KT 1/2SM R16L/1600V2000FT FG OVC001 13/13 A3001 RMK AO2 T01330128=
201705040737 SPECI KSEA 040737Z 35006KT 1/2SM R16L/1800V2400FT FG OVC001 13/13 A3001 RMK AO2 T01330128=
201705040715 SPECI KSEA 040715Z 36005KT 1SM R16L/2800V4000FT BCFG BKN002 13/13 A3002 RMK AO2 T01330128=
201705040653 METAR KSEA 040653Z 35004KT 3SM BR BKN002 13/13 A3002 RMK AO2 SLP172 T01330128=
201705040641 SPECI KSEA 040641Z 35004KT 4SM BR BKN002 13/13 A3003 RMK AO2 T01330128=
201705040620 SPECI KSEA 040620Z 35005KT 6SM BR SCT002 14/13 A3003 RMK AO2 T01390128=
201705040553 METAR KSEA 040553Z 34007KT 9SM CLR 14/13 A3003 RMK AO2 SLP175 T01390128 10233 20139 58004=
201705040453 METAR KSEA 040453Z 35006KT 10SM FEW200 15/13 A3004 RMK AO2 SLP177 T01500128=
201705040353 METAR KSEA 040353Z 36008KT 10SM FEW120 SCT200 16/13 A3004 RMK AO2 SLP178 T01610133=
201705040253 METAR KSEA 040253Z 30007KT 10SM FEW030 FEW120 BKN210 19/14 A3004 RMK AO2 SLP179 T01940144 56014=
201705040153 METAR KSEA 040153Z 29005KT 10SM FEW030 FEW120 BKN210 22/15 A3005 RMK AO2 SLP182 T02170150=
201705040053 METAR KSEA 040053Z 22004KT 10SM FEW030 BKN210 23/14 A3007 RMK AO2 SLP187 T02280144=
201705032353 METAR KSEA 032353Z 21004KT 10SM FEW030 SCT120 BKN210 23/15 A3009 RMK AO2 SLP193 T02280150 10228 20167 58021=
201705032253 METAR KSEA 032253Z 16005KT 10SM FEW030 FEW060 SCT120 SCT200 22/14 A3011 RMK AO2 SLP202 T02170144=
201705032153 METAR KSEA 032153Z 23004KT 10SM FEW015 FEW055 SCT200 22/15 A3013 RMK AO2 SLP208 T02170150=
201705032053 METAR KSEA 032053Z 00000KT 10SM SCT017 BKN055 BKN200 20/14 A3015 RMK AO2 SLP215 T02000144 57014=
201705031953 METAR KSEA 031953Z 00000KT 10SM FEW009 SCT015 BKN055 19/15 A3016 RMK AO2 SLP220 T01890150=
201705031933 SPECI KSEA 031933Z 00000KT 10SM FEW009 SCT015 BKN050 18/15 A3017 RMK AO2 T01780150=
201705031853 METAR KSEA 031853Z 20004KT 10SM FEW009 BKN013 BKN050 17/14 A3018 RMK AO2 SLP224 T01720144=
201705031826 SPECI KSEA 031826Z 21006KT 10SM SCT008 BKN011 BKN050 17/16 A3018 RMK AO2 T01720156=
201705031753 METAR KSEA 031753Z 20006KT 10SM BKN008 BKN060 17/15 A3019 RMK AO2 SLP229 60001 T01670150 10167 20128 57002=
201705031653 METAR KSEA 031653Z 14007KT 3SM BR OVC005 14/14 A3019 RMK AO2 SLP230 T01440144=
201705031639 SPECI KSEA 031639Z 14007KT 1/2SM R16L/P6000FT BR OVC005 14/14 A3019 RMK AO2 SFC VIS 3 T01440139=
201705031553 METAR KSEA 031553Z 1/2SM R16L/P6000FT BR OVC002 13/13 A3020 RMK AO2 SFC VIS 2 DZE53 SLP232 P0001 T01330128=
201705031453 METAR KSEA 031453Z 19006KT 1SM R16L/P6000FT -DZ BR OVC003 13/13 A3020 RMK AO2 SFC VIS 1 1/2 SLP232 P0000 60000 T01280128 53006=
201705031353 METAR KSEA 031353Z 22006KT 1/2SM R16L/2400V6000FT -DZ BR VV002 13/13 A3019 RMK AO2 SFC VIS 3/4 SLP229 P0000 T01280128=
201705031344 SPECI KSEA 031344Z 22006KT 1/2SM R16L/1600VP6000FT -DZ BR VV001 13/13 A3019 RMK AO2 SFC VIS 3/4 P0000 T01280128=
201705031253 METAR KSEA 031253Z 17005KT 1/2SM R16L/P6000FT -DZ BR OVC003 13/13 A3018 RMK AO2 SFC VIS 2 DZB52 SLP226 P0000 T01330128=
201705031153 METAR KSEA 031153Z 15006KT 10SM OVC004 13/13 A3018 RMK AO2 RAE43 SLP225 P0001 60015 70023 T01280128 10133 20128 51005=
201705031145 SPECI KSEA 031145Z 15006KT 8SM OVC004 13/13 A3018 RMK AO2 RAE43 P0001 T01280128=
201705031053 METAR KSEA 031053Z 16008KT 4SM -RA BR BKN009 BKN013 OVC019 13/12 A3018 RMK AO2 SLP225 P0003 T01280122=
201705031051 SPECI KSEA 031051Z 16008KT 4SM -RA BR BKN009 BKN013 OVC019 13/12 A3018 RMK AO2 P0002=
201705030953 METAR KSEA 030953Z 15007KT 5SM -RA BR OVC021 13/12 A3016 RMK AO2 SLP219 P0004 T01280122=
201705030853 METAR KSEA 030853Z 15007KT 10SM -RA OVC022 13/12 A3017 RMK AO2 SLP223 P0002 60007 T01330122 58006=
201705030753 METAR KSEA 030753Z 14007KT 8SM -RA BKN025 OVC033 13/12 A3018 RMK AO2 SLP226 P0004 T01280122 401610061=
201705030700 SPECI KSEA 030700Z 16005KT 10SM -RA OVC022 13/12 A3019 RMK AO2 P0000 T01280117=
201705030653 METAR KSEA 030653Z 16004KT 10SM -RA OVC030 13/12 A3019 RMK AO2 SLP228 P0001 T01280122=
201705030553 METAR KSEA 030553Z 15005KT 10SM -RA OVC030 13/12 A3019 RMK AO2 SLP230 P0001 60008 T01280117 10156 20128 50003=
201705030453 METAR KSEA 030453Z 11004KT 10SM -RA SCT030 BKN040 OVC070 13/12 A3020 RMK AO2 SLP232 P0002 T01330117=
201705030353 METAR KSEA 030353Z 16004KT 10SM -RA FEW043 OVC050 13/12 A3019 RMK AO2 RAB07 SLP229 P0001 T01280117=
201705030253 METAR KSEA 030253Z 00000KT 10SM BKN050 OVC065 13/12 A3018 RMK AO2 RAE53 SLP227 P0003 60004 T01280117 55000=
201705030153 METAR KSEA 030153Z 23004KT 7SM -RA OVC065 13/11 A3018 RMK AO2 SLP225 P0001 T01330111=
201705030053 METAR KSEA 030053Z 25003KT 10SM -RA SCT070 OVC090 14/11 A3018 RMK AO2 RAB22 SLP227 P0000 T01440106=
201705022353 METAR KSEA 022353Z 26005KT 10SM FEW035 BKN055 OVC100 16/09 A3018 RMK AO2 SLP228 T01610094 10161 20139 58004=
201705022253 METAR KSEA 022253Z 28006KT 10SM FEW025 BKN050 OVC120 16/09 A3019 RMK AO2 SLP229 T01560089=
201705022153 METAR KSEA 022153Z 27005KT 10SM FEW025 BKN050 OVC140 16/08 A3019 RMK AO2 SLP231 T01560083=
201705022053 METAR KSEA 022053Z 26005KT 10SM FEW025 FEW045 OVC140 16/08 A3019 RMK AO2 SLP231 T01560083 58005=
201705021953 METAR KSEA 021953Z VRB04KT 10SM FEW025 SCT044 OVC180 16/08 A3020 RMK AO2 SLP233 T01560083=
201705021853 METAR KSEA 021853Z VRB04KT 10SM FEW023 BKN050 BKN250 16/09 A3021 RMK AO2 SLP235 T01560089=
201705021753 METAR KSEA 021753Z VRB03KT 10SM SCT021 BKN037 BKN250 14/08 A3021 RMK AO2 SLP236 T01390083 10139 20078 50003=
201705021739 SPECI KSEA 021739Z 00000KT 10SM SCT021 BKN038 BKN250 13/08 A3021 RMK AO2 T01330078=
201705021653 METAR KSEA 021653Z 00000KT 10SM BKN019 OVC025 11/07 A3022 RMK AO2 SLP240 T01060072=
201705021553 METAR KSEA 021553Z 12004KT 10SM BKN020 OVC030 10/06 A3021 RMK AO2 SLP238 T01000061=
201705021453 METAR KSEA 021453Z 10004KT 10SM BKN021 OVC035 09/06 A3020 RMK AO2 SLP234 T00940061 53004=
201705021353 METAR KSEA 021353Z 00000KT 10SM BKN026 OVC048 09/06 A3019 RMK AO2 SLP232 T00890061=
201705021346 SPECI KSEA 021346Z 09003KT 10SM BKN026 OVC048 09/06 A3020 RMK AO2 T00890061=
201705021253 METAR KSEA 021253Z 08004KT 10SM FEW025 OVC050 08/07 A3018 RMK AO2 SLP228 T00780067=
201705021214 SPECI KSEA 021214Z 05004KT 10SM FEW022 SCT041 OVC050 08/06 A3019 RMK AO2 T00780061=
201705021153 METAR KSEA 021153Z 04004KT 10SM BKN023 OVC050 08/07 A3019 RMK AO2 SLP230 70003 T00780067 10089 20061 55000=
201705021131 SPECI KSEA 021131Z 00000KT 10SM BKN024 07/06 A3019 RMK AO2 T00720056=
201705021053 METAR KSEA 021053Z 00000KT 10SM FEW024 SCT060 07/06 A3017 RMK AO2 SLP224 T00670056=
201705020953 METAR KSEA 020953Z 12005KT 10SM SCT060 08/06 A3018 RMK AO2 SLP226 T00780061=
201705020853 METAR KSEA 020853Z 16004KT 10SM FEW030 BKN060 08/06 A3019 RMK AO2 SLP230 T00830061 56005=
201705020753 METAR KSEA 020753Z 11003KT 10SM OVC030 09/06 A3019 RMK AO2 SLP230 T00890056 401000072=
201705020653 METAR KSEA 020653Z 11004KT 10SM FEW022 BKN033 OVC065 09/06 A3019 RMK AO2 SLP229 T00890061=
201705020553 METAR KSEA 020553Z 00000KT 10SM OVC033 09/06 A3020 RMK AO2 SLP235 T00890061 10094 20083 53006=
201705020453 METAR KSEA 020453Z 10005KT 10SM SCT018 OVC032 09/06 A3018 RMK AO2 SLP228 T00890061=
201705020353 METAR KSEA 020353Z 09006KT 10SM BKN015 OVC035 09/06 A3018 RMK AO2 SLP228 T00890061=
201705020253 METAR KSEA 020253Z 18004KT 10SM SCT013 OVC021 09/06 A3018 RMK AO2 SLP229 T00890061 56003=
201705020153 METAR KSEA 020153Z 00000KT 10SM OVC015 09/06 A3018 RMK AO2 SLP229 T00890061=
201705020053 METAR KSEA 020053Z 18006KT 10SM FEW017 BKN025 OVC042 09/06 A3018 RMK AO2 SLP228 T00890056=
201705012353 METAR KSEA 012353Z 19006KT 10SM FEW010 BKN018 OVC026 08/06 A3019 RMK AO2 SLP233 60003 T00830061 10100 20083 56009=
201705012300 SPECI KSEA 012300Z 16008KT 10SM BKN026 BKN036 OVC044 09/05 A3020 RMK AO2 T00940050=
201705012253 METAR KSEA 012253Z 20009KT 160V240 10SM SCT028 OVC034 10/04 A3020 RMK AO2 SLP234 T01000044=
201705012153 METAR KSEA 012153Z 22005KT 10SM FEW015 BKN037 BKN047 09/04 A3021 RMK AO2 SLP236 T00940044=
201705012053 METAR KSEA 012053Z 23005KT 10SM FEW014 BKN036 OVC043 09/06 A3022 RMK AO2 RAE1959 SLP241 P0000 60003 T00890056 56006=
201705012040 SPECI KSEA 012040Z 20005KT 10SM FEW014 FEW025 OVC040 09/06 A3022 RMK AO2 RAE1959 P0000 T00890056=
201705011953 METAR KSEA 011953Z 20004KT 10SM -RA SCT014 BKN028 OVC040 09/06 A3022 RMK AO2 SLP242 P0000 T00890056=
201705011928 SPECI KSEA 011928Z 20005KT 10SM -RA SCT014 BKN028 OVC045 08/05 A3022 RMK AO2 P0000 T00830050=
201705011853 METAR KSEA 011853Z 17004KT 10SM -RA SCT013 BKN038 OVC048 08/07 A3023 RMK AO2 SLP245 P0003 T00830067=
201705011753 METAR KSEA 011753Z 17005KT 10SM -RA FEW011 BKN036 OVC048 08/06 A3024 RMK AO2 RAB21 SLP247 P0000 60000 T00830056 10083 20072 56012=
201705011653 METAR KSEA 011653Z 17006KT 10SM FEW025 OVC050 08/05 A3025 RMK AO2 RAB07E36 SLP250 P0000 T00780050=
201705011553 METAR KSEA 011553Z 17005KT 10SM FEW025 SCT033 OVC055 08/05 A3026 RMK AO2 SLP256 T00780050=
201705011523 SPECI KSEA 011523Z 17006KT 10SM FEW020 OVC030 08/05 A3027 RMK AO2 T00780050=
201705011453 METAR KSEA 011453Z 18005KT 10SM FEW020 OVC028 07/04 A3027 RMK AO2 SLP259 T00720044 58008=
201705011353 METAR KSEA 011353Z 16007KT 10SM FEW011 OVC019 07/05 A3028 RMK AO2 SLP261 T00720050=
201705011253 METAR KSEA 011253Z 14006KT 10SM SCT010 BKN015 OVC020 07/05 A3029 RMK AO2 SLP265 T00720050=
201705011153 METAR KSEA 011153Z 16006KT 10SM BKN015 OVC020 07/05 A3030 RMK AO2 SLP267 70008 T00720050 10094 20072 58013=
201705011053 METAR KSEA 011053Z 14007KT 10SM BKN019 OVC035 07/06 A3031 RMK AO2 SLP273 T00720056=
201705010953 METAR KSEA 010953Z 13007KT 10SM BKN021 OVC050 08/06 A3033 RMK AO2 SLP277 T00780056=
201705010853 METAR KSEA 010853Z 15006KT 10SM BKN024 OVC050 08/06 A3033 RMK AO2 SLP280 T00780056 58002=
201705010753 METAR KSEA 010753Z 15005KT 10SM SCT013 BKN020 OVC050 08/06 A3035 RMK AO2 SLP285 T00830061 401330083=
201705010653 METAR KSEA 010653Z 20007KT 10SM BKN024 BKN050 09/05 A3035 RMK AO2 SLP284 T00890050=
201705010553 METAR KSEA 010553Z 21007KT 10SM BKN027 BKN047 09/05 A3034 RMK AO2 SLP282 60008 T00890050 10133 20089 53009=
201705010453 METAR KSEA 010453Z 17006KT 10SM BKN030 OVC047 09/07 A3033 RMK AO2 SLP278 T00940072=
201705010353 METAR KSEA 010353Z 12011KT 10SM BKN036 OVC043 09/08 A3032 RMK AO2 RAE0255 SLP274 P0000 T00940078=
201705010253 METAR KSEA 010253Z 11009KT 10SM -RA OVC036 09/08 A3031 RMK AO2 RAB0158 SLP273 P0002 60008 T00940078 52003=
201705010153 METAR KSEA 010153Z 13005KT 10SM OVC034 11/07 A3031 RMK AO2 RAE17 SLP270 P0002 T01060067=
201705010053 METAR KSEA 010053Z 28004KT 7SM RA BKN042 OVC049 11/07 A3031 RMK AO2 RAB28 SLP272 P0004 T01060072=

# No short TAF reports from KSEA in databse.

###################################
#  large TAF from KSEA
###################################
201705312320 TAF KSEA 312320Z 0100/0206 21007KT P6SM SCT050 BKN080 BKN200 FM010300
                       22006KT P6SM OVC050 FM010600 20006KT P6SM
                       -SHRA OVC040 FM010900 20006KT P6SM -SHRA
                       BKN015 OVC030 FM011900 21009KT P6SM SCT025
                       BKN045=
201705312121 KSEA 312121Z 3121/0124 24007KT P6SM FEW030 BKN200 FM010100 22006KT
                       P6SM OVC050 FM010600 20006KT P6SM -SHRA
                       OVC050 FM010900 20006KT P6SM -SHRA BKN015
                       OVC030 FM011900 22008KT P6SM SCT025 BKN045=
201705311856 KSEA 311856Z 3119/0124 25007KT P6SM BKN200 FM312200 25006KT P6SM
                       SCT040 BKN200 FM010200 22006KT P6SM VCSH
                       OVC040 FM010600 20006KT P6SM -SHRA BKN015
                       OVC030=
201705311720 TAF KSEA 311720Z 3118/0124 23005KT P6SM BKN020 BKN200
                      TEMPO 3118/3120 SCT020 BKN200 FM312000 25006KT
                       P6SM SCT020 BKN200 FM312200 25006KT P6SM
                       SCT040 BKN200 FM010200 22006KT P6SM VCSH
                       OVC040 FM010600 20006KT P6SM -SHRA BKN015
                       OVC030=
201705311442 KSEA 311442Z 3115/0118 22005KT P6SM BKN016 OVC025 FM311700 22005KT
                       P6SM SCT015 OVC025 FM312000 22006KT P6SM
                       SCT020 BKN035 FM010200 22006KT P6SM -SHRA
                       SCT025 BKN040 FM010800 20006KT P6SM OVC030=
201705311120 TAF KSEA 311120Z 3112/0118 22003KT P6SM BKN016 OVC024 FM311900
                       22006KT P6SM SCT020 BKN040 FM312100 22006KT
                       P6SM VCSH SCT025 BKN040 FM010800 20006KT
                       P6SM OVC030=
201705310900 KSEA 310900Z 3109/0112 21005KT P6SM BKN017 OVC024 FM311800 22006KT
                       P6SM SCT020 BKN040 FM312100 23006KT P6SM
                       BKN040=
201705310524 TAF KSEA 310524Z 3106/0112 24005KT P6SM BKN023 OVC035 FM311800
                       22006KT P6SM SCT020 BKN040 FM312100 23006KT
                       P6SM BKN040=
201705310309 KSEA 310309Z 3103/0106 20005KT P6SM BKN023 BKN060 FM311000 18004KT
                       P6SM OVC015 FM311800 22006KT P6SM SCT020
                       BKN040 FM312100 24006KT P6SM BKN040=
201705310120 KSEA 310120Z 3101/0106 22006KT P6SM BKN025 BKN045 OVC060 FM310200
                       22006KT P6SM BKN020 OVC040 FM311000 18004KT
                       P6SM OVC015 FM311800 22006KT P6SM SCT020
                       BKN040 FM312100 24006KT P6SM BKN040=
201705310041 KSEA 310041Z 3101/0106 22006KT P6SM VCTS BKN025 BKN045 OVC060CB
                       FM310200 22006KT P6SM BKN020 OVC040 FM311000
                       18004KT P6SM OVC015 FM311800 22006KT P6SM
                       SCT020 BKN040 FM312100 24006KT P6SM BKN040=
201705302320 TAF KSEA 302320Z 3100/0106 22006KT P6SM VCSH BKN025 OVC045
                      TEMPO 3100/3103 -SHRA SCT025 OVC040 FM310600
                       22006KT P6SM BKN020 OVC040 FM311000 18004KT
                       P6SM OVC015 FM311800 22006KT P6SM SCT020
                       BKN040 FM312100 24006KT P6SM BKN040=
201705302105 KSEA 302105Z 3021/3124 22006KT P6SM -SHRA BKN020 OVC040 FM310100
                       22006KT P6SM BKN025 OVC040 FM310600 22006KT
                       P6SM OVC015=
201705301730 TAF KSEA 301730Z 3018/3124 22008KT P6SM OVC008 FM302000 21008KT
                       P6SM OVC012 FM302200 22007KT P6SM -SHRA
                       BKN020 OVC040 FM310100 24007KT P6SM OVC030
                       FM310400 22006KT P6SM OVC015=
201705301436 KSEA 301436Z 3015/3118 22008KT P6SM OVC007 FM301900 21008KT P6SM
                       OVC012 FM302100 22007KT P6SM -SHRA OVC020
                       FM310100 24007KT P6SM OVC030 FM310400 22006KT
                       P6SM OVC018=
201705301120 TAF KSEA 301120Z 3012/3118 20007KT P6SM OVC006 FM301800 22008KT
                       P6SM OVC010 FM302100 22007KT P6SM VCSH OVC020
                       FM310100 24007KT P6SM VCSH OVC035 FM310400
                       22006KT P6SM OVC019=
201705300909 KSEA 300909Z 3009/3112 23008KT P6SM OVC007 FM302100 23007KT P6SM
                       VCSH OVC020=
201705300725 KSEA 300725Z 3007/3112 21009KT P6SM FEW040 FEW160 SCT250 FM300800
                       22008KT P6SM OVC010 FM302100 23007KT P6SM
                       VCSH OVC020=
201705300526 TAF KSEA 300526Z 3006/3112 21008KT P6SM FEW035 SCT160 SCT250 FM301100
                       22004KT P6SM OVC018 FM301300 21004KT P6SM
                       OVC010 FM302100 23007KT P6SM VCSH OVC020=
201705300308 KSEA 300308Z 3003/3106 24008KT P6SM SCT250 FM300500 22005KT P6SM
                       SCT250 FM301100 21005KT P6SM OVC010 FM301800
                       22008KT P6SM OVC020=
201705292335 TAF KSEA 292335Z 3000/3106 28005KT P6SM FEW250 FM300500 22005KT
                       P6SM SCT250 FM301100 21005KT P6SM OVC010
                       FM301800 22008KT P6SM OVC020=
201705292107 KSEA 292107Z 2921/3024 26006KT P6SM FEW250 FM300500 23005KT P6SM
                       SCT250 FM301000 19009KT P6SM OVC010=
201705291739 TAF KSEA 291739Z 2918/3024 26004KT P6SM OVC007 FM291900 26006KT
                       P6SM SCT250 FM300000 29006KT P6SM SCT250
                       FM300500 23005KT P6SM SCT250 FM301000 19009KT
                       P6SM OVC010=
201705291421 KSEA 291421Z 2914/3018 21005KT P6SM OVC004
                      TEMPO 2914/2916 5SM BR OVC002 FM291800 23009KT
                       P6SM BKN011 FM291900 26006KT P6SM FEW090
                       SCT250 FM300600 22008KT P6SM FEW017 BKN090
                       BKN250 FM300900 19009KT P6SM OVC010=
201705291303 KSEA 291303Z 2913/3018 21005KT P6SM OVC004
                      TEMPO 2913/2916 5SM BR FM291800 23009KT P6SM
                       BKN011 FM291900 26006KT P6SM FEW090 SCT250
                       FM300600 22008KT P6SM FEW017 BKN090 BKN250
                       FM300900 19009KT P6SM OVC010=
201705291131 TAF KSEA 291131Z 2912/3018 21009KT 5SM BR OVC007 FM291800 23009KT
                       P6SM BKN011 FM291900 26006KT P6SM FEW090
                       SCT250 FM300600 22008KT P6SM FEW017 BKN090
                       BKN250 FM300900 19009KT P6SM OVC010=
201705291003 KSEA 291003Z 2910/3012 19009KT P6SM VCFG SCT005 FM291030 19009KT
                       5SM BR OVC005 FM291800 22009KT P6SM BKN012
                       FM291900 26007KT P6SM FEW035 SCT250 FM300600
                       21006KT P6SM SCT035 SCT060 BKN250
                      PROB30 3006/3012 -SHRA SCT035 OVC060=
201705290903 KSEA 290903Z 2909/3012 19009KT P6SM VCFG FEW007 FM291100 19009KT
                       5SM BR OVC007 FM291800 22009KT P6SM BKN012
                       FM291900 26007KT P6SM FEW035 SCT250 FM300600
                       21006KT P6SM SCT035 SCT060 BKN250
                      PROB30 3006/3012 -SHRA SCT035 OVC060=
201705290539 TAF KSEA 290539Z 2906/3012 VRB03KT P6SM SKC FM290900 19005KT P6SM
                       VCFG FEW011 FM291100 19005KT P6SM VCFG OVC011
                       TEMPO 2913/2917 OVC008 FM291800 22009KT
                       P6SM BKN015 FM291900 26007KT P6SM FEW035
                       SCT250 FM300600 21006KT P6SM SCT035 SCT060
                       BKN250
                      PROB30 3006/3012 -SHRA SCT035 OVC060=
201705290301 KSEA 290301Z 2903/3006 36008KT P6SM SKC FM290600 01006KT P6SM SKC
                       FM291100 21004KT P6SM OVC007 FM291700 26005KT
                       P6SM SCT015 FM291900 31008KT P6SM SKC=
201705282320 TAF KSEA 282320Z 2900/3006 36008KT P6SM SKC FM290600 01006KT P6SM
                       SKC FM291100 21004KT P6SM OVC007 FM291700
                       26005KT P6SM SCT015 FM291900 31008KT P6SM
                       SKC=
201705281720 TAF KSEA 281720Z 2818/2924 33006KT P6SM SKC FM290600 VRB03KT P6SM
                       SKC FM291100 20004KT P6SM OVC006 FM291700
                       26005KT P6SM SCT015 FM291900 31008KT P6SM
                       SKC=
201705281503 KSEA 281503Z 2815/2918 VRB03KT P6SM SKC FM281800 30006KT P6SM SKC
                       FM290600 VRB03KT P6SM SKC FM291200 20004KT
                       P6SM OVC010 FM291700 30006KT P6SM SCT020=
201705281133 TAF KSEA 281133Z 2812/2918 VRB03KT P6SM SKC FM281800 30006KT P6SM
                       SKC FM290600 VRB03KT P6SM SKC FM291200 20004KT
                       P6SM BKN011=
201705280905 KSEA 280905Z 2809/2912 VRB03KT P6SM SKC FM281800 30006KT P6SM SKC
                       FM290600 VRB03KT P6SM SKC=
201705280541 TAF KSEA 280541Z 2806/2912 VRB03KT P6SM SKC FM281800 30006KT P6SM
                       SKC FM290600 VRB03KT P6SM SKC=
201705280304 KSEA 280304Z 2803/2906 01007KT P6SM SKC FM280400 04006KT P6SM SKC
                       FM280900 VRB03KT P6SM SKC FM281800 31008KT
                       P6SM SKC=
201705272320 TAF KSEA 272320Z 2800/2906 36010KT P6SM SKC FM280400 04006KT P6SM
                       SKC FM280900 VRB03KT P6SM SKC FM281800 31008KT
                       P6SM SKC=
201705272101 KSEA 272101Z 2721/2824 31009KT P6SM SKC FM280300 01005KT P6SM SCT080
                       FM280900 VRB03KT P6SM SKC FM281800 31008KT
                       P6SM SKC=
201705271725 TAF KSEA 271725Z 2718/2824 30007KT P6SM SKC FM280300 02005KT P6SM
                       SCT080 FM281000 VRB03KT P6SM SKC FM281800
                       35008KT P6SM SKC=
201705271622 KSEA 271622Z 2716/2818 29005KT P6SM FEW200 FM271800 31007KT P6SM
                       SKC FM280300 02005KT P6SM SCT080 FM281000
                       VRB03KT P6SM SKC=
201705271509 KSEA 271509Z 2715/2818 VRB03KT P6SM FEW200 FM271900 31006KT P6SM
                       SKC FM280300 02005KT P6SM SCT080 FM281000
                       VRB03KT P6SM SKC=
201705271122 TAF KSEA 271122Z 2712/2818 VRB03KT P6SM SKC FM271900 31006KT P6SM
                       SKC FM280300 02005KT P6SM SKC=
201705270903 KSEA 270903Z 2709/2812 VRB03KT P6SM SKC FM271900 31006KT P6SM SKC
                       FM280300 01005KT P6SM SKC=
201705270539 TAF KSEA 270539Z 2706/2812 36006KT P6SM SKC FM271200 VRB03KT P6SM
                       SKC FM271900 31006KT P6SM SKC FM280300 01005KT
                       P6SM SKC=
201705270318 KSEA 270318Z 2703/2806 36008KT P6SM SKC FM270800 05004KT P6SM SKC
                       FM271200 VRB03KT P6SM SKC FM271900 31007KT
                       P6SM SKC=
201705262320 TAF KSEA 262320Z 2700/2806 34008KT P6SM SKC FM270300 36006KT P6SM
                       SKC FM270800 05004KT P6SM SKC FM271200 VRB03KT
                       P6SM SKC FM271900 31007KT P6SM SKC=
201705262213 KSEA 262213Z 2622/2724 34008KT P6SM SKC FM270300 36006KT P6SM SKC
                       FM270800 05004KT P6SM SKC FM271200 VRB03KT
                       P6SM SKC FM271900 31007KT P6SM SKC=
201705261720 TAF KSEA 261720Z 2618/2724 VRB03KT P6SM SKC FM261900 31006KT P6SM
                       SKC FM270300 36005KT P6SM SKC FM270700 05004KT
                       P6SM SKC FM271200 VRB03KT P6SM SKC FM271900
                       32006KT P6SM SKC=
201705261500 KSEA 261500Z 2615/2718 VRB03KT P6SM SKC FM261900 32007KT P6SM SKC
                       FM270300 36005KT P6SM SKC FM270900 05005KT
                       P6SM SKC=
201705261123 TAF KSEA 261123Z 2612/2718 VRB03KT P6SM SKC FM261900 32007KT P6SM
                       SKC FM270300 36005KT P6SM SKC FM270900 05005KT
                       P6SM SKC=
201705260907 KSEA 260907Z 2609/2712 VRB03KT P6SM SKC FM261900 32007KT P6SM SKC
                       FM270300 36005KT P6SM SKC FM270900 04005KT
                       P6SM SKC=
201705260526 TAF KSEA 260526Z 2606/2712 02007KT P6SM SKC FM261200 VRB03KT P6SM
                       SKC FM261900 32007KT P6SM SKC FM270300 36005KT
                       P6SM SKC FM270900 04005KT P6SM SKC=
201705260301 KSEA 260301Z 2603/2706 35008KT P6SM SKC FM260600 04004KT P6SM SKC
                       FM261200 VRB03KT P6SM SKC FM261800 33006KT
                       P6SM SKC FM270400 03004KT P6SM SKC=
201705252320 TAF KSEA 252320Z 2600/2706 35007KT P6SM FEW040 FM260400 01005KT
                       P6SM SKC FM260600 04004KT P6SM SKC FM261200
                       VRB03KT P6SM SKC FM261800 32005KT P6SM SKC
                       FM262100 35006KT P6SM SKC FM270400 03004KT
                       P6SM SKC=
201705252114 KSEA 252114Z 2521/2624 33006KT P6SM FEW040 FM260000 36007KT P6SM
                       SKC FM260400 03004KT P6SM SKC FM261200 VRB03KT
                       P6SM SKC FM261800 32005KT P6SM SKC FM262200
                       35006KT P6SM SKC=
201705251720 TAF KSEA 251720Z 2518/2624 VRB04KT P6SM SCT025 SCT150 FM251900
                       31007KT P6SM SCT045 SCT150 FM260000 35008KT
                       P6SM FEW050 FM260400 03004KT P6SM SKC FM261200
                       VRB03KT P6SM SKC FM261800 32005KT P6SM SKC
                       FM262200 35006KT P6SM SKC=
201705251437 KSEA 251437Z 2515/2618 VRB05KT P6SM SCT045 SCT120
                      TEMPO 2515/2518 BKN045 BKN120 FM251900 31007KT
                       P6SM SCT045 SCT120 FM260000 35008KT P6SM
                       FEW050 FM260400 02004KT P6SM SKC FM261200
                       VRB03KT P6SM SKC=
201705251122 TAF KSEA 251122Z 2512/2618 VRB03KT P6SM SKC FM251800 31008KT P6SM
                       FEW050 FM260000 35008KT P6SM FEW050 FM260400
                       02004KT P6SM SKC FM261200 VRB03KT P6SM SKC=
201705250900 KSEA 250900Z 2509/2612 VRB03KT P6SM SKC FM251200 VRB03KT P6SM FEW020
                       FM251800 31008KT P6SM FEW050 FM260000 35008KT
                       P6SM FEW050 FM260400 02004KT P6SM SKC=
201705250527 TAF KSEA 250527Z 2506/2612 02005KT P6SM SCT200 FM251200 VRB03KT
                       P6SM FEW020 FM251800 31008KT P6SM FEW050
                       FM260000 35008KT P6SM FEW050 FM260400 02004KT
                       P6SM SKC=
201705250309 KSEA 250309Z 2503/2606 01005KT P6SM SCT050 BKN080
                      TEMPO 2503/2505 BKN050 BKN080 FM250500 VRB03KT
                       P6SM SCT080 SCT200 FM252000 33008KT P6SM
                       FEW050=
201705250224 KSEA 250224Z 2502/2606 02006KT P6SM BKN080 BKN200 FM250500 VRB03KT
                       P6SM SCT080 SCT200 FM252000 33008KT P6SM
                       FEW050=
201705242320 TAF KSEA 242320Z 2500/2606 33006KT P6SM FEW035 BKN050 FM250400
                       VRB03KT P6SM SCT040 SCT120 FM252000 33008KT
                       P6SM FEW050=
201705242100 KSEA 242100Z 2421/2524 30006KT P6SM FEW040 BKN080 FM250400 VRB03KT
                       P6SM SCT250=
201705241724 TAF KSEA 241724Z 2418/2524 21007KT P6SM SCT040 BKN080 FM241900
                       22010KT P6SM SCT040 BKN060 FM242200 30008KT
                       P6SM SCT060 FM250400 VRB03KT P6SM SCT250=
201705241515 KSEA 241515Z 2415/2518 15008KT P6SM SCT035 BKN050 FM241800 22010KT
                       P6SM SCT050 FM242100 30008KT P6SM SCT090
                       FM250400 VRB03KT P6SM SCT250=
201705241121 TAF KSEA 241121Z 2412/2518 19007KT P6SM SCT035 BKN050 FM241500
                       17010KT P6SM SCT035 BKN050 FM241800 22010KT
                       P6SM SCT050 FM242100 30008KT P6SM SCT090
                       FM250400 VRB03KT P6SM SCT250=
201705241016 KSEA 241016Z 2410/2512 08008KT P6SM BKN035 BKN050 FM241200 17010KT
                       P6SM SCT025 BKN050 FM241800 22010KT P6SM
                       SCT050 FM250000 32007KT P6SM SCT050 FM250400
                       VRB03KT P6SM SCT090=
201705240804 KSEA 240804Z 2408/2512 05012KT P6SM BKN035 BKN050 FM241200 17010KT
                       P6SM SCT025 BKN050 FM241800 22010KT P6SM
                       SCT050 FM250000 32007KT P6SM SCT050 FM250400
                       VRB03KT P6SM SCT090=
201705240523 TAF KSEA 240523Z 2406/2512 25010KT P6SM BKN025 FM240900 05012KT
                       P6SM SCT025 BKN050
                      TEMPO 2409/2412 BKN025 BKN050 FM241200 17010KT
                       P6SM SCT025 BKN050 FM241800 22010KT P6SM
                       SCT050 FM250000 32007KT P6SM SCT050 FM250400
                       VRB03KT P6SM SCT090=
201705240449 KSEA 240449Z 2405/2506 24013KT P6SM BKN028 FM240700 05010KT P6SM
                       BKN030 FM240900 VRB05KT P6SM SCT035 FM241100
                       19007KT P6SM SCT050=
201705240157 KSEA 240157Z 2402/2506 05013KT P6SM BKN035 FM240400 05010KT P6SM
                       BKN030 FM240600 VRB05KT P6SM SCT035 FM241100
                       19007KT P6SM SCT050=
201705240156 KSEA 240156Z 2402/2506 24008KT P6SM BKN045 FM240400 05010KT P6SM
                       BKN030 FM240600 VRB05KT P6SM SCT035 FM241100
                       19007KT P6SM SCT050=
201705232344 TAF KSEA 232344Z 2400/2506 24012KT P6SM SKC FM240200 VRB05KT P6SM
                       SCT025
                      TEMPO 2402/2404 BKN025 FM240400 05010KT P6SM
                       BKN030 FM240600 VRB05KT P6SM SCT035 FM241100
                       19007KT P6SM SCT050=
201705232122 KSEA 232122Z 2321/2424 24012KT P6SM SKC FM240200 VRB05KT P6SM SCT025
                       FM240400 05010KT P6SM BKN030 FM240600 05008KT
                       P6SM SCT050=
201705231736 TAF KSEA 231736Z 2318/2424 VRB04KT P6SM SKC FM232200 23008KT P6SM
                       SKC FM240000 24015G25KT P6SM SKC FM240200
                       03010KT P6SM SCT025 FM240400 03010KT P6SM
                       BKN025 FM240700 10005KT P6SM SCT025=
201705231448 KSEA 231448Z 2315/2418 35006KT P6SM SCT250 FM231800 34009KT P6SM
                       SCT250 FM232200 23012KT P6SM SCT250 FM240000
                       24015G25KT P6SM FEW025 FM240200 03010KT
                       P6SM SCT025 FM240400 03010KT P6SM BKN025=
201705231306 KSEA 231306Z 2313/2418 03003KT P6SM SCT250 FM231600 35008KT P6SM
                       SCT250 FM231800 23010KT P6SM SCT250 FM240000
                       24015G25KT P6SM BKN060 FM240400 30015KT
                       P6SM BKN030 OVC060 FM240800 02010KT P6SM
                       BKN035=
201705230555 TAF KSEA 230555Z 2306/2412 02007KT P6SM SCT250 FM231200 03003KT
                       P6SM SCT250 FM231600 35008KT P6SM SCT250
                       FM231800 23010KT P6SM SCT250 FM240000 24015G25KT
                       P6SM BKN060 FM240400 30015KT P6SM BKN030
                       OVC060 FM240800 02010KT P6SM BKN035=
201705230307 KSEA 230307Z 2303/2406 35006KT P6SM SCT250 FM231200 03007KT P6SM
                       SCT250 FM231600 35008KT P6SM SCT250 FM232100
                       23014KT P6SM SCT250=
201705222320 TAF KSEA 222320Z 2300/2406 35009KT P6SM SCT250 FM231200 03007KT
                       P6SM SCT250 FM231600 35008KT P6SM SCT250
                       FM232100 23014KT P6SM SCT250=
201705222107 KSEA 222107Z 2221/2324 35009KT P6SM SCT250 FM230600 36006KT P6SM
                       SCT250 FM231600 34008KT P6SM SCT250=
201705221720 TAF KSEA 221720Z 2218/2324 34008KT P6SM BKN250 FM230600 02006KT
                       P6SM BKN250 FM231600 34008KT P6SM SCT250=
201705221501 KSEA 221501Z 2215/2318 03005KT P6SM BKN250 FM221800 34008KT P6SM
                       BKN250 FM230600 02006KT P6SM BKN250 FM231200
                       21003KT P6SM BKN250=
201705221149 TAF KSEA 221149Z 2212/2318 03004KT P6SM SKC FM221900 34008KT P6SM
                       SKC FM230600 02006KT P6SM SKC FM231200 21003KT
                       P6SM FEW200=
201705220910 KSEA 220910Z 2209/2312 05008KT P6SM SKC FM221200 03004KT P6SM SKC
                       FM221900 34008KT P6SM SKC FM230600 02006KT
                       P6SM SKC=
201705220530 TAF KSEA 220530Z 2206/2312 01008KT P6SM SKC FM221200 03004KT P6SM
                       SKC FM221900 34008KT P6SM SKC FM230600 02006KT
                       P6SM SKC=
201705220307 KSEA 220307Z 2203/2306 34010KT P6SM SCT250 FM220400 02008KT P6SM
                       SKC FM221200 03004KT P6SM SKC FM221900 34008KT
                       P6SM SKC=
201705212320 TAF KSEA 212320Z 2200/2306 35008KT P6SM SCT250 FM220400 02008KT
                       P6SM SKC FM221200 03004KT P6SM SKC FM221900
                       34008KT P6SM SKC=
201705211720 TAF KSEA 211720Z 2118/2224 31006KT P6SM FEW220 FM212200 34011KT
                       P6SM FEW220 FM220400 02008KT P6SM SKC FM221200
                       03004KT P6SM SKC FM221900 34007KT P6SM SKC=
201705211501 KSEA 211501Z 2115/2218 03005KT P6SM VCFG FEW002 SCT250 FM211700
                       35008KT P6SM FEW200 FM212200 34011KT P6SM
                       SCT200 FM220600 02008KT P6SM SKC FM221200
                       03004KT P6SM SKC=
201705211125 TAF KSEA 211125Z 2112/2218 02004KT P6SM SKC FM211800 35008KT P6SM
                       FEW200 FM212200 34011KT P6SM SCT200 FM220600
                       02008KT P6SM SKC FM221200 03004KT P6SM SKC=
201705210901 KSEA 210901Z 2109/2212 04008KT P6SM SKC FM211800 35008KT P6SM FEW200
                       FM212200 34011KT P6SM SCT200 FM220600 02008KT
                       P6SM SKC=
201705210536 TAF KSEA 210536Z 2106/2212 35004KT P6SM SKC FM210800 03005KT P6SM
                       SKC FM211800 35008KT P6SM FEW200 FM212200
                       34011KT P6SM SCT200 FM220600 02008KT P6SM
                       SKC=
201705210301 KSEA 210301Z 2103/2206 34007KT P6SM FEW045 FM210400 03005KT P6SM
                       SKC FM211900 35008KT P6SM SKC FM212200 34011KT
                       P6SM SKC=
201705202320 TAF KSEA 202320Z 2100/2206 32009KT P6SM FEW040 FEW250 FM210400
                       03005KT P6SM SKC FM211900 35008KT P6SM SKC
                       FM212200 34011KT P6SM SKC=
201705202100 KSEA 202100Z 2021/2124 31008KT P6SM FEW040 SCT250 FM210400 03005KT
                       P6SM SKC FM211900 35008KT P6SM SKC=
201705201721 TAF KSEA 201721Z 2018/2124 VRB04KT P6SM SCT030 SCT040 FM202000
                       34009KT P6SM SKC FM210400 03005KT P6SM SKC
                       FM211900 35008KT P6SM SKC=
201705201605 KSEA 201605Z 2016/2118 19005KT P6SM SCT019 BKN070 BKN150 FM201800
                       VRB05KT P6SM SCT070 FM202000 34009KT P6SM
                       SKC FM210400 03005KT P6SM SKC=
201705201506 KSEA 201506Z 2015/2118 VRB04KT P6SM BKN070 BKN140 FM201700 34005KT
                       P6SM SCT070 FM202100 34009KT P6SM SKC FM210400
                       03005KT P6SM SKC=
201705201301 KSEA 201301Z 2013/2118 VRB03KT P6SM BKN070 FM201700 34005KT P6SM
                       SCT070 FM202100 34009KT P6SM SKC FM210600
                       01004KT P6SM SKC=
201705201120 TAF KSEA 201120Z 2012/2118 VRB03KT P6SM SCT030 BKN060 FM201300
                       VRB03KT P6SM SCT020 BKN030 FM201700 34005KT
                       P6SM SCT035 FM202100 34009KT P6SM SKC FM210600
                       01004KT P6SM SKC=
201705200535 TAF KSEA 200535Z 2006/2112 34005KT P6SM BKN045 OVC080 FM200900
                       VRB03KT P6SM SCT030 BKN040 FM201300 VRB03KT
                       P6SM VCSH SCT020 BKN030 FM201700 34005KT
                       P6SM SCT035 FM202100 34009KT P6SM SKC FM210600
                       01004KT P6SM SKC=
201705200303 KSEA 200303Z 2003/2106 29005KT P6SM SCT040 OVC060 FM200700 VRB03KT
                       P6SM VCSH SCT030 BKN040 FM201300 VRB03KT
                       P6SM VCSH SCT020 BKN030 FM201700 34005KT
                       P6SM SCT035 FM202000 34009KT P6SM SKC=
201705192339 TAF KSEA 192339Z 2000/2106 26005KT P6SM SCT040 BKN050 FM200200
                       34005KT P6SM SCT040 BKN050 FM200700 VRB03KT
                       P6SM VCSH SCT030 BKN040 FM201300 VRB03KT
                       P6SM VCSH SCT020 BKN030 FM201700 34005KT
                       P6SM SCT035 FM202000 34009KT P6SM SKC=
201705192110 KSEA 192110Z 1921/2024 24005KT P6SM SCT035 SCT080 BKN200 FM200200
                       34005KT P6SM SCT040 BKN060 FM200700 20005KT
                       P6SM SCT030 BKN040 FM201300 VRB03KT P6SM
                       SCT020 BKN030 FM201700 34005KT P6SM SCT030
                       FM202000 34009KT P6SM SKC=
201705191730 TAF KSEA 191730Z 1918/2024 24005KT P6SM SCT050 BKN200 FM200200
                       34005KT P6SM SCT040 BKN060 FM200700 20005KT
                       P6SM SCT030 BKN040 FM201300 VRB03KT P6SM
                       SCT020 BKN030 FM201700 34005KT P6SM SCT030
                       FM202000 34009KT P6SM SKC=
201705191450 KSEA 191450Z 1915/2018 VRB03KT P6SM SCT050 BKN200 FM192000 23005KT
                       P6SM FEW050 BKN250 FM200100 29006KT P6SM
                       SCT050 BKN090 FM200900 01003KT P6SM BKN025
                       OVC050=
201705191123 TAF KSEA 191123Z 1912/2018 01003KT P6SM BKN060 FM191800 23007KT
                       P6SM FEW050 BKN250 FM192100 VRB04KT P6SM
                       BKN050 FM200000 29006KT P6SM SCT050 BKN090
                       FM200900 01003KT P6SM BKN025 OVC050=
201705190900 KSEA 190900Z 1909/2012 01003KT P6SM BKN070 FM191800 22007KT P6SM
                       FEW050 BKN250 FM192100 VRB04KT P6SM BKN050
                       FM200000 29006KT P6SM SCT050 BKN090=
201705190537 TAF KSEA 190537Z 1906/2012 01003KT P6SM BKN080 BKN200 FM191800
                       22007KT P6SM FEW050 BKN250 FM192100 VRB04KT
                       P6SM BKN050 FM200000 29006KT P6SM SCT050
                       BKN090=
201705190306 KSEA 190306Z 1903/2006 34004KT P6SM BKN080 BKN200 FM190600 02004KT
                       P6SM SCT100 FM191800 22007KT P6SM FEW050
                       BKN250 FM192100 28004KT P6SM BKN050=
201705190117 KSEA 190117Z 1901/2006 30005KT P6SM FEW040 BKN100 BKN250 FM190300
                       34004KT P6SM SCT110 SCT250 FM190600 02004KT
                       P6SM SCT100 FM191800 22007KT P6SM FEW050
                       BKN250=
201705182320 TAF KSEA 182320Z 1900/2006 30005KT P6SM FEW040 SCT110 BKN250 FM190300
                       34004KT P6SM SCT110 SCT250 FM190600 02004KT
                       P6SM SCT100 FM191800 22007KT P6SM FEW050
                       BKN250=
201705182101 KSEA 182101Z 1821/1924 VRB03KT P6SM SCT035 BKN120 BKN250 FM182300
                       30005KT P6SM SCT040 SCT250 FM190600 01004KT
                       P6SM FEW100 FM191700 29006KT P6SM SCT040=
201705181720 TAF KSEA 181720Z 1818/1924 21004KT P6SM FEW025 BKN045 BKN250 FM181900
                       24005KT P6SM SCT050 BKN250 FM182300 30005KT
                       P6SM SCT050 SCT250 FM190600 01004KT P6SM
                       FEW100 FM191700 29006KT P6SM SCT040=
201705181502 KSEA 181502Z 1815/1918 21004KT P6SM FEW030 BKN050 BKN250 FM181900
                       24005KT P6SM SCT050 BKN250 FM190000 30005KT
                       P6SM SCT050 FM190600 01004KT P6SM FEW100
                       FM191700 29006KT P6SM BKN100=
201705181130 TAF KSEA 181130Z 1812/1918 17004KT P6SM FEW020 BKN050 FM181300
                       20004KT P6SM BKN025 FM181900 24005KT P6SM
                       SCT030 FM190000 30005KT P6SM SCT050 FM190600
                       01004KT P6SM FEW100 FM191700 29006KT P6SM
                       BKN100=
201705180906 KSEA 180906Z 1809/1912 24005KT P6SM FEW030 OVC050 FM181200 22004KT
                       P6SM OVC025 FM181900 24005KT P6SM SCT030
                       FM190000 30005KT P6SM SCT050 FM190600 01004KT
                       P6SM FEW100=
201705180520 TAF KSEA 180520Z 1806/1912 24005KT P6SM FEW030 OVC050 FM180800
                       22004KT P6SM OVC025 FM181900 24005KT P6SM
                       SCT030 FM190000 30005KT P6SM SCT050 FM190600
                       01004KT P6SM FEW100=
201705180301 KSEA 180301Z 1803/1906 24005KT P6SM FEW030 OVC050 FM180700 16004KT
                       P6SM OVC025 FM181900 24005KT P6SM SCT030=
201705172320 TAF KSEA 172320Z 1800/1906 21010KT P6SM SCT030 OVC060 FM180700
                       16004KT P6SM OVC025 FM181900 24005KT P6SM
                       SCT030=
201705172103 KSEA 172103Z 1721/1824 23006KT P6SM BKN030 BKN040 FM180700 16004KT
                       P6SM OVC025 FM181900 24005KT P6SM SCT030=
201705171723 TAF KSEA 171723Z 1718/1824 13004KT P6SM SCT015 BKN035 OVC060 FM171900
                       23006KT P6SM SCT025 BKN060 FM180700 16004KT
                       P6SM OVC035=
201705171505 KSEA 171505Z 1715/1818 13004KT P6SM SCT020 BKN035 OVC060 FM171800
                       23006KT P6SM SCT035 BKN060 FM180700 16004KT
                       P6SM OVC035=
201705171351 KSEA 171351Z 1714/1818 16004KT P6SM SCT015 OVC060
                      TEMPO 1714/1717 BKN015 OVC060 FM171800 23006KT
                       P6SM SCT020 BKN060 FM180700 16004KT P6SM
                       OVC035=
201705171235 KSEA 171235Z 1713/1818 16004KT P6SM SCT020 OVC060 FM171800 23006KT
                       P6SM SCT030 BKN060 FM180700 16004KT P6SM
                       OVC035=
201705171120 TAF KSEA 171120Z 1712/1818 16004KT P6SM SCT030 OVC050 FM171800
                       23006KT P6SM BKN050 FM180700 16004KT P6SM
                       OVC035=
201705170901 KSEA 170901Z 1709/1812 12005KT P6SM BKN015 OVC030 FM171100 18004KT
                       P6SM OVC030 FM172000 23006KT P6SM BKN035
                       FM180000 23005KT P6SM BKN050 FM180700 16004KT
                       P6SM OVC035=
201705170520 TAF KSEA 170520Z 1706/1812 20005KT P6SM SCT040 OVC070
                      TEMPO 1706/1709 -RA BKN035 FM171100 18004KT
                       P6SM OVC030 FM172000 23006KT P6SM BKN035
                       FM180000 23005KT P6SM BKN050=
201705170300 KSEA 170300Z 1703/1806 20005KT P6SM SCT040 OVC070 FM171100 18004KT
                       P6SM OVC030 FM172000 23006KT P6SM BKN035
                       FM180000 23005KT P6SM BKN050=
201705162330 TAF KSEA 162330Z 1700/1806 23008KT P6SM VCSH SCT021 BKN045 BKN200
                       FM170300 20005KT P6SM SCT030 OVC050 FM171100
                       18004KT P6SM OVC030 FM172000 23006KT P6SM
                       BKN035=
201705162101 KSEA 162101Z 1621/1724 35004KT P6SM VCSH FEW014 BKN035
                      TEMPO 1621/1701 -SHRA FEW014 BKN025 OVC040
                       FM170100 23006KT P6SM SCT030 OVC050 FM171000
                       17005KT P6SM OVC035 FM171200 19006KT P6SM
                       OVC030 FM171800 21006KT P6SM BKN025=
201705161945 KSEA 161945Z 1620/1724 19010KT P6SM VCSH SCT025 BKN035 BKN080 FM162300
                       25008KT P6SM VCSH SCT025 OVC050 FM170200
                       23006KT P6SM SCT030 OVC050 FM171000 17005KT
                       P6SM OVC035 FM171200 19006KT P6SM OVC030
                       FM171800 21006KT P6SM BKN025=
201705161742 TAF KSEA 161742Z 1618/1724 21010KT P6SM VCSH SCT016 BKN030 OVC040
                       FM162300 25008KT P6SM VCSH SCT025 OVC050
                       FM170200 23006KT P6SM SCT030 OVC050 FM171000
                       17005KT P6SM OVC035 FM171200 19006KT P6SM
                       OVC030 FM171800 21006KT P6SM BKN025=
201705161506 KSEA 161506Z 1615/1718 20007KT P6SM VCSH FEW006 BKN017 OVC024 FM162000
                       21012KT P6SM -SHRA SCT015 BKN025 OVC040
                       FM162300 27008KT P6SM VCSH SCT025 OVC050
                       FM170200 16005KT P6SM SCT030 OVC050 FM171000
                       18005KT P6SM OVC030=
201705161238 KSEA 161238Z 1613/1718 19011KT P6SM -RA SCT006 BKN010 OVC020
                      TEMPO 1613/1615 4SM -RA BR OVC006 FM161500
                       22012KT P6SM -SHRA BKN020 OVC040 FM162000
                       21012KT P6SM -SHRA SCT015 BKN025 OVC040
                       FM162300 27008KT P6SM VCSH SCT025 OVC050
                       FM170200 16005KT P6SM SCT030 OVC050 FM171000
                       18005KT P6SM OVC030=
201705161120 TAF KSEA 161120Z 1612/1718 19011KT P6SM -SHRA BKN010 OVC020
                      TEMPO 1612/1615 4SM BR OVC008 FM162000 21012KT
                       P6SM VCSH SCT015 OVC025 FM162300 27008KT
                       P6SM VCSH SCT025 OVC050 FM170200 16005KT
                       P6SM SCT030 OVC050 FM171000 18005KT P6SM
                       OVC030=
201705160902 KSEA 160902Z 1609/1712 19011KT P6SM -SHRA BKN025 OVC035 FM162000
                       21012KT P6SM VCSH SCT015 OVC025 FM162300
                       27008KT P6SM VCSH SCT025 OVC050 FM170200
                       16005KT P6SM SCT030 OVC050=
201705160521 TAF KSEA 160521Z 1606/1712 19006KT P6SM -RA SCT010 OVC035 FM160900
                       19011KT P6SM -SHRA BKN015 OVC025 FM162000
                       21012KT P6SM VCSH SCT015 OVC025 FM162300
                       27008KT P6SM VCSH SCT025 OVC050 FM170200
                       16005KT P6SM SCT030 OVC050=
201705160302 KSEA 160302Z 1603/1706 19006KT P6SM -RA SCT010 OVC030 FM160900
                       19011KT P6SM -SHRA BKN015 OVC025 FM161800
                       21012KT P6SM VCSH SCT015 OVC025 FM162300
                       27008KT P6SM VCSH SCT025 OVC050=
201705152333 TAF KSEA 152333Z 1600/1706 22008KT P6SM -RA FEW016 BKN050 OVC060
                       FM160200 19006KT P6SM -RA OVC015 FM160900
                       19011KT P6SM -SHRA BKN015 OVC025 FM161800
                       21012KT P6SM VCSH SCT015 OVC025=
201705152101 KSEA 152101Z 1521/1624 22005KT P6SM -RA FEW012 BKN040 OVC050 FM152200
                       21010KT P6SM -RA SCT020 OVC035 FM160400
                       19010KT P6SM -RA OVC025 FM160900 18011KT
                       P6SM -SHRA BKN015 OVC025=
201705151733 TAF KSEA 151733Z 1518/1624 19010KT P6SM FEW015 BKN035 OVC070 FM151900
                       21010KT P6SM SCT020 OVC035 FM152200 21010KT
                       P6SM -RA SCT020 OVC035 FM160400 19010KT
                       P6SM -RA OVC025 FM160900 18011KT P6SM -SHRA
                       BKN015 OVC025=
201705151512 KSEA 151512Z 1515/1618 19009KT P6SM FEW012 BKN040 BKN070 FM151900
                       21010KT P6SM OVC040
                      TEMPO 1519/1521 -RA FM152100 22010KT P6SM
                       -RA OVC040 FM160000 22010KT P6SM -RA SCT025
                       OVC035 FM160300 20010KT P6SM -RA OVC025
                       FM160700 20009KT P6SM -RA BKN015 OVC025=
201705151241 KSEA 151241Z 1513/1618 18010KT P6SM SCT015 BKN040 FM151900 21010KT
                       P6SM OVC040
                      TEMPO 1519/1521 -RA FM152100 22010KT P6SM
                       -RA OVC040 FM160000 22010KT P6SM -RA SCT025
                       OVC035 FM160300 20010KT P6SM -RA OVC025
                       FM160700 20009KT P6SM -RA BKN015 OVC025=
201705151120 TAF KSEA 151120Z 1512/1618 19005KT P6SM SCT015 BKN030 FM151900
                       22009KT P6SM OVC035 FM160000 22007KT P6SM
                       -RA SCT025 OVC050 FM160300 20010KT P6SM
                       -RA OVC025 FM160700 20009KT P6SM -RA BKN015
                       OVC025=
201705150910 KSEA 150910Z 1509/1612 19005KT P6SM BKN015 OVC030 FM151900 22009KT
                       P6SM OVC035 FM160000 22007KT P6SM -RA SCT025
                       OVC050 FM160300 20010KT P6SM -RA OVC025
                       FM160700 20009KT P6SM -RA BKN015 OVC025=
201705150520 TAF KSEA 150520Z 1506/1612 21006KT P6SM BKN025 FM150900 19005KT
                       P6SM OVC025 FM151900 22009KT P6SM OVC035
                       FM160000 22007KT P6SM -RA SCT025 OVC050
                       FM160300 20010KT P6SM -RA OVC025=
201705150259 KSEA 150259Z 1503/1606 21011KT P6SM VCSH FEW030 SCT050 BKN080 FM150400
                       21006KT P6SM OVC035 FM150900 19005KT P6SM
                       OVC025 FM151900 22009KT P6SM OVC035 FM160000
                       22007KT P6SM -RA SCT025 OVC050=
201705150115 KSEA 150115Z 1501/1606 21011KT P6SM VCSH FEW030 SCT050 BKN080
                      TEMPO 1501/1504 -SHRA FEW030 OVC050 FM150400
                       21006KT P6SM OVC035 FM150900 19005KT P6SM
                       OVC015 FM151900 22009KT P6SM OVC035 FM160000
                       22007KT P6SM -RA SCT025 OVC050=
201705142341 TAF KSEA 142341Z 1500/1606 22008KT P6SM VCSH FEW026 SCT040 BKN050
                       TEMPO 1500/1504 -SHRA BKN025 OVC040 FM150400
                       21006KT P6SM OVC035 FM150900 19005KT P6SM
                       OVC015 FM151900 22009KT P6SM OVC035 FM160000
                       22007KT P6SM -RA SCT025 OVC050=
201705142008 KSEA 142008Z 1420/1524 20013KT P6SM VCSH FEW020 BKN090
                      TEMPO 1420/1424 -SHRA BKN025 OVC060 FM150000
                       21009KT P6SM -SHRA BKN035 BKN050 FM150400
                       19006KT P6SM BKN025 FM150800 20008KT P6SM
                       OVC015=
201705141744 TAF KSEA 141744Z 1418/1524 19009KT P6SM VCSH BKN022 OVC035 FM142100
                       21009KT P6SM -SHRA BKN035 BKN050 FM150400
                       19006KT P6SM BKN025 FM150800 20008KT P6SM
                       OVC015=
201705141502 KSEA 141502Z 1415/1518 17006KT P6SM -SHRA FEW024 OVC030 FM141600
                       20007KT P6SM -SHRA BKN025 OVC040 FM142000
                       22008KT P6SM -SHRA BKN035 BKN050 FM150300
                       20005KT P6SM BKN040=
201705141237 KSEA 141237Z 1413/1518 19007KT P6SM -SHRA SCT025 BKN040 FM141600
                       20007KT P6SM -SHRA BKN025 OVC040 FM142000
                       22008KT P6SM -SHRA VCSH BKN035 BKN050 FM150300
                       20005KT P6SM BKN040=
201705141120 TAF KSEA 141120Z 1412/1518 19007KT P6SM SCT025 BKN050 FM141600
                       20007KT P6SM VCSH BKN025 FM142000 22008KT
                       P6SM VCSH BKN035 FM150300 20005KT P6SM BKN040=
201705140856 KSEA 140856Z 1409/1512 19007KT P6SM OVC025 FM142000 22007KT P6SM
                       VCSH BKN035 FM150400 20005KT P6SM BKN040=
201705140538 TAF KSEA 140538Z 1406/1512 20006KT P6SM VCSH BKN040 FM141000 19007KT
                       P6SM OVC025 FM141800 22007KT P6SM VCSH BKN035
                       FM150400 20005KT P6SM BKN040=
201705140300 KSEA 140300Z 1403/1506 23009KT P6SM VCSH SCT035 BKN070 BKN200
                      TEMPO 1403/1404 -SHRA BKN035 OVC060 FM140400
                       20006KT P6SM BKN040
                      TEMPO 1404/1406 -SHRA BKN035 FM141000 19007KT
                       P6SM OVC025 FM141800 22007KT P6SM VCSH BKN035=
201705140104 KSEA 140104Z 1401/1506 23009KT P6SM VCSH SCT035 BKN060 BKN200
                      TEMPO 1401/1404 -SHRA BKN035 OVC060 FM140400
                       20006KT P6SM BKN040 FM141000 19007KT P6SM
                       OVC025 FM141800 22007KT P6SM VCSH BKN035=
201705132330 TAF KSEA 132330Z 1400/1506 22013G18KT P6SM VCSH SCT030 SCT060
                      TEMPO 1400/1404 -SHRA BKN035 OVC050 FM140400
                       20006KT P6SM BKN040 FM141000 19007KT P6SM
                       OVC025 FM141800 22007KT P6SM VCSH BKN035=
201705132114 KSEA 132114Z 1321/1424 23007KT P6SM VCSH FEW027 SCT060
                      TEMPO 1321/1401 -SHRA BKN025 OVC045 FM140100
                       22007KT P6SM VCSH OVC035 FM140400 21006KT
                       P6SM OVC040 FM141000 19005KT P6SM OVC030=
201705131729 TAF KSEA 131729Z 1318/1424 23010KT P6SM VCSH FEW013 BKN035 BKN045
                       TEMPO 1318/1322 -SHRA BKN025 OVC045 FM132200
                       22007KT P6SM VCSH OVC035 FM140300 21006KT
                       P6SM OVC040 FM140600 19005KT P6SM OVC030=
201705131502 KSEA 131502Z 1315/1418 21006KT P6SM VCSH BKN015 OVC025
                      TEMPO 1317/1321 -SHRA BKN025 OVC045 FM140300
                       20005KT P6SM OVC040 FM141000 18008KT P6SM
                       OVC050=
201705131238 KSEA 131238Z 1313/1418 18008KT P6SM VCSH SCT020 OVC040
                      TEMPO 1313/1316 BKN020 OVC040 FM131600 21008KT
                       P6SM VCSH SCT025 BKN045
                      TEMPO 1316/1320 -SHRA BKN025 OVC045 FM140300
                       20005KT P6SM OVC040 FM141000 18008KT P6SM
                       OVC050=
201705131120 TAF KSEA 131120Z 1312/1418 18005KT P6SM OVC025 FM131900 21009KT
                       P6SM VCSH BKN040 FM140300 20005KT P6SM OVC040
                       FM141000 18008KT P6SM OVC050=
201705130857 KSEA 130857Z 1309/1412 VRB04KT P6SM VCSH BKN030 BKN035 FM131000
                       17004KT P6SM VCSH OVC030 FM131300 19005KT
                       P6SM OVC025 FM131900 21009KT P6SM VCSH BKN040
                       FM140300 20005KT P6SM OVC040=
201705130520 TAF KSEA 130520Z 1306/1412 VRB03KT P6SM VCSH BKN035 BKN060 FM131000
                       17004KT P6SM VCSH OVC030 FM131300 19005KT
                       P6SM OVC025 FM131900 21009KT P6SM VCSH BKN040
                       FM140300 20005KT P6SM OVC040=
201705130207 KSEA 130207Z 1302/1406 24006KT P6SM -SHRA SCT035 BKN050 OVC110
                       TEMPO 1302/1306 4SM -RA BR BKN035 FM130600
                       VRB03KT P6SM VCSH BKN035 BKN060 FM131000
                       17004KT P6SM VCSH OVC030 FM131300 19005KT
                       P6SM OVC019 FM131900 21009KT P6SM VCSH BKN045=
201705130118 KSEA 130118Z 1301/1406 VRB05KT P6SM VCSH SCT050 BKN110 OVC200 FM130200
                       24006KT P6SM -SHRA SCT035 BKN050 OVC110
                       FM130600 VRB03KT P6SM VCSH BKN035 BKN060
                       FM131000 17004KT P6SM VCSH OVC030 FM131300
                       19005KT P6SM OVC019 FM131900 21009KT P6SM
                       VCSH BKN045=
201705122332 TAF KSEA 122332Z 1300/1406 25003KT P6SM -SHRA VCTS FEW027CB SCT040
                       BKN080 FM130400 VRB03KT P6SM VCSH BKN035
                       BKN060 FM131000 17004KT P6SM VCSH OVC030
                       FM131300 19005KT P6SM OVC019 FM131900 21009KT
                       P6SM VCSH BKN045=
201705122058 KSEA 122058Z 1221/1324 VRB05KT P6SM -SHRA VCTS BKN035CB BKN050
                       FM130400 VRB03KT P6SM BKN035 BKN060 FM131300
                       19006KT P6SM BKN025 OVC040 FM131800 21010KT
                       P6SM BKN050=
201705121742 TAF KSEA 121742Z 1218/1324 VRB05KT P6SM -SHRA BKN035 BKN050 FM130400
                       VRB03KT P6SM BKN035 BKN060 FM131300 19006KT
                       P6SM BKN025 OVC040 FM131800 21010KT P6SM
                       BKN050=
201705121513 TAF AMD KSEA 121513Z 1215/1318 15004KT P6SM FEW025 SCT070 SCT120
                       FM121800 18012KT P6SM -SHRA SCT025 BKN035
                       OVC060 FM130600 21008KT P6SM BKN035 BKN060
                       FM131200 21008KT P6SM BKN025 OVC040=
201705121122 TAF KSEA 121122Z 1212/1318 16008KT P6SM SCT040 BKN060 FM121900
                       18012KT P6SM -SHRA SCT025 BKN035 OVC060
                       FM130600 21008KT P6SM BKN035 BKN060 FM131200
                       21008KT P6SM BKN025 OVC040=
201705120906 TAF AMD KSEA 120906Z 1209/1312 16008KT P6SM SCT050 SCT100 FM121900
                       18012KT P6SM -SHRA BKN040 BKN060 FM130600
                       18008KT P6SM SCT040 BKN070=
201705120537 TAF KSEA 120537Z 1206/1312 18008KT P6SM BKN045 BKN070 FM121000
                       18008KT P6SM SCT050 SCT100 FM122000 18012KT
                       P6SM -SHRA BKN040 BKN060 FM130600 18008KT
                       P6SM SCT040 BKN070=
201705120127 TAF AMD KSEA 120127Z 1201/1306 20010KT P6SM -SHRA FEW012 SCT040
                       OVC060
                      TEMPO 1201/1203 5SM SHRA FEW012 BKN040 OVC060
                       FM120400 17009KT P6SM VCSH BKN050 FM120600
                       17008KT P6SM BKN050 BKN080 FM121000 18008KT
                       P6SM BKN050 FM122000 19012KT P6SM -SHRA
                       BKN050=
201705112330 TAF KSEA 112330Z 1200/1306 17011KT P6SM -SHRA SCT015 BKN040 OVC060
                       FM120200 17009KT P6SM VCSH BKN050 FM120600
                       17008KT P6SM BKN050 BKN080 FM121000 18008KT
                       P6SM BKN050 FM122000 19012KT P6SM -SHRA
                       BKN050=
201705112233 TAF AMD KSEA 112233Z 1123/1224 17011KT P6SM -SHRA FEW016 BKN040
                       OVC060 FM120100 17009KT P6SM VCSH BKN050
                       FM120600 17008KT P6SM BKN050 BKN080 FM121000
                       14008KT P6SM SCT070 BKN120=
201705112101 TAF AMD KSEA 112101Z 1121/1224 20012G20KT P6SM -SHRA SCT015 BKN050
                       OVC070 FM120100 21009KT P6SM VCSH BKN050
                       FM120600 17008KT P6SM BKN050 BKN080 FM121000
                       14008KT P6SM SCT070 BKN120=
201705111915 TAF AMD KSEA 111915Z 1119/1224 23017G23KT P6SM -SHRA SCT007 SCT020
                       OVC050
                      TEMPO 1119/1122 BKN020 OVC050 FM112200 22013G20KT
                       P6SM -SHRA SCT030 BKN050
                      TEMPO 1122/1124 BKN030 BKN050 FM120200 21009KT
                       P6SM VCSH BKN050 FM120600 17008KT P6SM BKN050
                       BKN080 FM121000 14008KT P6SM SCT070 BKN120=
201705111726 TAF KSEA 111726Z 1118/1224 18005KT 3SM RA OVC030 FM112000 22013G20KT
                       P6SM -SHRA BKN035 BKN050 FM120200 21009KT
                       P6SM VCSH BKN050 FM120600 17008KT P6SM BKN050
                       BKN080 FM121000 14008KT P6SM SCT070 BKN120=
201705111503 TAF AMD KSEA 111503Z 1115/1218 00000KT P6SM FEW070 BKN110 OVC200
                       FM111700 18008KT P6SM -RA OVC050 FM112000
                       22013G20KT P6SM -SHRA BKN035 BKN050 FM120200
                       21008KT P6SM VCSH BKN050 FM120600 17008KT
                       P6SM BKN050 BKN080 FM121000 14008KT P6SM
                       SCT070 BKN120=
201705111132 TAF KSEA 111132Z 1112/1218 18008KT P6SM -RA OVC040 FM111800 18008KT
                       P6SM -RA OVC030 FM112100 22012KT P6SM -SHRA
                       BKN035 BKN050 FM120600 17008KT P6SM BKN050
                       BKN080 FM121000 14008KT P6SM SCT070 BKN120=
201705110910 KSEA 110910Z 1109/1212 18008KT P6SM BKN045 OVC070 FM111400 18008KT
                       P6SM -RA OVC040 FM111800 18008KT P6SM -RA
                       OVC030 FM112100 22012KT P6SM -SHRA BKN035
                       BKN050 FM120600 17008KT P6SM BKN050 BKN080=
201705110541 TAF KSEA 110541Z 1106/1212 21006KT P6SM BKN060 OVC100 FM111500
                       18008KT P6SM -RA OVC040 FM111800 18008KT
                       P6SM -RA OVC030 FM112100 22012KT P6SM -SHRA
                       BKN035 BKN050 FM120600 17008KT P6SM BKN050
                       BKN080=
201705110307 KSEA 110307Z 1103/1206 28006KT P6SM FEW050 SCT140 BKN250 FM110600
                       21006KT P6SM SCT050 BKN120 OVC200 FM111400
                       18008KT P6SM -RA OVC050 FM111600 19009KT
                       5SM -RA BR OVC030 FM112000 22012G19KT P6SM
                       -SHRA BKN035 BKN050=
201705102325 TAF KSEA 102325Z 1100/1206 18008KT P6SM FEW050 SCT140 BKN250 FM110600
                       18005KT P6SM BKN050 OVC100 FM111400 18008KT
                       P6SM -RA OVC050 FM111600 19009KT 5SM -RA
                       BR OVC030 FM112000 22012G19KT P6SM -SHRA
                       BKN035 BKN050=
201705102100 KSEA 102100Z 1021/1124 24004KT P6SM FEW040 SCT150 SCT250 FM110000
                       22006KT P6SM BKN100 OVC200 FM110600 20005KT
                       P6SM BKN050 OVC100 FM111400 18008KT P6SM
                       -RA OVC050 FM111600 19009KT 5SM -RA BR OVC030=
201705101731 TAF KSEA 101731Z 1018/1124 27004KT P6SM FEW090 SCT120 BKN200 FM102200
                       22006KT P6SM BKN100 OVC200 FM110600 20005KT
                       P6SM BKN050 OVC100 FM111400 18008KT P6SM
                       -RA OVC050 FM111600 19009KT 5SM -RA BR OVC030=
201705101500 KSEA 101500Z 1015/1118 27004KT P6SM FEW090 SCT120 SCT200 FM101800
                       25005KT P6SM SCT100 BKN200 FM110000 26006KT
                       P6SM BKN070 BKN150 FM110600 20005KT P6SM
                       BKN050 OVC100=
201705101120 TAF KSEA 101120Z 1012/1118 VRB03KT P6SM BKN120 BKN200 FM101800
                       25005KT P6SM SCT100 BKN200 FM110000 26006KT
                       P6SM BKN070 BKN150 FM110600 20005KT P6SM
                       BKN050 OVC100=
201705100906 KSEA 100906Z 1009/1112 VRB03KT P6SM BKN250 FM101500 23003KT P6SM
                       BKN100 BKN200 FM101800 26006KT P6SM SCT100
                       BKN200 FM110000 26006KT P6SM BKN070 BKN200=
201705100520 TAF KSEA 100520Z 1006/1112 36004KT P6SM BKN250 FM101200 VRB03KT
                       P6SM BKN100 BKN200 FM101800 26006KT P6SM
                       SCT100 BKN200 FM110000 26006KT P6SM BKN070
                       BKN200=
201705100305 KSEA 100305Z 1003/1106 01005KT P6SM BKN250 FM101200 VRB03KT P6SM
                       BKN100 BKN200 FM101800 25005KT P6SM SCT100
                       BKN200 FM110000 26006KT P6SM SCT050 BKN200=
201705092345 TAF KSEA 092345Z 1000/1106 29007KT P6SM BKN250 FM100200 35004KT
                       P6SM BKN250 FM100800 05003KT P6SM BKN250
                       FM101800 25005KT P6SM BKN200 FM110000 26006KT
                       P6SM SCT050 BKN200=
201705092130 KSEA 092130Z 0922/1024 31007KT P6SM BKN250 FM100200 35004KT P6SM
                       BKN250 FM100800 05003KT P6SM BKN250 FM101600
                       25005KT P6SM BKN200=
201705091727 TAF KSEA 091727Z 0918/1024 01004KT P6SM BKN250 FM091900 34009KT
                       P6SM BKN250 FM100200 35004KT P6SM BKN250
                       FM100800 05003KT P6SM BKN250 FM101600 25005KT
                       P6SM BKN200=
201705091502 KSEA 091502Z 0915/1018 35005KT P6SM FEW020 FEW250 FM091900 34009KT
                       P6SM SCT250 FM100200 35004KT P6SM SCT070
                       BKN250 FM100800 05003KT P6SM SCT070 BKN250=
201705091139 TAF KSEA 091139Z 0912/1018 02006KT P6SM SKC FM091700 29006KT P6SM
                       SCT250 FM100000 30005KT P6SM SCT070 BKN250=
201705090905 KSEA 090905Z 0909/1012 02006KT P6SM SKC FM091700 29006KT P6SM SCT250
                       FM100000 30005KT P6SM SCT070 SCT250=
201705090530 TAF KSEA 090530Z 0906/1012 02006KT P6SM FEW070 FM091700 29006KT
                       P6SM SCT250 FM100000 30005KT P6SM SCT070
                       SCT250=
201705090324 KSEA 090324Z 0903/1006 36008KT P6SM SCT090 BKN250 FM090600 02006KT
                       P6SM SCT060 SCT250 FM091700 29006KT P6SM
                       BKN250=
201705082325 TAF KSEA 082325Z 0900/1006 29009KT P6SM FEW040 SCT090 SCT250 FM090600
                       34004KT P6SM SKC=
201705082101 KSEA 082101Z 0821/0924 36006KT P6SM FEW040 SCT090 BKN110 FM090000
                       34005KT P6SM BKN120 FM090600 VRB03KT P6SM
                       SKC=
201705081724 TAF KSEA 081724Z 0818/0924 VRB03KT P6SM BKN120 BKN200 FM090000
                       34005KT P6SM BKN120 FM090600 VRB03KT P6SM
                       SKC=
201705081516 KSEA 081516Z 0815/0918 02003KT P6SM FEW015 FEW140 BKN250 FM081800
                       29006KT P6SM BKN100 OVC200 FM090000 33005KT
                       P6SM OVC070 FM090600 VRB03KT P6SM SKC=
201705081301 KSEA 081301Z 0813/0918 09005KT P6SM SCT120 OVC200 FM081800 29007KT
                       P6SM BKN100 OVC200 FM090000 33005KT P6SM
                       OVC070 FM090600 36005KT P6SM OVC060=
201705081120 TAF KSEA 081120Z 0812/0918 04005KT P6SM FEW100 OVC200 FM081800
                       29007KT P6SM BKN100 OVC200 FM090000 33005KT
                       P6SM OVC070 FM090600 36005KT P6SM OVC060=
201705080920 KSEA 080920Z 0809/0912 03007KT P6SM BKN250 FM081200 05003KT P6SM
                       BKN100 BKN200 FM081800 28007KT P6SM OVC080
                       FM082100 30007KT P6SM OVC080 FM090400 35005KT
                       P6SM BKN060=
201705080526 TAF KSEA 080526Z 0806/0912 36006KT P6SM SCT250 FM081200 05003KT
                       P6SM SCT050 BKN100 BKN200 FM081800 29007KT
                       P6SM OVC090 FM090400 35005KT P6SM OVC060=
201705080303 KSEA 080303Z 0803/0906 34009KT P6SM SCT045 SCT250 FM080600 02006KT
                       P6SM SCT250 FM081200 VRB03KT P6SM SCT120
                       BKN250 FM081800 29006KT P6SM SCT050 SCT250
                       FM090000 33007KT P6SM BKN250=
201705072320 TAF KSEA 072320Z 0800/0906 30007KT P6SM SCT250 FM080400 02005KT
                       P6SM SCT250 FM081200 VRB03KT P6SM SCT120
                       BKN250 FM081800 29006KT P6SM SCT050 SCT250
                       FM090000 33007KT P6SM BKN250=
201705072226 KSEA 072226Z 0722/0824 27007KT P6SM FEW040 SCT250 FM080000 30007KT
                       P6SM SCT250 FM080400 02005KT P6SM SCT250
                       FM081200 VRB03KT P6SM FEW120 BKN250 FM081800
                       31007KT P6SM FEW050 SCT250=
201705072102 KSEA 072102Z 0721/0824 36007KT P6SM SCT040 FM080400 02005KT P6SM
                       SCT250 FM081200 VRB03KT P6SM FEW120 BKN250
                       FM081800 31007KT P6SM FEW050 SCT250=
201705071906 KSEA 071906Z 0719/0824 33008KT P6SM SCT040
                      TEMPO 0719/0721 BKN040 FM080400 02005KT P6SM
                       SCT250 FM081200 VRB03KT P6SM FEW120 BKN250
                       FM081800 31007KT P6SM FEW050 SCT250=
201705071720 TAF KSEA 071720Z 0718/0824 33006KT P6SM SCT025
                      TEMPO 0718/0719 BKN025 FM071900 33008KT P6SM
                       SCT035 FM080400 02005KT P6SM SCT250 FM081200
                       VRB03KT P6SM FEW120 BKN250 FM081800 31007KT
                       P6SM FEW050 SCT250=
201705071603 KSEA 071603Z 0716/0818 35006KT P6SM SCT025 SCT040
                      TEMPO 0716/0718 BKN025 BKN040 FM071800 34007KT
                       P6SM SCT250 FM072100 33007KT P6SM SCT250
                       FM080400 36005KT P6SM BKN250=
201705071508 KSEA 071508Z 0715/0818 05006KT P6SM SCT040 SCT060
                      TEMPO 0715/0717 BKN040 BKN060 FM071800 34007KT
                       P6SM SCT250 FM072100 33007KT P6SM SCT250
                       FM080400 36005KT P6SM BKN250=
201705071412 KSEA 071412Z 0714/0818 05006KT P6SM BKN030 FM071800 34007KT P6SM
                       SCT040 SCT250 FM072100 33007KT P6SM SCT250
                       FM080400 36005KT P6SM BKN250=
201705071303 KSEA 071303Z 0713/0818 05005KT P6SM SCT030 BKN060
                      TEMPO 0713/0716 BKN030 OVC060 FM071700 34007KT
                       P6SM SCT040 SCT250 FM072100 33007KT P6SM
                       SCT250 FM080400 36005KT P6SM BKN250=
201705071120 TAF KSEA 071120Z 0712/0818 05005KT P6SM FEW025 SCT080 FM071700
                       34007KT P6SM SCT030 SCT250 FM072100 33007KT
                       P6SM SCT250 FM080400 36005KT P6SM BKN250=
201705070909 KSEA 070909Z 0709/0812 05007KT P6SM FEW040 SCT080
                      TEMPO 0713/0717 BKN040 BKN080 FM071700 34006KT
                       P6SM SCT045 SCT250 FM072100 33008KT P6SM
                       SCT250=
201705070536 TAF KSEA 070536Z 0706/0812 02008KT P6SM SCT080 FM071000 04005KT
                       P6SM BKN045 FM071700 34006KT P6SM SCT045
                       SCT250 FM072100 33008KT P6SM SCT250=
201705070305 KSEA 070305Z 0703/0806 36010KT P6SM SCT070 FM070600 03010KT P6SM
                       SCT250 FM071200 05004KT P6SM SCT250 FM071700
                       34006KT P6SM SCT045 SCT250 FM072100 32009KT
                       P6SM SCT060 SCT250=
201705062320 TAF KSEA 062320Z 0700/0806 31007KT P6SM VCSH SCT050 BKN070 FM070300
                       35008KT P6SM SCT250 FM070600 02004KT P6SM
                       SCT050 FM071400 03006KT P6SM SCT030 BKN040
                       FM071700 35006KT P6SM SCT040 BKN060 FM072100
                       32008KT P6SM SCT060 SCT250=
201705062103 KSEA 062103Z 0621/0724 VRB04KT P6SM SCT040 FM062300 31007KT P6SM
                       VCSH SCT050 BKN070 FM070300 35008KT P6SM
                       SCT250 FM070600 02004KT P6SM SCT050 FM071400
                       03006KT P6SM SCT030 BKN040 FM071700 35006KT
                       P6SM SCT040 BKN060=
201705061743 TAF KSEA 061743Z 0618/0724 VRB04KT P6SM VCSH SCT030 BKN040 FM062000
                       29006KT P6SM VCSH SCT025 BKN050 FM062300
                       31007KT P6SM VCSH BKN050 BKN070 FM070300
                       35008KT P6SM SCT250 FM070600 02004KT P6SM
                       SCT050 FM071400 03006KT P6SM SCT030 BKN040
                       FM071700 35006KT P6SM SCT040 BKN060=
201705061450 KSEA 061450Z 0615/0718 VRB05KT P6SM SCT030 BKN060 FM061900 31004KT
                       P6SM SCT025 BKN040 FM062100 30006KT P6SM
                       SCT030 BKN050 FM062300 31007KT P6SM VCSH
                       BKN050 BKN070 FM070300 35008KT P6SM SCT250=
201705061301 KSEA 061301Z 0613/0718 12009KT P6SM VCSH SCT020 BKN030 BKN040
                      TEMPO 0613/0615 -SHRA BKN015 OVC030 FM061500
                       VRB05KT P6SM BKN025 OVC040 FM061800 31004KT
                       P6SM SCT025 BKN040 FM062100 30006KT P6SM
                       SCT030 BKN050 FM062300 31007KT P6SM VCSH
                       BKN050 BKN070 FM070300 35008KT P6SM SCT250=
201705061120 TAF KSEA 061120Z 0612/0718 VRB05KT P6SM VCSH BKN030 BKN050
                      TEMPO 0612/0615 -SHRA BKN015 OVC030 FM061500
                       VRB05KT P6SM BKN025 OVC040 FM061800 31004KT
                       P6SM SCT025 BKN040 FM062100 30006KT P6SM
                       SCT030 BKN050 FM062300 31007KT P6SM VCSH
                       BKN050 BKN070 FM070300 35008KT P6SM SCT250=
201705060826 KSEA 060826Z 0608/0712 19006KT P6SM VCSH BKN030 BKN050
                      TEMPO 0608/0612 -SHRA BKN020 OVC030 FM061200
                       18006KT P6SM OVC025 FM061700 24007KT P6SM
                       BKN040 FM062100 25009KT P6SM VCSH SCT040
                       BKN070 FM062300 33011KT P6SM VCSH SCT050
                       BKN070 FM070300 35010KT P6SM SCT250=
201705060540 TAF KSEA 060540Z 0606/0712 23006KT P6SM BKN040 FM061200 18006KT
                       P6SM OVC030 FM061700 24007KT P6SM BKN040
                       FM062100 25009KT P6SM VCSH SCT040 BKN070
                       FM062300 33011KT P6SM VCSH SCT050 BKN070
                       FM070300 35010KT P6SM SCT250=
201705060247 KSEA 060247Z 0603/0706 22012KT P6SM SCT090 FM060400 VRB05KT P6SM
                       SCT090 FM060700 18005KT P6SM BKN090 FM060900
                       17006KT P6SM VCSH BKN050 BKN090 FM061500
                       22006KT P6SM SCT025 FM061800 25009KT P6SM
                       SCT035 FM062000 33009KT P6SM SCT050
                      PROB30 0620/0624 -SHRA BKN050=
201705052326 TAF KSEA 052326Z 0600/0706 22013KT P6SM SCT050 BKN100 FM060300
                       22009KT P6SM FEW030 SCT050 SCT100 FM060900
                       17006KT P6SM VCSH BKN025 FM061500 22006KT
                       P6SM SCT025 FM061800 25009KT P6SM SCT035
                       FM062000 33009KT P6SM SCT050
                      PROB30 0620/0624 -SHRA BKN050=
201705052137 KSEA 052137Z 0522/0624 22013KT P6SM VCSH SCT035 BKN070
                      TEMPO 0522/0524 22013G22KT -SHRA BKN035 BKN070
                       FM060300 22009KT P6SM SCT035 BKN060 FM060900
                       19006KT P6SM VCSH OVC028 FM061800 24007KT
                       P6SM BKN035 FM062000 31007KT P6SM SCT050=
201705051739 TAF KSEA 051739Z 0518/0624 22013KT P6SM VCSH FEW008 SCT018 OVC035
                       TEMPO 0518/0521 5SM SHRA FEW008 BKN018 OVC035
                       FM052100 22013KT P6SM VCSH SCT028 BKN045
                       TEMPO 0521/0524 22013G22KT -SHRA BKN028
                       BKN045 FM060300 22009KT P6SM SCT035 BKN060
                       FM060900 19006KT P6SM VCSH OVC028 FM061800
                       24007KT P6SM BKN035 FM062000 31007KT P6SM
                       SCT050=
201705051425 KSEA 051425Z 0514/0618 20013KT P6SM VCSH FEW008 SCT015 SCT110
                      TEMPO 0514/0517 -SHRA FEW008 BKN015 OVC110
                       FM051700 21014KT P6SM -SHRA BKN015 OVC030
                       FM052200 21014KT P6SM SCT035 BKN060 FM060900
                       17008KT P6SM BKN015 OVC030=
201705051310 KSEA 051310Z 0513/0618 20014KT P6SM BKN015 BKN030
                      TEMPO 0513/0515 BKN008 BKN015 OVC030 FM051700
                       21014KT P6SM -SHRA BKN015 OVC030 FM052200
                       21014KT P6SM SCT035 BKN060 FM060900 17008KT
                       P6SM BKN015 OVC030=
201705051220 KSEA 051220Z 0512/0618 21014KT P6SM BKN015 BKN030
                      TEMPO 0512/0515 BKN008 BKN015 OVC030 FM051800
                       21014KT P6SM -SHRA BKN015 OVC030 FM052200
                       21014KT P6SM SCT035 BKN060 FM060900 17008KT
                       P6SM BKN015 OVC030=
201705051120 TAF KSEA 051120Z 0512/0618 21014KT P6SM SCT010 BKN035 BKN080 FM051800
                       21014KT P6SM -SHRA BKN015 OVC030 FM052200
                       21014KT P6SM SCT035 BKN060 FM060900 17008KT
                       P6SM BKN015 OVC030=
201705050927 KSEA 050927Z 0509/0612 21010KT P6SM VCTS OVC004CB FM051200 19012KT
                       5SM BR OVC003 FM051800 21014KT P6SM -SHRA
                       BKN015 OVC030 FM052200 21014KT P6SM SCT035
                       BKN060 FM060900 17008KT P6SM BKN015 OVC030=
201705050905 KSEA 050905Z 0509/0612 20010KT 1/4SM FG VCTS VV001CB FM051200 19012KT
                       1/4SM FG VV001 FM051800 21042KT 4SM -SHRA
                       BR BKN015 OVC030 FM052200 21014KT P6SM SCT035
                       BKN060 FM060900 17008KT P6SM BKN015 OVC030=
201705050900 KSEA 050900Z 0509/0612 22010KT 1/4SM FG VV001 FM051800 21012KT
                       4SM -SHRA BR BKN015 OVC030 FM052200 21014KT
                       P6SM SCT035 BKN060 FM060900 17008KT P6SM
                       BKN015 OVC030=
201705050715 KSEA 050715Z 0507/0612 20005KT 1/4SM FG VV001 FM051800 21012KT
                       4SM -SHRA BR BKN015 OVC030 FM052200 21014KT
                       P6SM SCT035 BKN060 FM060900 17008KT P6SM
                       BKN015 OVC030=
201705050532 KSEA 050532Z 0506/0612 00000KT 1SM BR BKN002 BKN090 FM050800 20008KT
                       4SM BR BKN007 OVC012 FM051800 21014KT P6SM
                       -SHRA BKN015 OVC030 FM052200 21014KT P6SM
                       SCT035 BKN060 FM060900 17008KT P6SM BKN015
                       OVC030=
201705050522 TAF KSEA 050522Z 0506/0612 03006KT P6SM -SHRA FEW005 SCT040 BKN080
                       FM051000 20008KT P6SM OVC012 FM051800 21014KT
                       P6SM -SHRA BKN015 OVC030 FM052200 21014KT
                       P6SM SCT035 BKN060 FM060900 17008KT P6SM
                       BKN015 OVC030=
201705050347 KSEA 050347Z 0504/0606 01005KT P6SM -SHRA SCT040 BKN090 BKN110
                       TEMPO 0504/0506 -TSRA BKN040CB OVC090 FM050600
                       22005KT P6SM -SHRA BKN060 OVC100 FM051000
                       20008KT P6SM OVC012=
201705050302 KSEA 050302Z 0503/0606 01005KT P6SM SCT040 BKN090 BKN110
                      TEMPO 0503/0505 -SHRA BKN040 OVC090 FM050500
                       22005KT P6SM -SHRA BKN060 OVC100 FM051000
                       20008KT P6SM OVC012=
201705042321 TAF KSEA 042321Z 0500/0606 27008KT P6SM -SHRA VCTS SCT040CB BKN110
                       TEMPO 0500/0504 TSRA BKN040CB FM050400 22005KT
                       P6SM -SHRA BKN060 OVC100 FM051000 20008KT
                       P6SM OVC012=
201705042211 KSEA 042211Z 0422/0524 27005KT P6SM -SHRA VCTS SCT040CB SCT130
                       TEMPO 0422/0502 TSRA BKN040CB FM050400 22005KT
                       P6SM -SHRA BKN060 OVC100 FM051000 20008KT
                       P6SM OVC012=
201705042109 KSEA 042109Z 0421/0524 31006KT P6SM FEW040 SCT080 BKN250 FM042200
                       27005KT P6SM -SHRA VCTS BKN050CB OVC080
                       FM050400 22005KT P6SM -SHRA BKN060 OVC100
                       FM051000 20008KT P6SM OVC012=
201705041722 TAF KSEA 041722Z 0418/0524 33004KT P6SM SCT140
                      TEMPO 0418/0419 SCT005 FM042200 26006KT P6SM
                       VCSH BKN060 BKN120 FM042300 27005KT P6SM
                       -SHRA VCTS BKN050CB OVC080 FM050400 22005KT
                       P6SM -SHRA BKN060 OVC100 FM051000 20008KT
                       P6SM OVC012=
201705041507 KSEA 041507Z 0415/0518 01005KT 1/4SM FG VV001 FM041700 03005KT
                       P6SM BKN005 BKN120 FM041800 34006KT P6SM
                       SCT100 SCT200 FM042300 27005KT P6SM VCTS
                       BKN050CB OVC080 FM050300 22005KT P6SM -SHRA
                       BKN060 OVC100 FM050900 20008KT P6SM OVC020=
201705041120 TAF KSEA 041120Z 0412/0518 01005KT 1/4SM FG VV001 FM041600 03005KT
                       P6SM BKN005 BKN120 FM041800 34006KT P6SM
                       SCT100 SCT200 FM042100 27005KT P6SM -SHRA
                       BKN080 BKN120
                      PROB30 0421/0503 -TSRA BKN050CB OVC080 FM050300
                       22005KT P6SM -SHRA BKN060 OVC100 FM050900
                       20008KT P6SM OVC020=
201705040911 KSEA 040911Z 0409/0512 34005KT 1/4SM FG VV001 FM041600 03005KT
                       P6SM SCT005 BKN120 FM042100 27005KT P6SM
                       -SHRA BKN080 BKN120
                      PROB30 0421/0503 -TSRA BKN050CB OVC080 FM050300
                       22005KT P6SM -SHRA BKN060 OVC100 FM050900
                       20008KT P6SM BKN025 OVC050=
201705040700 KSEA 040700Z 0407/0512 35004KT 3SM BR BKN002 FM040800 35004KT 1/4SM
                       FG VV001 FM041600 03005KT P6SM SCT005 BKN120
                       FM042100 27005KT P6SM -SHRA BKN080 BKN120
                       PROB30 0421/0503 -TSRA BKN050CB OVC080 FM050300
                       22005KT P6SM -SHRA BKN060 OVC100 FM050900
                       20008KT P6SM BKN025 OVC050=
201705040646 KSEA 040646Z 0407/0512 35004KT P6SM SCT002 SCT200
                      TEMPO 0407/0411 2SM BR BKN002 BKN200 FM041600
                       03005KT P6SM BKN120 FM042100 27005KT P6SM
                       -SHRA BKN080 BKN120
                      PROB30 0421/0503 -TSRA BKN050CB OVC080 FM050300
                       22005KT P6SM -SHRA BKN060 OVC100 FM050900
                       20008KT P6SM BKN025 OVC050=
201705040520 TAF KSEA 040520Z 0406/0512 01006KT P6SM FEW200 FM041600 03005KT
                       P6SM BKN120 FM042100 27005KT P6SM -SHRA
                       BKN080 BKN120
                      PROB30 0421/0503 -TSRA BKN050CB OVC080 FM050300
                       22005KT P6SM -SHRA BKN060 OVC100 FM050900
                       20008KT P6SM BKN025 OVC050=
201705040301 KSEA 040301Z 0403/0506 35006KT P6SM FEW050 SCT200 FM041500 03005KT
                       P6SM SCT140 FM042000 24003KT P6SM BKN140
                       BKN200 FM050000 22005KT P6SM SCT070 OVC140=
201705032327 TAF KSEA 032327Z 0400/0506 20005KT P6SM FEW060 SCT120 SCT200 FM040300
                       02004KT P6SM FEW120 FM041500 03005KT P6SM
                       SCT140 FM042000 24003KT P6SM BKN140 BKN200
                       FM050000 22005KT P6SM SCT070 OVC140=
201705032006 KSEA 032006Z 0320/0424 22006KT P6SM FEW009 SCT015 BKN050 FM032100
                       23005KT P6SM SCT050 SCT070 FM040000 20004KT
                       P6SM FEW070 FM040300 02004KT P6SM SKC=
201705031728 TAF KSEA 031728Z 0318/0424 14006KT P6SM BKN008 OVC015
                      TEMPO 0318/0319 3SM BR BKN005 FM031900 20007KT
                       P6SM BKN020 BKN050 FM032100 23005KT P6SM
                       SCT050 SCT070 FM040000 20004KT P6SM FEW070
                       FM040300 02004KT P6SM SKC=
201705031503 KSEA 031503Z 0315/0418 18006KT P6SM BKN008 OVC015
                      TEMPO 0315/0318 1SM -DZ BR OVC003 FM031800
                       18007KT P6SM BKN020 FM032000 23005KT P6SM
                       SCT050 SCT070 FM040000 01005KT P6SM FEW070=
201705031351 KSEA 031351Z 0314/0418 18006KT P6SM BKN008 OVC015
                      TEMPO 0314/0315 1SM -DZ BR OVC002 FM031700
                       18007KT P6SM BKN025 FM032000 23005KT P6SM
                       SCT050 SCT070 FM040000 01005KT P6SM FEW070=
201705031303 KSEA 031303Z 0313/0418 18006KT P6SM BKN008 OVC015
                      TEMPO 0313/0315 2SM -DZ BR OVC004 FM031700
                       18007KT P6SM BKN025 FM032000 23005KT P6SM
                       SCT050 SCT070 FM040000 01005KT P6SM FEW070=
201705031120 TAF KSEA 031120Z 0312/0418 16008KT 4SM -RA BR BKN009 BKN013 OVC019
                       FM031400 18006KT P6SM BKN008 OVC015 FM031700
                       18007KT P6SM BKN025 FM032000 23005KT P6SM
                       SCT050 SCT070 FM040000 01005KT P6SM FEW070=
201705030905 KSEA 030905Z 0309/0412 15007KT P6SM -RA OVC025 FM031200 17006KT
                       5SM -RA BR BKN007 OVC015 FM031700 18007KT
                       P6SM BKN025 FM032000 23005KT P6SM SCT050
                       SCT070 FM040000 01005KT P6SM FEW070=
201705030521 TAF KSEA 030521Z 0306/0412 11004KT P6SM -RA SCT030 BKN040 OVC070
                       FM030800 16005KT P6SM -RA BKN025 OVC040
                       FM031200 17006KT 5SM -RA BR BKN007 OVC015
                       FM031700 18007KT P6SM BKN025 FM032000 23005KT
                       P6SM SCT050 SCT070 FM040000 01005KT P6SM
                       FEW070=
201705030300 KSEA 030300Z 0303/0406 00000KT P6SM -RA BKN050 OVC070 FM030600
                       21006KT P6SM -RA BKN025 OVC040 FM030900
                       17006KT 3SM -RA BR BKN007 OVC015 FM031500
                       18007KT P6SM BKN025 FM032000 23005KT P6SM
                       SCT050 SCT070=
201705022321 TAF KSEA 022321Z 0300/0406 23006KT P6SM -RA SCT025 BKN050 OVC120
                       FM030400 21006KT P6SM -RA BKN025 OVC040
                       FM030900 17006KT 3SM -RA BR BKN007 OVC015
                       FM031500 18007KT P6SM BKN025 FM032000 23005KT
                       P6SM SCT050 SCT070=
201705022101 KSEA 022101Z 0221/0324 23006KT P6SM SCT025 BKN050 OVC140 FM030000
                       18008KT P6SM -RA BKN025 OVC035 FM030900
                       17006KT 3SM -RA BR BKN007 OVC015 FM031500
                       18007KT P6SM BKN025=
201705021720 TAF KSEA 021720Z 0218/0324 13004KT P6SM BKN025 OVC050
                      TEMPO 0218/0219 BKN020 FM021900 18006KT P6SM
                       SCT025 BKN050 FM030100 18008KT P6SM -RA
                       BKN025 OVC035 FM030900 17006KT 3SM -RA BR
                       BKN007 OVC015 FM031500 18007KT P6SM BKN025=
201705021532 KSEA 021532Z 0216/0318 13004KT P6SM BKN025 OVC050 FM021900 18006KT
                       P6SM SCT025 BKN050 FM030100 18008KT P6SM
                       -RA BKN025 OVC035 FM030900 17006KT 3SM -RA
                       BR BKN007 OVC015=
201705021120 TAF KSEA 021120Z 0212/0318 12005KT P6SM FEW025 SCT060
                      TEMPO 0212/0215 BKN025 OVC060 FM021500 13004KT
                       P6SM BKN025 OVC050 FM021900 18006KT P6SM
                       SCT025 BKN050 FM030100 18008KT P6SM -RA
                       BKN025 OVC035 FM030900 17006KT 3SM -RA BR
                       BKN007 OVC015=
201705020903 KSEA 020903Z 0209/0312 16004KT P6SM FEW030 BKN060 FM021400 13004KT
                       P6SM BKN025 OVC050 FM021800 18006KT P6SM
                       SCT025 BKN050 FM030100 18008KT P6SM -RA
                       BKN025 OVC035=
201705020525 TAF KSEA 020525Z 0206/0312 10005KT P6SM SCT015 OVC030 FM021800
                       18006KT P6SM SCT025 BKN040 FM030100 18008KT
                       P6SM -RA BKN025 OVC035=
201705020300 KSEA 020300Z 0203/0306 18004KT P6SM SCT015 OVC025 FM021800 18006KT
                       P6SM SCT025 BKN035=
201705012323 TAF KSEA 012323Z 0200/0306 16006KT P6SM SCT025 OVC035 FM020300
                       12004KT P6SM SCT020 OVC030 FM021200 15004KT
                       P6SM SCT012 OVC020 FM021800 18006KT P6SM
                       SCT025 BKN035=
201705012101 KSEA 012101Z 0121/0224 21005KT P6SM VCSH FEW015 BKN035 OVC040 FM012300
                       19006KT P6SM SCT030 BKN040 FM020300 VRB04KT
                       P6SM OVC030=
201705011720 TAF KSEA 011720Z 0118/0224 18006KT P6SM -RA FEW025 SCT030 OVC050
                       FM012100 21008KT P6SM VCSH SCT025 BKN035
                       BKN050 FM012300 19006KT P6SM SCT030 BKN040
                       FM020300 VRB04KT P6SM OVC030=
201705011504 KSEA 011504Z 0115/0218 18005KT P6SM SCT020 OVC030 FM011600 18006KT
                       P6SM -RA SCT022 OVC035 FM012100 21008KT
                       P6SM VCSH SCT025 BKN035 BKN050 FM012300
                       19006KT P6SM SCT030 BKN040 FM020300 VRB04KT
                       P6SM OVC030=
201705011120 TAF KSEA 011120Z 0112/0218 15006KT P6SM BKN018 OVC035 FM011600
                       18006KT P6SM -RA BKN022 OVC035 FM012100
                       21008KT P6SM VCSH SCT025 BKN035 BKN050 FM012300
                       19006KT P6SM SCT030 BKN040 FM020300 VRB04KT
                       P6SM OVC030=
201705010907 KSEA 010907Z 0109/0212 16005KT P6SM BKN025 OVC050 FM011600 18006KT
                       P6SM -RA BKN020 OVC030 FM012000 21008KT
                       P6SM VCSH SCT025 BKN035 BKN050 FM012200
                       19006KT P6SM SCT030 BKN040 FM020300 VRB04KT
                       P6SM OVC030=
201705010624 KSEA 010624Z 0106/0212 17006KT P6SM BKN025 OVC040 FM010900 16005KT
                       P6SM BKN022 BKN120 FM011500 18006KT P6SM
                       -RA BKN020 OVC030 FM011900 20008KT P6SM
                       SCT025 BKN035 BKN050 FM020000 17005KT P6SM
                       SCT030 BKN040 FM020600 VRB04KT P6SM OVC030=
201705010520 TAF KSEA 010520Z 0106/0212 16006KT P6SM BKN030 OVC040 FM010900
                       15005KT P6SM BKN022 BKN120 FM011500 16006KT
                       P6SM -RA BKN020 OVC030 FM011900 20007KT
                       P6SM SCT025 BKN035 BKN050 FM020000 17005KT
                       P6SM SCT030 BKN040 FM020600 VRB04KT P6SM
                       OVC030=
201705010314 KSEA 010314Z 0103/0206 12008KT P6SM VCSH SCT030 BKN040 OVC060
                      TEMPO 0103/0105 -SHRA OVC030 FM010500 15006KT
                       P6SM SCT020 BKN030 FM010900 18004KT P6SM
                       SCT018 OVC120 FM011500 17005KT P6SM -RA
                       SCT012 BKN020 OVC035 FM012000 21005KT P6SM
                       SCT025 BKN035 OVC050 FM020000 VRB03KT P6SM
                       SCT035 BKN045 OVC070=