##########################################################
# Query made at 02/17/2025 20:05:01 UTC
# Time interval: from 04/01/2017 00:00  to 04/30/2017 23:59  UTC
##########################################################

##########################################################
# KSEA, Seattle, Seattle-Tacoma International Airport (United States)
# WMO index: 72793. WIGOS ID: 0-20000-0-72793
# Latitude 47-27-00N. Longitude 122-17-59W. Altitude 130 m.
##########################################################

###################################
#  METAR/SPECI from KSEA
###################################
201704302353 METAR KSEA 302353Z 22009KT 10SM FEW028 SCT041 BKN060 13/06 A3030 RMK AO2 SLP269 SHRA W T01330056 10133 20100 51002=
201704302253 METAR KSEA 302253Z VRB04KT 10SM FEW028 BKN046 OVC055 12/05 A3030 RMK AO2 SLP269 T01220050=
201704302153 METAR KSEA 302153Z 24004KT 10SM FEW028 SCT041 OVC070 12/05 A3031 RMK AO2 SLP271 T01170050=
201704302053 METAR KSEA 302053Z 23009KT 10SM SCT028 BKN041 OVC050 12/04 A3030 RMK AO2 SLP266 T01220044 51008=
201704301953 METAR KSEA 301953Z 00000KT 10SM BKN021 BKN040 12/06 A3029 RMK AO2 SLP264 T01170056=
201704301853 METAR KSEA 301853Z 05005KT 10SM FEW010 BKN019 OVC037 11/06 A3029 RMK AO2 SLP266 T01060056=
201704301753 METAR KSEA 301753Z 24004KT 10SM BKN019 OVC034 10/06 A3027 RMK AO2 SLP259 T01000056 10100 20083 53022=
201704301653 METAR KSEA 301653Z 20005KT 9SM OVC018 09/05 A3025 RMK AO2 SLP250 T00890050=
201704301553 METAR KSEA 301553Z 21008KT 10SM FEW010 BKN018 OVC025 09/06 A3023 RMK AO2 SLP243 T00890056=
201704301453 METAR KSEA 301453Z 21012KT 10SM OVC014 08/07 A3021 RMK AO2 SLP237 T00830067 53014=
201704301353 METAR KSEA 301353Z 22009KT 10SM FEW004 BKN012 OVC020 08/06 A3019 RMK AO2 SLP232 T00830061=
201704301335 SPECI KSEA 301335Z 23010KT 10SM FEW004 BKN012 OVC017 08/06 A3019 RMK AO2 T00830061=
201704301253 METAR KSEA 301253Z 23009KT 10SM FEW004 BKN015 OVC020 08/07 A3018 RMK AO2 SLP226 T00830067=
201704301214 SPECI KSEA 301214Z 24008KT 10SM FEW011 BKN015 BKN022 08/07 A3017 RMK AO2 T00830067=
201704301153 METAR KSEA 301153Z 25010KT 10SM FEW004 BKN014 OVC020 09/07 A3017 RMK AO2 SLP222 60001 70014 T00890072 10100 20089 51020=
201704301126 SPECI KSEA 301126Z 24006KT 10SM FEW004 BKN012 OVC020 09/07 A3017 RMK AO2 T00890072=
201704301053 METAR KSEA 301053Z 21007KT 10SM FEW003 BKN008 OVC015 09/08 A3015 RMK AO2 SLP217 T00890083=
201704300953 METAR KSEA 300953Z 20011KT 10SM FEW004 BKN006 OVC012 09/09 A3012 RMK AO2 SLP207 T00940089=
201704300853 METAR KSEA 300853Z 21013KT 10SM FEW004 BKN007 OVC013 10/09 A3011 RMK AO2 SLP202 60001 T01000089 55002=
201704300753 METAR KSEA 300753Z 20011KT 6SM BR FEW003 BKN005 OVC009 10/09 A3011 RMK AO2 RAE35 SLP202 P0000 T01000094 401390056=
201704300714 SPECI KSEA 300714Z 19012KT 5SM -RA BR BKN005 OVC011 09/09 A3011 RMK AO2 P0000 T00940094=
201704300653 METAR KSEA 300653Z 18009KT 3SM -RA BR BKN004 OVC010 09/09 A3010 RMK AO2 RAE00B38 SLP200 P0001 T00940089=
201704300643 SPECI KSEA 300643Z 18010KT 3SM -RA BR BKN004 OVC008 09/09 A3010 RMK AO2 RAE00B38 P0000 T00940089=
201704300553 METAR KSEA 300553Z 18007KT 6SM -RA BR BKN005 OVC009 09/08 A3011 RMK AO2 SLP205 P0002 60013 T00890083 10139 20083 56008=
201704300453 METAR KSEA 300453Z 19006KT 4SM -RA BR BKN005 OVC009 08/08 A3012 RMK AO2 SLP208 P0004 T00830083=
201704300408 SPECI KSEA 300408Z 16007KT 10SM -RA BKN009 OVC016 08/07 A3012 RMK AO2 P0000 T00830072=
201704300353 METAR KSEA 300353Z 16005KT 10SM -RA SCT010 BKN013 OVC018 08/07 A3012 RMK AO2 SLP207 P0006 T00830072=
201704300314 SPECI KSEA 300314Z 24003KT 5SM -RA BR BKN011 OVC030 08/07 A3013 RMK AO2 P0003 T00830072=
201704300253 METAR KSEA 300253Z 27007KT 10SM -RA BKN009 OVC031 09/07 A3014 RMK AO2 RAE07B28 SLP213 P0000 60001 T00890072 53001=
201704300247 SPECI KSEA 300247Z 26008KT 10SM BKN009 BKN031 OVC040 09/07 A3014 RMK AO2 RAE07B28E43 P0000=
201704300240 SPECI KSEA 300240Z 27007KT 10SM -RA FEW009 BKN032 OVC043 09/07 A3013 RMK AO2 RAE07B28 P0000 T00890072=
201704300153 METAR KSEA 300153Z 25007KT 10SM -RA BKN041 OVC049 10/07 A3013 RMK AO2 RAB0058E32B51 SLP209 P0001 T01000072=
201704300053 METAR KSEA 300053Z 22007KT 10SM BKN055 OVC070 13/06 A3013 RMK AO2 SLP212 T01330056=
201704292353 METAR KSEA 292353Z 21008G15KT 10SM FEW020 BKN065 OVC080 14/05 A3015 RMK AO2 SLP217 T01390050 10139 20100 58012=
201704292253 METAR KSEA 292253Z 22004KT 10SM FEW020 BKN075 OVC095 13/06 A3017 RMK AO2 SLP224 T01330056=
201704292153 METAR KSEA 292153Z 23004KT 10SM FEW020 OVC075 13/06 A3018 RMK AO2 SLP227 T01280056=
201704292053 METAR KSEA 292053Z 18005KT 10SM OVC090 12/06 A3018 RMK AO2 SLP229 T01220061 58023=
201704291953 METAR KSEA 291953Z 19003KT 10SM OVC090 11/05 A3021 RMK AO2 SLP239 T01060050=
201704291853 METAR KSEA 291853Z 19005KT 10SM BKN100 OVC200 11/05 A3024 RMK AO2 SLP248 T01060050=
201704291753 METAR KSEA 291753Z 16007KT 10SM OVC100 10/04 A3025 RMK AO2 SLP252 T01000044 10100 20056 58010=
201704291653 METAR KSEA 291653Z 15004KT 10SM OVC100 09/05 A3028 RMK AO2 SLP262 T00890050=
201704291553 METAR KSEA 291553Z 19007KT 10SM BKN130 08/05 A3030 RMK AO2 SLP269 T00830050=
201704291453 METAR KSEA 291453Z 15004KT 10SM BKN120 07/04 A3029 RMK AO2 SLP263 T00720044 56004=
201704291353 METAR KSEA 291353Z 16005KT 10SM BKN130 06/04 A3029 RMK AO2 SLP263 T00610039=
201704291253 METAR KSEA 291253Z 14004KT 10SM FEW055 SCT140 06/03 A3029 RMK AO2 SLP263 T00610033=
201704291153 METAR KSEA 291153Z 15004KT 10SM FEW055 06/04 A3030 RMK AO2 SLP267 T00610039 10106 20061 58005=
201704291053 METAR KSEA 291053Z 13008KT 10SM SCT055 07/04 A3030 RMK AO2 SLP268 T00720044=
201704290953 METAR KSEA 290953Z 13006KT 10SM BKN060 08/06 A3031 RMK AO2 SLP272 T00830056=
201704290853 METAR KSEA 290853Z 00000KT 10SM BKN060 09/06 A3031 RMK AO2 SLP272 T00890056 55001=
201704290753 METAR KSEA 290753Z 12006KT 10SM BKN065 09/05 A3031 RMK AO2 SLP269 T00940050 401500061=
201704290653 METAR KSEA 290653Z 07005KT 10SM BKN065 11/04 A3032 RMK AO2 SLP273 T01060044=
201704290553 METAR KSEA 290553Z 00000KT 10SM SCT055 10/05 A3032 RMK AO2 SLP274 T01000050 10150 20100 55000=
201704290453 METAR KSEA 290453Z 03007KT 10SM FEW050 SCT070 12/02 A3031 RMK AO2 SLP272 T01220022=
201704290353 METAR KSEA 290353Z 36004KT 10SM BKN070 13/03 A3031 RMK AO2 SLP273 T01280028=
201704290253 METAR KSEA 290253Z 28004KT 10SM BKN065 BKN200 13/02 A3032 RMK AO2 SLP274 T01330022 56003=
201704290153 METAR KSEA 290153Z 28005KT 10SM FEW035 SCT060 BKN200 14/02 A3032 RMK AO2 SLP273 T01440022=
201704290053 METAR KSEA 290053Z 27006KT 10SM SCT045 SCT060 BKN200 15/03 A3032 RMK AO2 SLP276 T01500028=
201704282353 METAR KSEA 282353Z 26008KT 10SM SCT050 SCT080 BKN200 15/03 A3033 RMK AO2 SLP277 T01500028 10150 20100 58010=
201704282253 METAR KSEA 282253Z 26007KT 10SM CLR 14/03 A3034 RMK AO2 SLP281 T01440033=
201704282153 METAR KSEA 282153Z VRB03KT 10SM SCT040 SCT055 BKN230 14/04 A3035 RMK AO2 SLP286 T01390044=
201704282053 METAR KSEA 282053Z VRB06KT 10SM SCT040 SCT050 BKN230 13/04 A3036 RMK AO2 SLP288 T01330039 58002=
201704281953 METAR KSEA 281953Z VRB03KT 10SM BKN036 BKN050 BKN250 12/03 A3036 RMK AO2 SLP290 T01220033=
201704281853 METAR KSEA 281853Z VRB03KT 10SM FEW028 SCT036 SCT250 11/04 A3036 RMK AO2 SLP288 T01110039=
201704281753 METAR KSEA 281753Z 24006KT 10SM FEW020 SCT034 SCT250 10/04 A3036 RMK AO2 SLP289 T01000044 10106 20061 53010=
201704281653 METAR KSEA 281653Z 18004KT 10SM FEW015 BKN042 08/05 A3035 RMK AO2 SLP284 T00830050=
201704281553 METAR KSEA 281553Z 19004KT 10SM FEW008 BKN032 BKN060 07/05 A3035 RMK AO2 SLP284 T00720050=
201704281453 METAR KSEA 281453Z 20003KT 10SM SCT008 BKN030 BKN060 07/05 A3033 RMK AO2 SLP279 T00720050 53019=
201704281442 SPECI KSEA 281442Z 15004KT 10SM FEW008 BKN030 BKN060 07/05 A3033 RMK AO2 T00720050=
201704281353 METAR KSEA 281353Z 16003KT 10SM FEW032 BKN060 07/05 A3031 RMK AO2 SLP272 T00720050=
201704281253 METAR KSEA 281253Z 21004KT 10SM FEW035 BKN060 OVC090 06/05 A3029 RMK AO2 SLP265 T00610050=
201704281153 METAR KSEA 281153Z 21005KT 10SM FEW030 BKN039 OVC049 07/05 A3028 RMK AO2 RAB05E47 SLP260 P0000 60000 70004 T00670050 10094 20067 53014=
201704281132 SPECI KSEA 281132Z VRB03KT 9SM -RA BKN028 OVC037 07/05 A3028 RMK AO2 RAB05 P0000 T00670050=
201704281053 METAR KSEA 281053Z 20003KT 10SM SCT031 BKN045 OVC055 07/05 A3026 RMK AO2 RAB37E52 SLP253 P0000 T00670050=
201704280953 METAR KSEA 280953Z 20007KT 10SM OVC043 07/05 A3024 RMK AO2 SLP248 T00720050=
201704280914 SPECI KSEA 280914Z 19008KT 10SM SCT025 BKN042 OVC050 07/05 A3023 RMK AO2 T00720050=
201704280853 METAR KSEA 280853Z 19007KT 10SM OVC027 07/05 A3023 RMK AO2 SLP246 T00720050 51017=
201704280753 METAR KSEA 280753Z 19005KT 10SM OVC025 08/05 A3022 RMK AO2 SLP241 T00830050 401330067=
201704280653 METAR KSEA 280653Z 16006KT 10SM OVC025 08/06 A3020 RMK AO2 SLP234 T00780056=
201704280605 SPECI KSEA 280605Z 04003KT 10SM BKN025 OVC033 09/04 A3019 RMK AO2 T00940039=
201704280553 METAR KSEA 280553Z 05006KT 10SM BKN030 OVC037 09/04 A3018 RMK AO2 SLP228 T00940039 10133 20094 51021=
201704280453 METAR KSEA 280453Z 03011KT 10SM FEW025 BKN040 OVC065 09/04 A3016 RMK AO2 SLP222 T00940044=
201704280443 SPECI KSEA 280443Z 03011KT 10SM SCT025 BKN034 BKN042 09/04 A3016 RMK AO2 T00940044=
201704280418 SPECI KSEA 280418Z 05007KT 10SM BKN025 BKN030 OVC055 10/04 A3015 RMK AO2 T01000044=
201704280353 METAR KSEA 280353Z 04010KT 10SM FEW025 BKN060 OVC100 10/04 A3014 RMK AO2 SLP215 T01000039=
201704280253 METAR KSEA 280253Z 05007KT 10SM FEW035 BKN049 11/04 A3012 RMK AO2 SLP206 T01060039 53012=
201704280153 METAR KSEA 280153Z VRB06KT 10SM FEW030 OVC038 11/04 A3011 RMK AO2 SLP202 T01060039=
201704280053 METAR KSEA 280053Z 26007KT 10SM SCT045 BKN070 12/04 A3008 RMK AO2 SLP195 VIRGA SW T01170039=
201704272353 METAR KSEA 272353Z 00000KT 10SM FEW020 SCT045 BKN070 BKN200 12/03 A3008 RMK AO2 SLP194 60004 T01220033 10133 20089 56000=
201704272253 METAR KSEA 272253Z 25010KT 10SM SCT045 SCT060 BKN090 11/04 A3009 RMK AO2 SLP195 SHRA S T01110039=
201704272153 METAR KSEA 272153Z 21006KT 10SM SCT030 SCT060 BKN100 12/05 A3008 RMK AO2 RAE20 SLP193 SHRA S-W P0004 T01170050=
201704272113 SPECI KSEA 272113Z 16013G20KT 9SM -RA FEW006 BKN048 OVC085 09/05 A3007 RMK AO2 P0004 T00940050=
201704272053 METAR KSEA 272053Z 26010G18KT 7SM -RA SCT032 BKN048 BKN110 09/05 A3008 RMK AO2 RAE14B45 SLP195 P0000 60000 T00940050 53001=
201704271953 METAR KSEA 271953Z 18007KT 10SM -RA FEW030 BKN055 BKN085 12/03 A3007 RMK AO2 RAB49 SLP191 P0000 T01170028=
201704271853 METAR KSEA 271853Z 20013KT 10SM FEW028 SCT035 12/04 A3008 RMK AO2 SLP193 T01220039=
201704271753 METAR KSEA 271753Z 19010KT 10SM FEW023 BKN032 09/04 A3008 RMK AO2 SLP193 T00940039 10106 20067 53002=
201704271708 SPECI KSEA 271708Z 20011KT 10SM FEW020 BKN026 09/04 A3008 RMK AO2 T00940044=
201704271700 SPECI KSEA 271700Z 19008KT 10SM FEW021 SCT027 09/04 A3008 RMK AO2 T00940044=
201704271653 METAR KSEA 271653Z 21009KT 10SM BKN018 09/04 A3008 RMK AO2 SLP192 T00940044=
201704271553 METAR KSEA 271553Z 19012KT 10SM BKN017 BKN090 08/04 A3008 RMK AO2 SLP192 T00830039=
201704271453 METAR KSEA 271453Z 19008KT 10SM BKN015 07/03 A3007 RMK AO2 SLP191 T00670033 53010=
201704271353 METAR KSEA 271353Z 20009KT 10SM BKN015 BKN090 07/03 A3006 RMK AO2 SLP186 T00670033=
201704271253 METAR KSEA 271253Z 19007KT 10SM BKN016 OVC090 07/03 A3005 RMK AO2 SLP184 T00670033=
201704271153 METAR KSEA 271153Z 20008KT 10SM OVC017 07/04 A3004 RMK AO2 SLP181 60000 T00670039 10083 20067 53008=
201704271053 METAR KSEA 271053Z 22009KT 10SM BKN018 07/03 A3003 RMK AO2 SLP176 T00670033=
201704271027 SPECI KSEA 271027Z 21009KT 10SM BKN018 07/03 A3003 RMK AO2 T00670033=
201704270953 METAR KSEA 270953Z 22009KT 10SM SCT016 BKN090 07/03 A3003 RMK AO2 SLP175 T00670033=
201704270853 METAR KSEA 270853Z 21012KT 10SM OVC016 07/04 A3002 RMK AO2 RAB0759E19 SLP173 P0000 60000 T00720039 53011=
201704270753 METAR KSEA 270753Z 23010KT 10SM BKN019 OVC026 07/04 A3001 RMK AO2 SLP169 T00720039 401440072=
201704270653 METAR KSEA 270653Z 21012KT 10SM OVC019 08/04 A2999 RMK AO2 SLP163 T00780039=
201704270553 METAR KSEA 270553Z 21011KT 10SM BKN020 OVC048 08/04 A2999 RMK AO2 SLP162 60000 T00830039 10128 20078 51017=
201704270551 SPECI KSEA 270551Z 22012KT 10SM BKN022 OVC048 08/04 A2999 RMK AO2=
201704270453 METAR KSEA 270453Z 22014KT 10SM SCT045 08/03 A2996 RMK AO2 SLP154 T00830028=
201704270353 METAR KSEA 270353Z 21012KT 10SM SCT040 09/03 A2994 RMK AO2 SLP144 T00890033=
201704270253 METAR KSEA 270253Z 23015G20KT 10SM FEW027 SCT043 BKN110 10/03 A2990 RMK AO2 SLP133 60000 T01000033 51012=
201704270153 METAR KSEA 270153Z 23013KT 10SM FEW026 BKN034 12/04 A2989 RMK AO2 WSHFT 0059 SLP130 T01170039=
201704270119 SPECI KSEA 270119Z 25013G21KT 10SM FEW026 BKN034 13/03 A2989 RMK AO2 WSHFT 0059 T01280033=
201704270053 METAR KSEA 270053Z 29010KT 240V330 10SM FEW019 BKN030 BKN080 12/05 A2989 RMK AO2 RAB03E14 SLP127 P0000 T01170050=
201704262353 METAR KSEA 262353Z 25009KT 10SM FEW027 BKN035 BKN075 12/06 A2987 RMK AO2 RAB04E16 SLP121 P0000 60000 T01220056 10144 20100 53010=
201704262253 METAR KSEA 262253Z 01008KT 10SM FEW027 BKN045 BKN075 13/06 A2986 RMK AO2 RAB39E50 SLP117 P0000 T01280056=
201704262153 METAR KSEA 262153Z 20013KT 10SM FEW036 BKN050 BKN200 13/05 A2984 RMK AO2 SLP111 T01330050=
201704262053 METAR KSEA 262053Z 21016G21KT 10SM SCT034 SCT120 SCT200 14/06 A2984 RMK AO2 PK WND 21026/2004 SLP110 T01390056 53003=
201704261953 METAR KSEA 261953Z 21013G21KT 10SM FEW018 SCT024 SCT120 13/07 A2982 RMK AO2 PK WND 21027/1854 SLP105 T01330067=
201704261907 SPECI KSEA 261907Z 22014G20KT 10SM FEW015 BKN021 BKN120 12/07 A2983 RMK AO2 PK WND 21027/1854 T01220067=
201704261853 METAR KSEA 261853Z 21016G25KT 10SM FEW016 SCT021 SCT120 12/07 A2982 RMK AO2 SLP104 T01220072=
201704261844 SPECI KSEA 261844Z 21015G23KT 10SM FEW017 SCT024 SCT120 12/07 A2982 RMK AO2 T01170072=
201704261753 METAR KSEA 261753Z 20019G25KT 10SM FEW013 BKN018 BKN120 10/07 A2983 RMK AO2 SLP108 T01000067 10106 20089 53010=
201704261708 SPECI KSEA 261708Z 20018KT 10SM FEW011 BKN015 BKN130 10/07 A2981 RMK AO2 T01000072=
201704261653 METAR KSEA 261653Z 20015G23KT 10SM BKN014 BKN130 10/08 A2981 RMK AO2 SLP100 T01000078=
201704261553 METAR KSEA 261553Z 21013G21KT 10SM BKN010 BKN017 OVC130 09/08 A2980 RMK AO2 SLP099 T00940078=
201704261453 METAR KSEA 261453Z 20013KT 10SM BKN009 BKN015 OVC130 09/07 A2980 RMK AO2 SLP097 T00890072 55001=
201704261441 SPECI KSEA 261441Z 20011G20KT 10SM BKN009 OVC015 09/07 A2980 RMK AO2 T00890072=
201704261353 METAR KSEA 261353Z 21012KT 10SM FEW008 BKN013 OVC020 09/08 A2979 RMK AO2 SLP096 T00890078=
201704261300 SPECI KSEA 261300Z 22010KT 10SM BKN012 BKN026 OVC044 09/07 A2979 RMK AO2 T00890072=
201704261253 METAR KSEA 261253Z 22011KT 10SM FEW012 BKN029 OVC060 09/07 A2979 RMK AO2 SLP095 T00890072=
201704261249 SPECI KSEA 261249Z 22010KT 10SM FEW012 BKN029 OVC060 09/07 A2979 RMK AO2=
201704261153 METAR KSEA 261153Z 20013KT 10SM FEW029 BKN040 OVC050 09/07 A2980 RMK AO2 RAB17E27 SLP097 P0000 60002 70005 T00890072 10100 20089 50001=
201704261119 SPECI KSEA 261119Z 22015G23KT 7SM -RA FEW019 BKN037 OVC044 09/07 A2981 RMK AO2 RAB17 P0000 T00890072=
201704261053 METAR KSEA 261053Z 21012G19KT 10SM BKN011 BKN019 09/08 A2981 RMK AO2 SLP101 T00940078=
201704261014 SPECI KSEA 261014Z 21013KT 10SM FEW008 OVC013 10/09 A2981 RMK AO2 T01000089=
201704260953 METAR KSEA 260953Z 21015G22KT 10SM BKN009 OVC013 10/09 A2980 RMK AO2 SLP098 T01000089=
201704260853 METAR KSEA 260853Z 21013G20KT 10SM BKN006 OVC012 10/09 A2980 RMK AO2 SLP096 60002 T01000089 53007=
201704260753 METAR KSEA 260753Z 20012KT 10SM OVC005 10/09 A2978 RMK AO2 RAB0654E49 SLP091 P0001 T01000094 401330083=
201704260706 SPECI KSEA 260706Z 19013KT 4SM -RA BR BKN006 OVC012 10/09 A2978 RMK AO2 RAB0654 P0000 T01000089=
201704260653 METAR KSEA 260653Z 18012KT 4SM BR SCT006 OVC011 09/09 A2978 RMK AO2 RAB0558E45 SLP090 P0001 T00940089=
201704260627 SPECI KSEA 260627Z 17010KT 3SM -RA BR BKN008 OVC018 09/09 A2977 RMK AO2 RAB0558 P0000 T00940089=
201704260553 METAR KSEA 260553Z 17008KT 10SM BKN016 OVC024 10/08 A2977 RMK AO2 RAE38 SLP089 P0001 60002 T01000083 10128 20094 56007=
201704260503 SPECI KSEA 260503Z 17005KT 10SM -RA OVC027 09/08 A2977 RMK AO2 P0000 T00940083=
201704260453 METAR KSEA 260453Z 18005KT 10SM -RA SCT025 OVC032 09/08 A2977 RMK AO2 RAB16E25B48 SLP089 P0000 T00940083=
201704260353 METAR KSEA 260353Z 00000KT 10SM OVC055 10/08 A2978 RMK AO2 RAB09E32 SLP091 P0001 T01000078=
201704260253 METAR KSEA 260253Z 26005KT 10SM FEW048 OVC060 11/07 A2980 RMK AO2 RAE0155B36E48 SLP097 P0000 60000 T01060072 56015=
201704260153 METAR KSEA 260153Z 25006KT 10SM -RA FEW043 OVC055 12/06 A2980 RMK AO2 RAB10E11B46 SLP099 P0000 T01170061=
201704260053 METAR KSEA 260053Z 20005KT 10SM FEW035 BKN070 OVC150 13/06 A2982 RMK AO2 SLP106 T01280056=
201704252353 METAR KSEA 252353Z 17005KT 10SM FEW045 BKN090 BKN200 13/06 A2984 RMK AO2 RAE2258 SLP112 P0000 60000 T01280061 10133 20106 58026=
201704252253 METAR KSEA 252253Z 23005KT 10SM -RA FEW046 OVC060 12/06 A2988 RMK AO2 RAB27 SLP125 P0000 T01170061=
201704252153 METAR KSEA 252153Z 22009KT 10SM BKN045 OVC120 13/05 A2990 RMK AO2 SLP131 T01280050=
201704252053 METAR KSEA 252053Z 21007KT 10SM FEW034 BKN042 OVC140 12/05 A2992 RMK AO2 SLP138 T01220050 58012=
201704251953 METAR KSEA 251953Z 24009KT 10SM FEW030 BKN048 BKN140 OVC250 12/04 A2994 RMK AO2 SLP145 T01170044=
201704251853 METAR KSEA 251853Z 22011KT 10SM FEW025 BKN039 OVC250 11/04 A2996 RMK AO2 SLP151 T01110044=
201704251753 METAR KSEA 251753Z 23008KT 10SM FEW018 BKN044 OVC250 11/06 A2996 RMK AO2 SLP151 60001 T01110056 10111 20083 55012=
201704251653 METAR KSEA 251653Z 18005KT 10SM SCT018 SCT040 BKN250 11/06 A2995 RMK AO2 SLP149 T01060061=
201704251553 METAR KSEA 251553Z 18009KT 10SM SCT026 BKN040 BKN250 10/07 A2996 RMK AO2 RAB23E50 SLP153 P0000 T01000067=
201704251548 SPECI KSEA 251548Z 18010KT 9SM -RA SCT026 BKN040 BKN250 10/07 A2996 RMK AO2 RAB23 P0000=
201704251453 METAR KSEA 251453Z 20008KT 10SM BKN025 BKN038 OVC060 09/07 A2999 RMK AO2 RAE22 SLP162 P0001 60001 T00940067 53013=
201704251441 SPECI KSEA 251441Z 20007KT 10SM BKN025 BKN040 BKN060 09/07 A2999 RMK AO2 RAE22 P0001 T00890067=
201704251353 METAR KSEA 251353Z 19006KT 10SM -RA FEW030 BKN040 BKN060 08/06 A2997 RMK AO2 RAB48 SLP157 P0000 T00830061=
201704251253 METAR KSEA 251253Z 18008KT 10SM SCT031 BKN043 BKN060 08/06 A2995 RMK AO2 SLP149 T00830056=
201704251153 METAR KSEA 251153Z 18010KT 10SM FEW019 BKN043 BKN060 08/06 A2995 RMK AO2 SLP148 70001 T00830061 10100 20083 58000=
201704251138 SPECI KSEA 251138Z 19012KT 10SM FEW021 BKN043 OVC060 08/06 A2995 RMK AO2 T00830061=
201704251053 METAR KSEA 251053Z 20011KT 10SM FEW012 BKN018 OVC025 09/06 A2997 RMK AO2 SLP154 T00890061=
201704250953 METAR KSEA 250953Z 20011KT 10SM FEW010 BKN015 OVC021 09/07 A2997 RMK AO2 SLP155 T00890067=
201704250853 METAR KSEA 250853Z 16007KT 10SM OVC012 09/07 A2995 RMK AO2 SLP149 T00940067 51009=
201704250753 METAR KSEA 250753Z 19006KT 10SM OVC012 09/07 A2995 RMK AO2 SLP148 T00940067 401390072=
201704250653 METAR KSEA 250653Z 21010KT 10SM BKN012 BKN060 09/07 A2993 RMK AO2 SLP142 T00940072=
201704250553 METAR KSEA 250553Z 21008KT 10SM BKN014 OVC060 10/08 A2992 RMK AO2 SLP140 T01000083 10139 20100 51028=
201704250524 SPECI KSEA 250524Z 21007KT 10SM BKN015 BKN060 10/08 A2991 RMK AO2 T01000078=
201704250453 METAR KSEA 250453Z 20007KT 10SM SCT017 BKN055 10/08 A2990 RMK AO2 SLP132 T01000078=
201704250353 METAR KSEA 250353Z 21008KT 10SM BKN050 10/07 A2987 RMK AO2 SLP123 T01000072=
201704250253 METAR KSEA 250253Z 23007KT 10SM FEW046 SCT060 SCT250 11/08 A2984 RMK AO2 SLP111 T01060078 53025=
201704250153 METAR KSEA 250153Z 23007KT 10SM FEW035 SCT080 SCT250 12/07 A2981 RMK AO2 SLP100 T01170072=
201704250053 METAR KSEA 250053Z 36008KT 10SM FEW030 FEW080 SCT240 14/04 A2979 RMK AO2 SLP093 T01390044=
201704242353 METAR KSEA 242353Z 35013KT 10SM FEW030 SCT080 BKN240 13/05 A2976 RMK AO2 SLP086 T01330050 10133 20094 53010=
201704242253 METAR KSEA 242253Z 33008KT 10SM FEW025 SCT070 BKN200 13/06 A2975 RMK AO2 SLP082 T01280056=
201704242153 METAR KSEA 242153Z 33011KT 10SM FEW025 BKN080 BKN200 12/05 A2975 RMK AO2 SLP079 T01220050=
201704242053 METAR KSEA 242053Z 32007KT 10SM FEW025 BKN055 BKN200 11/06 A2973 RMK AO2 SLP075 T01110056 53004=
201704241953 METAR KSEA 241953Z 29009KT 10SM FEW020 BKN075 BKN200 10/06 A2973 RMK AO2 SLP073 T01000056=
201704241853 METAR KSEA 241853Z 33007KT 10SM FEW017 SCT030 BKN070 11/06 A2973 RMK AO2 SLP073 T01060061=
201704241828 SPECI KSEA 241828Z 34008KT 10SM SCT017 BKN030 OVC050 10/06 A2973 RMK AO2 T01000056=
201704241753 METAR KSEA 241753Z 34008KT 10SM FEW010 BKN017 OVC025 09/06 A2972 RMK AO2 SLP072 60001 T00940056 10100 20072 55000=
201704241653 METAR KSEA 241653Z 36008KT 10SM FEW008 BKN019 OVC055 09/06 A2972 RMK AO2 SLP070 T00940061=
201704241648 SPECI KSEA 241648Z 35006KT 10SM FEW008 BKN019 OVC055 09/06 A2972 RMK AO2=
201704241553 METAR KSEA 241553Z 02005KT 10SM FEW008 BKN043 OVC060 09/06 A2972 RMK AO2 RAE28 SLP071 P0000 T00890061=
201704241453 METAR KSEA 241453Z 05005KT 10SM -RA FEW008 OVC055 08/06 A2972 RMK AO2 RAB1359E19B51 SLP072 P0000 60001 T00780061 56008=
201704241417 SPECI KSEA 241417Z 04004KT 10SM -RA SCT008 SCT030 OVC055 07/07 A2973 RMK AO2 RAB1359 P0000 T00720067=
201704241353 METAR KSEA 241353Z 06004KT 10SM FEW015 FEW030 OVC060 07/06 A2973 RMK AO2 RAE00B19E32 SLP074 P0001 T00720061=
201704241253 METAR KSEA 241253Z 12004KT 9SM -RA FEW015 OVC048 07/06 A2974 RMK AO2 SLP077 P0000 T00720061=
201704241153 METAR KSEA 241153Z 16005KT 10SM -RA FEW027 OVC050 07/06 A2975 RMK AO2 SLP080 P0002 60005 70054 T00720061 10083 20072 56012=
201704241053 METAR KSEA 241053Z 17005KT 10SM -RA OVC047 07/06 A2976 RMK AO2 SLP083 P0001 T00720061=
201704240953 METAR KSEA 240953Z 17005KT 10SM -RA FEW028 BKN036 OVC047 07/07 A2977 RMK AO2 SLP086 P0001 T00720067=
201704240940 SPECI KSEA 240940Z 17005KT 10SM -RA SCT026 BKN032 OVC050 07/07 A2977 RMK AO2 P0000 T00720067=
201704240921 SPECI KSEA 240921Z 16005KT 10SM -RA BKN024 OVC032 07/07 A2977 RMK AO2 P0000 T00720067=
201704240853 METAR KSEA 240853Z 19006KT 10SM -RA FEW023 SCT030 OVC042 08/07 A2978 RMK AO2 RAB22 SLP092 P0001 60001 T00780067 58012=
201704240832 SPECI KSEA 240832Z 18006KT 10SM -RA FEW025 SCT030 OVC042 08/07 A2979 RMK AO2 RAB22 P0000 T00780067=
201704240753 METAR KSEA 240753Z 17008KT 10SM FEW014 BKN029 OVC047 08/07 A2979 RMK AO2 SLP096 T00780067 401170072=
201704240742 SPECI KSEA 240742Z 17007KT 10SM SCT014 BKN025 OVC039 08/07 A2980 RMK AO2 T00780067=
201704240653 METAR KSEA 240653Z 17006KT 10SM SCT027 BKN037 OVC055 08/07 A2981 RMK AO2 RAB34E47 SLP100 P0000 T00830072=
201704240553 METAR KSEA 240553Z 16006KT 10SM FEW011 BKN037 OVC050 08/07 A2982 RMK AO2 RAE01 SLP104 P0000 60031 T00830072 10100 20078 58004=
201704240503 SPECI KSEA 240503Z 18006KT 10SM FEW011 BKN034 OVC050 08/07 A2982 RMK AO2 RAE01 P0000 T00780067=
201704240453 METAR KSEA 240453Z 20007KT 3SM -RA BR FEW007 BKN012 OVC028 08/07 A2983 RMK AO2 RAB06 SLP107 P0013 T00780067=
201704240439 SPECI KSEA 240439Z 25006KT 4SM RA BR SCT008 BKN011 OVC028 08/08 A2983 RMK AO2 RAB06 P0005 T00830078=
201704240412 SPECI KSEA 240412Z 17007KT 10SM -RA SCT007 BKN021 OVC028 09/07 A2982 RMK AO2 RAB06 P0000 T00890072=
201704240353 METAR KSEA 240353Z 16008KT 10SM SCT007 BKN013 OVC055 09/08 A2982 RMK AO2 RAE50 SLP106 P0001 T00890078=
201704240344 SPECI KSEA 240344Z 18007KT 10SM -RA FEW007 BKN014 OVC049 09/08 A2982 RMK AO2 P0001 T00890078=
201704240253 METAR KSEA 240253Z 17007KT 10SM -RA FEW012 BKN035 OVC045 09/08 A2983 RMK AO2 RAB03 SLP108 P0001 60017 T00890078 58005=
201704240153 METAR KSEA 240153Z 19007KT 10SM FEW012 BKN050 OVC070 09/08 A2983 RMK AO2 RAE25 SLP109 P0003 T00890078=
201704240100 SPECI KSEA 240100Z 19007KT 5SM -RA BR FEW008 SCT019 OVC037 09/08 A2984 RMK AO2 P0002 T00940078=
201704240053 METAR KSEA 240053Z 21009KT 8SM -RA BKN010 BKN033 OVC042 09/08 A2984 RMK AO2 SLP113 P0013 T00940078=
201704240028 SPECI KSEA 240028Z VRB06KT 3SM RA BR SCT007 BKN012 OVC035 10/09 A2984 RMK AO2 P0003 T01000089=
201704240000 SPECI KSEA 240000Z 21007KT 10SM -RA FEW009 BKN025 OVC037 10/09 A2984 RMK AO2 P0000 T01000089=
201704232353 METAR KSEA 232353Z 20009KT 10SM -RA SCT010 BKN013 OVC021 10/09 A2984 RMK AO2 SLP113 P0007 60018 T01000089 10117 20100 56005=
201704232335 SPECI KSEA 232335Z 19010KT 10SM -RA BKN013 OVC021 10/08 A2984 RMK AO2 P0006 T01000083=
201704232314 SPECI KSEA 232314Z 18010KT 8SM -RA FEW013 BKN019 OVC044 10/08 A2984 RMK AO2 P0003 T01000078=
201704232253 METAR KSEA 232253Z 16012KT 7SM -RA FEW035 OVC044 10/08 A2985 RMK AO2 SLP114 P0004 T01000078=
201704232153 METAR KSEA 232153Z 16013KT 9SM -RA BKN050 OVC060 11/08 A2985 RMK AO2 SLP115 P0003 T01060083=
201704232053 METAR KSEA 232053Z 16011KT 10SM -RA BKN040 OVC050 11/08 A2986 RMK AO2 SLP118 P0001 60004 T01110078 58012=
201704231953 METAR KSEA 231953Z 16009KT 10SM -RA FEW040 BKN049 OVC060 12/07 A2987 RMK AO2 RAE07B33 SLP121 P0000 T01170067=
201704231853 METAR KSEA 231853Z 14006KT 7SM -RA SCT018 BKN042 OVC055 11/08 A2989 RMK AO2 SLP128 P0003 T01060078=
201704231753 METAR KSEA 231753Z 16005KT 10SM -RA BKN034 OVC042 11/06 A2989 RMK AO2 RAB19 SLP130 P0000 60000 T01110061 10111 20078 55003=
201704231653 METAR KSEA 231653Z 15006KT 10SM BKN034 BKN042 BKN095 OVC200 11/07 A2989 RMK AO2 SLP128 T01110067=
201704231553 METAR KSEA 231553Z 12006KT 10SM SCT038 BKN050 OVC200 11/07 A2990 RMK AO2 SLP131 T01060067=
201704231453 METAR KSEA 231453Z 15004KT 10SM SCT030 BKN050 OVC190 09/07 A2990 RMK AO2 SLP133 T00940067 56008=
201704231353 METAR KSEA 231353Z 16005KT 10SM BKN050 OVC180 08/07 A2991 RMK AO2 SLP135 T00830067=
201704231253 METAR KSEA 231253Z 15005KT 10SM SCT050 BKN180 08/07 A2992 RMK AO2 SLP136 T00830067=
201704231153 METAR KSEA 231153Z 13003KT 10SM FEW050 08/07 A2993 RMK AO2 SLP141 70007 T00780067 10100 20072 58012=
201704231053 METAR KSEA 231053Z 00000KT 10SM FEW050 08/07 A2995 RMK AO2 SLP147 T00780067=
201704230953 METAR KSEA 230953Z 19003KT 10SM SCT050 08/07 A2995 RMK AO2 SLP151 T00830067=
201704230853 METAR KSEA 230853Z 00000KT 10SM SCT050 09/07 A2996 RMK AO2 SLP153 T00940067 58002=
201704230753 METAR KSEA 230753Z 20007KT 10SM FEW030 SCT045 BKN060 09/07 A2996 RMK AO2 SLP154 T00940072 401720089=
201704230653 METAR KSEA 230653Z 17007KT 10SM FEW035 FEW050 09/07 A2997 RMK AO2 SLP156 T00890072=
201704230553 METAR KSEA 230553Z 17007KT 10SM FEW035 SCT050 SCT070 09/08 A2997 RMK AO2 SLP155 60000 T00940078 10150 20094 50007=
201704230453 METAR KSEA 230453Z 23005KT 10SM FEW021 SCT030 BKN055 11/09 A2998 RMK AO2 SLP157 T01060089=
201704230353 METAR KSEA 230353Z 19007KT 10SM FEW017 BKN050 BKN100 11/09 A2996 RMK AO2 RAE45 SLP152 P0000 T01060094=
201704230253 METAR KSEA 230253Z 18008KT 10SM -RA FEW034 BKN046 BKN070 12/09 A2995 RMK AO2 RAB38 SLP147 P0000 60000 T01170089 53011=
201704230153 METAR KSEA 230153Z 20007KT 10SM FEW020 BKN039 BKN060 BKN180 13/09 A2994 RMK AO2 SLP143 T01330094=
201704230053 METAR KSEA 230053Z 23012G20KT 10SM SCT029 SCT048 BKN070 BKN200 14/08 A2992 RMK AO2 SLP138 T01440083=
201704222353 METAR KSEA 222353Z 21014G23KT 10SM FEW028 SCT050 BKN070 BKN200 14/09 A2992 RMK AO2 RAB20E39 SLP136 P0000 60007 T01440094 10144 20106 51020=
201704222253 METAR KSEA 222253Z 22016G26KT 10SM SCT032 BKN042 BKN120 14/09 A2990 RMK AO2 PK WND 23026/2246 RAE05B32E44 SLP130 P0000 T01390094=
201704222153 METAR KSEA 222153Z 23005KT 10SM -RA BKN044 BKN055 OVC070 13/09 A2988 RMK AO2 SLP124 P0003 T01280094=
201704222053 METAR KSEA 222053Z 12007KT 10SM -RA SCT035 BKN060 OVC100 13/09 A2986 RMK AO2 RAB37 SLP115 P0000 60004 T01330089 50003=
201704221953 METAR KSEA 221953Z 13005KT 10SM FEW030 BKN060 12/08 A2986 RMK AO2 RAE43 SLP118 P0003 T01170083=
201704221853 METAR KSEA 221853Z 22008KT 7SM -RA FEW050 OVC070 11/07 A2988 RMK AO2 SLP123 P0001 T01060072=
201704221753 METAR KSEA 221753Z 23013G19KT 10SM -RA OVC065 13/04 A2985 RMK AO2 RAB52 SLP112 P0000 60000 T01280044 10172 20128 53038=
201704221653 METAR KSEA 221653Z 20007KT 10SM OVC100 14/04 A2979 RMK AO2 SLP092 T01390039=
201704221553 METAR KSEA 221553Z 14008KT 10SM OVC120 17/01 A2976 RMK AO2 PK WND 12030/1510 SLP083 T01670006=
201704221453 METAR KSEA 221453Z 11008KT 10SM FEW150 OVC210 17/00 A2973 RMK AO2 SLP072 T01670000 56029=
201704221353 METAR KSEA 221353Z 11007KT 10SM BKN210 16/00 A2976 RMK AO2 SLP081 T01610000=
201704221253 METAR KSEA 221253Z 11010KT 10SM SCT150 16/M01 A2979 RMK AO2 SLP093 T01561006=
201704221153 METAR KSEA 221153Z 12007KT 10SM BKN170 15/01 A2982 RMK AO2 SLP103 T01500011 10167 20150 56035=
201704221053 METAR KSEA 221053Z 11010KT 10SM BKN160 OVC200 16/01 A2986 RMK AO2 SLP115 T01610011=
201704220953 METAR KSEA 220953Z 11008KT 10SM SCT210 16/01 A2989 RMK AO2 SLP125 T01610006=
201704220853 METAR KSEA 220853Z 10008KT 10SM BKN220 16/M01 A2993 RMK AO2 SLP139 T01611006 58031=
201704220753 METAR KSEA 220753Z 11010KT 10SM BKN220 16/00 A2997 RMK AO2 SLP153 T01560000 401890061=
201704220653 METAR KSEA 220653Z 13013KT 10SM BKN220 16/00 A2999 RMK AO2 SLP160 T01610000=
201704220553 METAR KSEA 220553Z 11011G20KT 10SM BKN170 17/01 A3002 RMK AO2 SLP170 T01670011 10189 20167 58020=
201704220453 METAR KSEA 220453Z 11012KT 10SM BKN200 17/01 A3004 RMK AO2 SLP179 T01720011=
201704220353 METAR KSEA 220353Z 10013KT 10SM BKN200 18/01 A3006 RMK AO2 SLP185 T01780011=
201704220253 METAR KSEA 220253Z 06008KT 10SM BKN200 18/02 A3008 RMK AO2 SLP191 T01830022 56024=
201704220153 METAR KSEA 220153Z 35007KT 10SM BKN220 17/07 A3009 RMK AO2 SLP196 T01720072=
201704220053 METAR KSEA 220053Z 34011KT 10SM SCT250 19/06 A3011 RMK AO2 SLP203 T01890061=
201704212353 METAR KSEA 212353Z 35011KT 10SM FEW030 SCT250 19/07 A3015 RMK AO2 SLP216 T01890067 10189 20128 56037=
201704212253 METAR KSEA 212253Z 31010KT 10SM FEW030 SCT250 18/07 A3018 RMK AO2 SLP226 T01780067=
201704212153 METAR KSEA 212153Z 31009KT 10SM FEW030 FEW250 17/06 A3022 RMK AO2 SLP241 T01670061=
201704212053 METAR KSEA 212053Z 32009KT 10SM FEW030 FEW250 16/07 A3026 RMK AO2 SLP254 T01610072 56031=
201704211953 METAR KSEA 211953Z 33007KT 10SM FEW030 15/06 A3029 RMK AO2 SLP264 T01500061=
201704211853 METAR KSEA 211853Z 02008KT 10SM FEW025 FEW250 14/05 A3032 RMK AO2 SLP274 T01390050=
201704211753 METAR KSEA 211753Z 04008KT 10SM FEW020 FEW250 13/04 A3035 RMK AO2 SLP285 T01330044 10133 20061 56018=
201704211653 METAR KSEA 211653Z 00000KT 10SM FEW017 FEW250 12/05 A3037 RMK AO2 SLP293 T01170050=
201704211553 METAR KSEA 211553Z 35004KT 10SM FEW012 FEW250 11/06 A3039 RMK AO2 SLP297 T01060056=
201704211453 METAR KSEA 211453Z 00000KT 10SM FEW012 FEW250 09/06 A3041 RMK AO2 SLP304 T00940061 55000=
201704211353 METAR KSEA 211353Z 00000KT 10SM FEW012 08/06 A3041 RMK AO2 SLP304 T00780056=
201704211253 METAR KSEA 211253Z 17003KT 10SM FEW012 07/06 A3040 RMK AO2 SLP303 T00670056=
201704211153 METAR KSEA 211153Z 14004KT 10SM CLR 06/05 A3041 RMK AO2 SLP304 70001 T00610050 10089 20061 56005=
201704211053 METAR KSEA 211053Z 13005KT 10SM CLR 07/04 A3041 RMK AO2 SLP306 T00720044=
201704210953 METAR KSEA 210953Z 17003KT 10SM SCT050 08/05 A3042 RMK AO2 SLP308 T00830050=
201704210853 METAR KSEA 210853Z 18007KT 10SM BKN050 08/06 A3042 RMK AO2 SLP309 T00830056 51009=
201704210753 METAR KSEA 210753Z 18006KT 10SM SCT050 08/06 A3042 RMK AO2 SLP310 T00830061 401440067=
201704210653 METAR KSEA 210653Z 19008KT 10SM BKN048 08/06 A3042 RMK AO2 SLP307 T00830056=
201704210553 METAR KSEA 210553Z 20008KT 10SM FEW050 09/06 A3040 RMK AO2 SLP301 T00890056 10133 20089 51025=
201704210453 METAR KSEA 210453Z 21009KT 10SM FEW030 SCT080 09/06 A3038 RMK AO2 SLP295 T00940056=
201704210353 METAR KSEA 210353Z 21012KT 10SM FEW030 BKN080 11/06 A3035 RMK AO2 SLP285 T01060061=
201704210253 METAR KSEA 210253Z 21011KT 10SM SCT027 BKN065 BKN100 11/07 A3032 RMK AO2 SLP276 T01110072 53011=
201704210153 METAR KSEA 210153Z 20007KT 10SM FEW032 SCT060 BKN090 12/07 A3031 RMK AO2 SLP270 T01170067=
201704210053 METAR KSEA 210053Z 21014G21KT 10SM SCT031 BKN047 12/07 A3030 RMK AO2 SLP267 T01170072=
201704202353 METAR KSEA 202353Z 20010KT 10SM SCT050 SCT085 BKN150 12/07 A3029 RMK AO2 SLP264 TCU DSNT E 60001 T01220067 10144 20094 53016=
201704202253 METAR KSEA 202253Z 25012KT 10SM FEW040TCU SCT050 SCT150 13/08 A3027 RMK AO2 RAE10 SLP257 TCU NW-N P0000 T01330078=
201704202153 METAR KSEA 202153Z 24009KT 9SM -RA FEW037TCU BKN050 11/07 A3026 RMK AO2 RAB51 SLP254 TCU NW-N P0001 T01110067=
201704202053 METAR KSEA 202053Z 21010KT 10SM FEW030TCU SCT047 BKN080 14/07 A3024 RMK AO2 SLP247 TCU NW 60000 T01390072 51007=
201704201956 SPECI KSEA 201956Z 21009G17KT 10SM SCT030 BKN080 12/07 A3024 RMK AO2 TCU NW T01220067=
201704201953 METAR KSEA 201953Z 20010KT 10SM FEW080 12/07 A3024 RMK AO2 SLP246 T01220067=
201704201853 METAR KSEA 201853Z 21007KT 10SM FEW013 SCT032 BKN080 BKN250 12/08 A3023 RMK AO2 RAE04 SLP245 P0000 T01220083=
201704201804 SPECI KSEA 201804Z 23008KT 10SM FEW010 SCT017 BKN045 10/08 A3022 RMK AO2 RAE04 P0000 T01000078 $=
201704201753 METAR KSEA 201753Z 24007KT 10SM -RA SCT012 BKN017 BKN032 09/08 A3022 RMK AO2 RAB37 SLP241 P0000 60000 T00940078 10100 20067 53020 $=
201704201739 SPECI KSEA 201739Z 22008KT 10SM -RA FEW008 BKN014 BKN032 09/07 A3022 RMK AO2 RAB37 P0000 T00890072 $=
201704201653 METAR KSEA 201653Z 21010KT 10SM FEW008 BKN017 BKN028 09/07 A3020 RMK AO2 RAB1559E31 SLP235 P0000 T00890072=
201704201646 SPECI KSEA 201646Z 20010KT 10SM FEW008 BKN017 OVC038 09/08 A3020 RMK AO2 RAB1559E31 P0000 T00890078=
201704201621 SPECI KSEA 201621Z 21010KT 10SM -RA SCT014 BKN028 OVC044 09/07 A3019 RMK AO2 RAB1559 P0000 T00890072=
201704201553 METAR KSEA 201553Z 20008KT 10SM FEW010 SCT030 BKN060 BKN180 10/08 A3018 RMK AO2 SLP226 T01000078=
201704201453 METAR KSEA 201453Z 18006KT 10SM FEW010 SCT030 BKN080 BKN200 09/08 A3016 RMK AO2 SLP220 T00890078 52017=
201704201353 METAR KSEA 201353Z 19005KT 10SM SCT027 BKN080 BKN180 07/07 A3015 RMK AO2 SLP216 T00720067=
201704201316 SPECI KSEA 201316Z 16005KT 10SM SCT028 BKN180 07/06 A3013 RMK AO2 T00670061=
201704201253 METAR KSEA 201253Z 17004KT 10SM BKN027 BKN140 07/07 A3012 RMK AO2 SLP208 T00720067=
201704201153 METAR KSEA 201153Z 18004KT 10SM FEW027 BKN180 07/06 A3011 RMK AO2 SLP204 60008 70035 T00670061 10089 20067 53006=
201704201126 SPECI KSEA 201126Z 16005KT 10SM SCT027 BKN180 07/07 A3011 RMK AO2 T00720067=
201704201053 METAR KSEA 201053Z 16006KT 10SM BKN028 07/07 A3010 RMK AO2 SLP199 T00720067=
201704201048 SPECI KSEA 201048Z 16006KT 10SM BKN028 08/07 A3009 RMK AO2=
201704200953 METAR KSEA 200953Z 15005KT 10SM SCT034 BKN055 08/07 A3009 RMK AO2 SLP197 T00780072=
201704200853 METAR KSEA 200853Z 11009KT 10SM BKN033 OVC049 08/07 A3009 RMK AO2 RAE15 SLP198 P0000 60008 T00830067 51005=
201704200753 METAR KSEA 200753Z 14008KT 10SM -RA OVC032 08/08 A3009 RMK AO2 SLP198 P0002 T00830078 401330078=
201704200653 METAR KSEA 200653Z 17007KT 10SM -RA FEW016 SCT026 OVC041 08/08 A3009 RMK AO2 SLP196 P0006 T00830078=
201704200553 METAR KSEA 200553Z 21004KT 6SM RA BR SCT005 OVC037 09/08 A3008 RMK AO2 SLP192 P0009 60019 T00890083 10133 20089 51021=
201704200501 SPECI KSEA 200501Z 22010KT 7SM -RA SCT007 BKN011 OVC037 09/08 A3006 RMK AO2 P0001 T00940078=
201704200453 METAR KSEA 200453Z 22011KT 6SM -RA BR FEW009 SCT013 OVC037 09/08 A3006 RMK AO2 SLP186 P0008 T00940078=
201704200422 SPECI KSEA 200422Z 22009KT 7SM -RA FEW017 OVC041 10/09 A3005 RMK AO2 P0003 T01000089=
201704200353 METAR KSEA 200353Z 18008KT 6SM -RA BR SCT015 BKN021 OVC045 11/09 A3004 RMK AO2 RAB29 SLP177 P0002 T01060089=
201704200253 METAR KSEA 200253Z 13009KT 10SM BKN060 OVC075 13/08 A3001 RMK AO2 RAE32 SLP170 P0000 60000 T01280078 56016=
201704200153 METAR KSEA 200153Z 00000KT 10SM -RA FEW030 SCT070 OVC110 13/07 A3002 RMK AO2 RAB51 SLP173 P0000 T01280072=
201704200053 METAR KSEA 200053Z 14005KT 10SM FEW030 SCT080 OVC140 13/08 A3004 RMK AO2 SLP180 T01330078=
201704192353 METAR KSEA 192353Z 13008KT 10SM FEW045 BKN080 OVC150 13/08 A3006 RMK AO2 SLP187 60008 T01280083 10128 20094 58008=
201704192253 METAR KSEA 192253Z 18005KT 10SM FEW048 BKN060 OVC070 12/09 A3007 RMK AO2 RAE32 SLP191 P0000 T01220094=
201704192153 METAR KSEA 192153Z 15008KT 10SM -RA FEW010 BKN075 OVC100 12/09 A3010 RMK AO2 RAB50 SLP198 P0000 T01170089=
201704192053 METAR KSEA 192053Z 12007KT 10SM FEW008 SCT055 BKN100 OVC250 11/09 A3008 RMK AO2 RAE27 SLP195 P0001 60008 T01060089 50008=
201704192037 SPECI KSEA 192037Z 11006KT 10SM FEW008 BKN050 OVC250 11/09 A3009 RMK AO2 RAE27 P0001 T01060089=
201704191953 METAR KSEA 191953Z 00000KT 10SM -RA FEW015 BKN045 OVC060 10/08 A3009 RMK AO2 SLP196 P0005 T01000078=
201704191853 METAR KSEA 191853Z 25007KT 5SM -RA BR FEW035 OVC050 09/08 A3010 RMK AO2 RAE1754B24 SLP199 P0002 T00940078=
201704191753 METAR KSEA 191753Z 26006KT 10SM -RA BKN055 OVC080 10/07 A3006 RMK AO2 RAE04B29 SLP186 P0000 60000 T01000072 10111 20078 53015=
201704191653 METAR KSEA 191653Z 20009KT 9SM -RA FEW035 BKN055 OVC085 11/06 A3004 RMK AO2 RAB46 SLP179 P0000 T01060056=
201704191553 METAR KSEA 191553Z 11007KT 10SM FEW030 BKN095 OVC200 11/04 A3002 RMK AO2 RAB26E39 SLP171 P0000 T01110044=
201704191453 METAR KSEA 191453Z 11005KT 10SM FEW035 BKN070 OVC095 10/04 A3001 RMK AO2 SLP170 T01000039 58002=
201704191353 METAR KSEA 191353Z 12005KT 10SM FEW035 BKN070 OVC150 09/04 A3002 RMK AO2 SLP173 T00940044=
201704191253 METAR KSEA 191253Z 20005KT 10SM FEW030 FEW080 OVC150 08/05 A3002 RMK AO2 SLP172 T00780050=
201704191153 METAR KSEA 191153Z 16005KT 10SM FEW085 BKN160 08/05 A3002 RMK AO2 SLP172 70043 T00830050 10106 20083 56013=
201704191053 METAR KSEA 191053Z 12007KT 10SM SCT085 BKN160 08/06 A3002 RMK AO2 SLP173 T00830056=
201704190953 METAR KSEA 190953Z 11009KT 10SM BKN160 09/06 A3003 RMK AO2 SLP174 T00890061=
201704190853 METAR KSEA 190853Z 13006KT 10SM SCT200 08/07 A3006 RMK AO2 SLP185 T00830067 58007=
201704190753 METAR KSEA 190753Z 12007KT 10SM BKN180 09/07 A3007 RMK AO2 SLP189 T00940072 401560089=
201704190653 METAR KSEA 190653Z 12006KT 10SM SCT043 10/07 A3008 RMK AO2 SLP191 T01000072=
201704190553 METAR KSEA 190553Z 15006KT 10SM OVC050 11/08 A3008 RMK AO2 SLP193 60017 T01060083 10139 20100 51013=
201704190453 METAR KSEA 190453Z 11008KT 10SM FEW048 SCT200 11/08 A3007 RMK AO2 SLP191 T01060078=
201704190353 METAR KSEA 190353Z 14004KT 10SM SCT037 BKN048 BKN200 11/08 A3006 RMK AO2 SLP186 T01110083=
201704190253 METAR KSEA 190253Z 11007KT 10SM FEW031 BKN049 BKN200 12/08 A3004 RMK AO2 RAE09 SLP181 P0007 60017 T01170083 53008=
201704190153 METAR KSEA 190153Z 21007KT 3SM RA BR FEW024 BKN038 BKN090 11/08 A3004 RMK AO2 RAB30 SLP181 P0010 T01060083=
201704190053 METAR KSEA 190053Z 13007KT 10SM FEW048 SCT060 BKN080 BKN200 13/06 A3002 RMK AO2 RAB01E10 SLP171 P0000 T01330061=
201704182353 METAR KSEA 182353Z 16007KT 10SM FEW040 BKN070 BKN140 13/07 A3002 RMK AO2 RAB2257E25 SLP172 P0005 60009 T01330067 10156 20106 50009=
201704182253 METAR KSEA 182253Z 16007KT 10SM FEW040 SCT070 BKN120 BKN200 13/08 A3002 RMK AO2 RAB2157E32 SLP173 VCSH P0003 T01280078=
201704182153 METAR KSEA 182153Z 23010KT 10SM FEW047 SCT095 BKN120 14/05 A3000 RMK AO2 SLP167 VCSH T01440050=
201704182053 METAR KSEA 182053Z 21007KT 10SM FEW025 SCT035 SCT130 15/06 A2999 RMK AO2 SLP163 VCSH 60001 T01500061 53005=
201704181953 METAR KSEA 181953Z 23009KT 10SM FEW025 SCT035 BKN130 13/06 A2998 RMK AO2 SLP159 VCSH T01280061=
201704181853 METAR KSEA 181853Z 22011KT 10SM FEW020 SCT035 13/09 A2998 RMK AO2 RAE14 SLP158 VCSH P0001 T01330089=
201704181753 METAR KSEA 181753Z 23009KT 4SM RA BR SCT020 BKN035 OVC047 11/09 A2998 RMK AO2 RAB48 SLP158 P0001 60017 T01110089 10117 20094 53015=
201704181653 METAR KSEA 181653Z 14012G19KT 10SM FEW020 SCT045 BKN075 11/09 A2996 RMK AO2 SLP151 T01060089=
201704181553 METAR KSEA 181553Z 15009KT 10SM FEW007 SCT029 BKN044 09/08 A2995 RMK AO2 RAE32 SLP148 P0003 T00940078=
201704181511 SPECI KSEA 181511Z 16011KT 10SM -RA FEW007 SCT029 BKN044 09/08 A2993 RMK AO2 P0002 T00940083=
201704181453 METAR KSEA 181453Z 17007KT 8SM RA FEW007 BKN029 BKN042 09/09 A2993 RMK AO2 RAE00B20 SLP144 P0008 60013 T00940089 53016=
201704181432 SPECI KSEA 181432Z 20007KT 5SM RA BR FEW009 BKN029 OVC038 09/09 A2993 RMK AO2 RAE00B20 P0003 T00940089=
201704181353 METAR KSEA 181353Z 17006KT 10SM -RA SCT030 BKN043 BKN200 09/09 A2991 RMK AO2 RAE1257B51 SLP135 P0000 T00940089=
201704181253 METAR KSEA 181253Z 13007KT 7SM -RA BKN045 OVC060 09/09 A2990 RMK AO2 RAB06 SLP131 P0005 T00940089=
201704181153 METAR KSEA 181153Z 15005KT 10SM FEW040 SCT060 BKN110 09/08 A2989 RMK AO2 SLP127 60006 70012 T00940083 10111 20089 53001=
201704181053 METAR KSEA 181053Z 14005KT 10SM FEW030 SCT070 09/08 A2988 RMK AO2 SLP124 T00890083=
201704181020 SPECI KSEA 181020Z 17003KT 10SM FEW028 SCT070 09/09 A2987 RMK AO2 T00940089=
201704181013 SPECI KSEA 181013Z 15003KT 10SM BKN028 BKN070 09/09 A2987 RMK AO2 T00940089=
201704181004 SPECI KSEA 181004Z 17003KT 10SM SCT028 BKN070 09/09 A2987 RMK AO2 T00940089=
201704180953 METAR KSEA 180953Z 15003KT 10SM BKN028 BKN033 OVC065 10/09 A2987 RMK AO2 SLP122 T01000094=
201704180853 METAR KSEA 180853Z 14005KT 10SM FEW014 SCT028 OVC040 11/09 A2988 RMK AO2 RAB0759E49 SLP125 P0005 60006 T01060094 50001=
201704180821 SPECI KSEA 180821Z 16004KT 6SM RA BR FEW014 BKN026 OVC045 11/10 A2989 RMK AO2 RAB0759 P0003 T01060100=
201704180753 METAR KSEA 180753Z 14008KT 10SM SCT024 BKN046 OVC060 11/09 A2989 RMK AO2 RAB23E41 SLP127 P0001 T01060094 401560100=
201704180653 METAR KSEA 180653Z 18005KT 10SM FEW040 BKN060 OVC100 11/09 A2989 RMK AO2 RAB26E37 SLP126 P0000 T01060089=
201704180553 METAR KSEA 180553Z 21006KT 10SM SCT060 OVC100 11/08 A2988 RMK AO2 SLP125 60004 T01110083 10117 20111 51012=
201704180453 METAR KSEA 180453Z 23007KT 10SM FEW055 FEW065 OVC100 12/09 A2987 RMK AO2 RAB03E23 SLP122 P0000 T01170089=
201704180353 METAR KSEA 180353Z 19006KT 10SM BKN037 OVC050 12/09 A2986 RMK AO2 SLP116 T01170089=
201704180253 METAR KSEA 180253Z 12006KT 10SM OVC045 12/09 A2984 RMK AO2 RAE00 SLP112 P0000 60004 T01170094 58008=
201704180153 METAR KSEA 180153Z 10008KT 10SM -RA OVC050 12/09 A2985 RMK AO2 SLP116 P0001 T01170094=
201704180053 METAR KSEA 180053Z 16005KT 10SM -RA OVC060 11/09 A2987 RMK AO2 SLP119 P0003 T01110094=
201704172353 METAR KSEA 172353Z 23008KT 7SM -RA BKN047 OVC055 11/09 A2987 RMK AO2 SLP121 P0002 60002 T01110089 10156 20111 53008=
201704172253 METAR KSEA 172253Z 23010G18KT 10SM -RA FEW030 OVC060 13/08 A2986 RMK AO2 RAB23 SLP119 P0000 T01280078=
201704172153 METAR KSEA 172153Z 25006KT 10SM FEW030 OVC060 14/06 A2985 RMK AO2 SLP113 T01390056=
201704172053 METAR KSEA 172053Z 24008KT 10SM SCT045 BKN070 BKN095 15/06 A2985 RMK AO2 SLP113 T01500056 57008=
201704171953 METAR KSEA 171953Z 22012G16KT 10SM SCT040 BKN065 BKN200 15/06 A2985 RMK AO2 SLP114 T01500061=
201704171853 METAR KSEA 171853Z 20012KT 10SM BKN040 OVC048 14/06 A2987 RMK AO2 SLP119 T01390061=
201704171753 METAR KSEA 171753Z 20009KT 10SM BKN042 BKN070 13/06 A2987 RMK AO2 SLP120 T01330061 10144 20100 50003=
201704171653 METAR KSEA 171653Z VRB06KT 10SM SCT042 BKN075 13/06 A2987 RMK AO2 SLP121 T01280061=
201704171553 METAR KSEA 171553Z VRB06KT 10SM FEW045 BKN080 BKN100 12/07 A2987 RMK AO2 SLP120 T01170067=
201704171453 METAR KSEA 171453Z 18005KT 10SM SCT045 BKN100 BKN200 10/07 A2986 RMK AO2 SLP118 T01000067 53014=
201704171353 METAR KSEA 171353Z 19008KT 10SM FEW040 BKN090 11/07 A2985 RMK AO2 SLP112 T01060067=
201704171253 METAR KSEA 171253Z 20010KT 10SM SCT060 BKN070 BKN085 11/06 A2983 RMK AO2 SLP107 T01060061=
201704171153 METAR KSEA 171153Z 21010KT 10SM SCT070 OVC090 11/06 A2982 RMK AO2 SLP103 T01060056 10156 20106 53019=
201704171053 METAR KSEA 171053Z 22006KT 10SM OVC090 11/05 A2980 RMK AO2 SLP097 T01060050=
201704170953 METAR KSEA 170953Z 21013KT 10SM SCT070 OVC090 11/06 A2977 RMK AO2 SLP086 T01060056=
201704170853 METAR KSEA 170853Z 18003KT 10SM OVC075 12/06 A2976 RMK AO2 SLP084 T01170061 53006=
201704170753 METAR KSEA 170753Z 22003KT 10SM OVC075 13/05 A2976 RMK AO2 SLP082 T01280050 401890056=
201704170653 METAR KSEA 170653Z 13005KT 10SM FEW060 SCT075 OVC095 14/03 A2975 RMK AO2 SLP078 T01440033=
201704170553 METAR KSEA 170553Z 14010KT 10SM OVC100 16/02 A2974 RMK AO2 SLP077 T01560022 10183 20156 55001=
201704170453 METAR KSEA 170453Z 13008KT 10SM OVC110 16/02 A2974 RMK AO2 SLP077 T01560017=
201704170353 METAR KSEA 170353Z 10009KT 10SM OVC110 16/02 A2974 RMK AO2 SLP076 T01610017=
201704170253 METAR KSEA 170253Z 11010KT 10SM OVC100 17/01 A2975 RMK AO2 SLP079 T01720011 58010=
201704170153 METAR KSEA 170153Z 11010KT 10SM SCT120 OVC200 18/01 A2976 RMK AO2 SLP084 T01780011=
201704170053 METAR KSEA 170053Z 12008KT 10SM FEW120 OVC200 18/01 A2978 RMK AO2 SLP089 T01830006=
201704162353 METAR KSEA 162353Z 08008KT 10SM SCT120 OVC200 18/00 A2978 RMK AO2 SLP090 T01780000 10189 20139 56018=
201704162253 METAR KSEA 162253Z 12009KT 10SM SCT140 OVC220 19/00 A2979 RMK AO2 SLP093 T01890000=
201704162153 METAR KSEA 162153Z 11011KT 10SM OVC150 19/01 A2981 RMK AO2 SLP101 T01890006=
201704162053 METAR KSEA 162053Z 13012KT 10SM OVC200 18/M01 A2983 RMK AO2 SLP108 T01781006 56025=
201704161953 METAR KSEA 161953Z 08014KT 10SM OVC200 18/M01 A2985 RMK AO2 SLP113 T01781011=
201704161853 METAR KSEA 161853Z 01007KT 10SM FEW070 BKN220 15/03 A2988 RMK AO2 SLP123 T01500028=
201704161753 METAR KSEA 161753Z 02008KT 10SM FEW080 BKN220 14/03 A2990 RMK AO2 SLP133 T01390028 10139 20056 58020=
201704161653 METAR KSEA 161653Z 01012KT 10SM FEW100 BKN220 11/02 A2992 RMK AO2 SLP140 T01110022=
201704161553 METAR KSEA 161553Z 02012KT 10SM FEW090 BKN210 09/03 A2995 RMK AO2 SLP149 T00890033=
201704161453 METAR KSEA 161453Z 02015KT 10SM FEW090 BKN210 07/03 A2997 RMK AO2 SLP155 T00670028 56015=
201704161353 METAR KSEA 161353Z 02012KT 10SM FEW080 BKN200 06/02 A2998 RMK AO2 SLP160 T00610017=
201704161253 METAR KSEA 161253Z 01013KT 10SM FEW070 SCT200 06/02 A2999 RMK AO2 SLP163 T00560017=
201704161153 METAR KSEA 161153Z 01012KT 10SM CLR 06/03 A3001 RMK AO2 SLP170 T00610028 10094 20056 58023=
201704161053 METAR KSEA 161053Z 01013KT 10SM CLR 06/03 A3003 RMK AO2 SLP178 T00610028=
201704160953 METAR KSEA 160953Z 01011KT 10SM CLR 07/03 A3006 RMK AO2 SLP188 T00670033=
201704160853 METAR KSEA 160853Z 01011KT 10SM CLR 07/04 A3008 RMK AO2 SLP193 T00720039 58020=
201704160753 METAR KSEA 160753Z 01008KT 10SM CLR 07/04 A3011 RMK AO2 SLP202 T00720039 401390050=
201704160653 METAR KSEA 160653Z 01008KT 10SM CLR 08/03 A3012 RMK AO2 SLP206 T00830033=
201704160553 METAR KSEA 160553Z 02010KT 10SM CLR 09/03 A3014 RMK AO2 SLP213 T00940028 10139 20094 58005=
201704160453 METAR KSEA 160453Z 02011KT 10SM CLR 10/02 A3015 RMK AO2 SLP216 T01000017=
201704160353 METAR KSEA 160353Z 36006KT 10SM FEW200 09/01 A3015 RMK AO2 SLP217 T00940011=
201704160253 METAR KSEA 160253Z 36008KT 10SM FEW200 11/M01 A3015 RMK AO2 SLP218 T01111006 58012=
201704160153 METAR KSEA 160153Z 35008KT 10SM FEW060 FEW200 13/M01 A3017 RMK AO2 SLP223 T01331006=
201704160053 METAR KSEA 160053Z 30007KT 10SM FEW060 FEW200 13/M02 A3018 RMK AO2 SLP227 T01331017=
201704152353 METAR KSEA 152353Z 25008KT 10SM SCT060 SCT200 14/M01 A3019 RMK AO2 SLP230 T01391011 10139 20094 56019=
201704152253 METAR KSEA 152253Z 25008KT 220V280 10SM SCT055 13/M01 A3020 RMK AO2 SLP233 T01331006=
201704152153 METAR KSEA 152153Z 28006KT 10SM SCT050 13/01 A3022 RMK AO2 SLP242 T01330011=
201704152053 METAR KSEA 152053Z 21008KT 10SM SCT045 BKN050 13/02 A3024 RMK AO2 SLP249 T01280017 58014=
201704151953 METAR KSEA 151953Z 18007KT 10SM SCT034 BKN050 12/02 A3026 RMK AO2 SLP254 T01220022=
201704151853 METAR KSEA 151853Z 23007KT 10SM SCT034 BKN050 11/02 A3027 RMK AO2 SLP258 T01060017=
201704151753 METAR KSEA 151753Z 22006KT 10SM FEW027 SCT045 SCT200 09/03 A3028 RMK AO2 SLP263 T00940028 10100 20056 53002=
201704151653 METAR KSEA 151653Z 19009KT 10SM FEW040 SCT130 09/04 A3028 RMK AO2 SLP262 T00890039=
201704151553 METAR KSEA 151553Z 21008KT 10SM FEW040 FEW130 SCT220 08/04 A3028 RMK AO2 SLP261 T00780039=
201704151453 METAR KSEA 151453Z 20006KT 10SM SCT070 BKN220 07/03 A3028 RMK AO2 SLP262 T00670033 53004=
201704151353 METAR KSEA 151353Z 20004KT 10SM SCT065 BKN080 BKN200 06/03 A3027 RMK AO2 SLP260 T00560033=
201704151253 METAR KSEA 151253Z 20008KT 10SM SCT065 BKN080 06/03 A3026 RMK AO2 SLP257 T00560033=
201704151153 METAR KSEA 151153Z 18009KT 10SM SCT080 BKN100 06/03 A3026 RMK AO2 SLP257 70001 T00560028 10061 20050 50000=
201704151053 METAR KSEA 151053Z 19010KT 10SM BKN080 BKN100 06/03 A3027 RMK AO2 SLP258 T00560033=
201704150953 METAR KSEA 150953Z 20011KT 10SM SCT028 BKN070 06/03 A3026 RMK AO2 SLP256 T00610033=
201704150853 METAR KSEA 150853Z 17009KT 10SM SCT030 06/03 A3026 RMK AO2 SLP257 T00560028 51009=
201704150753 METAR KSEA 150753Z 19009KT 10SM SCT031 BKN070 06/03 A3026 RMK AO2 SLP254 T00560033 401110056=
201704150653 METAR KSEA 150653Z 17010KT 10SM FEW026 SCT036 06/03 A3025 RMK AO2 SLP250 T00560033=
201704150553 METAR KSEA 150553Z 16010KT 10SM SCT024 06/03 A3024 RMK AO2 SLP248 60001 T00560033 10100 20056 51013=
201704150453 METAR KSEA 150453Z 17007KT 10SM SCT029 SCT090 06/03 A3023 RMK AO2 SLP245 T00610033=
201704150353 METAR KSEA 150353Z 18012KT 10SM FEW030 SCT090 SCT250 07/04 A3022 RMK AO2 SLP241 T00670039=
201704150253 METAR KSEA 150253Z 18015G18KT 10SM FEW029 SCT075 BKN090 BKN250 07/04 A3020 RMK AO2 RAB03E32 SLP235 P0001 60001 T00720039 53008=
201704150153 METAR KSEA 150153Z 19012KT 10SM FEW012 BKN030 BKN100 08/04 A3019 RMK AO2 SLP231 VCSH T00830044=
201704150053 METAR KSEA 150053Z 19015G21KT 10SM FEW030 SCT075 SCT110 BKN250 10/03 A3018 RMK AO2 SLP227 T01000033=
201704142353 METAR KSEA 142353Z 20014KT 10SM FEW028 SCT050 BKN090 BKN250 09/03 A3018 RMK AO2 SLP227 60000 T00890033 10111 20083 53006=
201704142339 SPECI KSEA 142339Z 20013KT 10SM SCT027 BKN050 BKN090 BKN250 08/04 A3018 RMK AO2 T00830039=
201704142321 SPECI KSEA 142321Z 21013G23KT 10SM BKN027 BKN050 BKN100 BKN250 08/04 A3017 RMK AO2 T00830039=
201704142253 METAR KSEA 142253Z 21011KT 10SM FEW029 SCT055 BKN100 BKN250 10/04 A3017 RMK AO2 SLP223 T01000039=
201704142153 METAR KSEA 142153Z 20012KT 10SM SCT038 SCT100 BKN250 08/04 A3016 RMK AO2 RAB2056E05 SLP221 P0000 T00830039=
201704142053 METAR KSEA 142053Z 21014G20KT 10SM SCT021 BKN037 BKN200 09/04 A3016 RMK AO2 RAE05 SLP221 P0000 60000 T00890044 53007=
201704141953 METAR KSEA 141953Z 20012G22KT 10SM -RA FEW025 BKN042 BKN090 08/04 A3015 RMK AO2 RAB04E23B50 SLP219 P0000 T00830044=
201704141853 METAR KSEA 141853Z 22012KT 10SM FEW025 BKN034 BKN085 11/03 A3014 RMK AO2 SLP213 T01060033=
201704141753 METAR KSEA 141753Z 21011KT 10SM FEW022 SCT034 SCT200 09/04 A3014 RMK AO2 SLP213 T00940044 10094 20061 51016=
201704141733 SPECI KSEA 141733Z 20012KT 10SM SCT022 BKN034 BKN200 08/04 A3014 RMK AO2 T00830044=
201704141653 METAR KSEA 141653Z 20011KT 10SM BKN020 BKN100 BKN200 08/04 A3013 RMK AO2 SLP211 BKN020 V SCT T00830039=
201704141553 METAR KSEA 141553Z 20011KT 10SM SCT015 BKN024 BKN200 07/04 A3011 RMK AO2 SLP205 T00720039=
201704141544 SPECI KSEA 141544Z 20010G18KT 10SM BKN015 BKN025 BKN200 07/04 A3011 RMK AO2 T00720039=
201704141528 SPECI KSEA 141528Z 21010KT 10SM BKN013 BKN027 BKN200 07/04 A3010 RMK AO2 T00720044=
201704141453 METAR KSEA 141453Z 20011KT 10SM FEW012 BKN026 BKN200 07/04 A3009 RMK AO2 SLP198 T00670039 53013=
201704141429 SPECI KSEA 141429Z 20011KT 10SM FEW013 BKN026 BKN200 07/04 A3009 RMK AO2 T00670039=
201704141353 METAR KSEA 141353Z 20009KT 10SM FEW014 BKN030 BKN200 06/04 A3007 RMK AO2 SLP193 T00610039=
201704141347 SPECI KSEA 141347Z 21009KT 10SM FEW014 BKN030 BKN200 06/04 A3007 RMK AO2=
201704141315 SPECI KSEA 141315Z 21009KT 10SM BKN028 BKN040 OVC180 06/04 A3007 RMK AO2 T00610039=
201704141253 METAR KSEA 141253Z 22008KT 10SM SCT025 BKN041 BKN180 06/04 A3007 RMK AO2 SLP189 T00610039=
201704141153 METAR KSEA 141153Z 18009KT 10SM BKN036 06/03 A3005 RMK AO2 SLP185 70006 T00610033 10067 20061 53008=
201704141053 METAR KSEA 141053Z 18009KT 10SM SCT038 BKN048 06/04 A3005 RMK AO2 SLP182 T00610039=
201704140953 METAR KSEA 140953Z 18009KT 10SM BKN033 BKN043 07/04 A3004 RMK AO2 SLP178 T00670039=
201704140853 METAR KSEA 140853Z 20006KT 10SM BKN047 07/04 A3003 RMK AO2 SLP176 T00670039 51014=
201704140753 METAR KSEA 140753Z 17008KT 10SM SCT034 BKN044 07/04 A3002 RMK AO2 SLP173 T00670039 401220061=
201704140653 METAR KSEA 140653Z 15008KT 10SM SCT030 BKN038 BKN047 07/04 A3000 RMK AO2 SLP167 T00670044=
201704140553 METAR KSEA 140553Z 14009KT 10SM BKN030 BKN035 OVC042 07/05 A2999 RMK AO2 SLP162 60002 T00670050 10094 20067 51018=
201704140453 METAR KSEA 140453Z 17008KT 10SM FEW027 SCT070 SCT250 07/04 A2997 RMK AO2 SLP157 T00670039=
201704140353 METAR KSEA 140353Z 16006KT 10SM SCT037 SCT065 BKN250 07/04 A2996 RMK AO2 SLP154 T00720044=
201704140253 METAR KSEA 140253Z 18006KT 10SM FEW030 SCT060 SCT120 BKN250 07/06 A2993 RMK AO2 SLP145 60002 T00720061 51016=
201704140153 METAR KSEA 140153Z 18007KT 10SM FEW029 SCT048 BKN120 BKN250 08/05 A2992 RMK AO2 RAE28 SLP140 P0001 T00830050=
201704140053 METAR KSEA 140053Z 25013G22KT 9SM -RA SCT037 BKN045 OVC150 08/06 A2990 RMK AO2 RAE2356B44 SLP134 P0001 T00830056=
201704132353 METAR KSEA 132353Z 25012KT 6SM -RA FEW021 BKN036 BKN120 BKN250 09/06 A2989 RMK AO2 RAB2254E08B38 SLP128 P0002 60004 T00890056 10122 20083 53024=
201704132253 METAR KSEA 132253Z 22011G19KT 10SM SCT040 SCT120 BKN250 11/05 A2985 RMK AO2 SLP116 VCSH T01110050=
201704132153 METAR KSEA 132153Z 22018G23KT 10SM SCT035 SCT120 BKN250 12/06 A2983 RMK AO2 SLP110 T01170056=
201704132053 METAR KSEA 132053Z 22018G25KT 10SM FEW031 SCT043 BKN120 BKN200 11/06 A2981 RMK AO2 PK WND 22027/2024 RAE00 SLP103 P0000 60002 T01110056 53012=
201704131953 METAR KSEA 131953Z 21011KT 7SM R16L/6000VP6000FT -RA FEW029 BKN036 OVC070 10/07 A2980 RMK AO2 PK WND 21027/1943 RAB25 SLP098 P0002 T01000072=
201704131853 METAR KSEA 131853Z 22014KT 10SM BKN035 BKN075 11/04 A2978 RMK AO2 SLP093 T01110039=
201704131753 METAR KSEA 131753Z 20010KT 10SM SCT032 SCT050 BKN075 11/06 A2978 RMK AO2 SLP091 T01110056 10117 20061 52008=
201704131653 METAR KSEA 131653Z 20007KT 10SM FEW030 BKN060 BKN080 09/06 A2977 RMK AO2 SLP089 T00940056=
201704131553 METAR KSEA 131553Z 17007KT 10SM SCT050 SCT060 08/05 A2976 RMK AO2 SLP086 T00830050=
201704131453 METAR KSEA 131453Z 13006KT 10SM BKN049 BKN060 08/06 A2976 RMK AO2 SLP083 T00780056 53007=
201704131353 METAR KSEA 131353Z 14007KT 10SM BKN049 BKN065 07/06 A2974 RMK AO2 SLP079 T00720056=
201704131253 METAR KSEA 131253Z 14006KT 10SM SCT046 BKN220 07/06 A2974 RMK AO2 SLP077 T00670056=
201704131153 METAR KSEA 131153Z 18005KT 10SM SCT049 BKN190 06/05 A2973 RMK AO2 SLP076 60017 70054 T00610050 10089 20061 53002=
201704131053 METAR KSEA 131053Z 18006KT 10SM FEW041 OVC049 07/06 A2973 RMK AO2 SLP076 T00670056=
201704130953 METAR KSEA 130953Z 18005KT 10SM BKN045 OVC065 07/06 A2972 RMK AO2 RAB0856E16 SLP071 P0001 T00720061=
201704130853 METAR KSEA 130853Z 23009KT 10SM FEW026 BKN049 OVC085 07/06 A2973 RMK AO2 RAE49 SLP072 P0003 60016 T00720061 51009=
201704130758 SPECI KSEA 130758Z 23010KT 7SM RA FEW008 BKN033 OVC042 07/06 A2972 RMK AO2 P0001 T00720061=
201704130753 METAR KSEA 130753Z 24011KT 7SM -RA FEW010 BKN020 OVC033 07/06 A2972 RMK AO2 SLP070 P0008 T00720061 401500072=
201704130749 SPECI KSEA 130749Z 23010KT 7SM RA FEW005 BKN022 OVC033 07/06 A2972 RMK AO2 P0007=
201704130653 METAR KSEA 130653Z 17008KT 10SM -RA FEW006 BKN031 OVC043 09/08 A2970 RMK AO2 SLP064 P0005 T00890078=
201704130622 SPECI KSEA 130622Z 16006KT 10SM -RA FEW008 BKN031 OVC043 09/08 A2970 RMK AO2 P0003 T00890078=
201704130553 METAR KSEA 130553Z 17008KT 8SM -RA BKN006 BKN010 OVC031 09/08 A2971 RMK AO2 SLP067 P0009 60015 T00890078 10150 20089 50003=
201704130545 SPECI KSEA 130545Z 20006KT 6SM -RA BR BKN008 BKN018 OVC046 09/08 A2971 RMK AO2 P0007 T00890083=
201704130453 METAR KSEA 130453Z 16005KT 7SM -RA SCT007 OVC015 09/08 A2972 RMK AO2 SLP070 P0003 T00890083=
201704130450 SPECI KSEA 130450Z 17005KT 8SM -RA FEW007 BKN012 OVC018 09/08 A2972 RMK AO2 P0003=
201704130353 METAR KSEA 130353Z 21005KT 10SM -RA FEW032 OVC046 09/08 A2971 RMK AO2 RAE13B41 SLP069 P0001 T00940078=
201704130253 METAR KSEA 130253Z 24010KT 9SM -RA FEW015 SCT030 OVC035 09/08 A2970 RMK AO2 RAB28 SLP064 P0002 60002 T00940078 53002=
201704130153 METAR KSEA 130153Z 27003KT 10SM FEW055 SCT070 OVC095 13/09 A2967 RMK AO2 RAB28E42 SLP052 P0000 T01330089=
201704130053 METAR KSEA 130053Z 01007KT 10SM FEW040 BKN090 BKN200 14/08 A2967 RMK AO2 SLP055 T01440083=
201704122353 METAR KSEA 122353Z 00000KT 10SM FEW040 SCT070 BKN100 14/07 A2969 RMK AO2 SLP061 60001 T01390067 10144 20100 58013=
201704122253 METAR KSEA 122253Z 26007KT 10SM FEW040 BKN070 BKN120 14/08 A2971 RMK AO2 RAB06E17 SLP067 P0000 T01390083=
201704122153 METAR KSEA 122153Z 25006KT 10SM FEW040 BKN047 BKN060 13/09 A2973 RMK AO2 RAB21E52 SLP074 P0000 T01330089=
201704122053 METAR KSEA 122053Z VRB03KT 10SM FEW030 BKN060 BKN110 14/08 A2973 RMK AO2 SLP074 60001 T01440078 58010=
201704121953 METAR KSEA 121953Z 19005KT 10SM FEW025 BKN055 BKN075 12/09 A2976 RMK AO2 RAE31 SLP082 P0001 T01220089=
201704121853 METAR KSEA 121853Z 26009KT 10SM -RA FEW025 BKN042 OVC085 11/08 A2977 RMK AO2 RAE1758B53 SLP089 P0000 T01110083=
201704121753 METAR KSEA 121753Z 18011KT 10SM -RA FEW025 BKN055 OVC070 12/09 A2976 RMK AO2 RAB13 SLP084 P0000 60021 T01220094 10122 20089 51022=
201704121653 METAR KSEA 121653Z 15011KT 10SM FEW020 BKN040 OVC065 11/09 A2975 RMK AO2 RAE22 SLP079 P0001 T01110089=
201704121553 METAR KSEA 121553Z 18010KT 9SM -RA FEW024 BKN032 OVC041 10/08 A2972 RMK AO2 SLP070 P0004 T01000083=
201704121453 METAR KSEA 121453Z 16010KT 7SM -RA FEW030 BKN037 OVC046 10/08 A2969 RMK AO2 SLP062 P0005 60016 T01000083 53017=
201704121353 METAR KSEA 121353Z 15007KT 7SM RA BKN032 OVC045 09/08 A2965 RMK AO2 SLP047 P0006 T00890078=
201704121253 METAR KSEA 121253Z 07006KT 8SM -RA OVC041 09/07 A2963 RMK AO2 SLP039 P0005 T00890072=
201704121153 METAR KSEA 121153Z 07008KT 6SM -RA BR OVC045 09/08 A2964 RMK AO2 SLP045 P0012 60035 70035 T00890078 10106 20078 56012=
201704121053 METAR KSEA 121053Z 04008KT 5SM RA BR OVC050 08/07 A2964 RMK AO2 SLP044 P0008 T00830072=
201704120953 METAR KSEA 120953Z 03011KT 8SM -RA OVC048 08/07 A2964 RMK AO2 PRESFR SLP044 P0008 T00830072=
201704120853 METAR KSEA 120853Z 31004KT 7SM -RA OVC047 08/07 A2968 RMK AO2 SLP057 P0005 60007 T00780067 56017=
201704120753 METAR KSEA 120753Z 03006KT 10SM -RA OVC045 10/06 A2969 RMK AO2 RAB22 SLP059 P0002 T01000056 401390033=
201704120653 METAR KSEA 120653Z 02010KT 10SM OVC085 10/04 A2970 RMK AO2 SLP062 T01000044=
201704120553 METAR KSEA 120553Z 02011KT 10SM BKN075 OVC090 10/04 A2973 RMK AO2 SLP074 T01000044 10122 20100 58020=
201704120453 METAR KSEA 120453Z 03009KT 10SM OVC080 11/04 A2976 RMK AO2 SLP084 T01060044=
201704120353 METAR KSEA 120353Z 02009KT 10SM OVC085 11/04 A2978 RMK AO2 SLP090 T01110039=
201704120253 METAR KSEA 120253Z 35005KT 10SM OVC095 11/03 A2979 RMK AO2 SLP096 T01060033 58017=
201704120153 METAR KSEA 120153Z 36008KT 10SM BKN090 OVC150 12/03 A2982 RMK AO2 SLP104 T01170033=
201704120053 METAR KSEA 120053Z 36013KT 10SM BKN095 OVC200 12/03 A2983 RMK AO2 SLP110 T01170033=
201704112353 METAR KSEA 112353Z 35014KT 10SM SCT140 OVC250 12/03 A2984 RMK AO2 SLP111 T01220033 10139 20100 56020=
201704112253 METAR KSEA 112253Z 35016KT 10SM SCT140 OVC250 13/03 A2984 RMK AO2 SLP113 T01330033=
201704112153 METAR KSEA 112153Z 34014KT 10SM SCT150 OVC250 13/03 A2987 RMK AO2 SLP120 T01330033=
201704112053 METAR KSEA 112053Z 35013KT 10SM FEW035 SCT160 OVC250 13/03 A2990 RMK AO2 SLP131 T01330033 58031=
201704111953 METAR KSEA 111953Z 36014KT 10SM FEW025 OVC200 12/01 A2993 RMK AO2 SLP142 T01220011=
201704111853 METAR KSEA 111853Z 01013KT 10SM FEW020 BKN250 12/01 A2996 RMK AO2 SLP153 T01170006=
201704111753 METAR KSEA 111753Z 01013KT 10SM FEW015 BKN250 10/01 A2999 RMK AO2 SLP163 T01000006 10100 20033 58024=
201704111653 METAR KSEA 111653Z 01010KT 10SM FEW012 BKN210 08/03 A3002 RMK AO2 SLP173 T00830028=
201704111553 METAR KSEA 111553Z 02010KT 10SM FEW012 SCT250 07/03 A3004 RMK AO2 SLP180 T00720033=
201704111453 METAR KSEA 111453Z 35005KT 10SM FEW250 04/03 A3006 RMK AO2 SLP188 T00440033 58015=
201704111353 METAR KSEA 111353Z 06004KT 10SM SCT250 04/03 A3008 RMK AO2 SLP194 T00390028=
201704111253 METAR KSEA 111253Z 03005KT 10SM FEW250 03/02 A3009 RMK AO2 SLP198 T00330022=
201704111153 METAR KSEA 111153Z 03005KT 10SM CLR 04/02 A3011 RMK AO2 SLP204 70018 T00390022 10061 20033 58021=
201704111053 METAR KSEA 111053Z 06004KT 10SM CLR 04/02 A3013 RMK AO2 SLP212 T00390017=
201704110953 METAR KSEA 110953Z 13004KT 10SM CLR 04/02 A3016 RMK AO2 SLP220 T00440022=
201704110853 METAR KSEA 110853Z 13005KT 10SM FEW060 06/03 A3017 RMK AO2 SLP224 T00560028 50001=
201704110753 METAR KSEA 110753Z 15006KT 10SM FEW060 06/03 A3017 RMK AO2 SLP225 T00560033 401170050=
201704110653 METAR KSEA 110653Z 17005KT 10SM FEW035 FEW060 06/03 A3017 RMK AO2 SLP226 T00560028=
201704110553 METAR KSEA 110553Z 18007KT 10SM FEW035 FEW060 06/04 A3017 RMK AO2 SLP225 60010 T00610039 10100 20061 51009=
201704110453 METAR KSEA 110453Z 18009KT 10SM SCT036 SCT043 BKN120 07/04 A3016 RMK AO2 RAE0354 SLP221 P0000 T00720044=
201704110353 METAR KSEA 110353Z 20007KT 10SM -RA SCT025 BKN047 07/04 A3016 RMK AO2 RAE05B38 SLP220 P0000 T00670044=
201704110345 SPECI KSEA 110345Z 21009KT 10SM -RA FEW022 BKN027 BKN049 07/04 A3015 RMK AO2 RAE05B38 P0000 T00720039=
201704110311 SPECI KSEA 110311Z 21008KT 10SM FEW025 SCT033 BKN045 07/05 A3015 RMK AO2 RAE05 P0000 T00720050=
201704110253 METAR KSEA 110253Z 23011G18KT 4SM -RA BR FEW018 BKN027 BKN042 07/05 A3014 RMK AO2 RAB08 SLP216 P0007 60010 T00720050 53016=
201704110230 SPECI KSEA 110230Z 26009KT 5SM R16L/6000VP6000FT -RA SCT018 BKN027 OVC039 07/04 A3014 RMK AO2 RAB08 P0005 T00720044=
201704110153 METAR KSEA 110153Z 22008KT 10SM FEW029 SCT047 BKN140 08/05 A3012 RMK AO2 RAE36 SLP207 P0003 T00830050=
201704110053 METAR KSEA 110053Z 26013G25KT 3SM R16L/5500VP6000FT RA SCT026 BKN050 BKN120 08/04 A3011 RMK AO2 PK WND 22030/0004 RAB45 SLP206 P0000 T00780044=
201704102353 METAR KSEA 102353Z 22018G25KT 10SM FEW036 SCT055 BKN080 09/04 A3010 RMK AO2 PK WND 22032/2325 RAE12B31E45 SLP199 P0001 60007 T00940044 10117 20072 51018=
201704102253 METAR KSEA 102253Z 22014G25KT 4SM R16L/5000VP6000FT RA FEW025 SCT033 BKN050 08/04 A3008 RMK AO2 RAB46 SLP195 P0002 T00780044=
201704102153 METAR KSEA 102153Z 21013G22KT 10SM FEW027 BKN035 BKN180 10/06 A3007 RMK AO2 PK WND 21035/2116 RAB13E37 SLP189 P0001 T01000061=
201704102053 METAR KSEA 102053Z 20015G23KT 10SM FEW021 SCT033 BKN160 11/04 A3004 RMK AO2 SLP181 VCSH 60003 T01060044 53004=
201704101953 METAR KSEA 101953Z 20014G22KT 10SM FEW030 SCT042 BKN130 11/07 A3004 RMK AO2 PK WND 22027/1916 RAB1858E33 SLP178 P0003 T01060067=
201704101853 METAR KSEA 101853Z 24008KT 10SM FEW030 BKN042 OVC050 10/03 A3003 RMK AO2 RAB16E29 SLP175 VCSH P0000 T01000033=
201704101753 METAR KSEA 101753Z 20006KT 10SM FEW025 BKN044 BKN055 09/03 A3003 RMK AO2 RAB14E43 SLP176 P0001 60001 T00940033 10094 20061 51002=
201704101653 METAR KSEA 101653Z 21007KT 10SM FEW025 BKN049 09/02 A3003 RMK AO2 SLP176 T00940022=
201704101553 METAR KSEA 101553Z 18011KT 10SM FEW020 SCT070 SCT180 09/02 A3003 RMK AO2 SLP176 T00890017=
201704101453 METAR KSEA 101453Z 18007KT 10SM FEW015 SCT049 SCT180 07/03 A3003 RMK AO2 SLP175 T00720033 51011=
201704101353 METAR KSEA 101353Z 18009KT 10SM FEW012 BKN049 BKN060 06/04 A3002 RMK AO2 SLP173 T00610039=
201704101253 METAR KSEA 101253Z 20009KT 10SM SCT040 BKN210 06/04 A3000 RMK AO2 SLP168 T00610044=
201704101153 METAR KSEA 101153Z 19009KT 10SM FEW010 SCT043 BKN050 07/05 A2999 RMK AO2 RAE1058 SLP163 P0000 60020 70020 T00670050 10111 20067 51014=
201704101053 METAR KSEA 101053Z 17008KT 9SM -RA FEW012 SCT027 OVC034 07/06 A2998 RMK AO2 SLP159 P0007 T00670056=
201704101006 SPECI KSEA 101006Z 21004KT 5SM RA BR FEW005 BKN025 OVC032 07/06 A2997 RMK AO2 P0004 T00670056=
201704100953 METAR KSEA 100953Z 22008KT 5SM RA BR FEW005 BKN009 OVC027 07/06 A2997 RMK AO2 SLP155 P0009 T00670056=
201704100941 SPECI KSEA 100941Z 23008KT 8SM -RA SCT008 BKN022 OVC027 07/06 A2996 RMK AO2 P0006 T00670056=
201704100934 SPECI KSEA 100934Z 22009KT 6SM -RA BR FEW010 BKN022 OVC034 07/06 A2996 RMK AO2 P0006 T00670056=
201704100925 SPECI KSEA 100925Z 23008KT 5SM RA BR FEW010 BKN013 OVC027 07/06 A2996 RMK AO2 P0004 T00670056=
201704100900 SPECI KSEA 100900Z 23005KT 8SM -RA FEW011 BKN028 OVC032 07/06 A2995 RMK AO2 P0001 T00720056=
201704100853 METAR KSEA 100853Z 22005KT 7SM -RA FEW024 BKN032 OVC050 07/06 A2995 RMK AO2 RAB05 SLP149 P0004 60004 T00720056 53014=
201704100753 METAR KSEA 100753Z 21006KT 10SM OVC050 09/04 A2992 RMK AO2 RAE18 SLP139 P0000 T00940039 401330039=
201704100653 METAR KSEA 100653Z 9SM -RA FEW017 BKN040 OVC050 10/02 A2991 RMK AO2 RAE11B28 SLP137 P0000 T01000017=
201704100553 METAR KSEA 100553Z 07009KT 10SM -RA BKN050 OVC065 11/01 A2991 RMK AO2 RAB21 SLP136 P0000 60000 T01060011 10133 20106 58005=
201704100500 METAR KSEA NIL=
201704100353 METAR KSEA 100353Z 21007KT 10SM SCT070 OVC090 11/01 A2992 RMK AO2 SLP139 T01110006=
201704100253 METAR KSEA 100253Z 00000KT 10SM FEW025 OVC110 12/01 A2992 RMK AO2 SLP140 T01170006 56013=
201704100153 METAR KSEA 100153Z 00000KT 10SM FEW048 OVC140 12/M01 A2993 RMK AO2 SLP143 T01171006=
201704100053 METAR KSEA 100053Z 27004KT 10SM FEW048 OVC170 12/00 A2994 RMK AO2 SLP146 T01220000=
201704092353 METAR KSEA 092353Z 19003KT 10SM FEW048 SCT150 BKN200 13/M01 A2996 RMK AO2 SLP153 T01281011 10133 20094 56027=
201704092253 METAR KSEA 092253Z 17009KT 10SM FEW048 SCT150 BKN200 13/M01 A2999 RMK AO2 SLP162 T01331006=
201704092153 METAR KSEA 092153Z 26006KT 10SM SCT048 BKN200 12/01 A3001 RMK AO2 SLP171 T01220006=
201704092053 METAR KSEA 092053Z 00000KT 10SM SCT048 BKN200 12/01 A3004 RMK AO2 SLP180 T01170006 58020=
201704091953 METAR KSEA 091953Z 26007KT 10SM FEW040 SCT080 BKN200 11/01 A3007 RMK AO2 SLP189 T01060006=
201704091853 METAR KSEA 091853Z 19005KT 10SM FEW041 FEW070 BKN200 09/01 A3008 RMK AO2 SLP196 T00940006=
201704091753 METAR KSEA 091753Z 14011KT 10SM FEW020 SCT060 BKN190 09/01 A3010 RMK AO2 SLP202 T00940006 10094 20039 56006=
201704091653 METAR KSEA 091653Z VRB04KT 10SM FEW020 SCT070 BKN190 09/01 A3011 RMK AO2 SLP203 T00890011=
201704091553 METAR KSEA 091553Z 16006KT 10SM SCT050 BKN070 08/01 A3011 RMK AO2 SLP206 T00780011=
201704091453 METAR KSEA 091453Z 14008KT 10SM SCT070 06/01 A3012 RMK AO2 SLP208 T00610011 55000=
201704091353 METAR KSEA 091353Z 14005KT 10SM FEW030 SCT050 05/01 A3012 RMK AO2 SLP206 T00500006=
201704091253 METAR KSEA 091253Z 14004KT 10SM BKN060 04/01 A3012 RMK AO2 SLP206 T00440006=
201704091153 METAR KSEA 091153Z 19006KT 10SM FEW038 SCT048 06/01 A3012 RMK AO2 SLP208 70001 T00560011 10061 20044 53003=
201704091053 METAR KSEA 091053Z 19007KT 10SM SCT035 SCT060 06/01 A3012 RMK AO2 SLP207 T00560011=
201704090953 METAR KSEA 090953Z 17008KT 10SM SCT035 SCT055 05/01 A3011 RMK AO2 SLP206 T00500011=
201704090853 METAR KSEA 090853Z 18009KT 10SM FEW030 SCT050 05/02 A3011 RMK AO2 SLP206 T00500022 51013=
201704090753 METAR KSEA 090753Z 19010KT 10SM SCT028 06/02 A3011 RMK AO2 SLP204 T00560017 401110050=
201704090653 METAR KSEA 090653Z 19011KT 10SM FEW030 SCT100 SCT230 06/02 A3009 RMK AO2 SLP199 T00560022=
201704090553 METAR KSEA 090553Z 18011KT 10SM SCT030 BKN100 BKN180 06/02 A3007 RMK AO2 SLP192 60000 T00610022 10100 20061 51017=
201704090453 METAR KSEA 090453Z 18010KT 10SM FEW027 SCT055 SCT090 BKN200 06/03 A3006 RMK AO2 SLP187 T00610028=
201704090353 METAR KSEA 090353Z 20010G17KT 10SM SCT027 BKN035 BKN090 BKN200 07/03 A3005 RMK AO2 SLP183 T00670028=
201704090253 METAR KSEA 090253Z 20010KT 10SM FEW027 SCT038 BKN100 BKN200 07/02 A3002 RMK AO2 SLP175 60000 T00720022 53017=
201704090153 METAR KSEA 090153Z 21011G20KT 10SM FEW027 SCT040 BKN100 BKN200 08/02 A3001 RMK AO2 SLP169 T00830022=
201704090053 METAR KSEA 090053Z 19014G20KT 10SM SCT027 BKN043 BKN110 BKN200 09/03 A2999 RMK AO2 RAB24E44 SLP163 P0000 T00890028=
201704082353 METAR KSEA 082353Z 20011KT 10SM SCT024 BKN048 BKN100 BKN200 09/02 A2997 RMK AO2 RAB29E42 SLP158 P0000 60001 T00890022 10111 20072 51013=
201704082253 METAR KSEA 082253Z 19013KT 10SM SCT032 SCT045 BKN120 BKN200 09/04 A2996 RMK AO2 RAE09 SLP151 P0000 T00940039=
201704082153 METAR KSEA 082153Z 25009KT 10SM -RA FEW023 SCT032 BKN045 OVC200 08/04 A2996 RMK AO2 RAB35 SLP153 P0001 T00780039=
201704082053 METAR KSEA 082053Z 21015G21KT 10SM BKN045 BKN060 OVC200 10/03 A2993 RMK AO2 SLP143 T01000033 51011=
201704081953 METAR KSEA 081953Z 21010G17KT 10SM SCT040 BKN100 OVC200 10/03 A2992 RMK AO2 SLP139 T01000028=
201704081853 METAR KSEA 081853Z 20014KT 10SM FEW025 BKN050 OVC085 08/03 A2992 RMK AO2 SLP139 T00780028=
201704081753 METAR KSEA 081753Z 21013KT 10SM SCT038 BKN055 OVC075 08/03 A2990 RMK AO2 SLP132 T00830028 10083 20061 53024=
201704081653 METAR KSEA 081653Z 21010G18KT 10SM FEW027 SCT036 BKN043 OVC160 08/03 A2988 RMK AO2 SLP124 T00780028=
201704081553 METAR KSEA 081553Z 19016G21KT 10SM FEW035 SCT120 BKN200 07/02 A2985 RMK AO2 SLP116 T00720022=
201704081453 METAR KSEA 081453Z 19010KT 10SM FEW035 SCT120 BKN200 06/02 A2983 RMK AO2 SLP109 T00610022 51023=
201704081353 METAR KSEA 081353Z 20009KT 10SM SCT120 BKN200 06/02 A2981 RMK AO2 SLP100 T00610022=
201704081253 METAR KSEA 081253Z 19008KT 10SM FEW035 SCT120 06/02 A2978 RMK AO2 SLP092 T00610022=
201704081153 METAR KSEA 081153Z 19009KT 10SM FEW040 BKN120 07/02 A2976 RMK AO2 SLP084 60001 70002 T00670022 10089 20067 51013=
201704081053 METAR KSEA 081053Z 19011KT 10SM FEW020 SCT042 BKN080 07/03 A2975 RMK AO2 RAB17E30 SLP081 P0000 T00720028=
201704080953 METAR KSEA 080953Z 19013G21KT 10SM FEW029 BKN042 OVC080 07/03 A2973 RMK AO2 RAE04 SLP075 P0000 T00720033=
201704080853 METAR KSEA 080853Z 21009KT 10SM -RA SCT034 BKN045 OVC055 07/04 A2972 RMK AO2 RAE03B37 SLP071 P0000 60001 T00720044 51025=
201704080753 METAR KSEA 080753Z 21011KT 10SM -RA OVC032 08/04 A2971 RMK AO2 PK WND 19026/0717 RAB0654 SLP065 P0001 T00780039 401500078=
201704080653 METAR KSEA 080653Z 21011KT 10SM OVC035 09/04 A2967 RMK AO2 SLP054 T00890039=
201704080553 METAR KSEA 080553Z 21009KT 10SM OVC033 08/05 A2965 RMK AO2 RAE41 SLP045 P0000 60001 T00830050 10122 20078 51034=
201704080453 METAR KSEA 080453Z 20012KT 10SM -RA OVC033 08/06 A2962 RMK AO2 RAE04B37 SLP038 P0001 T00830056=
201704080353 METAR KSEA 080353Z 20018G27KT 10SM -RA FEW023 BKN036 OVC045 08/05 A2959 RMK AO2 PK WND 21032/0324 RAB46 SLP027 P0000 T00830050=
201704080253 METAR KSEA 080253Z 19017G26KT 10SM BKN043 OVC070 09/04 A2954 RMK AO2 PK WND 18033/0156 RAB07E20 SLP011 P0000 60000 T00940044 51032=
201704080153 METAR KSEA 080153Z 20020G32KT 10SM BKN037 OVC046 10/04 A2952 RMK AO2 PK WND 20037/0131 RAE0055 SLP003 P0000 T01000039=
201704080053 METAR KSEA 080053Z 20023G40KT 10SM -RA BKN040 OVC140 11/04 A2948 RMK AO2 PK WND 19041/0032 RAB41 SLP990 P0000 T01060039=
201704080000 METAR KSEA NIL=
201704072300 METAR KSEA NIL=
201704072153 METAR KSEA 072153Z 17026G34KT 10SM -RA SCT048 OVC060 12/04 A2941 RMK AO2 PK WND 17037/2117 RAB50 SLP965 P0000 T01170044=
201704072053 METAR KSEA 072053Z 19024G31KT 10SM FEW030 BKN075 OVC110 13/03 A2936 RMK AO2 PK WND 20039/1957 RAB14E27 SLP948 P0000 60000 T01280033 53042=
201704071953 METAR KSEA 071953Z 19023G33KT 10SM FEW045 BKN060 OVC090 14/02 A2932 RMK AO2 PK WND 20041/1910 SLP933 T01390022=
201704071853 METAR KSEA 071853Z 20024G35KT 10SM FEW045 BKN060 OVC095 15/02 A2927 RMK AO2 PK WND 22038/1829 SLP918 T01500022=
201704071753 METAR KSEA 071753Z 18019G35KT 10SM FEW045 BKN065 OVC080 15/04 A2923 RMK AO2 PK WND 17037/1716 SLP905 60000 T01500044 10150 20089 53024=
201704071653 METAR KSEA 071653Z 16024G31KT 10SM FEW045 BKN065 BKN095 13/04 A2921 RMK AO2 PK WND 16031/1651 SLP898 T01280044=
201704071553 METAR KSEA 071553Z 13009KT 10SM FEW045 OVC060 12/06 A2918 RMK AO2 RAB44E53 SLP886 P0000 T01220056=
201704071453 METAR KSEA 071453Z 04008KT 10SM FEW060 OVC090 10/08 A2916 RMK AO2 SLP880 T01000083 58011=
201704071353 METAR KSEA 071353Z 17005KT 10SM FEW040 BKN080 BKN110 10/08 A2919 RMK AO2 SLP888 T01000078=
201704071253 METAR KSEA 071253Z 30005KT 10SM FEW060 BKN085 OVC110 09/08 A2919 RMK AO2 SLP890 T00890078=
201704071153 METAR KSEA 071153Z 14003KT 10SM SCT070 BKN150 09/08 A2919 RMK AO2 RAB1059E18 SLP891 P0001 60008 70034 T00890083 10106 20083 50001=
201704071053 METAR KSEA 071053Z 05003KT 10SM OVC055 09/08 A2920 RMK AO2 RAE38 SLP895 P0003 T00890083=
201704070953 METAR KSEA 070953Z 00000KT 9SM -RA OVC065 09/08 A2919 RMK AO2 SLP891 P0003 T00890078=
201704070853 METAR KSEA 070853Z 35008KT 10SM -RA OVC070 09/07 A2919 RMK AO2 SLP891 P0001 60001 T00890072 58048=
201704070753 METAR KSEA 070753Z 35012KT 10SM -RA BKN070 OVC090 09/07 A2925 RMK AO2 RAB49 SLP909 P0000 T00940067 401560083=
201704070653 METAR KSEA 070653Z 02012KT 10SM BKN120 10/07 A2929 RMK AO2 SLP925 T01000067=
201704070553 METAR KSEA 070553Z 02017KT 10SM BKN230 11/07 A2934 RMK AO2 SLP941 T01060072 10156 20106 58071=
201704070453 METAR KSEA 070453Z 02013KT 10SM SCT200 12/08 A2942 RMK AO2 SLP970 T01170078=
201704070353 METAR KSEA 070353Z 03009KT 10SM FEW070 BKN200 12/07 A2949 RMK AO2 SLP992 T01220072=
201704070253 METAR KSEA 070253Z 02010KT 10SM SCT070 BKN220 14/06 A2955 RMK AO2 PRESFR SLP013 T01390056 58038=
201704070153 METAR KSEA 070153Z VRB03KT 10SM FEW035 SCT070 SCT250 14/05 A2961 RMK AO2 SLP031 T01440050=
201704070053 METAR KSEA 070053Z 23004KT 10SM FEW032 SCT065 SCT250 14/05 A2964 RMK AO2 SLP043 T01440050=
201704062353 METAR KSEA 062353Z 23004KT 10SM FEW032 SCT060 SCT250 14/06 A2966 RMK AO2 SLP051 60000 T01440056 10150 20100 58020=
201704062253 METAR KSEA 062253Z 20005KT 10SM FEW030 SCT060 BKN250 14/07 A2969 RMK AO2 SLP061 T01390067=
201704062153 METAR KSEA 062153Z 21011KT 10SM FEW030 SCT055 SCT100 13/07 A2972 RMK AO2 SLP068 T01330067=
201704062053 METAR KSEA 062053Z 22012KT 10SM FEW030 BKN046 BKN090 13/07 A2972 RMK AO2 SLP071 60000 T01280072 55004=
201704061953 METAR KSEA 061953Z 20009G17KT 10SM FEW015 BKN048 BKN090 14/09 A2972 RMK AO2 SLP069 T01390089=
201704061853 METAR KSEA 061853Z 20009KT 10SM FEW009 SCT036 BKN065 11/08 A2973 RMK AO2 RAE1758B18E43 SLP074 P0000 T01110083=
201704061753 METAR KSEA 061753Z 15008KT 9SM -RA FEW040 OVC055 10/08 A2974 RMK AO2 SLP076 P0003 60026 T01000083 10100 20089 56003=
201704061653 METAR KSEA 061653Z 15005KT 8SM -RA BKN042 OVC050 09/08 A2974 RMK AO2 SLP078 P0002 T00940078=
201704061553 METAR KSEA 061553Z 16006KT 9SM -RA BKN043 OVC055 09/08 A2973 RMK AO2 SLP074 P0003 T00940078=
201704061453 METAR KSEA 061453Z 15006KT 6SM -RA BR FEW030 OVC041 09/07 A2974 RMK AO2 SLP079 P0006 60018 T00890072 50001=
201704061353 METAR KSEA 061353Z 17009KT 10SM -RA FEW035 OVC044 09/07 A2975 RMK AO2 SLP080 P0007 T00940067=
201704061253 METAR KSEA 061253Z 21009KT 8SM -RA FEW035 OVC050 09/07 A2974 RMK AO2 SLP079 P0005 T00890072=
201704061153 METAR KSEA 061153Z 23011KT 10SM -RA BKN055 OVC065 09/07 A2974 RMK AO2 RAB41 SLP078 P0000 60000 70040 T00890072 10106 20083 53006=
201704061053 METAR KSEA 061053Z 28004KT 10SM FEW070 OVC090 09/07 A2970 RMK AO2 SLP063 T00890072=
201704060953 METAR KSEA 060953Z 32003KT 10SM BKN090 OVC110 09/07 A2970 RMK AO2 SLP065 T00890072=
201704060853 METAR KSEA 060853Z 04008KT 10SM OVC100 09/07 A2972 RMK AO2 SLP072 T00940067 58044=
201704060753 METAR KSEA 060753Z 02004KT 10SM OVC100 10/07 A2979 RMK AO2 SLP096 T01000067 401220089=
201704060653 METAR KSEA 060653Z 06004KT 10SM FEW095 BKN110 11/06 A2981 RMK AO2 SLP102 T01060061=
201704060553 METAR KSEA 060553Z 08009KT 10SM OVC110 10/07 A2985 RMK AO2 SLP116 60000 T01000072 10122 20094 58009=
201704060510 SPECI KSEA 060510Z 08007KT 10SM SCT017 SCT080 OVC100 10/07 A2988 RMK AO2 PRESFR T01000072=
201704060453 METAR KSEA 060453Z 16004KT 10SM BKN018 OVC100 09/08 A2991 RMK AO2 SLP136 T00940078=
201704060431 SPECI KSEA 060431Z 24007KT 10SM BKN024 BKN080 09/08 A2991 RMK AO2 T00940078=
201704060353 METAR KSEA 060353Z 20009KT 10SM BKN090 OVC100 09/07 A2991 RMK AO2 SLP135 T00940072=
201704060253 METAR KSEA 060253Z 22011KT 10SM FEW060 BKN070 OVC110 11/07 A2988 RMK AO2 RAB01E30 SLP125 P0000 60000 T01060067 56016=
201704060153 METAR KSEA 060153Z 18006KT 10SM FEW060 SCT075 OVC095 11/07 A2988 RMK AO2 RAB26E47 SLP126 P0000 T01110072=
201704060053 METAR KSEA 060053Z 14012KT 10SM SCT036 OVC050 12/08 A2992 RMK AO2 SLP136 T01220078=
201704052353 METAR KSEA 052353Z 18006KT 10SM FEW037 SCT046 OVC080 12/08 A2992 RMK AO2 SLP139 60017 T01170083 10117 20100 56012=
201704052253 METAR KSEA 052253Z 20006KT 10SM SCT060 OVC080 11/09 A2994 RMK AO2 RAE34 SLP145 P0002 T01060089=
201704052153 METAR KSEA 052153Z 14014KT 10SM -RA OVC060 11/09 A2994 RMK AO2 SLP145 P0004 T01060089=
201704052053 METAR KSEA 052053Z 16007KT 7SM -RA FEW015 BKN042 OVC055 11/08 A2996 RMK AO2 SLP153 P0006 60011 T01060083 53002=
201704051953 METAR KSEA 051953Z 16004KT 7SM -RA FEW014 OVC048 10/08 A2995 RMK AO2 RAB1855 SLP149 P0002 T01000083=
201704051853 METAR KSEA 051853Z 17003KT 9SM FEW014 BKN042 OVC075 10/08 A2994 RMK AO2 RAE53 SLP147 P0003 T01000078=
201704051753 METAR KSEA 051753Z 15004KT 7SM -RA FEW035 OVC050 10/08 A2995 RMK AO2 SLP151 P0003 60023 T01000078 10100 20094 51010=
201704051653 METAR KSEA 051653Z 14005KT 9SM -RA FEW035 OVC060 10/08 A2995 RMK AO2 SLP149 P0003 T01000078=
201704051553 METAR KSEA 051553Z 18003KT 10SM -RA FEW030 OVC055 10/07 A2994 RMK AO2 SLP146 P0001 T01000067=
201704051453 METAR KSEA 051453Z 09005KT 8SM -RA OVC050 09/07 A2992 RMK AO2 SLP140 P0006 60016 T00940072 51006=
201704051353 METAR KSEA 051353Z 23007KT 8SM -RA OVC049 09/07 A2992 RMK AO2 SLP136 P0007 T00940067=
201704051253 METAR KSEA 051253Z 13006KT 9SM -RA OVC050 10/08 A2992 RMK AO2 SLP136 P0003 T01000078=
201704051153 METAR KSEA 051153Z 00000KT 10SM -RA OVC045 10/08 A2991 RMK AO2 SLP133 P0001 60008 70018 T01000083 10106 20089 51006=
201704051053 METAR KSEA 051053Z 14005KT 10SM -RA FEW046 SCT060 OVC070 09/08 A2990 RMK AO2 SLP132 P0003 T00940083=
201704050953 METAR KSEA 050953Z 16003KT 10SM -RA SCT049 OVC065 09/08 A2991 RMK AO2 RAB16 SLP134 P0002 T00940083=
201704050853 METAR KSEA 050853Z 22004KT 10SM FEW047 BKN065 OVC075 10/07 A2989 RMK AO2 RAE32 SLP126 P0000 60002 T01000072 56024=
201704050753 METAR KSEA 050753Z 11014KT 10SM -RA SCT048 SCT055 OVC070 10/07 A2990 RMK AO2 RAB01 SLP132 P0001 T01000067 401610061=
201704050653 METAR KSEA 050653Z 12011KT 10SM SCT070 OVC090 09/08 A2992 RMK AO2 RAE51 SLP138 P0001 T00940078=
201704050553 METAR KSEA 050553Z 13005KT 10SM -RA OVC060 09/08 A2996 RMK AO2 SLP151 P0003 60010 T00940083 10144 20089 50008=
201704050453 METAR KSEA 050453Z 24004KT 9SM -RA BKN043 OVC055 09/08 A2996 RMK AO2 SLP154 P0006 T00890083=
201704050353 METAR KSEA 050353Z 21003KT 9SM -RA SCT047 OVC055 10/08 A2995 RMK AO2 SLP148 P0001 T01000083=
201704050253 METAR KSEA 050253Z 21009KT 10SM -RA OVC055 11/07 A2993 RMK AO2 RAE02B21 SLP143 P0000 60000 T01060067 53001=
201704050153 METAR KSEA 050153Z 22010G22KT 10SM -RA OVC060 13/04 A2993 RMK AO2 WSHFT 0134 RAB48 SLP144 P0000 T01330039=
201704050053 METAR KSEA 050053Z 20006KT 10SM OVC070 14/01 A2993 RMK AO2 SLP141 T01440011=
201704042353 METAR KSEA 042353Z 24006KT 10SM OVC075 14/01 A2993 RMK AO2 SLP142 T01440011 10161 20111 56006=
201704042253 METAR KSEA 042253Z 20006KT 10SM BKN075 OVC200 16/M01 A2993 RMK AO2 SLP142 T01561006=
201704042153 METAR KSEA 042153Z 23007KT 10SM BKN085 OVC200 16/01 A2994 RMK AO2 SLP145 T01560006=
201704042053 METAR KSEA 042053Z 28004KT 10SM BKN090 OVC250 15/02 A2995 RMK AO2 SLP148 T01500022 56010=
201704041953 METAR KSEA 041953Z 24003KT 10SM BKN100 OVC250 14/02 A2995 RMK AO2 SLP150 T01440017=
201704041853 METAR KSEA 041853Z 27006KT 10SM SCT095 OVC250 12/04 A2997 RMK AO2 SLP156 T01220044=
201704041753 METAR KSEA 041753Z 29003KT 10SM SCT100 OVC250 11/04 A2998 RMK AO2 SLP159 T01110044 10111 20067 58006=
201704041653 METAR KSEA 041653Z 00000KT 10SM OVC100 09/04 A2999 RMK AO2 SLP162 T00890044=
201704041553 METAR KSEA 041553Z 29003KT 10SM OVC110 07/05 A3000 RMK AO2 SLP166 T00720050=
201704041453 METAR KSEA 041453Z 00000KT 10SM OVC110 07/03 A3000 RMK AO2 SLP165 T00720033 58010=
201704041353 METAR KSEA 041353Z 00000KT 10SM OVC110 07/04 A3001 RMK AO2 SLP169 T00670039=
201704041253 METAR KSEA 041253Z 13003KT 10SM OVC110 07/04 A3002 RMK AO2 SLP172 T00670039=
201704041153 METAR KSEA 041153Z 00000KT 10SM OVC140 07/04 A3003 RMK AO2 SLP175 T00720039 10089 20061 56011=
201704041053 METAR KSEA 041053Z 00000KT 10SM OVC140 07/04 A3004 RMK AO2 SLP179 T00670039=
201704040953 METAR KSEA 040953Z 34005KT 10SM OVC150 06/04 A3004 RMK AO2 SLP179 T00610039=
201704040853 METAR KSEA 040853Z 00000KT 10SM OVC170 07/03 A3006 RMK AO2 SLP186 T00720033 56013=
201704040753 METAR KSEA 040753Z 04005KT 10SM OVC170 08/03 A3007 RMK AO2 SLP189 T00830028 401170044=
201704040653 METAR KSEA 040653Z 03006KT 10SM OVC190 08/02 A3008 RMK AO2 SLP192 T00830022=
201704040553 METAR KSEA 040553Z AUTO 01005KT 10SM OVC200 07/03 A3010 RMK AO2 SLP200 T00720028 10117 20072 58007 TSNO=
201704040453 METAR KSEA 040453Z 03008KT 10SM BKN250 09/02 A3011 RMK AO2 SLP205 T00890022=
201704040353 METAR KSEA 040353Z 35005KT 10SM BKN250 08/02 A3012 RMK AO2 SLP207 T00830017=
201704040253 METAR KSEA 040253Z 36006KT 10SM BKN250 09/01 A3012 RMK AO2 SLP207 T00940006 58012=
201704040153 METAR KSEA 040153Z 31006KT 10SM FEW050 BKN250 10/00 A3014 RMK AO2 SLP213 T01000000=
201704040053 METAR KSEA 040053Z 29007KT 10SM FEW040 SCT250 12/01 A3014 RMK AO2 SLP214 T01170011=
201704032353 METAR KSEA 032353Z 28010KT 10SM FEW040 SCT250 11/02 A3015 RMK AO2 SLP218 T01110017 10117 20072 58025=
201704032253 METAR KSEA 032253Z 29006KT 10SM FEW038 SCT250 12/02 A3018 RMK AO2 SLP228 T01170022=
201704032153 METAR KSEA 032153Z 30007KT 10SM SCT037 SCT250 12/02 A3020 RMK AO2 SLP235 T01170022=
201704032053 METAR KSEA 032053Z 31007KT 10SM FEW025 BKN035 BKN250 10/02 A3023 RMK AO2 SLP244 T01000022 58014=
201704031953 METAR KSEA 031953Z 29008KT 10SM FEW023 BKN037 BKN250 09/03 A3025 RMK AO2 SLP252 T00940028=
201704031853 METAR KSEA 031853Z 29005KT 10SM SCT021 BKN036 09/03 A3027 RMK AO2 SLP258 T00890033=
201704031842 SPECI KSEA 031842Z 31006KT 10SM SCT021 BKN035 08/03 A3027 RMK AO2 T00830028=
201704031753 METAR KSEA 031753Z 00000KT 10SM BKN018 BKN035 07/03 A3027 RMK AO2 SLP259 T00720033 10083 20044 58006=
201704031707 SPECI KSEA 031707Z 03005KT 10SM FEW017 BKN024 BKN035 07/03 A3028 RMK AO2 T00720028=
201704031653 METAR KSEA 031653Z 00000KT 10SM FEW016 BKN032 08/03 A3028 RMK AO2 SLP262 T00780033=
201704031607 SPECI KSEA 031607Z 15004KT 10SM FEW016 SCT028 06/03 A3029 RMK AO2 T00610033=
201704031553 METAR KSEA 031553Z 16005KT 10SM FEW016 BKN028 06/03 A3029 RMK AO2 SLP265 T00560028=
201704031453 METAR KSEA 031453Z 21003KT 10SM BKN026 BKN055 06/03 A3029 RMK AO2 SLP265 T00560033 53001=
201704031438 SPECI KSEA 031438Z 00000KT 10SM BKN026 BKN055 05/03 A3028 RMK AO2 T00500028=
201704031353 METAR KSEA 031353Z 15003KT 10SM FEW035 FEW055 05/02 A3028 RMK AO2 SLP262 T00500022=
201704031253 METAR KSEA 031253Z 00000KT 10SM FEW038 OVC055 05/03 A3028 RMK AO2 SLP262 T00500033 $=
201704031153 METAR KSEA 031153Z 00000KT 10SM BKN060 06/03 A3029 RMK AO2 SLP263 60000 70004 T00560033 10072 20044 58001 $=
201704031053 METAR KSEA 031053Z 00000KT 10SM SCT040 OVC055 06/03 A3029 RMK AO2 SLP264 T00560033 $=
201704030953 METAR KSEA 030953Z 00000KT 10SM FEW001 05/03 A3029 RMK AO2 SLP265 T00500033 $=
201704030853 METAR KSEA 030853Z 00000KT 10SM SCT047 BKN070 06/03 A3029 RMK AO2 SLP265 60000 T00610033 53007=
201704030753 METAR KSEA 030753Z 00000KT 10SM BKN043 OVC070 06/03 A3028 RMK AO2 RAE49 SLP262 P0000 T00610028 401280050=
201704030653 METAR KSEA 030653Z 16004KT 10SM -RA SCT030 OVC070 07/03 A3027 RMK AO2 RAB49 SLP259 P0000 T00670033=
201704030553 METAR KSEA 030553Z 09003KT 10SM SCT027 OVC065 07/03 A3027 RMK AO2 SLP257 60004 T00720028 10117 20061 51008=
201704030453 METAR KSEA 030453Z 06007KT 10SM SCT034 OVC045 07/02 A3026 RMK AO2 RAE35 SLP257 P0003 T00670022=
201704030413 SPECI KSEA 030413Z 04012KT 7SM -RA FEW016 BKN024 OVC037 07/04 A3027 RMK AO2 P0001 T00670044=
201704030353 METAR KSEA 030353Z 05013KT 5SM -RA BR OVC035 07/04 A3026 RMK AO2 RAB21 SLP256 P0001 T00670044=
201704030253 METAR KSEA 030253Z 06013KT 10SM BKN036 OVC047 08/02 A3025 RMK AO2 SLP250 T00830022 55002=
201704030153 METAR KSEA 030153Z 05012KT 10SM BKN035 BKN049 10/03 A3024 RMK AO2 SLP250 T01000028=
201704030053 METAR KSEA 030053Z 03006KT 10SM FEW036 BKN050 OVC060 11/03 A3024 RMK AO2 SLP248 T01110028=
201704022353 METAR KSEA 022353Z 06006KT 10SM FEW041 BKN050 BKN085 12/03 A3025 RMK AO2 SLP251 60000 T01170033 10128 20083 58010=
201704022253 METAR KSEA 022253Z 02008KT 10SM FEW040 BKN070 11/04 A3026 RMK AO2 RAE03 SLP255 P0000 T01060039=
201704022153 METAR KSEA 022153Z 04003KT 7SM -RA SCT036 BKN044 09/03 A3028 RMK AO2 RAB42 SLP261 P0000 T00940033=
201704022053 METAR KSEA 022053Z 22005KT 10SM FEW035 SCT047 BKN080 12/01 A3028 RMK AO2 SLP261 T01220011 58016=
201704021953 METAR KSEA 021953Z 19007KT 10SM FEW020 SCT031 BKN060 12/03 A3030 RMK AO2 SLP269 T01170033=
201704021853 METAR KSEA 021853Z 23006KT 10SM FEW021 SCT060 SCT085 09/03 A3032 RMK AO2 SLP273 T00940033=
201704021753 METAR KSEA 021753Z 19007KT 10SM SCT021 SCT060 09/03 A3033 RMK AO2 SLP277 T00890028 10089 20050 50003=
201704021653 METAR KSEA 021653Z 17008KT 10SM SCT017 BKN050 BKN085 08/03 A3033 RMK AO2 SLP278 T00780028=
201704021553 METAR KSEA 021553Z 20008KT 10SM FEW020 BKN050 BKN070 07/03 A3033 RMK AO2 SLP277 T00720028=
201704021453 METAR KSEA 021453Z 15009KT 10SM BKN050 06/04 A3032 RMK AO2 SLP274 T00560039 55002=
201704021353 METAR KSEA 021353Z 14005KT 10SM OVC046 06/04 A3032 RMK AO2 SLP273 T00560039=
201704021253 METAR KSEA 021253Z 15005KT 10SM SCT025 BKN060 05/04 A3031 RMK AO2 SLP273 T00500039=
201704021235 SPECI KSEA 021235Z 14006KT 10SM FEW017 SCT025 BKN050 06/04 A3032 RMK AO2 T00610039=
201704021201 SPECI KSEA 021201Z 10006KT 10SM BKN016 OVC055 06/04 A3032 RMK AO2 T00610039=
201704021153 METAR KSEA 021153Z 10004KT 7SM SCT016 BKN060 06/04 A3032 RMK AO2 RAE1058 SLP276 P0000 60000 70004 T00610039 10089 20056 53000=
201704021053 METAR KSEA 021053Z 14013KT 6SM -RA BR FEW015 OVC037 06/04 A3029 RMK AO2 RAB35 PRESFR SLP265 P0000 T00610044=
201704021045 SPECI KSEA 021045Z 12010KT 2 1/2SM -RA BR BKN015 OVC032 07/04 A3030 RMK AO2 RAB35 PRESFR P0000 T00670044=
201704020953 METAR KSEA 020953Z 21005KT 10SM OVC017 07/04 A3032 RMK AO2 SLP276 T00720039=
201704020853 METAR KSEA 020853Z 21006KT 10SM OVC016 08/04 A3031 RMK AO2 SLP272 T00780044 53011=
201704020753 METAR KSEA 020753Z 20010KT 10SM OVC015 08/05 A3029 RMK AO2 SLP266 T00830050 401330072=
201704020653 METAR KSEA 020653Z 23008KT 10SM OVC016 08/06 A3028 RMK AO2 SLP263 T00830056=
201704020622 SPECI KSEA 020622Z 23010KT 10SM OVC015 09/06 A3028 RMK AO2 T00890056=
201704020553 METAR KSEA 020553Z 22012KT 10SM BKN012 OVC025 09/06 A3028 RMK AO2 SLP261 T00890061 10133 20089 52012=
201704020534 SPECI KSEA 020534Z 21011KT 10SM BKN012 OVC025 09/07 A3028 RMK AO2 T00890067=
201704020453 METAR KSEA 020453Z 22012KT 10SM SCT010 BKN025 OVC031 09/07 A3027 RMK AO2 SLP257 T00940072=
201704020408 SPECI KSEA 020408Z 20008KT 10SM SCT014 BKN022 BKN040 11/09 A3026 RMK AO2 T01060089=
201704020353 METAR KSEA 020353Z 21006KT 10SM SCT020 SCT032 BKN042 11/08 A3025 RMK AO2 SLP252 T01060083=
201704020324 SPECI KSEA 020324Z 15006KT 10SM SCT018 BKN032 BKN047 12/08 A3024 RMK AO2 T01220083=
201704020304 SPECI KSEA 020304Z 13003KT 10SM SCT018 BKN024 BKN039 12/08 A3024 RMK AO2 T01220078=
201704020253 METAR KSEA 020253Z 16003KT 10SM FEW020 BKN037 BKN075 12/08 A3024 RMK AO2 SLP249 T01220083 53000=
201704020153 METAR KSEA 020153Z 15003KT 10SM FEW018 BKN043 BKN075 13/08 A3024 RMK AO2 SLP247 T01280078=
201704020053 METAR KSEA 020053Z 08005KT 10SM FEW021 BKN050 BKN080 13/08 A3024 RMK AO2 SLP245 T01330078=
201704012353 METAR KSEA 012353Z 24003KT 10SM SCT021 SCT036 OVC045 12/08 A3024 RMK AO2 SLP247 T01220078 10128 20083 53001=
201704012253 METAR KSEA 012253Z 21003KT 10SM SCT021 BKN038 BKN048 12/08 A3024 RMK AO2 SLP247 T01220078=
201704012234 SPECI KSEA 012234Z VRB03KT 10SM SCT021 BKN036 BKN045 12/08 A3024 RMK AO2 T01220078=
201704012153 METAR KSEA 012153Z 19005KT 10SM FEW013 BKN018 OVC030 12/09 A3024 RMK AO2 SLP246 T01170089=
201704012053 METAR KSEA 012053Z 22008KT 10SM SCT007 OVC016 11/09 A3024 RMK AO2 SLP248 T01060089 53003=
201704011953 METAR KSEA 011953Z 21007KT 10SM OVC005 09/08 A3023 RMK AO2 SLP245 T00940083=
201704011853 METAR KSEA 011853Z 22007KT 9SM OVC006 09/08 A3023 RMK AO2 SLP245 T00890078=
201704011753 METAR KSEA 011753Z 20005KT 10SM OVC007 08/07 A3023 RMK AO2 SLP244 60004 T00830067 10100 20072 53016=
201704011653 METAR KSEA 011653Z 26003KT 10SM OVC010 08/07 A3021 RMK AO2 SLP238 P0001 T00780067=
201704011559 SPECI KSEA 011559Z 22006KT 10SM FEW006 BKN011 OVC028 07/07 A3019 RMK AO2 T00720067=
201704011553 METAR KSEA 011553Z 22006KT 10SM SCT011 OVC028 07/07 A3019 RMK AO2 RAE50 SLP230 P0002 T00720067=
201704011501 SPECI KSEA 011501Z 21008KT 7SM -RA SCT012 SCT018 OVC030 08/07 A3018 RMK AO2 P0000 T00780067=
201704011453 METAR KSEA 011453Z 23008KT 8SM -RA FEW008 BKN012 OVC030 08/07 A3018 RMK AO2 RAB06E17B37 SLP228 P0001 60001 T00830067 53005=
201704011439 SPECI KSEA 011439Z 22008KT 6SM -RA BR SCT008 BKN012 OVC031 08/07 A3017 RMK AO2 RAB06E17B37 P0001 T00830072=
201704011417 SPECI KSEA 011417Z 21009KT 8SM FEW009 OVC033 08/07 A3016 RMK AO2 RAB06E17 P0000 T00830072=
201704011353 METAR KSEA 011353Z 21009KT 10SM SCT013 OVC038 09/07 A3016 RMK AO2 RAB03E21 SLP221 P0000 T00890072=
201704011253 METAR KSEA 011253Z 21008KT 10SM OVC043 09/06 A3016 RMK AO2 SLP221 T00940061=
201704011153 METAR KSEA 011153Z 18008KT 10SM OVC040 10/06 A3017 RMK AO2 SLP222 T01000056 10111 20100 56012=
201704011053 METAR KSEA 011053Z 17008KT 10SM OVC048 10/06 A3018 RMK AO2 SLP226 T01000056=
201704010953 METAR KSEA 010953Z 18005KT 10SM BKN049 OVC065 10/05 A3018 RMK AO2 SLP227 T01000050=
201704010853 METAR KSEA 010853Z 23004KT 10SM OVC050 10/05 A3020 RMK AO2 SLP234 T01000050 56015=
201704010753 METAR KSEA 010753Z 17004KT 10SM OVC060 11/04 A3020 RMK AO2 SLP235 T01060044 401330039=
201704010653 METAR KSEA 010653Z 13007KT 10SM OVC085 11/04 A3023 RMK AO2 SLP244 T01060044=
201704010553 METAR KSEA 010553Z 15006KT 10SM OVC110 11/04 A3025 RMK AO2 SLP251 T01110039 10133 20106 58002=
201704010453 METAR KSEA 010453Z 16004KT 10SM OVC150 11/04 A3026 RMK AO2 SLP253 T01060039=
201704010353 METAR KSEA 010353Z 00000KT 10SM BKN150 OVC250 11/04 A3025 RMK AO2 SLP252 T01110044=
201704010253 METAR KSEA 010253Z 27003KT 10SM SCT140 BKN250 11/04 A3025 RMK AO2 SLP253 T01110039 57013=
201704010153 METAR KSEA 010153Z 27003KT 10SM SCT140 BKN250 12/04 A3026 RMK AO2 SLP256 T01170039=
201704010053 METAR KSEA 010053Z VRB03KT 10SM SCT120 BKN250 13/03 A3028 RMK AO2 SLP262 T01280028=

# No short TAF reports from KSEA in databse.

###################################
#  large TAF from KSEA
###################################
201704302336 TAF KSEA 302336Z 0100/0206 VRB03KT P6SM VCSH SCT030 BKN040 OVC060
                       TEMPO 0100/0104 -SHRA FM010500 15005KT P6SM
                       SCT020 BKN030 FM010900 18006KT P6SM SCT018
                       OVC120 FM011500 17005KT P6SM -RA SCT012
                       BKN020 OVC035 FM012000 21005KT P6SM SCT025
                       BKN035 OVC050 FM020000 VRB03KT P6SM SCT035
                       BKN045 OVC070=
201704302057 KSEA 302057Z 3021/0124 VRB03KT P6SM -SHRA SCT025 BKN035 OVC045
                       FM010600 17006KT P6SM SCT020 BKN030 FM011500
                       17006KT P6SM -RA SCT012 BKN020 OVC035 FM012000
                       22006KT P6SM SCT025 BKN035 OVC050=
201704301736 TAF KSEA 301736Z 3018/0124 22006KT P6SM VCSH BKN020 OVC035 FM302200
                       25008KT P6SM -SHRA SCT025 BKN035 OVC045
                       FM010600 17006KT P6SM SCT020 BKN030 FM011500
                       17006KT P6SM -RA SCT012 BKN020 OVC035 FM012000
                       22006KT P6SM SCT025 BKN035 OVC050=
201704301458 KSEA 301458Z 3015/0118 22012G22KT P6SM VCSH SCT008 BKN015 OVC025
                       FM301800 22014G22KT P6SM VCSH SCT020 BKN035
                       FM302300 26010KT P6SM -SHRA BKN035 OVC045
                       FM010200 24008KT P6SM -SHRA SCT020 OVC035
                       FM010600 15006KT P6SM SCT020 BKN030 FM011000
                       15005KT P6SM OVC020 FM011700 17006KT P6SM
                       BKN035=
201704301120 TAF KSEA 301120Z 3012/0118 22012KT P6SM SCT006 BKN012 OVC025
                      TEMPO 3012/3015 5SM BR BKN006 OVC012 FM301500
                       22012G22KT P6SM BKN015 BKN035 FM301800 22014G22KT
                       P6SM VCSH BKN035 FM302300 24012KT P6SM -SHRA
                       BKN035 OVC045 FM010200 27008KT P6SM -SHRA
                       SCT020 OVC035 FM010600 18006KT P6SM SCT020
                       BKN030 FM011000 15005KT P6SM OVC020 FM011700
                       17006KT P6SM BKN035=
201704300757 KSEA 300757Z 3008/0112 20012KT 6SM BR VCSH BKN006 BKN012 OVC025
                       TEMPO 3008/3011 3SM -RA BR BKN006 OVC012
                       FM301100 21014G23KT P6SM BKN012 OVC025 FM301800
                       22013G22KT P6SM VCSH SCT020 BKN035 FM302300
                       24012KT P6SM -SHRA BKN035 OVC045 FM010200
                       27008KT P6SM -SHRA SCT020 OVC035 FM010600
                       18006KT P6SM SCT020 BKN030 BKN060=
201704300620 KSEA 300620Z 3006/0112 18008KT P6SM -RA SCT008 BKN018 OVC030
                      TEMPO 3006/3007 4SM -RA BR BKN006 OVC018
                       FM300700 19012G22KT P6SM VCSH BKN012 OVC025
                       TEMPO 3007/3010 5SM BR BKN006 OVC012 FM301000
                       20014G22KT P6SM OVC012 FM301800 22013KT
                       P6SM VCSH SCT020 BKN035 FM302300 24012KT
                       P6SM -SHRA BKN035 OVC045 FM010200 27008KT
                       P6SM -SHRA SCT020 OVC035 FM010600 18006KT
                       P6SM SCT020 BKN030 BKN060=
201704300522 TAF KSEA 300522Z 3006/0112 16008KT P6SM -RA SCT012 OVC030
                      TEMPO 3006/3007 4SM -RA BR SCT008 OVC012
                       FM300700 19014G24KT P6SM VCSH BKN015 OVC025
                       FM301000 20015G25KT P6SM OVC012 FM301700
                       22013KT P6SM VCSH SCT020 BKN035 FM302300
                       24012KT P6SM -SHRA BKN035 OVC045 FM010200
                       27008KT P6SM -SHRA SCT020 OVC035 FM010600
                       18006KT P6SM SCT020 BKN030 BKN060=
201704300402 KSEA 300402Z 3004/0106 16008KT P6SM -RA SCT012 OVC030
                      TEMPO 3004/3007 4SM -RA BR SCT008 OVC012
                       FM300700 19014G24KT P6SM VCSH SCT015 BKN025
                       FM301200 20013G22KT P6SM VCSH SCT012 BKN018
                       FM301800 22012KT P6SM VCSH SCT020 BKN035
                       FM302200 22010KT P6SM -SHRA BKN035 OVC045
                       FM010400 16006KT P6SM VCSH SCT025 OVC035=
201704300304 KSEA 300304Z 3003/0106 26010KT P6SM -RA SCT008 OVC030
                      TEMPO 3003/3005 5SM -RA BR OVC008 FM300500
                       22012KT P6SM -RA BKN015 OVC030 FM300700
                       20014G24KT P6SM VCSH SCT015 BKN025 FM301200
                       20013G22KT P6SM VCSH SCT012 BKN018 FM301800
                       22012KT P6SM VCSH SCT020 BKN035 FM302200
                       22010KT P6SM -SHRA BKN035 OVC045 FM010400
                       16006KT P6SM VCSH SCT025 OVC035=
201704292339 TAF KSEA 292339Z 3000/0106 18008KT P6SM VCSH SCT030 BKN060 OVC090
                       FM300200 21012G20KT P6SM -RA SCT025 BKN035
                       OVC050 FM300600 20014G22KT P6SM VCSH SCT018
                       BKN025 FM301200 20011KT P6SM VCSH SCT012
                       BKN018 FM301800 22010KT P6SM VCSH SCT020
                       BKN035 FM302200 22010KT P6SM -SHRA BKN035
                       OVC045 FM010400 16006KT P6SM VCSH SCT025
                       OVC035=
201704292119 KSEA 292119Z 2921/3024 18008KT P6SM VCSH SCT060 OVC090 FM300100
                       21012G20KT P6SM -RA BKN035 OVC060 FM300600
                       20014G23KT P6SM VCSH SCT018 BKN030 FM301200
                       20011KT P6SM VCSH SCT012 BKN018 FM301800
                       22010KT P6SM VCSH SCT020 BKN035 FM302200
                       22010KT P6SM -SHRA BKN035 OVC045=
201704291738 TAF KSEA 291738Z 2918/3024 17008KT P6SM BKN120 BKN200 FM300100
                       21012G20KT P6SM -RA BKN035 OVC060 FM300600
                       20014G23KT P6SM VCSH SCT018 BKN030 FM301200
                       20011KT P6SM VCSH SCT012 BKN018 FM301800
                       22010KT P6SM VCSH SCT020 BKN035 FM302200
                       22010KT P6SM -SHRA BKN035 OVC045=
201704291437 KSEA 291437Z 2915/3018 17008KT P6SM BKN120 BKN200 FM300100 18012KT
                       P6SM -RA BKN035 OVC060 FM300600 22014G23KT
                       P6SM -SHRA BKN035 FM300800 23015G26KT P6SM
                       VCSH BKN030=
201704291120 TAF KSEA 291120Z 2912/3018 14006KT P6SM BKN060 BKN200 FM291500
                       16008KT P6SM SCT050 SCT150 BKN200 FM291800
                       18010KT P6SM SCT050 BKN120 OVC200 FM300100
                       18012KT P6SM -RA BKN035 OVC060 FM300600
                       22014G23KT P6SM -SHRA BKN035 FM300800 23015G26KT
                       P6SM VCSH BKN030=
201704290902 KSEA 290902Z 2909/3012 14004KT P6SM BKN060 BKN200 FM291400 16006KT
                       P6SM SCT050 SCT150 BKN200 FM291900 19010KT
                       P6SM SCT050 BKN150 OVC200 FM300100 20012KT
                       P6SM -RA BKN035 OVC060 FM300400 22013G20KT
                       P6SM -SHRA BKN035 FM300600 23014G23KT P6SM
                       VCSH BKN035=
201704290520 TAF KSEA 290520Z 2906/3012 04006KT P6SM BKN060 BKN200 FM290800
                       15004KT P6SM BKN050 BKN200 FM291100 16006KT
                       P6SM SCT050 SCT150 BKN200 FM291900 18010KT
                       P6SM SCT050 BKN150 OVC200 FM300100 18012KT
                       P6SM -RA BKN035 OVC060 FM300500 22014G22KT
                       P6SM -SHRA BKN035 FM300900 23014G22KT P6SM
                       VCSH BKN035=
201704290311 KSEA 290311Z 2903/3006 29005KT P6SM BKN060 BKN200 FM290700 17004KT
                       P6SM BKN050 BKN200 FM291200 20006KT P6SM
                       SCT050 SCT150 BKN200 FM291900 21009KT P6SM
                       SCT050 BKN150 OVC200 FM300200 22010KT P6SM
                       -RA BKN050 OVC080=
201704282328 TAF KSEA 282328Z 2900/3006 26007KT P6SM SCT050 SCT200 FM290200
                       29005KT P6SM SCT050 SCT200 FM290700 17004KT
                       P6SM SCT050 SCT200 FM291200 20006KT P6SM
                       BKN200=
201704282119 KSEA 282119Z 2821/2924 VRB06KT P6SM SCT040 SCT050 BKN230 FM282300
                       27005KT P6SM SCT045 FM290700 19004KT P6SM
                       SCT035 BKN120 FM291200 18004KT P6SM OVC060=
201704281728 TAF KSEA 281728Z 2818/2924 18004KT P6SM VCSH FEW015 BKN040 FM282000
                       24005KT P6SM BKN045 FM282300 27005KT P6SM
                       SCT045 FM290700 19004KT P6SM SCT035 BKN120
                       FM291200 18004KT P6SM OVC060=
201704281503 KSEA 281503Z 2815/2918 20003KT P6SM SCT008 BKN030 BKN060 FM281700
                       20006KT P6SM BKN040 FM282000 27007KT P6SM
                       SCT045 FM282300 36005KT P6SM SCT045 FM290700
                       14005KT P6SM SCT035 SCT200 FM291200 18005KT
                       P6SM BKN150=
201704281141 KSEA 281141Z 2812/2918 19005KT P6SM -SHRA BKN025 OVC035 FM281400
                       19006KT P6SM SCT025 BKN040 FM281700 20006KT
                       P6SM BKN040 FM282000 27007KT P6SM SCT045
                       FM282300 36005KT P6SM SCT045 FM290700 14005KT
                       P6SM SCT035 SCT200 FM291200 18005KT P6SM
                       BKN150=
201704281120 TAF KSEA 281120Z 2812/2918 19005KT P6SM SCT030 BKN040 FM281700
                       20006KT P6SM BKN040 FM282000 27007KT P6SM
                       SCT045 FM282300 36005KT P6SM SCT045 FM290700
                       14005KT P6SM SCT035 SCT200 FM291200 18005KT
                       P6SM BKN150=
201704281001 KSEA 281001Z 2810/2912 20007KT P6SM BKN035 FM281700 22007KT P6SM
                       BKN040 FM282000 27008KT P6SM SCT045 FM282300
                       01005KT P6SM SCT045 FM290600 16006KT P6SM
                       SCT035=
201704280905 KSEA 280905Z 2809/2912 19007KT P6SM OVC025 FM281400 19006KT P6SM
                       BKN030 FM281700 22007KT P6SM BKN035 FM282000
                       27008KT P6SM SCT045 FM282300 01005KT P6SM
                       SCT045 FM290600 16006KT P6SM SCT035=
201704280520 TAF KSEA 280520Z 2806/2912 04006KT P6SM VCSH SCT025 BKN035 BKN050
                       TEMPO 2806/2809 BKN025 OVC035 FM280900 14005KT
                       P6SM SCT020 OVC030 FM281700 22007KT P6SM
                       BKN035 FM282000 27008KT P6SM SCT040 FM282300
                       01005KT P6SM SCT045 FM290600 16006KT P6SM
                       SCT035=
201704280311 KSEA 280311Z 2803/2906 05006KT P6SM VCSH BKN035 BKN060
                      TEMPO 2803/2804 VRB04KT P6SM -SHRA OVC035
                       FM280400 07006KT P6SM OVC035 FM280700 16006KT
                       P6SM OVC025 FM281700 22007KT P6SM BKN030
                       FM282000 27008KT P6SM BKN040 FM290000 01005KT
                       P6SM BKN040=
201704280229 KSEA 280229Z 2802/2906 01006KT P6SM VCSH BKN030 BKN060
                      TEMPO 2802/2804 VRB04KT P6SM -SHRA OVC030
                       FM280400 36005KT P6SM OVC035 FM280600 19006KT
                       P6SM OVC025 FM281700 22007KT P6SM BKN030
                       FM282000 27008KT P6SM BKN040 FM290000 01005KT
                       P6SM BKN040=
201704272326 TAF KSEA 272326Z 2800/2906 25010KT P6SM VCSH SCT045 SCT060 BKN090
                       FM280100 30011G17KT P6SM VCSH BKN035 BKN060
                       FM280400 01008KT P6SM OVC035 FM280800 17005KT
                       P6SM OVC025 FM281700 21005KT P6SM BKN030=
201704271735 TAF KSEA 271735Z 2718/2824 20011KT P6SM FEW020 BKN026 FM272000
                       22010KT P6SM SCT025 BKN035 FM272300 24010G17KT
                       P6SM BKN035 FM280100 30011G17KT P6SM VCSH
                       BKN035 FM280400 01008KT P6SM OVC035 FM281700
                       21005KT P6SM BKN030 FM281800 22006KT P6SM
                       BKN025=
201704271501 KSEA 271501Z 2715/2818 19008KT P6SM BKN015 FM271800 23012KT P6SM
                       SCT025 BKN035 FM272300 28014KT P6SM -SHRA
                       OVC030 FM280100 34010KT P6SM VCSH OVC030
                       FM280400 03008KT P6SM BKN030 FM280800 17006KT
                       P6SM OVC025 FM281700 19007KT P6SM BKN035=
201704271306 KSEA 271306Z 2713/2818 19008KT P6SM BKN015 OVC035
                      TEMPO 2713/2716 SCT015 BKN045 FM271800 23012KT
                       P6SM SCT025 BKN035 FM272300 28014KT P6SM
                       -SHRA OVC030 FM280100 34010KT P6SM VCSH
                       OVC030 FM280400 03008KT P6SM BKN030 FM280800
                       17006KT P6SM OVC025 FM281700 19007KT P6SM
                       BKN035=
201704271120 TAF KSEA 271120Z 2712/2818 22010KT P6SM SCT015 OVC035
                      TEMPO 2712/2716 OVC015 FM271800 23012KT P6SM
                       SCT025 BKN035 FM272300 28014KT P6SM -SHRA
                       OVC030 FM280100 34010KT P6SM VCSH OVC030
                       FM280400 03008KT P6SM BKN030 FM280800 17006KT
                       P6SM OVC025 FM281700 19007KT P6SM BKN035=
201704270902 KSEA 270902Z 2709/2812 21012KT P6SM OVC015 FM271800 23012KT P6SM
                       SCT020 BKN035 FM272200 28014KT P6SM -SHRA
                       OVC030 FM280000 34010KT P6SM VCSH OVC030
                       FM280400 03008KT P6SM BKN030=
201704270621 KSEA 270621Z 2706/2812 21013KT P6SM SCT022 BKN040
                      TEMPO 2706/2710 BKN020 OVC040 FM271000 20010KT
                       P6SM OVC020 FM271800 23012KT P6SM SCT025
                       BKN035 FM272200 28014KT P6SM -SHRA OVC030
                       FM280000 34010KT P6SM VCSH OVC030 FM280400
                       03008KT P6SM BKN030=
201704270520 TAF KSEA 270520Z 2706/2812 21013G20KT P6SM SCT025 BKN040 FM271200
                       20008KT P6SM OVC025 FM271800 23012KT P6SM
                       SCT025 BKN035 FM272200 28014KT P6SM -SHRA
                       OVC030 FM280000 34010KT P6SM VCSH OVC030
                       FM280400 03008KT P6SM BKN030=
201704270226 KSEA 270226Z 2702/2806 24014G22KT P6SM VCSH SCT025 BKN035 FM270500
                       20013G20KT P6SM SCT020 OVC035 FM271100 20010KT
                       P6SM OVC018 FM271800 23013KT P6SM SCT020
                       BKN035 FM272200 28014KT P6SM -SHRA OVC030
                       FM280000 34010KT P6SM VCSH OVC030=
201704262328 TAF KSEA 262328Z 2700/2806 01008KT P6SM VCSH FEW027 BKN045 BKN080
                       FM270700 19013KT P6SM OVC035 FM271200 20012KT
                       P6SM OVC019 FM271900 23010KT P6SM BKN035=
201704262106 KSEA 262106Z 2621/2724 21016G21KT P6SM VCSH SCT035 SCT120 SCT200
                       FM270000 29012KT P6SM VCSH BKN030 OVC040
                       FM270600 19012G22KT P6SM OVC019=
201704261725 TAF KSEA 261725Z 2618/2724 20018KT P6SM VCSH FEW011 BKN015 BKN130
                       FM262000 21015G22KT P6SM VCSH SCT020 OVC035
                       FM270000 29012KT P6SM VCSH BKN030 OVC040
                       FM270600 19012G22KT P6SM OVC019=
201704261500 KSEA 261500Z 2615/2718 20013KT P6SM VCSH BKN009 BKN015 OVC130
                      TEMPO 2615/2617 BKN015 OVC030 FM261800 22015G25KT
                       P6SM SCT020 OVC035 FM262100 23015G25KT P6SM
                       -SHRA SCT025 BKN040 FM270000 29010KT P6SM
                       -SHRA BKN030 OVC040 FM270200 06008KT P6SM
                       -SHRA OVC030 FM270600 20010KT P6SM OVC020=
201704261321 KSEA 261321Z 2613/2718 21012G22KT P6SM VCSH SCT015 BKN035 OVC045
                       TEMPO 2613/2617 BKN015 OVC030 FM261800 22015G25KT
                       P6SM SCT020 OVC035 FM262100 23015G25KT P6SM
                       -SHRA SCT025 BKN040 FM270000 29010KT P6SM
                       -SHRA BKN030 OVC040 FM270200 06008KT P6SM
                       -SHRA OVC030 FM270600 20010KT P6SM OVC020=
201704261131 KSEA 261131Z 2612/2718 21014G22KT P6SM VCSH SCT015 OVC035 FM261800
                       22015G25KT P6SM SCT020 OVC035 FM262100 23015G25KT
                       P6SM -SHRA SCT025 BKN040 FM270000 29010KT
                       P6SM -SHRA BKN030 OVC040 FM270200 06008KT
                       P6SM -SHRA OVC030 FM270600 20010KT P6SM
                       OVC020=
201704261120 TAF KSEA 261120Z 2612/2718 21014G22KT P6SM VCSH SCT008 BKN012 OVC025
                       FM261800 22015G25KT P6SM VCSH BKN020 OVC035
                       FM262100 23015G25KT P6SM -SHRA SCT025 BKN040
                       FM270000 29010KT P6SM -SHRA BKN030 OVC040
                       FM270200 06008KT P6SM -SHRA OVC030 FM270600
                       20010KT P6SM OVC020=
201704261002 KSEA 261002Z 2610/2712 20015G25KT P6SM -SHRA SCT008 BKN013 OVC025
                       TEMPO 2610/2612 5SM BR BKN008 OVC013 FM261900
                       22015G25KT P6SM SCT030 BKN040 FM270000 28009KT
                       P6SM -SHRA BKN030 BKN040 FM270600 20012KT
                       P6SM VCSH OVC030
                      TEMPO 2709/2712 OVC020=
201704260811 KSEA 260811Z 2608/2712 20012KT P6SM -SHRA SCT006 BKN012 OVC025
                       TEMPO 2608/2610 3SM -SHRA BR BKN006 OVC012
                       FM261000 20014G22KT P6SM -SHRA BKN012 OVC025
                       FM261800 22014KT P6SM SCT030 BKN040 FM270000
                       28009KT P6SM -SHRA BKN030 BKN040 FM270600
                       19012KT P6SM VCSH OVC030
                      TEMPO 2710/2712 OVC020=
201704260540 TAF KSEA 260540Z 2606/2712 18008KT P6SM -SHRA OVC025 FM260800 20012KT
                       P6SM -SHRA OVC025 FM261100 20015G22KT P6SM
                       VCSH OVC025 FM261800 22014KT P6SM SCT030
                       BKN040 FM270000 28009KT P6SM -SHRA BKN030
                       BKN040 FM270600 19012KT P6SM VCSH OVC030
                       TEMPO 2710/2712 OVC020=
201704260352 KSEA 260352Z 2604/2706 26006KT P6SM -SHRA SCT030 OVC050 FM260600
                       21010KT P6SM -SHRA BKN030 OVC040 FM260800
                       20012G22KT P6SM -SHRA BKN025 FM261200 20013G24KT
                       P6SM VCSH OVC025 FM261800 22014G25KT P6SM
                       SCT030 BKN040 FM270000 27012KT P6SM VCSH
                       BKN030 BKN040=
201704252320 TAF KSEA 252320Z 2600/2706 20008KT P6SM -RA OVC050 FM260600 16010KT
                       P6SM -RA OVC040 FM261200 18012KT P6SM -SHRA
                       BKN025 FM261800 21012KT P6SM VCSH BKN040=
201704251732 TAF KSEA 251732Z 2518/2624 18008KT P6SM BKN040 BKN150 FM260100
                       18012KT P6SM -RA OVC040 FM261200 20012G20KT
                       P6SM -SHRA BKN025 FM261700 20012KT P6SM
                       VCSH BKN040=
201704251440 KSEA 251440Z 2515/2618 18008KT P6SM VCSH BKN040 BKN070
                      TEMPO 2515/2518 -SHRA BKN030 OVC060 FM260100
                       20012KT P6SM -RA OVC040 FM260600 17012KT
                       P6SM -RA OVC030 FM261000 20012KT P6SM -SHRA
                       OVC025=
201704251122 TAF KSEA 251122Z 2512/2618 17010KT P6SM BKN015 OVC040
                      TEMPO 2512/2516 SCT015 BKN040 FM251600 18010KT
                       P6SM SCT020 BKN040
                      TEMPO 2516/2518 BKN020 BKN040 FM251800 20010KT
                       P6SM BKN040 BKN120 FM260100 20012KT P6SM
                       -RA OVC040 FM260600 17012KT P6SM -RA OVC030
                       FM261000 20012KT P6SM -SHRA OVC025=
201704250901 KSEA 250901Z 2509/2612 17006KT P6SM BKN012 BKN045
                      TEMPO 2509/2510 SCT012 BKN045 FM251000 17006KT
                       P6SM BKN012 BKN045
                      TEMPO 2510/2514 SCT012 BKN045 FM251400 18008KT
                       P6SM SCT020 BKN040
                      TEMPO 2514/2518 BKN020 BKN040 FM251800 18008KT
                       P6SM BKN040 BKN120 FM260100 20012KT P6SM
                       -RA OVC040 FM260600 17012KT P6SM -RA OVC030=
201704250532 TAF KSEA 250532Z 2506/2612 20006KT P6SM SCT015 BKN045
                      TEMPO 2506/2510 BKN015 BKN045 FM251000 20006KT
                       P6SM BKN015 BKN045
                      TEMPO 2510/2514 SCT015 BKN045 FM251400 18008KT
                       P6SM SCT020 BKN040
                      TEMPO 2514/2518 BKN020 BKN040 FM251800 18008KT
                       P6SM BKN040 BKN120 FM260100 20012KT P6SM
                       -RA OVC040 FM260600 17012KT P6SM -RA OVC030=
201704250204 KSEA 250204Z 2502/2606 23008KT P6SM SCT080 FM250600 20006KT P6SM
                       SCT040 FM251100 18008KT P6SM BKN020 FM251800
                       18008KT P6SM BKN040 BKN120 FM252300 18012KT
                       P6SM -RA OVC040=
201704242320 TAF KSEA 242320Z 2500/2606 33008KT P6SM BKN150 FM250600 VRB04KT
                       P6SM SCT040 FM251100 18008KT P6SM BKN020
                       FM251800 18008KT P6SM BKN040 BKN120 FM252300
                       18012KT P6SM -RA OVC040=
201704241941 KSEA 241941Z 2420/2524 33008KT P6SM SCT030 BKN070 FM250400 VRB04KT
                       P6SM VCSH BKN035 FM250900 18012KT P6SM OVC025
                       FM251600 16007KT P6SM BKN035=
201704241720 TAF KSEA 241720Z 2418/2524 36008KT P6SM SCT022 BKN060
                      TEMPO 2418/2421 BKN022 OVC060 FM250400 VRB04KT
                       P6SM VCSH BKN035 FM250900 18012KT P6SM OVC025
                       FM251600 16007KT P6SM BKN035=
201704241514 KSEA 241514Z 2415/2518 04005KT P6SM -RA OVC050 FM242200 33008KT
                       P6SM VCSH SCT035 BKN070 FM250500 18008KT
                       P6SM BKN035 FM250900 18010KT P6SM OVC018
                       FM251600 18010KT P6SM BKN035=
201704241123 TAF KSEA 241123Z 2412/2518 VRB03KT P6SM -SHRA SCT025 BKN040 OVC050
                       FM241700 34006KT P6SM VCSH SCT030 BKN050
                       OVC090 FM242200 33007KT P6SM VCSH SCT035
                       BKN070 FM250500 19007KT P6SM SCT025 BKN035
                       OVC050 FM250900 18009KT P6SM SCT010 BKN018
                       OVC030 FM251600 18011KT P6SM SCT020 BKN035=
201704240916 KSEA 240916Z 2409/2512 18006KT P6SM -SHRA SCT018 BKN030 OVC045
                       FM241300 VRB03KT P6SM SCT018 BKN035 OVC060
                       FM241700 35006KT P6SM SCT030 BKN050 OVC090
                       FM242200 31006KT P6SM SCT035 BKN070 FM250500
                       20005KT P6SM SCT025 BKN035 OVC050 FM250900
                       18010KT P6SM SCT008 BKN015 OVC030=
201704240522 TAF KSEA 240522Z 2406/2512 18006KT P6SM -SHRA SCT012 BKN030 OVC045
                       FM241300 VRB03KT P6SM SCT018 BKN035 OVC060
                       FM241700 35006KT P6SM SCT030 BKN050 OVC090
                       FM242200 31006KT P6SM SCT035 BKN070 FM250500
                       20005KT P6SM SCT025 BKN035 OVC050 FM250900
                       18010KT P6SM SCT008 BKN015 OVC030=
201704240310 KSEA 240310Z 2403/2506 18007KT P6SM -SHRA SCT015 BKN030 OVC045
                       FM240500 17007KT P6SM VCSH BKN025 OVC040
                       FM241400 04004KT P6SM SCT030 BKN050 BKN080
                       FM241800 36006KT P6SM VCSH SCT025 BKN040
                       BKN060=
201704232347 KSEA 232347Z 2400/2506 19012KT P6SM -SHRA SCT020 OVC040
                      TEMPO 2400/2404 6SM -SHRA BR BKN015 OVC040
                       FM240400 19007KT P6SM VCSH SCT025 BKN040
                       OVC060
                      TEMPO 2404/2407 BKN025 OVC040 FM241400 04004KT
                       P6SM SCT030 BKN050 BKN080 FM241800 36006KT
                       P6SM VCSH SCT025 BKN040 BKN060=
201704232320 TAF KSEA 232320Z 2400/2506 19012KT P6SM -SHRA SCT025 OVC040
                      TEMPO 2400/2404 6SM -SHRA BR BKN025 OVC040
                       FM240400 19007KT P6SM VCSH SCT025 BKN040
                       OVC060
                      TEMPO 2404/2407 BKN025 OVC040 FM241400 04004KT
                       P6SM SCT030 BKN050 BKN080 FM241800 36006KT
                       P6SM VCSH SCT025 BKN040 BKN060=
201704232125 KSEA 232125Z 2321/2424 16011KT P6SM -RA OVC040 FM240000 21010KT
                       P6SM -SHRA BKN025 OVC040 FM240500 20007KT
                       P6SM VCSH SCT025 BKN040 OVC060 FM241500
                       04004KT P6SM SCT030 BKN050 BKN080=
201704231721 TAF KSEA 231721Z 2318/2424 18007KT P6SM -RA OVC040 FM232300 21010KT
                       P6SM -RA BKN030 OVC045 FM240200 20010KT
                       P6SM -SHRA BKN025 OVC040 FM240500 18006KT
                       P6SM VCSH SCT025 BKN040 OVC060 FM241500
                       04004KT P6SM BKN050 BKN100=
201704231449 KSEA 231449Z 2315/2418 16005KT P6SM BKN050 FM231900 21007KT P6SM
                       -RA OVC050 FM232300 21010KT P6SM -RA BKN030
                       OVC050 FM240200 20010KT P6SM -RA BKN025
                       OVC040 FM240900 18006KT P6SM VCSH SCT025
                       BKN040 OVC060 FM241500 04004KT P6SM BKN050
                       BKN100=
201704231137 TAF KSEA 231137Z 2312/2418 18005KT P6SM VCSH SCT025 BKN040 FM231600
                       20006KT P6SM -RA SCT015 OVC025 FM231900
                       21009KT 6SM -RA BR SCT012 BKN018 OVC025
                       FM240000 21012G18KT P6SM -SHRA SCT018 BKN030
                       OVC045 FM240900 18006KT P6SM VCSH SCT025
                       BKN040 OVC060 FM241500 04004KT P6SM SCT020
                       SCT060 BKN120=
201704230857 KSEA 230857Z 2309/2412 18004KT P6SM SCT025 SCT045 FM231200 18006KT
                       P6SM VCSH SCT020 BKN030 OVC045 FM231600
                       20006KT P6SM -RA SCT015 OVC025 FM231900
                       21009KT 6SM -RA BR SCT012 BKN018 OVC025
                       FM240000 21012G18KT P6SM -SHRA SCT018 BKN030
                       OVC045 FM240900 18006KT P6SM VCSH SCT025
                       BKN040 OVC060=
201704230527 TAF KSEA 230527Z 2306/2412 19008KT P6SM SCT025 BKN045 FM231200
                       18006KT P6SM VCSH SCT020 BKN030 OVC045 FM231600
                       20006KT P6SM -RA SCT015 OVC025 FM231900
                       21009KT 6SM -RA BR SCT012 BKN018 OVC025
                       FM240000 21012G18KT P6SM -SHRA SCT018 BKN030
                       OVC045 FM240900 18006KT P6SM VCSH SCT025
                       BKN040 OVC060=
201704230306 KSEA 230306Z 2303/2406 19008KT P6SM VCSH SCT030 BKN045
                      TEMPO 2303/2304 -SHRA FM231500 21006KT P6SM
                       -RA SCT015 OVC025=
201704222324 TAF KSEA 222324Z 2300/2406 21014G25KT P6SM -SHRA SCT030 BKN045
                       OVC070 FM230300 20010KT P6SM VCSH SCT030
                       BKN050 FM230500 20007KT P6SM OVC050 FM231800
                       21006KT P6SM -RA SCT025 OVC045=
201704222106 KSEA 222106Z 2221/2324 13012KT P6SM -SHRA SCT030 OVC050 FM222300
                       21012G22KT P6SM -SHRA SCT020 BKN030 OVC050
                       FM230300 21012G22KT P6SM VCSH SCT025 OVC050
                       FM230500 19010KT P6SM OVC050=
201704221829 KSEA 221829Z 2218/2324 21015G25KT P6SM -RA SCT030 OVC050 FM222100
                       21015G25KT P6SM -SHRA SCT020 BKN030 OVC050
                       FM230300 21012G22KT P6SM VCSH BKN025 OVC040
                       FM230500 19010KT P6SM OVC045=
201704221721 TAF KSEA 221721Z 2218/2324 18010KT P6SM -RA BKN060 OVC100 FM221900
                       18015KT P6SM -RA SCT030 OVC040 FM222100
                       21015G25KT P6SM -SHRA SCT020 BKN030 OVC060
                       FM230300 21012G22KT P6SM VCSH BKN025 OVC040
                       FM230500 19010KT P6SM OVC045=
201704221446 KSEA 221446Z 2215/2318 11012KT P6SM SCT120 BKN200 FM221800 18014KT
                       P6SM -RA BKN070 OVC100 FM221900 18015KT
                       6SM -RA BKN025 OVC050 FM222100 21015G25KT
                       P6SM -SHRA SCT020 BKN030 BKN060 FM230300
                       21014KT P6SM VCSH SCT018 BKN025 OVC040=
201704221126 TAF KSEA 221126Z 2212/2318 11012KT P6SM SCT120 BKN200 FM221400
                       13012KT P6SM BKN080 OVC120 FM221700 21014G22KT
                       P6SM VCSH SCT040 BKN060 OVC090 FM221900
                       22015G25KT 6SM -SHRA SCT020 BKN030 OVC050
                       FM222200 21012G20KT P6SM VCSH SCT030 BKN040
                       OVC060 FM230800 18006KT P6SM VCSH SCT018
                       BKN025 OVC040=
201704220902 KSEA 220902Z 2209/2312 10011KT P6SM SCT120 BKN200 FM221400 11012KT
                       P6SM BKN080 OVC120 FM221700 21014G22KT P6SM
                       VCSH SCT040 BKN060 OVC090 FM221900 22015G25KT
                       6SM -SHRA SCT020 BKN030 OVC050 FM222200
                       21012G20KT P6SM VCSH SCT030 BKN040 OVC060
                       FM230700 18006KT P6SM SCT020 BKN030 OVC040=
201704220539 TAF KSEA 220539Z 2206/2312 10014KT P6SM SCT120 BKN200 FM221400
                       11012KT P6SM BKN080 OVC120 FM221700 21014G22KT
                       P6SM VCSH SCT040 BKN060 OVC090 FM221900
                       22015G25KT 6SM -SHRA SCT020 BKN030 OVC050
                       FM222200 21012G20KT P6SM VCSH SCT030 BKN040
                       OVC060 FM230700 18006KT P6SM SCT020 BKN030
                       OVC040=
201704220309 KSEA 220309Z 2203/2306 08008KT P6SM BKN200 FM221400 11010KT P6SM
                       OVC100 FM221800 18012KT P6SM -RA BKN050
                       OVC080 FM222000 18015G25KT P6SM -RA BKN040
                       OVC070=
201704212320 TAF KSEA 212320Z 2200/2306 31009KT P6SM FEW250 FM220200 06008KT
                       P6SM SCT250 FM220600 10010KT P6SM BKN200
                       FM221400 11010KT P6SM OVC100 FM221800 18012KT
                       P6SM -RA BKN050 OVC080 FM222000 18015G25KT
                       P6SM -RA BKN040 OVC070=
201704212112 TAF AMD KSEA 212112Z 2121/2224 33009KT P6SM FEW250 FM220200 06008KT
                       P6SM SCT250 FM220600 10010KT P6SM BKN200
                       FM221500 11010KT P6SM OVC100=
201704211720 TAF KSEA 211720Z 2118/2224 36009KT P6SM SKC FM220200 07008KT P6SM
                       SCT250 FM220600 11010KT P6SM BKN200 FM221500
                       11010KT P6SM OVC100=
201704211432 KSEA 211432Z 2115/2218 VRB03KT P6SM SKC FM211700 36005KT P6SM SKC
                       FM212100 36010KT P6SM SCT250 FM220500 06006KT
                       P6SM BKN200=
201704211120 TAF KSEA 211120Z 2112/2218 VRB03KT P6SM SKC FM212000 36008KT P6SM
                       SCT250 FM220500 06006KT P6SM BKN200=
201704210520 TAF KSEA 210520Z 2106/2212 21008KT P6SM SCT020 BKN060 FM211200
                       VRB03KT P6SM SCT012
                      TEMPO 2112/2116 BKN012 FM211800 36010KT P6SM
                       SCT250 FM220500 04005KT P6SM BKN200=
201704210302 TAF AMD KSEA 210302Z 2103/2206 22010KT P6SM VCSH SCT025 BKN050
                       FM211000 VRB03KT P6SM SCT050 FM211200 VRB03KT
                       P6SM SCT012
                      TEMPO 2113/2117 BKN012 FM211800 36010KT P6SM
                       SCT250=
201704202333 TAF KSEA 202333Z 2100/2206 24010KT P6SM VCSH SCT035 SCT060
                      TEMPO 2100/2103 -SHRA SCT035 BKN060 FM210300
                       22007KT P6SM SCT060 FM210900 VRB03KT P6SM
                       FEW090 FM211200 VRB03KT P6SM SCT012
                      TEMPO 2113/2117 BKN012 FM211800 36013KT P6SM
                       SCT250=
201704202244 KSEA 202244Z 2023/2124 23010KT P6SM VCSH SCT035 BKN060
                      TEMPO 2023/2101 -SHRA BKN035 OVC050 FM210200
                       21007KT P6SM VCSH SCT035 BKN060 FM210600
                       17004KT P6SM SCT060 FM211200 VRB03KT P6SM
                       VCFG SCT012 SCT060 FM211800 36012KT P6SM
                       SCT250=
201704202101 KSEA 202101Z 2021/2124 21010KT P6SM VCSH SCT035 BKN060
                      TEMPO 2021/2101 -SHRA BKN035 OVC050 FM210200
                       21007KT P6SM VCSH SCT035 BKN060 FM210600
                       17004KT P6SM SCT060 FM211200 VRB03KT P6SM
                       VCFG SCT012 SCT060 FM211800 36012KT P6SM
                       SCT250=
201704201743 TAF KSEA 201743Z 2018/2124 21010KT P6SM VCSH SCT020 BKN035 BKN080
                       TEMPO 2018/2020 -SHRA BKN020 OVC035 FM202000
                       21010KT P6SM -SHRA BKN035 BKN050 FM210200
                       21007KT P6SM VCSH SCT035 BKN060 FM210600
                       17004KT P6SM SCT060 FM211200 VRB03KT P6SM
                       VCFG SCT012 SCT060 FM211800 36012KT P6SM
                       SCT250=
201704201659 KSEA 201659Z 2017/2118 21010KT P6SM VCSH FEW008 SCT018 BKN030
                      TEMPO 2017/2019 -SHRA BKN018 OVC030 FM201900
                       21010KT P6SM -SHRA BKN035 BKN050 FM210000
                       23006KT P6SM BKN040 FM211000 VRB03KT P6SM
                       SCT040=
201704201431 KSEA 201431Z 2015/2118 19006KT P6SM SCT028 BKN080 BKN200
                      TEMPO 2015/2018 BKN028 BKN080 OVC200 FM201800
                       18008KT P6SM VCSH SCT035 BKN060 FM210000
                       23006KT P6SM BKN040 FM211000 VRB03KT P6SM
                       SCT040=
201704201120 TAF KSEA 201120Z 2012/2118 16006KT P6SM BKN028 FM201800 18008KT
                       P6SM VCSH BKN035 FM210000 23006KT P6SM BKN040
                       FM211000 VRB03KT P6SM SCT040=
201704200905 TAF AMD KSEA 200905Z 2009/2112 12008KT P6SM BKN035 FM201800 18008KT
                       P6SM VCSH BKN035 FM210000 23006KT P6SM BKN040
                       FM210500 VRB03KT P6SM SCT040=
201704200534 TAF KSEA 200534Z 2006/2112 21012KT P6SM -SHRA SCT015 OVC035
                      TEMPO 2006/2009 5SM -SHRA BKN015 OVC030 FM200900
                       20010KT P6SM BKN020 FM201800 20010KT P6SM
                       BKN030 FM210000 23006KT P6SM BKN040 FM210500
                       VRB03KT P6SM SCT040=
201704200310 KSEA 200310Z 2003/2106 15010KT P6SM VCSH BKN050 OVC090
                      TEMPO 2003/2006 18015G25KT 5SM SHRA BR OVC035
                       FM200600 19006KT P6SM -SHRA BKN035 OVC050
                       FM200900 19006KT P6SM BKN025 FM201800 21011KT
                       P6SM BKN040=
201704192341 TAF KSEA 192341Z 2000/2106 17007KT P6SM VCSH BKN060 BKN100 OVC200
                       TEMPO 2002/2006 5SM SHRA BKN035 OVC050 FM200600
                       19006KT P6SM -SHRA BKN035 OVC050 FM200900
                       19006KT P6SM OVC025 FM201800 21011KT P6SM
                       -SHRA BKN035 BKN050=
201704192110 KSEA 192110Z 1921/2024 14008KT P6SM VCSH FEW008 SCT050 BKN100
                      TEMPO 1921/2001 5SM SHRA FEW008 BKN035 OVC050
                       FM200300 19006KT P6SM SCT035 BKN060 BKN200
                       TEMPO 2003/2007 -SHRA FM200900 17006KT P6SM
                       OVC025 FM201800 20011KT P6SM -SHRA BKN035
                       BKN050=
201704191731 TAF KSEA 191731Z 1918/2024 20011KT P6SM -RA SCT035 OVC050 FM200300
                       19006KT P6SM SCT035 BKN060 BKN200
                      TEMPO 2003/2007 -SHRA FM200900 17006KT P6SM
                       OVC025 FM201800 20011KT P6SM -SHRA BKN035
                       BKN050=
201704191421 KSEA 191421Z 1914/2018 12007KT P6SM FEW035 BKN070 OVC130 FM191800
                       17011KT P6SM -RA SCT035 OVC050 FM192000
                       20011KT P6SM -RA OVC035 FM200200 20010KT
                       P6SM -SHRA BKN030=
201704191120 TAF KSEA 191120Z 1912/2018 12007KT P6SM SCT040 BKN080 OVC150 FM191600
                       12007KT P6SM BKN040 OVC080 FM192000 16010KT
                       P6SM -RA OVC040 FM200200 20010KT P6SM -SHRA
                       BKN030=
201704190921 KSEA 190921Z 1909/2012 14006KT P6SM SCT080 BKN150 FM191600 14008KT
                       P6SM SCT040 BKN080 OVC150 FM192000 18012KT
                       P6SM -RA OVC040 FM200200 20012KT P6SM -SHRA
                       BKN025 BKN040=
201704190520 TAF KSEA 190520Z 1906/2012 12008KT P6SM BKN040 BKN200 FM192000
                       18012KT P6SM -RA OVC040 FM200200 20012KT
                       P6SM -SHRA BKN025 BKN040=
201704190314 KSEA 190314Z 1903/2006 14006KT P6SM BKN050 BKN200 FM192000 18012KT
                       P6SM -RA OVC040 FM200200 20012KT P6SM -SHRA
                       BKN025 BKN040=
201704182320 TAF KSEA 182320Z 1900/2006 18008KT P6SM FEW040 SCT070 BKN120
                      TEMPO 1900/1902 -SHRA BKN040 BKN070 FM190400
                       17008KT P6SM SCT060 SCT120 FM191300 13006KT
                       P6SM BKN070 OVC120 FM192100 20012KT P6SM
                       -RA OVC050=
201704182103 KSEA 182103Z 1821/1924 21010KT P6SM FEW025 SCT035 SCT100
                      TEMPO 1822/1902 -SHRA BKN035 BKN050 FM190400
                       17008KT P6SM SCT060 SCT120 FM191300 13006KT
                       P6SM BKN070 OVC120=
201704181723 TAF KSEA 181723Z 1818/1924 18012G20KT P6SM FEW020 BKN050 BKN080
                       TEMPO 1822/1902 -SHRA SCT020 BKN035 OVC050
                       FM190400 17008KT P6SM SCT060 SCT120 FM191300
                       13006KT P6SM BKN070 OVC120=
201704181503 KSEA 181503Z 1815/1918 17008KT P6SM SCT030 BKN045 OVC080
                      TEMPO 1815/1819 -SHRA BKN030 OVC045 FM181900
                       17010KT P6SM VCSH BKN040 BKN080 FM190400
                       20010KT P6SM VCSH BKN050 BKN100=
201704181120 TAF KSEA 181120Z 1812/1918 16006KT P6SM VCSH BKN050 BKN100
                      TEMPO 1813/1815 4SM SHRA BR OVC040 FM182000
                       17010KT P6SM VCSH BKN040 OVC080 FM190400
                       20010KT P6SM VCSH BKN050 BKN100=
201704180520 TAF KSEA 180520Z 1806/1912 18008KT P6SM VCSH BKN050 BKN100 FM182000
                       19012KT P6SM -RA BKN040 OVC080 FM190400
                       21012KT P6SM VCSH BKN050 BKN100=
201704180308 KSEA 180308Z 1803/1906 14010KT P6SM -RA OVC040 FM181600 19012KT
                       P6SM -RA BKN035 OVC050 FM182200 21014G20KT
                       P6SM SCT035 BKN060=
201704172320 TAF KSEA 172320Z 1800/1906 23010G18KT P6SM -RA FEW035 OVC060 FM180200
                       19010KT P6SM -SHRA BKN035 BKN050 FM180500
                       17010KT P6SM SCT035 BKN050 FM181600 19012KT
                       P6SM -RA BKN035 OVC050 FM182200 21014G20KT
                       P6SM SCT035 BKN060=
201704172101 KSEA 172101Z 1721/1824 22010KT P6SM SCT045 BKN070 BKN100 FM172300
                       19012KT P6SM -RA BKN035 OVC050 FM180200
                       19010KT P6SM -SHRA BKN035 BKN050 FM180500
                       17010KT P6SM SCT035 BKN050 FM181800 19012KT
                       P6SM -RA BKN030 OVC050=
201704171721 TAF KSEA 171721Z 1718/1824 20010KT P6SM SCT040 BKN070 BKN100 FM172300
                       19012KT P6SM -RA BKN035 OVC050 FM180200
                       19010KT P6SM -SHRA BKN035 BKN050 FM180500
                       17010KT P6SM SCT035 BKN050 FM181800 19012KT
                       P6SM -RA BKN030 OVC050=
201704171501 KSEA 171501Z 1715/1818 18006KT P6SM SCT050 BKN100 FM171900 19010KT
                       P6SM OVC050 FM172200 19012KT P6SM -RA OVC035
                       FM180600 15008KT P6SM SCT035 BKN060 FM181200
                       15008KT P6SM -RA BKN035 OVC050=
201704171135 TAF KSEA 171135Z 1712/1818 19008KT P6SM OVC080 FM171800 19008KT
                       P6SM OVC050 FM172100 17008KT P6SM -RA OVC035
                       FM180600 15008KT P6SM SCT035 BKN060 FM181200
                       15008KT P6SM -RA BKN035 OVC050=
201704170915 KSEA 170915Z 1709/1812 17006KT P6SM OVC080 FM171300 17008KT P6SM
                       OVC050 FM172100 19008KT P6SM -RA OVC035
                       FM180600 16008KT P6SM SCT035 BKN060=
201704170540 TAF KSEA 170540Z 1706/1812 13008KT P6SM OVC100 FM171200 17008KT
                       P6SM OVC050 FM172100 19008KT P6SM -RA OVC035
                       FM180600 16008KT P6SM SCT035 BKN060=
201704170303 TAF AMD KSEA 170303Z 1703/1806 13010KT P6SM OVC100 FM170800 18008KT
                       P6SM -RA OVC050 FM171200 19008KT P6SM OVC025
                       FM171800 19012KT P6SM OVC035=
201704162322 TAF KSEA 162322Z 1700/1806 13010KT P6SM SCT100 OVC200 FM170500
                       15006KT P6SM BKN070 OVC100 FM170800 18008KT
                       P6SM -RA OVC050 FM171200 19008KT P6SM OVC025
                       FM171800 19012KT P6SM OVC035=
201704162101 TAF AMD KSEA 162101Z 1621/1724 11012KT P6SM FEW100 BKN200 FM170300
                       13010KT P6SM BKN090 OVC200 FM170800 18008KT
                       P6SM -RA OVC050 FM171200 19008KT P6SM -RA
                       OVC025 FM171800 19012KT P6SM OVC035=
201704161720 TAF KSEA 161720Z 1618/1724 01014KT P6SM FEW100 BKN220 FM170300
                       01008KT P6SM BKN090 OVC200 FM170800 18008KT
                       P6SM -RA OVC050 FM171200 19008KT P6SM -RA
                       OVC025 FM171800 19012KT P6SM OVC035=
201704161500 KSEA 161500Z 1615/1718 02014KT P6SM FEW090 BKN200 FM170300 01008KT
                       P6SM BKN090 OVC200 FM171100 18008KT P6SM
                       OVC050=
201704161120 TAF KSEA 161120Z 1612/1718 01014KT P6SM BKN200 FM170300 01008KT
                       P6SM BKN100 OVC200 FM171100 18008KT P6SM
                       OVC050=
201704160538 TAF KSEA 160538Z 1606/1712 03010KT P6SM SKC FM161800 01014G20KT
                       P6SM BKN200 FM170300 01008KT P6SM BKN100
                       OVC200 FM171100 18008KT P6SM OVC050=
201704160333 KSEA 160333Z 1604/1706 03010KT P6SM SKC FM161800 01014G20KT P6SM
                       BKN200 FM170300 01008KT P6SM BKN100 OVC200=
201704152326 TAF KSEA 152326Z 1600/1706 34008KT P6SM SCT060 FM160300 03010KT
                       P6SM SKC FM161800 01014G20KT P6SM BKN200=
201704152102 KSEA 152102Z 1521/1624 21008KT P6SM BKN050 FM152300 34006KT P6SM
                       SCT050 FM160300 03010KT P6SM SKC=
201704151727 TAF KSEA 151727Z 1518/1624 19008KT P6SM FEW040 SCT120 FM151900
                       22005KT P6SM BKN045 BKN120 FM152300 34006KT
                       P6SM SCT050 FM160300 03010KT P6SM SKC=
201704151503 KSEA 151503Z 1515/1618 20006KT P6SM SCT070 BKN220 FM151800 24005KT
                       P6SM BKN045 BKN070 FM152300 34006KT P6SM
                       SCT050 FM160300 03008KT P6SM SKC=
201704151123 TAF KSEA 151123Z 1512/1618 18008KT P6SM SCT035 BKN080 FM151800
                       24005KT P6SM BKN045 BKN070 FM152300 34006KT
                       P6SM SCT050 FM160300 03008KT P6SM SKC=
201704150902 KSEA 150902Z 1509/1612 18008KT P6SM SCT035 SCT080 FM151700 24005KT
                       P6SM BKN045 BKN070 FM152200 33005KT P6SM
                       SCT050 FM160300 03008KT P6SM SKC=
201704150540 TAF KSEA 150540Z 1506/1612 18008KT P6SM SCT035 SCT080 FM151700
                       24005KT P6SM BKN045 BKN070 FM152200 33005KT
                       P6SM SCT050 FM160300 03008KT P6SM SKC=
201704150302 KSEA 150302Z 1503/1606 19014KT P6SM FEW040 BKN100 FM150700 19008KT
                       P6SM SCT040 SCT100 FM151300 19005KT P6SM
                       BKN025 BKN035 FM151900 24005KT P6SM BKN040
                       FM152200 33005KT P6SM SCT050=
201704142320 TAF KSEA 142320Z 1500/1606 21012KT P6SM VCSH SCT040 BKN100 FM150200
                       19007KT P6SM FEW040 SCT100 FM151300 19005KT
                       P6SM BKN025 BKN035 FM151900 24005KT P6SM
                       BKN040 FM152200 33005KT P6SM SCT050=
201704142100 KSEA 142100Z 1421/1524 21012G20KT P6SM BKN035 BKN200
                      TEMPO 1421/1424 -SHRA BKN025 OVC035 FM150300
                       19007KT P6SM SCT035 BKN060 FM151300 19005KT
                       P6SM BKN025 BKN035 FM151900 24005KT P6SM
                       BKN040 FM152200 33005KT P6SM SCT050=
201704141721 TAF KSEA 141721Z 1418/1524 20010KT P6SM BKN025 BKN100 FM142000
                       21012KT P6SM BKN035 BKN100
                      TEMPO 1420/1424 -SHRA BKN025 OVC035 FM150300
                       19007KT P6SM SCT035 BKN060 FM151300 19005KT
                       P6SM BKN025 BKN035 FM151900 24005KT P6SM
                       BKN040 FM152200 33005KT P6SM SCT050=
201704141433 KSEA 141433Z 1415/1518 19008KT P6SM FEW015 BKN025 FM141800 20010KT
                       P6SM BKN035 FM142000 21013KT P6SM VCSH BKN035
                       FM150300 19007KT P6SM SCT035 BKN060 FM151000
                       19005KT P6SM BKN035=
201704141128 TAF KSEA 141128Z 1412/1518 18008KT P6SM SCT035 BKN045 FM141600
                       18006KT P6SM BKN035 FM142000 21013KT P6SM
                       VCSH BKN035 FM150300 19007KT P6SM SCT035
                       BKN060 FM151000 19005KT P6SM BKN035=
201704140542 TAF KSEA 140542Z 1406/1512 17007KT P6SM SCT060 BKN250 FM141200
                       18008KT P6SM BKN025 OVC050 FM141600 18006KT
                       P6SM BKN035 FM142000 21013KT P6SM VCSH BKN035
                       FM150300 19007KT P6SM SCT035 BKN060=
201704140307 KSEA 140307Z 1403/1506 18006KT P6SM SCT060 BKN250 FM141200 18008KT
                       P6SM BKN025 OVC050 FM141600 18006KT P6SM
                       BKN035 FM142000 21013KT P6SM VCSH BKN035=
201704132320 TAF KSEA 132320Z 1400/1506 22012G22KT P6SM FEW030 BKN080
                      TEMPO 1400/1401 -SHRA BKN030 OVC060 FM140100
                       20009KT P6SM SCT035 BKN100 FM141200 18008KT
                       P6SM BKN025 OVC050 FM141600 18006KT P6SM
                       BKN035 FM142000 21013KT P6SM VCSH BKN035=
201704132102 KSEA 132102Z 1321/1424 22014G24KT P6SM FEW030 BKN080
                      TEMPO 1321/1401 -SHRA BKN030 OVC060 FM140100
                       20009KT P6SM SCT035 BKN100 FM141200 18008KT
                       P6SM BKN025 OVC050 FM141600 18006KT P6SM
                       BKN035 FM142000 21013KT P6SM VCSH BKN035=
201704131916 TAF KSEA 131916Z 1319/1424 20008KT P6SM -SHRA SCT030 OVC060 FM132000
                       20013G20KT P6SM -SHRA SCT030 OVC060
                      TEMPO 1320/1324 -SHRA BKN030 OVC060 FM140000
                       20009KT P6SM VCSH BKN035 BKN060 BKN100 FM141200
                       18008KT P6SM BKN025 OVC050 FM141600 18006KT
                       P6SM BKN035 FM142000 21013KT P6SM VCSH BKN035=
201704131749 KSEA 131749Z 1318/1424 20008KT P6SM -SHRA SCT030 OVC060 FM132000
                       20013G20KT P6SM -SHRA SCT030 OVC060
                      TEMPO 1320/1324 -SHRA BKN030 OVC060 FM140000
                       20009KT P6SM VCSH BKN035 BKN060 BKN100 FM141200
                       18008KT P6SM BKN025 OVC050 FM141600 18006KT
                       P6SM BKN035 FM142000 21013KT P6SM VCSH BKN035=
201704131740 TAF KSEA 131740Z 1318/1424 20013G20KT P6SM -SHRA SCT030 OVC060
                       TEMPO 1320/1324 -SHRA BKN030 OVC060 FM140000
                       20009KT P6SM VCSH BKN035 BKN060 BKN100 FM141200
                       18008KT P6SM BKN025 OVC050 FM141600 18006KT
                       P6SM BKN035 FM142000 21013KT P6SM VCSH BKN035=
201704131501 KSEA 131501Z 1315/1418 16008KT P6SM BKN050 FM131800 20013G20KT
                       P6SM -SHRA SCT030 OVC060
                      TEMPO 1320/1324 -SHRA BKN030 OVC060 FM140000
                       20009KT P6SM VCSH BKN035 BKN060 BKN100 FM140600
                       19008KT P6SM VCSH BKN035 OVC060 FM141200
                       18008KT P6SM BKN025 OVC050 FM141600 18006KT
                       P6SM BKN035=
201704131139 TAF KSEA 131139Z 1312/1418 18006KT P6SM BKN040 OVC050 FM131800
                       20013G20KT P6SM -SHRA BKN028 OVC060 FM140000
                       20009KT P6SM VCSH BKN035 BKN060 BKN100 FM140600
                       19008KT P6SM VCSH BKN035 OVC060 FM141200
                       18008KT P6SM BKN025 OVC050 FM141600 18006KT
                       P6SM BKN035=
201704130841 KSEA 130841Z 1309/1412 23010KT P6SM -RA BKN030 OVC040 FM131200
                       17011KT P6SM -SHRA BKN035 BKN050 OVC100
                       FM131800 20013G20KT P6SM -SHRA BKN028 OVC050
                       FM140000 20009KT P6SM VCSH BKN035 BKN060
                       BKN100
                      PROB30 1400/1406 -SHRA FM140600 19008KT P6SM
                       VCSH BKN035 OVC060=
201704130539 TAF KSEA 130539Z 1306/1412 16005KT P6SM -RA SCT005 OVC015 FM130900
                       20010KT P6SM -SHRA BKN035 OVC050 FM131200
                       17011KT P6SM -SHRA BKN035 BKN050 OVC100
                       FM131800 20013G20KT P6SM -SHRA BKN028 OVC050
                       FM140000 20009KT P6SM VCSH BKN035 BKN060
                       BKN100
                      PROB30 1400/1406 -SHRA FM140600 19008KT P6SM
                       VCSH BKN035 OVC060=
201704122343 TAF KSEA 122343Z 1300/1406 28006KT P6SM -SHRA SCT035 BKN060 BKN100
                       FM130300 19009KT P6SM -SHRA BKN035 OVC050
                       FM130600 19009KT P6SM -SHRA SCT012 OVC028
                       FM131200 17011KT P6SM -SHRA BKN035 BKN050
                       OVC100 FM131800 20013G20KT P6SM -SHRA BKN028
                       OVC050 FM140000 20009KT P6SM VCSH BKN035
                       BKN060 BKN100
                      PROB30 1400/1406 -SHRA=
201704122103 KSEA 122103Z 1221/1324 19009KT P6SM VCSH SCT030 BKN060 BKN100
                      TEMPO 1221/1224 -SHRA BKN030 OVC060 FM130000
                       19007KT P6SM -SHRA SCT028 BKN060 OVC100
                       FM130600 17008KT P6SM -SHRA SCT012 OVC028
                       FM131200 17011KT P6SM -SHRA BKN035 BKN050
                       OVC100 FM131800 20013G20KT P6SM -SHRA BKN028
                       OVC050=
201704122013 KSEA 122013Z 1220/1324 20013KT P6SM -SHRA SCT028 BKN060 BKN100
                       FM130000 19007KT P6SM -SHRA SCT028 BKN060
                       OVC100 FM130600 17008KT P6SM -SHRA SCT012
                       OVC028 FM131200 17011KT P6SM -SHRA BKN035
                       BKN050 OVC100 FM131800 20013G20KT P6SM -SHRA
                       BKN028 OVC050=
201704121734 TAF KSEA 121734Z 1218/1324 17013KT P6SM -SHRA SCT020 BKN050 OVC100
                       TEMPO 1218/1220 6SM SHRA BKN020 OVC040 FM122000
                       20013G20KT P6SM -SHRA SCT028 BKN060 OVC100
                       FM130000 19007KT P6SM -SHRA SCT028 BKN060
                       OVC100 FM130600 17008KT P6SM -SHRA SCT012
                       OVC028 FM131200 17011KT P6SM -SHRA BKN035
                       BKN050 OVC100 FM131800 20013G20KT P6SM -SHRA
                       BKN028 OVC050=
201704121416 KSEA 121416Z 1214/1318 17011KT P6SM -RA SCT022 OVC035
                      TEMPO 1214/1218 5SM RA BR BKN022 OVC035 FM122000
                       20013G20KT P6SM -SHRA BKN035 OVC050 FM130000
                       23007KT P6SM -SHRA SCT035 BKN050 BKN100
                       FM131200 18008KT P6SM -SHRA BKN025 OVC040=
201704121128 TAF KSEA 121128Z 1212/1318 04008KT 5SM -RA BR OVC050 FM121500 14011KT
                       P6SM -RA OVC025 FM122000 20013G20KT P6SM
                       -SHRA BKN035 OVC050 FM130000 23007KT P6SM
                       -SHRA SCT035 BKN050 BKN100 FM131200 18008KT
                       P6SM -SHRA BKN025 OVC040=
201704120907 KSEA 120907Z 1209/1312 VRB04KT P6SM -RA OVC045 FM121200 05004KT
                       P6SM -RA OVC035 FM121500 14011KT P6SM -RA
                       OVC025 FM122000 20013G20KT P6SM -SHRA BKN035
                       OVC050 FM130000 17007KT P6SM -SHRA SCT035
                       BKN050 BKN100=
201704120541 TAF KSEA 120541Z 1206/1312 35005KT P6SM OVC090 FM120800 03010KT
                       P6SM -RA SCT035 BKN060 OVC120 FM121200 05004KT
                       P6SM -RA OVC035 FM121500 14011KT P6SM -RA
                       OVC025 FM122000 20013G20KT P6SM -SHRA BKN035
                       OVC050 FM130000 17007KT P6SM -SHRA SCT035
                       BKN050 BKN100=
201704120304 TAF AMD KSEA 120304Z 1203/1306 35005KT P6SM OVC090 FM120600 03010KT
                       P6SM -RA SCT035 BKN060 OVC120 FM121200 05004KT
                       P6SM -RA OVC035 FM121500 17011KT P6SM -RA
                       OVC025 FM122000 20013G20KT P6SM -SHRA BKN035
                       OVC050 FM130000 17007KT P6SM -SHRA SCT035
                       BKN050 BKN100=
201704112339 TAF KSEA 112339Z 1200/1306 01014KT P6SM FEW060 SCT120 OVC200 FM120600
                       03010KT P6SM -RA SCT035 BKN060 OVC120 FM121200
                       05004KT P6SM -RA OVC035 FM121500 17011KT
                       P6SM -RA OVC025 FM122000 20013G20KT P6SM
                       -SHRA BKN035 OVC050 FM130000 17007KT P6SM
                       -SHRA SCT035 BKN050 BKN100=
201704112106 KSEA 112106Z 1121/1224 36014KT P6SM FEW120 OVC200
                      TEMPO 1121/1124 36015G23KT FM120000 01014KT
                       P6SM SCT060 OVC120 FM120300 03011KT P6SM
                       -RA OVC060 FM120900 05009KT P6SM -RA SCT025
                       OVC040 FM121200 05004KT P6SM -RA OVC025
                       FM121500 17011KT P6SM -RA OVC025 FM122000
                       20013G22KT P6SM -SHRA BKN035 OVC050=
201704111721 TAF KSEA 111721Z 1118/1224 36014KT P6SM FEW120 OVC200
                      TEMPO 1120/1124 36015G23KT FM120000 01014KT
                       P6SM SCT060 OVC120 FM120300 03011KT P6SM
                       -RA OVC060 FM120900 05009KT P6SM -RA SCT025
                       OVC040 FM121200 05004KT P6SM -RA OVC025
                       FM121500 17011KT P6SM -RA OVC025 FM122000
                       20013G22KT P6SM -SHRA BKN035 OVC050=
201704111421 KSEA 111421Z 1114/1218 06005KT P6SM SCT250 FM111800 01011KT P6SM
                       BKN250 FM112100 36014G22KT P6SM SCT120 OVC200
                       FM120200 01012KT P6SM SCT070 OVC120 FM120600
                       01010KT P6SM -RA SCT030 OVC070 FM121000
                       02010KT P6SM -RA BKN030 OVC050=
201704111141 TAF KSEA 111141Z 1112/1218 06005KT P6SM SKC FM111500 03007KT P6SM
                       SCT200 FM111800 01011KT P6SM BKN200 FM112100
                       36014G22KT P6SM SCT120 OVC200 FM120200 01012KT
                       P6SM SCT070 OVC120 FM120600 01010KT P6SM
                       -RA SCT030 OVC070 FM121000 02010KT P6SM
                       -RA BKN030 OVC050=
201704110929 KSEA 110929Z 1109/1212 13005KT P6SM FEW060 FM111200 07005KT P6SM
                       SCT022 SCT200 FM111800 01011KT P6SM BKN200
                       FM112100 35014G22KT P6SM SCT120 OVC200 FM120200
                       01013KT P6SM SCT070 OVC120 FM120600 01010KT
                       P6SM -RA SCT030 OVC070=
201704110547 TAF KSEA 110547Z 1106/1212 18009KT P6SM SCT040 BKN120 FM111200
                       07005KT P6SM SCT022 SCT200 FM111800 01011KT
                       P6SM BKN200 FM112100 35014G22KT P6SM SCT120
                       OVC200 FM120200 01013KT P6SM SCT070 OVC120
                       FM120600 01010KT P6SM -RA SCT030 OVC070=
201704110307 KSEA 110307Z 1103/1206 21012KT P6SM FEW025 BKN050
                      TEMPO 1103/1105 21013G22KT -SHRA FEW015 BKN025
                       OVC050 FM110600 19009KT P6SM SCT050 SCT200
                       FM111200 07005KT P6SM SCT022 SCT200 FM111800
                       01011KT P6SM BKN200 FM112100 35014G22KT
                       P6SM SCT120 OVC200 FM120200 01013KT P6SM
                       SCT070 OVC120
                      PROB30 1202/1206 -RA OVC070=
201704102320 TAF KSEA 102320Z 1100/1206 21013KT P6SM FEW028 SCT035 BKN200
                      TEMPO 1100/1103 21013G22KT -SHRA FEW028 BKN035
                       OVC050 FM110600 19009KT P6SM SCT050 SCT200
                       FM111200 07005KT P6SM SCT022 SCT200 FM111800
                       01011KT P6SM BKN200 FM112100 35014G22KT
                       P6SM SCT120 OVC200 FM120200 01013KT P6SM
                       SCT070 OVC120
                      PROB30 1202/1206 -RA OVC070=
201704102015 KSEA 102015Z 1020/1124 20013KT P6SM VCSH SCT028 BKN060
                      TEMPO 1020/1024 20013G22KT 5SM SHRA BKN028
                       OVC060 FM110300 19013KT P6SM SCT035 BKN070
                       FM110600 19009KT P6SM BKN070 BKN200 FM111200
                       13005KT P6SM SCT022 SCT070 SCT200 FM111800
                       01012KT P6SM FEW110 BKN200=
201704101727 TAF KSEA 101727Z 1018/1124 19010KT P6SM -SHRA SCT025 OVC060 FM102000
                       20013KT P6SM -SHRA SCT025 BKN050
                      TEMPO 1020/1024 20013G22KT 3SM SHRA BKN025
                       OVC050 FM110300 19013KT P6SM SCT035 BKN070
                       FM110600 19009KT P6SM BKN070 BKN200 FM111200
                       13005KT P6SM SCT022 SCT070 SCT200 FM111800
                       01012KT P6SM FEW110 BKN200=
201704101419 KSEA 101419Z 1014/1118 18010KT P6SM FEW012 BKN050 BKN200 FM101800
                       21014G22KT 6SM -SHRA SCT025 BKN035 OVC050
                       FM110300 19012KT P6SM VCSH SCT020 BKN035
                       FM110900 17006KT P6SM SCT015 BKN025 FM111400
                       02006KT P6SM SCT020 BKN030=
201704101121 TAF KSEA 101121Z 1012/1118 18010KT P6SM SCT025 OVC035
                      TEMPO 1012/1016 -SHRA BKN025 OVC035 FM101600
                       20012KT P6SM VCSH SCT025 BKN040 FM101800
                       21014G22KT 6SM -SHRA SCT025 BKN035 OVC050
                       FM110300 19012KT P6SM VCSH SCT020 BKN035
                       FM110900 17006KT P6SM SCT015 BKN025 FM111400
                       02006KT P6SM SCT020 BKN030=
201704100905 KSEA 100905Z 1009/1112 18008KT P6SM -RA BKN025 OVC040 FM101200
                       18012G20KT P6SM -SHRA BKN025 OVC040 FM101800
                       21014G22KT 6SM -SHRA SCT025 BKN035 OVC050
                       FM110300 19009KT P6SM VCSH SCT020 BKN035
                       FM111100 17006KT P6SM SCT015 BKN025=
201704100523 TAF KSEA 100523Z 1006/1112 17008KT P6SM -RA SCT030 OVC045 FM101100
                       18012G20KT P6SM VCSH BKN025 OVC040 FM101800
                       21014G22KT 6SM -SHRA SCT025 BKN035 OVC050
                       FM110300 19009KT P6SM VCSH SCT020 BKN035
                       FM111100 17006KT P6SM SCT015 BKN025=
201704100312 KSEA 100312Z 1003/1106 15005KT P6SM BKN050 OVC100 FM100500 17008KT
                       P6SM -RA SCT030 OVC045 FM101100 18012G20KT
                       P6SM VCSH BKN025 OVC040 FM101800 21014G22KT
                       6SM -SHRA SCT025 BKN035 OVC050 FM110300
                       19009KT P6SM VCSH SCT018 BKN030=
201704092338 TAF KSEA 092338Z 1000/1106 15005KT P6SM BKN070 OVC150 FM100500
                       17008KT P6SM -SHRA SCT035 OVC060 FM101100
                       18012G20KT P6SM VCSH BKN025 OVC040 FM101800
                       21014G22KT 6SM -SHRA SCT025 BKN035 OVC050
                       FM110300 19009KT P6SM VCSH SCT018 BKN030=
201704092117 KSEA 092117Z 0921/1024 18004KT P6SM SCT045 BKN150 FM100600 17008KT
                       P6SM -SHRA SCT025 OVC060 FM101200 18012KT
                       P6SM VCSH BKN025 OVC040 FM101800 20012G20KT
                       6SM -SHRA SCT025 BKN035 OVC050=
201704091738 TAF KSEA 091738Z 0918/1024 16006KT P6SM SCT040 BKN070 FM092200
                       15006KT P6SM SCT070 BKN150 FM100600 17008KT
                       P6SM -SHRA SCT025 OVC060 FM101200 18012KT
                       P6SM VCSH BKN025 OVC040 FM101800 20012G20KT
                       6SM -SHRA SCT025 BKN035 OVC050=
201704091506 KSEA 091506Z 0915/1018 16006KT P6SM SCT040 SCT070 FM092200 19006KT
                       P6SM SCT070 BKN150 FM100700 16006KT P6SM
                       -RA OVC050 FM101200 18008KT P6SM -RA OVC025=
201704091236 KSEA 091236Z 0913/1018 18008KT P6SM SCT045 FM091400 16006KT P6SM
                       SCT045 BKN200 FM092200 21006KT P6SM SCT045
                       BKN100 FM100600 16006KT P6SM -RA OVC045
                       FM101200 18008KT P6SM -RA OVC025=
201704091122 TAF KSEA 091122Z 0912/1018 18008KT P6SM SCT045 FM091400 16006KT
                       P6SM SCT045 BKN200 FM092200 06006KT P6SM
                       SCT045 BKN100 FM100600 16006KT P6SM -RA
                       OVC045 FM101200 18008KT P6SM -RA OVC025=
201704090903 KSEA 090903Z 0909/1012 19008KT P6SM SCT045 FM091400 16006KT P6SM
                       SCT045 BKN200 FM092200 06006KT P6SM SCT045
                       BKN100 FM100600 16006KT P6SM -RA OVC045
                       FM101100 18008KT P6SM -RA OVC025=
201704090534 TAF KSEA 090534Z 0906/1012 19008KT P6SM SCT045 FM091400 16006KT
                       P6SM SCT045 BKN200 FM092200 06006KT P6SM
                       SCT045 BKN100 FM100500 16006KT P6SM -RA
                       OVC045 FM101100 18008KT P6SM -RA OVC025=
201704090302 KSEA 090302Z 0903/1006 20010KT P6SM BKN045 BKN070 FM090600 18008KT
                       P6SM SCT045 SCT200 FM091400 15006KT P6SM
                       SCT050 BKN200 FM092300 33006KT P6SM SCT050
                       BKN100 FM100400 16006KT P6SM -RA OVC045=
201704082337 TAF KSEA 082337Z 0900/1006 20012KT P6SM BKN045 BKN070 FM090600
                       18008KT P6SM SCT050 SCT200 FM091400 15006KT
                       P6SM SCT050 BKN200 FM092300 33006KT P6SM
                       SCT050 BKN100 FM100400 16006KT P6SM -RA
                       OVC045=
201704082122 KSEA 082122Z 0821/0924 20012G20KT P6SM VCSH SCT030 BKN045 BKN070
                       FM090300 20010KT P6SM BKN045 FM090600 19008KT
                       P6SM SCT045 FM091300 17006KT P6SM BKN040
                       FM091800 29010KT P6SM SCT030 BKN050=
201704081728 TAF KSEA 081728Z 0818/0924 20012G20KT P6SM VCSH SCT030 BKN040
                      TEMPO 0818/0820 -SHRA BKN025 OVC035 FM082000
                       20012G20KT P6SM VCSH SCT030 BKN045 FM090300
                       20010KT P6SM BKN045 FM090600 19008KT P6SM
                       SCT045 FM091300 17006KT P6SM BKN040 FM091800
                       29010KT P6SM SCT030 BKN050=
201704081442 KSEA 081442Z 0815/0918 20009KT P6SM SCT120 BKN200 FM081600 19012G20KT
                       P6SM BKN040
                      TEMPO 0816/0820 -SHRA BKN025 OVC035 FM082000
                       20012G20KT P6SM VCSH SCT030 BKN045 FM090300
                       20010KT P6SM VCSH BKN045 FM090700 16008KT
                       P6SM SCT045 FM091300 16006KT P6SM BKN035=
201704081301 KSEA 081301Z 0813/0918 19010KT P6SM SCT030 BKN060
                      TEMPO 0813/0816 -SHRA BKN020 OVC035 FM081600
                       19012G20KT P6SM SCT020 BKN035
                      TEMPO 0816/0820 -SHRA BKN025 OVC035 FM082000
                       20012G20KT P6SM VCSH SCT030 BKN045 FM090300
                       20010KT P6SM VCSH BKN045 FM090700 16008KT
                       P6SM SCT045 FM091300 16006KT P6SM BKN035=
201704081121 TAF KSEA 081121Z 0812/0918 19012G20KT P6SM SCT020 BKN035
                      TEMPO 0812/0816 -SHRA BKN020 OVC035 FM081600
                       19012G20KT P6SM SCT020 BKN035
                      TEMPO 0816/0820 -SHRA BKN025 OVC035 FM082000
                       20012G20KT P6SM VCSH SCT030 BKN045 FM090300
                       20010KT P6SM VCSH BKN045 FM090700 16008KT
                       P6SM SCT045 FM091300 16006KT P6SM BKN035=
201704080901 KSEA 080901Z 0809/0912 19012G20KT P6SM SCT025 BKN040
                      TEMPO 0809/0810 -SHRA BKN025 OVC040 FM081000
                       19012G20KT P6SM SCT020 BKN035
                      TEMPO 0810/0814 -SHRA BKN020 OVC035 FM081400
                       19012G20KT P6SM -SHRA BKN025 OVC035 FM082100
                       20012G20KT P6SM VCSH SCT030 BKN045 FM090300
                       20010KT P6SM VCSH BKN045 FM090700 16010KT
                       P6SM SCT045=
201704080531 TAF KSEA 080531Z 0806/0912 19014G25KT P6SM SCT025 BKN040
                      TEMPO 0806/0810 -SHRA BKN025 OVC040 FM081000
                       19012G20KT P6SM SCT020 BKN035
                      TEMPO 0810/0814 -SHRA BKN020 OVC035 FM081400
                       19012G20KT P6SM -SHRA BKN025 OVC035 FM082100
                       20012G20KT P6SM VCSH SCT030 BKN045 FM090300
                       20010KT P6SM VCSH BKN045 FM090700 16010KT
                       P6SM SCT045=
201704080306 KSEA 080306Z 0803/0906 19020G30KT P6SM -SHRA SCT025 BKN040 OVC060
                       FM081200 19012G20KT P6SM VCSH SCT020 BKN030
                       FM082100 20012G20KT P6SM VCSH SCT030 BKN045
                       FM090300 20010KT P6SM VCSH BKN050=
201704072337 TAF KSEA 072337Z 0800/0906 17025G35KT P6SM -SHRA SCT030 OVC060
                       FM080200 19020G30KT P6SM -SHRA SCT025 BKN040
                       OVC060 FM081200 19012G20KT P6SM VCSH SCT020
                       BKN030 FM082100 20012G20KT P6SM VCSH SCT030
                       BKN045 FM090300 20010KT P6SM VCSH BKN050=
201704072103 KSEA 072103Z 0721/0824 18023G35KT 6SM -SHRA SCT030 BKN060 OVC100
                       FM080200 19018G28KT P6SM -SHRA SCT025 BKN040
                       OVC060 FM081200 19012G20KT P6SM VCSH SCT020
                       BKN035 FM082100 20011G18KT P6SM VCSH SCT030
                       BKN045=
201704071723 TAF KSEA 071723Z 0718/0824 17020G30KT P6SM VCSH SCT040 BKN060 OVC090
                       FM072100 18023G35KT 6SM -SHRA SCT035 BKN060
                       FM080200 19018G28KT P6SM -SHRA SCT025 BKN040
                       OVC060 FM081200 19012G20KT P6SM VCSH SCT020
                       BKN035 FM082100 20011G18KT P6SM VCSH SCT030
                       BKN045=
201704071452 KSEA 071452Z 0715/0818 17014G24KT P6SM VCSH SCT030 BKN060 OVC090
                       TEMPO 0715/0716 6SM -SHRA BR FM072000 19022G32KT
                       P6SM -SHRA SCT035 BKN060 FM080200 20012G22KT
                       P6SM VCSH BKN035 OVC050 FM080600 17012KT
                       P6SM BKN025 OVC050 FM081000 18010KT P6SM
                       VCSH BKN025 OVC050=
201704071120 TAF KSEA 071120Z 0712/0818 08007KT P6SM -RA SCT025 OVC050
                      TEMPO 0712/0716 4SM RA BR BKN025 OVC050 FM071600
                       12015G25KT P6SM -RA BKN020 OVC040 FM072000
                       18020G30KT P6SM -SHRA BKN020 BKN040 FM080200
                       20012G22KT P6SM VCSH BKN025 BKN050 FM080600
                       17012KT P6SM BKN025 OVC050 FM081000 18010KT
                       P6SM VCSH BKN025 OVC050=
201704070818 KSEA 070818Z 0708/0812 03012KT P6SM BKN090 OVC200
                      TEMPO 0708/0710 35012KT -RA BKN070 OVC090
                       FM071000 08012KT P6SM -RA SCT025 OVC050
                       TEMPO 0712/0716 4SM RA BR BKN025 OVC050
                       FM071600 12015G25KT P6SM -RA BKN020 OVC040
                       FM072000 18020G30KT P6SM -SHRA BKN020 BKN040
                       FM080200 20012G22KT P6SM VCSH BKN025 BKN050
                       FM080600 17010KT P6SM BKN025 OVC050=
201704070520 TAF KSEA 070520Z 0706/0812 03012KT P6SM BKN090 OVC200 FM071000
                       08012KT P6SM -RA SCT025 OVC050
                      TEMPO 0712/0716 4SM RA BR BKN025 OVC050 FM071600
                       12015G25KT P6SM -RA BKN020 OVC040 FM072000
                       18020G30KT P6SM -SHRA BKN020 BKN040 FM080200
                       20012G22KT P6SM VCSH BKN025 BKN050=
201704070305 TAF AMD KSEA 070305Z 0703/0806 02007KT P6SM SCT050 SCT200 FM070600
                       04006KT P6SM BKN090 OVC200 FM071000 10012KT
                       P6SM -RA SCT025 OVC050
                      TEMPO 0712/0716 4SM RA BR BKN025 OVC050 FM071600
                       12015G25KT P6SM -RA BKN020 OVC040 FM072000
                       18020G30KT P6SM -SHRA BKN020 BKN040 FM080200
                       20012G22KT P6SM VCSH BKN025 BKN050=
201704062320 TAF KSEA 062320Z 0700/0806 VRB04KT P6SM SCT050 SCT200 FM070600
                       04006KT P6SM BKN090 OVC200 FM071000 10012KT
                       P6SM -RA SCT025 OVC050
                      TEMPO 0712/0716 4SM RA BR BKN025 OVC050 FM071600
                       12015G25KT P6SM -RA BKN020 OVC040 FM072000
                       18020G30KT P6SM -SHRA BKN020 BKN040 FM080200
                       20012G22KT P6SM VCSH BKN025 BKN050=
201704062103 KSEA 062103Z 0621/0724 21010KT P6SM VCSH BKN050 BKN090 FM070200
                       VRB04KT P6SM SCT050 SCT090 FM070600 04006KT
                       P6SM BKN090 FM071000 10012KT P6SM -RA SCT020
                       OVC040
                      TEMPO 0712/0716 4SM RA BR OVC030 FM071700
                       14012G22KT P6SM -RA BKN020 OVC040 FM072000
                       18020G30KT P6SM -SHRA BKN015 BKN040=
201704061720 TAF KSEA 061720Z 0618/0724 16006KT P6SM -RA SCT025 OVC040 FM062200
                       VRB04KT P6SM VCSH SCT025 BKN050 FM071000
                       12012KT P6SM -RA SCT020 OVC040 FM071700
                       16015G25KT P6SM -RA BKN020 OVC040 FM072200
                       20020G30KT P6SM -SHRA BKN015 BKN040=
201704061120 TAF KSEA 061120Z 0612/0718 VRB04KT P6SM VCSH SCT050 OVC080 FM061300
                       17007KT P6SM -RA SCT020 OVC050 FM061900
                       20009KT P6SM VCSH SCT025 BKN050
                      TEMPO 0619/0622 -SHRA BKN015 OVC025 FM070100
                       03008KT P6SM SCT035 BKN060 FM070900 11006KT
                       P6SM -RA SCT020 OVC040=
201704060903 KSEA 060903Z 0609/0712 05008KT P6SM VCSH SCT020 OVC080 FM061200
                       17010KT P6SM -RA SCT015 OVC050 FM061900
                       20009KT P6SM VCSH SCT025 BKN050
                      TEMPO 0619/0622 -SHRA BKN015 OVC025 FM070100
                       01008KT P6SM SCT035 BKN060=
201704060528 TAF KSEA 060528Z 0606/0712 19008KT P6SM VCSH SCT020 OVC080 FM061200
                       17010KT P6SM -RA SCT015 OVC050 FM061900
                       20009KT P6SM VCSH SCT025 BKN050
                      TEMPO 0619/0622 -SHRA BKN015 OVC025 FM070100
                       01008KT P6SM SCT035 BKN060=
201704060302 TAF AMD KSEA 060302Z 0603/0706 19008KT P6SM VCSH SCT030 OVC060
                       FM061000 17010KT P6SM -RA SCT025 OVC050
                       FM061900 20009KT P6SM VCSH SCT025 BKN050
                       FM070100 35008KT P6SM SCT035 BKN060=
201704052320 TAF KSEA 052320Z 0600/0706 VRB04KT P6SM VCSH SCT030 OVC060 FM061000
                       14007KT P6SM -RA SCT025 OVC050 FM061900
                       VRB04KT P6SM VCSH SCT025 BKN050=
201704051720 TAF KSEA 051720Z 0518/0624 VRB04KT P6SM -RA OVC050 FM060000 VRB04KT
                       P6SM VCSH SCT025 BKN050 BKN100 FM061000
                       14006KT P6SM -RA SCT025 OVC050=
201704051505 KSEA 051505Z 0515/0618 VRB04KT P6SM -RA OVC040 FM061200 14006KT
                       P6SM -RA BKN025 OVC040=
201704051206 KSEA 051206Z 0512/0618 15007KT P6SM -RA SCT025 OVC045
                      TEMPO 0512/0515 BKN025 OVC045 FM051500 18010KT
                       P6SM -RA OVC025 FM051800 21008KT P6SM -SHRA
                       BKN025 BKN040 FM060000 18006KT P6SM -SHRA
                       SCT025 BKN040 FM061200 14006KT P6SM -SHRA
                       BKN025 OVC040=
201704051120 TAF KSEA 051120Z 0512/0618 15012KT P6SM -RA SCT025 OVC045
                      TEMPO 0512/0515 BKN025 OVC045 FM051500 18010KT
                       P6SM -RA OVC025 FM051800 21008KT P6SM -SHRA
                       BKN025 BKN040 FM060000 18006KT P6SM -SHRA
                       SCT025 BKN040 FM061200 14006KT P6SM -SHRA
                       BKN025 OVC040=
201704050906 KSEA 050906Z 0509/0612 15012KT P6SM -RA SCT025 OVC045 FM051500
                       18010KT P6SM -RA OVC025 FM051800 21008KT
                       P6SM -SHRA BKN025 BKN040 FM060000 18006KT
                       P6SM -SHRA SCT025 BKN040 FM061100 14006KT
                       P6SM VCSH BKN025 BKN040=
201704050541 TAF KSEA 050541Z 0506/0612 18012KT P6SM -RA SCT025 OVC040 FM051200
                       18010KT P6SM -RA OVC025 FM051800 21008KT
                       P6SM -SHRA BKN025 BKN040 FM060000 18006KT
                       P6SM -SHRA SCT025 BKN040 FM061100 14006KT
                       P6SM VCSH BKN025 BKN040=
201704050301 TAF AMD KSEA 050301Z 0503/0606 19010KT P6SM -RA OVC050 FM050500
                       18012KT P6SM -RA OVC040 FM051000 18010KT
                       P6SM -RA OVC020 FM051800 21006KT P6SM -SHRA
                       BKN020 BKN040 FM060200 18006KT P6SM -RA
                       OVC020=
201704042320 TAF KSEA 042320Z 0500/0606 18008KT P6SM OVC050 FM050400 18012KT
                       P6SM -RA OVC040 FM051000 18010KT P6SM -RA
                       OVC020 FM051800 21006KT P6SM -SHRA BKN020
                       BKN040 FM060200 18006KT P6SM -RA OVC020=
201704041720 TAF KSEA 041720Z 0418/0524 00000KT P6SM OVC080 FM042200 14006KT
                       P6SM OVC050 FM050400 17012KT P6SM -RA OVC040
                       FM051000 18010KT P6SM -RA OVC020 FM051800
                       21006KT P6SM -SHRA BKN020 BKN040=
201704041306 KSEA 041306Z 0413/0518 VRB03KT P6SM OVC110 FM042300 16008KT P6SM
                       OVC090 FM050600 17012KT P6SM -RA OVC070
                       FM051300 17010KT P6SM -RA OVC045=
201704041120 TAF KSEA 041120Z 0412/0518 03004KT P6SM OVC150 FM041400 12005KT
                       P6SM OVC120 FM042300 16008KT P6SM OVC090
                       FM050600 17012KT P6SM -RA OVC070 FM051300
                       17010KT P6SM -RA OVC045=
201704040906 KSEA 040906Z 0409/0512 02006KT P6SM OVC200 FM041000 03004KT P6SM
                       OVC150 FM041400 12005KT P6SM OVC120 FM042300
                       16008KT P6SM OVC090 FM050600 17012KT P6SM
                       -RA OVC070=
201704040520 TAF KSEA 040520Z 0406/0512 02006KT P6SM OVC250 FM041000 03004KT
                       P6SM OVC150 FM041400 12005KT P6SM OVC120
                       FM042300 16008KT P6SM OVC090 FM050600 17012KT
                       P6SM -RA OVC070=
201704040308 KSEA 040308Z 0403/0506 35006KT P6SM OVC250 FM040600 02006KT P6SM
                       OVC250 FM041000 03004KT P6SM OVC150 FM041400
                       12005KT P6SM OVC120 FM042300 16008KT P6SM
                       OVC070=
201704032320 TAF KSEA 032320Z 0400/0506 33007KT P6SM SCT250 FM040600 02006KT
                       P6SM BKN250 FM041000 00000KT P6SM OVC150
                       FM041700 12005KT P6SM OVC090 FM042300 16008KT
                       P6SM OVC050=
201704032103 TAF AMD KSEA 032103Z 0321/0424 33007KT P6SM SCT040 SCT250 FM040300
                       02006KT P6SM BKN250 FM040800 00000KT P6SM
                       OVC150 FM041700 12008KT P6SM OVC090=
201704031720 TAF KSEA 031720Z 0318/0424 36006KT P6SM SCT040 FM040600 04005KT
                       P6SM BKN200 FM041600 12005KT P6SM OVC120=
201704031434 KSEA 031434Z 0315/0418 VRB03KT P6SM SCT040 FM031800 32006KT P6SM
                       SCT040 SCT250 FM040600 04005KT P6SM BKN250
                       FM041200 12005KT P6SM OVC200=
201704031120 TAF KSEA 031120Z 0312/0418 VRB03KT P6SM SCT040 OVC050 FM031700
                       30006KT P6SM FEW040 SCT250 FM040300 04005KT
                       P6SM SCT250 FM040900 11005KT P6SM BKN250=
201704030901 TAF AMD KSEA 030901Z 0309/0412 VRB03KT P6SM SCT045 OVC070 FM031100
                       VRB04KT P6SM SCT030 OVC050 FM031700 30006KT
                       P6SM FEW035 SCT250 FM040300 04005KT P6SM
                       BKN250=
201704030520 TAF KSEA 030520Z 0306/0412 05008KT P6SM SCT035 OVC050 FM031100
                       VRB04KT P6SM SCT020 OVC030 FM031700 30006KT
                       P6SM FEW035 SCT250 FM040200 35006KT P6SM
                       BKN250=
201704030220 KSEA 030220Z 0302/0406 01009KT P6SM VCSH SCT035 BKN050
                      TEMPO 0302/0306 05012KT BKN035 FM030600 VRB04KT
                       P6SM SCT020 OVC030 FM030900 14005KT P6SM
                       OVC030 FM031700 31006KT P6SM FEW035=
201704030147 KSEA 030147Z 0302/0406 01009KT P6SM VCSH SCT035 BKN050 OVC060 FM030600
                       VRB04KT P6SM SCT020 OVC030 FM030900 14005KT
                       P6SM OVC030 FM031700 31006KT P6SM FEW035=
201704022320 TAF KSEA 022320Z 0300/0406 04005KT P6SM VCSH SCT030 BKN045
                      TEMPO 0300/0302 VRB04KT -SHRA BKN030 OVC045
                       FM030200 05006KT P6SM -SHRA SCT020 BKN045
                       FM030300 06006KT P6SM VCSH SCT020 BKN035
                       FM030600 VRB04KT P6SM SCT020 OVC030 FM030900
                       14005KT P6SM OVC030 FM031700 31006KT P6SM
                       FEW035=
201704022237 KSEA 022237Z 0223/0324 04006KT P6SM VCSH SCT030 BKN050
                      TEMPO 0223/0301 VRB04KT -SHRA BKN030 OVC050
                       FM030100 05006KT P6SM -SHRA SCT020 BKN045
                       FM030200 06006KT P6SM VCSH SCT020 BKN035
                       FM030600 VRB04KT P6SM SCT020 OVC030 FM030900
                       14005KT P6SM OVC030 FM031700 31006KT P6SM
                       FEW035=
201704022012 KSEA 022012Z 0220/0324 20008KT P6SM VCSH SCT030 BKN060 FM022200
                       24011KT P6SM VCSH SCT030 BKN060
                      TEMPO 0222/0301 -SHRA BKN030 OVC050 FM030100
                       30010KT P6SM -SHRA SCT020 BKN045 FM030200
                       35007KT P6SM VCSH SCT020 BKN035 FM030600
                       03007KT P6SM SCT020 OVC030 FM030900 10004KT
                       P6SM OVC030=
201704021734 TAF KSEA 021734Z 0218/0324 18009KT P6SM VCSH BKN030 OVC045
                      TEMPO 0218/0221 -SHRA FM022100 22012KT P6SM
                       -SHRA BKN035 OVC050 FM030200 29008KT P6SM
                       -SHRA SCT020 BKN045 FM030300 33007KT P6SM
                       VCSH SCT020 BKN035 FM030600 03007KT P6SM
                       SCT020 OVC030 FM030900 10004KT P6SM OVC030=
201704021510 KSEA 021510Z 0215/0318 16009KT P6SM SCT030 BKN045
                      TEMPO 0215/0218 -SHRA BKN030 OVC045 FM021800
                       19010KT P6SM -SHRA BKN030 OVC045 FM022100
                       23012KT P6SM -SHRA BKN035 OVC050 FM030100
                       34008KT P6SM SCT020 BKN045 FM030600 07007KT
                       P6SM SCT020 OVC030 FM030900 VRB04KT P6SM
                       OVC030=
201704021120 TAF KSEA 021120Z 0212/0318 20012KT P6SM SCT015 BKN035
                      TEMPO 0212/0216 12010KT 5SM -SHRA FM021900
                       22013G21KT P6SM VCSH SCT015 BKN025 OVC045
                       FM030200 34010KT P6SM SCT020 BKN045 FM030600
                       07007KT P6SM SCT020 OVC030 FM030900 VRB03KT
                       P6SM OVC030=
201704020901 KSEA 020901Z 0209/0312 22008KT P6SM OVC015 FM021100 20012KT P6SM
                       OVC015 FM021900 22013G21KT P6SM VCSH SCT015
                       BKN025 OVC045 FM030200 34010KT P6SM SCT020
                       BKN045 FM030600 07007KT P6SM SCT020 OVC030=
201704020525 TAF KSEA 020525Z 0206/0312 22010KT P6SM SCT010 BKN020 OVC030 FM021100
                       20012KT P6SM SCT010 BKN015 FM021900 22012G21KT
                       P6SM VCSH SCT018 BKN025 OVC045 FM022200
                       23011KT P6SM VCSH SCT025 BKN035 OVC045 FM030100
                       34010KT P6SM SCT020 BKN045=
201704020309 KSEA 020309Z 0203/0306 15005KT P6SM VCSH SCT020 BKN030 OVC070 FM021100
                       16006KT P6SM SCT010 BKN015 FM021900 22010G18KT
                       P6SM VCSH SCT018 BKN025 OVC045 FM022200
                       23011KT P6SM VCSH SCT025 BKN035 OVC045 FM030100
                       08005KT P6SM VCSH SCT020 BKN045=
201704012336 TAF KSEA 012336Z 0200/0306 20006KT P6SM VCSH SCT020 BKN035 FM020200
                       11005KT 6SM -SHRA SCT012 BKN018 OVC030 FM021100
                       16006KT P6SM SCT010 BKN015 FM021900 22010G18KT
                       P6SM VCSH SCT018 BKN025 OVC045 FM022200
                       23011KT P6SM -SHRA SCT025 BKN035 OVC045
                       FM030100 02007KT P6SM -SHRA SCT015 BKN025
                       OVC035 FM030500 08005KT P6SM VCSH SCT020
                       BKN045=
201704012134 KSEA 012134Z 0122/0224 22009KT P6SM BKN015 OVC030 FM012300 20006KT
                       P6SM VCSH SCT020 BKN030 FM020200 06004KT
                       6SM -SHRA SCT012 BKN018 OVC030 FM020600
                       13006KT 6SM -SHRA SCT015 BKN020 OVC030 FM021100
                       16006KT P6SM SCT010 BKN015 FM021900 22010G18KT
                       P6SM VCSH SCT018 BKN025 OVC045 FM022200
                       23011KT P6SM -SHRA SCT025 BKN035 OVC045=
201704011737 TAF KSEA 011737Z 0118/0224 22009KT P6SM BKN015 OVC030 FM012200
                       20006KT P6SM VCSH SCT020 BKN030 FM020200
                       06004KT 6SM -SHRA SCT012 BKN018 OVC030 FM020600
                       13006KT 6SM -SHRA SCT015 BKN020 OVC030 FM021100
                       16006KT P6SM SCT010 BKN015 FM021900 22010G18KT
                       P6SM VCSH SCT018 BKN025 OVC045 FM022200
                       23011KT P6SM -SHRA SCT025 BKN035 OVC045=
201704011458 KSEA 011458Z 0115/0218 22008KT P6SM VCSH SCT008 BKN015 OVC030
                      TEMPO 0115/0116 -SHRA FM011800 21010KT P6SM
                       SCT015 BKN020 OVC035 FM012200 22009KT P6SM
                       VCSH SCT025 BKN035
                      TEMPO 0202/0206 -SHRA BKN025 OVC035 FM020600
                       20016G25KT P6SM OVC020=
201704011120 TAF KSEA 011120Z 0112/0218 19008KT P6SM VCSH SCT030 OVC050
                      TEMPO 0112/0115 -RA OVC030 FM011500 20010KT
                       P6SM VCSH SCT015 BKN020 OVC030 FM011900
                       21010KT P6SM SCT015 BKN025 OVC035 FM012200
                       22009KT P6SM VCSH SCT025 BKN035
                      TEMPO 0202/0206 -SHRA BKN025 OVC035 FM020600
                       20016G25KT P6SM OVC020=
201704010904 KSEA 010904Z 0109/0212 VRB04KT P6SM OVC050 FM011100 19008KT P6SM
                       -RA SCT030 OVC050 FM011500 20010KT P6SM
                       VCSH SCT015 BKN020 OVC030 FM011900 21010KT
                       P6SM SCT015 BKN025 OVC035 FM012200 22009KT
                       P6SM VCSH SCT025 BKN035
                      TEMPO 0202/0206 -SHRA BKN025 OVC035 FM020600
                       20016G25KT P6SM OVC020=
201704010520 TAF KSEA 010520Z 0106/0212 16006KT P6SM SCT060 OVC100 FM011100
                       19008KT P6SM -RA SCT030 OVC060 FM011500
                       20010KT P6SM VCSH SCT015 BKN020 OVC030 FM011900
                       21010KT P6SM SCT015 BKN025 OVC035 FM012200
                       22009KT P6SM VCSH SCT025 BKN035
                      TEMPO 0202/0206 -SHRA BKN025 OVC035=
201704010303 KSEA 010303Z 0103/0206 25003KT P6SM SCT100 BKN200 FM010500 16006KT
                       P6SM OVC060 FM011100 19008KT P6SM -RA SCT020
                       OVC030 FM011500 20010G18KT P6SM VCSH SCT010
                       BKN015 OVC030 FM011900 21010G18KT P6SM SCT015
                       BKN025 OVC035 FM012200 22009KT P6SM VCSH
                       SCT025 BKN035
                      TEMPO 0202/0206 -SHRA BKN025 OVC035=