##########################################################
# Query made at 02/17/2025 20:03:20 UTC
# Time interval: from 03/01/2017 00:00  to 03/31/2017 23:59  UTC
##########################################################

##########################################################
# KSEA, Seattle, Seattle-Tacoma International Airport (United States)
# WMO index: 72793. WIGOS ID: 0-20000-0-72793
# Latitude 47-27-00N. Longitude 122-17-59W. Altitude 130 m.
##########################################################

###################################
#  METAR/SPECI from KSEA
###################################
201703312353 METAR KSEA 312353Z VRB04KT 10SM FEW032 SCT120 BKN250 13/04 A3029 RMK AO2 SLP265 T01330039 10133 20078 56024=
201703312253 METAR KSEA 312253Z 27006KT 10SM FEW031 BKN120 BKN250 13/04 A3031 RMK AO2 SLP271 T01280039=
201703312153 METAR KSEA 312153Z 28008KT 10SM SCT030 BKN120 BKN250 12/04 A3034 RMK AO2 SLP281 T01220039=
201703312053 METAR KSEA 312053Z 00000KT 10SM SCT026 BKN150 BKN230 12/04 A3036 RMK AO2 SLP290 T01170044 58012=
201703311953 METAR KSEA 311953Z 00000KT 10SM SCT019 BKN150 10/05 A3038 RMK AO2 SLP295 T01000050=
201703311853 METAR KSEA 311853Z 15003KT 10SM FEW008 SCT013 BKN150 10/06 A3040 RMK AO2 SLP303 T01000056=
201703311829 SPECI KSEA 311829Z 00000KT 10SM FEW007 SCT011 BKN150 09/06 A3040 RMK AO2 T00940056=
201703311753 METAR KSEA 311753Z 17004KT 10SM FEW007 BKN011 BKN030 08/05 A3040 RMK AO2 SLP302 T00780050 10078 20039 51002=
201703311724 SPECI KSEA 311724Z 20005KT 10SM FEW006 BKN010 OVC030 07/05 A3040 RMK AO2 T00720050=
201703311653 METAR KSEA 311653Z 13004KT 8SM FEW004 BKN008 OVC015 07/05 A3039 RMK AO2 SLP299 T00670050=
201703311553 METAR KSEA 311553Z 00000KT 3SM BR OVC004 06/05 A3041 RMK AO2 SLP306 T00560050=
201703311528 SPECI KSEA 311528Z 15004KT 2SM BR OVC004 06/05 A3040 RMK AO2 T00560050=
201703311453 METAR KSEA 311453Z 14005KT 1/2SM R16L/P6000FT BR OVC002 05/05 A3039 RMK AO2 SFC VIS 1 1/4 SLP301 T00500050 53006=
201703311441 SPECI KSEA 311441Z 15004KT 1/2SM R16L/2000V6000FT BR VV002 05/04 A3039 RMK AO2 SFC VIS 3/4 T00500044=
201703311430 SPECI KSEA 311430Z 15004KT 1/2SM R16L/1600V2200FT FG VV002 05/05 A3039 RMK AO2 T00500050=
201703311353 METAR KSEA 311353Z 16004KT 1/2SM R16L/3500VP6000FT BR OVC002 05/04 A3038 RMK AO2 SFC VIS 3/4 SLP294 T00500044=
201703311348 SPECI KSEA 311348Z 16003KT 1SM R16L/2400V5000FT BR OVC002 05/04 A3038 RMK AO2=
201703311332 SPECI KSEA 311332Z 13005KT 1 1/2SM BR OVC002 05/04 A3037 RMK AO2 T00500044=
201703311253 METAR KSEA 311253Z 13008KT 5SM BR OVC003 05/04 A3038 RMK AO2 SLP295 T00500044=
201703311226 SPECI KSEA 311226Z 12006KT 10SM BKN003 05/04 A3038 RMK AO2 T00500039=
201703311153 METAR KSEA 311153Z 12005KT 10SM FEW060 04/03 A3038 RMK AO2 SLP294 T00390028 10089 20039 53004=
201703311053 METAR KSEA 311053Z 00000KT 10SM FEW060 05/03 A3037 RMK AO2 SLP293 T00500028=
201703310953 METAR KSEA 310953Z 07004KT 10SM CLR 06/03 A3036 RMK AO2 SLP289 T00560033=
201703310853 METAR KSEA 310853Z 07005KT 10SM CLR 07/04 A3036 RMK AO2 SLP290 T00670039 51006=
201703310753 METAR KSEA 310753Z 07005KT 10SM FEW060 07/04 A3036 RMK AO2 SLP288 T00720039 401220061=
201703310653 METAR KSEA 310653Z 05007KT 10SM FEW060 08/04 A3035 RMK AO2 SLP285 T00830039=
201703310553 METAR KSEA 310553Z 03006KT 10SM FEW060 09/03 A3034 RMK AO2 SLP283 T00890033 10122 20089 51021=
201703310453 METAR KSEA 310453Z 01005KT 10SM BKN060 10/03 A3032 RMK AO2 SLP276 T01000033=
201703310353 METAR KSEA 310353Z 02004KT 10SM BKN060 10/03 A3031 RMK AO2 SLP272 T01000028=
201703310253 METAR KSEA 310253Z 35005KT 10SM BKN050 10/03 A3028 RMK AO2 SLP262 T01000028 53007=
201703310153 METAR KSEA 310153Z 36005KT 10SM FEW030 BKN046 12/02 A3027 RMK AO2 SLP258 T01170022=
201703310053 METAR KSEA 310053Z 34007KT 10SM FEW035 BKN050 12/03 A3026 RMK AO2 SLP255 T01220033=
201703302353 METAR KSEA 302353Z 01005KT 10SM FEW035 BKN065 12/03 A3026 RMK AO2 SLP255 T01220033 10122 20083 51012=
201703302253 METAR KSEA 302253Z 05007KT 10SM FEW031 BKN050 11/04 A3025 RMK AO2 WSHFT 2140 SLP251 T01060039=
201703302200 SPECI KSEA 302200Z 04011KT 10SM FEW031 BKN040 BKN060 10/05 A3024 RMK AO2 WSHFT 2140 T01000050=
201703302153 METAR KSEA 302153Z 04013KT 10SM BKN036 BKN070 11/05 A3024 RMK AO2 WSHFT 2138 SLP248 T01060050=
201703302053 METAR KSEA 302053Z VRB03KT 10SM SCT028 SCT044 BKN070 11/04 A3023 RMK AO2 SLP243 T01110039 51011=
201703301953 METAR KSEA 301953Z 22007KT 10SM SCT026 SCT085 11/05 A3022 RMK AO2 SLP240 T01110050=
201703301853 SPECI KSEA 301853Z 22003KT 10SM SCT015 BKN085 10/06 A3021 RMK AO2 SLP239 T01000056=
201703301853 METAR KSEA 301853Z 22003KT 10SM SCT015 BKN085 10/06 A3021 RMK AO2 SLP239 T01000056=
201703301753 METAR KSEA 301753Z 16004KT 10SM SCT011 SCT065 BKN085 08/05 A3019 RMK AO2 SLP233 T00830050 10089 20061 51027=
201703301727 SPECI KSEA 301727Z VRB05KT 10SM FEW006 SCT011 BKN085 08/04 A3019 RMK AO2 T00780044=
201703301653 METAR KSEA 301653Z 20009KT 10SM FEW005 BKN011 BKN036 07/05 A3018 RMK AO2 SLP227 T00720050=
201703301553 METAR KSEA 301553Z 19008KT 10SM FEW005 BKN010 OVC020 07/04 A3014 RMK AO2 SLP215 T00670044=
201703301520 SPECI KSEA 301520Z 19006KT 10SM BKN010 BKN020 07/04 A3012 RMK AO2 T00670044=
201703301453 METAR KSEA 301453Z 17005KT 10SM BKN008 OVC014 06/04 A3011 RMK AO2 SLP206 T00610044 53014=
201703301353 METAR KSEA 301353Z 20006KT 10SM BKN008 BKN014 OVC022 06/05 A3010 RMK AO2 SLP199 T00610050=
201703301315 SPECI KSEA 301315Z 19005KT 10SM BKN008 OVC017 06/05 A3008 RMK AO2 T00610050=
201703301253 METAR KSEA 301253Z 18003KT 10SM BKN010 OVC015 06/05 A3008 RMK AO2 SLP193 T00610050=
201703301153 METAR KSEA 301153Z 00000KT 10SM OVC013 06/04 A3007 RMK AO2 SLP190 60000 70022 T00610044 10078 20061 53011=
201703301053 METAR KSEA 301053Z 26004KT 10SM OVC011 07/04 A3006 RMK AO2 SLP186 T00670044=
201703300953 METAR KSEA 300953Z 24005KT 10SM OVC013 07/04 A3004 RMK AO2 SLP180 T00670044=
201703300853 METAR KSEA 300853Z 22008KT 10SM OVC014 07/04 A3004 RMK AO2 RAE00 SLP179 P0000 60000 T00720044 52015=
201703300819 SPECI KSEA 300819Z 21012KT 10SM OVC013 07/04 A3003 RMK AO2 RAE00 P0000 T00720044=
201703300753 METAR KSEA 300753Z 20010KT 7SM -RA OVC016 07/05 A3002 RMK AO2 RAB0657E11B46 SLP172 P0000 T00720050 401280072=
201703300653 METAR KSEA 300653Z 21009KT 10SM OVC016 07/05 A3001 RMK AO2 SLP170 T00720050=
201703300553 METAR KSEA 300553Z 22014KT 10SM OVC016 07/04 A2999 RMK AO2 SLP163 T00720044 10122 20072 50019=
201703300453 METAR KSEA 300453Z 20010KT 10SM BKN019 08/05 A2999 RMK AO2 SLP164 T00780050=
201703300439 SPECI KSEA 300439Z 20011KT 10SM BKN020 BKN024 08/05 A2998 RMK AO2 T00780050=
201703300353 METAR KSEA 300353Z 21011KT 10SM FEW020 08/04 A2997 RMK AO2 SLP156 T00780044=
201703300253 METAR KSEA 300253Z 21017G24KT 10SM SCT020 08/05 A2993 RMK AO2 PK WND 22026/0221 SLP144 T00830050 50011=
201703300153 METAR KSEA 300153Z 21013G19KT 10SM FEW018 SCT070 10/06 A2994 RMK AO2 SLP145 T01000061=
201703300053 METAR KSEA 300053Z 23012G26KT 10SM FEW017 SCT070 11/07 A2992 RMK AO2 PK WND 23029/0018 SLP139 T01110067=
201703292353 METAR KSEA 292353Z 22016G26KT 10SM FEW020 SCT065 12/08 A2990 RMK AO2 PK WND 22029/2339 SLP133 60002 T01170078 10128 20106 53016=
201703292327 SPECI KSEA 292327Z 22019G26KT 10SM SCT019 BKN060 12/08 A2989 RMK AO2 PK WND 22026/2310 T01170083=
201703292253 METAR KSEA 292253Z 21019G25KT 10SM BKN018 BKN075 12/10 A2988 RMK AO2 RAE2157 SLP124 P0000 T01220100=
201703292227 SPECI KSEA 292227Z 21016G25KT 10SM FEW009 SCT014 BKN027 11/09 A2988 RMK AO2 RAE2157 P0000 T01110094=
201703292208 SPECI KSEA 292208Z 21013G23KT 10SM FEW007 OVC013 11/10 A2988 RMK AO2 RAE2157 P0000 T01110100=
201703292153 METAR KSEA 292153Z 22017G28KT 6SM -RA BR FEW008 BKN015 OVC022 11/09 A2987 RMK AO2 PK WND 22029/2136 RAE2057B23 SLP123 P0002 T01060094=
201703292144 SPECI KSEA 292144Z 22017G29KT 5SM -RA BR FEW006 BKN015 OVC025 11/10 A2987 RMK AO2 PK WND 22029/2136 RAE2057B23 P0002 T01060100=
201703292132 SPECI KSEA 292132Z 22018G26KT 3SM -RA BR FEW006 BKN012 OVC024 11/10 A2987 RMK AO2 PK WND 20027/2119 RAE2057B23 P0001 T01110100=
201703292053 METAR KSEA 292053Z 21017G24KT 7SM -RA BKN016 OVC024 12/10 A2986 RMK AO2 PK WND 20032/1956 RAE01B40 SLP117 P0000 60000 T01170100 53012=
201703291953 METAR KSEA 291953Z 21018G29KT 7SM -RA FEW009 OVC022 12/09 A2984 RMK AO2 PK WND 21034/1931 RAB50 SLP111 P0000 T01220089=
201703291853 METAR KSEA 291853Z 18019G24KT 10SM FEW009 OVC021 13/09 A2982 RMK AO2 SLP106 T01280094=
201703291753 METAR KSEA 291753Z 18014G21KT 10SM FEW008 OVC021 12/09 A2982 RMK AO2 SLP105 60020 T01170094 10117 20078 56014=
201703291653 METAR KSEA 291653Z 15008KT 7SM FEW008 OVC019 09/09 A2982 RMK AO2 RAE28 SLP104 P0001 T00890089=
201703291636 SPECI KSEA 291636Z 15012KT 4SM BR FEW008 OVC016 09/09 A2982 RMK AO2 RAE28 P0001 T00890089=
201703291610 SPECI KSEA 291610Z 15013KT 2SM -RA BR FEW004 SCT008 OVC015 09/08 A2982 RMK AO2 P0001 T00890083=
201703291553 METAR KSEA 291553Z 15010KT 1SM R16L/P6000FT -RA BR SCT004 OVC008 08/08 A2983 RMK AO2 SLP110 P0003 T00830083=
201703291532 SPECI KSEA 291532Z 15011KT 1SM R16L/5500VP6000FT -RA BR SCT004 OVC008 08/08 A2985 RMK AO2 P0002 T00830078=
201703291517 SPECI KSEA 291517Z 15009KT 1SM R16L/6000VP6000FT -RA BR BKN004 OVC008 08/08 A2985 RMK AO2 P0001 T00830078=
201703291507 SPECI KSEA 291507Z 14009KT 1SM R16L/6000VP6000FT -RA BR FEW004 OVC008 08/08 A2986 RMK AO2 SFC VIS 1 1/4 P0001 T00780078=
201703291453 METAR KSEA 291453Z 14009KT 1SM R16L/P6000FT -RA BR SCT004 OVC011 08/07 A2986 RMK AO2 SFC VIS 1 1/4 SLP118 P0005 60016 T00780072 56025=
201703291429 SPECI KSEA 291429Z 13007KT 1 1/2SM R16L/6000VP6000FT -RA BR OVC016 08/07 A2987 RMK AO2 TWR VIS 2 P0003 T00780072=
201703291419 SPECI KSEA 291419Z 13008KT 2SM -RA BR OVC016 08/07 A2988 RMK AO2 P0002 T00780072=
201703291353 METAR KSEA 291353Z 14007KT 5SM -RA BR BKN019 OVC027 08/07 A2988 RMK AO2 SLP127 P0005 T00780072=
201703291253 METAR KSEA 291253Z 13005KT 9SM -RA OVC027 08/07 A2990 RMK AO2 SLP133 P0006 T00780072=
201703291153 METAR KSEA 291153Z 11009KT 9SM -RA BKN035 OVC042 08/07 A2994 RMK AO2 SLP144 P0012 60036 70040 T00780072 10094 20072 56048=
201703291053 METAR KSEA 291053Z 11005KT 8SM -RA OVC039 08/07 A2999 RMK AO2 SLP163 P0006 T00780072=
201703290953 METAR KSEA 290953Z 12009KT 9SM -RA OVC042 08/07 A3002 RMK AO2 SLP173 P0005 T00780072=
201703290853 METAR KSEA 290853Z 13006KT 7SM -RA OVC038 08/07 A3008 RMK AO2 SLP193 P0006 60013 T00780067 58026=
201703290753 METAR KSEA 290753Z 22004KT 8SM -RA OVC042 07/06 A3012 RMK AO2 SLP206 P0005 T00720061 401170067=
201703290653 METAR KSEA 290653Z 19007KT 10SM -RA OVC043 08/06 A3014 RMK AO2 SLP212 P0002 T00830061=
201703290553 METAR KSEA 290553Z 17008KT 10SM -RA OVC046 09/06 A3016 RMK AO2 RAE10B50 SLP219 P0000 60000 T00940061 10117 20094 58008=
201703290453 METAR KSEA 290453Z 15009KT 10SM -RA OVC043 10/06 A3017 RMK AO2 RAB52 SLP223 P0000 T01000056=
201703290353 METAR KSEA 290353Z 18011KT 10SM OVC040 10/06 A3017 RMK AO2 SLP225 T01000061=
201703290253 METAR KSEA 290253Z 17009KT 10SM FEW032 BKN041 OVC050 09/07 A3018 RMK AO2 RAE41 SLP228 P0000 60000 T00940072 56000=
201703290153 METAR KSEA 290153Z 19009KT 10SM -RA SCT045 OVC070 10/07 A3018 RMK AO2 RAB50 SLP229 P0000 T01000072=
201703290053 METAR KSEA 290053Z 19015KT 10SM SCT031 OVC049 11/07 A3018 RMK AO2 SLP226 T01110067=
201703290034 SPECI KSEA 290034Z 19013G21KT 10SM BKN033 OVC049 11/07 A3017 RMK AO2 T01110067=
201703282353 METAR KSEA 282353Z 18013G20KT 10SM OVC027 12/07 A3018 RMK AO2 SLP228 60000 T01170067 10117 20083 58009=
201703282253 METAR KSEA 282253Z 18011G21KT 10SM OVC035 11/07 A3020 RMK AO2 SLP234 T01110067=
201703282153 METAR KSEA 282153Z 19013G21KT 10SM OVC030 11/07 A3021 RMK AO2 RAE2058 SLP236 P0000 T01060067=
201703282053 METAR KSEA 282053Z 17009KT 10SM -RA FEW020 OVC031 10/07 A3021 RMK AO2 RAB23E43B48 SLP237 P0000 60000 T01000067 55003=
201703282047 SPECI KSEA 282047Z 17007KT 10SM SCT027 OVC033 10/07 A3021 RMK AO2 RAB23E43 P0000=
201703282022 SPECI KSEA 282022Z 18012KT 10SM FEW018 OVC027 10/06 A3022 RMK AO2 T01000061=
201703281953 METAR KSEA 281953Z 17016G21KT 10SM FEW018 OVC032 10/06 A3021 RMK AO2 SLP236 T01000061=
201703281853 METAR KSEA 281853Z 17011G19KT 10SM FEW017 BKN038 BKN060 OVC200 09/07 A3021 RMK AO2 RAB14E17 SLP238 P0000 T00940072=
201703281753 METAR KSEA 281753Z 19008KT 10SM FEW015 SCT027 OVC033 09/07 A3022 RMK AO2 RAE46 SLP241 P0001 60004 T00890067 10089 20072 53005=
201703281653 METAR KSEA 281653Z 20010G18KT 10SM -RA FEW026 BKN033 OVC045 08/06 A3020 RMK AO2 RAB01 SLP236 P0000 T00830056=
201703281626 SPECI KSEA 281626Z 20009KT 10SM -RA FEW025 BKN034 OVC048 08/06 A3020 RMK AO2 RAB01 P0000 T00830056=
201703281553 METAR KSEA 281553Z 19008KT 10SM BKN029 OVC040 08/05 A3020 RMK AO2 RAE24 SLP234 P0001 T00830050=
201703281531 SPECI KSEA 281531Z 15014KT 10SM BKN031 OVC050 08/06 A3019 RMK AO2 RAE24 P0001 T00780056=
201703281453 METAR KSEA 281453Z 18008KT 10SM -RA BKN027 OVC035 08/05 A3020 RMK AO2 SLP235 P0001 60002 T00780050 58004=
201703281353 METAR KSEA 281353Z 17009KT 10SM -RA BKN028 OVC039 07/05 A3020 RMK AO2 SLP235 P0001 T00720050=
201703281327 SPECI KSEA 281327Z 17010KT 9SM -RA BKN029 OVC041 07/05 A3021 RMK AO2 P0000 T00720050=
201703281253 METAR KSEA 281253Z 17009KT 10SM -RA SCT030 BKN038 OVC065 07/05 A3022 RMK AO2 RAB38 SLP240 P0000 T00720050=
201703281153 METAR KSEA 281153Z 16008KT 10SM FEW022 BKN030 OVC038 07/05 A3021 RMK AO2 SLP239 60007 70019 T00720050 10078 20067 56016=
201703281053 METAR KSEA 281053Z 16009KT 10SM FEW019 BKN030 OVC038 07/06 A3022 RMK AO2 RAE25 SLP241 P0000 T00720056=
201703280953 METAR KSEA 280953Z 16009KT 10SM -RA SCT021 BKN026 OVC032 07/06 A3024 RMK AO2 SLP248 P0002 T00670061=
201703280853 METAR KSEA 280853Z 17010KT 10SM -RA SCT012 BKN020 OVC029 07/06 A3026 RMK AO2 SLP255 P0002 60005 T00670056 50003=
201703280830 SPECI KSEA 280830Z 18009KT 10SM -RA SCT012 BKN021 OVC032 07/06 A3026 RMK AO2 P0002 T00670056=
201703280753 METAR KSEA 280753Z 17008KT 10SM -RA SCT012 SCT021 OVC030 07/06 A3027 RMK AO2 SLP258 P0003 T00720061 401170067=
201703280725 SPECI KSEA 280725Z 18008KT 10SM -RA SCT012 BKN021 OVC037 07/06 A3026 RMK AO2 P0001 T00720061=
201703280653 METAR KSEA 280653Z 19011KT 10SM -RA SCT009 BKN014 OVC025 08/06 A3027 RMK AO2 SLP258 P0000 T00780056=
201703280637 SPECI KSEA 280637Z 19008KT 10SM -RA FEW009 BKN014 OVC025 08/06 A3026 RMK AO2 P0000 T00780061=
201703280553 METAR KSEA 280553Z 20011KT 10SM -RA FEW018 BKN025 OVC037 07/06 A3025 RMK AO2 SLP252 P0000 60003 T00720061 10094 20072 51014=
201703280515 SPECI KSEA 280515Z 21012KT 10SM -RA SCT020 BKN031 OVC049 08/06 A3025 RMK AO2 P0000 T00780056=
201703280453 METAR KSEA 280453Z 20013KT 10SM -RA BKN020 OVC037 08/06 A3025 RMK AO2 RAB25 SLP250 P0000 T00780061=
201703280353 METAR KSEA 280353Z 21014KT 10SM SCT016 OVC026 08/06 A3022 RMK AO2 SLP242 T00830056=
201703280253 METAR KSEA 280253Z 22010KT 10SM SCT020 BKN028 BKN100 09/06 A3021 RMK AO2 SLP239 60003 T00890056 53010=
201703280153 METAR KSEA 280153Z 21011KT 10SM FEW018 SCT034 BKN110 09/07 A3019 RMK AO2 RAE0055 SLP232 P0000 T00890067=
201703280106 SPECI KSEA 280106Z 22009KT 10SM FEW016 SCT024 BKN047 BKN140 09/07 A3019 RMK AO2 RAE0055 P0000 T00890072=
201703280053 METAR KSEA 280053Z 22007KT 9SM -RA SCT017 BKN024 BKN150 09/07 A3018 RMK AO2 RAB07E16B41 SLP228 P0003 T00890072=
201703280050 SPECI KSEA 280050Z 22007KT 3SM R16L/6000VP6000FT -RA BR SCT017 BKN024 BKN150 09/07 A3018 RMK AO2 RAB07E16B41 P0003=
201703272353 METAR KSEA 272353Z 21010KT 10SM FEW026 SCT070 OVC150 09/07 A3018 RMK AO2 RAB2259E30 SLP227 VCSH P0004 60009 T00940067 10117 20089 50015=
201703272253 METAR KSEA 272253Z 26007KT 10SM SCT024 BKN035 OVC100 09/07 A3018 RMK AO2 RAE22 SLP228 VCSH P0005 T00940067=
201703272153 METAR KSEA 272153Z 23016KT 10SM -RA FEW024 BKN032 BKN050 10/06 A3017 RMK AO2 RAB51 SLP224 P0000 T01000056=
201703272053 METAR KSEA 272053Z 22016G21KT 10SM FEW020 BKN034 BKN065 BKN250 11/07 A3014 RMK AO2 RAB37E50 SLP212 VCSH P0000 60000 T01060072 51021=
201703271953 METAR KSEA 271953Z 23013KT 10SM FEW020 SCT035 SCT200 12/06 A3012 RMK AO2 SLP205 T01170056=
201703271914 SPECI KSEA 271914Z 21012KT 10SM FEW018 BKN033 BKN045 11/06 A3011 RMK AO2 T01060056=
201703271853 METAR KSEA 271853Z 22012KT 10SM FEW017 BKN029 BKN045 09/05 A3011 RMK AO2 SLP203 T00940050=
201703271819 SPECI KSEA 271819Z 20011KT 10SM FEW017 BKN033 BKN045 11/06 A3007 RMK AO2 T01060061=
201703271753 METAR KSEA 271753Z 21010KT 10SM SCT016 BKN024 BKN046 09/06 A3007 RMK AO2 SLP191 60000 T00890056 10089 20067 51028=
201703271706 SPECI KSEA 271706Z 20012KT 10SM FEW015 OVC029 08/06 A3006 RMK AO2 T00830056=
201703271653 METAR KSEA 271653Z 21011KT 10SM FEW015 OVC031 08/06 A3006 RMK AO2 SLP186 T00830056=
201703271553 METAR KSEA 271553Z 19009KT 10SM FEW015 BKN041 BKN110 08/06 A3002 RMK AO2 SLP173 T00780061=
201703271453 METAR KSEA 271453Z 18011KT 10SM FEW013 BKN035 BKN110 07/06 A2999 RMK AO2 SLP163 60000 T00720056 51025=
201703271353 METAR KSEA 271353Z 17007KT 10SM FEW013 BKN046 OVC120 07/06 A2997 RMK AO2 RAE45 SLP158 P0000 T00670056=
201703271345 SPECI KSEA 271345Z 18007KT 10SM FEW013 BKN046 OVC120 07/06 A2997 RMK AO2 RAE45 P0000 T00670056=
201703271321 SPECI KSEA 271321Z 20009KT 10SM -RA FEW014 BKN025 OVC080 07/06 A2996 RMK AO2 P0000 T00720061=
201703271253 METAR KSEA 271253Z 18009KT 10SM -RA FEW025 SCT033 OVC041 07/06 A2995 RMK AO2 RAE27B50 SLP148 P0000 T00720056=
201703271153 METAR KSEA 271153Z 20008KT 10SM -RA SCT028 BKN035 OVC100 07/06 A2992 RMK AO2 RAB52 SLP137 P0000 60002 70039 T00720061 10078 20067 53010=
201703271053 METAR KSEA 271053Z 16008KT 10SM FEW031 BKN048 BKN110 07/06 A2990 RMK AO2 SLP134 T00670056=
201703270953 METAR KSEA 270953Z 17010KT 10SM FEW030 BKN045 OVC140 07/06 A2989 RMK AO2 SLP131 T00720056=
201703270853 METAR KSEA 270853Z 16009KT 10SM FEW030 SCT048 BKN070 OVC150 07/06 A2988 RMK AO2 RAB15E39 SLP128 P0001 60002 T00720061 51019=
201703270820 SPECI KSEA 270820Z 18011KT 9SM -RA SCT023 BKN030 OVC046 08/06 A2988 RMK AO2 RAB15 P0001 T00780061=
201703270753 METAR KSEA 270753Z 17006KT 10SM BKN025 BKN044 OVC210 08/06 A2987 RMK AO2 SLP123 T00780061 400940061=
201703270653 METAR KSEA 270653Z 18012KT 10SM FEW007 SCT016 OVC210 07/06 A2984 RMK AO2 RAE16B18E28 SLP114 P0001 T00720061=
201703270640 SPECI KSEA 270640Z 18009KT 10SM FEW007 BKN011 OVC016 08/07 A2984 RMK AO2 RAE16B18E28 P0001 T00780067=
201703270617 SPECI KSEA 270617Z 18010KT 4SM BR OVC009 08/07 A2983 RMK AO2 RAE16 P0001 T00780067=
201703270553 METAR KSEA 270553Z 19009KT 4SM -RA BR SCT005 OVC010 08/07 A2983 RMK AO2 RAE15B48 SLP108 P0000 60013 T00780067 10089 20078 53016=
201703270453 METAR KSEA 270453Z 17010KT 10SM -RA BKN012 OVC020 08/07 A2981 RMK AO2 SLP102 P0004 T00780067=
201703270433 SPECI KSEA 270433Z 17010KT 8SM -RA FEW008 BKN015 OVC020 08/07 A2980 RMK AO2 P0003 T00780067=
201703270353 METAR KSEA 270353Z 16009KT 10SM -RA FEW011 BKN019 OVC028 08/07 A2979 RMK AO2 SLP097 P0006 T00830072=
201703270343 SPECI KSEA 270343Z 15009KT 10SM -RA FEW007 BKN020 OVC040 08/07 A2979 RMK AO2 P0005 T00830072=
201703270253 METAR KSEA 270253Z 17005KT 9SM -RA FEW012 BKN021 OVC036 08/08 A2978 RMK AO2 RAB09 SLP092 P0003 60003 T00830078 53011=
201703270218 SPECI KSEA 270218Z 19003KT 4SM -RA BR OVC028 08/07 A2977 RMK AO2 RAB09 P0001 T00830072=
201703270153 METAR KSEA 270153Z 14006KT 10SM OVC030 09/07 A2975 RMK AO2 SLP083 T00890067=
201703270053 METAR KSEA 270053Z 12006KT 10SM BKN030 OVC036 09/07 A2974 RMK AO2 SLP080 T00890067=
201703262353 METAR KSEA 262353Z 11007KT 10SM FEW028 SCT033 OVC041 09/07 A2975 RMK AO2 RAE45 SLP081 P0002 60016 T00890072 10094 20072 57009=
201703262309 SPECI KSEA 262309Z 10005KT 10SM -RA SCT008 BKN032 OVC039 09/07 A2975 RMK AO2 P0001 T00890072=
201703262253 METAR KSEA 262253Z 00000KT 5SM -RA BR BKN008 BKN011 OVC031 08/07 A2976 RMK AO2 SLP084 P0004 T00830072=
201703262153 METAR KSEA 262153Z 00000KT 5SM -RA BR BKN034 OVC043 08/07 A2977 RMK AO2 SLP087 P0005 T00780072=
201703262053 METAR KSEA 262053Z 31005KT 6SM -RA BR BKN036 OVC047 08/07 A2977 RMK AO2 SLP090 P0003 60005 T00780072 55015=
201703261953 METAR KSEA 261953Z 09006KT 10SM -RA BKN043 OVC050 09/06 A2977 RMK AO2 SLP088 P0001 T00890056=
201703261853 METAR KSEA 261853Z 08006KT 10SM -RA BKN041 OVC055 08/05 A2979 RMK AO2 SLP096 P0001 T00830050=
201703261753 METAR KSEA 261753Z 12006KT 10SM -RA BKN047 OVC055 07/05 A2982 RMK AO2 SLP106 P0003 60008 T00720050 10072 20061 58009=
201703261653 METAR KSEA 261653Z 17004KT 6SM -RA BR OVC032 07/05 A2985 RMK AO2 SLP115 P0003 T00670050=
201703261553 METAR KSEA 261553Z 11009KT 9SM -RA BKN036 OVC049 07/04 A2984 RMK AO2 SLP113 P0002 T00720044=
201703261453 METAR KSEA 261453Z 14006KT 10SM -RA BKN043 OVC050 07/03 A2985 RMK AO2 RAB34 SLP115 P0000 60000 T00720033 56014=
201703261353 METAR KSEA 261353Z 12008KT 10SM FEW030 BKN055 OVC070 07/03 A2985 RMK AO2 SLP116 T00720033=
201703261253 METAR KSEA 261253Z 15005KT 10SM BKN045 OVC055 07/03 A2987 RMK AO2 SLP121 T00670033=
201703261153 METAR KSEA 261153Z 11008KT 10SM BKN049 BKN060 OVC120 07/03 A2989 RMK AO2 SLP128 T00670033 10078 20067 58031=
201703261053 METAR KSEA 261053Z 11006KT 10SM FEW040 BKN060 OVC120 07/04 A2992 RMK AO2 SLP140 T00670039=
201703260953 METAR KSEA 260953Z 08003KT 10SM FEW045 BKN060 OVC120 07/04 A2996 RMK AO2 SLP151 T00670039=
201703260853 METAR KSEA 260853Z 13003KT 10SM FEW050 BKN065 OVC130 07/04 A2998 RMK AO2 SLP160 T00670039 57019=
201703260753 METAR KSEA 260753Z 17004KT 10SM FEW030 SCT060 OVC130 07/04 A3000 RMK AO2 SLP165 T00670039 401110061=
201703260653 METAR KSEA 260653Z 14007KT 10SM SCT035 BKN044 OVC070 07/04 A3002 RMK AO2 SLP174 T00720039=
201703260553 METAR KSEA 260553Z 13008KT 10SM OVC048 08/04 A3004 RMK AO2 SLP178 T00780039 10100 20072 58012=
201703260453 METAR KSEA 260453Z 15006KT 10SM BKN045 BKN060 08/03 A3005 RMK AO2 SLP182 T00830033=
201703260353 METAR KSEA 260353Z 17003KT 10SM FEW042 BKN055 BKN160 08/01 A3006 RMK AO2 SLP188 T00780011=
201703260253 METAR KSEA 260253Z 20003KT 10SM FEW042 BKN055 BKN180 08/02 A3007 RMK AO2 SLP192 T00830022 56006=
201703260153 METAR KSEA 260153Z 20006KT 10SM FEW036 SCT050 BKN200 09/02 A3008 RMK AO2 SLP195 T00890022=
201703260053 METAR KSEA 260053Z 21007KT 10SM FEW030 BKN047 BKN200 09/02 A3008 RMK AO2 SLP195 T00940022=
201703252353 METAR KSEA 252353Z 23008KT 10SM FEW028 SCT040 BKN050 BKN230 10/03 A3009 RMK AO2 SLP197 T01000028 10111 20083 56008=
201703252253 METAR KSEA 252253Z 21010KT 10SM FEW028 SCT040 BKN050 BKN200 10/03 A3010 RMK AO2 SLP200 T01000033=
201703252153 METAR KSEA 252153Z 21012KT 10SM FEW025 BKN038 BKN055 10/04 A3010 RMK AO2 SLP200 T01000039=
201703252053 METAR KSEA 252053Z 24011KT 10SM FEW025 BKN035 BKN041 10/04 A3011 RMK AO2 SLP205 T01000039 58002=
201703251953 METAR KSEA 251953Z 23010KT 10SM FEW042 SCT050 BKN110 10/04 A3012 RMK AO2 SLP206 T01000039=
201703251853 METAR KSEA 251853Z 23011KT 10SM FEW015 BKN044 08/03 A3012 RMK AO2 SLP208 T00830033=
201703251753 METAR KSEA 251753Z 21011KT 10SM SCT015 BKN055 09/04 A3012 RMK AO2 SLP207 T00890044 10089 20061 53008=
201703251737 SPECI KSEA 251737Z 21011KT 10SM SCT015 BKN055 08/04 A3012 RMK AO2 T00830044=
201703251653 METAR KSEA 251653Z 19011KT 10SM BKN015 BKN065 08/05 A3011 RMK AO2 SLP204 T00780050=
201703251553 METAR KSEA 251553Z 18009KT 10SM FEW011 SCT070 SCT140 07/05 A3010 RMK AO2 SLP200 T00720050=
201703251453 METAR KSEA 251453Z 19011KT 10SM SCT060 BKN085 06/04 A3010 RMK AO2 SLP200 T00610044 53015=
201703251353 METAR KSEA 251353Z 20011KT 10SM FEW021 BKN110 06/04 A3007 RMK AO2 SLP192 T00610044=
201703251253 METAR KSEA 251253Z 20014KT 10SM FEW021 SCT100 06/04 A3006 RMK AO2 SLP188 T00610044=
201703251153 METAR KSEA 251153Z 19011KT 10SM FEW030 SCT110 07/05 A3005 RMK AO2 RAE15 SLP184 P0000 60001 70025 T00670050 10078 20067 50001=
201703251131 SPECI KSEA 251131Z 21013KT 10SM SCT021 SCT060 BKN100 07/04 A3005 RMK AO2 RAE15 P0000 T00670039=
201703251100 SPECI KSEA 251100Z 20010KT 10SM -RA BKN020 OVC028 07/04 A3005 RMK AO2 P0000 T00720044=
201703251053 METAR KSEA 251053Z 20011KT 10SM -RA SCT020 BKN030 OVC038 07/04 A3006 RMK AO2 RAB0957 SLP185 P0001 T00720044=
201703250953 METAR KSEA 250953Z 19011KT 10SM SCT028 OVC036 07/04 A3005 RMK AO2 SLP184 T00720039=
201703250853 METAR KSEA 250853Z 18010KT 10SM BKN034 BKN042 07/04 A3005 RMK AO2 SLP183 T00720044 51015=
201703250753 METAR KSEA 250753Z 18008KT 10SM BKN034 OVC070 07/04 A3004 RMK AO2 SLP181 T00720044 401220067=
201703250653 METAR KSEA 250653Z 18008KT 10SM SCT030 07/06 A3003 RMK AO2 SLP175 T00720056=
201703250553 METAR KSEA 250553Z 20011KT 10SM FEW018 FEW034 SCT043 08/05 A3000 RMK AO2 SLP167 60001 T00780050 10111 20078 51025=
201703250453 METAR KSEA 250453Z 19009KT 10SM FEW021 SCT028 BKN120 08/06 A2999 RMK AO2 SLP164 T00830056=
201703250353 METAR KSEA 250353Z 20009KT 10SM FEW018 BKN036 OVC110 08/06 A2997 RMK AO2 RAE46 SLP155 P0000 T00830061=
201703250253 METAR KSEA 250253Z 20011KT 10SM -RA SCT020 OVC046 08/07 A2993 RMK AO2 SLP142 P0001 60001 T00830067 51019=
201703250237 SPECI KSEA 250237Z 20010KT 10SM -RA SCT020 OVC048 08/07 A2992 RMK AO2 P0000 T00830067=
201703250153 METAR KSEA 250153Z 20015KT 10SM -RA SCT018 BKN024 OVC040 09/07 A2990 RMK AO2 SLP133 P0000 T00890072=
201703250127 SPECI KSEA 250127Z 19018KT 10SM -RA FEW028 BKN034 OVC050 09/07 A2989 RMK AO2 P0000 T00940067=
201703250102 SPECI KSEA 250102Z 20017G25KT 10SM -RA BKN028 OVC050 10/06 A2987 RMK AO2 P0000 T01000061=
201703250053 METAR KSEA 250053Z 20015KT 10SM -RA BKN030 OVC060 11/07 A2987 RMK AO2 RAB00E09B49 SLP122 P0000 T01060067=
201703242353 METAR KSEA 242353Z 21012KT 10SM BKN039 BKN050 OVC060 11/06 A2986 RMK AO2 RAB17E35 SLP119 P0002 60010 T01060061 10122 20089 53009=
201703242253 METAR KSEA 242253Z 19012G21KT 10SM BKN037 BKN100 12/07 A2983 RMK AO2 RAE19 SLP109 P0000 T01220067=
201703242153 METAR KSEA 242153Z 22010KT 7SM -RA FEW019 OVC035 09/07 A2984 RMK AO2 SLP111 P0008 T00940072=
201703242053 METAR KSEA 242053Z 24011KT 7SM -RA BKN032 OVC042 11/06 A2983 RMK AO2 RAB33 SLP109 P0000 60000 T01060061 53009=
201703241953 METAR KSEA 241953Z 21014KT 10SM FEW020 SCT035 BKN140 12/06 A2982 RMK AO2 SLP104 T01170056=
201703241853 METAR KSEA 241853Z 19015KT 10SM FEW020 SCT035 BKN210 12/07 A2981 RMK AO2 SLP102 T01170067=
201703241753 METAR KSEA 241753Z 17010KT 10SM FEW015 BKN034 BKN200 10/06 A2981 RMK AO2 RAE03 SLP100 P0001 60013 T01000061 10100 20078 53008=
201703241653 METAR KSEA 241653Z 19008G19KT 9SM -RA FEW010 BKN036 BKN200 08/06 A2980 RMK AO2 SLP099 P0006 T00830061=
201703241553 METAR KSEA 241553Z 18008KT 7SM -RA BKN036 OVC045 08/07 A2978 RMK AO2 RAB04 SLP093 P0001 T00830067=
201703241453 METAR KSEA 241453Z 21005KT 10SM FEW006 BKN038 OVC045 08/07 A2978 RMK AO2 RAE51 SLP092 P0003 60005 T00780067 53003=
201703241450 SPECI KSEA 241450Z 17006KT 10SM -RA FEW006 BKN038 OVC045 08/07 A2978 RMK AO2 P0003=
201703241353 METAR KSEA 241353Z 12009KT 9SM -RA FEW020 OVC038 08/06 A2978 RMK AO2 SLP091 P0002 T00780061=
201703241253 METAR KSEA 241253Z 13010KT 10SM -RA OVC040 08/06 A2977 RMK AO2 RAB1159E28B51 SLP088 P0000 T00830056=
201703241153 METAR KSEA 241153Z 12005KT 10SM BKN040 OVC050 08/06 A2978 RMK AO2 SLP090 60012 70026 T00830061 10083 20072 56021=
201703241053 METAR KSEA 241053Z 11009KT 10SM BKN046 OVC080 08/06 A2979 RMK AO2 SLP095 T00830061=
201703240953 METAR KSEA 240953Z 11004KT 9SM OVC046 08/07 A2982 RMK AO2 SLP103 T00780067=
201703240853 METAR KSEA 240853Z 00000KT 7SM FEW002 BKN047 OVC055 08/07 A2984 RMK AO2 RAE33 SLP111 P0000 60012 T00780067 58012=
201703240753 METAR KSEA 240753Z 06004KT 6SM -RA BR SCT002 BKN035 OVC042 07/07 A2985 RMK AO2 SLP116 P0005 T00720067 401440039=
201703240653 METAR KSEA 240653Z 31003KT 6SM -RA BR OVC035 07/07 A2987 RMK AO2 SLP123 P0007 T00720067=
201703240553 METAR KSEA 240553Z 35005KT 5SM -RA BR OVC036 07/07 A2988 RMK AO2 SLP124 P0006 60014 T00720067 10128 20072 58013=
201703240519 SPECI KSEA 240519Z VRB03KT 8SM -RA FEW006 OVC038 07/06 A2988 RMK AO2 P0003 T00720061=
201703240453 METAR KSEA 240453Z 27003KT 6SM -RA BR OVC037 07/06 A2989 RMK AO2 SLP131 P0005 T00720061=
201703240353 METAR KSEA 240353Z 30003KT 9SM -RA BKN044 OVC050 08/06 A2990 RMK AO2 SLP132 P0002 T00780061=
201703240253 METAR KSEA 240253Z 23006KT 10SM -RA OVC041 09/06 A2991 RMK AO2 RAB12 SLP137 P0001 60001 T00940056 56007=
201703240153 METAR KSEA 240153Z 22007KT 10SM OVC070 12/02 A2992 RMK AO2 SLP138 T01170017=
201703240053 METAR KSEA 240053Z 25006KT 10SM BKN100 OVC200 12/01 A2992 RMK AO2 SLP137 T01220011=
201703232353 METAR KSEA 232353Z 25004KT 10SM FEW040 BKN100 BKN200 13/01 A2993 RMK AO2 SLP144 T01280011 10144 20094 56024=
201703232253 METAR KSEA 232253Z 19005KT 10SM FEW050 SCT110 BKN200 13/01 A2995 RMK AO2 SLP148 T01330006=
201703232153 METAR KSEA 232153Z 29007KT 10SM FEW050 SCT120 BKN160 13/02 A2998 RMK AO2 SLP159 T01330022=
201703232053 METAR KSEA 232053Z 12010KT 10SM FEW038 FEW120 BKN170 12/02 A3001 RMK AO2 SLP169 ACSL DSNT SE T01220017 58022=
201703231953 METAR KSEA 231953Z 17004KT 10SM FEW037 BKN140 BKN200 11/02 A3004 RMK AO2 SLP179 ACSL DSNT SE T01060022=
201703231853 METAR KSEA 231853Z 21009KT 10SM FEW035 BKN140 BKN200 10/02 A3006 RMK AO2 SLP188 T01000017=
201703231753 METAR KSEA 231753Z 18010KT 10SM FEW035 FEW070 BKN160 BKN250 09/02 A3007 RMK AO2 SLP191 T00940017 10100 20039 58002=
201703231653 METAR KSEA 231653Z 15008KT 10SM FEW035 SCT070 BKN160 08/03 A3008 RMK AO2 SLP194 T00830033=
201703231553 METAR KSEA 231553Z 15006KT 10SM FEW035 BKN070 BKN250 07/03 A3008 RMK AO2 SLP195 T00670028=
201703231453 METAR KSEA 231453Z 15009KT 10SM FEW030 BKN070 BKN250 06/03 A3008 RMK AO2 SLP195 T00560028 51003=
201703231353 METAR KSEA 231353Z 15009KT 10SM SCT075 SCT150 SCT250 05/03 A3008 RMK AO2 SLP194 T00500028=
201703231253 METAR KSEA 231253Z 16007KT 10SM FEW065 04/03 A3008 RMK AO2 SLP195 T00440028=
201703231153 METAR KSEA 231153Z 20008KT 10SM SCT065 05/04 A3007 RMK AO2 RAB07E31 SLP191 P0000 60000 70002 T00500039 10072 20050 58004=
201703231053 METAR KSEA 231053Z 21010KT 10SM SCT028 BKN070 06/04 A3008 RMK AO2 RAB31E50 SLP192 P0000 T00610039=
201703230953 METAR KSEA 230953Z 20011KT 10SM FEW036 FEW055 OVC075 06/04 A3008 RMK AO2 SLP194 T00610039=
201703230853 METAR KSEA 230853Z 17008KT 10SM SCT037 OVC075 06/03 A3008 RMK AO2 SLP195 60000 T00610033 51004=
201703230753 METAR KSEA 230753Z 20008KT 10SM BKN038 OVC047 07/03 A3008 RMK AO2 SLP194 T00670033 401330061=
201703230653 METAR KSEA 230653Z 19011KT 10SM FEW021 FEW028 07/03 A3008 RMK AO2 RAB18E27 SLP192 P0000 T00670033=
201703230628 SPECI KSEA 230628Z 20010KT 10SM FEW021 BKN028 OVC035 07/03 A3007 RMK AO2 RAB18E27 P0000 T00670033=
201703230553 METAR KSEA 230553Z 18010KT 10SM OVC034 07/03 A3007 RMK AO2 SLP190 60000 T00670033 10094 20067 51020=
201703230453 METAR KSEA 230453Z 20008KT 10SM FEW120 SCT250 07/03 A3006 RMK AO2 SLP187 T00670033=
201703230353 METAR KSEA 230353Z 22012G21KT 10SM FEW030 FEW120 SCT250 07/03 A3004 RMK AO2 SLP180 T00720033=
201703230253 METAR KSEA 230253Z 23016G21KT 10SM FEW020 SCT120 SCT250 07/04 A3001 RMK AO2 SLP169 60000 T00720039 51027=
201703230153 METAR KSEA 230153Z 22015G22KT 10SM FEW018 SCT032 BKN100 BKN250 08/05 A2999 RMK AO2 PK WND 23027/0054 SLP162 T00830050=
201703230140 SPECI KSEA 230140Z 22017G21KT 10SM SCT018 SCT040 BKN100 08/05 A2998 RMK AO2 PK WND 23027/0054 T00830050=
201703230053 METAR KSEA 230053Z 23018G30KT 10SM SCT017 BKN028 BKN090 09/06 A2996 RMK AO2 PK WND 21030/0053 RAE2358 SLP152 P0000 T00940061=
201703230023 SPECI KSEA 230023Z 21018G25KT 10SM SCT015 BKN029 BKN050 09/07 A2995 RMK AO2 PK WND 23026/0001 RAE2358 P0000 T00940072=
201703222353 METAR KSEA 222353Z 20016G23KT 10SM -RA FEW026 BKN045 BKN090 09/07 A2993 RMK AO2 PK WND 21030/2323 RAE2256B27 SLP142 P0001 60002 T00890072 10128 20089 53023=
201703222253 METAR KSEA 222253Z 22019G26KT 10SM -RA FEW038 SCT045 BKN090 BKN250 11/07 A2989 RMK AO2 PK WND 21026/2249 RAB32 SLP129 P0000 T01060067=
201703222153 METAR KSEA 222153Z 21012G22KT 10SM FEW040 SCT060 SCT250 12/07 A2987 RMK AO2 PK WND 20026/2055 RAB16E39 SLP121 P0001 T01220072=
201703222053 METAR KSEA 222053Z 21018G24KT 10SM BKN038 BKN055 BKN250 12/05 A2986 RMK AO2 RAE26 SLP119 P0000 60000 T01220050 51016=
201703221953 METAR KSEA 221953Z 20016G27KT 10SM -RA BKN044 OVC060 12/04 A2985 RMK AO2 PK WND 21027/1944 RAB51 SLP115 P0000 T01170039=
201703221853 METAR KSEA 221853Z 22014KT 10SM BKN055 OVC070 12/04 A2983 RMK AO2 SLP108 T01220039=
201703221753 METAR KSEA 221753Z 22012G20KT 10SM FEW020 BKN075 BKN250 12/04 A2981 RMK AO2 SLP102 T01220039 10133 20083 51013 $=
201703221653 METAR KSEA 221653Z 22011KT 10SM FEW025 SCT060 SCT240 12/06 A2981 RMK AO2 SLP099 T01170061=
201703221553 METAR KSEA 221553Z 19009KT 10SM FEW020 BKN060 BKN240 11/06 A2979 RMK AO2 SLP092 T01110061=
201703221453 METAR KSEA 221453Z 17008KT 10SM FEW050 SCT100 SCT240 09/06 A2978 RMK AO2 SLP090 T00890056 53013=
201703221353 METAR KSEA 221353Z 18010KT 10SM FEW050 BKN100 BKN240 10/06 A2976 RMK AO2 SLP084 T01000056=
201703221253 METAR KSEA 221253Z 18009KT 10SM SCT060 BKN120 09/06 A2974 RMK AO2 SLP078 T00940061=
201703221153 METAR KSEA 221153Z 19008KT 10SM FEW050 BKN060 BKN110 09/06 A2974 RMK AO2 RAB27E34 SLP075 P0000 60001 70014 T00940061 10100 20083 53006=
201703221053 METAR KSEA 221053Z 16007KT 10SM BKN060 08/06 A2972 RMK AO2 SLP071 T00830061=
201703220953 METAR KSEA 220953Z 13007KT 10SM SCT060 BKN070 BKN090 09/06 A2970 RMK AO2 SLP065 T00890056=
201703220853 METAR KSEA 220853Z 11008KT 10SM FEW060 BKN100 08/07 A2972 RMK AO2 SLP070 60001 T00830067 58005=
201703220753 METAR KSEA 220753Z 09004KT 10SM FEW049 SCT060 BKN120 09/07 A2973 RMK AO2 RAE11 SLP073 P0000 T00890072 401330078=
201703220653 METAR KSEA 220653Z 15005KT 10SM -RA SCT049 BKN060 OVC085 09/07 A2974 RMK AO2 RAB16 SLP079 P0001 T00890072=
201703220553 METAR KSEA 220553Z 16004KT 10SM SCT070 BKN120 09/07 A2973 RMK AO2 SLP074 60004 T00940072 10133 20094 53001=
201703220453 METAR KSEA 220453Z 11007KT 10SM FEW055 SCT200 11/08 A2972 RMK AO2 SLP069 T01060078=
201703220353 METAR KSEA 220353Z 10006KT 10SM FEW032 BKN049 12/09 A2973 RMK AO2 RAE0259 SLP073 P0000 T01170094=
201703220253 METAR KSEA 220253Z 12005KT 9SM -RA FEW034 BKN060 BKN250 11/09 A2973 RMK AO2 SLP074 P0004 60004 T01110089 53000=
201703220153 METAR KSEA 220153Z 00000KT 8SM -RA FEW043 BKN050 BKN120 11/09 A2973 RMK AO2 RAB45 SLP075 P0000 T01110094=
201703220053 METAR KSEA 220053Z 14011KT 10SM FEW030 SCT075 SCT140 BKN250 13/08 A2971 RMK AO2 SLP068 T01330083=
201703212353 METAR KSEA 212353Z 14009KT 10SM FEW025 SCT075 BKN110 BKN250 12/09 A2973 RMK AO2 RAE15 SLP073 P0000 60002 T01220094 10122 20089 58002=
201703212253 METAR KSEA 212253Z 18005KT 10SM -RA SCT042 BKN055 BKN200 10/09 A2974 RMK AO2 SLP078 P0000 T01000089=
201703212153 METAR KSEA 212153Z VRB03KT 10SM -RA FEW030 OVC065 11/09 A2973 RMK AO2 SLP073 P0001 T01060094=
201703212053 METAR KSEA 212053Z 17005KT 10SM -RA FEW045 BKN065 OVC200 09/08 A2973 RMK AO2 RAE1957B52 SLP075 P0000 60001 T00940083 51013=
201703211953 METAR KSEA 211953Z 19005KT 10SM -RA FEW045 BKN070 OVC120 09/08 A2972 RMK AO2 RAB01 SLP072 P0001 T00890078=
201703211853 METAR KSEA 211853Z 19006KT 10SM FEW047 BKN070 OVC120 11/07 A2971 RMK AO2 RAB11E23 SLP068 P0000 T01060072=
201703211753 METAR KSEA 211753Z 12003KT 10SM BKN070 BKN120 BKN250 12/06 A2969 RMK AO2 SLP062 60007 T01220056 10122 20078 56005=
201703211653 METAR KSEA 211653Z 14005KT 10SM BKN070 BKN090 11/06 A2969 RMK AO2 SLP061 T01110056=
201703211553 METAR KSEA 211553Z 14006KT 10SM FEW040 OVC060 10/06 A2970 RMK AO2 SLP064 T01000056=
201703211453 METAR KSEA 211453Z 13007KT 10SM FEW038 OVC060 09/06 A2971 RMK AO2 RAE1358 SLP067 P0000 60007 T00940061 56012=
201703211353 METAR KSEA 211353Z 10009KT 10SM -RA SCT038 OVC060 08/06 A2972 RMK AO2 SLP071 P0002 T00830061=
201703211253 METAR KSEA 211253Z 11008KT 10SM -RA BKN039 OVC055 08/06 A2973 RMK AO2 SLP075 P0005 T00830061=
201703211153 METAR KSEA 211153Z 12004KT 8SM -RA SCT042 OVC055 08/06 A2975 RMK AO2 SLP080 P0005 60006 70007 T00780056 10100 20078 58010=
201703211053 METAR KSEA 211053Z 00000KT 10SM -RA SCT049 OVC060 08/06 A2976 RMK AO2 RAB09 SLP084 P0001 T00780056=
201703210953 METAR KSEA 210953Z 00000KT 10SM OVC065 09/05 A2976 RMK AO2 SLP086 T00890050=
201703210853 METAR KSEA 210853Z 04004KT 10SM FEW046 OVC065 09/05 A2978 RMK AO2 RAB06E38 SLP090 P0000 60000 T00890050 58018=
201703210753 METAR KSEA 210753Z 03005KT 10SM OVC070 09/04 A2979 RMK AO2 SLP096 T00940039 401220033=
201703210653 METAR KSEA 210653Z 35005KT 10SM BKN065 OVC080 08/04 A2982 RMK AO2 SLP104 T00830039=
201703210553 METAR KSEA 210553Z 03006KT 10SM SCT055 OVC080 09/04 A2983 RMK AO2 SLP108 60001 T00890039 10106 20083 58021=
201703210453 METAR KSEA 210453Z 08006KT 10SM BKN055 OVC080 11/01 A2985 RMK AO2 SLP117 T01060011=
201703210353 METAR KSEA 210353Z 03005KT 10SM OVC050 09/04 A2988 RMK AO2 SLP127 T00890044=
201703210253 METAR KSEA 210253Z 33005KT 10SM BKN055 OVC075 08/04 A2989 RMK AO2 RAB0155E27 SLP130 P0000 60001 T00830044 57002=
201703210153 METAR KSEA 210153Z 04007KT 10SM OVC060 09/04 A2989 RMK AO2 RAB00E32 SLP130 P0001 T00940039=
201703210053 METAR KSEA 210053Z 02008KT 10SM OVC060 10/02 A2990 RMK AO2 SLP133 T01000022=
201703202353 METAR KSEA 202353Z 31005KT 10SM OVC060 11/02 A2990 RMK AO2 SLP132 T01060022 10122 20094 56010=
201703202253 METAR KSEA 202253Z 36007KT 10SM OVC060 11/01 A2991 RMK AO2 SLP135 T01060011=
201703202153 METAR KSEA 202153Z 34010KT 10SM BKN070 OVC140 11/01 A2992 RMK AO2 SLP139 T01110011=
201703202053 METAR KSEA 202053Z 35012KT 10SM FEW070 BKN140 OVC200 12/01 A2993 RMK AO2 SLP141 T01170011 56021=
201703201953 METAR KSEA 201953Z 34009KT 10SM FEW080 BKN200 11/01 A2995 RMK AO2 SLP148 T01110011 $=
201703201853 METAR KSEA 201853Z 36011KT 10SM SCT080 BKN200 12/M01 A2997 RMK AO2 SLP154 T01171006 $=
201703201753 METAR KSEA 201753Z 35007KT 10SM BKN075 BKN250 09/M01 A2999 RMK AO2 SLP164 T00941011 10100 20033 56014 $=
201703201653 METAR KSEA 201653Z 01013KT 10SM FEW120 SCT170 BKN250 07/00 A3000 RMK AO2 SLP168 T00670000 $=
201703201553 METAR KSEA 201553Z 01012KT 10SM FEW120 SCT170 OVC250 06/01 A3001 RMK AO2 SLP172 ACSL DSNT SE T00560006=
201703201453 METAR KSEA 201453Z 02013KT 10SM FEW120 BKN170 OVC250 04/01 A3003 RMK AO2 SLP177 ACSL DSNT SE T00390006 56013=
201703201353 METAR KSEA 201353Z 01013KT 10SM FEW120 BKN170 OVC250 03/01 A3003 RMK AO2 SLP178 T00330011=
201703201253 METAR KSEA 201253Z 02014KT 10SM SCT180 04/01 A3005 RMK AO2 SLP185 T00390006=
201703201153 METAR KSEA 201153Z 02016KT 10SM CLR 04/01 A3007 RMK AO2 SLP190 T00390011 10061 20039 57014=
201703201053 METAR KSEA 201053Z 02014KT 10SM CLR 04/01 A3008 RMK AO2 SLP194 T00390006=
201703200953 METAR KSEA 200953Z 02014KT 10SM CLR 04/01 A3010 RMK AO2 SLP201 T00440006=
201703200853 METAR KSEA 200853Z 01015KT 10SM CLR 04/01 A3011 RMK AO2 SLP205 T00440011 56019=
201703200753 METAR KSEA 200753Z 02013KT 10SM SCT200 05/01 A3013 RMK AO2 SLP210 T00500011 401170011=
201703200653 METAR KSEA 200653Z 01014KT 10SM BKN200 06/01 A3015 RMK AO2 SLP217 T00560006=
201703200553 METAR KSEA 200553Z 01015KT 10SM BKN200 06/01 A3017 RMK AO2 SLP224 T00610011 10111 20056 58009=
201703200453 METAR KSEA 200453Z 01010KT 10SM BKN250 07/01 A3019 RMK AO2 SLP231 T00670006=
201703200353 METAR KSEA 200353Z 36010KT 10SM BKN250 07/01 A3019 RMK AO2 SLP234 T00670006=
201703200253 METAR KSEA 200253Z 35011KT 10SM BKN250 07/00 A3020 RMK AO2 SLP235 T00720000 56007=
201703200153 METAR KSEA 200153Z 34012KT 10SM BKN250 08/00 A3020 RMK AO2 SLP235 T00830000=
201703200053 METAR KSEA 200053Z 35013KT 10SM BKN250 10/M01 A3021 RMK AO2 SLP237 T01001006=
201703192353 METAR KSEA 192353Z 35014KT 10SM FEW050 BKN250 11/M01 A3022 RMK AO2 SLP241 T01061006 10117 20072 56018=
201703192253 METAR KSEA 192253Z 35009G17KT 10SM FEW050 BKN250 11/M01 A3023 RMK AO2 SLP245 T01111006=
201703192153 METAR KSEA 192153Z 34010KT 10SM FEW050 SCT250 11/M01 A3024 RMK AO2 SLP249 T01061011=
201703192053 METAR KSEA 192053Z 33007KT 10SM FEW020 SCT050 10/M01 A3027 RMK AO2 SLP259 T01001006 58013=
201703191953 METAR KSEA 191953Z 36007KT 320V040 10SM FEW015 SCT040 09/M01 A3029 RMK AO2 SLP265 T00941006=
201703191853 METAR KSEA 191853Z 28007KT 10SM FEW010 SCT030 08/01 A3031 RMK AO2 SLP271 T00780006=
201703191753 METAR KSEA 191753Z 09003KT 10SM CLR 07/M01 A3031 RMK AO2 SLP272 T00721011 10078 20011 51008=
201703191653 METAR KSEA 191653Z 15003KT 10SM FEW034 SCT210 06/M01 A3030 RMK AO2 SLP271 T00561006=
201703191553 METAR KSEA 191553Z 12006KT 10SM FEW032 BKN190 03/M01 A3029 RMK AO2 SLP268 T00331011=
201703191453 METAR KSEA 191453Z 15005KT 10SM SCT170 BKN200 02/M02 A3028 RMK AO2 SLP265 T00221017 51014=
201703191353 METAR KSEA 191353Z 17005KT 10SM SCT160 02/M01 A3027 RMK AO2 SLP261 T00171011=
201703191253 METAR KSEA 191253Z 12006KT 10SM CLR 02/M01 A3026 RMK AO2 SLP255 T00221011=
201703191153 METAR KSEA 191153Z 11006KT 10SM CLR 02/M01 A3024 RMK AO2 SLP250 70029 T00171006 10044 20011 53014=
201703191053 METAR KSEA 191053Z 13004KT 10SM FEW045 02/M01 A3022 RMK AO2 SLP243 T00171006=
201703190953 METAR KSEA 190953Z 12005KT 10SM FEW045 02/M01 A3022 RMK AO2 SLP242 T00221006=
201703190853 METAR KSEA 190853Z 16006KT 10SM FEW045 02/M01 A3020 RMK AO2 SLP236 T00221006 53013=
201703190753 METAR KSEA 190753Z 16005KT 10SM CLR 03/00 A3018 RMK AO2 SLP230 T00280000 401390028=
201703190653 METAR KSEA 190653Z 08005KT 10SM FEW045 04/M01 A3018 RMK AO2 SLP227 T00391006=
201703190553 METAR KSEA 190553Z 06006KT 10SM SCT043 04/00 A3016 RMK AO2 SLP222 T00440000 10100 20039 53020=
201703190453 METAR KSEA 190453Z 05008KT 10SM FEW034 SCT050 04/00 A3014 RMK AO2 SLP214 T00440000=
201703190353 METAR KSEA 190353Z 03009KT 10SM FEW038 SCT055 04/01 A3012 RMK AO2 SLP207 T00440006=
201703190253 METAR KSEA 190253Z 03011KT 10SM FEW027 FEW038 SCT055 06/01 A3010 RMK AO2 SLP202 T00560006 51031=
201703190153 METAR KSEA 190153Z 02009KT 10SM FEW024 FEW044 BKN055 06/02 A3008 RMK AO2 SLP194 T00610017=
201703190053 METAR KSEA 190053Z 23011KT 10SM FEW020 FEW040 SCT060 08/M02 A3005 RMK AO2 SLP183 T00831022=
201703182353 METAR KSEA 182353Z 23012G19KT 10SM FEW020 FEW040 SCT070 10/00 A3001 RMK AO2 PK WND 22027/2321 SLP168 60001 T01000000 10100 20067 53038=
201703182253 METAR KSEA 182253Z 22018G23KT 10SM FEW020 FEW040 SCT070 10/M01 A2996 RMK AO2 SLP153 T01001011=
201703182153 METAR KSEA 182153Z 21015G24KT 10SM FEW020 BKN070 10/02 A2993 RMK AO2 SLP142 T01000022=
201703182053 METAR KSEA 182053Z 22018G24KT 10SM FEW021 BKN070 09/04 A2989 RMK AO2 SLP129 60001 T00890044 51034=
201703182047 SPECI KSEA 182047Z 22017G24KT 10SM FEW021 BKN070 09/04 A2989 RMK AO2=
201703181953 METAR KSEA 181953Z 20013KT 10SM OVC015 08/06 A2986 RMK AO2 SLP118 T00780056=
201703181903 SPECI KSEA 181903Z 21009KT 10SM BKN015 BKN025 OVC070 07/06 A2984 RMK AO2 T00720061=
201703181853 METAR KSEA 181853Z 19012KT 10SM SCT015 BKN055 OVC070 07/06 A2983 RMK AO2 RAE38 PRESRR SLP110 P0001 T00720056=
201703181814 SPECI KSEA 181814Z 19010KT 10SM -RA SCT012 BKN044 OVC055 07/06 A2980 RMK AO2 P0001 T00720061=
201703181753 METAR KSEA 181753Z 19015G20KT 10SM -RA FEW008 BKN012 OVC039 07/06 A2979 RMK AO2 SLP097 P0004 60028 T00670056 10122 20067 53043=
201703181653 METAR KSEA 181653Z 20014KT 6SM -RA BR FEW007 BKN011 OVC040 07/07 A2975 RMK AO2 PRESRR SLP083 P0008 T00670067=
201703181641 SPECI KSEA 181641Z 20012KT 6SM -RA BR FEW007 BKN011 OVC040 07/07 A2974 RMK AO2 PRESRR P0007 T00720072=
201703181553 METAR KSEA 181553Z 20013KT 7SM -RA OVC045 07/06 A2969 RMK AO2 PRESRR SLP063 P0010 T00720061=
201703181453 METAR KSEA 181453Z 22012KT 9SM -RA OVC042 08/07 A2966 RMK AO2 RAE1358B13 SLP052 P0001 60006 T00830067 53017=
201703181424 SPECI KSEA 181424Z 22011KT 10SM -RA FEW014 SCT026 OVC031 09/07 A2964 RMK AO2 RAE1358B13 P0000 T00890072=
201703181400 SPECI KSEA 181400Z 22011KT 10SM FEW009 SCT014 OVC022 09/08 A2964 RMK AO2 RAE1358 P0000 T00940078=
201703181353 METAR KSEA 181353Z 23011KT 10SM -RA FEW009 BKN014 OVC020 09/08 A2963 RMK AO2 SLP042 P0003 T00940083=
201703181322 SPECI KSEA 181322Z 24015G20KT 8SM -RA FEW009 BKN013 OVC044 12/11 A2961 RMK AO2 P0002 T01170106=
201703181253 METAR KSEA 181253Z 20014KT 4SM -RA BR FEW027 OVC038 12/11 A2961 RMK AO2 SLP035 P0002 T01220106=
201703181153 METAR KSEA 181153Z 21014G22KT 10SM -RA BKN034 OVC040 12/11 A2961 RMK AO2 SLP034 P0002 60007 70073 T01220106 10139 20078 53000=
201703181053 METAR KSEA 181053Z 20014KT 10SM -RA BKN039 OVC046 13/10 A2960 RMK AO2 SLP031 P0003 T01330100=
201703180953 METAR KSEA 180953Z 18011KT 10SM -RA BKN065 OVC090 14/09 A2959 RMK AO2 RAB45 SLP027 P0000 T01390094=
201703180853 METAR KSEA 180853Z 16013KT 10SM SCT070 BKN090 OVC110 13/10 A2961 RMK AO2 SLP034 60002 T01280100 58028=
201703180753 METAR KSEA 180753Z 14011KT 10SM FEW047 SCT060 OVC095 12/10 A2964 RMK AO2 SLP045 T01170100 401170028=
201703180653 METAR KSEA 180653Z 15007KT 10SM FEW005 BKN045 OVC070 08/08 A2968 RMK AO2 RAE53 SLP058 P0002 T00830078=
201703180553 METAR KSEA 180553Z 15004KT 6SM -RA BR FEW005 BKN030 OVC040 08/08 A2970 RMK AO2 SLP064 P0008 60042 T00780078 10083 20067 56024=
201703180508 SPECI KSEA 180508Z 00000KT 2SM -RA BR FEW001 SCT006 OVC030 07/07 A2970 RMK AO2 P0003 T00670067=
201703180453 METAR KSEA 180453Z 31005KT 3SM -RA BR FEW001 BKN032 OVC050 07/07 A2971 RMK AO2 SLP068 P0006 T00720067=
201703180353 METAR KSEA 180353Z 11003KT 6SM -RA BR FEW003 SCT027 OVC034 08/07 A2972 RMK AO2 SLP073 P0007 T00780067=
201703180253 METAR KSEA 180253Z VRB05KT 5SM -RA BR FEW004 BKN029 OVC036 07/07 A2977 RMK AO2 SLP088 P0008 60021 T00720067 58035=
201703180232 SPECI KSEA 180232Z 09008KT 5SM -RA BR FEW004 SCT026 OVC033 07/06 A2978 RMK AO2 P0005 T00720061=
201703180153 METAR KSEA 180153Z 07006KT 3SM -RA BR FEW002 OVC026 07/06 A2980 RMK AO2 SLP100 P0006 T00720061=
201703180053 METAR KSEA 180053Z 00000KT 5SM -RA BR FEW005 BKN026 OVC033 07/06 A2984 RMK AO2 SLP115 P0007 T00670056=
201703180037 SPECI KSEA 180037Z 02003KT 3SM -RA BR FEW005 BKN027 OVC033 07/06 A2985 RMK AO2 P0006 T00670056=
201703172353 METAR KSEA 172353Z 05004KT 5SM -RA BR SCT005 BKN035 OVC045 07/06 A2987 RMK AO2 SLP124 P0006 60024 T00670056 10067 20056 56033=
201703172319 SPECI KSEA 172319Z 05005KT 5SM -RA BR FEW003 FEW017 OVC035 07/06 A2988 RMK AO2 P0002 T00670056=
201703172253 METAR KSEA 172253Z 06004KT 6SM -RA BR FEW017 BKN034 OVC042 07/05 A2990 RMK AO2 SLP132 P0006 T00670050=
201703172153 METAR KSEA 172153Z 05004KT 5SM -RA BR FEW006 BKN030 OVC042 07/04 A2993 RMK AO2 SLP142 P0007 T00670044=
201703172128 SPECI KSEA 172128Z 09004KT 5SM -RA BR FEW006 BKN026 OVC033 06/04 A2995 RMK AO2 P0003 T00610039=
201703172053 METAR KSEA 172053Z 11010KT 6SM -RA BR FEW006 BKN034 OVC046 06/04 A2997 RMK AO2 SLP157 P0004 60005 T00560044 58000=
201703172040 SPECI KSEA 172040Z 10008KT 5SM -RA BR FEW008 BKN038 OVC048 06/04 A2997 RMK AO2 P0003 T00610044=
201703171953 METAR KSEA 171953Z 18007KT 5SM -RA BR FEW025 OVC038 06/05 A2999 RMK AO2 RAB17 SLP165 P0001 T00610050=
201703171853 METAR KSEA 171853Z 25005KT 10SM FEW035 BKN060 OVC095 06/03 A2997 RMK AO2 SLP157 T00610033=
201703171753 METAR KSEA 171753Z 26004KT 10SM SCT075 OVC120 06/03 A2997 RMK AO2 SLP157 T00610033 10067 20028 56027=
201703171653 METAR KSEA 171653Z 01003KT 10SM OVC130 07/02 A2999 RMK AO2 SLP162 T00670022=
201703171553 METAR KSEA 171553Z 32003KT 10SM OVC130 05/02 A3003 RMK AO2 SLP176 T00500022=
201703171453 METAR KSEA 171453Z 00000KT 10SM OVC140 04/02 A3005 RMK AO2 SLP185 T00390017 56017=
201703171353 METAR KSEA 171353Z 00000KT 10SM FEW120 OVC160 03/02 A3007 RMK AO2 SLP190 T00330017=
201703171253 METAR KSEA 171253Z 01004KT 10SM BKN160 03/02 A3008 RMK AO2 SLP196 T00330017=
201703171153 METAR KSEA 171153Z 02005KT 10SM BKN250 03/01 A3010 RMK AO2 SLP202 T00330011 10072 20033 56033=
201703171053 METAR KSEA 171053Z 07004KT 10SM BKN250 04/01 A3013 RMK AO2 SLP211 T00390006=
201703170953 METAR KSEA 170953Z 00000KT 10SM SCT250 04/01 A3017 RMK AO2 SLP225 T00440011=
201703170853 METAR KSEA 170853Z 10006KT 10SM SCT250 05/01 A3020 RMK AO2 SLP235 T00500011 58017=
201703170753 METAR KSEA 170753Z 11006KT 10SM SCT250 05/01 A3023 RMK AO2 SLP244 T00500011 401110039=
201703170653 METAR KSEA 170653Z 12006KT 10SM BKN250 06/02 A3025 RMK AO2 SLP250 T00560022=
201703170553 METAR KSEA 170553Z 18004KT 10SM SCT250 07/02 A3025 RMK AO2 SLP252 T00670022 10111 20067 50002=
201703170453 METAR KSEA 170453Z 00000KT 10SM CLR 07/02 A3025 RMK AO2 SLP253 T00670022=
201703170353 METAR KSEA 170353Z 00000KT 10SM CLR 08/02 A3025 RMK AO2 SLP252 T00780017=
201703170253 METAR KSEA 170253Z 00000KT 10SM FEW070 08/02 A3025 RMK AO2 SLP251 T00830022 55006=
201703170153 METAR KSEA 170153Z 29004KT 10SM FEW035 SCT070 09/03 A3024 RMK AO2 SLP248 T00890028=
201703170053 METAR KSEA 170053Z 28010G14KT 10SM FEW035 SCT070 11/02 A3025 RMK AO2 SLP253 T01060017=
201703162353 METAR KSEA 162353Z 25006KT 10SM FEW040 SCT060 11/01 A3026 RMK AO2 SLP257 T01060011 10111 20078 56007=
201703162253 METAR KSEA 162253Z 25006KT 10SM FEW040 SCT060 11/02 A3027 RMK AO2 SLP257 T01060022=
201703162153 METAR KSEA 162153Z 23011G17KT 10SM FEW035 BKN060 10/00 A3027 RMK AO2 SLP259 T01000000=
201703162053 METAR KSEA 162053Z 22011G20KT 10SM SCT035 SCT080 10/01 A3028 RMK AO2 SLP262 T01000006 58002 $=
201703161953 METAR KSEA 161953Z 23011KT 10SM SCT032 09/02 A3029 RMK AO2 SLP264 T00940017 $=
201703161853 METAR KSEA 161853Z 23010KT 10SM SCT030 09/03 A3029 RMK AO2 SLP264 T00940028 $=
201703161753 METAR KSEA 161753Z 20012KT 10SM SCT029 SCT120 08/02 A3029 RMK AO2 SLP265 T00780022 10078 20039 51017 $=
201703161653 METAR KSEA 161653Z 21010KT 10SM FEW029 FEW120 07/03 A3028 RMK AO2 SLP262 T00670028 $=
201703161647 SPECI KSEA 161647Z 20009KT 10SM FEW029 SCT120 06/02 A3028 RMK AO2 $=
201703161633 SPECI KSEA 161633Z 19010KT 10SM BKN029 BKN120 06/01 A3027 RMK AO2 T00610011 $=
201703161553 METAR KSEA 161553Z 19010KT 10SM FEW022 FEW120 06/02 A3025 RMK AO2 SLP253 T00560017 $=
201703161453 METAR KSEA 161453Z 19010KT 10SM FEW021 SCT040 04/02 A3024 RMK AO2 SLP248 T00440017 51027 $=
201703161353 METAR KSEA 161353Z 18012KT 10SM FEW021 04/02 A3022 RMK AO2 SLP240 T00390017 $=
201703161253 METAR KSEA 161253Z 18013KT 10SM FEW020 04/02 A3019 RMK AO2 SLP230 T00440017 $=
201703161153 METAR KSEA 161153Z 18011G20KT 10SM FEW019 04/02 A3016 RMK AO2 SLP221 60001 70061 T00440022 10078 20044 51026 $=
201703161053 METAR KSEA 161053Z 19018KT 10SM FEW019 04/03 A3013 RMK AO2 PK WND 19028/1021 SLP211 T00440028 $=
201703160953 METAR KSEA 160953Z 19015G22KT 10SM SCT019 06/03 A3011 RMK AO2 SLP205 T00560028 $=
201703160940 SPECI KSEA 160940Z 18014G25KT 10SM SCT023 06/03 A3011 RMK AO2 T00560033 $=
201703160853 METAR KSEA 160853Z 21016KT 10SM BKN018 BKN024 06/03 A3008 RMK AO2 PK WND 22026/0809 SLP193 60001 T00610033 51035 $=
201703160753 METAR KSEA 160753Z 21013G23KT 10SM SCT014 BKN020 BKN026 07/04 A3005 RMK AO2 PK WND 20028/0721 RAB22E36 SLP182 P0001 T00670044 401000067 $=
201703160730 SPECI KSEA 160730Z 21015G28KT 7SM -RA SCT017 BKN025 OVC047 07/05 A3003 RMK AO2 PK WND 20028/0721 RAB22 P0001 T00670050 $=
201703160653 METAR KSEA 160653Z 20014G23KT 10SM FEW026 SCT043 BKN050 07/04 A3001 RMK AO2 SLP170 T00720044 $=
201703160553 METAR KSEA 160553Z 20015G20KT 10SM FEW022 BKN039 BKN050 08/05 A2997 RMK AO2 SLP158 60000 T00780050 10100 20078 51041 $=
201703160459 SPECI KSEA 160459Z 18010KT 10SM FEW031 BKN060 BKN090 08/06 A2994 RMK AO2 T00830056 $=
201703160453 METAR KSEA 160453Z 19010KT 10SM FEW034 BKN090 08/06 A2994 RMK AO2 SLP146 T00830056 $=
201703160353 METAR KSEA 160353Z 22014G24KT 10SM SCT018 09/06 A2990 RMK AO2 PK WND 23026/0315 SLP131 T00890061 $=
201703160306 SPECI KSEA 160306Z 21014G19KT 10SM FEW006 BKN015 10/08 A2986 RMK AO2 T01000083 $=
201703160253 METAR KSEA 160253Z 22014KT 10SM FEW006 BKN010 BKN017 10/09 A2985 RMK AO2 DZE44 SLP116 P0000 60000 T01000089 51016 $=
201703160250 SPECI KSEA 160250Z 21012G20KT 10SM FEW006 BKN010 BKN017 10/09 A2985 RMK AO2 DZE44 P0000 $=
201703160209 SPECI KSEA 160209Z 20007KT 4SM -DZ OVC005 09/09 A2983 RMK AO2 P0000 T00940089 $=
201703160153 METAR KSEA 160153Z 18009KT 1 1/2SM -DZ OVC003 09/09 A2982 RMK AO2 SFC VIS 3 RAB05E33DZB50 SLP106 P0000 T00940089 $=
201703160131 SPECI KSEA 160131Z 20007KT 1 1/2SM -RA BR BKN003 OVC008 09/09 A2982 RMK AO2 SFC VIS 2 1/2 RAB05 P0000 T00940089 $=
201703160114 SPECI KSEA 160114Z 21008KT 1 1/2SM -RA BR SCT003 OVC008 09/09 A2982 RMK AO2 SFC VIS 2 RAB05 P0000 T00890089=
201703160053 METAR KSEA 160053Z 21006KT 3SM BR OVC009 09/08 A2981 RMK AO2 DZE34 SLP100 P0000 T00890083=
201703160028 SPECI KSEA 160028Z 21006KT 10SM -DZ BKN008 OVC012 09/08 A2979 RMK AO2 P0000 T00890083=
201703152353 METAR KSEA 152353Z 20007KT 6SM -DZ BKN005 OVC010 09/09 A2979 RMK AO2 RAE16DZB16 SLP096 P0000 60020 T00940089 10100 20094 57005=
201703152343 SPECI KSEA 152343Z 20006KT 4SM -DZ BKN005 OVC012 09/09 A2979 RMK AO2 RAE16DZB16 P0000 T00940089=
201703152253 METAR KSEA 152253Z 27007KT 5SM -RA BR SCT008 BKN014 OVC038 09/08 A2980 RMK AO2 RAE05B31 SLP099 P0001 T00940083=
201703152230 SPECI KSEA 152230Z 24007KT 5SM BR SCT007 BKN012 OVC030 09/09 A2980 RMK AO2 RAE05 P0000 T00940089=
201703152218 SPECI KSEA 152218Z 22005KT 10SM SCT009 BKN021 OVC050 10/08 A2980 RMK AO2 RAE05 P0000 T01000083=
201703152153 METAR KSEA 152153Z 18005KT 9SM -RA SCT009 BKN036 OVC050 10/09 A2980 RMK AO2 RAB09 SLP098 P0005 T01000089=
201703152137 SPECI KSEA 152137Z 18004KT 5SM -RA BR SCT009 BKN029 OVC044 10/08 A2981 RMK AO2 RAB09 P0004 T01000083=
201703152053 METAR KSEA 152053Z 00000KT 10SM SCT008 BKN060 OVC080 10/08 A2981 RMK AO2 RAE49 SLP101 P0001 60014 T01000083 58017=
201703152041 SPECI KSEA 152041Z VRB04KT 10SM -RA BKN007 BKN048 OVC060 10/08 A2981 RMK AO2 P0001 T01000083=
201703151953 METAR KSEA 151953Z 00000KT 9SM -RA SCT007 OVC043 10/07 A2984 RMK AO2 SLP111 P0005 T01000072=
201703151853 METAR KSEA 151853Z 35004KT 8SM -RA SCT005 OVC060 10/08 A2984 RMK AO2 SLP112 P0008 T01000078=
201703151753 METAR KSEA 151753Z 05005KT 7SM -RA FEW002 OVC060 09/08 A2986 RMK AO2 SLP118 FG BANK SW-W P0004 60040 T00940078 10100 20094 58006=
201703151710 SPECI KSEA 151710Z 00000KT 4SM -RA BR FEW005 BKN049 OVC060 09/09 A2988 RMK AO2 P0002 T00940089=
201703151701 SPECI KSEA 151701Z 00000KT 2 1/2SM R16L/6000VP6000FT -RA BR FEW005 BKN045 OVC050 09/09 A2988 RMK AO2 P0000 T00940089=
201703151653 METAR KSEA 151653Z 00000KT 3SM -RA BR BKN044 OVC050 09/09 A2988 RMK AO2 SLP125 FG BANK NW P0008 T00940089=
201703151634 SPECI KSEA 151634Z 31003KT 3SM -RA BR FEW005 OVC043 09/09 A2988 RMK AO2 FG BANK NW P0005 T00940089=
201703151553 METAR KSEA 151553Z 13005KT 10SM -RA OVC050 09/08 A2987 RMK AO2 SLP123 P0005 T00940083=
201703151453 METAR KSEA 151453Z 10006KT 7SM -RA FEW005 OVC049 09/09 A2988 RMK AO2 SLP124 P0009 60023 T00940089 58010=
201703151353 METAR KSEA 151353Z 11003KT 6SM -RA BR SCT005 OVC049 09/09 A2990 RMK AO2 SLP131 P0010 T00940089=
201703151339 SPECI KSEA 151339Z 00000KT 6SM R16L/3000VP6000FT -RA BR SCT005 OVC049 09/09 A2990 RMK AO2 P0008 T00940089=
201703151253 METAR KSEA 151253Z 00000KT 7SM -RA BKN005 OVC050 09/09 A2990 RMK AO2 SLP132 P0004 T00940089=
201703151153 METAR KSEA 151153Z 00000KT 9SM -RA BKN006 OVC046 09/09 A2991 RMK AO2 SLP134 P0007 60022 70043 T00940089 10106 20094 58012=
201703151120 SPECI KSEA 151120Z 00000KT 6SM -RA BR FEW006 BKN035 OVC050 09/09 A2991 RMK AO2 P0003 T00940089=
201703151053 METAR KSEA 151053Z 19004KT 8SM -RA FEW019 BKN033 OVC055 09/09 A2992 RMK AO2 SLP137 P0006 T00940089=
201703150953 METAR KSEA 150953Z 23004KT 5SM -RA BR OVC050 10/09 A2993 RMK AO2 SLP142 P0006 T01000094=
201703150913 SPECI KSEA 150913Z 22005KT 9SM -RA FEW013 FEW031 OVC050 10/09 A2994 RMK AO2 P0001 T01000094=
201703150853 METAR KSEA 150853Z 24004KT 9SM -RA FEW004 BKN013 OVC055 10/09 A2994 RMK AO2 RAB13 SLP145 P0001 60003 T01000094 56004=
201703150803 SPECI KSEA 150803Z 24006KT 10SM OVC006 10/09 A2994 RMK AO2 T01000094=
201703150753 METAR KSEA 150753Z 23006KT 10SM OVC004 10/10 A2994 RMK AO2 RAE14 SLP145 P0001 T01000100 401390089=
201703150733 SPECI KSEA 150733Z 23005KT 10SM BKN004 OVC008 11/10 A2995 RMK AO2 RAE14 P0001 T01060100=
201703150653 METAR KSEA 150653Z 22007KT 10SM -RA BKN007 OVC055 11/10 A2995 RMK AO2 RAE05B26 SLP147 P0001 T01060100=
201703150553 METAR KSEA 150553Z 21005KT 4SM -RA BR OVC003 10/10 A2995 RMK AO2 SLP150 P0002 60006 T01000100 10122 20100 55001=
201703150453 METAR KSEA 150453Z 17006KT 10SM -RA BKN005 BKN055 OVC100 11/10 A2995 RMK AO2 SLP149 P0001 T01060100=
201703150445 SPECI KSEA 150445Z 16006KT 10SM -RA BKN007 BKN055 OVC100 11/10 A2995 RMK AO2 P0001 T01060100=
201703150434 SPECI KSEA 150434Z 20005KT 10SM -RA SCT009 BKN070 OVC100 11/10 A2996 RMK AO2 P0000 T01060100=
201703150353 METAR KSEA 150353Z 22006KT 10SM -RA SCT010 BKN055 OVC100 11/11 A2996 RMK AO2 SLP151 P0001 T01110106=
201703150351 SPECI KSEA 150351Z 21007KT 10SM -RA SCT010 BKN050 OVC100 11/11 A2996 RMK AO2 P0001=
201703150327 SPECI KSEA 150327Z 21008KT 9SM -RA BKN011 BKN027 OVC075 11/10 A2996 RMK AO2 P0000 T01110100=
201703150253 METAR KSEA 150253Z 21008KT 10SM -RA SCT011 OVC080 11/10 A2996 RMK AO2 RAB51 SLP152 P0000 60002 T01110100 53007=
201703150226 SPECI KSEA 150226Z 21009KT 10SM BKN012 OVC085 11/10 A2996 RMK AO2 T01110100=
201703150153 METAR KSEA 150153Z 21008KT 10SM SCT014 BKN025 OVC085 12/11 A2995 RMK AO2 SLP149 T01170106=
201703150103 SPECI KSEA 150103Z 20011KT 10SM FEW007 BKN012 OVC021 12/11 A2994 RMK AO2 T01220111=
201703150053 METAR KSEA 150053Z 20009KT 10SM SCT007 BKN016 OVC023 12/11 A2994 RMK AO2 RAE27 SLP143 P0002 T01220111=
201703142353 METAR KSEA 142353Z 21010KT 10SM -RA FEW007 SCT014 OVC021 12/12 A2994 RMK AO2 RAE18B43 SLP143 P0001 60002 T01220117 10139 20122 53017=
201703142338 SPECI KSEA 142338Z 22011KT 10SM FEW006 SCT012 OVC021 12/11 A2993 RMK AO2 RAE18 P0001 T01220111=
201703142253 METAR KSEA 142253Z 23014G20KT 5SM -RA BR FEW006 BKN014 OVC026 13/12 A2991 RMK AO2 RAB11 SLP134 P0001 T01280117=
201703142243 SPECI KSEA 142243Z 23013G22KT 5SM -RA BR SCT006 BKN013 OVC024 13/12 A2991 RMK AO2 RAB11 P0001 T01280117=
201703142222 SPECI KSEA 142222Z 24013G20KT 8SM -RA FEW009 BKN023 OVC034 13/12 A2990 RMK AO2 RAB11 P0000 T01330117=
201703142153 METAR KSEA 142153Z 24013KT 10SM FEW010 OVC025 14/12 A2989 RMK AO2 SLP127 T01390117=
201703142053 METAR KSEA 142053Z 22012G20KT 10SM FEW008 BKN024 OVC035 14/12 A2988 RMK AO2 SLP126 T01390117 51020=
201703142028 SPECI KSEA 142028Z 23015G21KT 10SM FEW009 BKN024 OVC033 13/12 A2988 RMK AO2 SHRA W-N T01330117=
201703141953 METAR KSEA 141953Z 23012KT 9SM FEW010 BKN019 OVC024 13/12 A2988 RMK AO2 SLP124 SHRA W-N T01330117=
201703141853 METAR KSEA 141853Z 20019G29KT 10SM FEW009 BKN020 OVC050 14/11 A2985 RMK AO2 PK WND 19029/1851 SLP112 T01390111=
201703141808 SPECI KSEA 141808Z 20015G20KT 10SM FEW009 BKN028 OVC055 14/12 A2983 RMK AO2 T01390117=
201703141753 METAR KSEA 141753Z 20015G23KT 10SM FEW011 SCT030 OVC055 14/12 A2982 RMK AO2 RAE07 SLP105 P0000 60013 T01390117 10139 20089 51013=
201703141653 METAR KSEA 141653Z 19012KT 8SM -RA SCT011 OVC055 13/12 A2981 RMK AO2 RAB19 SLP102 P0003 T01330122=
201703141553 METAR KSEA 141553Z 19012KT 10SM FEW015 BKN034 OVC055 11/11 A2980 RMK AO2 RAE50 SLP097 P0003 T01110106=
201703141453 METAR KSEA 141453Z 18008KT 10SM -RA FEW003 SCT032 BKN055 BKN200 10/09 A2978 RMK AO2 SLP093 P0001 60007 T01000094 56010=
201703141353 METAR KSEA 141353Z 14010KT 10SM -RA FEW005 BKN065 OVC110 09/09 A2979 RMK AO2 RAE26B47 SLP093 P0002 T00940089=
201703141253 METAR KSEA 141253Z 13008KT 8SM -RA FEW005 BKN031 OVC046 09/09 A2980 RMK AO2 SLP097 P0004 T00940089=
201703141233 SPECI KSEA 141233Z 00000KT 7SM -RA BKN028 OVC038 10/09 A2981 RMK AO2 P0003 T01000089=
201703141153 METAR KSEA 141153Z 00000KT 4SM -RA BR FEW010 OVC033 09/09 A2982 RMK AO2 SLP103 P0007 60016 70080 T00940089 10117 20089 56042=
201703141053 METAR KSEA 141053Z 09007KT 6SM RA BR SCT040 OVC050 09/08 A2983 RMK AO2 PRESFR SLP109 P0006 T00940083=
201703140953 METAR KSEA 140953Z 11007KT 10SM -RA SCT040 OVC065 09/08 A2991 RMK AO2 SLP135 P0003 T00940083=
201703140853 METAR KSEA 140853Z 15004KT 10SM -RA BKN039 OVC060 10/09 A2994 RMK AO2 RAB42 SLP145 P0000 60000 T01000089 56031=
201703140753 METAR KSEA 140753Z 10004KT 10SM FEW013 SCT070 OVC150 10/09 A2996 RMK AO2 SLP154 T01000094 401170083=
201703140736 SPECI KSEA 140736Z 11005KT 10SM SCT013 OVC150 10/09 A2997 RMK AO2 T01000094=
201703140653 METAR KSEA 140653Z 10005KT 10SM FEW003 OVC013 11/10 A3001 RMK AO2 SLP168 T01060100=
201703140619 SPECI KSEA 140619Z 12006KT 6SM BR FEW003 OVC013 11/10 A3002 RMK AO2 T01110100=
201703140553 METAR KSEA 140553Z 11005KT 7SM FEW009 OVC015 12/10 A3003 RMK AO2 SLP177 60000 T01170100 10117 20100 50002=
201703140545 SPECI KSEA 140545Z 12005KT 7SM FEW009 OVC015 11/10 A3003 RMK AO2 T01110100=
201703140518 SPECI KSEA 140518Z 15004KT 10SM BKN009 OVC015 11/11 A3004 RMK AO2 T01110106=
201703140453 METAR KSEA 140453Z 19004KT 10SM OVC010 11/11 A3003 RMK AO2 SLP177 T01110106=
201703140448 SPECI KSEA 140448Z 17004KT 10SM OVC010 11/11 A3003 RMK AO2=
201703140405 SPECI KSEA 140405Z VRB04KT 7SM OVC005 11/10 A3003 RMK AO2 T01110100=
201703140353 METAR KSEA 140353Z 00000KT 7SM OVC004 11/11 A3003 RMK AO2 SLP175 T01110106=
201703140311 SPECI KSEA 140311Z 00000KT 7SM BKN003 BKN060 11/10 A3003 RMK AO2 T01060100=
201703140253 METAR KSEA 140253Z 00000KT 10SM SCT003 BKN060 BKN200 11/10 A3003 RMK AO2 SLP176 60000 T01060100 58004=
201703140153 METAR KSEA 140153Z 20003KT 10SM SCT005 BKN060 OVC100 11/11 A3003 RMK AO2 SLP177 T01060106=
201703140053 METAR KSEA 140053Z 00000KT 7SM BKN005 OVC070 11/11 A3004 RMK AO2 RAE2355 SLP180 P0000 T01110106=
201703140048 SPECI KSEA 140048Z 00000KT 7SM BKN005 OVC070 11/11 A3004 RMK AO2 RAE2355 P0000=
201703140022 SPECI KSEA 140022Z 17009KT 6SM BR SCT004 SCT030 OVC070 11/11 A3004 RMK AO2 RAE2355 P0000 T01110106=
201703140018 SPECI KSEA 140018Z 16009KT 1 1/2SM BR SCT004 BKN030 OVC070 11/11 A3004 RMK AO2 SFC VIS 4 RAE2355 P0000 T01110106=
201703132353 METAR KSEA 132353Z 15011KT 1 1/2SM -RA BR SCT004 BKN020 OVC070 11/11 A3004 RMK AO2 SFC VIS 4 SLP180 P0004 60040 T01110106 10111 20094 58014=
201703132337 SPECI KSEA 132337Z 14010KT 1 1/2SM -RA BR SCT002 BKN010 OVC060 11/11 A3005 RMK AO2 SFC VIS 4 P0003 T01110106=
201703132259 SPECI KSEA 132259Z 14010KT 1 1/2SM -RA BR SCT007 BKN030 OVC075 11/10 A3006 RMK AO2 SFC VIS 4 P0001 T01060100=
201703132253 METAR KSEA 132253Z 13008KT 5SM -RA BR SCT007 BKN030 OVC055 11/10 A3007 RMK AO2 SLP189 P0007 T01060100=
201703132153 METAR KSEA 132153Z 15006KT 4SM -RA BR OVC006 11/10 A3008 RMK AO2 SLP193 P0010 T01060100=
201703132053 METAR KSEA 132053Z 17004KT 4SM -RA BR OVC005 10/10 A3008 RMK AO2 SLP195 P0006 60019 T01000100 55004=
201703131953 METAR KSEA 131953Z 14007KT 5SM -RA BR BKN006 OVC017 11/10 A3008 RMK AO2 SLP194 P0007 T01060100=
201703131853 METAR KSEA 131853Z 16007KT 4SM -RA BR BKN006 BKN018 OVC075 10/09 A3009 RMK AO2 SLP196 P0006 T01000094=
201703131850 SPECI KSEA 131850Z 16005KT 4SM -RA BR BKN006 BKN018 OVC075 10/09 A3009 RMK AO2 P0006=
201703131824 SPECI KSEA 131824Z 18007KT 4SM -RA BR SCT006 BKN055 OVC070 10/09 A3009 RMK AO2 P0002 T01000089=
201703131753 METAR KSEA 131753Z 17007KT 4SM -RA BR BKN006 BKN060 OVC080 09/09 A3010 RMK AO2 RAB31 SLP198 P0001 60024 T00940089 10100 20083 50012=
201703131730 SPECI KSEA 131730Z 15005KT 1SM R16L/P6000FT BR SCT004 BKN070 OVC095 09/09 A3009 RMK AO2 SFC VIS 3 T00940089=
201703131711 SPECI KSEA 131711Z 16008KT 6SM BR FEW004 SCT020 OVC095 09/08 A3009 RMK AO2 T00940083=
201703131653 METAR KSEA 131653Z 00000KT 2 1/2SM BR SCT005 BKN019 OVC023 09/08 A3010 RMK AO2 RAE53 SLP199 P0003 T00890083=
201703131618 SPECI KSEA 131618Z 00000KT 1SM R16L/2200VP6000FT -RA BR FEW008 BKN023 OVC046 08/08 A3009 RMK AO2 P0002 T00830083=
201703131610 SPECI KSEA 131610Z 29003KT 2 1/2SM R16L/2600VP6000FT -RA BR FEW020 BKN032 OVC049 09/09 A3009 RMK AO2 VIS W-N 1 P0001 T00890089=
201703131553 METAR KSEA 131553Z 19004KT 6SM -RA BR FEW020 BKN029 OVC055 09/08 A3008 RMK AO2 SLP193 P0009 T00890083=
201703131521 SPECI KSEA 131521Z 17004KT 6SM -RA BR FEW015 BKN029 OVC036 09/08 A3007 RMK AO2 P0005 T00890083=
201703131453 METAR KSEA 131453Z 13006KT 7SM -RA FEW025 BKN046 OVC070 09/08 A3006 RMK AO2 SLP186 P0004 60011 T00890078 58010=
201703131353 METAR KSEA 131353Z 15006KT 8SM -RA BKN035 OVC050 09/07 A3007 RMK AO2 SLP191 P0005 T00890067=
201703131253 METAR KSEA 131253Z 13003KT 10SM -RA BKN042 OVC050 08/07 A3008 RMK AO2 RAB27 SLP192 P0002 T00830067 $=
201703131153 METAR KSEA 131153Z 16006KT 10SM OVC046 09/06 A3009 RMK AO2 RAE1058 SLP197 P0000 60001 70003 T00890061 10106 20089 58016 $=
201703131053 METAR KSEA 131053Z 13009KT 10SM -RA BKN050 OVC070 09/06 A3011 RMK AO2 SLP203 P0001 T00890061 $=
201703130953 METAR KSEA 130953Z 11006KT 10SM -RA OVC065 09/06 A3014 RMK AO2 RAB49 SLP213 P0000 T00940061 $=
201703130853 METAR KSEA 130853Z 13005KT 10SM BKN070 OVC085 09/06 A3014 RMK AO2 SLP213 T00940061 56009 $=
201703130753 METAR KSEA 130753Z 17003KT 10SM SCT070 OVC090 09/06 A3015 RMK AO2 SLP216 T00940061 401170072 $=
201703130653 METAR KSEA 130653Z 14008KT 10SM OVC090 10/06 A3015 RMK AO2 SLP217 T01000061 $=
201703130553 METAR KSEA 130553Z 14006KT 10SM BKN080 OVC140 11/07 A3017 RMK AO2 SLP223 T01060067 10117 20094 56012 $=
201703130453 METAR KSEA 130453Z 00000KT 10SM OVC140 11/07 A3017 RMK AO2 SLP225 T01060072 $=
201703130353 METAR KSEA 130353Z 09005KT 10SM FEW070 BKN130 OVC200 11/07 A3018 RMK AO2 SLP228 T01060072 $=
201703130253 METAR KSEA 130253Z 03004KT 10SM FEW050 BKN110 OVC170 11/07 A3020 RMK AO2 SLP235 T01060072 56013 $=
201703130153 METAR KSEA 130153Z 07005KT 10SM BKN120 OVC200 11/08 A3020 RMK AO2 SLP235 T01060078 $=
201703130053 METAR KSEA 130053Z 09005KT 10SM FEW015 BKN120 OVC200 12/08 A3023 RMK AO2 SLP246 T01170078 $=
201703122353 METAR KSEA 122353Z 08005KT 10SM FEW010 FEW050 BKN120 OVC200 12/08 A3024 RMK AO2 SLP248 60002 T01170078 10117 20094 58019 $=
201703122253 METAR KSEA 122253Z 17003KT 10SM FEW010 SCT060 BKN130 OVC200 11/07 A3027 RMK AO2 SLP257 T01110072 $=
201703122153 METAR KSEA 122153Z 20005KT 10SM FEW010 SCT050 BKN120 OVC200 11/07 A3028 RMK AO2 RAE2054B10E44 SLP262 P0000 T01110072 $=
201703122053 METAR KSEA 122053Z 21006KT 10SM -RA FEW008 SCT040 BKN060 OVC200 11/08 A3030 RMK AO2 RAB1957 SLP267 P0002 60002 T01060078 58001 $=
201703121953 METAR KSEA 121953Z 17007KT 10SM FEW008 BKN055 OVC095 10/08 A3031 RMK AO2 RAE48 SLP271 P0000 T01000083 $=
201703121853 METAR KSEA 121853Z 17008KT 10SM -RA FEW007 BKN041 OVC095 10/08 A3031 RMK AO2 RAB51 SLP270 P0000 T01000078 $=
201703121822 SPECI KSEA 121822Z 19010KT 10SM FEW007 SCT020 OVC090 09/08 A3031 RMK AO2 T00940078 $=
201703121753 METAR KSEA 121753Z 19009KT 10SM FEW007 BKN019 OVC100 09/07 A3030 RMK AO2 SLP269 T00940072 10094 20072 52014 $=
201703121653 METAR KSEA 121653Z 22010KT 10SM FEW012 BKN024 OVC100 09/07 A3029 RMK AO2 SLP264 T00890072 $=
201703121645 SPECI KSEA 121645Z 20010KT 10SM FEW012 BKN024 OVC100 09/07 A3028 RMK AO2 T00890072 $=
201703121553 METAR KSEA 121553Z 18009KT 10SM FEW012 BKN050 BKN100 08/07 A3027 RMK AO2 SLP259 T00830067 $=
201703121535 SPECI KSEA 121535Z 18007KT 10SM SCT012 BKN055 OVC100 08/07 A3027 RMK AO2 T00830067 $=
201703121453 METAR KSEA 121453Z 18005KT 10SM BKN012 OVC040 08/07 A3026 RMK AO2 SLP255 T00780067 53004 $=
201703121353 METAR KSEA 121353Z 15005KT 10SM BKN012 BKN048 OVC140 08/07 A3025 RMK AO2 SLP250 T00830067 $=
201703121253 METAR KSEA 121253Z 14006KT 10SM BKN014 BKN048 OVC140 08/07 A3025 RMK AO2 SLP250 T00780067 $=
201703121153 METAR KSEA 121153Z 15006KT 10SM FEW013 SCT060 OVC150 07/07 A3025 RMK AO2 SLP251 60003 70037 T00720067 10083 20072 51005 $=
201703121053 METAR KSEA 121053Z 20008KT 10SM SCT025 OVC150 08/07 A3024 RMK AO2 SLP248 T00780067 $=
201703120953 METAR KSEA 120953Z 20012KT 10SM FEW030 OVC160 08/07 A3024 RMK AO2 RAE23 SLP249 P0000 T00780072 $=
201703120853 METAR KSEA 120853Z 21011KT 10SM -RA FEW007 FEW030 OVC160 08/07 A3023 RMK AO2 SLP245 P0000 60003 T00780072 51028 $=
201703120840 SPECI KSEA 120840Z 21011KT 10SM -RA FEW007 FEW030 OVC160 08/07 A3023 RMK AO2 P0000 T00780072 $=
201703120753 METAR KSEA 120753Z 21012KT 4SM -RA BR SCT002 BKN005 OVC014 08/07 A3021 RMK AO2 RAB08 SLP240 P0002 T00780072 401170044 $=
201703120743 SPECI KSEA 120743Z 22009KT 4SM -RA BR SCT002 BKN005 OVC014 08/07 A3021 RMK AO2 RAB08 P0001 T00780072 $=
201703120653 METAR KSEA 120653Z 21014KT 10SM FEW007 BKN023 OVC036 08/07 A3019 RMK AO2 RAB08E24 SLP233 P0001 T00780072 $=
201703120615 SPECI KSEA 120615Z 22011KT 5SM -RA BR FEW007 BKN014 OVC028 08/07 A3017 RMK AO2 RAB08 P0001 T00830072 $=
201703120558 SPECI KSEA 120558Z 20011KT 10SM BKN014 BKN034 OVC041 08/07 A3015 RMK AO2 T00830072 $=
201703120553 METAR KSEA 120553Z 20009KT 10SM SCT016 BKN032 OVC047 08/07 A3015 RMK AO2 RAE03 SLP218 P0001 60001 T00830072 10117 20083 51040 $=
201703120512 SPECI KSEA 120512Z 21010KT 10SM SCT007 BKN016 OVC033 08/08 A3013 RMK AO2 RAE03 P0001 T00830078 $=
201703120453 METAR KSEA 120453Z 22010G17KT 3SM -RA BR BKN008 OVC014 08/08 A3013 RMK AO2 PK WND 22026/0407 RAB21 PRESRR SLP210 P0000 T00830078 $=
201703120434 SPECI KSEA 120434Z 22016G25KT 4SM -RA BR OVC014 09/07 A3011 RMK AO2 PK WND 22026/0407 RAB21 PRESRR P0000 T00890072 $=
201703120353 METAR KSEA 120353Z 19011G18KT 10SM BKN019 OVC026 09/07 A3007 RMK AO2 PK WND 23027/0331 SLP192 T00940072 $=
201703120253 METAR KSEA 120253Z 21015G29KT 10SM BKN018 BKN026 OVC040 09/08 A3003 RMK AO2 PK WND 21031/0235 RAB0154E24 SLP177 P0000 60000 T00940078 53029 $=
201703120153 METAR KSEA 120153Z 21018G24KT 10SM FEW010 BKN015 OVC040 10/08 A2999 RMK AO2 SLP163 T01000078 $=
201703120121 SPECI KSEA 120121Z 22013KT 10SM FEW010 BKN016 OVC040 10/08 A2997 RMK AO2 T01000083 $=
201703120053 METAR KSEA 120053Z 20014G24KT 10SM SCT014 BKN030 BKN041 10/08 A2995 RMK AO2 PK WND 23028/0034 SLP149 T01000083 $=
201703120035 SPECI KSEA 120035Z 22021G28KT 10SM BKN014 BKN027 11/08 A2995 RMK AO2 PK WND 23028/0034 T01060083 $=
201703112353 METAR KSEA 112353Z 21018G28KT 10SM SCT016 BKN028 OVC034 11/08 A2994 RMK AO2 PK WND 21028/2331 SLP146 60022 T01110083 10117 20056 53012 $=
201703112253 METAR KSEA 112253Z 20019G24KT 10SM FEW010 BKN026 OVC032 11/08 A2993 RMK AO2 SLP142 T01110083 $=
201703112153 METAR KSEA 112153Z 18006KT 10SM FEW006 OVC029 10/08 A2991 RMK AO2 RAB07E16 SLP137 P0001 T01000083 $=
201703112145 SPECI KSEA 112145Z 18006KT 10SM FEW008 OVC029 09/08 A2991 RMK AO2 RAB07E16 P0001 T00940078 $=
201703112053 METAR KSEA 112053Z 14011KT 10SM FEW008 BKN036 OVC045 09/07 A2991 RMK AO2 RAE45 SLP135 P0006 60021 T00890072 56024 $=
201703111953 METAR KSEA 111953Z 13009KT 5SM -RA BR FEW004 BKN043 OVC055 08/06 A2992 RMK AO2 SLP141 P0007 T00780061 $=
201703111940 SPECI KSEA 111940Z 12008KT 5SM -RA BR FEW004 OVC049 07/06 A2992 RMK AO2 PRESFR P0006 T00720061 $=
201703111853 METAR KSEA 111853Z 16008KT 1 1/2SM -RA BR FEW004 OVC048 07/06 A2995 RMK AO2 SFC VIS 2 SLP150 P0008 T00670056 $=
201703111753 METAR KSEA 111753Z 16009KT 1 1/2SM -RA BR FEW003 OVC041 06/06 A2998 RMK AO2 RAB00 SLP159 P0011 60011 T00560056 10061 20044 50001 $=
201703111722 SPECI KSEA 111722Z 14014KT 1 1/2SM -RA BR FEW003 OVC046 06/05 A2998 RMK AO2 RAB00 P0003 T00560050 $=
201703111653 METAR KSEA 111653Z 16010KT 10SM FEW002 OVC065 06/05 A2998 RMK AO2 SLP161 T00560050=
201703111621 SPECI KSEA 111621Z 22004KT 10SM SCT002 OVC065 06/05 A2999 RMK AO2 T00560050=
201703111603 SPECI KSEA 111603Z 21007KT 4SM BR SCT002 OVC015 06/05 A2999 RMK AO2 T00560050=
201703111553 METAR KSEA 111553Z 22003KT 1/4SM R16L/P6000FT BR VV001 06/05 A2998 RMK AO2 SFC VIS 1 SLP160 T00560050=
201703111549 SPECI KSEA 111549Z 22005KT 1/4SM R16L/P6000FT BR VV001 06/05 A2998 RMK AO2 SFC VIS 3/4=
201703111542 SPECI KSEA 111542Z 23005KT 0SM R16L/4500VP6000FT BR VV001 06/05 A2998 RMK AO2 SFC VIS 3/4 T00560050=
201703111533 SPECI KSEA 111533Z 24005KT 0SM R16L/6000VP6000FT BR OVC002 06/05 A2998 RMK AO2 SFC VIS 3/4 T00560050=
201703111453 METAR KSEA 111453Z 24003KT 10SM BCFG OVC140 05/04 A2997 RMK AO2 SLP158 T00500044 56035=
201703111353 METAR KSEA 111353Z 06005KT 6SM BR OVC150 06/04 A2999 RMK AO2 SLP164 T00560044=
201703111253 METAR KSEA 111253Z 02003KT 10SM OVC150 05/04 A3004 RMK AO2 SLP180 T00500044=
201703111153 METAR KSEA 111153Z 33005KT 8SM FEW003 OVC150 05/04 A3008 RMK AO2 SLP193 70001 T00500044 10083 20050 56036=
201703111053 METAR KSEA 111053Z 34004KT 10SM OVC150 06/04 A3011 RMK AO2 SLP202 T00560044=
201703110953 METAR KSEA 110953Z 02003KT 10SM OVC180 06/04 A3015 RMK AO2 SLP218 T00560044=
201703110853 METAR KSEA 110853Z 35005KT 10SM OVC150 06/05 A3018 RMK AO2 SLP228 T00610050 58019=
201703110839 SPECI KSEA 110839Z 35005KT 10SM FEW025 06/05 A3019 RMK AO2 T00610050=
201703110753 METAR KSEA 110753Z 00000KT 10SM OVC024 07/04 A3022 RMK AO2 SLP240 T00670044 401110067=
201703110653 METAR KSEA 110653Z 08004KT 10SM OVC024 08/03 A3023 RMK AO2 SLP243 T00830028=
201703110553 METAR KSEA 110553Z 15003KT 10SM OVC024 08/03 A3024 RMK AO2 SLP248 T00780033 10100 20067 58006=
201703110453 METAR KSEA 110453Z 22003KT 10SM BKN028 08/03 A3024 RMK AO2 SLP249 T00780033=
201703110441 SPECI KSEA 110441Z 20003KT 10SM BKN029 08/03 A3024 RMK AO2 T00780033=
201703110353 METAR KSEA 110353Z 18004KT 10SM SCT030 BKN250 07/04 A3026 RMK AO2 SLP255 T00720039=
201703110253 METAR KSEA 110253Z 18004KT 10SM SCT034 BKN250 08/03 A3026 RMK AO2 SLP254 T00780033 53001=
201703110153 METAR KSEA 110153Z 23006KT 10SM SCT034 BKN250 09/04 A3026 RMK AO2 SLP255 T00890039=
201703110053 METAR KSEA 110053Z 23008KT 10SM SCT032 BKN200 BKN250 09/04 A3025 RMK AO2 SLP252 T00890039=
201703102353 METAR KSEA 102353Z 25011KT 10SM SCT030 SCT200 BKN250 10/04 A3026 RMK AO2 SLP253 60000 T01000044 10111 20094 50005=
201703102253 METAR KSEA 102253Z 23011KT 10SM SCT026 BKN250 11/05 A3026 RMK AO2 SLP256 T01060050=
201703102214 SPECI KSEA 102214Z 24011G18KT 10SM FEW016 BKN024 BKN250 09/05 A3026 RMK AO2 T00940050=
201703102153 METAR KSEA 102153Z 23013KT 10SM FEW016 SCT024 BKN250 10/06 A3026 RMK AO2 SLP253 T01000056=
201703102053 METAR KSEA 102053Z 21014KT 10SM FEW015 SCT032 BKN080 BKN250 11/07 A3024 RMK AO2 SLP247 60000 T01110067 51032=
201703102019 SPECI KSEA 102019Z 21014G22KT 10SM FEW013 SCT019 BKN030 BKN250 10/07 A3023 RMK AO2 T01000067=
201703101953 METAR KSEA 101953Z 21017G25KT 9SM FEW013 BKN019 BKN040 09/07 A3022 RMK AO2 RAB25E31 SLP241 P0000 T00940067=
201703101932 SPECI KSEA 101932Z 23016G22KT 7SM SCT013 BKN018 OVC041 09/07 A3021 RMK AO2 RAB25E31 P0000 T00940072=
201703101853 METAR KSEA 101853Z 21016G24KT 10SM SCT015 OVC032 10/07 A3018 RMK AO2 PK WND 20026/1834 SLP228 T01000067=
201703101753 METAR KSEA 101753Z 21015G30KT 10SM SCT012 OVC031 09/07 A3014 RMK AO2 PK WND 19030/1745 RAE32 SLP215 P0001 60001 T00940067 10094 20083 51037=
201703101744 SPECI KSEA 101744Z 21017G24KT 10SM SCT013 OVC030 09/07 A3014 RMK AO2 PK WND 21026/1729 RAE32 P0001 T00890072=
201703101653 METAR KSEA 101653Z 22013G22KT 8SM -RA BKN016 BKN023 OVC033 09/07 A3012 RMK AO2 RAB36 SLP206 P0000 T00890072=
201703101553 METAR KSEA 101553Z 20012KT 10SM BKN016 OVC024 09/07 A3008 RMK AO2 SLP194 T00940067=
201703101453 METAR KSEA 101453Z 21014G24KT 10SM BKN020 OVC026 09/07 A3003 RMK AO2 SLP179 T00890067 51033=
201703101353 METAR KSEA 101353Z 20012KT 10SM SCT019 OVC028 09/07 A3002 RMK AO2 SLP173 T00940067 $=
201703101317 SPECI KSEA 101317Z 18010G18KT 10SM OVC015 09/07 A3000 RMK AO2 T00940072 $=
201703101253 METAR KSEA 101253Z 19013G19KT 10SM BKN013 BKN025 OVC048 09/07 A2999 RMK AO2 PK WND 20029/1156 PRESRR SLP162 T00890072 $=
201703101205 SPECI KSEA 101205Z 20017G29KT 10SM FEW007 SCT012 BKN055 09/07 A2994 RMK AO2 PK WND 20029/1156 T00890072 $=
201703101153 METAR KSEA 101153Z 21018G29KT 10SM SCT009 BKN014 BKN035 09/08 A2994 RMK AO2 PK WND 20034/1114 RAE50 SLP145 P0002 60002 70065 T00890078 10106 20078 53021 $=
201703101056 SPECI KSEA 101056Z 21022G28KT 5SM -RA BR SCT008 BKN014 OVC065 09/08 A2992 RMK AO2 PK WND 21028/1056 P0000 T00940083 $=
201703101053 METAR KSEA 101053Z 21021G28KT 5SM -RA BR SCT010 BKN046 OVC065 09/08 A2992 RMK AO2 PK WND 23032/1012 RAB19E29B50 SLP138 P0000 T00940083 $=
201703101020 SPECI KSEA 101020Z 21022G32KT 5SM -RA BR FEW009 BKN041 OVC050 09/08 A2990 RMK AO2 PK WND 23032/1012 RAB19 P0000 T00940083 $=
201703100953 METAR KSEA 100953Z 22017G29KT 10SM SCT025 SCT034 OVC041 10/07 A2989 RMK AO2 PK WND 22029/0951 SLP128 T01000072 $=
201703100853 METAR KSEA 100853Z 20013G22KT 10SM SCT049 OVC060 11/07 A2987 RMK AO2 PK WND 21028/0835 SLP123 T01060067 55000 $=
201703100753 METAR KSEA 100753Z 18014G22KT 10SM BKN070 09/08 A2986 RMK AO2 SLP119 T00940078 400940039 $=
201703100653 METAR KSEA 100653Z 20010KT 10SM FEW013 FEW033 SCT055 08/08 A2986 RMK AO2 SLP119 T00830078 $=
201703100633 SPECI KSEA 100633Z 19010KT 5SM BR FEW002 SCT014 OVC035 08/08 A2988 RMK AO2 T00830083 $=
201703100620 SPECI KSEA 100620Z 20009KT 3SM BR SCT002 BKN006 OVC037 08/08 A2988 RMK AO2 T00830083 $=
201703100553 METAR KSEA 100553Z 19008KT 1 1/2SM BR OVC002 08/08 A2987 RMK AO2 SFC VIS 3 RAB29E38 SLP124 P0000 60023 T00780078 10078 20056 55001 $=
201703100453 METAR KSEA 100453Z 18008KT 1 1/2SM BR OVC003 07/07 A2987 RMK AO2 SFC VIS 3 RAE11 SLP122 P0001 T00720072 $=
201703100418 SPECI KSEA 100418Z 16011KT 1 1/2SM BR OVC004 07/07 A2987 RMK AO2 SFC VIS 4 RAE11 P0000 T00670067 $=
201703100353 METAR KSEA 100353Z 16008KT 1 1/2SM -RA BR BKN008 OVC019 06/06 A2987 RMK AO2 SFC VIS 3 SLP124 P0004 T00610061 $=
201703100342 SPECI KSEA 100342Z 15008KT 1 1/2SM -RA BR BKN007 OVC012 06/06 A2987 RMK AO2 SFC VIS 4 P0004 T00560056 $=
201703100253 METAR KSEA 100253Z 00000KT 1 1/2SM -RA BR SCT000 OVC010 06/06 A2988 RMK AO2 SFC VIS 3 SLP126 BR SCT000 P0008 60018 T00560056 55006 $=
201703100227 SPECI KSEA 100227Z 24003KT 1 1/2SM RA BR SCT001 BKN005 OVC022 06/06 A2987 RMK AO2 SFC VIS 3 P0005 T00560056=
201703100153 METAR KSEA 100153Z 28003KT 1 1/2SM -RA BR BKN003 BKN011 OVC019 06/06 A2986 RMK AO2 SFC VIS 2 1/2 SLP122 P0004 T00560056=
201703100053 METAR KSEA 100053Z 00000KT 1 1/2SM -RA BR BKN004 OVC016 06/06 A2986 RMK AO2 SFC VIS 3 SLP122 P0006 T00610061=
201703100030 SPECI KSEA 100030Z 29005KT 1 1/2SM R16L/5500VP6000FT -RA BR BKN004 OVC017 06/06 A2989 RMK AO2 SFC VIS 2 1/2 P0004 T00610061=
201703100005 SPECI KSEA 100005Z 19003KT 1 1/2SM -RA BR SCT004 OVC021 07/07 A2990 RMK AO2 SFC VIS 3 P0002 T00720067=
201703092353 METAR KSEA 092353Z 11005KT 1 1/2SM -RA BR BKN004 OVC024 07/06 A2989 RMK AO2 SFC VIS 3 SLP131 P0011 60036 T00720061 10072 20044 56046=
201703092302 SPECI KSEA 092302Z 01005KT 1 1/2SM -RA BR BKN002 BKN028 OVC038 06/06 A2995 RMK AO2 SFC VIS 3 P0002 T00610061=
201703092253 METAR KSEA 092253Z 35005KT 1/2SM R16L/P6000FT -RA BR BKN002 OVC028 06/06 A2995 RMK AO2 SFC VIS 3 SLP149 P0009 T00610061=
201703092153 METAR KSEA 092153Z 01009KT 1/2SM R16L/P6000FT -RA BR OVC002 06/06 A2998 RMK AO2 SFC VIS 2 1/2 SLP160 P0005 T00610056=
201703092053 METAR KSEA 092053Z 03005KT 1 1/2SM -RA BR BKN003 OVC045 06/06 A3003 RMK AO2 SFC VIS 2 1/2 SLP179 P0004 60011 T00610056 58023=
201703091953 METAR KSEA 091953Z 04006KT 1 1/2SM -RA BR OVC004 06/05 A3007 RMK AO2 SFC VIS 2 SLP192 P0003 T00560050=
201703091853 METAR KSEA 091853Z 30003KT 1 1/2SM -RA BR OVC003 05/04 A3010 RMK AO2 SFC VIS 2 SLP201 P0004 T00500044=
201703091823 SPECI KSEA 091823Z 31004KT 1 1/4SM -RA BR OVC002 05/04 A3010 RMK AO2 P0002 T00500044=
201703091753 METAR KSEA 091753Z 33005KT 1/16SM R16L/3000V5500FT -RA BR VV002 04/04 A3010 RMK AO2 SFC VIS 3/4 RAB39 SLP202 P0001 60004 T00440044 10044 20039 55008=
201703091653 METAR KSEA 091653Z 01004KT 1/16SM R16L/3000VP6000FT FG VV001 04/04 A3010 RMK AO2 SFC VIS 1/2 RAE1557 SLP202 P0000 T00440044=
201703091553 METAR KSEA 091553Z 01004KT 1/2SM R16L/3500VP6000FT -RA FG BKN002 OVC007 04/04 A3011 RMK AO2 SLP206 P0003 T00390039=
201703091453 METAR KSEA 091453Z 34005KT 1/2SM R16L/2000V4000FT -RA FG VV002 04/04 A3013 RMK AO2 RAB53 SLP211 P0000 60000 T00390039 50005=
201703091353 METAR KSEA 091353Z 33004KT 3/4SM R16L/P6000FT BR BKN002 OVC006 04/04 A3013 RMK AO2 SLP211 T00390039 $=
201703091253 METAR KSEA 091253Z 31003KT 3/4SM R16L/3500VP6000FT BR OVC002 04/04 A3012 RMK AO2 SLP210 T00390039 $=
201703091153 METAR KSEA 091153Z 31005KT 3/4SM R16L/5000V6000FT BR OVC002 04/04 A3011 RMK AO2 RAE22DZB22E51 SLP206 P0003 60008 70020 T00390039 10044 20033 50001 $=
201703091130 SPECI KSEA 091130Z 00000KT 3/4SM R16L/2200V5000FT -DZ BR BKN004 OVC009 04/04 A3012 RMK AO2 RAE22DZB22 P0003 T00440039 $=
201703091122 SPECI KSEA 091122Z 00000KT 1SM R16L/5000VP6000FT -DZ BR OVC007 04/04 A3011 RMK AO2 RAE22DZB22 P0003 T00440044 $=
201703091053 METAR KSEA 091053Z 00000KT 3SM -RA BR BKN005 OVC009 04/04 A3011 RMK AO2 SLP206 P0002 T00440039 $=
201703090953 METAR KSEA 090953Z 11006KT 6SM -RA BR BKN008 OVC013 04/04 A3011 RMK AO2 SLP206 P0001 T00440039 $=
201703090918 SPECI KSEA 090918Z 12004KT 3SM -RA BR BKN008 OVC011 04/04 A3011 RMK AO2 P0000 T00390039 $=
201703090853 METAR KSEA 090853Z 13007KT 10SM -RA FEW006 BKN024 OVC030 04/04 A3011 RMK AO2 SLP205 P0001 60002 T00390039 56001 $=
201703090753 METAR KSEA 090753Z 14006KT 4SM -RA BR FEW007 BKN017 OVC036 04/03 A3011 RMK AO2 RAE03B50 SLP205 P0001 T00390033 400610028 $=
201703090704 SPECI KSEA 090704Z 15007KT 8SM FEW007 BKN017 OVC050 03/03 A3011 RMK AO2 RAE03 P0000 T00330028 $=
201703090653 METAR KSEA 090653Z 14006KT 8SM -RA FEW014 BKN037 OVC055 03/03 A3011 RMK AO2 RAB50 SLP205 P0000 T00330028 $=
201703090553 METAR KSEA 090553Z 17005KT 10SM SCT016 BKN038 OVC065 03/03 A3011 RMK AO2 SLP206 60006 T00330028 10033 20028 55003 $=
201703090530 SPECI KSEA 090530Z 16006KT 10SM SCT016 OVC039 03/02 A3010 RMK AO2 T00330022 $=
201703090453 METAR KSEA 090453Z 16006KT 10SM OVC015 03/02 A3009 RMK AO2 RAE50 SLP200 P0000 T00280022 $=
201703090353 METAR KSEA 090353Z 17004KT 10SM -RA OVC016 03/02 A3011 RMK AO2 SLP206 P0001 T00280022 $=
201703090326 SPECI KSEA 090326Z 17003KT 10SM -RA BKN019 OVC030 03/02 A3012 RMK AO2 P0000 T00280022 $=
201703090253 METAR KSEA 090253Z 15006KT 10SM -RA FEW016 OVC035 03/02 A3012 RMK AO2 SLP209 P0001 60005 T00280022 55008=
201703090202 SPECI KSEA 090202Z 13007KT 10SM -RA FEW008 SCT015 OVC031 03/02 A3012 RMK AO2 P0000 T00280017=
201703090153 METAR KSEA 090153Z 13008KT 10SM -RA FEW006 SCT015 OVC029 03/02 A3012 RMK AO2 SLP208 P0001 T00280017=
201703090123 SPECI KSEA 090123Z 13008KT 10SM -RA SCT005 BKN015 OVC026 03/02 A3013 RMK AO2 P0001 T00280017=
201703090053 METAR KSEA 090053Z 13010KT 9SM -RA BKN007 OVC020 03/02 A3014 RMK AO2 SLP215 P0003 T00280017=
201703090010 SPECI KSEA 090010Z 13010KT 8SM -RA BKN006 OVC023 03/02 A3014 RMK AO2 P0001 T00280022=
201703082353 METAR KSEA 082353Z 13009KT 6SM -RA BR FEW007 BKN012 OVC023 03/02 A3015 RMK AO2 SLP217 P0003 60006 T00280017 10061 20028 56013=
201703082343 SPECI KSEA 082343Z 13009KT 6SM -RA BR SCT006 BKN012 OVC021 03/02 A3015 RMK AO2 P0002 T00330017=
201703082253 METAR KSEA 082253Z 14007KT 6SM -RA BR OVC013 04/02 A3016 RMK AO2 SLP222 P0002 T00390017=
201703082215 SPECI KSEA 082215Z 16009KT 9SM -RA BKN019 OVC031 04/02 A3016 RMK AO2 P0000 T00440017=
201703082153 METAR KSEA 082153Z 16008KT 10SM -RA SCT017 BKN032 OVC040 05/02 A3017 RMK AO2 SLP225 P0001 T00500017=
201703082139 SPECI KSEA 082139Z 17009KT 10SM -RA BKN032 OVC043 05/02 A3017 RMK AO2 P0001 T00500017=
201703082106 SPECI KSEA 082106Z 21007KT 9SM -RA FEW012 BKN026 OVC035 05/01 A3018 RMK AO2 P0000 T00500011=
201703082053 METAR KSEA 082053Z 22008KT 10SM -RA FEW012 SCT026 OVC035 06/00 A3018 RMK AO2 RAB52 SLP231 P0000 60000 T00560000 51005=
201703081953 METAR KSEA 081953Z 19010KT 10SM FEW010 BKN070 06/02 A3018 RMK AO2 SLP229 T00560017=
201703081853 METAR KSEA 081853Z 18010KT 10SM FEW008 FEW050 BKN070 06/02 A3017 RMK AO2 SLP226 T00560017=
201703081753 METAR KSEA 081753Z 17013KT 10SM FEW012 FEW049 BKN070 05/02 A3017 RMK AO2 SLP224 T00500022 10050 20039 51013=
201703081653 METAR KSEA 081653Z 19010KT 10SM FEW012 BKN049 BKN075 04/02 A3016 RMK AO2 SLP221 T00440017=
201703081553 METAR KSEA 081553Z 18010KT 10SM FEW035 OVC070 04/01 A3014 RMK AO2 SLP217 T00440011=
201703081453 METAR KSEA 081453Z 17009KT 10SM FEW035 BKN070 04/01 A3013 RMK AO2 SLP212 T00390011 51009=
201703081353 METAR KSEA 081353Z 18013KT 10SM FEW035 BKN070 04/01 A3012 RMK AO2 SLP209 T00390011=
201703081253 METAR KSEA 081253Z 19013KT 10SM FEW019 BKN060 04/01 A3012 RMK AO2 SLP210 T00440011=
201703081153 METAR KSEA 081153Z 21014KT 10SM BKN070 04/01 A3010 RMK AO2 SLP202 70073 T00440006 10056 20044 53019=
201703081053 METAR KSEA 081053Z 20016G22KT 10SM SCT060 04/01 A3007 RMK AO2 SLP192 T00440006=
201703080953 METAR KSEA 080953Z 20013KT 10SM BKN060 04/02 A3007 RMK AO2 SLP192 T00440017=
201703080853 METAR KSEA 080853Z 21012G21KT 10SM BKN055 04/02 A3004 RMK AO2 SLP182 T00440017 53031=
201703080753 METAR KSEA 080753Z 21014KT 10SM FEW017 BKN055 05/03 A3000 RMK AO2 SLP170 T00500033 400560017=
201703080715 SPECI KSEA 080715Z 20012G17KT 10SM FEW014 FEW024 BKN050 05/04 A2999 RMK AO2 T00500039=
201703080653 METAR KSEA 080653Z 21014G20KT 10SM SCT010 BKN020 OVC050 06/04 A2998 RMK AO2 SLP162 T00560044=
201703080622 SPECI KSEA 080622Z 18012KT 10SM BKN012 BKN018 OVC060 06/04 A2997 RMK AO2 T00560044=
201703080553 METAR KSEA 080553Z 19011KT 10SM FEW009 OVC015 06/04 A2995 RMK AO2 SLP151 60004 T00560044 10056 20050 53029=
201703080531 SPECI KSEA 080531Z 19014KT 10SM OVC013 06/04 A2993 RMK AO2 T00560044=
201703080453 METAR KSEA 080453Z 20013G22KT 10SM FEW008 OVC019 06/04 A2991 RMK AO2 SLP137 T00560044=
201703080439 SPECI KSEA 080439Z 19013KT 10SM SCT007 BKN016 OVC021 05/04 A2990 RMK AO2 T00500044=
201703080411 SPECI KSEA 080411Z 17011G20KT 10SM BKN006 OVC012 05/04 A2989 RMK AO2 T00500044=
201703080353 METAR KSEA 080353Z 16006KT 10SM FEW005 OVC010 05/04 A2988 RMK AO2 SLP128 T00500044=
201703080313 SPECI KSEA 080313Z 17010KT 6SM BR SCT004 OVC014 05/04 A2987 RMK AO2 T00500044=
201703080253 METAR KSEA 080253Z 16010KT 1 1/2SM BR OVC003 05/04 A2986 RMK AO2 SFC VIS 3 SLP121 60004 T00500044 53008=
201703080250 SPECI KSEA 080250Z 16008KT 1 1/2SM BR OVC003 05/04 A2986 RMK AO2 SFC VIS 3=
201703080233 SPECI KSEA 080233Z 14007KT 9SM SCT003 BKN008 OVC050 05/04 A2985 RMK AO2 T00500044=
201703080153 METAR KSEA 080153Z 15008KT 10SM SCT007 BKN010 BKN060 05/04 A2984 RMK AO2 RAE53 SLP113 P0001 T00500039=
201703080143 SPECI KSEA 080143Z 15008KT 9SM -RA SCT007 BKN010 OVC034 05/04 A2984 RMK AO2 P0001 T00500044=
201703080137 SPECI KSEA 080137Z 18005KT 10SM -RA SCT009 BKN027 OVC040 05/04 A2984 RMK AO2 P0001 T00500044=
201703080108 SPECI KSEA 080108Z 17005KT 10SM -RA FEW009 SCT028 OVC046 06/04 A2984 RMK AO2 P0000 T00560044=
201703080053 METAR KSEA 080053Z 17005KT 10SM -RA FEW005 BKN028 OVC046 05/04 A2983 RMK AO2 SLP111 P0003 T00500044=
201703080020 SPECI KSEA 080020Z 00000KT 7SM -RA SCT006 BKN015 OVC042 06/04 A2983 RMK AO2 P0002 T00560039=
201703072353 METAR KSEA 072353Z 00000KT 3SM -RA BR BKN007 OVC018 05/04 A2984 RMK AO2 SLP113 P0010 60043 T00500044 10056 20028 56023=
201703072330 SPECI KSEA 072330Z 00000KT 3SM -RA BR BKN007 BKN014 OVC019 05/04 A2984 RMK AO2 P0006 T00500044=
201703072253 METAR KSEA 072253Z 08005KT 4SM -RA BR FEW006 BKN015 OVC023 06/04 A2985 RMK AO2 SLP117 P0006 T00560044=
201703072220 SPECI KSEA 072220Z 10005KT 5SM -RA BR FEW005 BKN015 OVC023 06/04 A2986 RMK AO2 P0002 T00560039=
201703072153 METAR KSEA 072153Z VRB03KT 7SM -RA SCT007 BKN013 OVC021 06/04 A2987 RMK AO2 SLP124 P0009 T00560044=
201703072053 METAR KSEA 072053Z 15007KT 5SM -RA BR SCT007 BKN012 OVC018 05/04 A2991 RMK AO2 SLP136 P0009 60018 T00500039 58021=
201703071953 METAR KSEA 071953Z 17006KT 5SM -RA BR FEW007 BKN013 OVC020 04/04 A2993 RMK AO2 SLP145 P0006 T00440039=
201703071944 SPECI KSEA 071944Z 17008KT 5SM -RA BR FEW007 BKN013 OVC020 04/03 A2994 RMK AO2 P0005 T00440033=
201703071853 METAR KSEA 071853Z 11009KT 7SM -RA FEW006 BKN024 OVC033 04/03 A2995 RMK AO2 SLP152 P0003 T00390028=
201703071753 METAR KSEA 071753Z 10008KT 6SM -RA BR SCT005 OVC022 03/02 A2997 RMK AO2 SNE52 SLP157 P0008 60026 T00280017 10028 20022 58013=
201703071746 SPECI KSEA 071746Z 11006KT 4SM -RASN BR SCT006 OVC020 02/02 A2997 RMK AO2 P0008 T00220017=
201703071738 SPECI KSEA 071738Z 11007KT 4SM -RASN BR BKN006 OVC015 02/02 A2998 RMK AO2 P0007 T00220017=
201703071653 METAR KSEA 071653Z 13007KT 5SM -RASN BR FEW006 OVC017 02/02 A2999 RMK AO2 SNB41 SLP167 P0007 T00220017=
201703071641 SPECI KSEA 071641Z 14007KT 5SM -RASN BR FEW006 OVC014 02/01 A3000 RMK AO2 SNB41 P0006 T00220011=
201703071553 METAR KSEA 071553Z 13006KT 7SM -RA FEW006 OVC017 02/02 A3000 RMK AO2 SLP170 P0003 T00220017=
201703071519 SPECI KSEA 071519Z 11008KT 7SM -RA FEW005 BKN015 OVC021 02/02 A3000 RMK AO2 P0001 T00220017=
201703071453 METAR KSEA 071453Z 11006KT 7SM -RA FEW005 BKN013 OVC020 02/02 A3001 RMK AO2 SLP171 P0004 60008 T00220017 58009=
201703071444 SPECI KSEA 071444Z 12006KT 7SM -RA FEW005 BKN013 OVC020 02/02 A3001 RMK AO2 P0004 T00220017=
201703071432 SPECI KSEA 071432Z 13007KT 7SM -RA FEW008 SCT013 OVC018 02/02 A3001 RMK AO2 P0004 T00220017=
201703071353 METAR KSEA 071353Z 16007KT 7SM -RA SCT008 BKN011 OVC018 02/02 A3003 RMK AO2 SLP178 P0004 T00220017=
201703071345 SPECI KSEA 071345Z 16005KT 7SM -RA SCT008 BKN011 OVC020 02/02 A3003 RMK AO2 P0004 T00220017=
201703071336 SPECI KSEA 071336Z 16007KT 7SM -RA FEW009 OVC021 02/01 A3003 RMK AO2 P0003 T00220011=
201703071324 SPECI KSEA 071324Z 17006KT 9SM -RA FEW019 OVC026 02/02 A3003 RMK AO2 P0002 T00220017=
201703071253 METAR KSEA 071253Z 17008KT 10SM -RA BKN043 OVC075 02/02 A3004 RMK AO2 RAB49 SLP180 P0000 T00220017=
201703071223 SPECI KSEA 071223Z 17009KT 10SM SCT011 BKN030 OVC090 02/01 A3004 RMK AO2 T00220011=
201703071153 METAR KSEA 071153Z 16008KT 10SM BKN012 OVC120 02/01 A3003 RMK AO2 SLP179 60002 70002 T00220011 10028 20017 58002=
201703071053 METAR KSEA 071053Z 16009KT 10SM BKN014 BKN023 OVC029 02/01 A3003 RMK AO2 RAE48 SLP180 P0001 T00170011=
201703070953 METAR KSEA 070953Z 18008KT 10SM -RA SCT008 BKN014 OVC046 02/01 A3004 RMK AO2 RAB34SNB34E49 SLP181 P0001 T00220011=
201703070936 SPECI KSEA 070936Z 17007KT 10SM -RASN SCT008 OVC014 02/01 A3003 RMK AO2 RAB34SNB34 P0001 T00170006=
201703070853 METAR KSEA 070853Z 14006KT 10SM OVC014 02/01 A3004 RMK AO2 SNB15E24 SLP181 P0000 60000 T00170006 51005=
201703070821 SPECI KSEA 070821Z 16008KT 8SM -SN BKN020 BKN030 OVC038 02/01 A3003 RMK AO2 SNB15 P0000 T00170006=
201703070753 METAR KSEA 070753Z 14009KT 10SM FEW016 BKN034 OVC110 02/01 A3003 RMK AO2 SLP180 T00170006 400610017=
201703070653 METAR KSEA 070653Z 17010KT 10SM FEW009 SCT035 BKN120 02/00 A3002 RMK AO2 SLP176 T00170000=
201703070624 SPECI KSEA 070624Z 19009G18KT 10SM FEW009 BKN037 OVC120 02/01 A3003 RMK AO2 T00220006=
201703070553 METAR KSEA 070553Z 16009KT 10SM FEW010 BKN042 OVC110 03/00 A3002 RMK AO2 SLP176 60000 T00280000 10033 20017 51018=
201703070453 METAR KSEA 070453Z 18009KT 10SM FEW030 SCT110 02/00 A3001 RMK AO2 SLP172 T00220000=
201703070353 METAR KSEA 070353Z 18009KT 10SM FEW015 SCT095 02/01 A3000 RMK AO2 SLP168 T00220006=
201703070253 METAR KSEA 070253Z 18011KT 10SM FEW014 SCT020 BKN090 BKN250 02/01 A2997 RMK AO2 SLP159 60000 T00220006 53018=
201703070153 METAR KSEA 070153Z 20010KT 10SM FEW012 FEW025 SCT090 BKN250 03/01 A2995 RMK AO2 SLP151 T00280006=
201703070053 METAR KSEA 070053Z 19017KT 10SM SCT009 SCT020 BKN080 BKN200 03/02 A2993 RMK AO2 SNE02 SLP144 P0000 T00330017=
201703070017 SPECI KSEA 070017Z 20014KT 10SM SCT007 SCT020 BKN110 BKN200 03/02 A2992 RMK AO2 SNE02 P0000 T00280017=
201703070002 SPECI KSEA 070002Z 20015KT 9SM SCT016 BKN120 BKN200 03/02 A2992 RMK AO2 SNE02 P0000 T00280017=
201703062353 METAR KSEA 062353Z 19014KT 9SM -SN BKN016 BKN120 BKN200 03/01 A2992 RMK AO2 SNB42 SLP140 P0000 60000 T00280011 10061 20022 53012=
201703062253 METAR KSEA 062253Z 20013KT 10SM FEW021 SCT040 BKN110 05/01 A2991 RMK AO2 RAB32E43 SLP136 P0000 T00500011=
201703062153 METAR KSEA 062153Z 20015G20KT 10SM FEW022 SCT028 BKN200 05/01 A2988 RMK AO2 SLP128 T00500011=
201703062053 METAR KSEA 062053Z 22011G22KT 10SM SCT024 BKN031 BKN120 05/00 A2988 RMK AO2 SLP127 60000 T00500000 51019=
201703061953 METAR KSEA 061953Z 22013G20KT 10SM FEW008 BKN015 BKN120 05/01 A2987 RMK AO2 SLP125 T00500006=
201703061928 SPECI KSEA 061928Z 22013KT 10SM SCT008 BKN012 OVC050 03/01 A2986 RMK AO2 T00330006=
201703061853 METAR KSEA 061853Z 20014KT 10SM BKN008 BKN017 OVC050 03/01 A2985 RMK AO2 RAB35E50 SLP116 P0000 T00280011=
201703061851 SPECI KSEA 061851Z 20013G22KT 10SM BKN008 BKN017 OVC050 03/01 A2985 RMK AO2 RAB35E50 P0000=
201703061835 SPECI KSEA 061835Z 20012G19KT 10SM -RA SCT008 BKN015 OVC055 02/01 A2985 RMK AO2 RAB35 P0000 T00220011=
201703061753 METAR KSEA 061753Z 22011KT 10SM BKN013 BKN021 OVC030 03/01 A2982 RMK AO2 SLP108 60000 T00330006 10033 20017 52019=
201703061653 METAR KSEA 061653Z 20012KT 10SM BKN010 BKN014 OVC024 03/01 A2980 RMK AO2 SLP102 T00280011=
201703061553 METAR KSEA 061553Z 20010KT 10SM BKN008 OVC013 02/01 A2979 RMK AO2 RAB19E52 SLP095 P0000 T00170006=
201703061453 METAR KSEA 061453Z 20012KT 10SM BKN008 OVC020 02/01 A2977 RMK AO2 SLP090 60000 T00170006 51013=
201703061410 SPECI KSEA 061410Z 19013KT 10SM BKN008 BKN020 OVC040 02/01 A2976 RMK AO2 T00170006=
201703061353 METAR KSEA 061353Z 18011KT 7SM BKN010 02/00 A2976 RMK AO2 RAB24E30SNB24E44 SLP086 P0000 T00170000=
201703061253 METAR KSEA 061253Z 19012KT 10SM OVC011 02/00 A2975 RMK AO2 SLP083 T00220000=
201703061153 METAR KSEA 061153Z 18010KT 10SM BKN010 OVC015 02/00 A2973 RMK AO2 SLP076 T00170000 10033 20017 51024=
201703061142 SPECI KSEA 061142Z 18011KT 10SM OVC010 02/00 A2972 RMK AO2 T00220000=
201703061122 SPECI KSEA 061122Z 18008KT 10SM BKN009 OVC016 02/01 A2972 RMK AO2 T00220006=
201703061101 SPECI KSEA 061101Z 17010KT 10SM SCT008 BKN014 OVC025 02/01 A2972 RMK AO2 T00220006=
201703061053 METAR KSEA 061053Z 18010KT 10SM BKN012 BKN025 02/01 A2972 RMK AO2 PK WND 20026/1007 SLP072 T00220006=
201703061022 SPECI KSEA 061022Z 20013G21KT 10SM BKN012 BKN017 BKN023 02/01 A2971 RMK AO2 PK WND 20026/1007 T00220006=
201703060953 METAR KSEA 060953Z 19014KT 10SM BKN017 BKN110 03/00 A2970 RMK AO2 SLP066 T00280000=
201703060853 METAR KSEA 060853Z 19016G23KT 10SM SCT017 BKN023 03/01 A2966 RMK AO2 SLP052 T00330006 53020=
201703060753 METAR KSEA 060753Z 20019G25KT 10SM BKN015 OVC020 03/01 A2963 RMK AO2 SLP042 T00330006 400720011=
201703060713 SPECI KSEA 060713Z 19013KT 10SM SCT015 BKN019 OVC024 03/01 A2962 RMK AO2 T00330006=
201703060653 METAR KSEA 060653Z 19013KT 10SM SCT015 BKN035 OVC049 03/01 A2961 RMK AO2 SLP037 T00330006=
201703060553 METAR KSEA 060553Z 19011KT 10SM SCT012 BKN019 OVC028 03/01 A2960 RMK AO2 SLP031 60000 T00330006 10072 20028 53022=
201703060509 SPECI KSEA 060509Z 19016KT 10SM BKN016 BKN020 OVC060 03/01 A2958 RMK AO2 T00330006=
201703060453 METAR KSEA 060453Z 19015G22KT 10SM FEW030 FEW050 BKN055 03/01 A2957 RMK AO2 SLP023 T00330006=
201703060353 METAR KSEA 060353Z 20016G20KT 10SM FEW015 OVC033 03/01 A2955 RMK AO2 SLP016 T00330006=
201703060253 METAR KSEA 060253Z 17015G23KT 10SM SCT016 BKN150 03/01 A2953 RMK AO2 PK WND 19029/0158 SLP010 60000 T00280006 53022=
201703060243 SPECI KSEA 060243Z 19015G23KT 10SM SCT016 BKN150 03/01 A2952 RMK AO2 PK WND 19029/0158 T00280006=
201703060218 SPECI KSEA 060218Z 17014G24KT 10SM BKN016 BKN090 BKN110 03/00 A2951 RMK AO2 PK WND 19029/0158 T00330000=
201703060153 METAR KSEA 060153Z 18016G28KT 10SM FEW019 BKN049 OVC095 03/00 A2950 RMK AO2 PK WND 19035/0135 SLP999 T00330000=
201703060053 METAR KSEA 060053Z 18015G24KT 10SM SCT036 BKN048 OVC070 04/00 A2949 RMK AO2 PK WND 21033/0020 RAB18E48 SLP994 P0000 T00440000=
201703052353 METAR KSEA 052353Z 18014G24KT 10SM FEW025 BKN060 OVC075 07/M04 A2947 RMK AO2 SLP987 60000 T00721039 10072 20039 56012=
201703052253 METAR KSEA 052253Z 18011G18KT 10SM SCT055 BKN070 OVC095 07/M03 A2947 RMK AO2 SLP988 T00721033=
201703052153 METAR KSEA 052153Z 18010KT 10SM FEW037 BKN047 OVC060 06/M03 A2949 RMK AO2 SLP992 T00611028=
201703052053 METAR KSEA 052053Z 14006KT 10SM SCT023 BKN047 OVC060 04/00 A2950 RMK AO2 RAB08E17B34E43 SLP999 P0000 60000 T00440000 58001=
201703051953 METAR KSEA 051953Z 22012G18KT 10SM SCT045 OVC055 05/M02 A2951 RMK AO2 SLP002 T00501017=
201703051853 METAR KSEA 051853Z 18014KT 10SM SCT040 BKN046 OVC065 06/M01 A2950 RMK AO2 SLP999 T00561011=
201703051753 METAR KSEA 051753Z 18012G20KT 10SM FEW020 SCT050 BKN070 06/M01 A2950 RMK AO2 SLP999 60000 T00611006 10061 20011 58003=
201703051653 METAR KSEA 051653Z 14006KT 10SM FEW020 SCT050 BKN060 04/00 A2951 RMK AO2 RAB1554E15 SLP000 P0000 T00390000=
201703051553 METAR KSEA 051553Z 16008KT 10SM FEW020 SCT034 BKN055 03/M01 A2951 RMK AO2 SLP003 T00281006=
201703051453 METAR KSEA 051453Z 14006KT 10SM FEW017 BKN050 01/00 A2951 RMK AO2 SLP003 T00110000 53004=
201703051353 METAR KSEA 051353Z 21009KT 10SM FEW010 SCT040 02/00 A2951 RMK AO2 SLP001 T00220000=
201703051253 METAR KSEA 051253Z 19012KT 10SM FEW014 FEW050 02/00 A2950 RMK AO2 SLP998 T00220000=
201703051232 SPECI KSEA 051232Z 19012KT 10SM SCT014 BKN070 03/01 A2950 RMK AO2 T00280006=
201703051153 METAR KSEA 051153Z 19010KT 10SM SCT010 BKN014 OVC032 03/02 A2950 RMK AO2 RAB27E38 SLP999 P0000 60001 70004 T00280017 10044 20028 53004=
201703051053 METAR KSEA 051053Z 20012KT 10SM SCT014 BKN033 03/02 A2949 RMK AO2 RAB10E37 SLP996 P0000 T00330017=
201703051035 SPECI KSEA 051035Z 19010KT 10SM -RA SCT014 OVC033 03/02 A2949 RMK AO2 RAB10 P0000 T00330017=
201703050953 METAR KSEA 050953Z 20012KT 10SM BKN016 BKN035 OVC045 04/02 A2949 RMK AO2 RAB26E37 SLP994 P0000 T00440022=
201703050853 METAR KSEA 050853Z 17005KT 10SM FEW016 BKN029 OVC036 04/02 A2949 RMK AO2 RAB08E33 SLP994 P0000 60001 T00390022 58004=
201703050830 SPECI KSEA 050830Z 19006KT 10SM -RA FEW017 BKN029 OVC038 04/02 A2949 RMK AO2 RAB08 P0000 T00390022=
201703050753 METAR KSEA 050753Z 15007KT 10SM SCT030 OVC039 04/02 A2950 RMK AO2 RAE21 SLP996 P0000 T00390022 400780011=
201703050731 SPECI KSEA 050731Z 16006KT 10SM SCT023 OVC037 04/02 A2950 RMK AO2 RAE21 P0000 T00390022=
201703050653 METAR KSEA 050653Z 13009KT 10SM -RA FEW018 BKN026 OVC030 04/02 A2950 RMK AO2 SLP998 P0001 T00390022=
201703050553 METAR KSEA 050553Z 12010KT 10SM -RA FEW018 BKN028 OVC036 04/02 A2950 RMK AO2 SLP999 P0002 60003 T00390022 10067 20039 56005=
201703050453 METAR KSEA 050453Z VRB06KT 8SM -RA FEW018 BKN024 OVC033 04/02 A2950 RMK AO2 SLP999 P0001 T00440017=
201703050353 METAR KSEA 050353Z 08005KT 10SM -RA FEW021 BKN048 OVC070 06/M01 A2951 RMK AO2 RAB44 SLP002 P0000 T00561011=
201703050253 METAR KSEA 050253Z 05006KT 10SM FEW024 BKN045 OVC070 06/M01 A2952 RMK AO2 RAE02 SLP004 P0000 60000 T00561011 58030=
201703050153 METAR KSEA 050153Z 07003KT 10SM -RA FEW020 BKN040 OVC060 06/01 A2955 RMK AO2 RAB43 SLP014 P0000 T00560006=
201703050053 METAR KSEA 050053Z 12008KT 10SM FEW021 BKN039 OVC060 05/01 A2958 RMK AO2 SLP025 T00500011=
201703042353 METAR KSEA 042353Z 12004KT 10SM FEW018 BKN043 OVC060 07/M02 A2961 RMK AO2 SLP034 T00671022 10078 20044 56024=
201703042253 METAR KSEA 042253Z 00000KT 10SM FEW010 BKN050 OVC070 07/M03 A2962 RMK AO2 SLP040 T00671028=
201703042153 METAR KSEA 042153Z 13004KT 10SM FEW045 SCT060 BKN110 07/M03 A2965 RMK AO2 SLP048 T00721033=
201703042053 METAR KSEA 042053Z 00000KT 10SM BKN055 OVC070 07/M01 A2968 RMK AO2 SLP058 T00671011 58024=
201703041953 METAR KSEA 041953Z 21003KT 10SM SCT031 BKN085 06/00 A2971 RMK AO2 SLP069 T00610000=
201703041853 METAR KSEA 041853Z 20004KT 10SM FEW024 BKN060 BKN110 06/M01 A2973 RMK AO2 SLP077 T00561006=
201703041753 METAR KSEA 041753Z 20007KT 10SM FEW028 BKN110 05/M01 A2975 RMK AO2 SLP084 T00501006 10056 20011 58008=
201703041653 METAR KSEA 041653Z 17007KT 10SM FEW028 05/00 A2976 RMK AO2 SLP088 T00500000=
201703041553 METAR KSEA 041553Z 17006KT 10SM FEW028 FEW120 SCT250 03/M01 A2977 RMK AO2 SLP091 T00281006=
201703041453 METAR KSEA 041453Z 18007KT 10SM SCT028 SCT120 02/M01 A2978 RMK AO2 SLP092 T00171006 58001=
201703041437 SPECI KSEA 041437Z 18006KT 10SM SCT028 SCT033 BKN120 01/M01 A2978 RMK AO2 T00111006=
201703041419 SPECI KSEA 041419Z 17008KT 10SM BKN028 BKN055 02/00 A2979 RMK AO2 T00170000=
201703041353 METAR KSEA 041353Z 16008KT 10SM FEW015 SCT030 BKN070 02/00 A2979 RMK AO2 SLP097 T00170000=
201703041253 METAR KSEA 041253Z 19006KT 10SM FEW015 SCT025 BKN070 02/01 A2979 RMK AO2 SLP097 T00220006=
201703041153 METAR KSEA 041153Z 20011G19KT 10SM FEW020 SCT055 BKN075 03/00 A2978 RMK AO2 SLP092 60000 70036 T00280000 10044 20022 53004=
201703041053 METAR KSEA 041053Z 19012KT 10SM FEW015 SCT075 03/01 A2977 RMK AO2 SLP090 T00280006=
201703040953 METAR KSEA 040953Z 20014KT 10SM SCT013 03/01 A2977 RMK AO2 SLP089 T00280011=
201703040923 SPECI KSEA 040923Z 20015G20KT 10SM BKN015 03/01 A2977 RMK AO2 T00330011=
201703040853 METAR KSEA 040853Z 20012G18KT 10SM BKN013 BKN021 04/02 A2977 RMK AO2 RAB02E39 SLP088 P0000 60000 T00390017 50013=
201703040753 METAR KSEA 040753Z 20011G21KT 10SM BKN013 OVC019 04/03 A2977 RMK AO2 SLP089 T00440028 401060044=
201703040653 METAR KSEA 040653Z 20012KT 10SM BKN013 04/03 A2976 RMK AO2 SLP085 T00440028=
201703040639 SPECI KSEA 040639Z 20013KT 10SM OVC013 04/03 A2976 RMK AO2 T00440028=
201703040604 SPECI KSEA 040604Z 19012KT 10SM SCT012 BKN016 OVC100 04/03 A2973 RMK AO2 T00440033=
201703040553 METAR KSEA 040553Z 19012G20KT 10SM SCT015 BKN045 BKN080 04/03 A2973 RMK AO2 RAE0457 SLP076 P0000 60019 T00440033 10089 20044 53030=
201703040453 METAR KSEA 040453Z 22012G21KT 10SM -RA SCT012 BKN043 OVC080 04/03 A2970 RMK AO2 PK WND 22028/0442 WSHFT 0340 SLP065 P0001 T00440028=
201703040409 SPECI KSEA 040409Z 22012KT 10SM -RA FEW016 SCT025 OVC033 06/04 A2967 RMK AO2 WSHFT 0340 P0001 T00560039=
201703040400 SPECI KSEA 040400Z 24010G19KT 10SM -RA FEW009 BKN023 OVC037 06/04 A2967 RMK AO2 WSHFT 0340 P0000 T00560044=
201703040353 METAR KSEA 040353Z 24014G21KT 9SM -RA FEW009 BKN023 OVC037 06/04 A2966 RMK AO2 WSHFT 0332 RAB10 SLP051 P0004 T00560039=
201703040347 SPECI KSEA 040347Z 23012G23KT 5SM RA BR FEW009 SCT015 OVC025 06/04 A2965 RMK AO2 WSHFT 0332 RAB10 P0004=
201703040253 METAR KSEA 040253Z 17013KT 10SM SCT037 BKN055 OVC070 07/06 A2964 RMK AO2 RAE00 SLP045 P0000 60014 T00720056 58018=
201703040153 METAR KSEA 040153Z 18013KT 10SM -RA FEW015 OVC041 07/06 A2967 RMK AO2 SLP054 P0005 T00720061=
201703040131 SPECI KSEA 040131Z 20014G22KT 10SM -RA FEW029 OVC039 07/06 A2968 RMK AO2 P0004 T00720056=
201703040053 METAR KSEA 040053Z 23016G23KT 6SM -RA BR SCT013 BKN025 OVC035 08/06 A2970 RMK AO2 SLP063 P0009 T00780061=
201703032353 METAR KSEA 032353Z 23020G27KT 5SM -RA BR BKN026 OVC035 09/07 A2970 RMK AO2 PK WND 21027/2352 SLP063 P0013 60017 T00890067 10106 20089 56018=
201703032349 SPECI KSEA 032349Z 23020G25KT 4SM RA BR BKN026 OVC036 09/07 A2970 RMK AO2 P0012=
201703032336 SPECI KSEA 032336Z 23009KT 2 1/2SM -RA BR BKN027 OVC034 09/07 A2970 RMK AO2 P0008 T00890072=
201703032323 SPECI KSEA 032323Z 22011KT 7SM -RA BKN031 OVC042 09/07 A2970 RMK AO2 P0003 T00940067=
201703032253 METAR KSEA 032253Z 21013G24KT 9SM -RA BKN029 OVC037 10/06 A2971 RMK AO2 SLP067 P0001 T01000061=
201703032153 METAR KSEA 032153Z 20015G20KT 6SM -RA FEW020 OVC027 10/06 A2975 RMK AO2 RAB02 PRESFR SLP081 P0002 T01000061=
201703032112 SPECI KSEA 032112Z 28009KT 7SM R16L/5500VP6000FT -RA FEW015 OVC027 09/06 A2979 RMK AO2 RAB02 P0000 T00940061=
201703032053 METAR KSEA 032053Z 21009G18KT 10SM FEW020 OVC030 10/06 A2980 RMK AO2 RAE45 SLP099 P0001 60001 T01000056 58035=
201703032045 SPECI KSEA 032045Z 18013G18KT 10SM FEW020 OVC030 10/06 A2981 RMK AO2 RAE45 P0001 T01000056=
201703031953 METAR KSEA 031953Z 19012G21KT 10SM -RA FEW020 OVC029 10/06 A2984 RMK AO2 RAE16B45 SLP113 P0000 T01000056=
201703031853 METAR KSEA 031853Z 21008KT 9SM -RA FEW016 BKN027 OVC040 09/06 A2988 RMK AO2 RAB51 SLP125 P0000 T00940056=
201703031753 METAR KSEA 031753Z 21009KT 10SM FEW015 OVC026 09/06 A2991 RMK AO2 RAB27E37 SLP135 P0000 60000 T00890056 10089 20078 58017=
201703031653 METAR KSEA 031653Z 20006KT 10SM FEW015 BKN026 OVC180 09/05 A2992 RMK AO2 RAE03 SLP141 P0000 T00890050=
201703031641 SPECI KSEA 031641Z 18007KT 10SM FEW015 BKN026 OVC180 09/05 A2992 RMK AO2 RAE03 P0000 T00890050=
201703031553 METAR KSEA 031553Z 19010KT 10SM -RA FEW015 BKN036 OVC200 08/05 A2995 RMK AO2 RAB32 SLP150 P0000 T00830050=
201703031453 METAR KSEA 031453Z 17014KT 10SM FEW015 BKN043 OVC200 08/04 A2996 RMK AO2 RAB14E49 SLP153 P0000 60000 T00830044 58018=
201703031353 METAR KSEA 031353Z 17016G22KT 10SM FEW015 OVC041 08/04 A2998 RMK AO2 RAB21E36 SLP161 P0000 T00830044 $=
201703031253 METAR KSEA 031253Z 18012G22KT 10SM FEW029 OVC035 09/04 A3000 RMK AO2 SLP167 T00890044 $=
201703031153 METAR KSEA 031153Z 17013G22KT 10SM OVC036 08/04 A3001 RMK AO2 RAB26E39 SLP170 P0000 60001 70009 T00830039 10089 20061 56031 $=
201703031053 METAR KSEA 031053Z 19012KT 10SM OVC040 08/04 A3004 RMK AO2 SLP180 T00830039 $=
201703030953 METAR KSEA 030953Z 17012KT 10SM OVC038 08/04 A3007 RMK AO2 SLP190 T00780039 $=
201703030853 METAR KSEA 030853Z 18009KT 10SM OVC028 07/04 A3011 RMK AO2 SLP203 60001 T00720039 56023 $=
201703030753 METAR KSEA 030753Z 17011KT 10SM FEW014 OVC028 07/04 A3012 RMK AO2 RAB27E36 SLP207 P0000 T00720039 400830050 $=
201703030653 METAR KSEA 030653Z 14010KT 10SM OVC031 07/04 A3014 RMK AO2 RAE53 SLP213 P0001 T00670044 $=
201703030553 METAR KSEA 030553Z 17010KT 10SM -RA BKN026 OVC042 06/04 A3017 RMK AO2 SLP226 P0001 60007 T00610044 10078 20061 58006 $=
201703030453 METAR KSEA 030453Z 18010KT 10SM -RA FEW015 BKN026 OVC036 06/05 A3018 RMK AO2 SLP228 P0001 T00610050 $=
201703030353 METAR KSEA 030353Z 18012KT 10SM -RA FEW017 OVC024 06/05 A3019 RMK AO2 SLP232 P0002 T00610050=
201703030253 METAR KSEA 030253Z 18012KT 10SM -RA BKN025 OVC030 07/05 A3019 RMK AO2 SLP232 P0002 60003 T00670050 56014=
201703030153 METAR KSEA 030153Z 17012KT 10SM -RA BKN024 OVC035 07/05 A3020 RMK AO2 SLP234 P0001 T00670050=
201703030053 METAR KSEA 030053Z 19013KT 10SM -RA SCT021 BKN029 OVC038 07/05 A3021 RMK AO2 SLP240 P0000 T00720050=
201703022353 METAR KSEA 022353Z 20014KT 10SM -RA FEW017 OVC024 08/05 A3023 RMK AO2 DZE49RAB49 SLP247 P0000 60000 T00780050 10083 20072 56016=
201703022253 METAR KSEA 022253Z 20011KT 10SM -DZ OVC025 08/04 A3025 RMK AO2 DZB50 SLP252 P0000 T00830044=
201703022153 METAR KSEA 022153Z 19011G20KT 10SM BKN024 BKN029 OVC035 08/04 A3026 RMK AO2 RAE22 SLP257 P0000 T00830044=
201703022053 METAR KSEA 022053Z 21016G22KT 10SM -RA BKN025 OVC030 08/04 A3028 RMK AO2 RAB53 SLP263 P0000 60000 T00830044 58012=
201703022019 SPECI KSEA 022019Z 20011KT 10SM BKN026 BKN040 OVC050 08/05 A3030 RMK AO2 T00780050=
201703021953 METAR KSEA 021953Z 21010KT 10SM SCT026 BKN039 OVC047 08/05 A3030 RMK AO2 RAE37 SLP270 P0000 T00780050=
201703021853 METAR KSEA 021853Z 20013G21KT 10SM -RA SCT023 BKN041 OVC049 08/04 A3031 RMK AO2 RAB46 SLP272 P0000 T00780044=
201703021753 METAR KSEA 021753Z 19009KT 10SM FEW017 BKN047 OVC065 07/04 A3032 RMK AO2 SLP275 60001 T00720044 10072 20050 56004=
201703021653 METAR KSEA 021653Z 16007KT 10SM FEW012 BKN037 OVC047 06/04 A3032 RMK AO2 SLP276 T00610044=
201703021601 SPECI KSEA 021601Z 18008KT 10SM FEW012 BKN037 OVC047 06/04 A3033 RMK AO2 T00610044=
201703021553 METAR KSEA 021553Z 17007KT 10SM FEW012 BKN037 OVC047 06/04 A3033 RMK AO2 SLP278 T00610044=
201703021453 METAR KSEA 021453Z 16005KT 10SM FEW020 BKN037 OVC049 06/04 A3033 RMK AO2 SLP279 60001 T00560039 56010=
201703021353 METAR KSEA 021353Z 15004KT 10SM FEW030 OVC049 06/04 A3034 RMK AO2 SLP283 T00560039=
201703021253 METAR KSEA 021253Z 14004KT 10SM SCT010 BKN039 OVC047 06/04 A3035 RMK AO2 RAE46 SLP286 P0001 T00560044=
201703021233 SPECI KSEA 021233Z 14004KT 10SM -RA SCT010 BKN043 OVC050 06/04 A3035 RMK AO2 P0001 T00560044=
201703021153 METAR KSEA 021153Z 16004KT 10SM -RA OVC011 06/04 A3036 RMK AO2 RAB41 SLP290 P0000 60000 T00610044 10067 20056 58013=
201703021135 SPECI KSEA 021135Z 15004KT 10SM BKN012 OVC023 06/04 A3037 RMK AO2 T00610039=
201703021121 SPECI KSEA 021121Z 15004KT 10SM FEW013 BKN021 OVC037 06/04 A3037 RMK AO2 T00560039=
201703021053 METAR KSEA 021053Z 16005KT 10SM OVC037 06/04 A3038 RMK AO2 SLP295 T00610039=
201703021034 SPECI KSEA 021034Z 14004KT 10SM OVC037 06/04 A3038 RMK AO2 T00610039=
201703020953 METAR KSEA 020953Z 16006KT 10SM OVC028 06/04 A3040 RMK AO2 SLP301 T00610039=
201703020853 METAR KSEA 020853Z 16005KT 10SM BKN027 OVC042 06/04 A3040 RMK AO2 SLP303 T00610039 56012=
201703020753 METAR KSEA 020753Z 19005KT 10SM BKN027 OVC044 06/04 A3041 RMK AO2 SLP307 T00610039 400940050=
201703020729 SPECI KSEA 020729Z 18007KT 10SM BKN027 OVC044 06/04 A3042 RMK AO2 T00610039=
201703020653 METAR KSEA 020653Z 17007KT 10SM BKN037 BKN140 06/04 A3043 RMK AO2 SLP312 T00610039=
201703020553 METAR KSEA 020553Z 19004KT 10SM FEW020 SCT050 BKN120 06/04 A3044 RMK AO2 SLP316 T00610044 10089 20061 50003=
201703020453 METAR KSEA 020453Z 21008KT 10SM SCT016 SCT050 BKN130 07/04 A3044 RMK AO2 SLP317 T00670044=
201703020353 METAR KSEA 020353Z 19006KT 10SM FEW025 SCT050 BKN140 07/04 A3044 RMK AO2 SLP316 T00720044=
201703020253 METAR KSEA 020253Z 21008KT 10SM SCT025 BKN048 OVC150 07/04 A3043 RMK AO2 SLP312 T00720044 51001=
201703020153 METAR KSEA 020153Z 21007KT 10SM FEW020 BKN041 OVC150 08/04 A3043 RMK AO2 SLP312 T00780039=
201703020053 METAR KSEA 020053Z 19009KT 10SM FEW018 SCT036 OVC150 08/04 A3043 RMK AO2 SLP312 T00830044=
201703012353 METAR KSEA 012353Z 20013KT 10SM CLR 08/05 A3042 RMK AO2 SLP311 60000 T00830050 10094 20061 55003=
201703012253 METAR KSEA 012253Z 22010KT 10SM FEW016 FEW026 SCT036 OVC200 09/05 A3042 RMK AO2 SLP310 T00890050=
201703012236 SPECI KSEA 012236Z 21011KT 10SM FEW016 SCT024 BKN035 OVC200 08/05 A3042 RMK AO2 T00830050=
201703012153 METAR KSEA 012153Z 21011KT 10SM FEW016 BKN023 BKN065 OVC200 09/05 A3043 RMK AO2 RAE10 SLP312 P0000 T00890050=
201703012053 METAR KSEA 012053Z 22011KT 10SM -RA FEW018 BKN026 OVC065 08/04 A3043 RMK AO2 RAB32 SLP315 P0000 60000 T00780039 51013=
201703012032 SPECI KSEA 012032Z 20013KT 10SM -RA FEW017 BKN028 OVC065 08/04 A3043 RMK AO2 RAB32 P0000 T00780044=
201703011953 METAR KSEA 011953Z 20012G19KT 10SM SCT016 BKN060 OVC200 08/04 A3043 RMK AO2 SLP312 T00780044=
201703011920 SPECI KSEA 011920Z 20015KT 10SM SCT016 BKN065 OVC200 07/04 A3042 RMK AO2 T00720044=
201703011853 METAR KSEA 011853Z 19013KT 10SM BKN016 OVC070 07/04 A3041 RMK AO2 RAE38 SLP307 P0000 T00670044=
201703011820 SPECI KSEA 011820Z 20015G22KT 8SM -RA BKN015 OVC070 06/04 A3041 RMK AO2 P0000 T00610044=
201703011753 METAR KSEA 011753Z 19015KT 6SM -RA BR FEW013 SCT022 BKN070 OVC180 06/04 A3040 RMK AO2 PK WND 20026/1656 RAB48 SLP302 P0000 60000 T00610044 10061 20050 53029=
201703011713 SPECI KSEA 011713Z 20020KT 10SM SCT013 SCT019 BKN065 BKN180 06/04 A3037 RMK AO2 PK WND 20026/1656 T00610039=
201703011653 METAR KSEA 011653Z 19019G27KT 10SM FEW013 BKN021 OVC070 06/04 A3036 RMK AO2 PK WND 20027/1644 SLP290 T00610039=
201703011619 SPECI KSEA 011619Z 20022G26KT 10SM FEW015 BKN027 OVC070 06/04 A3035 RMK AO2 PK WND 20026/1616 T00560039=
201703011553 METAR KSEA 011553Z 19019G28KT 10SM SCT010 SCT018 BKN065 BKN160 06/04 A3033 RMK AO2 PK WND 20028/1548 SLP278 T00560039=
201703011549 SPECI KSEA 011549Z 19020G28KT 10SM SCT010 SCT018 BKN065 BKN160 06/04 A3033 RMK AO2 PK WND 20028/1548=
201703011503 SPECI KSEA 011503Z 19013G22KT 10SM OVC013 06/04 A3031 RMK AO2 T00560039=
201703011453 METAR KSEA 011453Z 20012KT 10SM FEW010 BKN016 OVC030 06/04 A3031 RMK AO2 SLP272 T00560039 53017=
201703011444 SPECI KSEA 011444Z 19014KT 10SM FEW010 BKN018 OVC160 06/04 A3031 RMK AO2 T00560039=
201703011424 SPECI KSEA 011424Z 19015G23KT 10SM SCT010 SCT018 BKN060 OVC160 05/04 A3030 RMK AO2 T00500039=
201703011353 METAR KSEA 011353Z 19016G24KT 10SM SCT010 BKN017 OVC060 05/04 A3028 RMK AO2 PK WND 19027/1325 SLP264 T00500039=
201703011253 METAR KSEA 011253Z 19017KT 10SM FEW010 BKN018 06/04 A3027 RMK AO2 SLP258 T00560039=
201703011153 METAR KSEA 011153Z 20013G20KT 10SM OVC017 06/04 A3026 RMK AO2 SLP255 60002 70002 T00560039 10061 20050 53007=
201703011053 METAR KSEA 011053Z 19018G25KT 10SM SCT008 BKN015 OVC035 05/04 A3025 RMK AO2 PK WND 20026/1002 RAB28E37 SLP251 P0001 T00500044=
201703011039 SPECI KSEA 011039Z 19016G23KT 10SM SCT008 BKN015 OVC025 05/04 A3024 RMK AO2 PK WND 20026/1002 RAB28E37 P0001 T00500039=
201703010953 METAR KSEA 010953Z 19018G24KT 10SM BKN012 OVC020 06/04 A3024 RMK AO2 PK WND 20026/0916 RAE17 SLP248 P0001 T00560039=
201703010948 SPECI KSEA 010948Z 20016G24KT 10SM BKN010 OVC020 06/04 A3024 RMK AO2 PK WND 20026/0916 RAE17 P0001=
201703010916 SPECI KSEA 010916Z 20017G26KT 9SM -RA FEW009 BKN015 OVC021 06/04 A3024 RMK AO2 PK WND 20026/0916 P0000 T00560039=
201703010853 METAR KSEA 010853Z 21018KT 7SM -RA SCT013 OVC021 06/04 A3023 RMK AO2 PK WND 20028/0833 RAB50 SLP246 P0000 60000 T00560039 53012=
201703010753 METAR KSEA 010753Z 21016G23KT 10SM OVC017 06/03 A3022 RMK AO2 PK WND 22028/0654 RAE33 SLP241 P0000 T00560033 400830006=
201703010653 METAR KSEA 010653Z 20017G23KT 10SM -RA OVC021 06/03 A3020 RMK AO2 SLP236 P0000 T00560028=
201703010624 SPECI KSEA 010624Z 20011KT 10SM -RA BKN023 OVC042 06/02 A3020 RMK AO2 P0000 T00560022=
201703010553 METAR KSEA 010553Z 19012KT 10SM -RA SCT027 BKN060 OVC085 06/02 A3020 RMK AO2 RAB50 SLP235 P0000 60000 T00560017 10078 20056 53007=
201703010518 SPECI KSEA 010518Z 18013KT 10SM BKN025 OVC036 06/01 A3019 RMK AO2 T00610011=
201703010453 METAR KSEA 010453Z 19012G20KT 10SM SCT030 BKN100 BKN140 06/01 A3019 RMK AO2 SLP232 T00610011=
201703010353 METAR KSEA 010353Z 20015G21KT 10SM SCT035 BKN044 BKN110 07/01 A3018 RMK AO2 SLP228 T00670006=
201703010253 METAR KSEA 010253Z 21009KT 10SM FEW045 BKN055 BKN080 07/M01 A3017 RMK AO2 SLP227 T00671006 51016=
201703010153 METAR KSEA 010153Z 23010KT 10SM FEW045 BKN080 07/M01 A3016 RMK AO2 SLP223 T00671006=
201703010053 METAR KSEA 010053Z 23012G20KT 10SM SCT050 OVC100 07/M01 A3015 RMK AO2 SLP219 T00721011=

# No short TAF reports from KSEA in databse.

###################################
#  large TAF from KSEA
###################################
201703312337 TAF KSEA 312337Z 0100/0206 25003KT P6SM SCT070 BKN100 FM010500
                       16006KT P6SM OVC060 FM011100 19008KT P6SM
                       -RA SCT020 OVC030 FM011500 20010G18KT P6SM
                       VCSH SCT010 BKN015 OVC030 FM011900 21010G18KT
                       P6SM SCT015 BKN025 OVC035 FM012200 22009KT
                       P6SM VCSH SCT025 BKN035
                      TEMPO 0202/0206 -SHRA BKN025 OVC035=
201703312101 KSEA 312101Z 3121/0124 21003KT P6SM SCT030 BKN120 FM312300 24004KT
                       P6SM SCT080 BKN100 FM010500 17006KT P6SM
                       OVC060 FM011300 18009KT P6SM -RA SCT012
                       BKN020 OVC040 FM011600 20010KT P6SM -SHRA
                       SCT008 BKN012 OVC020 FM011900 21007KT P6SM
                       VCSH SCT015 BKN025 OVC035=
201703311736 TAF KSEA 311736Z 3118/0124 20003KT P6SM SCT015 BKN030 FM312000
                       21004KT P6SM SCT030 SCT100 FM312200 24004KT
                       P6SM SCT080 BKN100 FM010500 17006KT P6SM
                       OVC060 FM011300 18009KT P6SM -RA SCT012
                       BKN020 OVC040 FM011600 20010KT P6SM -SHRA
                       SCT008 BKN012 OVC020 FM011900 21007KT P6SM
                       VCSH SCT015 BKN025 OVC035=
201703311413 KSEA 311413Z 3114/0118 16004KT 4SM BR SCT002 SCT060 BKN200
                      TEMPO 3114/3116 1 1/2SM BR BKN002 FM311600
                       VRB03KT P6SM SCT060 OVC200 FM010200 VRB03KT
                       P6SM SCT050 OVC100 FM010600 18007KT P6SM
                       SCT030 OVC060=
201703311235 KSEA 311235Z 3113/0118 VRB03KT P6SM FEW003 SCT060 SCT200
                      TEMPO 3113/3116 5SM BR BKN003 FM311900 28003KT
                       P6SM SCT060 OVC200 FM010200 VRB03KT P6SM
                       SCT050 OVC100 FM010600 18007KT P6SM SCT030
                       OVC060=
201703311120 TAF KSEA 311120Z 3112/0118 VRB03KT P6SM SCT060 SCT200
                      TEMPO 3112/3116 BKN020 FM311900 28003KT P6SM
                       SCT060 OVC200 FM010200 VRB03KT P6SM SCT050
                       OVC100 FM010600 18007KT P6SM SCT030 OVC060=
201703310902 KSEA 310902Z 3109/0112 03005KT P6SM SCT060 FM311000 VRB03KT P6SM
                       SCT015 BKN200
                      TEMPO 3112/3116 BKN015 FM311900 28003KT P6SM
                       SCT030 OVC200 FM010200 VRB03KT P6SM SCT030
                       OVC100 FM010600 18007KT P6SM SCT030 OVC060=
201703310520 TAF KSEA 310520Z 3106/0112 03005KT P6SM SCT060 FM311000 VRB03KT
                       P6SM SCT015 BKN200
                      TEMPO 3112/3116 BKN015 FM311900 28003KT P6SM
                       SCT030 OVC200 FM010200 VRB03KT P6SM SCT030
                       OVC100=
201703310300 KSEA 310300Z 3103/0106 36007KT P6SM SCT030 BKN050 FM310400 05005KT
                       P6SM SCT040 FM311000 VRB03KT P6SM SCT015
                       BKN200
                      TEMPO 3112/3116 BKN015 FM311900 28003KT P6SM
                       SCT030 OVC200 FM010200 VRB03KT P6SM SCT030
                       OVC100=
201703302320 TAF KSEA 302320Z 3100/0106 36007KT P6SM SCT030 BKN050 FM310400
                       05005KT P6SM SCT040 FM311000 00000KT P6SM
                       SCT015 BKN200
                      TEMPO 3112/3116 BKN015 FM311900 VRB03KT P6SM
                       SCT030 OVC200=
201703302101 KSEA 302101Z 3021/3124 VRB04KT P6SM VCSH SCT025 BKN050 FM310000
                       33010KT P6SM SCT025 BKN050 FM310600 02005KT
                       P6SM SCT040 SCT200 FM311700 VRB03KT P6SM
                       BKN200=
201703301720 TAF KSEA 301720Z 3018/3124 21008KT P6SM SCT015 BKN035 FM302100
                       24010KT P6SM SCT020 BKN040 FM310000 VRB05KT
                       P6SM SCT025 BKN050 FM310600 VRB03KT P6SM
                       SCT040 SCT200 FM311700 16006KT P6SM BKN200=
201703301335 KSEA 301335Z 3014/3118 19007KT P6SM VCSH SCT010 BKN015
                      TEMPO 3014/3016 BKN008 OVC015 FM301800 22013KT
                       P6SM VCSH BKN019 FM302100 24010KT P6SM BKN030
                       FM302300 29008KT P6SM BKN050 FM310400 12005KT
                       P6SM BKN045=
201703301120 TAF KSEA 301120Z 3012/3118 22010KT P6SM VCSH OVC015 FM301800 22013KT
                       P6SM VCSH BKN019 FM302100 24010KT P6SM BKN030
                       FM302300 29008KT P6SM BKN050 FM310400 12005KT
                       P6SM BKN045=
201703300859 KSEA 300859Z 3009/3112 22010KT P6SM VCSH OVC015 FM301800 22013KT
                       P6SM VCSH BKN019 FM302100 24010KT P6SM BKN030
                       FM302300 29008KT P6SM BKN045 FM310400 14005KT
                       P6SM BKN040=
201703300520 TAF KSEA 300520Z 3006/3112 22011KT P6SM VCSH BKN020 FM301000 22012KT
                       P6SM VCSH OVC015 FM301800 22013KT P6SM VCSH
                       BKN019 FM302100 24010KT P6SM BKN030 FM302300
                       29008KT P6SM BKN045 FM310400 14005KT P6SM
                       BKN045=
201703300303 KSEA 300303Z 3003/3106 22015G21KT P6SM VCSH BKN020 FM301000 22012KT
                       P6SM VCSH OVC015 FM301800 22013KT P6SM VCSH
                       BKN019 FM302100 24010KT P6SM BKN030 FM302300
                       26010KT P6SM BKN045 FM310200 04005KT P6SM
                       BKN045=
201703292328 TAF KSEA 292328Z 3000/3106 21019G25KT P6SM VCSH BKN018 BKN080
                      TEMPO 3000/3003 SCT018 BKN080 FM300300 22015G21KT
                       P6SM VCSH OVC019 FM301000 22012KT P6SM VCSH
                       OVC015 FM301800 22013KT P6SM VCSH BKN019
                       FM302100 24010KT P6SM BKN030 FM302300 26010KT
                       P6SM BKN045=
201703292103 KSEA 292103Z 2921/3024 21017G24KT P6SM VCSH BKN016 OVC024 FM292300
                       22013KT P6SM SCT035 BKN050
                      TEMPO 2923/3003 BKN035 BKN050 FM300300 21013KT
                       P6SM VCSH BKN035 FM300600 21010KT P6SM VCSH
                       OVC025 FM302100 25008KT P6SM VCSH BKN045=
201703291733 TAF KSEA 291733Z 2918/3024 15008KT P6SM VCSH FEW008 OVC019 FM292000
                       20015G25KT P6SM -SHRA BKN030 OVC050 FM292300
                       22013KT P6SM SCT035 BKN050
                      TEMPO 2923/3003 BKN035 BKN050 FM300300 21013KT
                       P6SM VCSH BKN035 FM300600 21010KT P6SM VCSH
                       OVC025 FM302100 25008KT P6SM VCSH BKN045=
201703291430 KSEA 291430Z 2915/3018 13008KT 2SM -RA BR OVC016
                      TEMPO 2915/2916 5SM -RA BR BKN020 OVC035
                       FM291800 17013KT P6SM -RA BKN028 OVC050
                       FM292100 20015G23KT P6SM -SHRA BKN035 OVC060
                       FM300000 22012KT P6SM VCSH SCT035 BKN060
                       BKN200 FM300900 22009KT P6SM VCSH OVC025
                       PROB30 3009/3015 -SHRA=
201703291125 TAF KSEA 291125Z 2912/3018 12007KT P6SM -RA SCT020 OVC035
                      TEMPO 2912/2916 5SM -RA BR BKN020 OVC035
                       FM291800 17013KT P6SM -RA BKN028 OVC050
                       FM292100 20015G23KT P6SM -SHRA BKN035 OVC060
                       FM300000 22012KT P6SM VCSH SCT035 BKN060
                       BKN200 FM300900 22009KT P6SM VCSH OVC025
                       PROB30 3009/3015 -SHRA=
201703290925 KSEA 290925Z 2909/3012 15011KT P6SM -RA SCT015 OVC035
                      TEMPO 2911/2915 5SM -RA BR BKN015 OVC030
                       FM291500 17013G22KT P6SM -RA BKN020 OVC040
                       FM292000 20013G22KT P6SM -SHRA BKN030 OVC050
                       FM300000 22012KT P6SM VCSH SCT035 BKN050
                       BKN200 FM300900 22012KT P6SM VCSH OVC028=
201703290539 TAF KSEA 290539Z 2906/3012 15011KT P6SM -RA SCT025 OVC040 FM290900
                       15011KT P6SM -RA SCT015 OVC030
                      TEMPO 2911/2915 5SM -RA BR BKN015 OVC030
                       FM291500 17013G22KT P6SM -RA BKN020 OVC040
                       FM292000 20013G22KT P6SM -SHRA BKN030 OVC050
                       FM300000 22012KT P6SM VCSH SCT035 BKN050
                       BKN200 FM300900 22012KT P6SM VCSH OVC028=
201703290221 KSEA 290221Z 2902/3006 19012KT P6SM -RA SCT035 OVC060 FM291000
                       16012KT 4SM RA BR OVC015 FM291500 22012G22KT
                       P6SM -RA BKN015 OVC030 FM292000 22012G22KT
                       P6SM VCSH SCT020 BKN040=
201703282320 TAF KSEA 282320Z 2900/3006 18012G20KT P6SM -RA OVC035 FM291000
                       16012KT 4SM RA BR OVC015 FM291500 22012G22KT
                       P6SM -RA BKN015 OVC030 FM292000 22012G22KT
                       P6SM VCSH SCT020 BKN040=
201703282100 KSEA 282100Z 2821/2924 18010KT P6SM -RA OVC030 FM291000 18012KT
                       4SM RA BR OVC012 FM291700 22012G22KT P6SM
                       -SHRA BKN020 BKN040=
201703281720 TAF KSEA 281720Z 2818/2924 20012G20KT P6SM -RA OVC035 FM282200
                       18012G20KT 5SM -RA BR OVC020 FM291000 18012KT
                       4SM RA BR OVC012 FM291700 22012G22KT P6SM
                       -SHRA BKN020 BKN040=
201703281126 TAF KSEA 281126Z 2812/2918 17012KT P6SM -RA BKN028 OVC040
                      TEMPO 2812/2816 BKN020 OVC035 FM281800 17015G23KT
                       P6SM VCSH FEW020 BKN035 OVC060
                      TEMPO 2820/2824 -RA FM290000 17010KT P6SM
                       -RA FEW012 BKN028 OVC050 FM290600 15010KT
                       5SM -RA BR SCT007 OVC015=
201703280807 KSEA 280807Z 2808/2912 17009KT P6SM -RA SCT012 OVC030
                      TEMPO 2808/2810 BKN012 OVC030 FM281000 17014KT
                       6SM -RA BR SCT007 OVC020 FM281800 17015G23KT
                       P6SM -RA SCT010 BKN022 OVC050 FM282100 18013G20KT
                       P6SM -RA SCT020 BKN035 OVC050 FM290300 17010KT
                       P6SM -RA SCT015 OVC028 FM290900 15010KT
                       5SM -RA BR SCT007 OVC015=
201703280537 TAF KSEA 280537Z 2806/2912 20013KT P6SM -RA SCT020 OVC035
                      TEMPO 2806/2810 BKN020 OVC035 FM281000 17014KT
                       6SM -RA BR SCT007 OVC020 FM281800 17015G23KT
                       P6SM -RA SCT010 BKN022 OVC050 FM282100 18013G20KT
                       P6SM -RA SCT020 BKN035 OVC050 FM290300 17010KT
                       P6SM -RA SCT015 OVC028 FM290900 15010KT
                       5SM -RA BR SCT007 OVC015=
201703280306 KSEA 280306Z 2803/2906 22009KT P6SM VCSH SCT020 BKN030 OVC100 FM281000
                       18010KT P6SM -RA BKN025 OVC050 FM282000
                       18014G20KT P6SM -RA OVC022=
201703280151 KSEA 280151Z 2802/2906 22007KT P6SM VCSH SCT020 BKN050 OVC150 FM281000
                       18010KT P6SM -RA BKN025 OVC050 FM282000
                       18014G20KT P6SM -RA OVC022=
201703280105 KSEA 280105Z 2801/2906 22007KT P6SM SCT017 SCT024 BKN150
                      TEMPO 2801/2805 4SM -SHRA SCT017 BKN024 OVC150
                       FM281000 18010KT P6SM -RA BKN025 OVC050
                       FM282000 18014G20KT P6SM -RA OVC022=
201703272320 TAF KSEA 272320Z 2800/2906 23010KT P6SM VCSH SCT025 BKN050 OVC100
                       FM281000 18010KT P6SM -RA BKN025 OVC050
                       FM282000 18014G20KT P6SM -RA OVC022=
201703272008 KSEA 272008Z 2720/2824 21012KT P6SM VCSH SCT025 BKN050 BKN200 FM280600
                       20010KT P6SM SCT025 BKN050 OVC150 FM281200
                       18010KT P6SM -RA BKN030 OVC050 FM281600
                       18014KT P6SM -RA OVC022=
201703271720 TAF KSEA 271720Z 2718/2824 18010KT P6SM VCSH SCT020 BKN040 FM280000
                       21010KT P6SM SCT025 BKN050 FM280900 18008KT
                       P6SM -RA BKN030 OVC050 FM281200 18012KT
                       P6SM -RA OVC022=
201703271433 KSEA 271433Z 2715/2818 18010KT P6SM VCSH SCT020 BKN040 BKN100 FM280000
                       21008KT P6SM SCT030 BKN060 FM280900 18008KT
                       P6SM -RA BKN030 OVC050 FM281200 18008KT
                       P6SM -RA OVC025=
201703271131 TAF KSEA 271131Z 2712/2818 17009KT P6SM VCSH SCT025 BKN050
                      TEMPO 2712/2716 -SHRA BKN025 OVC050 FM271800
                       19013KT P6SM -SHRA SCT028 BKN035 OVC050
                       FM280300 21008KT P6SM SCT035 BKN060 FM280900
                       19008KT P6SM -RA SCT028 BKN035 OVC050 FM281200
                       17008KT P6SM -RA OVC025=
201703270902 KSEA 270902Z 2709/2812 17009KT P6SM VCSH FEW015 SCT030 BKN060
                      TEMPO 2709/2713 -SHRA FEW015 BKN030 OVC050
                       FM271800 19012KT P6SM -SHRA BKN022 OVC050
                       FM272100 21012KT P6SM -SHRA SCT028 BKN035
                       OVC050 FM280300 19007KT P6SM SCT028 SCT035
                       BKN050 FM280900 17008KT P6SM -RA BKN025
                       OVC050=
201703270625 KSEA 270625Z 2706/2812 17009KT P6SM VCSH SCT005 BKN015 OVC028
                      TEMPO 2706/2709 4SM -SHRA BR BKN005 OVC015
                       FM270900 17009KT P6SM VCSH OVC015 FM271800
                       19012KT P6SM -SHRA BKN022 OVC050 FM272100
                       21012KT P6SM -SHRA SCT028 BKN035 OVC050
                       FM280300 19007KT P6SM SCT028 SCT035 BKN050
                       FM280900 17008KT P6SM -RA BKN025 OVC050=
201703270616 KSEA 270616Z 2706/2812 17009KT P6SM VCSH SCT015 OVC028
                      TEMPO 2706/2709 4SM -SHRA BR SCT005 OVC015
                       FM270900 17009KT P6SM VCSH OVC015 FM271800
                       19012KT P6SM -SHRA BKN022 OVC050 FM272100
                       21012KT P6SM -SHRA SCT028 BKN035 OVC050
                       FM280300 19007KT P6SM SCT028 SCT035 BKN050
                       FM280900 17008KT P6SM -RA BKN025 OVC050=
201703270535 TAF KSEA 270535Z 2706/2812 17009KT P6SM VCSH SCT015 OVC028
                      TEMPO 2706/2709 -SHRA OVC015 FM270900 17009KT
                       P6SM VCSH OVC015 FM271800 19012KT P6SM -SHRA
                       BKN022 OVC050 FM272100 21012KT P6SM -SHRA
                       SCT028 BKN035 OVC050 FM280300 19007KT P6SM
                       SCT028 SCT035 BKN050 FM280900 17008KT P6SM
                       -RA BKN025 OVC050=
201703270420 KSEA 270420Z 2704/2806 17009KT P6SM -RA OVC025
                      TEMPO 2704/2707 OVC015 FM270700 19010KT P6SM
                       VCSH BKN030 BKN045 FM271200 17007KT P6SM
                       -SHRA BKN025 OVC040 FM271800 21010KT P6SM
                       VCSH BKN030 BKN045 FM272200 20010KT P6SM
                       VCSH SCT035 BKN045=
201703270229 KSEA 270229Z 2702/2806 19009KT P6SM -RA OVC025
                      TEMPO 2702/2706 4SM -RA BR FM270600 19010KT
                       P6SM VCSH BKN030 BKN045 FM271200 17007KT
                       P6SM -SHRA BKN025 OVC040 FM271800 21010KT
                       P6SM VCSH BKN030 BKN045 FM272200 20010KT
                       P6SM VCSH SCT035 BKN045=
201703262321 TAF KSEA 262321Z 2700/2806 16010KT 5SM -RA BR BKN020 OVC030 FM270200
                       19010KT P6SM -SHRA BKN025 OVC040 FM270400
                       19010KT P6SM VCSH BKN030 BKN045 FM271200
                       17007KT P6SM -SHRA BKN025 OVC040 FM271800
                       21010KT P6SM VCSH BKN030 BKN045 FM272200
                       20010KT P6SM VCSH SCT035 BKN045=
201703262106 KSEA 262106Z 2621/2724 VRB05KT 6SM -RA BKN030 OVC045 FM262300 16010KT
                       5SM -RA BR OVC025 FM270100 19010KT P6SM
                       -SHRA BKN025 OVC040 FM270400 19010KT P6SM
                       VCSH BKN030 BKN045 FM271200 17007KT P6SM
                       -SHRA BKN025 OVC040 FM271800 21010KT P6SM
                       VCSH BKN030 BKN045=
201703261733 TAF KSEA 261733Z 2618/2724 14010KT 6SM -RA BKN030 OVC045 FM262300
                       16010KT 5SM -RA BR OVC025 FM270100 19010KT
                       P6SM -SHRA BKN025 OVC040 FM270400 19010KT
                       P6SM VCSH BKN030 BKN045 FM271200 17007KT
                       P6SM -SHRA BKN025 OVC040 FM271800 21010KT
                       P6SM VCSH BKN030 BKN045=
201703261509 KSEA 261509Z 2615/2718 14008KT P6SM -RA BKN035 OVC050 FM262300
                       16010KT 6SM -RA BR OVC025 FM270100 19010KT
                       P6SM -SHRA BKN025 OVC040 FM270400 19010KT
                       P6SM VCSH BKN035 BKN045 FM271200 17007KT
                       P6SM -SHRA BKN025 OVC040=
201703261120 TAF KSEA 261120Z 2612/2718 09005KT P6SM BKN050 OVC110 FM261500
                       09007KT P6SM -RA SCT035 OVC050 FM261800
                       11010KT P6SM -RA BKN035 OVC050 FM262100
                       15010KT 6SM -RA BR OVC025 FM270300 19010KT
                       P6SM VCSH BKN025 OVC040
                      PROB30 2703/2709 -SHRA FM271200 17007KT P6SM
                       -SHRA BKN025 OVC040=
201703260900 KSEA 260900Z 2609/2712 11005KT P6SM BKN060 OVC150 FM261200 11005KT
                       P6SM BKN050 OVC110 FM261500 11006KT P6SM
                       -RA SCT035 OVC050 FM261800 11010KT P6SM
                       -RA BKN035 OVC050 FM262100 13008KT 6SM -RA
                       BR OVC025 FM270300 18010KT P6SM VCSH BKN025
                       OVC040
                      PROB30 2703/2709 -SHRA=
201703260536 TAF KSEA 260536Z 2606/2712 14005KT P6SM BKN050 OVC150 FM261200
                       11005KT P6SM BKN050 OVC110 FM261500 11006KT
                       P6SM -RA SCT035 OVC050 FM261800 11010KT
                       P6SM -RA BKN035 OVC050 FM262100 13008KT
                       6SM -RA BR OVC025 FM270300 18010KT P6SM
                       VCSH BKN025 OVC040
                      PROB30 2703/2709 -SHRA=
201703260205 KSEA 260205Z 2602/2706 19005KT P6SM FEW035 SCT050 OVC200 FM260600
                       VRB03KT P6SM FEW080 OVC150 FM261200 12006KT
                       P6SM SCT080 OVC120 FM261800 13008KT P6SM
                       -RA BKN045 OVC070 FM270200 18010KT P6SM
                       -RA BKN030 OVC045=
201703252320 TAF KSEA 252320Z 2600/2706 22009KT P6SM SCT035 BKN050 FM260300
                       VRB03KT P6SM SCT050 BKN200 FM261200 12006KT
                       P6SM SCT080 OVC120 FM261800 13008KT P6SM
                       -RA BKN045 OVC070 FM270200 18010KT P6SM
                       -RA BKN030 OVC045=
201703252111 KSEA 252111Z 2521/2624 22009KT P6SM SCT035 BKN050 FM260300 VRB03KT
                       P6SM SCT050 FM261200 12006KT P6SM SCT080
                       OVC120 FM261800 13008KT P6SM -RA BKN045
                       OVC070=
201703251725 TAF KSEA 251725Z 2518/2624 20010KT P6SM VCSH SCT015 BKN050
                      TEMPO 2518/2520 BKN015 FM252100 22008KT P6SM
                       SCT035 BKN050 FM260300 VRB03KT P6SM SCT050
                       FM261200 12006KT P6SM SCT080 OVC120 FM261800
                       13008KT P6SM -RA BKN045 OVC070=
201703251505 KSEA 251505Z 2515/2618 20010KT P6SM VCSH SCT025 BKN050 FM252100
                       22008KT P6SM SCT035 BKN050 FM260300 VRB03KT
                       P6SM FEW050 BKN200 FM261200 12006KT P6SM
                       SCT080 OVC130
                      PROB30 2615/2618 -RA OVC080=
201703251140 TAF KSEA 251140Z 2512/2618 20011KT P6SM VCSH SCT020 BKN035 BKN050
                       TEMPO 2512/2516 5SM SHRA BKN020 OVC035 FM251800
                       22009KT P6SM VCSH FEW028 SCT035 BKN050
                      TEMPO 2518/2522 -SHRA FEW028 BKN035 OVC050
                       FM260000 22005KT P6SM FEW035 BKN070 BKN200
                       FM260300 VRB03KT P6SM FEW070 BKN200 FM261200
                       10006KT P6SM SCT080 OVC130
                      PROB30 2615/2618 -RA OVC080=
201703250902 KSEA 250902Z 2509/2612 20011KT P6SM VCSH BKN035 BKN050
                      TEMPO 2509/2513 5SM SHRA OVC025 FM251300
                       19008KT P6SM VCSH BKN025 BKN050 FM251800
                       22009KT P6SM VCSH SCT030 BKN050
                      PROB30 2518/2524 -SHRA BKN030 OVC050 FM260000
                       22005KT P6SM FEW035 BKN060 FM260600 VRB03KT
                       P6SM SCT060 BKN200=
201703250523 TAF KSEA 250523Z 2506/2612 20009KT P6SM VCSH SCT025 BKN100 FM250900
                       20011KT P6SM -SHRA BKN025 BKN050 FM251300
                       19008KT P6SM VCSH BKN025 BKN050 FM251800
                       22009KT P6SM VCSH SCT030 BKN050
                      PROB30 2518/2524 -SHRA BKN030 OVC050 FM260000
                       22005KT P6SM FEW035 BKN060 FM260600 VRB03KT
                       P6SM SCT060 BKN200=
201703250302 KSEA 250302Z 2503/2606 20013KT P6SM VCSH SCT020 BKN045
                      TEMPO 2503/2506 -SHRA BKN020 OVC035 FM250600
                       20010KT P6SM VCSH SCT035 BKN045 FM251200
                       18008KT P6SM VCSH BKN030 BKN045 FM251800
                       21010KT P6SM SCT035 BKN045 FM260200 20006KT
                       P6SM BKN045=
201703250143 KSEA 250143Z 2502/2606 20016KT P6SM VCSH FEW028 SCT035 BKN060
                      TEMPO 2502/2504 -SHRA FEW028 BKN035 OVC060
                       FM250400 20010KT P6SM VCSH SCT035 BKN045
                       FM251200 18008KT P6SM VCSH BKN030 BKN045
                       FM251800 21010KT P6SM SCT035 BKN045 FM260200
                       20006KT P6SM BKN045=
201703242327 TAF KSEA 242327Z 2500/2606 21012G20KT P6SM VCSH SCT035 BKN045
                      TEMPO 2500/2504 -SHRA BKN030 OVC045 FM250400
                       20010KT P6SM VCSH SCT035 BKN045 FM251200
                       18008KT P6SM VCSH BKN030 BKN045 FM251800
                       21010KT P6SM SCT035 BKN045 FM260200 20006KT
                       P6SM BKN045=
201703242108 KSEA 242108Z 2421/2524 21012G20KT P6SM VCSH SCT035 BKN045
                      TEMPO 2421/2501 -SHRA BKN030 OVC045 FM250300
                       20010KT P6SM VCSH SCT035 BKN045 FM251200
                       18008KT P6SM VCSH BKN030 BKN045 FM251800
                       19010KT P6SM SCT035 BKN045=
201703241721 TAF KSEA 241721Z 2418/2524 19010KT P6SM SCT035 BKN045
                      TEMPO 2418/2420 -SHRA BKN030 OVC045 FM242000
                       21012G20KT P6SM VCSH SCT035 BKN045
                      TEMPO 2421/2501 -SHRA BKN030 OVC045 FM250300
                       20010KT P6SM VCSH SCT035 BKN045 FM251200
                       18008KT P6SM VCSH BKN030 BKN045 FM251800
                       19010KT P6SM SCT035 BKN045=
201703241130 TAF KSEA 241130Z 2412/2518 11009KT P6SM VCSH BKN045 OVC080
                      TEMPO 2412/2416 -SHRA OVC035 FM241600 18009KT
                       P6SM VCSH BKN045 OVC080 FM242000 21012G22KT
                       P6SM -SHRA SCT035 BKN050 OVC070 FM250300
                       20009KT P6SM VCSH SCT040 BKN060 BKN100=
201703240900 KSEA 240900Z 2409/2512 00000KT P6SM VCSH FEW002 BKN045 OVC060 FM241200
                       15010KT P6SM -SHRA OVC035 FM241500 18013KT
                       P6SM -SHRA BKN035 OVC050 FM242000 21014G22KT
                       P6SM -SHRA SCT025 BKN050 FM250300 20012KT
                       P6SM VCSH SCT025 BKN050=
201703240520 TAF KSEA 240520Z 2406/2512 17008KT 6SM -RA BR OVC035 FM241200 15010KT
                       P6SM -RA OVC035 FM241500 18013KT P6SM -SHRA
                       BKN035 OVC050 FM242000 21014G22KT P6SM -SHRA
                       SCT025 BKN050 FM250300 20012KT P6SM VCSH
                       SCT025 BKN050=
201703240300 KSEA 240300Z 2403/2506 23006KT P6SM -RA OVC040 FM241200 15010KT
                       P6SM -RA OVC035 FM241500 18013KT P6SM -SHRA
                       BKN035 OVC050 FM242000 21014G22KT P6SM -SHRA
                       SCT025 BKN050 FM250300 20012KT P6SM SCT025
                       SCT050=
201703232320 TAF KSEA 232320Z 2400/2506 13009KT P6SM SCT040 BKN100 OVC150 FM240200
                       12009KT P6SM -RA OVC040 FM241200 15010KT
                       P6SM -RA OVC035 FM241500 18013KT P6SM -SHRA
                       BKN035 OVC050 FM242000 21014G22KT P6SM -SHRA
                       SCT025 BKN050 FM250300 20012KT P6SM SCT025
                       SCT050=
201703232112 KSEA 232112Z 2321/2424 13009KT P6SM SCT040 BKN100 OVC150 FM240200
                       12009KT P6SM -RA OVC040 FM241200 15010KT
                       P6SM -RA OVC035 FM241500 18013KT P6SM -SHRA
                       BKN035 OVC050 FM242000 21014G22KT P6SM -SHRA
                       SCT025 BKN050=
201703231720 TAF KSEA 231720Z 2318/2424 15009KT P6SM SCT040 BKN070 BKN150 FM232100
                       17009KT P6SM SCT040 BKN070 OVC120 FM240200
                       13009KT P6SM -RA OVC040 FM241200 16012KT
                       P6SM -RA OVC035 FM241500 18012KT P6SM -SHRA
                       BKN035 OVC050 FM242000 20013G22KT P6SM -SHRA
                       SCT025 BKN050=
201703231512 KSEA 231512Z 2315/2418 15009KT P6SM SCT030 BKN070 BKN150 FM231900
                       17009KT P6SM FEW030 BKN080 OVC150 FM240400
                       13009KT P6SM -RA OVC040=
201703231418 KSEA 231418Z 2314/2418 16009KT P6SM SCT040 SCT080 BKN150 FM231900
                       17009KT P6SM SCT040 BKN080 OVC150 FM240400
                       13009KT P6SM -RA OVC040=
201703231120 TAF KSEA 231120Z 2312/2418 21010KT P6SM SCT028 BKN070
                      TEMPO 2313/2317 BKN025 OVC070 FM231900 17006KT
                       P6SM SCT040 BKN080 FM240400 14009KT P6SM
                       -RA OVC040=
201703230936 KSEA 230936Z 2310/2412 17008KT P6SM SCT035 OVC080
                      TEMPO 2313/2317 BKN035 OVC070 FM231900 17008KT
                       P6SM SCT040 BKN060 OVC150 FM240300 12008KT
                       P6SM -RA SCT030 OVC040=
201703230535 TAF KSEA 230535Z 2306/2412 20008KT P6SM FEW035 SCT250 FM230900
                       19008KT P6SM SCT022 BKN100
                      TEMPO 2310/2314 BKN022 OVC045 FM231900 17008KT
                       P6SM SCT040 BKN060 OVC150 FM240300 12008KT
                       P6SM -RA SCT030 OVC040=
201703230300 KSEA 230300Z 2303/2406 23016G21KT P6SM VCSH SCT020 SCT040 BKN100
                       TEMPO 2303/2307 SCT020 BKN035 BKN100 FM231200
                       17008KT P6SM SCT025 BKN045 FM231900 17008KT
                       P6SM SCT040 BKN060 OVC150 FM240300 12008KT
                       P6SM -RA SCT030 OVC040=
201703222339 TAF KSEA 222339Z 2300/2406 21018G26KT P6SM -SHRA SCT025 BKN035
                       FM230200 20011KT P6SM VCSH SCT020 BKN030
                       FM231200 17008KT P6SM SCT025 BKN045 FM231900
                       17008KT P6SM SCT040 BKN060 OVC150 FM240300
                       12008KT P6SM -RA SCT030 OVC040=
201703221732 TAF KSEA 221732Z 2218/2324 20012G20KT P6SM SCT025 BKN045
                      TEMPO 2218/2222 -SHRA BKN025 OVC045 FM222200
                       21018G28KT P6SM SCT025 BKN045
                      TEMPO 2222/2302 -SHRA BKN025 OVC040 FM230200
                       20010KT P6SM VCSH SCT025 BKN045 FM231200
                       17008KT P6SM SCT025 BKN045 FM231800 17008KT
                       P6SM SCT045 BKN090=
201703221529 KSEA 221529Z 2215/2318 17010KT P6SM VCSH SCT020 BKN040 FM221800
                       18012G20KT P6SM -SHRA BKN035 BKN045 FM222100
                       20018G26KT P6SM -SHRA BKN025 BKN045 FM230200
                       19008KT P6SM VCSH SCT030 BKN060 BKN100=
201703221120 TAF KSEA 221120Z 2212/2318 16007KT P6SM VCSH BKN060 FM221500 17010KT
                       P6SM -SHRA SCT020 BKN035 OVC060 FM221800
                       18013G20KT P6SM -SHRA OVC050 FM222200 20018G26KT
                       P6SM -SHRA OVC025 FM230400 19008KT P6SM
                       VCSH SCT030 BKN060 BKN100=
201703220900 KSEA 220900Z 2209/2312 11008KT P6SM FEW060 BKN100 FM221300 17010KT
                       P6SM -SHRA SCT020 BKN035 OVC060 FM221700
                       18013G20KT P6SM -SHRA OVC050 FM222100 20018G26KT
                       P6SM -SHRA OVC025 FM230300 19008KT P6SM
                       VCSH SCT030 BKN060 BKN100=
201703220536 TAF KSEA 220536Z 2206/2312 12005KT P6SM -SHRA FEW035 BKN060 BKN250
                       FM221300 17010KT P6SM -SHRA SCT020 BKN035
                       OVC060 FM221700 18013G20KT P6SM -SHRA OVC050
                       FM222100 20018G26KT P6SM -SHRA OVC025 FM230300
                       19008KT P6SM VCSH SCT030 BKN060 BKN100=
201703220305 KSEA 220305Z 2203/2306 12005KT P6SM -SHRA FEW035 BKN060 BKN250
                       FM220900 12006KT P6SM VCSH SCT030 BKN050
                       BKN080 FM221300 17010KT P6SM -SHRA BKN030
                       OVC050 FM221600 19013G23KT P6SM -RA OVC030
                       FM221900 21016G28KT P6SM -SHRA BKN030 OVC050
                       FM222100 22014G25KT P6SM VCSH SCT030 SCT050
                       FM230300 19012KT P6SM SCT030 BKN050=
201703212320 TAF KSEA 212320Z 2200/2306 15008KT P6SM VCSH SCT035 BKN050 OVC080
                       TEMPO 2200/2202 -SHRA BKN035 OVC050 FM220900
                       12006KT P6SM VCSH SCT030 BKN050 BKN080 FM221300
                       17010KT P6SM -SHRA BKN030 OVC050 FM221600
                       19013G23KT P6SM -RA OVC030 FM221900 21016G28KT
                       P6SM -SHRA BKN030 OVC050 FM222100 22014G25KT
                       P6SM VCSH SCT030 SCT050 FM230300 19012KT
                       P6SM SCT030 BKN050=
201703212133 KSEA 212133Z 2122/2224 17008KT P6SM -SHRA SCT040 OVC060
                      TEMPO 2122/2124 -RA BKN040 OVC060 FM220000
                       16008KT P6SM VCSH SCT030 BKN050 OVC080=
201703211720 TAF KSEA 211720Z 2118/2224 13008KT P6SM -SHRA SCT030 OVC060
                      TEMPO 2120/2124 -RA BKN030 OVC060 FM220000
                       16008KT P6SM VCSH SCT030 BKN050 OVC080=
201703211503 KSEA 211503Z 2115/2218 12008KT P6SM -SHRA SCT030 OVC060
                      TEMPO 2116/2120 -RA OVC030 FM212000 16008KT
                       P6SM VCSH SCT030 BKN050 OVC080=
201703211130 TAF KSEA 211130Z 2112/2218 00000KT P6SM -RA SCT050 OVC060 FM211600
                       14006KT 5SM -RA OVC030 FM212000 16007KT
                       P6SM VCSH SCT030 BKN050 OVC080=
201703210908 KSEA 210908Z 2109/2212 04004KT P6SM FEW045 OVC070 FM211000 04005KT
                       P6SM -RA OVC050 FM211600 14007KT 5SM -RA
                       OVC030 FM212000 16007KT P6SM VCSH OVC030=
201703210530 TAF KSEA 210530Z 2106/2212 08006KT P6SM -RA BKN060 OVC080 FM210900
                       04005KT P6SM -RA OVC050 FM211600 14007KT
                       5SM -RA OVC030 FM212000 16007KT P6SM VCSH
                       OVC030=
201703210315 KSEA 210315Z 2103/2206 33005KT P6SM VCSH BKN060 OVC080 FM210400
                       05006KT P6SM -RA OVC060 FM211600 14007KT
                       5SM -RA OVC030 FM212000 16007KT P6SM VCSH
                       OVC030=
201703202328 TAF KSEA 202328Z 2100/2206 36007KT P6SM VCSH OVC060 FM210400 05006KT
                       P6SM -RA OVC060 FM211600 14007KT 5SM -RA
                       OVC030 FM212000 16007KT P6SM VCSH OVC030=
201703202101 KSEA 202101Z 2021/2124 35012KT P6SM FEW070 BKN140 OVC200 FM210500
                       05008KT P6SM -RA OVC060=
201703201728 TAF KSEA 201728Z 2018/2124 01013KT P6SM SCT120 BKN200 FM202000
                       03010KT P6SM OVC100 FM210500 05008KT P6SM
                       -RA OVC060=
201703201120 TAF KSEA 201120Z 2012/2118 02012KT P6SM BKN250 FM202000 03010KT
                       P6SM OVC100 FM210400 05008KT P6SM -RA OVC060=
201703200900 KSEA 200900Z 2009/2112 01012KT P6SM BKN250 FM202000 03010KT P6SM
                       OVC090 FM202300 03008KT P6SM -RA OVC050=
201703200526 TAF KSEA 200526Z 2006/2112 01010KT P6SM BKN250 FM202000 03010KT
                       P6SM OVC090 FM202300 03008KT P6SM -RA OVC050=
201703200306 KSEA 200306Z 2003/2106 35012KT P6SM BKN250 FM201500 04012KT P6SM
                       OVC200 FM202000 04011KT P6SM OVC100 FM202300
                       03009KT P6SM -RA OVC050=
201703200105 KSEA 200105Z 2001/2106 35013KT P6SM BKN200 FM200200 02012KT P6SM
                       BKN200 FM201500 04012KT P6SM OVC200 FM202000
                       04011KT P6SM OVC100 FM202300 03009KT P6SM
                       -RA OVC050=
201703192320 TAF KSEA 192320Z 2000/2106 35009G17KT P6SM FEW050 BKN250 FM200200
                       02012KT P6SM SCT250 FM201500 04012KT P6SM
                       OVC250 FM202000 04011KT P6SM OVC100 FM202300
                       03009KT P6SM -RA OVC050=
201703192146 KSEA 192146Z 1922/2024 33007KT P6SM SCT050 SCT250 FM200200 02012KT
                       P6SM SCT250 FM201500 04012KT P6SM OVC250=
201703191720 TAF KSEA 191720Z 1918/2024 15003KT P6SM FEW035 SCT210 FM192000
                       36008KT P6SM SCT250 FM200200 02012KT P6SM
                       SCT250 FM201500 04012KT P6SM OVC250=
201703191503 TAF AMD KSEA 191503Z 1915/2018 15005KT P6SM BKN200 FM192000 36008KT
                       P6SM SCT250 FM200200 02010KT P6SM SCT250=
201703191120 TAF KSEA 191120Z 1912/2018 12005KT P6SM SCT050 FM192000 36008KT
                       P6SM SCT250 FM200200 02010KT P6SM SCT250=
201703190900 KSEA 190900Z 1909/2012 15005KT P6SM SCT060 SCT250 FM192000 36008KT
                       P6SM SCT250=
201703190521 TAF KSEA 190521Z 1906/2012 06006KT P6SM FEW035 SCT050 FM190900
                       15004KT P6SM SCT060 SCT250 FM192000 36008KT
                       P6SM SCT250=
201703190249 KSEA 190249Z 1903/2006 02006KT P6SM FEW025 BKN060 FM190600 VRB04KT
                       P6SM SCT070 SCT250 FM190900 15004KT P6SM
                       SCT060 SCT250 FM192300 36008KT P6SM SCT250=
201703190134 KSEA 190134Z 1902/2006 02011KT P6SM VCSH FEW035 BKN060 FM190600
                       VRB05KT P6SM SCT070 SCT250 FM191200 VRB04KT
                       P6SM SCT250 FM191600 04004KT P6SM SCT250
                       FM192300 36008KT P6SM SCT250=
201703190042 KSEA 190042Z 1901/2006 23012G20KT P6SM FEW020 SCT070 FM190200 21008KT
                       P6SM VCSH FEW035 BKN070 FM190600 18005KT
                       P6SM SCT070 SCT250 FM191200 VRB04KT P6SM
                       SCT250 FM191600 04004KT P6SM SCT250 FM192300
                       36008KT P6SM SCT250=
201703182320 TAF KSEA 182320Z 1900/2006 22018G23KT P6SM FEW020 SCT040 SCT070
                       FM190300 20008KT P6SM SCT090 FM190600 18005KT
                       P6SM SCT250 FM191200 VRB04KT P6SM SCT250
                       FM191600 04004KT P6SM SCT250 FM192300 36008KT
                       P6SM SCT250=
201703182100 KSEA 182100Z 1821/1924 22014G24KT P6SM VCSH FEW025 BKN070 FM190300
                       20008KT P6SM SCT090 FM190600 18005KT P6SM
                       SCT250 FM191200 VRB04KT P6SM SCT250=
201703181720 TAF KSEA 181720Z 1818/1924 20014KT P6SM SCT015 OVC040
                      TEMPO 1818/1821 VRB05KT 4SM -SHRA BR BKN011
                       OVC040 FM182100 22014G24KT P6SM VCSH SCT030
                       BKN050 FM190300 20008KT P6SM SCT090 FM190600
                       18005KT P6SM SCT250 FM191200 VRB04KT P6SM
                       SCT250=
201703181413 KSEA 181413Z 1814/1918 22011KT P6SM -SHRA FEW009 SCT014 OVC022
                       FM181600 22012KT P6SM VCSH SCT022 OVC050
                       TEMPO 1816/1819 BKN022 OVC050 FM181900 22014G24KT
                       P6SM SCT030 BKN050 FM190100 20008KT P6SM
                       SCT090=
201703181121 TAF KSEA 181121Z 1812/1918 19014G24KT P6SM -SHRA SCT025 BKN040
                       OVC090
                      TEMPO 1812/1816 -SHRA BKN025 OVC040 FM181800
                       22014G24KT P6SM SCT030 BKN050 FM190100 20008KT
                       P6SM SCT090=
201703180847 KSEA 180847Z 1809/1912 14011KT P6SM FEW045 SCT060 OVC100 FM181100
                       18015G25KT 5SM -SHRA BR BKN025 OVC040 FM181400
                       20015G25KT 5SM -SHRA BR OVC015 FM181800
                       22012G20KT P6SM BKN025 OVC050 FM182200 22012G20KT
                       P6SM SCT030 BKN060 FM190100 20008KT P6SM
                       SCT090=
201703180520 TAF KSEA 180520Z 1806/1912 VRB05KT 3SM -RA BR FEW004 BKN030 OVC050
                       FM181000 18015G25KT 5SM -SHRA BR BKN025
                       OVC040 FM181400 20015G25KT 5SM -SHRA BR
                       OVC015 FM181800 22012G20KT P6SM BKN025 OVC050
                       FM182200 22012G20KT P6SM SCT030 BKN060 FM190100
                       20008KT P6SM SCT090=
201703180307 KSEA 180307Z 1803/1906 09005KT 5SM -RA BR FEW004 OVC030 FM180600
                       09005KT 4SM RA BR OVC015 FM181000 18014G25KT
                       P6SM -SHRA OVC015 FM181400 20011G20KT P6SM
                       VCSH BKN020 BKN040 FM181700 22013G22KT P6SM
                       VCSH BKN050=
201703180051 KSEA 180051Z 1801/1906 03004KT 5SM -RA BR SCT005 OVC022
                      TEMPO 1801/1805 3SM RA BR BKN005 OVC022 FM180600
                       09005KT 4SM RA BR OVC015 FM181000 18014G25KT
                       P6SM -SHRA OVC015 FM181400 20011G20KT P6SM
                       VCSH BKN020 BKN040 FM181700 22013G22KT P6SM
                       VCSH BKN050=
201703172326 TAF KSEA 172326Z 1800/1906 06004KT 5SM -RA BR SCT015 OVC035 FM180600
                       09005KT 4SM RA BR OVC015 FM181000 18014G25KT
                       P6SM -SHRA OVC015 FM181400 20011G20KT P6SM
                       VCSH BKN020 BKN040 FM181700 22013G22KT P6SM
                       VCSH BKN050=
201703172136 KSEA 172136Z 1722/1824 09004KT 5SM -RA BR FEW006 BKN026 OVC035
                       FM180600 09005KT 4SM RA BR OVC015 FM181000
                       17013G21KT P6SM -SHRA OVC025 FM181400 20011G20KT
                       P6SM VCSH SCT025 BKN040=
201703171727 TAF KSEA 171727Z 1718/1824 01003KT P6SM OVC130 FM172100 06004KT
                       P6SM -RA SCT030 OVC050 FM180200 09005KT
                       5SM -RA BR SCT025 OVC040 FM180800 09005KT
                       4SM RA BR OVC025 FM181000 17013G21KT P6SM
                       -SHRA OVC025 FM181400 20011G20KT P6SM VCSH
                       SCT025 BKN040=
201703171504 KSEA 171504Z 1715/1818 00000KT P6SM OVC140 FM171800 09005KT P6SM
                       BKN090 OVC200 FM172100 10005KT P6SM -RA
                       SCT030 OVC050 FM180200 11008KT P6SM -RA
                       OVC030 FM180900 17012G20KT P6SM -SHRA OVC025=
201703171121 TAF KSEA 171121Z 1712/1818 08005KT P6SM BKN250 FM171800 09005KT
                       P6SM BKN090 OVC200 FM172100 10005KT P6SM
                       -RA SCT030 OVC050 FM180200 11008KT P6SM
                       -RA OVC030 FM180900 17012G20KT P6SM -SHRA
                       OVC025=
201703170909 KSEA 170909Z 1709/1812 10005KT P6SM FEW070 BKN250 FM171800 09005KT
                       P6SM BKN090 OVC200 FM172100 10005KT P6SM
                       -RA SCT030 OVC050 FM180200 11008KT P6SM
                       -RA OVC030 FM180900 17012G20KT P6SM -SHRA
                       OVC025=
201703170520 TAF KSEA 170520Z 1706/1812 07004KT P6SM FEW070 BKN250 FM171800
                       09005KT P6SM BKN090 OVC200 FM172100 10005KT
                       P6SM -RA SCT030 OVC050 FM180200 11008KT
                       P6SM -RA OVC030 FM180900 17012G20KT P6SM
                       -SHRA OVC025=
201703170301 KSEA 170301Z 1703/1806 VRB03KT P6SM FEW070 SCT250 FM170800 08005KT
                       P6SM FEW020 SCT100 BKN200 FM172100 12007KT
                       P6SM -RA SCT030 OVC050 FM180200 13009KT
                       P6SM -RA OVC030=
201703170008 KSEA 170008Z 1700/1806 25006KT P6SM FEW040 SCT060 FM170300 20005KT
                       P6SM SCT100 FM170800 08005KT P6SM FEW020
                       SCT100 BKN200 FM172100 12007KT P6SM -RA
                       SCT030 OVC050 FM180200 13009KT P6SM -RA
                       OVC030=
201703162320 TAF KSEA 162320Z 1700/1806 23010G18KT P6SM SCT030 SCT060 FM170300
                       20007KT P6SM FEW035 SCT100 FM170800 08005KT
                       P6SM FEW020 SCT100 BKN200 FM172100 12007KT
                       P6SM -RA SCT030 OVC050 FM180200 13009KT
                       P6SM -RA OVC030=
201703162101 KSEA 162101Z 1621/1724 22012G20KT P6SM SCT030 SCT060 FM170300 16006KT
                       P6SM FEW035 SCT100 FM171200 07005KT P6SM
                       FEW020 SCT100 BKN200 FM172000 09007KT P6SM
                       -RA SCT040 OVC060=
201703161720 TAF KSEA 161720Z 1618/1724 19012KT P6SM SCT020 SCT040
                      TEMPO 1620/1624 P6SM SCT025 BKN050 FM170300
                       16006KT P6SM FEW045 SCT100 FM171200 07005KT
                       P6SM FEW020 SCT100 BKN200 FM172000 09007KT
                       P6SM -RA SCT040 OVC060=
201703161502 KSEA 161502Z 1615/1718 19012KT P6SM SCT020 SCT040
                      TEMPO 1620/1624 P6SM SCT025 BKN050 FM170300
                       16006KT P6SM FEW045 SCT100=
201703161304 KSEA 161304Z 1613/1718 19012G18KT P6SM SCT020 SCT050
                      TEMPO 1620/1624 P6SM SCT025 BKN050 FM170300
                       16006KT P6SM FEW045 SCT100=
201703161120 TAF KSEA 161120Z 1612/1718 19014G22KT P6SM SCT020 BKN050 FM170300
                       16006KT P6SM FEW045 SCT100=
201703160831 KSEA 160831Z 1609/1712 21013G23KT P6SM SCT014 BKN020 BKN026 FM161000
                       20012KT P6SM SCT025 BKN050
                      TEMPO 1610/1613 BKN025 FM170300 16006KT P6SM
                       FEW035 SCT100=
201703160520 TAF KSEA 160520Z 1606/1712 22014G24KT P6SM SCT020 BKN100
                      TEMPO 1606/1608 BKN020 BKN100 FM161000 20010KT
                       P6SM SCT025 SCT100 FM161800 18008KT P6SM
                       SCT025 BKN050 FM170300 16006KT P6SM FEW035
                       SCT100=
201703160304 KSEA 160304Z 1603/1706 22012G20KT P6SM FEW006 BKN010 BKN020
                      TEMPO 1605/1607 SCT020 BKN050 FM160700 22015G25KT
                       P6SM SCT025 BKN045 FM161000 20010KT P6SM
                       SCT025 BKN050 FM161800 18008KT P6SM SCT020
                       BKN045=
201703160120 KSEA 160120Z 1601/1706 21008KT 6SM BR BKN009 OVC020
                      TEMPO 1601/1603 1SM -SHRA BR BKN005 OVC012
                       FM160300 20013G24KT P6SM -SHRA SCT009 BKN025
                       BKN050 FM160600 22015G26KT P6SM VCSH SCT025
                       BKN035 FM160900 20010KT P6SM SCT020 BKN030
                       FM161800 18008KT P6SM SCT020 BKN045=
201703160115 KSEA 160115Z 1601/1706 21006KT 6SM BR BKN009 OVC020
                      TEMPO 1601/1603 3SM -SHRA BR BKN005 OVC012
                       FM160300 20013G24KT P6SM -SHRA SCT009 BKN025
                       BKN050 FM160600 22015G26KT P6SM VCSH SCT025
                       BKN035 FM160900 20010KT P6SM SCT020 BKN030
                       FM161800 18008KT P6SM SCT020 BKN045=
201703152320 TAF KSEA 152320Z 1600/1706 18006KT P6SM -RA SCT010 SCT025 OVC040
                       TEMPO 1600/1602 4SM -RA BR SCT010 OVC025
                       FM160200 20013G24KT P6SM -SHRA SCT025 BKN050
                       FM160500 22015G26KT P6SM VCSH SCT025 BKN035
                       FM160900 20010KT P6SM SCT020 BKN030 FM161800
                       18008KT P6SM SCT020 BKN045=
201703152059 KSEA 152059Z 1521/1624 VRB04KT P6SM SCT010 SCT025 OVC040
                      TEMPO 1521/1523 5SM -RA BR SCT006 SCT012
                       OVC025 FM160100 21013G25KT P6SM -SHRA SCT025
                       BKN050 FM160500 22014G26KT P6SM VCSH SCT025
                       BKN035 FM161000 21010KT P6SM SCT020 BKN030
                       FM161800 20008KT P6SM SCT020 BKN045=
201703151821 KSEA 151821Z 1518/1624 VRB04KT 5SM -RA BR FEW006 SCT025 OVC040
                       TEMPO 1518/1522 3SM -RA BR SCT006 SCT012
                       OVC025 FM160100 22015G28KT P6SM -SHRA SCT025
                       BKN050 FM160900 20013G22KT P6SM VCSH SCT025
                       BKN035 FM161300 19010KT P6SM SCT020 BKN030
                       FM161800 20008KT P6SM SCT020 BKN045=
201703151720 TAF KSEA 151720Z 1518/1624 16008KT P6SM -RA FEW006 SCT022 OVC040
                       TEMPO 1520/1524 4SM -RA BR SCT006 SCT012
                       OVC022 FM160100 22015G28KT P6SM -SHRA SCT025
                       BKN050 FM160900 20013G22KT P6SM VCSH SCT025
                       BKN035 FM161300 19010KT P6SM SCT020 BKN030
                       FM161800 20008KT P6SM SCT020 BKN045=
201703151510 KSEA 151510Z 1515/1618 12005KT P6SM -RA SCT006 SCT020 OVC040
                      TEMPO 1515/1517 5SM -RA BR SCT006 BKN020
                       OVC040 FM152000 19009KT P6SM -SHRA SCT020
                       BKN035 BKN050 FM160100 22014G28KT P6SM VCSH
                       SCT025 BKN050=
201703151205 KSEA 151205Z 1512/1618 18004KT P6SM -RA SCT010 OVC025
                      TEMPO 1512/1516 5SM RA BR OVC006 FM151600
                       18006KT P6SM -RA BKN015 OVC040 FM160000
                       20012G22KT P6SM -SHRA BKN020 BKN050 FM160500
                       22010KT P6SM VCSH SCT025 BKN050=
201703151120 TAF KSEA 151120Z 1512/1618 18004KT P6SM -RA SCT020 OVC050 FM151600
                       18006KT P6SM -RA BKN020 OVC050 FM160000
                       20012G22KT P6SM -SHRA BKN020 BKN050 FM160500
                       22010KT P6SM VCSH SCT025 BKN050=
201703150520 TAF KSEA 150520Z 1506/1612 18006KT P6SM -RA SCT005 OVC050
                      TEMPO 1506/1510 5SM -RA BR BKN005 OVC030
                       FM151000 18006KT 5SM -RA BR OVC012 FM151800
                       18008KT P6SM -RA BKN020 OVC050 FM160000
                       20012G22KT P6SM -SHRA BKN020 BKN050 FM160500
                       22010KT P6SM VCSH SCT025 BKN050=
201703150415 KSEA 150415Z 1504/1606 22006KT P6SM -RA SCT010 BKN060 OVC100 FM150800
                       20010KT 5SM -RA BR OVC015 FM152000 19008KT
                       P6SM -RA OVC025 FM160000 21015G25KT P6SM
                       -SHRA SCT025 BKN035 BKN045=
201703142320 TAF KSEA 142320Z 1500/1606 23013G24KT P6SM SCT010 BKN022 OVC050
                       TEMPO 1500/1504 5SM -RA BR SCT010 OVC020
                       FM150400 21012G20KT P6SM -RA SCT010 OVC020
                       FM150800 20010KT 5SM -RA BR OVC015 FM152000
                       19008KT P6SM -RA OVC025 FM160000 21015G25KT
                       P6SM -SHRA SCT025 BKN035 BKN045=
201703142058 KSEA 142058Z 1421/1524 22013G24KT P6SM SCT010 BKN022 OVC050
                      TEMPO 1421/1501 5SM -RA BR SCT010 OVC020
                       FM150100 21012G20KT P6SM -RA SCT010 BKN020
                       OVC040 FM150400 20010KT P6SM -RA OVC015
                       FM152000 19008KT P6SM -RA OVC025=
201703141720 TAF KSEA 141720Z 1418/1524 18013G22KT P6SM -RA BKN025 BKN035 OVC050
                       FM142200 19012KT P6SM VCSH BKN030 BKN050
                       FM150500 19008KT P6SM -RA BKN022 OVC040
                       FM151200 19008KT P6SM -RA OVC015 FM152100
                       20008KT P6SM -RA OVC025=
201703141426 KSEA 141426Z 1414/1518 16010KT P6SM -RA SCT025 OVC050
                      TEMPO 1414/1416 4SM RA BR BKN025 OVC040 FM141600
                       18012KT P6SM -RA BKN022 OVC040 FM142000
                       20014KT P6SM VCSH BKN030 BKN050 FM142200
                       20012KT P6SM SCT025 BKN050 FM150500 18008KT
                       P6SM -RA BKN020 OVC040=
201703141120 TAF KSEA 141120Z 1412/1518 10006KT P6SM -RA SCT020 OVC050
                      TEMPO 1412/1416 4SM RA BR BKN020 OVC040 FM141600
                       18010KT P6SM -RA BKN015 OVC040 FM141900
                       20014KT P6SM VCSH BKN025 BKN050 FM142200
                       20012KT P6SM SCT025 BKN050 FM150500 18008KT
                       P6SM -RA BKN020 OVC040=
201703141013 KSEA 141013Z 1410/1512 12006KT P6SM -RA SCT020 OVC050
                      TEMPO 1412/1416 4SM RA BR BKN020 OVC040 FM141600
                       18010KT P6SM -RA BKN015 OVC040 FM141900
                       20014KT P6SM VCSH BKN025 BKN050 FM142200
                       20012KT P6SM SCT025 BKN050 FM150500 18008KT
                       P6SM -RA BKN020 OVC040=
201703140520 TAF KSEA 140520Z 1406/1512 18005KT P6SM BKN010 OVC050 FM141000
                       18008KT P6SM -RA BKN015 OVC040 FM141800
                       20012KT P6SM VCSH BKN015 BKN040 FM142200
                       20010KT P6SM VCSH SCT025 BKN050 FM150500
                       18008KT P6SM -RA BKN020 OVC040=
201703140318 KSEA 140318Z 1403/1506 VRB03KT P6SM SCT005 BKN050 OVC200
                      TEMPO 1403/1407 BKN005 OVC050 FM140700 VRB03KT
                       P6SM BKN010 OVC050 FM141000 18008KT P6SM
                       -RA BKN015 OVC040 FM141800 20012KT P6SM
                       VCSH BKN015 BKN040=
201703140310 KSEA 140310Z 1403/1506 VRB03KT P6SM SCT010 BKN050 OVC200 FM141000
                       18008KT P6SM -RA BKN015 OVC040 FM141800
                       20012KT P6SM VCSH BKN015 BKN040=
201703140038 KSEA 140038Z 1401/1506 17009KT 6SM BR SCT004 SCT030 OVC070
                      TEMPO 1401/1405 BKN004 BKN030 OVC070 FM140500
                       15004KT P6SM VCSH BKN010 OVC030 FM141200
                       18008KT P6SM -SHRA BKN015 BKN040 FM142100
                       19010KT P6SM VCSH BKN015 BKN040=
201703132323 TAF KSEA 132323Z 1400/1506 16007KT 4SM -RA BR SCT005 BKN015 OVC030
                       FM140200 15004KT P6SM VCSH BKN015 OVC030
                       TEMPO 1402/1406 4SM -SHRA BR OVC010 FM141200
                       18008KT P6SM -SHRA BKN015 BKN040 FM142100
                       19010KT P6SM VCSH BKN015 BKN040=
201703132103 TAF AMD KSEA 132103Z 1321/1424 16007KT 4SM -RA BR OVC005 FM140200
                       15004KT 3SM -RA BR OVC012 FM141200 18008KT
                       P6SM -SHRA BKN015 BKN040=
201703131726 TAF KSEA 131726Z 1318/1424 16007KT 5SM -RA BR OVC020
                      TEMPO 1318/1322 2SM -RA BR OVC015 FM140200
                       15004KT 3SM -RA BR OVC012 FM141200 18008KT
                       P6SM -SHRA BKN015 BKN040=
201703131120 TAF KSEA 131120Z 1312/1418 14008KT P6SM -RA OVC040 FM131600 16010KT
                       5SM -RA BR OVC025 FM140200 VRB03KT 3SM -RA
                       BR OVC012 FM141200 16006KT P6SM -SHRA BKN015
                       BKN040=
201703130520 TAF KSEA 130520Z 1306/1412 12004KT P6SM OVC080 FM130900 16006KT
                       P6SM -RA OVC050 FM131200 18008KT P6SM -RA
                       OVC030 FM132100 18006KT 4SM -RA BR OVC015
                       FM140600 VRB03KT 4SM -DZ BR OVC010=
201703122325 TAF KSEA 122325Z 1300/1406 VRB04KT P6SM SCT060 BKN120 OVC200 FM130600
                       15006KT P6SM -RA FEW035 OVC060 FM131200
                       15006KT 6SM -RA BR SCT015 OVC035 FM131500
                       17006KT 4SM -RA BR SCT008 OVC015 FM140300
                       VRB04KT 6SM -RA BR SCT008 BKN015 OVC030=
201703122125 KSEA 122125Z 1221/1324 20008KT P6SM -RA FEW008 SCT035 BKN060 FM130000
                       17005KT P6SM SCT045 BKN100 OVC200 FM130600
                       15007KT P6SM -RA BKN045 OVC100 FM131200
                       15006KT 6SM -RA BR SCT015 OVC035 FM131500
                       17008KT 4SM -RA BR SCT008 OVC015=
201703121916 KSEA 121916Z 1219/1324 17008KT P6SM FEW007 SCT020 OVC040
                      TEMPO 1219/1221 -RA FEW007 BKN020 OVC040
                       FM122100 20008KT P6SM FEW015 SCT030 OVC070
                       FM130000 17005KT P6SM SCT045 BKN100 OVC200
                       FM130600 15007KT P6SM -RA BKN045 OVC100
                       FM131200 15006KT 6SM -RA BR SCT015 OVC035
                       FM131500 17008KT 4SM -RA BR SCT008 OVC015=
201703121836 KSEA 121836Z 1219/1324 20008KT P6SM FEW007 SCT020 OVC090
                      TEMPO 1219/1221 FEW007 BKN020 OVC090 FM122100
                       20008KT P6SM FEW020 SCT035 OVC100 FM130000
                       17005KT P6SM SCT045 BKN100 OVC200 FM130600
                       15007KT P6SM -RA BKN045 OVC100 FM131200
                       15006KT 6SM -RA BR SCT015 OVC035 FM131500
                       17008KT 4SM -RA BR SCT008 OVC015=
201703121741 TAF KSEA 121741Z 1218/1324 20008KT P6SM BKN025 OVC100 FM122100
                       20008KT P6SM BKN035 OVC100 FM130000 17005KT
                       P6SM SCT045 BKN100 OVC200 FM130600 15007KT
                       P6SM -RA BKN045 OVC100 FM131200 15006KT
                       6SM -RA BR SCT015 OVC035 FM131500 17008KT
                       4SM -RA BR SCT008 OVC015=
201703121602 KSEA 121602Z 1216/1318 18008KT P6SM SCT012 BKN050 BKN100
                      TEMPO 1216/1218 BKN012 OVC050 FM121800 18008KT
                       P6SM SCT018 BKN030 BKN100 FM130400 VRB03KT
                       P6SM -RA OVC030 FM131100 16006KT 4SM -RA
                       BR OVC020=
201703121414 KSEA 121414Z 1214/1318 15005KT P6SM BKN012 BKN050 OVC150 FM121800
                       18006KT P6SM SCT018 BKN030 BKN100 FM130400
                       VRB03KT P6SM -RA OVC030 FM131100 16006KT
                       4SM -RA BR OVC020=
201703121127 TAF KSEA 121127Z 1212/1318 20008KT P6SM SCT025 OVC150
                      TEMPO 1212/1216 BKN025 OVC150 FM121600 18006KT
                       P6SM BKN030 BKN100 FM130400 VRB03KT P6SM
                       -RA OVC030 FM131100 16006KT 4SM -RA BR OVC020=
201703120905 KSEA 120905Z 1209/1312 20012KT P6SM SCT030 BKN120
                      TEMPO 1209/1212 -SHRA BKN030 OVC120 FM121200
                       18007KT P6SM BKN040 BKN100 FM130400 VRB03KT
                       P6SM -RA OVC040=
201703120520 TAF KSEA 120520Z 1206/1312 22014KT P6SM SCT015 BKN035
                      TEMPO 1206/1209 4SM -SHRA BR BKN015 OVC030
                       FM120900 20012KT P6SM BKN015 BKN035 FM121800
                       18006KT P6SM SCT020 BKN040 FM130000 14005KT
                       P6SM SCT040 BKN100 FM130500 VRB03KT P6SM
                       BKN040 BKN100=
201703120302 KSEA 120302Z 1203/1306 21015G28KT P6SM SCT018 BKN035
                      TEMPO 1203/1206 BKN018 OVC025 FM120600 19013KT
                       P6SM VCSH BKN022 OVC040 FM121200 17007KT
                       P6SM OVC022 FM121800 18006KT P6SM -RA BKN028
                       OVC050 FM130000 14005KT P6SM BKN040 BKN090
                       OVC200=
201703112342 TAF KSEA 112342Z 1200/1306 20015G25KT P6SM VCSH FEW010 OVC030
                      TEMPO 1200/1204 -SHRA FM120600 19013KT P6SM
                       VCSH BKN022 OVC040 FM121200 17007KT P6SM
                       OVC022 FM121800 18006KT P6SM -RA BKN028
                       OVC050 FM130000 14005KT P6SM BKN040 BKN090
                       OVC200=
201703112303 KSEA 112303Z 1123/1224 20013G20KT P6SM -SHRA FEW010 BKN025 OVC040
                       FM120600 19009KT P6SM BKN030 OVC050
                      TEMPO 1206/1210 -SHRA FM121200 17006KT P6SM
                       OVC030
                      PROB30 1212/1218 -RA FM121800 19008KT P6SM
                       -RA OVC030=
201703112110 KSEA 112110Z 1121/1224 16013KT P6SM -RA FEW007 OVC040
                      TEMPO 1121/1124 4SM RA BR FEW007 OVC028 FM120300
                       20013G20KT P6SM -SHRA BKN025 OVC040 FM120600
                       19009KT P6SM BKN030 OVC050
                      TEMPO 1206/1210 -SHRA FM121200 17006KT P6SM
                       OVC030
                      PROB30 1212/1218 -RA FM121800 19008KT P6SM
                       -RA OVC030=
201703111746 TAF KSEA 111746Z 1118/1224 16012KT 4SM -RA BR FEW007 SCT025 OVC045
                       TEMPO 1118/1120 1 1/2SM RA BR FM112000 18013KT
                       4SM -RA BR FEW007 OVC025 FM120300 20013G20KT
                       P6SM -SHRA BKN025 OVC040 FM120600 19009KT
                       P6SM BKN030 OVC050
                      TEMPO 1206/1210 -SHRA FM121200 17006KT P6SM
                       OVC030
                      PROB30 1212/1218 -RA FM121800 19008KT P6SM
                       -RA OVC030=
201703111737 KSEA 111737Z 1118/1218 15013KT 4SM -RA BR FEW003 SCT028 OVC045
                       TEMPO 1118/1120 1 1/2SM RA BR FM112000 17013KT
                       4SM -RA BR OVC025 FM120300 20013G20KT P6SM
                       -SHRA BKN025 OVC040=
201703111615 KSEA 111615Z 1116/1218 VRB03KT 6SM BR FEW002 SCT020 OVC090
                      TEMPO 1116/1118 4SM BR FEW002 OVC020 FM111800
                       14006KT 6SM -RA BR FEW009 SCT030 OVC070
                       FM112000 17013KT 5SM -RA BR OVC025 FM120300
                       20013G20KT P6SM -SHRA BKN025 OVC040=
201703111538 KSEA 111538Z 1116/1218 VRB03KT 4SM BR FEW002 SCT070 OVC130
                      TEMPO 1116/1118 3/4SM BR VV002 FM111800 14006KT
                       6SM -RA BR FEW009 SCT030 OVC070 FM112000
                       17013KT 5SM -RA BR OVC025 FM120300 20013G20KT
                       P6SM -SHRA BKN025 OVC040=
201703111530 KSEA 111530Z 1116/1218 VRB03KT P6SM BCFG SCT070 OVC130 FM111700
                       VRB03KT P6SM SCT050 OVC100
                      TEMPO 1117/1119 -RA FM111900 14007KT P6SM
                       -RA SCT025 OVC050 FM112000 17013KT 5SM -RA
                       BR OVC025 FM120300 20013G20KT P6SM -SHRA
                       BKN025 OVC040=
201703111429 KSEA 111429Z 1114/1218 VRB04KT P6SM SCT030 OVC150 FM111800 14006KT
                       P6SM -RA SCT025 OVC050 FM112000 17013KT
                       5SM -RA BR OVC025 FM120300 20013G20KT P6SM
                       -SHRA BKN025 OVC040=
201703111127 TAF KSEA 111127Z 1112/1218 VRB04KT P6SM SCT030 OVC120 FM111800
                       14006KT P6SM -RA SCT025 OVC050 FM112000
                       17013KT 5SM -RA BR OVC025 FM120300 20013G20KT
                       P6SM -SHRA BKN025 OVC040=
201703110907 KSEA 110907Z 1109/1212 VRB04KT P6SM SCT030 OVC120 FM111800 14006KT
                       P6SM -RA SCT025 OVC050 FM112000 17013KT
                       5SM -RA BR OVC025 FM120300 20013G20KT P6SM
                       -SHRA BKN025 OVC040=
201703110520 TAF KSEA 110520Z 1106/1212 VRB03KT P6SM SCT030 BKN200
                      TEMPO 1106/1110 BKN025 OVC200 FM111200 09005KT
                       P6SM SCT050 OVC100 FM111800 14006KT P6SM
                       -RA SCT025 OVC050 FM112000 17013KT 5SM -RA
                       BR OVC025 FM120300 20013G20KT P6SM -SHRA
                       BKN025 OVC040=
201703110301 KSEA 110301Z 1103/1206 18005KT P6SM SCT035 SCT200 FM110600 VRB03KT
                       P6SM SCT035 BKN200 FM111200 09005KT P6SM
                       SCT050 OVC100 FM111800 14006KT P6SM -RA
                       SCT025 OVC050 FM112000 17013KT 5SM -RA BR
                       OVC025 FM120300 20013G20KT P6SM -SHRA BKN025
                       OVC040=
201703102342 TAF KSEA 102342Z 1100/1206 23009KT P6SM SCT030 OVC200 FM110600
                       09005KT P6SM SCT100 OVC200 FM111200 09005KT
                       P6SM SCT050 OVC100
                      PROB30 1115/1118 -RA OVC050 FM111800 14006KT
                       P6SM -RA SCT025 OVC050 FM112000 17013KT
                       5SM -RA BR OVC025 FM120300 20013G20KT P6SM
                       -SHRA BKN025 OVC040=
201703102255 KSEA 102255Z 1023/1124 23012KT P6SM FEW018 SCT028 SCT080
                      TEMPO 1023/1101 FEW018 BKN028 BKN080 FM110100
                       19007KT P6SM SCT035 BKN080 OVC200 FM110600
                       10005KT P6SM SCT080 BKN200 FM111800 14006KT
                       P6SM -RA SCT022 SCT040 OVC080 FM112000 17012G20KT
                       5SM -RA BR BKN022 OVC040=
201703102254 KSEA 102254Z 1023/1124 21012KT P6SM FEW018 SCT028 SCT080
                      TEMPO 1023/1101 FEW018 BKN028 BKN080 FM110100
                       19007KT P6SM SCT035 BKN080 OVC200 FM110600
                       10005KT P6SM SCT080 BKN200 FM111800 14006KT
                       P6SM -RA SCT022 SCT040 OVC080 FM112000 17012G20KT
                       5SM -RA BR BKN022 OVC040=
201703102119 KSEA 102119Z 1021/1124 21013KT P6SM FEW018 SCT035 BKN080
                      TEMPO 1021/1024 21013G22KT FEW018 BKN035
                       BKN080 FM110000 19007KT P6SM SCT035 BKN080
                       OVC200 FM110600 10005KT P6SM SCT080 BKN200
                       FM111800 14006KT P6SM -RA SCT022 SCT040
                       OVC080 FM112000 17012G20KT 5SM -RA BR BKN022
                       OVC040=
201703102004 KSEA 102004Z 1020/1124 21013G22KT P6SM SCT020 BKN035 OVC050
                      TEMPO 1020/1022 BKN020 OVC035 FM102200 21013KT
                       P6SM SCT030 BKN050 OVC200 FM110000 19007KT
                       P6SM SCT035 BKN080 OVC200 FM110600 10005KT
                       P6SM SCT080 BKN200 FM111800 14006KT P6SM
                       -RA SCT022 SCT040 OVC080 FM112000 17012G20KT
                       5SM -RA BR BKN022 OVC040=
201703101816 KSEA 101816Z 1018/1124 21013KT P6SM SCT018 BKN035 OVC050
                      TEMPO 1018/1020 21013G23KT -SHRA BKN018 OVC030
                       FM102100 21013KT P6SM SCT030 BKN050 OVC200
                       FM110000 19007KT P6SM SCT035 BKN080 OVC200
                       FM110600 10005KT P6SM SCT080 BKN200 FM111800
                       14006KT P6SM -RA SCT022 SCT040 OVC080 FM112000
                       17012G20KT 5SM -RA BR BKN022 OVC040=
201703101740 TAF KSEA 101740Z 1018/1124 21013KT P6SM SCT018 BKN028 OVC050
                      TEMPO 1018/1020 21013G23KT -SHRA BKN018 OVC030
                       FM102100 21013KT P6SM SCT030 BKN050 OVC200
                       FM110000 19007KT P6SM SCT035 BKN080 OVC200
                       FM110600 10005KT P6SM SCT080 BKN200 FM111800
                       14006KT P6SM -RA SCT022 SCT040 OVC080 FM112000
                       17012G20KT 5SM -RA BR BKN022 OVC040=
201703101724 KSEA 101724Z 1017/1118 21013KT P6SM SCT018 OVC030
                      TEMPO 1017/1019 21015G25KT -SHRA BKN018 OVC030
                       FM102200 21012KT P6SM BKN035 OVC060 FM110000
                       22010KT P6SM SCT025 OVC045 FM110600 10005KT
                       P6SM SCT045 BKN100=
201703101529 KSEA 101529Z 1015/1118 21013KT P6SM SCT020 OVC030
                      TEMPO 1015/1018 21015G25KT BKN020 OVC030
                       FM102200 21012KT P6SM BKN035 OVC060 FM110000
                       22010KT P6SM SCT025 OVC045 FM110600 10005KT
                       P6SM SCT045 BKN100=
201703101402 KSEA 101402Z 1014/1118 21012G20KT P6SM SCT015 BKN030 OVC050 FM102200
                       21012KT P6SM BKN025 OVC040 FM110000 22010KT
                       P6SM SCT025 OVC045 FM110600 10005KT P6SM
                       SCT045 BKN100=
201703101141 TAF KSEA 101141Z 1012/1118 21020G32KT P6SM SCT015 BKN030 OVC050
                       TEMPO 1012/1016 5SM -RA BR BKN015 OVC030
                       FM101600 21016G26KT P6SM SCT015 BKN025 OVC040
                       FM102200 21012KT P6SM BKN025 OVC040 FM110000
                       22010KT P6SM SCT025 OVC045 FM110600 10005KT
                       P6SM SCT045 BKN100=
201703101045 KSEA 101045Z 1011/1112 21020G32KT P6SM SCT015 BKN035 OVC050
                      TEMPO 1011/1015 5SM -RA BR BKN015 OVC035
                       FM101600 21017G26KT P6SM SCT015 BKN025 OVC040
                       FM102200 21012KT P6SM BKN030 OVC050 FM110000
                       22010KT P6SM SCT030 OVC050=
201703100903 KSEA 100903Z 1009/1112 19016G28KT P6SM BKN050 FM101600 21012G22KT
                       P6SM SCT020 BKN045 FM102200 21010KT P6SM
                       SCT030 BKN050=
201703100736 KSEA 100736Z 1008/1112 20010KT P6SM BKN045 FM101000 19016G28KT
                       P6SM BKN045 FM101600 21012G22KT P6SM SCT020
                       BKN045 FM102200 21010KT P6SM SCT030 BKN050=
201703100547 TAF KSEA 100547Z 1006/1112 18010KT 4SM BR BKN003 OVC010 FM100900
                       19018G28KT P6SM BKN006 OVC012 FM101500 20015G25KT
                       P6SM BKN009 OVC015 FM101800 21012G22KT P6SM
                       BKN015 OVC025 FM102200 21014KT P6SM OVC025=
201703100311 KSEA 100311Z 1003/1106 16006KT 5SM -RA BR BKN012 OVC025
                      TEMPO 1003/1005 2SM -RA BR BKN006 OVC012
                       FM100500 19010KT 6SM -RA BR BKN015 OVC025
                       FM100900 19015G25KT P6SM -RA BKN012 OVC020
                       FM101200 19018G28KT P6SM VCSH BKN012 OVC020
                       FM101800 19014G22KT P6SM OVC020 FM102100
                       21014KT P6SM OVC025 FM110300 23005KT P6SM
                       OVC050=
201703092332 TAF KSEA 092332Z 1000/1106 01005KT 2SM -RA BR BKN002 BKN028 OVC040
                       FM100300 16006KT 2SM -RA BR OVC004 FM100900
                       19017KT P6SM -RA OVC004 FM101200 19020G28KT
                       P6SM VCSH OVC007 FM101800 19014G22KT P6SM
                       OVC007 FM102100 21014KT P6SM OVC015 FM110300
                       23005KT P6SM OVC050=
201703092107 KSEA 092107Z 0921/1024 03005KT 2SM -RA BR BKN003 OVC045 FM100300
                       18010KT 3SM -RA BR BKN008 OVC014 FM100900
                       19015G26KT 5SM BR VCSH BKN008 OVC014 FM101300
                       19021G28KT 5SM BR VCSH OVC014 FM101800 20015G22KT
                       5SM BR OVC022=
201703091733 TAF KSEA 091733Z 0918/1024 01004KT 1/2SM FG VV001 FM091900 03005KT
                       3/4SM -RA OVC004 FM092100 09006KT 2SM -RA
                       BR OVC012 FM100600 18010KT 2SM -RA BR BKN008
                       OVC014 FM100900 19015G26KT 5SM BR VCSH BKN008
                       OVC014 FM101300 19021G28KT 5SM BR VCSH OVC014
                       FM101800 20015G22KT 5SM BR OVC022=
201703091405 KSEA 091405Z 0914/1018 VRB04KT 1SM BR BKN002 OVC006
                      TEMPO 0916/0917 4SM BR SCT002 OVC006 FM091700
                       VRB04KT 5SM BR BKN008 OVC015 FM091900 VRB04KT
                       P6SM -RA SCT008 BKN014 OVC025 FM092100 12006KT
                       5SM -RA BR BKN008 OVC014=
201703091214 KSEA 091214Z 0912/1018 10006KT 4SM -RA BR BKN006 OVC010
                      TEMPO 0912/0916 3/4SM -RA BR BKN002 OVC008
                       FM091600 10005KT P6SM BKN008 OVC015 FM091900
                       07006KT P6SM -RA SCT008 BKN014 OVC025 FM092100
                       08007KT 5SM -RA BR BKN008 OVC014=
201703091132 TAF KSEA 091132Z 0912/1018 10006KT 4SM -RA BR BKN006 OVC010
                      TEMPO 0912/0915 1SM -RA BR BKN003 OVC008
                       FM091500 10005KT P6SM BKN008 OVC015 FM091900
                       07006KT P6SM -RA SCT008 BKN014 OVC025 FM092100
                       08007KT 5SM -RA BR BKN008 OVC014=
201703090902 KSEA 090902Z 0909/1012 13007KT P6SM VCSH BKN020 OVC030 FM091200
                       10006KT P6SM BKN015 OVC030 FM091700 07006KT
                       P6SM SCT020 OVC080 FM091900 07006KT P6SM
                       -RA SCT020 OVC040 FM092100 08007KT 5SM -RA
                       BR BKN020 OVC040=
201703090544 TAF KSEA 090544Z 0906/1012 16006KT P6SM VCSH BKN015 OVC035
                      TEMPO 0906/0909 SCT015 OVC035 FM091200 08005KT
                       P6SM BKN015 OVC030 FM091700 07006KT P6SM
                       SCT020 OVC080 FM091900 07006KT P6SM -RA
                       SCT020 OVC040 FM092100 08007KT 5SM -RA BR
                       BKN020 OVC040=
201703090305 TAF AMD KSEA 090305Z 0903/1006 14007KT P6SM -RA SCT015 OVC030
                      TEMPO 0903/0906 BKN015 OVC030 FM090600 15006KT
                       P6SM VCSH BKN015 OVC030 FM092100 08005KT
                       5SM -RA BKN025 OVC045=
201703082331 TAF KSEA 082331Z 0900/1006 14007KT P6SM -RA OVC013 FM090600 15006KT
                       P6SM VCSH BKN015 OVC030 FM092100 08005KT
                       5SM -RA BKN025 OVC045=
201703082101 KSEA 082101Z 0821/0924 22008KT P6SM -RA FEW012 SCT026 OVC035 FM090000
                       18006KT 6SM -RA BR BKN020 OVC040 FM090600
                       15006KT 6SM -RA BR BKN015 OVC030=
201703081724 TAF KSEA 081724Z 0818/0924 19010KT P6SM FEW012 BKN050 BKN080 FM082100
                       20007KT P6SM -RA SCT025 OVC040 FM090000
                       18006KT 6SM -RA BR BKN020 OVC040 FM090600
                       15006KT 6SM -RA BR BKN015 OVC030=
201703081129 TAF KSEA 081129Z 0812/0918 20012G20KT P6SM SCT030 SCT050 FM081400
                       20010KT P6SM SCT030 BKN050 FM082000 20007KT
                       P6SM -RA SCT025 OVC040 FM090000 18006KT
                       6SM -RA BR BKN020 OVC040 FM090600 15006KT
                       6SM -RA BR BKN015 OVC030=
201703080902 KSEA 080902Z 0809/0912 20012G20KT P6SM VCSH SCT020 BKN050 FM081400
                       20009KT P6SM SCT020 BKN050 FM082000 20007KT
                       P6SM -RA BKN020 OVC030 FM082300 17006KT
                       6SM -RA BR BKN012 OVC020=
201703080742 KSEA 080742Z 0808/0912 20012G20KT P6SM VCSH SCT020 BKN050 FM081400
                       20009KT P6SM SCT020 BKN050 FM082100 20007KT
                       P6SM -RA BKN020 OVC030 FM082300 17006KT
                       6SM -RA BR BKN012 OVC020=
201703080540 TAF KSEA 080540Z 0806/0912 20012G20KT P6SM VCSH BKN020 OVC040
                      TEMPO 0806/0810 BKN012 OVC020 FM081100 20010KT
                       P6SM VCSH BKN015 OVC040 FM082100 20007KT
                       P6SM -RA BKN020 OVC030 FM082300 17006KT
                       6SM -RA BR BKN012 OVC020=
201703080306 KSEA 080306Z 0803/0906 16010KT P6SM SCT003 BKN014 OVC025
                      TEMPO 0803/0806 3SM -RA BR BKN003 OVC014
                       FM080600 19012KT P6SM VCSH SCT007 OVC015
                       FM081200 20008KT P6SM OVC045 FM090000 16006KT
                       P6SM -RA OVC045=
201703072329 TAF KSEA 072329Z 0800/0906 08005KT 4SM -RA BR FEW006 BKN015 OVC023
                       FM080400 21014G22KT P6SM VCSH OVC025 FM080900
                       21014KT P6SM VCSH OVC045 FM081200 20008KT
                       P6SM OVC045 FM090000 16006KT P6SM -RA OVC045=
201703072102 KSEA 072102Z 0721/0824 15007KT 5SM -RA BR SCT007 BKN012 OVC018
                       FM080400 21014G22KT P6SM VCSH OVC025 FM080900
                       21014KT P6SM VCSH OVC045 FM081200 20008KT
                       P6SM OVC045=
201703071731 TAF KSEA 071731Z 0718/0824 13007KT 5SM -RASN BR FEW006 OVC017 FM072100
                       13007KT 4SM -RA BR OVC018 FM080400 21014G22KT
                       P6SM VCSH OVC025 FM080900 21014KT P6SM VCSH
                       OVC045 FM081200 20008KT P6SM OVC045=
201703071139 TAF KSEA 071139Z 0712/0818 16008KT P6SM -RASN BKN014 OVC025
                      TEMPO 0712/0715 5SM -RASN BR BKN007 OVC012
                       FM071500 16009KT 4SM -RA BR SCT007 OVC012
                       FM080400 21010KT P6SM -SHRA BKN020 OVC040=
201703071001 KSEA 071001Z 0710/0812 18009KT P6SM VCSH SCT012 OVC045
                      TEMPO 0710/0713 -SHRASN BKN012 OVC045 FM071300
                       17008KT P6SM -RA OVC025
                      TEMPO 0713/0716 6SM -RASN BKN010 OVC020 FM071800
                       13010KT 4SM -RA BR OVC015 FM080400 21010KT
                       P6SM -SHRA BKN020 OVC040=
201703070544 TAF KSEA 070544Z 0706/0812 18011KT P6SM VCSH SCT020 BKN090 FM070900
                       18009KT P6SM VCSH BKN050 OVC090 FM071300
                       17008KT P6SM -RA OVC025 FM071800 13010KT
                       4SM -RA BR OVC015 FM080400 21010KT P6SM
                       -SHRA BKN020 OVC040=
201703070520 TAF KSEA 070520Z 0706/0812 18011KT P6SM VCSH SCT020 BKN090 FM070900
                       18007KT P6SM VCSH OVC045 FM071200 17006KT
                       P6SM -RA OVC025 FM071800 12007KT 4SM -RA
                       BR OVC015 FM080300 19006KT P6SM -SHRA OVC015=
201703062332 TAF KSEA 062332Z 0700/0806 20013G20KT P6SM VCSH FEW021 SCT040 BKN110
                       FM070900 18007KT P6SM VCSH OVC045 FM071200
                       17006KT P6SM -RA OVC025 FM071800 12007KT
                       4SM -RA BR OVC015 FM080300 19006KT P6SM
                       -SHRA OVC015=
201703062107 KSEA 062107Z 0621/0724 22011G22KT P6SM SCT024 BKN030 BKN120 FM070000
                       21009KT P6SM SCT030 BKN045 FM071000 17007KT
                       P6SM -RA BKN012 BKN020 OVC030=
201703061726 TAF KSEA 061726Z 0618/0724 20012KT P6SM BKN010 BKN014 OVC024 FM062000
                       21012KT P6SM OVC019 FM070000 21009KT P6SM
                       SCT030 BKN045 FM071000 17007KT P6SM -RA
                       BKN012 BKN020 OVC030=
201703061424 KSEA 061424Z 0614/0718 18012KT P6SM VCSH SCT008 SCT012 OVC022
                      TEMPO 0614/0617 5SM -SHRASN BKN008 OVC020
                       FM061700 18010KT P6SM SCT014 BKN025 OVC040
                       FM062000 18010KT P6SM SCT030 BKN045 FM070400
                       14006KT P6SM SCT030 BKN045 FM071000 14006KT
                       P6SM -SHRA SCT012 BKN020 OVC030=
201703061414 KSEA 061414Z 0614/0718 18012KT P6SM VCSH SCT007 BKN011 OVC020
                      TEMPO 0614/0617 5SM -SHRASN SCT007 OVC011
                       FM061700 18010KT P6SM SCT014 BKN025 OVC040
                       FM062000 18010KT P6SM SCT030 BKN045 FM070400
                       14006KT P6SM SCT030 BKN045 FM071000 14006KT
                       P6SM -SHRA SCT012 BKN020 OVC030=
201703061139 TAF KSEA 061139Z 0612/0718 18014KT P6SM BKN008 OVC014 FM061400
                       18014KT P6SM -SHRA SCT008 BKN014 OVC020
                       FM061700 18010KT P6SM SCT014 BKN025 OVC040
                       FM062000 18010KT P6SM SCT030 BKN045 FM070400
                       14006KT P6SM SCT030 BKN045 FM071000 14006KT
                       P6SM -SHRA SCT012 BKN020 OVC030=
201703060901 KSEA 060901Z 0609/0712 18014G22KT P6SM SCT012 BKN020 OVC030
                      TEMPO 0611/0615 -SHRA FM061900 20012KT P6SM
                       VCSH SCT030 BKN045 FM070400 14006KT P6SM
                       SCT030 BKN045 FM071000 14006KT P6SM -SHRA
                       SCT012 BKN020 OVC030=
201703060544 TAF KSEA 060544Z 0606/0712 18012G20KT P6SM BKN025 OVC060
                      TEMPO 0606/0610 SCT025 BKN060 FM061200 18012KT
                       P6SM SCT012 BKN020 OVC030
                      TEMPO 0612/0616 3SM -SHSN SCT008 OVC012 FM061800
                       21009KT P6SM VCSH SCT020 BKN035 FM062200
                       21009KT P6SM VCSH SCT030 BKN045 FM070400
                       14006KT P6SM SCT030 BKN045 FM071000 14006KT
                       P6SM -SHRA BKN025 OVC045=
201703060309 KSEA 060309Z 0603/0706 18012G20KT P6SM SCT025 BKN100 FM060800 20011KT
                       P6SM VCSH SCT012 BKN020 OVC030
                      TEMPO 0611/0615 2SM -SHSN SCT008 OVC012 FM061800
                       21009KT P6SM VCSH SCT020 BKN035 FM062200
                       21009KT P6SM VCSH SCT030 BKN045=
201703052340 TAF KSEA 052340Z 0600/0706 18012G20KT P6SM -SHRA SCT015 BKN030
                       OVC045
                      TEMPO 0601/0602 3SM -SHRASN BR SCT010 OVC015
                       FM060300 20009KT P6SM VCSH SCT030 BKN045
                       FM060800 20011KT P6SM VCSH SCT012 BKN020
                       OVC030
                      TEMPO 0611/0615 2SM -SHSN SCT008 OVC012 FM061800
                       21009KT P6SM VCSH SCT020 BKN035 FM062200
                       21009KT P6SM VCSH SCT030 BKN045=
201703052107 KSEA 052107Z 0521/0624 19012KT P6SM VCSH SCT025 BKN040 OVC060 FM060000
                       20012KT 6SM -SHRASN BR SCT015 BKN030 OVC045
                       TEMPO 0600/0602 2SM -SHSN BR SCT008 OVC015
                       FM060300 18009KT P6SM VCSH SCT030 BKN045
                       FM060800 20011KT P6SM VCSH SCT012 BKN020
                       OVC030
                      PROB30 0610/0614 2SM -SHSN SCT008 OVC012
                       FM061800 21009KT P6SM VCSH SCT020 BKN035=
201703051737 TAF KSEA 051737Z 0518/0624 15007KT P6SM VCSH SCT020 BKN045 FM052100
                       18011KT 6SM -SHRASN BR SCT020 BKN030 OVC045
                       FM060200 18009KT P6SM VCSH SCT030 BKN045
                       FM060800 20011KT P6SM VCSH SCT012 BKN020
                       OVC030
                      PROB30 0610/0614 2SM -SHSN SCT008 OVC012
                       FM061800 21009KT P6SM VCSH SCT020 BKN035=
201703051544 KSEA 051544Z 0516/0618 15007KT P6SM VCSH SCT018 BKN045 FM052000
                       19009KT P6SM SCT030 BKN045
                      TEMPO 0520/0524 6SM -SHRA BR SCT020 BKN030
                       OVC045 FM060900 19012KT P6SM SCT012 BKN020
                       OVC030=
201703051500 KSEA 051500Z 0515/0618 16008KT P6SM VCSH SCT012 OVC050 FM060900
                       19012KT P6SM SCT012 BKN020 OVC030=
201703051325 KSEA 051325Z 0513/0618 19012KT P6SM VCSH SCT012 SCT035 BKN050 FM051400
                       19012KT P6SM -SHRA SCT012 BKN030 OVC045
                       FM060900 19012KT P6SM SCT012 BKN020 OVC030=
201703051139 TAF KSEA 051139Z 0512/0618 19008KT P6SM -SHRA SCT010 BKN020 OVC030
                       FM051400 19012KT P6SM SCT030 BKN045 FM052000
                       19012KT P6SM -SHRA SCT020 BKN035 OVC050
                       FM060900 19012KT P6SM SCT012 BKN020 OVC030=
201703050917 KSEA 050917Z 0509/0612 17008KT P6SM -SHRA SCT010 BKN020 OVC030
                       FM052000 19012KT P6SM -SHRA SCT020 BKN035
                       OVC050 FM060600 19012KT P6SM SCT012 BKN020
                       OVC030=
201703050542 TAF KSEA 050542Z 0506/0612 10006KT P6SM -SHRA SCT010 BKN020 OVC030
                       TEMPO 0509/0511 3SM -SHRASN BKN010 OVC020
                       FM051100 17008KT P6SM SCT010 OVC020 FM052000
                       19012KT P6SM -SHRA SCT020 BKN035 OVC050
                       FM060600 19012KT P6SM SCT012 BKN020 OVC030=
201703050332 KSEA 050332Z 0504/0606 05006KT P6SM -SHRA SCT020 OVC035 FM050700
                       08006KT P6SM -SHRASN SCT010 BKN020 OVC030
                       FM050900 17011KT 2SM -SHSN OVC010
                      TEMPO 0509/0511 3/4SM -SHSN OVC004 FM051200
                       17008KT P6SM SCT010 OVC020 FM051800 19013KT
                       P6SM -SHRA BKN030 OVC050=
201703050105 KSEA 050105Z 0501/0606 11008KT P6SM VCSH FEW010 BKN035 OVC050 FM050600
                       07009KT 5SM SHRASN SCT010 OVC030
                      TEMPO 0507/0509 2SM -SHSN OVC010 FM050900
                       17011KT 2SM -SHSN OVC010
                      TEMPO 0509/0511 3/4SM -SHSN OVC004 FM051200
                       17008KT P6SM SCT010 OVC020 FM051800 19013KT
                       P6SM -SHRA BKN030 OVC050=
201703042344 TAF KSEA 042344Z 0500/0606 05006KT P6SM VCSH FEW010 SCT035 OVC050
                       FM050600 07009KT 5SM SHRASN SCT010 OVC030
                       TEMPO 0507/0509 2SM -SHSN OVC010 FM050900
                       17011KT 2SM -SHSN OVC010
                      TEMPO 0509/0511 3/4SM -SHSN OVC004 FM051200
                       17008KT P6SM SCT010 OVC020 FM051800 19013KT
                       P6SM -SHRA BKN030 OVC050=
201703042114 KSEA 042114Z 0421/0524 12005KT P6SM VCSH BKN050 OVC070 FM050000
                       09006KT P6SM VCSH SCT030 OVC050 FM050600
                       07009KT 5SM SHRASN SCT012 OVC030
                      PROB30 0506/0509 3/4SM -SHSN OVC006 FM050900
                       17012KT P6SM -SHRASN SCT012 BKN030 OVC050
                       FM051200 19009KT P6SM SCT030 BKN050 BKN100
                       FM051800 19013KT P6SM -SHRA BKN030 OVC050=
201703041748 TAF KSEA 041748Z 0418/0524 17006KT P6SM SCT030 SCT050 FM042000
                       14006KT P6SM VCSH SCT030 BKN050 FM050000
                       09006KT P6SM VCSH SCT030 OVC050 FM050600
                       07009KT 5SM SHRASN SCT012 OVC030
                      PROB30 0506/0509 3/4SM -SHSN OVC006 FM050900
                       17012KT P6SM -SHRASN SCT012 BKN030 OVC050
                       FM051200 19009KT P6SM SCT030 BKN050 BKN100
                       FM051800 19013KT P6SM -SHRA BKN030 OVC050=
201703041529 KSEA 041529Z 0415/0518 17007KT P6SM SCT030 SCT120
                      TEMPO 0415/0419 BKN030 BKN120 FM041900 18007KT
                       P6SM SCT030 SCT070 SCT120 FM050100 11005KT
                       P6SM SCT035 BKN060 OVC120 FM050400 09005KT
                       P6SM -SHRASN SCT020 BKN035 OVC050 FM051000
                       17008KT P6SM -SHRA SCT020 BKN035 OVC050=
201703041407 KSEA 041407Z 0414/0518 17008KT P6SM FEW015 SCT030 BKN070 FM041900
                       18007KT P6SM SCT030 SCT070 SCT120 FM050100
                       11005KT P6SM SCT035 BKN060 OVC120 FM050400
                       09005KT P6SM -SHRASN SCT020 BKN035 OVC050
                       FM051000 17008KT P6SM -SHRA SCT020 BKN035
                       OVC050=
201703041141 TAF KSEA 041141Z 0412/0518 19010KT P6SM SCT022 SCT060
                      TEMPO 0414/0418 BKN022 BKN060 FM041800 16006KT
                       P6SM SCT025 BKN040 FM042300 11005KT P6SM
                       SCT035 BKN060 OVC200 FM050400 11005KT P6SM
                       -SHRASN SCT020 BKN035 OVC050 FM051100 17008KT
                       P6SM -SHRA SCT020 BKN035 OVC050=
201703040800 KSEA 040800Z 0408/0512 21014KT P6SM BKN012 OVC020 FM041000 19008KT
                       P6SM SCT025 BKN035 OVC060 FM041700 16006KT
                       P6SM SCT035 BKN060 BKN200 FM050000 11005KT
                       P6SM SCT035 BKN060 OVC200 FM050800 11005KT
                       P6SM -SHRASN SCT020 BKN035 OVC050=
201703040758 KSEA 040758Z 0408/0512 21014KT P6SM BKN012 OVC020 FM041000 19008KT
                       P6SM SCT025 BKN035 OVC060 FM041100 19008KT
                       P6SM VCSH SCT035 BKN060 BKN200 FM041800
                       16006KT P6SM SCT035 BKN060 BKN200 FM050000
                       11005KT P6SM SCT035 BKN060 OVC200 FM050800
                       11005KT P6SM -SHRASN SCT020 BKN035 OVC050=
201703040542 TAF KSEA 040542Z 0406/0512 21014KT P6SM -SHRA SCT025 BKN035 OVC060
                       FM041100 19008KT P6SM VCSH SCT035 BKN060
                       BKN200 FM041800 16006KT P6SM SCT035 BKN060
                       BKN200 FM050000 11005KT P6SM SCT035 BKN060
                       OVC200 FM050800 11005KT P6SM -SHRASN SCT020
                       BKN035 OVC050=
201703040329 KSEA 040329Z 0403/0506 19013KT P6SM -SHRA SCT025 BKN035 OVC050
                       FM040900 19008KT P6SM VCSH SCT035 BKN060
                       BKN200 FM041500 17005KT P6SM SCT035 BKN060
                       BKN200
                      PROB30 0420/0424 -SHRA OVC035 FM050000 11005KT
                       P6SM SCT035 BKN060 OVC200
                      PROB30 0500/0506 -SHRA OVC035=
201703032340 TAF KSEA 032340Z 0400/0506 22013KT P6SM -SHRA SCT025 OVC040
                      TEMPO 0400/0403 22013G22KT 3SM SHRA BKN015
                       OVC025 FM040600 20011KT P6SM VCSH SCT035
                       BKN060 BKN200 FM041500 17005KT P6SM SCT035
                       BKN060 BKN200
                      PROB30 0420/0424 -SHRA OVC035 FM050000 11005KT
                       P6SM SCT035 BKN060 OVC200
                      PROB30 0500/0506 -SHRA OVC035=
201703032307 KSEA 032307Z 0323/0424 21013G23KT P6SM -RA BKN028 OVC040
                      TEMPO 0323/0401 4SM RA BR BKN015 OVC030 FM040300
                       21012KT P6SM VCSH SCT015 BKN035 OVC060 FM040600
                       19008KT P6SM SCT035 BKN060 BKN200 FM041800
                       17005KT P6SM SCT035 BKN060 BKN200
                      PROB30 0420/0424 -SHRA OVC035=
201703032119 KSEA 032119Z 0321/0424 21013KT P6SM -RA SCT015 OVC030
                      TEMPO 0321/0324 28009KT 4SM -RA BR BKN015
                       OVC030 FM040300 21012KT P6SM VCSH SCT015
                       BKN035 OVC060 FM040600 19008KT P6SM SCT035
                       BKN060 BKN200 FM041800 17005KT P6SM SCT035
                       BKN060 BKN200
                      PROB30 0420/0424 -SHRA OVC035=
201703031850 KSEA 031850Z 0319/0424 19010KT P6SM VCSH FEW015 OVC030 FM032000
                       19014G22KT P6SM -RA SCT015 OVC030
                      TEMPO 0320/0322 5SM -RA BR BKN015 OVC030
                       FM032200 19014G22KT 4SM -RA BR SCT008 BKN015
                       OVC030 FM040300 21012KT P6SM VCSH SCT015
                       BKN035 OVC060 FM040600 19008KT P6SM SCT035
                       BKN060 BKN200 FM041800 17005KT P6SM SCT035
                       BKN060 BKN200
                      PROB30 0420/0424 -SHRA OVC035=
201703031747 TAF KSEA 031747Z 0318/0424 19010KT P6SM VCSH FEW015 SCT030 OVC100
                       TEMPO 0318/0320 19010G20KT -RA FEW015 BKN030
                       OVC100 FM032000 19014G22KT P6SM -RA SCT015
                       OVC030
                      TEMPO 0320/0322 5SM -RA BR BKN015 OVC030
                       FM032200 19014G22KT 4SM -RA BR SCT008 BKN015
                       OVC030 FM040300 21012KT P6SM VCSH SCT015
                       BKN035 OVC060 FM040600 19008KT P6SM SCT035
                       BKN060 BKN200 FM041800 17005KT P6SM SCT035
                       BKN060 BKN200
                      PROB30 0420/0424 -SHRA OVC035=
201703031626 KSEA 031626Z 0316/0418 19012KT P6SM VCSH FEW015 OVC040
                      TEMPO 0316/0318 -RA FM031800 19014KT P6SM
                       -RA SCT015 OVC040
                      TEMPO 0318/0320 BKN015 OVC040 FM032000 19014G22KT
                       5SM -RA SCT008 BKN015 OVC025 FM040300 22012KT
                       P6SM SCT015 BKN025 BKN040 FM040500 22012KT
                       P6SM SCT030 BKN050 FM041000 18006KT P6SM
                       BKN050=
201703031410 KSEA 031410Z 0314/0418 19014G23KT P6SM VCSH FEW015 OVC040
                      TEMPO 0314/0317 -RA SCT010 OVC035 FM031700
                       19014KT P6SM -RA SCT012 BKN022 OVC035 FM032200
                       19014G22KT 5SM -RA SCT008 BKN015 OVC025
                       FM040300 22012KT P6SM SCT015 BKN025 BKN040
                       FM040500 22012KT P6SM SCT030 BKN050 FM041000
                       18006KT P6SM BKN050=
201703031136 TAF KSEA 031136Z 0312/0418 19014KT P6SM -RA OVC035 FM031700 19014KT
                       P6SM -RA SCT012 BKN022 OVC035 FM032200 19014G22KT
                       5SM -RA SCT008 BKN015 OVC025 FM040300 22012KT
                       P6SM SCT015 BKN025 BKN040 FM040500 22012KT
                       P6SM SCT030 BKN050 FM041000 16006KT P6SM
                       BKN050=
201703030917 KSEA 030917Z 0309/0412 19010KT P6SM -RA SCT012 BKN022 OVC035 FM032200
                       19014G22KT 5SM -RA SCT008 BKN015 OVC025
                       FM040300 22012KT P6SM SCT015 BKN025 BKN040
                       FM040500 22012KT P6SM SCT030 BKN050=
201703030538 TAF KSEA 030538Z 0306/0412 19014KT P6SM -RA SCT012 BKN022 OVC035
                       FM032200 19014G22KT 5SM -RA SCT008 BKN015
                       OVC025 FM040300 22012KT P6SM SCT015 BKN025
                       BKN040 FM040500 22012KT P6SM SCT030 BKN050=
201703030326 KSEA 030326Z 0303/0406 19014KT P6SM -RA BKN020 OVC030 FM032000
                       19013G22KT 6SM -RA BR SCT020 OVC030 FM040000
                       21013KT 4SM -RA BR FEW009 BKN015 OVC030=
201703022341 TAF KSEA 022341Z 0300/0406 19012KT P6SM VCSH OVC025
                      TEMPO 0300/0303 19012G20KT -RA FM030300 19013KT
                       P6SM SCT025 OVC050
                      TEMPO 0307/0311 19015G23KT BKN025 OVC050
                       FM031500 17013KT P6SM -RA SCT020 OVC035
                       FM032000 19013G22KT 6SM -RA BR SCT015 OVC030
                       FM040000 21013KT 4SM -RA BR FEW009 BKN015
                       OVC030=
201703022046 KSEA 022046Z 0221/0324 20013KT P6SM -RA SCT022 OVC040
                      TEMPO 0221/0224 BKN022 OVC040 FM030000 17013KT
                       P6SM VCSH SCT015 BKN035 OVC050
                      TEMPO 0300/0303 -RA FM030900 19013G20KT P6SM
                       -RA SCT015 OVC035 FM031800 20013G23KT P6SM
                       -RA SCT009 OVC025=
201703021959 KSEA 021959Z 0220/0324 20013G20KT P6SM VCSH SCT025 OVC040
                      TEMPO 0220/0221 -RA FM022100 20013G20KT P6SM
                       -RA SCT018 OVC035
                      TEMPO 0221/0224 SCT018 OVC025 FM030000 17013KT
                       P6SM VCSH SCT015 BKN035 OVC050
                      TEMPO 0300/0303 -RA FM030900 19013G20KT P6SM
                       -RA SCT015 OVC035 FM031800 20013G23KT P6SM
                       -RA SCT009 OVC025=
201703021925 KSEA 021925Z 0219/0324 19013G20KT P6SM VCSH SCT025 OVC045
                      TEMPO 0219/0221 -RA FM022100 19013G20KT P6SM
                       -RA SCT018 OVC035
                      TEMPO 0221/0224 SCT018 OVC025 FM030000 17013KT
                       P6SM VCSH SCT015 BKN035 OVC050
                      TEMPO 0300/0303 -RA FM030900 19013G20KT P6SM
                       -RA SCT015 OVC035 FM031800 20013G23KT P6SM
                       -RA SCT009 OVC025=
201703021741 TAF KSEA 021741Z 0218/0324 17008KT P6SM FEW012 BKN035 OVC050 FM022000
                       19012KT P6SM VCSH SCT012 OVC035
                      TEMPO 0220/0224 -RA SCT012 OVC025 FM030000
                       17013KT P6SM VCSH SCT015 BKN035 OVC050
                      TEMPO 0300/0303 -RA FM030900 19013G20KT P6SM
                       -RA SCT015 OVC035 FM031800 20013G23KT P6SM
                       -RA SCT009 OVC025=
201703021520 KSEA 021520Z 0215/0318 15005KT P6SM FEW020 BKN035 OVC050 FM021900
                       15006KT P6SM -RA SCT020 OVC035 FM022200
                       18012KT P6SM -RA SCT010 OVC020 FM030700
                       19014G23KT P6SM -RA SCT010 OVC020=
201703021403 KSEA 021403Z 0214/0318 15006KT P6SM SCT022 BKN035 OVC050 FM021900
                       15006KT P6SM -RA SCT020 OVC035 FM022200
                       18012KT P6SM -RA SCT010 OVC020 FM030700
                       19014G23KT P6SM -RA SCT010 OVC020=
201703021140 TAF KSEA 021140Z 0212/0318 15006KT P6SM SCT022 BKN035 OVC050
                      TEMPO 0212/0215 BKN022 OVC035 FM021900 15006KT
                       P6SM -RA SCT020 OVC035 FM022200 18012KT
                       P6SM -RA SCT010 OVC020=
201703020907 KSEA 020907Z 0209/0312 15006KT P6SM SCT015 BKN030 OVC050 FM021300
                       15006KT P6SM SCT030 BKN045 OVC100 FM021900
                       15006KT P6SM -RA SCT020 OVC035 FM022200
                       15006KT P6SM -RA SCT010 OVC020 FM030600
                       18008KT P6SM -SHRA SCT015 BKN025 OVC040=
201703020553 TAF KSEA 020553Z 0206/0312 22010KT P6SM SCT020 SCT045 OVC150 FM021000
                       18006KT P6SM SCT015 BKN045 OVC120 FM021900
                       15006KT P6SM -RA SCT020 OVC035 FM022200
                       15006KT P6SM -RA SCT010 OVC020 FM030600
                       18008KT P6SM -SHRA SCT015 BKN025 OVC040=
201703020310 KSEA 020310Z 0203/0306 22010KT P6SM SCT025 BKN040 OVC150 FM021100
                       18005KT P6SM OVC015 FM021900 18008KT P6SM
                       -RA BKN020 OVC040=
201703012322 TAF KSEA 012322Z 0200/0306 22010KT P6SM SCT025 BKN035 OVC200
                      TEMPO 0200/0203 FEW025 SCT035 BKN200 FM020900
                       18005KT P6SM BKN025 OVC035 FM021100 18005KT
                       P6SM OVC015 FM021900 18008KT P6SM -RA BKN020
                       OVC040=
201703012101 KSEA 012101Z 0121/0224 22012KT P6SM BKN025 OVC070 FM020300 19008KT
                       P6SM BKN025 OVC070 FM020900 18005KT P6SM
                       OVC015 FM021900 18008KT P6SM -RA BKN020
                       OVC040=
201703011722 TAF KSEA 011722Z 0118/0224 19015G25KT P6SM BKN018 OVC070
                      TEMPO 0118/0122 SCT018 BKN070 FM012200 21012KT
                       P6SM BKN030 OVC070 FM020300 19008KT P6SM
                       BKN025 OVC070 FM020900 18005KT P6SM OVC015
                       FM021900 18008KT P6SM -RA BKN020 OVC040=
201703011402 KSEA 011402Z 0114/0218 20017G26KT P6SM VCSH SCT008 BKN012 OVC035
                       FM011600 20014KT P6SM VCSH BKN022 OVC035
                       FM012000 21010KT P6SM OVC035 FM020400 18006KT
                       P6SM OVC030=
201703011140 TAF KSEA 011140Z 0112/0218 20017G26KT P6SM -SHRA SCT008 BKN012
                       OVC035 FM011600 20014KT P6SM -SHRA BKN022
                       OVC035 FM012000 21010KT P6SM VCSH OVC035
                       FM020400 18006KT P6SM OVC030=
201703010903 KSEA 010903Z 0109/0212 20017G28KT 6SM -SHRA BR SCT012 BKN022 OVC060
                       FM011600 20013KT P6SM BKN025 BKN035 OVC060
                       FM011900 21010KT P6SM BKN035 OVC060 FM020400
                       18006KT P6SM OVC030=
201703010552 TAF KSEA 010552Z 0106/0212 19014G23KT P6SM VCSH SCT025 BKN035 OVC080
                       TEMPO 0106/0109 -SHRA OVC025 FM010900 20015G26KT
                       5SM -SHRA BR BKN025 OVC060 FM011600 20013KT
                       P6SM SCT025 BKN035 OVC060 FM011900 21010KT
                       P6SM BKN035 OVC060 FM020400 18006KT P6SM
                       OVC030=
201703010316 KSEA 010316Z 0103/0206 21012G20KT P6SM SCT040 BKN050 BKN080 FM010500
                       21015G24KT 6SM -SHRA BKN025 BKN100 FM010900
                       20016G25KT P6SM SCT025 OVC060 FM011500 20014KT
                       P6SM BKN025 FM012100 21010KT P6SM BKN025
                       FM020200 22008KT P6SM BKN025=