##########################################################
# Query made at 02/17/2025 20:01:41 UTC
# Time interval: from 02/01/2017 00:00  to 02/28/2017 23:59  UTC
##########################################################

##########################################################
# KSEA, Seattle, Seattle-Tacoma International Airport (United States)
# WMO index: 72793. WIGOS ID: 0-20000-0-72793
# Latitude 47-27-00N. Longitude 122-17-59W. Altitude 130 m.
##########################################################

###################################
#  METAR/SPECI from KSEA
###################################
201702282353 METAR KSEA 282353Z 22015KT 10SM BKN050 BKN120 08/M02 A3013 RMK AO2 SLP211 T00781022 10083 20033 51013=
201702282253 METAR KSEA 282253Z 23012G19KT 10SM SCT055 BKN150 08/M02 A3012 RMK AO2 SLP208 T00831022=
201702282153 METAR KSEA 282153Z 19008KT 10SM BKN055 07/M01 A3010 RMK AO2 SLP202 T00671006=
201702282053 METAR KSEA 282053Z 24006KT 10SM SCT020 SCT031 07/00 A3009 RMK AO2 SLP199 T00670000 51019=
201702281953 METAR KSEA 281953Z 17006KT 10SM FEW009 SCT019 06/01 A3008 RMK AO2 SLP195 T00610011=
201702281853 METAR KSEA 281853Z 23005KT 10SM FEW008 BKN016 BKN028 04/02 A3006 RMK AO2 SLP188 T00440022=
201702281840 SPECI KSEA 281840Z 25004KT 10SM FEW007 BKN016 BKN024 04/02 A3005 RMK AO2 T00390017=
201702281810 SPECI KSEA 281810Z 16003KT 10SM SCT006 BKN012 OVC020 03/02 A3004 RMK AO2 T00330022=
201702281753 METAR KSEA 281753Z 22004KT 10SM BKN006 OVC014 03/02 A3003 RMK AO2 SLP179 T00330017 10033 20006 52033=
201702281724 SPECI KSEA 281724Z 18004KT 7SM FEW003 BKN006 BKN019 03/02 A3002 RMK AO2 T00280022=
201702281710 SPECI KSEA 281710Z 17004KT 7SM SCT004 BKN010 BKN019 03/02 A3001 RMK AO2 T00280022=
201702281653 METAR KSEA 281653Z 15005KT 6SM BR SCT003 BKN015 BKN075 02/02 A3000 RMK AO2 SLP169 VIS NE-SE 2 T00220017=
201702281641 SPECI KSEA 281641Z 16004KT 6SM BR FEW002 BKN015 BKN075 02/02 A2999 RMK AO2 VIS NE-SE 1 T00220017=
201702281617 SPECI KSEA 281617Z 13004KT 4SM BR FEW005 BKN014 OVC075 02/01 A2998 RMK AO2 T00170011=
201702281553 METAR KSEA 281553Z 14005KT 3SM BR FEW001 SCT007 BKN070 BKN200 01/01 A2997 RMK AO2 SLP158 VIS NE-SE 1 T00110011=
201702281508 SPECI KSEA 281508Z 15006KT 1 1/4SM BR FEW001 SCT005 BKN075 01/01 A2994 RMK AO2 T00060006=
201702281453 METAR KSEA 281453Z 13007KT 1/4SM R16L/5500VP6000FT BR SCT001 BKN005 OVC075 01/01 A2994 RMK AO2 SFC VIS 3/4 SLP147 T00060006 51017=
201702281429 SPECI KSEA 281429Z 13008KT 1/2SM R16L/P6000FT FG BKN006 OVC038 01/00 A2992 RMK AO2 T00060000=
201702281412 SPECI KSEA 281412Z 12004KT 4SM BCFG SCT006 SCT027 BKN040 01/01 A2992 RMK AO2 T00110006=
201702281353 METAR KSEA 281353Z 00000KT 6SM BR FEW008 BKN028 OVC041 01/01 A2992 RMK AO2 SLP140 T00110006=
201702281348 SPECI KSEA 281348Z 00000KT 7SM BR FEW008 BKN028 OVC041 01/01 A2991 RMK AO2=
201702281253 METAR KSEA 281253Z 13003KT 10SM SCT035 BKN044 OVC070 01/00 A2989 RMK AO2 SLP130 T00110000=
201702281153 METAR KSEA 281153Z 00000KT 10SM BKN035 OVC049 01/M01 A2986 RMK AO2 SLP122 60001 70015 T00111006 10022 20011 53022=
201702281053 METAR KSEA 281053Z 00000KT 10SM FEW005 BKN035 OVC045 01/00 A2984 RMK AO2 SLP114 T00110000=
201702280953 METAR KSEA 280953Z 32003KT 7SM FEW005 BKN035 BKN047 01/01 A2982 RMK AO2 RAB0857E52SNB26E52 SLP107 P0001 T00110006=
201702280925 SPECI KSEA 280925Z 01003KT 4SM -RA BR SCT005 BKN029 OVC047 01/01 A2981 RMK AO2 RAB0857 P0001 T00110006=
201702280853 METAR KSEA 280853Z 00000KT 5SM BR SCT005 BKN010 OVC017 02/01 A2980 RMK AO2 SLP100 T00170011 51010=
201702280847 SPECI KSEA 280847Z 00000KT 5SM BR SCT004 BKN010 OVC017 02/01 A2980 RMK AO2=
201702280813 SPECI KSEA 280813Z 00000KT 7SM FEW002 OVC028 02/01 A2979 RMK AO2 T00170006=
201702280753 METAR KSEA 280753Z 00000KT 10SM OVC028 02/01 A2978 RMK AO2 SLP094 T00170006 400500006=
201702280743 SPECI KSEA 280743Z 00000KT 10SM OVC028 02/01 A2978 RMK AO2 T00170006=
201702280653 METAR KSEA 280653Z 12003KT 10SM FEW020 OVC032 02/00 A2977 RMK AO2 SLP090 T00220000=
201702280553 METAR KSEA 280553Z 17004KT 10SM OVC033 02/01 A2976 RMK AO2 SLP089 60009 T00170006 10044 20006 52013=
201702280453 METAR KSEA 280453Z 13007KT 10SM BKN035 02/01 A2975 RMK AO2 RAE14SNE14 SLP083 P0000 T00170006=
201702280414 SPECI KSEA 280414Z 13005KT 10SM FEW007 SCT025 OVC035 01/01 A2975 RMK AO2 RAE14SNE14 P0000 T00110006=
201702280406 SPECI KSEA 280406Z 12005KT 5SM -RASN BR FEW006 OVC028 01/01 A2975 RMK AO2 P0000 T00110006=
201702280401 SPECI KSEA 280401Z 13005KT 2SM -RASN BR FEW006 OVC028 01/01 A2975 RMK AO2 SFC VIS 4 P0000 T00110006=
201702280353 METAR KSEA 280353Z 14006KT 6SM -RASN BR FEW010 OVC030 01/01 A2974 RMK AO2 SNB43 SLP082 P0001 T00110006=
201702280324 SPECI KSEA 280324Z 14005KT 8SM -RA SCT012 BKN018 OVC028 02/01 A2974 RMK AO2 P0000 T00170011=
201702280307 SPECI KSEA 280307Z 15004KT 10SM -RA BKN030 OVC055 02/01 A2973 RMK AO2 P0000 T00170011=
201702280253 METAR KSEA 280253Z 09004KT 10SM -RA OVC029 02/01 A2973 RMK AO2 SLP076 RAB24SNE47 P0001 60008 T00220006 51019=
201702280153 METAR KSEA 280153Z VRB03KT 3SM -SN BR FEW003 OVC016 02/01 A2971 RMK AO2 SNE03B35 SLP072 P0002 T00170006=
201702280057 SPECI KSEA 280057Z 03006KT 3SM -SN BR SCT003 BKN016 OVC023 01/01 A2970 RMK AO2 P0000 T00110006=
201702280053 METAR KSEA 280053Z 02007KT 2SM -SN BR BKN003 BKN016 OVC023 01/01 A2970 RMK AO2 PK WND 30027/0005 WSHFT 2357 RAB06E09SNB09 SLP067 P0005 T00060006=
201702280025 SPECI KSEA 280025Z 01010KT 3/4SM R16L/3500V6000FT SN BR BKN004 BKN011 OVC017 01/00 A2969 RMK AO2 PK WND 30027/0005 WSHFT 2357 RAB06E09SNB09 P0001 T00060000 $=
201702280019 SPECI KSEA 280019Z 01010KT 1 1/4SM R16L/3500VP6000FT -SN BR BKN003 BKN011 OVC017 02/01 A2969 RMK AO2 PK WND 30027/0005 WSHFT 2357 RAB06E09SNB09 P0000 T00170006=
201702280016 SPECI KSEA 280016Z 36011G21KT 2SM R16L/6000VP6000FT -SN BR BKN005 BKN011 OVC017 02/01 A2969 RMK AO2 PK WND 30027/0005 WSHFT 2357 RAB06E09SNB09 P0000 T00170006=
201702280012 SPECI KSEA 280012Z 35015G27KT 1 1/4SM R16L/6000VP6000FT -SN BR SCT005 SCT011 OVC017 02/01 A2969 RMK AO2 PK WND 30027/0005 WSHFT 2357 RAB06E09SNB09 P0000 T00220006=
201702280010 SPECI KSEA 280010Z 35017G27KT 2SM -SN BR FEW005 SCT011 OVC017 03/01 A2969 RMK AO2 PK WND 30027/0005 WSHFT 2356 RAB06E09SNB09 P0000 T00280006=
201702272353 METAR KSEA 272353Z 22016G20KT 10SM FEW009 OVC017 04/02 A2967 RMK AO2 SLP056 60004 T00440017 10050 20028 53001=
201702272253 METAR KSEA 272253Z 19015G23KT 10SM FEW009 SCT015 OVC020 04/02 A2967 RMK AO2 SLP054 T00390022=
201702272153 METAR KSEA 272153Z 20013G21KT 10SM SCT014 BKN028 BKN090 05/02 A2966 RMK AO2 SLP051 T00500022=
201702272111 SPECI KSEA 272111Z 19012G24KT 10SM SCT014 SCT022 BKN075 03/01 A2966 RMK AO2 T00330011=
201702272106 SPECI KSEA 272106Z 19018G24KT 10SM BKN015 OVC022 03/01 A2966 RMK AO2 T00330011=
201702272053 METAR KSEA 272053Z 19017G22KT 10SM BKN013 OVC020 04/02 A2967 RMK AO2 SLP055 60004 T00440022 58017=
201702271953 METAR KSEA 271953Z 19011KT 10SM FEW010 BKN013 OVC050 04/02 A2969 RMK AO2 RAE10SNE10 SLP064 P0000 T00390022=
201702271911 SPECI KSEA 271911Z 20012KT 10SM BKN010 OVC016 03/02 A2971 RMK AO2 RAE10SNE10 P0000 T00330022=
201702271853 METAR KSEA 271853Z 20012KT 7SM -RASN BKN008 OVC015 03/02 A2971 RMK AO2 RAB19SNB19 SLP069 P0004 T00280017=
201702271819 SPECI KSEA 271819Z 19008KT 6SM -RASN BR BKN009 OVC016 03/02 A2971 RMK AO2 RAB19SNB19 P0000 T00280017=
201702271753 METAR KSEA 271753Z 18008KT 10SM BKN008 OVC016 03/02 A2972 RMK AO2 SLP072 60001 T00280017 10028 20017 58009=
201702271653 METAR KSEA 271653Z 19009KT 7SM OVC008 02/02 A2972 RMK AO2 SLP074 T00220017=
201702271553 METAR KSEA 271553Z 15011KT 8SM BKN008 OVC017 02/01 A2974 RMK AO2 RAE51 SLP079 P0000 T00220011=
201702271548 SPECI KSEA 271548Z 14008KT 7SM -RA BKN008 OVC017 02/01 A2974 RMK AO2 P0000=
201702271453 METAR KSEA 271453Z 13008KT 7SM -RA FEW006 BKN011 OVC024 02/01 A2974 RMK AO2 SNE05 SLP081 P0000 60001 T00220011 56004=
201702271432 SPECI KSEA 271432Z 14008KT 5SM -RA BR SCT006 BKN014 OVC022 02/01 A2974 RMK AO2 SNE05 P0000 T00220011=
201702271405 SPECI KSEA 271405Z 14007KT 6SM -RA BR FEW008 SCT013 OVC022 02/01 A2975 RMK AO2 SNE05 P0000 T00220011 $=
201702271353 METAR KSEA 271353Z 14006KT 7SM -RASN SCT008 OVC013 02/01 A2974 RMK AO2 RAE20B50SNE20B50 SLP081 P0001 T00220011 $=
201702271253 METAR KSEA 271253Z 07005KT 7SM -RASN SCT006 OVC011 02/01 A2975 RMK AO2 SNB1157 SLP083 T00220006 PNO $=
201702271238 SPECI KSEA 271238Z 00000KT 7SM -RASN SCT006 OVC011 02/01 A2975 RMK AO2 SNB1157 T00220006 PNO $=
201702271153 METAR KSEA 271153Z 09004KT 7SM -RA BKN005 OVC030 03/02 A2976 RMK AO2 SLP085 RAB16 60000 70019 T00280017 10044 20022 58000 PNO $=
201702271126 SPECI KSEA 271126Z VRB04KT 10SM -RA BKN005 BKN030 OVC065 03/02 A2976 RMK AO2 RAB16 P0000 T00280017 $=
201702271053 METAR KSEA 271053Z 15004KT 10SM FEW005 SCT029 OVC060 02/01 A2976 RMK AO2 SLP086 T00220011 $=
201702270953 METAR KSEA 270953Z 16004KT 10SM FEW005 OVC080 03/02 A2976 RMK AO2 SLP086 T00280017 $=
201702270853 METAR KSEA 270853Z 16003KT 10SM FEW005 OVC070 02/02 A2976 RMK AO2 SLP085 T00220017 53002 $=
201702270835 SPECI KSEA 270835Z 15003KT 10SM FEW005 OVC070 02/02 A2976 RMK AO2 T00220017 $=
201702270753 METAR KSEA 270753Z 13004KT 10SM OVC070 03/02 A2975 RMK AO2 SLP083 T00280017 400500017 $=
201702270653 METAR KSEA 270653Z 02004KT 10SM OVC065 04/M01 A2975 RMK AO2 SLP083 T00391006 $=
201702270553 METAR KSEA 270553Z 01005KT 10SM BKN046 OVC060 04/00 A2975 RMK AO2 SLP083 60001 T00390000 10044 20039 53006 $=
201702270453 METAR KSEA 270453Z 35005KT 10SM BKN040 OVC070 04/01 A2974 RMK AO2 SLP081 T00390006 $=
201702270353 METAR KSEA 270353Z 36003KT 10SM BKN030 OVC048 04/02 A2973 RMK AO2 SLP077 T00390017 $=
201702270253 METAR KSEA 270253Z 34008KT 10SM SCT017 SCT023 BKN029 04/02 A2973 RMK AO2 SLP076 60001 T00390017 53010 $=
201702270221 SPECI KSEA 270221Z 34006KT 10SM OVC032 04/03 A2972 RMK AO2 T00390028 $=
201702270153 METAR KSEA 270153Z 34009KT 10SM FEW008 SCT016 OVC025 04/03 A2972 RMK AO2 SLP072 T00390028 $=
201702270053 METAR KSEA 270053Z 32007KT 10SM SCT008 BKN016 OVC024 04/02 A2971 RMK AO2 RAE53 SLP070 P0001 T00390022 $=
201702270009 SPECI KSEA 270009Z 30004KT 4SM -RA BR FEW005 BKN010 OVC018 04/03 A2970 RMK AO2 T00440033 PNO $=
201702262353 METAR KSEA 262353Z 30005KT 4SM RA BR SCT013 OVC019 04/03 A2970 RMK AO2 RAB16 SLP066 60009 T00440033 10050 20028 53006 PNO $=
201702262256 SPECI KSEA 262256Z 27003KT 10SM BKN013 OVC016 05/02 A2969 RMK AO2 T00500022 $=
201702262253 METAR KSEA 262253Z 29003KT 10SM SCT010 OVC016 04/02 A2969 RMK AO2 RAB08E39 SLP061 P0001 T00440022 $=
201702262208 SPECI KSEA 262208Z 08003KT 10SM -RA SCT008 OVC025 05/02 A2968 RMK AO2 RAB08 P0000 T00500017 $=
201702262153 METAR KSEA 262153Z 04005KT 10SM FEW008 SCT023 OVC037 05/03 A2968 RMK AO2 RAE49 SLP059 P0000 T00500028 $=
201702262053 METAR KSEA 262053Z 06005KT 10SM -RA SCT010 BKN026 OVC034 04/03 A2968 RMK AO2 SLP059 P0003 60008 T00440028 58002 $=
201702261953 METAR KSEA 261953Z 08009KT 7SM -RA FEW010 BKN020 OVC027 03/02 A2969 RMK AO2 SLP062 P0003 T00330022 $=
201702261853 METAR KSEA 261853Z 09010KT 8SM -RA OVC020 03/02 A2969 RMK AO2 SLP061 P0002 T00330017 $=
201702261753 METAR KSEA 261753Z 09009KT 9SM -RA FEW007 BKN021 OVC027 03/02 A2969 RMK AO2 SLP062 P0003 60009 T00280017 10033 20017 55002 $=
201702261653 METAR KSEA 261653Z 10008KT 8SM -RA FEW010 SCT012 OVC026 03/02 A2969 RMK AO2 SLP061 P0002 T00280017 $=
201702261553 METAR KSEA 261553Z 11009KT 7SM -RA FEW010 SCT021 OVC030 02/01 A2969 RMK AO2 SLP062 P0002 T00220011 $=
201702261453 METAR KSEA 261453Z 14009KT 7SM -RA FEW012 SCT019 OVC029 03/01 A2969 RMK AO2 SLP063 P0001 60002 T00280011 56019 $=
201702261353 METAR KSEA 261353Z 15006KT 10SM -RA FEW012 BKN022 OVC029 02/02 A2971 RMK AO2 SNB1257E46 SLP069 P0000 T00220017 $=
201702261338 SPECI KSEA 261338Z 15006KT 10SM -RASN SCT010 OVC022 02/01 A2971 RMK AO2 SNB1257 P0000 T00220011 $=
201702261253 METAR KSEA 261253Z 16009KT 10SM -RA SCT008 OVC014 02/01 A2973 RMK AO2 SLP075 SNE38RAB38 P0001 T00170011 $=
201702261153 METAR KSEA 261153Z AUTO 15011KT 6SM -SN BR SCT006 BKN010 OVC018 02/01 A2975 RMK AO2 UPB08E14SNB14 SLP083 P0002 6//// 7//// T00170011 10050 20017 TSNO $=
201702261142 SPECI KSEA 261142Z AUTO 16012KT 5SM -SN BR BKN007 BKN011 OVC016 02/01 A2975 RMK AO2 UPB08E14SNB14 P0002 T00170006 TSNO $=
201702261053 METAR KSEA 261053Z 15012KT 10SM -RA SCT006 OVC019 03/02 A2979 RMK A02 SLPNO PNO T00280022=
201702261000 METAR KSEA NIL=
201702260953 METAR KSEA 260953Z 15010KT 7SM -RA SCT006 OVC019 03/02 A2983 RMK A02 SLPNO PNO T00290022=
201702260908 SPECI KSEA 260908Z 15008KT 7SM -RA SCT009 OVC019 03/02 A2984 RMK A02 P0001 T00280017=
201702260853 METAR KSEA 260853Z 15011KT 10SM -RA OVC017 03/01 A2985 RMK A02 SLPNO P0004 60004 T00280011 58026=
201702260834 SPECI KSEA 260834Z 17011KT 10SM -RA OVC016 03/01 A2987 RMK A02 P0003 T00280011=
201702260800 METAR KSEA NIL=
201702260753 METAR KSEA 260753Z 19010KT 10SM -RA OVC014 03/01 A2989 RMK A02 RAB35 SLPNO P0001 T00330017 400670000=
201702260740 SPECI KSEA 260740Z 21016KT 10SM -RA BKN014 OVC019 03/01 A2989 RMK A02 RAB35 SLPNO T00330011=
201702260653 METAR KSEA 260653Z 20014G19KT 10SM BKN018 OVC045 04/01 A2991 RMK AO2 SLP136 T00440006=
201702260622 SPECI KSEA 260622Z 21014G23KT 10SM BKN020 OVC070 04/01 A2992 RMK AO2 T00440011=
201702260553 METAR KSEA 260553Z 21015G22KT 10SM FEW019 OVC065 04/01 A2993 RMK AO2 PK WND 21028/0512 SLP144 T00440011 10061 20044 58026=
201702260453 METAR KSEA 260453Z 21009G17KT 10SM OVC020 05/01 A2996 RMK AO2 SLP154 T00500006=
201702260353 METAR KSEA 260353Z 24005KT 10SM BKN023 BKN055 OVC070 05/00 A2999 RMK AO2 SLP165 T00500000=
201702260343 SPECI KSEA 260343Z 22007KT 10SM BKN023 BKN055 OVC070 05/00 A2999 RMK AO2 T00500000=
201702260253 METAR KSEA 260253Z 22010KT 10SM SCT070 BKN085 06/M01 A3001 RMK AO2 SLP171 T00561006 56029=
201702260153 METAR KSEA 260153Z 21011KT 10SM OVC070 06/M01 A3003 RMK AO2 SLP177 T00561011=
201702260053 METAR KSEA 260053Z 21006KT 10SM OVC060 06/M01 A3006 RMK AO2 SLP189 T00611006=
201702252353 METAR KSEA 252353Z 21007KT 10SM OVC050 06/M01 A3010 RMK AO2 SLP201 T00611006 10067 20028 58031=
201702252253 METAR KSEA 252253Z 21006KT 10SM FEW038 OVC050 06/M01 A3013 RMK AO2 SLP211 T00611006=
201702252153 METAR KSEA 252153Z 23007KT 10SM FEW027 BKN038 OVC050 06/M01 A3016 RMK AO2 SLP223 T00611006=
201702252053 METAR KSEA 252053Z 20007KT 10SM SCT020 BKN049 OVC160 06/M01 A3019 RMK AO2 SLP232 T00561006 58019=
201702251953 METAR KSEA 251953Z 22005KT 10SM FEW020 BKN050 OVC160 04/01 A3021 RMK AO2 SLP241 T00440006=
201702251853 METAR KSEA 251853Z 19006KT 10SM FEW020 SCT050 BKN060 03/00 A3023 RMK AO2 SLP245 T00330000=
201702251753 METAR KSEA 251753Z 00000KT 10SM FEW015 SCT047 BKN065 03/M01 A3025 RMK AO2 SLP252 T00281006 10028 20000 50002=
201702251653 METAR KSEA 251653Z 00000KT 10SM FEW020 SCT047 BKN065 01/M02 A3025 RMK AO2 SLP253 T00111022=
201702251553 METAR KSEA 251553Z 14004KT 10SM FEW020 BKN055 01/M02 A3025 RMK AO2 SLP253 T00111022=
201702251453 METAR KSEA 251453Z 13003KT 10SM FEW020 BKN055 01/M03 A3024 RMK AO2 SLP249 T00061028 58004=
201702251353 METAR KSEA 251353Z 13004KT 10SM BKN055 01/M03 A3025 RMK AO2 SLP252 T00061033=
201702251253 METAR KSEA 251253Z 12005KT 10SM FEW100 01/M03 A3025 RMK AO2 SLP252 T00061028=
201702251153 METAR KSEA 251153Z 12004KT 10SM FEW014 SCT065 01/M03 A3025 RMK AO2 SLP253 T00111028 10044 20006 52002=
201702251053 METAR KSEA 251053Z 12004KT 10SM SCT065 02/M03 A3025 RMK AO2 SLP252 T00171028=
201702250953 METAR KSEA 250953Z 12005KT 10SM OVC070 03/M02 A3025 RMK AO2 SLP252 T00281022=
201702250853 METAR KSEA 250853Z 07004KT 10SM OVC080 03/M02 A3024 RMK AO2 SLP251 T00331017 51003=
201702250753 METAR KSEA 250753Z 00000KT 10SM OVC080 04/00 A3024 RMK AO2 SLP250 T00390000 400830000=
201702250653 METAR KSEA 250653Z 00000KT 10SM OVC075 04/01 A3024 RMK AO2 SLP250 T00440006=
201702250553 METAR KSEA 250553Z 36004KT 10SM OVC070 04/01 A3024 RMK AO2 SLP249 T00440006 10078 20044 51018=
201702250453 METAR KSEA 250453Z 34005KT 10SM BKN070 04/01 A3022 RMK AO2 SLP242 T00440006=
201702250353 METAR KSEA 250353Z 33007KT 10SM BKN055 05/01 A3021 RMK AO2 SLP238 T00500011=
201702250253 METAR KSEA 250253Z 33005KT 10SM BKN060 04/M01 A3018 RMK AO2 SLP230 T00441011 53007=
201702250153 METAR KSEA 250153Z 29004KT 10SM FEW030 SCT070 SCT250 06/M02 A3017 RMK AO2 SLP226 T00561017=
201702250053 METAR KSEA 250053Z 27003KT 10SM FEW030 SCT060 SCT250 07/M02 A3016 RMK AO2 SLP222 T00721022=
201702242353 METAR KSEA 242353Z 00000KT 10SM FEW030 SCT060 SCT250 08/M03 A3016 RMK AO2 SLP222 T00831028 10083 20039 55003=
201702242253 METAR KSEA 242253Z 28003KT 10SM FEW030 SCT060 BKN250 06/M02 A3016 RMK AO2 SLP221 T00611022=
201702242153 METAR KSEA 242153Z VRB04KT 10SM FEW030 BKN045 BKN250 07/M03 A3016 RMK AO2 SLP223 T00671028=
201702242053 METAR KSEA 242053Z 00000KT 10SM FEW015 BKN035 BKN250 07/M02 A3017 RMK AO2 SLP226 T00671022 50001=
201702241953 METAR KSEA 241953Z 00000KT 10SM SCT034 SCT060 OVC250 06/M02 A3018 RMK AO2 SLP228 T00561022 $=
201702241853 METAR KSEA 241853Z 19006KT 10SM FEW020 BKN034 BKN048 OVC200 05/M02 A3017 RMK AO2 SLP227 T00501022 $=
201702241753 METAR KSEA 241753Z 11005KT 10SM FEW012 BKN039 BKN050 OVC200 04/M02 A3017 RMK AO2 SLP224 60000 T00441022 10044 20000 51007 $=
201702241653 METAR KSEA 241653Z 12005KT 10SM FEW012 BKN046 OVC060 03/M02 A3016 RMK AO2 SNE39 SLP223 P0000 T00281022 $=
201702241553 METAR KSEA 241553Z 14005KT 10SM -SN OVC030 02/M02 A3015 RMK AO2 SNE30B51 SLP221 P0000 T00221017 $=
201702241453 METAR KSEA 241453Z 15006KT 7SM -SN BKN031 BKN042 OVC055 02/M02 A3014 RMK AO2 SNB53 SLP218 P0000 60000 T00171017 55000 $=
201702241425 SPECI KSEA 241425Z 15006KT 10SM OVC030 02/M02 A3014 RMK AO2 T00171017 $=
201702241353 METAR KSEA 241353Z 00000KT 10SM OVC028 02/M02 A3014 RMK AO2 SLP215 T00171017 $=
201702241253 METAR KSEA 241253Z 18005KT 10SM BKN024 BKN039 01/M01 A3014 RMK AO2 SLP214 T00111011 $=
201702241153 METAR KSEA 241153Z 15004KT 10SM FEW031 SCT150 01/M01 A3014 RMK AO2 SLP216 70001 T00061011 10022 20000 58007 $=
201702241053 METAR KSEA 241053Z 16003KT 10SM FEW080 01/M01 A3015 RMK AO2 SLP218 T00111011 $=
201702240953 METAR KSEA 240953Z 16005KT 10SM SCT080 01/M01 A3016 RMK AO2 SLP222 T00111011 $=
201702240853 METAR KSEA 240853Z 16006KT 10SM FEW023 OVC065 02/00 A3016 RMK AO2 SLP223 T00170000 58008 $=
201702240753 METAR KSEA 240753Z 13005KT 10SM SCT023 OVC060 02/00 A3017 RMK AO2 SLP226 T00170000 400670011 $=
201702240653 METAR KSEA 240653Z 16006KT 10SM FEW010 BKN060 OVC095 02/00 A3018 RMK AO2 SLP230 T00170000 $=
201702240553 METAR KSEA 240553Z 14006KT 10SM FEW035 BKN065 02/00 A3019 RMK AO2 SLP232 T00170000 10044 20011 55005 $=
201702240453 METAR KSEA 240453Z 17005KT 10SM SCT065 01/00 A3019 RMK AO2 SLP232 T00110000=
201702240353 METAR KSEA 240353Z 14005KT 10SM FEW025 SCT070 02/00 A3019 RMK AO2 SLP234 T00220000=
201702240253 METAR KSEA 240253Z 14007KT 10SM FEW025 SCT070 03/01 A3020 RMK AO2 SLP236 T00280006 56006=
201702240153 METAR KSEA 240153Z 18004KT 10SM FEW025 SCT070 SCT250 04/M01 A3020 RMK AO2 SLP237 T00391006=
201702240053 METAR KSEA 240053Z 00000KT 10SM FEW020 SCT035 SCT080 SCT250 04/00 A3021 RMK AO2 SLP239 T00440000=
201702232353 METAR KSEA 232353Z 26005KT 10SM FEW019 BKN028 BKN080 04/02 A3022 RMK AO2 SLP242 60001 T00440017 10067 20028 56010=
201702232253 METAR KSEA 232253Z 25008KT 10SM BKN023 BKN046 06/01 A3023 RMK AO2 SLP246 T00610006=
201702232153 METAR KSEA 232153Z 27005KT 10SM SCT020 BKN032 BKN050 05/01 A3024 RMK AO2 SLP248 T00500006=
201702232133 SPECI KSEA 232133Z 00000KT 10SM BKN021 BKN026 OVC055 05/00 A3024 RMK AO2 T00500000=
201702232053 METAR KSEA 232053Z 00000KT 10SM SCT015 BKN033 BKN070 04/00 A3025 RMK AO2 RAE1956 SLP253 P0000 60001 T00440000 58005=
201702232013 SPECI KSEA 232013Z 00000KT 10SM SCT015 BKN033 BKN055 04/02 A3026 RMK AO2 RAE1956 P0000 T00390017=
201702232002 SPECI KSEA 232002Z 34003KT 10SM BKN017 BKN050 OVC065 04/01 A3026 RMK AO2 RAE1956 P0000 T00390011=
201702231953 METAR KSEA 231953Z 35004KT 10SM -RA BR SCT011 BKN017 BKN033 03/01 A3026 RMK AO2 SLP257 P0001 T00330011=
201702231853 METAR KSEA 231853Z 01006KT 6SM -RA BKN011 OVC017 04/01 A3027 RMK AO2 RAB1759E18B50 SLP259 P0000 T00440011=
201702231829 SPECI KSEA 231829Z 31003KT 10SM SCT011 BKN017 OVC050 04/01 A3027 RMK AO2 RAB1759E18 P0000 T00390011=
201702231753 METAR KSEA 231753Z 06004KT 7SM SCT007 BKN013 BKN030 04/01 A3026 RMK AO2 SLP258 T00440006 10044 20017 51012=
201702231704 SPECI KSEA 231704Z 03005KT 7SM BKN005 OVC010 03/02 A3026 RMK AO2 T00330017=
201702231653 METAR KSEA 231653Z 03004KT 9SM SCT005 BKN010 BKN050 03/01 A3026 RMK AO2 SLP255 T00330011=
201702231621 SPECI KSEA 231621Z 00000KT 10SM SCT010 BKN047 BKN070 03/01 A3025 RMK AO2 T00280011=
201702231553 METAR KSEA 231553Z 00000KT 10SM SCT007 BKN014 BKN047 03/02 A3025 RMK AO2 SLP253 T00280017=
201702231522 SPECI KSEA 231522Z 00000KT 10SM SCT007 BKN014 BKN070 03/02 A3024 RMK AO2 T00280017=
201702231453 METAR KSEA 231453Z 00000KT 10SM BKN010 OVC070 02/02 A3023 RMK AO2 SLP246 T00220017 53004=
201702231403 SPECI KSEA 231403Z 17003KT 10SM BKN013 OVC070 02/02 A3022 RMK AO2 T00170017=
201702231353 METAR KSEA 231353Z 17003KT 10SM FEW011 FEW028 BKN070 02/02 A3022 RMK AO2 SLP244 T00220017=
201702231348 SPECI KSEA 231348Z 00000KT 10SM FEW011 FEW028 BKN070 02/02 A3022 RMK AO2=
201702231253 METAR KSEA 231253Z 00000KT 10SM BKN011 BKN019 OVC070 02/02 A3022 RMK AO2 SLP244 T00220017=
201702231153 METAR KSEA 231153Z 00000KT 10SM BKN010 OVC070 02/01 A3022 RMK AO2 SLP242 60000 T00170011 10033 20011 53001=
201702231053 METAR KSEA 231053Z 12003KT 10SM OVC010 02/01 A3021 RMK AO2 SLP241 T00170006=
201702230953 METAR KSEA 230953Z 00000KT 10SM FEW010 BKN055 02/02 A3022 RMK AO2 RAE0857 SLP241 P0000 T00220017=
201702230950 SPECI KSEA 230950Z 00000KT 10SM FEW010 BKN055 02/02 A3022 RMK AO2 RAE0857 P0000=
201702230853 METAR KSEA 230853Z 00000KT 10SM -RA SCT010 BKN016 OVC038 02/01 A3022 RMK AO2 RAB49 CIG 012V022 SLP241 P0000 60000 T00220011 51004=
201702230828 SPECI KSEA 230828Z 00000KT 10SM BKN014 OVC048 02/01 A3022 RMK AO2 T00220011=
201702230753 METAR KSEA 230753Z 00000KT 10SM FEW010 BKN026 OVC050 03/01 A3021 RMK AO2 SLP241 T00280011 400780017=
201702230653 METAR KSEA 230653Z 00000KT 10SM FEW030 SCT080 03/01 A3021 RMK AO2 SLP238 T00280011=
201702230553 METAR KSEA 230553Z 34003KT 10SM FEW030 SCT080 02/01 A3020 RMK AO2 SLP237 T00220006 10078 20017 53005=
201702230453 METAR KSEA 230453Z 36005KT 10SM SCT080 02/01 A3019 RMK AO2 SLP234 T00220006=
201702230353 METAR KSEA 230353Z 01005KT 10SM FEW030 SCT250 03/01 A3019 RMK AO2 SLP232 T00330011=
201702230253 METAR KSEA 230253Z 01006KT 10SM FEW030 SCT250 04/M01 A3019 RMK AO2 SLP232 T00391006 51009=
201702230153 METAR KSEA 230153Z 02005KT 10SM FEW030 FEW050 SCT250 04/00 A3018 RMK AO2 SLP229 T00440000=
201702230053 METAR KSEA 230053Z 05012KT 10SM SCT029 BKN046 BKN250 07/00 A3017 RMK AO2 SLP226 T00670000=
201702222353 METAR KSEA 222353Z VRB04KT 10SM SCT025 SCT250 07/M01 A3016 RMK AO2 SLP222 T00721011 10072 20033 58006=
201702222253 METAR KSEA 222253Z 20004KT 10SM SCT025 SCT250 07/00 A3017 RMK AO2 SLP223 T00720000=
201702222153 METAR KSEA 222153Z 17004KT 10SM SCT020 SCT250 07/00 A3018 RMK AO2 SLP228 SHRA DSNT NW T00670000=
201702222107 SPECI KSEA 222107Z 23005KT 10SM SCT019 SCT250 06/01 A3018 RMK AO2 T00610006=
201702222053 METAR KSEA 222053Z 18005KT 10SM BKN019 BKN250 06/01 A3018 RMK AO2 SLP229 T00560006 58008=
201702221953 METAR KSEA 221953Z 16004KT 10SM BKN015 BKN250 05/01 A3019 RMK AO2 SLP233 T00500011=
201702221943 SPECI KSEA 221943Z 00000KT 10SM BKN015 BKN250 04/01 A3019 RMK AO2 T00440006=
201702221853 METAR KSEA 221853Z 18003KT 10SM OVC011 04/01 A3020 RMK AO2 SLP237 T00390011=
201702221753 METAR KSEA 221753Z 17004KT 10SM OVC010 03/01 A3021 RMK AO2 SLP238 T00330011 10039 20022 53009=
201702221653 METAR KSEA 221653Z 17005KT 10SM BKN010 BKN250 03/01 A3019 RMK AO2 SLP234 T00330011=
201702221628 SPECI KSEA 221628Z 18007KT 10SM BKN011 BKN020 BKN250 03/02 A3019 RMK AO2 T00330017=
201702221553 METAR KSEA 221553Z 16006KT 10SM BKN015 BKN027 BKN200 03/01 A3019 RMK AO2 SLP232 T00330011=
201702221453 METAR KSEA 221453Z 17006KT 10SM BKN015 BKN026 BKN200 02/01 A3018 RMK AO2 SLP229 T00220011 51005=
201702221440 SPECI KSEA 221440Z 18005KT 10SM SCT014 OVC021 03/02 A3018 RMK AO2 T00280017=
201702221353 METAR KSEA 221353Z 18005KT 10SM OVC013 03/02 A3018 RMK AO2 SLP229 T00330017=
201702221334 SPECI KSEA 221334Z 15004KT 10SM OVC013 03/02 A3018 RMK AO2 T00330017=
201702221253 METAR KSEA 221253Z 15004KT 10SM OVC017 03/02 A3017 RMK AO2 SLP225 T00330017=
201702221211 SPECI KSEA 221211Z 16003KT 10SM OVC015 03/02 A3017 RMK AO2 T00330017=
201702221153 METAR KSEA 221153Z 16004KT 10SM BKN013 OVC018 03/02 A3016 RMK AO2 SLP223 60000 70007 T00330017 10050 20028 50000=
201702221053 METAR KSEA 221053Z 00000KT 10SM OVC021 04/01 A3017 RMK AO2 SLP225 T00390011=
201702221018 SPECI KSEA 221018Z VRB03KT 10SM BKN021 BKN046 03/01 A3017 RMK AO2 T00330011=
201702220953 METAR KSEA 220953Z 15006KT 10SM SCT027 BKN046 03/01 A3017 RMK AO2 SLP224 T00330011=
201702220916 SPECI KSEA 220916Z 17006KT 10SM SCT013 OVC019 04/02 A3016 RMK AO2 T00390022=
201702220853 METAR KSEA 220853Z 08005KT 10SM OVC014 04/02 A3016 RMK AO2 SLP222 60000 T00390022 51014=
201702220753 METAR KSEA 220753Z 05009KT 10SM OVC011 04/03 A3015 RMK AO2 RAE27 SLP218 P0000 T00390028 400890039=
201702220741 SPECI KSEA 220741Z 05008KT 10SM OVC012 04/03 A3015 RMK AO2 RAE27 P0000 T00440028=
201702220653 METAR KSEA 220653Z 08008KT 10SM -RA OVC020 04/03 A3014 RMK AO2 RAB51 SLP214 P0000 T00440028=
201702220553 METAR KSEA 220553Z 07010KT 10SM OVC022 05/02 A3012 RMK AO2 SLP208 60000 T00500022 10078 20050 53019=
201702220453 METAR KSEA 220453Z 08006KT 10SM BKN015 BKN023 OVC044 06/03 A3010 RMK AO2 SLP201 T00560028=
201702220438 SPECI KSEA 220438Z VRB03KT 10SM BKN015 OVC021 06/04 A3009 RMK AO2 T00610039=
201702220425 SPECI KSEA 220425Z VRB04KT 10SM BKN014 OVC026 06/04 A3009 RMK AO2 T00610039=
201702220353 METAR KSEA 220353Z 07006KT 10SM SCT008 BKN024 OVC028 06/04 A3008 RMK AO2 SLP193 T00610044=
201702220350 SPECI KSEA 220350Z 08004KT 10SM BKN008 OVC024 07/05 A3008 RMK AO2=
201702220253 METAR KSEA 220253Z 13007KT 10SM SCT016 BKN032 OVC040 07/05 A3007 RMK AO2 RAB29E53 SLP189 P0000 60000 T00670050 53021=
201702220238 SPECI KSEA 220238Z 13006KT 10SM -RA BKN016 BKN034 OVC042 07/05 A3006 RMK AO2 RAB29 P0000 T00670050=
201702220153 METAR KSEA 220153Z 16004KT 10SM SCT012 BKN030 BKN055 07/04 A3004 RMK AO2 RAE00 SLP182 P0000 T00670044=
201702220053 METAR KSEA 220053Z 30004KT 6SM -RA BKN027 BKN100 BKN200 07/04 A3002 RMK AO2 RAB33 SLP174 P0000 T00720044=
201702220028 SPECI KSEA 220028Z 00000KT 10SM BKN027 BKN100 BKN200 08/03 A3002 RMK AO2 T00780033=
201702212353 METAR KSEA 212353Z 10003KT 10SM FEW015 SCT027 BKN100 BKN200 08/04 A3000 RMK AO2 SLP168 60001 T00780039 10089 20061 51021=
201702212309 SPECI KSEA 212309Z 05005KT 10SM FEW015 BKN028 BKN045 08/03 A2999 RMK AO2 T00780033=
201702212253 METAR KSEA 212253Z 04006KT 10SM FEW015 BKN030 OVC043 08/04 A2999 RMK AO2 SLP162 T00780039=
201702212231 SPECI KSEA 212231Z 36004KT 10SM FEW018 BKN032 OVC043 07/04 A2998 RMK AO2 T00720039=
201702212215 SPECI KSEA 212215Z 03006KT 10SM SCT013 BKN021 OVC036 07/04 A2997 RMK AO2 T00720039=
201702212153 METAR KSEA 212153Z 06005KT 10SM FEW008 BKN013 OVC032 07/04 A2996 RMK AO2 SLP154 T00720044=
201702212106 SPECI KSEA 212106Z 01005KT 10SM FEW008 BKN012 OVC020 07/05 A2995 RMK AO2 T00720050=
201702212053 METAR KSEA 212053Z 34007KT 10SM BKN011 OVC020 07/04 A2994 RMK AO2 RAB00E17 SLP146 P0001 60001 T00720044 51030=
201702211953 METAR KSEA 211953Z 01007KT 10SM FEW008 BKN014 OVC022 07/04 A2993 RMK AO2 SLP142 T00670044=
201702211853 METAR KSEA 211853Z 35008KT 9SM FEW006 BKN010 OVC021 07/05 A2989 RMK AO2 SLP131 T00670050=
201702211753 METAR KSEA 211753Z 02007KT 7SM FEW006 OVC014 06/06 A2985 RMK AO2 RAE23 SLP116 P0000 60006 T00610056 10061 20050 53034=
201702211653 METAR KSEA 211653Z 36006KT 5SM -RA BR SCT006 BKN011 OVC025 06/05 A2981 RMK AO2 SLP104 P0002 T00610050=
201702211553 METAR KSEA 211553Z 01006KT 4SM -RA BR FEW005 BKN010 OVC041 06/05 A2978 RMK AO2 RAE1455B44 SLP092 P0000 T00560050=
201702211453 METAR KSEA 211453Z 02008KT 4SM -RA BR SCT005 BKN010 OVC021 06/04 A2975 RMK AO2 SLP081 P0002 60004 T00560044 53015=
201702211448 SPECI KSEA 211448Z 02008KT 4SM -RA BR SCT005 BKN010 OVC021 06/04 A2975 RMK AO2 P0001=
201702211353 METAR KSEA 211353Z 02006KT 6SM -RA BR SCT005 BKN009 OVC014 05/04 A2973 RMK AO2 SLP075 P0002 T00500044 $=
201702211330 SPECI KSEA 211330Z 03008KT 6SM -RA BR FEW003 BKN009 OVC012 05/04 A2972 RMK AO2 P0001 T00500044 $=
201702211253 METAR KSEA 211253Z 01006KT 7SM -RA FEW003 OVC011 05/04 A2972 RMK AO2 SLP071 P0000 T00500044 $=
201702211243 SPECI KSEA 211243Z 01007KT 8SM -RA FEW003 OVC011 05/04 A2971 RMK AO2 P0000 T00500044 $=
201702211153 METAR KSEA 211153Z 02008KT 10SM -RA OVC007 06/04 A2970 RMK AO2 RAB25 CIG 003V010 SLP066 P0000 60000 70019 T00560044 10072 20050 51002 $=
201702211125 SPECI KSEA 211125Z 01007KT 10SM -RA BKN008 OVC050 06/04 A2970 RMK AO2 RAB25 P0000 T00560044 $=
201702211053 METAR KSEA 211053Z 35006KT 8SM FEW003 BKN055 OVC110 05/04 A2970 RMK AO2 SLP065 T00500044 $=
201702210953 METAR KSEA 210953Z 01006KT 5SM BR SCT001 OVC042 05/04 A2970 RMK AO2 SLP065 T00500044 $=
201702210906 SPECI KSEA 210906Z 35005KT 10SM FEW005 SCT024 OVC030 06/04 A2969 RMK AO2 T00560044 $=
201702210853 METAR KSEA 210853Z 36005KT 10SM SCT015 OVC027 06/04 A2970 RMK AO2 SLP064 T00560044 58007 $=
201702210753 METAR KSEA 210753Z 06005KT 10SM SCT019 OVC027 06/04 A2971 RMK AO2 SLP067 T00610044 400720044 $=
201702210653 METAR KSEA 210653Z 12004KT 10SM BKN025 OVC033 07/05 A2972 RMK AO2 SLP071 T00670050 $=
201702210636 SPECI KSEA 210636Z 13005KT 10SM BKN025 OVC034 07/05 A2972 RMK AO2 T00670050 $=
201702210553 METAR KSEA 210553Z 12004KT 10SM BKN033 OVC110 07/06 A2972 RMK AO2 SLP071 60000 T00670056 10072 20061 55000 $=
201702210453 METAR KSEA 210453Z 14006KT 10SM FEW030 SCT075 BKN110 07/06 A2971 RMK AO2 SLP069 T00670056 $=
201702210423 SPECI KSEA 210423Z 13004KT 10SM SCT029 BKN070 OVC100 07/06 A2971 RMK AO2 T00670056 $=
201702210353 METAR KSEA 210353Z 15005KT 10SM BKN015 OVC021 07/06 A2972 RMK AO2 RAB13E22 SLP070 P0000 T00670056 $=
201702210345 SPECI KSEA 210345Z 16005KT 10SM BKN015 OVC021 07/06 A2971 RMK AO2 RAB13E22 P0000 T00670056 $=
201702210321 SPECI KSEA 210321Z 13007KT 4SM -RA BR FEW006 BKN013 OVC021 07/06 A2971 RMK AO2 RAB13 P0000 T00670061 $=
201702210253 METAR KSEA 210253Z 13007KT 10SM FEW007 BKN016 OVC030 07/06 A2972 RMK AO2 SLP071 60000 T00720056 51009 $=
201702210153 METAR KSEA 210153Z 15005KT 10SM SCT007 OVC023 07/06 A2971 RMK AO2 SLP068 T00720061 $=
201702210138 SPECI KSEA 210138Z 14006KT 10SM BKN007 BKN014 OVC025 07/06 A2971 RMK AO2 CIG 006V011 T00720061 $=
201702210053 METAR KSEA 210053Z 17005KT 10SM FEW008 BKN027 OVC049 07/06 A2971 RMK AO2 RAE16 SLP068 P0000 T00720061 $=
201702202353 METAR KSEA 202353Z 18005KT 10SM -RA SCT006 BKN024 OVC032 07/06 A2969 RMK AO2 RAE21B52 SLP062 P0002 60016 T00670061 10072 20061 51039 $=
201702202308 SPECI KSEA 202308Z 20007KT 10SM -RA SCT005 BKN018 OVC033 07/06 A2967 RMK AO2 P0001 T00720061 $=
201702202253 METAR KSEA 202253Z 20005KT 10SM -RA SCT005 BKN010 OVC035 07/06 A2966 RMK AO2 SLP052 P0003 T00670056 $=
201702202240 SPECI KSEA 202240Z 21007KT 10SM -RA SCT005 BKN010 OVC019 07/06 A2966 RMK AO2 P0003 T00670056 $=
201702202232 SPECI KSEA 202232Z 21006KT 8SM -RA SCT005 BKN018 OVC024 07/06 A2965 RMK AO2 P0003 T00670061 $=
201702202153 METAR KSEA 202153Z 29006KT 7SM -RA BKN005 OVC020 07/06 A2963 RMK AO2 SLP040 P0004 T00670061 $=
201702202134 SPECI KSEA 202134Z 27006KT 7SM -RA BKN006 OVC028 07/06 A2961 RMK AO2 P0003 T00670061 $=
201702202116 SPECI KSEA 202116Z 29005KT 7SM -RA SCT006 SCT025 OVC036 07/06 A2959 RMK AO2 P0001 T00720061 $=
201702202053 METAR KSEA 202053Z 29005KT 7SM -RA BKN006 OVC025 07/06 A2957 RMK AO2 SLP022 P0004 60007 T00670061 53030 $=
201702202017 SPECI KSEA 202017Z 32009KT 7SM -RA BKN006 OVC029 07/06 A2955 RMK AO2 P0001 T00720061 $=
201702201953 METAR KSEA 201953Z 33011KT 8SM -RA SCT009 BKN033 OVC045 07/06 A2953 RMK AO2 SLP006 P0002 T00670061 $=
201702201853 METAR KSEA 201853Z 36012KT 9SM -RA FEW008 OVC036 07/05 A2949 RMK AO2 SLP993 P0001 T00670050 $=
201702201753 METAR KSEA 201753Z 01011KT 7SM -RA FEW007 BKN036 OVC055 06/04 A2948 RMK AO2 SLP991 P0002 60003 T00610044 10061 20050 55001 $=
201702201653 METAR KSEA 201653Z 01014KT 10SM -RA FEW007 BKN039 OVC055 06/04 A2947 RMK AO2 SLP987 P0001 T00560039 $=
201702201553 METAR KSEA 201553Z 01011KT 10SM -RA FEW008 BKN050 OVC070 06/04 A2947 RMK AO2 SLP988 P0000 T00560044 $=
201702201453 METAR KSEA 201453Z 01008KT 10SM -RA FEW035 OVC048 06/04 A2949 RMK AO2 RAB52 SLP992 P0000 60000 T00560044 56020 $=
201702201353 METAR KSEA 201353Z 00000KT 10SM BKN040 OVC055 05/04 A2951 RMK AO2 SLP001 T00500039 $=
201702201253 METAR KSEA 201253Z 36003KT 10SM BKN037 OVC045 05/04 A2952 RMK AO2 SLP002 T00500039 $=
201702201153 METAR KSEA 201153Z 03006KT 10SM BKN036 OVC045 05/04 A2955 RMK AO2 RAE09 SLP013 P0000 60001 7//// T00500039 10061 20044 58019 $=
201702201053 METAR KSEA 201053Z 00000KT 10SM -RA OVC040 05/03 A2959 RMK AO2 RAB45 SLP027 P0001 T00500033 $=
201702200953 METAR KSEA 200953Z 00000KT 10SM BKN042 OVC050 06/03 A2960 RMK AO2 SLP030 T00560028 $=
201702200853 METAR KSEA 200853Z 00000KT 10SM FEW040 BKN070 BKN200 05/02 A2960 RMK AO2 SLP032 T00500022 58002 $=
201702200753 METAR KSEA 200753Z 17003KT 10SM SCT037 BKN080 OVC210 06/02 A2961 RMK AO2 SLP036 T00560022 400830044 $=
201702200653 METAR KSEA 200653Z 18007KT 10SM FEW035 SCT080 SCT210 06/02 A2961 RMK AO2 SLP035 T00610022 $=
201702200553 METAR KSEA 200553Z 19007KT 10SM FEW055 FEW090 06/03 A2961 RMK AO2 SLP035 60000 T00610028 10083 20061 51016 $=
201702200453 METAR KSEA 200453Z 18008KT 10SM BKN055 07/03 A2960 RMK AO2 SLP030 T00720028 $=
201702200353 METAR KSEA 200353Z 18007KT 10SM SCT038 BKN046 07/03 A2958 RMK AO2 SLP025 T00720028 $=
201702200253 METAR KSEA 200253Z 18011KT 10SM BKN034 OVC045 08/03 A2956 RMK AO2 RAE09 SLP018 P0000 60000 T00780033 53020 $=
201702200153 METAR KSEA 200153Z 19011KT 10SM -RA BKN031 OVC039 08/04 A2954 RMK AO2 RAB52 SLP011 P0000 T00780039 $=
201702200053 METAR KSEA 200053Z 17012KT 10SM FEW044 SCT080 BKN100 08/04 A2951 RMK AO2 SLPNO T00830039 $=
201702192353 METAR KSEA 192353Z 17018KT 10SM FEW028 OVC032 08/04 A2950 RMK AO2 SLP998 60002 T00830039 10083 20072 53006 $=
201702192253 METAR KSEA 192253Z 16010KT 10SM BKN045 BKN055 OVC070 08/04 A2949 RMK AO2 RAE25 SLP994 P0002 T00780044 $=
201702192153 METAR KSEA 192153Z 16009KT 10SM -RA OVC035 07/04 A2949 RMK AO2 RAB15E26B44 SLP995 P0000 T00720039 $=
201702192053 METAR KSEA 192053Z 17018G23KT 10SM FEW031 SCT040 OVC049 08/04 A2949 RMK AO2 RAE08 SLP992 P0000 60000 T00780044 51013 $=
201702191953 METAR KSEA 191953Z 19013G22KT 10SM -RA FEW027 BKN042 OVC050 08/04 A2948 RMK AO2 RAE05B53 SLP991 P0000 T00780039 $=
201702191853 METAR KSEA 191853Z 19007KT 9SM -RA BKN041 BKN049 OVC060 07/04 A2946 RMK AO2 RAB51 SLP985 P0000 T00720044 $=
201702191753 METAR KSEA 191753Z 19009KT 10SM BKN055 BKN075 07/04 A2945 RMK AO2 SLP979 6//// T00720044 10072 20044 51015 $=
201702191653 METAR KSEA 191653Z 15008KT 10SM FEW040 BKN065 OVC080 06/04 A2943 RMK AO2 RAB11E21 SLP975 P0000 T00610044 $=
201702191553 METAR KSEA 191553Z 16006KT 10SM BKN035 OVC060 05/04 A2942 RMK AO2 RAE49 SLP970 P0002 T00500044 $=
201702191453 METAR KSEA 191453Z 14006KT 10SM -RA FEW032 OVC039 06/04 A2940 RMK AO2 RAB03E36B40 SLP963 P0002 6//// T00560039 $=
201702191439 SPECI KSEA 191439Z 14004KT 10SM OVC042 06/04 A2939 RMK AO2 RAB03E36 P0002 T00560039 $=
201702191353 METAR KSEA 191353Z 13003KT 10SM SCT050 SCT100 05/03 A2938 RMK AO2 SLPNO T00500033=
201702191253 METAR KSEA 191253Z 13003KT 10SM SCT050 SCT100 06/06 A2939 RMK AO2 SLPNO T00610055=
201702191153 METAR KSEA 191153Z 00000KT 10SM FEW015 BKN050 OVC070 07/05 A2941 RMK AO2 SLPNO T00670054=
201702191053 METAR KSEA 191053Z 00000KT 10SM FEW015 BKN050 OVC070 06/05 A2943 RMK AO2 SLPNO T00640053=
201702190953 METAR KSEA 190953Z 00000KT 10SM FEW015 BKN070 OVC100 06/05 A2943 RMK AO2 SLPNO T00610050=
201702190900 METAR KSEA NIL=
201702190853 METAR KSEA 190853Z 15005KT 10SM FEW016 BKN070 OVC100 06/05 A2943 RMK AO2 SLP975 60000 T00610050 58002=
201702190800 METAR KSEA NIL=
201702190738 SPECI KSEA 190738Z 15007KT 10SM FEW007 BKN050 BKN065 06/06 A2944 RMK AO2 T00610056=
201702190653 METAR KSEA 190653Z 18007KT 10SM FEW015 BKN032 OVC070 06/06 A2944 RMK AO2 RAB03E12 SLP977 P0000 T00610056=
201702190553 METAR KSEA 190553Z 18008KT 10SM SCT020 BKN032 OVC065 07/06 A2944 RMK AO2 RAB38E48 SLP977 P0000 60001 T00670056 10072 20067 51006=
201702190531 SPECI KSEA 190531Z 19007KT 10SM SCT010 BKN020 OVC048 07/06 A2944 RMK AO2 T00670056=
201702190453 METAR KSEA 190453Z 16005KT 10SM FEW008 BKN013 OVC038 07/06 A2943 RMK AO2 SLP975 T00670061=
201702190353 METAR KSEA 190353Z 18007KT 7SM FEW007 SCT011 BKN070 BKN180 07/06 A2943 RMK AO2 SLP973 T00670061=
201702190253 METAR KSEA 190253Z 17007KT 7SM SCT009 BKN027 OVC042 07/06 A2942 RMK AO2 SLP971 60001 T00670061 53003=
201702190230 SPECI KSEA 190230Z 18005KT 6SM BR FEW004 BKN012 OVC031 07/07 A2942 RMK AO2 T00670067=
201702190153 METAR KSEA 190153Z 17004KT 1 1/2SM BR FEW004 BKN012 OVC042 07/07 A2942 RMK AO2 SFC VIS 4 RAB14E32 SLP969 P0001 T00670067=
201702190136 SPECI KSEA 190136Z 17005KT 1 1/2SM BR FEW004 BKN012 OVC042 07/06 A2941 RMK AO2 SFC VIS 4 RAB14E32 P0001 T00670061=
201702190111 SPECI KSEA 190111Z 18007KT 6SM BR SCT007 BKN016 OVC040 07/06 A2941 RMK AO2 T00670061=
201702190053 METAR KSEA 190053Z 18008KT 8SM SCT016 BKN026 OVC038 07/06 A2941 RMK AO2 RAE22 SLP968 P0000 T00670061=
201702190022 SPECI KSEA 190022Z 17006KT 10SM SCT009 SCT029 OVC041 07/06 A2942 RMK AO2 RAE22 P0000 T00670061=
201702182353 METAR KSEA 182353Z 16005KT 10SM -RA SCT013 BKN027 OVC040 07/06 A2941 RMK AO2 SLP968 P0001 60007 T00670056 10067 20061 53000=
201702182305 SPECI KSEA 182305Z 19003KT 10SM -RA FEW006 BKN014 OVC022 07/05 A2941 RMK AO2 P0000 T00670050=
201702182253 METAR KSEA 182253Z 18004KT 10SM -RA FEW006 BKN016 OVC025 07/05 A2941 RMK AO2 SLP967 P0001 T00670050=
201702182228 SPECI KSEA 182228Z 16005KT 10SM -RA FEW008 BKN023 OVC036 07/05 A2941 RMK AO2 P0001 T00670050=
201702182153 METAR KSEA 182153Z 18005KT 10SM -RA SCT008 BKN030 OVC040 07/06 A2941 RMK AO2 RAE13B37 SLP968 P0000 T00670056=
201702182107 SPECI KSEA 182107Z 21007KT 9SM -RA SCT007 BKN016 OVC035 07/06 A2941 RMK AO2 P0000 T00670056=
201702182053 METAR KSEA 182053Z 19006KT 6SM -RA BR BKN007 BKN014 OVC047 07/06 A2941 RMK AO2 SLP967 P0003 60005 T00670056 58006=
201702181953 METAR KSEA 181953Z 17005KT 6SM -RA BR BKN007 BKN014 OVC020 07/06 A2942 RMK AO2 SLP970 P0001 T00670056=
201702181853 METAR KSEA 181853Z 36003KT 6SM -RA BR BKN005 OVC010 07/05 A2943 RMK AO2 SLP973 P0001 T00670050=
201702181800 SPECI KSEA 181800Z 01004KT 6SM -RA BR BKN005 BKN031 OVC041 06/05 A2943 RMK AO2 P0000 T00610050=
201702181753 METAR KSEA 181753Z 35006KT 5SM -RA BR BKN004 OVC031 06/05 A2943 RMK AO2 SLP974 P0001 60007 T00610050 10061 20056 58005=
201702181745 SPECI KSEA 181745Z 35005KT 6SM -RA BR BKN004 OVC031 06/05 A2943 RMK AO2 P0001 T00610050=
201702181722 SPECI KSEA 181722Z 36005KT 5SM -RA BR FEW004 SCT037 OVC049 06/05 A2944 RMK AO2 P0001 T00610050=
201702181653 METAR KSEA 181653Z 35006KT 5SM -RA BR OVC044 06/05 A2944 RMK AO2 RAE20B50 SLP976 P0001 T00560050=
201702181629 SPECI KSEA 181629Z 36007KT 4SM BR FEW006 BKN046 OVC055 06/04 A2944 RMK AO2 RAE20 P0000 T00560044=
201702181553 METAR KSEA 181553Z 01007KT 4SM -RA BR BKN032 OVC049 06/04 A2945 RMK AO2 SLP979 P0003 T00560044=
201702181453 METAR KSEA 181453Z 36007KT 6SM -RA BR OVC039 06/04 A2945 RMK AO2 SLP980 P0001 60002 T00560044 58003=
201702181353 METAR KSEA 181353Z 01008KT 8SM -RA SCT006 OVC042 06/04 A2946 RMK AO2 RAB29 SLP982 P0001 T00560044=
201702181326 SPECI KSEA 181326Z 02006KT 9SM FEW006 OVC046 06/04 A2946 RMK AO2 T00560044=
201702181253 METAR KSEA 181253Z 04010KT 10SM FEW010 SCT060 OVC070 06/04 A2945 RMK AO2 SLP982 T00610044=
201702181153 METAR KSEA 181153Z 01010KT 10SM OVC070 06/04 A2946 RMK AO2 SLP981 70001 T00610044 10067 20061 55003=
201702181053 METAR KSEA 181053Z 01012KT 10SM OVC100 06/04 A2945 RMK AO2 SLP980 T00610044=
201702180953 METAR KSEA 180953Z 02014KT 10SM BKN120 OVC180 06/04 A2946 RMK AO2 SLP982 T00610039=
201702180853 METAR KSEA 180853Z 01014KT 10SM SCT110 OVC200 06/04 A2946 RMK AO2 SLP984 T00610044 58015=
201702180753 METAR KSEA 180753Z 03012KT 10SM FEW120 OVC200 07/04 A2948 RMK AO2 SLP990 T00670044 401330056=
201702180653 METAR KSEA 180653Z 02011KT 10SM SCT120 OVC200 07/04 A2950 RMK AO2 SLP997 T00670044=
201702180553 METAR KSEA 180553Z 01012KT 10SM SCT160 OVC250 07/04 A2951 RMK AO2 SLP999 T00670044 10117 20067 56008=
201702180453 METAR KSEA 180453Z 02013KT 10SM SCT160 BKN250 07/04 A2952 RMK AO2 SLP003 T00720039=
201702180353 METAR KSEA 180353Z 02017KT 10SM FEW140 SCT250 07/04 A2952 RMK AO2 SLP005 T00720039=
201702180253 METAR KSEA 180253Z 01013KT 10SM FEW130 SCT250 08/04 A2953 RMK AO2 SLP009 T00780039 57008=
201702180153 METAR KSEA 180153Z 36014KT 10SM FEW060 BKN250 08/04 A2954 RMK AO2 SLP009 T00830039=
201702180053 METAR KSEA 180053Z 34013KT 10SM FEW040 FEW100 BKN250 09/04 A2956 RMK AO2 SLP015 T00940039=
201702172353 METAR KSEA 172353Z 36013KT 10SM FEW030 SCT100 SCT250 12/04 A2956 RMK AO2 SLP016 T01170044 10133 20100 56024=
201702172253 METAR KSEA 172253Z 34008KT 10SM FEW030 SCT180 BKN250 13/04 A2957 RMK AO2 SLP021 T01280039=
201702172153 METAR KSEA 172153Z 01008KT 10SM FEW030 SCT250 13/03 A2959 RMK AO2 SLP027 T01280028=
201702172053 METAR KSEA 172053Z 02006KT 10SM FEW030 FEW150 BKN250 12/04 A2963 RMK AO2 SLP040 T01170039 58028=
201702171953 METAR KSEA 171953Z 01007KT 10SM FEW025 FEW150 SCT250 11/03 A2967 RMK AO2 SLP054 T01110028=
201702171853 METAR KSEA 171853Z VRB05KT 10SM FEW020 SCT150 SCT250 11/04 A2969 RMK AO2 SLP062 T01110039=
201702171753 METAR KSEA 171753Z 36003KT 10SM FEW025 FEW180 BKN250 10/05 A2971 RMK AO2 SLP068 60001 T01000050 10100 20061 58010=
201702171653 METAR KSEA 171653Z 16004KT 10SM FEW035 SCT180 BKN250 07/04 A2973 RMK AO2 SLP077 T00720044=
201702171553 METAR KSEA 171553Z 12006KT 10SM FEW035 BKN180 07/05 A2975 RMK AO2 SLP081 T00670050=
201702171453 METAR KSEA 171453Z 11005KT 10SM FEW042 OVC200 07/05 A2974 RMK AO2 SLP079 60001 T00670050 57007=
201702171353 METAR KSEA 171353Z 13005KT 10SM SCT029 SCT042 BKN200 06/05 A2975 RMK AO2 RAB1254E03 SLP082 P0000 T00610050=
201702171253 METAR KSEA 171253Z 16005KT 10SM BKN038 07/06 A2975 RMK AO2 RAB34E51 SLP083 P0001 T00720056=
201702171153 METAR KSEA 171153Z 16004KT 10SM SCT031 BKN038 BKN065 06/06 A2976 RMK AO2 SLP085 60000 70008 T00610056 10083 20056 58002=
201702171053 METAR KSEA 171053Z 17005KT 10SM SCT027 BKN035 06/05 A2977 RMK AO2 SLP087 T00610050=
201702170953 METAR KSEA 170953Z 18007KT 10SM FEW031 BKN041 07/06 A2977 RMK AO2 SLP088 T00720061=
201702170853 METAR KSEA 170853Z 18008KT 10SM FEW019 BKN033 OVC040 08/06 A2977 RMK AO2 RAB0755E05B18E27 SLP087 P0000 60000 T00780061 51020=
201702170842 SPECI KSEA 170842Z 18009KT 10SM FEW013 BKN034 OVC041 08/06 A2977 RMK AO2 RAB0755E05B18E27 P0000 T00780061=
201702170833 SPECI KSEA 170833Z 18008KT 10SM SCT013 BKN021 OVC047 08/06 A2976 RMK AO2 RAB0755E05B18E27 P0000 T00780061=
201702170815 SPECI KSEA 170815Z 20008KT 10SM BKN013 BKN018 OVC028 08/06 A2976 RMK AO2 RAB0755E05 P0000 T00780061=
201702170753 METAR KSEA 170753Z 20010KT 10SM FEW012 BKN023 OVC034 08/06 A2976 RMK AO2 SLP083 T00780061 401170078=
201702170706 SPECI KSEA 170706Z 20009KT 10SM BKN026 BKN055 OVC070 08/06 A2974 RMK AO2 T00830056=
201702170653 METAR KSEA 170653Z 21010KT 10SM FEW028 BKN055 OVC065 08/06 A2974 RMK AO2 SLP077 T00830056=
201702170553 METAR KSEA 170553Z 21012KT 10SM FEW018 BKN070 OVC140 08/06 A2971 RMK AO2 SLP067 T00830056 10106 20083 51030=
201702170453 METAR KSEA 170453Z 20014KT 10SM SCT017 BKN100 OVC150 08/06 A2968 RMK AO2 SLP057 T00830056=
201702170419 SPECI KSEA 170419Z 20012KT 10SM BKN018 BKN100 OVC180 08/06 A2966 RMK AO2 T00830056=
201702170353 METAR KSEA 170353Z 21011KT 10SM SCT020 SCT100 OVC180 09/06 A2965 RMK AO2 SLP048 T00890056=
201702170253 METAR KSEA 170253Z 21012KT 10SM FEW022 FEW100 OVC180 09/06 A2962 RMK AO2 SLP036 T00890056 53027=
201702170153 METAR KSEA 170153Z 22011KT 10SM FEW025 SCT100 BKN200 09/06 A2959 RMK AO2 SLP026 T00940056=
201702170053 METAR KSEA 170053Z 21010KT 10SM FEW025 SCT090 BKN250 10/06 A2955 RMK AO2 SLP015 T01000061=
201702162353 METAR KSEA 162353Z 20010KT 10SM FEW022 SCT080 BKN230 11/07 A2954 RMK AO2 SLP008 T01060067 10111 20094 53015=
201702162253 METAR KSEA 162253Z 20008KT 10SM FEW022 SCT080 BKN230 11/07 A2950 RMK AO2 SLP996 T01060067=
201702162153 METAR KSEA 162153Z 20007KT 10SM FEW020 BKN080 BKN200 11/07 A2950 RMK AO2 SLP995 T01060067=
201702162053 METAR KSEA 162053Z 21008KT 10SM FEW017 BKN065 BKN160 11/07 A2949 RMK AO2 SLP993 T01060072 53010=
201702161953 METAR KSEA 161953Z 21007KT 10SM FEW015 SCT065 BKN160 BKN250 11/08 A2948 RMK AO2 SLP990 T01110078=
201702161853 METAR KSEA 161853Z 18009KT 10SM FEW008 FEW015 BKN230 11/08 A2947 RMK AO2 SLP986 T01060078=
201702161753 METAR KSEA 161753Z 21010KT 10SM FEW007 FEW012 BKN230 09/08 A2946 RMK AO2 SLP983 60008 T00940078 10111 20089 51012=
201702161653 METAR KSEA 161653Z 22009KT 10SM FEW007 SCT012 BKN230 09/08 A2945 RMK AO2 SLP980 T00890078=
201702161553 METAR KSEA 161553Z 22010KT 10SM FEW006 SCT011 BKN250 09/08 A2944 RMK AO2 SLP976 T00890078=
201702161453 METAR KSEA 161453Z 21006KT 10SM FEW006 BKN011 OVC026 09/08 A2943 RMK AO2 SLP971 60008 T00890083 51010=
201702161431 SPECI KSEA 161431Z 18005KT 10SM FEW006 SCT011 OVC024 09/08 A2943 RMK AO2 T00940083=
201702161353 METAR KSEA 161353Z 22005KT 10SM FEW006 BKN011 OVC021 09/08 A2942 RMK AO2 RAB1257E26 SLP970 P0002 T00940083=
201702161334 SPECI KSEA 161334Z 22006KT 10SM SCT006 BKN011 OVC021 09/08 A2942 RMK AO2 RAB1257E26 P0002 T00940083=
201702161253 METAR KSEA 161253Z 27004KT 10SM BKN006 BKN010 OVC017 09/09 A2942 RMK AO2 RAE24 SLP967 P0006 T00940094=
201702161242 SPECI KSEA 161242Z 26004KT 8SM BKN006 BKN010 OVC015 10/09 A2941 RMK AO2 RAE24 P0006 T01000094=
201702161210 SPECI KSEA 161210Z 26007KT 2SM RA BR FEW005 BKN008 OVC036 10/09 A2941 RMK AO2 SFC VIS 4 P0002 T01000094=
201702161153 METAR KSEA 161153Z 16007KT 2SM -RA SCT010 BKN020 OVC050 11/11 A2940 RMK AO2 SFC VIS 7 SLP961 P0004 60050 70150 T01060106 10117 20100 58007=
201702161139 SPECI KSEA 161139Z 14009KT 2SM -RA SCT011 BKN017 OVC050 11/11 A2940 RMK AO2 SFC VIS 7 P0004 T01110106=
201702161135 SPECI KSEA 161135Z 14010KT 8SM -RA SCT011 BKN017 OVC050 11/11 A2940 RMK AO2 P0004 T01110106=
201702161114 SPECI KSEA 161114Z 17009KT 8SM -RA FEW012 BKN032 OVC060 11/11 A2941 RMK AO2 P0002 T01110106=
201702161053 METAR KSEA 161053Z 15009KT 9SM -RA SCT013 BKN025 OVC048 11/11 A2941 RMK AO2 SLP964 P0009 T01110106=
201702161043 SPECI KSEA 161043Z 15009KT 8SM -RA FEW009 BKN025 OVC055 11/11 A2940 RMK AO2 P0008 T01110106=
201702161007 SPECI KSEA 161007Z 15009KT 9SM -RA FEW011 BKN018 OVC049 12/12 A2942 RMK AO2 P0001 T01170117=
201702160953 METAR KSEA 160953Z 18011KT 7SM -RA FEW012 SCT019 OVC055 12/11 A2941 RMK AO2 SLP966 P0015 T01170111=
201702160915 SPECI KSEA 160915Z 18011KT 7SM -RA SCT004 BKN015 OVC047 12/11 A2940 RMK AO2 P0006 T01170111=
201702160853 METAR KSEA 160853Z 14010KT 5SM RA BR BKN005 BKN010 OVC047 10/09 A2942 RMK AO2 SLP968 P0015 60022 T01000094 55001=
201702160849 SPECI KSEA 160849Z 15007KT 5SM -RA BR BKN005 BKN012 OVC047 10/10 A2942 RMK AO2 P0014=
201702160845 SPECI KSEA 160845Z 14008KT 6SM RA BR SCT007 BKN021 OVC049 10/09 A2941 RMK AO2 P0012 T01000094=
201702160822 SPECI KSEA 160822Z 13009KT 110V170 5SM RA BR SCT023 BKN035 OVC049 10/09 A2941 RMK AO2 P0007 T01000094=
201702160753 METAR KSEA 160753Z 14009KT 4SM -RA BR FEW020 BKN029 OVC034 10/09 A2941 RMK AO2 SLP967 P0005 T01000089 401220072=
201702160653 METAR KSEA 160653Z 13006KT 10SM -RA OVC060 11/09 A2942 RMK AO2 SLP968 P0002 T01060094=
201702160553 METAR KSEA 160553Z 13008KT 10SM -RA FEW036 OVC060 11/09 A2944 RMK AO2 SLP976 P0002 60020 T01060094 10122 20100 56015=
201702160453 METAR KSEA 160453Z 13009KT 8SM -RA FEW020 BKN043 OVC070 12/10 A2945 RMK AO2 SLP979 P0006 T01170100=
201702160353 METAR KSEA 160353Z 13006KT 10SM -RA BKN033 OVC042 12/09 A2946 RMK AO2 SLP982 P0002 T01170094=
201702160253 METAR KSEA 160253Z 12008KT 9SM -RA FEW035 BKN050 OVC070 11/09 A2948 RMK AO2 RAB06 SLP990 P0003 60010 T01110094 56006=
201702160153 METAR KSEA 160153Z 14005KT 10SM OVC043 11/09 A2948 RMK AO2 RAE0054B20E33 SLP991 P0001 T01060094=
201702160053 METAR KSEA 160053Z 11009KT 10SM -RA BKN040 OVC048 10/09 A2949 RMK AO2 SLP993 P0006 T01000089=
201702152353 METAR KSEA 152353Z 11011KT 3SM -RA BR FEW023 OVC035 10/09 A2950 RMK AO2 SLP997 P0006 60049 T01000089 10106 20100 56052=
201702152253 METAR KSEA 152253Z 10011KT 6SM -RA BR OVC046 10/09 A2953 RMK AO2 PRESFR SLP007 P0011 T01000089=
201702152153 METAR KSEA 152153Z 10009KT 6SM -RA BR FEW008 BKN049 OVC060 11/09 A2961 RMK AO2 SLP033 P0008 T01060094=
201702152053 METAR KSEA 152053Z 11010KT 6SM -RA BR FEW005 OVC039 10/09 A2966 RMK AO2 SLP050 P0011 60024 T01000089 58031=
201702151953 METAR KSEA 151953Z 12007KT 6SM -RA BR FEW005 BKN033 OVC048 11/09 A2971 RMK AO2 SLP068 P0006 T01060094=
201702151853 METAR KSEA 151853Z 12008KT 7SM -RA FEW005 BKN046 OVC055 10/09 A2973 RMK AO2 SLP074 P0007 T01000094=
201702151753 METAR KSEA 151753Z 12008KT 7SM -RA FEW005 BKN035 OVC047 11/09 A2975 RMK AO2 SLP081 P0003 60031 T01060094 10106 20078 58009=
201702151653 METAR KSEA 151653Z 16007KT 5SM -RA BR FEW004 OVC033 10/09 A2977 RMK AO2 RAB01 SLP087 P0003 T01000094=
201702151553 METAR KSEA 151553Z 14008KT 10SM FEW005 OVC036 10/09 A2977 RMK AO2 RAE25 SLP087 P0002 T01000094=
201702151453 METAR KSEA 151453Z 15007KT 3SM -RA BR FEW003 OVC032 10/09 A2978 RMK AO2 SLP091 P0006 60023 T01000094 52002=
201702151448 SPECI KSEA 151448Z 15006KT 1 1/2SM -RA BR SCT003 OVC032 09/09 A2978 RMK AO2 VIS W 2 1/2 P0006=
201702151431 SPECI KSEA 151431Z 13005KT 1 1/2SM -RA BR BKN003 OVC032 09/09 A2978 RMK AO2 VIS W 2 1/2 P0005 T00940089=
201702151353 METAR KSEA 151353Z 20003KT 4SM -RA BR FEW015 BKN032 OVC042 09/09 A2979 RMK AO2 SLP094 P0008 T00890089=
201702151253 METAR KSEA 151253Z 12006KT 5SM -RA BR FEW029 OVC036 08/08 A2976 RMK AO2 SLP086 P0009 T00830083=
201702151223 SPECI KSEA 151223Z 11007KT 4SM -RA BR SCT007 BKN030 OVC036 08/08 A2977 RMK AO2 P0005 T00830078=
201702151211 SPECI KSEA 151211Z 11007KT 4SM -RA BR BKN006 OVC034 08/08 A2977 RMK AO2 P0004 T00830078=
201702151201 SPECI KSEA 151201Z 12005KT 1 1/2SM RA BR BKN006 BKN034 OVC043 08/08 A2977 RMK AO2 P0003 T00830078=
201702151153 METAR KSEA 151153Z 00000KT 3SM RA BR SCT006 BKN034 OVC043 08/08 A2977 RMK AO2 SLP089 P0021 60074 70078 T00780078 10083 20072 57004=
201702151144 SPECI KSEA 151144Z 13004KT 2SM RA BR FEW008 BKN036 OVC043 08/08 A2978 RMK AO2 P0018 T00780078=
201702151129 SPECI KSEA 151129Z 13003KT 1 1/2SM RA BR FEW028 OVC037 08/07 A2977 RMK AO2 P0012 T00780072=
201702151053 METAR KSEA 151053Z 00000KT 3SM R16L/2800VP6000FT RA BR FEW016 OVC037 08/07 A2978 RMK AO2 SLP090 P0013 T00780072=
201702151044 SPECI KSEA 151044Z 00000KT 3SM R16L/2800VP6000FT -RA BR FEW016 BKN037 OVC044 07/07 A2978 RMK AO2 P0011 T00720067=
201702151004 SPECI KSEA 151004Z 32005KT 2SM -RA BR SCT001 OVC041 07/07 A2978 RMK AO2 P0003 T00720072=
201702150953 METAR KSEA 150953Z 30004KT 3SM RA BR OVC041 07/07 A2978 RMK AO2 SLP092 P0013 T00720067=
201702150853 METAR KSEA 150853Z 10005KT 8SM -RA OVC049 08/06 A2979 RMK AO2 SLP093 P0009 60027 T00780061 56032=
201702150753 METAR KSEA 150753Z 09007KT 6SM -RA BR OVC048 08/06 A2981 RMK AO2 SLP102 P0009 T00780061 401440022=
201702150653 METAR KSEA 150653Z 00000KT 7SM -RA OVC047 08/06 A2985 RMK AO2 SLP116 P0009 T00780061=
201702150553 METAR KSEA 150553Z 15004KT 10SM -RA OVC055 08/06 A2988 RMK AO2 SLP126 P0002 60004 T00830056 10122 20083 58003=
201702150453 METAR KSEA 150453Z 16006KT 10SM -RA OVC070 08/05 A2990 RMK AO2 SLP133 P0001 T00830050=
201702150353 METAR KSEA 150353Z 20003KT 10SM -RA BKN075 OVC095 09/04 A2989 RMK AO2 RAB29 SLP130 P0001 T00940039=
201702150253 METAR KSEA 150253Z 21003KT 10SM OVC090 11/03 A2989 RMK AO2 SLP129 T01060028 55014=
201702150153 METAR KSEA 150153Z 18003KT 10SM OVC100 12/01 A2989 RMK AO2 SLP128 T01170006=
201702150053 METAR KSEA 150053Z 15005KT 10SM OVC100 12/01 A2989 RMK AO2 SLP130 T01170006=
201702142353 METAR KSEA 142353Z 21004KT 10SM SCT070 OVC095 12/M01 A2993 RMK AO2 SLP142 T01221011 10144 20072 56026=
201702142253 METAR KSEA 142253Z 25004KT 10SM SCT140 BKN220 13/M01 A2995 RMK AO2 SLP148 T01331006=
201702142153 METAR KSEA 142153Z 19003KT 10SM FEW080 FEW140 BKN220 14/00 A2997 RMK AO2 SLP154 T01390000=
201702142053 METAR KSEA 142053Z 22005KT 10SM FEW140 BKN210 12/00 A3001 RMK AO2 SLP170 T01170000 58023=
201702141953 METAR KSEA 141953Z 20004KT 10SM FEW160 BKN210 11/03 A3003 RMK AO2 SLP176 ACSL DSNT SE T01110033=
201702141853 METAR KSEA 141853Z 00000KT 10SM FEW160 BKN200 08/03 A3007 RMK AO2 SLP188 T00830033=
201702141753 METAR KSEA 141753Z 00000KT 10SM FEW170 BKN220 07/03 A3008 RMK AO2 SLP193 T00720033 10072 20022 58005=
201702141653 METAR KSEA 141653Z 00000KT 10SM FEW180 BKN240 07/03 A3010 RMK AO2 SLP200 T00670033=
201702141553 METAR KSEA 141553Z 20004KT 10SM BKN220 BKN280 04/03 A3010 RMK AO2 SLP203 T00390028=
201702141453 METAR KSEA 141453Z 17003KT 10SM BKN250 03/02 A3009 RMK AO2 SLP200 T00280017 55004=
201702141353 METAR KSEA 141353Z 12005KT 10SM FEW250 04/02 A3009 RMK AO2 SLP196 T00390022=
201702141253 METAR KSEA 141253Z 15006KT 10SM FEW250 03/01 A3010 RMK AO2 SLP201 T00330011=
201702141153 METAR KSEA 141153Z 11005KT 10SM FEW250 04/03 A3011 RMK AO2 SLP202 T00390028 10094 20022 56016=
201702141053 METAR KSEA 141053Z 22003KT 10SM FEW250 03/02 A3012 RMK AO2 SLP206 T00330017=
201702140953 METAR KSEA 140953Z 13005KT 10SM FEW250 05/01 A3012 RMK AO2 SLP208 T00500011=
201702140853 METAR KSEA 140853Z 15003KT 10SM SCT250 04/03 A3016 RMK AO2 SLP220 T00390028 53006=
201702140753 METAR KSEA 140753Z 00000KT 10SM SCT250 05/02 A3014 RMK AO2 SLP215 T00500022 401390017=
201702140653 METAR KSEA 140653Z 18007KT 10SM SCT250 08/M01 A3013 RMK AO2 SLP210 T00781006=
201702140553 METAR KSEA 140553Z 18003KT 10SM FEW250 07/02 A3014 RMK AO2 SLP214 T00670022 10139 20056 56001=
201702140453 METAR KSEA 140453Z 00000KT 10SM CLR 06/02 A3014 RMK AO2 SLP214 T00610022=
201702140353 METAR KSEA 140353Z 13004KT 10SM CLR 08/03 A3014 RMK AO2 SLP215 T00780028=
201702140253 METAR KSEA 140253Z 00000KT 10SM FEW250 07/02 A3014 RMK AO2 SLP216 T00670022 55001=
201702140153 METAR KSEA 140153Z 00000KT 10SM FEW250 09/03 A3013 RMK AO2 SLP212 T00890028=
201702140053 METAR KSEA 140053Z 27005KT 10SM FEW250 11/03 A3013 RMK AO2 SLP212 T01110033=
201702132353 METAR KSEA 132353Z 35006KT 10SM FEW250 14/03 A3014 RMK AO2 SLP214 T01390028 10139 20061 56024=
201702132253 METAR KSEA 132253Z 36006KT 10SM FEW250 13/03 A3016 RMK AO2 SLP219 T01330028=
201702132153 METAR KSEA 132153Z 01005KT 10SM FEW250 12/03 A3018 RMK AO2 SLP229 T01220028=
201702132053 METAR KSEA 132053Z 02008KT 10SM FEW250 11/02 A3021 RMK AO2 SLP240 T01110022 58016=
201702131953 METAR KSEA 131953Z 36010KT 10SM FEW250 10/03 A3024 RMK AO2 SLP248 T01000028=
201702131853 METAR KSEA 131853Z 02015KT 10SM FEW250 08/01 A3025 RMK AO2 SLP253 T00780011=
201702131753 METAR KSEA 131753Z 01012KT 10SM FEW250 06/02 A3026 RMK AO2 SLP256 T00610017 10061 20017 58003=
201702131653 METAR KSEA 131653Z 02014KT 10SM FEW020 FEW250 04/02 A3027 RMK AO2 SLP260 T00440017=
201702131553 METAR KSEA 131553Z 02011KT 10SM FEW020 FEW250 02/01 A3027 RMK AO2 SLP260 T00220011=
201702131453 METAR KSEA 131453Z 02011KT 10SM FEW250 02/01 A3027 RMK AO2 SLP260 T00220006 56018=
201702131353 METAR KSEA 131353Z 02010KT 9SM CLR 02/01 A3028 RMK AO2 SLP265 T00220011=
201702131253 METAR KSEA 131253Z 36007KT 9SM CLR 02/01 A3030 RMK AO2 SLP270 T00170011=
201702131153 METAR KSEA 131153Z 02011KT 10SM CLR 02/01 A3032 RMK AO2 SLP277 T00220011 10050 20022 58013=
201702131053 METAR KSEA 131053Z 02010KT 10SM CLR 03/02 A3034 RMK AO2 SLP283 T00280017=
201702130953 METAR KSEA 130953Z 01008KT 10SM CLR 02/01 A3035 RMK AO2 SLP286 T00220011=
201702130853 METAR KSEA 130853Z 02010KT 10SM CLR 03/01 A3036 RMK AO2 SLP290 T00330011 55001=
201702130753 METAR KSEA 130753Z 01006KT 10SM CLR 03/01 A3036 RMK AO2 SLP291 T00280006 401060011=
201702130653 METAR KSEA 130653Z 02009KT 10SM CLR 04/01 A3036 RMK AO2 SLP290 T00440011=
201702130553 METAR KSEA 130553Z 01009KT 10SM CLR 04/03 A3036 RMK AO2 SLP292 T00440028 10106 20033 55004=
201702130453 METAR KSEA 130453Z 35007KT 10SM CLR 06/01 A3036 RMK AO2 SLP290 T00560011=
201702130353 METAR KSEA 130353Z 02009KT 10SM CLR 06/01 A3036 RMK AO2 SLP292 T00560011=
201702130253 METAR KSEA 130253Z 01005KT 10SM CLR 05/01 A3038 RMK AO2 SLP296 T00500006 55000=
201702130153 METAR KSEA 130153Z 36003KT 10SM FEW250 07/01 A3037 RMK AO2 SLP293 T00670011=
201702130053 METAR KSEA 130053Z 31005KT 10SM FEW250 08/02 A3037 RMK AO2 SLP293 T00830017=
201702122353 METAR KSEA 122353Z 00000KT 10SM FEW250 10/00 A3038 RMK AO2 SLP296 T01000000 10106 20039 58012=
201702122253 METAR KSEA 122253Z 35006KT 10SM FEW210 09/00 A3039 RMK AO2 SLP301 T00940000=
201702122153 METAR KSEA 122153Z 31005KT 10SM FEW030 SCT160 SCT210 08/02 A3041 RMK AO2 SLP307 T00830022=
201702122053 METAR KSEA 122053Z 33005KT 10SM FEW030 SCT100 BKN200 09/01 A3041 RMK AO2 SLP308 T00890011 58014=
201702121953 METAR KSEA 121953Z 04006KT 10SM FEW020 SCT060 BKN170 07/01 A3043 RMK AO2 PRESFR SLP313 T00720006=
201702121853 METAR KSEA 121853Z 03007KT 10SM FEW020 SCT050 BKN190 05/01 A3046 RMK AO2 SLP323 T00500011=
201702121753 METAR KSEA 121753Z 34005KT 10SM FEW015 SCT070 OVC180 04/02 A3046 RMK AO2 SLP323 T00390017 10039 20011 53001=
201702121653 METAR KSEA 121653Z 02004KT 10SM FEW010 SCT090 OVC180 03/01 A3045 RMK AO2 SLP321 T00330011=
201702121553 METAR KSEA 121553Z 32003KT 10SM FEW010 SCT120 OVC180 01/01 A3045 RMK AO2 SLP319 T00110006=
201702121453 METAR KSEA 121453Z 02003KT 10SM BKN200 02/01 A3045 RMK AO2 SLP322 T00170006 56006=
201702121353 METAR KSEA 121353Z 04004KT 10SM SCT200 02/01 A3046 RMK AO2 SLP324 T00220006=
201702121253 METAR KSEA 121253Z 03005KT 10SM SCT200 02/00 A3046 RMK AO2 SLP325 T00170000=
201702121153 METAR KSEA 121153Z 00000KT 10SM BKN200 03/00 A3047 RMK AO2 SLP327 T00280000 10050 20011 56013=
201702121053 METAR KSEA 121053Z 12003KT 10SM BKN200 03/00 A3049 RMK AO2 SLP332 T00280000=
201702120953 METAR KSEA 120953Z 08004KT 10SM FEW170 BKN200 03/00 A3049 RMK AO2 SLP332 T00330000=
201702120853 METAR KSEA 120853Z 16003KT 10SM BKN180 03/00 A3051 RMK AO2 SLP340 T00330000 55003=
201702120753 METAR KSEA 120753Z 13005KT 10SM BKN200 03/01 A3050 RMK AO2 SLP337 T00330006 400940033=
201702120653 METAR KSEA 120653Z 13005KT 10SM BKN200 03/01 A3051 RMK AO2 SLP341 T00330006=
201702120553 METAR KSEA 120553Z 12007KT 10SM BKN200 05/01 A3052 RMK AO2 SLP344 T00500011 10089 20050 58004=
201702120453 METAR KSEA 120453Z 11006KT 10SM BKN210 06/01 A3052 RMK AO2 SLP346 T00560011=
201702120353 METAR KSEA 120353Z 13004KT 10SM BKN180 BKN250 06/02 A3053 RMK AO2 SLP349 T00610017=
201702120253 METAR KSEA 120253Z 09006KT 10SM FEW030 OVC180 07/02 A3053 RMK AO2 SLP347 T00670022 53001=
201702120153 METAR KSEA 120153Z 08004KT 10SM FEW030 OVC240 07/02 A3053 RMK AO2 SLP347 T00720022=
201702120053 METAR KSEA 120053Z 13005KT 10SM FEW030 FEW060 BKN250 08/02 A3053 RMK AO2 SLP346 T00780017=
201702112353 METAR KSEA 112353Z 22005KT 10SM FEW025 SCT060 BKN250 09/00 A3053 RMK AO2 SLP346 T00890000 10094 20056 53009=
201702112253 METAR KSEA 112253Z 22008KT 10SM SCT025 BKN060 BKN250 09/01 A3051 RMK AO2 SLP342 T00940011=
201702112153 METAR KSEA 112153Z 23012KT 10SM FEW040 BKN050 09/02 A3051 RMK AO2 SLP340 SHRA N T00890022=
201702112053 METAR KSEA 112053Z 20010G14KT 10SM FEW027 BKN035 09/03 A3050 RMK AO2 SLP337 T00940028 51010=
201702111953 METAR KSEA 111953Z 19008KT 10SM BKN015 08/03 A3049 RMK AO2 SLP334 T00780033=
201702111940 SPECI KSEA 111940Z 21004KT 10SM BKN015 07/03 A3049 RMK AO2 T00720028=
201702111853 METAR KSEA 111853Z 19008KT 10SM SCT013 06/03 A3049 RMK AO2 SLP333 T00610028=
201702111828 SPECI KSEA 111828Z 20009KT 10SM SCT013 06/03 A3048 RMK AO2 T00610028=
201702111753 METAR KSEA 111753Z 19007KT 10SM BKN012 06/02 A3047 RMK AO2 SLP327 T00560022 10056 20033 53034=
201702111746 SPECI KSEA 111746Z 20007KT 10SM BKN012 05/02 A3046 RMK AO2 T00500022=
201702111717 SPECI KSEA 111717Z 18008KT 10SM SCT014 05/02 A3044 RMK AO2 T00500022=
201702111653 METAR KSEA 111653Z 16004KT 10SM BKN013 BKN200 04/02 A3044 RMK AO2 SLP316 T00440022=
201702111553 METAR KSEA 111553Z 17007KT 10SM BKN013 03/02 A3039 RMK AO2 SLP301 T00330017=
201702111453 METAR KSEA 111453Z 17007KT 10SM OVC012 04/02 A3037 RMK AO2 SLP293 T00390017 53023=
201702111353 METAR KSEA 111353Z 18007KT 10SM BKN012 03/02 A3034 RMK AO2 SLP284 T00330017=
201702111253 METAR KSEA 111253Z 20006KT 10SM OVC013 04/02 A3032 RMK AO2 SLP277 T00390022=
201702111153 METAR KSEA 111153Z 20007KT 10SM OVC012 04/02 A3030 RMK AO2 SLP269 70001 T00390022 10044 20039 53023=
201702111100 SPECI KSEA 111100Z 21009KT 10SM OVC013 04/02 A3028 RMK AO2 T00440022=
201702111053 METAR KSEA 111053Z 19006KT 10SM BKN015 04/02 A3028 RMK AO2 SLP262 T00390022=
201702111028 SPECI KSEA 111028Z 22008KT 10SM BKN015 04/02 A3027 RMK AO2 T00390022=
201702110953 METAR KSEA 110953Z 21010KT 10SM BKN013 04/02 A3025 RMK AO2 SLP252 T00390017=
201702110853 METAR KSEA 110853Z 20011KT 10SM BKN013 04/02 A3023 RMK AO2 SLP245 T00440022 51035=
201702110753 METAR KSEA 110753Z 20012KT 10SM OVC010 04/02 A3020 RMK AO2 SLP234 T00440022 400890039=
201702110653 METAR KSEA 110653Z 19011G16KT 10SM OVC011 04/02 A3016 RMK AO2 SLP222 T00440022=
201702110553 METAR KSEA 110553Z 22014G21KT 10SM BKN014 04/02 A3013 RMK AO2 SLP210 T00440022 10061 20039 53032=
201702110500 METAR KSEA NIL=
201702110353 METAR KSEA 110353Z 20011KT 10SM BKN017 05/02 A3005 RMK AO2 SLP184 T00500022=
201702110253 METAR KSEA 110253Z 20013G22KT 10SM BKN016 04/02 A3003 RMK AO2 SLP177 T00440022 51049=
201702110153 METAR KSEA 110153Z 20019G26KT 10SM FEW020 SCT080 SCT160 04/02 A2999 RMK AO2 PK WND 20033/0057 SLP164 T00440017=
201702110053 METAR KSEA 110053Z 21021G33KT 10SM FEW020 SCT080 SCT160 05/02 A2993 RMK AO2 PK WND 22033/0046 PRESRR SLP143 T00500017=
201702102353 METAR KSEA 102353Z 20023G28KT 10SM FEW018 BKN080 BKN120 06/02 A2988 RMK AO2 PK WND 21030/2338 RAE2257 SLP127 P0000 60001 T00560022 10083 20056 53026=
201702102313 SPECI KSEA 102313Z 22019G26KT 10SM SCT018 BKN050 06/04 A2987 RMK AO2 PK WND 23026/2255 RAE2257 P0000 T00610039=
201702102253 METAR KSEA 102253Z 23018G28KT 9SM -RA BKN018 OVC032 06/04 A2986 RMK AO2 PK WND 22031/2237 RAB29 SLP120 P0001 T00610039=
201702102153 METAR KSEA 102153Z 21020G27KT 10SM BKN022 OVC050 07/04 A2982 RMK AO2 PK WND 21031/2141 RAE08 SLP107 P0000 T00720039=
201702102053 METAR KSEA 102053Z 21019G27KT 10SM -RA BKN024 BKN035 OVC050 07/04 A2981 RMK AO2 PK WND 21036/1954 SLP101 P0000 60000 T00720039 53024=
201702101953 METAR KSEA 101953Z 20026G33KT 9SM -RA BKN027 OVC034 07/03 A2978 RMK AO2 PK WND 20037/1913 RAB22 SLP091 P0000 T00720033=
201702101932 SPECI KSEA 101932Z 20019G36KT 10SM -RA BKN028 OVC034 08/03 A2977 RMK AO2 PK WND 20037/1913 RAB22 P0000 T00780033=
201702101853 METAR KSEA 101853Z 20019G32KT 10SM BKN032 BKN050 OVC070 08/03 A2975 RMK AO2 PK WND 19035/1838 SLP084 T00780028=
201702101753 METAR KSEA 101753Z 20016G32KT 10SM BKN032 BKN044 08/02 A2973 RMK AO2 PK WND 20032/1749 SLP076 60000 T00830022 10089 20056 51010=
201702101653 METAR KSEA 101653Z 19016G23KT 10SM BKN031 BKN042 BKN085 08/03 A2973 RMK AO2 PK WND 18029/1603 SLP073 T00830033=
201702101553 METAR KSEA 101553Z 21017G24KT 10SM FEW026 BKN034 BKN043 08/03 A2971 RMK AO2 RAE1459 SLP069 P0000 T00780033=
201702101453 METAR KSEA 101453Z 21012KT 10SM -RA BKN030 OVC070 07/03 A2970 RMK AO2 RAB40 SLP065 P0000 60000 T00720033 53005=
201702101353 METAR KSEA 101353Z 18012KT 10SM BKN045 BKN100 07/03 A2967 RMK AO2 SLP056 T00720033=
201702101253 METAR KSEA 101253Z 17009KT 10SM FEW042 BKN110 07/04 A2968 RMK AO2 SLP057 T00670039=
201702101153 METAR KSEA 101153Z 19007KT 10SM SCT030 BKN035 07/05 A2969 RMK AO2 RAB12E41 SLP060 P0001 60001 70126 T00720050 10089 20072 53010=
201702101053 METAR KSEA 101053Z 20012KT 10SM FEW040 BKN049 OVC080 07/05 A2967 RMK AO2 RAE0954B15E27 SLP055 P0000 T00720050=
201702100953 METAR KSEA 100953Z 19012G20KT 10SM -RA FEW025 BKN055 OVC070 07/05 A2966 RMK AO2 PK WND 22027/0938 RAB44 SLP052 P0000 T00720050=
201702100853 METAR KSEA 100853Z 20011KT 10SM FEW034 BKN044 OVC070 07/05 A2966 RMK AO2 RAE50 SLP050 P0000 60000 T00720050 51024=
201702100753 METAR KSEA 100753Z 20008KT 10SM -RA BKN040 OVC060 08/04 A2963 RMK AO2 RAB32 SLP041 P0000 T00780044 401330039=
201702100653 METAR KSEA 100653Z 17008KT 10SM FEW047 BKN060 OVC085 08/05 A2961 RMK AO2 SLP035 T00780050=
201702100553 METAR KSEA 100553Z 18008KT 10SM FEW009 SCT050 SCT070 08/06 A2959 RMK AO2 PK WND 20026/0510 SLP025 60003 T00780056 10122 20078 53043=
201702100534 SPECI KSEA 100534Z 20011G19KT 10SM FEW009 BKN041 BKN050 08/07 A2956 RMK AO2 PK WND 20026/0510 T00780067=
201702100453 METAR KSEA 100453Z 22017G28KT 10SM FEW016 SCT022 BKN036 08/06 A2953 RMK AO2 PK WND 20030/0429 SLP008 T00830061=
201702100353 METAR KSEA 100353Z 21019G27KT 10SM FEW015 SCT035 09/07 A2949 RMK AO2 PK WND 22032/0329 SLP993 T00890067=
201702100253 METAR KSEA 100253Z 21015G22KT 10SM FEW007 SCT012 BKN050 10/08 A2946 RMK AO2 RAE13 SLP981 P0002 60003 T01000083 53024=
201702100207 SPECI KSEA 100207Z 22013G20KT 4SM -RA BR SCT007 BKN014 OVC021 11/09 A2944 RMK AO2 P0002 T01060094=
201702100153 METAR KSEA 100153Z 22012KT 3SM RA BR FEW007 SCT015 OVC022 11/09 A2943 RMK AO2 RAB31 SLP974 P0001 T01060089=
201702100127 SPECI KSEA 100127Z 20014G22KT 10SM BKN023 BKN033 11/09 A2942 RMK AO2 SHRA W-N T01060089=
201702100053 METAR KSEA 100053Z 21011KT 10SM FEW029 BKN046 BKN250 11/09 A2940 RMK AO2 RAB18E32 SLP961 SHRA S-W P0000 T01060094=
201702092353 METAR KSEA 092353Z 21011KT 10SM FEW031 SCT042 BKN075 BKN250 12/10 A2938 RMK AO2 PK WND 22037/2301 RAB10E33 SLP957 P0002 60024 T01220100 10133 20100 51036=
201702092253 METAR KSEA 092253Z 20021G27KT 10SM FEW017 BKN035 BKN200 13/09 A2934 RMK AO2 PK WND 21027/2253 RAB02E35 SLP943 SHRA W-N P0000 T01280089=
201702092229 SPECI KSEA 092229Z 20014G19KT 9SM -RA SCT015 BKN034 BKN200 12/09 A2934 RMK AO2 RAB02 P0000 T01220094=
201702092153 METAR KSEA 092153Z 22012KT 10SM FEW012 BKN018 BKN034 12/10 A2933 RMK AO2 PK WND 20032/2054 RAB39E49 TSE21 SLP940 P0000 T01220100=
201702092121 SPECI KSEA 092121Z 21019G27KT 10SM FEW010 BKN026 BKN250 13/09 A2930 RMK AO2 PK WND 20032/2054 TSE21 OCNL LTGICCG DSNT E CB DSNT E T01280094=
201702092053 METAR KSEA 092053Z 21023G33KT 10SM TS FEW008 SCT020CB BKN250 13/10 A2928 RMK AO2 PK WND 22033/2053 RAB1958E37 TSB47 SLP920 OCNL LTGICCG VC E-S TS E-S MOV NE P0013 60022 T01330100 53004=
201702092047 SPECI KSEA 092047Z 21018G27KT 10SM TS FEW008 SCT020CB BKN250 13/11 A2927 RMK AO2 PK WND 22027/2047 RAB1958E37 TSB47 OCNL LTGICCG VC SE-S TS SE-S MOV NE P0013=
201702092004 SPECI KSEA 092004Z 14010KT 7SM -RA FEW009 BKN013 OVC033 12/11 A2926 RMK AO2 RAB1958 P0000 T01220111=
201702091953 METAR KSEA 091953Z 14010KT 10SM SCT011 BKN024 OVC033 13/12 A2926 RMK AO2 RAE15 SLP915 P0003 T01280117=
201702091902 SPECI KSEA 091902Z 20007KT 6SM -RA BR SCT011 BKN027 OVC037 11/11 A2929 RMK AO2 P0001 T01110106=
201702091853 METAR KSEA 091853Z 19008KT 3SM RA BR FEW011 BKN030 OVC046 12/11 A2927 RMK AO2 SLP921 P0006 T01170106=
201702091753 METAR KSEA 091753Z 17015KT 8SM -RA FEW004 SCT011 OVC070 09/09 A2926 RMK AO2 SLP917 P0008 60098 T00940089 10100 20067 56011=
201702091747 SPECI KSEA 091747Z 14016KT 8SM -RA FEW004 SCT011 OVC070 09/08 A2926 RMK AO2 P0008=
201702091728 SPECI KSEA 091728Z 12012KT 7SM -RA FEW004 BKN011 OVC018 09/08 A2925 RMK AO2 P0007 T00890083=
201702091653 METAR KSEA 091653Z 13007KT 2 1/2SM RA BR FEW008 BKN013 OVC020 08/08 A2928 RMK AO2 SLP921 P0030 T00830083=
201702091633 SPECI KSEA 091633Z 12006KT 2 1/2SM RA BR FEW008 SCT013 OVC020 08/08 A2928 RMK AO2 P0018 T00830083=
201702091553 METAR KSEA 091553Z 13011KT 3SM RA BR SCT013 OVC025 09/09 A2927 RMK AO2 SLP921 P0021 T00890089=
201702091501 SPECI KSEA 091501Z 11008KT 3SM RA BR SCT016 OVC027 09/09 A2929 RMK AO2 P0002 T00940089=
201702091453 METAR KSEA 091453Z 12011KT 3SM RA BR SCT019 OVC030 09/09 A2930 RMK AO2 SLP928 P0020 60039 T00940089 58029=
201702091353 METAR KSEA 091353Z 14011KT 9SM -RA FEW006 BKN048 OVC070 09/09 A2934 RMK AO2 SLP943 P0008 T00940089=
201702091253 METAR KSEA 091253Z 14008KT 4SM RA BR SCT006 OVC034 08/08 A2938 RMK AO2 SLP955 P0011 T00830083=
201702091153 METAR KSEA 091153Z 15011KT 5SM -RA BR FEW006 OVC045 07/07 A2938 RMK AO2 SLP958 P0008 60052 70108 T00670067 10067 20033 56013=
201702091115 SPECI KSEA 091115Z 14011KT 6SM -RA BR FEW027 BKN033 OVC049 06/06 A2939 RMK AO2 P0002 T00560056=
201702091053 METAR KSEA 091053Z 13011KT 7SM -RA BKN025 OVC032 06/05 A2940 RMK AO2 SLP963 P0012 T00560050=
201702091030 SPECI KSEA 091030Z 15008KT 3SM RA BR FEW006 BKN030 OVC037 04/04 A2940 RMK AO2 P0009 T00440039=
201702091027 SPECI KSEA 091027Z 15009KT 2 1/2SM R16L/5000VP6000FT RA BR BKN030 OVC037 04/04 A2940 RMK AO2 P0008 T00440044=
201702091018 SPECI KSEA 091018Z 16006KT 1 1/2SM R16L/2200V5000FT -RA BR SCT002 OVC037 04/04 A2941 RMK AO2 P0006 T00390039=
201702090953 METAR KSEA 090953Z 24005KT 1/2SM R16L/2400VP6000FT -RA FG BKN002 OVC037 04/04 A2941 RMK AO2 SLP966 P0007 T00440044=
201702090853 METAR KSEA 090853Z 00000KT 6SM -RA BR FEW027 BKN050 OVC070 05/04 A2942 RMK AO2 PRESFR SLP971 P0012 60025 T00500044 58048=
201702090753 METAR KSEA 090753Z 13006KT 6SM RA BR FEW017 OVC040 04/04 A2948 RMK AO2 SLP991 P0009 T00440039 400440011=
201702090723 SPECI KSEA 090723Z 12007KT 6SM -RA BR SCT028 OVC050 04/03 A2950 RMK AO2 P0004 T00390033=
201702090653 METAR KSEA 090653Z 14008KT 7SM -RA OVC027 04/03 A2953 RMK AO2 SLP008 P0004 T00390033=
201702090553 METAR KSEA 090553Z 12007KT 6SM -RA BR OVC026 03/03 A2956 RMK AO2 SLP021 P0006 60035 T00330028 10039 20022 58023=
201702090453 METAR KSEA 090453Z 11010KT 5SM -RA BR BKN019 OVC024 03/03 A2959 RMK AO2 SLP029 P0007 T00330028=
201702090428 SPECI KSEA 090428Z 11007KT 3SM -RA BR FEW002 OVC017 04/03 A2961 RMK AO2 P0004 T00390028=
201702090353 METAR KSEA 090353Z 06004KT 2 1/2SM -RA BR SCT002 OVC018 03/03 A2962 RMK AO2 SLP040 P0009 T00330028=
201702090337 SPECI KSEA 090337Z 04004KT 2 1/2SM -RA BR SCT003 OVC016 02/02 A2963 RMK AO2 P0007 T00220022=
201702090318 SPECI KSEA 090318Z 35006KT 1SM R16L/4000VP6000FT RA BR BKN003 OVC010 03/02 A2963 RMK AO2 P0005 T00280022=
201702090303 SPECI KSEA 090303Z 35005KT 2SM R16L/4500VP6000FT -RA BR BKN003 OVC010 02/02 A2964 RMK AO2 P0002 T00220022=
201702090253 METAR KSEA 090253Z 01005KT 3SM -RA BR BKN003 OVC015 03/02 A2963 RMK AO2 SLP043 P0003 60013 T00280022 56031=
201702090234 SPECI KSEA 090234Z 04005KT 3SM -RA BR SCT003 OVC010 03/02 A2964 RMK AO2 P0003 T00280022=
201702090219 SPECI KSEA 090219Z 02005KT 2SM R16L/6000VP6000FT -RA BR SCT003 OVC010 02/02 A2965 RMK AO2 P0002 T00220022=
201702090153 METAR KSEA 090153Z 08007KT 4SM -RA BR FEW008 OVC022 03/02 A2966 RMK AO2 SLP053 P0004 T00280022=
201702090053 METAR KSEA 090053Z 05006KT 4SM -RA BR FEW005 SCT010 OVC023 03/02 A2969 RMK AO2 SLP063 P0006 T00280017=
201702090038 SPECI KSEA 090038Z 01006KT 3SM -RA BR FEW005 SCT010 OVC024 03/02 A2971 RMK AO2 P0005 T00280022=
201702082357 SPECI KSEA 082357Z 05007KT 2 1/2SM -RA BR SCT002 BKN010 OVC021 03/02 A2972 RMK AO2 P0000 T00280017=
201702082353 METAR KSEA 082353Z 05006KT 3SM -RA BR FEW002 BKN010 OVC023 03/02 A2972 RMK AO2 SLP075 P0004 60019 4/001 T00280017 10028 20011 56027=
201702082313 SPECI KSEA 082313Z 04006KT 2 1/2SM R16L/5000VP6000FT -RA BR SCT002 BKN007 OVC030 03/02 A2973 RMK AO2 P0002 T00280022=
201702082253 METAR KSEA 082253Z 02006KT 3SM -RA BR BKN002 OVC030 02/02 A2974 RMK AO2 SLP081 P0004 T00220022=
201702082233 SPECI KSEA 082233Z 35005KT 3SM -RA BR OVC003 02/02 A2975 RMK AO2 P0003 T00220017=
201702082213 SPECI KSEA 082213Z 35008KT 4SM -RA BR SCT003 BKN008 OVC040 02/02 A2976 RMK AO2 P0001 T00220017=
201702082153 METAR KSEA 082153Z 02007KT 5SM -RA BR FEW003 BKN041 OVC055 03/02 A2976 RMK AO2 SLP087 P0005 T00280017=
201702082128 SPECI KSEA 082128Z 02008KT 6SM -RA BR FEW003 OVC033 03/02 A2979 RMK AO2 P0003 T00280017=
201702082053 METAR KSEA 082053Z 03006KT 10SM -RA FEW010 SCT030 OVC048 03/02 A2981 RMK AO2 SLP102 P0001 60006 T00280017 58028=
201702081953 METAR KSEA 081953Z 03006KT 7SM -RA FEW009 OVC036 03/01 A2984 RMK AO2 SNE50 SLP112 P0003 T00280011=
201702081853 METAR KSEA 081853Z 36006KT 7SM -RASN FEW009 BKN031 OVC040 02/01 A2987 RMK AO2 SLP125 P0002 T00170011=
201702081753 METAR KSEA 081753Z 03007KT 7SM -RASN FEW004 OVC035 01/01 A2989 RMK AO2 RAE11B43 SLP132 T00110006 10022 20011 58020=
201702081714 SPECI KSEA 081714Z 02009KT 5SM -SN BR FEW004 SCT027 OVC036 02/01 A2992 RMK AO2 RAE11 P0000 T00170006=
201702081653 METAR KSEA 081653Z 36006KT 7SM -RASN OVC036 01/01 A2992 RMK AO2 SLP141 P0000 T00110006=
201702081553 METAR KSEA 081553Z 03007KT 10SM -RASN OVC040 02/00 A2993 RMK AO2 SNB52 SLP145 P0000 T00170000=
201702081453 METAR KSEA 081453Z 02006KT 10SM -RA OVC042 02/01 A2995 RMK AO2 RAB46 SLP151 P0000 60000 T00220006 58005=
201702081353 METAR KSEA 081353Z 36004KT 10SM BKN060 OVC075 02/01 A2996 RMK AO2 SLP156 T00170006=
201702081253 METAR KSEA 081253Z 08004KT 10SM OVC080 02/01 A2996 RMK AO2 SLP155 T00170006=
201702081153 METAR KSEA 081153Z 35004KT 10SM OVC070 02/01 A2997 RMK AO2 SLP156 60000 70001 T00170006 10028 20011 58003=
201702081053 METAR KSEA 081053Z 05005KT 10SM FEW013 OVC080 02/01 A2997 RMK AO2 SLP159 T00170006=
201702081018 SPECI KSEA 081018Z 06005KT 10SM SCT013 OVC080 02/01 A2999 RMK AO2 T00170006=
201702081007 SPECI KSEA 081007Z 05005KT 10SM SCT013 BKN028 OVC080 02/00 A2998 RMK AO2 T00220000=
201702080953 METAR KSEA 080953Z 00000KT 10SM BKN013 BKN028 OVC080 03/00 A2998 RMK AO2 SLP163 T00280000=
201702080908 SPECI KSEA 080908Z 00000KT 10SM BKN013 OVC025 02/00 A2998 RMK AO2 T00220000=
201702080900 SPECI KSEA 080900Z 00000KT 10SM SCT013 OVC026 02/01 A2998 RMK AO2 T00220006=
201702080853 METAR KSEA 080853Z 00000KT 10SM BKN013 OVC026 02/00 A2997 RMK AO2 SLP159 60000 T00220000 50015=
201702080829 SPECI KSEA 080829Z 11003KT 10SM OVC014 02/00 A2998 RMK AO2 T00220000=
201702080753 METAR KSEA 080753Z 00000KT 10SM FEW016 BKN026 OVC100 02/00 A2998 RMK AO2 SLP162 T00220000 400331011=
201702080653 METAR KSEA 080653Z 15004KT 10SM OVC021 02/00 A2995 RMK AO2 DZE49 SLP153 P0000 T00170000=
201702080553 METAR KSEA 080553Z 15006KT 9SM -DZ OVC022 02/00 A2993 RMK AO2 DZB09 SLP145 P0001 60001 4/003 T00170000 10033 20017 51026=
201702080509 SPECI KSEA 080509Z 14004KT 10SM -DZ BKN024 OVC044 02/00 A2992 RMK AO2 DZB09 P0000 T00220000=
201702080453 METAR KSEA 080453Z 10005KT 10SM FEW019 BKN031 OVC044 02/00 A2991 RMK AO2 SLP139 T00220000=
201702080433 SPECI KSEA 080433Z 16006KT 10SM SCT028 OVC043 02/00 A2990 RMK AO2 T00220000=
201702080412 SPECI KSEA 080412Z 06006KT 10SM FEW018 BKN026 OVC043 02/00 A2989 RMK AO2 T00220000=
201702080353 METAR KSEA 080353Z 34003KT 10SM FEW016 BKN042 OVC050 02/M01 A2990 RMK AO2 SLP134 T00171006=
201702080253 METAR KSEA 080253Z 04004KT 10SM FEW020 OVC041 03/M01 A2985 RMK AO2 SLP119 T00281006 51027=
201702080153 METAR KSEA 080153Z 04006KT 10SM BKN060 BKN200 03/M01 A2983 RMK AO2 SLP111 T00281011=
201702080053 METAR KSEA 080053Z 05005KT 10SM FEW020 BKN055 BKN200 03/M01 A2980 RMK AO2 SLP101 T00281006=
201702072353 METAR KSEA 072353Z 00000KT 10SM FEW020 BKN060 BKN200 03/M01 A2977 RMK AO2 SLP091 4/003 T00331011 10033 20011 53039=
201702072253 METAR KSEA 072253Z 01006KT 10SM FEW020 BKN065 BKN200 03/M01 A2973 RMK AO2 SLP078 T00281011=
201702072153 METAR KSEA 072153Z 35010KT 10SM FEW020 BKN065 BKN180 03/M01 A2969 RMK AO2 SLP064 T00281011=
201702072053 METAR KSEA 072053Z 01009KT 10SM FEW010 SCT070 BKN100 BKN180 03/M02 A2966 RMK AO2 SLP052 T00281017 53008=
201702071953 METAR KSEA 071953Z 01010KT 10SM FEW010 BKN100 BKN180 02/M01 A2964 RMK AO2 SLP046 T00221011=
201702071853 METAR KSEA 071853Z 01010KT 10SM FEW005 BKN100 BKN180 02/M01 A2963 RMK AO2 SLP045 T00171011=
201702071753 METAR KSEA 071753Z 02012KT 10SM FEW005 SCT060 BKN200 01/M01 A2963 RMK AO2 SLP043 4/003 T00111011 10011 21011 53007=
201702071653 METAR KSEA 071653Z 01013KT 10SM FEW005 SCT060 BKN200 01/M01 A2962 RMK AO2 SLP040 T00061011=
201702071553 METAR KSEA 071553Z 02010KT 10SM FEW005 SCT050 BKN210 00/M02 A2960 RMK AO2 SLP034 T00001017=
201702071453 METAR KSEA 071453Z 03011KT 10SM FEW005 SCT045 BKN210 00/M01 A2961 RMK AO2 SLP037 T00001011 58028=
201702071444 SPECI KSEA 071444Z 02010KT 10SM FEW005 SCT045 BKN240 00/M01 A2961 RMK AO2 T00001011=
201702071353 METAR KSEA 071353Z 02008KT 10SM SCT046 BKN240 00/M01 A2964 RMK AO2 PRESFR SLP046 T00001011=
201702071253 METAR KSEA 071253Z 03005KT 10SM BKN041 00/M02 A2967 RMK AO2 SLP056 T00001017=
201702071153 METAR KSEA 071153Z 06003KT 10SM SCT036 BKN046 00/M01 A2969 RMK AO2 SLP065 70047 4/004 T00001011 10028 20000 57021=
201702071053 METAR KSEA 071053Z 08003KT 10SM SCT034 BKN050 02/M02 A2971 RMK AO2 SLP072 T00171017=
201702070953 METAR KSEA 070953Z 12005KT 10SM FEW032 BKN046 01/M01 A2974 RMK AO2 SLP079 T00111011=
201702070853 METAR KSEA 070853Z 14003KT 10SM FEW036 BKN050 01/M01 A2976 RMK AO2 SLP086 T00111006 51006=
201702070753 METAR KSEA 070753Z VRB05KT 10SM SCT036 BKN050 03/M01 A2975 RMK AO2 SLP085 T00281006 400281011=
201702070653 METAR KSEA 070653Z 19012KT 10SM FEW015 SCT032 BKN050 02/00 A2976 RMK AO2 SLP087 T00220000=
201702070553 METAR KSEA 070553Z 20011KT 9SM SCT031 BKN047 02/00 A2974 RMK AO2 SLP080 4/004 T00220000 10028 20017 53025=
201702070453 METAR KSEA 070453Z 19012KT 10SM SCT034 SCT200 03/M01 A2970 RMK AO2 SLP068 T00281011=
201702070353 METAR KSEA 070353Z 16012KT 10SM FEW025 SCT050 SCT200 02/M01 A2968 RMK AO2 SLP061 T00171006=
201702070253 METAR KSEA 070253Z 17011KT 10SM FEW025 SCT060 SCT200 02/M01 A2966 RMK AO2 SLP055 T00221006 53022=
201702070153 METAR KSEA 070153Z 17012KT 10SM FEW023 SCT039 BKN055 BKN200 03/00 A2964 RMK AO2 SLP047 T00280000=
201702070053 METAR KSEA 070053Z 17012KT 10SM SCT015 BKN025 BKN050 BKN200 03/01 A2961 RMK AO2 SLP037 T00280006=
201702062353 METAR KSEA 062353Z 18012KT 10SM BKN015 BKN040 BKN200 02/01 A2960 RMK AO2 SLP033 60022 4/005 T00220006 10028 20006 53022=
201702062343 SPECI KSEA 062343Z 17011KT 10SM BKN015 BKN030 02/01 A2960 RMK AO2 T00220006=
201702062253 METAR KSEA 062253Z 18012G21KT 9SM BKN011 BKN030 02/01 A2956 RMK AO2 SLP018 T00220011=
201702062248 SPECI KSEA 062248Z 19013G21KT 10SM BKN010 BKN030 02/01 A2956 RMK AO2=
201702062153 METAR KSEA 062153Z 20011G20KT 7SM BKN006 OVC012 02/01 A2953 RMK AO2 RAB20E51SNE20 SLP010 P0001 T00170011=
201702062131 SPECI KSEA 062131Z 20015KT 7SM -RA BKN006 OVC016 02/01 A2952 RMK AO2 RAB20SNE20 P0001 T00170011=
201702062111 SPECI KSEA 062111Z 20010KT 6SM -SN BR BKN004 OVC010 01/01 A2952 RMK AO2 P0001 T00110006=
201702062053 METAR KSEA 062053Z 21009KT 3/4SM R16L/4000VP6000FT -SN BR SCT004 OVC008 01/01 A2951 RMK AO2 RAE09 SLP003 P0010 60021 T00060006 53018=
201702062018 SPECI KSEA 062018Z 19006KT 3/4SM R16L/3500VP6000FT -SN BR OVC008 01/01 A2950 RMK AO2 RAE09 P0002 T00110006=
201702061953 METAR KSEA 061953Z 17007KT 3SM -RASN BR BKN006 OVC009 02/01 A2949 RMK AO2 SFC VIS 5 RAB53 SLP995 P0005 T00170011=
201702061945 SPECI KSEA 061945Z 18007KT 3SM -SN BR BKN006 OVC009 02/01 A2949 RMK AO2 SFC VIS 5 P0004 T00170011=
201702061853 METAR KSEA 061853Z 23006KT 3/4SM R16L/4000V6000FT -SN BR BKN004 OVC008 01/01 A2948 RMK AO2 TWR VIS 2 SNB1754 SLP992 P0006 T00060006=
201702061839 SPECI KSEA 061839Z 22008KT 1 1/2SM R16L/5500VP6000FT -SN BR BKN005 OVC010 01/01 A2948 RMK AO2 TWR VIS 2 SNB1754 P0003 T00110006=
201702061753 METAR KSEA 061753Z 19008KT 1 1/2SM BR BKN005 OVC011 01/01 A2946 RMK AO2 TWR VIS 2 SNE53 SLP985 P0000 60024 4/006 933086 T00060006 10011 21011 51017=
201702061738 SPECI KSEA 061738Z 17007KT 1 1/2SM -SN BR OVC005 01/01 A2945 RMK AO2 TWR VIS 2 P0000 T00060006=
201702061655 SPECI KSEA 061655Z 00000KT 1 3/4SM R16L/4000VP6000FT -SN BR OVC004 01/00 A2944 RMK AO2 TWR VIS 2 VIS 1 1/4V3 P0000 T00060000 $=
201702061653 METAR KSEA 061653Z 11003KT 3/4SM R16L/4000VP6000FT -SN BR OVC005 01/00 A2944 RMK AO2 TWR VIS 2 SNE27B46 SLP978 P0000 T00060000 $=
201702061626 SPECI KSEA 061626Z 07005KT 1 1/2SM -SN BR OVC006 M01/M01 A2944 RMK AO2 TWR VIS 2 P0000 T10061011 $=
201702061553 METAR KSEA 061553Z 03005KT 1/2SM R16L/6000VP6000FT -SN FZFG OVC006 M01/M01 A2943 RMK AO2 SLP975 P0002 T10061011 $=
201702061508 SPECI KSEA 061508Z 04004KT 1/2SM R16L/P6000FT -SN FG SCT003 OVC009 00/M01 A2941 RMK AO2 P0000 T00001006 $=
201702061453 METAR KSEA 061453Z 04006KT 1/2SM R16L/5500VP6000FT -SN FZFG SCT003 OVC011 M01/M01 A2941 RMK AO2 SLP967 P0004 60022 T10061011 53013 $=
201702061414 SPECI KSEA 061414Z 04006KT 1/2SM R16L/5500VP6000FT -SN FZFG SCT003 OVC007 M01/M01 A2940 RMK AO2 P0002 T10061011 $=
201702061353 METAR KSEA 061353Z 04005KT 1/2SM R16L/6000VP6000FT -SN BR SCT004 OVC011 M01/M01 A2939 RMK AO2 SFC VIS 3/4 SLP962 P0005 T10061011 $=
201702061302 SPECI KSEA 061302Z 06005KT 1/2SM R16L/6000VP6000FT -SN BR SCT006 OVC012 M01/M01 A2938 RMK AO2 SFC VIS 3/4 P0001 T10061011 $=
201702061253 METAR KSEA 061253Z 05006KT 1/4SM R16L/4500VP6000FT SN FZFG VV005 M01/M01 A2938 RMK AO2 TWR VIS 1/2 SLP958 SNINCR 1/5 P0013 T10111011 $=
201702061231 SPECI KSEA 061231Z 06006KT 1/4SM R16L/2600V4000FT SN FZFG OVC004 M01/M01 A2938 RMK AO2 TWR VIS 1/2 P0009 T10061006 $=
201702061153 METAR KSEA 061153Z 00000KT 1/2SM R16L/6000VP6000FT -SN BR BKN005 OVC014 M01/M01 A2937 RMK AO2 SFC VIS 3/4 SLP954 P0003 6032 70088 4/004 T10061006 10006 21006 51036 $=
201702061053 METAR KSEA 061053Z 05004KT 1/2SM R16L/P6000FT -SN BR BKN005 OVC011 00/M01 A2934 RMK AO2 SFC VIS 3/4 SLP944 P0004 T00001006 $=
201702060953 METAR KSEA 060953Z 34007KT 1/2SM R16L/6000VP6000FT -SN BR OVC004 00/00 A2931 RMK AO2 SFC VIS 3/4 SLP936 P0003 T00000000 $=
201702060853 METAR KSEA 060853Z 34006KT 1/2SM R16L/6000VP6000FT -SN BR OVC003 01/00 A2926 RMK AO2 SFC VIS 3/4 SLP917 P0008 60022 T00060000 53010 $=
201702060753 METAR KSEA 060753Z 36009KT 1/2SM R16L/5500VP6000FT -SN BR OVC003 01/00 A2922 RMK AO2 SFC VIS 1 SLP903 P0007 T00060000 400500006 $=
201702060653 METAR KSEA 060653Z 35010KT 1/2SM R16L/6000VP6000FT -SN BR OVC002 01/00 A2922 RMK AO2 SFC VIS 1 SLP902 P0007 T00060000 $=
201702060553 METAR KSEA 060553Z 36009KT 1/2SM R16L/5500VP6000FT -SN BR OVC002 01/00 A2923 RMK AO2 SFC VIS 1 SLP907 P0008 60035 4/001 T00060000 10017 20006 56038 $=
201702060453 METAR KSEA 060453Z 36009KT 1/2SM R16L/P6000FT -SN BR OVC001 01/00 A2927 RMK AO2 SFC VIS 1 SLP919 P0007 T00060000 $=
201702060353 METAR KSEA 060353Z 01010KT 1/2SM R16L/P6000FT -SN BR OVC001 01/00 A2930 RMK AO2 SFC VIS 3/4 SLP931 P0006 T00060000=
201702060330 SPECI KSEA 060330Z 01011KT 1/2SM R16L/P6000FT -SN BR OVC001 01/01 A2931 RMK AO2 SFC VIS 1 1/2 P0004 T00060006=
201702060318 SPECI KSEA 060318Z 01010KT 1/2SM R16L/P6000FT -SN BR OVC002 01/01 A2932 RMK AO2 SFC VIS 1 1/2 P0002 T00060006=
201702060253 METAR KSEA 060253Z 01010KT 1 1/2SM -SN BR OVC002 01/01 A2934 RMK AO2 SLP946 P0005 60014 T00060006 58040=
201702060153 METAR KSEA 060153Z 02009KT 1 1/2SM -SN BR OVC003 01/01 A2938 RMK AO2 SFC VIS 3 SLP960 P0005 T00110006=
201702060144 SPECI KSEA 060144Z 02011KT 1 1/2SM -SN BR OVC004 01/01 A2939 RMK AO2 SFC VIS 3 P0005 T00110006=
201702060053 METAR KSEA 060053Z 02012KT 2SM -SN BR BKN004 OVC015 01/01 A2943 RMK AO2 RAE18 SLP975 P0004 T00110006=
201702060018 SPECI KSEA 060018Z 02012KT 2SM -SN BR BKN004 OVC015 02/01 A2945 RMK AO2 RAE18 P0002 T00170011=
201702052353 METAR KSEA 052353Z 03012KT 5SM -RASN BR BKN003 OVC014 02/01 A2946 RMK AO2 SNB47 SLP986 P0005 60017 T00170011 10028 20011 56023=
201702052349 SPECI KSEA 052349Z 03012KT 5SM -RASN BR BKN005 OVC014 02/01 A2947 RMK AO2 SNB47 P0005=
201702052311 SPECI KSEA 052311Z 02006KT 5SM -RA BR OVC003 02/01 A2949 RMK AO2 P0002 T00220011=
201702052253 METAR KSEA 052253Z 01006KT 5SM -RA BR SCT003 BKN007 OVC019 02/02 A2950 RMK AO2 SLP997 P0003 T00220017=
201702052153 METAR KSEA 052153Z 06005KT 6SM -RA BR BKN005 OVC021 02/02 A2953 RMK AO2 SLP008 P0003 T00220017=
201702052106 SPECI KSEA 052106Z 08006KT 7SM -RA FEW005 BKN025 OVC031 03/02 A2958 RMK AO2 P0000 T00280017=
201702052053 METAR KSEA 052053Z 10007KT 7SM -RA BKN025 OVC031 03/02 A2958 RMK AO2 SLP026 P0002 60006 T00280017 58031=
201702051953 METAR KSEA 051953Z 12007KT 10SM -RA SCT023 BKN037 OVC044 02/02 A2963 RMK AO2 SLP041 P0002 T00220017=
201702051853 METAR KSEA 051853Z 11009KT 7SM -RA FEW005 BKN022 OVC031 02/01 A2965 RMK AO2 UPB21E35RAB36SNE21 SLP050 P0002 T00170011=
201702051845 SPECI KSEA 051845Z 12008KT 6SM -RA BR FEW005 BKN022 OVC031 02/01 A2966 RMK AO2 UPB21E35RAB36SNE21 P0002 T00220011=
201702051753 METAR KSEA 051753Z 15009KT 2SM -SN BR SCT005 BKN014 OVC022 01/01 A2968 RMK AO2 SFC VIS 3 RAE49SNB49 SLP058 P0003 60004 T00110006 10028 20011 55000=
201702051658 SPECI KSEA 051658Z 13009KT 2SM -RA BKN004 BKN007 OVC032 02/01 A2967 RMK AO2 SFC VIS 9 P0000 T00170011=
201702051653 METAR KSEA 051653Z 13010KT 2SM -RA SCT004 SCT007 OVC030 02/01 A2967 RMK AO2 SFC VIS 9 UPB1555E1556 SLP055 P0001 T00170011=
201702051647 SPECI KSEA 051647Z 14009KT 2SM -RA SCT004 OVC030 02/01 A2967 RMK AO2 SFC VIS 8 UPB1555E1556 P0001=
201702051601 SPECI KSEA 051601Z 15008KT 10SM FEW007 OVC036 02/01 A2968 RMK AO2 P0000 T00220011=
201702051556 SPECI KSEA 051556Z 15011KT 10SM -RA FEW007 OVC037 02/01 A2968 RMK AO2 UPB55E56 P0000 T00220011=
201702051553 METAR KSEA 051553Z 15009KT 10SM -RA FEW007 OVC037 02/01 A2968 RMK AO2 SLP060 P0000 T00220011=
201702051513 SPECI KSEA 051513Z 15012KT 10SM FEW006 OVC050 03/02 A2968 RMK AO2 T00280017=
201702051453 METAR KSEA 051453Z 15013KT 10SM FEW010 SCT043 OVC070 03/02 A2968 RMK AO2 SLP058 T00280017 56007=
201702051353 METAR KSEA 051353Z 16014KT 10SM FEW007 SCT020 OVC070 03/02 A2968 RMK AO2 SLP058 T00280017=
201702051253 METAR KSEA 051253Z 16010KT 10SM FEW007 SCT013 OVC090 03/02 A2969 RMK AO2 SLP062 T00280017=
201702051153 METAR KSEA 051153Z 17009KT 10SM SCT013 SCT024 OVC047 03/02 A2970 RMK AO2 RAE46 SLP065 P0000 60019 70089 T00280017 10056 20028 50007=
201702051053 METAR KSEA 051053Z 22011G20KT 10SM -RA FEW013 SCT029 OVC038 04/02 A2970 RMK AO2 SLP066 P0001 T00390017=
201702051030 SPECI KSEA 051030Z 21011KT 10SM -RA FEW013 SCT030 OVC042 04/02 A2970 RMK AO2 P0001 T00390022=
201702051007 SPECI KSEA 051007Z 22011KT 10SM -RA SCT013 BKN024 OVC032 03/02 A2969 RMK AO2 P0000 T00330017=
201702050953 METAR KSEA 050953Z 23012G24KT 10SM -RA BKN012 BKN017 OVC028 03/02 A2970 RMK AO2 SLP066 P0001 T00330017=
201702050853 METAR KSEA 050853Z 23009G18KT 5SM -RA BR SCT010 BKN015 OVC025 04/03 A2968 RMK AO2 SLP057 P0011 60017 T00440028 53005=
201702050753 METAR KSEA 050753Z 23010KT 5SM -RA BR SCT013 BKN019 OVC038 06/04 A2966 RMK AO2 SLP052 P0002 T00560044 400780028=
201702050736 SPECI KSEA 050736Z 21011KT 10SM -RA SCT011 BKN024 OVC070 06/04 A2966 RMK AO2 P0002 T00560039=
201702050709 SPECI KSEA 050709Z 19011KT 10SM -RA SCT011 SCT026 OVC036 06/04 A2966 RMK AO2 P0002 T00560044=
201702050653 METAR KSEA 050653Z 19012G21KT 9SM -RA SCT008 BKN015 OVC021 06/04 A2966 RMK AO2 SLP051 P0004 T00560044=
201702050624 SPECI KSEA 050624Z 18008KT 7SM -RA SCT008 BKN013 OVC032 06/04 A2966 RMK AO2 P0003 T00560044=
201702050618 SPECI KSEA 050618Z 18009KT 4SM -RA BR FEW008 BKN015 OVC028 06/04 A2965 RMK AO2 P0002 T00560044=
201702050553 METAR KSEA 050553Z 20008KT 8SM -RA FEW010 BKN024 OVC042 06/05 A2966 RMK AO2 RAB21 SLP051 P0002 60015 T00610050 10061 20056 53010=
201702050545 SPECI KSEA 050545Z 18007KT 10SM -RA FEW010 BKN024 OVC042 06/04 A2965 RMK AO2 RAB21 P0001 T00610044=
201702050453 METAR KSEA 050453Z 17014KT 10SM FEW015 SCT030 OVC060 06/04 A2965 RMK AO2 RAE01 SLP047 P0000 T00560039=
201702050353 METAR KSEA 050353Z 19014G19KT 10SM -RA FEW004 SCT019 OVC030 06/05 A2964 RMK AO2 RAB06 SLP045 P0005 T00560050=
201702050332 SPECI KSEA 050332Z 22008KT 6SM -RA BR FEW004 BKN019 OVC030 06/05 A2965 RMK AO2 RAB06 P0003 T00560050=
201702050253 METAR KSEA 050253Z 16005KT 10SM FEW010 OVC033 06/05 A2963 RMK AO2 RAE0157B22E45 SLP041 P0002 60008 T00560050 56003=
201702050153 METAR KSEA 050153Z 21010KT 10SM -RA FEW010 BKN033 OVC050 06/04 A2963 RMK AO2 RAE13B40 SLP042 P0001 T00560044=
201702050131 SPECI KSEA 050131Z 17007KT 10SM FEW008 SCT015 OVC050 06/05 A2963 RMK AO2 RAE13 P0001 T00610050=
201702050120 SPECI KSEA 050120Z 16006KT 10SM FEW008 BKN015 OVC070 06/06 A2963 RMK AO2 RAE13 P0001 T00610056=
201702050055 SPECI KSEA 050055Z 20007KT 10SM -RA BKN008 BKN012 OVC034 06/06 A2964 RMK AO2 P0000 T00610056=
201702050053 METAR KSEA 050053Z 21008KT 10SM -RA SCT010 BKN019 OVC037 06/06 A2964 RMK AO2 SLP043 P0005 T00610056=
201702050047 SPECI KSEA 050047Z 21006KT 10SM -RA SCT010 BKN019 OVC037 06/06 A2964 RMK AO2 P0005=
201702050000 SPECI KSEA 050000Z 18005KT 6SM -RA BR FEW005 SCT021 OVC030 06/06 A2963 RMK AO2 P0002 T00610056=
201702042353 METAR KSEA 042353Z 21003KT 6SM -RA BR FEW005 BKN028 OVC035 06/06 A2963 RMK AO2 SLP041 P0006 60038 T00610056 10072 20061 56004=
201702042348 SPECI KSEA 042348Z 23003KT 6SM -RA BR FEW005 BKN028 OVC035 06/06 A2963 RMK AO2 P0006=
201702042346 SPECI KSEA 042346Z 00000KT 4SM -RA BR SCT020 BKN028 OVC033 06/06 A2963 RMK AO2 P0005 T00610056=
201702042253 METAR KSEA 042253Z 24004KT 6SM -RA BR FEW005 BKN045 OVC055 07/06 A2963 RMK AO2 SLP042 P0009 T00670056=
201702042244 SPECI KSEA 042244Z 27004KT 6SM -RA BR SCT003 BKN021 OVC043 06/06 A2964 RMK AO2 P0008 T00610056=
201702042230 SPECI KSEA 042230Z 28005KT 6SM -RA BR BKN003 BKN009 OVC013 06/06 A2964 RMK AO2 P0006 T00610061=
201702042153 METAR KSEA 042153Z 33004KT 2SM -RA BR BKN003 OVC028 07/06 A2963 RMK AO2 SLP043 P0014 T00670061=
201702042053 METAR KSEA 042053Z 02004KT 2SM -RA BR BKN004 BKN010 OVC016 07/07 A2964 RMK AO2 SFC VIS 4 RAB11 SLP045 P0003 60009 T00720067 58017=
201702042041 SPECI KSEA 042041Z VRB04KT 2SM -RA BR BKN004 BKN010 OVC016 07/07 A2965 RMK AO2 SFC VIS 4 RAB11 P0002 T00720067=
201702042023 SPECI KSEA 042023Z VRB03KT 4SM -RA BR SCT005 OVC010 07/06 A2966 RMK AO2 RAB11 P0000 T00720061=
201702041953 METAR KSEA 041953Z 00000KT 10SM BKN011 OVC020 07/06 A2968 RMK AO2 RAE48 SLP059 P0002 T00720061=
201702041932 SPECI KSEA 041932Z 16003KT 6SM -RA BR FEW009 BKN013 OVC032 07/06 A2969 RMK AO2 P0001 T00670061=
201702041853 METAR KSEA 041853Z 21005KT 5SM -RA BR FEW015 BKN030 OVC042 07/06 A2970 RMK AO2 SLP066 P0004 T00670056=
201702041814 SPECI KSEA 041814Z 19005KT 5SM -RA BR SCT018 BKN030 OVC036 07/06 A2970 RMK AO2 P0001 T00670061=
201702041753 METAR KSEA 041753Z 20005KT 8SM -RA OVC020 07/06 A2969 RMK AO2 SLP064 P0002 60017 T00670061 10078 20039 51027=
201702041720 SPECI KSEA 041720Z 22006KT 7SM -RA OVC019 07/06 A2968 RMK AO2 P0002 T00670061=
201702041653 METAR KSEA 041653Z 23007KT 3SM -RA BR SCT003 BKN009 OVC019 07/06 A2967 RMK AO2 RAB01E10B43 SLP057 P0002 T00670061=
201702041612 SPECI KSEA 041612Z 20008KT 7SM BKN007 BKN015 OVC026 08/07 A2965 RMK AO2 RAB01E10 P0000 T00780072=
201702041553 METAR KSEA 041553Z 19010KT 6SM BR FEW009 BKN023 OVC032 08/07 A2964 RMK AO2 RAE52 SLP046 P0005 T00780067=
201702041453 METAR KSEA 041453Z 16008KT 9SM -RA FEW017 BKN027 OVC035 07/07 A2961 RMK AO2 RAB12 SLP035 P0003 60008 T00720067 53018=
201702041425 SPECI KSEA 041425Z 17009KT 6SM -RA BR BKN020 BKN026 OVC031 07/06 A2960 RMK AO2 RAB12 P0002 T00670061=
201702041353 METAR KSEA 041353Z 16009KT 10SM FEW014 BKN030 OVC044 06/05 A2959 RMK AO2 RAE36 SLP028 P0002 T00560050=
201702041336 SPECI KSEA 041336Z 14010KT 10SM FEW013 BKN032 OVC044 05/04 A2958 RMK AO2 RAE36 P0002 T00500044=
201702041253 METAR KSEA 041253Z 13011KT 7SM -RA BKN014 OVC019 05/04 A2958 RMK AO2 SLP024 P0003 T00500044=
201702041226 SPECI KSEA 041226Z 15007KT 7SM -RA BKN014 BKN019 OVC026 05/04 A2957 RMK AO2 P0003 T00500044=
201702041210 SPECI KSEA 041210Z 14007KT 3SM -RA BR SCT014 BKN019 OVC026 04/04 A2957 RMK AO2 P0002 T00440039=
201702041153 METAR KSEA 041153Z 15007KT 10SM -RA SCT026 OVC035 04/04 A2956 RMK AO2 SLP018 P0005 60028 70085 T00440039 10044 20022 53011=
201702041053 METAR KSEA 041053Z 15006KT 9SM -RA BKN029 OVC035 04/04 A2954 RMK AO2 SLP010 P0007 T00440039=
201702040953 METAR KSEA 040953Z 13008KT 5SM -RA BR FEW024 BKN030 OVC041 04/03 A2953 RMK AO2 SLP008 P0003 T00440033=
201702040853 METAR KSEA 040853Z 14012KT 10SM -RA BKN024 OVC031 03/02 A2953 RMK AO2 SLP007 P0002 60013 T00330022 53025=
201702040753 METAR KSEA 040753Z 13010KT 3SM -RA BR FEW014 BKN027 OVC035 03/02 A2950 RMK AO2 SLP998 P0009 T00280017 400440011=
201702040701 SPECI KSEA 040701Z 14006KT 3SM -RA BR BKN024 OVC031 03/02 A2948 RMK AO2 P0000 T00280017=
201702040653 METAR KSEA 040653Z 14007KT 6SM -RA BR OVC031 03/02 A2947 RMK AO2 SLP989 P0002 T00280017=
201702040553 METAR KSEA 040553Z 11008KT 6SM -RA BR OVC033 03/01 A2945 RMK AO2 SLP981 P0004 60021 T00280011 10033 20028 53012=
201702040453 METAR KSEA 040453Z 09004KT 8SM -RA FEW032 OVC041 03/01 A2942 RMK AO2 SLP973 P0004 T00280011=
201702040353 METAR KSEA 040353Z 10011KT 10SM -RA OVC039 03/01 A2942 RMK AO2 SLP970 P0003 T00330011=
201702040253 METAR KSEA 040253Z 10009KT 10SM -RA OVC041 03/01 A2941 RMK AO2 RAB36 SLP970 P0001 60010 T00330011 50004=
201702040153 METAR KSEA 040153Z 13006KT 10SM FEW012 OVC034 03/02 A2942 RMK AO2 RAE28 SLP971 P0003 T00330017=
201702040131 SPECI KSEA 040131Z 14004KT 10SM FEW015 OVC030 03/02 A2943 RMK AO2 RAE28 P0003 T00280022=
201702040053 METAR KSEA 040053Z 00000KT 4SM -RA BR FEW015 BKN025 OVC031 03/02 A2942 RMK AO2 SLP970 P0006 T00280022=
201702040037 SPECI KSEA 040037Z 19004KT 5SM -RA BR OVC029 03/02 A2942 RMK AO2 P0004 T00280017=
201702032353 METAR KSEA 032353Z 11005KT 6SM -RA BR OVC036 03/02 A2940 RMK AO2 SLP964 P0007 60027 T00330022 10044 20022 56026=
201702032253 METAR KSEA 032253Z 09007KT 7SM -RA OVC036 03/02 A2940 RMK AO2 SLP965 P0006 T00330017=
201702032153 METAR KSEA 032153Z 09011KT 9SM -RA BKN038 OVC049 03/02 A2942 RMK AO2 SLP972 P0009 T00280017=
201702032053 METAR KSEA 032053Z 14008KT 5SM -RA OVC036 03/00 A2948 RMK AO2 RAB11 SLP991 P0005 60005 T00330000 58032=
201702031953 METAR KSEA 031953Z 00000KT 10SM FEW042 BKN070 OVC200 04/M02 A2951 RMK AO2 SLP003 T00441022=
201702031853 METAR KSEA 031853Z 08010KT 10SM FEW040 BKN070 OVC200 03/M02 A2954 RMK AO2 SLP013 T00331022=
201702031753 METAR KSEA 031753Z 11009KT 10SM BKN041 OVC200 02/M03 A2957 RMK AO2 SLP023 60009 T00221028 10028 20011 56024=
201702031653 METAR KSEA 031653Z 11005KT 10SM OVC038 02/M02 A2960 RMK AO2 SLP032 T00171017=
201702031553 METAR KSEA 031553Z 10009KT 10SM BKN038 OVC050 01/M01 A2961 RMK AO2 RAE51 SLP038 P0002 T00111011=
201702031453 METAR KSEA 031453Z 12008KT 10SM -RA BKN042 OVC050 01/M02 A2964 RMK AO2 SNE28 SLP048 P0004 60007 T00111017 58025=
201702031353 METAR KSEA 031353Z 11013KT 10SM -RASN BKN042 OVC060 02/M03 A2967 RMK AO2 RAB28SNB28 SLP056 P0003 T00171033=
201702031253 METAR KSEA 031253Z 13007KT 10SM OVC055 03/M07 A2971 RMK AO2 SLP071 T00281067=
201702031153 METAR KSEA 031153Z 10012KT 10SM FEW048 BKN080 OVC110 03/M06 A2972 RMK AO2 PRESFR SLP072 60003 70003 T00281061 10033 20000 58038=
201702031053 METAR KSEA 031053Z 10007KT 10SM FEW090 BKN110 OVC140 02/M04 A2976 RMK AO2 SLP087 T00221044=
201702030953 METAR KSEA 030953Z VRB04KT 10SM FEW070 SCT080 OVC095 02/M03 A2980 RMK AO2 RAE45 SLP100 P0002 T00171033=
201702030853 METAR KSEA 030853Z 08009KT 10SM -RA FEW044 BKN060 OVC070 02/M06 A2983 RMK AO2 SLP111 RAB50 P0000 60001 T00221056 58046=
201702030753 METAR KSEA 030753Z 05010KT 10SM BKN048 OVC060 01/M03 A2990 RMK AO2 SLP134 T00111033 400670000=
201702030653 METAR KSEA 030653Z 08015G22KT 10SM FEW038 OVC055 01/M04 A2994 RMK AO2 SNB06E39 SLP148 P0001 T00111039=
201702030643 SPECI KSEA 030643Z 09013G20KT 9SM SCT038 OVC060 01/M03 A2995 RMK AO2 SNB06E39 P0001 T00061033=
201702030553 METAR KSEA 030553Z 10013KT 10SM BKN028 OVC060 03/M15 A2997 RMK AO2 SLP158 T00331150 10056 20028 55015=
201702030453 METAR KSEA 030453Z 11013KT 10SM SCT065 BKN095 OVC150 03/M16 A2997 RMK AO2 SLP157 T00331156=
201702030353 METAR KSEA 030353Z 11016KT 10SM FEW110 BKN220 03/M16 A2999 RMK AO2 SLP166 T00281161=
201702030253 METAR KSEA 030253Z 11012KT 10SM SCT210 BKN250 03/M16 A3002 RMK AO2 SLP175 T00331161 56012=
201702030153 METAR KSEA 030153Z 09011KT 10SM SCT210 BKN250 04/M17 A3003 RMK AO2 SLP178 T00391172=
201702030053 METAR KSEA 030053Z 09011KT 10SM SCT200 BKN250 05/M17 A3004 RMK AO2 SLP181 T00501167=
201702022353 METAR KSEA 022353Z 08014KT 10SM BKN200 06/M17 A3005 RMK AO2 SLP186 T00561167 10067 20039 56021=
201702022253 METAR KSEA 022253Z 10010KT 10SM BKN250 07/M17 A3007 RMK AO2 PK WND 09028/2223 SLP191 T00671167=
201702022153 METAR KSEA 022153Z 09013G22KT 10SM BKN250 07/M17 A3008 RMK AO2 SLP197 T00671167=
201702022053 METAR KSEA 022053Z 10012G18KT 10SM BKN250 06/M17 A3012 RMK AO2 SLP208 T00611167 58021=
201702021953 METAR KSEA 021953Z 10014G25KT 10SM BKN250 06/M17 A3015 RMK AO2 PK WND 07030/1901 SLP219 T00561172=
201702021853 METAR KSEA 021853Z 09020G27KT 10SM BKN250 05/M17 A3017 RMK AO2 PK WND 07030/1826 SLP225 T00501172=
201702021753 METAR KSEA 021753Z 07014G23KT 10SM BKN250 04/M17 A3018 RMK AO2 SLP230 T00391167 10039 20000 55002=
201702021653 METAR KSEA 021653Z 06009KT 10SM BKN250 02/M14 A3018 RMK AO2 SLP230 T00171139=
201702021553 METAR KSEA 021553Z 06011KT 10SM BKN250 01/M15 A3018 RMK AO2 SLP230 T00111150=
201702021453 METAR KSEA 021453Z 06007KT 10SM BKN250 01/M13 A3019 RMK AO2 SLP233 T00061133 58003=
201702021353 METAR KSEA 021353Z 05009KT 10SM BKN250 01/M16 A3019 RMK AO2 SLP234 T00111156=
201702021253 METAR KSEA 021253Z 06009G19KT 10SM CLR 02/M16 A3019 RMK AO2 SLP234 T00171156=
201702021153 METAR KSEA 021153Z 06010G20KT 10SM SCT250 02/M16 A3020 RMK AO2 SLP235 T00171156 10022 20011 56006=
201702021053 METAR KSEA 021053Z 07015G23KT 10SM SCT250 02/M16 A3020 RMK AO2 SLP236 T00221156=
201702020953 METAR KSEA 020953Z 07010G20KT 10SM SCT250 02/M16 A3021 RMK AO2 SLP239 T00221156=
201702020853 METAR KSEA 020853Z 07010KT 10SM SCT250 02/M15 A3021 RMK AO2 SLP241 T00171150 57007=
201702020753 METAR KSEA 020753Z 07013G20KT 10SM SCT250 02/M15 A3022 RMK AO2 SLP244 T00221150 400611017=
201702020653 METAR KSEA 020653Z 09015G22KT 10SM SCT250 02/M16 A3023 RMK AO2 PK WND 08028/0615 SLP245 T00221156=
201702020553 METAR KSEA 020553Z 09017G23KT 10SM SCT250 02/M15 A3023 RMK AO2 SLP249 T00221150 10056 20017 56005=
201702020453 METAR KSEA 020453Z 08015G24KT 10SM SCT250 02/M15 A3024 RMK AO2 PK WND 09027/0422 SLP251 T00221150=
201702020353 METAR KSEA 020353Z 07015G25KT 10SM SCT250 02/M14 A3024 RMK AO2 PK WND 08029/0328 SLP251 T00221139=
201702020253 METAR KSEA 020253Z 07018G24KT 10SM SCT250 03/M13 A3025 RMK AO2 PK WND 10029/0242 SLP254 T00281133 53009=
201702020153 METAR KSEA 020153Z 09011KT 10SM SCT250 03/M13 A3024 RMK AO2 SLP251 T00331128=
201702020053 METAR KSEA 020053Z 09016KT 10SM BKN250 04/M12 A3023 RMK AO2 SLP247 T00391122=
201702012353 METAR KSEA 012353Z 08017KT 10SM BKN250 06/M14 A3022 RMK AO2 PK WND 07028/2315 SLP244 T00561139 10061 20017 55013=
201702012253 METAR KSEA 012253Z 07018G26KT 10SM BKN250 06/M14 A3022 RMK AO2 PK WND 07027/2237 SLP242 T00611139=
201702012153 METAR KSEA 012153Z 07018G23KT 10SM BKN250 06/M13 A3023 RMK AO2 PK WND 06029/2118 SLP247 T00611133=
201702012053 METAR KSEA 012053Z 07016G23KT 10SM SCT250 06/M14 A3026 RMK AO2 PK WND 07026/2041 SLP257 T00561139 58015=
201702011953 METAR KSEA 011953Z 06014G18KT 10SM SCT250 06/M13 A3029 RMK AO2 SLP268 T00561128=
201702011853 METAR KSEA 011853Z 02009KT 10SM SCT250 03/M09 A3032 RMK AO2 SLP275 T00331089=
201702011753 METAR KSEA 011753Z 01011KT 10SM SCT250 02/M07 A3031 RMK AO2 SLP273 T00171067 10017 21017 53001=
201702011653 METAR KSEA 011653Z 03011KT 10SM BKN250 01/M08 A3030 RMK AO2 SLP272 T00061078=
201702011553 METAR KSEA 011553Z 03010KT 10SM BKN250 M01/M07 A3030 RMK AO2 SLP272 T10111067=
201702011453 METAR KSEA 011453Z 03011KT 10SM CLR M01/M06 A3030 RMK AO2 SLP272 T10111056 58004=
201702011353 METAR KSEA 011353Z 03011KT 10SM CLR M01/M05 A3031 RMK AO2 SLP274 T10111050=
201702011253 METAR KSEA 011253Z 01013KT 10SM CLR M01/M03 A3031 RMK AO2 SLP275 T10111033=
201702011153 METAR KSEA 011153Z 02012KT 10SM CLR 00/M03 A3031 RMK AO2 SLP275 T00001033 10028 21006 50000=
201702011053 METAR KSEA 011053Z 02012KT 10SM CLR 00/M04 A3032 RMK AO2 SLP277 T00001039=
201702010953 METAR KSEA 010953Z 02012KT 10SM CLR 00/M02 A3031 RMK AO2 SLP275 T00001022=
201702010853 METAR KSEA 010853Z 02009KT 10SM CLR 01/M03 A3031 RMK AO2 SLP275 T00061028 52007=
201702010753 METAR KSEA 010753Z 04009KT 10SM SCT060 02/M05 A3031 RMK AO2 SLP274 T00171050 400670011=
201702010653 METAR KSEA 010653Z 03007KT 10SM SCT055 02/M06 A3029 RMK AO2 SLP267 T00171061=
201702010553 METAR KSEA 010553Z 04007KT 10SM SCT060 02/M06 A3029 RMK AO2 SLP267 T00221061 10061 20022 50003=
201702010453 METAR KSEA 010453Z 03007KT 10SM SCT060 02/M08 A3030 RMK AO2 SLP269 T00221078=
201702010353 METAR KSEA 010353Z 02009KT 10SM FEW065 SCT250 03/M07 A3029 RMK AO2 SLP267 T00281067=
201702010253 METAR KSEA 010253Z 36009KT 10SM FEW040 SCT250 03/M07 A3028 RMK AO2 SLP264 T00331067 52011=
201702010153 METAR KSEA 010153Z 35012KT 10SM FEW035 SCT250 04/M06 A3027 RMK AO2 SLP260 T00391061=
201702010053 METAR KSEA 010053Z 35010KT 10SM FEW035 SCT250 04/M05 A3026 RMK AO2 SLP257 T00391050=

# No short TAF reports from KSEA in databse.

###################################
#  large TAF from KSEA
###################################
201702282323 TAF KSEA 282323Z 0100/0206 23012G20KT P6SM SCT060 BKN100 FM010700
                       21015G24KT 6SM -SHRA BKN025 BKN100 FM011100
                       20016G25KT P6SM SCT025 OVC060 FM011500 20014KT
                       P6SM BKN025 FM012100 21010KT P6SM BKN025
                       FM020200 22008KT P6SM BKN025=
201702282004 KSEA 282004Z 2820/0124 17006KT P6SM FEW009 SCT019 BKN070 FM282200
                       20008KT P6SM BKN070 FM010300 21012G22KT
                       P6SM -RA OVC040 FM010700 21015G25KT 6SM
                       -RA BKN025 BKN100 FM011100 20014G20KT P6SM
                       VCSH BKN025 FM011500 20012KT P6SM BKN025
                       FM012100 21010KT P6SM SCT025 BKN050=
201702281736 TAF KSEA 281736Z 2818/0124 17004KT P6SM SCT004 BKN010 BKN019 FM282100
                       20010KT P6SM BKN070 FM010300 21012G22KT
                       P6SM -RA OVC040 FM010700 21015G25KT 6SM
                       -RA BKN025 BKN100 FM011100 20014G20KT P6SM
                       VCSH BKN025 FM011500 20012KT P6SM BKN025
                       FM012100 21010KT P6SM SCT025 BKN050=
201702281538 KSEA 281538Z 2816/0118 15005KT 5SM BR SCT006 BKN070
                      TEMPO 2816/2817 1/2SM FG BKN006 OVC020 FM281800
                       20008KT P6SM SCT020 BKN035 FM282100 20010KT
                       P6SM BKN070 FM010300 21012G22KT P6SM -RA
                       OVC040 FM010800 21015G25KT P6SM VCSH BKN035
                       BKN100=
201702281436 KSEA 281436Z 2815/0118 15005KT 5SM BR SCT006 OVC025
                      TEMPO 2815/2817 1/2SM FG BKN006 OVC020 FM281800
                       20008KT P6SM SCT020 BKN035 FM282100 20010KT
                       P6SM BKN050 FM010300 21012G22KT P6SM -RA
                       OVC040 FM010800 21015G25KT P6SM VCSH BKN035
                       BKN100=
201702281358 KSEA 281358Z 2814/0118 VRB03KT 6SM BR SCT007 BKN030 BKN040 FM281500
                       16005KT 6SM BR SCT006 OVC025 FM281800 20008KT
                       P6SM SCT020 BKN035 FM282100 20010KT P6SM
                       BKN050 FM010300 21012G22KT P6SM -RA OVC040
                       FM010800 21015G25KT P6SM VCSH BKN035 BKN100=
201702281154 TAF KSEA 281154Z 2812/0118 VRB03KT P6SM VCSH SCT010 BKN035 OVC045
                       TEMPO 2812/2814 -SHSN SCT010 OVC030 FM281500
                       16005KT P6SM SCT008 OVC022 FM281800 20008KT
                       P6SM SCT020 BKN035 FM282100 20010KT P6SM
                       BKN050 FM010300 21012G22KT P6SM -RA OVC040
                       FM010800 21015G25KT P6SM VCSH BKN035 BKN100=
201702281015 KSEA 281015Z 2810/0112 VRB03KT P6SM VCSH SCT012 BKN025 OVC035
                      TEMPO 2810/2812 VRB03KT 4SM -SHRASN BR SCT006
                       OVC012 FM281400 16005KT P6SM SCT008 OVC022
                       FM281900 20008KT P6SM SCT020 BKN035 FM282100
                       20010KT P6SM BKN040 FM010300 21013G23KT
                       P6SM -RA OVC035 FM010600 21015G25KT P6SM
                       VCSH BKN035=
201702280809 KSEA 280809Z 2808/0112 VRB03KT P6SM VCSH SCT012 OVC025
                      TEMPO 2808/2811 VRB03KT 3SM -SN BR OVC012
                       FM281400 16005KT P6SM SCT008 OVC022 FM281900
                       20008KT P6SM SCT020 BKN035 FM282100 20010KT
                       P6SM BKN040 FM010300 21013G23KT P6SM -RA
                       OVC035 FM010600 21015G25KT P6SM VCSH BKN035=
201702280526 TAF KSEA 280526Z 2806/0112 13006KT P6SM SCT012 BKN030
                      TEMPO 2806/2810 VRB03KT 3SM -RASN BR OVC009
                       FM281400 18008KT P6SM SCT008 OVC015 FM281900
                       21010KT P6SM SCT020 BKN035 FM282100 21011KT
                       P6SM BKN040 FM010300 21013KT P6SM -RA OVC035
                       FM011000 21010KT P6SM VCSH BKN035=
201702280414 KSEA 280414Z 2804/0106 12005KT 5SM -SHRASN SCT006 BKN012 OVC025
                       TEMPO 2804/2806 2SM -SN BKN006 OVC012 FM280600
                       12005KT 4SM -SHSN BKN006 OVC012
                      TEMPO 2806/2810 VRB04KT 1SM -SN BR OVC003
                       FM281400 18008KT P6SM SCT008 OVC015 FM281900
                       21010KT P6SM SCT020 BKN035 FM282100 21011KT
                       P6SM BKN040 FM010300 21013KT P6SM -RA OVC035=
201702272346 TAF KSEA 272346Z 2800/0106 VRB05KT 6SM -SHRA BR SCT015 OVC025
                      TEMPO 2800/2804 02005KT 2SM -SHRASN BR BKN007
                       OVC015 FM280400 17007KT P6SM VCSH SCT010
                       BKN020 OVC040 FM281400 18008KT P6SM SCT008
                       OVC015=
201702272125 KSEA 272125Z 2721/2824 19012KT P6SM SCT015 OVC050
                      TEMPO 2721/2724 5SM -SHRA BKN015 OVC050 FM280000
                       20007KT 6SM -SHRASN SCT007 BKN012 OVC030
                       TEMPO 2800/2804 3SM -SHRASN BKN007 OVC012
                       FM280400 17007KT P6SM VCSH SCT010 BKN020
                       OVC040=
201702271749 TAF KSEA 271749Z 2718/2824 14007KT P6SM -SHRASN SCT008 OVC020
                      TEMPO 2718/2720 4SM -SHRASN BKN008 OVC020
                       FM272000 18006KT P6SM -SHRA SCT010 BKN015
                       OVC030 FM272300 21007KT 5SM -SHRASN BKN007
                       OVC015 FM280600 18006KT P6SM OVC015=
201702271549 KSEA 271549Z 2716/2818 14007KT P6SM -SHRASN SCT009 OVC020
                      TEMPO 2716/2718 4SM -SHRASN BKN009 OVC020
                       FM271800 18006KT P6SM -SHRA SCT010 BKN020
                       BKN045 FM272100 21008KT P6SM VCSH BKN030
                       FM280600 16006KT P6SM BKN035=
201702271339 KSEA 271339Z 2714/2818 07005KT P6SM -SHRASN SCT006 OVC011
                      TEMPO 2714/2717 4SM -SHRASN BKN004 BKN020
                       FM271700 18006KT P6SM VCSH BKN020 BKN045
                       FM272100 21008KT P6SM VCSH BKN030 FM280600
                       16006KT P6SM BKN035=
201702271126 TAF KSEA 271126Z 2712/2818 16005KT P6SM VCSH SCT004 SCT020 BKN050
                       TEMPO 2712/2716 5SM BR BKN004 BKN020 FM271700
                       18006KT P6SM VCSH BKN020 BKN045 FM272100
                       21008KT P6SM VCSH BKN030 FM280600 16006KT
                       P6SM BKN035=
201702270801 KSEA 270801Z 2708/2812 VRB03KT P6SM SCT030 BKN050 FM271200 VRB03KT
                       P6SM BKN030 BKN045 FM271700 18006KT P6SM
                       VCSH BKN025 FM272100 20008KT P6SM VCSH BKN030
                       FM280600 16006KT P6SM BKN035=
201702270522 TAF KSEA 270522Z 2706/2812 02005KT P6SM BKN030 BKN050 FM270900
                       VRB03KT P6SM BKN030 BKN045 FM271700 18006KT
                       P6SM VCSH BKN025 FM272100 20008KT P6SM VCSH
                       BKN030 FM280600 16006KT P6SM BKN035=
201702270301 KSEA 270301Z 2703/2806 01010KT P6SM VCSH SCT015 BKN025 FM270600
                       03007KT P6SM BKN030 FM270900 03007KT P6SM
                       SCT040 FM271200 VRB03KT P6SM VCSH BKN040
                       FM271800 18006KT P6SM VCSH BKN030=
201702262320 TAF KSEA 262320Z 2700/2806 VRB04KT P6SM SCT015 BKN040
                      TEMPO 2700/2704 -SHRA BKN015 OVC040 FM270400
                       03007KT P6SM BKN040 FM271000 03007KT P6SM
                       SCT040 FM271600 VRB04KT P6SM VCSH BKN040=
201702261720 TAF KSEA 261720Z 2618/2724 10008KT P6SM -RA SCT012 OVC025
                      TEMPO 2618/2621 4SM -RASN BR BKN012 OVC025
                       FM262100 04008KT P6SM VCSH BKN030 FM270000
                       04008KT P6SM BKN040 FM271200 04006KT P6SM
                       SCT040 FM272000 VRB04KT P6SM VCSH BKN040=
201702261411 KSEA 261411Z 2614/2718 14010KT 6SM -SHRA SCT008 OVC015
                      TEMPO 2614/2618 2SM -SHSN BR OVC008 FM261900
                       09003KT P6SM VCSH OVC025 FM262100 01007KT
                       P6SM VCSH BKN035 FM270300 03008KT P6SM SCT040
                       FM271100 06005KT P6SM BKN035 FM271400 VRB03KT
                       P6SM BKN030=
201702261132 TAF KSEA 261132Z 2612/2718 14010KT 6SM -SHRA SCT008 OVC015
                      TEMPO 2612/2616 2SM -SHSN BR OVC008 FM261900
                       09003KT P6SM VCSH OVC025 FM262100 01007KT
                       P6SM VCSH BKN035 FM270300 03008KT P6SM SCT040
                       FM271100 06005KT P6SM BKN035 FM271400 VRB03KT
                       P6SM BKN030=
201702260901 KSEA 260901Z 2609/2712 16008KT 5SM -RASN BR OVC015 FM261100 14007KT
                       4SM -SN BR OVC015
                      TEMPO 2612/2616 2SM -SN BR OVC010 FM261900
                       09003KT P6SM VCSH BKN030 FM262100 01007KT
                       P6SM BKN040 FM270300 03008KT P6SM SCT040
                       FM271100 06005KT P6SM BKN035=
201702260701 KSEA 260701Z 2607/2712 23012KT P6SM BKN020 OVC045 FM260800 16006KT
                       5SM -RASN BR OVC020 FM261100 14006KT 4SM
                       -SN BR OVC015
                      TEMPO 2612/2616 2SM -SN BR OVC010 FM261900
                       09003KT P6SM VCSH BKN030 FM262100 01007KT
                       P6SM BKN040 FM270300 03008KT P6SM SCT040
                       FM271100 06005KT P6SM BKN035=
201702260520 TAF KSEA 260520Z 2606/2712 23005KT P6SM BKN025 OVC045 FM260800
                       16006KT 5SM -RASN BR OVC020 FM261100 14006KT
                       4SM -SN BR OVC015
                      TEMPO 2612/2616 2SM -SN BR OVC010 FM261900
                       09003KT P6SM VCSH BKN030 FM262100 01007KT
                       P6SM BKN040 FM270300 03008KT P6SM SCT040
                       FM271100 06005KT P6SM BKN035=
201702260412 KSEA 260412Z 2604/2706 23005KT P6SM BKN025 OVC045 FM260700 16006KT
                       5SM -RASN BR OVC020 FM261100 14006KT 4SM
                       -SN BR OVC015
                      TEMPO 2612/2616 2SM -SN BR OVC010 FM261900
                       VRB03KT P6SM VCSH BKN030 FM262100 36007KT
                       P6SM SCT040=
201702260301 KSEA 260301Z 2603/2706 21007KT P6SM BKN050 FM260400 18008KT P6SM
                       OVC040 FM260700 18010KT 5SM -RASN BR OVC030
                       FM261100 16006KT 4SM -SN BR OVC015
                      TEMPO 2612/2616 2SM -SN BR OVC010 FM261900
                       VRB04KT P6SM VCSH BKN030 FM262100 36007KT
                       P6SM SCT040=
201702252320 TAF KSEA 252320Z 2600/2706 21007KT P6SM BKN050 FM260400 18008KT
                       P6SM OVC040 FM260700 18010KT 5SM -RASN BR
                       OVC030 FM261100 16006KT 4SM -SN BR OVC015
                       TEMPO 2612/2616 2SM -SN BR OVC010 FM261900
                       VRB04KT P6SM VCSH BKN030 FM262200 36007KT
                       P6SM SCT040=
201702252107 KSEA 252107Z 2521/2624 20007KT P6SM BKN050 FM260300 18008KT P6SM
                       BKN040 FM260600 20010KT 5SM -RASN BR OVC030
                       FM261100 18008KT 4SM -SN BR OVC015
                      TEMPO 2612/2616 2SM -SN BR OVC010 FM261900
                       VRB04KT P6SM VCSH BKN030=
201702251722 TAF KSEA 251722Z 2518/2624 VRB04KT P6SM BKN060 FM252200 18006KT
                       P6SM BKN040 FM260500 18010KT P6SM -RASN
                       OVC030 FM261200 16008KT 5SM -RASN BR BKN015
                       OVC030
                      TEMPO 2614/2618 3SM -SN BR OVC012 FM262100
                       VRB04KT P6SM VCSH BKN030=
201702251337 KSEA 251337Z 2514/2618 14005KT P6SM BKN070 FM251600 20007KT P6SM
                       BKN040 FM260500 18009KT P6SM -RA SCT020
                       OVC030 FM261100 16008KT 4SM -RASN BR SCT015
                       BKN020 OVC030=
201702251120 TAF KSEA 251120Z 2512/2618 VRB03KT P6SM BKN070 FM251800 20007KT
                       P6SM BKN040 FM260300 18009KT P6SM -RA SCT020
                       OVC030=
201702250901 KSEA 250901Z 2509/2612 VRB03KT P6SM OVC080 FM251800 20007KT P6SM
                       BKN040 FM260300 18007KT P6SM -RA SCT020
                       OVC030=
201702250524 TAF KSEA 250524Z 2506/2612 VRB04KT P6SM BKN070 FM250800 VRB03KT
                       P6SM SCT070 FM251800 20007KT P6SM BKN040
                       FM260300 18007KT P6SM -RA SCT020 OVC030=
201702250259 KSEA 250259Z 2503/2606 VRB04KT P6SM BKN060 FM250600 VRB03KT P6SM
                       SCT060 FM251800 20007KT P6SM BKN040=
201702242320 TAF KSEA 242320Z 2500/2606 VRB04KT P6SM SCT050 FM250600 04006KT
                       P6SM SCT050 FM251800 VRB03KT P6SM BKN040=
201702241733 TAF KSEA 241733Z 2418/2524 12005KT P6SM VCSH SCT015 BKN040 FM242100
                       VRB04KT P6SM SCT020 BKN050 FM250600 04006KT
                       P6SM SCT060=
201702241521 KSEA 241521Z 2415/2518 15006KT P6SM BKN030 BKN040 OVC060
                      TEMPO 2415/2418 4SM -SN BKN022 OVC060 FM241800
                       18006KT P6SM VCSH SCT030 BKN050 FM242100
                       21006KT P6SM SCT045 BKN060 FM250300 04005KT
                       P6SM SCT060 SCT200=
201702241331 KSEA 241331Z 2414/2518 16005KT P6SM SCT022 BKN060
                      TEMPO 2414/2418 BKN022 OVC060 FM241800 18006KT
                       P6SM VCSH SCT030 BKN050 FM242100 21006KT
                       P6SM SCT045 BKN060 FM250300 04005KT P6SM
                       SCT060 SCT200=
201702241120 TAF KSEA 241120Z 2412/2518 16005KT P6SM SCT025 BKN060 FM241400
                       17006KT P6SM VCSH SCT025 BKN035 OVC050 FM241800
                       18006KT P6SM VCSH SCT030 BKN050 FM242100
                       21006KT P6SM SCT045 BKN060 FM250300 04005KT
                       P6SM SCT060 SCT200=
201702240901 KSEA 240901Z 2409/2512 16005KT P6SM SCT025 BKN060 FM241100 17006KT
                       P6SM VCSH SCT015 BKN025 OVC035 FM241800
                       18006KT P6SM VCSH SCT020 BKN035 FM242100
                       17006KT P6SM SCT035 BKN050 FM250300 05004KT
                       P6SM SCT040 BKN060=
201702240520 TAF KSEA 240520Z 2406/2512 16005KT P6SM SCT025 SCT060 FM241100
                       17006KT P6SM VCSH SCT015 BKN025 OVC035 FM241800
                       18006KT P6SM VCSH SCT020 BKN035 FM242100
                       17006KT P6SM SCT035 BKN050 FM250300 05004KT
                       P6SM SCT040 BKN060=
201702240303 TAF AMD KSEA 240303Z 2403/2506 16005KT P6SM SCT025 SCT060 FM241100
                       17006KT P6SM VCSH SCT015 BKN020 OVC035
                      TEMPO 2411/2415 3SM -SHSN SCT005 BKN010 OVC015
                       FM241800 18006KT P6SM VCSH SCT018 BKN035
                       FM242100 17006KT P6SM SCT035 BKN050 FM250300
                       08004KT P6SM SCT040 BKN060=
201702232340 TAF KSEA 232340Z 2400/2506 22005KT P6SM VCSH SCT030 BKN045 FM240300
                       18004KT P6SM SCT035 SCT045 FM241100 17006KT
                       P6SM VCSH SCT015 BKN020 OVC035
                      TEMPO 2411/2415 3SM -SHSN SCT005 BKN010 OVC015
                       FM241800 18006KT P6SM VCSH SCT018 BKN035
                       FM242100 17006KT P6SM SCT035 BKN050 FM250300
                       08004KT P6SM SCT040 BKN060=
201702232123 KSEA 232123Z 2321/2424 32003KT P6SM VCSH SCT018 BKN030 FM240000
                       31004KT P6SM VCSH SCT035 FM240300 15003KT
                       P6SM SCT035 BKN045 FM241200 17006KT 6SM
                       -SHSN BR SCT012 BKN020 OVC035
                      TEMPO 2413/2417 1 1/2SM -SHSN SCT004 BKN008
                       OVC012 FM241800 18006KT P6SM VCSH SCT015
                       BKN030 FM242100 17006KT P6SM SCT030 BKN050=
201702231846 KSEA 231846Z 2319/2424 35003KT P6SM VCSH SCT010 BKN018
                      TEMPO 2319/2320 1 1/2SM -SHSNRA BR SCT004
                       BKN008 OVC018 FM232000 32003KT P6SM VCSH
                       SCT018 BKN030 FM232200 31004KT P6SM VCSH
                       SCT035 FM240300 15003KT P6SM SCT035 BKN045
                       FM241200 17006KT 6SM -SHSN BR SCT012 BKN020
                       OVC035
                      TEMPO 2413/2417 1 1/2SM -SHSN SCT004 BKN008
                       OVC012 FM241800 18006KT P6SM VCSH SCT015
                       BKN030 FM242100 17006KT P6SM SCT030 BKN050=
201702231736 TAF KSEA 231736Z 2318/2424 35003KT P6SM VCSH SCT008 BKN015 FM232000
                       32003KT P6SM VCSH SCT018 BKN030 FM232200
                       31004KT P6SM VCSH SCT035 FM240300 15003KT
                       P6SM SCT035 BKN045 FM241200 17006KT 6SM
                       -SHSN BR SCT012 BKN020 OVC035
                      TEMPO 2413/2417 1 1/2SM -SHSN SCT004 BKN008
                       OVC012 FM241800 18006KT P6SM VCSH SCT015
                       BKN030 FM242100 17006KT P6SM SCT030 BKN050=
201702231549 KSEA 231549Z 2316/2418 17003KT P6SM VCSH SCT008 BKN015 BKN070 FM231800
                       VRB03KT P6SM SCT015 BKN030 FM232100 28004KT
                       P6SM SCT030 FM240300 VRB03KT P6SM SCT030
                       BKN045 FM241200 17006KT P6SM SCT012 BKN020
                       OVC035
                      TEMPO 2413/2417 4SM -SHSN SCT004 BKN008 OVC012=
201702231358 KSEA 231358Z 2314/2418 17003KT P6SM VCSH SCT011 SCT028 BKN070
                      TEMPO 2314/2318 -SHSN BKN011 OVC028 FM231800
                       VRB03KT P6SM SCT015 BKN030 FM232000 30004KT
                       P6SM SKC FM240300 VRB04KT P6SM SCT060 FM240800
                       17005KT P6SM SCT030 BKN050=
201702231120 TAF KSEA 231120Z 2312/2418 VRB03KT P6SM BKN012 FM231800 VRB03KT
                       P6SM SCT015 BKN030 FM232000 30004KT P6SM
                       SKC FM240300 VRB04KT P6SM SCT060 FM240800
                       17005KT P6SM SCT030 BKN050=
201702230859 KSEA 230859Z 2309/2412 04004KT P6SM SCT010 BKN015 OVC040
                      TEMPO 2309/2310 -RA BKN010 FM231200 VRB03KT
                       P6SM BKN012 FM231800 VRB03KT P6SM SCT015
                       BKN030 FM232000 30004KT P6SM SKC FM240300
                       VRB04KT P6SM SCT060=
201702230805 KSEA 230805Z 2308/2412 04004KT P6SM SCT010 BKN025 OVC050 FM231200
                       VRB03KT P6SM BKN012 FM231800 VRB03KT P6SM
                       SCT015 BKN030 FM232000 30004KT P6SM SKC
                       FM240300 VRB04KT P6SM SCT060=
201702230522 TAF KSEA 230522Z 2306/2412 04004KT P6SM SCT060 FM231200 VRB03KT
                       P6SM BKN012 FM231800 VRB03KT P6SM SCT015
                       BKN030 FM232000 30004KT P6SM SKC FM240300
                       VRB04KT P6SM SCT060=
201702230301 KSEA 230301Z 2303/2406 01005KT P6SM SCT035 SCT250 FM230600 04004KT
                       P6SM SCT040 FM231200 VRB03KT P6SM BCFG VCSH
                       SCT005 BKN012 FM231800 21004KT P6SM SCT015
                       BKN025 FM232000 24004KT P6SM SKC FM240000
                       VRB04KT P6SM SCT040 BKN060=
201702222337 TAF KSEA 222337Z 2300/2406 29006KT P6SM -SHRA SCT025 BKN035 FM230100
                       34007KT P6SM -SHRA SCT025 BKN035 FM230300
                       01005KT P6SM SCT035 BKN050 FM230600 04004KT
                       P6SM SCT040 FM231200 VRB03KT P6SM BCFG VCSH
                       SCT005 BKN012 FM231800 21004KT P6SM SCT015
                       BKN025 FM232000 24004KT P6SM SKC FM240000
                       17005KT P6SM SCT040 BKN060=
201702222108 KSEA 222108Z 2221/2324 20005KT P6SM SCT020 BKN030 FM222200 24005KT
                       P6SM VCSH SCT025 BKN035
                      TEMPO 2223/2224 P6SM -SHRA BKN025 OVC035
                       FM230000 33008KT P6SM VCSH SCT025 BKN035
                       TEMPO 2300/2302 P6SM -SHRA BKN025 OVC035
                       FM230300 36005KT P6SM VCSH SCT030 BKN045
                       FM230600 VRB03KT P6SM SCT015 SCT050 FM231100
                       12003KT P6SM BCFG SCT005 BKN012 FM231900
                       22005KT P6SM SCT025 SCT040=
201702221730 TAF KSEA 221730Z 2218/2324 18005KT P6SM BKN015 FM222000 20005KT
                       P6SM SCT020 BKN030 FM222200 24005KT P6SM
                       VCSH SCT025 BKN035
                      TEMPO 2223/2224 6SM -SHRA BKN025 OVC035 FM230000
                       31005KT P6SM VCSH SCT025 BKN035
                      TEMPO 2300/2302 6SM -SHRA BKN025 OVC035 FM230300
                       04005KT P6SM VCSH SCT030 BKN045 FM230600
                       VRB03KT P6SM SCT015 SCT050 FM231100 12003KT
                       P6SM BCFG SCT005 BKN012 FM231900 22005KT
                       P6SM SCT025 SCT040=
201702221428 KSEA 221428Z 2214/2318 18005KT P6SM OVC013
                      TEMPO 2217/2220 SCT013 BKN023 OVC035 FM222000
                       22006KT P6SM -SHRA BKN025 OVC040 FM230300
                       05005KT P6SM VCSH SCT030 BKN050 FM230700
                       10005KT P6SM SCT050 BKN100=
201702221126 TAF KSEA 221126Z 2212/2318 17005KT P6SM SCT015 OVC020 FM222000
                       22006KT P6SM -SHRA BKN025 OVC040 FM230300
                       05005KT P6SM VCSH SCT030 BKN050 FM230700
                       10005KT P6SM SCT050 BKN100=
201702220856 KSEA 220856Z 2209/2312 17007KT P6SM OVC015 FM221300 19008KT P6SM
                       SCT015 OVC020 FM222000 22008KT P6SM VCSH
                       BKN025 OVC040 FM230300 VRB03KT P6SM VCSH
                       SCT030 BKN050=
201702220520 TAF KSEA 220520Z 2206/2312 VRB04KT P6SM BKN015 BKN025 FM220700
                       17007KT P6SM SCT015 BKN025 FM221300 19008KT
                       P6SM SCT012 OVC018 FM222000 20008KT P6SM
                       VCSH BKN025 OVC040 FM230300 VRB03KT P6SM
                       VCSH SCT030 BKN050=
201702220256 KSEA 220256Z 2203/2306 VRB04KT P6SM VCSH SCT025 BKN035
                      TEMPO 2203/2206 -SHRA BKN015 OVC035 FM220700
                       17007KT P6SM VCSH SCT015 BKN025 FM221300
                       19008KT P6SM SCT012 OVC018 FM222000 20008KT
                       P6SM -SHRA BKN025 OVC040 FM230300 VRB03KT
                       P6SM VCSH SCT030 BKN050=
201702212334 TAF KSEA 212334Z 2200/2306 VRB03KT P6SM VCSH SCT025 BKN035
                      TEMPO 2200/2204 6SM -SHRA BR BKN025 OVC035
                       FM220700 17007KT P6SM VCSH SCT015 BKN025
                       FM221300 19008KT P6SM SCT012 OVC018 FM222000
                       20008KT P6SM -SHRA BKN025 OVC040 FM230300
                       VRB03KT P6SM VCSH SCT030 BKN050=
201702212145 KSEA 212145Z 2122/2224 VRB03KT P6SM VCSH BKN015 OVC025
                      TEMPO 2122/2202 6SM -SHRA BR FM220200 16005KT
                       P6SM VCSH SCT025 BKN035 FM220800 19008KT
                       P6SM SCT020 BKN030 FM221300 19008KT P6SM
                       SCT012 OVC018 FM222000 22007KT P6SM -SHRA
                       SCT015 BKN025 OVC035=
201702211736 TAF KSEA 211736Z 2118/2224 35006KT P6SM -RA SCT006 BKN012 OVC025
                       FM212100 VRB03KT 6SM -SHRA BR BKN015 OVC030
                       FM220200 16005KT P6SM VCSH SCT025 BKN035
                       FM220800 19008KT P6SM SCT020 BKN030 FM221300
                       19008KT P6SM SCT012 OVC018 FM222000 22007KT
                       P6SM -SHRA SCT015 BKN025 OVC035=
201702211356 KSEA 211356Z 2114/2218 03008KT 6SM -RA BR FEW003 BKN009 OVC012
                       TEMPO 2116/2120 P6SM NSW SCT012 OVC020 FM212000
                       25008KT P6SM VCSH SCT014 BKN025 OVC035 FM220200
                       20009KT P6SM SCT030 OVC050=
201702211134 KSEA 211134Z 2112/2218 02008KT P6SM SCT005 BKN050 OVC100
                      TEMPO 2112/2116 -RA BKN005 FM211700 33009KT
                       P6SM VCSH SCT018 BKN040 OVC060 FM212000
                       22008KT P6SM VCSH SCT018 BKN030 OVC050 FM220200
                       20009KT P6SM SCT030 OVC050=
201702211121 TAF KSEA 211121Z 2112/2218 02008KT P6SM SCT005 BKN050 OVC100 FM211700
                       33009KT P6SM VCSH SCT018 BKN040 OVC060 FM212000
                       22008KT P6SM VCSH SCT018 BKN030 OVC050 FM220200
                       20009KT P6SM SCT030 OVC050=
201702210858 KSEA 210858Z 2109/2212 14005KT P6SM SCT015 OVC030 FM211100 02008KT
                       P6SM SCT005 BKN010 OVC040 FM211700 33009KT
                       P6SM VCSH SCT018 BKN040 OVC060 FM212000
                       22008KT P6SM -SHRA SCT018 BKN030 OVC050
                       FM220200 20009KT P6SM SCT030 OVC050=
201702210526 TAF KSEA 210526Z 2106/2212 14005KT P6SM SCT030 BKN070 FM211100
                       02008KT P6SM SCT005 BKN010 OVC040 FM211700
                       33009KT P6SM VCSH SCT018 BKN040 OVC060 FM212000
                       22008KT P6SM -SHRA SCT018 BKN030 OVC050
                       FM220200 20009KT P6SM SCT030 OVC050=
201702210259 KSEA 210259Z 2103/2206 20008KT P6SM VCSH SCT006 BKN015 OVC030 FM210400
                       19008KT P6SM VCSH SCT012 BKN020 OVC035 FM210700
                       13004KT P6SM SCT020 BKN035 FM211400 02008KT
                       P6SM VCSH SCT005 BKN010 OVC040 FM212100
                       35010KT P6SM VCSH SCT018 BKN040 OVC060 FM220300
                       13003KT P6SM -SHRA SCT018 BKN030 OVC050=
201702202336 TAF KSEA 202336Z 2100/2206 20008KT P6SM -RA SCT006 BKN015 OVC030
                       FM210300 19008KT P6SM -RA SCT012 BKN020
                       OVC035 FM210700 13004KT P6SM SCT020 BKN035
                       FM211400 02008KT P6SM VCSH SCT005 BKN010
                       OVC040 FM212100 35010KT P6SM VCSH SCT018
                       BKN040 OVC060 FM220300 13003KT P6SM -SHRA
                       SCT018 BKN030 OVC050=
201702202103 KSEA 202103Z 2021/2124 32005KT 6SM -RA BR BKN007 OVC018 FM202300
                       22011G18KT 4SM -RA BR BKN010 OVC018 FM210200
                       19008KT P6SM VCSH SCT012 BKN018 OVC030 FM210700
                       13004KT P6SM SCT018 BKN025 OVC040 FM211400
                       02008KT P6SM SCT020 BKN040 OVC060 FM212200
                       36010KT P6SM FEW030 SCT060 BKN120=
201702201736 TAF KSEA 201736Z 2018/2124 01009KT 6SM -RA BR SCT008 BKN025 OVC035
                       FM202000 35010KT 5SM -RA BR SCT008 BKN015
                       OVC030 FM202300 22011G18KT 4SM -RA BR BKN010
                       OVC018 FM210200 19008KT P6SM VCSH SCT012
                       BKN018 OVC030 FM210700 13004KT P6SM SCT018
                       BKN025 OVC040 FM211400 02008KT P6SM SCT020
                       BKN040 OVC060 FM212200 36010KT P6SM FEW030
                       SCT060 BKN120=
201702201542 KSEA 201542Z 2016/2118 36007KT P6SM -RA SCT040 OVC060 FM201700
                       35008KT 6SM -RA BR SCT020 OVC035 FM202000
                       34006KT 4SM -RA BR BKN015 OVC030 FM202300
                       22005KT 5SM -SHRA BKN020 OVC035 FM210400
                       VRB04KT P6SM SCT025 OVC040 FM211000 01006KT
                       P6SM OVC100=
201702201454 KSEA 201454Z 2015/2118 36006KT P6SM -RA BKN040 OVC060 FM201700
                       04005KT 4SM -RA BR SCT015 OVC035 FM201900
                       01006KT 4SM -RA BR BKN015 OVC030 FM202300
                       24005KT 5SM -SHRA BKN025 OVC040 FM210400
                       VRB04KT P6SM SCT025 OVC040 FM211000 01006KT
                       P6SM OVC100=
201702201121 TAF KSEA 201121Z 2012/2118 04005KT P6SM -RA OVC040 FM201700 04005KT
                       4SM -RA BR SCT015 OVC035 FM201900 01006KT
                       4SM -RA BR BKN015 OVC030 FM202300 24005KT
                       5SM -SHRA BKN025 OVC040 FM210400 VRB04KT
                       P6SM SCT025 OVC040 FM211000 01006KT P6SM
                       OVC100=
201702200901 KSEA 200901Z 2009/2112 00000KT P6SM FEW040 BKN070 BKN200 FM201000
                       08004KT P6SM SCT030 BKN050 OVC080 FM201500
                       04008KT 5SM -RA BR SCT015 OVC035 FM201900
                       36007KT 5SM -RA BR SCT015 OVC035 FM202200
                       24006KT 5SM -SHRA BKN015 OVC025 FM210200
                       18005KT 5SM -SHRA SCT015 BKN025=
201702200536 TAF KSEA 200536Z 2006/2112 18008KT P6SM VCSH SCT035 BKN060 FM201000
                       15007KT P6SM VCSH SCT030 BKN050 FM201500
                       04008KT 5SM -RA BR SCT015 OVC035 FM201900
                       36007KT 5SM -RA BR SCT015 OVC035 FM202200
                       24006KT 5SM -SHRA BKN015 OVC025 FM210200
                       18005KT 5SM -SHRA SCT015 BKN025=
201702200316 KSEA 200316Z 2003/2106 18011KT P6SM -SHRA BKN035 OVC045 FM201000
                       15007KT P6SM VCSH SCT030 BKN050 FM201400
                       04008KT P6SM VCSH SCT030 BKN050 FM201900
                       03007KT P6SM -SHRA BKN025 OVC050=
201702192337 TAF KSEA 192337Z 2000/2106 17012KT P6SM -SHRA SCT025 BKN050
                      TEMPO 2000/2004 5SM -SHRA BKN025 OVC040 FM200400
                       17011KT P6SM -SHRA SCT025 BKN050 FM201000
                       15007KT P6SM VCSH SCT030 BKN050 FM201400
                       04008KT P6SM VCSH SCT030 BKN050 FM201900
                       03007KT P6SM -SHRA BKN025 OVC050=
201702192104 KSEA 192104Z 1921/2024 18014G24KT P6SM -SHRA SCT025 BKN050
                      TEMPO 1922/2002 5SM -SHRA BKN025 OVC040 FM200300
                       17012KT P6SM -SHRA SCT030 BKN050 FM201000
                       13007KT P6SM VCSH BKN050=
201702191737 TAF KSEA 191737Z 1918/2024 17010KT P6SM -SHRA SCT025 BKN050 FM192100
                       18012G22KT P6SM -SHRA SCT025 BKN050
                      TEMPO 1922/2002 4SM SHRA BKN025 OVC040 FM200300
                       17012KT P6SM -SHRA SCT030 BKN050 FM201000
                       13007KT P6SM VCSH BKN050=
201702191554 KSEA 191554Z 1916/2018 14006KT P6SM -RA SCT025 OVC035 FM191800
                       17010G22KT P6SM -SHRA SCT025 OVC035 FM192100
                       18012G22KT P6SM -SHRA SCT025 BKN045 FM200500
                       17008KT P6SM -SHRA BKN035=
201702191535 KSEA 191535Z 1916/2018 14006KT P6SM -RA SCT025 OVC035 FM191800
                       17010KT P6SM -SHRA SCT025 OVC035 FM192100
                       18012KT P6SM -SHRA SCT025 BKN045 FM200500
                       17008KT P6SM -SHRA BKN035=
201702191419 KSEA 191419Z 1914/2018 13003KT P6SM SCT050 SCT100 FM191600 17010KT
                       P6SM -RA OVC035 FM191900 18014G22KT P6SM
                       -SHRA SCT025 BKN050 FM200500 17007KT P6SM
                       -SHRA BKN035=
201702191125 TAF KSEA 191125Z 1912/2018 00000KT 5SM -RA SCT015 BKN025 OVC050
                       FM191900 18014G22KT P6SM -SHRA SCT025 BKN050
                       FM200500 17007KT P6SM -SHRA BKN035=
201702190901 KSEA 190901Z 1909/2012 15007KT P6SM SCT014 BKN050 BKN070
                      TEMPO 1909/1913 BKN014 OVC050 FM191300 14005KT
                       4SM -RA BKN010 OVC025 FM191900 18012KT P6SM
                       -SHRA SCT025 BKN040 OVC060 FM192200 18015G25KT
                       P6SM -SHRA BKN040 FM200200 17012KT P6SM
                       -SHRA BKN035=
201702190659 KSEA 190659Z 1907/2012 18007KT P6SM FEW015 BKN030 OVC070 FM191300
                       14005KT 4SM -RA BKN010 OVC025 FM191900 18012KT
                       P6SM -SHRA SCT025 BKN040 OVC060 FM192200
                       18015G25KT P6SM -SHRA BKN040 FM200200 17012KT
                       P6SM -SHRA BKN035=
201702190520 TAF KSEA 190520Z 1906/2012 14005KT P6SM FEW008 BKN013 OVC040 FM191300
                       14005KT 4SM -RA BKN010 OVC025 FM191900 18012KT
                       P6SM -SHRA SCT025 BKN040 OVC060 FM192200
                       18015G25KT P6SM -SHRA BKN040 FM200200 17012KT
                       P6SM -SHRA BKN035=
201702190305 KSEA 190305Z 1903/2006 17007KT P6SM SCT009 BKN027 OVC040 FM190700
                       13005KT P6SM BKN010 OVC025 FM191300 14005KT
                       4SM -RA BKN015 OVC040 FM191900 18012KT P6SM
                       -SHRA SCT025 BKN040 OVC060 FM192200 18015G25KT
                       P6SM -SHRA BKN040=
201702190046 KSEA 190046Z 1901/2006 18005KT P6SM -SHRA BKN025 OVC040
                      TEMPO 1901/1905 SCT025 OVC040 FM190700 19007KT
                       P6SM BKN010 OVC020 FM191300 15008KT P6SM
                       -RA BKN020 OVC040=
201702182341 TAF KSEA 182341Z 1900/2006 18005KT P6SM -SHRA BKN015 OVC025 FM190700
                       19007KT P6SM BKN010 OVC020 FM191300 15008KT
                       P6SM -RA BKN020 OVC040=
201702182134 KSEA 182134Z 1822/1924 21006KT P6SM -RA SCT007 BKN015 OVC035
                      TEMPO 1822/1824 5SM -RA BR BKN007 OVC015
                       FM190200 24006KT P6SM -SHRA BKN020 OVC035
                       FM190700 19007KT P6SM SCT025 BKN040=
201702181751 KSEA 181751Z 1818/1924 01006KT 5SM -RA BR BKN004 OVC030
                      TEMPO 1818/1822 3SM -RA BR SCT004 OVC030
                       FM182200 01005KT 4SM -RA BR SCT004 OVC012
                       FM190000 24006KT P6SM -SHRA BKN020 OVC035
                       FM190400 19007KT P6SM SCT025 BKN040=
201702181739 TAF KSEA 181739Z 1818/1924 01006KT 5SM -RA BR OVC040 FM182000 01005KT
                       4SM -RA BR OVC020 FM190000 24006KT P6SM
                       -SHRA BKN020 OVC035 FM190400 19007KT P6SM
                       SCT025 BKN040=
201702181535 KSEA 181535Z 1816/1918 01006KT 5SM -RA BR OVC035 FM181800 01005KT
                       4SM -RA BR OVC020 FM190000 24006KT P6SM
                       -SHRA BKN020 OVC035 FM190300 18005KT P6SM
                       SCT020 BKN035=
201702181401 KSEA 181401Z 1814/1918 01008KT P6SM -RA SCT010 OVC040
                      TEMPO 1814/1818 -RA OVC006 FM181800 VRB04KT
                       4SM -RA BR OVC020 FM182200 24006KT P6SM
                       -SHRA BKN020 OVC035 FM190300 18005KT P6SM
                       SCT020 BKN035=
201702181120 TAF KSEA 181120Z 1812/1918 01012KT P6SM FEW010 OVC100 FM181600
                       01005KT P6SM -RA OVC050 FM181900 VRB04KT
                       4SM -RA BR OVC020 FM182200 24006KT P6SM
                       -SHRA BKN020 OVC035 FM190300 18005KT P6SM
                       SCT020 BKN035=
201702180900 KSEA 180900Z 1809/1912 01014KT P6SM SCT110 OVC200 FM181000 01008KT
                       P6SM OVC100 FM181500 01005KT P6SM -RA OVC050
                       FM181800 VRB04KT 4SM -RA BR OVC020 FM182100
                       24006KT P6SM -SHRA BKN020 OVC035 FM190200
                       18005KT P6SM VCSH OVC025=
201702180527 TAF KSEA 180527Z 1806/1912 02013KT P6SM SCT160 BKN250 FM181000
                       03006KT P6SM OVC100 FM181500 01005KT P6SM
                       -RA OVC050 FM181800 VRB04KT 4SM -RA BR OVC020
                       FM182100 24006KT P6SM -SHRA BKN020 OVC035
                       FM190200 18005KT P6SM VCSH OVC025=
201702180300 KSEA 180300Z 1803/1906 01013KT P6SM FEW130 SCT250 FM181000 03006KT
                       P6SM BKN100 BKN150 FM181500 01005KT P6SM
                       -RA BKN050 OVC080 FM182000 VRB03KT P6SM
                       -RA SCT020 OVC050=
201702172342 TAF KSEA 172342Z 1800/1906 02007KT P6SM SCT200 FM181000 03006KT
                       P6SM BKN100 BKN150 FM181500 01005KT P6SM
                       -RA BKN050 OVC080 FM182000 VRB03KT P6SM
                       -RA SCT020 OVC050=
201702172110 KSEA 172110Z 1721/1824 02006KT P6SM BKN200 FM180400 03006KT P6SM
                       BKN100 FM180600 04007KT P6SM SCT030 OVC080
                       FM181400 03005KT P6SM -RA SCT030 OVC050=
201702171738 TAF KSEA 171738Z 1718/1824 13005KT P6SM BKN200 FM172000 04006KT
                       P6SM BKN200 FM180100 04006KT P6SM BKN100
                       FM180600 04007KT P6SM SCT030 OVC100 FM181400
                       03005KT P6SM -RA SCT030 OVC050=
201702171534 KSEA 171534Z 1716/1818 13005KT P6SM SCT040 BKN200 FM171800 04005KT
                       P6SM BKN200 FM172000 36009KT P6SM BKN100
                       FM180600 04008KT P6SM OVC050=
201702171413 KSEA 171413Z 1714/1818 13005KT P6SM SCT035 BKN200
                      TEMPO 1714/1717 BKN035 BKN200 FM171800 04005KT
                       P6SM SCT035 BKN200 FM172000 36009KT P6SM
                       BKN100 FM180600 04008KT P6SM OVC050=
201702171120 TAF KSEA 171120Z 1712/1818 17005KT P6SM SCT027 BKN035
                      TEMPO 1712/1715 BKN022 OVC035 FM171500 04005KT
                       P6SM SCT025 SCT035 FM172000 36009KT P6SM
                       BKN100 FM180600 04008KT P6SM OVC050=
201702171044 KSEA 171044Z 1711/1812 18007KT P6SM FEW030 BKN040 FM171500 04005KT
                       P6SM SCT020 SCT040 BKN100 FM172000 36009KT
                       P6SM BKN100=
201702170826 KSEA 170826Z 1708/1812 20008KT P6SM -SHRA BKN013 BKN018 OVC028
                       FM171500 04005KT P6SM SCT020 SCT040 BKN100
                       FM172000 36009KT P6SM BKN100=
201702170520 TAF KSEA 170520Z 1706/1812 20012KT P6SM SCT018 BKN100 OVC180
                      TEMPO 1706/1709 BKN018 BKN100 OVC180 FM170900
                       18006KT P6SM -SHRA BKN018 BKN040 BKN100
                       FM171500 04005KT P6SM SCT020 SCT040 BKN100
                       FM172000 36009KT P6SM BKN100=
201702170302 KSEA 170302Z 1703/1806 21012KT P6SM SCT022 BKN080 OVC180 FM170900
                       18006KT P6SM SCT020 BKN040 FM171800 36006KT
                       P6SM SCT040=
201702162320 TAF KSEA 162320Z 1700/1806 20008KT P6SM SCT025 BKN080 FM170900
                       18006KT P6SM SCT020 BKN040 FM171800 36006KT
                       P6SM SCT040=
201702161720 TAF KSEA 161720Z 1618/1724 21012KT P6SM VCSH SCT020 SCT050 BKN200
                       TEMPO 1618/1621 BKN050 FM162100 20008KT
                       P6SM SCT025 BKN050 FM170900 19008KT P6SM
                       BKN020 OVC040=
201702161608 KSEA 161608Z 1616/1718 21012KT P6SM VCSH SCT020 BKN050
                      TEMPO 1616/1620 BKN020 BKN050 FM170900 19008KT
                       P6SM BKN020 OVC035=
201702161336 KSEA 161336Z 1614/1718 18010KT P6SM -SHRA SCT015 BKN025 OVC040
                       TEMPO 1614/1616 BKN005 BKN010 FM161600 19014G24KT
                       P6SM -SHRA SCT010 BKN020 OVC035 FM161900
                       19014G24KT P6SM SCT020 BKN035 OVC050
                      TEMPO 1619/1623 -SHRA BKN020 OVC035 FM170200
                       19008KT P6SM VCSH SCT025 BKN040 FM170900
                       19008KT P6SM BKN020 OVC035=
201702161140 TAF KSEA 161140Z 1612/1718 18010KT P6SM -SHRA SCT015 BKN025 OVC040
                       FM161500 19014G24KT P6SM -SHRA SCT010 BKN020
                       OVC035 FM161900 19014G24KT P6SM SCT020 BKN035
                       OVC050
                      TEMPO 1619/1623 -SHRA BKN020 OVC035 FM170200
                       19008KT P6SM VCSH SCT025 BKN040 FM170900
                       19008KT P6SM BKN020 OVC035=
201702160919 KSEA 160919Z 1609/1712 14012KT P6SM -RA SCT005 BKN015 OVC035 FM161100
                       14012KT P6SM -RA SCT020 OVC035 FM161400
                       19012G20KT P6SM -SHRA BKN020 OVC040 FM162000
                       18008KT P6SM VCSH SCT025 BKN040=
201702160544 TAF KSEA 160544Z 1606/1712 14012KT P6SM -RA SCT020 OVC035
                      TEMPO 1606/1610 5SM -RA FM161200 19012G20KT
                       P6SM -SHRA BKN020 OVC040 FM162000 18008KT
                       P6SM VCSH SCT025 BKN040=
201702160321 KSEA 160321Z 1603/1706 11012KT P6SM -RA SCT030 OVC050 FM160600
                       15012G22KT 5SM -RA BKN020 OVC040 FM161600
                       20012G20KT P6SM -SHRA BKN020 OVC040 FM162000
                       18008KT P6SM VCSH SCT025 BKN050=
201702152320 TAF KSEA 152320Z 1600/1706 11012KT 5SM -RA BR SCT020 OVC040
                      TEMPO 1600/1604 4SM RA BR BKN020 OVC040 FM160600
                       15012G22KT 5SM -RA BKN020 OVC040 FM161600
                       20012G20KT P6SM -SHRA BKN020 OVC040 FM162000
                       18008KT P6SM VCSH SCT025 BKN050=
201702151720 TAF KSEA 151720Z 1518/1624 16007KT P6SM -RA OVC035
                      TEMPO 1518/1522 5SM -RA FM152200 12010KT
                       5SM -RA BR BKN015 OVC030 FM160600 15012G22KT
                       P6SM -RA BKN020 OVC040 FM161600 20012G20KT
                       P6SM -SHRA BKN020 OVC040=
201702151437 KSEA 151437Z 1515/1618 14005KT 3SM -RA BR SCT015 OVC035
                      TEMPO 1515/1516 2SM RA BR SCT005 OVC030 FM151600
                       16010KT 5SM -RA SCT020 OVC040 FM152100 12010KT
                       P6SM -RA OVC045 FM160400 15012G22KT P6SM
                       -RA BKN025 OVC045=
201702151403 KSEA 151403Z 1514/1618 14005KT 3SM RA BR FEW016 OVC035
                      TEMPO 1514/1516 P6SM -RA OVC040 FM151600
                       16010KT 5SM -RA SCT020 OVC040 FM152100 12010KT
                       P6SM -RA OVC045 FM160400 15012G22KT P6SM
                       -RA BKN025 OVC045=
201702151125 TAF KSEA 151125Z 1512/1618 00000KT 3SM RA BR FEW016 OVC035
                      TEMPO 1512/1516 P6SM -RA OVC040 FM151600
                       16010KT 5SM -RA SCT025 OVC045 FM152100 12010KT
                       P6SM -RA OVC045 FM160400 15012G22KT P6SM
                       -RA BKN025 OVC045=
201702150900 KSEA 150900Z 1509/1612 10005KT P6SM -RA OVC050 FM151100 16010KT
                       P6SM -RA SCT025 OVC045 FM151800 14010G20KT
                       P6SM -RA BKN025 OVC045=
201702150520 TAF KSEA 150520Z 1506/1612 16006KT P6SM -RA OVC070 FM151100 16010KT
                       P6SM -RA SCT025 OVC045 FM151800 14010G20KT
                       P6SM -RA BKN025 OVC045=
201702150328 KSEA 150328Z 1503/1606 21003KT P6SM OVC090 FM150400 12008KT P6SM
                       -RA BKN045 OVC090 FM151100 13008KT P6SM
                       -RA SCT025 OVC045 FM151800 13010KT P6SM
                       -RA BKN025 OVC045=
201702142331 TAF KSEA 142331Z 1500/1606 15007KT P6SM SCT150 BKN200 FM150100
                       15008KT P6SM OVC120 FM150400 12008KT P6SM
                       -RA BKN045 OVC090 FM151100 13008KT P6SM
                       -RA SCT025 OVC045 FM151800 13010KT 5SM -RA
                       BR BKN025 OVC045=
201702142107 KSEA 142107Z 1421/1524 15007KT P6SM SCT150 BKN200 FM142300 15008KT
                       P6SM OVC120 FM150400 12008KT P6SM -RA BKN045
                       OVC090 FM151100 13008KT P6SM -RA SCT025
                       OVC045
                      TEMPO 1517/1520 3SM -RA BR OVC020=
201702141720 TAF KSEA 141720Z 1418/1524 15007KT P6SM BKN200 FM142300 15008KT
                       P6SM OVC120 FM150400 12008KT P6SM -RA BKN045
                       OVC090 FM151100 13008KT P6SM -RA SCT025
                       OVC045=
201702141406 KSEA 141406Z 1414/1518 14005KT P6SM SCT250 FM141800 15007KT P6SM
                       BKN200 FM142300 15008KT P6SM OVC120 FM150300
                       12008KT P6SM -RA BKN045 OVC090 FM151100
                       13008KT P6SM -RA SCT025 OVC045=
201702141123 TAF KSEA 141123Z 1412/1518 22003KT P6SM SCT250 FM141800 15007KT
                       P6SM BKN200 FM142300 15008KT P6SM OVC120
                       FM150300 12008KT P6SM -RA BKN045 OVC090
                       FM151100 13008KT P6SM -RA SCT025 OVC045=
201702140913 KSEA 140913Z 1409/1512 15003KT P6SM SCT250 FM141200 14006KT P6SM
                       SCT200 FM142000 14007KT P6SM SCT120 OVC200
                       FM150400 13008KT P6SM -RA BKN045 OVC100=
201702140529 TAF KSEA 140529Z 1406/1512 00000KT P6SM SKC FM141200 14006KT P6SM
                       SCT200 FM142000 14007KT P6SM SCT120 OVC200
                       FM150400 13008KT P6SM -RA BKN045 OVC100=
201702140316 KSEA 140316Z 1403/1506 00000KT P6SM FEW250 FM140800 12006KT P6SM
                       SCT250 FM141900 13007KT P6SM OVC120=
201702132320 TAF KSEA 132320Z 1400/1506 02008KT P6SM SKC FM140100 06008KT P6SM
                       SKC FM140400 09009KT P6SM SKC FM140800 15006KT
                       P6SM SCT250 FM141900 12007KT P6SM OVC250=
201702132101 TAF AMD KSEA 132101Z 1321/1424 02010KT P6SM SKC FM140200 10008KT
                       P6SM SKC FM140800 13006KT P6SM SCT250=
201702131720 TAF KSEA 131720Z 1318/1424 02010KT P6SM SKC FM140200 10008KT P6SM
                       SKC=
201702131452 KSEA 131452Z 1315/1418 02010KT P6SM SKC=
201702131120 TAF KSEA 131120Z 1312/1418 02010KT P6SM SKC=
201702130910 KSEA 130910Z 1309/1412 02010KT P6SM SKC=
201702130522 TAF KSEA 130522Z 1306/1412 35007KT P6SM SKC=
201702130309 KSEA 130309Z 1303/1406 01005KT P6SM SKC=
201702122344 TAF KSEA 122344Z 1300/1406 36005KT P6SM SCT150 FM130300 03005KT
                       P6SM SKC=
201702121731 TAF KSEA 121731Z 1218/1324 36004KT P6SM SCT080 OVC150 FM122100
                       36005KT P6SM SCT080 SCT150 FM130300 02005KT
                       P6SM SKC=
201702121631 KSEA 121631Z 1217/1318 34005KT P6SM FEW010 SCT120 BKN200 FM121800
                       36005KT P6SM SCT200 FM122000 VRB03KT P6SM
                       SKC FM130300 02005KT P6SM SKC=
201702121120 TAF KSEA 121120Z 1212/1318 12003KT P6SM BKN200 FM121500 06004KT
                       P6SM SCT004 BKN200 FM121800 06004KT P6SM
                       SCT200 FM122000 VRB03KT P6SM SKC FM130300
                       02005KT P6SM SKC=
201702120903 KSEA 120903Z 1209/1312 16003KT P6SM BKN180 FM121400 VRB03KT P6SM
                       SCT004 SCT200 FM121800 03004KT P6SM SCT200
                       FM122000 36004KT P6SM SKC FM130300 02006KT
                       P6SM SKC=
201702120526 TAF KSEA 120526Z 1206/1312 11006KT P6SM BKN200 FM121000 VRB03KT
                       P6SM SCT200 FM121400 VRB03KT P6SM SCT004
                       SCT200 FM121800 03004KT P6SM SCT200 FM122000
                       36004KT P6SM SKC FM130300 02006KT P6SM SKC=
201702112339 TAF KSEA 112339Z 1200/1306 22010KT P6SM SCT025 BKN050 FM120400
                       09005KT P6SM SCT200 FM121000 04005KT P6SM
                       SCT200 FM122000 35006KT P6SM SKC FM130300
                       03005KT P6SM SKC=
201702112108 KSEA 112108Z 1121/1224 20009KT P6SM SCT025 BKN035 FM112200 20008KT
                       P6SM FEW030 BKN045 FM120400 VRB04KT P6SM
                       SCT200 FM121800 35006KT P6SM SKC=
201702112015 KSEA 112015Z 1120/1224 18008KT P6SM BKN015 FM112100 19008KT P6SM
                       BKN020 BKN035 FM112200 20008KT P6SM SCT030
                       BKN045 FM120400 VRB04KT P6SM BKN200 FM121800
                       35006KT P6SM SKC=
201702111722 TAF KSEA 111722Z 1118/1224 18008KT P6SM OVC013 FM111900 19006KT
                       P6SM SCT020 BKN035 FM112100 20006KT P6SM
                       SCT035 BKN050 FM120400 VRB04KT P6SM BKN200
                       FM121800 35006KT P6SM SKC=
201702111622 KSEA 111622Z 1116/1218 18008KT P6SM OVC013 FM111900 19006KT P6SM
                       SCT020 BKN035 FM112100 20006KT P6SM SCT035
                       BKN050 FM120400 12006KT P6SM BKN200=
201702111410 KSEA 111410Z 1114/1218 20008KT P6SM OVC013 FM111800 20006KT P6SM
                       SCT020 BKN035 FM112100 20006KT P6SM SCT035
                       BKN050 FM120400 12006KT P6SM BKN200=
201702111134 TAF KSEA 111134Z 1112/1218 20008KT P6SM OVC015 FM111800 20006KT
                       P6SM SCT020 BKN035 FM112100 20006KT P6SM
                       SCT035 BKN050 FM120400 12006KT P6SM BKN200=
201702110902 KSEA 110902Z 1109/1212 20008KT P6SM BKN021 FM111800 20006KT P6SM
                       SCT020 BKN035 FM112100 20006KT P6SM SCT035
                       BKN050 FM120400 12006KT P6SM SCT050 BKN100=
201702110536 TAF KSEA 110536Z 1106/1212 20010KT P6SM BKN022
                      TEMPO 1106/1109 SCT020 FM110900 20008KT P6SM
                       BKN022 BKN030 FM111800 20006KT P6SM SCT020
                       BKN035 FM112100 20006KT P6SM SCT035 BKN050
                       FM120400 12006KT P6SM SCT050 BKN100=
201702110349 KSEA 110349Z 1104/1206 20012G22KT P6SM BKN020
                      TEMPO 1104/1108 SCT020 FM110800 19008KT P6SM
                       BKN020 BKN030 FM111800 19006KT P6SM BKN035
                       FM112100 19007KT P6SM BKN050=
201702102349 TAF KSEA 102349Z 1100/1206 20018G30KT P6SM -SHRA SCT020 BKN035
                       BKN050
                      TEMPO 1100/1102 -SHRA BKN020 BKN035 BKN050
                       FM110300 20012G22KT P6SM VCSH SCT020 BKN035
                       FM111000 19008KT P6SM BKN020 BKN030 FM111800
                       19006KT P6SM BKN035 FM112100 19007KT P6SM
                       BKN050=
201702102142 KSEA 102142Z 1022/1124 21020G33KT P6SM -SHRA BKN030 BKN045
                      TEMPO 1022/1024 6SM -SHRA BKN022 BKN035 FM110000
                       22015G25KT P6SM VCSH SCT030 BKN045 FM110500
                       20012KT P6SM BKN035 FM111200 19006KT P6SM
                       BKN030 FM112000 20006KT P6SM BKN040=
201702101720 TAF KSEA 101720Z 1018/1124 21022G40KT P6SM -SHRA BKN030 BKN045
                       FM102300 22015G25KT P6SM VCSH SCT030 BKN045
                       FM110500 20012KT P6SM BKN035 FM111200 19006KT
                       P6SM BKN030 FM112000 20006KT P6SM BKN040=
201702101609 KSEA 101609Z 1016/1118 20017G28KT P6SM -SHRA BKN030 OVC060 FM101700
                       21018G30KT P6SM -SHRA BKN030 BKN050 FM101900
                       22022G35KT P6SM -SHRA BKN035 BKN050 FM102300
                       22015G25KT P6SM VCSH SCT030 BKN050 FM110600
                       20012KT P6SM BKN040=
201702101547 KSEA 101547Z 1016/1118 20012G20KT P6SM -SHRA BKN030 OVC060 FM101700
                       21018G30KT P6SM -SHRA BKN030 BKN050 FM101900
                       22022G35KT P6SM -SHRA BKN035 BKN050 FM102300
                       22015G25KT P6SM VCSH SCT030 BKN050 FM110600
                       20012KT P6SM BKN040=
201702101125 TAF KSEA 101125Z 1012/1118 20012G20KT P6SM VCSH FEW035 BKN050 OVC070
                       TEMPO 1012/1016 -SHRA BKN025 FM101700 19025G40KT
                       P6SM VCSH SCT030 BKN040 FM102300 21015G25KT
                       P6SM SCT030 BKN050 FM110600 20012KT P6SM
                       BKN040=
201702100903 KSEA 100903Z 1009/1112 20012KT P6SM VCSH FEW030 BKN040 OVC070
                      TEMPO 1009/1012 -SHRA BKN025 FM101800 19025G40KT
                       P6SM VCSH BKN025 BKN030 FM110000 21014G24KT
                       P6SM SCT025 OVC040=
201702100532 TAF KSEA 100532Z 1006/1112 20015G25KT P6SM VCSH FEW015 SCT025 OVC040
                       TEMPO 1006/1010 -SHRA SCT015 BKN025 OVC030
                       FM101800 19025G40KT P6SM VCSH BKN025 BKN030
                       FM110000 21014G24KT P6SM SCT025 OVC040=
201702100305 KSEA 100305Z 1003/1106 20015G25KT P6SM VCSH FEW015 SCT025 OVC050
                       TEMPO 1003/1006 5SM -SHRA BR SCT015 BKN025
                       OVC040 FM100600 18012KT P6SM BKN025 OVC045
                       FM101800 19024G40KT P6SM -SHRA BKN020 OVC030
                       FM110000 21014KT P6SM SCT025 OVC040=
201702092320 TAF KSEA 092320Z 1000/1106 20015G25KT P6SM VCSH FEW015 SCT025 OVC040
                       TEMPO 1000/1004 5SM -SHRA BR SCT015 BKN025
                       OVC040 FM100600 18012KT P6SM BKN025 OVC045
                       FM101800 19024G40KT P6SM -SHRA BKN020 OVC030
                       FM110000 21014KT P6SM SCT025 OVC040=
201702092102 KSEA 092102Z 0921/1024 21020G32KT P6SM FEW008 SCT020 BKN050
                      TEMPO 0921/0924 4SM SHRA SCT008 BKN020 OVC060
                       FM100000 20018G28KT P6SM SCT030 OVC050 FM100900
                       18012KT P6SM BKN025 OVC045 FM101800 19020G32KT
                       P6SM -SHRA BKN020 OVC030=
201702091911 KSEA 091911Z 0919/1024 19012KT 6SM -RA BR SCT010 BKN025 OVC035
                       FM092100 18015G25KT P6SM -RA SCT020 OVC030
                       FM100000 20018G28KT P6SM -RA SCT030 OVC050
                       FM100900 18012KT P6SM BKN025 OVC045 FM101800
                       19020G32KT P6SM -SHRA BKN020 OVC030=
201702091720 TAF KSEA 091720Z 0918/1024 13007KT 3SM RA BR SCT007 OVC020
                      TEMPO 0918/0920 1 1/2SM +RA BR OVC007 FM092000
                       18015G25KT P6SM -RA SCT020 OVC030 FM100000
                       20018G28KT P6SM -RA SCT030 OVC050 FM100900
                       18012KT P6SM BKN025 OVC045 FM101800 19020G32KT
                       P6SM -SHRA BKN020 OVC030=
201702091418 KSEA 091418Z 0914/1018 13010KT P6SM -RA BKN045 OVC070
                      TEMPO 0914/0918 4SM RA BR SCT008 OVC030 FM091900
                       18015G25KT P6SM -RA SCT020 OVC030 FM100000
                       20018G28KT P6SM -RA OVC030 FM100900 18012KT
                       P6SM VCSH BKN025=
201702091137 TAF KSEA 091137Z 0912/1018 13010KT P6SM -RA SCT025 OVC035
                      TEMPO 0912/0916 3SM RA BR SCT008 BKN025 FM091900
                       18015G25KT P6SM -RA SCT020 OVC030 FM100000
                       20018G28KT P6SM -RA OVC030 FM100900 18012KT
                       P6SM VCSH BKN025=
201702090957 KSEA 090957Z 0910/1012 12008KT 6SM -RA BR SCT025 OVC040
                      TEMPO 0910/0913 1/2SM -RA FG BKN002 BKN020
                       FM091300 17010KT 4SM -RA BR SCT020 OVC025
                       FM091900 18015G23KT P6SM -RA OVC020=
201702090906 KSEA 090906Z 0909/1012 12008KT 6SM -RA BR SCT025 OVC040
                      TEMPO 0909/0913 BKN020 FM091300 17010KT 4SM
                       -RA BR SCT020 OVC025 FM091900 18015G23KT
                       P6SM -RA OVC020=
201702090522 TAF KSEA 090522Z 0906/1012 11010KT 4SM -RA BR SCT005 OVC020
                      TEMPO 0906/0909 BKN003 OVC012 FM090900 13012KT
                       4SM -RA BR SCT003 BKN008 OVC035 FM091300
                       17010KT 5SM -RA BR SCT005 OVC012 FM091900
                       18015G23KT P6SM -RA OVC020=
201702090203 KSEA 090203Z 0902/1006 08007KT 4SM -RA BR SCT003 SCT008 OVC022
                       TEMPO 0902/0906 BKN003 BKN005 OVC012 FM090600
                       08007KT 4SM -RA BR SCT003 SCT008 OVC022
                       TEMPO 0906/0909 BKN003 BKN008 OVC012 FM090900
                       13012KT 4SM -RA BR SCT003 BKN008 OVC035
                       FM091300 17010KT 5SM -RA BR SCT005 OVC012
                       FM091900 18015G23KT P6SM -RA OVC020=
201702082320 TAF KSEA 082320Z 0900/1006 03008KT 5SM -RA BR SCT003 OVC030
                      TEMPO 0900/0902 2SM -RA BR BKN003 OVC025
                       FM090200 08005KT 5SM -RA BR BKN003 OVC025
                       FM090900 13012KT 4SM -RA BR SCT003 BKN008
                       OVC035 FM091300 17010KT 5SM -RA BR SCT005
                       OVC012 FM091900 18015G23KT P6SM -RA OVC020=
201702082226 KSEA 082226Z 0822/0924 35008KT 5SM -RA BR SCT005 OVC035
                      TEMPO 0822/0902 2SM -RA BR BKN005 OVC035
                       FM090200 07010KT 5SM -RA BKN025 OVC035 FM090900
                       13012KT 4SM -RA BR OVC020 FM091300 17010KT
                       4SM -RA BR OVC012 FM091900 18015G23KT P6SM
                       -RA OVC020=
201702082101 TAF AMD KSEA 082101Z 0821/0924 03006KT P6SM -RA FEW010 SCT020 OVC050
                       TEMPO 0821/0824 4SM -RA BR BKN020 OVC035
                       FM090000 07010KT P6SM -RA SCT025 OVC035
                       FM090900 13012KT 4SM -RA BR OVC020 FM091300
                       17010KT 4SM -RA BR OVC012 FM091900 18015G23KT
                       P6SM -RA OVC020=
201702081725 TAF KSEA 081725Z 0818/0924 02006KT P6SM -RASN FEW005 SCT020 OVC035
                       TEMPO 0818/0820 4SM -SN BR SCT005 OVC020
                       FM082000 04006KT P6SM -RA SCT020 OVC035
                       TEMPO 0820/0824 4SM -RA BR OVC020 FM090000
                       07010KT P6SM -RA SCT025 OVC035 FM090900
                       13012KT 4SM -RA BR OVC020 FM091300 17010KT
                       4SM -RA BR OVC012 FM091900 18015G23KT P6SM
                       -RA OVC020=
201702081409 KSEA 081409Z 0814/0918 04005KT P6SM SCT015 BKN060 OVC080 FM081700
                       05007KT P6SM -RA SCT035 OVC050 FM082300
                       07011KT P6SM -RA SCT025 OVC035 FM090900
                       13012KT P6SM -RA OVC020=
201702081124 TAF KSEA 081124Z 0812/0918 04005KT P6SM SCT015 SCT060 OVC080
                      TEMPO 0812/0816 BKN015 FM081700 05007KT P6SM
                       -RA SCT035 OVC050 FM082300 07011KT P6SM
                       -RA SCT025 OVC035 FM090900 13012KT P6SM
                       -RA OVC020=
201702080903 TAF AMD KSEA 080903Z 0809/0912 06004KT P6SM BKN015 OVC025 FM081500
                       07005KT P6SM SCT020 BKN060 OVC080 FM081800
                       09011KT P6SM -RA SCT035 OVC050 FM082300
                       10010KT 4SM -RA BR SCT025 OVC035=
201702080524 TAF KSEA 080524Z 0806/0912 06004KT P6SM SCT025 BKN030 OVC045
                      TEMPO 0806/0810 -RA BKN025 FM081400 07005KT
                       P6SM BKN060 OVC080 FM081800 09011KT P6SM
                       -RA SCT035 OVC050 FM082300 10010KT 4SM -RA
                       BR SCT025 OVC035=
201702080308 KSEA 080308Z 0803/0906 04004KT P6SM FEW020 BKN040 BKN200 FM080700
                       06004KT P6SM BKN030 OVC100 FM081400 07005KT
                       P6SM BKN060 OVC080 FM082000 09011KT P6SM
                       -RA SCT035 OVC050 FM082300 10010KT 4SM -RA
                       BR SCT025 OVC035=
201702072337 TAF KSEA 072337Z 0800/0906 36005KT P6SM SCT070 BKN150 FM080700
                       VRB03KT P6SM BKN030 OVC100 FM081400 07005KT
                       P6SM BKN060 OVC080 FM082000 09011KT P6SM
                       -RA SCT035 OVC050 FM082300 10010KT 4SM -RA
                       BR SCT025 OVC035=
201702072100 KSEA 072100Z 0721/0824 36008KT P6SM SCT090 BKN150 FM081000 13004KT
                       P6SM SCT025 BKN080 FM081500 08005KT P6SM
                       BKN060 OVC080 FM082000 09011KT P6SM -RA
                       SCT035 OVC045=
201702071735 TAF KSEA 071735Z 0718/0824 01011KT P6SM FEW005 BKN200 FM072000
                       36008KT P6SM SCT120 BKN200 FM081000 13004KT
                       P6SM SCT025 BKN080 FM081500 08005KT P6SM
                       BKN060 OVC080 FM082000 09011KT P6SM -RA
                       SCT035 OVC045=
201702071356 KSEA 071356Z 0714/0818 VRB04KT P6SM BKN050 FM071600 03005KT P6SM
                       SCT050 SCT120 FM071900 36007KT P6SM SCT120
                       SCT200=
201702071122 TAF KSEA 071122Z 0712/0818 VRB04KT P6SM SCT035 BKN050
                      TEMPO 0712/0715 BKN025 FM071500 03005KT P6SM
                       SCT050 SCT120 FM071900 36007KT P6SM SCT120
                       SCT200=
201702070916 KSEA 070916Z 0709/0812 14004KT P6SM FEW020 SCT035 BKN050
                      TEMPO 0710/0714 BKN020 FM071400 03005KT P6SM
                       BKN100 FM071800 36007KT P6SM SCT120 SCT200=
201702070530 TAF KSEA 070530Z 0706/0812 19012KT P6SM VCSH SCT025 SCT060 BKN200
                       FM070900 14005KT 3SM BR BKN015 BKN050 BKN100
                       FM071400 03005KT P6SM BKN100 FM071800 36007KT
                       P6SM SCT120 SCT200=
201702070303 KSEA 070303Z 0703/0806 17012KT P6SM VCSH SCT025 SCT060 BKN200 FM070900
                       14005KT 3SM BR BKN015 BKN050 BKN100 FM071400
                       03005KT P6SM BKN100=
201702070143 KSEA 070143Z 0702/0806 17012KT P6SM VCSH SCT015 BKN025 BKN050 FM070900
                       14005KT 3SM BR BKN015 BKN050 BKN100 FM071400
                       03005KT P6SM BKN100=
201702062340 TAF KSEA 062340Z 0700/0806 19012G21KT P6SM VCSH SCT015 BKN045 BKN100
                       TEMPO 0700/0701 3SM -SHSNRA BR FM070500
                       20009KT P6SM BKN050 BKN100 FM070900 14005KT
                       3SM BR BKN015 BKN050 BKN100 FM071400 03005KT
                       P6SM BKN100=
201702062036 KSEA 062036Z 0621/0724 17006KT 5SM -SHRASN BR BKN007 OVC018
                      TEMPO 0621/0623 3/4SM -SN BR FM070000 19011KT
                       P6SM VCSH SCT015 BKN030
                      TEMPO 0703/0707 5SM -SHRASN BR FM070900 14005KT
                       3SM BR BKN050 FM071400 03005KT P6SM BKN100=
201702061739 TAF KSEA 061739Z 0618/0724 20008KT 3/4SM -SN BR BKN004 OVC007 FM062100
                       17006KT 3SM -SHSN BR BKN007 OVC018
                      TEMPO 0621/0623 3/4SM -SN BR FM070000 19011KT
                       P6SM VCSH SCT015 BKN030
                      TEMPO 0703/0707 1SM -SHSN BR FM070900 14005KT
                       3SM BR BKN050 FM071400 03005KT P6SM BKN100=
201702061609 KSEA 061609Z 0616/0718 05004KT 3/4SM -SHSN BR SCT003 OVC010 FM061700
                       20008KT 3SM -SHSN BR BKN012 OVC030 FM062000
                       17006KT P6SM VCSH BKN015 BKN030 FM070300
                       19006KT P6SM VCSH BKN050 FM070900 VRB06KT
                       P6SM BKN100=
201702061552 KSEA 061552Z 0616/0718 05004KT 3/4SM BR SCT003 OVC010 FM061700
                       20008KT 3SM -SHSN BR BKN012 OVC030 FM062000
                       17006KT P6SM VCSH BKN015 BKN030 FM070300
                       19006KT P6SM VCSH BKN050 FM070900 VRB06KT
                       P6SM BKN100=
201702061405 TAF AMD KSEA 061405Z 0614/0718 05004KT 3/4SM -SN BR SCT005 OVC011
                       TEMPO 0614/0616 4SM BR FM061600 20008KT
                       3SM -SHSN BR BKN012 OVC030 FM062000 17006KT
                       P6SM VCSH BKN015 BKN030 FM070300 19006KT
                       P6SM VCSH BKN050 FM070900 VRB06KT P6SM BKN100=
201702061140 TAF KSEA 061140Z 0612/0718 05004KT 3/4SM -SN BR BKN005 OVC011
                      TEMPO 0612/0616 4SM BR SCT006 OVC011 FM061600
                       20008KT 3SM -SHSN BR BKN012 OVC030 FM062000
                       17006KT P6SM VCSH BKN015 BKN030 FM070300
                       19006KT P6SM VCSH BKN050 FM070900 VRB06KT
                       P6SM BKN100=
201702060900 TAF AMD KSEA 060900Z 0609/0712 34006KT 3/4SM -SN BR OVC003 FM061200
                       20008KT 3SM -SHSN BR BKN010 OVC030 FM061800
                       17006KT P6SM VCSH BKN015 BKN030 FM070300
                       19006KT P6SM VCSH BKN050=
201702060520 TAF KSEA 060520Z 0606/0712 36009KT 1SM -SN BR OVC001 FM060800 02010KT
                       1SM -SN BR OVC005 FM061200 20008KT 3SM -SHSN
                       BR BKN010 OVC030 FM061800 17006KT P6SM VCSH
                       BKN015 BKN030 FM070300 19006KT P6SM VCSH
                       BKN050=
201702060305 KSEA 060305Z 0603/0706 01010KT 1 1/2SM -SN BR OVC002
                      TEMPO 0603/0606 3SM -RASN BR BKN005 OVC015
                       FM060600 02010KT 1SM -SN BR OVC005 FM061200
                       02010KT 3SM -SHSN BR BKN010 OVC030 FM061800
                       VRB04KT P6SM VCSH BKN015 BKN030=
201702052320 TAF KSEA 052320Z 0600/0706 02006KT P6SM -RA SCT005 OVC020
                      TEMPO 0600/0604 3SM -RASN BR BKN005 OVC015
                       FM060400 02008KT 3SM -RASN BR OVC012
                      TEMPO 0604/0608 1SM -SN BR OVC005 FM060800
                       02010KT 1SM -SN BR OVC005 FM061200 02010KT
                       3SM -SHSN BR BKN010 OVC030 FM061800 VRB04KT
                       P6SM VCSH BKN015 BKN030=
201702052103 KSEA 052103Z 0521/0624 10007KT P6SM -RA SCT012 BKN025 OVC030 FM060100
                       04006KT 4SM -RASN BR OVC012 FM060500 03011KT
                       3SM -SN BR OVC007
                      TEMPO 0610/0614 3/4SM -SN BR OVC004 FM061400
                       01010KT 3SM -SN BR OVC007
                      TEMPO 0614/0618 3/4SM -SN BR OVC004 FM061800
                       VRB04KT 2SM -SN BR OVC007=
201702051744 TAF KSEA 051744Z 0518/0624 13009KT P6SM VCSH SCT007 OVC030
                      TEMPO 0518/0522 2SM -RA BR BKN004 BKN007
                       OVC035 FM052200 16008KT P6SM -RA SCT010
                       OVC035 FM060100 04006KT 4SM -RASN BR OVC012
                       FM060500 03011KT 3SM -SN BR OVC007
                      TEMPO 0610/0614 3/4SM -SN BR OVC004 FM061400
                       01010KT 3SM -SN BR OVC007
                      TEMPO 0614/0618 3/4SM -SN BR OVC004 FM061800
                       VRB04KT 2SM -SN BR OVC007=
201702051624 KSEA 051624Z 0516/0618 15008KT P6SM VCSH SCT007 OVC035
                      TEMPO 0516/0520 -RA BKN007 OVC035 FM052000
                       16008KT P6SM -RA OVC035 FM060100 04006KT
                       4SM -RA BR OVC020 FM060500 03011KT 4SM -SN
                       OVC013
                      TEMPO 0609/0613 1SM -SN OVC006=
201702051401 KSEA 051401Z 0514/0618 16011KT P6SM VCSH FEW010 SCT020 OVC070
                      TEMPO 0514/0516 BKN010 OVC040 FM051800 16008KT
                       P6SM -RA OVC035 FM060100 04006KT 4SM -RA
                       BR OVC020 FM060500 03011KT 4SM -SN OVC013
                       TEMPO 0609/0613 1SM -SN OVC006=
201702051140 TAF KSEA 051140Z 0512/0618 22011KT P6SM VCSH FEW013 SCT029 OVC040
                       TEMPO 0512/0516 BKN020 OVC040 FM051800 16008KT
                       P6SM -RA OVC035 FM060100 04006KT 4SM -RA
                       BR OVC020 FM060500 03011KT 4SM -SN OVC013
                       TEMPO 0609/0613 1SM -SN OVC006=
201702050900 TAF AMD KSEA 050900Z 0509/0612 23009G18KT 5SM -RA BR SCT010 BKN015
                       OVC025 FM051200 16005KT P6SM VCSH SCT012
                       BKN025 OVC070 FM051600 15006KT P6SM -RA
                       OVC015 FM060100 06006KT 4SM -RA BR BKN008
                       OVC012 FM060500 01009KT 2SM -SN BR SCT003
                       OVC006=
201702050535 TAF KSEA 050535Z 0506/0612 17014G22KT P6SM VCSH FEW015 SCT030 OVC060
                       FM051200 16005KT P6SM VCSH SCT012 BKN025
                       OVC070 FM051600 15006KT P6SM -RA OVC015
                       FM060100 06006KT 4SM -RA BR BKN008 OVC012
                       FM060500 01009KT 2SM -SN BR SCT003 OVC006=
201702050310 KSEA 050310Z 0503/0606 16005KT P6SM FEW010 OVC035 FM050600 20011G19KT
                       P6SM -RA SCT018 BKN030 OVC070 FM051300 16005KT
                       P6SM -RA SCT012 BKN025 OVC070 FM052000 05004KT
                       6SM -RA BR SCT008 BKN012 OVC045 FM060100
                       03005KT 4SM -RA BR BKN008 OVC012 FM060500
                       01009KT 2SM -SN BR SCT003 OVC006=
201702042341 TAF KSEA 042341Z 0500/0606 19005KT 6SM -RA BR SCT008 BKN020 OVC045
                       FM050200 19012G20KT P6SM -SHRA SCT012 OVC025
                       FM050600 20011G19KT P6SM -SHRA SCT018 BKN030
                       OVC070 FM051300 16005KT P6SM -SHRA SCT012
                       BKN025 OVC070 FM052000 05004KT 6SM -RA BR
                       SCT008 BKN012 OVC045 FM060100 03005KT 4SM
                       -RA BR BKN008 OVC012 FM060500 01009KT 2SM
                       -SN BR SCT003 OVC006=
201702042032 KSEA 042032Z 0421/0524 VRB03KT 4SM -RA BR SCT006 OVC012 FM050200
                       19010KT P6SM -SHRA SCT012 OVC020 FM050700
                       20013G21KT P6SM -SHRA SCT018 BKN030 OVC070
                       FM051300 16005KT P6SM -SHRA SCT012 BKN025
                       OVC070 FM052000 05005KT 5SM -RA SCT008 OVC012=
201702041739 TAF KSEA 041739Z 0418/0524 20007KT P6SM -RA OVC018 FM042200 17007KT
                       4SM -RA BR SCT008 OVC012 FM050200 19010KT
                       P6SM -SHRA SCT012 OVC020 FM050700 20013G21KT
                       P6SM -SHRA SCT018 BKN030 OVC070 FM051300
                       16005KT P6SM -SHRA SCT012 BKN025 OVC070
                       FM052000 05005KT 5SM -RA SCT008 OVC012=
201702041401 KSEA 041401Z 0414/0518 15006KT P6SM -RA SCT015 BKN029 OVC040
                      TEMPO 0414/0417 4SM -RA BR SCT010 OVC015
                       FM041800 18007KT P6SM -RA SCT012 OVC025
                       TEMPO 0422/0502 4SM -RA BR FM050600 20012KT
                       P6SM -RA OVC030 FM051200 19007KT P6SM -RA
                       OVC020=
201702041135 TAF KSEA 041135Z 0412/0518 15006KT P6SM -RA BKN029 OVC035
                      TEMPO 0413/0417 4SM -RA BR SCT010 OVC015
                       FM041800 18007KT P6SM -RA SCT012 OVC025
                       TEMPO 0422/0502 4SM -RA BR FM050600 20012KT
                       P6SM -RA OVC030=
201702040909 KSEA 040909Z 0409/0512 14012KT P6SM -RA OVC024 FM041200 19011KT
                       P6SM -RA SCT010 OVC015 FM041900 18007KT
                       P6SM -RA SCT012 OVC025
                      TEMPO 0422/0502 4SM -RA BR FM050400 19011KT
                       P6SM VCSH SCT025 OVC040=
201702040530 TAF KSEA 040530Z 0406/0512 09004KT P6SM -SHRA FEW030 OVC040 FM041200
                       19011KT P6SM -SHRA SCT010 OVC015 FM041900
                       18007KT P6SM -SHRA SCT012 OVC025
                      TEMPO 0422/0502 4SM -SHRA BR FM050400 19011KT
                       P6SM VCSH SCT025 OVC040=
201702040313 KSEA 040313Z 0403/0506 12006KT P6SM -SHRA SCT015 OVC035 FM040400
                       14006KT P6SM -SHRA BKN015 OVC030 FM041200
                       19011KT P6SM -SHRA SCT010 OVC015 FM041900
                       18007KT P6SM -SHRA SCT012 OVC025
                      TEMPO 0422/0502 4SM -SHRA BR FM050400 19011KT
                       P6SM VCSH SCT025 OVC040=
201702032339 TAF KSEA 032339Z 0400/0506 11006KT 5SM -RA BR OVC035 FM040100 12006KT
                       P6SM -SHRA SCT015 OVC035 FM040400 14006KT
                       P6SM -SHRA BKN015 OVC030 FM041200 19011KT
                       P6SM -SHRA SCT010 OVC015 FM041900 18007KT
                       P6SM -SHRA SCT012 OVC025
                      TEMPO 0422/0502 4SM -SHRA BR FM050400 19011KT
                       P6SM VCSH SCT025 OVC040=
201702032102 TAF AMD KSEA 032102Z 0321/0424 11006KT 6SM -RA BR OVC035 FM040100
                       12006KT P6SM VCSH SCT025 OVC035 FM040400
                       14006KT P6SM -SHRA BKN025 OVC035 FM041200
                       19011KT P6SM -SHRA SCT012 OVC018 FM041800
                       14008KT P6SM -SHRA SCT025 OVC040 FM042300
                       14008KT 5SM -RA BR SCT020 OVC030=
201702031737 TAF KSEA 031737Z 0318/0424 10007KT P6SM VCSH OVC040 FM032000 10005KT
                       6SM -RA BR OVC035
                      TEMPO 0320/0322 VRB03KT FM040100 11006KT
                       P6SM VCSH SCT025 OVC035 FM040400 14006KT
                       P6SM -SHRA BKN025 OVC035 FM041200 19011KT
                       P6SM -SHRA SCT012 OVC018 FM041800 14008KT
                       P6SM -SHRA SCT025 OVC040 FM042300 14008KT
                       5SM -RA BR SCT020 OVC030=
201702031315 KSEA 031315Z 0313/0418 12008KT P6SM -RASN FEW030 OVC050
                      TEMPO 0313/0315 3SM -SN OVC030 FM031500 09008KT
                       P6SM -RA OVC040 FM040300 10005KT P6SM -RA
                       OVC025 FM040900 16009KT 5SM -RA BR OVC015=
201702031313 KSEA 031313Z 0313/0418 10008KT P6SM -RASN FEW030 OVC050
                      TEMPO 0313/0315 3SM -SN OVC030 FM031500 09008KT
                       P6SM -RA OVC040 FM040300 10005KT P6SM -RA
                       OVC025 FM040900 16009KT 5SM -RA BR OVC015=
201702031135 TAF KSEA 031135Z 0312/0418 10007KT P6SM OVC090 FM031300 10008KT
                       P6SM -RA OVC050
                      TEMPO 0313/0315 3SM -SN OVC030 FM031500 09008KT
                       P6SM -RA OVC040 FM040300 10005KT P6SM -RA
                       OVC025 FM040900 16009KT 5SM -RA BR OVC015=
201702030620 KSEA 030620Z 0306/0412 10013KT P6SM SCT028 OVC060
                      TEMPO 0306/0308 3SM -SN OVC023 FM030800 10013KT
                       P6SM SCT035 OVC060
                      TEMPO 0308/0311 -RA BKN035 OVC050 FM031100
                       09010KT P6SM VCSH OVC050 FM031500 09008KT
                       P6SM -SHRA OVC040 FM031900 06008KT P6SM
                       -SHRA OVC035 FM040500 13007KT P6SM -SHRA
                       OVC035=
201702030520 TAF KSEA 030520Z 0306/0412 11014KT P6SM SCT070 BKN100 OVC150 FM031100
                       09010KT P6SM VCSH OVC050 FM031500 09008KT
                       P6SM -SHRA OVC040 FM031900 06008KT P6SM
                       -SHRA OVC035 FM040500 13007KT P6SM -SHRA
                       OVC035=
201702030001 TAF KSEA 030001Z 0300/0406 10013G22KT P6SM OVC250 FM030600 10012KT
                       P6SM BKN060 OVC100 FM031100 09010KT P6SM
                       VCSH OVC050 FM031500 09008KT P6SM -SHRA
                       OVC040 FM031900 06008KT P6SM -SHRA OVC035
                       FM040500 13007KT P6SM -SHRA OVC035=
201702022016 KSEA 022016Z 0220/0324 09014G25KT P6SM BKN250 FM030000 11013G24KT
                       P6SM OVC250 FM030300 10012KT P6SM OVC100
                       FM031200 14007KT P6SM VCSH OVC050 FM031800
                       10008KT P6SM -SHRA OVC040=
201702021743 TAF KSEA 021743Z 0218/0324 06012KT P6SM SCT250 FM022100 06014G25KT
                       P6SM BKN250 FM030000 06015G28KT P6SM OVC250
                       FM030300 06013KT P6SM OVC100 FM031200 06010KT
                       P6SM VCSH OVC050 FM031800 10008KT P6SM -SHRA
                       OVC040=
201702021601 KSEA 021601Z 0216/0318 06013KT P6SM SCT250 FM022100 06015G25KT
                       P6SM BKN250 FM030000 06015G28KT P6SM OVC250
                       FM030300 06013KT P6SM OVC100 FM031200 06010KT
                       P6SM VCSH OVC050=
201702021125 TAF KSEA 021125Z 0212/0318 07015G23KT P6SM SCT250 FM030000 06013KT
                       P6SM OVC250 FM030600 06013KT P6SM OVC100
                       FM031200 06010KT P6SM OVC050
                      PROB30 0312/0318 -FZRA=
201702020937 KSEA 020937Z 0210/0312 07013G20KT P6SM SCT250 FM030000 06013KT
                       P6SM SCT150 BKN200=
201702020533 TAF KSEA 020533Z 0206/0312 08015G24KT P6SM SCT250 FM021200 05014G22KT
                       P6SM SCT250 FM030000 06013KT P6SM SCT150
                       BKN200=
201702020310 KSEA 020310Z 0203/0306 07018G24KT P6SM SCT250 FM020600 05014G22KT
                       P6SM SCT250 FM030000 06013KT P6SM SCT150
                       BKN200=
201702012340 TAF KSEA 012340Z 0200/0306 07018G28KT P6SM SCT250 FM020300 06015G22KT
                       P6SM SCT250 FM020600 05014KT P6SM SCT250
                       FM030000 06013KT P6SM SCT150 BKN200=
201702012320 TAF KSEA 012320Z 0200/0306 03015G25KT P6SM SCT250
                      TEMPO 0200/0201 04018G28KT FM020400 05013KT
                       P6SM SCT250=
201702012242 KSEA 012242Z 0123/0224 06017G27KT P6SM SCT250 FM020100 06013KT
                       P6SM SCT250=
201702011828 TAF KSEA 011828Z 0118/0224 03015G25KT P6SM SCT250
                      TEMPO 0121/0201 04018G28KT FM020400 05013KT
                       P6SM SCT250=
201702011401 KSEA 011401Z 0114/0218 02013KT P6SM SCT200 FM011700 03016G23KT
                       P6SM SCT200
                      TEMPO 0120/0124 03020G30KT FM020600 06012KT
                       P6SM SKC=
201702011120 TAF KSEA 011120Z 0112/0218 01012KT P6SM FEW250 FM011700 03016G23KT
                       P6SM FEW250 FM020600 06012KT P6SM SKC=
201702010902 KSEA 010902Z 0109/0212 01012KT P6SM FEW250 FM011700 03016G23KT
                       P6SM FEW250 FM020300 06012KT P6SM SKC=
201702010520 TAF KSEA 010520Z 0106/0212 01012KT P6SM FEW035 FEW250 FM011700
                       03016G23KT P6SM FEW250 FM020300 06012KT
                       P6SM SKC=
201702010258 KSEA 010258Z 0103/0206 01012KT P6SM FEW035 FEW250 FM011700 03016G23KT
                       P6SM FEW250=