##########################################################
# Query made at 02/17/2025 20:11:30 UTC
# Time interval: from 08/01/2017 00:00  to 08/31/2017 23:59  UTC
##########################################################

##########################################################
# KSEA, Seattle, Seattle-Tacoma International Airport (United States)
# WMO index: 72793. WIGOS ID: 0-20000-0-72793
# Latitude 47-27-00N. Longitude 122-17-59W. Altitude 130 m.
##########################################################

###################################
#  METAR/SPECI from KSEA
###################################
201708312353 METAR KSEA 312353Z 28005KT 10SM FEW020 23/14 A3014 RMK AO2 SLP210 T02280144 10228 20172 58012=
201708312253 METAR KSEA 312253Z 29008KT 10SM SCT018 23/14 A3015 RMK AO2 SLP215 T02280144=
201708312153 METAR KSEA 312153Z 31006KT 10SM SCT015 23/16 A3016 RMK AO2 SLP218 T02280156=
201708312134 SPECI KSEA 312134Z 30006KT 10SM FEW009 SCT015 22/16 A3017 RMK AO2 T02170156=
201708312116 SPECI KSEA 312116Z 27006KT 10SM FEW009 BKN015 22/16 A3017 RMK AO2 T02170161=
201708312053 METAR KSEA 312053Z 27005KT 10SM FEW007 BKN012 21/16 A3017 RMK AO2 SLP222 T02060161 54000=
201708311953 METAR KSEA 311953Z 29005KT 10SM FEW004 BKN010 20/16 A3017 RMK AO2 SLP220 T02000161=
201708311946 SPECI KSEA 311946Z 27006KT 10SM FEW004 BKN010 19/16 A3017 RMK AO2 T01940161=
201708311853 METAR KSEA 311853Z 28003KT 7SM SCT004 OVC008 18/16 A3018 RMK AO2 SLP225 T01830156=
201708311812 SPECI KSEA 311812Z VRB03KT 5SM BR SCT004 OVC008 18/16 A3018 RMK AO2 VIS W-N 1 1/2 T01780161=
201708311753 METAR KSEA 311753Z 27004KT 4SM R16L/6000VP6000FT BR OVC004 17/16 A3018 RMK AO2 SLP223 VIS W-N 1 1/2 T01720156 10172 20161 53010=
201708311653 METAR KSEA 311653Z 19006KT 4SM R16L/4500VP6000FT BR OVC004 17/16 A3016 RMK AO2 SLP216 VIS W-N-NE 3/4 T01720156=
201708311639 SPECI KSEA 311639Z 20007KT 4SM R16L/4000VP6000FT BR OVC003 17/16 A3016 RMK AO2 VIS W-N-NE 1/2 T01670156=
201708311553 METAR KSEA 311553Z 21006KT 1SM R16L/3500VP6000FT BR OVC003 17/16 A3015 RMK AO2 SLP215 T01670161=
201708311453 METAR KSEA 311453Z 00000KT 2 1/2SM BR OVC003 17/16 A3014 RMK AO2 SFC VIS 4 SLP212 T01720161 53013=
201708311353 METAR KSEA 311353Z 00000KT 2SM BR OVC003 17/16 A3013 RMK AO2 SLP207 T01670161=
201708311253 METAR KSEA 311253Z 27004KT 4SM BR OVC004 17/16 A3011 RMK AO2 SLP199 T01670156=
201708311249 SPECI KSEA 311249Z 29004KT 4SM BR OVC004 17/16 A3010 RMK AO2=
201708311212 SPECI KSEA 311212Z 28004KT 10SM BKN006 BKN012 OVC017 17/16 A3011 RMK AO2 T01720156=
201708311153 METAR KSEA 311153Z 24004KT 10SM FEW007 OVC014 17/16 A3010 RMK AO2 SLP198 T01720156 10183 20167 53008=
201708311053 METAR KSEA 311053Z 00000KT 10SM BKN008 OVC015 17/16 A3009 RMK AO2 SLP194 T01720156=
201708311041 SPECI KSEA 311041Z 20003KT 10SM BKN008 OVC015 17/16 A3009 RMK AO2 T01720156=
201708311019 SPECI KSEA 311019Z 22004KT 10SM FEW008 OVC017 17/16 A3009 RMK AO2 T01720156=
201708310953 METAR KSEA 310953Z 18006KT 10SM OVC017 17/15 A3008 RMK AO2 SLP192 T01720150=
201708310925 SPECI KSEA 310925Z 17004KT 10SM FEW009 OVC015 17/15 A3008 RMK AO2 T01720150=
201708310853 METAR KSEA 310853Z 16004KT 10SM OVC009 17/15 A3008 RMK AO2 SLP189 T01720150 51004=
201708310821 SPECI KSEA 310821Z 21004KT 10SM BKN012 17/15 A3009 RMK AO2 T01720150=
201708310753 METAR KSEA 310753Z 19005KT 10SM FEW023 17/15 A3007 RMK AO2 SLP189 T01670150 402500156=
201708310653 METAR KSEA 310653Z 22005KT 10SM FEW055 17/15 A3007 RMK AO2 SLP188 T01720150=
201708310553 METAR KSEA 310553Z 00000KT 10SM SCT055 19/13 A3006 RMK AO2 SLP185 T01890133 10250 20183 51014=
201708310453 METAR KSEA 310453Z 22006KT 10SM BKN070 20/13 A3005 RMK AO2 SLP180 T02000133=
201708310353 METAR KSEA 310353Z 25005KT 10SM FEW030 BKN085 BKN250 21/14 A3004 RMK AO2 SLP178 T02110139=
201708310253 METAR KSEA 310253Z 24006KT 10SM FEW030 SCT075 BKN250 22/14 A3002 RMK AO2 SLP171 T02220139 53005=
201708310153 METAR KSEA 310153Z 00000KT 10SM FEW030 FEW050 SCT250 24/13 A3001 RMK AO2 SLP165 T02440133=
201708310053 METAR KSEA 310053Z 31005KT 10SM FEW030 FEW050 SCT250 24/13 A3001 RMK AO2 SLP168 T02440128=
201708302353 METAR KSEA 302353Z VRB05KT 10SM FEW040 BKN250 24/14 A3001 RMK AO2 SLP166 T02390139 10239 20172 56007=
201708302253 METAR KSEA 302253Z 22007KT 10SM FEW040 BKN250 23/14 A3001 RMK AO2 SLP167 T02330139=
201708302153 METAR KSEA 302153Z 31005KT 10SM FEW022 BKN250 22/13 A3002 RMK AO2 SLP170 T02220133=
201708302116 SPECI KSEA 302116Z VRB05KT 10SM SCT022 BKN250 22/13 A3003 RMK AO2 T02170133=
201708302053 METAR KSEA 302053Z 27008KT 10SM BKN022 BKN250 21/13 A3003 RMK AO2 SLP174 T02060133 58000=
201708301953 METAR KSEA 301953Z 21007KT 180V250 10SM BKN020 20/13 A3004 RMK AO2 SLP175 T02000128=
201708301853 METAR KSEA 301853Z 20006KT 10SM OVC019 19/13 A3004 RMK AO2 SLP175 T01890128=
201708301753 METAR KSEA 301753Z 22007KT 170V230 10SM OVC017 17/13 A3003 RMK AO2 SLP175 T01720128 10178 20156 53008=
201708301653 METAR KSEA 301653Z 17007KT 10SM OVC016 17/13 A3002 RMK AO2 SLP169 T01720128=
201708301635 SPECI KSEA 301635Z 17007KT 10SM OVC015 17/13 A3001 RMK AO2 T01670128=
201708301553 METAR KSEA 301553Z 17007KT 10SM BKN014 BKN250 17/13 A3001 RMK AO2 SLP166 T01670128=
201708301453 METAR KSEA 301453Z 20006KT 10SM OVC012 16/13 A3001 RMK AO2 SLP166 T01610133 51012=
201708301353 METAR KSEA 301353Z 20007KT 10SM OVC012 16/13 A3000 RMK AO2 SLP162 T01610133=
201708301253 METAR KSEA 301253Z 21005KT 10SM OVC013 16/13 A2999 RMK AO2 SLP157 T01610133=
201708301153 METAR KSEA 301153Z 19009KT 10SM OVC012 16/13 A2997 RMK AO2 SLP153 T01610133 10167 20156 51007=
201708301053 METAR KSEA 301053Z 19008KT 10SM OVC011 16/13 A2997 RMK AO2 SLP152 T01610133=
201708300953 METAR KSEA 300953Z 21009KT 10SM OVC012 16/13 A2996 RMK AO2 SLP147 T01610133=
201708300853 METAR KSEA 300853Z 20009KT 10SM OVC012 16/14 A2995 RMK AO2 SLP146 T01610139 51009=
201708300832 SPECI KSEA 300832Z 20006KT 10SM BKN014 16/14 A2994 RMK AO2 T01610139=
201708300753 METAR KSEA 300753Z 18008KT 10SM CLR 16/13 A2994 RMK AO2 SLP143 T01560133 402940156=
201708300653 METAR KSEA 300653Z 18005KT 10SM CLR 16/13 A2993 RMK AO2 SLP141 T01610133=
201708300553 METAR KSEA 300553Z 20006KT 10SM CLR 17/13 A2992 RMK AO2 SLP137 T01720133 10289 20172 51017=
201708300453 METAR KSEA 300453Z 23010KT 10SM CLR 18/13 A2991 RMK AO2 SLP133 T01830128=
201708300353 METAR KSEA 300353Z 23006KT 10SM CLR 21/13 A2989 RMK AO2 SLP127 T02060133=
201708300253 METAR KSEA 300253Z 25008KT 10SM CLR 23/13 A2987 RMK AO2 SLP119 T02280133 53006=
201708300153 METAR KSEA 300153Z 23006KT 10SM CLR 26/14 A2985 RMK AO2 SLP112 T02610139=
201708300053 METAR KSEA 300053Z 20006KT 10SM CLR 28/14 A2985 RMK AO2 SLP112 T02780139=
201708292353 METAR KSEA 292353Z 22009KT 10SM CLR 28/14 A2985 RMK AO2 SLP112 T02830139 10294 20222 56011=
201708292253 METAR KSEA 292253Z 20007KT 10SM CLR 29/13 A2986 RMK AO2 SLP114 T02890133=
201708292153 METAR KSEA 292153Z 21008KT 10SM CLR 28/13 A2987 RMK AO2 SLP118 T02830128=
201708292053 METAR KSEA 292053Z 19007KT 10SM CLR 26/13 A2988 RMK AO2 SLP123 T02610133 58005=
201708291953 METAR KSEA 291953Z 21012KT 10SM CLR 26/12 A2989 RMK AO2 SLP124 T02560122=
201708291853 METAR KSEA 291853Z 20011KT 10SM CLR 24/13 A2990 RMK AO2 SLP128 T02390128=
201708291753 METAR KSEA 291753Z 20008KT 10SM CLR 22/14 A2990 RMK AO2 SLP128 T02220139 10228 20178 51005=
201708291653 METAR KSEA 291653Z 20008KT 10SM CLR 22/13 A2990 RMK AO2 SLP127 T02170133=
201708291553 METAR KSEA 291553Z 20008KT 10SM CLR 19/13 A2990 RMK AO2 SLP127 T01940128=
201708291453 METAR KSEA 291453Z 18006KT 10SM CLR 19/13 A2989 RMK AO2 SLP123 T01890133 53010=
201708291353 METAR KSEA 291353Z 18006KT 10SM CLR 18/13 A2987 RMK AO2 SLP119 T01780133=
201708291253 METAR KSEA 291253Z 17004KT 10SM CLR 19/13 A2986 RMK AO2 SLP116 T01890128=
201708291153 METAR KSEA 291153Z 15006KT 10SM CLR 18/14 A2986 RMK AO2 SLP113 T01780139 10239 20178 51003=
201708291053 METAR KSEA 291053Z 16004KT 10SM CLR 18/14 A2986 RMK AO2 SLP113 T01830139=
201708290953 METAR KSEA 290953Z 14004KT 10SM CLR 21/15 A2985 RMK AO2 SLP109 T02060150=
201708290853 METAR KSEA 290853Z 14003KT 10SM CLR 21/14 A2985 RMK AO2 SLP110 T02060139 53006=
201708290753 METAR KSEA 290753Z 00000KT 10SM CLR 21/14 A2984 RMK AO2 SLP107 T02110139 403110167=
201708290653 METAR KSEA 290653Z 00000KT 10SM CLR 22/14 A2983 RMK AO2 SLP103 T02220139=
201708290553 METAR KSEA 290553Z AUTO 00000KT 10SM CLR 23/13 A2983 RMK AO2 SLP103 T02330133 10311 20228 50002 TSNO=
201708290453 METAR KSEA 290453Z 00000KT 10SM CLR 25/14 A2983 RMK AO2 SLP104 T02500139=
201708290353 METAR KSEA 290353Z 00000KT 10SM CLR 26/14 A2983 RMK AO2 SLP103 T02560139=
201708290253 METAR KSEA 290253Z 00000KT 10SM CLR 28/13 A2982 RMK AO2 SLP101 T02780133 56010=
201708290153 METAR KSEA 290153Z 29004KT 10SM CLR 29/14 A2983 RMK AO2 SLP103 T02940139=
201708290053 METAR KSEA 290053Z 29004KT 10SM CLR 31/13 A2984 RMK AO2 SLP106 T03110133=
201708282353 METAR KSEA 282353Z 28005KT 10SM CLR 31/14 A2985 RMK AO2 SLP111 T03110139 10311 20250 56017=
201708282253 METAR KSEA 282253Z 28008KT 10SM CLR 30/14 A2986 RMK AO2 SLP116 T03000139=
201708282153 METAR KSEA 282153Z 29008KT 10SM CLR 30/14 A2988 RMK AO2 SLP122 T03000139=
201708282053 METAR KSEA 282053Z 28007KT 10SM CLR 29/14 A2990 RMK AO2 SLP128 T02890144 56015=
201708281953 METAR KSEA 281953Z VRB05KT 10SM CLR 28/15 A2991 RMK AO2 SLP130 T02830150=
201708281853 METAR KSEA 281853Z 36006KT 10SM CLR 27/13 A2993 RMK AO2 SLP137 T02720133=
201708281753 METAR KSEA 281753Z 02009KT 10SM CLR 25/13 A2995 RMK AO2 SLP144 T02500128 10250 20167 58009=
201708281653 METAR KSEA 281653Z 04007KT 10SM CLR 24/14 A2996 RMK AO2 SLP148 T02390139=
201708281553 METAR KSEA 281553Z 06003KT 10SM CLR 22/14 A2997 RMK AO2 SLP152 T02170139=
201708281453 METAR KSEA 281453Z 04003KT 10SM SCT200 19/14 A2997 RMK AO2 SLP153 T01940144 53002=
201708281353 METAR KSEA 281353Z 00000KT 10SM SCT200 18/14 A2997 RMK AO2 SLP153 T01780139=
201708281253 METAR KSEA 281253Z 00000KT 10SM SCT200 17/13 A2996 RMK AO2 SLP150 T01670128=
201708281153 METAR KSEA 281153Z 00000KT 10SM CLR 18/13 A2997 RMK AO2 SLP151 T01780128 10233 20172 58003=
201708281053 METAR KSEA 281053Z 30003KT 10SM CLR 17/13 A2997 RMK AO2 SLP153 T01720128=
201708280953 METAR KSEA 280953Z 06004KT 10SM CLR 19/13 A2998 RMK AO2 SLP154 T01940133=
201708280853 METAR KSEA 280853Z 01006KT 10SM CLR 20/13 A2998 RMK AO2 SLP154 T02000128 58005=
201708280753 METAR KSEA 280753Z 07005KT 10SM CLR 22/12 A2999 RMK AO2 SLP159 T02220122 403060161=
201708280653 METAR KSEA 280653Z 36008KT 10SM CLR 22/12 A2999 RMK AO2 SLP159 T02220122=
201708280553 METAR KSEA 280553Z 01007KT 10SM CLR 23/12 A2999 RMK AO2 SLP159 T02280122 10306 20228 50004=
201708280453 METAR KSEA 280453Z 36008KT 10SM FEW200 24/12 A2999 RMK AO2 SLP159 T02390122=
201708280353 METAR KSEA 280353Z 36007KT 10SM FEW150 24/12 A2999 RMK AO2 SLP159 T02440122=
201708280253 METAR KSEA 280253Z 36007KT 10SM FEW150 26/12 A2998 RMK AO2 SLP155 T02610117 56006=
201708280153 METAR KSEA 280153Z 35008KT 10SM FEW040 FEW140 29/12 A2998 RMK AO2 SLP156 T02890122=
201708280053 METAR KSEA 280053Z 33009KT 10SM FEW040 29/12 A2999 RMK AO2 SLP159 T02940117=
201708272353 METAR KSEA 272353Z 34010KT 10SM FEW050 31/12 A3000 RMK AO2 SLP161 T03060117 10306 20239 56018=
201708272253 METAR KSEA 272253Z 33012KT 10SM FEW050 31/12 A3001 RMK AO2 SLP166 T03060117=
201708272153 METAR KSEA 272153Z 01009KT 10SM FEW050 29/12 A3004 RMK AO2 SLP174 T02940117=
201708272053 METAR KSEA 272053Z 35007KT 10SM FEW050 29/12 A3005 RMK AO2 SLP179 T02890117 56017=
201708271953 METAR KSEA 271953Z 34008KT 10SM FEW070 SCT210 27/12 A3007 RMK AO2 SLP185 T02720117=
201708271853 METAR KSEA 271853Z 02010KT 10SM FEW070 SCT200 26/11 A3008 RMK AO2 SLP190 T02560111=
201708271753 METAR KSEA 271753Z 34007KT 10SM FEW080 SCT200 23/11 A3010 RMK AO2 SLP197 T02330111 10233 20161 58004=
201708271653 METAR KSEA 271653Z 02012KT 10SM FEW080 SCT190 22/11 A3011 RMK AO2 SLP198 T02170106=
201708271553 METAR KSEA 271553Z 01011KT 10SM FEW080 SCT190 21/10 A3011 RMK AO2 SLP200 T02110100=
201708271453 METAR KSEA 271453Z 01003KT 10SM FEW070 SCT180 18/10 A3012 RMK AO2 SLP202 T01830100 53005=
201708271353 METAR KSEA 271353Z 36005KT 10SM FEW070 SCT170 17/09 A3011 RMK AO2 SLP200 T01670089=
201708271253 METAR KSEA 271253Z 04008KT 10SM CLR 17/08 A3010 RMK AO2 SLP196 T01670083=
201708271153 METAR KSEA 271153Z 02007KT 10SM CLR 17/08 A3010 RMK AO2 SLP197 T01670083 10211 20167 58004=
201708271053 METAR KSEA 271053Z 03007KT 10SM CLR 18/08 A3011 RMK AO2 SLP198 T01780083=
201708270953 METAR KSEA 270953Z 02007KT 10SM CLR 18/08 A3011 RMK AO2 SLP199 T01780083=
201708270853 METAR KSEA 270853Z 02006KT 10SM CLR 18/08 A3011 RMK AO2 SLP200 T01830083 58003=
201708270753 METAR KSEA 270753Z 03010KT 10SM CLR 19/08 A3012 RMK AO2 SLP204 T01940078 402890122=
201708270653 METAR KSEA 270653Z 03008KT 10SM CLR 21/08 A3012 RMK AO2 SLP203 T02060083=
201708270553 METAR KSEA 270553Z 03013KT 10SM CLR 21/09 A3012 RMK AO2 SLP204 T02110089 10278 20211 51006=
201708270453 METAR KSEA 270453Z 01012KT 10SM CLR 22/09 A3011 RMK AO2 SLP202 T02170089=
201708270353 METAR KSEA 270353Z 36007KT 10SM CLR 22/09 A3011 RMK AO2 SLP201 T02220089=
201708270253 METAR KSEA 270253Z 35009KT 10SM CLR 24/09 A3010 RMK AO2 SLP198 T02390094 55004=
201708270153 METAR KSEA 270153Z 35009KT 10SM CLR 26/09 A3010 RMK AO2 SLP196 T02610094=
201708270053 METAR KSEA 270053Z 33009KT 10SM CLR 27/09 A3010 RMK AO2 SLP198 T02720094=
201708262353 METAR KSEA 262353Z 34011KT 10SM CLR 28/09 A3011 RMK AO2 SLP201 T02780089 10289 20211 56015=
201708262253 METAR KSEA 262253Z 34010KT 10SM CLR 28/09 A3012 RMK AO2 SLP204 T02780094=
201708262153 METAR KSEA 262153Z 35009KT 10SM CLR 27/10 A3014 RMK AO2 SLP210 T02720100=
201708262053 METAR KSEA 262053Z 35007KT 10SM CLR 26/09 A3016 RMK AO2 SLP217 T02560094 58009=
201708261953 METAR KSEA 261953Z 29008KT 10SM CLR 23/10 A3017 RMK AO2 SLP221 T02280100=
201708261853 METAR KSEA 261853Z 00000KT 10SM CLR 22/11 A3018 RMK AO2 SLP225 T02220106=
201708261753 METAR KSEA 261753Z 04005KT 10SM CLR 21/11 A3018 RMK AO2 SLP226 T02110106 10217 20122 51003=
201708261653 METAR KSEA 261653Z 01008KT 10SM CLR 19/09 A3018 RMK AO2 SLP226 T01940094=
201708261553 METAR KSEA 261553Z 03010KT 10SM CLR 18/10 A3018 RMK AO2 SLP225 T01780100=
201708261453 METAR KSEA 261453Z 03009KT 10SM CLR 16/10 A3018 RMK AO2 SLP223 T01610100 53011=
201708261353 METAR KSEA 261353Z 02006KT 10SM CLR 14/09 A3016 RMK AO2 SLP217 T01440094=
201708261253 METAR KSEA 261253Z 35005KT 10SM CLR 13/08 A3015 RMK AO2 SLP215 T01280083=
201708261153 METAR KSEA 261153Z 01004KT 10SM CLR 14/08 A3014 RMK AO2 SLP212 T01440083 10183 20144 53005=
201708261053 METAR KSEA 261053Z 03007KT 10SM CLR 16/09 A3013 RMK AO2 SLP207 T01560089=
201708260953 METAR KSEA 260953Z 03014KT 10SM CLR 16/09 A3013 RMK AO2 SLP208 T01560089=
201708260853 METAR KSEA 260853Z 02011KT 10SM CLR 16/08 A3013 RMK AO2 SLP207 T01610078 51008=
201708260753 METAR KSEA 260753Z 03012KT 10SM CLR 16/08 A3012 RMK AO2 SLP205 T01610078 402440122=
201708260653 METAR KSEA 260653Z 02009KT 10SM CLR 17/08 A3011 RMK AO2 SLP200 T01670078=
201708260553 METAR KSEA 260553Z 03008KT 10SM CLR 18/07 A3010 RMK AO2 SLP198 T01780072 10244 20178 53009=
201708260453 METAR KSEA 260453Z 01010KT 10SM CLR 18/07 A3009 RMK AO2 SLP195 T01780072=
201708260353 METAR KSEA 260353Z 36009KT 10SM CLR 18/07 A3008 RMK AO2 SLP191 T01830072=
201708260253 METAR KSEA 260253Z 32008KT 10SM CLR 20/07 A3008 RMK AO2 SLP189 T02000072 53005=
201708260153 METAR KSEA 260153Z 34009KT 10SM CLR 23/07 A3006 RMK AO2 SLP185 T02280072=
201708260053 METAR KSEA 260053Z 33008KT 10SM FEW250 24/07 A3006 RMK AO2 SLP183 T02390067=
201708252353 METAR KSEA 252353Z 34008KT 10SM FEW250 24/08 A3006 RMK AO2 SLP184 T02440078 10244 20194 56008=
201708252253 METAR KSEA 252253Z 33008KT 10SM FEW050 SCT250 24/09 A3007 RMK AO2 SLP186 T02390089=
201708252153 METAR KSEA 252153Z 32007KT 10SM FEW050 FEW250 23/08 A3007 RMK AO2 SLP186 T02330083=
201708252053 METAR KSEA 252053Z 32009KT 10SM FEW050 FEW250 23/08 A3009 RMK AO2 SLP192 T02280083 58004=
201708251953 METAR KSEA 251953Z 34008KT 10SM FEW040 FEW150 FEW250 21/09 A3009 RMK AO2 SLP194 T02110089=
201708251853 METAR KSEA 251853Z 28009KT 10SM SCT180 BKN250 20/09 A3009 RMK AO2 SLP195 T02000094=
201708251753 METAR KSEA 251753Z 35004KT 10SM SCT180 BKN250 19/09 A3010 RMK AO2 SLP196 T01940089 10194 20122 51002=
201708251653 METAR KSEA 251653Z VRB05KT 10SM FEW160 BKN220 18/09 A3010 RMK AO2 SLP196 T01780089=
201708251553 METAR KSEA 251553Z 05007KT 10SM FEW180 BKN250 17/09 A3009 RMK AO2 SLP196 T01670089=
201708251453 METAR KSEA 251453Z 01004KT 10SM FEW180 SCT250 16/09 A3009 RMK AO2 SLP195 T01560089 53006=
201708251353 METAR KSEA 251353Z 03005KT 10SM FEW180 BKN250 14/09 A3008 RMK AO2 SLP191 T01390089=
201708251253 METAR KSEA 251253Z 02003KT 10SM BKN250 14/09 A3008 RMK AO2 SLP189 T01390089=
201708251153 METAR KSEA 251153Z 00000KT 10SM SCT240 13/09 A3007 RMK AO2 SLP187 T01330089 10172 20133 53002=
201708251053 METAR KSEA 251053Z 05007KT 10SM CLR 14/09 A3006 RMK AO2 SLP185 T01440094=
201708250953 METAR KSEA 250953Z 03009KT 10SM CLR 15/10 A3006 RMK AO2 SLP185 T01500100=
201708250853 METAR KSEA 250853Z 03011KT 10SM CLR 15/10 A3007 RMK AO2 SLP186 T01500100 50001=
201708250753 METAR KSEA 250753Z 05009KT 10SM CLR 16/10 A3007 RMK AO2 SLP186 T01560100 402220144=
201708250653 METAR KSEA 250653Z 04006KT 10SM CLR 16/11 A3007 RMK AO2 SLP188 T01610106=
201708250553 METAR KSEA 250553Z 05007KT 10SM CLR 17/09 A3006 RMK AO2 SLP185 T01720094 10217 20172 50002=
201708250453 METAR KSEA 250453Z 03007KT 10SM CLR 18/09 A3007 RMK AO2 SLP187 T01830094=
201708250353 METAR KSEA 250353Z 32003KT 10SM FEW250 18/09 A3006 RMK AO2 SLP185 T01780089=
201708250253 METAR KSEA 250253Z 32004KT 10SM FEW050 FEW250 19/09 A3005 RMK AO2 SLP183 T01890089 56007=
201708250153 METAR KSEA 250153Z 30005KT 10SM FEW050 FEW250 21/08 A3006 RMK AO2 SLP183 T02060083=
201708250053 METAR KSEA 250053Z 27007KT 10SM FEW050 SCT250 21/08 A3007 RMK AO2 SLP186 T02110083=
201708242353 METAR KSEA 242353Z 30007KT 260V330 10SM SCT050 BKN250 22/08 A3008 RMK AO2 SLP189 T02170083 10222 20167 58010=
201708242253 METAR KSEA 242253Z 28008KT 10SM SCT050 BKN250 21/09 A3009 RMK AO2 SLP193 T02110089=
201708242153 METAR KSEA 242153Z 25004KT 10SM FEW025 SCT045 BKN250 19/09 A3010 RMK AO2 SLP197 T01940089=
201708242053 METAR KSEA 242053Z 01004KT 10SM FEW026 SCT038 BKN250 19/09 A3011 RMK AO2 SLP200 T01940089 58001=
201708241953 METAR KSEA 241953Z 00000KT 10SM FEW024 BKN035 BKN200 19/09 A3011 RMK AO2 SLP201 T01940089=
201708241853 METAR KSEA 241853Z 05005KT 10SM FEW022 BKN033 BKN200 18/08 A3012 RMK AO2 SLP202 T01830083 $=
201708241753 METAR KSEA 241753Z 05009KT 10SM FEW025 BKN038 BKN200 17/08 A3011 RMK AO2 SLP202 T01670083 10178 20144 51012 $=
201708241653 METAR KSEA 241653Z 06009KT 10SM FEW025 BKN037 BKN055 16/08 A3011 RMK AO2 SLP201 T01610083=
201708241553 METAR KSEA 241553Z 07008KT 10SM FEW025 BKN040 BKN060 16/08 A3009 RMK AO2 SLP195 T01560083=
201708241453 METAR KSEA 241453Z 07010KT 10SM SCT020 OVC031 15/09 A3008 RMK AO2 SLP189 T01500089 51015=
201708241448 SPECI KSEA 241448Z 06010KT 10SM SCT020 OVC031 15/09 A3007 RMK AO2=
201708241353 METAR KSEA 241353Z 07008KT 10SM BKN020 OVC028 14/09 A3007 RMK AO2 SLP186 T01440094=
201708241253 METAR KSEA 241253Z 06008KT 10SM OVC023 15/09 A3005 RMK AO2 SLP179 T01500094=
201708241153 METAR KSEA 241153Z 03008KT 10SM OVC019 15/10 A3003 RMK AO2 SLP173 T01500100 10178 20150 53008=
201708241053 METAR KSEA 241053Z 06009KT 10SM OVC017 16/11 A3002 RMK AO2 SLP169 T01560106=
201708240953 METAR KSEA 240953Z 02010KT 10SM OVC017 17/09 A3002 RMK AO2 SLP168 T01670094=
201708240853 METAR KSEA 240853Z 04008KT 10SM OVC017 17/11 A3001 RMK AO2 SLP165 T01720111 51006=
201708240753 METAR KSEA 240753Z 02008KT 10SM OVC017 17/12 A3000 RMK AO2 SLP164 T01720122 402390150=
201708240653 METAR KSEA 240653Z 30004KT 10SM BKN015 OVC100 17/14 A2999 RMK AO2 SLP161 T01720144=
201708240553 METAR KSEA 240553Z 28004KT 10SM FEW100 BKN240 17/14 A2999 RMK AO2 SLP160 T01670139 10239 20167 51008=
201708240453 METAR KSEA 240453Z 28004KT 10SM FEW035 OVC240 18/14 A2998 RMK AO2 SLP157 T01830139=
201708240353 METAR KSEA 240353Z 28003KT 10SM SCT100 BKN230 20/14 A2998 RMK AO2 SLP155 T02000144=
201708240253 METAR KSEA 240253Z 01005KT 10SM SCT100 BKN220 22/14 A2997 RMK AO2 SLP151 T02220144 56006=
201708240153 METAR KSEA 240153Z 35006KT 10SM FEW040 SCT100 BKN240 23/14 A2997 RMK AO2 SLP152 T02280144=
201708240053 METAR KSEA 240053Z 31004KT 10SM FEW030 SCT100 BKN240 23/14 A2997 RMK AO2 SLP153 T02330144=
201708232353 METAR KSEA 232353Z 32004KT 10SM FEW030 FEW100 BKN210 24/14 A2998 RMK AO2 SLP157 T02390144 10239 20178 56012=
201708232253 METAR KSEA 232253Z 28004KT 10SM FEW030 SCT100 BKN250 22/14 A2999 RMK AO2 SLP161 T02220144=
201708232153 METAR KSEA 232153Z VRB05KT 10SM FEW030 BKN250 21/14 A3000 RMK AO2 SLP164 T02110144=
201708232053 METAR KSEA 232053Z 27007KT 10SM FEW020 BKN250 20/14 A3002 RMK AO2 SLP169 T02000139 58011=
201708231953 METAR KSEA 231953Z 23005KT 10SM FEW018 BKN250 20/14 A3003 RMK AO2 SLP173 T02000139=
201708231853 METAR KSEA 231853Z 22009KT 10SM FEW015 SCT250 19/13 A3004 RMK AO2 SLP178 T01940133=
201708231836 SPECI KSEA 231836Z 10SM SCT015 SCT250 19/13 A3005 RMK AO2 T01890133=
201708231812 SPECI KSEA 231812Z VRB03KT 10SM FEW010 BKN015 18/13 A3005 RMK AO2 T01830133=
201708231753 METAR KSEA 231753Z 20006KT 10SM FEW010 OVC014 18/13 A3005 RMK AO2 SLP180 T01780133 10183 20156 56004=
201708231653 METAR KSEA 231653Z VRB03KT 10SM FEW009 OVC013 17/13 A3005 RMK AO2 SLP181 T01720133=
201708231553 METAR KSEA 231553Z VRB05KT 10SM FEW008 OVC013 17/13 A3006 RMK AO2 SLP183 T01670133=
201708231453 METAR KSEA 231453Z 14004KT 10SM FEW007 OVC011 17/13 A3006 RMK AO2 SLP185 T01670133 53002=
201708231353 METAR KSEA 231353Z 19003KT 10SM FEW007 OVC010 16/13 A3006 RMK AO2 SLP183 T01610133=
201708231253 METAR KSEA 231253Z 00000KT 10SM FEW007 BKN011 OVC015 16/14 A3005 RMK AO2 SLP180 T01560139=
201708231153 METAR KSEA 231153Z 21003KT 10SM BKN010 BKN030 16/14 A3006 RMK AO2 SLP181 T01560139 10183 20150 56002=
201708231132 SPECI KSEA 231132Z 00000KT 10SM BKN010 BKN030 16/14 A3006 RMK AO2 T01560139=
201708231053 METAR KSEA 231053Z 20004KT 10SM FEW009 FEW120 15/14 A3006 RMK AO2 SLP182 T01500139=
201708230953 METAR KSEA 230953Z 17003KT 10SM FEW009 16/14 A3005 RMK AO2 SLP180 T01560139=
201708230853 METAR KSEA 230853Z 19003KT 10SM CLR 16/14 A3006 RMK AO2 SLP183 T01560139 51009=
201708230753 METAR KSEA 230753Z 23004KT 10SM CLR 17/14 A3006 RMK AO2 SLP182 T01670139 403000156=
201708230653 METAR KSEA 230653Z 20008KT 10SM CLR 17/14 A3004 RMK AO2 SLP177 T01720139=
201708230553 METAR KSEA 230553Z 19008KT 10SM CLR 18/14 A3004 RMK AO2 SLP175 T01780144 10300 20178 51018=
201708230453 METAR KSEA 230453Z 21008KT 10SM CLR 19/15 A3002 RMK AO2 SLP171 T01940150=
201708230353 METAR KSEA 230353Z 24006KT 10SM CLR 21/14 A3000 RMK AO2 SLP164 T02110139=
201708230253 METAR KSEA 230253Z 27004KT 10SM CLR 25/13 A2998 RMK AO2 SLP156 T02500133 55002=
201708230153 METAR KSEA 230153Z 20005KT 10SM CLR 28/13 A2997 RMK AO2 SLP152 T02780133=
201708230053 METAR KSEA 230053Z 23007KT 10SM CLR 30/13 A2998 RMK AO2 SLP155 T03000128=
201708222353 METAR KSEA 222353Z 23006KT 10SM CLR 30/13 A2999 RMK AO2 SLP158 T03000128 10300 20228 58010=
201708222253 METAR KSEA 222253Z 24005KT 10SM CLR 29/12 A3000 RMK AO2 SLP162 T02940117=
201708222153 METAR KSEA 222153Z 21006KT 10SM CLR 29/13 A3001 RMK AO2 SLP166 T02890128=
201708222053 METAR KSEA 222053Z 29005KT 10SM CLR 28/12 A3002 RMK AO2 SLP168 T02780117 56005=
201708221953 METAR KSEA 221953Z 27007KT 10SM CLR 27/13 A3002 RMK AO2 SLP168 T02670133=
201708221853 METAR KSEA 221853Z VRB03KT 10SM CLR 26/13 A3002 RMK AO2 SLP170 T02560133=
201708221753 METAR KSEA 221753Z VRB04KT 10SM CLR 23/13 A3003 RMK AO2 SLP173 T02330133 10233 20156 50002=
201708221653 METAR KSEA 221653Z 27004KT 10SM CLR 21/13 A3003 RMK AO2 SLP173 T02110128=
201708221553 METAR KSEA 221553Z 29003KT 10SM CLR 20/13 A3003 RMK AO2 SLP172 T02000133=
201708221453 METAR KSEA 221453Z 30003KT 10SM CLR 18/13 A3003 RMK AO2 SLP172 T01780128 53009=
201708221353 METAR KSEA 221353Z 00000KT 10SM FEW200 16/12 A3002 RMK AO2 SLP168 T01610122=
201708221253 METAR KSEA 221253Z 00000KT 10SM FEW200 17/12 A3000 RMK AO2 SLP161 T01670122=
201708221153 METAR KSEA 221153Z 31004KT 10SM CLR 16/12 A3000 RMK AO2 SLP161 T01610122 10217 20161 56000=
201708221053 METAR KSEA 221053Z 04004KT 10SM FEW200 19/12 A3000 RMK AO2 SLP161 T01890117=
201708220953 METAR KSEA 220953Z 01006KT 10SM FEW200 19/12 A3000 RMK AO2 SLP160 T01940117=
201708220853 METAR KSEA 220853Z 02006KT 10SM CLR 20/12 A3000 RMK AO2 SLP162 T02000117 56003=
201708220753 METAR KSEA 220753Z 01007KT 10SM CLR 21/12 A3000 RMK AO2 SLP163 T02060122 402830139=
201708220653 METAR KSEA 220653Z 03008KT 10SM CLR 22/12 A3000 RMK AO2 SLP164 T02170117=
201708220553 METAR KSEA 220553Z 01010KT 10SM CLR 21/12 A3001 RMK AO2 SLP166 T02110117 10283 20211 50001=
201708220453 METAR KSEA 220453Z 01011KT 10SM CLR 22/12 A3001 RMK AO2 SLP167 T02220117=
201708220353 METAR KSEA 220353Z 36007KT 10SM FEW250 22/11 A3001 RMK AO2 SLP168 T02220111=
201708220253 METAR KSEA 220253Z 35008KT 10SM FEW250 24/11 A3001 RMK AO2 SLP166 T02440111 56010=
201708220153 METAR KSEA 220153Z 35010KT 10SM FEW250 26/11 A3002 RMK AO2 SLP168 T02610106=
201708220053 METAR KSEA 220053Z 35014KT 10SM FEW250 27/11 A3003 RMK AO2 SLP172 T02670111=
201708212353 METAR KSEA 212353Z 35009G15KT 10SM CLR 28/11 A3004 RMK AO2 SLP175 T02830111 10283 20167 58019=
201708212253 METAR KSEA 212253Z 35007KT 10SM FEW250 27/12 A3005 RMK AO2 SLP181 T02720117=
201708212153 METAR KSEA 212153Z 01009KT 10SM FEW250 27/11 A3008 RMK AO2 SLP188 T02670111=
201708212053 METAR KSEA 212053Z 34010KT 10SM FEW250 25/12 A3009 RMK AO2 SLP195 T02500117 58010=
201708211953 METAR KSEA 211953Z 01009KT 10SM FEW250 24/12 A3011 RMK AO2 SLP201 T02440117=
201708211853 METAR KSEA 211853Z 01007KT 10SM FEW250 23/12 A3013 RMK AO2 SLP206 T02280117=
201708211753 METAR KSEA 211753Z 30003KT 10SM BCFG FEW250 17/13 A3012 RMK AO2 SLP205 FG BANK S T01670133 10194 20139 58005=
201708211653 METAR KSEA 211653Z 30004KT 10SM BCFG FEW250 18/13 A3013 RMK AO2 SLP208 FG BANK S-W T01830133=
201708211553 METAR KSEA 211553Z 01006KT 10SM BCFG FEW250 18/13 A3014 RMK AO2 SLP211 FG BANK S-W T01830133=
201708211453 METAR KSEA 211453Z 36008KT 10SM BCFG FEW250 17/13 A3014 RMK AO2 SLP211 FG BANK S-W T01670133 53006=
201708211353 METAR KSEA 211353Z 01005KT 10SM BCFG FEW250 15/13 A3013 RMK AO2 SLP207 FG BANK S-W T01500128=
201708211253 METAR KSEA 211253Z 02008KT 10SM FEW200 16/12 A3012 RMK AO2 SLP204 T01560122=
201708211153 METAR KSEA 211153Z 02007KT 10SM CLR 16/13 A3012 RMK AO2 SLP205 T01560128 10189 20156 57002=
201708211053 METAR KSEA 211053Z 02007KT 10SM CLR 16/12 A3012 RMK AO2 SLP205 T01560122=
201708210953 METAR KSEA 210953Z 01008KT 10SM CLR 17/12 A3012 RMK AO2 SLP205 T01670122=
201708210853 METAR KSEA 210853Z 03010KT 10SM CLR 17/13 A3013 RMK AO2 SLP206 T01720128 52000=
201708210753 METAR KSEA 210753Z 03008KT 10SM FEW250 18/12 A3013 RMK AO2 SLP206 T01780122 402500133=
201708210653 METAR KSEA 210653Z 04006KT 10SM FEW250 18/13 A3013 RMK AO2 SLP206 T01780128=
201708210553 METAR KSEA 210553Z 04009KT 10SM FEW030 SCT210 19/13 A3013 RMK AO2 SLP206 T01940128 10250 20194 50006=
201708210453 METAR KSEA 210453Z 04007KT 10SM FEW030 SCT210 20/13 A3013 RMK AO2 SLP207 T02000128=
201708210353 METAR KSEA 210353Z 02009KT 10SM FEW030 SCT200 21/13 A3012 RMK AO2 SLP204 T02060128=
201708210253 METAR KSEA 210253Z 03010KT 10SM FEW040 SCT180 22/12 A3011 RMK AO2 SLP200 T02170117 55001=
201708210153 METAR KSEA 210153Z 02010KT 10SM FEW030 FEW170 23/11 A3010 RMK AO2 SLP197 T02280111=
201708210053 METAR KSEA 210053Z 36009KT 10SM FEW030 FEW170 24/10 A3010 RMK AO2 SLP198 T02390100=
201708202353 METAR KSEA 202353Z 02009KT 10SM FEW030 SCT190 24/09 A3011 RMK AO2 SLP201 T02440089 10250 20189 56010=
201708202253 METAR KSEA 202253Z 02008KT 10SM FEW130 BKN220 24/11 A3012 RMK AO2 SLP203 T02390106=
201708202153 METAR KSEA 202153Z 29008KT 10SM FEW120 BKN250 24/11 A3013 RMK AO2 SLP207 T02390111=
201708202053 METAR KSEA 202053Z 28007KT 10SM FEW120 BKN250 22/11 A3014 RMK AO2 SLP211 T02220111 58010=
201708201953 METAR KSEA 201953Z VRB05KT 10SM FEW120 BKN250 21/11 A3015 RMK AO2 SLP214 T02110111=
201708201853 METAR KSEA 201853Z 27007KT 10SM FEW100 BKN250 20/11 A3016 RMK AO2 SLP219 T02000106=
201708201753 METAR KSEA 201753Z 27004KT 10SM FEW100 BKN250 20/10 A3017 RMK AO2 SLP221 T02000100 10206 20133 50000=
201708201653 METAR KSEA 201653Z 00000KT 10SM FEW100 SCT250 18/10 A3018 RMK AO2 SLP223 T01830100=
201708201553 METAR KSEA 201553Z 05007KT 10SM FEW100 BKN250 16/09 A3018 RMK AO2 SLP224 T01610094=
201708201453 METAR KSEA 201453Z 04006KT 10SM FEW100 BKN250 15/10 A3017 RMK AO2 SLP221 T01500100 53003=
201708201353 METAR KSEA 201353Z 03005KT 10SM FEW100 BKN250 14/10 A3016 RMK AO2 SLP219 T01440100=
201708201253 METAR KSEA 201253Z 01005KT 10SM FEW100 SCT250 14/09 A3016 RMK AO2 SLP218 T01390094=
201708201153 METAR KSEA 201153Z 34006KT 10SM SCT250 13/09 A3016 RMK AO2 SLP218 T01330094 10183 20133 55004=
201708201053 METAR KSEA 201053Z 36008KT 10SM SCT250 14/09 A3016 RMK AO2 SLP217 T01390094=
201708200953 METAR KSEA 200953Z 02009KT 10SM SCT250 15/09 A3017 RMK AO2 SLP219 T01500094=
201708200853 METAR KSEA 200853Z 02009KT 10SM SCT250 16/09 A3017 RMK AO2 SLP222 T01560094 50001=
201708200753 METAR KSEA 200753Z 03008KT 10SM FEW250 16/09 A3018 RMK AO2 SLP224 T01610094 402440144=
201708200653 METAR KSEA 200653Z 03010KT 10SM FEW250 17/09 A3018 RMK AO2 SLP223 T01670094=
201708200553 METAR KSEA 200553Z 04009KT 10SM FEW250 18/09 A3017 RMK AO2 SLP220 T01830094 10239 20183 53005=
201708200453 METAR KSEA 200453Z 01009KT 10SM FEW035 SCT250 19/09 A3016 RMK AO2 SLP218 T01890094=
201708200353 METAR KSEA 200353Z 32004KT 10SM FEW035 SCT250 19/09 A3016 RMK AO2 SLP216 T01890089=
201708200253 METAR KSEA 200253Z 35007KT 10SM FEW035 BKN250 21/09 A3015 RMK AO2 SLP215 T02110094 55004=
201708200153 METAR KSEA 200153Z 36008KT 10SM FEW030 BKN250 23/10 A3015 RMK AO2 SLP213 T02330100=
201708200053 METAR KSEA 200053Z 28007KT 10SM FEW035 SCT250 24/10 A3016 RMK AO2 SLP216 T02390100=
201708192353 METAR KSEA 192353Z 30006KT 10SM FEW035 SCT250 24/10 A3016 RMK AO2 SLP219 T02390100 10244 20200 56012=
201708192253 METAR KSEA 192253Z 30009KT 10SM FEW030 SCT250 24/10 A3017 RMK AO2 SLP222 T02390100=
201708192153 METAR KSEA 192153Z 31009KT 10SM FEW030 SCT210 23/08 A3018 RMK AO2 SLP225 T02330083=
201708192053 METAR KSEA 192053Z VRB04KT 10SM FEW030 FEW210 23/09 A3020 RMK AO2 SLP231 T02280089 58006=
201708191953 METAR KSEA 191953Z 30008KT 10SM FEW030 FEW210 22/11 A3021 RMK AO2 SLP235 T02170106=
201708191853 METAR KSEA 191853Z 32008KT 10SM FEW030 21/12 A3022 RMK AO2 SLP238 T02060117=
201708191753 METAR KSEA 191753Z 04003KT 10SM FEW030 20/11 A3022 RMK AO2 SLP238 T02000106 10200 20144 51003=
201708191653 METAR KSEA 191653Z VRB04KT 10SM FEW020 FEW170 18/11 A3022 RMK AO2 SLP237 T01830111=
201708191553 METAR KSEA 191553Z 02006KT 10SM FEW014 SCT060 BKN200 17/11 A3022 RMK AO2 SLP238 T01670106=
201708191453 METAR KSEA 191453Z 05009KT 10SM SCT014 BKN060 16/10 A3021 RMK AO2 SLP235 T01560100 51015=
201708191353 METAR KSEA 191353Z 03011KT 10SM SCT014 BKN055 15/09 A3020 RMK AO2 SLP231 T01500094=
201708191253 METAR KSEA 191253Z 36006KT 10SM FEW024 BKN046 BKN055 16/10 A3018 RMK AO2 SLP225 T01560100=
201708191153 METAR KSEA 191153Z 04008KT 10SM FEW023 BKN035 BKN055 16/09 A3017 RMK AO2 SLP219 T01610094 10200 20161 50004=
201708191053 METAR KSEA 191053Z 03010KT 10SM FEW023 BKN030 BKN045 17/09 A3017 RMK AO2 SLP220 T01670094=
201708190953 METAR KSEA 190953Z 03008KT 10SM FEW023 BKN035 BKN060 17/11 A3016 RMK AO2 SLP216 T01670106=
201708190853 METAR KSEA 190853Z 03011KT 10SM SCT037 BKN050 BKN065 17/12 A3015 RMK AO2 SLP215 T01720117 51002=
201708190753 METAR KSEA 190753Z 04013KT 10SM FEW035 BKN042 BKN065 18/12 A3015 RMK AO2 SLP215 T01780122 402280128=
201708190653 METAR KSEA 190653Z 03014KT 10SM BKN040 BKN075 18/13 A3015 RMK AO2 SLP214 T01830128=
201708190553 METAR KSEA 190553Z 05010KT 10SM BKN037 BKN075 19/14 A3015 RMK AO2 SLP213 T01940139 10228 20194 52006=
201708190453 METAR KSEA 190453Z 03009KT 10SM SCT035 BKN075 21/13 A3014 RMK AO2 SLP211 T02060133=
201708190353 METAR KSEA 190353Z 36009KT 10SM FEW034 BKN060 21/13 A3014 RMK AO2 SLP209 T02060133=
201708190253 METAR KSEA 190253Z 29004KT 10SM FEW030 BKN060 20/13 A3013 RMK AO2 SLP208 T02000128 56005=
201708190153 METAR KSEA 190153Z 27003KT 10SM FEW030 BKN060 21/13 A3013 RMK AO2 SLP208 T02060128=
201708190053 METAR KSEA 190053Z 31005KT 10SM FEW030 SCT060 22/12 A3013 RMK AO2 SLP208 T02170122=
201708182353 METAR KSEA 182353Z VRB04KT 10SM SCT035 SCT250 22/13 A3014 RMK AO2 SLP212 T02170128 10217 20172 58014=
201708182253 METAR KSEA 182253Z 20010KT 10SM SCT030 SCT250 21/13 A3016 RMK AO2 SLP218 T02110128=
201708182153 METAR KSEA 182153Z 18010G15KT 10SM FEW025 FEW040 SCT250 20/12 A3018 RMK AO2 SLP225 T02000122=
201708182053 METAR KSEA 182053Z 19006KT 10SM FEW020 FEW040 SCT250 20/12 A3019 RMK AO2 SLP226 T02000122 58001=
201708181953 METAR KSEA 181953Z 25009KT 10SM FEW015 SCT040 SCT220 20/12 A3019 RMK AO2 SLP227 T02000122=
201708181853 METAR KSEA 181853Z 23007KT 10SM FEW015 FEW040 SCT220 19/12 A3019 RMK AO2 SLP227 T01890122=
201708181753 METAR KSEA 181753Z VRB06KT 10SM FEW012 FEW045 BKN220 17/12 A3019 RMK AO2 SLP227 T01720122 10178 20128 53002=
201708181653 METAR KSEA 181653Z 27005KT 10SM FEW012 SCT044 BKN250 17/12 A3019 RMK AO2 SLP226 T01670122=
201708181553 METAR KSEA 181553Z 20004KT 10SM FEW011 SCT038 BKN250 16/12 A3018 RMK AO2 SLP225 T01560122=
201708181453 METAR KSEA 181453Z 24003KT 10SM FEW009 FEW040 BKN250 14/12 A3018 RMK AO2 SLP225 T01390122 51009=
201708181353 METAR KSEA 181353Z 00000KT 10SM FEW008 FEW040 SCT250 13/12 A3017 RMK AO2 SLP222 T01330117=
201708181345 SPECI KSEA 181345Z 00000KT 10SM FEW008 FEW040 SCT250 13/12 A3017 RMK AO2 T01330117=
201708181253 METAR KSEA 181253Z 00000KT 10SM FEW040 SCT250 13/12 A3016 RMK AO2 SLP219 T01330117=
201708181153 METAR KSEA 181153Z 00000KT 10SM BKN039 14/12 A3016 RMK AO2 SLP216 T01440122 10183 20133 56002=
201708181053 METAR KSEA 181053Z 28003KT 10SM SCT250 13/12 A3016 RMK AO2 SLP216 T01330117=
201708180953 METAR KSEA 180953Z 00000KT 10SM FEW250 14/12 A3015 RMK AO2 SLP215 T01440122=
201708180853 METAR KSEA 180853Z 28003KT 10SM FEW250 15/12 A3016 RMK AO2 SLP218 T01500117 55001=
201708180753 METAR KSEA 180753Z 00000KT 10SM FEW250 16/12 A3016 RMK AO2 SLP216 T01610122 402390150=
201708180653 METAR KSEA 180653Z 01008KT 10SM FEW250 17/13 A3016 RMK AO2 SLP217 T01720128=
201708180553 METAR KSEA 180553Z 35006KT 10SM FEW250 18/13 A3016 RMK AO2 SLP219 T01780133 10239 20178 53007=
201708180453 METAR KSEA 180453Z 34005KT 10SM CLR 19/12 A3016 RMK AO2 SLP216 T01890122=
201708180353 METAR KSEA 180353Z 31004KT 10SM FEW250 19/13 A3015 RMK AO2 SLP214 T01940128=
201708180253 METAR KSEA 180253Z 28004KT 10SM FEW250 22/12 A3014 RMK AO2 SLP212 T02220122 55006=
201708180153 METAR KSEA 180153Z VRB03KT 10SM FEW040 FEW250 23/12 A3014 RMK AO2 SLP211 T02330122=
201708180053 METAR KSEA 180053Z 24005KT 10SM FEW035 FEW250 24/12 A3015 RMK AO2 SLP213 T02390122=
201708172353 METAR KSEA 172353Z 25006KT 10SM FEW035 23/12 A3016 RMK AO2 SLP218 T02330122 10239 20178 58012=
201708172253 METAR KSEA 172253Z 23005KT 10SM SCT030 23/12 A3018 RMK AO2 SLP223 T02280122=
201708172153 METAR KSEA 172153Z 28005KT 10SM SCT030 22/12 A3019 RMK AO2 SLP227 T02220122=
201708172053 METAR KSEA 172053Z 26007KT 240V300 10SM SCT028 21/12 A3020 RMK AO2 SLP230 T02110122 55004=
201708172049 SPECI KSEA 172049Z 25006KT 10SM SCT027 21/12 A3020 RMK AO2=
201708171953 METAR KSEA 171953Z 25004KT 10SM FEW010 SCT020 BKN028 20/13 A3020 RMK AO2 SLP231 T02000133=
201708171853 METAR KSEA 171853Z 25004KT 10SM FEW007 BKN020 BKN024 19/13 A3021 RMK AO2 SLP234 T01890133=
201708171753 METAR KSEA 171753Z VRB04KT 10SM FEW007 BKN019 OVC028 18/13 A3020 RMK AO2 SLP232 T01830133 10183 20150 51004=
201708171653 METAR KSEA 171653Z 26005KT 10SM FEW007 BKN016 OVC032 17/13 A3020 RMK AO2 SLP232 T01670133=
201708171558 SPECI KSEA 171558Z 27003KT 10SM FEW007 BKN016 BKN032 17/13 A3020 RMK AO2 T01670133=
201708171553 METAR KSEA 171553Z 28003KT 10SM FEW007 SCT018 BKN032 16/13 A3020 RMK AO2 SLP230 T01610133=
201708171546 SPECI KSEA 171546Z 27003KT 10SM FEW007 SCT018 BKN032 16/13 A3020 RMK AO2 T01610133=
201708171453 METAR KSEA 171453Z 24003KT 10SM SCT015 BKN021 OVC030 16/13 A3019 RMK AO2 SLP228 T01560128 53014=
201708171353 METAR KSEA 171353Z 00000KT 10SM BKN015 OVC030 16/13 A3018 RMK AO2 SLP223 T01560133=
201708171331 SPECI KSEA 171331Z 22003KT 10SM OVC015 15/13 A3017 RMK AO2 T01500128=
201708171300 SPECI KSEA 171300Z 22004KT 10SM OVC013 15/13 A3016 RMK AO2 T01500133=
201708171253 METAR KSEA 171253Z 20004KT 10SM OVC015 15/13 A3016 RMK AO2 SLP216 T01500133=
201708171206 SPECI KSEA 171206Z 21005KT 10SM OVC015 15/13 A3015 RMK AO2 T01500133=
201708171153 METAR KSEA 171153Z 20007KT 10SM OVC014 16/13 A3015 RMK AO2 SLP213 T01560133 10189 20156 53007=
201708171053 METAR KSEA 171053Z 21006KT 10SM OVC017 16/13 A3014 RMK AO2 SLP211 T01610133=
201708170953 METAR KSEA 170953Z 21005KT 10SM OVC018 17/14 A3013 RMK AO2 SLP208 T01670139=
201708170853 METAR KSEA 170853Z 21004KT 10SM OVC019 17/14 A3013 RMK AO2 SLP206 T01720144 51003=
201708170753 METAR KSEA 170753Z 24003KT 10SM BKN018 17/14 A3012 RMK AO2 SLP205 T01720144 402610139=
201708170723 SPECI KSEA 170723Z 21004KT 10SM BKN018 BKN038 17/14 A3013 RMK AO2 T01720144=
201708170653 METAR KSEA 170653Z 00000KT 10SM SCT038 OVC055 18/14 A3013 RMK AO2 SLP206 T01780139=
201708170553 METAR KSEA 170553Z 28004KT 10SM BKN036 18/14 A3012 RMK AO2 SLP202 T01830139 10261 20183 53017=
201708170453 METAR KSEA 170453Z 29005KT 10SM BKN060 19/13 A3010 RMK AO2 SLP197 T01890133=
201708170353 METAR KSEA 170353Z 24003KT 10SM SCT060 21/11 A3008 RMK AO2 SLP190 T02110106=
201708170253 METAR KSEA 170253Z 30005KT 10SM SCT045 22/11 A3007 RMK AO2 SLP185 T02220111 55003=
201708170153 METAR KSEA 170153Z 24007KT 10SM FEW045 24/11 A3007 RMK AO2 SLP185 T02440111=
201708170053 METAR KSEA 170053Z 26006KT 10SM FEW040 25/11 A3007 RMK AO2 SLP187 T02500106=
201708162353 METAR KSEA 162353Z 25006KT 10SM FEW040 SCT090 26/10 A3008 RMK AO2 SLP189 T02560100 10261 20189 58012=
201708162253 METAR KSEA 162253Z 25006KT 10SM FEW040 SCT090 26/10 A3009 RMK AO2 SLP195 T02560100=
201708162153 METAR KSEA 162153Z 29005KT 10SM FEW040 SCT080 24/10 A3011 RMK AO2 SLP199 T02390100=
201708162053 METAR KSEA 162053Z 27005KT 10SM FEW040 SCT080 23/10 A3011 RMK AO2 SLP201 T02330100 50000=
201708161953 METAR KSEA 161953Z 27005KT 10SM BKN090 21/11 A3012 RMK AO2 SLP203 T02110106=
201708161853 METAR KSEA 161853Z 20004KT 10SM BKN095 BKN250 21/11 A3012 RMK AO2 SLP204 T02060106=
201708161753 METAR KSEA 161753Z VRB04KT 10SM FEW120 FEW250 19/09 A3011 RMK AO2 SLP201 T01940094 10194 20139 50003=
201708161653 METAR KSEA 161653Z 24008KT 10SM FEW120 FEW250 17/11 A3012 RMK AO2 SLP204 T01720106=
201708161553 METAR KSEA 161553Z 19006KT 10SM FEW120 FEW250 16/11 A3011 RMK AO2 SLP200 T01610111=
201708161453 METAR KSEA 161453Z 15006KT 10SM FEW120 FEW250 15/11 A3010 RMK AO2 SLP199 ACSL DSNT SE T01500106 51012=
201708161353 METAR KSEA 161353Z 13004KT 10SM FEW120 FEW250 14/09 A3010 RMK AO2 SLP197 ACSL DSNT SE T01440094=
201708161253 METAR KSEA 161253Z 00000KT 10SM CLR 15/09 A3009 RMK AO2 SLP193 T01500089=
201708161153 METAR KSEA 161153Z 04004KT 10SM CLR 16/09 A3007 RMK AO2 SLP187 T01560089 10194 20156 51008=
201708161053 METAR KSEA 161053Z 03005KT 10SM CLR 16/08 A3007 RMK AO2 SLP186 T01610083=
201708160953 METAR KSEA 160953Z 03005KT 10SM CLR 17/09 A3005 RMK AO2 SLP181 T01670089=
201708160853 METAR KSEA 160853Z 03010KT 10SM CLR 17/09 A3005 RMK AO2 SLP178 T01720089 51008=
201708160753 METAR KSEA 160753Z 02010KT 10SM CLR 17/09 A3004 RMK AO2 SLP176 T01720089 402560128=
201708160653 METAR KSEA 160653Z 03013KT 10SM CLR 19/09 A3003 RMK AO2 SLP173 T01890089=
201708160553 METAR KSEA 160553Z 01007KT 10SM CLR 18/09 A3002 RMK AO2 SLP170 T01830089 10256 20178 51014 TSNO=
201708160453 METAR KSEA 160453Z 33006KT 10SM CLR 19/08 A3002 RMK AO2 SLP168 T01890083=
201708160353 METAR KSEA 160353Z 33007KT 10SM FEW250 21/07 A3000 RMK AO2 SLP163 T02110072=
201708160253 METAR KSEA 160253Z 35005KT 10SM FEW050 FEW250 23/06 A2998 RMK AO2 SLP156 T02330056 53002=
201708160153 METAR KSEA 160153Z 35006KT 10SM FEW050 FEW250 24/03 A2998 RMK AO2 SLP155 T02440033=
201708160053 METAR KSEA 160053Z 01007KT 10SM FEW050 FEW250 25/06 A2997 RMK AO2 SLP154 T02500061=
201708152353 METAR KSEA 152353Z VRB06KT 10SM FEW050 FEW250 26/06 A2997 RMK AO2 SLP154 T02560056 10256 20194 58006=
201708152253 METAR KSEA 152253Z 28008KT 10SM FEW040 FEW250 24/09 A2998 RMK AO2 SLP157 T02440089=
201708152153 METAR KSEA 152153Z 29009KT 10SM FEW040 SCT250 24/08 A2999 RMK AO2 SLP159 T02390078=
201708152053 METAR KSEA 152053Z 30006KT 10SM FEW040 SCT250 23/08 A2999 RMK AO2 SLP160 T02280083 56000=
201708151953 METAR KSEA 151953Z 31009KT 10SM FEW035 BKN250 20/10 A3000 RMK AO2 SLP162 T02000100=
201708151853 METAR KSEA 151853Z 35006KT 10SM SCT250 22/11 A2999 RMK AO2 SLP159 T02170106=
201708151753 METAR KSEA 151753Z 27007KT 10SM FEW250 19/11 A2999 RMK AO2 SLP161 T01940111 10194 20128 51008=
201708151653 METAR KSEA 151653Z VRB06KT 10SM FEW250 19/10 A2998 RMK AO2 SLP157 T01890100=
201708151553 METAR KSEA 151553Z 36005KT 10SM FEW120 FEW250 17/10 A2998 RMK AO2 SLP157 T01720100=
201708151453 METAR KSEA 151453Z 05006KT 10SM FEW120 16/10 A2997 RMK AO2 SLP152 T01560100 52009=
201708151353 METAR KSEA 151353Z 34004KT 10SM FEW120 14/10 A2996 RMK AO2 SLP149 T01390100=
201708151253 METAR KSEA 151253Z 20003KT 10SM FEW010 FEW120 13/10 A2995 RMK AO2 SLP145 T01330100=
201708151153 METAR KSEA 151153Z 06006KT 10SM CLR 14/10 A2994 RMK AO2 SLP142 T01390100 10167 20139 51001=
201708151053 METAR KSEA 151053Z 02004KT 10SM CLR 14/10 A2994 RMK AO2 SLP142 T01440100=
201708150953 METAR KSEA 150953Z 03008KT 10SM CLR 15/10 A2994 RMK AO2 SLP143 T01500100=
201708150853 METAR KSEA 150853Z 01004KT 10SM CLR 15/09 A2994 RMK AO2 SLP141 T01500094 50001=
201708150753 METAR KSEA 150753Z 03008KT 10SM CLR 16/09 A2994 RMK AO2 SLP142 T01610094 402280133=
201708150653 METAR KSEA 150653Z 36006KT 10SM FEW250 16/09 A2994 RMK AO2 SLP142 T01560094=
201708150553 METAR KSEA 150553Z 36008KT 10SM SCT250 16/08 A2993 RMK AO2 SLP141 T01560083 10228 20156 51001=
201708150453 METAR KSEA 150453Z 35007KT 10SM SCT250 17/08 A2993 RMK AO2 SLP141 T01720083=
201708150353 METAR KSEA 150353Z 31004KT 10SM FEW040 SCT200 BKN250 18/10 A2993 RMK AO2 SLP140 T01780100=
201708150253 METAR KSEA 150253Z 35007KT 10SM FEW040 SCT200 BKN250 20/08 A2993 RMK AO2 SLP139 T02000083 56007=
201708150153 METAR KSEA 150153Z 01008KT 10SM FEW040 BKN250 22/08 A2993 RMK AO2 SLP141 T02170078=
201708150053 METAR KSEA 150053Z 32006KT 10SM FEW040 BKN250 22/09 A2994 RMK AO2 SLP143 T02220094=
201708142353 METAR KSEA 142353Z 36006KT 10SM FEW035 SCT200 BKN250 23/09 A2995 RMK AO2 SLP146 T02280089 10228 20167 58016=
201708142253 METAR KSEA 142253Z 27009KT 10SM FEW035 BKN200 21/08 A2996 RMK AO2 SLP151 T02110083=
201708142153 METAR KSEA 142153Z 29007KT 10SM FEW035 BKN250 21/09 A2999 RMK AO2 SLP158 T02060094=
201708142053 METAR KSEA 142053Z 30008KT 10SM FEW035 BKN250 20/10 A3000 RMK AO2 SLP162 T02000100 58010=
201708141953 METAR KSEA 141953Z 29003KT 10SM SCT032 BKN250 19/10 A3001 RMK AO2 SLP165 T01940100=
201708141853 METAR KSEA 141853Z 27006KT 10SM SCT028 BKN250 18/10 A3002 RMK AO2 SLP170 T01830100=
201708141753 METAR KSEA 141753Z 26005KT 10SM SCT025 BKN240 17/11 A3003 RMK AO2 SLP173 T01670106 10172 20133 58001=
201708141653 METAR KSEA 141653Z 00000KT 10SM FEW025 FEW050 BKN240 16/11 A3003 RMK AO2 SLP174 T01610106=
201708141553 METAR KSEA 141553Z VRB03KT 10SM FEW032 BKN050 BKN250 16/11 A3004 RMK AO2 SLP176 T01610111=
201708141453 METAR KSEA 141453Z 06006KT 10SM BKN032 BKN250 15/09 A3003 RMK AO2 SLP174 T01500089 55001=
201708141353 METAR KSEA 141353Z 05006KT 10SM BKN031 BKN250 15/09 A3003 RMK AO2 SLP172 T01500089=
201708141253 METAR KSEA 141253Z 18004KT 10SM BKN030 14/11 A3003 RMK AO2 SLP174 T01390111=
201708141153 METAR KSEA 141153Z 04006KT 10SM SCT028 OVC048 16/08 A3003 RMK AO2 SLP174 T01560083 10172 20156 58001=
201708141053 METAR KSEA 141053Z 05005KT 10SM BKN030 OVC049 16/08 A3004 RMK AO2 SLP175 T01560078=
201708141046 SPECI KSEA 141046Z 04004KT 10SM BKN030 OVC049 16/08 A3004 RMK AO2 T01560078=
201708141039 SPECI KSEA 141039Z 04004KT 10SM BKN028 OVC049 16/08 A3004 RMK AO2 T01560078=
201708140953 METAR KSEA 140953Z 06007KT 10SM OVC044 16/08 A3004 RMK AO2 SLP176 T01610083=
201708140853 METAR KSEA 140853Z 05009KT 10SM OVC039 16/09 A3004 RMK AO2 SLP176 T01610089 50000=
201708140753 METAR KSEA 140753Z 05007KT 10SM BKN038 OVC060 16/09 A3004 RMK AO2 SLP176 T01610089 402330156=
201708140653 METAR KSEA 140653Z 04008KT 10SM BKN037 OVC050 17/09 A3004 RMK AO2 SLP176 T01670089=
201708140553 METAR KSEA 140553Z 05013KT 10SM BKN039 OVC050 17/09 A3004 RMK AO2 SLP176 T01720094 10217 20167 51008=
201708140453 METAR KSEA 140453Z 04014KT 10SM FEW037 BKN055 17/09 A3003 RMK AO2 SLP175 T01670094=
201708140353 METAR KSEA 140353Z 03011KT 10SM FEW050 SCT080 18/11 A3002 RMK AO2 SLP171 T01780106=
201708140253 METAR KSEA 140253Z 03014KT 10SM SCT050 BKN085 19/10 A3001 RMK AO2 SLP167 T01890100 53002=
201708140153 METAR KSEA 140153Z 02014KT 10SM BKN050 20/11 A3001 RMK AO2 SLP166 T02000111=
201708140053 METAR KSEA 140053Z 02012KT 10SM FEW035 BKN050 BKN080 21/11 A3001 RMK AO2 SLP167 T02060111=
201708132353 METAR KSEA 132353Z 31007KT 10SM FEW032 OVC055 21/13 A3001 RMK AO2 SLP166 T02110128 10233 20189 55004=
201708132253 METAR KSEA 132253Z VRB06KT 10SM FEW030 BKN055 23/11 A3001 RMK AO2 SLP165 T02330111=
201708132153 METAR KSEA 132153Z 28007KT 10SM FEW030 BKN055 21/11 A3002 RMK AO2 SLP169 T02110111=
201708132053 METAR KSEA 132053Z 23008KT 200V270 10SM FEW030 SCT048 SCT070 22/11 A3002 RMK AO2 SLP170 T02170111 51008=
201708131953 METAR KSEA 131953Z 27009KT 230V300 10SM FEW030 SCT048 BKN060 21/12 A3001 RMK AO2 SLP168 T02110117=
201708131853 METAR KSEA 131853Z 21011KT 10SM FEW015 SCT035 BKN047 20/12 A3001 RMK AO2 SLP166 T02000122=
201708131753 METAR KSEA 131753Z 19012KT 10SM BKN016 BKN025 OVC031 19/14 A3000 RMK AO2 SLP162 T01940144 10194 20156 53013=
201708131653 METAR KSEA 131653Z 22010KT 10SM BKN012 OVC019 17/14 A2997 RMK AO2 SLP156 T01720144=
201708131553 METAR KSEA 131553Z 22004KT 10SM OVC011 17/14 A2997 RMK AO2 SLP153 T01670144=
201708131536 SPECI KSEA 131536Z 20007KT 10SM OVC010 17/14 A2996 RMK AO2 T01670144=
201708131453 METAR KSEA 131453Z 20009KT 10SM OVC006 16/15 A2996 RMK AO2 SLP148 T01610150 53005=
201708131353 METAR KSEA 131353Z 19010KT 3SM BR BKN008 OVC015 16/15 A2995 RMK AO2 SLP145 T01560150=
201708131253 METAR KSEA 131253Z 18009KT 10SM SCT016 BKN024 OVC029 16/14 A2994 RMK AO2 SLP143 T01560144=
201708131207 SPECI KSEA 131207Z 18010KT 10SM SCT005 BKN012 OVC031 16/15 A2994 RMK AO2 T01560150=
201708131153 METAR KSEA 131153Z 19008KT 10SM SCT005 BKN012 OVC031 16/15 A2994 RMK AO2 SLP143 60002 70002 T01560150 10167 20156 55005=
201708131144 SPECI KSEA 131144Z 19007KT 10SM FEW005 BKN026 OVC033 16/15 A2994 RMK AO2 T01560150=
201708131105 SPECI KSEA 131105Z 19008KT 10SM FEW005 SCT012 OVC035 16/14 A2994 RMK AO2 T01560144=
201708131053 METAR KSEA 131053Z 20008KT 10SM BKN028 OVC041 16/14 A2994 RMK AO2 SLP142 T01610139=
201708130953 METAR KSEA 130953Z 15007KT 10SM OVC029 16/14 A2994 RMK AO2 SLP143 T01610139=
201708130907 SPECI KSEA 130907Z 16006KT 10SM BKN025 OVC095 16/14 A2995 RMK AO2 T01560139=
201708130853 METAR KSEA 130853Z 18007KT 10SM FEW025 FEW080 OVC095 16/14 A2996 RMK AO2 RAE08 SLP148 P0000 60002 T01560139 58003=
201708130753 METAR KSEA 130753Z 20004KT 10SM -RA FEW015 BKN080 OVC110 16/14 A2997 RMK AO2 RAB0658 SLP152 P0002 T01610144 402440144=
201708130653 METAR KSEA 130653Z 22008KT 10SM FEW015 BKN090 OVC110 17/14 A2997 RMK AO2 SLP152 T01670139=
201708130553 METAR KSEA 130553Z 21008KT 10SM BKN015 OVC035 16/14 A2996 RMK AO2 RAB18E40 SLP152 P0000 60000 T01610139 10244 20161 51013=
201708130541 SPECI KSEA 130541Z 21011KT 10SM BKN015 OVC035 16/14 A2996 RMK AO2 RAB18E40 P0000 T01610139=
201708130453 METAR KSEA 130453Z 20010KT 10SM FEW035 BKN110 17/13 A2996 RMK AO2 SLP151 T01720133=
201708130353 METAR KSEA 130353Z 20009KT 10SM FEW045 BKN170 18/13 A2994 RMK AO2 SLP145 T01780128=
201708130253 METAR KSEA 130253Z 23010KT 10SM FEW100 BKN150 20/12 A2993 RMK AO2 SLP139 T02000117 53005=
201708130153 METAR KSEA 130153Z 25010KT 10SM FEW030 BKN150 22/12 A2991 RMK AO2 SLP133 T02220122=
201708130053 METAR KSEA 130053Z 22009KT 10SM FEW030 SCT150 BKN250 24/13 A2990 RMK AO2 SLP130 T02390128=
201708122353 METAR KSEA 122353Z 25010KT 10SM FEW030 SCT150 BKN250 24/13 A2991 RMK AO2 SLP133 T02390128 10244 20172 56016=
201708122253 METAR KSEA 122253Z 25011KT 10SM FEW030 BKN140 24/12 A2992 RMK AO2 SLP137 T02390122=
201708122153 METAR KSEA 122153Z 23006KT 10SM FEW030 SCT120 22/12 A2994 RMK AO2 SLP143 T02220122=
201708122053 METAR KSEA 122053Z VRB06KT 10SM FEW030 SCT120 21/12 A2996 RMK AO2 SLP149 T02060122 55004=
201708121953 METAR KSEA 121953Z 22008KT 10SM FEW030 SCT120 20/12 A2996 RMK AO2 SLP149 T02000117=
201708121855 SPECI KSEA 121855Z 20007KT 170V240 10SM SCT022 SCT090 19/11 A2996 RMK AO2 T01890111=
201708121853 METAR KSEA 121853Z 19008KT 10SM SCT022 SCT090 18/11 A2996 RMK AO2 SLP152 T01830111=
201708121753 METAR KSEA 121753Z VRB04KT 10SM FEW010 BKN018 OVC030 17/12 A2997 RMK AO2 SLP153 T01720117 10178 20144 50003=
201708121653 METAR KSEA 121653Z VRB03KT 10SM OVC012 15/12 A2998 RMK AO2 SLP155 T01500122=
201708121553 METAR KSEA 121553Z 20008KT 10SM OVC008 14/12 A2997 RMK AO2 SLP154 T01440122=
201708121453 METAR KSEA 121453Z 21008KT 10SM OVC009 14/12 A2996 RMK AO2 SLP151 T01440117 53001=
201708121353 METAR KSEA 121353Z 22007KT 10SM BKN006 OVC011 14/13 A2996 RMK AO2 SLP151 T01440128=
201708121253 METAR KSEA 121253Z 24004KT 10SM BKN008 OVC023 14/13 A2996 RMK AO2 SLP149 T01440128=
201708121153 METAR KSEA 121153Z 21006KT 10SM BKN007 OVC023 14/13 A2996 RMK AO2 SLP150 T01440128 10178 20144 53003=
201708121053 METAR KSEA 121053Z 22007KT 10SM BKN007 OVC130 15/13 A2995 RMK AO2 SLP145 T01500128=
201708121004 SPECI KSEA 121004Z 16007KT 10SM BKN007 OVC130 14/13 A2996 RMK AO2 T01440128=
201708120953 METAR KSEA 120953Z 16005KT 10SM FEW007 BKN140 BKN190 14/13 A2995 RMK AO2 SLP145 T01440128=
201708120853 METAR KSEA 120853Z 20005KT 10SM FEW005 BKN190 14/13 A2995 RMK AO2 SLP147 T01440128 53012=
201708120818 SPECI KSEA 120818Z 21009KT 10SM FEW005 BKN190 14/13 A2995 RMK AO2 T01440128=
201708120753 METAR KSEA 120753Z 21010KT 10SM BKN200 15/13 A2994 RMK AO2 SLP143 T01500133 402500139=
201708120653 METAR KSEA 120653Z 20009KT 10SM SCT180 16/13 A2992 RMK AO2 SLP135 T01610133=
201708120553 METAR KSEA 120553Z 25006KT 10SM BKN180 18/14 A2992 RMK AO2 SLP135 T01780139 10250 20178 50005=
201708120453 METAR KSEA 120453Z 24007KT 10SM SCT190 20/15 A2992 RMK AO2 SLP135 T02000150=
201708120353 METAR KSEA 120353Z 26006KT 10SM SCT190 21/15 A2991 RMK AO2 SLP132 T02110150=
201708120253 METAR KSEA 120253Z 21004KT 10SM BKN190 23/16 A2990 RMK AO2 SLP129 T02280156 55003=
201708120153 METAR KSEA 120153Z VRB05KT 10SM BKN190 23/16 A2990 RMK AO2 SLP128 T02330156=
201708120053 METAR KSEA 120053Z 21003KT 10SM BKN180 24/16 A2990 RMK AO2 SLP130 T02440156=
201708112353 METAR KSEA 112353Z VRB06KT 10SM BKN180 24/15 A2991 RMK AO2 SLP133 T02390150 10250 20178 56011=
201708112253 METAR KSEA 112253Z 21006KT 10SM SCT180 24/14 A2992 RMK AO2 SLP137 T02390144=
201708112153 METAR KSEA 112153Z 20007KT 10SM FEW160 24/14 A2993 RMK AO2 SLP140 T02390144=
201708112053 METAR KSEA 112053Z 19007KT 10SM FEW150 23/14 A2994 RMK AO2 SLP144 T02330144 58008=
201708111953 METAR KSEA 111953Z 20007KT 10SM FEW100 21/14 A2995 RMK AO2 SLP146 T02110139=
201708111853 METAR KSEA 111853Z 19006KT 10SM FEW150 19/14 A2997 RMK AO2 SLP152 T01890139=
201708111753 METAR KSEA 111753Z 19007KT 9SM FEW006 FEW150 18/14 A2997 RMK AO2 SLP153 T01780139 10178 20139 53004=
201708111653 METAR KSEA 111653Z 24005KT 6SM HZ SCT003 17/14 A2996 RMK AO2 SLP151 T01670139=
201708111638 SPECI KSEA 111638Z 20004KT 5SM HZ SCT002 16/13 A2997 RMK AO2 VIS S 1 1/2 FG BANK S T01610133=
201708111610 SPECI KSEA 111610Z 22005KT 2 1/2SM BR BKN002 15/13 A2996 RMK AO2 TWR VIS 7 VIS S 1 FG BANK S-W T01500133=
201708111553 METAR KSEA 111553Z 24006KT 4SM BR SCT002 15/13 A2996 RMK AO2 SLP150 VIS S-W-NW 1 FG BANK S-W-NW T01500133=
201708111453 METAR KSEA 111453Z 19004KT 6SM BR FEW002 14/13 A2996 RMK AO2 SLP149 VIS S-W 2 FG BANK S-W T01440133 58001=
201708111353 METAR KSEA 111353Z 16006KT 7SM FEW002 14/13 A2996 RMK AO2 SLP148 VIS S 1 FG BANK S T01390133=
201708111253 METAR KSEA 111253Z 20005KT 8SM FEW004 14/13 A2996 RMK AO2 SLP148 T01440133=
201708111242 SPECI KSEA 111242Z 20005KT 10SM FEW004 14/13 A2996 RMK AO2 T01440133=
201708111153 METAR KSEA 111153Z 20006KT 10SM CLR 15/13 A2996 RMK AO2 SLP148 T01500133 10206 20150 53008=
201708111053 METAR KSEA 111053Z 20005KT 10SM CLR 16/14 A2995 RMK AO2 SLP144 T01560139=
201708110953 METAR KSEA 110953Z 21003KT 8SM CLR 17/14 A2994 RMK AO2 SLP142 T01720139=
201708110853 METAR KSEA 110853Z 00000KT 8SM CLR 18/14 A2994 RMK AO2 SLP140 T01780139 51008=
201708110753 METAR KSEA 110753Z 00000KT 8SM CLR 19/14 A2993 RMK AO2 SLP139 T01890139 403220156=
201708110653 METAR KSEA 110653Z 28004KT 8SM CLR 19/14 A2992 RMK AO2 SLP136 T01940139=
201708110553 METAR KSEA 110553Z 26006KT 7SM FEW040 21/14 A2991 RMK AO2 SLP133 FU FEW040 T02060139 10322 20206 53006=
201708110453 METAR KSEA 110453Z 36006KT 6SM FU HZ SCT038 24/13 A2990 RMK AO2 SLP127 FU SCT038 T02390133=
201708110353 METAR KSEA 110353Z 31003KT 5SM FU HZ BKN038 24/14 A2989 RMK AO2 SLP127 FU BKN038 T02390144=
201708110253 METAR KSEA 110253Z 34005KT 4SM FU HZ SCT036 27/13 A2989 RMK AO2 SLP125 FU SCT036 T02720133 56005=
201708110153 METAR KSEA 110153Z 35008KT 5SM FU HZ FEW035 29/14 A2989 RMK AO2 SLP126 FU FEW035 T02940139=
201708110053 METAR KSEA 110053Z 34008KT 5SM HZ FU CLR 31/13 A2990 RMK AO2 SLP127 T03110133=
201708102353 METAR KSEA 102353Z 35008KT 5SM HZ FU CLR 32/14 A2991 RMK AO2 SLP131 T03170139 10317 20217 58016=
201708102253 METAR KSEA 102253Z 29008KT 6SM HZ FU CLR 30/14 A2992 RMK AO2 SLP136 T03000144=
201708102153 METAR KSEA 102153Z 26008KT 5SM HZ FU CLR 29/16 A2994 RMK AO2 SLP142 T02890156=
201708102053 METAR KSEA 102053Z 27007KT 5SM HZ FU CLR 26/16 A2996 RMK AO2 SLP147 T02610156 58009=
201708101953 METAR KSEA 101953Z 27005KT 6SM HZ FU CLR 25/16 A2997 RMK AO2 SLP151 T02500156=
201708101853 METAR KSEA 101853Z 27005KT 6SM HZ FU CLR 23/16 A2997 RMK AO2 SLP153 T02330156=
201708101753 METAR KSEA 101753Z 27004KT 7SM CLR 22/16 A2998 RMK AO2 SLP158 T02170156 10217 20156 58005=
201708101653 METAR KSEA 101653Z VRB03KT 7SM CLR 20/15 A2999 RMK AO2 SLP159 T02000150=
201708101553 METAR KSEA 101553Z 18004KT 4SM BR FU CLR 17/14 A3000 RMK AO2 SLP162 FG BANK S VIS S 1 T01670144=
201708101453 METAR KSEA 101453Z 19004KT 4SM HZ FU CLR 16/14 A3000 RMK AO2 SLP161 T01610144 53009=
201708101353 METAR KSEA 101353Z 22003KT 5SM HZ FU CLR 16/14 A2999 RMK AO2 SLP158 T01610139=
201708101253 METAR KSEA 101253Z 28003KT 7SM CLR 16/13 A2998 RMK AO2 SLP154 T01610133=
201708101153 METAR KSEA 101153Z 00000KT 8SM CLR 16/13 A2997 RMK AO2 SLP152 T01610133 10211 20161 53007=
201708101053 METAR KSEA 101053Z 25003KT 6SM HZ CLR 16/14 A2996 RMK AO2 SLP149 T01610139=
201708100953 METAR KSEA 100953Z 00000KT 6SM FU HZ FEW041 17/14 A2996 RMK AO2 SLP147 FU FEW041 T01670139=
201708100853 METAR KSEA 100853Z 00000KT 6SM FU HZ FEW041 18/14 A2995 RMK AO2 SLP145 FU FEW041 T01830139 51003=
201708100753 METAR KSEA 100753Z 00000KT 6SM FU HZ SCT041 18/14 A2995 RMK AO2 SLP145 FU SCT041 T01830144 403280161=
201708100653 METAR KSEA 100653Z 00000KT 5SM FU HZ BKN041 21/14 A2994 RMK AO2 SLP143 FU BKN041 T02060144=
201708100553 METAR KSEA 100553Z 31004KT 5SM FU HZ BKN040 21/14 A2994 RMK AO2 SLP142 FU BKN040 T02060144 10322 20206 52008=
201708100453 METAR KSEA 100453Z 00000KT 5SM FU HZ BKN038 23/15 A2994 RMK AO2 SLP140 FU BKN038 T02330150=
201708100353 METAR KSEA 100353Z 34006KT 5SM FU HZ BKN036 25/14 A2992 RMK AO2 SLP136 FU BKN036 T02500144=
201708100253 METAR KSEA 100253Z 30003KT 4SM FU HZ BKN038 28/16 A2992 RMK AO2 SLP134 FU BKN038 T02780156 55001=
201708100153 METAR KSEA 100153Z 36007KT 4SM FU HZ BKN037 31/14 A2991 RMK AO2 SLP133 FU BKN037 T03110144=
201708100053 METAR KSEA 100053Z 29006KT 4SM FU HZ BKN037 31/16 A2992 RMK AO2 SLP134 FU BKN037 T03110156=
201708092353 METAR KSEA 092353Z 27006KT 4SM FU HZ BKN036 31/16 A2992 RMK AO2 SLP135 FU BKN036 T03110156 10328 20233 58010=
201708092253 METAR KSEA 092253Z 35005KT 4SM FU HZ BKN035 32/14 A2993 RMK AO2 SLP139 FU BKN035 T03220144=
201708092153 METAR KSEA 092153Z 27005KT 4SM FU HZ BKN037 31/15 A2994 RMK AO2 SLP143 FU BKN037 T03060150=
201708092053 METAR KSEA 092053Z 28007KT 5SM FU HZ BKN037 29/16 A2995 RMK AO2 SLP146 FU BKN037 T02890156 56008=
201708091953 METAR KSEA 091953Z 26006KT 5SM FU HZ SCT038 27/16 A2996 RMK AO2 SLP148 FU SCT038 T02670156=
201708091853 METAR KSEA 091853Z 28006KT 5SM FU HZ SCT038 26/16 A2997 RMK AO2 SLP152 FU SCT038 T02560156=
201708091753 METAR KSEA 091753Z 25005KT 5SM FU HZ SCT040 24/16 A2998 RMK AO2 SLP154 FU SCT040 T02390156 10239 20161 50001=
201708091653 METAR KSEA 091653Z 29005KT 5SM FU HZ SCT040 22/15 A2998 RMK AO2 SLP155 FU SCT040 T02170150=
201708091553 METAR KSEA 091553Z 30004KT 5SM FU HZ FEW042 19/14 A2998 RMK AO2 SLP155 FU FEW042 T01940144=
201708091453 METAR KSEA 091453Z 21003KT 5SM FU HZ FEW043 18/15 A2997 RMK AO2 SLP153 FU FEW043 T01830150 51009=
201708091353 METAR KSEA 091353Z 14003KT 5SM FU HZ SCT043 17/14 A2997 RMK AO2 SLP152 FU SCT043 T01720139=
201708091253 METAR KSEA 091253Z 00000KT 6SM FU HZ SCT044 17/13 A2996 RMK AO2 SLP148 FU SCT044 T01670133=
201708091153 METAR KSEA 091153Z 00000KT 6SM FU HZ BKN043 16/14 A2995 RMK AO2 SLP145 FU BKN043 T01610139 10217 20161 53004=
201708091053 METAR KSEA 091053Z 00000KT 6SM FU HZ BKN038 17/14 A2994 RMK AO2 SLP143 FU BKN038 T01720139=
201708090953 METAR KSEA 090953Z 00000KT 6SM FU HZ BKN038 18/14 A2994 RMK AO2 SLP142 FU BKN038 T01780139=
201708090853 METAR KSEA 090853Z 00000KT 6SM FU HZ BKN038 19/14 A2994 RMK AO2 SLP141 FU BKN038 T01890144 51002=
201708090753 METAR KSEA 090753Z 00000KT 7SM BKN037 20/14 A2994 RMK AO2 SLP141 FU BKN037 T02000144 403170150=
201708090653 METAR KSEA 090653Z 30004KT 6SM FU HZ BKN037 21/14 A2993 RMK AO2 SLP139 FU BKN037 T02060144=
201708090553 METAR KSEA 090553Z 31003KT 6SM FU HZ BKN037 22/14 A2993 RMK AO2 SLP138 FU BKN037 T02170144 10306 20217 53005=
201708090453 METAR KSEA 090453Z 34004KT 6SM FU HZ BKN037 23/14 A2993 RMK AO2 SLP137 FU BKN037 T02330139=
201708090353 METAR KSEA 090353Z 30003KT 5SM FU HZ BKN039 24/14 A2992 RMK AO2 SLP133 FU BKN039 T02390144=
201708090253 METAR KSEA 090253Z 32004KT 4SM FU HZ BKN036 28/13 A2991 RMK AO2 SLP133 FU BKN036 T02780133 55003=
201708090153 METAR KSEA 090153Z 35008KT 4SM FU HZ BKN038 29/14 A2991 RMK AO2 SLP131 FU BKN038 T02940139=
201708090053 METAR KSEA 090053Z VRB06KT 5SM FU HZ BKN038 30/14 A2991 RMK AO2 SLP133 FU BKN038 T03000139=
201708082353 METAR KSEA 082353Z 36010KT 4SM FU HZ BKN033 31/13 A2992 RMK AO2 SLP136 FU BKN033 T03060128 10317 20222 56013=
201708082253 METAR KSEA 082253Z 30007KT 4SM FU HZ SCT035 30/14 A2993 RMK AO2 SLP140 FU SCT035 T03000144=
201708082153 METAR KSEA 082153Z 30008KT 5SM FU HZ CLR 29/14 A2995 RMK AO2 SLP144 T02890144=
201708082053 METAR KSEA 082053Z 26007KT 6SM FU HZ CLR 27/15 A2996 RMK AO2 SLP150 T02720150 57012=
201708081953 METAR KSEA 081953Z 30006KT 6SM FU HZ CLR 26/15 A2997 RMK AO2 SLP153 T02610150=
201708081853 METAR KSEA 081853Z 27007KT 6SM FU HZ FEW041 24/14 A2999 RMK AO2 SLP158 FU FEW041 T02390144=
201708081753 METAR KSEA 081753Z 28005KT 7SM FEW042 22/14 A3000 RMK AO2 SLP162 FU FEW042 T02220144 10222 20150 58006=
201708081653 METAR KSEA 081653Z 28005KT 7SM SCT041 20/14 A3001 RMK AO2 SLP166 FU SCT041 T02000144=
201708081553 METAR KSEA 081553Z 29004KT 6SM FU HZ SCT042 19/14 A3001 RMK AO2 SLP167 FU SCT042 T01940144=
201708081453 METAR KSEA 081453Z 00000KT 6SM FU HZ BKN042 17/14 A3002 RMK AO2 SLP168 FU BKN042 T01670139 53005=
201708081353 METAR KSEA 081353Z 00000KT 6SM FU BR BKN041 16/14 A3001 RMK AO2 SLP166 FU BKN041 T01560139=
201708081253 METAR KSEA 081253Z 34003KT 7SM BKN042 16/13 A3001 RMK AO2 SLP164 FU BKN042 T01560133=
201708081153 METAR KSEA 081153Z 00000KT 7SM BKN044 16/13 A3000 RMK AO2 SLP163 FU BKN044 T01560133 10222 20156 53004=
201708081053 METAR KSEA 081053Z 00000KT 6SM HZ FU BKN045 16/13 A3000 RMK AO2 SLP162 FU BKN045 T01610133=
201708080953 METAR KSEA 080953Z 00000KT 6SM HZ FU BKN044 18/14 A2999 RMK AO2 SLP160 FU BKN044 T01780139=
201708080853 METAR KSEA 080853Z 00000KT 7SM BKN044 18/14 A2999 RMK AO2 SLP159 FU BKN044 T01780139 53004=
201708080753 METAR KSEA 080753Z 00000KT 7SM BKN040 20/14 A2999 RMK AO2 SLP157 FU BKN040 T02000144 402890139=
201708080653 METAR KSEA 080653Z 00000KT 6SM FU HZ OVC038 21/14 A2998 RMK AO2 SLP156 FU OVC038 T02060144=
201708080553 METAR KSEA 080553Z 36006KT 4SM FU HZ BKN038 22/14 A2998 RMK AO2 SLP156 FU BKN038 T02170144 10289 20211 51008=
201708080453 METAR KSEA 080453Z 34004KT 5SM FU HZ BKN042 22/14 A2998 RMK AO2 SLP155 FU HZ BKN042 T02220144=
201708080353 METAR KSEA 080353Z 31003KT 5SM FU HZ BKN044 24/14 A2997 RMK AO2 SLP151 FU BKN044 T02390139=
201708080253 METAR KSEA 080253Z 36006KT 4SM FU HZ BKN032 27/14 A2996 RMK AO2 SLP147 FU BKN032 T02670139 55002=
201708080153 METAR KSEA 080153Z 34006KT 3SM FU HZ BKN030 28/13 A2995 RMK AO2 SLP146 FU BKN030 T02830128=
201708080053 METAR KSEA 080053Z 28006KT 4SM FU HZ BKN031 28/14 A2996 RMK AO2 SLP148 FU BKN031 T02830144=
201708072353 METAR KSEA 072353Z 30007KT 5SM FU HZ BKN037 29/14 A2996 RMK AO2 SLP150 FU BKN037 T02890144 10289 20206 56007=
201708072253 METAR KSEA 072253Z 29007KT 5SM FU HZ SCT040 28/14 A2997 RMK AO2 SLP153 FU SCT040 T02830144=
201708072153 METAR KSEA 072153Z 28009KT 5SM FU HZ SCT041 27/15 A2998 RMK AO2 SLP155 FU SCT041 T02670150=
201708072053 METAR KSEA 072053Z 32007KT 8SM CLR 26/15 A2999 RMK AO2 SLP158 T02610150 58007=
201708071953 METAR KSEA 071953Z 29007KT 10SM CLR 25/14 A2999 RMK AO2 SLP161 T02500144=
201708071853 METAR KSEA 071853Z VRB04KT 10SM CLR 22/15 A3000 RMK AO2 SLP164 T02220150=
201708071753 METAR KSEA 071753Z 27005KT 10SM CLR 21/14 A3001 RMK AO2 SLP166 T02060144 10211 20139 58001=
201708071653 METAR KSEA 071653Z 28004KT 10SM CLR 19/14 A3001 RMK AO2 SLP167 T01940144=
201708071553 METAR KSEA 071553Z 28003KT 10SM CLR 18/15 A3001 RMK AO2 SLP167 T01830150=
201708071453 METAR KSEA 071453Z 30003KT 10SM CLR 16/14 A3001 RMK AO2 SLP166 T01610139 51008=
201708071353 METAR KSEA 071353Z 00000KT 10SM BKN050 15/13 A3000 RMK AO2 SLP164 FU BKN050 T01500133=
201708071253 METAR KSEA 071253Z 00000KT 10SM BKN055 15/13 A3000 RMK AO2 SLP162 FU BKN055 T01500133=
201708071153 METAR KSEA 071153Z 00000KT 10SM BKN055 16/13 A2999 RMK AO2 SLP157 T01560133 10206 20150 51005=
201708071053 METAR KSEA 071053Z 00000KT 10SM BKN055 16/13 A2998 RMK AO2 SLP156 T01610133=
201708070953 METAR KSEA 070953Z 00000KT 10SM OVC055 17/14 A2998 RMK AO2 SLP156 T01670139=
201708070853 METAR KSEA 070853Z 00000KT 10SM BKN055 17/14 A2997 RMK AO2 SLP152 T01720139 52004=
201708070753 METAR KSEA 070753Z 00000KT 10SM OVC055 17/14 A2997 RMK AO2 SLP151 T01720139 402780144=
201708070653 METAR KSEA 070653Z 27003KT 9SM BKN050 18/14 A2996 RMK AO2 SLP150 T01830144=
201708070553 METAR KSEA 070553Z 32003KT 10SM BKN050 21/14 A2996 RMK AO2 SLP148 T02060144 10278 20200 51009=
201708070453 METAR KSEA 070453Z 29003KT 10SM BKN046 21/14 A2995 RMK AO2 SLP146 T02060144=
201708070353 METAR KSEA 070353Z 01003KT 9SM BKN039 22/14 A2994 RMK AO2 SLP143 T02170139=
201708070253 METAR KSEA 070253Z 30005KT 9SM BKN039 23/14 A2993 RMK AO2 SLP139 T02280144 53001=
201708070153 METAR KSEA 070153Z 31005KT 7SM BKN037 24/14 A2993 RMK AO2 SLP139 T02440144=
201708070053 METAR KSEA 070053Z 32008KT 6SM HZ BKN041 27/13 A2992 RMK AO2 SLP137 T02670133=
201708062353 METAR KSEA 062353Z 36009KT 6SM HZ BKN043 28/13 A2993 RMK AO2 SLP137 T02780133 10278 20206 58007=
201708062253 METAR KSEA 062253Z 28008KT 10SM OVC045 26/14 A2994 RMK AO2 SLP141 T02610144=
201708062153 METAR KSEA 062153Z 30009KT 10SM BKN046 26/15 A2994 RMK AO2 SLP143 T02560150=
201708062053 METAR KSEA 062053Z 32008KT 10SM SCT048 26/15 A2995 RMK AO2 SLP145 T02560150 58009=
201708061953 METAR KSEA 061953Z 28008KT 10SM SCT050 24/16 A2996 RMK AO2 SLP149 T02390156=
201708061853 METAR KSEA 061853Z 27004KT 10SM FEW050 22/16 A2997 RMK AO2 SLP151 T02220156=
201708061753 METAR KSEA 061753Z 28006KT 10SM FEW060 21/15 A2998 RMK AO2 SLP155 T02060150 10211 20144 58001=
201708061653 METAR KSEA 061653Z VRB03KT 10SM FEW060 20/15 A2998 RMK AO2 SLP155 T02000150=
201708061553 METAR KSEA 061553Z 29003KT 10SM FEW070 18/14 A2998 RMK AO2 SLP157 T01830144=
201708061453 METAR KSEA 061453Z 00000KT 10SM FEW070 17/14 A2998 RMK AO2 SLP155 T01670144 51009=
201708061353 METAR KSEA 061353Z 29003KT 10SM FEW070 15/14 A2997 RMK AO2 SLP152 T01500139=
201708061253 METAR KSEA 061253Z 00000KT 9SM SCT075 14/13 A2996 RMK AO2 SLP149 T01440133=
201708061153 METAR KSEA 061153Z 00000KT 10SM CLR 15/13 A2995 RMK AO2 SLP146 T01500133 10194 20144 50003=
201708061053 METAR KSEA 061053Z 00000KT 10SM FEW075 15/13 A2995 RMK AO2 SLP147 T01500133=
201708060953 METAR KSEA 060953Z 00000KT 10SM CLR 16/14 A2995 RMK AO2 SLP145 T01610139=
201708060853 METAR KSEA 060853Z 00000KT 10SM CLR 17/14 A2994 RMK AO2 SLP143 T01670139 53004=
201708060753 METAR KSEA 060753Z 29003KT 10SM CLR 17/14 A2993 RMK AO2 SLP140 T01670139 402780144=
201708060653 METAR KSEA 060653Z 00000KT 10SM CLR 19/14 A2993 RMK AO2 SLP140 T01890144=
201708060553 METAR KSEA 060553Z 33003KT 10SM CLR 19/14 A2993 RMK AO2 SLP138 T01940139 10272 20194 51012=
201708060453 METAR KSEA 060453Z 34005KT 10SM CLR 21/14 A2992 RMK AO2 SLP136 T02110139=
201708060353 METAR KSEA 060353Z 36005KT 10SM CLR 22/14 A2991 RMK AO2 SLP132 T02220139=
201708060253 METAR KSEA 060253Z 30005KT 10SM CLR 24/14 A2989 RMK AO2 SLP126 T02440139 55003=
201708060153 METAR KSEA 060153Z 29005KT 10SM CLR 26/14 A2989 RMK AO2 SLP125 T02560139=
201708060053 METAR KSEA 060053Z 29005KT 10SM CLR 27/14 A2989 RMK AO2 SLP127 T02670139=
201708052353 METAR KSEA 052353Z 28005KT 10SM CLR 27/13 A2990 RMK AO2 SLP129 T02720128 10278 20183 58012=
201708052253 METAR KSEA 052253Z 28006KT 10SM CLR 26/13 A2992 RMK AO2 SLP135 T02610128=
201708052153 METAR KSEA 052153Z 33003KT 10SM CLR 26/13 A2992 RMK AO2 SLP137 T02610128=
201708052053 METAR KSEA 052053Z 19003KT 10SM CLR 24/13 A2994 RMK AO2 SLP142 T02440128 58006=
201708051953 METAR KSEA 051953Z 29005KT 10SM CLR 22/13 A2995 RMK AO2 SLP145 T02220133=
201708051853 METAR KSEA 051853Z 19006KT 10SM CLR 21/13 A2995 RMK AO2 SLP147 T02110133=
201708051753 METAR KSEA 051753Z 23007KT 10SM CLR 18/13 A2995 RMK AO2 SLP148 T01830133 10189 20144 51002=
201708051653 METAR KSEA 051653Z 21006KT 10SM CLR 18/13 A2995 RMK AO2 SLP147 T01780133=
201708051553 METAR KSEA 051553Z 20007KT 10SM FU FEW011 17/13 A2996 RMK AO2 SLP148 T01670128=
201708051453 METAR KSEA 051453Z 17007KT 10SM FU FEW010 SCT080 16/13 A2995 RMK AO2 SLP145 FU SCT080 T01560128 53012=
201708051353 METAR KSEA 051353Z 16006KT 10SM FU SCT085 14/13 A2994 RMK AO2 SLP140 FU BKN085 T01440128=
201708051253 METAR KSEA 051253Z 18006KT 10SM FU SCT090 14/13 A2992 RMK AO2 SLP136 FU SCT090 T01440128=
201708051153 METAR KSEA 051153Z 20004KT 10SM BKN090 14/13 A2991 RMK AO2 SLP133 T01440128 10206 20144 51007=
201708051053 METAR KSEA 051053Z 20006KT 10SM SCT090 14/13 A2991 RMK AO2 SLP131 T01440128=
201708050953 METAR KSEA 050953Z 20006KT 10SM FEW090 15/13 A2990 RMK AO2 SLP127 T01500128=
201708050853 METAR KSEA 050853Z 20005KT 10SM FEW085 16/13 A2989 RMK AO2 SLP125 T01560133 53005=
201708050753 METAR KSEA 050753Z 22008KT 10SM CLR 17/13 A2988 RMK AO2 SLP122 T01720133 403280172=
201708050653 METAR KSEA 050653Z 19005KT 10SM CLR 18/13 A2988 RMK AO2 SLP121 T01830133=
201708050553 METAR KSEA 050553Z 20006KT 10SM CLR 21/12 A2988 RMK AO2 SLP120 T02060122 10328 20206 51017=
201708050453 METAR KSEA 050453Z 22007KT 10SM CLR 23/13 A2987 RMK AO2 SLP117 T02330128=
201708050353 METAR KSEA 050353Z 24005KT 7SM CLR 25/13 A2984 RMK AO2 SLP107 T02500133=
201708050253 METAR KSEA 050253Z 24008KT 6SM FU HZ CLR 29/14 A2983 RMK AO2 SLP103 T02890139 55004=
201708050153 METAR KSEA 050153Z 28005KT 6SM FU HZ CLR 32/14 A2982 RMK AO2 SLP100 T03170139=
201708050053 METAR KSEA 050053Z 24005KT 6SM FU HZ CLR 32/13 A2983 RMK AO2 SLP102 T03220128=
201708042353 METAR KSEA 042353Z 22006KT 6SM FU HZ FEW037 32/12 A2984 RMK AO2 SLP106 FU FEW037 T03220122 10328 20256 56012=
201708042253 METAR KSEA 042253Z 21008KT 6SM FU HZ CLR 32/11 A2985 RMK AO2 SLP109 T03220106=
201708042153 METAR KSEA 042153Z 21007KT 6SM FU HZ CLR 32/11 A2986 RMK AO2 SLP114 T03170111=
201708042053 METAR KSEA 042053Z VRB03KT 5SM FU HZ CLR 31/12 A2987 RMK AO2 SLP118 T03060122 58011=
201708041953 METAR KSEA 041953Z 23004KT 5SM FU HZ CLR 29/13 A2989 RMK AO2 SLP124 T02940133=
201708041853 METAR KSEA 041853Z 27006KT 4SM FU HZ CLR 27/14 A2990 RMK AO2 SLP127 T02720139=
201708041753 METAR KSEA 041753Z 22004KT 4SM FU HZ CLR 26/14 A2991 RMK AO2 SLP130 T02610139 10261 20183 50001=
201708041653 METAR KSEA 041653Z 17006KT 4SM FU HZ CLR 23/14 A2991 RMK AO2 SLP132 T02280139=
201708041553 METAR KSEA 041553Z 21006KT 4SM FU HZ CLR 22/14 A2991 RMK AO2 SLP131 T02170139=
201708041453 METAR KSEA 041453Z 17004KT 4SM FU HZ CLR 21/14 A2990 RMK AO2 SLP129 T02110139 51006=
201708041353 METAR KSEA 041353Z 19003KT 5SM FU HZ FEW032 19/14 A2990 RMK AO2 SLP127 FU FEW032 T01940144=
201708041253 METAR KSEA 041253Z 17003KT 4SM FU HZ FEW032 19/14 A2989 RMK AO2 SLP124 FU FEW032 T01940144=
201708041153 METAR KSEA 041153Z 18003KT 6SM FU HZ FEW032 19/14 A2988 RMK AO2 SLP122 FU FEW032 T01940139 10272 20189 50001=
201708041053 METAR KSEA 041053Z 00000KT 6SM FU HZ FEW032 20/13 A2989 RMK AO2 SLP123 FU FEW032 T02000133=
201708040953 METAR KSEA 040953Z 00000KT 6SM FU HZ FEW032 22/13 A2988 RMK AO2 SLP122 FU FEW032 T02170128=
201708040853 METAR KSEA 040853Z 01004KT 6SM FU HZ BKN032 22/13 A2988 RMK AO2 SLP121 FU BKN032 T02220128 55001=
201708040753 METAR KSEA 040753Z 00000KT 6SM FU HZ BKN035 24/12 A2988 RMK AO2 SLP120 FU BKN035 T02440122 403440200=
201708040653 METAR KSEA 040653Z 00000KT 6SM FU HZ BKN045 25/12 A2988 RMK AO2 SLP121 FU BKN045 T02500122=
201708040553 METAR KSEA 040553Z 02005KT 6SM FU HZ BKN039 27/12 A2989 RMK AO2 SLP122 FU BKN039 T02720117 10339 20261 50001=
201708040453 METAR KSEA 040453Z 01007KT 5SM FU HZ BKN035 27/11 A2989 RMK AO2 SLP124 FU BKN035 T02670106=
201708040353 METAR KSEA 040353Z 35009KT 3SM FU HZ BKN031 27/08 A2988 RMK AO2 SLP121 FU BKN031 T02720083=
201708040253 METAR KSEA 040253Z 35005KT 4SM FU HZ BKN030 31/09 A2988 RMK AO2 SLP121 FU BKN030 T03060094 56014=
201708040153 METAR KSEA 040153Z 36006KT 4SM FU HZ BKN030 32/12 A2989 RMK AO2 SLP122 FU BKN030 T03220117=
201708040053 METAR KSEA 040053Z 36006KT 5SM FU HZ BKN030 33/11 A2990 RMK AO2 SLP128 FU BKN030 T03330106=
201708040038 SPECI KSEA 040038Z 02005KT 4SM FU HZ BKN030 33/11 A2991 RMK AO2 FU BKN030 T03280106=
201708032353 METAR KSEA 032353Z 36008KT 4SM FU HZ BKN029 33/10 A2992 RMK AO2 SLP135 FU BKN029 T03330100 10344 20267 58015=
201708032343 SPECI KSEA 032343Z 01009KT 4SM FU HZ BKN029 33/11 A2993 RMK AO2 FU BKN029 T03330106=
201708032253 METAR KSEA 032253Z 29007KT 5SM FU HZ SCT032 33/13 A2994 RMK AO2 SLP140 FU SCT032 T03330128=
201708032153 METAR KSEA 032153Z 31009KT 4SM FU HZ SCT031 33/12 A2996 RMK AO2 SLP147 FU SCT031 T03280122=
201708032053 METAR KSEA 032053Z 29007KT 5SM HZ FU SCT035 31/15 A2997 RMK AO2 SLP150 FU SCT035 T03110150 58009=
201708031953 METAR KSEA 031953Z 27006KT 5SM HZ FU SCT035 29/16 A2998 RMK AO2 SLP154 FU SCT035 T02890156=
201708031853 METAR KSEA 031853Z 29005KT 6SM HZ FU SCT033 28/16 A2999 RMK AO2 SLP157 FU SCT033 T02780156=
201708031753 METAR KSEA 031753Z 27004KT 6SM HZ FU BKN032 27/16 A2999 RMK AO2 SLP159 FU BKN032 T02720156 10278 20200 58007=
201708031653 METAR KSEA 031653Z 36006KT 6SM HZ FU BKN032 26/15 A3001 RMK AO2 SLP163 FU BKN032 T02560150=
201708031553 METAR KSEA 031553Z 04006KT 5SM HZ FU BKN031 24/15 A3002 RMK AO2 SLP166 FU BKN031 T02390150=
201708031453 METAR KSEA 031453Z 36007KT 5SM HZ FU BKN033 22/14 A3002 RMK AO2 SLP166 FU BKN033 T02220144 52006=
201708031353 METAR KSEA 031353Z 36004KT 5SM HZ FU BKN036 21/14 A3001 RMK AO2 SLP164 FU BKN036 T02060144=
201708031253 METAR KSEA 031253Z 33004KT 5SM HZ FU BKN038 20/14 A3000 RMK AO2 SLP162 FU BKN038 T02000139=
201708031153 METAR KSEA 031153Z 05006KT 5SM HZ FU BKN038 22/14 A3000 RMK AO2 SLP160 FU BKN038 T02170144 10267 20211 52005=
201708031053 METAR KSEA 031053Z 03006KT 5SM HZ FU BKN033 22/14 A2999 RMK AO2 SLP158 FU BKN033 T02220144=
201708030953 METAR KSEA 030953Z 05004KT 5SM HZ FU BKN031 22/14 A2999 RMK AO2 SLP157 FU BKN031 T02220139=
201708030853 METAR KSEA 030853Z 05003KT 6SM HZ FU BKN031 24/12 A2998 RMK AO2 SLP155 FU BKN031 T02390117 58003=
201708030753 METAR KSEA 030753Z 05005KT 6SM HZ FU BKN033 25/12 A2999 RMK AO2 SLP157 FU BKN033 T02500117 403280206=
201708030653 METAR KSEA 030653Z 04008KT 6SM HZ FU BKN033 26/11 A2999 RMK AO2 SLP159 FU BKN033 T02610111=
201708030553 METAR KSEA 030553Z 05009KT 6SM HZ FU BKN032 26/11 A2999 RMK AO2 SLP158 FU BKN032 T02610111 10322 20261 51008=
201708030453 METAR KSEA 030453Z 03009KT 6SM FU HZ BKN032 27/11 A2999 RMK AO2 SLP157 FU BKN032 T02720111=
201708030353 METAR KSEA 030353Z 02011KT 4SM FU HZ BKN027 28/11 A2997 RMK AO2 SLP153 FU BKN027 T02780111=
201708030253 METAR KSEA 030253Z 01009KT 4SM FU HZ SCT025 29/12 A2997 RMK AO2 SLP150 FU SCT025 T02890122 55005=
201708030153 METAR KSEA 030153Z 35010KT 4SM FU HZ SCT025 30/12 A2996 RMK AO2 SLP149 FU SCT025 T03000122=
201708030053 METAR KSEA 030053Z 34010KT 5SM FU HZ SCT022 31/13 A2997 RMK AO2 SLP152 FU SCT022 T03060128=
201708022353 METAR KSEA 022353Z 35010KT 5SM FU HZ SCT022 32/13 A2998 RMK AO2 SLP155 FU SCT022 T03220133 10328 20267 58016=
201708022253 METAR KSEA 022253Z 36009KT 4SM FU HZ SCT029 32/13 A3000 RMK AO2 SLP160 FU SCT029 T03220128=
201708022153 METAR KSEA 022153Z 34009KT 300V360 3SM FU HZ SCT022 32/13 A3002 RMK AO2 SLP168 FU SCT022 T03220128=
201708022053 METAR KSEA 022053Z 35010KT 5SM FU HZ SCT028 32/13 A3003 RMK AO2 SLP171 FU SCT028 T03170133 57012=
201708021953 METAR KSEA 021953Z 36012KT 6SM HZ FU CLR 30/14 A3004 RMK AO2 SLP175 T03000139=
201708021853 METAR KSEA 021853Z 01011KT 9SM CLR 28/15 A3005 RMK AO2 SLP180 T02830150=
201708021753 METAR KSEA 021753Z 35005KT 9SM CLR 27/14 A3007 RMK AO2 SLP184 T02720144 10272 20206 58005=
201708021653 METAR KSEA 021653Z 35005KT 9SM CLR 25/14 A3008 RMK AO2 SLP188 T02500144=
201708021553 METAR KSEA 021553Z 36007KT 9SM CLR 23/14 A3008 RMK AO2 SLP190 T02280139=
201708021453 METAR KSEA 021453Z 04009KT 9SM CLR 22/14 A3008 RMK AO2 SLP190 T02170139 53003=
201708021353 METAR KSEA 021353Z 02009KT 10SM CLR 21/13 A3008 RMK AO2 SLP188 T02060133=
201708021253 METAR KSEA 021253Z 03009KT 10SM CLR 21/13 A3007 RMK AO2 SLP186 T02060128=
201708021153 METAR KSEA 021153Z 04008KT 10SM CLR 21/13 A3007 RMK AO2 SLP185 T02110133 10250 20206 51002=
201708021053 METAR KSEA 021053Z 05005KT 10SM CLR 21/13 A3007 RMK AO2 SLP185 T02060133=
201708020953 METAR KSEA 020953Z 03007KT 10SM CLR 21/12 A3007 RMK AO2 SLP184 T02110122=
201708020853 METAR KSEA 020853Z 01004KT 10SM CLR 22/12 A3006 RMK AO2 SLP183 T02170117 55001=
201708020753 METAR KSEA 020753Z 04005KT 10SM CLR 23/11 A3006 RMK AO2 SLP182 T02330111 403060156=
201708020653 METAR KSEA 020653Z 03006KT 10SM CLR 24/11 A3007 RMK AO2 SLP184 T02390106=
201708020553 METAR KSEA 020553Z 05006KT 10SM CLR 25/11 A3007 RMK AO2 SLP184 T02500106 10306 20250 50002=
201708020453 METAR KSEA 020453Z 02006KT 10SM CLR 26/11 A3007 RMK AO2 SLP187 T02560111=
201708020353 METAR KSEA 020353Z 01009KT 7SM CLR 27/11 A3006 RMK AO2 SLP183 T02670111=
201708020253 METAR KSEA 020253Z 36009KT 6SM FU CLR 28/12 A3006 RMK AO2 SLP182 T02780117 56007=
201708020153 METAR KSEA 020153Z 35010KT 6SM FU CLR 29/11 A3006 RMK AO2 SLP182 T02940111=
201708020053 METAR KSEA 020053Z 34010KT 7SM CLR 31/11 A3007 RMK AO2 SLP185 T03060111=
201708012353 METAR KSEA 012353Z 32012KT 10SM CLR 30/12 A3008 RMK AO2 SLP190 T03000122 10306 20256 58012=
201708012253 METAR KSEA 012253Z 36010G16KT 10SM CLR 30/13 A3009 RMK AO2 SLP194 T03000133=
201708012153 METAR KSEA 012153Z 35007KT 10SM CLR 30/13 A3011 RMK AO2 SLP199 T03000133=
201708012053 METAR KSEA 012053Z 36012G18KT 10SM CLR 29/12 A3012 RMK AO2 SLP202 T02890122 58012 $=
201708011953 METAR KSEA 011953Z 35013G17KT 10SM CLR 28/12 A3013 RMK AO2 SLP206 T02830122 $=
201708011853 METAR KSEA 011853Z VRB04KT 10SM FEW250 27/13 A3015 RMK AO2 SLP213 T02670133 $=
201708011753 METAR KSEA 011753Z 32005KT 10SM FEW250 26/12 A3016 RMK AO2 SLP215 T02560122 10256 20156 58006 $=
201708011653 METAR KSEA 011653Z 35005KT 10SM FEW250 24/12 A3016 RMK AO2 SLP218 T02390117=
201708011553 METAR KSEA 011553Z 36007KT 10SM FEW250 22/13 A3017 RMK AO2 SLP220 T02220128=
201708011453 METAR KSEA 011453Z 04004KT 10SM FEW250 20/13 A3017 RMK AO2 SLP221 T02000128 50003=
201708011353 METAR KSEA 011353Z 32003KT 10SM FEW250 16/13 A3018 RMK AO2 SLP222 T01610128=
201708011253 METAR KSEA 011253Z 05004KT 10SM FEW250 17/13 A3017 RMK AO2 SLP220 T01720128=
201708011153 METAR KSEA 011153Z 05004KT 10SM CLR 18/12 A3017 RMK AO2 SLP218 T01830122 10228 20178 53001=
201708011053 METAR KSEA 011053Z 04004KT 10SM CLR 18/12 A3016 RMK AO2 SLP217 T01830122=
201708010953 METAR KSEA 010953Z 04006KT 10SM CLR 19/12 A3016 RMK AO2 SLP217 T01890117=
201708010853 METAR KSEA 010853Z 01007KT 10SM CLR 19/12 A3016 RMK AO2 SLP218 T01940122 56001=
201708010753 METAR KSEA 010753Z 03004KT 10SM CLR 21/11 A3016 RMK AO2 SLP218 T02110111 402940156=
201708010653 METAR KSEA 010653Z 04007KT 10SM CLR 22/12 A3016 RMK AO2 SLP217 T02170122=
201708010553 METAR KSEA 010553Z 01007KT 10SM FEW250 22/12 A3017 RMK AO2 SLP219 T02170117 10289 20211 53002=
201708010453 METAR KSEA 010453Z 35005KT 10SM FEW250 22/12 A3016 RMK AO2 SLP217 T02220122=
201708010353 METAR KSEA 010353Z 35007KT 10SM FEW250 24/12 A3016 RMK AO2 SLP217 T02390122=
201708010253 METAR KSEA 010253Z 36008KT 10SM CLR 26/12 A3016 RMK AO2 SLP217 T02610117 56007=
201708010153 METAR KSEA 010153Z 34010KT 10SM CLR 28/09 A3016 RMK AO2 SLP217 T02780094=
201708010053 METAR KSEA 010053Z 34014KT 10SM CLR 29/08 A3017 RMK AO2 SLP220 T02890083=

# No short TAF reports from KSEA in databse.

###################################
#  large TAF from KSEA
###################################
201708312320 TAF KSEA 312320Z 0100/0206 30007KT P6SM FEW020 FM010300 02004KT
                       P6SM SKC FM011800 34008KT P6SM SKC=
201708312102 KSEA 312102Z 3121/0124 30005KT P6SM SCT012 BKN030 FM312200 33005KT
                       P6SM SCT030 FM010300 02004KT P6SM SKC=
201708311727 TAF KSEA 311727Z 3118/0124 VRB04KT 4SM BR OVC004 FM312000 30005KT
                       P6SM SCT015 BKN030 FM312200 33005KT P6SM
                       SCT040 FM010300 02004KT P6SM SKC=
201708311601 KSEA 311601Z 3116/0118 VRB04KT 3SM BR OVC004 FM311800 VRB04KT P6SM
                       SCT008 OVC012 FM312000 33006KT P6SM SCT030
                       FM010100 35005KT P6SM FEW250=
201708311437 KSEA 311437Z 3115/0118 VRB04KT 3SM BR OVC004 FM311600 VRB04KT P6SM
                       SCT008 OVC012 FM312000 33006KT P6SM SCT030
                       FM010100 35005KT P6SM FEW250=
201708311308 KSEA 311308Z 3113/0118 VRB04KT P6SM SCT008 OVC017
                      TEMPO 3113/3115 4SM BR BKN004 OVC008 FM312000
                       33006KT P6SM SCT030 FM010100 35005KT P6SM
                       FEW250=
201708311120 TAF KSEA 311120Z 3112/0118 22004KT P6SM SCT008 OVC017
                      TEMPO 3112/3116 OVC008 FM312000 33006KT P6SM
                       SCT030 FM010100 35005KT P6SM FEW250=
201708310900 KSEA 310900Z 3109/0112 16004KT P6SM OVC010
                      TEMPO 3109/3113 5SM -DZ BR FM312100 33006KT
                       P6SM SCT030 FM010100 35005KT P6SM FEW250=
201708310524 TAF KSEA 310524Z 3106/0112 22005KT P6SM BKN070 FM310900 18005KT
                       P6SM SCT012 OVC025
                      TEMPO 3109/3113 5SM -DZ BR BKN012 OVC020
                       FM312100 33006KT P6SM SCT030 FM010100 35005KT
                       P6SM FEW250=
201708310300 KSEA 310300Z 3103/0106 24006KT P6SM FEW030 SCT080 BKN250 FM310800
                       18005KT P6SM SCT012 OVC025
                      TEMPO 3108/3112 5SM -DZ BR BKN012 OVC020
                       FM312100 33006KT P6SM SCT030=
201708310123 KSEA 310123Z 3101/0106 31005KT P6SM FEW030 FEW050 SCT250 FM310500
                       VRB05KT P6SM BKN030 FM310800 18005KT P6SM
                       SCT012 OVC025
                      TEMPO 3108/3112 5SM -DZ BR BKN012 OVC020
                       FM312100 33006KT P6SM SCT030=
201708302320 TAF KSEA 302320Z 3100/0106 28007KT P6SM FEW040 BKN250 FM310500
                       VRB05KT P6SM BKN030 FM310800 18005KT P6SM
                       SCT012 OVC025
                      TEMPO 3108/3112 5SM -DZ BR BKN012 OVC020
                       FM312100 33006KT P6SM SCT030=
201708302101 KSEA 302101Z 3021/3124 28007KT P6SM SCT025 BKN250 FM310300 22008KT
                       P6SM BKN030 FM310800 18005KT P6SM SCT012
                       OVC025
                      TEMPO 3108/3112 5SM -DZ BR BKN012 OVC020=
201708301720 TAF KSEA 301720Z 3018/3124 18008KT P6SM OVC016 FM301900 22008KT
                       P6SM BKN025 FM302100 22008KT P6SM SCT030
                       FM310300 22008KT P6SM BKN030 FM310800 18005KT
                       P6SM SCT012 OVC025
                      TEMPO 3108/3112 5SM -DZ BR BKN012 OVC020=
201708301500 KSEA 301500Z 3015/3118 20008KT P6SM OVC012 FM301700 20008KT P6SM
                       OVC020 FM301900 22008KT P6SM BKN025 FM302100
                       22008KT P6SM SCT030 FM310300 22008KT P6SM
                       BKN030 FM310800 18008KT P6SM SCT012 OVC025
                       TEMPO 3108/3112 5SM -DZ BR BKN012 OVC020=
201708301120 TAF KSEA 301120Z 3012/3118 18010KT P6SM OVC012 FM301700 20008KT
                       P6SM OVC020 FM301900 22008KT P6SM BKN025
                       FM302100 22008KT P6SM SCT030 FM310300 22008KT
                       P6SM BKN030 FM310800 18008KT P6SM SCT012
                       OVC025
                      TEMPO 3108/3112 5SM -DZ BR BKN012 OVC020=
201708301001 KSEA 301001Z 3010/3112 20008KT P6SM OVC012 FM301700 20008KT P6SM
                       OVC020 FM301900 22007KT P6SM BKN025 FM302100
                       22007KT P6SM SCT030 FM310300 22007KT P6SM
                       BKN030 FM310800 18008KT P6SM SCT012 OVC025
                       TEMPO 3108/3112 5SM -DZ BR BKN012 OVC020=
201708300838 KSEA 300838Z 3009/3112 20007KT P6SM BKN012 FM301000 19005KT P6SM
                       BKN007 OVC012 FM301500 20005KT P6SM SCT007
                       OVC012 FM301900 22007KT P6SM SCT015 BKN025
                       FM302100 22007KT P6SM SCT030 FM310300 22007KT
                       P6SM BKN030 FM310800 18008KT P6SM SCT012
                       OVC025
                      TEMPO 3108/3112 5SM -DZ BR BKN012 OVC020=
201708300520 TAF KSEA 300520Z 3006/3112 22010KT P6SM SKC FM301000 19005KT P6SM
                       BKN007 OVC012 FM301500 20005KT P6SM SCT007
                       OVC012 FM301900 22007KT P6SM SCT015 BKN025
                       FM302100 22007KT P6SM SCT030 FM310300 22007KT
                       P6SM BKN030 FM310800 18008KT P6SM SCT012
                       OVC025
                      TEMPO 3108/3112 5SM -DZ BR BKN012 OVC020=
201708300017 TAF KSEA 300017Z 3000/3106 22009KT P6SM SKC FM301000 19005KT P6SM
                       BKN007 OVC012 FM301400 20005KT P6SM SCT007
                       OVC012 FM301800 22007KT P6SM SCT015 BKN025
                       FM302100 27007KT P6SM SCT015 BKN050 FM310300
                       35005KT P6SM BKN050=
201708292102 KSEA 292102Z 2921/3024 19007KT 6SM FU SKC FM300000 24008KT P6SM
                       SKC FM300600 18008KT P6SM FEW007 SCT015
                       FM301000 19005KT P6SM BKN007 OVC012 FM301400
                       20005KT P6SM SCT007 OVC012 FM301800 22007KT
                       P6SM SCT015 BKN025 FM302100 25007KT P6SM
                       SCT015 BKN035=
201708291737 TAF KSEA 291737Z 2918/3024 20008KT 6SM FU SKC FM300000 24008KT
                       P6SM SKC FM300600 18008KT P6SM FEW007 SCT015
                       FM301000 19005KT P6SM BKN007 OVC012 FM301400
                       20005KT P6SM SCT007 OVC012 FM301800 22007KT
                       P6SM SCT015 BKN025 FM302100 25007KT P6SM
                       SCT015 BKN035=
201708291601 KSEA 291601Z 2916/3018 20008KT 6SM FU SKC FM300000 24008KT P6SM
                       SKC FM300600 18010KT P6SM SCT015 FM301100
                       18008KT P6SM OVC015 FM301400 20006KT P6SM
                       SCT007 OVC012=
201708291507 KSEA 291507Z 2915/3018 18006KT P6SM SKC FM292100 24008KT P6SM SKC
                       FM300600 18010KT P6SM SCT015
                      TEMPO 3006/3010 BKN015 FM301000 18008KT P6SM
                       OVC012=
201708291120 TAF KSEA 291120Z 2912/3018 18006KT P6SM SKC FM292100 24008KT P6SM
                       SKC FM300600 18010KT P6SM SCT015
                      TEMPO 3006/3010 BKN015 FM301000 18008KT P6SM
                       OVC012=
201708290520 TAF KSEA 290520Z 2906/3012 00000KT P6SM SKC FM291200 17006KT P6SM
                       SKC FM292100 24008KT P6SM SKC FM300900 18010KT
                       P6SM BKN005=
201708282323 TAF KSEA 282323Z 2900/3006 28008KT P6SM SKC FM290300 VRB03KT P6SM
                       SKC FM290900 17005KT P6SM SKC FM291600 22006KT
                       P6SM SKC FM292200 26007KT P6SM SKC=
201708282101 KSEA 282101Z 2821/2924 28007KT P6SM SKC FM290000 35004KT P6SM SKC
                       FM290300 VRB03KT P6SM SKC FM290900 17005KT
                       P6SM SKC FM291600 20006KT P6SM SKC=
201708281736 TAF KSEA 281736Z 2818/2924 04007KT P6SM FEW150 FM290000 35004KT
                       P6SM SKC FM290300 VRB03KT P6SM SKC FM290900
                       17005KT P6SM SKC FM291600 20006KT P6SM SKC=
201708281507 KSEA 281507Z 2815/2918 04005KT P6SM SCT200 FM290200 VRB04KT P6SM
                       SKC FM291100 18006KT P6SM SKC=
201708281301 KSEA 281301Z 2813/2918 VRB03KT P6SM SCT200 FM290200 VRB04KT P6SM
                       SKC FM291100 18006KT P6SM SKC=
201708281120 TAF KSEA 281120Z 2812/2918 36006KT P6SM SCT200 FM290200 VRB04KT
                       P6SM SKC FM291100 18006KT P6SM SKC=
201708280924 KSEA 280924Z 2809/2912 02006KT P6SM SCT200 FM282000 VRB04KT P6SM
                       SKC FM291000 18006KT P6SM SKC=
201708280520 TAF KSEA 280520Z 2806/2912 36008KT P6SM SCT200 FM282000 VRB04KT
                       P6SM SCT070 BKN200=
201708280303 KSEA 280303Z 2803/2906 36007KT P6SM SCT200 FM282200 VRB04KT P6SM
                       SCT070 BKN200=
201708272320 TAF KSEA 272320Z 2800/2906 36010KT P6SM FEW050 FM280400 02009KT
                       P6SM SCT050 SCT250 FM281200 04006KT P6SM
                       BKN050 BKN250 FM281800 35006KT P6SM BKN070
                       FM282100 30006KT P6SM BKN070 FM290300 VRB03KT
                       P6SM BKN070=
201708272100 KSEA 272100Z 2721/2824 35010KT P6SM SCT050 FM280400 02009KT P6SM
                       SCT050 FM281200 04006KT P6SM BKN050 FM281800
                       35006KT P6SM BKN070 FM282100 30006KT P6SM
                       BKN070=
201708271729 TAF KSEA 271729Z 2718/2824 36013KT P6SM SCT080 FM280400 02009KT
                       P6SM SCT080 FM281200 04006KT P6SM BKN080
                       FM281800 35006KT P6SM BKN080 FM282100 30006KT
                       P6SM BKN080=
201708271431 KSEA 271431Z 2715/2818 01006KT P6SM SCT200 FM271800 35010KT P6SM
                       SCT200 FM280600 06006KT P6SM SKC=
201708271300 KSEA 271300Z 2713/2818 03007KT P6SM SKC FM271800 35010KT P6SM SKC
                       FM280600 06006KT P6SM SKC=
201708271120 TAF KSEA 271120Z 2712/2818 03007KT P6SM SKC FM271800 35010KT P6SM
                       SKC FM280600 06006KT P6SM SKC=
201708270520 TAF KSEA 270520Z 2706/2812 01012KT P6SM SKC FM271200 04007KT P6SM
                       SKC FM271800 35010KT P6SM SKC=
201708262339 TAF KSEA 262339Z 2700/2806 34010KT P6SM SKC FM270300 02010KT P6SM
                       SKC FM271200 04007KT P6SM SKC FM271800 35010KT
                       P6SM SKC=
201708262108 KSEA 262108Z 2621/2724 34010KT P6SM SKC FM270300 02011KT P6SM SKC
                       FM271200 04007KT P6SM SKC FM271800 35012KT
                       P6SM FEW250=
201708261720 TAF KSEA 261720Z 2618/2724 01010KT P6SM SKC FM262000 34013KT P6SM
                       SKC FM270300 02011KT P6SM SKC FM271200 04007KT
                       P6SM SKC FM271800 35012KT P6SM FEW250=
201708261511 KSEA 261511Z 2615/2718 02009KT P6SM SKC FM262000 34013KT P6SM SKC
                       FM270300 02009KT P6SM SKC=
201708261335 KSEA 261335Z 2614/2718 02008KT P6SM SKC FM262000 34010KT P6SM SKC
                       FM270600 04008KT P6SM SKC=
201708261120 TAF KSEA 261120Z 2612/2718 02008KT P6SM SKC FM262000 34010KT P6SM
                       SKC FM270600 04008KT P6SM SKC=
201708260520 TAF KSEA 260520Z 2606/2712 36008KT P6SM SKC=
201708252326 TAF KSEA 252326Z 2600/2706 34009KT P6SM SCT250 FM260200 01007KT
                       P6SM FEW250 FM260900 03004KT P6SM SKC FM261900
                       34011KT P6SM SKC FM270300 01011KT P6SM SKC=
201708252100 KSEA 252100Z 2521/2624 32009KT P6SM SCT250 FM260200 01007KT P6SM
                       SCT250 FM260900 03004KT P6SM SCT250 FM261900
                       35011KT P6SM SCT250=
201708251721 TAF KSEA 251721Z 2518/2624 02006KT P6SM SCT150 BKN250 FM252000
                       33007KT P6SM SCT250 FM260200 01007KT P6SM
                       SCT250 FM260900 03004KT P6SM SCT250 FM261900
                       35011KT P6SM SCT250=
201708251306 KSEA 251306Z 2513/2618 03006KT P6SM BKN200 FM251800 33007KT P6SM
                       BKN200 FM260400 02005KT P6SM SKC=
201708251120 TAF KSEA 251120Z 2512/2618 04006KT P6SM SCT200 FM251800 33007KT
                       P6SM BKN200 FM260400 02005KT P6SM SKC=
201708250520 TAF KSEA 250520Z 2506/2612 04006KT P6SM SKC FM251200 VRB03KT P6SM
                       SCT040 FM251800 30005KT P6SM BKN200=
201708250307 KSEA 250307Z 2503/2606 32005KT P6SM FEW050 SCT200 FM250600 04005KT
                       P6SM SCT200 FM251200 VRB03KT P6SM BKN040
                       FM251800 30005KT P6SM SCT040 SCT250=
201708242320 TAF KSEA 242320Z 2500/2606 30005KT P6SM SCT050 BKN200 FM250100
                       35006KT P6SM SCT200 FM250500 04007KT P6SM
                       SCT200 FM251200 VRB03KT P6SM BKN040 FM251800
                       30005KT P6SM SCT040 BKN250=
201708242102 KSEA 242102Z 2421/2524 35005KT P6SM SCT040 BKN200 FM250000 35006KT
                       P6SM SCT200 FM250400 04007KT P6SM SCT200
                       FM251200 VRB03KT P6SM BKN040=
201708241720 TAF KSEA 241720Z 2418/2524 04008KT P6SM SCT025 BKN040 FM241900
                       31007KT P6SM SCT040 BKN200 FM250000 35006KT
                       P6SM SCT200 FM250400 04007KT P6SM SCT200
                       FM251200 VRB03KT P6SM BKN040=
201708241501 KSEA 241501Z 2415/2518 04008KT P6SM SCT020 OVC030 FM241800 31006KT
                       P6SM SCT030 BKN200 FM241900 33008KT P6SM
                       SCT040 BKN200 FM250000 36008KT P6SM BKN200
                       FM250400 04007KT P6SM SCT200=
201708241337 KSEA 241337Z 2414/2518 04008KT P6SM OVC022 FM241800 31006KT P6SM
                       BKN025 BKN200 FM241900 33008KT P6SM SCT030
                       BKN200 FM250000 36008KT P6SM BKN200 FM250400
                       04007KT P6SM SCT200=
201708241128 TAF KSEA 241128Z 2412/2518 04008KT P6SM OVC014 FM241700 31006KT
                       P6SM BKN022 BKN200 FM241800 33008KT P6SM
                       SCT030 BKN200 FM250000 36008KT P6SM BKN200
                       FM250400 04007KT P6SM SCT200=
201708240903 KSEA 240903Z 2409/2512 04006KT P6SM OVC017 FM241700 28006KT P6SM
                       BKN020 BKN200 FM241800 31008KT P6SM SCT030
                       BKN200 FM250000 36008KT P6SM BKN200 FM250400
                       04006KT P6SM SCT200=
201708240705 KSEA 240705Z 2407/2512 30006KT P6SM BKN015 OVC100 FM241000 VRB04KT
                       P6SM OVC013 FM241900 21006KT P6SM SCT035
                       BKN200 FM242300 36008KT P6SM BKN200=
201708240520 TAF KSEA 240520Z 2406/2512 36006KT P6SM SCT100 BKN200 FM241000
                       VRB04KT P6SM OVC014 FM241900 21006KT P6SM
                       SCT035 BKN200 FM242300 36008KT P6SM BKN200=
201708240302 KSEA 240302Z 2403/2506 36006KT P6SM FEW030 SCT100 BKN200 FM241000
                       21006KT P6SM OVC014 FM241900 23007KT P6SM
                       SCT035 BKN200 FM242300 31007KT P6SM BKN200=
201708240111 KSEA 240111Z 2401/2506 36006KT P6SM FEW030 SCT100 BKN240 FM241000
                       21006KT P6SM OVC014 FM241900 23007KT P6SM
                       SCT035 BKN120 FM242300 31007KT P6SM SCT250=
201708232320 TAF KSEA 232320Z 2400/2506 28004KT P6SM FEW030 SCT100 BKN250
                      TEMPO 2400/2403 31006KT FM240400 21009KT
                       P6SM SCT030 BKN080 BKN250 FM241000 20009KT
                       P6SM OVC014 FM241900 23007KT P6SM SCT035
                       BKN120 FM242300 31007KT P6SM SCT250=
201708232105 KSEA 232105Z 2321/2424 27007KT P6SM SCT023 BKN250
                      TEMPO 2323/2403 31006KT FM240400 21009KT
                       P6SM SCT030 BKN120 BKN250 FM241000 20009KT
                       P6SM OVC014 FM241900 23007KT P6SM SCT035
                       BKN120=
201708231730 TAF KSEA 231730Z 2318/2424 22006KT P6SM BKN014 FM231900 24007KT
                       P6SM SCT018 BKN250 FM240000 31006KT P6SM
                       SCT030 BKN250 FM241000 20009KT P6SM OVC014
                       FM241900 23007KT P6SM SCT035 BKN120=
201708231505 KSEA 231505Z 2315/2418 14004KT P6SM FEW007 OVC011 FM231800 22006KT
                       P6SM BKN014 FM231900 22007KT P6SM SCT018
                       BKN250 FM232200 33006KT P6SM SCT018 BKN250
                       FM240900 20006KT P6SM OVC020=
201708231131 TAF KSEA 231131Z 2312/2418 18006KT P6SM OVC009 FM231700 20006KT
                       P6SM OVC012 FM231800 22006KT P6SM SCT018
                       BKN025 FM231900 22007KT P6SM BKN035 BKN250
                       FM232200 33006KT P6SM SCT035 BKN250 FM240900
                       20006KT P6SM OVC020=
201708230900 KSEA 230900Z 2309/2412 22006KT P6SM SCT250 FM231100 21006KT P6SM
                       OVC012 FM231800 22006KT P6SM SCT018 BKN025
                       FM231900 22007KT P6SM BKN035 FM232100 25007KT
                       P6SM SCT035 BKN250 FM240800 23006KT P6SM
                       SCT020 BKN250=
201708230520 TAF KSEA 230520Z 2306/2412 22006KT P6SM SCT250 FM231100 21006KT
                       P6SM OVC012 FM231800 22006KT P6SM SCT018
                       BKN025 FM231900 22007KT P6SM BKN035 FM232100
                       25007KT P6SM SCT035 BKN250 FM240800 23006KT
                       P6SM SCT020 BKN250=
201708230310 KSEA 230310Z 2303/2406 26005KT P6SM SKC FM230500 23005KT P6SM SCT250
                       FM231200 20006KT P6SM OVC011 FM231800 22006KT
                       P6SM SCT018 BKN030 FM232100 25007KT P6SM
                       SCT035 BKN250=
201708222330 TAF KSEA 222330Z 2300/2406 24006KT P6SM SKC
                      TEMPO 2300/2303 30006KT FM230500 20006KT
                       P6SM SCT250 FM231200 20006KT P6SM OVC011
                       FM231800 22006KT P6SM SCT018 BKN030 FM232100
                       25007KT P6SM SCT035 BKN250=
201708221725 TAF KSEA 221725Z 2218/2324 27004KT P6SM SKC FM222300 29008KT P6SM
                       SCT250 FM230700 20006KT P6SM SCT250 FM231200
                       20006KT P6SM OVC011 FM231800 22006KT P6SM
                       SCT018 BKN035=
201708221500 KSEA 221500Z 2215/2318 VRB03KT P6SM SKC FM221900 24006KT P6SM SKC
                       FM222300 29008KT P6SM SCT250 FM230700 20006KT
                       P6SM SCT250 FM231200 20006KT P6SM OVC015=
201708221302 KSEA 221302Z 2213/2318 VRB03KT P6SM SKC FM221900 24006KT P6SM SKC
                       FM222300 29008KT P6SM SCT250 FM230700 20006KT
                       P6SM BKN200 FM231200 20006KT P6SM BKN020
                       FM231400 20006KT P6SM OVC015=
201708221120 TAF KSEA 221120Z 2212/2318 VRB03KT P6SM SKC FM221900 24006KT P6SM
                       SKC FM222300 29008KT P6SM SCT250 FM230700
                       20006KT P6SM BKN200 FM231200 20006KT P6SM
                       BKN020 FM231400 20006KT P6SM OVC015=
201708220901 KSEA 220901Z 2209/2312 01006KT P6SM SKC FM221200 VRB03KT P6SM SKC
                       FM221900 24006KT P6SM SKC FM222200 29008KT
                       P6SM SCT250 FM230700 20006KT P6SM SCT250=
201708220539 TAF KSEA 220539Z 2206/2312 01006KT P6SM SKC FM221200 VRB03KT P6SM
                       SKC FM221900 24006KT P6SM SKC FM222200 29008KT
                       P6SM SCT250 FM230700 20006KT P6SM SCT250=
201708220305 KSEA 220305Z 2203/2306 34009KT P6SM SKC FM220400 01006KT P6SM SKC
                       FM221200 19004KT P6SM SKC FM222000 29008KT
                       P6SM SKC=
201708212320 TAF KSEA 212320Z 2200/2306 34009KT P6SM SKC FM220400 01006KT P6SM
                       SKC FM221200 19004KT P6SM SKC FM222000 29008KT
                       P6SM SKC=
201708212105 KSEA 212105Z 2121/2224 34010KT P6SM FEW250 FM220400 01006KT P6SM
                       SKC FM221200 19004KT P6SM SKC FM222000 29008KT
                       P6SM SKC=
201708211720 TAF KSEA 211720Z 2118/2224 30004KT P6SM SKC FM220400 01008KT P6SM
                       SKC FM221200 23004KT P6SM SKC=
201708211503 KSEA 211503Z 2115/2218 36008KT P6SM FEW250 FM211600 33008KT P6SM
                       SKC FM220400 01008KT P6SM SKC FM221200 23004KT
                       P6SM SKC=
201708211259 KSEA 211259Z 2113/2218 03004KT P6SM SCT004 FM211600 33008KT P6SM
                       SKC FM220400 01008KT P6SM SKC FM221200 23004KT
                       P6SM SKC=
201708210906 KSEA 210906Z 2109/2212 02006KT P6SM SCT200 FM211300 03004KT P6SM
                       SCT004 FM211600 33008KT P6SM SKC FM220400
                       01008KT P6SM SKC=
201708210521 TAF KSEA 210521Z 2106/2212 02006KT P6SM SCT200 FM211300 03004KT
                       P6SM SCT004 FM211600 33008KT P6SM SKC FM220400
                       01008KT P6SM SKC=
201708210301 KSEA 210301Z 2103/2206 02008KT P6SM SCT200 FM210500 02006KT P6SM
                       SCT200 FM211300 03004KT P6SM SCT004 FM211600
                       33008KT P6SM SKC=
201708202335 TAF KSEA 202335Z 2100/2206 02008KT P6SM SCT250 FM210500 02006KT
                       P6SM SCT250 FM211300 03004KT P6SM SCT003
                       TEMPO 2114/2116 BKN003 FM211600 33008KT
                       P6SM SKC=
201708202104 KSEA 202104Z 2021/2124 30007KT P6SM FEW120 BKN250 FM210500 02006KT
                       P6SM SCT250 FM211300 03004KT P6SM SCT003
                       FM211600 33008KT P6SM SKC=
201708201725 TAF KSEA 201725Z 2018/2124 00000KT P6SM SCT250 FM201900 32008KT
                       P6SM SCT250 FM210500 02006KT P6SM SCT250
                       FM211300 03004KT P6SM SCT003 FM211600 33008KT
                       P6SM SKC=
201708201508 KSEA 201508Z 2015/2118 04006KT P6SM FEW100 BKN250 FM201900 32008KT
                       P6SM SCT250 FM210500 02008KT P6SM SCT250=
201708201124 TAF KSEA 201124Z 2012/2118 02008KT P6SM SCT250 FM201900 32008KT
                       P6SM SCT250 FM210500 02008KT P6SM SCT250=
201708200908 KSEA 200908Z 2009/2112 02008KT P6SM SCT250 FM201900 32008KT P6SM
                       SCT250 FM210500 02008KT P6SM SCT250=
201708200536 TAF KSEA 200536Z 2006/2112 02008KT P6SM SCT250 FM201900 32008KT
                       P6SM SCT250 FM210500 02008KT P6SM SCT250=
201708200320 KSEA 200320Z 2003/2106 01006KT P6SM SCT250 FM202000 32008KT P6SM
                       SCT250=
201708192320 TAF KSEA 192320Z 2000/2106 30009KT P6SM FEW030 SCT250 FM200400
                       01006KT P6SM SCT250 FM202000 32008KT P6SM
                       SCT250=
201708192101 KSEA 192101Z 1921/2024 VRB04KT P6SM FEW030 FEW210 FM200400 01006KT
                       P6SM SCT250 FM201900 32006KT P6SM SCT250=
201708191730 TAF KSEA 191730Z 1918/2024 01008KT P6SM FEW020 FM192000 32008KT
                       P6SM SCT040 SCT250 FM200400 01006KT P6SM
                       SCT250 FM201900 32006KT P6SM SCT250=
201708191514 KSEA 191514Z 1915/2018 05009KT P6SM SCT014 BKN060 FM191600 36009KT
                       P6SM SCT045 SCT250 FM192000 32008KT P6SM
                       SCT045 SCT250 FM200400 01006KT P6SM SCT250=
201708191505 KSEA 191505Z 1915/2018 05009KT P6SM SCT014 BKN060 FM191600 36006KT
                       P6SM SCT045 SCT250 FM192000 32008KT P6SM
                       SCT045 SCT250 FM200400 01006KT P6SM SCT250=
201708191306 KSEA 191306Z 1913/2018 36007KT P6SM SCT025 BKN045 FM191600 36006KT
                       P6SM SCT045 SCT250 FM192000 32008KT P6SM
                       SCT045 SCT250 FM200400 01006KT P6SM SCT250=
201708191125 TAF KSEA 191125Z 1912/2018 02008KT P6SM BKN025 BKN045 FM191400
                       36006KT P6SM SCT025 BKN045 FM191600 36006KT
                       P6SM SCT045 SCT250 FM192000 32008KT P6SM
                       SCT045 SCT250 FM200400 01006KT P6SM SCT250=
201708190918 KSEA 190918Z 1909/2012 02008KT P6SM BKN035 BKN060 FM191300 01004KT
                       P6SM OVC011 FM191800 32005KT P6SM SCT035
                       SCT250=
201708190525 TAF KSEA 190525Z 1906/2012 02008KT P6SM BKN035 BKN060 FM191300
                       01004KT P6SM OVC011 FM191800 32005KT P6SM
                       SCT035 SCT250=
201708190314 KSEA 190314Z 1903/2006 31006KT P6SM SCT030 BKN060 FM191100 01004KT
                       P6SM OVC011 FM191800 32005KT P6SM SCT035
                       SCT250=
201708182340 TAF KSEA 182340Z 1900/2006 20010KT P6SM SCT030 SCT250
                      TEMPO 1900/1904 29008KT BKN030 BKN070 FM190400
                       33010KT P6SM BKN035 FM191100 01004KT P6SM
                       OVC011 FM191800 32005KT P6SM SCT035 SCT250=
201708182102 KSEA 182102Z 1821/1924 19006KT P6SM FEW020 FEW040 SCT250 FM182200
                       29008KT P6SM SCT045 BKN070 FM190600 02011KT
                       P6SM BKN030 OVC070 FM191100 35006KT P6SM
                       OVC011 FM191700 35006KT P6SM SCT025=
201708181722 TAF KSEA 181722Z 1818/1924 27005KT P6SM FEW012 SCT045 BKN250
                      TEMPO 1818/1821 BKN045 BKN250 FM182100 29008KT
                       P6SM SCT045 BKN070 FM190600 02011KT P6SM
                       BKN030 OVC070 FM191100 35006KT P6SM OVC011
                       FM191700 35006KT P6SM SCT025=
201708181500 KSEA 181500Z 1815/1918 24003KT P6SM FEW009 FEW040 BKN250 FM181600
                       19006KT P6SM BKN040 BKN250
                      TEMPO 1816/1820 SCT040 BKN250 FM182100 22006KT
                       P6SM SCT040 BKN070 FM190100 29006KT P6SM
                       BKN040 BKN070 FM191100 35006KT P6SM OVC011
                       FM191700 35006KT P6SM SCT025=
201708181128 TAF KSEA 181128Z 1812/1918 VRB03KT P6SM SCT250 FM181600 19006KT
                       P6SM BKN040 BKN250 FM182100 22006KT P6SM
                       BKN040 BKN070 FM190100 29006KT P6SM BKN040
                       BKN070 FM191100 35006KT P6SM OVC011 FM191700
                       35006KT P6SM SCT025=
201708180901 KSEA 180901Z 1809/1912 VRB03KT P6SM SCT250 FM181500 19006KT P6SM
                       BKN040 BKN250 FM182100 22006KT P6SM BKN040
                       BKN070 FM190100 29006KT P6SM BKN040 BKN070
                       FM190900 35006KT P6SM BKN015 OVC030=
201708180539 TAF KSEA 180539Z 1806/1912 34006KT P6SM SCT250 FM181000 VRB03KT
                       P6SM SCT250 FM181500 19006KT P6SM BKN040
                       BKN250 FM182100 22006KT P6SM BKN040 BKN070
                       FM190100 29006KT P6SM BKN040 BKN070 FM190900
                       35006KT P6SM BKN015 OVC030=
201708180319 KSEA 180319Z 1803/1906 29005KT P6SM SCT250 FM180600 02004KT P6SM
                       BKN250 FM181000 19005KT P6SM OVC022 FM182100
                       22007KT P6SM BKN035 BKN050 FM190000 26007KT
                       P6SM BKN035 BKN050=
201708172342 TAF KSEA 172342Z 1800/1906 25005KT P6SM FEW035 FM180300 29005KT
                       P6SM SCT250 FM180600 02004KT P6SM BKN250
                       FM181000 19005KT P6SM OVC022 FM182100 22007KT
                       P6SM BKN035 BKN050 FM190000 26007KT P6SM
                       BKN035 BKN050=
201708172055 KSEA 172055Z 1721/1824 25006KT P6SM SCT030 FM172200 28006KT P6SM
                       SCT035 FM180000 31006KT P6SM SCT250 FM180600
                       04004KT P6SM BKN250 FM181000 19005KT P6SM
                       OVC022 FM182100 24007KT P6SM BKN035 BKN050=
201708172004 KSEA 172004Z 1720/1824 25006KT P6SM SCT020 BKN030 FM172200 28006KT
                       P6SM SCT035 FM180000 31006KT P6SM SCT250
                       FM180600 04004KT P6SM BKN250 FM181000 19005KT
                       P6SM OVC022 FM182100 24007KT P6SM BKN035
                       BKN050=
201708171738 TAF KSEA 171738Z 1718/1824 25005KT P6SM FEW007 BKN018 OVC035 FM172000
                       28006KT P6SM SCT035 FM180000 31006KT P6SM
                       SCT250 FM180600 04004KT P6SM BKN250 FM181000
                       19005KT P6SM OVC022 FM182100 24007KT P6SM
                       BKN035 BKN050=
201708171508 KSEA 171508Z 1715/1818 24005KT P6SM SCT015 OVC030
                      TEMPO 1715/1718 BKN015 OVC030 FM172000 28005KT
                       P6SM FEW035 SCT250 FM172200 34007KT P6SM
                       SCT250 FM181200 21004KT P6SM BKN025=
201708171126 TAF KSEA 171126Z 1712/1818 20006KT P6SM OVC011 FM171800 VRB03KT
                       P6SM SCT011 OVC022 FM172000 VRB03KT P6SM
                       SCT250 FM172200 34007KT P6SM SCT250 FM181200
                       21004KT P6SM BKN025=
201708170902 KSEA 170902Z 1709/1812 21004KT P6SM OVC018 FM171100 VRB03KT P6SM
                       OVC011 FM171900 VRB03KT P6SM BKN018 FM172000
                       VRB03KT P6SM SCT250 FM172200 34007KT P6SM
                       SCT250=
201708170540 TAF KSEA 170540Z 1706/1812 29006KT P6SM BKN050 FM171100 VRB03KT
                       P6SM OVC011 FM171900 VRB03KT P6SM BKN018
                       FM172000 VRB03KT P6SM SCT250 FM172200 34007KT
                       P6SM SCT250=
201708162321 TAF KSEA 162321Z 1700/1806 29007KT P6SM SCT050 FM170300 32008KT
                       P6SM BKN050 FM170600 01006KT P6SM FEW022
                       BKN050 FM170900 VRB03KT P6SM OVC012 FM171900
                       28006KT P6SM SCT250 FM172000 32007KT P6SM
                       SCT250=
201708162108 KSEA 162108Z 1621/1724 27007KT P6SM FEW050 SCT080 FM170000 29007KT
                       P6SM SCT050 SCT080 FM170300 32008KT P6SM
                       BKN050 FM170600 01006KT P6SM FEW022 BKN050
                       FM170900 VRB03KT P6SM OVC012 FM172000 26006KT
                       P6SM FEW030=
201708161742 TAF KSEA 161742Z 1618/1724 24008KT P6SM FEW050 BKN100 FM170000
                       28007KT P6SM SCT050 BKN100 FM170300 32008KT
                       P6SM BKN050 FM170600 01006KT P6SM FEW022
                       BKN050 FM170900 VRB03KT P6SM OVC012 FM172000
                       26006KT P6SM FEW030=
201708161434 KSEA 161434Z 1615/1718 16005KT P6SM SCT250 FM161800 24006KT P6SM
                       SCT250 FM170000 27006KT P6SM SCT050 BKN250
                       FM170200 34005KT P6SM BKN050 BKN250 FM170900
                       17004KT P6SM OVC025 FM171700 17005KT P6SM
                       BKN035=
201708161120 TAF KSEA 161120Z 1612/1718 03006KT P6SM SCT250 FM161300 09006KT
                       P6SM SCT250 FM161600 17005KT P6SM SCT250
                       FM161800 24006KT P6SM SCT250 FM170000 27006KT
                       P6SM SCT050 BKN250 FM170200 34005KT P6SM
                       BKN050 BKN250 FM170900 17004KT P6SM OVC025
                       FM171700 17005KT P6SM BKN035=
201708160906 KSEA 160906Z 1609/1712 03008KT P6SM SCT250 FM161300 09006KT P6SM
                       SCT250 FM161600 17005KT P6SM SCT250 FM161800
                       24006KT P6SM SCT050 BKN250 FM170000 27006KT
                       P6SM BKN050 BKN250 FM170300 34005KT P6SM
                       BKN050 BKN250 FM170900 17004KT P6SM SCT020
                       OVC030=
201708160520 TAF KSEA 160520Z 1606/1712 33006KT P6SM SCT250 FM160800 02005KT
                       P6SM SCT250 FM161100 17004KT P6SM SCT250
                       FM161600 19004KT P6SM BKN250 FM161800 24006KT
                       P6SM SCT050 BKN250 FM170000 27006KT P6SM
                       BKN050 BKN250 FM170300 34005KT P6SM BKN050
                       BKN250 FM170900 17004KT P6SM SCT020 OVC030=
201708160312 KSEA 160312Z 1603/1706 35006KT P6SM FEW050 SCT250 FM160500 03004KT
                       P6SM SCT250 FM161200 17004KT P6SM SCT250
                       FM161600 19004KT P6SM BKN250 FM161800 24006KT
                       P6SM SCT050 BKN250 FM170000 30006KT P6SM
                       BKN050 BKN250 FM170300 34005KT P6SM BKN050
                       BKN250=
201708152341 TAF KSEA 152341Z 1600/1706 30008KT P6SM SCT250 FM160400 02004KT
                       P6SM SKC FM161200 17004KT P6SM VCFG SCT006
                       SCT250 FM161600 19004KT P6SM VCFG SCT009
                       BKN250 FM161800 24006KT P6SM FEW050 SCT100
                       BKN250 FM170000 29006KT P6SM SCT050 BKN250=
201708152108 KSEA 152108Z 1521/1624 32008KT P6SM FEW040 SCT250 FM160400 02004KT
                       P6SM SCT250 FM161200 17004KT P6SM VCFG SCT006
                       SCT250 FM161600 19004KT P6SM VCFG SCT009
                       SCT090 BKN250 FM161800 24007KT P6SM SCT090
                       BKN250=
201708151740 TAF KSEA 151740Z 1518/1624 32008KT P6SM SCT250 FM160400 02004KT
                       P6SM SCT250 FM161200 17004KT P6SM VCFG SCT006
                       SCT250 FM161600 19004KT P6SM VCFG SCT009
                       SCT090 BKN250 FM161800 24007KT P6SM SCT090
                       BKN250=
201708151502 KSEA 151502Z 1515/1618 03005KT P6SM FEW120 FM151800 31007KT P6SM
                       SCT150 FM160400 02005KT P6SM FEW060 SCT120=
201708151120 TAF KSEA 151120Z 1512/1618 02005KT P6SM SCT200 FM151800 31007KT
                       P6SM SCT150 FM160400 02005KT P6SM FEW060
                       SCT120=
201708150900 KSEA 150900Z 1509/1612 02005KT P6SM BKN250 FM151800 31007KT P6SM
                       SCT150 FM160400 02005KT P6SM SCT150=
201708150520 TAF KSEA 150520Z 1506/1612 02005KT P6SM FEW040 BKN250 FM151800
                       31007KT P6SM SCT150 FM160400 02005KT P6SM
                       SCT150=
201708150308 KSEA 150308Z 1503/1606 35007KT P6SM FEW040 BKN250 FM150600 02005KT
                       P6SM FEW040 BKN250 FM151800 31007KT P6SM
                       SCT250 FM160300 02005KT P6SM SCT250=
201708142328 TAF KSEA 142328Z 1500/1606 28007KT P6SM FEW040 BKN250 FM150300
                       33004KT P6SM BKN250 FM150600 02004KT P6SM
                       BKN250 FM151800 32008KT P6SM SCT250 FM160300
                       02005KT P6SM SCT250=
201708142102 KSEA 142102Z 1421/1524 31007KT P6SM FEW040 BKN250 FM150300 36005KT
                       P6SM BKN250 FM150600 03004KT P6SM SCT250
                       FM151800 31007KT P6SM SCT250=
201708141734 TAF KSEA 141734Z 1418/1524 28005KT P6SM FEW028 SCT050 OVC250 FM142000
                       32006KT P6SM SCT050 BKN250 FM150300 36005KT
                       P6SM BKN250 FM150600 03004KT P6SM SCT250
                       FM151800 31007KT P6SM SCT250=
201708141611 KSEA 141611Z 1416/1518 04005KT P6SM FEW035 BKN050 BKN250 FM141800
                       33006KT P6SM SCT050 BKN250 FM150000 33006KT
                       P6SM BKN200 FM150400 03004KT P6SM SCT200=
201708141504 KSEA 141504Z 1415/1518 05006KT P6SM BKN035 BKN130 BKN250 FM141800
                       31006KT P6SM SCT040 BKN200 FM150000 33006KT
                       P6SM BKN200 FM150400 03004KT P6SM SCT200=
201708141300 KSEA 141300Z 1413/1518 VRB04KT P6SM BKN030 FM141800 31006KT P6SM
                       SCT040 BKN200 FM150000 33006KT P6SM BKN200
                       FM150400 03004KT P6SM SCT200=
201708141120 TAF KSEA 141120Z 1412/1518 VRB04KT P6SM FEW030 BKN040 FM141800
                       31006KT P6SM SCT040 BKN200 FM150000 33006KT
                       P6SM BKN200 FM150400 03004KT P6SM SCT200=
201708140912 KSEA 140912Z 1409/1512 05008KT P6SM BKN040 FM141200 VRB04KT P6SM
                       SCT025 BKN035 FM141900 30006KT P6SM FEW040
                       SCT200 FM150000 36005KT P6SM SCT200 FM150600
                       03004KT P6SM BKN200=
201708140528 TAF KSEA 140528Z 1406/1512 04010KT P6SM BKN050 FM141000 07005KT
                       P6SM SCT025 BKN050 FM141200 VRB04KT P6SM
                       SCT025 SCT050
                      TEMPO 1412/1416 BKN025 FM141900 30006KT P6SM
                       FEW040 SCT200 FM150000 36005KT P6SM SCT200
                       FM150600 03004KT P6SM BKN200=
201708140223 KSEA 140223Z 1402/1506 02014KT P6SM BKN050 FM140400 04008KT P6SM
                       BKN050 FM140900 07005KT P6SM SCT020 BKN050
                       FM141200 VRB04KT P6SM BKN020 BKN050 FM141700
                       26006KT P6SM FEW040 BKN200=
201708132320 TAF KSEA 132320Z 1400/1506 28007KT P6SM BKN050 FM140200 35005KT
                       P6SM BKN050 FM140400 04005KT P6SM BKN050
                       FM141200 VRB04KT P6SM BKN020 BKN050 FM141700
                       26006KT P6SM FEW040 BKN200=
201708132109 KSEA 132109Z 1321/1424 25007KT P6SM SCT045 FM140100 35005KT P6SM
                       SCT050 FM140300 04005KT P6SM BKN050 FM141200
                       VRB03KT P6SM OVC020 FM141700 26006KT P6SM
                       FEW025 BKN200=
201708131935 KSEA 131935Z 1320/1424 25006KT P6SM BKN045 FM140000 35005KT P6SM
                       SCT030 BKN050 FM140200 04006KT P6SM BKN050
                       FM140600 02005KT P6SM BKN050 FM141200 VRB03KT
                       P6SM OVC015=
201708131742 TAF KSEA 131742Z 1318/1424 22010KT P6SM SCT015 BKN030
                      TEMPO 1318/1320 BKN015 OVC030 FM132000 23011KT
                       P6SM VCSH SCT020 BKN035 FM132200 35006KT
                       P6SM -SHRA BKN025 OVC050 FM140200 04006KT
                       P6SM SCT030 BKN050 FM140600 02005KT P6SM
                       BKN050 FM141200 VRB03KT P6SM OVC015=
201708131424 KSEA 131424Z 1314/1418 19010KT P6SM VCSH BKN005 OVC015 FM131600
                       21009KT P6SM VCSH BKN015 OVC030 FM131800
                       21009KT P6SM SCT015 BKN030 FM132000 23011KT
                       P6SM -SHRA BKN035 BKN050 FM132200 35008KT
                       P6SM -SHRA BKN030 OVC050 FM140200 04006KT
                       P6SM BKN030 BKN050 FM140600 VRB04KT P6SM
                       BKN030 FM141200 VRB04KT P6SM OVC025=
201708131137 TAF KSEA 131137Z 1312/1418 19008KT P6SM VCSH SCT015 OVC030
                      TEMPO 1312/1314 BKN015 OVC030 FM131400 20007KT
                       P6SM OVC015 FM131800 21008KT P6SM BKN030
                       FM132000 23011KT P6SM -SHRA BKN035 BKN050
                       FM132200 35008KT P6SM -SHRA BKN030 OVC050
                       FM140200 04006KT P6SM BKN030 BKN050 FM140600
                       VRB04KT P6SM BKN030 FM141200 VRB04KT P6SM
                       OVC025=
201708130905 KSEA 130905Z 1309/1412 18008KT P6SM SCT015 OVC035
                      TEMPO 1309/1312 -RA BKN015 OVC025 FM131200
                       19008KT P6SM VCSH BKN015 OVC030 FM132100
                       22012KT P6SM BKN035 BKN050 FM132200 36008KT
                       P6SM -SHRA BKN030 OVC050 FM140200 04006KT
                       P6SM BKN030 BKN050 FM140600 VRB04KT P6SM
                       OVC030=
201708130610 KSEA 130610Z 1306/1412 20008KT P6SM SCT015 OVC035
                      TEMPO 1306/1309 -RA BKN015 OVC035 FM130900
                       20008KT P6SM -RA BKN015 OVC035 FM131200
                       19010KT P6SM VCSH BKN015 OVC030 FM132100
                       22012KT P6SM BKN035 BKN050 FM132300 36008KT
                       P6SM -SHRA BKN030 OVC050 FM140200 04006KT
                       P6SM BKN030 BKN050 FM140600 VRB04KT P6SM
                       OVC030=
201708130539 TAF KSEA 130539Z 1306/1412 20010KT P6SM -RA SCT035 OVC080 FM130700
                       20010KT P6SM -RA OVC035 FM131200 19010KT
                       P6SM VCSH BKN015 OVC030 FM132100 22012KT
                       P6SM BKN035 BKN050 FM132300 36008KT P6SM
                       -SHRA BKN030 OVC050 FM140200 04006KT P6SM
                       BKN030 BKN050 FM140600 VRB04KT P6SM OVC030=
201708130317 KSEA 130317Z 1303/1406 23010KT P6SM SCT100 BKN150 FM130600 21008KT
                       P6SM -RA BKN035 OVC100 FM130900 19008KT
                       P6SM -RA OVC025 FM131200 19010KT P6SM VCSH
                       BKN015 OVC030 FM132100 22012KT P6SM BKN030
                       BKN050=
201708122329 TAF KSEA 122329Z 1300/1406 23007KT P6SM SCT150 FM130200 23008KT
                       P6SM OVC150 FM130600 19007KT P6SM -RA BKN020
                       OVC050 FM130800 19008KT P6SM -RA OVC015
                       FM131200 19010KT P6SM VCSH BKN015 OVC030
                       FM132100 22012KT P6SM BKN030 BKN050=
201708122113 KSEA 122113Z 1221/1324 22008KT P6SM FEW120 FM130000 23007KT P6SM
                       BKN150 FM130500 19007KT P6SM BKN020 OVC050
                       FM130800 19008KT P6SM -RA OVC015 FM131200
                       19010KT P6SM VCSH BKN010 OVC030=
201708121732 TAF KSEA 121732Z 1218/1324 21008KT P6SM BKN012 BKN120 FM122000
                       22008KT P6SM SCT018 SCT120 FM122200 23008KT
                       P6SM SCT120 FM130500 19007KT P6SM BKN020
                       OVC050 FM130800 19008KT P6SM -RA OVC015
                       FM131200 19010KT P6SM VCSH BKN020 OVC040=
201708121431 KSEA 121431Z 1215/1318 22007KT P6SM BKN006 OVC012 FM121800 22007KT
                       P6SM BKN012 BKN100 FM122000 23008KT P6SM
                       SCT100 FM130600 19006KT P6SM BKN025 BKN120
                       BKN200 FM130900 19006KT P6SM -RA OVC025
                       FM131600 21008KT P6SM -SHRA BKN025 BKN040=
201708121136 TAF KSEA 121136Z 1212/1318 22007KT P6SM OVC007 FM121800 21006KT
                       P6SM OVC012 FM122000 23008KT P6SM SCT020
                       SCT150 FM130600 19006KT P6SM BKN025 BKN120
                       BKN200 FM130900 19006KT P6SM -RA OVC025
                       FM131600 21008KT P6SM -SHRA BKN025 BKN040=
201708121023 KSEA 121023Z 1210/1312 18007KT P6SM OVC007 FM121800 21006KT P6SM
                       OVC012 FM122000 23008KT P6SM SCT020 BKN120
                       FM130600 19006KT P6SM BKN025 BKN120 BKN200
                       FM131000 19006KT P6SM -RA OVC022=
201708120520 TAF KSEA 120520Z 1206/1312 21007KT P6SM SCT150 BKN200 FM121100
                       20005KT 5SM BR OVC008 FM121800 21006KT P6SM
                       OVC012 FM122000 23008KT P6SM SCT020 BKN120
                       FM130600 19006KT P6SM BKN025 BKN120 BKN200
                       FM131000 19006KT P6SM -RA OVC022=
201708120333 KSEA 120333Z 1204/1306 20006KT P6SM SCT150 BKN200 FM121200 20005KT
                       P6SM OVC008 FM121700 21007KT P6SM OVC012
                       FM122000 23008KT P6SM SCT015 BKN140=
201708112325 TAF KSEA 112325Z 1200/1306 20007KT P6SM FEW150 FM120500 21005KT
                       P6SM FEW150 FM121200 20005KT P6SM OVC008
                       FM121700 21007KT P6SM OVC012 FM122000 23008KT
                       P6SM SCT015 BKN140=
201708112102 KSEA 112102Z 1121/1224 21007KT P6SM SCT150 FM120200 25005KT P6SM
                       SCT150 FM120500 21005KT P6SM BKN150 FM121100
                       20005KT P6SM OVC008 FM121800 22006KT P6SM
                       BKN015 BKN120=
201708111734 TAF KSEA 111734Z 1118/1224 24006KT P6SM SCT150 FM112100 26007KT
                       P6SM SCT150 FM120200 23005KT P6SM SCT150
                       FM120500 21005KT P6SM BKN150 FM121100 20005KT
                       P6SM OVC008 FM121800 22006KT P6SM BKN015
                       BKN120=
201708111603 KSEA 111603Z 1116/1218 22006KT 5SM BR BKN002
                      TEMPO 1116/1119 1/2SM FG OVC002 FM111900
                       25005KT P6SM SCT150 FM120000 23005KT P6SM
                       SCT200 FM120800 21005KT P6SM BKN100=
201708111415 KSEA 111415Z 1114/1218 19006KT 5SM BR BKN002
                      TEMPO 1114/1117 1/2SM FG OVC002 FM111900
                       25005KT P6SM SCT150 FM120000 23005KT P6SM
                       SCT200 FM120800 21005KT P6SM BKN100=
201708111219 KSEA 111219Z 1112/1218 20006KT P6SM SKC FM111300 22005KT 6SM BR
                       OVC002 FM111900 25005KT P6SM SCT150 FM120000
                       23005KT P6SM SCT200 FM120800 21005KT P6SM
                       BKN100=
201708111120 TAF KSEA 111120Z 1112/1218 21004KT P6SM SKC
                      TEMPO 1113/1117 3/4SM BR FU BKN003 FM112000
                       25005KT P6SM SCT150 FM120000 23005KT P6SM
                       SCT200 FM120800 21005KT P6SM BKN100=
201708110901 KSEA 110901Z 1109/1212 VRB03KT 6SM FU HZ SKC
                      TEMPO 1113/1117 3/4SM BR FU BKN003 FM112000
                       25005KT 6SM FU HZ SCT150 FM120000 23005KT
                       P6SM SCT200=
201708110520 TAF KSEA 110520Z 1106/1212 35005KT 6SM FU HZ SKC FM110900 22003KT
                       6SM FU HZ SKC
                      TEMPO 1113/1117 3/4SM BR FU BKN003 FM112000
                       25005KT 6SM FU HZ SCT150 FM120000 25005KT
                       P6SM SCT200=
201708110256 KSEA 110256Z 1103/1206 35005KT 5SM FU HZ SKC FM110900 22003KT 6SM
                       FU HZ SKC
                      TEMPO 1113/1117 3/4SM BR FU BKN003 FM112000
                       28005KT 6SM FU HZ SCT150 FM120000 30005KT
                       P6SM SCT150=
201708102329 TAF KSEA 102329Z 1100/1206 29006KT 5SM FU HZ SKC FM110200 35005KT
                       5SM FU HZ SKC FM110900 22003KT 6SM FU HZ
                       SKC
                      TEMPO 1113/1117 3/4SM BR FU BKN003 FM112000
                       28005KT 6SM FU HZ SCT150 FM120000 34005KT
                       P6SM SCT150=
201708102101 KSEA 102101Z 1021/1124 29006KT 4SM FU HZ SCT040 FM110200 34005KT
                       5SM FU HZ SCT040 FM110900 22003KT 6SM FU
                       HZ SKC
                      TEMPO 1113/1117 3/4SM BR FU SCT002 FM112000
                       28005KT 6SM FU HZ SCT150=
201708101734 TAF KSEA 101734Z 1018/1124 26005KT 6SM FU HZ SCT035 FM102100 29006KT
                       4SM FU HZ SCT040 FM110200 34005KT 5SM FU
                       HZ SCT040 FM110900 22003KT 6SM FU HZ SCT040
                       TEMPO 1113/1117 3/4SM BR FU SCT002 FM112000
                       28005KT 6SM FU HZ SCT150=
201708101441 KSEA 101441Z 1015/1118 22003KT 1SM BR FU SCT002 FM101600 23004KT
                       5SM FU HZ SCT030
                      TEMPO 1016/1017 1SM BR FU SCT003 FM101700
                       25004KT 4SM FU HZ SCT030 FM102100 29006KT
                       4SM FU HZ SCT040 FM110300 33005KT 5SM FU
                       HZ BKN040 FM110800 22003KT 6SM FU HZ SCT040=
201708101226 KSEA 101226Z 1012/1118 00000KT P6SM SKC FM101300 25002KT 4SM BR
                       SCT001
                      TEMPO 1013/1017 1/2SM FG VV001 FM101700 25004KT
                       4SM FU HZ SCT030 FM102100 29006KT 4SM FU
                       HZ SCT040 FM110300 33005KT 5SM FU HZ BKN040
                       FM110800 22003KT 6SM FU HZ SCT040=
201708101120 TAF KSEA 101120Z 1012/1118 VRB04KT 5SM FU HZ SCT040 FM102100 29006KT
                       4SM FU HZ SCT040 FM110300 33005KT 5SM FU
                       HZ BKN040 FM110800 22003KT 6SM FU HZ SCT040=
201708100903 KSEA 100903Z 1009/1112 VRB04KT 5SM FU HZ BKN040 FM102100 29006KT
                       4SM FU HZ SCT040 FM110300 33005KT 5SM FU
                       HZ BKN040 FM110800 VRB03KT 6SM FU HZ SCT040=
201708100520 TAF KSEA 100520Z 1006/1112 VRB04KT 5SM FU HZ BKN040 FM102100 29006KT
                       4SM FU HZ SCT040 FM110300 33005KT 5SM FU
                       HZ SCT040=
201708100258 KSEA 100258Z 1003/1106 35006KT 4SM FU HZ SCT035 FM100800 22004KT
                       5SM FU HZ SCT040 FM102100 29006KT 4SM FU
                       HZ SCT040=
201708092340 TAF KSEA 092340Z 1000/1106 35006KT 4SM FU HZ SCT035 FM100800 22004KT
                       5SM FU HZ SCT040 FM102100 32006KT 5SM FU
                       HZ SCT040=
201708092101 KSEA 092101Z 0921/1024 29005KT 5SM FU HZ SCT040 FM100100 34006KT
                       5SM FU HZ SCT040 FM100800 22004KT 5SM FU
                       HZ SCT040 FM102100 30006KT 5SM FU HZ SCT040=
201708091723 TAF KSEA 091723Z 0918/1024 29005KT 5SM FU HZ SCT040 FM100100 34006KT
                       5SM FU HZ SCT040 FM100800 22004KT 5SM FU
                       HZ SCT040 FM102100 30006KT 6SM FU HZ SCT040=
201708091446 KSEA 091446Z 0915/1018 VRB03KT 5SM FU HZ SCT040 FM092100 28006KT
                       6SM FU HZ SCT050 FM100400 VRB04KT 5SM FU
                       HZ BKN045=
201708091120 TAF KSEA 091120Z 0912/1018 VRB03KT 5SM FU HZ BKN035 FM091900 28006KT
                       6SM FU HZ SCT050 FM100400 VRB04KT 5SM FU
                       HZ BKN045=
201708090900 KSEA 090900Z 0909/1012 VRB03KT 5SM FU HZ BKN035 FM091900 28006KT
                       6SM FU HZ SCT050 FM100400 33004KT 5SM FU
                       HZ BKN045=
201708090528 TAF KSEA 090528Z 0906/1012 35004KT 6SM FU HZ BKN040 FM090900 VRB03KT
                       5SM FU HZ BKN035 FM091900 28006KT 6SM FU
                       HZ SCT050 FM100400 33004KT 5SM FU HZ BKN045=
201708090304 KSEA 090304Z 0903/1006 35004KT 4SM FU HZ BKN035 FM090900 VRB03KT
                       5SM FU HZ BKN035 FM091900 28006KT 6SM FU
                       HZ SCT050=
201708082320 TAF KSEA 082320Z 0900/1006 30007KT 5SM FU HZ SKC FM090300 35004KT
                       5SM FU HZ SKC FM090900 VRB03KT 5SM FU HZ
                       SKC FM091900 28006KT 6SM FU HZ SKC=
201708082101 KSEA 082101Z 0821/0924 28007KT 6SM FU HZ SKC FM090300 35004KT 5SM
                       FU HZ SKC FM090900 VRB03KT 5SM FU HZ SKC
                       FM091900 28006KT 6SM FU HZ SKC=
201708081722 TAF KSEA 081722Z 0818/0924 28005KT P6SM SCT040 FM090300 35004KT
                       5SM FU HZ SKC FM090900 VRB03KT 5SM FU HZ
                       SKC FM091900 28006KT 6SM FU HZ SKC=
201708081502 KSEA 081502Z 0815/0918 00000KT 6SM FU HZ SKC FM081800 30005KT 5SM
                       FU SKC FM082000 31007KT P6SM SKC FM090300
                       VRB04KT 5SM FU SKC=
201708081120 TAF KSEA 081120Z 0812/0918 VRB03KT 5SM FU OVC045 FM081800 30005KT
                       5SM FU BKN050 FM082000 31007KT P6SM SCT050
                       FM090300 VRB04KT 5SM FU SCT060=
201708080901 KSEA 080901Z 0809/0912 VRB03KT 5SM FU OVC045 FM081800 30005KT 5SM
                       FU BKN050 FM082000 31007KT P6SM SCT050 FM090300
                       35004KT P6SM SCT060=
201708080520 TAF KSEA 080520Z 0806/0912 35005KT 5SM FU BKN040 FM080800 VRB03KT
                       5SM FU OVC040 FM081800 30005KT 5SM FU BKN050
                       FM082000 31007KT P6SM SCT050 FM090300 35004KT
                       P6SM SCT060=
201708080303 KSEA 080303Z 0803/0906 35005KT 4SM FU BKN030 FM080800 03004KT 5SM
                       FU OVC030 FM081200 VRB03KT 5SM FU OVC040
                       FM081800 28005KT 5SM FU BKN050 FM082000
                       31007KT P6SM SCT050 FM090300 35004KT P6SM
                       SCT060=
201708072333 TAF KSEA 072333Z 0800/0906 32007KT 5SM FU BKN060 FM080300 35005KT
                       5SM FU BKN050 FM080800 03004KT 5SM FU OVC040
                       FM081200 VRB03KT 5SM FU OVC040 FM081800
                       28005KT 5SM FU BKN050 FM082000 31007KT P6SM
                       SCT050 FM090300 35004KT P6SM SCT060=
201708072101 KSEA 072101Z 0721/0824 32007KT P6SM SCT060 FM080300 35005KT P6SM
                       SCT050 FM080800 03004KT P6SM OVC040 FM081200
                       VRB03KT P6SM OVC040 FM081800 30005KT P6SM
                       BKN050=
201708071740 TAF KSEA 071740Z 0718/0824 29005KT P6SM BKN060 FM072000 32007KT
                       P6SM SCT060 FM080300 35005KT P6SM SCT050
                       FM080800 03004KT P6SM OVC040 FM081200 VRB03KT
                       P6SM OVC040 FM081800 30005KT P6SM BKN050=
201708071427 KSEA 071427Z 0714/0818 VRB03KT P6SM VCFG BKN050 FM071800 29006KT
                       P6SM BKN050 FM072100 32007KT P6SM SCT050
                       FM080600 02005KT P6SM SKC FM081200 VRB03KT
                       P6SM SKC=
201708071130 TAF KSEA 071130Z 0712/0818 VRB03KT 6SM FU HZ FEW006 FM071800 29006KT
                       P6SM SKC FM072100 32007KT P6SM SKC FM080600
                       02005KT P6SM SKC FM081200 VRB03KT P6SM SKC=
201708070926 KSEA 070926Z 0709/0812 00000KT P6SM SKC FM071200 VRB03KT 6SM FU
                       HZ SCT006 FM071800 29007KT P6SM SKC FM072100
                       32007KT P6SM SKC FM080600 02003KT P6SM SKC=
201708070547 TAF KSEA 070547Z 0706/0812 02003KT P6SM SKC FM071200 VRB03KT 6SM
                       FU HZ SCT006 FM071800 29007KT P6SM SKC FM072100
                       32007KT P6SM SKC FM080600 02003KT P6SM SKC=
201708070308 KSEA 070308Z 0703/0806 30005KT P6SM SKC FM070500 36005KT P6SM SKC
                       FM071200 VRB03KT 6SM FU HZ FEW006 FM071800
                       28007KT P6SM SKC=
201708062325 TAF KSEA 062325Z 0700/0806 32007KT P6SM SKC FM070500 36005KT P6SM
                       SKC FM071200 VRB03KT 6SM FU HZ FEW006 FM071800
                       28007KT P6SM SKC=
201708061729 TAF KSEA 061729Z 0618/0724 29005KT P6SM SKC FM062000 31007KT P6SM
                       SKC FM070300 35005KT 6SM FU HZ SKC FM070600
                       03005KT 6SM FU HZ SKC FM071200 VRB03KT P6SM
                       SCT006 FM071700 29005KT P6SM SKC=
201708061439 KSEA 061439Z 0615/0718 VRB03KT P6SM SKC FM061700 29006KT P6SM SKC
                       FM062000 31007KT P6SM SKC FM070600 03004KT
                       P6SM SKC FM071200 VRB03KT P6SM SCT006=
201708061120 TAF KSEA 061120Z 0612/0718 00000KT P6SM SKC FM061400 VRB03KT P6SM
                       FEW006 FM061700 29006KT P6SM SKC FM070600
                       03004KT P6SM SKC FM071200 VRB03KT P6SM SCT006=
201708060902 KSEA 060902Z 0609/0712 00000KT P6SM SKC FM061200 VRB04KT P6SM SCT006
                       FM061700 31006KT P6SM SKC FM070400 01004KT
                       P6SM SKC=
201708060550 TAF KSEA 060550Z 0606/0712 34005KT P6SM SKC FM060800 01003KT P6SM
                       SKC FM061200 VRB04KT P6SM SCT006 FM061700
                       31006KT P6SM SKC FM070400 01004KT P6SM SKC=
201708060304 KSEA 060304Z 0603/0706 30005KT P6SM SKC FM060600 01003KT P6SM SKC
                       FM061800 31006KT P6SM SKC=
201708052320 TAF KSEA 052320Z 0600/0706 33007KT P6SM SKC FM060600 01003KT P6SM
                       SKC FM061800 31006KT P6SM SKC=
201708052102 KSEA 052102Z 0521/0624 VRB05KT P6SM SKC FM052300 30007KT P6SM SKC
                       FM060600 VRB03KT P6SM SKC FM061800 32005KT
                       P6SM SKC=
201708051732 TAF KSEA 051732Z 0518/0624 23006KT P6SM SKC FM052000 26007KT 6SM
                       FU HZ SKC FM052300 29007KT 6SM FU HZ SKC
                       FM060600 VRB03KT 6SM FU HZ SKC FM061200
                       24004KT P6SM SCT008 FM061800 32005KT P6SM
                       SKC=
201708051441 KSEA 051441Z 0515/0618 20006KT P6SM SKC FM051800 24006KT 6SM FU
                       HZ SKC FM052000 26007KT 6SM FU HZ SKC FM052300
                       29007KT 6SM FU HZ SKC FM060600 01004KT 6SM
                       FU HZ SKC FM061200 24004KT 6SM FU HZ SCT005=
201708051145 TAF KSEA 051145Z 0512/0618 20006KT 6SM FU HZ SKC FM051300 21003KT
                       6SM FU BR SCT005 FM051800 24006KT 6SM FU
                       HZ SKC FM052300 29007KT 6SM FU HZ SKC FM060600
                       01004KT 6SM FU HZ SKC FM061200 24004KT 6SM
                       FU HZ SCT005=
201708050905 KSEA 050905Z 0509/0612 20005KT 6SM FU HZ SKC FM051300 21003KT 5SM
                       FU BR SCT005 FM051700 24005KT 6SM FU HZ
                       SKC FM052000 26006KT 6SM FU HZ SKC FM052300
                       30007KT 6SM FU HZ SKC FM060600 01004KT 6SM
                       FU HZ SKC=
201708050548 TAF KSEA 050548Z 0506/0612 22007KT 6SM FU HZ SKC FM051300 21003KT
                       5SM FU BR SCT005 FM051700 24005KT 6SM FU
                       HZ SKC FM052000 26006KT 6SM FU HZ SKC FM052300
                       30007KT 6SM FU HZ SKC FM060600 01004KT 6SM
                       FU HZ SKC=
201708042321 TAF KSEA 042321Z 0500/0606 21007KT 6SM FU HZ SKC FM050600 21004KT
                       6SM FU HZ SKC FM051300 21003KT 5SM FU BR
                       SCT005 FM051700 24005KT 6SM FU HZ SKC FM051900
                       26006KT 6SM FU HZ SKC=
201708042106 KSEA 042106Z 0421/0524 26004KT 5SM FU HZ SKC FM050000 24005KT 5SM
                       FU HZ SKC FM050600 21004KT 6SM FU HZ SKC
                       FM051300 21003KT 4SM FU BR SCT007 FM051800
                       24005KT 5SM FU HZ SKC=
201708041720 TAF KSEA 041720Z 0418/0524 20004KT 4SM FU HZ SKC FM042000 26005KT
                       5SM FU HZ SKC FM050000 25006KT 5SM FU HZ
                       SKC FM050600 21004KT 6SM FU HZ SKC=
201708041502 KSEA 041502Z 0415/0518 20004KT 5SM FU HZ SKC FM041800 26006KT 6SM
                       FU HZ SKC FM050000 25006KT 5SM FU HZ SKC
                       FM050600 21004KT 6SM FU HZ SKC=
201708041129 TAF KSEA 041129Z 0412/0518 22004KT 6SM FU HZ SKC FM041800 27006KT
                       6SM FU HZ SKC FM050000 30004KT 5SM FU HZ
                       SKC FM050600 VRB03KT 6SM HZ SKC=
201708040906 KSEA 040906Z 0409/0512 01004KT 6SM FU HZ SKC FM041000 VRB04KT 6SM
                       FU HZ SKC FM041200 22004KT 6SM FU HZ SKC
                       FM041800 27006KT 5SM FU HZ SKC FM050000
                       30004KT 5SM FU HZ SKC FM050600 VRB03KT 6SM
                       HZ SKC=
201708040547 TAF KSEA 040547Z 0406/0512 01007KT 5SM FU HZ SKC FM041000 VRB04KT
                       5SM FU HZ SKC FM041200 22004KT 5SM FU HZ
                       SKC FM041800 27006KT 5SM FU HZ SKC FM050000
                       30004KT 5SM FU HZ SKC FM050600 VRB03KT 6SM
                       HZ SKC=
201708040218 KSEA 040218Z 0402/0506 36006KT 4SM FU HZ SKC FM040600 01005KT 5SM
                       FU HZ SKC FM041000 VRB04KT 5SM FU HZ SKC
                       FM041800 27006KT 5SM FU HZ SKC=
201708032320 TAF KSEA 032320Z 0400/0506 30007KT 5SM FU HZ SKC FM040600 01005KT
                       5SM FU HZ SKC FM041000 VRB04KT 5SM FU HZ
                       SKC FM041800 27006KT 5SM FU HZ SKC=
201708032102 KSEA 032102Z 0321/0424 30006KT 5SM FU HZ SKC FM040600 01005KT 5SM
                       FU HZ SKC FM041000 VRB04KT 6SM FU HZ SKC
                       FM041800 27006KT 5SM FU HZ SKC=
201708031720 TAF KSEA 031720Z 0318/0424 34006KT 5SM FU HZ SKC FM040600 03005KT
                       5SM FU HZ SKC FM041200 VRB04KT 6SM FU HZ
                       SKC=
201708031501 KSEA 031501Z 0315/0418 34006KT 5SM FU HZ SKC FM040600 03005KT 5SM
                       FU HZ SKC FM041200 VRB04KT 6SM FU HZ SKC=
201708031120 TAF KSEA 031120Z 0312/0418 03004KT 5SM FU HZ SKC FM031800 34006KT
                       4SM FU HZ SKC FM040600 03005KT 5SM FU HZ
                       SKC FM041200 VRB04KT 6SM FU HZ SKC=
201708030904 KSEA 030904Z 0309/0412 04006KT 6SM FU HZ SKC FM031800 34006KT 4SM
                       FU HZ SKC FM040600 03005KT 5SM FU HZ SKC=
201708030556 TAF KSEA 030556Z 0306/0412 03009KT 5SM FU HZ SKC FM030900 04006KT
                       4SM FU HZ SKC FM031800 34006KT 4SM FU HZ
                       SKC FM040600 03005KT 5SM FU HZ SKC=
201708030304 KSEA 030304Z 0303/0406 36009KT 4SM FU HZ SCT025 FM030600 04006KT
                       4SM FU HZ SKC FM032100 36006KT 4SM FU HZ
                       SKC=
201708022320 TAF KSEA 022320Z 0300/0406 36009KT 4SM FU HZ SCT030 FM030600 04006KT
                       4SM FU HZ SKC FM032100 36006KT 4SM FU HZ
                       SKC=
201708022105 KSEA 022105Z 0221/0324 36010KT 5SM FU HZ SKC FM030600 04006KT 5SM
                       FU HZ SKC FM032100 36006KT 5SM FU HZ SKC=
201708021720 TAF KSEA 021720Z 0218/0324 36008KT P6SM SKC FM030600 04006KT P6SM
                       SKC FM032100 36006KT P6SM SKC=
201708021503 KSEA 021503Z 0215/0318 04008KT P6SM SKC FM022100 36010KT P6SM SKC
                       FM030600 04008KT P6SM SKC=
201708021120 TAF KSEA 021120Z 0212/0318 05005KT P6SM SKC FM022100 01010KT P6SM
                       SKC=
201708020901 KSEA 020901Z 0209/0312 01004KT P6SM SKC FM022100 36011G17KT P6SM
                       SKC=
201708020525 TAF KSEA 020525Z 0206/0312 02006KT P6SM SKC FM022100 36011G17KT
                       P6SM SKC=
201708020306 KSEA 020306Z 0203/0306 36009KT 6SM FU SKC FM020600 04006KT P6SM
                       SKC FM022100 02008KT P6SM SKC=
201708012320 TAF KSEA 012320Z 0200/0306 36012KT P6SM SKC FM020600 04006KT P6SM
                       SKC FM022100 02008KT P6SM SKC=
201708012104 KSEA 012104Z 0121/0224 36012G18KT P6SM SKC FM012200 36012KT P6SM
                       SKC FM020600 04006KT P6SM SKC FM022100 02008KT
                       P6SM SKC=
201708011725 TAF KSEA 011725Z 0118/0224 34006KT P6SM SKC FM012200 36012KT P6SM
                       SKC FM020600 04006KT P6SM SKC FM022100 02008KT
                       P6SM SKC=
201708011120 TAF KSEA 011120Z 0112/0218 04004KT P6SM SKC FM011800 01010KT P6SM
                       SKC=
201708010917 KSEA 010917Z 0109/0212 01007KT P6SM SKC FM011000 02006KT P6SM SKC
                       FM011800 36010KT P6SM SKC=
201708010527 TAF KSEA 010527Z 0106/0212 35005KT P6SM SKC FM011000 02006KT P6SM
                       SKC FM011800 36010KT P6SM SKC=
201708010305 KSEA 010305Z 0103/0206 36008KT P6SM SKC FM011000 02007KT P6SM SKC
                       FM011800 35010KT P6SM SKC=