##########################################################
# Query made at 02/17/2025 20:36:14 UTC
# Time interval: from 11/01/2018 00:00  to 11/30/2018 23:59  UTC
##########################################################

##########################################################
# KSEA, Seattle, Seattle-Tacoma International Airport (United States)
# WMO index: 72793. WIGOS ID: 0-20000-0-72793
# Latitude 47-27-00N. Longitude 122-17-59W. Altitude 130 m.
##########################################################

###################################
#  METAR/SPECI from KSEA
###################################
201811302353 METAR KSEA 302353Z 17006KT 10SM SCT032 BKN100 BKN200 09/04 A2973 RMK AO2 SLP073 T00890039 10100 20083 56012=
201811302312 SPECI KSEA 302312Z 19007KT 10SM FEW021 SCT027 BKN090 BKN200 09/04 A2973 RMK AO2 T00940039=
201811302253 METAR KSEA 302253Z 18009KT 10SM FEW021 BKN026 BKN090 09/04 A2973 RMK AO2 SLP074 T00940039=
201811302238 SPECI KSEA 302238Z 19009KT 10SM SCT021 BKN026 BKN200 10/04 A2973 RMK AO2 T01000044=
201811302153 METAR KSEA 302153Z 19012KT 10SM FEW015 SCT024 BKN038 BKN200 09/04 A2974 RMK AO2 SLP080 T00890044=
201811302053 METAR KSEA 302053Z 19011KT 10SM FEW014 BKN048 BKN090 09/06 A2976 RMK AO2 SLP086 T00940056 58002=
201811302033 SPECI KSEA 302033Z 21011KT 10SM FEW013 SCT020 BKN049 09/06 A2977 RMK AO2 T00890056=
201811301953 METAR KSEA 301953Z 22010KT 10SM FEW012 BKN018 OVC038 09/05 A2977 RMK AO2 SLP087 T00890050=
201811301928 SPECI KSEA 301928Z 19012KT 10SM SCT014 BKN024 OVC038 09/05 A2977 RMK AO2 T00940050=
201811301853 METAR KSEA 301853Z 18010KT 10SM FEW008 SCT015 BKN034 09/05 A2978 RMK AO2 SLP090 T00890050=
201811301753 METAR KSEA 301753Z 19012KT 10SM FEW008 SCT013 BKN040 08/05 A2977 RMK AO2 SLP088 T00830050 10083 20067 53008=
201811301653 METAR KSEA 301653Z 21008KT 10SM FEW008 BKN045 BKN090 07/04 A2976 RMK AO2 SLP085 T00720044=
201811301553 METAR KSEA 301553Z 19011KT 10SM FEW007 SCT012 BKN250 07/04 A2974 RMK AO2 SLP080 T00670044=
201811301539 SPECI KSEA 301539Z 20010KT 10SM FEW007 SCT013 BKN034 07/05 A2974 RMK AO2 T00720050=
201811301453 METAR KSEA 301453Z 19009KT 10SM FEW008 BKN027 BKN080 07/06 A2974 RMK AO2 SLP080 T00720056 53010=
201811301353 METAR KSEA 301353Z 19008KT 10SM SCT006 OVC021 07/06 A2973 RMK AO2 SLP076 T00720056=
201811301346 SPECI KSEA 301346Z 19011KT 8SM SCT006 OVC023 07/06 A2973 RMK AO2 T00720056=
201811301303 SPECI KSEA 301303Z 18008KT 6SM BR FEW006 BKN013 OVC025 07/06 A2972 RMK AO2 T00720061=
201811301253 METAR KSEA 301253Z 18009KT 5SM BR BKN006 BKN013 OVC025 07/06 A2972 RMK AO2 CIG 004V010 SLP072 T00720061=
201811301242 SPECI KSEA 301242Z 18008KT 6SM BR BKN006 OVC013 07/06 A2972 RMK AO2 CIG 003V010 T00720061=
201811301232 SPECI KSEA 301232Z 18009KT 5SM BR OVC004 07/06 A2972 RMK AO2 CIG 003V010 T00720061=
201811301153 METAR KSEA 301153Z 17005KT 6SM BR BKN007 BKN012 OVC018 07/06 A2971 RMK AO2 CIG 005V009 SLP069 60000 T00720061 10083 20067 50005=
201811301118 SPECI KSEA 301118Z 14004KT 6SM BR SCT006 BKN019 OVC041 07/06 A2971 RMK AO2 T00720056=
201811301053 METAR KSEA 301053Z 12004KT 7SM BKN006 BKN040 OVC055 07/06 A2971 RMK AO2 CIG 003V009 SLP069 T00720056=
201811301019 SPECI KSEA 301019Z 14004KT 6SM BR SCT005 BKN009 OVC015 07/06 A2971 RMK AO2 CIG 008V011 T00670056=
201811300953 METAR KSEA 300953Z 13004KT 8SM FEW004 BKN017 OVC060 07/06 A2971 RMK AO2 RAE16 SLP067 P0000 T00670056=
201811300934 SPECI KSEA 300934Z 13004KT 8SM FEW004 BKN018 OVC060 07/06 A2970 RMK AO2 RAE16 P0000 T00720056=
201811300853 METAR KSEA 300853Z 12005KT 4SM -RA BR SCT013 OVC021 07/06 A2970 RMK AO2 RAB44 SLP064 P0000 60000 T00720056 51005=
201811300753 METAR KSEA 300753Z 12006KT 10SM OVC017 07/05 A2970 RMK AO2 SLP062 T00720050 401000061=
201811300653 METAR KSEA 300653Z 13004KT 10SM OVC016 08/06 A2969 RMK AO2 SLP061 T00780056=
201811300644 SPECI KSEA 300644Z 16004KT 10SM OVC016 08/05 A2969 RMK AO2 T00780050=
201811300553 METAR KSEA 300553Z 17003KT 10SM BKN009 OVC014 08/06 A2968 RMK AO2 SLP059 T00780056 10089 20078 53010=
201811300537 SPECI KSEA 300537Z 00000KT 9SM SCT009 OVC013 08/05 A2968 RMK AO2 T00780050=
201811300453 METAR KSEA 300453Z 04006KT 9SM OVC012 08/06 A2967 RMK AO2 SLP054 T00780056=
201811300353 METAR KSEA 300353Z 03006KT 10SM BKN010 OVC180 08/06 A2966 RMK AO2 SLP053 T00830056=
201811300310 SPECI KSEA 300310Z 02003KT 10SM BKN011 OVC180 08/06 A2966 RMK AO2 T00830061=
201811300253 METAR KSEA 300253Z 04005KT 10SM FEW020 OVC180 08/06 A2965 RMK AO2 SLP049 T00830056 53005=
201811300153 METAR KSEA 300153Z 02008KT 10SM FEW020 BKN200 08/06 A2965 RMK AO2 SLP047 T00830056=
201811300053 METAR KSEA 300053Z 03009KT 10SM FEW015 BKN200 08/06 A2964 RMK AO2 SLP044 T00830056=
201811292353 METAR KSEA 292353Z 03009KT 10SM FEW014 SCT160 BKN250 09/06 A2964 RMK AO2 SLP043 T00890056 10100 20072 55001=
201811292253 METAR KSEA 292253Z 02013KT 10SM FEW014 SCT050 BKN180 09/06 A2964 RMK AO2 SLP042 T00940056=
201811292153 METAR KSEA 292153Z 01012KT 10SM SCT013 BKN200 10/06 A2964 RMK AO2 SLP043 T01000061=
201811292053 METAR KSEA 292053Z 01011KT 10SM SCT013 BKN200 10/06 A2964 RMK AO2 SLP044 T01000061 58004=
201811291953 METAR KSEA 291953Z 36013KT 10SM SCT006 BKN200 09/06 A2964 RMK AO2 SLP045 T00890061=
201811291902 SPECI KSEA 291902Z 02016KT 10SM BKN002 BKN200 08/06 A2965 RMK AO2 T00830061=
201811291853 METAR KSEA 291853Z 02013KT 5SM BR BKN001 BKN200 08/06 A2965 RMK AO2 SLP047 T00780061=
201811291811 SPECI KSEA 291811Z 03009KT 1/4SM R16L/1400VP6000FT FG OVC001 08/06 A2965 RMK AO2 SFC VIS 1/2 T00780061=
201811291753 METAR KSEA 291753Z 01008KT 5SM BR OVC003 08/07 A2965 RMK AO2 SLP048 T00780067 10083 20061 50003=
201811291748 SPECI KSEA 291748Z 01009KT 5SM BR BKN003 08/06 A2965 RMK AO2=
201811291653 METAR KSEA 291653Z 03007KT 10SM SCT009 SCT120 BKN200 08/06 A2966 RMK AO2 SLP049 FG BANK S T00780056=
201811291601 SPECI KSEA 291601Z 03007KT 5SM BR SCT001 BKN120 BKN200 07/06 A2966 RMK AO2 FG BANK S T00720061=
201811291553 METAR KSEA 291553Z 03006KT 1/2SM R16L/P6000FT FG SCT001 BKN120 BKN200 07/06 A2965 RMK AO2 TWR VIS 2 SLP049 VIS W 3/4 T00670061=
201811291515 SPECI KSEA 291515Z 03009KT 3/4SM R16L/2600VP6000FT BR BKN001 07/06 A2965 RMK AO2 VIS W 1/2 T00720061=
201811291453 METAR KSEA 291453Z 36005KT 3SM BCFG BKN001 07/06 A2964 RMK AO2 SLP045 T00670061 58009=
201811291359 SPECI KSEA 291359Z 36007KT 3/4SM R16L/1600V3500FT BR BKN001 07/06 A2965 RMK AO2 VIS W 1/2 T00720061 $=
201811291353 METAR KSEA 291353Z 01007KT 3/4SM R16L/2200VP6000FT BR BKN002 OVC011 07/06 A2965 RMK AO2 SLP046 T00720061 $=
201811291344 SPECI KSEA 291344Z 36007KT 1SM R16L/P6000FT BR BKN002 OVC011 07/06 A2965 RMK AO2 T00720061 $=
201811291327 SPECI KSEA 291327Z 01007KT 2SM BR SCT002 OVC010 07/07 A2965 RMK AO2 T00720067 $=
201811291253 METAR KSEA 291253Z 01004KT 1/2SM R16L/2400V3500FT FG BKN003 OVC019 07/06 A2967 RMK AO2 SLP054 T00670056=
201811291248 SPECI KSEA 291248Z 01005KT 1/2SM R16L/1600V3000FT FG BKN001 BKN006 OVC019 07/06 A2967 RMK AO2=
201811291153 METAR KSEA 291153Z 03003KT 1/4SM R16L/1800V2200FT FG VV001 07/06 A2966 RMK AO2 SLP052 60001 70015 T00720061 10089 20067 58008=
201811291144 SPECI KSEA 291144Z 01005KT 1/4SM R16L/1800V2000FT FG VV001 07/06 A2966 RMK AO2 T00670056=
201811291127 SPECI KSEA 291127Z 02006KT 1/2SM R16L/2000V2600FT FG BKN002 OVC060 07/06 A2966 RMK AO2 T00720061=
201811291119 SPECI KSEA 291119Z 01005KT 1SM R16L/2000VP6000FT BR SCT002 BKN060 07/06 A2967 RMK AO2 T00720061=
201811291117 SPECI KSEA 291117Z 01005KT 7SM R16L/4000VP6000FT FEW002 BKN055 07/06 A2967 RMK AO2 T00720061=
201811291053 METAR KSEA 291053Z 00000KT 7SM FEW043 BKN055 08/07 A2968 RMK AO2 SLP057 T00830067=
201811291022 SPECI KSEA 291022Z 00000KT 7SM BKN040 BKN047 OVC055 08/07 A2968 RMK AO2 T00830067=
201811291017 SPECI KSEA 291017Z 00000KT 1 1/2SM BR BKN038 OVC046 08/07 A2968 RMK AO2 T00830067=
201811290953 METAR KSEA 290953Z 00000KT 8SM BKN042 08/07 A2969 RMK AO2 SLP059 T00830067=
201811290853 METAR KSEA 290853Z 10005KT 9SM SCT042 BKN065 08/07 A2969 RMK AO2 SLP060 60001 T00830067 56005=
201811290753 METAR KSEA 290753Z 13003KT 7SM SCT020 OVC045 09/07 A2970 RMK AO2 SLP063 T00890067 401060083=
201811290653 METAR KSEA 290653Z 15004KT 10SM SCT036 BKN050 OVC100 08/07 A2969 RMK AO2 RAE51 SLP062 P0001 T00830067=
201811290553 METAR KSEA 290553Z 19003KT 9SM -RA FEW010 SCT019 OVC026 09/07 A2970 RMK AO2 SLP066 P0001 60003 T00890072 10094 20089 52003=
201811290542 SPECI KSEA 290542Z 19004KT 10SM -RA FEW010 BKN028 OVC050 09/07 A2970 RMK AO2 P0001 T00890072=
201811290453 METAR KSEA 290453Z 00000KT 6SM -RA BR FEW030 OVC036 09/07 A2970 RMK AO2 RAB14 SLP065 P0000 T00890072=
201811290353 METAR KSEA 290353Z 08005KT 10SM BKN041 BKN049 OVC060 09/07 A2970 RMK AO2 DZE49 SLP064 P0001 T00940072=
201811290253 METAR KSEA 290253Z 13004KT 9SM -DZ FEW015 OVC041 09/07 A2970 RMK AO2 SLP063 P0000 60001 T00940072 54000=
201811290153 METAR KSEA 290153Z 15005KT 10SM -DZ FEW015 OVC035 09/08 A2970 RMK AO2 RAE30DZB51 SLP063 P0000 T00940078=
201811290053 METAR KSEA 290053Z 13003KT 10SM -RA FEW020 BKN040 OVC070 09/08 A2969 RMK AO2 SLP062 P0001 T00890078=
201811282353 METAR KSEA 282353Z 15005KT 7SM -RA FEW015 OVC049 09/07 A2970 RMK AO2 SLP063 P0003 60009 T00940072 10106 20089 56004=
201811282253 METAR KSEA 282253Z 22005KT 4SM -RA BR SCT014 OVC040 09/08 A2970 RMK AO2 SLP063 P0005 T00940078=
201811282244 SPECI KSEA 282244Z VRB04KT 4SM -RA BR SCT014 BKN038 OVC050 09/08 A2970 RMK AO2 P0004 T00940078=
201811282228 SPECI KSEA 282228Z 18005KT 5SM -RA BR BKN013 BKN038 OVC045 09/08 A2970 RMK AO2 P0003 T00940078=
201811282153 METAR KSEA 282153Z 16006KT 7SM -RA BKN015 OVC045 10/07 A2970 RMK AO2 RAB46 SLP064 P0001 T01000072=
201811282146 SPECI KSEA 282146Z 17004KT 7SM -RA BKN014 OVC045 10/07 A2970 RMK AO2 RAB46 P0001 T01000072=
201811282053 METAR KSEA 282053Z 15004KT 10SM FEW012 BKN050 OVC070 10/07 A2971 RMK AO2 SLP066 60000 T01000067 56012=
201811281953 METAR KSEA 281953Z 16005KT 10SM FEW013 SCT035 OVC060 10/07 A2971 RMK AO2 SLP069 T01000067=
201811281853 METAR KSEA 281853Z 00000KT 10SM FEW013 BKN035 OVC050 09/08 A2973 RMK AO2 RAE18 SLP075 P0000 T00940078=
201811281753 METAR KSEA 281753Z 23006KT 8SM -RA FEW015 BKN040 OVC055 09/07 A2974 RMK AO2 RAB06E19B50 SLP078 P0001 60002 T00940067 10100 20089 56006=
201811281653 METAR KSEA 281653Z VRB04KT 10SM FEW015 BKN037 OVC050 09/07 A2974 RMK AO2 SLP079 T00940067=
201811281553 METAR KSEA 281553Z 09009KT 10SM FEW015 BKN032 BKN045 09/07 A2974 RMK AO2 RAB05E42 SLP079 P0001 T00890067=
201811281453 METAR KSEA 281453Z 12006KT 10SM FEW036 BKN045 OVC055 09/07 A2976 RMK AO2 RAB25E40 SLP085 P0000 60000 T00940067 58006=
201811281353 METAR KSEA 281353Z 16007KT 10SM BKN045 OVC055 09/07 A2977 RMK AO2 SLP088 T00890067=
201811281253 METAR KSEA 281253Z 15009KT 10SM BKN036 OVC055 09/07 A2978 RMK AO2 SLP091 T00890067=
201811281153 METAR KSEA 281153Z 16010KT 10SM FEW023 BKN035 OVC046 09/07 A2978 RMK AO2 SLP090 60001 70155 T00940067 10106 20094 50004=
201811281053 METAR KSEA 281053Z 18009KT 10SM SCT023 BKN029 BKN060 10/07 A2978 RMK AO2 SLP090 T01000072=
201811280953 METAR KSEA 280953Z 19011KT 10SM FEW025 SCT060 BKN170 10/07 A2977 RMK AO2 RAB08E17 SLP088 P0001 T01000072=
201811280853 METAR KSEA 280853Z 18009KT 10SM FEW025 BKN031 BKN100 10/08 A2977 RMK AO2 SLP085 T01000078 53003=
201811280753 METAR KSEA 280753Z 18010KT 10SM BKN020 OVC028 10/08 A2976 RMK AO2 SLP085 T01000078 401440089=
201811280653 METAR KSEA 280653Z 17010KT 10SM BKN023 11/08 A2976 RMK AO2 SLP083 T01060083=
201811280553 METAR KSEA 280553Z 17009KT 10SM FEW016 BKN020 BKN043 11/08 A2976 RMK AO2 RAE29 SLP082 P0000 60092 T01060083 10117 20089 53010=
201811280453 METAR KSEA 280453Z 17011KT 8SM -RA BKN024 BKN036 OVC060 11/08 A2974 RMK AO2 RAB07E22B45 SLP077 P0002 T01060083=
201811280353 METAR KSEA 280353Z 16009KT 10SM SCT031 BKN047 BKN055 10/08 A2974 RMK AO2 RAE53 SLP076 P0027 T01000078=
201811280253 METAR KSEA 280253Z 22004KT 3SM RA BR FEW030 BKN042 OVC050 09/07 A2973 RMK AO2 TSE08 SLP073 P0027 60063 T00940072 53004=
201811280214 SPECI KSEA 280214Z 17012KT 7SM -RA FEW028CB BKN042 OVC070 09/07 A2972 RMK AO2 TSE08 CB E MOV E P0003 T00940072=
201811280202 SPECI KSEA 280202Z 19012KT 6SM -TSRA FEW028CB OVC041 10/07 A2972 RMK AO2 OCNL LTGIC OHD TS OHD MOV E P0002 T01000072=
201811280153 METAR KSEA 280153Z 18011G15KT 2SM R16L/5500VP6000FT TSRA FEW027CB BKN034 OVC045 11/08 A2972 RMK AO2 TSB47 SLP070 OCNL LTGIC OHD TS OHD MOV E P0034 T01060078=
201811280148 SPECI KSEA 280148Z 21011G15KT 2SM R16L/3500VP6000FT TSRA FEW027CB BKN037 OVC049 10/07 A2973 RMK AO2 TSB47 OCNL LTGIC OHD TS OHD MOV E P0030=
201811280120 SPECI KSEA 280120Z 20005KT 6SM -RA BR SCT028 BKN033 OVC047 11/09 A2972 RMK AO2 OCNL LTGIC DSNT SW-W P0001 T01110089=
201811280053 METAR KSEA 280053Z 18008KT 9SM -RA FEW038 SCT050 BKN065 11/09 A2972 RMK AO2 RAB23 SLP070 P0002 T01110089=
201811272353 METAR KSEA 272353Z 17007KT 10SM FEW037CB BKN070 BKN200 11/09 A2972 RMK AO2 SLP068 RAE20 CB E MOV NE P0030 60036 T01110089 10144 20100 51003=
201811272253 METAR KSEA 272253Z 19006KT 7SM -RA FEW015 SCT028 OVC060 12/08 A2972 RMK AO2 RAB24 SLP068 P0001 T01170083=
201811272153 METAR KSEA 272153Z 18011KT 10SM FEW015 SCT043 BKN070 13/09 A2971 RMK AO2 SLP068 VCSH T01280089=
201811272053 METAR KSEA 272053Z 21010KT 10SM FEW012 SCT025 BKN160 13/09 A2970 RMK AO2 SLP065 60005 T01330094 51004=
201811271953 METAR KSEA 271953Z 21011KT 10SM FEW009 SCT017 SCT035 13/10 A2971 RMK AO2 SLP065 T01330100=
201811271853 METAR KSEA 271853Z 22010KT 10SM FEW009 SCT025 SCT039 13/11 A2971 RMK AO2 RAE30 SLP065 P0005 T01280106=
201811271836 SPECI KSEA 271836Z 22008KT 10SM FEW009 SCT026 SCT039 12/10 A2971 RMK AO2 RAE30 P0005 T01220100=
201811271753 METAR KSEA 271753Z 20009KT 9SM -RA FEW009 BKN022 BKN060 13/11 A2969 RMK AO2 RAB27 SLP061 P0001 60026 T01280106 10133 20117 53014=
201811271706 SPECI KSEA 271706Z 18011KT 10SM FEW009 BKN026 BKN035 BKN190 12/10 A2968 RMK AO2 T01220100=
201811271653 METAR KSEA 271653Z 17011KT 10SM FEW009 SCT025 BKN032 BKN190 12/10 A2967 RMK AO2 SLP054 T01220100=
201811271553 METAR KSEA 271553Z 16011KT 10SM FEW009 BKN032 BKN040 12/10 A2966 RMK AO2 SLP051 T01220100=
201811271453 METAR KSEA 271453Z 18011KT 10SM FEW008 FEW025 BKN065 12/10 A2965 RMK AO2 RAE28 SLP047 P0022 60025 T01170100 53016=
201811271435 SPECI KSEA 271435Z 18011KT 10SM FEW008 SCT023 OVC055 12/11 A2964 RMK AO2 RAE28 P0022 T01170106=
201811271410 SPECI KSEA 271410Z 22010G16KT 3SM RA BR FEW008 BKN023 OVC055 12/10 A2964 RMK AO2 P0006 T01220100=
201811271353 METAR KSEA 271353Z 19008KT 5SM -RA BKN025 OVC050 13/10 A2963 RMK AO2 SLP039 P0003 T01280100=
201811271253 METAR KSEA 271253Z 18015G24KT 10SM -RA FEW036 BKN048 OVC070 13/09 A2962 RMK AO2 PK WND 19026/1221 RAB46 SLP037 P0000 T01330094=
201811271153 METAR KSEA 271153Z 16018G24KT 10SM FEW037 BKN050 OVC060 13/10 A2960 RMK AO2 RAE22 SLP030 P0001 60051 70172 T01280100 10128 20100 58006=
201811271059 SPECI KSEA 271059Z 18011G20KT 6SM -RA BR SCT017 BKN035 OVC070 12/11 A2963 RMK AO2 PRESFR P0000 T01170106=
201811271053 METAR KSEA 271053Z 16016G20KT 3SM -RA BR FEW010 BKN020 OVC070 12/11 A2963 RMK AO2 PRESFR SLP039 P0005 T01220106=
201811271042 SPECI KSEA 271042Z 18009KT 7SM -RA BKN018 OVC023 12/11 A2965 RMK AO2 P0003 T01220106=
201811270953 METAR KSEA 270953Z 17009KT 5SM -RA BR SCT030 BKN039 OVC060 12/10 A2963 RMK AO2 SLP038 P0015 T01170100=
201811270853 METAR KSEA 270853Z 13009KT 5SM -RA BR SCT031 BKN038 OVC055 11/09 A2962 RMK AO2 SLP036 P0010 60030 T01110094 57021=
201811270753 METAR KSEA 270753Z 13008G19KT 5SM -RA BR OVC035 11/09 A2965 RMK AO2 SLP044 P0011 T01110089 401390072=
201811270653 METAR KSEA 270653Z 13009KT 3SM RA BR BKN035 OVC043 11/09 A2966 RMK AO2 SLP050 P0009 T01060089=
201811270553 METAR KSEA 270553Z 13009KT 5SM -RA BR FEW006 BKN034 OVC048 11/09 A2968 RMK AO2 SLP058 P0011 60061 T01060089 10133 20100 58030=
201811270453 METAR KSEA 270453Z 13007KT 5SM -RA BR FEW006 OVC035 11/09 A2971 RMK AO2 SLP069 P0008 T01060089=
201811270353 METAR KSEA 270353Z 13008KT 3SM -RA BR SCT005 OVC037 12/11 A2974 RMK AO2 SLP079 P0013 T01220111=
201811270330 SPECI KSEA 270330Z 14006G16KT 3SM RA BR BKN005 BKN012 OVC045 12/11 A2976 RMK AO2 P0007 T01220111=
201811270316 SPECI KSEA 270316Z 15006KT 3SM -RA BR SCT005 BKN036 OVC045 12/11 A2976 RMK AO2 P0004 T01170111=
201811270253 METAR KSEA 270253Z 17006KT 4SM -RA BR OVC037 12/11 A2977 RMK AO2 SLP089 P0010 60029 T01170111 58009=
201811270153 METAR KSEA 270153Z 18004KT 4SM -RA BR OVC040 12/11 A2979 RMK AO2 SLP093 P0011 T01220106=
201811270053 METAR KSEA 270053Z 00000KT 4SM -RA BR OVC036 12/11 A2980 RMK AO2 SLP096 P0008 T01170106=
201811262353 METAR KSEA 262353Z 19009KT 3SM -RA BKN036 OVC045 13/11 A2980 RMK AO2 SLP098 P0004 60026 T01330106 10139 20089 55012=
201811262253 METAR KSEA 262253Z 17010KT 9SM -RA FEW020 OVC038 13/10 A2980 RMK AO2 SLP098 P0001 T01330100=
201811262153 METAR KSEA 262153Z 19007KT 10SM -RA FEW030 BKN040 OVC070 13/10 A2982 RMK AO2 SLP106 P0000 T01280100=
201811262053 METAR KSEA 262053Z 14010KT 6SM -RA BR FEW046 BKN070 OVC090 12/10 A2984 RMK AO2 SLP110 P0005 60021 T01220100 58031=
201811261953 METAR KSEA 261953Z 15010KT 8SM -RA FEW045 BKN065 OVC080 11/09 A2986 RMK AO2 PK WND 16028/1916 SLP120 P0007 T01060089=
201811261853 METAR KSEA 261853Z 13013KT 3SM -RA BR SCT046 BKN065 OVC080 10/08 A2990 RMK AO2 SLP132 P0009 T01000078=
201811261753 METAR KSEA 261753Z 16010KT 3SM -RA BR BKN050 BKN065 OVC080 09/07 A2993 RMK AO2 SLP141 P0008 60034 T00890072 10089 20072 56011=
201811261653 METAR KSEA 261653Z 15010KT 5SM -RA BR FEW005 BKN060 OVC075 08/07 A2993 RMK AO2 SLP143 P0007 T00830067=
201811261553 METAR KSEA 261553Z 15007KT 7SM -RA FEW005 BKN050 OVC070 08/06 A2994 RMK AO2 SLP146 P0006 T00830061=
201811261453 METAR KSEA 261453Z 15004KT 7SM -RA BKN046 BKN065 OVC080 08/06 A2996 RMK AO2 SLP152 P0004 60013 T00830061 55022=
201811261353 METAR KSEA 261353Z 13009KT 8SM -RA FEW005 BKN048 OVC080 08/06 A2996 RMK AO2 SLP152 P0005 T00780056=
201811261327 SPECI KSEA 261327Z 13007KT 4SM -RA BR FEW005 OVC043 08/06 A2998 RMK AO2 P0003 T00780061=
201811261253 METAR KSEA 261253Z 17003KT 5SM -RA BR OVC043 08/06 A3000 RMK AO2 SLP168 P0004 T00780061=
201811261153 METAR KSEA 261153Z 21004KT 6SM -RA BR OVC050 08/07 A3003 RMK AO2 RAB32 SLP175 P0000 60001 70001 T00830067 10083 20072 55011=
201811261053 METAR KSEA 261053Z 15004KT 7SM FEW080 OVC150 08/06 A3001 RMK AO2 SLP171 T00780061=
201811260953 METAR KSEA 260953Z 00000KT 10SM SCT075 OVC095 08/06 A3003 RMK AO2 SLP177 T00780056=
201811260853 METAR KSEA 260853Z 23003KT 10SM SCT046 OVC085 08/06 A3006 RMK AO2 SLP185 60001 T00780056 58014=
201811260753 METAR KSEA 260753Z 00000KT 10SM OVC043 08/06 A3008 RMK AO2 SLP193 T00830056 400890022=
201811260653 METAR KSEA 260653Z 00000KT 10SM BKN080 OVC110 08/06 A3009 RMK AO2 RAB15E32 SLP196 P0001 T00780056=
201811260553 METAR KSEA 260553Z 00000KT 10SM BKN070 OVC085 08/06 A3010 RMK AO2 SLP200 T00830056 10089 20078 58010=
201811260453 METAR KSEA 260453Z 00000KT 10SM FEW060 OVC100 08/04 A3012 RMK AO2 SLP206 T00830044=
201811260353 METAR KSEA 260353Z 17003KT 10SM BKN085 OVC100 08/04 A3012 RMK AO2 SLP208 T00780044=
201811260253 METAR KSEA 260253Z 19003KT 10SM BKN060 OVC080 08/04 A3013 RMK AO2 SLP211 T00780044 58001=
201811260153 METAR KSEA 260153Z 17005KT 10SM BKN065 OVC090 09/03 A3013 RMK AO2 SLP213 T00890028=
201811260053 METAR KSEA 260053Z 16003KT 10SM OVC065 08/04 A3013 RMK AO2 SLP211 T00780044=
201811252353 METAR KSEA 252353Z 24004KT 10SM BKN065 BKN170 08/04 A3013 RMK AO2 SLP212 T00780044 10089 20072 53002=
201811252253 METAR KSEA 252253Z 17004KT 10SM FEW050 SCT070 OVC110 08/04 A3012 RMK AO2 SLP208 T00830044=
201811252153 METAR KSEA 252153Z 22004KT 10SM SCT050 SCT070 OVC110 08/03 A3013 RMK AO2 SLP210 T00830033=
201811252053 METAR KSEA 252053Z 21005KT 10SM SCT060 BKN080 OVC095 08/03 A3013 RMK AO2 SLP210 T00830033 56007=
201811251953 METAR KSEA 251953Z 28003KT 10SM SCT110 BKN150 OVC210 09/04 A3013 RMK AO2 SLP213 T00890039=
201811251853 METAR KSEA 251853Z VRB03KT 10SM FEW110 BKN210 09/02 A3013 RMK AO2 SLP210 T00890017=
201811251753 METAR KSEA 251753Z 19004KT 10SM FEW110 BKN200 07/02 A3015 RMK AO2 SLP217 T00720017 10078 20022 56002=
201811251653 METAR KSEA 251653Z 23003KT 10SM FEW090 BKN190 06/02 A3015 RMK AO2 SLP218 T00610022=
201811251553 METAR KSEA 251553Z 07003KT 10SM FEW100 BKN200 06/01 A3015 RMK AO2 SLP217 T00560006=
201811251453 METAR KSEA 251453Z 00000KT 10SM SCT100 BKN220 04/01 A3015 RMK AO2 SLP220 T00390011 55003=
201811251353 METAR KSEA 251353Z 11004KT 10SM BKN220 05/01 A3015 RMK AO2 SLP219 T00500011=
201811251253 METAR KSEA 251253Z 12004KT 10SM BKN240 03/01 A3016 RMK AO2 SLP221 T00330006=
201811251153 METAR KSEA 251153Z 00000KT 10SM SCT250 03/01 A3016 RMK AO2 SLP223 T00330011 10067 20028 50000=
201811251053 METAR KSEA 251053Z 00000KT 10SM SCT250 03/01 A3017 RMK AO2 SLP226 T00330006=
201811250953 METAR KSEA 250953Z 00000KT 10SM SCT180 04/01 A3018 RMK AO2 SLP227 T00390011=
201811250853 METAR KSEA 250853Z 13007KT 10SM FEW150 SCT250 06/01 A3016 RMK AO2 SLP223 T00560011 58008=
201811250753 METAR KSEA 250753Z 11008KT 10SM FEW160 06/02 A3018 RMK AO2 SLP228 T00560017 400940033=
201811250653 METAR KSEA 250653Z 12007KT 10SM FEW110 07/02 A3019 RMK AO2 SLP230 T00670017=
201811250553 METAR KSEA 250553Z 12005KT 10SM SCT110 07/02 A3019 RMK AO2 SLP232 T00670022 10094 20067 51003=
201811250453 METAR KSEA 250453Z 11008KT 10SM SCT130 07/02 A3019 RMK AO2 SLP232 T00670022=
201811250353 METAR KSEA 250353Z 11005KT 10SM SCT130 08/03 A3019 RMK AO2 SLP230 T00780028=
201811250253 METAR KSEA 250253Z 11005KT 10SM BKN110 08/04 A3018 RMK AO2 SLP228 T00830039 50001=
201811250153 METAR KSEA 250153Z VRB05KT 10SM FEW041 BKN110 09/04 A3018 RMK AO2 SLP229 T00890039=
201811250053 METAR KSEA 250053Z 12005KT 10SM BKN041 09/03 A3018 RMK AO2 SLP227 T00890033=
201811242353 METAR KSEA 242353Z 00000KT 10SM FEW026 OVC046 09/04 A3018 RMK AO2 SLP227 T00890039 10094 20067 53007=
201811242253 METAR KSEA 242253Z 19004KT 10SM FEW026 SCT036 BKN170 09/04 A3017 RMK AO2 SLP224 T00890039=
201811242217 SPECI KSEA 242217Z 21005KT 10SM FEW023 BKN036 09/04 A3016 RMK AO2 T00940039=
201811242153 METAR KSEA 242153Z 00000KT 10SM FEW010 BKN025 BKN036 09/04 A3016 RMK AO2 SLP221 T00890044=
201811242053 METAR KSEA 242053Z 15006KT 10SM OVC027 09/03 A3015 RMK AO2 SLP220 T00890033 58003=
201811241953 METAR KSEA 241953Z 14005KT 10SM BKN017 OVC029 08/03 A3016 RMK AO2 SLP222 T00830033=
201811241853 METAR KSEA 241853Z 13003KT 10SM OVC028 08/04 A3017 RMK AO2 SLP226 T00780039=
201811241753 METAR KSEA 241753Z 20003KT 10SM FEW011 OVC026 07/04 A3017 RMK AO2 SLP223 T00670039 10072 20033 51023=
201811241653 METAR KSEA 241653Z 00000KT 10SM BKN010 BKN040 07/03 A3014 RMK AO2 SLP216 T00670033=
201811241615 SPECI KSEA 241615Z 14005KT 10SM SCT010 SCT040 06/03 A3013 RMK AO2 T00610033=
201811241553 METAR KSEA 241553Z 17004KT 10SM BKN008 BKN040 05/03 A3012 RMK AO2 SLP207 T00500028=
201811241546 SPECI KSEA 241546Z 14005KT 10SM SCT008 SCT034 05/03 A3011 RMK AO2 T00500028=
201811241453 METAR KSEA 241453Z 16006KT 9SM FEW010 SCT034 05/03 A3010 RMK AO2 SLP200 T00500028 51023=
201811241353 METAR KSEA 241353Z 18004KT 10SM BKN034 04/03 A3007 RMK AO2 SLP192 T00440028=
201811241253 METAR KSEA 241253Z 00000KT 10SM BKN030 06/03 A3006 RMK AO2 SLP187 T00560028=
201811241153 METAR KSEA 241153Z 11004KT 10SM SCT034 SCT070 04/02 A3003 RMK AO2 SLP177 70025 T00440022 10067 20044 51025=
201811241053 METAR KSEA 241053Z 15004KT 10SM SCT010 BKN070 04/02 A3001 RMK AO2 SLP170 T00440022=
201811241022 SPECI KSEA 241022Z 18007KT 10SM BKN010 OVC070 06/03 A2999 RMK AO2 T00560033=
201811240953 METAR KSEA 240953Z 17005KT 10SM BKN009 BKN013 OVC018 06/03 A2998 RMK AO2 SLP161 T00610033=
201811240931 SPECI KSEA 240931Z 17005KT 10SM FEW009 BKN013 OVC060 06/03 A2997 RMK AO2 T00610033=
201811240853 METAR KSEA 240853Z 18007KT 10SM BKN014 OVC060 06/03 A2995 RMK AO2 SLP151 T00610033 53039=
201811240753 METAR KSEA 240753Z 18006KT 10SM BKN014 OVC080 07/03 A2991 RMK AO2 SLP136 T00670033 400940056=
201811240653 METAR KSEA 240653Z 14006KT 10SM BKN014 BKN080 06/03 A2987 RMK AO2 SLP124 T00610033=
201811240649 SPECI KSEA 240649Z 13005KT 10SM BKN014 BKN080 06/03 A2987 RMK AO2=
201811240553 METAR KSEA 240553Z 16004KT 10SM FEW030 SCT080 BKN100 06/03 A2984 RMK AO2 SLP112 T00560033 10094 20056 53030=
201811240453 METAR KSEA 240453Z 19005KT 10SM SCT015 BKN030 OVC075 07/04 A2981 RMK AO2 SLP101 T00720039=
201811240446 SPECI KSEA 240446Z 18006KT 10SM SCT015 BKN030 OVC075 07/04 A2980 RMK AO2 T00670039=
201811240353 METAR KSEA 240353Z 20005KT 10SM BKN015 OVC030 08/04 A2978 RMK AO2 SLP092 T00780044=
201811240253 METAR KSEA 240253Z 14003KT 10SM OVC018 08/04 A2975 RMK AO2 SLP081 T00780044 52026=
201811240153 METAR KSEA 240153Z 24004KT 10SM OVC017 08/04 A2972 RMK AO2 SLP071 T00830039=
201811240053 METAR KSEA 240053Z VRB03KT 10SM BKN016 BKN020 08/04 A2970 RMK AO2 SLP064 T00830044=
201811240012 SPECI KSEA 240012Z 21007KT 10SM BKN016 OVC032 09/05 A2968 RMK AO2 T00890050=
201811232353 METAR KSEA 232353Z 22005KT 10SM FEW017 BKN034 09/06 A2967 RMK AO2 SLP054 T00890056 10094 20083 53013=
201811232320 SPECI KSEA 232320Z 22008KT 10SM SCT029 BKN041 09/06 A2965 RMK AO2 T00940056=
201811232253 METAR KSEA 232253Z 23009KT 10SM FEW015 BKN029 OVC035 09/06 A2965 RMK AO2 SLP046 T00940056=
201811232153 METAR KSEA 232153Z 21011KT 10SM FEW011 BKN016 OVC027 09/06 A2963 RMK AO2 SLP041 T00940061=
201811232137 SPECI KSEA 232137Z 21010KT 10SM SCT012 BKN027 BKN090 09/06 A2963 RMK AO2 T00940061=
201811232115 SPECI KSEA 232115Z 19012KT 10SM SCT012 BKN080 BKN110 09/06 A2963 RMK AO2 T00890056=
201811232053 METAR KSEA 232053Z 20010KT 10SM BKN011 BKN050 BKN130 09/06 A2963 RMK AO2 SLP040 T00940061 58014=
201811232038 SPECI KSEA 232038Z 19016G19KT 10SM SCT011 BKN020 BKN060 09/06 A2963 RMK AO2 T00940061=
201811231953 METAR KSEA 231953Z 19010KT 10SM SCT012 BKN032 BKN041 09/06 A2964 RMK AO2 SLP043 T00890061=
201811231949 SPECI KSEA 231949Z 19010KT 10SM SCT012 BKN032 BKN041 09/06 A2964 RMK AO2=
201811231853 METAR KSEA 231853Z 18010KT 10SM FEW009 BKN025 OVC040 09/06 A2966 RMK AO2 SLP052 T00890056=
201811231826 SPECI KSEA 231826Z 18012KT 7SM FEW009 BKN028 OVC040 08/06 A2967 RMK AO2 T00830056=
201811231753 METAR KSEA 231753Z 17011KT 10SM FEW009 BKN032 BKN050 08/06 A2967 RMK AO2 RAB34E44 SLP054 P0000 60025 T00830056 10083 20072 58010=
201811231653 METAR KSEA 231653Z 16011KT 10SM FEW009 BKN030 BKN049 08/06 A2968 RMK AO2 RAE33 SLP059 P0009 T00780056=
201811231629 SPECI KSEA 231629Z 16012KT 10SM -RA FEW009 BKN030 BKN075 07/06 A2968 RMK AO2 P0009 T00720056=
201811231553 METAR KSEA 231553Z 21007KT 5SM RA BR FEW009 BKN018 OVC032 08/06 A2970 RMK AO2 SLP064 P0007 T00780061=
201811231549 SPECI KSEA 231549Z 21007KT 5SM -RA BR FEW009 BKN018 OVC032 08/06 A2970 RMK AO2 P0005=
201811231453 METAR KSEA 231453Z 20008KT 9SM -RA FEW009 SCT026 OVC035 08/06 A2970 RMK AO2 RAB05 SLP065 P0005 60009 T00780061 56007=
201811231434 SPECI KSEA 231434Z 19010KT 7SM -RA FEW009 SCT025 OVC037 08/06 A2970 RMK AO2 RAB05 P0003 T00780061=
201811231411 SPECI KSEA 231411Z 19012KT 9SM -RA FEW009 BKN015 OVC039 08/06 A2971 RMK AO2 RAB05 P0001 T00780061=
201811231353 METAR KSEA 231353Z 18010KT 10SM FEW014 SCT029 OVC041 08/06 A2970 RMK AO2 RAE16 SLP067 P0002 T00780056=
201811231346 SPECI KSEA 231346Z 18010KT 10SM FEW014 SCT029 OVC041 08/06 A2971 RMK AO2 RAE16 P0002 T00780056=
201811231338 SPECI KSEA 231338Z 19009KT 10SM FEW014 BKN029 OVC041 08/06 A2971 RMK AO2 RAE16 P0002 T00780056=
201811231315 SPECI KSEA 231315Z 19011KT 10SM -RA FEW010 BKN014 OVC029 08/06 A2971 RMK AO2 P0002 T00780061=
201811231253 METAR KSEA 231253Z 16009KT 5SM -RA BR BKN022 BKN026 OVC034 07/06 A2971 RMK AO2 SLP068 P0002 T00720056=
201811231153 METAR KSEA 231153Z 17004KT 8SM -RA SCT020 BKN026 OVC034 07/05 A2972 RMK AO2 SLP072 P0003 60021 70047 T00720050 10083 20072 50004=
201811231053 METAR KSEA 231053Z 16008KT 9SM -RA BKN030 OVC038 07/06 A2973 RMK AO2 RAE0959B26 SLP074 P0001 T00720056=
201811230953 METAR KSEA 230953Z 18010KT 10SM -RA BKN035 OVC046 08/06 A2973 RMK AO2 RAE00B21 SLP073 P0001 T00780056=
201811230853 METAR KSEA 230853Z 18012KT 5SM -RA BR FEW011 SCT024 OVC035 08/06 A2971 RMK AO2 RAB29 SLP068 P0004 60016 T00780056 51012=
201811230753 METAR KSEA 230753Z 16013G20KT 10SM FEW013 SCT040 OVC047 08/06 A2970 RMK AO2 RAB08E50 SLP063 P0005 T00780056 401110072=
201811230735 SPECI KSEA 230735Z 17013KT 7SM -RA FEW013 BKN030 OVC042 08/06 A2970 RMK AO2 RAB08 P0004 T00780061=
201811230653 METAR KSEA 230653Z 19007KT 10SM FEW011 BKN016 OVC035 08/06 A2969 RMK AO2 RAB03E39 SLP062 P0007 T00780061=
201811230553 METAR KSEA 230553Z 19012KT 10SM SCT040 BKN048 08/06 A2967 RMK AO2 SLP055 60004 T00780056 10089 20072 51019=
201811230453 METAR KSEA 230453Z 18011KT 10SM FEW012 SCT026 BKN037 08/06 A2965 RMK AO2 RAB02E36 SLP048 P0002 T00780056=
201811230353 METAR KSEA 230353Z 19012KT 10SM SCT040 BKN050 OVC070 08/06 A2965 RMK AO2 SLP046 T00780056=
201811230253 METAR KSEA 230253Z 19010KT 10SM FEW012 SCT025 BKN036 08/06 A2962 RMK AO2 SLP036 60002 T00830056 53023=
201811230208 SPECI KSEA 230208Z 19012KT 10SM SCT012 SCT022 BKN036 08/06 A2960 RMK AO2 T00780056=
201811230158 SPECI KSEA 230158Z 20011KT 10SM BKN012 BKN026 BKN036 08/06 A2960 RMK AO2 T00780056=
201811230153 METAR KSEA 230153Z 20013KT 10SM SCT012 SCT026 OVC038 08/06 A2959 RMK AO2 PK WND 18027/0102 RAB05E17 SLP027 P0000 T00780056=
201811230128 SPECI KSEA 230128Z 22013G20KT 10SM SCT015 BKN030 OVC050 08/05 A2958 RMK AO2 PK WND 18027/0102 RAB05E17 P0000 T00780050=
201811230053 METAR KSEA 230053Z 19017G25KT 7SM BKN020 BKN026 OVC033 09/06 A2955 RMK AO2 RAE49 SLP014 P0002 T00890056=
201811230050 SPECI KSEA 230050Z 19016G22KT 7SM SCT020 BKN026 OVC033 09/06 A2955 RMK AO2 RAE49 P0002=
201811222353 METAR KSEA 222353Z 21004KT 5SM -RA BR FEW009 OVC036 09/07 A2953 RMK AO2 SLP006 P0011 60020 T00890072 10111 20089 53007=
201811222339 SPECI KSEA 222339Z 23007KT 3SM -RA BR FEW008 OVC036 09/07 A2953 RMK AO2 P0008 T00890072=
201811222253 METAR KSEA 222253Z 29005KT 5SM -RA BR OVC040 09/07 A2950 RMK AO2 SLP995 P0009 T00890072=
201811222153 METAR KSEA 222153Z 00000KT 7SM -RA OVC050 11/06 A2948 RMK AO2 RAB03 SLP988 P0000 T01060056=
201811222053 METAR KSEA 222053Z 11008KT 10SM FEW060 OVC085 11/06 A2951 RMK AO2 SLP998 T01060056 58042=
201811221953 METAR KSEA 221953Z 11010KT 10SM SCT055 BKN100 OVC200 11/06 A2955 RMK AO2 PRESFR SLP015 T01060061=
201811221853 METAR KSEA 221853Z 11010KT 10SM FEW009 FEW040 OVC190 10/06 A2960 RMK AO2 SLP030 T01000061=
201811221753 METAR KSEA 221753Z 11005KT 10SM FEW009 FEW040 BKN200 10/07 A2963 RMK AO2 SLP041 60002 T01000067 10106 20089 58015=
201811221653 METAR KSEA 221653Z 13006KT 10SM FEW009 BKN041 BKN060 10/07 A2966 RMK AO2 RAE1557 SLP050 P0000 T01000072=
201811221626 SPECI KSEA 221626Z 13009KT 10SM FEW016 BKN033 BKN060 09/07 A2966 RMK AO2 RAE1557 P0000 T00940072=
201811221553 METAR KSEA 221553Z 14008KT 10SM -RA FEW016 BKN028 BKN055 09/07 A2967 RMK AO2 RAB08E17B37 SLP055 P0000 T00940072=
201811221521 SPECI KSEA 221521Z 14005KT 10SM FEW014 BKN025 OVC039 09/08 A2968 RMK AO2 RAB08E17 P0000 T00940078=
201811221453 METAR KSEA 221453Z 17008KT 10SM FEW009 BKN031 BKN060 09/07 A2968 RMK AO2 SLP056 60002 T00940072 51007=
201811221412 SPECI KSEA 221412Z 16009KT 10SM FEW009 SCT027 BKN040 09/07 A2968 RMK AO2 T00940072=
201811221353 METAR KSEA 221353Z 17010KT 10SM FEW014 BKN027 OVC038 09/07 A2967 RMK AO2 SLP055 T00940072=
201811221342 SPECI KSEA 221342Z 17009KT 10SM FEW014 BKN027 OVC038 09/07 A2967 RMK AO2 T00940072=
201811221253 METAR KSEA 221253Z 18011KT 10SM BKN030 OVC036 09/07 A2966 RMK AO2 RAE15 SLP052 P0002 T00940072=
201811221153 METAR KSEA 221153Z 19012KT 7SM -RA SCT033 OVC046 09/08 A2966 RMK AO2 SLP049 P0007 60015 70021 T00940078 10100 20083 51006=
201811221053 METAR KSEA 221053Z 19011G16KT 7SM -RA BKN036 OVC046 10/08 A2966 RMK AO2 RAE0956B22 SLP049 P0002 T01000078=
201811220953 METAR KSEA 220953Z 20009KT 10SM -RA BKN036 OVC044 10/07 A2964 RMK AO2 RAB24 SLP043 P0000 T01000067=
201811220853 METAR KSEA 220853Z 15006KT 10SM BKN046 OVC050 09/05 A2964 RMK AO2 RAE41 SLP043 P0002 60006 T00940050 58019=
201811220753 METAR KSEA 220753Z 14004KT 7SM -RA SCT045 OVC055 09/06 A2966 RMK AO2 RAE16B42 SLP049 P0001 T00890056 401170083=
201811220653 METAR KSEA 220653Z 13004KT 8SM -RA SCT042 OVC050 09/05 A2968 RMK AO2 SLP057 P0003 T00940050=
201811220553 METAR KSEA 220553Z 00000KT 6SM -RA BKN040 OVC050 09/05 A2969 RMK AO2 SLP061 P0004 60004 T00890050 10106 20089 56012=
201811220453 METAR KSEA 220453Z 00000KT 8SM -RA OVC044 10/04 A2970 RMK AO2 RAB49 SLP064 P0000 T01000039=
201811220353 METAR KSEA 220353Z 00000KT 10SM OVC049 11/04 A2971 RMK AO2 SLP069 T01060039=
201811220253 METAR KSEA 220253Z 00000KT 10SM BKN055 OVC075 09/06 A2973 RMK AO2 SLP074 T00940061 56008=
201811220153 METAR KSEA 220153Z 00000KT 10SM FEW046 BKN060 OVC080 09/07 A2973 RMK AO2 SLP076 T00940067=
201811220053 METAR KSEA 220053Z 27003KT 10SM OVC047 09/06 A2973 RMK AO2 SLP075 T00940061=
201811212353 METAR KSEA 212353Z 15007KT 10SM OVC046 11/06 A2975 RMK AO2 SLP082 60002 T01060056 10106 20089 58003=
201811212253 METAR KSEA 212253Z 12005KT 10SM BKN038 OVC070 11/06 A2975 RMK AO2 RAE16 SLP082 P0000 T01060061=
201811212153 METAR KSEA 212153Z 22004KT 10SM -RA BKN055 OVC070 09/07 A2977 RMK AO2 RAE32B50 SLP087 P0000 T00940067=
201811212053 METAR KSEA 212053Z 13009KT 10SM -RA FEW040 OVC060 09/07 A2976 RMK AO2 RAE02B50 SLP085 P0000 60002 T00940072 58008=
201811211953 METAR KSEA 211953Z 19004KT 8SM -RA FEW040 BKN060 OVC070 10/05 A2978 RMK AO2 SLP090 P0002 T01000050=
201811211853 METAR KSEA 211853Z 00000KT 9SM -RA FEW055 OVC070 09/06 A2979 RMK AO2 RAB50 SLP094 P0000 T00940056=
201811211753 METAR KSEA 211753Z 26007KT 10SM OVC060 09/05 A2979 RMK AO2 SLP094 T00940050 10117 20089 53004=
201811211653 METAR KSEA 211653Z 22003KT 10SM BKN060 OVC080 09/04 A2978 RMK AO2 SLP091 T00940044=
201811211553 METAR KSEA 211553Z 14004KT 10SM FEW060 OVC075 11/01 A2977 RMK AO2 SLP085 T01060006=
201811211453 METAR KSEA 211453Z 19003KT 10SM FEW060 OVC085 10/01 A2977 RMK AO2 SLP090 T01000006 55018=
201811211353 METAR KSEA 211353Z 10008KT 10SM BKN070 OVC090 12/M02 A2977 RMK AO2 PRESFR SLP086 T01171017=
201811211253 METAR KSEA 211253Z 11004KT 10SM OVC100 10/00 A2980 RMK AO2 SLP097 T01000000=
201811211153 METAR KSEA 211153Z 24003KT 10SM BKN060 BKN075 OVC095 10/M01 A2983 RMK AO2 SLP108 T01001006 10122 20072 58014=
201811211053 METAR KSEA 211053Z 10010KT 10SM BKN070 OVC085 10/00 A2985 RMK AO2 SLP117 T01000000=
201811210953 METAR KSEA 210953Z 14008KT 10SM BKN120 10/01 A2987 RMK AO2 SLP122 T01000011=
201811210853 METAR KSEA 210853Z 14008KT 10SM BKN140 10/02 A2987 RMK AO2 SLP122 T01000017 53005=
201811210753 METAR KSEA 210753Z 13009KT 10SM BKN130 10/02 A2986 RMK AO2 SLP119 T01000022 401280011=
201811210653 METAR KSEA 210653Z 16005KT 10SM BKN210 07/04 A2986 RMK AO2 SLP120 T00720039=
201811210553 METAR KSEA 210553Z 15006KT 10SM OVC200 11/M01 A2986 RMK AO2 SLP118 T01061006 10128 20083 55002=
201811210453 METAR KSEA 210453Z 13008KT 10SM BKN220 11/01 A2984 RMK AO2 SLP114 T01060006=
201811210353 METAR KSEA 210353Z 14009KT 10SM BKN200 12/M01 A2986 RMK AO2 SLP119 T01171011=
201811210253 METAR KSEA 210253Z 14006KT 10SM BKN200 11/M01 A2986 RMK AO2 SLP120 T01111006 56012=
201811210153 METAR KSEA 210153Z 12006KT 10SM BKN200 12/01 A2987 RMK AO2 SLP123 T01170006=
201811210053 METAR KSEA 210053Z 12006KT 10SM SCT160 BKN250 12/02 A2988 RMK AO2 SLP127 T01170017=
201811202353 METAR KSEA 202353Z 00000KT 10SM SCT160 BKN250 11/03 A2990 RMK AO2 SLP133 T01060028 10111 20044 57010=
201811202253 METAR KSEA 202253Z 00000KT 10SM FEW180 BKN250 11/02 A2991 RMK AO2 SLP137 T01060022=
201811202153 METAR KSEA 202153Z 18004KT 10SM FEW180 BKN250 10/03 A2992 RMK AO2 SLP139 T01000033=
201811202053 METAR KSEA 202053Z 16004KT 10SM FEW180 BKN250 11/05 A2993 RMK AO2 SLP142 T01060050 58015=
201811201953 METAR KSEA 201953Z 24005KT 10SM BCFG FEW002 BKN250 09/06 A2995 RMK AO2 SLP149 T00890056=
201811201941 SPECI KSEA 201941Z 26005KT 4SM BCFG FEW002 BKN250 08/07 A2995 RMK AO2 T00830067=
201811201853 METAR KSEA 201853Z 00000KT 1 1/2SM BR FEW001 SCT250 07/06 A2996 RMK AO2 TWR VIS 10 SLP155 T00670061=
201811201835 SPECI KSEA 201835Z 00000KT 1 1/2SM R16L/1200VP6000FT BR SCT001 SCT250 06/05 A2997 RMK AO2 TWR VIS 10 T00560050=
201811201822 SPECI KSEA 201822Z 20003KT 1/2SM R16L/1000V4500FT FG BKN001 BKN250 06/05 A2997 RMK AO2 TWR VIS 10 T00560050=
201811201753 METAR KSEA 201753Z 00000KT 1/8SM R16L/0400V0500FT FG OVC001 04/04 A2997 RMK AO2 TWR VIS 10 SLP158 T00440039 10050 20011 58002=
201811201708 SPECI KSEA 201708Z 20003KT 1/8SM R16L/0400FT FG VV001 04/04 A2998 RMK AO2 TWR VIS 10 T00440039=
201811201653 METAR KSEA 201653Z 00000KT 1/4SM R16L/0300V0400FT FG OVC001 04/03 A2998 RMK AO2 TWR VIS 10 SLP161 T00440033=
201811201624 SPECI KSEA 201624Z 00000KT 1/4SM R16L/0400V0500FT FG BKN001 BKN200 03/02 A2998 RMK AO2 TWR VIS 10 T00330022=
201811201609 SPECI KSEA 201609Z 00000KT 1/4SM R16L/0400V0700FT FG SCT001 SCT200 03/03 A2998 RMK AO2 TWR VIS 10 T00330033=
201811201553 METAR KSEA 201553Z 00000KT 1/2SM R16L/1600V3500FT FG SCT001 SCT200 03/03 A2998 RMK AO2 TWR VIS 10 SLP163 T00330028=
201811201547 SPECI KSEA 201547Z 00000KT 1/2SM R16L/1600VP6000FT FG SCT001 SCT200 03/03 A2998 RMK AO2 TWR VIS 10=
201811201539 SPECI KSEA 201539Z 00000KT 1/4SM R16L/0700VP6000FT FG BKN001 03/02 A2998 RMK AO2 TWR VIS 10 T00330022=
201811201453 METAR KSEA 201453Z 00000KT 1/8SM R16L/0300V0400FT FG VV001 02/01 A2998 RMK AO2 TWR VIS 10 SLP161 T00220011 56010 $=
201811201447 SPECI KSEA 201447Z 00000KT 1/8SM R16L/0300V0400FT FG VV001 02/01 A2998 RMK AO2 TWR VIS 10 $=
201811201438 SPECI KSEA 201438Z 00000KT 1/4SM R16L/0300V0400FT FG BKN001 02/01 A2999 RMK AO2 TWR VIS 10 T00170011 $=
201811201436 SPECI KSEA 201436Z 00000KT 4SM R16L/0300V0800FT BCFG BKN001 02/01 A2999 RMK AO2 T00170011 $=
201811201353 METAR KSEA 201353Z 34004KT 4SM R16L/2000VP6000FT BCFG FEW001 02/01 A2999 RMK AO2 SLP164 T00170006 $=
201811201348 SPECI KSEA 201348Z 35003KT 4SM R16L/2000VP6000FT BCFG FEW001 02/01 A2999 RMK AO2 $=
201811201334 SPECI KSEA 201334Z 32003KT 3/4SM R16L/P6000FT BR SCT001 02/01 A2999 RMK AO2 TWR VIS 7 VIS S-SW 2SM T00220011 $=
201811201306 SPECI KSEA 201306Z 04003KT 1/2SM R16L/0500V3500FT FG BKN001 03/02 A3000 RMK AO2 TWR VIS 7 VIS S 3/4 T00280017 $=
201811201253 METAR KSEA 201253Z 00000KT 1/16SM R16L/0300V0400FT FG VV001 03/02 A3000 RMK AO2 TWR VIS 7 SLP166 T00280017 $=
201811201239 SPECI KSEA 201239Z 00000KT 1/16SM R16L/0400FT FG VV001 03/03 A3000 RMK AO2 TWR VIS 7 T00330028=
201811201205 SPECI KSEA 201205Z 00000KT 1/4SM R16L/0600V1600FT FG VV001 04/03 A3001 RMK AO2 T00390033=
201811201153 METAR KSEA 201153Z 00000KT 1/8SM R16L/1600VP6000FT FG VV001 04/03 A3001 RMK AO2 SLP171 T00390028 10094 20028 58007=
201811201138 SPECI KSEA 201138Z 30003KT 1/8SM R16L/0500V2600FT FG VV001 03/03 A3001 RMK AO2 T00330028=
201811201103 SPECI KSEA 201103Z 00000KT 1/8SM R16L/0400V0500FT FG VV001 04/03 A3002 RMK AO2 T00390033=
201811201101 SPECI KSEA 201101Z 00000KT 1/4SM R16L/0400V1000FT FG BKN001 04/03 A3002 RMK AO2 T00390033=
201811201053 METAR KSEA 201053Z 29003KT 1/4SM R16L/0700V2400FT FG BKN001 03/03 A3002 RMK AO2 SLP175 VIS S-W 1/2 FG BANK S-W T00330028=
201811201041 SPECI KSEA 201041Z 00000KT 3SM R16L/2400VP6000FT BR SCT001 03/02 A3002 RMK AO2 VIS S-W 1/2 FG BANK S-W T00280017=
201811200953 METAR KSEA 200953Z 00000KT 6SM BR CLR 03/02 A3003 RMK AO2 SLP178 T00330022=
201811200853 METAR KSEA 200853Z 00000KT 7SM R16L/2000VP6000FT BCFG FEW001 06/04 A3003 RMK AO2 SLP178 T00560039 58003=
201811200846 SPECI KSEA 200846Z VRB03KT 7SM BCFG FEW001 05/03 A3003 RMK AO2 T00500033=
201811200817 SPECI KSEA 200817Z 00000KT 3/4SM R16L/0800V4500FT BR SCT001 04/03 A3004 RMK AO2 T00440028=
201811200815 SPECI KSEA 200815Z 00000KT 3/4SM R16L/0800V2000FT BCFG VV001 04/03 A3004 RMK AO2 T00390028=
201811200804 SPECI KSEA 200804Z 17004KT 3SM R16L/1000VP6000FT BR FEW001 04/03 A3004 RMK AO2 T00390028=
201811200802 SPECI KSEA 200802Z 18003KT 1 3/4SM R16L/1400VP6000FT BR FEW001 04/03 A3004 RMK AO2 T00440033=
201811200753 METAR KSEA 200753Z 00000KT 7SM CLR 06/04 A3004 RMK AO2 SLP179 T00610044 401220011=
201811200653 METAR KSEA 200653Z 27003KT 10SM CLR 06/04 A3004 RMK AO2 SLP180 T00610039=
201811200553 METAR KSEA 200553Z VRB05KT 10SM CLR 08/03 A3004 RMK AO2 SLP180 T00830033 10111 20056 57005=
201811200453 METAR KSEA 200453Z VRB04KT 10SM CLR 07/04 A3005 RMK AO2 SLP182 T00720044=
201811200353 METAR KSEA 200353Z 31003KT 10SM CLR 07/05 A3005 RMK AO2 SLP186 T00670050=
201811200253 METAR KSEA 200253Z 30003KT 9SM CLR 07/05 A3006 RMK AO2 SLP187 T00670050 56003=
201811200153 METAR KSEA 200153Z 00000KT 8SM CLR 07/05 A3006 RMK AO2 SLP188 T00720050=
201811200053 METAR KSEA 200053Z 00000KT 10SM CLR 08/06 A3006 RMK AO2 SLP188 T00830056=
201811192353 METAR KSEA 192353Z 00000KT 10SM CLR 11/05 A3007 RMK AO2 SLP190 T01110050 10122 20078 56013=
201811192253 METAR KSEA 192253Z 29003KT 10SM FEW250 11/06 A3007 RMK AO2 SLP192 T01110056=
201811192153 METAR KSEA 192153Z 26004KT 10SM FEW250 12/06 A3008 RMK AO2 SLP196 T01170056=
201811192053 METAR KSEA 192053Z 26004KT 10SM FEW009 FEW250 10/06 A3011 RMK AO2 SLP203 T01000056 58017=
201811191953 METAR KSEA 191953Z 27006KT 10SM FEW007 10/06 A3012 RMK AO2 SLP208 T01000056=
201811191853 METAR KSEA 191853Z 26003KT 10SM FEW003 09/05 A3015 RMK AO2 SLP216 T00890050=
201811191753 METAR KSEA 191753Z 00000KT 10SM FEW003 FEW250 08/04 A3016 RMK AO2 SLP220 T00780044 10078 20011 51008=
201811191653 METAR KSEA 191653Z 00000KT 10SM BCFG FEW002 07/04 A3015 RMK AO2 SLP218 T00670039=
201811191553 METAR KSEA 191553Z 01003KT 8SM BCFG FEW001 FEW250 03/02 A3014 RMK AO2 SLP216 T00330017=
201811191453 METAR KSEA 191453Z 01003KT 6SM BCFG FEW001 02/01 A3013 RMK AO2 SLP213 T00170006 58003=
201811191353 METAR KSEA 191353Z 00000KT 5SM BR FEW005 02/01 A3014 RMK AO2 SLP215 T00220006=
201811191345 SPECI KSEA 191345Z 00000KT 5SM BR FEW005 02/01 A3014 RMK AO2 T00220011=
201811191253 METAR KSEA 191253Z 35003KT 8SM CLR 02/01 A3014 RMK AO2 SLP213 T00220011=
201811191153 METAR KSEA 191153Z 34003KT 7SM CLR 03/01 A3014 RMK AO2 SLP215 T00280011 10061 20022 58005=
201811191053 METAR KSEA 191053Z 00000KT 7SM CLR 03/01 A3015 RMK AO2 SLP218 T00330011=
201811190953 METAR KSEA 190953Z 00000KT 10SM CLR 04/01 A3015 RMK AO2 SLP217 T00390011=
201811190853 METAR KSEA 190853Z 00000KT 10SM CLR 04/02 A3016 RMK AO2 SLP219 T00440017 50003=
201811190753 METAR KSEA 190753Z 36004KT 10SM CLR 04/01 A3016 RMK AO2 SLP221 T00440011 401280033=
201811190653 METAR KSEA 190653Z 01004KT 10SM CLR 05/01 A3015 RMK AO2 SLP219 T00500006=
201811190553 METAR KSEA 190553Z 01004KT 10SM CLR 07/01 A3015 RMK AO2 SLP217 T00670006 10106 20056 53002=
201811190453 METAR KSEA 190453Z 02007KT 10SM CLR 07/01 A3014 RMK AO2 SLP216 T00670006=
201811190353 METAR KSEA 190353Z 01006KT 10SM CLR 07/01 A3014 RMK AO2 SLP215 T00670006=
201811190253 METAR KSEA 190253Z 01008KT 10SM CLR 08/01 A3014 RMK AO2 SLP215 T00780011 58002=
201811190153 METAR KSEA 190153Z 36008KT 10SM CLR 08/02 A3014 RMK AO2 SLP216 T00780017=
201811190053 METAR KSEA 190053Z 33004KT 10SM CLR 09/00 A3014 RMK AO2 SLP215 T00890000=
201811182353 METAR KSEA 182353Z 29006KT 10SM CLR 11/02 A3015 RMK AO2 SLP216 T01060017 10128 20072 56008=
201811182253 METAR KSEA 182253Z 34004KT 10SM CLR 12/02 A3015 RMK AO2 SLP217 T01220017=
201811182153 METAR KSEA 182153Z 36004KT 10SM CLR 12/01 A3016 RMK AO2 SLP220 T01220006=
201811182053 METAR KSEA 182053Z 00000KT 10SM CLR 12/01 A3017 RMK AO2 SLP224 T01170006 58010=
201811181953 METAR KSEA 181953Z 02003KT 10SM CLR 11/01 A3018 RMK AO2 SLP228 T01110006=
201811181853 METAR KSEA 181853Z 01004KT 10SM FEW230 09/01 A3020 RMK AO2 SLP234 T00940011=
201811181753 METAR KSEA 181753Z 02007KT 10SM FEW230 07/01 A3020 RMK AO2 SLP235 T00720006 10078 20033 50000=
201811181653 METAR KSEA 181653Z 36007KT 10SM SCT230 06/01 A3020 RMK AO2 SLP235 T00560006=
201811181553 METAR KSEA 181553Z 01007KT 10SM SCT220 04/01 A3020 RMK AO2 SLP235 T00390011=
201811181453 METAR KSEA 181453Z 02009KT 10SM FEW170 03/00 A3020 RMK AO2 SLP235 T00330000 55004=
201811181353 METAR KSEA 181353Z VRB05KT 10SM CLR 04/01 A3019 RMK AO2 SLP233 T00390011=
201811181253 METAR KSEA 181253Z 03008KT 10SM CLR 04/02 A3020 RMK AO2 SLP235 T00440017=
201811181153 METAR KSEA 181153Z 03011KT 10SM CLR 04/02 A3021 RMK AO2 SLP237 T00440017 10067 20033 58002=
201811181053 METAR KSEA 181053Z 01009KT 10SM CLR 04/01 A3022 RMK AO2 SLP239 T00440011=
201811180953 METAR KSEA 180953Z 01007KT 10SM CLR 04/02 A3022 RMK AO2 SLP240 T00440017=
201811180853 METAR KSEA 180853Z 03008KT 10SM CLR 05/01 A3022 RMK AO2 SLP240 T00500011 55004=
201811180753 METAR KSEA 180753Z 02009KT 10SM CLR 06/01 A3022 RMK AO2 SLP239 T00560011 401280050=
201811180653 METAR KSEA 180653Z 02008KT 10SM CLR 06/01 A3022 RMK AO2 SLP241 T00560011=
201811180553 METAR KSEA 180553Z 02012KT 10SM CLR 07/01 A3023 RMK AO2 SLP244 T00670006 10111 20067 56005=
201811180453 METAR KSEA 180453Z 03011KT 10SM CLR 07/01 A3023 RMK AO2 SLP246 T00670006=
201811180353 METAR KSEA 180353Z 02013KT 10SM CLR 07/01 A3024 RMK AO2 SLP247 T00720011=
201811180253 METAR KSEA 180253Z 02013KT 10SM CLR 08/01 A3024 RMK AO2 SLP249 T00780006 51001=
201811180153 METAR KSEA 180153Z 01017KT 10SM CLR 08/01 A3024 RMK AO2 SLP249 T00830006=
201811180053 METAR KSEA 180053Z 01011KT 10SM FEW250 09/02 A3024 RMK AO2 SLP249 T00890017=
201811172353 METAR KSEA 172353Z 03014KT 10SM FEW250 12/02 A3024 RMK AO2 SLP247 T01170022 10128 20083 58012=
201811172253 METAR KSEA 172253Z 01011KT 10SM FEW250 12/02 A3025 RMK AO2 SLP252 T01170022=
201811172153 METAR KSEA 172153Z 01012KT 10SM FEW250 12/02 A3026 RMK AO2 SLP255 T01220022=
201811172053 METAR KSEA 172053Z 01013KT 10SM FEW250 12/02 A3027 RMK AO2 SLP259 T01220017 58013=
201811171953 METAR KSEA 171953Z 01011KT 10SM CLR 11/02 A3029 RMK AO2 SLP265 T01110022=
201811171853 METAR KSEA 171853Z 36008KT 10SM CLR 10/03 A3030 RMK AO2 SLP269 T01000028=
201811171753 METAR KSEA 171753Z 02012KT 10SM CLR 08/03 A3031 RMK AO2 SLP272 T00830033 10083 20050 50007=
201811171653 METAR KSEA 171653Z 35009KT 8SM FEW002 07/05 A3031 RMK AO2 SLP273 T00720050=
201811171553 METAR KSEA 171553Z 01012KT 7SM SCT002 06/04 A3030 RMK AO2 SLP267 T00610044=
201811171453 METAR KSEA 171453Z 01012KT 8SM SCT003 06/04 A3029 RMK AO2 SLP265 T00560039 50003=
201811171444 SPECI KSEA 171444Z 36009KT 8SM FEW003 06/04 A3029 RMK AO2 T00560039=
201811171353 METAR KSEA 171353Z 02011KT 10SM CLR 06/03 A3029 RMK AO2 SLP265 T00610033=
201811171253 METAR KSEA 171253Z 03017KT 10SM CLR 07/03 A3028 RMK AO2 SLP262 T00670028=
201811171153 METAR KSEA 171153Z 02011KT 10SM CLR 07/04 A3028 RMK AO2 SLP262 70002 T00670039 10094 20067 50002=
201811171053 METAR KSEA 171053Z 03010KT 10SM FEW030 07/04 A3029 RMK AO2 SLP263 T00720044=
201811170953 METAR KSEA 170953Z 05010KT 10SM FEW030 08/05 A3028 RMK AO2 SLP262 T00780050=
201811170853 METAR KSEA 170853Z 02009KT 10SM FEW030 08/06 A3028 RMK AO2 SLP260 T00780056 53007=
201811170753 METAR KSEA 170753Z 36009KT 10SM FEW030 08/06 A3027 RMK AO2 SLP257 T00780056 401280078=
201811170653 METAR KSEA 170653Z 02014KT 10SM FEW025 09/06 A3026 RMK AO2 SLP254 T00890056=
201811170553 METAR KSEA 170553Z 02012KT 10SM FEW025 SCT050 09/06 A3025 RMK AO2 SLP253 T00940056 10117 20094 52008=
201811170453 METAR KSEA 170453Z 36014KT 10SM FEW025 09/06 A3024 RMK AO2 SLP248 T00940056=
201811170447 SPECI KSEA 170447Z 36012KT 10SM SCT024 09/06 A3024 RMK AO2=
201811170353 METAR KSEA 170353Z 36012KT 10SM BKN023 10/06 A3024 RMK AO2 SLP248 T01000061=
201811170253 METAR KSEA 170253Z 36010KT 10SM OVC016 11/07 A3023 RMK AO2 SLP244 T01060072 53001=
201811170227 SPECI KSEA 170227Z 36011KT 10SM OVC015 11/07 A3023 RMK AO2 T01060072=
201811170153 METAR KSEA 170153Z 02011KT 10SM OVC013 11/07 A3022 RMK AO2 SLP241 T01060072=
201811170053 METAR KSEA 170053Z 01010KT 10SM BKN018 11/07 A3023 RMK AO2 SLP242 T01110072=
201811162353 METAR KSEA 162353Z 36011KT 10SM BKN016 11/07 A3023 RMK AO2 SLP242 T01110072 10128 20111 53001=
201811162342 SPECI KSEA 162342Z 36008KT 10SM BKN015 11/07 A3022 RMK AO2 T01110072=
201811162253 METAR KSEA 162253Z 02011KT 10SM BKN012 12/08 A3022 RMK AO2 SLP240 T01170078=
201811162153 METAR KSEA 162153Z 35010KT 10SM BKN012 BKN040 11/08 A3022 RMK AO2 SLP241 T01110083=
201811162053 METAR KSEA 162053Z 35011KT 10SM FEW007 OVC011 12/09 A3022 RMK AO2 SLP241 T01170089 58007=
201811161953 METAR KSEA 161953Z 35012KT 10SM FEW006 BKN010 BKN050 13/10 A3023 RMK AO2 SLP243 T01280100=
201811161938 SPECI KSEA 161938Z 35011KT 10SM FEW006 OVC010 12/10 A3023 RMK AO2 T01220100=
201811161853 METAR KSEA 161853Z 35011KT 10SM FEW005 OVC008 12/09 A3024 RMK AO2 SLP247 T01170094=
201811161807 SPECI KSEA 161807Z 36008KT 5SM BR OVC005 11/09 A3024 RMK AO2 T01110094=
201811161753 METAR KSEA 161753Z 36007KT 4SM BR OVC004 11/09 A3024 RMK AO2 SLP248 60002 T01110094 10111 20106 53011=
201811161653 METAR KSEA 161653Z 35007KT 3SM BR OVC003 11/09 A3023 RMK AO2 SFC VIS 3 SLP243 T01060094=
201811161608 SPECI KSEA 161608Z 35007KT 2SM BR OVC003 11/09 A3023 RMK AO2 T01060094=
201811161553 METAR KSEA 161553Z 36006KT 1SM R16L/P6000FT BR OVC002 11/10 A3022 RMK AO2 SFC VIS 1 1/2 RAE1458 SLP241 P0000 T01060100=
201811161532 SPECI KSEA 161532Z 35006KT 1/4SM R16L/1400V2400FT FG VV001 11/10 A3022 RMK AO2 RAE1458 P0000 T01060100=
201811161453 METAR KSEA 161453Z 33005KT 1/4SM R16L/6000VP6000FT -RA BR OVC002 11/10 A3021 RMK AO2 SFC VIS 3/4 RAB47 SLP237 P0000 60002 T01060100 51005=
201811161353 METAR KSEA 161353Z 25003KT 1/4SM R16L/2800VP6000FT FG OVC002 11/10 A3021 RMK AO2 SFC VIS 1/2 RAE42DZB42E48 SLP235 P0001 T01110100=
201811161343 SPECI KSEA 161343Z 26004KT 1/4SM R16L/6000VP6000FT -DZ BR OVC002 11/10 A3020 RMK AO2 SFC VIS 2 RAE42DZB42 P0001 T01110100=
201811161312 SPECI KSEA 161312Z 00000KT 2SM -RA BR OVC002 11/10 A3021 RMK AO2 P0000 T01110100=
201811161253 METAR KSEA 161253Z 00000KT 3SM -RA BR OVC002 11/10 A3021 RMK AO2 RAB11 SLP236 P0001 T01110100=
201811161153 METAR KSEA 161153Z 19004KT 5SM BR OVC002 11/10 A3020 RMK AO2 RAE23 SLP232 P0001 60001 70001 T01110100 10122 20111 55001=
201811161053 METAR KSEA 161053Z 17006KT 4SM -RA BR OVC004 11/10 A3020 RMK AO2 SLP232 P0000 T01110100=
201811161013 SPECI KSEA 161013Z 17004KT 4SM -RA BR BKN004 OVC013 11/10 A3020 RMK AO2 P0000 T01110100=
201811160953 METAR KSEA 160953Z 15008KT 3SM -RA BR FEW005 OVC011 11/10 A3019 RMK AO2 RAB43 SLP228 P0000 T01110100=
201811160853 METAR KSEA 160853Z 16006KT 10SM OVC012 12/08 A3020 RMK AO2 SLP233 T01220083 53001=
201811160753 METAR KSEA 160753Z 18011KT 10SM OVC014 12/08 A3019 RMK AO2 SLP230 T01220078 401280094=
201811160653 METAR KSEA 160653Z 19007KT 10SM OVC015 12/07 A3020 RMK AO2 SLP233 T01220072=
201811160553 METAR KSEA 160553Z 18011KT 10SM OVC016 12/07 A3020 RMK AO2 SLP232 T01220072 10128 20117 56006=
201811160453 METAR KSEA 160453Z 20012G19KT 10SM BKN019 OVC060 12/07 A3020 RMK AO2 SLP233 T01220072=
201811160353 METAR KSEA 160353Z 18009KT 10SM BKN021 OVC070 12/07 A3021 RMK AO2 SLP237 T01170067=
201811160253 METAR KSEA 160253Z 18012KT 10SM OVC021 12/07 A3022 RMK AO2 SLP238 T01220072 58012=
201811160153 METAR KSEA 160153Z 18007KT 10SM OVC024 12/07 A3023 RMK AO2 SLP244 T01220072=
201811160053 METAR KSEA 160053Z 16006KT 10SM BKN027 OVC120 12/07 A3024 RMK AO2 SLP247 T01170072=
201811160024 SPECI KSEA 160024Z 18004KT 10SM BKN027 OVC120 12/07 A3025 RMK AO2 T01220072=
201811152353 METAR KSEA 152353Z 20004KT 10SM FEW024 BKN030 OVC140 12/07 A3025 RMK AO2 SLP250 T01220072 10128 20106 56014=
201811152253 METAR KSEA 152253Z 21008KT 10SM FEW026 BKN140 BKN250 12/07 A3026 RMK AO2 SLP253 T01220072=
201811152153 METAR KSEA 152153Z 25004KT 10SM FEW018 BKN080 BKN200 13/07 A3028 RMK AO2 SLP259 T01280072=
201811152053 METAR KSEA 152053Z 23007KT 10SM FEW026 BKN080 OVC200 12/07 A3029 RMK AO2 SLP265 T01220072 58014=
201811151953 METAR KSEA 151953Z VRB06KT 10SM SCT034 BKN100 BKN240 12/07 A3030 RMK AO2 SLP269 T01220072=
201811151853 METAR KSEA 151853Z 21007KT 160V220 10SM FEW015 SCT034 SCT200 12/07 A3033 RMK AO2 SLP276 T01170072=
201811151753 METAR KSEA 151753Z 19005KT 10SM FEW024 BKN032 BKN200 11/07 A3033 RMK AO2 SLP279 T01060072 10111 20094 58006=
201811151746 SPECI KSEA 151746Z 18005KT 10SM FEW024 BKN032 BKN200 11/07 A3033 RMK AO2 T01110072=
201811151653 METAR KSEA 151653Z 17004KT 10SM FEW023 BKN029 10/07 A3034 RMK AO2 SLP283 T01000072=
201811151640 SPECI KSEA 151640Z 18004KT 10SM FEW023 OVC029 10/07 A3035 RMK AO2 T01000072=
201811151553 METAR KSEA 151553Z 19003KT 10SM FEW024 BKN032 09/07 A3035 RMK AO2 SLP286 T00940072=
201811151453 METAR KSEA 151453Z 14006KT 10SM FEW012 SCT024 BKN031 09/07 A3035 RMK AO2 SLP286 T00940072 58006=
201811151441 SPECI KSEA 151441Z 13008KT 10SM FEW012 SCT023 BKN031 10/07 A3035 RMK AO2 T01000072=
201811151353 METAR KSEA 151353Z 17004KT 10SM FEW012 BKN022 BKN031 09/08 A3037 RMK AO2 SLP290 T00940078=
201811151347 SPECI KSEA 151347Z 17004KT 10SM FEW012 BKN022 BKN031 09/08 A3036 RMK AO2=
201811151324 SPECI KSEA 151324Z 00000KT 9SM FEW015 SCT020 OVC031 09/08 A3037 RMK AO2 T00940078=
201811151253 METAR KSEA 151253Z 00000KT 8SM FEW014 BKN019 OVC029 10/08 A3037 RMK AO2 SLP291 T01000083=
201811151153 METAR KSEA 151153Z 22004KT 7SM SCT015 BKN027 OVC042 10/08 A3037 RMK AO2 RAE19 SLP291 P0001 60002 70013 T01000083 10111 20100 58001=
201811151053 METAR KSEA 151053Z 19003KT 5SM -RA BR OVC015 10/08 A3038 RMK AO2 RAB34 SLP294 P0001 T01000083=
201811150953 METAR KSEA 150953Z 21004KT 10SM OVC016 11/08 A3038 RMK AO2 SLP294 T01060078=
201811150853 METAR KSEA 150853Z 18009KT 8SM OVC014 11/08 A3037 RMK AO2 SLP292 T01060078 58002=
201811150753 METAR KSEA 150753Z 21007KT 9SM OVC013 11/08 A3038 RMK AO2 SLP295 T01060083 401390078=
201811150707 SPECI KSEA 150707Z 19009KT 9SM OVC011 11/08 A3038 RMK AO2 T01110083=
201811150653 METAR KSEA 150653Z 18008KT 9SM OVC009 11/08 A3038 RMK AO2 SLP294 T01110083=
201811150553 METAR KSEA 150553Z 17007KT 8SM OVC009 11/08 A3038 RMK AO2 SLP296 T01110083 10128 20111 53011=
201811150453 METAR KSEA 150453Z 15005KT 8SM OVC009 11/08 A3037 RMK AO2 SLP291 T01110083=
201811150445 SPECI KSEA 150445Z 17006KT 9SM OVC009 11/08 A3036 RMK AO2 T01110083=
201811150353 METAR KSEA 150353Z 18004KT 8SM OVC011 11/09 A3035 RMK AO2 SLP286 T01110089=
201811150306 SPECI KSEA 150306Z 00000KT 9SM OVC013 12/09 A3035 RMK AO2 T01170089=
201811150253 METAR KSEA 150253Z 20004KT 9SM OVC015 12/09 A3035 RMK AO2 SLP284 T01170089 53005=
201811150153 METAR KSEA 150153Z 23004KT 9SM OVC016 12/09 A3034 RMK AO2 SLP281 T01170089=
201811150053 METAR KSEA 150053Z 24009KT 10SM OVC017 12/08 A3034 RMK AO2 SLP280 T01220083=
201811142353 METAR KSEA 142353Z 23007KT 10SM BKN015 BKN060 13/09 A3033 RMK AO2 SLP278 60002 T01280094 10139 20100 51015=
201811142253 METAR KSEA 142253Z 25007KT 10SM BKN015 BKN060 13/09 A3033 RMK AO2 SLP276 T01330094=
201811142153 METAR KSEA 142153Z 19014G20KT 10SM BKN016 BKN080 BKN250 14/09 A3030 RMK AO2 SLP268 T01390094=
201811142138 SPECI KSEA 142138Z 19016G24KT 10SM FEW012 BKN018 BKN080 BKN250 13/10 A3030 RMK AO2 T01330100=
201811142053 METAR KSEA 142053Z 19016KT 10SM SCT016 BKN080 BKN250 13/09 A3029 RMK AO2 SLP264 60002 T01280094 51005=
201811141953 METAR KSEA 141953Z 20017G26KT 7SM FEW007 SCT016 BKN250 13/09 A3029 RMK AO2 PK WND 20026/1950 SLP263 T01280094=
201811141917 SPECI KSEA 141917Z 19017KT 7SM FEW005 SCT016 BKN250 12/09 A3029 RMK AO2 T01170094=
201811141853 METAR KSEA 141853Z 20013KT 3SM BR FEW004 BKN018 BKN030 11/09 A3029 RMK AO2 RAE17 SLP264 P0002 T01060089=
201811141815 SPECI KSEA 141815Z 21003KT 3SM -RA BR FEW003 BKN017 OVC030 10/09 A3030 RMK AO2 P0001 T01000089=
201811141801 SPECI KSEA 141801Z 24006KT 2 1/2SM -RA BR FEW015 BKN023 OVC030 10/08 A3029 RMK AO2 PRESRR P0001 T01000083=
201811141753 METAR KSEA 141753Z 22009KT 2SM R16L/5500VP6000FT -RA BR SCT023 OVC031 10/08 A3027 RMK AO2 SLP258 P0003 60009 T01000083 10100 20083 53013=
201811141746 SPECI KSEA 141746Z 21009KT 2SM R16L/5500VP6000FT -RA BR SCT023 OVC031 09/08 A3027 RMK AO2 P0003 T00940083=
201811141653 METAR KSEA 141653Z 18008KT 3SM -RA BR BKN024 BKN030 OVC038 10/07 A3025 RMK AO2 SLP249 P0004 T01000072=
201811141553 METAR KSEA 141553Z 23006KT 5SM -RA BKN028 OVC037 09/05 A3026 RMK AO2 RAB44 SLP253 P0001 T00940050=
201811141529 SPECI KSEA 141529Z 17006KT 7SM BKN028 OVC075 09/05 A3024 RMK AO2 T00940050=
201811141453 METAR KSEA 141453Z 18006KT 9SM BKN030 BKN075 OVC150 09/04 A3023 RMK AO2 RAB08E24 SLP245 P0001 60001 T00940044 58006=
201811141353 METAR KSEA 141353Z 21012KT 10SM SCT033 SCT065 BKN150 10/03 A3024 RMK AO2 SLP247 T01000028=
201811141253 METAR KSEA 141253Z 19011KT 9SM OVC040 09/03 A3025 RMK AO2 SLP251 T00940033=
201811141153 METAR KSEA 141153Z 20006KT 9SM BKN046 09/03 A3025 RMK AO2 SLP251 60000 T00890028 10094 20078 56017=
201811141053 METAR KSEA 141053Z 24009KT 9SM FEW060 BKN160 08/02 A3026 RMK AO2 SLP253 T00830017=
201811140953 METAR KSEA 140953Z 16007KT 10SM BKN048 BKN060 OVC070 08/03 A3028 RMK AO2 SLP261 T00830028=
201811140853 METAR KSEA 140853Z 30003KT 10SM OVC050 08/03 A3030 RMK AO2 SLP269 60000 T00830033 58001=
201811140753 METAR KSEA 140753Z 20007KT 10SM OVC050 09/03 A3031 RMK AO2 RAB14E27 SLP272 P0000 T00890028 401220039=
201811140653 METAR KSEA 140653Z 24003KT 10SM BKN060 OVC080 09/02 A3030 RMK AO2 RAB22E34 SLP269 P0000 T00890017=
201811140553 METAR KSEA 140553Z 16004KT 10SM OVC100 09/01 A3030 RMK AO2 SLP270 T00890006 10111 20083 53002=
201811140453 METAR KSEA 140453Z 18003KT 10SM BKN100 OVC150 09/01 A3030 RMK AO2 SLP268 T00940006=
201811140353 METAR KSEA 140353Z 20005KT 10SM FEW090 BKN140 OVC200 09/01 A3030 RMK AO2 SLP268 T00940006=
201811140253 METAR KSEA 140253Z 17008KT 10SM FEW090 BKN140 OVC200 10/00 A3030 RMK AO2 SLP269 T01000000 55006=
201811140153 METAR KSEA 140153Z 19010KT 10SM FEW090 SCT150 BKN200 11/M01 A3030 RMK AO2 SLP267 T01061006=
201811140053 METAR KSEA 140053Z 17012KT 10SM FEW085 SCT160 BKN250 11/M01 A3031 RMK AO2 SLP270 T01061011=
201811132353 METAR KSEA 132353Z 19009KT 10SM SCT180 BKN250 11/01 A3032 RMK AO2 SLP274 T01060006 10122 20094 58010=
201811132253 METAR KSEA 132253Z 17006KT 10SM FEW140 BKN180 12/M01 A3033 RMK AO2 SLP277 T01171006=
201811132153 METAR KSEA 132153Z 16008KT 10SM FEW140 BKN200 12/01 A3034 RMK AO2 SLP283 T01170011=
201811132053 METAR KSEA 132053Z 16007KT 10SM SCT140 BKN200 11/01 A3035 RMK AO2 SLP285 T01110006 58009=
201811131953 METAR KSEA 131953Z 16007KT 10SM BKN140 BKN200 11/02 A3036 RMK AO2 SLP288 T01060017=
201811131853 METAR KSEA 131853Z 19007KT 10SM FEW180 BKN250 11/02 A3037 RMK AO2 SLP292 T01110017=
201811131753 METAR KSEA 131753Z 17009KT 10SM SCT220 09/01 A3037 RMK AO2 SLP293 T00940006 10094 20039 51004=
201811131653 METAR KSEA 131653Z 18004KT 10SM SCT220 08/02 A3037 RMK AO2 SLP292 T00780017=
201811131553 METAR KSEA 131553Z 20003KT 10SM BKN220 06/02 A3037 RMK AO2 SLP293 T00560022=
201811131453 METAR KSEA 131453Z 20004KT 10SM BKN230 05/03 A3036 RMK AO2 SLP289 T00500033 53004=
201811131353 METAR KSEA 131353Z 00000KT 10SM SCT250 07/03 A3035 RMK AO2 SLP286 T00720028 $=
201811131253 METAR KSEA 131253Z 15003KT 10SM BKN250 06/02 A3034 RMK AO2 SLP283 T00560022 $=
201811131153 METAR KSEA 131153Z 00000KT 10SM BKN250 07/01 A3035 RMK AO2 SLP286 T00670006 10117 20056 53001 $=
201811131053 METAR KSEA 131053Z 13005KT 10SM BKN250 06/01 A3034 RMK AO2 SLP281 T00560006 $=
201811130953 METAR KSEA 130953Z 25003KT 10SM SCT250 07/M04 A3035 RMK AO2 SLP283 T00671039 $=
201811130853 METAR KSEA 130853Z 16007KT 10SM SCT250 09/M05 A3035 RMK AO2 SLP284 T00891050 58003 $=
201811130753 METAR KSEA 130753Z 13007KT 10SM SCT250 09/M05 A3036 RMK AO2 SLP287 T00941050 401610050 $=
201811130653 METAR KSEA 130653Z 12010KT 10SM BKN250 11/M05 A3036 RMK AO2 SLP286 T01061050 $=
201811130553 METAR KSEA 130553Z 14007KT 10SM BKN250 10/M04 A3036 RMK AO2 SLP289 T01001044 10144 20094 53002 $=
201811130453 METAR KSEA 130453Z 12010KT 10SM BKN250 11/M05 A3034 RMK AO2 SLP283 T01061050 $=
201811130353 METAR KSEA 130353Z 12011KT 10SM BKN250 11/M04 A3035 RMK AO2 SLP287 T01111044 $=
201811130253 METAR KSEA 130253Z 13009G16KT 10SM BKN250 11/M04 A3035 RMK AO2 SLP286 T01111044 58003 $=
201811130153 METAR KSEA 130153Z 11010KT 10SM BKN250 12/M04 A3036 RMK AO2 SLP288 T01171044 $=
201811130053 METAR KSEA 130053Z 11007KT 10SM BKN250 13/M04 A3036 RMK AO2 SLP288 T01281039 $=
201811122353 METAR KSEA 122353Z 11008KT 10SM BKN250 14/M04 A3036 RMK AO2 SLP288 T01441044 10161 20111 55008 $=
201811122253 METAR KSEA 122253Z 10008KT 10SM BKN250 16/M04 A3036 RMK AO2 SLP286 T01561044 $=
201811122153 METAR KSEA 122153Z 12009KT 10SM BKN250 16/M04 A3037 RMK AO2 SLP290 T01611039 $=
201811122053 METAR KSEA 122053Z VRB05KT 10SM BKN250 15/M03 A3039 RMK AO2 SLP296 T01501028 56005 $=
201811121953 METAR KSEA 121953Z 10005KT 10SM BKN250 14/M03 A3039 RMK AO2 SLP297 T01391028 $=
201811121853 METAR KSEA 121853Z 09005KT 10SM BKN250 13/M04 A3040 RMK AO2 SLP301 T01281039 $=
201811121753 METAR KSEA 121753Z 08007KT 10SM FEW180 BKN250 11/M04 A3040 RMK AO2 SLP302 T01111039 10111 20061 58001 $=
201811121653 METAR KSEA 121653Z 07008KT 10SM BKN250 10/M04 A3041 RMK AO2 SLP306 T01001044 $=
201811121553 METAR KSEA 121553Z 06008KT 10SM BKN250 09/M04 A3041 RMK AO2 SLP308 T00941039 $=
201811121453 METAR KSEA 121453Z 04007KT 10SM SCT250 07/M03 A3040 RMK AO2 SLP305 T00721033 56001 $=
201811121353 METAR KSEA 121353Z 08006KT 10SM CLR 08/M04 A3040 RMK AO2 SLP305 T00831039 $=
201811121253 METAR KSEA 121253Z 06007KT 10SM CLR 06/M02 A3041 RMK AO2 SLP305 T00611022 $=
201811121153 METAR KSEA 121153Z 07006KT 10SM CLR 08/M04 A3041 RMK AO2 SLP305 T00781039 10089 20050 56007 $=
201811121053 METAR KSEA 121053Z 06009KT 10SM CLR 08/M02 A3041 RMK AO2 SLP307 T00781022 $=
201811120953 METAR KSEA 120953Z 05005KT 10SM CLR 07/M02 A3042 RMK AO2 SLP309 T00671017 $=
201811120853 METAR KSEA 120853Z 05008KT 10SM CLR 07/01 A3043 RMK AO2 SLP312 T00670006 58005 $=
201811120753 METAR KSEA 120753Z 03007KT 10SM CLR 07/01 A3045 RMK AO2 SLP321 T00720006 401000011 $=
201811120653 METAR KSEA 120653Z 02008KT 10SM CLR 06/02 A3045 RMK AO2 SLP320 T00610022 $=
201811120553 METAR KSEA 120553Z 03008KT 10SM CLR 06/02 A3044 RMK AO2 SLP318 T00610017 10094 20061 53002 $=
201811120453 METAR KSEA 120453Z 02010KT 10SM CLR 07/03 A3044 RMK AO2 SLP317 T00670028 $=
201811120353 METAR KSEA 120353Z 01013KT 10SM SCT200 06/03 A3044 RMK AO2 SLP317 T00610028 $=
201811120253 METAR KSEA 120253Z 01011KT 10SM BKN200 07/02 A3044 RMK AO2 SLP317 T00670022 53006 $=
201811120153 METAR KSEA 120153Z 01011KT 10SM BKN200 07/02 A3042 RMK AO2 SLP311 T00720017 $=
201811120053 METAR KSEA 120053Z 01011KT 10SM BKN200 08/02 A3042 RMK AO2 SLP311 T00780022 $=
201811112353 METAR KSEA 112353Z 36009KT 10SM BKN200 09/03 A3042 RMK AO2 SLP309 T00890033 10100 20061 58002 $=
201811112253 METAR KSEA 112253Z 35008KT 10SM BKN210 09/03 A3042 RMK AO2 SLP310 T00890028 $=
201811112153 METAR KSEA 112153Z 36011KT 10SM BKN210 09/04 A3042 RMK AO2 SLP311 T00940039 $=
201811112053 METAR KSEA 112053Z 36012KT 10SM BKN220 10/04 A3043 RMK AO2 SLP312 T01000039 58007 $=
201811111953 METAR KSEA 111953Z 36012KT 10SM BKN220 08/03 A3044 RMK AO2 SLP317 T00830028 $=
201811111853 METAR KSEA 111853Z 03014KT 10SM FEW005 FEW230 08/02 A3045 RMK AO2 SLP320 T00780022 $=
201811111753 METAR KSEA 111753Z 02014KT 10SM FEW005 SCT220 06/03 A3045 RMK AO2 SLP319 T00610028 10061 20011 50003 $=
201811111653 METAR KSEA 111653Z 01007KT 10SM FEW004 SCT220 04/03 A3045 RMK AO2 SLP321 T00440028 $=
201811111553 METAR KSEA 111553Z 02005KT 10SM FEW001 SCT200 03/02 A3044 RMK AO2 SLP319 T00280017 $=
201811111523 SPECI KSEA 111523Z 04005KT 5SM BCFG SCT001 03/02 A3044 RMK AO2 T00280017 $=
201811111522 SPECI KSEA 111522Z 04006KT 6SM BR SCT001 03/02 A3044 RMK AO2 T00280017 $=
201811111520 SPECI KSEA 111520Z 03006KT 2 1/2SM BR BKN001 03/02 A3044 RMK AO2 T00280017 $=
201811111513 SPECI KSEA 111513Z 02005KT 1/8SM R16L/1200VP6000FT FG VV001 03/02 A3044 RMK AO2 T00280017 $=
201811111453 METAR KSEA 111453Z 02003KT 1/8SM R16L/1200V1800FT FG VV001 03/02 A3044 RMK AO2 SLP316 T00280022 53006 $=
201811111416 SPECI KSEA 111416Z 03007KT 1/8SM R16L/1600V2200FT FG VV001 03/02 A3043 RMK AO2 T00280022 $=
201811111406 SPECI KSEA 111406Z 03006KT 1/8SM R16L/1200V2400FT FG VV001 03/02 A3043 RMK AO2 T00280022 $=
201811111353 METAR KSEA 111353Z 03009KT 1/8SM R16L/1200V1400FT FG VV001 03/02 A3043 RMK AO2 SLP315 T00280022 $=
201811111338 SPECI KSEA 111338Z 04008KT 1/4SM R16L/1000V1200FT FG VV001 03/02 A3043 RMK AO2 T00280022 $=
201811111320 SPECI KSEA 111320Z 04006KT 1/16SM R16L/0800V1000FT FG VV001 03/02 A3043 RMK AO2 T00280017 $=
201811111253 METAR KSEA 111253Z 04006KT 1/4SM R16L/0600V0700FT FG VV001 02/01 A3042 RMK AO2 SLP311 T00170006 $=
201811111246 SPECI KSEA 111246Z 05006KT 3/4SM R16L/0600V0700FT BR SCT001 01/00 A3042 RMK AO2 T00110000 $=
201811111153 METAR KSEA 111153Z 03004KT 5SM R16L/2000VP6000FT BR SCT001 02/00 A3042 RMK AO2 SLP309 T00170000 10061 20011 56010 $=
201811111053 METAR KSEA 111053Z 00000KT 5SM BR SCT002 03/02 A3043 RMK AO2 SLP314 T00330017 $=
201811110955 METAR KSEA 110955Z 07003KT 7SM R16L/4000VP6000F FEW002 03/02 A3044 RMK A02 SLP315 T00330022=
201811110953 METAR KSEA 110953Z 07003KT 7SM R16L/4000VP6000FT FEW002 03/02 A3044 RMK AO2 SLP315 T00330022 $=
201811110942 SPECI KSEA 110942Z 06003KT 1 1/2SM R16L/3500VP6000FT BR SCT002 04/03 A3044 RMK AO2 T00390028 $=
201811110916 SPECI KSEA 110916Z 00000KT 5SM BR FEW003 04/02 A3044 RMK AO2 T00390022 $=
201811110853 METAR KSEA 110853Z 00000KT 5SM BR CLR 04/03 A3045 RMK AO2 SLP320 T00440033 53000 $=
201811110849 SPECI KSEA 110849Z 03003KT 1 3/4SM BR CLR 04/03 A3045 RMK AO2 $=
201811110753 METAR KSEA 110753Z 04003KT 7SM FEW017 05/03 A3045 RMK AO2 SLP319 T00500033 401000044=
201811110727 SPECI KSEA 110727Z 36004KT 8SM SCT017 05/03 A3045 RMK AO2 T00500033=
201811110653 METAR KSEA 110653Z 04004KT 7SM BKN017 06/03 A3045 RMK AO2 SLP320 T00560033=
201811110620 SPECI KSEA 110620Z 04004KT 9SM BKN017 06/03 A3045 RMK AO2 T00560033=
201811110555 SPECI KSEA 110555Z 02005KT 9SM SCT017 06/03 A3044 RMK AO2 T00610033=
201811110553 METAR KSEA 110553Z 02005KT 9SM BKN017 06/03 A3044 RMK AO2 SLP317 T00560028 10094 20044 51010=
201811110545 SPECI KSEA 110545Z 02005KT 8SM SCT017 04/03 A3044 RMK AO2 T00440028=
201811110542 SPECI KSEA 110542Z 01004KT 7SM BKN017 04/03 A3044 RMK AO2 T00440028=
201811110453 METAR KSEA 110453Z 05005KT 10SM FEW005 06/03 A3043 RMK AO2 SLP314 T00560033=
201811110353 METAR KSEA 110353Z 04005KT 10SM CLR 06/03 A3042 RMK AO2 SLP311 T00610033=
201811110253 METAR KSEA 110253Z 03006KT 10SM CLR 07/03 A3041 RMK AO2 SLP307 T00720033 53005=
201811110153 METAR KSEA 110153Z 36006KT 10SM FEW023 07/03 A3040 RMK AO2 SLP304 T00670033=
201811110053 METAR KSEA 110053Z 02006KT 10SM FEW019 08/03 A3039 RMK AO2 SLP300 T00780028=
201811102353 METAR KSEA 102353Z 03010KT 10SM FEW019 09/03 A3039 RMK AO2 SLP301 T00940028 10100 20072 58003=
201811102253 METAR KSEA 102253Z 02012KT 10SM FEW019 09/03 A3040 RMK AO2 SLP303 T00940028=
201811102206 SPECI KSEA 102206Z 01009KT 10SM FEW019 SCT025 10/03 A3041 RMK AO2 T01000033=
201811102153 METAR KSEA 102153Z 01011KT 10SM SCT019 BKN025 09/03 A3041 RMK AO2 SLP306 T00940033=
201811102053 METAR KSEA 102053Z 35006KT 10SM BKN016 BKN022 09/04 A3040 RMK AO2 SLP304 T00890044 51001=
201811102026 SPECI KSEA 102026Z 01010KT 10SM BKN016 09/04 A3040 RMK AO2 T00890039=
201811101953 METAR KSEA 101953Z 01010KT 10SM FEW009 SCT013 09/04 A3040 RMK AO2 SLP302 T00890039=
201811101922 SPECI KSEA 101922Z 02008KT 9SM SCT009 BKN013 BKN030 08/04 A3040 RMK AO2 T00830044=
201811101853 METAR KSEA 101853Z 35009KT 8SM BKN008 OVC020 08/04 A3041 RMK AO2 SLP306 T00780044=
201811101824 SPECI KSEA 101824Z 01007KT 8SM BKN009 OVC015 08/04 A3040 RMK AO2 CIG 007V012 T00780044=
201811101753 METAR KSEA 101753Z 04006KT 7SM FEW007 OVC016 07/04 A3040 RMK AO2 SLP303 T00720044 10078 20044 51018=
201811101653 METAR KSEA 101653Z 03011KT 6SM HZ FEW006 BKN013 BKN033 07/04 A3039 RMK AO2 SLP299 T00720044=
201811101553 METAR KSEA 101553Z 35004KT 6SM BR FEW006 SCT018 BKN033 06/04 A3038 RMK AO2 SLP295 T00560044=
201811101453 METAR KSEA 101453Z 04006KT 6SM BR SCT006 BKN020 OVC033 06/04 A3035 RMK AO2 SLP285 T00610039 51006=
201811101419 SPECI KSEA 101419Z 02003KT 4SM BR OVC005 06/04 A3034 RMK AO2 T00610044=
201811101402 SPECI KSEA 101402Z 06003KT 2 1/2SM BR OVC004 06/04 A3034 RMK AO2 T00560044=
201811101353 METAR KSEA 101353Z 06003KT 1 1/2SM BR OVC002 06/04 A3034 RMK AO2 SLP284 T00560044=
201811101322 SPECI KSEA 101322Z 09003KT 1/2SM R16L/2600VP6000FT FG OVC002 05/04 A3034 RMK AO2 T00500039=
201811101312 SPECI KSEA 101312Z 07004KT 2 1/2SM R16L/5000VP6000FT BR OVC002 06/04 A3034 RMK AO2 T00560039=
201811101253 METAR KSEA 101253Z 08003KT 4SM BR OVC002 06/03 A3034 RMK AO2 SLP283 T00560033=
201811101153 METAR KSEA 101153Z 14003KT 6SM BR BKN004 OVC044 04/03 A3033 RMK AO2 RAB27E40 SLP280 P0000 60000 70007 T00440033 10050 20039 50000=
201811101053 METAR KSEA 101053Z 13004KT 4SM BR SCT004 BKN022 BKN055 04/03 A3033 RMK AO2 SLP281 T00440028=
201811101028 SPECI KSEA 101028Z 12003KT 5SM BR SCT004 SCT040 OVC060 04/03 A3033 RMK AO2 T00440033=
201811100953 METAR KSEA 100953Z 14004KT 6SM BR BKN040 OVC060 04/03 A3033 RMK AO2 RAB21E31 SLP280 P0000 T00440033=
201811100941 SPECI KSEA 100941Z 13005KT 6SM BR FEW025 OVC042 04/03 A3033 RMK AO2 RAB21E31 P0000 T00440033=
201811100853 METAR KSEA 100853Z 14004KT 7SM BKN005 OVC030 05/03 A3033 RMK AO2 SLP280 T00500033 51002=
201811100846 SPECI KSEA 100846Z 14004KT 7SM BKN005 OVC030 05/03 A3033 RMK AO2 T00500033=
201811100817 SPECI KSEA 100817Z 14004KT 6SM BR FEW005 OVC033 04/03 A3033 RMK AO2 T00440033=
201811100753 METAR KSEA 100753Z 17003KT 5SM BR BKN031 05/03 A3032 RMK AO2 SLP278 T00500033 400610017=
201811100653 METAR KSEA 100653Z 00000KT 6SM BR SCT017 BKN055 05/03 A3033 RMK AO2 SLP279 T00500033=
201811100553 METAR KSEA 100553Z 19004KT 7SM FEW008 BKN012 BKN022 04/03 A3032 RMK AO2 SLP277 T00440033 10061 20039 53007=
201811100511 SPECI KSEA 100511Z 00000KT 9SM FEW008 BKN012 05/03 A3032 RMK AO2 T00500028=
201811100453 METAR KSEA 100453Z 00000KT 8SM BKN012 05/03 A3032 RMK AO2 SLP275 T00500033=
201811100410 SPECI KSEA 100410Z 00000KT 9SM BKN010 05/03 A3031 RMK AO2 T00500033=
201811100353 METAR KSEA 100353Z 00000KT 8SM SCT010 BKN044 06/03 A3031 RMK AO2 SLP272 T00560033=
201811100253 METAR KSEA 100253Z 26003KT 10SM FEW026 BKN046 06/03 A3030 RMK AO2 SLP270 T00560033 53005=
201811100153 METAR KSEA 100153Z 00000KT 10SM SCT025 BKN048 06/03 A3029 RMK AO2 SLP267 T00610028=
201811100142 SPECI KSEA 100142Z 00000KT 10SM SCT025 BKN048 06/03 A3029 RMK AO2 T00610028=
201811100053 METAR KSEA 100053Z 00000KT 10SM FEW009 OVC023 06/03 A3029 RMK AO2 SLP266 T00610028=
201811092353 METAR KSEA 092353Z 18003KT 10SM FEW009 OVC026 06/03 A3029 RMK AO2 SLP266 60007 T00560033 10061 20044 53003=
201811092315 SPECI KSEA 092315Z 15006KT 10SM OVC028 06/03 A3028 RMK AO2 T00560028=
201811092253 METAR KSEA 092253Z 16004KT 10SM FEW009 OVC030 06/03 A3028 RMK AO2 SLP262 T00560028=
201811092153 METAR KSEA 092153Z 14004KT 10SM FEW007 BKN037 OVC050 05/03 A3028 RMK AO2 SLP263 T00500028=
201811092053 METAR KSEA 092053Z 15007KT 10SM FEW007 BKN045 OVC060 05/02 A3028 RMK AO2 RAE10 SLP263 P0000 60007 T00500022 58002=
201811091953 METAR KSEA 091953Z 12009KT 7SM -RA FEW005 BKN037 OVC055 05/02 A3027 RMK AO2 RAB1856 SLP261 P0006 T00500022=
201811091853 METAR KSEA 091853Z 02005KT 7SM FEW004 BKN038 OVC080 05/03 A3031 RMK AO2 RAE46 SLP272 P0001 T00500033=
201811091846 SPECI KSEA 091846Z VRB04KT 7SM SCT004 OVC038 05/03 A3030 RMK AO2 RAE46 P0001 T00500033=
201811091817 SPECI KSEA 091817Z 02003KT 6SM -RA BKN006 OVC055 06/03 A3028 RMK AO2 P0001 T00560028=
201811091753 METAR KSEA 091753Z 00000KT 6SM -RA BR SCT005 BKN055 OVC095 05/03 A3029 RMK AO2 RAB53 SLP264 P0000 60000 T00500033 10050 20017 58004=
201811091653 METAR KSEA 091653Z 00000KT 10SM FEW005 BKN095 OVC130 05/02 A3029 RMK AO2 SLP267 T00500022=
201811091553 METAR KSEA 091553Z VRB03KT 10SM FEW004 BKN090 OVC130 03/01 A3030 RMK AO2 SLP269 T00330006=
201811091453 METAR KSEA 091453Z 14008KT 10SM FEW002 BKN130 OVC200 03/00 A3030 RMK AO2 SLP268 T00330000 58022=
201811091353 METAR KSEA 091353Z 00000KT 10SM OVC160 02/M01 A3033 RMK AO2 SLP280 T00221006=
201811091253 METAR KSEA 091253Z 15004KT 10SM BKN230 02/M01 A3034 RMK AO2 SLP282 T00171011=
201811091153 METAR KSEA 091153Z 16003KT 10SM SCT160 02/00 A3036 RMK AO2 SLP290 T00220000 10061 20017 58021=
201811091053 METAR KSEA 091053Z 12005KT 10SM CLR 03/00 A3039 RMK AO2 SLP298 T00280000=
201811090953 METAR KSEA 090953Z 11004KT 8SM CLR 03/00 A3041 RMK AO2 SLP305 T00280000=
201811090853 METAR KSEA 090853Z 06003KT 9SM CLR 04/01 A3043 RMK AO2 SLP312 T00390006 58016=
201811090753 METAR KSEA 090753Z 00000KT 10SM CLR 04/01 A3045 RMK AO2 SLP319 T00440011 401000022=
201811090653 METAR KSEA 090653Z 06004KT 10SM CLR 05/02 A3046 RMK AO2 SLP325 T00500022=
201811090553 METAR KSEA 090553Z 00000KT 10SM CLR 06/02 A3047 RMK AO2 SLP328 T00610022 10094 20050 56010=
201811090453 METAR KSEA 090453Z 01005KT 10SM CLR 05/01 A3048 RMK AO2 SLP331 T00500011=
201811090353 METAR KSEA 090353Z 02005KT 10SM CLR 07/02 A3049 RMK AO2 SLP335 T00670022=
201811090253 METAR KSEA 090253Z 02007KT 10SM FEW250 08/02 A3050 RMK AO2 SLP339 T00780022 58006=
201811090153 METAR KSEA 090153Z 35005KT 10SM FEW250 06/02 A3051 RMK AO2 SLP342 T00610017=
201811090053 METAR KSEA 090053Z 35005KT 10SM SCT250 07/02 A3051 RMK AO2 SLP342 T00720022=
201811082353 METAR KSEA 082353Z 35006KT 10SM SCT250 09/02 A3052 RMK AO2 SLP345 T00940017 10100 20067 55007=
201811082253 METAR KSEA 082253Z 02006KT 10SM SCT250 10/01 A3052 RMK AO2 SLP344 T01000011=
201811082153 METAR KSEA 082153Z 36004KT 10SM FEW015 SCT250 10/02 A3053 RMK AO2 SLP348 T01000022=
201811082053 METAR KSEA 082053Z 07003KT 10SM FEW009 FEW250 09/03 A3054 RMK AO2 SLP352 T00890033 58007=
201811081953 METAR KSEA 081953Z 04003KT 10SM FEW006 SCT250 08/03 A3056 RMK AO2 SLP358 T00830033=
201811081940 SPECI KSEA 081940Z 05003KT 10SM SCT006 SCT250 08/03 A3057 RMK AO2 T00780033=
201811081853 METAR KSEA 081853Z 02004KT 10SM BKN006 07/03 A3057 RMK AO2 SLP362 T00670028=
201811081829 SPECI KSEA 081829Z 02004KT 9SM BKN006 07/03 A3057 RMK AO2 T00720028=
201811081753 METAR KSEA 081753Z 00000KT 10SM BCFG SCT004 07/02 A3057 RMK AO2 SLP360 T00670017 10067 20022 51006=
201811081653 METAR KSEA 081653Z 05004KT 7SM BCFG FEW003 06/03 A3056 RMK AO2 SLP359 T00560028=
201811081553 METAR KSEA 081553Z 06003KT 6SM BCFG SCT005 04/01 A3056 RMK AO2 SLP358 VIS NW-N 2 T00390006=
201811081453 METAR KSEA 081453Z 00000KT 10SM BCFG FEW005 04/01 A3055 RMK AO2 SLP354 T00390006 51003=
201811081439 SPECI KSEA 081439Z 00000KT 10SM FEW005 03/00 A3055 RMK AO2 T00280000=
201811081353 METAR KSEA 081353Z 11006KT 9SM BKN005 OVC010 04/01 A3055 RMK AO2 SLP353 T00440011=
201811081253 METAR KSEA 081253Z 13005KT 10SM OVC007 04/01 A3054 RMK AO2 SLP352 T00390011=
201811081153 METAR KSEA 081153Z 12005KT 10SM SCT007 03/01 A3054 RMK AO2 SLP351 T00330006 10067 20028 53002=
201811081053 METAR KSEA 081053Z 12005KT 10SM CLR 03/01 A3054 RMK AO2 SLP349 T00330011=
201811080953 METAR KSEA 080953Z 13004KT 10SM CLR 04/02 A3053 RMK AO2 SLP349 T00390017=
201811080853 METAR KSEA 080853Z 00000KT 10SM CLR 04/02 A3053 RMK AO2 SLP346 T00440017 51012=
201811080753 METAR KSEA 080753Z 12005KT 10SM CLR 05/03 A3052 RMK AO2 SLP343 T00500028 401170044=
201811080653 METAR KSEA 080653Z 00000KT 10SM CLR 06/03 A3051 RMK AO2 SLP340 T00560028=
201811080553 METAR KSEA 080553Z 29004KT 10SM CLR 06/03 A3049 RMK AO2 SLP334 T00560028 10100 20056 53012=
201811080453 METAR KSEA 080453Z 04007KT 10SM CLR 07/03 A3048 RMK AO2 SLP328 T00720028=
201811080353 METAR KSEA 080353Z 02007KT 10SM CLR 08/03 A3046 RMK AO2 SLP323 T00780028=
201811080253 METAR KSEA 080253Z 02008KT 10SM CLR 08/03 A3046 RMK AO2 SLP322 T00780028 53005=
201811080153 METAR KSEA 080153Z 01008KT 10SM FEW200 08/02 A3045 RMK AO2 SLP319 T00830022=
201811080053 METAR KSEA 080053Z 01005KT 10SM FEW030 SCT200 08/03 A3044 RMK AO2 SLP317 T00830028=
201811072353 METAR KSEA 072353Z 02005KT 10SM FEW028 SCT200 10/03 A3044 RMK AO2 SLP316 T01000028 10117 20089 53004=
201811072253 METAR KSEA 072253Z 05008KT 10SM SCT028 SCT200 11/03 A3043 RMK AO2 SLP314 T01060033=
201811072153 METAR KSEA 072153Z VRB05KT 10SM FEW020 SCT028 SCT200 12/04 A3043 RMK AO2 SLP313 T01170039=
201811072053 METAR KSEA 072053Z 36010KT 10SM FEW018 SCT034 10/04 A3043 RMK AO2 SLP312 T01000039 51010=
201811071953 METAR KSEA 071953Z 36007KT 10SM FEW008 SCT017 BKN032 10/04 A3042 RMK AO2 SLP309 T01000044=
201811071944 SPECI KSEA 071944Z 34005KT 10SM FEW008 SCT017 BKN032 09/05 A3042 RMK AO2 T00940050=
201811071919 SPECI KSEA 071919Z 35007KT 10SM FEW008 SCT014 BKN025 09/06 A3042 RMK AO2 T00890056=
201811071853 METAR KSEA 071853Z 34010KT 10SM FEW008 BKN012 BKN035 09/06 A3042 RMK AO2 SLP309 T00890056 $=
201811071753 METAR KSEA 071753Z 02008KT 10SM FEW008 BKN013 BKN036 09/06 A3040 RMK AO2 SLP302 T00940061 10100 20078 53017 $=
201811071653 METAR KSEA 071653Z 05004KT 10SM FEW006 BKN011 OVC031 09/07 A3038 RMK AO2 SLP295 T00890067 $=
201811071637 SPECI KSEA 071637Z 04004KT 10SM SCT008 BKN015 OVC031 09/06 A3038 RMK AO2 T00890061 $=
201811071614 SPECI KSEA 071614Z 03005KT 7SM FEW015 BKN026 OVC037 09/06 A3037 RMK AO2 T00890061 $=
201811071605 SPECI KSEA 071605Z 05003KT 8SM SCT022 SCT029 OVC037 09/07 A3037 RMK AO2 T00940067 $=
201811071553 METAR KSEA 071553Z 04004KT 10SM FEW014 BKN028 BKN049 09/06 A3036 RMK AO2 SLP289 T00890061 $=
201811071453 METAR KSEA 071453Z 04005KT 10SM FEW007 SCT020 BKN029 09/07 A3035 RMK AO2 SLP285 T00890067 51014 $=
201811071447 SPECI KSEA 071447Z 05006KT 10SM FEW007 SCT020 BKN029 09/07 A3035 RMK AO2 $=
201811071353 METAR KSEA 071353Z 01003KT 10SM FEW006 BKN040 08/07 A3033 RMK AO2 SLP280 T00830067 $=
201811071335 SPECI KSEA 071335Z 00000KT 9SM FEW006 SCT022 OVC040 08/07 A3033 RMK AO2 T00830067 $=
201811071315 SPECI KSEA 071315Z 00000KT 10SM FEW006 BKN022 OVC040 08/07 A3033 RMK AO2 T00830067 $=
201811071253 METAR KSEA 071253Z 00000KT 10SM BKN006 BKN014 OVC040 08/07 A3032 RMK AO2 CIG 005V009 SLP276 T00830067 $=
201811071232 SPECI KSEA 071232Z 00000KT 10SM OVC007 08/06 A3032 RMK AO2 T00830061 $=
201811071205 SPECI KSEA 071205Z 30003KT 10SM BKN010 OVC038 08/06 A3031 RMK AO2 CIG 007V012 T00780061 $=
201811071153 METAR KSEA 071153Z 28003KT 10SM OVC009 08/06 A3031 RMK AO2 SLP270 60004 70009 T00780061 10100 20078 53004 $=
201811071114 SPECI KSEA 071114Z 27003KT 10SM OVC009 08/06 A3030 RMK AO2 T00780061 $=
201811071053 METAR KSEA 071053Z 27003KT 10SM OVC011 08/07 A3030 RMK AO2 RAE0957 SLP269 P0000 T00830067 $=
201811071025 SPECI KSEA 071025Z 00000KT 10SM BKN016 OVC023 08/06 A3030 RMK AO2 RAE0957 P0000 T00830061 $=
201811070953 METAR KSEA 070953Z 00000KT 5SM -RA BR FEW010 BKN033 OVC044 08/07 A3029 RMK AO2 RAE0854B28 SLP266 P0004 T00830067 $=
201811070949 SPECI KSEA 070949Z 01003KT 5SM -RA BR FEW010 BKN033 OVC044 08/07 A3029 RMK AO2 RAE0854B28 P0003 $=
201811070926 SPECI KSEA 070926Z 00000KT 9SM BKN020 OVC026 08/07 A3029 RMK AO2 RAE0854 P0000 T00830067 $=
201811070853 METAR KSEA 070853Z 00000KT 10SM -RA FEW022 BKN030 OVC060 08/06 A3028 RMK AO2 RAB44 SLP261 P0000 60000 T00830061 51009 $=
201811070753 METAR KSEA 070753Z 13004KT 10SM SCT025 BKN030 BKN080 08/06 A3028 RMK AO2 SLP260 T00780061 401330078 $=
201811070707 SPECI KSEA 070707Z 12004KT 10SM BKN028 OVC060 08/06 A3027 RMK AO2 T00830061 $=
201811070653 METAR KSEA 070653Z 10005KT 10SM SCT028 BKN060 08/06 A3026 RMK AO2 SLP256 T00830061 $=
201811070553 METAR KSEA 070553Z VRB03KT 10SM BKN031 BKN049 OVC055 09/06 A3025 RMK AO2 SLP252 60005 T00940061 10122 20089 52015 $=
201811070453 METAR KSEA 070453Z 13007KT 10SM FEW035 BKN070 09/07 A3024 RMK AO2 RAE0355 SLP247 P0000 T00890067 $=
201811070353 METAR KSEA 070353Z 08010KT 8SM -RA FEW026 OVC037 09/07 A3022 RMK AO2 SLP242 P0005 T00890067 $=
201811070336 SPECI KSEA 070336Z 06009KT 3SM RA BR SCT026 OVC037 09/07 A3022 RMK AO2 T00940072 PNO $=
201811070253 METAR KSEA 070253Z 02006KT 3SM -RA BKN021 OVC050 10/07 A3021 RMK AO2 RAB25 SLP237 60000 T01000072 53003 PNO $=
201811070224 SPECI KSEA 070224Z 30003KT 9SM BKN023 BKN050 10/07 A3021 RMK AO2 T01000067 $=
201811070153 METAR KSEA 070153Z 28005KT 10SM FEW023 BKN041 BKN070 11/07 A3021 RMK AO2 RAB27E37 SLP236 P0000 T01060067 $=
201811070053 METAR KSEA 070053Z 23005KT 10SM BKN031 BKN085 12/06 A3020 RMK AO2 SLP235 T01170061 $=
201811062353 METAR KSEA 062353Z 19005KT 10SM SCT036 12/06 A3020 RMK AO2 SLP233 T01220056 10133 20094 56005 $=
201811062253 METAR KSEA 062253Z 20004KT 10SM SCT030 13/06 A3021 RMK AO2 SLP235 T01280061 $=
201811062153 METAR KSEA 062153Z 23006KT 10SM FEW019 SCT030 13/06 A3021 RMK AO2 SLP237 T01280061 $=
201811062053 METAR KSEA 062053Z 25007KT 10SM SCT018 SCT025 12/06 A3022 RMK AO2 SLP240 T01170061 58004 $=
201811062036 SPECI KSEA 062036Z 23004KT 10SM SCT017 SCT025 12/06 A3022 RMK AO2 T01170061 $=
201811061953 METAR KSEA 061953Z 19007KT 10SM BKN016 BKN023 11/07 A3023 RMK AO2 SLP243 T01110067 $=
201811061853 METAR KSEA 061853Z 22008KT 10SM OVC015 10/06 A3023 RMK AO2 SLP244 T01000061 $=
201811061847 SPECI KSEA 061847Z 21007KT 10SM OVC015 10/06 A3023 RMK AO2 $=
201811061753 METAR KSEA 061753Z 20007KT 10SM OVC012 09/06 A3022 RMK AO2 SLP242 T00940061 10094 20089 51012 $=
201811061653 METAR KSEA 061653Z 18007KT 10SM OVC010 09/07 A3021 RMK AO2 SLP239 T00940067 $=
201811061553 METAR KSEA 061553Z 17007KT 10SM OVC013 09/06 A3020 RMK AO2 SLP235 T00890056 $=
201811061453 METAR KSEA 061453Z 16005KT 10SM BKN014 OVC020 09/06 A3019 RMK AO2 SLP231 T00890061 53010 $=
201811061353 METAR KSEA 061353Z 18009KT 10SM BKN013 OVC050 09/06 A3018 RMK AO2 SLP226 T00890056 $=
201811061348 SPECI KSEA 061348Z 18009KT 10SM BKN013 OVC050 09/06 A3017 RMK AO2 $=
201811061253 METAR KSEA 061253Z 17006KT 10SM BKN017 09/07 A3017 RMK AO2 SLP224 T00940067 $=
201811061153 METAR KSEA 061153Z 17007KT 10SM BKN017 09/07 A3016 RMK AO2 SLP220 T00940067 10100 20094 51009 $=
201811061053 METAR KSEA 061053Z 18006KT 10SM BKN016 09/07 A3015 RMK AO2 SLP217 T00940067 $=
201811060953 METAR KSEA 060953Z 17005KT 10SM BKN018 09/07 A3014 RMK AO2 SLP214 T00940067 $=
201811060853 METAR KSEA 060853Z 19006KT 10SM OVC015 09/07 A3013 RMK AO2 SLP210 T00940067 51012 $=
201811060804 SPECI KSEA 060804Z 19008KT 10SM BKN015 09/07 A3012 RMK AO2 T00940067 $=
201811060753 METAR KSEA 060753Z 18007KT 10SM BKN014 09/07 A3012 RMK AO2 SLP205 T00940067 401330089 $=
201811060730 SPECI KSEA 060730Z 17006KT 10SM BKN014 09/07 A3011 RMK AO2 T00940067 $=
201811060704 SPECI KSEA 060704Z 18006KT 10SM BKN015 09/07 A3011 RMK AO2 T00940067 $=
201811060653 METAR KSEA 060653Z 19007KT 10SM BKN013 BKN018 10/07 A3011 RMK AO2 SLP204 T01000067 $=
201811060600 SPECI KSEA 060600Z 18008KT 10SM BKN013 BKN060 10/07 A3010 RMK AO2 T01000067 $=
201811060553 METAR KSEA 060553Z 17006KT 10SM SCT013 BKN060 10/07 A3010 RMK AO2 SLP199 T01000067 10128 20089 53015 $=
201811060453 METAR KSEA 060453Z 22006KT 10SM FEW021 SCT080 09/06 A3008 RMK AO2 SLP193 T00940061 $=
201811060413 SPECI KSEA 060413Z 21007KT 10SM SCT021 BKN080 10/07 A3007 RMK AO2 T01000067 $=
201811060353 METAR KSEA 060353Z 22007KT 10SM BKN018 11/07 A3006 RMK AO2 SLP187 T01060072 $=
201811060253 METAR KSEA 060253Z 22008KT 10SM SCT020 SCT160 11/08 A3005 RMK AO2 SLP184 T01060078 53004 $=
201811060153 METAR KSEA 060153Z 21010KT 10SM FEW020 SCT045 SCT160 11/08 A3004 RMK AO2 SLP180 T01110078 $=
201811060053 METAR KSEA 060053Z 22009KT 10SM FEW030 SCT045 BKN160 12/07 A3004 RMK AO2 SLP180 T01170072 $=
201811052353 METAR KSEA 052353Z 21010KT 10SM FEW031 BKN042 BKN120 12/07 A3004 RMK AO2 SLP179 T01220072 10133 20111 50001 $=
201811052253 METAR KSEA 052253Z 21010KT 10SM FEW025 SCT070 BKN120 13/07 A3004 RMK AO2 SLP179 T01280072 $=
201811052223 SPECI KSEA 052223Z 21011KT 10SM FEW025 SCT036 BKN080 13/08 A3004 RMK AO2 T01280078 $=
201811052153 METAR KSEA 052153Z 21012G19KT 10SM BKN025 BKN090 13/08 A3004 RMK AO2 SLP178 T01330078 $=
201811052147 SPECI KSEA 052147Z 21014G20KT 10SM BKN025 BKN090 13/08 A3004 RMK AO2 $=
201811052129 SPECI KSEA 052129Z 21012KT 10SM SCT023 BKN040 OVC095 13/08 A3004 RMK AO2 T01330078 $=
201811052053 METAR KSEA 052053Z 22012KT 10SM FEW018 BKN023 BKN035 13/08 A3005 RMK AO2 SLP181 T01330083 58001 $=
201811051953 METAR KSEA 051953Z 21015G21KT 10SM SCT018 BKN027 BKN085 12/08 A3005 RMK AO2 SLP182 T01220078 $=
201811051853 METAR KSEA 051853Z 21014KT 10SM BKN018 BKN027 BKN085 13/08 A3006 RMK AO2 SLP185 T01280083 $=
201811051753 METAR KSEA 051753Z 20008KT 10SM BKN015 BKN022 11/08 A3005 RMK AO2 SLP182 T01110078 10117 20106 51005 $=
201811051712 SPECI KSEA 051712Z 19010KT 10SM BKN015 BKN085 11/08 A3005 RMK AO2 T01110078 $=
201811051653 METAR KSEA 051653Z 21010KT 10SM BKN014 BKN023 11/08 A3005 RMK AO2 SLP182 T01110078 $=
201811051553 METAR KSEA 051553Z 19011KT 10SM BKN014 OVC021 11/08 A3004 RMK AO2 SLP179 T01060078 $=
201811051453 METAR KSEA 051453Z 20011KT 10SM BKN013 OVC024 11/08 A3004 RMK AO2 SLP177 T01060078 55000 $=
201811051353 METAR KSEA 051353Z 23010KT 10SM BKN012 OVC018 11/08 A3004 RMK AO2 SLP179 T01110078 $=
201811051253 METAR KSEA 051253Z 19009KT 10SM BKN014 OVC018 11/08 A3002 RMK AO2 SLP173 T01110078 $=
201811051153 METAR KSEA 051153Z 20008KT 10SM OVC011 11/08 A3004 RMK AO2 SLP177 T01110078 10117 20111 58007 $=
201811051053 METAR KSEA 051053Z 19007KT 10SM BKN013 OVC080 11/08 A3005 RMK AO2 SLP181 T01110078 $=
201811050953 METAR KSEA 050953Z 19010KT 10SM BKN015 OVC080 11/08 A3005 RMK AO2 SLP182 T01110078 $=
201811050853 METAR KSEA 050853Z 18010KT 10SM OVC015 11/08 A3006 RMK AO2 SLP184 T01110078 53004 $=
201811050753 METAR KSEA 050753Z 21012KT 10SM BKN016 11/08 A3005 RMK AO2 SLP182 T01110083 401610111 $=
201811050714 SPECI KSEA 050714Z 21010KT 10SM BKN016 11/08 A3005 RMK AO2 T01110083 $=
201811050653 METAR KSEA 050653Z 21012KT 10SM BKN014 11/08 A3004 RMK AO2 SLP179 T01110083 $=
201811050625 SPECI KSEA 050625Z 20012KT 10SM BKN014 11/08 A3004 RMK AO2 T01110083 $=
201811050553 METAR KSEA 050553Z 20011KT 10SM BKN016 12/08 A3004 RMK AO2 SLP180 T01170083 10139 20117 53005 $=
201811050453 METAR KSEA 050453Z 20013KT 10SM BKN017 BKN100 12/08 A3004 RMK AO2 SLP179 T01170083 $=
201811050353 METAR KSEA 050353Z 22013KT 10SM SCT017 SCT090 12/08 A3003 RMK AO2 SLP176 T01170083 $=
201811050253 METAR KSEA 050253Z 20011KT 10SM BKN100 12/08 A3003 RMK AO2 SLP176 T01170078 53008 $=
201811050153 METAR KSEA 050153Z 21012KT 10SM FEW040 BKN100 12/08 A3002 RMK AO2 SLP171 T01220078 $=
201811050053 METAR KSEA 050053Z 21010KT 10SM BKN095 13/08 A3002 RMK AO2 SLP171 T01280078 $=
201811042353 METAR KSEA 042353Z 21012KT 10SM SCT035 SCT090 14/08 A3001 RMK AO2 SLP168 T01390078 10161 20128 53012 $=
201811042253 METAR KSEA 042253Z 21013KT 10SM SCT040 BKN090 15/08 A2999 RMK AO2 SLP163 T01500078 $=
201811042153 METAR KSEA 042153Z 20011KT 10SM FEW022 BKN035 15/08 A2999 RMK AO2 SLP160 T01500078 $=
201811042053 METAR KSEA 042053Z 19011KT 10SM FEW022 SCT029 SCT080 16/09 A2997 RMK AO2 SLP156 T01610089 50014 $=
201811041953 METAR KSEA 041953Z 21006KT 10SM BKN022 BKN028 15/09 A2998 RMK AO2 SLP157 T01500094 $=
201811041853 METAR KSEA 041853Z 21009KT 10SM BKN020 OVC026 13/09 A2996 RMK AO2 SLP150 T01330094 $=
201811041753 METAR KSEA 041753Z 20009KT 10SM SCT010 OVC016 13/09 A2993 RMK AO2 SLP142 60000 T01280094 10139 20122 51028 $=
201811041653 METAR KSEA 041653Z 21007KT 10SM FEW008 BKN016 OVC030 13/09 A2992 RMK AO2 SLP137 T01330094 $=
201811041621 SPECI KSEA 041621Z 19007KT 10SM OVC016 14/10 A2990 RMK AO2 T01390100 $=
201811041553 METAR KSEA 041553Z 20008KT 10SM BKN012 BKN019 BKN029 13/11 A2988 RMK AO2 RAB13E42 SLP125 P0000 T01330106 $=
201811041527 SPECI KSEA 041527Z VRB03KT 3SM -RA BR SCT008 BKN029 OVC050 13/11 A2987 RMK AO2 RAB13 P0000 T01280111 $=
201811041453 METAR KSEA 041453Z 18007KT 10SM SCT008 SCT017 OVC034 13/11 A2985 RMK AO2 SLP114 T01280111 53019 $=
201811041353 METAR KSEA 041353Z 21005KT 10SM OVC007 13/11 A2984 RMK AO2 SLP111 T01330111 $=
201811041253 METAR KSEA 041253Z 19013G20KT 10SM OVC008 13/11 A2980 RMK AO2 SLP096 T01280106 $=
201811041153 METAR KSEA 041153Z 20016G25KT 7SM BKN008 OVC012 12/11 A2979 RMK AO2 PK WND 21030/1136 SLP094 60003 70021 T01220106 10122 20117 56026 $=
201811041126 SPECI KSEA 041126Z 20018KT 7SM BKN008 OVC012 12/10 A2979 RMK AO2 T01220100 $=
201811041100 SPECI KSEA 041100Z 19017G23KT 7SM OVC014 12/10 A2979 RMK AO2 T01220100 $=
201811041053 METAR KSEA 041053Z 19016G23KT 10SM OVC016 12/09 A2980 RMK AO2 RAE11 SLP096 P0000 T01220094 $=
201811040953 METAR KSEA 040953Z 18016G24KT 7SM -RA BKN019 BKN024 OVC040 12/09 A2982 RMK AO2 PK WND 19026/0923 RAB17 SLP102 P0002 T01170089 $=
201811040853 METAR KSEA 040853Z 20014G22KT 10SM BKN019 BKN030 OVC050 12/09 A2987 RMK AO2 PK WND 19027/0832 RAB09E34 SLP121 P0001 60001 T01170089 56038 $=
201811040753 METAR KSEA 040753Z 18016G26KT 10SM BKN022 OVC033 12/08 A2991 RMK AO2 PK WND 19026/0734 RAE50 SLP134 P0000 T01220083 401280117 $=
201811040653 METAR KSEA 040653Z 18018G29KT 10SM -RA BKN023 OVC043 12/08 A2992 RMK AO2 PK WND 18029/0648 RAB50 PRESFR SLP139 P0000 T01220083 $=
201811040600 SPECI KSEA 040600Z 19015KT 7SM BKN026 OVC035 12/08 A2997 RMK AO2 T01220083 $=
201811040553 METAR KSEA 040553Z 19015G22KT 9SM OVC030 12/08 A2998 RMK AO2 RAB05E15 SLP159 P0001 60001 T01220083 10128 20117 56033 $=
201811040453 METAR KSEA 040453Z 18010KT 10SM BKN036 OVC045 12/08 A3000 RMK AO2 SLP166 T01220083 $=
201811040353 METAR KSEA 040353Z 19012KT 10SM SCT045 OVC100 12/08 A3003 RMK AO2 SLP175 T01220083 $=
201811040253 METAR KSEA 040253Z 19014G21KT 10SM SCT022 BKN030 OVC042 12/09 A3008 RMK AO2 SLP192 60000 T01220089 56032 $=
201811040153 METAR KSEA 040153Z 19013KT 10SM FEW006 BKN032 OVC100 12/09 A3010 RMK AO2 SLP201 T01220094 $=
201811040121 SPECI KSEA 040121Z 18011KT 10SM BKN031 OVC041 12/09 A3013 RMK AO2 T01220094 $=
201811040053 METAR KSEA 040053Z 18013KT 10SM FEW019 BKN028 OVC033 12/10 A3014 RMK AO2 RAE03 SLP212 P0000 T01220100 $=
201811040040 SPECI KSEA 040040Z 18013KT 10SM BKN026 OVC033 12/10 A3014 RMK AO2 RAE03 P0000 T01220100 $=
201811040021 SPECI KSEA 040021Z 18010KT 10SM FEW020 BKN033 OVC047 12/10 A3015 RMK AO2 RAE03 P0000 T01170100 $=
201811040009 SPECI KSEA 040009Z 17011KT 7SM SCT012 BKN020 OVC035 12/10 A3016 RMK AO2 RAE03 P0000 T01170100 $=
201811032353 METAR KSEA 032353Z 18012KT 2SM -RA BR SCT010 BKN015 OVC030 12/10 A3018 RMK AO2 RAB02E35B37 SLP225 P0001 60015 T01170100 10128 20117 58016 $=
201811032336 SPECI KSEA 032336Z 19009KT 3SM BR FEW017 BKN026 OVC040 12/10 A3018 RMK AO2 RAB02E35 P0001 T01220100 $=
201811032311 SPECI KSEA 032311Z 18012KT 2SM -RA BR FEW014 BKN023 OVC029 12/10 A3019 RMK AO2 RAB02 P0001 T01220100 $=
201811032253 METAR KSEA 032253Z 17011G20KT 6SM BR FEW009 BKN023 OVC029 12/10 A3019 RMK AO2 RAE51 SLP229 P0004 T01220100 $=
201811032231 SPECI KSEA 032231Z 16009KT 3SM -RA BR SCT007 BKN016 OVC037 12/11 A3021 RMK AO2 P0004 T01170106 $=
201811032206 SPECI KSEA 032206Z 16008KT 3SM -RA BR SCT017 BKN025 OVC042 12/11 A3021 RMK AO2 P0001 T01170106 $=
201811032153 METAR KSEA 032153Z 16010KT 5SM -RA BR FEW019 BKN036 OVC044 12/11 A3021 RMK AO2 SLP238 P0006 T01220106 $=
201811032053 METAR KSEA 032053Z 17010KT 6SM -RA BR FEW020 SCT034 OVC060 12/10 A3022 RMK AO2 RAB33 SLP241 P0001 60004 T01220100 56018 $=
201811031953 METAR KSEA 031953Z 18008KT 10SM FEW014 SCT033 OVC070 13/10 A3024 RMK AO2 RAE50 SLP245 P0000 T01280100 $=
201811031853 METAR KSEA 031853Z 17010KT 7SM -RA FEW014 BKN030 OVC055 12/10 A3026 RMK AO2 RAB09 SLP253 P0003 T01220100 $=
201811031753 METAR KSEA 031753Z 20007KT 10SM FEW009 SCT034 OVC060 12/11 A3028 RMK AO2 RAE41 SLP259 P0000 60002 T01220106 10122 20117 58007 $=
201811031653 METAR KSEA 031653Z 20011KT 7SM -RA FEW007 SCT043 OVC060 12/11 A3029 RMK AO2 SLP262 P0001 T01220106 $=
201811031553 METAR KSEA 031553Z 21010KT 7SM -RA SCT009 SCT026 OVC085 12/10 A3029 RMK AO2 SLP263 P0001 T01170100 $=
201811031529 SPECI KSEA 031529Z 22011KT 8SM -RA BKN008 OVC013 12/10 A3030 RMK AO2 P0001 T01170100 $=
201811031518 SPECI KSEA 031518Z 22012KT 8SM -RA FEW008 BKN011 OVC016 12/10 A3030 RMK AO2 P0000 T01170100 $=
201811031453 METAR KSEA 031453Z 21007KT 9SM -RA BKN014 OVC020 12/10 A3030 RMK AO2 RAB46 SLP266 P0000 60000 T01220100 51010 $=
201811031353 METAR KSEA 031353Z 20008KT 10SM BKN014 BKN022 OVC110 12/09 A3029 RMK AO2 SLP265 T01220094 $=
201811031328 SPECI KSEA 031328Z 20009KT 10SM BKN016 BKN022 OVC110 12/09 A3029 RMK AO2 T01220094 $=
201811031312 SPECI KSEA 031312Z 20009KT 10SM SCT016 OVC110 12/09 A3029 RMK AO2 T01220094 $=
201811031253 METAR KSEA 031253Z 20010KT 10SM BKN014 OVC120 12/09 A3027 RMK AO2 SLP258 T01170094 $=
201811031153 METAR KSEA 031153Z 19009KT 10SM OVC013 12/09 A3027 RMK AO2 SLP255 T01170094 10128 20117 58004 $=
201811031053 METAR KSEA 031053Z 17006KT 10SM BKN013 OVC120 12/09 A3027 RMK AO2 SLP256 T01170094 $=
201811031043 SPECI KSEA 031043Z 19006KT 10SM BKN013 OVC120 12/09 A3028 RMK AO2 T01220094 $=
201811030953 METAR KSEA 030953Z 18007KT 10SM BKN016 OVC120 12/09 A3028 RMK AO2 SLP259 T01220094 $=
201811030853 METAR KSEA 030853Z 17007KT 10SM BKN017 BKN120 12/09 A3028 RMK AO2 SLP259 T01220089 58001 $=
201811030827 SPECI KSEA 030827Z 18007KT 10SM OVC016 12/09 A3029 RMK AO2 T01220089 $=
201811030753 METAR KSEA 030753Z 18006KT 10SM OVC014 12/09 A3029 RMK AO2 SLP263 T01220089 401670122 $=
201811030712 SPECI KSEA 030712Z 17005KT 10SM BKN014 OVC020 12/09 A3028 RMK AO2 T01220094 $=
201811030653 METAR KSEA 030653Z 20006KT 10SM BKN015 BKN020 OVC070 12/09 A3028 RMK AO2 SLP260 T01220094 $=
201811030600 SPECI KSEA 030600Z 21007KT 10SM BKN018 OVC034 13/09 A3028 RMK AO2 T01280094 $=
201811030553 METAR KSEA 030553Z 20009KT 10SM SCT017 BKN032 OVC140 13/09 A3028 RMK AO2 SLP260 T01280094 10144 20122 53008 $=
201811030453 METAR KSEA 030453Z 18007KT 10SM FEW015 SCT027 OVC140 13/09 A3026 RMK AO2 SLP254 T01280094 $=
201811030353 METAR KSEA 030353Z 21008KT 10SM SCT021 OVC150 13/09 A3027 RMK AO2 SLP256 T01280094 $=
201811030253 METAR KSEA 030253Z 21008KT 10SM SCT036 BKN090 OVC160 13/09 A3026 RMK AO2 SLP252 T01330089 53012 $=
201811030153 METAR KSEA 030153Z 20012KT 10SM FEW030 SCT090 BKN180 13/09 A3025 RMK AO2 SLP250 T01330089 $=
201811030053 METAR KSEA 030053Z 22014KT 10SM FEW030 SCT090 BKN200 14/08 A3022 RMK AO2 SLP241 T01390083 $=
201811022353 METAR KSEA 022353Z 22014KT 10SM FEW035 SCT095 BKN250 14/09 A3022 RMK AO2 SLP240 T01440089 10167 20139 53022 $=
201811022253 METAR KSEA 022253Z 21015KT 10SM FEW030 SCT085 BKN250 16/09 A3019 RMK AO2 SLP227 T01560089 $=
201811022153 METAR KSEA 022153Z 21012KT 10SM BKN030 BKN200 17/10 A3018 RMK AO2 SLP225 T01670100 $=
201811022053 METAR KSEA 022053Z 20017G22KT 10SM BKN025 BKN200 16/10 A3015 RMK AO2 SLP216 T01560100 51022 $=
201811021953 METAR KSEA 021953Z 21012KT 10SM BKN023 BKN041 15/10 A3014 RMK AO2 SLP211 T01500100 $=
201811021938 SPECI KSEA 021938Z 20014G21KT 10SM BKN023 BKN041 14/10 A3013 RMK AO2 T01440100 $=
201811021853 METAR KSEA 021853Z 21011KT 10SM SCT021 BKN041 BKN070 14/10 A3013 RMK AO2 SLP207 T01440100 $=
201811021753 METAR KSEA 021753Z 22016KT 10SM SCT019 BKN045 BKN060 14/10 A3009 RMK AO2 SLP194 T01440100 10144 20133 51038 $=
201811021653 METAR KSEA 021653Z 20006KT 10SM FEW010 BKN017 14/11 A3006 RMK AO2 SLP185 T01390106 $=
201811021553 METAR KSEA 021553Z 21010KT 10SM FEW010 BKN015 14/11 A3001 RMK AO2 SLP168 T01390111 $=
201811021453 METAR KSEA 021453Z 20016G25KT 10SM SCT010 BKN015 BKN030 14/12 A2998 RMK AO2 SLP156 T01390117 51019 $=
201811021421 SPECI KSEA 021421Z 20012G19KT 10SM SCT007 BKN010 BKN013 14/12 A2996 RMK AO2 T01440122 $=
201811021353 METAR KSEA 021353Z 20015G22KT 10SM FEW005 BKN008 OVC012 14/13 A2995 RMK AO2 SLP149 T01440128 $=
201811021253 METAR KSEA 021253Z 20015G23KT 10SM BKN007 OVC013 14/12 A2994 RMK AO2 PK WND 19029/1154 SLP144 T01390122 $=
201811021231 SPECI KSEA 021231Z 19016G20KT 10SM SCT008 OVC012 14/12 A2994 RMK AO2 PK WND 19029/1154 T01390122 $=
201811021229 SPECI KSEA 021229Z 20014G20KT 10SM BKN008 OVC012 14/12 A2994 RMK AO2 PK WND 19029/1154 CIG 006V011 T01390122 $=
201811021227 SPECI KSEA 021227Z 20013G20KT 10SM SCT010 14/12 A2994 RMK AO2 PK WND 19029/1154 T01390122 $=
201811021153 METAR KSEA 021153Z 20019G30KT 8SM BKN008 OVC014 13/12 A2992 RMK AO2 PK WND 19034/1137 RAE18 CIG 005V009 SLP137 P0001 60032 70034 T01330122 10150 20133 58018 $=
201811021059 SPECI KSEA 021059Z 18019KT 3SM -RA BR BKN008 OVC012 13/12 A2994 RMK AO2 CIG 005V010 P0000 T01330117 $=
201811021053 METAR KSEA 021053Z 19017KT 4SM -RA BR SCT008 OVC014 13/12 A2994 RMK AO2 PK WND 19028/1022 SLP145 P0016 T01330117 $=
201811021033 SPECI KSEA 021033Z 19020G27KT 6SM -RA BR SCT009 BKN014 OVC036 13/12 A2993 RMK AO2 PK WND 19028/1022 P0016 T01330117 $=
201811021030 SPECI KSEA 021030Z 19018G28KT 4SM -RA BR BKN014 BKN024 OVC036 13/12 A2993 RMK AO2 PK WND 19028/1022 P0016 T01330117 $=
201811021020 SPECI KSEA 021020Z 19019G25KT 3SM RA BR SCT014 BKN024 OVC034 13/12 A2993 RMK AO2 P0013 T01330117 $=
201811021015 SPECI KSEA 021015Z 19019KT 3SM RA BR BKN014 BKN020 OVC034 13/12 A2993 RMK AO2 P0011 T01330117 $=
201811021005 SPECI KSEA 021005Z 18017KT 2SM +RA BR BKN018 OVC026 13/12 A2993 RMK AO2 P0005 T01330117 $=
201811020953 METAR KSEA 020953Z 19017G22KT 4SM -RA BR OVC018 13/11 A2995 RMK AO2 SLP147 P0005 T01330111 $=
201811020853 METAR KSEA 020853Z 17012G18KT 5SM -RA BR OVC020 13/11 A2997 RMK AO2 SLP155 P0009 60010 T01330111 58022 $=
201811020832 SPECI KSEA 020832Z 17011KT 3SM -RA BR OVC018 13/11 A2999 RMK AO2 P0008 T01330111 $=
201811020831 SPECI KSEA 020831Z 18010KT 3SM -RA BR OVC018 13/11 A2999 RMK AO2 P0008 T01330111 $=
201811020804 SPECI KSEA 020804Z 20011KT 2SM -RA OVC020 14/11 A3003 RMK AO2 P0001 T01390106 $=
201811020753 METAR KSEA 020753Z 19014G19KT 3SM -RA OVC020 14/11 A3002 RMK AO2 RAB08 SLP170 P0001 T01440106 401670139 $=
201811020653 METAR KSEA 020653Z 18014G21KT 10SM BKN024 15/10 A3001 RMK AO2 PK WND 19027/0639 RAE18 SLP167 P0000 T01500100 $=
201811020621 SPECI KSEA 020621Z 18017KT 6SM HZ BKN018 BKN024 14/11 A3002 RMK AO2 RAE18 P0000 T01440106 $=
201811020607 SPECI KSEA 020607Z 19015KT 2 1/2SM -RA OVC018 14/11 A3003 RMK AO2 P0000 T01390111 $=
201811020553 METAR KSEA 020553Z 19015G22KT 4SM -RA SCT018 BKN026 OVC035 14/11 A3004 RMK AO2 PK WND 18027/0511 SLP177 P0002 60002 T01440111 10167 20139 56018 $=
201811020543 SPECI KSEA 020543Z 19013G22KT 2 1/2SM -RA SCT018 BKN026 OVC035 14/11 A3004 RMK AO2 PK WND 18027/0511 P0001 T01390111 $=
201811020542 SPECI KSEA 020542Z 19013G22KT 2 1/2SM -RA SCT018 BKN026 OVC035 14/11 A3004 RMK AO2 PK WND 18027/0511 P0001 T01390111 $=
201811020519 SPECI KSEA 020519Z 18016G27KT 4SM -RA SCT020 BKN026 OVC037 14/11 A3004 RMK AO2 PK WND 18027/0511 P0000 T01440111 $=
201811020453 METAR KSEA 020453Z 19013G22KT 6SM -RA BKN044 BKN060 OVC200 15/10 A3006 RMK AO2 PK WND 21032/0428 RAB45 SLP184 P0000 T01500100 $=
201811020353 METAR KSEA 020353Z 20014G21KT 10SM FEW031 BKN060 OVC080 16/10 A3007 RMK AO2 SLP187 T01560100 $=
201811020253 METAR KSEA 020253Z 20013G19KT 10SM FEW030 BKN037 OVC044 16/11 A3009 RMK AO2 SLP196 T01560106 58001 $=
201811020153 METAR KSEA 020153Z 20012G21KT 10SM OVC028 16/11 A3009 RMK AO2 SLP196 T01560106 $=
201811020130 SPECI KSEA 020130Z 20015KT 10SM OVC028 16/11 A3009 RMK AO2 T01610106 $=
201811020053 METAR KSEA 020053Z 19014KT 10SM BKN030 BKN080 16/11 A3010 RMK AO2 SLP199 T01610106 $=
201811012353 METAR KSEA 012353Z 21017G21KT 10SM FEW026 BKN033 BKN080 17/11 A3010 RMK AO2 SLP197 60000 T01670106 10167 20150 58006 $=
201811012343 SPECI KSEA 012343Z 21015KT 10SM SCT026 BKN033 OVC080 17/11 A3010 RMK AO2 T01670106 $=
201811012253 METAR KSEA 012253Z 20015KT 10SM OVC027 16/11 A3010 RMK AO2 SLP198 T01610111 $=
201811012218 SPECI KSEA 012218Z 21013G20KT 10SM OVC028 16/11 A3011 RMK AO2 T01610111 $=
201811012153 METAR KSEA 012153Z 20007KT 10SM OVC030 16/12 A3011 RMK AO2 SLP203 T01610117 $=
201811012053 METAR KSEA 012053Z 21013G20KT 10SM FEW012 SCT031 BKN045 OVC170 16/12 A3012 RMK AO2 SLP203 60000 T01610122 55004 $=
201811012039 SPECI KSEA 012039Z 21014KT 10SM FEW011 SCT025 BKN065 OVC160 16/12 A3012 RMK AO2 T01560122 $=
201811011953 METAR KSEA 011953Z 20013G21KT 10SM FEW011 BKN016 OVC120 16/13 A3011 RMK AO2 RAE13 SLP202 P0000 T01560133 $=
201811011942 SPECI KSEA 011942Z 20012KT 10SM FEW011 BKN016 OVC120 16/13 A3011 RMK AO2 RAE13 P0000 T01560128 $=
201811011853 METAR KSEA 011853Z 21013KT 6SM -RA BR BKN014 OVC030 15/13 A3012 RMK AO2 RAB53 SLP206 P0000 T01500128 $=
201811011753 METAR KSEA 011753Z 20014KT 10SM FEW008 BKN012 OVC075 16/13 A3013 RMK AO2 RAB34E45 SLP207 P0000 60000 T01560128 10156 20139 53012 $=
201811011653 METAR KSEA 011653Z 20013KT 10SM FEW007 OVC011 15/13 A3011 RMK AO2 SLP203 T01500128 $=
201811011623 SPECI KSEA 011623Z 20013KT 10SM SCT007 BKN011 OVC080 15/13 A3010 RMK AO2 T01500128 $=
201811011553 METAR KSEA 011553Z 20012G22KT 10SM BKN008 OVC012 15/13 A3010 RMK AO2 SLP198 T01500128 $=
201811011540 SPECI KSEA 011540Z 19012KT 10SM BKN008 OVC012 14/13 A3010 RMK AO2 T01440128 $=
201811011453 METAR KSEA 011453Z 19013KT 10SM SCT007 BKN012 OVC100 14/13 A3009 RMK AO2 DZE21 SLP194 P0000 60000 T01440128 58008 $=
201811011421 SPECI KSEA 011421Z 19012KT 10SM SCT007 OVC011 14/13 A3009 RMK AO2 DZE21 P0000 T01440128 $=
201811011353 METAR KSEA 011353Z 19009KT 4SM -DZ BR OVC005 14/13 A3011 RMK AO2 SLP200 P0000 T01440128 $=
201811011345 SPECI KSEA 011345Z 19010KT 4SM -DZ BR OVC005 14/13 A3011 RMK AO2 P0000 T01440128 $=
201811011306 SPECI KSEA 011306Z 19010KT 2 1/2SM -DZ BR OVC004 14/13 A3011 RMK AO2 P0000 T01390128 $=
201811011253 METAR KSEA 011253Z 19010KT 3SM -DZ BR OVC005 14/13 A3011 RMK AO2 DZB34 SLP202 P0000 T01390128 $=
201811011153 METAR KSEA 011153Z 20008KT 10SM OVC005 14/13 A3011 RMK AO2 CIG 004V009 SLP203 60000 70002 T01390128 10139 20139 58009 $=
201811011053 METAR KSEA 011053Z 18009KT 10SM FEW003 BKN006 OVC010 14/13 A3013 RMK AO2 SLP208 T01390128 $=
201811010953 METAR KSEA 010953Z 20008KT 10SM FEW003 BKN008 OVC013 14/13 A3014 RMK AO2 RAE39 SLP211 P0000 T01390128 $=
201811010853 METAR KSEA 010853Z 21011KT 10SM -RA FEW003 BKN006 OVC010 14/13 A3014 RMK AO2 RAE08B53 SLP213 P0000 60000 T01390128 53001 $=
201811010816 SPECI KSEA 010816Z 19007KT 10SM FEW003 BKN008 14/13 A3013 RMK AO2 RAE08 P0000 T01390128 $=
201811010753 METAR KSEA 010753Z 19008KT 10SM -RA FEW005 OVC011 14/13 A3013 RMK AO2 SLP210 P0000 T01390128 401440094 $=
201811010742 SPECI KSEA 010742Z 19009KT 10SM -RA FEW005 OVC011 14/13 A3014 RMK AO2 P0000 T01390128 $=
201811010653 METAR KSEA 010653Z 20011KT 10SM -RA FEW005 BKN008 OVC013 14/12 A3014 RMK AO2 RAB50 SLP214 P0000 T01390122 $=
201811010602 SPECI KSEA 010602Z 21008KT 10SM FEW006 OVC012 14/12 A3014 RMK AO2 T01390122 $=
201811010553 METAR KSEA 010553Z 21011KT 10SM OVC010 14/12 A3014 RMK AO2 SLP211 60002 T01390122 10144 20139 53004 $=
201811010453 METAR KSEA 010453Z 21010KT 10SM OVC008 14/12 A3012 RMK AO2 SLP207 T01390122 $=
201811010353 METAR KSEA 010353Z 22013KT 10SM OVC009 14/12 A3012 RMK AO2 RAE28 SLP205 P0002 T01390122 $=
201811010253 METAR KSEA 010253Z 21011KT 10SM -RA OVC008 14/12 A3012 RMK AO2 RAB53 SLP207 P0000 60000 T01390122 53011 $=
201811010153 METAR KSEA 010153Z 20012KT 10SM OVC008 14/12 A3009 RMK AO2 SLP196 T01390117 $=
201811010110 SPECI KSEA 010110Z 20009KT 10SM OVC008 14/12 A3010 RMK AO2 T01390117 $=
201811010053 METAR KSEA 010053Z 22007KT 10SM OVC010 14/12 A3009 RMK AO2 SLP196 T01390117 $=

# No short TAF reports from KSEA in databse.

###################################
#  large TAF from KSEA
###################################
201811302338 TAF KSEA 302338Z 0100/0206 19008KT P6SM VCSH FEW020 BKN025 BKN090
                       FM010100 15007KT P6SM -RA BKN020 OVC035
                       TEMPO 0101/0104 3SM -RA FM010700 15006KT
                       P6SM BKN025 OVC040 FM011300 11004KT P6SM
                       SCT030 OVC050 FM011800 VRB03KT P6SM SCT040
                       OVC070=
201811302105 KSEA 302105Z 3021/0124 19008KT P6SM VCSH FEW015 BKN045 BKN090
                      TEMPO 3021/3023 P6SM -SHRA BKN030 OVC040
                       FM010100 17007KT P6SM -RA BKN025 OVC030
                       FM010700 15006KT P6SM BKN025 OVC040 FM011300
                       11004KT P6SM SCT030 OVC050=
201811301737 TAF KSEA 301737Z 3018/0124 21008KT P6SM VCSH FEW008 BKN045 BKN090
                       TEMPO 3019/3022 P6SM -SHRA BKN030 OVC040
                       FM010000 17007KT P6SM -RA OVC030 FM010600
                       17006KT P6SM BKN025 OVC040 FM011300 06004KT
                       P6SM SCT030 OVC050=
201811301400 KSEA 301400Z 3014/0118 VRB04KT P6SM VCSH SCT010 OVC020 FM301500
                       18008KT P6SM VCSH BKN020 BKN040 OVC080 FM301800
                       17010KT P6SM -SHRA BKN030 OVC040 FM010000
                       17007KT P6SM -RA OVC030 FM010500 16006KT
                       P6SM BKN025 OVC040 FM011300 06004KT P6SM
                       SCT030 OVC050=
201811301120 TAF KSEA 301120Z 3012/0118 VRB04KT P6SM VCSH SCT010 OVC040
                      TEMPO 3012/3015 BKN006 FM301500 18008KT P6SM
                       VCSH BKN025 BKN040 OVC080 FM301800 17010KT
                       P6SM -SHRA BKN030 OVC040 FM010000 17007KT
                       P6SM -RA OVC030 FM010500 16006KT P6SM BKN025
                       OVC040=
201811300909 KSEA 300909Z 3009/0112 VRB04KT P6SM VCSH SCT010 OVC020
                      TEMPO 3009/3013 4SM -RA BR BKN006 OVC015
                       FM301500 18008KT P6SM VCSH BKN025 BKN040
                       OVC080 FM301800 17010KT P6SM -SHRA BKN030
                       OVC040 FM010000 17007KT P6SM -RA OVC030
                       FM010500 16006KT P6SM BKN025 OVC040=
201811300604 KSEA 300604Z 3006/0112 VRB04KT P6SM BKN008 OVC014 FM301000 VRB04KT
                       P6SM VCSH BKN006 BKN012 OVC030 FM301500
                       18008KT P6SM VCSH BKN025 BKN040 OVC080 FM301800
                       17010KT P6SM -SHRA BKN030 OVC040 FM010000
                       17007KT P6SM -RA OVC030 FM010500 16006KT
                       P6SM BKN025 OVC040=
201811300540 TAF KSEA 300540Z 3006/0112 01005KT P6SM OVC012 FM300900 VRB04KT
                       P6SM VCSH SCT006 BKN012 OVC030 FM301500
                       18008KT P6SM VCSH BKN025 BKN040 OVC080 FM301900
                       17010KT P6SM -SHRA BKN030 OVC040 FM010000
                       17007KT P6SM -RA OVC030 FM010500 16006KT
                       P6SM BKN025 OVC040=
201811300355 KSEA 300355Z 3004/0106 01005KT P6SM BKN012 BKN060 OVC150 FM300800
                       VRB04KT P6SM OVC012 FM301100 18006KT P6SM
                       VCSH SCT006 BKN012 OVC030 FM301800 18008KT
                       P6SM VCSH SCT020 BKN040 OVC080 FM010200
                       18007KT P6SM -SHRA BKN030 OVC040=
201811292335 TAF KSEA 292335Z 3000/0106 01010KT P6SM FEW014 SCT050 BKN180 FM300300
                       01005KT P6SM BKN060 OVC150 FM300700 VRB03KT
                       P6SM BKN015 OVC040 FM301100 18006KT P6SM
                       VCSH BKN012 OVC030 FM301800 18008KT P6SM
                       VCSH SCT020 BKN040 OVC080 FM010200 18007KT
                       P6SM -SHRA BKN030 OVC040=
201811292104 KSEA 292104Z 2921/3024 01009KT P6SM SCT014 BKN200 FM300300 VRB03KT
                       P6SM BKN060 OVC150 FM301100 18006KT P6SM
                       VCSH BKN015 OVC030 FM301700 18008KT P6SM
                       VCSH SCT020 BKN040 OVC080=
201811291829 KSEA 291829Z 2918/3024 03008KT 3SM BR SCT003 BKN120 BKN200
                      TEMPO 2918/2920 1SM BR BKN002 BKN120 BKN200
                       FM292000 03008KT P6SM SCT005 BKN120 BKN200
                       FM300300 VRB03KT P6SM BKN060 BKN100 FM301100
                       18006KT P6SM VCSH BKN015 OVC030 FM301700
                       18008KT P6SM VCSH SCT020 BKN040 OVC080=
201811291804 KSEA 291804Z 2918/3024 03007KT P6SM SCT003 BKN120 BKN200
                      TEMPO 2918/2920 3SM BR BKN003 BKN120 BKN200
                       FM300300 VRB03KT P6SM BKN060 BKN100 FM301100
                       18006KT P6SM VCSH BKN015 OVC030 FM301700
                       18008KT P6SM VCSH SCT020 BKN040 OVC080=
201811291727 TAF KSEA 291727Z 2918/3024 03007KT P6SM SCT009 BKN120 BKN200 FM300300
                       VRB03KT P6SM BKN060 BKN100 FM301100 18006KT
                       P6SM VCSH BKN015 OVC030 FM301700 18008KT
                       P6SM VCSH SCT020 BKN040 OVC080=
201811291507 KSEA 291507Z 2915/3018 36005KT 3SM BR BKN003
                      TEMPO 2915/2918 1/2SM FG VV001 FM291800 02006KT
                       P6SM SCT050 BKN120 BKN200 FM300300 03003KT
                       P6SM BKN060 BKN100 FM301100 18006KT P6SM
                       VCSH BKN015 OVC030=
201811291321 KSEA 291321Z 2913/3018 VRB03KT 1/2SM FG BKN003 BKN020
                      TEMPO 2914/2917 5SM BR SCT005 BKN035 BKN060
                       FM291700 02006KT P6SM BKN050 BKN100 FM292100
                       36007KT P6SM SCT050 BKN120 BKN200 FM300300
                       03003KT P6SM BKN060 BKN100 FM301100 18006KT
                       P6SM VCSH BKN015 OVC030=
201811291219 KSEA 291219Z 2912/3018 VRB03KT 3SM BR SCT002 SCT035 OVC050
                      TEMPO 2912/2916 1/4SM FG VV001 FM291800 02006KT
                       P6SM BKN050 BKN100 FM292100 36007KT P6SM
                       SCT050 BKN120 BKN200 FM300300 03003KT P6SM
                       BKN060 BKN100 FM301100 18006KT P6SM VCSH
                       BKN015 OVC030=
201811291138 TAF KSEA 291138Z 2912/3018 VRB03KT 5SM BR FEW002 SCT035 OVC050
                       TEMPO 2912/2916 1/2SM FG BKN002 BKN015 OVC030
                       FM291800 02006KT P6SM BKN050 BKN100 FM292100
                       36007KT P6SM SCT050 BKN120 BKN200 FM300300
                       03003KT P6SM BKN060 BKN100 FM301100 18006KT
                       P6SM VCSH BKN015 OVC030=
201811290901 KSEA 290901Z 2909/3012 08004KT P6SM VCSH SCT015 OVC040 FM291200
                       05003KT P6SM BKN015 OVC030 FM292100 35006KT
                       P6SM FEW025 BKN040 FM300300 03003KT P6SM
                       FEW015 BKN035 FM301000 VRB04KT P6SM VCSH
                       BKN015 OVC030=
201811290534 TAF KSEA 290534Z 2906/3012 08004KT P6SM VCSH SCT015 OVC040
                      TEMPO 2906/2909 -SHRA FM291000 05003KT P6SM
                       BKN015 OVC030 FM292100 35006KT P6SM FEW025
                       BKN040 FM300300 03003KT P6SM FEW015 BKN035
                       FM301000 VRB04KT P6SM VCSH BKN015 OVC030=
201811290307 KSEA 290307Z 2903/3006 14005KT P6SM VCSH SCT015 OVC040
                      TEMPO 2903/2905 5SM -SHRA FM290500 VRB03KT
                       5SM BR VCSH BKN015 OVC030 FM290700 VRB03KT
                       P6SM OVC012 FM291800 01007KT P6SM BKN020
                       OVC030 FM292200 35006KT P6SM SCT025 BKN040
                       FM300300 03003KT P6SM SCT015 BKN030=
201811282327 TAF KSEA 282327Z 2900/3006 16005KT P6SM -SHRA SCT015 SCT035 OVC050
                       TEMPO 2900/2903 5SM -RA BR FM290500 VRB03KT
                       5SM -SHRA BR BKN022 OVC040 FM290700 VRB03KT
                       P6SM OVC012 FM291800 01007KT P6SM BKN020
                       OVC030 FM292200 35006KT P6SM SCT025 BKN040
                       FM300300 03003KT P6SM SCT015 BKN030=
201811282004 KSEA 282004Z 2820/2924 16005KT P6SM FEW015 SCT035 OVC060
                      TEMPO 2822/2902 -SHRA SCT015 BKN030 OVC050
                       FM290200 VRB03KT 5SM -SHRA BR BKN022 OVC040
                       FM290700 VRB03KT P6SM OVC012 FM291800 01004KT
                       P6SM BKN020 OVC030 FM292200 35006KT P6SM
                       SCT025 BKN040=
201811281723 TAF KSEA 281723Z 2818/2924 VRB03KT P6SM -SHRA FEW020 BKN035 OVC050
                       FM282000 VRB03KT P6SM -SHRA SCT020 BKN030
                       OVC045 FM290300 VRB03KT 5SM -SHRA BR BKN022
                       OVC040 FM290700 VRB03KT P6SM OVC012 FM291800
                       01004KT P6SM BKN020 OVC030 FM292200 35006KT
                       P6SM SCT025 BKN040=
201811281504 KSEA 281504Z 2815/2918 16006KT P6SM FEW035 BKN045 OVC060
                      TEMPO 2815/2817 -SHRA BKN022 OVC040 FM281700
                       18005KT P6SM VCSH SCT020 OVC035 FM282000
                       VRB05KT P6SM -SHRA BKN030 OVC050 FM290300
                       VRB04KT 5SM -SHRA BR BKN022 OVC040 FM290700
                       18004KT P6SM VCSH OVC012=
201811281137 TAF KSEA 281137Z 2812/2918 19007KT P6SM VCSH SCT025 BKN060
                      TEMPO 2812/2816 BKN022 OVC040 FM281600 18005KT
                       P6SM VCSH SCT020 OVC035 FM282000 VRB05KT
                       P6SM -SHRA BKN030 OVC050 FM290300 VRB04KT
                       5SM -SHRA BR BKN022 OVC040 FM290700 18004KT
                       P6SM VCSH OVC012=
201811281135 TAF KSEA 281135Z 2812/2918 19007KT P6SM VCSH SCT025 BKN060
                      TEMPO 2812/2816 BKN022 OVC040 FM281600 18005KT
                       P6SM VCSH SCT020 OVC035 FM282000 VRB05KT
                       P6SM -SHRA BKN030 OVC050 FM290300 VRB04KT
                       5SM -SHRA BR BKN022 OVC040 FM290700 18004KT
                       P6SM VCSH OVC012=
201811280903 KSEA 280903Z 2809/2912 18010KT P6SM VCSH SCT025 OVC040
                      TEMPO 2809/2812 -SHRA BKN020 FM281200 19007KT
                       P6SM VCSH FEW010 BKN020 FM281800 18005KT
                       P6SM VCSH SCT020 OVC035 FM282100 26004KT
                       P6SM VCSH BKN035
                      PROB30 2821/2903 -SHRA FM290300 VRB04KT P6SM
                       VCSH BKN025 FM290700 VRB04KT P6SM OVC015=
201811280538 TAF KSEA 280538Z 2806/2912 18010KT P6SM VCSH SCT025 OVC040
                      TEMPO 2806/2810 5SM -SHRA BKN020 FM281000
                       19007KT P6SM VCSH FEW010 BKN020 FM281800
                       18005KT P6SM VCSH SCT020 OVC035 FM282100
                       26004KT P6SM VCSH BKN035
                      PROB30 2821/2903 -SHRA FM290300 VRB04KT P6SM
                       VCSH BKN025 FM290700 VRB04KT P6SM OVC015=
201811280255 KSEA 280255Z 2803/2906 18011KT P6SM -SHRA SCT028 OVC060 FM280600
                       18009KT P6SM VCSH SCT015 OVC035 FM281100
                       18007KT P6SM VCSH SCT015 BKN030 FM281800
                       18005KT P6SM VCSH SCT015 OVC035 FM282100
                       26004KT P6SM VCSH SCT015 BKN035=
201811280136 KSEA 280136Z 2802/2906 19006KT P6SM -SHRA FEW015 SCT028 OVC060
                       TEMPO 2802/2804 3SM -TSRA OVC030CB FM280400
                       18009KT P6SM VCSH SCT015 OVC035 FM281100
                       18007KT P6SM VCSH SCT015 BKN030 FM281800
                       18005KT P6SM VCSH SCT015 OVC035 FM282100
                       26004KT P6SM VCSH SCT015 BKN035=
201811272334 TAF KSEA 272334Z 2800/2906 19006KT P6SM VCSH FEW015 SCT028 OVC060
                       TEMPO 2800/2804 3SM -SHRA BR OVC030 FM280600
                       18009KT P6SM VCSH SCT015 OVC035 FM281100
                       18007KT P6SM VCSH SCT015 BKN030 FM281800
                       18005KT P6SM VCSH SCT015 OVC035 FM282100
                       26004KT P6SM VCSH SCT015 BKN035=
201811272001 KSEA 272001Z 2720/2824 20012KT P6SM VCSH SCT040
                      TEMPO 2721/2723 21011KT -SHRA SCT020 BKN030
                       FM280000 18010KT P6SM VCSH BKN040 BKN070
                       TEMPO 2801/2804 3SM -SHRA BR BKN015 OVC030
                       FM280600 19008KT P6SM VCSH SCT015 BKN030=
201811271850 KSEA 271850Z 2719/2824 19012KT P6SM VCSH FEW009 SCT025 FM272000
                       20012KT P6SM SCT040 FM280000 18010KT P6SM
                       VCSH BKN040 BKN070
                      TEMPO 2801/2804 3SM -SHRA BR BKN015 OVC030
                       FM280600 19008KT P6SM VCSH SCT015 BKN030=
201811271730 TAF KSEA 271730Z 2718/2824 17012G18KT P6SM -SHRA FEW009 SCT025
                       BKN030
                      TEMPO 2718/2720 3SM -RA BR BKN015 OVC030
                       FM272000 20012KT P6SM VCSH BKN035 FM280000
                       18010KT P6SM VCSH BKN040 BKN070
                      TEMPO 2801/2804 3SM -SHRA BR BKN015 OVC030
                       FM280600 19008KT P6SM VCSH SCT015 BKN030=
201811271509 KSEA 271509Z 2715/2818 18011KT P6SM FEW008 FEW025 BKN070 FM271600
                       19012G20KT P6SM -SHRA SCT017 BKN030
                      TEMPO 2716/2720 3SM -SHRA BR BKN015 OVC030
                       FM272000 20012KT P6SM VCSH BKN035 FM280000
                       18010KT P6SM VCSH BKN040 BKN070 FM280600
                       19008KT P6SM VCSH SCT015 BKN030=
201811271133 TAF KSEA 271133Z 2712/2818 18012G20KT 6SM -SHRA BR SCT015 OVC035
                       TEMPO 2712/2716 3SM -SHRA BR BKN015 OVC030
                       FM271600 19012G20KT P6SM -SHRA SCT017 BKN030
                       FM272000 20012KT P6SM VCSH BKN035 FM280000
                       18010KT P6SM VCSH BKN040 BKN070 FM280600
                       19008KT P6SM VCSH SCT015 BKN030=
201811270903 KSEA 270903Z 2709/2812 15011KT 4SM -RA SCT005 OVC035 WS020/18050KT
                       FM271000 17014G22KT 5SM -RA BR SCT005 OVC020
                       FM271500 19012G25KT P6SM -SHRA OVC020 FM272200
                       20012KT P6SM VCSH BKN035 FM280300 18010KT
                       P6SM VCSH BKN015 OVC030 FM280800 19008KT
                       P6SM VCSH OVC010=
201811270535 TAF KSEA 270535Z 2706/2812 13008G12KT 4SM -RA SCT005 OVC035 WS020/18050KT
                       TEMPO 2706/2710 BKN005 FM271000 17014G22KT
                       5SM -RA BR SCT005 OVC020 FM271500 19012G25KT
                       P6SM -SHRA OVC020 FM272200 20012KT P6SM
                       VCSH BKN035 FM280300 18010KT P6SM VCSH BKN015
                       OVC030 FM280800 19008KT P6SM VCSH OVC010=
201811270256 KSEA 270256Z 2703/2806 19006KT 4SM -RA OVC035 WS020/18050KT FM270900
                       17014G22KT 5SM -RA BR OVC030 FM271400 19012G25KT
                       P6SM -SHRA OVC035=
201811270044 KSEA 270044Z 2701/2806 19009KT 3SM -RA BKN035 OVC045 WS020/18050KT
                       FM270600 17014G22KT 5SM -RA BR OVC030 FM271400
                       19012G25KT P6SM -SHRA OVC035=
201811262322 TAF KSEA 262322Z 2700/2806 17010KT P6SM -RA FEW020 OVC040 WS020/18050KT
                       FM270600 17014G22KT 5SM -RA BR OVC030 FM271400
                       19012G25KT P6SM -SHRA OVC035=
201811262110 KSEA 262110Z 2621/2724 15011KT 5SM -RA BR OVC045 WS020/18050KT
                       FM270000 16014G24KT P6SM -RA OVC035 WS020/18050KT
                       FM270600 17013KT 5SM -RA BR BKN025 OVC040
                       FM271400 18011G22KT 3SM -SHRA BR BKN015
                       OVC025=
201811261722 TAF KSEA 261722Z 2618/2724 15010KT 5SM -RA BR BKN060 OVC080 WS020/18045KT
                       FM262000 17011KT 4SM -RA BR OVC035 WS020/18050KT
                       FM270000 16014G22KT P6SM -RA OVC035 WS020/18050KT
                       FM270600 17014KT 5SM -RA BR BKN025 OVC040
                       FM271400 18011G22KT 3SM -SHRA BR BKN015
                       OVC025=
201811261620 KSEA 261620Z 2616/2718 15007KT P6SM -RA OVC040 WS020/18045KT FM262000
                       15010KT 4SM -RA BR OVC035 WS020/18050KT
                       FM270000 16012G20KT P6SM -RA OVC030 WS020/18050KT
                       FM270800 16010KT 5SM -RA BR BKN025 OVC040
                       FM271400 18008KT 3SM -SHRA BR BKN015 OVC025=
201811261215 TAF KSEA 261215Z 2612/2718 21005KT P6SM -RA OVC050 FM261400 15007KT
                       P6SM -RA OVC040 WS020/18045KT FM262000 15010KT
                       4SM -RA BR OVC035 WS020/18050KT FM270000
                       16012G20KT P6SM -RA OVC030 WS020/18050KT
                       FM270800 16010KT 5SM -RA BR BKN025 OVC040
                       FM271400 18008KT 3SM -SHRA BR BKN015 OVC025=
201811260904 KSEA 260904Z 2609/2712 23003KT P6SM -RA OVC050 FM261200 14008KT
                       P6SM -RA OVC040 WS020/18045KT FM262000 15008KT
                       4SM -RA BR OVC035 WS020/18050KT=
201811260527 TAF KSEA 260527Z 2606/2712 00000KT P6SM OVC080 FM260800 10008KT
                       P6SM -RA OVC050 FM261200 14008KT P6SM -RA
                       OVC040 WS020/18045KT FM262000 15008KT 4SM
                       -RA BR OVC035 WS020/18050KT=
201811260341 KSEA 260341Z 2604/2706 18004KT P6SM -RA OVC050 FM260800 10008KT
                       P6SM -RA OVC040 FM261200 14008KT P6SM -RA
                       OVC040 WS020/18045KT FM262000 15008KT 4SM
                       -RA BR OVC035 WS020/18050KT=
201811252331 TAF KSEA 252331Z 2600/2706 17004KT P6SM SCT050 OVC100 FM260200
                       13006KT P6SM OVC060 FM260800 10008KT P6SM
                       -RA OVC040 FM261200 14008KT P6SM -RA OVC040
                       WS020/18045KT FM262000 15008KT 4SM -RA BR
                       OVC035 WS020/18050KT=
201811252121 KSEA 252121Z 2521/2624 21005KT P6SM SCT060 BKN080 OVC100 FM260100
                       13006KT P6SM OVC060 FM260800 13006KT P6SM
                       -RA OVC040 FM261200 14007KT P6SM -RA OVC040
                       WS020/18045KT=
201811251721 TAF KSEA 251721Z 2518/2624 VRB03KT P6SM FEW090 BKN190 FM260100
                       13008KT P6SM SCT050 BKN100 FM260800 13006KT
                       P6SM -RA OVC040 FM261200 14007KT P6SM -RA
                       OVC040 WS020/18045KT=
201811251401 KSEA 251401Z 2514/2618 11006KT P6SM SCT150 BKN250 FM260100 13008KT
                       P6SM SCT050 BKN100 FM260800 15006KT P6SM
                       -RA SCT020 OVC040=
201811251136 TAF KSEA 251136Z 2512/2618 11006KT P6SM SCT150 BKN250 FM260100
                       13008KT P6SM SCT050 BKN100 FM260800 15006KT
                       P6SM -RA SCT020 OVC040=
201811250910 KSEA 250910Z 2509/2612 11006KT P6SM SCT150 SCT250 FM260100 13008KT
                       P6SM SCT050 BKN100=
201811250520 TAF KSEA 250520Z 2506/2612 11006KT P6SM BKN150 BKN250=
201811250300 KSEA 250300Z 2503/2606 10005KT P6SM OVC100 FM251800 10005KT P6SM
                       SCT100 BKN150=
201811242320 TAF KSEA 242320Z 2500/2606 19004KT P6SM FEW026 SCT035 BKN170 FM250200
                       10005KT P6SM SCT035 OVC080 FM251800 10005KT
                       P6SM SCT100 BKN150=
201811242246 KSEA 242246Z 2423/2524 21005KT P6SM BKN035 BKN200 FM250200 10005KT
                       P6SM SCT035 OVC080=
201811242155 KSEA 242155Z 2422/2524 15006KT P6SM BKN030 BKN200 FM250200 10005KT
                       P6SM SCT030 OVC080=
201811242002 KSEA 242002Z 2420/2524 14005KT P6SM BKN020 OVC030 FM242100 14004KT
                       P6SM SCT030 SCT250 FM250000 12004KT P6SM
                       BKN100 OVC250 FM250200 10005KT P6SM OVC080=
201811241728 TAF KSEA 241728Z 2418/2524 00000KT P6SM BKN010 BKN040 FM241900
                       18005KT P6SM SCT020 SCT035 FM250000 18004KT
                       P6SM BKN100 OVC250 FM250200 10005KT P6SM
                       OVC080=
201811241602 KSEA 241602Z 2416/2518 17004KT P6SM BKN008 BKN040 FM241900 19005KT
                       P6SM SCT020 BKN080 FM242100 21005KT P6SM
                       SCT040 BKN100 OVC250 FM250200 09004KT P6SM
                       SCT040 OVC100=
201811241310 KSEA 241310Z 2413/2518 15005KT P6SM BKN030 BKN070 FM241800 19005KT
                       P6SM SCT030 BKN080 FM242100 21005KT P6SM
                       SCT040 BKN100 OVC250 FM250200 09004KT P6SM
                       SCT040 OVC100=
201811241120 TAF KSEA 241120Z 2412/2518 15005KT P6SM SCT010 BKN070 FM241800
                       19005KT P6SM SCT020 BKN080 FM242100 21005KT
                       P6SM SCT030 BKN100 OVC250 FM250200 09004KT
                       P6SM SCT040 OVC100=
201811240902 KSEA 240902Z 2409/2512 18005KT P6SM VCSH BKN015 OVC060 FM241100
                       15005KT P6SM OVC015 FM241800 19005KT P6SM
                       BKN025 FM242100 21005KT P6SM SCT030 BKN150
                       OVC250 FM250200 09004KT P6SM BKN040 OVC150=
201811240522 TAF KSEA 240522Z 2406/2512 19005KT P6SM VCSH SCT020 BKN040
                      TEMPO 2406/2410 BKN020 OVC040 FM241000 15005KT
                       P6SM BKN018 FM241800 19005KT P6SM BKN025
                       FM242200 21005KT P6SM SCT030 BKN150 OVC250=
201811240310 KSEA 240310Z 2403/2506 VRB04KT P6SM VCSH OVC018 FM240600 18008KT
                       P6SM VCSH BKN020 FM241000 15005KT P6SM OVC012
                       FM242000 19006KT P6SM BKN025=
201811232320 TAF KSEA 232320Z 2400/2506 23009KT P6SM VCSH FEW015 BKN029 OVC035
                       FM240500 18008KT P6SM VCSH BKN020 FM241000
                       15005KT P6SM OVC012 FM242000 19006KT P6SM
                       BKN025=
201811232059 KSEA 232059Z 2321/2424 20010KT P6SM VCSH BKN011 BKN050 BKN130 FM240000
                       19008KT P6SM VCSH SCT015 BKN050 FM240500
                       18008KT P6SM VCSH BKN020 FM241000 15005KT
                       P6SM OVC009=
201811231720 TAF KSEA 231720Z 2318/2424 17010G18KT P6SM -SHRA BKN035 BKN050
                       FM240500 18008KT P6SM VCSH BKN020 FM241000
                       15005KT P6SM OVC009=
201811231647 KSEA 231647Z 2317/2418 18010KT 5SM -SHRA BR SCT013 BKN023 OVC030
                       FM231800 21012G20KT P6SM -SHRA BKN035 BKN050
                       FM240500 18008KT P6SM BKN020 FM241000 15005KT
                       P6SM OVC010=
201811231122 TAF KSEA 231122Z 2312/2418 18010KT P6SM -SHRA BKN030 OVC040 FM231800
                       21012G20KT P6SM VCSH SCT035 BKN050 FM240500
                       18008KT P6SM BKN020=
201811230903 KSEA 230903Z 2309/2412 19012G20KT P6SM -SHRA SCT025 BKN040 FM231100
                       18012G20KT P6SM -SHRA BKN020 OVC035 FM231800
                       21012G20KT P6SM VCSH SCT025 BKN050 FM240500
                       18008KT P6SM BKN020=
201811230520 TAF KSEA 230520Z 2306/2412 19012G20KT P6SM VCSH SCT025 BKN040
                      TEMPO 2306/2310 -SHRA BKN020 OVC040 FM231000
                       18012G20KT P6SM -SHRA BKN020 OVC035 FM231800
                       21012G20KT P6SM VCSH SCT025 BKN050 FM240500
                       18008KT P6SM BKN020=
201811230301 KSEA 230301Z 2303/2406 19012G22KT P6SM VCSH SCT020 BKN040
                      TEMPO 2306/2310 -SHRA BKN020 OVC040 FM231000
                       18012KT P6SM -SHRA BKN020 OVC035 FM231800
                       21012KT P6SM VCSH SCT025 BKN050=
201811222320 TAF KSEA 222320Z 2300/2406 22005KT 5SM -RA BR OVC035 FM230300 19010G17KT
                       P6SM -SHRA SCT020 OVC035 FM231300 18008KT
                       5SM -SHRA BKN020 OVC035 FM232200 21008KT
                       P6SM -SHRA SCT025 OVC040=
201811222102 KSEA 222102Z 2221/2324 11008KT P6SM -RA OVC050 FM222200 15008KT
                       P6SM -RA BKN035 OVC050 FM230300 19010G17KT
                       P6SM -SHRA SCT020 OVC035 FM231300 18010G17KT
                       5SM -SHRA BKN020 OVC035=
201811222007 KSEA 222007Z 2220/2324 11010KT P6SM BKN060 BKN100 OVC200 FM222100
                       17011KT 6SM -RA BR SCT020 OVC030 FM230300
                       19010G17KT P6SM -SHRA SCT020 OVC035 FM231300
                       18010G17KT 5SM -SHRA BKN020 OVC035=
201811221741 TAF KSEA 221741Z 2218/2324 16012KT P6SM SCT030 OVC040 FM222100
                       18011KT 6SM -RA BR SCT020 OVC030 FM230300
                       19010G17KT P6SM -SHRA SCT020 OVC035 FM231300
                       18010G17KT 5SM -SHRA BKN020 OVC035=
201811221531 KSEA 221531Z 2216/2318 14005KT P6SM FEW014 SCT025 OVC040
                      TEMPO 2216/2218 FEW014 BKN025 OVC040 FM221800
                       16012KT P6SM SCT030 OVC040 FM222200 18010KT
                       P6SM -RA OVC040 FM230900 19010KT P6SM -RA
                       BKN020 OVC040=
201811221456 KSEA 221456Z 2215/2318 16008KT P6SM FEW010 SCT030 BKN040 FM221700
                       16012KT P6SM SCT030 OVC040 FM222200 18010KT
                       P6SM -RA OVC040 FM230900 19010KT P6SM -RA
                       BKN020 OVC040=
201811221130 TAF KSEA 221130Z 2212/2318 19010KT P6SM -RA BKN035 OVC050 FM221500
                       16008KT P6SM -RA BKN030 OVC040 FM221700
                       16012KT P6SM SCT030 OVC040 FM222200 18010KT
                       P6SM -RA OVC040 FM230900 19010KT P6SM -RA
                       BKN020 OVC040=
201811220906 KSEA 220906Z 2209/2312 00000KT P6SM OVC040 FM221000 16007KT 4SM
                       -RA BR OVC020 FM221500 16008KT P6SM -RA
                       BKN015 OVC030 FM221700 16007KT P6SM SCT020
                       OVC040 FM222200 18009KT P6SM -RA OVC040=
201811220524 TAF KSEA 220524Z 2206/2312 00000KT P6SM SCT020 OVC040
                      TEMPO 2206/2209 4SM -RA BR BKN020 OVC040
                       FM220900 16007KT 4SM -RA BR OVC020 FM221500
                       16008KT P6SM -RA BKN015 OVC030 FM221700
                       16007KT P6SM SCT020 OVC040 FM222200 15009KT
                       P6SM -RA OVC040=
201811220301 KSEA 220301Z 2203/2306 VRB03KT P6SM SCT025 OVC050
                      TEMPO 2205/2209 -SHRA BKN025 OVC050 FM220900
                       16009KT 5SM -RA BR OVC020 FM221700 15008KT
                       P6SM SCT025 OVC040 FM222200 16010KT P6SM
                       -RA OVC035=
201811212325 TAF KSEA 212325Z 2200/2306 15006KT P6SM -SHRA BKN035 OVC050 FM220900
                       16009KT 5SM -RA BR OVC020 FM221700 15008KT
                       P6SM SCT025 OVC040 FM222200 16010KT P6SM
                       -RA OVC035=
201811212014 KSEA 212014Z 2120/2224 19004KT P6SM -RA SCT035 OVC050 FM212300
                       15007KT P6SM -RA FEW020 BKN030 OVC050 FM220300
                       17009KT P6SM VCSH BKN035 OVC050 FM220800
                       17009KT P6SM -RA OVC022 FM221500 12008KT
                       P6SM SCT025 OVC040=
201811211733 TAF KSEA 211733Z 2118/2224 22003KT P6SM BKN050 OVC080 FM212000
                       15007KT P6SM -RA FEW020 BKN030 OVC050 FM220300
                       17009KT P6SM VCSH BKN035 OVC050 FM220800
                       17009KT P6SM -RA OVC022 FM221500 12008KT
                       P6SM SCT025 OVC040=
201811211137 TAF KSEA 211137Z 2112/2218 12008KT P6SM VCSH BKN060 OVC100 FM211400
                       14010KT P6SM -RA SCT035 OVC050 FM212000
                       15009KT P6SM -RA FEW020 BKN030 OVC050 FM220300
                       16009KT P6SM VCSH BKN035 OVC050 FM220800
                       17009KT P6SM -RA OVC022=
201811210846 KSEA 210846Z 2109/2212 13008KT P6SM FEW050 BKN120 OVC200 FM211200
                       13008KT P6SM BKN050 OVC100 FM211500 15008KT
                       P6SM -RA SCT035 OVC050 FM212000 17009KT
                       P6SM -RA FEW020 BKN035 OVC050 FM220000 15009KT
                       P6SM BKN035 OVC050
                      PROB30 2200/2206 -RA FM220600 15009KT P6SM
                       -RA OVC025=
201811210542 TAF KSEA 210542Z 2106/2212 13008KT P6SM FEW050 SCT100 OVC200 FM211000
                       13008KT P6SM BKN050 OVC100 FM211500 15008KT
                       P6SM -RA SCT035 OVC050 FM212000 17009KT
                       P6SM -RA FEW020 BKN035 OVC050 FM220000 15009KT
                       P6SM BKN035 OVC050
                      PROB30 2200/2206 -RA FM220600 15009KT P6SM
                       -RA OVC025=
201811210334 KSEA 210334Z 2104/2206 14005KT P6SM OVC200 FM210600 12006KT P6SM
                       SCT120 OVC200 FM211100 12006KT P6SM BKN080
                       OVC120 FM211500 14006KT P6SM VCSH SCT040
                       BKN080 OVC100 FM211700 15008KT P6SM -RA
                       BKN040 OVC100 FM212100 18009KT P6SM -RA
                       OVC040=
201811202321 TAF KSEA 202321Z 2100/2206 VRB05KT P6SM SCT150 BKN200 FM210600
                       12006KT P6SM SCT120 OVC200 FM211100 12006KT
                       P6SM BKN080 OVC120 FM211500 14006KT P6SM
                       VCSH SCT040 BKN080 OVC100 FM211700 15008KT
                       P6SM -RA BKN040 OVC100 FM212100 18009KT
                       P6SM -RA OVC040=
201811201920 KSEA 201920Z 2019/2124 VRB03KT 2SM BR FEW001 SCT200 FM202000 VRB05KT
                       P6SM BKN200 FM210600 10006KT P6SM SCT120
                       OVC200 FM211100 12006KT P6SM BKN080 OVC120
                       FM211500 14006KT P6SM VCSH SCT040 BKN080
                       OVC100 FM211700 15008KT P6SM -RA BKN040
                       OVC100=
201811201734 TAF KSEA 201734Z 2018/2124 VRB03KT 1SM BR BKN001 BKN200
                      TEMPO 2018/2020 1/2SM FG VV001 FM202000 VRB05KT
                       P6SM BKN200 FM210600 10006KT P6SM SCT120
                       OVC200 FM211100 12006KT P6SM BKN080 OVC120
                       FM211500 14006KT P6SM VCSH SCT040 BKN080
                       OVC100 FM211700 15008KT P6SM -RA BKN040
                       OVC100=
201811201601 KSEA 201601Z 2016/2118 VRB03KT 4SM BR SCT001
                      TEMPO 2016/2018 1/2SM FG VV001 FM201800 VRB05KT
                       P6SM BKN200 FM210600 10006KT P6SM SCT120
                       OVC200 FM211100 12006KT P6SM BKN080 OVC120
                       FM211700 14008KT P6SM -RA BKN060 OVC100=
201811201133 TAF KSEA 201133Z 2012/2118 VRB03KT 4SM BR SCT001
                      TEMPO 2012/2016 1/4SM FG VV001 FM201800 VRB05KT
                       P6SM BKN200 FM210600 10006KT P6SM SCT120
                       OVC200 FM211100 12006KT P6SM BKN080 OVC120
                       FM211700 14008KT P6SM -RA BKN060 OVC100=
201811200837 KSEA 200837Z 2009/2112 VRB03KT 5SM BR SCT001
                      TEMPO 2009/2012 1/2SM FG VV001 FM201200 VRB03KT
                       3SM BR OVC002
                      TEMPO 2012/2016 1/2SM FG VV001 FM201800 VRB05KT
                       P6SM FEW002 BKN200 FM210600 10005KT P6SM
                       SCT110 OVC200=
201811200532 TAF KSEA 200532Z 2006/2112 VRB03KT P6SM VCFG SKC FM201000 VRB03KT
                       4SM BR SCT004
                      TEMPO 2010/2012 BKN004 FM201200 VRB03KT 2SM
                       BR OVC004
                      TEMPO 2013/2017 1/2SM FG VV002 FM202000 VRB05KT
                       P6SM BKN200 FM210600 10005KT P6SM SCT110
                       OVC200=
201811200304 KSEA 200304Z 2003/2106 VRB03KT P6SM VCFG SKC FM200600 00000KT 6SM
                       BR FEW004 FM201000 00000KT 2SM BR OVC004
                       TEMPO 2012/2016 1/2SM FG VV002 FM202000
                       VRB05KT P6SM BKN200 FM210400 14005KT P6SM
                       SCT100 BKN150 OVC200=
201811192332 TAF KSEA 192332Z 2000/2106 29005KT P6SM SKC FM200400 04004KT P6SM
                       SKC FM201000 05004KT 2SM BR BKN005
                      TEMPO 2011/2015 1SM BR BKN002 FM201700 05005KT
                       5SM BR SCT005 SCT200 FM201800 34006KT P6SM
                       SCT200 FM202100 35006KT P6SM SCT150 BKN200
                       FM210400 14005KT P6SM SCT100 BKN150 OVC200=
201811192110 KSEA 192110Z 1921/2024 27005KT P6SM FEW250 FM192300 29006KT P6SM
                       SKC FM200400 05004KT P6SM SKC FM201000 05004KT
                       2SM BR BKN005
                      TEMPO 2011/2015 1SM BR BKN002 FM201600 05005KT
                       5SM BR SCT005 SCT200 FM201800 34006KT P6SM
                       SCT200 FM202100 35006KT P6SM SCT150 BKN200=
201811191743 TAF KSEA 191743Z 1918/2024 VRB03KT P6SM VCFG FEW002
                      TEMPO 1918/1919 5SM BR SCT002 FM192000 35005KT
                       P6SM SKC FM200500 05004KT P6SM SKC FM201000
                       05004KT 2SM BR BKN005
                      TEMPO 2012/2016 1SM BR BKN002 FM201600 05005KT
                       5SM BR SCT005 SCT200 FM201800 34006KT P6SM
                       SCT200 FM202100 35006KT P6SM SCT150 BKN200=
201811191504 KSEA 191504Z 1915/2018 VRB03KT 6SM BR FEW001
                      TEMPO 1915/1918 2SM BR BKN001 FM191900 35005KT
                       P6SM SKC FM200500 05004KT P6SM SKC FM201100
                       03005KT P6SM SCT200=
201811191351 KSEA 191351Z 1914/2018 VRB03KT 6SM BR SCT004
                      TEMPO 1914/1918 2SM BR BKN002 FM191900 35005KT
                       P6SM SKC FM200500 05004KT P6SM SKC FM201100
                       03005KT P6SM SCT200=
201811191128 TAF KSEA 191128Z 1912/2018 VRB03KT P6SM SKC
                      TEMPO 1913/1917 5SM BR FEW002 FM192000 35005KT
                       P6SM SKC FM200500 05004KT P6SM SKC FM201100
                       03005KT P6SM SCT200=
201811190856 KSEA 190856Z 1909/2012 02004KT P6SM SKC FM191200 06005KT P6SM VCFG
                       FEW003 FM192000 35005KT P6SM SKC FM200600
                       06004KT P6SM SKC=
201811190539 TAF KSEA 190539Z 1906/2012 03007KT P6SM SKC FM191200 06005KT P6SM
                       VCFG FEW003 FM192000 35005KT P6SM SKC FM200600
                       06004KT P6SM SKC=
201811190313 KSEA 190313Z 1903/2006 02008KT P6SM SKC FM190600 05005KT P6SM SKC
                       FM191100 04003KT P6SM BCFG SCT003 FM191900
                       36005KT P6SM SKC=
201811182320 TAF KSEA 182320Z 1900/2006 34004KT P6SM SKC FM190400 05005KT P6SM
                       SKC FM191100 04003KT P6SM BCFG SCT003 FM191900
                       36005KT P6SM SKC=
201811182102 KSEA 182102Z 1821/1924 01007KT P6SM SKC FM190000 05005KT P6SM SKC
                       FM191100 04003KT P6SM BCFG SCT003 FM191900
                       36005KT P6SM SKC=
201811181721 TAF KSEA 181721Z 1818/1924 01007KT P6SM SKC FM190000 05005KT P6SM
                       SKC FM191100 04003KT P6SM BCFG SCT003 FM191900
                       36005KT P6SM SKC=
201811181518 KSEA 181518Z 1815/1918 02008KT P6SM FEW200 FM181800 01006KT P6SM
                       SKC FM190200 05005KT P6SM SKC FM191100 04003KT
                       P6SM BCFG SCT003=
201811181120 TAF KSEA 181120Z 1812/1918 02008KT P6SM SKC FM181800 01006KT P6SM
                       SKC FM190200 05005KT P6SM SKC FM191100 04003KT
                       P6SM BCFG SCT003=
201811180857 KSEA 180857Z 1809/1912 03009KT P6SM SKC FM181200 05007KT P6SM VCFG
                       SKC FM181800 01006KT P6SM SKC FM190200 05005KT
                       P6SM SKC=
201811180542 TAF KSEA 180542Z 1806/1912 03012KT P6SM SKC FM181200 05007KT P6SM
                       VCFG SKC FM181800 01006KT P6SM SKC FM190200
                       05005KT P6SM SKC=
201811180207 KSEA 180207Z 1802/1906 01015KT P6SM SKC FM180800 03009KT P6SM SKC
                       TEMPO 1814/1818 FEW003 FM182000 02007KT
                       P6SM SKC=
201811172326 TAF KSEA 172326Z 1800/1906 02011KT P6SM SKC FM180800 03005KT P6SM
                       SKC
                      TEMPO 1814/1818 FEW003 FM182000 02007KT P6SM
                       SKC=
201811172127 KSEA 172127Z 1721/1824 02014KT P6SM SKC FM180100 03010KT P6SM SKC
                       FM180600 03004KT P6SM SKC=
201811171720 TAF KSEA 171720Z 1718/1824 01012KT P6SM FEW003 FM171900 02014KT
                       P6SM SKC
                      TEMPO 1719/1723 02012G23KT FM180100 03010KT
                       P6SM SKC FM180600 03004KT P6SM SKC=
201811171605 KSEA 171605Z 1716/1818 01012KT P6SM SCT003
                      TEMPO 1716/1718 BKN005 FM171900 02014KT P6SM
                       SKC
                      TEMPO 1719/1723 02012G23KT FM180100 03010KT
                       P6SM SKC FM180900 03004KT P6SM SKC=
201811171502 KSEA 171502Z 1715/1818 03010KT P6SM SKC WS020/09015KT
                      TEMPO 1715/1718 BKN005 FM171900 02014KT P6SM
                       SKC
                      TEMPO 1719/1723 02012G23KT FM180100 03010KT
                       P6SM SKC FM180900 03004KT P6SM SKC=
201811171140 TAF KSEA 171140Z 1712/1818 03010KT P6SM SKC WS020/09015KT
                      TEMPO 1713/1716 FEW010 FM171900 02014KT P6SM
                       SKC
                      TEMPO 1719/1723 02012G23KT FM180100 03010KT
                       P6SM SKC FM180900 03004KT P6SM SKC=
201811170903 KSEA 170903Z 1709/1812 01011KT P6SM FEW030 FM171200 03010KT P6SM
                       FEW009 WS020/09015KT FM171800 02014KT P6SM
                       SKC WS020/09015KT
                      TEMPO 1719/1723 01013G23KT FM180100 03010KT
                       P6SM SKC=
201811170537 TAF KSEA 170537Z 1706/1812 01013KT P6SM SCT025
                      TEMPO 1706/1708 BKN025 FM171200 03010KT P6SM
                       FEW009 WS020/09015KT FM171800 01015KT P6SM
                       SKC WS020/09015KT
                      TEMPO 1719/1723 01013G23KT FM180100 03010KT
                       P6SM SKC=
201811170509 KSEA 170509Z 1705/1806 36014KT P6SM FEW025 FM171200 03008KT P6SM
                       SCT007
                      TEMPO 1712/1716 BKN007 FM171800 02008KT P6SM
                       SKC=
201811170203 KSEA 170203Z 1702/1806 01010KT P6SM OVC011 FM171200 03008KT P6SM
                       SCT007
                      TEMPO 1712/1716 BKN007 FM171800 02008KT P6SM
                       SKC=
201811162320 TAF KSEA 162320Z 1700/1806 35011KT P6SM FEW007 OVC011 FM170200
                       02007KT P6SM SCT025 SCT050 FM171200 03008KT
                       P6SM FEW007 FM171600 02008KT P6SM SKC=
201811162101 KSEA 162101Z 1621/1724 35011KT P6SM FEW007 OVC011 FM170200 02007KT
                       P6SM SCT025 SCT050 FM171200 03008KT P6SM
                       FEW007 FM171600 03007KT P6SM SCT050=
201811161955 KSEA 161955Z 1620/1724 35010KT P6SM FEW006 OVC010 FM162100 01007KT
                       P6SM SCT015 OVC025 FM170300 02007KT P6SM
                       SCT025 SCT050 FM171200 03008KT P6SM FEW007
                       FM171600 03007KT P6SM SCT050=
201811161732 TAF KSEA 161732Z 1618/1724 35007KT 3SM BR OVC003 FM162000 01007KT
                       P6SM SCT015 OVC025 FM170300 02007KT P6SM
                       SCT025 SCT050 FM171200 03008KT P6SM FEW007
                       FM171600 03007KT P6SM SCT050=
201811161540 KSEA 161540Z 1616/1718 34007KT 1SM BR OVC002
                      TEMPO 1616/1618 1/4SM FG OVC001 FM161800
                       35006KT 4SM BR OVC007 FM162100 01006KT P6SM
                       SCT015 OVC025 FM170300 02007KT P6SM SCT025
                       SCT050 FM171200 03008KT P6SM FEW007 FM171600
                       03007KT P6SM SCT050=
201811161404 KSEA 161404Z 1614/1718 18008KT P6SM VCSH OVC012
                      TEMPO 1614/1616 1SM BR OVC003 FM161600 19007KT
                       P6SM VCSH SCT007 OVC010 FM161800 VRB04KT
                       P6SM BKN015 FM162300 36008KT P6SM FEW030
                       FM170500 03007KT P6SM SKC=
201811161138 TAF KSEA 161138Z 1612/1718 18008KT P6SM VCSH OVC012
                      TEMPO 1612/1614 4SM -RA OVC005 FM161500 19007KT
                       P6SM VCSH SCT007 OVC010 FM161800 VRB04KT
                       P6SM BKN015 FM162300 36008KT P6SM FEW030
                       FM170500 03007KT P6SM SKC=
201811160902 KSEA 160902Z 1609/1712 18010KT P6SM VCSH OVC015
                      TEMPO 1610/1614 -RA OVC012 FM161500 19009KT
                       P6SM VCSH SCT007 OVC010 FM161800 VRB04KT
                       P6SM BKN015 FM162300 36006KT P6SM FEW030
                       FM170500 03007KT P6SM SKC=
201811160535 TAF KSEA 160535Z 1606/1712 18010KT P6SM VCSH OVC020
                      TEMPO 1606/1610 -SHRA OVC015 FM161000 19009KT
                       P6SM -RA SCT007 OVC010 FM162000 VRB04KT
                       P6SM BKN015 FM162300 36006KT P6SM FEW030
                       FM170500 03007KT P6SM SKC=
201811160306 KSEA 160306Z 1603/1706 18012KT P6SM VCSH OVC020 FM160800 18009KT
                       P6SM -RA OVC015 FM161800 VRB04KT P6SM OVC012
                       FM162000 34005KT P6SM BKN025 FM162300 36006KT
                       P6SM FEW030 FM170200 03007KT P6SM SKC=
201811152331 TAF KSEA 152331Z 1600/1706 22007KT P6SM VCSH FEW025 BKN100 OVC200
                       FM160500 17006KT P6SM VCSH BKN020 OVC050
                       FM161000 18009KT P6SM -RA OVC015 FM161800
                       VRB04KT P6SM OVC012 FM162000 34005KT P6SM
                       BKN025 FM162300 36006KT P6SM FEW030 FM170200
                       03007KT P6SM SKC=
201811152109 KSEA 152109Z 1521/1624 22007KT P6SM FEW025 BKN080 OVC200 FM160500
                       17006KT P6SM VCSH BKN020 OVC050 FM161000
                       18009KT P6SM -RA OVC015 FM161800 VRB04KT
                       P6SM OVC012 FM162000 34005KT P6SM BKN025=
201811151732 TAF KSEA 151732Z 1518/1624 17005KT P6SM FEW023 OVC030 FM152000
                       22005KT P6SM FEW030 BKN050 FM160500 17006KT
                       P6SM VCSH OVC020 FM161000 18009KT P6SM -RA
                       OVC015 FM161800 VRB04KT P6SM OVC012 FM162000
                       34005KT P6SM BKN025=
201811151501 KSEA 151501Z 1515/1618 17005KT P6SM FEW012 OVC020 FM152000 22005KT
                       P6SM SCT020 BKN050 FM160500 17006KT P6SM
                       VCSH OVC020 FM161000 18009KT P6SM -RA OVC015=
201811151135 TAF KSEA 151135Z 1512/1618 18005KT P6SM OVC012
                      TEMPO 1512/1514 OVC009 FM152000 22005KT P6SM
                       SCT020 BKN050 FM160500 17006KT P6SM VCSH
                       OVC020 FM161000 18009KT P6SM -RA OVC015=
201811150902 KSEA 150902Z 1509/1612 18007KT P6SM OVC012
                      TEMPO 1511/1513 OVC008 FM152000 22005KT P6SM
                       SCT020 BKN050 FM160500 17006KT P6SM VCSH
                       OVC020 FM160800 18009KT P6SM -RA OVC015=
201811150532 TAF KSEA 150532Z 1506/1612 17005KT P6SM OVC009
                      TEMPO 1509/1513 OVC007 FM152000 22005KT P6SM
                       SCT020 BKN050 FM160500 17006KT P6SM VCSH
                       OVC020 FM160800 18009KT P6SM -RA OVC015=
201811150256 KSEA 150256Z 1503/1606 23006KT P6SM OVC015 FM151900 22005KT P6SM
                       OVC050=
201811142321 TAF KSEA 142321Z 1500/1606 23007KT P6SM BKN015 BKN060 FM150300
                       VRB05KT P6SM OVC015 FM151900 22005KT P6SM
                       OVC050=
201811142200 KSEA 142200Z 1422/1524 19013G20KT P6SM BKN015 BKN080 FM150000 18009KT
                       P6SM OVC025 FM150300 17005KT P6SM OVC015=
201811142106 KSEA 142106Z 1421/1524 19013KT P6SM SCT015 BKN080 BKN250 FM142300
                       18009KT P6SM OVC025 FM150300 17005KT P6SM
                       OVC015=
201811141727 TAF KSEA 141727Z 1418/1524 19012KT 4SM -RA BR BKN025 OVC035 FM142200
                       18009KT P6SM OVC025 FM150300 17005KT P6SM
                       OVC015=
201811141502 KSEA 141502Z 1415/1518 19012KT P6SM -RA BKN030 OVC050 FM141800
                       19012G20KT P6SM -RA OVC022 FM142200 18011KT
                       P6SM VCSH OVC015 FM150400 18005KT P6SM SCT009
                       OVC012=
201811141122 TAF KSEA 141122Z 1412/1518 18008KT P6SM SCT030 OVC045 FM141500
                       19012KT P6SM -RA BKN030 OVC040 FM141800
                       19012G20KT P6SM -RA OVC022 FM142200 18011KT
                       P6SM VCSH OVC015 FM150400 18005KT P6SM SCT009
                       OVC012=
201811140900 KSEA 140900Z 1409/1512 VRB05KT P6SM -RA SCT025 OVC050 FM141400
                       19012KT P6SM -RA BKN020 OVC040 FM141700
                       19012G18KT P6SM -RA OVC025 FM142200 18011KT
                       P6SM VCSH OVC015 FM150500 18005KT P6SM SCT009
                       OVC012=
201811140532 TAF KSEA 140532Z 1406/1512 19006KT P6SM VCSH OVC100 FM140700 17009KT
                       P6SM -RA SCT025 OVC050 FM141400 19012KT
                       P6SM -RA BKN020 OVC040 FM141700 19012G18KT
                       P6SM -RA OVC025 FM142200 18011KT P6SM VCSH
                       OVC015 FM150500 18005KT P6SM SCT009 OVC012=
201811140257 KSEA 140257Z 1403/1506 19010KT P6SM VCSH SCT100 OVC200 FM140700
                       17009KT P6SM -RA SCT025 OVC050 FM141500
                       19009KT P6SM -RA BKN020 OVC050 FM141900
                       19012KT P6SM OVC025=
201811132320 TAF KSEA 132320Z 1400/1506 19007KT P6SM SCT100 OVC200 FM140400
                       19007KT P6SM VCSH SCT040 OVC080 FM140700
                       17009KT P6SM -RA SCT025 OVC050 FM141500
                       19009KT P6SM -RA BKN020 OVC050 FM141900
                       19012KT P6SM OVC025=
201811132100 KSEA 132100Z 1321/1424 17006KT P6SM SCT150 BKN200 FM140000 19007KT
                       P6SM BKN080 OVC150 FM140300 19007KT P6SM
                       VCSH BKN040 OVC080 FM140600 17009KT P6SM
                       -RA SCT025 OVC050 FM141500 19009KT P6SM
                       -RA BKN020 OVC050=
201811131720 TAF KSEA 131720Z 1318/1424 19006KT P6SM BKN200 FM140000 19007KT
                       P6SM BKN080 OVC150 FM140300 19007KT P6SM
                       VCSH BKN040 OVC080 FM140600 17009KT P6SM
                       -RA SCT025 OVC050 FM141500 19009KT P6SM
                       -RA BKN020 OVC050=
201811131458 KSEA 131458Z 1315/1418 19006KT P6SM BKN200 FM140000 19007KT P6SM
                       BKN080 OVC150 FM140300 19007KT P6SM VCSH
                       BKN040 OVC080 FM140600 17009KT P6SM -RA
                       SCT025 OVC050 FM141000 17008KT P6SM -RA
                       OVC040=
201811131138 TAF KSEA 131138Z 1312/1418 14005KT P6SM BKN250 FM131800 18006KT
                       P6SM SCT250 FM140000 19007KT P6SM BKN080
                       OVC150 FM140300 19007KT P6SM VCSH BKN040
                       OVC080 FM140600 17009KT P6SM -RA SCT025
                       OVC050 FM141000 17008KT P6SM -RA OVC040=
201811130859 KSEA 130859Z 1309/1412 12010KT P6SM BKN250 FM131800 18006KT P6SM
                       BKN150 FM140000 18008KT P6SM BKN080 OVC150
                       FM140300 19009KT P6SM VCSH BKN040 OVC080
                       FM140600 17009KT P6SM -RA SCT025 OVC040=
201811130533 TAF KSEA 130533Z 1306/1412 12010KT P6SM BKN250 FM131800 18006KT
                       P6SM BKN150 FM140000 18008KT P6SM BKN080
                       OVC150 FM140300 19009KT P6SM VCSH BKN040
                       OVC080 FM140600 17009KT P6SM -RA SCT025
                       OVC040=
201811130302 KSEA 130302Z 1303/1406 13010KT P6SM BKN250 FM131800 17005KT P6SM
                       BKN250 FM140000 18007KT P6SM SCT050 BKN120
                       OVC200 FM140300 19009KT P6SM VCSH BKN040
                       OVC100=
201811122337 TAF KSEA 122337Z 1300/1406 07008KT P6SM BKN250 FM130700 12008KT
                       P6SM BKN250 FM131800 17005KT P6SM BKN250
                       FM140000 18007KT P6SM SCT050 BKN120 OVC200
                       FM140300 19009KT P6SM VCSH BKN040 OVC100=
201811122105 KSEA 122105Z 1221/1324 07008KT P6SM BKN250 FM130700 12008KT P6SM
                       SCT250 FM131800 17005KT P6SM SCT250=
201811121720 TAF KSEA 121720Z 1218/1324 06008KT P6SM BKN250 FM122200 04006KT
                       P6SM SCT250 FM130700 12008KT P6SM SCT250
                       FM131800 17005KT P6SM SCT250=
201811121124 TAF KSEA 121124Z 1212/1318 06009KT P6SM SKC FM121600 04007KT P6SM
                       SCT250 FM122200 04006KT P6SM SCT250 FM130700
                       12008KT P6SM BKN250=
201811120900 KSEA 120900Z 1209/1312 04009KT P6SM SKC FM121200 05005KT 5SM BR
                       SKC
                      TEMPO 1212/1215 1/2SM FG VV001 FM121600 04005KT
                       P6SM SCT007 FM121800 05007KT P6SM SCT250=
201811120550 TAF KSEA 120550Z 1206/1312 02010KT P6SM SKC FM121100 05005KT 5SM
                       BR SKC
                      TEMPO 1211/1215 1/2SM FG VV001 FM121600 04005KT
                       P6SM SCT007 FM121800 05007KT P6SM SCT250=
201811120308 KSEA 120308Z 1203/1306 01010KT P6SM BKN200 FM120600 03007KT P6SM
                       SCT200 FM121100 05005KT 5SM BR SKC
                      TEMPO 1211/1215 1/2SM FG VV001 FM121600 04005KT
                       P6SM SCT007 FM121800 05007KT P6SM SCT250=
201811112320 TAF KSEA 112320Z 1200/1306 01010KT P6SM SCT250 FM120500 03007KT
                       P6SM SKC FM121100 05005KT 5SM BR SKC
                      TEMPO 1211/1215 1/2SM FG VV001 FM121600 04005KT
                       P6SM SCT007 FM121800 05007KT P6SM SCT250=
201811112103 KSEA 112103Z 1121/1224 01010KT P6SM SCT250 FM120500 03007KT P6SM
                       SKC FM121100 05005KT 5SM BR SKC
                      TEMPO 1211/1215 1/2SM FG VV001 FM121600 04005KT
                       P6SM SCT007 FM121800 05007KT P6SM SCT250=
201811111720 TAF KSEA 111720Z 1118/1224 03006KT P6SM SCT005 SCT250 FM112100
                       01010KT P6SM SCT250 FM120500 03007KT P6SM
                       SKC FM121100 05005KT 5SM BR SKC
                      TEMPO 1211/1215 1/2SM FG VV001 FM121600 04005KT
                       P6SM SCT007=
201811111126 TAF KSEA 111126Z 1112/1218 05005KT 5SM BCFG SCT002
                      TEMPO 1112/1116 1/4SM FG VV001 FM111600 03006KT
                       3SM BR BKN002 FM111900 03006KT P6SM SCT005
                       FM112100 01010KT P6SM SCT250 FM120500 03007KT
                       P6SM SKC=
201811110527 TAF KSEA 110527Z 1106/1212 05005KT P6SM SCT012
                      TEMPO 1106/1109 BKN012 FM110900 05005KT P6SM
                       BKN010 FM111300 03006KT 4SM BR BKN005
                      TEMPO 1113/1117 2SM BR OVC002 FM111900 03006KT
                       P6SM SCT010 FM112100 02008KT P6SM SCT250=
201811110304 KSEA 110304Z 1103/1206 03006KT P6SM SKC
                      TEMPO 1110/1113 3SM BR SCT003 FM111300 03006KT
                       2SM BR BKN003
                      TEMPO 1113/1117 1/2SM FG VV002 FM111800 03006KT
                       P6SM SCT250=
201811102330 KSEA 102330Z 1100/1206 36010KT P6SM SCT015 BKN035 FM110100 36010KT
                       P6SM SCT250 FM110900 04003KT 5SM BR SCT250
                       FM111300 04004KT 3SM BR BKN020 FM111800
                       02005KT P6SM SCT025 SCT250=
201811102320 TAF KSEA 102320Z 1100/1206 36006KT P6SM SCT015 BKN035 FM110100
                       36006KT P6SM SCT250 FM110900 04003KT 5SM
                       BR SCT250 FM111300 04004KT 3SM BR BKN020
                       FM111800 02005KT P6SM SCT025 SCT250=
201811102102 KSEA 102102Z 1021/1124 36006KT P6SM SCT016 BKN025 FM102200 36006KT
                       P6SM SCT015 BKN035 FM110000 36006KT P6SM
                       SCT250 FM110900 04003KT 5SM BR SCT250 FM111800
                       02005KT P6SM FEW250=
201811101723 TAF KSEA 101723Z 1018/1124 VRB03KT 6SM BR SCT006 BKN015 OVC030
                       FM102000 VRB03KT P6SM SCT006 SCT020 BKN030
                       FM102200 36006KT P6SM SCT015 BKN035 FM110000
                       36006KT P6SM SCT250 FM110900 04003KT 5SM
                       BR SCT250=
201811101620 KSEA 101620Z 1016/1118 VRB03KT 5SM BR SCT006 BKN020 OVC030 FM102000
                       VRB03KT P6SM SCT006 SCT020 BKN030 FM102200
                       36006KT P6SM SCT015 BKN030 FM110000 36006KT
                       P6SM SCT250=
201811101457 KSEA 101457Z 1015/1118 VRB03KT 5SM BR BKN006 OVC020 FM102000 VRB03KT
                       P6SM SCT006 BKN020 OVC030 FM102200 36006KT
                       P6SM SCT015 BKN030 FM110000 36006KT P6SM
                       SCT250=
201811101137 TAF KSEA 101137Z 1012/1118 12004KT P6SM SCT004 BKN020 OVC045
                      TEMPO 1012/1015 4SM BR BKN004 OVC020 FM101500
                       VRB03KT 4SM BR OVC004 FM101900 VRB03KT P6SM
                       SCT004 BKN008 OVC020 FM102200 36006KT P6SM
                       SCT015 BKN025 FM110000 36006KT P6SM SCT250=
201811100928 KSEA 100928Z 1009/1112 VRB03KT P6SM SCT005 OVC030
                      TEMPO 1009/1011 BKN005 OVC030 FM101300 VRB03KT
                       P6SM BKN020 OVC030 FM101800 VRB03KT P6SM
                       SCT020 BKN035 FM102000 35004KT P6SM SCT250=
201811100525 TAF KSEA 100525Z 1006/1112 00000KT P6SM SCT012 BKN040
                      TEMPO 1006/1010 BKN012 OVC040 FM101000 VRB03KT
                       P6SM BKN015 FM101900 35004KT P6SM SCT250=
201811100212 KSEA 100212Z 1002/1106 00000KT P6SM SCT025 BKN050 FM100500 00000KT
                       P6SM BKN020 BKN050 FM101000 VRB03KT P6SM
                       BKN015 FM101700 VRB03KT P6SM BKN025 FM101900
                       01005KT P6SM SCT250=
201811092320 TAF KSEA 092320Z 1000/1106 16004KT P6SM FEW010 OVC030 FM101000
                       VRB03KT P6SM BKN015 OVC025 FM101700 VRB03KT
                       P6SM BKN025 FM101900 01005KT P6SM SCT250=
201811092100 KSEA 092100Z 0921/1024 15007KT P6SM VCSH FEW007 BKN045 OVC060 FM092200
                       18006KT P6SM BKN045 OVC060 FM101000 VRB03KT
                       P6SM BKN015 OVC025 FM101700 VRB03KT P6SM
                       BKN025 FM101800 05004KT P6SM SCT250=
201811091722 TAF KSEA 091722Z 0918/1024 15006KT P6SM FEW005 SCT040 OVC060
                      TEMPO 0918/0922 -RA SCT025 OVC035 FM092200
                       18006KT P6SM BKN035 OVC050 FM101000 VRB03KT
                       P6SM BKN015 OVC025 FM101700 VRB03KT P6SM
                       BKN025 FM101800 05004KT P6SM SCT250=
201811091501 KSEA 091501Z 0915/1018 13007KT P6SM FEW002 BKN120 OVC200 FM091600
                       13006KT P6SM FEW002 SCT040 OVC060 FM091900
                       18006KT P6SM -RA SCT025 OVC035 FM092200
                       18006KT P6SM SCT025 BKN035 OVC050 FM101000
                       VRB03KT P6SM BKN011 OVC020 FM101700 VRB03KT
                       P6SM SCT011 OVC020=
201811091141 TAF KSEA 091141Z 0912/1018 13006KT P6SM BKN200 FM091600 13006KT
                       P6SM SCT040 OVC060 FM091900 18006KT P6SM
                       -RA SCT025 OVC035 FM092200 18006KT P6SM
                       SCT025 BKN035 OVC050 FM101000 VRB03KT P6SM
                       BKN011 OVC020 FM101700 VRB03KT P6SM SCT011
                       OVC020=
201811090917 KSEA 090917Z 0909/1012 VRB03KT P6SM BKN200 FM091500 VRB03KT P6SM
                       BKN100 OVC200 FM091800 18006KT P6SM SCT025
                       OVC040
                      TEMPO 0918/0921 4SM -RA BR BKN025 OVC040
                       FM092100 VRB04KT P6SM VCSH BKN030 OVC045=
201811090520 TAF KSEA 090520Z 0906/1012 02006KT P6SM BKN200 FM091000 00000KT
                       P6SM OVC080 FM091500 18006KT P6SM SCT025
                       OVC040
                      TEMPO 0918/0921 4SM -RA BR BKN025 OVC040
                       FM092100 VRB04KT P6SM VCSH BKN030 OVC045=
201811090301 KSEA 090301Z 0903/1006 02006KT P6SM OVC200 FM091000 00000KT P6SM
                       OVC080 FM091500 18006KT P6SM SCT025 OVC040
                       TEMPO 0918/0921 4SM -RA BR BKN025 OVC040
                       FM092100 VRB04KT P6SM VCSH BKN030 OVC045=
201811082335 TAF KSEA 082335Z 0900/1006 36004KT P6SM SCT250 FM091000 15003KT
                       P6SM OVC100 FM091500 18004KT P6SM SCT025
                       OVC040
                      TEMPO 0918/0921 4SM -RA BR BKN025 OVC040
                       FM092100 VRB04KT P6SM VCSH BKN030 OVC045=
201811082037 KSEA 082037Z 0821/0924 04004KT P6SM SCT250 FM091300 19004KT P6SM
                       SCT060 BKN120 OVC200 FM091800 16005KT P6SM
                       OVC050=
201811081731 TAF KSEA 081731Z 0818/0924 05004KT P6SM BCFG FEW003
                      TEMPO 0818/0820 5SM BR BKN003 FM082000 36006KT
                       P6SM SKC FM091300 19004KT P6SM SCT060 BKN120
                       OVC200 FM091800 16005KT P6SM OVC050=
201811081502 KSEA 081502Z 0815/0918 VRB03KT P6SM SCT004
                      TEMPO 0815/0817 3SM BR BKN004 FM081700 VRB03KT
                       1SM BR OVC002
                      TEMPO 0818/0819 3SM BR SCT002 FM081900 36006KT
                       P6SM SKC FM091300 19004KT P6SM SCT060 BKN120
                       OVC200=
201811081305 KSEA 081305Z 0813/0918 12004KT P6SM OVC006 FM081400 VRB03KT 4SM
                       BR OVC003 FM081500 VRB03KT 1/4SM FG OVC001
                       TEMPO 0818/0819 3SM BR SCT002 FM081900 36006KT
                       P6SM SKC FM091300 19004KT P6SM SCT060 BKN120
                       OVC200=
201811081140 TAF KSEA 081140Z 0812/0918 12004KT P6SM SKC FM081500 VRB03KT 4SM
                       BR SCT002 FM081600 VRB03KT 1/2SM FG BKN002
                       TEMPO 0818/0819 3SM BR SCT002 FM081900 36006KT
                       P6SM SKC FM091300 19004KT P6SM SCT060 BKN120
                       OVC200=
201811081011 KSEA 081011Z 0810/0912 VRB03KT P6SM SKC FM081400 VRB03KT 4SM BR
                       SCT002 FM081500 VRB03KT 1/4SM FG VV001 FM081900
                       VRB03KT 2SM BR BKN002 FM082000 36006KT P6SM
                       SKC=
201811080601 TAF KSEA 080601Z 0806/0912 02007KT P6SM SKC FM081000 04004KT 4SM
                       BR SCT002
                      TEMPO 0812/0816 1/2SM FG VV002 FM081900 35005KT
                       P6SM SCT250=
201811080419 KSEA 080419Z 0804/0906 02007KT P6SM SKC FM081000 04004KT 4SM BR
                       SCT002
                      TEMPO 0812/0816 1/2SM FG VV002 FM081900 35005KT
                       P6SM SCT250=
201811080010 KSEA 080010Z 0800/0906 03005KT P6SM SCT200 FM081000 04004KT 4SM
                       BCFG SCT002 FM081900 35005KT P6SM SCT030
                       SCT250=
201811072320 TAF KSEA 072320Z 0800/0906 04007KT P6SM SCT020 BKN035 FM081000
                       04004KT 4SM BCFG SCT002 FM081900 35005KT
                       P6SM SCT030 SCT250=
201811072055 KSEA 072055Z 0721/0824 36006KT P6SM SCT020 BKN035 FM080300 04004KT
                       P6SM SKC FM081000 04004KT 4SM BCFG SCT002
                       FM081800 35003KT P6SM SCT050=
201811071720 TAF KSEA 071720Z 0718/0824 03005KT P6SM SCT020 BKN040 FM072000
                       36006KT P6SM SCT050 FM080300 04004KT P6SM
                       SKC FM081000 04004KT 4SM BCFG SCT002 FM081800
                       35003KT P6SM SCT050=
201811071501 KSEA 071501Z 0715/0818 04005KT P6SM FEW007 SCT020 BKN025 FM071800
                       35005KT P6SM SCT020 BKN040 FM072000 35006KT
                       P6SM SCT030 SCT050 FM080300 04004KT P6SM
                       SKC FM081000 04004KT 4SM BCFG SCT002=
201811071404 KSEA 071404Z 0714/0818 36004KT P6SM SCT018 BKN035
                      TEMPO 0714/0717 BKN014 OVC030 FM071800 35005KT
                       P6SM SCT020 BKN040 FM072000 35006KT P6SM
                       SCT030 SCT050 FM080300 04004KT P6SM SKC
                       FM081000 04004KT 4SM BCFG SCT002=
201811071133 TAF KSEA 071133Z 0712/0818 VRB03KT P6SM BKN009 BKN025 FM071800
                       35005KT P6SM SCT012 BKN025 FM072000 35006KT
                       P6SM SCT030 SCT050 FM080300 04004KT P6SM
                       SKC FM081000 04004KT 4SM BCFG SCT002=
201811070903 KSEA 070903Z 0709/0812 VRB04KT P6SM VCSH BKN025 FM071100 VRB04KT
                       P6SM OVC018 FM071800 35006KT P6SM BKN025
                       FM071900 35006KT P6SM SCT030 SCT050 FM080300
                       04004KT P6SM FEW030 FM081000 04004KT 4SM
                       BR SCT003=
201811070520 TAF KSEA 070520Z 0706/0812 VRB04KT P6SM VCSH SCT025 BKN035
                      TEMPO 0706/0708 -SHRA BKN022 FM070900 VRB04KT
                       P6SM OVC018 FM071800 35006KT P6SM BKN025
                       FM071900 35006KT P6SM SCT030 SCT050 FM080300
                       04004KT P6SM FEW030 FM081000 04004KT 4SM
                       BR SCT003=
201811070356 KSEA 070356Z 0704/0806 05006KT P6SM -SHRA VCTS BKN025CB BKN040
                       BKN070 FM070500 05006KT P6SM VCSH BKN025
                       BKN040 BKN060
                      TEMPO 0705/0707 -SHRA FM070900 VRB04KT P6SM
                       OVC015 FM072000 35006KT P6SM SCT050 SCT250=
201811070306 KSEA 070306Z 0703/0806 VRB04KT P6SM -SHRA BKN022 BKN040 BKN070
                       TEMPO 0703/0704 3SM -SHRA BR BKN022 BKN040
                       OVC070 FM070500 VRB04KT P6SM VCSH BKN025
                       BKN040 BKN060 FM071000 VRB04KT P6SM BKN015
                       FM072000 35006KT P6SM SCT050 SCT250=
201811070206 KSEA 070206Z 0702/0806 27005KT P6SM VCSH SCT025 BKN040 BKN070 FM070400
                       VRB04KT P6SM VCSH BKN025 BKN040 BKN060 FM071000
                       VRB04KT P6SM BKN015 FM072000 35006KT P6SM
                       SCT050 SCT250=
201811062320 TAF KSEA 062320Z 0700/0806 21006KT P6SM SCT030 FM070300 17005KT
                       P6SM VCSH SCT025 BKN060 FM071000 VRB04KT
                       P6SM BKN015 FM072000 35006KT P6SM SCT050
                       SCT250=
201811062058 KSEA 062058Z 0621/0724 23008KT P6SM SCT025 FM070300 17005KT P6SM
                       VCSH SCT025 BKN060 FM071000 VRB04KT P6SM
                       BKN015 FM071900 35006KT P6SM BKN050=
201811061720 TAF KSEA 061720Z 0618/0724 18007KT P6SM OVC015 FM062000 21008KT
                       P6SM BKN050 FM070300 17005KT P6SM VCSH SCT025
                       BKN060 FM071000 VRB04KT P6SM BKN015 FM071900
                       35006KT P6SM BKN050=
201811061505 KSEA 061505Z 0615/0718 17006KT P6SM BKN016 OVC040 FM061800 20008KT
                       P6SM BKN025 BKN060 FM062000 21008KT P6SM
                       VCSH BKN035 BKN060 FM070300 17005KT P6SM
                       SCT025 BKN060 FM071000 03005KT P6SM BKN018=
201811061128 TAF KSEA 061128Z 0612/0718 18006KT P6SM BKN016 BKN040 FM061800
                       20008KT P6SM BKN025 BKN060 FM062000 21008KT
                       P6SM VCSH BKN035 BKN060 FM070300 17005KT
                       P6SM SCT025 BKN060 FM071000 03005KT P6SM
                       BKN018=
201811060859 KSEA 060859Z 0609/0712 20008KT P6SM OVC015 FM061800 20008KT P6SM
                       BKN025 BKN060 FM062000 21008KT P6SM VCSH
                       BKN035 BKN060 FM070300 17005KT P6SM SCT025
                       BKN060 FM070900 16005KT P6SM BKN025 BKN060=
201811060520 TAF KSEA 060520Z 0606/0712 19008KT P6SM VCSH SCT020 SCT050 BKN120
                       TEMPO 0607/0609 BKN020 FM060900 20008KT
                       P6SM OVC015 FM061800 20008KT P6SM BKN025
                       BKN060 FM062000 21008KT P6SM VCSH BKN035
                       BKN060 FM070300 17005KT P6SM SCT025 BKN060
                       FM070900 16005KT P6SM BKN025 BKN060=
201811060325 KSEA 060325Z 0603/0706 22009KT P6SM VCSH SCT020 SCT050 BKN120 FM060500
                       19008KT P6SM VCSH BKN020 BKN050 BKN120 FM060900
                       19008KT P6SM OVC018 FM061800 19008KT P6SM
                       BKN025 BKN060 FM062000 21008KT P6SM VCSH
                       BKN035 BKN060 FM070300 18006KT P6SM SCT028
                       BKN060=
201811052341 TAF KSEA 052341Z 0600/0706 21009KT P6SM VCSH SCT028 BKN070
                      TEMPO 0600/0604 -SHRA BKN028 OVC050 FM060400
                       19008KT P6SM VCSH OVC025 FM061200 17008KT
                       P6SM OVC015 FM061800 19008KT P6SM BKN025
                       BKN060 FM062000 21008KT P6SM VCSH BKN035
                       BKN060 FM070300 18006KT P6SM SCT028 BKN060=
201811052119 KSEA 052119Z 0521/0624 22012KT P6SM VCSH FEW018 BKN035 BKN060
                      TEMPO 0521/0524 -SHRA FEW018 BKN025 BKN040
                       FM060000 20009KT P6SM VCSH BKN028 BKN050
                       FM060600 19008KT P6SM OVC025 FM061200 17008KT
                       P6SM OVC015 FM062000 21008KT P6SM VCSH BKN035=
201811051725 TAF KSEA 051725Z 0518/0624 20012KT P6SM BKN015 OVC060 FM052000
                       20012KT P6SM VCSH FEW018 SCT028 BKN060
                      TEMPO 0520/0522 FEW018 BKN028 BKN060 FM060000
                       20009KT P6SM VCSH BKN028 BKN050 FM060600
                       19008KT P6SM OVC025 FM061200 17008KT P6SM
                       OVC015 FM062000 21008KT P6SM VCSH BKN035=
201811051646 KSEA 051646Z 0517/0618 20011KT P6SM BKN015 OVC025 FM051900 20012KT
                       P6SM -SHRA BKN025 OVC050 FM060500 20009KT
                       P6SM VCSH BKN027 BKN060 FM060900 19006KT
                       P6SM BKN015 OVC030=
201811051125 TAF KSEA 051125Z 0512/0618 20009KT P6SM BKN013 BKN070 FM051900
                       20012KT P6SM -SHRA BKN025 OVC050 FM060500
                       20009KT P6SM VCSH BKN027 BKN060 FM060900
                       19006KT P6SM BKN015 OVC030=
201811050859 KSEA 050859Z 0509/0612 19010KT P6SM VCSH BKN015 BKN050 FM051200
                       20009KT P6SM VCSH OVC020 FM051900 20012KT
                       P6SM -SHRA BKN030 BKN050 FM060500 20009KT
                       P6SM OVC025=
201811050544 TAF KSEA 050544Z 0506/0612 20012KT P6SM VCSH SCT018 BKN090
                      TEMPO 0506/0508 BKN018 BKN090 FM050800 19010KT
                       P6SM VCSH BKN020 BKN080 FM051200 20009KT
                       P6SM VCSH OVC020 FM051900 20012KT P6SM -SHRA
                       BKN030 BKN050 FM060500 20009KT P6SM OVC025=
201811050318 KSEA 050318Z 0503/0606 21010KT P6SM VCSH SCT040 BKN090 FM050500
                       19008KT P6SM VCSH SCT030 OVC040
                      TEMPO 0505/0509 -SHRA OVC030 FM050900 19008KT
                       P6SM VCSH OVC025 FM051800 21012KT P6SM VCSH
                       BKN035 BKN050
                      PROB30 0520/0524 -SHRA FM060000 19009KT P6SM
                       VCSH BKN035 BKN050=
201811050317 KSEA 050317Z 0503/0606 21010KT P6SM VCSH SCT040 BKN090 FM050500
                       19008KT P6SM VCSH SCT030 OVC040
                      TEMPO 0505/0509 -SHRA OVC030 FM050900 19008KT
                       P6SM VCSH OVC025 FM051800 21012KT P6SM VCSH
                       BKN035 BKN050
                      PROB30 0520/0524 -SHRA FM060000 19009KT P6SM
                       VCSH BKN035 BKN050=
201811042341 TAF KSEA 042341Z 0500/0606 21010KT P6SM VCSH SCT040 BKN070
                      TEMPO 0502/0506 BKN040 OVC070 FM050600 19008KT
                       P6SM VCSH SCT025 OVC040 FM051200 19008KT
                       P6SM VCSH OVC025 FM051800 21012KT P6SM VCSH
                       BKN035 BKN050
                      PROB30 0520/0524 -SHRA FM060000 19009KT P6SM
                       VCSH BKN035 BKN050=
201811042308 KSEA 042308Z 0423/0524 23009KT P6SM VCSH SCT040 BKN070 FM050300
                       20009KT P6SM SCT020 BKN035 OVC050 FM050600
                       19009KT P6SM OVC020 FM051800 21011KT P6SM
                       BKN030=
201811042014 KSEA 042014Z 0420/0524 21009KT P6SM BKN025 BKN040 FM042200 23009KT
                       P6SM VCSH SCT028 BKN050
                      TEMPO 0422/0502 -SHRA BKN028 OVC050 FM050300
                       20009KT P6SM SCT020 BKN035 OVC050 FM050600
                       19009KT P6SM OVC020 FM051800 21011KT P6SM
                       BKN030=
201811041740 TAF KSEA 041740Z 0418/0524 21009KT P6SM VCSH FEW008 BKN015 OVC030
                       FM042100 23009KT P6SM -SHRA SCT015 BKN030
                       BKN050
                      TEMPO 0421/0424 BKN015 OVC030 FM050300 20009KT
                       P6SM SCT020 BKN035 OVC050 FM050600 19009KT
                       P6SM OVC020 FM051800 21011KT P6SM BKN030=
201811041534 KSEA 041534Z 0416/0518 VRB05KT P6SM VCSH SCT008 SCT015 OVC035
                      TEMPO 0416/0418 3SM -SHRA BR SCT008 BKN015
                       OVC035 FM041800 15004KT P6SM VCSH SCT015
                       BKN025 OVC040 FM042000 14009KT P6SM -SHRA
                       SCT025 BKN035 FM050300 19009KT P6SM SCT020
                       BKN030 OVC050 FM050800 19008KT P6SM SCT012
                       BKN020 OVC045=
201811041518 KSEA 041518Z 0415/0518 17007KT P6SM VCSH SCT008 SCT015 OVC035
                      TEMPO 0415/0417 -SHRA SCT008 BKN015 OVC035
                       FM041700 15004KT P6SM VCSH SCT015 BKN025
                       OVC040 FM042000 14009KT P6SM -SHRA SCT025
                       BKN035 FM050300 19009KT P6SM SCT020 BKN030
                       OVC050 FM050800 19008KT P6SM SCT012 BKN020
                       OVC045=
201811041444 KSEA 041444Z 0415/0518 15006KT P6SM SCT008 BKN015 OVC030
                      TEMPO 0415/0417 -SHRA FM041700 15004KT P6SM
                       VCSH SCT015 BKN025 OVC040 FM042000 14009KT
                       P6SM -SHRA SCT025 BKN035 FM050300 19009KT
                       P6SM SCT020 BKN030 OVC050 FM050800 19008KT
                       P6SM SCT012 BKN020 OVC045=
201811041140 TAF KSEA 041140Z 0412/0518 21015G24KT P6SM VCSH BKN015 OVC030 FM041400
                       18009KT P6SM VCSH SCT015 BKN025 OVC040 FM042000
                       14009KT P6SM -SHRA SCT025 BKN035 FM050300
                       19009KT P6SM SCT020 BKN030 OVC050 FM050800
                       19008KT P6SM SCT012 BKN020 OVC045=
201811040911 KSEA 040911Z 0409/0512 19015G26KT 6SM -RA BR SCT012 BKN018 OVC030
                       FM041200 21018G28KT P6SM VCSH SCT018 BKN025
                       OVC035 FM041800 23014G24KT P6SM -SHRA SCT020
                       BKN035 FM042100 23013KT P6SM VCSH SCT035
                       BKN050 FM050300 20010KT P6SM BKN030 BKN050=
201811040612 KSEA 040612Z 0406/0512 18014G25KT P6SM SCT025 BKN040 OVC080
                      TEMPO 0406/0409 -RA BKN025 OVC040 FM040900
                       18015G26KT P6SM -RA OVC025 FM041100 20018G28KT
                       P6SM -SHRA BKN020 OVC035 FM041800 23014G24KT
                       P6SM VCSH SCT020 BKN035 FM042100 23013KT
                       P6SM VCSH SCT035 BKN050 FM050300 20010KT
                       P6SM BKN030 BKN050=
201811040610 TAF KSEA 040610Z 0406/0512 18014G25KT P6SM SCT025 BKN040 OVC080
                       TEMPO 0407/0409 -RA BKN025 OVC040 FM040900
                       18015G26KT P6SM -RA OVC025 FM041100 18018G28KT
                       P6SM -SHRA BKN020 OVC035 FM041800 23014G24KT
                       P6SM VCSH SCT020 BKN035 FM042100 23013KT
                       P6SM VCSH SCT035 BKN050 FM050300 20010KT
                       P6SM BKN030 BKN050=
201811040431 KSEA 040431Z 0405/0506 19015G25KT P6SM -RA SCT020 BKN040 OVC080
                       FM041100 22018G28KT P6SM -SHRA BKN020 OVC035
                       FM041800 23015G25KT P6SM VCSH SCT020 BKN035
                       FM042100 23013KT P6SM VCSH SCT035 BKN050
                       FM050300 21010KT P6SM SCT035 BKN060=
201811040314 KSEA 040314Z 0403/0506 18014G22KT P6SM -RA FEW018 OVC030 FM040500
                       19016G26KT P6SM -RA SCT012 OVC020 FM041100
                       22018G28KT P6SM -SHRA BKN020 OVC035 FM041800
                       23015G25KT P6SM VCSH SCT020 BKN035 FM042100
                       23013KT P6SM VCSH SCT035 BKN050 FM050300
                       21010KT P6SM SCT035 BKN060=
201811032341 TAF KSEA 032341Z 0400/0506 18013KT 5SM -RA BR FEW010 OVC025
                      TEMPO 0400/0402 2SM -RA BR FM040600 19018G28KT
                       P6SM -RA SCT008 OVC020 FM041200 22018G28KT
                       P6SM -SHRA BKN020 OVC035 FM041800 23015G25KT
                       P6SM VCSH SCT020 BKN035 FM042100 23013KT
                       P6SM VCSH SCT035 BKN050 FM050300 21010KT
                       P6SM SCT035 BKN060=
201811032254 KSEA 032254Z 0323/0424 17010KT 5SM -RA BR SCT007 OVC020
                      TEMPO 0323/0401 3SM -RA BR BKN007 OVC020
                       FM040100 19013KT P6SM -RA BKN025 OVC050
                       TEMPO 0401/0404 SCT025 BKN050 OVC090 FM040600
                       19018G28KT P6SM -RA SCT008 OVC020 FM041200
                       21018G28KT P6SM -SHRA BKN020 OVC035 FM041800
                       23015G25KT P6SM SCT020 BKN035=
201811032110 KSEA 032110Z 0321/0424 17010KT 6SM -RA BR SCT020 SCT035 OVC050
                       TEMPO 0321/0324 5SM -RA BR BKN020 OVC035
                       FM040000 19013KT P6SM -RA BKN025 OVC050
                       TEMPO 0400/0404 SCT025 BKN050 OVC090 FM040600
                       19018G28KT P6SM -RA SCT008 OVC020 FM041200
                       21018G28KT P6SM -SHRA BKN020 OVC035 FM041800
                       23015G25KT P6SM SCT020 BKN035=
201811031754 KSEA 031754Z 0318/0424 19010KT P6SM -RA FEW007 SCT015 OVC060 FM032000
                       19010KT 6SM -RA BR SCT008 OVC015
                      TEMPO 0320/0324 5SM -RA BR BKN008 OVC015
                       FM040000 19013KT P6SM -RA BKN025 OVC050
                       TEMPO 0400/0404 SCT025 BKN050 OVC090 FM040600
                       19018G28KT P6SM -RA SCT008 OVC020 FM041200
                       21018G28KT P6SM -SHRA BKN020 OVC035 FM041800
                       23015G25KT P6SM SCT020 BKN035=
201811031740 TAF KSEA 031740Z 0318/0424 19010KT 6SM -RA BR SCT008 OVC015
                      TEMPO 0318/0322 5SM -RA BR BKN008 OVC015
                       FM040000 19013KT P6SM -RA BKN025 OVC050
                       TEMPO 0400/0404 SCT025 BKN050 OVC090 FM040600
                       19018G28KT P6SM -RA SCT008 OVC020 FM041200
                       21018G28KT P6SM -SHRA BKN020 OVC035 FM041800
                       23015G25KT P6SM SCT020 BKN035=
201811031537 KSEA 031537Z 0316/0418 21012KT P6SM -RA FEW008 OVC015 FM032000
                       18010KT 5SM -RA BR SCT007 OVC012 FM040200
                       19012KT P6SM VCSH SCT015 BKN025 OVC050 FM040800
                       19015G25KT P6SM -RA SCT010 OVC015 FM041400
                       22016G26KT P6SM VCSH SCT012 BKN018 OVC030=
201811031132 TAF KSEA 031132Z 0312/0418 18006KT P6SM BKN015 OVC100 FM031700
                       19008KT P6SM -RA SCT010 OVC015 FM032000
                       18010KT 5SM -RA BR SCT007 OVC012 FM040200
                       19012KT P6SM VCSH SCT015 BKN025 OVC050 FM040800
                       19015G25KT P6SM -RA SCT010 OVC015 FM041400
                       22016G26KT P6SM VCSH SCT012 BKN018 OVC030=
201811030800 KSEA 030800Z 0308/0412 18007KT P6SM OVC014 FM031000 18008KT P6SM
                       OVC012 FM032000 18010KT 6SM -RA BR SCT007
                       OVC015 FM040200 19012KT 4SM -RA BR BKN007
                       OVC015 FM041000 22015G25KT P6SM VCSH BKN025
                       BKN080=
201811030556 TAF KSEA 030556Z 0306/0412 19007KT P6SM SCT025 SCT035 OVC120
                      TEMPO 0306/0310 BKN025 OVC035 FM031000 17007KT
                       P6SM OVC015 FM032000 18010KT 6SM -RA BR
                       SCT007 OVC015 FM040200 19012KT 4SM -RA BR
                       BKN007 OVC015 FM041000 22015G25KT P6SM VCSH
                       BKN025 BKN080=
201811030308 KSEA 030308Z 0303/0406 21010KT P6SM FEW030 SCT060 BKN150 FM030600
                       19007KT P6SM BKN025 OVC100 FM031200 17007KT
                       P6SM OVC015 FM031800 18009KT 6SM -RA BR
                       SCT007 OVC015 FM040000 19010KT 4SM -RA BR
                       BKN007 OVC015=
201811022330 TAF KSEA 022330Z 0300/0406 21012KT P6SM FEW030 SCT060 BKN150
                      TEMPO 0300/0302 FEW030 BKN060 BKN150 FM030600
                       19007KT P6SM BKN025 OVC100 FM031200 17007KT
                       P6SM OVC015 FM031800 17009KT 6SM -RA BR
                       SCT007 OVC015 FM040000 17012KT 4SM -RA BR
                       BKN007 OVC015=
201811022204 KSEA 022204Z 0222/0324 22013KT P6SM VCSH BKN030 BKN050 FM030000
                       24009KT P6SM SCT035 BKN050 FM030600 19006KT
                       P6SM VCSH BKN025 BKN050 BKN100 FM031200
                       19006KT P6SM OVC015 FM031800 19009KT 6SM
                       -RA BR SCT007 OVC015=
201811021907 KSEA 021907Z 0219/0324 22013KT P6SM VCSH SCT025 BKN050 FM030000
                       24009KT P6SM SCT035 BKN050 FM030600 19006KT
                       P6SM VCSH BKN025 BKN050 BKN100 FM031200
                       19006KT P6SM OVC015 FM031800 19009KT 6SM
                       -RA BR SCT007 OVC015=
201811021800 KSEA 021800Z 0218/0324 22013KT P6SM VCSH SCT015 BKN050 FM022000
                       VRB05KT P6SM -SHRA FEW007 OVC015 FM030000
                       24009KT P6SM VCSH SCT015 BKN035 FM030600
                       19006KT P6SM VCSH BKN025 BKN050 BKN100 FM031200
                       19006KT P6SM OVC015 FM031800 19009KT 6SM
                       -RA BR SCT007 OVC015=
201811021743 TAF KSEA 021743Z 0218/0324 20005KT P6SM VCSH BKN015 OVC035 FM022000
                       VRB05KT P6SM -SHRA FEW007 OVC015 FM030000
                       24009KT P6SM VCSH SCT015 BKN035 FM030600
                       19006KT P6SM VCSH BKN025 BKN050 BKN100 FM031200
                       19006KT P6SM OVC015 FM031800 19009KT 6SM
                       -RA BR SCT007 OVC015=
201811021605 KSEA 021605Z 0216/0318 21013KT P6SM BKN015 BKN030 FM021900 22014G22KT
                       P6SM VCSH SCT018 BKN030 OVC045 FM030300
                       22010KT P6SM VCSH SCT010 BKN018 OVC030 FM030800
                       18006KT P6SM SCT006 BKN012 OVC018 FM031600
                       18007KT P6SM -RA BKN006 OVC010=
201811021505 KSEA 021505Z 0215/0318 21015G25KT P6SM BKN015 BKN030 FM021900 22014G22KT
                       P6SM VCSH SCT018 BKN030 OVC045 FM030300
                       22010KT P6SM VCSH SCT010 BKN018 OVC030 FM030800
                       18006KT P6SM SCT006 BKN012 OVC018 FM031600
                       18007KT P6SM -RA BKN006 OVC010=
201811021136 TAF KSEA 021136Z 0212/0318 21016G25KT P6SM VCSH SCT012 BKN020 FM021900
                       22014G22KT P6SM VCSH SCT018 BKN030 OVC045
                       FM030300 22010KT P6SM VCSH SCT010 BKN018
                       OVC030 FM030800 18006KT P6SM SCT006 BKN012
                       OVC018 FM031600 18007KT P6SM -RA BKN006
                       OVC010=
201811020917 KSEA 020917Z 0209/0312 18014G24KT 4SM -RA BR SCT012 OVC018 FM021200
                       22016G25KT P6SM -SHRA SCT012 BKN025 FM021900
                       22014G22KT P6SM -SHRA SCT018 BKN030 OVC045
                       FM030300 23010KT P6SM VCSH SCT010 BKN018
                       OVC030=
201811020533 TAF KSEA 020533Z 0206/0312 20014G22KT 6SM -RA BR SCT018 BKN025
                       OVC040 FM020800 20017G25KT 4SM -RA BR SCT008
                       OVC012 FM021200 22016G25KT P6SM -SHRA SCT012
                       BKN025 FM021900 22014G22KT P6SM -SHRA SCT018
                       BKN030 OVC045 FM030300 23010KT P6SM VCSH
                       SCT010 BKN018 OVC030=
201811012323 TAF KSEA 012323Z 0200/0306 20014G22KT P6SM OVC035
                      TEMPO 0200/0204 OVC025 FM020400 20014G22KT
                       P6SM -RA OVC025 FM020700 20014G22KT 5SM
                       -RA BR OVC012 FM021300 22015G25KT P6SM -SHRA
                       BKN020 BKN050 FM021700 23012KT P6SM VCSH
                       SCT025 BKN050=
201811012107 KSEA 012107Z 0121/0224 20014G22KT P6SM SCT030 BKN050 BKN150 FM020300
                       20014G22KT P6SM SCT015 OVC030 FM020800 20014G22KT
                       5SM -RA BR OVC012 FM021200 22015G25KT P6SM
                       -SHRA BKN020 BKN050 FM021700 23012KT P6SM
                       VCSH SCT025 BKN050=
201811011720 TAF KSEA 011720Z 0118/0224 20014G22KT P6SM SCT015 BKN050 OVC100
                       TEMPO 0118/0121 BKN015 BKN050 OVC100 FM012200
                       20014G22KT P6SM SCT015 OVC030 FM020800 20014G22KT
                       5SM -RA BR OVC012 FM021200 22015G25KT P6SM
                       -SHRA BKN020 BKN050 FM021700 23012KT P6SM
                       VCSH SCT025 BKN050=
201811011503 KSEA 011503Z 0115/0218 20014KT P6SM BKN015 OVC050 FM011800 20014G22KT
                       P6SM SCT020 BKN050 OVC100
                      TEMPO 0118/0122 BKN020 OVC050 FM020200 20014G22KT
                       P6SM VCSH SCT012 OVC025 FM020700 20014G22KT
                       5SM -RA BR SCT005 BKN010 OVC018 FM021200
                       22015G25KT P6SM -SHRA SCT010 BKN020 BKN050=
201811011132 TAF KSEA 011132Z 0112/0218 20010G18KT P6SM VCSH SCT003 BKN006 OVC010
                       FM012000 20015G22KT P6SM VCSH SCT006 BKN012
                       OVC018 FM012200 20014G20KT P6SM VCSH SCT012
                       BKN018 OVC025 FM020700 19016G25KT 5SM -RA
                       BR SCT005 BKN010 OVC018 FM021200 21015G24KT
                       P6SM -SHRA SCT008 BKN014 OVC020=
201811010903 KSEA 010903Z 0109/0212 21010KT P6SM -RA SCT003 OVC006 FM011600
                       20011KT P6SM VCSH OVC009 FM012000 20015G22KT
                       P6SM OVC009 FM012200 20014G20KT P6SM OVC019=
201811010521 TAF KSEA 010521Z 0106/0212 21010KT P6SM VCSH OVC008 FM011600 20011KT
                       P6SM VCSH OVC009 FM012000 20015G22KT P6SM
                       OVC009 FM012200 20014G20KT P6SM OVC019=