##########################################################
# Query made at 02/17/2025 20:23:03 UTC
# Time interval: from 03/01/2018 00:00  to 03/31/2018 23:59  UTC
##########################################################

##########################################################
# KSEA, Seattle, Seattle-Tacoma International Airport (United States)
# WMO index: 72793. WIGOS ID: 0-20000-0-72793
# Latitude 47-27-00N. Longitude 122-17-59W. Altitude 130 m.
##########################################################

###################################
#  METAR/SPECI from KSEA
###################################
201803312353 METAR KSEA 312353Z 25005KT 10SM FEW030 FEW150 SCT250 14/03 A3013 RMK AO2 SLP211 T01440028 10150 20094 58020=
201803312253 METAR KSEA 312253Z 00000KT 10SM SCT025 BKN150 BKN240 14/04 A3016 RMK AO2 SLP218 T01390044=
201803312153 METAR KSEA 312153Z 24006KT 10SM SCT027 BKN240 13/06 A3018 RMK AO2 SLP228 T01330061=
201803312053 METAR KSEA 312053Z 25007KT 10SM FEW026 BKN140 12/06 A3020 RMK AO2 SLP232 T01220056 58008=
201803311953 METAR KSEA 311953Z 29009KT 10SM FEW020 BKN140 10/06 A3021 RMK AO2 SLP237 T01000056=
201803311853 METAR KSEA 311853Z 35004KT 10SM SCT015 BKN140 11/05 A3021 RMK AO2 SLP237 T01110050=
201803311753 METAR KSEA 311753Z 34004KT 10SM SCT027 BKN180 10/05 A3022 RMK AO2 SLP241 T01000050 10100 20072 58001=
201803311721 SPECI KSEA 311721Z 02005KT 10SM SCT027 BKN180 09/04 A3022 RMK AO2 T00940044=
201803311653 METAR KSEA 311653Z 35007KT 10SM BKN027 09/04 A3022 RMK AO2 SLP241 T00890044=
201803311553 METAR KSEA 311553Z 36006KT 10SM FEW013 OVC025 08/04 A3022 RMK AO2 SLP242 T00830044=
201803311453 METAR KSEA 311453Z 36008KT 10SM BKN025 08/04 A3022 RMK AO2 SLP242 T00780044 56001=
201803311401 SPECI KSEA 311401Z 01008KT 10SM BKN029 07/04 A3023 RMK AO2 T00720039=
201803311353 METAR KSEA 311353Z 36009KT 10SM SCT020 BKN170 07/04 A3023 RMK AO2 SLP243 T00720039=
201803311307 SPECI KSEA 311307Z 02007KT 10SM FEW013 SCT020 07/04 A3022 RMK AO2 T00720039=
201803311253 METAR KSEA 311253Z 02008KT 10SM FEW013 OVC019 08/04 A3022 RMK AO2 SLP242 T00780044=
201803311153 METAR KSEA 311153Z 04007KT 10SM FEW013 OVC017 08/04 A3023 RMK AO2 SLP242 T00780044 10083 20078 55001=
201803311053 METAR KSEA 311053Z 01006KT 10SM SCT013 OVC017 08/05 A3022 RMK AO2 SLP241 T00830050=
201803310953 METAR KSEA 310953Z 00000KT 10SM BKN012 OVC016 08/06 A3022 RMK AO2 SLP242 T00830061=
201803310853 METAR KSEA 310853Z 00000KT 10SM SCT012 OVC016 08/06 A3023 RMK AO2 SLP243 T00830061 50005=
201803310809 SPECI KSEA 310809Z 21003KT 10SM BKN012 OVC016 08/06 A3023 RMK AO2 T00830061=
201803310753 METAR KSEA 310753Z 00000KT 10SM BKN015 OVC022 08/07 A3023 RMK AO2 SLP245 T00830067 401390078=
201803310715 SPECI KSEA 310715Z 24003KT 10SM BKN014 OVC020 08/07 A3023 RMK AO2 T00830067=
201803310653 METAR KSEA 310653Z 24004KT 10SM BKN015 OVC035 08/07 A3023 RMK AO2 SLP243 T00830067=
201803310627 SPECI KSEA 310627Z 00000KT 10SM BKN017 BKN035 08/06 A3022 RMK AO2 T00830061=
201803310553 METAR KSEA 310553Z 27004KT 10SM BKN036 BKN060 08/06 A3021 RMK AO2 SLP239 T00830056 10139 20083 51013=
201803310453 METAR KSEA 310453Z 27005KT 10SM BKN035 BKN060 09/07 A3020 RMK AO2 SLP235 T00890067=
201803310353 METAR KSEA 310353Z 27005KT 10SM FEW024 SCT049 BKN060 11/07 A3019 RMK AO2 SLP230 T01110067=
201803310253 METAR KSEA 310253Z 25004KT 10SM SCT049 BKN060 OVC200 12/07 A3017 RMK AO2 SLP225 T01170067 56004=
201803310153 METAR KSEA 310153Z 25005KT 10SM FEW030 BKN060 BKN200 13/06 A3018 RMK AO2 SLP226 T01280061=
201803310053 METAR KSEA 310053Z 21009KT 10SM BKN060 BKN200 13/06 A3018 RMK AO2 SLP227 T01280056=
201803302353 METAR KSEA 302353Z 20011KT 10SM SCT045 BKN200 14/06 A3019 RMK AO2 SLP228 T01390056 10139 20094 58006=
201803302253 METAR KSEA 302253Z 21010KT 10SM SCT044 BKN220 13/06 A3019 RMK AO2 SLP232 T01330061=
201803302153 METAR KSEA 302153Z 21011KT 10SM BKN040 13/06 A3020 RMK AO2 SLP234 T01280061=
201803302053 METAR KSEA 302053Z 20011KT 10SM BKN035 BKN050 13/07 A3021 RMK AO2 SLP235 T01330067 58004=
201803301953 METAR KSEA 301953Z 20013G17KT 10SM BKN032 12/06 A3021 RMK AO2 SLP239 T01220061=
201803301853 METAR KSEA 301853Z 19014KT 10SM FEW020 BKN032 11/06 A3022 RMK AO2 SLP240 T01110056=
201803301845 SPECI KSEA 301845Z 18012KT 10SM FEW020 BKN032 11/06 A3022 RMK AO2 T01110061=
201803301753 METAR KSEA 301753Z 19012KT 10SM BKN021 11/06 A3022 RMK AO2 SLP240 T01060056 10106 20083 53011=
201803301653 METAR KSEA 301653Z 20012KT 10SM BKN020 BKN250 09/06 A3020 RMK AO2 SLP234 T00890056=
201803301553 METAR KSEA 301553Z 20011KT 10SM BKN017 BKN250 08/05 A3019 RMK AO2 SLP232 T00830050=
201803301453 METAR KSEA 301453Z 20011KT 10SM BKN015 OVC030 08/05 A3019 RMK AO2 SLP229 T00830050 55000=
201803301353 METAR KSEA 301353Z 19010KT 10SM OVC015 08/05 A3018 RMK AO2 SLP226 T00830050=
201803301302 SPECI KSEA 301302Z 20009KT 10SM OVC015 08/05 A3018 RMK AO2 T00830050=
201803301253 METAR KSEA 301253Z 20008KT 10SM OVC014 08/05 A3018 RMK AO2 SLP227 T00830050=
201803301153 METAR KSEA 301153Z 20008KT 10SM OVC013 08/05 A3019 RMK AO2 SLP229 T00830050 10094 20078 56008=
201803301053 METAR KSEA 301053Z 20008KT 10SM OVC011 08/06 A3019 RMK AO2 SLP231 T00780056=
201803300953 METAR KSEA 300953Z 21008KT 190V250 10SM OVC012 08/06 A3020 RMK AO2 SLP233 T00830056=
201803300919 SPECI KSEA 300919Z 21007KT 10SM OVC013 08/06 A3020 RMK AO2 T00830056=
201803300853 METAR KSEA 300853Z 23009KT 10SM OVC015 09/06 A3021 RMK AO2 SLP237 T00890056 58006=
201803300830 SPECI KSEA 300830Z 22011KT 10SM FEW012 OVC018 09/06 A3021 RMK AO2 T00890056=
201803300753 METAR KSEA 300753Z 23009KT 10SM OVC012 09/06 A3022 RMK AO2 SLP240 T00890056 401280061=
201803300653 METAR KSEA 300653Z 23008KT 10SM OVC012 09/06 A3022 RMK AO2 SLP242 T00940061=
201803300624 SPECI KSEA 300624Z 23006KT 10SM OVC012 09/06 A3023 RMK AO2 T00940061=
201803300553 METAR KSEA 300553Z 22008KT 10SM BKN015 09/06 A3023 RMK AO2 SLP244 T00940061 10117 20094 56003=
201803300453 METAR KSEA 300453Z 21008KT 10SM BKN018 10/06 A3023 RMK AO2 SLP245 T01000061=
201803300431 SPECI KSEA 300431Z 21009KT 10SM BKN021 10/06 A3023 RMK AO2 T01000061=
201803300353 METAR KSEA 300353Z 20008KT 10SM OVC035 11/06 A3023 RMK AO2 SLP244 T01060056=
201803300253 METAR KSEA 300253Z 20004KT 10SM OVC032 11/05 A3024 RMK AO2 SLP247 T01110050 58017=
201803300153 METAR KSEA 300153Z 21003KT 10SM BKN030 OVC120 11/05 A3025 RMK AO2 SLP252 T01110050=
201803300127 SPECI KSEA 300127Z 23004KT 10SM BKN028 OVC120 11/05 A3026 RMK AO2 T01110050=
201803300053 METAR KSEA 300053Z 24006KT 10SM BKN030 BKN140 OVC250 11/05 A3027 RMK AO2 SLP259 T01110050=
201803292353 METAR KSEA 292353Z 24005KT 10SM FEW030 BKN140 BKN250 11/04 A3029 RMK AO2 SLP264 T01110044 10128 20083 56018=
201803292253 METAR KSEA 292253Z 20009KT 10SM FEW030 BKN120 BKN250 12/04 A3030 RMK AO2 SLP268 T01170044=
201803292153 METAR KSEA 292153Z 19007KT 10SM FEW030 SCT120 BKN250 12/04 A3032 RMK AO2 SLP274 T01170039=
201803292053 METAR KSEA 292053Z 21009KT 10SM FEW020 BKN130 BKN250 12/03 A3034 RMK AO2 SLP282 T01170033 58015=
201803291953 METAR KSEA 291953Z 23007KT 10SM FEW015 FEW043 BKN110 12/04 A3036 RMK AO2 SLP288 T01170039=
201803291853 METAR KSEA 291853Z 16005KT 10SM FEW012 BKN043 BKN200 10/04 A3038 RMK AO2 SLP294 T01000039 $=
201803291753 METAR KSEA 291753Z 21008KT 10SM FEW012 OVC043 08/03 A3038 RMK AO2 SLP297 T00830033 10083 20061 51001 $=
201803291653 METAR KSEA 291653Z 18006KT 10SM FEW011 OVC042 08/04 A3038 RMK AO2 SLP297 T00780039=
201803291553 METAR KSEA 291553Z 21009KT 10SM FEW011 OVC042 07/03 A3038 RMK AO2 SLP296 T00720033=
201803291453 METAR KSEA 291453Z 18008KT 10SM FEW012 BKN032 OVC045 07/03 A3038 RMK AO2 SLP296 T00670033 58002=
201803291414 SPECI KSEA 291414Z 18005KT 10SM SCT012 BKN030 OVC044 06/04 A3038 RMK AO2 T00610039=
201803291353 METAR KSEA 291353Z 17006KT 10SM SCT012 BKN017 OVC029 06/03 A3038 RMK AO2 SLP296 T00610033=
201803291253 METAR KSEA 291253Z 16006KT 10SM OVC013 07/03 A3039 RMK AO2 SLP298 T00670033=
201803291153 METAR KSEA 291153Z 15005KT 10SM OVC013 07/03 A3039 RMK AO2 SLP297 T00670033 10089 20061 58004=
201803291053 METAR KSEA 291053Z 14006KT 10SM OVC014 07/03 A3039 RMK AO2 SLP298 T00670033=
201803290953 METAR KSEA 290953Z 17005KT 10SM BKN016 OVC024 07/03 A3040 RMK AO2 SLP303 T00670033=
201803290853 METAR KSEA 290853Z 19004KT 10SM OVC020 07/04 A3040 RMK AO2 SLP301 T00670039 58001=
201803290753 METAR KSEA 290753Z 21007KT 10SM OVC016 07/03 A3040 RMK AO2 SLP304 T00720033 401220067=
201803290653 METAR KSEA 290653Z 21005KT 10SM BKN022 OVC045 08/03 A3040 RMK AO2 SLP302 T00780033=
201803290553 METAR KSEA 290553Z 05004KT 10SM OVC028 09/05 A3040 RMK AO2 SLP302 T00890050 10106 20089 51003=
201803290551 SPECI KSEA 290551Z 07005KT 10SM OVC028 09/05 A3040 RMK AO2=
201803290453 METAR KSEA 290453Z 09006KT 10SM FEW031 BKN042 BKN080 09/04 A3040 RMK AO2 SLP301 T00890044=
201803290353 METAR KSEA 290353Z 04005KT 10SM OVC032 09/04 A3039 RMK AO2 SLP299 T00940044=
201803290253 METAR KSEA 290253Z 00000KT 10SM OVC034 10/03 A3039 RMK AO2 SLP297 T01000028 56007=
201803290153 METAR KSEA 290153Z 21003KT 10SM BKN036 10/03 A3039 RMK AO2 SLP298 T01000028=
201803290053 METAR KSEA 290053Z 22005KT 10SM BKN048 BKN080 11/03 A3040 RMK AO2 SLP300 T01060028=
201803282353 METAR KSEA 282353Z 21007KT 10SM BKN047 BKN080 11/02 A3041 RMK AO2 SLP304 T01060022 10122 20067 56009=
201803282253 METAR KSEA 282253Z 22009KT 10SM FEW035 SCT080 BKN200 12/04 A3041 RMK AO2 SLP306 T01170039=
201803282153 METAR KSEA 282153Z 18010KT 10SM SCT029 SCT080 BKN200 11/04 A3042 RMK AO2 SLP307 T01110039=
201803282053 METAR KSEA 282053Z 20010KT 10SM FEW011 SCT019 BKN048 BKN200 11/04 A3043 RMK AO2 SLP313 T01060039 58008=
201803282031 SPECI KSEA 282031Z 21007KT 10SM FEW011 SCT019 BKN048 BKN200 09/04 A3044 RMK AO2 T00940039=
201803281953 METAR KSEA 281953Z 22005KT 10SM FEW010 BKN015 BKN039 08/04 A3046 RMK AO2 SLP321 T00830044=
201803281918 SPECI KSEA 281918Z 21006KT 10SM SCT010 BKN016 OVC029 07/04 A3046 RMK AO2 T00720044=
201803281853 METAR KSEA 281853Z 18005KT 5SM BR BKN010 BKN022 OVC029 07/06 A3046 RMK AO2 SLP325 T00720056=
201803281806 SPECI KSEA 281806Z 16005KT 10SM SCT010 BKN022 OVC031 07/05 A3047 RMK AO2 T00670050=
201803281753 METAR KSEA 281753Z 15007KT 9SM BKN010 BKN022 OVC031 07/04 A3046 RMK AO2 SLP323 T00720044 10072 20067 53007=
201803281653 METAR KSEA 281653Z 13008KT 10SM FEW009 BKN012 OVC021 07/04 A3044 RMK AO2 SLP315 T00670044=
201803281553 METAR KSEA 281553Z 13007KT 10SM FEW009 BKN021 OVC028 07/03 A3044 RMK AO2 SLP316 T00670033=
201803281453 METAR KSEA 281453Z 15006KT 10SM BKN020 OVC028 07/03 A3044 RMK AO2 SLP314 T00670028 50005=
201803281353 METAR KSEA 281353Z 14006KT 10SM BKN018 OVC022 07/03 A3044 RMK AO2 SLP315 T00670028=
201803281253 METAR KSEA 281253Z 09005KT 10SM BKN015 OVC020 07/03 A3044 RMK AO2 SLP315 T00720033=
201803281153 METAR KSEA 281153Z 09004KT 10SM OVC017 07/03 A3042 RMK AO2 SLP309 70002 T00720033 10083 20072 51008=
201803281053 METAR KSEA 281053Z 15004KT 10SM OVC015 07/03 A3041 RMK AO2 SLP307 T00720033=
201803280953 METAR KSEA 280953Z 18006KT 10SM OVC022 07/04 A3041 RMK AO2 SLP307 T00720039=
201803280853 METAR KSEA 280853Z 17006KT 10SM OVC018 08/04 A3040 RMK AO2 SLP301 T00780039 51006=
201803280753 METAR KSEA 280753Z 19009KT 10SM OVC017 08/04 A3039 RMK AO2 SLP299 T00780044 401110072=
201803280653 METAR KSEA 280653Z 21009KT 10SM OVC017 08/04 A3038 RMK AO2 SLP296 T00830044=
201803280553 METAR KSEA 280553Z 21009KT 10SM BKN018 OVC025 08/04 A3038 RMK AO2 SLP295 T00830044 10111 20083 51017=
201803280453 METAR KSEA 280453Z 22013KT 10SM OVC016 09/05 A3037 RMK AO2 SLP290 T00890050=
201803280353 METAR KSEA 280353Z 22013KT 10SM OVC018 10/06 A3035 RMK AO2 SLP284 T01000056=
201803280253 METAR KSEA 280253Z 22015KT 10SM BKN021 BKN036 11/07 A3033 RMK AO2 SLP278 T01060067 53010=
201803280247 SPECI KSEA 280247Z 22015KT 10SM BKN021 BKN036 11/07 A3033 RMK AO2=
201803280226 SPECI KSEA 280226Z 20011KT 10SM SCT023 OVC036 11/07 A3032 RMK AO2 T01060072=
201803280153 METAR KSEA 280153Z 20011KT 10SM OVC021 11/07 A3032 RMK AO2 SLP274 T01110072=
201803280053 METAR KSEA 280053Z 21012KT 10SM OVC019 11/08 A3030 RMK AO2 SLP269 T01110078=
201803272353 METAR KSEA 272353Z 21013KT 10SM OVC018 11/08 A3030 RMK AO2 SLP267 60000 T01110078 10111 20089 58001=
201803272253 METAR KSEA 272253Z 20011KT 10SM OVC016 11/08 A3030 RMK AO2 SLP269 T01110078=
201803272223 SPECI KSEA 272223Z 19012KT 10SM OVC015 11/08 A3030 RMK AO2 T01060078=
201803272153 METAR KSEA 272153Z 20011KT 10SM BKN013 OVC018 11/08 A3030 RMK AO2 RAE08DZB22E36 SLP270 P0000 T01060078=
201803272142 SPECI KSEA 272142Z 20010KT 10SM BKN013 OVC019 11/08 A3030 RMK AO2 RAE08DZB22E36 P0000 T01060078=
201803272053 METAR KSEA 272053Z 20013KT 6SM -RA OVC015 10/07 A3030 RMK AO2 RAB52 SLP268 P0000 60000 T01000072 53008=
201803272040 SPECI KSEA 272040Z 20014KT 10SM OVC015 10/07 A3030 RMK AO2 T01000072=
201803271953 METAR KSEA 271953Z 20013KT 10SM OVC014 10/07 A3029 RMK AO2 PK WND 20026/1854 SLP266 T01000067=
201803271941 SPECI KSEA 271941Z 20015G23KT 10SM OVC014 10/07 A3029 RMK AO2 PK WND 20026/1854 T01000067=
201803271853 METAR KSEA 271853Z 20017G24KT 10SM OVC018 09/07 A3028 RMK AO2 PK WND 20031/1801 SLP260 T00940067=
201803271753 METAR KSEA 271753Z 20021G29KT 10SM FEW012 OVC020 09/06 A3028 RMK AO2 PK WND 19029/1753 SLP260 60002 T00940061 10094 20072 55006 $=
201803271653 METAR KSEA 271653Z 20020G25KT 10SM FEW008 BKN027 OVC075 09/06 A3027 RMK AO2 PK WND 19028/1627 SLP258 T00890061 $=
201803271635 SPECI KSEA 271635Z 20018G28KT 10SM FEW008 BKN028 OVC075 09/06 A3027 RMK AO2 PK WND 19028/1627 T00890056=
201803271553 METAR KSEA 271553Z 20015G25KT 10SM BKN016 OVC021 08/06 A3029 RMK AO2 PK WND 19026/1531 SLP265 T00830056=
201803271453 METAR KSEA 271453Z 20014G20KT 10SM FEW011 BKN017 OVC028 08/06 A3029 RMK AO2 SLP267 60002 T00830061 55007=
201803271353 METAR KSEA 271353Z 18013KT 10SM FEW006 BKN025 OVC095 08/06 A3029 RMK AO2 SLP266 T00780061=
201803271343 SPECI KSEA 271343Z 18015KT 10SM FEW006 BKN024 OVC095 08/06 A3029 RMK AO2 T00780061=
201803271253 METAR KSEA 271253Z 19014KT 7SM SCT005 OVC011 08/06 A3030 RMK AO2 RAE53 SLP270 P0002 T00780061=
201803271231 SPECI KSEA 271231Z 19013G19KT 7SM -RA BKN006 OVC009 08/07 A3031 RMK AO2 CIG 002V009 P0002 T00780067=
201803271153 METAR KSEA 271153Z 20014G21KT 1 1/2SM -RA BR OVC003 07/07 A3031 RMK AO2 TWR VIS 2 CIG 002V006 SLP274 P0004 60006 70020 T00720067 10078 20072 58001=
201803271129 SPECI KSEA 271129Z 20013KT 1 1/2SM -RA BR OVC003 08/07 A3032 RMK AO2 P0002 T00780067=
201803271053 METAR KSEA 271053Z 20013KT 3SM -RA BR OVC004 08/07 A3032 RMK AO2 RAB01E33B49 SLP277 P0002 T00780067=
201803271039 SPECI KSEA 271039Z 19012KT 3SM BR OVC004 07/06 A3033 RMK AO2 RAB01E33 CIG 003V007 P0001 T00720061=
201803270953 METAR KSEA 270953Z 18011KT 4SM BR BKN005 OVC010 07/06 A3033 RMK AO2 RAE50 SLP278 P0000 T00720061=
201803270853 METAR KSEA 270853Z 19013KT 9SM -RA OVC009 08/06 A3032 RMK AO2 RAB37 CIG 005V013 SLP275 P0000 60000 T00780061 56001=
201803270826 SPECI KSEA 270826Z 19013KT 4SM BR BKN007 BKN014 OVC018 08/06 A3032 RMK AO2 CIG 005V012 T00780061=
201803270753 METAR KSEA 270753Z 20011KT 10SM FEW009 BKN017 OVC030 08/06 A3032 RMK AO2 SLP275 T00780061 400780044=
201803270653 METAR KSEA 270653Z 19012KT 10SM FEW009 BKN019 OVC030 08/06 A3031 RMK AO2 SLP273 T00780061=
201803270605 SPECI KSEA 270605Z 17016KT 10SM FEW007 SCT019 BKN110 07/06 A3031 RMK AO2 T00720056=
201803270553 METAR KSEA 270553Z 18013KT 10SM FEW007 BKN019 OVC100 07/06 A3032 RMK AO2 SLP276 60001 T00720061 10078 20067 50005=
201803270453 METAR KSEA 270453Z 19014KT 10SM SCT006 BKN015 OVC049 07/06 A3033 RMK AO2 SLP278 T00720061=
201803270353 METAR KSEA 270353Z 18016KT 10SM OVC008 07/06 A3030 RMK AO2 CIG 005V011 SLP269 T00720056=
201803270318 SPECI KSEA 270318Z 19014KT 9SM BKN009 OVC014 07/06 A3030 RMK AO2 T00720056=
201803270253 METAR KSEA 270253Z 19014KT 10SM BKN010 OVC016 07/06 A3030 RMK AO2 RAE02DZB07E19 SLP270 P0001 60001 T00720056 53004=
201803270208 SPECI KSEA 270208Z 19011KT 3SM -DZ FEW007 BKN012 OVC016 07/06 A3030 RMK AO2 RAE02DZB07 P0001 T00670056=
201803270153 METAR KSEA 270153Z 18013KT 1 1/2SM -RA BR FEW007 BKN014 OVC024 07/06 A3030 RMK AO2 DZE40RAB40 SLP268 P0000 T00670056=
201803270144 SPECI KSEA 270144Z 17012KT 1 1/4SM -RA BR FEW007 OVC013 07/06 A3029 RMK AO2 DZE40RAB40 P0000 T00720056=
201803270140 SPECI KSEA 270140Z 17013KT 1 1/2SM -RA BR BKN013 OVC018 07/06 A3029 RMK AO2 DZE40RAB40 P0000 T00720056=
201803270124 SPECI KSEA 270124Z 18013G21KT 5SM -DZ BKN013 OVC021 07/05 A3029 RMK AO2 P0000 T00720050=
201803270053 METAR KSEA 270053Z 18012KT 3SM -DZ OVC015 07/05 A3029 RMK AO2 DZB02 SLP267 P0000 T00720050=
201803262353 METAR KSEA 262353Z 18011KT 5SM BR BKN016 OVC024 08/05 A3029 RMK AO2 SLP266 60010 T00780050 10078 20061 53008=
201803262331 SPECI KSEA 262331Z 18012KT 10SM BKN016 OVC024 08/05 A3028 RMK AO2 T00780050=
201803262253 METAR KSEA 262253Z 19013KT 10SM BKN014 OVC025 08/05 A3027 RMK AO2 RAB40E50 SLP260 P0000 T00780050=
201803262153 METAR KSEA 262153Z 18012KT 10SM OVC012 07/05 A3027 RMK AO2 RAE16 SLP257 P0001 T00720050=
201803262053 METAR KSEA 262053Z 17010KT 10SM -RA BKN012 OVC017 07/05 A3027 RMK AO2 SLP258 P0005 60009 T00670050 51008=
201803261953 METAR KSEA 261953Z 20012KT 9SM -RA BKN012 OVC018 07/04 A3026 RMK AO2 SLP257 P0002 T00670044=
201803261853 METAR KSEA 261853Z 20010KT 9SM -RA BKN014 OVC025 07/04 A3025 RMK AO2 SLP253 P0002 T00670044=
201803261810 SPECI KSEA 261810Z 20015G22KT 10SM -RA OVC013 06/04 A3025 RMK AO2 P0000 T00610039=
201803261753 METAR KSEA 261753Z 20018G23KT 10SM -RA OVC016 06/04 A3024 RMK AO2 RAB49 SLP249 P0000 60003 T00610039 10067 20044 53015=
201803261653 METAR KSEA 261653Z 20015G25KT 10SM OVC016 06/03 A3022 RMK AO2 SLP243 T00610028=
201803261553 METAR KSEA 261553Z 19015G20KT 10SM OVC017 06/03 A3020 RMK AO2 SLP235 T00560028=
201803261453 METAR KSEA 261453Z 18010KT 10SM OVC021 05/03 A3020 RMK AO2 RAE51 SLP234 P0000 60003 T00500028 53005=
201803261353 METAR KSEA 261353Z 18009KT 10SM -RA BKN022 OVC028 05/03 A3018 RMK AO2 RAE21B38 SLP228 P0001 T00500028=
201803261338 SPECI KSEA 261338Z 18009KT 8SM -RA FEW020 OVC028 05/03 A3018 RMK AO2 RAE21B38 P0000 T00500028=
201803261253 METAR KSEA 261253Z 16010KT 8SM -RA BKN034 OVC050 04/02 A3018 RMK AO2 SLP228 P0002 T00440022=
201803261153 METAR KSEA 261153Z 18011KT 10SM -RA FEW024 OVC035 05/02 A3018 RMK AO2 SLP228 P0001 60001 70005 T00500022 10067 20050 58001=
201803261053 METAR KSEA 261053Z 18016KT 10SM -RA BKN031 OVC039 06/01 A3019 RMK AO2 RAB50 SLP230 P0000 T00610011=
201803260953 METAR KSEA 260953Z 19014KT 10SM SCT055 OVC110 06/00 A3019 RMK AO2 SLP230 T00610000=
201803260859 SPECI KSEA 260859Z 19012KT 10SM FEW033 BKN100 06/00 A3018 RMK AO2 T00610000=
201803260853 METAR KSEA 260853Z 19012KT 10SM BKN050 OVC110 06/M01 A3018 RMK AO2 SLP229 T00611006 51004=
201803260653 METAR KSEA 260653Z 18011KT 10SM OVC110 06/00 A3017 RMK AO2 SLP226 T00610000=
201803260553 METAR KSEA 260553Z 21011KT 10SM FEW080 BKN140 07/01 A3017 RMK AO2 SLP225 T00670006 10111 20067 51014=
201803260453 METAR KSEA 260453Z 21011KT 10SM FEW100 BKN180 07/01 A3017 RMK AO2 SLP223 T00670006=
201803260353 METAR KSEA 260353Z 23006KT 10SM FEW055 SCT150 07/00 A3015 RMK AO2 SLP219 T00720000=
201803260253 METAR KSEA 260253Z 23011KT 10SM FEW055 SCT150 08/00 A3013 RMK AO2 SLP210 T00780000 53008=
201803260153 METAR KSEA 260153Z 25010KT 10SM SCT055 SCT150 BKN250 09/M01 A3012 RMK AO2 SLP207 T00891006=
201803260053 METAR KSEA 260053Z 21010KT 10SM SCT055 SCT150 BKN250 10/M01 A3010 RMK AO2 SLP202 T01001011=
201803252353 METAR KSEA 252353Z 20011KT 10SM SCT041 BKN150 10/M01 A3010 RMK AO2 SLP202 T01001011 10111 20067 58001=
201803252253 METAR KSEA 252253Z 18011KT 10SM SCT041 SCT250 11/M01 A3011 RMK AO2 SLP203 T01061006=
201803252153 METAR KSEA 252153Z 19011G18KT 10SM SCT030 BKN250 10/00 A3011 RMK AO2 SLP204 T01000000=
201803252053 METAR KSEA 252053Z 19008G15KT 10SM FEW020 SCT030 SCT250 09/01 A3011 RMK AO2 SLP204 T00940006 51003=
201803251953 METAR KSEA 251953Z 18011KT 10SM FEW022 SCT030 BKN250 09/02 A3011 RMK AO2 SLP204 T00940017=
201803251853 METAR KSEA 251853Z 20009KT 10SM SCT021 BKN030 BKN250 08/02 A3011 RMK AO2 SLP204 T00780022=
201803251826 SPECI KSEA 251826Z 22009KT 10SM FEW012 SCT021 BKN030 08/02 A3010 RMK AO2 T00780022=
201803251753 METAR KSEA 251753Z 20008KT 10SM FEW007 SCT012 BKN023 07/02 A3010 RMK AO2 SLP201 60004 T00670022 10067 20028 51017=
201803251732 SPECI KSEA 251732Z 17006KT 10SM SCT007 BKN012 BKN023 06/03 A3010 RMK AO2 T00610028=
201803251653 METAR KSEA 251653Z 18006KT 10SM BKN008 OVC015 05/03 A3009 RMK AO2 RAE15 SLP197 P0003 T00500033=
201803251615 SPECI KSEA 251615Z 00000KT 8SM R16L/6000VP6000FT BKN008 BKN016 OVC022 04/03 A3008 RMK AO2 RAE15 P0003 T00390028=
201803251553 METAR KSEA 251553Z 18005KT 9SM -RA SCT007 BKN019 OVC038 04/02 A3007 RMK AO2 RAB50 SLP192 P0001 T00390022=
201803251549 SPECI KSEA 251549Z 18005KT 10SM SCT007 BKN019 OVC038 04/02 A3007 RMK AO2=
201803251518 SPECI KSEA 251518Z 16003KT 10SM FEW007 SCT030 OVC038 04/02 A3006 RMK AO2 T00390022=
201803251453 METAR KSEA 251453Z 15005KT 10SM FEW012 SCT040 BKN075 03/02 A3005 RMK AO2 SLP184 T00330017 51016=
201803251353 METAR KSEA 251353Z 14003KT 10SM FEW020 SCT039 BKN080 03/02 A3003 RMK AO2 SLP178 T00330017=
201803251303 SPECI KSEA 251303Z 00000KT 10SM FEW008 SCT018 BKN080 04/02 A3002 RMK AO2 T00390017=
201803251253 METAR KSEA 251253Z 00000KT 10SM FEW008 BKN018 BKN080 04/02 A3002 RMK AO2 SLP174 T00390017=
201803251153 METAR KSEA 251153Z 00000KT 10SM SCT006 BKN012 04/02 A3000 RMK AO2 SLP167 70006 T00390022 10056 20033 53012=
201803251053 METAR KSEA 251053Z 00000KT 10SM SCT009 BKN014 BKN060 04/02 A2998 RMK AO2 SLP160 T00390022=
201803250953 METAR KSEA 250953Z 34003KT 10SM BKN014 BKN060 04/02 A2997 RMK AO2 SLP158 T00390017=
201803250909 SPECI KSEA 250909Z 32003KT 10SM BKN011 BKN016 OVC060 04/02 A2997 RMK AO2 T00440022=
201803250853 METAR KSEA 250853Z 00000KT 10SM SCT011 BKN016 BKN060 04/02 A2996 RMK AO2 SLP155 T00440017 53007=
201803250845 SPECI KSEA 250845Z 31003KT 10SM FEW011 BKN016 BKN060 04/02 A2996 RMK AO2 T00440022=
201803250753 METAR KSEA 250753Z 00000KT 10SM SCT050 04/01 A2996 RMK AO2 SLP152 T00390011 400830011=
201803250653 METAR KSEA 250653Z 00000KT 10SM SCT046 SCT080 05/01 A2994 RMK AO2 SLP148 T00500006=
201803250553 METAR KSEA 250553Z 00000KT 10SM BKN038 BKN080 06/01 A2994 RMK AO2 SLP148 T00560011 10078 20056 51009=
201803250453 METAR KSEA 250453Z 26003KT 10SM FEW037 BKN075 06/01 A2994 RMK AO2 SLP146 T00560011=
201803250353 METAR KSEA 250353Z 27005KT 10SM FEW030 BKN060 BKN120 06/01 A2993 RMK AO2 SLP143 T00610006=
201803250253 METAR KSEA 250253Z 26003KT 10SM FEW030 SCT060 BKN120 06/01 A2992 RMK AO2 SLP139 T00610006 53005=
201803250153 METAR KSEA 250153Z 25005KT 10SM FEW030 SCT060 BKN120 BKN200 07/00 A2990 RMK AO2 SLP136 T00720000=
201803250053 METAR KSEA 250053Z 24004KT 10SM SCT035 BKN060 BKN150 08/00 A2991 RMK AO2 SLP137 T00780000=
201803242353 METAR KSEA 242353Z 24005KT 10SM SCT020 BKN150 08/00 A2990 RMK AO2 SLP134 T00780000 10083 20056 56006=
201803242253 METAR KSEA 242253Z VRB06KT 10SM SCT020 BKN150 08/01 A2991 RMK AO2 SLP135 T00830006=
201803242153 METAR KSEA 242153Z 29007KT 10SM SCT025 BKN170 08/01 A2991 RMK AO2 SLP135 T00780006=
201803242053 METAR KSEA 242053Z 22008KT 10SM FEW023 SCT050 BKN220 08/01 A2992 RMK AO2 SLP139 T00780006 51005=
201803241953 METAR KSEA 241953Z 22010KT 10SM SCT021 BKN180 08/01 A2992 RMK AO2 SLP138 T00780006=
201803241929 SPECI KSEA 241929Z 22010KT 10SM SCT021 BKN180 07/02 A2991 RMK AO2 T00720017=
201803241853 METAR KSEA 241853Z 23009KT 10SM BKN018 07/02 A2991 RMK AO2 SLP136 T00670022=
201803241753 METAR KSEA 241753Z 21009KT 10SM BKN014 06/02 A2990 RMK AO2 SLP135 60006 T00560022 10056 20011 51012=
201803241734 SPECI KSEA 241734Z 20012KT 10SM SCT014 06/02 A2990 RMK AO2 T00560017=
201803241653 METAR KSEA 241653Z 21011KT 10SM BKN012 04/02 A2989 RMK AO2 SLP132 T00440017=
201803241628 SPECI KSEA 241628Z 21011KT 10SM SCT010 04/02 A2989 RMK AO2 T00390017=
201803241553 METAR KSEA 241553Z 21011KT 10SM BKN012 BKN016 04/02 A2988 RMK AO2 SLP128 T00390017=
201803241453 METAR KSEA 241453Z 18010KT 10SM BKN012 OVC018 03/02 A2987 RMK AO2 SLP123 60006 T00280017 53026=
201803241423 SPECI KSEA 241423Z 19010KT 10SM BKN010 OVC015 02/01 A2986 RMK AO2 CIG 006V013 T00220011=
201803241401 SPECI KSEA 241401Z 17008KT 10SM BKN006 OVC009 02/01 A2985 RMK AO2 CIG 003V008 T00220011=
201803241353 METAR KSEA 241353Z 17008KT 10SM BKN004 OVC008 02/01 A2984 RMK AO2 RAE14SNE14 SLP114 P0000 T00220011=
201803241337 SPECI KSEA 241337Z 17009KT 1 1/2SM BKN003 OVC008 02/01 A2983 RMK AO2 SFC VIS 7 RAE14SNE14 P0000 T00170011=
201803241314 SPECI KSEA 241314Z 15008KT 1/4SM R16L/P6000FT BR OVC003 02/01 A2982 RMK AO2 SFC VIS 1 RAE14SNE14 CIG 003V006 P0000 T00170006=
201803241253 METAR KSEA 241253Z 16006KT 7SM -RASN BKN005 OVC017 01/01 A2981 RMK AO2 SLP105 P0006 T00110006=
201803241153 METAR KSEA 241153Z 23005KT 4SM -RASN BR BKN005 OVC010 02/01 A2979 RMK AO2 SNB21 SLP097 P0010 60018 70052 T00170006 10050 20017 53011=
201803241053 METAR KSEA 241053Z 26008KT 10SM -RA BKN007 BKN012 OVC033 03/01 A2977 RMK AO2 SLP091 P0003 T00280011=
201803240953 METAR KSEA 240953Z 27006KT 10SM -RA BKN008 OVC012 03/02 A2976 RMK AO2 SLP086 P0003 T00330022=
201803240924 SPECI KSEA 240924Z 28005KT 9SM -RA SCT007 BKN010 OVC013 04/02 A2976 RMK AO2 P0001 T00390022=
201803240853 METAR KSEA 240853Z 29004KT 8SM -RA BKN010 OVC015 04/02 A2976 RMK AO2 SLP085 P0001 60002 T00390022 57004=
201803240837 SPECI KSEA 240837Z 28005KT 10SM -RA BKN010 OVC015 04/02 A2976 RMK AO2 P0000 T00390022=
201803240753 METAR KSEA 240753Z 29003KT 10SM -RA FEW016 BKN022 OVC028 04/02 A2976 RMK AO2 RAB14 SLP084 P0001 T00440022 400940011=
201803240732 SPECI KSEA 240732Z 29003KT 10SM -RA SCT024 BKN028 OVC035 04/02 A2976 RMK AO2 RAB14 P0001 T00440022=
201803240653 METAR KSEA 240653Z 28003KT 10SM SCT033 BKN040 OVC055 04/02 A2977 RMK AO2 SLP090 T00440017=
201803240553 METAR KSEA 240553Z 01003KT 10SM FEW035 OVC065 04/01 A2977 RMK AO2 SLP090 60000 T00440011 10072 20044 58007=
201803240453 METAR KSEA 240453Z 00000KT 10SM BKN035 OVC065 05/01 A2978 RMK AO2 SLP095 T00500006=
201803240353 METAR KSEA 240353Z 00000KT 10SM FEW045 OVC065 05/01 A2980 RMK AO2 SLP100 T00500011=
201803240253 METAR KSEA 240253Z 28004KT 10SM BKN045 OVC070 04/02 A2979 RMK AO2 SLP097 60000 T00440017 58008=
201803240153 METAR KSEA 240153Z 24005KT 10SM SCT026 BKN060 OVC075 05/02 A2981 RMK AO2 RAB05E26 SLP103 P0000 T00500017=
201803240129 SPECI KSEA 240129Z 25009KT 10SM SCT026 BKN041 OVC070 05/01 A2981 RMK AO2 RAB05E26 P0000 T00500006=
201803240112 SPECI KSEA 240112Z 21011KT 10SM -RA BKN027 BKN100 BKN120 06/01 A2982 RMK AO2 RAB05 P0000 T00560011=
201803240053 METAR KSEA 240053Z 21008KT 10SM FEW030 SCT044 BKN060 BKN200 07/01 A2981 RMK AO2 SLP104 T00670011=
201803232353 METAR KSEA 232353Z 21011KT 10SM FEW034 SCT070 BKN100 OVC200 07/01 A2982 RMK AO2 RAE45 SLP105 P0000 60002 T00720011 10094 20011 58004=
201803232253 METAR KSEA 232253Z 20011KT 10SM -RA SCT030 BKN042 OVC050 07/02 A2983 RMK AO2 RAB48 SLP110 P0000 T00720017=
201803232153 METAR KSEA 232153Z 20013KT 10SM BKN037 BKN049 08/01 A2982 RMK AO2 SLP106 SHRA W AND NW T00830006=
201803232129 SPECI KSEA 232129Z 19016G20KT 10SM FEW028 BKN039 BKN049 09/02 A2983 RMK AO2 T00940017=
201803232053 METAR KSEA 232053Z 17010G19KT 10SM SCT023 BKN028 BKN035 08/02 A2983 RMK AO2 SLP109 60002 T00780017 58002=
201803232013 SPECI KSEA 232013Z 18010G18KT 10SM BKN017 BKN023 BKN250 07/02 A2984 RMK AO2 T00670022=
201803231953 METAR KSEA 231953Z 19013KT 10SM FEW008 SCT013 BKN250 07/03 A2984 RMK AO2 RAE09 SLP113 P0000 T00670028=
201803231948 SPECI KSEA 231948Z 20012KT 10SM FEW008 SCT013 BKN250 07/03 A2984 RMK AO2 RAE09 P0000=
201803231853 METAR KSEA 231853Z 20011KT 10SM -RA SCT007 BKN013 OVC040 04/03 A2984 RMK AO2 RAB10SNE10 SLP112 P0002 T00390028=
201803231840 SPECI KSEA 231840Z 20012KT 10SM -RA SCT007 BKN013 OVC030 03/02 A2984 RMK AO2 RAB10SNE10 P0002 T00330022=
201803231811 SPECI KSEA 231811Z 19013KT 7SM -RA BKN008 OVC014 03/01 A2983 RMK AO2 RAB10SNE10 P0002 T00280011=
201803231753 METAR KSEA 231753Z 16010G16KT 1 1/2SM -SN BR BKN006 OVC010 01/00 A2983 RMK AO2 RAE03 SLP110 P0019 60032 T00110000 10056 20011 53010=
201803231703 SPECI KSEA 231703Z 13008KT 2SM -SN BR BKN009 OVC013 02/01 A2982 RMK AO2 RAE03 P0002 T00220006=
201803231653 METAR KSEA 231653Z 12008KT 5SM -RASN BR FEW009 BKN013 OVC028 02/01 A2981 RMK AO2 SNB30 SLP105 P0009 T00220006=
201803231630 SPECI KSEA 231630Z 10007KT 6SM -RASN BR FEW009 BKN013 OVC030 03/01 A2980 RMK AO2 SNB30 P0005 T00280011=
201803231553 METAR KSEA 231553Z 12006KT 7SM -RA SCT011 BKN021 OVC030 03/02 A2980 RMK AO2 SLP100 P0003 T00330017=
201803231522 SPECI KSEA 231522Z 17006KT 8SM -RA FEW013 BKN019 OVC030 03/02 A2979 RMK AO2 P0003 T00330017=
201803231453 METAR KSEA 231453Z 17013G21KT 8SM -RA FEW014 OVC031 04/01 A2980 RMK AO2 RAB42 SLP100 P0001 60001 T00440011 53005=
201803231353 METAR KSEA 231353Z 20008KT 10SM FEW035 OVC050 06/00 A2978 RMK AO2 SLP094 T00560000=
201803231253 METAR KSEA 231253Z 18011KT 10SM FEW035 SCT043 OVC050 05/M01 A2978 RMK AO2 SLP093 T00501011=
201803231153 METAR KSEA 231153Z 15005KT 10SM OVC046 04/M01 A2978 RMK AO2 SLP093 60000 70043 T00441006 10050 20044 55004=
201803231053 METAR KSEA 231053Z 12007KT 10SM BKN055 OVC070 05/M01 A2978 RMK AO2 SLP092 T00501006=
201803230953 METAR KSEA 230953Z 13007KT 10SM FEW020 BKN070 BKN150 05/M01 A2979 RMK AO2 SLP094 T00501006=
201803230853 METAR KSEA 230853Z 12006KT 10SM FEW019 BKN046 04/00 A2980 RMK AO2 SLP099 60000 T00440000 51005=
201803230753 METAR KSEA 230753Z 22006KT 10SM OVC036 04/01 A2979 RMK AO2 RAB36E45 SLP097 P0000 T00440011 400940039=
201803230653 METAR KSEA 230653Z 14009KT 10SM BKN050 OVC080 04/01 A2980 RMK AO2 SLP098 T00440011=
201803230553 METAR KSEA 230553Z 15009KT 10SM SCT041 BKN048 BKN055 04/01 A2978 RMK AO2 SLP092 60006 T00440006 10072 20039 50004=
201803230453 METAR KSEA 230453Z 17007KT 140V200 10SM SCT037 OVC048 05/01 A2978 RMK AO2 SLP093 T00500006=
201803230353 METAR KSEA 230353Z 16008KT 10SM FEW041 BKN065 OVC110 05/01 A2978 RMK AO2 SLP091 T00500006=
201803230253 METAR KSEA 230253Z 18008KT 10SM SCT020 SCT035 BKN070 04/01 A2977 RMK AO2 RAE00 SLP088 P0000 60006 T00440011 53015=
201803230153 METAR KSEA 230153Z 17009KT 6SM R16L/5500VP6000FT -RA BR SCT018 BKN031 BKN039 04/02 A2974 RMK AO2 RAB47 SLP081 P0006 T00390017=
201803230053 METAR KSEA 230053Z 17008G15KT 10SM FEW030 SCT120 BKN200 07/01 A2973 RMK AO2 SLP075 T00670011=
201803222353 METAR KSEA 222353Z 19010KT 10SM FEW026 BKN039 BKN060 06/02 A2972 RMK AO2 SLP072 60004 T00610017 10083 20050 53022=
201803222253 METAR KSEA 222253Z 18011KT 10SM SCT020 BKN035 BKN070 07/03 A2970 RMK AO2 PK WND 21028/2222 RAB22E38 SLP064 P0000 T00720028=
201803222224 SPECI KSEA 222224Z 22015G28KT 6SM -RA FEW018 BKN026 OVC085 06/02 A2969 RMK AO2 PK WND 21028/2222 RAB22 P0000 T00610022=
201803222153 METAR KSEA 222153Z 20012KT 10SM SCT024 BKN070 OVC085 07/03 A2967 RMK AO2 SLP055 T00720028=
201803222053 METAR KSEA 222053Z 20011KT 10SM FEW039 BKN070 OVC085 06/05 A2966 RMK AO2 PK WND 22028/2017 RAE01 SLP050 P0000 60004 T00560050 51029=
201803221953 METAR KSEA 221953Z 20012G20KT 10SM -RA FEW009 SCT022 OVC048 06/04 A2964 RMK AO2 SLP044 P0001 T00560039=
201803221929 SPECI KSEA 221929Z 22014KT 9SM -RA FEW009 SCT015 OVC031 06/03 A2963 RMK AO2 P0001 T00560033=
201803221853 METAR KSEA 221853Z 22015G25KT 7SM -RA FEW008 BKN013 OVC020 06/03 A2960 RMK AO2 SLP030 P0003 T00560033=
201803221841 SPECI KSEA 221841Z 20013KT 7SM -RA FEW008 BKN013 OVC020 06/04 A2960 RMK AO2 P0001 T00610039=
201803221753 METAR KSEA 221753Z 20010KT 8SM -RA SCT008 BKN016 OVC030 06/04 A2957 RMK AO2 SLP021 P0006 60033 T00610044 10078 20061 53026=
201803221653 METAR KSEA 221653Z 20011KT 7SM -RA SCT005 BKN027 OVC035 06/04 A2954 RMK AO2 SLP010 P0006 T00610044=
201803221629 SPECI KSEA 221629Z 21012KT 7SM -RA SCT004 BKN022 OVC035 06/04 A2952 RMK AO2 P0004 T00610039=
201803221553 METAR KSEA 221553Z 20009KT 5SM -RA BR BKN004 OVC037 06/05 A2951 RMK AO2 SLP000 P0009 T00610050=
201803221546 SPECI KSEA 221546Z 19007KT 5SM -RA BR BKN004 OVC037 06/05 A2951 RMK AO2 P0006 T00610050=
201803221522 SPECI KSEA 221522Z 18007KT 5SM -RA BR BKN007 OVC037 06/05 A2951 RMK AO2 P0004 T00610050=
201803221453 METAR KSEA 221453Z 21010KT 6SM -RA BR FEW006 FEW020 OVC039 06/05 A2949 RMK AO2 SLP993 P0010 60012 T00610050 53009=
201803221427 SPECI KSEA 221427Z 22010KT 6SM -RA BR FEW006 SCT021 OVC037 06/04 A2949 RMK AO2 P0006 T00610044=
201803221353 METAR KSEA 221353Z 24012KT 6SM -RA BR SCT005 OVC021 06/04 A2949 RMK AO2 RAB16 SLP992 P0002 T00610044=
201803221321 SPECI KSEA 221321Z 23012G18KT 10SM -RA SCT004 BKN017 OVC085 07/05 A2948 RMK AO2 RAB16 P0000 T00670050=
201803221304 SPECI KSEA 221304Z 23009KT 10SM BKN004 BKN014 OVC085 07/05 A2947 RMK AO2 T00670050=
201803221253 METAR KSEA 221253Z 24011KT 10SM BKN005 BKN080 OVC090 07/06 A2946 RMK AO2 SLP982 T00670056=
201803221229 SPECI KSEA 221229Z 24006KT 10SM BKN007 BKN095 OVC110 08/07 A2945 RMK AO2 T00780067=
201803221223 SPECI KSEA 221223Z 23007KT 10SM SCT007 BKN110 08/07 A2946 RMK AO2 T00780067=
201803221153 METAR KSEA 221153Z 24005KT 10SM SCT095 07/06 A2947 RMK AO2 SLP985 60009 70013 T00720061 10100 20072 56025=
201803221053 METAR KSEA 221053Z 00000KT 10SM FEW065 BKN095 08/06 A2948 RMK AO2 SLP989 T00830061=
201803220953 METAR KSEA 220953Z 00000KT 10SM OVC049 09/07 A2952 RMK AO2 SLP003 T00890072=
201803220853 METAR KSEA 220853Z 16007KT 10SM OVC046 09/07 A2954 RMK AO2 RAE29 SLP009 P0003 60009 T00940067 58007=
201803220753 METAR KSEA 220753Z 16006KT 10SM -RA OVC038 09/07 A2957 RMK AO2 SLP018 P0004 T00890072 401440022=
201803220653 METAR KSEA 220653Z 18004KT 8SM -RA OVC045 09/07 A2956 RMK AO2 SLP018 P0002 T00890072=
201803220553 METAR KSEA 220553Z 06004KT 10SM -RA OVC050 09/06 A2956 RMK AO2 SLP018 P0003 60004 T00940056 10128 20094 58006=
201803220453 METAR KSEA 220453Z 24004KT 10SM -RA BKN050 OVC060 09/07 A2957 RMK AO2 RAB29 SLP021 P0000 T00940067=
201803220353 METAR KSEA 220353Z 32003KT 10SM OVC050 09/06 A2957 RMK AO2 SLP022 T00940056=
201803220253 METAR KSEA 220253Z 11003KT 10SM FEW035 OVC055 12/03 A2958 RMK AO2 SLP024 60001 T01170028 58017=
201803220153 METAR KSEA 220153Z 00000KT 10SM BKN050 OVC060 12/04 A2960 RMK AO2 RAE27 SLP031 P0001 T01170039=
201803220053 METAR KSEA 220053Z 24004KT 10SM -RA BKN055 OVC070 12/04 A2963 RMK AO2 RAB32 SLP041 P0000 T01170039=
201803212353 METAR KSEA 212353Z 23006KT 10SM FEW030 OVC065 13/00 A2963 RMK AO2 SLP041 T01280000 10144 20083 56017=
201803212253 METAR KSEA 212253Z 28004KT 10SM FEW030 BKN070 OVC110 13/M01 A2964 RMK AO2 SLP044 T01331011=
201803212153 METAR KSEA 212153Z VRB03KT 10SM FEW030 BKN080 BKN120 BKN200 14/03 A2965 RMK AO2 SLP047 T01440033=
201803212053 METAR KSEA 212053Z 26006KT 10SM SCT080 BKN120 BKN250 12/04 A2968 RMK AO2 SLP058 T01220044 58018=
201803211953 METAR KSEA 211953Z VRB03KT 10SM FEW080 SCT120 BKN250 12/01 A2970 RMK AO2 SLP065 T01220011=
201803211853 METAR KSEA 211853Z VRB03KT 10SM FEW060 FEW120 BKN250 10/02 A2972 RMK AO2 SLP072 T01000017=
201803211753 METAR KSEA 211753Z 03003KT 10SM FEW060 FEW120 BKN250 09/02 A2973 RMK AO2 SLP077 T00890017 10089 20022 56005=
201803211653 METAR KSEA 211653Z 00000KT 10SM FEW100 BKN250 07/02 A2974 RMK AO2 SLP078 T00720017=
201803211553 METAR KSEA 211553Z 13003KT 10SM FEW100 BKN250 05/01 A2974 RMK AO2 SLP080 T00500011=
201803211453 METAR KSEA 211453Z 00000KT 10SM FEW100 BKN250 03/00 A2975 RMK AO2 SLP082 T00330000 56010=
201803211353 METAR KSEA 211353Z 13004KT 10SM FEW100 BKN250 03/00 A2976 RMK AO2 SLP085 T00330000=
201803211253 METAR KSEA 211253Z 13004KT 10SM FEW100 FEW250 03/01 A2977 RMK AO2 SLP088 T00330006=
201803211153 METAR KSEA 211153Z 09004KT 10SM FEW250 04/01 A2978 RMK AO2 SLP091 T00390011 10067 20033 58015=
201803211053 METAR KSEA 211053Z 06005KT 10SM SCT250 04/02 A2979 RMK AO2 SLP096 T00440017=
201803210953 METAR KSEA 210953Z 01006KT 10SM SCT250 04/01 A2981 RMK AO2 SLP103 T00390006=
201803210853 METAR KSEA 210853Z 02004KT 10SM SCT250 05/01 A2982 RMK AO2 SLP106 T00500011 58017=
201803210753 METAR KSEA 210753Z 02008KT 10SM FEW250 06/02 A2984 RMK AO2 SLP113 T00610017 401330022=
201803210653 METAR KSEA 210653Z 02009KT 10SM FEW250 07/02 A2986 RMK AO2 SLP119 T00670022=
201803210553 METAR KSEA 210553Z 02009KT 10SM FEW250 07/02 A2987 RMK AO2 SLP124 T00670022 10128 20061 58010=
201803210453 METAR KSEA 210453Z 01008KT 10SM FEW250 07/03 A2990 RMK AO2 SLP132 T00720028=
201803210353 METAR KSEA 210353Z 35007KT 10SM SCT250 07/02 A2990 RMK AO2 SLP134 T00720017=
201803210253 METAR KSEA 210253Z 35006KT 10SM SCT250 09/02 A2990 RMK AO2 SLP134 T00890022 56021=
201803210153 METAR KSEA 210153Z 30003KT 10SM FEW035 SCT250 11/03 A2992 RMK AO2 SLP140 T01060028=
201803210053 METAR KSEA 210053Z 25004KT 10SM FEW035 SCT250 12/02 A2995 RMK AO2 SLP148 T01170017=
201803202353 METAR KSEA 202353Z 28004KT 10SM FEW030 FEW250 13/00 A2997 RMK AO2 SLP155 T01280000 10133 20083 56027=
201803202253 METAR KSEA 202253Z 24004KT 10SM FEW030 FEW250 12/03 A2999 RMK AO2 SLP162 T01220028=
201803202153 METAR KSEA 202153Z 32004KT 10SM FEW030 FEW250 12/03 A3001 RMK AO2 SLP170 T01220028=
201803202053 METAR KSEA 202053Z 27007KT 10SM FEW015 FEW026 FEW200 12/03 A3005 RMK AO2 SLP182 T01170033 58016=
201803201953 METAR KSEA 201953Z 30006KT 10SM FEW015 SCT026 SCT200 11/04 A3007 RMK AO2 SLP189 T01060039=
201803201853 METAR KSEA 201853Z 31004KT 10SM FEW015 FEW035 FEW200 09/03 A3009 RMK AO2 SLP195 T00940028=
201803201753 METAR KSEA 201753Z 04005KT 10SM FEW015 FEW035 FEW200 08/02 A3010 RMK AO2 SLP200 T00830022 10089 20022 56007=
201803201653 METAR KSEA 201653Z 01003KT 10SM FEW012 FEW035 FEW200 08/02 A3010 RMK AO2 SLP200 T00780022=
201803201553 METAR KSEA 201553Z 00000KT 10SM FEW080 FEW200 06/01 A3011 RMK AO2 SLP204 T00560011=
201803201453 METAR KSEA 201453Z 00000KT 10SM FEW080 FEW200 03/01 A3012 RMK AO2 SLP206 T00280006 56006=
201803201353 METAR KSEA 201353Z 00000KT 10SM FEW200 03/00 A3012 RMK AO2 SLP208 T00280000=
201803201253 METAR KSEA 201253Z 05003KT 10SM FEW015 FEW040 04/02 A3013 RMK AO2 SLP210 T00390017=
201803201153 METAR KSEA 201153Z 06003KT 10SM FEW015 FEW060 03/00 A3014 RMK AO2 SLP213 T00330000 10072 20028 58007=
201803201053 METAR KSEA 201053Z 00000KT 10SM FEW060 04/01 A3014 RMK AO2 SLP216 T00390011=
201803200953 METAR KSEA 200953Z 12003KT 10SM CLR 04/01 A3015 RMK AO2 SLP219 T00390006=
201803200853 METAR KSEA 200853Z 09004KT 10SM CLR 05/02 A3016 RMK AO2 SLP221 T00500022 58002=
201803200753 METAR KSEA 200753Z 06008KT 10SM CLR 06/03 A3016 RMK AO2 SLP222 T00610028 401280028=
201803200653 METAR KSEA 200653Z 03008KT 10SM CLR 07/02 A3017 RMK AO2 SLP223 T00720022=
201803200553 METAR KSEA 200553Z 35004KT 10SM CLR 06/02 A3016 RMK AO2 SLP223 T00610017 10128 20061 58001=
201803200453 METAR KSEA 200453Z 03006KT 10SM FEW250 08/02 A3017 RMK AO2 SLP222 T00830017=
201803200353 METAR KSEA 200353Z 02006KT 10SM FEW250 08/02 A3017 RMK AO2 SLP224 T00830017=
201803200253 METAR KSEA 200253Z 35006KT 10SM FEW080 FEW250 09/01 A3017 RMK AO2 SLP224 T00890006 56009=
201803200153 METAR KSEA 200153Z 02006KT 10SM FEW047 SCT080 11/01 A3018 RMK AO2 SLP227 T01060011=
201803200053 METAR KSEA 200053Z 04007KT 10SM FEW047 SCT075 12/00 A3018 RMK AO2 SLP229 T01170000=
201803192353 METAR KSEA 192353Z 30005KT 10SM SCT047 BKN080 12/01 A3019 RMK AO2 SLP233 T01170011 10128 20078 56010=
201803192253 METAR KSEA 192253Z VRB06KT 10SM SCT046 BKN075 12/02 A3020 RMK AO2 SLP236 T01170017=
201803192153 METAR KSEA 192153Z VRB03KT 10SM FEW035 SCT050 12/02 A3021 RMK AO2 SLP236 T01170022=
201803192053 METAR KSEA 192053Z 26005KT 10SM SCT036 SCT045 11/03 A3022 RMK AO2 SLP243 T01060028 58014=
201803191953 METAR KSEA 191953Z VRB04KT 10SM SCT022 BKN035 09/03 A3024 RMK AO2 SLP249 T00890033=
201803191935 SPECI KSEA 191935Z 34003KT 10SM SCT022 BKN036 09/03 A3025 RMK AO2 T00940033=
201803191853 METAR KSEA 191853Z 00000KT 10SM FEW013 BKN022 BKN035 09/04 A3025 RMK AO2 SLP252 T00940044=
201803191841 SPECI KSEA 191841Z 23004KT 10SM FEW011 BKN022 BKN035 08/04 A3026 RMK AO2 T00830044=
201803191753 METAR KSEA 191753Z 00000KT 10SM FEW011 SCT017 SCT035 08/04 A3026 RMK AO2 SLP257 T00830039 10083 20028 51005=
201803191653 METAR KSEA 191653Z 00000KT 10SM FEW009 SCT014 SCT040 08/04 A3026 RMK AO2 SLP256 T00780044=
201803191627 SPECI KSEA 191627Z 00000KT 10SM FEW009 SCT017 SCT040 06/04 A3026 RMK AO2 T00610039=
201803191617 SPECI KSEA 191617Z 00000KT 10SM SCT009 BKN017 BKN040 06/04 A3026 RMK AO2 T00610039=
201803191553 METAR KSEA 191553Z 00000KT 10SM BKN010 BKN017 BKN040 05/03 A3026 RMK AO2 SLP255 T00500028=
201803191531 SPECI KSEA 191531Z 18003KT 10SM BKN014 BKN040 04/03 A3026 RMK AO2 T00440028=
201803191453 METAR KSEA 191453Z 16004KT 10SM FEW015 SCT041 03/01 A3025 RMK AO2 SLP252 T00280011 53002=
201803191353 METAR KSEA 191353Z 00000KT 10SM FEW015 FEW040 04/02 A3024 RMK AO2 SLP249 T00390022=
201803191253 METAR KSEA 191253Z 00000KT 10SM FEW050 04/02 A3024 RMK AO2 SLP248 T00390022=
201803191153 METAR KSEA 191153Z 17003KT 10SM FEW050 03/02 A3024 RMK AO2 SLP250 T00330017 10072 20033 58000=
201803191053 METAR KSEA 191053Z 14004KT 10SM FEW050 04/02 A3025 RMK AO2 SLP250 T00390017=
201803190953 METAR KSEA 190953Z 16003KT 10SM FEW060 05/02 A3025 RMK AO2 SLP250 T00500017=
201803190853 METAR KSEA 190853Z 00000KT 10SM FEW060 05/02 A3024 RMK AO2 SLP249 T00500017 51006=
201803190753 METAR KSEA 190753Z 16004KT 10SM FEW050 BKN060 06/02 A3024 RMK AO2 SLP247 T00610022 401280039=
201803190653 METAR KSEA 190653Z 19005KT 10SM SCT050 SCT070 07/03 A3023 RMK AO2 SLP247 T00670028=
201803190553 METAR KSEA 190553Z 21006KT 10SM SCT055 BKN075 07/03 A3022 RMK AO2 SLP242 T00720028 10122 20072 51015=
201803190453 METAR KSEA 190453Z 23005KT 10SM FEW040 BKN065 08/02 A3022 RMK AO2 SLP241 T00780022=
201803190353 METAR KSEA 190353Z 24004KT 10SM SCT040 08/02 A3020 RMK AO2 SLP236 T00830022=
201803190253 METAR KSEA 190253Z 26005KT 10SM FEW040 SCT100 09/02 A3018 RMK AO2 SLP228 T00940022 53008=
201803190153 METAR KSEA 190153Z 23005KT 10SM SCT044 11/01 A3017 RMK AO2 SLP222 T01060006=
201803190053 METAR KSEA 190053Z 22009KT 10SM SCT044 12/00 A3016 RMK AO2 SLP219 T01220000=
201803182353 METAR KSEA 182353Z 20006KT 10SM SCT044 12/01 A3016 RMK AO2 SLP219 T01220006 10128 20078 56005=
201803182253 METAR KSEA 182253Z 18005KT 10SM SCT050 BKN100 12/01 A3016 RMK AO2 SLP220 T01220011=
201803182153 METAR KSEA 182153Z 20008KT 170V230 10SM FEW040 SCT060 SCT100 12/01 A3016 RMK AO2 SLP221 T01170011=
201803182053 METAR KSEA 182053Z 15006KT 10SM FEW035 SCT055 BKN100 11/02 A3017 RMK AO2 SLP225 T01110017 50002=
201803181953 METAR KSEA 181953Z 19007KT 10SM SCT027 BKN055 10/03 A3018 RMK AO2 SLP228 T01000028=
201803181853 METAR KSEA 181853Z 20007KT 10SM SCT019 BKN035 BKN050 08/02 A3017 RMK AO2 SLP226 T00830022=
201803181753 METAR KSEA 181753Z 21005KT 10SM FEW019 SCT025 BKN032 09/03 A3017 RMK AO2 SLP223 T00890033 10089 20050 53017=
201803181653 METAR KSEA 181653Z 20008KT 10SM SCT015 BKN029 BKN070 08/03 A3015 RMK AO2 SLP217 T00780028=
201803181553 METAR KSEA 181553Z 18005KT 10SM BKN028 BKN035 BKN060 07/03 A3013 RMK AO2 SLP210 T00670033=
201803181535 SPECI KSEA 181535Z 21003KT 10SM BKN025 BKN035 OVC060 06/03 A3012 RMK AO2 T00610028=
201803181453 METAR KSEA 181453Z 19003KT 10SM SCT025 OVC035 06/03 A3011 RMK AO2 SLP206 T00610028 53012=
201803181353 METAR KSEA 181353Z 18006KT 10SM BKN035 06/03 A3010 RMK AO2 SLP201 T00560028=
201803181253 METAR KSEA 181253Z 17006KT 10SM BKN029 OVC035 06/03 A3009 RMK AO2 SLP197 T00560028=
201803181153 METAR KSEA 181153Z 18006KT 10SM SCT025 BKN032 05/03 A3008 RMK AO2 SLP194 T00500028 10061 20039 51008=
201803181100 SPECI KSEA 181100Z 15007KT 10SM SCT027 BKN032 05/02 A3007 RMK AO2 T00500022=
201803181053 METAR KSEA 181053Z 15007KT 10SM BKN027 BKN032 04/02 A3007 RMK AO2 SLP192 T00440022=
201803180953 METAR KSEA 180953Z 17007KT 10SM SCT027 BKN065 05/03 A3006 RMK AO2 SLP189 T00500028=
201803180853 METAR KSEA 180853Z 16008KT 10SM SCT065 04/02 A3005 RMK AO2 SLP186 T00440022 53013=
201803180753 METAR KSEA 180753Z 16006KT 10SM SCT060 05/02 A3004 RMK AO2 SLP181 T00500022 401220033=
201803180653 METAR KSEA 180653Z 19005KT 10SM SCT060 06/03 A3003 RMK AO2 SLP177 T00560028=
201803180553 METAR KSEA 180553Z 20005KT 10SM SCT060 06/02 A3002 RMK AO2 SLP173 T00610022 10106 20061 53019=
201803180453 METAR KSEA 180453Z 23010KT 10SM SCT040 BKN055 08/02 A2999 RMK AO2 SLP165 T00780022=
201803180353 METAR KSEA 180353Z 25005KT 10SM SCT038 BKN055 08/02 A2998 RMK AO2 SLP159 T00830022=
201803180253 METAR KSEA 180253Z 22008KT 10SM BKN055 BKN200 09/02 A2996 RMK AO2 SLP153 T00940022 53013=
201803180153 METAR KSEA 180153Z 20007KT 10SM FEW025 BKN050 BKN250 10/03 A2995 RMK AO2 SLP149 T01000028=
201803180053 METAR KSEA 180053Z 21008KT 10SM FEW025 BKN050 10/03 A2993 RMK AO2 SLP144 T01000033=
201803172353 METAR KSEA 172353Z 22009KT 10SM FEW034 BKN047 BKN250 11/03 A2992 RMK AO2 SLP140 T01060033 10122 20067 53001=
201803172253 METAR KSEA 172253Z 22012KT 10SM BKN044 BKN250 11/03 A2991 RMK AO2 SLP137 T01110033=
201803172153 METAR KSEA 172153Z 20009KT 10SM SCT032 BKN038 11/02 A2991 RMK AO2 SLP137 T01060022=
201803172119 SPECI KSEA 172119Z 20006KT 10SM BKN031 10/02 A2992 RMK AO2 T01000022=
201803172053 METAR KSEA 172053Z 22009KT 10SM BKN026 11/03 A2992 RMK AO2 SLP138 T01060028 51005=
201803171953 METAR KSEA 171953Z 21009KT 10SM BKN021 08/03 A2992 RMK AO2 SLP139 T00830028=
201803171929 SPECI KSEA 171929Z 20007KT 10SM BKN017 08/04 A2991 RMK AO2 T00830039=
201803171853 METAR KSEA 171853Z 19007KT 10SM OVC014 07/03 A2991 RMK AO2 SLP137 T00720033=
201803171753 METAR KSEA 171753Z 20008KT 10SM OVC013 07/04 A2990 RMK AO2 SLP134 T00670039 10072 20033 53012=
201803171653 METAR KSEA 171653Z 16004KT 10SM OVC010 06/03 A2989 RMK AO2 SLP128 T00610033=
201803171646 SPECI KSEA 171646Z 18004KT 10SM OVC010 06/04 A2988 RMK AO2 T00610039=
201803171553 METAR KSEA 171553Z 17005KT 10SM OVC008 05/03 A2988 RMK AO2 SLP127 T00500033=
201803171508 SPECI KSEA 171508Z 16005KT 10SM BKN007 04/03 A2987 RMK AO2 T00440028=
201803171453 METAR KSEA 171453Z 14006KT 10SM FEW007 SCT090 04/02 A2987 RMK AO2 SLP121 T00440022 53008=
201803171353 METAR KSEA 171353Z 17005KT 10SM FEW007 BKN100 04/02 A2985 RMK AO2 SLP115 T00390022=
201803171318 SPECI KSEA 171318Z 16005KT 10SM FEW007 BKN100 04/02 A2985 RMK AO2 T00390022=
201803171253 METAR KSEA 171253Z 14004KT 10SM BKN100 04/03 A2985 RMK AO2 SLP114 T00440028=
201803171153 METAR KSEA 171153Z 15004KT 10SM SCT100 BKN230 04/02 A2984 RMK AO2 SLP112 T00440022 10078 20044 51003=
201803171053 METAR KSEA 171053Z 19003KT 10SM SCT100 BKN230 06/03 A2984 RMK AO2 SLP111 T00560028=
201803170953 METAR KSEA 170953Z 15005KT 10SM FEW090 SCT230 06/03 A2984 RMK AO2 SLP111 T00610028=
201803170853 METAR KSEA 170853Z 16005KT 10SM FEW090 SCT230 06/02 A2983 RMK AO2 SLP109 T00560022 51003=
201803170753 METAR KSEA 170753Z 00000KT 10SM FEW100 SCT230 06/02 A2983 RMK AO2 SLP109 T00610017 401440039=
201803170653 METAR KSEA 170653Z 00000KT 10SM FEW100 BKN230 07/02 A2983 RMK AO2 SLP108 T00720022=
201803170553 METAR KSEA 170553Z 00000KT 10SM FEW100 BKN230 08/01 A2982 RMK AO2 SLP105 T00780006 10139 20072 51005=
201803170453 METAR KSEA 170453Z 34004KT 10SM FEW090 BKN230 09/01 A2982 RMK AO2 SLP104 T00890006=
201803170353 METAR KSEA 170353Z 32004KT 10SM SCT090 BKN250 09/01 A2981 RMK AO2 SLP103 T00940011=
201803170253 METAR KSEA 170253Z 31006KT 10SM FEW050 BKN250 10/01 A2980 RMK AO2 SLP101 T01000006 53004=
201803170153 METAR KSEA 170153Z 35012KT 10SM FEW050 FEW100 BKN250 11/00 A2979 RMK AO2 SLP097 T01060000=
201803170053 METAR KSEA 170053Z 35008KT 10SM FEW050 FEW100 SCT250 13/M01 A2979 RMK AO2 SLP095 T01331006=
201803162353 METAR KSEA 162353Z 33009KT 10SM FEW050 SCT100 SCT250 13/00 A2979 RMK AO2 SLP096 T01330000 10144 20094 56008=
201803162253 METAR KSEA 162253Z 32008KT 10SM FEW050 FEW120 SCT250 14/02 A2980 RMK AO2 SLP097 T01390017=
201803162153 METAR KSEA 162153Z 31007KT 280V360 10SM FEW050 FEW120 SCT200 14/03 A2981 RMK AO2 SLP100 T01390028=
201803162053 METAR KSEA 162053Z 34007KT 10SM FEW050 FEW120 SCT200 13/03 A2982 RMK AO2 SLP105 T01280028 58008=
201803161953 METAR KSEA 161953Z VRB06KT 10SM FEW050 FEW120 SCT200 12/03 A2983 RMK AO2 SLP108 T01220028=
201803161853 METAR KSEA 161853Z 35006KT 10SM FEW050 FEW120 SCT200 11/03 A2984 RMK AO2 SLP111 T01060028=
201803161753 METAR KSEA 161753Z 36007KT 10SM FEW100 SCT200 09/03 A2984 RMK AO2 SLP113 T00940028 10094 20039 52006=
201803161653 METAR KSEA 161653Z 01012KT 10SM FEW100 SCT200 08/03 A2984 RMK AO2 SLP111 T00780028=
201803161553 METAR KSEA 161553Z 03008KT 10SM FEW080 SCT200 07/02 A2983 RMK AO2 SLP110 T00670017=
201803161453 METAR KSEA 161453Z 04005KT 10SM FEW080 SCT200 04/01 A2983 RMK AO2 SLP108 T00440006 51006=
201803161353 METAR KSEA 161353Z 05008KT 10SM FEW200 04/01 A2982 RMK AO2 SLP107 T00440011=
201803161253 METAR KSEA 161253Z 05008KT 10SM FEW230 04/02 A2982 RMK AO2 SLP105 T00440017=
201803161153 METAR KSEA 161153Z 03008KT 10SM FEW230 05/02 A2981 RMK AO2 SLP101 T00500022 10078 20050 53009=
201803161053 METAR KSEA 161053Z 02009KT 10SM CLR 06/02 A2980 RMK AO2 SLP097 T00560017=
201803160953 METAR KSEA 160953Z 02011KT 10SM SCT230 06/02 A2979 RMK AO2 SLP094 T00560017=
201803160853 METAR KSEA 160853Z 01012KT 10SM FEW220 06/02 A2978 RMK AO2 SLP091 T00610022 51006=
201803160753 METAR KSEA 160753Z 02015KT 10SM BKN220 07/02 A2978 RMK AO2 SLP090 T00670022 401330017=
201803160653 METAR KSEA 160653Z 02012KT 10SM FEW080 07/02 A2977 RMK AO2 SLP087 T00720022=
201803160553 METAR KSEA 160553Z 02015KT 10SM FEW080 08/02 A2976 RMK AO2 SLP085 T00780022 10133 20072 51008=
201803160453 METAR KSEA 160453Z 02013KT 10SM FEW090 08/02 A2975 RMK AO2 SLP084 T00830017=
201803160353 METAR KSEA 160353Z 35008KT 10SM FEW090 SCT150 07/00 A2975 RMK AO2 SLP080 T00720000=
201803160253 METAR KSEA 160253Z 36009KT 10SM FEW100 SCT150 09/M04 A2974 RMK AO2 SLP077 T00891044 53004=
201803160153 METAR KSEA 160153Z 35008KT 10SM SCT095 SCT250 11/M04 A2973 RMK AO2 SLP074 T01061044=
201803160053 METAR KSEA 160053Z 33008KT 10SM FEW040 SCT095 SCT250 12/M05 A2972 RMK AO2 SLP073 T01171050=
201803152353 METAR KSEA 152353Z 29009KT 10SM FEW040 SCT120 SCT250 13/M07 A2972 RMK AO2 SLP073 T01281072 10133 20083 56012=
201803152253 METAR KSEA 152253Z 29011G15KT 10SM FEW035 FEW120 SCT250 13/M03 A2973 RMK AO2 SLP076 T01281033=
201803152153 METAR KSEA 152153Z 28006KT 10SM FEW035 FEW120 SCT250 13/M03 A2974 RMK AO2 SLP079 T01281028=
201803152053 METAR KSEA 152053Z 29008KT 260V330 10SM FEW030 FEW100 SCT250 12/M04 A2976 RMK AO2 SLP085 T01221039 58012=
201803151953 METAR KSEA 151953Z 35004KT 10SM FEW030 FEW120 SCT250 12/00 A2978 RMK AO2 SLP092 T01170000=
201803151853 METAR KSEA 151853Z 00000KT 10SM FEW030 FEW120 SCT250 11/M01 A2979 RMK AO2 SLP096 T01061006=
201803151753 METAR KSEA 151753Z 00000KT 10SM FEW120 SCT250 08/00 A2979 RMK AO2 SLP097 T00830000 10083 20017 55002=
201803151653 METAR KSEA 151653Z 02003KT 10SM FEW120 SCT250 07/00 A2979 RMK AO2 SLP096 T00720000=
201803151553 METAR KSEA 151553Z 00000KT 10SM FEW120 SCT250 06/00 A2979 RMK AO2 SLP097 T00560000=
201803151453 METAR KSEA 151453Z 12006KT 10SM FEW010 SCT200 03/M01 A2980 RMK AO2 SLP100 T00331011 58006=
201803151353 METAR KSEA 151353Z 11007KT 10SM FEW200 03/M01 A2981 RMK AO2 SLP103 T00281006=
201803151253 METAR KSEA 151253Z 14004KT 10SM FEW200 03/00 A2981 RMK AO2 SLP104 T00330000=
201803151153 METAR KSEA 151153Z 00000KT 10SM FEW200 03/M01 A2982 RMK AO2 SLP106 70003 T00281006 10061 20017 58012=
201803151053 METAR KSEA 151053Z 00000KT 10SM SCT200 02/M01 A2983 RMK AO2 SLP111 T00221006=
201803150953 METAR KSEA 150953Z 12006KT 10SM SCT200 03/00 A2984 RMK AO2 SLP114 T00330000=
201803150853 METAR KSEA 150853Z 11004KT 10SM SCT210 03/01 A2986 RMK AO2 SLP118 T00330006 58011=
201803150753 METAR KSEA 150753Z 11007KT 10SM CLR 05/01 A2987 RMK AO2 SLP122 T00500006 401170044=
201803150653 METAR KSEA 150653Z 11007KT 10SM CLR 05/01 A2988 RMK AO2 SLP126 T00500006=
201803150553 METAR KSEA 150553Z 12007KT 10SM FEW080 06/01 A2989 RMK AO2 SLP129 T00610011 10111 20056 58003=
201803150453 METAR KSEA 150453Z 17004KT 10SM FEW080 07/01 A2990 RMK AO2 SLP132 T00670006=
201803150353 METAR KSEA 150353Z 27003KT 10SM FEW085 SCT250 07/01 A2990 RMK AO2 SLP134 T00670011=
201803150253 METAR KSEA 150253Z 23007KT 10SM FEW085 SCT250 08/01 A2990 RMK AO2 SLP133 T00780006 52002=
201803150153 METAR KSEA 150153Z 21008KT 10SM FEW040 SCT085 BKN250 09/01 A2990 RMK AO2 SLP131 T00890006=
201803150053 METAR KSEA 150053Z 23010KT 10SM FEW040 SCT070 11/00 A2989 RMK AO2 SLP130 T01060000=
201803142353 METAR KSEA 142353Z 23013KT 10SM FEW040 SCT065 10/00 A2989 RMK AO2 SLP130 T01000000 10117 20078 56003=
201803142253 METAR KSEA 142253Z 22013KT 10SM SCT040 SCT070 11/01 A2989 RMK AO2 SLP130 T01060011=
201803142153 METAR KSEA 142153Z 23013KT 10SM SCT030 SCT070 11/02 A2989 RMK AO2 SLP130 T01110017=
201803142053 METAR KSEA 142053Z 19011KT 10SM SCT028 SCT100 11/03 A2990 RMK AO2 SLP132 SHRA S T01110028 50003=
201803141953 METAR KSEA 141953Z 22012KT 10SM FEW015 SCT027 BKN100 09/02 A2991 RMK AO2 SLP135 T00890022=
201803141853 METAR KSEA 141853Z 20013G21KT 10SM FEW009 SCT023 SCT110 09/04 A2990 RMK AO2 SLP133 T00940039=
201803141845 SPECI KSEA 141845Z 21014KT 10SM FEW009 SCT023 SCT110 09/04 A2990 RMK AO2 T00940044=
201803141826 SPECI KSEA 141826Z 21015KT 10SM FEW009 BKN023 BKN110 09/04 A2990 RMK AO2 T00940044=
201803141753 METAR KSEA 141753Z 20011KT 10SM SCT008 SCT085 BKN110 08/04 A2989 RMK AO2 PK WND 20029/1743 SLP129 60003 T00830039 10089 20067 51016=
201803141653 METAR KSEA 141653Z 20009KT 10SM SCT008 SCT016 BKN080 07/05 A2988 RMK AO2 SLP125 T00720050=
201803141553 METAR KSEA 141553Z 21013KT 10SM FEW007 BKN060 07/05 A2986 RMK AO2 SLP119 T00720050=
201803141534 SPECI KSEA 141534Z 21010KT 10SM FEW007 SCT011 BKN060 07/05 A2985 RMK AO2 T00670050=
201803141513 SPECI KSEA 141513Z 21012KT 10SM SCT007 BKN011 OVC060 07/06 A2985 RMK AO2 T00670056=
201803141453 METAR KSEA 141453Z 21010KT 10SM SCT007 BKN055 OVC100 07/06 A2984 RMK AO2 SLP114 60003 T00670056 51006=
201803141442 SPECI KSEA 141442Z 20008KT 10SM SCT006 BKN055 OVC110 07/06 A2984 RMK AO2 T00670056=
201803141353 METAR KSEA 141353Z 22009KT 10SM SCT006 BKN010 OVC029 07/06 A2984 RMK AO2 RAE19 SLP110 P0001 T00720061=
201803141332 SPECI KSEA 141332Z 20007KT 7SM SCT005 BKN010 OVC025 07/06 A2984 RMK AO2 RAE19 P0001 T00720061=
201803141253 METAR KSEA 141253Z 18007KT 4SM -RA BR BKN007 OVC016 07/07 A2983 RMK AO2 RAB15 SLP109 P0002 T00720067=
201803141226 SPECI KSEA 141226Z 20005KT 7SM -RA BKN007 BKN013 OVC035 07/07 A2983 RMK AO2 RAB15 P0001 T00720067=
201803141153 METAR KSEA 141153Z 14005KT 10SM OVC042 07/06 A2982 RMK AO2 SLP106 70027 T00720056 10078 20067 50003=
201803141053 METAR KSEA 141053Z 14007KT 10SM BKN060 OVC140 07/06 A2983 RMK AO2 SLP107 T00720061=
201803140953 METAR KSEA 140953Z 14006KT 10SM BKN140 07/06 A2982 RMK AO2 SLP104 T00720056=
201803140853 METAR KSEA 140853Z 16005KT 10SM FEW050 BKN130 07/06 A2982 RMK AO2 SLP104 T00670056 56002=
201803140753 METAR KSEA 140753Z 15004KT 10SM FEW055 BKN110 07/06 A2982 RMK AO2 SLP104 T00720056 401780067=
201803140653 METAR KSEA 140653Z 14005KT 10SM BKN110 07/06 A2981 RMK AO2 SLP103 T00720056=
201803140553 METAR KSEA 140553Z 12004KT 10SM FEW050 BKN120 08/06 A2982 RMK AO2 SLP104 60009 T00780056 10089 20078 55002=
201803140453 METAR KSEA 140453Z 09009KT 10SM FEW048 OVC095 09/06 A2981 RMK AO2 SLP101 T00890056=
201803140353 METAR KSEA 140353Z 09009KT 10SM FEW046 OVC100 08/06 A2981 RMK AO2 SLP101 T00830061=
201803140253 METAR KSEA 140253Z 10007KT 10SM FEW039 SCT050 OVC075 09/07 A2983 RMK AO2 RAE50 SLP107 P0002 60009 T00890067 58004=
201803140153 METAR KSEA 140153Z 11009KT 5SM -RA BR FEW014 OVC037 09/07 A2985 RMK AO2 SLP114 P0006 T00890067=
201803140053 METAR KSEA 140053Z 11005KT 8SM -RA FEW016 BKN046 OVC060 09/07 A2984 RMK AO2 SLP110 P0001 T00890067=
201803132353 METAR KSEA 132353Z 11005KT 6SM -RA BR FEW009 SCT016 OVC055 09/07 A2984 RMK AO2 SLP111 P0005 60018 T00890067 10144 20089 50002=
201803132316 SPECI KSEA 132316Z 13005KT 7SM -RA SCT008 BKN015 OVC060 09/07 A2985 RMK AO2 P0003 T00890072=
201803132300 SPECI KSEA 132300Z 14004KT 4SM -RA BR FEW009 BKN040 OVC055 09/07 A2985 RMK AO2 P0002 T00890072=
201803132253 METAR KSEA 132253Z 14004KT 4SM -RA BR FEW013 BKN039 OVC050 09/07 A2985 RMK AO2 SLP115 P0008 T00890072=
201803132153 METAR KSEA 132153Z 21007KT 8SM -RA FEW015 OVC050 09/07 A2985 RMK AO2 SLP116 P0002 T00940072=
201803132053 METAR KSEA 132053Z 23014KT 5SM -RA BR FEW030 OVC045 10/08 A2983 RMK AO2 SLP108 P0003 60003 T01000078 51023=
201803131953 METAR KSEA 131953Z 25013KT 10SM -RA FEW035 BKN060 OVC075 11/07 A2982 RMK AO2 RAB45 SLP101 P0000 T01110067=
201803131853 METAR KSEA 131853Z 24015G21KT 10SM FEW050 BKN080 OVC150 13/07 A2979 RMK AO2 SLP092 T01280072=
201803131753 METAR KSEA 131753Z 22009KT 10SM FEW060 BKN085 OVC200 14/08 A2976 RMK AO2 SLP084 60000 T01440078 10178 20122 51034=
201803131653 METAR KSEA 131653Z 20007KT 10SM BKN095 OVC200 14/06 A2974 RMK AO2 SLP074 T01390061=
201803131553 METAR KSEA 131553Z 20007KT 10SM BKN095 OVC200 12/04 A2970 RMK AO2 SLP062 T01220044=
201803131453 METAR KSEA 131453Z 14012KT 10SM BKN100 OVC250 18/01 A2966 RMK AO2 RAB24E34 PRESRR SLP049 P0000 60000 T01780006 53003=
201803131353 METAR KSEA 131353Z 12014KT 10SM BKN110 OVC250 18/00 A2963 RMK AO2 PK WND 12028/1254 SLP036 T01780000=
201803131253 METAR KSEA 131253Z 12020G25KT 10SM SCT110 OVC250 17/00 A2963 RMK AO2 SLP037 T01720000=
201803131153 METAR KSEA 131153Z 11013KT 10SM SCT110 BKN250 17/00 A2965 RMK AO2 PK WND 13026/1054 SLP045 T01720000 10178 20167 56026=
201803131053 METAR KSEA 131053Z 12017G29KT 10SM SCT180 BKN250 17/00 A2967 RMK AO2 PK WND 12031/0954 SLP052 T01720000=
201803130953 METAR KSEA 130953Z 11021G29KT 10SM FEW180 BKN250 17/00 A2970 RMK AO2 PK WND 12029/0952 SLP062 T01720000=
201803130853 METAR KSEA 130853Z 12015G19KT 10SM FEW180 BKN250 17/01 A2973 RMK AO2 PK WND 12026/0814 SLP072 T01720006 56031=
201803130753 METAR KSEA 130753Z 11017G26KT 10SM SCT250 17/01 A2976 RMK AO2 PK WND 12028/0738 SLP080 T01720011 402280056=
201803130653 METAR KSEA 130653Z 12017G25KT 10SM BKN250 17/01 A2979 RMK AO2 SLP092 T01720011=
201803130553 METAR KSEA 130553Z 12009KT 10SM BKN250 17/01 A2982 RMK AO2 SLP103 T01670011 10222 20167 58017=
201803130453 METAR KSEA 130453Z 12010KT 10SM SCT250 17/01 A2985 RMK AO2 SLP113 T01720006=
201803130353 METAR KSEA 130353Z 12011G21KT 10SM BKN250 17/01 A2987 RMK AO2 SLP119 T01720006=
201803130253 METAR KSEA 130253Z 12013KT 10SM BKN250 18/01 A2988 RMK AO2 SLP123 T01780006 56008=
201803130153 METAR KSEA 130153Z 13016G23KT 10SM BKN250 19/01 A2988 RMK AO2 SLP124 T01890006=
201803130053 METAR KSEA 130053Z 10015G22KT 10SM BKN250 21/01 A2988 RMK AO2 SLP124 T02110006=
201803122353 METAR KSEA 122353Z 09011KT 10SM BKN250 22/01 A2990 RMK AO2 SLP131 T02170006 10228 20183 56025=
201803122253 METAR KSEA 122253Z 11013KT 10SM BKN250 22/01 A2991 RMK AO2 SLP135 T02220006=
201803122153 METAR KSEA 122153Z 12017G20KT 10SM BKN250 23/01 A2994 RMK AO2 SLP144 T02280006=
201803122053 METAR KSEA 122053Z 13013G19KT 10SM BKN250 22/01 A2997 RMK AO2 SLP155 T02220011 58025=
201803121953 METAR KSEA 121953Z 12010G19KT 10SM BKN250 22/01 A3000 RMK AO2 SLP164 T02170011=
201803121853 METAR KSEA 121853Z 12015G22KT 10SM BKN250 20/01 A3003 RMK AO2 SLP173 T02000011=
201803121753 METAR KSEA 121753Z 11009KT 10SM SCT250 18/02 A3005 RMK AO2 SLP180 T01830017 10183 20056 58008=
201803121653 METAR KSEA 121653Z 00000KT 10SM SCT250 14/04 A3006 RMK AO2 SLP184 T01440039=
201803121553 METAR KSEA 121553Z VRB05KT 10SM BKN250 12/03 A3006 RMK AO2 SLP186 T01170033=
201803121453 METAR KSEA 121453Z 01006KT 10SM BKN250 08/02 A3007 RMK AO2 SLP189 T00780022 55004=
201803121353 METAR KSEA 121353Z 04005KT 10SM CLR 08/02 A3007 RMK AO2 SLP189 T00830017=
201803121253 METAR KSEA 121253Z 02004KT 10SM CLR 06/02 A3007 RMK AO2 SLP190 T00610017=
201803121153 METAR KSEA 121153Z 36006KT 10SM CLR 06/02 A3008 RMK AO2 SLP193 T00610017 10133 20061 56013=
201803121053 METAR KSEA 121053Z 36005KT 10SM CLR 07/02 A3009 RMK AO2 SLP195 T00670017=
201803120953 METAR KSEA 120953Z 04006KT 10SM CLR 09/02 A3011 RMK AO2 SLP201 T00890022=
201803120853 METAR KSEA 120853Z 01006KT 10SM CLR 08/02 A3012 RMK AO2 SLP206 T00780017 57002=
201803120753 METAR KSEA 120753Z 01004KT 10SM CLR 09/01 A3012 RMK AO2 SLP206 T00890006 401780039=
201803120653 METAR KSEA 120653Z 07005KT 10SM CLR 11/01 A3012 RMK AO2 SLP207 T01110011=
201803120553 METAR KSEA 120553Z 10005KT 10SM CLR 13/01 A3012 RMK AO2 SLP207 T01330006 10178 20111 58001=
201803120453 METAR KSEA 120453Z 00000KT 10SM CLR 12/01 A3013 RMK AO2 SLP208 T01170011=
201803120353 METAR KSEA 120353Z 05009KT 10SM CLR 14/02 A3013 RMK AO2 SLP208 T01390017=
201803120253 METAR KSEA 120253Z 04009KT 10SM FEW200 15/01 A3013 RMK AO2 SLP208 T01500011 55005=
201803120153 METAR KSEA 120153Z 01008KT 10SM FEW250 15/00 A3013 RMK AO2 SLP209 T01500000=
201803120053 METAR KSEA 120053Z 32006KT 10SM FEW250 17/01 A3013 RMK AO2 SLP209 T01720011=
201803112353 METAR KSEA 112353Z 31008KT 10SM FEW080 17/01 A3014 RMK AO2 SLP213 T01720011 10178 20117 56012=
201803112253 METAR KSEA 112253Z 32006KT 10SM FEW080 17/02 A3015 RMK AO2 SLP216 T01720022=
201803112153 METAR KSEA 112153Z 32005KT 10SM FEW080 17/03 A3016 RMK AO2 SLP220 T01720028=
201803112053 METAR KSEA 112053Z 00000KT 10SM FEW080 16/03 A3018 RMK AO2 SLP226 T01610028 58003=
201803111953 METAR KSEA 111953Z 29004KT 10SM FEW070 15/03 A3019 RMK AO2 SLP230 T01500033=
201803111853 METAR KSEA 111853Z VRB05KT 10SM FEW040 13/05 A3019 RMK AO2 SLP229 T01330050=
201803111753 METAR KSEA 111753Z VRB03KT 10SM FEW040 FEW090 13/02 A3019 RMK AO2 SLP228 T01280022 10128 20039 51015=
201803111653 METAR KSEA 111653Z 01004KT 10SM FEW100 10/03 A3018 RMK AO2 SLP226 T01000033=
201803111553 METAR KSEA 111553Z 05005KT 10SM FEW085 SCT110 09/02 A3016 RMK AO2 SLP221 T00890017=
201803111453 METAR KSEA 111453Z 05005KT 10SM FEW085 BKN110 07/01 A3014 RMK AO2 SLP214 T00720011 51009=
201803111353 METAR KSEA 111353Z 02005KT 10SM BKN110 06/03 A3014 RMK AO2 SLP213 T00610033=
201803111253 METAR KSEA 111253Z 35004KT 10SM BKN110 05/03 A3013 RMK AO2 SLP209 T00500028=
201803111153 METAR KSEA 111153Z 04004KT 10SM FEW100 FEW200 04/02 A3012 RMK AO2 SLP205 T00440017 10111 20044 51008=
201803111053 METAR KSEA 111053Z 01003KT 10SM CLR 06/01 A3011 RMK AO2 SLP202 T00560006=
201803110953 METAR KSEA 110953Z 31003KT 10SM CLR 05/00 A3011 RMK AO2 SLP202 T00500000=
201803110853 METAR KSEA 110853Z 07004KT 10SM CLR 09/M02 A3009 RMK AO2 SLP198 T00891017 53012=
201803110753 METAR KSEA 110753Z 10006KT 10SM CLR 10/M02 A3008 RMK AO2 SLP193 T01001017 401500011=
201803110653 METAR KSEA 110653Z 10005KT 10SM CLR 10/M01 A3007 RMK AO2 SLP190 T01001011=
201803110553 METAR KSEA 110553Z 12008KT 10SM CLR 11/M01 A3006 RMK AO2 SLP185 T01111011 10150 20089 51015=
201803110453 METAR KSEA 110453Z 10008KT 10SM CLR 12/M01 A3005 RMK AO2 SLP183 T01171011=
201803110353 METAR KSEA 110353Z 10007KT 10SM FEW220 12/00 A3003 RMK AO2 SLP177 T01170000=
201803110253 METAR KSEA 110253Z 02005KT 10SM FEW220 10/01 A3001 RMK AO2 SLP171 T01000011 53003=
201803110153 METAR KSEA 110153Z 36007KT 10SM FEW150 12/01 A3000 RMK AO2 SLP168 T01170011=
201803110053 METAR KSEA 110053Z 32006KT 10SM FEW220 14/02 A3000 RMK AO2 SLP167 T01390017=
201803102353 METAR KSEA 102353Z VRB05KT 10SM FEW220 14/02 A3000 RMK AO2 SLP167 T01440017 10150 20072 56013=
201803102253 METAR KSEA 102253Z 31008KT 10SM FEW220 14/02 A3001 RMK AO2 SLP170 T01390017=
201803102153 METAR KSEA 102153Z 29008KT 10SM FEW220 12/02 A3002 RMK AO2 SLP175 T01220017=
201803102053 METAR KSEA 102053Z 35004KT 10SM FEW210 12/01 A3004 RMK AO2 SLP181 T01220011 58015=
201803101953 METAR KSEA 101953Z 36004KT 10SM FEW200 11/01 A3007 RMK AO2 SLP190 T01110006=
201803101853 METAR KSEA 101853Z 35005KT 10SM CLR 09/01 A3008 RMK AO2 SLP194 T00940006=
201803101753 METAR KSEA 101753Z 34005KT 10SM CLR 07/01 A3008 RMK AO2 SLP196 T00720011 10072 20011 55003=
201803101653 METAR KSEA 101653Z 35008KT 10SM CLR 05/01 A3008 RMK AO2 SLP195 T00500011=
201803101553 METAR KSEA 101553Z 01004KT 10SM CLR 03/01 A3008 RMK AO2 SLP196 T00330011=
201803101453 METAR KSEA 101453Z 04005KT 10SM FEW010 02/00 A3009 RMK AO2 SLP200 T00220000 58003=
201803101353 METAR KSEA 101353Z 00000KT 10SM CLR 02/M01 A3010 RMK AO2 SLP200 T00221011=
201803101253 METAR KSEA 101253Z 00000KT 10SM CLR 02/00 A3010 RMK AO2 SLP201 T00170000=
201803101153 METAR KSEA 101153Z 14004KT 10SM CLR 02/M01 A3010 RMK AO2 SLP202 T00171011 10067 20017 56000=
201803101053 METAR KSEA 101053Z 00000KT 10SM CLR 03/M01 A3010 RMK AO2 SLP202 T00281006=
201803100953 METAR KSEA 100953Z 07003KT 10SM CLR 03/M01 A3010 RMK AO2 SLP202 T00331006=
201803100853 METAR KSEA 100853Z 15003KT 10SM CLR 03/00 A3010 RMK AO2 SLP202 T00330000 51002=
201803100753 METAR KSEA 100753Z 10003KT 10SM CLR 04/01 A3010 RMK AO2 SLP201 T00440006 401110044=
201803100653 METAR KSEA 100653Z AUTO 03005KT 10SM FEW050 06/01 A3010 RMK AO2 SLP201 T00560006 TSNO=
201803100553 METAR KSEA 100553Z 06005KT 10SM CLR 07/00 A3010 RMK AO2 SLP200 T00670000 10100 20067 51003=
201803100453 METAR KSEA 100453Z 03006KT 10SM FEW070 SCT250 07/01 A3010 RMK AO2 SLP200 T00670006=
201803100353 METAR KSEA 100353Z 04007KT 10SM BKN065 08/01 A3009 RMK AO2 SLP198 T00780006=
201803100253 METAR KSEA 100253Z 35005KT 10SM FEW045 BKN065 BKN250 08/01 A3009 RMK AO2 SLP197 T00780011 53007=
201803100153 METAR KSEA 100153Z 32003KT 10SM SCT045 BKN070 BKN250 08/02 A3008 RMK AO2 SLP193 T00830017=
201803100053 METAR KSEA 100053Z 30004KT 10SM FEW040 SCT060 BKN250 10/01 A3007 RMK AO2 SLP191 T01000011=
201803092353 METAR KSEA 092353Z 24005KT 10SM FEW038 SCT060 BKN250 09/01 A3007 RMK AO2 SLP189 T00940011 10111 20072 51007=
201803092253 METAR KSEA 092253Z 19006KT 10SM FEW038 SCT055 BKN250 10/01 A3006 RMK AO2 SLP188 T01000011=
201803092153 METAR KSEA 092153Z 25007KT 10SM SCT035 SCT055 BKN250 09/01 A3005 RMK AO2 SLP184 T00940011=
201803092053 METAR KSEA 092053Z 24003KT 10SM BKN031 BKN250 09/01 A3004 RMK AO2 SLP181 T00890006 53008=
201803091953 METAR KSEA 091953Z 22008KT 10SM SCT023 SCT250 09/02 A3004 RMK AO2 SLP178 T00890022=
201803091853 METAR KSEA 091853Z 20009KT 10SM SCT019 SCT250 08/03 A3003 RMK AO2 SLP175 T00830028=
201803091827 SPECI KSEA 091827Z 20010KT 10SM SCT019 SCT250 08/03 A3002 RMK AO2 T00780028=
201803091753 METAR KSEA 091753Z 19012G18KT 10SM BKN018 BKN250 07/03 A3002 RMK AO2 SLP174 T00720028 10072 20050 51017=
201803091653 METAR KSEA 091653Z 21009KT 10SM BKN017 BKN250 06/03 A3001 RMK AO2 SLP170 T00610028=
201803091553 METAR KSEA 091553Z 18008KT 10SM BKN017 06/02 A2999 RMK AO2 SLP163 T00560022=
201803091453 METAR KSEA 091453Z 20009KT 10SM BKN018 05/02 A2997 RMK AO2 SLP157 T00500017 51022=
201803091353 METAR KSEA 091353Z 21009KT 10SM BKN018 BKN024 BKN085 05/02 A2995 RMK AO2 SLP150 T00500022=
201803091253 METAR KSEA 091253Z 21009KT 10SM OVC016 06/02 A2994 RMK AO2 SLP146 T00560017=
201803091153 METAR KSEA 091153Z 23010G19KT 10SM BKN022 06/02 A2990 RMK AO2 PK WND 20029/1114 SLP134 60001 70035 T00560017 10083 20056 53032=
201803091145 SPECI KSEA 091145Z 23013G25KT 10SM BKN022 06/02 A2991 RMK AO2 PK WND 20029/1114 PRESRR T00560017=
201803091053 METAR KSEA 091053Z 21018G26KT 10SM FEW060 06/02 A2985 RMK AO2 PK WND 21031/1038 SLP116 T00560022=
201803090953 METAR KSEA 090953Z 21016G24KT 10SM FEW014 SCT060 06/02 A2984 RMK AO2 PK WND 24029/0858 SLP114 T00560022=
201803090918 SPECI KSEA 090918Z 22016G23KT 10SM SCT014 SCT065 07/06 A2984 RMK AO2 PK WND 24029/0858 T00670056=
201803090853 METAR KSEA 090853Z 21015G23KT 10SM SCT009 BKN014 BKN047 07/06 A2981 RMK AO2 RAE40 SLP101 P0000 60001 T00720056 53018=
201803090753 METAR KSEA 090753Z 21012KT 10SM -RA BKN009 OVC014 08/07 A2978 RMK AO2 CIG 007V013 SLP092 P0000 T00780067 401110039=
201803090653 METAR KSEA 090653Z 21014KT 10SM -RA BKN007 OVC011 08/07 A2977 RMK AO2 CIG 005V010 SLP088 P0001 T00780067=
201803090637 SPECI KSEA 090637Z 20011KT 10SM -RA BKN006 BKN012 OVC018 08/07 A2977 RMK AO2 CIG 005V011 P0001 T00780067=
201803090626 SPECI KSEA 090626Z 20014G22KT 10SM -RA SCT006 BKN010 OVC021 08/07 A2977 RMK AO2 P0001 T00780067=
201803090553 METAR KSEA 090553Z 20013KT 10SM -RA BKN011 BKN018 OVC028 08/07 A2976 RMK AO2 SLP083 P0000 60019 T00830067 10111 20083 51012=
201803090543 SPECI KSEA 090543Z 20013KT 10SM -RA FEW008 BKN013 OVC020 08/07 A2975 RMK AO2 P0000 T00830072=
201803090453 METAR KSEA 090453Z 21015G27KT 8SM -RA FEW013 BKN029 OVC037 08/07 A2975 RMK AO2 PK WND 22028/0442 SLP082 P0013 T00830067=
201803090353 METAR KSEA 090353Z 21014G21KT 5SM -RA BR OVC015 09/07 A2974 RMK AO2 PK WND 20026/0339 SLP077 P0001 T00890067=
201803090253 METAR KSEA 090253Z 21018G24KT 5SM -RA BKN016 OVC023 09/07 A2972 RMK AO2 PK WND 22030/0155 SLP071 P0003 60005 T00940067 53032=
201803090242 SPECI KSEA 090242Z 21015G26KT 4SM -RA BR FEW010 BKN016 OVC023 09/07 A2972 RMK AO2 PK WND 22030/0155 P0003 T00890067=
201803090208 SPECI KSEA 090208Z 22021G28KT 3SM -RA BR OVC013 09/07 A2970 RMK AO2 PK WND 22030/0155 P0001 T00890067=
201803090153 METAR KSEA 090153Z 22024G31KT 3SM -RA BR BKN015 OVC021 09/07 A2969 RMK AO2 PK WND 20031/0132 SLP062 P0002 T00940072=
201803090053 METAR KSEA 090053Z 21022G30KT 3SM -RA FEW016 BKN022 OVC027 10/07 A2965 RMK AO2 PK WND 21034/0039 RAB22 SLP048 P0000 T01000072=
201803082353 METAR KSEA 082353Z 21018G28KT 10SM BKN023 BKN030 OVC038 11/07 A2962 RMK AO2 PK WND 21033/2310 SLP038 60008 T01110067 10111 20083 53003=
201803082253 METAR KSEA 082253Z 20019G25KT 10SM OVC022 11/07 A2961 RMK AO2 PK WND 18026/2218 RAE02 SLP033 P0000 T01060072=
201803082153 METAR KSEA 082153Z 18013KT 7SM -RA BKN029 OVC045 10/06 A2960 RMK AO2 SLP029 P0001 T01000061=
201803082147 SPECI KSEA 082147Z 17013G21KT 9SM -RA BKN029 OVC045 10/06 A2960 RMK AO2 P0001=
201803082053 METAR KSEA 082053Z 18009KT 10SM -RA SCT037 OVC049 10/06 A2961 RMK AO2 RAE06B43 SLP035 P0000 60007 T01000061 58007=
201803081953 METAR KSEA 081953Z 19009KT 10SM -RA BKN042 OVC060 09/06 A2963 RMK AO2 SLP041 P0002 T00890061=
201803081853 METAR KSEA 081853Z 18008KT 9SM -RA OVC039 09/06 A2963 RMK AO2 SLP041 P0005 T00890061=
201803081753 METAR KSEA 081753Z 09006KT 10SM -RA OVC042 08/04 A2964 RMK AO2 SLP043 P0003 60007 T00830039 10083 20039 56023=
201803081653 METAR KSEA 081653Z 09011KT 9SM -RA OVC044 08/04 A2965 RMK AO2 SLP048 P0002 T00780039=
201803081553 METAR KSEA 081553Z 09006KT 9SM -RA OVC043 08/04 A2967 RMK AO2 SLP054 P0002 T00830039=
201803081453 METAR KSEA 081453Z 10003KT 10SM -RA BKN060 OVC080 07/04 A2971 RMK AO2 RAB49 SLP067 P0000 60000 T00670039 58009=
201803081353 METAR KSEA 081353Z 32003KT 10SM SCT070 BKN090 OVC110 04/03 A2972 RMK AO2 RAE40 SLP071 P0000 T00440033=
201803081253 METAR KSEA 081253Z 00000KT 10SM -RA FEW070 SCT090 BKN100 04/03 A2973 RMK AO2 RAB50 SLP076 P0000 T00440033=
201803081153 METAR KSEA 081153Z 07003KT 10SM FEW070 SCT190 05/03 A2973 RMK AO2 SLP077 60004 70004 T00500033 10072 20044 56028=
201803081053 METAR KSEA 081053Z 05004KT 10SM BKN070 05/04 A2976 RMK AO2 SLP087 T00500039=
201803080953 METAR KSEA 080953Z 06007KT 10SM FEW060 SCT075 OVC100 06/04 A2979 RMK AO2 SLP094 T00610044=
201803080853 METAR KSEA 080853Z 11003KT 10SM BKN075 OVC110 06/04 A2982 RMK AO2 SLP106 60004 T00610039 58025=
201803080753 METAR KSEA 080753Z 00000KT 10SM OVC095 07/04 A2984 RMK AO2 RAE51 SLP114 P0001 T00670039 401000017=
201803080653 METAR KSEA 080653Z 07009KT 9SM -RA OVC047 06/03 A2987 RMK AO2 SLP123 P0003 T00610033=
201803080553 METAR KSEA 080553Z 19004KT 10SM -RA BKN055 OVC075 07/02 A2989 RMK AO2 RAB50 SLP131 P0000 60000 T00670022 10089 20061 53009=
201803080453 METAR KSEA 080453Z 18004KT 10SM OVC100 07/02 A2985 RMK AO2 SLP116 T00670017=
201803080353 METAR KSEA 080353Z 00000KT 10SM OVC100 06/01 A2987 RMK AO2 SLP125 T00610011=
201803080253 METAR KSEA 080253Z 28007KT 10SM BKN110 OVC140 06/02 A2987 RMK AO2 SLP123 T00610017 55010=
201803080153 METAR KSEA 080153Z 34007KT 10SM FEW120 OVC140 07/02 A2985 RMK AO2 SLP116 T00720017=
201803080053 METAR KSEA 080053Z 01010KT 10SM FEW120 OVC140 08/01 A2987 RMK AO2 SLP125 T00780011=
201803072353 METAR KSEA 072353Z 35006KT 10SM FEW120 OVC150 09/01 A2990 RMK AO2 SLP133 T00890011 10100 20061 56020=
201803072253 METAR KSEA 072253Z 35006KT 10SM FEW110 OVC150 09/01 A2992 RMK AO2 SLP139 T00890011=
201803072153 METAR KSEA 072153Z 35006KT 10SM FEW100 OVC140 10/01 A2994 RMK AO2 SLP146 T01000011=
201803072053 METAR KSEA 072053Z 33009KT 10SM SCT130 OVC190 09/01 A2996 RMK AO2 SLP154 T00890011 56024=
201803071953 METAR KSEA 071953Z 35012KT 10SM FEW130 OVC250 09/01 A2998 RMK AO2 SLP160 T00890006=
201803071853 METAR KSEA 071853Z 36012KT 10SM BKN190 BKN250 08/M01 A3000 RMK AO2 SLP167 T00781011=
201803071753 METAR KSEA 071753Z 01012KT 10SM FEW090 BKN190 BKN250 06/M01 A3003 RMK AO2 SLP178 T00611006 10061 20017 58014=
201803071653 METAR KSEA 071653Z 01013KT 10SM BKN160 BKN250 04/M01 A3005 RMK AO2 SLP183 T00441011=
201803071553 METAR KSEA 071553Z 02011KT 10SM SCT140 BKN250 03/M01 A3006 RMK AO2 SLP190 T00331011=
201803071453 METAR KSEA 071453Z 36008KT 10SM BKN170 BKN250 02/M01 A3007 RMK AO2 SLP193 ACSL DSNT SE T00221006 58014=
201803071353 METAR KSEA 071353Z 02013KT 10SM BKN190 02/M01 A3009 RMK AO2 SLP197 T00221011=
201803071253 METAR KSEA 071253Z 02010KT 10SM SCT250 02/00 A3011 RMK AO2 SLP204 T00220000=
201803071153 METAR KSEA 071153Z 01008KT 10SM BKN250 02/M01 A3011 RMK AO2 SLP206 T00171006 10061 20017 56018=
201803071053 METAR KSEA 071053Z 02009KT 10SM BKN250 03/M01 A3012 RMK AO2 SLP209 T00331006=
201803070953 METAR KSEA 070953Z 01010KT 10SM BKN250 03/00 A3015 RMK AO2 SLP217 T00330000=
201803070853 METAR KSEA 070853Z 02010KT 10SM FEW250 04/M01 A3017 RMK AO2 SLP224 T00391006 58013=
201803070753 METAR KSEA 070753Z 01011KT 10SM CLR 04/M01 A3019 RMK AO2 SLP230 T00391006 401170028=
201803070653 METAR KSEA 070653Z 02013KT 10SM CLR 06/M01 A3020 RMK AO2 SLP235 T00561011=
201803070553 METAR KSEA 070553Z 02011KT 10SM CLR 06/M02 A3021 RMK AO2 SLP237 T00611017 10117 20061 56004=
201803070453 METAR KSEA 070453Z 03013KT 10SM CLR 07/M01 A3021 RMK AO2 SLP238 T00671011=
201803070353 METAR KSEA 070353Z 01010KT 10SM CLR 07/M01 A3021 RMK AO2 SLP238 T00671006=
201803070253 METAR KSEA 070253Z 35009KT 10SM CLR 07/M01 A3022 RMK AO2 SLP242 T00671006 57012=
201803070153 METAR KSEA 070153Z 35010KT 10SM FEW250 08/00 A3023 RMK AO2 SLP245 T00830000=
201803070053 METAR KSEA 070053Z 35014KT 10SM FEW030 10/00 A3024 RMK AO2 SLP249 T01000000=
201803062353 METAR KSEA 062353Z 35011KT 10SM FEW040 12/M01 A3025 RMK AO2 SLP253 T01171006 10117 20078 56019=
201803062253 METAR KSEA 062253Z 36008KT 10SM FEW040 11/M01 A3027 RMK AO2 SLP259 T01111006=
201803062153 METAR KSEA 062153Z 01011KT 10SM FEW030 FEW250 11/M03 A3029 RMK AO2 SLP263 T01111028=
201803062053 METAR KSEA 062053Z 04009KT 10SM FEW030 FEW250 11/M03 A3031 RMK AO2 SLP271 T01111028 58014=
201803061953 METAR KSEA 061953Z 04011KT 10SM FEW025 FEW250 11/M03 A3032 RMK AO2 SLP276 T01061028=
201803061853 METAR KSEA 061853Z 03007KT 10SM FEW020 FEW080 09/00 A3034 RMK AO2 SLP282 T00890000=
201803061753 METAR KSEA 061753Z 03009KT 10SM FEW015 FEW080 08/M01 A3035 RMK AO2 SLP286 T00781006 10078 20028 50002=
201803061653 METAR KSEA 061653Z 03005KT 10SM FEW080 06/02 A3035 RMK AO2 SLP286 T00610017=
201803061553 METAR KSEA 061553Z 07003KT 10SM FEW070 04/02 A3035 RMK AO2 SLP285 T00440017=
201803061453 METAR KSEA 061453Z 04006KT 10SM FEW070 03/01 A3034 RMK AO2 SLP284 T00280011 58003=
201803061353 METAR KSEA 061353Z 07006KT 10SM FEW070 03/01 A3035 RMK AO2 SLP285 T00330011=
201803061253 METAR KSEA 061253Z 06004KT 10SM FEW030 BKN070 03/01 A3035 RMK AO2 SLP286 T00330011=
201803061153 METAR KSEA 061153Z 03005KT 10SM FEW030 OVC070 04/02 A3035 RMK AO2 SLP287 T00390017 10061 20033 56002=
201803061053 METAR KSEA 061053Z 01005KT 10SM FEW030 OVC070 04/02 A3036 RMK AO2 SLP288 T00390022=
201803060953 METAR KSEA 060953Z 06003KT 10SM OVC070 05/02 A3035 RMK AO2 SLP286 T00500017=
201803060853 METAR KSEA 060853Z 02004KT 10SM OVC070 05/02 A3036 RMK AO2 SLP289 T00500022 55000=
201803060753 METAR KSEA 060753Z 01003KT 10SM OVC060 05/02 A3036 RMK AO2 SLP288 T00500022 400830039=
201803060653 METAR KSEA 060653Z 05004KT 10SM FEW030 OVC070 06/02 A3036 RMK AO2 SLP288 T00560022=
201803060553 METAR KSEA 060553Z 35005KT 10SM FEW030 OVC070 06/02 A3036 RMK AO2 SLP288 T00560017 10078 20056 53003=
201803060453 METAR KSEA 060453Z 00000KT 10SM FEW030 OVC070 06/02 A3036 RMK AO2 SLP289 T00560017=
201803060353 METAR KSEA 060353Z VRB03KT 10SM FEW030 BKN070 06/02 A3035 RMK AO2 SLP285 T00610017=
201803060253 METAR KSEA 060253Z 00000KT 10SM FEW030 BKN070 07/01 A3035 RMK AO2 SLP286 T00670006 55003=
201803060153 METAR KSEA 060153Z 00000KT 10SM FEW030 BKN070 BKN200 08/01 A3035 RMK AO2 SLP285 T00780006=
201803060053 METAR KSEA 060053Z 21005KT 10SM FEW025 OVC065 08/01 A3035 RMK AO2 SLP287 T00780006=
201803052353 METAR KSEA 052353Z 20005KT 10SM FEW025 OVC065 08/01 A3036 RMK AO2 SLP289 T00780011 10083 20050 56009=
201803052253 METAR KSEA 052253Z 21009KT 10SM FEW025 OVC075 08/00 A3036 RMK AO2 SLP291 T00780000=
201803052153 METAR KSEA 052153Z 18007KT 10SM FEW025 OVC070 08/01 A3037 RMK AO2 SLP292 T00780011=
201803052053 METAR KSEA 052053Z 20007KT 10SM FEW020 OVC075 07/02 A3039 RMK AO2 SLP298 T00720022 58003=
201803051953 METAR KSEA 051953Z 21007KT 10SM FEW012 SCT020 BKN080 07/01 A3040 RMK AO2 SLP303 T00720011=
201803051946 SPECI KSEA 051946Z 19007KT 10SM FEW012 SCT020 BKN080 07/02 A3040 RMK AO2 T00720017=
201803051853 METAR KSEA 051853Z 19007KT 10SM SCT011 BKN016 BKN075 06/02 A3040 RMK AO2 SLP302 T00610022=
201803051849 SPECI KSEA 051849Z 20007KT 10SM SCT011 BKN022 06/02 A3040 RMK AO2=
201803051753 METAR KSEA 051753Z 22005KT 10SM BKN011 BKN022 05/02 A3039 RMK AO2 SLP302 T00500022 10050 20039 53012=
201803051653 METAR KSEA 051653Z 23006KT 10SM FEW007 BKN010 OVC022 04/02 A3038 RMK AO2 SLP296 T00440022=
201803051623 SPECI KSEA 051623Z 23006KT 10SM SCT008 OVC012 04/02 A3037 RMK AO2 T00440022=
201803051553 METAR KSEA 051553Z 22006KT 10SM BKN015 OVC021 04/02 A3037 RMK AO2 SLP292 T00440022=
201803051543 SPECI KSEA 051543Z 22007KT 10SM BKN015 OVC021 04/02 A3036 RMK AO2 T00440022=
201803051453 METAR KSEA 051453Z 23006KT 10SM OVC012 04/02 A3036 RMK AO2 SLP290 T00440022 53007=
201803051404 SPECI KSEA 051404Z 19006KT 10SM BKN014 OVC080 04/02 A3035 RMK AO2 T00390022=
201803051353 METAR KSEA 051353Z 19006KT 10SM BKN015 OVC080 04/02 A3035 RMK AO2 SLP287 T00390022=
201803051304 SPECI KSEA 051304Z 18007KT 10SM BKN016 BKN027 OVC080 04/02 A3035 RMK AO2 T00390022=
201803051253 METAR KSEA 051253Z 18007KT 10SM FEW018 SCT027 OVC080 04/02 A3034 RMK AO2 SLP285 T00390017=
201803051238 SPECI KSEA 051238Z 19006KT 10SM SCT018 SCT027 OVC080 04/02 A3034 RMK AO2 T00390022=
201803051220 SPECI KSEA 051220Z 20006KT 10SM SCT013 BKN018 OVC085 04/02 A3034 RMK AO2 T00390022=
201803051153 METAR KSEA 051153Z 20008KT 10SM BKN013 BKN021 OVC080 04/02 A3034 RMK AO2 SLP283 70013 T00440022 10050 20044 51009=
201803051053 METAR KSEA 051053Z 21008KT 10SM SCT011 BKN019 OVC085 04/02 A3033 RMK AO2 SLP278 T00440022=
201803051040 SPECI KSEA 051040Z 22008KT 10SM SCT011 BKN017 OVC065 04/03 A3033 RMK AO2 T00440028=
201803050953 METAR KSEA 050953Z 19005KT 10SM BKN012 BKN021 OVC065 04/03 A3032 RMK AO2 SLP277 T00440028=
201803050853 METAR KSEA 050853Z 20006KT 10SM BKN014 BKN065 OVC080 04/03 A3031 RMK AO2 SLP272 T00440028 53009=
201803050819 SPECI KSEA 050819Z 19009KT 10SM BKN014 BKN065 OVC080 04/03 A3030 RMK AO2 T00440028=
201803050753 METAR KSEA 050753Z 19009KT 10SM FEW012 SCT023 OVC080 04/03 A3029 RMK AO2 SLP267 T00440028 400890006=
201803050653 METAR KSEA 050653Z 18007KT 10SM SCT015 SCT027 OVC075 04/03 A3029 RMK AO2 SLP266 T00440028=
201803050613 SPECI KSEA 050613Z 17008KT 10SM SCT020 BKN030 OVC070 04/03 A3029 RMK AO2 T00440028=
201803050553 METAR KSEA 050553Z 17009KT 10SM BKN020 BKN027 BKN070 04/03 A3028 RMK AO2 SLP264 60001 T00440028 10061 20033 53010=
201803050518 SPECI KSEA 050518Z 18008KT 10SM BKN021 04/03 A3028 RMK AO2 T00390028=
201803050453 METAR KSEA 050453Z 16008KT 10SM SCT016 SCT065 03/02 A3027 RMK AO2 SLP260 T00330022=
201803050445 SPECI KSEA 050445Z 17008KT 10SM SCT016 SCT065 03/02 A3027 RMK AO2 T00330022=
201803050403 SPECI KSEA 050403Z 17008KT 10SM BKN018 OVC080 04/03 A3026 RMK AO2 T00390028=
201803050353 METAR KSEA 050353Z 17008KT 10SM FEW007 FEW016 SCT080 03/02 A3026 RMK AO2 SLP255 T00330022=
201803050328 SPECI KSEA 050328Z 16008KT 10SM FEW007 BKN019 BKN085 04/03 A3025 RMK AO2 T00390028=
201803050253 METAR KSEA 050253Z 17008KT 10SM FEW011 BKN070 BKN085 05/03 A3025 RMK AO2 SLP254 60001 T00500033 53013=
201803050153 METAR KSEA 050153Z 20009KT 10SM FEW008 BKN065 05/03 A3023 RMK AO2 SLP248 T00500033=
201803050128 SPECI KSEA 050128Z 20010KT 10SM SCT008 BKN090 06/04 A3023 RMK AO2 T00560039=
201803050053 METAR KSEA 050053Z 18009KT 10SM FEW031 BKN040 BKN055 06/04 A3021 RMK AO2 RAE46 SLP241 P0001 T00560039=
201803050008 SPECI KSEA 050008Z 19009KT 10SM -RA FEW027 SCT039 OVC070 06/03 A3021 RMK AO2 P0000 T00560033=
201803042353 METAR KSEA 042353Z 16006KT 10SM -RA FEW018 BKN025 OVC080 06/03 A3021 RMK AO2 RAB2258 SLP240 P0012 60012 T00560033 10089 20044 53009=
201803042320 SPECI KSEA 042320Z 26014G23KT 5SM RA SCT022 BKN028 OVC036 06/03 A3022 RMK AO2 RAB2258 PRESRR P0001 T00560028=
201803042253 METAR KSEA 042253Z 22009KT 10SM SCT040 BKN055 OVC075 08/02 A3019 RMK AO2 SLP234 SHRA SW T00830017=
201803042153 METAR KSEA 042153Z 20008KT 10SM SCT033 BKN047 OVC070 08/02 A3019 RMK AO2 SLP232 T00830022=
201803042053 METAR KSEA 042053Z 20011KT 10SM SCT055 BKN065 OVC090 08/02 A3019 RMK AO2 SLP231 T00780022 51011=
201803041953 METAR KSEA 041953Z 20011KT 10SM SCT055 BKN080 OVC095 07/02 A3018 RMK AO2 SLP229 T00720022=
201803041853 METAR KSEA 041853Z 19010KT 10SM BKN060 BKN080 OVC110 05/01 A3016 RMK AO2 SLP224 T00500011=
201803041753 METAR KSEA 041753Z 20007KT 10SM SCT044 BKN060 OVC090 04/01 A3015 RMK AO2 SLP220 T00440006 10050 20017 51020=
201803041653 METAR KSEA 041653Z 16007KT 10SM SCT055 BKN085 BKN110 03/01 A3013 RMK AO2 SLP213 T00330011=
201803041553 METAR KSEA 041553Z 15005KT 10SM FEW044 BKN060 BKN110 03/00 A3011 RMK AO2 SLP207 T00280000=
201803041453 METAR KSEA 041453Z 15005KT 10SM FEW044 BKN055 BKN080 02/M01 A3009 RMK AO2 SLP199 T00221006 53014=
201803041353 METAR KSEA 041353Z 16005KT 10SM SCT047 BKN055 BKN080 02/M01 A3007 RMK AO2 SLP194 T00221006=
201803041253 METAR KSEA 041253Z 00000KT 10SM FEW050 BKN080 02/M01 A3006 RMK AO2 SLP189 T00221006=
201803041153 METAR KSEA 041153Z 14006KT 10SM FEW050 BKN080 02/M01 A3005 RMK AO2 SLP185 T00171006 10044 20006 51007=
201803041053 METAR KSEA 041053Z 13006KT 10SM FEW050 SCT080 02/M01 A3004 RMK AO2 SLP182 T00171006=
201803040953 METAR KSEA 040953Z 14004KT 10SM FEW050 BKN080 02/M01 A3004 RMK AO2 SLP182 T00171006=
201803040853 METAR KSEA 040853Z 13003KT 10SM FEW070 02/M01 A3003 RMK AO2 SLP177 T00221006 53008=
201803040753 METAR KSEA 040753Z 13004KT 10SM SCT070 03/M01 A3002 RMK AO2 SLP173 T00331006 401110011=
201803040653 METAR KSEA 040653Z 07005KT 10SM FEW070 04/00 A3001 RMK AO2 SLP171 T00390000=
201803040553 METAR KSEA 040553Z 03007KT 10SM FEW070 04/00 A3000 RMK AO2 SLP170 T00390000 10100 20033 53010=
201803040453 METAR KSEA 040453Z 05004KT 10SM FEW025 05/00 A2999 RMK AO2 SLP165 T00500000=
201803040353 METAR KSEA 040353Z 35007KT 10SM FEW025 FEW220 04/00 A2998 RMK AO2 SLP163 T00390000=
201803040253 METAR KSEA 040253Z 34007KT 10SM FEW025 FEW220 04/M01 A2997 RMK AO2 SLP159 T00441006 51013=
201803040153 METAR KSEA 040153Z 35008KT 10SM FEW020 FEW040 SCT220 07/M01 A2996 RMK AO2 SLP156 T00671006=
201803040053 METAR KSEA 040053Z 36007KT 10SM FEW020 FEW040 SCT220 09/M01 A2995 RMK AO2 SLP149 T00891006=
201803032353 METAR KSEA 032353Z 32009KT 10SM FEW020 FEW030 BKN200 09/01 A2994 RMK AO2 SLP145 T00940011 10111 20061 53000=
201803032253 METAR KSEA 032253Z 35009KT 10SM FEW020 SCT210 11/02 A2993 RMK AO2 SLP143 T01060017=
201803032153 METAR KSEA 032153Z 35010KT 10SM FEW030 SCT200 10/02 A2993 RMK AO2 SLP142 T01000017=
201803032053 METAR KSEA 032053Z 34010KT 10SM FEW030 SCT190 10/02 A2993 RMK AO2 SLP145 T01000017 50000=
201803031953 METAR KSEA 031953Z 35009KT 10SM FEW030 BKN180 09/01 A2994 RMK AO2 SLP146 T00940011=
201803031853 METAR KSEA 031853Z 36009KT 10SM FEW020 SCT180 08/02 A2994 RMK AO2 SLP146 T00780017=
201803031753 METAR KSEA 031753Z 02008KT 10SM FEW020 SCT170 06/01 A2993 RMK AO2 SLP145 T00610011 10061 20011 53015=
201803031653 METAR KSEA 031653Z 02007KT 10SM FEW025 SCT150 05/01 A2992 RMK AO2 SLP141 T00500011=
201803031553 METAR KSEA 031553Z 35008KT 10SM FEW015 SCT140 03/00 A2990 RMK AO2 SLP134 T00280000=
201803031453 METAR KSEA 031453Z 03008KT 10SM FEW020 SCT130 02/00 A2989 RMK AO2 SLP131 T00220000 51015=
201803031353 METAR KSEA 031353Z 01010KT 10SM FEW120 02/M01 A2988 RMK AO2 SLP127 T00171006=
201803031253 METAR KSEA 031253Z 03011KT 10SM FEW110 03/00 A2986 RMK AO2 SLP122 T00280000=
201803031153 METAR KSEA 031153Z 01007KT 10SM SCT110 02/00 A2985 RMK AO2 SLP116 70007 T00170000 10044 20017 51012=
201803031053 METAR KSEA 031053Z 36005KT 10SM BKN080 OVC110 03/01 A2984 RMK AO2 SLP114 T00280011=
201803030953 METAR KSEA 030953Z 35006KT 10SM OVC100 03/01 A2983 RMK AO2 SLP110 T00280011=
201803030853 METAR KSEA 030853Z 02004KT 10SM BKN080 04/02 A2981 RMK AO2 SLP104 T00390017 53009=
201803030753 METAR KSEA 030753Z 01005KT 10SM BKN090 BKN110 04/02 A2980 RMK AO2 SLP099 T00390017 400720028=
201803030653 METAR KSEA 030653Z 05005KT 10SM FEW070 BKN090 04/01 A2979 RMK AO2 SLP096 T00390011=
201803030553 METAR KSEA 030553Z 04006KT 10SM BKN085 BKN200 04/01 A2978 RMK AO2 SLP095 60000 T00440011 10072 20028 53004=
201803030453 METAR KSEA 030453Z 00000KT 10SM SCT075 BKN200 04/02 A2978 RMK AO2 SLP092 T00440017=
201803030353 METAR KSEA 030353Z 08005KT 10SM SCT070 BKN200 05/02 A2977 RMK AO2 SLP090 T00500017=
201803030253 METAR KSEA 030253Z 07007KT 10SM FEW035 BKN065 BKN200 05/02 A2977 RMK AO2 SLP090 60000 T00500022 52008=
201803030153 METAR KSEA 030153Z 00000KT 10SM FEW035 SCT070 BKN200 06/01 A2976 RMK AO2 SLP085 T00560011=
201803030053 METAR KSEA 030053Z 16006KT 10SM FEW018 SCT034 BKN070 BKN250 06/03 A2976 RMK AO2 RAB34E50 SLP086 P0000 T00560028=
201803030035 SPECI KSEA 030035Z 17010KT 9SM -RA FEW019 BKN024 OVC044 06/02 A2976 RMK AO2 RAB34 P0000 T00560022=
201803030032 SPECI KSEA 030032Z 18011KT 10SM SCT022 BKN030 OVC046 06/02 A2976 RMK AO2 T00560022=
201803022353 METAR KSEA 022353Z 17006KT 10SM OVC046 07/01 A2975 RMK AO2 SLP081 T00720006 10072 20044 53012=
201803022253 METAR KSEA 022253Z VRB05KT 10SM FEW024 BKN042 OVC050 07/02 A2973 RMK AO2 SLP077 T00720017=
201803022223 SPECI KSEA 022223Z 20005KT 10SM BKN025 OVC038 07/02 A2973 RMK AO2 T00670017=
201803022153 METAR KSEA 022153Z 00000KT 10SM FEW020 BKN037 OVC049 07/02 A2972 RMK AO2 SLP071 T00720017=
201803022053 METAR KSEA 022053Z VRB03KT 10SM FEW013 BKN032 OVC050 06/00 A2971 RMK AO2 SLP069 T00610000 51013=
201803021953 METAR KSEA 021953Z 00000KT 10SM FEW020 BKN040 OVC160 06/01 A2970 RMK AO2 SLP067 T00610006=
201803021853 METAR KSEA 021853Z 00000KT 10SM FEW009 BKN160 06/01 A2969 RMK AO2 SLP062 T00560006=
201803021753 METAR KSEA 021753Z 20006KT 10SM FEW009 BKN150 04/01 A2967 RMK AO2 SLP056 60007 T00440011 10044 20028 51019=
201803021653 METAR KSEA 021653Z 21008KT 10SM FEW013 04/01 A2966 RMK AO2 SLP051 T00390011=
201803021553 METAR KSEA 021553Z 18005KT 10SM FEW007 FEW050 BKN140 03/02 A2964 RMK AO2 SLP044 T00330017=
201803021453 METAR KSEA 021453Z 16006KT 10SM FEW007 SCT049 OVC150 03/02 A2962 RMK AO2 SLP037 60007 T00280017 51025=
201803021353 METAR KSEA 021353Z 18008KT 10SM FEW007 BKN049 OVC070 03/02 A2959 RMK AO2 RAE53 SLP029 P0001 T00330017=
201803021338 SPECI KSEA 021338Z 17007KT 10SM -RA SCT010 SCT018 OVC045 03/02 A2958 RMK AO2 P0001 T00330022=
201803021253 METAR KSEA 021253Z 19010KT 10SM -RA OVC012 04/02 A2957 RMK AO2 SLP021 P0006 T00390022=
201803021153 METAR KSEA 021153Z 19013G17KT 7SM -RA OVC013 04/02 A2954 RMK AO2 SLP011 P0003 60011 70011 T00390022 10067 20039 53015=
201803021140 SPECI KSEA 021140Z 17007KT 8SM -RA BKN013 OVC020 04/03 A2953 RMK AO2 P0002 T00390028=
201803021053 METAR KSEA 021053Z 16006KT 10SM -RA BKN021 OVC029 04/03 A2952 RMK AO2 SLP003 P0001 T00390028=
201803020953 METAR KSEA 020953Z 00000KT 9SM -RA FEW016 OVC023 04/02 A2950 RMK AO2 SLP999 P0004 T00440022=
201803020753 METAR KSEA 020753Z 22011KT 10SM -RA OVC060 06/03 A2947 RMK AO2 RAB49 SLP987 P0000 T00560028 401060028=
201803020653 METAR KSEA 020653Z 20006KT 10SM BKN100 OVC110 05/01 A2946 RMK AO2 SLP982 T00500006=
201803020553 METAR KSEA 020553Z 03009KT 10SM OVC180 06/01 A2943 RMK AO2 SLP972 T00610006 10106 20050 56007=
201803020453 METAR KSEA 020453Z 03008KT 10SM FEW050 BKN200 06/01 A2943 RMK AO2 SLP974 T00560011=
201803020353 METAR KSEA 020353Z 36006KT 10SM FEW050 SCT250 05/01 A2944 RMK AO2 SLP976 T00500006=
201803020253 METAR KSEA 020253Z 35006KT 10SM FEW060 SCT250 05/01 A2945 RMK AO2 SLP981 T00500006 56010=
201803020153 METAR KSEA 020153Z 31007KT 10SM FEW060 SCT250 07/01 A2945 RMK AO2 SLP983 T00670011=
201803020053 METAR KSEA 020053Z 36006KT 10SM FEW050 SCT250 10/M01 A2946 RMK AO2 SLP982 T01001011=
201803012353 METAR KSEA 012353Z 28005KT 10SM SCT050 SCT250 09/M01 A2948 RMK AO2 SLP990 T00941011 10106 20061 56017=
201803012253 METAR KSEA 012253Z VRB04KT 10SM FEW035 SCT060 11/M01 A2950 RMK AO2 SLP996 T01061006=
201803012153 METAR KSEA 012153Z 25003KT 10SM SCT035 SCT070 09/M01 A2951 RMK AO2 SLP002 SHRA S T00891011=
201803012053 METAR KSEA 012053Z VRB03KT 10SM SCT035 09/M01 A2953 RMK AO2 SLP006 T00941006 58015=
201803011953 METAR KSEA 011953Z VRB03KT 10SM SCT030 SCT200 09/M01 A2956 RMK AO2 SLP015 T00891006=
201803011853 METAR KSEA 011853Z 17006KT 10SM SCT023 SCT090 08/01 A2957 RMK AO2 SLP018 T00830011=
201803011753 METAR KSEA 011753Z 23003KT 10SM SCT021 SCT090 06/01 A2958 RMK AO2 SLP023 T00610011 10067 20028 56003=
201803011653 METAR KSEA 011653Z VRB04KT 10SM FEW020 FEW090 06/02 A2958 RMK AO2 SLP024 T00560017=
201803011553 METAR KSEA 011553Z 15003KT 10SM FEW050 FEW090 03/01 A2958 RMK AO2 SLP025 T00330011=
201803011453 METAR KSEA 011453Z 15007KT 10SM FEW025 SCT050 BKN090 03/02 A2958 RMK AO2 SLP026 T00330017 51006=
201803011353 METAR KSEA 011353Z 13005KT 10SM FEW016 BKN085 03/01 A2958 RMK AO2 SLP026 T00330011=
201803011253 METAR KSEA 011253Z 15008KT 10SM SCT016 03/02 A2958 RMK AO2 SLP025 T00330017=
201803011153 METAR KSEA 011153Z 19009KT 10SM FEW018 SCT070 BKN080 04/02 A2956 RMK AO2 SLP019 60003 70018 T00440022 10083 20044 51019=
201803011053 METAR KSEA 011053Z 21010KT 10SM BKN075 BKN090 05/02 A2955 RMK AO2 RAE04 SLP013 P0000 T00500022=
201803011009 SPECI KSEA 011009Z 23009KT 10SM FEW019 SCT049 BKN075 04/02 A2954 RMK AO2 RAE04 P0000 T00440022=
201803010953 METAR KSEA 010953Z 24010KT 10SM -RA BKN014 BKN027 OVC035 05/02 A2954 RMK AO2 PK WND 24027/0903 RAB03 SLP010 P0003 T00500022=
201803010938 SPECI KSEA 010938Z 22013G20KT 8SM -RA BKN014 OVC028 06/03 A2953 RMK AO2 PK WND 24027/0903 RAB03 P0002 T00560033=
201803010910 SPECI KSEA 010910Z 21016G27KT 7SM -RA FEW017 BKN027 OVC034 06/03 A2952 RMK AO2 PK WND 24027/0903 RAB03 P0000 T00610033=
201803010853 METAR KSEA 010853Z 21018G27KT 10SM OVC030 08/03 A2951 RMK AO2 PK WND 20027/0848 SLP000 60000 T00780028 53018=
201803010753 METAR KSEA 010753Z 19010KT 10SM BKN041 OVC048 08/03 A2948 RMK AO2 RAB28E38 SLP991 P0000 T00780028 400830039=
201803010653 METAR KSEA 010653Z 17011KT 10SM OVC044 08/03 A2947 RMK AO2 RAE0554 SLP986 P0000 T00830028=
201803010553 METAR KSEA 010553Z 12007KT 10SM -RA FEW037 OVC044 07/03 A2945 RMK AO2 SLP982 P0002 60012 T00720033 10072 20061 58031=
201803010453 METAR KSEA 010453Z 12010KT 10SM -RA OVC036 06/03 A2949 RMK AO2 SLP995 P0001 T00610033=
201803010353 METAR KSEA 010353Z 11012G15KT 10SM -RA OVC043 06/03 A2951 RMK AO2 SLP000 P0002 T00610033=
201803010253 METAR KSEA 010253Z 13010KT 7SM -RA OVC034 06/03 A2955 RMK AO2 SLP013 P0004 60007 T00610033 56031=
201803010153 METAR KSEA 010153Z 12014G23KT 9SM -RA OVC035 07/03 A2957 RMK AO2 SLP021 P0002 T00670033=
201803010053 METAR KSEA 010053Z 11011KT 9SM -RA OVC035 07/04 A2960 RMK AO2 SLP031 P0001 T00670039=

# No short TAF reports from KSEA in databse.

###################################
#  large TAF from KSEA
###################################
201803312322 TAF KSEA 312322Z 0100/0206 25006KT P6SM FEW025 SCT040 BKN200 FM010600
                       21006KT P6SM BKN030 BKN200 FM011200 21006KT
                       P6SM BKN020 OVC100 FM011700 18010KT P6SM
                       -RA BKN020 OVC040 FM012100 21010KT P6SM
                       -SHRA BKN030 BKN040=
201803312104 KSEA 312104Z 3121/0124 28006KT P6SM FEW030 BKN200 FM010000 25006KT
                       P6SM FEW110 BKN200 FM010600 21006KT P6SM
                       BKN040 BKN200 FM011200 21006KT P6SM BKN040
                       OVC070 FM011700 18010KT P6SM -RA SCT020
                       OVC040=
201803311720 TAF KSEA 311720Z 3118/0124 36008KT P6SM BKN025 BKN200 FM311900
                       36006KT P6SM SCT030 BKN200 FM010000 29006KT
                       P6SM FEW110 BKN200 FM010600 21006KT P6SM
                       BKN040 BKN200 FM011200 21006KT P6SM BKN040
                       OVC070 FM011700 18010KT P6SM -RA SCT020
                       OVC040=
201803311501 KSEA 311501Z 3115/0118 36008KT P6SM BKN025 BKN200 FM311800 36006KT
                       P6SM SCT030 BKN200 FM010000 29006KT P6SM
                       FEW110 BKN200 FM010600 21006KT P6SM BKN200
                       FM011200 21006KT P6SM SCT040 OVC070=
201803311227 TAF KSEA 311227Z 3112/0118 02006KT P6SM OVC018 FM311500 02006KT
                       P6SM OVC022 FM311800 36006KT P6SM SCT030
                       BKN200 FM010000 29006KT P6SM FEW110 BKN200
                       FM010600 21006KT P6SM BKN200 FM011200 21006KT
                       P6SM SCT040 OVC070=
201803310836 KSEA 310836Z 3109/0112 VRB03KT P6SM OVC014 FM311600 VRB03KT P6SM
                       SCT015 BKN025 FM311800 36006KT P6SM FEW060
                       BKN200 FM010000 29005KT P6SM FEW110 BKN200=
201803310540 TAF KSEA 310540Z 3106/0112 VRB05KT P6SM FEW022 BKN035 BKN060 FM310900
                       04005KT P6SM SCT022 BKN060 BKN200 FM311800
                       36006KT P6SM FEW060 BKN200 FM010000 29005KT
                       P6SM FEW110 BKN200=
201803310410 KSEA 310410Z 3104/0106 29005KT P6SM VCSH FEW025 BKN060 BKN200 FM310600
                       01005KT P6SM FEW025 SCT060 BKN200 FM310700
                       04006KT P6SM OVC015 FM311700 33004KT P6SM
                       SCT022 BKN200 FM312000 29004KT P6SM SCT030
                       BKN200=
201803310228 KSEA 310228Z 3102/0106 28005KT P6SM -SHRA FEW030 OVC050 FM310300
                       33006KT P6SM -SHRA OVC035 FM310500 01006KT
                       P6SM VCSH SCT035 BKN050 BKN200 FM310700
                       04006KT P6SM OVC015 FM311700 33004KT P6SM
                       SCT022 BKN200 FM312000 29004KT P6SM SCT030
                       BKN200=
201803310121 KSEA 310121Z 3101/0106 23008KT P6SM -SHRA OVC050 FM310300 VRB04KT
                       P6SM -SHRA OVC035 FM310500 01006KT P6SM
                       VCSH SCT035 BKN050 BKN200 FM310700 04006KT
                       P6SM OVC015 FM311700 33004KT P6SM SCT022
                       BKN200 FM312000 29004KT P6SM SCT030 BKN200=
201803310048 KSEA 310048Z 3101/0106 21011KT P6SM VCSH SCT045 BKN200 FM310200
                       23007KT P6SM VCSH SCT030 OVC045
                      TEMPO 3102/3104 -SHRA FM310700 VRB04KT P6SM
                       VCSH OVC015 FM311700 33004KT P6SM SCT022
                       BKN200 FM312000 29004KT P6SM SCT030 BKN200=
201803302323 TAF KSEA 302323Z 3100/0106 21009KT P6SM VCSH BKN040 BKN200
                      TEMPO 3100/3104 VRB05KT -SHRA SCT025 BKN035
                       FM310700 VRB04KT P6SM VCSH OVC015 FM311700
                       33004KT P6SM SCT022 BKN200 FM312000 29004KT
                       P6SM SCT030 BKN200=
201803302104 KSEA 302104Z 3021/3124 20010KT P6SM BKN035 BKN050 FM310000 24006KT
                       P6SM VCSH SCT015 BKN030 BKN060
                      TEMPO 3100/3104 VRB05KT -SHRA BKN025 FM310700
                       VRB04KT P6SM VCSH OVC015 FM311700 25004KT
                       P6SM SCT025 BKN200=
201803301720 TAF KSEA 301720Z 3018/3124 20010KT P6SM BKN020 BKN250 FM301900
                       20008KT P6SM SCT025 BKN040 BKN250 FM310000
                       24006KT P6SM VCSH SCT015 BKN030 BKN060
                      TEMPO 3100/3104 VRB05KT -SHRA BKN025 FM310700
                       VRB04KT P6SM VCSH OVC015 FM311700 25004KT
                       P6SM SCT025 BKN200=
201803301506 KSEA 301506Z 3015/3118 20010KT P6SM BKN015 OVC030 FM301900 20008KT
                       P6SM SCT025 BKN040 BKN080 FM310200 24006KT
                       P6SM VCSH SCT015 BKN030 BKN060 FM310900
                       19004KT P6SM OVC015 FM311700 19004KT P6SM
                       SCT025 BKN200=
201803301135 TAF KSEA 301135Z 3012/3118 20008KT P6SM OVC011 FM301600 20008KT
                       P6SM SCT012 OVC020 FM301900 20008KT P6SM
                       SCT025 BKN040 BKN080 FM310200 24006KT P6SM
                       VCSH SCT015 BKN030 BKN060 FM310900 19004KT
                       P6SM OVC015 FM311700 19004KT P6SM SCT025
                       BKN200=
201803300905 KSEA 300905Z 3009/3112 22008KT P6SM OVC015 FM301600 22008KT P6SM
                       OVC020
                      TEMPO 3016/3019 -RA FM302000 22010KT P6SM
                       BKN028 OVC050 FM310000 24007KT P6SM VCSH
                       BKN035 BKN050 FM310600 VRB04KT P6SM SCT035
                       BKN050 BKN200=
201803300532 TAF KSEA 300532Z 3006/3112 20008KT P6SM OVC020
                      TEMPO 3012/3015 -RA FM301500 19013KT P6SM
                       OVC020
                      TEMPO 3015/3019 -RA FM302000 22010KT P6SM
                       BKN028 OVC050 FM310000 24007KT P6SM VCSH
                       BKN035 BKN050 FM310600 VRB04KT P6SM SCT035
                       BKN050 BKN200=
201803300335 KSEA 300335Z 3004/3106 21004KT P6SM OVC035 FM300600 18006KT P6SM
                       OVC025 FM301000 19006KT P6SM OVC014 FM301800
                       22010KT P6SM BKN022 OVC030 FM310000 22007KT
                       P6SM VCSH SCT025 BKN030=
201803300204 KSEA 300204Z 3002/3106 21004KT P6SM BKN030 OVC120 FM300600 18006KT
                       P6SM OVC025 FM301000 19006KT P6SM OVC014
                       FM301800 22010KT P6SM BKN022 OVC030 FM310000
                       22007KT P6SM VCSH SCT025 BKN030=
201803292330 TAF KSEA 292330Z 3000/3106 20008KT P6SM FEW030 BKN120 BKN250 FM300600
                       18006KT P6SM SCT020 OVC035 FM301000 19006KT
                       P6SM OVC014 FM301800 22010KT P6SM BKN022
                       OVC030 FM310000 22007KT P6SM VCSH SCT025
                       BKN030=
201803292004 KSEA 292004Z 2920/3024 20008KT P6SM FEW015 SCT040 BKN100 FM300600
                       18006KT P6SM BKN020 OVC035 FM301200 19006KT
                       P6SM OVC015=
201803291725 TAF KSEA 291725Z 2918/3024 18008KT P6SM FEW011 OVC040 FM292100
                       20007KT P6SM SCT020 BKN040 BKN150 FM300600
                       18006KT P6SM BKN020 OVC035 FM301200 19006KT
                       P6SM OVC015=
201803291509 KSEA 291509Z 2915/3018 18008KT P6SM FEW012 BKN030 OVC045 FM291900
                       18006KT P6SM SCT022 BKN045 OVC060 FM300600
                       18006KT P6SM BKN021 OVC035 FM301000 18006KT
                       P6SM OVC015=
201803291124 TAF KSEA 291124Z 2912/3018 16006KT P6SM OVC015 FM291600 16006KT
                       P6SM SCT015 BKN022 OVC040 FM292100 18006KT
                       P6SM SCT022 BKN040 OVC060 FM300600 18006KT
                       P6SM BKN021 OVC035 FM301000 18006KT P6SM
                       OVC015=
201803290903 KSEA 290903Z 2909/3012 18006KT P6SM BKN021 OVC040 FM292000 18006KT
                       P6SM SCT022 BKN040 OVC060 FM300600 18006KT
                       P6SM BKN021 OVC035=
201803290540 TAF KSEA 290540Z 2906/3012 11005KT P6SM BKN045 BKN090 BKN200 FM291000
                       VRB03KT P6SM FEW025 BKN060 BKN200 FM291400
                       VRB03KT P6SM BKN025 BKN060 BKN110 FM291800
                       18006KT P6SM BKN035 BKN060 OVC110 FM292100
                       21008KT P6SM SCT035 BKN060 OVC110 FM300600
                       19008KT P6SM BKN028 OVC060=
201803290420 KSEA 290420Z 2904/3006 04005KT P6SM OVC035 FM290600 VRB03KT P6SM
                       SCT035 BKN050 FM290800 17005KT P6SM BKN020
                       OVC040 FM291200 18006KT P6SM OVC020 FM291800
                       18006KT P6SM SCT030 BKN040 OVC150=
201803290230 KSEA 290230Z 2903/3006 21004KT P6SM BKN035 BKN080 BKN200 FM290600
                       VRB03KT P6SM SCT035 BKN080 BKN200 FM290800
                       17005KT P6SM BKN020 OVC040 FM291200 18006KT
                       P6SM OVC020 FM291800 18006KT P6SM SCT030
                       BKN040 OVC150=
201803290047 KSEA 290047Z 2901/3006 21008KT P6SM BKN045 BKN080 BKN200 FM290400
                       21006KT P6SM SCT045 BKN080 BKN200 FM290800
                       17005KT P6SM BKN020 OVC040 FM291200 18006KT
                       P6SM OVC020 FM291800 18006KT P6SM SCT030
                       BKN040 OVC150=
201803290017 KSEA 290017Z 2900/3006 22009KT P6SM SCT045 SCT080 BKN200
                      TEMPO 2900/2903 BKN045 BKN080 BKN200 FM290300
                       22008KT P6SM BKN030 BKN080 OVC200 FM290800
                       17005KT P6SM BKN020 OVC040 FM291200 18006KT
                       P6SM OVC020 FM291800 18006KT P6SM SCT030
                       BKN040 OVC150=
201803282320 TAF KSEA 282320Z 2900/3006 22010KT P6SM SCT030 SCT080 BKN200
                      TEMPO 2900/2903 BKN030 FM290300 22008KT P6SM
                       BKN030 BKN080 OVC200 FM290800 17005KT P6SM
                       BKN020 OVC040 FM291200 18006KT P6SM OVC020
                       FM291800 18006KT P6SM SCT030 BKN040 OVC150=
201803282059 KSEA 282059Z 2821/2924 22010KT P6SM SCT020 BKN045 BKN200 FM290800
                       17005KT P6SM BKN020 OVC040 FM291200 18006KT
                       P6SM VCSH OVC020=
201803281728 TAF KSEA 281728Z 2818/2924 14006KT P6SM BKN020 OVC030
                      TEMPO 2818/2819 BKN012 FM282100 22008KT P6SM
                       SCT025 BKN030 FM290800 17005KT P6SM BKN020
                       OVC035 FM291200 18006KT P6SM VCSH OVC020=
201803281504 KSEA 281504Z 2815/2918 15006KT P6SM BKN020 OVC030 FM281800 20008KT
                       P6SM BKN025 OVC030 FM282100 22008KT P6SM
                       SCT025 BKN030 FM290800 17005KT P6SM BKN020
                       OVC035
                      PROB30 2912/2918 -RA=
201803281125 TAF KSEA 281125Z 2812/2918 16006KT P6SM OVC014 FM281800 20008KT
                       P6SM SCT015 OVC035 FM282100 22008KT P6SM
                       SCT035 BKN060 FM290800 17005KT P6SM BKN020
                       OVC035
                      PROB30 2912/2918 -RA=
201803280900 KSEA 280900Z 2809/2912 18008KT P6SM OVC015 FM281800 20008KT P6SM
                       SCT015 OVC035 FM282100 22008KT P6SM SCT035
                       BKN060 FM290800 17005KT P6SM BKN020 OVC035=
201803280520 TAF KSEA 280520Z 2806/2912 22010KT P6SM OVC015 FM281800 20008KT
                       P6SM SCT015 OVC035 FM282100 22008KT P6SM
                       SCT035 BKN060 FM290800 17005KT P6SM BKN020
                       OVC035=
201803280237 KSEA 280237Z 2803/2906 20010KT P6SM SCT023 OVC035 FM280600 18006KT
                       P6SM BKN015 OVC030 FM281800 20008KT P6SM
                       SCT015 OVC035=
201803272349 TAF KSEA 272349Z 2800/2906 20012G20KT P6SM VCSH FEW010 OVC018 FM280300
                       22007KT P6SM -SHRA BKN015 OVC030
                      TEMPO 2804/2808 5SM -SHRA OVC012 FM280900
                       29005KT P6SM VCSH OVC012 FM281800 20008KT
                       P6SM SCT015 OVC035=
201803272126 KSEA 272126Z 2721/2824 20015G25KT P6SM FEW010 SCT015 OVC035
                      TEMPO 2721/2724 P6SM -RA SCT010 BKN015 OVC035
                       FM280300 21010KT P6SM VCSH BKN015 OVC030
                       FM280900 19008KT P6SM OVC013 FM281800 21009KT
                       P6SM SCT020 BKN035=
201803271815 TAF KSEA 271815Z 2718/2824 20017G28KT P6SM FEW008 SCT018 OVC025
                       TEMPO 2718/2720 -RA SCT008 BKN018 OVC025
                       FM272000 20017G29KT P6SM FEW010 SCT018 OVC030
                       TEMPO 2720/2724 P6SM -RA SCT010 BKN018 OVC030
                       FM280300 21010KT P6SM VCSH BKN018 OVC030
                       FM280900 19008KT P6SM OVC015 FM281800 21009KT
                       P6SM SCT020 BKN035=
201803271515 KSEA 271515Z 2715/2818 20015G25KT P6SM FEW006 BKN012 OVC025
                      TEMPO 2716/2720 6SM -RA BR SCT006 OVC012
                       FM272000 20017G28KT P6SM FEW010 BKN015 OVC030
                       TEMPO 2720/2724 P6SM -RA SCT010 SCT015 OVC030
                       FM280300 21010KT P6SM VCSH BKN018 OVC030
                       FM280900 19008KT P6SM BKN014 BKN030=
201803271130 TAF KSEA 271130Z 2712/2818 19014KT 6SM -RA BR SCT006 OVC015
                      TEMPO 2712/2716 3SM -RA BR OVC004 FM271600
                       19015G24KT 6SM -RA BR SCT005 OVC010 FM272100
                       21015G25KT P6SM -RA BKN015 OVC030 FM280200
                       21010KT P6SM VCSH BKN015 OVC030 FM280900
                       19008KT P6SM BKN014 BKN030=
201803270900 KSEA 270900Z 2709/2812 19014KT P6SM SCT007 BKN015 OVC050
                      TEMPO 2709/2712 -RA BKN007 OVC015 FM271200
                       19014G22KT P6SM -RA SCT006 OVC015 FM272200
                       21015G25KT P6SM BKN015 OVC030 FM280200 21010KT
                       P6SM BKN015 OVC030=
201803270524 TAF KSEA 270524Z 2706/2812 19014KT P6SM SCT007 BKN015 OVC050
                      TEMPO 2706/2710 BKN007 OVC015 FM271200 19014G22KT
                       P6SM -RA SCT006 OVC015 FM272200 21015G25KT
                       P6SM BKN015 OVC030 FM280200 21010KT P6SM
                       BKN015 OVC030=
201803270202 KSEA 270202Z 2702/2806 18012G18KT 5SM -DZ BR FEW007 BKN015 OVC025
                       TEMPO 2702/2706 1 1/2SM -DZ BR BKN007 OVC015
                       FM271200 19014G22KT P6SM -RA OVC015 FM272200
                       21015G25KT P6SM VCSH BKN015 OVC030=
201803262323 TAF KSEA 262323Z 2700/2806 19013KT P6SM -RA BKN014 OVC025
                      TEMPO 2700/2704 OVC012 FM271200 19014G22KT
                       P6SM -RA OVC015 FM272200 21015G25KT P6SM
                       VCSH BKN015 OVC030=
201803262101 KSEA 262101Z 2621/2724 17010KT P6SM -RA BKN012 OVC017 FM270500
                       19011KT P6SM -SHRA OVC015 FM271200 19014G22KT
                       P6SM -RA OVC015=
201803261720 TAF KSEA 261720Z 2618/2724 20015G25KT P6SM -RA OVC016 FM270500
                       19011KT P6SM -SHRA OVC015 FM271200 19014G22KT
                       P6SM -RA OVC015=
201803261602 KSEA 261602Z 2616/2718 19015G20KT P6SM OVC017 FM261900 19014G22KT
                       P6SM -RA BKN017 OVC025 FM270500 19011KT
                       P6SM -SHRA OVC015 FM271200 18014G22KT P6SM
                       -RA OVC022=
201803261414 KSEA 261414Z 2614/2718 18012KT P6SM -RA BKN022 OVC028 FM261900
                       19014G22KT P6SM -RA BKN017 OVC025 FM270500
                       19011KT P6SM -SHRA OVC015 FM271200 18014G22KT
                       P6SM -RA OVC022=
201803261131 TAF KSEA 261131Z 2612/2718 18013KT P6SM -RA SCT020 OVC030
                      TEMPO 2612/2616 -RA BKN017 OVC025 FM261600
                       18013KT P6SM -RA OVC020 FM261900 19014G22KT
                       P6SM -RA BKN017 OVC025 FM270500 19011KT
                       P6SM -SHRA OVC015 FM271200 18014G22KT P6SM
                       -RA OVC022=
201803260908 KSEA 260908Z 2609/2712 19012KT P6SM SCT035 OVC100
                      TEMPO 2609/2611 -RA BKN035 OVC060 FM261100
                       18011KT P6SM -RA OVC035 FM261300 18010KT
                       P6SM -RA BKN010 OVC022 FM261900 19012G20KT
                       P6SM -RA BKN015 OVC025 FM270600 19010KT
                       P6SM OVC015=
201803260520 TAF KSEA 260520Z 2606/2712 21010KT P6SM FEW100 BKN200 FM260800
                       18008KT P6SM SCT040 OVC100 FM261100 18008KT
                       P6SM -RA OVC035 FM261300 18010KT P6SM -RA
                       BKN010 OVC022 FM261900 19012G20KT P6SM -RA
                       BKN015 OVC025 FM270600 19010KT P6SM OVC015=
201803260301 KSEA 260301Z 2603/2706 22010KT P6SM FEW060 SCT150 FM260800 18008KT
                       P6SM SCT040 OVC100 FM261100 18008KT P6SM
                       -RA OVC035 FM261300 18010KT P6SM -RA BKN010
                       OVC022 FM261900 19012G20KT P6SM -RA SCT012
                       OVC025=
201803252320 TAF KSEA 252320Z 2600/2706 18011KT P6SM SCT040 SCT250 FM260200
                       18007KT P6SM SCT040 SCT100 FM260800 18008KT
                       P6SM SCT040 OVC100 FM261100 18008KT P6SM
                       -RA OVC035 FM261300 18010KT P6SM -RA BKN010
                       OVC022 FM261900 19012G20KT P6SM -RA SCT012
                       OVC025=
201803252104 KSEA 252104Z 2521/2624 19012KT P6SM SCT030 SCT250 FM260200 18007KT
                       P6SM BKN040 BKN100 FM260800 18008KT P6SM
                       OVC040 FM261100 18008KT P6SM OVC035 FM261300
                       18010KT P6SM -RA BKN010 OVC022 FM261900
                       18012KT P6SM -RA SCT012 OVC025=
201803251736 TAF KSEA 251736Z 2518/2624 18006KT P6SM BKN008 BKN015 BKN045 FM251900
                       21006KT P6SM SCT020 BKN050 FM252100 21008KT
                       P6SM BKN050 BKN150 FM260200 18005KT P6SM
                       SCT050 OVC100 FM260800 18008KT P6SM OVC050
                       FM261100 18008KT P6SM OVC035 FM261300 18010KT
                       P6SM -RA BKN010 OVC022 FM261900 18012KT
                       P6SM -RA SCT012 OVC025=
201803251730 TAF KSEA 251730Z 2518/2624 18006KT P6SM BKN008 BKN015 BKN045 FM251900
                       21006KT P6SM SCT020 BKN050 FM252100 21008KT
                       P6SM BKN050 BKN150 FM260200 18005KT P6SM
                       SCT050 OVC100 FM260800 18008KT P6SM OVC050
                       FM261100 18008KT P6SM OVC035 FM261300 18010KT
                       P6SM -RA BKN010 OVC022 FM261900 18012KT
                       P6SM -RA SCT012 OVC025=
201803251637 KSEA 251637Z 2517/2618 00000KT P6SM BKN008 BKN016 OVC022 FM251830
                       21008KT P6SM SCT020 BKN060 FM252200 21008KT
                       P6SM BKN060 BKN200 FM260900 18010KT P6SM
                       -RA BKN030 OVC060 FM261300 18010KT P6SM
                       -RA SCT012 OVC022=
201803251416 KSEA 251416Z 2514/2618 14003KT P6SM SCT020 SCT040 BKN080
                      TEMPO 2514/2515 BKN040 OVC080 FM251800 21008KT
                       P6SM SCT020 BKN060 FM252200 21008KT P6SM
                       BKN060 BKN200 FM260900 18010KT P6SM -RA
                       BKN030 OVC060 FM261300 18010KT P6SM -RA
                       SCT012 OVC022=
201803251128 TAF KSEA 251128Z 2512/2618 00000KT P6SM SCT008 BKN014 BKN060
                      TEMPO 2513/2515 BKN008 OVC014 FM251800 21008KT
                       P6SM SCT020 BKN060 FM252200 21008KT P6SM
                       BKN060 BKN200 FM260900 18010KT P6SM -RA
                       BKN030 OVC060 FM261300 18010KT P6SM -RA
                       SCT012 OVC022=
201803250925 KSEA 250925Z 2509/2612 VRB03KT P6SM BKN015 BKN025 FM251900 21008KT
                       P6SM SCT040 BKN070 FM260900 18010KT P6SM
                       -RA BKN030 OVC060=
201803250523 TAF KSEA 250523Z 2506/2612 VRB03KT P6SM FEW035 BKN080 FM250900
                       VRB03KT P6SM SCT100 FM251200 16003KT P6SM
                       SCT015 BKN025 FM251900 21008KT P6SM SCT040
                       BKN070 FM260900 18010KT P6SM -RA BKN030
                       OVC060=
201803250301 KSEA 250301Z 2503/2606 VRB03KT P6SM FEW030 SCT060 BKN120 FM251200
                       16005KT P6SM SCT015 BKN035 BKN150 FM251900
                       20007KT P6SM BKN040 BKN150 FM260000 20012KT
                       P6SM SCT040 OVC080=
201803242320 TAF KSEA 242320Z 2500/2606 VRB06KT P6SM SCT020 BKN150 FM250200
                       02004KT P6SM SCT025 BKN150 FM251200 16005KT
                       P6SM SCT015 BKN035 BKN150 FM251900 20007KT
                       P6SM BKN040 BKN150 FM260000 20012KT P6SM
                       SCT040 OVC080=
201803242101 KSEA 242101Z 2421/2524 22008KT P6SM FEW023 SCT050 BKN220 FM250200
                       02004KT P6SM SCT050 BKN200 FM251200 16005KT
                       P6SM SCT015 BKN035 FM251900 20007KT P6SM
                       BKN035=
201803241726 TAF KSEA 241726Z 2418/2524 21011KT P6SM BKN012 FM242000 23008KT
                       P6SM SCT015 BKN050 FM242100 23007KT P6SM
                       SCT050 FM250200 02004KT P6SM SCT050 FM251200
                       16005KT P6SM SCT015 BKN035 FM251900 20007KT
                       P6SM BKN035=
201803241431 KSEA 241431Z 2415/2518 19010KT P6SM BKN010 OVC015 FM241700 22006KT
                       P6SM SCT025 BKN040 FM250300 VRB03KT P6SM
                       SCT050 BKN150 FM251200 14006KT P6SM BKN045=
201803241400 KSEA 241400Z 2414/2518 18006KT P6SM BKN004 OVC008 FM241600 18006KT
                       P6SM SCT006 BKN011 OVC030 FM241800 22006KT
                       P6SM SCT025 BKN040 FM250300 VRB03KT P6SM
                       SCT050 BKN150 FM251200 14006KT P6SM BKN045=
201803241139 TAF KSEA 241139Z 2412/2518 25006KT P6SM -SHRA BKN006 OVC010
                      TEMPO 2412/2414 5SM -SHRASN FM241400 22006KT
                       P6SM SCT006 BKN015 OVC030 FM241800 22006KT
                       P6SM SCT025 BKN040 FM250300 VRB03KT P6SM
                       SCT050 BKN150 FM251200 14006KT P6SM BKN045=
201803240910 KSEA 240910Z 2409/2512 VRB03KT P6SM -SHRA OVC010 FM241200 20006KT
                       P6SM -SHRA BKN006 OVC010
                      TEMPO 2412/2415 5SM -SHRA FM241600 20006KT
                       P6SM -SHRA SCT006 BKN015 OVC025 FM242000
                       24005KT P6SM VCSH SCT025 BKN040 FM250300
                       VRB03KT P6SM SCT050 BKN150=
201803240525 TAF KSEA 240525Z 2406/2512 00000KT P6SM BKN035 OVC070 FM240900
                       18007KT P6SM -SHRA BKN015 OVC030
                      TEMPO 2412/2416 3SM -SHRASN BKN009 OVC015
                       FM242000 24005KT P6SM VCSH SCT025 BKN040
                       FM250300 VRB03KT P6SM SCT050 BKN150=
201803240300 KSEA 240300Z 2403/2506 28004KT P6SM VCSH BKN045 OVC070 FM240900
                       18007KT P6SM -SHRA BKN015 OVC030
                      TEMPO 2412/2416 3SM -SHRASN BKN009 OVC015
                       FM242000 24005KT P6SM VCSH SCT025 BKN040=
201803232334 TAF KSEA 232334Z 2400/2506 20011KT P6SM -SHRA SCT030 BKN040 OVC050
                       FM240300 17006KT P6SM VCSH SCT025 OVC040
                       FM240900 18007KT P6SM -SHRA BKN015 OVC030
                       TEMPO 2412/2416 3SM -SHRASN BKN009 OVC015
                       FM242000 24005KT P6SM VCSH SCT025 BKN040=
201803232101 KSEA 232101Z 2321/2424 17010G19KT P6SM BKN028 BKN040 FM240100 17006KT
                       P6SM VCSH SCT025 OVC040 FM240900 17007KT
                       P6SM -SHRA BKN025 OVC040 FM241700 18008KT
                       P6SM VCSH SCT025 BKN040=
201803231856 KSEA 231856Z 2319/2424 20012KT P6SM -SHRA SCT007 BKN013 OVC030
                       FM232100 20012G22KT P6SM -SHRA BKN025 OVC040
                       FM240100 17006KT P6SM VCSH SCT025 OVC040
                       FM240900 17007KT P6SM -SHRA BKN025 OVC040
                       FM241700 18008KT P6SM VCSH SCT025 BKN040=
201803231759 KSEA 231759Z 2318/2424 12008KT 5SM -SHRASN BR FEW009 BKN013 OVC028
                       TEMPO 2318/2321 2SM -SHSN BR OVC006 FM232100
                       18012G22KT P6SM -SHRA BKN025 OVC040 FM240100
                       17006KT P6SM VCSH SCT025 OVC040 FM240900
                       17007KT P6SM -SHRA BKN025 OVC040 FM241700
                       18008KT P6SM VCSH SCT025 BKN040=
201803231734 TAF KSEA 231734Z 2318/2424 12008KT 5SM -SHRASN BR FEW009 BKN013
                       OVC028 FM232100 18012G22KT P6SM -SHRA BKN025
                       OVC040 FM240100 17006KT P6SM VCSH SCT025
                       OVC040 FM240900 17007KT P6SM -SHRA BKN025
                       OVC040 FM241700 18008KT P6SM VCSH SCT025
                       BKN040=
201803231615 KSEA 231615Z 2316/2418 18008KT P6SM -SHRA SCT020 BKN040
                      TEMPO 2316/2320 SCT010 BKN020 OVC040 FM232000
                       20012G22KT P6SM -SHRA BKN030 OVC060 FM240500
                       18008KT P6SM VCSH BKN040=
201803231410 KSEA 231410Z 2314/2418 18010KT P6SM -SHRA SCT020 BKN040 FM232000
                       20012G22KT P6SM -SHRA BKN030 OVC060 FM240500
                       18008KT P6SM VCSH BKN040=
201803231224 KSEA 231224Z 2312/2418 15008KT P6SM -SHRA SCT020 BKN040 FM232000
                       20012G22KT P6SM -SHRA BKN030 OVC060 FM240500
                       18008KT P6SM VCSH BKN040=
201803230907 KSEA 230907Z 2309/2412 15008KT P6SM -SHRA SCT020 BKN040 FM232000
                       20012G22KT P6SM -SHRA BKN030 OVC060 FM240500
                       18008KT P6SM VCSH BKN040=
201803230520 TAF KSEA 230520Z 2306/2412 18012KT P6SM VCSH BKN040 BKN080 FM232000
                       20012G22KT P6SM -SHRA BKN030 OVC060 FM240500
                       18008KT P6SM VCSH BKN040=
201803230129 KSEA 230129Z 2301/2406 18012KT P6SM SCT030 SCT120
                      TEMPO 2302/2304 -SHRA BKN030 FM230800 18012KT
                       P6SM VCSH BKN040 FM232000 19014G23KT P6SM
                       -SHRA BKN030 OVC060=
201803222320 TAF KSEA 222320Z 2300/2406 20014G23KT P6SM -SHRA SCT015 BKN025
                       OVC080 FM230300 18010KT P6SM -SHRA BKN030
                       BKN080 FM231600 18012KT P6SM VCSH BKN040
                       BKN070 FM232000 19014G23KT P6SM -SHRA BKN030
                       OVC060=
201803222102 KSEA 222102Z 2221/2324 20014G22KT P6SM -SHRA SCT030 OVC070 FM222300
                       20012G18KT P6SM -SHRA BKN035 OVC070 FM230300
                       18010KT P6SM -SHRA BKN030 BKN060 FM231600
                       18015G24KT P6SM VCSH BKN040 BKN070=
201803221720 TAF KSEA 221720Z 2218/2324 20010KT P6SM -RA SCT005 BKN020 OVC030
                       FM222000 20014G22KT P6SM -RA OVC020 FM222300
                       20012G18KT P6SM -SHRA BKN025 OVC040 FM230300
                       18010KT P6SM -SHRA BKN030 BKN050=
201803221504 KSEA 221504Z 2215/2318 18010KT P6SM -RA SCT020 OVC030 FM221800
                       20014G22KT P6SM -RA OVC020 FM222200 20012G18KT
                       P6SM -SHRA BKN025 OVC040 FM230300 18010KT
                       P6SM -SHRA BKN030 BKN050=
201803221139 TAF KSEA 221139Z 2212/2318 16006KT P6SM SCT020 BKN050 OVC070
                      TEMPO 2212/2214 -RA BKN018 OVC040 FM221400
                       18012KT P6SM -RA OVC020 FM221800 20014G22KT
                       P6SM -RA OVC020 FM222200 20012G18KT P6SM
                       -SHRA BKN025 OVC040 FM230300 18010KT P6SM
                       -SHRA BKN030 BKN050=
201803220911 KSEA 220911Z 2209/2312 15009KT P6SM -RA OVC035 FM221500 18012KT
                       P6SM -RA OVC022 FM221800 20014G23KT P6SM
                       -RA OVC020 FM222200 20011KT P6SM VCSH BKN025
                       OVC040=
201803220520 TAF KSEA 220520Z 2206/2312 VRB04KT P6SM -RA OVC050 FM220900 15009KT
                       P6SM -RA OVC035 FM221500 18012KT P6SM -RA
                       OVC022 FM221800 20014G23KT P6SM -RA OVC020
                       FM222200 20011KT P6SM VCSH BKN025 OVC040=
201803220306 KSEA 220306Z 2203/2306 VRB03KT P6SM -RA OVC050 FM220900 15009KT
                       P6SM -RA OVC030 FM221500 18012KT P6SM -RA
                       OVC022 FM221800 20014G23KT P6SM -RA OVC020
                       FM222200 20011KT P6SM VCSH BKN025 OVC040=
201803212320 TAF KSEA 212320Z 2200/2306 VRB04KT P6SM SCT030 BKN070 OVC120 FM220400
                       11006KT P6SM -RA BKN030 OVC070 FM220900
                       15009KT P6SM -RA OVC030 FM221500 18012KT
                       P6SM -RA OVC022 FM221800 20014G23KT P6SM
                       -RA OVC020 FM222200 20011KT P6SM VCSH BKN025
                       OVC040=
201803212101 KSEA 212101Z 2121/2224 VRB04KT P6SM SCT080 BKN120 BKN200 FM212200
                       18006KT P6SM BKN070 OVC150 FM220400 11006KT
                       P6SM -RA BKN050 OVC080 FM220900 15009KT
                       P6SM -RA OVC035 FM221500 18012KT P6SM -RA
                       OVC022 FM221800 20014G23KT P6SM -RA OVC020=
201803211720 TAF KSEA 211720Z 2118/2224 VRB04KT P6SM SCT090 BKN200 FM212200
                       18006KT P6SM BKN070 OVC150 FM220400 11006KT
                       P6SM -RA BKN050 OVC080 FM220900 15009KT
                       P6SM -RA OVC035 FM221500 18012KT P6SM -RA
                       OVC022=
201803211505 KSEA 211505Z 2115/2218 VRB04KT P6SM SCT100 BKN200 FM211800 VRB04KT
                       P6SM BKN090 OVC150 FM212200 18006KT P6SM
                       BKN070 OVC120 FM220400 11006KT P6SM -RA
                       BKN050 OVC080 FM220900 15009KT P6SM -RA
                       OVC035 FM221500 18012KT P6SM -RA OVC022=
201803211131 TAF KSEA 211131Z 2112/2218 03005KT P6SM SCT100 BKN200 FM211800
                       VRB04KT P6SM BKN090 OVC150 FM212200 18006KT
                       P6SM BKN070 OVC120 FM220400 11006KT P6SM
                       -RA BKN050 OVC080 FM220900 15009KT P6SM
                       -RA OVC035 FM221500 18012KT P6SM -RA OVC022=
201803210900 KSEA 210900Z 2109/2212 02007KT P6SM SCT250 FM211200 00000KT P6SM
                       BKN200 FM212000 VRB04KT P6SM BKN050 BKN100
                       FM220400 00000KT P6SM -RA BKN040 OVC080=
201803210520 TAF KSEA 210520Z 2106/2212 02007KT P6SM SCT250 FM211200 00000KT
                       P6SM BKN200 FM212000 VRB04KT P6SM BKN050
                       BKN100 FM220400 00000KT P6SM -RA BKN040
                       OVC080=
201803210315 KSEA 210315Z 2103/2206 36006KT P6SM SCT250 FM211100 06004KT P6SM
                       BKN100 OVC200 FM211500 10004KT P6SM SCT060
                       BKN100 FM211800 20007KT P6SM SCT050 BKN080
                       FM212200 21007KT P6SM BKN040=
201803202320 TAF KSEA 202320Z 2100/2206 26005KT P6SM FEW040 SCT250 FM210300
                       36006KT P6SM SCT120 BKN200 FM211100 06004KT
                       P6SM BKN100 OVC200 FM211500 10004KT P6SM
                       SCT060 BKN100 FM211800 20007KT P6SM SCT050
                       BKN080 FM212200 21007KT P6SM BKN040=
201803202101 KSEA 202101Z 2021/2124 22004KT P6SM SCT040 SCT200 FM202200 26005KT
                       P6SM SCT120 BKN200 FM210300 36006KT P6SM
                       BKN120 BKN200 FM211100 06004KT P6SM BKN100
                       OVC200 FM211500 10004KT P6SM SCT060 BKN100
                       FM211800 20007KT P6SM SCT050 BKN080=
201803201724 TAF KSEA 201724Z 2018/2124 22004KT P6SM SCT040 SCT200 FM202200
                       26005KT P6SM SCT120 BKN200 FM210300 36006KT
                       P6SM BKN120 BKN200 FM211100 06004KT P6SM
                       BKN100 OVC200 FM211500 10004KT P6SM SCT060
                       BKN100=
201803201454 KSEA 201454Z 2015/2118 VRB03KT P6SM SCT200 FM201800 22004KT P6SM
                       SCT060 SCT200 FM202200 26005KT P6SM SCT120
                       BKN200 FM210300 36006KT P6SM BKN120 BKN200
                       FM211100 04004KT P6SM BKN100 OVC200=
201803201131 TAF KSEA 201131Z 2012/2118 VRB03KT P6SM FEW012 SCT200
                      TEMPO 2012/2015 BKN010 FM201800 22004KT P6SM
                       SCT060 SCT200 FM202200 26005KT P6SM SCT120
                       BKN200 FM210300 36006KT P6SM BKN120 BKN200
                       FM211100 04004KT P6SM BKN100 OVC200=
201803200859 KSEA 200859Z 2009/2112 VRB03KT P6SM SCT200 FM201300 16003KT P6SM
                       SCT012 SCT200 FM201800 22004KT P6SM SCT050
                       BKN100 FM202200 26005KT P6SM SCT050 BKN100=
201803200520 TAF KSEA 200520Z 2006/2112 03006KT P6SM SCT200 FM200900 VRB03KT
                       P6SM SCT200 FM201300 16003KT P6SM SCT012
                       SCT200 FM201800 22004KT P6SM SCT050 BKN100
                       FM202200 26005KT P6SM SCT050 BKN100=
201803200305 KSEA 200305Z 2003/2106 36006KT P6SM FEW080 SCT250 FM200900 VRB03KT
                       P6SM SCT200 FM201300 16003KT P6SM SCT012
                       SCT200 FM201800 22004KT P6SM SCT050 BKN100
                       FM202200 26005KT P6SM SCT050 BKN100=
201803192323 TAF KSEA 192323Z 2000/2106 33006KT P6SM SCT045 BKN080 FM200400
                       01006KT P6SM BKN080 BKN200 FM200900 VRB03KT
                       P6SM SCT200 FM201300 16003KT P6SM SCT012
                       SCT200 FM201800 22004KT P6SM SCT050 BKN100
                       FM202200 26005KT P6SM SCT050 BKN100=
201803192101 KSEA 192101Z 1921/2024 26005KT P6SM SCT035 SCT045 FM192300 31005KT
                       P6SM SCT050 SCT080 FM200300 01006KT P6SM
                       SCT200 FM201000 VRB03KT P6SM SCT200=
201803191728 TAF KSEA 191728Z 1918/2024 00000KT P6SM SCT014 SCT040 FM192000
                       VRB04KT P6SM SCT045 FM192300 31005KT P6SM
                       SCT050 SCT080 FM200300 01006KT P6SM SCT200
                       FM201000 VRB03KT P6SM SCT200=
201803191543 KSEA 191543Z 1916/2018 18003KT P6SM BKN014 BKN040 FM191800 VRB05KT
                       P6SM SCT035 SCT060 FM192300 31005KT P6SM
                       SCT060 SCT120 FM200300 01006KT P6SM SCT070
                       SCT200 FM201000 VRB03KT P6SM SCT200=
201803191514 KSEA 191514Z 1915/2018 16004KT P6SM SCT015 SCT040 FM191800 VRB05KT
                       P6SM SCT040 SCT060 FM192300 31005KT P6SM
                       SCT060 SCT120 FM200300 01006KT P6SM SCT070
                       SCT200 FM201000 VRB03KT P6SM SCT200=
201803191128 TAF KSEA 191128Z 1912/2018 VRB04KT P6SM FEW035 SCT050 FM191800
                       VRB05KT P6SM BKN060 FM192300 31005KT P6SM
                       SCT060 SCT120 FM200300 01006KT P6SM SCT070
                       SCT200 FM201000 VRB03KT P6SM SCT200=
201803190903 KSEA 190903Z 1909/2012 VRB04KT P6SM SCT060 FM191200 20004KT P6SM
                       FEW025 SCT040 FM191800 25005KT P6SM SCT050
                       FM192000 31006KT P6SM FEW050 FM200300 01005KT
                       P6SM SCT200=
201803190527 TAF KSEA 190527Z 1906/2012 24004KT P6SM FEW040 BKN060 FM191200
                       20004KT P6SM FEW025 SCT040 FM191800 25005KT
                       P6SM SCT050 FM192000 31006KT P6SM FEW050
                       FM200300 01005KT P6SM SCT200=
201803190318 KSEA 190318Z 1903/2006 24005KT P6SM VCSH FEW040 SCT100 FM190500
                       VRB03KT P6SM FEW030 BKN100 FM191800 25005KT
                       P6SM FEW100 FM192000 31006KT P6SM FEW050
                       FM200300 01005KT P6SM SKC=
201803182339 TAF KSEA 182339Z 1900/2006 VRB05KT P6SM SCT050 SCT100 FM190300
                       19005KT P6SM SCT100 FM190900 VRB03KT P6SM
                       FEW022 BKN100
                      TEMPO 1912/1916 BKN022 BKN100 FM191800 25005KT
                       P6SM FEW100 FM192000 31006KT P6SM FEW050
                       FM200300 01005KT P6SM SKC=
201803182220 KSEA 182220Z 1822/1924 22007KT P6SM FEW040 SCT060 FM190300 20004KT
                       P6SM SCT090 BKN200 FM190900 VRB03KT P6SM
                       FEW022 BKN100 BKN200 FM191800 25005KT P6SM
                       FEW035 SCT100 BKN200=
201803182103 KSEA 182103Z 1821/1924 VRB05KT P6SM SCT035 SCT060 BKN200
                      TEMPO 1821/1824 SCT035 BKN060 BKN200 FM190300
                       20004KT P6SM SCT090 BKN200 FM190900 VRB03KT
                       P6SM FEW022 BKN100 BKN200 FM191800 25005KT
                       P6SM FEW035 SCT100 BKN200=
201803182006 KSEA 182006Z 1820/1924 21007KT P6SM SCT030 BKN060 FM190300 20004KT
                       P6SM SCT035 BKN080 FM190900 VRB03KT P6SM
                       FEW022 BKN100 BKN200 FM191800 25005KT P6SM
                       FEW035 SCT100 BKN200=
201803181850 KSEA 181850Z 1819/1924 21007KT P6SM FEW020 SCT025 BKN035 FM182100
                       23006KT P6SM VCSH BKN035 BKN050 FM190300
                       20004KT P6SM SCT035 BKN080 FM190900 VRB03KT
                       P6SM FEW022 BKN100 BKN200 FM191800 25005KT
                       P6SM FEW035 SCT100 BKN200=
201803181742 TAF KSEA 181742Z 1818/1924 21008KT P6SM SCT018 BKN030 BKN070 FM182000
                       23006KT P6SM VCSH BKN035 BKN050 FM190300
                       20004KT P6SM SCT035 BKN080 FM190900 VRB03KT
                       P6SM FEW022 BKN100 BKN200 FM191800 25005KT
                       P6SM FEW035 SCT100 BKN200=
201803181601 KSEA 181601Z 1816/1918 18006KT P6SM BKN028 BKN060 FM181800 21007KT
                       P6SM BKN035 BKN050 FM182100 24006KT P6SM
                       SCT035 BKN050 FM190500 19005KT P6SM BKN045
                       BKN080 FM191100 15005KT P6SM SCT050 SCT120=
201803181427 KSEA 181427Z 1814/1918 18006KT P6SM BKN035 FM181800 21007KT P6SM
                       BKN035 BKN050 FM182100 24006KT P6SM SCT035
                       BKN050 FM190500 19005KT P6SM BKN045 BKN080
                       FM191100 15005KT P6SM SCT050 SCT120=
201803181128 TAF KSEA 181128Z 1812/1918 16007KT P6SM SCT022 BKN035 BKN060
                      TEMPO 1812/1816 BKN022 OVC040 FM181800 21007KT
                       P6SM BKN035 BKN050 FM182100 24006KT P6SM
                       SCT035 BKN050
                      PROB30 1821/1903 -SHRA FM190500 19005KT P6SM
                       BKN045 BKN080 FM191100 15005KT P6SM SCT050
                       SCT120=
201803180901 KSEA 180901Z 1809/1912 19006KT P6SM SCT030 BKN060
                      TEMPO 1809/1813 BKN025 BKN050 FM181300 17005KT
                       P6SM OVC022 FM181800 21007KT P6SM BKN035
                       BKN050 FM182100 24006KT P6SM SCT035 BKN050
                       PROB30 1821/1903 -SHRA FM190500 19005KT
                       P6SM BKN045 BKN080=
201803180529 TAF KSEA 180529Z 1806/1912 21009KT P6SM BKN040 BKN070 FM180900
                       19006KT P6SM BKN028 BKN060 FM181200 17005KT
                       P6SM OVC022 FM181800 21007KT P6SM BKN035
                       BKN050 FM182100 24006KT P6SM SCT035 BKN050
                       PROB30 1821/1903 -SHRA FM190500 19005KT
                       P6SM BKN045 BKN080=
201803172343 TAF KSEA 172343Z 1800/1906 22010KT P6SM BKN050 BKN090 BKN200 FM180600
                       19005KT P6SM BKN035 BKN090 FM180900 19005KT
                       P6SM BKN028 BKN090 FM181200 17005KT P6SM
                       OVC022 FM181800 20006KT P6SM BKN035 BKN050
                       FM182100 24006KT P6SM SCT035 BKN050
                      PROB30 1821/1903 -SHRA=
201803172201 KSEA 172201Z 1722/1824 22008KT P6SM BKN035 BKN050 FM180600 19004KT
                       P6SM BKN035 BKN050 FM180900 17004KT P6SM
                       OVC022 FM181800 21006KT P6SM BKN035 BKN050
                       PROB30 1820/1824 -SHRA=
201803172122 KSEA 172122Z 1721/1824 22008KT P6SM BKN025 BKN050 FM180000 22008KT
                       P6SM VCSH BKN035 BKN050 FM180600 19004KT
                       P6SM BKN035 BKN050 FM180900 17004KT P6SM
                       OVC022 FM181800 21006KT P6SM BKN035 BKN050
                       PROB30 1820/1824 -SHRA=
201803172009 KSEA 172009Z 1720/1824 22009KT P6SM BKN022 FM172100 22008KT P6SM
                       VCSH SCT025 BKN050 FM180600 19004KT P6SM
                       BKN035 BKN050 FM180900 17004KT P6SM OVC022
                       FM181800 21006KT P6SM BKN035 BKN050
                      PROB30 1820/1824 -SHRA=
201803171848 KSEA 171848Z 1719/1824 20008KT P6SM OVC015 FM172100 22008KT P6SM
                       VCSH FEW020 BKN035 BKN050 FM180600 19004KT
                       P6SM BKN035 BKN050 FM180900 17004KT P6SM
                       OVC022 FM181800 21006KT P6SM BKN035 BKN050
                       PROB30 1820/1824 -SHRA=
201803171740 TAF KSEA 171740Z 1718/1824 17007KT P6SM BKN012 FM171900 19008KT
                       P6SM SCT015 BKN035 FM172000 22008KT P6SM
                       VCSH BKN035 BKN050 FM180600 19004KT P6SM
                       BKN035 BKN050 FM180900 17004KT P6SM OVC022
                       FM181800 21006KT P6SM BKN035 BKN050
                      PROB30 1820/1824 -SHRA=
201803171658 KSEA 171658Z 1717/1818 17005KT P6SM OVC010 FM171900 19007KT P6SM
                       SCT018 SCT050 FM172000 22007KT P6SM SCT050
                       FM180400 19005KT P6SM SCT025 BKN050=
201803171442 KSEA 171442Z 1715/1818 17005KT P6SM SCT007 SCT100
                      TEMPO 1715/1718 BKN007 BKN100 FM171900 22007KT
                       P6SM FEW030 BKN060 FM180400 19005KT P6SM
                       SCT025 BKN050=
201803171120 TAF KSEA 171120Z 1712/1818 17005KT P6SM SCT090 SCT200 FM171900
                       22007KT P6SM FEW030 BKN060 FM180400 19005KT
                       P6SM SCT025 BKN050=
201803170858 KSEA 170858Z 1709/1812 31006KT P6SM FEW070 BKN250 FM171200 17005KT
                       P6SM SCT015
                      TEMPO 1714/1718 BKN015 FM171900 22007KT P6SM
                       FEW028 BKN050 FM180400 20005KT P6SM SCT025
                       BKN050=
201803170520 TAF KSEA 170520Z 1706/1812 31006KT P6SM FEW070 BKN250 FM171200
                       17005KT P6SM SCT015
                      TEMPO 1714/1718 BKN015 FM171900 22007KT P6SM
                       FEW028 BKN050=
201803170301 KSEA 170301Z 1703/1806 31006KT P6SM FEW050 BKN250 FM171200 17005KT
                       P6SM SCT015
                      TEMPO 1714/1718 BKN015 FM171900 22007KT P6SM
                       FEW028 BKN050=
201803162330 TAF KSEA 162330Z 1700/1806 33008KT P6SM FEW060 SCT200 FM170300
                       02005KT P6SM SCT200 FM170600 VRB04KT P6SM
                       SKC FM171200 17005KT P6SM SCT015
                      TEMPO 1714/1718 BKN015 FM171900 22007KT P6SM
                       FEW028 BKN050
                      PROB30 1721/1803 -SHRA=
201803162107 KSEA 162107Z 1621/1724 34009KT P6SM FEW060 FEW100 SCT200 FM170300
                       02005KT P6SM SCT200 FM170700 VRB04KT P6SM
                       SCT200 FM171200 17005KT P6SM SCT015
                      TEMPO 1714/1718 BKN015 FM171900 22007KT P6SM
                       SCT028 BKN050=
201803161725 TAF KSEA 161725Z 1618/1724 01010KT P6SM FEW100 SCT200 FM162100
                       34010KT P6SM FEW060 SCT100 BKN200 FM170300
                       02005KT P6SM SCT100 BKN200 FM170700 VRB04KT
                       P6SM SCT200 FM171200 17005KT P6SM SCT015
                       TEMPO 1714/1718 BKN015 FM171900 22007KT
                       P6SM SCT028 BKN050=
201803161420 KSEA 161420Z 1614/1718 04008KT P6SM SCT200 FM161800 36008KT P6SM
                       SCT200 FM170400 03008KT P6SM SCT120 FM171000
                       12006KT P6SM SCT120 FM171400 15006KT P6SM
                       BKN025=
201803161128 TAF KSEA 161128Z 1612/1718 02010KT P6SM SKC FM161800 36008KT P6SM
                       SCT120 FM170400 03008KT P6SM SCT120 FM171000
                       12006KT P6SM SCT120 FM171400 15006KT P6SM
                       BKN025=
201803160901 KSEA 160901Z 1609/1712 02012KT P6SM SKC FM161800 36008KT P6SM SCT120
                       FM170400 03008KT P6SM SCT120 FM171000 12006KT
                       P6SM SCT120=
201803160536 TAF KSEA 160536Z 1606/1712 02008KT P6SM SKC FM161800 36008KT P6SM
                       SCT120 FM170400 03008KT P6SM SCT120 FM171000
                       12006KT P6SM SCT120=
201803160337 KSEA 160337Z 1604/1706 01008KT P6SM SCT150 FM161100 03005KT P6SM
                       SCT120 FM161900 36008KT P6SM FEW060 BKN120
                       FM170300 03005KT P6SM SCT040 BKN120=
201803152320 TAF KSEA 152320Z 1600/1706 30006KT P6SM FEW035 SCT250 FM160300
                       02006KT P6SM SCT200 FM161100 03005KT P6SM
                       SCT120 FM161900 36007KT P6SM FEW060 BKN120
                       FM170300 03005KT P6SM SCT040 BKN120=
201803152101 KSEA 152101Z 1521/1624 33008KT P6SM SCT250 FM160300 04006KT P6SM
                       FEW040 SCT200 FM161100 03005KT P6SM SCT030
                       BKN120 FM161900 36007KT P6SM FEW040=
201803151749 TAF KSEA 151749Z 1518/1624 VRB03KT P6SM FEW250 FM152100 36006KT
                       P6SM SCT250 FM160300 04006KT P6SM FEW040
                       SCT200 FM161100 03005KT P6SM SCT030 BKN120
                       FM161900 36007KT P6SM FEW040=
201803151538 KSEA 151538Z 1516/1618 VRB03KT P6SM SCT200 FM151900 36006KT P6SM
                       SCT200 FM160300 04006KT P6SM SKC=
201803151140 TAF KSEA 151140Z 1512/1618 VRB03KT P6SM SCT200 FM151700 36006KT
                       P6SM SCT200 FM160300 04006KT P6SM SKC=
201803150541 TAF KSEA 150541Z 1506/1612 VRB03KT P6SM SCT200 FM151700 36006KT
                       P6SM SCT200 FM160300 04006KT P6SM SKC=
201803150431 KSEA 150431Z 1505/1606 VRB03KT P6SM SCT080 FM151300 07004KT P6SM
                       SCT050 BKN120 FM151800 32006KT P6SM SCT200
                       FM160300 04006KT P6SM SKC=
201803150019 TAF KSEA 150019Z 1500/1606 23013KT P6SM FEW040 SCT070 FM150300
                       18008KT P6SM SCT080 FM150700 15005KT P6SM
                       SCT120 FM151300 07004KT P6SM SCT050 BKN120
                       FM151800 32006KT P6SM SCT200 FM160300 04006KT
                       P6SM SKC=
201803142108 KSEA 142108Z 1421/1524 20010KT P6SM SCT030 BKN120 FM150700 15005KT
                       P6SM BKN080 BKN120 FM151300 07004KT P6SM
                       SCT050 BKN120 FM151800 VRB04KT P6SM BKN200
                       FM152100 34006KT P6SM SCT200=
201803141726 TAF KSEA 141726Z 1418/1524 21012KT P6SM VCSH BKN060 OVC080 FM142000
                       22010KT P6SM VCSH SCT060 BKN120 FM150700
                       15005KT P6SM BKN080 BKN120 FM151300 07004KT
                       P6SM SCT050 BKN120 FM151800 VRB04KT P6SM
                       BKN200 FM152100 34006KT P6SM SCT200=
201803141450 KSEA 141450Z 1415/1518 22008KT P6SM VCSH SCT035 BKN050 OVC110 FM142300
                       22007KT P6SM VCSH BKN060 BKN120 FM150700
                       15005KT P6SM BKN080 BKN120 FM151300 07004KT
                       P6SM SCT120 BKN200=
201803141258 KSEA 141258Z 1413/1518 16007KT P6SM VCSH SCT010 BKN050 OVC100
                      TEMPO 1413/1416 4SM -RA BR BKN007 OVC020
                       FM141900 20008KT P6SM -SHRA BKN045 OVC080
                       FM142300 22007KT P6SM VCSH BKN060 BKN120
                       FM150700 15005KT P6SM BKN080 BKN120 FM151300
                       07005KT P6SM SCT120 BKN200=
201803141133 TAF KSEA 141133Z 1412/1518 16007KT P6SM VCSH BKN050 OVC100
                      TEMPO 1412/1416 3SM BR FM141900 20008KT P6SM
                       -SHRA BKN045 OVC080 FM142300 22007KT P6SM
                       VCSH BKN060 BKN120 FM150700 15005KT P6SM
                       BKN080 BKN120 FM151300 07005KT P6SM SCT120
                       BKN200=
201803140902 KSEA 140902Z 1409/1512 16005KT P6SM VCSH FEW050 OVC100 FM141900
                       22008KT P6SM VCSH SCT040 BKN120=
201803140526 TAF KSEA 140526Z 1406/1512 09009KT P6SM VCSH FEW050 OVC100 FM141900
                       22008KT P6SM VCSH SCT040 BKN120=
201803140315 KSEA 140315Z 1403/1506 10007KT P6SM VCSH SCT040 SCT050 OVC080 FM140600
                       18006KT P6SM VCSH SCT020 BKN040 FM141900
                       18010KT P6SM SCT040=
201803132320 TAF KSEA 132320Z 1400/1506 18008KT P6SM -RA SCT015 OVC040
                      TEMPO 1400/1404 4SM -RA BR BKN015 OVC040
                       FM140600 18006KT P6SM VCSH SCT020 BKN040
                       FM141900 18010KT P6SM SCT040=
201803132104 KSEA 132104Z 1321/1424 23014KT 5SM -RA BR OVC040 FM140000 20012KT
                       P6SM -RA OVC040 FM140600 16006KT P6SM VCSH
                       BKN030 FM141700 16008KT P6SM SCT040=
201803131921 KSEA 131921Z 1319/1424 23014G22KT P6SM VCSH BKN050 OVC090 FM132200
                       20012KT P6SM -RA OVC040 FM140600 16006KT
                       P6SM VCSH BKN030 FM141700 16008KT P6SM SCT040=
201803131720 TAF KSEA 131720Z 1318/1424 18010KT P6SM -RA BKN050 OVC090 FM132200
                       18010KT P6SM -RA OVC040 FM140600 16006KT
                       P6SM VCSH BKN030 FM141700 16008KT P6SM SCT040=
201803131357 KSEA 131357Z 1314/1418 12015G24KT P6SM BKN120 OVC200 FM131600 13012KT
                       P6SM OVC070 FM131800 14008KT P6SM -RA OVC045
                       FM132200 18008KT P6SM -RA OVC030 FM140600
                       12006KT P6SM -SHRA BKN022 BKN050 FM141200
                       19006KT P6SM VCSH BKN030=
201803131135 TAF KSEA 131135Z 1312/1418 12014G22KT P6SM BKN120 OVC200 FM131600
                       13012KT P6SM OVC070 FM131800 14008KT P6SM
                       -RA OVC045 FM132200 18008KT P6SM -RA OVC030
                       FM140600 12006KT P6SM -SHRA BKN022 BKN050
                       FM141200 19006KT P6SM VCSH BKN030=
201803130900 KSEA 130900Z 1309/1412 12012G18KT P6SM SCT120 BKN200 FM131200 11008KT
                       P6SM OVC100 FM131700 14008KT P6SM -RA OVC045
                       FM140400 12006KT P6SM -SHRA BKN020 BKN045=
201803130741 KSEA 130741Z 1308/1412 12012G18KT P6SM BKN200 FM131200 11008KT
                       P6SM OVC100 FM131700 14008KT P6SM -RA OVC045
                       FM140400 12006KT P6SM -SHRA BKN020 BKN045=
201803130526 TAF KSEA 130526Z 1306/1412 12010KT P6SM BKN200 FM131200 07008KT
                       P6SM OVC100 FM131700 14008KT P6SM -RA OVC045
                       FM140400 12006KT P6SM -SHRA BKN020 BKN045=
201803130300 KSEA 130300Z 1303/1406 12013KT P6SM BKN250 FM131200 14012KT P6SM
                       OVC100 FM131700 16008KT P6SM -RA OVC050
                       FM132100 18012G22KT P6SM -SHRA BKN025 BKN050=
201803122320 TAF KSEA 122320Z 1300/1406 12012G20KT P6SM BKN250 FM131200 14012KT
                       P6SM OVC100 FM131700 16008KT P6SM -RA OVC050
                       FM132100 18012G22KT P6SM -SHRA BKN025 BKN050=
201803122102 KSEA 122102Z 1221/1324 12014G22KT P6SM BKN250 FM131200 14012KT
                       P6SM OVC100 FM131700 16008KT P6SM -RA OVC050
                       FM132100 18012KT P6SM -SHRA BKN025 BKN050=
201803121907 KSEA 121907Z 1219/1324 11014G22KT P6SM BKN250 FM131200 14012KT
                       P6SM OVC100 FM131700 16008KT P6SM -RA OVC050=
201803121720 TAF KSEA 121720Z 1218/1324 36006KT P6SM SCT250 FM122200 10012G20KT
                       P6SM BKN250 FM131200 14012KT P6SM OVC100
                       FM131700 16008KT P6SM -RA OVC050=
201803121351 KSEA 121351Z 1214/1318 03008KT P6SM SKC FM130000 04012KT P6SM SCT200
                       FM130800 07012G18KT P6SM SCT120 OVC200 FM131400
                       14010KT P6SM BKN070 OVC120 FM131700 16008KT
                       P6SM -RA OVC050=
201803121127 TAF KSEA 121127Z 1212/1318 03008KT P6SM SKC FM130000 04012KT P6SM
                       SCT200 FM130800 07012G18KT P6SM SCT120 OVC200
                       FM131400 14010KT P6SM BKN070 OVC120 FM131700
                       16008KT P6SM -RA OVC050=
201803120900 KSEA 120900Z 1209/1312 01006KT P6SM SKC FM130000 07011KT P6SM FEW200=
201803120520 TAF KSEA 120520Z 1206/1312 00000KT P6SM SKC FM130000 07011KT P6SM
                       FEW200=
201803120314 KSEA 120314Z 1203/1306 04009KT P6SM FEW200 FM120400 04005KT P6SM
                       FEW200 FM130000 06010KT P6SM FEW200=
201803112320 TAF KSEA 112320Z 1200/1306 33005KT P6SM FEW080 FM120400 04005KT
                       P6SM FEW200 FM130000 06010KT P6SM FEW200=
201803112132 KSEA 112132Z 1122/1224 VRB04KT P6SM FEW080 FM120400 04005KT P6SM
                       SCT200=
201803111720 TAF KSEA 111720Z 1118/1224 02006KT P6SM SCT080 SCT200 FM120400
                       04005KT P6SM SCT200=
201803111424 KSEA 111424Z 1114/1218 02005KT P6SM BKN100 FM111800 02007KT P6SM
                       SCT100 FM120400 06006KT P6SM SCT200=
201803111120 TAF KSEA 111120Z 1112/1218 VRB04KT P6SM SKC FM112000 01007KT P6SM
                       SCT200 FM120200 03006KT P6SM SKC=
201803110901 KSEA 110901Z 1109/1212 10008KT P6SM SKC FM112000 01007KT P6SM SCT200
                       FM120200 03006KT P6SM SKC=
201803110529 TAF KSEA 110529Z 1106/1212 10008KT P6SM SKC FM112000 01007KT P6SM
                       SCT200=
201803110303 KSEA 110303Z 1103/1206 02005KT P6SM FEW220 FM110600 03006KT P6SM
                       BKN150 FM112000 36006KT P6SM SCT200=
201803102320 TAF KSEA 102320Z 1100/1206 33007KT P6SM SCT250 FM110600 03006KT
                       P6SM BKN150 FM112000 36006KT P6SM SCT200=
201803102103 KSEA 102103Z 1021/1124 36006KT P6SM SKC FM110600 03006KT P6SM BKN150
                       FM111700 36006KT P6SM SCT200=
201803101732 TAF KSEA 101732Z 1018/1124 36008KT P6SM SKC FM110400 02007KT P6SM
                       BKN200 FM111000 04006KT P6SM BKN120 BKN200
                       FM111700 36006KT P6SM SCT200=
201803101401 KSEA 101401Z 1014/1118 VRB03KT P6SM SCT200 FM102100 01007KT P6SM
                       SCT200 FM110300 03005KT P6SM SCT200=
201803101120 TAF KSEA 101120Z 1012/1118 06004KT P6SM SCT200 FM102100 01007KT
                       P6SM SCT200 FM110300 03006KT P6SM SCT200=
201803100857 KSEA 100857Z 1009/1112 06004KT P6SM SCT200 FM102100 01007KT P6SM
                       BKN200 FM110300 03006KT P6SM SCT200=
201803100530 TAF KSEA 100530Z 1006/1112 03006KT P6SM FEW070 SCT250 FM100800
                       04004KT P6SM SCT200 FM102100 02007KT P6SM
                       BKN200=
201803100401 KSEA 100401Z 1004/1106 04007KT P6SM BKN070 FM100800 VRB04KT P6SM
                       SCT200 FM102100 01007KT P6SM BKN200=
201803092320 TAF KSEA 092320Z 1000/1106 28006KT P6SM SCT035 SCT060 SCT200 FM100200
                       03005KT P6SM SCT060 SCT200 FM100800 VRB04KT
                       P6SM SCT200 FM102100 01007KT P6SM BKN200=
201803092217 KSEA 092217Z 0922/1024 25006KT P6SM SCT030 SCT200 FM092300 30005KT
                       P6SM SCT030 SCT200 FM100200 03005KT P6SM
                       SCT030 SCT200 FM100800 05005KT P6SM SKC=
201803092102 KSEA 092102Z 0921/1024 24006KT P6SM SCT030 SCT200
                      TEMPO 0921/0923 BKN030 BKN200 FM092300 30005KT
                       P6SM SCT030 SCT200 FM100000 03005KT P6SM
                       SCT030 SCT200 FM100800 05005KT P6SM SKC=
201803091912 KSEA 091912Z 0919/1024 20009KT P6SM SCT025 BKN060 FM092100 23008KT
                       P6SM SCT030 BKN060 FM100000 03005KT P6SM
                       SCT030 SCT060 FM100800 05005KT P6SM SKC=
201803091750 TAF KSEA 091750Z 0918/1024 21009KT P6SM SCT017 BKN060
                      TEMPO 0918/0919 BKN017 BKN060 FM091900 22009KT
                       P6SM BKN025 BKN060 FM092100 23008KT P6SM
                       SCT030 BKN060 FM100000 03005KT P6SM SCT030
                       BKN060 FM100800 05005KT P6SM SKC=
201803091513 KSEA 091513Z 0915/1018 20010KT P6SM SCT018 BKN025
                      TEMPO 0915/0917 BKN018 BKN025 FM091700 24007KT
                       P6SM SCT030 SCT050 FM092300 VRB03KT P6SM
                       SCT100 FM100600 05005KT P6SM SKC=
201803091322 KSEA 091322Z 0913/1018 22010KT P6SM SCT020 SCT060
                      TEMPO 0913/0915 BKN015 FM091500 20011KT P6SM
                       SCT025 SCT060 FM092000 24007KT P6SM SCT030
                       SCT080 FM092300 VRB03KT P6SM SCT100 FM100600
                       05005KT P6SM SKC=
201803091248 KSEA 091248Z 0913/1018 22013G22KT P6SM SCT020 SCT060
                      TEMPO 0913/0915 BKN020 FM091500 20011KT P6SM
                       SCT025 SCT060 FM092000 24007KT P6SM SCT030
                       SCT080 FM092300 VRB03KT P6SM SCT100 FM100600
                       05005KT P6SM SKC=
201803091148 KSEA 091148Z 0912/1018 22013G22KT P6SM SCT020 SCT060
                      TEMPO 0912/0914 -SHRA BKN020 FM091500 20011KT
                       P6SM SCT025 SCT060 FM092000 24007KT P6SM
                       SCT030 SCT080 FM092300 VRB03KT P6SM SCT100
                       FM100600 05005KT P6SM SKC=
201803091120 TAF KSEA 091120Z 0912/1018 22013G22KT P6SM SCT020 SCT060 FM091500
                       20011KT P6SM SCT025 SCT060 FM092000 24007KT
                       P6SM SCT030 SCT080 FM092300 VRB03KT P6SM
                       SCT100 FM100600 05005KT P6SM SKC=
201803091028 KSEA 091028Z 0910/1012 22013G22KT P6SM SCT015 SCT050 FM091500 20011KT
                       P6SM SCT015 BKN025 OVC040 FM092000 24007KT
                       P6SM SCT030 BKN045 FM092300 VRB03KT P6SM
                       SCT050 FM100600 05005KT P6SM SKC=
201803090901 KSEA 090901Z 0909/1012 21014G22KT P6SM SCT009 BKN014 OVC040 FM091000
                       22013KT P6SM SCT012 BKN018 OVC040 FM091500
                       20011KT P6SM SCT015 BKN025 OVC040 FM092000
                       24007KT P6SM SCT030 BKN045 FM092300 VRB03KT
                       P6SM SCT050 FM100600 05005KT P6SM SKC=
201803090709 KSEA 090709Z 0907/1012 21014G22KT P6SM -SHRA BKN008 OVC014 FM091000
                       22013G21KT P6SM VCSH SCT012 BKN018 FM091500
                       20011KT P6SM VCSH SCT015 BKN025 OVC040 FM092000
                       21007KT P6SM SCT030 BKN045 FM092300 25004KT
                       P6SM SCT050 FM100600 09005KT P6SM SKC=
201803090538 TAF KSEA 090538Z 0906/1012 21015G26KT P6SM -SHRA SCT015 BKN030
                       OVC045 FM090800 22015G26KT P6SM VCSH SCT020
                       BKN035 FM091500 20011KT P6SM VCSH SCT015
                       BKN025 OVC040 FM092000 21007KT P6SM SCT030
                       BKN045 FM092300 25004KT P6SM SCT050 FM100600
                       09005KT P6SM SKC=
201803090152 KSEA 090152Z 0902/1006 21020G30KT 3SM -RA BR SCT012 BKN018 OVC025
                       FM090400 21018G28KT P6SM -SHRA SCT018 BKN025
                       OVC040 FM090800 22015G25KT P6SM VCSH SCT025
                       BKN040 FM091500 21011KT P6SM SCT030 BKN050
                       FM092000 24006KT P6SM BKN050=
201803090024 KSEA 090024Z 0900/1006 21018G30KT P6SM -SHRA BKN023 OVC040 FM090800
                       22015G26KT P6SM VCSH SCT025 BKN040 FM091500
                       21011KT P6SM SCT030 BKN050 FM092000 24006KT
                       P6SM BKN050=
201803082320 TAF KSEA 082320Z 0900/1006 18013KT P6SM -SHRA BKN025 OVC045 FM090100
                       20018G30KT P6SM -SHRA BKN025 OVC045 FM090800
                       22015G26KT P6SM VCSH SCT025 BKN040 FM091500
                       21011KT P6SM SCT030 BKN050 FM092000 24006KT
                       P6SM BKN050=
201803082116 KSEA 082116Z 0821/0924 18009KT P6SM -RA BKN035 OVC050 FM082300
                       20018G30KT P6SM -SHRA SCT015 BKN025 OVC040
                       FM090800 22018G28KT P6SM VCSH SCT025 BKN040
                       FM091600 21012G18KT P6SM BKN030 BKN050=
201803081720 TAF KSEA 081720Z 0818/0924 09011KT P6SM -RA OVC040 FM082100 16013G22KT
                       5SM -RA BR SCT020 OVC030 FM090200 20018G30KT
                       P6SM -SHRA SCT015 BKN025 OVC040 FM090800
                       22018G28KT P6SM VCSH SCT025 BKN040 FM091600
                       21012G18KT P6SM BKN030 BKN050=
201803081536 KSEA 081536Z 0816/0918 10003KT P6SM -RA BKN040 OVC060 FM081700
                       12008KT P6SM -RA SCT035 OVC050 FM082100
                       16013G22KT 5SM -RA BR SCT020 OVC030 FM090200
                       20018G30KT P6SM -RA SCT015 BKN025 OVC040
                       FM090800 22018G28KT P6SM VCSH SCT025 BKN040
                       FM091600 21012G18KT P6SM BKN030 BKN050=
201803081534 KSEA 081534Z 0816/0918 10003KT P6SM -RA BKN060 OVC080 FM081700
                       12008KT P6SM -RA SCT035 OVC050 FM082100
                       16013G22KT 5SM -RA BR SCT020 OVC030 FM090200
                       20018G30KT P6SM -RA SCT015 BKN025 OVC040
                       FM090800 22018G28KT P6SM VCSH SCT025 BKN040
                       FM091600 21012G18KT P6SM BKN030 BKN050=
201803081402 KSEA 081402Z 0814/0918 09007KT P6SM BKN070 OVC100
                      TEMPO 0814/0817 -RA BKN050 OVC080 FM081700
                       12008KT P6SM -RA SCT035 OVC050 FM082100
                       16013G22KT 5SM -RA BR SCT020 OVC030 FM090200
                       20018G30KT P6SM -RA SCT015 BKN025 OVC040
                       FM090800 22018G28KT P6SM VCSH SCT025 BKN040
                       FM091600 21012G18KT P6SM BKN030 BKN050=
201803081132 TAF KSEA 081132Z 0812/0918 09007KT P6SM BKN070 OVC100
                      TEMPO 0813/0817 -RA BKN050 OVC080 FM081700
                       12008KT P6SM -RA SCT035 OVC050 FM082100
                       16013G22KT 5SM -RA BR SCT020 OVC030 FM090200
                       20018G30KT P6SM -RA SCT015 BKN025 OVC040
                       FM090800 22018G28KT P6SM VCSH SCT025 BKN040
                       FM091600 21012G18KT P6SM BKN030 BKN050=
201803080902 KSEA 080902Z 0809/0912 12003KT P6SM BKN070 BKN100
                      TEMPO 0812/0816 -RA BKN040 OVC060 FM081600
                       14008KT P6SM -RA SCT035 OVC050 FM082200
                       19013G23KT 5SM -RA BR SCT020 OVC030 FM090200
                       20018G30KT P6SM -SHRA SCT015 BKN025 OVC040
                       FM090800 22018G28KT P6SM VCSH SCT025 BKN045=
201803080536 TAF KSEA 080536Z 0806/0912 VRB03KT P6SM OVC090 FM080800 12003KT
                       P6SM -RA OVC060 FM081600 14008KT P6SM -RA
                       SCT035 OVC050 FM082200 19013G23KT 5SM -RA
                       BR SCT020 OVC030 FM090200 20018G30KT P6SM
                       -SHRA SCT015 BKN025 OVC040 FM090800 22018G28KT
                       P6SM VCSH SCT025 BKN045=
201803080352 KSEA 080352Z 0804/0906 VRB03KT P6SM OVC100 FM080800 06006KT P6SM
                       -RA OVC060 FM081600 14012KT P6SM -RA OVC040
                       FM082200 19015G25KT P6SM -SHRA BKN020 BKN040=
201803072320 TAF KSEA 072320Z 0800/0906 36008KT P6SM OVC100 FM080800 06006KT
                       P6SM -RA OVC060 FM081600 14012KT P6SM -RA
                       OVC040 FM082200 19015G25KT P6SM -SHRA BKN020
                       BKN040=
201803072102 KSEA 072102Z 0721/0824 36008KT P6SM OVC120 FM080800 06006KT P6SM
                       -RA OVC060 FM081600 14012KT P6SM -RA OVC040
                       FM082200 18015G25KT P6SM -SHRA BKN020 BKN040=
201803071720 TAF KSEA 071720Z 0718/0824 02010KT P6SM BKN150 BKN250 FM080800
                       06006KT P6SM -RA OVC060 FM081600 14012KT
                       P6SM -RA OVC040 FM082200 18015G25KT P6SM
                       -SHRA BKN020 BKN040=
201803071404 KSEA 071404Z 0714/0818 02010KT P6SM BKN200 FM072000 01008KT P6SM
                       SCT100 OVC180 FM080300 06006KT P6SM SCT080
                       OVC100 FM081100 12004KT P6SM -RA OVC060
                       FM081500 14010KT P6SM -RA OVC035=
201803071129 TAF KSEA 071129Z 0712/0818 02009KT P6SM BKN250 FM072000 01008KT
                       P6SM SCT120 OVC250 FM080300 06006KT P6SM
                       SCT080 OVC100 FM081100 12004KT P6SM -RA
                       OVC060 FM081500 14010KT P6SM -RA OVC035=
201803070902 KSEA 070902Z 0709/0812 03009KT P6SM SCT250 FM071800 01008KT P6SM
                       SCT120 OVC250 FM080300 VRB03KT P6SM SCT080
                       OVC100 FM081000 12004KT P6SM -RA OVC060=
201803070537 TAF KSEA 070537Z 0706/0812 03009KT P6SM SKC FM071800 01008KT P6SM
                       SCT120 OVC250 FM080300 VRB03KT P6SM SCT080
                       OVC100 FM081000 12004KT P6SM -RA OVC060=
201803070356 KSEA 070356Z 0704/0806 36008KT P6SM SKC FM070800 04007KT P6SM SKC
                       FM071300 02007KT P6SM FEW005 FM071800 02006KT
                       P6SM SCT120 OVC250 FM080500 03008KT P6SM
                       -RA OVC060=
201803062329 TAF KSEA 062329Z 0700/0806 36011KT P6SM FEW040 FM070800 04007KT
                       P6SM SKC FM071300 02007KT P6SM FEW005 FM071800
                       02006KT P6SM SCT120 OVC250 FM080500 03008KT
                       P6SM -RA OVC060=
201803062100 KSEA 062100Z 0621/0724 04009KT P6SM FEW030 FEW250 FM062300 01011KT
                       P6SM SKC FM070900 02007KT P6SM FEW005 FM071800
                       02006KT P6SM SCT120 OVC250=
201803061730 TAF KSEA 061730Z 0618/0724 03007KT P6SM FEW080 FM062300 01011KT
                       P6SM SKC FM070900 02007KT P6SM FEW005 FM071800
                       02006KT P6SM SCT120 OVC250=
201803061403 KSEA 061403Z 0614/0718 06006KT P6SM SCT070 FM061800 36009KT P6SM
                       SCT080 FM062300 01011KT P6SM SKC FM070900
                       02007KT P6SM FEW005=
201803061127 TAF KSEA 061127Z 0612/0718 02005KT P6SM SCT030 BKN070 FM061800
                       36009KT P6SM SCT080 FM062300 01011KT P6SM
                       SKC FM070900 02007KT P6SM FEW005=
201803060900 KSEA 060900Z 0609/0712 02004KT P6SM SCT030 BKN070 FM061300 06003KT
                       P6SM SCT018 FM061800 36009KT P6SM SKC FM071000
                       02007KT P6SM SCT008=
201803060538 TAF KSEA 060538Z 0606/0712 VRB03KT P6SM SCT030 BKN070 FM061300
                       06003KT P6SM SCT018 FM061800 36009KT P6SM
                       SKC FM071000 02007KT P6SM SCT008=
201803060322 KSEA 060322Z 0603/0706 VRB03KT P6SM SCT035 BKN070 FM060900 10003KT
                       P6SM SCT030 FM061200 07004KT P6SM SCT013
                       FM061700 02008KT P6SM SCT035 BKN250=
201803052330 TAF KSEA 052330Z 0600/0706 21009KT P6SM FEW025 OVC080 FM060400
                       12004KT P6SM BKN080 BKN250 FM060900 10003KT
                       P6SM SCT080 SCT250 FM061200 07004KT P6SM
                       SCT013 FM061700 02008KT P6SM SCT035 BKN250=
201803052100 KSEA 052100Z 0521/0624 20007KT P6SM SCT023 OVC080 FM060400 VRB04KT
                       P6SM SCT035 SCT200 FM060900 10006KT P6SM
                       BKN050 FM061400 04005KT P6SM SCT050=
201803051724 TAF KSEA 051724Z 0518/0624 23006KT P6SM VCSH FEW007 BKN010 OVC022
                       FM051900 20006KT P6SM VCSH SCT020 BKN030
                       FM052000 23005KT P6SM SCT030 BKN070 FM060400
                       VRB04KT P6SM SCT035 SCT200 FM060900 10006KT
                       P6SM BKN050 FM061400 04005KT P6SM SCT050=
201803051537 KSEA 051537Z 0516/0618 23006KT P6SM VCSH OVC012
                      TEMPO 0517/0518 SCT012 OVC025 FM051800 20006KT
                       P6SM VCSH SCT020 BKN030 FM052200 23005KT
                       P6SM SCT030 BKN050 FM060400 VRB04KT P6SM
                       SCT035 SCT200 FM060900 10006KT P6SM BKN050
                       FM061400 04005KT P6SM FEW050=
201803051402 KSEA 051402Z 0514/0618 21007KT P6SM VCSH SCT012 BKN025 OVC060
                      TEMPO 0514/0517 BKN012 OVC025 FM051800 20006KT
                       P6SM VCSH SCT020 BKN030 FM052200 23005KT
                       P6SM SCT030 BKN050 FM060400 VRB04KT P6SM
                       SCT035 SCT200 FM060900 10006KT P6SM BKN050
                       FM061400 04005KT P6SM FEW050=
201803051141 TAF KSEA 051141Z 0512/0618 21007KT P6SM VCSH SCT012 BKN025 OVC060
                       TEMPO 0512/0516 BKN012 OVC025 FM051800 20006KT
                       P6SM VCSH SCT020 BKN030 FM052200 23005KT
                       P6SM SCT030 BKN050 FM060400 VRB04KT P6SM
                       SCT035 SCT200 FM060900 10006KT P6SM BKN050
                       FM061400 04005KT P6SM FEW050=
201803050900 KSEA 050900Z 0509/0612 19006KT P6SM SCT012 BKN025 OVC040
                      TEMPO 0509/0513 BKN012 OVC025 FM051300 18007KT
                       P6SM BKN012 OVC025 FM051800 20006KT P6SM
                       SCT020 BKN030 FM052100 23005KT P6SM VCSH
                       SCT030 BKN040 FM060300 16004KT P6SM SCT035
                       FM060900 11003KT P6SM SCT020 BKN030=
201803050538 TAF KSEA 050538Z 0506/0612 19008KT P6SM SCT020 BKN060
                      TEMPO 0506/0507 BKN020 OVC060 FM050900 19006KT
                       P6SM SCT012 BKN025 OVC040 FM051500 18007KT
                       P6SM BKN012 OVC025 FM051800 20006KT P6SM
                       SCT020 BKN030 FM052100 23005KT P6SM VCSH
                       SCT030 BKN040 FM060300 16004KT P6SM SCT035
                       FM060900 11003KT P6SM SCT020 BKN030=
201803050440 KSEA 050440Z 0505/0606 19008KT P6SM SCT018 BKN060
                      TEMPO 0505/0507 BKN018 OVC060 FM050700 19006KT
                       P6SM VCSH SCT015 BKN030 OVC050 FM051500
                       18007KT P6SM VCSH OVC025 FM052100 23005KT
                       P6SM VCSH BKN040 FM060300 15004KT P6SM SCT045
                       BKN100=
201803050304 KSEA 050304Z 0503/0606 19008KT P6SM VCSH SCT035 BKN060 OVC080 FM050700
                       19006KT P6SM VCSH SCT020 BKN035 OVC050 FM051500
                       18007KT P6SM VCSH OVC025 FM052100 23005KT
                       P6SM VCSH BKN040 FM060300 15004KT P6SM SCT045
                       BKN100=
201803042337 KSEA 042337Z 0500/0606 22012G18KT P6SM VCTS BKN040 OVC060CB
                      TEMPO 0500/0501 5SM SHRA BKN025 OVC040 FM050100
                       22009KT P6SM VCSH BKN040 BKN060 OVC080
                      TEMPO 0501/0504 6SM -SHRA BKN030 OVC050 FM050400
                       19006KT P6SM VCSH BKN035 OVC050 FM051500
                       18007KT P6SM VCSH OVC025 FM052100 23005KT
                       P6SM VCSH BKN040 FM060300 15004KT P6SM SCT045
                       BKN100=
201803042323 TAF KSEA 042323Z 0500/0606 22009KT P6SM VCSH BKN040 BKN060 OVC080
                       TEMPO 0500/0504 6SM -SHRA BKN030 OVC050
                       FM050400 19006KT P6SM VCSH BKN035 OVC050
                       FM051500 18007KT P6SM VCSH OVC025 FM052100
                       23005KT P6SM VCSH BKN040 FM060300 15004KT
                       P6SM SCT045 BKN100=
201803042108 KSEA 042108Z 0421/0524 20011KT P6SM VCSH SCT060 BKN070 OVC090 FM050200
                       23006KT P6SM -SHRA BKN035 OVC060 FM050700
                       18006KT P6SM VCSH BKN030 BKN050 FM051500
                       18005KT P6SM VCSH OVC025=
201803041730 TAF KSEA 041730Z 0418/0524 16007KT P6SM SCT060 BKN090 BKN110 FM042000
                       21007KT P6SM VCSH SCT040 OVC070 FM050200
                       23006KT P6SM -SHRA BKN035 OVC060 FM050700
                       18006KT P6SM VCSH BKN030 BKN050 FM051500
                       18005KT P6SM VCSH OVC025=
201803041551 KSEA 041551Z 0416/0518 15005KT P6SM FEW045 BKN060 BKN080 FM042000
                       21007KT P6SM VCSH SCT040 OVC070 FM050200
                       23006KT P6SM -SHRA BKN035 OVC060 FM050700
                       18006KT P6SM VCSH BKN030 BKN050=
201803041401 KSEA 041401Z 0414/0518 16006KT P6SM SCT045 BKN060
                      TEMPO 0414/0416 BKN040 OVC070 FM041600 17007KT
                       P6SM BKN040 OVC070 FM042000 21007KT P6SM
                       VCSH BKN040 OVC070 FM050200 23006KT P6SM
                       -SHRA BKN035 OVC060 FM050700 18006KT P6SM
                       VCSH BKN030 BKN050=
201803041124 TAF KSEA 041124Z 0412/0518 14006KT P6SM SCT050 BKN080 FM041700
                       17007KT P6SM BKN040 OVC070 FM042000 21007KT
                       P6SM VCSH BKN040 OVC070 FM050200 23006KT
                       P6SM -SHRA BKN035 OVC060 FM050700 18006KT
                       P6SM VCSH BKN030 BKN050=
201803040902 KSEA 040902Z 0409/0512 VRB04KT P6SM SCT050 BKN080 FM041300 16005KT
                       P6SM BKN040 OVC070 FM042000 21007KT P6SM
                       VCSH BKN040 OVC070=
201803040520 TAF KSEA 040520Z 0406/0512 35007KT P6SM FEW025 FEW220 FM040900
                       VRB04KT P6SM SCT040 OVC120 FM041300 16005KT
                       P6SM BKN040 OVC070 FM042000 21007KT P6SM
                       VCSH BKN040 OVC070=
201803040309 KSEA 040309Z 0403/0506 34007KT P6SM FEW025 FEW220 FM040600 VRB03KT
                       P6SM SCT040 SCT120 FM041300 16005KT P6SM
                       BKN040 FM042000 21007KT P6SM VCSH BKN040=
201803032320 TAF KSEA 032320Z 0400/0506 35009KT P6SM FEW020 SCT210 FM040300
                       02004KT P6SM FEW050 BKN200 FM041300 16005KT
                       P6SM BKN040 FM042000 21007KT P6SM VCSH BKN040=
201803032100 KSEA 032100Z 0321/0424 34010KT P6SM FEW030 SCT190 FM040300 02004KT
                       P6SM FEW050 BKN200 FM041300 16005KT P6SM
                       BKN040 FM042000 21007KT P6SM VCSH BKN040=
201803031725 TAF KSEA 031725Z 0318/0424 02007KT P6SM FEW025 SCT150 FM040300
                       02004KT P6SM FEW050 BKN200 FM041300 16005KT
                       P6SM BKN040 FM042000 21007KT P6SM VCSH BKN040=
201803031319 KSEA 031319Z 0313/0418 02009KT P6SM SCT100 FM031800 33006KT P6SM
                       SCT050 SCT120 FM040300 02004KT P6SM FEW050
                       BKN200 FM040900 16005KT P6SM BKN040=
201803031120 TAF KSEA 031120Z 0312/0418 02005KT P6SM BKN080 BKN110 FM031800
                       33006KT P6SM SCT050 SCT120 FM040300 02004KT
                       P6SM FEW050 BKN200 FM040900 16005KT P6SM
                       BKN040=
201803030901 KSEA 030901Z 0309/0412 02004KT P6SM BKN080 FM031200 03004KT P6SM
                       SCT080 BKN150 FM031900 33006KT P6SM SCT050
                       BKN200 FM040300 VRB03KT P6SM BKN200 FM040900
                       16005KT P6SM BKN035 OVC060=
201803030520 TAF KSEA 030520Z 0306/0412 08005KT P6SM SCT050 SCT070 BKN200 FM031200
                       03004KT P6SM SCT090 BKN150 FM031900 33006KT
                       P6SM SCT050 BKN200 FM040300 VRB03KT P6SM
                       BKN200 FM040900 16005KT P6SM BKN035 OVC060=
201803022344 TAF KSEA 022344Z 0300/0406 17004KT P6SM VCSH SCT025 OVC040
                      TEMPO 0300/0303 -SHRA BKN025 OVC040 FM030300
                       VRB04KT P6SM VCSH BKN050 BKN090 OVC150 FM030600
                       04005KT P6SM SCT050 BKN090 BKN150 FM031200
                       01006KT P6SM SCT090 BKN150 FM031900 33006KT
                       P6SM SCT050 BKN200=
201803022102 KSEA 022102Z 0221/0324 20005KT P6SM VCSH FEW018 OVC040
                      TEMPO 0221/0224 -SHRA FM030000 15004KT P6SM
                       FEW028 BKN045 BKN150 FM030600 04005KT P6SM
                       SCT050 SCT090 BKN150 FM031900 33005KT P6SM
                       SCT050 BKN200=
201803021740 TAF KSEA 021740Z 0218/0324 20007KT P6SM FEW009 FEW040 OVC150 FM022000
                       20007KT P6SM VCSH FEW018 SCT040 BKN150
                      TEMPO 0220/0224 FEW018 BKN040 OVC150 FM030000
                       15004KT P6SM FEW028 BKN045 BKN150 FM030600
                       04005KT P6SM SCT050 SCT090 BKN150 FM031900
                       33005KT P6SM SCT050 BKN200=
201803021526 KSEA 021526Z 0215/0318 15006KT P6SM FEW007 SCT050 OVC150
                      TEMPO 0215/0218 FEW007 BKN050 OVC150 FM021800
                       18006KT P6SM SCT040 FM022100 20005KT P6SM
                       VCSH SCT030 BKN040 FM030000 17005KT P6SM
                       SCT045 BKN060 FM030600 06005KT P6SM SCT060=
201803021441 KSEA 021441Z 0215/0318 18008KT P6SM VCSH SCT012 BKN040 FM021700
                       18006KT P6SM SCT040 FM022100 20005KT P6SM
                       VCSH SCT030 BKN040 FM030000 17005KT P6SM
                       SCT045 BKN060 FM030600 06005KT P6SM SCT060=
201803021133 TAF KSEA 021133Z 0212/0318 17006KT P6SM -SHRA SCT014 BKN020 OVC030
                       FM021400 18008KT P6SM VCSH SCT020 BKN040
                       FM021700 18006KT P6SM SCT040 FM022100 20005KT
                       P6SM VCSH SCT030 BKN040 FM030000 17005KT
                       P6SM SCT045 BKN060 FM030600 06005KT P6SM
                       SCT060=
201803020928 KSEA 020928Z 0209/0312 21008KT P6SM -SHRA SCT025 BKN040 OVC060
                       TEMPO 0211/0214 5SM -SHRASN BKN025 OVC040
                       FM021400 18008KT P6SM VCSH SCT025 BKN040
                       FM022000 VRB04KT P6SM VCSH BKN040 FM030000
                       VRB04KT P6SM SCT040 BKN070 FM030600 03004KT
                       P6SM BKN040=
201803020520 TAF KSEA 020520Z 0206/0312 35006KT P6SM SCT250 FM020700 00000KT
                       P6SM VCSH SCT040 BKN060
                      TEMPO 0209/0212 5SM -SHRASN OVC025 FM021200
                       18008KT P6SM VCSH BKN025 FM022000 VRB04KT
                       P6SM VCSH BKN040 FM030000 VRB04KT P6SM SCT040
                       BKN070 FM030600 03004KT P6SM BKN040=
201803020308 KSEA 020308Z 0203/0306 35006KT P6SM SCT250 FM020700 00000KT P6SM
                       BKN040
                      TEMPO 0209/0212 5SM -SHRASN OVC025 FM021200
                       18008KT P6SM VCSH BKN025 FM022000 VRB04KT
                       P6SM VCSH BKN040=
201803012320 TAF KSEA 012320Z 0200/0306 VRB04KT P6SM SCT040 FM020700 00000KT
                       P6SM BKN040
                      TEMPO 0209/0212 5SM -SHRASN OVC025 FM021200
                       18008KT P6SM VCSH BKN025 FM022000 VRB04KT
                       P6SM VCSH BKN040=
201803012102 KSEA 012102Z 0121/0224 VRB04KT P6SM SCT030 FM020800 15005KT P6SM
                       -SHRASN BKN040
                      TEMPO 0208/0212 5SM -SHRASN OVC025 FM021200
                       18007KT P6SM VCSH BKN025 FM022000 VRB04KT
                       P6SM VCSH SCT040=
201803011735 KSEA 011735Z 0118/0224 VRB04KT P6SM SCT030 SCT090 FM012000 VRB04KT
                       P6SM SCT035 BKN050 FM020300 00000KT P6SM
                       SCT060 BKN080 FM020900 15005KT P6SM -SHRA
                       SCT030 OVC050 FM021200 15005KT 6SM -SHRASN
                       BR SCT008 OVC015 FM021500 15005KT P6SM VCSH
                       SCT015 OVC025 FM022000 VRB04KT P6SM VCSH
                       SCT025 BKN040=
201803011720 TAF KSEA 011720Z 0118/0224 VRB04KT P6SM SCT030 SCT090 FM012000
                       VRB04KT P6SM SCT035 BKN050 FM020300 00000KT
                       P6SM SCT060 BKN080 FM020900 14005KT P6SM
                       -SHRA SCT030 OVC050 FM021200 16005KT 6SM
                       -SHRASN BR SCT008 OVC015 FM021500 16004KT
                       P6SM VCSH SCT015 OVC025=
201803011414 KSEA 011414Z 0114/0218 15005KT P6SM VCSH SCT020 SCT035 OVC080
                      TEMPO 0116/0118 BKN020 OVC035 FM012000 16005KT
                       P6SM SCT035 BKN050 FM020300 VRB03KT P6SM
                       SCT060 BKN080 FM020900 14005KT P6SM -SHRA
                       SCT030 OVC050 FM021200 16005KT 6SM -SHRASN
                       BR SCT008 OVC015 FM021500 16004KT P6SM VCSH
                       SCT015 OVC025=
201803011135 TAF KSEA 011135Z 0112/0218 19009KT P6SM VCSH SCT020 BKN035 OVC060
                       TEMPO 0116/0118 BKN020 OVC035 FM012000 17006KT
                       P6SM SCT035 BKN050 FM020300 VRB03KT P6SM
                       SCT060 BKN080 FM020900 14005KT P6SM -SHRA
                       SCT030 OVC050 FM021200 16005KT 6SM -SHRASN
                       BR SCT008 OVC015 FM021500 16004KT P6SM VCSH
                       SCT015 OVC025=
201803010907 KSEA 010907Z 0109/0212 20012G22KT P6SM -SHRA SCT020 OVC030 FM011200
                       19007KT P6SM VCSH SCT018 BKN025 OVC045 FM012100
                       17006KT P6SM SCT025 BKN050 FM020300 VRB04KT
                       P6SM SCT030 BKN060 FM020800 15005KT P6SM
                       SCT025 OVC050=
201803010638 KSEA 010638Z 0107/0212 13009KT P6SM -RA SCT035 OVC045 FM010800
                       20010G18KT P6SM -SHRA SCT020 OVC035 FM011200
                       19007KT P6SM VCSH SCT018 BKN025 OVC045 FM012100
                       17006KT P6SM SCT025 BKN050 FM020300 VRB04KT
                       P6SM SCT030 BKN060 FM020800 15005KT P6SM
                       SCT025 OVC050=
201803010520 TAF KSEA 010520Z 0106/0212 11012G20KT 5SM -RA BR OVC035 FM010700
                       13012KT 3SM -RA BR OVC020 FM010800 21012KT
                       P6SM -SHRA BKN020 OVC040 FM011600 18008KT
                       P6SM VCSH BKN025 BKN050 FM012100 17006KT
                       P6SM SCT025 BKN050 FM020300 VRB04KT P6SM
                       SCT030 BKN060 FM020800 15005KT P6SM SCT025
                       OVC050=
201803010303 KSEA 010303Z 0103/0206 12012KT P6SM -RA OVC035
                      TEMPO 0103/0104 5SM -RA BR OVC025 FM010400
                       17012G20KT 5SM -RA BR OVC025 FM010900 21012KT
                       P6SM -SHRA BKN020 OVC040 FM011600 18008KT
                       P6SM VCSH BKN025 BKN050 FM012100 16006KT
                       P6SM SCT025 BKN050=
201803010152 KSEA 010152Z 0102/0206 12012KT P6SM -RA OVC035
                      TEMPO 0102/0104 5SM -RA BR OVC025 FM010400
                       17012G20KT 5SM -RA BR OVC025 FM010900 21012KT
                       P6SM -SHRA BKN020 OVC040 FM011600 18008KT
                       P6SM VCSH BKN025 BKN050 FM012100 16006KT
                       P6SM SCT025 BKN050=