##########################################################
# Query made at 02/17/2025 20:29:40 UTC
# Time interval: from 07/01/2018 00:00  to 07/31/2018 23:59  UTC
##########################################################

##########################################################
# KSEA, Seattle, Seattle-Tacoma International Airport (United States)
# WMO index: 72793. WIGOS ID: 0-20000-0-72793
# Latitude 47-27-00N. Longitude 122-17-59W. Altitude 130 m.
##########################################################

###################################
#  METAR/SPECI from KSEA
###################################
201807312353 METAR KSEA 312353Z 19009KT 10SM FEW050 SCT250 26/14 A3000 RMK AO2 SLP164 T02610144 10261 20183 58012=
201807312253 METAR KSEA 312253Z 20009KT 10SM SCT250 25/14 A3002 RMK AO2 SLP168 T02500139=
201807312153 METAR KSEA 312153Z 22009KT 10SM SCT250 24/14 A3003 RMK AO2 SLP173 T02390139=
201807312053 METAR KSEA 312053Z 23008KT 200V260 10SM FEW250 22/14 A3004 RMK AO2 SLP175 T02220139 58006=
201807311953 METAR KSEA 311953Z 23009KT 10SM FEW015 21/14 A3004 RMK AO2 SLP178 T02060139=
201807311923 SPECI KSEA 311923Z 26010KT 10SM SCT014 21/14 A3005 RMK AO2 T02110139=
201807311853 METAR KSEA 311853Z 25008KT 10SM BKN014 19/14 A3005 RMK AO2 SLP181 T01940139=
201807311753 METAR KSEA 311753Z 23008KT 10SM OVC010 18/13 A3005 RMK AO2 SLP181 T01830133 10183 20156 50000=
201807311736 SPECI KSEA 311736Z 21008KT 10SM OVC010 18/13 A3005 RMK AO2 T01780133=
201807311653 METAR KSEA 311653Z 22010KT 10SM OVC007 17/13 A3006 RMK AO2 SLP182 T01670133=
201807311553 METAR KSEA 311553Z 21007KT 10SM OVC007 17/13 A3005 RMK AO2 SLP181 T01670133=
201807311453 METAR KSEA 311453Z 22009KT 10SM OVC007 16/13 A3005 RMK AO2 SLP180 T01610133 51007=
201807311353 METAR KSEA 311353Z 21006KT 10SM OVC007 16/13 A3005 RMK AO2 SLP178 T01560133=
201807311253 METAR KSEA 311253Z 22008KT 10SM OVC006 16/13 A3004 RMK AO2 SLP176 T01560133 $=
201807311153 METAR KSEA 311153Z 23009KT 10SM BKN007 OVC250 16/13 A3003 RMK AO2 SLP172 7//// T01560133 10194 20156 50003 $=
201807311133 SPECI KSEA 311133Z 22007KT 10SM BKN007 OVC250 16/13 A3003 RMK AO2 T01560133 $=
201807311126 SPECI KSEA 311126Z 21007KT 10SM SCT007 OVC250 16/13 A3003 RMK AO2 T01560133 $=
201807311053 METAR KSEA 311053Z 21009KT 10SM FEW015 OVC250 16/13 A3003 RMK AO2 SLP174 T01560133 $=
201807310953 METAR KSEA 310953Z 20006KT 10SM FEW015 OVC250 16/13 A3003 RMK AO2 SLP172 T01610133 $=
201807310853 METAR KSEA 310853Z 21007KT 10SM BKN250 16/13 A3002 RMK AO2 SLP169 T01610133 51008 $=
201807310753 METAR KSEA 310753Z 21007KT 10SM BKN250 17/13 A3002 RMK AO2 SLP167 T01670133 403170167=
201807310653 METAR KSEA 310653Z 20009KT 10SM SCT250 18/14 A3001 RMK AO2 SLP165 T01780139=
201807310553 METAR KSEA 310553Z 20008KT 10SM CLR 20/14 A3000 RMK AO2 SLP161 T02000139 10317 20200 53014=
201807310453 METAR KSEA 310453Z 22007KT 10SM FEW250 23/14 A2998 RMK AO2 SLP157 T02280144=
201807310353 METAR KSEA 310353Z 24007KT 10SM FEW250 25/15 A2996 RMK AO2 SLP150 T02500150=
201807310253 METAR KSEA 310253Z 24006KT 10SM CLR 28/15 A2996 RMK AO2 SLP148 T02780150 53001=
201807310153 METAR KSEA 310153Z 23007KT 10SM CLR 30/14 A2995 RMK AO2 SLP144 T03000144=
201807310053 METAR KSEA 310053Z 24008KT 10SM CLR 31/15 A2995 RMK AO2 SLP144 T03060150=
201807302353 METAR KSEA 302353Z 24007KT 210V280 10SM CLR 31/15 A2995 RMK AO2 SLP146 6//// T03110150 10317 20228 56016=
201807302253 METAR KSEA 302253Z 28007KT 10SM CLR 31/14 A2996 RMK AO2 SLP149 T03110139=
201807302153 METAR KSEA 302153Z 25007KT 10SM FEW250 30/14 A2998 RMK AO2 SLP156 T03000139=
201807302053 METAR KSEA 302053Z 30004KT 10SM FEW250 28/14 A3000 RMK AO2 SLP162 6//// T02830144 $=
201807301953 METAR KSEA 301953Z 24006KT 10SM BKN250 27/14 A3001 RMK AO2 SLP166 T02670139=
201807301853 METAR KSEA 301853Z 20008KT 10SM FEW250 26/13 A3003 RMK AO2 SLP171 T02560133=
201807301753 METAR KSEA 301753Z 22008KT 10SM SCT250 24/13 A3003 RMK AO2 SLP174 T02390133 10239 20178 58003=
201807301653 METAR KSEA 301653Z 21006KT 10SM CLR 21/13 A3004 RMK AO2 SLP177 T02110133=
201807301553 METAR KSEA 301553Z 19008KT 10SM CLR 19/13 A3005 RMK AO2 SLP178 T01940133=
201807301453 METAR KSEA 301453Z 21007KT 10SM CLR 18/13 A3004 RMK AO2 SLP177 T01830133 51006=
201807301353 METAR KSEA 301353Z 20004KT 10SM CLR 18/13 A3004 RMK AO2 SLP175 T01780133=
201807301253 METAR KSEA 301253Z 19003KT 10SM CLR 18/14 A3003 RMK AO2 SLP172 T01780139=
201807301153 METAR KSEA 301153Z 20003KT 10SM CLR 19/13 A3002 RMK AO2 SLP169 T01890133 10267 20189 53007=
201807301053 METAR KSEA 301053Z 20003KT 10SM CLR 20/14 A3001 RMK AO2 SLP165 T02000139=
201807300953 METAR KSEA 300953Z 00000KT 10SM CLR 22/13 A3001 RMK AO2 SLP163 T02170133=
201807300853 METAR KSEA 300853Z 00000KT 10SM CLR 21/14 A3000 RMK AO2 SLP162 T02110139 53006=
201807300753 METAR KSEA 300753Z 19004KT 10SM CLR 21/14 A3000 RMK AO2 SLP161 T02110139 403440156=
201807300653 METAR KSEA 300653Z 31004KT 10SM CLR 23/14 A2999 RMK AO2 SLP157 T02330144=
201807300553 METAR KSEA 300553Z 00000KT 10SM CLR 26/14 A2998 RMK AO2 SLP157 T02610144 10344 20256 51006=
201807300453 METAR KSEA 300453Z 01008KT 10SM CLR 28/14 A2998 RMK AO2 SLP156 T02780144=
201807300353 METAR KSEA 300353Z 33005KT 10SM CLR 28/13 A2997 RMK AO2 SLP153 T02780133=
201807300253 METAR KSEA 300253Z 33007KT 10SM CLR 30/12 A2997 RMK AO2 SLP150 T03000117 56007=
201807300153 METAR KSEA 300153Z 36011KT 10SM CLR 31/12 A2997 RMK AO2 SLP152 T03110117=
201807300053 METAR KSEA 300053Z 33007KT 10SM CLR 33/13 A2998 RMK AO2 SLP154 T03330133=
201807292353 METAR KSEA 292353Z 36008KT 320V020 10SM CLR 34/13 A2999 RMK AO2 SLP158 T03390133 10344 20239 56015=
201807292253 METAR KSEA 292253Z 33011KT 10SM CLR 33/13 A3000 RMK AO2 SLP162 T03330133=
201807292153 METAR KSEA 292153Z 35011KT 10SM CLR 33/14 A3001 RMK AO2 SLP166 T03280144=
201807292053 METAR KSEA 292053Z 30007KT 10SM CLR 30/16 A3003 RMK AO2 SLP173 T03000156 56013=
201807291953 METAR KSEA 291953Z 30008KT 10SM CLR 28/16 A3004 RMK AO2 SLP177 T02830156=
201807291853 METAR KSEA 291853Z 31006KT 10SM CLR 27/16 A3006 RMK AO2 SLP181 T02670156=
201807291753 METAR KSEA 291753Z 27005KT 10SM CLR 24/15 A3007 RMK AO2 SLP185 T02390150 10244 20156 58003=
201807291653 METAR KSEA 291653Z VRB04KT 10SM CLR 22/14 A3008 RMK AO2 SLP188 T02170144=
201807291553 METAR KSEA 291553Z 29003KT 10SM CLR 21/15 A3008 RMK AO2 SLP190 T02060150=
201807291453 METAR KSEA 291453Z 00000KT 10SM CLR 19/14 A3008 RMK AO2 SLP189 T01890144 53007=
201807291353 METAR KSEA 291353Z 00000KT 10SM CLR 17/14 A3007 RMK AO2 SLP188 T01720139=
201807291253 METAR KSEA 291253Z 34003KT 10SM CLR 16/13 A3006 RMK AO2 SLP183 T01610133=
201807291153 METAR KSEA 291153Z 27003KT 10SM CLR 16/13 A3006 RMK AO2 SLP182 T01610133 10211 20161 50001=
201807291053 METAR KSEA 291053Z 29003KT 10SM CLR 17/13 A3006 RMK AO2 SLP183 T01670133=
201807290953 METAR KSEA 290953Z 00000KT 10SM CLR 17/13 A3006 RMK AO2 SLP181 T01720133=
201807290853 METAR KSEA 290853Z 00000KT 10SM CLR 18/13 A3006 RMK AO2 SLP181 T01780133 51004=
201807290753 METAR KSEA 290753Z 00000KT 10SM CLR 19/13 A3005 RMK AO2 SLP180 T01890133 402940144=
201807290653 METAR KSEA 290653Z 30003KT 10SM CLR 19/13 A3005 RMK AO2 SLP180 T01940133=
201807290553 METAR KSEA 290553Z 00000KT 10SM CLR 21/14 A3004 RMK AO2 SLP178 T02110144 10294 20211 53010=
201807290453 METAR KSEA 290453Z 00000KT 10SM CLR 24/14 A3003 RMK AO2 SLP175 T02440139=
201807290353 METAR KSEA 290353Z 31003KT 10SM FEW100 25/14 A3001 RMK AO2 SLP168 T02500144=
201807290253 METAR KSEA 290253Z 31004KT 10SM FEW100 28/14 A3001 RMK AO2 SLP167 T02780144 53000=
201807290153 METAR KSEA 290153Z 28005KT 10SM FEW080 29/14 A3000 RMK AO2 SLP163 T02890139=
201807290053 METAR KSEA 290053Z 28004KT 10SM FEW090 29/14 A3001 RMK AO2 SLP164 T02890139=
201807282353 METAR KSEA 282353Z VRB06KT 10SM FEW090 29/13 A3001 RMK AO2 SLP165 T02940133 10294 20194 58009=
201807282253 METAR KSEA 282253Z 24003KT 10SM FEW090 28/12 A3002 RMK AO2 SLP169 T02780122=
201807282153 METAR KSEA 282153Z VRB03KT 10SM FEW090 27/13 A3003 RMK AO2 SLP174 T02670128=
201807282053 METAR KSEA 282053Z VRB05KT 10SM FEW090 26/13 A3004 RMK AO2 SLP176 T02610133 58010=
201807281953 METAR KSEA 281953Z 26004KT 10SM FEW080 24/13 A3005 RMK AO2 SLP179 T02390133=
201807281853 METAR KSEA 281853Z 23006KT 10SM FEW100 22/13 A3006 RMK AO2 SLP185 T02170128=
201807281753 METAR KSEA 281753Z 21008KT 10SM FEW090 SCT130 20/13 A3007 RMK AO2 SLP186 T02000128 10200 20144 50000=
201807281653 METAR KSEA 281653Z 20006KT 10SM FEW007 SCT130 BKN160 18/13 A3007 RMK AO2 SLP187 T01780128=
201807281553 METAR KSEA 281553Z 19007KT 10SM OVC005 16/13 A3007 RMK AO2 SLP187 T01560128=
201807281453 METAR KSEA 281453Z 19008KT 10SM OVC003 14/13 A3007 RMK AO2 SLP185 T01440128 53010=
201807281353 METAR KSEA 281353Z 21006KT 10SM OVC004 14/13 A3006 RMK AO2 SLP181 T01440128=
201807281324 SPECI KSEA 281324Z 21006KT 10SM OVC004 14/13 A3005 RMK AO2 T01440128=
201807281253 METAR KSEA 281253Z 21005KT 10SM BKN005 BKN030 14/13 A3004 RMK AO2 SLP177 T01440128=
201807281240 SPECI KSEA 281240Z 20005KT 10SM BKN005 BKN030 14/13 A3004 RMK AO2 T01440128=
201807281239 SPECI KSEA 281239Z 20005KT 10SM FEW005 SCT030 14/13 A3004 RMK AO2 T01440128=
201807281153 METAR KSEA 281153Z 19007KT 10SM SCT110 14/13 A3004 RMK AO2 SLP175 T01440128 10211 20144 51008=
201807281053 METAR KSEA 281053Z 20005KT 10SM FEW120 15/13 A3003 RMK AO2 SLP171 T01500128=
201807280953 METAR KSEA 280953Z 22006KT 10SM FEW130 16/13 A3002 RMK AO2 SLP170 T01560128=
201807280853 METAR KSEA 280853Z 22009KT 10SM FEW100 16/13 A3001 RMK AO2 SLP166 T01610128 51007=
201807280753 METAR KSEA 280753Z 20009KT 10SM FEW100 18/13 A3000 RMK AO2 SLP163 T01780128 403110139=
201807280653 METAR KSEA 280653Z 18004KT 10SM FEW100 19/13 A3000 RMK AO2 SLP164 T01940133=
201807280553 METAR KSEA 280553Z 27005KT 10SM FEW100 21/13 A2999 RMK AO2 SLP159 T02110128 10311 20211 52010=
201807280453 METAR KSEA 280453Z VRB04KT 10SM FEW060 FEW250 23/13 A2998 RMK AO2 SLP157 T02330133=
201807280353 METAR KSEA 280353Z 30003KT 10SM FEW070 25/13 A2996 RMK AO2 SLP151 T02500133=
201807280253 METAR KSEA 280253Z 21006KT 10SM FEW060 FEW250 28/12 A2996 RMK AO2 SLP148 CB DSNT E T02830122 56005=
201807280153 METAR KSEA 280153Z 22008KT 10SM FEW060 FEW250 30/12 A2996 RMK AO2 SLP148 CB DSNT E T03000122=
201807280053 METAR KSEA 280053Z 30005KT 10SM FEW060 FEW250 31/12 A2996 RMK AO2 SLP150 T03060122=
201807272353 METAR KSEA 272353Z VRB03KT 10SM FEW060 FEW250 29/12 A2997 RMK AO2 SLP153 T02940122 10306 20200 58017=
201807272253 METAR KSEA 272253Z 25005KT 10SM FEW060 FEW250 29/12 A2999 RMK AO2 SLP159 T02940117=
201807272153 METAR KSEA 272153Z VRB06KT 10SM FEW060 FEW250 28/12 A3001 RMK AO2 SLP165 T02830122=
201807272053 METAR KSEA 272053Z 30007KT 10SM FEW055 FEW250 27/12 A3002 RMK AO2 SLP170 T02670122 58009=
201807271953 METAR KSEA 271953Z 21007KT 10SM FEW050 25/12 A3003 RMK AO2 SLP173 T02500117=
201807271853 METAR KSEA 271853Z 20007KT 10SM CLR 22/12 A3004 RMK AO2 SLP177 T02220117=
201807271753 METAR KSEA 271753Z 19008KT 10SM CLR 21/12 A3005 RMK AO2 SLP179 T02060122 10206 20139 58003=
201807271653 METAR KSEA 271653Z 22005KT 10SM CLR 18/13 A3005 RMK AO2 SLP181 T01830128=
201807271553 METAR KSEA 271553Z VRB05KT 10SM FEW005 16/12 A3006 RMK AO2 SLP183 T01610122=
201807271453 METAR KSEA 271453Z 21005KT 10SM SCT005 14/12 A3006 RMK AO2 SLP182 T01440122 53008=
201807271353 METAR KSEA 271353Z 19006KT 7SM SCT005 14/12 A3005 RMK AO2 SLP179 T01440122=
201807271253 METAR KSEA 271253Z 20006KT 10SM FEW003 14/12 A3004 RMK AO2 SLP176 T01390122=
201807271233 SPECI KSEA 271233Z 20006KT 10SM FEW003 14/12 A3004 RMK AO2 T01440122=
201807271153 METAR KSEA 271153Z 20006KT 10SM CLR 14/12 A3003 RMK AO2 SLP174 T01440122 10228 20144 51002=
201807271053 METAR KSEA 271053Z 21007KT 10SM CLR 15/12 A3003 RMK AO2 SLP173 T01500122=
201807270953 METAR KSEA 270953Z 20006KT 10SM CLR 16/13 A3003 RMK AO2 SLP173 T01610128=
201807270853 METAR KSEA 270853Z 18008KT 10SM CLR 17/13 A3003 RMK AO2 SLP172 T01720128 58002=
201807270753 METAR KSEA 270753Z 21004KT 10SM CLR 19/12 A3003 RMK AO2 SLP173 T01890122 403330156=
201807270653 METAR KSEA 270653Z 19007KT 10SM CLR 20/12 A3004 RMK AO2 SLP176 T02000122=
201807270553 METAR KSEA 270553Z 21005KT 10SM CLR 23/12 A3004 RMK AO2 SLP174 T02280117 10333 20228 51009=
201807270453 METAR KSEA 270453Z 27004KT 10SM CLR 24/11 A3003 RMK AO2 SLP172 T02390106=
201807270353 METAR KSEA 270353Z 27004KT 10SM CLR 26/12 A3002 RMK AO2 SLP168 T02610117=
201807270253 METAR KSEA 270253Z 28005KT 10SM FEW050 30/12 A3001 RMK AO2 SLP164 T03000122 56009=
201807270153 METAR KSEA 270153Z 30006KT 10SM FEW050 32/12 A3001 RMK AO2 SLP166 T03220117=
201807270053 METAR KSEA 270053Z 29006KT 10SM FEW050 33/09 A3002 RMK AO2 SLP169 T03330094=
201807262353 METAR KSEA 262353Z 27007KT 10SM FEW050 33/11 A3003 RMK AO2 SLP174 T03280111 10328 20250 56017=
201807262253 METAR KSEA 262253Z 27007KT 10SM FEW050 32/12 A3005 RMK AO2 SLP179 T03220122=
201807262153 METAR KSEA 262153Z 28005KT 10SM FEW050 32/11 A3007 RMK AO2 SLP185 T03170111=
201807262053 METAR KSEA 262053Z VRB06KT 10SM FEW050 31/12 A3009 RMK AO2 SLP190 T03060122 58010=
201807261953 METAR KSEA 261953Z 25006KT 10SM FEW030 28/13 A3010 RMK AO2 SLP195 T02830128=
201807261853 METAR KSEA 261853Z 30006KT 10SM CLR 27/14 A3011 RMK AO2 SLP199 T02720139=
201807261753 METAR KSEA 261753Z 26005KT 10SM CLR 26/14 A3012 RMK AO2 SLP201 T02560139 10256 20156 58006=
201807261653 METAR KSEA 261653Z 28004KT 10SM CLR 23/14 A3013 RMK AO2 SLP205 T02280139=
201807261553 METAR KSEA 261553Z 28004KT 10SM FEW200 21/14 A3013 RMK AO2 SLP207 T02110139=
201807261453 METAR KSEA 261453Z 16003KT 10SM FEW200 19/13 A3014 RMK AO2 SLP209 T01940133 51008=
201807261353 METAR KSEA 261353Z 00000KT 10SM FEW200 18/13 A3013 RMK AO2 SLP207 T01780128=
201807261253 METAR KSEA 261253Z 21003KT 10SM FEW120 16/12 A3012 RMK AO2 SLP204 T01610122=
201807261153 METAR KSEA 261153Z 00000KT 10SM CLR 17/13 A3011 RMK AO2 SLP201 T01670128 10267 20167 55000=
201807261053 METAR KSEA 261053Z 29004KT 10SM CLR 17/12 A3011 RMK AO2 SLP200 T01720122=
201807260953 METAR KSEA 260953Z 00000KT 10SM CLR 19/13 A3011 RMK AO2 SLP199 T01890128=
201807260853 METAR KSEA 260853Z 00000KT 10SM CLR 21/13 A3011 RMK AO2 SLP200 T02060128 55000=
201807260753 METAR KSEA 260753Z 00000KT 10SM CLR 21/13 A3011 RMK AO2 SLP201 T02110128 403330167=
201807260653 METAR KSEA 260653Z 03005KT 10SM CLR 26/11 A3011 RMK AO2 SLP199 T02610111=
201807260553 METAR KSEA 260553Z 03006KT 10SM CLR 27/12 A3011 RMK AO2 SLP200 T02670122 10328 20261 53004=
201807260453 METAR KSEA 260453Z 36006KT 10SM CLR 27/11 A3011 RMK AO2 SLP201 T02670106=
201807260353 METAR KSEA 260353Z 36006KT 10SM CLR 28/10 A3010 RMK AO2 SLP197 T02780100=
201807260253 METAR KSEA 260253Z 36006KT 10SM CLR 31/10 A3010 RMK AO2 SLP197 T03060100 55005=
201807260153 METAR KSEA 260153Z 35008KT 10SM FEW200 32/10 A3010 RMK AO2 SLP197 T03170100=
201807260053 METAR KSEA 260053Z 36007KT 10SM FEW200 32/10 A3011 RMK AO2 SLP200 T03220100=
201807252353 METAR KSEA 252353Z 36008KT 10SM FEW200 33/11 A3012 RMK AO2 SLP203 T03330111 10333 20250 56011=
201807252253 METAR KSEA 252253Z 31007KT 10SM FEW200 32/12 A3013 RMK AO2 SLP205 T03220117=
201807252153 METAR KSEA 252153Z VRB06KT 10SM FEW200 31/12 A3014 RMK AO2 SLP210 T03110117=
201807252053 METAR KSEA 252053Z 36009KT 10SM FEW200 31/11 A3015 RMK AO2 SLP213 T03060106 57004=
201807251953 METAR KSEA 251953Z 30008KT 10SM FEW200 29/12 A3015 RMK AO2 SLP213 T02890117=
201807251853 METAR KSEA 251853Z 29008KT 10SM FEW200 27/12 A3016 RMK AO2 SLP216 T02670122=
201807251753 METAR KSEA 251753Z 27006KT 10SM FEW200 25/13 A3016 RMK AO2 SLP218 T02500128 10250 20167 50000=
201807251653 METAR KSEA 251653Z 26004KT 10SM FEW200 22/12 A3017 RMK AO2 SLP220 T02220122=
201807251553 METAR KSEA 251553Z 29005KT 10SM FEW200 21/13 A3017 RMK AO2 SLP220 T02110128=
201807251453 METAR KSEA 251453Z 27003KT 10SM FEW200 19/12 A3016 RMK AO2 SLP218 T01940122 51009=
201807251353 METAR KSEA 251353Z 17003KT 10SM FEW200 18/12 A3016 RMK AO2 SLP216 T01830117=
201807251253 METAR KSEA 251253Z 00000KT 10SM FEW200 17/11 A3015 RMK AO2 SLP212 T01670111=
201807251153 METAR KSEA 251153Z 00000KT 10SM CLR 17/11 A3014 RMK AO2 SLP208 T01670111 10244 20167 51008=
201807251053 METAR KSEA 251053Z 00000KT 10SM CLR 18/11 A3013 RMK AO2 SLP207 T01780111=
201807250953 METAR KSEA 250953Z 00000KT 10SM CLR 19/11 A3012 RMK AO2 SLP204 T01890111=
201807250853 METAR KSEA 250853Z 00000KT 10SM CLR 21/10 A3011 RMK AO2 SLP199 T02110100 50001=
201807250753 METAR KSEA 250753Z 02006KT 10SM CLR 22/10 A3012 RMK AO2 SLP201 T02220100 403280150=
201807250653 METAR KSEA 250653Z 04006KT 10SM CLR 24/10 A3011 RMK AO2 SLP200 T02390100=
201807250553 METAR KSEA 250553Z 03009KT 10SM CLR 24/10 A3011 RMK AO2 SLP199 T02440100 10322 20239 53009=
201807250453 METAR KSEA 250453Z 36009KT 10SM CLR 24/11 A3010 RMK AO2 SLP195 T02440106=
201807250353 METAR KSEA 250353Z 33005KT 10SM CLR 26/11 A3008 RMK AO2 SLP190 T02610106=
201807250253 METAR KSEA 250253Z 36007KT 10SM CLR 29/08 A3008 RMK AO2 SLP189 T02940083 56005=
201807250153 METAR KSEA 250153Z 36010KT 10SM CLR 31/07 A3008 RMK AO2 SLP190 T03110072=
201807250053 METAR KSEA 250053Z 35009KT 10SM CLR 32/08 A3008 RMK AO2 SLP191 T03170083=
201807242353 METAR KSEA 242353Z 01010KT 10SM FEW060 32/09 A3010 RMK AO2 SLP194 T03170089 10328 20233 56008=
201807242253 METAR KSEA 242253Z 31008KT 10SM FEW060 31/11 A3010 RMK AO2 SLP197 T03110106=
201807242153 METAR KSEA 242153Z 28009KT 10SM FEW060 31/11 A3011 RMK AO2 SLP200 T03060111=
201807242053 METAR KSEA 242053Z 30007KT 10SM FEW060 29/11 A3012 RMK AO2 SLP202 T02940106 57006=
201807241953 METAR KSEA 241953Z 26009KT 10SM CLR 28/12 A3013 RMK AO2 SLP205 T02780117=
201807241853 METAR KSEA 241853Z 27006KT 10SM CLR 26/13 A3013 RMK AO2 SLP207 T02560128=
201807241753 METAR KSEA 241753Z 26006KT 10SM CLR 23/13 A3014 RMK AO2 SLP209 T02330133 10233 20150 50000=
201807241653 METAR KSEA 241653Z VRB04KT 10SM CLR 22/13 A3014 RMK AO2 SLP211 T02170133=
201807241553 METAR KSEA 241553Z 00000KT 10SM CLR 19/13 A3014 RMK AO2 SLP211 T01940133=
201807241453 METAR KSEA 241453Z 18003KT 10SM CLR 18/13 A3014 RMK AO2 SLP209 T01780128 53013=
201807241353 METAR KSEA 241353Z 19004KT 10SM CLR 17/12 A3012 RMK AO2 SLP204 T01670122=
201807241253 METAR KSEA 241253Z 00000KT 10SM CLR 16/12 A3011 RMK AO2 SLP200 T01560117=
201807241153 METAR KSEA 241153Z 00000KT 10SM CLR 17/11 A3010 RMK AO2 SLP196 T01670111 10244 20161 53005=
201807241053 METAR KSEA 241053Z 18003KT 10SM CLR 17/11 A3009 RMK AO2 SLP194 T01720111=
201807240953 METAR KSEA 240953Z 32003KT 10SM CLR 19/11 A3009 RMK AO2 SLP191 T01890111=
201807240853 METAR KSEA 240853Z 36003KT 10SM CLR 21/10 A3009 RMK AO2 SLP190 T02110100 53003=
201807240753 METAR KSEA 240753Z 02007KT 10SM CLR 22/10 A3008 RMK AO2 SLP188 T02220100 403220172=
201807240653 METAR KSEA 240653Z 02008KT 10SM CLR 24/11 A3008 RMK AO2 SLP188 T02390106=
201807240553 METAR KSEA 240553Z 02009KT 10SM FEW250 24/11 A3007 RMK AO2 SLP187 T02440111 10322 20239 53008=
201807240453 METAR KSEA 240453Z 34004KT 10SM FEW250 24/10 A3006 RMK AO2 SLP184 T02440100=
201807240353 METAR KSEA 240353Z 32006KT 10SM FEW060 FEW250 26/10 A3005 RMK AO2 SLP178 T02610100=
201807240253 METAR KSEA 240253Z 34008KT 10SM FEW060 FEW250 29/08 A3005 RMK AO2 SLP179 T02940078 56005=
201807240153 METAR KSEA 240153Z 34010KT 10SM FEW060 FEW250 31/08 A3005 RMK AO2 SLP179 T03110078=
201807240053 METAR KSEA 240053Z 01009KT 10SM FEW060 FEW250 32/08 A3005 RMK AO2 SLP181 T03220078=
201807232353 METAR KSEA 232353Z 36010KT 10SM FEW055 32/08 A3007 RMK AO2 SLP184 T03220083 10322 20256 56011=
201807232253 METAR KSEA 232253Z 32009KT 10SM FEW055 32/09 A3008 RMK AO2 SLP187 T03220094=
201807232153 METAR KSEA 232153Z 30009KT 10SM FEW055 31/12 A3008 RMK AO2 SLP191 T03060117=
201807232053 METAR KSEA 232053Z 28008KT 10SM FEW055 30/12 A3010 RMK AO2 SLP195 T03000117 58007=
201807231953 METAR KSEA 231953Z 31009KT 10SM FEW050 29/12 A3011 RMK AO2 SLP198 T02890117=
201807231853 METAR KSEA 231853Z 27007KT 10SM FEW050 27/12 A3012 RMK AO2 SLP202 T02720117=
201807231753 METAR KSEA 231753Z VRB05KT 10SM FEW050 26/12 A3012 RMK AO2 SLP203 T02560122 10256 20172 58004=
201807231653 METAR KSEA 231653Z 28005KT 10SM CLR 24/12 A3013 RMK AO2 SLP206 T02390122=
201807231553 METAR KSEA 231553Z VRB03KT 10SM CLR 23/13 A3014 RMK AO2 SLP209 T02330128=
201807231453 METAR KSEA 231453Z 00000KT 10SM CLR 21/12 A3013 RMK AO2 SLP207 T02060122 51006=
201807231353 METAR KSEA 231353Z 35003KT 10SM CLR 19/12 A3013 RMK AO2 SLP206 T01940117=
201807231253 METAR KSEA 231253Z 36003KT 10SM CLR 18/11 A3012 RMK AO2 SLP203 T01780111=
201807231153 METAR KSEA 231153Z 00000KT 10SM CLR 18/11 A3011 RMK AO2 SLP201 T01780106 10228 20172 55001=
201807231053 METAR KSEA 231053Z 05003KT 10SM CLR 20/11 A3011 RMK AO2 SLP200 T02000106=
201807230953 METAR KSEA 230953Z 00000KT 10SM CLR 19/10 A3012 RMK AO2 SLP201 T01940100=
201807230853 METAR KSEA 230853Z 03008KT 10SM CLR 21/11 A3012 RMK AO2 SLP201 T02110111 50000=
201807230753 METAR KSEA 230753Z 04009KT 10SM CLR 22/12 A3012 RMK AO2 SLP202 T02220117 403000161=
201807230653 METAR KSEA 230653Z 03010KT 10SM CLR 23/12 A3012 RMK AO2 SLP202 T02280122=
201807230553 METAR KSEA 230553Z 36008KT 10SM CLR 23/11 A3011 RMK AO2 SLP201 T02280111 10300 20228 53005=
201807230453 METAR KSEA 230453Z 36009KT 10SM CLR 24/09 A3011 RMK AO2 SLP199 T02440089=
201807230353 METAR KSEA 230353Z 36009KT 10SM CLR 25/09 A3010 RMK AO2 SLP196 T02500089=
201807230253 METAR KSEA 230253Z 35011KT 10SM CLR 27/07 A3010 RMK AO2 SLP196 T02720072 56006=
201807230153 METAR KSEA 230153Z 35010KT 10SM CLR 29/08 A3010 RMK AO2 SLP197 T02890083=
201807230053 METAR KSEA 230053Z 30009KT 10SM FEW030 29/11 A3011 RMK AO2 SLP198 T02940106=
201807222353 METAR KSEA 222353Z 30008KT 10SM FEW030 29/11 A3012 RMK AO2 SLP202 T02940106 10300 20228 58018=
201807222253 METAR KSEA 222253Z 30009KT 10SM FEW030 30/11 A3014 RMK AO2 SLP209 T03000111=
201807222153 METAR KSEA 222153Z 29008KT 10SM FEW030 28/11 A3015 RMK AO2 SLP215 T02830111=
201807222053 METAR KSEA 222053Z 28009KT 10SM CLR 27/11 A3017 RMK AO2 SLP220 T02670111 58012=
201807221953 METAR KSEA 221953Z 29009KT 10SM CLR 26/11 A3018 RMK AO2 SLP224 T02610111=
201807221853 METAR KSEA 221853Z 33007KT 10SM CLR 26/11 A3020 RMK AO2 SLP230 T02560106=
201807221753 METAR KSEA 221753Z 02009KT 10SM CLR 23/11 A3021 RMK AO2 SLP233 T02330106 10239 20161 58003=
201807221653 METAR KSEA 221653Z 36009KT 10SM CLR 22/10 A3021 RMK AO2 SLP235 T02220100=
201807221644 SPECI KSEA 221644Z 36005KT 10SM CLR 22/11 A3022 RMK AO2 T02170106=
201807221553 METAR KSEA 221553Z 01004KT 10SM CLR 21/09 A3022 RMK AO2 SLP237 T02060094=
201807221453 METAR KSEA 221453Z 03007KT 10SM CLR 18/09 A3022 RMK AO2 SLP237 T01830094 51004=
201807221353 METAR KSEA 221353Z 03006KT 10SM CLR 17/09 A3022 RMK AO2 SLP237 T01720094=
201807221253 METAR KSEA 221253Z 05005KT 10SM CLR 16/09 A3021 RMK AO2 SLP233 T01610094=
201807221153 METAR KSEA 221153Z 04006KT 10SM CLR 17/09 A3020 RMK AO2 SLP232 T01670094 10194 20167 53001=
201807221053 METAR KSEA 221053Z 04007KT 10SM CLR 17/09 A3020 RMK AO2 SLP230 T01670089=
201807220953 METAR KSEA 220953Z 04005KT 10SM CLR 17/09 A3020 RMK AO2 SLP232 T01720094=
201807220853 METAR KSEA 220853Z VRB04KT 10SM FEW200 18/09 A3020 RMK AO2 SLP232 T01780094 51002=
201807220753 METAR KSEA 220753Z 03007KT 10SM FEW200 18/09 A3020 RMK AO2 SLP231 T01830094 402610133=
201807220653 METAR KSEA 220653Z 01006KT 10SM FEW200 18/09 A3020 RMK AO2 SLP231 T01780089=
201807220553 METAR KSEA 220553Z 36008KT 10SM FEW200 19/09 A3020 RMK AO2 SLP229 T01890089 10261 20189 53008=
201807220453 METAR KSEA 220453Z 33006KT 10SM FEW200 19/08 A3019 RMK AO2 SLP227 T01940078=
201807220353 METAR KSEA 220353Z 35007KT 10SM FEW200 21/07 A3018 RMK AO2 SLP223 T02110072=
201807220253 METAR KSEA 220253Z 34009KT 10SM FEW035 FEW250 23/06 A3017 RMK AO2 SLP221 T02330061 53003=
201807220153 METAR KSEA 220153Z 35012KT 10SM FEW035 FEW250 24/05 A3017 RMK AO2 SLP219 T02440050=
201807220053 METAR KSEA 220053Z 01010G17KT 10SM FEW030 FEW250 25/06 A3016 RMK AO2 SLP219 T02500061=
201807212353 METAR KSEA 212353Z 30009KT 10SM FEW030 SCT250 25/06 A3016 RMK AO2 SLP218 T02500061 10250 20194 56003=
201807212253 METAR KSEA 212253Z 29008KT 10SM FEW030 SCT200 24/08 A3016 RMK AO2 SLP218 T02440078=
201807212153 METAR KSEA 212153Z 29008KT 10SM FEW030 FEW200 24/08 A3016 RMK AO2 SLP218 T02440078=
201807212053 METAR KSEA 212053Z 30009KT 10SM FEW030 FEW250 23/08 A3017 RMK AO2 SLP221 T02330078 55003=
201807211953 METAR KSEA 211953Z 29010KT 10SM FEW023 22/10 A3017 RMK AO2 SLP221 T02220100=
201807211853 METAR KSEA 211853Z 28006KT 10SM FEW023 21/11 A3017 RMK AO2 SLP222 T02110106=
201807211753 METAR KSEA 211753Z 28009KT 10SM FEW023 19/11 A3018 RMK AO2 SLP224 T01940106 10194 20133 51010=
201807211653 METAR KSEA 211653Z 26004KT 10SM SCT023 18/11 A3018 RMK AO2 SLP224 T01780106=
201807211644 SPECI KSEA 211644Z 28005KT 10SM SCT023 17/11 A3018 RMK AO2 T01720106=
201807211603 SPECI KSEA 211603Z 27005KT 10SM BKN023 16/11 A3017 RMK AO2 T01610106=
201807211553 METAR KSEA 211553Z VRB04KT 10SM SCT023 BKN040 17/11 A3017 RMK AO2 SLP222 T01670106=
201807211453 METAR KSEA 211453Z 18005KT 10SM FEW040 16/11 A3015 RMK AO2 SLP214 T01560111 51004=
201807211353 METAR KSEA 211353Z 17004KT 10SM FEW060 14/10 A3014 RMK AO2 SLP211 T01440100=
201807211253 METAR KSEA 211253Z 00000KT 10SM FEW070 14/09 A3015 RMK AO2 SLP213 T01440089=
201807211153 METAR KSEA 211153Z 06006KT 10SM FEW060 14/09 A3014 RMK AO2 SLP209 T01440094 10189 20139 51006=
201807211053 METAR KSEA 211053Z 03006KT 10SM CLR 15/09 A3014 RMK AO2 SLP209 T01500089=
201807210953 METAR KSEA 210953Z 35006KT 10SM CLR 14/09 A3013 RMK AO2 SLP206 T01390089=
201807210853 METAR KSEA 210853Z 04006KT 10SM FEW075 16/09 A3012 RMK AO2 SLP203 T01610089 58005=
201807210753 METAR KSEA 210753Z 02007KT 10SM FEW055 BKN075 17/09 A3013 RMK AO2 SLP206 T01720094 402330128=
201807210653 METAR KSEA 210653Z 02010KT 10SM BKN075 18/09 A3013 RMK AO2 SLP207 T01780089=
201807210553 METAR KSEA 210553Z 36010KT 10SM OVC060 19/09 A3013 RMK AO2 SLP208 T01890094 10233 20189 51004=
201807210453 METAR KSEA 210453Z 01010KT 10SM BKN060 21/09 A3013 RMK AO2 SLP207 T02060089=
201807210353 METAR KSEA 210353Z 35007KT 10SM BKN060 21/07 A3013 RMK AO2 SLP206 T02110067=
201807210253 METAR KSEA 210253Z 31005KT 10SM FEW050 22/08 A3012 RMK AO2 SLP204 T02170078 55009=
201807210153 METAR KSEA 210153Z 32006KT 10SM FEW040 23/08 A3012 RMK AO2 SLP203 T02280078=
201807210053 METAR KSEA 210053Z 29006KT 10SM FEW040 23/07 A3013 RMK AO2 SLP208 T02280067=
201807202353 METAR KSEA 202353Z VRB05KT 10SM FEW040 22/08 A3015 RMK AO2 SLP213 T02170078 10228 20167 58012=
201807202253 METAR KSEA 202253Z 25007KT 210V270 10SM SCT040 23/08 A3016 RMK AO2 SLP218 T02280078=
201807202153 METAR KSEA 202153Z 29004KT 10SM SCT035 22/09 A3017 RMK AO2 SLP222 T02170089=
201807202053 METAR KSEA 202053Z 00000KT 10SM FEW035 21/09 A3018 RMK AO2 SLP225 T02060089 58007=
201807201953 METAR KSEA 201953Z 16009KT 10SM FEW030 FEW045 19/10 A3020 RMK AO2 SLP230 T01940100=
201807201853 METAR KSEA 201853Z 25009KT 190V280 10SM FEW029 FEW045 18/09 A3020 RMK AO2 SLP231 T01830094=
201807201814 SPECI KSEA 201814Z 20007KT 10SM FEW022 SCT029 18/09 A3020 RMK AO2 T01780094=
201807201753 METAR KSEA 201753Z 17007KT 10SM FEW022 BKN029 17/09 A3020 RMK AO2 SLP233 T01670094 10172 20128 50002=
201807201653 METAR KSEA 201653Z 22005KT 10SM OVC024 14/09 A3020 RMK AO2 SLP234 T01440089=
201807201553 METAR KSEA 201553Z 20007KT 10SM OVC022 14/09 A3021 RMK AO2 SLP234 T01390089=
201807201453 METAR KSEA 201453Z 23007KT 10SM FEW012 OVC016 13/09 A3020 RMK AO2 SLP231 T01330089 53009=
201807201353 METAR KSEA 201353Z 20008KT 10SM FEW012 OVC017 13/09 A3018 RMK AO2 SLP226 T01280094=
201807201253 METAR KSEA 201253Z 21006KT 10SM OVC015 13/10 A3017 RMK AO2 SLP223 T01330100=
201807201153 METAR KSEA 201153Z 26004KT 10SM OVC015 14/10 A3017 RMK AO2 SLP222 T01390100 10178 20139 51009=
201807201053 METAR KSEA 201053Z 22004KT 10SM OVC015 14/11 A3016 RMK AO2 SLP220 T01390111=
201807200953 METAR KSEA 200953Z 28004KT 10SM OVC015 14/11 A3016 RMK AO2 SLP217 T01390111=
201807200900 SPECI KSEA 200900Z 24005KT 10SM BKN028 OVC037 15/12 A3014 RMK AO2 T01500117=
201807200853 METAR KSEA 200853Z 25004KT 10SM BKN030 OVC037 15/12 A3014 RMK AO2 SLP213 T01500117 56004=
201807200753 METAR KSEA 200753Z 30004KT 10SM OVC031 16/12 A3015 RMK AO2 SLP214 T01560117 402110122=
201807200653 METAR KSEA 200653Z 21005KT 10SM OVC031 17/11 A3014 RMK AO2 SLP213 T01720106=
201807200553 METAR KSEA 200553Z 28003KT 10SM OVC031 18/11 A3016 RMK AO2 SLP217 T01780106 10206 20178 58001=
201807200453 METAR KSEA 200453Z 22004KT 10SM SCT029 BKN041 18/11 A3017 RMK AO2 SLP220 T01780111=
201807200432 SPECI KSEA 200432Z 25004KT 10SM OVC029 18/11 A3017 RMK AO2 T01780106=
201807200353 METAR KSEA 200353Z 23005KT 10SM BKN035 18/10 A3016 RMK AO2 SLP220 T01830100=
201807200253 METAR KSEA 200253Z 25005KT 10SM BKN043 18/10 A3016 RMK AO2 SLP218 T01830100 56001=
201807200153 METAR KSEA 200153Z 26006KT 10SM BKN042 18/10 A3016 RMK AO2 SLP218 T01830100=
201807200053 METAR KSEA 200053Z 24006KT 10SM BKN044 18/10 A3016 RMK AO2 SLP219 T01830100=
201807192353 METAR KSEA 192353Z 25010KT 10SM BKN043 21/10 A3016 RMK AO2 SLP220 T02060100 10211 20144 58010=
201807192253 METAR KSEA 192253Z 26007KT 10SM BKN043 20/09 A3018 RMK AO2 SLP225 T02000089=
201807192153 METAR KSEA 192153Z 22008KT 10SM FEW030 BKN045 20/11 A3018 RMK AO2 SLP226 T02000106=
201807192053 METAR KSEA 192053Z 21008KT 10SM SCT028 OVC042 19/11 A3020 RMK AO2 SLP230 T01940106 50000=
201807192043 SPECI KSEA 192043Z 20007KT 10SM SCT027 OVC042 18/11 A3019 RMK AO2 T01830106=
201807191953 METAR KSEA 191953Z 20006KT 10SM FEW011 OVC016 16/11 A3020 RMK AO2 SLP233 T01610111=
201807191910 SPECI KSEA 191910Z 20007KT 10SM FEW009 OVC014 16/11 A3020 RMK AO2 T01610111=
201807191853 METAR KSEA 191853Z 22010KT 10SM BKN012 OVC020 15/11 A3020 RMK AO2 SLP232 T01500111=
201807191834 SPECI KSEA 191834Z 22009KT 10SM BKN012 OVC020 15/11 A3020 RMK AO2 T01500111=
201807191753 METAR KSEA 191753Z 22007KT 9SM FEW012 OVC016 15/11 A3019 RMK AO2 SLP230 T01500111 10156 20122 50003=
201807191742 SPECI KSEA 191742Z 21008KT 10SM OVC014 14/11 A3019 RMK AO2 T01440106=
201807191653 METAR KSEA 191653Z 23007KT 10SM OVC017 15/11 A3020 RMK AO2 SLP231 T01500106=
201807191553 METAR KSEA 191553Z 18005KT 10SM OVC016 14/10 A3019 RMK AO2 SLP226 T01440100=
201807191453 METAR KSEA 191453Z 19006KT 10SM OVC015 14/10 A3019 RMK AO2 SLP227 T01440100 53009=
201807191446 SPECI KSEA 191446Z 16008KT 10SM OVC015 14/10 A3018 RMK AO2 T01440100=
201807191353 METAR KSEA 191353Z 18006KT 10SM OVC014 14/10 A3017 RMK AO2 SLP222 T01390100=
201807191253 METAR KSEA 191253Z 17005KT 10SM BKN012 OVC030 13/10 A3016 RMK AO2 SLP217 T01330100=
201807191244 SPECI KSEA 191244Z 16005KT 10SM BKN012 OVC030 13/10 A3016 RMK AO2 T01330100=
201807191221 SPECI KSEA 191221Z 17005KT 10SM SCT013 BKN030 13/10 A3016 RMK AO2 T01280100=
201807191153 METAR KSEA 191153Z 17004KT 10SM FEW011 BKN021 12/10 A3016 RMK AO2 SLP217 T01220100 10172 20122 50000=
201807191053 METAR KSEA 191053Z 20004KT 10SM OVC020 13/11 A3016 RMK AO2 SLP217 T01330106=
201807190953 METAR KSEA 190953Z 22004KT 10SM OVC022 14/11 A3016 RMK AO2 SLP217 T01390106=
201807190853 METAR KSEA 190853Z 25004KT 10SM BKN033 15/11 A3016 RMK AO2 SLP216 T01500106 50000=
201807190811 SPECI KSEA 190811Z 23003KT 10SM BKN023 BKN039 14/11 A3016 RMK AO2 T01440106=
201807190753 METAR KSEA 190753Z 23004KT 10SM BKN039 15/11 A3016 RMK AO2 SLP217 T01500106 402500150=
201807190653 METAR KSEA 190653Z 26003KT 10SM SCT046 16/11 A3016 RMK AO2 SLP218 T01560111=
201807190553 METAR KSEA 190553Z 27004KT 10SM SCT044 17/11 A3016 RMK AO2 SLP216 T01670111 10250 20161 51012=
201807190453 METAR KSEA 190453Z 31005KT 10SM BKN045 17/12 A3016 RMK AO2 SLP217 T01670117=
201807190353 METAR KSEA 190353Z 27005KT 10SM SCT040 SCT250 21/13 A3014 RMK AO2 SLP209 T02060133=
201807190253 METAR KSEA 190253Z 23006KT 10SM FEW040 SCT250 23/13 A3012 RMK AO2 SLP205 T02280133 56012=
201807190153 METAR KSEA 190153Z 21008KT 10SM FEW030 SCT250 24/14 A3013 RMK AO2 SLP208 T02390139=
201807190053 METAR KSEA 190053Z 19006KT 10SM FEW030 FEW250 24/14 A3014 RMK AO2 SLP211 T02440139=
201807182353 METAR KSEA 182353Z VRB04KT 10SM FEW030 FEW250 24/13 A3016 RMK AO2 SLP217 T02440128 10244 20178 58014=
201807182253 METAR KSEA 182253Z 22007KT 180V280 10SM FEW025 FEW250 23/13 A3017 RMK AO2 SLP221 T02330133=
201807182153 METAR KSEA 182153Z VRB04KT 10SM FEW025 23/13 A3019 RMK AO2 SLP227 T02280133=
201807182053 METAR KSEA 182053Z 24007KT 10SM FEW025 22/13 A3020 RMK AO2 SLP230 T02170128 58001=
201807181953 METAR KSEA 181953Z 18007KT 10SM SCT023 21/13 A3020 RMK AO2 SLP232 T02110128=
201807181853 METAR KSEA 181853Z 24005KT 10SM FEW014 OVC020 18/12 A3021 RMK AO2 SLP234 T01830122=
201807181753 METAR KSEA 181753Z 22008KT 10SM FEW013 OVC021 18/12 A3020 RMK AO2 SLP232 T01830122 10183 20156 51006=
201807181653 METAR KSEA 181653Z 24006KT 10SM SCT011 OVC016 17/13 A3020 RMK AO2 SLP232 T01720128=
201807181645 SPECI KSEA 181645Z 22007KT 10SM SCT011 OVC017 17/12 A3020 RMK AO2 T01720122=
201807181553 METAR KSEA 181553Z 19006KT 10SM FEW008 OVC012 16/13 A3020 RMK AO2 SLP230 T01610128=
201807181453 METAR KSEA 181453Z 20005KT 10SM FEW009 OVC014 16/13 A3018 RMK AO2 SLP225 T01610128 53015=
201807181353 METAR KSEA 181353Z 24005KT 9SM SCT008 OVC012 16/13 A3017 RMK AO2 SLP218 T01560133=
201807181346 SPECI KSEA 181346Z 25004KT 8SM FEW009 OVC014 16/13 A3017 RMK AO2 T01560128=
201807181253 METAR KSEA 181253Z 22004KT 10SM FEW009 OVC015 16/13 A3015 RMK AO2 SLP212 T01560128=
201807181247 SPECI KSEA 181247Z 24005KT 10SM FEW009 OVC015 16/13 A3015 RMK AO2=
201807181239 SPECI KSEA 181239Z 22005KT 10SM FEW009 OVC014 16/13 A3014 RMK AO2 T01560128=
201807181153 METAR KSEA 181153Z 21005KT 10SM OVC013 16/13 A3014 RMK AO2 SLP209 T01560128 10167 20156 53010=
201807181053 METAR KSEA 181053Z 23007KT 10SM OVC014 16/13 A3013 RMK AO2 SLP205 T01610128=
201807180953 METAR KSEA 180953Z 22007KT 10SM OVC014 16/13 A3012 RMK AO2 SLP201 T01610128=
201807180853 METAR KSEA 180853Z 20007KT 10SM OVC014 17/13 A3011 RMK AO2 SLP199 T01670128 51009=
201807180753 METAR KSEA 180753Z 22007KT 10SM OVC014 17/13 A3010 RMK AO2 SLP197 T01670128 402940156=
201807180653 METAR KSEA 180653Z 22008KT 10SM OVC012 17/13 A3009 RMK AO2 SLP194 T01670128=
201807180602 SPECI KSEA 180602Z 20007KT 10SM OVC014 16/13 A3008 RMK AO2 T01610128=
201807180553 METAR KSEA 180553Z 21008KT 10SM SCT015 16/13 A3008 RMK AO2 SLP191 T01560128 10294 20156 51022=
201807180453 METAR KSEA 180453Z 23007KT 10SM FEW015 17/13 A3007 RMK AO2 SLP186 T01720128=
201807180353 METAR KSEA 180353Z 23011G17KT 10SM CLR 19/13 A3004 RMK AO2 SLP177 T01890128=
201807180253 METAR KSEA 180253Z 25011KT 10SM CLR 23/12 A3002 RMK AO2 SLP169 T02330122 53001=
201807180153 METAR KSEA 180153Z 22010KT 10SM FEW050 27/12 A3001 RMK AO2 SLP165 T02720117=
201807180053 METAR KSEA 180053Z 21008KT 10SM FEW050 28/11 A3001 RMK AO2 SLP164 T02830111=
201807172353 METAR KSEA 172353Z 21008KT 10SM FEW050 29/12 A3001 RMK AO2 SLP167 T02940117 10294 20222 58009=
201807172253 METAR KSEA 172253Z 21007KT 10SM FEW050 28/12 A3003 RMK AO2 SLP171 T02780122=
201807172153 METAR KSEA 172153Z 22010KT 10SM FEW050 27/13 A3004 RMK AO2 SLP175 T02670133=
201807172053 METAR KSEA 172053Z 20011KT 10SM FEW050 FEW200 27/12 A3004 RMK AO2 SLP176 T02670122 58005=
201807171953 METAR KSEA 171953Z 20012KT 10SM FEW200 26/12 A3005 RMK AO2 SLP178 T02560122=
201807171853 METAR KSEA 171853Z 21011KT 10SM FEW200 23/12 A3005 RMK AO2 SLP180 T02330122=
201807171753 METAR KSEA 171753Z 19009KT 10SM FEW200 22/12 A3006 RMK AO2 SLP181 T02220122 10222 20156 50002=
201807171653 METAR KSEA 171653Z 19009KT 10SM FEW200 21/13 A3006 RMK AO2 SLP183 T02060128=
201807171553 METAR KSEA 171553Z 21010KT 10SM FEW200 19/12 A3005 RMK AO2 SLP181 T01890122=
201807171453 METAR KSEA 171453Z 21008KT 10SM FEW200 17/13 A3005 RMK AO2 SLP179 T01720128 53010=
201807171353 METAR KSEA 171353Z 19006KT 10SM FEW200 16/13 A3003 RMK AO2 SLP173 T01610128=
201807171253 METAR KSEA 171253Z 20009KT 10SM FEW200 16/13 A3002 RMK AO2 SLP170 T01610128=
201807171153 METAR KSEA 171153Z 16004KT 10SM CLR 16/12 A3002 RMK AO2 SLP168 T01610122 10239 20161 53007=
201807171053 METAR KSEA 171053Z 19004KT 10SM CLR 18/12 A3001 RMK AO2 SLP165 T01780117=
201807170953 METAR KSEA 170953Z 18004KT 10SM CLR 18/11 A3000 RMK AO2 SLP162 T01830106=
201807170853 METAR KSEA 170853Z 17003KT 10SM CLR 20/10 A3000 RMK AO2 SLP160 T02000100 51006=
201807170753 METAR KSEA 170753Z 00000KT 10SM CLR 22/10 A2999 RMK AO2 SLP159 T02220100 403330172=
201807170653 METAR KSEA 170653Z 32005KT 10SM CLR 23/09 A2999 RMK AO2 SLP158 T02280094=
201807170553 METAR KSEA 170553Z 27003KT 10SM CLR 23/08 A2998 RMK AO2 SLP155 T02330083 10328 20233 53005=
201807170453 METAR KSEA 170453Z 35004KT 10SM CLR 26/07 A2997 RMK AO2 SLP153 T02610072=
201807170353 METAR KSEA 170353Z 33006KT 10SM FEW250 28/07 A2997 RMK AO2 SLP151 T02780067=
201807170253 METAR KSEA 170253Z 33008KT 10SM FEW250 31/05 A2996 RMK AO2 SLP149 T03060050 55007=
201807170153 METAR KSEA 170153Z 34009KT 10SM FEW250 32/06 A2996 RMK AO2 SLP149 T03170056=
201807170053 METAR KSEA 170053Z 36011KT 10SM FEW250 33/06 A2997 RMK AO2 SLP152 T03280061=
201807162353 METAR KSEA 162353Z 36010KT 10SM FEW250 33/07 A2999 RMK AO2 SLP156 T03280072 10333 20250 58010=
201807162253 METAR KSEA 162253Z 36011KT 10SM FEW250 33/06 A3000 RMK AO2 SLP161 T03280061=
201807162153 METAR KSEA 162153Z 01011KT 10SM FEW200 32/07 A3001 RMK AO2 SLP165 T03220067=
201807162053 METAR KSEA 162053Z 34008KT 10SM FEW200 32/08 A3002 RMK AO2 WSHFT 2008 SLP167 T03170083 58008=
201807162028 SPECI KSEA 162028Z 01011KT 10SM FEW200 31/08 A3002 RMK AO2 WSHFT 2008 T03060083=
201807161953 METAR KSEA 161953Z 29008KT 10SM FEW200 29/10 A3003 RMK AO2 SLP171 T02940100=
201807161853 METAR KSEA 161853Z 31006KT 10SM FEW200 27/11 A3004 RMK AO2 SLP174 T02720106=
201807161753 METAR KSEA 161753Z 27007KT 10SM FEW200 26/11 A3004 RMK AO2 SLP175 T02560106 10256 20172 50000=
201807161653 METAR KSEA 161653Z 29007KT 10SM FEW200 23/11 A3005 RMK AO2 SLP179 T02330111=
201807161553 METAR KSEA 161553Z 29005KT 10SM FEW200 22/12 A3004 RMK AO2 SLP177 T02170117=
201807161453 METAR KSEA 161453Z 30004KT 10SM FEW200 20/11 A3004 RMK AO2 SLP176 T02000111 51010=
201807161353 METAR KSEA 161353Z 31003KT 10SM FEW200 19/09 A3003 RMK AO2 SLP172 T01890094=
201807161253 METAR KSEA 161253Z 00000KT 10SM FEW200 18/09 A3002 RMK AO2 SLP168 T01780089 $=
201807161153 METAR KSEA 161153Z 01004KT 10SM CLR 18/09 A3001 RMK AO2 SLP165 T01780089 10256 20172 53005 $=
201807161053 METAR KSEA 161053Z 29003KT 10SM CLR 19/09 A3001 RMK AO2 SLP163 T01890094 $=
201807160953 METAR KSEA 160953Z 04004KT 10SM CLR 21/08 A3000 RMK AO2 SLP160 T02110083 $=
201807160853 METAR KSEA 160853Z 04006KT 10SM CLR 22/08 A3000 RMK AO2 SLP160 T02220083 51005 $=
201807160753 METAR KSEA 160753Z 02006KT 10SM CLR 23/09 A2999 RMK AO2 SLP158 T02330094 403390172 $=
201807160653 METAR KSEA 160653Z 01007KT 10SM CLR 24/08 A2999 RMK AO2 SLP157 T02440078 $=
201807160553 METAR KSEA 160553Z 03010KT 10SM CLR 26/08 A2998 RMK AO2 SLP154 T02560083 10339 20250 51010 $=
201807160453 METAR KSEA 160453Z 35008KT 10SM FEW200 25/09 A2997 RMK AO2 SLP152 T02500089 $=
201807160353 METAR KSEA 160353Z 36007KT 10SM FEW200 28/11 A2996 RMK AO2 SLP147 T02780106 $=
201807160253 METAR KSEA 160253Z 34009KT 10SM FEW150 30/10 A2995 RMK AO2 SLP144 T03000100 55002 $=
201807160153 METAR KSEA 160153Z 33011KT 10SM FEW150 32/10 A2994 RMK AO2 SLP142 T03170100 $=
201807160053 METAR KSEA 160053Z 33010KT 10SM FEW150 33/09 A2995 RMK AO2 SLP143 T03330089 $=
201807152353 METAR KSEA 152353Z 35009KT 10SM FEW150 33/11 A2996 RMK AO2 SLP146 T03330111 10339 20272 58015 $=
201807152253 METAR KSEA 152253Z 01009KT 10SM FEW150 33/11 A2997 RMK AO2 SLP152 T03330106 $=
201807152153 METAR KSEA 152153Z 36009KT 330V030 10SM FEW150 32/11 A2999 RMK AO2 SLP158 T03220111 $=
201807152053 METAR KSEA 152053Z 33010KT 10SM FEW190 32/11 A3000 RMK AO2 SLP161 T03170111 58010 $=
201807151953 METAR KSEA 151953Z 36007KT 10SM FEW200 31/12 A3002 RMK AO2 SLP166 T03060117 $=
201807151853 METAR KSEA 151853Z 01006KT 10SM FEW200 29/12 A3002 RMK AO2 SLP168 T02890117 $=
201807151753 METAR KSEA 151753Z 02009KT 10SM FEW200 27/11 A3003 RMK AO2 SLP171 T02720111 10272 20172 58006 $=
201807151653 METAR KSEA 151653Z 35010KT 10SM FEW200 26/12 A3004 RMK AO2 SLP175 T02560117 $=
201807151553 METAR KSEA 151553Z 32007KT 10SM FEW200 24/13 A3005 RMK AO2 SLP178 T02440128 $=
201807151453 METAR KSEA 151453Z 05004KT 10SM FEW240 22/13 A3005 RMK AO2 SLP178 T02220128 53004 $=
201807151353 METAR KSEA 151353Z 05004KT 10SM FEW230 20/13 A3005 RMK AO2 SLP177 T02000128 $=
201807151253 METAR KSEA 151253Z 00000KT 10SM FEW220 18/12 A3004 RMK AO2 SLP175 T01780117 $=
201807151153 METAR KSEA 151153Z 32003KT 10SM FEW250 18/11 A3004 RMK AO2 SLP175 T01780106 10244 20178 55002 $=
201807151053 METAR KSEA 151053Z 05005KT 10SM CLR 20/11 A3004 RMK AO2 SLP175 T02000106 $=
201807150953 METAR KSEA 150953Z 00000KT 10SM CLR 21/12 A3004 RMK AO2 SLP177 T02060117 $=
201807150853 METAR KSEA 150853Z 01006KT 10SM CLR 21/11 A3004 RMK AO2 SLP177 T02060111 55001 $=
201807150753 METAR KSEA 150753Z 35006KT 10SM CLR 21/11 A3004 RMK AO2 SLP176 T02110106 403060144 $=
201807150653 METAR KSEA 150653Z 02008KT 10SM CLR 24/10 A3004 RMK AO2 SLP176 T02390100 $=
201807150553 METAR KSEA 150553Z 02009KT 10SM FEW200 24/10 A3005 RMK AO2 SLP178 T02440100 10306 20233 50000 $=
201807150453 METAR KSEA 150453Z 36007KT 10SM FEW200 24/10 A3005 RMK AO2 SLP180 T02390100 $=
201807150353 METAR KSEA 150353Z 35008KT 10SM FEW200 25/11 A3005 RMK AO2 SLP178 T02500106 $=
201807150253 METAR KSEA 150253Z 35010KT 10SM FEW200 28/10 A3005 RMK AO2 SLP178 T02780100 56010 $=
201807150153 METAR KSEA 150153Z 36011KT 10SM FEW200 29/11 A3005 RMK AO2 SLP180 T02940111 $=
201807150053 METAR KSEA 150053Z 34012KT 10SM FEW200 31/09 A3006 RMK AO2 SLP182 T03060094 $=
201807142353 METAR KSEA 142353Z 02009KT 10SM CLR 31/11 A3007 RMK AO2 SLP188 T03060106 10306 20228 58014 $=
201807142253 METAR KSEA 142253Z 36009KT 10SM CLR 29/12 A3009 RMK AO2 SLP193 T02940117 $=
201807142153 METAR KSEA 142153Z VRB04KT 10SM CLR 28/12 A3010 RMK AO2 SLP197 T02830122 $=
201807142053 METAR KSEA 142053Z 36008KT 330V030 10SM CLR 27/11 A3012 RMK AO2 SLP201 T02720111 58010 $=
201807141953 METAR KSEA 141953Z 33008KT 10SM CLR 27/11 A3013 RMK AO2 SLP206 T02670111 $=
201807141853 METAR KSEA 141853Z 01011KT 10SM CLR 24/11 A3013 RMK AO2 SLP208 T02440111 $=
201807141753 METAR KSEA 141753Z 27008KT 10SM CLR 23/12 A3015 RMK AO2 SLP211 T02280117 10233 20144 58005 $=
201807141653 METAR KSEA 141653Z 28005KT 10SM CLR 21/12 A3015 RMK AO2 SLP214 T02060117 $=
201807141553 METAR KSEA 141553Z VRB04KT 10SM CLR 21/10 A3016 RMK AO2 SLP216 T02060100 $=
201807141453 METAR KSEA 141453Z 00000KT 10SM CLR 18/12 A3016 RMK AO2 SLP217 T01830117 51006 $=
201807141353 METAR KSEA 141353Z 17003KT 10SM CLR 16/12 A3016 RMK AO2 SLP215 T01560117 $=
201807141253 METAR KSEA 141253Z 20003KT 10SM CLR 15/11 A3015 RMK AO2 SLP213 T01500111 $=
201807141153 METAR KSEA 141153Z 00000KT 10SM SCT060 15/11 A3014 RMK AO2 SLP210 T01500106 10217 20150 52010 $=
201807141053 METAR KSEA 141053Z 26003KT 10SM SCT065 16/11 A3013 RMK AO2 SLP206 T01560106 $=
201807140953 METAR KSEA 140953Z 25003KT 10SM BKN065 17/11 A3012 RMK AO2 SLP204 T01670106 $=
201807140853 METAR KSEA 140853Z 00000KT 10SM SCT060 18/11 A3011 RMK AO2 SLP200 T01780106 53013 $=
201807140753 METAR KSEA 140753Z 26003KT 10SM CLR 19/11 A3009 RMK AO2 SLP194 T01890106 402940161 $=
201807140653 METAR KSEA 140653Z 34005KT 10SM CLR 20/10 A3008 RMK AO2 SLP190 T02000100 $=
201807140553 METAR KSEA 140553Z 00000KT 10SM FEW250 21/10 A3007 RMK AO2 SLP187 T02110100 10294 20211 53013 $=
201807140453 METAR KSEA 140453Z 35007KT 10SM FEW250 23/09 A3006 RMK AO2 SLP183 T02280094 $=
201807140353 METAR KSEA 140353Z 35010KT 10SM SCT250 24/09 A3005 RMK AO2 SLP177 T02390094 $=
201807140253 METAR KSEA 140253Z 31006KT 10SM SCT250 28/11 A3004 RMK AO2 SLP174 T02780106 55004 $=
201807140153 METAR KSEA 140153Z 29005KT 10SM SCT250 28/12 A3003 RMK AO2 SLP173 T02830117 $=
201807140053 METAR KSEA 140053Z 30004KT 10SM SCT250 29/12 A3004 RMK AO2 SLP174 T02890117 $=
201807132353 METAR KSEA 132353Z VRB06KT 10SM SCT250 29/12 A3005 RMK AO2 SLP178 T02890117 10294 20233 58007 $=
201807132253 METAR KSEA 132253Z 33005KT 10SM SCT250 29/11 A3005 RMK AO2 SLP180 T02890111 $=
201807132153 METAR KSEA 132153Z VRB05KT 10SM SCT250 29/11 A3006 RMK AO2 SLP183 T02890106 $=
201807132053 METAR KSEA 132053Z 31008KT 10SM SCT250 27/10 A3007 RMK AO2 SLP185 T02720100 56002 $=
201807131953 METAR KSEA 131953Z 32008KT 10SM FEW250 26/11 A3007 RMK AO2 SLP186 T02610111 $=
201807131853 METAR KSEA 131853Z 27008KT 10SM FEW250 24/12 A3007 RMK AO2 SLP185 T02440122 $=
201807131753 METAR KSEA 131753Z 29008KT 10SM FEW250 24/12 A3007 RMK AO2 SLP187 T02390122 10239 20161 50000 $=
201807131653 METAR KSEA 131653Z 28006KT 10SM FEW250 22/13 A3008 RMK AO2 SLP190 T02220128 $=
201807131553 METAR KSEA 131553Z 34005KT 10SM FEW250 21/12 A3008 RMK AO2 SLP189 T02110122 $=
201807131453 METAR KSEA 131453Z 36006KT 10SM FEW250 20/12 A3007 RMK AO2 SLP187 T02000117 53010 $=
201807131353 METAR KSEA 131353Z 36005KT 10SM CLR 18/12 A3006 RMK AO2 SLP184 T01830117 $=
201807131253 METAR KSEA 131253Z 35005KT 10SM FEW250 16/11 A3005 RMK AO2 SLP179 T01610106 $=
201807131153 METAR KSEA 131153Z 01003KT 10SM CLR 17/11 A3004 RMK AO2 SLP177 T01670106 10233 20161 51003 $=
201807131053 METAR KSEA 131053Z 34007KT 10SM CLR 17/11 A3004 RMK AO2 SLP177 T01670111 $=
201807130953 METAR KSEA 130953Z 32004KT 10SM CLR 19/11 A3004 RMK AO2 SLP177 T01890111 $=
201807130853 METAR KSEA 130853Z 03009KT 10SM CLR 21/12 A3003 RMK AO2 SLP172 T02110117 52003 $=
201807130753 METAR KSEA 130753Z 04007KT 10SM CLR 22/13 A3003 RMK AO2 SLP170 T02220128 403170150 $=
201807130653 METAR KSEA 130653Z 36006KT 10SM CLR 22/12 A3003 RMK AO2 SLP172 T02170122 $=
201807130553 METAR KSEA 130553Z 35008KT 10SM CLR 23/12 A3002 RMK AO2 SLP170 T02330122 10311 20228 53005 $=
201807130453 METAR KSEA 130453Z 33006KT 10SM CLR 24/12 A3002 RMK AO2 SLP168 T02390122 $=
201807130353 METAR KSEA 130353Z 36008KT 10SM CLR 26/12 A3000 RMK AO2 SLP163 T02610122 $=
201807130253 METAR KSEA 130253Z 35008KT 10SM CLR 29/10 A3001 RMK AO2 SLP165 T02890100 56008 $=
201807130153 METAR KSEA 130153Z 35009KT 10SM CLR 30/12 A3001 RMK AO2 SLP167 T03000117 $=
201807130053 METAR KSEA 130053Z 36009KT 10SM CLR 30/11 A3002 RMK AO2 SLP171 T03000111 $=
201807122353 METAR KSEA 122353Z 36011KT 10SM CLR 31/11 A3003 RMK AO2 SLP173 T03110106 10317 20250 56014 $=
201807122253 METAR KSEA 122253Z 35010KT 10SM CLR 31/11 A3005 RMK AO2 SLP178 T03110111 $=
201807122153 METAR KSEA 122153Z 36009G15KT 10SM CLR 31/12 A3006 RMK AO2 SLP182 T03060122 $=
201807122053 METAR KSEA 122053Z 02007KT 340V040 10SM CLR 29/13 A3007 RMK AO2 SLP187 T02940128 58011 $=
201807121953 METAR KSEA 121953Z 31009KT 200V350 10SM CLR 28/14 A3009 RMK AO2 SLP192 T02830139 $=
201807121853 METAR KSEA 121853Z 03012G16KT 10SM CLR 27/13 A3010 RMK AO2 SLP196 T02670128 $=
201807121753 METAR KSEA 121753Z 36010KT 10SM CLR 26/13 A3011 RMK AO2 SLP198 T02560128 10256 20150 58003 $=
201807121653 METAR KSEA 121653Z VRB05KT 10SM CLR 23/13 A3011 RMK AO2 SLP199 T02280128=
201807121553 METAR KSEA 121553Z 29005KT 10SM CLR 21/13 A3012 RMK AO2 SLP203 T02060128=
201807121453 METAR KSEA 121453Z 03003KT 10SM CLR 21/13 A3011 RMK AO2 SLP201 T02060128 53004=
201807121353 METAR KSEA 121353Z 33003KT 10SM CLR 18/13 A3011 RMK AO2 SLP200 T01780128=
201807121253 METAR KSEA 121253Z 36004KT 10SM CLR 16/12 A3010 RMK AO2 SLP197 T01610117=
201807121153 METAR KSEA 121153Z 33003KT 10SM CLR 16/12 A3010 RMK AO2 SLP197 T01610117 10206 20156 55001=
201807121053 METAR KSEA 121053Z 36005KT 10SM CLR 17/11 A3010 RMK AO2 SLP195 T01670111=
201807120953 METAR KSEA 120953Z 05005KT 10SM CLR 18/12 A3010 RMK AO2 SLP196 T01830117=
201807120853 METAR KSEA 120853Z 06006KT 10SM CLR 19/12 A3010 RMK AO2 SLP197 T01890117 56003=
201807120753 METAR KSEA 120753Z 03008KT 10SM CLR 20/12 A3011 RMK AO2 SLP198 T02000117 402780150=
201807120653 METAR KSEA 120653Z 02009KT 10SM CLR 21/12 A3011 RMK AO2 SLP199 T02060117=
201807120553 METAR KSEA 120553Z 36006KT 10SM CLR 20/12 A3011 RMK AO2 SLP200 T02000117 10278 20200 51006=
201807120453 METAR KSEA 120453Z 36005KT 10SM CLR 21/12 A3011 RMK AO2 SLP199 T02110117=
201807120353 METAR KSEA 120353Z 34009KT 10SM CLR 22/12 A3010 RMK AO2 SLP197 T02220122=
201807120253 METAR KSEA 120253Z 33007KT 10SM FEW050 24/13 A3009 RMK AO2 SLP194 T02440128 55008=
201807120153 METAR KSEA 120153Z 33010KT 10SM FEW050 26/12 A3009 RMK AO2 SLP194 T02610117=
201807120053 METAR KSEA 120053Z 34009KT 10SM FEW050 27/12 A3010 RMK AO2 SLP197 T02720117=
201807112353 METAR KSEA 112353Z 01010KT 10SM FEW050 27/11 A3012 RMK AO2 SLP203 T02720111 10278 20222 58018=
201807112253 METAR KSEA 112253Z 36008KT 10SM FEW040 26/12 A3013 RMK AO2 SLP209 T02610122=
201807112153 METAR KSEA 112153Z 32007KT 10SM FEW040 26/12 A3015 RMK AO2 SLP216 T02610122=
201807112053 METAR KSEA 112053Z 34008KT 10SM FEW040 26/12 A3017 RMK AO2 SLP221 T02560122 58015=
201807111953 METAR KSEA 111953Z 36009KT 320V030 10SM FEW040 25/12 A3019 RMK AO2 SLP228 T02500122=
201807111853 METAR KSEA 111853Z 36011G18KT 10SM FEW035 24/12 A3020 RMK AO2 SLP232 T02390122=
201807111753 METAR KSEA 111753Z 04011KT 10SM FEW035 23/12 A3022 RMK AO2 SLP236 T02280122 10228 20150 58005=
201807111653 METAR KSEA 111653Z 02008KT 10SM FEW030 FEW250 21/12 A3022 RMK AO2 SLP239 T02110122=
201807111553 METAR KSEA 111553Z 02009KT 10SM FEW250 19/12 A3023 RMK AO2 SLP240 T01890117=
201807111453 METAR KSEA 111453Z 35005KT 10SM FEW250 17/12 A3023 RMK AO2 SLP242 T01720117 55002=
201807111353 METAR KSEA 111353Z 01008KT 10SM FEW060 FEW250 16/12 A3023 RMK AO2 SLP241 T01560117=
201807111253 METAR KSEA 111253Z 05010KT 10SM FEW055 FEW250 15/11 A3023 RMK AO2 SLP243 T01500111=
201807111153 METAR KSEA 111153Z 04009KT 10SM FEW055 15/11 A3024 RMK AO2 SLP244 T01500111 10172 20150 51001=
201807111053 METAR KSEA 111053Z 05010KT 10SM CLR 15/11 A3024 RMK AO2 SLP244 T01500111=
201807110953 METAR KSEA 110953Z 05007KT 10SM CLR 16/11 A3024 RMK AO2 SLP244 T01560111=
201807110853 METAR KSEA 110853Z 03007KT 10SM CLR 16/11 A3024 RMK AO2 SLP243 T01610106 55005=
201807110753 METAR KSEA 110753Z 03007KT 10SM CLR 17/11 A3023 RMK AO2 SLP242 T01720106 402560144=
201807110653 METAR KSEA 110653Z 01007KT 10SM CLR 17/11 A3024 RMK AO2 SLP245 T01670106=
201807110553 METAR KSEA 110553Z 36006KT 10SM CLR 17/11 A3025 RMK AO2 SLP249 T01670106 10244 20167 50001=
201807110453 METAR KSEA 110453Z 35009KT 10SM FEW050 18/11 A3026 RMK AO2 SLP252 T01830106=
201807110353 METAR KSEA 110353Z 34010KT 10SM FEW050 FEW090 20/10 A3026 RMK AO2 SLP251 T02000100=
201807110253 METAR KSEA 110253Z 34009KT 10SM FEW048 SCT090 22/10 A3025 RMK AO2 SLP246 T02220100 56004=
201807110153 METAR KSEA 110153Z 31009KT 10SM SCT048 SCT090 23/10 A3025 RMK AO2 SLP247 T02330100=
201807110053 METAR KSEA 110053Z 35010G17KT 320V050 10SM SCT048 SCT090 24/10 A3025 RMK AO2 SLP247 T02390100=
201807102353 METAR KSEA 102353Z 00000KT 10SM SCT048 SCT080 24/11 A3026 RMK AO2 SLP250 T02390106 10256 20167 56010=
201807102253 METAR KSEA 102253Z 01007KT 330V030 10SM FEW035 SCT050 24/09 A3027 RMK AO2 SLP254 T02440094=
201807102153 METAR KSEA 102153Z 17004KT 10SM SCT038 BKN050 BKN250 22/11 A3027 RMK AO2 SLP256 T02220111=
201807102053 METAR KSEA 102053Z VRB04KT 10SM SCT025 BKN050 21/12 A3029 RMK AO2 SLP260 T02110117 58002=
201807101953 METAR KSEA 101953Z VRB03KT 10SM SCT024 BKN031 21/13 A3030 RMK AO2 SLP264 T02060128=
201807101912 SPECI KSEA 101912Z 24004KT 10SM SCT017 BKN031 18/12 A3030 RMK AO2 T01830117=
201807101853 METAR KSEA 101853Z 29005KT 10SM BKN016 BKN029 18/12 A3030 RMK AO2 SLP266 T01830122=
201807101810 SPECI KSEA 101810Z 00000KT 10SM BKN016 BKN025 17/12 A3030 RMK AO2 T01720122=
201807101753 METAR KSEA 101753Z 34004KT 10SM BKN013 BKN025 17/12 A3029 RMK AO2 SLP264 60000 T01670122 10167 20144 51016=
201807101700 SPECI KSEA 101700Z 26004KT 10SM BKN010 OVC023 16/12 A3028 RMK AO2 CIG 008V012 T01560122=
201807101653 METAR KSEA 101653Z VRB04KT 10SM BKN008 OVC023 16/12 A3028 RMK AO2 SLP260 T01560122=
201807101641 SPECI KSEA 101641Z 20003KT 10SM BKN008 OVC023 15/12 A3028 RMK AO2 CIG 007V013 T01500122=
201807101553 METAR KSEA 101553Z 26004KT 10SM OVC010 14/12 A3027 RMK AO2 SLP256 T01440122=
201807101539 SPECI KSEA 101539Z 23004KT 10SM OVC010 14/12 A3026 RMK AO2 CIG 006V012 T01440122=
201807101508 SPECI KSEA 101508Z 21006KT 10SM OVC008 14/13 A3025 RMK AO2 CIG 006V011 T01440128=
201807101453 METAR KSEA 101453Z 20007KT 10SM OVC010 14/13 A3024 RMK AO2 RAE26 CIG 006V012 SLP247 P0000 60000 T01440128 51012=
201807101353 METAR KSEA 101353Z 24005KT 6SM -RA BR OVC012 14/12 A3024 RMK AO2 SLP244 P0000 T01440122=
201807101253 METAR KSEA 101253Z 23005KT 6SM -RA BR OVC014 14/12 A3022 RMK AO2 RAB14 SLP239 P0000 T01440122=
201807101153 METAR KSEA 101153Z 22005KT 10SM OVC015 15/11 A3021 RMK AO2 SLP234 T01500111 10156 20150 51007=
201807101053 METAR KSEA 101053Z 21006KT 10SM OVC017 15/11 A3021 RMK AO2 SLP233 T01500111=
201807100953 METAR KSEA 100953Z 20005KT 10SM OVC019 16/11 A3020 RMK AO2 SLP230 T01560106=
201807100853 METAR KSEA 100853Z 19006KT 10SM BKN023 BKN032 OVC100 16/11 A3019 RMK AO2 SLP227 T01560106 51004=
201807100830 SPECI KSEA 100830Z 20006KT 10SM BKN023 BKN032 OVC110 16/11 A3019 RMK AO2 T01560106=
201807100753 METAR KSEA 100753Z 20006KT 10SM FEW026 BKN110 BKN250 16/11 A3019 RMK AO2 SLP226 T01560106 402220139=
201807100653 METAR KSEA 100653Z 20008KT 10SM FEW030 BKN100 BKN250 15/11 A3018 RMK AO2 SLP225 T01500106=
201807100553 METAR KSEA 100553Z 22007KT 10SM FEW027 BKN100 BKN250 16/11 A3017 RMK AO2 SLP223 60000 T01560111 10206 20156 50006=
201807100453 METAR KSEA 100453Z 24004KT 10SM FEW040 BKN100 BKN250 16/12 A3018 RMK AO2 SLP224 T01610117=
201807100353 METAR KSEA 100353Z 24008KT 10SM FEW040 BKN100 BKN250 17/12 A3016 RMK AO2 SLP220 T01670117=
201807100253 METAR KSEA 100253Z 21009KT 10SM FEW075 OVC110 18/12 A3016 RMK AO2 RAE28 SLP217 P0000 60000 T01830122 50001=
201807100153 METAR KSEA 100153Z 24007KT 10SM -RA FEW040 OVC100 18/12 A3016 RMK AO2 RAB51 SLP218 P0000 T01830117=
201807100053 METAR KSEA 100053Z 22007KT 10SM FEW040 BKN130 OVC200 20/12 A3016 RMK AO2 SLP218 T02000117=
201807092353 METAR KSEA 092353Z 22007KT 10SM FEW030 BKN140 BKN250 21/12 A3015 RMK AO2 SLP216 T02060122 10222 20172 53003=
201807092253 METAR KSEA 092253Z 22010KT 10SM FEW029 BKN150 BKN250 21/12 A3015 RMK AO2 SLP214 T02110122=
201807092153 METAR KSEA 092153Z 19010KT 10SM SCT027 SCT100 BKN250 22/12 A3014 RMK AO2 SLP211 T02170122=
201807092053 METAR KSEA 092053Z 19010KT 10SM FEW025 SCT090 BKN200 21/12 A3014 RMK AO2 SLP212 T02110122 57001=
201807091953 METAR KSEA 091953Z 20010G16KT 10SM SCT022 BKN200 21/12 A3015 RMK AO2 SLP213 T02110122=
201807091853 METAR KSEA 091853Z 18009KT 10SM SCT018 BKN200 19/12 A3014 RMK AO2 SLP212 T01890117=
201807091827 SPECI KSEA 091827Z 21007KT 10SM SCT018 BKN200 19/12 A3015 RMK AO2 T01890117=
201807091753 METAR KSEA 091753Z 18007KT 10SM BKN017 BKN200 17/12 A3015 RMK AO2 SLP213 T01720117 10178 20139 50002=
201807091653 METAR KSEA 091653Z 20009KT 10SM BKN015 OVC200 17/12 A3015 RMK AO2 SLP215 T01720117=
201807091553 METAR KSEA 091553Z 20008KT 10SM BKN015 BKN200 16/11 A3015 RMK AO2 SLP215 T01610111=
201807091540 SPECI KSEA 091540Z 20007KT 10SM BKN015 BKN200 16/12 A3015 RMK AO2 T01610117=
201807091528 SPECI KSEA 091528Z VRB05KT 10SM SCT010 BKN200 16/11 A3015 RMK AO2 T01610111=
201807091505 SPECI KSEA 091505Z 19008KT 10SM BKN010 16/11 A3014 RMK AO2 T01560111=
201807091453 METAR KSEA 091453Z 18008KT 10SM BKN009 16/11 A3014 RMK AO2 SLP211 T01560111 51006=
201807091353 METAR KSEA 091353Z 21008KT 10SM OVC007 14/12 A3014 RMK AO2 SLP210 T01440117=
201807091253 METAR KSEA 091253Z 21006KT 10SM BKN009 14/12 A3013 RMK AO2 SLP208 T01390117=
201807091237 SPECI KSEA 091237Z 20005KT 10SM BKN009 14/12 A3013 RMK AO2 T01390117=
201807091223 SPECI KSEA 091223Z 20005KT 10SM SCT009 BKN180 14/12 A3013 RMK AO2 T01390117=
201807091153 METAR KSEA 091153Z 20005KT 10SM SCT200 14/12 A3012 RMK AO2 SLP205 T01390117 10200 20139 51006=
201807091053 METAR KSEA 091053Z 21004KT 10SM SCT200 14/12 A3012 RMK AO2 SLP203 T01440117=
201807090953 METAR KSEA 090953Z 20004KT 10SM SCT200 15/12 A3011 RMK AO2 SLP202 T01500117=
201807090853 METAR KSEA 090853Z 20006KT 10SM BKN200 16/12 A3010 RMK AO2 SLP199 T01610122 51009=
201807090753 METAR KSEA 090753Z 21004KT 10SM BKN220 18/11 A3010 RMK AO2 SLP196 T01830111 402720144=
201807090653 METAR KSEA 090653Z 29005KT 10SM BKN230 19/11 A3009 RMK AO2 SLP194 T01940106=
201807090553 METAR KSEA 090553Z 28004KT 10SM BKN230 20/11 A3008 RMK AO2 SLP190 T02000106 10272 20200 51012=
201807090453 METAR KSEA 090453Z 30004KT 10SM BKN230 21/09 A3007 RMK AO2 SLP186 T02060094=
201807090353 METAR KSEA 090353Z 28005KT 10SM FEW130 BKN220 22/08 A3005 RMK AO2 SLP182 T02220083=
201807090253 METAR KSEA 090253Z 34007KT 10SM FEW035 FEW130 BKN200 24/08 A3004 RMK AO2 SLP177 T02440078 55000=
201807090153 METAR KSEA 090153Z 35011KT 10SM FEW035 BKN190 25/07 A3004 RMK AO2 SLP177 T02500072=
201807090053 METAR KSEA 090053Z 32010KT 10SM FEW035 BKN190 26/07 A3004 RMK AO2 SLP175 T02610072=
201807082353 METAR KSEA 082353Z 01006KT 10SM FEW035 BKN220 27/07 A3004 RMK AO2 SLP177 T02670072 10272 20217 50000=
201807082253 METAR KSEA 082253Z 36009KT 10SM FEW035 BKN220 26/09 A3004 RMK AO2 SLP178 T02610089=
201807082153 METAR KSEA 082153Z 34010KT 300V360 10SM FEW035 SCT220 26/10 A3004 RMK AO2 SLP178 T02610100=
201807082053 METAR KSEA 082053Z 35008KT 10SM FEW030 BKN220 26/12 A3004 RMK AO2 SLP177 T02560117 58014=
201807081953 METAR KSEA 081953Z 02006KT 10SM FEW030 BKN220 24/12 A3006 RMK AO2 SLP183 T02390117=
201807081853 METAR KSEA 081853Z 31008KT 10SM FEW030 BKN220 23/12 A3007 RMK AO2 SLP188 T02280117=
201807081753 METAR KSEA 081753Z 28009KT 10SM FEW020 SCT210 22/12 A3008 RMK AO2 SLP191 T02170117 10217 20144 58008=
201807081653 METAR KSEA 081653Z VRB04KT 10SM FEW200 21/12 A3009 RMK AO2 SLP195 T02060117=
201807081553 METAR KSEA 081553Z 04005KT 10SM FEW200 19/12 A3010 RMK AO2 SLP197 T01890117=
201807081453 METAR KSEA 081453Z 36008KT 10SM FEW200 17/11 A3011 RMK AO2 SLP199 T01720111 58003=
201807081353 METAR KSEA 081353Z 02009KT 10SM FEW180 16/11 A3011 RMK AO2 SLP201 T01560111=
201807081253 METAR KSEA 081253Z 06005KT 10SM FEW160 14/11 A3011 RMK AO2 SLP202 T01440111=
201807081153 METAR KSEA 081153Z 03007KT 10SM CLR 14/11 A3012 RMK AO2 SLP202 70001 T01440111 10167 20144 58005=
201807081053 METAR KSEA 081053Z 03006KT 10SM CLR 15/11 A3012 RMK AO2 SLP205 T01500111=
201807080953 METAR KSEA 080953Z 02009KT 10SM CLR 16/11 A3013 RMK AO2 SLP206 T01560111=
201807080853 METAR KSEA 080853Z 02006KT 10SM CLR 16/11 A3013 RMK AO2 SLP208 T01610111 58007=
201807080753 METAR KSEA 080753Z 01008KT 10SM CLR 16/11 A3014 RMK AO2 SLP212 T01610111 402330144=
201807080653 METAR KSEA 080653Z 35007KT 10SM CLR 16/11 A3015 RMK AO2 SLP213 T01610111=
201807080553 METAR KSEA 080553Z 30004KT 10SM CLR 17/11 A3015 RMK AO2 SLP215 T01670111 10233 20167 55000=
201807080453 METAR KSEA 080453Z 34006KT 10SM FEW040 18/11 A3015 RMK AO2 SLP214 T01830111=
201807080353 METAR KSEA 080353Z 29005KT 10SM FEW040 FEW200 20/11 A3015 RMK AO2 SLP213 T02000111=
201807080253 METAR KSEA 080253Z 21006KT 10SM FEW040 22/10 A3015 RMK AO2 SLP215 T02220100 56005=
201807080153 METAR KSEA 080153Z 21003KT 10SM FEW040 22/10 A3015 RMK AO2 SLP215 T02220100=
201807080053 METAR KSEA 080053Z 20006KT 10SM FEW040 SCT070 BKN160 23/11 A3016 RMK AO2 SLP219 T02280106=
201807072353 METAR KSEA 072353Z VRB04KT 10SM FEW040 SCT070 BKN160 22/10 A3017 RMK AO2 SLP220 T02220100 10233 20183 58015=
201807072253 METAR KSEA 072253Z 21006KT 10SM SCT040 BKN070 BKN150 BKN240 22/12 A3020 RMK AO2 SLP230 T02170117=
201807072155 SPECI KSEA 072155Z 21010G15KT 10SM SCT035 BKN060 23/11 A3020 RMK AO2 T02280106=
201807072154 SPECI KSEA 072154Z 20009KT 10SM CLR 23/11 A3020 RMK AO2 T02280106=
201807072153 METAR KSEA 072153Z 20009KT 10SM CLR 23/11 A3020 RMK AO2 SLP233 T02280106=
201807072053 METAR KSEA 072053Z 17005KT 10SM FEW035 BKN060 22/11 A3021 RMK AO2 SLP234 T02220106 58010=
201807071953 METAR KSEA 071953Z 27008KT 10SM FEW045 BKN060 21/12 A3022 RMK AO2 SLP239 T02060117=
201807071853 METAR KSEA 071853Z 20011KT 10SM FEW024 BKN060 20/11 A3024 RMK AO2 SLP244 T02000111=
201807071753 METAR KSEA 071753Z 19009KT 10SM FEW018 SCT041 BKN060 19/12 A3024 RMK AO2 SLP245 60001 T01890117 10189 20144 51005=
201807071653 METAR KSEA 071653Z 20009KT 10SM FEW013 BKN033 BKN047 17/12 A3023 RMK AO2 SLP242 T01720117=
201807071553 METAR KSEA 071553Z 20012KT 10SM FEW013 BKN030 OVC070 16/12 A3023 RMK AO2 SLP243 T01610122=
201807071453 METAR KSEA 071453Z 21010KT 10SM FEW018 SCT047 BKN070 16/12 A3022 RMK AO2 SLP239 60001 T01610122 53008=
201807071353 METAR KSEA 071353Z 23010KT 10SM FEW032 BKN055 BKN075 14/13 A3021 RMK AO2 RAB34E44 SLP235 P0001 T01440128=
201807071253 METAR KSEA 071253Z 22007KT 10SM FEW018 BKN031 BKN075 15/12 A3020 RMK AO2 SLP233 T01500117=
201807071153 METAR KSEA 071153Z 19009KT 10SM FEW035 SCT060 BKN085 15/12 A3020 RMK AO2 SLP231 T01500117 10172 20150 53005=
201807071053 METAR KSEA 071053Z 18007KT 10SM FEW020 SCT039 BKN090 15/12 A3019 RMK AO2 SLP228 T01500117=
201807070953 METAR KSEA 070953Z 22005KT 10SM SCT036 BKN044 BKN100 16/12 A3019 RMK AO2 SLP228 T01560117=
201807070853 METAR KSEA 070853Z 21006KT 10SM FEW020 FEW060 BKN110 16/11 A3018 RMK AO2 SLP226 T01610111 53006=
201807070753 METAR KSEA 070753Z 21009KT 10SM FEW034 SCT070 16/11 A3017 RMK AO2 SLP222 T01610111 402560156=
201807070653 METAR KSEA 070653Z 22007KT 10SM FEW034 SCT070 17/11 A3017 RMK AO2 SLP222 T01670106=
201807070553 METAR KSEA 070553Z 24012KT 10SM FEW060 BKN075 17/11 A3017 RMK AO2 SLP219 60000 T01720106 10256 20172 51014=
201807070453 METAR KSEA 070453Z 24009KT 10SM SCT055 BKN080 18/11 A3016 RMK AO2 SLP218 T01780111=
201807070353 METAR KSEA 070353Z 24013KT 10SM SCT050 BKN100 19/11 A3014 RMK AO2 SLP210 T01890106=
201807070253 METAR KSEA 070253Z 24015G21KT 10SM SCT050 SCT100 20/11 A3012 RMK AO2 RAB0156E09 SLP205 P0000 60000 T02000111 53009=
201807070153 METAR KSEA 070153Z 20009G19KT 10SM SCT040 BKN065 22/11 A3012 RMK AO2 PRESRR SLP204 T02170111=
201807070053 METAR KSEA 070053Z 23011KT 10SM FEW040 SCT065 SCT100 25/11 A3010 RMK AO2 SLP196 T02500111=
201807062353 METAR KSEA 062353Z 24008KT 210V280 10SM SCT046 BKN100 24/12 A3010 RMK AO2 SLP195 T02390117 10256 20206 56012=
201807062253 METAR KSEA 062253Z 23007KT 10SM FEW040 BKN090 BKN250 24/12 A3011 RMK AO2 SLP200 T02440122=
201807062153 METAR KSEA 062153Z 26010KT 10SM SCT040 SCT100 SCT250 24/13 A3012 RMK AO2 SLP202 T02440128=
201807062053 METAR KSEA 062053Z 24008KT 10SM SCT039 SCT100 BKN250 24/12 A3013 RMK AO2 SLP207 T02390122 56005=
201807061953 METAR KSEA 061953Z 24009KT 10SM FEW050 SCT100 BKN250 22/12 A3014 RMK AO2 SLP209 T02220122=
201807061853 METAR KSEA 061853Z 23008KT 10SM FEW075 BKN150 BKN250 22/12 A3014 RMK AO2 SLP211 T02170122=
201807061753 METAR KSEA 061753Z 23008KT 10SM FEW075 BKN150 BKN200 22/12 A3015 RMK AO2 SLP212 T02170122 10222 20156 58006=
201807061653 METAR KSEA 061653Z 24008KT 10SM FEW050 BKN140 BKN250 21/12 A3015 RMK AO2 SLP215 T02060122=
201807061553 METAR KSEA 061553Z 19006KT 10SM FEW050 BKN140 BKN250 20/12 A3016 RMK AO2 SLP219 T02000117=
201807061453 METAR KSEA 061453Z 20007KT 10SM FEW050 BKN140 BKN250 18/11 A3017 RMK AO2 SLP219 T01830111 53008=
201807061353 METAR KSEA 061353Z 22008KT 10SM FEW050 BKN140 17/11 A3015 RMK AO2 SLP215 T01720106=
201807061253 METAR KSEA 061253Z 16005KT 10SM FEW050 FEW090 SCT140 SCT250 16/11 A3014 RMK AO2 SLP211 T01560111=
201807061153 METAR KSEA 061153Z 18004KT 10SM SCT140 17/11 A3014 RMK AO2 SLP210 T01670111 10211 20167 55004=
201807061053 METAR KSEA 061053Z 20004KT 10SM SCT140 17/11 A3014 RMK AO2 SLP208 T01720111=
201807060953 METAR KSEA 060953Z 17005KT 10SM SCT110 18/11 A3014 RMK AO2 SLP211 T01780111=
201807060853 METAR KSEA 060853Z 19005KT 10SM FEW080 BKN100 19/11 A3015 RMK AO2 SLP214 T01940111 50008=
201807060753 METAR KSEA 060753Z 22003KT 10SM BKN110 20/11 A3015 RMK AO2 SLP214 T02000106 402940150=
201807060653 METAR KSEA 060653Z 23007KT 10SM BKN110 21/11 A3015 RMK AO2 SLP212 T02060106=
201807060553 METAR KSEA 060553Z 19005KT 10SM FEW150 BKN180 21/11 A3013 RMK AO2 SLP205 T02110106 10294 20211 53010=
201807060453 METAR KSEA 060453Z 17008KT 10SM BKN160 22/09 A3011 RMK AO2 SLP200 T02170094=
201807060353 METAR KSEA 060353Z 19007KT 10SM SCT190 BKN240 22/10 A3010 RMK AO2 SLP198 T02170100=
201807060253 METAR KSEA 060253Z 24008KT 10SM FEW060 BKN200 23/09 A3010 RMK AO2 SLP196 T02330094 53017=
201807060153 METAR KSEA 060153Z 24009KT 10SM FEW050 BKN230 25/11 A3008 RMK AO2 SLP190 T02500111=
201807060053 METAR KSEA 060053Z 28007KT 10SM FEW050 SCT140 28/13 A3006 RMK AO2 SLP183 T02830133=
201807052353 METAR KSEA 052353Z 20006KT 10SM FEW050 SCT200 29/12 A3005 RMK AO2 SLP178 T02890117 10294 20217 53002=
201807052253 METAR KSEA 052253Z 22007KT 10SM FEW050 FEW200 28/12 A3004 RMK AO2 SLP176 T02780122=
201807052153 METAR KSEA 052153Z 24007KT 10SM FEW050 FEW200 28/12 A3003 RMK AO2 SLP173 T02780117=
201807052053 METAR KSEA 052053Z 29004KT 10SM FEW040 FEW200 26/13 A3004 RMK AO2 SLP177 T02610128 50000=
201807051953 METAR KSEA 051953Z 26005KT 10SM FEW040 FEW200 25/13 A3004 RMK AO2 SLP178 T02500133=
201807051853 METAR KSEA 051853Z 27007KT 10SM FEW200 24/13 A3004 RMK AO2 SLP177 T02390128=
201807051753 METAR KSEA 051753Z 23005KT 10SM FEW140 22/13 A3004 RMK AO2 SLP177 T02220133 10233 20150 56004=
201807051653 METAR KSEA 051653Z 27005KT 10SM FEW140 22/13 A3004 RMK AO2 SLP176 T02220133=
201807051553 METAR KSEA 051553Z 31003KT 10SM FEW140 20/13 A3004 RMK AO2 SLP178 T02000128=
201807051453 METAR KSEA 051453Z 25003KT 10SM FEW140 17/12 A3005 RMK AO2 SLP181 T01720122 53005=
201807051353 METAR KSEA 051353Z 30003KT 10SM BKN140 17/13 A3005 RMK AO2 SLP180 T01670128=
201807051253 METAR KSEA 051253Z 20003KT 10SM BKN140 16/12 A3004 RMK AO2 SLP176 T01560122=
201807051153 METAR KSEA 051153Z 15005KT 10SM FEW130 BKN160 16/12 A3004 RMK AO2 SLP176 T01560117 10194 20150 53010=
201807051053 METAR KSEA 051053Z 17005KT 10SM BKN150 15/12 A3003 RMK AO2 SLP173 T01500122=
201807050953 METAR KSEA 050953Z 18005KT 10SM BKN150 16/12 A3001 RMK AO2 SLP167 T01560122=
201807050853 METAR KSEA 050853Z 22004KT 10SM BKN150 16/12 A3001 RMK AO2 SLP165 T01610117 50006=
201807050753 METAR KSEA 050753Z 19008KT 10SM BKN190 17/12 A3002 RMK AO2 SLP167 T01670122 402830139=
201807050653 METAR KSEA 050653Z 20007KT 10SM BKN160 17/12 A3002 RMK AO2 SLP168 T01720122=
201807050553 METAR KSEA 050553Z 21007KT 10SM BKN170 19/13 A2999 RMK AO2 SLP160 T01940128 10256 20194 53009=
201807050453 METAR KSEA 050453Z 24007KT 10SM SCT120 BKN170 21/12 A2999 RMK AO2 SLP158 T02110122=
201807050353 METAR KSEA 050353Z 27005KT 10SM FEW060 SCT110 OVC160 22/12 A2996 RMK AO2 SLP148 T02170122=
201807050253 METAR KSEA 050253Z 28005KT 10SM FEW060 OVC100 22/12 A2996 RMK AO2 SLP151 T02220122 53008=
201807050153 METAR KSEA 050153Z 21006KT 10SM FEW065 BKN110 OVC150 24/13 A2996 RMK AO2 SLP149 T02440128=
201807050053 METAR KSEA 050053Z 03011KT 10SM FEW080 BKN110 OVC150 25/12 A2993 RMK AO2 SLP140 T02500122=
201807042353 METAR KSEA 042353Z 30007KT 10SM OVC130 24/13 A2994 RMK AO2 SLP142 T02390128 10283 20222 53011=
201807042253 METAR KSEA 042253Z 31007KT 10SM FEW120 OVC140 26/13 A2992 RMK AO2 SLP137 T02610133=
201807042153 METAR KSEA 042153Z 30007KT 10SM FEW120 OVC140 24/13 A2991 RMK AO2 SLP134 T02440128=
201807042053 METAR KSEA 042053Z 36012KT 10SM BKN160 BKN210 28/11 A2991 RMK AO2 SLP130 T02830111 57003=
201807041953 METAR KSEA 041953Z 02015KT 10SM SCT160 BKN210 27/11 A2991 RMK AO2 SLP130 T02670106=
201807041853 METAR KSEA 041853Z 02013KT 10SM FEW150 BKN210 26/11 A2992 RMK AO2 SLP134 T02610111=
201807041753 METAR KSEA 041753Z 01016KT 10SM FEW140 BKN180 22/11 A2992 RMK AO2 SLP135 T02220111 10228 20144 58012=
201807041653 METAR KSEA 041653Z 02015KT 10SM FEW150 BKN200 21/11 A2994 RMK AO2 SLP142 T02060106=
201807041553 METAR KSEA 041553Z 02016KT 10SM FEW150 BKN210 19/11 A2995 RMK AO2 SLP145 T01890106=
201807041453 METAR KSEA 041453Z 01016KT 10SM FEW180 BKN240 17/11 A2995 RMK AO2 SLP146 T01720106 50002=
201807041353 METAR KSEA 041353Z 02015KT 10SM FEW180 BKN250 16/11 A2996 RMK AO2 SLP148 T01560106=
201807041253 METAR KSEA 041253Z 02014KT 10SM FEW180 SCT250 14/10 A2995 RMK AO2 SLP145 T01440100=
201807041153 METAR KSEA 041153Z 02016KT 10SM SCT250 14/09 A2995 RMK AO2 SLP144 T01440094 10178 20139 58008=
201807041053 METAR KSEA 041053Z 36011KT 10SM SCT250 14/09 A2995 RMK AO2 SLP147 T01390089=
201807040953 METAR KSEA 040953Z 36008KT 10SM CLR 14/09 A2996 RMK AO2 SLP150 T01440089=
201807040853 METAR KSEA 040853Z 01011KT 10SM CLR 16/09 A2997 RMK AO2 SLP153 T01560089 58013=
201807040753 METAR KSEA 040753Z 01014KT 10SM CLR 17/09 A2999 RMK AO2 SLP160 T01670089 402440100=
201807040653 METAR KSEA 040653Z 01011KT 10SM CLR 17/08 A3000 RMK AO2 SLP162 T01720083=
201807040553 METAR KSEA 040553Z 36006KT 10SM FEW250 18/08 A3001 RMK AO2 SLP166 T01780078 10244 20178 57003=
201807040453 METAR KSEA 040453Z 36009KT 10SM FEW250 18/08 A3001 RMK AO2 SLP169 T01830083=
201807040353 METAR KSEA 040353Z 35009KT 10SM FEW250 20/08 A3001 RMK AO2 SLP167 T02000078=
201807040253 METAR KSEA 040253Z 35011KT 10SM FEW040 FEW250 23/07 A3002 RMK AO2 SLP168 T02280072 56016=
201807040153 METAR KSEA 040153Z 32009KT 10SM FEW040 FEW250 23/08 A3002 RMK AO2 SLP171 T02330078=
201807040053 METAR KSEA 040053Z 34008KT 10SM FEW040 FEW250 24/08 A3004 RMK AO2 SLP177 T02390078=
201807032353 METAR KSEA 032353Z 29008KT 10SM FEW035 FEW250 23/08 A3006 RMK AO2 SLP185 T02280078 10233 20167 58020=
201807032253 METAR KSEA 032253Z 30008KT 10SM FEW035 FEW250 23/08 A3009 RMK AO2 SLP194 T02280078=
201807032153 METAR KSEA 032153Z 29009KT 10SM FEW035 FEW250 22/07 A3011 RMK AO2 SLP201 T02220072=
201807032053 METAR KSEA 032053Z 26009KT 10SM FEW030 FEW200 21/08 A3012 RMK AO2 SLP206 T02110078 58014=
201807031953 METAR KSEA 031953Z 26007KT 10SM FEW025 FEW200 19/08 A3014 RMK AO2 SLP212 T01940078=
201807031853 METAR KSEA 031853Z 26007KT 10SM FEW020 FEW200 19/09 A3016 RMK AO2 SLP217 T01890089=
201807031753 METAR KSEA 031753Z 21004KT 10SM FEW020 FEW200 17/09 A3016 RMK AO2 SLP220 T01670089 10167 20100 58007=
201807031653 METAR KSEA 031653Z 19007KT 10SM FEW009 FEW200 16/09 A3017 RMK AO2 SLP223 T01560089=
201807031553 METAR KSEA 031553Z 19007KT 10SM FEW008 14/09 A3018 RMK AO2 SLP226 T01440089=
201807031453 METAR KSEA 031453Z 21005KT 10SM SCT007 SCT070 13/09 A3019 RMK AO2 SLP227 T01280089 58003=
201807031353 METAR KSEA 031353Z 17005KT 10SM FEW007 FEW075 12/08 A3019 RMK AO2 SLP229 T01170083=
201807031253 METAR KSEA 031253Z 16004KT 10SM SCT007 SCT075 10/08 A3020 RMK AO2 SLP231 T01000078=
201807031226 SPECI KSEA 031226Z 17005KT 10SM FEW009 SCT075 10/08 A3020 RMK AO2 T01000078=
201807031153 METAR KSEA 031153Z 18005KT 10SM FEW075 11/08 A3020 RMK AO2 SLP230 T01060078 10144 20100 55002=
201807031053 METAR KSEA 031053Z 17004KT 10SM FEW075 11/08 A3019 RMK AO2 SLP230 T01060078=
201807030953 METAR KSEA 030953Z 17005KT 10SM CLR 11/08 A3020 RMK AO2 SLP231 T01110083=
201807030853 METAR KSEA 030853Z 19005KT 10SM FEW200 12/08 A3020 RMK AO2 SLP233 T01220083 55001=
201807030753 METAR KSEA 030753Z 20005KT 10SM FEW200 13/08 A3020 RMK AO2 SLP231 T01280078 402110117=
201807030653 METAR KSEA 030653Z 21005KT 10SM FEW200 14/08 A3019 RMK AO2 SLP230 T01390078=
201807030553 METAR KSEA 030553Z 21004KT 10SM FEW050 14/07 A3020 RMK AO2 SLP233 T01440072 10211 20144 50005=
201807030453 METAR KSEA 030453Z 35004KT 10SM FEW050 FEW250 16/07 A3020 RMK AO2 SLP234 T01610067=
201807030353 METAR KSEA 030353Z 30004KT 10SM FEW050 FEW090 SCT250 17/07 A3020 RMK AO2 SLP231 T01720067=
201807030253 METAR KSEA 030253Z 30005KT 10SM SCT050 SCT100 19/07 A3019 RMK AO2 SLP228 T01940067 55001=
201807030153 METAR KSEA 030153Z 29007KT 10SM BKN055 BKN100 19/07 A3018 RMK AO2 SLP227 T01940067=
201807030053 METAR KSEA 030053Z 36003KT 10SM BKN060 BKN090 21/07 A3019 RMK AO2 SLP227 T02060067=
201807022353 METAR KSEA 022353Z 36005KT 10SM BKN060 BKN090 19/07 A3019 RMK AO2 SLP229 T01940067 10206 20156 56004=
201807022253 METAR KSEA 022253Z 23007KT 10SM SCT055 BKN070 20/05 A3019 RMK AO2 SLP229 T02000050=
201807022153 METAR KSEA 022153Z 26006KT 10SM FEW035 BKN055 BKN075 19/05 A3019 RMK AO2 SLP229 T01940050=
201807022053 METAR KSEA 022053Z 30005KT 10SM FEW035 SCT048 BKN080 19/06 A3020 RMK AO2 SLP233 T01890056 58004=
201807021953 METAR KSEA 021953Z VRB04KT 10SM FEW030 SCT048 BKN080 19/06 A3021 RMK AO2 SLP235 T01890056=
201807021853 METAR KSEA 021853Z VRB05KT 10SM BKN030 BKN048 18/07 A3022 RMK AO2 SLP239 T01830072=
201807021839 SPECI KSEA 021839Z VRB05KT 10SM BKN030 BKN048 17/07 A3022 RMK AO2 T01670072=
201807021753 METAR KSEA 021753Z VRB04KT 10SM BKN026 BKN048 16/08 A3022 RMK AO2 SLP237 T01610078 10167 20117 51002=
201807021653 METAR KSEA 021653Z 17007KT 10SM FEW016 BKN024 BKN050 15/08 A3021 RMK AO2 SLP236 T01500083=
201807021647 SPECI KSEA 021647Z 18007KT 10SM FEW016 SCT024 BKN050 14/08 A3021 RMK AO2=
201807021553 METAR KSEA 021553Z 20008KT 10SM BKN016 BKN024 14/08 A3021 RMK AO2 SLP235 T01440083=
201807021526 SPECI KSEA 021526Z 19007KT 10SM BKN015 BKN024 13/08 A3021 RMK AO2 T01330083=
201807021453 METAR KSEA 021453Z 19007KT 10SM BKN014 BKN021 13/08 A3021 RMK AO2 SLP234 T01280083 53004=
201807021408 SPECI KSEA 021408Z 18005KT 10SM BKN014 BKN022 12/09 A3020 RMK AO2 T01220089=
201807021353 METAR KSEA 021353Z 16005KT 10SM BKN015 BKN022 13/09 A3019 RMK AO2 SLP230 T01280089=
201807021344 SPECI KSEA 021344Z 13006KT 10SM BKN015 BKN022 12/09 A3019 RMK AO2 T01220089=
201807021253 METAR KSEA 021253Z 13003KT 10SM BKN014 OVC021 12/08 A3020 RMK AO2 SLP230 T01220083=
201807021235 SPECI KSEA 021235Z 14004KT 10SM BKN014 OVC021 12/09 A3019 RMK AO2 T01220089=
201807021153 METAR KSEA 021153Z 11003KT 10SM BKN016 OVC021 12/09 A3019 RMK AO2 SLP230 70003 T01220089 10150 20117 56001=
201807021053 METAR KSEA 021053Z 16005KT 10SM OVC018 13/08 A3019 RMK AO2 SLP230 T01280083=
201807020953 METAR KSEA 020953Z 17007KT 10SM OVC023 13/08 A3019 RMK AO2 SLP230 T01330078=
201807020853 METAR KSEA 020853Z 22006KT 10SM OVC024 13/08 A3020 RMK AO2 SLP231 T01330083 58001=
201807020805 SPECI KSEA 020805Z 21006KT 10SM OVC028 14/08 A3020 RMK AO2 T01390083=
201807020753 METAR KSEA 020753Z 22006KT 10SM OVC030 14/08 A3020 RMK AO2 SLP231 T01390083 402170133=
201807020653 METAR KSEA 020653Z 21008KT 10SM FEW025 BKN039 OVC048 14/08 A3020 RMK AO2 SLP232 T01440078=
201807020553 METAR KSEA 020553Z 22009KT 10SM SCT029 BKN042 15/08 A3020 RMK AO2 SLP232 T01500078 10194 20150 50002=
201807020453 METAR KSEA 020453Z 05007KT 10SM BKN042 15/09 A3020 RMK AO2 SLP233 T01500089=
201807020353 METAR KSEA 020353Z 03011KT 10SM BKN046 16/09 A3019 RMK AO2 SLP230 T01560089=
201807020253 METAR KSEA 020253Z 03013KT 10SM SCT050 BKN080 17/09 A3019 RMK AO2 SLP230 T01670094 55002=
201807020153 METAR KSEA 020153Z 05009KT 10SM SCT050 BKN080 18/11 A3019 RMK AO2 SLP228 T01830106=
201807020053 METAR KSEA 020053Z 02011KT 10SM SCT048 BKN060 18/12 A3020 RMK AO2 SLP232 T01830117=
201807012353 METAR KSEA 012353Z 30007KT 10SM BKN044 BKN055 19/11 A3020 RMK AO2 SLP232 T01890111 10217 20172 55001=
201807012253 METAR KSEA 012253Z 22009KT 10SM BKN050 BKN060 20/10 A3020 RMK AO2 SLP231 T02000100=
201807012153 METAR KSEA 012153Z 21011KT 10SM BKN060 BKN120 21/11 A3020 RMK AO2 SLP231 T02110106=
201807012053 METAR KSEA 012053Z 22011KT 10SM FEW025 SCT055 20/10 A3020 RMK AO2 SLP233 T02000100 58003=
201807011953 METAR KSEA 011953Z 20013KT 10SM FEW020 SCT028 SCT055 21/10 A3021 RMK AO2 SLP235 T02060100=
201807011853 METAR KSEA 011853Z 19014KT 10SM FEW018 SCT026 BKN055 18/11 A3022 RMK AO2 SLP237 T01830106=
201807011753 METAR KSEA 011753Z 21010KT 10SM SCT015 BKN040 17/11 A3021 RMK AO2 SLP236 60003 T01720111 10172 20133 51003=
201807011653 METAR KSEA 011653Z 21011KT 10SM FEW009 SCT015 BKN035 15/12 A3021 RMK AO2 SLP236 T01500117=
201807011553 METAR KSEA 011553Z 21009KT 10SM FEW008 SCT015 OVC034 14/12 A3021 RMK AO2 DZE50 SLP234 P0000 T01440122=
201807011528 SPECI KSEA 011528Z 22008KT 8SM -DZ SCT008 SCT015 OVC032 14/12 A3021 RMK AO2 P0000 T01390122=
201807011453 METAR KSEA 011453Z 20009KT 7SM -DZ BKN008 OVC012 14/13 A3020 RMK AO2 SLP233 P0001 60003 T01390128 51006=
201807011428 SPECI KSEA 011428Z 21006KT 7SM -DZ BKN008 OVC012 14/13 A3020 RMK AO2 P0000 T01390128=
201807011353 METAR KSEA 011353Z 21006KT 1 1/2SM -DZ BR OVC005 13/12 A3020 RMK AO2 SFC VIS 4 RAE20DZB49 SLP231 P0001 T01330122=
201807011347 SPECI KSEA 011347Z 22006KT 1 1/2SM BR OVC005 13/12 A3020 RMK AO2 SFC VIS 4 RAE20 P0001=
201807011253 METAR KSEA 011253Z 21005KT 1/2SM R16L/5500VP6000FT -RA BR BKN004 OVC008 14/13 A3019 RMK AO2 SFC VIS 3/4 RAB43 SLP228 P0001 T01390128=
201807011248 SPECI KSEA 011248Z 22006KT 1/2SM R16L/5500VP6000FT -RA BR BKN004 OVC008 13/13 A3019 RMK AO2 SFC VIS 3/4 RAB43 P0001=
201807011217 SPECI KSEA 011217Z 21007KT 1 1/2SM BR BKN004 OVC008 14/13 A3018 RMK AO2 SFC VIS 3 T01390128=
201807011153 METAR KSEA 011153Z 20007KT 1 1/2SM BR BKN005 BKN009 OVC016 14/13 A3018 RMK AO2 RAE53 SLP225 P0000 60001 70001 T01390128 10150 20139 53000=
201807011151 SPECI KSEA 011151Z 21006KT 1 1/2SM -RA BR BKN005 BKN009 OVC016 14/13 A3018 RMK AO2 P0000=
201807011134 SPECI KSEA 011134Z 22007KT 1 1/2SM -RA BR SCT004 BKN016 OVC023 14/13 A3018 RMK AO2 P0000 T01390128=
201807011053 METAR KSEA 011053Z 20006KT 7SM -RA SCT006 BKN014 OVC022 14/13 A3018 RMK AO2 RAB19 SLP225 P0001 T01390128=
201807011025 SPECI KSEA 011025Z 19008KT 2SM -RA BR FEW006 BKN014 OVC019 14/13 A3018 RMK AO2 RAB19 P0001 T01390128=
201807010953 METAR KSEA 010953Z 17005KT 10SM SCT006 BKN014 OVC021 14/13 A3018 RMK AO2 SLP225 T01390128=
201807010905 SPECI KSEA 010905Z 18008KT 10SM FEW006 BKN012 OVC020 14/13 A3018 RMK AO2 T01390128=
201807010853 METAR KSEA 010853Z 19011KT 10SM BKN015 BKN020 OVC034 14/13 A3018 RMK AO2 SLP226 T01390128 56001=
201807010802 SPECI KSEA 010802Z 21008KT 10SM OVC014 15/12 A3018 RMK AO2 T01500117=
201807010753 METAR KSEA 010753Z 21008KT 10SM OVC015 15/12 A3018 RMK AO2 SLP226 T01500117 401890133=
201807010653 METAR KSEA 010653Z 21008KT 10SM OVC019 15/12 A3018 RMK AO2 SLP226 T01500117=
201807010553 METAR KSEA 010553Z 21010KT 10SM OVC015 15/12 A3018 RMK AO2 SLP227 T01500117 10178 20150 51002=
201807010453 METAR KSEA 010453Z 20011KT 10SM BKN019 OVC024 16/11 A3018 RMK AO2 SLP227 T01560111=
201807010353 METAR KSEA 010353Z 20011KT 10SM OVC020 16/11 A3018 RMK AO2 SLP226 T01610111=
201807010253 METAR KSEA 010253Z 21013KT 10SM OVC023 17/12 A3018 RMK AO2 SLP224 T01670117 55002=
201807010153 METAR KSEA 010153Z 21011KT 10SM OVC026 18/12 A3018 RMK AO2 SLP224 T01780117=
201807010053 METAR KSEA 010053Z 21012G19KT 10SM OVC024 18/12 A3017 RMK AO2 SLP223 T01780117=

# No short TAF reports from KSEA in databse.

###################################
#  large TAF from KSEA
###################################
201807312327 TAF KSEA 312327Z 0100/0206 21009KT P6SM SKC FM010900 21006KT P6SM
                       OVC009 FM011500 19008KT P6SM OVC015 FM012100
                       24007KT P6SM SCT250=
201807312107 KSEA 312107Z 3121/0124 23008KT P6SM FEW250 FM010900 21005KT P6SM
                       OVC009 FM011500 19008KT P6SM OVC015 FM012100
                       23008KT P6SM FEW030 BKN250=
201807311740 TAF KSEA 311740Z 3118/0124 23010KT P6SM OVC010 FM311900 23010KT
                       P6SM SCT014 FM312000 23008KT P6SM SKC FM010900
                       21005KT P6SM OVC009 FM011500 19008KT P6SM
                       OVC015 FM012100 23008KT P6SM FEW030 BKN250=
201807311511 KSEA 311511Z 3115/0118 22009KT P6SM OVC007 FM311900 23007KT P6SM
                       SCT250 FM010000 25006KT P6SM BKN250 FM010900
                       21007KT P6SM OVC011=
201807311122 TAF KSEA 311122Z 3112/0118 21008KT P6SM SCT010 BKN250
                      TEMPO 3112/3114 BKN008 FM311400 21007KT P6SM
                       OVC007 FM311900 23007KT P6SM SCT250 FM010000
                       25006KT P6SM BKN250 FM010900 21007KT P6SM
                       OVC011=
201807310900 KSEA 310900Z 3109/0112 20009KT P6SM SCT010 SCT250
                      TEMPO 3109/3111 BKN009 FM311100 21005KT P6SM
                       OVC008
                      TEMPO 3117/3119 SCT010 SCT250 FM311900 23007KT
                       P6SM SCT250 FM010000 25006KT P6SM BKN250=
201807310718 KSEA 310718Z 3107/0112 20009KT P6SM SCT010 SCT250
                      TEMPO 3108/3110 BKN009 FM311000 21005KT P6SM
                       OVC008
                      TEMPO 3117/3119 SCT010 SCT250 FM311900 23007KT
                       P6SM SCT250 FM010000 25006KT P6SM BKN250=
201807310526 TAF KSEA 310526Z 3106/0112 22007KT P6SM FEW250 FM311200 21005KT
                       P6SM SCT008
                      TEMPO 3112/3116 OVC008 FM311800 23007KT P6SM
                       SCT250 FM010000 25006KT P6SM BKN250=
201807310305 KSEA 310305Z 3103/0106 24006KT P6SM SKC FM310900 20007KT P6SM FEW011
                       TEMPO 3112/3114 BKN011 FM311400 20007KT
                       P6SM OVC008 FM311900 23007KT P6SM BKN250=
201807302331 TAF KSEA 302331Z 3100/0106 27006KT P6SM SKC FM310600 22006KT P6SM
                       SKC FM310900 20007KT P6SM FEW011
                      TEMPO 3112/3114 BKN011 FM311400 20007KT P6SM
                       OVC008 FM311900 23007KT P6SM BKN250=
201807302111 KSEA 302111Z 3021/3124 29005KT P6SM SKC FM310600 23007KT P6SM SKC
                       FM311200 20007KT P6SM SCT011
                      TEMPO 3112/3114 BKN011 FM311400 20007KT P6SM
                       OVC008 FM311900 23007KT P6SM BKN250=
201807301741 TAF KSEA 301741Z 3018/3124 22007KT P6SM SKC FM302100 26007KT P6SM
                       SKC FM310600 23007KT P6SM SKC FM311200 20007KT
                       P6SM SCT011
                      TEMPO 3112/3114 BKN011 FM311400 20007KT P6SM
                       OVC008 FM311900 23007KT P6SM BKN250=
201807301507 KSEA 301507Z 3015/3118 21007KT P6SM SKC FM302100 26006KT P6SM SKC
                       FM310600 22006KT P6SM SKC FM311200 21006KT
                       P6SM BKN006=
201807301120 TAF KSEA 301120Z 3012/3118 20004KT P6SM SKC FM302100 30006KT P6SM
                       SKC FM310600 22006KT P6SM SKC FM311200 21006KT
                       P6SM BKN006=
201807300859 KSEA 300859Z 3009/3112 VRB04KT P6SM SKC FM301200 24005KT P6SM SKC
                       FM302100 31006KT P6SM SKC=
201807300526 TAF KSEA 300526Z 3006/3112 01008KT P6SM SKC FM301200 24005KT P6SM
                       SKC FM302100 31006KT P6SM SKC=
201807300301 KSEA 300301Z 3003/3106 33007KT P6SM SKC FM300400 03006KT P6SM SKC
                       FM302000 33008KT P6SM SKC=
201807292327 TAF KSEA 292327Z 3000/3106 33012KT P6SM SKC FM300400 03006KT P6SM
                       SKC FM302000 33008KT P6SM SKC=
201807292103 KSEA 292103Z 2921/3024 32007KT P6SM SKC FM300600 VRB03KT P6SM SKC
                       FM302000 32007KT P6SM SKC=
201807291720 TAF KSEA 291720Z 2918/3024 32006KT P6SM SKC FM300600 VRB03KT P6SM
                       SKC=
201807291501 KSEA 291501Z 2915/3018 VRB03KT P6SM SKC FM291700 32006KT P6SM SKC
                       FM300600 VRB03KT P6SM SKC=
201807291120 TAF KSEA 291120Z 2912/3018 VRB03KT P6SM SKC FM291700 32006KT P6SM
                       SKC FM300600 VRB03KT P6SM SKC=
201807290900 KSEA 290900Z 2909/3012 00000KT P6SM SKC FM291300 VRB03KT P6SM SCT004
                       FM291700 32006KT P6SM SKC FM300600 VRB03KT
                       P6SM SKC=
201807290520 TAF KSEA 290520Z 2906/3012 00000KT P6SM SKC FM291300 VRB03KT P6SM
                       SCT004 FM291700 32006KT P6SM SKC=
201807290347 KSEA 290347Z 2904/3006 28005KT P6SM FEW080 FM291300 20006KT P6SM
                       SCT004 FM291700 VRB04KT P6SM SKC=
201807290258 KSEA 290258Z 2903/3006 28005KT P6SM FEW080 FM291300 20006KT P6SM
                       SCT004
                      TEMPO 2913/2916 BKN004 FM291700 VRB04KT P6SM
                       SKC=
201807282320 TAF KSEA 282320Z 2900/3006 VRB04KT P6SM FEW070 FM291300 20006KT
                       P6SM SCT004
                      TEMPO 2913/2916 BKN004 FM291700 VRB04KT P6SM
                       SKC=
201807282101 KSEA 282101Z 2821/2924 VRB05KT P6SM FEW090 FM291300 20006KT P6SM
                       SCT004
                      TEMPO 2913/2916 BKN004 FM291700 VRB04KT P6SM
                       SKC=
201807281720 TAF KSEA 281720Z 2818/2924 VRB04KT P6SM SCT090 FM291300 20006KT
                       P6SM SCT004
                      TEMPO 2913/2916 BKN004 FM291700 VRB04KT P6SM
                       SKC=
201807281503 KSEA 281503Z 2815/2918 19008KT P6SM BKN003 BKN050
                      TEMPO 2816/2818 SCT003 SCT050 FM281800 21005KT
                       P6SM FEW010 SCT050 SCT100 FM290500 VRB04KT
                       P6SM SCT050 SCT100 FM291200 18008KT P6SM
                       BKN004 FM291700 21005KT P6SM SCT010=
201807281120 TAF KSEA 281120Z 2812/2918 VRB03KT P6SM SCT003 SCT120
                      TEMPO 2812/2816 4SM BR BKN002 FM281600 27005KT
                       P6SM SCT120 FM290500 VRB04KT P6SM SKC=
201807280904 KSEA 280904Z 2809/2912 21008KT P6SM FEW100 FEW250 FM281200 VRB03KT
                       P6SM SCT003 SCT120 FM281600 27005KT P6SM
                       SCT120 FM290500 34004KT P6SM SKC=
201807280522 TAF KSEA 280522Z 2806/2912 VRB04KT P6SM FEW060 FEW250 FM281200
                       VRB03KT P6SM SCT003 SCT120 FM281600 27005KT
                       P6SM SCT120=
201807280300 KSEA 280300Z 2803/2906 21006KT P6SM FEW060 FEW250 FM280500 VRB04KT
                       P6SM SKC FM281200 20006KT P6SM SCT003 SCT120
                       FM281600 VRB04KT P6SM SCT120=
201807272320 TAF KSEA 272320Z 2800/2906 31005KT P6SM FEW060 FM280400 VRB04KT
                       P6SM SKC FM281200 20006KT P6SM SCT003 SCT120
                       FM281600 VRB04KT P6SM SCT120=
201807272106 KSEA 272106Z 2721/2824 30007KT P6SM FEW060 FEW200 FM280600 VRB04KT
                       P6SM SCT120 FM281200 20006KT P6SM SCT005
                       SCT120 FM281600 VRB04KT P6SM SCT120=
201807271720 TAF KSEA 271720Z 2718/2824 23005KT P6SM SKC FM280000 30005KT P6SM
                       SCT120 FM280600 22005KT P6SM BKN120 FM281700
                       VRB04KT P6SM SCT120=
201807271500 KSEA 271500Z 2715/2818 21005KT P6SM SCT005 FM271700 24004KT P6SM
                       SKC FM280000 30005KT P6SM SKC FM280600 22005KT
                       P6SM SCT120=
201807271120 TAF KSEA 271120Z 2712/2818 24005KT P6SM SKC FM271300 20005KT P6SM
                       SCT007 FM271700 24004KT P6SM SKC FM280000
                       30005KT P6SM SKC FM280600 22005KT P6SM SCT120=
201807270856 KSEA 270856Z 2709/2812 24005KT P6SM SKC FM271300 20005KT P6SM SCT007
                       FM271700 24004KT P6SM SKC FM271900 32006KT
                       P6SM SKC FM280000 35005KT P6SM SCT120 FM281000
                       22005KT P6SM SCT100=
201807270539 TAF KSEA 270539Z 2706/2812 24005KT P6SM SKC FM271300 20005KT P6SM
                       SCT007 FM271700 24004KT P6SM SKC FM271900
                       32006KT P6SM SKC FM280000 35005KT P6SM SCT120
                       FM281000 22005KT P6SM BKN100=
201807270307 KSEA 270307Z 2703/2806 30005KT P6SM SKC FM270700 23004KT P6SM SKC
                       FM271300 20005KT P6SM SCT007 FM271700 24004KT
                       P6SM SKC FM271900 32006KT P6SM SKC FM280000
                       35005KT P6SM SCT120=
201807262320 TAF KSEA 262320Z 2700/2806 31006KT P6SM SKC FM270500 VRB04KT P6SM
                       SKC=
201807262103 KSEA 262103Z 2621/2724 30005KT P6SM SKC FM270400 VRB03KT P6SM SKC=
201807261720 TAF KSEA 261720Z 2618/2724 33006KT P6SM SKC FM270600 VRB03KT P6SM
                       SKC=
201807261502 KSEA 261502Z 2615/2718 VRB03KT P6SM FEW200 FM261900 30007KT P6SM
                       FEW120 FM270800 21005KT P6SM SKC=
201807261121 TAF KSEA 261121Z 2612/2718 VRB03KT P6SM SKC FM261900 30007KT P6SM
                       FEW120 FM270800 21005KT P6SM SKC=
201807260923 KSEA 260923Z 2609/2712 VRB03KT P6SM SKC FM261200 VRB03KT P6SM SKC
                       FM261900 31007KT P6SM FEW060 FM270800 21005KT
                       P6SM SKC=
201807260557 KSEA 260557Z 2606/2712 02006KT P6SM SKC FM261200 VRB03KT P6SM SKC
                       FM261900 31007KT P6SM FEW060 FM270800 21005KT
                       P6SM SKC=
201807260551 TAF KSEA 260551Z 2606/2712 02006KT P6SM SKC=
201807260303 KSEA 260303Z 2603/2706 02006KT P6SM SKC FM261800 33007KT P6SM SKC=
201807252320 TAF KSEA 252320Z 2600/2706 33007KT P6SM FEW200 FM260400 03006KT
                       P6SM SKC FM261800 33007KT P6SM SKC=
201807252100 KSEA 252100Z 2521/2624 36008KT P6SM FEW200 FM260400 03006KT P6SM
                       SKC=
201807251720 TAF KSEA 251720Z 2518/2624 31007KT P6SM SKC FM260400 03006KT P6SM
                       SKC=
201807251507 KSEA 251507Z 2515/2618 VRB03KT P6SM SKC FM251800 31007KT P6SM SKC
                       FM260400 03006KT P6SM SKC=
201807251131 TAF KSEA 251131Z 2512/2618 VRB03KT P6SM SKC FM251800 31007KT P6SM
                       SKC FM260400 03006KT P6SM SKC=
201807250532 TAF KSEA 250532Z 2506/2612 01006KT P6SM SKC FM251800 31007KT P6SM
                       FEW060 FM260400 01006KT P6SM SKC=
201807250259 KSEA 250259Z 2503/2606 01006KT P6SM SKC FM251800 31007KT P6SM FEW060
                       FM260400 01006KT P6SM SKC=
201807242321 TAF KSEA 242321Z 2500/2606 33008KT P6SM FEW060 FM250400 03006KT
                       P6SM SKC FM251800 31007KT P6SM FEW060 FM260400
                       01006KT P6SM SKC=
201807242102 KSEA 242102Z 2421/2524 30007KT P6SM FEW060 FM250400 03006KT P6SM
                       SKC FM251800 31007KT P6SM SKC=
201807241720 TAF KSEA 241720Z 2418/2524 31007KT P6SM SKC FM250400 03006KT P6SM
                       SKC FM251800 31007KT P6SM SKC=
201807241501 KSEA 241501Z 2415/2518 VRB03KT P6SM SKC FM241900 31007KT P6SM SKC
                       FM250400 03006KT P6SM SKC=
201807241123 TAF KSEA 241123Z 2412/2518 VRB03KT P6SM SKC FM241900 31007KT P6SM
                       SKC FM250400 03006KT P6SM SKC=
201807240900 KSEA 240900Z 2409/2512 01005KT P6SM SKC FM241100 VRB03KT P6SM SKC
                       FM241900 30006KT P6SM SKC FM250400 01006KT
                       P6SM SKC=
201807240533 TAF KSEA 240533Z 2406/2512 01005KT P6SM SKC FM241100 VRB03KT P6SM
                       SKC FM241900 30006KT P6SM SKC FM250400 01006KT
                       P6SM SKC=
201807240301 KSEA 240301Z 2403/2506 01007KT P6SM SKC FM241800 30006KT P6SM SKC
                       FM250400 01006KT P6SM SKC=
201807232322 TAF KSEA 232322Z 2400/2506 32008KT P6SM FEW060 FM240300 02006KT
                       P6SM SKC FM241800 30006KT P6SM SKC FM250400
                       01006KT P6SM SKC=
201807232101 KSEA 232101Z 2321/2424 30008KT P6SM FEW060 FM240300 02006KT P6SM
                       SKC FM241800 29006KT P6SM SKC=
201807231721 TAF KSEA 231721Z 2318/2424 29006KT P6SM SKC FM240300 02006KT P6SM
                       SKC FM241800 29006KT P6SM SKC=
201807231500 KSEA 231500Z 2315/2418 35003KT P6SM SKC FM231800 32008KT P6SM SKC
                       FM240400 02006KT P6SM SKC=
201807231123 TAF KSEA 231123Z 2312/2418 03005KT P6SM SKC FM231800 32008KT P6SM
                       SKC FM240400 02006KT P6SM SKC=
201807230859 KSEA 230859Z 2309/2412 03008KT P6SM SKC FM231800 32008KT P6SM SKC
                       FM240400 02006KT P6SM SKC=
201807230520 TAF KSEA 230520Z 2306/2412 35008KT P6SM SKC FM230700 02005KT P6SM
                       SKC FM231800 32008KT P6SM SKC FM240400 02006KT
                       P6SM SKC=
201807230300 KSEA 230300Z 2303/2406 35008KT P6SM SKC FM230400 02005KT P6SM SKC
                       FM231800 30008KT P6SM SKC FM240400 02006KT
                       P6SM SKC=
201807222320 TAF KSEA 222320Z 2300/2406 30008KT P6SM SKC FM230400 02005KT P6SM
                       SKC FM231800 30008KT P6SM SKC FM240400 02006KT
                       P6SM SKC=
201807222101 KSEA 222101Z 2221/2324 30009KT P6SM SKC FM230000 35008KT P6SM SKC
                       FM230400 02005KT P6SM SKC FM231800 30007KT
                       P6SM SKC=
201807221733 TAF KSEA 221733Z 2218/2324 35007KT P6SM SKC FM230400 02005KT P6SM
                       SKC FM231800 30007KT P6SM SKC=
201807221501 KSEA 221501Z 2215/2318 03006KT P6SM SKC FM221800 33008KT P6SM SKC
                       FM230500 02006KT P6SM SKC=
201807221126 TAF KSEA 221126Z 2212/2318 03006KT P6SM SKC FM221800 33008KT P6SM
                       SKC FM230500 02006KT P6SM SKC=
201807220932 KSEA 220932Z 2210/2312 03006KT P6SM SKC FM221800 33008KT P6SM SKC
                       FM230400 02006KT P6SM SKC=
201807220520 TAF KSEA 220520Z 2206/2312 34007KT P6SM SKC FM220700 03006KT P6SM
                       SKC FM221800 33008KT P6SM SKC FM230400 02006KT
                       P6SM SKC=
201807220300 KSEA 220300Z 2203/2306 34007KT P6SM SKC FM220600 03006KT P6SM SKC
                       FM221800 33008KT P6SM SKC=
201807212320 TAF KSEA 212320Z 2200/2306 31008KT P6SM SKC FM220200 34007KT P6SM
                       SKC FM220600 03006KT P6SM SKC FM221800 33008KT
                       P6SM SKC=
201807212136 KSEA 212136Z 2122/2224 30009KT P6SM FEW030 FM220000 34008KT P6SM
                       SKC FM220600 03006KT P6SM SKC FM221800 33008KT
                       P6SM SKC=
201807211739 TAF KSEA 211739Z 2118/2224 28006KT P6SM FEW025 FM212000 33008KT
                       P6SM SKC FM220600 03006KT P6SM SKC FM221800
                       33008KT P6SM SKC=
201807211504 KSEA 211504Z 2115/2218 18005KT P6SM FEW040 FM211700 34008KT P6SM
                       SKC FM220600 03006KT P6SM SKC=
201807211130 TAF KSEA 211130Z 2112/2218 03006KT P6SM SCT060 FM211800 34008KT
                       P6SM SKC FM220600 03006KT P6SM SKC=
201807210905 KSEA 210905Z 2109/2212 03006KT P6SM SCT060 FM211800 34008KT P6SM
                       SCT250 FM220600 03006KT P6SM SKC=
201807210520 TAF KSEA 210520Z 2106/2212 01006KT P6SM BKN060 FM211200 VRB04KT
                       P6SM SCT020 BKN060 FM211800 28006KT P6SM
                       SCT250 FM212100 33007KT P6SM SCT250=
201807210301 KSEA 210301Z 2103/2206 31006KT P6SM FEW040 FM210500 01006KT P6SM
                       SKC FM211200 VRB04KT P6SM SCT020 SCT090
                       FM211800 28006KT P6SM SCT250 FM212100 33007KT
                       P6SM SCT250=
201807202320 TAF KSEA 202320Z 2100/2206 31006KT P6SM FEW040 FM210300 01006KT
                       P6SM SKC FM211200 VRB04KT P6SM SCT020 SCT090
                       FM211800 28006KT P6SM SCT250 FM212100 33007KT
                       P6SM SCT250=
201807202103 KSEA 202103Z 2021/2124 28005KT P6SM SCT040 FM210000 32007KT P6SM
                       FEW050 FM210300 01006KT P6SM SKC FM211200
                       VRB04KT P6SM SCT020 FM211800 28006KT P6SM
                       SCT250=
201807201917 KSEA 201917Z 2019/2124 25007KT P6SM FEW030 SCT050 FM202000 28006KT
                       P6SM SCT050 FM210000 32007KT P6SM SCT050
                       FM210300 01006KT P6SM SKC FM211200 VRB04KT
                       P6SM SCT020 FM211800 28006KT P6SM SCT250=
201807201826 KSEA 201826Z 2018/2124 22007KT P6SM SCT030 FM202000 28006KT P6SM
                       SCT050 FM210000 32007KT P6SM SCT050 FM210300
                       01006KT P6SM SKC FM211200 VRB04KT P6SM SCT020
                       FM211800 28006KT P6SM SCT250=
201807201800 KSEA 201800Z 2018/2124 19007KT P6SM BKN030 FM201900 24007KT P6SM
                       SCT035 FM202100 29006KT P6SM SCT050 FM210000
                       32007KT P6SM SCT050 FM210300 01006KT P6SM
                       SKC FM211200 VRB04KT P6SM SCT020 FM211800
                       28006KT P6SM SCT250=
201807201741 TAF KSEA 201741Z 2018/2124 22007KT P6SM FEW018 BKN025 BKN050 FM201900
                       25007KT P6SM FEW028 BKN050 FM202100 29006KT
                       P6SM SCT050 FM210000 32007KT P6SM SCT050
                       FM210300 01006KT P6SM SKC FM211200 VRB04KT
                       P6SM SCT020 FM211800 28006KT P6SM SCT250=
201807201638 KSEA 201638Z 2017/2118 23007KT P6SM OVC025 FM201900 26005KT P6SM
                       BKN040 FM202200 29005KT P6SM SCT050 FM210200
                       33005KT P6SM SKC=
201807201511 KSEA 201511Z 2015/2118 23007KT P6SM OVC018 FM201800 23007KT P6SM
                       OVC025 FM202000 26005KT P6SM BKN035 FM202200
                       29005KT P6SM SCT050=
201807201124 TAF KSEA 201124Z 2012/2118 22006KT P6SM OVC015 FM201800 24006KT
                       P6SM OVC022 FM202000 29006KT P6SM SCT025
                       BKN040=
201807200903 KSEA 200903Z 2009/2112 24006KT P6SM BKN025 OVC040 FM201900 26006KT
                       P6SM SCT035 FM210000 33006KT P6SM SCT040
                       SCT250=
201807200522 TAF KSEA 200522Z 2006/2112 26007KT P6SM SCT025 BKN040 FM201000
                       20006KT P6SM BKN025 FM201200 18006KT P6SM
                       OVC020 FM201900 26006KT P6SM SCT035 FM210000
                       33006KT P6SM SCT040 SCT250=
201807200307 KSEA 200307Z 2003/2106 26007KT P6SM SCT045 FM201000 20006KT P6SM
                       BKN025 FM201200 18006KT P6SM OVC020 FM201900
                       26006KT P6SM SCT035=
201807192321 TAF KSEA 192321Z 2000/2106 26007KT P6SM BKN045 FM200200 33006KT
                       P6SM SCT045 FM201000 20006KT P6SM BKN025
                       FM201200 18006KT P6SM OVC020 FM201900 26006KT
                       P6SM SCT035=
201807192104 KSEA 192104Z 1921/2024 21008KT P6SM SCT025 OVC040 FM192300 23006KT
                       P6SM SCT040 FM200200 33006KT P6SM SCT045
                       FM201000 20006KT P6SM BKN025 FM201200 18006KT
                       P6SM OVC020 FM201900 26006KT P6SM SCT035=
201807191721 TAF KSEA 191721Z 1918/2024 22006KT P6SM OVC020 FM192000 23006KT
                       P6SM BKN030 FM192100 24006KT P6SM SCT035
                       FM200200 33006KT P6SM SCT045 FM201000 20006KT
                       P6SM BKN025 FM201200 18006KT P6SM OVC020
                       FM201900 26006KT P6SM SCT035=
201807191500 KSEA 191500Z 1915/2018 19006KT P6SM OVC015 FM191700 20006KT P6SM
                       OVC022 FM191900 23006KT P6SM BKN030 FM192100
                       23006KT P6SM SCT035 FM200200 33006KT P6SM
                       BKN045 FM201200 20006KT P6SM BKN025=
201807191141 TAF KSEA 191141Z 1912/2018 20006KT P6SM OVC016 FM191700 20006KT
                       P6SM OVC022 FM191900 23006KT P6SM BKN030
                       FM192100 23006KT P6SM SCT035 FM200200 33006KT
                       P6SM BKN045 FM201200 20006KT P6SM BKN025=
201807190920 KSEA 190920Z 1909/2012 22008KT P6SM BKN035 FM191100 21006KT P6SM
                       OVC010 FM191600 20008KT P6SM OVC016 FM191700
                       21008KT P6SM SCT016 BKN025 FM191900 23008KT
                       P6SM SCT030 SCT250 FM200100 27006KT P6SM
                       SCT250=
201807190536 TAF KSEA 190536Z 1906/2012 22008KT P6SM BKN040 FM191100 21006KT
                       P6SM OVC010 FM191600 20008KT P6SM OVC016
                       FM191700 21008KT P6SM SCT016 BKN025 FM191900
                       23008KT P6SM SCT030 SCT250 FM200100 27006KT
                       P6SM SCT250=
201807190302 KSEA 190302Z 1903/2006 22007KT P6SM FEW040 SCT250 FM190600 22008KT
                       P6SM BKN030 FM191100 21006KT P6SM OVC010
                       FM191600 20008KT P6SM OVC016 FM191700 21008KT
                       P6SM SCT016 BKN025 FM191900 23008KT P6SM
                       SCT030 FM200100 27006KT P6SM SKC=
201807182348 TAF KSEA 182348Z 1900/2006 22007KT P6SM FEW250 FM190600 22008KT
                       P6SM BKN030 FM191100 21006KT P6SM OVC010
                       FM191600 20008KT P6SM OVC016 FM191700 21008KT
                       P6SM SCT016 BKN025 FM191900 23008KT P6SM
                       SCT030 FM200100 VRB04KT P6SM SKC=
201807182006 KSEA 182006Z 1820/1924 18007KT P6SM SCT022 FM182200 23011KT P6SM
                       SKC FM190600 22008KT P6SM BKN025 FM191100
                       21006KT P6SM OVC010 FM191600 20008KT P6SM
                       OVC016 FM191800 21008KT P6SM SCT016 BKN025
                       FM192000 23008KT P6SM SCT030=
201807181739 TAF KSEA 181739Z 1818/1924 21009KT P6SM OVC016
                      TEMPO 1820/1822 SCT022 BKN030 FM182200 23011KT
                       P6SM SCT030 FM190600 22008KT P6SM BKN020
                       FM191100 21006KT P6SM OVC010 FM191600 20008KT
                       P6SM OVC016 FM191800 21008KT P6SM SCT016
                       BKN025 FM192000 23008KT P6SM SCT030=
201807181121 TAF KSEA 181121Z 1812/1918 21008KT P6SM OVC013 FM181800 21009KT
                       P6SM OVC018
                      TEMPO 1820/1822 SCT022 FM182200 23011KT P6SM
                       SCT030 FM190600 22008KT P6SM BKN020 FM191100
                       20008KT P6SM OVC014=
201807180856 KSEA 180856Z 1809/1912 21008KT P6SM OVC012 FM181800 21009KT P6SM
                       OVC018 FM182000 22008KT P6SM SCT035=
201807180520 TAF KSEA 180520Z 1806/1912 25011KT P6SM SCT015
                      TEMPO 1806/1809 BKN015 FM180900 20008KT P6SM
                       OVC008 FM181800 21009KT P6SM OVC015 FM182000
                       22008KT P6SM SCT035=
201807180303 KSEA 180303Z 1803/1906 25011KT P6SM SKC
                      TEMPO 1807/1810 BKN015 FM181000 20008KT P6SM
                       OVC008 FM181800 21009KT P6SM OVC015 FM182000
                       22008KT P6SM SCT035=
201807172326 TAF KSEA 172326Z 1800/1906 21007KT P6SM FEW200 FM181200 20008KT
                       P6SM OVC008 FM181800 21009KT P6SM OVC015
                       FM182000 22008KT P6SM SCT035=
201807171748 TAF KSEA 171748Z 1718/1824 19009KT P6SM FEW200 FM180400 20009KT
                       P6SM SCT200
                      TEMPO 1809/1810 BKN035 FM181000 20009KT P6SM
                       OVC030
                      TEMPO 1810/1812 BKN007 OVC020 FM181200 19008KT
                       P6SM OVC008 FM181800 21009KT P6SM OVC015=
201807171509 KSEA 171509Z 1715/1818 21008KT P6SM FEW200 FM180400 20008KT P6SM
                       SCT200
                      TEMPO 1809/1812 BKN007 FM181200 20008KT P6SM
                       OVC006=
201807171135 TAF KSEA 171135Z 1712/1818 20004KT P6SM SKC FM171800 23008KT P6SM
                       SKC FM180400 20008KT P6SM SCT200
                      TEMPO 1809/1812 BKN007 FM181200 20008KT P6SM
                       OVC006=
201807170843 KSEA 170843Z 1709/1812 VRB04KT P6SM SKC FM171200 20004KT P6SM SKC
                       FM171800 23008KT P6SM SKC=
201807170525 TAF KSEA 170525Z 1706/1812 36006KT P6SM SKC FM170900 20005KT P6SM
                       SKC FM171800 23008KT P6SM SKC=
201807170307 KSEA 170307Z 1703/1806 36008KT P6SM FEW250 FM170900 22005KT P6SM
                       SKC=
201807162327 TAF KSEA 162327Z 1700/1806 36011KT P6SM FEW250 FM170900 22005KT
                       P6SM SKC=
201807162053 KSEA 162053Z 1621/1724 01011KT P6SM FEW200 FM170900 21004KT P6SM
                       SKC=
201807161732 TAF KSEA 161732Z 1618/1724 29007KT P6SM FEW200 FM170900 21004KT
                       P6SM SKC=
201807161502 KSEA 161502Z 1615/1718 30004KT P6SM FEW200 FM161800 32009KT P6SM
                       FEW200 FM170900 22004KT P6SM SKC=
201807161125 TAF KSEA 161125Z 1612/1718 02006KT P6SM SKC FM161800 32009KT P6SM
                       SKC FM170900 22004KT P6SM SKC=
201807160901 KSEA 160901Z 1609/1712 02006KT P6SM SKC FM161800 32009KT P6SM SKC=
201807160520 TAF KSEA 160520Z 1606/1712 35008KT P6SM SKC FM160700 02006KT P6SM
                       SKC FM161800 32009KT P6SM SKC=
201807160310 KSEA 160310Z 1603/1706 01009KT P6SM SKC FM160500 01006KT P6SM SKC
                       FM161800 32005KT P6SM SKC=
201807152323 TAF KSEA 152323Z 1600/1706 01009KT P6SM FEW150 FM160500 01006KT
                       P6SM SKC FM161000 29005KT P6SM SKC=
201807152103 KSEA 152103Z 1521/1624 33010KT P6SM FEW190 FM160500 01007KT P6SM
                       SKC FM161000 27004KT P6SM SKC=
201807151731 TAF KSEA 151731Z 1518/1624 35010KT P6SM FEW200 FM160500 01007KT
                       P6SM SKC FM161000 27004KT P6SM SKC=
201807151457 KSEA 151457Z 1515/1618 05004KT P6SM FEW230 FM151800 33008KT P6SM
                       SKC FM160500 01006KT P6SM SKC FM161000 VRB04KT
                       P6SM SKC=
201807151120 TAF KSEA 151120Z 1512/1618 02006KT P6SM SKC FM151800 33008KT P6SM
                       SKC FM160500 01006KT P6SM SKC FM161000 VRB04KT
                       P6SM SKC=
201807150857 KSEA 150857Z 1509/1612 36008KT P6SM SKC FM151000 02006KT P6SM SKC
                       FM151800 33008KT P6SM SKC FM160500 01006KT
                       P6SM SKC=
201807150520 TAF KSEA 150520Z 1506/1612 36008KT P6SM SKC FM150800 02006KT P6SM
                       SKC FM151800 33008KT P6SM SKC=
201807150302 KSEA 150302Z 1503/1606 36009KT P6SM SKC FM151800 32007KT P6SM FEW250=
201807142320 TAF KSEA 142320Z 1500/1606 36009KT P6SM SKC FM151800 32007KT P6SM
                       FEW250=
201807142101 KSEA 142101Z 1421/1524 36008KT P6SM SKC FM150500 02005KT P6SM SKC=
201807141722 TAF KSEA 141722Z 1418/1524 28005KT P6SM SKC FM142000 34007KT P6SM
                       SKC FM150500 02005KT P6SM SKC=
201807141502 KSEA 141502Z 1415/1518 00000KT P6SM SKC FM142000 36010KT P6SM SKC
                       FM150500 02005KT P6SM SKC=
201807141120 TAF KSEA 141120Z 1412/1518 VRB03KT P6SM SCT060 FM141500 35005KT
                       P6SM SKC FM142000 36010KT P6SM SKC FM150500
                       02005KT P6SM SKC=
201807140901 KSEA 140901Z 1409/1512 02005KT P6SM SKC FM141200 35005KT P6SM SKC
                       FM142000 36010KT P6SM SKC FM150500 02005KT
                       P6SM SKC=
201807140524 TAF KSEA 140524Z 1406/1512 35005KT P6SM FEW250 FM140700 02005KT
                       P6SM SKC FM141200 35005KT P6SM SKC FM142000
                       36010KT P6SM SKC=
201807140301 KSEA 140301Z 1403/1506 33005KT P6SM SCT250 FM140500 02005KT P6SM
                       SKC FM141200 35005KT P6SM FEW250=
201807132331 TAF KSEA 132331Z 1400/1506 33005KT P6SM SCT250 FM140500 02005KT
                       P6SM SKC FM141200 35005KT P6SM FEW250=
201807132100 KSEA 132100Z 1321/1424 31008KT P6SM SCT250 FM140500 01006KT P6SM
                       SKC FM141200 VRB03KT P6SM FEW250=
201807131730 TAF KSEA 131730Z 1318/1424 28006KT P6SM FEW250 FM132100 29009KT
                       P6SM SKC FM140500 01006KT P6SM SKC FM141200
                       VRB03KT P6SM FEW250=
201807131511 KSEA 131511Z 1315/1418 36006KT P6SM FEW250 FM132000 31008KT P6SM
                       SKC FM140600 02006KT P6SM SKC=
201807131120 TAF KSEA 131120Z 1312/1418 VRB04KT P6SM SKC FM132000 31008KT P6SM
                       SKC FM140600 02006KT P6SM SKC=
201807130856 KSEA 130856Z 1309/1412 04006KT P6SM SKC FM131100 VRB04KT P6SM SKC
                       FM132000 33008KT P6SM SKC FM140600 02006KT
                       P6SM SKC=
201807130520 TAF KSEA 130520Z 1306/1412 34008KT P6SM SKC FM130700 04006KT P6SM
                       SKC FM131100 VRB04KT P6SM SKC FM132000 33008KT
                       P6SM SKC=
201807130304 KSEA 130304Z 1303/1406 36010KT P6SM SKC FM130500 04006KT P6SM SKC
                       FM131100 VRB03KT P6SM SKC FM132000 35010KT
                       P6SM SKC=
201807122320 TAF KSEA 122320Z 1300/1406 36010KT P6SM SKC FM130500 04006KT P6SM
                       SKC FM131100 VRB03KT P6SM SKC FM132000 35010KT
                       P6SM SCT250=
201807122102 KSEA 122102Z 1221/1324 01010KT P6SM SKC FM130500 04006KT P6SM SKC
                       FM131100 VRB03KT P6SM SKC FM132100 35010KT
                       P6SM SCT200=
201807121912 KSEA 121912Z 1219/1324 01012KT P6SM SKC FM130500 04006KT P6SM SKC
                       FM131100 VRB03KT P6SM SKC=
201807121720 TAF KSEA 121720Z 1218/1324 VRB04KT P6SM SKC FM122100 34008KT P6SM
                       SKC FM130500 04006KT P6SM SKC FM131100 VRB03KT
                       P6SM SKC=
201807121138 TAF KSEA 121138Z 1212/1318 02006KT P6SM SKC FM122100 33009KT P6SM
                       SKC FM130500 02006KT P6SM SKC FM131100 VRB05KT
                       P6SM SKC=
201807120926 KSEA 120926Z 1209/1312 04006KT P6SM SKC FM122100 36009KT P6SM SKC
                       FM130500 02006KT P6SM SKC=
201807120520 TAF KSEA 120520Z 1206/1312 02006KT P6SM SKC FM122100 36009KT P6SM
                       SKC FM130500 02006KT P6SM SKC=
201807120249 KSEA 120249Z 1203/1306 36010KT P6SM SKC FM120500 02006KT P6SM SKC
                       FM122100 36012KT P6SM SKC=
201807112320 TAF KSEA 112320Z 1200/1306 36010KT P6SM SKC FM120500 02006KT P6SM
                       SKC FM122100 36012KT P6SM SKC=
201807112103 KSEA 112103Z 1121/1224 36010KT P6SM SKC FM120500 02006KT P6SM SKC
                       FM122100 36012KT P6SM SKC=
201807111720 TAF KSEA 111720Z 1118/1224 36012KT P6SM SKC FM120500 02006KT P6SM
                       SKC FM122100 36012KT P6SM SKC=
201807111507 KSEA 111507Z 1115/1218 36006KT P6SM SKC FM112100 36012KT P6SM SKC
                       FM120500 02006KT P6SM SKC=
201807111120 TAF KSEA 111120Z 1112/1218 03008KT P6SM FEW050 FM111900 35011KT
                       P6SM SKC FM120500 02006KT P6SM SKC=
201807110902 KSEA 110902Z 1109/1212 02007KT P6SM SKC FM111900 35010KT P6SM SKC
                       FM120500 02006KT P6SM SKC=
201807110520 TAF KSEA 110520Z 1106/1212 35009KT P6SM FEW050 FM110700 02007KT
                       P6SM SKC FM111900 35010KT P6SM SKC FM120500
                       02006KT P6SM SKC=
201807110300 KSEA 110300Z 1103/1206 34009KT P6SM FEW050 SCT090 FM110700 02005KT
                       P6SM SKC FM111800 35009KT P6SM SCT250=
201807110033 KSEA 110033Z 1101/1206 33007KT P6SM SCT050 SCT080 FM110700 02005KT
                       P6SM SKC FM111800 35009KT P6SM SCT250=
201807102320 TAF KSEA 102320Z 1100/1206 VRB04KT P6SM BKN050 FM110700 02005KT
                       P6SM SKC FM111800 35009KT P6SM SCT250=
201807102100 KSEA 102100Z 1021/1124 VRB04KT P6SM SCT025 BKN050 FM102200 34006KT
                       P6SM SCT060 FM110700 02005KT P6SM SKC FM111800
                       35009KT P6SM SCT250=
201807101925 KSEA 101925Z 1019/1124 24004KT P6SM SCT017 BKN035 FM102000 VRB04KT
                       P6SM SCT025 BKN050 FM102200 34006KT P6SM
                       SCT060 FM110700 02005KT P6SM SKC FM111800
                       35009KT P6SM SCT250=
201807101742 TAF KSEA 101742Z 1018/1124 VRB04KT P6SM OVC010 FM102000 VRB04KT
                       P6SM SCT025 BKN050 FM102200 34006KT P6SM
                       SCT060 FM110700 02005KT P6SM SKC FM111800
                       35009KT P6SM SCT250=
201807101626 KSEA 101626Z 1016/1118 24008KT P6SM OVC010 FM102000 24006KT P6SM
                       SCT025 BKN050 FM110000 33006KT P6SM SCT060
                       FM110700 01005KT P6SM SKC=
201807101455 KSEA 101455Z 1015/1118 20008KT P6SM VCSH OVC015
                      TEMPO 1015/1018 6SM -RA OVC012 FM102000 24006KT
                       P6SM SCT025 BKN050 FM110000 33006KT P6SM
                       SCT060 FM110700 01005KT P6SM SKC=
201807101127 TAF KSEA 101127Z 1012/1118 20008KT P6SM OVC015
                      TEMPO 1016/1020 BKN025 BKN050 FM102000 24006KT
                       P6SM SCT025 BKN050 FM110000 33006KT P6SM
                       SCT060 FM110700 01005KT P6SM SKC=
201807100839 KSEA 100839Z 1009/1112 19006KT P6SM BKN025 OVC040 FM101800 24006KT
                       P6SM SCT025 BKN060 FM110000 33006KT P6SM
                       SCT060 FM110500 01005KT P6SM SCT050=
201807100524 TAF KSEA 100524Z 1006/1112 24004KT P6SM OVC040 FM101000 19006KT
                       P6SM OVC015 FM101800 24006KT P6SM SCT025
                       BKN060 FM110000 33006KT P6SM SCT060 FM110500
                       01005KT P6SM SCT050=
201807100303 KSEA 100303Z 1003/1106 22010KT P6SM -SHRA FEW040 OVC100 FM100500
                       24005KT P6SM OVC040 FM100900 19006KT P6SM
                       OVC015 FM101800 24006KT P6SM SCT025 BKN060
                       FM110000 33006KT P6SM SCT060=
201807092320 TAF KSEA 092320Z 1000/1106 22010KT P6SM FEW030 BKN200 FM100500
                       24005KT P6SM OVC050 FM100900 19006KT P6SM
                       OVC015 FM101800 24006KT P6SM SCT025 BKN060
                       FM110000 33006KT P6SM SCT060=
201807092102 KSEA 092102Z 0921/1024 21010KT P6SM FEW025 SCT090 BKN200 FM100500
                       24005KT P6SM OVC050 FM100900 19006KT P6SM
                       OVC015=
201807091734 TAF KSEA 091734Z 0918/1024 20009KT P6SM BKN015 OVC200 FM091900
                       24009KT P6SM SCT060 BKN120 BKN200 FM100500
                       24005KT P6SM OVC050 FM100900 19006KT P6SM
                       OVC015=
201807091602 KSEA 091602Z 0916/1018 20008KT P6SM BKN015 BKN200 FM091730 20008KT
                       P6SM SCT018 BKN200 FM092100 24009KT P6SM
                       SCT060 BKN120 BKN200 FM100500 24005KT P6SM
                       OVC050 FM100900 19006KT P6SM OVC015=
201807091502 KSEA 091502Z 0915/1018 18008KT P6SM BKN009 BKN120 OVC200 FM091600
                       22005KT P6SM FEW009 SCT120 BKN200 FM092100
                       24009KT P6SM SCT060 BKN120 BKN200 FM100500
                       24005KT P6SM OVC050 FM100900 19006KT P6SM
                       OVC015=
201807091214 KSEA 091214Z 0912/1018 20005KT P6SM SCT008 SCT200
                      TEMPO 0912/0916 BKN008 FM091600 22005KT P6SM
                       FEW008 SCT120 BKN200 FM092100 24009KT P6SM
                       SCT060 BKN120 BKN200 FM100500 24005KT P6SM
                       OVC050 FM100900 19006KT P6SM OVC015=
201807091124 TAF KSEA 091124Z 0912/1018 20005KT P6SM SCT200 FM091400 20004KT
                       P6SM SCT008 BKN200 FM091600 22005KT P6SM
                       SCT120 BKN200 FM092100 24009KT P6SM SCT060
                       BKN120 BKN200 FM100500 24005KT P6SM OVC050
                       FM100900 19006KT P6SM OVC015=
201807090901 KSEA 090901Z 0909/1012 20005KT P6SM BKN200 FM091400 23004KT P6SM
                       SCT025 BKN050
                      TEMPO 0914/0917 BKN025 OVC050 FM092100 27009KT
                       P6SM SCT030 BKN050 FM100400 24005KT P6SM
                       OVC050 FM100900 20004KT P6SM OVC015=
201807090521 TAF KSEA 090521Z 0906/1012 30004KT P6SM FEW120 BKN230 FM090900
                       20005KT P6SM BKN200 FM091400 23004KT P6SM
                       SCT025 BKN050
                      TEMPO 0914/0917 BKN025 OVC050 FM092100 27009KT
                       P6SM SCT030 BKN050 FM100400 24005KT P6SM
                       OVC050 FM100900 20004KT P6SM OVC015=
201807090301 KSEA 090301Z 0903/1006 34007KT P6SM FEW130 BKN200 FM090900 20005KT
                       P6SM BKN250 FM091500 23004KT P6SM SCT025
                       BKN050 FM092100 27009KT P6SM SCT030 BKN050=
201807090019 KSEA 090019Z 0900/1006 34008KT P6SM BKN250 FM090700 23004KT P6SM
                       BKN250 FM091100 20005KT P6SM BKN250 FM091500
                       23004KT P6SM SCT025 BKN050 FM092100 27009KT
                       P6SM SCT030 BKN050=
201807082320 TAF KSEA 082320Z 0900/1006 34008KT P6SM BKN250 FM090700 23004KT
                       P6SM BKN250 FM091100 20005KT P6SM BKN250
                       FM091500 23004KT P6SM SCT025 BKN100 FM092100
                       27009KT P6SM BKN025 OVC060=
201807082108 KSEA 082108Z 0821/0924 34008KT P6SM BKN250 FM090700 23004KT P6SM
                       BKN250 FM091100 20005KT P6SM BKN250 FM091500
                       23004KT P6SM SCT025 BKN100=
201807081724 TAF KSEA 081724Z 0818/0924 01007KT P6SM FEW200 FM082000 34008KT
                       P6SM SCT250 FM090700 23004KT P6SM SCT250
                       FM091100 20005KT P6SM BKN250 FM091500 19004KT
                       P6SM SCT025 BKN100=
201807081458 KSEA 081458Z 0815/0918 01007KT P6SM FEW250 FM082000 34008KT P6SM
                       SCT250 FM090700 23004KT P6SM SCT250 FM091100
                       20005KT P6SM BKN250=
201807081121 TAF KSEA 081121Z 0812/0918 01007KT P6SM SKC FM082000 34008KT P6SM
                       SCT250 FM090900 23004KT P6SM SCT250 FM091500
                       20005KT P6SM BKN250=
201807080852 KSEA 080852Z 0809/0912 01007KT P6SM SKC FM082000 34008KT P6SM SCT250=
201807080520 TAF KSEA 080520Z 0806/0912 VRB04KT P6SM SKC FM082000 34008KT P6SM
                       SCT250=
201807080300 KSEA 080300Z 0803/0906 VRB04KT P6SM SKC FM082000 34008KT P6SM SCT250=
201807072320 TAF KSEA 072320Z 0800/0906 22006KT P6SM SCT040 BKN070 FM080300
                       30006KT P6SM SCT070 FM081200 02004KT P6SM
                       FEW070 SCT250 FM081800 33006KT P6SM SCT250=
201807072100 KSEA 072100Z 0721/0824 22006KT P6SM SCT040 BKN060 FM080300 30006KT
                       P6SM SCT060 FM081200 02004KT P6SM FEW060
                       SCT250 FM081800 33006KT P6SM SCT250=
201807071725 TAF KSEA 071725Z 0718/0824 20008KT P6SM SCT015 BKN030 BKN050 FM071900
                       22006KT P6SM SCT030 BKN050 FM080300 30006KT
                       P6SM SCT050 FM081200 02004KT P6SM FEW050
                       SCT250=
201807071503 KSEA 071503Z 0715/0818 20008KT P6SM SCT020 BKN040 OVC080 FM071900
                       22006KT P6SM SCT030 BKN050 FM080100 30006KT
                       P6SM SCT050 FM081200 02004KT P6SM FEW050
                       SCT250=
201807071134 TAF KSEA 071134Z 0712/0818 20008KT P6SM SCT020 BKN035 OVC090 FM071900
                       22006KT P6SM SCT030 BKN050 FM080100 34006KT
                       P6SM SCT050=
201807070919 KSEA 070919Z 0709/0812 22008KT P6SM SCT020 BKN040 OVC100 FM071300
                       18006KT P6SM BKN022 OVC040 FM071900 22006KT
                       P6SM SCT030 BKN050 FM080300 33005KT P6SM
                       SCT050=
201807070520 TAF KSEA 070520Z 0706/0812 22008KT P6SM BKN050 FM071000 18006KT
                       P6SM BKN030 FM072000 22006KT P6SM BKN050
                       FM080300 33005KT P6SM SCT050=
201807070300 KSEA 070300Z 0703/0806 23012G20KT P6SM SCT050 SCT100 FM070900 18008KT
                       P6SM BKN040 FM072000 24006KT P6SM BKN050=
201807062320 TAF KSEA 062320Z 0700/0806 22012KT P6SM VCSH SCT030 BKN040 BKN100
                       FM070800 18008KT P6SM VCSH BKN025 BKN040
                       FM071400 18008KT P6SM SCT030 BKN045 FM072000
                       24006KT P6SM BKN050=
201807062106 KSEA 062106Z 0621/0724 22009KT P6SM SCT040 SCT100 BKN250 FM062300
                       22014KT P6SM VCSH SCT030 BKN040 BKN100 FM070800
                       18008KT P6SM VCSH BKN025 BKN040 FM071400
                       18008KT P6SM SCT030 BKN045 FM072000 24006KT
                       P6SM BKN050=
201807061720 TAF KSEA 061720Z 0618/0724 22009KT P6SM FEW050 BKN140 FM062200
                       22014KT P6SM VCSH SCT030 BKN045 BKN070 FM070800
                       18008KT P6SM VCSH BKN025 BKN040 FM071400
                       18008KT P6SM SCT030 BKN045=
201807061501 KSEA 061501Z 0615/0718 19006KT P6SM FEW050 BKN140 FM061900 19006KT
                       P6SM SCT050 BKN100 FM062200 22014KT P6SM
                       VCSH SCT030 BKN045 BKN070 FM070800 18008KT
                       P6SM VCSH BKN025 BKN040 FM071400 18008KT
                       P6SM SCT030 BKN045=
201807061137 TAF KSEA 061137Z 0612/0718 19006KT P6SM SCT120 FM061900 19006KT
                       P6SM SCT050 BKN100 FM062200 22014KT P6SM
                       VCSH SCT030 BKN045 BKN070 FM070800 18008KT
                       P6SM VCSH BKN025 BKN040 FM071400 18008KT
                       P6SM SCT030 BKN045=
201807060910 KSEA 060910Z 0609/0712 20008KT P6SM BKN100 FM061200 18008KT P6SM
                       SCT050 SCT120 FM062100 22014KT P6SM VCSH
                       BKN050 FM070500 18008KT P6SM VCSH BKN030=
201807060520 TAF KSEA 060520Z 0606/0712 20008KT P6SM BKN120 BKN250 FM061200
                       18008KT P6SM SCT015 SCT050 SCT120 FM061800
                       20010KT P6SM SCT025 BKN050 FM062100 22014KT
                       P6SM VCSH BKN050 FM070500 18008KT P6SM VCSH
                       BKN030=
201807060305 KSEA 060305Z 0603/0706 23008KT P6SM BKN120 BKN200 FM061600 21010KT
                       P6SM BKN050 BKN100 FM062100 21014KT P6SM
                       VCSH BKN050=
201807052320 TAF KSEA 052320Z 0600/0706 26006KT P6SM SCT200 FM060600 20006KT
                       P6SM BKN100 BKN200 FM061600 21010KT P6SM
                       SCT050 BKN100 FM062100 21013KT P6SM BKN050=
201807052101 KSEA 052101Z 0521/0624 26006KT P6SM SCT200 FM060600 20006KT P6SM
                       BKN100 BKN200 FM061600 21010KT P6SM SCT050
                       BKN100=
201807051720 TAF KSEA 051720Z 0518/0624 26006KT P6SM SCT150 FM060600 20006KT
                       P6SM BKN100 BKN200 FM061600 19008KT P6SM
                       SCT050 BKN100=
201807051459 KSEA 051459Z 0515/0618 VRB04KT P6SM SCT150 FM051800 26006KT P6SM
                       SCT150 FM060600 20006KT P6SM BKN100 BKN200=
201807051130 TAF KSEA 051130Z 0512/0618 19006KT P6SM BKN150 FM051800 25006KT
                       P6SM SCT150 FM060600 18006KT P6SM BKN100
                       BKN200=
201807050946 KSEA 050946Z 0510/0612 20006KT P6SM BKN120 BKN200 FM051800 VRB04KT
                       P6SM SCT120 SCT200 FM060400 22008KT P6SM
                       SCT050 BKN090=
201807050520 TAF KSEA 050520Z 0506/0612 VRB04KT P6SM BKN120 BKN200 FM051800
                       VRB04KT P6SM SCT120 SCT200 FM060400 22008KT
                       P6SM SCT050 BKN090=
201807050410 KSEA 050410Z 0504/0606 VRB04KT P6SM BKN120 BKN200 FM052200 23007KT
                       P6SM SCT050 BKN150=
201807042320 TAF KSEA 042320Z 0500/0606 30007KT P6SM FEW100 BKN140 OVC250 FM050600
                       01005KT P6SM FEW090 BKN120 BKN250 FM051100
                       03005KT P6SM SCT250 FM051800 30007KT P6SM
                       SCT250 FM052200 27006KT P6SM SCT120 BKN250=
201807042101 KSEA 042101Z 0421/0524 36014KT P6SM SCT150 BKN200 FM050000 30007KT
                       P6SM FEW090 BKN120 OVC250 FM050600 02005KT
                       P6SM FEW090 BKN120 BKN250 FM051100 04005KT
                       P6SM SCT250 FM051800 30007KT P6SM SCT250=
201807041720 TAF KSEA 041720Z 0418/0524 36014KT P6SM FEW150 BKN250 FM050000
                       30007KT P6SM FEW090 BKN120 OVC250 FM050600
                       02005KT P6SM FEW090 BKN120 BKN250 FM051100
                       04005KT P6SM SCT250=
201807041502 KSEA 041502Z 0415/0518 01010KT P6SM SCT250 FM041800 36014KT P6SM
                       FEW120 BKN250 FM050000 30007KT P6SM FEW090
                       BKN120 OVC250 FM050600 02005KT P6SM FEW090
                       BKN120 BKN250 FM051100 02005KT P6SM SCT250=
201807041133 TAF KSEA 041133Z 0412/0518 01010KT P6SM SCT250 FM041800 36014KT
                       P6SM FEW120 BKN250 FM050000 02005KT P6SM
                       FEW090 BKN120 OVC250 FM050600 02005KT P6SM
                       FEW090 BKN120 BKN250 FM051100 02005KT P6SM
                       SCT250=
201807040900 KSEA 040900Z 0409/0512 02010KT P6SM SCT250 FM041800 36014KT P6SM
                       FEW130 BKN250 FM050000 03008KT P6SM FEW090
                       BKN130 OVC250 FM050600 VRB05KT P6SM FEW090
                       BKN130 BKN250=
201807040536 TAF KSEA 040536Z 0406/0512 02010KT P6SM SCT250 FM041800 36014KT
                       P6SM FEW130 BKN250 FM050000 03008KT P6SM
                       FEW090 BKN130 OVC250 FM050600 VRB05KT P6SM
                       FEW090 BKN130 BKN250=
201807040308 KSEA 040308Z 0403/0506 36010KT P6SM FEW250 FM041500 02012KT P6SM
                       SCT200 FM042000 36012G18KT P6SM BKN200 FM050300
                       02008KT P6SM BKN200=
201807032323 TAF KSEA 032323Z 0400/0506 32008KT P6SM FEW035 FEW200 FM040300
                       35008KT P6SM FEW200 FM041500 02012KT P6SM
                       SCT200 FM042000 36012G18KT P6SM BKN200 FM050300
                       02008KT P6SM BKN200=
201807032104 KSEA 032104Z 0321/0424 29006KT P6SM FEW030 FEW200 FM040000 34006KT
                       P6SM FEW200 FM040600 03008KT P6SM FEW200
                       FM041500 02012KT P6SM SCT200=
201807031729 TAF KSEA 031729Z 0318/0424 19006KT P6SM FEW025 FEW200 FM032000
                       30006KT P6SM FEW200 FM040000 34006KT P6SM
                       SKC FM040600 03008KT P6SM SKC FM041500 02012KT
                       P6SM SCT200=
201807031504 KSEA 031504Z 0315/0418 20005KT P6SM FEW007 SCT070 FM031700 24006KT
                       P6SM FEW070 FEW200 FM032000 30006KT P6SM
                       FEW200 FM040000 34006KT P6SM SKC FM040600
                       03008KT P6SM SKC FM041500 02012KT P6SM SCT200=
201807031323 KSEA 031323Z 0313/0418 17004KT P6SM FEW008 SCT080 SCT200 FM031700
                       24006KT P6SM SCT200 FM032000 30006KT P6SM
                       SCT200 FM040000 34006KT P6SM SKC FM040600
                       03008KT P6SM SKC FM041500 02012KT P6SM SCT200=
201807031120 TAF KSEA 031120Z 0312/0418 17004KT P6SM SCT008 SCT080 SCT200
                      TEMPO 0312/0316 6SM BR BKN005 FM031700 24006KT
                       P6SM SCT100 SCT200 FM032000 30006KT P6SM
                       SCT200 FM040000 34006KT P6SM SKC FM040600
                       03008KT P6SM SKC FM041500 02012KT P6SM SCT200=
201807030901 KSEA 030901Z 0309/0412 19004KT P6SM SCT120 SCT200 FM031200 21004KT
                       P6SM FEW012 SCT120 SCT200 FM031700 25006KT
                       P6SM FEW120 SCT200 FM032000 30006KT P6SM
                       SCT200 FM040000 36006KT P6SM SKC FM040600
                       03008KT P6SM SKC=
201807030528 TAF KSEA 030528Z 0306/0412 VRB04KT P6SM FEW070 FM031200 21004KT
                       P6SM SCT012 FM031700 25006KT P6SM SKC FM032000
                       30006KT P6SM SKC FM040000 36006KT P6SM SKC
                       FM040600 03008KT P6SM SKC=
201807030310 KSEA 030310Z 0303/0406 33006KT P6SM SCT060 FM030600 17005KT P6SM
                       SCT060 SCT200 FM031100 20003KT P6SM FEW015
                       BKN050 FM031500 19005KT P6SM BKN050 BKN250
                       FM032000 27006KT P6SM SCT050 SCT250 FM040200
                       36005KT P6SM SCT050=
201807030105 KSEA 030105Z 0301/0406 36006KT P6SM BKN060 FM030600 17005KT P6SM
                       SCT060 SCT200 FM031100 20003KT P6SM FEW015
                       BKN050 FM031500 19005KT P6SM BKN050 BKN250
                       FM032000 27006KT P6SM SCT050 SCT250 FM040200
                       36005KT P6SM SCT050=
201807022327 TAF KSEA 022327Z 0300/0406 30005KT P6SM SCT060 BKN070 FM030300
                       34007KT P6SM BKN070 BKN200 FM030600 17005KT
                       P6SM SCT050 SCT200 FM031100 20003KT P6SM
                       FEW015 BKN050 FM031500 19005KT P6SM BKN050
                       BKN250 FM032000 27006KT P6SM SCT050 SCT250
                       FM040200 36005KT P6SM SCT050=
201807022113 KSEA 022113Z 0221/0324 30005KT P6SM VCSH FEW035 SCT050 BKN080 FM030000
                       32009KT P6SM VCSH SCT035 BKN070 FM030300
                       36007KT P6SM BKN070 BKN200 FM030600 17005KT
                       P6SM SCT050 SCT200 FM031100 20003KT P6SM
                       FEW015 SCT040 FM031500 19007KT P6SM BKN050
                       BKN250 FM032000 27006KT P6SM SCT050 SCT250=
201807021745 TAF KSEA 021745Z 0218/0324 17007KT P6SM VCSH FEW016 BKN024 BKN050
                       TEMPO 0220/0224 SCT030 BKN060 FM030000 32009KT
                       P6SM VCSH SCT035 BKN070 FM030300 36007KT
                       P6SM BKN070 BKN200 FM030600 17005KT P6SM
                       SCT050 SCT200 FM031100 20003KT P6SM FEW015
                       SCT040 FM031500 16007KT P6SM SCT040 BKN250=
201807021503 KSEA 021503Z 0215/0318 17007KT P6SM VCSH BKN014 BKN022 FM021800
                       21011KT P6SM VCSH BKN027 BKN045
                      TEMPO 0220/0224 SCT030 BKN060 FM030000 32009KT
                       P6SM VCSH SCT035 BKN070 FM030300 36007KT
                       P6SM BKN070 BKN200 FM030600 17005KT P6SM
                       SCT050 SCT200 FM031100 20003KT P6SM FEW015
                       SCT040=
201807021133 TAF KSEA 021133Z 0212/0318 17007KT P6SM VCSH OVC018 FM021800 21011KT
                       P6SM VCSH BKN027 BKN045
                      TEMPO 0220/0224 SCT030 BKN060 FM030000 32009KT
                       P6SM VCSH SCT035 BKN070 FM030300 36007KT
                       P6SM BKN070 BKN200 FM030600 17005KT P6SM
                       SCT050 SCT200 FM031100 20003KT P6SM FEW015
                       SCT040=
201807020859 KSEA 020859Z 0209/0312 22006KT P6SM OVC022 FM021200 17009KT P6SM
                       BKN020 OVC040 FM021800 21011KT P6SM -SHRA
                       SCT030 BKN050 FM030000 32012KT P6SM VCSH
                       SCT035 BKN070 FM030300 36008KT P6SM BKN070
                       BKN250 FM030600 VRB04KT P6SM SCT100 SCT250=
201807020543 TAF KSEA 020543Z 0206/0312 05008KT P6SM OVC040 FM020900 13006KT
                       P6SM OVC035 FM021200 17009KT P6SM BKN025
                       OVC040 FM021800 21011KT P6SM -SHRA SCT030
                       BKN050 FM030000 32012KT P6SM VCSH SCT035
                       BKN070 FM030300 36008KT P6SM BKN070 BKN250
                       FM030600 VRB04KT P6SM SCT100 SCT250=
201807020204 KSEA 020204Z 0202/0306 05010KT P6SM SCT050 BKN080 FM020700 18009KT
                       P6SM OVC022 FM021300 18007KT P6SM OVC015
                       FM021900 24006KT P6SM BKN025 BKN050 FM022100
                       25005KT P6SM SCT030 BKN050=
201807020132 KSEA 020132Z 0202/0306 02012KT P6SM SCT060
                      TEMPO 0202/0204 BKN060 FM020700 18009KT P6SM
                       OVC022 FM021300 18007KT P6SM OVC015 FM021900
                       24006KT P6SM BKN025 BKN050 FM022100 25005KT
                       P6SM SCT030 BKN050=
201807020045 KSEA 020045Z 0201/0306 30007KT P6SM BKN050 FM020700 18009KT P6SM
                       OVC022 FM021300 18007KT P6SM OVC015 FM021900
                       24006KT P6SM BKN025 BKN050 FM022100 25005KT
                       P6SM SCT030 BKN050=
201807020000 KSEA 020000Z 0200/0306 30007KT P6SM BKN035 BKN050 FM020700 18009KT
                       P6SM OVC022 FM021300 18007KT P6SM OVC015
                       FM021900 24006KT P6SM BKN025 BKN050 FM022100
                       25005KT P6SM SCT030 BKN050=
201807012322 TAF KSEA 012322Z 0200/0306 22009KT P6SM BKN050 BKN060 FM020200
                       VRB05KT P6SM BKN035 OVC050 FM020700 18009KT
                       P6SM OVC022 FM021300 18007KT P6SM OVC015
                       FM021900 24006KT P6SM BKN025 BKN050 FM022100
                       25005KT P6SM SCT030 BKN050=
201807012102 KSEA 012102Z 0121/0224 22011KT P6SM FEW025 BKN060 FM020400 36008KT
                       P6SM BKN035 OVC050 FM020700 18009KT P6SM
                       OVC022 FM021300 18008KT P6SM OVC015 FM021900
                       21010KT P6SM BKN025 BKN050 FM022100 21010KT
                       P6SM SCT030 SCT060=
201807011720 TAF KSEA 011720Z 0118/0224 21009KT P6SM VCSH SCT015 OVC035 FM012200
                       24012G18KT P6SM VCSH BKN035 BKN050 FM020000
                       36006KT P6SM VCSH BKN035 BKN050 FM020700
                       18009KT P6SM OVC022 FM021900 21010KT P6SM
                       BKN035 BKN050=
201807011602 KSEA 011602Z 0116/0218 21010KT P6SM VCSH SCT012 BKN025 OVC050 FM012200
                       24012G20KT P6SM BKN035 BKN050
                      TEMPO 0200/0204 36010KT FM020500 30011KT
                       P6SM SCT022 BKN040 FM020900 19009KT P6SM
                       OVC022=
201807011503 KSEA 011503Z 0115/0218 20009KT P6SM -DZ BKN008 OVC012
                      TEMPO 0115/0118 4SM -DZ BR FM011800 22012KT
                       P6SM VCSH SCT012 BKN022 OVC050 FM012200
                       24012G20KT P6SM BKN035 BKN050
                      TEMPO 0200/0204 36010KT FM020500 30011KT
                       P6SM SCT022 BKN040 FM020900 19009KT P6SM
                       OVC022=
201807011334 KSEA 011334Z 0114/0218 20009KT P6SM VCSH FEW007 BKN015 OVC025
                      TEMPO 0114/0118 3SM -RA BR BKN005 OVC015
                       FM011800 22012KT P6SM VCSH SCT012 BKN022
                       OVC050 FM012200 24012G20KT P6SM BKN035 BKN050
                       TEMPO 0200/0204 36010KT FM020500 30011KT
                       P6SM SCT022 BKN040 FM020900 19009KT P6SM
                       OVC022=
201807011131 TAF KSEA 011131Z 0112/0218 20009KT P6SM VCSH FEW007 BKN015 OVC025
                       TEMPO 0112/0116 BKN007 OVC015 FM011800 22012KT
                       P6SM VCSH SCT017 BKN025 OVC050 FM012200
                       24012G20KT P6SM BKN035 BKN050
                      TEMPO 0200/0204 36010KT FM020500 30011KT
                       P6SM SCT022 BKN040 FM020900 19009KT P6SM
                       OVC022=
201807010901 KSEA 010901Z 0109/0212 20010KT P6SM BKN015 OVC030 FM011200 20009KT
                       P6SM VCSH FEW007 OVC015 FM011800 22012KT
                       P6SM VCSH OVC025 FM012000 24012G20KT P6SM
                       BKN035 BKN050 FM020200 22012KT P6SM SCT035
                       SCT050 FM020600 19009KT P6SM SCT028 BKN050
                       FM020900 19009KT P6SM OVC025=
201807010541 TAF KSEA 010541Z 0106/0212 20009KT P6SM OVC015 FM011200 20009KT
                       P6SM VCSH FEW007 OVC015 FM011800 22012KT
                       P6SM VCSH OVC025 FM012000 24012G20KT P6SM
                       BKN035 BKN050 FM020200 22012KT P6SM SCT035
                       SCT050 FM020600 19009KT P6SM SCT028 BKN050
                       FM020900 19009KT P6SM OVC025=
201807010307 KSEA 010307Z 0103/0206 22012KT P6SM OVC022 FM010600 19008KT P6SM
                       OVC015 FM011900 21010KT P6SM BKN025 FM012200
                       22010KT P6SM BKN035=
201807010020 KSEA 010020Z 0100/0206 22012KT P6SM VCSH OVC025 FM010500 19008KT
                       P6SM OVC025 FM011000 20010KT P6SM OVC015
                       FM011300 19008KT P6SM OVC010 FM011900 21010KT
                       P6SM BKN025 FM012200 22010KT P6SM BKN035=