##########################################################
# Query made at 02/17/2025 20:28:00 UTC
# Time interval: from 06/01/2018 00:00  to 06/30/2018 23:59  UTC
##########################################################

##########################################################
# KSEA, Seattle, Seattle-Tacoma International Airport (United States)
# WMO index: 72793. WIGOS ID: 0-20000-0-72793
# Latitude 47-27-00N. Longitude 122-17-59W. Altitude 130 m.
##########################################################

###################################
#  METAR/SPECI from KSEA
###################################
201806302353 METAR KSEA 302353Z 21013KT 10SM OVC023 18/12 A3018 RMK AO2 SLP226 60000 T01780117 10189 20156 56004=
201806302253 METAR KSEA 302253Z 24011KT 10SM OVC030 18/12 A3019 RMK AO2 RAB00E42 SLP228 P0000 T01830122=
201806302153 METAR KSEA 302153Z 23011KT 10SM OVC030 19/11 A3019 RMK AO2 SLP228 T01890111=
201806302053 METAR KSEA 302053Z 22012KT 10SM BKN030 OVC070 18/11 A3019 RMK AO2 RAB05E39 SLP230 P0000 60000 T01830111 56004=
201806301953 METAR KSEA 301953Z 20010KT 10SM BKN028 OVC085 18/12 A3020 RMK AO2 SLP231 T01780117=
201806301915 SPECI KSEA 301915Z 21008KT 10SM BKN024 BKN032 OVC085 18/11 A3020 RMK AO2 T01780111=
201806301853 METAR KSEA 301853Z 20010KT 10SM SCT021 BKN031 OVC085 18/11 A3019 RMK AO2 SLP229 T01780106=
201806301753 METAR KSEA 301753Z 21007KT 10SM FEW015 BKN021 BKN085 16/11 A3021 RMK AO2 SLP233 T01560106 10167 20139 58000=
201806301653 METAR KSEA 301653Z 20008KT 10SM BKN015 BKN021 OVC032 16/11 A3021 RMK AO2 SLP235 T01560111=
201806301553 METAR KSEA 301553Z 22010KT 10SM SCT012 BKN022 BKN031 15/11 A3021 RMK AO2 SLP235 T01500111=
201806301453 METAR KSEA 301453Z 23006KT 10SM FEW008 BKN016 OVC022 14/11 A3021 RMK AO2 SLP234 T01440111 51007=
201806301353 METAR KSEA 301353Z 22012KT 10SM FEW007 BKN015 OVC020 14/11 A3020 RMK AO2 SLP234 T01390111=
201806301253 METAR KSEA 301253Z 21009KT 10SM FEW005 OVC015 14/12 A3020 RMK AO2 SLP229 T01390117=
201806301233 SPECI KSEA 301233Z 19008KT 10SM FEW005 BKN015 OVC021 14/12 A3019 RMK AO2 T01390117=
201806301223 SPECI KSEA 301223Z 19008KT 10SM BKN015 BKN021 14/12 A3019 RMK AO2 T01390117=
201806301153 METAR KSEA 301153Z 20006KT 10SM FEW017 SCT024 BKN035 14/12 A3019 RMK AO2 SLP228 T01390122 10194 20133 53005=
201806301053 METAR KSEA 301053Z 19005KT 10SM SCT034 BKN049 14/12 A3017 RMK AO2 SLP223 T01440122=
201806300953 METAR KSEA 300953Z 27005KT 10SM FEW035 BKN050 15/12 A3017 RMK AO2 SLP221 T01500117=
201806300853 METAR KSEA 300853Z 19003KT 10SM SCT039 BKN065 16/12 A3017 RMK AO2 SLP223 T01560122 50003=
201806300753 METAR KSEA 300753Z 18003KT 10SM BKN035 OVC048 16/12 A3017 RMK AO2 SLP223 T01610122 402220128=
201806300653 METAR KSEA 300653Z 05005KT 10SM BKN036 OVC060 19/13 A3017 RMK AO2 SLP221 T01890128=
201806300553 METAR KSEA 300553Z VRB03KT 10SM BKN037 OVC060 19/12 A3016 RMK AO2 SLP219 T01940117 10211 20194 53010=
201806300453 METAR KSEA 300453Z 07006KT 10SM BKN065 BKN080 19/12 A3015 RMK AO2 SLP215 T01940122=
201806300353 METAR KSEA 300353Z 04006KT 10SM OVC050 20/12 A3014 RMK AO2 SLP210 T02000117=
201806300253 METAR KSEA 300253Z 01005KT 10SM OVC050 21/11 A3013 RMK AO2 SLP210 T02060111 53000=
201806300153 METAR KSEA 300153Z 30005KT 10SM SCT042 OVC055 20/11 A3013 RMK AO2 SLP208 T02000106=
201806300053 METAR KSEA 300053Z 28005KT 10SM BKN050 BKN090 21/11 A3012 RMK AO2 SLP206 T02110111=
201806292353 METAR KSEA 292353Z 26007KT 10SM SCT037 BKN075 BKN090 20/11 A3013 RMK AO2 SLP209 T02000106 10222 20172 56002=
201806292253 METAR KSEA 292253Z 26007KT 10SM BKN040 BKN080 20/10 A3013 RMK AO2 SLP209 T02000100=
201806292153 METAR KSEA 292153Z VRB03KT 10SM SCT036 SCT075 BKN100 BKN200 21/10 A3013 RMK AO2 SLP210 T02060100=
201806292053 METAR KSEA 292053Z VRB03KT 10SM FEW021 SCT045 BKN085 BKN200 19/11 A3014 RMK AO2 SLP211 T01890106 52002=
201806291953 METAR KSEA 291953Z VRB05KT 10SM FEW021 SCT047 BKN100 BKN200 18/11 A3014 RMK AO2 SLP211 T01830106=
201806291853 METAR KSEA 291853Z 24006KT 10SM FEW021 SCT047 BKN100 BKN220 18/11 A3013 RMK AO2 SLP209 T01780111=
201806291753 METAR KSEA 291753Z 24007KT 10SM FEW021 SCT045 BKN090 18/11 A3013 RMK AO2 SLP209 T01780106 10178 20128 51007=
201806291653 METAR KSEA 291653Z 20008KT 10SM FEW021 BKN120 BKN220 17/10 A3012 RMK AO2 SLP206 T01670100=
201806291553 METAR KSEA 291553Z 18007KT 10SM SCT021 BKN100 BKN220 16/10 A3012 RMK AO2 SLP206 T01560100=
201806291453 METAR KSEA 291453Z 20008KT 10SM FEW018 BKN095 BKN220 14/09 A3011 RMK AO2 SLP202 T01390094 50001=
201806291353 METAR KSEA 291353Z 20005KT 10SM FEW035 BKN090 BKN200 14/09 A3011 RMK AO2 SLP203 T01390094=
201806291253 METAR KSEA 291253Z 17005KT 10SM FEW045 SCT070 BKN090 13/10 A3011 RMK AO2 SLP201 T01280100=
201806291153 METAR KSEA 291153Z 19007KT 10SM FEW070 BKN095 13/10 A3011 RMK AO2 SLP201 T01330100 10156 20128 51001=
201806291053 METAR KSEA 291053Z 19007KT 10SM BKN065 OVC090 13/10 A3011 RMK AO2 SLP201 T01330100=
201806290953 METAR KSEA 290953Z 19004KT 10SM SCT047 OVC060 14/10 A3011 RMK AO2 SLP202 T01390100=
201806290853 METAR KSEA 290853Z 24003KT 10SM SCT048 OVC065 14/10 A3011 RMK AO2 SLP200 T01440100 55000=
201806290753 METAR KSEA 290753Z 25003KT 10SM OVC047 14/10 A3010 RMK AO2 SLP197 T01440100 402060117=
201806290653 METAR KSEA 290653Z 21004KT 10SM OVC045 15/11 A3010 RMK AO2 SLP200 T01500106=
201806290553 METAR KSEA 290553Z 00000KT 10SM OVC044 15/11 A3011 RMK AO2 SLP201 T01500106 10194 20150 50002=
201806290453 METAR KSEA 290453Z 29003KT 10SM OVC037 17/09 A3011 RMK AO2 SLP202 T01670094=
201806290353 METAR KSEA 290353Z 23004KT 10SM OVC035 17/09 A3010 RMK AO2 SLP198 T01720094=
201806290253 METAR KSEA 290253Z 00000KT 10SM OVC037 18/09 A3010 RMK AO2 SLP199 T01780089 53002=
201806290153 METAR KSEA 290153Z 29004KT 10SM OVC042 18/09 A3010 RMK AO2 SLP197 T01780094=
201806290053 METAR KSEA 290053Z 25007KT 10SM BKN047 OVC070 18/08 A3010 RMK AO2 SLP197 T01830083=
201806282353 METAR KSEA 282353Z 26006KT 10SM SCT045 OVC070 19/08 A3009 RMK AO2 SLP196 60000 T01940083 10206 20156 56003=
201806282253 METAR KSEA 282253Z 25006KT 10SM FEW035 SCT070 BKN085 19/08 A3010 RMK AO2 SLP197 T01890083=
201806282153 METAR KSEA 282153Z 23007KT 210V280 10SM FEW030 FEW075 OVC090 19/09 A3010 RMK AO2 RAE27 SLP199 P0000 T01940089=
201806282053 METAR KSEA 282053Z 23008KT 10SM -RA SCT027 OVC090 18/09 A3011 RMK AO2 RAB51 SLP200 P0000 60000 T01780094 50000=
201806281953 METAR KSEA 281953Z 23007KT 10SM FEW025 FEW045 OVC085 17/08 A3011 RMK AO2 SLP201 T01720083=
201806281853 METAR KSEA 281853Z 23007KT 10SM FEW025 SCT045 BKN095 17/09 A3011 RMK AO2 SLP200 T01670089=
201806281753 METAR KSEA 281753Z 24005KT 10SM SCT020 BKN100 16/09 A3011 RMK AO2 SLP200 T01610089 10161 20122 51006=
201806281653 METAR KSEA 281653Z 22010KT 10SM SCT018 SCT044 BKN150 15/08 A3010 RMK AO2 SLP198 T01500083=
201806281553 METAR KSEA 281553Z 21005KT 10SM SCT016 BKN044 BKN140 14/09 A3010 RMK AO2 SLP197 T01440089=
201806281528 SPECI KSEA 281528Z VRB04KT 10SM BKN016 BKN035 BKN130 14/09 A3009 RMK AO2 T01390089=
201806281453 METAR KSEA 281453Z 18005KT 10SM SCT014 BKN035 BKN130 13/09 A3009 RMK AO2 SLP194 T01330089 51004=
201806281429 SPECI KSEA 281429Z VRB04KT 10SM BKN014 BKN035 13/09 A3009 RMK AO2 T01330089=
201806281353 METAR KSEA 281353Z 17003KT 10SM SCT014 BKN035 13/09 A3009 RMK AO2 SLP194 T01280089=
201806281323 SPECI KSEA 281323Z 20006KT 10SM SCT013 BKN035 12/09 A3008 RMK AO2 T01220089=
201806281302 SPECI KSEA 281302Z 21004KT 10SM BKN013 BKN034 12/09 A3008 RMK AO2 T01220089=
201806281253 METAR KSEA 281253Z 21006KT 10SM SCT012 BKN034 12/09 A3008 RMK AO2 SLP192 T01220089=
201806281237 SPECI KSEA 281237Z 21005KT 10SM BKN033 12/09 A3008 RMK AO2 T01220089=
201806281153 METAR KSEA 281153Z 24004KT 10SM BKN023 OVC028 12/09 A3008 RMK AO2 SLP190 T01220089 10150 20117 53007=
201806281053 METAR KSEA 281053Z 19004KT 10SM OVC021 12/09 A3006 RMK AO2 SLP185 T01220094=
201806281025 SPECI KSEA 281025Z 20004KT 10SM BKN023 12/09 A3006 RMK AO2 T01220089=
201806280953 METAR KSEA 280953Z 17004KT 10SM SCT075 12/08 A3006 RMK AO2 SLP184 T01220083=
201806280853 METAR KSEA 280853Z 19007KT 10SM BKN075 13/09 A3006 RMK AO2 SLP183 T01330089 57001=
201806280753 METAR KSEA 280753Z 21004KT 10SM BKN043 OVC080 14/09 A3006 RMK AO2 SLP183 T01440094 401940122=
201806280653 METAR KSEA 280653Z 20003KT 10SM BKN042 OVC080 15/09 A3006 RMK AO2 SLP184 T01500089=
201806280553 METAR KSEA 280553Z 21006KT 10SM FEW040 OVC085 15/09 A3006 RMK AO2 SLP184 T01500089 10194 20150 50005=
201806280453 METAR KSEA 280453Z 22005KT 10SM FEW040 OVC085 16/09 A3006 RMK AO2 SLP185 T01560094=
201806280353 METAR KSEA 280353Z 22008KT 10SM FEW040 BKN085 BKN150 16/10 A3005 RMK AO2 SLP181 T01610100=
201806280253 METAR KSEA 280253Z 21007KT 10SM FEW040 SCT120 OVC200 17/09 A3004 RMK AO2 SLP179 T01720094 55001=
201806280153 METAR KSEA 280153Z 21008KT 10SM FEW040 BKN150 OVC200 18/09 A3004 RMK AO2 SLP178 T01830094=
201806280053 METAR KSEA 280053Z 25008KT 10SM FEW040 BKN140 OVC200 19/09 A3004 RMK AO2 SLP179 T01940094=
201806272353 METAR KSEA 272353Z VRB03KT 10SM FEW045 BKN110 OVC200 19/09 A3005 RMK AO2 SLP180 T01890089 10194 20167 58003=
201806272253 METAR KSEA 272253Z VRB03KT 10SM FEW045 BKN110 BKN160 19/09 A3005 RMK AO2 SLP181 T01890089=
201806272153 METAR KSEA 272153Z VRB06KT 10SM FEW030 SCT100 BKN160 19/08 A3005 RMK AO2 SLP182 T01940083=
201806272053 METAR KSEA 272053Z 28004KT 10SM FEW030 SCT110 BKN230 18/10 A3005 RMK AO2 SLP182 T01830100 58004=
201806271953 METAR KSEA 271953Z 29004KT 10SM FEW030 BKN120 BKN250 18/09 A3007 RMK AO2 SLP186 T01780089=
201806271853 METAR KSEA 271853Z 27004KT 10SM FEW030 BKN150 BKN250 17/07 A3007 RMK AO2 SLP189 T01720072=
201806271753 METAR KSEA 271753Z 27004KT 10SM FEW030 FEW180 BKN250 17/09 A3007 RMK AO2 SLP187 T01670089 10178 20122 58003=
201806271653 METAR KSEA 271653Z 33005KT 10SM FEW180 BKN250 17/09 A3008 RMK AO2 SLP190 T01670094=
201806271553 METAR KSEA 271553Z VRB03KT 10SM FEW180 BKN250 16/08 A3008 RMK AO2 SLP192 T01560083=
201806271453 METAR KSEA 271453Z 04006KT 10SM BKN180 BKN250 14/08 A3008 RMK AO2 SLP190 T01440083 50000=
201806271353 METAR KSEA 271353Z 05007KT 10SM FEW190 BKN250 14/08 A3008 RMK AO2 SLP190 T01390078=
201806271253 METAR KSEA 271253Z 03007KT 10SM SCT250 13/08 A3008 RMK AO2 SLP190 T01280078=
201806271153 METAR KSEA 271153Z 03007KT 10SM SCT250 13/08 A3008 RMK AO2 SLP190 T01280078 10150 20122 56006=
201806271053 METAR KSEA 271053Z 02006KT 10SM SCT250 13/08 A3008 RMK AO2 SLP192 T01280078=
201806270953 METAR KSEA 270953Z 34003KT 10SM SCT250 12/08 A3009 RMK AO2 SLP194 T01220078=
201806270853 METAR KSEA 270853Z 04008KT 10SM SCT250 14/08 A3009 RMK AO2 SLP196 T01390078 58010=
201806270753 METAR KSEA 270753Z 04009KT 10SM FEW050 BKN250 14/08 A3011 RMK AO2 SLP200 T01440078 402280117=
201806270653 METAR KSEA 270653Z 02008KT 10SM FEW050 BKN250 14/07 A3012 RMK AO2 SLP206 T01440072=
201806270553 METAR KSEA 270553Z 35008KT 10SM FEW050 SCT250 14/07 A3013 RMK AO2 SLP207 T01390072 10228 20139 58007=
201806270453 METAR KSEA 270453Z 33007KT 10SM FEW050 SCT250 16/07 A3014 RMK AO2 SLP212 T01610067=
201806270353 METAR KSEA 270353Z 35009KT 10SM FEW003 SCT050 SCT250 17/08 A3014 RMK AO2 SLP211 FU FEW003 T01720083=
201806270253 METAR KSEA 270253Z 35010KT 10SM FEW050 SCT250 18/08 A3015 RMK AO2 SLP214 T01830078 56010=
201806270153 METAR KSEA 270153Z 36010KT 10SM SCT050 SCT250 21/06 A3015 RMK AO2 SLP214 T02110061=
201806270053 METAR KSEA 270053Z 33009KT 10SM SCT050 SCT250 22/07 A3016 RMK AO2 SLP218 T02170067=
201806262353 METAR KSEA 262353Z 24006KT 10SM SCT050 SCT080 21/08 A3018 RMK AO2 SLP224 T02060078 10222 20167 58010=
201806262253 METAR KSEA 262253Z VRB05KT 10SM SCT049 SCT070 22/08 A3019 RMK AO2 SLP228 T02170083=
201806262153 METAR KSEA 262153Z 31007G15KT 10SM SCT048 SCT070 20/08 A3020 RMK AO2 SLP232 T02000078=
201806262053 METAR KSEA 262053Z 10SM SCT037 SCT050 20/08 A3021 RMK AO2 SLP235 T02000083 56006=
201806261953 METAR KSEA 261953Z 33005KT 10SM SCT035 BKN050 19/08 A3021 RMK AO2 SLP236 T01890078=
201806261853 METAR KSEA 261853Z VRB03KT 10SM FEW024 BKN035 18/08 A3022 RMK AO2 SLP238 T01780078=
201806261827 SPECI KSEA 261827Z 04006KT 10SM FEW023 BKN032 BKN250 18/07 A3022 RMK AO2 T01780072=
201806261753 METAR KSEA 261753Z 35004KT 10SM FEW020 BKN028 BKN250 17/08 A3023 RMK AO2 SLP241 T01670078 10183 20122 50003=
201806261735 SPECI KSEA 261735Z 07005KT 10SM FEW020 BKN028 BKN250 18/08 A3023 RMK AO2 T01780083=
201806261653 METAR KSEA 261653Z 07007KT 10SM SCT022 BKN030 BKN250 16/09 A3023 RMK AO2 SLP243 T01610089=
201806261644 SPECI KSEA 261644Z 07008KT 10SM SCT022 BKN030 BKN250 16/08 A3023 RMK AO2 T01610083=
201806261553 METAR KSEA 261553Z 04010KT 10SM BKN017 BKN023 14/09 A3023 RMK AO2 SLP241 T01440089=
201806261453 METAR KSEA 261453Z 08005KT 10SM FEW012 BKN020 BKN045 13/09 A3022 RMK AO2 SLP238 T01330089 51009=
201806261353 METAR KSEA 261353Z 18005KT 10SM FEW011 BKN017 BKN045 13/09 A3021 RMK AO2 SLP236 T01280089=
201806261253 METAR KSEA 261253Z 16005KT 10SM FEW012 BKN016 BKN044 13/09 A3020 RMK AO2 SLP232 T01280089=
201806261234 SPECI KSEA 261234Z 16003KT 10SM BKN016 BKN044 BKN070 13/09 A3020 RMK AO2 T01280089=
201806261213 SPECI KSEA 261213Z 17005KT 10SM SCT019 BKN044 OVC070 12/09 A3019 RMK AO2 T01220089=
201806261200 SPECI KSEA 261200Z 16004KT 10SM BKN018 OVC070 13/09 A3019 RMK AO2 T01280089=
201806261153 METAR KSEA 261153Z 16005KT 10SM SCT018 BKN070 13/09 A3019 RMK AO2 SLP229 T01280089 10144 20117 53006=
201806261136 SPECI KSEA 261136Z 17005KT 10SM SCT023 SCT070 13/09 A3018 RMK AO2 T01280089=
201806261053 METAR KSEA 261053Z 00000KT 10SM BKN024 BKN040 13/08 A3018 RMK AO2 SLP227 T01280083=
201806261042 SPECI KSEA 261042Z 00000KT 10SM BKN024 BKN040 13/08 A3018 RMK AO2 T01280083=
201806260953 METAR KSEA 260953Z 17004KT 10SM FEW028 BKN040 13/09 A3018 RMK AO2 SLP224 T01280089=
201806260906 SPECI KSEA 260906Z 18004KT 10SM SCT028 OVC040 13/09 A3017 RMK AO2 T01330089=
201806260853 METAR KSEA 260853Z 19004KT 10SM BKN026 13/09 A3017 RMK AO2 SLP223 T01280089 51005=
201806260838 SPECI KSEA 260838Z 17004KT 10SM BKN026 13/09 A3017 RMK AO2 T01280089=
201806260753 METAR KSEA 260753Z 21005KT 10SM SCT028 SCT080 13/09 A3017 RMK AO2 SLP221 T01280089 402170128=
201806260653 METAR KSEA 260653Z 21004KT 10SM FEW041 SCT080 13/09 A3017 RMK AO2 SLP220 T01330089=
201806260553 METAR KSEA 260553Z 00000KT 10SM FEW035 BKN080 14/09 A3016 RMK AO2 SLP217 T01440094 10194 20139 51012=
201806260453 METAR KSEA 260453Z 28004KT 10SM SCT034 BKN080 14/09 A3015 RMK AO2 SLP215 T01440094=
201806260353 METAR KSEA 260353Z 27003KT 10SM FEW035 BKN075 15/09 A3013 RMK AO2 SLP208 T01500094=
201806260253 METAR KSEA 260253Z 30007KT 10SM FEW035 BKN075 16/09 A3012 RMK AO2 SLP205 T01560094 53003=
201806260153 METAR KSEA 260153Z 24008KT 10SM FEW035 BKN075 17/08 A3011 RMK AO2 SLP201 T01670083=
201806260053 METAR KSEA 260053Z 22009KT 10SM FEW035 BKN080 19/08 A3011 RMK AO2 SLP201 T01890078=
201806252353 METAR KSEA 252353Z 24010KT 10SM FEW035 BKN075 19/07 A3011 RMK AO2 SLP202 T01890067 10217 20172 53004=
201806252253 METAR KSEA 252253Z 20016G21KT 10SM FEW035 BKN070 21/07 A3010 RMK AO2 SLP198 T02060067=
201806252153 METAR KSEA 252153Z 22014G22KT 10SM FEW030 SCT050 21/07 A3010 RMK AO2 SLP197 T02110072=
201806252053 METAR KSEA 252053Z 20014G20KT 10SM SCT030 SCT050 20/08 A3010 RMK AO2 SLP198 T02000083 53012=
201806251953 METAR KSEA 251953Z 21015G21KT 10SM SCT030 BKN050 19/08 A3008 RMK AO2 SLP192 T01890083=
201806251853 METAR KSEA 251853Z 22015G22KT 10SM SCT026 BKN060 18/09 A3007 RMK AO2 SLP187 SHRA NE T01830094=
201806251833 SPECI KSEA 251833Z 21013KT 10SM SCT026 BKN060 18/10 A3007 RMK AO2 SHRA N-NE T01780100=
201806251753 METAR KSEA 251753Z 20013KT 10SM BKN020 BKN060 17/11 A3006 RMK AO2 SLP186 T01720106 10178 20128 51018=
201806251653 METAR KSEA 251653Z 21013KT 10SM BKN016 17/11 A3005 RMK AO2 SLP180 T01720111=
201806251553 METAR KSEA 251553Z 22010KT 10SM BKN015 15/11 A3003 RMK AO2 SLP175 T01500106=
201806251548 SPECI KSEA 251548Z 23013KT 10SM BKN015 14/11 A3003 RMK AO2=
201806251453 METAR KSEA 251453Z 18009KT 10SM BKN013 14/11 A3001 RMK AO2 SLP166 T01390111 53015=
201806251353 METAR KSEA 251353Z 20012G15KT 10SM BKN010 BKN018 13/11 A2999 RMK AO2 SLP161 T01330111=
201806251327 SPECI KSEA 251327Z 23007KT 10SM BKN010 BKN042 13/11 A2999 RMK AO2 T01280106=
201806251253 METAR KSEA 251253Z 23012KT 10SM SCT006 BKN016 13/11 A2998 RMK AO2 SLP157 T01280106=
201806251153 METAR KSEA 251153Z 20010KT 9SM BKN006 BKN010 OVC015 13/12 A2997 RMK AO2 SLP151 60013 70013 T01330122 10172 20133 51008=
201806251117 SPECI KSEA 251117Z 20009KT 10SM BKN008 BKN015 OVC023 14/12 A2996 RMK AO2 CIG 005V013 T01390122=
201806251108 SPECI KSEA 251108Z 20008KT 10SM SCT008 BKN012 OVC023 14/13 A2996 RMK AO2 T01390128=
201806251053 METAR KSEA 251053Z 20004KT 10SM FEW004 BKN016 OVC021 14/13 A2996 RMK AO2 SLP150 T01390128=
201806251044 SPECI KSEA 251044Z 21004KT 10SM FEW004 BKN016 OVC021 14/13 A2996 RMK AO2 T01440128=
201806250953 METAR KSEA 250953Z 28005KT 10SM FEW004 SCT010 OVC014 13/13 A2995 RMK AO2 SLP147 T01330128=
201806250933 SPECI KSEA 250933Z 29004KT 10SM FEW004 BKN014 OVC085 13/13 A2995 RMK AO2 T01330128=
201806250853 METAR KSEA 250853Z 29007KT 10SM FEW016 BKN060 OVC080 14/13 A2994 RMK AO2 SLP143 60013 T01440128 51002=
201806250753 METAR KSEA 250753Z VRB04KT 10SM FEW050 SCT070 BKN090 15/13 A2993 RMK AO2 RAB0659E51 PRESRR SLP138 P0013 T01500128 402610122=
201806250653 METAR KSEA 250653Z 05006KT 10SM BKN070 OVC090 17/11 A2996 RMK AO2 SLP151 T01670106=
201806250553 METAR KSEA 250553Z 35012KT 10SM OVC065 17/10 A2993 RMK AO2 PRESRR SLP141 T01720100 10261 20172 53037=
201806250453 METAR KSEA 250453Z 02016KT 10SM BKN090 BKN110 18/09 A2988 RMK AO2 SLP124 T01830094=
201806250353 METAR KSEA 250353Z 36018G23KT 10SM FEW080 SCT150 BKN240 19/08 A2985 RMK AO2 PK WND 02026/0343 SLP111 T01940083=
201806250253 METAR KSEA 250253Z 01016KT 10SM SCT150 BKN220 22/06 A2982 RMK AO2 SLP103 T02170061 55010=
201806250153 METAR KSEA 250153Z 36016KT 10SM BKN150 23/07 A2982 RMK AO2 SLP100 T02280072=
201806250053 METAR KSEA 250053Z 35009KT 10SM BKN150 25/12 A2983 RMK AO2 SLP105 T02500117=
201806242353 METAR KSEA 242353Z 35007KT 10SM FEW150 SCT250 26/11 A2985 RMK AO2 SLP113 T02560111 10261 20178 56024=
201806242253 METAR KSEA 242253Z 30011KT 10SM FEW150 SCT250 25/12 A2988 RMK AO2 SLP122 T02500122=
201806242153 METAR KSEA 242153Z 29008KT 10SM FEW150 SCT250 24/12 A2990 RMK AO2 SLP128 T02390122=
201806242053 METAR KSEA 242053Z 31009KT 10SM FEW150 FEW250 23/13 A2993 RMK AO2 SLP138 T02330128 58025=
201806241953 METAR KSEA 241953Z 31008KT 10SM FEW150 FEW250 22/13 A2995 RMK AO2 SLP147 T02170128=
201806241853 METAR KSEA 241853Z 32008KT 10SM FEW005 FEW250 19/12 A2999 RMK AO2 SLP159 T01890122=
201806241753 METAR KSEA 241753Z 28006KT 10SM FEW005 18/12 A3000 RMK AO2 SLP164 T01780122 10183 20122 58017=
201806241653 METAR KSEA 241653Z 30006KT 8SM FEW005 16/12 A3003 RMK AO2 SLP175 T01610117=
201806241622 SPECI KSEA 241622Z 30005KT 7SM SCT006 16/12 A3004 RMK AO2 T01610117=
201806241553 METAR KSEA 241553Z VRB04KT 6SM HZ BKN006 16/12 A3005 RMK AO2 SLP180 T01560117=
201806241543 SPECI KSEA 241543Z 36004KT 6SM HZ BKN006 15/12 A3005 RMK AO2 T01500117=
201806241453 METAR KSEA 241453Z 35005KT 5SM HZ BKN004 14/12 A3005 RMK AO2 SLP181 T01440117 58012=
201806241353 METAR KSEA 241353Z 33007KT 6SM BR BKN004 13/12 A3007 RMK AO2 SLP186 T01330117=
201806241346 SPECI KSEA 241346Z 32006KT 7SM BKN004 13/12 A3007 RMK AO2 T01330117=
201806241307 SPECI KSEA 241307Z 34004KT 10SM FEW004 FEW080 13/11 A3007 RMK AO2 T01280111=
201806241253 METAR KSEA 241253Z 32003KT 9SM BKN004 12/11 A3008 RMK AO2 SLP192 T01220111=
201806241232 SPECI KSEA 241232Z 33003KT 10SM BKN004 13/11 A3009 RMK AO2 T01280111=
201806241211 SPECI KSEA 241211Z 06003KT 10SM FEW005 13/12 A3009 RMK AO2 T01330117=
201806241153 METAR KSEA 241153Z 06006KT 10SM CLR 13/11 A3009 RMK AO2 SLP194 T01330111 10172 20122 58007=
201806241053 METAR KSEA 241053Z 36003KT 10SM CLR 13/11 A3010 RMK AO2 SLP198 T01330111=
201806240953 METAR KSEA 240953Z 35004KT 10SM CLR 14/12 A3011 RMK AO2 SLP201 T01390117=
201806240853 METAR KSEA 240853Z 01004KT 10SM CLR 14/12 A3011 RMK AO2 SLP201 T01440117 58009=
201806240753 METAR KSEA 240753Z 32005KT 10SM CLR 15/12 A3012 RMK AO2 SLP205 T01500117 402220133=
201806240653 METAR KSEA 240653Z 36005KT 10SM CLR 17/12 A3013 RMK AO2 SLP208 T01670122=
201806240553 METAR KSEA 240553Z 34005KT 10SM CLR 18/12 A3013 RMK AO2 SLP210 T01780117 10222 20178 58004=
201806240453 METAR KSEA 240453Z 35003KT 10SM CLR 18/11 A3015 RMK AO2 SLP214 T01830111=
201806240353 METAR KSEA 240353Z 29003KT 10SM FEW036 FEW220 19/11 A3014 RMK AO2 SLP213 T01890111=
201806240253 METAR KSEA 240253Z 29007KT 10SM FEW039 FEW220 21/11 A3015 RMK AO2 SLP214 T02060106 56013=
201806240153 METAR KSEA 240153Z 28008KT 10SM FEW039 SCT220 22/10 A3016 RMK AO2 SLP217 T02170100=
201806240053 METAR KSEA 240053Z 28007KT 10SM SCT039 SCT200 22/10 A3017 RMK AO2 SLP221 T02170100=
201806232353 METAR KSEA 232353Z 30008KT 10SM SCT034 SCT042 21/11 A3018 RMK AO2 SLP227 T02110111 10217 20156 58006=
201806232253 METAR KSEA 232253Z 29006KT 10SM SCT030 BKN039 21/12 A3019 RMK AO2 SLP228 T02110117=
201806232205 SPECI KSEA 232205Z 24006KT 10SM SCT025 BKN036 19/12 A3020 RMK AO2 T01940122=
201806232153 METAR KSEA 232153Z 05004KT 10SM BKN025 BKN038 20/12 A3020 RMK AO2 SLP231 T02000122=
201806232053 METAR KSEA 232053Z 25006KT 10SM BKN022 18/12 A3020 RMK AO2 SLP233 T01780117 58000=
201806231953 METAR KSEA 231953Z 25005KT 10SM OVC017 17/12 A3021 RMK AO2 SLP235 T01720117=
201806231853 METAR KSEA 231853Z VRB03KT 10SM OVC015 17/12 A3021 RMK AO2 SLP235 T01670117=
201806231839 SPECI KSEA 231839Z VRB04KT 10SM OVC015 17/12 A3021 RMK AO2 T01670117=
201806231753 METAR KSEA 231753Z 03005KT 10SM OVC012 16/11 A3020 RMK AO2 SLP234 T01560111 10156 20133 53010=
201806231653 METAR KSEA 231653Z 36005KT 10SM OVC012 16/11 A3019 RMK AO2 SLP230 T01560111=
201806231553 METAR KSEA 231553Z 04004KT 10SM OVC013 14/11 A3018 RMK AO2 SLP227 T01440111=
201806231453 METAR KSEA 231453Z 09004KT 10SM OVC012 14/12 A3017 RMK AO2 SLP223 T01390117 53008=
201806231437 SPECI KSEA 231437Z 09007KT 10SM OVC012 14/12 A3017 RMK AO2 T01390117=
201806231353 METAR KSEA 231353Z 11004KT 10SM SCT009 OVC015 14/12 A3016 RMK AO2 SLP219 T01390117=
201806231253 METAR KSEA 231253Z 08007KT 10SM SCT005 BKN013 OVC022 13/12 A3015 RMK AO2 SLP216 T01330117=
201806231236 SPECI KSEA 231236Z 09005KT 4SM BR SCT005 BKN015 OVC022 14/12 A3015 RMK AO2 T01390122=
201806231153 METAR KSEA 231153Z 09009KT 5SM BR BKN006 OVC015 13/12 A3015 RMK AO2 RAE42 SLP215 P0001 60007 70007 T01330122 10150 20133 51006=
201806231143 SPECI KSEA 231143Z 09007KT 5SM BR BKN004 OVC009 14/12 A3015 RMK AO2 RAE42 CIG 003V008 P0001 T01390122=
201806231058 SPECI KSEA 231058Z 08007KT 2SM -RA BR SCT004 OVC015 14/13 A3015 RMK AO2 P0000 T01390128=
201806231053 METAR KSEA 231053Z 08006KT 2SM -RA BR SCT005 BKN013 OVC017 14/13 A3015 RMK AO2 SLP215 P0002 T01390128=
201806231006 SPECI KSEA 231006Z 15004KT 2SM -RA BR SCT005 BKN014 OVC024 13/12 A3015 RMK AO2 P0001 T01330122=
201806230953 METAR KSEA 230953Z 13003KT 2SM -RA BR BKN007 OVC014 13/13 A3014 RMK AO2 RAE26B33 CIG 002V010 SLP213 P0003 T01330128=
201806230932 SPECI KSEA 230932Z 17006KT 2SM BR SCT005 BKN009 OVC012 13/12 A3013 RMK AO2 RAE26 P0003 T01330122=
201806230921 SPECI KSEA 230921Z 16004KT 1 1/2SM -RA BR SCT005 OVC012 14/13 A3013 RMK AO2 P0002 T01390128=
201806230853 METAR KSEA 230853Z 06007KT 1 1/2SM -RA BR BKN003 OVC011 14/13 A3013 RMK AO2 SLP208 P0001 60001 T01390128 56002=
201806230848 SPECI KSEA 230848Z 05007KT 1 1/2SM -RA BR BKN003 OVC011 14/13 A3013 RMK AO2 P0001=
201806230823 SPECI KSEA 230823Z 04009KT 4SM -RA BR BKN004 OVC009 14/13 A3013 RMK AO2 P0000 T01440128=
201806230804 SPECI KSEA 230804Z 03007KT 6SM -RA BR BKN006 BKN010 OVC016 14/12 A3013 RMK AO2 CIG 004V009 P0000 T01390122=
201806230753 METAR KSEA 230753Z 03008KT 6SM -RA BR SCT007 OVC016 14/12 A3013 RMK AO2 RAB35 SLP209 P0000 T01440122 402060139=
201806230716 SPECI KSEA 230716Z 03011KT 9SM FEW007 BKN016 OVC021 15/12 A3013 RMK AO2 T01500117=
201806230653 METAR KSEA 230653Z 03009KT 10SM BKN022 OVC028 15/12 A3013 RMK AO2 SLP209 T01500117=
201806230553 METAR KSEA 230553Z VRB03KT 10SM OVC021 14/11 A3014 RMK AO2 RAB28E41 SLP210 P0000 60000 T01440111 10206 20144 53005=
201806230510 SPECI KSEA 230510Z 00000KT 10SM OVC028 14/11 A3013 RMK AO2 T01440111=
201806230453 METAR KSEA 230453Z 28003KT 10SM BKN034 OVC048 14/11 A3013 RMK AO2 SLP210 T01440106=
201806230353 METAR KSEA 230353Z 25006KT 10SM BKN048 OVC100 16/11 A3012 RMK AO2 SLP205 T01610111=
201806230253 METAR KSEA 230253Z 23008KT 10SM SCT034 OVC045 19/11 A3012 RMK AO2 SLP205 T01890106 55005=
201806230153 METAR KSEA 230153Z 00000KT 10SM OVC039 20/10 A3011 RMK AO2 SLP202 T02000100=
201806230053 METAR KSEA 230053Z VRB04KT 10SM OVC036 20/10 A3013 RMK AO2 SLP207 T02000100=
201806222353 METAR KSEA 222353Z VRB03KT 10SM BKN033 BKN140 19/11 A3014 RMK AO2 SLP210 T01890106 10200 20156 58015=
201806222253 METAR KSEA 222253Z 23008KT 10SM BKN035 BKN140 19/11 A3016 RMK AO2 SLP217 T01890106=
201806222153 METAR KSEA 222153Z VRB06KT 10SM FEW020 SCT040 BKN140 19/11 A3016 RMK AO2 SLP220 T01940106=
201806222053 METAR KSEA 222053Z 22008G14KT 10SM FEW020 BKN033 18/11 A3018 RMK AO2 SLP226 T01830106 58003=
201806221953 METAR KSEA 221953Z 27008KT 10SM FEW020 OVC030 17/11 A3019 RMK AO2 SLP229 T01720106=
201806221906 SPECI KSEA 221906Z 21010KT 10SM FEW017 BKN030 18/11 A3019 RMK AO2 T01780106=
201806221853 METAR KSEA 221853Z 23009KT 10SM FEW015 BKN024 17/11 A3019 RMK AO2 SLP228 T01670106=
201806221753 METAR KSEA 221753Z 19009KT 10SM FEW012 OVC026 16/10 A3019 RMK AO2 SLP229 T01610100 10161 20139 53004=
201806221653 METAR KSEA 221653Z 23007KT 10SM FEW012 BKN017 OVC023 14/11 A3019 RMK AO2 SLP228 T01440106=
201806221618 SPECI KSEA 221618Z 23007KT 10SM FEW011 OVC016 15/11 A3018 RMK AO2 T01500106=
201806221553 METAR KSEA 221553Z 23005KT 10SM FEW010 OVC014 14/11 A3018 RMK AO2 SLP225 T01440106=
201806221453 METAR KSEA 221453Z 22006KT 10SM FEW009 OVC014 14/11 A3018 RMK AO2 SLP225 T01440106 51006=
201806221431 SPECI KSEA 221431Z 21006KT 10SM FEW009 OVC014 14/11 A3018 RMK AO2 T01440106=
201806221353 METAR KSEA 221353Z 22007KT 10SM FEW011 OVC016 14/11 A3018 RMK AO2 SLP224 T01440106=
201806221253 METAR KSEA 221253Z 21008KT 10SM FEW012 OVC018 14/11 A3017 RMK AO2 SLP223 T01440106=
201806221153 METAR KSEA 221153Z 21008KT 10SM OVC018 14/11 A3016 RMK AO2 SLP219 T01390106 10156 20139 51004=
201806221138 SPECI KSEA 221138Z 22007KT 10SM BKN018 OVC038 14/11 A3016 RMK AO2 T01390106=
201806221053 METAR KSEA 221053Z 20005KT 10SM OVC036 14/11 A3016 RMK AO2 SLP218 T01390106=
201806220953 METAR KSEA 220953Z 21006KT 10SM OVC035 14/11 A3015 RMK AO2 SLP216 T01440111=
201806220853 METAR KSEA 220853Z 22007KT 10SM BKN035 14/11 A3015 RMK AO2 SLP214 T01440111 58000=
201806220753 METAR KSEA 220753Z 22005KT 10SM BKN036 14/11 A3015 RMK AO2 SLP215 T01440111 402060144=
201806220653 METAR KSEA 220653Z 24005KT 10SM SCT036 BKN250 15/11 A3015 RMK AO2 SLP216 T01500111=
201806220553 METAR KSEA 220553Z 20005KT 10SM FEW031 SCT250 16/11 A3015 RMK AO2 SLP215 T01560111 10206 20156 50005=
201806220453 METAR KSEA 220453Z 22007KT 10SM FEW035 SCT250 16/11 A3015 RMK AO2 SLP215 T01610111=
201806220353 METAR KSEA 220353Z 22006KT 10SM SCT035 SCT250 17/12 A3014 RMK AO2 SLP213 T01720117=
201806220253 METAR KSEA 220253Z 22007KT 10SM SCT035 SCT250 18/12 A3013 RMK AO2 SLP209 T01830117 55002=
201806220153 METAR KSEA 220153Z 22008KT 10SM SCT035 SCT250 19/12 A3013 RMK AO2 SLP207 T01940117=
201806220053 METAR KSEA 220053Z 24007KT 10SM SCT034 SCT250 20/12 A3013 RMK AO2 SLP208 T02000117=
201806212353 METAR KSEA 212353Z 19010KT 10SM BKN033 BKN250 20/12 A3014 RMK AO2 SLP210 T02000117 10206 20172 58005=
201806212253 METAR KSEA 212253Z 22009KT 10SM OVC031 20/12 A3014 RMK AO2 SLP211 T02000117=
201806212227 SPECI KSEA 212227Z 22010KT 10SM OVC030 19/11 A3015 RMK AO2 T01940111=
201806212153 METAR KSEA 212153Z 25008KT 10SM OVC027 19/12 A3015 RMK AO2 SLP216 T01890117=
201806212053 METAR KSEA 212053Z 24009KT 10SM OVC026 18/11 A3015 RMK AO2 SLP216 T01830111 53004=
201806211953 METAR KSEA 211953Z 22010KT 10SM BKN023 OVC035 18/11 A3015 RMK AO2 SLP214 T01830111=
201806211853 METAR KSEA 211853Z 19008KT 10SM BKN024 OVC035 19/11 A3014 RMK AO2 SLP213 T01890111=
201806211753 METAR KSEA 211753Z 20008KT 10SM FEW015 OVC020 17/11 A3014 RMK AO2 SLP212 T01720111 10172 20144 51012=
201806211653 METAR KSEA 211653Z 21011KT 10SM FEW015 OVC020 16/11 A3013 RMK AO2 SLP208 T01610111=
201806211553 METAR KSEA 211553Z 20007KT 10SM SCT015 OVC024 16/12 A3012 RMK AO2 SLP204 T01560117=
201806211543 SPECI KSEA 211543Z 18008KT 10SM SCT013 OVC019 15/12 A3012 RMK AO2 T01500117=
201806211453 METAR KSEA 211453Z 20007KT 10SM SCT009 OVC011 15/12 A3011 RMK AO2 SLP199 T01500117 51011=
201806211444 SPECI KSEA 211444Z 21006KT 10SM SCT009 OVC011 15/12 A3011 RMK AO2 T01500117=
201806211417 SPECI KSEA 211417Z 21008KT 10SM BKN009 OVC014 14/12 A3010 RMK AO2 CIG 008V013 T01440122=
201806211410 SPECI KSEA 211410Z 21007KT 10SM FEW008 OVC013 15/12 A3010 RMK AO2 T01500122=
201806211353 METAR KSEA 211353Z 21007KT 10SM OVC011 15/12 A3010 RMK AO2 SLP195 T01500122=
201806211253 METAR KSEA 211253Z 20007KT 10SM FEW010 OVC014 15/12 A3009 RMK AO2 SLP191 T01500117=
201806211153 METAR KSEA 211153Z 23007KT 10SM OVC013 15/12 A3007 RMK AO2 SLP187 T01500117 10167 20144 53013=
201806211124 SPECI KSEA 211124Z 22008KT 10SM OVC011 15/12 A3006 RMK AO2 T01500117=
201806211053 METAR KSEA 211053Z 22009KT 10SM OVC009 15/12 A3006 RMK AO2 SLP182 T01500122=
201806210953 METAR KSEA 210953Z 21008KT 10SM OVC009 16/12 A3005 RMK AO2 SLP178 T01560122=
201806210853 METAR KSEA 210853Z 21009KT 10SM OVC008 16/12 A3003 RMK AO2 SLP174 T01560122 51026=
201806210829 SPECI KSEA 210829Z 20010KT 10SM OVC009 16/12 A3003 RMK AO2 T01560122=
201806210753 METAR KSEA 210753Z 20011KT 10SM BKN010 15/12 A3002 RMK AO2 CIG 007V012 SLP170 T01500122 403110150=
201806210707 SPECI KSEA 210707Z 20012KT 10SM BKN009 15/13 A3000 RMK AO2 T01500128=
201806210653 METAR KSEA 210653Z 20011KT 10SM FEW070 BKN250 16/12 A2999 RMK AO2 SLP158 T01560122=
201806210553 METAR KSEA 210553Z 20010KT 10SM FEW070 BKN250 17/13 A2996 RMK AO2 SLP148 T01720133 10311 20172 53019=
201806210453 METAR KSEA 210453Z 23009KT 10SM FEW070 SCT250 22/13 A2993 RMK AO2 SLP138 T02170133=
201806210353 METAR KSEA 210353Z 29006KT 10SM FEW070 SCT250 24/11 A2991 RMK AO2 SLP132 T02440111=
201806210253 METAR KSEA 210253Z 31006KT 10SM FEW060 FEW160 BKN250 27/13 A2990 RMK AO2 SLP128 T02670128 56002=
201806210153 METAR KSEA 210153Z 30006KT 10SM FEW060 SCT160 BKN250 28/13 A2990 RMK AO2 SLP129 T02830133=
201806210053 METAR KSEA 210053Z 28007KT 10SM FEW060 SCT160 BKN250 30/16 A2990 RMK AO2 SLP127 T03000156=
201806202353 METAR KSEA 202353Z 30004KT 10SM FEW060 BKN160 BKN250 30/14 A2990 RMK AO2 SLP130 T03000144 10300 20233 56011=
201806202253 METAR KSEA 202253Z 29006KT 10SM FEW060 BKN170 BKN250 28/14 A2991 RMK AO2 SLP132 CB DSNT E-SE T02830144=
201806202153 METAR KSEA 202153Z 29003KT 10SM FEW050 BKN170 BKN250 29/13 A2992 RMK AO2 SLP136 CB DSNT E-SE T02940128=
201806202053 METAR KSEA 202053Z 28005KT 10SM FEW050 BKN180 BKN250 28/14 A2994 RMK AO2 SLP141 CB DSNT SE T02780144 58008=
201806201953 METAR KSEA 201953Z 29006KT 10SM FEW050 BKN160 BKN250 26/14 A2995 RMK AO2 SLP144 CB DSNT SE T02610144=
201806201853 METAR KSEA 201853Z 30006KT 10SM FEW050 SCT110 BKN250 24/14 A2996 RMK AO2 SLP148 T02390144=
201806201753 METAR KSEA 201753Z VRB03KT 10SM FEW050 SCT110 BKN250 25/15 A2996 RMK AO2 SLP149 T02500150 10250 20161 58006=
201806201653 METAR KSEA 201653Z 29005KT 10SM SCT110 BKN250 24/14 A2997 RMK AO2 SLP151 T02390144=
201806201553 METAR KSEA 201553Z 26003KT 10SM SCT110 BKN250 22/14 A2998 RMK AO2 SLP155 T02220144=
201806201453 METAR KSEA 201453Z 26003KT 10SM SCT110 BKN250 19/14 A2998 RMK AO2 SLP155 T01890139 53004=
201806201353 METAR KSEA 201353Z 00000KT 10SM SCT120 BKN250 17/13 A2997 RMK AO2 SLP153 T01720128=
201806201253 METAR KSEA 201253Z 00000KT 10SM SCT170 BKN250 17/13 A2997 RMK AO2 SLP151 T01720128=
201806201153 METAR KSEA 201153Z 00000KT 10SM BKN180 16/12 A2997 RMK AO2 SLP151 T01610122 10233 20161 58006=
201806201053 METAR KSEA 201053Z 00000KT 10SM BKN180 17/13 A2998 RMK AO2 SLP154 T01720128=
201806200953 METAR KSEA 200953Z 00000KT 10SM BKN150 19/13 A2998 RMK AO2 SLP156 T01890128=
201806200853 METAR KSEA 200853Z 30003KT 10SM BKN150 20/13 A2998 RMK AO2 SLP157 T02000133 58009=
201806200753 METAR KSEA 200753Z 00000KT 10SM BKN160 21/14 A3000 RMK AO2 SLP161 T02110139 402940139=
201806200653 METAR KSEA 200653Z 00000KT 10SM SCT140 BKN200 22/13 A3001 RMK AO2 SLP165 T02220128=
201806200553 METAR KSEA 200553Z 00000KT 10SM FEW140 BKN250 23/12 A3001 RMK AO2 SLP166 T02330122 10294 20222 51005=
201806200453 METAR KSEA 200453Z 33005KT 10SM SCT140 SCT250 22/13 A3001 RMK AO2 SLP166 T02220128=
201806200353 METAR KSEA 200353Z 31003KT 10SM FEW060 SCT140 SCT250 23/14 A3000 RMK AO2 SLP163 T02330144=
201806200253 METAR KSEA 200253Z 27003KT 10SM FEW060 SCT140 SCT250 27/13 A3000 RMK AO2 SLP160 T02670128 55004=
201806200153 METAR KSEA 200153Z 30004KT 10SM FEW060 SCT140 SCT250 29/12 A2999 RMK AO2 SLP160 T02940117=
201806200053 METAR KSEA 200053Z VRB04KT 10SM FEW060 FEW120 SCT250 29/11 A2999 RMK AO2 SLP160 T02890106=
201806192353 METAR KSEA 192353Z VRB03KT 10SM FEW060 FEW120 SCT250 29/12 A3001 RMK AO2 SLP165 T02940122 10294 20206 58014=
201806192253 METAR KSEA 192253Z 23006KT 10SM FEW050 SCT120 BKN250 28/12 A3003 RMK AO2 SLP173 T02780122=
201806192153 METAR KSEA 192153Z 23006KT 10SM FEW050 FEW120 SCT250 27/12 A3004 RMK AO2 SLP176 T02670122=
201806192053 METAR KSEA 192053Z 23008KT 10SM FEW050 FEW120 SCT250 24/12 A3005 RMK AO2 SLP180 T02440122 56007=
201806191953 METAR KSEA 191953Z 20008KT 160V230 10SM FEW050 SCT200 24/12 A3006 RMK AO2 SLP182 T02440122=
201806191853 METAR KSEA 191853Z 28006KT 10SM FEW200 22/12 A3006 RMK AO2 SLP184 T02220117=
201806191753 METAR KSEA 191753Z VRB04KT 10SM FEW200 21/12 A3007 RMK AO2 SLP187 T02110122 10211 20139 58005=
201806191653 METAR KSEA 191653Z 20006KT 10SM FEW200 19/12 A3008 RMK AO2 SLP189 T01940122=
201806191553 METAR KSEA 191553Z 19006KT 10SM FEW200 18/12 A3009 RMK AO2 SLP192 T01780117=
201806191453 METAR KSEA 191453Z 24006KT 10SM FEW007 FEW150 16/12 A3008 RMK AO2 SLP192 T01610117 51006=
201806191353 METAR KSEA 191353Z 22004KT 10SM SCT006 SCT150 14/12 A3008 RMK AO2 SLP191 T01440117=
201806191253 METAR KSEA 191253Z 20005KT 10SM FEW006 FEW150 14/12 A3007 RMK AO2 SLP186 T01390117=
201806191153 METAR KSEA 191153Z 18005KT 10SM CLR 14/12 A3007 RMK AO2 SLP185 T01390117 10189 20139 52007=
201806191053 METAR KSEA 191053Z 19007KT 10SM CLR 14/12 A3006 RMK AO2 SLP181 T01440122=
201806190953 METAR KSEA 190953Z 18006KT 10SM FEW150 SCT250 14/12 A3005 RMK AO2 SLP180 T01440122=
201806190853 METAR KSEA 190853Z 20007KT 10SM FEW150 SCT250 15/12 A3005 RMK AO2 SLP178 T01500122 51007=
201806190753 METAR KSEA 190753Z 20010KT 10SM BKN150 BKN250 16/12 A3004 RMK AO2 SLP176 T01610122 403060161=
201806190653 METAR KSEA 190653Z 21011KT 10SM BKN150 BKN250 17/12 A3004 RMK AO2 SLP176 T01720122=
201806190553 METAR KSEA 190553Z 20007KT 10SM FEW150 SCT250 19/12 A3002 RMK AO2 SLP170 T01890122 10306 20189 52020=
201806190453 METAR KSEA 190453Z 21009KT 10SM SCT150 BKN250 20/13 A3000 RMK AO2 SLP163 T02000128=
201806190353 METAR KSEA 190353Z 19009KT 10SM FEW120 BKN250 22/13 A2998 RMK AO2 SLP156 T02220133=
201806190253 METAR KSEA 190253Z 24007KT 10SM FEW120 BKN250 26/14 A2996 RMK AO2 SLP150 T02610139 53006=
201806190153 METAR KSEA 190153Z 24011KT 10SM FEW050 BKN250 29/14 A2994 RMK AO2 SLP143 T02890139=
201806190053 METAR KSEA 190053Z 20006KT 10SM FEW050 BKN250 30/12 A2994 RMK AO2 SLP143 T03000117=
201806182353 METAR KSEA 182353Z 21008KT 10SM FEW050 BKN250 30/11 A2995 RMK AO2 SLP144 T03000106 10306 20239 58003=
201806182253 METAR KSEA 182253Z 22008KT 10SM FEW050 SCT250 30/11 A2995 RMK AO2 SLP145 T03000111=
201806182153 METAR KSEA 182153Z VRB03KT 10SM FEW050 SCT250 29/12 A2995 RMK AO2 SLP146 T02890117=
201806182053 METAR KSEA 182053Z 28007KT 10SM FEW050 SCT250 28/12 A2995 RMK AO2 SLP146 T02830117 58004=
201806181953 METAR KSEA 181953Z 28007KT 10SM FEW050 SCT250 28/11 A2996 RMK AO2 SLP148 T02830111=
201806181853 METAR KSEA 181853Z 26005KT 10SM FEW050 SCT250 26/11 A2997 RMK AO2 SLP150 T02610111=
201806181753 METAR KSEA 181753Z 22007KT 10SM BKN250 25/11 A2997 RMK AO2 SLP151 T02500111 10250 20172 51001=
201806181653 METAR KSEA 181653Z 19006KT 10SM BKN250 23/12 A2997 RMK AO2 SLP151 T02280117=
201806181553 METAR KSEA 181553Z VRB04KT 10SM SCT250 22/12 A2997 RMK AO2 SLP151 T02170117=
201806181453 METAR KSEA 181453Z 19003KT 10SM FEW140 FEW250 21/12 A2996 RMK AO2 SLP150 T02060117 53013=
201806181353 METAR KSEA 181353Z 16005KT 10SM FEW150 FEW250 18/11 A2995 RMK AO2 SLP145 T01830106=
201806181253 METAR KSEA 181253Z 15005KT 10SM FEW150 FEW250 17/11 A2993 RMK AO2 SLP139 T01720111=
201806181153 METAR KSEA 181153Z 16005KT 10SM FEW150 17/11 A2993 RMK AO2 SLP137 T01720106 10233 20172 53008=
201806181053 METAR KSEA 181053Z 14007KT 10SM FEW150 18/12 A2992 RMK AO2 SLP133 T01830117=
201806180953 METAR KSEA 180953Z 13006KT 10SM FEW150 19/12 A2991 RMK AO2 SLP130 T01890117=
201806180853 METAR KSEA 180853Z 13004KT 10SM FEW150 20/12 A2990 RMK AO2 SLP129 T02000117 53003=
201806180753 METAR KSEA 180753Z 16004KT 10SM SCT150 20/12 A2990 RMK AO2 SLP128 T02000117 403110144=
201806180653 METAR KSEA 180653Z 14007KT 10SM SCT150 22/11 A2989 RMK AO2 SLP125 T02220111=
201806180553 METAR KSEA 180553Z 14005KT 10SM SCT150 23/10 A2989 RMK AO2 SLP126 T02330100 10306 20233 53009=
201806180453 METAR KSEA 180453Z 36006KT 10SM SCT150 26/07 A2989 RMK AO2 SLP123 T02560067=
201806180353 METAR KSEA 180353Z 00000KT 10SM FEW065 FEW150 SCT250 27/06 A2987 RMK AO2 SLP117 T02720061=
201806180253 METAR KSEA 180253Z 03006KT 10SM FEW065 SCT150 29/06 A2987 RMK AO2 SLP116 T02890056 53002=
201806180153 METAR KSEA 180153Z 36009KT 10SM FEW045 SCT110 30/06 A2986 RMK AO2 SLP113 T03000061=
201806180053 METAR KSEA 180053Z 35014KT 10SM FEW045 SCT110 30/06 A2985 RMK AO2 SLP110 T03000056=
201806172353 METAR KSEA 172353Z 36016G21KT 10SM FEW040 SCT110 31/06 A2986 RMK AO2 SLP115 T03060056 10311 20239 56015=
201806172253 METAR KSEA 172253Z 36016G23KT 10SM FEW040 FEW110 31/06 A2987 RMK AO2 SLP119 T03060061=
201806172153 METAR KSEA 172153Z 34012KT 10SM FEW100 29/08 A2989 RMK AO2 SLP123 T02940083=
201806172053 METAR KSEA 172053Z 01014KT 10SM FEW040 FEW100 28/09 A2991 RMK AO2 SLP130 T02830089 56015=
201806171953 METAR KSEA 171953Z 34008KT 280V020 10SM FEW040 FEW100 28/10 A2992 RMK AO2 SLP134 T02780100=
201806171853 METAR KSEA 171853Z 32008KT 10SM FEW050 FEW100 26/11 A2993 RMK AO2 SLP138 T02610111=
201806171753 METAR KSEA 171753Z 34008KT 290V020 10SM FEW040 FEW110 26/11 A2995 RMK AO2 SLP145 T02560111 10256 20150 58009=
201806171653 METAR KSEA 171653Z 34004KT 10SM FEW040 FEW120 23/12 A2996 RMK AO2 SLP150 T02280117=
201806171553 METAR KSEA 171553Z VRB06KT 10SM FEW120 22/12 A2997 RMK AO2 SLP153 T02220117=
201806171453 METAR KSEA 171453Z 29003KT 10SM FEW120 18/13 A2998 RMK AO2 SLP155 T01780133 52005=
201806171353 METAR KSEA 171353Z 28003KT 10SM FEW130 16/13 A2997 RMK AO2 SLP153 T01610128=
201806171253 METAR KSEA 171253Z 00000KT 10SM FEW140 16/13 A2997 RMK AO2 SLP152 T01560133=
201806171153 METAR KSEA 171153Z 04005KT 10SM CLR 16/12 A2996 RMK AO2 SLP150 T01610122 10206 20144 55005=
201806171053 METAR KSEA 171053Z 33003KT 10SM CLR 15/12 A2996 RMK AO2 SLP149 T01500122=
201806170953 METAR KSEA 170953Z 00000KT 10SM FEW100 18/12 A2996 RMK AO2 SLP149 T01780122=
201806170853 METAR KSEA 170853Z 13007KT 10SM FEW100 17/13 A2998 RMK AO2 SLP155 T01720128 50003=
201806170753 METAR KSEA 170753Z 13008KT 10SM FEW100 18/12 A2998 RMK AO2 SLP156 T01830117 402560122=
201806170653 METAR KSEA 170653Z 00000KT 10SM FEW070 19/11 A2998 RMK AO2 SLP156 T01940106=
201806170553 METAR KSEA 170553Z 34003KT 10SM FEW070 20/09 A2997 RMK AO2 SLP152 60000 T02000094 10256 20200 53003=
201806170453 METAR KSEA 170453Z 05010KT 10SM FEW070 SCT110 22/08 A2997 RMK AO2 SLP152 T02220083=
201806170353 METAR KSEA 170353Z 01008KT 10SM FEW060 SCT110 23/08 A2995 RMK AO2 SLP147 T02280078=
201806170253 METAR KSEA 170253Z 03009KT 10SM FEW060 SCT090 BKN180 24/09 A2996 RMK AO2 RAB0155E06 SLP149 P0000 60000 T02440094 55001=
201806170153 METAR KSEA 170153Z 02010KT 10SM FEW070 SCT100 BKN180 25/08 A2996 RMK AO2 SLP148 T02500083=
201806170053 METAR KSEA 170053Z 03008KT 10SM FEW055 SCT200 26/09 A2996 RMK AO2 SLP149 T02560094=
201806162353 METAR KSEA 162353Z 36008KT 10SM FEW045 FEW220 25/10 A2996 RMK AO2 SLP149 T02500100 10250 20172 56009=
201806162253 METAR KSEA 162253Z 05010KT 10SM FEW045 BKN220 24/10 A2997 RMK AO2 SLP152 T02390100=
201806162153 METAR KSEA 162153Z 34010G15KT 10SM FEW045 SCT220 23/10 A2997 RMK AO2 SLP152 T02330100=
201806162053 METAR KSEA 162053Z 04008G16KT 10SM FEW032 SCT050 22/10 A2999 RMK AO2 SLP158 T02220100 58005=
201806161953 METAR KSEA 161953Z 03009KT 360V060 10SM SCT030 SCT050 21/11 A3000 RMK AO2 SLP163 T02110106=
201806161853 METAR KSEA 161853Z 04008G17KT 10SM SCT025 BKN040 19/10 A3000 RMK AO2 SLP164 T01890100=
201806161753 METAR KSEA 161753Z 02009KT 10SM OVC024 18/10 A3000 RMK AO2 SLP165 T01780100 10178 20122 50008=
201806161653 METAR KSEA 161653Z 01009KT 10SM OVC021 16/10 A3001 RMK AO2 SLP166 T01610100=
201806161553 METAR KSEA 161553Z 02010KT 10SM OVC019 15/09 A3000 RMK AO2 SLP163 T01500094=
201806161453 METAR KSEA 161453Z 35013KT 10SM OVC019 15/09 A2998 RMK AO2 SLP156 T01500094 51012=
201806161353 METAR KSEA 161353Z 03009KT 10SM BKN026 BKN070 14/09 A2997 RMK AO2 SLP152 T01440089=
201806161253 METAR KSEA 161253Z 36004KT 10SM FEW070 13/09 A2995 RMK AO2 SLP148 T01280089=
201806161153 METAR KSEA 161153Z 34005KT 10SM FEW040 SCT070 13/08 A2994 RMK AO2 SLP143 T01330083 10167 20122 51005=
201806161053 METAR KSEA 161053Z 34005KT 10SM SCT040 BKN055 BKN070 14/08 A2994 RMK AO2 SLP143 T01390083=
201806160953 METAR KSEA 160953Z 36005KT 10SM SCT049 BKN065 14/08 A2993 RMK AO2 SLP140 T01390083=
201806160853 METAR KSEA 160853Z 30004KT 10SM FEW080 13/09 A2993 RMK AO2 SLP139 T01280089 53002=
201806160753 METAR KSEA 160753Z 27003KT 10SM SCT080 14/09 A2992 RMK AO2 SLP136 T01390089 402280117=
201806160653 METAR KSEA 160653Z 05006KT 10SM BKN080 17/09 A2992 RMK AO2 SLP135 T01670089=
201806160553 METAR KSEA 160553Z 02011KT 10SM SCT080 17/08 A2992 RMK AO2 SLP136 T01670083 10222 20167 58001=
201806160453 METAR KSEA 160453Z 01007KT 10SM SCT080 18/07 A2993 RMK AO2 SLP139 T01780067=
201806160353 METAR KSEA 160353Z 33006KT 10SM BKN080 19/07 A2992 RMK AO2 SLP137 T01890072=
201806160253 METAR KSEA 160253Z 31005KT 10SM FEW045 BKN075 19/08 A2992 RMK AO2 SLP137 T01890078 56008=
201806160153 METAR KSEA 160153Z 29008KT 10SM FEW043 SCT070 21/07 A2992 RMK AO2 SLP137 T02060067=
201806160053 METAR KSEA 160053Z 30009KT 10SM FEW043 SCT070 21/07 A2993 RMK AO2 SLP139 T02110067=
201806152353 METAR KSEA 152353Z 34007KT 290V360 10SM FEW043 SCT080 22/07 A2994 RMK AO2 SLP145 T02220072 10228 20167 58010=
201806152253 METAR KSEA 152253Z 32013G17KT 10SM SCT041 SCT080 23/06 A2996 RMK AO2 SLP148 T02280061=
201806152153 METAR KSEA 152153Z 35012G20KT 10SM SCT040 22/06 A2997 RMK AO2 SLP152 T02170061=
201806152053 METAR KSEA 152053Z 28005KT 10SM SCT035 21/09 A2997 RMK AO2 SLP155 T02060089 58007=
201806151953 METAR KSEA 151953Z 02008KT 10SM SCT028 20/09 A2998 RMK AO2 SLP158 T02000089=
201806151853 METAR KSEA 151853Z 34009KT 10SM SCT026 20/09 A3000 RMK AO2 SLP163 T02000089=
201806151753 METAR KSEA 151753Z 35007KT 320V020 10SM SCT019 BKN035 18/09 A3000 RMK AO2 SLP163 T01780094 10183 20117 50000=
201806151728 SPECI KSEA 151728Z 31007G14KT 10SM SCT019 BKN038 18/10 A3000 RMK AO2 T01780100=
201806151653 METAR KSEA 151653Z 31006KT 10SM BKN018 BKN037 BKN050 16/09 A3000 RMK AO2 SLP163 T01560094=
201806151641 SPECI KSEA 151641Z 35009KT 10SM BKN018 BKN039 BKN050 16/09 A3000 RMK AO2 T01610094=
201806151553 METAR KSEA 151553Z 02007KT 10SM FEW015 BKN038 BKN049 16/09 A3000 RMK AO2 SLP163 T01560089=
201806151453 METAR KSEA 151453Z 03009KT 10SM BKN036 BKN048 14/09 A3000 RMK AO2 SLP163 T01390089 53003=
201806151353 METAR KSEA 151353Z 36005KT 10SM FEW013 BKN036 BKN050 13/09 A2999 RMK AO2 SLP161 T01280089=
201806151253 METAR KSEA 151253Z 02004KT 10SM BKN036 BKN049 12/09 A2999 RMK AO2 SLP161 T01220089=
201806151153 METAR KSEA 151153Z 05003KT 10SM SCT050 12/08 A2999 RMK AO2 SLP160 T01170083 10144 20117 57002=
201806151053 METAR KSEA 151053Z 05006KT 10SM SCT080 12/09 A2999 RMK AO2 SLP161 T01220089=
201806150953 METAR KSEA 150953Z 04006KT 10SM SCT080 12/09 A2999 RMK AO2 SLP161 T01220089=
201806150853 METAR KSEA 150853Z 03008KT 10SM SCT080 13/09 A2999 RMK AO2 SLP162 T01280089 56008=
201806150753 METAR KSEA 150753Z 03009KT 10SM FEW120 13/09 A3000 RMK AO2 SLP164 T01330089 402000117=
201806150653 METAR KSEA 150653Z 03009KT 10SM FEW080 14/09 A3000 RMK AO2 SLP166 T01390089=
201806150553 METAR KSEA 150553Z 36006KT 10SM FEW080 13/08 A3002 RMK AO2 SLP171 T01330083 10194 20133 58005=
201806150453 METAR KSEA 150453Z 29004KT 10SM FEW080 14/08 A3003 RMK AO2 SLP173 T01440083=
201806150353 METAR KSEA 150353Z 31004KT 10SM FEW045 SCT075 16/08 A3003 RMK AO2 SLP173 T01560083=
201806150253 METAR KSEA 150253Z 28005KT 10SM FEW045 BKN075 17/08 A3003 RMK AO2 SLP175 T01670083 56009=
201806150153 METAR KSEA 150153Z 29007KT 10SM FEW043 BKN070 18/08 A3004 RMK AO2 SLP176 T01780078=
201806150053 METAR KSEA 150053Z 23005KT 10SM FEW043 BKN070 19/08 A3004 RMK AO2 SLP178 T01940078=
201806142353 METAR KSEA 142353Z 22006KT 10SM FEW040 BKN070 19/06 A3006 RMK AO2 SLP184 T01890061 10200 20144 58011=
201806142253 METAR KSEA 142253Z 27006KT 10SM SCT040 BKN070 18/06 A3007 RMK AO2 SLP189 T01830061=
201806142153 METAR KSEA 142153Z 21008KT 10SM SCT042 BKN065 19/07 A3008 RMK AO2 SLP191 T01940067=
201806142053 METAR KSEA 142053Z VRB03KT 10SM FEW025 BKN038 BKN065 18/07 A3009 RMK AO2 SLP195 T01830067 58004=
201806141953 METAR KSEA 141953Z 27004KT 10SM FEW025 BKN065 18/08 A3010 RMK AO2 SLP198 T01780083=
201806141853 METAR KSEA 141853Z 22007KT 10SM FEW025 BKN050 16/09 A3010 RMK AO2 SLP199 T01610089=
201806141753 METAR KSEA 141753Z 23006KT 10SM FEW018 SCT025 BKN035 14/09 A3010 RMK AO2 SLP199 T01440089 10144 20122 51004=
201806141749 SPECI KSEA 141749Z 22007KT 10SM FEW018 SCT025 OVC035 14/08 A3010 RMK AO2=
201806141724 SPECI KSEA 141724Z 20007KT 10SM FEW018 BKN025 BKN034 14/09 A3010 RMK AO2 T01390089=
201806141653 METAR KSEA 141653Z 19004KT 10SM SCT020 BKN032 14/09 A3010 RMK AO2 SLP198 T01390089=
201806141630 SPECI KSEA 141630Z 19005KT 10SM SCT019 BKN030 14/09 A3010 RMK AO2 T01390089=
201806141553 METAR KSEA 141553Z 14006KT 10SM SCT019 OVC029 13/08 A3010 RMK AO2 SLP198 T01330083=
201806141453 METAR KSEA 141453Z 14006KT 10SM SCT017 BKN028 OVC070 13/08 A3009 RMK AO2 SLP194 T01280083 53011=
201806141353 METAR KSEA 141353Z 18006KT 10SM FEW012 OVC017 12/08 A3008 RMK AO2 SLP191 T01220078=
201806141253 METAR KSEA 141253Z 17005KT 10SM FEW015 OVC021 12/08 A3007 RMK AO2 SLP186 T01220078=
201806141153 METAR KSEA 141153Z 18007KT 10SM OVC018 12/08 A3006 RMK AO2 SLP183 70002 T01220078 10133 20117 53007=
201806141053 METAR KSEA 141053Z 18006KT 10SM OVC021 12/08 A3004 RMK AO2 SLP178 T01220078=
201806140953 METAR KSEA 140953Z 19010KT 10SM OVC018 12/08 A3004 RMK AO2 SLP177 T01220078=
201806140853 METAR KSEA 140853Z 20005KT 10SM OVC016 12/08 A3003 RMK AO2 SLP176 T01220083 53006=
201806140753 METAR KSEA 140753Z 20006KT 10SM BKN015 12/08 A3003 RMK AO2 SLP173 T01220083 401940117=
201806140747 SPECI KSEA 140747Z 20006KT 10SM BKN015 12/08 A3003 RMK AO2=
201806140653 METAR KSEA 140653Z 22011KT 10SM FEW035 BKN070 12/08 A3002 RMK AO2 SLP171 T01220078=
201806140553 METAR KSEA 140553Z 22008KT 10SM FEW022 BKN035 13/08 A3002 RMK AO2 SLP170 T01330083 10189 20133 51013=
201806140453 METAR KSEA 140453Z 23008KT 10SM BKN026 14/08 A3001 RMK AO2 SLP167 T01440083=
201806140353 METAR KSEA 140353Z 08003KT 10SM BKN028 BKN060 15/09 A2999 RMK AO2 SLP161 T01500094=
201806140321 SPECI KSEA 140321Z 08003KT 10SM BKN028 BKN080 15/10 A2998 RMK AO2 T01500100=
201806140253 METAR KSEA 140253Z 01005KT 10SM FEW023 BKN031 16/10 A2998 RMK AO2 SLP157 T01560100 51009=
201806140153 METAR KSEA 140153Z 28006KT 10SM SCT035 BKN060 BKN100 16/09 A2997 RMK AO2 SLP156 T01560094=
201806140053 METAR KSEA 140053Z 25008KT 10SM FEW041 BKN100 18/09 A2996 RMK AO2 SLP152 T01830089=
201806132353 METAR KSEA 132353Z 22013KT 10SM FEW035 BKN100 19/09 A2995 RMK AO2 SLP148 T01890089 10194 20156 52003=
201806132253 METAR KSEA 132253Z 23014G20KT 10SM SCT035 SCT080 18/09 A2995 RMK AO2 SLP146 T01830089=
201806132153 METAR KSEA 132153Z 21016G23KT 10SM SCT035 SCT070 19/09 A2995 RMK AO2 SLP146 T01890089=
201806132053 METAR KSEA 132053Z 21015G22KT 10SM SCT028 SCT065 18/09 A2994 RMK AO2 SLP144 T01830089 51009=
201806131953 METAR KSEA 131953Z 20014G21KT 10SM SCT028 SCT065 BKN085 17/10 A2994 RMK AO2 PK WND 21026/1943 SLP142 T01720100=
201806131853 METAR KSEA 131853Z 23013G21KT 10SM SCT020 BKN043 BKN065 16/09 A2993 RMK AO2 SLP140 T01610094=
201806131753 METAR KSEA 131753Z 20013KT 10SM FEW013 SCT021 BKN070 16/10 A2992 RMK AO2 SLP135 60002 T01610100 10161 20117 53009=
201806131653 METAR KSEA 131653Z 21017G23KT 10SM SCT021 BKN034 BKN200 16/10 A2990 RMK AO2 SLP129 T01610100=
201806131632 SPECI KSEA 131632Z 21015G22KT 10SM SCT022 BKN034 BKN200 16/10 A2989 RMK AO2 T01560100=
201806131553 METAR KSEA 131553Z 19009KT 10SM FEW013 BKN025 BKN033 14/09 A2989 RMK AO2 SLP127 T01440089=
201806131453 METAR KSEA 131453Z 17005KT 10SM FEW010 BKN030 OVC036 13/09 A2989 RMK AO2 SLP125 60002 T01280094 53002=
201806131353 METAR KSEA 131353Z 00000KT 10SM FEW014 OVC030 12/09 A2987 RMK AO2 RAE09 SLP121 P0000 T01220094=
201806131310 SPECI KSEA 131310Z 20007KT 4SM FEW014 OVC027 12/09 A2988 RMK AO2 RAE09 P0000 T01170089=
201806131253 METAR KSEA 131253Z 23006KT 3SM -RA FEW014 OVC031 12/09 A2989 RMK AO2 RAB38 SLP125 P0002 T01220089=
201806131153 METAR KSEA 131153Z 22007KT 10SM OVC050 14/07 A2988 RMK AO2 RAB07E16 SLP123 P0000 60000 T01390067 10150 20122 56005=
201806131053 METAR KSEA 131053Z 16004KT 10SM OVC070 14/06 A2988 RMK AO2 RAE0954 SLP124 P0000 T01390056=
201806130953 METAR KSEA 130953Z 19010KT 10SM -RA OVC080 14/07 A2988 RMK AO2 RAB42 SLP123 P0000 T01390067=
201806130853 METAR KSEA 130853Z 19005KT 10SM BKN110 14/08 A2989 RMK AO2 SLP128 T01390078 56010=
201806130753 METAR KSEA 130753Z 18004KT 10SM BKN090 13/08 A2990 RMK AO2 SLP131 T01330083 402060089=
201806130653 METAR KSEA 130653Z 17004KT 10SM BKN110 13/09 A2991 RMK AO2 SLP134 T01330089=
201806130553 METAR KSEA 130553Z 00000KT 10SM BKN120 15/09 A2992 RMK AO2 SLP138 T01500089 10183 20150 56006=
201806130453 METAR KSEA 130453Z 25003KT 10SM FEW075 SCT095 OVC120 16/08 A2993 RMK AO2 SLP141 T01610083=
201806130353 METAR KSEA 130353Z 25004KT 10SM OVC095 17/07 A2993 RMK AO2 SLP141 T01720072=
201806130253 METAR KSEA 130253Z 00000KT 10SM OVC100 17/07 A2994 RMK AO2 SLP145 T01720072 56010=
201806130153 METAR KSEA 130153Z 30004KT 10SM BKN110 OVC150 17/07 A2995 RMK AO2 SLP146 T01720067=
201806130053 METAR KSEA 130053Z 00000KT 10SM BKN120 OVC180 18/07 A2995 RMK AO2 SLP149 T01780067=
201806122353 METAR KSEA 122353Z 31009KT 10SM BKN140 OVC200 17/08 A2997 RMK AO2 SLP156 T01720078 10206 20172 57020=
201806122253 METAR KSEA 122253Z 33006KT 10SM BKN140 OVC200 20/07 A2999 RMK AO2 SLP161 T02000072=
201806122153 METAR KSEA 122153Z 30007KT 10SM BKN140 OVC200 19/07 A3001 RMK AO2 SLP169 T01890067=
201806122053 METAR KSEA 122053Z 32010KT 10SM BKN130 OVC200 19/05 A3003 RMK AO2 SLP175 T01890050 58010=
201806121953 METAR KSEA 121953Z 36009KT 10SM OVC150 20/06 A3004 RMK AO2 SLP179 T02000056=
201806121853 METAR KSEA 121853Z 30007KT 10SM OVC180 19/07 A3005 RMK AO2 SLP182 T01940072=
201806121753 METAR KSEA 121753Z 33007KT 10SM BKN200 19/06 A3006 RMK AO2 SLP184 T01890061 10189 20094 56016=
201806121653 METAR KSEA 121653Z 36006KT 10SM FEW150 BKN230 17/05 A3008 RMK AO2 SLP191 T01720050=
201806121553 METAR KSEA 121553Z 34004KT 10SM BKN250 16/07 A3009 RMK AO2 SLP196 T01560067=
201806121453 METAR KSEA 121453Z 34003KT 10SM BKN250 13/07 A3011 RMK AO2 SLP202 T01280072 56012=
201806121353 METAR KSEA 121353Z 02004KT 10SM BKN250 12/07 A3012 RMK AO2 SLP204 T01170067=
201806121253 METAR KSEA 121253Z 35005KT 10SM BKN250 10/06 A3013 RMK AO2 SLP208 T01000061=
201806121153 METAR KSEA 121153Z 00000KT 10SM CLR 10/05 A3015 RMK AO2 SLP214 T01000050 10161 20089 58012=
201806121053 METAR KSEA 121053Z 01006KT 10SM CLR 11/06 A3016 RMK AO2 SLP219 T01110061=
201806120953 METAR KSEA 120953Z 03007KT 10SM CLR 12/06 A3018 RMK AO2 SLP224 T01220056=
201806120853 METAR KSEA 120853Z 03007KT 10SM CLR 13/07 A3018 RMK AO2 SLP226 T01330067 58002=
201806120653 METAR KSEA 120653Z 03006KT 10SM CLR 15/06 A3019 RMK AO2 SLP227 T01500056=
201806120553 METAR KSEA 120553Z 04008KT 10SM FEW050 16/06 A3019 RMK AO2 SLP228 T01610056 10200 20156 58002=
201806120453 METAR KSEA 120453Z 03006KT 10SM FEW050 17/04 A3020 RMK AO2 SLP230 T01720044=
201806120353 METAR KSEA 120353Z 05007KT 10SM FEW050 18/04 A3019 RMK AO2 SLP229 T01780044=
201806120253 METAR KSEA 120253Z 36005KT 10SM FEW050 19/04 A3019 RMK AO2 SLP230 T01890039 55004=
201806120153 METAR KSEA 120153Z 26007KT 10SM FEW050 19/04 A3019 RMK AO2 SLP229 T01940039=
201806120053 METAR KSEA 120053Z 25005KT 10SM FEW050 19/04 A3020 RMK AO2 SLP231 T01940039=
201806112353 METAR KSEA 112353Z 27006KT 10SM SCT050 19/04 A3020 RMK AO2 SLP234 T01940044 10200 20133 58009=
201806112253 METAR KSEA 112253Z 26007KT 10SM SCT050 19/04 A3022 RMK AO2 SLP240 T01890044=
201806112153 METAR KSEA 112153Z VRB04KT 10SM BKN055 19/06 A3023 RMK AO2 SLP243 T01890056=
201806112053 METAR KSEA 112053Z 26007KT 10SM FEW041 SCT055 18/06 A3023 RMK AO2 SLP244 T01780056 53004=
201806111953 METAR KSEA 111953Z 00000KT 10SM SCT030 SCT050 16/06 A3022 RMK AO2 SLP241 T01610056=
201806111853 METAR KSEA 111853Z 18005KT 10SM FEW023 BKN030 BKN050 16/07 A3023 RMK AO2 SLP242 T01610072=
201806111837 SPECI KSEA 111837Z 00000KT 10SM FEW023 BKN030 BKN050 16/08 A3022 RMK AO2 T01560078=
201806111753 METAR KSEA 111753Z 30003KT 10SM SCT020 BKN029 BKN050 14/07 A3022 RMK AO2 SLP240 T01390067 10161 20100 51013=
201806111740 SPECI KSEA 111740Z 28004KT 10SM SCT020 BKN029 BKN055 15/08 A3022 RMK AO2 T01500078=
201806111653 METAR KSEA 111653Z 00000KT 10SM SCT015 BKN034 13/08 A3021 RMK AO2 SLP236 T01330078=
201806111634 SPECI KSEA 111634Z 00000KT 10SM SCT022 BKN034 12/08 A3020 RMK AO2 T01170078=
201806111553 METAR KSEA 111553Z 28004KT 10SM BKN016 BKN024 11/08 A3020 RMK AO2 SLP232 T01110083=
201806111517 SPECI KSEA 111517Z 29005KT 10SM SCT013 BKN024 11/08 A3019 RMK AO2 T01110083=
201806111453 METAR KSEA 111453Z 27003KT 10SM BKN012 BKN021 11/08 A3018 RMK AO2 SLP227 T01110078 51013=
201806111402 SPECI KSEA 111402Z 21003KT 10SM FEW008 BKN011 11/09 A3018 RMK AO2 T01110089=
201806111353 METAR KSEA 111353Z 00000KT 10SM BKN008 BKN013 11/08 A3017 RMK AO2 SLP224 T01060083=
201806111321 SPECI KSEA 111321Z 20004KT 10SM BKN008 BKN026 11/09 A3017 RMK AO2 T01060089=
201806111312 SPECI KSEA 111312Z 16003KT 10SM SCT008 BKN026 10/08 A3016 RMK AO2 T01000083=
201806111253 METAR KSEA 111253Z 00000KT 10SM SCT013 OVC026 10/08 A3016 RMK AO2 SLP221 T01000083=
201806111243 SPECI KSEA 111243Z 00000KT 10SM SCT013 OVC026 10/08 A3016 RMK AO2 T01000083=
201806111153 METAR KSEA 111153Z 00000KT 10SM BKN011 OVC025 10/08 A3014 RMK AO2 SLP214 60001 70006 T01000078 10111 20089 53014=
201806111053 METAR KSEA 111053Z 17003KT 10SM BKN011 BKN025 10/08 A3012 RMK AO2 SLP207 T01000083=
201806111006 SPECI KSEA 111006Z 16003KT 10SM BKN012 OVC024 10/08 A3012 RMK AO2 T01000078=
201806110953 METAR KSEA 110953Z 15003KT 10SM FEW012 OVC024 09/08 A3012 RMK AO2 SLP206 T00940078=
201806110941 SPECI KSEA 110941Z 14003KT 10SM BKN023 09/08 A3012 RMK AO2 T00940078=
201806110853 METAR KSEA 110853Z 16003KT 10SM SCT022 SCT029 09/08 A3010 RMK AO2 SLP200 60001 T00940078 53004=
201806110753 METAR KSEA 110753Z 18004KT 10SM SCT027 SCT039 OVC065 11/08 A3010 RMK AO2 RAE0657 SLP198 P0000 T01060083 401670089=
201806110653 METAR KSEA 110653Z 17004KT 10SM -RA SCT014 BKN047 OVC070 11/09 A3009 RMK AO2 RAB0556 SLP196 P0001 T01060089=
201806110553 METAR KSEA 110553Z 00000KT 10SM FEW015 BKN065 OVC100 11/08 A3009 RMK AO2 RAE12 SLP196 P0000 60000 T01110083 10133 20106 53005=
201806110453 METAR KSEA 110453Z 25003KT 10SM -RA FEW014 BKN043 OVC050 11/08 A3009 RMK AO2 RAB41 SLP196 P0000 T01110083=
201806110423 SPECI KSEA 110423Z 25004KT 10SM SCT014 BKN034 OVC049 12/08 A3008 RMK AO2 T01170078=
201806110353 METAR KSEA 110353Z 18006KT 10SM BKN013 OVC021 12/09 A3007 RMK AO2 RAB34E51 SLP190 P0000 T01170089=
201806110336 SPECI KSEA 110336Z 16005KT 10SM -RA BKN015 BKN032 OVC050 12/09 A3007 RMK AO2 RAB34 P0000 T01170089=
201806110253 METAR KSEA 110253Z 00000KT 10SM FEW030 BKN041 OVC048 12/08 A3008 RMK AO2 RAB0158E09 SLP191 P0000 60000 T01220078 51007=
201806110153 METAR KSEA 110153Z 29004KT 10SM FEW027 SCT032 OVC045 12/08 A3007 RMK AO2 RAE03B32E41 SLP190 VCSH P0000 T01220078=
201806110053 METAR KSEA 110053Z 20008KT 10SM -RA SCT035 OVC060 13/07 A3007 RMK AO2 RAB52 SLP188 P0000 T01330067=
201806102353 METAR KSEA 102353Z 20014KT 10SM FEW035 SCT085 BKN120 13/07 A3005 RMK AO2 SLP184 60005 T01280067 10167 20100 55003=
201806102253 METAR KSEA 102253Z 20011KT 10SM FEW035 SCT085 BKN110 16/07 A3005 RMK AO2 SLP181 T01560072=
201806102153 METAR KSEA 102153Z 23015G20KT 10SM FEW035 SCT070 BKN110 16/06 A3005 RMK AO2 RAE16 SLP182 P0000 T01610056=
201806102115 SPECI KSEA 102115Z 25009KT 10SM -RA FEW030 BKN041 BKN070 14/08 A3006 RMK AO2 P0000 T01390083=
201806102053 METAR KSEA 102053Z 25020G28KT 5SM -RA SCT030 BKN060 13/07 A3006 RMK AO2 PK WND 24028/2047 RAB53 SLP186 P0000 60005 T01280067 55000=
201806101953 METAR KSEA 101953Z 21010KT 10SM FEW025 SCT035 14/07 A3005 RMK AO2 SLP182 VCSH T01440072=
201806101853 METAR KSEA 101853Z 22007KT 10SM FEW025 SCT036 11/07 A3006 RMK AO2 RAE47 SLP186 VCSH P0005 T01110072=
201806101753 METAR KSEA 101753Z 23011KT 9SM -RA BKN032 BKN047 13/07 A3006 RMK AO2 RAB51 SLP187 P0000 60000 T01280067 10144 20089 51004=
201806101653 METAR KSEA 101653Z 23011KT 10SM FEW025 SCT035 SCT095 13/06 A3006 RMK AO2 SLP186 T01330061=
201806101553 METAR KSEA 101553Z 21009G20KT 10SM SCT025 BKN065 BKN200 13/07 A3006 RMK AO2 SLP185 T01280067=
201806101453 METAR KSEA 101453Z 20013KT 10SM SCT024 SCT032 11/06 A3005 RMK AO2 SLP182 T01110061 50003=
201806101450 SPECI KSEA 101450Z 20011KT 10SM SCT024 SCT032 11/06 A3005 RMK AO2=
201806101426 SPECI KSEA 101426Z 19013KT 10SM BKN024 BKN032 11/06 A3005 RMK AO2 T01110061=
201806101411 SPECI KSEA 101411Z 18013KT 10SM FEW023 SCT029 11/06 A3005 RMK AO2 T01060061=
201806101353 METAR KSEA 101353Z 18011KT 10SM FEW023 BKN029 BKN100 11/06 A3005 RMK AO2 SLP183 T01060061=
201806101346 SPECI KSEA 101346Z 17011KT 10SM BKN029 BKN100 11/06 A3005 RMK AO2 T01060061=
201806101253 METAR KSEA 101253Z 18010KT 10SM FEW025 FEW100 09/06 A3004 RMK AO2 SLP180 T00890061=
201806101153 METAR KSEA 101153Z 19010KT 10SM SCT024 09/06 A3004 RMK AO2 SLP179 70009 T00940061 10122 20094 51007=
201806101053 METAR KSEA 101053Z 20008KT 10SM SCT030 BKN038 OVC085 10/07 A3004 RMK AO2 SLP179 T01000067=
201806100953 METAR KSEA 100953Z 19010KT 10SM FEW080 09/06 A3003 RMK AO2 SLP176 T00940061=
201806100853 METAR KSEA 100853Z 19009KT 10SM FEW080 10/06 A3002 RMK AO2 SLP171 T01000061 53006=
201806100753 METAR KSEA 100753Z 20010KT 10SM FEW080 11/06 A3001 RMK AO2 SLP168 T01060061 401720094=
201806100653 METAR KSEA 100653Z 22012KT 10SM FEW050 SCT080 11/07 A3000 RMK AO2 SLP166 T01110067=
201806100553 METAR KSEA 100553Z 21009KT 10SM FEW050 SCT065 BKN080 12/06 A3000 RMK AO2 SLP165 60002 T01220061 10150 20117 53006=
201806100453 METAR KSEA 100453Z 22005KT 10SM SCT035 SCT048 12/07 A2999 RMK AO2 SLP163 T01170067=
201806100353 METAR KSEA 100353Z 22004KT 10SM SCT022 BKN036 BKN048 13/08 A2998 RMK AO2 SLP160 T01280083=
201806100253 METAR KSEA 100253Z 13006KT 10SM BKN040 OVC049 13/08 A2998 RMK AO2 SLP159 60002 T01330083 51003=
201806100153 METAR KSEA 100153Z VRB03KT 10SM BKN055 BKN075 BKN095 15/08 A2998 RMK AO2 SLP159 T01500078=
201806100053 METAR KSEA 100053Z 22004KT 10SM SCT040 BKN055 BKN110 14/08 A2998 RMK AO2 RAB23E41 SLP157 P0002 T01440083=
201806092353 METAR KSEA 092353Z 29006KT 10SM SCT048 SCT060 BKN070 15/07 A2997 RMK AO2 RAE03 SLP156 P0000 60007 T01500067 10172 20122 51004=
201806092253 METAR KSEA 092253Z 33005KT 7SM -RA BKN038 BKN044 BKN060 13/08 A2997 RMK AO2 RAB00E21B41 SLP156 P0007 T01330083=
201806092153 METAR KSEA 092153Z 29010KT 10SM SCT046 BKN055 BKN065 15/07 A2997 RMK AO2 RAB2059E15 SLP154 P0000 T01500067=
201806092053 METAR KSEA 092053Z 28009KT 10SM BKN028 BKN037 16/08 A2996 RMK AO2 SLP152 T01610083 55002=
201806092049 SPECI KSEA 092049Z 24008KT 10SM BKN028 BKN037 17/08 A2996 RMK AO2=
201806091953 METAR KSEA 091953Z VRB06KT 10SM FEW029 SCT040 SCT100 16/07 A2996 RMK AO2 SLP151 T01560072=
201806091853 METAR KSEA 091853Z VRB04KT 10SM BKN029 15/07 A2997 RMK AO2 SLP154 T01500072=
201806091753 METAR KSEA 091753Z 23008KT 10SM SCT015 BKN085 14/08 A2997 RMK AO2 SLP156 T01390078 10139 20094 50001=
201806091706 SPECI KSEA 091706Z VRB06KT 10SM FEW013 SCT026 BKN060 13/08 A2998 RMK AO2 T01280083=
201806091653 METAR KSEA 091653Z 23007KT 10SM SCT019 BKN024 BKN055 12/08 A2998 RMK AO2 SLP160 T01220078=
201806091636 SPECI KSEA 091636Z 21008KT 10SM OVC018 12/08 A2998 RMK AO2 T01170083=
201806091553 METAR KSEA 091553Z 19007KT 10SM OVC012 11/08 A2998 RMK AO2 SLP157 T01110083=
201806091453 METAR KSEA 091453Z 24005KT 10SM OVC010 11/08 A2997 RMK AO2 SLP156 T01060083 50003=
201806091443 SPECI KSEA 091443Z 21007KT 10SM OVC013 11/08 A2997 RMK AO2 T01060078=
201806091353 METAR KSEA 091353Z 19004KT 10SM BKN015 11/08 A2998 RMK AO2 SLP157 T01060083=
201806091309 SPECI KSEA 091309Z 17005KT 10SM BKN015 09/08 A2997 RMK AO2 T00940078=
201806091253 METAR KSEA 091253Z 19007KT 10SM SCT015 BKN031 BKN080 09/08 A2997 RMK AO2 SLP154 T00940078=
201806091153 METAR KSEA 091153Z 22008KT 10SM SCT015 BKN031 10/08 A2996 RMK AO2 SLP153 60000 70025 T01000078 10117 20100 50002=
201806091053 METAR KSEA 091053Z 22008KT 10SM FEW015 BKN031 OVC050 11/08 A2997 RMK AO2 SLP153 T01060083=
201806091000 SPECI KSEA 091000Z 18007KT 10SM FEW010 SCT015 OVC031 11/09 A2996 RMK AO2 T01060089=
201806090953 METAR KSEA 090953Z 17006KT 10SM FEW009 BKN016 OVC046 11/09 A2996 RMK AO2 SLP151 T01060094=
201806090947 SPECI KSEA 090947Z 16006KT 10SM FEW009 BKN016 OVC046 11/09 A2996 RMK AO2=
201806090928 SPECI KSEA 090928Z 16006KT 10SM BKN011 BKN016 OVC040 11/09 A2996 RMK AO2 T01110094=
201806090914 SPECI KSEA 090914Z 19006KT 10SM FEW011 BKN015 BKN044 11/09 A2996 RMK AO2 T01110094=
201806090853 METAR KSEA 090853Z 18008KT 10SM FEW015 BKN034 OVC044 11/09 A2996 RMK AO2 SLP152 60000 T01110094 51010=
201806090753 METAR KSEA 090753Z 21010KT 10SM SCT012 OVC047 11/09 A2996 RMK AO2 RAB0659E05 SLP151 P0000 T01110094 401780111=
201806090653 METAR KSEA 090653Z 21010KT 7SM SCT005 BKN030 OVC055 12/10 A2995 RMK AO2 RAE0558 SLP150 P0000 T01170100=
201806090638 SPECI KSEA 090638Z 19008KT 7SM SCT003 BKN015 OVC025 12/11 A2995 RMK AO2 RAE0558 P0000 T01170106=
201806090618 SPECI KSEA 090618Z 23006KT 4SM BR SCT006 OVC014 12/11 A2995 RMK AO2 RAE0558 P0000 T01170106=
201806090553 METAR KSEA 090553Z 23004KT 1SM R16L/P6000FT -RA BR SCT002 BKN007 OVC025 12/11 A2993 RMK AO2 SFC VIS 1 1/2 RAB12 SLP141 P0003 60010 T01170106 10139 20117 58005=
201806090548 SPECI KSEA 090548Z 25005KT 1 1/2SM -RA BR FEW004 BKN007 OVC028 12/11 A2993 RMK AO2 RAB12 P0003=
201806090503 SPECI KSEA 090503Z 24007KT 10SM BKN007 BKN013 OVC019 12/11 A2994 RMK AO2 T01220111=
201806090453 METAR KSEA 090453Z 24007KT 10SM BKN016 OVC025 12/11 A2994 RMK AO2 SLP144 T01220106=
201806090407 SPECI KSEA 090407Z 27003KT 10SM FEW009 BKN020 OVC035 12/11 A2994 RMK AO2 T01220106=
201806090353 METAR KSEA 090353Z 28003KT 10SM SCT009 BKN036 OVC048 12/11 A2994 RMK AO2 SLP144 T01220106=
201806090344 SPECI KSEA 090344Z 28005KT 10SM SCT009 BKN041 OVC049 12/10 A2994 RMK AO2 T01220100=
201806090330 SPECI KSEA 090330Z 00000KT 10SM FEW004 OVC009 12/11 A2994 RMK AO2 T01220106=
201806090325 SPECI KSEA 090325Z 00000KT 10SM FEW004 OVC010 12/11 A2994 RMK AO2 T01220106=
201806090253 METAR KSEA 090253Z 26005KT 10SM FEW005 BKN048 OVC070 13/11 A2995 RMK AO2 RAE15B39E53 SLP147 P0000 60007 T01280111 58007=
201806090239 SPECI KSEA 090239Z 27004KT 10SM -RA SCT007 BKN035 OVC070 13/12 A2995 RMK AO2 RAE15B39 P0000 T01280117=
201806090204 SPECI KSEA 090204Z 36004KT 7SM -RA SCT002 BKN006 OVC070 13/12 A2995 RMK AO2 P0000 T01280117=
201806090203 SPECI KSEA 090203Z 01004KT 7SM -RA BKN002 BKN006 OVC070 13/12 A2995 RMK AO2 CIG 002V005 P0000 T01280117=
201806090153 METAR KSEA 090153Z 29003KT 3SM -RA BR FEW004 BKN010 OVC070 13/12 A2996 RMK AO2 RAB0055 SLP151 P0006 T01280117=
201806090146 SPECI KSEA 090146Z 26004KT 3SM RA BR SCT006 OVC010 13/12 A2996 RMK AO2 RAB0055 P0006 T01280117=
201806090128 SPECI KSEA 090128Z 26004KT 9SM -RA BKN010 BKN016 OVC070 13/11 A2996 RMK AO2 RAB0055 P0001 T01330111=
201806090053 METAR KSEA 090053Z 00000KT 10SM FEW019 BKN029 OVC080 14/11 A2997 RMK AO2 RAE52 SLP152 P0001 T01390111=
201806090049 SPECI KSEA 090049Z 00000KT 9SM -RA FEW019 BKN029 OVC080 13/11 A2997 RMK AO2 P0001=
201806082353 METAR KSEA 082353Z 27004KT 7SM -RA FEW008 OVC041 14/12 A3000 RMK AO2 SLP164 P0001 60015 T01390117 10161 20133 58011=
201806082318 SPECI KSEA 082318Z 00000KT 7SM -RA SCT007 OVC042 14/12 A3001 RMK AO2 P0001 T01390117=
201806082253 METAR KSEA 082253Z 23007KT 6SM -RA BR BKN008 BKN014 OVC039 14/12 A3001 RMK AO2 CIG 005V010 SLP169 P0003 T01390117=
201806082232 SPECI KSEA 082232Z 23006KT 5SM -RA BR FEW008 BKN014 OVC040 14/12 A3002 RMK AO2 P0002 T01390122=
201806082153 METAR KSEA 082153Z 25006KT 6SM -RA BR FEW009 SCT043 OVC050 14/12 A3002 RMK AO2 SLP171 P0003 T01390117=
201806082114 SPECI KSEA 082114Z 23004KT 7SM -RA FEW008 BKN045 OVC065 14/12 A3003 RMK AO2 P0002 T01390122=
201806082053 METAR KSEA 082053Z 25004KT 7SM -RA FEW025 BKN045 OVC070 14/12 A3003 RMK AO2 SLP175 P0004 60008 T01440117 58002=
201806081953 METAR KSEA 081953Z 27005KT 8SM -RA FEW030 BKN050 OVC065 14/11 A3004 RMK AO2 SLP178 P0003 T01440111=
201806081853 METAR KSEA 081853Z 27004KT 10SM -RA FEW030 BKN045 OVC080 16/11 A3004 RMK AO2 SLP176 P0001 T01560111=
201806081753 METAR KSEA 081753Z 20008KT 10SM -RA FEW035 SCT060 OVC080 16/09 A3004 RMK AO2 RAB07 SLP177 P0000 60000 T01610094 10178 20139 56004=
201806081653 METAR KSEA 081653Z 20010KT 10SM FEW035 BKN055 OVC250 18/08 A3004 RMK AO2 SLP177 T01780083=
201806081553 METAR KSEA 081553Z 19010KT 10SM FEW030 BKN043 OVC055 16/09 A3004 RMK AO2 SLP178 T01610089=
201806081453 METAR KSEA 081453Z 18006KT 10SM FEW032 OVC040 14/09 A3005 RMK AO2 SLP181 T01440089 51004=
201806081353 METAR KSEA 081353Z 18006KT 10SM FEW031 BKN043 OVC055 14/09 A3004 RMK AO2 SLP179 T01440089=
201806081253 METAR KSEA 081253Z 18007KT 10SM BKN033 OVC049 14/09 A3005 RMK AO2 SLP179 T01440094=
201806081153 METAR KSEA 081153Z 16006KT 10SM BKN033 OVC046 14/09 A3004 RMK AO2 SLP176 T01390094 10144 20139 58005=
201806081053 METAR KSEA 081053Z 15006KT 10SM SCT035 BKN043 OVC050 14/09 A3004 RMK AO2 SLP178 T01440094=
201806080953 METAR KSEA 080953Z 20005KT 10SM OVC044 14/09 A3005 RMK AO2 SLP181 T01440094=
201806080853 METAR KSEA 080853Z 20007KT 10SM OVC042 14/10 A3005 RMK AO2 SLP182 T01390100 51002=
201806080753 METAR KSEA 080753Z 21008KT 10SM OVC043 14/09 A3005 RMK AO2 SLP181 T01440094 402000128=
201806080653 METAR KSEA 080653Z 21007KT 10SM FEW035 SCT190 14/09 A3005 RMK AO2 SLP182 T01390094=
201806080553 METAR KSEA 080553Z 21007KT 10SM BKN190 14/09 A3005 RMK AO2 SLP180 T01440089 10200 20144 50007=
201806080453 METAR KSEA 080453Z 23009KT 10SM FEW045 FEW150 SCT250 15/08 A3005 RMK AO2 SLP180 T01500083=
201806080353 METAR KSEA 080353Z 24008KT 10SM FEW045 SCT150 SCT250 16/09 A3003 RMK AO2 SLP175 T01610089=
201806080253 METAR KSEA 080253Z 24009KT 10SM FEW045 FEW150 BKN250 18/08 A3002 RMK AO2 SLP172 T01780083 53001=
201806080153 METAR KSEA 080153Z 22010KT 10SM SCT045 BKN250 19/08 A3002 RMK AO2 SLP170 T01890078=
201806080053 METAR KSEA 080053Z 22010G15KT 10SM SCT045 BKN250 18/08 A3002 RMK AO2 SLP171 T01830078=
201806072353 METAR KSEA 072353Z 22010KT 10SM SCT045 SCT140 BKN250 19/07 A3002 RMK AO2 SLP171 T01940072 10200 20150 57002=
201806072253 METAR KSEA 072253Z 21011KT 10SM BKN044 BKN140 BKN250 19/08 A3002 RMK AO2 SLP172 T01890078=
201806072153 METAR KSEA 072153Z 25009KT 10SM FEW025 BKN044 OVC250 18/08 A3003 RMK AO2 SLP173 T01830078=
201806072053 METAR KSEA 072053Z 20012KT 10SM SCT025 SCT044 BKN250 19/09 A3003 RMK AO2 SLP174 T01940089 51007=
201806072026 SPECI KSEA 072026Z 23009KT 10SM SCT025 BKN044 BKN250 18/09 A3003 RMK AO2 T01780089=
201806071953 METAR KSEA 071953Z 21011KT 10SM FEW023 BKN028 BKN044 17/09 A3003 RMK AO2 SLP173 T01720089=
201806071853 METAR KSEA 071853Z 23007KT 10SM BKN022 OVC040 16/09 A3002 RMK AO2 SLP170 T01560089=
201806071753 METAR KSEA 071753Z 22009KT 10SM FEW020 OVC024 15/08 A3001 RMK AO2 SLP166 T01500083 10156 20128 51007=
201806071653 METAR KSEA 071653Z 22009KT 10SM FEW020 OVC025 14/08 A3000 RMK AO2 SLP164 T01440078=
201806071553 METAR KSEA 071553Z 19007KT 10SM BKN025 OVC040 15/08 A2999 RMK AO2 SLP162 T01500083=
201806071453 METAR KSEA 071453Z 16008KT 10SM OVC022 14/08 A2998 RMK AO2 SLP158 T01390083 53009=
201806071353 METAR KSEA 071353Z 20008KT 10SM OVC022 13/08 A2997 RMK AO2 SLP153 T01330078=
201806071313 SPECI KSEA 071313Z 21009KT 10SM OVC025 13/08 A2996 RMK AO2 T01330083=
201806071253 METAR KSEA 071253Z 21008KT 10SM OVC030 13/08 A2996 RMK AO2 SLP150 T01330083=
201806071153 METAR KSEA 071153Z 21008KT 10SM OVC031 13/08 A2996 RMK AO2 SLP148 T01280083 10150 20128 51010=
201806071116 SPECI KSEA 071116Z 21008KT 10SM BKN021 BKN031 13/08 A2995 RMK AO2 T01280083=
201806071053 METAR KSEA 071053Z 20008KT 10SM FEW030 BKN240 13/08 A2995 RMK AO2 SLP145 T01280083=
201806070953 METAR KSEA 070953Z 20008KT 10SM BKN220 13/08 A2994 RMK AO2 SLP144 T01280083=
201806070853 METAR KSEA 070853Z 22009KT 10SM BKN220 13/08 A2993 RMK AO2 SLP138 T01330083 51008=
201806070753 METAR KSEA 070753Z 21007KT 10SM BKN250 14/09 A2992 RMK AO2 SLP136 T01390089 402390106=
201806070653 METAR KSEA 070653Z 27003KT 10SM BKN250 14/09 A2991 RMK AO2 SLP135 T01390089=
201806070553 METAR KSEA 070553Z 27003KT 10SM BKN250 15/08 A2990 RMK AO2 SLP130 T01500083 10239 20150 51011=
201806070453 METAR KSEA 070453Z 30005KT 10SM BKN250 16/08 A2989 RMK AO2 SLP128 T01610078=
201806070353 METAR KSEA 070353Z 34005KT 10SM BKN250 18/08 A2988 RMK AO2 SLP123 T01830078=
201806070253 METAR KSEA 070253Z 36006KT 10SM BKN250 21/08 A2987 RMK AO2 SLP118 T02110083 55002=
201806070153 METAR KSEA 070153Z 23006KT 10SM BKN250 23/08 A2986 RMK AO2 SLP115 T02280083=
201806070053 METAR KSEA 070053Z VRB06KT 10SM BKN250 23/08 A2987 RMK AO2 SLP119 T02330078=
201806062353 METAR KSEA 062353Z 19006KT 10SM FEW050 BKN250 23/06 A2987 RMK AO2 SLP121 T02330061 10239 20178 56016=
201806062253 METAR KSEA 062253Z 00000KT 10SM FEW040 BKN250 23/04 A2989 RMK AO2 SLP125 T02330044=
201806062153 METAR KSEA 062153Z VRB04KT 10SM FEW040 BKN250 23/06 A2990 RMK AO2 SLP130 T02330061=
201806062053 METAR KSEA 062053Z 29006KT 10SM FEW040 BKN250 22/09 A2992 RMK AO2 SLP136 T02170089 58014=
201806061953 METAR KSEA 061953Z VRB05KT 10SM FEW040 BKN250 21/08 A2994 RMK AO2 SLP143 T02110083=
201806061853 METAR KSEA 061853Z 26005KT 10SM FEW040 SCT250 19/08 A2995 RMK AO2 SLP148 T01890083=
201806061753 METAR KSEA 061753Z 25008KT 10SM FEW035 FEW250 18/08 A2996 RMK AO2 SLP151 T01780078 10178 20106 58007=
201806061653 METAR KSEA 061653Z 20003KT 10SM FEW030 FEW250 16/08 A2997 RMK AO2 SLP155 T01610083=
201806061553 METAR KSEA 061553Z 19006KT 10SM FEW250 16/09 A2998 RMK AO2 SLP157 T01560089=
201806061453 METAR KSEA 061453Z 16003KT 10SM FEW250 14/08 A2998 RMK AO2 SLP158 T01390078 56002=
201806061353 METAR KSEA 061353Z 13006KT 10SM FEW250 12/07 A2998 RMK AO2 SLP158 T01220072=
201806061253 METAR KSEA 061253Z 13005KT 10SM FEW050 FEW250 11/07 A2998 RMK AO2 SLP159 T01110072=
201806061153 METAR KSEA 061153Z 13005KT 10SM FEW250 11/07 A2999 RMK AO2 SLP160 T01110067 10144 20111 56003=
201806061053 METAR KSEA 061053Z 15006KT 10SM CLR 12/07 A2999 RMK AO2 SLP161 T01170072=
201806060953 METAR KSEA 060953Z 15005KT 10SM CLR 12/08 A2999 RMK AO2 SLP161 T01220078=
201806060853 METAR KSEA 060853Z 14007KT 10SM CLR 13/08 A3000 RMK AO2 SLP163 T01330078 58008=
201806060753 METAR KSEA 060753Z 19006KT 10SM FEW100 12/08 A3001 RMK AO2 SLP166 T01220078 402060094=
201806060653 METAR KSEA 060653Z 19006KT 10SM FEW100 13/08 A3002 RMK AO2 SLP170 T01330078=
201806060553 METAR KSEA 060553Z 20005KT 10SM FEW100 14/07 A3002 RMK AO2 SLP171 T01440072 10200 20144 50006=
201806060453 METAR KSEA 060453Z 00000KT 10SM FEW100 16/07 A3003 RMK AO2 SLP173 T01560072=
201806060353 METAR KSEA 060353Z 26004KT 10SM FEW060 FEW100 16/07 A3001 RMK AO2 SLP168 T01610072=
201806060253 METAR KSEA 060253Z 25008KT 10SM FEW060 FEW090 18/06 A3000 RMK AO2 SLP165 T01780061 58004=
201806060153 METAR KSEA 060153Z 26007KT 10SM FEW060 SCT090 19/06 A3001 RMK AO2 SLP168 T01890056=
201806060053 SPECI KSEA 060053Z 25009KT 10SM SCT060 19/05 A3001 RMK AO2 SLP168 T01940050=
201806060053 METAR KSEA 060053Z 25009KT 10SM SCT060 19/05 A3001 RMK AO2 SLP168 T01940050=
201806052353 METAR KSEA 052353Z 24011KT 10SM SCT060 20/04 A3001 RMK AO2 SLP169 T02000044 10206 20150 58003=
201806052253 METAR KSEA 052253Z 25010G18KT 10SM FEW040 SCT060 20/04 A3002 RMK AO2 SLP170 T02000044=
201806052153 METAR KSEA 052153Z 25013G17KT 10SM FEW040 BKN070 18/04 A3002 RMK AO2 SLP172 T01830044=
201806052053 METAR KSEA 052053Z 23011KT 10SM FEW040 BKN100 18/04 A3002 RMK AO2 SLP172 T01830044 51005=
201806051953 METAR KSEA 051953Z 24012KT 10SM FEW040 BKN100 17/04 A3002 RMK AO2 SLP171 T01720044=
201806051853 METAR KSEA 051853Z 22009KT 10SM FEW040 BKN100 17/04 A3001 RMK AO2 SLP170 T01670044=
201806051753 METAR KSEA 051753Z 22010KT 10SM FEW025 FEW040 BKN110 16/04 A3001 RMK AO2 SLP168 T01560039 10161 20094 51001=
201806051653 METAR KSEA 051653Z 20007KT 160V230 10SM FEW025 FEW040 BKN130 14/05 A3001 RMK AO2 SLP168 ACSL DSNT SE T01390050=
201806051553 METAR KSEA 051553Z 21008KT 10SM FEW040 SCT120 BKN160 13/06 A3001 RMK AO2 SLP169 T01330056=
201806051453 METAR KSEA 051453Z 17005KT 10SM FEW040 BKN120 BKN180 12/06 A3001 RMK AO2 SLP166 ACSL DSNT SE T01170061 51009=
201806051353 METAR KSEA 051353Z 17007KT 10SM FEW040 FEW130 BKN180 11/07 A3000 RMK AO2 SLP165 ACSL DSNT SE T01060067=
201806051253 METAR KSEA 051253Z 17003KT 10SM FEW020 FEW090 BKN160 10/07 A2999 RMK AO2 SLP161 T01000067=
201806051153 METAR KSEA 051153Z 22003KT 10SM FEW050 BKN180 09/07 A2998 RMK AO2 SLP157 T00940072 10117 20094 56009=
201806051053 METAR KSEA 051053Z 00000KT 10SM BKN180 11/07 A2999 RMK AO2 SLP160 T01060067=
201806050953 METAR KSEA 050953Z 17004KT 10SM OVC200 10/06 A2999 RMK AO2 SLP162 T01000061=
201806050853 METAR KSEA 050853Z 00000KT 10SM OVC200 11/06 A3001 RMK AO2 SLP168 T01110061 58005=
201806050753 METAR KSEA 050753Z 00000KT 10SM BKN240 12/06 A3001 RMK AO2 SLP169 T01170056 402060094=
201806050653 METAR KSEA 050653Z 30003KT 10SM BKN240 11/06 A3002 RMK AO2 SLP173 T01110061=
201806050553 METAR KSEA 050553Z 31005KT 10SM FEW050 SCT210 12/06 A3002 RMK AO2 SLP173 T01170061 10206 20117 58003=
201806050453 METAR KSEA 050453Z 32006KT 10SM SCT050 SCT250 13/06 A3003 RMK AO2 SLP176 T01280061=
201806050353 METAR KSEA 050353Z 33007KT 10SM FEW050 SCT120 SCT250 14/07 A3003 RMK AO2 SLP176 T01440067=
201806050253 METAR KSEA 050253Z 29005KT 10SM FEW050 SCT250 17/06 A3003 RMK AO2 SLP177 T01720061 56013=
201806050153 METAR KSEA 050153Z 26005KT 10SM SCT050 SCT250 18/04 A3005 RMK AO2 SLP180 T01830039=
201806050053 METAR KSEA 050053Z 24007KT 10SM SCT050 BKN250 19/04 A3005 RMK AO2 SLP181 T01940044=
201806042353 METAR KSEA 042353Z 24007KT 10SM SCT048 SCT100 BKN250 20/05 A3007 RMK AO2 SLP189 60000 T02000050 10200 20117 58007=
201806042253 METAR KSEA 042253Z VRB06KT 10SM SCT046 SCT090 BKN250 19/06 A3009 RMK AO2 SLP193 T01940056=
201806042153 METAR KSEA 042153Z VRB04KT 10SM FEW035 SCT085 SCT250 19/06 A3009 RMK AO2 SLP194 T01940056=
201806042053 METAR KSEA 042053Z 01007KT 10SM SCT035 BKN070 BKN250 17/07 A3009 RMK AO2 SLP196 60000 T01670072 56008=
201806041953 METAR KSEA 041953Z VRB03KT 10SM FEW014 SCT023 BKN035 17/07 A3010 RMK AO2 SLP198 T01670067=
201806041939 SPECI KSEA 041939Z 00000KT 10SM FEW014 BKN023 BKN035 16/06 A3010 RMK AO2 T01560061=
201806041853 METAR KSEA 041853Z 00000KT 10SM FEW008 BKN014 BKN025 15/08 A3011 RMK AO2 RAE1755 SLP202 P0000 T01500083=
201806041809 SPECI KSEA 041809Z VRB04KT 10SM SCT008 BKN012 BKN025 12/09 A3012 RMK AO2 RAE1755 P0000 T01220089=
201806041753 METAR KSEA 041753Z 11003KT 8SM -RA BKN008 BKN020 12/09 A3012 RMK AO2 RAE1654B23 SLP206 P0000 60000 T01170089 10117 20094 51008=
201806041720 SPECI KSEA 041720Z VRB05KT 5SM HZ BKN008 OVC012 11/08 A3012 RMK AO2 RAE1654 P0000 T01110078=
201806041653 METAR KSEA 041653Z 22003KT 6SM -RA FEW008 OVC012 11/08 A3012 RMK AO2 RAB26 SLP205 P0000 T01060078=
201806041553 METAR KSEA 041553Z 13006KT 10SM FEW008 OVC014 11/08 A3011 RMK AO2 DZE11 SLP201 P0000 T01060078=
201806041511 SPECI KSEA 041511Z 15005KT 10SM FEW008 OVC013 11/08 A3010 RMK AO2 DZE11 P0000 T01060078=
201806041453 METAR KSEA 041453Z 15005KT 9SM -DZ SCT008 OVC017 10/08 A3010 RMK AO2 DZB45 SLP198 P0000 60000 T01000078 53002=
201806041353 METAR KSEA 041353Z 20004KT 10SM FEW008 SCT014 OVC024 11/07 A3009 RMK AO2 SLP195 T01060067=
201806041336 SPECI KSEA 041336Z 19003KT 10SM FEW008 BKN014 OVC035 11/07 A3009 RMK AO2 T01060067=
201806041313 SPECI KSEA 041313Z 18003KT 10SM BKN014 BKN024 OVC035 11/07 A3009 RMK AO2 T01060067=
201806041253 METAR KSEA 041253Z 19006KT 10SM FEW014 BKN024 OVC035 11/07 A3009 RMK AO2 SLP196 T01060072=
201806041153 METAR KSEA 041153Z 20005KT 10SM FEW014 SCT019 OVC026 11/07 A3009 RMK AO2 SLP196 70001 T01110072 10128 20111 51005=
201806041053 METAR KSEA 041053Z 22005KT 10SM BKN015 OVC040 11/07 A3009 RMK AO2 SLP194 T01110072=
201806040953 METAR KSEA 040953Z 00000KT 10SM BKN021 OVC045 12/08 A3008 RMK AO2 SLP192 T01170078=
201806040853 METAR KSEA 040853Z 26004KT 10SM BKN021 OVC045 12/08 A3007 RMK AO2 SLP189 T01170078 53004=
201806040753 METAR KSEA 040753Z 21005KT 10SM FEW014 BKN025 OVC045 12/08 A3007 RMK AO2 SLP187 T01170078 401720117=
201806040653 METAR KSEA 040653Z 21005KT 10SM SCT015 BKN023 OVC038 12/08 A3007 RMK AO2 SLP187 T01220083=
201806040553 METAR KSEA 040553Z 04003KT 10SM BKN036 OVC050 13/08 A3006 RMK AO2 SLP186 T01280083 10139 20128 53008=
201806040453 METAR KSEA 040453Z 06005KT 10SM SCT027 OVC035 13/09 A3006 RMK AO2 SLP184 T01330089=
201806040353 METAR KSEA 040353Z VRB03KT 10SM BKN029 OVC041 13/09 A3004 RMK AO2 SLP179 T01280089=
201806040253 METAR KSEA 040253Z 29003KT 10SM FEW024 BKN037 BKN070 13/09 A3004 RMK AO2 SLP178 T01280089 56005=
201806040153 METAR KSEA 040153Z 24005KT 10SM FEW011 BKN044 OVC055 13/09 A3004 RMK AO2 SLP179 T01330094=
201806040053 METAR KSEA 040053Z VRB03KT 10SM FEW022 OVC065 13/10 A3004 RMK AO2 SLP180 T01330100=
201806032353 METAR KSEA 032353Z 25006KT 10SM FEW022 OVC070 14/11 A3005 RMK AO2 RAE22 SLP183 P0001 60001 T01390106 10172 20139 50001=
201806032253 METAR KSEA 032253Z 24006KT 10SM -RA FEW022 OVC060 14/11 A3006 RMK AO2 SLP186 P0000 T01440106=
201806032156 SPECI KSEA 032156Z 29006KT 10SM -RA FEW022 SCT060 OVC080 15/10 A3006 RMK AO2 P0000 T01500100=
201806032153 METAR KSEA 032153Z 28005KT 10SM -RA FEW022 OVC080 15/10 A3006 RMK AO2 RAB35 SLP183 P0000 T01500100=
201806032134 SPECI KSEA 032134Z 25007KT 10SM SCT022 OVC080 16/10 A3005 RMK AO2 T01610100=
201806032106 SPECI KSEA 032106Z 24004KT 10SM BKN022 OVC080 17/10 A3005 RMK AO2 T01670100=
201806032053 METAR KSEA 032053Z 24007KT 10SM SCT022 BKN075 OVC090 17/10 A3005 RMK AO2 SLP182 T01670100 50004=
201806031953 METAR KSEA 031953Z 23006KT 10SM FEW030 BKN085 OVC120 17/09 A3005 RMK AO2 SLP182 T01670094=
201806031853 METAR KSEA 031853Z 25006KT 10SM FEW020 BKN090 OVC120 16/10 A3005 RMK AO2 SLP181 T01610100=
201806031753 METAR KSEA 031753Z 25010KT 10SM FEW020 SCT120 OVC200 16/09 A3004 RMK AO2 SLP177 T01610094 10167 20122 56009=
201806031653 METAR KSEA 031653Z 23006KT 10SM FEW030 BKN150 BKN210 15/09 A3004 RMK AO2 SLP178 T01500089=
201806031553 METAR KSEA 031553Z 19005KT 10SM FEW030 BKN150 BKN200 15/09 A3005 RMK AO2 SLP183 T01500094=
201806031453 METAR KSEA 031453Z 24006KT 10SM FEW015 BKN150 BKN200 13/09 A3006 RMK AO2 SLP185 T01330094 56005=
201806031353 METAR KSEA 031353Z 23004KT 10SM FEW020 BKN150 BKN190 13/09 A3006 RMK AO2 SLP185 T01280094=
201806031253 METAR KSEA 031253Z 21003KT 10SM FEW050 BKN140 BKN200 13/09 A3007 RMK AO2 SLP187 T01280089=
201806031153 METAR KSEA 031153Z 00000KT 10SM FEW060 SCT150 BKN210 12/09 A3008 RMK AO2 SLP190 T01220089 10161 20117 58002=
201806031053 METAR KSEA 031053Z 22003KT 10SM FEW060 SCT250 12/09 A3009 RMK AO2 SLP192 T01220089=
201806030953 METAR KSEA 030953Z 00000KT 10SM FEW060 SCT210 13/09 A3008 RMK AO2 SLP191 T01330089=
201806030853 METAR KSEA 030853Z 00000KT 10SM FEW150 SCT250 13/09 A3009 RMK AO2 SLP192 T01330089 58006=
201806030753 METAR KSEA 030753Z 21004KT 10SM FEW150 SCT250 13/08 A3009 RMK AO2 SLP195 T01330083 402500122=
201806030653 METAR KSEA 030653Z 30004KT 10SM FEW150 14/07 A3010 RMK AO2 SLP196 T01440072=
201806030553 METAR KSEA 030553Z 32006KT 10SM FEW150 16/07 A3010 RMK AO2 SLP198 T01610072 10250 20161 56002=
201806030453 METAR KSEA 030453Z 33006KT 10SM FEW150 17/07 A3011 RMK AO2 SLP199 T01670072=
201806030353 METAR KSEA 030353Z 35008KT 10SM FEW150 18/07 A3010 RMK AO2 SLP197 T01830072=
201806030253 METAR KSEA 030253Z 36006KT 10SM FEW150 22/08 A3011 RMK AO2 SLP200 T02170078 56013=
201806030153 METAR KSEA 030153Z 30006KT 10SM FEW040 SCT200 24/08 A3012 RMK AO2 SLP203 T02390083=
201806030053 METAR KSEA 030053Z 26006KT 10SM FEW040 SCT200 24/08 A3013 RMK AO2 SLP208 T02390078=
201806022353 METAR KSEA 022353Z 29005KT 10SM FEW040 SCT200 25/07 A3015 RMK AO2 SLP213 T02500067 10250 20183 58020=
201806022253 METAR KSEA 022253Z VRB05KT 10SM FEW040 SCT090 SCT200 24/08 A3017 RMK AO2 SLP220 T02390078=
201806022153 METAR KSEA 022153Z 26005KT 10SM FEW040 SCT090 BKN200 23/08 A3019 RMK AO2 SLP226 T02330078=
201806022053 METAR KSEA 022053Z 24007KT 10SM FEW040 SCT090 BKN200 23/07 A3021 RMK AO2 SLP233 T02330067 58015=
201806021953 METAR KSEA 021953Z 20005KT 10SM FEW040 SCT090 BKN190 22/07 A3022 RMK AO2 SLP239 T02220072=
201806021853 METAR KSEA 021853Z VRB03KT 10SM FEW030 SCT080 SCT180 21/07 A3024 RMK AO2 SLP245 T02060067=
201806021753 METAR KSEA 021753Z 25006KT 10SM FEW030 SCT065 BKN160 19/07 A3025 RMK AO2 SLP249 T01890072 10194 20122 58006=
201806021653 METAR KSEA 021653Z 27005KT 10SM FEW030 SCT080 BKN160 18/07 A3026 RMK AO2 SLP253 T01830072=
201806021553 METAR KSEA 021553Z 29003KT 10SM FEW060 SCT075 BKN160 17/08 A3026 RMK AO2 SLP254 T01720078=
201806021453 METAR KSEA 021453Z 17004KT 10SM FEW040 BKN090 BKN150 16/08 A3027 RMK AO2 SLP255 T01560078 53003=
201806021353 METAR KSEA 021353Z 18003KT 10SM FEW040 BKN090 BKN140 13/07 A3026 RMK AO2 SLP253 T01330072=
201806021253 METAR KSEA 021253Z 13007KT 10SM FEW060 BKN080 BKN110 12/07 A3026 RMK AO2 SLP252 T01220067=
201806021153 METAR KSEA 021153Z 15004KT 10SM SCT065 BKN085 12/07 A3026 RMK AO2 SLP251 T01220072 10150 20122 58002=
201806021053 METAR KSEA 021053Z 13006KT 10SM BKN065 OVC090 13/07 A3026 RMK AO2 SLP253 T01280072=
201806020953 METAR KSEA 020953Z 12005KT 10SM BKN100 OVC250 13/07 A3026 RMK AO2 SLP253 T01330072=
201806020853 METAR KSEA 020853Z 15004KT 10SM SCT100 BKN250 13/07 A3026 RMK AO2 SLP253 T01280072 50001=
201806020753 METAR KSEA 020753Z 16003KT 10SM FEW110 SCT250 13/07 A3027 RMK AO2 SLP256 T01330067 402000089=
201806020653 METAR KSEA 020653Z 20003KT 10SM FEW090 SCT250 14/07 A3027 RMK AO2 SLP254 T01440067=
201806020553 METAR KSEA 020553Z 19003KT 10SM SCT085 SCT250 15/06 A3026 RMK AO2 SLP252 T01500061 10200 20150 53008=
201806020453 METAR KSEA 020453Z VRB03KT 10SM SCT090 BKN250 16/06 A3025 RMK AO2 SLP249 T01560061=
201806020353 METAR KSEA 020353Z 22003KT 10SM BKN090 BKN250 17/06 A3024 RMK AO2 SLP245 T01670056=
201806020253 METAR KSEA 020253Z 24007KT 10SM FEW050 SCT090 BKN250 17/05 A3024 RMK AO2 SLP245 T01720050 56003=
201806020153 METAR KSEA 020153Z 23005KT 10SM FEW050 SCT090 SCT250 18/05 A3024 RMK AO2 SLP245 T01780050=
201806020053 METAR KSEA 020053Z 26010KT 10SM FEW050 BKN140 BKN250 18/04 A3025 RMK AO2 SLP248 T01780044=
201806012353 METAR KSEA 012353Z 24011KT 10SM FEW050 SCT150 BKN250 18/04 A3025 RMK AO2 SLP249 T01830039 10194 20139 50002=
201806012253 METAR KSEA 012253Z 20011KT 10SM SCT050 SCT150 BKN250 19/04 A3025 RMK AO2 SLP250 T01890039=
201806012153 METAR KSEA 012153Z 21011KT 10SM SCT050 BKN150 BKN250 18/03 A3025 RMK AO2 SLP249 T01780033=
201806012053 METAR KSEA 012053Z 23010KT 10SM FEW030 SCT050 BKN170 BKN250 18/03 A3024 RMK AO2 SLP247 T01780033 53006=
201806011953 METAR KSEA 011953Z 21011KT 10SM FEW030 SCT055 BKN160 17/03 A3023 RMK AO2 SLP243 T01670033=
201806011853 METAR KSEA 011853Z 21008KT 10SM SCT030 BKN055 16/04 A3022 RMK AO2 SLP241 T01610039=
201806011753 METAR KSEA 011753Z 22009KT 10SM SCT025 BKN050 14/04 A3022 RMK AO2 SLP240 T01390044 10150 20089 53016=
201806011653 METAR KSEA 011653Z 22010KT 10SM SCT024 BKN050 14/06 A3020 RMK AO2 SLP233 T01390061=
201806011553 METAR KSEA 011553Z 22012KT 10SM SCT021 BKN050 13/06 A3019 RMK AO2 SLP229 T01280061=
201806011453 METAR KSEA 011453Z 19009KT 10SM SCT023 12/06 A3017 RMK AO2 SLP224 T01220061 53017=
201806011353 METAR KSEA 011353Z 19008KT 10SM SCT020 11/06 A3016 RMK AO2 SLP219 T01060056=
201806011253 METAR KSEA 011253Z 17008KT 10SM SCT017 09/06 A3014 RMK AO2 SLP213 T00890056=
201806011153 METAR KSEA 011153Z 17007KT 10SM SCT024 09/05 A3013 RMK AO2 SLP208 T00890050 10122 20089 51015=
201806011125 SPECI KSEA 011125Z 17008KT 10SM SCT024 09/05 A3012 RMK AO2 T00890050=
201806011106 SPECI KSEA 011106Z 18008KT 10SM BKN024 BKN080 09/05 A3012 RMK AO2 T00940050=
201806011053 METAR KSEA 011053Z 17009KT 10SM SCT024 BKN080 09/05 A3011 RMK AO2 SLP203 T00890050=
201806010953 METAR KSEA 010953Z 18009KT 10SM FEW023 BKN080 10/05 A3010 RMK AO2 SLP199 T01000050=
201806010853 METAR KSEA 010853Z 17010KT 10SM BKN080 10/05 A3008 RMK AO2 SLP193 T01000050 51018=
201806010753 METAR KSEA 010753Z 20010KT 10SM FEW055 BKN080 11/06 A3006 RMK AO2 SLP186 T01060056 401940094=
201806010653 METAR KSEA 010653Z 21010KT 10SM BKN055 12/06 A3005 RMK AO2 SLP182 T01170056=
201806010553 METAR KSEA 010553Z 21011KT 10SM FEW035 BKN070 12/06 A3003 RMK AO2 SLP174 60000 T01220061 10156 20122 51016=
201806010453 METAR KSEA 010453Z 22012KT 10SM FEW035 BKN050 BKN085 13/07 A3002 RMK AO2 SLP171 T01330067=
201806010353 METAR KSEA 010353Z 21008KT 10SM FEW036 SCT050 BKN070 14/06 A2999 RMK AO2 SLP163 T01390056=
201806010253 METAR KSEA 010253Z 15007KT 10SM FEW060 BKN085 14/08 A2998 RMK AO2 SLP158 60000 T01440078 53013=
201806010153 METAR KSEA 010153Z 20007KT 10SM FEW043 BKN085 14/08 A2996 RMK AO2 RAE33 SLP151 P0000 T01390078=
201806010053 METAR KSEA 010053Z 27004KT 10SM -RA FEW040 BKN060 BKN150 14/07 A2994 RMK AO2 RAB51 SLP145 P0000 T01390067=

# No short TAF reports from KSEA in databse.

###################################
#  large TAF from KSEA
###################################
201806302327 TAF KSEA 302327Z 0100/0206 24011KT P6SM VCSH OVC030 FM010500 19008KT
                       P6SM OVC025 FM011000 20010KT P6SM OVC015
                       FM011300 19008KT P6SM OVC010 FM011900 21010KT
                       P6SM BKN025 FM012200 22010KT P6SM BKN035=
201806302102 KSEA 302102Z 3021/0124 22012KT P6SM VCSH BKN030 OVC070 FM010500
                       19008KT P6SM OVC025 FM011000 20010KT P6SM
                       OVC015 FM012000 22010KT P6SM BKN030=
201806301720 TAF KSEA 301720Z 3018/0124 20008KT P6SM BKN015 BKN021 OVC030 FM302000
                       21010KT P6SM VCSH OVC030 FM010500 19008KT
                       P6SM OVC025 FM011000 20010KT P6SM OVC015
                       FM012000 22010KT P6SM BKN030=
201806301423 KSEA 301423Z 3014/0118 22012KT P6SM FEW007 BKN015 OVC020 FM302000
                       21010KT P6SM VCSH OVC030 FM010500 19007KT
                       P6SM OVC025 FM011000 19007KT P6SM OVC015=
201806301232 KSEA 301232Z 3013/0118 19008KT P6SM OVC020 FM302000 21010KT P6SM
                       VCSH OVC030 FM010500 19007KT P6SM OVC025
                       FM011000 19007KT P6SM OVC015=
201806301120 TAF KSEA 301120Z 3012/0118 18006KT P6SM SCT035 BKN050
                      TEMPO 3012/3015 BKN035 OVC050 FM301500 18006KT
                       P6SM OVC035 FM302000 21010KT P6SM VCSH OVC040
                       FM010500 19007KT P6SM OVC025 FM011000 19007KT
                       P6SM OVC015=
201806300928 KSEA 300928Z 3009/0112 18005KT P6SM BKN050 FM301200 18008KT P6SM
                       VCSH OVC035 FM302100 21010KT P6SM VCSH BKN040
                       OVC080 FM010400 19007KT P6SM OVC025 FM010900
                       19007KT P6SM OVC015=
201806300523 TAF KSEA 300523Z 3006/0112 05005KT P6SM FEW035 BKN070 FM300900
                       VRB03KT P6SM OVC035 FM301100 17005KT P6SM
                       OVC022 FM301800 21009KT P6SM BKN028 BKN050
                       OVC100 FM302100 21011KT P6SM VCSH SCT028
                       BKN050 OVC100 FM010400 19007KT P6SM OVC028
                       FM010900 19007KT P6SM VCSH OVC015=
201806300158 KSEA 300158Z 3002/0106 30005KT P6SM SCT040 BKN060 FM300800 02004KT
                       P6SM OVC035 FM301100 18005KT P6SM OVC015
                       FM301700 21009KT P6SM OVC035 FM302100 22011KT
                       P6SM VCSH SCT015 OVC030=
201806292326 TAF KSEA 292326Z 3000/0106 26007KT P6SM SCT040 BKN080 FM300800
                       02004KT P6SM OVC035 FM301100 18005KT P6SM
                       OVC015 FM301700 21009KT P6SM OVC035 FM302100
                       22011KT P6SM VCSH SCT015 OVC030=
201806292101 KSEA 292101Z 2921/3024 VRB03KT P6SM VCSH FEW021 SCT045 BKN090 FM300800
                       18005KT P6SM OVC015 FM302100 18008KT P6SM
                       VCSH SCT015 OVC030=
201806291738 TAF KSEA 291738Z 2918/3024 20008KT P6SM FEW021 BKN120 OVC200 FM292100
                       24005KT P6SM VCSH SCT025 OVC060 FM300800
                       18005KT P6SM OVC015 FM302100 18008KT P6SM
                       VCSH SCT015 OVC030=
201806291501 KSEA 291501Z 2915/3018 20008KT P6SM FEW018 BKN100 BKN220 FM291800
                       VRB04KT P6SM BKN040 FM300600 18006KT P6SM
                       OVC030=
201806291120 TAF KSEA 291120Z 2912/3018 18006KT P6SM BKN060 FM291800 VRB04KT
                       P6SM BKN040 FM300600 18006KT P6SM OVC030=
201806290910 KSEA 290910Z 2909/3012 VRB04KT P6SM OVC040 FM291800 VRB04KT P6SM
                       BKN040 FM300600 18006KT P6SM OVC030=
201806290521 TAF KSEA 290521Z 2906/3012 VRB03KT P6SM OVC035 FM291100 18005KT
                       P6SM OVC015 FM291800 23006KT P6SM OVC035
                       FM292100 26007KT P6SM BKN045 OVC070 FM300900
                       19005KT P6SM OVC015=
201806290304 KSEA 290304Z 2903/3006 VRB03KT P6SM OVC035 FM291100 18005KT P6SM
                       VCSH OVC015 FM291800 23006KT P6SM OVC035
                       FM292200 24007KT P6SM BKN035=
201806282320 TAF KSEA 282320Z 2900/3006 25006KT P6SM VCSH FEW035 SCT070 BKN090
                       FM291100 18005KT P6SM VCSH OVC015 FM291800
                       23006KT P6SM OVC035 FM292200 24007KT P6SM
                       BKN035=
201806282104 KSEA 282104Z 2821/2924 23008KT P6SM VCSH SCT027 OVC090 FM291000
                       19004KT P6SM OVC015=
201806281730 TAF KSEA 281730Z 2818/2924 22010KT P6SM SCT018 SCT045 BKN150 FM291000
                       19004KT P6SM OVC015=
201806281502 KSEA 281502Z 2815/2918 18005KT P6SM SCT014 BKN035 BKN130 FM281700
                       22007KT P6SM SCT025 BKN050 FM290900 18007KT
                       P6SM OVC015=
201806281120 TAF KSEA 281120Z 2812/2918 18005KT P6SM BKN022 BKN060 FM281700
                       22007KT P6SM SCT025 BKN050 FM290900 18007KT
                       P6SM OVC015=
201806280902 KSEA 280902Z 2809/2912 18006KT P6SM SCT018 BKN070
                      TEMPO 2811/2814 BKN018 OVC050 FM281400 18006KT
                       P6SM BKN020 OVC050 FM281700 22007KT P6SM
                       SCT025 BKN040 FM282100 22007KT P6SM SCT035
                       OVC050 FM290900 22007KT P6SM OVC020=
201806280520 TAF KSEA 280520Z 2806/2912 22005KT P6SM BKN060 OVC090 FM281100
                       18006KT P6SM SCT018 BKN025 OVC050 FM281700
                       21007KT P6SM SCT025 BKN035 FM282100 22007KT
                       P6SM SCT035 BKN045 OVC070 FM290900 20004KT
                       P6SM BKN020 OVC045=
201806280303 KSEA 280303Z 2803/2906 22006KT P6SM FEW040 BKN120 OVC200 FM280600
                       17004KT P6SM BKN050 OVC100 FM281100 18006KT
                       P6SM SCT018 BKN025 OVC050 FM281700 21007KT
                       P6SM SCT025 BKN035 FM282100 22007KT P6SM
                       VCSH SCT035 BKN045 OVC070=
201806272339 TAF KSEA 272339Z 2800/2906 30004KT P6SM SCT040 BKN060 BKN150 FM280600
                       17004KT P6SM BKN050 OVC100 FM281100 18006KT
                       P6SM SCT018 BKN025 OVC050 FM281700 21007KT
                       P6SM SCT025 BKN035 FM282100 22007KT P6SM
                       VCSH SCT035 BKN045 OVC070=
201806272105 KSEA 272105Z 2721/2824 29004KT P6SM FEW035 BKN120 BKN200 FM272200
                       32006KT P6SM SCT040 BKN060 BKN150 FM280600
                       17004KT P6SM BKN050 OVC100 FM281100 18006KT
                       P6SM SCT018 BKN025 OVC050 FM281700 21007KT
                       P6SM SCT025 BKN035 FM282100 22007KT P6SM
                       SCT035 BKN045 OVC070=
201806271732 TAF KSEA 271732Z 2718/2824 30004KT P6SM SCT090 BKN200 FM272200
                       33006KT P6SM SCT045 BKN060 BKN150 FM280600
                       17004KT P6SM BKN050 OVC100 FM281100 18006KT
                       P6SM SCT018 BKN025 OVC050 FM281700 21007KT
                       P6SM SCT025 BKN035 FM282100 22007KT P6SM
                       SCT035 BKN045 OVC070=
201806271615 KSEA 271615Z 2716/2818 VRB03KT P6SM BKN200 FM272100 31005KT P6SM
                       SCT045 BKN060 BKN150 FM280600 21006KT P6SM
                       BKN050 OVC100 FM281100 19007KT P6SM BKN025
                       OVC050=
201806271507 KSEA 271507Z 2715/2818 01006KT P6SM BKN200 FM272200 32006KT P6SM
                       SCT045 BKN060 BKN150 FM280600 21006KT P6SM
                       BKN050 OVC100 FM281100 19007KT P6SM BKN025
                       OVC050=
201806271120 TAF KSEA 271120Z 2712/2818 03004KT P6SM SCT200 FM271600 21005KT
                       P6SM SCT120 BKN200 FM272000 25006KT P6SM
                       SCT070 BKN120 OVC200 FM280500 23006KT P6SM
                       BKN060 OVC100 FM281100 19007KT P6SM BKN025
                       OVC050=
201806270906 KSEA 270906Z 2709/2812 03008KT P6SM FEW050 SCT250 FM271200 02005KT
                       P6SM SCT050 BKN200 FM271500 20007KT P6SM
                       BKN070 BKN120 FM272000 25006KT P6SM SCT050
                       BKN070 BKN120 FM280500 23006KT P6SM BKN050
                       OVC100 FM281100 19007KT P6SM BKN030 OVC050=
201806270531 TAF KSEA 270531Z 2706/2812 36008KT P6SM FEW050 SCT250 FM271000
                       02005KT P6SM SCT050 BKN200 FM271500 20007KT
                       P6SM BKN070 BKN120 FM272000 25006KT P6SM
                       SCT050 BKN070 BKN120 FM280500 23006KT P6SM
                       BKN050 OVC100 FM281100 19007KT P6SM BKN030
                       OVC050=
201806270300 KSEA 270300Z 2703/2806 36008KT P6SM FEW050 SCT250 FM271000 02005KT
                       P6SM SCT050 FM271500 20007KT P6SM BKN070
                       BKN120 FM271800 25006KT P6SM SCT050 BKN070
                       BKN120=
201806262322 TAF KSEA 262322Z 2700/2806 33006KT P6SM SCT050 SCT070 FM270400
                       01007KT P6SM FEW050 FM271000 02005KT P6SM
                       SCT050 FM271500 20007KT P6SM BKN070 BKN120
                       FM271800 25006KT P6SM SCT050 BKN070 BKN120=
201806262103 KSEA 262103Z 2621/2724 33006KT P6SM SCT035 SCT050 FM270000 33008KT
                       P6SM SCT060 FM270400 01007KT P6SM FEW050
                       SCT200 FM271000 02005KT P6SM SCT050 FM271500
                       20007KT P6SM BKN070 BKN120=
201806261721 TAF KSEA 261721Z 2618/2724 VRB05KT P6SM SCT022 BKN030 FM261900
                       28005KT P6SM SCT030 BKN050 FM262100 29006KT
                       P6SM SCT050 FM270000 33008KT P6SM SCT060
                       FM270400 01007KT P6SM FEW050 SCT200 FM271000
                       02005KT P6SM SCT050 FM271500 20007KT P6SM
                       BKN070 BKN120=
201806261502 KSEA 261502Z 2615/2718 VRB05KT P6SM VCSH FEW012 BKN020 BKN045 FM261700
                       23006KT P6SM SCT025 BKN045 FM262100 29006KT
                       P6SM SCT050 FM262300 33008KT P6SM SCT060
                       FM270400 01007KT P6SM FEW050 SCT200 FM271000
                       02005KT P6SM BKN050=
201806261322 KSEA 261322Z 2613/2718 18005KT P6SM BKN016 BKN040
                      TEMPO 2613/2617 SCT022 BKN050 FM261700 23006KT
                       P6SM SCT025 BKN045 FM262100 29006KT P6SM
                       SCT050 FM262300 33008KT P6SM SCT060 FM270400
                       01007KT P6SM FEW050 SCT200 FM271000 02005KT
                       P6SM BKN050=
201806261134 TAF KSEA 261134Z 2612/2718 18005KT P6SM BKN022 BKN040
                      TEMPO 2612/2616 SCT025 BKN045 FM261600 23006KT
                       P6SM SCT025 BKN045 FM262100 29006KT P6SM
                       SCT050 FM262300 33008KT P6SM SCT060 FM270400
                       01007KT P6SM FEW050 SCT200 FM271000 02005KT
                       P6SM BKN050=
201806260901 KSEA 260901Z 2609/2712 19005KT P6SM SCT030 BKN050 OVC080
                      TEMPO 2609/2612 BKN025 OVC040 FM261200 18005KT
                       P6SM OVC022 FM261800 25005KT P6SM SCT025
                       BKN050 FM262100 28006KT P6SM SCT050 FM262300
                       33008KT P6SM SCT060 FM271000 02005KT P6SM
                       BKN050=
201806260524 TAF KSEA 260524Z 2606/2712 28004KT P6SM SCT050 BKN080 FM260900
                       21005KT P6SM BKN050 OVC080 FM261100 18005KT
                       P6SM OVC020 FM261800 25005KT P6SM SCT025
                       BKN050 FM262100 28006KT P6SM SCT050 FM262300
                       33008KT P6SM SCT060 FM271000 02005KT P6SM
                       BKN050=
201806260304 KSEA 260304Z 2603/2706 30006KT P6SM FEW035 BKN080 FM260500 07004KT
                       P6SM SCT050 BKN080 FM260900 21005KT P6SM
                       BKN050 OVC080 FM261100 18007KT P6SM OVC020
                       FM261800 25006KT P6SM SCT035 SCT250 FM262100
                       28007KT P6SM SCT050 BKN250 FM262300 31009KT
                       P6SM BKN250=
201806252320 TAF KSEA 252320Z 2600/2706 20013G21KT P6SM SCT035 BKN070 FM260300
                       23011KT P6SM SCT030 BKN070 FM260700 18008KT
                       P6SM BKN030 FM261000 18007KT P6SM SCT015
                       OVC025
                      TEMPO 2612/2616 BKN015 OVC025 FM261800 25006KT
                       P6SM SCT035 SCT250 FM262100 28007KT P6SM
                       SCT050 BKN250 FM262300 31009KT P6SM BKN250=
201806252126 KSEA 252126Z 2521/2624 20014G20KT P6SM SCT030 BKN070 FM260300 23011KT
                       P6SM SCT030 BKN070 FM260700 18008KT P6SM
                       BKN030 FM261000 18007KT P6SM BKN015 OVC025
                       TEMPO 2612/2616 BKN010 OVC020=
201806251741 TAF KSEA 251741Z 2518/2624 21012KT P6SM VCSH BKN017 OVC035 FM251900
                       23012KT P6SM SCT030 BKN050 FM252200 23011KT
                       P6SM SCT040 BKN070 FM260700 18008KT P6SM
                       BKN030 FM261000 18007KT P6SM BKN015 OVC025
                       TEMPO 2612/2616 BKN010 OVC020=
201806251505 KSEA 251505Z 2515/2618 19009KT P6SM VCSH BKN013 OVC025 FM251700
                       21012KT P6SM VCSH BKN017 BKN035 FM251900
                       23012KT P6SM SCT030 BKN050 FM252200 23011KT
                       P6SM SCT040 BKN070 FM260700 18008KT P6SM
                       BKN030=
201806251144 TAF KSEA 251144Z 2512/2618 20009KT P6SM VCSH SCT007 BKN015 OVC025
                       TEMPO 2512/2516 BKN009 OVC015 FM251600 21012KT
                       P6SM VCSH BKN017 BKN035 FM251900 23012KT
                       P6SM SCT030 BKN050 FM252200 23011KT P6SM
                       SCT040 BKN070 FM260700 18008KT P6SM BKN030=
201806250901 KSEA 250901Z 2509/2612 25007KT P6SM VCSH SCT015 OVC060
                      TEMPO 2510/2514 BKN014 BKN040 FM251400 21010KT
                       P6SM VCSH SCT015 BKN030 FM251600 21012G20KT
                       P6SM VCSH BKN030 FM251900 22012KT P6SM BKN050=
201806250520 TAF KSEA 250520Z 2506/2612 02012KT P6SM SCT040 OVC080 FM250800
                       VRB04KT P6SM -RA OVC040 FM251000 21010KT
                       P6SM VCSH BKN030 FM251600 21012G20KT P6SM
                       VCSH BKN030 FM251900 22012KT P6SM BKN050=
201806250313 KSEA 250313Z 2503/2606 36015KT P6SM BKN150 FM250600 VRB05KT P6SM
                       VCSH BKN050 OVC100 FM250800 21012KT P6SM
                       VCSH OVC030 FM251600 21012G20KT P6SM VCSH
                       BKN030 FM251900 22012KT P6SM BKN050=
201806242335 TAF KSEA 242335Z 2500/2606 30011KT P6SM FEW150 SCT250 FM250400
                       31010KT P6SM SCT050 OVC120 FM250800 21015KT
                       P6SM VCSH SCT015 OVC025 FM251600 21018G24KT
                       P6SM VCSH BKN025 BKN045 FM251900 22016KT
                       P6SM BKN045=
201806242104 KSEA 242104Z 2421/2524 31009KT P6SM FEW150 FEW250 FM250300 30007KT
                       P6SM BKN060 OVC120 FM250800 20014KT P6SM
                       VCSH OVC020=
201806241729 TAF KSEA 241729Z 2418/2524 30006KT P6SM SKC FM242200 30006KT P6SM
                       SCT200 FM250300 30007KT P6SM BKN060 OVC120
                       FM250800 20014KT P6SM VCSH OVC020=
201806241502 KSEA 241502Z 2415/2518 35005KT 5SM HZ BKN004 FM241700 31005KT P6SM
                       SCT200 FM242000 33007KT P6SM SCT120 BKN200
                       FM250300 23007KT P6SM BKN070 BKN120 FM250800
                       19011KT P6SM -RA OVC030 FM251400 21012G18KT
                       P6SM VCSH BKN022 BKN050=
201806241221 KSEA 241221Z 2412/2518 VRB03KT P6SM SCT005
                      TEMPO 2413/2416 BKN004 FM241700 31005KT P6SM
                       SCT200 FM242000 33007KT P6SM SCT120 BKN200
                       FM250300 23007KT P6SM BKN070 BKN120 FM250800
                       19011KT P6SM -RA OVC030 FM251400 21012G18KT
                       P6SM VCSH BKN022 BKN050=
201806241133 TAF KSEA 241133Z 2412/2518 VRB03KT P6SM SKC FM242000 33007KT P6SM
                       SCT120 BKN200 FM250300 23007KT P6SM BKN070
                       BKN120 FM250800 19011KT P6SM -RA OVC030
                       FM251400 21012G18KT P6SM VCSH BKN022 BKN050=
201806240911 KSEA 240911Z 2409/2512 VRB03KT P6SM SKC FM242000 33007KT P6SM SCT050
                       SCT120 BKN200 FM250300 21007KT P6SM BKN040
                       BKN120 FM250500 18008KT P6SM -RA OVC040=
201806240539 TAF KSEA 240539Z 2406/2512 VRB03KT P6SM SKC FM242000 33007KT P6SM
                       SCT050 SCT120 BKN200 FM250300 21007KT P6SM
                       BKN040 BKN120 FM250500 18008KT P6SM -RA
                       OVC040=
201806240306 KSEA 240306Z 2403/2506 31007KT P6SM FEW040 FEW200 FM240800 VRB03KT
                       P6SM SKC FM242000 34010KT P6SM SCT050 FM250300
                       VRB04KT P6SM BKN040=
201806232323 TAF KSEA 232323Z 2400/2506 31007KT P6SM SCT040 FM241200 01006KT
                       P6SM SCT010 FM241700 30005KT P6SM SKC=
201806232101 KSEA 232101Z 2321/2424 25006KT P6SM BKN022 FM232300 35004KT P6SM
                       SCT040 FM241200 VRB03KT P6SM SCT010=
201806231732 TAF KSEA 231732Z 2318/2424 36005KT P6SM OVC012 FM232000 32005KT
                       P6SM SCT015 BKN035 FM232300 35004KT P6SM
                       SCT040 FM241200 VRB03KT P6SM SCT010=
201806231512 KSEA 231512Z 2315/2418 09004KT P6SM OVC012 FM231700 VRB03KT P6SM
                       SCT015 OVC025 FM232000 VRB03KT P6SM BKN035
                       FM232300 33007KT P6SM SCT040 FM241200 VRB03KT
                       P6SM SCT010=
201806231131 TAF KSEA 231131Z 2312/2418 08006KT 2SM -RA SCT004 OVC012 FM231400
                       VRB03KT P6SM SCT008 OVC015
                      TEMPO 2314/2316 4SM BR FM231700 VRB03KT P6SM
                       SCT015 OVC025 FM232000 VRB03KT P6SM BKN035
                       FM232300 33007KT P6SM SCT040 FM241200 VRB03KT
                       P6SM SCT010=
201806230841 KSEA 230841Z 2309/2412 33006KT 4SM -RA BKN004 OVC008 FM231000 33006KT
                       P6SM SCT004 BKN008 OVC015 FM231300 33006KT
                       P6SM SCT008 OVC015 FM231500 33006KT P6SM
                       SCT015 OVC025 FM231800 33006KT P6SM OVC035
                       FM232300 33007KT P6SM SCT040=
201806230520 TAF KSEA 230520Z 2306/2412 VRB04KT P6SM -SHRA OVC030 FM230900 33006KT
                       P6SM OVC025 FM231800 33006KT P6SM OVC035
                       FM232300 33007KT P6SM SCT040=
201806230303 KSEA 230303Z 2303/2406 23008KT P6SM OVC040 FM230600 VRB04KT P6SM
                       -SHRA OVC030 FM231200 33006KT P6SM BKN015
                       OVC030 FM231500 30005KT P6SM BKN020 OVC035
                       FM231800 27006KT P6SM OVC035 FM232300 31007KT
                       P6SM SCT040=
201806222330 TAF KSEA 222330Z 2300/2406 23008KT P6SM BKN035 BKN140 FM230400
                       27006KT P6SM -SHRA OVC035 FM231200 33006KT
                       P6SM BKN015 OVC030 FM231500 30005KT P6SM
                       BKN020 OVC035 FM231800 27006KT P6SM OVC035
                       FM232300 31007KT P6SM SCT040=
201806222110 KSEA 222110Z 2221/2324 22008G14KT P6SM FEW020 BKN035 FM230400 VRB03KT
                       P6SM -SHRA OVC035 FM230800 VRB03KT P6SM
                       -SHRA BKN015 OVC030 FM231500 19006KT P6SM
                       BKN020 OVC035=
201806221733 TAF KSEA 221733Z 2218/2324 23007KT P6SM FEW012 BKN017 OVC023 FM222000
                       20008KT P6SM OVC035 FM230200 VRB03KT P6SM
                       -SHRA OVC035 FM230800 VRB03KT P6SM -SHRA
                       BKN015 OVC030 FM231500 19006KT P6SM BKN020
                       OVC035=
201806221501 KSEA 221501Z 2215/2318 22006KT P6SM FEW009 OVC014 FM221900 20008KT
                       P6SM OVC035 FM230200 VRB04KT P6SM -SHRA
                       OVC035 FM230800 VRB04KT P6SM -SHRA BKN015
                       OVC030 FM231500 19006KT P6SM BKN020 OVC035=
201806221121 TAF KSEA 221121Z 2212/2318 20008KT P6SM OVC025 FM221900 20008KT
                       P6SM OVC035 FM230200 VRB04KT P6SM -SHRA
                       OVC035 FM230800 VRB04KT P6SM -SHRA BKN015
                       OVC030 FM231500 19006KT P6SM BKN020 OVC035=
201806220909 KSEA 220909Z 2209/2312 20008KT P6SM BKN035 FM221200 20008KT P6SM
                       OVC025 FM221900 20008KT P6SM OVC035 FM222200
                       VRB04KT P6SM -SHRA OVC035 FM230300 34008KT
                       P6SM VCSH BKN040=
201806220520 TAF KSEA 220520Z 2206/2312 22007KT P6SM SCT030
                      TEMPO 2206/2209 BKN025 FM220900 20008KT P6SM
                       OVC025 FM221800 22010KT P6SM BKN035 FM222200
                       VRB04KT P6SM -SHRA OVC035 FM230300 34008KT
                       P6SM VCSH BKN040=
201806220336 KSEA 220336Z 2204/2306 22007KT P6SM SCT030
                      TEMPO 2204/2207 BKN025 FM220700 20008KT P6SM
                       BKN025 FM221200 18008KT P6SM OVC020 FM222100
                       22010KT P6SM BKN030 FM230000 VRB04KT P6SM
                       -SHRA BKN030=
201806212347 TAF KSEA 212347Z 2200/2306 22009KT P6SM OVC030 FM220100 21009KT
                       P6SM SCT035 FM220700 20008KT P6SM OVC015
                       FM221800 21010KT P6SM OVC020 FM222100 22010KT
                       P6SM OVC030 FM230100 29008KT P6SM BKN035
                       OVC045=
201806212105 KSEA 212105Z 2121/2224 24009KT P6SM OVC025 FM220000 23007KT P6SM
                       OVC035 FM220700 20009KT P6SM OVC015=
201806211724 TAF KSEA 211724Z 2118/2224 21011KT P6SM FEW015 OVC020 FM212200
                       23007KT P6SM SCT040 FM220700 20009KT P6SM
                       OVC015=
201806211428 KSEA 211428Z 2114/2218 21008KT P6SM BKN009 OVC014 FM211800 21010KT
                       P6SM OVC020 FM212100 21008KT P6SM SCT040
                       BKN150 FM220700 18008KT P6SM OVC020=
201806211130 TAF KSEA 211130Z 2112/2218 21010KT P6SM OVC009 FM211300 21010KT
                       P6SM OVC012 FM211900 21010KT P6SM OVC020
                       FM212100 21008KT P6SM SCT040 BKN150 FM220700
                       18008KT P6SM OVC020=
201806210759 KSEA 210759Z 2108/2212 21010KT P6SM OVC010 FM211600 18008KT P6SM
                       OVC015 FM211800 22007KT P6SM OVC025 FM212100
                       22007KT P6SM BKN035 FM220000 22007KT P6SM
                       SCT040 FM220500 18006KT P6SM OVC030=
201806210520 TAF KSEA 210520Z 2106/2212 23010KT P6SM SCT010 BKN250 FM210900
                       21010KT P6SM BKN010 FM211600 18008KT P6SM
                       OVC015 FM211800 22007KT P6SM OVC025 FM212100
                       22007KT P6SM BKN035 FM220000 22007KT P6SM
                       SCT040 FM220500 18006KT P6SM OVC030=
201806210058 KSEA 210058Z 2101/2206 VRB04KT P6SM FEW060 BKN150 BKN250 FM211100
                       21010KT P6SM BKN011 OVC020 FM212000 23013KT
                       P6SM OVC035 FM220000 24006KT P6SM SCT040
                       BKN200=
201806202328 TAF KSEA 202328Z 2100/2206 29006KT P6SM FEW060 BKN150 BKN250
                      TEMPO 2101/2104 -TSRA SCT060CB BKN150 BKN250
                       FM210400 24008KT P6SM VCSH BKN250 FM211100
                       21010KT P6SM BKN011 OVC020 FM212000 23013KT
                       P6SM OVC035 FM220000 24006KT P6SM SCT040
                       BKN200=
201806202101 KSEA 202101Z 2021/2124 28005KT P6SM FEW050 BKN180 BKN250
                      TEMPO 2023/2103 -TSRA BKN070CB FM210300 22007KT
                       P6SM VCSH BKN080 BKN120 FM211100 20009KT
                       P6SM BKN013=
201806201735 TAF KSEA 201735Z 2018/2124 29005KT P6SM SCT110 BKN200 FM202000
                       30006KT P6SM SCT080 BKN120 BKN200
                      TEMPO 2023/2103 -TSRA BKN070CB FM210300 22007KT
                       P6SM VCSH BKN080 BKN120 FM211100 20009KT
                       P6SM BKN013=
201806201505 KSEA 201505Z 2015/2118 VRB03KT P6SM BKN120 BKN200 FM201800 27006KT
                       P6SM SCT100 BKN200 FM202000 30006KT P6SM
                       SCT080 BKN120
                      TEMPO 2023/2103 -TSRA BKN070CB FM210300 22007KT
                       P6SM VCSH BKN080 BKN120 FM211100 20009KT
                       P6SM BKN013=
201806201122 TAF KSEA 201122Z 2012/2118 VRB03KT P6SM BKN120 BKN200 FM201800
                       27006KT P6SM SCT100 BKN200 FM202000 30006KT
                       P6SM SCT080 BKN120
                      PROB30 2023/2103 -TSRA BKN070CB FM210300
                       22007KT P6SM VCSH BKN080 BKN120 FM211100
                       20009KT P6SM BKN013=
201806200901 KSEA 200901Z 2009/2112 VRB03KT P6SM BKN150 FM201200 VRB02KT P6SM
                       BKN120 BKN200 FM201800 27006KT P6SM SCT100
                       BKN200 FM202000 30006KT P6SM SCT080 BKN120
                       PROB30 2023/2103 -TSRA BKN070CB FM210500
                       25007KT P6SM VCSH BKN080 BKN120 FM211000
                       21008KT P6SM BKN015=
201806200525 TAF KSEA 200525Z 2006/2112 33005KT P6SM SCT140 SCT250 FM201200
                       VRB02KT P6SM BKN120 BKN250 FM201800 24006KT
                       P6SM SCT060 BKN250 FM210900 22006KT P6SM
                       BKN020 OVC250=
201806200300 KSEA 200300Z 2003/2106 27003KT P6SM FEW060 SCT140 SCT250 FM201200
                       VRB02KT P6SM FEW005 BKN120 BKN250 FM201800
                       25006KT P6SM FEW060 FEW120 BKN250 FM210300
                       29006KT P6SM SCT120 BKN250=
201806192320 TAF KSEA 192320Z 2000/2106 25006KT P6SM FEW060 SCT250 FM200300
                       VRB04KT P6SM FEW120 SCT250 FM201200 VRB02KT
                       P6SM FEW005 BKN120 BKN250 FM201800 25006KT
                       P6SM FEW060 FEW120 BKN250 FM210300 29006KT
                       P6SM SCT120 BKN250=
201806192107 KSEA 192107Z 1921/2024 23008KT P6SM SCT120 SCT250 FM200000 27006KT
                       P6SM SCT120 SCT250 FM200300 VRB03KT P6SM
                       SCT250 FM201800 25006KT P6SM BKN250=
201806191738 TAF KSEA 191738Z 1918/2024 22006KT P6SM SCT120 FM200000 27006KT
                       P6SM SCT120 SCT250 FM200300 VRB03KT P6SM
                       SCT250 FM201800 25006KT P6SM BKN250=
201806191436 KSEA 191436Z 1915/2018 22006KT P6SM FEW006 FM191700 22005KT P6SM
                       SCT200 FM192000 25006KT P6SM FEW120 SCT200
                       FM200200 29005KT P6SM SCT120 SCT200 FM200600
                       21004KT P6SM FEW120 BKN200 FM201200 18006KT
                       P6SM BKN120 BKN200=
201806191136 TAF KSEA 191136Z 1912/2018 19007KT P6SM SCT007 SCT200
                      TEMPO 1912/1916 BKN006 FM191700 22005KT P6SM
                       SCT200 FM192000 25006KT P6SM FEW120 SCT200
                       FM200200 29005KT P6SM SCT120 SCT200 FM200600
                       21004KT P6SM FEW120 BKN200 FM201200 18006KT
                       P6SM BKN120 BKN200=
201806190859 KSEA 190859Z 1909/2012 21007KT P6SM FEW120 BKN250 FM191200 20005KT
                       P6SM SCT004 SCT250 FM191700 23005KT P6SM
                       SCT250 FM192000 25006KT P6SM FEW060 SCT250
                       FM200200 29005KT P6SM SCT060 BKN150 FM200600
                       VRB04KT P6SM SCT060 BKN150=
201806190600 TAF KSEA 190600Z 1906/2012 21007KT P6SM FEW120 BKN250 FM191200
                       20005KT P6SM SCT004 SCT250 FM191700 23005KT
                       P6SM SCT250 FM192000 25006KT P6SM FEW060
                       SCT250 FM200200 29005KT P6SM SCT060 BKN150
                       FM200600 VRB04KT P6SM SCT060 BKN150=
201806190303 KSEA 190303Z 1903/2006 24008KT P6SM FEW120 BKN250 FM190500 21006KT
                       P6SM FEW120 BKN250 FM191100 20005KT P6SM
                       SCT004 SCT250 FM191700 23005KT P6SM SCT250
                       FM192000 28006KT P6SM FEW060 SCT250 FM200300
                       31005KT P6SM SCT250=
201806182327 TAF KSEA 182327Z 1900/2006 23009KT P6SM FEW060 BKN250 FM190300
                       20005KT P6SM BKN250 FM191100 20005KT P6SM
                       SCT004 SCT250 FM191700 23005KT P6SM SCT250
                       FM192000 28006KT P6SM FEW060 SCT250 FM200300
                       31005KT P6SM SCT250=
201806182101 KSEA 182101Z 1821/1924 28007KT P6SM FEW060 BKN250 FM190300 20005KT
                       P6SM FEW100 BKN250 FM191100 20005KT P6SM
                       SCT004 SCT250 FM191700 23006KT P6SM SCT250
                       FM192100 28006KT P6SM FEW060 SCT250=
201806181749 TAF KSEA 181749Z 1818/1924 21006KT P6SM BKN250 FM182100 25008KT
                       P6SM FEW060 BKN250 FM190300 20005KT P6SM
                       FEW100 BKN250 FM191100 20005KT P6SM SCT004
                       SCT250 FM191700 23006KT P6SM SCT250 FM192100
                       28006KT P6SM FEW060 SCT250=
201806181504 KSEA 181504Z 1815/1918 20004KT P6SM FEW150 FM181800 25005KT P6SM
                       FEW150 SCT250 FM182300 29005KT P6SM SCT150
                       SCT250 FM190600 19005KT P6SM SCT250 FM191100
                       21005KT P6SM FEW004 SCT250 FM191700 22006KT
                       P6SM SCT250=
201806181134 TAF KSEA 181134Z 1812/1918 15006KT P6SM SCT150 FM181800 25005KT
                       P6SM FEW150 SCT250 FM182300 29005KT P6SM
                       SCT150 SCT250 FM190600 19005KT P6SM SCT250
                       FM191100 21005KT P6SM FEW004 SCT250 FM191700
                       22006KT P6SM SCT250=
201806180858 KSEA 180858Z 1809/1912 15004KT P6SM SCT150 FM181800 29008KT P6SM
                       FEW150 SCT250 FM190300 21005KT P6SM FEW150
                       SCT250 FM191100 19005KT P6SM SCT010 BKN120
                       BKN200=
201806180550 TAF KSEA 180550Z 1806/1912 01006KT P6SM SCT150 SCT250 FM180800
                       03005KT P6SM SCT150 SCT250 FM181800 29008KT
                       P6SM FEW150 SCT250 FM190300 21005KT P6SM
                       FEW150 SCT250 FM191100 19005KT P6SM SCT010
                       BKN120 BKN200=
201806180302 KSEA 180302Z 1803/1906 03007KT P6SM FEW070 SCT250 FM180700 03005KT
                       P6SM FEW250 FM181800 30008KT P6SM FEW060
                       SCT250 FM190300 21004KT P6SM SCT250=
201806172320 TAF KSEA 172320Z 1800/1906 35015KT P6SM FEW060 SCT250 FM180300
                       02007KT P6SM SCT250 FM180900 VRB03KT P6SM
                       SKC FM181800 29007KT P6SM FEW060 SCT250
                       FM190300 21004KT P6SM SCT250=
201806172059 KSEA 172059Z 1721/1824 35013KT P6SM FEW060 SCT250 FM180300 02007KT
                       P6SM SKC FM180900 VRB03KT P6SM SKC FM181800
                       29007KT P6SM SCT250=
201806171741 TAF KSEA 171741Z 1718/1824 34008KT P6SM FEW060 FM172000 34013KT
                       P6SM FEW060 FM180300 02007KT P6SM SKC FM180900
                       VRB03KT P6SM SKC FM181800 29007KT P6SM SCT250=
201806171502 KSEA 171502Z 1715/1818 29003KT P6SM FEW120 FM171700 36011KT P6SM
                       FEW250 FM172100 34015G22KT P6SM SCT250 FM180300
                       02006KT P6SM SCT250=
201806171136 TAF KSEA 171136Z 1712/1818 33006KT P6SM SKC FM171700 36011KT P6SM
                       FEW250 FM172100 34015G22KT P6SM SCT250 FM180300
                       02006KT P6SM SCT250=
201806170905 KSEA 170905Z 1709/1812 13007KT P6SM FEW100 FM171500 02005KT P6SM
                       FEW250 FM171800 36010KT P6SM FEW100 SCT200
                       FM172000 36014G22KT P6SM FEW100 SCT200 FM180300
                       02010KT P6SM SKC FM180600 03005KT P6SM SKC=
201806170556 TAF KSEA 170556Z 1706/1812 05008KT P6SM FEW060 SCT100 SCT150 FM170900
                       05006KT P6SM SCT100 SCT200 FM171800 36010KT
                       P6SM FEW100 SCT200 FM172000 36014G22KT P6SM
                       FEW100 SCT200 FM180300 02010KT P6SM SKC
                       FM180600 03005KT P6SM SKC=
201806170315 KSEA 170315Z 1703/1806 04008KT P6SM FEW060 SCT100 BKN150 FM170600
                       05006KT P6SM FEW060 SCT100 SCT150 FM171800
                       36015KT P6SM FEW250
                      TEMPO 1720/1724 36015G22KT FM180300 02010KT
                       P6SM SKC=
201806170005 KSEA 170005Z 1700/1806 03012KT P6SM FEW060 BKN250
                      TEMPO 1700/1703 36010KT FM170300 04008KT
                       P6SM FEW100 BKN250 FM170600 04008KT P6SM
                       SCT250 FM171800 36015KT P6SM FEW250
                      TEMPO 1720/1724 36015G22KT FM180300 02010KT
                       P6SM SKC=
201806162326 TAF KSEA 162326Z 1700/1806 03012KT P6SM FEW060 BKN250 FM170300
                       04008KT P6SM FEW100 BKN250 FM170600 04008KT
                       P6SM SCT250 FM171800 36015KT P6SM FEW250
                       TEMPO 1720/1724 36015G22KT FM180300 02010KT
                       P6SM SKC=
201806162305 KSEA 162305Z 1623/1724 03013KT P6SM FEW060 BKN250 FM170300 02012KT
                       P6SM FEW080 SCT250 FM170600 04008KT P6SM
                       SCT250 FM171800 36015KT P6SM SKC=
201806162212 KSEA 162212Z 1622/1724 35013KT P6SM SCT050 SCT250 FM170300 02012KT
                       P6SM FEW080 SCT250 FM170600 04008KT P6SM
                       SCT250 FM171800 36015KT P6SM SKC=
201806162108 KSEA 162108Z 1621/1724 02013KT P6SM SCT050 SCT250 FM170300 02012KT
                       P6SM FEW080 SCT250 FM170600 04008KT P6SM
                       SCT250 FM171800 36015KT P6SM SKC=
201806161907 KSEA 161907Z 1619/1724 02013KT P6SM BKN040 FM162100 35016KT P6SM
                       SCT050 SCT250
                      TEMPO 1621/1624 35013G23KT FM170300 02012KT
                       P6SM FEW080 SCT250 FM170600 04008KT P6SM
                       SCT250 FM171800 36015KT P6SM SKC=
201806161741 TAF KSEA 161741Z 1618/1724 01013KT P6SM SCT023 FM161900 35013KT
                       P6SM FEW030 FM162000 35016KT P6SM SCT050
                       SCT250
                      TEMPO 1620/1624 35013G23KT FM170300 02012KT
                       P6SM FEW080 SCT250 FM170600 04008KT P6SM
                       SCT250 FM171800 36015KT P6SM SKC=
201806161608 KSEA 161608Z 1616/1718 36013KT P6SM OVC020 FM161800 35014KT P6SM
                       SCT030 FM162100 35014KT P6SM SCT150 FM170600
                       04007KT P6SM SKC=
201806161518 KSEA 161518Z 1615/1718 35013KT P6SM OVC020 FM161800 35014KT P6SM
                       SCT030 FM162100 35014KT P6SM SCT150 FM170600
                       04007KT P6SM SKC=
201806161138 TAF KSEA 161138Z 1612/1718 34005KT P6SM SCT035 BKN050 FM161400
                       01008KT P6SM SCT018 BKN030 FM161800 36012KT
                       P6SM SCT030 FM162100 36014KT P6SM SCT150
                       FM170600 04007KT P6SM SKC=
201806160913 KSEA 160913Z 1609/1712 VRB04KT P6SM SCT080 FM161000 01006KT P6SM
                       BKN080 FM161300 01010KT P6SM BKN080 FM161800
                       36014KT P6SM SCT060 SCT120 FM170300 02009KT
                       P6SM SCT060 SCT100 FM170600 05005KT P6SM
                       SCT100=
201806160549 TAF KSEA 160549Z 1606/1712 01006KT P6SM SCT080 FM160900 03005KT
                       P6SM FEW030 SCT080 FM161300 02008KT P6SM
                       SCT030 BKN080 FM161800 36014KT P6SM SCT060
                       SCT120 FM170300 02009KT P6SM SCT060 SCT100
                       FM170600 05005KT P6SM SCT100=
201806160211 KSEA 160211Z 1602/1706 29007KT P6SM FEW040 SCT070 FM160500 33006KT
                       P6SM FEW030 SCT070 FM160800 03005KT P6SM
                       SCT030 SCT070 FM161400 02009KT P6SM SCT022
                       SCT070 SCT250 FM161800 36014KT P6SM FEW040
                       SCT250 FM170300 02009KT P6SM SCT250=
201806152341 TAF KSEA 152341Z 1600/1706 33012KT P6SM SCT060 FM160300 36007KT
                       P6SM SCT070 FM160600 03005KT P6SM BKN070
                       FM161400 02009KT P6SM SCT022 SCT070 SCT250
                       FM161800 36014KT P6SM FEW040 SCT250 FM170300
                       02009KT P6SM SCT250=
201806152214 KSEA 152214Z 1522/1624 33012KT P6SM SCT050 FM160300 35007KT P6SM
                       SCT070 FM160600 03005KT P6SM BKN070 FM161400
                       02009KT P6SM SCT022 SCT070 SCT250 FM161800
                       36014KT P6SM FEW040 SCT250=
201806152121 KSEA 152121Z 1521/1624 30009KT P6SM SCT035 SCT050 FM160300 35007KT
                       P6SM SCT070 FM160600 03005KT P6SM BKN070
                       FM161400 02009KT P6SM SCT022 SCT070 SCT250
                       FM161800 36014KT P6SM FEW040 SCT250=
201806151740 TAF KSEA 151740Z 1518/1624 32007KT P6SM SCT018 BKN035 BKN050 FM152000
                       32010KT P6SM SCT035 SCT050 FM160300 35007KT
                       P6SM SCT070 FM160600 03005KT P6SM BKN070
                       FM161400 02009KT P6SM SCT022 SCT070 SCT250
                       FM161800 36014KT P6SM FEW040 SCT250=
201806151717 KSEA 151717Z 1517/1618 32007KT P6SM SCT018 BKN035 BKN050
                      TEMPO 1517/1519 BKN018 BKN035 BKN050 FM152000
                       32010KT P6SM SCT035 SCT050 FM160600 03006KT
                       P6SM SCT060 FM161300 01008KT P6SM SCT018
                       BKN025=
201806151441 KSEA 151441Z 1515/1618 36005KT P6SM SCT013 BKN035 BKN050 FM151800
                       31006KT P6SM SCT035 SCT050 FM152000 33007KT
                       P6SM SKC FM160600 03006KT P6SM SCT060 FM161300
                       01008KT P6SM SCT018 BKN025=
201806151130 TAF KSEA 151130Z 1512/1618 03006KT P6SM SCT060 FM151400 02005KT
                       P6SM SCT018 BKN030 FM151700 31006KT P6SM
                       SCT025 BKN040 FM152000 33007KT P6SM SKC
                       FM160600 03006KT P6SM SCT060 FM161300 01008KT
                       P6SM SCT018 BKN025=
201806150902 KSEA 150902Z 1509/1612 03008KT P6SM SCT070 FM151300 01005KT P6SM
                       SCT018 BKN025 FM151800 31007KT P6SM SCT030
                       BKN045 FM160000 33006KT P6SM SCT050 FM160600
                       02006KT P6SM SCT050=
201806150530 TAF KSEA 150530Z 1506/1612 29004KT P6SM FEW080 FM151300 01005KT
                       P6SM SCT018 BKN025 FM151800 31007KT P6SM
                       SCT030 BKN045 FM160000 33006KT P6SM SCT045
                       BKN250=
201806142322 TAF KSEA 142322Z 1500/1606 29006KT P6SM SCT040 BKN070 FM150300
                       01004KT P6SM SCT035 BKN060 FM151300 01005KT
                       P6SM SCT018 BKN025 FM151800 31007KT P6SM
                       SCT030 BKN045=
201806142101 KSEA 142101Z 1421/1524 27005KT P6SM FEW025 BKN040 BKN070 FM150100
                       35006KT P6SM SCT040 BKN070 FM151300 01005KT
                       P6SM SCT018 BKN025 FM151800 31007KT P6SM
                       SCT030 BKN045=
201806141731 TAF KSEA 141731Z 1418/1524 19004KT P6SM SCT020 BKN030 BKN070 FM141900
                       23006KT P6SM SCT030 BKN050 BKN070 FM150100
                       35006KT P6SM SCT040 BKN050 FM151300 01005KT
                       P6SM SCT018 BKN025 FM151800 31007KT P6SM
                       SCT030 BKN045=
201806141500 KSEA 141500Z 1415/1518 14006KT P6SM SCT015 BKN025 OVC070 FM141700
                       21006KT P6SM SCT025 BKN035 BKN070 FM141900
                       23006KT P6SM SCT030 BKN050 BKN070 FM150100
                       35006KT P6SM SCT040 BKN050 FM151300 01005KT
                       P6SM SCT018 BKN025=
201806141133 TAF KSEA 141133Z 1412/1518 19005KT P6SM SCT018 BKN025 OVC035
                      TEMPO 1413/1417 BKN018 OVC025 FM141700 21006KT
                       P6SM SCT025 BKN035 FM141900 22006KT P6SM
                       SCT030 BKN040 FM142100 24005KT P6SM SCT035
                       BKN050 FM150100 35006KT P6SM SCT040 BKN050
                       FM151300 01005KT P6SM SCT018 BKN025=
201806140908 KSEA 140908Z 1409/1512 20005KT P6SM VCSH SCT018 BKN025 OVC050
                      TEMPO 1409/1413 BKN018 OVC025 FM141300 18006KT
                       P6SM OVC016 FM141700 21006KT P6SM SCT025
                       BKN050 FM142100 25005KT P6SM SCT035 BKN050
                       FM150100 33006KT P6SM SCT040 BKN050=
201806140537 TAF KSEA 140537Z 1406/1512 23008KT P6SM VCSH BKN026
                      TEMPO 1406/1410 SCT028 BKN080 FM141200 18006KT
                       P6SM OVC016 FM141700 21006KT P6SM SCT025
                       BKN050 FM142100 VRB05KT P6SM OVC050=
201806140336 KSEA 140336Z 1404/1506 08003KT P6SM VCSH BKN028 BKN080
                      TEMPO 1404/1407 SCT028 BKN080 FM140900 18006KT
                       P6SM BKN020 FM141700 21006KT P6SM SCT025
                       BKN050=
201806132320 TAF KSEA 132320Z 1400/1506 24012KT P6SM VCSH BKN050
                      TEMPO 1400/1404 VRB04KT -SHRA FM140900 18006KT
                       P6SM BKN020 FM141700 21006KT P6SM SCT025
                       BKN050=
201806132102 KSEA 132102Z 1321/1424 22014G22KT P6SM SCT040 FM132200 24008KT
                       P6SM -SHRA BKN040
                      TEMPO 1400/1404 VRB04KT FM140900 18006KT
                       P6SM BKN020 FM141700 21006KT P6SM SCT025
                       BKN050=
201806131720 TAF KSEA 131720Z 1318/1424 22014G22KT P6SM VCSH BKN040 FM132200
                       24010KT P6SM VCSH BKN040
                      TEMPO 1400/1404 VRB06KT -SHRA BKN030 FM140900
                       18006KT P6SM BKN020 FM141700 21006KT P6SM
                       SCT025 BKN050=
201806131329 KSEA 131329Z 1313/1418 18008KT P6SM -RA OVC030
                      TEMPO 1313/1316 5SM -RA BR SCT012 BKN025
                       OVC040 FM131600 18010KT P6SM -SHRA BKN027
                       BKN045 FM131800 22012KT P6SM VCSH BKN035
                       BKN060
                      TEMPO 1400/1404 VRB06KT -SHRA BKN030 FM140900
                       19007KT P6SM OVC015=
201806131128 TAF KSEA 131128Z 1312/1418 18008KT P6SM -RA OVC045
                      TEMPO 1312/1315 -RA BKN027 OVC040 FM131500
                       18010KT P6SM -RA OVC025 FM131800 22012KT
                       P6SM VCSH BKN035 BKN060
                      TEMPO 1400/1404 VRB06KT -SHRA BKN030 FM140900
                       19007KT P6SM OVC015=
201806130901 KSEA 130901Z 1309/1412 19005KT P6SM BKN080 OVC120 FM131100 18008KT
                       P6SM -RA OVC045 FM131300 18010KT P6SM -RA
                       OVC025 FM131800 22012KT P6SM VCSH BKN035
                       BKN060 FM140900 19007KT P6SM OVC015=
201806130520 TAF KSEA 130520Z 1306/1412 22005KT P6SM BKN080 OVC120 FM131000
                       18008KT P6SM -RA OVC045 FM131300 18010KT
                       P6SM -RA OVC025 FM131800 22012KT P6SM VCSH
                       BKN035 BKN060 FM140900 19007KT P6SM OVC015=
201806122324 TAF KSEA 122324Z 1300/1406 33006KT P6SM OVC140 FM130400 24006KT
                       P6SM OVC080 FM130700 18006KT P6SM OVC050
                       FM131100 18010KT P6SM -RA OVC025 FM131600
                       19012KT P6SM VCSH BKN025 OVC050 FM132000
                       22012KT P6SM VCSH SCT030 BKN050=
201806122122 KSEA 122122Z 1221/1324 32010KT P6SM BKN130 OVC200 FM130400 24006KT
                       P6SM OVC080 FM130700 18006KT P6SM OVC050
                       FM131100 18010KT P6SM -RA OVC025 FM131600
                       19012KT P6SM VCSH BKN025 OVC050=
201806121732 TAF KSEA 121732Z 1218/1324 36006KT P6SM FEW150 BKN230 FM130000
                       24006KT P6SM OVC150 FM130700 18006KT P6SM
                       OVC050 FM131100 18010KT P6SM -RA OVC025
                       FM131600 19012KT P6SM VCSH BKN025 OVC050=
201806121513 KSEA 121513Z 1215/1318 34003KT P6SM BKN250 FM121800 33006KT P6SM
                       SCT250 FM130000 24006KT P6SM OVC150 FM130700
                       18006KT P6SM -RA OVC060 FM131100 18010KT
                       P6SM -RA OVC030=
201806121142 TAF KSEA 121142Z 1212/1318 01006KT P6SM SKC FM121800 33006KT P6SM
                       SCT250 FM130000 24006KT P6SM OVC200 FM130700
                       18006KT P6SM -RA OVC060 FM131100 18010KT
                       P6SM -RA OVC030=
201806120901 KSEA 120901Z 1209/1312 03006KT P6SM SKC FM121800 33006KT P6SM SCT250
                       FM130000 24006KT P6SM OVC250 FM130700 18006KT
                       P6SM -RA OVC060=
201806120530 TAF KSEA 120530Z 1206/1312 03006KT P6SM FEW050 FM121800 33006KT
                       P6SM SCT250 FM130000 24006KT P6SM OVC250
                       FM130700 18006KT P6SM -RA OVC060=
201806112320 TAF KSEA 112320Z 1200/1306 30007KT P6SM SCT050 FM120300 33005KT
                       P6SM SKC FM120600 02004KT P6SM SKC FM120900
                       04005KT P6SM SCT250 FM121900 33005KT P6SM
                       BKN250=
201806112051 KSEA 112051Z 1121/1224 00000KT P6SM SCT030 SCT050 FM112300 33005KT
                       P6SM SCT050 FM120400 03005KT P6SM SKC=
201806111725 TAF KSEA 111725Z 1118/1224 00000KT P6SM SCT015 BKN035 FM111900
                       27005KT P6SM SCT035
                      TEMPO 1119/1121 BKN035 FM112100 31006KT P6SM
                       SCT050 FM120400 03005KT P6SM SKC=
201806111455 KSEA 111455Z 1115/1218 21003KT P6SM SCT008 BKN011
                      TEMPO 1115/1116 BKN008 FM111600 21005KT P6SM
                       SCT015 BKN030 FM111900 27005KT P6SM SCT035
                       FM112200 31006KT P6SM SCT050 FM120400 02008KT
                       P6SM SKC=
201806111130 TAF KSEA 111130Z 1112/1218 16004KT P6SM SCT015 BKN025
                      TEMPO 1112/1116 BKN009 FM111600 21005KT P6SM
                       SCT020 BKN030 FM111900 27005KT P6SM SCT035
                       FM112200 31006KT P6SM SCT050 FM120400 02008KT
                       P6SM SKC=
201806110901 KSEA 110901Z 1109/1212 16004KT P6SM SCT020 BKN045
                      TEMPO 1109/1113 BKN015 FM111300 16004KT P6SM
                       SCT012 BKN018 FM111700 24005KT P6SM SCT020
                       BKN030 FM111900 27005KT P6SM SCT035 FM112200
                       32006KT P6SM SCT050 FM120400 02008KT P6SM
                       SKC=
201806110538 TAF KSEA 110538Z 1106/1212 16004KT P6SM SCT020 BKN040 OVC060
                      TEMPO 1106/1107 -SHRA FM111300 16004KT P6SM
                       SCT012 BKN018 FM111700 24005KT P6SM SCT020
                       BKN030 FM111900 27005KT P6SM SCT035 FM112200
                       32006KT P6SM SCT050 FM120400 02008KT P6SM
                       SKC=
201806110307 KSEA 110307Z 1103/1206 22003KT P6SM -SHRA SCT025 BKN040 OVC060
                       FM110600 18004KT P6SM SCT020 BKN035 FM111300
                       16004KT P6SM SCT012 BKN018 FM111700 23005KT
                       P6SM SCT020 BKN030 FM111900 26005KT P6SM
                       SCT035 FM112200 32006KT P6SM SCT050 FM120400
                       01006KT P6SM SKC=
201806102320 TAF KSEA 102320Z 1100/1206 21010KT P6SM SCT030 BKN060
                      TEMPO 1100/1103 -SHRA BKN030 OVC060 FM110300
                       VRB04KT P6SM -SHRA BKN030 OVC060 FM111000
                       VRB04KT P6SM BKN018 FM111700 24005KT P6SM
                       SCT025 BKN050 FM112200 32006KT P6SM SCT050=
201806102115 KSEA 102115Z 1021/1124 25015G25KT P6SM -SHRA BKN040 FM102200 25012KT
                       P6SM VCSH BKN040 FM111100 VRB04KT P6SM BKN020
                       FM111700 24005KT P6SM SCT025 BKN050 FM112200
                       32006KT P6SM SCT050=
201806101720 TAF KSEA 101720Z 1018/1124 22012KT P6SM VCSH BKN060
                      TEMPO 1018/1022 -SHRA BKN040 FM102200 22010KT
                       P6SM -SHRA BKN040 FM110400 VRB04KT P6SM
                       VCSH BKN030 FM111100 VRB04KT P6SM BKN020
                       FM111700 24005KT P6SM SCT025 BKN050 FM112200
                       32006KT P6SM SCT050=
201806101504 KSEA 101504Z 1015/1118 20014KT P6SM SCT035
                      TEMPO 1017/1021 -SHRA BKN035 FM102100 22010KT
                       P6SM -SHRA BKN040 FM110400 VRB04KT P6SM
                       VCSH BKN030 FM111100 VRB04KT P6SM BKN020
                       FM111700 24005KT P6SM SCT025 BKN050=
201806101139 TAF KSEA 101139Z 1012/1118 19009KT P6SM VCSH SCT040 SCT080
                      TEMPO 1012/1016 BKN035 FM101600 19011KT P6SM
                       VCSH BKN035 BKN060 FM102100 22007KT P6SM
                       -SHRA SCT035 BKN045 FM110700 18004KT P6SM
                       SCT018 BKN030 FM111100 VRB04KT P6SM OVC020
                       FM111700 24005KT P6SM SCT025 BKN050=
201806100901 KSEA 100901Z 1009/1112 19009KT P6SM SCT040 SCT080
                      TEMPO 1010/1014 BKN035 FM101400 19009KT P6SM
                       VCSH BKN035 FM101900 20010KT P6SM VCSH SCT025
                       BKN040 FM102300 22007KT P6SM -SHRA SCT035
                       BKN045 FM110700 18004KT P6SM SCT018 BKN030=
201806100536 TAF KSEA 100536Z 1006/1112 22005KT P6SM VCSH SCT035 BKN045 BKN060
                       FM101000 19006KT P6SM VCSH BKN025 FM101900
                       20010KT P6SM VCSH SCT025 BKN040 FM102300
                       22007KT P6SM -SHRA SCT035 BKN045 FM110700
                       18004KT P6SM SCT018 BKN030=
201806100309 KSEA 100309Z 1003/1106 14006KT P6SM VCSH SCT035 BKN045 BKN060 FM101000
                       18006KT P6SM BKN025 FM101800 21010KT P6SM
                       -SHRA BKN035 FM102300 32008KT P6SM VCSH
                       BKN050=
201806100039 KSEA 100039Z 1001/1106 23005KT P6SM VCSH SCT040 BKN060
                      TEMPO 1001/1004 02006KT -SHRA BKN040 BKN060
                       FM100900 18006KT P6SM BKN020 FM101800 21010KT
                       P6SM -SHRA BKN035 FM102300 32008KT P6SM
                       VCSH BKN050=
201806092320 TAF KSEA 092320Z 1000/1106 VRB04KT P6SM BKN050
                      TEMPO 1000/1004 -SHRA BKN035 FM100900 18006KT
                       P6SM BKN020 FM101800 21010KT P6SM -SHRA
                       BKN035 FM102300 32008KT P6SM VCSH BKN050=
201806092103 KSEA 092103Z 0921/1024 30007KT P6SM -SHRA BKN030 FM100000 VRB04KT
                       P6SM VCSH SCT025 BKN040 FM101000 18006KT
                       P6SM BKN015 OVC025 FM101600 18008KT P6SM
                       -SHRA BKN018 OVC030=
201806091720 TAF KSEA 091720Z 0918/1024 23007KT P6SM VCSH SCT020 BKN040
                      TEMPO 0918/0921 BKN020 OVC040 FM092100 30007KT
                       P6SM -SHRA BKN025 BKN050 FM100300 VRB04KT
                       P6SM VCSH SCT025 BKN040 FM101000 18006KT
                       P6SM BKN015 OVC025 FM101600 18008KT P6SM
                       -SHRA BKN018 OVC030=
201806091505 KSEA 091505Z 0915/1018 24005KT P6SM BKN012 BKN040 FM091800 VRB04KT
                       P6SM VCSH SCT020 BKN040 FM092200 VRB04KT
                       P6SM -SHRA BKN030 FM100400 16005KT P6SM
                       VCSH SCT025 BKN040 FM100900 20010KT P6SM
                       BKN022 OVC030=
201806091120 TAF KSEA 091120Z 0912/1018 22008KT P6SM VCSH SCT015 BKN030 OVC050
                       TEMPO 0912/0916 BKN015 FM092000 23007KT
                       P6SM VCSH SCT030 BKN040 FM092300 33006KT
                       P6SM -SHRA BKN030 OVC040 FM100400 16005KT
                       P6SM VCSH SCT025 BKN040 FM100900 20010KT
                       P6SM BKN022 OVC030=
201806090902 KSEA 090902Z 0909/1012 19007KT P6SM VCSH BKN015 BKN035 OVC045 FM091800
                       21008KT P6SM VCSH SCT018 BKN030 FM092000
                       23007KT P6SM VCSH SCT030 BKN040 FM092300
                       33006KT P6SM -SHRA BKN030 OVC040 FM100400
                       16005KT P6SM VCSH SCT025 BKN040 FM100700
                       20010KT P6SM SCT018 BKN030 OVC050=
201806090538 TAF KSEA 090538Z 0906/1012 23005KT P6SM -RA SCT008 BKN014 OVC020
                       TEMPO 0906/0907 6SM -RA BR BKN008 OVC014
                       FM091000 20007KT P6SM VCSH BKN012 BKN020
                       FM091800 21008KT P6SM VCSH SCT018 BKN030
                       FM092000 23007KT P6SM VCSH SCT030 BKN040
                       FM092300 33006KT P6SM -SHRA BKN030 OVC040
                       FM100400 16005KT P6SM VCSH SCT025 BKN040
                       FM100700 20010KT P6SM SCT018 BKN030 OVC050=
201806090315 KSEA 090315Z 0903/1006 20004KT P6SM -SHRA SCT006 BKN035 FM090600
                       23005KT 6SM -RA BR SCT005 BKN012 OVC020
                       FM091200 20007KT P6SM VCSH BKN012 BKN020
                       FM091800 21008KT P6SM VCSH SCT018 BKN030
                       FM092000 23007KT P6SM VCSH SCT030 BKN040
                       FM092300 33006KT P6SM -SHRA BKN030 OVC040
                       FM100400 16005KT P6SM VCSH SCT025 BKN040=
201806082320 TAF KSEA 082320Z 0900/1006 23006KT P6SM -RA SCT015 OVC040
                      TEMPO 0900/0904 4SM -RA BR BKN012 OVC040
                       FM090400 VRB03KT 4SM -RA BR BKN012 OVC030
                       TEMPO 0905/0909 2SM -RA BR OVC010 FM091200
                       20007KT P6SM -SHRA BKN012 BKN030 FM092000
                       30007KT P6SM VCSH SCT020 BKN040=
201806082040 KSEA 082040Z 0821/0924 25008KT P6SM -RA SCT025 OVC040 FM090000
                       23007KT 6SM -RA BR SCT012 BKN018 OVC035
                       FM090200 20005KT P6SM -SHRA SCT015 BKN025
                       OVC050 FM090700 20005KT P6SM -SHRA SCT015
                       BKN025 OVC050 FM091000 19006KT P6SM -SHRA
                       BKN015 OVC040 FM091800 18009KT P6SM -SHRA
                       VCTS SCT025CB OVC040=
201806081721 TAF KSEA 081721Z 0818/0924 20010KT P6SM BKN040 BKN120 FM082100
                       22011G19KT P6SM -RA SCT025 OVC040 FM082300
                       23007KT 6SM -RA BR SCT012 BKN018 OVC035
                       FM090200 20005KT P6SM -SHRA SCT015 BKN025
                       OVC050 FM090700 20005KT P6SM -SHRA SCT015
                       BKN025 OVC050 FM091000 19006KT P6SM -SHRA
                       BKN015 OVC040 FM091800 18009KT P6SM -SHRA
                       VCTS SCT025CB OVC040=
201806081544 KSEA 081544Z 0816/0918 18009KT P6SM BKN040 BKN120 FM082100 22011G19KT
                       P6SM -RA SCT025 OVC040 FM082300 23007KT
                       6SM -RA BR SCT012 BKN018 OVC035 FM090200
                       20005KT P6SM -SHRA SCT015 BKN025 OVC050=
201806081215 TAF KSEA 081215Z 0812/0918 16006KT P6SM BKN035 OVC045 FM081600
                       18009KT P6SM SCT040 BKN120 FM082100 22011G19KT
                       P6SM -RA SCT025 OVC040 FM082300 23007KT
                       6SM -RA BR SCT012 BKN018 OVC035 FM090200
                       20005KT P6SM -SHRA SCT015 BKN025 OVC050=
201806080905 KSEA 080905Z 0809/0912 20007KT P6SM OVC040 FM081600 18009KT P6SM
                       SCT040 BKN120 FM082100 22011G19KT P6SM -RA
                       SCT025 OVC040 FM082300 23007KT 6SM -RA BR
                       SCT012 BKN018 OVC035 FM090200 20005KT P6SM
                       -SHRA SCT015 BKN025 OVC050=
201806080539 TAF KSEA 080539Z 0806/0912 20007KT P6SM SCT045 BKN100 FM081000
                       18007KT P6SM SCT025 BKN040 OVC090 FM081600
                       18009KT P6SM SCT035 BKN120 FM082100 22011G19KT
                       P6SM -RA SCT025 OVC040 FM082300 23007KT
                       6SM -RA BR SCT012 BKN018 OVC035 FM090200
                       20005KT P6SM -SHRA SCT015 BKN025 OVC050=
201806080300 KSEA 080300Z 0803/0906 23008KT P6SM SCT045 BKN200 FM080600 18008KT
                       P6SM BKN030 OVC050 FM081200 18008KT P6SM
                       OVC020 FM081800 21010KT P6SM BKN030 OVC050
                       FM082200 21010KT P6SM -RA OVC030 FM090200
                       21006KT 5SM -RA BR OVC020=
201806072320 TAF KSEA 072320Z 0800/0906 23008KT P6SM SCT030 BKN050 OVC200 FM080600
                       18008KT P6SM BKN030 OVC050 FM081200 18008KT
                       P6SM OVC020 FM081800 21010KT P6SM BKN030
                       OVC050 FM082200 21010KT P6SM -RA OVC030
                       FM090200 21006KT 5SM -RA BR OVC020=
201806071720 TAF KSEA 071720Z 0718/0824 21010KT P6SM SCT025 BKN040 BKN200
                      TEMPO 0718/0721 BKN025 OVC040 FM081000 18008KT
                       P6SM OVC020 FM082000 21010KT P6SM -RA BKN025
                       OVC040=
201806071505 KSEA 071505Z 0715/0818 18008KT P6SM OVC025 FM071800 20008KT P6SM
                       BKN035 BKN200 FM072000 22007KT P6SM BKN040
                       BKN200
                      TEMPO 0722/0802 SCT040 BKN200 FM080400 20007KT
                       P6SM OVC040 FM081000 18008KT P6SM OVC025=
201806071130 TAF KSEA 071130Z 0712/0818 20008KT P6SM BKN030
                      TEMPO 0712/0713 SCT030 FM071300 20009KT P6SM
                       OVC030 FM071800 22010KT P6SM SCT030 BKN250
                       FM080400 21006KT P6SM OVC100 FM081200 17006KT
                       P6SM OVC050=
201806070906 KSEA 070906Z 0709/0812 22009KT P6SM BKN220 FM071200 19007KT P6SM
                       SCT015
                      TEMPO 0712/0716 BKN015 FM071700 23008KT P6SM
                       SCT030 FM080400 22005KT P6SM BKN040=
201806070520 TAF KSEA 070520Z 0706/0812 VRB04KT P6SM BKN250 FM071200 19007KT
                       P6SM BKN015 FM071700 23008KT P6SM SCT030
                       FM080400 22005KT P6SM BKN040=
201806070301 KSEA 070301Z 0703/0806 VRB04KT P6SM BKN250
                      TEMPO 0703/0706 34007KT FM071200 19007KT
                       P6SM BKN015 FM071700 23008KT P6SM SCT030
                       FM080400 20005KT P6SM BKN040=
201806062324 TAF KSEA 062324Z 0700/0806 VRB04KT P6SM BKN250
                      TEMPO 0702/0706 34007KT FM071200 18007KT
                       P6SM BKN015 FM071700 22007KT P6SM SCT030
                       FM080400 20008KT P6SM BKN040=
201806062103 KSEA 062103Z 0621/0724 30005KT P6SM BKN250 FM070000 33007KT P6SM
                       SCT040 SCT250 FM070800 VRB03KT P6SM SCT030
                       FM071200 18007KT P6SM BKN015 FM071700 22007KT
                       P6SM SCT030=
201806061720 TAF KSEA 061720Z 0618/0724 VRB04KT P6SM FEW040 SCT250 FM062200
                       32007KT P6SM SCT040 SCT250 FM070800 VRB03KT
                       P6SM SCT030 SCT250 FM071200 18007KT P6SM
                       BKN015 FM071700 VRB04KT P6SM SCT030=
201806061503 KSEA 061503Z 0615/0718 VRB04KT P6SM BKN250 FM062200 32007KT P6SM
                       BKN250 FM070800 VRB03KT P6SM SCT030 SCT250
                       FM071200 18007KT P6SM BKN020=
201806061125 TAF KSEA 061125Z 0612/0718 15006KT P6SM SKC FM061800 23007KT P6SM
                       SCT250 FM070200 30004KT P6SM SCT250 FM070900
                       20005KT P6SM BKN250=
201806060905 KSEA 060905Z 0609/0712 14007KT P6SM SKC
                      TEMPO 0612/0616 SCT012 FM061800 23008KT P6SM
                       FEW050 SCT100 SCT250 FM070000 27005KT P6SM
                       SCT250 FM070400 31004KT P6SM SCT250=
201806060523 TAF KSEA 060523Z 0606/0712 23008KT P6SM FEW060 SCT100 FM060900
                       16004KT P6SM SCT020 SCT050 BKN090 FM061800
                       23008KT P6SM FEW050 SCT100 SCT250 FM070000
                       27005KT P6SM SCT250 FM070400 31004KT P6SM
                       SCT250=
201806060304 KSEA 060304Z 0603/0706 23008KT P6SM FEW060 SCT090 FM060900 16004KT
                       P6SM SCT020 SCT050 BKN090 FM061800 23008KT
                       P6SM FEW050 SCT100 FM070000 27005KT P6SM
                       SCT250=
201806052328 TAF KSEA 052328Z 0600/0706 23013G17KT P6SM FEW040 BKN070 FM060300
                       23008KT P6SM BKN070 FM060600 VRB04KT P6SM
                       SCT020 SCT050 BKN070 FM061800 23008KT P6SM
                       FEW050 SCT100 FM070000 30005KT P6SM BKN200=
201806051720 TAF KSEA 051720Z 0518/0624 22009KT P6SM SCT040 BKN120 FM060000
                       23006KT P6SM SCT040 OVC120 FM060800 VRB04KT
                       P6SM SCT020 SCT050 BKN120 FM061800 23008KT
                       P6SM FEW050 SCT100=
201806051511 KSEA 051511Z 0515/0618 18005KT P6SM FEW050 BKN120 BKN200 FM051800
                       22010KT P6SM SCT050 BKN150 FM060000 23006KT
                       P6SM SCT040 BKN100=
201806051213 TAF KSEA 051213Z 0512/0618 22003KT P6SM FEW050 BKN180 FM051800
                       22010KT P6SM SCT050 BKN150 FM060000 23006KT
                       P6SM SCT040 BKN100=
201806050903 KSEA 050903Z 0509/0612 00000KT P6SM OVC200 FM051800 22010KT P6SM
                       SCT050 BKN150 FM060000 23006KT P6SM SCT040
                       BKN100=
201806050520 TAF KSEA 050520Z 0506/0612 33006KT P6SM SCT050 SCT250 FM050900
                       19006KT P6SM BKN050 BKN200 FM051800 22010KT
                       P6SM SCT050 BKN150 FM060000 23006KT P6SM
                       SCT040 BKN100=
201806050308 KSEA 050308Z 0503/0606 27006KT P6SM FEW050 SCT250 FM050900 19006KT
                       P6SM BKN050 BKN200 FM051800 22010KT P6SM
                       SCT050 BKN150 FM060000 23006KT P6SM SCT040
                       BKN100=
201806042320 TAF KSEA 042320Z 0500/0606 35008KT P6SM SCT035 BKN070 BKN250 FM050200
                       01006KT P6SM SCT070 BKN250 FM050900 18004KT
                       P6SM BKN050 BKN150 FM051800 20008KT P6SM
                       SCT050 BKN120=
201806042103 KSEA 042103Z 0421/0524 35008KT P6SM SCT035 BKN070 BKN250 FM050100
                       01006KT P6SM SCT070 BKN250 FM050900 18004KT
                       P6SM BKN050=
201806041735 TAF KSEA 041735Z 0418/0524 22007KT P6SM FEW010 BKN015 BKN045
                      TEMPO 0418/0420 5SM -DZ BR SCT008 OVC015
                       FM042100 24010KT P6SM SCT025 SCT050 BKN250
                       FM050100 32008KT P6SM FEW030 SCT050 BKN250
                       FM051200 18006KT P6SM BKN050=
201806041507 KSEA 041507Z 0415/0518 18005KT P6SM FEW006 BKN017 OVC040
                      TEMPO 0415/0417 5SM -DZ BR SCT006 OVC015
                       FM041800 22009KT P6SM SCT020 BKN045 FM042100
                       24011KT P6SM SCT050 BKN250 FM050100 32008KT
                       P6SM SCT050 BKN250 FM051200 18006KT P6SM
                       OVC100=
201806041138 TAF KSEA 041138Z 0412/0518 22005KT P6SM BKN015 OVC040 FM041800
                       22009KT P6SM SCT020 BKN045 FM042100 24011KT
                       P6SM SCT050 BKN250 FM050100 32008KT P6SM
                       SCT050 BKN250 FM051200 18006KT P6SM OVC100=
201806040905 KSEA 040905Z 0409/0512 26004KT P6SM BKN021 OVC045 FM041000 20009KT
                       P6SM OVC021 FM041600 20007KT P6SM SCT020
                       BKN040 FM041900 23010KT P6SM SCT040 BKN060
                       FM050000 29010KT P6SM SCT060 BKN100 FM050400
                       33005KT P6SM SCT030 BKN060=
201806040520 TAF KSEA 040520Z 0406/0512 03005KT P6SM SCT020 OVC035 FM041600
                       20007KT P6SM SCT020 BKN040 FM041900 23010KT
                       P6SM SCT040 BKN060 FM050000 29010KT P6SM
                       SCT060 BKN100 FM050400 33005KT P6SM SCT030
                       BKN060=
201806040306 KSEA 040306Z 0403/0506 29006KT P6SM SCT025 OVC050 FM040600 03005KT
                       P6SM SCT018 BKN050 FM041600 20007KT P6SM
                       SCT020 BKN040 FM041900 23010KT P6SM SCT040
                       BKN060 FM050000 29010KT P6SM SCT060 BKN100=
201806032321 TAF KSEA 032321Z 0400/0506 29006KT P6SM -RA SCT015 BKN025 OVC050
                       FM040200 29006KT P6SM VCSH SCT030 OVC050
                       FM040600 03005KT P6SM SCT018 BKN050 FM041600
                       22009KT P6SM SCT020 BKN040 FM041900 20007KT
                       P6SM SCT040 BKN060=
201806032320 TAF KSEA 032320Z 0400/0506 29006KT P6SM -RA SCT015 BKN025 OVC050
                       FM040200 29006KT P6SM VCSH SCT030 OVC050
                       FM040600 03005KT P6SM SCT018 BKN050 FM041600
                       22009KT P6SM SCT020 BKN040 FM041900 20007KT
                       P6SM SCT040 BKN060=
201806032111 KSEA 032111Z 0321/0424 24008KT P6SM SCT030 OVC060 FM032200 26008KT
                       P6SM -RA BKN030 OVC050 FM040200 29008KT
                       P6SM VCSH SCT030 OVC050 FM041000 24006KT
                       P6SM OVC018 FM041600 22009KT P6SM SCT020
                       BKN040 FM041900 20007KT P6SM SCT040 BKN060=
201806031738 TAF KSEA 031738Z 0318/0424 24006KT P6SM FEW025 BKN120 OVC200 FM031900
                       24008KT P6SM SCT025 BKN120 OVC200 FM032100
                       22010KT P6SM -RA BKN030 OVC050 FM040100
                       29008KT P6SM VCSH SCT030 OVC050 FM041000
                       24006KT P6SM OVC018 FM041600 22009KT P6SM
                       SCT020 BKN040 FM041900 20007KT P6SM SCT040
                       BKN060=
201806031530 KSEA 031530Z 0316/0418 24006KT P6SM FEW025 BKN120 BKN250 FM031900
                       24008KT P6SM SCT025 BKN120 BKN200 FM032100
                       22010KT P6SM -RA BKN030 OVC050 FM040000
                       22010KT P6SM VCSH SCT030 OVC050 FM041000
                       18006KT P6SM OVC018 FM041600 20009KT P6SM
                       SCT020 BKN040=
201806031135 TAF KSEA 031135Z 0312/0418 22003KT P6SM FEW060 SCT250 FM031900
                       24008KT P6SM OVC050 FM032100 22010KT P6SM
                       -RA BKN030 OVC050 FM040000 22010KT P6SM
                       VCSH SCT030 OVC050 FM041000 18006KT P6SM
                       OVC018 FM041600 20009KT P6SM SCT020 BKN040=
201806030921 KSEA 030921Z 0309/0412 00000KT P6SM FEW150 SCT250 FM031200 VRB03KT
                       P6SM BKN100 OVC150 FM031800 18007KT P6SM
                       -RA BKN030 OVC080 FM032000 24010KT P6SM
                       -RA OVC025 FM040200 22010KT P6SM BKN030
                       BKN050=
201806030523 TAF KSEA 030523Z 0306/0412 32006KT P6SM FEW100 SCT200 FM030700
                       03003KT P6SM SCT100 BKN200 FM031000 VRB03KT
                       P6SM BKN100 OVC150 FM031800 18007KT P6SM
                       -RA BKN030 OVC080 FM032000 24010KT P6SM
                       -RA OVC025 FM040200 22010KT P6SM BKN030
                       BKN050=
201806030301 KSEA 030301Z 0303/0406 32006KT P6SM FEW100 SCT200 FM030600 03003KT
                       P6SM SCT100 BKN200 FM031000 VRB03KT P6SM
                       BKN100 OVC150 FM031800 18007KT P6SM -RA
                       BKN030 OVC080 FM032000 22010G20KT P6SM -RA
                       OVC025 FM040200 24010KT P6SM BKN030 BKN050=
201806022320 TAF KSEA 022320Z 0300/0406 29008KT P6SM FEW040 SCT100 BKN200 FM030200
                       32006KT P6SM FEW040 SCT100 BKN200 FM030600
                       03003KT P6SM SCT100 BKN200 FM031000 VRB03KT
                       P6SM BKN100 OVC150 FM031800 18007KT P6SM
                       -RA BKN030 OVC080 FM032000 22010G20KT P6SM
                       -RA OVC025 FM040200 24010KT P6SM BKN030
                       BKN050=
201806022101 KSEA 022101Z 0221/0324 25008KT P6SM FEW040 SCT100 BKN200 FM022200
                       29010KT P6SM FEW040 SCT100 BKN200 FM030200
                       32006KT P6SM SCT100 BKN200 FM030600 03003KT
                       P6SM SCT100 BKN200 FM031000 VRB03KT P6SM
                       BKN100 OVC150 FM031800 18007KT P6SM -RA
                       BKN030 OVC080 FM032000 20008KT P6SM -RA
                       OVC025=
201806021720 TAF KSEA 021720Z 0218/0324 17004KT P6SM FEW060 BKN100 BKN200 FM021900
                       26006KT P6SM BKN100 OVC200 FM030100 32005KT
                       P6SM SCT100 BKN200 FM030600 03003KT P6SM
                       SCT100 BKN200 FM031000 VRB03KT P6SM BKN100
                       OVC150 FM031800 18007KT P6SM -RA BKN030
                       OVC080 FM032000 20008KT P6SM -RA OVC025=
201806021535 KSEA 021535Z 0216/0318 17004KT P6SM FEW040 BKN100 FM021900 26006KT
                       P6SM BKN100 OVC200 FM030100 32005KT P6SM
                       SCT100 BKN200 FM030600 03003KT P6SM BKN200=
201806021120 TAF KSEA 021120Z 0212/0318 13005KT P6SM BKN070 OVC090 FM021500
                       VRB03KT P6SM BKN100 FM021900 26005KT P6SM
                       BKN100 OVC200 FM030100 32005KT P6SM SCT100
                       BKN200 FM030600 03003KT P6SM BKN200=
201806020858 KSEA 020858Z 0209/0312 16003KT P6SM FEW110 SCT250 FM021300 VRB03KT
                       P6SM BKN100 FM021800 26005KT P6SM BKN100
                       OVC200 FM030100 32005KT P6SM SCT100 BKN200=
201806020523 TAF KSEA 020523Z 0206/0312 22007KT P6SM SCT100 BKN250 FM020800
                       VRB04KT P6SM BKN040 BKN100 OVC200
                      TEMPO 0212/0216 OVC025 FM021800 26005KT P6SM
                       SCT045 BKN150 OVC200 FM030100 32005KT P6SM
                       SCT050 SCT150 SCT250=
201806020301 KSEA 020301Z 0203/0306 22007KT P6SM SCT050 BKN100 BKN200 FM020800
                       VRB04KT P6SM BKN030 BKN100 OVC200
                      TEMPO 0212/0216 OVC025 FM021800 26005KT P6SM
                       SCT045 BKN150 OVC200 FM030100 32005KT P6SM
                       SCT050 SCT150 OVC200=
201806012320 TAF KSEA 012320Z 0200/0306 22010KT P6SM FEW030 SCT050 BKN150 FM020300
                       22007KT P6SM SCT050 BKN150 BKN200 FM020800
                       VRB04KT P6SM BKN030 BKN150 OVC200
                      TEMPO 0212/0216 OVC025 FM021800 18005KT P6SM
                       SCT045 BKN150 OVC200=
201806012102 KSEA 012102Z 0121/0224 22010KT P6SM FEW030 SCT050 BKN150 FM012200
                       23009KT P6SM FEW040 SCT070 BKN150 FM020300
                       22007KT P6SM SCT070 BKN150 BKN200 FM020800
                       VRB04KT P6SM BKN030 BKN150 OVC200 FM021800
                       18005KT P6SM SCT045 BKN150 OVC200=
201806011720 TAF KSEA 011720Z 0118/0224 21008KT P6SM FEW030 BKN050 FM012200
                       23009KT P6SM FEW040 SCT070 FM020300 22007KT
                       P6SM SCT070 SCT200 FM020800 VRB04KT P6SM
                       BKN050 BKN200 FM021200 VRB04KT P6SM BKN035
                       BKN150 OVC200 FM021800 18005KT P6SM SCT045
                       BKN150 OVC200=
201806011530 KSEA 011530Z 0116/0218 19009KT P6SM SCT025 BKN080 FM011800 21008KT
                       P6SM FEW030 BKN050 FM012100 23010KT P6SM
                       SCT035 BKN070 FM020300 20007KT P6SM SCT070
                       FM020800 16005KT P6SM BKN050=
201806011125 TAF KSEA 011125Z 0112/0218 17009KT P6SM SCT024 BKN080
                      TEMPO 0112/0116 BKN020 OVC080 FM011800 21008KT
                       P6SM SCT030 FM012000 23010KT P6SM SCT035
                       SCT050 SCT150 FM020300 20007KT P6SM OVC050
                       FM020800 16005KT P6SM OVC050=
201806010842 KSEA 010842Z 0109/0212 20010KT P6SM BKN060 OVC080 FM011200 20008KT
                       P6SM SCT020 BKN030 FM011800 21008KT P6SM
                       SCT025 BKN040 FM012000 23010KT P6SM FEW030
                       SCT050 SCT150 FM020300 18004KT P6SM OVC050=
201806010521 TAF KSEA 010521Z 0106/0212 22010KT P6SM VCSH FEW035 BKN050 BKN080
                       FM010700 21010KT P6SM SCT035 OVC060 FM010900
                       18008KT P6SM OVC020 FM011800 21008KT P6SM
                       SCT025 BKN040 FM012000 23010KT P6SM FEW030
                       SCT050 SCT150 FM020300 18004KT P6SM OVC050=
201806010303 KSEA 010303Z 0103/0206 20007KT P6SM VCSH SCT040 BKN080 BKN150
                      TEMPO 0103/0105 -SHRA BKN040 OVC070 FM010500
                       21010KT P6SM BKN035 OVC060 FM010900 18008KT
                       P6SM OVC020 FM011800 21008KT P6SM SCT025
                       BKN040 FM012000 23010KT P6SM FEW030 SCT050=
201806010018 KSEA 010018Z 0100/0206 24009KT P6SM VCSH SCT040 BKN070 BKN150
                      TEMPO 0100/0104 26008KT -SHRA BKN035 OVC070
                       FM010500 21010KT P6SM BKN035 OVC060 FM010900
                       18008KT P6SM OVC020 FM011800 21008KT P6SM
                       SCT025 BKN040 FM012000 23010KT P6SM FEW030
                       SCT050=