##########################################################
# Query made at 02/17/2025 20:31:18 UTC
# Time interval: from 08/01/2018 00:00  to 08/31/2018 23:59  UTC
##########################################################

##########################################################
# KSEA, Seattle, Seattle-Tacoma International Airport (United States)
# WMO index: 72793. WIGOS ID: 0-20000-0-72793
# Latitude 47-27-00N. Longitude 122-17-59W. Altitude 130 m.
##########################################################

###################################
#  METAR/SPECI from KSEA
###################################
201808312353 METAR KSEA 312353Z 25006KT 10SM SCT043 20/09 A3013 RMK AO2 SLP209 T02000094 10206 20172 58013=
201808312253 METAR KSEA 312253Z 20008KT 10SM SCT043 21/09 A3015 RMK AO2 SLP213 T02060094=
201808312153 METAR KSEA 312153Z 23005KT 10SM SCT035 SCT080 19/09 A3016 RMK AO2 SLP218 T01940094=
201808312053 METAR KSEA 312053Z 22010KT 10SM FEW030 SCT039 20/09 A3017 RMK AO2 SLP221 T02000089 55000=
201808311953 METAR KSEA 311953Z 19010KT 10SM SCT030 BKN038 19/10 A3017 RMK AO2 SLP219 T01940100=
201808311853 METAR KSEA 311853Z 23009KT 10SM SCT029 BKN038 19/10 A3017 RMK AO2 SLP222 T01940100=
201808311753 METAR KSEA 311753Z VRB06KT 10SM FEW022 BKN034 17/10 A3017 RMK AO2 SLP222 T01720100 10172 20144 53010=
201808311653 METAR KSEA 311653Z 24007KT 10SM FEW018 SCT026 17/11 A3016 RMK AO2 SLP217 T01670106=
201808311553 METAR KSEA 311553Z 21008KT 10SM FEW020 SCT045 16/10 A3015 RMK AO2 SLP215 T01560100=
201808311453 METAR KSEA 311453Z 21006KT 10SM FEW010 SCT021 BKN047 BKN250 14/11 A3014 RMK AO2 SLP212 T01440111 53017=
201808311353 METAR KSEA 311353Z 22008KT 10SM SCT015 BKN035 15/13 A3012 RMK AO2 SLP203 T01500128=
201808311335 SPECI KSEA 311335Z 21007KT 10SM SCT015 BKN035 15/12 A3011 RMK AO2 T01500122=
201808311253 METAR KSEA 311253Z 22008KT 10SM BKN015 OVC032 16/13 A3010 RMK AO2 SLP198 T01560128=
201808311153 METAR KSEA 311153Z 22009KT 10SM OVC011 16/13 A3009 RMK AO2 SLP194 T01610128 10167 20161 51003=
201808311053 METAR KSEA 311053Z 23004KT 10SM OVC011 16/13 A3009 RMK AO2 SLP194 T01610133=
201808310953 METAR KSEA 310953Z 22008KT 10SM OVC010 17/13 A3008 RMK AO2 SLP191 T01670133=
201808310853 METAR KSEA 310853Z 22007KT 10SM OVC011 17/13 A3008 RMK AO2 SLP191 T01670133 50002=
201808310753 METAR KSEA 310753Z 20007KT 10SM OVC012 17/13 A3008 RMK AO2 SLP192 T01670133 402280156=
201808310653 METAR KSEA 310653Z 22005KT 10SM OVC012 17/13 A3008 RMK AO2 SLP190 T01670133=
201808310553 METAR KSEA 310553Z 22010KT 10SM OVC013 17/13 A3008 RMK AO2 SLP189 T01670133 10217 20167 51010=
201808310453 METAR KSEA 310453Z 22008KT 10SM BKN039 BKN085 17/13 A3007 RMK AO2 SLP186 T01720133=
201808310353 METAR KSEA 310353Z 23008KT 10SM BKN031 BKN070 19/13 A3006 RMK AO2 SLP183 T01890133=
201808310311 SPECI KSEA 310311Z 22007KT 10SM BKN028 BKN070 19/13 A3005 RMK AO2 T01940133=
201808310253 METAR KSEA 310253Z 21006KT 10SM SCT026 BKN070 19/13 A3004 RMK AO2 SLP178 T01940133 55001=
201808310153 METAR KSEA 310153Z 20007KT 10SM FEW040 BKN065 20/13 A3004 RMK AO2 SLP176 T02000133=
201808310053 METAR KSEA 310053Z 23010KT 10SM FEW040 BKN085 21/13 A3005 RMK AO2 SLP179 T02060133=
201808302353 METAR KSEA 302353Z 23006KT 10SM FEW040 SCT065 SCT100 22/12 A3005 RMK AO2 SLP179 T02170122 10228 20183 55001=
201808302253 METAR KSEA 302253Z 23007KT 10SM FEW040 BKN090 22/12 A3004 RMK AO2 SLP176 T02220117=
201808302153 METAR KSEA 302153Z 23010KT 10SM FEW040 BKN080 22/12 A3005 RMK AO2 SLP180 T02170122=
201808302053 METAR KSEA 302053Z 23007KT 10SM BKN039 BKN080 21/13 A3005 RMK AO2 SLP181 T02110128 51005=
201808302000 SPECI KSEA 302000Z 22007KT 10SM OVC033 19/12 A3005 RMK AO2 T01940122=
201808301953 METAR KSEA 301953Z 25006KT 10SM FEW020 BKN027 OVC075 20/12 A3005 RMK AO2 SLP180 T02000122=
201808301909 SPECI KSEA 301909Z 23006KT 10SM FEW021 BKN027 OVC075 20/13 A3005 RMK AO2 T02000128=
201808301900 SPECI KSEA 301900Z 25007KT 10SM SCT025 OVC075 20/13 A3004 RMK AO2 T02000128=
201808301853 METAR KSEA 301853Z 21006KT 10SM BKN025 BKN075 19/13 A3004 RMK AO2 SLP176 T01940128=
201808301753 METAR KSEA 301753Z VRB04KT 10SM FEW018 SCT028 OVC075 18/13 A3004 RMK AO2 SLP175 T01830128 10183 20156 51006=
201808301724 SPECI KSEA 301724Z 20006KT 10SM FEW016 SCT026 BKN048 18/13 A3003 RMK AO2 T01780128=
201808301653 METAR KSEA 301653Z 24004KT 10SM BKN024 OVC047 18/13 A3003 RMK AO2 SLP174 T01780128=
201808301553 METAR KSEA 301553Z 19003KT 10SM SCT021 BKN027 OVC047 17/12 A3003 RMK AO2 SLP172 T01670122=
201808301453 METAR KSEA 301453Z 00000KT 10SM SCT025 BKN047 BKN065 BKN200 16/12 A3002 RMK AO2 SLP168 T01610122 53009=
201808301445 SPECI KSEA 301445Z 18003KT 10SM SCT025 BKN047 BKN065 BKN200 16/12 A3001 RMK AO2 T01610122=
201808301349 METAR KSEA 301349Z 20004KT 10SM BKN022 OVC033 16/13 A3000 RMK AO2 SLP163 T01560128=
201808301253 METAR KSEA 301253Z 21003KT 10SM OVC024 16/13 A2999 RMK AO2 SLP160 T01560128=
201808301153 METAR KSEA 301153Z 23003KT 10SM OVC023 16/13 A2999 RMK AO2 SLP160 T01560128 10183 20156 53004=
201808301053 METAR KSEA 301053Z 22003KT 10SM OVC020 16/12 A2998 RMK AO2 SLP158 T01610122=
201808300953 METAR KSEA 300953Z 20004KT 10SM BKN022 OVC027 16/12 A2998 RMK AO2 SLP157 T01610122=
201808300853 METAR KSEA 300853Z 22004KT 10SM BKN026 BKN031 OVC050 17/12 A2998 RMK AO2 SLP155 T01670122 51006=
201808300850 SPECI KSEA 300850Z 22004KT 10SM BKN028 BKN033 OVC050 17/12 A2998 RMK AO2=
201808300753 METAR KSEA 300753Z 21003KT 10SM BKN049 17/12 A2997 RMK AO2 SLP152 T01670122 402500139=
201808300653 METAR KSEA 300653Z 21005KT 10SM OVC048 17/12 A2996 RMK AO2 SLP149 T01720122=
201808300553 METAR KSEA 300553Z VRB04KT 10SM OVC044 19/11 A2995 RMK AO2 SLP144 T01890111 10250 20183 51010=
201808300453 METAR KSEA 300453Z 04006KT 10SM OVC043 19/11 A2994 RMK AO2 SLP143 T01890111=
201808300353 METAR KSEA 300353Z 04008KT 10SM BKN040 OVC100 19/11 A2993 RMK AO2 SLP139 T01940111=
201808300253 METAR KSEA 300253Z 06009KT 10SM BKN043 BKN100 BKN250 20/11 A2991 RMK AO2 SLP134 T02000106 53009=
201808300153 METAR KSEA 300153Z 02008KT 10SM SCT041 BKN130 BKN250 21/11 A2990 RMK AO2 SLP130 T02110106=
201808300053 METAR KSEA 300053Z 27006KT 10SM FEW050 SCT130 BKN250 22/12 A2989 RMK AO2 SLP127 T02220122=
201808292353 METAR KSEA 292353Z 24008KT 10SM FEW050 SCT120 BKN250 25/13 A2989 RMK AO2 SLP124 T02500128 10250 20183 55001=
201808292253 METAR KSEA 292253Z 23008KT 10SM FEW060 FEW140 BKN250 24/11 A2988 RMK AO2 SLP123 T02440111=
201808292153 METAR KSEA 292153Z 26011KT 10SM FEW140 BKN250 24/11 A2989 RMK AO2 SLP125 T02390111=
201808292053 METAR KSEA 292053Z 24011KT 10SM FEW140 BKN200 23/11 A2989 RMK AO2 SLP125 T02280106 56009=
201808291953 METAR KSEA 291953Z 20010KT 10SM SCT140 BKN200 22/09 A2989 RMK AO2 SLP126 T02220094=
201808291853 METAR KSEA 291853Z 20009KT 10SM SCT140 BKN200 20/11 A2991 RMK AO2 SLP131 T02000106=
201808291753 METAR KSEA 291753Z 20009KT 10SM BKN140 BKN200 19/10 A2992 RMK AO2 SLP135 T01890100 10189 20139 53003=
201808291653 METAR KSEA 291653Z 20007KT 10SM SCT100 BKN250 18/11 A2991 RMK AO2 SLP132 T01780106=
201808291553 METAR KSEA 291553Z 15007KT 10SM SCT100 BKN220 16/11 A2990 RMK AO2 SLP129 T01610111=
201808291453 METAR KSEA 291453Z 23004KT 10SM BKN250 15/11 A2991 RMK AO2 SLP132 T01500106 53001=
201808291353 METAR KSEA 291353Z 17003KT 10SM BKN250 14/10 A2990 RMK AO2 SLP127 T01440100=
201808291253 METAR KSEA 291253Z 00000KT 10SM BKN250 14/10 A2990 RMK AO2 SLP129 T01440100=
201808291153 METAR KSEA 291153Z 00000KT 10SM BKN250 16/10 A2991 RMK AO2 SLP130 T01610100 10200 20144 58004=
201808291053 METAR KSEA 291053Z 00000KT 10SM SCT250 17/09 A2991 RMK AO2 SLP133 T01670094=
201808290953 METAR KSEA 290953Z 00000KT 10SM SCT250 15/09 A2991 RMK AO2 SLP133 T01500094=
201808290853 METAR KSEA 290853Z 00000KT 10SM FEW250 17/09 A2992 RMK AO2 SLP134 T01720089 58010=
201808290753 METAR KSEA 290753Z 00000KT 10SM FEW250 19/09 A2993 RMK AO2 SLP139 T01890089 402890128=
201808290653 METAR KSEA 290653Z 00000KT 10SM FEW250 20/09 A2994 RMK AO2 SLP141 T02000089=
201808290553 METAR KSEA 290553Z 30004KT 10SM FEW250 19/09 A2995 RMK AO2 SLP145 T01940089 10283 20194 58004=
201808290453 METAR KSEA 290453Z 02007KT 10SM FEW250 22/08 A2995 RMK AO2 SLP147 T02220083=
201808290353 METAR KSEA 290353Z 36005KT 10SM SCT055 SCT250 22/07 A2996 RMK AO2 SLP150 FU SCT055 T02170067=
201808290253 METAR KSEA 290253Z 36006KT 10SM SCT250 24/07 A2996 RMK AO2 SLP149 T02390067 56011=
201808290153 METAR KSEA 290153Z 28004KT 10SM FEW250 26/07 A2996 RMK AO2 SLP151 T02560072=
201808290053 METAR KSEA 290053Z 28008KT 220V310 10SM FEW250 27/07 A2998 RMK AO2 SLP156 T02720067=
201808282353 METAR KSEA 282353Z 32006KT 10SM FEW250 28/07 A2999 RMK AO2 SLP161 T02830072 10289 20211 56019=
201808282253 METAR KSEA 282253Z VRB06KT 10SM FEW250 28/08 A3001 RMK AO2 SLP166 T02780083=
201808282153 METAR KSEA 282153Z 29008KT 10SM FEW250 27/09 A3003 RMK AO2 SLP172 T02720094=
201808282053 METAR KSEA 282053Z 02006KT 10SM FEW250 27/09 A3005 RMK AO2 SLP179 T02670089 58013=
201808281953 METAR KSEA 281953Z VRB04KT 10SM SCT250 24/11 A3006 RMK AO2 SLP184 T02390111=
201808281853 METAR KSEA 281853Z 28006KT 10SM SCT250 23/11 A3008 RMK AO2 SLP190 T02280106=
201808281753 METAR KSEA 281753Z 27004KT 10SM SCT250 21/12 A3009 RMK AO2 SLP193 T02110117 10211 20128 58003=
201808281653 METAR KSEA 281653Z 00000KT 10SM FEW250 19/11 A3010 RMK AO2 SLP196 T01940111=
201808281553 METAR KSEA 281553Z 00000KT 10SM FEW200 17/10 A3010 RMK AO2 SLP197 T01720100=
201808281453 METAR KSEA 281453Z 18003KT 10SM FEW250 15/11 A3010 RMK AO2 SLP197 T01500106 53004=
201808281353 METAR KSEA 281353Z 00000KT 10SM FEW250 14/10 A3008 RMK AO2 SLP191 T01390100=
201808281253 METAR KSEA 281253Z 16003KT 10SM FEW250 13/10 A3008 RMK AO2 SLP189 T01330100=
201808281153 METAR KSEA 281153Z 16005KT 10SM CLR 13/10 A3009 RMK AO2 SLP193 T01330100 10189 20133 58004=
201808281053 METAR KSEA 281053Z 12006KT 10SM CLR 14/11 A3010 RMK AO2 SLP197 T01440106=
201808280953 METAR KSEA 280953Z 15004KT 10SM FEW250 14/11 A3010 RMK AO2 SLP196 T01390106=
201808280853 METAR KSEA 280853Z 13005KT 10SM CLR 16/11 A3010 RMK AO2 SLP196 T01610111 53001=
201808280753 METAR KSEA 280753Z 13006KT 10SM CLR 16/11 A3009 RMK AO2 SLP194 T01610106 402440133=
201808280653 METAR KSEA 280653Z 13005KT 10SM CLR 17/10 A3010 RMK AO2 SLP195 T01720100=
201808280553 METAR KSEA 280553Z 30003KT 10SM CLR 18/09 A3010 RMK AO2 SLP197 T01780094 10244 20172 50004=
201808280453 METAR KSEA 280453Z 00000KT 10SM CLR 19/09 A3010 RMK AO2 SLP197 T01890094=
201808280353 METAR KSEA 280353Z 00000KT 10SM FEW250 19/10 A3010 RMK AO2 SLP197 T01890100=
201808280253 METAR KSEA 280253Z 00000KT 10SM FEW250 20/10 A3008 RMK AO2 SLP192 T02000100 56004=
201808280153 METAR KSEA 280153Z 35004KT 10SM FEW250 23/08 A3008 RMK AO2 SLP191 T02330083=
201808280053 METAR KSEA 280053Z VRB03KT 10SM FEW030 FEW250 24/09 A3009 RMK AO2 SLP194 T02440089=
201808272353 METAR KSEA 272353Z 02005KT 10SM FEW030 FEW250 24/10 A3010 RMK AO2 SLP196 T02390100 10244 20167 56010=
201808272253 METAR KSEA 272253Z VRB04KT 10SM FEW030 FEW250 24/09 A3011 RMK AO2 SLP199 T02390094=
201808272153 METAR KSEA 272153Z VRB03KT 10SM FEW030 23/10 A3012 RMK AO2 SLP202 T02280100=
201808272053 METAR KSEA 272053Z VRB05KT 10SM FEW030 21/10 A3013 RMK AO2 SLP206 T02110100 58001=
201808271953 METAR KSEA 271953Z 03008KT 10SM FEW025 20/11 A3012 RMK AO2 SLP206 T02000106=
201808271853 METAR KSEA 271853Z 04012KT 10SM SCT021 18/12 A3014 RMK AO2 SLP210 T01830117=
201808271835 SPECI KSEA 271835Z 05009KT 10SM SCT021 18/12 A3014 RMK AO2 T01780117=
201808271753 METAR KSEA 271753Z 04010G18KT 7SM SCT013 BKN024 17/12 A3013 RMK AO2 SLP208 T01670117 10167 20133 51019=
201808271733 SPECI KSEA 271733Z 03010KT 7SM SCT013 BKN024 16/12 A3013 RMK AO2 T01560117=
201808271653 METAR KSEA 271653Z 03009KT 8SM BKN012 OVC019 16/12 A3012 RMK AO2 SLP203 T01560117=
201808271553 METAR KSEA 271553Z 04007KT 7SM BKN012 BKN020 14/12 A3010 RMK AO2 SLP196 T01440117=
201808271503 SPECI KSEA 271503Z 03006KT 8SM BKN012 BKN020 15/12 A3008 RMK AO2 T01500122=
201808271453 METAR KSEA 271453Z 02009KT 7SM SCT011 BKN020 BKN027 14/12 A3007 RMK AO2 SLP189 T01440122 53019=
201808271353 METAR KSEA 271353Z 36004KT 8SM FEW011 BKN019 BKN027 14/12 A3006 RMK AO2 SLP184 T01390122=
201808271320 SPECI KSEA 271320Z 35005KT 8SM FEW009 BKN017 OVC027 13/12 A3004 RMK AO2 T01330117=
201808271253 METAR KSEA 271253Z 03004KT 8SM FEW009 SCT013 SCT020 14/12 A3003 RMK AO2 SLP175 T01390122=
201808271212 SPECI KSEA 271212Z 35005KT 8SM BKN009 OVC015 14/13 A3002 RMK AO2 T01390128=
201808271153 METAR KSEA 271153Z 34004KT 8SM FEW010 BKN015 BKN022 14/13 A3002 RMK AO2 SLP170 60001 70011 T01390128 10150 20139 51013=
201808271053 METAR KSEA 271053Z 03005KT 9SM FEW010 BKN017 BKN024 14/13 A3001 RMK AO2 SLP166 T01440128=
201808270953 METAR KSEA 270953Z 36007KT 8SM SCT005 SCT015 BKN021 14/13 A2999 RMK AO2 RAE07 SLP162 P0000 T01440128=
201808270907 SPECI KSEA 270907Z 35005KT 9SM FEW003 BKN015 OVC028 15/13 A2998 RMK AO2 RAE07 P0000 T01500133=
201808270853 METAR KSEA 270853Z 03005KT 7SM -RA SCT003 BKN009 OVC031 15/14 A2998 RMK AO2 RAB50 SLP157 P0000 60001 T01500139 53009=
201808270753 METAR KSEA 270753Z 00000KT 10SM FEW003 BKN006 BKN015 14/13 A2997 RMK AO2 RAE16 SLP154 P0000 T01440133 401830139=
201808270653 METAR KSEA 270653Z 00000KT 4SM -RA BR BKN003 OVC008 14/13 A2996 RMK AO2 SLP149 P0001 T01440133=
201808270553 METAR KSEA 270553Z 00000KT 4SM -RA BR BKN003 BKN009 OVC019 14/13 A2995 RMK AO2 SLP148 P0001 60010 T01440133 10172 20144 52007=
201808270453 METAR KSEA 270453Z 22004KT 6SM -RA BR BKN003 OVC009 14/13 A2995 RMK AO2 SLP146 P0001 T01440133=
201808270427 SPECI KSEA 270427Z 21006KT 5SM -RA BR BKN004 OVC009 14/13 A2994 RMK AO2 P0001 T01440133=
201808270405 SPECI KSEA 270405Z 20006KT 5SM -RA BR FEW004 BKN008 OVC013 14/13 A2994 RMK AO2 CIG 007V011 P0000 T01440133=
201808270353 METAR KSEA 270353Z 21008KT 5SM -RA BR BKN013 OVC019 14/13 A2994 RMK AO2 SLP143 P0004 T01440133=
201808270314 SPECI KSEA 270314Z 20008KT 4SM -RA BR OVC013 15/13 A2994 RMK AO2 P0002 T01500128=
201808270253 METAR KSEA 270253Z 20008KT 4SM -RA BR OVC015 15/13 A2993 RMK AO2 RAE13B32 SLP141 P0004 60004 T01500128 56010=
201808270153 METAR KSEA 270153Z 20009KT 6SM -RA OVC019 16/13 A2994 RMK AO2 RAB45 SLP143 P0000 T01560128=
201808270053 METAR KSEA 270053Z 21010KT 10SM OVC025 17/11 A2995 RMK AO2 SLP148 T01670111=
201808262353 METAR KSEA 262353Z 18009KT 10SM OVC027 17/11 A2996 RMK AO2 SLP151 T01720106 10183 20167 58010=
201808262253 METAR KSEA 262253Z 22008KT 10SM BKN028 OVC034 18/10 A2997 RMK AO2 SLP155 T01780100=
201808262153 METAR KSEA 262153Z 22009KT 10SM OVC033 18/11 A2999 RMK AO2 SLP160 T01830106=
201808262053 METAR KSEA 262053Z 22010KT 10SM OVC027 18/11 A2999 RMK AO2 SLP162 T01780111 58008=
201808261953 METAR KSEA 261953Z 21013KT 10SM OVC022 17/11 A3000 RMK AO2 SLP165 T01670111=
201808261853 METAR KSEA 261853Z 21012KT 10SM OVC023 17/11 A3002 RMK AO2 SLP170 T01670111=
201808261753 METAR KSEA 261753Z 22011KT 10SM BKN020 OVC100 17/12 A3002 RMK AO2 SLP170 T01670117 10167 20144 56008=
201808261653 METAR KSEA 261653Z 21010KT 10SM FEW010 BKN020 OVC100 16/12 A3002 RMK AO2 SLP172 T01560117=
201808261627 SPECI KSEA 261627Z 21011KT 10SM SCT010 BKN022 OVC070 16/12 A3003 RMK AO2 T01560122=
201808261553 METAR KSEA 261553Z 21008KT 10SM BKN009 OVC023 15/12 A3004 RMK AO2 CIG 007V011 SLP176 T01500117=
201808261453 METAR KSEA 261453Z 20007KT 10SM BKN008 OVC013 14/12 A3004 RMK AO2 CIG 006V010 SLP179 T01440122 53001=
201808261353 METAR KSEA 261353Z 21004KT 10SM FEW010 BKN021 OVC050 14/12 A3004 RMK AO2 SLP179 T01440122=
201808261253 METAR KSEA 261253Z 22003KT 9SM FEW010 SCT019 OVC050 14/12 A3004 RMK AO2 SLP176 T01440122=
201808261153 METAR KSEA 261153Z 19003KT 6SM HZ FU SCT024 OVC045 14/11 A3004 RMK AO2 SLP178 T01440111 10156 20139 58005=
201808261115 SPECI KSEA 261115Z 00000KT 5SM HZ FU SCT024 OVC045 15/11 A3005 RMK AO2 T01500106=
201808261053 METAR KSEA 261053Z 00000KT 6SM HZ FU BKN026 OVC038 14/11 A3005 RMK AO2 SLP182 T01440106=
201808260953 METAR KSEA 260953Z 00000KT 5SM HZ FU OVC028 14/11 A3005 RMK AO2 SLP182 T01440111=
201808260928 SPECI KSEA 260928Z 00000KT 5SM HZ FU BKN028 OVC034 14/11 A3005 RMK AO2 T01440111=
201808260853 METAR KSEA 260853Z 27003KT 5SM HZ FU BKN035 OVC045 14/11 A3006 RMK AO2 SLP184 T01440111 58003=
201808260753 METAR KSEA 260753Z 27003KT 5SM HZ FU BKN045 OVC055 14/11 A3007 RMK AO2 SLP186 T01440111 401780117=
201808260653 METAR KSEA 260653Z 20003KT 6SM HZ FU SCT040 OVC060 15/12 A3006 RMK AO2 SLP185 T01500117=
201808260553 METAR KSEA 260553Z 20003KT 6SM HZ FU FEW030 OVC050 16/12 A3007 RMK AO2 SLP186 T01560117 10178 20156 51005=
201808260453 METAR KSEA 260453Z 35003KT 6SM HZ FU SCT029 OVC041 17/11 A3006 RMK AO2 SLP185 T01670106=
201808260446 SPECI KSEA 260446Z 35004KT 6SM HZ FU SCT029 OVC041 17/11 A3006 RMK AO2 T01670106=
201808260353 METAR KSEA 260353Z 36005KT 6SM HZ FU BKN029 OVC040 17/11 A3006 RMK AO2 SLP185 T01670106=
201808260253 METAR KSEA 260253Z 30004KT 6SM HZ FU BKN028 OVC036 17/11 A3005 RMK AO2 SLP181 T01720106 55001=
201808260153 METAR KSEA 260153Z 17003KT 6SM HZ FU BKN031 OVC041 18/11 A3005 RMK AO2 SLP181 T01780106=
201808260053 METAR KSEA 260053Z 20003KT 6SM HZ FU SCT033 OVC046 18/11 A3005 RMK AO2 SLP182 T01780106=
201808260019 SPECI KSEA 260019Z 19004KT 6SM HZ FU BKN030 OVC075 17/11 A3006 RMK AO2 T01720106=
201808252353 METAR KSEA 252353Z 25004KT 6SM HZ FU BKN028 OVC075 17/11 A3005 RMK AO2 SLP183 T01720106 10172 20133 56005=
201808252316 SPECI KSEA 252316Z VRB03KT 8SM FU BKN025 OVC075 17/11 A3006 RMK AO2 T01720106=
201808252253 METAR KSEA 252253Z 18004KT 6SM HZ FU SCT020 BKN070 OVC090 17/11 A3006 RMK AO2 SLP184 T01670106=
201808252153 METAR KSEA 252153Z 17006KT 6SM HZ FU SCT020 OVC075 17/10 A3006 RMK AO2 SLP186 T01670100=
201808252053 METAR KSEA 252053Z 24006KT 6SM HZ FU SCT020 BKN075 OVC095 16/09 A3007 RMK AO2 SLP188 T01610094 55006=
201808252015 SPECI KSEA 252015Z 22005KT 6SM HZ FU FEW018 SCT075 OVC080 16/09 A3006 RMK AO2 T01560094=
201808251953 METAR KSEA 251953Z 17006KT 5SM HZ FU BKN018 OVC080 15/09 A3006 RMK AO2 SLP186 T01500094=
201808251911 SPECI KSEA 251911Z 20008KT 4SM HZ FU OVC016 15/10 A3009 RMK AO2 T01500100=
201808251853 METAR KSEA 251853Z 19004KT 4SM HZ FU OVC014 14/10 A3008 RMK AO2 SLP193 T01440100=
201808251753 METAR KSEA 251753Z 13007KT 3SM HZ FU BKN012 OVC017 14/10 A3009 RMK AO2 SLP195 T01390100 10139 20117 50004=
201808251653 METAR KSEA 251653Z 21007KT 4SM HZ FU OVC012 13/09 A3009 RMK AO2 SLP196 T01330094=
201808251627 SPECI KSEA 251627Z 17005KT 4SM HZ FU OVC011 13/09 A3009 RMK AO2 T01330094=
201808251553 METAR KSEA 251553Z 20006KT 4SM HZ FU OVC009 13/09 A3009 RMK AO2 SLP194 T01280094=
201808251453 METAR KSEA 251453Z 22004KT 4SM HZ FU OVC008 13/10 A3008 RMK AO2 SLP190 T01280100 53002=
201808251353 METAR KSEA 251353Z 17004KT 3SM BR FU OVC007 12/10 A3007 RMK AO2 SLP188 T01220100=
201808251253 METAR KSEA 251253Z 19006KT 5SM BR FU BKN006 12/10 A3006 RMK AO2 SLP186 T01220100=
201808251153 METAR KSEA 251153Z 20004KT 5SM BR FU BKN008 12/10 A3007 RMK AO2 SLP188 T01170100 10144 20117 58001=
201808251129 SPECI KSEA 251129Z 17005KT 5SM BR FU FEW009 SCT020 12/10 A3007 RMK AO2 T01170100=
201808251053 METAR KSEA 251053Z 17004KT 5SM BR FU FEW020 12/09 A3008 RMK AO2 SLP191 T01170094=
201808250953 METAR KSEA 250953Z 17003KT 5SM HZ FU CLR 13/10 A3008 RMK AO2 SLP191 T01280100=
201808250853 METAR KSEA 250853Z 21003KT 5SM HZ FU CLR 13/10 A3007 RMK AO2 SLP189 T01280100 58005=
201808250753 METAR KSEA 250753Z 19005KT 5SM HZ FU CLR 13/11 A3009 RMK AO2 SLP193 T01330106 402060133=
201808250653 METAR KSEA 250653Z 19004KT 6SM HZ FU CLR 14/10 A3009 RMK AO2 SLP194 T01390100=
201808250553 METAR KSEA 250553Z 19005KT 6SM HZ FU SCT036 14/10 A3009 RMK AO2 SLP194 FU SCT036 T01440100 10200 20144 50004=
201808250453 METAR KSEA 250453Z 18005KT 4SM HZ FU BKN033 15/10 A3009 RMK AO2 SLP196 FU BKN033 T01500100=
201808250353 METAR KSEA 250353Z 22004KT 3SM HZ FU BKN032 17/09 A3009 RMK AO2 SLP195 FU BKN032 T01670094=
201808250304 SPECI KSEA 250304Z 23006KT 3SM HZ FU BKN030 BKN250 17/09 A3008 RMK AO2 FU BKN030 T01720094=
201808250253 METAR KSEA 250253Z 23006KT 3SM HZ FU BKN028 BKN250 17/09 A3008 RMK AO2 SLP190 FU BKN028 T01720094 58002=
201808250218 SPECI KSEA 250218Z 24006KT 3SM HZ FU BKN024 BKN080 18/09 A3007 RMK AO2 FU BKN024 T01780094=
201808250153 METAR KSEA 250153Z 25007KT 3SM HZ FU BKN080 18/09 A3008 RMK AO2 SLP190 T01830094=
201808250053 METAR KSEA 250053Z 25007KT 4SM HZ FU SCT080 19/09 A3008 RMK AO2 SLP192 T01940094=
201808242353 METAR KSEA 242353Z 22009KT 4SM HZ BKN080 20/09 A3008 RMK AO2 SLP191 T02000094 10206 20167 58007=
201808242253 METAR KSEA 242253Z 21009KT 6SM HZ OVC080 21/09 A3009 RMK AO2 SLP194 T02060094=
201808242153 METAR KSEA 242153Z 22008KT 7SM BKN080 OVC200 20/09 A3010 RMK AO2 SLP197 T02000094=
201808242053 METAR KSEA 242053Z 20009KT 7SM SCT025 SCT038 19/10 A3010 RMK AO2 SLP198 T01890100 58001=
201808241953 METAR KSEA 241953Z 17005KT 7SM SCT024 BKN033 BKN041 18/10 A3010 RMK AO2 SLP199 T01780100=
201808241853 METAR KSEA 241853Z 16005KT 7SM SCT022 BKN036 18/11 A3010 RMK AO2 SLP199 T01780106=
201808241849 SPECI KSEA 241849Z 17008KT 7SM SCT022 BKN036 18/11 A3010 RMK AO2=
201808241753 METAR KSEA 241753Z 22006KT 7SM BKN022 BKN035 17/11 A3010 RMK AO2 SLP199 T01670106 10172 20139 53009=
201808241731 SPECI KSEA 241731Z 19008KT 7SM BKN022 BKN035 16/10 A3010 RMK AO2 T01610100=
201808241708 SPECI KSEA 241708Z 21009KT 10SM SCT019 BKN033 16/10 A3009 RMK AO2 T01610100=
201808241653 METAR KSEA 241653Z 20008KT 10SM BKN019 OVC033 16/10 A3009 RMK AO2 SLP195 T01560100=
201808241553 METAR KSEA 241553Z 21005KT 10SM OVC021 15/10 A3009 RMK AO2 SLP194 T01500100=
201808241453 METAR KSEA 241453Z 22006KT 10SM OVC017 14/10 A3008 RMK AO2 SLP190 T01440100 53010=
201808241353 METAR KSEA 241353Z 20008KT 10SM OVC016 14/09 A3006 RMK AO2 SLP184 T01440094=
201808241253 METAR KSEA 241253Z 20008KT 10SM OVC016 14/09 A3005 RMK AO2 SLP180 T01390094=
201808241153 METAR KSEA 241153Z 20009KT 10SM OVC016 14/10 A3005 RMK AO2 SLP179 70001 T01390100 10150 20139 50003=
201808241130 SPECI KSEA 241130Z 21007KT 9SM OVC014 14/10 A3005 RMK AO2 T01390100=
201808241053 METAR KSEA 241053Z 23006KT 10SM OVC015 14/10 A3005 RMK AO2 SLP181 T01390100=
201808240953 METAR KSEA 240953Z 20007KT 10SM OVC017 14/10 A3004 RMK AO2 SLP178 T01440100=
201808240853 METAR KSEA 240853Z 21006KT 10SM OVC018 14/10 A3004 RMK AO2 SLP176 T01440100 52002=
201808240753 METAR KSEA 240753Z 21005KT 10SM BKN022 OVC030 14/10 A3004 RMK AO2 SLP176 T01440100 402280139=
201808240653 METAR KSEA 240653Z 21008KT 10SM OVC024 15/10 A3003 RMK AO2 SLP175 T01500100=
201808240641 SPECI KSEA 240641Z 22006KT 10SM BKN027 OVC060 15/09 A3003 RMK AO2 T01500094=
201808240553 METAR KSEA 240553Z 24005KT 9SM BKN060 15/10 A3003 RMK AO2 SLP175 T01500100 10228 20150 51013=
201808240453 METAR KSEA 240453Z 22007KT 8SM FEW060 SCT250 16/10 A3003 RMK AO2 SLP174 T01610100=
201808240353 METAR KSEA 240353Z 24010KT 8SM FEW060 SCT250 17/11 A3001 RMK AO2 SLP168 T01720106=
201808240253 METAR KSEA 240253Z 24010KT 10SM FEW055 SCT250 19/10 A2999 RMK AO2 SLP162 T01890100 55003=
201808240153 METAR KSEA 240153Z 24007KT 10SM FEW042 SCT100 SCT250 21/10 A2999 RMK AO2 SLP159 T02110100=
201808240053 METAR KSEA 240053Z 23010KT 10SM FEW041 SCT100 BKN250 22/10 A2999 RMK AO2 SLP161 T02220100=
201808232353 METAR KSEA 232353Z 22010KT 10SM FEW041 SCT100 BKN200 22/11 A3000 RMK AO2 SLP164 T02220106 10228 20178 58012=
201808232253 METAR KSEA 232253Z 23012KT 10SM SCT041 BKN200 22/11 A3001 RMK AO2 SLP167 T02220106=
201808232153 METAR KSEA 232153Z 23009KT 10SM SCT039 BKN200 21/11 A3003 RMK AO2 SLP173 T02110106=
201808232053 METAR KSEA 232053Z 24009G16KT 10SM SCT038 BKN200 21/10 A3004 RMK AO2 SLP176 T02060100 55002=
201808231953 METAR KSEA 231953Z 23010G24KT 10SM BKN031 BKN200 21/10 A3003 RMK AO2 SLP175 T02060100=
201808231853 METAR KSEA 231853Z 23010KT 10SM FEW023 BKN029 BKN180 18/11 A3004 RMK AO2 SLP179 T01830106=
201808231753 METAR KSEA 231753Z 20010G14KT 10SM FEW020 BKN027 BKN180 17/11 A3004 RMK AO2 SLP179 60001 T01720106 10172 20139 51002=
201808231653 METAR KSEA 231653Z 19011KT 10SM FEW014 OVC022 16/12 A3004 RMK AO2 SLP178 T01560122=
201808231622 SPECI KSEA 231622Z 17008KT 10SM FEW006 BKN015 OVC020 14/13 A3004 RMK AO2 T01440128=
201808231553 METAR KSEA 231553Z 19009KT 7SM SCT003 BKN006 OVC018 14/13 A3005 RMK AO2 DZE51 SLP179 P0000 T01440128=
201808231536 SPECI KSEA 231536Z 20010KT 4SM -DZ BR OVC003 14/13 A3005 RMK AO2 P0000 T01390128=
201808231518 SPECI KSEA 231518Z 18009KT 1 1/2SM -DZ BR OVC003 14/13 A3004 RMK AO2 P0000 T01390128=
201808231453 METAR KSEA 231453Z 22007KT 3SM -DZ BR OVC004 14/13 A3004 RMK AO2 SLP176 P0001 60001 T01390128 53013=
201808231436 SPECI KSEA 231436Z 20009KT 3SM -DZ BR OVC003 14/13 A3004 RMK AO2 P0000 T01390128=
201808231353 METAR KSEA 231353Z 17009KT 3SM -DZ BR FU BKN007 OVC013 14/13 A3002 RMK A02 DZB51 SLP170 P0000 T01440128=
201808231153 METAR KSEA 231153Z 18010KT 5SM FU HZ OVC014 15/11 A3000 RMK AO2 SLP162 FU OVC014 T01500111 10156 20150 50005=
201808231053 METAR KSEA 231053Z 20006KT 3SM FU HZ OVC014 15/11 A3000 RMK AO2 SLP162 FU OVC014 T01500111=
201808230953 METAR KSEA 230953Z 22009KT 3SM FU HZ OVC012 15/11 A2999 RMK AO2 SLP160 FU OVC012 T01500111=
201808230853 METAR KSEA 230853Z 20007KT 3SM FU HZ OVC012 15/12 A2998 RMK AO2 SLP156 FU OVC012 T01500117 51010=
201808230753 METAR KSEA 230753Z 22007KT 3SM FU HZ BKN010 OVC028 15/12 A2998 RMK AO2 SLP156 FU OVC028 T01500117 403170150=
201808230721 SPECI KSEA 230721Z 21005KT 3SM FU HZ BKN012 OVC028 15/12 A2997 RMK AO2 FU OVC028 T01500122=
201808230653 METAR KSEA 230653Z 20006KT 3SM FU HZ BKN028 15/12 A2997 RMK AO2 SLP152 FU BKN028 T01500122=
201808230553 METAR KSEA 230553Z 20008KT 3SM FU HZ BKN032 16/12 A2995 RMK AO2 SLP147 FU BKN032 T01560117 10311 20156 51021=
201808230453 METAR KSEA 230453Z 23009KT 3SM FU HZ BKN032 16/12 A2995 RMK AO2 SLP146 FU BKN032 T01610117=
201808230353 METAR KSEA 230353Z 24009KT 4SM FU HZ BKN037 18/12 A2992 RMK AO2 SLP135 FU BKN037 T01830122=
201808230253 METAR KSEA 230253Z 21008KT 2 1/2SM FU HZ BKN033 22/12 A2989 RMK AO2 SLP126 FU BKN033 T02170122 55001=
201808230153 METAR KSEA 230153Z 2 1/2SM FU HZ BKN034 27/12 A2988 RMK AO2 SLP122 FU BKN034 T02670122=
201808230053 METAR KSEA 230053Z 22006KT 2 1/2SM FU HZ BKN032 31/09 A2988 RMK AO2 SLP122 FU BKN032 T03110094=
201808230009 SPECI KSEA 230009Z 23004KT 2 1/2SM FU HZ SCT033 31/10 A2989 RMK AO2 FU SCT033 T03110100=
201808222353 METAR KSEA 222353Z VRB04KT 3SM FU HZ FEW039 31/08 A2989 RMK AO2 SLP126 FU FEW039 T03060083 10317 20239 56011=
201808222253 METAR KSEA 222253Z 27005KT 3SM FU HZ FEW032 31/05 A2990 RMK AO2 SLP129 FU FEW032 T03110050=
201808222213 SPECI KSEA 222213Z 28004KT 3SM FU HZ SCT028 31/09 A2991 RMK AO2 FU SCT028 T03060089=
201808222153 METAR KSEA 222153Z 28004KT 3SM FU HZ BKN026 31/11 A2991 RMK AO2 SLP132 FU BKN026 T03060111=
201808222131 SPECI KSEA 222131Z 29004KT 3SM FU HZ BKN029 29/12 A2992 RMK AO2 FU BKN029 T02940117=
201808222053 METAR KSEA 222053Z 27006KT 3SM FU HZ SCT032 28/13 A2993 RMK AO2 SLP137 FU SCT032 T02830128 58010=
201808221953 METAR KSEA 221953Z 29005KT 4SM FU HZ SCT033 27/12 A2994 RMK AO2 SLP140 FU SCT033 T02720122=
201808221853 METAR KSEA 221853Z 27005KT 4SM FU HZ SCT035 26/12 A2995 RMK AO2 SLP144 FU SCT035 T02560122=
201808221753 METAR KSEA 221753Z 28004KT 4SM FU HZ SCT034 24/12 A2996 RMK AO2 SLP147 FU SCT034 T02390122 10239 20172 58003=
201808221653 METAR KSEA 221653Z 00000KT 4SM FU HZ SCT040 22/12 A2996 RMK AO2 SLP150 FU SCT040 T02220122=
201808221553 METAR KSEA 221553Z 13004KT 4SM FU HZ BKN040 21/09 A2997 RMK AO2 SLP151 FU BKN040 T02060094=
201808221453 METAR KSEA 221453Z 19003KT 4SM FU HZ BKN038 18/12 A2996 RMK AO2 SLP150 FU BKN038 T01830117 53003=
201808221353 METAR KSEA 221353Z 13006KT 3SM FU HZ BKN042 18/11 A2996 RMK AO2 SLP148 FU BKN042 T01830106=
201808221253 METAR KSEA 221253Z 16003KT 4SM FU HZ OVC041 18/12 A2995 RMK AO2 SLP145 FU OVC041 T01830117=
201808221153 METAR KSEA 221153Z 14004KT 3SM FU HZ OVC039 18/12 A2996 RMK AO2 SLP146 FU OVC039 T01830122 10250 20178 56004=
201808221053 METAR KSEA 221053Z 12003KT 3SM FU HZ OVC038 19/12 A2996 RMK AO2 SLP147 FU OVC038 T01890122=
201808220953 METAR KSEA 220953Z 13003KT 3SM FU HZ OVC038 20/12 A2996 RMK AO2 SLP147 FU OVC038 T02000117=
201808220853 METAR KSEA 220853Z 00000KT 3SM FU HZ OVC035 20/12 A2997 RMK AO2 SLP150 FU OVC035 T02000122 53002=
201808220753 METAR KSEA 220753Z 34004KT 3SM FU HZ OVC032 22/12 A2997 RMK AO2 SLP150 FU OVC032 T02170117 403280183=
201808220653 METAR KSEA 220653Z 03006KT 3SM FU HZ OVC031 24/11 A2996 RMK AO2 SLP148 FU OVC031 T02440111=
201808220553 METAR KSEA 220553Z 01006KT 3SM FU HZ OVC032 24/11 A2996 RMK AO2 SLP148 FU OVC032 T02390111 10322 20233 58001=
201808220453 METAR KSEA 220453Z 03007KT 3SM FU HZ OVC030 26/11 A2997 RMK AO2 SLP151 FU OVC030 T02560106=
201808220445 SPECI KSEA 220445Z 01005KT 3SM FU HZ OVC030 24/11 A2997 RMK AO2 FU OVC030 T02440106=
201808220353 METAR KSEA 220353Z 36003KT 3SM FU HZ BKN027 26/11 A2997 RMK AO2 SLP152 FU BKN027 T02610111=
201808220253 METAR KSEA 220253Z 34006KT 3SM FU HZ BKN023 27/11 A2997 RMK AO2 SLP150 FU BKN023 T02670111 56006=
201808220153 METAR KSEA 220153Z 35008KT 3SM FU HZ BKN024 30/11 A2997 RMK AO2 SLP152 FU BKN024 T03000106=
201808220109 SPECI KSEA 220109Z 33008KT 3SM FU HZ BKN022 31/08 A2998 RMK AO2 FU BKN022 T03110083=
201808220053 METAR KSEA 220053Z 35009G18KT 3SM FU HZ SCT024 32/08 A2998 RMK AO2 SLP154 FU SCT024 T03170078=
201808212353 METAR KSEA 212353Z 36010KT 3SM FU HZ CLR 32/09 A2998 RMK AO2 SLP156 T03220089 10328 20289 56017=
201808212253 METAR KSEA 212253Z 33010KT 3SM FU HZ CLR 32/10 A3000 RMK AO2 SLP160 T03170100=
201808212153 METAR KSEA 212153Z 32007KT 280V010 3SM FU HZ FEW035 32/11 A3002 RMK AO2 SLP168 FU FEW035 T03170106=
201808212053 METAR KSEA 212053Z 36010KT 3SM FU HZ SCT035 31/11 A3004 RMK AO2 SLP173 FU SCT035 T03110106 58012=
201808211953 METAR KSEA 211953Z 35009KT 3SM FU HZ FEW040 30/12 A3005 RMK AO2 SLP177 FU FEW040 T03000117=
201808211853 METAR KSEA 211853Z 01010KT 3SM FU HZ FEW043 29/12 A3006 RMK AO2 SLP182 FU FEW043 T02940122=
201808211800 SPECI KSEA 211800Z 06009KT 4SM FU HZ FEW043 29/08 A3007 RMK AO2 T02940078=
201808211753 METAR KSEA 211753Z 05010KT 2SM FU HZ FEW047 29/08 A3007 RMK AO2 TWR VIS 5 SLP185 FU FEW047 T02890078 10289 20183 58002=
201808211653 METAR KSEA 211653Z 08007KT 2SM FU HZ FEW050 27/09 A3007 RMK AO2 TWR VIS 5 SLP187 FU FEW050 T02670089=
201808211629 SPECI KSEA 211629Z 08007KT 2SM FU HZ FEW050 26/09 A3007 RMK AO2 TWR VIS 5 FU FEW050 T02560089=
201808211553 METAR KSEA 211553Z 07005KT 1 1/2SM FU HZ SCT048 24/11 A3008 RMK AO2 TWR VIS 5 SLP188 FU SCT048 T02440106=
201808211453 METAR KSEA 211453Z 35004KT 1 1/2SM FU HZ BKN048 21/14 A3008 RMK AO2 TWR VIS 5 SLP189 FU BKN048 T02060144 53004=
201808211353 METAR KSEA 211353Z 03005KT 1 1/2SM FU HZ BKN050 20/14 A3007 RMK AO2 TWR VIS 3 SLP185 FU BKN050 T02000139=
201808211340 SPECI KSEA 211340Z 04005KT 1 1/2SM FU HZ BKN050 21/14 A3007 RMK AO2 TWR VIS 3 FU BKN050 T02060139=
201808211327 SPECI KSEA 211327Z 04005KT 2SM FU HZ OVC050 21/14 A3007 RMK AO2 TWR VIS 3 FU OVC050 T02060139=
201808211253 METAR KSEA 211253Z 04005KT 3SM FU HZ OVC050 19/15 A3007 RMK AO2 SLP184 FU OVC050 T01940150=
201808211153 METAR KSEA 211153Z 03007KT 3SM FU HZ OVC048 20/16 A3007 RMK AO2 SLP184 FU OVC048 T02000156 10233 20200 53005=
201808211053 METAR KSEA 211053Z 06007KT 3SM FU HZ OVC047 20/16 A3006 RMK AO2 SLP181 FU OVC047 T02000156=
201808210953 METAR KSEA 210953Z 06007KT 3SM FU HZ OVC045 21/16 A3005 RMK AO2 SLP180 FU OVC045 T02060156=
201808210853 METAR KSEA 210853Z 04006KT 3SM FU HZ OVC042 21/16 A3005 RMK AO2 SLP179 FU OVC042 T02110156 51008=
201808210753 METAR KSEA 210753Z 03003KT 3SM FU HZ OVC043 22/16 A3004 RMK AO2 SLP177 FU OVC043 T02170156 402720139=
201808210653 METAR KSEA 210653Z 08005KT 3SM FU HZ OVC045 22/16 A3004 RMK AO2 SLP174 T02220156=
201808210453 METAR KSEA 210453Z 31004KT 3SM FU HZ OVC048 22/14 A3002 RMK AO2 SLP170 FU OVC048 T02220144=
201808210353 METAR KSEA 210353Z 05005KT 3SM FU HZ OVC045 24/14 A3002 RMK AO2 SLP169 FU OVC045 T02390139=
201808210253 METAR KSEA 210253Z 03007KT 3SM FU HZ OVC029 25/13 A3000 RMK AO2 SLP162 FU OVC029 T02500133 53001=
201808210153 METAR KSEA 210153Z 01008KT 3SM FU HZ OVC025 26/13 A2999 RMK AO2 SLP161 FU OVC025 T02610128=
201808210053 METAR KSEA 210053Z 36010KT 3SM FU HZ OVC025 27/12 A2999 RMK AO2 SLP160 FU OVC025 T02670122=
201808202353 METAR KSEA 202353Z 36010KT 3SM FU HZ OVC028 27/12 A2999 RMK AO2 SLP159 FU OVC028 T02720122 10272 20211 56008=
201808202253 METAR KSEA 202253Z 36007KT 3SM FU HZ OVC025 27/12 A3000 RMK AO2 SLP161 FU OVC025 T02720122=
201808202153 METAR KSEA 202153Z 00000KT 3SM FU HZ OVC025 26/12 A3001 RMK AO2 SLP165 FU OVC025 T02610122=
201808202053 METAR KSEA 202053Z 31008KT 3SM FU HZ OVC025 26/11 A3002 RMK AO2 SLP168 FU OVC025 T02560111 58013=
201808202001 SPECI KSEA 202001Z 35010KT 310V010 4SM FU HZ OVC027 24/13 A3003 RMK AO2 FU OVC027 T02440128=
201808201953 METAR KSEA 201953Z 01013G18KT 4SM FU HZ OVC030 25/12 A3003 RMK AO2 SLP172 FU OVC030 T02500122=
201808201853 METAR KSEA 201853Z 31005KT 3SM FU HZ OVC035 23/14 A3005 RMK AO2 SLP178 FU OVC035 T02280139=
201808201753 METAR KSEA 201753Z 00000KT 4SM FU HZ OVC033 21/14 A3005 RMK AO2 SLP182 FU OVC033 T02110139 10217 20139 56001=
201808201653 METAR KSEA 201653Z 04007KT 5SM HZ FU OVC036 19/13 A3005 RMK AO2 SLP182 FU OVC036 T01940133=
201808201553 METAR KSEA 201553Z 29004KT 6SM HZ FU OVC037 17/13 A3006 RMK AO2 SLP183 FU OVC037 T01720128 $=
201808201453 METAR KSEA 201453Z 29003KT 6SM BR FU OVC039 15/13 A3006 RMK AO2 SLP183 FU OVC039 T01500128 53007=
201808201353 METAR KSEA 201353Z 00000KT 6SM HZ FU OVC043 15/12 A3005 RMK AO2 SLP179 FU OVC043 T01500122=
201808201253 METAR KSEA 201253Z 00000KT 6SM HZ FU OVC040 15/12 A3004 RMK AO2 SLP176 FU OVC040 T01500117=
201808201153 METAR KSEA 201153Z 34003KT 5SM HZ FU OVC041 16/12 A3004 RMK AO2 SLP176 FU OVC041 T01610122 10206 20161 53004=
201808201053 METAR KSEA 201053Z 00000KT 5SM HZ FU OVC048 17/12 A3003 RMK AO2 SLP173 FU OVC048 T01670122=
201808200953 METAR KSEA 200953Z 35003KT 5SM HZ FU OVC045 17/12 A3003 RMK AO2 SLP171 FU OVC045 T01720122=
201808200853 METAR KSEA 200853Z 00000KT 5SM HZ FU OVC045 17/13 A3003 RMK AO2 SLP172 FU OVC045 T01670128 55001=
201808200753 METAR KSEA 200753Z 00000KT 4SM HZ FU OVC045 17/13 A3003 RMK AO2 SLP172 FU OVC045 T01720133 402670144=
201808200653 METAR KSEA 200653Z 02008KT 4SM HZ FU OVC044 20/14 A3003 RMK AO2 SLP173 FU OVC044 T02000139=
201808200553 METAR KSEA 200553Z 01007KT 4SM HZ FU BKN044 20/13 A3003 RMK AO2 SLP174 FU BKN044 T02000133 10261 20189 50005=
201808200453 METAR KSEA 200453Z 36005KT 3SM HZ FU BKN042 21/13 A3003 RMK AO2 SLP174 FU BKN042 T02060133=
201808200415 SPECI KSEA 200415Z 33005KT 3SM HZ FU BKN030 20/13 A3003 RMK AO2 FU BKN030 T02000128=
201808200353 METAR KSEA 200353Z 34005KT 1 1/2SM HZ FU BKN037 21/12 A3003 RMK AO2 TWR VIS 2 1/2 SLP173 FU BKN037 T02060122=
201808200341 SPECI KSEA 200341Z 33004KT 1 1/2SM HZ FU BKN037 21/12 A3003 RMK AO2 TWR VIS 2 1/2 FU BKN037 T02060122=
201808200333 SPECI KSEA 200333Z 34006KT 2 1/2SM HZ FU BKN031 21/12 A3002 RMK AO2 FU BKN031 T02110122=
201808200304 SPECI KSEA 200304Z 30004KT 1 1/2SM HZ FU BKN031 21/12 A3002 RMK AO2 TWR VIS 2 1/2 FU BKN031 T02060122=
201808200253 METAR KSEA 200253Z 00000KT 1 1/2SM HZ FU BKN027 22/12 A3002 RMK AO2 TWR VIS 2 1/2 SLP168 FU BKN027 T02170117 55000=
201808200153 METAR KSEA 200153Z 34005KT 1 1/2SM HZ FU BKN019 23/11 A3001 RMK AO2 TWR VIS 2 1/2 SLP166 FU BKN019 T02330111=
201808200053 METAR KSEA 200053Z 35011KT 1 1/2SM HZ FU SCT038 24/12 A3001 RMK AO2 TWR VIS 2 1/2 SLP168 FU SCT038 T02440117=
201808192353 METAR KSEA 192353Z 01011KT 1 1/2SM HZ FU OVC030 26/12 A3002 RMK AO2 TWR VIS 2 1/2 SLP169 FU OVC030 T02610117 10267 20206 56014=
201808192253 METAR KSEA 192253Z 35007KT 3SM HZ FU SCT032 26/13 A3003 RMK AO2 SLP173 FU SCT032 T02610133=
201808192153 METAR KSEA 192153Z 31008KT 7SM FEW043 26/13 A3004 RMK AO2 SLP178 T02610133=
201808192053 METAR KSEA 192053Z 28009KT 6SM HZ FU CLR 24/13 A3006 RMK AO2 SLP183 T02390133 58014=
201808191953 METAR KSEA 191953Z 29008KT 7SM CLR 23/14 A3007 RMK AO2 SLP187 T02330139=
201808191853 METAR KSEA 191853Z 30008KT 10SM CLR 22/13 A3009 RMK AO2 SLP193 T02220128=
201808191753 METAR KSEA 191753Z 30006KT 10SM CLR 21/13 A3010 RMK AO2 SLP197 T02110133 10211 20144 56005=
201808191653 METAR KSEA 191653Z 28004KT 10SM CLR 19/13 A3010 RMK AO2 SLP198 T01940133=
201808191553 METAR KSEA 191553Z 02003KT 10SM CLR 19/13 A3011 RMK AO2 SLP200 T01890133=
201808191453 METAR KSEA 191453Z 34003KT 8SM CLR 17/13 A3011 RMK AO2 SLP202 T01720128 53004=
201808191353 METAR KSEA 191353Z 01003KT 9SM CLR 16/12 A3011 RMK AO2 SLP199 T01560122=
201808191253 METAR KSEA 191253Z 34005KT 10SM CLR 15/12 A3010 RMK AO2 SLP198 T01500117=
201808191153 METAR KSEA 191153Z 00000KT 10SM CLR 15/12 A3010 RMK AO2 SLP198 T01500117 10200 20150 53001=
201808191053 METAR KSEA 191053Z 00000KT 10SM CLR 16/12 A3010 RMK AO2 SLP196 T01560122=
201808190953 METAR KSEA 190953Z 00000KT 10SM CLR 16/12 A3010 RMK AO2 SLP196 T01610117=
201808190853 METAR KSEA 190853Z 00000KT 10SM CLR 17/12 A3010 RMK AO2 SLP196 T01720117 58002=
201808190753 METAR KSEA 190753Z 01006KT 10SM CLR 19/12 A3010 RMK AO2 SLP198 T01890117 402720128=
201808190653 METAR KSEA 190653Z 34006KT 10SM CLR 18/12 A3010 RMK AO2 SLP197 T01830117=
201808190553 METAR KSEA 190553Z 35008KT 10SM FEW200 19/11 A3010 RMK AO2 SLP198 T01940111 10272 20194 58002=
201808190453 METAR KSEA 190453Z 35008KT 9SM FEW200 21/11 A3011 RMK AO2 SLP201 T02110106=
201808190353 METAR KSEA 190353Z 35007KT 8SM FEW200 22/11 A3011 RMK AO2 SLP202 T02170106=
201808190253 METAR KSEA 190253Z 33004KT 8SM FEW200 24/11 A3011 RMK AO2 SLP200 T02390106 56009=
201808190153 METAR KSEA 190153Z 35007KT 7SM FEW200 26/10 A3011 RMK AO2 SLP201 T02560100=
201808190053 METAR KSEA 190053Z 01009KT 10SM FEW200 26/10 A3012 RMK AO2 SLP205 T02610100=
201808182353 METAR KSEA 182353Z 32009KT 10SM FEW200 27/10 A3014 RMK AO2 SLP210 T02670100 10272 20200 56015=
201808182253 METAR KSEA 182253Z 33011KT 10SM CLR 27/10 A3015 RMK AO2 SLP214 T02720100=
201808182153 METAR KSEA 182153Z 29008KT 10SM CLR 26/11 A3016 RMK AO2 SLP219 T02560111=
201808182053 METAR KSEA 182053Z 30007KT 10SM CLR 24/12 A3018 RMK AO2 SLP224 T02390117 58015=
201808181953 METAR KSEA 181953Z VRB05KT 10SM CLR 22/12 A3020 RMK AO2 SLP231 T02170122=
201808181853 METAR KSEA 181853Z 26006KT 10SM CLR 21/12 A3021 RMK AO2 SLP236 T02110122=
201808181753 METAR KSEA 181753Z 28005KT 10SM CLR 20/12 A3022 RMK AO2 SLP239 T02000122 10200 20128 58010=
201808181653 METAR KSEA 181653Z 00000KT 9SM FEW200 18/12 A3024 RMK AO2 SLP244 T01830117=
201808181553 METAR KSEA 181553Z 18003KT 9SM FEW020 FEW200 16/12 A3025 RMK AO2 SLP248 T01560117=
201808181453 METAR KSEA 181453Z 20004KT 8SM FEW020 SCT220 14/12 A3025 RMK AO2 SLP249 T01390117 53007=
201808181353 METAR KSEA 181353Z 00000KT 8SM SCT220 13/11 A3024 RMK AO2 SLP244 T01280111=
201808181253 METAR KSEA 181253Z 18003KT 9SM FEW250 13/11 A3023 RMK AO2 SLP242 T01280111=
201808181153 METAR KSEA 181153Z 19003KT 10SM CLR 13/11 A3023 RMK AO2 SLP242 T01330111 10183 20128 53002=
201808181053 METAR KSEA 181053Z 21004KT 9SM CLR 13/11 A3023 RMK AO2 SLP241 T01330106=
201808180953 METAR KSEA 180953Z 00000KT 10SM CLR 14/11 A3022 RMK AO2 SLP239 T01440111=
201808180853 METAR KSEA 180853Z 00000KT 10SM CLR 15/11 A3023 RMK AO2 SLP241 T01500111 51002=
201808180753 METAR KSEA 180753Z 00000KT 10SM CLR 16/11 A3023 RMK AO2 SLP241 T01560111 402330122=
201808180653 METAR KSEA 180653Z 21003KT 10SM CLR 17/12 A3022 RMK AO2 SLP240 T01670117=
201808180553 METAR KSEA 180553Z 20004KT 10SM CLR 18/12 A3022 RMK AO2 SLP239 T01780117 10233 20178 50007=
201808180453 METAR KSEA 180453Z 21005KT 10SM CLR 20/12 A3022 RMK AO2 SLP239 T02000117=
201808180353 METAR KSEA 180353Z 18003KT 10SM CLR 21/12 A3022 RMK AO2 SLP237 T02060117=
201808180253 METAR KSEA 180253Z 18004KT 10SM CLR 21/12 A3020 RMK AO2 SLP232 T02110117 56006=
201808180153 METAR KSEA 180153Z 21004KT 10SM CLR 23/12 A3020 RMK AO2 SLP231 T02280117=
201808180053 METAR KSEA 180053Z 25005KT 10SM CLR 23/12 A3021 RMK AO2 SLP235 T02280117=
201808172353 METAR KSEA 172353Z 24007KT 10SM CLR 22/12 A3022 RMK AO2 SLP237 T02220117 10228 20161 56012=
201808172253 METAR KSEA 172253Z 23007KT 10SM CLR 22/11 A3023 RMK AO2 SLP241 T02170111=
201808172153 METAR KSEA 172153Z 21006G14KT 10SM CLR 21/11 A3024 RMK AO2 SLP246 T02060111=
201808172053 METAR KSEA 172053Z VRB06KT 10SM CLR 19/11 A3025 RMK AO2 SLP250 T01940106 58003=
201808171953 METAR KSEA 171953Z VRB06KT 10SM FEW021 18/11 A3026 RMK AO2 SLP251 T01830106=
201808171933 SPECI KSEA 171933Z 21006KT 10SM FEW021 18/11 A3026 RMK AO2 T01780106=
201808171853 METAR KSEA 171853Z 26007KT 10SM BKN019 BKN040 17/11 A3027 RMK AO2 SLP254 T01670106=
201808171753 METAR KSEA 171753Z 26005KT 10SM BKN018 OVC030 17/11 A3026 RMK AO2 SLP253 T01670106 10167 20122 52009=
201808171731 SPECI KSEA 171731Z 24006KT 10SM BKN016 OVC030 16/10 A3026 RMK AO2 T01610100=
201808171653 METAR KSEA 171653Z VRB06KT 10SM OVC012 15/10 A3025 RMK AO2 SLP250 T01500100=
201808171553 METAR KSEA 171553Z 20006KT 10SM BKN011 OVC020 14/10 A3025 RMK AO2 SLP248 T01390100=
201808171453 METAR KSEA 171453Z 19007KT 9SM OVC009 13/10 A3024 RMK AO2 SLP244 T01330100 53014=
201808171353 METAR KSEA 171353Z 17005KT 9SM OVC009 13/10 A3022 RMK AO2 SLP240 T01280100=
201808171253 METAR KSEA 171253Z 18005KT 10SM BKN008 OVC030 13/10 A3020 RMK AO2 SLP232 T01280100=
201808171245 SPECI KSEA 171245Z 18006KT 10SM BKN008 OVC030 13/10 A3020 RMK AO2 T01280100=
201808171153 METAR KSEA 171153Z 20007KT 10SM SCT008 13/10 A3019 RMK AO2 SLP229 T01280100 10167 20128 52008=
201808171117 SPECI KSEA 171117Z 21005KT 10SM SCT009 13/11 A3019 RMK AO2 T01280106=
201808171053 METAR KSEA 171053Z 20005KT 10SM CLR 13/10 A3019 RMK AO2 SLP226 T01280100=
201808170953 METAR KSEA 170953Z 22005KT 10SM CLR 13/11 A3018 RMK AO2 SLP224 T01330106=
201808170853 METAR KSEA 170853Z 20006KT 10SM CLR 14/11 A3017 RMK AO2 SLP221 T01440106 51015=
201808170753 METAR KSEA 170753Z 20006KT 10SM CLR 15/11 A3015 RMK AO2 SLP216 T01500111 402280144=
201808170653 METAR KSEA 170653Z 19006KT 10SM CLR 16/12 A3014 RMK AO2 SLP213 T01610117=
201808170553 METAR KSEA 170553Z 20006KT 10SM CLR 17/12 A3013 RMK AO2 SLP207 T01670122 10222 20167 51017=
201808170453 METAR KSEA 170453Z 25003KT 10SM CLR 18/13 A3011 RMK AO2 SLP202 T01830133=
201808170353 METAR KSEA 170353Z 26003KT 10SM CLR 20/13 A3009 RMK AO2 SLP195 T02000133=
201808170253 METAR KSEA 170253Z 00000KT 8SM CLR 21/13 A3007 RMK AO2 SLP188 T02110133 53000=
201808170153 METAR KSEA 170153Z 28004KT 10SM CLR 22/13 A3007 RMK AO2 SLP188 T02170133=
201808170053 METAR KSEA 170053Z 00000KT 9SM CLR 22/13 A3007 RMK AO2 SLP188 T02170133=
201808162353 METAR KSEA 162353Z VRB06KT 10SM CLR 22/13 A3007 RMK AO2 SLP188 T02220133 10228 20161 56008=
201808162253 METAR KSEA 162253Z 24008KT 10SM CLR 22/13 A3008 RMK AO2 SLP190 T02220133=
201808162153 METAR KSEA 162153Z VRB05KT 10SM FEW015 21/13 A3009 RMK AO2 SLP194 T02060133=
201808162124 SPECI KSEA 162124Z 24005KT 8SM SCT015 19/13 A3010 RMK AO2 T01940128=
201808162111 SPECI KSEA 162111Z 25007KT 8SM BKN015 19/13 A3010 RMK AO2 T01940133=
201808162053 METAR KSEA 162053Z 26006KT 7SM BKN014 19/13 A3010 RMK AO2 SLP197 T01890128 50003=
201808162001 SPECI KSEA 162001Z 26007KT 6SM HZ OVC010 17/13 A3010 RMK AO2 T01720128=
201808161953 METAR KSEA 161953Z VRB05KT 6SM HZ OVC009 17/13 A3010 RMK AO2 SLP199 T01670128=
201808161853 METAR KSEA 161853Z 23005KT 3SM HZ OVC008 17/13 A3010 RMK AO2 SFC VIS 6 SLP197 T01670128=
201808161753 METAR KSEA 161753Z 20006KT 3SM HZ OVC006 17/13 A3009 RMK AO2 SFC VIS 5 SLP194 T01670133 10167 20144 53005=
201808161749 SPECI KSEA 161749Z 22006KT 3SM HZ OVC006 16/13 A3009 RMK AO2 SFC VIS 4=
201808161653 METAR KSEA 161653Z 22006KT 2 1/2SM BR OVC005 16/13 A3009 RMK AO2 SFC VIS 4 SLP192 T01560133=
201808161651 SPECI KSEA 161651Z 21006KT 2 1/2SM BR OVC005 16/13 A3009 RMK AO2 SFC VIS 4=
201808161553 METAR KSEA 161553Z 23006KT 1 1/4SM BR OVC004 15/13 A3008 RMK AO2 SFC VIS 3 SLP190 T01500133=
201808161453 METAR KSEA 161453Z 23006KT 1 1/4SM BR OVC003 15/13 A3008 RMK AO2 SFC VIS 2 SLP189 T01500133 52018=
201808161353 METAR KSEA 161353Z 21009KT 1/4SM BR OVC002 14/13 A3006 RMK AO2 SFC VIS 1 SLP183 T01440133 RVRNO=
201808161253 METAR KSEA 161253Z 21006KT 1/2SM FG OVC002 14/13 A3004 RMK AO2 SLP175 T01440133 RVRNO=
201808161153 METAR KSEA 161153Z 22006KT 1/2SM FG OVC002 14/13 A3002 RMK AO2 SLP170 T01440133 10200 20144 51015 RVRNO=
201808161053 METAR KSEA 161053Z 23009KT 3/4SM BR OVC002 15/13 A3001 RMK AO2 SLP165 T01500133 RVRNO=
201808161038 SPECI KSEA 161038Z 21008KT 1SM BR OVC002 15/13 A3000 RMK AO2 SFC VIS 3 T01500133=
201808161029 SPECI KSEA 161029Z 21007KT 5SM BR OVC003 15/13 A3000 RMK AO2 T01500133=
201808160953 METAR KSEA 160953Z 20009KT 7SM FEW004 15/13 A3000 RMK AO2 SLP160 T01500133=
201808160935 SPECI KSEA 160935Z 20006KT 7SM FEW005 16/13 A2999 RMK AO2 T01560133=
201808160853 METAR KSEA 160853Z 19006KT 7SM CLR 16/14 A2998 RMK AO2 SLP155 T01610139 51015=
201808160753 METAR KSEA 160753Z 20004KT 7SM CLR 18/13 A2997 RMK AO2 SLP151 T01780128 403000161=
201808160653 METAR KSEA 160653Z 27004KT 7SM CLR 19/12 A2995 RMK AO2 SLP145 T01940117=
201808160553 METAR KSEA 160553Z 28003KT 8SM CLR 20/12 A2994 RMK AO2 SLP140 T02000122 10300 20200 51015=
201808160453 METAR KSEA 160453Z 28004KT 7SM CLR 22/12 A2992 RMK AO2 SLP136 T02220122=
201808160353 METAR KSEA 160353Z 29005KT 7SM CLR 24/11 A2991 RMK AO2 SLP131 T02390111=
201808160253 METAR KSEA 160253Z 29004KT 6SM HZ FU CLR 26/11 A2989 RMK AO2 SLP125 T02560111 53001=
201808160153 METAR KSEA 160153Z 29005KT 6SM HZ FU CLR 28/13 A2989 RMK AO2 SLP123 T02780128=
201808160053 METAR KSEA 160053Z 29007KT 7SM CLR 29/12 A2989 RMK AO2 SLP124 T02890117=
201808152353 METAR KSEA 152353Z 30007KT 6SM HZ FU CLR 29/13 A2989 RMK AO2 SLP124 T02940128 10300 20233 56008=
201808152253 METAR KSEA 152253Z 29006G15KT 6SM HZ FU CLR 30/14 A2989 RMK AO2 SLP126 T03000139=
201808152153 METAR KSEA 152153Z 33007KT 6SM HZ FU CLR 30/12 A2990 RMK AO2 SLP129 T03000117=
201808152053 METAR KSEA 152053Z 28007KT 5SM FU HZ FEW040 28/12 A2991 RMK AO2 SLP133 FU FEW040 T02830117 57006=
201808151953 METAR KSEA 151953Z 29006KT 3SM FU HZ SCT040 26/14 A2992 RMK AO2 SLP135 FU SCT040 T02610144=
201808151853 METAR KSEA 151853Z VRB03KT 3SM FU HZ SCT040 26/14 A2993 RMK AO2 SLP138 FU SCT040 T02560139=
201808151753 METAR KSEA 151753Z 29004KT 3SM FU HZ SCT040 23/14 A2993 RMK AO2 SLP139 FU SCT040 T02330144 10233 20161 58001=
201808151653 METAR KSEA 151653Z 20004KT 3SM FU HZ BKN040 21/14 A2994 RMK AO2 SLP141 FU BKN040 T02110144=
201808151553 METAR KSEA 151553Z VRB03KT 3SM FU HZ BKN040 20/14 A2994 RMK AO2 SLP142 FU BKN040 T02000144=
201808151453 METAR KSEA 151453Z 18004KT 3SM FU HZ BKN040 18/14 A2994 RMK AO2 SLP141 FU BKN040 T01780144 52013=
201808151353 METAR KSEA 151353Z 17004KT 3SM FU HZ OVC040 17/14 A2992 RMK AO2 SLP137 FU OVC040 T01670139=
201808151253 METAR KSEA 151253Z 00000KT 3SM FU HZ OVC040 17/13 A2991 RMK AO2 SLP132 FU OVC040 T01670133=
201808151153 METAR KSEA 151153Z 00000KT 4SM HZ FU OVC040 17/14 A2990 RMK AO2 SLP128 FU OVC040 T01720139 10233 20167 51009=
201808151053 METAR KSEA 151053Z 00000KT 4SM HZ FU OVC039 18/13 A2989 RMK AO2 SLP125 FU OVC039 T01830133=
201808150953 METAR KSEA 150953Z 00000KT 4SM HZ FU OVC038 18/14 A2989 RMK AO2 SLP124 FU OVC038 T01830139=
201808150853 METAR KSEA 150853Z 35003KT 4SM HZ FU BKN036 20/14 A2987 RMK AO2 SLP119 FU BKN036 T02000144 51006=
201808150753 METAR KSEA 150753Z 34004KT 4SM HZ FU BKN037 20/14 A2987 RMK AO2 SLP117 FU BKN037 T02000144 402940167=
201808150653 METAR KSEA 150653Z 35005KT 4SM HZ FU BKN035 21/14 A2986 RMK AO2 SLP115 FU BKN035 T02060144=
201808150553 METAR KSEA 150553Z 01007KT 4SM HZ FU BKN035 23/15 A2985 RMK AO2 SLP112 FU BKN035 T02330150 10294 20228 51006=
201808150453 METAR KSEA 150453Z 35006KT 4SM HZ FU BKN040 23/13 A2985 RMK AO2 SLP112 FU BKN040 T02330128=
201808150353 METAR KSEA 150353Z 35007KT 4SM HZ FU OVC038 24/12 A2984 RMK AO2 SLP107 FU OVC038 T02390122=
201808150253 METAR KSEA 150253Z 35005KT 3SM HZ FU BKN033 26/12 A2983 RMK AO2 SLP106 FU BKN033 T02610122 56008=
201808150153 METAR KSEA 150153Z 36008KT 3SM HZ FU BKN037 28/12 A2984 RMK AO2 SLP108 FU BKN037 T02830117=
201808150053 METAR KSEA 150053Z 29005KT 3SM HZ FU FEW037 28/14 A2985 RMK AO2 SLP110 FU FEW037 T02830144=
201808142353 METAR KSEA 142353Z 29007KT 3SM HZ FU CLR 29/14 A2986 RMK AO2 SLP114 T02890139 10289 20233 56019=
201808142253 METAR KSEA 142253Z 28008KT 3SM HZ FU CLR 28/14 A2987 RMK AO2 SLP119 T02830144=
201808142153 METAR KSEA 142153Z 30008KT 3SM HZ FU FEW038 28/16 A2989 RMK AO2 SLP126 FU FEW038 T02780156=
201808142053 METAR KSEA 142053Z 29006KT 3SM HZ FU SCT037 27/16 A2991 RMK AO2 SLP133 FU SCT037 T02720156 58014=
201808141953 METAR KSEA 141953Z 28008KT 3SM HZ FU SCT037 26/16 A2993 RMK AO2 SLP138 FU SCT037 T02560156=
201808141853 METAR KSEA 141853Z 28005KT 3SM HZ FU SCT036 24/16 A2994 RMK AO2 SLP143 FU SCT036 T02440156=
201808141753 METAR KSEA 141753Z VRB05KT 3SM HZ FU SCT050 24/16 A2996 RMK AO2 SLP147 FU SCT050 T02390156 10239 20167 58005=
201808141653 METAR KSEA 141653Z 05004KT 3SM HZ FU SCT050 22/16 A2996 RMK AO2 SLP149 FU SCT050 T02220156=
201808141553 METAR KSEA 141553Z 03003KT 3SM HZ FU SCT050 20/16 A2997 RMK AO2 SLP153 FU SCT050 T02000156=
201808141453 METAR KSEA 141453Z 36004KT 3SM HZ FU SCT050 18/15 A2997 RMK AO2 SLP153 FU SCT050 T01830150 53004=
201808141353 METAR KSEA 141353Z 00000KT 3SM BR FU BKN050 17/14 A2996 RMK AO2 SLP150 FU SCT050 T01670144=
201808141253 METAR KSEA 141253Z 04006KT 4SM HZ FU SCT050 17/14 A2996 RMK AO2 SLP149 FU SCT050 T01720144=
201808141153 METAR KSEA 141153Z 35007KT 6SM HZ FU BKN045 17/14 A2996 RMK AO2 SLP149 FU BKN045 T01670139 10206 20167 58005=
201808141053 METAR KSEA 141053Z 02004KT 6SM HZ FU BKN046 18/14 A2997 RMK AO2 SLP150 FU BKN046 T01780139=
201808140953 METAR KSEA 140953Z 36006KT 6SM HZ FU BKN044 18/14 A2997 RMK AO2 SLP153 FU BKN044 T01830139=
201808140853 METAR KSEA 140853Z 03007KT 6SM HZ FU BKN040 19/14 A2997 RMK AO2 SLP153 FU BKN040 T01890139 56003=
201808140753 METAR KSEA 140753Z 01011KT 6SM HZ FU BKN040 19/13 A2998 RMK AO2 SLP155 FU BKN040 T01940133 402610150=
201808140653 METAR KSEA 140653Z 02007KT 6SM HZ FU BKN041 19/14 A2998 RMK AO2 SLP156 FU BKN041 T01940144=
201808140553 METAR KSEA 140553Z 03009KT 6SM HZ FU BKN042 21/14 A2998 RMK AO2 SLP157 FU BKN042 T02060139 10256 20206 50002=
201808140453 METAR KSEA 140453Z 36010KT 6SM HZ FU BKN042 21/14 A2998 RMK AO2 SLP158 FU BKN042 T02060144=
201808140353 METAR KSEA 140353Z 35009KT 6SM FU HZ BKN038 21/14 A2998 RMK AO2 SLP158 FU BKN038 T02060144=
201808140253 METAR KSEA 140253Z 36007KT 5SM HZ FU BKN035 22/14 A2998 RMK AO2 SLP155 FU BKN035 T02220144 55009=
201808140153 METAR KSEA 140153Z 36008KT 6SM HZ FU SCT038 24/14 A2997 RMK AO2 SLP154 FU SCT038 T02390144=
201808140053 METAR KSEA 140053Z VRB06KT 6SM HZ FU FEW046 26/14 A2999 RMK AO2 SLP158 FU FEW046 T02560144=
201808132353 METAR KSEA 132353Z 32009KT 6SM HZ FU SCT040 26/14 A3000 RMK AO2 SLP164 FU SCT040 T02560144 10261 20206 58017=
201808132253 METAR KSEA 132253Z 03007KT 6SM HZ FEW036 26/14 A3002 RMK AO2 SLP169 T02560139=
201808132153 METAR KSEA 132153Z 36007KT 7SM CLR 25/14 A3004 RMK AO2 SLP177 T02500144=
201808132053 METAR KSEA 132053Z 01007KT 7SM CLR 24/14 A3005 RMK AO2 SLP181 T02440144 58014=
201808131953 METAR KSEA 131953Z 27008KT 7SM CLR 23/14 A3006 RMK AO2 SLP185 T02280139=
201808131853 METAR KSEA 131853Z VRB04KT 9SM CLR 22/14 A3008 RMK AO2 SLP192 T02220139=
201808131753 METAR KSEA 131753Z VRB04KT 10SM FEW015 21/14 A3009 RMK AO2 SLP195 T02060139 10211 20150 58008=
201808131653 METAR KSEA 131653Z VRB06KT 10SM SCT011 19/13 A3010 RMK AO2 SLP199 T01940133=
201808131553 METAR KSEA 131553Z 02007KT 10SM BKN011 17/13 A3012 RMK AO2 SLP204 T01720128=
201808131513 SPECI KSEA 131513Z 03008KT 10SM BKN011 BKN050 17/12 A3012 RMK AO2 T01670122=
201808131453 METAR KSEA 131453Z 03008KT 10SM FEW050 16/12 A3012 RMK AO2 SLP203 T01610122 53004=
201808131353 METAR KSEA 131353Z 03008KT 10SM CLR 15/12 A3011 RMK AO2 SLP200 T01500117=
201808131253 METAR KSEA 131253Z 03006KT 10SM CLR 15/12 A3010 RMK AO2 SLP198 T01500117=
201808131153 METAR KSEA 131153Z 02008KT 10SM CLR 15/12 A3011 RMK AO2 SLP199 T01500117 10172 20150 58002=
201808131053 METAR KSEA 131053Z 02010KT 10SM CLR 16/12 A3011 RMK AO2 SLP202 T01560117=
201808130953 METAR KSEA 130953Z 03010KT 10SM CLR 16/12 A3011 RMK AO2 SLP200 T01610117=
201808130853 METAR KSEA 130853Z 02010KT 10SM CLR 16/12 A3011 RMK AO2 SLP202 T01610117 58004=
201808130753 METAR KSEA 130753Z 02012KT 10SM CLR 17/12 A3012 RMK AO2 SLP205 T01670117 402280150=
201808130653 METAR KSEA 130653Z 01010KT 10SM CLR 17/12 A3012 RMK AO2 SLP205 T01720117=
201808130553 METAR KSEA 130553Z 01010KT 10SM CLR 17/12 A3013 RMK AO2 SLP206 T01720117 10228 20167 50002=
201808130453 METAR KSEA 130453Z 35007KT 10SM FEW250 17/11 A3013 RMK AO2 SLP207 T01670111=
201808130353 METAR KSEA 130353Z 34007KT 10SM FEW250 17/11 A3012 RMK AO2 SLP206 T01720111=
201808130253 METAR KSEA 130253Z 36008KT 10SM SCT250 19/12 A3012 RMK AO2 SLP203 T01890117 55003=
201808130153 METAR KSEA 130153Z 32007KT 10SM CLR 21/12 A3012 RMK AO2 SLP203 T02110117=
201808130053 METAR KSEA 130053Z 35007KT 10SM FEW035 OVC230 22/12 A3012 RMK AO2 SLP204 T02220122=
201808122353 METAR KSEA 122353Z 30008KT 10SM FEW035 OVC230 22/12 A3013 RMK AO2 SLP206 T02220122 10228 20183 56013=
201808122253 METAR KSEA 122253Z 30009KT 10SM OVC230 22/12 A3014 RMK AO2 SLP210 T02220117=
201808122153 METAR KSEA 122153Z 31008KT 10SM FEW034 SCT070 BKN230 22/12 A3015 RMK AO2 SLP213 T02220117=
201808122053 METAR KSEA 122053Z 29009KT 10SM SCT033 BKN070 OVC230 22/12 A3017 RMK AO2 SLP219 T02170122 58010=
201808121953 METAR KSEA 121953Z 29005KT 10SM SCT028 BKN038 BKN060 21/13 A3019 RMK AO2 SLP227 T02110128=
201808121853 METAR KSEA 121853Z VRB04KT 10SM SCT020 BKN042 BKN060 20/13 A3019 RMK AO2 SLP228 T02000128=
201808121753 METAR KSEA 121753Z 00000KT 10SM SCT020 BKN035 OVC050 18/12 A3020 RMK AO2 SLP230 T01830122 10189 20150 51004=
201808121653 METAR KSEA 121653Z 24005KT 10SM SCT016 BKN022 BKN050 18/13 A3019 RMK AO2 SLP228 T01780128=
201808121553 METAR KSEA 121553Z 21005KT 10SM BKN015 BKN021 BKN040 17/13 A3019 RMK AO2 SLP228 T01720133=
201808121521 SPECI KSEA 121521Z 00000KT 10SM BKN014 OVC040 17/13 A3019 RMK AO2 T01720128=
201808121453 METAR KSEA 121453Z 12003KT 10SM FEW010 BKN040 17/13 A3018 RMK AO2 SLP226 T01670133 51012=
201808121353 METAR KSEA 121353Z 16004KT 10SM FEW010 BKN041 16/13 A3018 RMK AO2 SLP223 T01560133=
201808121253 METAR KSEA 121253Z 00000KT 10SM FEW013 BKN033 15/13 A3017 RMK AO2 SLP220 T01500133=
201808121153 METAR KSEA 121153Z 17004KT 10SM SCT037 15/13 A3015 RMK AO2 SLP214 70005 T01500128 10172 20150 51008=
201808121053 METAR KSEA 121053Z 21006KT 10SM FEW011 BKN037 16/14 A3015 RMK AO2 SLP213 T01610139=
201808120953 METAR KSEA 120953Z 21006KT 10SM FEW011 SCT036 BKN049 16/14 A3013 RMK AO2 SLP208 T01610139=
201808120853 METAR KSEA 120853Z 19004KT 10SM FEW015 SCT039 BKN046 17/13 A3012 RMK AO2 SLP206 T01670133 53003=
201808120753 METAR KSEA 120753Z 18006KT 10SM FEW016 BKN046 17/13 A3012 RMK AO2 SLP205 T01670133 402220167=
201808120653 METAR KSEA 120653Z 19008KT 10SM FEW016 BKN042 BKN060 17/13 A3011 RMK AO2 SLP201 T01720133=
201808120553 METAR KSEA 120553Z 21008KT 10SM SCT060 SCT100 17/13 A3011 RMK AO2 SLP202 60000 T01720133 10206 20172 51012=
201808120453 METAR KSEA 120453Z 21009KT 10SM SCT055 BKN100 18/13 A3011 RMK AO2 RAB0358E06 SLP200 P0000 T01780133=
201808120353 METAR KSEA 120353Z 21010KT 10SM FEW070 BKN090 BKN200 18/14 A3009 RMK AO2 SLP194 T01830139=
201808120253 METAR KSEA 120253Z 20008KT 10SM SCT023 SCT050 BKN090 BKN200 19/14 A3008 RMK AO2 SLP190 TCU DSNT E-SE 60000 T01890139 53009=
201808120153 METAR KSEA 120153Z 20009KT 10SM FEW022 SCT050 BKN100 BKN200 19/14 A3007 RMK AO2 RAE02 SLP186 P0000 T01940144=
201808120053 METAR KSEA 120053Z 21010KT 10SM -RA FEW025 SCT050 BKN100 BKN200 19/16 A3005 RMK AO2 RAB51 SLP181 P0000 T01940161=
201808112353 METAR KSEA 112353Z 20010KT 10SM SCT038 BKN080 BKN095 BKN200 20/16 A3005 RMK AO2 RAB24E47 SLP180 VCSH P0002 60005 T02000161 10222 20172 58009=
201808112253 METAR KSEA 112253Z 22011KT 10SM SCT024 BKN050 BKN085 BKN200 21/14 A3006 RMK AO2 SLP184 T02110144=
201808112153 METAR KSEA 112153Z 21011KT 10SM SCT025 SCT050 BKN090 BKN200 21/15 A3008 RMK AO2 SLP189 T02110150=
201808112053 METAR KSEA 112053Z 20012KT 10SM FEW012 SCT050 BKN090 19/16 A3008 RMK AO2 RAE13 SLP190 P0001 60003 T01940156 53005=
201808111953 METAR KSEA 111953Z 21013KT 7SM -RA FEW025 BKN055 OVC100 17/15 A3007 RMK AO2 RAB42 SLP189 P0002 T01720150=
201808111853 METAR KSEA 111853Z 24009KT 10SM FEW023 BKN040 BKN100 21/14 A3007 RMK AO2 SLP186 T02060139=
201808111833 SPECI KSEA 111833Z 22012KT 10SM SCT021 BKN032 BKN080 21/13 A3006 RMK AO2 T02060133=
201808111753 METAR KSEA 111753Z 22013KT 10SM FEW017 BKN024 BKN080 20/13 A3006 RMK AO2 SLP185 T02000133 10211 20172 53002=
201808111712 SPECI KSEA 111712Z 21011KT 10SM FEW020 BKN028 BKN080 20/13 A3006 RMK AO2 T02000133=
201808111653 METAR KSEA 111653Z 21011KT 10SM FEW020 BKN041 BKN080 21/13 A3006 RMK AO2 SLP183 T02110133=
201808111553 METAR KSEA 111553Z 22013KT 10SM FEW018 SCT030 BKN080 19/13 A3006 RMK AO2 SLP182 T01890133=
201808111453 METAR KSEA 111453Z 21008KT 10SM FEW018 BKN030 BKN075 18/13 A3006 RMK AO2 SLP182 T01780128 51010=
201808111353 METAR KSEA 111353Z 18008KT 10SM FEW012 SCT019 BKN060 18/13 A3005 RMK AO2 SLP180 T01780128=
201808111345 SPECI KSEA 111345Z 20006KT 10SM FEW012 SCT019 BKN060 17/13 A3005 RMK AO2 T01720128=
201808111319 SPECI KSEA 111319Z 19007KT 10SM FEW012 BKN019 BKN055 17/13 A3004 RMK AO2 T01720128=
201808111253 METAR KSEA 111253Z 17006KT 10SM FEW012 BKN028 BKN060 17/13 A3004 RMK AO2 SLP174 T01720128=
201808111153 METAR KSEA 111153Z 17005KT 10SM BKN023 BKN037 OVC060 17/13 A3003 RMK AO2 SLP171 T01720128 10178 20167 50000=
201808111135 SPECI KSEA 111135Z 17008KT 10SM BKN023 BKN037 BKN060 17/13 A3003 RMK AO2 T01720128=
201808111053 METAR KSEA 111053Z 19009KT 10SM SCT020 BKN034 OVC055 17/13 A3003 RMK AO2 SLP172 T01720133=
201808110953 METAR KSEA 110953Z 16009KT 10SM SCT020 OVC037 18/13 A3002 RMK AO2 SLP170 T01780128=
201808110853 METAR KSEA 110853Z 18013KT 10SM FEW018 BKN037 OVC140 18/13 A3002 RMK AO2 SLP171 T01780128 50008=
201808110753 METAR KSEA 110753Z 20009KT 10SM SCT017 SCT140 17/13 A3003 RMK AO2 SLP172 T01720133 402780167=
201808110653 METAR KSEA 110653Z 20007KT 10SM FEW014 FEW030 SCT250 17/14 A3001 RMK AO2 SLP166 T01720139=
201808110553 METAR KSEA 110553Z 21011KT 10SM FEW250 18/14 A3000 RMK AO2 SLP163 T01780139 10272 20178 53016=
201808110453 METAR KSEA 110453Z 20009KT 10SM FEW250 19/14 A2998 RMK AO2 SLP157 T01890139=
201808110353 METAR KSEA 110353Z 19009KT 10SM FEW250 20/14 A2997 RMK AO2 SLP153 T02000139=
201808110253 METAR KSEA 110253Z 17008KT 10SM SCT250 22/14 A2995 RMK AO2 SLP147 T02220139 53004=
201808110153 METAR KSEA 110153Z 21010KT 10SM SCT250 24/14 A2995 RMK AO2 SLP144 T02440144=
201808110053 METAR KSEA 110053Z 21009KT 10SM SCT250 26/15 A2994 RMK AO2 SLP142 T02610150=
201808102353 METAR KSEA 102353Z 21010KT 10SM SCT250 27/16 A2994 RMK AO2 SLP142 T02720156 10278 20222 57007=
201808102253 METAR KSEA 102253Z 21011KT 10SM SCT250 27/15 A2995 RMK AO2 SLP144 T02720150=
201808102153 METAR KSEA 102153Z 21014KT 10SM CLR 26/14 A2996 RMK AO2 SLP147 T02610144=
201808102053 METAR KSEA 102053Z 20014KT 10SM CLR 26/14 A2996 RMK AO2 SLP149 T02560139 58003=
201808101953 METAR KSEA 101953Z 20013KT 10SM CLR 24/14 A2997 RMK AO2 SLP151 T02440139=
201808101853 METAR KSEA 101853Z 20013KT 10SM CLR 23/13 A2998 RMK AO2 SLP154 T02330133=
201808101753 METAR KSEA 101753Z 20014KT 10SM CLR 22/13 A2997 RMK AO2 SLP152 T02220133 10222 20172 51010=
201808101653 METAR KSEA 101653Z 19010KT 10SM CLR 21/14 A2997 RMK AO2 SLP151 T02110139=
201808101553 METAR KSEA 101553Z 21008KT 10SM CLR 21/14 A2995 RMK AO2 SLP146 T02060139=
201808101453 METAR KSEA 101453Z 18006KT 10SM CLR 19/13 A2994 RMK AO2 SLP142 T01890128 53009=
201808101353 METAR KSEA 101353Z 00000KT 10SM CLR 19/12 A2993 RMK AO2 SLP136 T01890122=
201808101253 METAR KSEA 101253Z 29003KT 10SM CLR 17/12 A2990 RMK AO2 SLP129 T01720122=
201808101153 METAR KSEA 101153Z 29003KT 10SM CLR 17/12 A2991 RMK AO2 SLP131 T01720122 10244 20172 51004=
201808101053 METAR KSEA 101053Z 17004KT 10SM CLR 18/12 A2991 RMK AO2 SLP131 T01830122=
201808100953 METAR KSEA 100953Z 00000KT 10SM CLR 23/12 A2991 RMK AO2 SLP130 T02280117=
201808100853 METAR KSEA 100853Z 01006KT 10SM CLR 23/11 A2990 RMK AO2 SLP127 T02280111 56004=
201808100753 METAR KSEA 100753Z 03009KT 10SM CLR 24/11 A2990 RMK AO2 SLP127 T02390111 403390156=
201808100653 METAR KSEA 100653Z 01008KT 10SM CLR 24/12 A2990 RMK AO2 SLP129 T02440122=
201808100553 METAR KSEA 100553Z 35008KT 10SM CLR 23/12 A2991 RMK AO2 SLP132 T02330117 10339 20233 58000=
201808100453 METAR KSEA 100453Z 35006KT 10SM CLR 24/12 A2991 RMK AO2 SLP133 T02440122=
201808100353 METAR KSEA 100353Z 33004KT 10SM CLR 27/11 A2991 RMK AO2 SLP132 T02720106=
201808100253 METAR KSEA 100253Z 35008KT 10SM CLR 29/12 A2991 RMK AO2 SLP132 T02940122 56009=
201808100153 METAR KSEA 100153Z 34007KT 10SM CLR 32/12 A2992 RMK AO2 SLP135 T03170117=
201808100053 METAR KSEA 100053Z 01007KT 10SM CLR 33/09 A2993 RMK AO2 SLP138 T03330094=
201808092353 METAR KSEA 092353Z 28009KT 10SM CLR 33/11 A2994 RMK AO2 SLP142 T03330111 10333 20228 56015=
201808092253 METAR KSEA 092253Z VRB05KT 10SM CLR 33/11 A2996 RMK AO2 SLP146 T03280106=
201808092153 METAR KSEA 092153Z 28007KT 10SM CLR 31/15 A2997 RMK AO2 SLP152 T03060150=
201808092053 METAR KSEA 092053Z 27005KT 10SM CLR 29/14 A2998 RMK AO2 SLP157 T02890144 58010=
201808091953 METAR KSEA 091953Z 28006KT 10SM CLR 27/14 A3000 RMK AO2 SLP161 T02720139=
201808091853 METAR KSEA 091853Z 27004KT 10SM CLR 25/14 A3001 RMK AO2 SLP165 T02500144=
201808091753 METAR KSEA 091753Z 24004KT 10SM CLR 23/14 A3002 RMK AO2 SLP168 T02280139 10233 20156 50000=
201808091653 METAR KSEA 091653Z 23004KT 10SM CLR 21/14 A3002 RMK AO2 SLP169 T02060139=
201808091553 METAR KSEA 091553Z 17005KT 10SM FEW005 18/14 A3002 RMK AO2 SLP169 T01830139=
201808091453 METAR KSEA 091453Z 16004KT 10SM FEW003 17/14 A3001 RMK AO2 SLP167 T01670139 51007=
201808091353 METAR KSEA 091353Z 22004KT 10SM FEW003 FEW250 16/14 A3001 RMK AO2 SLP165 T01610139=
201808091253 METAR KSEA 091253Z 17006KT 10SM FEW250 16/13 A3000 RMK AO2 SLP162 T01610133=
201808091153 METAR KSEA 091153Z 21004KT 10SM CLR 17/13 A2999 RMK AO2 SLP159 T01670133 10250 20167 53008=
201808091053 METAR KSEA 091053Z 26004KT 10SM CLR 18/13 A2998 RMK AO2 SLP156 T01780133=
201808090953 METAR KSEA 090953Z 22005KT 10SM CLR 19/13 A2998 RMK AO2 SLP153 T01890128=
201808090853 METAR KSEA 090853Z 19005KT 10SM CLR 20/13 A2997 RMK AO2 SLP151 T02000128 51013=
201808090753 METAR KSEA 090753Z 19007KT 10SM CLR 21/13 A2996 RMK AO2 SLP148 T02110133 403440167=
201808090653 METAR KSEA 090653Z 18009KT 10SM CLR 22/13 A2995 RMK AO2 SLP146 T02220133=
201808090553 METAR KSEA 090553Z 19005KT 10SM CLR 25/12 A2993 RMK AO2 SLP138 T02500122 10344 20250 53018=
201808090453 METAR KSEA 090453Z 23004KT 10SM CLR 26/12 A2991 RMK AO2 SLP132 T02560117=
201808090353 METAR KSEA 090353Z 00000KT 10SM CLR 28/12 A2989 RMK AO2 SLP125 T02780117=
201808090253 METAR KSEA 090253Z 29004KT 10SM CLR 30/12 A2988 RMK AO2 SLP121 T03000122 53001=
201808090153 METAR KSEA 090153Z 26003KT 10SM CLR 32/12 A2987 RMK AO2 SLP118 T03220117=
201808090053 METAR KSEA 090053Z 35006KT 10SM CLR 34/11 A2987 RMK AO2 SLP117 T03390106=
201808082353 METAR KSEA 082353Z 28007KT 10SM CLR 34/11 A2988 RMK AO2 SLP119 T03390111 10339 20256 56008=
201808082253 METAR KSEA 082253Z 30006KT 10SM CLR 33/12 A2988 RMK AO2 SLP121 T03280122=
201808082153 METAR KSEA 082153Z VRB05KT 10SM CLR 33/14 A2989 RMK AO2 SLP125 T03330139=
201808082053 METAR KSEA 082053Z 28009KT 10SM CLR 31/13 A2990 RMK AO2 SLP128 T03060133 57008=
201808081953 METAR KSEA 081953Z 28007KT 10SM CLR 29/13 A2991 RMK AO2 SLP129 T02940133=
201808081853 METAR KSEA 081853Z 29007KT 10SM CLR 27/13 A2992 RMK AO2 SLP134 T02720133=
201808081753 METAR KSEA 081753Z 29006KT 10SM FEW250 26/13 A2993 RMK AO2 SLP137 T02560133 10261 20167 58004=
201808081653 METAR KSEA 081653Z VRB03KT 10SM FEW250 26/14 A2993 RMK AO2 SLP138 T02560139=
201808081553 METAR KSEA 081553Z 33003KT 10SM FEW250 23/13 A2994 RMK AO2 SLP142 T02280133=
201808081453 METAR KSEA 081453Z 00000KT 10SM FEW250 19/13 A2994 RMK AO2 SLP141 T01940128 53006=
201808081353 METAR KSEA 081353Z 32004KT 10SM FEW250 17/12 A2992 RMK AO2 SLP135 T01720122=
201808081253 METAR KSEA 081253Z 00000KT 10SM FEW250 17/12 A2991 RMK AO2 SLP132 T01720122=
201808081153 METAR KSEA 081153Z 00000KT 10SM CLR 18/12 A2992 RMK AO2 SLP133 T01830122 10250 20178 50002=
201808081053 METAR KSEA 081053Z 00000KT 10SM CLR 20/12 A2992 RMK AO2 SLP134 T02000117=
201808080953 METAR KSEA 080953Z 01004KT 10SM CLR 21/12 A2991 RMK AO2 SLP132 T02060122=
201808080853 METAR KSEA 080853Z 03005KT 10SM CLR 22/12 A2991 RMK AO2 SLP131 T02170122 51001=
201808080753 METAR KSEA 080753Z 01007KT 10SM CLR 23/12 A2991 RMK AO2 SLP131 T02280117 403330156=
201808080653 METAR KSEA 080653Z 02010KT 10SM CLR 24/12 A2992 RMK AO2 SLP133 T02390122=
201808080553 METAR KSEA 080553Z 01008KT 10SM FEW250 24/12 A2991 RMK AO2 SLP131 T02440117 10328 20244 50002=
201808080453 METAR KSEA 080453Z 01006KT 10SM FEW250 26/11 A2991 RMK AO2 SLP133 T02560111=
201808080353 METAR KSEA 080353Z 35007KT 10SM FEW250 26/11 A2991 RMK AO2 SLP131 T02560106=
201808080253 METAR KSEA 080253Z 35009KT 10SM FEW250 28/10 A2990 RMK AO2 SLP129 T02830100 56009=
201808080153 METAR KSEA 080153Z 35013KT 10SM FEW250 30/10 A2990 RMK AO2 SLP129 T03000100=
201808080053 METAR KSEA 080053Z 32011KT 10SM FEW250 32/11 A2992 RMK AO2 SLP134 T03170111=
201808072353 METAR KSEA 072353Z 35009KT 10SM FEW250 33/11 A2993 RMK AO2 SLP139 T03280111 10333 20244 56023=
201808072253 METAR KSEA 072253Z 34011KT 10SM FEW250 32/11 A2995 RMK AO2 SLP145 T03220111=
201808072153 METAR KSEA 072153Z 01008KT 10SM FEW250 31/12 A2998 RMK AO2 SLP154 T03110117=
201808072053 METAR KSEA 072053Z 01010KT 10SM FEW250 30/12 A3000 RMK AO2 SLP161 T03000122 58016=
201808071953 METAR KSEA 071953Z 35010KT 10SM FEW250 29/12 A3001 RMK AO2 SLP167 T02890117=
201808071853 METAR KSEA 071853Z 30008KT 10SM FEW250 27/13 A3004 RMK AO2 SLP175 T02670128=
201808071753 METAR KSEA 071753Z 28006KT 10SM FEW250 24/14 A3005 RMK AO2 SLP179 T02440139 10244 20156 58011=
201808071653 METAR KSEA 071653Z 28005KT 10SM FEW250 22/14 A3007 RMK AO2 SLP184 T02220139=
201808071553 METAR KSEA 071553Z 00000KT 10SM FEW250 21/14 A3008 RMK AO2 SLP189 T02110139=
201808071453 METAR KSEA 071453Z 00000KT 10SM FEW250 19/13 A3008 RMK AO2 SLP190 T01890128 51004=
201808071353 METAR KSEA 071353Z 00000KT 10SM SCT250 17/12 A3008 RMK AO2 SLP189 T01670122=
201808071253 METAR KSEA 071253Z 19003KT 10SM SCT250 16/12 A3008 RMK AO2 SLP188 T01560122=
201808071153 METAR KSEA 071153Z 00000KT 10SM CLR 17/12 A3007 RMK AO2 SLP186 T01670117 10228 20167 58000=
201808071053 METAR KSEA 071053Z 00000KT 10SM CLR 17/12 A3007 RMK AO2 SLP187 T01720122=
201808070953 METAR KSEA 070953Z 36004KT 10SM CLR 19/12 A3007 RMK AO2 SLP185 T01940117=
201808070853 METAR KSEA 070853Z 02005KT 10SM CLR 21/12 A3007 RMK AO2 SLP186 T02060117 50002=
201808070753 METAR KSEA 070753Z 36004KT 10SM CLR 20/11 A3007 RMK AO2 SLP187 T02000111 403170150=
201808070653 METAR KSEA 070653Z 34006KT 10SM CLR 21/12 A3007 RMK AO2 SLP185 T02060117=
201808070553 METAR KSEA 070553Z 03011KT 10SM FEW250 23/12 A3006 RMK AO2 SLP183 T02280117 10311 20228 50003=
201808070453 METAR KSEA 070453Z 03010KT 10SM FEW250 24/12 A3007 RMK AO2 SLP186 T02390122=
201808070353 METAR KSEA 070353Z 36009KT 10SM FEW250 24/11 A3006 RMK AO2 SLP182 T02440106=
201808070253 METAR KSEA 070253Z 35007KT 10SM CLR 27/11 A3005 RMK AO2 SLP180 T02670106 55007=
201808070153 METAR KSEA 070153Z 34008KT 10SM CLR 29/11 A3005 RMK AO2 SLP178 T02940106=
201808070053 METAR KSEA 070053Z 36010KT 10SM FEW250 31/11 A3006 RMK AO2 SLP183 T03060106=
201808062353 METAR KSEA 062353Z 01009KT 10SM FEW250 31/11 A3007 RMK AO2 SLP187 T03060106 10317 20217 56012=
201808062253 METAR KSEA 062253Z 36006KT 10SM SCT250 31/12 A3008 RMK AO2 SLP191 T03060117=
201808062153 METAR KSEA 062153Z 35009KT 10SM SCT250 30/13 A3010 RMK AO2 SLP195 T03000128=
201808062053 METAR KSEA 062053Z 29008KT 10SM BKN250 28/14 A3011 RMK AO2 SLP199 T02780139 58009=
201808061953 METAR KSEA 061953Z 26008KT 10SM SCT250 25/14 A3012 RMK AO2 SLP203 T02500144=
201808061853 METAR KSEA 061853Z 26006KT 10SM BKN250 24/14 A3013 RMK AO2 SLP206 T02390139=
201808061753 METAR KSEA 061753Z 24004KT 10SM BKN250 22/14 A3014 RMK AO2 SLP208 T02170139 10222 20150 50006=
201808061653 METAR KSEA 061653Z VRB03KT 10SM BKN250 20/13 A3014 RMK AO2 SLP210 T02000133=
201808061553 METAR KSEA 061553Z VRB04KT 10SM SCT250 18/13 A3013 RMK AO2 SLP208 T01830133=
201808061453 METAR KSEA 061453Z 29003KT 10SM FEW080 BKN250 18/13 A3012 RMK AO2 SLP202 T01780133 53015=
201808061353 METAR KSEA 061353Z 00000KT 10SM FEW080 BKN250 17/13 A3010 RMK AO2 SLP196 T01670128=
201808061253 METAR KSEA 061253Z 00000KT 10SM FEW080 SCT250 15/12 A3009 RMK AO2 SLP192 T01500122=
201808061153 METAR KSEA 061153Z 00000KT 10SM BKN250 16/12 A3007 RMK AO2 SLP187 T01560117 10217 20156 53010=
201808061053 METAR KSEA 061053Z 00000KT 10SM BKN250 17/12 A3006 RMK AO2 SLP183 T01720122=
201808060953 METAR KSEA 060953Z 30003KT 10SM BKN250 18/12 A3006 RMK AO2 SLP181 T01780122=
201808060853 METAR KSEA 060853Z 01004KT 10SM BKN250 19/12 A3004 RMK AO2 SLP177 T01890122 51009=
201808060753 METAR KSEA 060753Z 35004KT 10SM SCT220 20/12 A3004 RMK AO2 SLP177 T02000122 403000150=
201808060653 METAR KSEA 060653Z 00000KT 10SM SCT220 19/12 A3003 RMK AO2 SLP174 T01890117=
201808060553 METAR KSEA 060553Z 36006KT 10SM SCT220 22/12 A3002 RMK AO2 SLP168 T02170117 10300 20211 51008=
201808060453 METAR KSEA 060453Z 34005KT 10SM BKN220 22/12 A3001 RMK AO2 SLP168 T02220117=
201808060353 METAR KSEA 060353Z 34007KT 10SM BKN220 24/12 A3000 RMK AO2 SLP163 T02390122=
201808060253 METAR KSEA 060253Z 34005KT 10SM FEW030 BKN220 27/12 A2999 RMK AO2 SLP160 T02670117 53003=
201808060153 METAR KSEA 060153Z 36008KT 10SM FEW030 BKN220 28/12 A2998 RMK AO2 SLP156 T02780117=
201808060053 METAR KSEA 060053Z 36006KT 10SM FEW030 SCT220 29/10 A2998 RMK AO2 SLP156 T02940100=
201808052353 METAR KSEA 052353Z 29009KT 10SM FEW030 SCT220 29/12 A2998 RMK AO2 SLP157 T02890117 10294 20211 56010=
201808052253 METAR KSEA 052253Z 29009KT 10SM FEW030 SCT220 28/13 A2999 RMK AO2 SLP160 T02830128=
201808052153 METAR KSEA 052153Z 29009KT 10SM FEW030 FEW220 28/12 A3000 RMK AO2 SLP163 T02780122=
201808052053 METAR KSEA 052053Z 29010KT 10SM FEW030 FEW220 27/13 A3001 RMK AO2 SLP167 T02720128 58010=
201808051953 METAR KSEA 051953Z 28007KT 10SM FEW030 FEW220 26/14 A3003 RMK AO2 SLP171 T02560139=
201808051853 METAR KSEA 051853Z 27006KT 10SM FEW220 24/13 A3004 RMK AO2 SLP175 T02390133=
201808051753 METAR KSEA 051753Z 26005KT 10SM FEW220 21/14 A3005 RMK AO2 SLP178 T02110139 10211 20150 50001=
201808051653 METAR KSEA 051653Z 25004KT 10SM SCT210 19/13 A3005 RMK AO2 SLP179 T01890133=
201808051553 METAR KSEA 051553Z 28003KT 10SM SCT220 17/13 A3005 RMK AO2 SLP178 T01720128=
201808051453 METAR KSEA 051453Z 24004KT 10SM BKN220 16/13 A3004 RMK AO2 SLP177 T01560128 53009=
201808051353 METAR KSEA 051353Z 14003KT 10SM BKN210 16/12 A3003 RMK AO2 SLP174 T01610122=
201808051253 METAR KSEA 051253Z 00000KT 10SM SCT220 15/12 A3002 RMK AO2 SLP170 T01500122=
201808051153 METAR KSEA 051153Z 00000KT 10SM FEW250 16/12 A3001 RMK AO2 SLP167 T01560117 10206 20150 51006=
201808051053 METAR KSEA 051053Z 00000KT 10SM CLR 16/12 A3001 RMK AO2 SLP167 T01560117=
201808050953 METAR KSEA 050953Z 28003KT 10SM CLR 16/12 A3000 RMK AO2 SLP162 T01610117=
201808050853 METAR KSEA 050853Z 00000KT 10SM CLR 18/12 A2999 RMK AO2 SLP161 T01780117 50003=
201808050753 METAR KSEA 050753Z 36003KT 10SM CLR 19/12 A3000 RMK AO2 SLP162 T01890117 402720144=
201808050653 METAR KSEA 050653Z 32003KT 10SM CLR 19/11 A2999 RMK AO2 SLP160 T01890111=
201808050553 METAR KSEA 050553Z 34006KT 10SM FEW200 21/11 A2998 RMK AO2 SLP158 T02060111 10272 20206 51006=
201808050453 METAR KSEA 050453Z 31005KT 10SM FEW070 FEW200 21/12 A2998 RMK AO2 SLP157 T02060117=
201808050353 METAR KSEA 050353Z 36005KT 10SM FEW070 FEW200 24/11 A2997 RMK AO2 SLP153 T02390111=
201808050253 METAR KSEA 050253Z 34007KT 10SM FEW025 25/11 A2997 RMK AO2 SLP151 T02500106 53000=
201808050153 METAR KSEA 050153Z 34008KT 10SM FEW025 26/11 A2995 RMK AO2 SLP147 T02610106=
201808050053 METAR KSEA 050053Z 31009KT 10SM FEW025 27/12 A2996 RMK AO2 SLP148 T02670117=
201808042353 METAR KSEA 042353Z 33009KT 10SM FEW025 FEW200 26/11 A2996 RMK AO2 SLP151 T02610111 10267 20189 58016=
201808042253 METAR KSEA 042253Z 31008KT 10SM FEW025 FEW200 26/12 A2998 RMK AO2 SLP158 T02560122=
201808042153 METAR KSEA 042153Z 33008G14KT 290V350 10SM FEW025 FEW200 26/12 A3000 RMK AO2 SLP164 T02560122=
201808042053 METAR KSEA 042053Z 31007KT 10SM FEW025 24/13 A3001 RMK AO2 SLP167 T02390128 58012=
201808041953 METAR KSEA 041953Z 30007KT 270V350 10SM FEW030 23/13 A3003 RMK AO2 SLP172 T02280133=
201808041853 METAR KSEA 041853Z 28006KT 10SM FEW020 19/13 A3004 RMK AO2 SLP177 T01940133=
201808041753 METAR KSEA 041753Z 32008KT 10SM FEW005 19/13 A3005 RMK AO2 SLP180 T01890128 10200 20144 58006=
201808041653 METAR KSEA 041653Z 02007KT 10SM FEW005 19/12 A3006 RMK AO2 SLP183 T01940122=
201808041553 METAR KSEA 041553Z 03007KT 10SM FEW005 17/12 A3007 RMK AO2 SLP186 T01720122=
201808041453 METAR KSEA 041453Z 03007KT 10SM FEW005 FEW015 16/12 A3007 RMK AO2 SLP186 T01610122 56000=
201808041353 METAR KSEA 041353Z 02008KT 10SM FEW007 FEW025 15/12 A3007 RMK AO2 SLP186 T01500117=
201808041253 METAR KSEA 041253Z 02007KT 10SM FEW007 FEW025 FEW250 14/12 A3007 RMK AO2 SLP185 T01440117=
201808041153 METAR KSEA 041153Z 02006KT 10SM FEW250 15/12 A3007 RMK AO2 SLP186 T01500117 10189 20150 58003=
201808041053 METAR KSEA 041053Z 36007KT 10SM CLR 15/12 A3007 RMK AO2 SLP188 T01500117=
201808040953 METAR KSEA 040953Z 01006KT 10SM CLR 16/12 A3008 RMK AO2 SLP189 T01610117=
201808040853 METAR KSEA 040853Z 34005KT 10SM CLR 16/12 A3008 RMK AO2 SLP190 T01610117 58007=
201808040753 METAR KSEA 040753Z 01008KT 10SM CLR 17/12 A3009 RMK AO2 SLP192 T01670122 402440150=
201808040653 METAR KSEA 040653Z 02009KT 10SM FEW250 18/12 A3010 RMK AO2 SLP196 T01780122=
201808040553 METAR KSEA 040553Z 01009KT 10SM FEW250 18/13 A3010 RMK AO2 SLP197 T01830128 10239 20183 58001=
201808040453 METAR KSEA 040453Z 35005KT 10SM FEW060 FEW250 18/12 A3011 RMK AO2 SLP199 T01830122=
201808040353 METAR KSEA 040353Z 36006KT 10SM FEW060 SCT250 20/12 A3010 RMK AO2 SLP198 T02000122=
201808040253 METAR KSEA 040253Z 30004KT 10SM SCT060 SCT250 21/12 A3010 RMK AO2 SLP199 T02110122 56004=
201808040153 METAR KSEA 040153Z 30007KT 10SM SCT050 SCT250 22/12 A3011 RMK AO2 SLP199 T02220117=
201808040053 METAR KSEA 040053Z 28009KT 10SM SCT048 SCT250 23/12 A3011 RMK AO2 SLP200 T02330117=
201808032353 METAR KSEA 032353Z 27006KT 10SM FEW038 SCT050 SCT250 24/12 A3012 RMK AO2 SLP203 T02390117 10244 20178 58006=
201808032253 METAR KSEA 032253Z 27007KT 10SM FEW037 SCT055 BKN250 24/11 A3012 RMK AO2 SLP205 T02390111=
201808032153 METAR KSEA 032153Z 28006KT 10SM SCT037 SCT060 BKN250 22/11 A3013 RMK AO2 SLP208 T02220106=
201808032053 METAR KSEA 032053Z 24007KT 10SM SCT030 BKN200 22/12 A3014 RMK AO2 SLP210 T02220117 51001=
201808031953 METAR KSEA 031953Z 28009KT 10SM FEW027 SCT042 BKN065 BKN200 21/12 A3014 RMK AO2 SLP209 T02110117=
201808031853 METAR KSEA 031853Z 26007KT 10SM SCT019 BKN037 BKN055 20/12 A3014 RMK AO2 SLP210 T02000122=
201808031753 METAR KSEA 031753Z 29006KT 10SM SCT012 BKN038 18/13 A3013 RMK AO2 SLP210 T01780128 10178 20150 53012=
201808031653 METAR KSEA 031653Z 26005KT 10SM FEW012 BKN035 OVC049 17/13 A3012 RMK AO2 SLP204 T01670128=
201808031635 SPECI KSEA 031635Z 21005KT 10SM FEW012 FEW021 OVC049 16/13 A3011 RMK AO2 T01610128=
201808031553 METAR KSEA 031553Z 24004KT 10SM SCT009 BKN018 BKN050 16/13 A3010 RMK AO2 SLP199 T01560128=
201808031500 SPECI KSEA 031500Z 23005KT 10SM FEW004 BKN016 OVC050 16/13 A3010 RMK AO2 T01560128=
201808031453 METAR KSEA 031453Z 26003KT 10SM FEW004 BKN014 OVC049 16/13 A3010 RMK AO2 SLP197 T01560133 53010=
201808031432 SPECI KSEA 031432Z 25005KT 10SM FEW004 BKN014 OVC020 16/13 A3009 RMK AO2 T01560133=
201808031353 METAR KSEA 031353Z 25004KT 10SM FEW004 OVC015 15/13 A3009 RMK AO2 SLP192 T01500133=
201808031343 SPECI KSEA 031343Z 22006KT 10SM FEW004 OVC015 15/13 A3008 RMK AO2 T01500128=
201808031253 METAR KSEA 031253Z 22006KT 10SM FEW004 OVC013 16/13 A3008 RMK AO2 SLP189 T01560128=
201808031153 METAR KSEA 031153Z 22006KT 10SM OVC011 15/13 A3007 RMK AO2 SLP186 60001 70003 T01500128 10172 20150 53001=
201808031053 METAR KSEA 031053Z 22008KT 8SM OVC013 16/13 A3006 RMK AO2 DZE50 SLP185 P0001 T01560128=
201808031021 SPECI KSEA 031021Z 21006KT 5SM -DZ BR OVC013 15/13 A3006 RMK AO2 P0001 T01500133=
201808030953 METAR KSEA 030953Z 21006KT 7SM -DZ OVC016 16/13 A3006 RMK AO2 DZB51 SLP186 P0000 T01560128=
201808030853 METAR KSEA 030853Z 22007KT 10SM OVC017 16/12 A3006 RMK AO2 SLP186 T01610122 52002=
201808030753 METAR KSEA 030753Z 23007KT 10SM BKN021 BKN027 OVC032 17/12 A3006 RMK AO2 SLP185 T01670117 402110144=
201808030735 SPECI KSEA 030735Z 24008KT 10SM BKN021 BKN028 OVC038 17/12 A3007 RMK AO2 T01670117=
201808030653 METAR KSEA 030653Z 22007KT 10SM OVC034 17/11 A3006 RMK AO2 SLP184 T01670111=
201808030553 METAR KSEA 030553Z 23009KT 10SM FEW015 OVC031 17/11 A3006 RMK AO2 SLP184 T01670111 10206 20167 50003=
201808030453 METAR KSEA 030453Z 23007KT 10SM BKN031 17/11 A3006 RMK AO2 SLP185 T01720111=
201808030353 METAR KSEA 030353Z 22008KT 10SM SCT048 17/11 A3005 RMK AO2 SLP182 T01720111=
201808030253 METAR KSEA 030253Z 24012KT 10SM FEW035 SCT048 SCT250 19/12 A3005 RMK AO2 SLP181 T01890117 56005=
201808030153 METAR KSEA 030153Z 23009KT 10SM SCT034 BKN045 20/12 A3005 RMK AO2 SLP181 T02000117=
201808030053 METAR KSEA 030053Z 23009KT 10SM BKN045 21/12 A3006 RMK AO2 SLP183 T02060117=
201808022353 METAR KSEA 022353Z 22007KT 10SM OVC040 21/12 A3006 RMK AO2 SLP185 T02060122 10211 20161 58008=
201808022253 METAR KSEA 022253Z 19008KT 10SM OVC038 20/13 A3007 RMK AO2 SLP189 T02000128=
201808022153 METAR KSEA 022153Z 20008KT 10SM FEW025 OVC032 19/12 A3009 RMK AO2 SLP193 T01890122=
201808022143 SPECI KSEA 022143Z 22009KT 10SM FEW025 OVC032 19/12 A3009 RMK AO2 T01890122=
201808022053 METAR KSEA 022053Z 20007KT 10SM BKN024 OVC030 18/12 A3009 RMK AO2 SLP194 T01830122 50003=
201808022049 SPECI KSEA 022049Z 22009KT 10SM BKN024 OVC030 18/12 A3009 RMK AO2 TSNO=
201808022031 SPECI KSEA 022031Z 23009KT 10SM FEW020 OVC030 18/12 A3009 RMK AO2 T01830117=
201808021953 METAR KSEA 021953Z 20008KT 10SM FEW014 OVC025 18/12 A3009 RMK AO2 SLP196 T01830122=
201808021853 METAR KSEA 021853Z 20008KT 10SM FEW008 SCT014 OVC025 17/13 A3009 RMK AO2 SLP194 T01670133=
201808021753 METAR KSEA 021753Z 18007KT 10SM FEW008 BKN025 BKN036 16/14 A3008 RMK AO2 SLP191 60002 T01610139 10161 20144=
201808021653 METAR KSEA 021653Z 19008KT 9SM SCT005 OVC020 15/13 A3007 RMK AO2 RAB10E11B20E33DZB11E39 SLP189 P0001 T01500133=
201808021633 SPECI KSEA 021633Z 20008KT 10SM -DZ SCT005 OVC019 14/13 A3007 RMK AO2 RAB10E11B20E33DZB11 P0001 T01440133=
201808021611 SPECI KSEA 021611Z 20006KT 2SM -DZ BR BKN006 OVC010 15/13 A3007 RMK AO2 RAB10E11DZB11 P0001 T01500133=
201808021553 METAR KSEA 021553Z 17008KT 2SM -DZ BR BKN006 OVC010 14/13 A3006 RMK AO2 SLP185 P0001 T01440133=
201808021528 SPECI KSEA 021528Z 18009KT 2SM -DZ BR BKN006 OVC012 14/13 A3006 RMK AO2 P0001 T01440133 $=
201808021453 METAR KSEA 021453Z 16008KT 2SM -DZ BR SCT006 OVC012 14/13 A3005 RMK AO2 DZB47 SLP181 P0000 60000 T01440128 53009 $=
201808021449 SPECI KSEA 021449Z 16007KT 2SM -DZ BR SCT006 OVC012 14/13 A3005 RMK AO2 DZB47 P0000 $=
201808021435 SPECI KSEA 021435Z 18008KT 2SM BR BKN006 OVC012 14/13 A3005 RMK AO2 T01440128 $=
201808021419 SPECI KSEA 021419Z 20009KT 2SM BR SCT008 OVC012 14/13 A3005 RMK AO2 T01440133 $=
201808021407 SPECI KSEA 021407Z 18010KT 8SM BKN012 OVC020 15/12 A3004 RMK AO2 T01500117 $=
201808021353 METAR KSEA 021353Z 17006KT 10SM OVC020 16/11 A3004 RMK AO2 SLP175 T01560111 $=
201808021253 METAR KSEA 021253Z 20008KT 10SM OVC019 16/11 A3003 RMK AO2 SLP172 T01560111 $=
201808021153 METAR KSEA 021153Z 21009KT 10SM OVC019 15/11 A3003 RMK AO2 SLP172 7//// T01500111 10161 20144 51001 $=
201808021119 SPECI KSEA 021119Z 17006KT 10SM OVC015 15/12 A3002 RMK AO2 T01500117 $=
201808021053 METAR KSEA 021053Z 20008KT 10SM OVC013 14/12 A3002 RMK AO2 SLP171 T01440117 $=
201808020953 METAR KSEA 020953Z 22008KT 10SM OVC012 15/12 A3003 RMK AO2 SLP172 T01500117 $=
201808020853 METAR KSEA 020853Z 21007KT 10SM OVC011 15/12 A3002 RMK AO2 SLP170 T01500117 51007 $=
201808020753 METAR KSEA 020753Z 22006KT 10SM OVC010 16/12 A3002 RMK AO2 SLP170 T01560122 402390150 $=
201808020726 SPECI KSEA 020726Z 21006KT 10SM BKN010 15/12 A3002 RMK AO2 T01500122 $=
201808020653 METAR KSEA 020653Z 22006KT 10SM FEW012 16/12 A3001 RMK AO2 SLP167 T01560122 $=
201808020553 METAR KSEA 020553Z 23007KT 10SM CLR 17/12 A3000 RMK AO2 SLP164 T01670122 10239 20167 53009 $=
201808020453 METAR KSEA 020453Z 23007KT 10SM CLR 18/13 A2999 RMK AO2 SLP160 T01780128 $=
201808020353 METAR KSEA 020353Z 23006KT 10SM CLR 20/13 A2998 RMK AO2 SLP155 T02000133 $=
201808020253 METAR KSEA 020253Z 24006KT 10SM FEW250 22/13 A2997 RMK AO2 SLP154 T02220133 56010=
201808020153 METAR KSEA 020153Z 23006KT 10SM FEW250 23/13 A2998 RMK AO2 SLP155 T02330133=
201808020053 METAR KSEA 020053Z VRB06KT 10SM FEW050 SCT250 23/13 A2999 RMK AO2 SLP160 T02330128=
201808012353 METAR KSEA 012353Z 24008KT 10SM FEW050 SCT250 24/12 A3001 RMK AO2 SLP165 T02390122 10239 20161 58013=
201808012253 METAR KSEA 012253Z 18005KT 10SM FEW030 SCT250 23/12 A3002 RMK AO2 SLP171 T02280122=
201808012153 METAR KSEA 012153Z 27007KT 10SM FEW025 SCT250 22/12 A3003 RMK AO2 SLP175 T02220122=
201808012058 SPECI KSEA 012058Z 27008KT 10SM SCT023 SCT250 21/12 A3005 RMK AO2 T02110117=
201808012053 METAR KSEA 012053Z 28005KT 10SM SCT023 SCT250 21/12 A3004 RMK AO2 SLP178 T02060117 58007=
201808012035 SPECI KSEA 012035Z 21006KT 10SM SCT023 20/12 A3005 RMK AO2 T02000117=
201808011953 METAR KSEA 011953Z 20007KT 10SM FEW011 OVC019 19/12 A3005 RMK AO2 SLP183 T01890117=
201808011932 SPECI KSEA 011932Z 22007KT 10SM FEW011 OVC019 18/12 A3006 RMK AO2 T01830117 $=
201808011853 METAR KSEA 011853Z 22007KT 10SM BKN011 BKN019 17/12 A3006 RMK AO2 SLP185 T01720117 $=
201808011753 METAR KSEA 011753Z 22009KT 10SM OVC010 16/12 A3007 RMK AO2 SLP186 6//// T01610122 10161 20156 $=
201808011653 METAR KSEA 011653Z 20007KT 10SM OVC012 16/12 A3007 RMK AO2 SLP187 T01610122 $=
201808011553 METAR KSEA 011553Z 22007KT 10SM OVC011 16/12 A3007 RMK AO2 SLP185 T01560122 $=
201808011536 SPECI KSEA 011536Z 23007KT 10SM OVC011 16/12 A3007 RMK AO2 T01560122 $=
201808011453 METAR KSEA 011453Z 21006KT 10SM OVC011 16/12 A3006 RMK AO2 SLP182 T01610122 53005 $=
201808011353 METAR KSEA 011353Z 22006KT 10SM OVC010 16/12 A3005 RMK AO2 SLP180 T01560122 $=
201808011253 METAR KSEA 011253Z 20005KT 10SM OVC011 16/13 A3004 RMK AO2 SLP177 T01560128 $=
201808011238 SPECI KSEA 011238Z 22004KT 10SM OVC011 16/13 A3004 RMK AO2 T01560128 $=
201808011153 METAR KSEA 011153Z 22007KT 10SM OVC009 16/13 A3004 RMK AO2 SLP177 T01560128 10167 20156 53001 $=
201808011053 METAR KSEA 011053Z 20006KT 10SM OVC008 16/13 A3004 RMK AO2 SLP177 T01560128 $=
201808010953 METAR KSEA 010953Z 22007KT 10SM OVC007 16/13 A3003 RMK AO2 SLP175 T01560128 $=
201808010853 METAR KSEA 010853Z 20009KT 10SM OVC008 16/13 A3004 RMK AO2 SLP175 T01560128 51008 $=
201808010753 METAR KSEA 010753Z 22007KT 10SM BKN009 16/13 A3003 RMK AO2 SLP174 T01560128 402670156 $=
201808010702 SPECI KSEA 010702Z 21005KT 10SM BKN009 16/13 A3002 RMK AO2 T01560128 $=
201808010653 METAR KSEA 010653Z 21006KT 10SM FEW010 16/13 A3002 RMK AO2 SLP171 T01560128 $=
201808010553 METAR KSEA 010553Z 22006KT 10SM CLR 17/13 A3001 RMK AO2 SLP167 T01670128 10267 20167 52010 $=
201808010453 METAR KSEA 010453Z 23008KT 10SM CLR 18/13 A3001 RMK AO2 SLP165 T01830133 $=
201808010353 METAR KSEA 010353Z 25008KT 10SM CLR 21/13 A2999 RMK AO2 SLP160 T02060133=
201808010253 METAR KSEA 010253Z 24008KT 10SM CLR 23/14 A2998 RMK AO2 SLP157 T02330139 55006=
201808010153 METAR KSEA 010153Z 23005KT 10SM FEW050 FEW250 25/14 A2998 RMK AO2 SLP156 T02500144=
201808010053 METAR KSEA 010053Z VRB03KT 10SM FEW050 FEW250 26/14 A2999 RMK AO2 SLP160 T02560144=

# No short TAF reports from KSEA in databse.

###################################
#  large TAF from KSEA
###################################
201808312333 TAF KSEA 312333Z 0100/0206 22008KT P6SM SCT040 FM011000 VRB03KT
                       P6SM BKN015 FM011900 24006KT P6SM SCT020
                       SCT250 FM012100 30007KT P6SM SCT040 SCT250
                       FM020400 33005KT P6SM SCT250=
201808312057 KSEA 312057Z 3121/0124 20010KT P6SM BKN040 FM011100 VRB03KT P6SM
                       BKN015 FM011900 21003KT P6SM SCT020 SCT250
                       FM012100 29006KT P6SM SCT040 SCT250=
201808311727 TAF KSEA 311727Z 3118/0124 23008KT P6SM SCT025 BKN040 FM312200
                       23009KT P6SM SCT045 SCT250 FM011100 VRB03KT
                       P6SM BKN015 FM011900 21003KT P6SM SCT020
                       SCT250 FM012100 29006KT P6SM SCT040 SCT250=
201808311454 KSEA 311454Z 3115/0118 22008KT P6SM SCT015 BKN030
                      TEMPO 3115/3117 BKN015 FM311700 22009KT P6SM
                       SCT015 BKN040 FM312200 25006KT P6SM SCT050
                       SCT250 FM010900 VRB03KT P6SM BKN011 FM011700
                       VRB03KT P6SM SCT020=
201808311135 TAF KSEA 311135Z 3112/0118 22006KT P6SM OVC011 FM311800 22006KT
                       P6SM SCT015 BKN040 FM312200 25006KT P6SM
                       SCT050 SCT250 FM010900 VRB03KT P6SM BKN011
                       FM011700 VRB03KT P6SM SCT020=
201808310905 KSEA 310905Z 3109/0112 22006KT P6SM OVC011 FM311700 22006KT P6SM
                       SCT015 BKN040 FM312100 25006KT P6SM SCT050
                       SCT250 FM010900 VRB03KT P6SM BKN011=
201808310520 TAF KSEA 310520Z 3106/0112 22007KT P6SM BKN035 BKN070 FM310900
                       VRB04KT P6SM OVC020 FM311900 22008KT P6SM
                       BKN050 FM010000 26007KT P6SM SCT050 SCT250=
201808310301 KSEA 310301Z 3103/0106 21007KT P6SM SCT025 BKN070 FM310800 VRB04KT
                       P6SM OVC020 FM311900 22008KT P6SM SCT030
                       BKN050 FM010000 25007KT P6SM SCT050 SCT250=
201808302330 TAF KSEA 302330Z 3100/0106 23008KT P6SM VCSH SCT040 BKN080 FM310900
                       VRB04KT P6SM OVC020 FM311900 22008KT P6SM
                       SCT030 BKN050 FM010000 25007KT P6SM SCT050
                       SCT250=
201808302102 KSEA 302102Z 3021/3124 23008KT P6SM BKN040 BKN080 FM310900 VRB04KT
                       P6SM OVC020 FM311700 24007KT P6SM BKN030
                       BKN050=
201808301731 TAF KSEA 301731Z 3018/3124 20007KT P6SM SCT025 BKN050 FM302000
                       23008KT P6SM BKN050 BKN200 FM310900 VRB04KT
                       P6SM OVC020 FM311700 24007KT P6SM BKN030
                       BKN050=
201808301503 KSEA 301503Z 3015/3118 21005KT P6SM BKN025 BKN050 FM302000 21010KT
                       P6SM BKN040 BKN200 FM310900 21006KT P6SM
                       OVC020=
201808301136 TAF KSEA 301136Z 3012/3118 21006KT P6SM OVC020 FM302000 21010KT
                       P6SM SCT025 OVC040 FM310900 21006KT P6SM
                       OVC020=
201808300911 KSEA 300911Z 3009/3112 21006KT P6SM OVC021 FM302000 21010KT P6SM
                       SCT025 OVC040 FM310900 21006KT P6SM OVC025=
201808300522 TAF KSEA 300522Z 3006/3112 06006KT P6SM OVC040 FM301100 VRB04KT
                       P6SM VCSH OVC015 FM301800 21008KT P6SM VCSH
                       BKN020 BKN080 FM302100 22010KT P6SM OVC050
                       FM310400 21006KT P6SM OVC025=
201808300259 KSEA 300259Z 3003/3106 04008KT P6SM BKN040 BKN100 BKN250 FM300900
                       VRB04KT P6SM VCSH OVC015
                      PROB30 3012/3018 -RA FM301800 21008KT P6SM
                       VCSH BKN020 BKN080 FM302100 22010KT P6SM
                       VCSH BKN030 BKN080 FM310300 23006KT P6SM
                       BKN040=
201808292326 TAF KSEA 292326Z 3000/3106 24010KT P6SM SCT050 SCT120 BKN250 FM300400
                       26008KT P6SM VCSH BKN050 BKN100 FM300900
                       19004KT P6SM VCSH OVC015
                      PROB30 3012/3018 -RA FM301800 21008KT P6SM
                       VCSH BKN020 BKN080 FM302100 22010KT P6SM
                       VCSH BKN030 BKN080 FM310300 23006KT P6SM
                       BKN040=
201808292119 KSEA 292119Z 2921/3024 23011KT P6SM SCT120 BKN250 FM292200 24010KT
                       P6SM SCT050 BKN120 FM300400 25008KT P6SM
                       VCSH BKN050 OVC080 FM300900 VRB04KT P6SM
                       VCSH OVC015
                      PROB30 3009/3015 -RA FM301500 21008KT P6SM
                       VCSH OVC012 FM302100 22010KT P6SM BKN030
                       BKN080=
201808291735 TAF KSEA 291735Z 2918/3024 21007KT P6SM BKN120 BKN250 FM292200
                       24010KT P6SM SCT050 BKN120 FM300400 25008KT
                       P6SM VCSH BKN050 OVC080 FM300900 VRB04KT
                       P6SM VCSH OVC015
                      PROB30 3009/3015 -RA FM301500 21008KT P6SM
                       VCSH OVC012 FM302100 22010KT P6SM BKN030
                       BKN080=
201808291503 KSEA 291503Z 2915/3018 23004KT P6SM BKN250 FM291800 20006KT P6SM
                       SCT150 BKN250 FM292000 22010KT P6SM SCT050
                       BKN100 FM300600 25008KT P6SM VCSH OVC050
                       FM301000 VRB04KT P6SM VCSH OVC025=
201808291120 TAF KSEA 291120Z 2912/3018 VRB05KT P6SM SCT250 FM291500 20006KT
                       P6SM SCT150 BKN250 FM292000 22010KT P6SM
                       SCT050 BKN100 FM300600 25008KT P6SM VCSH
                       OVC050 FM301000 VRB04KT P6SM VCSH OVC025=
201808290911 KSEA 290911Z 2909/3012 VRB05KT P6SM SCT250 FM291500 20006KT P6SM
                       SCT150 BKN250 FM292000 22010KT P6SM SCT050
                       BKN120 FM300300 25008KT P6SM VCSH BKN050
                       OVC100=
201808290520 TAF KSEA 290520Z 2906/3012 VRB05KT P6SM SCT250 FM291500 20006KT
                       P6SM SCT150 BKN250 FM292000 22010KT P6SM
                       SCT050 BKN120 FM300300 25008KT P6SM VCSH
                       BKN050 OVC100=
201808290259 KSEA 290259Z 2903/3006 VRB05KT P6SM SCT250 FM291500 20006KT P6SM
                       SCT150 BKN250 FM292000 22010KT P6SM SCT040
                       BKN120 FM300000 24010KT P6SM VCSH BKN040
                       OVC100=
201808282331 TAF KSEA 282331Z 2900/3006 30006KT P6SM FEW250 FM290800 VRB04KT
                       P6SM SCT250 FM291500 20006KT P6SM SCT150
                       BKN250 FM292000 22010KT P6SM SCT040 BKN120
                       FM300000 24010KT P6SM VCSH BKN040 OVC100=
201808282103 KSEA 282103Z 2821/2924 VRB05KT P6SM SKC FM290800 VRB04KT P6SM SCT250
                       FM291500 20006KT P6SM SCT150 BKN250 FM292100
                       22010KT P6SM SCT040 BKN120=
201808281729 TAF KSEA 281729Z 2818/2924 VRB05KT P6SM SKC FM282000 29006KT P6SM
                       SKC FM290800 VRB04KT P6SM SCT250 FM291500
                       20006KT P6SM SCT150 BKN250 FM292100 22010KT
                       P6SM SCT040 BKN120=
201808281500 KSEA 281500Z 2815/2918 VRB05KT P6SM SKC FM281900 32006KT P6SM SCT250
                       FM290800 VRB05KT P6SM SCT250 FM291500 19006KT
                       P6SM SCT120 BKN200=
201808281133 TAF KSEA 281133Z 2812/2918 VRB05KT P6SM SKC FM281900 32006KT P6SM
                       SCT250 FM290800 VRB05KT P6SM SCT250 FM291500
                       19006KT P6SM SCT120 BKN200=
201808280856 KSEA 280856Z 2809/2912 VRB05KT P6SM SCT250 FM281700 32006KT P6SM
                       SKC=
201808280520 TAF KSEA 280520Z 2806/2912 02004KT P6SM FEW250 FM281700 30005KT
                       P6SM SKC=
201808280304 KSEA 280304Z 2803/2906 02004KT P6SM FEW250 FM281700 30005KT P6SM
                       SKC=
201808272320 TAF KSEA 272320Z 2800/2906 VRB04KT P6SM FEW030 FM281700 30005KT
                       P6SM SKC=
201808272056 KSEA 272056Z 2721/2824 04006KT P6SM FEW030 FM280400 VRB03KT P6SM
                       SKC FM281700 31004KT P6SM SKC=
201808271720 TAF KSEA 271720Z 2718/2824 02008KT P6SM SCT010 BKN025 FM272000
                       34008KT P6SM FEW030 SCT250 FM280400 04004KT
                       P6SM SKC FM281700 31004KT P6SM SKC=
201808271457 KSEA 271457Z 2715/2818 02008KT P6SM SCT010 BKN025 FM272000 34008KT
                       P6SM FEW030 SCT250 FM280400 04004KT P6SM
                       SKC=
201808271127 TAF KSEA 271127Z 2712/2818 02006KT P6SM SCT008 BKN017
                      TEMPO 2716/2720 SCT025 FM272000 34008KT P6SM
                       FEW030 SCT250 FM280400 04004KT P6SM SKC=
201808270833 KSEA 270833Z 2709/2812 VRB03KT P6SM BKN008 BKN017
                      TEMPO 2709/2712 6SM BR BKN005 OVC012 FM271200
                       02006KT 6SM BR SCT006 OVC010 FM271800 01006KT
                       P6SM BKN025 FM272000 34007KT P6SM SCT250
                       FM280400 04003KT P6SM SKC=
201808270520 TAF KSEA 270520Z 2706/2812 22004KT 5SM -RA BR BKN003 OVC009 FM270900
                       VRB03KT 6SM BR OVC006 FM271200 02006KT 6SM
                       BR SCT006 OVC010 FM271800 01006KT P6SM BKN025
                       FM272000 34007KT P6SM SCT250 FM280400 04003KT
                       P6SM SKC=
201808270416 KSEA 270416Z 2704/2806 20006KT 5SM -RA BR FEW004 BKN008 OVC013
                       FM270800 VRB03KT 5SM BR VCSH BKN008 OVC013
                       FM271200 02005KT 6SM BR SCT008 OVC010 FM272000
                       32008KT 6SM FU SCT250 FM280300 34005KT P6SM
                       FEW250=
201808270259 KSEA 270259Z 2703/2806 20008KT 3SM -RA BR SCT007 OVC015 FM270800
                       VRB03KT 6SM BR VCSH SCT007 OVC012 FM271200
                       02005KT 6SM BR SCT008 OVC010 FM272000 32008KT
                       6SM FU SCT250 FM280300 34005KT P6SM FEW250=
201808270158 KSEA 270158Z 2702/2806 20009KT 6SM -RA BR OVC019 FM270800 VRB03KT
                       P6SM BKN015 BKN050 FM271200 02005KT 6SM
                       BR FU SCT008 OVC010 FM272000 32008KT 6SM
                       FU SCT250 FM280300 34005KT P6SM FEW250=
201808262332 TAF KSEA 262332Z 2700/2806 22010KT P6SM VCSH BKN028 OVC035 FM270200
                       19005KT P6SM BKN035 OVC070 FM270800 VRB03KT
                       P6SM BKN015 BKN050 FM271200 02005KT 5SM
                       BR FU SCT008 OVC010 FM272000 32008KT 6SM
                       FU SCT250 FM280300 34005KT P6SM FEW250=
201808262101 KSEA 262101Z 2621/2724 21011KT P6SM VCSH OVC025
                      TEMPO 2621/2624 -RA FM270000 21008KT 6SM
                       FU VCSH BKN025 OVC060 FM270800 VRB03KT 6SM
                       FU BKN015 BKN050 FM271200 02005KT 5SM BR
                       FU SCT008 OVC010 FM272000 32007KT 6SM FU
                       SCT250=
201808261734 TAF KSEA 261734Z 2618/2724 21011KT P6SM VCSH SCT010 BKN020 OVC070
                       TEMPO 2620/2624 -RA FM270000 21008KT 6SM
                       FU VCSH BKN025 OVC060 FM270800 VRB03KT 6SM
                       FU BKN015 BKN050 FM271200 02005KT 5SM BR
                       FU SCT008 OVC010 FM272000 32007KT 6SM FU
                       SCT250=
201808261501 KSEA 261501Z 2615/2718 20007KT P6SM BKN008 OVC012 FM261800 20008KT
                       P6SM VCSH OVC015
                      TEMPO 2620/2624 -RA FM270000 20006KT 6SM
                       FU BKN025 OVC050 FM270600 VRB03KT 6SM FU
                       SCT025 BKN050 BKN200 FM271200 02004KT 5SM
                       BR FU OVC012=
201808261125 TAF KSEA 261125Z 2612/2718 VRB03KT 5SM FU SCT022 OVC040 FM261400
                       17005KT 5SM FU OVC015 FM261800 20008KT 6SM
                       FU VCSH OVC015
                      TEMPO 2620/2624 -RA FM270000 20006KT 6SM
                       FU BKN025 OVC050 FM270600 VRB03KT 6SM FU
                       SCT025 BKN050 BKN200 FM271200 02004KT 5SM
                       BR FU OVC012=
201808260944 KSEA 260944Z 2610/2712 VRB03KT 5SM FU OVC025 FM261300 17005KT 5SM
                       FU OVC012 FM261800 20007KT 6SM FU VCSH OVC015
                       FM262200 20007KT 6SM FU VCSH BKN018 OVC050
                       PROB30 2622/2704 -SHRA FM270400 17005KT
                       6SM FU VCSH OVC015=
201808260905 KSEA 260905Z 2609/2712 VRB03KT 5SM FU OVC035 FM261300 17005KT 5SM
                       FU OVC012 FM261800 20007KT 6SM FU VCSH OVC015
                       FM262200 20007KT 6SM FU VCSH BKN018 OVC050
                       PROB30 2622/2704 -SHRA FM270400 17005KT
                       6SM FU VCSH OVC015=
201808260526 TAF KSEA 260526Z 2606/2712 VRB03KT 6SM HZ FU SCT029 OVC040 FM260800
                       17003KT 5SM FU BKN020 BKN070 FM261300 17005KT
                       5SM FU OVC012 FM261800 20007KT 6SM FU VCSH
                       OVC015 FM262200 20007KT 6SM FU VCSH BKN018
                       OVC050
                      PROB30 2622/2704 -SHRA FM270400 17005KT 6SM
                       FU VCSH OVC015=
201808260301 KSEA 260301Z 2603/2706 VRB04KT 6SM FU BKN028 OVC035 FM260800 17003KT
                       5SM FU BKN020 BKN070 FM261100 17005KT 4SM
                       FU OVC010 FM261700 20007KT 5SM FU VCSH OVC015
                       FM262000 20007KT 6SM FU VCSH BKN018 OVC060
                       PROB30 2620/2624 -SHRA FM270100 17005KT
                       6SM FU VCSH OVC012=
201808260129 KSEA 260129Z 2601/2706 20003KT 6SM FU BKN035 OVC045 FM260600 VRB03KT
                       5SM FU BKN020 BKN070 FM261000 17005KT 4SM
                       FU OVC010 FM261700 20007KT 5SM FU VCSH OVC015
                       FM262000 20007KT 6SM FU VCSH BKN018 OVC060
                       PROB30 2620/2624 -SHRA FM270100 17005KT
                       6SM FU VCSH OVC012=
201808252332 TAF KSEA 252332Z 2600/2706 24006KT 6SM FU VCSH BKN025 OVC080 FM260600
                       VRB03KT 5SM FU BKN020 BKN070 FM261000 17005KT
                       4SM FU OVC010 FM261700 20007KT 5SM FU VCSH
                       OVC015 FM262000 20007KT 6SM FU VCSH BKN018
                       OVC060
                      PROB30 2620/2624 -SHRA FM270100 17005KT 6SM
                       FU VCSH OVC012=
201808252100 KSEA 252100Z 2521/2624 24007KT 6SM FU VCSH SCT020 BKN040 OVC070
                       FM260000 26007KT 6SM FU VCSH BKN040 BKN100
                       FM260600 VRB03KT 5SM FU BKN020 BKN060 FM261000
                       17005KT 4SM FU OVC010 FM261700 20007KT 5SM
                       FU OVC018=
201808251738 TAF KSEA 251738Z 2518/2624 21007KT 4SM FU VCSH OVC012
                      TEMPO 2518/2520 -SHRA FM252000 22007KT 5SM
                       FU VCSH OVC022 FM260000 26007KT 6SM FU VCSH
                       BKN040 BKN100 FM260600 VRB03KT 5SM FU BKN020
                       BKN060 FM261000 17005KT 4SM FU OVC010 FM261700
                       20007KT 5SM FU OVC018=
201808251501 KSEA 251501Z 2515/2618 22005KT 4SM FU OVC008 FM251700 22007KT 5SM
                       FU SCT009 BKN020 OVC100 FM252000 22007KT
                       5SM FU VCSH OVC050 FM260300 VRB03KT 5SM
                       FU FEW035 BKN050 FM261000 19005KT 5SM FU
                       OVC025=
201808251402 KSEA 251402Z 2514/2618 19005KT 3SM BR FU OVC006 FM251600 19005KT
                       5SM BR FU SCT009 BKN020 BKN100 FM251800
                       22007KT 5SM FU SCT050 OVC100 FM252000 22007KT
                       5SM FU VCSH OVC050 FM260300 VRB03KT 5SM
                       FU FEW035 BKN050 FM261000 19005KT 5SM FU
                       OVC025=
201808251352 KSEA 251352Z 2514/2618 19005KT 5SM BR FU BKN006 BKN020 BKN100 FM251600
                       19005KT 5SM BR FU SCT009 BKN020 BKN100 FM251800
                       22007KT 5SM FU SCT050 OVC100 FM252000 22007KT
                       5SM FU VCSH OVC050 FM260300 VRB03KT 5SM
                       FU FEW035 BKN050 FM261000 19005KT 5SM FU
                       OVC025=
201808251207 KSEA 251207Z 2512/2618 19005KT 5SM BR FU SCT008 SCT020 SCT100
                      TEMPO 2512/2516 BKN008 BKN020 BKN100 FM251800
                       22007KT 5SM FU SCT050 OVC100 FM252000 22007KT
                       5SM FU VCSH OVC050 FM260300 VRB03KT 5SM
                       FU FEW035 BKN050 FM261000 19005KT 5SM FU
                       OVC025=
201808251140 TAF KSEA 251140Z 2512/2618 17005KT 5SM BR FU SCT020 SCT100 OVC250
                       TEMPO 2513/2517 BKN020 BKN100 OVC250 FM251800
                       22007KT 5SM FU SCT050 OVC100 FM252000 22007KT
                       5SM FU VCSH OVC050 FM260300 VRB03KT 5SM
                       FU FEW035 BKN050 FM261000 19005KT 5SM FU
                       OVC025=
201808250924 KSEA 250924Z 2509/2612 VRB03KT 5SM FU BKN250 FM251200 19005KT 3SM
                       FU OVC018 FM252000 22007KT P6SM BKN035 BKN100
                       FM260300 VRB03KT P6SM BKN030 BKN080=
201808250651 KSEA 250651Z 2507/2612 19005KT 6SM FU SCT035 SCT250 FM251000 19004KT
                       3SM FU BKN030 FM251200 19005KT 3SM FU OVC018
                       FM252000 22007KT P6SM BKN035 BKN100 FM260300
                       VRB03KT P6SM BKN030 BKN080=
201808250520 TAF KSEA 250520Z 2506/2612 23007KT 3SM HZ FU BKN030 FM250800 19004KT
                       3SM HZ FU BKN030 FM251200 19005KT 3SM HZ
                       FU OVC018 FM252000 22007KT P6SM BKN035 BKN100
                       FM260300 VRB03KT P6SM BKN030 BKN080=
201808250253 KSEA 250253Z 2503/2606 23007KT 4SM HZ BKN030 BKN080 FM250800 19004KT
                       P6SM BKN030 FM251200 19005KT P6SM OVC018
                       FM252000 22007KT P6SM BKN035 BKN100 FM260500
                       25005KT P6SM BKN030 BKN080=
201808242329 TAF KSEA 242329Z 2500/2606 21009KT 6SM HZ BKN040 BKN080 FM250600
                       19004KT P6SM BKN030 FM250900 19005KT P6SM
                       OVC018 FM252000 22007KT P6SM BKN035 BKN100
                       FM260500 25005KT P6SM BKN030 BKN080=
201808242102 KSEA 242102Z 2421/2524 21009KT P6SM SCT040 FM250600 19004KT P6SM
                       BKN030 FM250900 19005KT P6SM OVC018 FM252000
                       22007KT P6SM BKN030=
201808241737 TAF KSEA 241737Z 2418/2524 21008KT P6SM BKN020 BKN030 FM242000
                       22008KT P6SM BKN040 FM242300 21007KT P6SM
                       SCT045 SCT250 FM250600 19004KT P6SM BKN030
                       FM250900 19005KT P6SM OVC018 FM252000 22007KT
                       P6SM BKN030=
201808241458 KSEA 241458Z 2415/2518 21007KT P6SM OVC015 FM241800 21009KT P6SM
                       OVC022 FM242100 22008KT P6SM FEW030 BKN050
                       FM250000 26005KT P6SM BKN060 BKN250 FM250300
                       VRB04KT P6SM SCT060 BKN250 FM250900 19005KT
                       P6SM OVC020=
201808241140 TAF KSEA 241140Z 2412/2518 21007KT P6SM OVC015 FM241800 21009KT
                       P6SM OVC022 FM242100 22008KT P6SM FEW030
                       BKN050 FM250000 26005KT P6SM BKN060 BKN250
                       FM250300 VRB04KT P6SM SCT060 BKN250 FM250900
                       19005KT P6SM OVC020=
201808240907 KSEA 240907Z 2409/2512 20006KT P6SM OVC015 FM241700 20008KT P6SM
                       BKN015 OVC020 FM242200 22008KT P6SM BKN020
                       FM250000 22005KT P6SM BKN030=
201808240645 KSEA 240645Z 2407/2512 22006KT P6SM BKN025 OVC060 FM241000 19009KT
                       P6SM OVC020 FM241300 19008KT P6SM OVC010
                       FM241700 20008KT P6SM BKN015 OVC020 FM242200
                       22008KT P6SM BKN020 FM250000 22005KT P6SM
                       BKN030=
201808240524 TAF KSEA 240524Z 2406/2512 23010KT P6SM SCT060 SCT250 FM241000
                       19009KT P6SM OVC020 FM241300 19008KT P6SM
                       OVC010 FM241700 20008KT P6SM BKN015 OVC020
                       FM242200 22008KT P6SM BKN020 FM250000 22005KT
                       P6SM BKN030=
201808240357 KSEA 240357Z 2404/2506 23010KT P6SM SCT060 SCT250 FM240600 19009KT
                       P6SM OVC020 FM241000 19008KT P6SM OVC010
                       FM241700 20008KT P6SM BKN015 OVC020 FM242200
                       22008KT P6SM BKN020 FM250000 22005KT P6SM
                       BKN030=
201808232358 TAF KSEA 232358Z 2400/2506 23012KT P6SM SCT040 BKN200 FM240500
                       19009KT P6SM OVC020 FM241000 19008KT P6SM
                       OVC010
                      PROB30 2412/2416 -DZ FM241700 20008KT P6SM
                       BKN015 OVC020 FM242200 22008KT P6SM BKN020
                       FM250000 22005KT P6SM BKN030=
201808232100 KSEA 232100Z 2321/2424 24010KT P6SM SCT035 FM240500 19009KT P6SM
                       OVC020 FM241000 19010KT P6SM OVC010
                      PROB30 2412/2416 -DZ FM241700 20008KT P6SM
                       BKN015 OVC020 FM242200 22008KT P6SM BKN020=
201808231752 TAF KSEA 231752Z 2318/2424 19010KT P6SM FEW015 OVC022
                      TEMPO 2319/2321 BKN022 FM232100 20010KT P6SM
                       SCT025 FM240500 19009KT P6SM OVC020 FM241000
                       19010KT P6SM OVC010
                      PROB30 2412/2416 -DZ FM241700 20008KT P6SM
                       BKN015 OVC020 FM242200 22008KT P6SM BKN020=
201808231642 KSEA 231642Z 2317/2418 17010KT P6SM BKN015 OVC020 FM231900 18011KT
                       P6SM BKN020 FM232100 20010KT P6SM SCT025
                       FM240500 19009KT P6SM OVC022 FM241000 19010KT
                       P6SM OVC016
                      PROB30 2412/2416 -DZ=
201808231459 KSEA 231459Z 2315/2418 22008KT 3SM -DZ BR OVC003 FM231700 22010KT
                       P6SM OVC010 FM231900 22011KT P6SM BKN018
                       FM232100 21010KT P6SM SCT025 FM240500 19009KT
                       P6SM OVC022 FM241000 19010KT P6SM OVC016
                       PROB30 2412/2416 -DZ=
201808231137 TAF KSEA 231137Z 2312/2418 22010KT 3SM FU OVC012
                      TEMPO 2315/2319 P6SM NSW OVC015 FM231900
                       22011KT P6SM BKN018 FM232100 21010KT P6SM
                       SCT025 FM240500 19009KT P6SM OVC022 FM241000
                       19010KT P6SM OVC016
                      PROB30 2412/2416 -DZ=
201808230917 KSEA 230917Z 2309/2412 19010KT 3SM FU BKN011 BKN035 FM231100 22010KT
                       5SM FU OVC010 FM231900 22011KT P6SM BKN025
                       FM232200 21010KT P6SM SCT030 FM240100 23006KT
                       P6SM BKN040=
201808230737 KSEA 230737Z 2308/2412 19010KT 3SM FU BKN011 BKN035 FM231100 22010KT
                       P6SM OVC010 FM231900 22011KT P6SM BKN025
                       FM232200 21010KT P6SM SCT030 FM240100 23006KT
                       P6SM BKN040=
201808230520 TAF KSEA 230520Z 2306/2412 21008KT 3SM FU BKN030 FM230800 19010KT
                       6SM FU SCT030 FM231100 22010KT P6SM OVC010
                       FM231900 22011KT P6SM BKN025 FM232200 21010KT
                       P6SM SCT030 FM240100 23006KT P6SM BKN040=
201808230310 KSEA 230310Z 2303/2406 21006KT 3SM FU BKN030 FM230500 19010KT 6SM
                       FU SCT030 FM231100 22010KT P6SM OVC010 FM231900
                       22011KT P6SM BKN025 FM232200 21010KT P6SM
                       SCT030 FM240100 23006KT P6SM BKN040=
201808222326 TAF KSEA 222326Z 2300/2406 28006KT 4SM FU BKN025 FM230500 19010KT
                       6SM FU SCT030 FM231100 22010KT P6SM OVC010
                       FM231900 22011KT P6SM BKN025 FM232200 21010KT
                       P6SM SCT030=
201808222055 KSEA 222055Z 2221/2324 28006KT 4SM FU BKN030 FM230500 19010KT 6SM
                       FU SCT050 FM231100 22010KT P6SM OVC010 FM231900
                       22011KT P6SM BKN025 FM232300 21010KT P6SM
                       SCT030=
201808221754 TAF KSEA 221754Z 2218/2324 19006KT 3SM FU OVC040 FM222300 24007KT
                       4SM FU BKN040 FM230500 19010KT 6SM FU SCT050
                       FM231100 22010KT P6SM OVC010 FM231900 22011KT
                       P6SM BKN025 FM232300 21010KT P6SM SCT030=
201808221505 KSEA 221505Z 2215/2318 19006KT 3SM FU OVC040 FM221900 23008KT 4SM
                       FU BKN040 FM230500 20010KT 6SM FU SCT050
                       FM231100 22010KT P6SM OVC010=
201808221120 TAF KSEA 221120Z 2212/2318 VRB04KT 3SM FU OVC035 FM221900 25008KT
                       4SM FU BKN040 FM230500 20010KT 6SM FU SCT050
                       FM231100 22010KT P6SM OVC010=
201808220840 KSEA 220840Z 2209/2312 34005KT 3SM FU OVC030 FM221200 VRB03KT 3SM
                       FU OVC025 FM221900 25008KT 4SM FU BKN040
                       FM230600 22010KT 6SM FU SCT050 FM231100
                       22010KT P6SM OVC012=
201808220532 TAF KSEA 220532Z 2206/2312 02008KT 3SM FU OVC030 FM221200 VRB03KT
                       3SM FU OVC025 FM221900 25008KT 4SM FU BKN040
                       FM230600 22010KT 6SM FU SCT050 FM231100
                       22010KT P6SM OVC012=
201808220210 KSEA 220210Z 2202/2306 01008KT 3SM FU BKN025 FM221200 VRB03KT 2SM
                       FU OVC025 FM221900 25007KT 4SM FU BKN040=
201808212320 TAF KSEA 212320Z 2200/2306 35008KT 3SM FU BKN035 FM220300 03005KT
                       3SM FU OVC040 FM221200 VRB03KT 2SM FU OVC040
                       FM221900 25007KT 4SM FU BKN040=
201808212104 KSEA 212104Z 2121/2224 35008KT 3SM FU OVC040 FM220300 03005KT 3SM
                       FU OVC040 FM221200 VRB03KT 2SM FU OVC040=
201808211811 KSEA 211811Z 2118/2224 02008KT 4SM FU OVC045 FM212000 35008KT 3SM
                       FU OVC040 FM220300 03005KT 3SM FU OVC040
                       FM221200 VRB03KT 2SM FU OVC040=
201808211720 TAF KSEA 211720Z 2118/2224 35005KT 2SM FU OVC050 FM212000 35008KT
                       3SM FU OVC040 FM220300 03005KT 3SM FU OVC040
                       FM221200 VRB03KT 2SM FU OVC040=
201808211503 KSEA 211503Z 2115/2218 35005KT 1 1/2SM FU OVC045 FM212000 35008KT
                       3SM FU OVC040 FM220300 03005KT 3SM FU OVC040=
201808211334 KSEA 211334Z 2114/2218 04005KT 3SM FU OVC050 FM211800 35008KT 5SM
                       FU OVC050 FM220000 35008KT 4SM FU OVC040
                       FM220300 03005KT 3SM FU OVC040=
201808211120 TAF KSEA 211120Z 2112/2218 04005KT 5SM FU OVC050 FM211800 35008KT
                       5SM FU OVC050 FM220000 35008KT 4SM FU OVC040
                       FM220300 03005KT 3SM FU OVC040=
201808210830 KSEA 210830Z 2109/2212 VRB03KT 3SM FU OVC045 FM211200 VRB03KT 5SM
                       FU OVC050 FM211800 35008KT 5SM FU OVC050
                       FM220000 35008KT 4SM FU OVC040 FM220300
                       03005KT 3SM FU OVC035=
201808210523 TAF KSEA 210523Z 2106/2212 VRB03KT 3SM FU VV050 FM211200 VRB03KT
                       5SM FU VV050 FM211800 35008KT 5SM FU VV050
                       FM220000 35008KT 4SM FU VV040 FM220300 03005KT
                       3SM FU VV035=
201808210420 KSEA 210420Z 2104/2206 04005KT 3SM FU VV045=
201808210312 KSEA 210312Z 2103/2206 03007KT 3SM FU VV028 FM210600 03005KT 3SM
                       FU OVC030=
201808202320 TAF KSEA 202320Z 2100/2206 36007KT 3SM FU OVC025 FM210600 03005KT
                       3SM FU OVC030=
201808201957 KSEA 201957Z 2020/2124 01013G18KT 4SM FU OVC030 FM210300 01010KT
                       4SM FU OVC040 FM210600 03005KT 4SM FU OVC040=
201808201722 TAF KSEA 201722Z 2018/2124 35008KT 5SM FU OVC035 FM202100 35013KT
                       4SM FU OVC035 FM210300 01010KT 4SM FU OVC040
                       FM210600 03005KT 4SM FU OVC040=
201808201501 KSEA 201501Z 2015/2118 33004KT 6SM FU OVC040 FM201800 35010KT 3SM
                       FU OVC040 FM202100 35015G22KT 4SM FU OVC040
                       FM210200 01012KT 3SM FU OVC040 FM210600
                       03008KT 3SM FU OVC040=
201808201123 TAF KSEA 201123Z 2012/2118 36004KT 5SM FU OVC045 FM201800 35010KT
                       3SM FU OVC040 FM202100 35015G22KT 4SM FU
                       OVC040 FM210200 01012KT 3SM FU OVC040 FM210600
                       03008KT 3SM FU OVC040=
201808200900 KSEA 200900Z 2009/2112 36007KT 3SM FU OVC035 FM201400 02007KT 1
                       1/2SM FU OVC025 FM201800 35013KT 3SM FU
                       OVC030 FM202100 35017G22KT 4SM FU OVC040
                       FM210200 01012KT 3SM FU OVC040 FM210600
                       03008KT 2SM FU OVC030=
201808200541 TAF KSEA 200541Z 2006/2112 36007KT 3SM FU OVC035 FM201400 02007KT
                       1 1/2SM FU OVC025 FM201800 35013KT 3SM FU
                       OVC030 FM202100 35017G22KT 4SM FU OVC040
                       FM210200 01012KT 3SM FU OVC040 FM210600
                       03008KT 2SM FU OVC030=
201808200412 KSEA 200412Z 2004/2106 34006KT 1 1/2SM FU OVC035 FM200900 02005KT
                       2SM FU BKN025 FM201900 35010KT 3SM FU SCT040=
201808200347 KSEA 200347Z 2004/2106 34006KT 2SM FU OVC030 FM200900 02005KT 2SM
                       FU BKN025 FM201900 35010KT 3SM FU SCT040=
201808200308 KSEA 200308Z 2003/2106 VRB03KT 1 1/2SM FU OVC025 FM200600 02005KT
                       2SM FU BKN025 FM201900 35010KT 3SM FU SCT040=
201808200120 KSEA 200120Z 2001/2106 35010KT 1 1/2SM FU OVC035 FM200600 02005KT
                       3SM FU BKN035 FM201900 35010KT 3SM FU SCT040=
201808192320 TAF KSEA 192320Z 2000/2106 34008KT 3SM FU SCT035 FM200600 02005KT
                       3SM FU BKN035 FM201900 35010KT 3SM FU SCT040=
201808192101 KSEA 192101Z 1921/2024 33008KT 6SM HZ FU SKC FM200000 02006KT 4SM
                       FU SCT040 FM201200 35007KT 3SM FU BKN040=
201808191720 TAF KSEA 191720Z 1918/2024 33008KT P6SM SKC FM200000 02006KT 4SM
                       FU SCT040 FM201200 35007KT 3SM FU BKN040=
201808191504 KSEA 191504Z 1915/2018 34004KT P6SM SKC FM191800 34010KT 6SM FU
                       FEW120 FM200600 02006KT 4SM FU SCT040=
201808191137 TAF KSEA 191137Z 1912/2018 VRB03KT P6SM SKC FM191800 34010KT 6SM
                       FU FEW120 FM200600 02006KT 4SM FU SKC=
201808190900 KSEA 190900Z 1909/2012 36006KT P6SM SKC FM191800 34010KT 6SM FU
                       FEW130 FM200600 02006KT 4SM FU SKC=
201808190541 TAF KSEA 190541Z 1906/2012 36006KT P6SM SKC FM191800 34010KT 6SM
                       FU FEW130 FM200600 02006KT 4SM FU SKC=
201808190309 KSEA 190309Z 1903/2006 35004KT P6SM SCT200 FM191200 VRB04KT P6SM
                       SCT200 FM191800 33008KT 6SM FU SKC FM192200
                       32009KT 6SM FU SCT040=
201808182320 TAF KSEA 182320Z 1900/2006 32011KT P6SM SKC FM190300 36005KT P6SM
                       SKC FM191200 VRB04KT P6SM SKC FM191800 33008KT
                       P6SM SKC FM192200 32009KT 6SM FU SCT040=
201808182102 KSEA 182102Z 1821/1924 32007KT P6SM SKC FM190300 36005KT P6SM SKC
                       FM191200 VRB04KT P6SM SKC FM191800 33008KT
                       P6SM SKC=
201808181722 TAF KSEA 181722Z 1818/1924 32007KT P6SM FEW200 FM190300 36005KT
                       P6SM SKC FM191200 VRB04KT P6SM SKC FM191800
                       33008KT P6SM SKC=
201808181501 KSEA 181501Z 1815/1918 VRB03KT P6SM FEW020 SCT200 FM181800 32007KT
                       P6SM FEW200 FM190300 36005KT P6SM SKC FM191200
                       VRB03KT P6SM SCT015=
201808181142 TAF KSEA 181142Z 1812/1918 VRB03KT P6SM SKC FM181400 VRB03KT P6SM
                       FEW012 FM181600 VRB03KT P6SM SKC FM181800
                       32007KT P6SM SKC FM190300 36005KT P6SM SKC
                       FM191200 VRB03KT P6SM SCT015=
201808180904 KSEA 180904Z 1809/1912 00000KT P6SM SKC FM181200 VRB03KT P6SM FEW012
                       FM181600 VRB03KT P6SM SKC FM181800 32007KT
                       P6SM SKC FM190300 36005KT P6SM SKC=
201808180531 TAF KSEA 180531Z 1806/1912 21004KT P6SM SKC FM181200 VRB03KT P6SM
                       FEW012 FM181600 VRB03KT P6SM SKC FM181800
                       32007KT P6SM SKC FM190300 36005KT P6SM SKC=
201808180309 KSEA 180309Z 1803/1906 19005KT P6SM SKC FM181200 VRB03KT P6SM SCT015
                       FM181900 32007KT P6SM SKC=
201808172320 TAF KSEA 172320Z 1800/1906 23007KT P6SM SKC FM180300 VRB05KT P6SM
                       SKC FM181200 VRB03KT P6SM SCT015 FM181900
                       32007KT P6SM SKC=
201808172102 KSEA 172102Z 1721/1824 23007KT P6SM FEW250 FM180000 VRB05KT P6SM
                       FEW250 FM180600 18003KT P6SM SKC FM181200
                       VRB03KT P6SM SCT015 FM181800 32007KT P6SM
                       SKC=
201808171901 KSEA 171901Z 1719/1824 24007KT P6SM BKN019 BKN040 FM172000 23007KT
                       P6SM SCT025 SCT250 FM180000 VRB05KT P6SM
                       FEW250 FM180600 18003KT P6SM SKC FM181200
                       VRB03KT P6SM SCT015 FM181800 32007KT P6SM
                       SKC=
201808171720 TAF KSEA 171720Z 1718/1824 18005KT P6SM OVC012 FM172000 23007KT
                       P6SM SCT025 SCT250 FM180000 VRB05KT P6SM
                       FEW250 FM180600 18003KT P6SM SKC FM181200
                       VRB03KT P6SM SCT015 FM181800 32007KT P6SM
                       SKC=
201808171507 KSEA 171507Z 1715/1818 18005KT P6SM OVC009 FM171900 21007KT P6SM
                       OVC012 FM172100 23007KT P6SM FEW035 SCT250
                       FM180000 VRB05KT P6SM FEW250 FM180600 18003KT
                       P6SM SKC FM181200 VRB03KT P6SM SCT015=
201808171343 KSEA 171343Z 1714/1818 18005KT P6SM BKN008 OVC030 FM171800 21007KT
                       P6SM BKN020 FM172100 23007KT P6SM FEW035
                       SCT250 FM180000 VRB05KT P6SM FEW250 FM180600
                       18003KT P6SM SKC FM181200 VRB03KT P6SM SCT015=
201808171140 TAF KSEA 171140Z 1712/1818 21005KT P6SM FEW015 FM171300 21005KT
                       P6SM OVC012 FM171800 21007KT P6SM BKN020
                       FM172100 23007KT P6SM FEW035 SCT250 FM180000
                       VRB05KT P6SM FEW250 FM180600 18003KT P6SM
                       SKC FM181200 VRB03KT P6SM SCT015=
201808170900 KSEA 170900Z 1709/1812 20006KT P6SM SKC FM171000 21005KT P6SM SCT020
                       SCT150 FM171400 21005KT P6SM OVC015 FM171800
                       23007KT P6SM SCT022
                      TEMPO 1718/1721 BKN022 FM172100 25007KT P6SM
                       FEW035 SCT250 FM180000 VRB05KT P6SM FEW250=
201808170541 TAF KSEA 170541Z 1706/1812 VRB03KT P6SM BKN150 FM171000 21005KT
                       P6SM SCT020 SCT150 FM171400 21005KT P6SM
                       OVC015 FM171800 23007KT P6SM SCT022
                      TEMPO 1718/1721 BKN022 FM172100 25007KT P6SM
                       FEW035 SCT250 FM180000 VRB05KT P6SM FEW250=
201808170301 KSEA 170301Z 1703/1806 VRB03KT 6SM HZ FU SKC FM171100 22004KT 5SM
                       BR OVC015 FM171200 20004KT 3/4SM BR OVC002
                       FM171700 21005KT 4SM BR OVC007 FM171900
                       23006KT P6SM BKN015 FM172000 23006KT P6SM
                       SKC=
201808162320 TAF KSEA 162320Z 1700/1806 21005KT P6SM SKC FM171100 22004KT 5SM
                       BR OVC015 FM171200 20004KT 3/4SM BR OVC002
                       FM171700 21005KT 4SM BR OVC007 FM171900
                       23006KT P6SM BKN015 FM172000 23006KT P6SM
                       SKC=
201808162100 KSEA 162100Z 1621/1724 26005KT P6SM BKN015 FM162200 21005KT P6SM
                       SKC FM171000 22004KT 5SM BR OVC015 FM171200
                       20004KT 3/4SM BR OVC002 FM171700 21005KT
                       4SM BR OVC007 FM171900 23006KT P6SM BKN015=
201808162004 KSEA 162004Z 1620/1724 22005KT 6SM HZ OVC010 FM162100 22005KT P6SM
                       BKN015 FM162300 21005KT P6SM SKC FM170900
                       21004KT P6SM BKN018 FM171000 22004KT 5SM
                       BR OVC015 FM171200 20004KT 3/4SM BR OVC002
                       FM171700 21005KT 4SM BR OVC007=
201808161724 TAF KSEA 161724Z 1618/1724 22006KT 4SM BR OVC007 FM161900 22007KT
                       P6SM BKN015 FM162100 21005KT P6SM SKC FM170900
                       21004KT P6SM BKN018 FM171000 22004KT 5SM
                       BR OVC015 FM171200 20004KT 3/4SM BR OVC002
                       FM171700 21005KT 4SM BR OVC007=
201808161504 KSEA 161504Z 1615/1718 23007KT 2SM BR OVC003 FM162000 22007KT P6SM
                       BKN012 FM162100 22007KT P6SM SKC FM170000
                       VRB03KT P6SM SKC FM170900 21004KT P6SM BKN018
                       FM171000 22004KT 5SM BR OVC015 FM171200
                       20004KT 3/4SM BR OVC002=
201808161143 TAF KSEA 161143Z 1612/1718 23009KT 3/4SM BR OVC002 FM161800 22007KT
                       P6SM BKN012 FM161900 22007KT P6SM SKC FM170000
                       VRB03KT P6SM SKC FM170200 29004KT P6SM SKC
                       FM170900 21006KT P6SM BKN018 FM171100 22004KT
                       5SM BR OVC015=
201808161037 KSEA 161037Z 1611/1712 21007KT 5SM BR OVC003 FM161800 22007KT P6SM
                       SCT012 FM161900 26007KT P6SM SKC FM170900
                       21006KT P6SM BKN018=
201808160540 TAF KSEA 160540Z 1606/1712 25004KT 6SM FU SKC FM160900 21005KT
                       6SM FU FEW010
                      TEMPO 1610/1612 BKN010 FM161200 19005KT 5SM
                       BR OVC007 FM161800 22007KT P6SM SCT012 FM161900
                       26007KT P6SM SKC FM170900 21006KT P6SM BKN018=
201808160321 KSEA 160321Z 1603/1706 31004KT 6SM FU SKC FM161000 21006KT P6SM
                       SCT010 SCT050 FM161200 VRB04KT P6SM BKN010
                       TEMPO 1614/1616 6SM BR OVC007 FM161700 25006KT
                       P6SM SCT200=
201808152320 TAF KSEA 152320Z 1600/1706 35005KT 6SM HZ FU SCT050 FM161000 21006KT
                       P6SM SCT010 SCT050 FM161200 VRB04KT P6SM
                       BKN010
                      TEMPO 1614/1616 6SM BR OVC007 FM161700 25006KT
                       P6SM SCT200=
201808152055 KSEA 152055Z 1521/1624 28006KT 3SM HZ FU SCT040 FM160300 35005KT
                       6SM HZ FU SCT050 FM161000 21006KT P6SM SCT010
                       SCT050 FM161200 VRB04KT P6SM BKN010
                      TEMPO 1614/1616 6SM BR OVC007 FM161700 23006KT
                       P6SM SCT200=
201808151720 TAF KSEA 151720Z 1518/1624 VRB04KT 3SM HZ FU BKN040 FM152000 28006KT
                       4SM HZ FU BKN045 FM160300 35005KT 6SM HZ
                       FU SCT050 FM161000 21006KT P6SM SCT010 SCT050
                       FM161200 VRB04KT P6SM BKN010
                      TEMPO 1614/1616 6SM BR OVC007=
201808151500 KSEA 151500Z 1515/1618 VRB04KT 3SM HZ FU BKN040 FM151800 28006KT
                       4SM HZ FU BKN045 FM152100 29006KT 5SM HZ
                       FU BKN045 FM160300 35005KT 6SM HZ FU SCT050
                       FM161000 21006KT P6SM SCT010 SCT050 FM161200
                       20006KT P6SM BKN010
                      TEMPO 1614/1616 6SM BR OVC007=
201808151153 TAF KSEA 151153Z 1512/1618 VRB04KT 4SM HZ FU BKN035 FM151400 VRB04KT
                       3SM HZ FU BKN030 FM151800 28006KT 4SM HZ
                       FU BKN045 FM152100 29006KT 5SM HZ FU BKN045
                       FM160300 35005KT 6SM HZ FU SCT050 FM161000
                       21006KT P6SM SCT010 SCT050 FM161200 20006KT
                       P6SM BKN010
                      TEMPO 1614/1616 6SM BR OVC007=
201808150912 KSEA 150912Z 1509/1612 35004KT 4SM HZ FU BKN035 FM151400 VRB03KT
                       3SM HZ FU BKN030 FM152000 28006KT 4SM HZ
                       FU BKN045 FM160300 35005KT 6SM HZ FU SCT050
                       FM161000 21006KT P6SM SCT015=
201808150721 KSEA 150721Z 1507/1612 01005KT 4SM HZ FU BKN035 FM151300 VRB03KT
                       3SM HZ FU BKN030 FM152000 28006KT 4SM HZ
                       FU BKN045 FM160300 01005KT 6SM HZ FU SCT050
                       FM161000 21006KT P6SM SCT015=
201808150520 TAF KSEA 150520Z 1506/1612 01005KT 5SM HZ FU BKN040 FM151300 VRB03KT
                       3SM HZ FU BKN040 FM152100 29005KT 4SM HZ
                       FU BKN040=
201808150300 KSEA 150300Z 1503/1606 35005KT 3SM HZ FU BKN035 FM152100 31005KT
                       P6SM SKC=
201808142320 TAF KSEA 142320Z 1500/1606 30006KT 3SM HZ FU SCT040 FM152100 31005KT
                       P6SM SKC=
201808142047 KSEA 142047Z 1421/1524 30007KT 3SM HZ FU SCT050 FM150000 34006KT
                       P6SM FEW060 FM150900 VRB04KT P6SM SCT060
                       FM151800 21006KT P6SM SCT060 FM152100 31005KT
                       P6SM SCT060=
201808141720 TAF KSEA 141720Z 1418/1524 03004KT 3SM HZ FU SCT050 FM142100 32007KT
                       6SM HZ FU SCT050 FM150000 36006KT P6SM FEW060
                       FM150900 VRB04KT P6SM SCT060 FM151800 21006KT
                       P6SM SCT060 FM152100 31005KT P6SM SCT060=
201808141514 KSEA 141514Z 1415/1518 36004KT 3SM HZ FU SCT050 FM141900 32007KT
                       6SM HZ FU SCT050 FM150000 36006KT P6SM FEW060
                       FM151200 VRB04KT P6SM SCT060 FM151700 21006KT
                       P6SM SCT060=
201808141422 KSEA 141422Z 1414/1518 02004KT 3SM BR FU BKN050 FM141900 32007KT
                       6SM HZ FU SCT050 FM150000 35006KT P6SM FEW060
                       FM150500 02005KT P6SM FEW060 FM151200 VRB04KT
                       P6SM SCT060 FM151700 21006KT P6SM SCT060=
201808141142 TAF KSEA 141142Z 1412/1518 02006KT 5SM HZ FU BKN045 FM141900 32007KT
                       6SM HZ FU SCT050 FM150000 35006KT P6SM FEW060
                       FM150500 02005KT P6SM FEW060 FM151200 VRB04KT
                       P6SM SCT060 FM151700 21006KT P6SM SCT060=
201808140908 KSEA 140908Z 1409/1512 03009KT 6SM HZ FU BKN040 FM141200 01007KT
                       5SM HZ FU BKN040 FM141900 33008KT 6SM HZ
                       FU SCT040 FM150200 35006KT P6SM FEW040 FM150500
                       02006KT P6SM SKC=
201808140520 TAF KSEA 140520Z 1406/1512 36010KT 5SM HZ FU BKN040 FM141900 34006KT
                       6SM HZ FU SCT040=
201808140302 KSEA 140302Z 1403/1506 36007KT 5SM HZ FU BKN035 FM140600 02008KT
                       5SM HZ FU SCT035 FM141900 34006KT 6SM HZ
                       FU SCT030=
201808132322 TAF KSEA 132322Z 1400/1506 02007KT 6SM HZ FU SCT035 FM140600 02008KT
                       5SM HZ FU SCT035 FM141900 34006KT 6SM HZ
                       FU SCT030=
201808132100 KSEA 132100Z 1321/1424 01007KT 6SM HZ SKC FM140600 02008KT 5SM
                       HZ FU SCT035 FM141900 35005KT 6SM HZ FU
                       SCT030=
201808131724 TAF KSEA 131724Z 1318/1424 VRB06KT 6SM HZ FU SCT011 FM131900 35006KT
                       6SM HZ FU SCT050 FM140600 02008KT 5SM HZ
                       FU SCT035 FM141900 35005KT 6SM HZ FU SCT030=
201808131714 KSEA 131714Z 1317/1418 VRB06KT 6SM HZ FU SCT011 FM131800 35008KT
                       6SM HZ FU SCT050 FM140600 02008KT 5SM HZ
                       FU SCT035=
201808131525 KSEA 131525Z 1315/1418 03008KT P6SM BKN011 BKN050 FM131800 35008KT
                       P6SM SCT050 FM140600 02008KT P6SM SCT035=
201808131503 KSEA 131503Z 1315/1418 03008KT P6SM SCT006 SCT050 FM131800 35008KT
                       P6SM SCT080 FM140600 02008KT P6SM SCT080=
201808131120 TAF KSEA 131120Z 1312/1418 02010KT P6SM SCT200 FM131800 35008KT
                       P6SM SCT080 FM140600 02008KT P6SM SCT080=
201808130904 KSEA 130904Z 1309/1412 02010KT P6SM SCT200 FM131800 35008KT P6SM
                       SCT080=
201808130522 TAF KSEA 130522Z 1306/1412 35007KT P6SM FEW250 FM131300 36007KT
                       P6SM SCT004 FM131900 34009KT P6SM SKC=
201808130308 KSEA 130308Z 1303/1406 36008KT P6SM SCT250 FM130500 01006KT P6SM
                       SKC FM131300 36007KT P6SM SCT004 FM131900
                       34009KT P6SM SKC=
201808122320 TAF KSEA 122320Z 1300/1406 32009KT P6SM OVC250 FM130500 01006KT
                       P6SM SKC FM131300 36007KT P6SM SCT004 FM131900
                       34009KT P6SM SKC=
201808122102 KSEA 122102Z 1221/1324 29009KT P6SM SCT035 BKN070 OVC230 FM122200
                       32006KT P6SM BKN070 FM130100 35006KT P6SM
                       SKC FM130500 01006KT P6SM SKC FM131300 36007KT
                       P6SM SCT004 FM131900 34009KT P6SM SKC=
201808121720 TAF KSEA 121720Z 1218/1324 24005KT P6SM SCT020 BKN040
                      TEMPO 1218/1219 BKN020 BKN040 FM122200 32008KT
                       P6SM SCT050 FM130100 35008KT P6SM SKC FM130500
                       01007KT P6SM SKC FM131300 36007KT P6SM SCT004
                       FM131900 34009KT P6SM SKC=
201808121437 KSEA 121437Z 1215/1318 16004KT P6SM SCT014 BKN040 FM122100 32008KT
                       P6SM SCT050 FM130100 36006KT P6SM SKC=
201808121132 TAF KSEA 121132Z 1212/1318 21006KT P6SM BKN035 FM121400 21006KT
                       P6SM OVC030 FM122100 32008KT P6SM SCT050
                       FM130100 36006KT P6SM SKC=
201808120903 KSEA 120903Z 1209/1312 19006KT P6SM BKN040 FM121400 17005KT P6SM
                       OVC015 FM121700 19006KT P6SM BKN030 FM122000
                       32008KT P6SM SCT050 FM130100 36006KT P6SM
                       SKC=
201808120520 TAF KSEA 120520Z 1206/1312 21008KT P6SM SCT060 BKN100 FM121000
                       19006KT P6SM OVC025 FM121300 17005KT P6SM
                       OVC015 FM121700 19006KT P6SM BKN030 FM122000
                       32008KT P6SM SCT050 FM130100 36006KT P6SM
                       SKC=
201808120300 KSEA 120300Z 1203/1306 20008KT P6SM SCT025 SCT050 BKN090 FM121000
                       19006KT P6SM OVC025 FM121300 17005KT P6SM
                       OVC015 FM121700 19006KT P6SM BKN030 FM122100
                       32006KT P6SM SCT050 SCT250=
201808112321 TAF KSEA 112321Z 1200/1306 22011KT P6SM -SHRA SCT024 BKN050 BKN090
                       FM120200 20008KT P6SM VCSH SCT025 OVC050
                       FM121000 19006KT P6SM OVC025 FM121300 17005KT
                       P6SM OVC015 FM121700 19006KT P6SM BKN030
                       FM122100 32006KT P6SM SCT050 SCT250=
201808112101 KSEA 112101Z 1121/1224 20012KT P6SM FEW012 SCT050 BKN090 FM112200
                       20012KT P6SM -SHRA SCT025 BKN035 OVC060
                       FM120200 20008KT P6SM VCSH SCT025 OVC050
                       FM121000 19006KT P6SM OVC025 FM121300 17005KT
                       P6SM OVC015 FM121700 19006KT P6SM BKN030
                       FM122000 29005KT P6SM BKN050=
201808111735 TAF KSEA 111735Z 1118/1224 21011KT P6SM FEW020 BKN028 BKN080 FM111900
                       20012G20KT P6SM -SHRA SCT020 BKN035 BKN060
                       FM120200 20008KT P6SM VCSH SCT025 OVC050
                       FM121000 19006KT P6SM OVC025 FM121300 17005KT
                       P6SM OVC015 FM121700 19006KT P6SM BKN030
                       FM122000 29005KT P6SM BKN050=
201808111501 KSEA 111501Z 1115/1218 21008KT P6SM FEW018 BKN030 BKN080 FM111700
                       21012KT P6SM -SHRA SCT025 OVC040 FM120000
                       20008KT P6SM SCT025 OVC050 FM121000 19006KT
                       P6SM OVC025 FM121700 19006KT P6SM BKN035=
201808111304 KSEA 111304Z 1113/1218 18008KT P6SM BKN025 BKN035 BKN060
                      TEMPO 1113/1116 SCT025 BKN035 BKN060 FM111700
                       21012KT P6SM -SHRA SCT025 OVC040 FM120000
                       20008KT P6SM SCT025 OVC050 FM121000 19006KT
                       P6SM OVC025 FM121700 19006KT P6SM BKN035=
201808111126 TAF KSEA 111126Z 1112/1218 19010KT P6SM SCT020 BKN035 BKN120
                      TEMPO 1112/1115 OVC020 FM111700 21012KT P6SM
                       -SHRA SCT025 OVC040 FM120100 20008KT P6SM
                       SCT025 OVC050 FM121000 19006KT P6SM OVC025
                       FM121700 19006KT P6SM BKN035=
201808110908 KSEA 110908Z 1109/1212 19012KT P6SM SCT018 SCT025 BKN035
                      TEMPO 1109/1112 SCT015 OVC022 FM111200 19012KT
                       P6SM SCT012 OVC020 FM111500 20012KT P6SM
                       SCT018 BKN025 BKN040 FM111900 21013KT P6SM
                       -SHRA SCT025 OVC040 FM120300 20006KT P6SM
                       SCT025 OVC050 FM121000 19004KT P6SM OVC025=
201808110731 KSEA 110731Z 1108/1212 20008KT P6SM OVC014
                      TEMPO 1108/1109 SCT014 SCT030 FM111500 20007KT
                       P6SM -DZ OVC012 FM111900 21012KT P6SM -SHRA
                       SCT025 OVC040 FM120300 20006KT P6SM SCT025
                       OVC050 FM121000 19004KT P6SM OVC025=
201808110527 TAF KSEA 110527Z 1106/1212 20009KT P6SM FEW250 FM110900 19008KT
                       P6SM SCT050 BKN100 FM111100 19008KT P6SM
                       OVC020 FM111900 21010KT P6SM -SHRA SCT025
                       OVC040 FM120300 20006KT P6SM SCT025 OVC050
                       FM121000 19004KT P6SM OVC025=
201808110302 KSEA 110302Z 1103/1206 17008KT P6SM SCT250 FM110900 19008KT P6SM
                       SCT050 BKN100 FM111100 19008KT P6SM OVC020
                       FM111500 19010KT P6SM -SHRA OVC025 FM111900
                       21011KT P6SM -SHRA SCT025 BKN040
                      TEMPO 1119/1123 -SHRA OVC025=
201808102328 TAF KSEA 102328Z 1100/1206 21012KT P6SM SCT250 FM110800 19008KT
                       P6SM OVC020 FM111500 19010KT P6SM -SHRA
                       OVC025 FM111900 21011KT P6SM -SHRA SCT025
                       BKN040
                      TEMPO 1119/1123 -SHRA OVC025=
201808102100 KSEA 102100Z 1021/1124 20014KT P6SM SKC FM110200 24012G18KT P6SM
                       SCT030 FM110800 20010KT P6SM OVC020 FM111500
                       19010KT P6SM -SHRA OVC025 FM111900 21011KT
                       P6SM -SHRA SCT025 BKN040=
201808101745 TAF KSEA 101745Z 1018/1124 19010KT P6SM SKC FM102200 23011KT P6SM
                       SKC FM110200 24012G18KT P6SM SCT030 FM110800
                       20010KT P6SM OVC020 FM111500 19010KT P6SM
                       -SHRA OVC025 FM111900 21011KT P6SM -SHRA
                       SCT025 BKN040=
201808101505 KSEA 101505Z 1015/1118 18006KT P6SM SKC FM101800 23007KT P6SM SKC
                       FM102200 23011KT P6SM SKC FM110200 24012G18KT
                       P6SM SCT030 FM110800 20010KT P6SM OVC020
                       FM111500 19010KT P6SM -SHRA OVC025=
201808101305 KSEA 101305Z 1013/1118 VRB04KT P6SM SKC FM101700 23007KT P6SM SKC
                       FM102200 23011KT P6SM SKC FM110200 24012G18KT
                       P6SM SCT030 FM110800 20010KT P6SM OVC020
                       FM111500 19010KT P6SM -SHRA OVC025=
201808101123 TAF KSEA 101123Z 1012/1118 01005KT P6SM SKC FM101800 23008KT P6SM
                       SKC FM102200 23011KT P6SM SKC FM110200 24012G18KT
                       P6SM SCT030 FM110800 20010KT P6SM OVC020
                       FM111500 19010KT P6SM -SHRA OVC025=
201808100914 KSEA 100914Z 1009/1112 02007KT P6SM SKC FM101200 01005KT P6SM SKC
                       FM101800 23008KT P6SM SKC FM102200 23012KT
                       P6SM SKC FM110200 23012G20KT P6SM SCT030
                       FM110800 21010KT P6SM OVC020=
201808100520 TAF KSEA 100520Z 1006/1112 02007KT P6SM SKC FM101200 VRB04KT P6SM
                       SKC FM101800 23008KT P6SM SKC FM102200 23012KT
                       P6SM SKC FM110200 23012G20KT P6SM SCT030
                       FM110800 21010KT P6SM OVC020=
201808100302 KSEA 100302Z 1003/1106 35007KT P6SM SKC FM100600 03010KT P6SM SKC
                       FM101200 VRB04KT P6SM SKC FM101800 23008KT
                       P6SM SKC FM102200 23012KT P6SM SKC FM110200
                       23012G20KT P6SM SCT030=
201808092335 TAF KSEA 092335Z 1000/1106 35007KT P6SM BKN070 FM101500 21006KT
                       P6SM SCT100 BKN200 FM102100 23014G20KT P6SM
                       FEW030 FM110400 23012G18KT P6SM SCT012 BKN018=
201808092228 KSEA 092228Z 0922/1024 32007KT P6SM BKN070 FM101600 22009KT P6SM
                       SCT100 BKN200=
201808091735 TAF KSEA 091735Z 0918/1024 26005KT P6SM SCT070 FM092200 34007KT
                       P6SM BKN070 FM101600 22009KT P6SM SCT100
                       BKN200=
201808091506 KSEA 091506Z 0915/1018 19005KT P6SM SCT070 FM092000 31007KT P6SM
                       BKN070 FM100100 34007KT P6SM BKN070 FM101200
                       21005KT P6SM BKN010=
201808091120 TAF KSEA 091120Z 0912/1018 21006KT P6SM SKC FM092000 31007KT P6SM
                       SKC FM100100 34007KT P6SM SKC FM101200 21005KT
                       P6SM BKN010=
201808090859 KSEA 090859Z 0909/1012 19006KT P6SM SKC FM092000 30006KT P6SM SKC=
201808090520 TAF KSEA 090520Z 0906/1012 VRB04KT P6SM SKC=
201808082329 TAF KSEA 082329Z 0900/1006 33006KT P6SM SCT070 SCT100 FM091000
                       21003KT P6SM SCT070 SCT100 FM091900 33006KT
                       P6SM BKN070 BKN100=
201808082056 KSEA 082056Z 0821/0924 32006KT P6SM SCT100 SCT250 FM091000 21003KT
                       P6SM SCT100 FM091800 32006KT P6SM SCT100=
201808081737 TAF KSEA 081737Z 0818/0924 32006KT P6SM SCT100 SCT250 FM091000
                       21003KT P6SM SCT100 FM091800 32006KT P6SM
                       SCT100=
201808081501 KSEA 081501Z 0815/0918 VRB04KT P6SM SCT250 FM081900 32006KT P6SM
                       FEW200 FM090800 VRB04KT P6SM SKC=
201808081132 TAF KSEA 081132Z 0812/0918 VRB04KT P6SM SKC FM081900 32006KT P6SM
                       FEW200 FM090800 VRB04KT P6SM SKC=
201808080859 KSEA 080859Z 0809/0912 36007KT P6SM SKC=
201808080520 TAF KSEA 080520Z 0806/0912 36007KT P6SM SKC=
201808080301 KSEA 080301Z 0803/0906 36009KT P6SM FEW250 FM080600 02006KT P6SM
                       SKC FM081900 32006KT P6SM SKC=
201808072320 TAF KSEA 072320Z 0800/0906 36009KT P6SM FEW250 FM080600 02006KT
                       P6SM SKC FM081900 32006KT P6SM SKC=
201808072040 KSEA 072040Z 0721/0824 35010KT P6SM FEW250 FM080600 02006KT P6SM
                       SKC FM081900 34008KT P6SM SKC=
201808071720 TAF KSEA 071720Z 0718/0824 00000KT P6SM FEW250 FM071900 34010KT
                       P6SM SKC FM080600 02006KT P6SM SKC FM081900
                       34008KT P6SM SKC=
201808071506 KSEA 071506Z 0715/0818 00000KT P6SM FEW250 FM071900 34010KT P6SM
                       SKC FM080600 02008KT P6SM SKC=
201808071126 TAF KSEA 071126Z 0712/0818 36005KT P6SM SKC FM071900 34008KT P6SM
                       SKC FM080600 02008KT P6SM SKC=
201808070846 KSEA 070846Z 0709/0812 36005KT P6SM SKC FM071900 34008KT P6SM SKC=
201808070520 TAF KSEA 070520Z 0706/0812 03008KT P6SM SKC FM071900 34008KT P6SM
                       SKC=
201808062320 TAF KSEA 062320Z 0700/0806 36006KT P6SM SCT250 FM070500 03006KT
                       P6SM SKC FM071900 34008KT P6SM SKC=
201808062103 KSEA 062103Z 0621/0724 32008KT P6SM BKN250 FM070500 03006KT P6SM
                       SKC FM071900 34008KT P6SM SKC=
201808061726 TAF KSEA 061726Z 0618/0724 VRB03KT P6SM BKN250 FM061900 32008KT
                       P6SM SCT200 FM070500 03006KT P6SM SKC FM071900
                       34008KT P6SM SKC=
201808061604 KSEA 061604Z 0616/0718 VRB04KT P6SM SCT250 FM061900 32008KT P6SM
                       SCT200 FM070500 02005KT P6SM FEW200=
201808061128 TAF KSEA 061128Z 0612/0718 VRB04KT P6SM BKN200 FM061900 32008KT
                       P6SM SCT200 FM070500 02005KT P6SM FEW200=
201808060859 KSEA 060859Z 0609/0712 36005KT P6SM BKN200 FM061900 32008KT P6SM
                       SCT200 FM070500 02005KT P6SM FEW200=
201808060520 TAF KSEA 060520Z 0606/0712 02005KT P6SM BKN250 FM061900 32008KT
                       P6SM SCT200 FM070500 02005KT P6SM FEW200=
201808060324 KSEA 060324Z 0603/0706 34006KT P6SM BKN250 FM060600 02005KT P6SM
                       BKN250 FM061900 32008KT P6SM BKN200=
201808052320 TAF KSEA 052320Z 0600/0706 30008KT P6SM FEW250 FM060400 01005KT
                       P6SM FEW250 FM061900 32008KT P6SM FEW200=
201808052100 KSEA 052100Z 0521/0624 30010KT P6SM FEW070 FM060400 01005KT P6SM
                       FEW250 FM061900 32008KT P6SM FEW250=
201808051722 TAF KSEA 051722Z 0518/0624 25005KT P6SM SCT250 FM052000 30007KT
                       P6SM FEW070 SCT250 FM060400 01005KT P6SM
                       FEW250 FM061900 32008KT P6SM FEW250=
201808051500 KSEA 051500Z 0515/0618 24004KT P6SM BKN250 FM051900 30007KT P6SM
                       SCT250 FM060400 36005KT P6SM FEW120 SCT250=
201808051132 TAF KSEA 051132Z 0512/0618 VRB04KT P6SM SCT200 FM051900 30007KT
                       P6SM SCT200 FM060400 36005KT P6SM FEW120
                       SCT200=
201808050900 KSEA 050900Z 0509/0612 33005KT P6SM FEW060 SCT250 FM051200 VRB04KT
                       P6SM SCT025 SCT200 FM051900 30007KT P6SM
                       BKN250 FM060400 02004KT P6SM SCT100 BKN200=
201808050536 TAF KSEA 050536Z 0506/0612 33005KT P6SM FEW060 SCT250 FM051200
                       VRB04KT P6SM SCT025 SCT200 FM051900 30007KT
                       P6SM BKN250 FM060400 02004KT P6SM SCT100
                       BKN200=
201808050303 KSEA 050303Z 0503/0606 34008KT P6SM FEW025 FEW250 FM050600 02005KT
                       P6SM FEW250 FM051200 VRB04KT P6SM FEW025
                       SCT200 FM051900 31007KT P6SM BKN250 FM060400
                       02004KT P6SM BKN200=
201808042321 TAF KSEA 042321Z 0500/0606 33009KT P6SM FEW070 FM050400 02005KT
                       P6SM FEW250 FM051900 31006KT P6SM FEW250=
201808042100 KSEA 042100Z 0421/0524 32008KT P6SM FEW040 FM050400 02005KT P6SM
                       FEW250 FM051900 31006KT P6SM FEW250=
201808041720 TAF KSEA 041720Z 0418/0524 01008KT P6SM FEW005 FM041900 33008KT
                       P6SM FEW050 SCT250 FM050400 02005KT P6SM
                       FEW250 FM051900 31006KT P6SM FEW250=
201808041501 KSEA 041501Z 0415/0518 02008KT P6SM FEW005 SCT015
                      TEMPO 0415/0417 4SM BR BKN005 BKN015 FM041700
                       34008KT P6SM SCT250 FM051000 VRB03KT P6SM
                       SCT200=
201808041131 TAF KSEA 041131Z 0412/0518 34006KT P6SM SKC FM041300 34006KT P6SM
                       SCT004
                      TEMPO 0414/0416 4SM BR BKN004 FM041600 34008KT
                       P6SM SCT250 FM051000 VRB03KT P6SM SCT200=
201808040903 KSEA 040903Z 0409/0512 35006KT P6SM SKC FM041300 35006KT P6SM SCT006
                       FM041600 32006KT P6SM FEW080 SCT250 FM042200
                       32006KT P6SM FEW120 BKN250 FM050500 VRB04KT
                       P6SM SCT200 FM051000 VRB04KT P6SM SCT035
                       SCT200=
201808040554 TAF KSEA 040554Z 0406/0512 35005KT P6SM SCT060 SCT250 FM040900
                       03004KT P6SM BKN050 FM041100 VRB04KT P6SM
                       OVC030 FM041600 30006KT P6SM SCT035 BKN060
                       FM041800 31007KT P6SM FEW080 SCT250 FM042200
                       33006KT P6SM FEW120 BKN250 FM050500 VRB04KT
                       P6SM SCT200 FM051000 VRB04KT P6SM SCT035
                       SCT200=
201808040308 KSEA 040308Z 0403/0506 30005KT P6SM SCT060 SCT250 FM040900 03004KT
                       P6SM BKN030 FM041700 30006KT P6SM SCT025
                       BKN050 FM042100 31008KT P6SM FEW030 SCT050=
201808032325 TAF KSEA 032325Z 0400/0506 29007KT P6SM FEW035 SCT060 FM040300
                       35005KT P6SM FEW030 BKN060 FM041000 VRB03KT
                       P6SM BKN020 OVC040 FM041800 30006KT P6SM
                       SCT025 BKN050 FM042100 31008KT P6SM FEW030
                       SCT050=
201808032101 KSEA 032101Z 0321/0424 25007KT P6SM SCT030 BKN070 BKN200 FM040200
                       35006KT P6SM BKN060 FM041000 VRB03KT P6SM
                       OVC020 FM041800 30006KT P6SM SCT025 BKN040=
201808031720 TAF KSEA 031720Z 0318/0424 25005KT P6SM SCT020 BKN035 OVC050
                      TEMPO 0318/0320 BKN020 OVC035 FM032100 27006KT
                       P6SM FEW025 BKN045 OVC060 FM040200 35006KT
                       P6SM BKN050 FM041000 VRB03KT P6SM OVC020
                       FM041800 30006KT P6SM SCT025 BKN040=
201808031500 KSEA 031500Z 0315/0418 VRB03KT P6SM FEW005 BKN015 OVC050
                      TEMPO 0315/0317 3SM -DZ BKN005 OVC012 FM031700
                       21008KT P6SM SCT012 OVC020 FM032000 VRB03KT
                       P6SM SCT020 OVC035 FM032300 VRB03KT P6SM
                       BKN040 FM040200 32006KT P6SM BKN040 FM041000
                       VRB03KT P6SM OVC020=
201808031130 TAF KSEA 031130Z 0312/0418 21008KT P6SM OVC012 FM031400 21008KT
                       P6SM SCT006 OVC012
                      TEMPO 0314/0317 3SM -DZ BKN006 OVC012 FM031700
                       21008KT P6SM SCT012 OVC020 FM032000 VRB03KT
                       P6SM SCT020 OVC035 FM032300 VRB03KT P6SM
                       BKN040 FM040200 32006KT P6SM BKN040 FM041000
                       VRB03KT P6SM OVC020=
201808030919 KSEA 030919Z 0309/0412 21008KT P6SM OVC015
                      TEMPO 0312/0316 3SM -DZ FM031900 23007KT
                       P6SM SCT015 OVC030 FM032100 VRB04KT P6SM
                       SCT020 BKN040 FM040600 VRB04KT P6SM OVC020=
201808030545 TAF KSEA 030545Z 0306/0412 20008KT P6SM BKN030 FM030800 19008KT
                       P6SM OVC025 FM031200 18006KT P6SM OVC015
                       TEMPO 0312/0316 3SM -DZ FM031900 23007KT
                       P6SM SCT015 OVC030 FM032100 VRB04KT P6SM
                       SCT020 BKN040 FM040600 VRB04KT P6SM OVC020=
201808030539 TAF KSEA 030539Z 0306/0412 22007KT P6SM BKN030 OVC045 FM030800
                       19008KT P6SM OVC025 FM031200 18006KT P6SM
                       OVC015
                      TEMPO 0312/0316 3SM -DZ BR FM031900 21007KT
                       P6SM SCT015 OVC030 FM032100 24005KT P6SM
                       SCT025 BKN040 FM040100 32005KT P6SM OVC040
                       FM041000 04004KT P6SM BKN030=
201808030340 KSEA 030340Z 0304/0406 19008KT P6SM FEW035 SCT045 FM030800 19008KT
                       P6SM OVC025 FM031200 18006KT P6SM OVC015
                       TEMPO 0312/0316 3SM -DZ FM031900 23007KT
                       P6SM SCT015 OVC030 FM032100 VRB04KT P6SM
                       SCT020 BKN040=
201808022320 TAF KSEA 022320Z 0300/0406 19008KT P6SM OVC035 FM030600 19008KT
                       P6SM OVC025 FM031200 18006KT P6SM OVC015
                       TEMPO 0312/0316 3SM -DZ FM031900 23007KT
                       P6SM SCT015 OVC030 FM032100 VRB04KT P6SM
                       SCT020 BKN040=
201808022103 KSEA 022103Z 0221/0324 21008KT P6SM OVC025 FM030600 21008KT P6SM
                       OVC018
                      TEMPO 0312/0316 3SM -DZ BR OVC012 FM031900
                       23007KT P6SM SCT015 OVC030 FM032100 23007KT
                       P6SM SCT020 BKN040=
201808021720 TAF KSEA 021720Z 0218/0324 20008KT P6SM SCT015 OVC030
                      TEMPO 0218/0221 BKN015 OVC030 FM022300 21008KT
                       P6SM SCT025 BKN035 FM030600 21008KT P6SM
                       OVC022 FM031000 21008KT P6SM SCT005 OVC015
                       TEMPO 0312/0316 3SM -DZ BR BKN005 OVC010
                       FM031900 23007KT P6SM SCT015 OVC030 FM032100
                       23007KT P6SM SCT020 BKN040=
201808021458 KSEA 021458Z 0215/0318 18008KT 5SM BR SCT006 OVC015
                      TEMPO 0215/0217 2SM -DZ BR BKN006 OVC012
                       FM022000 21008KT P6SM OVC025 FM022300 21008KT
                       P6SM SCT025 BKN035 OVC050 FM030700 21008KT
                       P6SM OVC025 FM031000 21008KT P6SM OVC016=
201808021132 TAF KSEA 021132Z 0212/0318 19008KT P6SM -DZ OVC012
                      TEMPO 0214/0217 5SM -DZ BR FM021700 21008KT
                       P6SM OVC016 FM022000 21008KT P6SM OVC025
                       FM022300 21008KT P6SM SCT025 BKN035 OVC050
                       FM030700 21008KT P6SM OVC025 FM031000 21008KT
                       P6SM OVC016=
201808020741 KSEA 020741Z 0208/0312 21006KT P6SM OVC010
                      TEMPO 0208/0212 OVC007 FM021200 21007KT P6SM
                       OVC010
                      TEMPO 0212/0216 6SM -DZ BR OVC006 FM021600
                       21007KT 6SM -DZ BR SCT008 OVC015 FM021800
                       22010KT P6SM SCT018 OVC025 FM022100 23007KT
                       P6SM BKN040 OVC060 FM030600 20007KT P6SM
                       OVC035 FM031000 19006KT P6SM OVC025=
201808020547 TAF KSEA 020547Z 0206/0312 23007KT P6SM FEW250 FM020900 21007KT
                       P6SM FEW025 SCT250 FM021100 19008KT P6SM
                       BKN020 FM021200 21008KT P6SM OVC018
                      TEMPO 0214/0217 -DZ OVC015 FM021800 22010KT
                       P6SM OVC025 FM022100 23007KT P6SM BKN040
                       OVC060 FM030600 20007KT P6SM OVC035 FM031000
                       19006KT P6SM OVC025=
201808020316 KSEA 020316Z 0203/0306 23007KT P6SM FEW250 FM020700 21007KT P6SM
                       FEW025 SCT250 FM021100 19008KT P6SM BKN020
                       FM021300 20008KT P6SM OVC018
                      TEMPO 0214/0217 -DZ OVC015 FM021800 21007KT
                       P6SM OVC025 FM022200 23007KT P6SM BKN040=
201808012320 TAF KSEA 012320Z 0200/0306 23007KT P6SM FEW030 SCT250 FM020700
                       21007KT P6SM BKN022 FM021200 18008KT P6SM
                       OVC018
                      TEMPO 0214/0217 -DZ OVC012 FM021800 21007KT
                       P6SM OVC025 FM022200 23007KT P6SM BKN040=
201808012102 KSEA 012102Z 0121/0224 27006KT P6SM SCT025 SCT250 FM020700 21007KT
                       P6SM BKN020 FM021200 18008KT P6SM OVC015
                       TEMPO 0214/0217 5SM -DZ BR OVC010 FM021800
                       21007KT P6SM BKN015 OVC030 FM022200 23007KT
                       P6SM SCT020 BKN035=
201808011720 TAF KSEA 011720Z 0118/0224 21007KT P6SM OVC015 FM012000 21007KT
                       P6SM BKN022
                      TEMPO 0120/0122 SCT025 FM012200 23007KT P6SM
                       SCT025 SCT250 FM020700 21007KT P6SM OVC017
                       FM021300 21007KT 6SM -DZ BR OVC009 FM021700
                       21007KT P6SM BKN015 OVC030 FM022200 23007KT
                       P6SM SCT020 BKN035=
201808011506 KSEA 011506Z 0115/0218 21007KT P6SM OVC015
                      TEMPO 0115/0118 OVC010 FM012000 21007KT P6SM
                       BKN020
                      TEMPO 0120/0122 SCT020 FM012200 23007KT P6SM
                       SCT025 SCT250 FM020700 21006KT P6SM OVC017
                       FM021300 20008KT 6SM -DZ BR OVC009=
201808011301 KSEA 011301Z 0113/0218 20007KT P6SM OVC010 FM011800 21008KT P6SM
                       SCT010 BKN015
                      TEMPO 0119/0121 SCT015 FM012100 23007KT P6SM
                       FEW017 SCT250 FM020700 21006KT P6SM OVC017
                       FM021300 20008KT 6SM -DZ BR OVC009=
201808011137 TAF KSEA 011137Z 0112/0218 20007KT P6SM OVC008 FM011800 21008KT
                       P6SM SCT008 BKN014
                      TEMPO 0119/0121 SCT015 FM012100 23007KT P6SM
                       FEW017 SCT250 FM020700 21006KT P6SM OVC017
                       FM021300 20008KT 6SM -DZ BR OVC009=
201808010859 KSEA 010859Z 0109/0212 20008KT P6SM OVC008 FM011800 21006KT P6SM
                       SCT015 FM012000 23007KT P6SM SCT250=
201808010701 KSEA 010701Z 0107/0212 20006KT P6SM OVC008 FM011800 21006KT P6SM
                       SCT015 FM012000 23007KT P6SM SCT250=
201808010531 TAF KSEA 010531Z 0106/0212 23008KT P6SM SKC FM010900 20006KT P6SM
                       OVC010 FM011800 21006KT P6SM SCT015 FM012000
                       23007KT P6SM SCT250=
201808010300 KSEA 010300Z 0103/0206 24008KT P6SM SKC FM010900 21006KT P6SM OVC009
                       FM011500 19008KT P6SM OVC015 FM012100 24007KT
                       P6SM SCT250=