##########################################################
# Query made at 02/17/2025 20:46:11 UTC
# Time interval: from 05/01/2019 00:00  to 05/31/2019 23:59  UTC
##########################################################

##########################################################
# KSEA, Seattle, Seattle-Tacoma International Airport (United States)
# WMO index: 72793. WIGOS ID: 0-20000-0-72793
# Latitude 47-27-00N. Longitude 122-17-59W. Altitude 130 m.
##########################################################

###################################
#  METAR/SPECI from KSEA
###################################
201905312353 METAR KSEA 312353Z 29006KT 10SM FEW060 24/13 A3002 RMK AO2 SLP171 CB DSNT SE T02390128 10239 20133 58019=
201905312253 METAR KSEA 312253Z VRB05KT 10SM FEW050 23/13 A3004 RMK AO2 SLP178 CB DSNT SE T02330128=
201905312153 METAR KSEA 312153Z VRB06KT 10SM FEW050 22/13 A3006 RMK AO2 SLP185 CB DSNT SE T02170133=
201905312053 METAR KSEA 312053Z 19003KT 10SM FEW020 20/13 A3008 RMK AO2 SLP191 T02000128 58010=
201905312002 SPECI KSEA 312002Z VRB03KT 10SM SCT009 17/12 A3010 RMK AO2 T01720122=
201905311953 METAR KSEA 311953Z 29004KT 10SM BKN009 17/12 A3010 RMK AO2 SLP198 T01720122=
201905311853 METAR KSEA 311853Z 21005KT 7SM OVC006 16/12 A3011 RMK AO2 SLP200 T01560117=
201905311815 SPECI KSEA 311815Z VRB03KT 2 1/2SM BR OVC005 14/12 A3011 RMK AO2 T01390117=
201905311753 METAR KSEA 311753Z 17005KT 2 1/2SM BR OVC003 13/11 A3011 RMK AO2 SLP201 T01330111 10133 20122 50001=
201905311720 SPECI KSEA 311720Z VRB03KT 2 1/2SM BR OVC003 13/12 A3011 RMK AO2 T01280117=
201905311653 METAR KSEA 311653Z 17004KT 1/8SM R16L/3000VP6000FT FG OVC002 13/12 A3011 RMK AO2 SFC VIS 1/2 SLP202 T01280117=
201905311553 METAR KSEA 311553Z 20004KT 1/8SM R16L/1200V4500FT FG VV001 13/12 A3011 RMK AO2 SFC VIS 1/4 SLP202 T01280117=
201905311538 SPECI KSEA 311538Z 20005KT 1/8SM R16L/1000V1400FT FG VV001 13/12 A3011 RMK AO2 SFC VIS 1/4 T01280117=
201905311528 SPECI KSEA 311528Z 19005KT 1/8SM R16L/1000V2400FT FG VV001 13/12 A3011 RMK AO2 SFC VIS 1/4 T01280117=
201905311514 SPECI KSEA 311514Z VRB03KT 1/8SM R16L/1000V1600FT FG VV001 13/12 A3011 RMK AO2 SFC VIS 1/4 T01280117=
201905311453 METAR KSEA 311453Z 20004KT 1/8SM R16L/1200V3000FT FG VV001 13/12 A3010 RMK AO2 SFC VIS 1/4 SLP199 T01280117 51007=
201905311418 SPECI KSEA 311418Z VRB03KT 1/8SM R16L/1200V2400FT FG VV001 13/12 A3010 RMK AO2 SFC VIS 1/4 T01280117=
201905311353 METAR KSEA 311353Z 20003KT 1/8SM R16L/1200V1800FT FG VV001 12/12 A3010 RMK AO2 SFC VIS 1/4 SLP197 T01220117=
201905311334 SPECI KSEA 311334Z 24004KT 1/8SM R16L/1200V1800FT FG VV001 12/11 A3010 RMK AO2 SFC VIS 1/4 T01220111=
201905311318 SPECI KSEA 311318Z 20003KT 1/8SM R16L/1000V4000FT FG VV001 12/11 A3010 RMK AO2 SFC VIS 1/4 T01220111=
201905311253 METAR KSEA 311253Z 22003KT 1/8SM R16L/1000V2000FT FG VV001 12/12 A3009 RMK AO2 SFC VIS 1/4 SLP195 T01220117=
201905311244 SPECI KSEA 311244Z 26003KT 1/8SM R16L/1000V2000FT FG VV001 12/11 A3009 RMK AO2 SFC VIS 1/4 T01220111=
201905311153 METAR KSEA 311153Z 24004KT 1/2SM R16L/2000VP6000FT FG OVC001 12/11 A3008 RMK AO2 SLP192 T01220111 10178 20122 51004=
201905311148 SPECI KSEA 311148Z 23004KT 1/2SM R16L/2000VP6000FT FG OVC001 13/11 A3008 RMK AO2=
201905311140 SPECI KSEA 311140Z 24005KT 1/2SM R16L/5500VP6000FT FG OVC002 13/11 A3008 RMK AO2 T01280111=
201905311125 SPECI KSEA 311125Z 25005KT 2SM BR BKN003 13/11 A3008 RMK AO2 SFC VIS 6 T01280111=
201905311123 SPECI KSEA 311123Z 24005KT 7SM BKN003 13/11 A3008 RMK AO2 T01280111=
201905311053 METAR KSEA 311053Z 22004KT 10SM FEW008 13/11 A3008 RMK AO2 SLP190 T01280111=
201905310953 METAR KSEA 310953Z 18006KT 10SM CLR 13/12 A3007 RMK AO2 SLP189 T01280117=
201905310853 METAR KSEA 310853Z 18003KT 10SM CLR 14/12 A3007 RMK AO2 SLP187 T01390117 53014=
201905310753 METAR KSEA 310753Z 26004KT 10SM CLR 16/11 A3005 RMK AO2 SLP182 T01560111 402390111=
201905310653 METAR KSEA 310653Z 00000KT 10SM CLR 17/12 A3004 RMK AO2 SLP178 T01720117=
201905310553 METAR KSEA 310553Z 24003KT 10SM CLR 18/12 A3003 RMK AO2 SLP173 T01780122 10239 20172 53009=
201905310453 METAR KSEA 310453Z 35004KT 10SM FEW250 20/12 A3002 RMK AO2 SLP170 T02000117=
201905310353 METAR KSEA 310353Z 29003KT 10SM SCT250 21/13 A3000 RMK AO2 SLP164 T02060128=
201905310253 METAR KSEA 310253Z 24003KT 10SM FEW050 SCT250 23/13 A3000 RMK AO2 SLP164 T02280128 53000=
201905310153 METAR KSEA 310153Z 27006KT 10SM FEW050 SCT250 23/13 A2999 RMK AO2 SLP160 T02330128=
201905310053 METAR KSEA 310053Z 27005KT 10SM FEW050 SCT250 23/12 A2999 RMK AO2 SLP160 CB DSNT E T02330122=
201905302353 METAR KSEA 302353Z 27006KT 10SM FEW050 SCT250 23/12 A3000 RMK AO2 SLP162 CB DSNT E T02330122 10233 20133 56008=
201905302253 METAR KSEA 302253Z 27005KT 10SM FEW040 SCT250 22/11 A3000 RMK AO2 SLP164 CB DSNT E-SE T02220111=
201905302153 METAR KSEA 302153Z 00000KT 10SM FEW040 FEW200 SCT250 21/12 A3001 RMK AO2 SLP167 CB DSNT SE T02110117=
201905302053 METAR KSEA 302053Z 26005KT 10SM FEW040 FEW200 SCT250 20/12 A3002 RMK AO2 SLP172 T02000122 58007=
201905301953 METAR KSEA 301953Z 28005KT 10SM FEW010 BKN200 18/12 A3004 RMK AO2 SLP177 T01780117=
201905301921 SPECI KSEA 301921Z 24004KT 10SM FEW010 BKN200 16/11 A3004 RMK AO2 T01560111=
201905301907 SPECI KSEA 301907Z VRB04KT 10SM BKN010 16/12 A3004 RMK AO2 T01610117=
201905301853 METAR KSEA 301853Z VRB03KT 6SM HZ BKN009 15/11 A3004 RMK AO2 SLP178 T01500111=
201905301827 SPECI KSEA 301827Z 00000KT 3SM HZ OVC006 14/11 A3004 RMK AO2 T01440111=
201905301807 SPECI KSEA 301807Z VRB03KT 2SM HZ OVC005 14/11 A3004 RMK AO2 T01390106=
201905301753 METAR KSEA 301753Z 21005KT 2SM HZ OVC004 13/11 A3004 RMK AO2 TWR VIS 3 SLP178 T01330106 10133 20111 51008=
201905301710 SPECI KSEA 301710Z 00000KT 1SM R16L/P6000FT BR OVC002 12/11 A3004 RMK AO2 TWR VIS 1 1/4 T01170106=
201905301658 SPECI KSEA 301658Z 00000KT 1/8SM R16L/3500VP6000FT BR OVC002 12/11 A3003 RMK AO2 SFC VIS 2 VIS 1 1/2V3 T01170106=
201905301653 METAR KSEA 301653Z 21004KT 1/8SM R16L/1200V2200FT BR OVC001 12/11 A3003 RMK AO2 SFC VIS 3/4 SLP176 T01170106=
201905301600 SPECI KSEA 301600Z 23004KT 1/8SM R16L/1200V2000FT FG VV001 12/11 A3003 RMK AO2 SFC VIS 1/4 T01170111=
201905301553 METAR KSEA 301553Z 25003KT 1/8SM R16L/1200V3000FT FG VV001 12/11 A3003 RMK AO2 SFC VIS 1/4 SLP174 T01170111=
201905301521 SPECI KSEA 301521Z 20003KT 1/8SM R16L/1000V2800FT FG VV001 12/11 A3002 RMK AO2 SFC VIS 1/4 T01170106=
201905301453 METAR KSEA 301453Z 00000KT 1/8SM R16L/0800V1600FT FG VV001 12/11 A3002 RMK AO2 SLP170 T01170106 51009=
201905301446 SPECI KSEA 301446Z 23005KT 1/8SM R16L/1000V2400FT FG VV001 12/11 A3002 RMK AO2 TWR VIS 1/4 T01170106=
201905301431 SPECI KSEA 301431Z 17005KT 1/4SM R16L/0800V2200FT FG VV001 12/11 A3001 RMK AO2 TWR VIS 1/4 T01170106=
201905301423 SPECI KSEA 301423Z 19004KT 1/4SM R16L/0800V2800FT FG VV001 11/11 A3001 RMK AO2 TWR VIS 1/4 T01110106=
201905301415 SPECI KSEA 301415Z 20005KT 1/4SM R16L/1200V2000FT FG VV001 11/11 A3001 RMK AO2 TWR VIS 1/4 T01110106=
201905301353 METAR KSEA 301353Z 15004KT 1/4SM R16L/1400V2400FT FG VV001 11/11 A3001 RMK AO2 SFC VIS 1/2 SLP168 T01110106=
201905301304 SPECI KSEA 301304Z 18005KT 3/4SM R16L/P6000FT BR OVC001 12/11 A3000 RMK AO2 T01170106=
201905301253 METAR KSEA 301253Z 18004KT 1SM R16L/5000VP6000FT BR OVC002 12/11 A3000 RMK AO2 SLP164 VIS S 1/2 T01170106=
201905301243 SPECI KSEA 301243Z 19004KT 1SM R16L/P6000FT BR OVC002 12/10 A3000 RMK AO2 T01170100=
201905301224 SPECI KSEA 301224Z 22005KT 1 3/4SM BR BKN003 12/10 A3000 RMK AO2 T01170100=
201905301211 SPECI KSEA 301211Z 20003KT 7SM BKN006 11/09 A2999 RMK AO2 T01110094=
201905301153 METAR KSEA 301153Z 20003KT 10SM FEW006 BKN170 12/10 A2999 RMK AO2 SLP161 T01170100 10156 20117 51004=
201905301053 METAR KSEA 301053Z 21005KT 10SM SCT006 BKN170 12/10 A2999 RMK AO2 SLP161 T01170100=
201905300953 METAR KSEA 300953Z 23003KT 10SM SCT200 12/11 A2999 RMK AO2 SLP159 T01220106=
201905300853 METAR KSEA 300853Z 26003KT 10SM SCT220 13/11 A2998 RMK AO2 SLP157 T01280106 53001=
201905300753 METAR KSEA 300753Z 24004KT 10SM SCT220 14/11 A2998 RMK AO2 SLP157 T01390111 402110117=
201905300653 METAR KSEA 300653Z 21004KT 10SM FEW140 SCT250 14/11 A2997 RMK AO2 SLP154 T01440111=
201905300553 METAR KSEA 300553Z 25004KT 10SM FEW140 SCT250 16/11 A2997 RMK AO2 SLP155 T01560111 10206 20156 53003=
201905300453 METAR KSEA 300453Z 24003KT 10SM FEW140 SCT250 17/11 A2998 RMK AO2 SLP156 T01720106=
201905300353 METAR KSEA 300353Z 22003KT 10SM FEW140 BKN220 18/10 A2996 RMK AO2 SLP151 T01830100=
201905300253 METAR KSEA 300253Z 28006KT 10SM FEW140 BKN220 19/10 A2997 RMK AO2 SLP152 T01890100 56009=
201905300153 METAR KSEA 300153Z 27005KT 10SM FEW038 BKN250 19/10 A2997 RMK AO2 SLP154 T01940100=
201905300053 METAR KSEA 300053Z 27005KT 10SM FEW038 BKN250 20/11 A2998 RMK AO2 SLP157 T02000106=
201905292353 METAR KSEA 292353Z VRB05KT 10SM FEW036 SCT250 21/11 A2999 RMK AO2 SLP162 T02060106 10211 20144 56011=
201905292253 METAR KSEA 292253Z VRB04KT 10SM FEW025 SCT200 20/11 A3000 RMK AO2 SLP163 T02000106=
201905292153 METAR KSEA 292153Z 29005KT 10SM SCT025 19/10 A3001 RMK AO2 SLP169 T01890100=
201905292053 METAR KSEA 292053Z 20006KT 10SM SCT024 18/10 A3003 RMK AO2 SLP173 T01830100 58009=
201905292031 SPECI KSEA 292031Z VRB04KT 10SM SCT022 17/10 A3004 RMK AO2 T01670100=
201905291953 METAR KSEA 291953Z 25006KT 10SM BKN021 16/09 A3004 RMK AO2 SLP178 T01610094=
201905291853 METAR KSEA 291853Z VRB03KT 10SM BKN019 16/09 A3005 RMK AO2 SLP181 T01610094=
201905291807 SPECI KSEA 291807Z VRB05KT 10SM BKN015 BKN023 15/09 A3005 RMK AO2 T01500094=
201905291753 METAR KSEA 291753Z 22005KT 10SM BKN014 BKN023 14/09 A3005 RMK AO2 SLP183 T01440089 10144 20117 58006=
201905291653 METAR KSEA 291653Z 19005KT 10SM OVC011 14/09 A3007 RMK AO2 SLP186 T01390094=
201905291553 METAR KSEA 291553Z 20004KT 10SM OVC011 13/09 A3008 RMK AO2 SLP190 T01280094=
201905291540 SPECI KSEA 291540Z 21005KT 10SM BKN010 OVC016 13/09 A3007 RMK AO2 T01280094=
201905291453 METAR KSEA 291453Z 20003KT 10SM OVC007 12/09 A3007 RMK AO2 SLP189 T01220089 51003=
201905291353 METAR KSEA 291353Z 21005KT 10SM OVC008 12/09 A3007 RMK AO2 SLP189 T01170094=
201905291253 METAR KSEA 291253Z 21005KT 10SM OVC007 12/09 A3007 RMK AO2 SLP188 T01170094=
201905291153 METAR KSEA 291153Z 21007KT 10SM OVC008 12/09 A3006 RMK AO2 SLP186 T01170094 10150 20117 58001=
201905291053 METAR KSEA 291053Z 22006KT 10SM OVC008 12/09 A3007 RMK AO2 SLP188 T01170094=
201905290953 METAR KSEA 290953Z 22007KT 10SM BKN007 OVC030 12/09 A3007 RMK AO2 SLP187 T01170094=
201905290945 SPECI KSEA 290945Z 22006KT 10SM BKN007 OVC030 12/09 A3007 RMK AO2 T01170094=
201905290938 SPECI KSEA 290938Z 20006KT 10SM SCT007 OVC030 12/09 A3007 RMK AO2 T01170094=
201905290853 METAR KSEA 290853Z 18005KT 10SM SCT032 SCT150 SCT250 12/09 A3007 RMK AO2 SLP187 T01170094 53003=
201905290753 METAR KSEA 290753Z 20004KT 10SM FEW035 FEW150 SCT250 12/09 A3006 RMK AO2 SLP186 T01220089 401890122=
201905290653 METAR KSEA 290653Z 22005KT 10SM BKN150 BKN250 13/09 A3006 RMK AO2 SLP184 T01330094=
201905290553 METAR KSEA 290553Z 23006KT 10SM BKN150 OVC250 15/09 A3006 RMK AO2 SLP184 T01500094 10189 20150 52005=
201905290453 METAR KSEA 290453Z 24006KT 10SM SCT150 BKN250 17/11 A3006 RMK AO2 SLP183 T01670106=
201905290353 METAR KSEA 290353Z 15003KT 10SM FEW150 BKN250 18/11 A3004 RMK AO2 SLP179 T01780106=
201905290253 METAR KSEA 290253Z 21005KT 10SM FEW150 BKN250 18/11 A3004 RMK AO2 SLP179 T01780106 56011=
201905290153 METAR KSEA 290153Z 21005KT 10SM FEW030 FEW150 BKN250 18/11 A3006 RMK AO2 SLP184 T01830106=
201905290053 METAR KSEA 290053Z VRB03KT 10SM FEW028 BKN250 18/11 A3006 RMK AO2 SLP185 T01830106=
201905282353 METAR KSEA 282353Z 24006KT 10SM SCT024 BKN200 18/11 A3008 RMK AO2 SLP190 T01830106 10183 20144 58010=
201905282338 SPECI KSEA 282338Z VRB04KT 10SM SCT024 BKN200 18/10 A3008 RMK AO2 T01830100=
201905282253 METAR KSEA 282253Z 22006KT 10SM OVC024 17/10 A3009 RMK AO2 SLP195 T01720100=
201905282153 METAR KSEA 282153Z 22008KT 10SM OVC024 17/10 A3010 RMK AO2 SLP199 T01670100=
201905282053 METAR KSEA 282053Z 22008KT 10SM OVC022 17/10 A3011 RMK AO2 SLP201 T01670100 58002=
201905281953 METAR KSEA 281953Z 25008KT 10SM BKN021 OVC028 16/09 A3011 RMK AO2 SLP203 T01560094=
201905281853 METAR KSEA 281853Z 23009KT 10SM OVC020 15/09 A3012 RMK AO2 SLP205 T01500094=
201905281753 METAR KSEA 281753Z 22007KT 10SM OVC019 14/09 A3012 RMK AO2 SLP204 T01440089 10150 20133 58001=
201905281653 METAR KSEA 281653Z 20006KT 10SM OVC019 14/09 A3012 RMK AO2 SLP204 T01440089=
201905281553 METAR KSEA 281553Z 23008KT 10SM OVC018 14/09 A3012 RMK AO2 SLP205 T01390089=
201905281453 METAR KSEA 281453Z 21006KT 10SM FEW011 OVC017 13/09 A3012 RMK AO2 SLP205 T01330094 51004=
201905281353 METAR KSEA 281353Z 22009KT 10SM OVC017 13/09 A3012 RMK AO2 SLP205 T01330089=
201905281253 METAR KSEA 281253Z 21008KT 10SM OVC015 13/09 A3011 RMK AO2 SLP202 T01330094=
201905281153 METAR KSEA 281153Z 21008KT 10SM OVC015 13/09 A3011 RMK AO2 SLP199 T01330094 10133 20128 51006=
201905281141 SPECI KSEA 281141Z 20008KT 10SM OVC015 13/09 A3011 RMK AO2 T01330094=
201905281053 METAR KSEA 281053Z 21010KT 10SM OVC014 13/09 A3010 RMK AO2 SLP198 T01330094=
201905280953 METAR KSEA 280953Z 22009KT 10SM OVC013 13/09 A3010 RMK AO2 SLP196 T01330094=
201905280853 METAR KSEA 280853Z 20006KT 10SM OVC012 13/10 A3009 RMK AO2 SLP193 T01330100 53011=
201905280753 METAR KSEA 280753Z 20010KT 10SM OVC011 13/10 A3007 RMK AO2 SLP188 T01330100 402500122=
201905280713 SPECI KSEA 280713Z 20008KT 10SM BKN012 13/10 A3007 RMK AO2 T01330100=
201905280653 METAR KSEA 280653Z 20009KT 10SM FEW012 13/10 A3006 RMK AO2 SLP186 T01280100=
201905280553 METAR KSEA 280553Z 21008KT 10SM CLR 13/10 A3005 RMK AO2 SLP182 T01330100 10250 20133 53023=
201905280453 METAR KSEA 280453Z 21008KT 10SM FEW250 14/10 A3004 RMK AO2 SLP177 T01440100=
201905280353 METAR KSEA 280353Z 22009KT 10SM FEW050 FEW250 16/11 A3000 RMK AO2 SLP164 T01610106=
201905280253 METAR KSEA 280253Z 23009KT 10SM FEW050 FEW250 18/11 A2998 RMK AO2 SLP159 T01830111 53007=
201905280153 METAR KSEA 280153Z 23009KT 10SM FEW050 FEW250 21/11 A2997 RMK AO2 SLP151 T02060111=
201905280053 METAR KSEA 280053Z 23010KT 10SM FEW050 FEW250 23/11 A2996 RMK AO2 SLP149 T02330106=
201905272353 METAR KSEA 272353Z 23008KT 10SM FEW050 FEW250 25/12 A2996 RMK AO2 SLP151 T02500122 10250 20194 56006=
201905272253 METAR KSEA 272253Z 21008KT 10SM FEW050 FEW250 24/12 A2997 RMK AO2 SLP152 T02390122=
201905272153 METAR KSEA 272153Z 22007KT 10SM FEW040 FEW250 24/12 A2997 RMK AO2 SLP154 T02440122=
201905272053 METAR KSEA 272053Z 21005KT 10SM FEW040 FEW100 FEW250 23/11 A2998 RMK AO2 SLP156 T02330111 58001=
201905271953 METAR KSEA 271953Z 21005KT 10SM FEW040 FEW100 FEW250 22/11 A2999 RMK AO2 SLP159 T02170111=
201905271853 METAR KSEA 271853Z 22008KT 10SM FEW040 FEW090 FEW250 21/11 A2999 RMK AO2 SLP160 T02060111=
201905271753 METAR KSEA 271753Z 21009KT 10SM FEW090 FEW250 19/12 A2998 RMK AO2 SLP158 T01940117 10194 20122 50003=
201905271653 METAR KSEA 271653Z 18006KT 10SM SCT090 BKN250 17/12 A2999 RMK AO2 SLP159 T01670117=
201905271553 METAR KSEA 271553Z 20006KT 10SM BKN090 BKN250 16/12 A2998 RMK AO2 SLP157 T01610117=
201905271453 METAR KSEA 271453Z 19006KT 10SM BKN090 BKN250 15/11 A2998 RMK AO2 SLP155 T01500111 53012=
201905271353 METAR KSEA 271353Z 16006KT 10SM BKN085 BKN250 14/11 A2996 RMK AO2 SLP151 T01440106=
201905271253 METAR KSEA 271253Z 16005KT 10SM SCT085 BKN250 14/11 A2994 RMK AO2 SLP144 T01390111=
201905271153 METAR KSEA 271153Z 13004KT 10SM FEW100 SCT200 13/11 A2994 RMK AO2 SLP144 T01330111 10189 20133 53006=
201905271053 METAR KSEA 271053Z 14003KT 10SM FEW100 13/11 A2993 RMK AO2 SLP142 T01330106=
201905270953 METAR KSEA 270953Z 29003KT 10SM FEW100 14/11 A2993 RMK AO2 SLP139 T01390106=
201905270853 METAR KSEA 270853Z 00000KT 10SM FEW100 16/11 A2992 RMK AO2 SLP137 T01560111 52005=
201905270753 METAR KSEA 270753Z 00000KT 10SM BKN100 17/12 A2992 RMK AO2 SLP137 T01670117 402220111=
201905270653 METAR KSEA 270653Z 04006KT 10SM SCT100 18/11 A2991 RMK AO2 SLP133 T01830111=
201905270553 METAR KSEA 270553Z 01005KT 10SM SCT100 19/11 A2991 RMK AO2 SLP132 T01890111 10222 20178 51013=
201905270453 METAR KSEA 270453Z 01008KT 10SM FEW050 SCT100 19/11 A2990 RMK AO2 SLP131 T01940106=
201905270353 METAR KSEA 270353Z 00000KT 10SM FEW050 FEW090 19/10 A2988 RMK AO2 SLP124 T01890100=
201905270253 METAR KSEA 270253Z 33005KT 10SM FEW050 SCT090 21/10 A2987 RMK AO2 SLP119 T02060100 53001=
201905270153 METAR KSEA 270153Z 35009KT 10SM FEW030 FEW060 SCT090 22/10 A2986 RMK AO2 SLP116 T02170100=
201905270053 METAR KSEA 270053Z 36008KT 10SM FEW030 FEW060 SCT100 22/11 A2986 RMK AO2 SLP115 T02170106=
201905262353 METAR KSEA 262353Z 28006KT 10SM FEW025 FEW060 SCT110 21/11 A2986 RMK AO2 SLP117 T02060106 10217 20133 58002=
201905262253 METAR KSEA 262253Z 36006KT 10SM FEW025 FEW060 SCT120 BKN200 21/11 A2987 RMK AO2 SLP120 T02060111=
201905262153 METAR KSEA 262153Z VRB04KT 10SM FEW023 SCT060 BKN140 BKN190 18/11 A2987 RMK AO2 SLP119 T01830111=
201905262053 METAR KSEA 262053Z 35007KT 10SM FEW017 SCT060 BKN130 19/11 A2987 RMK AO2 SLP119 T01940111 58007=
201905261953 METAR KSEA 261953Z 02008KT 10SM FEW017 SCT060 BKN120 17/11 A2988 RMK AO2 SLP123 T01720106=
201905261853 METAR KSEA 261853Z 03010KT 10SM BKN013 BKN050 BKN090 16/10 A2988 RMK AO2 SLP125 T01610100=
201905261753 METAR KSEA 261753Z 04008KT 10SM BKN011 BKN050 OVC085 13/10 A2989 RMK AO2 SLP128 T01330100 10133 20117 50003=
201905261653 METAR KSEA 261653Z 06008KT 10SM OVC010 13/09 A2989 RMK AO2 SLP129 T01280094=
201905261553 METAR KSEA 261553Z 04008KT 10SM BKN011 BKN017 OVC085 13/09 A2990 RMK AO2 SLP130 T01280094=
201905261453 METAR KSEA 261453Z 05007KT 10SM FEW011 BKN021 OVC085 13/09 A2988 RMK AO2 SLP125 T01280094 53003=
201905261353 METAR KSEA 261353Z 06009KT 10SM FEW007 BKN018 BKN120 12/09 A2988 RMK AO2 SLP123 T01170094=
201905261326 SPECI KSEA 261326Z 06010KT 10SM SCT007 BKN018 12/09 A2988 RMK AO2 T01170089=
201905261253 METAR KSEA 261253Z 04008KT 10SM BKN007 BKN019 12/09 A2987 RMK AO2 SLP122 T01170089=
201905261240 SPECI KSEA 261240Z 03008KT 10SM BKN009 BKN019 12/09 A2987 RMK AO2 T01170089=
201905261153 METAR KSEA 261153Z 06007KT 10SM SCT009 BKN013 OVC017 12/09 A2987 RMK AO2 SLP122 70019 T01170094 10117 20111 55001=
201905261124 SPECI KSEA 261124Z 03010KT 10SM SCT007 OVC013 12/09 A2987 RMK AO2 T01170089=
201905261053 METAR KSEA 261053Z 36008KT 10SM BKN006 OVC013 12/09 A2987 RMK AO2 SLP120 T01170094=
201905260953 METAR KSEA 260953Z 02009KT 10SM BKN009 OVC013 12/09 A2987 RMK AO2 SLP122 T01170094=
201905260938 SPECI KSEA 260938Z 01009KT 10SM BKN009 OVC013 12/09 A2988 RMK AO2 T01170094=
201905260853 METAR KSEA 260853Z 36009KT 10SM SCT006 BKN013 OVC020 12/09 A2988 RMK AO2 SLP123 T01170094 58006=
201905260753 METAR KSEA 260753Z 35009KT 7SM SCT006 OVC013 12/09 A2988 RMK AO2 SLP125 T01170094 401330111=
201905260653 METAR KSEA 260653Z 35008KT 7SM SCT006 OVC013 12/09 A2989 RMK AO2 SLP129 T01170094=
201905260613 SPECI KSEA 260613Z 36009KT 7SM SCT006 BKN013 11/09 A2989 RMK AO2 T01110094=
201905260553 METAR KSEA 260553Z 36008KT 7SM BKN006 BKN021 12/09 A2990 RMK AO2 SLP130 60001 T01170094 10133 20111 51008=
201905260536 SPECI KSEA 260536Z 35009KT 7SM BKN006 BKN021 12/09 A2990 RMK AO2 T01170094=
201905260453 METAR KSEA 260453Z 35007KT 10SM FEW006 BKN011 BKN025 11/09 A2990 RMK AO2 SLP129 T01110094=
201905260353 METAR KSEA 260353Z 36007KT 10SM FEW014 FEW044 SCT200 12/09 A2988 RMK AO2 SLP123 T01170094=
201905260253 METAR KSEA 260253Z 35006KT 10SM SCT014 SCT100 13/09 A2987 RMK AO2 SLP122 60001 T01280094 55006=
201905260153 METAR KSEA 260153Z 28003KT 10SM FEW008 SCT014 BKN080 12/11 A2987 RMK AO2 RAE43 SLP121 P0000 T01220106=
201905260053 METAR KSEA 260053Z 20003KT 10SM -RA FEW008 BKN013 OVC049 12/09 A2988 RMK AO2 SLP125 P0001 T01220094=
201905260035 SPECI KSEA 260035Z 21003KT 10SM -RA FEW008 BKN013 OVC049 12/09 A2988 RMK AO2 P0000 T01220089=
201905260011 SPECI KSEA 260011Z 00000KT 7SM -RA SCT015 BKN034 OVC049 12/09 A2989 RMK AO2 P0000 T01220094=
201905252353 METAR KSEA 252353Z 00000KT 5SM -RA BR FEW006 BKN017 OVC032 12/09 A2989 RMK AO2 SLP128 P0004 60018 T01170094 10122 20111 53003=
201905252316 SPECI KSEA 252316Z 23004KT 4SM -RA BR SCT004 BKN011 OVC017 11/09 A2989 RMK AO2 P0002 T01110094=
201905252253 METAR KSEA 252253Z 23005KT 6SM -RA BR SCT007 BKN015 OVC019 11/09 A2989 RMK AO2 SLP127 P0004 T01110094=
201905252204 SPECI KSEA 252204Z 19008KT 5SM -RA BR SCT007 BKN011 OVC021 12/10 A2988 RMK AO2 P0001 T01170100=
201905252153 METAR KSEA 252153Z 15007KT 4SM -RA BR BKN011 BKN019 OVC028 12/10 A2988 RMK AO2 SLP126 P0007 T01170100=
201905252053 METAR KSEA 252053Z 13008KT 5SM -RA BR FEW008 BKN016 OVC035 12/09 A2988 RMK AO2 SLP125 P0003 60003 T01170094 58007=
201905252044 SPECI KSEA 252044Z 13008KT 5SM -RA BR FEW008 OVC016 12/09 A2988 RMK AO2 P0002 T01170094=
201905251953 METAR KSEA 251953Z 17008KT 10SM -RA BKN022 OVC048 12/08 A2989 RMK AO2 RAB50 SLP128 P0000 T01220078=
201905251853 METAR KSEA 251853Z 19011KT 10SM OVC017 12/08 A2990 RMK AO2 SLP131 T01220078=
201905251753 METAR KSEA 251753Z 20008KT 10SM OVC017 12/08 A2990 RMK AO2 SLP133 T01220078 10122 20111 56009=
201905251653 METAR KSEA 251653Z 19009KT 10SM OVC019 12/07 A2991 RMK AO2 SLP134 T01220072=
201905251553 METAR KSEA 251553Z 18007KT 10SM BKN018 OVC030 12/07 A2992 RMK AO2 SLP138 T01170072=
201905251507 SPECI KSEA 251507Z 20008KT 10SM BKN018 OVC032 12/07 A2993 RMK AO2 T01170072=
201905251453 METAR KSEA 251453Z 19008KT 10SM FEW018 BKN033 OVC060 12/07 A2993 RMK AO2 SLP142 T01170072 56015=
201905251353 METAR KSEA 251353Z 19007KT 10SM FEW015 BKN032 OVC060 12/07 A2995 RMK AO2 SLP148 T01170067=
201905251253 METAR KSEA 251253Z 18007KT 10SM FEW030 BKN044 OVC050 12/07 A2996 RMK AO2 SLP150 T01170072=
201905251153 METAR KSEA 251153Z 18005KT 10SM BKN031 OVC044 11/08 A2998 RMK AO2 SLP157 T01110078 10128 20111 58003=
201905251053 METAR KSEA 251053Z 20007KT 10SM FEW016 OVC036 12/07 A2998 RMK AO2 SLP159 T01170072=
201905251042 SPECI KSEA 251042Z 22006KT 10SM SCT016 OVC036 12/07 A2999 RMK AO2 T01170072=
201905251025 SPECI KSEA 251025Z 21006KT 10SM BKN016 OVC039 12/07 A2999 RMK AO2 T01170072=
201905250953 METAR KSEA 250953Z 21007KT 10SM BKN039 OVC049 12/08 A2999 RMK AO2 SLP160 T01170078=
201905250853 METAR KSEA 250853Z 17006KT 10SM OVC040 12/08 A2999 RMK AO2 SLP160 T01170078 53001=
201905250753 METAR KSEA 250753Z 21008KT 10SM OVC042 12/07 A2998 RMK AO2 SLP159 T01220072 401670117=
201905250653 METAR KSEA 250653Z 21007KT 10SM OVC042 13/07 A2998 RMK AO2 SLP158 T01280072=
201905250553 METAR KSEA 250553Z 20007KT 10SM OVC045 13/08 A2998 RMK AO2 SLP159 T01280078 10156 20128 53010=
201905250453 METAR KSEA 250453Z 20007KT 10SM OVC049 13/07 A2997 RMK AO2 SLP156 T01330072=
201905250353 METAR KSEA 250353Z 20007KT 10SM FEW035 OVC050 13/07 A2996 RMK AO2 SLP152 T01330072=
201905250253 METAR KSEA 250253Z 25008KT 10SM BKN050 BKN080 13/07 A2995 RMK AO2 SLP149 T01330072 52011=
201905250153 METAR KSEA 250153Z 22007KT 10SM FEW036 BKN055 BKN075 14/08 A2994 RMK AO2 SLP145 T01390078=
201905250053 METAR KSEA 250053Z 24008KT 10SM SCT037 OVC060 15/08 A2993 RMK AO2 SLP142 T01500078=
201905242353 METAR KSEA 242353Z 23012KT 10SM FEW038 BKN065 BKN200 16/08 A2992 RMK AO2 SLP137 60000 T01560078 10167 20117 53004=
201905242253 METAR KSEA 242253Z 25012KT 10SM FEW020 SCT037 BKN055 16/07 A2991 RMK AO2 SLP134 T01610072=
201905242153 METAR KSEA 242153Z 24012KT 10SM FEW018 SCT037 BKN050 16/07 A2991 RMK AO2 SLP133 T01560072=
201905242053 METAR KSEA 242053Z 21010KT 10SM FEW017 SCT025 BKN047 16/08 A2991 RMK AO2 SLP132 60000 T01610083 50002=
201905242033 SPECI KSEA 242033Z 20013KT 10SM FEW019 BKN025 OVC047 16/09 A2991 RMK AO2 T01560089=
201905242015 SPECI KSEA 242015Z 19013KT 10SM FEW019 BKN031 OVC047 16/09 A2991 RMK AO2 T01560094=
201905241953 METAR KSEA 241953Z 19011KT 10SM FEW018 BKN029 OVC050 14/09 A2991 RMK AO2 SLP134 T01440094=
201905241853 METAR KSEA 241853Z 18011KT 8SM SCT010 OVC021 13/11 A2990 RMK AO2 RAE50 SLP132 P0000 T01280106=
201905241850 SPECI KSEA 241850Z 18007KT 8SM SCT010 OVC021 13/11 A2990 RMK AO2 RAE50 P0000=
201905241815 SPECI KSEA 241815Z 18011KT 6SM -RA BR FEW006 BKN010 OVC017 12/10 A2990 RMK AO2 P0000 T01170100=
201905241753 METAR KSEA 241753Z 18010KT 8SM -RA BKN011 OVC021 12/10 A2990 RMK AO2 RAE34B51 SLP131 P0000 60000 T01220100 10128 20117 53001=
201905241736 SPECI KSEA 241736Z 20009KT 6SM BR SCT012 OVC018 12/10 A2990 RMK AO2 RAE34 P0000 T01220100=
201905241706 SPECI KSEA 241706Z 21010KT 6SM -RA OVC014 12/09 A2990 RMK AO2 P0000 T01220094=
201905241653 METAR KSEA 241653Z 20009KT 7SM -RA OVC015 12/09 A2990 RMK AO2 RAB45 SLP129 P0000 T01220089=
201905241645 SPECI KSEA 241645Z 20010KT 7SM -RA OVC015 12/09 A2990 RMK AO2 RAB45 P0000 T01220089=
201905241602 SPECI KSEA 241602Z 20013KT 8SM OVC014 12/08 A2990 RMK AO2 T01220083=
201905241553 METAR KSEA 241553Z 21012KT 8SM OVC015 12/08 A2990 RMK AO2 DZE46 SLP129 P0000 T01220083=
201905241453 METAR KSEA 241453Z 20010KT 8SM -DZ OVC017 12/08 A2990 RMK AO2 DZB51 SLP129 P0000 60000 T01220078 55000=
201905241353 METAR KSEA 241353Z 19011G19KT 10SM OVC018 12/07 A2989 RMK AO2 SLP126 T01220072=
201905241253 METAR KSEA 241253Z 19013KT 10SM OVC018 12/07 A2989 RMK AO2 SLP126 T01220072=
201905241153 METAR KSEA 241153Z 18010KT 10SM OVC019 13/08 A2990 RMK AO2 SLP128 T01280078 10139 20122 50000=
201905241053 METAR KSEA 241053Z 20009KT 10SM OVC019 13/08 A2990 RMK AO2 SLP129 T01280083=
201905241010 SPECI KSEA 241010Z 21011KT 10SM OVC016 13/08 A2989 RMK AO2 T01280083=
201905240953 METAR KSEA 240953Z 19011KT 10SM OVC013 13/09 A2990 RMK AO2 SLP128 T01280089=
201905240853 METAR KSEA 240853Z 19007KT 10SM OVC014 13/09 A2989 RMK AO2 SLP127 T01280094 58001=
201905240753 METAR KSEA 240753Z 20008KT 10SM FEW009 BKN014 12/09 A2990 RMK AO2 SLP131 T01220094 402500117=
201905240653 METAR KSEA 240653Z 22008KT 10SM FEW009 SCT090 BKN120 12/09 A2990 RMK AO2 SLP129 T01220094=
201905240648 SPECI KSEA 240648Z 21010KT 10SM FEW009 SCT090 BKN120 13/09 A2990 RMK AO2=
201905240553 METAR KSEA 240553Z 21014KT 10SM SCT095 BKN120 14/10 A2989 RMK AO2 SLP127 T01390100 10250 20139 53007=
201905240453 METAR KSEA 240453Z 21008KT 10SM SCT090 BKN110 17/12 A2989 RMK AO2 SLP126 T01720117=
201905240353 METAR KSEA 240353Z 22007KT 10SM FEW045 BKN100 19/12 A2987 RMK AO2 SLP119 T01940122=
201905240253 METAR KSEA 240253Z 24005KT 10SM FEW045 BKN095 BKN250 21/12 A2987 RMK AO2 SLP120 T02110122 56010=
201905240153 METAR KSEA 240153Z 25008KT 10SM FEW045 SCT080 SCT250 24/12 A2987 RMK AO2 SLP120 T02390117=
201905240053 METAR KSEA 240053Z 19005KT 10SM FEW045 FEW080 SCT250 24/12 A2989 RMK AO2 SLP126 T02440117=
201905232353 METAR KSEA 232353Z VRB04KT 10SM FEW040 SCT250 24/13 A2990 RMK AO2 SLP129 T02440128 10250 20144 56021=
201905232253 METAR KSEA 232253Z VRB05KT 10SM FEW040 SCT250 24/11 A2991 RMK AO2 SLP133 T02390111=
201905232153 METAR KSEA 232153Z 27009KT 10SM FEW040 SCT250 24/10 A2994 RMK AO2 SLP142 T02390100=
201905232053 METAR KSEA 232053Z 28007KT 10SM FEW040 SCT250 22/12 A2996 RMK AO2 SLP150 T02220122 58023=
201905231953 METAR KSEA 231953Z 23005KT 10SM FEW030 FEW250 19/12 A2999 RMK AO2 SLP161 T01940122=
201905231853 METAR KSEA 231853Z 28005KT 10SM FEW009 FEW030 FEW250 17/12 A3001 RMK AO2 SLP169 T01670122=
201905231822 SPECI KSEA 231822Z 29006KT 7SM SCT006 16/12 A3002 RMK AO2 T01560117=
201905231753 METAR KSEA 231753Z 24007KT 5SM HZ BKN006 15/12 A3003 RMK AO2 SLP175 BKN V SCT T01500117 10156 20117 58006=
201905231738 SPECI KSEA 231738Z 22006KT 4SM HZ BKN005 14/12 A3003 RMK AO2 T01440117=
201905231717 SPECI KSEA 231717Z 26006KT 1SM R16L/6000VP6000FT BR OVC003 13/11 A3003 RMK AO2 SFC VIS 1 1/2 T01330111=
201905231714 SPECI KSEA 231714Z 27005KT 1/8SM R16L/6000VP6000FT BR OVC002 13/11 A3004 RMK AO2 SFC VIS 1 1/2 T01330111=
201905231653 METAR KSEA 231653Z 25005KT 1/8SM R16L/3500VP6000FT BR OVC001 12/11 A3004 RMK AO2 SFC VIS 3/4 SLP179 T01220111=
201905231606 SPECI KSEA 231606Z 19005KT 1/8SM R16L/1400V4000FT FG VV001 12/11 A3004 RMK AO2 SFC VIS 1/4 T01220111=
201905231553 METAR KSEA 231553Z 19004KT 1/8SM R16L/1200V1600FT FG VV001 12/11 A3005 RMK AO2 SFC VIS 1/4 SLP181 T01170111=
201905231551 SPECI KSEA 231551Z 20004KT 1/8SM R16L/1200V1600FT FG VV001 12/11 A3005 RMK AO2 SFC VIS 1/4=
201905231531 SPECI KSEA 231531Z 22004KT 1/8SM R16L/1200V2400FT FG VV001 12/11 A3006 RMK AO2 SFC VIS 1/4 T01170111=
201905231453 METAR KSEA 231453Z 17004KT 1/8SM R16L/1000V1600FT FG VV001 12/11 A3006 RMK AO2 SFC VIS 1/4 SLP184 T01170111 50001=
201905231353 METAR KSEA 231353Z 20005KT 1/8SM R16L/0500V1200FT FG VV001 12/11 A3006 RMK AO2 SFC VIS 1/4 SLP185 T01170106=
201905231253 METAR KSEA 231253Z 20005KT 1/8SM R16L/0800V1400FT FG VV001 12/11 A3006 RMK AO2 SLP185 T01170106=
201905231242 SPECI KSEA 231242Z 19006KT M1/4SM R16L/1000V2000FT FG VV001 12/11 A3005 RMK AO2 T01170106=
201905231236 SPECI KSEA 231236Z 17005KT 1/4SM R16L/1200V3500FT FG VV001 12/11 A3005 RMK AO2 T01170106=
201905231220 SPECI KSEA 231220Z 17004KT 3/4SM R16L/2200VP6000FT BR BKN002 12/11 A3005 RMK AO2 T01170111=
201905231216 SPECI KSEA 231216Z 19004KT 1 1/4SM R16L/3000VP6000FT BR SCT003 SCT008 SCT220 12/11 A3005 RMK AO2 VIS S 3/4 T01170106=
201905231213 SPECI KSEA 231213Z 19005KT 1 3/4SM R16L/5000VP6000FT BR SCT004 12/11 A3005 RMK AO2 T01170106=
201905231157 SPECI KSEA 231157Z 18007KT 8SM FEW003 FEW220 12/10 A3005 RMK AO2 T01170100=
201905231153 METAR KSEA 231153Z 18006KT 8SM FEW220 12/11 A3005 RMK AO2 SLP181 T01170106 10194 20117 50003=
201905231053 METAR KSEA 231053Z 18005KT 10SM FEW220 12/10 A3005 RMK AO2 SLP182 T01170100=
201905230953 METAR KSEA 230953Z 23004KT 10SM SCT220 13/11 A3005 RMK AO2 SLP181 T01330106=
201905230853 METAR KSEA 230853Z 18006KT 10SM FEW130 SCT200 13/11 A3004 RMK AO2 SLP179 T01330111 51004=
201905230753 METAR KSEA 230753Z 18006KT 10SM SCT130 14/11 A3004 RMK AO2 SLP179 T01390111 402390106=
201905230653 METAR KSEA 230653Z 18005KT 10SM BKN130 16/12 A3004 RMK AO2 SLP178 T01610117=
201905230553 METAR KSEA 230553Z 11004KT 10SM OVC120 19/11 A3003 RMK AO2 SLP174 T01890106 10239 20189 51015=
201905230453 METAR KSEA 230453Z 19003KT 10SM SCT100 BKN120 19/11 A3002 RMK AO2 SLP170 T01940111=
201905230353 METAR KSEA 230353Z 31004KT 10SM FEW040 BKN120 20/11 A3000 RMK AO2 SLP165 T02000106=
201905230253 METAR KSEA 230253Z 29003KT 10SM FEW040 BKN120 BKN250 22/10 A2999 RMK AO2 SLP159 T02220100 52004=
201905230153 METAR KSEA 230153Z 28006KT 10SM FEW040 SCT120 SCT250 23/09 A2998 RMK AO2 SLP158 T02280094=
201905230053 METAR KSEA 230053Z 35010KT 10SM FEW040 BKN120 BKN250 23/09 A2998 RMK AO2 SLP157 T02280094=
201905222353 METAR KSEA 222353Z 30008KT 10SM FEW040 SCT110 SCT250 23/11 A2998 RMK AO2 SLP155 T02330106 10233 20172 58006=
201905222253 METAR KSEA 222253Z 30009KT 10SM FEW035 SCT120 SCT250 23/11 A2999 RMK AO2 SLP158 T02330106=
201905222153 METAR KSEA 222153Z 33009KT 10SM SCT035 SCT250 23/11 A2999 RMK AO2 SLP161 T02280111=
201905222053 METAR KSEA 222053Z 31006KT 10SM SCT034 SCT250 21/11 A2999 RMK AO2 SLP162 T02110106 53001=
201905221953 METAR KSEA 221953Z 24006KT 10SM SCT032 19/11 A2999 RMK AO2 SLP161 T01940106=
201905221853 METAR KSEA 221853Z VRB04KT 10SM SCT028 BKN110 18/11 A2999 RMK AO2 SLP162 T01830106=
201905221753 METAR KSEA 221753Z 25005KT 10SM SCT025 BKN033 BKN110 17/10 A2999 RMK AO2 SLP162 T01720100 10178 20106 51003=
201905221653 METAR KSEA 221653Z 00000KT 10SM FEW020 BKN030 BKN110 16/10 A2999 RMK AO2 SLP161 T01610100=
201905221553 METAR KSEA 221553Z 00000KT 10SM FEW020 FEW037 SCT100 14/11 A2999 RMK AO2 SLP160 T01440106=
201905221453 METAR KSEA 221453Z 17004KT 10SM FEW020 BKN042 BKN100 13/09 A2998 RMK AO2 SLP158 T01280094 51010=
201905221353 METAR KSEA 221353Z 00000KT 10SM BKN100 BKN200 12/09 A2998 RMK AO2 SLP157 T01170089=
201905221253 METAR KSEA 221253Z 18003KT 10SM SCT100 SCT200 11/08 A2996 RMK AO2 SLP152 T01060078=
201905221153 METAR KSEA 221153Z 12004KT 10SM BKN100 12/09 A2995 RMK AO2 SLP149 T01170089 10144 20106 51013=
201905221053 METAR KSEA 221053Z 12005KT 10SM BKN100 12/09 A2994 RMK AO2 SLP146 T01170089=
201905220953 METAR KSEA 220953Z 15004KT 10SM SCT100 11/09 A2993 RMK AO2 SLP141 T01110089=
201905220853 METAR KSEA 220853Z 13004KT 10SM FEW100 12/09 A2991 RMK AO2 SLP135 T01220089 53008=
201905220753 METAR KSEA 220753Z 13003KT 10SM SCT100 13/09 A2990 RMK AO2 SLP131 T01280089 401670100=
201905220653 METAR KSEA 220653Z 19003KT 10SM BKN100 13/09 A2990 RMK AO2 SLP130 T01330089=
201905220553 METAR KSEA 220553Z 00000KT 10SM OVC100 14/09 A2989 RMK AO2 SLP127 T01440094 10161 20144 51019=
201905220453 METAR KSEA 220453Z 00000KT 10SM BKN100 BKN200 14/09 A2988 RMK AO2 SLP123 T01440094=
201905220353 METAR KSEA 220353Z 05004KT 10SM FEW040 BKN110 BKN200 15/09 A2985 RMK AO2 SLP114 T01500089=
201905220253 METAR KSEA 220253Z 04005KT 10SM FEW030 BKN110 BKN200 16/09 A2983 RMK AO2 SLP108 T01560094 53015=
201905220153 METAR KSEA 220153Z 02007KT 10SM FEW030 BKN110 BKN200 16/09 A2981 RMK AO2 SLP101 T01610089=
201905220053 METAR KSEA 220053Z VRB06KT 10SM FEW030 BKN110 BKN200 16/09 A2980 RMK AO2 SLP097 T01610089=
201905212353 METAR KSEA 212353Z 03006KT 10SM SCT028 BKN100 BKN200 16/09 A2979 RMK AO2 SLP093 T01610089 10167 20133 51006=
201905212315 SPECI KSEA 212315Z 04008KT 10SM SCT028 BKN100 16/09 A2978 RMK AO2 T01560089=
201905212253 METAR KSEA 212253Z 02011KT 10SM BKN026 BKN140 16/08 A2978 RMK AO2 SLP091 T01560083=
201905212153 METAR KSEA 212153Z 01009KT 10SM BKN022 15/08 A2978 RMK AO2 SLP091 T01500083=
201905212053 METAR KSEA 212053Z 36009KT 10SM BKN020 BKN140 16/09 A2977 RMK AO2 SLP087 T01610089 53007=
201905211953 METAR KSEA 211953Z 02007KT 10SM FEW015 BKN021 BKN140 15/08 A2976 RMK AO2 SLP084 T01500083=
201905211853 METAR KSEA 211853Z 32006KT 10SM FEW011 BKN017 BKN140 14/08 A2975 RMK AO2 SLP080 T01390083=
201905211841 SPECI KSEA 211841Z 33007KT 310V020 10SM FEW011 BKN017 BKN140 14/08 A2975 RMK AO2 T01440083=
201905211753 METAR KSEA 211753Z 01008KT 10SM BKN012 BKN018 BKN140 13/09 A2975 RMK AO2 SLP079 60000 T01330089 10139 20106 52010=
201905211653 METAR KSEA 211653Z 01007KT 10SM FEW007 BKN013 BKN140 13/08 A2974 RMK AO2 SLP075 T01330083=
201905211649 SPECI KSEA 211649Z 36009KT 10SM FEW007 BKN013 BKN140 13/08 A2973 RMK AO2=
201905211553 METAR KSEA 211553Z 01008KT 10SM FEW007 BKN140 BKN250 12/08 A2973 RMK AO2 SLP072 T01220083=
201905211453 METAR KSEA 211453Z 03008KT 10SM FEW005 SCT044 BKN100 11/08 A2972 RMK AO2 SLP068 60000 T01110083 50008=
201905211353 METAR KSEA 211353Z 35004KT 10SM FEW005 BKN065 OVC085 11/09 A2972 RMK AO2 SLP069 T01060089=
201905211253 METAR KSEA 211253Z 05005KT 10SM SCT005 BKN055 OVC075 11/08 A2970 RMK AO2 RAE09 SLP064 VIRGA P0000 T01060083=
201905211231 SPECI KSEA 211231Z 04005KT 10SM FEW005 BKN050 OVC085 11/08 A2970 RMK AO2 RAE09 P0000 T01060083=
201905211153 METAR KSEA 211153Z 03005KT 10SM -RA BKN050 OVC065 11/08 A2969 RMK AO2 RAE09B28 SLP060 P0001 60002 70007 T01060083 10111 20100 58002=
201905211053 METAR KSEA 211053Z 36004KT 10SM -RA BKN050 OVC065 11/08 A2969 RMK AO2 SLP061 P0001 T01060078=
201905210953 METAR KSEA 210953Z 04005KT 10SM -RA FEW040 OVC060 11/08 A2970 RMK AO2 RAB50 SLP062 P0000 T01060078=
201905210853 METAR KSEA 210853Z 02007KT 10SM FEW060 BKN070 OVC085 11/07 A2970 RMK AO2 SLP062 T01060072 56012=
201905210753 METAR KSEA 210753Z 04006KT 10SM BKN060 OVC080 11/07 A2971 RMK AO2 SLP066 T01110067 401390111=
201905210653 METAR KSEA 210653Z 05005KT 10SM OVC090 11/07 A2972 RMK AO2 SLP069 T01110067=
201905210553 METAR KSEA 210553Z 00000KT 10SM FEW060 OVC100 11/08 A2973 RMK AO2 SLP073 60001 T01110078 10133 20111 56009=
201905210453 METAR KSEA 210453Z 07010KT 10SM OVC060 11/07 A2974 RMK AO2 RAE0357B21E51 SLP075 P0000 T01110072=
201905210353 METAR KSEA 210353Z 06011KT 10SM -RA FEW020 SCT055 OVC070 12/08 A2974 RMK AO2 RAB48 SLP078 P0000 T01170078=
201905210253 METAR KSEA 210253Z 09006KT 10SM FEW020 SCT060 OVC085 12/08 A2976 RMK AO2 RAB19E34 SLP082 P0000 60001 T01220083 57011=
201905210153 METAR KSEA 210153Z 09008KT 10SM FEW030 OVC070 13/09 A2976 RMK AO2 RAE05 SLP085 P0001 T01280094=
201905210053 METAR KSEA 210053Z VRB03KT 10SM -RA FEW030 BKN060 OVC075 13/08 A2978 RMK AO2 RAB30 SLP091 P0000 T01330083=
201905202353 METAR KSEA 202353Z 21006KT 10SM FEW032 SCT055 OVC075 13/08 A2979 RMK AO2 RAE2259 SLP093 P0000 60002 T01330083 10139 20122 58001=
201905202253 METAR KSEA 202253Z 21006KT 9SM -RA SCT031 OVC070 13/09 A2980 RMK AO2 SLP096 P0002 T01280094=
201905202153 METAR KSEA 202153Z 20009KT 10SM -RA FEW019 OVC030 13/09 A2979 RMK AO2 RAB40 SLP094 P0000 T01280094=
201905202150 SPECI KSEA 202150Z 20009KT 10SM -RA FEW019 OVC030 13/09 A2979 RMK AO2 RAB40 P0000=
201905202053 METAR KSEA 202053Z 20010KT 10SM FEW019 OVC028 13/09 A2979 RMK AO2 RAE42 SLP093 P0000 60000 T01280094 53001=
201905201953 METAR KSEA 201953Z 21011KT 10SM -RA BKN017 OVC033 13/11 A2978 RMK AO2 RAB49 SLP092 P0000 T01280106=
201905201934 SPECI KSEA 201934Z 23007KT 10SM SCT017 BKN027 OVC060 13/09 A2978 RMK AO2 T01330089=
201905201853 METAR KSEA 201853Z 20008KT 10SM FEW014 BKN030 OVC060 14/09 A2978 RMK AO2 RAE48 SLP090 P0000 T01390094=
201905201753 METAR KSEA 201753Z 18006KT 10SM -RA FEW013 BKN032 OVC055 13/09 A2978 RMK AO2 SLP090 P0000 60002 T01330094 10133 20122 58001=
201905201738 SPECI KSEA 201738Z 21009KT 10SM -RA SCT012 BKN030 OVC050 13/09 A2979 RMK AO2 P0000 T01330094=
201905201716 SPECI KSEA 201716Z 18006KT 10SM -RA FEW012 BKN029 OVC046 13/11 A2978 RMK AO2 P0000 T01330106=
201905201653 METAR KSEA 201653Z 19009KT 10SM -RA FEW011 SCT025 OVC044 13/10 A2978 RMK AO2 SLP091 P0001 T01280100=
201905201638 SPECI KSEA 201638Z 19008KT 10SM -RA FEW011 SCT024 OVC044 13/11 A2978 RMK AO2 P0001 T01280106=
201905201600 SPECI KSEA 201600Z 19007KT 10SM -RA FEW014 BKN024 OVC070 13/11 A2978 RMK AO2 P0000 T01280106=
201905201553 METAR KSEA 201553Z 19008KT 10SM -RA SCT010 BKN030 OVC070 13/10 A2978 RMK AO2 SLP091 P0000 T01280100=
201905201453 METAR KSEA 201453Z 17009KT 6SM -RA BR SCT014 BKN030 OVC050 12/10 A2978 RMK AO2 SLP091 P0001 60001 T01220100 53002=
201905201353 METAR KSEA 201353Z 17008KT 10SM -RA SCT012 BKN031 OVC050 12/09 A2978 RMK AO2 RAE14B40 SLP089 P0000 T01220094=
201905201253 METAR KSEA 201253Z 17008KT 10SM -RA FEW017 BKN032 OVC041 13/09 A2978 RMK AO2 RAB36 SLP089 P0000 T01280094=
201905201222 SPECI KSEA 201222Z 17005KT 10SM FEW013 BKN030 OVC041 13/09 A2978 RMK AO2 T01280089=
201905201153 METAR KSEA 201153Z 22005KT 10SM FEW012 BKN025 OVC050 13/09 A2978 RMK AO2 SLP089 T01280089 10150 20128 55001=
201905201114 SPECI KSEA 201114Z 20008KT 10SM BKN015 OVC022 13/09 A2978 RMK AO2 T01280089=
201905201053 METAR KSEA 201053Z 21007KT 10SM BKN013 OVC021 13/09 A2978 RMK AO2 SLP088 T01280094=
201905200953 METAR KSEA 200953Z 22006KT 10SM BKN012 BKN022 OVC050 13/09 A2978 RMK AO2 SLP090 T01330094=
201905200853 METAR KSEA 200853Z 22006KT 10SM BKN014 OVC080 13/09 A2978 RMK AO2 SLP090 T01330094 53002=
201905200815 SPECI KSEA 200815Z 21005KT 10SM BKN014 BKN050 OVC080 14/10 A2978 RMK AO2 T01390100=
201905200753 METAR KSEA 200753Z 22006KT 10SM FEW015 BKN050 OVC080 13/10 A2977 RMK AO2 SLP087 T01330100 402110117=
201905200653 METAR KSEA 200653Z 22007KT 10SM FEW015 BKN042 OVC060 14/10 A2978 RMK AO2 SLP089 T01440100=
201905200553 METAR KSEA 200553Z 21009KT 10SM BKN040 BKN075 15/10 A2977 RMK AO2 SLP088 T01500100 10211 20150 51012=
201905200453 METAR KSEA 200453Z 21009KT 10SM SCT044 BKN075 16/11 A2977 RMK AO2 SLP085 T01560106=
201905200353 METAR KSEA 200353Z 20008KT 10SM FEW045 BKN095 17/11 A2975 RMK AO2 SLP079 T01720106=
201905200253 METAR KSEA 200253Z 23009KT 10SM FEW045 BKN075 BKN090 18/11 A2974 RMK AO2 SLP075 T01830106 53005=
201905200153 METAR KSEA 200153Z 21009KT 10SM FEW045 BKN085 19/09 A2972 RMK AO2 SLP070 T01940089=
201905200053 METAR KSEA 200053Z 21008KT 10SM FEW045 SCT110 BKN220 21/10 A2972 RMK AO2 SLP069 T02060100=
201905192353 METAR KSEA 192353Z 23007KT 10SM FEW045 BKN110 BKN220 21/09 A2972 RMK AO2 SLP070 T02060089 10211 20150 56004=
201905192253 METAR KSEA 192253Z VRB05KT 10SM FEW045 SCT100 SCT200 21/09 A2972 RMK AO2 SLP070 T02060094=
201905192153 METAR KSEA 192153Z 24006KT 10SM FEW045 SCT120 SCT200 21/08 A2973 RMK AO2 SLP071 T02060083=
201905192053 METAR KSEA 192053Z 28007KT 10SM FEW025 FEW045 BKN170 19/09 A2974 RMK AO2 SLP075 T01940094 58003=
201905191953 METAR KSEA 191953Z 26007KT 10SM FEW025 FEW045 SCT080 BKN130 18/10 A2974 RMK AO2 SLP077 T01830100=
201905191853 METAR KSEA 191853Z 26004KT 10SM FEW030 SCT043 BKN080 BKN200 17/10 A2975 RMK AO2 SLP078 T01720100=
201905191753 METAR KSEA 191753Z 27004KT 10SM FEW010 BKN090 OVC120 15/10 A2975 RMK AO2 SLP078 T01500100 10161 20117 51004=
201905191653 METAR KSEA 191653Z 00000KT 10SM FEW010 BKN070 OVC085 16/09 A2975 RMK AO2 SLP078 T01560089=
201905191553 METAR KSEA 191553Z 06005KT 10SM FEW010 BKN070 OVC085 14/08 A2975 RMK AO2 SLP078 T01440083=
201905191453 METAR KSEA 191453Z VRB03KT 10SM FEW010 BKN070 OVC110 13/09 A2974 RMK AO2 SLP074 T01330094 53010=
201905191353 METAR KSEA 191353Z 00000KT 10SM FEW010 BKN085 OVC130 13/10 A2972 RMK AO2 SLP070 T01280100=
201905191253 METAR KSEA 191253Z 00000KT 10SM FEW010 SCT060 OVC090 12/10 A2970 RMK AO2 SLP063 T01220100=
201905191153 METAR KSEA 191153Z 22004KT 10SM SCT055 BKN085 OVC100 13/09 A2970 RMK AO2 SLP064 T01280094 10156 20128 53007=
201905191053 METAR KSEA 191053Z 23003KT 10SM SCT075 OVC100 13/09 A2969 RMK AO2 SLP058 T01330089=
201905190953 METAR KSEA 190953Z 17004KT 10SM FEW065 BKN090 OVC120 14/09 A2969 RMK AO2 SLP057 T01390089=
201905190853 METAR KSEA 190853Z 17004KT 10SM FEW065 OVC120 14/09 A2968 RMK AO2 SLP056 T01390089 50003=
201905190753 METAR KSEA 190753Z 00000KT 10SM SCT100 BKN160 BKN250 14/08 A2969 RMK AO2 SLP058 T01440083 402170106=
201905190653 METAR KSEA 190653Z 27004KT 10SM SCT090 OVC250 15/07 A2968 RMK AO2 SLP057 T01500067=
201905190553 METAR KSEA 190553Z 24007KT 10SM SCT080 OVC170 15/07 A2967 RMK AO2 SLP053 T01500072 10211 20150 53014=
201905190453 METAR KSEA 190453Z 03012KT 10SM FEW050 OVC170 18/07 A2964 RMK AO2 SLP043 T01830067=
201905190353 METAR KSEA 190353Z 02012KT 10SM FEW050 OVC170 19/06 A2963 RMK AO2 SLP039 T01890056=
201905190253 METAR KSEA 190253Z 02012KT 10SM FEW050 OVC150 19/05 A2963 RMK AO2 SLP038 T01940050 55012=
201905190153 METAR KSEA 190153Z 35009KT 10SM FEW120 OVC200 19/06 A2963 RMK AO2 SLP038 T01940056=
201905190053 METAR KSEA 190053Z 34010KT 10SM FEW050 BKN220 20/06 A2965 RMK AO2 SLP044 T02000056=
201905182353 METAR KSEA 182353Z 31009KT 10SM FEW050 BKN200 21/06 A2966 RMK AO2 SLP050 T02060061 10217 20172 58028=
201905182253 METAR KSEA 182253Z 30008KT 10SM FEW050 BKN200 22/06 A2969 RMK AO2 SLP060 T02170056=
201905182153 METAR KSEA 182153Z 31006KT 10SM FEW050 BKN200 21/06 A2972 RMK AO2 SLP070 T02060056=
201905182053 METAR KSEA 182053Z 34007KT 10SM FEW050 BKN200 21/06 A2975 RMK AO2 SLP078 T02060061 57021=
201905181953 METAR KSEA 181953Z 22006KT 10SM SCT050 BKN240 19/07 A2977 RMK AO2 SLP086 T01890072=
201905181853 METAR KSEA 181853Z 00000KT 10SM SCT050 BKN240 18/07 A2979 RMK AO2 SLP092 T01830072=
201905181753 METAR KSEA 181753Z 00000KT 10SM SCT050 BKN240 17/06 A2981 RMK AO2 SLP100 T01720061 10178 20106 58017=
201905181653 METAR KSEA 181653Z 16003KT 10SM FEW040 SCT050 BKN240 16/07 A2983 RMK AO2 SLP106 T01560067=
201905181553 METAR KSEA 181553Z 10004KT 10SM SCT050 BKN240 14/07 A2985 RMK AO2 SLP114 T01440072=
201905181453 METAR KSEA 181453Z 09005KT 10SM SCT065 BKN100 BKN240 13/07 A2986 RMK AO2 SLP118 T01330072 58012=
201905181353 METAR KSEA 181353Z 00000KT 10SM SCT070 BKN100 BKN220 12/08 A2988 RMK AO2 SLP125 T01170078=
201905181253 METAR KSEA 181253Z 00000KT 10SM SCT065 SCT110 BKN220 12/08 A2988 RMK AO2 SLP125 T01170078=
201905181153 METAR KSEA 181153Z 09004KT 10SM FEW035 BKN065 12/07 A2990 RMK AO2 SLP130 70002 T01170072 10122 20111 58016=
201905181053 METAR KSEA 181053Z 00000KT 10SM FEW039 OVC060 12/07 A2992 RMK AO2 SLP136 T01220072=
201905180953 METAR KSEA 180953Z 00000KT 10SM SCT035 OVC055 12/08 A2993 RMK AO2 SLP142 T01220078=
201905180853 METAR KSEA 180853Z 20003KT 10SM SCT037 BKN055 OVC075 12/08 A2994 RMK AO2 SLP145 T01170078 56005=
201905180753 METAR KSEA 180753Z 15003KT 10SM SCT037 BKN050 OVC070 12/08 A2995 RMK AO2 SLP147 T01170078 401780111=
201905180653 METAR KSEA 180653Z 16004KT 10SM BKN045 OVC055 12/08 A2995 RMK AO2 SLP149 T01170078=
201905180553 METAR KSEA 180553Z 19004KT 10SM BKN046 OVC070 12/08 A2996 RMK AO2 SLP151 60001 T01220078 10167 20122 50001=
201905180453 METAR KSEA 180453Z 20005KT 10SM OVC055 13/07 A2996 RMK AO2 RAE34 SLP153 P0001 T01330072=
201905180353 METAR KSEA 180353Z 23005KT 9SM -RA BKN060 OVC140 13/07 A2996 RMK AO2 RAB47 SLP151 P0000 T01330072=
201905180253 METAR KSEA 180253Z 24007KT 10SM BKN070 BKN150 14/05 A2996 RMK AO2 SLP150 T01440050 52006=
201905180153 METAR KSEA 180153Z 23010KT 10SM FEW070 BKN110 BKN200 16/04 A2995 RMK AO2 SLP149 T01560044=
201905180053 METAR KSEA 180053Z 22012KT 10SM FEW060 BKN110 BKN250 16/05 A2994 RMK AO2 SLP146 T01610050=
201905172353 METAR KSEA 172353Z 21010KT 10SM SCT055 BKN075 BKN250 16/05 A2994 RMK AO2 SLP144 T01610050 10178 20128 53004=
201905172253 METAR KSEA 172253Z 20013KT 10SM FEW045 SCT080 SCT250 16/05 A2993 RMK AO2 SLP141 T01610050=
201905172153 METAR KSEA 172153Z 20011G19KT 10SM FEW045 SCT100 SCT250 17/06 A2993 RMK AO2 SLP140 T01670056=
201905172053 METAR KSEA 172053Z 19013KT 10SM FEW025 SCT050 BKN100 BKN200 17/06 A2993 RMK AO2 SLP139 T01720056 51014=
201905171953 METAR KSEA 171953Z 21013G19KT 10SM FEW025 SCT045 BKN100 BKN200 15/07 A2992 RMK AO2 SLP137 T01500072=
201905171853 METAR KSEA 171853Z 20013G21KT 10SM FEW025 SCT045 BKN100 BKN200 13/07 A2991 RMK AO2 SLP134 T01280067=
201905171753 METAR KSEA 171753Z 20016G21KT 10SM FEW025 SCT045 BKN100 BKN200 14/07 A2988 RMK AO2 SLP126 60001 T01390072 10144 20111 51027=
201905171653 METAR KSEA 171653Z 21014G26KT 10SM FEW015 SCT050 BKN100 BKN200 13/07 A2986 RMK AO2 PK WND 20026/1644 SLP118 T01280072=
201905171553 METAR KSEA 171553Z 20013G23KT 10SM SCT015 BKN050 BKN100 12/07 A2984 RMK AO2 SLP110 T01170072=
201905171453 METAR KSEA 171453Z 21017KT 10SM SCT015 BKN050 BKN090 11/08 A2980 RMK AO2 PK WND 19028/1431 SLP098 60001 T01110078 53026=
201905171353 METAR KSEA 171353Z 21014G22KT 10SM SCT018 BKN070 BKN090 11/08 A2977 RMK AO2 RAE18 SLP088 P0000 T01110083=
201905171253 METAR KSEA 171253Z 20015G22KT 7SM -RA FEW014 OVC060 11/08 A2975 RMK AO2 SLP080 P0001 T01110083=
201905171153 METAR KSEA 171153Z 22012KT 10SM -RA OVC070 11/08 A2972 RMK AO2 RAB04 SLP071 P0001 60011 70016 T01110083 10128 20111 51016=
201905171104 SPECI KSEA 171104Z 21015G20KT 10SM -RA FEW017 OVC060 12/09 A2971 RMK AO2 RAB04 P0000 T01170089=
201905171053 METAR KSEA 171053Z 21012KT 10SM BKN017 OVC060 12/09 A2971 RMK AO2 RAE28 SLP067 P0001 T01170089=
201905170953 METAR KSEA 170953Z 22012KT 10SM -RA BKN016 OVC043 12/09 A2970 RMK AO2 RAB10 SLP062 P0001 T01220094=
201905170900 SPECI KSEA 170900Z 22012KT 10SM OVC016 12/10 A2968 RMK AO2 T01220100=
201905170853 METAR KSEA 170853Z 21015KT 10SM OVC014 12/10 A2968 RMK AO2 RAE16 SLP056 P0000 60008 T01220100 53008=
201905170753 METAR KSEA 170753Z 22010KT 9SM -RA OVC014 12/11 A2967 RMK AO2 SLP052 P0003 T01220106 401780117=
201905170653 METAR KSEA 170653Z 21012KT 9SM -RA BKN014 BKN019 OVC055 12/11 A2966 RMK AO2 SLP050 P0005 T01220106=
201905170553 METAR KSEA 170553Z 21011KT 9SM -RA OVC014 13/11 A2965 RMK AO2 DZE02RAB02 SLP048 P0001 60001 T01280106 10178 20128 51018=
201905170453 METAR KSEA 170453Z 21011KT 10SM -DZ BKN014 OVC075 13/11 A2964 RMK AO2 DZB49 SLP043 P0000 T01330106=
201905170409 SPECI KSEA 170409Z 22010KT 10SM SCT017 OVC070 14/11 A2963 RMK AO2 T01390106=
201905170353 METAR KSEA 170353Z 23010KT 10SM BKN015 OVC070 14/11 A2962 RMK AO2 SLP037 T01440106=
201905170313 SPECI KSEA 170313Z 22012KT 10SM BKN016 BKN075 OVC140 15/12 A2961 RMK AO2 T01500117=
201905170253 METAR KSEA 170253Z 21009KT 10SM FEW020 SCT080 OVC090 16/12 A2960 RMK AO2 SLP029 T01560117 51006=
201905170153 METAR KSEA 170153Z 22007KT 10SM FEW018 BKN060 OVC090 16/13 A2960 RMK AO2 SLP027 T01610128=
201905170053 METAR KSEA 170053Z 22008KT 10SM FEW017 SCT050 OVC150 17/13 A2959 RMK AO2 SLP024 T01670128=
201905162353 METAR KSEA 162353Z 20008KT 10SM SCT017 SCT043 BKN070 OVC150 17/13 A2958 RMK AO2 RAE50 SLP022 P0000 60004 T01720128 10172 20139 50002=
201905162253 METAR KSEA 162253Z 20005KT 7SM -RA FEW010 SCT050 OVC075 16/13 A2959 RMK AO2 SLP024 P0000 T01610133=
201905162153 METAR KSEA 162153Z 17005KT 6SM -RA FEW009 SCT015 OVC080 15/13 A2958 RMK AO2 RAB2059 SLP024 P0002 T01500128=
201905162144 SPECI KSEA 162144Z 17004KT 5SM -RA FEW009 SCT014 OVC080 16/13 A2958 RMK AO2 RAB2059 P0001 T01560128=
201905162053 METAR KSEA 162053Z 17005KT 6SM HZ FEW008 BKN012 OVC070 16/12 A2958 RMK AO2 RAB10E52 SLP022 P0001 60002 T01560122 53001=
201905162048 SPECI KSEA 162048Z 16005KT 6SM -RA FEW008 BKN012 OVC070 16/12 A2958 RMK AO2 RAB10 P0001=
201905161953 METAR KSEA 161953Z 14004KT 7SM SCT008 OVC070 16/12 A2957 RMK AO2 RAB1857E27 SLP019 P0001 T01560122=
201905161932 SPECI KSEA 161932Z 13006KT 6SM HZ BKN008 OVC075 16/12 A2958 RMK AO2 RAB1857E27 P0001 T01560122=
201905161853 METAR KSEA 161853Z 00000KT 6SM HZ SCT007 OVC070 15/12 A2958 RMK AO2 RAB1754E07 SLP021 P0000 T01500122=
201905161843 SPECI KSEA 161843Z 00000KT 6SM HZ SCT007 OVC065 15/12 A2958 RMK AO2 RAB1754E07 P0000 T01500122=
201905161753 METAR KSEA 161753Z 14006KT 5SM BR OVC007 14/12 A2958 RMK AO2 RAE16B41E52 SLP020 P0000 60000 T01390117 10139 20117 53014=
201905161653 METAR KSEA 161653Z 00000KT 2SM -RA BR OVC007 13/11 A2956 RMK AO2 SFC VIS 3 RAB53 SLP016 P0000 T01330111=
201905161553 METAR KSEA 161553Z 26003KT 2SM BR OVC005 13/12 A2954 RMK AO2 SFC VIS 3 SLP010 T01330117=
201905161517 SPECI KSEA 161517Z 32003KT 1 1/2SM BR OVC002 13/11 A2954 RMK AO2 SFC VIS 2 T01330111=
201905161453 METAR KSEA 161453Z 35004KT 1/2SM R16L/P6000FT BR OVC002 13/12 A2953 RMK AO2 SFC VIS 1 SLP007 T01280117 58003=
201905161353 METAR KSEA 161353Z 01006KT 1/2SM R16L/5000VP6000FT BR BKN001 OVC006 13/12 A2954 RMK AO2 SFC VIS 3/4 SLP008 T01280117 $=
201905161302 SPECI KSEA 161302Z 36007KT 1/2SM R16L/1600VP6000FT FG VV001 12/12 A2953 RMK AO2 T01220117 $=
201905161253 METAR KSEA 161253Z 36007KT 1/2SM R16L/1600V2000FT FG VV001 12/11 A2954 RMK AO2 SLP008 T01220111 $=
201905161216 SPECI KSEA 161216Z 35005KT 1/2SM R16L/1600VP6000FT FG VV001 12/12 A2954 RMK AO2 T01220117 $=
201905161153 METAR KSEA 161153Z 32004KT 1/4SM R16L/0700V1000FT FG VV001 12/11 A2954 RMK AO2 SLP008 70001 T01170106 10144 20117 56016 $=
201905161116 SPECI KSEA 161116Z 06004KT 1/2SM R16L/1000V2200FT FG VV001 12/11 A2955 RMK AO2 T01220111 $=
201905161102 SPECI KSEA 161102Z 05007KT 1/2SM R16L/1800VP6000FT FG VV001 12/11 A2955 RMK AO2 T01220106 $=
201905161053 METAR KSEA 161053Z 06004KT 2SM BR BKN001 12/11 A2955 RMK AO2 TWR VIS 7 SLP011 T01220106=
201905161045 SPECI KSEA 161045Z 08004KT 8SM FEW001 SCT070 12/11 A2955 RMK AO2 T01220106=
201905160953 METAR KSEA 160953Z 00000KT 10SM FEW075 SCT180 12/11 A2957 RMK AO2 SLP019 T01220106=
201905160853 METAR KSEA 160853Z 00000KT 10SM SCT180 12/10 A2959 RMK AO2 SLP024 T01170100 58012=
201905160753 METAR KSEA 160753Z 35003KT 10SM FEW070 BKN180 14/11 A2960 RMK AO2 SLP029 T01390106 402170111=
201905160653 METAR KSEA 160653Z 00000KT 10SM OVC070 14/12 A2962 RMK AO2 SLP034 T01390117=
201905160553 METAR KSEA 160553Z 34005KT 10SM OVC070 14/11 A2962 RMK AO2 SLP036 60001 T01440111 10167 20139 56004=
201905160453 METAR KSEA 160453Z 36005KT 10SM FEW060 BKN080 OVC200 14/11 A2963 RMK AO2 SLP039 T01440111=
201905160353 METAR KSEA 160353Z 36007KT 10SM FEW055 SCT075 OVC100 14/12 A2963 RMK AO2 RAE49 SLP038 P0001 T01440117=
201905160253 METAR KSEA 160253Z 36006KT 10SM -RA OVC060 15/11 A2964 RMK AO2 SLP041 P0000 60000 T01500111 58006=
201905160153 METAR KSEA 160153Z 30005KT 10SM -RA OVC070 16/11 A2964 RMK AO2 RAE13B52 SLP042 P0000 T01560111=
201905160053 METAR KSEA 160053Z 29005KT 10SM -RA OVC080 15/11 A2965 RMK AO2 SLP047 P0000 T01500106=
201905152353 METAR KSEA 152353Z 29005KT 10SM -RA BKN080 OVC095 17/10 A2965 RMK AO2 RAB33 SLP046 P0000 60000 T01670100 10217 20161 55012=
201905152253 METAR KSEA 152253Z 30007KT 10SM FEW046 BKN090 OVC200 18/09 A2964 RMK AO2 SLP043 T01830089=
201905152153 METAR KSEA 152153Z 30008KT 10SM FEW047 BKN110 OVC200 19/09 A2967 RMK AO2 SLP052 T01890094=
201905152053 METAR KSEA 152053Z 36007KT 10SM FEW040 BKN080 BKN250 21/10 A2969 RMK AO2 SLP059 T02110100 57032=
201905151953 METAR KSEA 151953Z 33009KT 10SM FEW030 BKN180 BKN250 19/10 A2972 RMK AO2 SLP069 T01890100=
201905151853 METAR KSEA 151853Z 34009KT 310V010 10SM FEW025 BKN130 BKN200 18/09 A2976 RMK AO2 SLP081 T01780094=
201905151753 METAR KSEA 151753Z 01012KT 10SM FEW020 FEW140 BKN200 16/09 A2979 RMK AO2 SLP091 T01610089 10167 20111 58025=
201905151653 METAR KSEA 151653Z 01009KT 10SM SCT012 BKN230 15/09 A2982 RMK AO2 SLP104 T01500094=
201905151553 METAR KSEA 151553Z 34010KT 10SM FEW008 SCT012 BKN250 14/09 A2984 RMK AO2 SLP110 T01390094=
201905151456 SPECI KSEA 151456Z 34011KT 10SM FEW005 SCT009 BKN250 12/09 A2986 RMK AO2 T01220094=
201905151453 METAR KSEA 151453Z 35009KT 10SM FEW005 BKN009 BKN250 12/09 A2986 RMK AO2 SLP118 T01220094 56027=
201905151424 SPECI KSEA 151424Z 33005KT 10SM FEW005 BKN009 BKN250 11/09 A2988 RMK AO2 T01110094=
201905151353 METAR KSEA 151353Z 33005KT 10SM FEW005 BKN250 12/09 A2988 RMK AO2 SLP125 T01170094=
201905151253 METAR KSEA 151253Z 01006KT 10SM FEW003 FEW034 BKN250 11/09 A2989 RMK AO2 SLP129 T01110089=
201905151240 SPECI KSEA 151240Z 01010KT 10SM FEW002 FEW034 BKN200 11/09 A2990 RMK AO2 T01110094=
201905151153 METAR KSEA 151153Z 03004KT 10SM SCT024 OVC032 12/10 A2994 RMK AO2 RAE13 SLP145 P0000 60001 70017 T01170100 10122 20111 58017=
201905151125 SPECI KSEA 151125Z 07005KT 10SM FEW006 SCT011 OVC022 12/09 A2996 RMK AO2 RAE13 P0000 T01170094=
201905151053 METAR KSEA 151053Z 00000KT 7SM -RA FEW011 BKN026 OVC033 11/09 A2997 RMK AO2 RAB24 SLP155 P0001 T01110094=
201905151051 SPECI KSEA 151051Z 00000KT 7SM -RA FEW011 BKN026 OVC033 11/09 A2997 RMK AO2 RAB24 P0001=
201905151004 SPECI KSEA 151004Z 00000KT 10SM BKN011 OVC037 12/09 A2999 RMK AO2 T01170089=
201905150953 METAR KSEA 150953Z 24003KT 10SM SCT012 OVC037 12/09 A2999 RMK AO2 SLP163 T01170089=
201905150853 METAR KSEA 150853Z 19003KT 10SM BKN039 OVC065 11/09 A3000 RMK AO2 RAE37 SLP164 P0000 60000 T01110094 58002=
201905150753 METAR KSEA 150753Z 16003KT 10SM -RA BKN042 OVC060 12/09 A3001 RMK AO2 RAB51 SLP168 P0000 T01170089 401560111=
201905150653 METAR KSEA 150653Z 20008KT 10SM FEW040 BKN060 12/09 A3001 RMK AO2 SLP169 T01170094=
201905150553 METAR KSEA 150553Z 22007KT 10SM SCT048 12/10 A3000 RMK AO2 SLP167 60002 T01220100 10156 20117 50003=
201905150453 METAR KSEA 150453Z 20008KT 10SM BKN032 BKN055 12/10 A3001 RMK AO2 RAE0356 SLP170 P0000 T01220100=
201905150430 SPECI KSEA 150430Z 21008KT 10SM FEW024 BKN031 BKN060 12/11 A3001 RMK AO2 RAE0356 P0000 T01220106=
201905150353 METAR KSEA 150353Z 25009KT 10SM -RA SCT016 BKN028 BKN055 13/11 A3001 RMK AO2 RAB14 SLP167 P0002 T01280106=
201905150335 SPECI KSEA 150335Z 25007KT 6SM -RA BKN024 OVC060 13/11 A3000 RMK AO2 RAB14 P0000 T01330106=
201905150253 METAR KSEA 150253Z 21007KT 10SM FEW025 SCT049 BKN060 14/10 A3000 RMK AO2 SLP163 60000 T01390100 53005=
201905150153 METAR KSEA 150153Z 20007KT 10SM FEW024 BKN032 BKN080 15/10 A2998 RMK AO2 SLP159 T01500100=
201905150053 METAR KSEA 150053Z 19007KT 10SM FEW020 SCT055 BKN070 15/11 A2998 RMK AO2 RAE19 SLP159 P0000 T01500106=
201905142353 METAR KSEA 142353Z 21007KT 10SM -RA FEW020 SCT055 BKN070 14/11 A2998 RMK AO2 SLP158 P0001 60003 T01440106 10156 20122 51002=
201905142253 METAR KSEA 142253Z 22006KT 10SM -RA FEW020 SCT037 OVC060 14/11 A2998 RMK AO2 SLP158 P0000 T01440106=
201905142153 METAR KSEA 142153Z 22007KT 9SM -RA FEW021 BKN034 OVC042 14/10 A2998 RMK AO2 SLP158 P0000 T01440100=
201905142053 METAR KSEA 142053Z 19011KT 10SM -RA FEW013 BKN032 OVC045 15/09 A2997 RMK AO2 RAE02B50 SLP156 P0000 60002 T01500094 50003=
201905142041 SPECI KSEA 142041Z 18009KT 10SM FEW013 BKN032 OVC050 15/10 A2997 RMK AO2 RAE02 P0000 T01500100=
201905141953 METAR KSEA 141953Z 17009KT 8SM -RA SCT012 BKN027 OVC048 14/11 A2997 RMK AO2 SLP156 P0002 T01390111=
201905141939 SPECI KSEA 141939Z 18008KT 7SM -RA SCT011 BKN027 OVC050 14/11 A2998 RMK AO2 P0001 T01390106=
201905141853 METAR KSEA 141853Z 18010KT 7SM -RA SCT009 BKN048 OVC060 14/11 A2997 RMK AO2 SLP155 P0000 T01390111=
201905141813 SPECI KSEA 141813Z 14007KT 7SM -RA FEW008 SCT012 OVC060 13/11 A2997 RMK AO2 P0000 T01280106=
201905141753 METAR KSEA 141753Z 16006KT 7SM -RA FEW008 BKN011 OVC050 12/10 A2997 RMK AO2 SLP153 P0003 60011 T01220100 10122 20111 51010=
201905141653 METAR KSEA 141653Z 19005KT 5SM -RA BR FEW008 BKN012 OVC040 12/09 A2996 RMK AO2 SLP152 P0003 T01170094=
201905141644 SPECI KSEA 141644Z 20006KT 5SM -RA BR FEW008 BKN012 OVC040 12/09 A2996 RMK AO2 P0002 T01170094=
201905141636 SPECI KSEA 141636Z 20005KT 5SM -RA BR FEW009 BKN017 OVC060 12/09 A2996 RMK AO2 P0002 T01170094=
201905141553 METAR KSEA 141553Z 13008KT 6SM -RA SCT027 OVC050 12/09 A2994 RMK AO2 SLP146 P0004 T01170089=
201905141543 SPECI KSEA 141543Z 15009KT 6SM -RA SCT027 OVC055 12/09 A2994 RMK AO2 P0003 T01170089=
201905141453 METAR KSEA 141453Z 17006KT 6SM -RA BKN029 OVC050 12/08 A2993 RMK AO2 RAB25 SLP143 P0001 60001 T01170083 51010=
201905141443 SPECI KSEA 141443Z 18007KT 7SM -RA BKN029 OVC045 12/08 A2993 RMK AO2 RAB25 P0001 T01170078=
201905141353 METAR KSEA 141353Z 17009KT 10SM SCT040 OVC095 12/07 A2993 RMK AO2 SLP139 T01170067=
201905141253 METAR KSEA 141253Z 20007KT 10SM FEW040 BKN110 OVC140 12/07 A2991 RMK AO2 SLP135 T01170072=
201905141153 METAR KSEA 141153Z 22010KT 10SM SCT100 OVC140 12/07 A2990 RMK AO2 SLP131 T01170067 10128 20111 55002=
201905141053 METAR KSEA 141053Z 25009KT 10SM SCT080 OVC110 12/07 A2989 RMK AO2 SLP127 T01170072=
201905140953 METAR KSEA 140953Z 00000KT 10SM BKN110 OVC140 12/07 A2990 RMK AO2 SLP129 T01220072=
201905140853 METAR KSEA 140853Z 14005KT 10SM BKN140 OVC220 12/07 A2991 RMK AO2 SLP133 T01220067 58003=
201905140753 METAR KSEA 140753Z 00000KT 10SM OVC140 12/07 A2991 RMK AO2 SLP136 T01220072 402000089=
201905140653 METAR KSEA 140653Z 30005KT 10SM BKN140 OVC220 12/08 A2992 RMK AO2 SLP138 T01170083=
201905140553 METAR KSEA 140553Z 26004KT 10SM FEW140 BKN220 12/08 A2992 RMK AO2 SLP137 T01220083 10200 20122 53002=
201905140453 METAR KSEA 140453Z 29004KT 10SM FEW140 SCT250 13/08 A2991 RMK AO2 SLP136 T01330078=
201905140353 METAR KSEA 140353Z 00000KT 10SM FEW140 SCT250 16/08 A2991 RMK AO2 SLP134 T01560078=
201905140253 METAR KSEA 140253Z 29004KT 10SM SCT140 BKN250 16/07 A2991 RMK AO2 SLP135 T01610072 55009=
201905140153 METAR KSEA 140153Z 33004KT 10SM SCT140 BKN250 19/03 A2990 RMK AO2 SLP130 T01890033=
201905140053 METAR KSEA 140053Z 26004KT 10SM SCT150 BKN250 19/06 A2992 RMK AO2 SLP137 T01890056=
201905132353 METAR KSEA 132353Z 31005KT 10SM SCT150 BKN250 19/03 A2994 RMK AO2 SLP143 ACSL DSNT SE T01940028 10194 20122 58011=
201905132253 METAR KSEA 132253Z VRB04KT 10SM SCT150 BKN250 19/02 A2996 RMK AO2 SLP150 ACSL DSNT SE T01890017=
201905132153 METAR KSEA 132153Z 26006KT 10SM FEW150 BKN250 16/05 A2997 RMK AO2 SLP155 ACSL DSNT SE T01610050=
201905132053 METAR KSEA 132053Z 24007KT 10SM FEW020 FEW150 BKN250 16/06 A2997 RMK AO2 SLP156 ACSL DSNT SE T01610061 56010=
201905131953 METAR KSEA 131953Z 28005KT 10SM FEW018 SCT140 BKN250 14/07 A2998 RMK AO2 SLP157 T01440067=
201905131853 METAR KSEA 131853Z 24005KT 10SM FEW018 BKN140 OVC250 14/07 A2999 RMK AO2 SLP162 T01390067=
201905131753 METAR KSEA 131753Z 19005KT 10SM FEW017 OVC140 12/06 A3000 RMK AO2 SLP166 T01220061 10122 20094 50000=
201905131653 METAR KSEA 131653Z VRB04KT 10SM SCT016 OVC140 12/06 A3001 RMK AO2 SLP169 T01170061=
201905131609 SPECI KSEA 131609Z 22008KT 10SM BKN015 11/06 A3001 RMK AO2 T01060056=
201905131553 METAR KSEA 131553Z 20008KT 10SM BKN014 OVC020 11/06 A3001 RMK AO2 SLP168 T01060061=
201905131453 METAR KSEA 131453Z 18008KT 10SM OVC011 10/06 A3000 RMK AO2 SLP166 T01000061 51008=
201905131435 SPECI KSEA 131435Z 20008KT 10SM OVC011 09/06 A3000 RMK AO2 T00940056=
201905131353 METAR KSEA 131353Z 20005KT 10SM OVC009 09/06 A3000 RMK AO2 SLP163 T00940061=
201905131253 METAR KSEA 131253Z 18006KT 10SM BKN009 OVC200 09/06 A2999 RMK AO2 SLP159 T00940061=
201905131153 METAR KSEA 131153Z 21004KT 10SM BKN009 09/07 A2998 RMK AO2 SLP157 T00940067 10128 20089 53005=
201905131145 SPECI KSEA 131145Z 22006KT 10SM BKN009 09/07 A2998 RMK AO2 T00940067=
201905131130 SPECI KSEA 131130Z 20005KT 10SM SCT009 SCT220 09/07 A2998 RMK AO2 T00940067=
201905131053 METAR KSEA 131053Z 22005KT 10SM FEW010 FEW220 09/07 A2997 RMK AO2 SLP155 T00940067=
201905131027 SPECI KSEA 131027Z 21006KT 10SM SCT010 SCT220 09/07 A2997 RMK AO2 T00940067=
201905130953 METAR KSEA 130953Z 22007KT 10SM FEW220 10/07 A2997 RMK AO2 SLP154 T01000067=
201905130853 METAR KSEA 130853Z 22004KT 10SM CLR 10/07 A2996 RMK AO2 SLP153 T01000067 53003=
201905130753 METAR KSEA 130753Z 23003KT 10SM CLR 11/07 A2996 RMK AO2 SLP151 T01060067 401940106=
201905130653 METAR KSEA 130653Z 19004KT 10SM CLR 12/07 A2995 RMK AO2 SLP147 T01170072=
201905130553 METAR KSEA 130553Z 21005KT 10SM FEW130 12/08 A2995 RMK AO2 SLP149 T01220078 10194 20122 51010=
201905130453 METAR KSEA 130453Z 22006KT 10SM FEW170 14/08 A2995 RMK AO2 SLP147 T01390078=
201905130353 METAR KSEA 130353Z 23005KT 10SM FEW170 16/07 A2994 RMK AO2 SLP143 T01560072=
201905130253 METAR KSEA 130253Z 22005KT 10SM SCT170 18/07 A2992 RMK AO2 SLP138 T01780067 55006=
201905130153 METAR KSEA 130153Z 22008KT 10SM BKN220 19/07 A2992 RMK AO2 SLP138 T01940072=
201905130053 METAR KSEA 130053Z VRB04KT 10SM BKN220 19/07 A2993 RMK AO2 SLP140 T01940072=
201905122353 METAR KSEA 122353Z 25010KT 10SM BKN220 19/07 A2994 RMK AO2 SLP144 T01890067 10189 20122 58010=
201905122253 METAR KSEA 122253Z 24007KT 10SM FEW025 FEW120 BKN220 18/08 A2995 RMK AO2 SLP148 T01830078=
201905122153 METAR KSEA 122153Z 18006KT 10SM FEW025 SCT120 BKN220 18/07 A2996 RMK AO2 SLP151 T01780067=
201905122053 METAR KSEA 122053Z 20005KT 10SM FEW025 SCT120 BKN220 17/08 A2997 RMK AO2 SLP154 T01720078 58007=
201905121953 METAR KSEA 121953Z VRB05KT 10SM SCT025 SCT170 BKN220 16/08 A2998 RMK AO2 SLP159 T01610078=
201905121853 METAR KSEA 121853Z 20006KT 10SM OVC019 14/07 A2999 RMK AO2 SLP160 T01390072=
201905121753 METAR KSEA 121753Z 23007KT 10SM OVC014 12/08 A2999 RMK AO2 SLP163 T01220078 10122 20111 52006=
201905121653 METAR KSEA 121653Z 23009KT 10SM OVC012 12/08 A2999 RMK AO2 SLP161 T01170078=
201905121553 METAR KSEA 121553Z 22010KT 10SM OVC011 11/08 A2998 RMK AO2 SLP159 T01110078=
201905121453 METAR KSEA 121453Z 22009KT 10SM OVC010 11/08 A2998 RMK AO2 SLP156 T01110078 52008=
201905121353 METAR KSEA 121353Z 22006KT 10SM OVC008 11/08 A2997 RMK AO2 SLP153 T01110083=
201905121322 SPECI KSEA 121322Z 21007KT 10SM OVC007 11/08 A2997 RMK AO2 T01110083=
201905121253 METAR KSEA 121253Z 21007KT 10SM OVC010 12/08 A2996 RMK AO2 SLP150 T01170083=
201905121153 METAR KSEA 121153Z 22007KT 10SM OVC010 12/08 A2995 RMK AO2 SLP147 T01170083 10122 20117 53005=
201905121108 SPECI KSEA 121108Z 22008KT 10SM OVC010 12/08 A2995 RMK AO2 T01170083=
201905121053 METAR KSEA 121053Z 22007KT 10SM BKN009 OVC013 12/08 A2994 RMK AO2 SLP144 T01170083=
201905120953 METAR KSEA 120953Z 21009KT 10SM OVC008 12/08 A2994 RMK AO2 SLP143 T01170083=
201905120909 SPECI KSEA 120909Z 20008KT 10SM OVC009 12/09 A2994 RMK AO2 T01170089=
201905120853 METAR KSEA 120853Z 22007KT 10SM OVC010 12/09 A2994 RMK AO2 SLP142 T01170089 51008=
201905120753 METAR KSEA 120753Z 22008KT 10SM OVC010 12/08 A2994 RMK AO2 SLP141 T01170083 402830117=
201905120714 SPECI KSEA 120714Z 22008KT 10SM BKN012 12/09 A2993 RMK AO2 T01170089=
201905120653 METAR KSEA 120653Z 22006KT 10SM FEW009 SCT250 12/09 A2993 RMK AO2 SLP138 T01170089=
201905120553 METAR KSEA 120553Z 20007KT 10SM SCT250 12/09 A2991 RMK AO2 SLP135 T01220089 10267 20122 51014=
201905120453 METAR KSEA 120453Z 21009KT 10SM FEW040 SCT220 14/08 A2990 RMK AO2 SLP130 T01390083=
201905120353 METAR KSEA 120353Z 22007KT 10SM FEW040 SCT220 15/09 A2989 RMK AO2 SLP126 T01500094=
201905120253 METAR KSEA 120253Z 21010KT 10SM FEW040 SCT220 17/10 A2987 RMK AO2 SLP120 T01720100 53006=
201905120153 METAR KSEA 120153Z 21010KT 10SM FEW040 SCT220 22/10 A2986 RMK AO2 SLP115 T02170100=
201905120053 METAR KSEA 120053Z 23009KT 10SM FEW040 SCT220 24/09 A2985 RMK AO2 SLP114 T02440094=
201905112353 METAR KSEA 112353Z 24011KT 10SM FEW040 BKN220 27/11 A2985 RMK AO2 SLP114 T02670106 10283 20217 58009=
201905112253 METAR KSEA 112253Z 20009KT 10SM FEW120 SCT230 28/10 A2986 RMK AO2 SLP116 T02780100=
201905112153 METAR KSEA 112153Z VRB06KT 10SM FEW120 SCT230 27/10 A2988 RMK AO2 SLP120 T02720100=
201905112053 METAR KSEA 112053Z VRB03KT 10SM FEW120 SCT230 27/10 A2988 RMK AO2 SLP122 T02670100 58008=
201905111953 METAR KSEA 111953Z 24004KT 10SM SCT220 26/11 A2990 RMK AO2 SLP127 T02560106=
201905111853 METAR KSEA 111853Z 29003KT 10SM SCT220 23/09 A2990 RMK AO2 SLP129 T02330094=
201905111753 METAR KSEA 111753Z 22006KT 10SM SCT220 22/08 A2991 RMK AO2 SLP130 T02220083 10222 20133 51005=
201905111653 METAR KSEA 111653Z 21006KT 10SM SCT220 21/09 A2990 RMK AO2 SLP129 T02110089=
201905111553 METAR KSEA 111553Z 20004KT 10SM FEW220 20/09 A2990 RMK AO2 SLP128 T02000089=
201905111453 METAR KSEA 111453Z 00000KT 10SM FEW220 18/09 A2989 RMK AO2 SLP126 T01780089 53006=
201905111353 METAR KSEA 111353Z 22003KT 10SM FEW210 15/08 A2988 RMK AO2 SLP122 T01500083=
201905111253 METAR KSEA 111253Z 16004KT 10SM FEW200 14/08 A2988 RMK AO2 SLP120 T01390078=
201905111153 METAR KSEA 111153Z 00000KT 10SM FEW200 16/08 A2988 RMK AO2 SLP120 T01560078 10217 20156 50000=
201905111053 METAR KSEA 111053Z 14004KT 10SM CLR 17/08 A2988 RMK AO2 SLP120 T01670078=
201905110953 METAR KSEA 110953Z 00000KT 10SM CLR 18/07 A2987 RMK AO2 SLP119 T01780072=
201905110853 METAR KSEA 110853Z 00000KT 10SM CLR 18/07 A2988 RMK AO2 SLP120 T01830072 51005=
201905110753 METAR KSEA 110753Z 00000KT 10SM CLR 19/07 A2987 RMK AO2 SLP119 T01890067 403000133=
201905110653 METAR KSEA 110653Z 01004KT 10SM CLR 21/06 A2987 RMK AO2 SLP117 T02110061=
201905110553 METAR KSEA 110553Z 01007KT 10SM CLR 22/06 A2986 RMK AO2 SLP114 T02170056 10300 20217 51009=
201905110453 METAR KSEA 110453Z 36006KT 10SM CLR 22/06 A2986 RMK AO2 SLP114 T02220056=
201905110353 METAR KSEA 110353Z 35007KT 10SM CLR 23/04 A2985 RMK AO2 SLP110 T02330039=
201905110253 METAR KSEA 110253Z 30004KT 10SM CLR 26/04 A2983 RMK AO2 SLP105 T02610044 55006=
201905110153 METAR KSEA 110153Z 29006KT 10SM CLR 28/04 A2983 RMK AO2 SLP105 T02780039=
201905110053 METAR KSEA 110053Z 31007KT 10SM CLR 29/05 A2984 RMK AO2 SLP107 T02890050=
201905102353 METAR KSEA 102353Z 29008KT 10SM FEW050 30/05 A2985 RMK AO2 SLP111 T03000050 10300 20222 58014=
201905102253 METAR KSEA 102253Z 32007KT 10SM FEW050 30/06 A2987 RMK AO2 SLP116 T03000056=
201905102153 METAR KSEA 102153Z 29008G18KT 10SM FEW040 29/07 A2988 RMK AO2 SLP122 T02940072=
201905102053 METAR KSEA 102053Z 29008KT 10SM FEW040 27/08 A2989 RMK AO2 SLP125 T02720078 58011=
201905101953 METAR KSEA 101953Z 29007KT 10SM CLR 26/09 A2990 RMK AO2 SLP129 T02610089=
201905101853 METAR KSEA 101853Z 29006KT 10SM CLR 24/08 A2992 RMK AO2 SLP135 T02440078=
201905101753 METAR KSEA 101753Z 28005KT 10SM CLR 23/08 A2993 RMK AO2 SLP137 T02280078 10228 20133 58008=
201905101653 METAR KSEA 101653Z 30004KT 10SM CLR 21/08 A2994 RMK AO2 SLP141 T02110083=
201905101553 METAR KSEA 101553Z 15004KT 10SM CLR 19/08 A2994 RMK AO2 SLP144 T01940078=
201905101453 METAR KSEA 101453Z 00000KT 10SM FEW250 18/08 A2995 RMK AO2 SLP146 T01780078 53007=
201905101353 METAR KSEA 101353Z 00000KT 10SM FEW250 15/07 A2994 RMK AO2 SLP144 T01500072=
201905101253 METAR KSEA 101253Z 00000KT 10SM FEW250 14/07 A2993 RMK AO2 SLP140 T01390067=
201905101153 METAR KSEA 101153Z 16003KT 10SM CLR 14/07 A2993 RMK AO2 SLP139 T01390067 10206 20139 55001=
201905101053 METAR KSEA 101053Z 13005KT 10SM CLR 16/06 A2993 RMK AO2 SLP137 T01560061=
201905100953 METAR KSEA 100953Z 16003KT 10SM CLR 15/06 A2993 RMK AO2 SLP138 T01500061=
201905100853 METAR KSEA 100853Z 13003KT 10SM CLR 16/06 A2993 RMK AO2 SLP140 T01610056 50001=
201905100753 METAR KSEA 100753Z 36004KT 10SM FEW250 17/05 A2994 RMK AO2 SLP141 T01720050 402830133=
201905100653 METAR KSEA 100653Z 34004KT 10SM CLR 19/04 A2993 RMK AO2 SLP139 T01890044=
201905100553 METAR KSEA 100553Z 03005KT 10SM FEW250 21/04 A2993 RMK AO2 SLP138 T02060039 10278 20200 50004=
201905100453 METAR KSEA 100453Z 36006KT 10SM FEW250 21/03 A2993 RMK AO2 SLP140 T02060033=
201905100353 METAR KSEA 100353Z 35009KT 10SM SCT250 22/02 A2993 RMK AO2 SLP138 T02170017=
201905100253 METAR KSEA 100253Z 34007KT 10SM SCT250 23/06 A2992 RMK AO2 SLP135 T02330056 56011=
201905100153 METAR KSEA 100153Z 36008KT 10SM SCT250 26/04 A2992 RMK AO2 SLP136 T02610044=
201905100053 METAR KSEA 100053Z 01012KT 10SM BKN250 27/04 A2994 RMK AO2 SLP141 T02720039=
201905092353 METAR KSEA 092353Z 36014KT 10SM BKN250 27/03 A2995 RMK AO2 SLP146 T02720028 10283 20222 58020=
201905092253 METAR KSEA 092253Z 34014KT 10SM BKN250 28/04 A2997 RMK AO2 SLP153 T02780039=
201905092153 METAR KSEA 092153Z 31010G18KT 10SM FEW050 BKN250 28/06 A2999 RMK AO2 SLP160 T02780056=
201905092053 METAR KSEA 092053Z 31010KT 10SM FEW040 BKN250 26/08 A3001 RMK AO2 SLP167 T02560078 58018=
201905091953 METAR KSEA 091953Z 33008KT 10SM FEW040 BKN250 27/07 A3003 RMK AO2 SLP173 T02670072=
201905091853 METAR KSEA 091853Z 34008KT 10SM FEW040 SCT250 25/09 A3005 RMK AO2 SLP180 T02500094=
201905091753 METAR KSEA 091753Z 33009KT 10SM FEW250 22/10 A3007 RMK AO2 SLP185 T02220100 10228 20133 58004=
201905091653 METAR KSEA 091653Z 36012KT 10SM FEW250 21/09 A3008 RMK AO2 SLP190 T02060094=
201905091553 METAR KSEA 091553Z 36011KT 10SM CLR 18/09 A3009 RMK AO2 SLP192 T01830089=
201905091453 METAR KSEA 091453Z 36009KT 10SM FEW250 16/09 A3008 RMK AO2 SLP189 T01610089 50002=
201905091353 METAR KSEA 091353Z 01006KT 10SM FEW100 FEW250 14/09 A3008 RMK AO2 SLP190 T01440089=
201905091253 METAR KSEA 091253Z 02011KT 10SM SCT100 SCT250 14/08 A3008 RMK AO2 SLP190 T01390083=
201905091153 METAR KSEA 091153Z 02008KT 10SM BKN100 14/08 A3007 RMK AO2 SLP187 T01390078 10178 20133 58005=
201905091053 METAR KSEA 091053Z 02011KT 10SM BKN100 15/08 A3008 RMK AO2 SLP189 T01500078=
201905090953 METAR KSEA 090953Z 03013KT 10SM SCT100 16/08 A3008 RMK AO2 SLP192 T01560078=
201905090853 METAR KSEA 090853Z 01007KT 10SM CLR 15/08 A3009 RMK AO2 SLP192 T01500078 57003=
201905090753 METAR KSEA 090753Z 02008KT 10SM CLR 17/08 A3009 RMK AO2 SLP193 T01670078 402390100=
201905090653 METAR KSEA 090653Z 01004KT 10SM FEW250 17/08 A3009 RMK AO2 SLP196 T01670078=
201905090553 METAR KSEA 090553Z 02007KT 10SM FEW250 18/08 A3009 RMK AO2 SLP196 T01780083 10239 20172 51006=
201905090453 METAR KSEA 090453Z 35006KT 10SM FEW250 18/09 A3009 RMK AO2 SLP195 T01780089=
201905090353 METAR KSEA 090353Z 36008KT 10SM FEW050 SCT250 18/08 A3008 RMK AO2 SLP191 T01830083=
201905090253 METAR KSEA 090253Z 35010KT 10SM FEW050 SCT250 21/07 A3007 RMK AO2 SLP189 T02110067 55008=
201905090153 METAR KSEA 090153Z 34011KT 10SM FEW050 SCT250 22/07 A3007 RMK AO2 SLP188 T02220067=
201905090053 METAR KSEA 090053Z 35013KT 10SM FEW050 SCT250 23/07 A3008 RMK AO2 SLP191 T02280067=
201905082353 METAR KSEA 082353Z 34011KT 10SM FEW050 FEW250 23/07 A3010 RMK AO2 SLP197 T02330072 10239 20156 58019=
201905082253 METAR KSEA 082253Z 35009KT 10SM FEW050 FEW250 23/07 A3012 RMK AO2 SLP202 T02330072=
201905082153 METAR KSEA 082153Z 29009KT 10SM FEW040 FEW250 22/09 A3014 RMK AO2 SLP212 T02220089=
201905082053 METAR KSEA 082053Z 31008KT 10SM FEW040 FEW250 21/09 A3015 RMK AO2 SLP216 T02060089 58019=
201905081953 METAR KSEA 081953Z 36008KT 10SM FEW040 SCT160 SCT250 21/08 A3018 RMK AO2 SLP225 T02060083=
201905081853 METAR KSEA 081853Z 26005KT 10SM BKN160 BKN250 18/10 A3020 RMK AO2 SLP233 T01780100=
201905081753 METAR KSEA 081753Z 28004KT 10SM BKN160 BKN250 16/09 A3021 RMK AO2 SLP235 T01610094 10161 20100 58002=
201905081653 METAR KSEA 081653Z 24004KT 6SM HZ FEW004 FEW120 BKN200 12/09 A3021 RMK AO2 SLP237 T01220094=
201905081636 SPECI KSEA 081636Z 23005KT 4SM HZ SCT004 BKN120 12/09 A3021 RMK AO2 T01170089=
201905081616 SPECI KSEA 081616Z 25005KT 4SM HZ BKN004 BKN120 12/09 A3022 RMK AO2 T01170089=
201905081553 METAR KSEA 081553Z 20006KT 2SM BR BKN003 BKN250 11/09 A3022 RMK AO2 SLP239 T01110094=
201905081548 SPECI KSEA 081548Z 20005KT 2SM BR BKN003 BKN250 11/09 A3022 RMK AO2=
201905081453 METAR KSEA 081453Z 20006KT 1 1/2SM BR OVC003 11/09 A3021 RMK AO2 SLP237 T01060089 53009=
201905081353 METAR KSEA 081353Z 20005KT 5SM BR BKN003 BKN250 11/09 A3021 RMK AO2 SLP234 T01060089=
201905081349 SPECI KSEA 081349Z 19006KT 6SM BR BKN003 BKN250 11/09 A3020 RMK AO2=
201905081253 METAR KSEA 081253Z 20003KT 6SM BR SCT008 SCT220 11/09 A3019 RMK AO2 SLP230 T01060089=
201905081236 SPECI KSEA 081236Z 22006KT 7SM FEW008 SCT220 10/09 A3019 RMK AO2 T01000089=
201905081153 METAR KSEA 081153Z 17005KT 9SM SCT220 10/09 A3019 RMK AO2 SLP228 T01000089 10178 20100 51010=
201905081053 METAR KSEA 081053Z 19003KT 10SM CLR 12/08 A3018 RMK AO2 SLP225 T01170083=
201905080953 METAR KSEA 080953Z 19003KT 10SM FEW250 12/08 A3017 RMK AO2 SLP223 T01220078=
201905080853 METAR KSEA 080853Z 30003KT 10SM CLR 14/07 A3016 RMK AO2 SLP217 T01390072 51004=
201905080753 METAR KSEA 080753Z VRB03KT 10SM CLR 16/06 A3015 RMK AO2 SLP215 T01560061 402330106=
201905080653 METAR KSEA 080653Z 04003KT 10SM CLR 17/06 A3015 RMK AO2 SLP215 T01670061=
201905080553 METAR KSEA 080553Z 03006KT 10SM CLR 17/07 A3015 RMK AO2 SLP213 T01720067 10233 20167 51014=
201905080453 METAR KSEA 080453Z 35006KT 10SM FEW060 17/07 A3014 RMK AO2 SLP211 T01720067=
201905080353 METAR KSEA 080353Z 34005KT 10SM FEW060 FEW250 18/06 A3012 RMK AO2 SLP204 T01780061=
201905080253 METAR KSEA 080253Z 35009KT 10SM FEW060 SCT250 20/05 A3010 RMK AO2 SLP200 T02000050 53005=
201905080153 METAR KSEA 080153Z 35008KT 10SM FEW050 SCT250 22/07 A3009 RMK AO2 SLP196 T02170067=
201905080053 METAR KSEA 080053Z 34005KT 10SM FEW050 SCT250 23/08 A3009 RMK AO2 SLP195 T02280078=
201905072353 METAR KSEA 072353Z VRB05KT 10SM FEW050 SCT250 23/08 A3009 RMK AO2 SLP194 T02330078 10233 20178 58006=
201905072253 METAR KSEA 072253Z 32006KT 10SM FEW050 SCT250 22/08 A3010 RMK AO2 SLP198 T02220078=
201905072153 METAR KSEA 072153Z 31007KT 10SM FEW050 SCT250 22/08 A3010 RMK AO2 SLP199 T02220078=
201905072053 METAR KSEA 072053Z 33008KT 10SM FEW050 SCT250 21/08 A3011 RMK AO2 SLP200 T02110078 50001=
201905071953 METAR KSEA 071953Z 32011KT 10SM FEW050 BKN250 20/08 A3011 RMK AO2 SLP201 T02000078=
201905071853 METAR KSEA 071853Z 28007KT 10SM FEW040 BKN250 18/08 A3011 RMK AO2 SLP202 T01830078=
201905071753 METAR KSEA 071753Z 29008KT 10SM FEW040 BKN250 18/08 A3011 RMK AO2 SLP199 T01780078 10183 20106 51007=
201905071653 METAR KSEA 071653Z VRB06KT 10SM BKN250 17/07 A3010 RMK AO2 SLP197 T01720072=
201905071553 METAR KSEA 071553Z 35005KT 10SM BKN250 17/07 A3010 RMK AO2 SLP198 T01670072=
201905071453 METAR KSEA 071453Z 00000KT 10SM SCT250 14/08 A3008 RMK AO2 SLP193 T01390083 53016=
201905071353 METAR KSEA 071353Z 00000KT 10SM FEW100 SCT250 12/07 A3006 RMK AO2 SLP186 T01220072=
201905071253 METAR KSEA 071253Z 00000KT 10SM FEW100 SCT250 12/07 A3005 RMK AO2 SLP180 T01220067=
201905071153 METAR KSEA 071153Z 03003KT 10SM CLR 12/06 A3004 RMK AO2 SLP175 T01220061 10183 20111 53008=
201905071053 METAR KSEA 071053Z 31003KT 10SM CLR 12/06 A3003 RMK AO2 SLP173 T01170061=
201905070953 METAR KSEA 070953Z 36006KT 10SM CLR 12/06 A3001 RMK AO2 SLP168 T01220061=
201905070853 METAR KSEA 070853Z 02004KT 10SM FEW080 SCT250 15/06 A3001 RMK AO2 SLP167 T01500061 51009=
201905070753 METAR KSEA 070753Z 36005KT 10SM FEW080 SCT250 15/06 A3001 RMK AO2 SLP165 T01500061 402440100=
201905070653 METAR KSEA 070653Z 03004KT 10SM SCT075 18/07 A3000 RMK AO2 SLP162 T01780067=
201905070553 METAR KSEA 070553Z 02008KT 10SM SCT070 BKN250 18/06 A2998 RMK AO2 SLP158 T01830061 10233 20167 51012=
201905070453 METAR KSEA 070453Z 35007KT 10SM SCT250 18/07 A2998 RMK AO2 SLP157 T01780072=
201905070353 METAR KSEA 070353Z 36005KT 10SM BKN250 18/08 A2997 RMK AO2 SLP153 T01830078=
201905070253 METAR KSEA 070253Z 28004KT 10SM FEW050 BKN250 20/06 A2995 RMK AO2 SLP147 T02000061 55000=
201905070153 METAR KSEA 070153Z 33007KT 10SM FEW050 BKN250 22/06 A2994 RMK AO2 SLP145 T02170056=
201905070053 METAR KSEA 070053Z 35010KT 10SM FEW050 BKN250 22/06 A2995 RMK AO2 SLP146 T02220056=
201905062353 METAR KSEA 062353Z 01011KT 10SM FEW050 BKN250 23/07 A2995 RMK AO2 SLP147 T02330067 10244 20178 56013=
201905062253 METAR KSEA 062253Z 31009KT 10SM FEW050 BKN250 23/07 A2996 RMK AO2 SLP149 T02280072=
201905062153 METAR KSEA 062153Z 35011KT 10SM FEW050 SCT250 23/07 A2997 RMK AO2 SLP153 T02330072=
201905062053 METAR KSEA 062053Z 34009KT 10SM FEW040 BKN250 22/07 A2999 RMK AO2 SLP159 T02220072 58006=
201905061953 METAR KSEA 061953Z 29006KT 10SM FEW250 20/09 A2999 RMK AO2 SLP161 T02000089=
201905061853 METAR KSEA 061853Z 29010KT 10SM FEW250 18/09 A3001 RMK AO2 SLP166 T01830089=
201905061753 METAR KSEA 061753Z 29008KT 10SM FEW250 18/09 A3001 RMK AO2 SLP166 T01780094 10178 20100 51000=
201905061653 METAR KSEA 061653Z 27005KT 10SM FEW250 16/09 A3001 RMK AO2 SLP166 T01610089=
201905061553 METAR KSEA 061553Z 28004KT 10SM FEW250 15/08 A3001 RMK AO2 SLP166 T01500083=
201905061453 METAR KSEA 061453Z 30004KT 10SM FEW250 13/08 A3000 RMK AO2 SLP166 T01280083 53012=
201905061353 METAR KSEA 061353Z 00000KT 10SM FEW250 11/07 A2999 RMK AO2 SLP160 T01110072=
201905061253 METAR KSEA 061253Z 00000KT 10SM FEW250 11/07 A2998 RMK AO2 SLP157 T01110072=
201905061153 METAR KSEA 061153Z 17003KT 10SM CLR 11/07 A2997 RMK AO2 SLP154 T01110072 10156 20111 53008=
201905061053 METAR KSEA 061053Z 00000KT 10SM CLR 12/06 A2996 RMK AO2 SLP151 T01220061=
201905061008 SPECI KSEA 061008Z 00000KT 10SM CLR 12/07 A2995 RMK AO2 T01220067=
201905060953 METAR KSEA 060953Z 07004KT 10SM CLR 13/07 A2995 RMK AO2 SLP146 T01330067=
201905060853 METAR KSEA 060853Z 07004KT 10SM CLR 14/07 A2995 RMK AO2 SLP146 T01390072 51005=
201905060753 METAR KSEA 060753Z 05005KT 10SM CLR 14/07 A2995 RMK AO2 SLP146 T01390072 402110094=
201905060653 METAR KSEA 060653Z 02005KT 10SM CLR 14/07 A2994 RMK AO2 SLP143 T01390072=
201905060553 METAR KSEA 060553Z 36008KT 10SM CLR 15/07 A2993 RMK AO2 SLP140 T01500072 10206 20144 51013=
201905060453 METAR KSEA 060453Z 36005KT 10SM CLR 15/07 A2992 RMK AO2 SLP138 T01500067=
201905060353 METAR KSEA 060353Z 35008KT 10SM CLR 16/07 A2991 RMK AO2 SLP133 T01610067=
201905060253 METAR KSEA 060253Z 34006KT 10SM CLR 17/07 A2989 RMK AO2 SLP128 T01720072 55000=
201905060153 METAR KSEA 060153Z 33010KT 10SM FEW250 19/06 A2988 RMK AO2 SLP125 T01890061=
201905060053 METAR KSEA 060053Z 36012KT 10SM FEW030 SCT230 20/07 A2989 RMK AO2 SLP127 T02000067=
201905052353 METAR KSEA 052353Z 35012KT 10SM FEW030 SCT230 21/06 A2989 RMK AO2 SLP128 T02060056 10211 20161 58002=
201905052253 METAR KSEA 052253Z 35012KT 10SM FEW030 SCT230 21/07 A2990 RMK AO2 SLP129 T02060072=
201905052153 METAR KSEA 052153Z 35011KT 10SM FEW030 SCT230 20/07 A2990 RMK AO2 SLP129 T02000072=
201905052053 METAR KSEA 052053Z 32012G18KT 10SM FEW030 FEW100 SCT230 20/07 A2990 RMK AO2 SLP130 T02000072 58007=
201905051953 METAR KSEA 051953Z 31009KT 10SM FEW030 FEW090 SCT240 18/07 A2991 RMK AO2 SLP132 T01830072=
201905051853 METAR KSEA 051853Z 36006KT 10SM FEW030 FEW070 SCT230 18/07 A2992 RMK AO2 SLP136 T01780067=
201905051753 METAR KSEA 051753Z 29010KT 10SM FEW040 SCT230 16/08 A2992 RMK AO2 SLP137 T01610083 10167 20094 55002=
201905051653 METAR KSEA 051653Z 00000KT 10SM FEW030 SCT220 16/08 A2992 RMK AO2 SLP136 T01610078=
201905051553 METAR KSEA 051553Z 00000KT 10SM FEW030 SCT220 14/07 A2992 RMK AO2 SLP138 T01440072=
201905051453 METAR KSEA 051453Z 00000KT 10SM FEW050 SCT220 12/07 A2993 RMK AO2 SLP139 T01220067 53007=
201905051353 METAR KSEA 051353Z 00000KT 10SM FEW060 SCT220 11/06 A2991 RMK AO2 SLP134 T01060061=
201905051253 METAR KSEA 051253Z 16003KT 10SM FEW060 SCT220 10/06 A2990 RMK AO2 SLP131 T01000061=
201905051153 METAR KSEA 051153Z 00000KT 10SM FEW060 11/06 A2991 RMK AO2 SLP132 T01060061 10144 20100 56001=
201905051053 METAR KSEA 051053Z 00000KT 10SM FEW060 11/06 A2991 RMK AO2 SLP132 T01110061=
201905050953 METAR KSEA 050953Z 05003KT 10SM FEW060 12/06 A2990 RMK AO2 SLP130 T01220061=
201905050853 METAR KSEA 050853Z 01003KT 10SM FEW060 12/06 A2991 RMK AO2 SLP133 T01220061 58004=
201905050753 METAR KSEA 050753Z 00000KT 10SM FEW065 13/06 A2992 RMK AO2 SLP137 T01280061 402060072=
201905050653 METAR KSEA 050653Z 34004KT 10SM FEW065 SCT080 13/06 A2992 RMK AO2 SLP138 T01330061=
201905050553 METAR KSEA 050553Z 36003KT 10SM FEW050 FEW200 14/06 A2992 RMK AO2 SLP137 T01390056 10206 20133 50002=
201905050453 METAR KSEA 050453Z 36007KT 10SM FEW050 SCT200 14/06 A2992 RMK AO2 SLP139 T01390061=
201905050353 METAR KSEA 050353Z 36007KT 10SM FEW050 SCT200 16/06 A2992 RMK AO2 SLP138 T01610056=
201905050253 METAR KSEA 050253Z 02008KT 10SM FEW040 BKN240 17/06 A2992 RMK AO2 SLP137 T01720056 57010=
201905050153 METAR KSEA 050153Z 35008KT 10SM BKN240 18/06 A2992 RMK AO2 SLP139 T01830056=
201905050053 METAR KSEA 050053Z 36012G18KT 10SM FEW040 BKN240 19/05 A2994 RMK AO2 SLP144 T01890050=
201905042353 METAR KSEA 042353Z 01011KT 10SM FEW040 BKN240 21/07 A2995 RMK AO2 SLP146 T02060067 10206 20144 56017=
201905042253 METAR KSEA 042253Z 34009KT 10SM FEW040 BKN240 19/06 A2996 RMK AO2 SLP152 T01890061=
201905042153 METAR KSEA 042153Z 29012KT 10SM FEW040 SCT250 19/07 A2998 RMK AO2 SLP157 T01890067=
201905042053 METAR KSEA 042053Z 33011KT 10SM FEW040 SCT250 18/07 A3000 RMK AO2 SLP164 T01830067 56009=
201905041953 METAR KSEA 041953Z 36012G15KT 10SM FEW040 SCT250 18/06 A3001 RMK AO2 SLP167 T01780061=
201905041853 METAR KSEA 041853Z VRB05KT 10SM FEW040 16/08 A3001 RMK AO2 SLP169 T01610078=
201905041753 METAR KSEA 041753Z VRB03KT 10SM FEW015 15/08 A3002 RMK AO2 SLP173 T01500078 10156 20072 58002=
201905041653 METAR KSEA 041653Z VRB03KT 10SM SCT015 14/08 A3003 RMK AO2 SLP175 T01390078=
201905041628 SPECI KSEA 041628Z 04004KT 10SM SCT015 13/07 A3003 RMK AO2 T01330072=
201905041600 SPECI KSEA 041600Z 01003KT 10SM BKN012 12/07 A3003 RMK AO2 T01220072=
201905041553 METAR KSEA 041553Z 31004KT 10SM SCT012 SCT250 12/07 A3003 RMK AO2 SLP175 T01170072=
201905041453 METAR KSEA 041453Z 35004KT 10SM SCT012 SCT250 11/07 A3003 RMK AO2 SLP175 T01060072 53002=
201905041353 METAR KSEA 041353Z 34004KT 10SM FEW250 09/07 A3003 RMK AO2 SLP175 T00940067=
201905041253 METAR KSEA 041253Z 36004KT 10SM FEW250 08/06 A3002 RMK AO2 SLP171 T00780056=
201905041153 METAR KSEA 041153Z 33003KT 10SM CLR 09/06 A3002 RMK AO2 SLP173 T00890056 10128 20083 58005=
201905041053 METAR KSEA 041053Z 35003KT 10SM CLR 08/06 A3003 RMK AO2 SLP174 T00830056=
201905040953 METAR KSEA 040953Z 34005KT 10SM CLR 09/06 A3004 RMK AO2 SLP178 T00940056=
201905040853 METAR KSEA 040853Z 35005KT 10SM CLR 09/05 A3004 RMK AO2 SLP178 T00890050 58007=
201905040753 METAR KSEA 040753Z 01005KT 10SM CLR 10/06 A3005 RMK AO2 SLP182 T01000056 401720078=
201905040653 METAR KSEA 040653Z 36007KT 10SM CLR 12/06 A3005 RMK AO2 SLP182 T01170056=
201905040553 METAR KSEA 040553Z 02007KT 10SM CLR 13/06 A3006 RMK AO2 SLP185 T01280056 10172 20122 53000=
201905040453 METAR KSEA 040453Z 01007KT 10SM CLR 13/06 A3006 RMK AO2 SLP185 T01330056=
201905040353 METAR KSEA 040353Z 36006KT 10SM SCT045 SCT250 13/06 A3005 RMK AO2 SLP183 T01330056=
201905040253 METAR KSEA 040253Z 35007KT 10SM SCT045 SCT250 14/05 A3006 RMK AO2 SLP184 T01440050 56012=
201905040153 METAR KSEA 040153Z 36008KT 10SM FEW040 SCT250 16/06 A3006 RMK AO2 SLP186 T01610056=
201905040053 METAR KSEA 040053Z 30008KT 10SM FEW040 SCT250 17/06 A3008 RMK AO2 SLP191 T01670056=
201905032353 METAR KSEA 032353Z 31009KT 10SM FEW035 SCT250 17/06 A3009 RMK AO2 SLP197 T01720056 10172 20106 57012=
201905032253 METAR KSEA 032253Z 30008KT 10SM FEW035 SCT250 16/06 A3010 RMK AO2 SLP200 T01610056=
201905032153 METAR KSEA 032153Z 30009KT 10SM SCT035 SCT250 16/05 A3012 RMK AO2 SLP205 T01560050=
201905032053 METAR KSEA 032053Z 10SM FEW020 SCT033 BKN250 15/06 A3013 RMK AO2 SLP209 T01500056 56009=
201905031953 METAR KSEA 031953Z 31006KT 10SM FEW020 BKN032 BKN250 14/05 A3013 RMK AO2 SLP211 T01390050=
201905031853 METAR KSEA 031853Z 01006KT 10SM SCT021 BKN032 BKN250 14/06 A3015 RMK AO2 SLP215 T01390061=
201905031826 SPECI KSEA 031826Z 33004KT 10SM FEW014 SCT021 BKN032 BKN250 13/06 A3015 RMK AO2 T01280056=
201905031753 METAR KSEA 031753Z 25003KT 10SM FEW013 BKN020 BKN035 11/05 A3016 RMK AO2 SLP219 T01060050 10111 20083 50001=
201905031653 METAR KSEA 031653Z 22003KT 10SM FEW013 BKN022 OVC035 10/05 A3016 RMK AO2 SLP219 T01000050=
201905031553 METAR KSEA 031553Z 00000KT 10SM FEW013 BKN025 OVC036 09/05 A3016 RMK AO2 SLP220 T00940050=
201905031543 SPECI KSEA 031543Z 00000KT 10SM FEW013 BKN025 OVC036 09/05 A3016 RMK AO2 T00940050=
201905031453 METAR KSEA 031453Z 21003KT 10SM FEW011 OVC036 09/05 A3015 RMK AO2 SLP218 T00890050 53003=
201905031353 METAR KSEA 031353Z 18003KT 10SM FEW011 OVC034 08/05 A3015 RMK AO2 SLP217 T00830050=
201905031253 METAR KSEA 031253Z 20003KT 10SM FEW020 OVC033 08/05 A3015 RMK AO2 SLP215 T00830050=
201905031153 METAR KSEA 031153Z 17003KT 10SM OVC033 08/05 A3014 RMK AO2 SLP214 T00830050 10106 20078 55005=
201905031053 METAR KSEA 031053Z 00000KT 10SM OVC034 08/05 A3014 RMK AO2 SLP213 T00830050=
201905030953 METAR KSEA 030953Z 17003KT 10SM BKN035 08/05 A3016 RMK AO2 SLP218 T00830050=
201905030853 METAR KSEA 030853Z 20003KT 10SM FEW050 09/04 A3016 RMK AO2 SLP219 T00890044 58001=
201905030753 METAR KSEA 030753Z 21006KT 10SM FEW050 08/04 A3016 RMK AO2 SLP222 T00830044 401500083=
201905030653 METAR KSEA 030653Z 22005KT 10SM FEW036 BKN050 10/05 A3017 RMK AO2 SLP222 T01000050=
201905030553 METAR KSEA 030553Z 25005KT 10SM SCT055 11/05 A3016 RMK AO2 SLP222 T01060050 10144 20106 51010=
201905030453 METAR KSEA 030453Z 24008KT 10SM BKN055 12/05 A3016 RMK AO2 SLP219 T01220050=
201905030353 METAR KSEA 030353Z 20004KT 10SM BKN050 14/04 A3015 RMK AO2 SLP214 T01390039=
201905030253 METAR KSEA 030253Z 16005KT 10SM BKN046 14/04 A3013 RMK AO2 SLP210 T01390039 56007=
201905030153 METAR KSEA 030153Z 14005KT 10SM BKN047 14/03 A3014 RMK AO2 SLP212 T01390033=
201905030053 METAR KSEA 030053Z 13008KT 10SM BKN050 14/03 A3014 RMK AO2 SLP214 T01440033=
201905022353 METAR KSEA 022353Z 14006KT 10SM BKN050 14/03 A3016 RMK AO2 SLP218 T01390028 10150 20106 58007=
201905022253 METAR KSEA 022253Z VRB03KT 10SM BKN046 13/03 A3017 RMK AO2 SLP222 T01330028=
201905022153 METAR KSEA 022153Z 21008KT 10SM BKN038 14/04 A3018 RMK AO2 SLP225 T01390039=
201905022053 METAR KSEA 022053Z 21009G17KT 170V250 10SM BKN037 13/04 A3018 RMK AO2 SLP225 T01280039 58002=
201905021953 METAR KSEA 021953Z 19008G14KT 10SM SCT035 12/03 A3018 RMK AO2 SLP228 T01220033=
201905021853 METAR KSEA 021853Z 17011KT 10SM SCT034 BKN200 12/03 A3019 RMK AO2 SLP229 T01220033=
201905021753 METAR KSEA 021753Z 20008KT 180V250 10SM BKN030 BKN200 11/03 A3018 RMK AO2 SLP228 T01060028 10117 20083 53013=
201905021653 METAR KSEA 021653Z 20012KT 10SM SCT027 BKN048 10/02 A3017 RMK AO2 SLP223 T01000022=
201905021637 SPECI KSEA 021637Z 20010KT 10SM SCT027 BKN048 10/02 A3017 RMK AO2 T01000022=
201905021553 METAR KSEA 021553Z 18012KT 10SM BKN028 09/02 A3016 RMK AO2 SLP221 T00940022=
201905021453 METAR KSEA 021453Z 20009KT 10SM BKN027 BKN033 09/02 A3015 RMK AO2 SLP216 T00890022 53013=
201905021353 METAR KSEA 021353Z 20011G20KT 10SM OVC024 08/02 A3013 RMK AO2 SLP210 T00830022=
201905021253 METAR KSEA 021253Z 21012KT 10SM BKN022 OVC031 08/03 A3012 RMK AO2 SLP204 T00830028=
201905021153 METAR KSEA 021153Z 21014KT 10SM OVC019 08/03 A3011 RMK AO2 SLP201 T00830033 10100 20083 53007=
201905021053 METAR KSEA 021053Z 20012KT 10SM OVC019 09/03 A3010 RMK AO2 SLP198 T00890033=
201905020953 METAR KSEA 020953Z 21012KT 10SM OVC021 09/04 A3009 RMK AO2 SLP196 T00890039=
201905020853 METAR KSEA 020853Z 19011KT 10SM OVC023 09/03 A3008 RMK AO2 SLP194 T00940033 51007=
201905020753 METAR KSEA 020753Z 21009KT 10SM OVC024 09/03 A3008 RMK AO2 SLP192 T00940033 401780061=
201905020653 METAR KSEA 020653Z 19008KT 10SM OVC026 10/03 A3007 RMK AO2 SLP189 T01000028=
201905020615 SPECI KSEA 020615Z 20008KT 10SM BKN027 OVC035 10/03 A3006 RMK AO2 T01000033=
201905020553 METAR KSEA 020553Z 20010KT 10SM BKN033 10/03 A3006 RMK AO2 SLP186 T01000033 10172 20100 51017=
201905020453 METAR KSEA 020453Z 21013KT 10SM FEW040 10/03 A3005 RMK AO2 SLP183 T01000033=
201905020353 METAR KSEA 020353Z 22010KT 10SM FEW040 SCT250 11/03 A3003 RMK AO2 SLP177 T01060033=
201905020253 METAR KSEA 020253Z 23009KT 10SM FEW040 SCT250 12/03 A3001 RMK AO2 SLP170 T01220028 53002=
201905020153 METAR KSEA 020153Z 23014KT 10SM FEW040 FEW250 14/03 A3000 RMK AO2 SLP166 T01440028=
201905020053 METAR KSEA 020053Z 24011KT 10SM FEW040 FEW250 16/00 A3000 RMK AO2 SLP166 T01610000=
201905012353 METAR KSEA 012353Z 23011KT 10SM FEW040 SCT250 17/M02 A3001 RMK AO2 SLP167 T01721017 10178 20128 58011=
201905012253 METAR KSEA 012253Z 21013KT 10SM FEW035 SCT250 17/M01 A3001 RMK AO2 SLP170 T01721011=
201905012153 METAR KSEA 012153Z 20013G19KT 10SM FEW035 SCT250 17/01 A3003 RMK AO2 SLP176 T01720006=
201905012053 METAR KSEA 012053Z 20014G20KT 10SM FEW035 SCT250 16/01 A3004 RMK AO2 SLP178 T01610006 58009=
201905011953 METAR KSEA 011953Z 18012G18KT 10SM FEW035 SCT250 16/04 A3005 RMK AO2 SLP181 T01560044=
201905011853 METAR KSEA 011853Z 21012G16KT 10SM FEW030 SCT250 14/04 A3006 RMK AO2 SLP186 T01440044=
201905011753 METAR KSEA 011753Z 24009KT 190V270 10SM FEW020 SCT250 13/04 A3007 RMK AO2 SLP188 T01280039 10128 20061 50001=
201905011653 METAR KSEA 011653Z 21010KT 10SM FEW018 SCT250 11/04 A3007 RMK AO2 SLP189 T01110044=
201905011553 METAR KSEA 011553Z 22009KT 10SM SCT017 SCT250 10/04 A3007 RMK AO2 SLP190 T01000039=
201905011453 METAR KSEA 011453Z 20009KT 10SM FEW008 SCT250 09/02 A3006 RMK AO2 SLP186 T00890022 53006=
201905011353 METAR KSEA 011353Z 17007KT 10SM FEW012 SCT250 08/01 A3005 RMK AO2 SLP184 T00780006=
201905011253 METAR KSEA 011253Z 17006KT 10SM FEW200 07/M01 A3005 RMK AO2 SLP182 T00671011=
201905011153 METAR KSEA 011153Z 15007KT 10SM CLR 08/M02 A3004 RMK AO2 SLP180 T00781022 10139 20072 56007=
201905011053 METAR KSEA 011053Z 15004KT 10SM CLR 09/M03 A3005 RMK AO2 SLP180 T00891028=
201905010953 METAR KSEA 010953Z 15006KT 10SM CLR 08/M03 A3006 RMK AO2 SLP184 T00831028=
201905010853 METAR KSEA 010853Z 13007KT 10SM CLR 09/M03 A3006 RMK AO2 SLP187 T00941028 51003=
201905010753 METAR KSEA 010753Z 14008KT 10SM CLR 11/M03 A3006 RMK AO2 SLP185 T01111028 401940050=
201905010653 METAR KSEA 010653Z 16005KT 10SM FEW100 FEW250 11/M02 A3006 RMK AO2 SLP185 T01111022=
201905010553 METAR KSEA 010553Z 31003KT 10SM SCT100 SCT250 14/M04 A3005 RMK AO2 SLP183 T01391044 10194 20139 50001=
201905010453 METAR KSEA 010453Z 00000KT 10SM SCT100 SCT250 16/M07 A3006 RMK AO2 SLP183 T01561072=
201905010353 METAR KSEA 010353Z 01003KT 10SM SCT100 SCT250 16/M07 A3005 RMK AO2 SLP183 T01561067=
201905010253 METAR KSEA 010253Z 36007KT 10SM FEW050 SCT100 SCT250 16/M07 A3005 RMK AO2 SLP183 T01611067 58010=
201905010153 METAR KSEA 010153Z 35009KT 10SM FEW050 SCT100 SCT250 17/M07 A3007 RMK AO2 SLP187 T01671072=
201905010053 METAR KSEA 010053Z 35009KT 10SM FEW050 FEW250 19/M07 A3008 RMK AO2 SLP192 T01891067=

# No short TAF reports from KSEA in databse.

###################################
#  large TAF from KSEA
###################################
201905312326 TAF KSEA 312326Z 0100/0206 28005KT P6SM FEW050 FM010700 19003KT
                       P6SM SKC FM011200 21005KT 1/2SM FG VV002
                       FM011700 23004KT 3SM BR OVC006 FM011900
                       25006KT P6SM FEW040=
201905312124 KSEA 312124Z 3121/0124 28005KT P6SM SKC FM010700 19003KT P6SM SKC
                       FM011200 21005KT 1/2SM FG VV002 FM011700
                       23004KT 3SM BR OVC006 FM011900 25006KT P6SM
                       FEW040=
201905311720 TAF KSEA 311720Z 3118/0124 17004KT 1SM BR OVC003 FM311900 25006KT
                       P6SM SCT020 FM312100 28008KT P6SM FEW040
                       SCT200 FM010300 28005KT P6SM SKC FM011200
                       21005KT 1/2SM FG VV002 FM011700 23004KT
                       3SM BR OVC006 FM011900 25006KT P6SM FEW040=
201905311502 KSEA 311502Z 3115/0118 20004KT 1/4SM FG VV001 FM311700 21004KT
                       2SM BR OVC005 FM311900 25006KT P6SM SCT020
                       FM312100 28008KT P6SM FEW040 SCT200 FM010300
                       28005KT P6SM SKC FM011200 21005KT P6SM OVC008=
201905311205 KSEA 311205Z 3112/0118 25005KT 1/2SM FG OVC002
                      TEMPO 3112/3116 1/4SM FG OVC001 FM311600
                       21004KT P6SM OVC012 FM311900 25006KT P6SM
                       SCT020 FM312100 28008KT P6SM FEW040 SCT200
                       FM010300 28005KT P6SM SKC FM011200 21005KT
                       P6SM OVC008=
201905311144 KSEA 311144Z 3112/0118 25005KT 1/2SM FG OVC002 FM311600 21004KT
                       P6SM OVC012 FM311900 25006KT P6SM SCT020
                       FM312100 28008KT P6SM FEW040 SCT200 FM010300
                       28005KT P6SM SKC FM011200 21005KT P6SM OVC008=
201905311120 TAF KSEA 311120Z 3112/0118 22004KT P6SM OVC008 FM311500 21004KT
                       P6SM OVC012 FM311900 25006KT P6SM SCT020
                       FM312100 28008KT P6SM FEW040 SCT200 FM010300
                       28005KT P6SM SKC FM011200 21005KT P6SM OVC008=
201905311020 KSEA 311020Z 3110/0112 18003KT P6SM SKC FM311100 VRB04KT P6SM BKN008
                       FM311400 18006KT P6SM OVC012 FM311700 21005KT
                       P6SM BKN018 FM311900 25006KT P6SM SCT020
                       FM312100 28006KT P6SM FEW040 SCT200 FM010300
                       VRB03KT P6SM SKC=
201905310900 KSEA 310900Z 3109/0112 18003KT P6SM SKC FM311000 VRB04KT P6SM BKN008
                       FM311400 18006KT P6SM OVC012 FM311700 21005KT
                       P6SM BKN018 FM311900 25006KT P6SM SCT020
                       FM312100 28006KT P6SM FEW040 SCT200 FM010300
                       VRB03KT P6SM SKC=
201905310520 TAF KSEA 310520Z 3106/0112 VRB04KT P6SM SCT200 FM311000 VRB04KT
                       P6SM BKN008 FM311400 18006KT P6SM OVC012
                       FM311700 21005KT P6SM BKN018 FM311900 25006KT
                       P6SM SCT020 FM312100 28006KT P6SM FEW040
                       SCT200 FM010300 VRB03KT P6SM SKC=
201905310302 KSEA 310302Z 3103/0106 VRB03KT P6SM SCT200 FM311200 26003KT P6SM
                       BKN008 FM312000 25006KT P6SM SCT020 SCT200
                       FM312100 25006KT P6SM FEW040 SCT200=
201905302324 TAF KSEA 302324Z 3100/0106 26004KT P6SM FEW040 SCT200 FM310500
                       26004KT P6SM SCT200 FM311200 26003KT P6SM
                       BKN008 FM312000 25006KT P6SM SCT020 SCT200
                       FM312100 25006KT P6SM FEW040 SCT200=
201905302002 KSEA 302002Z 3020/3124 28005KT P6SM FEW010 SCT200 FM302100 26004KT
                       P6SM FEW030 SCT200 FM311200 26003KT P6SM
                       OVC015 FM312000 25006KT P6SM SCT020 SCT200=
201905301724 TAF KSEA 301724Z 3018/3124 22005KT 2SM BR OVC002 FM301900 25005KT
                       P6SM BKN009 FM302000 25005KT P6SM SCT015
                       SCT200 FM302100 20004KT P6SM SCT020 SCT200
                       FM310000 25005KT P6SM FEW030 SCT200 FM311200
                       26003KT P6SM OVC015 FM312000 25006KT P6SM
                       SCT020 SCT200=
201905301503 KSEA 301503Z 3015/3118 22005KT 2SM BR OVC003
                      TEMPO 3015/3018 1/2SM FG VV001 FM301800 25005KT
                       P6SM OVC015 FM302100 VRB04KT P6SM SCT250
                       FM311500 26003KT P6SM OVC015=
201905301311 KSEA 301311Z 3013/3118 22005KT 2SM BR OVC003
                      TEMPO 3013/3017 1/2SM FG OVC001 FM301700
                       25005KT P6SM OVC015 FM302100 VRB04KT P6SM
                       SCT250 FM311500 26003KT P6SM OVC015=
201905301242 KSEA 301242Z 3013/3118 22005KT 2SM BR OVC003 FM301700 25005KT P6SM
                       OVC015 FM302100 VRB04KT P6SM SCT250 FM311500
                       26003KT P6SM OVC015=
201905301121 TAF KSEA 301121Z 3012/3118 21005KT P6SM OVC006 FM301700 25005KT
                       P6SM OVC015 FM302100 VRB04KT P6SM SCT250
                       FM311500 26003KT P6SM OVC015=
201905301026 KSEA 301026Z 3010/3112 23003KT P6SM SCT200 FM301100 23003KT P6SM
                       OVC008 FM301800 25005KT P6SM OVC018 FM302000
                       28005KT P6SM BKN022 FM302200 28005KT P6SM
                       SCT025 SCT200=
201905300858 KSEA 300858Z 3009/3112 VRB04KT P6SM SCT200 FM301000 23003KT P6SM
                       OVC008 FM301800 25005KT P6SM OVC018 FM302000
                       28005KT P6SM BKN022 FM302200 28005KT P6SM
                       SCT025 SCT200=
201905300523 TAF KSEA 300523Z 3006/3112 VRB04KT P6SM SCT200 FM301000 23003KT
                       P6SM OVC014 FM301800 25005KT P6SM OVC018
                       FM302000 28005KT P6SM BKN022 FM302200 28005KT
                       P6SM SCT025 SCT200=
201905300305 KSEA 300305Z 3003/3106 VRB04KT P6SM BKN200 FM301000 23003KT P6SM
                       OVC014 FM301800 25005KT P6SM OVC018 FM302000
                       28005KT P6SM BKN022 FM302200 28005KT P6SM
                       SCT025 SCT200=
201905292320 TAF KSEA 292320Z 3000/3106 23004KT P6SM SCT200
                      TEMPO 3000/3001 FEW025 FM300400 24004KT P6SM
                       FEW200 FM301000 23003KT P6SM OVC014 FM301800
                       25005KT P6SM OVC018 FM302000 28005KT P6SM
                       BKN022 FM302200 28005KT P6SM SCT025 SCT200=
201905292000 KSEA 292000Z 2920/3024 23006KT P6SM BKN021 FM292200 23004KT P6SM
                       SCT030 SCT250 FM301000 21003KT P6SM BKN015=
201905291724 TAF KSEA 291724Z 2918/3024 22005KT P6SM OVC011 FM292100 22006KT
                       P6SM BKN018 FM292300 23004KT P6SM SCT030
                       SCT250 FM301000 21003KT P6SM BKN015=
201905291502 KSEA 291502Z 2915/3018 22006KT P6SM OVC008 FM291800 22005KT P6SM
                       OVC015 FM292000 22006KT P6SM BKN030 FM292100
                       23004KT P6SM SCT035 SCT250 FM301000 21003KT
                       P6SM BKN015=
201905291124 TAF KSEA 291124Z 2912/3018 22006KT P6SM OVC008 FM291400 22005KT
                       P6SM OVC015 FM291900 22006KT P6SM BKN045
                       FM292000 23004KT P6SM SCT250 FM301000 21003KT
                       P6SM BKN015=
201905291000 KSEA 291000Z 2910/3012 22007KT P6SM BKN007 OVC030 FM291800 22005KT
                       P6SM BKN030 FM292000 25005KT P6SM SCT030
                       FM292200 VRB04KT P6SM SCT200 FM301100 18006KT
                       P6SM BKN020=
201905290914 KSEA 290914Z 2909/3012 18005KT P6SM SCT030 SCT150 SCT250 FM291100
                       18006KT P6SM OVC020 FM291800 22005KT P6SM
                       BKN030 FM292000 25005KT P6SM SCT030 FM292200
                       VRB04KT P6SM SCT200 FM301100 18006KT P6SM
                       BKN020=
201905290520 TAF KSEA 290520Z 2906/3012 22006KT P6SM SCT120 BKN250 FM291100
                       18006KT P6SM OVC020 FM291800 22005KT P6SM
                       BKN030 FM292000 25005KT P6SM SCT030 FM292200
                       VRB04KT P6SM SCT200 FM301100 18006KT P6SM
                       BKN020=
201905290335 KSEA 290335Z 2904/3006 22006KT P6SM SCT120 BKN250 FM291000 18006KT
                       P6SM OVC020 FM291800 22005KT P6SM BKN030
                       FM292000 25005KT P6SM SCT030=
201905282322 TAF KSEA 282322Z 2900/3006 22007KT P6SM BKN025 FM290100 22006KT
                       P6SM SCT025 SCT150 FM290300 22006KT P6SM
                       SKC FM291000 21004KT P6SM OVC020 FM292000
                       25005KT P6SM BKN030 FM292200 25005KT P6SM
                       SCT030=
201905282101 KSEA 282101Z 2821/2924 21007KT P6SM OVC022 FM282300 22007KT P6SM
                       SCT028 FM290100 22006KT P6SM SKC FM291000
                       21004KT P6SM OVC020 FM292000 25005KT P6SM
                       BKN030=
201905281720 TAF KSEA 281720Z 2818/2924 22006KT P6SM OVC019 FM282000 21007KT
                       P6SM BKN022 FM282200 22007KT P6SM SCT030
                       FM290000 22006KT P6SM SKC FM291000 21004KT
                       P6SM OVC020 FM292000 25005KT P6SM BKN030=
201905281503 KSEA 281503Z 2815/2918 22006KT P6SM FEW011 OVC017 FM281900 21007KT
                       P6SM BKN022 FM282100 22007KT P6SM SCT030
                       FM282300 22006KT P6SM SKC FM291000 21004KT
                       P6SM OVC020=
201905281120 TAF KSEA 281120Z 2812/2918 21010KT P6SM OVC014 FM281600 22006KT
                       P6SM OVC018 FM281900 21007KT P6SM BKN025
                       FM282100 22007KT P6SM SCT030 FM282300 22006KT
                       P6SM SKC FM291000 21004KT P6SM OVC020=
201905280910 KSEA 280910Z 2809/2912 20006KT P6SM OVC012 FM281600 20006KT P6SM
                       OVC018 FM281900 23006KT P6SM BKN025 FM282100
                       25005KT P6SM SCT030 FM282300 VRB04KT P6SM
                       SKC FM291000 18006KT P6SM BKN012=
201905280520 TAF KSEA 280520Z 2806/2912 21008KT P6SM SKC FM280800 18010KT P6SM
                       SCT012
                      TEMPO 2808/2810 BKN012 FM281000 18008KT P6SM
                       OVC012 FM281600 20006KT P6SM OVC018 FM281900
                       23006KT P6SM BKN025 FM282100 25005KT P6SM
                       SCT030 FM282300 VRB04KT P6SM SKC FM291000
                       18006KT P6SM BKN012=
201905280301 KSEA 280301Z 2803/2906 23009KT P6SM FEW100 SCT200 FM281100 20006KT
                       P6SM OVC009 FM281600 20006KT P6SM OVC012
                       FM282000 23006KT P6SM SCT025 SCT200 FM282100
                       23005KT P6SM FEW030 SCT200=
201905272325 TAF KSEA 272325Z 2800/2906 22007KT P6SM FEW050 FEW100 SCT200 FM280500
                       23009KT P6SM FEW100 SCT200 FM281100 20006KT
                       P6SM OVC009 FM281600 20006KT P6SM OVC012
                       FM282000 23006KT P6SM SCT025 SCT200 FM282100
                       23005KT P6SM FEW030 SCT200=
201905272100 KSEA 272100Z 2721/2824 25007KT P6SM FEW040 SCT100 SCT200 FM280500
                       23006KT P6SM FEW100 SCT200 FM281100 20006KT
                       P6SM OVC009 FM281600 20006KT P6SM OVC012
                       FM282000 23006KT P6SM SCT025 FM282100 23005KT
                       P6SM FEW030=
201905271720 TAF KSEA 271720Z 2718/2824 22006KT P6SM SCT200 FM272100 25007KT
                       P6SM FEW070 SCT100 SCT200 FM281100 20006KT
                       P6SM OVC009 FM281600 20006KT P6SM OVC012
                       FM282000 23006KT P6SM SCT025 FM282100 23005KT
                       P6SM FEW030=
201905271503 KSEA 271503Z 2715/2818 19006KT P6SM BKN090 BKN200 FM271600 22006KT
                       P6SM SCT200 FM272100 25007KT P6SM FEW070
                       SCT200 FM281100 20006KT P6SM OVC009 FM281600
                       20006KT P6SM OVC012=
201905271138 TAF KSEA 271138Z 2712/2818 VRB03KT P6SM SCT100 BKN200 FM272100
                       22006KT P6SM SCT100 SCT200 FM281100 20006KT
                       P6SM OVC009 FM281600 20006KT P6SM OVC012=
201905270915 KSEA 270915Z 2709/2812 VRB03KT P6SM SCT100 FM271800 32006KT P6SM
                       SCT100 BKN200 FM280300 23005KT P6SM SCT100
                       SCT200 FM281100 20006KT P6SM BKN009=
201905270521 TAF KSEA 270521Z 2706/2812 VRB04KT P6SM SCT100 SCT200 FM271100
                       VRB03KT P6SM FEW030 BKN120 FM271800 29007KT
                       P6SM SCT030 SCT120 BKN200 FM280300 23005KT
                       P6SM SCT120 SCT200 FM281100 20006KT P6SM
                       BKN009=
201905270311 KSEA 270311Z 2703/2806 33008KT P6SM SCT100 SCT200 FM270700 VRB03KT
                       P6SM SCT120 BKN200 FM271100 VRB03KT P6SM
                       SCT010 BKN100 FM271800 27007KT P6SM SCT030
                       BKN100 FM280300 25005KT P6SM BKN250=
201905262340 TAF KSEA 262340Z 2700/2806 35008KT P6SM SCT025 SCT120 BKN130 FM270700
                       VRB03KT P6SM SCT120 BKN200 FM271100 VRB03KT
                       P6SM SCT010 BKN100 FM271800 27007KT P6SM
                       SCT030 BKN100 FM280300 25005KT P6SM BKN250=
201905262108 KSEA 262108Z 2621/2724 35008KT P6SM VCSH SCT020 BKN070 BKN130 FM270500
                       VRB03KT P6SM SCT120 BKN200 FM271100 VRB03KT
                       P6SM SCT010 FM271800 27007KT P6SM SCT030
                       BKN250=
201905261859 KSEA 261859Z 2619/2724 03010KT P6SM VCSH SCT040 BKN080 BKN200
                      TEMPO 2619/2620 SCT010 BKN020 FM270500 VRB03KT
                       P6SM SCT120 BKN200 FM271100 VRB03KT P6SM
                       SCT010 FM271800 27007KT P6SM SCT030 BKN250=
201905261737 TAF KSEA 261737Z 2618/2724 04008KT P6SM SCT010 BKN015 BKN070 FM261900
                       36010KT P6SM VCSH SCT040 BKN080 BKN200 FM270500
                       VRB03KT P6SM SCT120 BKN200 FM271100 VRB03KT
                       P6SM SCT010 FM271800 27007KT P6SM SCT030
                       BKN250=
201905261508 KSEA 261508Z 2615/2718 03008KT P6SM SCT010 BKN020 OVC080 FM261800
                       02010KT P6SM SCT030 BKN070 BKN200 FM262300
                       36010KT P6SM VCSH SCT040 BKN080 BKN200 FM270500
                       VRB03KT P6SM SCT120 SCT200 FM271100 VRB03KT
                       P6SM SCT010=
201905261137 TAF KSEA 261137Z 2612/2718 36010KT P6SM SCT007 OVC014 FM261800
                       36010KT P6SM SCT030 BKN200 FM262300 36010KT
                       P6SM VCSH SCT040 BKN120 BKN200 FM270500
                       VRB03KT P6SM SCT120 SCT200 FM271100 VRB03KT
                       P6SM SCT010=
201905260906 KSEA 260906Z 2609/2712 36010KT P6SM OVC006 FM261800 36010KT P6SM
                       SCT006 BKN011 FM261900 36010KT P6SM SCT030
                       BKN200 FM262300 36010KT P6SM VCSH SCT040
                       BKN120 BKN200 FM270500 VRB05KT P6SM SCT120
                       SCT200=
201905260528 TAF KSEA 260528Z 2606/2712 36007KT P6SM SCT012 BKN025
                      TEMPO 2606/2610 BKN007 FM261000 02006KT P6SM
                       BKN009 OVC030 FM261600 03005KT P6SM SCT015
                       BKN025 BKN050 FM261900 02008KT P6SM SCT030
                       BKN200 FM262200 35009KT P6SM VCSH SCT040
                       BKN120 BKN200 FM270500 VRB05KT P6SM SCT120
                       SCT200=
201905260306 KSEA 260306Z 2603/2706 36007KT P6SM VCSH SCT015 SCT080
                      TEMPO 2603/2607 BKN014 FM260700 03006KT P6SM
                       BKN030 BKN100 FM261200 03005KT P6SM SCT015
                       BKN020 OVC030 FM261900 02008KT P6SM SCT020
                       BKN030 BKN250 FM262200 35009KT P6SM BKN070=
201905252338 TAF KSEA 252338Z 2600/2706 23008KT P6SM -RA SCT005 BKN015 OVC020
                       FM260200 36007KT P6SM VCSH SCT015 BKN025
                       BKN040 FM260500 03006KT P6SM BKN030 BKN100
                       FM261200 03005KT P6SM SCT015 BKN020 OVC030
                       FM261900 02008KT P6SM SCT020 BKN030 BKN250
                       FM262200 35009KT P6SM BKN070=
201905252110 KSEA 252110Z 2521/2624 17008KT P6SM -RA SCT012 BKN015 OVC020
                      TEMPO 2521/2523 2SM -RA SCT008 BKN012 OVC015
                       FM260100 36007KT P6SM VCSH SCT015 BKN025
                       BKN040 FM260500 03006KT P6SM BKN050 BKN100
                       FM261400 03005KT P6SM SCT020 BKN040 BKN120
                       FM261900 02008KT P6SM BKN250=
201905251739 TAF KSEA 251739Z 2518/2624 19008KT P6SM BKN020 OVC030 FM251900
                       19008KT P6SM -RA SCT012 BKN015 OVC020
                      TEMPO 2521/2523 4SM -RA BKN012 OVC015 FM260200
                       36007KT P6SM VCSH SCT015 BKN025 BKN040 FM260500
                       03006KT P6SM BKN050 BKN100 FM261400 03005KT
                       P6SM SCT020 BKN040 BKN120 FM261900 02008KT
                       P6SM BKN250=
201905251509 KSEA 251509Z 2515/2618 19008KT P6SM SCT015 OVC035 FM251700 19008KT
                       P6SM BKN020 OVC030 FM251900 19008KT P6SM
                       -SHRA SCT012 BKN015 OVC020 FM260200 36006KT
                       P6SM VCSH SCT015 BKN025 BKN040 FM260500
                       03006KT P6SM BKN050 BKN100 FM260900 03006KT
                       P6SM SCT060 BKN120=
201905251132 TAF KSEA 251132Z 2512/2618 19008KT P6SM SCT020 OVC035 FM251500
                       19008KT P6SM SCT011 OVC020 FM251800 19008KT
                       P6SM -SHRA BKN011 OVC020 FM260200 36006KT
                       P6SM VCSH SCT015 BKN025 BKN040 FM260500
                       03006KT P6SM BKN050 BKN100 FM260900 03006KT
                       P6SM SCT060 BKN120=
201905250958 KSEA 250958Z 2510/2612 19008KT P6SM OVC035 FM251200 19008KT P6SM
                       SCT015 OVC020 FM251800 19008KT P6SM -RA
                       OVC018 FM260200 36005KT P6SM VCSH BKN030
                       OVC050 FM260900 03006KT P6SM BKN050 BKN100=
201905250520 TAF KSEA 250520Z 2506/2612 20008KT P6SM SCT030 BKN045 OVC080 FM250900
                       19008KT P6SM BKN035 OVC050 FM251200 20010KT
                       P6SM SCT015 OVC020 FM251800 21009KT P6SM
                       -RA OVC018 FM260200 36005KT P6SM VCSH BKN030
                       OVC050 FM260900 03006KT P6SM BKN050 BKN100=
201905250301 KSEA 250301Z 2503/2606 25008KT P6SM SCT035 BKN050 OVC080 FM250800
                       23008KT P6SM BKN035 OVC040 FM251200 20008KT
                       P6SM SCT015 OVC020 FM251800 21009KT P6SM
                       -RA OVC020 FM252300 27007KT P6SM BKN035
                       OVC050 FM260300 03004KT P6SM BKN050=
201905242338 TAF KSEA 242338Z 2500/2606 23012KT P6SM SCT035 OVC050 FM250800
                       23008KT P6SM BKN035 OVC040 FM251200 20008KT
                       P6SM SCT015 OVC020 FM251800 21009KT P6SM
                       -RA OVC020 FM252300 27007KT P6SM BKN035
                       OVC050 FM260300 03004KT P6SM BKN050=
201905242108 KSEA 242108Z 2421/2524 20012KT P6SM VCSH FEW015 SCT025 BKN035 FM242200
                       20014KT P6SM VCSH BKN035 OVC040 FM250400
                       20008KT P6SM BKN030 BKN050 FM250900 20008KT
                       P6SM OVC020 FM251500 20008KT P6SM OVC011
                       FM251900 21005KT P6SM -RA OVC015=
201905241737 TAF KSEA 241737Z 2418/2524 20012KT P6SM VCSH OVC015
                      TEMPO 2418/2420 5SM -RA BR FM242200 20014KT
                       P6SM VCSH BKN025 OVC030 FM250400 20008KT
                       P6SM BKN030 BKN050 FM250900 20008KT P6SM
                       OVC020 FM251500 20008KT P6SM OVC011 FM251900
                       21005KT P6SM -RA OVC015=
201905241507 KSEA 241507Z 2415/2518 20012KT P6SM BKN015 OVC020 FM242000 20014KT
                       P6SM VCSH BKN025 OVC040 FM250400 20008KT
                       P6SM BKN030 BKN050 FM250900 20008KT P6SM
                       OVC020 FM251500 20008KT P6SM OVC011=
201905241136 TAF KSEA 241136Z 2412/2518 20010KT P6SM OVC020 FM241800 20014KT
                       P6SM VCSH BKN025 OVC040 FM250400 20008KT
                       P6SM BKN030 BKN050 FM250900 20008KT P6SM
                       OVC020 FM251500 20008KT P6SM OVC011=
201905240804 KSEA 240804Z 2408/2512 21008KT P6SM OVC011 FM241700 20014G20KT
                       P6SM VCSH BKN018 OVC035 FM242100 18012KT
                       P6SM VCSH BKN022 OVC040 FM250600 19005KT
                       P6SM BKN030 BKN050=
201905240526 TAF KSEA 240526Z 2406/2512 21008KT P6SM SCT030 BKN090 BKN200 FM241100
                       20012KT P6SM BKN015 OVC025 FM241500 20014G20KT
                       P6SM VCSH BKN018 OVC035 FM242100 18012KT
                       P6SM VCSH BKN022 OVC040 FM250600 19005KT
                       P6SM BKN030 BKN050=
201905240316 KSEA 240316Z 2403/2506 24006KT P6SM FEW040 BKN090 BKN200 FM240600
                       23006KT P6SM SCT030 BKN080 BKN120 FM241100
                       20012KT P6SM BKN012 OVC020 FM242000 18012KT
                       P6SM VCSH BKN020 BKN030=
201905232320 TAF KSEA 232320Z 2400/2506 28006KT P6SM FEW040 SCT200 FM240300
                       23006KT P6SM SCT200 FM241100 20012KT P6SM
                       BKN012 OVC020 FM242000 18012KT P6SM VCSH
                       BKN020 BKN030=
201905232109 KSEA 232109Z 2321/2424 28006KT P6SM FEW040 SCT200 FM240300 23006KT
                       P6SM SCT200 FM241100 20012KT P6SM BKN012
                       OVC020 FM242000 18012KT P6SM BKN020 BKN030=
201905231720 TAF KSEA 231720Z 2318/2424 25004KT P6SM FEW001 SCT200
                      TEMPO 2318/2319 1SM BR BKN001 FM231900 28006KT
                       P6SM SCT200 FM240300 23006KT P6SM SCT200
                       FM241100 20012KT P6SM BKN012 OVC020 FM242000
                       18012KT P6SM BKN020 BKN030=
201905231607 KSEA 231607Z 2316/2418 18004KT 1/4SM FG OVC001 FM231800 00000KT
                       P6SM FEW012 SCT200 FM231900 31006KT P6SM
                       SCT200 FM240300 23006KT P6SM SCT200 FM241100
                       20012KT P6SM BKN012 OVC020=
201905231502 KSEA 231502Z 2315/2418 18004KT 1/4SM FG OVC001 FM231600 00000KT
                       1SM BR BKN002 FM231700 00000KT P6SM FEW012
                       SCT200 FM231800 31006KT P6SM SCT200 FM240300
                       23006KT P6SM SCT200 FM241100 20012KT P6SM
                       BKN012 OVC020=
201905231250 KSEA 231250Z 2313/2418 18004KT 1/4SM FG OVC001 FM231600 00000KT
                       1SM BR BKN002 FM231700 00000KT P6SM SCT200
                       FM231800 31006KT P6SM SCT200 FM240300 23006KT
                       P6SM SCT200 FM241100 20012KT P6SM BKN012
                       OVC020=
201905231138 TAF KSEA 231138Z 2312/2418 18004KT 4SM BR BKN003 FM231400 00000KT
                       1/2SM FG OVC001 FM231600 00000KT P6SM SCT003
                       SCT200
                      TEMPO 2316/2317 3SM BR BKN002 FM231800 31006KT
                       P6SM SCT200 FM240300 23006KT P6SM SCT200
                       FM241100 20012KT P6SM BKN012 OVC020=
201905230902 KSEA 230902Z 2309/2412 18006KT P6SM SCT120 BKN200 FM231200 19003KT
                       P6SM SCT003 SCT200
                      TEMPO 2313/2315 4SM BR BKN003 FM231800 31006KT
                       P6SM FEW030 SCT200 FM240300 24005KT P6SM
                       FEW035 SCT100 FM241100 20012KT P6SM BKN022
                       OVC040=
201905230525 TAF KSEA 230525Z 2306/2412 22005KT P6SM BKN120 BKN200 FM230700
                       16005KT P6SM SCT120 BKN200 FM231200 19003KT
                       P6SM SCT012 SCT200
                      TEMPO 2312/2316 BKN012 FM231800 28006KT P6SM
                       FEW030 SCT200 FM240300 24005KT P6SM FEW035
                       SCT100 FM241100 20012KT P6SM BKN022 OVC040=
201905230258 KSEA 230258Z 2303/2406 28006KT P6SM BKN120 BKN200 FM230700 VRB03KT
                       P6SM SCT120 BKN200 FM231200 19003KT P6SM
                       SCT015 SCT200
                      TEMPO 2312/2316 BKN015 FM231800 28006KT P6SM
                       FEW030 SCT200 FM240300 24005KT P6SM FEW035
                       BKN080=
201905222321 TAF KSEA 222321Z 2300/2406 30008KT P6SM FEW035 SCT120 FM230700
                       VRB03KT P6SM SCT120 FM231200 19003KT P6SM
                       SCT015
                      TEMPO 2312/2316 BKN015 FM231800 28006KT P6SM
                       FEW030 SCT250 FM240300 24005KT P6SM FEW035
                       BKN080=
201905222102 KSEA 222102Z 2221/2324 31008KT P6SM SCT035 SCT120 FM230700 VRB04KT
                       P6SM SCT120 FM231800 30007KT P6SM FEW035
                       FEW120=
201905221720 TAF KSEA 221720Z 2218/2324 30005KT P6SM SCT030 BKN120
                      TEMPO 2218/2220 BKN030 BKN100 FM222000 33008KT
                       P6SM SCT035 BKN120 FM230700 VRB04KT P6SM
                       SCT120 FM231800 30007KT P6SM FEW035 FEW120=
201905221502 KSEA 221502Z 2215/2318 17004KT P6SM FEW020 SCT040 BKN100
                      TEMPO 2215/2218 SCT020 BKN040 BKN100 FM221800
                       34007KT P6SM BKN100 BKN250 FM230700 VRB04KT
                       P6SM SCT250=
201905221120 TAF KSEA 221120Z 2212/2318 00000KT P6SM BKN100 FM221400 VRB03KT
                       P6SM BKN045 FM221800 34007KT P6SM BKN100
                       BKN250 FM222100 34006KT P6SM BKN250 FM230700
                       VRB04KT P6SM SCT250=
201905220855 KSEA 220855Z 2209/2312 00000KT P6SM BKN100 FM221400 VRB03KT P6SM
                       BKN045 FM221800 34007KT P6SM BKN100 BKN250
                       FM222100 34006KT P6SM BKN250=
201905220530 TAF KSEA 220530Z 2206/2312 00000KT P6SM BKN100 BKN200 FM221400
                       VRB03KT P6SM BKN045 FM221800 34007KT P6SM
                       BKN250 FM222100 34006KT P6SM BKN100 BKN250=
201905220305 KSEA 220305Z 2203/2306 04005KT P6SM FEW030 BKN110 BKN200 FM220400
                       03005KT P6SM SCT030 BKN150 FM220800 VRB03KT
                       P6SM FEW030 BKN100 FM221200 15004KT P6SM
                       SCT020 BKN100 FM221900 30008KT P6SM SCT040
                       BKN100=
201905212320 TAF KSEA 212320Z 2200/2306 36010KT P6SM BKN025 BKN150 FM220400
                       03005KT P6SM SCT030 BKN150 FM220800 VRB03KT
                       P6SM FEW030 BKN100 FM221200 15004KT P6SM
                       SCT020 BKN100 FM221900 30008KT P6SM SCT040
                       BKN100=
201905212007 KSEA 212007Z 2120/2224 34008KT P6SM FEW015 BKN020 BKN150 FM212100
                       34008KT P6SM BKN030 BKN150 FM220800 14003KT
                       P6SM SCT030 BKN100 FM221200 15004KT P6SM
                       SCT020 BKN100 FM221900 30005KT P6SM SCT040
                       BKN100=
201905211720 TAF KSEA 211720Z 2118/2224 01007KT P6SM FEW007 BKN015 BKN150 FM211900
                       34008KT P6SM SCT030 BKN150 FM220800 14003KT
                       P6SM SCT030 BKN100 FM221200 15004KT P6SM
                       SCT020 BKN100 FM221900 30005KT P6SM SCT040
                       BKN100=
201905211509 KSEA 211509Z 2115/2218 03007KT P6SM FEW005 BKN040 BKN100 FM211900
                       34008KT P6SM SCT040 BKN100 FM220300 30004KT
                       P6SM BKN250 FM220600 18003KT P6SM SCT050
                       BKN250=
201905211120 TAF KSEA 211120Z 2112/2218 VRB04KT P6SM VCSH OVC045
                      TEMPO 2112/2115 -SHRA OVC040 FM211500 36005KT
                       P6SM OVC050 FM212100 34008KT P6SM OVC100
                       FM220300 30004KT P6SM BKN250 FM220600 18003KT
                       P6SM SCT050 BKN250=
201905210902 KSEA 210902Z 2109/2212 03004KT P6SM SCT060 OVC070
                      TEMPO 2109/2112 P6SM -RA OVC045 FM211200
                       03004KT P6SM OVC045 FM211500 36005KT P6SM
                       OVC050 FM212100 34008KT P6SM OVC100 FM220300
                       30004KT P6SM BKN250=
201905210521 TAF KSEA 210521Z 2106/2212 07010KT P6SM OVC060
                      TEMPO 2106/2109 P6SM -RA OVC045 FM210900
                       03004KT P6SM OVC045
                      TEMPO 2109/2112 P6SM -RA OVC045 FM211200
                       03004KT P6SM OVC025 FM211500 36005KT P6SM
                       VCSH OVC045 FM212100 34008KT P6SM OVC100
                       FM220300 03004KT P6SM BKN250=
201905210308 KSEA 210308Z 2103/2206 09006KT P6SM VCSH FEW020 SCT060 OVC090 FM210600
                       04004KT P6SM OVC030 FM211200 02005KT P6SM
                       VCSH OVC020 FM211800 33005KT P6SM SCT025
                       BKN040=
201905202324 TAF KSEA 202324Z 2100/2206 20008KT P6SM -SHRA FEW015 SCT030 OVC070
                       FM210300 20004KT P6SM -SHRA SCT020 OVC030
                       FM210600 04004KT P6SM OVC030 FM211200 02005KT
                       P6SM VCSH OVC020 FM211800 33005KT P6SM SCT025
                       BKN040=
201905202104 KSEA 202104Z 2021/2124 20010KT P6SM -SHRA FEW020 OVC030 FM210300
                       VRB03KT P6SM VCSH SCT020 OVC030 FM210600
                       04004KT P6SM VCSH OVC020=
201905201720 TAF KSEA 201720Z 2018/2124 18009KT P6SM -SHRA SCT015 BKN030 OVC045
                       FM202000 22005KT P6SM -SHRA SCT030 OVC045
                       FM210300 VRB03KT P6SM VCSH OVC040 FM210600
                       04004KT P6SM VCSH OVC020=
201905201504 KSEA 201504Z 2015/2118 17009KT P6SM -SHRA SCT015 BKN030 OVC050
                       FM202000 22005KT P6SM -SHRA OVC040 FM210100
                       VRB03KT P6SM VCSH OVC040=
201905201208 KSEA 201208Z 2012/2118 20006KT P6SM SCT015 BKN025 FM201400 20007KT
                       P6SM VCSH BKN025 OVC040 FM201900 22005KT
                       P6SM -SHRA OVC040 FM210100 VRB03KT P6SM
                       VCSH OVC040=
201905201120 TAF KSEA 201120Z 2012/2118 20006KT P6SM OVC015 FM201400 20007KT
                       P6SM VCSH BKN020 OVC035 FM201900 22005KT
                       P6SM -SHRA OVC040 FM210100 VRB03KT P6SM
                       VCSH OVC040=
201905200901 KSEA 200901Z 2009/2112 22005KT P6SM BKN015 OVC045 FM201100 20006KT
                       P6SM OVC015 FM201400 20007KT P6SM VCSH BKN020
                       OVC035 FM201900 22005KT P6SM -SHRA OVC040
                       FM210100 VRB03KT P6SM VCSH OVC040=
201905200522 TAF KSEA 200522Z 2006/2112 21009KT P6SM SCT045 BKN080 FM200700
                       22005KT P6SM SCT025 OVC045 FM201100 20006KT
                       P6SM OVC035 FM201400 20007KT P6SM BKN020
                       OVC035 FM201900 22005KT P6SM -SHRA OVC040
                       FM210100 VRB03KT P6SM VCSH OVC040=
201905200300 KSEA 200300Z 2003/2106 23009KT P6SM FEW045 BKN080 BKN090 FM200700
                       21005KT P6SM SCT025 OVC045 FM201100 20007KT
                       P6SM BKN020 OVC035 FM201800 20009KT P6SM
                       -SHRA BKN025 OVC040=
201905192325 TAF KSEA 192325Z 2000/2106 24006KT P6SM SCT050 SCT120 SCT200 FM200300
                       VRB05KT P6SM SCT050 BKN120 BKN200 FM200700
                       21005KT P6SM SCT025 OVC045 FM201100 20007KT
                       P6SM BKN020 OVC035 FM201800 20009KT P6SM
                       -SHRA BKN025 OVC040=
201905192203 KSEA 192203Z 1922/2024 26006KT P6SM SCT050 SCT120 SCT200 FM200100
                       24006KT P6SM SCT050 BKN120 BKN200 FM200600
                       21005KT P6SM SCT025 OVC045 FM201100 20007KT
                       P6SM BKN020 OVC035 FM201700 21007KT P6SM
                       -SHRA BKN025 OVC040=
201905191732 TAF KSEA 191732Z 1918/2024 VRB05KT P6SM VCSH BKN060 OVC100 FM192100
                       28006KT P6SM BKN070 BKN120 FM200600 21005KT
                       P6SM SCT025 OVC045 FM201100 20007KT P6SM
                       BKN020 OVC035 FM201700 21007KT P6SM -SHRA
                       BKN025 OVC040=
201905191502 KSEA 191502Z 1915/2018 VRB05KT P6SM VCSH BKN060 OVC100 FM192100
                       28006KT P6SM BKN070 BKN120 FM200600 21004KT
                       P6SM OVC045=
201905191257 KSEA 191257Z 1913/2018 27005KT P6SM VCSH OVC050 FM191800 30005KT
                       P6SM BKN050 FM200400 21004KT P6SM OVC040=
201905191120 TAF KSEA 191120Z 1912/2018 VRB03KT P6SM SCT070 OVC100 FM191300
                       27005KT P6SM VCSH OVC050 FM191800 25005KT
                       P6SM BKN050 FM200400 21004KT P6SM OVC040=
201905190856 KSEA 190856Z 1909/2012 VRB03KT P6SM BKN090 OVC150 FM191100 27005KT
                       P6SM VCSH OVC050 FM191800 25005KT P6SM BKN050
                       FM200400 21004KT P6SM OVC040=
201905190523 TAF KSEA 190523Z 1906/2012 03012KT P6SM FEW050 OVC170 FM190800
                       03004KT P6SM OVC100 FM191100 27005KT P6SM
                       VCSH OVC050 FM191800 23005KT P6SM BKN050=
201905190300 KSEA 190300Z 1903/2006 02012KT P6SM FEW050 OVC150 FM190700 32004KT
                       P6SM -RA BKN050 OVC090 FM191100 VRB03KT
                       P6SM -SHRA OVC030 FM191900 28006KT P6SM
                       VCSH BKN035 BKN060 FM200000 31006KT P6SM
                       BKN060 BKN120=
201905182337 TAF KSEA 182337Z 1900/2006 32007KT P6SM FEW050 SCT120 BKN200 FM190300
                       30006KT P6SM OVC100 FM190700 32004KT P6SM
                       -RA BKN050 OVC090 FM191100 VRB03KT P6SM
                       -SHRA OVC030 FM191900 28006KT P6SM VCSH
                       BKN035 BKN060 FM200000 31006KT P6SM BKN060
                       BKN120=
201905182103 KSEA 182103Z 1821/1924 34007KT P6SM SCT120 BKN200 FM190200 30006KT
                       P6SM OVC100 FM190700 32004KT P6SM -RA BKN050
                       OVC090 FM191100 VRB03KT P6SM -SHRA OVC030
                       FM191900 28006KT P6SM VCSH BKN050 BKN100=
201905181731 TAF KSEA 181731Z 1818/1924 VRB05KT P6SM SCT060 SCT120 BKN200 FM182100
                       34007KT P6SM BKN120 OVC200 FM190100 30006KT
                       P6SM OVC100 FM190700 32004KT P6SM -RA BKN050
                       OVC090 FM191100 VRB03KT P6SM -SHRA OVC030
                       FM191900 28006KT P6SM VCSH BKN050 BKN100=
201905181502 KSEA 181502Z 1815/1918 VRB04KT P6SM SCT060 BKN120 OVC200 FM181800
                       33005KT P6SM SCT060 BKN100 OVC200 FM182300
                       30006KT P6SM OVC100 FM190400 32004KT P6SM
                       -RA BKN050 OVC090 FM190900 VRB03KT P6SM
                       -SHRA OVC030=
201905181120 TAF KSEA 181120Z 1812/1918 VRB04KT P6SM SCT040 OVC060 FM181700
                       33005KT P6SM BKN070 FM182300 30006KT P6SM
                       OVC100 FM190400 32004KT P6SM -RA OVC035
                       FM190900 VRB03KT P6SM -SHRA OVC030=
201905180900 KSEA 180900Z 1809/1912 20005KT P6SM SCT035 OVC060 FM181500 VRB05KT
                       P6SM BKN070 FM182300 30006KT P6SM OVC100
                       FM190400 32004KT P6SM -RA OVC035=
201905180520 TAF KSEA 180520Z 1806/1912 20005KT P6SM OVC060 FM181500 VRB05KT
                       P6SM BKN100 FM182300 30006KT P6SM OVC100
                       FM190400 32004KT P6SM -RA OVC035=
201905180300 KSEA 180300Z 1803/1906 24007KT P6SM BKN070 BKN150 FM180500 20008KT
                       P6SM BKN040 BKN080 FM181300 12006KT P6SM
                       SCT050 BKN120 FM181800 02006KT P6SM BKN120
                       OVC200 FM182100 33007KT P6SM SCT120 BKN200=
201905172335 TAF KSEA 172335Z 1800/1906 20011KT P6SM SCT040 BKN100 FM180500
                       20008KT P6SM BKN040 BKN080 FM181300 12006KT
                       P6SM SCT050 BKN120 FM181800 02006KT P6SM
                       BKN120 OVC200 FM182100 33007KT P6SM SCT120
                       BKN200=
201905171740 TAF KSEA 171740Z 1718/1824 20013G20KT P6SM SCT015 BKN045 BKN100
                       FM172200 20011KT P6SM SCT025 BKN045 FM180900
                       16006KT P6SM SCT050 BKN120 FM181700 06005KT
                       P6SM BKN120 OVC200=
201905171458 KSEA 171458Z 1715/1818 21013G20KT P6SM VCSH SCT015 BKN050 BKN100
                       FM171800 20012G18KT P6SM SCT015 BKN045 FM172000
                       20012KT P6SM SCT025 BKN045 FM180900 18006KT
                       P6SM SCT050 BKN150=
201905171309 KSEA 171309Z 1713/1818 21013G20KT P6SM -RA SCT015 OVC060
                      TEMPO 1713/1716 BKN015 FM171800 20012KT P6SM
                       SCT015 OVC025 FM172000 20012KT P6SM SCT025
                       BKN045 FM180900 18006KT P6SM SCT050 BKN150=
201905171121 TAF KSEA 171121Z 1712/1818 21013KT P6SM -RA BKN015 OVC050 FM171800
                       20012KT P6SM SCT015 OVC025 FM172000 20012KT
                       P6SM SCT025 BKN045 FM180900 18006KT P6SM
                       SCT050 BKN150=
201905170802 KSEA 170802Z 1708/1812 21010KT P6SM -RA OVC015 FM171800 20010KT
                       P6SM SCT015 OVC025 FM172100 20010KT P6SM
                       SCT025 BKN045 FM180900 17006KT P6SM SCT050
                       BKN150=
201905170538 TAF KSEA 170538Z 1706/1812 20010KT P6SM BKN015 OVC040 FM171800
                       20010KT P6SM SCT015 OVC025 FM172100 20010KT
                       P6SM SCT025 BKN045 FM180900 17006KT P6SM
                       SCT050 BKN150=
201905170306 KSEA 170306Z 1703/1806 20008KT P6SM SCT025 BKN050 OVC080 FM170700
                       20008KT P6SM BKN025 OVC050 FM171000 20012KT
                       P6SM BKN011 OVC020 FM171900 21015G22KT P6SM
                       SCT015 OVC025 FM180000 22009KT P6SM VCSH
                       OVC040=
201905162335 TAF KSEA 162335Z 1700/1806 20005KT 6SM -RA BR SCT015 OVC070 FM170400
                       21008KT P6SM -RA BKN025 OVC070 FM171000
                       20012KT P6SM -RA BKN007 OVC015 FM171900
                       21015G22KT P6SM OVC025 FM180000 22009KT
                       P6SM VCSH OVC040=
201905162109 KSEA 162109Z 1621/1724 VRB05KT 6SM -RA BR BKN010 OVC070 FM162300
                       24008KT 6SM -RA SCT015 OVC070 FM170400 21011KT
                       P6SM -RA OVC015 FM171000 20015KT P6SM -RA
                       BKN007 OVC015 FM171900 21015G22KT P6SM VCSH
                       OVC025=
201905161938 KSEA 161938Z 1620/1724 VRB05KT 6SM -RA BR BKN007 OVC070 FM162200
                       24008KT 6SM -RA SCT010 OVC030 FM170400 21011KT
                       P6SM -RA OVC015 FM171000 20015KT P6SM -RA
                       BKN007 OVC015 FM171900 21015G22KT P6SM VCSH
                       OVC025=
201905161737 TAF KSEA 161737Z 1618/1724 VRB05KT 3SM -RA BR OVC007 FM162200 24008KT
                       6SM -RA SCT010 OVC030 FM170400 21011KT P6SM
                       -RA OVC015 FM171000 20015KT P6SM -RA BKN007
                       OVC015 FM171900 21015G22KT P6SM VCSH OVC025=
201905161456 KSEA 161456Z 1615/1718 VRB05KT 2SM BR OVC002 FM161900 21008KT P6SM
                       VCSH OVC040 FM162200 21008KT P6SM -RA SCT020
                       OVC050 FM170200 21009KT P6SM -RA BKN015
                       OVC025=
201905161245 KSEA 161245Z 1613/1718 VRB05KT 1/2SM FG VV001 FM161900 21008KT
                       P6SM VCSH OVC040 FM162200 21008KT P6SM -RA
                       SCT020 OVC050 FM170200 21009KT P6SM -RA
                       BKN015 OVC025=
201905161124 TAF KSEA 161124Z 1612/1718 VRB05KT 1/2SM FG VV001 FM161400 VRB04KT
                       P6SM OVC050 FM161900 21008KT P6SM VCSH OVC050
                       FM162200 21008KT P6SM -RA SCT020 OVC050
                       FM170200 21009KT P6SM -RA BKN015 OVC025=
201905160858 KSEA 160858Z 1609/1712 VRB02KT P6SM SCT150 FM161000 VRB03KT P6SM
                       FEW002 SCT010 SCT150 FM161900 21008KT P6SM
                       VCSH SCT035 BKN060 OVC100 FM162200 21008KT
                       P6SM -SHRA SCT020 BKN040 OVC060 FM170400
                       21008KT P6SM -SHRA BKN015 OVC025=
201905160537 TAF KSEA 160537Z 1606/1712 36006KT P6SM BKN080 OVC200 FM161000
                       VRB04KT P6SM SCT015 BKN100 FM161900 21008KT
                       P6SM VCSH SCT035 BKN060 OVC100 FM162200
                       21008KT P6SM -SHRA SCT020 BKN040 OVC060
                       FM170400 21008KT P6SM -SHRA BKN015 OVC025=
201905160309 KSEA 160309Z 1603/1706 36006KT P6SM -RA OVC050 FM161000 VRB04KT
                       P6SM SCT015 BKN050 BKN090 FM162000 21008KT
                       P6SM VCSH SCT020 BKN040=
201905152325 TAF KSEA 152325Z 1600/1706 31007KT P6SM -RA BKN050 OVC090 FM161000
                       VRB04KT P6SM SCT015 BKN050 BKN090 FM162000
                       21008KT P6SM VCSH SCT020 BKN040=
201905151720 TAF KSEA 151720Z 1518/1624 36010KT P6SM SCT015 SCT120 BKN200 FM152100
                       36008KT P6SM SCT040 BKN120 OVC200 FM160000
                       36006KT P6SM -RA BKN050 OVC090 FM161000
                       VRB04KT P6SM BKN050 BKN090 FM161700 21008KT
                       P6SM BKN040=
201905151259 KSEA 151259Z 1513/1618 01006KT P6SM FEW030 BKN200 FM151600 01008KT
                       P6SM SCT050 BKN150 FM160000 VRB03KT P6SM
                       -RA SCT030 OVC050 FM161000 VRB03KT P6SM
                       OVC050=
201905151120 TAF KSEA 151120Z 1512/1618 VRB03KT P6SM FEW010 BKN025 OVC035 FM151600
                       01008KT P6SM SCT050 BKN150 FM160000 VRB03KT
                       P6SM -RA SCT030 OVC050 FM161000 VRB03KT
                       P6SM OVC050=
201905150857 KSEA 150857Z 1509/1612 19003KT P6SM BKN035 OVC060 FM151200 01004KT
                       P6SM SCT025 BKN050
                      TEMPO 1512/1515 BKN025 FM151600 01008KT P6SM
                       SCT050 BKN150 FM160000 VRB03KT P6SM -RA
                       SCT030 OVC050 FM161000 VRB03KT P6SM SCT030
                       OVC050=
201905150536 TAF KSEA 150536Z 1506/1612 20008KT P6SM SCT025 BKN050 FM151200
                       01004KT P6SM SCT025 BKN050
                      TEMPO 1512/1515 BKN025 FM151600 01008KT P6SM
                       SCT050 BKN150 FM160000 VRB03KT P6SM -RA
                       SCT030 OVC050 FM161000 VRB03KT P6SM SCT030
                       OVC050=
201905150258 KSEA 150258Z 1503/1606 20008KT P6SM SCT025 BKN050 FM151200 03004KT
                       P6SM BKN015 OVC040 FM151800 35010KT P6SM
                       SCT030 BKN150 FM160100 VRB03KT P6SM -RA
                       FEW030 BKN050 OVC100=
201905142320 TAF KSEA 142320Z 1500/1606 22006KT P6SM FEW020 SCT035 OVC060
                      TEMPO 1500/1502 -SHRA BKN020 OVC035 FM150200
                       20008KT P6SM SCT025 OVC050 FM150900 03004KT
                       P6SM BKN015 OVC040 FM151800 35010KT P6SM
                       SCT030 BKN150 FM160100 VRB03KT P6SM -RA
                       FEW030 BKN050 OVC100=
201905142059 KSEA 142059Z 1421/1524 19012KT P6SM -SHRA FEW015 BKN030 OVC045
                       FM150200 20008KT P6SM SCT025 OVC050 FM150900
                       03004KT P6SM BKN015 OVC040 FM151800 35010KT
                       P6SM SCT030 BKN150=
201905141721 TAF KSEA 141721Z 1418/1524 19006KT P6SM -RA SCT010 BKN020 OVC040
                       TEMPO 1418/1420 5SM -RA BR BKN010 OVC020
                       FM142000 21010KT P6SM -SHRA BKN020 OVC040
                       FM150200 20008KT P6SM SCT025 OVC050 FM150900
                       03004KT P6SM BKN015 OVC040 FM151800 35010KT
                       P6SM SCT030 BKN150=
201905141501 KSEA 141501Z 1415/1518 17008KT P6SM -RA BKN030 OVC050 FM142000
                       21010KT P6SM -SHRA BKN020 OVC040 FM142300
                       21010KT P6SM -SHRA SCT025 OVC050 FM150700
                       VRB03KT P6SM OVC050=
201905141122 TAF KSEA 141122Z 1412/1518 24008KT P6SM SCT080 OVC100 FM141400
                       18008KT P6SM -RA OVC050 FM141700 20008KT
                       P6SM -RA OVC020 FM142000 21010KT P6SM -SHRA
                       BKN020 OVC040 FM142300 21010KT P6SM -SHRA
                       SCT025 OVC050 FM150700 VRB03KT P6SM OVC050=
201905140859 KSEA 140859Z 1409/1512 16007KT P6SM BKN120 OVC200 FM141400 18008KT
                       P6SM -RA SCT020 OVC040 FM141600 18008KT
                       P6SM -RA OVC020 FM141900 21008KT P6SM -SHRA
                       SCT010 BKN020 OVC040 FM142300 21008KT P6SM
                       -SHRA SCT025 BKN040 BKN060=
201905140539 TAF KSEA 140539Z 1406/1512 32006KT P6SM SCT120 BKN250 FM141000
                       18008KT P6SM BKN100 OVC200 FM141400 18008KT
                       P6SM -RA SCT020 OVC040 FM141600 18008KT
                       P6SM -RA OVC020 FM141900 21008KT P6SM -SHRA
                       SCT010 BKN020 OVC040 FM142300 21008KT P6SM
                       -SHRA SCT025 BKN040 BKN060=
201905140308 KSEA 140308Z 1403/1506 32006KT P6SM SCT120 BKN250 FM141000 18008KT
                       P6SM BKN025 FM141400 18008KT P6SM -RA OVC020
                       FM142000 21008KT P6SM VCSH BKN040=
201905132320 TAF KSEA 132320Z 1400/1506 VRB04KT P6SM BKN200 FM141000 18008KT
                       P6SM BKN025 FM141400 18008KT P6SM -RA OVC020
                       FM142000 21008KT P6SM VCSH BKN040=
201905131723 TAF KSEA 131723Z 1318/1424 22008KT P6SM SCT020 BKN150 FM140200
                       VRB04KT P6SM SCT030 BKN050 BKN120 FM140800
                       18008KT P6SM BKN025 OVC050 FM141200 18008KT
                       P6SM -RA OVC025 FM142100 20008KT P6SM VCSH
                       BKN030 BKN050=
201905131559 KSEA 131559Z 1316/1418 20008KT P6SM BKN015 FM131800 22008KT P6SM
                       SCT020 BKN200 FM140200 25004KT P6SM SCT030
                       BKN080 BKN200 FM140800 18008KT P6SM BKN025
                       OVC050 FM141200 18008KT P6SM -RA OVC025=
201905131150 KSEA 131150Z 1312/1418 22004KT P6SM FEW010 SCT220
                      TEMPO 1312/1316 BKN009 FM131800 24008KT P6SM
                       SCT100 BKN250 FM140200 25004KT P6SM BKN080=
201905131133 TAF KSEA 131133Z 1312/1418 19004KT P6SM FEW010 SCT220 FM131800
                       24008KT P6SM SCT100 BKN250 FM140200 25004KT
                       P6SM BKN080=
201905130901 KSEA 130901Z 1309/1412 22005KT P6SM SCT150 BKN250 FM131200 19004KT
                       P6SM OVC012 FM131800 25006KT P6SM SCT100
                       BKN250 FM140200 25004KT P6SM BKN080=
201905130520 TAF KSEA 130520Z 1306/1412 24007KT P6SM SCT150 BKN250 FM131200
                       19004KT P6SM OVC012 FM131800 25006KT P6SM
                       SCT100 BKN250 FM140200 25004KT P6SM BKN080=
201905130301 KSEA 130301Z 1303/1406 24007KT P6SM SCT150 BKN250 FM131200 19004KT
                       P6SM OVC012 FM131800 VRB05KT P6SM BKN250=
201905122330 TAF KSEA 122330Z 1300/1406 24007KT P6SM BKN250 FM131200 19004KT
                       P6SM OVC012 FM131800 VRB05KT P6SM BKN250=
201905122100 KSEA 122100Z 1221/1324 20005KT P6SM FEW025 SCT120 BKN220 FM131200
                       19004KT P6SM OVC012 FM131800 23005KT P6SM
                       BKN250=
201905121736 TAF KSEA 121736Z 1218/1324 23009KT P6SM OVC012 FM122100 22005KT
                       P6SM BKN250 FM131200 19004KT P6SM OVC012
                       FM131800 23005KT P6SM BKN250=
201905121500 KSEA 121500Z 1215/1318 22009KT P6SM OVC010
                      TEMPO 1215/1216 OVC008 FM121900 22010KT P6SM
                       OVC020 FM122100 23006KT P6SM SCT250=
201905121211 KSEA 121211Z 1212/1318 22007KT P6SM OVC010
                      TEMPO 1212/1216 OVC008 FM121900 22010KT P6SM
                       OVC020 FM122100 23006KT P6SM SCT250=
201905121127 TAF KSEA 121127Z 1212/1318 22007KT P6SM BKN008 OVC010 FM121900
                       22010KT P6SM OVC020 FM122100 23006KT P6SM
                       SCT250=
201905120857 KSEA 120857Z 1209/1312 22007KT P6SM OVC010 FM121200 21004KT P6SM
                       OVC008 FM122100 24006KT P6SM SCT250=
201905120520 TAF KSEA 120520Z 1206/1312 20009KT P6SM FEW040 SCT250 FM121200
                       21004KT P6SM OVC008 FM122100 24006KT P6SM
                       SCT250=
201905120255 KSEA 120255Z 1203/1306 20009KT P6SM FEW040 SCT250 FM121200 21004KT
                       P6SM OVC008 FM122100 24006KT P6SM SCT250=
201905112324 TAF KSEA 112324Z 1200/1306 20009KT P6SM SCT250 FM121200 21004KT
                       P6SM OVC008 FM122100 24006KT P6SM SCT250=
201905112101 KSEA 112101Z 1121/1224 24003KT P6SM FEW120 SCT230 FM121200 20007KT
                       P6SM OVC007 FM121700 22008KT P6SM SCT250=
201905111723 TAF KSEA 111723Z 1118/1224 21006KT P6SM SCT250 FM121200 20007KT
                       P6SM OVC007 FM121700 22008KT P6SM BKN035=
201905111505 KSEA 111505Z 1115/1218 00000KT P6SM SCT250 FM111800 20005KT P6SM
                       SCT250 FM121200 21009KT P6SM OVC015=
201905111124 TAF KSEA 111124Z 1112/1218 VRB04KT P6SM SKC FM111800 23006KT P6SM
                       FEW250=
201905110904 KSEA 110904Z 1109/1212 01003KT P6SM SKC FM111000 VRB03KT P6SM FEW250
                       FM111800 24007KT P6SM FEW250=
201905110520 TAF KSEA 110520Z 1106/1212 32004KT P6SM SKC FM111000 VRB03KT P6SM
                       FEW250 FM111800 24007KT P6SM FEW250=
201905110301 KSEA 110301Z 1103/1206 30004KT P6SM SKC FM111000 VRB03KT P6SM FEW250
                       FM111800 24007KT P6SM FEW250=
201905102331 TAF KSEA 102331Z 1100/1206 32007KT P6SM SKC FM111800 24007KT P6SM
                       FEW250=
201905101744 TAF KSEA 101744Z 1018/1124 30004KT P6SM SKC FM110000 29004KT P6SM
                       FEW250 FM111800 23005KT P6SM FEW250=
201905101507 KSEA 101507Z 1015/1118 00000KT P6SM FEW250 FM101600 24005KT P6SM
                       FEW250 FM101800 31008KT P6SM FEW250 FM110000
                       31007KT P6SM FEW250=
201905101120 TAF KSEA 101120Z 1012/1118 13005KT P6SM FEW250 FM101600 24005KT
                       P6SM FEW250 FM101800 31008KT P6SM FEW250
                       FM110000 31007KT P6SM FEW250=
201905100903 KSEA 100903Z 1009/1112 VRB05KT P6SM FEW250 FM101000 VRB03KT P6SM
                       FEW150 FEW250 FM101800 31008KT P6SM FEW250=
201905100520 TAF KSEA 100520Z 1006/1112 03006KT P6SM FEW250 FM101000 VRB03KT
                       P6SM FEW150 FEW250 FM101800 31008KT P6SM
                       FEW250=
201905100301 KSEA 100301Z 1003/1106 34008KT P6SM SCT250 FM100500 03006KT P6SM
                       FEW250 FM101000 12005KT P6SM FEW150 FEW250
                       FM101800 31008KT P6SM FEW250=
201905092330 TAF KSEA 092330Z 1000/1106 34012KT P6SM SCT250 FM100500 03006KT
                       P6SM FEW250 FM101000 12005KT P6SM FEW150
                       FEW250 FM101800 31008KT P6SM FEW250=
201905092056 KSEA 092056Z 0921/1024 35012KT P6SM SCT250 FM100400 01008KT P6SM
                       FEW250 FM101000 11004KT P6SM FEW150 FEW250
                       FM101800 26006KT P6SM FEW250=
201905091734 TAF KSEA 091734Z 0918/1024 35012KT P6SM FEW250 FM100400 01008KT
                       P6SM FEW250 FM101000 11004KT P6SM FEW150
                       FEW250 FM101800 26006KT P6SM FEW250=
201905091501 KSEA 091501Z 0915/1018 36009KT P6SM FEW250 FM092000 34012KT P6SM
                       FEW250 FM100400 01010KT P6SM FEW250 FM101000
                       11004KT P6SM FEW250=
201905091137 TAF KSEA 091137Z 0912/1018 02010KT P6SM SCT100 SCT250 FM092000
                       34012KT P6SM FEW250 FM100400 01010KT P6SM
                       FEW250 FM101000 11004KT P6SM FEW250=
201905090842 KSEA 090842Z 0909/1012 02008KT P6SM FEW250 FM092000 34010KT P6SM
                       FEW250 FM100400 01008KT P6SM FEW250=
201905090520 TAF KSEA 090520Z 0906/1012 34009KT P6SM FEW250 FM090700 02008KT
                       P6SM FEW250 FM092000 34010KT P6SM FEW250
                       FM100400 01008KT P6SM FEW250=
201905090300 KSEA 090300Z 0903/1006 34009KT P6SM FEW250 FM090500 02008KT P6SM
                       FEW250 FM092000 34010KT P6SM FEW250=
201905082332 TAF KSEA 082332Z 0900/1006 34009KT P6SM FEW250 FM090500 02008KT
                       P6SM FEW250 FM092000 34010KT P6SM FEW250=
201905082107 KSEA 082107Z 0821/0924 31008KT P6SM FEW250 FM090500 02008KT P6SM
                       FEW250=
201905081736 TAF KSEA 081736Z 0818/0924 31008KT P6SM SCT120 BKN200 FM090500
                       02008KT P6SM FEW250=
201905081609 KSEA 081609Z 0816/0918 20005KT P6SM SCT005 BKN120 BKN250
                      TEMPO 0816/0817 3SM BR BKN003 FM081800 33008KT
                       P6SM BKN150 FM090300 01008KT P6SM FEW250=
201905081353 KSEA 081353Z 0814/0918 19003KT P6SM SCT008 SCT150
                      TEMPO 0814/0816 6SM BR BKN003 FM081800 33008KT
                       P6SM SCT250 FM090300 01008KT P6SM FEW250=
201905081120 TAF KSEA 081120Z 0812/0918 19003KT P6SM SCT150
                      TEMPO 0812/0816 SCT008 FM081800 33008KT P6SM
                       SCT250 FM090300 01008KT P6SM FEW250=
201905080901 KSEA 080901Z 0809/0912 VRB04KT P6SM SCT250 FM081200 VRB04KT P6SM
                       SCT008 SCT150 FM081800 33008KT P6SM FEW150
                       SCT250 FM090300 01008KT P6SM FEW250=
201905080520 TAF KSEA 080520Z 0806/0912 32006KT P6SM FEW060 SCT250 FM080800
                       VRB04KT P6SM SCT250 FM081200 VRB04KT P6SM
                       SCT008 SCT150 FM081800 33008KT P6SM FEW150
                       SCT250 FM090300 01008KT P6SM FEW250=
201905080255 KSEA 080255Z 0803/0906 32008KT P6SM FEW050 SCT250 FM080600 VRB04KT
                       P6SM SCT250 FM081200 VRB04KT P6SM SCT008
                       SCT150 FM081800 33008KT P6SM FEW150 SCT250
                       FM090300 01008KT P6SM FEW250=
201905072329 TAF KSEA 072329Z 0800/0906 32008KT P6SM SCT250 FM080600 VRB04KT
                       P6SM SCT250 FM081200 VRB04KT P6SM SCT008
                       SCT150 FM081800 33008KT P6SM FEW150 SCT250
                       FM090300 01008KT P6SM FEW250=
201905072058 KSEA 072058Z 0721/0824 32010KT P6SM SCT250 FM080500 VRB04KT P6SM
                       SCT250 FM081200 VRB04KT P6SM SCT008 SCT150
                       FM081800 33008KT P6SM SCT150 SCT250=
201905071733 TAF KSEA 071733Z 0718/0824 32008KT P6SM SCT250 FM080500 VRB04KT
                       P6SM SCT250 FM081200 VRB04KT P6SM SCT008
                       SCT150 FM081800 33008KT P6SM SCT150 SCT250=
201905071458 KSEA 071458Z 0715/0818 VRB03KT P6SM SCT250 FM071800 31010KT P6SM
                       SCT250 FM080300 VRB04KT P6SM SCT250 FM081200
                       20006KT P6SM BKN008=
201905071120 TAF KSEA 071120Z 0712/0818 34005KT P6SM SCT250 FM071800 31010KT
                       P6SM SCT250 FM080300 VRB04KT P6SM SCT250
                       FM081200 20006KT P6SM BKN008=
201905070901 KSEA 070901Z 0709/0812 02004KT P6SM FEW080 SCT250 FM071800 31010KT
                       P6SM SCT250=
201905070520 TAF KSEA 070520Z 0706/0812 35006KT P6SM BKN250 FM072100 31010KT
                       P6SM SCT250=
201905070302 KSEA 070302Z 0703/0806 30006KT P6SM FEW050 BKN250 FM070500 03006KT
                       P6SM FEW250 FM071600 34005KT P6SM SCT250
                       FM072100 31010KT P6SM SCT250=
201905062325 TAF KSEA 062325Z 0700/0806 31010KT P6SM BKN250 FM070500 03006KT
                       P6SM FEW250 FM071600 34005KT P6SM SCT250
                       FM072100 31010KT P6SM SCT250=
201905062056 KSEA 062056Z 0621/0724 30008KT P6SM SCT250 FM070500 03005KT P6SM
                       FEW250 FM071600 33005KT P6SM SCT250=
201905061720 TAF KSEA 061720Z 0618/0724 30005KT P6SM FEW250 FM062000 31008KT
                       P6SM SCT250 FM070500 03005KT P6SM FEW250
                       FM071600 33005KT P6SM SCT250=
201905061457 KSEA 061457Z 0615/0718 30005KT P6SM FEW250 FM061800 33008KT P6SM
                       SCT250 FM070300 03005KT P6SM SKC=
201905061120 TAF KSEA 061120Z 0612/0718 05005KT P6SM FEW250 FM061800 33008KT
                       P6SM FEW250 FM070300 03005KT P6SM SKC=
201905060901 KSEA 060901Z 0609/0712 05005KT P6SM SKC FM061700 33007KT P6SM FEW250=
201905060520 TAF KSEA 060520Z 0606/0712 36005KT P6SM FEW250 FM061700 33007KT
                       P6SM SCT250=
201905060259 KSEA 060259Z 0603/0706 01005KT P6SM FEW250 FM061700 33007KT P6SM
                       SCT040 SCT250=
201905052320 TAF KSEA 052320Z 0600/0706 33009KT P6SM FEW040 SCT100 SCT250 FM060400
                       02005KT P6SM SCT040 SCT250 FM061700 33007KT
                       P6SM SCT040 SCT250=
201905052105 KSEA 052105Z 0521/0624 33009KT P6SM FEW040 SCT100 SCT250 FM060400
                       02005KT P6SM SCT040 SCT250 FM061700 33006KT
                       P6SM SCT040 SCT250=
201905051720 TAF KSEA 051720Z 0518/0624 VRB04KT P6SM FEW030 SCT250 FM051900
                       33009KT P6SM FEW060 SCT250 FM060400 02005KT
                       P6SM SCT250=
201905051456 KSEA 051456Z 0515/0618 VRB04KT P6SM FEW060 SCT250 FM051800 33009KT
                       P6SM FEW060 SCT250 FM060400 02005KT P6SM
                       SCT250=
201905051120 TAF KSEA 051120Z 0512/0618 06004KT P6SM FEW050 SCT250
                      TEMPO 0512/0516 SCT050 FM051800 33009KT P6SM
                       FEW050 SCT250 FM060400 02005KT P6SM SCT250=
201905050904 KSEA 050904Z 0509/0612 02004KT P6SM FEW060 SCT200 FM051200 07004KT
                       P6SM SCT050 BKN250
                      TEMPO 0512/0516 BKN050 BKN250 FM051800 33009KT
                       P6SM FEW050 BKN250 FM060400 02005KT P6SM
                       SCT250=
201905050520 TAF KSEA 050520Z 0506/0612 02006KT P6SM FEW050 SCT200 FM051200
                       07004KT P6SM SCT050 BKN250
                      TEMPO 0512/0516 BKN050 BKN250 FM051800 33009KT
                       P6SM FEW050 BKN250 FM060400 02005KT P6SM
                       SCT250=
201905050305 KSEA 050305Z 0503/0606 02008KT P6SM FEW045 BKN250 FM050800 05004KT
                       P6SM SCT045 BKN250
                      TEMPO 0508/0512 BKN045 BKN250 FM051800 33009KT
                       P6SM FEW050 BKN250 FM060400 02005KT P6SM
                       BKN250=
201905042320 TAF KSEA 042320Z 0500/0606 32009KT P6SM SCT040 SCT250 FM050400
                       01004KT P6SM BKN040
                      TEMPO 0513/0517 BKN030 FM051800 33009KT P6SM
                       SCT050 SCT250=
201905042102 KSEA 042102Z 0421/0524 32009KT P6SM SCT060 SCT250 FM050400 01004KT
                       P6SM BKN060
                      TEMPO 0513/0517 BKN030 FM051800 33009KT P6SM
                       SCT060 SCT250=
201905041720 TAF KSEA 041720Z 0418/0524 02005KT P6SM SCT015 SCT250 FM041900
                       32006KT P6SM SCT060 SCT250 FM050400 VRB04KT
                       P6SM BKN060
                      TEMPO 0513/0517 BKN030=
201905041501 KSEA 041501Z 0415/0518 02005KT P6SM SCT015 SCT250 FM041800 32006KT
                       P6SM SCT060 SCT250 FM050400 VRB04KT P6SM
                       BKN060=
201905041120 TAF KSEA 041120Z 0412/0518 02005KT P6SM SCT250 FM041800 32006KT
                       P6SM SCT060 SCT250 FM050400 01005KT P6SM
                       BKN060=
201905040900 KSEA 040900Z 0409/0512 02005KT P6SM FEW050 SCT250 FM041700 30006KT
                       P6SM SCT060 SCT250 FM050400 01005KT P6SM
                       BKN060=
201905040520 TAF KSEA 040520Z 0406/0512 02005KT P6SM FEW050 SCT250 FM041700
                       30006KT P6SM SCT060 SCT250 FM050400 01005KT
                       P6SM BKN060=
201905040301 KSEA 040301Z 0403/0506 35007KT P6SM SCT045 SCT250 FM040800 03004KT
                       P6SM SCT060 SCT250 FM041700 29006KT P6SM
                       SCT060 SCT250=
201905032320 TAF KSEA 032320Z 0400/0506 34008KT P6SM FEW035 SCT250 FM040800
                       03004KT P6SM SCT060 SCT250 FM041700 29006KT
                       P6SM SCT060 SCT250=
201905032102 KSEA 032102Z 0321/0424 VRB03KT P6SM FEW020 SCT035 BKN250 FM032200
                       34008KT P6SM SCT060 SCT250 FM040800 03004KT
                       P6SM SCT060 SCT250 FM041700 29006KT P6SM
                       SCT050 SCT250=
201905031720 TAF KSEA 031720Z 0318/0424 VRB03KT P6SM FEW013 BKN025 OVC035 FM031900
                       VRB03KT P6SM FEW015 SCT030 SCT050 FM032200
                       34008KT P6SM SCT060 FM040800 03004KT P6SM
                       SCT060 SCT250=
201905031501 KSEA 031501Z 0315/0418 VRB03KT P6SM FEW010 BKN035 FM031800 VRB03KT
                       P6SM BKN035 FM031900 VRB03KT P6SM SCT040
                       FM032200 34008KT P6SM SCT060 FM040800 03004KT
                       P6SM SCT060 SCT250=
201905031138 TAF KSEA 031138Z 0312/0418 VRB03KT P6SM OVC030 FM031400 VRB03KT
                       P6SM OVC021 FM031800 VRB03KT P6SM BKN025
                       FM031900 VRB03KT P6SM SCT030 FM032200 34008KT
                       P6SM SCT045=
201905030915 KSEA 030915Z 0309/0412 20003KT P6SM SCT050 FM031200 VRB03KT P6SM
                       BKN045 FM031800 VRB03KT P6SM SCT045 FM032200
                       34008KT P6SM SCT045=
201905030520 TAF KSEA 030520Z 0306/0412 VRB05KT P6SM BKN050 FM030800 VRB04KT
                       P6SM OVC030 FM032100 31006KT P6SM SCT040=
201905030259 KSEA 030259Z 0303/0406 16005KT P6SM BKN045 FM030800 VRB04KT P6SM
                       OVC030 FM032100 31006KT P6SM SCT040=
201905022320 TAF KSEA 022320Z 0300/0406 21006KT P6SM BKN045 FM030800 18006KT
                       P6SM OVC030 FM032100 31006KT P6SM SCT040=
201905022103 KSEA 022103Z 0221/0324 21012KT P6SM BKN040
                      TEMPO 0222/0302 SCT040 FM030800 18006KT P6SM
                       OVC030 FM032100 21006KT P6SM SCT040=
201905021720 TAF KSEA 021720Z 0218/0324 20010KT P6SM BKN040 FM030800 18006KT
                       P6SM OVC030 FM032100 21006KT P6SM SCT040=
201905021503 KSEA 021503Z 0215/0318 20010KT P6SM OVC030 FM022100 21008KT P6SM
                       BKN040 FM030800 18005KT P6SM OVC030=
201905021139 TAF KSEA 021139Z 0212/0318 19012KT P6SM OVC020 FM021700 21010KT
                       P6SM BKN025 FM022100 21008KT P6SM BKN040
                       FM030800 18005KT P6SM OVC030=
201905020909 KSEA 020909Z 0209/0312 19012KT P6SM OVC025 FM021200 18008KT P6SM
                       OVC020 FM021800 21010KT P6SM BKN025 FM022100
                       21010KT P6SM BKN040=
201905020640 KSEA 020640Z 0207/0312 21012KT P6SM BKN030 OVC040 FM021000 20010KT
                       P6SM BKN025 FM021400 18008KT P6SM OVC020
                       FM021700 21010KT P6SM BKN025 FM022100 21010KT
                       P6SM SCT040=
201905020528 TAF KSEA 020528Z 0206/0312 21012KT P6SM FEW040 SCT250 FM021000
                       20010KT P6SM BKN025 FM021400 18008KT P6SM
                       OVC020 FM021700 21010KT P6SM BKN025 FM022100
                       21010KT P6SM SCT040=
201905020259 KSEA 020259Z 0203/0306 23010KT P6SM FEW040 SCT250 FM020800 18010KT
                       P6SM BKN025 FM021200 18008KT P6SM OVC020
                       FM021700 21008KT P6SM BKN025 FM022100 21010KT
                       P6SM SCT040=
201905012320 TAF KSEA 012320Z 0200/0306 21012KT P6SM FEW040 SCT250 FM020800
                       18010KT P6SM BKN025 FM021200 18008KT P6SM
                       OVC020 FM021700 21008KT P6SM BKN025 FM022100
                       21010KT P6SM SCT040=
201905012107 KSEA 012107Z 0121/0224 21014KT P6SM SCT030 SCT250 FM020800 18010KT
                       P6SM BKN025 FM021200 18008KT P6SM OVC015
                       FM021700 21008KT P6SM BKN025 FM022100 21010KT
                       P6SM SCT040=
201905011720 TAF KSEA 011720Z 0118/0224 21010KT P6SM FEW025 SCT250 FM012200
                       21012KT P6SM SCT030 SCT120 FM020800 18010KT
                       P6SM BKN020 BKN050 FM021200 18008KT P6SM
                       OVC015 FM021700 21008KT P6SM BKN025 FM022100
                       21010KT P6SM SCT040=
201905011522 KSEA 011522Z 0115/0218 20010KT P6SM SCT010 SCT200 FM011700 21010KT
                       P6SM SCT040 SCT250 FM021200 21010KT P6SM
                       BKN015=
201905011137 TAF KSEA 011137Z 0112/0218 14006KT P6SM SKC FM011400 18006KT P6SM
                       FEW006 FM011700 21010KT P6SM SCT040 SCT250
                       FM021200 21010KT P6SM OVC011=
201905010910 KSEA 010910Z 0109/0212 14006KT P6SM SKC FM011400 18006KT P6SM FEW010
                       FM011700 21010KT P6SM SCT040 SCT250=
201905010529 TAF KSEA 010529Z 0106/0212 VRB04KT P6SM SCT100 SCT250 FM011200
                       18006KT P6SM FEW010 FM011700 21010KT P6SM
                       SCT040 SCT250=
201905010305 KSEA 010305Z 0103/0206 35008KT P6SM FEW050 SCT100 SCT250 FM010600
                       VRB04KT P6SM SKC FM011200 18006KT P6SM FEW010
                       FM011700 21007KT P6SM SCT040 SCT200=