##########################################################
# Query made at 02/17/2025 20:59:28 UTC
# Time interval: from 01/01/2020 00:00  to 01/31/2020 23:59  UTC
##########################################################

##########################################################
# KSEA, Seattle, Seattle-Tacoma International Airport (United States)
# WMO index: 72793. WIGOS ID: 0-20000-0-72793
# Latitude 47-27-00N. Longitude 122-17-59W. Altitude 130 m.
##########################################################

###################################
#  METAR/SPECI from KSEA
###################################
202001312353 METAR KSEA 312353Z 17018G25KT 10SM OVC020 14/12 A3004 RMK AO2 PK WND 17028/2326 RAE37 SLP179 P0001 60031 T01440117 10144 20117 55004=
202001312313 SPECI KSEA 312313Z 17019G27KT 10SM -RA SCT014 BKN020 OVC029 14/12 A3003 RMK AO2 PK WND 19027/2311 P0000 T01390117=
202001312253 METAR KSEA 312253Z 17020G25KT 7SM -RA OVC014 14/12 A3004 RMK AO2 PK WND 18027/2154 SLP178 P0001 T01390117=
202001312153 METAR KSEA 312153Z 18019G26KT 6SM -RA BR SCT008 BKN015 OVC039 14/12 A3003 RMK AO2 PK WND 18026/2153 SLP175 P0009 T01390117=
202001312137 SPECI KSEA 312137Z 18016G25KT 7SM -RA SCT008 OVC015 14/12 A3004 RMK AO2 P0008 T01390117=
202001312053 METAR KSEA 312053Z 20013KT 4SM R16L/5000VP6000FT -RA BR SCT008 BKN013 OVC029 13/12 A3005 RMK AO2 PK WND 19028/2010 SLP183 P0011 60020 T01330122 53008=
202001312049 SPECI KSEA 312049Z 19013KT 4SM R16L/5000VP6000FT -RA BR FEW007 BKN014 OVC029 13/12 A3005 RMK AO2 PK WND 19028/2010 P0010=
202001311953 METAR KSEA 311953Z 19017G26KT 2 1/2SM R16L/4500VP6000FT -RA BR FEW007 BKN014 OVC030 13/12 A3004 RMK AO2 PK WND 20026/1949 TWR VIS 3 SLP178 P0004 T01330117=
202001311946 SPECI KSEA 311946Z 19019G24KT 2SM R16L/5000VP6000FT -RA BR FEW007 BKN014 OVC022 13/11 A3004 RMK AO2 P0004 T01330111=
202001311923 SPECI KSEA 311923Z 20017G25KT 2 1/2SM R16L/4500VP6000FT -RA BR FEW006 BKN016 OVC025 13/11 A3004 RMK AO2 P0002 T01280111=
202001311853 METAR KSEA 311853Z 18011G19KT 4SM -RA BR FEW005 BKN016 OVC028 13/11 A3004 RMK AO2 SLP178 P0005 T01280111=
202001311753 METAR KSEA 311753Z 18011KT 2 1/2SM -RA BR SCT005 BKN022 OVC036 12/11 A3003 RMK AO2 SLP176 P0005 60025 T01170111 10117 20111 56016=
202001311653 METAR KSEA 311653Z 16008KT 2 1/2SM -RA BR FEW007 OVC015 12/11 A3005 RMK AO2 SLP183 P0006 T01170106=
202001311637 SPECI KSEA 311637Z 16007KT 2SM R16L/6000VP6000FT -RA BR FEW006 OVC015 12/11 A3005 RMK AO2 P0004 T01170106=
202001311557 SPECI KSEA 311557Z 17008KT 5SM -RA BR SCT006 BKN010 OVC028 12/11 A3005 RMK AO2 P0000 T01170106=
202001311553 METAR KSEA 311553Z 17008KT 5SM -RA BR SCT006 BKN025 12/11 A3005 RMK AO2 SLP183 P0004 T01170106=
202001311453 METAR KSEA 311453Z 18010KT 4SM -RA BR BKN005 BKN010 OVC022 12/11 A3008 RMK AO2 SLP192 P0004 60010 T01170106 56007=
202001311353 METAR KSEA 311353Z 18011KT 3SM -RA BR BKN006 OVC023 12/11 A3008 RMK AO2 RAB1258 SLP194 P0002 T01170106=
202001311337 SPECI KSEA 311337Z 17010KT 6SM -RA BR BKN006 OVC023 12/11 A3008 RMK AO2 RAB1258 P0002 T01170106=
202001311253 METAR KSEA 311253Z 17011KT 6SM BR FEW005 OVC031 11/11 A3009 RMK AO2 RAE53 SLP196 P0004 T01110106=
202001311221 SPECI KSEA 311221Z 18012KT 5SM -RA BR FEW005 OVC037 11/11 A3010 RMK AO2 P0003 T01110106=
202001311153 METAR KSEA 311153Z 18014KT 5SM -RA BR FEW005 OVC029 11/10 A3010 RMK AO2 SLP199 P0002 60025 70056 T01110100 10111 20083 50001=
202001311148 SPECI KSEA 311148Z 18012KT 6SM -RA BR FEW005 OVC029 11/10 A3010 RMK AO2 P0002=
202001311053 METAR KSEA 311053Z 19013KT 3SM -RA BR BKN005 OVC017 11/10 A3011 RMK AO2 SLP203 P0004 T01110100=
202001310953 METAR KSEA 310953Z 18015G23KT 4SM -RA BR BKN005 BKN022 OVC028 11/10 A3009 RMK AO2 SLP198 P0004 T01110100=
202001310929 SPECI KSEA 310929Z 19015KT 4SM -RA BR BKN005 BKN021 OVC028 11/10 A3010 RMK AO2 P0002 T01110100=
202001310921 SPECI KSEA 310921Z 18014KT 5SM -RA BR SCT005 BKN011 OVC022 11/10 A3010 RMK AO2 P0002 T01110100=
202001310853 METAR KSEA 310853Z 18012KT 5SM -RA BR BKN003 OVC025 11/10 A3009 RMK AO2 SLP198 P0005 60015 T01060100 50008=
202001310753 METAR KSEA 310753Z 18012KT 3SM -RA BR BKN004 BKN017 OVC029 11/09 A3010 RMK AO2 SLP200 P0006 T01060094 401060056=
202001310746 SPECI KSEA 310746Z 18010KT 3SM -RA BR BKN004 BKN010 OVC021 11/09 A3010 RMK AO2 P0005 T01060094=
202001310653 METAR KSEA 310653Z 17009KT 3SM -RA BR FEW005 BKN012 OVC021 09/08 A3008 RMK AO2 SLP193 P0004 T00940083=
202001310622 SPECI KSEA 310622Z 15008KT 5SM -RA BR FEW007 BKN014 OVC021 08/07 A3007 RMK AO2 P0001 T00830072=
202001310607 SPECI KSEA 310607Z 14010KT 5SM -RA BR BKN006 BKN013 OVC021 08/07 A3006 RMK AO2 P0001 T00830072=
202001310553 METAR KSEA 310553Z 14010KT 5SM -RA BR SCT006 BKN012 OVC018 09/07 A3007 RMK AO2 SLP191 P0005 60031 T00890072 10089 20072 55006=
202001310540 SPECI KSEA 310540Z 14007KT 4SM -RA BR FEW008 BKN013 OVC020 08/07 A3008 RMK AO2 P0005 T00830072=
202001310505 SPECI KSEA 310505Z 16005KT 3SM -RA BR FEW009 BKN018 OVC026 08/07 A3006 RMK AO2 P0001 T00830072=
202001310453 METAR KSEA 310453Z 16005KT 3SM -RA BR FEW010 BKN018 OVC027 08/07 A3007 RMK AO2 SLP189 P0006 T00830072=
202001310353 METAR KSEA 310353Z 12008KT 4SM -RA BR OVC028 08/07 A3007 RMK AO2 SLP192 P0007 T00780067=
202001310253 METAR KSEA 310253Z 15007KT 090V170 6SM -RA BR OVC043 08/07 A3009 RMK AO2 SLP198 P0008 60013 T00780067 58017=
202001310153 METAR KSEA 310153Z 15010KT 7SM -RA OVC055 08/06 A3011 RMK AO2 SLP206 P0005 T00780061=
202001310053 METAR KSEA 310053Z 15009KT 8SM -RA FEW060 BKN090 OVC140 08/06 A3012 RMK AO2 RAB40 SLP207 P0000 T00830056=
202001302353 METAR KSEA 302353Z 17007KT 10SM BKN095 BKN140 OVC200 08/04 A3014 RMK AO2 SLP214 T00780044 10078 20061 58023=
202001302253 METAR KSEA 302253Z 21007KT 10SM FEW010 BKN110 OVC200 08/04 A3017 RMK AO2 SLP223 T00780044=
202001302153 METAR KSEA 302153Z 21008KT 10SM FEW008 BKN120 BKN200 08/05 A3019 RMK AO2 SLP230 T00780050=
202001302053 METAR KSEA 302053Z 17007KT 10SM SCT004 BKN120 07/04 A3021 RMK AO2 SLP238 T00720044 58024=
202001302021 SPECI KSEA 302021Z 18006KT 7SM SCT004 BKN120 07/06 A3023 RMK AO2 T00720056=
202001302006 SPECI KSEA 302006Z 21006KT 7SM BKN004 OVC120 07/06 A3024 RMK AO2 T00720056=
202001301953 METAR KSEA 301953Z 23006KT 7SM SCT005 OVC130 07/06 A3025 RMK AO2 SLP252 T00720056=
202001301853 METAR KSEA 301853Z 22004KT 10SM FEW002 SCT010 BKN150 07/04 A3028 RMK AO2 SLP263 T00670044=
202001301753 METAR KSEA 301753Z 11007KT 7SM FEW002 SCT006 SCT013 BKN160 07/04 A3028 RMK AO2 SLP261 FG BANK W-NW T00670039 10072 20056 50001=
202001301721 SPECI KSEA 301721Z 16006KT 3SM BR FEW002 SCT006 SCT013 BKN160 06/05 A3028 RMK AO2 FG BANK W-NW T00610050=
202001301704 SPECI KSEA 301704Z 22003KT 2SM BR SCT006 SCT011 BKN030 OVC190 07/06 A3029 RMK AO2 FG BANK S-NW T00670056=
202001301653 METAR KSEA 301653Z 20003KT 2SM BR SCT006 BKN011 BKN030 OVC190 07/06 A3029 RMK AO2 SLP264 FG BANK S-SW T00670056=
202001301624 SPECI KSEA 301624Z 19004KT 2SM BR BKN005 BKN011 BKN025 OVC190 06/06 A3028 RMK AO2 VIS NW 3/4 T00610056=
202001301607 SPECI KSEA 301607Z 19003KT 2SM R16L/1800V6000FT BR FEW001 BKN011 OVC024 06/05 A3028 RMK AO2 VIS NW 1/2 T00610050=
202001301604 SPECI KSEA 301604Z 18004KT 3/4SM R16L/1800VP6000FT BR FEW001 OVC011 06/05 A3028 RMK AO2 TWR VIS 2 T00610050=
202001301555 SPECI KSEA 301555Z 18003KT 3/4SM R16L/P6000FT BR BKN011 06/06 A3027 RMK AO2 TWR VIS 2 T00610056=
202001301553 METAR KSEA 301553Z 18003KT 3SM BR BKN011 OVC190 06/06 A3028 RMK AO2 SLP261 VIS NW 1 T00610056=
202001301549 SPECI KSEA 301549Z 00000KT 3SM R16L/1600VP6000FT BR BKN010 OVC190 06/06 A3028 RMK AO2 VIS NW 1=
202001301510 SPECI KSEA 301510Z 16003KT 8SM FEW005 FEW011 SCT024 BKN190 07/06 A3027 RMK AO2 T00670056=
202001301453 METAR KSEA 301453Z 00000KT 5SM BR SCT005 BKN010 OVC024 07/06 A3028 RMK AO2 SLP261 T00670056 57007=
202001301430 SPECI KSEA 301430Z 21003KT 2SM BR BKN005 OVC010 07/06 A3027 RMK AO2 SFC VIS 4 T00670061=
202001301353 METAR KSEA 301353Z 13005KT 2SM BR OVC004 07/06 A3028 RMK AO2 SFC VIS 4 SLP260 T00670056=
202001301320 SPECI KSEA 301320Z 11007KT 2SM BR BKN002 07/06 A3028 RMK AO2 SFC VIS 4 T00670056=
202001301253 METAR KSEA 301253Z 14005KT 9SM SCT002 BKN028 06/06 A3030 RMK AO2 SLP268 T00610056=
202001301251 SPECI KSEA 301251Z 14005KT 9SM SCT002 BKN028 07/06 A3030 RMK AO2=
202001301153 METAR KSEA 301153Z 22006KT 3SM BR OVC002 07/06 A3030 RMK AO2 SLP269 70037 T00720061 10094 20072 53021=
202001301133 SPECI KSEA 301133Z 23003KT 1SM R16L/P6000FT BR OVC002 07/07 A3029 RMK AO2 T00720067=
202001301053 METAR KSEA 301053Z 20006KT 3SM BR BKN002 OVC007 07/07 A3028 RMK AO2 SLP260 T00720067=
202001300953 METAR KSEA 300953Z 18005KT 8SM BKN009 OVC013 08/07 A3026 RMK AO2 SLP254 T00830072=
202001300853 METAR KSEA 300853Z 18005KT 4SM BR BKN006 BKN014 OVC018 08/07 A3024 RMK AO2 SLP248 T00830072 53000=
202001300840 SPECI KSEA 300840Z 17004KT 3SM BR BKN006 BKN020 OVC036 08/07 A3024 RMK AO2 T00780072=
202001300753 METAR KSEA 300753Z 19003KT 6SM BR BKN004 BKN008 OVC036 08/07 A3024 RMK AO2 SLP248 T00830072 401060072=
202001300704 SPECI KSEA 300704Z 16003KT 7SM FEW004 BKN009 OVC023 09/08 A3023 RMK AO2 T00890078=
202001300653 METAR KSEA 300653Z 12004KT 6SM BR BKN012 BKN016 OVC030 09/08 A3023 RMK AO2 SLP243 T00890078=
202001300553 METAR KSEA 300553Z 10007KT 4SM BR FEW006 BKN015 09/08 A3024 RMK AO2 SLP247 60005 T00940078 10106 20089 51019=
202001300536 SPECI KSEA 300536Z 06007KT 020V100 5SM BR SCT005 OVC015 10/08 A3024 RMK AO2 T01000078=
202001300522 SPECI KSEA 300522Z 07006KT 4SM BR SCT007 OVC014 09/08 A3024 RMK AO2 T00890078=
202001300453 METAR KSEA 300453Z 04006KT 3SM BR OVC002 09/08 A3024 RMK AO2 SLP247 T00890083=
202001300439 SPECI KSEA 300439Z 03004KT 3SM BR OVC003 09/08 A3024 RMK AO2 T00890083=
202001300353 METAR KSEA 300353Z 00000KT 3SM R16L/5500VP6000FT BR SCT004 BKN009 OVC023 09/08 A3022 RMK AO2 DZE16 SLP240 P0000 T00940083=
202001300253 METAR KSEA 300253Z 19003KT 3SM -DZ BKN006 OVC017 09/08 A3018 RMK AO2 SLP228 P0000 60005 T00890078 51016=
202001300242 SPECI KSEA 300242Z 00000KT 5SM -DZ OVC005 09/08 A3018 RMK AO2 P0000 T00890078=
202001300211 SPECI KSEA 300211Z 00000KT 6SM -DZ OVC004 09/08 A3018 RMK AO2 P0000 T00940083=
202001300153 METAR KSEA 300153Z 00000KT 6SM -DZ SCT002 OVC007 09/08 A3018 RMK AO2 RAE27DZB27 SLP227 P0002 T00940083=
202001300108 SPECI KSEA 300108Z 02003KT 4SM -RA BR SCT003 OVC007 09/08 A3017 RMK AO2 P0001 T00940083=
202001300053 METAR KSEA 300053Z 00000KT 2SM -RA BR FEW003 BKN007 OVC013 09/08 A3017 RMK AO2 RAB04 SLP225 P0003 T00940083=
202001300043 SPECI KSEA 300043Z 00000KT 2SM R16L/6000VP6000FT -RA BR FEW003 BKN007 OVC012 10/08 A3017 RMK AO2 RAB04 P0002 T01000083=
202001300029 SPECI KSEA 300029Z 00000KT 2 1/2SM R16L/5500VP6000FT -RA BR OVC013 10/08 A3016 RMK AO2 RAB04 P0000 T01000078=
202001300021 SPECI KSEA 300021Z 00000KT 3SM R16L/5500VP6000FT -RA BR OVC013 10/08 A3016 RMK AO2 RAB04 P0000 T01000078=
202001292353 METAR KSEA 292353Z 00000KT 10SM BKN015 OVC100 10/08 A3014 RMK AO2 SLP212 60017 T01000078 10100 20078 53018=
202001292253 METAR KSEA 292253Z 18011KT 10SM SCT022 BKN120 BKN200 10/08 A3010 RMK AO2 SLP200 T01000078=
202001292207 SPECI KSEA 292207Z 20016KT 10SM FEW011 FEW016 OVC100 09/08 A3006 RMK AO2 T00940078=
202001292153 METAR KSEA 292153Z 20013KT 10SM SCT011 BKN019 BKN100 09/08 A3005 RMK AO2 RAE50 SLP184 P0001 T00940078=
202001292053 METAR KSEA 292053Z 16010KT 7SM -RA FEW011 BKN021 OVC029 09/07 A3008 RMK AO2 SLP194 P0003 60016 T00890072 58003=
202001292022 SPECI KSEA 292022Z 15007KT 7SM -RA FEW015 BKN029 OVC040 09/07 A3009 RMK AO2 P0002 T00890072=
202001291953 METAR KSEA 291953Z 16007KT 6SM -RA BR OVC030 08/07 A3009 RMK AO2 SLP197 P0006 T00830067=
202001291853 METAR KSEA 291853Z 13007KT 6SM -RA BR OVC031 08/06 A3009 RMK AO2 SLP198 P0007 T00830061=
202001291753 METAR KSEA 291753Z 14007KT 6SM -RA BR OVC033 08/06 A3009 RMK AO2 SLP197 P0007 60015 T00830061 10089 20072 56012=
202001291653 METAR KSEA 291653Z 14008KT 6SM -RA BR OVC041 08/06 A3009 RMK AO2 SLP197 P0004 T00780056=
202001291553 METAR KSEA 291553Z 15004KT 9SM -RA OVC060 07/06 A3011 RMK AO2 SLP205 P0002 T00720061=
202001291453 METAR KSEA 291453Z 17007KT 6SM -RA BR BKN050 OVC075 07/06 A3013 RMK AO2 RAB23 SLP209 P0002 60002 T00720056 56022=
202001291353 METAR KSEA 291353Z 17006KT 10SM SCT050 OVC090 08/06 A3014 RMK AO2 SLP215 T00780056=
202001291253 METAR KSEA 291253Z 16007KT 10SM FEW040 SCT075 OVC095 08/06 A3016 RMK AO2 SLP221 T00780056=
202001291153 METAR KSEA 291153Z 18006KT 10SM BKN040 OVC080 09/07 A3019 RMK AO2 SLP231 60000 70050 T00890067 10094 20089 58005=
202001291053 METAR KSEA 291053Z 20007KT 10SM SCT038 OVC090 09/07 A3021 RMK AO2 SLP238 T00890067=
202001290953 METAR KSEA 290953Z 18007KT 10SM BKN035 OVC045 09/07 A3021 RMK AO2 SLP237 T00890072=
202001290853 METAR KSEA 290853Z 18009KT 10SM SCT028 OVC034 09/07 A3021 RMK AO2 RAB31E40 SLP236 P0000 60000 T00890072 50002=
202001290753 METAR KSEA 290753Z 17006KT 10SM SCT023 BKN034 OVC045 09/07 A3021 RMK AO2 SLP237 T00890072 401170078=
202001290725 SPECI KSEA 290725Z 18006KT 10SM SCT028 BKN034 OVC045 09/07 A3021 RMK AO2 T00890072=
202001290653 METAR KSEA 290653Z 15006KT 10SM BKN026 OVC035 09/08 A3020 RMK AO2 SLP236 T00890078=
202001290553 METAR KSEA 290553Z 16007KT 10SM FEW007 BKN021 OVC029 09/08 A3020 RMK AO2 RAE14 SLP234 P0000 60007 T00940078 10100 20089 51012=
202001290453 METAR KSEA 290453Z 15008KT 4SM -RA BR SCT007 BKN019 OVC024 09/08 A3019 RMK AO2 SLP232 P0001 T00940078=
202001290413 SPECI KSEA 290413Z 15005KT 10SM -RA FEW004 BKN025 OVC030 09/08 A3019 RMK AO2 P0000 T00940078=
202001290353 METAR KSEA 290353Z 14005KT 10SM -RA SCT004 BKN014 OVC031 09/08 A3018 RMK AO2 SLP228 P0000 T00940083=
202001290341 SPECI KSEA 290341Z 17003KT 6SM -RA BR SCT004 BKN014 OVC031 09/08 A3018 RMK AO2 P0000 T00940083=
202001290253 METAR KSEA 290253Z 20005KT 9SM -RA FEW008 BKN018 OVC035 09/08 A3016 RMK AO2 RAB10 SLP222 P0005 60006 T00940083 53029=
202001290226 SPECI KSEA 290226Z 20006KT 3SM -RA BR FEW007 SCT013 OVC021 09/08 A3015 RMK AO2 RAB10 P0004 T00890083=
202001290153 METAR KSEA 290153Z 18006KT 10SM BKN023 OVC037 09/08 A3013 RMK AO2 RAB04E23 SLP212 P0001 T00940078=
202001290120 SPECI KSEA 290120Z 00000KT 6SM -RA BR BKN021 OVC026 09/08 A3012 RMK AO2 RAB04 P0000 T00940078=
202001290053 METAR KSEA 290053Z 20003KT 10SM SCT025 OVC035 10/08 A3011 RMK AO2 RAB23E50 SLP202 P0000 T01000078=
202001290006 SPECI KSEA 290006Z 20004KT 10SM FEW015 OVC028 10/08 A3008 RMK AO2 T01000078=
202001282353 METAR KSEA 282353Z 23004KT 10SM SCT018 OVC031 10/07 A3008 RMK AO2 SLP193 60002 T01000072 10117 20089 53024=
202001282330 SPECI KSEA 282330Z 20004KT 10SM FEW014 BKN030 11/07 A3007 RMK AO2 T01060067=
202001282253 METAR KSEA 282253Z 19010KT 10SM SCT014 BKN019 OVC031 12/08 A3004 RMK AO2 SLP180 T01170078=
202001282216 SPECI KSEA 282216Z 18007KT 10SM FEW018 BKN025 11/07 A3002 RMK AO2 T01060067=
202001282153 METAR KSEA 282153Z 18005KT 10SM FEW020 BKN030 11/07 A3002 RMK AO2 SLP171 T01060072=
202001282053 METAR KSEA 282053Z 21003KT 10SM FEW009 SCT031 SCT050 10/07 A3001 RMK AO2 RAE32 SLP169 P0000 60002 T01000072 51022=
202001281953 METAR KSEA 281953Z 20005KT 10SM -RA FEW009 BKN048 BKN075 09/07 A3000 RMK AO2 RAB12 SLP166 P0000 T00940072=
202001281913 SPECI KSEA 281913Z 17006KT 10SM -RA FEW008 BKN030 OVC046 09/07 A2999 RMK AO2 RAB12 P0000 T00940067=
202001281853 METAR KSEA 281853Z 16005KT 10SM FEW008 BKN027 OVC048 09/06 A2998 RMK AO2 RAB1755E47 SLP158 P0002 T00940061=
202001281845 SPECI KSEA 281845Z 16005KT 9SM -RA FEW008 BKN025 OVC048 09/06 A2998 RMK AO2 RAB1755 P0002 T00890061=
202001281753 METAR KSEA 281753Z VRB03KT 10SM FEW007 FEW020 OVC036 09/07 A2994 RMK AO2 RAE13 SLP146 P0001 60041 T00890067 10089 20078 53021=
202001281729 SPECI KSEA 281729Z 11007KT 10SM FEW006 SCT020 BKN034 08/07 A2993 RMK AO2 RAE13 P0001 T00830067=
202001281702 SPECI KSEA 281702Z 14003KT 7SM -RA FEW005 BKN018 OVC034 08/07 A2992 RMK AO2 P0001 T00830067=
202001281653 METAR KSEA 281653Z 16004KT 4SM -RA BR SCT005 BKN010 OVC027 08/07 A2992 RMK AO2 RAB05 SLP140 P0003 T00830072=
202001281646 SPECI KSEA 281646Z 20003KT 4SM -RA BR FEW007 BKN021 OVC027 08/07 A2992 RMK AO2 RAB05 P0002 T00830072=
202001281612 SPECI KSEA 281612Z 15004KT 7SM -RA SCT017 BKN026 OVC039 08/07 A2990 RMK AO2 RAB05 P0000 T00830067=
202001281553 METAR KSEA 281553Z 15010KT 10SM FEW017 BKN041 OVC050 08/07 A2989 RMK AO2 RAE52 SLP129 P0004 T00830067=
202001281453 METAR KSEA 281453Z 17008KT 5SM -RA BR FEW025 OVC036 08/06 A2988 RMK AO2 SLP126 P0019 60033 T00830061 53012=
202001281353 METAR KSEA 281353Z 20005KT 3SM -RA BR FEW027 OVC036 08/07 A2986 RMK AO2 RAB03 SLP119 P0014 T00830067=
202001281253 METAR KSEA 281253Z 12011KT 10SM FEW030 BKN085 09/06 A2984 RMK AO2 SLP111 T00890056=
202001281153 METAR KSEA 281153Z 12014KT 10SM SCT026 BKN032 08/07 A2984 RMK AO2 SLP113 60038 70078 T00830067 10094 20072 58008=
202001281140 SPECI KSEA 281140Z 11012KT 10SM SCT026 BKN032 08/07 A2985 RMK AO2 T00830067=
202001281053 METAR KSEA 281053Z 15009KT 10SM BKN022 BKN028 08/07 A2987 RMK AO2 SLP120 T00830072=
202001281033 SPECI KSEA 281033Z 13008KT 10SM BKN018 BKN027 08/07 A2987 RMK AO2 T00830072=
202001280953 METAR KSEA 280953Z 14013KT 10SM SCT013 BKN030 OVC050 08/07 A2987 RMK AO2 RAE30 SLP121 P0000 T00830072=
202001280853 METAR KSEA 280853Z 14009KT 7SM -RA FEW037 BKN046 OVC065 09/07 A2987 RMK AO2 SLP121 P0019 60038 T00890072 53004=
202001280753 METAR KSEA 280753Z 14008KT 3SM -RA BR BKN042 OVC050 09/07 A2987 RMK AO2 SLP120 P0007 T00890072 401060061=
202001280718 SPECI KSEA 280718Z 13009KT 10SM -RA FEW018 BKN034 OVC050 08/06 A2987 RMK AO2 P0000 T00780061=
202001280653 METAR KSEA 280653Z 12011KT 10SM -RA SCT016 BKN028 OVC034 08/06 A2986 RMK AO2 SLP117 P0012 T00780061=
202001280638 SPECI KSEA 280638Z VRB05KT 5SM RA BR FEW014 BKN028 OVC033 08/07 A2987 RMK AO2 P0010 T00780067=
202001280553 METAR KSEA 280553Z 13009KT 7SM -RA FEW026 FEW031 OVC045 07/06 A2986 RMK AO2 SLP118 P0011 60038 T00720056 10094 20072 58003=
202001280453 METAR KSEA 280453Z 13005KT 5SM -RA BR OVC032 08/06 A2987 RMK AO2 SLP121 P0005 T00780056=
202001280353 METAR KSEA 280353Z 16003KT 10SM -RA OVC037 07/05 A2986 RMK AO2 SLP120 P0002 T00720050=
202001280253 METAR KSEA 280253Z 11008KT 10SM -RA OVC036 07/04 A2987 RMK AO2 SLP121 P0005 60020 T00720044 58045=
202001280153 METAR KSEA 280153Z 09012KT 10SM -RA OVC040 08/05 A2992 RMK AO2 SLP140 P0008 T00780050=
202001280053 METAR KSEA 280053Z 10007KT 7SM -RA OVC034 08/04 A2997 RMK AO2 SLP158 P0007 T00830044=
202001272353 METAR KSEA 272353Z 19010KT 10SM -RA BKN045 OVC070 09/04 A3000 RMK AO2 RAB22 SLP166 P0001 60001 T00940039 10106 20083 56037=
202001272253 METAR KSEA 272253Z 12008KT 10SM FEW045 OVC075 11/03 A3002 RMK AO2 SLP172 T01060028=
202001272153 METAR KSEA 272153Z 12006KT 10SM FEW020 OVC100 10/02 A3007 RMK AO2 SLP190 T01000022=
202001272053 METAR KSEA 272053Z 13006KT 10SM FEW015 SCT080 BKN140 10/03 A3011 RMK AO2 SLP204 T01000033 58020=
202001271953 METAR KSEA 271953Z 14006KT 10SM FEW002 FEW030 BKN180 10/03 A3014 RMK AO2 SLP214 T01000033=
202001271853 METAR KSEA 271853Z 17005KT 10SM FEW009 FEW030 BKN180 09/04 A3017 RMK AO2 SLP222 T00940044=
202001271753 METAR KSEA 271753Z 16006KT 10SM FEW009 FEW030 BKN250 08/04 A3017 RMK AO2 SLP225 60001 T00830044 10094 20061 55001=
202001271653 METAR KSEA 271653Z 14008KT 10SM FEW009 FEW030 SCT200 07/04 A3017 RMK AO2 RAE38 SLP224 P0000 T00720044=
202001271611 SPECI KSEA 271611Z 15009KT 10SM -RA FEW007 SCT029 BKN090 07/05 A3017 RMK AO2 P0000 T00670050=
202001271553 METAR KSEA 271553Z 17010KT 10SM -RA FEW015 BKN028 BKN044 06/04 A3018 RMK AO2 RAB1454E15B53 SLP227 P0001 T00610044=
202001271532 SPECI KSEA 271532Z 17007KT 10SM FEW015 BKN028 OVC044 07/04 A3018 RMK AO2 RAB1454E15 P0001 T00670044=
202001271453 METAR KSEA 271453Z 21007KT 10SM SCT030 BKN047 OVC090 07/04 A3018 RMK AO2 RAB41E51 SLP226 P0000 60000 T00720039 53009=
202001271353 METAR KSEA 271353Z 20013KT 10SM FEW021 SCT120 07/04 A3016 RMK AO2 SLP219 T00720044=
202001271253 METAR KSEA 271253Z 20012KT 10SM FEW021 SCT120 07/04 A3015 RMK AO2 SLP217 T00670044=
202001271216 SPECI KSEA 271216Z 19010KT 10SM FEW021 BKN120 07/04 A3015 RMK AO2 T00670044=
202001271153 METAR KSEA 271153Z 17008KT 10SM BKN023 BKN028 BKN120 07/04 A3015 RMK AO2 RAE04 SLP217 P0000 60000 70011 T00670044 10089 20067 50012=
202001271151 SPECI KSEA 271151Z 17009KT 10SM BKN023 BKN028 BKN120 07/04 A3015 RMK AO2 RAE04 P0000=
202001271105 SPECI KSEA 271105Z 20012KT 10SM FEW017 BKN036 OVC047 07/04 A3014 RMK AO2 RAE04 P0000 T00720044=
202001271053 METAR KSEA 271053Z 20009KT 7SM -RA SCT017 BKN026 OVC035 08/05 A3014 RMK AO2 RAB39 SLP215 P0000 T00780050=
202001271040 SPECI KSEA 271040Z 20008KT 9SM -RA BKN024 OVC035 08/04 A3014 RMK AO2 RAB39 P0000 T00780044=
202001270953 METAR KSEA 270953Z 18009KT 10SM FEW015 BKN032 OVC038 08/05 A3011 RMK AO2 RAB0855E08 SLP204 P0000 T00780050=
202001270853 METAR KSEA 270853Z 20016KT 10SM FEW015 SCT050 BKN065 08/06 A3010 RMK AO2 SLP199 T00780056 51018=
202001270846 SPECI KSEA 270846Z 19012KT 10SM FEW015 SCT029 BKN085 08/06 A3009 RMK AO2 T00780056=
202001270800 SPECI KSEA 270800Z 18010KT 10SM BKN025 BKN037 OVC045 08/06 A3009 RMK AO2 T00830056=
202001270753 METAR KSEA 270753Z 18012KT 10SM SCT025 BKN035 OVC043 08/06 A3008 RMK AO2 SLP194 T00830056 401220083=
202001270723 SPECI KSEA 270723Z 19011KT 10SM SCT025 BKN033 OVC043 08/06 A3008 RMK AO2 T00830056=
202001270653 METAR KSEA 270653Z 19012G20KT 10SM FEW017 OVC024 08/06 A3007 RMK AO2 SLP190 T00830056=
202001270607 SPECI KSEA 270607Z 19012KT 10SM BKN019 BKN024 OVC028 09/06 A3005 RMK AO2 T00890061=
202001270553 METAR KSEA 270553Z 18012KT 10SM FEW015 OVC033 08/06 A3004 RMK AO2 RAB0455E03 SLP180 P0000 60002 T00830061 10111 20083 53019=
202001270500 SPECI KSEA 270500Z 18009KT 10SM -RA FEW015 FEW027 OVC040 08/06 A3002 RMK AO2 RAB0455 P0000 T00830061=
202001270453 METAR KSEA 270453Z 18010KT 10SM FEW015 BKN026 OVC040 08/07 A3002 RMK AO2 RAE50 SLP172 P0002 T00830067=
202001270441 SPECI KSEA 270441Z 19010KT 8SM -RA SCT013 BKN026 OVC036 08/07 A3001 RMK AO2 P0002 T00830067=
202001270353 METAR KSEA 270353Z 19011KT 10SM -RA BKN037 OVC046 09/04 A3000 RMK AO2 RAB13E24B51 SLP165 P0000 T00940044=
202001270253 METAR KSEA 270253Z 15012KT 10SM BKN055 OVC070 10/04 A2999 RMK AO2 RAE51 SLP161 P0000 60000 T01000044 58004=
202001270153 METAR KSEA 270153Z 17010KT 10SM -RA BKN060 BKN075 OVC085 10/04 A2999 RMK AO2 RAB53 SLP163 P0000 T01000044=
202001270053 METAR KSEA 270053Z 17006KT 10SM FEW046 BKN055 OVC080 10/06 A3000 RMK AO2 RAB17E34 SLP166 P0000 T01000056=
202001262353 METAR KSEA 262353Z 21007KT 10SM FEW043 SCT065 BKN085 11/04 A3000 RMK AO2 SLP165 T01110044 10122 20100 55003=
202001262253 METAR KSEA 262253Z 21008KT 10SM FEW020 BKN060 11/05 A2999 RMK AO2 SLP163 T01110050=
202001262153 METAR KSEA 262153Z 20012KT 10SM FEW020 BKN060 BKN070 12/06 A2999 RMK AO2 SLP164 T01170056=
202001262053 METAR KSEA 262053Z 20013G19KT 10SM FEW020 BKN050 BKN060 12/06 A3001 RMK AO2 SLP168 T01170061 50008=
202001261953 METAR KSEA 261953Z 20010KT 10SM FEW018 SCT047 BKN055 11/06 A3002 RMK AO2 SLP172 T01060061=
202001261853 METAR KSEA 261853Z 19013KT 10SM BKN018 BKN027 BKN043 10/07 A3002 RMK AO2 SLP173 T01000067=
202001261753 METAR KSEA 261753Z 20010KT 10SM SCT014 BKN020 OVC055 10/07 A2998 RMK AO2 SLP160 60009 T01000072 10100 20089 53035=
202001261653 METAR KSEA 261653Z 18010KT 10SM SCT016 BKN025 OVC060 09/08 A2995 RMK AO2 RAE08 SLP148 P0002 T00940078=
202001261553 METAR KSEA 261553Z 22018G24KT 4SM R16L/6000VP6000FT -RA BR SCT010 BKN021 OVC033 09/08 A2991 RMK AO2 PK WND 19026/1537 RAB34 SLP134 P0001 T00940078=
202001261453 METAR KSEA 261453Z 18013KT 10SM BKN017 BKN022 OVC029 10/08 A2988 RMK AO2 SLP124 60006 T01000078 51027=
202001261353 METAR KSEA 261353Z 17008KT 10SM SCT014 BKN042 09/08 A2985 RMK AO2 RAE24 SLP116 P0004 T00940078=
202001261334 SPECI KSEA 261334Z 17012G19KT 10SM SCT016 SCT028 BKN037 10/08 A2984 RMK AO2 RAE24 P0004 T01000078=
202001261253 METAR KSEA 261253Z 16009KT 6SM -RA BR FEW016 BKN022 OVC030 09/08 A2982 RMK AO2 SLP106 P0002 T00890078=
202001261153 METAR KSEA 261153Z 14009KT 10SM -RA BKN035 OVC047 09/07 A2979 RMK AO2 SLP096 P0006 60024 70032 T00890072 10106 20083 53004=
202001261053 METAR KSEA 261053Z 22006KT 6SM -RA BR OVC045 08/07 A2977 RMK AO2 SLP090 P0011 T00830072=
202001260953 METAR KSEA 260953Z 11009KT 7SM -RA OVC055 09/06 A2973 RMK AO2 SLP073 P0006 T00940061=
202001260853 METAR KSEA 260853Z 11008KT 7SM -RA BKN050 OVC065 09/06 A2978 RMK AO2 RAB19 SLP092 P0001 60001 T00890056 58015=
202001260753 METAR KSEA 260753Z 15004KT 10SM OVC090 09/06 A2978 RMK AO2 SLP093 T00890056 401110078=
202001260653 METAR KSEA 260653Z 16005KT 10SM BKN110 09/06 A2983 RMK AO2 SLP109 T00890056=
202001260553 METAR KSEA 260553Z 04007KT 10SM FEW020 OVC120 09/07 A2982 RMK AO2 SLP107 T00890067 10106 20083 56040=
202001260453 METAR KSEA 260453Z 29004KT 10SM FEW020 OVC150 08/07 A2987 RMK AO2 SLP123 T00830072=
202001260353 METAR KSEA 260353Z 02007KT 10SM OVC150 09/07 A2989 RMK AO2 SLP130 T00940072=
202001260253 METAR KSEA 260253Z 02005KT 10SM SCT050 BKN170 09/08 A2994 RMK AO2 SLP147 T00890078 58022=
202001260153 METAR KSEA 260153Z 09005KT 10SM FEW022 BKN050 BKN200 09/07 A2998 RMK AO2 SLP158 T00940072=
202001260053 METAR KSEA 260053Z 00000KT 10SM FEW010 FEW022 BKN035 BKN160 10/08 A3000 RMK AO2 SLP166 T01000078=
202001260039 SPECI KSEA 260039Z 00000KT 10SM FEW015 BKN035 BKN160 10/08 A3001 RMK AO2 T01000078=
202001252353 METAR KSEA 252353Z 00000KT 10SM FEW003 BKN020 BKN034 10/09 A3001 RMK AO2 SLP170 60001 T01000089 10111 20089 53001=
202001252323 SPECI KSEA 252323Z 24007KT 7SM SCT005 BKN014 OVC022 10/09 A3001 RMK AO2 T01000089=
202001252253 METAR KSEA 252253Z 24006KT 6SM BR FEW009 BKN023 BKN045 11/09 A3000 RMK AO2 SLP167 T01060089=
202001252200 SPECI KSEA 252200Z 20008KT 10SM SCT005 BKN022 BKN044 11/09 A2999 RMK AO2 T01110094=
202001252153 METAR KSEA 252153Z 20008KT 5SM BR BKN005 OVC024 11/09 A2999 RMK AO2 SLP164 T01060094=
202001252053 METAR KSEA 252053Z 18004KT 7SM OVC006 10/09 A3001 RMK AO2 SLP169 60001 T01000089 51009=
202001251953 METAR KSEA 251953Z 18004KT 3SM BR OVC007 09/08 A3000 RMK AO2 RAE22 SLP166 P0001 T00940083=
202001251948 SPECI KSEA 251948Z 16004KT 3SM BR OVC005 09/08 A3000 RMK AO2 RAE22 P0001=
202001251922 SPECI KSEA 251922Z 16004KT 2SM BR BKN005 OVC010 09/08 A2999 RMK AO2 RAE22 P0001 T00890078=
202001251902 SPECI KSEA 251902Z 16005KT 2SM -RA BR FEW007 OVC012 09/07 A2998 RMK AO2 P0000 T00890072=
202001251853 METAR KSEA 251853Z VRB04KT 5SM -RA BR OVC012 09/07 A2998 RMK AO2 RAB52 SLP160 P0000 T00890067=
202001251815 SPECI KSEA 251815Z 07005KT 10SM OVC014 09/06 A2997 RMK AO2 T00890061=
202001251753 METAR KSEA 251753Z 11004KT 10SM OVC015 09/06 A2996 RMK AO2 SLP154 60007 T00890061 10094 20078 53016=
202001251653 METAR KSEA 251653Z VRB03KT 10SM BKN023 OVC027 09/06 A2993 RMK AO2 RAB1556E12 SLP143 P0000 T00890061=
202001251615 SPECI KSEA 251615Z 11005KT 10SM OVC031 08/06 A2991 RMK AO2 RAB1556E12 P0000 T00830061=
202001251553 METAR KSEA 251553Z 00000KT 10SM FEW023 OVC029 08/06 A2992 RMK AO2 RAE24 SLP138 P0000 T00830056=
202001251548 SPECI KSEA 251548Z 16004KT 10SM OVC029 08/06 A2992 RMK AO2 RAE24 P0000=
202001251453 METAR KSEA 251453Z 09009KT 10SM -RA OVC033 08/06 A2990 RMK AO2 SLP133 P0002 60007 T00830056 56006=
202001251353 METAR KSEA 251353Z 00000KT 10SM -RA FEW040 OVC046 08/06 A2991 RMK AO2 SLP134 P0003 T00780061=
202001251253 METAR KSEA 251253Z 00000KT 9SM -RA OVC044 08/07 A2991 RMK AO2 SLP135 P0002 T00780067=
202001251153 METAR KSEA 251153Z 13004KT 10SM -RA FEW036 OVC055 08/07 A2992 RMK AO2 SLP139 P0006 60008 70037 T00780067 10100 20078 55012=
202001251053 METAR KSEA 251053Z 17005KT 9SM -RA SCT037 OVC050 08/07 A2992 RMK AO2 RAB10E28B44 SLP138 P0002 T00830067=
202001250953 METAR KSEA 250953Z 14006KT 10SM BKN055 BKN070 BKN110 OVC190 08/07 A2993 RMK AO2 SLP143 T00830067=
202001250853 METAR KSEA 250853Z 11007KT 10SM BKN050 OVC190 09/07 A2996 RMK AO2 SLP151 60000 T00890072 57017=
202001250753 METAR KSEA 250753Z 13006KT 10SM FEW030 SCT070 BKN190 09/07 A2997 RMK AO2 SLP156 T00890072 401110089=
202001250653 METAR KSEA 250653Z 12006KT 10SM SCT030 BKN070 OVC190 09/08 A2999 RMK AO2 RAB0554E50 SLP163 P0000 T00940078=
202001250553 METAR KSEA 250553Z 13006KT 10SM SCT006 SCT028 OVC036 09/08 A3001 RMK AO2 RAE52 SLP168 P0005 60019 T00940083 10094 20089 50002=
202001250542 SPECI KSEA 250542Z 14006KT 7SM -RA FEW007 BKN030 OVC050 09/08 A3001 RMK AO2 P0005 T00940083=
202001250453 METAR KSEA 250453Z 20005KT 5SM -RA BR FEW006 BKN022 OVC036 09/08 A3001 RMK AO2 SLP170 P0002 T00940083=
202001250439 SPECI KSEA 250439Z 19007KT 8SM -RA FEW008 BKN022 OVC037 09/08 A3001 RMK AO2 P0001 T00940083=
202001250353 METAR KSEA 250353Z 15010KT 10SM -RA FEW013 BKN025 OVC085 09/08 A3001 RMK AO2 SLP168 P0002 T00890078=
202001250328 SPECI KSEA 250328Z 18005KT 10SM -RA SCT017 BKN026 OVC080 09/08 A3001 RMK AO2 P0002 T00940083=
202001250253 METAR KSEA 250253Z 16004KT 3SM RA BR FEW024 OVC036 09/08 A3000 RMK AO2 SLP166 P0007 60010 T00890083 53006=
202001250153 METAR KSEA 250153Z 20006KT 8SM -RA FEW020 BKN038 09/08 A2999 RMK AO2 RAE01B18E28B34 SLP164 P0002 T00940083=
202001250053 METAR KSEA 250053Z 19012KT 10SM -RA FEW020 SCT036 BKN060 09/08 A2998 RMK AO2 RAE28B51 SLP159 P0001 T00940078=
202001242353 METAR KSEA 242353Z 23008KT 7SM -RA FEW019 BKN034 BKN050 09/08 A2998 RMK AO2 SLP160 P0006 60010 T00940078 10111 20094 53006=
202001242316 SPECI KSEA 242316Z 26009KT 3SM -RA BR FEW016 BKN032 OVC044 09/07 A2998 RMK AO2 P0004 T00940072=
202001242302 SPECI KSEA 242302Z 23014G23KT 3SM RA BR FEW016 BKN027 OVC038 10/08 A2998 RMK AO2 P0002 T01000078=
202001242253 METAR KSEA 242253Z 22015G21KT 7SM -RA FEW018 SCT027 OVC047 10/08 A2997 RMK AO2 RAE10B49 SLP157 P0002 T01000078=
202001242216 SPECI KSEA 242216Z 21011KT 10SM FEW019 BKN039 BKN075 11/08 A2996 RMK AO2 RAE10 P0002 T01060083=
202001242153 METAR KSEA 242153Z 21014KT 7SM -RA SCT016 BKN027 OVC041 11/08 A2996 RMK AO2 RAB01E42B50 SLP153 P0001 T01060078=
202001242142 SPECI KSEA 242142Z 20014G21KT 10SM SCT016 BKN025 BKN043 11/08 A2996 RMK AO2 RAB01E42 P0001 T01110083=
202001242053 METAR KSEA 242053Z 21010G19KT 10SM FEW015 SCT025 OVC034 11/07 A2996 RMK AO2 RAE32 SLP154 P0001 60001 T01060072 51019=
202001242041 SPECI KSEA 242041Z 21012KT 10SM FEW015 SCT028 OVC039 11/07 A2997 RMK AO2 RAE32 P0001 T01060072=
202001241953 METAR KSEA 241953Z 20012KT 10SM -RA FEW012 BKN025 OVC047 11/08 A2996 RMK AO2 RAB46 SLP152 P0000 T01060078=
202001241853 METAR KSEA 241853Z 20015G20KT 10SM FEW012 BKN028 BKN040 10/08 A2993 RMK AO2 RAB1758E28 SLP144 P0000 T01000083=
202001241753 METAR KSEA 241753Z 18009KT 10SM FEW012 SCT022 BKN033 10/08 A2991 RMK AO2 RAE1659B19E39 SLP135 P0000 60000 T01000083 10106 20094 53006=
202001241747 SPECI KSEA 241747Z 17009KT 10SM FEW012 SCT022 BKN034 10/08 A2990 RMK AO2 RAE1659B19E39 P0000=
202001241732 SPECI KSEA 241732Z 17011KT 10SM -RA FEW012 BKN022 OVC038 10/08 A2990 RMK AO2 RAE1659B19 P0000 T01000078=
202001241653 METAR KSEA 241653Z 18010KT 10SM -RA FEW012 BKN040 OVC055 10/07 A2989 RMK AO2 RAB46 SLP129 P0000 T01000072=
202001241553 METAR KSEA 241553Z 17008KT 10SM FEW012 BKN034 OVC050 09/08 A2989 RMK AO2 RAB25E36 SLP128 P0000 T00940078=
202001241539 SPECI KSEA 241539Z 17008KT 10SM FEW012 BKN032 OVC045 09/08 A2989 RMK AO2 RAB25E36 P0000 T00940078=
202001241504 SPECI KSEA 241504Z 14007KT 10SM FEW015 BKN024 OVC041 10/08 A2989 RMK AO2 T01000078=
202001241453 METAR KSEA 241453Z 16006KT 10SM FEW014 SCT025 OVC043 10/08 A2989 RMK AO2 SLP127 60000 T01000078 51015=
202001241353 METAR KSEA 241353Z 17010KT 10SM FEW013 SCT037 SCT050 09/08 A2988 RMK AO2 SLP125 T00940078=
202001241324 SPECI KSEA 241324Z 19009KT 10SM FEW013 BKN040 BKN060 10/08 A2987 RMK AO2 T01000083=
202001241253 METAR KSEA 241253Z 19012KT 10SM BKN013 BKN021 10/08 A2987 RMK AO2 RAE1158 SLP119 P0000 T01000083=
202001241153 METAR KSEA 241153Z 18008KT 5SM -RA BR FEW010 BKN023 OVC030 10/09 A2984 RMK AO2 SLP112 P0006 60034 70114 T01000089 10117 20094 53010=
202001241113 SPECI KSEA 241113Z 21004KT 7SM -RA FEW011 BKN022 OVC036 10/09 A2984 RMK AO2 P0002 T01000089=
202001241053 METAR KSEA 241053Z 19005KT 7SM -RA FEW019 BKN034 OVC046 10/09 A2984 RMK AO2 SLP110 P0010 T01000089=
202001241031 SPECI KSEA 241031Z 21009KT 5SM RA BR FEW010 BKN028 OVC040 10/09 A2984 RMK AO2 P0005 T01000089=
202001241027 SPECI KSEA 241027Z 23012G17KT 2 1/2SM +RA BR FEW010 BKN028 OVC042 10/08 A2984 RMK AO2 P0004 T01000083=
202001240953 METAR KSEA 240953Z 15007KT 9SM -RA FEW034 SCT041 OVC049 10/08 A2981 RMK AO2 SLP102 P0002 T01000083=
202001240853 METAR KSEA 240853Z 17007KT 9SM -RA FEW030 OVC040 10/08 A2981 RMK AO2 RAE0754B33 SLP102 P0000 60016 T01000083 58010=
202001240753 METAR KSEA 240753Z 13007KT 10SM -RA BKN049 OVC065 10/08 A2984 RMK AO2 SLP109 P0008 T01000083 401280094=
202001240653 METAR KSEA 240653Z 13007KT 6SM -RA BR OVC050 10/09 A2985 RMK AO2 SLP113 P0008 T01000089=
202001240553 METAR KSEA 240553Z 14008KT 9SM -RA OVC049 11/09 A2984 RMK AO2 RAE0455B11 SLP112 P0001 60019 T01060089 10122 20106 50000=
202001240453 METAR KSEA 240453Z 13010KT 10SM -RA OVC060 11/09 A2984 RMK AO2 SLP111 P0001 T01110089=
202001240353 METAR KSEA 240353Z 14013KT 10SM -RA OVC070 11/09 A2985 RMK AO2 RAE11B52 SLP116 P0001 T01110094=
202001240253 METAR KSEA 240253Z 14018KT 8SM -RA BKN055 OVC075 12/09 A2984 RMK AO2 PRESFR SLP112 P0007 60016 T01170094 58017=
202001240153 METAR KSEA 240153Z 16011KT 6SM -RA BR OVC055 12/10 A2989 RMK AO2 SLP128 P0006 T01170100=
202001240053 METAR KSEA 240053Z 17011KT 10SM -RA SCT033 OVC049 12/10 A2990 RMK AO2 SLP131 P0003 T01220100=
202001232353 METAR KSEA 232353Z 16008KT 6SM -RA BR SCT042 OVC049 12/11 A2989 RMK AO2 RAE03B40 SLP129 P0001 60020 T01220106 10128 20111 56010=
202001232253 METAR KSEA 232253Z 16008KT 4SM -RA BR BKN030 OVC040 12/11 A2990 RMK AO2 RAE08B24 SLP131 P0002 T01220106=
202001232219 SPECI KSEA 232219Z 16008KT 10SM BKN030 BKN041 OVC048 12/11 A2990 RMK AO2 RAE08 P0000 T01220106=
202001232153 METAR KSEA 232153Z 15010KT 9SM -RA FEW020 OVC029 12/11 A2991 RMK AO2 RAB2054 SLP134 P0002 T01220106=
202001232053 METAR KSEA 232053Z 15011G18KT 10SM FEW007 BKN029 OVC045 12/11 A2992 RMK AO2 RAE43 SLP139 P0004 60015 T01220106 58008=
202001231959 SPECI KSEA 231959Z 17006KT 3SM -RA BR FEW008 BKN028 OVC035 12/11 A2994 RMK AO2 P0000 T01170106=
202001231953 METAR KSEA 231953Z 18007KT 3SM -RA BR FEW008 BKN034 OVC046 12/11 A2994 RMK AO2 SLP145 P0007 T01170106=
202001231853 METAR KSEA 231853Z 15012KT 7SM -RA FEW008 BKN033 OVC045 12/10 A2995 RMK AO2 SLP149 P0004 T01170100=
202001231753 METAR KSEA 231753Z 15014G18KT 7SM -RA FEW007 SCT047 OVC065 11/10 A2995 RMK AO2 SLP149 P0004 60041 T01110100 10128 20106 50009=
202001231723 SPECI KSEA 231723Z 14013KT 7SM -RA FEW007 SCT016 OVC065 11/10 A2995 RMK AO2 P0003 T01110100=
202001231653 METAR KSEA 231653Z 17005KT 3SM -RA BR FEW007 BKN018 OVC025 11/10 A2997 RMK AO2 SLP155 P0015 T01060100=
202001231553 METAR KSEA 231553Z 27007KT 4SM -RA BR BKN025 OVC032 11/09 A2995 RMK AO2 SLP150 P0011 T01060094=
202001231544 SPECI KSEA 231544Z 24004KT 4SM RA BR BKN025 OVC034 11/10 A2995 RMK AO2 P0009 T01110100=
202001231453 METAR KSEA 231453Z 15010KT 9SM -RA FEW030 BKN044 OVC065 12/09 A2992 RMK AO2 SLP140 P0006 60011 T01170094 58008=
202001231415 SPECI KSEA 231415Z 16009KT 8SM -RA FEW015 OVC030 12/09 A2994 RMK AO2 P0003 T01170094=
202001231353 METAR KSEA 231353Z 16007KT 9SM -RA OVC028 11/09 A2993 RMK AO2 SLP144 P0004 T01110094=
202001231347 SPECI KSEA 231347Z 17007KT 10SM -RA OVC028 11/09 A2994 RMK AO2 P0004=
202001231253 METAR KSEA 231253Z 18008KT 10SM -RA OVC030 12/09 A2995 RMK AO2 RAB35 SLP149 P0001 T01170089=
202001231153 METAR KSEA 231153Z 18011KT 10SM SCT031 BKN048 OVC060 13/08 A2995 RMK AO2 SLP148 60005 70025 T01280083 10128 20089 58006=
202001231053 METAR KSEA 231053Z 18011KT 10SM OVC034 11/09 A2996 RMK AO2 SLP152 T01110089=
202001230953 METAR KSEA 230953Z 19009KT 10SM FEW028 BKN034 OVC100 11/09 A2996 RMK AO2 RAE06 SLP152 P0000 T01060089=
202001230853 METAR KSEA 230853Z 17008KT 8SM -RA SCT034 OVC050 10/09 A2996 RMK AO2 SLP154 P0003 60005 T01000089 58003=
202001230753 METAR KSEA 230753Z 16009KT 10SM -RA BKN038 OVC070 10/08 A2997 RMK AO2 RAB11E26B31 SLP156 P0002 T01000083 401000067=
202001230729 SPECI KSEA 230729Z 16008KT 10SM SCT028 BKN046 OVC080 09/08 A2997 RMK AO2 RAB11E26 P0001 T00940078=
202001230653 METAR KSEA 230653Z 15010KT 10SM OVC028 10/07 A2998 RMK AO2 SLP158 T01000072=
202001230553 METAR KSEA 230553Z 15007KT 10SM OVC027 09/07 A2997 RMK AO2 SLP156 60001 T00890072 10100 20083 56002=
202001230453 METAR KSEA 230453Z 15008KT 10SM OVC029 09/07 A2997 RMK AO2 SLP157 T00940072=
202001230353 METAR KSEA 230353Z 16004KT 10SM OVC027 09/07 A2997 RMK AO2 SLP158 T00890072=
202001230253 METAR KSEA 230253Z 16006KT 10SM OVC023 08/07 A2998 RMK AO2 RAE34 SLP159 P0000 60001 T00830072 53008=
202001230153 METAR KSEA 230153Z 15009KT 10SM -RA BKN024 OVC028 08/07 A2996 RMK AO2 SLP154 P0000 T00830067=
202001230053 METAR KSEA 230053Z 14007KT 10SM -RA OVC024 08/06 A2996 RMK AO2 SLP152 P0001 T00830061=
202001222353 METAR KSEA 222353Z 12007KT 10SM -RA OVC024 08/06 A2995 RMK AO2 SLP150 P0000 60014 T00830061 10083 20072 56006=
202001222253 METAR KSEA 222253Z 11009KT 10SM -RA OVC025 08/06 A2995 RMK AO2 SLP151 P0002 T00780056=
202001222211 SPECI KSEA 222211Z 11009KT 10SM -RA BKN025 OVC034 08/06 A2995 RMK AO2 P0001 T00780056=
202001222153 METAR KSEA 222153Z 11008KT 7SM -RA FEW025 BKN034 OVC046 08/06 A2996 RMK AO2 SLP153 P0004 T00780056=
202001222053 METAR KSEA 222053Z 09008KT 7SM -RA FEW025 BKN036 OVC042 07/06 A2997 RMK AO2 SLP157 P0005 60008 T00720056 58019=
202001221953 METAR KSEA 221953Z 11007KT 7SM -RA FEW025 BKN038 OVC055 08/06 A3000 RMK AO2 SLP166 P0002 T00780056=
202001221853 METAR KSEA 221853Z 11008KT 9SM -RA FEW024 BKN046 OVC055 07/05 A3001 RMK AO2 SLP171 P0001 T00720050=
202001221753 METAR KSEA 221753Z VRB04KT 10SM -RA FEW023 OVC034 08/05 A3003 RMK AO2 SLP176 P0001 60005 T00780050 10078 20067 51007=
202001221653 METAR KSEA 221653Z 14005KT 10SM -RA FEW012 BKN034 OVC046 07/05 A3002 RMK AO2 SLP175 P0003 T00720050=
202001221553 METAR KSEA 221553Z 18007KT 10SM -RA FEW015 OVC036 07/05 A3002 RMK AO2 RAB19 SLP172 P0001 T00670050=
202001221453 METAR KSEA 221453Z 17008KT 10SM FEW013 FEW036 OVC075 07/04 A3001 RMK AO2 RAE28 SLP169 P0000 60000 T00670044 50006=
202001221353 METAR KSEA 221353Z 19010KT 9SM -RA SCT012 BKN036 OVC055 07/05 A3001 RMK AO2 RAB41 SLP171 P0000 T00670050=
202001221253 METAR KSEA 221253Z 17009KT 10SM FEW030 BKN180 07/04 A3000 RMK AO2 SLP167 T00720039=
202001221153 METAR KSEA 221153Z 18009KT 10SM FEW040 BKN180 07/04 A2999 RMK AO2 SLP163 60002 70049 T00720039 10078 20072 50013=
202001221053 METAR KSEA 221053Z 18014KT 10SM BKN030 BKN050 08/04 A3000 RMK AO2 SLP165 T00780039=
202001220953 METAR KSEA 220953Z 18012KT 10SM FEW040 SCT200 07/03 A2998 RMK AO2 SLP159 T00720033=
202001220853 METAR KSEA 220853Z 18014G21KT 10SM FEW040 07/04 A2995 RMK AO2 SLP150 60002 T00720039 53015=
202001220753 METAR KSEA 220753Z 18016G22KT 10SM FEW034 SCT043 07/04 A2993 RMK AO2 SLP143 T00720039 401170072=
202001220653 METAR KSEA 220653Z 18016G21KT 10SM FEW023 SCT029 BKN039 07/04 A2991 RMK AO2 RAE14 SLP136 P0002 T00720039=
202001220644 SPECI KSEA 220644Z 18012G20KT 10SM SCT027 BKN039 BKN060 08/04 A2991 RMK AO2 RAE14 P0002 T00780044=
202001220553 METAR KSEA 220553Z 25011KT 4SM RA BR FEW009 OVC015 07/06 A2990 RMK AO2 SLP134 P0007 60032 T00720056 10078 20072 53032=
202001220535 SPECI KSEA 220535Z 21012KT 6SM -RA SCT008 OVC017 08/05 A2989 RMK AO2 P0003 T00780050=
202001220453 METAR KSEA 220453Z 21015G22KT 7SM -RA FEW015 BKN023 OVC028 07/06 A2987 RMK AO2 SLP122 P0011 T00720056=
202001220353 METAR KSEA 220353Z 21007G19KT 5SM -RA BR SCT016 OVC028 07/05 A2983 RMK AO2 SLP111 P0007 T00720050=
202001220253 METAR KSEA 220253Z 18015G22KT 10SM -RA OVC035 08/04 A2981 RMK AO2 RAB25 SLP101 P0001 60007 T00780044 51010=
202001220153 METAR KSEA 220153Z 17012G20KT 10SM FEW026 BKN050 OVC130 07/04 A2980 RMK AO2 PK WND 17027/0124 RAE0058 SLP098 P0000 T00720039=
202001220053 METAR KSEA 220053Z 18014G21KT 8SM -RA SCT023 OVC032 07/04 A2979 RMK AO2 SLP096 P0006 T00720044=
202001220036 SPECI KSEA 220036Z 18013G21KT 7SM -RA SCT023 OVC030 07/04 A2979 RMK AO2 P0004 T00720044=
202001212353 METAR KSEA 212353Z 19013G24KT 10SM -RA BKN026 OVC037 08/04 A2978 RMK AO2 PK WND 19027/2335 RAB02 SLP092 P0003 60004 T00780044 10106 20078 53017=
202001212341 SPECI KSEA 212341Z 18014G27KT 10SM -RA BKN026 OVC031 08/04 A2977 RMK AO2 PK WND 19027/2335 RAB02 P0002 T00780044=
202001212253 METAR KSEA 212253Z 18014KT 10SM BKN037 OVC050 08/04 A2975 RMK AO2 RAB37E51 SLP081 P0000 T00830044=
202001212153 METAR KSEA 212153Z 18018G27KT 10SM SCT024 BKN032 BKN200 08/04 A2973 RMK AO2 PK WND 21034/2121 RAE44 SLP074 P0000 T00830039=
202001212139 SPECI KSEA 212139Z 19019G28KT 10SM -RA SCT024 BKN032 BKN045 08/04 A2973 RMK AO2 PK WND 21034/2121 P0000 T00830039=
202001212126 SPECI KSEA 212126Z 20019G34KT 10SM -RA BKN027 OVC039 08/04 A2973 RMK AO2 PK WND 21034/2121 P0000 T00830039=
202001212053 METAR KSEA 212053Z 20017G26KT 10SM -RA BKN033 OVC050 08/04 A2973 RMK AO2 PK WND 19028/2034 SLP073 P0001 60001 T00830039 53003=
202001211953 METAR KSEA 211953Z 19011KT 10SM -RA OVC041 10/03 A2972 RMK AO2 SLP070 P0000 T01000033=
202001211853 METAR KSEA 211853Z 17010KT 10SM -RA BKN048 OVC070 10/03 A2972 RMK AO2 RAB52 SLP071 P0000 T01000028=
202001211753 METAR KSEA 211753Z 15011KT 10SM BKN048 BKN080 10/04 A2972 RMK AO2 SLP070 60011 T01000039 10100 20072 51012=
202001211653 METAR KSEA 211653Z 16013KT 10SM SCT043 SCT200 09/03 A2971 RMK AO2 RAB07E17 SLP068 P0000 T00890033=
202001211553 METAR KSEA 211553Z 17014KT 10SM BKN039 OVC046 08/04 A2970 RMK AO2 RAB03E28 SLP065 P0000 T00830044=
202001211453 METAR KSEA 211453Z 17012KT 10SM OVC039 08/05 A2968 RMK AO2 RAE05 SLP058 P0000 60011 T00830050 53018=
202001211353 METAR KSEA 211353Z 18014KT 10SM -RA FEW035 OVC041 09/06 A2966 RMK AO2 SLP050 P0005 T00890056=
202001211253 METAR KSEA 211253Z 17007KT 6SM -RA BR OVC045 08/06 A2965 RMK AO2 SLP046 P0006 T00780056=
202001211153 METAR KSEA 211153Z 12006KT 7SM -RA OVC050 07/06 A2963 RMK AO2 SLP040 P0002 60003 70003 T00720056 10117 20072 50006=
202001211053 METAR KSEA 211053Z 12004KT 10SM -RA OVC050 09/04 A2963 RMK AO2 RAB24 SLP040 P0001 T00890044=
202001210953 METAR KSEA 210953Z 26003KT 10SM OVC080 08/05 A2964 RMK AO2 SLP044 T00780050=
202001210853 METAR KSEA 210853Z 12014KT 10SM BKN080 OVC095 11/00 A2961 RMK AO2 SLP033 T01110000 58031=
202001210753 METAR KSEA 210753Z 12011KT 10SM BKN110 OVC150 11/01 A2965 RMK AO2 SLP046 T01110006 401170067=
202001210653 METAR KSEA 210653Z 12010KT 10SM SCT100 OVC150 11/01 A2967 RMK AO2 SLP055 T01110011=
202001210553 METAR KSEA 210553Z VRB06KT 10SM FEW100 OVC140 11/01 A2970 RMK AO2 SLP065 T01110011 10111 20078 58024=
202001210453 METAR KSEA 210453Z 12006KT 10SM BKN110 OVC180 11/02 A2974 RMK AO2 SLP077 T01060017=
202001210353 METAR KSEA 210353Z 16004KT 10SM FEW120 OVC180 11/03 A2975 RMK AO2 SLP082 T01060028=
202001210253 METAR KSEA 210253Z 13007KT 10SM FEW120 SCT160 BKN200 10/03 A2978 RMK AO2 SLP090 T01000033 58019=
202001210153 METAR KSEA 210153Z 00000KT 10SM BKN120 OVC160 08/06 A2980 RMK AO2 SLP098 T00830056=
202001210053 METAR KSEA 210053Z 00000KT 10SM SCT100 BKN160 BKN220 08/06 A2982 RMK AO2 SLP106 T00830056=
202001202353 METAR KSEA 202353Z 00000KT 10SM FEW070 BKN100 OVC200 10/06 A2983 RMK AO2 SLP109 T01000056 10111 20089 56021=
202001202253 METAR KSEA 202253Z 05003KT 10SM FEW070 BKN090 OVC200 11/05 A2985 RMK AO2 SLP114 T01110050=
202001202153 METAR KSEA 202153Z 27005KT 10SM FEW055 BKN110 OVC200 10/06 A2988 RMK AO2 SLP124 T01000056=
202001202053 METAR KSEA 202053Z 31003KT 10SM FEW042 BKN055 OVC250 11/04 A2990 RMK AO2 SLP129 T01110044 58016=
202001201953 METAR KSEA 201953Z 29003KT 10SM BKN042 BKN090 BKN250 11/05 A2992 RMK AO2 SLP139 T01060050=
202001201853 METAR KSEA 201853Z 29005KT 10SM BKN041 BKN060 BKN250 09/04 A2995 RMK AO2 SLP148 T00940044=
202001201753 METAR KSEA 201753Z 00000KT 10SM BKN037 OVC060 10/03 A2994 RMK AO2 SLP146 60000 T01000033 10100 20067 58004=
202001201653 METAR KSEA 201653Z 25003KT 10SM OVC039 09/04 A2997 RMK AO2 SLP154 T00890044=
202001201553 METAR KSEA 201553Z 31003KT 10SM OVC040 08/04 A2997 RMK AO2 RAE1455 SLP154 P0000 T00780044=
202001201453 METAR KSEA 201453Z 14004KT 10SM -RA BKN037 OVC065 08/04 A2995 RMK AO2 RAB38 SLP151 P0000 60000 T00830039 50003=
202001201353 METAR KSEA 201353Z 16004KT 10SM OVC048 08/04 A2997 RMK AO2 SLP154 T00830044=
202001201253 METAR KSEA 201253Z 15006KT 10SM BKN060 OVC085 07/06 A2995 RMK AO2 SLP149 T00720056=
202001201153 METAR KSEA 201153Z 19005KT 10SM OVC085 07/06 A2994 RMK AO2 SLP147 70003 T00670056 10117 20067 55000=
202001201053 METAR KSEA 201053Z 26004KT 10SM FEW070 SCT090 OVC100 08/05 A2993 RMK AO2 SLP144 T00780050=
202001200953 METAR KSEA 200953Z 15008KT 10SM BKN120 OVC150 10/01 A2994 RMK AO2 SLP146 T01000006=
202001200853 METAR KSEA 200853Z 13012KT 10SM OVC150 12/00 A2995 RMK AO2 SLP146 T01170000 58014=
202001200753 METAR KSEA 200753Z 12012KT 10SM OVC150 12/01 A2996 RMK AO2 SLP153 T01170006 401220067=
202001200653 METAR KSEA 200653Z 11012KT 10SM OVC170 11/01 A2998 RMK AO2 SLP160 T01110011=
202001200553 METAR KSEA 200553Z 12013KT 10SM BKN180 12/02 A2999 RMK AO2 SLP161 T01170017 10122 20106 56006=
202001200453 METAR KSEA 200453Z 12014KT 10SM FEW150 BKN250 12/02 A2999 RMK AO2 SLP162 T01170022=
202001200353 METAR KSEA 200353Z 14009KT 10SM BKN170 12/02 A3000 RMK AO2 SLP165 T01170022=
202001200253 METAR KSEA 200253Z 12008KT 10SM FEW090 BKN200 11/03 A3001 RMK AO2 SLP168 T01110028 56027=
202001200153 METAR KSEA 200153Z 10009KT 10SM FEW050 FEW100 SCT250 12/04 A3001 RMK AO2 SLP169 T01170039=
202001200053 METAR KSEA 200053Z 09012KT 10SM FEW050 FEW100 SCT250 12/04 A3004 RMK AO2 SLP179 T01170044=
202001192353 METAR KSEA 192353Z 05006KT 10SM FEW050 BKN100 BKN250 11/07 A3009 RMK AO2 SLP195 60003 T01110072 10122 20089 58023=
202001192253 METAR KSEA 192253Z 03005KT 10SM SCT065 BKN080 12/07 A3011 RMK AO2 SLP204 T01170072=
202001192153 METAR KSEA 192153Z 00000KT 10SM OVC042 11/08 A3013 RMK AO2 SLP211 T01060083=
202001192053 METAR KSEA 192053Z 11006KT 10SM FEW017 BKN037 OVC045 11/06 A3016 RMK AO2 RAB01E44 SLP219 P0000 60003 T01110056 58018=
202001191953 METAR KSEA 191953Z 12007KT 10SM FEW017 BKN035 OVC055 11/05 A3019 RMK AO2 RAE1857B31E53 SLP232 P0000 T01060050=
202001191853 METAR KSEA 191853Z 09004KT 7SM -RA BKN038 OVC047 10/04 A3021 RMK AO2 SLP239 P0003 T01000044=
202001191753 METAR KSEA 191753Z VRB05KT 10SM -RA SCT042 BKN049 OVC060 10/04 A3021 RMK AO2 RAB49 SLP237 P0000 60000 T01000039 10111 20078 55001=
202001191653 METAR KSEA 191653Z 11010KT 10SM SCT040 BKN055 09/02 A3020 RMK AO2 SLP235 T00940022=
202001191553 METAR KSEA 191553Z VRB06KT 10SM BKN040 OVC049 10/02 A3020 RMK AO2 SLP235 T01000017=
202001191453 METAR KSEA 191453Z 12009KT 10SM FEW041 OVC060 08/02 A3021 RMK AO2 SLP238 T00830017 56014=
202001191353 METAR KSEA 191353Z 14006KT 10SM OVC038 08/02 A3022 RMK AO2 SLP241 T00830017=
202001191253 METAR KSEA 191253Z 11010KT 10SM SCT041 OVC049 08/01 A3023 RMK AO2 SLP246 T00830011=
202001191153 METAR KSEA 191153Z 11010KT 10SM BKN044 OVC050 08/01 A3025 RMK AO2 SLP252 70020 T00780011 10083 20067 58004=
202001191053 METAR KSEA 191053Z 12006KT 10SM OVC037 08/02 A3026 RMK AO2 SLP256 T00780017=
202001190953 METAR KSEA 190953Z 12006KT 10SM BKN036 OVC044 08/02 A3026 RMK AO2 SLP253 T00780017=
202001190853 METAR KSEA 190853Z 12004KT 10SM SCT042 OVC050 08/02 A3027 RMK AO2 SLP256 T00780017 58001=
202001190753 METAR KSEA 190753Z 15005KT 10SM BKN050 OVC100 07/02 A3027 RMK AO2 SLP259 T00720017 401060039=
202001190653 METAR KSEA 190653Z 11009KT 10SM BKN050 OVC110 08/01 A3027 RMK AO2 SLP258 T00780011=
202001190553 METAR KSEA 190553Z 12011KT 10SM SCT060 SCT110 BKN200 07/02 A3027 RMK AO2 SLP258 T00720017 10106 20072 51011=
202001190453 METAR KSEA 190453Z 13007KT 10SM SCT045 BKN060 BKN110 08/03 A3026 RMK AO2 SLP255 T00780028=
202001190353 METAR KSEA 190353Z 13008KT 10SM FEW024 BKN034 BKN045 BKN200 09/03 A3025 RMK AO2 SLP254 T00940033=
202001190253 METAR KSEA 190253Z 16008KT 10SM FEW024 BKN040 BKN200 09/04 A3023 RMK AO2 SLP246 T00890044 51017=
202001190153 METAR KSEA 190153Z 15007KT 10SM FEW030 BKN038 BKN200 09/05 A3022 RMK AO2 SLP241 T00940050=
202001190053 METAR KSEA 190053Z 17007KT 10SM SCT030 BKN048 BKN200 09/06 A3020 RMK AO2 SLP236 T00890056=
202001182353 METAR KSEA 182353Z 18007KT 10SM SCT039 BKN050 BKN140 OVC230 10/06 A3018 RMK AO2 RAE17 SLP229 P0000 60000 T01000056 10106 20056 51017=
202001182253 METAR KSEA 182253Z 20012KT 10SM -RA BKN042 BKN060 OVC140 10/06 A3017 RMK AO2 RAB12 SLP225 P0000 T01000061=
202001182153 METAR KSEA 182153Z 18008KT 10SM FEW041 SCT085 BKN140 11/06 A3015 RMK AO2 SLP219 T01060056=
202001182053 METAR KSEA 182053Z 18011KT 10SM SCT041 OVC150 08/06 A3013 RMK AO2 RAB06E16 SLP213 P0000 60000 T00830056 50007=
202001181953 METAR KSEA 181953Z 19009KT 10SM OVC045 08/05 A3014 RMK AO2 SLP213 T00780050=
202001181853 METAR KSEA 181853Z 15007KT 10SM OVC037 06/03 A3014 RMK AO2 SLP214 T00610028=
202001181753 METAR KSEA 181753Z 10006KT 10SM OVC040 06/02 A3011 RMK AO2 SLP205 60020 T00560022 10056 20039 53023=
202001181653 METAR KSEA 181653Z 08005KT 10SM OVC037 05/03 A3009 RMK AO2 RAE44 SLP197 P0001 T00500028=
202001181553 METAR KSEA 181553Z 09006KT 8SM -RA OVC038 05/03 A3006 RMK AO2 SLP188 P0001 T00500028=
202001181453 METAR KSEA 181453Z 10006KT 10SM -RA OVC038 04/03 A3004 RMK AO2 SLP183 P0002 60018 T00440028 53001=
202001181438 SPECI KSEA 181438Z 11004KT 9SM -RA OVC036 04/03 A3004 RMK AO2 P0002 T00440028=
202001181353 METAR KSEA 181353Z 09009KT 6SM -RA BR OVC028 04/02 A3003 RMK AO2 SLP179 P0006 T00390022=
202001181253 METAR KSEA 181253Z 11008KT 6SM -RA BR OVC028 04/02 A3003 RMK AO2 SLP178 P0010 T00440022=
202001181153 METAR KSEA 181153Z 10014KT 7SM -RA OVC028 04/02 A3004 RMK AO2 SLP182 P0007 60016 70016 T00390017 10050 20039 58012=
202001181053 METAR KSEA 181053Z 10014KT 10SM -RA FEW030 OVC044 04/02 A3005 RMK AO2 SLP184 P0002 T00440017=
202001181016 SPECI KSEA 181016Z 10012KT 10SM -RA FEW029 OVC036 04/02 A3006 RMK AO2 P0002 T00390017=
202001180953 METAR KSEA 180953Z 11011KT 7SM -RA OVC028 04/01 A3007 RMK AO2 SLP192 P0004 T00390011=
202001180941 SPECI KSEA 180941Z 11012KT 7SM -RA OVC028 04/01 A3007 RMK AO2 P0003 T00390011=
202001180853 METAR KSEA 180853Z 10009KT 7SM -RA OVC032 04/00 A3008 RMK AO2 SLP194 P0001 60003 T00440000 58012=
202001180753 METAR KSEA 180753Z 13005KT 7SM -RA OVC032 04/00 A3010 RMK AO2 SLP202 P0001 T00440000 400560000=
202001180653 METAR KSEA 180653Z 11007KT 10SM -RA OVC032 04/M01 A3010 RMK AO2 SLP203 P0001 T00441011=
202001180553 METAR KSEA 180553Z 09009KT 10SM -RA OVC037 05/M02 A3011 RMK AO2 RAB53 SLP205 P0000 60000 T00501017 10050 20044 56014=
202001180453 METAR KSEA 180453Z 11009KT 10SM BKN055 OVC070 04/M02 A3012 RMK AO2 SLP210 T00441022=
202001180353 METAR KSEA 180353Z 10009KT 10SM OVC060 04/M02 A3014 RMK AO2 SLP214 T00441017=
202001180253 METAR KSEA 180253Z 15011KT 10SM BKN065 OVC090 05/M01 A3015 RMK AO2 SLP220 60000 T00501011 58008=
202001180153 METAR KSEA 180153Z 11008KT 10SM SCT055 OVC110 05/M01 A3016 RMK AO2 SLP223 T00501006=
202001180053 METAR KSEA 180053Z 13004KT 10SM SCT049 BKN070 BKN110 05/M01 A3017 RMK AO2 RAB24E34 SLP226 P0000 T00501006=
202001172353 METAR KSEA 172353Z 17004KT 10SM FEW033 BKN050 OVC060 04/01 A3018 RMK AO2 RAE29 SLP228 P0000 60000 T00440006 10056 20028 53006=
202001172253 METAR KSEA 172253Z 17009KT 10SM -RA FEW027 BKN043 OVC095 05/M01 A3017 RMK AO2 RAB51 SLP224 P0000 T00501006=
202001172153 METAR KSEA 172153Z 15005KT 10SM FEW012 BKN034 BKN100 06/M01 A3016 RMK AO2 SLP221 T00561011=
202001172053 METAR KSEA 172053Z 16006KT 10SM FEW015 BKN036 OVC050 05/M02 A3016 RMK AO2 SLP222 T00501017 51007=
202001171953 METAR KSEA 171953Z 00000KT 10SM FEW015 BKN047 OVC090 04/M01 A3016 RMK AO2 SLP221 T00441011=
202001171853 METAR KSEA 171853Z 16007KT 10SM FEW015 BKN090 BKN250 03/M02 A3017 RMK AO2 SLP224 T00281017=
202001171753 METAR KSEA 171753Z 14005KT 10SM FEW011 SCT048 BKN100 03/M01 A3014 RMK AO2 SLP215 T00281011 10028 20000 53021=
202001171653 METAR KSEA 171653Z VRB03KT 10SM FEW013 BKN048 OVC100 03/M01 A3011 RMK AO2 SLP206 T00281011=
202001171553 METAR KSEA 171553Z 00000KT 10SM FEW011 BKN046 BKN110 01/M02 A3009 RMK AO2 SLP200 T00111017=
202001171453 METAR KSEA 171453Z 00000KT 10SM FEW011 OVC120 01/M01 A3007 RMK AO2 SLP193 T00111011 52023=
202001171353 METAR KSEA 171353Z 13006KT 10SM FEW011 FEW040 BKN120 01/M01 A3005 RMK AO2 SLP185 T00111011=
202001171253 METAR KSEA 171253Z 20007KT 10SM FEW040 BKN140 01/M01 A3003 RMK AO2 SLP178 T00061011=
202001171153 METAR KSEA 171153Z 19007KT 10SM FEW011 SCT150 01/M01 A3000 RMK AO2 SLP169 T00111011 10028 20006 51028=
202001171053 METAR KSEA 171053Z 18008KT 10SM FEW011 02/M01 A2998 RMK AO2 SLP161 T00171006=
202001171006 SPECI KSEA 171006Z 19007KT 10SM FEW011 SCT036 02/00 A2996 RMK AO2 T00170000=
202001170953 METAR KSEA 170953Z 19008KT 10SM BKN011 BKN036 02/00 A2995 RMK AO2 SLP152 T00220000=
202001170853 METAR KSEA 170853Z 20009KT 10SM BKN011 BKN017 02/00 A2992 RMK AO2 SLP140 T00220000 52028=
202001170826 SPECI KSEA 170826Z 18010KT 10SM BKN011 OVC017 02/01 A2990 RMK AO2 T00220006=
202001170806 SPECI KSEA 170806Z 17007KT 10SM SCT014 BKN025 BKN047 02/00 A2989 RMK AO2 T00220000=
202001170753 METAR KSEA 170753Z 17006KT 10SM FEW014 SCT026 BKN047 02/00 A2989 RMK AO2 SLP131 T00220000 400720017=
202001170712 SPECI KSEA 170712Z 19008KT 10SM SCT008 BKN044 BKN055 02/01 A2987 RMK AO2 T00220006=
202001170653 METAR KSEA 170653Z 17009KT 10SM BKN010 BKN045 OVC055 03/01 A2986 RMK AO2 SLP120 T00280006=
202001170621 SPECI KSEA 170621Z 16007KT 10SM BKN010 OVC065 02/00 A2984 RMK AO2 T00220000=
202001170553 METAR KSEA 170553Z 19005KT 10SM FEW012 SCT070 02/00 A2983 RMK AO2 SLP111 T00170000 10061 20017 53021=
202001170453 METAR KSEA 170453Z 19008KT 10SM BKN060 03/M01 A2980 RMK AO2 SLP101 T00281006=
202001170353 METAR KSEA 170353Z 18009KT 10SM BKN060 03/00 A2979 RMK AO2 SLP097 T00330000=
202001170253 METAR KSEA 170253Z 18007KT 10SM BKN055 03/00 A2977 RMK AO2 SLP090 T00330000 51023=
202001170153 METAR KSEA 170153Z 26003KT 10SM SCT042 BKN065 03/00 A2975 RMK AO2 SLP082 T00280000=
202001170053 METAR KSEA 170053Z 25011G16KT 10SM FEW055 BKN080 06/M02 A2972 RMK AO2 SLP074 T00561022=
202001162353 METAR KSEA 162353Z 20008KT 10SM FEW035 SCT050 SCT250 06/M03 A2970 RMK AO2 SLP065 SHRA W T00611028 10072 20044 53008=
202001162253 METAR KSEA 162253Z 21010KT 10SM FEW034 SCT050 SCT250 07/M03 A2969 RMK AO2 SLP062 T00671033=
202001162153 METAR KSEA 162153Z 21009KT 10SM FEW032 SCT045 SCT250 07/M03 A2968 RMK AO2 SLP057 T00721028=
202001162053 METAR KSEA 162053Z 24008KT 10SM SCT032 BKN040 BKN250 07/M01 A2968 RMK AO2 SLP057 T00671011 50003=
202001161953 METAR KSEA 161953Z 21010KT 10SM FEW011 BKN038 BKN250 07/M01 A2968 RMK AO2 SLP058 T00721006=
202001161853 METAR KSEA 161853Z 15008KT 10SM FEW007 SCT150 SCT250 06/01 A2969 RMK AO2 SLP063 T00560011=
202001161753 METAR KSEA 161753Z 15009KT 10SM FEW007 FEW034 BKN150 BKN250 04/01 A2967 RMK AO2 SLP053 60000 T00440011 10050 20022 53017=
202001161653 METAR KSEA 161653Z 15011KT 10SM FEW007 FEW055 BKN130 03/01 A2964 RMK AO2 SLP047 T00330011=
202001161553 METAR KSEA 161553Z 14010KT 10SM FEW007 FEW055 OVC140 03/01 A2963 RMK AO2 SLP043 T00280006=
202001161453 METAR KSEA 161453Z 13011KT 10SM BKN055 OVC160 03/01 A2962 RMK AO2 SLP037 60000 T00280006 53013=
202001161353 METAR KSEA 161353Z 19010KT 10SM BKN046 BKN060 OVC080 05/02 A2960 RMK AO2 RAE07 SLP032 P0000 T00500022 $=
202001161313 SPECI KSEA 161313Z 18007KT 10SM FEW024 BKN033 OVC055 04/01 A2958 RMK AO2 RAE07 P0000 T00390011 $=
202001161253 METAR KSEA 161253Z 13011KT 10SM -RA FEW021 BKN026 OVC050 03/M01 A2959 RMK AO2 RAB21E32B51 SLP027 P0000 T00331011 $=
202001161153 METAR KSEA 161153Z 14006KT 10SM OVC029 04/M02 A2958 RMK AO2 SLP024 70001 T00441022 10078 20044 51019 $=
202001161142 SPECI KSEA 161142Z 16005KT 10SM OVC028 04/M02 A2958 RMK AO2 T00441022 $=
202001161053 METAR KSEA 161053Z 11008KT 10SM OVC031 05/M02 A2957 RMK AO2 SLP021 T00501022 $=
202001160953 METAR KSEA 160953Z 16008KT 10SM OVC031 06/01 A2955 RMK AO2 SLP014 T00610006 $=
202001160853 METAR KSEA 160853Z 17013KT 10SM OVC032 07/00 A2952 RMK AO2 SLP006 T00670000 51031 $=
202001160753 METAR KSEA 160753Z 18011KT 10SM SCT039 SCT047 BKN150 07/M01 A2950 RMK AO2 PK WND 18028/0712 SLP999 T00721006 400780000 $=
202001160653 METAR KSEA 160653Z 18017G28KT 10SM FEW080 BKN150 OVC200 08/M01 A2946 RMK AO2 PK WND 14029/0608 SLP985 T00781006 $=
202001160553 METAR KSEA 160553Z 14013G19KT 10SM FEW080 BKN160 OVC220 06/M03 A2943 RMK AO2 SLP974 T00611028 10061 20033 53004 $=
202001160453 METAR KSEA 160453Z 11010KT 10SM FEW080 BKN140 04/M04 A2942 RMK AO2 SLP970 T00441044 $=
202001160353 METAR KSEA 160353Z 11013KT 10SM FEW080 OVC200 04/M06 A2941 RMK AO2 SLP969 T00391056 $=
202001160253 METAR KSEA 160253Z 11013KT 10SM BKN055 OVC200 04/M06 A2942 RMK AO2 SLP970 T00391061 55007 $=
202001160153 METAR KSEA 160153Z 11015KT 10SM OVC050 04/M06 A2942 RMK AO2 PK WND 12027/0131 SLP970 T00391056 $=
202001160053 METAR KSEA 160053Z 12016KT 10SM FEW020 OVC060 04/M04 A2940 RMK AO2 PK WND 12027/0040 SLP965 T00391044 $=
202001152353 METAR KSEA 152353Z 11015KT 10SM FEW018 OVC050 03/M04 A2944 RMK AO2 SLP977 60001 T00331039 10033 20011 56052 $=
202001152303 SPECI KSEA 152303Z 08012KT 10SM SCT015 OVC050 02/M02 A2947 RMK AO2 PRESFR T00221017 $=
202001152253 METAR KSEA 152253Z 09013KT 7SM BKN013 OVC050 02/M02 A2948 RMK AO2 SNE53 PRESFR SLP993 P0001 T00171017=
202001152243 SPECI KSEA 152243Z 10013KT 3SM R16L/5500VP6000FT -SN BKN012 OVC050 02/M02 A2950 RMK AO2 P0001 T00171017 $=
202001152233 SPECI KSEA 152233Z 09012G23KT 1/2SM R16L/3500VP6000FT SN VV012 02/M02 A2951 RMK AO2 PRESFR P0001 T00171017 $=
202001152225 SPECI KSEA 152225Z 09017G23KT 1/2SM R16L/P6000FT SN VV015 03/M03 A2952 RMK AO2 P0000 T00281033 $=
202001152224 SPECI KSEA 152224Z 09014G22KT 1/2SM R16L/P6000FT SN VV016 03/M03 A2952 RMK AO2 P0000 T00281033 $=
202001152159 SPECI KSEA 152159Z 09009KT 3SM -SN OVC024 03/M03 A2954 RMK AO2 P0000 T00281033 $=
202001152153 METAR KSEA 152153Z 09009KT 2SM -SN OVC024 03/M03 A2954 RMK AO2 SNB31 SLP013 P0000 T00281033 $=
202001152141 SPECI KSEA 152141Z 08013G19KT 2SM -SN BKN016 OVC028 03/M04 A2954 RMK AO2 SNB31 P0000 T00281044=
202001152128 SPECI KSEA 152128Z 08014G21KT 10SM BKN023 OVC031 03/M06 A2955 RMK AO2 PRESFR T00331061=
202001152053 METAR KSEA 152053Z 09012G21KT 10SM OVC042 03/M07 A2959 RMK AO2 PRESFR SLP030 T00331067 58059=
202001151953 METAR KSEA 151953Z 09015KT 10SM OVC055 03/M07 A2967 RMK AO2 SLP058 T00281072=
202001151853 METAR KSEA 151853Z 11013KT 10SM FEW055 BKN090 OVC160 02/M07 A2975 RMK AO2 SLP085 T00171072=
202001151753 METAR KSEA 151753Z 12011KT 10SM FEW055 SCT120 OVC160 01/M07 A2977 RMK AO2 SLP091 T00111072 10028 20000 58033=
202001151653 METAR KSEA 151653Z 12010KT 10SM FEW055 SCT180 OVC250 01/M08 A2982 RMK AO2 SLP106 T00061078=
202001151553 METAR KSEA 151553Z 12016KT 10SM SCT055 BKN210 00/M08 A2984 RMK AO2 SLP114 T00001078=
202001151453 METAR KSEA 151453Z 13014KT 10SM CLR 02/M07 A2987 RMK AO2 SLP125 T00171072 56023=
202001151353 METAR KSEA 151353Z 17017KT 10SM FEW030 SCT050 02/M06 A2989 RMK AO2 PK WND 18026/1330 SLP133 T00221061=
202001151253 METAR KSEA 151253Z 18017G21KT 10SM OVC050 03/M06 A2991 RMK AO2 SLP138 T00281056=
202001151153 METAR KSEA 151153Z 17011KT 10SM FEW037 BKN050 02/M05 A2994 RMK AO2 SLP148 70001 T00221050 10028 20011 58013=
202001151053 METAR KSEA 151053Z 18014G20KT 10SM OVC038 02/M05 A2996 RMK AO2 SLP155 T00221050=
202001150953 METAR KSEA 150953Z 17015KT 10SM BKN049 02/M05 A2997 RMK AO2 SLP158 T00171050=
202001150853 METAR KSEA 150853Z 19015G23KT 10SM SCT040 BKN050 02/M04 A2998 RMK AO2 SLP161 T00171044 50008=
202001150753 METAR KSEA 150753Z 17015KT 10SM FEW035 SCT060 01/M04 A2998 RMK AO2 PK WND 18027/0701 SLP162 T00111044 400221022=
202001150653 METAR KSEA 150653Z 18015G27KT 10SM BKN060 02/M04 A2997 RMK AO2 PK WND 18027/0644 SLP157 T00171039=
202001150553 METAR KSEA 150553Z 18018G27KT 10SM BKN060 OVC150 02/M03 A2995 RMK AO2 PK WND 18028/0539 SLP153 T00171033 10017 20006 56013=
202001150453 METAR KSEA 150453Z 18014G22KT 10SM BKN055 OVC065 01/M03 A2996 RMK AO2 SLP156 T00111033=
202001150353 METAR KSEA 150353Z 18010KT 10SM FEW030 SCT042 OVC048 01/M03 A2998 RMK AO2 SLP162 T00111028=
202001150253 METAR KSEA 150253Z 18010KT 10SM SCT024 BKN055 OVC075 01/M03 A2999 RMK AO2 SLP167 T00061028 51004=
202001150153 METAR KSEA 150153Z 17012KT 10SM BKN018 BKN200 01/M03 A2998 RMK AO2 SLP164 T00061028=
202001150143 SPECI KSEA 150143Z 17011KT 10SM BKN021 BKN200 01/M03 A2999 RMK AO2 T00061033=
202001150053 METAR KSEA 150053Z 22011G18KT 10SM FEW018 SCT035 BKN200 01/M04 A2999 RMK AO2 SLP167 T00111039=
202001142353 METAR KSEA 142353Z 21013G19KT 10SM FEW017 SCT037 BKN046 02/M04 A2998 RMK AO2 WSHFT 2315 SLP161 60001 T00171039 10022 21011 51013=
202001142335 SPECI KSEA 142335Z 23011KT 10SM FEW017 SCT035 BKN045 02/M05 A2998 RMK AO2 WSHFT 2315 T00171050=
202001142253 METAR KSEA 142253Z 06006KT 10SM FEW016 BKN038 BKN046 01/M02 A2997 RMK AO2 SLP161 T00111022=
202001142237 SPECI KSEA 142237Z 03004KT 10SM SCT014 BKN038 BKN046 00/M03 A2997 RMK AO2 T00001028=
202001142153 METAR KSEA 142153Z 04006KT 10SM SCT008 BKN025 BKN042 01/M03 A2995 RMK AO2 SLP152 T00061028=
202001142140 SPECI KSEA 142140Z 04004KT 10SM BKN008 BKN035 BKN060 00/M02 A2995 RMK AO2 T00001022=
202001142129 SPECI KSEA 142129Z 00000KT 10SM FEW007 SCT020 BKN035 00/M03 A2995 RMK AO2 T00001028=
202001142053 METAR KSEA 142053Z 01006KT 8SM SCT007 BKN020 OVC047 M01/M02 A2994 RMK AO2 SNE51 SLP149 SHSN W-N P0001 60001 T10061022 51024=
202001142046 SPECI KSEA 142046Z 36005KT 7SM -SN FEW005 BKN018 BKN030 M01/M02 A2993 RMK AO2 P0001 T10061022=
202001141953 METAR KSEA 141953Z 03007KT 6SM R16L/6000VP6000FT -SN BR BKN007 OVC014 M01/M03 A2992 RMK AO2 SLP141 P0000 T10111028=
202001141928 SPECI KSEA 141928Z 29004KT 5SM -SN BR BKN005 OVC012 00/M02 A2991 RMK AO2 P0000 T00001022=
202001141853 METAR KSEA 141853Z 29005KT 5SM -SN BR FEW008 BKN013 OVC018 00/M02 A2990 RMK AO2 SNB43 SLP136 P0000 T00001022=
202001141753 METAR KSEA 141753Z 23012G22KT 10SM FEW008 BKN013 OVC026 01/M03 A2987 RMK AO2 SLP124 60000 T00061028 10006 21022 53012=
202001141653 METAR KSEA 141653Z 16007KT 10SM FEW008 BKN013 OVC022 M01/M03 A2985 RMK AO2 SLP118 T10111028=
202001141645 SPECI KSEA 141645Z 15007KT 10SM FEW008 BKN013 OVC022 M01/M03 A2985 RMK AO2 T10111033=
202001141553 METAR KSEA 141553Z 14007KT 10SM FEW008 BKN015 OVC023 M02/M04 A2983 RMK AO2 SLP113 T10171039=
202001141453 METAR KSEA 141453Z 06003KT 10SM FEW007 OVC017 M02/M04 A2983 RMK AO2 SLP112 60000 T10171039 53004=
202001141353 METAR KSEA 141353Z 06005KT 10SM SCT007 OVC021 M02/M04 A2983 RMK AO2 SNB20E33 SLP111 P0000 T10221039=
202001141253 METAR KSEA 141253Z 03005KT 10SM BKN007 OVC030 M02/M04 A2982 RMK AO2 SNE02 SLP108 P0000 T10221039=
202001141153 METAR KSEA 141153Z 03007KT 2SM -SN BR BKN006 OVC030 M02/M04 A2982 RMK AO2 SFC VIS 6 SLP108 P0000 60001 70009 T10221039 11011 21022 51008=
202001141053 METAR KSEA 141053Z 03008KT 2SM -SN BR BKN005 OVC037 M02/M04 A2982 RMK AO2 SFC VIS 3 SLP106 P0000 T10221039=
202001141000 SPECI KSEA 141000Z 03008KT 2SM -SN BR BKN006 BKN010 OVC025 M02/M03 A2980 RMK AO2 SFC VIS 6 P0000 T10171033=
202001140953 METAR KSEA 140953Z 04008KT 2SM -SN BR SCT006 BKN010 BKN025 M02/M03 A2980 RMK AO2 SFC VIS 5 SLP101 P0000 T10171033=
202001140919 SPECI KSEA 140919Z 04008KT 2SM -SN BR SCT006 BKN010 OVC025 M02/M03 A2980 RMK AO2 SFC VIS 4 P0000 T10171033=
202001140853 METAR KSEA 140853Z 03008KT 2SM -SN BR OVC007 M02/M03 A2979 RMK AO2 SFC VIS 3 SLP099 P0000 60001 T10171028 50000=
202001140753 METAR KSEA 140753Z 03009KT 2SM -SN BR OVC006 M01/M03 A2980 RMK AO2 SFC VIS 6 SNB52 SLP101 P0000 T10111028 400281011=
202001140653 METAR KSEA 140653Z 02010KT 2SM BR BKN006 BKN029 OVC055 M01/M03 A2980 RMK AO2 SFC VIS 3 SNE53 SLP100 P0001 T10111028=
202001140644 SPECI KSEA 140644Z 02010KT 2SM -SN BR BKN006 BKN029 OVC055 M01/M03 A2980 RMK AO2 SFC VIS 3 P0001 T10111028=
202001140627 SPECI KSEA 140627Z 04010KT 1SM R16L/P6000FT -SN BR BKN006 OVC023 M01/M03 A2979 RMK AO2 TWR VIS 1 1/2 P0001 T10111028=
202001140553 METAR KSEA 140553Z 01010KT 5SM -SN BR BKN007 OVC025 M01/M03 A2979 RMK AO2 SLP099 P0000 60001 T10111028 10011 21011 51003=
202001140524 SPECI KSEA 140524Z 03009KT 4SM -SN BR BKN007 OVC025 M01/M03 A2979 RMK AO2 P0000 T10061028=
202001140453 METAR KSEA 140453Z 02010KT 5SM -SN BR FEW010 OVC025 M01/M03 A2979 RMK AO2 SNE0359B39 SLP098 P0000 T10061028=
202001140353 METAR KSEA 140353Z 01008KT 6SM -SN BR FEW010 BKN026 OVC037 M01/M02 A2979 RMK AO2 SNB49 SLP097 P0000 T10061022=
202001140317 SPECI KSEA 140317Z 36008KT 10SM BKN010 OVC030 M01/M02 A2979 RMK AO2 T10061022=
202001140253 METAR KSEA 140253Z 01009KT 10SM FEW010 OVC030 M01/M02 A2978 RMK AO2 SLP095 60001 T10061022 58004=
202001140202 SPECI KSEA 140202Z 35008KT 10SM SCT012 BKN032 OVC055 00/M02 A2979 RMK AO2 T00001017=
202001140153 METAR KSEA 140153Z 01008KT 10SM FEW006 BKN012 OVC040 00/M02 A2979 RMK AO2 SNE08B17E42 SLP099 P0000 T00001017=
202001140108 SPECI KSEA 140108Z 35008KT 8SM SCT005 OVC013 00/M01 A2979 RMK AO2 SNE08 P0000 T00001011=
202001140053 METAR KSEA 140053Z 36009KT 5SM -SN BR BKN004 OVC013 00/M01 A2979 RMK AO2 SLP099 P0001 T00001011=
202001140045 SPECI KSEA 140045Z 36008KT 3SM -SN BR BKN004 OVC013 01/M01 A2980 RMK AO2 P0001 T00061006=
202001140035 SPECI KSEA 140035Z 35007KT 1 3/4SM -SN BR BKN002 OVC010 01/M01 A2980 RMK AO2 P0001 T00061006=
202001132357 SPECI KSEA 132357Z 35007KT 1SM R16L/4000V5500FT -SN BR BKN002 BKN012 OVC022 01/00 A2980 RMK AO2 P0000 T00060000=
202001132353 METAR KSEA 132353Z 35007KT 1 1/2SM R16L/4000VP6000FT -SN BR BKN002 BKN016 OVC022 01/00 A2980 RMK AO2 RAE48 SLP100 P0000 60007 T00110000 10028 20006 55006=
202001132351 SPECI KSEA 132351Z 34007KT 1 1/2SM R16L/4000VP6000FT -SN BR SCT002 BKN016 OVC022 01/00 A2979 RMK AO2 RAE48 P0000=
202001132318 SPECI KSEA 132318Z 36007KT 2 1/2SM -SNRA BKN002 OVC010 01/00 A2980 RMK AO2 P0000 T00110000=
202001132253 METAR KSEA 132253Z 35006KT 3SM -SNRA BKN003 OVC011 02/01 A2979 RMK AO2 RAE05B24SNE05B24 SLP098 P0000 T00170006=
202001132243 SPECI KSEA 132243Z 35007KT 3SM -SNRA BKN003 OVC011 02/00 A2979 RMK AO2 RAE05B24SNE05B24 P0000 T00170000=
202001132232 SPECI KSEA 132232Z 00000KT 4SM -SNRA SCT006 BKN012 OVC028 03/01 A2979 RMK AO2 RAE05B24SNE05B24 P0000 T00280011=
202001132225 SPECI KSEA 132225Z 19004KT 9SM -SNRA SCT008 BKN016 OVC028 03/01 A2979 RMK AO2 RAE05B24SNE05B24 P0000 T00280011=
202001132209 SPECI KSEA 132209Z 18005KT 10SM BKN015 BKN022 OVC030 03/01 A2979 RMK AO2 RAE05SNE05 P0000 T00280011=
202001132153 METAR KSEA 132153Z 19004KT 7SM -SNRA SCT008 BKN013 OVC033 02/01 A2979 RMK AO2 RAE07B49SNE07B49 SLP099 P0000 T00220011=
202001132143 SPECI KSEA 132143Z 18005KT 6SM BR SCT008 BKN013 OVC033 02/01 A2980 RMK AO2 RAE07SNE07 P0000 T00220006=
202001132122 SPECI KSEA 132122Z 15005KT 4SM BR BKN008 OVC033 02/01 A2980 RMK AO2 RAE07SNE07 VIS N 2 1/2 P0000 T00170006=
202001132053 METAR KSEA 132053Z 18005KT 2SM -RASN BR BKN008 OVC014 01/00 A2981 RMK AO2 SFC VIS 4 RAB52 SLP105 P0001 60007 T00110000 58011=
202001132019 SPECI KSEA 132019Z 18005KT 1SM R16L/5000VP6000FT -SN BR BKN008 BKN013 OVC018 01/00 A2983 RMK AO2 P0000 T00110000=
202001131953 METAR KSEA 131953Z 19006KT 1SM R16L/5500VP6000FT -SN BR SCT008 OVC018 01/00 A2984 RMK AO2 SLP114 P0006 T00110000=
202001131930 SPECI KSEA 131930Z 17004KT 1/2SM R16L/4500VP6000FT SN SCT005 BKN018 OVC039 01/00 A2985 RMK AO2 P0003 T00060000=
202001131910 SPECI KSEA 131910Z 17007KT 1/2SM R16L/P6000FT -SN BKN007 OVC039 01/00 A2985 RMK AO2 SFC VIS 3/4 P0001 T00110000=
202001131853 METAR KSEA 131853Z 19006KT 4SM -SN BKN007 OVC037 02/01 A2985 RMK AO2 SNE14B51 SLP119 P0000 T00170006=
202001131753 METAR KSEA 131753Z 18011KT 7SM -SN BKN009 OVC013 01/M01 A2985 RMK AO2 SNB08E38B46 SLP116 P0000 60000 T00111006 10017 20006 53006=
202001131739 SPECI KSEA 131739Z 19008KT 8SM BKN008 OVC016 01/M01 A2984 RMK AO2 SNB08E38 P0000 T00111006=
202001131653 METAR KSEA 131653Z 18009KT 9SM BKN011 OVC060 01/M01 A2983 RMK AO2 SNE51 SLP112 P0000 T00111006=
202001131608 SPECI KSEA 131608Z 20009KT 4SM -SN BR BKN013 OVC019 01/M01 A2982 RMK AO2 P0000 T00111011=
202001131553 METAR KSEA 131553Z 19009KT 4SM -SN BKN015 OVC040 01/M02 A2982 RMK AO2 SNB41 SLP109 P0000 T00111017=
202001131453 METAR KSEA 131453Z 18010KT 10SM SCT016 BKN024 OVC047 01/M02 A2983 RMK AO2 SNE43 SLP110 P0000 60000 T00111022 51001=
202001131353 METAR KSEA 131353Z 17011KT 10SM -SN BKN016 OVC022 01/M02 A2983 RMK AO2 SNB51 SLP110 P0000 T00061022 $=
202001131327 SPECI KSEA 131327Z 18010KT 10SM BKN014 OVC020 01/M02 A2983 RMK AO2 T00061022 $=
202001131253 METAR KSEA 131253Z 19006G14KT 10SM BKN019 BKN024 OVC050 01/M03 A2983 RMK AO2 SLP112 T00111028 $=
202001131153 METAR KSEA 131153Z 22011KT 10SM BKN021 BKN027 01/M03 A2982 RMK AO2 SLP108 60000 70017 T00111033 10022 20006 51022 $=
202001131053 METAR KSEA 131053Z 23009KT 10SM BKN023 BKN027 OVC080 01/M03 A2981 RMK AO2 SLP102 T00111028 $=
202001130953 METAR KSEA 130953Z 22011KT 10SM FEW020 FEW032 OVC080 01/M03 A2978 RMK AO2 SLP094 T00111033 $=
202001130919 SPECI KSEA 130919Z 22008KT 10SM SCT020 SCT028 BKN032 01/M03 A2976 RMK AO2 T00111033 $=
202001130853 METAR KSEA 130853Z 21007KT 7SM BKN019 01/M02 A2976 RMK AO2 SNE45 SLP086 P0000 60000 T00111022 51027 $=
202001130753 METAR KSEA 130753Z 02007KT 7SM -SN BKN017 OVC027 01/M02 A2974 RMK AO2 SNB43 SLP080 P0000 T00061022 400720006 $=
202001130716 SPECI KSEA 130716Z 24008KT 10SM FEW013 BKN023 OVC040 02/M03 A2972 RMK AO2 T00171028 $=
202001130653 METAR KSEA 130653Z 25012KT 10SM FEW022 BKN032 OVC047 02/M03 A2971 RMK AO2 SLP069 T00171028 $=
202001130553 METAR KSEA 130553Z 24006KT 10SM FEW018 BKN023 OVC030 02/M02 A2968 RMK AO2 SLP058 T00221022 10044 20022 53022 $=
202001130453 METAR KSEA 130453Z 22011G20KT 10SM BKN019 BKN025 OVC075 03/M01 A2964 RMK AO2 SLP047 T00281011 $=
202001130353 METAR KSEA 130353Z 21012G21KT 10SM BKN026 OVC085 03/M02 A2961 RMK AO2 PK WND 20026/0303 SLP036 T00281017 $=
202001130351 SPECI KSEA 130351Z 23012G21KT 10SM BKN026 OVC085 03/M02 A2961 RMK AO2 PK WND 20026/0303 $=
202001130253 METAR KSEA 130253Z 21015G22KT 10SM BKN031 03/M02 A2959 RMK AO2 SLP029 T00331017 53014 $=
202001130207 SPECI KSEA 130207Z 21012G22KT 10SM SCT023 BKN120 03/M02 A2957 RMK AO2 T00331017 $=
202001130153 METAR KSEA 130153Z 21013G21KT 10SM BKN021 03/M01 A2956 RMK AO2 SLP020 T00331006 $=
202001130053 METAR KSEA 130053Z 21010G21KT 10SM BKN023 04/M01 A2956 RMK AO2 PK WND 21027/2355 SLP018 T00391006 $=
202001130019 SPECI KSEA 130019Z 22013G21KT 10SM BKN024 BKN095 04/M01 A2955 RMK AO2 PK WND 21027/2355 T00441006 $=
202001122353 METAR KSEA 122353Z 22015G23KT 10SM SCT027 BKN100 04/M01 A2955 RMK AO2 SLP015 60002 T00441006 10072 20044 53023 $=
202001122253 METAR KSEA 122253Z 22015G29KT 10SM BKN030 BKN110 06/00 A2953 RMK AO2 PK WND 22029/2249 SLP008 T00560000 $=
202001122153 METAR KSEA 122153Z 24015G29KT 10SM FEW027 SCT034 07/01 A2949 RMK AO2 PK WND 24029/2153 SLP995 T00670006 $=
202001122053 METAR KSEA 122053Z 22016G32KT 10SM FEW016 BKN025 BKN080 07/02 A2948 RMK AO2 PK WND 21032/2051 SLP990 60002 T00670022 56018 $=
202001121953 METAR KSEA 121953Z 21013G24KT 10SM BKN012 OVC017 06/03 A2949 RMK AO2 PK WND 21026/1906 SLP993 T00610033 $=
202001121853 METAR KSEA 121853Z 18014G21KT 10SM SCT012 BKN017 BKN026 06/03 A2951 RMK AO2 PK WND 20028/1827 RAE16 SLP002 P0002 T00560033 $=
202001121753 METAR KSEA 121753Z 20012KT 4SM RA BR BKN012 OVC017 06/04 A2953 RMK AO2 RAB44 SLP010 P0001 60015 T00560044 10061 20044 56016 $=
202001121653 METAR KSEA 121653Z 18015G23KT 10SM OVC012 06/04 A2954 RMK AO2 RAB09E30 SLP010 P0000 T00560039 $=
202001121553 METAR KSEA 121553Z 18015KT 10SM BKN012 OVC019 05/03 A2956 RMK AO2 RAB13E41 SLP019 P0001 T00500033 $=
202001121453 METAR KSEA 121453Z 18014G28KT 10SM BKN012 OVC021 05/03 A2958 RMK AO2 PK WND 19028/1450 RAE44 SLP025 P0009 60013 T00500028 56038 $=
202001121421 SPECI KSEA 121421Z 19016G20KT 6SM -RA BR BKN012 OVC021 05/03 A2961 RMK AO2 P0006 T00500033 $=
202001121353 METAR KSEA 121353Z 18016KT 10SM -RA SCT020 OVC025 05/03 A2962 RMK AO2 RAE01B33 SLP036 P0000 T00500028 $=
202001121253 METAR KSEA 121253Z 18012KT 7SM -RA FEW017 OVC027 04/03 A2964 RMK AO2 SLP046 P0004 T00440028 $=
202001121153 METAR KSEA 121153Z 17014KT 9SM -RA SCT013 OVC027 04/02 A2969 RMK AO2 SLP063 P0001 60006 70007 T00440022 10044 20039 58037 $=
202001121053 METAR KSEA 121053Z 17015KT 10SM -RA BKN025 OVC029 04/02 A2974 RMK AO2 RAB51 SLP080 P0000 T00440017 $=
202001121038 SPECI KSEA 121038Z 18011KT 10SM SCT012 OVC025 04/02 A2976 RMK AO2 T00440017 $=
202001120953 METAR KSEA 120953Z 18015KT 10SM OVC012 04/02 A2977 RMK AO2 SLP090 T00390017 $=
202001120853 METAR KSEA 120853Z 20014G21KT 10SM OVC011 04/02 A2981 RMK AO2 SLP101 60005 T00440022 57031 $=
202001120828 SPECI KSEA 120828Z 20014G21KT 10SM OVC011 04/02 A2982 RMK AO2 T00440022 $=
202001120753 METAR KSEA 120753Z 20012KT 6SM BR BKN009 OVC014 04/02 A2983 RMK AO2 RAE17 SLP109 P0000 T00390022 400780039 $=
202001120709 SPECI KSEA 120709Z 19015KT 10SM -RA BKN009 OVC014 04/02 A2986 RMK AO2 P0000 T00390022 $=
202001120653 METAR KSEA 120653Z 21010G21KT 9SM -RA FEW006 OVC010 04/03 A2988 RMK AO2 SLP125 P0005 T00440028 $=
202001120553 METAR KSEA 120553Z 21011KT 10SM -RA FEW007 OVC010 04/03 A2990 RMK AO2 RAE21B36 SLP133 P0000 60001 T00440028 10067 20044 58014 $=
202001120521 SPECI KSEA 120521Z 21012KT 10SM FEW009 OVC013 05/03 A2991 RMK AO2 RAE21 P0000 T00500033 $=
202001120455 SPECI KSEA 120455Z 21010KT 10SM -RA SCT009 OVC018 05/03 A2992 RMK AO2 P0000 T00500028 $=
202001120453 METAR KSEA 120453Z 20012KT 10SM -RA FEW012 BKN018 OVC030 05/03 A2992 RMK AO2 RAE0355B51 SLP139 P0000 T00500028 $=
202001120353 METAR KSEA 120353Z 20011KT 8SM -RA SCT012 BKN018 OVC029 05/03 A2993 RMK AO2 RAB20 SLP144 P0001 T00500028 $=
202001120253 METAR KSEA 120253Z 23014G20KT 10SM BKN022 OVC070 06/02 A2994 RMK AO2 SLP146 T00610022 51007 $=
202001120211 SPECI KSEA 120211Z 22016G21KT 10SM BKN023 BKN070 OVC090 07/02 A2994 RMK AO2 T00670022 $=
202001120153 METAR KSEA 120153Z 22015G25KT 10SM FEW025 SCT075 OVC095 07/02 A2994 RMK AO2 SLP145 T00670017 $=
202001120053 METAR KSEA 120053Z 22016KT 10SM SCT028 BKN120 OVC200 07/01 A2993 RMK AO2 PK WND 21026/0019 SLP143 T00670011 $=
202001112353 METAR KSEA 112353Z 22016G26KT 10SM FEW020 FEW032 BKN140 OVC200 07/01 A2992 RMK AO2 PK WND 21026/2350 SLP139 T00670006 10078 20067 53018 $=
202001112253 METAR KSEA 112253Z 21019G24KT 10SM FEW020 SCT032 OVC200 07/01 A2989 RMK AO2 PK WND 21026/2227 SLP130 T00720006 $=
202001112153 METAR KSEA 112153Z 21017G22KT 10SM FEW021 OVC032 07/01 A2987 RMK AO2 PK WND 21026/2122 SLP124 T00720011 $=
202001112146 SPECI KSEA 112146Z 21016KT 10SM FEW021 OVC030 07/02 A2987 RMK AO2 PK WND 21026/2122 T00720017 $=
202001112053 METAR KSEA 112053Z 23015KT 10SM OVC021 07/03 A2987 RMK AO2 SLP121 T00720028 51019 $=
202001111953 METAR KSEA 111953Z 22009KT 10SM OVC016 07/03 A2986 RMK AO2 SLP119 T00720033 $=
202001111853 METAR KSEA 111853Z 24012KT 10SM OVC016 07/04 A2984 RMK AO2 SLP112 T00720039 $=
202001111753 METAR KSEA 111753Z 23011KT 10SM BKN014 OVC032 07/04 A2981 RMK AO2 SLP102 60000 T00670039 10078 20067 51045 $=
202001111653 METAR KSEA 111653Z 22009KT 10SM BKN013 OVC032 07/04 A2977 RMK AO2 RAB09E30 SLP088 P0000 T00670039 $=
202001111632 SPECI KSEA 111632Z 22010KT 10SM BKN012 OVC030 07/04 A2975 RMK AO2 RAB09E30 P0000 T00670044 $=
202001111609 SPECI KSEA 111609Z 21011KT 9SM -RA SCT010 OVC028 07/05 A2973 RMK AO2 RAB09 P0000 T00720050 $=
202001111553 METAR KSEA 111553Z 23006KT 10SM BKN010 OVC024 07/05 A2972 RMK AO2 SLP072 T00720050 $=
202001111453 METAR KSEA 111453Z 22005KT 10SM BKN010 OVC080 07/06 A2967 RMK AO2 SLP056 T00720056 53038 $=
202001111353 METAR KSEA 111353Z 25008KT 10SM BKN010 OVC014 08/06 A2963 RMK AO2 SLP042 T00780061 $=
202001111253 METAR KSEA 111253Z 21011KT 10SM BKN010 OVC015 07/05 A2958 RMK AO2 SLP025 T00670050 $=
202001111203 SPECI KSEA 111203Z 18015G23KT 8SM BKN013 OVC018 07/04 A2956 RMK AO2 T00670044 $=
202001111153 METAR KSEA 111153Z 19018G24KT 9SM BKN015 OVC018 07/04 A2956 RMK AO2 RAE49 SLP017 P0002 60005 70051 T00670044 10067 20061 55000 $=
202001111053 METAR KSEA 111053Z 19014G21KT 7SM -RA BKN015 OVC021 06/04 A2956 RMK AO2 SLP018 P0001 T00610039 $=
202001111039 SPECI KSEA 111039Z 17016G20KT 10SM -RA BKN017 OVC025 06/04 A2956 RMK AO2 P0000 T00610039 $=
202001111000 SPECI KSEA 111000Z 18018G24KT 10SM -RA FEW021 SCT028 OVC033 06/04 A2955 RMK AO2 P0000 T00610039 $=
202001110953 METAR KSEA 110953Z 19014G24KT 10SM -RA SCT019 BKN028 OVC040 07/04 A2955 RMK AO2 PK WND 18027/0903 SLP015 P0000 T00670039 $=
202001110853 METAR KSEA 110853Z 17017G23KT 10SM -RA FEW016 OVC027 07/04 A2956 RMK AO2 PK WND 19026/0804 SLP017 P0000 60002 T00670039 58005 $=
202001110753 METAR KSEA 110753Z 19014G25KT 10SM -RA SCT016 BKN021 OVC040 07/04 A2957 RMK AO2 PK WND 20026/0741 SLP022 P0001 T00670044 400670017 $=
202001110700 SPECI KSEA 110700Z 17013G20KT 10SM -RA BKN022 BKN027 OVC038 07/05 A2958 RMK AO2 P0000 T00670050 $=
202001110653 METAR KSEA 110653Z 17012KT 10SM -RA FEW020 SCT028 OVC036 07/05 A2958 RMK AO2 SLP024 P0001 T00670050 $=
202001110553 METAR KSEA 110553Z 17015G23KT 10SM -RA SCT024 OVC035 07/04 A2957 RMK AO2 SLP022 P0001 60014 T00670044 10067 20061 58005 $=
202001110453 METAR KSEA 110453Z 16016KT 9SM -RA FEW029 OVC035 07/04 A2958 RMK AO2 SLP026 P0002 T00670044 $=
202001110418 SPECI KSEA 110418Z 17015G22KT 10SM -RA SCT029 OVC036 07/04 A2959 RMK AO2 P0001 T00670044 $=
202001110353 METAR KSEA 110353Z 16019G26KT 10SM -RA BKN029 OVC033 07/04 A2959 RMK AO2 PK WND 18030/0255 SLP028 P0002 T00670044 $=
202001110351 SPECI KSEA 110351Z 17014G26KT 10SM -RA OVC029 07/04 A2959 RMK AO2 PK WND 18030/0255 P0002 $=
202001110253 METAR KSEA 110253Z 17016G22KT 6SM -RA BR SCT024 OVC032 07/05 A2960 RMK AO2 SLP031 P0003 60009 T00670050 56024 $=
202001110153 METAR KSEA 110153Z 15013KT 10SM -RA SCT022 BKN031 OVC070 06/06 A2961 RMK AO2 SLP036 P0001 T00610056 $=
202001110053 METAR KSEA 110053Z 15014KT 9SM -RA FEW014 BKN022 OVC031 06/04 A2964 RMK AO2 SLP047 P0005 T00610044 $=
202001102353 METAR KSEA 102353Z 20007KT 7SM -RA FEW012 OVC021 06/04 A2967 RMK AO2 RAB2258 SLP056 P0003 60026 T00610044 10067 20039 53001 $=
202001102253 METAR KSEA 102253Z 18015G21KT 8SM BKN021 OVC025 07/04 A2966 RMK AO2 RAE33B43E53 SLP053 P0000 T00670039 $=
202001102233 SPECI KSEA 102233Z 19012G25KT 10SM FEW016 BKN028 OVC034 07/04 A2968 RMK AO2 RAE33 P0000 T00670039 $=
202001102215 SPECI KSEA 102215Z 17011KT 10SM -RA SCT016 BKN030 OVC035 07/04 A2967 RMK AO2 P0000 T00670044 $=
202001102153 METAR KSEA 102153Z 19013G21KT 10SM -RA BKN018 BKN025 BKN034 07/04 A2967 RMK AO2 SLP056 P0007 T00670044 $=
202001102053 METAR KSEA 102053Z 17011KT 6SM -RA BR OVC029 06/05 A2967 RMK AO2 SLP055 P0010 60016 T00610050 56046=
202001102011 SPECI KSEA 102011Z 15010KT 6SM -RA BR OVC029 06/04 A2968 RMK AO2 P0003 T00610044=
202001101953 METAR KSEA 101953Z 14010KT 6SM -RA BR OVC032 06/04 A2970 RMK AO2 SLP066 P0004 T00560039=
202001101901 SPECI KSEA 101901Z 14009KT 8SM -RA OVC030 05/03 A2975 RMK AO2 P0000 T00500028=
202001101853 METAR KSEA 101853Z 14009KT 7SM -RA OVC028 05/03 A2976 RMK AO2 SLP086 P0002 T00500028=
202001101753 METAR KSEA 101753Z 11009KT 7SM -RA OVC026 04/02 A2981 RMK AO2 SLP102 P0003 60006 T00390022 10044 20022 56046=
202001101653 METAR KSEA 101653Z 14009KT 6SM -RA BR OVC026 04/02 A2984 RMK AO2 SLP112 P0002 T00440022=
202001101553 METAR KSEA 101553Z 14011KT 6SM -RA BR OVC029 03/01 A2988 RMK AO2 SLP128 P0001 T00330011=
202001101543 SPECI KSEA 101543Z 14009KT 10SM -RA OVC029 03/01 A2989 RMK AO2 PRESFR P0000 T00330011=
202001101453 METAR KSEA 101453Z 14008KT 10SM -RA OVC040 03/01 A2995 RMK AO2 RAB50 PRESFR SLP149 P0000 60000 T00330006 58054=
202001101353 METAR KSEA 101353Z 13010KT 10SM SCT037 OVC044 03/01 A3000 RMK AO2 SLP169 T00280006=
202001101253 METAR KSEA 101253Z 13010KT 10SM FEW037 BKN048 OVC060 03/01 A3005 RMK AO2 SLP186 T00280006=
202001101153 METAR KSEA 101153Z 14010KT 10SM FEW036 BKN043 OVC070 03/01 A3011 RMK AO2 SNE34 SLP204 P0001 60002 70008 T00280006 10028 20017 58027=
202001101126 SPECI KSEA 101126Z 14010KT 9SM -SN FEW020 OVC039 02/01 A3012 RMK AO2 P0001 T00220006=
202001101053 METAR KSEA 101053Z 17005KT 5SM -SN BR BKN019 OVC025 02/01 A3014 RMK AO2 RAB19E51SNB51 SLP216 P0001 T00170006=
202001101031 SPECI KSEA 101031Z 14005KT 10SM -RA OVC027 02/01 A3015 RMK AO2 RAB19 P0000 T00220006=
202001100953 METAR KSEA 100953Z 14007KT 10SM FEW007 SCT026 OVC050 02/01 A3016 RMK AO2 SLP222 T00220006=
202001100853 METAR KSEA 100853Z 14008KT 10SM FEW008 BKN026 OVC085 02/01 A3019 RMK AO2 SLP232 T00220006 55011=
202001100849 SPECI KSEA 100849Z 15007KT 10SM FEW008 BKN026 OVC085 02/01 A3019 RMK AO2=
202001100800 SPECI KSEA 100800Z 13008KT 10SM FEW013 SCT029 OVC090 02/01 A3021 RMK AO2 T00170006=
202001100753 METAR KSEA 100753Z 13007KT 9SM FEW015 BKN029 OVC090 02/01 A3021 RMK AO2 SLP240 T00220006 400390000=
202001100653 METAR KSEA 100653Z 15005KT 8SM FEW018 BKN024 OVC100 02/01 A3022 RMK AO2 SLP244 T00170006=
202001100553 METAR KSEA 100553Z VRB04KT 10SM SCT110 SCT250 02/00 A3023 RMK AO2 SLP246 T00170000 10039 20011 55003=
202001100453 METAR KSEA 100453Z 16007KT 10SM FEW005 SCT120 OVC200 02/01 A3022 RMK AO2 SLP244 T00220006=
202001100353 METAR KSEA 100353Z 13006KT 8SM FEW004 OVC140 02/01 A3023 RMK AO2 SLP248 T00220006=
202001100253 METAR KSEA 100253Z 14006KT 8SM FEW010 OVC160 03/01 A3024 RMK AO2 SLP249 T00280011 50001=
202001100153 METAR KSEA 100153Z 16004KT 10SM FEW012 OVC150 03/01 A3025 RMK AO2 SLP253 T00280011=
202001100053 METAR KSEA 100053Z 19003KT 9SM FEW010 SCT060 BKN200 03/02 A3024 RMK AO2 SLP250 T00330017=
202001092353 METAR KSEA 092353Z 00000KT 10SM FEW007 SCT016 OVC220 04/01 A3023 RMK AO2 SLP247 60005 T00390006 10039 20022 53017=
202001092310 SPECI KSEA 092310Z 00000KT 10SM FEW007 SCT015 OVC220 04/02 A3022 RMK AO2 T00390017=
202001092253 METAR KSEA 092253Z 05003KT 10SM SCT007 BKN015 BKN200 04/02 A3021 RMK AO2 SLP238 T00390017=
202001092238 SPECI KSEA 092238Z VRB03KT 10SM SCT006 BKN012 BKN200 04/01 A3021 RMK AO2 T00390011=
202001092153 METAR KSEA 092153Z 00000KT 7SM BKN005 BKN020 OVC200 04/02 A3019 RMK AO2 SLP233 T00390017=
202001092053 METAR KSEA 092053Z 00000KT 7SM SCT004 BKN007 OVC020 03/02 A3018 RMK AO2 SLP231 60005 T00330017 58002=
202001092016 SPECI KSEA 092016Z 00000KT 10SM BKN004 OVC009 03/02 A3019 RMK AO2 T00280017=
202001091953 METAR KSEA 091953Z 00000KT 6SM BR SCT005 OVC009 03/02 A3019 RMK AO2 RAB1857E49SNE35 SLP234 P0002 T00280017=
202001091948 SPECI KSEA 091948Z 00000KT 6SM -RA BR BKN005 OVC009 03/01 A3019 RMK AO2 RAB1857SNE35 P0002=
202001091858 SPECI KSEA 091858Z 23003KT 2SM -RASN BR OVC005 02/02 A3018 RMK AO2 TWR VIS 2 1/2 RAB57 P0001 T00220017=
202001091853 METAR KSEA 091853Z 22004KT 1SM R16L/P6000FT -SN BR OVC005 02/02 A3019 RMK AO2 TWR VIS 2 1/2 SLP233 P0003 T00220017=
202001091837 SPECI KSEA 091837Z 19003KT 1SM R16L/2400VP6000FT -SN BR OVC005 03/02 A3019 RMK AO2 TWR VIS 2 1/2 P0002 T00280017=
202001091753 METAR KSEA 091753Z 15004KT 3SM -SN BR BKN005 OVC010 02/02 A3018 RMK AO2 RAB14E41 SLP230 P0000 60001 T00220017 10028 20011 53026=
202001091714 SPECI KSEA 091714Z VRB03KT 3SM -RASN BR BKN005 OVC010 02/01 A3016 RMK AO2 RAB14 P0000 T00220011=
202001091653 METAR KSEA 091653Z 14003KT 2 1/2SM -SN BR BKN005 OVC010 02/01 A3015 RMK AO2 SLP220 SNB35 P0001 T00220011=
202001091637 SPECI KSEA 091637Z 15004KT 5SM -SN BR BKN005 OVC010 02/01 A3015 RMK AO2 P0000 T00170011=
202001091553 METAR KSEA 091553Z VRB05KT 10SM OVC009 02/01 A3012 RMK AO2 SLP208 T00170006=
202001091453 METAR KSEA 091453Z 14007KT 6SM BR OVC009 01/01 A3010 RMK AO2 SLP204 T00110006 53014 $=
202001091430 SPECI KSEA 091430Z 13007KT 6SM BR OVC008 01/01 A3009 RMK AO2 T00110006 $=
202001091353 METAR KSEA 091353Z 13007KT 7SM SCT007 OVC037 01/01 A3007 RMK AO2 SLP194 T00110006 $=
202001091253 METAR KSEA 091253Z 13005KT 7SM SCT008 OVC037 01/01 A3006 RMK AO2 SLP189 T00110006 $=
202001091248 SPECI KSEA 091248Z 14004KT 7SM SCT008 OVC036 01/01 A3006 RMK AO2 $=
202001091153 METAR KSEA 091153Z 15003KT 7SM BKN035 OVC060 01/01 A3006 RMK AO2 SLP188 70004 T00110006 10022 20000 53022 $=
202001091112 SPECI KSEA 091112Z 15003KT 6SM BR FEW006 BKN036 OVC100 01/01 A3004 RMK AO2 T00110006 $=
202001091053 METAR KSEA 091053Z 00000KT 7SM BKN035 01/00 A3004 RMK AO2 SLP180 T00110000 $=
202001091012 SPECI KSEA 091012Z 00000KT 8SM FEW005 BKN033 01/M01 A3002 RMK AO2 T00061006 $=
202001090953 METAR KSEA 090953Z 15003KT 10SM SCT035 BKN110 01/M01 A3000 RMK AO2 SLP169 T00061011 $=
202001090853 METAR KSEA 090853Z 00000KT 10SM FEW055 01/00 A2999 RMK AO2 SLP165 T00110000 51016 $=
202001090753 METAR KSEA 090753Z 19003KT 7SM SCT055 01/00 A2998 RMK AO2 SLP160 T00110000 400720011 $=
202001090653 METAR KSEA 090653Z 23003KT 10SM SCT060 BKN180 02/01 A2997 RMK AO2 SLP156 T00170006 $=
202001090627 SPECI KSEA 090627Z 15004KT 10SM FEW002 BKN060 02/01 A2996 RMK AO2 T00220006 $=
202001090619 SPECI KSEA 090619Z 13005KT 6SM BR BKN002 02/01 A2995 RMK AO2 T00170006 $=
202001090602 SPECI KSEA 090602Z 12005KT 10SM FEW008 SCT060 BKN170 02/01 A2995 RMK AO2 T00220011 $=
202001090553 METAR KSEA 090553Z 12005KT 10SM SCT060 BKN180 02/01 A2994 RMK AO2 SLP148 60003 T00220011 10033 20022 53015 $=
202001090453 METAR KSEA 090453Z 11006KT 10SM FEW031 BKN049 OVC060 03/01 A2992 RMK AO2 RAE47 SLP141 P0001 T00280011 $=
202001090432 SPECI KSEA 090432Z 11005KT 10SM -RA FEW011 BKN030 OVC048 03/01 A2991 RMK AO2 P0001 T00280011 $=
202001090353 METAR KSEA 090353Z 04005KT 6SM -RA BR FEW009 SCT014 OVC020 03/01 A2991 RMK AO2 SLP138 RAB00SNB00E30 P0002 T00280011 $=
202001090307 SPECI KSEA 090307Z 04008KT 4SM -RASN FEW007 BKN019 OVC030 03/01 A2990 RMK AO2 RASNB0300 T00280011 PNO $=
202001090253 METAR KSEA 090253Z 10008KT 10SM OVC019 03/01 A2990 RMK AO2 RAE03 SLP133 T00280011 53006 PNO $=
202001090153 METAR KSEA 090153Z 15006KT 10SM -RA OVC021 03/01 A2989 RMK AO2 RAB53 SLP130 T00330011 PNO $=
202001090121 SPECI KSEA 090121Z 12008KT 10SM BKN024 OVC100 03/01 A2988 RMK AO2 T00330011 PNO $=
202001090053 METAR KSEA 090053Z 10007KT 10SM FEW028 BKN036 OVC110 03/01 A2988 RMK AO2 RAE50 SLP128 T00330011 PNO $=
202001082353 METAR KSEA 082353Z 03010KT 10SM -RA FEW028 BKN042 OVC060 03/01 A2988 RMK AO2 SLP127 60001 T00330011 10067 20033 53009 PNO $=
202001082344 SPECI KSEA 082344Z 04012KT 10SM -RA SCT026 OVC048 03/01 A2988 RMK AO2 T00330011 PNO $=
202001082253 METAR KSEA 082253Z 34007KT 3SM -RA BKN017 OVC021 04/01 A2987 RMK AO2 SLP123 P0001 T00440011=
202001082229 SPECI KSEA 082229Z 23008KT 10SM -RA BKN023 OVC047 06/01 A2986 RMK AO2 P0000 T00560006=
202001082153 METAR KSEA 082153Z 25010KT 10SM -RA FEW023 OVC055 06/01 A2985 RMK AO2 RAB29 SLP116 P0000 T00610006=
202001082129 SPECI KSEA 082129Z 24011KT 10SM -RA SCT022 BKN055 OVC070 06/01 A2985 RMK AO2 RAB29 P0000 T00610006=
202001082053 METAR KSEA 082053Z 22009KT 10SM BKN022 OVC100 07/02 A2985 RMK AO2 SLP117 T00670017 50003=
202001081953 METAR KSEA 081953Z 22012G18KT 10SM BKN021 OVC028 07/02 A2986 RMK AO2 SLP119 T00670022=
202001081853 METAR KSEA 081853Z 23015G20KT 10SM BKN021 OVC110 06/02 A2985 RMK AO2 SLP116 T00610017=
202001081753 METAR KSEA 081753Z 22011KT 10SM BKN016 OVC110 06/03 A2984 RMK AO2 SLP114 T00610028 10061 20056 51010=
202001081653 METAR KSEA 081653Z 22011G20KT 10SM BKN020 OVC026 06/03 A2983 RMK AO2 SLP110 T00560028=
202001081553 METAR KSEA 081553Z 22011G22KT 10SM BKN022 OVC028 06/02 A2983 RMK AO2 SLP108 T00560017=
202001081453 METAR KSEA 081453Z 22013G21KT 10SM BKN021 OVC180 06/02 A2981 RMK AO2 SLP103 T00610022 53007=
202001081406 SPECI KSEA 081406Z 22015KT 10SM BKN021 OVC180 06/02 A2980 RMK AO2 T00610017=
202001081353 METAR KSEA 081353Z 21017KT 10SM FEW020 SCT040 BKN180 06/02 A2979 RMK AO2 SLP097 T00560017=
202001081253 METAR KSEA 081253Z 22017G25KT 10SM SCT020 BKN200 06/02 A2979 RMK AO2 PK WND 20026/1231 SLP096 T00610022=
202001081206 SPECI KSEA 081206Z 22014G21KT 10SM BKN020 06/03 A2980 RMK AO2 T00610028=
202001081153 METAR KSEA 081153Z 22014G23KT 10SM SCT020 BKN200 06/02 A2979 RMK AO2 SLP096 70008 T00610022 10089 20061 51026=
202001081053 METAR KSEA 081053Z 22016G22KT 10SM BKN021 07/02 A2978 RMK AO2 PK WND 23026/1006 SLP091 T00670022=
202001081012 SPECI KSEA 081012Z 23013G26KT 10SM BKN024 07/02 A2975 RMK AO2 PK WND 23026/1006 T00670022=
202001080953 METAR KSEA 080953Z 22017G25KT 10SM SCT018 BKN150 07/03 A2974 RMK AO2 SLP077 T00720033=
202001080853 METAR KSEA 080853Z 22017KT 10SM OVC015 07/04 A2971 RMK AO2 PK WND 22027/0808 SLP069 T00720044 53007=
202001080753 METAR KSEA 080753Z 22018G25KT 10SM OVC018 08/04 A2971 RMK AO2 PK WND 20029/0739 SLP066 T00780044 401280078=
202001080734 SPECI KSEA 080734Z 21018G25KT 10SM BKN018 BKN110 08/04 A2971 RMK AO2 T00780044=
202001080653 METAR KSEA 080653Z 20017G25KT 10SM FEW016 SCT021 08/06 A2969 RMK AO2 SLP061 T00830061=
202001080648 SPECI KSEA 080648Z 20021G25KT 10SM BKN018 08/06 A2969 RMK AO2=
202001080553 METAR KSEA 080553Z 19013KT 10SM FEW008 BKN014 OVC022 09/07 A2969 RMK AO2 SLP061 60003 T00890072 10117 20083 51006=
202001080546 SPECI KSEA 080546Z 19012KT 10SM FEW008 BKN014 OVC022 09/07 A2969 RMK AO2 T00890072=
202001080530 SPECI KSEA 080530Z 19012KT 10SM BKN019 OVC110 09/07 A2969 RMK AO2 T00890072=
202001080453 METAR KSEA 080453Z 20012KT 10SM FEW009 SCT032 OVC055 09/07 A2969 RMK AO2 RAE47 SLP060 P0001 T00890067=
202001080438 SPECI KSEA 080438Z 19013KT 10SM -RA SCT009 BKN030 OVC070 09/07 A2968 RMK AO2 P0001 T00890072=
202001080419 SPECI KSEA 080419Z 21011KT 10SM -RA SCT007 BKN015 OVC060 09/07 A2969 RMK AO2 P0001 T00890072=
202001080353 METAR KSEA 080353Z 21013G21KT 9SM -RA SCT010 OVC016 09/07 A2968 RMK AO2 RAE0255B25 SLP059 P0001 T00890072=
202001080328 SPECI KSEA 080328Z 20015G19KT 6SM -RA BR BKN016 OVC021 09/07 A2968 RMK AO2 RAE0255B25 P0000 T00940072=
202001080253 METAR KSEA 080253Z 18010KT 10SM -RA FEW025 OVC035 09/07 A2967 RMK AO2 SLP055 P0001 60001 T00940072 58007=
202001080153 METAR KSEA 080153Z 18012KT 10SM -RA FEW020 OVC050 10/07 A2968 RMK AO2 SLP057 P0000 T01000072=
202001072353 METAR KSEA 072353Z 20011G21KT 10SM -RA FEW025 BKN043 OVC100 12/07 A2969 RMK AO2 RAB52 SLP061 P0000 60000 T01170067 10128 20111 56021=
202001072253 METAR KSEA 072253Z 19009KT 10SM FEW032 BKN070 OVC120 12/06 A2971 RMK AO2 SLP067 T01220061=
202001072153 METAR KSEA 072153Z 20016G27KT 10SM FEW032 BKN140 BKN250 12/07 A2972 RMK AO2 PK WND 19029/2126 SLP070 T01220067=
202001072053 METAR KSEA 072053Z 20013KT 10SM SCT041 BKN160 BKN250 12/07 A2976 RMK AO2 SLP082 T01220072 58043=
202001071953 METAR KSEA 071953Z 19010KT 10SM FEW025 BKN037 BKN075 OVC140 12/07 A2981 RMK AO2 SLP101 T01170072=
202001071853 METAR KSEA 071853Z 19012KT 10SM FEW030 BKN042 OVC110 11/07 A2986 RMK AO2 SLP119 T01110072=
202001071758 SPECI KSEA 071758Z 18012KT 10SM FEW020 BKN030 OVC140 11/07 A2988 RMK AO2 T01110072=
202001071753 METAR KSEA 071753Z 18012KT 10SM FEW020 BKN029 OVC045 11/07 A2989 RMK AO2 RAE1659 SLP127 P0000 60005 T01110072 10111 20094 56020=
202001071653 METAR KSEA 071653Z 16010KT 10SM -RA FEW012 BKN028 OVC040 10/08 A2990 RMK AO2 RAB40 SLP133 P0000 T01000078=
202001071553 METAR KSEA 071553Z 16011KT 10SM FEW018 BKN024 OVC040 10/07 A2992 RMK AO2 RAE11 SLP139 P0001 T01000072=
202001071453 METAR KSEA 071453Z 18007KT 9SM -RA FEW012 BKN025 OVC033 10/08 A2995 RMK AO2 RAB1354E13B31 SLP148 P0001 60004 T01000078 58015=
202001071353 METAR KSEA 071353Z 20014G21KT 10SM SCT012 BKN031 OVC049 10/08 A2997 RMK AO2 RAE44 SLP155 P0002 T01000078=
202001071342 SPECI KSEA 071342Z 20013G20KT 10SM -RA SCT018 BKN032 OVC049 10/08 A2998 RMK AO2 P0002 T01000078=
202001071253 METAR KSEA 071253Z 20014G18KT 7SM -RA OVC022 10/08 A2998 RMK AO2 RAB12E24B45 SLP159 P0001 T01000078=
202001071153 METAR KSEA 071153Z 18013KT 10SM SCT018 OVC024 10/08 A2999 RMK AO2 RAE31 SLP162 P0001 60039 70130 T01000078 10106 20100 56011=
202001071053 METAR KSEA 071053Z 18012G19KT 9SM -RA FEW011 OVC016 10/08 A3000 RMK AO2 SLP167 P0002 T01000083=
202001070953 METAR KSEA 070953Z 18018G27KT 7SM -RA BKN014 OVC025 10/08 A3001 RMK AO2 PK WND 18027/0949 SLP168 P0009 T01000083=
202001070853 METAR KSEA 070853Z 17017KT 6SM RA BR OVC024 10/08 A3002 RMK AO2 SLP174 P0010 60027 T01000083 58018=
202001070753 METAR KSEA 070753Z 18014G22KT 6SM -RA BR FEW012 BKN023 OVC029 10/09 A3005 RMK AO2 SLP184 P0010 T01000089 401060050=
202001070717 SPECI KSEA 070717Z 18013G20KT 7SM -RA SCT008 OVC016 10/09 A3007 RMK AO2 P0004 T01000089=
202001070653 METAR KSEA 070653Z 18013KT 6SM -RA BR BKN008 OVC016 10/09 A3007 RMK AO2 PK WND 19027/0557 SLP191 P0007 T01000089=
202001070553 METAR KSEA 070553Z 18018G24KT 3SM -RA BR OVC005 10/09 A3008 RMK AO2 SLP192 P0008 60035 T01000089 10106 20100 58004=
202001070453 METAR KSEA 070453Z 19014G20KT 4SM -RA BR BKN005 OVC010 10/09 A3009 RMK AO2 SLP196 P0009 T01000089=
202001070353 METAR KSEA 070353Z 19014KT 6SM -RA BR OVC007 11/09 A3009 RMK AO2 SLP198 P0003 T01060094=
202001070253 METAR KSEA 070253Z 20017G23KT 5SM -RA BR BKN006 OVC012 11/09 A3009 RMK AO2 PK WND 19027/0206 SLP196 P0005 60015 T01060094 50002=
202001070230 SPECI KSEA 070230Z 19016G23KT 3SM -RA BR OVC005 11/09 A3009 RMK AO2 PK WND 19027/0206 P0003 T01060094=
202001070153 METAR KSEA 070153Z 19016G24KT 2 1/2SM -RA BR OVC005 10/09 A3009 RMK AO2 SLP197 P0006 T01000094=
202001070053 METAR KSEA 070053Z 19016G25KT 2 1/2SM -RA BR BKN008 OVC014 10/09 A3009 RMK AO2 SLP196 P0004 T01000094=
202001062353 METAR KSEA 062353Z 19017KT 2 1/2SM -RA BR BKN006 OVC013 10/09 A3008 RMK AO2 SLP195 P0003 60033 T01000089 10100 20083 51004=
202001062253 METAR KSEA 062253Z 19015G20KT 2 1/2SM -RA BR BKN007 OVC015 10/09 A3008 RMK AO2 SLP195 P0004 T01000089=
202001062153 METAR KSEA 062153Z 19014KT 2 1/2SM -RA BR BKN008 OVC015 10/09 A3007 RMK AO2 SLP191 P0004 T01000089=
202001062144 SPECI KSEA 062144Z 19016G23KT 2 1/2SM -RA BR BKN008 OVC015 10/08 A3007 RMK AO2 P0003 T01000083=
202001062053 METAR KSEA 062053Z 19018G26KT 6SM -RA BR BKN008 OVC012 10/08 A3007 RMK AO2 PK WND 19027/2003 SLP191 P0004 60022 T01000083 58006=
202001061953 METAR KSEA 061953Z 18020KT 6SM -RA BR BKN008 BKN015 OVC023 10/08 A3008 RMK AO2 PK WND 18026/1942 SLP193 P0011 T01000083=
202001061939 SPECI KSEA 061939Z 18018G23KT 5SM -RA BR BKN008 OVC013 09/08 A3008 RMK AO2 P0010 T00940083=
202001061853 METAR KSEA 061853Z 18016G25KT 5SM -RA BR FEW008 BKN011 OVC023 09/08 A3010 RMK AO2 PK WND 18029/1830 SLP200 P0007 T00890078=
202001061753 METAR KSEA 061753Z 18017KT 5SM -RA BR FEW007 BKN010 OVC023 08/07 A3009 RMK AO2 PK WND 18029/1726 SLP196 P0006 60023 T00830072 10089 20056 56007=
202001061737 SPECI KSEA 061737Z 19018G28KT 5SM -RA BR FEW008 BKN012 OVC023 08/07 A3009 RMK AO2 PK WND 18029/1726 P0004 T00830067=
202001061653 METAR KSEA 061653Z 18017KT 6SM -RA BR SCT012 OVC023 08/07 A3009 RMK AO2 PK WND 18029/1607 SLP196 P0005 T00830067=
202001061553 METAR KSEA 061553Z 16017G25KT 5SM -RA BR BKN017 OVC025 08/06 A3009 RMK AO2 PK WND 17027/1515 SLP197 P0003 T00780061=
202001061453 METAR KSEA 061453Z 18013G24KT 6SM -RA BR FEW012 BKN019 OVC065 07/06 A3011 RMK AO2 PK WND 16026/1425 SLP204 P0003 60009 T00720056 58030=
202001061353 METAR KSEA 061353Z 18014G23KT 6SM -RA BR SCT016 OVC023 07/05 A3014 RMK AO2 SLP215 P0002 T00670050=
202001061253 METAR KSEA 061253Z 20010KT 5SM -RA BR BKN020 OVC030 06/05 A3017 RMK AO2 RAB1157 SLP226 P0004 T00610050=
202001061153 METAR KSEA 061153Z 16009KT 10SM OVC021 06/04 A3020 RMK AO2 RAE11 SLP234 P0000 60011 70021 T00560039 10061 20050 56033=
202001061053 METAR KSEA 061053Z 15006KT 7SM -RA OVC023 05/04 A3023 RMK AO2 SLP247 P0002 T00500039=
202001060953 METAR KSEA 060953Z 17008KT 7SM -RA SCT018 OVC026 05/03 A3026 RMK AO2 SLP254 P0004 T00500033=
202001060853 METAR KSEA 060853Z 18009KT 7SM -RA BKN021 OVC030 05/03 A3030 RMK AO2 SLP268 P0003 60005 T00500033 58017=
202001060753 METAR KSEA 060753Z 18011G19KT 10SM -RA FEW018 BKN023 OVC038 06/03 A3033 RMK AO2 SLP279 P0001 T00560033 400890056=
202001060748 SPECI KSEA 060748Z 18011KT 10SM -RA BKN023 BKN028 OVC038 06/03 A3033 RMK AO2 P0001=
202001060653 METAR KSEA 060653Z 19014KT 9SM -RA FEW019 BKN030 OVC043 06/04 A3035 RMK AO2 RAB02E13B45 SLP285 P0001 T00560039=
202001060626 SPECI KSEA 060626Z 20014KT 10SM SCT023 BKN030 OVC080 06/03 A3035 RMK AO2 RAB02E13 P0000 T00610033=
202001060553 METAR KSEA 060553Z 19015G20KT 10SM BKN025 OVC034 06/03 A3036 RMK AO2 RAB02E20 SLP290 P0000 60001 T00610033 10078 20056 53002=
202001060453 METAR KSEA 060453Z 18015KT 10SM BKN024 OVC029 06/03 A3035 RMK AO2 RAE00B32E45 SLP288 P0001 T00560033=
202001060353 METAR KSEA 060353Z 19013KT 10SM -RA FEW018 BKN024 OVC120 06/03 A3035 RMK AO2 RAB49 SLP288 P0000 T00610033=
202001060312 SPECI KSEA 060312Z 19014KT 10SM SCT022 BKN120 06/03 A3035 RMK AO2 T00610028=
202001060253 METAR KSEA 060253Z 21016G24KT 10SM BKN022 BKN070 BKN090 07/03 A3035 RMK AO2 RAB36E47 SLP286 P0000 60000 T00670028 51015=
202001060248 SPECI KSEA 060248Z 20016G22KT 10SM BKN022 BKN070 BKN090 06/03 A3035 RMK AO2 RAB36E47 P0000=
202001060153 METAR KSEA 060153Z 21014G21KT 10SM FEW033 BKN100 BKN150 07/02 A3033 RMK AO2 SLP278 T00720022=
202001060053 METAR KSEA 060053Z 22016G22KT 10SM FEW030 SCT100 BKN170 07/02 A3031 RMK AO2 PK WND 22027/0015 SLP271 T00720022=
202001052353 METAR KSEA 052353Z 22017G23KT 10SM FEW028 SCT100 BKN200 08/02 A3029 RMK AO2 SLP264 60004 T00780017 10089 20061 51037=
202001052253 METAR KSEA 052253Z 22014G22KT 10SM FEW028 FEW090 SCT200 08/03 A3026 RMK AO2 SLP255 T00830028=
202001052153 METAR KSEA 052153Z 21016G24KT 10SM SCT025 BKN085 08/03 A3022 RMK AO2 PK WND 21029/2123 SLP243 T00830028=
202001052053 METAR KSEA 052053Z 21017G28KT 10SM SCT019 BKN090 08/04 A3018 RMK AO2 PK WND 21028/2047 SLP227 60004 T00830044 53015=
202001051953 METAR KSEA 051953Z 19018G26KT 10SM OVC015 07/04 A3015 RMK AO2 PK WND 20029/1933 RAE20 SLP217 P0001 T00670039=
202001051853 METAR KSEA 051853Z 19016G25KT 3SM RA SCT018 OVC027 07/04 A3015 RMK AO2 SLP219 P0003 T00670039=
202001051753 METAR KSEA 051753Z 18010G19KT 6SM -RA OVC028 07/03 A3013 RMK AO2 RAB08 SLP212 P0004 60005 T00670033 10072 20056 55013=
202001051653 METAR KSEA 051653Z 15010KT 10SM BKN044 OVC055 07/02 A3013 RMK AO2 RAE1555 SLP211 P0000 T00670017=
202001051553 METAR KSEA 051553Z 14010G16KT 10SM -RA FEW030 OVC045 06/02 A3014 RMK AO2 RAB27 SLP213 P0000 T00610022=
202001051453 METAR KSEA 051453Z 14011KT 10SM FEW038 SCT070 OVC080 07/02 A3017 RMK AO2 SLP225 60001 T00720022 58023=
202001051353 METAR KSEA 051353Z 16009KT 10SM BKN034 OVC043 06/03 A3020 RMK AO2 RAE18 SLP234 P0000 T00610028=
202001051253 METAR KSEA 051253Z 18008KT 10SM -RA OVC030 06/03 A3022 RMK AO2 SLP242 P0001 T00610028=
202001051153 METAR KSEA 051153Z 16007KT 10SM -RA FEW037 OVC046 06/03 A3024 RMK AO2 SLP249 P0002 60002 70007 T00610033 10072 20061 58012=
202001051053 METAR KSEA 051053Z 18006KT 10SM -RA OVC038 06/03 A3026 RMK AO2 RAB29 SLP254 P0000 T00610028=
202001050953 METAR KSEA 050953Z 18008KT 10SM FEW038 BKN065 OVC080 07/02 A3026 RMK AO2 RAB26E36 SLP257 P0000 T00670022=
202001050853 METAR KSEA 050853Z 18007KT 10SM FEW035 SCT060 OVC080 07/02 A3028 RMK AO2 RAE08 SLP261 P0000 60000 T00670022 58019=
202001050753 METAR KSEA 050753Z 16006KT 9SM -RA SCT035 OVC043 07/02 A3031 RMK AO2 RAB53 SLP272 P0000 T00670022 400780044=
202001050653 METAR KSEA 050653Z 16007KT 10SM FEW039 BKN065 07/02 A3033 RMK AO2 SLP279 T00670022=
202001050553 METAR KSEA 050553Z 17008KT 10SM SCT038 BKN048 BKN070 07/02 A3033 RMK AO2 RAE16 SLP280 P0000 60002 T00720022 10072 20061 58002=
202001050453 METAR KSEA 050453Z 18012KT 10SM -RA SCT028 BKN038 OVC070 07/02 A3033 RMK AO2 RAB40 SLP281 P0000 T00720022=
202001050353 METAR KSEA 050353Z 18010KT 10SM BKN034 BKN080 OVC120 07/03 A3034 RMK AO2 RAB04E22 SLP282 P0001 T00670028=
202001050253 METAR KSEA 050253Z 19013KT 10SM FEW013 BKN040 BKN120 07/03 A3034 RMK AO2 SLP282 60001 T00670028 56003=
202001050153 METAR KSEA 050153Z 17011KT 10SM FEW018 SCT034 BKN120 BKN200 07/03 A3034 RMK AO2 SLP282 T00670028=
202001050053 METAR KSEA 050053Z 18012KT 10SM SCT018 BKN034 BKN110 07/03 A3034 RMK AO2 RAE46 SLP282 P0001 T00670033=
202001042353 METAR KSEA 042353Z 15009KT 9SM -RA SCT016 BKN023 OVC050 07/03 A3035 RMK AO2 RAB03 SLP285 P0001 60003 T00670033 10078 20056 53018=
202001042342 SPECI KSEA 042342Z 00000KT 10SM -RA SCT016 BKN025 BKN050 07/04 A3034 RMK AO2 RAB03 P0001 T00670039=
202001042253 METAR KSEA 042253Z 19012G20KT 10SM SCT021 BKN030 BKN050 07/03 A3032 RMK AO2 RAE43 SLP277 P0000 T00720033=
202001042153 METAR KSEA 042153Z 20015G21KT 10SM -RA SCT016 BKN028 BKN040 07/04 A3030 RMK AO2 RAB2057 SLP271 P0001 T00720039=
202001042053 METAR KSEA 042053Z 20013KT 10SM SCT017 BKN026 OVC033 07/04 A3029 RMK AO2 SLP266 60001 T00720044 51018=
202001041953 METAR KSEA 041953Z 19014G20KT 10SM SCT017 BKN022 08/04 A3028 RMK AO2 RAE19 SLP261 P0001 T00780039=
202001041853 METAR KSEA 041853Z 18010KT 10SM -RA FEW017 BKN022 BKN038 06/03 A3028 RMK AO2 RAB39 SLP262 P0000 T00560028=
202001041833 SPECI KSEA 041833Z 18014G20KT 10SM SCT017 BKN022 BKN031 06/02 A3027 RMK AO2 T00610022=
202001041753 METAR KSEA 041753Z 20016G21KT 10SM FEW023 SCT110 06/03 A3024 RMK AO2 SLP248 T00610028 10072 20044 51038=
202001041731 SPECI KSEA 041731Z 20014G20KT 10SM FEW017 SCT023 BKN110 06/03 A3022 RMK AO2 T00560028=
202001041653 METAR KSEA 041653Z 19012KT 10SM SCT020 BKN026 BKN033 06/02 A3020 RMK AO2 SLP236 T00560022=
202001041642 SPECI KSEA 041642Z 17011G19KT 10SM FEW020 BKN026 BKN034 06/02 A3020 RMK AO2 T00560022=
202001041553 METAR KSEA 041553Z 17012KT 10SM FEW019 SCT024 05/02 A3017 RMK AO2 SLP224 T00500022=
202001041453 METAR KSEA 041453Z 16008KT 10SM FEW060 05/02 A3013 RMK AO2 PK WND 22026/1400 SLP209 T00500022 53060=
202001041353 METAR KSEA 041353Z 21016G20KT 10SM FEW060 07/01 A3006 RMK AO2 PK WND 22026/1309 PRESRR SLP186 T00670011=
202001041253 METAR KSEA 041253Z 22015G22KT 10SM FEW060 FEW120 07/03 A3000 RMK AO2 SLP165 T00670028=
202001041153 METAR KSEA 041153Z 20015G23KT 10SM SCT016 BKN120 07/04 A2995 RMK AO2 PK WND 21028/1107 SLP148 60018 70036 T00670044 10089 20067 53035=
202001041053 METAR KSEA 041053Z 21016G26KT 10SM SCT017 BKN050 OVC060 07/04 A2989 RMK AO2 PK WND 19033/1020 SLP127 T00720039=
202001041017 SPECI KSEA 041017Z 21018G29KT 10SM BKN014 OVC049 07/05 A2988 RMK AO2 PK WND 21029/1001 T00720050=
202001040953 METAR KSEA 040953Z 19018KT 10SM FEW009 BKN015 OVC049 07/05 A2986 RMK AO2 RAE08 SLP118 P0001 T00720050=
202001040901 SPECI KSEA 040901Z 18015G22KT 10SM -RA FEW007 BKN024 OVC030 07/05 A2984 RMK AO2 P0001 T00670050=
202001040853 METAR KSEA 040853Z 18014G19KT 10SM -RA FEW009 SCT024 OVC032 07/05 A2984 RMK AO2 SLP112 P0004 60017 T00670050 51025=
202001040805 SPECI KSEA 040805Z 20013KT 10SM -RA FEW009 OVC036 07/06 A2982 RMK AO2 P0001 T00720056=
202001040753 METAR KSEA 040753Z 22012KT 9SM -RA FEW007 BKN015 OVC034 08/06 A2982 RMK AO2 SLP106 P0010 T00780061 401670078=
202001040736 SPECI KSEA 040736Z 21012G21KT 6SM -RA BR SCT007 BKN013 OVC034 08/07 A2982 RMK AO2 P0007 T00780067=
202001040712 SPECI KSEA 040712Z 21014G19KT 9SM -RA SCT009 BKN025 OVC037 08/07 A2982 RMK AO2 P0002 T00780067=
202001040653 METAR KSEA 040653Z 21012KT 9SM -RA FEW026 SCT034 OVC041 08/07 A2981 RMK AO2 SLP100 P0003 T00830067=
202001040553 METAR KSEA 040553Z 22012G22KT 10SM -RA FEW013 OVC038 09/07 A2977 RMK AO2 PK WND 22034/0509 PRESRR SLP086 P0007 60012 T00890067 10167 20089 53024=
202001040453 METAR KSEA 040453Z 24011G20KT 8SM -RA OVC055 09/06 A2973 RMK AO2 SLP073 P0004 T00940056=
202001040353 METAR KSEA 040353Z 28006G17KT 10SM -RA BKN060 OVC120 11/04 A2970 RMK AO2 RAE12B34 SLP063 P0001 T01060039=
202001040253 METAR KSEA 040253Z 19014G19KT 10SM -RA SCT060 BKN085 OVC150 14/01 A2969 RMK AO2 PK WND 17029/0203 RAB04 SLP061 P0000 60000 T01440006 56040=
202001040153 METAR KSEA 040153Z 18020G26KT 10SM SCT075 BKN110 OVC180 16/M04 A2972 RMK AO2 PK WND 18028/0126 SLP069 T01611044=
202001040053 METAR KSEA 040053Z 17018G27KT 10SM FEW040 BKN170 OVC250 15/M02 A2976 RMK AO2 PK WND 17027/0049 SLP084 T01501022=
202001032353 METAR KSEA 032353Z 15010KT 10SM FEW040 BKN170 BKN250 12/05 A2981 RMK AO2 SLP103 T01170050 10122 20100 58034=
202001032253 METAR KSEA 032253Z 16005KT 10SM FEW040 BKN160 BKN250 11/06 A2986 RMK AO2 SLP117 T01060061=
202001032153 METAR KSEA 032153Z 16003KT 10SM FEW035 BKN160 BKN250 12/07 A2988 RMK AO2 SLP126 ACSL DSNT SE T01170067=
202001032053 METAR KSEA 032053Z 14005KT 10SM FEW035 BKN140 OVC250 12/05 A2992 RMK AO2 SLP137 T01170050 58021=
202001031953 METAR KSEA 031953Z 00000KT 10SM FEW035 FEW140 OVC250 11/06 A2995 RMK AO2 SLP150 T01110061=
202001031853 METAR KSEA 031853Z 32003KT 10SM FEW030 FEW120 BKN250 11/06 A2998 RMK AO2 SLP159 T01110056=
202001031753 METAR KSEA 031753Z 35004KT 10SM FEW030 FEW120 BKN250 10/07 A2998 RMK AO2 SLP159 ACSL DSNT SE 60006 T01000067 10122 20083 53012=
202001031653 METAR KSEA 031653Z 17004KT 10SM FEW025 SCT120 OVC250 12/04 A2997 RMK AO2 SLP154 ACSL DSNT SE T01170039=
202001031553 METAR KSEA 031553Z 16006KT 10SM FEW025 SCT120 OVC240 09/06 A2995 RMK AO2 SLP149 T00940061=
202001031453 METAR KSEA 031453Z 16004KT 10SM FEW040 FEW120 OVC220 08/07 A2994 RMK AO2 SLP147 60006 T00830072 56004=
202001031353 METAR KSEA 031353Z 19006KT 10SM FEW033 BKN040 BKN120 09/07 A2994 RMK AO2 RAB04E23 SLP147 P0001 T00940072=
202001031346 SPECI KSEA 031346Z 17006KT 10SM FEW032 BKN040 OVC120 10/08 A2994 RMK AO2 RAB04E23 P0001 T01000078=
202001031253 METAR KSEA 031253Z 18007KT 10SM OVC025 09/08 A2992 RMK AO2 RAE53 SLP141 P0005 T00940078=
202001031153 METAR KSEA 031153Z 18008KT 4SM -RA BR OVC026 09/08 A2995 RMK AO2 SLP151 P0005 60008 70029 T00940078 10100 20089 55000=
202001031053 METAR KSEA 031053Z 20010KT 4SM -RA BR OVC033 09/08 A2995 RMK AO2 RAB23 SLP149 P0002 T00940078=
202001030953 METAR KSEA 030953Z 16012KT 7SM OVC023 10/07 A2994 RMK AO2 RAE37 SLP146 P0000 T01000072=
202001030853 METAR KSEA 030853Z 15011G20KT 4SM -RA OVC025 10/07 A2995 RMK AO2 RAB17 SLP150 P0001 60001 T01000072 51002=
202001030833 SPECI KSEA 030833Z 16013KT 4SM -RA BR OVC027 09/07 A2996 RMK AO2 RAB17 P0000 T00940072=
202001030753 METAR KSEA 030753Z 17014G21KT 10SM FEW034 BKN043 OVC080 10/07 A2995 RMK AO2 SLP150 T01000067 401000050=
202001030718 SPECI KSEA 030718Z 19014KT 10SM SCT030 OVC038 10/07 A2996 RMK AO2 T01000067=
202001030653 METAR KSEA 030653Z 19011KT 10SM BKN028 OVC038 09/07 A2996 RMK AO2 RAE28 SLP152 P0000 T00940067=
202001030553 METAR KSEA 030553Z 18015KT 10SM -RA SCT029 OVC048 09/07 A2995 RMK AO2 RAE31B50 SLP149 P0001 60010 T00940067 10094 20050 51001=
202001030531 SPECI KSEA 030531Z 18012KT 10SM SCT029 OVC034 08/07 A2995 RMK AO2 RAE31 P0001 T00830067=
202001030453 METAR KSEA 030453Z 17012KT 5SM -RA BR FEW017 OVC027 08/07 A2995 RMK AO2 SLP148 P0001 T00780067=
202001030353 METAR KSEA 030353Z 16007KT 3SM -RA BR FEW005 OVC025 07/06 A2995 RMK AO2 SLP149 P0004 T00670056=
202001030332 SPECI KSEA 030332Z 18010KT 3SM -RA BR FEW004 OVC027 07/06 A2994 RMK AO2 P0002 T00670056=
202001030253 METAR KSEA 030253Z 17009KT 4SM -RA BR BKN022 OVC029 06/05 A2994 RMK AO2 RAB0154 SLP148 P0001 60004 T00610050 56029=
202001030153 METAR KSEA 030153Z 14008KT 3SM BR BKN021 OVC040 05/04 A2996 RMK AO2 RAE53 SLP154 P0001 T00500039=
202001030113 SPECI KSEA 030113Z 11007KT 7SM -RA BKN027 OVC041 05/03 A2997 RMK AO2 P0000 T00500033=
202001030053 METAR KSEA 030053Z 11008KT 10SM -RA FEW027 OVC044 05/03 A2998 RMK AO2 SLP161 P0002 T00500033=
202001030017 SPECI KSEA 030017Z 12007KT 5SM -RA BR FEW010 SCT015 OVC031 05/03 A3001 RMK AO2 P0001 T00500028=
202001022353 METAR KSEA 022353Z 13007KT 6SM -RA BR BKN015 OVC030 05/03 A3003 RMK AO2 SLP177 P0002 60011 T00500028 10067 20050 56020=
202001022253 METAR KSEA 022253Z 13008KT 8SM -RA SCT015 OVC028 06/03 A3004 RMK AO2 SLP182 P0004 T00560028=
202001022220 SPECI KSEA 022220Z 14007KT 8SM -RA BKN015 OVC027 06/03 A3006 RMK AO2 P0002 T00560028=
202001022153 METAR KSEA 022153Z 13008KT 6SM -RA BKN013 OVC020 06/03 A3006 RMK AO2 SLP188 P0002 T00560028=
202001022135 SPECI KSEA 022135Z 17004KT 6SM -RA BKN013 BKN020 OVC030 06/03 A3007 RMK AO2 P0001 T00560028=
202001022053 METAR KSEA 022053Z 15006KT 7SM -RA BKN022 BKN028 OVC050 06/03 A3009 RMK AO2 RAB01E12B33 SLP197 P0000 60003 T00610028 58021=
202001021953 METAR KSEA 021953Z 14008KT 10SM FEW020 BKN028 OVC042 06/03 A3011 RMK AO2 RAE48 SLP206 P0001 T00610028=
202001021906 SPECI KSEA 021906Z 17005KT 8SM -RA BKN025 OVC032 06/03 A3015 RMK AO2 P0000 T00610033=
202001021853 METAR KSEA 021853Z 17005KT 8SM -RA SCT023 OVC032 06/04 A3015 RMK AO2 SLP218 P0002 T00610039=
202001021753 METAR KSEA 021753Z 17007KT 7SM -RA BKN035 OVC044 06/03 A3015 RMK AO2 RAB53 SLP219 P0000 60000 T00610028 10067 20061 53014=
202001021653 METAR KSEA 021653Z 16007KT 10SM FEW025 OVC085 06/02 A3014 RMK AO2 SLP215 T00610017=
202001021553 METAR KSEA 021553Z 17005KT 10SM FEW020 OVC095 06/02 A3012 RMK AO2 SLP208 T00610022=
202001021453 METAR KSEA 021453Z 19006KT 10SM OVC100 06/02 A3011 RMK AO2 SLP205 T00610022 55002=
202001021353 METAR KSEA 021353Z 16005KT 10SM FEW024 OVC110 06/02 A3009 RMK AO2 SLP198 T00610017=
202001021253 METAR KSEA 021253Z 18004KT 10SM FEW024 OVC120 06/02 A3011 RMK AO2 SLP204 T00610022=
202001021153 METAR KSEA 021153Z 22009KT 10SM FEW026 BKN048 OVC120 07/02 A3012 RMK AO2 SLP205 T00670017 10083 20067 50017=
202001021144 SPECI KSEA 021144Z 20006KT 10SM FEW026 BKN048 OVC120 07/02 A3012 RMK AO2 T00670017=
202001021053 METAR KSEA 021053Z 21006KT 9SM BKN027 BKN033 OVC048 07/02 A3012 RMK AO2 SLP206 T00720017=
202001020953 METAR KSEA 020953Z 22009KT 10SM BKN026 OVC047 07/02 A3009 RMK AO2 SLP196 T00720022=
202001020853 METAR KSEA 020853Z 20009KT 10SM SCT025 07/02 A3007 RMK AO2 SLP188 T00720022 51025=
202001020845 SPECI KSEA 020845Z 21009KT 10SM SCT025 07/02 A3007 RMK AO2 T00720017=
202001020753 METAR KSEA 020753Z 22010KT 10SM BKN029 BKN035 OVC060 08/03 A3005 RMK AO2 SLP183 T00780028 401170078=
202001020653 METAR KSEA 020653Z 20008KT 10SM OVC024 08/04 A3002 RMK AO2 SLP174 T00780039=
202001020553 METAR KSEA 020553Z 21010KT 10SM OVC018 08/04 A2999 RMK AO2 SLP162 T00830044 10106 20083 53033=
202001020453 METAR KSEA 020453Z 21013KT 10SM OVC018 09/05 A2996 RMK AO2 SLP151 T00890050=
202001020353 METAR KSEA 020353Z 21012KT 10SM BKN018 OVC080 09/06 A2992 RMK AO2 SLP138 T00890056=
202001020253 METAR KSEA 020253Z 21010G21KT 10SM BKN017 BKN080 09/06 A2989 RMK AO2 SLP129 T00890056 53008=
202001020153 METAR KSEA 020153Z 20015G23KT 10SM BKN022 BKN090 09/06 A2987 RMK AO2 PK WND 21026/0131 SLP123 T00940056=
202001020113 SPECI KSEA 020113Z 21017G23KT 10SM SCT019 BKN095 10/06 A2986 RMK AO2 T01000061=
202001020053 METAR KSEA 020053Z 20019G27KT 10SM BKN022 BKN090 10/06 A2986 RMK AO2 PK WND 20027/0052 SLP119 T01000061=
202001012353 METAR KSEA 012353Z 21014G20KT 10SM BKN019 BKN080 11/07 A2987 RMK AO2 SLP121 T01060067 10117 20100 51013=
202001012253 METAR KSEA 012253Z 20008G20KT 10SM BKN020 11/06 A2986 RMK AO2 SLP117 T01110061=
202001012153 METAR KSEA 012153Z 21014G21KT 10SM BKN020 BKN110 11/07 A2984 RMK AO2 SLP111 T01110067=
202001012053 METAR KSEA 012053Z 22009KT 10SM BKN020 BKN100 11/07 A2983 RMK AO2 SLP107 T01110067 50010=
202001011953 METAR KSEA 011953Z 20012G17KT 10SM BKN015 11/07 A2983 RMK AO2 SLP108 T01060072=
202001011907 SPECI KSEA 011907Z 21013G19KT 10SM BKN015 11/07 A2982 RMK AO2 T01060072=
202001011853 METAR KSEA 011853Z 21013KT 10SM BKN014 10/07 A2982 RMK AO2 SLP104 T01000072=
202001011753 METAR KSEA 011753Z 22012G19KT 10SM BKN013 10/07 A2980 RMK AO2 SLP097 T01000067 10106 20094 51027=
202001011653 METAR KSEA 011653Z 24006KT 10SM OVC010 10/07 A2978 RMK AO2 SLP092 T01000072=
202001011553 METAR KSEA 011553Z 24008KT 10SM BKN011 OVC016 10/07 A2975 RMK AO2 SLP083 T01000072=
202001011545 SPECI KSEA 011545Z 24007KT 10SM SCT011 BKN016 OVC095 09/07 A2975 RMK AO2 PRESRR T00940067=
202001011453 METAR KSEA 011453Z 24011G18KT 10SM FEW015 BKN070 BKN160 11/07 A2972 RMK AO2 SLP070 T01060067 53013=
202001011431 SPECI KSEA 011431Z 23009G17KT 200V260 10SM SCT015 BKN160 11/07 A2971 RMK AO2 T01060072=
202001011353 METAR KSEA 011353Z 21014G20KT 10SM BKN015 10/07 A2969 RMK AO2 SLP062 T01000072=
202001011253 METAR KSEA 011253Z 23013G22KT 10SM BKN015 11/08 A2968 RMK AO2 PK WND 21027/1217 SLP058 T01060078=
202001011153 METAR KSEA 011153Z 22012G22KT 10SM BKN015 11/08 A2968 RMK AO2 PK WND 21026/1140 SLP057 70025 T01060078 10117 20106 53006=
202001011053 METAR KSEA 011053Z 22016G26KT 10SM BKN015 BKN120 11/08 A2966 RMK AO2 PK WND 22026/1035 SLP051 T01110083=
202001010953 METAR KSEA 010953Z 22015G24KT 10SM OVC015 11/08 A2968 RMK AO2 PK WND 22029/0855 SLP056 T01110083=
202001010853 METAR KSEA 010853Z 22024G29KT 10SM BKN015 12/09 A2966 RMK AO2 PK WND 22029/0852 SLP051 T01170089 58002=
202001010812 SPECI KSEA 010812Z 21015G25KT 10SM OVC015 12/09 A2966 RMK AO2 T01170089=
202001010753 METAR KSEA 010753Z 22016G27KT 10SM OVC013 12/09 A2967 RMK AO2 PK WND 21030/0725 SLP053 T01170094 401170078=
202001010653 METAR KSEA 010653Z 22012G29KT 10SM OVC012 12/09 A2966 RMK AO2 PK WND 21029/0556 SLP052 T01170094=
202001010619 SPECI KSEA 010619Z 22013G22KT 10SM OVC010 12/10 A2967 RMK AO2 PK WND 21029/0556 T01170100=
202001010553 METAR KSEA 010553Z 21014G24KT 10SM OVC008 12/10 A2967 RMK AO2 PK WND 21032/0530 RAE0454 SLP054 P0000 60013 T01170100 10117 20094 53002=
202001010453 METAR KSEA 010453Z 20014G25KT 10SM -RA OVC006 11/09 A2966 RMK AO2 SLP051 P0000 T01060094=
202001010353 METAR KSEA 010353Z 21015G26KT 10SM -RA OVC005 10/09 A2965 RMK AO2 PK WND 19032/0304 SLP049 P0000 T01000089=
202001010253 METAR KSEA 010253Z 19020G30KT 6SM -RA BR OVC006 10/09 A2966 RMK AO2 PK WND 19031/0229 SLP051 P0001 60013 T01000089 56029=
202001010153 METAR KSEA 010153Z 18018G27KT 10SM -RA OVC008 09/08 A2969 RMK AO2 PK WND 18027/0151 PRESFR SLP059 P0003 T00940083=
202001010053 METAR KSEA 010053Z 17016G23KT 6SM -RA BR BKN008 OVC014 09/08 A2970 RMK AO2 PRESFR SLP064 P0009 T00940078=
202001010029 SPECI KSEA 010029Z 19013G23KT 3SM -RA BR BKN008 OVC014 09/08 A2975 RMK AO2 P0007 T00940083=

# No short TAF reports from KSEA in databse.

###################################
#  large TAF from KSEA
###################################
202001312330 TAF KSEA 312330Z 0100/0206 19017G27KT 5SM -RA BR SCT010 OVC015
                       WS020/20045KT FM010800 19020G30KT 5SM -RA
                       BR BKN015 OVC030 FM011200 20022G32KT 5SM
                       -RA BR OVC020 FM011800 23017G27KT P6SM -SHRA
                       BKN022 BKN040 FM012300 24012G20KT P6SM VCSH
                       BKN035 BKN060 FM020300 21009KT P6SM VCSH
                       BKN040=
202001311950 KSEA 311950Z 3120/0124 19015G25KT 5SM -RA BR SCT008 OVC020 WS020/20040KT
                       TEMPO 3120/3122 3SM -RA BR BKN008 OVC015
                       FM312200 19015G25KT 6SM -RA BR OVC015 WS020/20045KT
                       FM010300 19018G28KT P6SM -RA BKN025 OVC040
                       FM011000 20020G30KT 5SM -RA OVC015 FM011800
                       22015G25KT P6SM -SHRA BKN027 BKN040=
202001311733 TAF KSEA 311733Z 3118/0124 17011KT 5SM -RA BR SCT008 OVC020 WS020/20040KT
                       TEMPO 3118/3122 3SM -RA BR BKN008 OVC015
                       FM312200 19014G22KT 6SM -RA BR OVC015 WS020/20045KT
                       FM010300 19018G28KT P6SM -RA BKN025 OVC040
                       FM011000 20020G30KT 5SM -RA OVC015 FM011800
                       22015G25KT P6SM -SHRA BKN027 BKN040=
202001311559 KSEA 311559Z 3116/0118 17011KT 6SM -RA BR SCT006 OVC025 WS020/20040KT
                       TEMPO 3116/3118 4SM -RA BR BKN005 OVC022
                       FM311800 19014G22KT 5SM -RA BR OVC008 FM010300
                       19018G28KT P6SM -RA BKN025 OVC040 FM011000
                       20018G28KT 5SM -RA OVC015=
202001311259 KSEA 311259Z 3113/0118 17012KT P6SM FEW005 OVC035 WS020/20040KT
                       TEMPO 3113/3116 5SM -RA BR BKN005 OVC017
                       FM311700 19014G22KT 5SM -RA BR OVC008 FM010300
                       19018G28KT P6SM -RA BKN025 OVC040 FM011000
                       20018G28KT 5SM -RA OVC015=
202001311127 TAF KSEA 311127Z 3112/0118 19012KT 5SM -RA BR SCT005 BKN017 OVC023
                       WS020/20040KT
                      TEMPO 3112/3116 3SM -RA BR BKN005 OVC017
                       FM311700 19014G22KT 5SM -RA BR OVC008 FM010300
                       19018G28KT P6SM -RA BKN025 OVC040 FM011000
                       20018G28KT 5SM -RA OVC015=
202001310925 KSEA 310925Z 3109/0112 18012KT 5SM -RA BR SCT005 BKN011 OVC022
                       WS020/20040KT
                      TEMPO 3109/3113 3SM -RA BR BKN005 OVC011
                       FM311700 19014G22KT 5SM -RA BR OVC008 FM010300
                       19018G28KT P6SM -SHRA BKN025 OVC040=
202001310905 KSEA 310905Z 3109/0112 18012KT 5SM -RA BR BKN003 OVC025 WS020/20040KT
                       FM311700 19014G22KT 5SM -RA BR OVC008 FM010300
                       19018G28KT P6SM -SHRA BKN025 OVC040=
202001310531 TAF KSEA 310531Z 3106/0112 16006KT 3SM -RA BR SCT010 BKN019 OVC025
                       FM310900 18010KT 3SM -RA BR OVC012 WS020/20040KT
                       FM311700 19014G22KT 5SM -RA BR OVC008 FM010300
                       19018G28KT P6SM -SHRA BKN025 OVC040=
202001310301 KSEA 310301Z 3103/0106 15008KT 6SM -RA BR OVC040 FM310500 17008KT
                       5SM -RA BR BKN022 OVC040 FM310900 18010KT
                       3SM -RA BR OVC012 WS020/20040KT FM311700
                       19014G22KT 5SM -RA BR OVC008 FM010300 19018G28KT
                       P6SM -SHRA BKN025 OVC040=
202001302340 TAF KSEA 302340Z 3100/0106 18009KT P6SM -RA BKN050 OVC100 FM310300
                       17008KT 5SM -RA BR BKN022 OVC040 FM310900
                       18010KT 3SM -RA BR OVC012 WS020/20040KT
                       FM311700 19014G22KT 5SM -RA BR OVC008 FM010300
                       19018G28KT P6SM -SHRA BKN025 OVC040=
202001302102 KSEA 302102Z 3021/3124 17007KT P6SM SCT015 SCT040 OVC100 FM310000
                       17006KT P6SM -RA BKN040 OVC100 FM310300
                       17008KT 5SM -RA BR BKN015 OVC025 FM310900
                       18010KT 3SM -RA BR OVC010 WS020/20040KT
                       FM311700 19014G22KT 5SM -RA BR OVC008=
202001301742 TAF KSEA 301742Z 3018/3124 16006KT P6SM SCT015 SCT040 OVC100
                      TEMPO 3018/3019 3SM BR BKN010 FM310000 17006KT
                       P6SM -RA BKN040 OVC100 FM310300 17008KT
                       5SM -RA BR BKN015 OVC025 FM310900 18010KT
                       3SM -RA BR OVC010 WS020/20040KT FM311700
                       19014G22KT 5SM -RA BR OVC008=
202001301554 KSEA 301554Z 3016/3118 15005KT P6SM SCT015 BKN120
                      TEMPO 3016/3018 3SM BR BKN010 FM301800 16006KT
                       P6SM SCT040 OVC100 FM310000 17006KT P6SM
                       -RA BKN040 OVC100 FM310300 17008KT 5SM -RA
                       BR BKN015 OVC025 FM310900 18010KT 3SM -RA
                       BR OVC010=
202001301516 KSEA 301516Z 3015/3118 15005KT P6SM SCT020 BKN100 FM301800 16006KT
                       P6SM BKN200 FM310000 17006KT P6SM -RA BKN040
                       OVC100 FM310300 17008KT 5SM -RA BR BKN015
                       OVC025 FM310900 18010KT 3SM -RA BR OVC010=
202001301402 KSEA 301402Z 3014/3118 15005KT P6SM SCT002 BKN007 OVC015
                      TEMPO 3014/3017 2SM BR BKN002 OVC007 FM301800
                       16006KT P6SM BKN200 FM310000 17006KT P6SM
                       -RA BKN040 OVC100 FM310300 17008KT 5SM -RA
                       BR BKN015 OVC025 FM310900 18010KT 3SM -RA
                       BR OVC010=
202001301127 TAF KSEA 301127Z 3012/3118 17006KT P6SM SCT002 BKN007 OVC015
                      TEMPO 3012/3016 2SM BR BKN002 OVC007 FM301800
                       16006KT P6SM BKN200 FM310000 17006KT P6SM
                       -RA BKN040 OVC100 FM310300 17008KT 5SM -RA
                       BR BKN015 OVC025 FM310900 18010KT 3SM -RA
                       BR OVC010=
202001300900 KSEA 300900Z 3009/3112 13005KT 4SM BR BKN006 BKN014 OVC018 FM301800
                       16007KT P6SM BKN200 FM302300 17005KT 6SM
                       -RA BKN400 FM310300 17005KT 6SM -RA OVC025=
202001300616 KSEA 300616Z 3006/3112 10006KT 5SM BR FEW003 BKN015
                      TEMPO 3006/3010 2SM BR BKN003 OVC015 FM301200
                       11004KT 3SM BR OVC005 FM301800 16007KT P6SM
                       BKN200 FM302300 17005KT 6SM -RA BKN400 FM310300
                       17005KT 6SM -RA OVC025=
202001300526 TAF KSEA 300526Z 3006/3112 VRB04KT 3SM BR BKN005 OVC015
                      TEMPO 3007/3011 OVC003 FM301200 11004KT 3SM
                       BR OVC005 FM301800 16007KT P6SM BKN200 FM302300
                       17005KT 6SM -RA BKN400 FM310300 17005KT
                       6SM -RA OVC025=
202001300303 KSEA 300303Z 3003/3106 19004KT 4SM -DZ BR BKN005 OVC015 FM301200
                       11004KT 6SM BR OVC020 FM301800 16007KT P6SM
                       OVC250=
202001292322 TAF KSEA 292322Z 3000/3106 19009KT P6SM BKN025 OVC120 FM300400
                       VRB04KT P6SM BKN035 OVC050 FM301200 11004KT
                       P6SM SCT025 BKN050 FM301800 18007KT P6SM
                       OVC100=
202001292100 KSEA 292100Z 2921/3024 17010KT P6SM -RA FEW010 BKN020 OVC030 FM300000
                       22009KT P6SM SCT006 BKN012 OVC020 FM300600
                       VRB04KT P6SM BKN035 OVC050 FM301200 11004KT
                       P6SM SCT025 BKN050 FM302100 18007KT P6SM
                       OVC100=
202001291720 TAF KSEA 291720Z 2918/3024 16008KT P6SM -RA OVC035 FM291900 18012KT
                       5SM -RA SCT010 OVC020 FM300000 22009KT P6SM
                       SCT006 BKN012 OVC020 FM300600 VRB04KT P6SM
                       BKN035 OVC050 FM301200 11004KT P6SM SCT025
                       BKN050 FM302100 18007KT P6SM OVC100=
202001291145 TAF KSEA 291145Z 2912/3018 18008KT P6SM SCT040 OVC070 FM291500
                       16008KT P6SM -RA OVC035 WS020/20040KT FM292000
                       18012KT 5SM -RA SCT010 OVC020 FM300000 22009KT
                       P6SM SCT006 BKN012 OVC020 FM300600 14006KT
                       P6SM SCT020 BKN035 OVC050 FM301000 11004KT
                       P6SM SCT006 BKN011 OVC020=
202001290937 KSEA 290937Z 2910/3012 16008KT P6SM SCT025 OVC035 FM291400 16008KT
                       P6SM -RA OVC035 WS020/20040KT FM292000 18012KT
                       5SM -RA OVC020 FM300100 22009KT P6SM SCT006
                       BKN012 OVC020=
202001290532 TAF KSEA 290532Z 2906/3012 16005KT 4SM -RA BR FEW006 OVC025
                      TEMPO 2906/2910 BKN006 FM291400 17008KT P6SM
                       -RA OVC020 WS020/20040KT FM291800 18012KT
                       4SM -RA OVC020 WS020/20040KT FM300100 22009KT
                       4SM BR OVC015=
202001290304 KSEA 290304Z 2903/3006 20005KT P6SM VCSH BKN025
                      TEMPO 2903/2906 6SM -SHRA OVC020 FM290600
                       17008KT P6SM BKN025 OVC150 FM291400 17008KT
                       P6SM -RA OVC030 WS020/20040KT FM291800 18010KT
                       4SM -RA OVC020 WS020/20040KT FM300100 20010KT
                       4SM BR OVC015=
202001290130 KSEA 290130Z 2902/3006 20005KT P6SM VCSH SCT025 BKN040
                      TEMPO 2902/2905 -SHRA OVC022 FM290600 17008KT
                       P6SM BKN040 OVC150 FM291400 17008KT P6SM
                       -RA OVC040 FM291800 18012KT 6SM -RA OVC020
                       FM300100 20010KT P6SM OVC015=
202001282338 TAF KSEA 282338Z 2900/3006 19010KT P6SM SCT025 BKN040 FM290600
                       17008KT P6SM BKN040 OVC150 FM291400 17008KT
                       P6SM -RA OVC040 FM291800 18012KT 6SM -RA
                       OVC020 FM300100 20010KT P6SM OVC015=
202001282102 KSEA 282102Z 2821/2924 20004KT P6SM FEW009 SCT030 BKN050 FM290000
                       18008KT P6SM SCT025 BKN040 FM290600 15008KT
                       P6SM SCT050 BKN120 FM291400 17008KT P6SM
                       -RA OVC040=
202001281828 TAF KSEA 281828Z 2818/2924 14008KT P6SM -SHRA SCT025 BKN035 OVC060
                       FM290000 18008KT P6SM SCT025 BKN040 FM290600
                       15008KT P6SM SCT050 BKN120 FM291400 17008KT
                       P6SM -RA OVC040=
202001281707 KSEA 281707Z 2817/2918 14008KT P6SM -SHRA SCT025 BKN035 OVC060
                       FM290000 18008KT P6SM SCT025 BKN040 FM290600
                       15008KT P6SM SCT050 BKN120 FM291300 15008KT
                       P6SM -RA OVC040=
202001281458 KSEA 281458Z 2815/2918 14008KT P6SM -RA SCT025 BKN035 OVC060 FM290000
                       18008KT P6SM SCT025 BKN040 FM290600 15008KT
                       P6SM SCT050 BKN120 FM291300 15008KT P6SM
                       -RA OVC040=
202001281144 TAF KSEA 281144Z 2812/2918 14008KT P6SM BKN025 BKN040 FM281400
                       14008KT P6SM -RA SCT025 BKN040 OVC060 FM290000
                       18008KT P6SM SCT025 BKN040 FM290600 15008KT
                       P6SM SCT050 BKN120 FM291300 15008KT P6SM
                       -RA OVC040=
202001280904 KSEA 280904Z 2809/2912 14008KT P6SM -RA BKN035 OVC050 FM281500
                       17007KT P6SM -SHRA BKN025 FM290000 17005KT
                       P6SM VCSH BKN030 FM291100 16005KT 6SM -RA
                       OVC025=
202001280536 TAF KSEA 280536Z 2806/2912 10010KT P6SM -RA OVC030 WS020/17035KT
                       FM280900 17010KT P6SM -SHRA BKN020 OVC025
                       WS020/17035KT FM281500 17007KT P6SM -SHRA
                       BKN025 FM290000 17005KT P6SM VCSH BKN030
                       FM291100 16005KT 6SM -RA OVC025=
202001280308 KSEA 280308Z 2803/2906 10010KT P6SM -RA OVC035 FM280900 18010KT
                       P6SM -SHRA BKN025 OVC040 FM281500 17007KT
                       P6SM -RA OVC025 FM290000 18005KT P6SM BKN030=
202001272320 TAF KSEA 272320Z 2800/2906 12008KT P6SM -RA OVC040
                      TEMPO 2800/2802 4SM RA BR FM281100 18010KT
                       P6SM -SHRA BKN025 OVC040 FM281500 17007KT
                       P6SM -RA OVC025 FM290000 18005KT P6SM BKN030=
202001272100 KSEA 272100Z 2721/2824 13006KT P6SM FEW015 SCT040 BKN150 FM272300
                       12008KT P6SM -RA OVC040 FM281100 18010KT
                       P6SM -SHRA BKN025 OVC040 FM281500 17007KT
                       P6SM -RA OVC025=
202001271730 TAF KSEA 271730Z 2718/2824 14008KT P6SM FEW010 SCT030 SCT200 FM272300
                       12008KT P6SM -RA OVC040 FM281100 18010KT
                       P6SM -SHRA BKN025 OVC040 FM281500 17007KT
                       P6SM -RA OVC025=
202001271525 KSEA 271525Z 2715/2818 20009KT P6SM -SHRA SCT030 BKN045 OVC080
                       FM271800 18008KT P6SM SCT035 BKN050 FM272200
                       11008KT P6SM -RA OVC040 FM281100 18010KT
                       P6SM -SHRA BKN025 OVC040=
202001271140 TAF KSEA 271140Z 2712/2818 20012KT P6SM -SHRA SCT022 BKN040 OVC060
                       FM271800 18008KT P6SM SCT035 BKN050 FM272200
                       11008KT P6SM -RA OVC040 FM281100 18010KT
                       P6SM -SHRA BKN025 OVC040=
202001270940 KSEA 270940Z 2710/2812 20012KT P6SM SCT020 BKN050 FM271600 16006KT
                       P6SM VCSH BKN030 BKN050 FM280100 12009KT
                       P6SM -RA OVC025=
202001270539 TAF KSEA 270539Z 2706/2812 18009KT P6SM -RA SCT025 OVC040 FM271000
                       19010KT P6SM -SHRA SCT020 OVC025 FM271600
                       16006KT P6SM VCSH BKN030 BKN050 FM280100
                       12009KT P6SM -RA OVC025=
202001270307 KSEA 270307Z 2703/2806 16011KT P6SM VCSH BKN050 OVC070 FM270400
                       17010KT P6SM -RA OVC030 FM271000 19010KT
                       P6SM -SHRA SCT020 OVC025 FM271600 16006KT
                       P6SM VCSH BKN030 BKN050 FM280100 11009KT
                       P6SM -RA OVC025=
202001262336 TAF KSEA 262336Z 2700/2806 20010KT P6SM VCSH SCT025 BKN050 FM270400
                       17010KT P6SM -RA OVC030 FM271000 19010KT
                       P6SM -SHRA SCT008 BKN015 OVC025 FM271800
                       16006KT P6SM VCSH BKN030 BKN050 FM280100
                       11009KT P6SM -RA OVC025=
202001262002 KSEA 262002Z 2620/2724 19011KT P6SM SCT035 BKN050 BKN150 FM270400
                       17010KT P6SM -RA OVC035 FM271000 19010KT
                       P6SM -SHRA SCT006 BKN011 OVC020 FM271800
                       16006KT P6SM VCSH BKN025 BKN040=
202001261727 TAF KSEA 261727Z 2618/2724 19012KT P6SM VCSH SCT012 BKN025 BKN050
                       FM262200 19011KT P6SM SCT035 BKN050 BKN150
                       FM270400 17010KT P6SM -RA OVC035 FM271000
                       19010KT P6SM -SHRA SCT006 BKN011 OVC020
                       FM271800 16006KT P6SM VCSH BKN025 BKN040=
202001261500 KSEA 261500Z 2615/2718 19015G25KT P6SM -SHRA SCT010 BKN020 OVC035
                       FM262200 19012KT P6SM SCT035 BKN050 BKN150
                       FM270400 17010KT P6SM -RA OVC040 FM271000
                       19010KT P6SM -SHRA SCT006 BKN011 OVC020=
202001261146 TAF KSEA 261146Z 2612/2718 19008KT P6SM -RA OVC040 WS020/18040KT
                       FM261500 19015G25KT P6SM -SHRA SCT020 BKN035
                       OVC050 FM261800 19015G25KT P6SM -SHRA SCT010
                       BKN020 OVC035 FM262200 19012KT P6SM SCT035
                       BKN050 BKN150 FM270400 17010KT P6SM -RA
                       OVC040 FM271000 19010KT P6SM -SHRA SCT006
                       BKN011 OVC020=
202001260902 KSEA 260902Z 2609/2712 11008KT P6SM -RA OVC040 WS020/18040KT FM261500
                       18015G25KT P6SM -SHRA SCT020 BKN030 OVC050
                       FM262100 20012KT P6SM VCSH SCT035 BKN050
                       FM270400 17010KT P6SM -RA BKN035 OVC050=
202001260533 TAF KSEA 260533Z 2606/2712 09006KT P6SM SCT050 BKN120 FM260700
                       08003KT P6SM OVC050 FM260900 11008KT P6SM
                       -RA OVC030 WS020/18040KT FM261600 18015G25KT
                       P6SM -SHRA SCT020 BKN030 BKN050 FM262100
                       20012KT P6SM VCSH SCT035 BKN050 FM270400
                       17010KT P6SM -RA BKN035 OVC050=
202001260305 KSEA 260305Z 2603/2706 09006KT P6SM SCT050 BKN120 FM260700 08008KT
                       P6SM -RA OVC050 FM261100 16012KT P6SM -RA
                       OVC030 WS020/18040KT FM261600 18015G25KT
                       P6SM -SHRA SCT020 BKN030 BKN050 FM262100
                       20012KT P6SM VCSH BKN035 BKN050=
202001252329 TAF KSEA 252329Z 2600/2706 18008KT P6SM SCT010 BKN020 BKN050
                      TEMPO 2600/2604 SCT025 BKN050 FM260400 09006KT
                       P6SM SCT050 BKN120 FM260700 08008KT P6SM
                       -RA OVC050 FM261100 16012KT P6SM -RA OVC030
                       WS020/18040KT FM261600 18015G25KT P6SM -SHRA
                       SCT020 BKN030 BKN050 FM262100 20012KT P6SM
                       VCSH BKN035 BKN050=
202001251956 KSEA 251956Z 2520/2624 15006KT P6SM SCT005 OVC015
                      TEMPO 2520/2522 3SM -DZ BR OVC005 FM252300
                       14008KT P6SM SCT012 BKN025 BKN050 FM260200
                       09006KT P6SM SCT060 BKN120 FM260700 08008KT
                       P6SM -RA OVC050 FM261500 18015G25KT P6SM
                       -SHRA SCT020 BKN030 BKN050=
202001251734 TAF KSEA 251734Z 2518/2624 15006KT P6SM SCT015 OVC025
                      TEMPO 2518/2521 6SM -DZ BR OVC015 FM252300
                       14008KT P6SM SCT025 BKN050 FM260200 09006KT
                       P6SM SCT060 BKN150 FM260700 08008KT P6SM
                       -RA OVC050 FM261500 18015G25KT P6SM -SHRA
                       SCT020 BKN030 BKN050=
202001251555 KSEA 251555Z 2516/2618 15006KT P6SM -SHRA BKN025 OVC045 FM252200
                       14008KT P6SM SCT035 BKN060 FM260100 09006KT
                       P6SM SCT060 BKN150 FM260600 08008KT P6SM
                       -RA OVC050 FM261400 18015G25KT P6SM -SHRA
                       SCT020 BKN030 BKN050=
202001251139 TAF KSEA 251139Z 2512/2618 15006KT P6SM -RA OVC045 FM251700 18010KT
                       P6SM SCT025 OVC045
                      TEMPO 2517/2520 -SHRA BKN025 OVC045 FM252200
                       14008KT P6SM SCT035 BKN060 FM260100 09006KT
                       P6SM SCT060 BKN150 FM260600 08008KT P6SM
                       -RA OVC050 FM261400 18015G25KT P6SM -SHRA
                       SCT020 BKN030 BKN050=
202001250917 KSEA 250917Z 2509/2612 12006KT P6SM -RA OVC040 FM251500 11006KT
                       4SM -RA BR OVC025 FM251700 15008KT P6SM
                       VCSH SCT025 OVC035 FM252000 19008KT P6SM
                       SCT025 BKN035 OVC040 FM260600 08008KT P6SM
                       -RA OVC050=
202001250522 TAF KSEA 250522Z 2506/2612 17005KT 5SM -SHRA BR SCT009 BKN015 OVC035
                       FM250800 14006KT P6SM SCT025 OVC035 FM251300
                       11006KT 4SM -RA BR OVC025 FM251700 15008KT
                       P6SM VCSH SCT025 OVC035 FM252000 19008KT
                       P6SM SCT025 BKN035 OVC040 FM260600 08008KT
                       P6SM -RA OVC050=
202001250308 KSEA 250308Z 2503/2606 17006KT 3SM RA BR SCT025 OVC035 FM250400
                       17005KT P6SM -RA SCT025 OVC030 FM251700
                       15008KT P6SM VCSH BKN040=
202001242320 TAF KSEA 242320Z 2500/2606 21012G20KT P6SM VCSH SCT025 BKN040 FM251000
                       15008KT P6SM -RA OVC030 FM251700 15008KT
                       P6SM VCSH BKN040=
202001242115 KSEA 242115Z 2421/2524 20012G22KT P6SM VCSH SCT025 BKN040 FM251200
                       15008KT P6SM -RA OVC030 FM251800 15008KT
                       P6SM VCSH BKN040=
202001241732 TAF KSEA 241732Z 2418/2524 18012KT P6SM -SHRA SCT020 BKN040 FM251200
                       15008KT P6SM -RA OVC030 FM251800 15008KT
                       P6SM VCSH BKN040=
202001241407 KSEA 241407Z 2414/2518 18009KT P6SM -SHRA SCT015 BKN040 OVC050
                       FM241500 18009KT P6SM -SHRA OVC025 FM241900
                       19009KT P6SM SCT025 OVC040 FM250900 15005KT
                       P6SM -SHRA SCT025 OVC040=
202001241130 TAF KSEA 241130Z 2412/2518 18009KT P6SM -SHRA SCT015 BKN025 OVC035
                       FM241500 18009KT P6SM -SHRA OVC025 FM241900
                       19009KT P6SM SCT025 OVC040 FM250900 15005KT
                       P6SM -SHRA SCT025 OVC040=
202001240851 KSEA 240851Z 2409/2512 13010KT P6SM -SHRA OVC060 FM241200 17010KT
                       P6SM -SHRA OVC025 FM241800 18012KT P6SM
                       -SHRA SCT025 OVC040=
202001240524 TAF KSEA 240524Z 2406/2512 13010KT P6SM -SHRA OVC060 FM240900 17010KT
                       P6SM -SHRA OVC025 FM250000 18005KT P6SM
                       -SHRA OVC040=
202001240232 KSEA 240232Z 2403/2506 16011KT 6SM -RA BR OVC060 FM240900 18009KT
                       P6SM -SHRA OVC025 FM250000 20012G18KT P6SM
                       -SHRA OVC040=
202001232329 TAF KSEA 232329Z 2400/2506 17010KT 5SM -RA BR OVC030 FM240900 18009KT
                       P6SM -SHRA OVC025 FM250000 20012G18KT P6SM
                       -SHRA OVC040=
202001232103 KSEA 232103Z 2321/2424 18010KT 6SM -RA BR FEW007 OVC025 FM240900
                       20009KT P6SM -SHRA OVC020=
202001231723 TAF KSEA 231723Z 2318/2424 18010KT 4SM -RA BR SCT015 OVC025 FM232300
                       17009KT 5SM -RA BR SCT010 OVC015 FM240900
                       20009KT P6SM -SHRA OVC020=
202001231403 KSEA 231403Z 2314/2418 17009KT P6SM -RA OVC030 FM231500 18010KT
                       5SM -RA BR SCT010 OVC020 FM232300 18009KT
                       5SM -RA BR SCT010 OVC015 FM240900 17009KT
                       P6SM SCT010 OVC015=
202001231132 TAF KSEA 231132Z 2312/2418 17009KT P6SM OVC030 FM231500 18010KT
                       5SM -RA BR SCT010 OVC020 FM232300 18009KT
                       5SM -RA BR SCT010 OVC015 FM240900 17009KT
                       P6SM SCT010 OVC015=
202001230909 KSEA 230909Z 2309/2412 17008KT P6SM -RA SCT030 OVC050 FM231200
                       17009KT P6SM SCT010 OVC025 FM231500 18010KT
                       5SM -RA BR BKN010 OVC020=
202001230520 TAF KSEA 230520Z 2306/2412 15008KT P6SM OVC030 FM230900 17008KT
                       P6SM -RA SCT010 OVC023 FM231500 18010KT
                       5SM -RA BR BKN010 OVC020=
202001230301 KSEA 230301Z 2303/2406 16006KT P6SM OVC025 FM231200 17009KT P6SM
                       -RA SCT007 OVC015 FM231900 18012KT 5SM BR
                       VCSH OVC020=
202001222336 TAF KSEA 222336Z 2300/2406 11009KT P6SM -RA OVC025 FM231200 17009KT
                       P6SM -RA SCT007 OVC015 FM231900 18012KT
                       5SM BR VCSH OVC020=
202001222054 KSEA 222054Z 2221/2324 11008KT P6SM -RA FEW025 BKN035 OVC050 FM222300
                       12009KT 4SM -RA BR OVC015 FM231200 17009KT
                       5SM -RA BR SCT007 OVC015 FM231900 18012KT
                       P6SM OVC025=
202001221730 TAF KSEA 221730Z 2218/2324 14007KT P6SM -RA FEW012 BKN035 OVC040
                       FM221900 15008KT 5SM -RA BR OVC025 FM222300
                       12009KT 4SM -RA BR OVC015 FM231200 17009KT
                       5SM -RA BR SCT007 OVC015 FM231900 18012KT
                       P6SM OVC025=
202001221403 KSEA 221403Z 2214/2318 19012KT P6SM -RA SCT015 BKN030 BKN050 FM221600
                       14008KT P6SM -RA SCT015 OVC025 FM221900
                       12009KT 4SM -RA BR OVC015 FM231200 17009KT
                       5SM -RA BR SCT007 OVC015=
202001221128 TAF KSEA 221128Z 2212/2318 18012G20KT P6SM BKN030 BKN050 FM221600
                       14008KT P6SM -RA OVC025 FM221900 12009KT
                       4SM -RA BR OVC015 FM231200 17009KT 5SM -RA
                       BR SCT007 OVC015=
202001220906 KSEA 220906Z 2209/2312 18013G20KT P6SM OVC040 FM221600 14008KT
                       P6SM -RA OVC025 FM221900 12008KT 4SM -RA
                       BR OVC013=
202001220523 TAF KSEA 220523Z 2206/2312 21014G22KT P6SM -SHRA FEW015 BKN025
                       OVC035 FM220800 20012G20KT P6SM SCT025 OVC050
                       FM221600 14008KT P6SM -RA OVC025 FM221900
                       12008KT 4SM -RA BR OVC013=
202001220301 KSEA 220301Z 2203/2306 18014G22KT P6SM -SHRA OVC035 FM220600 19012G20KT
                       P6SM SCT035 OVC050 FM221400 16008KT 5SM
                       -RA BR OVC020=
202001212324 TAF KSEA 212324Z 2200/2306 19015G25KT 6SM -RA BR SCT025 OVC040
                       FM220500 19012G20KT P6SM -SHRA OVC025 FM221400
                       16008KT 5SM -RA BR OVC020=
202001212101 KSEA 212101Z 2121/2224 20015G25KT 6SM -RA BR BKN030 OVC040 FM212300
                       19015G25KT P6SM -SHRA SCT020 OVC025 FM220500
                       18012KT P6SM VCSH SCT020 OVC030 FM221500
                       16008KT 6SM -RA BR OVC020=
202001211816 KSEA 211816Z 2118/2224 17012G20KT 6SM -RA BR OVC045 FM212200 19015G25KT
                       P6SM -SHRA SCT020 OVC025 FM220500 18012KT
                       P6SM VCSH SCT020 OVC030 FM221500 16008KT
                       6SM -RA BR OVC020=
202001211731 TAF KSEA 211731Z 2118/2224 17012KT P6SM VCSH SCT040 BKN060 FM212000
                       19014G22KT 6SM -RA BR OVC030 FM212200 19015G25KT
                       P6SM -SHRA SCT020 OVC025 FM220500 18012KT
                       P6SM VCSH SCT020 OVC030 FM221500 16008KT
                       6SM -RA BR OVC020=
202001211418 KSEA 211418Z 2114/2218 18012KT P6SM -RA SCT030 OVC040 FM211900
                       19014G22KT 6SM -SHRA BR OVC020 FM212300
                       19015G25KT P6SM -SHRA SCT020 OVC025 FM220500
                       18012KT P6SM SCT020 OVC030=
202001211131 TAF KSEA 211131Z 2112/2218 14009KT P6SM -RA SCT020 OVC050 FM211900
                       19014G22KT 6SM -SHRA BR OVC020 FM212300
                       19015G25KT P6SM -SHRA SCT020 OVC025 FM220500
                       18012KT P6SM SCT020 OVC030=
202001210855 KSEA 210855Z 2109/2212 11009KT P6SM -SHRA BKN100 OVC200 FM211200
                       14012KT P6SM -RA SCT020 BKN040 OVC060 FM211900
                       17014G22KT 6SM -SHRA BR OVC020 FM212300
                       19015G25KT P6SM -SHRA SCT020 OVC025=
202001210520 TAF KSEA 210520Z 2106/2212 11006KT P6SM BKN100 OVC200 FM211000
                       11006KT P6SM -RA SCT020 BKN040 OVC060 FM211500
                       17012G18KT 6SM -SHRA BR OVC020=
202001210300 KSEA 210300Z 2103/2206 13007KT P6SM FEW040 SCT120 BKN200 FM211000
                       12011KT 6SM -RA OVC030 FM211600 17012G18KT
                       6SM -SHRA BR OVC020=
202001202327 TAF KSEA 202327Z 2100/2206 07005KT P6SM VCSH BKN070 OVC100 FM210300
                       11008KT P6SM OVC060 FM211000 12011KT 6SM
                       -RA OVC030 FM211600 17012G18KT 6SM -SHRA
                       BR OVC020=
202001202101 KSEA 202101Z 2021/2124 VRB05KT P6SM VCSH BKN050 OVC200 FM210200
                       11009KT P6SM OVC050 FM211000 12011KT 6SM
                       -RA OVC030 FM211600 17012G18KT 6SM -SHRA
                       BR OVC020=
202001201729 TAF KSEA 201729Z 2018/2124 VRB05KT P6SM VCSH OVC040
                      TEMPO 2018/2020 6SM -RA BR FM202200 VRB05KT
                       P6SM BKN050 FM210200 11009KT P6SM OVC050
                       FM211000 12011KT 6SM -RA OVC030 FM211600
                       17012G18KT 6SM -SHRA BR OVC020=
202001201652 KSEA 201652Z 2017/2118 14005KT P6SM VCSH OVC040
                      TEMPO 2017/2019 6SM -RA BR FM202200 10005KT
                       P6SM SCT030 OVC060 FM210200 12009KT P6SM
                       SCT030 OVC050=
202001201306 KSEA 201306Z 2013/2118 14008KT P6SM SCT035 BKN060 OVC090 FM202200
                       10005KT P6SM SCT030 OVC060 FM210200 12009KT
                       P6SM SCT030 OVC050=
202001201120 TAF KSEA 201120Z 2012/2118 VRB04KT P6SM SCT070 BKN100 FM201600
                       14008KT P6SM SCT035 BKN070 OVC100 FM202200
                       10005KT P6SM SCT030 OVC060 FM210200 12009KT
                       P6SM SCT030 OVC050=
202001200900 KSEA 200900Z 2009/2112 12012KT P6SM BKN150 FM201600 12008KT P6SM
                       SCT035 BKN070 OVC100 FM202200 09005KT P6SM
                       SCT030 OVC060 FM210200 12009KT P6SM SCT030
                       OVC050=
202001200534 TAF KSEA 200534Z 2006/2112 12012KT P6SM BKN150 FM201600 12008KT
                       P6SM SCT035 BKN070 OVC100=
202001192320 TAF KSEA 192320Z 2000/2106 12008KT P6SM VCSH SCT050 BKN080 BKN150
                       FM200100 10006KT P6SM SCT050 SCT080 BKN150
                       FM200900 12008KT P6SM SCT030 OVC050 FM201500
                       14006KT P6SM BKN030 OVC050 FM201800 13006KT
                       P6SM VCSH OVC030=
202001192104 KSEA 192104Z 1921/2024 12010KT P6SM VCSH FEW017 BKN035 OVC050 FM192300
                       08006KT P6SM SCT050 BKN070 BKN150 FM200600
                       13008KT P6SM SCT030 OVC050 FM201500 14006KT
                       P6SM BKN030 OVC050=
202001191720 TAF KSEA 191720Z 1918/2024 12010KT P6SM -RA SCT040 BKN070
                      TEMPO 1918/1921 SCT035 BKN040 FM200000 08006KT
                       P6SM SCT050 BKN070 BKN150 FM200600 13008KT
                       P6SM SCT030 OVC050 FM201500 14006KT P6SM
                       BKN030 OVC050=
202001191415 KSEA 191415Z 1914/2018 13005KT P6SM BKN040 FM191700 12006KT P6SM
                       -RA OVC035 FM200000 08006KT P6SM SCT050
                       BKN150 FM200600 13008KT P6SM SCT030 OVC050=
202001191120 TAF KSEA 191120Z 1912/2018 13005KT P6SM OVC040 FM191700 12006KT
                       P6SM -RA OVC035 FM200000 08006KT P6SM SCT050
                       BKN150 FM200600 13008KT P6SM SCT030 OVC050=
202001190900 KSEA 190900Z 1909/2012 13005KT P6SM SCT040 OVC050
                      TEMPO 1911/1915 BKN025 OVC050 FM191700 12006KT
                       P6SM -RA OVC035 FM200000 07006KT P6SM SCT050
                       BKN150=
202001190520 TAF KSEA 190520Z 1906/2012 13007KT P6SM SCT040 BKN060 BKN120
                      TEMPO 1910/1914 BKN025 OVC050 FM191700 12006KT
                       P6SM -RA OVC035 FM200000 07006KT P6SM SCT050
                       BKN150=
202001190310 KSEA 190310Z 1903/2006 16008KT P6SM FEW024 BKN040 BKN200 FM191700
                       12006KT P6SM -RA OVC035=
202001182329 TAF KSEA 182329Z 1900/2006 18011KT P6SM -SHRA SCT030 BKN050 FM190300
                       15008KT P6SM SCT030 OVC040 FM191700 12006KT
                       P6SM -RA OVC035=
202001182106 KSEA 182106Z 1821/1924 18011KT P6SM -SHRA SCT030 BKN050 FM190300
                       15008KT P6SM SCT030 OVC040 FM191700 12006KT
                       P6SM -RA OVC035=
202001181725 TAF KSEA 181725Z 1818/1924 09005KT P6SM -RA OVC035 FM181900 16008KT
                       P6SM -RA SCT015 BKN025 OVC040 FM182030 18011KT
                       P6SM -SHRA SCT030 BKN050 FM190300 15008KT
                       P6SM SCT030 OVC040=
202001181401 KSEA 181401Z 1814/1918 10010KT P6SM -RA OVC030 FM181700 18012KT
                       P6SM -SHRA SCT015 BKN025 OVC040 FM182100
                       18010KT P6SM SCT030 BKN050 FM190300 15008KT
                       P6SM OVC030=
202001181120 TAF KSEA 181120Z 1812/1918 11012KT P6SM -RA SCT030 OVC040 FM181300
                       15014KT P6SM -RA OVC030 FM181700 18012KT
                       P6SM -SHRA SCT015 BKN025 OVC040 FM182100
                       18010KT P6SM SCT030 BKN050 FM190300 15008KT
                       P6SM OVC030=
202001180905 KSEA 180905Z 1809/1912 11008KT P6SM -RA OVC030 FM181100 15010KT
                       P6SM -RA OVC030 FM181700 18010KT P6SM -SHRA
                       SCT015 BKN025 OVC040 FM182100 18010KT P6SM
                       SCT030 BKN050=
202001180541 TAF KSEA 180541Z 1806/1912 11008KT P6SM OVC050 FM180800 11008KT
                       P6SM -RA OVC040 FM181100 15010KT P6SM -RA
                       OVC030 FM181700 18010KT P6SM -SHRA SCT015
                       BKN025 OVC040 FM182100 18010KT P6SM SCT030
                       BKN050=
202001180359 KSEA 180359Z 1804/1906 11008KT P6SM OVC050 FM180800 11008KT P6SM
                       -RA OVC040 FM181700 18010KT P6SM -SHRA SCT015
                       BKN025 OVC040 FM182100 18010KT P6SM SCT025
                       BKN040 BKN060=
202001172320 TAF KSEA 172320Z 1800/1906 18009KT P6SM -RA FEW030 BKN040 OVC100
                       FM180300 13009KT P6SM -RA SCT025 OVC040
                       FM180900 11010KT P6SM -RA BKN020 OVC035
                       FM181500 18010KT P6SM -SHRA OVC025=
202001172104 KSEA 172104Z 1721/1824 15006KT P6SM VCSH FEW015 BKN040 OVC050 FM180300
                       11007KT P6SM -RA OVC040 FM180900 11007KT
                       P6SM -RA BKN020 OVC035=
202001171826 KSEA 171826Z 1718/1824 17004KT P6SM FEW015 BKN045 OVC100
                      TEMPO 1718/1721 -RASN SCT015 FM172100 15005KT
                       P6SM BKN050 OVC100 FM180300 11007KT P6SM
                       -RA OVC040 FM180900 11007KT P6SM -RA BKN020
                       OVC035=
202001171721 TAF KSEA 171721Z 1718/1824 17004KT P6SM FEW015 BKN045 OVC100 FM172100
                       15005KT P6SM BKN050 OVC100 FM180300 11007KT
                       P6SM -RA OVC040 FM180900 11007KT P6SM -RA
                       BKN020 OVC035=
202001171357 KSEA 171357Z 1714/1818 19008KT P6SM FEW011 SCT040 BKN120 FM171800
                       15004KT P6SM SCT030 BKN120 BKN200 FM180200
                       15004KT P6SM BKN060 OVC090 FM180600 11007KT
                       P6SM -RA OVC040 FM180900 11007KT P6SM -RA
                       BKN020 OVC035=
202001171120 TAF KSEA 171120Z 1712/1818 19008KT P6SM SCT010 FM171400 15004KT
                       P6SM SCT015 BKN025 OVC050 FM171800 15004KT
                       P6SM SCT030 BKN120 BKN200 FM180200 15004KT
                       P6SM BKN060 OVC090 FM180600 11007KT P6SM
                       -RA OVC040 FM180900 11007KT P6SM -RA BKN020
                       OVC035=
202001170902 KSEA 170902Z 1709/1812 19008KT P6SM BKN010 OVC020 FM171400 15004KT
                       P6SM SCT015 BKN025 OVC050
                      TEMPO 1714/1717 5SM -SHSN FM171800 15004KT
                       P6SM SCT030 BKN120 BKN200 FM180200 15004KT
                       P6SM BKN060 OVC090 FM180600 11007KT P6SM
                       -RA OVC040 FM180900 11007KT P6SM -RA BKN020
                       OVC035=
202001170539 TAF KSEA 170539Z 1706/1812 19008KT P6SM BKN050 FM171400 15004KT
                       P6SM SCT015 BKN025 OVC050
                      TEMPO 1714/1717 5SM -SHSN FM171800 15004KT
                       P6SM SCT030 BKN120 BKN200 FM180200 15004KT
                       P6SM BKN060 OVC090 FM180600 11007KT P6SM
                       -RA OVC040 FM180900 11007KT P6SM -RA BKN020
                       OVC035=
202001170345 KSEA 170345Z 1704/1806 21009KT P6SM SCT050
                      TEMPO 1704/1708 BKN050 FM170800 18005KT P6SM
                       SCT025 BKN040 BKN060 FM171800 15004KT P6SM
                       SCT030 BKN090 FM172300 16004KT P6SM BKN050
                       OVC090 FM180200 11007KT P6SM -RA BKN020
                       OVC040=
202001162320 TAF KSEA 162320Z 1700/1806 21009KT P6SM FEW030 SCT050 SCT250
                      TEMPO 1700/1704 SCT030 BKN050 FM170900 18005KT
                       P6SM SCT020 BKN030 OVC060 FM171800 15004KT
                       P6SM SCT030 BKN090 FM172300 16004KT P6SM
                       BKN050 OVC090 FM180200 11007KT P6SM -RA
                       BKN020 OVC040=
202001162106 KSEA 162106Z 1621/1724 24008KT P6SM SCT030 BKN050 BKN250 FM170900
                       18006KT P6SM SCT020 BKN030 OVC060 FM171800
                       15004KT P6SM SCT030 OVC100=
202001161723 TAF KSEA 161723Z 1618/1724 16010KT P6SM BKN060 BKN150 FM170900
                       18006KT P6SM SCT020 BKN030 OVC060 FM171800
                       15004KT P6SM SCT030 OVC100=
202001161504 KSEA 161504Z 1615/1718 15010KT P6SM VCSH SCT030 BKN060 OVC150
                      TEMPO 1615/1619 -SHRA BKN030 OVC060 FM170500
                       18006KT P6SM SCT020 OVC030=
202001161319 KSEA 161319Z 1613/1718 17010KT P6SM VCSH OVC030 FM161400 18010KT
                       P6SM VCSH SCT020 BKN030 OVC050 FM162000
                       20008KT P6SM SCT020 BKN035 OVC050 FM170500
                       18006KT P6SM SCT020 OVC030=
202001161120 TAF KSEA 161120Z 1612/1718 17010KT P6SM OVC030 FM161400 18010KT
                       P6SM -SHRA SCT012 BKN020 OVC030 FM162000
                       20008KT P6SM SCT020 BKN035 OVC050 FM170500
                       18006KT P6SM SCT020 OVC030=
202001160903 KSEA 160903Z 1609/1712 17012KT P6SM OVC030 FM161100 16012KT P6SM
                       -SHRA SCT020 OVC030 FM161400 18010KT P6SM
                       -SHRA SCT012 BKN020 OVC030 FM162000 20008KT
                       P6SM SCT020 BKN035 OVC050 FM170500 18006KT
                       P6SM SCT020 OVC030=
202001160551 TAF KSEA 160551Z 1606/1712 11012KT P6SM BKN060 BKN120 FM160900
                       16012KT P6SM -SHRA SCT025 BKN035 OVC050
                       FM161400 18010KT P6SM -SHRA SCT012 BKN020
                       OVC035 FM162000 18008KT P6SM SCT020 BKN035
                       OVC050=
202001160301 KSEA 160301Z 1603/1706 11015KT P6SM SCT025 OVC050 FM160900 16015KT
                       P6SM -SHRA OVC035 FM161200 18010KT P6SM
                       -SHRA SCT012 BKN020 OVC035 FM162000 18008KT
                       P6SM SCT020 BKN035 OVC050=
202001152346 TAF KSEA 152346Z 1600/1706 09015G25KT P6SM OVC040 FM160300 11015G25KT
                       P6SM -RA SCT025 OVC040
                      TEMPO 1603/1606 5SM -RASN BKN025 OVC040 FM160900
                       16015G25KT P6SM -RA OVC035 FM161200 18010KT
                       P6SM -SHRA SCT012 BKN020 OVC035 FM162000
                       18008KT P6SM SCT020 BKN035 OVC050=
202001152237 KSEA 152237Z 1523/1624 09015G25KT 1/2SM SN OVC009 FM160000 09015G25KT
                       4SM -SN SCT009 BKN025 OVC045 FM160100 09015G25KT
                       P6SM VCSH OVC040 FM160700 16015G25KT P6SM
                       -RA OVC035 FM161200 17010KT P6SM -SHRA OVC020=
202001152103 KSEA 152103Z 1521/1624 10012G25KT P6SM OVC040 FM160200 12015G25KT
                       P6SM VCSH OVC050 FM160700 16015G25KT P6SM
                       -RA OVC035 FM161200 17010KT P6SM -SHRA OVC020=
202001151737 TAF KSEA 151737Z 1518/1624 08014G22KT P6SM FEW050 SCT180 OVC250
                       FM160200 12015G25KT P6SM VCSH OVC050 FM160700
                       16015G25KT P6SM -RA OVC035 FM161200 17010KT
                       P6SM -SHRA OVC020=
202001151509 KSEA 151509Z 1515/1618 13014G18KT P6SM FEW030 SCT050 FM151800 08014G22KT
                       P6SM SCT030 BKN050 FM160200 12015G25KT P6SM
                       VCSH OVC050 FM160700 16015G25KT P6SM -RA
                       OVC035 FM161200 17010KT P6SM -SHRA OVC025=
202001151153 TAF KSEA 151153Z 1512/1618 18012G18KT P6SM SCT025 BKN040 FM151800
                       08014G22KT P6SM SCT030 BKN050 FM160200 12015G25KT
                       P6SM VCSH OVC050 FM160700 16015G25KT P6SM
                       -RA OVC035 FM161200 17010KT P6SM -SHRA OVC025=
202001150904 KSEA 150904Z 1509/1612 15015G25KT P6SM SCT040 BKN050 FM151800 08014G25KT
                       P6SM SCT030 BKN050 FM152100 07013G20KT P6SM
                       BKN060=
202001150732 KSEA 150732Z 1508/1612 19014G25KT P6SM SCT030 BKN050 OVC070 FM150900
                       15007KT P6SM VCSH BKN035 BKN040 FM151500
                       08006KT P6SM SCT030 BKN050 FM152100 07013G20KT
                       P6SM BKN060=
202001150540 TAF KSEA 150540Z 1506/1612 19012G22KT P6SM SCT030 BKN050 OVC070
                       TEMPO 1506/1509 5SM -SN BKN015 FM150900
                       15007KT P6SM VCSH BKN035 BKN040 FM151500
                       08006KT P6SM SCT030 BKN050 FM152100 07013G20KT
                       P6SM BKN060=
202001150303 KSEA 150303Z 1503/1606 19012G20KT P6SM SCT020 BKN045 OVC080 FM150400
                       19012KT 5SM -SN BR OVC015 FM150900 15007KT
                       P6SM VCSH BKN025 BKN040 FM151500 08006KT
                       P6SM SCT030 BKN050 FM152100 07013G20KT P6SM
                       BKN060=
202001150042 KSEA 150042Z 1501/1606 21012G20KT P6SM VCSH FEW017 SCT035 BKN045
                       TEMPO 1501/1504 5SM -SHSN BR BKN015 OVC040
                       FM150400 19012KT 5SM -SN BR OVC015 FM150900
                       15007KT P6SM VCSH BKN025 BKN040 FM151500
                       08006KT P6SM SCT030 BKN050 FM152100 07013G20KT
                       P6SM BKN060=
202001142324 TAF KSEA 142324Z 1500/1606 06006KT P6SM VCSH SCT015 BKN040
                      TEMPO 1500/1504 5SM -SHSN BR BKN015 OVC040
                       FM150400 18008KT 5SM -SN BR OVC015 FM150900
                       15005KT P6SM VCSH BKN025 BKN040 FM151500
                       08006KT P6SM SCT030 BKN050 FM152100 07013G20KT
                       P6SM BKN060=
202001142011 KSEA 142011Z 1420/1524 02006KT P6SM VCSH SCT007 BKN013 OVC022
                      TEMPO 1420/1423 3SM -SHSN BR BKN007 OVC013
                       FM142300 26006KT P6SM VCSH FEW008 BKN013
                       OVC022 FM150400 18008KT 5SM -SN BR OVC015
                       FM150900 15005KT P6SM VCSH BKN025 BKN040
                       FM151500 08006KT P6SM SCT030 BKN050 FM152100
                       07013G20KT P6SM BKN060=
202001141723 TAF KSEA 141723Z 1418/1524 16007KT P6SM VCSH FEW008 BKN013 OVC022
                       FM150400 18008KT 5SM -SN BR OVC015 FM150900
                       15005KT P6SM VCSH BKN025 BKN040 FM151500
                       08006KT P6SM SCT030 BKN050 FM152100 07013G20KT
                       P6SM BKN060=
202001141404 KSEA 141404Z 1414/1518 02009KT P6SM SCT007 BKN020 OVC035
                      TEMPO 1414/1416 5SM -SN BR BKN007 OVC015
                       FM141700 02006KT P6SM VCSH OVC020 FM142200
                       23007KT P6SM VCSH OVC025 FM150400 18008KT
                       5SM -SN BR OVC015 FM150900 15005KT P6SM
                       VCSH BKN025 BKN040=
202001141139 TAF KSEA 141139Z 1412/1518 02009KT 6SM -SN BR SCT007 BKN014 OVC025
                       TEMPO 1412/1416 3SM -SN BR BKN007 OVC012
                       FM141700 02006KT P6SM VCSH OVC015 FM142200
                       23007KT P6SM VCSH OVC022 FM150400 18008KT
                       5SM -SN BR OVC015 FM150900 15005KT P6SM
                       VCSH BKN025 BKN040=
202001140901 KSEA 140901Z 1409/1512 02009KT P6SM SCT007 SCT025 BKN030
                      TEMPO 1409/1413 2SM -SN BR BKN007 OVC018
                       FM141300 02007KT P6SM VCSH OVC015 FM141500
                       02006KT P6SM VCSH OVC020 FM142200 23007KT
                       P6SM VCSH OVC025=
202001140628 KSEA 140628Z 1406/1512 02009KT P6SM SCT007 SCT025 BKN030
                      TEMPO 1406/1410 2SM -SN BR BKN007 OVC018
                       FM141000 02007KT P6SM VCSH OVC015 FM141500
                       02006KT P6SM VCSH OVC020 FM142200 23007KT
                       P6SM VCSH OVC025=
202001140542 TAF KSEA 140542Z 1406/1512 02009KT P6SM SCT010 OVC025
                      TEMPO 1406/1409 4SM -SN BR BKN005 OVC025
                       FM141500 02006KT P6SM VCSH OVC020 FM142200
                       23007KT P6SM VCSH OVC025=
202001140311 KSEA 140311Z 1403/1506 35007KT P6SM SCT010 OVC030
                      TEMPO 1405/1409 4SM -SHSN BKN005 OVC010 FM141500
                       02006KT P6SM VCSH OVC025=
202001132331 TAF KSEA 132331Z 1400/1506 35007KT P6SM VCSH SCT005 OVC030
                      TEMPO 1400/1404 3SM -SHSN BKN005 OVC010 FM141500
                       02006KT P6SM VCSH OVC025=
202001132131 KSEA 132131Z 1322/1424 16005KT P6SM VCSH SCT008 OVC015 FM140000
                       36007KT P6SM VCSH OVC030 FM141500 02005KT
                       P6SM VCSH SCT020 BKN050=
202001132103 KSEA 132103Z 1321/1424 18005KT P6SM VCSH SCT008 OVC015 FM140100
                       36007KT P6SM VCSH SCT030 OVC060 FM141500
                       02005KT P6SM VCSH SCT020 BKN050=
202001131727 TAF KSEA 131727Z 1318/1424 18010KT P6SM VCSH BKN012 OVC050
                      TEMPO 1318/1321 5SM -SHSN BR SCT015 FM132100
                       VRB05KT P6SM VCSH BKN030 BKN060 FM140100
                       36007KT P6SM VCSH SCT030 OVC060 FM141500
                       02005KT P6SM VCSH SCT020 BKN050=
202001131403 KSEA 131403Z 1314/1418 18010KT P6SM SCT015 BKN030
                      TEMPO 1314/1317 5SM -SHSN BR BKN015 OVC025
                       FM131800 VRB04KT P6SM BKN030 BKN060 FM140200
                       36007KT P6SM SCT030 OVC060=
202001131127 TAF KSEA 131127Z 1312/1418 23008KT P6SM BKN025 BKN050 FM131600
                       VRB04KT P6SM BKN030 BKN060 FM132100 36010KT
                       P6SM BKN030 BKN060 FM140500 36010KT P6SM
                       SCT030 OVC060=
202001130913 KSEA 130913Z 1309/1412 VRB06KT 6SM -SN BR BKN015 OVC020 FM131200
                       36012KT P6SM -SHSN BKN012 OVC020 FM132100
                       03012KT P6SM BKN030 FM140500 03010KT P6SM
                       SCT040=
202001130533 TAF KSEA 130533Z 1306/1412 22010G20KT P6SM BKN020 BKN050 FM130900
                       VRB05KT 4SM -SN BR OVC012 FM131200 36012KT
                       P6SM -SHSN BKN012 OVC020 FM132100 03012KT
                       P6SM BKN030 FM140500 03010KT P6SM SCT040=
202001130308 KSEA 130308Z 1303/1406 22015G27KT P6SM BKN030 FM130700 23013G22KT
                       P6SM -SN OVC025 FM131400 02011KT P6SM OVC015
                       FM132100 03007KT P6SM OVC020=
202001122334 TAF KSEA 122334Z 1300/1406 22015G27KT P6SM BKN030 FM130400 23013G22KT
                       P6SM -SN OVC025 FM131400 02011KT P6SM OVC015
                       FM132100 03007KT P6SM OVC020=
202001122108 KSEA 122108Z 1221/1324 21015G27KT P6SM VCSH SCT015 OVC025 FM130000
                       20015G23KT 4SM -SHRA BR OVC015 FM130500
                       23015KT P6SM -SN OVC015 FM131400 02011KT
                       P6SM OVC015 FM132100 03007KT P6SM OVC020=
202001121725 TAF KSEA 121725Z 1218/1324 18015G22KT P6SM -RA OVC015 FM130000
                       20015G23KT 4SM -SHRA BR OVC015 FM130500
                       23015KT P6SM -SN OVC015 FM131400 02011KT
                       P6SM OVC015 FM132100 03007KT P6SM OVC020=
202001121401 KSEA 121401Z 1214/1318 18015G22KT P6SM -RA SCT020 OVC025 FM130000
                       20015G23KT 4SM -SHRA BR OVC015 FM130500
                       23015KT P6SM -SN OVC015 FM131200 35011KT
                       P6SM OVC015=
202001121125 TAF KSEA 121125Z 1212/1318 18015G22KT P6SM -RA SCT015 OVC025
                      TEMPO 1214/1218 OVC010 FM130000 20015G23KT
                       4SM -SHRA BR OVC015 FM130500 23015KT P6SM
                       -SN OVC015 FM131200 35011KT P6SM OVC015=
202001120858 KSEA 120858Z 1209/1312 20014G22KT P6SM -RA OVC011
                      TEMPO 1209/1213 6SM BR BKN009 FM130100 19015G23KT
                       4SM -SHRA BR SCT007 OVC015 FM130500 24015KT
                       P6SM -SN OVC015=
202001120544 TAF KSEA 120544Z 1206/1312 21014G22KT P6SM VCSH SCT009 OVC015 FM120700
                       21013G22KT 5SM -RA SCT009 OVC015 FM130100
                       19015G23KT 4SM -SHRA BR SCT007 OVC015 FM130500
                       24015KT P6SM -SN OVC015=
202001120303 KSEA 120303Z 1203/1306 21017G25KT P6SM VCSH BKN020 OVC070 FM120700
                       21013G22KT 6SM -RA OVC020 FM130100 19015G23KT
                       4SM -SHRA BR SCT007 OVC015=
202001112329 TAF KSEA 112329Z 1200/1306 21017G25KT P6SM VCSH BKN030 OVC200 FM120400
                       20013G22KT 6SM -RA OVC020 FM130100 19015G23KT
                       4SM -SHRA BR SCT007 OVC015=
202001112101 KSEA 112101Z 1121/1224 23015G21KT P6SM VCSH OVC022 FM120400 20013G20KT
                       6SM -RA OVC015=
202001111733 TAF KSEA 111733Z 1118/1224 22011KT P6SM VCSH BKN015 OVC030
                      TEMPO 1118/1121 -SHRA FM112100 22015G23KT
                       P6SM OVC030 FM120400 20013G20KT 6SM -RA
                       OVC015=
202001111401 KSEA 111401Z 1114/1218 23013KT P6SM -SHRA BKN010 OVC015 FM112100
                       21015G23KT P6SM OVC025 FM120400 20013G20KT
                       P6SM -RA OVC015=
202001111122 TAF KSEA 111122Z 1112/1218 18015G24KT P6SM -RA BKN015 OVC020 FM112100
                       21015G23KT P6SM OVC025 FM120400 20013G20KT
                       P6SM -RA OVC015=
202001110856 KSEA 110856Z 1109/1212 18015G24KT P6SM -RA SCT015 OVC025 FM112100
                       22015G25KT P6SM OVC025=
202001110527 TAF KSEA 110527Z 1106/1212 17015G22KT P6SM -RA SCT020 OVC030 FM110900
                       18015G24KT 5SM -SHRA BKN015 OVC030 FM112100
                       22015G25KT P6SM OVC025=
202001110305 KSEA 110305Z 1103/1206 17015G22KT P6SM -RA SCT020 BKN030 OVC070
                       FM110900 18015G24KT 5SM -SHRA BKN015 OVC030
                       FM112100 22015KT P6SM OVC030=
202001102335 TAF KSEA 102335Z 1100/1206 18015G25KT P6SM -SHRA BKN020 OVC025
                       FM110200 19015KT P6SM -SHRA BKN015 OVC030
                       FM112100 22015KT P6SM OVC030=
202001102100 KSEA 102100Z 1021/1124 16010KT 6SM -RA BR OVC030 FM102300 19015G25KT
                       P6SM -SHRA BKN020 OVC030 FM110200 19014KT
                       P6SM -SHRA BKN015 OVC030=
202001101739 TAF KSEA 101739Z 1018/1124 16010KT 5SM -RA BR SCT008 BKN016 OVC025
                       FM102300 19015G25KT P6SM -SHRA BKN020 OVC030
                       FM110200 19014KT P6SM -SHRA BKN015 OVC030=
202001101507 KSEA 101507Z 1015/1118 14010KT P6SM -RA SCT020 BKN030 OVC040 FM101700
                       16010KT 5SM -RA SCT008 BKN016 OVC025 FM102000
                       19015G25KT P6SM -SHRA BKN020 OVC030 FM110200
                       19014KT P6SM -SHRA SCT015 BKN025 OVC035=
202001101306 KSEA 101306Z 1013/1118 13010KT P6SM -RA SCT020 BKN035 OVC050 FM101700
                       16010KT 5SM -RA SCT008 BKN016 OVC025 FM102000
                       19015G25KT P6SM -SHRA BKN020 OVC030 FM110200
                       19010KT P6SM -SHRA SCT015 BKN025 OVC035=
202001101144 TAF KSEA 101144Z 1012/1118 17006KT 4SM -SN BKN016 OVC025 FM101600
                       17008KT 5SM -RA SCT008 BKN016 OVC025 FM102000
                       19015G25KT P6SM -SHRA BKN020 OVC030 FM110200
                       19010KT P6SM -SHRA SCT015 BKN025 OVC035=
202001100922 KSEA 100922Z 1009/1112 16007KT P6SM SCT010 BKN025 OVC080 FM101400
                       15011KT 2SM -RA OVC015 FM101800 18012G22KT
                       P6SM -SHRA BKN020 OVC030 FM110200 20010KT
                       P6SM -SHRA OVC025=
202001100520 TAF KSEA 100520Z 1006/1112 16007KT P6SM SCT010 OVC160 FM101000
                       17006KT P6SM SCT010 BKN030 OVC200 FM101400
                       15011KT 2SM -RA OVC015 FM101800 18012G22KT
                       P6SM -SHRA BKN020 OVC030 FM110200 20010KT
                       P6SM -SHRA OVC025=
202001100306 KSEA 100306Z 1003/1106 14006KT P6SM SCT010 OVC160 FM100600 17006KT
                       P6SM SCT015 BKN030 OVC200 FM101200 15012G20KT
                       2SM -RA OVC015 FM101800 18012G22KT P6SM
                       -SHRA BKN020 OVC030 FM110200 20010KT P6SM
                       -SHRA OVC025=
202001092336 TAF KSEA 092336Z 1000/1106 VRB04KT P6SM SCT007 SCT015 BKN200
                      TEMPO 1000/1004 BKN015 FM100400 17006KT P6SM
                       SCT015 BKN030 OVC200 FM101200 15012G20KT
                       2SM -RA OVC015 FM101800 18012G22KT P6SM
                       -SHRA BKN020 OVC030 FM110200 20010KT P6SM
                       -SHRA OVC025=
202001092020 KSEA 092020Z 0920/1024 VRB04KT 6SM BR SCT005 OVC009 FM092200 16005KT
                       P6SM SCT015 BKN030 FM100800 18006KT P6SM
                       OVC022 FM101400 16012G20KT P6SM -RA OVC020=
202001091730 TAF KSEA 091730Z 0918/1024 15005KT P6SM -RA OVC010
                      TEMPO 0918/0920 3SM -RA BR BKN005 FM092000
                       30006KT P6SM BKN025 OVC040 FM092300 VRB05KT
                       P6SM SCT025 BKN050 FM100800 18006KT P6SM
                       OVC022 FM101400 16012G20KT P6SM -RA OVC020=
202001091143 TAF KSEA 091143Z 0912/1018 15005KT P6SM SCT010 BKN035
                      TEMPO 0912/0916 BKN020 FM091600 18010KT P6SM
                       -RASN BKN017 OVC025 FM092000 30006KT P6SM
                       BKN025 OVC040 FM092300 VRB05KT P6SM SCT025
                       BKN050 FM100800 18006KT P6SM OVC022 FM101400
                       16011KT P6SM -RA OVC020=
202001090901 KSEA 090901Z 0909/1012 15005KT P6SM SCT035 BKN060 FM091700 18010KT
                       P6SM -SHRA BKN014 OVC025 FM092000 30006KT
                       P6SM BKN025 OVC040=
202001090524 TAF KSEA 090524Z 0906/1012 11005KT P6SM SCT025 BKN045 FM091700
                       18010KT P6SM -SHRA BKN014 OVC025 FM092000
                       30006KT P6SM BKN025 OVC040=
202001090307 KSEA 090307Z 0903/1006 12007KT P6SM -SHRA OVC020 FM090400 18006KT
                       6SM -SHRASN BR BKN015 OVC030 FM090800 20005KT
                       P6SM BKN020 OVC030 FM091700 18010KT P6SM
                       -SHRA BKN014 OVC025 FM092000 30006KT P6SM
                       BKN025 OVC040=
202001082321 TAF KSEA 082321Z 0900/1006 VRB05KT P6SM -SHRA SCT015 BKN025 OVC050
                       TEMPO 0900/0904 3SM -SHRA BR BKN015 OVC025
                       FM090600 18006KT P6SM BKN015 OVC030 FM091500
                       18010KT P6SM -SHRA BKN014 OVC025 FM092000
                       30006KT P6SM BKN025 OVC040=
202001082107 KSEA 082107Z 0821/0924 22010KT P6SM BKN022 OVC100 FM090100 21008KT
                       P6SM -SHRA BKN022 OVC035 FM090600 18006KT
                       P6SM BKN015 OVC030 FM091500 18010KT P6SM
                       -SHRA BKN014 OVC025 FM092000 25006KT P6SM
                       BKN025 OVC040=
202001081722 TAF KSEA 081722Z 0818/0924 22012G20KT P6SM BKN020 OVC030 FM082100
                       23011KT P6SM SCT025 BKN050
                      TEMPO 0821/0901 -SHRA BKN025 OVC050 FM090100
                       21008KT P6SM -SHRA BKN022 OVC035 FM090600
                       18006KT P6SM BKN015 OVC030 FM091500 18010KT
                       P6SM -SHRA BKN014 OVC025 FM092000 25006KT
                       P6SM BKN025 OVC040=
202001081608 KSEA 081608Z 0816/0918 22011G22KT P6SM BKN022 OVC028 FM081800 22012G20KT
                       P6SM VCSH SCT022 BKN045
                      TEMPO 0818/0821 BKN022 OVC045 FM082100 23011KT
                       P6SM VCSH SCT025 BKN050 FM090100 21008KT
                       P6SM -SHRA BKN022 OVC035 FM090800 18006KT
                       P6SM VCSH BKN015 OVC030 FM091500 18010KT
                       P6SM -SHRA BKN014 OVC025=
202001081400 KSEA 081400Z 0814/0918 22014G24KT P6SM SCT015 SCT025 OVC040
                      TEMPO 0814/0816 BKN020 FM081800 22012G20KT
                       P6SM VCSH SCT022 BKN045 FM082100 23011KT
                       P6SM VCSH SCT025 BKN050 FM090100 21008KT
                       P6SM -SHRA BKN022 OVC035 FM090800 18006KT
                       P6SM VCSH BKN015 OVC030 FM091500 18010KT
                       P6SM -SHRA BKN014 OVC025=
202001081132 TAF KSEA 081132Z 0812/0918 22014G24KT P6SM SCT015 SCT025 OVC040
                       TEMPO 0812/0816 BKN020 FM081800 22012G20KT
                       P6SM VCSH SCT022 BKN045 FM090100 21008KT
                       P6SM -SHRA BKN022 OVC035 FM090800 18006KT
                       P6SM VCSH BKN015 OVC030 FM091500 18010KT
                       P6SM -SHRA BKN014 OVC025=
202001080809 KSEA 080809Z 0808/0912 22014G22KT P6SM SCT010 BKN020 OVC050 FM081800
                       22012KT P6SM SCT020 BKN035 FM082200 21008KT
                       P6SM -SHRA BKN015 OVC035=
202001080521 KSEA 080521Z 0806/0912 20013KT P6SM SCT010 SCT030 OVC050 FM081800
                       22012KT P6SM SCT020 BKN035 FM082200 21008KT
                       P6SM -SHRA BKN015 OVC035=
202001080520 TAF KSEA 080520Z 0806/0912 21015G25KT P6SM BKN020 BKN040 FM081800
                       22012KT P6SM SCT020 BKN035 FM082200 21008KT
                       P6SM -SHRA BKN015 OVC035=
202001080303 KSEA 080303Z 0803/0906 18011KT P6SM -RA SCT025 OVC035 FM080430
                       21015G25KT P6SM BKN020 BKN040 FM081800 22012KT
                       P6SM SCT020 BKN035 FM082200 21008KT P6SM
                       -SHRA BKN015 OVC035=
202001072322 TAF KSEA 072322Z 0800/0906 20015G25KT P6SM -RA SCT025 BKN050 OVC090
                       TEMPO 0800/0803 5SM -RA BR BKN025 OVC050
                       FM080300 22015G25KT P6SM SCT025 BKN050 FM080600
                       22015G25KT P6SM BKN020 BKN040 FM081800 22012KT
                       P6SM SCT020 BKN035 FM082200 21008KT P6SM
                       -SHRA BKN015 OVC035=
202001072103 KSEA 072103Z 0721/0824 20012G18KT P6SM SCT040 BKN090 BKN250 FM072300
                       16012G20KT P6SM -RA BKN025 OVC040 FM080400
                       19012G20KT P6SM SCT008 BKN012 OVC020 FM080900
                       22012G20KT P6SM BKN015 BKN030 FM081800 22008KT
                       P6SM SCT020 BKN035=
202001071916 KSEA 071916Z 0719/0824 16012G20KT P6SM SCT025 BKN045 OVC100
                      TEMPO 0719/0722 BKN025 OVC045 FM072200 16012G20KT
                       P6SM -RA BKN025 OVC040 FM080400 19012G20KT
                       P6SM SCT008 BKN012 OVC020 FM080900 22012G20KT
                       P6SM BKN015 BKN030 FM081800 22008KT P6SM
                       SCT020 BKN035=
202001071720 TAF KSEA 071720Z 0718/0824 16012G20KT P6SM -RA FEW013 BKN023 OVC040
                       FM080400 19012KT P6SM SCT008 BKN012 OVC020
                       FM080900 22012G20KT P6SM BKN015 BKN030 FM081800
                       22008KT P6SM SCT020 BKN035=
202001071403 KSEA 071403Z 0714/0818 19014G23KT 6SM -RA BR SCT010 BKN018 OVC026
                       FM071800 19014G22KT 5SM -RA BR SCT004 BKN012
                       OVC020 FM080400 19012KT P6SM -SHRA SCT008
                       BKN012 OVC020 FM080900 22012G20KT P6SM -SHRA
                       BKN015 BKN030=
202001071122 TAF KSEA 071122Z 0712/0818 19014G23KT 6SM -RA BR SCT008 BKN015
                       OVC022 FM071800 19014G22KT 5SM -RA BR SCT004
                       BKN012 OVC020 FM080400 19012KT P6SM -SHRA
                       SCT008 BKN012 OVC020 FM080900 22012G20KT
                       P6SM -SHRA BKN015 BKN030=
202001070759 KSEA 070759Z 0708/0812 19014G22KT 6SM -RA BR SCT008 BKN020 OVC030
                       TEMPO 0708/0712 4SM RA BR BKN005 OVC012
                       FM071800 19014G22KT 5SM -RA BR SCT004 BKN008
                       OVC012 FM080400 19012KT P6SM -SHRA SCT008
                       BKN012 OVC020=
202001070539 TAF KSEA 070539Z 0706/0812 19014G22KT 4SM -RA BR BKN004 OVC008
                       FM071800 19014G22KT 5SM -RA BR SCT004 BKN008
                       OVC012 FM080400 19012KT P6SM -SHRA SCT008
                       BKN012 OVC020=
202001070259 KSEA 070259Z 0703/0806 19015G25KT 2SM -RA BR BKN006 OVC012
                      TEMPO 0703/0706 5SM -RA BR FM071800 19014G22KT
                       5SM -RA BR BKN012 OVC020=
202001062320 TAF KSEA 062320Z 0700/0806 19015G25KT 2SM -RA BR BKN007 OVC015
                       FM071800 19014G22KT 5SM -RA BR BKN012 OVC020=
202001062101 KSEA 062101Z 0621/0724 19015G25KT 6SM -RA BR BKN008 OVC012 FM070600
                       19014G22KT 5SM -RA BR BKN012 OVC020=
202001061722 TAF KSEA 061722Z 0618/0724 18015G23KT P6SM -RA SCT012 OVC023
                      TEMPO 0618/0622 4SM -RA BR OVC012 FM070600
                       19014G22KT 5SM -RA BR BKN012 OVC020=
202001061359 KSEA 061359Z 0614/0718 18014G22KT P6SM -RA SCT015 OVC025
                      TEMPO 0614/0618 5SM -RA BR BKN015 OVC025
                       FM070600 20012G22KT 5SM -RA BR BKN012 OVC020=
202001061120 TAF KSEA 061120Z 0612/0718 15008KT P6SM -RA OVC023 FM061600 18012G22KT
                       P6SM -RA BKN015 OVC030 FM070600 20012G22KT
                       5SM -RA BR BKN012 OVC020=
202001060910 KSEA 060910Z 0609/0712 18012KT P6SM -RA OVC022 FM061800 19014G23KT
                       4SM -RA BR OVC015=
202001060520 TAF KSEA 060520Z 0606/0712 18012KT P6SM -RA OVC025 FM061800 19014G23KT
                       4SM -RA BR OVC015=
202001060302 KSEA 060302Z 0603/0706 21015G27KT P6SM VCSH BKN025 BKN070 FM060600
                       18012KT 6SM -RA OVC020 FM061800 19014G23KT
                       4SM -RA OVC015=
202001052332 TAF KSEA 052332Z 0600/0706 21015G27KT P6SM VCSH SCT030 BKN080 FM060500
                       18012KT 6SM -RA OVC020 FM061800 19014G23KT
                       4SM -RA OVC015=
202001052103 KSEA 052103Z 0521/0624 21015G27KT P6SM VCSH SCT020 BKN080 WS020/19040KT
                       FM060500 18012KT 6SM -RA OVC020 FM061800
                       19014KT 4SM -RA OVC015=
202001051729 TAF KSEA 051729Z 0518/0624 17012G22KT 5SM -RA SCT020 OVC025 WS020/19040KT
                       FM052000 21015G27KT P6SM VCSH SCT015 OVC025
                       WS020/19040KT FM052300 21015G22KT P6SM VCSH
                       SCT025 BKN050 FM060800 18012KT 6SM -RA OVC020
                       FM061800 19014KT 4SM -RA OVC015=
202001051346 KSEA 051346Z 0514/0618 18008KT P6SM -RA OVC030 WS020/19040KT FM051800
                       19012G22KT 5SM -RA OVC025 WS020/19040KT
                       FM052100 21015G27KT P6SM VCSH SCT015 OVC025
                       WS020/19040KT FM060100 21015G22KT P6SM VCSH
                       BKN050 FM060800 18013KT 6SM -RA OVC020=
202001051337 KSEA 051337Z 0514/0618 18008KT P6SM -RA OVC030 WS020/19020KT FM051800
                       19012G22KT 5SM -RA OVC025 WS020/19020KT
                       FM052100 21015G27KT P6SM VCSH SCT015 OVC025
                       WS020/19020KT FM060100 21015G22KT P6SM VCSH
                       BKN050 FM060800 18013KT 6SM -RA OVC020=
202001051129 TAF KSEA 051129Z 0512/0618 18008KT P6SM -RA OVC035 FM051600 19012G22KT
                       5SM -RA OVC025 FM052200 21015G27KT P6SM
                       -RA SCT015 OVC025 FM060100 21015G22KT P6SM
                       VCSH BKN050 FM060800 18013KT 6SM -RA OVC020=
202001050902 KSEA 050902Z 0509/0612 17008KT P6SM -RA SCT035 OVC070 FM051200
                       17011KT P6SM -RA OVC025 FM051600 17012G25KT
                       5SM -RA OVC015 FM052200 19015G27KT P6SM
                       -RA SCT015 OVC025 FM060100 21015G22KT P6SM
                       OVC050 FM060600 20013KT P6SM OVC025=
202001050557 TAF KSEA 050557Z 0506/0612 19012KT P6SM VCSH SCT025 BKN035 OVC070
                       FM051000 17011KT P6SM -RA OVC025 FM051600
                       17012G25KT 5SM -RA OVC015 FM052200 19015G27KT
                       P6SM -RA SCT015 OVC025 FM060100 21015G22KT
                       P6SM OVC050 FM060600 20013KT P6SM OVC025=
202001050301 KSEA 050301Z 0503/0606 19012KT P6SM -SHRA FEW015 BKN040 BKN100
                       FM050800 19010KT P6SM VCSH OVC025 FM051600
                       17012G25KT 5SM -RA OVC015 FM052200 19015G27KT
                       P6SM -RA SCT015 OVC025=
202001042335 TAF KSEA 042335Z 0500/0606 19014G22KT P6SM VCSH SCT020 BKN030 OVC050
                       FM050200 19012KT P6SM VCSH BKN035 OVC050
                       FM050800 19010KT P6SM VCSH OVC025 FM051600
                       17012G25KT 5SM -RA OVC015 FM052200 19015G27KT
                       P6SM -RA SCT015 OVC025=
202001042057 KSEA 042057Z 0421/0524 19014G22KT P6SM VCSH SCT020 BKN030 OVC040
                       FM050400 19010KT P6SM VCSH OVC025 FM051600
                       17012G21KT P6SM -RA OVC015=
202001041923 KSEA 041923Z 0419/0524 19014G22KT P6SM VCSH SCT025 BKN050
                      TEMPO 0419/0421 BKN020 OVC040 FM042200 22015G25KT
                       P6SM VCSH BKN030 FM050400 19010KT P6SM VCSH
                       OVC025 FM051600 17012G21KT P6SM -RA OVC015=
202001041731 TAF KSEA 041731Z 0418/0524 19014G22KT P6SM VCSH SCT025 BKN050 FM042200
                       22015G25KT P6SM VCSH BKN030 FM050400 19010KT
                       P6SM VCSH OVC025 FM051600 17012G21KT P6SM
                       -RA OVC015=
202001041406 KSEA 041406Z 0414/0518 20015G22KT P6SM SCT060 FM042200 22015G25KT
                       P6SM VCSH BKN030 FM050200 19010KT P6SM VCSH
                       OVC025 FM051600 17012KT P6SM -RA OVC015=
202001041135 TAF KSEA 041135Z 0412/0518 20017G30KT P6SM VCSH SCT015 OVC050
                      TEMPO 0412/0414 6SM -RA BR FM041400 20015G25KT
                       P6SM SCT050 FM042200 22015G25KT P6SM VCSH
                       BKN030 FM050200 19010KT P6SM VCSH OVC025
                       FM051600 17012KT P6SM -RA OVC015=
202001040856 KSEA 040856Z 0409/0512 20013G20KT P6SM -RA SCT007 OVC035 WS020/20050KT
                       FM041000 20017G30KT P6SM SCT040 BKN100 FM041600
                       22015G25KT P6SM BKN025 OVC040 FM050000 19010KT
                       P6SM OVC025=
202001040659 KSEA 040659Z 0407/0512 21014G22KT P6SM -RA OVC040 WS020/20050KT
                       FM041000 20017G30KT P6SM SCT040 BKN100 FM041600
                       22015G25KT P6SM BKN025 OVC040 FM050000 19010KT
                       P6SM OVC025=
202001040522 TAF KSEA 040522Z 0406/0512 23014G22KT P6SM -RA OVC040 WS020/20050KT
                       TEMPO 0406/0408 5SM -RA BR OVC025 FM041000
                       20017G30KT P6SM SCT040 BKN100 FM041600 22015G25KT
                       P6SM BKN025 OVC040 FM050000 19010KT P6SM
                       OVC025=
202001040227 KSEA 040227Z 0402/0506 18018G26KT P6SM -RA OVC040 WS020/20050KT
                       TEMPO 0404/0408 5SM -RA BR OVC025 FM041000
                       20017G30KT P6SM SCT040 BKN100 FM041600 22015G25KT
                       P6SM BKN025 OVC040 FM050000 19010KT P6SM
                       OVC025=
202001032320 TAF KSEA 032320Z 0400/0506 16005KT P6SM FEW035 BKN150 OVC250 WS020/22035KT
                       FM040400 18014G23KT P6SM -RA OVC040 WS020/20050KT
                       TEMPO 0404/0408 5SM -RA BR OVC025 FM041000
                       20017G30KT P6SM SCT040 BKN100 FM041600 22015G25KT
                       P6SM BKN025 OVC040 FM050000 19010KT P6SM
                       OVC025=
202001032100 KSEA 032100Z 0321/0424 17006KT P6SM FEW035 BKN120 OVC250 WS020/22035KT
                       FM040300 18014G23KT P6SM -RA OVC040 WS020/20050KT
                       TEMPO 0403/0407 5SM -RA BR OVC025 FM040900
                       20017G30KT P6SM SCT040 BKN100 FM041600 22015G25KT
                       P6SM BKN025 OVC040=
202001031730 TAF KSEA 031730Z 0318/0424 17006KT P6SM FEW025 SCT120 OVC250 FM032100
                       18010KT P6SM SCT120 OVC250 WS020/22035KT
                       FM040300 18014G23KT P6SM -RA OVC040 WS020/20050KT
                       TEMPO 0403/0407 5SM -RA BR OVC025 FM040900
                       20017G30KT P6SM SCT040 BKN100 FM041600 22015G25KT
                       P6SM BKN025 OVC040=
202001031405 KSEA 031405Z 0314/0418 17013KT P6SM FEW025 BKN040 FM031800 18013KT
                       P6SM SCT030 BKN200 FM040300 18016G24KT 6SM
                       -RA OVC040 FM040900 20015G30KT P6SM -SHRA
                       OVC025=
202001031135 TAF KSEA 031135Z 0312/0418 16012KT P6SM VCSH OVC020
                      TEMPO 0312/0315 5SM -RA BR OVC015 FM031500
                       17013KT P6SM SCT020 OVC030 FM031800 18013KT
                       P6SM SCT030 BKN200 FM040300 18016G24KT 6SM
                       -RA OVC040 FM040900 20015G30KT P6SM -SHRA
                       OVC025=
202001030859 KSEA 030859Z 0309/0412 16012KT 5SM -RA BR SCT015 OVC025 FM031400
                       17014KT P6SM VCSH BKN020 OVC040 FM031600
                       19013KT P6SM OVC040 FM040300 18016G24KT
                       P6SM -RA BKN020 OVC040=
202001030526 TAF KSEA 030526Z 0306/0412 18012KT 5SM BR VCSH SCT015 OVC025 FM031400
                       18014KT P6SM BKN020 OVC040 FM031600 19013KT
                       P6SM OVC040 FM040300 18016G24KT P6SM -RA
                       BKN020 OVC040=
202001030301 KSEA 030301Z 0303/0406 17009KT 4SM -RA BR BKN020 OVC025 WS020/19040KT
                       FM030600 18014G22KT 5SM -RA BR OVC010 FM031300
                       18014KT P6SM BKN020 OVC040=
202001022322 TAF KSEA 022322Z 0300/0406 17006KT P6SM -RA BKN020 OVC040 FM030100
                       17009KT 5SM -RA BR OVC012 WS020/19040KT
                       FM030600 18014G22KT 5SM -RA BR OVC010 FM031300
                       18014KT P6SM BKN020 OVC040=
202001022120 KSEA 022120Z 0221/0324 17006KT P6SM -RA BKN020 OVC040 FM030100
                       17009KT 5SM -RA BR OVC012 WS020/19040KT
                       FM030600 18014G22KT 5SM -RA BR OVC010 FM031300
                       18014KT P6SM BKN020 OVC040=
202001021733 TAF KSEA 021733Z 0218/0324 17008KT P6SM SCT025 BKN080 FM022100
                       17006KT P6SM -RA BKN018 OVC030 FM030100
                       17009KT 5SM -RA BR OVC012 WS020/19040KT
                       FM030600 18014G22KT 5SM -RA BR OVC010 FM031300
                       18014KT P6SM BKN020 OVC040=
202001021406 KSEA 021406Z 0214/0318 17008KT P6SM SCT025 BKN080 FM022100 17006KT
                       P6SM -RA BKN018 OVC030 FM030000 15009KT
                       5SM -RA BR OVC012 FM030600 18014G22KT 5SM
                       -RA BR OVC010=
202001021138 TAF KSEA 021138Z 0212/0318 21008KT P6SM SCT025 BKN040
                      TEMPO 0212/0216 BKN025 FM022100 17006KT P6SM
                       -RA BKN018 OVC030 FM030000 15009KT 5SM -RA
                       BR OVC012 FM030600 18014G22KT 5SM -RA BR
                       OVC010=
202001020903 KSEA 020903Z 0209/0312 21008KT P6SM SCT020 BKN040
                      TEMPO 0209/0213 OVC018 FM022100 17006KT P6SM
                       -RA BKN015 OVC030 FM030000 15008KT 4SM -RA
                       BR OVC010=
202001020520 TAF KSEA 020520Z 0206/0312 22012KT P6SM OVC018 FM020800 21008KT
                       P6SM SCT020 BKN040
                      TEMPO 0210/0214 OVC018 FM022100 17006KT P6SM
                       -RA BKN015 OVC030 FM030000 15008KT 4SM -RA
                       BR OVC010=
202001020257 KSEA 020257Z 0203/0306 22012KT P6SM SCT020 BKN070 FM020800 21008KT
                       P6SM SCT020 BKN040
                      TEMPO 0210/0214 OVC020 FM022100 17006KT P6SM
                       -RA BKN015 OVC030 FM030000 15008KT 4SM -RA
                       BR OVC010=
202001012320 TAF KSEA 012320Z 0200/0306 21012G20KT P6SM BKN020 BKN100 FM020200
                       22014KT P6SM SCT020 BKN040 FM020800 21008KT
                       P6SM SCT020 BKN040
                      TEMPO 0210/0214 OVC020 FM022100 17006KT P6SM
                       -RA BKN015 OVC030 FM030000 15008KT 4SM -RA
                       BR OVC010=
202001012102 KSEA 012102Z 0121/0224 22012G20KT P6SM BKN020 BKN100 FM012300 22014G23KT
                       P6SM SCT020 BKN080
                      TEMPO 0123/0202 BKN020 BKN080 FM020200 22014KT
                       P6SM SCT020 BKN040 FM020800 21008KT P6SM
                       SCT020 BKN040
                      TEMPO 0210/0214 OVC020 FM022100 15006KT P6SM
                       -RA BKN010 OVC020=
202001011725 TAF KSEA 011725Z 0118/0224 23010KT P6SM BKN010 BKN090 FM012100
                       22014G22KT P6SM SCT020 BKN040
                      TEMPO 0121/0201 BKN020 OVC050 FM020200 22014KT
                       P6SM SCT020 BKN040 FM020800 21008KT P6SM
                       SCT020 BKN040
                      TEMPO 0210/0214 OVC020 FM022100 15006KT P6SM
                       -RA BKN010 OVC020=
202001011404 KSEA 011404Z 0114/0218 22014G22KT P6SM BKN015 BKN080 FM012100 22014G22KT
                       P6SM SCT020 BKN040 FM020200 22014KT P6SM
                       SCT020 BKN040 FM021100 22010KT P6SM BKN015
                       OVC025=
202001011145 TAF KSEA 011145Z 0112/0218 22015G25KT P6SM SCT015 BKN080
                      TEMPO 0112/0114 BKN015 BKN080 FM012100 22015G25KT
                       P6SM SCT020 BKN040 FM020200 22014KT P6SM
                       SCT020 BKN040 FM021100 22010KT P6SM BKN015
                       OVC025=
202001010804 KSEA 010804Z 0108/0212 22015G25KT P6SM OVC012 FM011900 22014KT
                       P6SM OVC016 FM012300 22014KT P6SM SCT020
                       OVC025 FM020200 22014KT P6SM SCT025 OVC035=
202001010528 TAF KSEA 010528Z 0106/0212 19015G25KT P6SM VCSH OVC007 FM011600
                       22015G25KT P6SM VCSH OVC015 FM012300 22012G22KT
                       P6SM SCT020 OVC025 FM020200 23020G29KT P6SM
                       SCT025 OVC035=
202001010302 KSEA 010302Z 0103/0206 19018G29KT P6SM VCSH OVC007 FM011600 22015G25KT
                       P6SM VCSH OVC015 FM012300 22012G22KT P6SM
                       SCT020 OVC025=