##########################################################
# Query made at 02/17/2025 21:31:07 UTC
# Time interval: from 08/01/2021 00:00  to 08/31/2021 23:59  UTC
##########################################################

##########################################################
# KSEA, Seattle, Seattle-Tacoma International Airport (United States)
# WMO index: 72793. WIGOS ID: 0-20000-0-72793
# Latitude 47-27-00N. Longitude 122-17-59W. Altitude 130 m.
##########################################################

###################################
#  METAR/SPECI from KSEA
###################################
202108312353 METAR KSEA 312353Z 01011KT 10SM SCT047 BKN065 BKN090 18/08 A2999 RMK AO2 SLP162 T01780083 10194 20144 53001=
202108312253 METAR KSEA 312253Z VRB05KT 10SM FEW045 BKN085 18/06 A2999 RMK AO2 SLP161 T01780056=
202108312153 METAR KSEA 312153Z 25006KT 10SM FEW018 FEW045 BKN070 18/06 A2999 RMK AO2 SLP161 T01830056=
202108312053 METAR KSEA 312053Z 22008G14KT 190V260 10SM FEW017 FEW045 SCT080 19/06 A2999 RMK AO2 SLP161 T01890056 55000=
202108311953 METAR KSEA 311953Z 19009G14KT 10SM FEW017 SCT045 BKN060 18/06 A2999 RMK AO2 SLP161 T01780056=
202108311853 METAR KSEA 311853Z 18006KT 10SM FEW017 SCT070 16/08 A2999 RMK AO2 SLP160 T01610078=
202108311758 SPECI KSEA 311758Z 21007KT 10SM SCT017 BKN070 14/08 A2999 RMK AO2 T01440083=
202108311753 METAR KSEA 311753Z 21009KT 10SM BKN017 BKN070 15/08 A2999 RMK AO2 SLP161 T01500083 10150 20111 53003=
202108311653 METAR KSEA 311653Z 21008G16KT 10SM OVC015 13/09 A2999 RMK AO2 SLP160 T01280089=
202108311553 METAR KSEA 311553Z 20008KT 10SM OVC015 12/08 A2998 RMK AO2 SLP158 T01220083=
202108311541 SPECI KSEA 311541Z 18008KT 10SM OVC015 12/08 A2998 RMK AO2 T01170083=
202108311453 METAR KSEA 311453Z 19006KT 10SM OVC013 11/08 A2998 RMK AO2 SLP159 T01110083 53008=
202108311443 SPECI KSEA 311443Z 18007KT 10SM OVC013 11/08 A2998 RMK AO2 T01110083=
202108311353 METAR KSEA 311353Z 18005KT 10SM BKN015 OVC020 11/08 A2997 RMK AO2 SLP155 T01110083=
202108311342 SPECI KSEA 311342Z 17005KT 10SM OVC015 11/08 A2997 RMK AO2 T01110083=
202108311253 METAR KSEA 311253Z 18005KT 10SM OVC013 11/08 A2996 RMK AO2 SLP151 T01110083=
202108311236 SPECI KSEA 311236Z 17005KT 10SM BKN014 BKN032 OVC049 11/08 A2996 RMK AO2 T01110083=
202108311153 METAR KSEA 311153Z 18007KT 10SM FEW031 BKN048 OVC065 12/08 A2996 RMK AO2 SLP150 T01170083 10144 20111 51004=
202108311053 METAR KSEA 311053Z 16007KT 10SM FEW024 FEW033 OVC046 12/09 A2996 RMK AO2 SLP150 T01170089=
202108310953 METAR KSEA 310953Z 18006KT 10SM FEW013 OVC031 12/09 A2995 RMK AO2 SLP147 T01220089=
202108310853 METAR KSEA 310853Z 17005KT 10SM OVC033 13/09 A2995 RMK AO2 SLP146 T01280094 51001=
202108310753 METAR KSEA 310753Z 09005KT 10SM OVC034 13/08 A2995 RMK AO2 SLP145 T01330083 401780100=
202108310653 METAR KSEA 310653Z VRB03KT 10SM OVC036 14/08 A2994 RMK AO2 SLP145 T01390083=
202108310553 METAR KSEA 310553Z VRB03KT 10SM OVC031 14/08 A2994 RMK AO2 SLP144 T01390083 10167 20139 50003=
202108310453 METAR KSEA 310453Z 03010G19KT 10SM SCT029 OVC037 14/08 A2995 RMK AO2 SLP146 T01440083=
202108310353 METAR KSEA 310353Z 36006KT 10SM OVC031 15/09 A2994 RMK AO2 SLP144 T01500089=
202108310253 METAR KSEA 310253Z 31004KT 10SM BKN035 OVC070 15/09 A2993 RMK AO2 SLP143 T01500089 56005=
202108310153 METAR KSEA 310153Z 30004KT 10SM FEW035 BKN075 16/09 A2993 RMK AO2 SLP143 T01560089=
202108310053 METAR KSEA 310053Z 32006KT 10SM FEW035 OVC075 16/08 A2994 RMK AO2 SLP145 T01610083=
202108302353 METAR KSEA 302353Z 33004KT 10SM FEW035 OVC065 17/09 A2995 RMK AO2 SLP148 T01670094 10178 20144 57005=
202108302253 METAR KSEA 302253Z 30007KT 10SM FEW030 OVC055 17/09 A2995 RMK AO2 SLP149 T01670089=
202108302153 METAR KSEA 302153Z 33005KT 10SM FEW030 OVC055 17/09 A2996 RMK AO2 SLP151 T01720089=
202108302053 METAR KSEA 302053Z 28006KT 10SM FEW037 BKN055 17/08 A2997 RMK AO2 SLP153 T01670083 50002=
202108301953 METAR KSEA 301953Z 21006KT 10SM OVC037 16/08 A2997 RMK AO2 SLP154 T01560083=
202108301853 METAR KSEA 301853Z 22008KT 10SM OVC032 14/08 A2997 RMK AO2 SLP154 T01440078=
202108301753 METAR KSEA 301753Z 22009KT 10SM OVC033 14/08 A2996 RMK AO2 SLP151 T01440078 10150 20100 53001=
202108301727 SPECI KSEA 301727Z 19010KT 10SM OVC031 14/08 A2996 RMK AO2 T01440078=
202108301653 METAR KSEA 301653Z 21008KT 10SM OVC027 14/08 A2995 RMK AO2 SLP148 T01390078=
202108301553 METAR KSEA 301553Z 18011KT 10SM FEW020 OVC025 13/08 A2996 RMK AO2 SLP150 T01330083=
202108301453 METAR KSEA 301453Z 17008KT 10SM SCT021 BKN026 12/08 A2996 RMK AO2 SLP150 T01220083 51005=
202108301353 METAR KSEA 301353Z 17006KT 10SM BKN018 11/08 A2996 RMK AO2 SLP149 T01110083=
202108301341 SPECI KSEA 301341Z 17007KT 10SM BKN018 11/08 A2995 RMK AO2 T01060083=
202108301253 METAR KSEA 301253Z 17006KT 10SM SCT034 10/08 A2995 RMK AO2 SLP146 T01000078=
202108301153 METAR KSEA 301153Z 17008KT 10SM SCT034 11/08 A2994 RMK AO2 SLP144 T01060083 10167 20106 52005=
202108301053 METAR KSEA 301053Z 24006KT 10SM SCT023 SCT031 12/09 A2994 RMK AO2 SLP144 T01170094=
202108301040 SPECI KSEA 301040Z 21005KT 10SM SCT023 BKN031 12/09 A2994 RMK AO2 T01170094=
202108301006 SPECI KSEA 301006Z 22004KT 10SM BKN021 13/10 A2993 RMK AO2 T01280100=
202108300953 METAR KSEA 300953Z 23006KT 10SM SCT022 13/10 A2993 RMK AO2 SLP140 T01280100=
202108300853 METAR KSEA 300853Z 21006KT 10SM CLR 13/11 A2993 RMK AO2 SLP139 T01330111 51006=
202108300753 METAR KSEA 300753Z 29005KT 10SM CLR 14/12 A2993 RMK AO2 SLP138 T01440117 402610128=
202108300653 METAR KSEA 300653Z 28005KT 10SM CLR 14/12 A2992 RMK AO2 SLP135 T01440122=
202108300553 METAR KSEA 300553Z 26003KT 10SM CLR 17/12 A2991 RMK AO2 SLP133 T01670117 10256 20167 51006=
202108300453 METAR KSEA 300453Z 35004KT 10SM CLR 18/12 A2991 RMK AO2 SLP133 T01830117=
202108300353 METAR KSEA 300353Z 35006KT 10SM CLR 19/12 A2991 RMK AO2 SLP132 T01940117=
202108300253 METAR KSEA 300253Z 31005KT 10SM CLR 21/12 A2989 RMK AO2 SLP127 T02110117 56007=
202108300153 METAR KSEA 300153Z 35004KT 10SM FEW030 24/11 A2990 RMK AO2 SLP129 T02440111=
202108300053 METAR KSEA 300053Z 35008KT 10SM FEW030 25/11 A2991 RMK AO2 SLP131 T02500111=
202108292353 METAR KSEA 292353Z 36006KT 10SM FEW030 26/11 A2992 RMK AO2 SLP135 T02560111 10261 20200 57015=
202108292253 METAR KSEA 292253Z VRB06KT 10SM FEW030 25/12 A2993 RMK AO2 SLP139 T02500117=
202108292153 METAR KSEA 292153Z VRB05KT 10SM FEW030 25/12 A2995 RMK AO2 SLP145 T02500122=
202108292053 METAR KSEA 292053Z 29008KT 10SM FEW020 23/12 A2996 RMK AO2 SLP150 T02330122 56013=
202108291953 METAR KSEA 291953Z 29009KT 10SM FEW200 22/12 A2997 RMK AO2 SLP153 T02170122=
202108291853 METAR KSEA 291853Z 31005KT 10SM FEW200 21/12 A2999 RMK AO2 SLP159 T02060122=
202108291753 METAR KSEA 291753Z 31004KT 10SM FEW220 20/12 A3000 RMK AO2 SLP163 T02000122 10206 20128 58005=
202108291653 METAR KSEA 291653Z 05004KT 10SM FEW200 18/12 A3000 RMK AO2 SLP164 T01780117=
202108291553 METAR KSEA 291553Z 36006KT 10SM CLR 17/12 A3001 RMK AO2 SLP166 T01720117=
202108291453 METAR KSEA 291453Z 34004KT 10SM CLR 15/12 A3001 RMK AO2 SLP168 T01500117 55000=
202108291353 METAR KSEA 291353Z 01004KT 10SM CLR 13/11 A3001 RMK AO2 SLP166 T01280106=
202108291253 METAR KSEA 291253Z 02005KT 10SM CLR 14/11 A3001 RMK AO2 SLP166 T01390111=
202108291153 METAR KSEA 291153Z 02005KT 10SM CLR 14/11 A3001 RMK AO2 SLP168 T01390106 10183 20139 56004=
202108291053 METAR KSEA 291053Z 04006KT 10SM CLR 16/09 A3002 RMK AO2 SLP168 T01560094=
202108290953 METAR KSEA 290953Z 04009KT 10SM CLR 16/09 A3002 RMK AO2 SLP169 T01610094=
202108290853 METAR KSEA 290853Z 04010KT 10SM CLR 16/09 A3003 RMK AO2 SLP172 T01610094 56004=
202108290753 METAR KSEA 290753Z 03008KT 10SM CLR 17/09 A3003 RMK AO2 SLP173 T01670094 402560106=
202108290653 METAR KSEA 290653Z 04010KT 10SM CLR 18/10 A3003 RMK AO2 SLP173 T01780100=
202108290553 METAR KSEA 290553Z 03009KT 10SM CLR 18/09 A3004 RMK AO2 SLP176 T01830094 10250 20172 58002=
202108290453 METAR KSEA 290453Z 01007KT 10SM CLR 18/09 A3004 RMK AO2 SLP177 T01780094=
202108290353 METAR KSEA 290353Z 01008KT 10SM SCT200 19/09 A3004 RMK AO2 SLP179 T01940094=
202108290253 METAR KSEA 290253Z 36008KT 10SM SCT200 21/10 A3004 RMK AO2 SLP177 T02110100 56010=
202108290153 METAR KSEA 290153Z 35009KT 10SM FEW200 23/10 A3005 RMK AO2 SLP181 T02330100=
202108290053 METAR KSEA 290053Z 36010KT 10SM FEW200 25/09 A3006 RMK AO2 SLP183 T02500094=
202108282353 METAR KSEA 282353Z 34011KT 10SM FEW200 25/10 A3007 RMK AO2 SLP188 T02500100 10256 20172 58017=
202108282253 METAR KSEA 282253Z 02007KT 10SM FEW200 24/10 A3009 RMK AO2 SLP193 T02440100=
202108282153 METAR KSEA 282153Z 33005KT 10SM FEW200 24/11 A3011 RMK AO2 SLP201 T02390106=
202108282053 METAR KSEA 282053Z 02006KT 10SM FEW200 22/11 A3012 RMK AO2 SLP205 T02220111 58010=
202108281953 METAR KSEA 281953Z 31007KT 10SM FEW180 21/11 A3014 RMK AO2 SLP210 T02060111=
202108281853 METAR KSEA 281853Z 26008KT 10SM FEW180 19/12 A3015 RMK AO2 SLP215 T01890117=
202108281753 METAR KSEA 281753Z 27007KT 10SM FEW010 18/12 A3016 RMK AO2 SLP217 T01830117 10183 20106 55002=
202108281653 METAR KSEA 281653Z VRB03KT 10SM FEW010 17/12 A3015 RMK AO2 SLP216 T01720117=
202108281553 METAR KSEA 281553Z VRB03KT 10SM FEW010 15/11 A3016 RMK AO2 SLP218 T01500111=
202108281453 METAR KSEA 281453Z 34003KT 10SM FEW010 14/11 A3016 RMK AO2 SLP218 T01390111 53006=
202108281353 METAR KSEA 281353Z 03004KT 10SM FEW010 13/11 A3015 RMK AO2 SLP217 T01280106=
202108281253 METAR KSEA 281253Z 01005KT 10SM CLR 12/09 A3014 RMK AO2 SLP212 T01170094=
202108281153 METAR KSEA 281153Z 05006KT 10SM CLR 13/10 A3014 RMK AO2 SLP212 70002 T01330100 10156 20133 55002=
202108281053 METAR KSEA 281053Z 04009KT 10SM CLR 14/10 A3014 RMK AO2 SLP212 T01390100=
202108280953 METAR KSEA 280953Z 04009KT 10SM CLR 14/11 A3015 RMK AO2 SLP213 T01390106=
202108280853 METAR KSEA 280853Z 04009KT 10SM CLR 14/09 A3015 RMK AO2 SLP214 T01390094 50000=
202108280753 METAR KSEA 280753Z 04007KT 10SM CLR 14/09 A3015 RMK AO2 SLP215 T01440094 402060139=
202108280653 METAR KSEA 280653Z 03007KT 10SM CLR 15/09 A3015 RMK AO2 SLP214 T01500094=
202108280553 METAR KSEA 280553Z 02008KT 10SM CLR 16/09 A3015 RMK AO2 SLP214 T01560094 10200 20156 51002=
202108280453 METAR KSEA 280453Z 03009KT 10SM CLR 16/09 A3014 RMK AO2 SLP213 T01610089=
202108280353 METAR KSEA 280353Z 33006KT 10SM SCT050 SCT250 16/10 A3015 RMK AO2 SLP215 T01610100=
202108280253 METAR KSEA 280253Z 02008KT 10SM FEW025 FEW050 SCT250 18/11 A3014 RMK AO2 SLP212 T01780111 55003=
202108280153 METAR KSEA 280153Z 35008KT 10SM FEW025 SCT050 SCT250 19/12 A3014 RMK AO2 SLP210 T01890117=
202108280053 METAR KSEA 280053Z 02011KT 10SM FEW024 SCT050 SCT250 19/11 A3014 RMK AO2 SLP212 T01940106=
202108272353 METAR KSEA 272353Z 02012KT 10SM FEW024 SCT045 SCT250 19/11 A3015 RMK AO2 SLP215 T01940111 10206 20161 58005=
202108272253 METAR KSEA 272253Z 03010KT 10SM SCT022 20/12 A3016 RMK AO2 SLP217 T02000117=
202108272153 METAR KSEA 272153Z 03009KT 10SM SCT024 21/12 A3016 RMK AO2 SLP218 T02060117=
202108272053 METAR KSEA 272053Z 04010G19KT 10SM SCT022 BKN031 BKN050 18/12 A3016 RMK AO2 SLP220 T01830117 52002=
202108272038 SPECI KSEA 272038Z 04008KT 10SM SCT024 BKN031 BKN050 18/12 A3016 RMK AO2 T01780117=
202108271953 METAR KSEA 271953Z VRB04KT 10SM BKN025 BKN043 17/11 A3016 RMK AO2 SLP220 T01720111=
202108271853 METAR KSEA 271853Z VRB03KT 10SM BKN018 OVC024 16/12 A3016 RMK AO2 SLP218 T01610122=
202108271805 SPECI KSEA 271805Z 00000KT 10SM SCT015 BKN020 BKN030 17/13 A3015 RMK AO2 T01670128=
202108271753 METAR KSEA 271753Z 18004KT 10SM SCT015 BKN030 BKN050 17/13 A3016 RMK AO2 SLP218 60002 T01670128 10167 20139 51009=
202108271653 METAR KSEA 271653Z 13004KT 10SM SCT010 BKN027 BKN041 16/13 A3015 RMK AO2 SLP216 T01610128=
202108271600 SPECI KSEA 271600Z 13005KT 10SM BKN023 OVC033 14/13 A3015 RMK AO2 T01440128=
202108271553 METAR KSEA 271553Z 14006KT 10SM FEW005 SCT021 BKN033 14/13 A3014 RMK AO2 SLP212 T01440128=
202108271519 SPECI KSEA 271519Z 16006KT 10SM FEW005 SCT021 BKN032 14/13 A3014 RMK AO2 T01440128=
202108271453 METAR KSEA 271453Z 16007KT 10SM SCT005 BKN019 OVC030 14/13 A3013 RMK AO2 SLP209 60002 T01390128 53013=
202108271353 METAR KSEA 271353Z 13008KT 7SM SCT004 BKN015 OVC032 14/13 A3011 RMK AO2 SLP200 T01390128=
202108271315 SPECI KSEA 271315Z 14007KT 10SM FEW015 BKN030 OVC050 14/13 A3010 RMK AO2 T01390128=
202108271253 METAR KSEA 271253Z 12009KT 10SM OVC028 14/13 A3010 RMK AO2 DZE09RAB09E38 SLP198 P0002 T01390128=
202108271153 METAR KSEA 271153Z 08005KT 7SM DZ FEW005 FEW010 OVC018 14/13 A3009 RMK AO2 DZB43 SLP196 P0000 60000 70001 T01390128 10156 20139 51004=
202108271144 SPECI KSEA 271144Z 08006KT 9SM DZ SCT005 OVC014 14/13 A3009 RMK AO2 DZB43 P0000 T01390128=
202108271114 SPECI KSEA 271114Z 09005KT 10SM OVC005 14/13 A3009 RMK AO2 T01390133=
202108271053 METAR KSEA 271053Z 12005KT 10SM BKN004 OVC010 14/13 A3009 RMK AO2 SLP195 T01390133=
202108270953 METAR KSEA 270953Z 16003KT 10SM OVC007 14/13 A3009 RMK AO2 DZB13E38 SLP194 P0000 T01390133=
202108270914 SPECI KSEA 270914Z 15007KT 6SM DZ BKN009 OVC014 14/13 A3008 RMK AO2 DZB13 P0000 T01440128=
202108270906 SPECI KSEA 270906Z 15007KT 9SM SCT009 OVC013 14/13 A3008 RMK AO2 T01440128=
202108270853 METAR KSEA 270853Z 13008KT 8SM BR OVC013 14/13 A3008 RMK AO2 DZB35E53 SLP191 P0000 60000 T01440128 50007=
202108270829 SPECI KSEA 270829Z 18006KT 9SM OVC014 14/13 A3008 RMK AO2 T01440128=
202108270753 METAR KSEA 270753Z 17005KT 9SM OVC016 15/12 A3008 RMK AO2 SLP191 T01500122 402170144=
202108270653 METAR KSEA 270653Z 19008KT 10SM OVC019 16/12 A3007 RMK AO2 SLP187 T01560122=
202108270608 SPECI KSEA 270608Z 20006KT 10SM BKN022 BKN041 16/12 A3006 RMK AO2 T01560117=
202108270553 METAR KSEA 270553Z 23006KT 10SM SCT028 BKN040 16/12 A3006 RMK AO2 SLP184 T01560117 10194 20150 50008=
202108270519 SPECI KSEA 270519Z 23006KT 10SM BKN023 16/12 A3006 RMK AO2 T01560122=
202108270453 METAR KSEA 270453Z 24007KT 10SM FEW046 SCT060 16/12 A3007 RMK AO2 SLP188 T01560122=
202108270419 SPECI KSEA 270419Z 22010KT 10SM SCT014 BKN065 BKN120 16/13 A3007 RMK AO2 T01560128=
202108270353 METAR KSEA 270353Z 21014G20KT 10SM BKN014 BKN065 BKN180 16/13 A3005 RMK AO2 SLP182 T01610133=
202108270341 SPECI KSEA 270341Z 20011KT 10SM BKN012 BKN070 BKN180 16/14 A3005 RMK AO2 T01610139=
202108270253 METAR KSEA 270253Z 20012KT 10SM FEW020 BKN070 BKN180 16/14 A3004 RMK AO2 SLP176 T01610144 56009=
202108270153 METAR KSEA 270153Z 21012KT 10SM FEW021 BKN060 BKN200 17/14 A3004 RMK AO2 SLP178 T01670144=
202108270053 METAR KSEA 270053Z 21015G21KT 10SM FEW021 SCT031 BKN080 BKN200 18/14 A3005 RMK AO2 SLP181 T01830139=
202108262353 METAR KSEA 262353Z 19009KT 10SM FEW025 SCT041 BKN070 BKN200 18/14 A3006 RMK AO2 RAE25 SLP186 P0001 60001 T01780144 10217 20167 58003=
202108262253 METAR KSEA 262253Z 22008KT 10SM -RA BKN050 OVC060 18/14 A3007 RMK AO2 RAB30 SLP187 P0000 T01830139=
202108262153 METAR KSEA 262153Z 23011KT 10SM BKN049 OVC100 19/13 A3008 RMK AO2 SLP191 T01940128=
202108262053 METAR KSEA 262053Z 21012KT 10SM FEW035 SCT075 BKN110 21/12 A3007 RMK AO2 SLP188 T02060117 58005=
202108261953 METAR KSEA 261953Z 22009KT 10SM SCT034 BKN110 21/12 A3009 RMK AO2 SLP193 T02110122=
202108261853 METAR KSEA 261853Z 23007KT 10SM FEW021 SCT028 OVC090 18/12 A3009 RMK AO2 SLP194 T01830117=
202108261753 METAR KSEA 261753Z 19006KT 10SM SCT021 BKN030 OVC085 18/12 A3010 RMK AO2 SLP197 60000 T01830122 10183 20150 53005=
202108261746 SPECI KSEA 261746Z 18005KT 10SM SCT021 BKN030 OVC085 18/12 A3010 RMK AO2 T01780122=
202108261653 METAR KSEA 261653Z 19008KT 10SM FEW015 BKN021 BKN029 17/12 A3009 RMK AO2 SLP194 T01720122=
202108261553 METAR KSEA 261553Z 20007KT 10SM BKN016 OVC035 16/12 A3010 RMK AO2 SLP196 T01610122=
202108261453 METAR KSEA 261453Z 16007KT 10SM FEW010 BKN017 OVC027 16/13 A3008 RMK AO2 SLP193 60000 T01560128 52001=
202108261353 METAR KSEA 261353Z 15008KT 10SM BKN017 OVC027 15/13 A3008 RMK AO2 SLP191 T01500128=
202108261253 METAR KSEA 261253Z 16007KT 10SM OVC016 15/13 A3008 RMK AO2 RAE17 SLP191 P0000 T01500128=
202108261153 METAR KSEA 261153Z 18007KT 10SM -RA OVC014 15/12 A3008 RMK AO2 RAB51 SLP190 P0000 60000 T01500122 10156 20144 50003=
202108261053 METAR KSEA 261053Z 21008KT 10SM OVC013 15/12 A3008 RMK AO2 SLP191 T01500117=
202108261017 SPECI KSEA 261017Z 21008KT 10SM OVC013 15/11 A3008 RMK AO2 T01500111=
202108260953 METAR KSEA 260953Z 20008KT 10SM BKN017 OVC120 15/11 A3008 RMK AO2 SLP189 T01500106=
202108260940 SPECI KSEA 260940Z 20008KT 10SM BKN017 OVC120 15/10 A3007 RMK AO2 T01500100=
202108260853 METAR KSEA 260853Z 21004KT 10SM FEW050 OVC130 14/10 A3007 RMK AO2 SLP187 T01440100 53002=
202108260753 METAR KSEA 260753Z 22006KT 10SM FEW110 OVC140 15/10 A3007 RMK AO2 SLP186 T01500100 402390122=
202108260653 METAR KSEA 260653Z 22005KT 10SM FEW110 OVC140 15/10 A3007 RMK AO2 SLP186 T01500100=
202108260553 METAR KSEA 260553Z 20005KT 10SM BKN160 15/11 A3007 RMK AO2 SLP186 T01500106 10228 20150 51013=
202108260453 METAR KSEA 260453Z 20003KT 10SM BKN180 16/10 A3006 RMK AO2 SLP184 T01610100=
202108260353 METAR KSEA 260353Z 17004KT 10SM BKN180 BKN240 17/10 A3005 RMK AO2 SLP181 T01670100=
202108260253 METAR KSEA 260253Z 22009KT 10SM SCT180 BKN240 18/09 A3003 RMK AO2 SLP174 T01830094 53008=
202108260153 METAR KSEA 260153Z 21010KT 10SM SCT160 BKN250 20/08 A3002 RMK AO2 SLP170 T02000083=
202108260053 METAR KSEA 260053Z 24011KT 10SM FEW180 BKN250 21/09 A3001 RMK AO2 SLP167 T02060089=
202108252353 METAR KSEA 252353Z 22007KT 10SM SCT180 BKN250 22/11 A3000 RMK AO2 SLP164 T02220106 10239 20178 56004=
202108252253 METAR KSEA 252253Z 21008KT 10SM FEW180 BKN250 23/09 A3000 RMK AO2 SLP164 T02330094=
202108252153 METAR KSEA 252153Z 22009KT 10SM FEW040 BKN250 23/09 A3001 RMK AO2 SLP167 T02330094=
202108252053 METAR KSEA 252053Z 21008KT 10SM FEW030 BKN250 22/10 A3002 RMK AO2 SLP168 T02220100 58006=
202108251953 METAR KSEA 251953Z 23007KT 10SM FEW030 FEW120 BKN250 21/09 A3002 RMK AO2 SLP171 T02060089=
202108251853 METAR KSEA 251853Z 19008KT 10SM SCT250 20/09 A3003 RMK AO2 SLP173 T02000094=
202108251753 METAR KSEA 251753Z 21009KT 10SM FEW250 18/09 A3003 RMK AO2 SLP174 T01780094 10178 20122 53003=
202108251653 METAR KSEA 251653Z 18006KT 10SM SCT250 16/11 A3003 RMK AO2 SLP173 T01610106=
202108251553 METAR KSEA 251553Z 22005KT 10SM SCT250 15/10 A3003 RMK AO2 SLP173 T01500100=
202108251453 METAR KSEA 251453Z 18004KT 10SM FEW025 SCT250 14/09 A3002 RMK AO2 SLP171 FU FEW025 T01390094 53009=
202108251353 METAR KSEA 251353Z 13005KT 10SM FEW250 13/09 A3001 RMK AO2 SLP166 T01280089=
202108251253 METAR KSEA 251253Z 13005KT 10SM SCT250 13/08 A3000 RMK AO2 SLP162 T01280083=
202108251153 METAR KSEA 251153Z 13003KT 10SM SCT250 13/09 A3000 RMK AO2 SLP162 T01330089 10178 20133 51006=
202108251053 METAR KSEA 251053Z 00000KT 10SM SCT250 14/09 A2999 RMK AO2 SLP161 T01390089=
202108250953 METAR KSEA 250953Z 02005KT 10SM SCT250 16/09 A2998 RMK AO2 SLP158 T01560089=
202108250853 METAR KSEA 250853Z 01005KT 10SM SCT250 16/09 A2998 RMK AO2 SLP156 T01610089 53002=
202108250753 METAR KSEA 250753Z 35007KT 10SM SCT250 16/08 A2998 RMK AO2 SLP155 T01560083 402610111=
202108250653 METAR KSEA 250653Z 35006KT 10SM BKN250 17/07 A2997 RMK AO2 SLP154 T01670072=
202108250602 SPECI KSEA 250602Z 35004KT 10SM BKN250 18/07 A2997 RMK AO2 T01780072=
202108250553 METAR KSEA 250553Z 10SM BKN250 18/07 A2997 RMK AO2 SLP154 T01830072 10256 20183 50008=
202108250453 METAR KSEA 250453Z 02011KT 10SM BKN250 20/05 A2998 RMK AO2 SLP155 T02000050=
202108250353 METAR KSEA 250353Z 36006KT 10SM BKN250 19/06 A2997 RMK AO2 SLP153 T01890061=
202108250253 METAR KSEA 250253Z 35008KT 10SM BKN250 21/07 A2995 RMK AO2 SLP146 T02110067 55001=
202108250153 METAR KSEA 250153Z 33008KT 10SM FEW050 BKN250 23/06 A2995 RMK AO2 SLP145 T02330056=
202108250053 METAR KSEA 250053Z 35011KT 10SM FEW040 BKN250 24/06 A2995 RMK AO2 SLP145 T02390056=
202108242353 METAR KSEA 242353Z 32008KT 10SM FEW040 BKN250 26/06 A2995 RMK AO2 SLP147 T02560061 10261 20189 56017=
202108242253 METAR KSEA 242253Z 31009KT 10SM FEW040 SCT250 25/08 A2996 RMK AO2 SLP150 T02500078=
202108242153 METAR KSEA 242153Z 31009KT 10SM FEW040 SCT250 24/08 A2999 RMK AO2 SLP158 T02440083=
202108242053 METAR KSEA 242053Z 30007KT 10SM FEW030 SCT250 23/09 A3000 RMK AO2 SLP164 T02330094 58017=
202108241953 METAR KSEA 241953Z 30008KT 10SM FEW030 FEW250 22/10 A3002 RMK AO2 SLP171 FU FEW030 T02170100=
202108241853 METAR KSEA 241853Z 02006KT 10SM FEW030 FEW250 21/08 A3004 RMK AO2 SLP178 FU FEW030 T02110083=
202108241753 METAR KSEA 241753Z 00000KT 10SM FEW030 FEW250 19/09 A3005 RMK AO2 SLP181 FU FEW030 T01940094 10194 20111 58002=
202108241653 METAR KSEA 241653Z 04004KT 10SM FEW030 FEW250 18/09 A3006 RMK AO2 SLP183 FU FEW030 T01780089=
202108241553 METAR KSEA 241553Z 10005KT 10SM FEW250 15/08 A3006 RMK AO2 SLP185 T01500083=
202108241453 METAR KSEA 241453Z 05007KT 10SM FEW250 14/09 A3006 RMK AO2 SLP185 T01390089 53009=
202108241353 METAR KSEA 241353Z 03006KT 10SM FEW250 12/09 A3005 RMK AO2 SLP181 T01220094=
202108241253 METAR KSEA 241253Z 36003KT 10SM CLR 11/09 A3004 RMK AO2 SLP177 T01110089=
202108241153 METAR KSEA 241153Z 36005KT 10SM CLR 12/09 A3003 RMK AO2 SLP175 T01170094 10172 20117 55001=
202108241053 METAR KSEA 241053Z 02006KT 10SM CLR 13/09 A3003 RMK AO2 SLP174 T01330094=
202108240953 METAR KSEA 240953Z 01006KT 10SM CLR 13/08 A3003 RMK AO2 SLP176 T01280083=
202108240853 METAR KSEA 240853Z 00000KT 10SM CLR 14/08 A3004 RMK AO2 SLP176 T01390083 50001=
202108240753 METAR KSEA 240753Z 03006KT 10SM CLR 16/08 A3004 RMK AO2 SLP178 T01560083 402170111=
202108240653 METAR KSEA 240653Z 01006KT 10SM CLR 16/08 A3004 RMK AO2 SLP177 T01610083=
202108240553 METAR KSEA 240553Z 02010KT 10SM CLR 17/08 A3003 RMK AO2 SLP175 T01720078 10217 20156 50003=
202108240453 METAR KSEA 240453Z 03011KT 10SM CLR 18/07 A3004 RMK AO2 SLP177 T01830072=
202108240353 METAR KSEA 240353Z 36006KT 10SM CLR 17/06 A3003 RMK AO2 SLP174 T01720061=
202108240253 METAR KSEA 240253Z 32006KT 10SM FEW050 18/08 A3002 RMK AO2 SLP172 T01780078 55001=
202108240153 METAR KSEA 240153Z 29007KT 10SM FEW050 20/07 A3002 RMK AO2 SLP171 T02000072=
202108240053 METAR KSEA 240053Z 30008KT 10SM FEW050 22/06 A3003 RMK AO2 SLP173 T02170061=
202108232353 METAR KSEA 232353Z 28008KT 10SM FEW040 21/06 A3003 RMK AO2 SLP173 T02110056 10217 20156 58007=
202108232253 METAR KSEA 232253Z 32003KT 10SM FEW040 21/06 A3004 RMK AO2 SLP176 T02110061=
202108232153 METAR KSEA 232153Z 33006G15KT 10SM SCT040 20/07 A3005 RMK AO2 SLP180 T02000067=
202108232053 METAR KSEA 232053Z VRB04KT 10SM SCT040 19/08 A3005 RMK AO2 SLP180 T01890078 51002=
202108231953 METAR KSEA 231953Z 27006KT 10SM SCT030 18/08 A3005 RMK AO2 SLP180 T01830083=
202108231853 METAR KSEA 231853Z VRB06KT 10SM SCT028 17/08 A3005 RMK AO2 SLP179 T01720083=
202108231753 METAR KSEA 231753Z 23007KT 10SM SCT023 BKN040 16/08 A3004 RMK AO2 SLP179 T01560083 10156 20111 51010=
202108231653 METAR KSEA 231653Z VRB04KT 10SM SCT020 BKN030 14/09 A3004 RMK AO2 SLP176 T01390089=
202108231640 SPECI KSEA 231640Z 21005KT 10SM SCT020 BKN030 14/09 A3003 RMK AO2 T01390089=
202108231553 METAR KSEA 231553Z 19004KT 10SM BKN015 BKN023 13/09 A3003 RMK AO2 SLP173 T01330089=
202108231453 METAR KSEA 231453Z 18005KT 10SM FEW015 BKN020 BKN040 12/08 A3001 RMK AO2 SLP169 T01220083 53014=
202108231353 METAR KSEA 231353Z 18007KT 10SM BKN015 BKN021 12/08 A2999 RMK AO2 SLP160 T01170083=
202108231345 SPECI KSEA 231345Z 19008KT 10SM BKN015 BKN021 11/08 A2998 RMK AO2 T01110083=
202108231253 METAR KSEA 231253Z 18008KT 10SM OVC013 12/08 A2998 RMK AO2 SLP158 T01170083=
202108231230 SPECI KSEA 231230Z 18006KT 10SM OVC014 12/08 A2998 RMK AO2 T01170083=
202108231215 SPECI KSEA 231215Z 18007KT 10SM OVC015 12/08 A2997 RMK AO2 T01170083=
202108231153 METAR KSEA 231153Z 17007KT 10SM OVC014 12/08 A2997 RMK AO2 SLP155 T01170083 10144 20117 51009=
202108231137 SPECI KSEA 231137Z 17006KT 10SM OVC014 12/08 A2998 RMK AO2 T01170083=
202108231102 SPECI KSEA 231102Z 17006KT 10SM BKN016 BKN021 OVC042 12/08 A2997 RMK AO2 T01170083=
202108231053 METAR KSEA 231053Z 17005KT 10SM BKN014 BKN041 OVC050 12/08 A2996 RMK AO2 SLP152 T01170083=
202108231042 SPECI KSEA 231042Z 19005KT 10SM OVC014 12/08 A2996 RMK AO2 T01170083=
202108230953 METAR KSEA 230953Z 18006KT 10SM BKN015 12/08 A2996 RMK AO2 SLP149 T01170083=
202108230853 METAR KSEA 230853Z 20007KT 10SM SCT045 12/09 A2995 RMK AO2 SLP145 T01220089 53008=
202108230753 METAR KSEA 230753Z 21008KT 10SM BKN046 13/09 A2994 RMK AO2 SLP143 T01280094 402060128=
202108230653 METAR KSEA 230653Z 21009KT 10SM FEW046 OVC065 13/09 A2993 RMK AO2 SLP139 T01330089=
202108230553 METAR KSEA 230553Z 21009KT 10SM FEW045 SCT065 14/08 A2992 RMK AO2 SLP138 T01390083 10206 20139 51011=
202108230453 METAR KSEA 230453Z 21006KT 10SM BKN070 16/08 A2992 RMK AO2 SLP136 T01560083=
202108230353 METAR KSEA 230353Z 00000KT 10SM BKN065 17/08 A2990 RMK AO2 SLP131 T01670083=
202108230253 METAR KSEA 230253Z VRB04KT 10SM FEW050 BKN075 17/07 A2989 RMK AO2 SLP127 T01720072 52004=
202108230153 METAR KSEA 230153Z 28004KT 10SM BKN075 18/07 A2988 RMK AO2 SLP124 T01830072=
202108230053 METAR KSEA 230053Z 25007KT 10SM BKN070 18/07 A2988 RMK AO2 SLP125 T01830072=
202108222353 METAR KSEA 222353Z 23013G21KT 10SM FEW025 BKN070 20/07 A2988 RMK AO2 SLP122 T02000067 10200 20161 58004=
202108222253 METAR KSEA 222253Z 22011KT 10SM FEW025 OVC070 19/06 A2988 RMK AO2 SLP125 T01890061=
202108222153 METAR KSEA 222153Z 21011G19KT 10SM FEW048 BKN060 19/06 A2989 RMK AO2 SLP125 T01890061=
202108222053 METAR KSEA 222053Z 20013G22KT 10SM FEW030 BKN043 OVC050 18/07 A2989 RMK AO2 SLP126 T01830067 51005=
202108221953 METAR KSEA 221953Z 19014KT 10SM FEW030 BKN050 BKN070 18/07 A2988 RMK AO2 SLP124 T01830067=
202108221853 METAR KSEA 221853Z 22017G25KT 10SM FEW020 SCT039 BKN047 17/07 A2988 RMK AO2 SLP123 T01670072=
202108221753 METAR KSEA 221753Z 23017G23KT 10SM FEW020 BKN038 BKN060 17/08 A2987 RMK AO2 SLP120 T01720078 10178 20139 53005=
202108221653 METAR KSEA 221653Z 21013G21KT 10SM FEW020 BKN034 OVC060 16/08 A2986 RMK AO2 SLP116 T01560083=
202108221553 METAR KSEA 221553Z 22013G21KT 10SM SCT038 OVC050 15/09 A2985 RMK AO2 SLP115 T01500089=
202108221453 METAR KSEA 221453Z 20011KT 10SM SCT016 OVC050 14/11 A2986 RMK AO2 SLP115 T01440106 56001=
202108221353 METAR KSEA 221353Z 21008KT 10SM BKN013 OVC050 14/12 A2986 RMK AO2 SLP115 T01390117=
202108221253 METAR KSEA 221253Z 20007KT 10SM OVC014 14/11 A2985 RMK AO2 SLP113 T01440111=
202108221231 SPECI KSEA 221231Z 18009KT 10SM BKN016 OVC041 14/11 A2985 RMK AO2 T01440111=
202108221208 SPECI KSEA 221208Z 19007KT 10SM BKN015 OVC041 14/11 A2985 RMK AO2 T01440111=
202108221153 METAR KSEA 221153Z 21007KT 10SM OVC016 14/11 A2986 RMK AO2 SLP116 T01440111 10172 20139 56001=
202108221122 SPECI KSEA 221122Z 22007KT 10SM BKN018 OVC048 14/11 A2986 RMK AO2 T01390111=
202108221053 METAR KSEA 221053Z 21008KT 10SM OVC049 14/11 A2986 RMK AO2 SLP115 T01440111=
202108220953 METAR KSEA 220953Z 20008KT 10SM FEW039 OVC060 15/11 A2986 RMK AO2 SLP115 T01500111=
202108220853 METAR KSEA 220853Z 22010KT 10SM FEW021 BKN034 OVC065 15/11 A2986 RMK AO2 SLP117 T01500111 57002=
202108220753 METAR KSEA 220753Z 22009KT 10SM OVC060 16/11 A2986 RMK AO2 SLP118 T01560111 402110128=
202108220653 METAR KSEA 220653Z 21009KT 10SM OVC060 16/12 A2986 RMK AO2 SLP117 T01610117=
202108220553 METAR KSEA 220553Z 20008KT 10SM FEW035 OVC060 17/12 A2987 RMK AO2 SLP118 T01670122 10206 20167 51005=
202108220453 METAR KSEA 220453Z 23006KT 10SM OVC060 18/12 A2986 RMK AO2 SLP117 T01780122=
202108220353 METAR KSEA 220353Z 23008KT 10SM FEW040 OVC055 18/12 A2985 RMK AO2 SLP114 T01830122=
202108220253 METAR KSEA 220253Z 23006KT 10SM OVC048 19/12 A2985 RMK AO2 SLP113 T01890117 55001=
202108220153 METAR KSEA 220153Z 21007KT 10SM OVC046 19/11 A2985 RMK AO2 SLP112 T01940106=
202108220053 METAR KSEA 220053Z 20006KT 10SM BKN047 OVC055 20/11 A2985 RMK AO2 SLP112 T02000111=
202108212353 METAR KSEA 212353Z 22006KT 10SM FEW043 OVC060 20/11 A2985 RMK AO2 SLP114 T02000111 10211 20161 58002=
202108212253 METAR KSEA 212253Z 23005KT 10SM BKN037 BKN060 21/11 A2985 RMK AO2 SLP114 T02110111=
202108212153 METAR KSEA 212153Z 27006KT 10SM BKN032 OVC060 19/11 A2986 RMK AO2 SLP117 T01940111=
202108212053 METAR KSEA 212053Z 24007KT 10SM SCT029 SCT034 BKN060 19/11 A2986 RMK AO2 SLP116 T01890111 56004=
202108211953 METAR KSEA 211953Z 23007KT 10SM SCT025 BKN035 BKN065 19/12 A2986 RMK AO2 SLP117 T01890117=
202108211853 METAR KSEA 211853Z VRB03KT 10SM FEW020 BKN027 OVC065 17/11 A2987 RMK AO2 SLP118 T01720111=
202108211753 METAR KSEA 211753Z VRB03KT 10SM FEW014 OVC032 17/11 A2987 RMK AO2 SLP120 T01670111 10172 20128 58001=
202108211735 SPECI KSEA 211735Z 14006KT 10SM SCT014 BKN032 17/11 A2986 RMK AO2 T01670111=
202108211653 METAR KSEA 211653Z 20004KT 10SM BKN012 BKN029 OVC043 15/11 A2987 RMK AO2 SLP120 T01500111=
202108211636 SPECI KSEA 211636Z 19005KT 10SM SCT012 OVC029 15/12 A2987 RMK AO2 T01500117=
202108211553 METAR KSEA 211553Z 26003KT 10SM BKN013 OVC029 14/12 A2988 RMK AO2 SLP122 T01390117=
202108211453 METAR KSEA 211453Z 22003KT 10SM SCT011 OVC028 13/12 A2987 RMK AO2 SLP121 T01330117 53003=
202108211353 METAR KSEA 211353Z 29003KT 10SM BKN011 OVC027 13/11 A2987 RMK AO2 SLP120 T01330111=
202108211253 METAR KSEA 211253Z 00000KT 10SM OVC015 13/11 A2986 RMK AO2 SLP118 T01330111=
202108211153 METAR KSEA 211153Z 00000KT 10SM FEW005 BKN016 OVC050 13/12 A2986 RMK AO2 SLP117 T01330117 10144 20128 50000=
202108211110 SPECI KSEA 211110Z 29003KT 10SM SCT005 SCT010 OVC018 13/12 A2987 RMK AO2 T01280117=
202108211053 METAR KSEA 211053Z 28003KT 10SM BKN005 BKN010 OVC018 13/12 A2987 RMK AO2 SLP119 T01280117=
202108211040 SPECI KSEA 211040Z 00000KT 10SM BKN005 BKN018 OVC070 13/12 A2987 RMK AO2 T01280117=
202108211023 SPECI KSEA 211023Z 27003KT 10SM SCT005 SCT011 OVC070 13/12 A2987 RMK AO2 T01280117=
202108211021 SPECI KSEA 211021Z 25003KT 10SM BKN005 BKN011 OVC070 13/12 A2987 RMK AO2 T01280117=
202108210953 METAR KSEA 210953Z 21004KT 10SM FEW005 SCT060 OVC070 13/12 A2986 RMK AO2 SLP117 T01280117=
202108210917 SPECI KSEA 210917Z 20005KT 10SM SCT024 SCT032 BKN070 13/12 A2986 RMK AO2 T01280117=
202108210853 METAR KSEA 210853Z 18006KT 10SM BKN024 BKN031 13/11 A2986 RMK AO2 SLP117 T01280111 58010=
202108210753 METAR KSEA 210753Z 00000KT 10SM OVC024 14/11 A2988 RMK AO2 SLP123 T01390111 401890139=
202108210653 METAR KSEA 210653Z 24007KT 10SM SCT017 BKN026 14/11 A2988 RMK AO2 SLP123 T01390111=
202108210553 METAR KSEA 210553Z 23004KT 10SM BKN019 OVC035 14/11 A2989 RMK AO2 SLP127 T01440111 10178 20139 58002=
202108210453 METAR KSEA 210453Z 23003KT 10SM FEW015 BKN023 OVC037 14/11 A2990 RMK AO2 SLP131 T01440111=
202108210353 METAR KSEA 210353Z 00000KT 10SM BKN022 OVC035 15/12 A2990 RMK AO2 SLP130 T01500117=
202108210300 SPECI KSEA 210300Z 29005KT 10SM BKN019 OVC027 15/12 A2990 RMK AO2 T01500117=
202108210253 METAR KSEA 210253Z 29005KT 10SM OVC030 15/12 A2990 RMK AO2 SLP130 T01500117 56008=
202108210153 METAR KSEA 210153Z 27005KT 10SM OVC030 16/12 A2990 RMK AO2 SLP129 T01610117=
202108210053 METAR KSEA 210053Z 26008KT 10SM BKN028 OVC044 17/12 A2992 RMK AO2 SLP136 T01670117=
202108202353 METAR KSEA 202353Z 23009KT 10SM FEW025 BKN041 18/11 A2992 RMK AO2 SLP138 T01780111 10189 20161 58010=
202108202312 SPECI KSEA 202312Z 24010KT 10SM SCT025 OVC038 17/12 A2993 RMK AO2 T01720117=
202108202253 METAR KSEA 202253Z 24010KT 10SM BKN025 OVC033 18/12 A2994 RMK AO2 SLP143 T01780117=
202108202153 METAR KSEA 202153Z 22013KT 10SM OVC024 17/12 A2995 RMK AO2 SLP146 T01720117=
202108202053 METAR KSEA 202053Z 22011KT 10SM BKN024 OVC029 17/12 A2996 RMK AO2 SLP149 T01670117 57013=
202108201953 METAR KSEA 201953Z 22011KT 10SM OVC021 17/12 A2997 RMK AO2 SLP154 T01670117=
202108201853 METAR KSEA 201853Z 23009KT 10SM OVC020 16/12 A2998 RMK AO2 SLP158 T01610117=
202108201753 METAR KSEA 201753Z 22009G18KT 10SM BKN015 OVC021 16/12 A2999 RMK AO2 SLP162 T01610117 10161 20139 56006=
202108201705 SPECI KSEA 201705Z 22008KT 10SM OVC014 15/12 A3000 RMK AO2 T01500117=
202108201653 METAR KSEA 201653Z 22009KT 10SM OVC015 15/12 A3000 RMK AO2 SLP163 T01500117=
202108201553 METAR KSEA 201553Z 21009KT 10SM SCT011 OVC018 14/12 A3000 RMK AO2 SLP166 T01440117=
202108201500 SPECI KSEA 201500Z 22007KT 10SM BKN017 OVC022 14/12 A3001 RMK AO2 T01440117=
202108201453 METAR KSEA 201453Z 20008KT 10SM BKN014 OVC020 14/12 A3001 RMK AO2 SLP168 T01440117 55000=
202108201353 METAR KSEA 201353Z 22009KT 10SM OVC013 14/12 A3001 RMK AO2 SLP167 T01440117=
202108201253 METAR KSEA 201253Z 22010KT 10SM BKN010 OVC013 14/12 A3002 RMK AO2 SLP169 T01440117=
202108201153 METAR KSEA 201153Z 23009KT 10SM BKN010 OVC013 14/12 A3001 RMK AO2 SLP168 T01440122 10150 20144 56004=
202108201053 METAR KSEA 201053Z 21009KT 10SM OVC010 14/12 A3002 RMK AO2 SLP168 T01440122=
202108201047 SPECI KSEA 201047Z 21010KT 10SM OVC010 14/12 A3002 RMK AO2=
202108200953 METAR KSEA 200953Z 21008KT 10SM OVC009 14/12 A3003 RMK AO2 SLP172 T01440122=
202108200853 METAR KSEA 200853Z 21011KT 10SM OVC009 14/12 A3003 RMK AO2 SLP172 T01440122 58001=
202108200753 METAR KSEA 200753Z 20008KT 10SM OVC009 15/13 A3003 RMK AO2 SLP174 T01500128 402610133=
202108200653 METAR KSEA 200653Z 22007KT 10SM BKN008 OVC012 15/13 A3004 RMK AO2 SLP176 T01500128=
202108200628 SPECI KSEA 200628Z 20007KT 10SM BKN008 15/13 A3003 RMK AO2 T01500128=
202108200553 METAR KSEA 200553Z 20009KT 10SM FEW020 15/13 A3003 RMK AO2 SLP174 T01500128 10261 20150 53006=
202108200453 METAR KSEA 200453Z 21009KT 10SM CLR 17/13 A3002 RMK AO2 SLP170 T01670133=
202108200353 METAR KSEA 200353Z 21009KT 10SM FEW050 FEW250 18/14 A3002 RMK AO2 SLP170 T01830139=
202108200253 METAR KSEA 200253Z 20005KT 10SM FEW050 FEW250 21/13 A3001 RMK AO2 SLP168 T02110133 56008=
202108200153 METAR KSEA 200153Z 27003KT 10SM FEW040 24/12 A3001 RMK AO2 SLP167 T02440122=
202108200053 METAR KSEA 200053Z 28006KT 10SM FEW040 26/12 A3002 RMK AO2 SLP170 T02560117=
202108192353 METAR KSEA 192353Z 28005KT 10SM FEW040 26/12 A3003 RMK AO2 SLP174 T02560117 10261 20167 56012=
202108192253 METAR KSEA 192253Z VRB06KT 10SM SCT035 25/12 A3004 RMK AO2 SLP177 T02500117=
202108192153 METAR KSEA 192153Z VRB04KT 10SM FEW035 SCT060 24/12 A3006 RMK AO2 SLP182 T02440117=
202108192053 METAR KSEA 192053Z VRB03KT 10SM SCT060 23/12 A3007 RMK AO2 SLP187 T02280122 58012=
202108191953 METAR KSEA 191953Z 21005KT 10SM FEW060 22/12 A3008 RMK AO2 SLP190 T02170122=
202108191853 METAR KSEA 191853Z 25007KT 10SM FEW060 18/12 A3010 RMK AO2 SLP197 T01830122=
202108191753 METAR KSEA 191753Z 22008KT 10SM FEW010 17/12 A3011 RMK AO2 SLP199 T01720122 10178 20133 58000=
202108191706 SPECI KSEA 191706Z 19007KT 7SM SCT007 17/12 A3011 RMK AO2 T01670122=
202108191653 METAR KSEA 191653Z 20007KT 6SM HZ BKN005 16/12 A3011 RMK AO2 SLP202 T01560122=
202108191635 SPECI KSEA 191635Z 19005KT 6SM BR BKN005 14/12 A3012 RMK AO2 T01440122=
202108191553 METAR KSEA 191553Z 19007KT 6SM BR OVC004 14/12 A3012 RMK AO2 SLP203 T01390117=
202108191453 METAR KSEA 191453Z 21009KT 6SM BR OVC003 13/12 A3011 RMK AO2 SLP199 T01330122 53007=
202108191353 METAR KSEA 191353Z 21007KT 6SM BR OVC004 13/12 A3010 RMK AO2 SLP198 FG BANK SW-W T01330122=
202108191311 SPECI KSEA 191311Z 21005KT 5SM BR BKN004 BKN060 13/12 A3010 RMK AO2 FG BANK SW-W T01330122=
202108191253 METAR KSEA 191253Z 19008KT 7SM SCT004 BKN065 13/12 A3008 RMK AO2 SLP192 FG BANK SW-W T01330122=
202108191153 METAR KSEA 191153Z 23004KT 8SM FEW005 SCT080 13/12 A3008 RMK AO2 SLP192 T01330117 10200 20133 51005=
202108191053 METAR KSEA 191053Z 22003KT 9SM FEW070 14/12 A3008 RMK AO2 SLP191 T01390122=
202108190953 METAR KSEA 190953Z 22005KT 10SM FEW120 14/12 A3008 RMK AO2 SLP190 T01440122=
202108190853 METAR KSEA 190853Z 19004KT 10SM FEW120 16/12 A3007 RMK AO2 SLP186 T01610122 57003=
202108190753 METAR KSEA 190753Z 25005KT 10SM BKN075 18/12 A3007 RMK AO2 SLP186 T01780117 402500117=
202108190653 METAR KSEA 190653Z 28003KT 10SM OVC070 19/12 A3008 RMK AO2 SLP189 T01890117=
202108190553 METAR KSEA 190553Z 28004KT 10SM OVC070 20/11 A3008 RMK AO2 SLP190 T02000111 10244 20200 50005=
202108190453 METAR KSEA 190453Z 31004KT 10SM OVC080 21/11 A3008 RMK AO2 SLP190 T02110111=
202108190353 METAR KSEA 190353Z 31004KT 10SM BKN085 21/11 A3008 RMK AO2 SLP189 T02110111=
202108190253 METAR KSEA 190253Z 28003KT 10SM BKN075 23/11 A3006 RMK AO2 SLP184 T02280106 56007=
202108190153 METAR KSEA 190153Z 28004KT 10SM BKN100 BKN250 23/11 A3007 RMK AO2 SLP187 T02330111=
202108190053 METAR KSEA 190053Z 21006KT 10SM BKN110 BKN250 23/12 A3007 RMK AO2 SLP187 T02330117=
202108182353 METAR KSEA 182353Z 24006KT 10SM BKN120 BKN250 24/12 A3008 RMK AO2 SLP191 T02390117 10250 20167 56012=
202108182253 METAR KSEA 182253Z 29008KT 260V330 10SM SCT140 BKN250 24/11 A3009 RMK AO2 SLP195 T02440111=
202108182153 METAR KSEA 182153Z 25007KT 10SM FEW250 23/11 A3010 RMK AO2 SLP197 T02330106=
202108182053 METAR KSEA 182053Z 00000KT 10SM FEW250 22/12 A3012 RMK AO2 SLP203 T02170117 56012=
202108181953 METAR KSEA 181953Z 28004KT 10SM FEW030 FEW250 20/12 A3012 RMK AO2 SLP205 T02000122=
202108181853 METAR KSEA 181853Z 25005KT 10SM CLR 19/12 A3014 RMK AO2 SLP212 T01890117=
202108181753 METAR KSEA 181753Z 20007KT 160V230 10SM FEW025 SCT250 17/12 A3015 RMK AO2 SLP216 T01670117 10167 20117 51004=
202108181714 SPECI KSEA 181714Z 20007KT 10SM SCT010 SCT250 16/12 A3015 RMK AO2 T01610117=
202108181653 METAR KSEA 181653Z 21005KT 10SM BKN009 16/12 A3015 RMK AO2 SLP216 T01560117=
202108181553 METAR KSEA 181553Z 23004KT 7SM OVC005 14/12 A3015 RMK AO2 SLP216 T01390117=
202108181524 SPECI KSEA 181524Z 23004KT 3SM OVC003 13/12 A3015 RMK AO2 SFC VIS 7 T01280117=
202108181453 METAR KSEA 181453Z 22007KT 1SM R16L/P6000FT BR OVC002 13/12 A3014 RMK AO2 SFC VIS 2 SLP212 T01280117 52008=
202108181441 SPECI KSEA 181441Z 20006KT 1/4SM R16L/P6000FT BR OVC002 13/12 A3014 RMK AO2 SFC VIS 3/4 T01280122=
202108181353 METAR KSEA 181353Z 19007KT 1/4SM R16L/3500VP6000FT FG OVC001 12/12 A3014 RMK AO2 SFC VIS 1/2 SLP210 T01220117=
202108181336 SPECI KSEA 181336Z 21005KT 1/2SM R16L/5000VP6000FT BR OVC001 12/12 A3013 RMK AO2 SFC VIS 3/4 T01220117=
202108181319 SPECI KSEA 181319Z 20005KT 1/2SM R16L/P6000FT BR VV003 12/12 A3013 RMK AO2 SFC VIS 3/4 T01220117=
202108181253 METAR KSEA 181253Z 17005KT 10SM FEW002 12/11 A3012 RMK AO2 SLP205 T01170111=
202108181153 METAR KSEA 181153Z 19005KT 10SM CLR 12/11 A3012 RMK AO2 SLP204 T01220111 10172 20122 51010=
202108181053 METAR KSEA 181053Z 21004KT 10SM CLR 13/11 A3011 RMK AO2 SLP201 T01280111=
202108180953 METAR KSEA 180953Z 17003KT 10SM CLR 13/11 A3010 RMK AO2 SLP197 T01330106=
202108180853 METAR KSEA 180853Z 18003KT 10SM CLR 14/11 A3009 RMK AO2 SLP194 T01440111 53006=
202108180753 METAR KSEA 180753Z 15005KT 10SM CLR 16/11 A3008 RMK AO2 SLP192 T01560111 402000117=
202108180653 METAR KSEA 180653Z 14005KT 10SM FEW035 16/11 A3007 RMK AO2 SLP188 T01560106=
202108180553 METAR KSEA 180553Z 15005KT 10SM FEW035 17/11 A3007 RMK AO2 SLP187 T01720106 10200 20167 51010=
202108180453 METAR KSEA 180453Z 14007KT 10SM CLR 18/10 A3006 RMK AO2 SLP186 T01780100=
202108180353 METAR KSEA 180353Z 16005KT 10SM SCT120 18/11 A3005 RMK AO2 SLP181 T01780106=
202108180253 METAR KSEA 180253Z 10005KT 10SM FEW030 BKN100 19/11 A3004 RMK AO2 SLP177 T01940106 53005=
202108180153 METAR KSEA 180153Z VRB03KT 10SM FEW031 BKN110 19/11 A3003 RMK AO2 SLP176 T01940106=
202108180053 METAR KSEA 180053Z 25005KT 10SM SCT031 19/11 A3003 RMK AO2 SLP173 T01940106=
202108172353 METAR KSEA 172353Z VRB03KT 10SM SCT030 SCT250 19/11 A3002 RMK AO2 SLP172 60000 T01890106 10200 20150 51000=
202108172253 METAR KSEA 172253Z 22004KT 10SM SCT031 SCT250 18/11 A3002 RMK AO2 SLP172 T01830111=
202108172218 SPECI KSEA 172218Z VRB06KT 10SM SCT022 BKN042 BKN250 18/11 A3002 RMK AO2 T01830106=
202108172153 METAR KSEA 172153Z 01004KT 10SM BKN022 17/11 A3003 RMK AO2 SLP173 T01720106=
202108172053 METAR KSEA 172053Z VRB03KT 10SM OVC021 16/11 A3002 RMK AO2 SLP172 60000 T01560106 51010=
202108171953 METAR KSEA 171953Z VRB03KT 10SM FEW020 BKN026 OVC035 16/11 A3001 RMK AO2 RAE08 SLP168 P0000 T01560106=
202108171853 METAR KSEA 171853Z 30003KT 7SM -RA SCT021 OVC034 16/11 A3001 RMK AO2 RAB52 SLP166 P0000 T01560106=
202108171753 METAR KSEA 171753Z 26005KT 10SM FEW010 SCT017 OVC038 16/11 A2999 RMK AO2 SLP161 T01560106 10156 20122 51012=
202108171714 SPECI KSEA 171714Z 23005KT 10SM FEW010 SCT016 OVC038 14/10 A2999 RMK AO2 T01440100=
202108171653 METAR KSEA 171653Z 00000KT 10SM FEW010 BKN016 OVC039 14/11 A2999 RMK AO2 SLP160 T01390106=
202108171614 SPECI KSEA 171614Z 23007KT 10SM SCT010 BKN016 OVC039 13/11 A2998 RMK AO2 T01330111=
202108171553 METAR KSEA 171553Z 22006KT 10SM BKN010 OVC026 13/11 A2997 RMK AO2 SLP154 T01330111=
202108171543 SPECI KSEA 171543Z 23005KT 10SM BKN010 OVC025 13/11 A2997 RMK AO2 T01330111=
202108171510 SPECI KSEA 171510Z 20006KT 10SM OVC009 13/11 A2996 RMK AO2 T01280106=
202108171453 METAR KSEA 171453Z 21005KT 10SM OVC011 13/11 A2996 RMK AO2 SLP150 T01330106 53013=
202108171406 SPECI KSEA 171406Z 18006KT 10SM BKN013 OVC044 13/10 A2994 RMK AO2 T01280100=
202108171353 METAR KSEA 171353Z 16007KT 10SM BKN015 OVC044 13/10 A2994 RMK AO2 SLP143 T01280100=
202108171312 SPECI KSEA 171312Z 18006KT 10SM SCT015 BKN026 OVC050 13/10 A2993 RMK AO2 T01280100=
202108171253 METAR KSEA 171253Z 18004KT 10SM FEW020 OVC046 12/09 A2992 RMK AO2 SLP138 T01220094=
202108171153 METAR KSEA 171153Z 16008KT 10SM FEW020 OVC046 12/10 A2992 RMK AO2 SLP137 T01220100 10144 20117 51004=
202108171102 SPECI KSEA 171102Z 18007KT 10SM SCT020 SCT026 OVC042 13/10 A2992 RMK AO2 T01280100=
202108171053 METAR KSEA 171053Z 21007KT 10SM BKN020 OVC044 13/09 A2992 RMK AO2 SLP136 T01280094=
202108171029 SPECI KSEA 171029Z 17006KT 10SM BKN022 BKN030 OVC043 13/09 A2992 RMK AO2 T01330089=
202108170953 METAR KSEA 170953Z 16006KT 10SM SCT024 BKN032 OVC039 13/09 A2992 RMK AO2 SLP135 T01330094=
202108170853 METAR KSEA 170853Z 16006KT 10SM OVC032 14/09 A2991 RMK AO2 SLP132 T01390089 51010=
202108170753 METAR KSEA 170753Z 17008KT 10SM OVC028 14/08 A2990 RMK AO2 SLP128 T01390083 402440139=
202108170653 METAR KSEA 170653Z 22007KT 10SM BKN027 14/08 A2989 RMK AO2 SLP127 T01390083=
202108170553 METAR KSEA 170553Z 22010KT 10SM FEW030 SCT150 14/09 A2988 RMK AO2 SLP122 T01440089 10217 20144 51009=
202108170453 METAR KSEA 170453Z 23014KT 10SM FEW030 SCT150 16/08 A2987 RMK AO2 SLP120 T01560083=
202108170353 METAR KSEA 170353Z 23012G18KT 10SM FEW029 SCT075 BKN150 17/11 A2986 RMK AO2 SLP116 T01670106=
202108170253 METAR KSEA 170253Z 21011KT 10SM FEW029 SCT075 BKN180 17/13 A2985 RMK AO2 SLP113 T01720128 55003=
202108170153 METAR KSEA 170153Z 22011KT 10SM FEW028 SCT070 BKN150 19/14 A2984 RMK AO2 SLP111 T01890139=
202108170131 SPECI KSEA 170131Z 24007KT 10SM SCT028 BKN070 BKN150 20/14 A2985 RMK AO2 T02000144=
202108170053 METAR KSEA 170053Z 25007G17KT 10SM BKN028 BKN060 BKN150 20/14 A2986 RMK AO2 SLP114 T02000144=
202108170009 SPECI KSEA 170009Z 21010G19KT 10SM BKN028 BKN070 BKN150 22/14 A2986 RMK AO2 T02170144=
202108162353 METAR KSEA 162353Z 21012KT 10SM SCT028 BKN070 BKN150 22/14 A2986 RMK AO2 SLP115 T02170144 10244 20172 56014=
202108162253 METAR KSEA 162253Z 24010G21KT 10SM FEW030 SCT075 BKN150 23/14 A2987 RMK AO2 SLP118 T02330144=
202108162153 METAR KSEA 162153Z 21010KT 10SM FEW029 SCT110 BKN150 BKN250 24/14 A2989 RMK AO2 SLP125 T02390144=
202108162053 METAR KSEA 162053Z 23014G20KT 10SM SCT025 BKN100 BKN250 23/14 A2990 RMK AO2 SLP129 T02330139 58015=
202108161953 METAR KSEA 161953Z 21012G15KT 10SM SCT021 BKN100 22/14 A2992 RMK AO2 SLP136 T02170139=
202108161926 SPECI KSEA 161926Z 20008KT 10SM SCT021 BKN090 21/14 A2993 RMK AO2 T02060139=
202108161853 METAR KSEA 161853Z 24009KT 10SM BKN016 BKN030 19/14 A2994 RMK AO2 SLP141 T01890139=
202108161845 SPECI KSEA 161845Z 21010KT 10SM BKN016 BKN030 19/14 A2994 RMK AO2 T01890139=
202108161753 METAR KSEA 161753Z 21009KT 10SM BKN012 OVC025 17/14 A2994 RMK AO2 SLP144 T01720139 10172 20156 58005=
202108161718 SPECI KSEA 161718Z 21007KT 10SM OVC010 17/13 A2995 RMK AO2 T01670133=
202108161653 METAR KSEA 161653Z VRB06KT 10SM BKN008 OVC025 16/14 A2995 RMK AO2 SLP147 T01610139=
202108161553 METAR KSEA 161553Z 22006KT 5SM BR BKN005 OVC025 16/14 A2996 RMK AO2 SLP150 T01560139=
202108161453 METAR KSEA 161453Z 21010KT 6SM BR OVC005 16/14 A2996 RMK AO2 SLP149 T01560139 53001=
202108161430 SPECI KSEA 161430Z 22008KT 6SM BR OVC004 16/14 A2996 RMK AO2 T01560139=
202108161353 METAR KSEA 161353Z 20007KT 7SM OVC005 16/14 A2996 RMK AO2 SLP149 T01560144=
202108161253 METAR KSEA 161253Z 22005KT 8SM BKN005 OVC120 16/14 A2995 RMK AO2 SLP146 T01560144=
202108161249 SPECI KSEA 161249Z 22007KT 9SM BKN005 OVC120 16/14 A2996 RMK AO2=
202108161211 SPECI KSEA 161211Z 20005KT 10SM SCT006 SCT015 OVC130 16/14 A2995 RMK AO2 T01560144=
202108161153 METAR KSEA 161153Z 22004KT 10SM FEW015 OVC130 16/14 A2996 RMK AO2 SLP148 T01610144 10189 20161 55001=
202108161053 METAR KSEA 161053Z 21005KT 10SM OVC130 16/14 A2996 RMK AO2 SLP148 T01610144=
202108160953 METAR KSEA 160953Z 20008KT 10SM OVC130 17/14 A2995 RMK AO2 SLP147 T01670144=
202108160853 METAR KSEA 160853Z 21006KT 10SM BKN150 17/14 A2996 RMK AO2 SLP150 T01670144 58004=
202108160753 METAR KSEA 160753Z 18006KT 10SM FEW130 OVC150 17/15 A2997 RMK AO2 SLP152 T01720150 402780156=
202108160653 METAR KSEA 160653Z 16004KT 10SM SCT130 BKN160 18/15 A2997 RMK AO2 SLP154 T01830150=
202108160553 METAR KSEA 160553Z 22004KT 10SM BKN150 19/15 A2997 RMK AO2 SLP154 T01890150 10278 20189 50000=
202108160453 METAR KSEA 160453Z 20004KT 10SM BKN170 21/16 A2998 RMK AO2 SLP157 T02060156=
202108160353 METAR KSEA 160353Z 19004KT 10SM FEW040 SCT100 BKN160 22/16 A2998 RMK AO2 SLP156 T02170156=
202108160253 METAR KSEA 160253Z 21006KT 10SM FEW080 BKN160 23/16 A2997 RMK AO2 SLP154 T02330156 56008=
202108160153 METAR KSEA 160153Z 21007KT 10SM BKN160 26/16 A2998 RMK AO2 SLP155 T02610156=
202108160053 METAR KSEA 160053Z 28005KT 10SM FEW150 BKN200 28/16 A2999 RMK AO2 SLP159 T02780156=
202108152353 METAR KSEA 152353Z 28003KT 10SM FEW150 BKN200 27/16 A3000 RMK AO2 SLP161 T02670156 10272 20189 58018=
202108152253 METAR KSEA 152253Z 24005KT 10SM FEW150 BKN200 26/15 A3002 RMK AO2 SLP169 T02560150=
202108152153 METAR KSEA 152153Z VRB03KT 10SM FEW150 SCT220 26/15 A3003 RMK AO2 SLP174 T02560150=
202108152053 METAR KSEA 152053Z 24008KT 10SM FEW150 SCT210 25/15 A3005 RMK AO2 SLP179 T02500150 56016=
202108151953 METAR KSEA 151953Z 24008KT 10SM FEW150 FEW200 23/15 A3006 RMK AO2 SLP184 T02280150=
202108151853 METAR KSEA 151853Z 26008KT 10SM FEW020 SCT180 21/15 A3008 RMK AO2 SLP189 T02110150=
202108151753 METAR KSEA 151753Z 25006KT 10SM FEW010 FEW040 SCT170 19/14 A3010 RMK AO2 SLP196 T01890144 10194 20156 58005=
202108151716 SPECI KSEA 151716Z VRB03KT 10SM FEW008 SCT020 BKN160 18/14 A3010 RMK AO2 T01830144=
202108151653 METAR KSEA 151653Z 22006KT 10SM BKN007 OVC170 18/14 A3010 RMK AO2 SLP198 T01780144=
202108151553 METAR KSEA 151553Z 20005KT 6SM BR OVC004 16/14 A3012 RMK AO2 SLP202 T01560139=
202108151453 METAR KSEA 151453Z 21006KT 2SM BR OVC002 16/14 A3011 RMK AO2 SFC VIS 5 SLP202 T01560144 51014=
202108151356 SPECI KSEA 151356Z 21007KT 2SM BR BKN002 OVC010 16/15 A3010 RMK AO2 SFC VIS 6 T01560150=
202108151353 METAR KSEA 151353Z 21008KT 6SM BR SCT002 BKN010 BKN200 16/15 A3010 RMK AO2 SLP197 T01560150=
202108151323 SPECI KSEA 151323Z 21005KT 6SM BR SCT004 BKN010 BKN200 16/15 A3010 RMK AO2 T01560150=
202108151316 SPECI KSEA 151316Z 21006KT 4SM R16L/6000VP6000FT BR BKN001 BKN200 16/14 A3009 RMK AO2 T01560144=
202108151304 SPECI KSEA 151304Z 22005KT 2 1/2SM R16L/3000VP6000FT BR BKN001 16/14 A3009 RMK AO2 VIS 1 1/2V5 T01560144=
202108151253 METAR KSEA 151253Z 23005KT 9SM FEW004 FEW010 SCT200 16/14 A3008 RMK AO2 SLP191 T01560144=
202108151153 METAR KSEA 151153Z 24005KT 10SM SCT200 17/15 A3007 RMK AO2 SLP186 T01720150 10217 20167 53002=
202108151053 METAR KSEA 151053Z 18003KT 10SM SCT200 17/15 A3006 RMK AO2 SLP184 T01720150=
202108150953 METAR KSEA 150953Z 00000KT 10SM SCT200 19/15 A3007 RMK AO2 SLP185 T01890150=
202108150853 METAR KSEA 150853Z 00000KT 10SM SCT200 19/16 A3006 RMK AO2 SLP184 T01890156 53002=
202108150753 METAR KSEA 150753Z 20003KT 10SM SCT200 19/16 A3006 RMK AO2 SLP181 T01940156 402890161=
202108150653 METAR KSEA 150653Z 22003KT 10SM SCT200 21/16 A3005 RMK AO2 SLP180 T02060161=
202108150553 METAR KSEA 150553Z 24003KT 10SM SCT200 22/17 A3006 RMK AO2 SLP183 T02170167 10289 20211 57001=
202108150453 METAR KSEA 150453Z 23003KT 10SM SCT200 23/16 A3006 RMK AO2 SLP183 T02330161=
202108150353 METAR KSEA 150353Z 00000KT 10SM SCT200 25/16 A3006 RMK AO2 SLP182 T02500161=
202108150253 METAR KSEA 150253Z 20003KT 10SM SCT200 27/16 A3006 RMK AO2 SLP182 T02670161 58007=
202108150153 METAR KSEA 150153Z 18005KT 10SM SCT200 28/16 A3007 RMK AO2 SLP186 T02780161=
202108150053 METAR KSEA 150053Z 26003KT 10SM SCT200 28/16 A3008 RMK AO2 SLP189 T02780161=
202108142353 METAR KSEA 142353Z VRB03KT 10SM FEW130 SCT200 29/16 A3008 RMK AO2 SLP190 T02890156 10289 20206 55008=
202108142253 METAR KSEA 142253Z 28004KT 10SM FEW130 SCT200 28/16 A3008 RMK AO2 SLP189 T02830156=
202108142153 METAR KSEA 142153Z 27005KT 10SM FEW130 SCT200 27/16 A3009 RMK AO2 SLP194 T02670156=
202108142053 METAR KSEA 142053Z 26005KT 10SM FEW130 SCT200 26/15 A3011 RMK AO2 SLP198 T02610150 58007=
202108141953 METAR KSEA 141953Z 22006KT 10SM FEW011 SCT130 25/15 A3011 RMK AO2 SLP201 T02500150=
202108141853 METAR KSEA 141853Z 23004KT 10SM FEW011 SCT130 23/16 A3012 RMK AO2 SLP203 T02280156=
202108141753 METAR KSEA 141753Z 23003KT 10SM FEW011 SCT120 21/15 A3013 RMK AO2 SLP205 T02060150 10206 20161 58001=
202108141653 METAR KSEA 141653Z 23009KT 10SM FEW006 SCT011 19/15 A3014 RMK AO2 SLP209 T01890150=
202108141612 SPECI KSEA 141612Z 20008KT 10SM FEW006 SCT011 18/15 A3013 RMK AO2 T01830150=
202108141553 METAR KSEA 141553Z 23008KT 10SM SCT006 BKN010 18/15 A3013 RMK AO2 SLP207 T01830150=
202108141453 METAR KSEA 141453Z 21007KT 10SM BKN003 BKN010 17/15 A3013 RMK AO2 SLP206 T01670150 51014=
202108141423 SPECI KSEA 141423Z 20007KT 10SM BKN003 BKN010 16/15 A3013 RMK AO2 T01610150=
202108141400 SPECI KSEA 141400Z 19006KT 10SM FEW005 SCT010 16/15 A3013 RMK AO2 T01610150=
202108141353 METAR KSEA 141353Z 19007KT 10SM FEW010 16/15 A3013 RMK AO2 SLP205 T01610150=
202108141253 METAR KSEA 141253Z 20005KT 10SM FEW010 17/14 A3010 RMK AO2 SLP198 T01670144=
202108141153 METAR KSEA 141153Z 18004KT 10SM CLR 17/14 A3009 RMK AO2 SLP192 T01720144 10239 20167 53005=
202108141053 METAR KSEA 141053Z 17003KT 10SM CLR 17/14 A3008 RMK AO2 SLP189 T01720144=
202108140953 METAR KSEA 140953Z 20007KT 10SM CLR 18/15 A3008 RMK AO2 SLP189 T01830150=
202108140853 METAR KSEA 140853Z 20007KT 10SM CLR 19/15 A3007 RMK AO2 SLP187 T01890150 51011=
202108140753 METAR KSEA 140753Z 20006KT 10SM SCT040 20/15 A3007 RMK AO2 SLP185 FU SCT040 T02000150 403280200=
202108140653 METAR KSEA 140653Z 20008KT 8SM SCT040 22/16 A3005 RMK AO2 SLP178 FU SCT040 T02170161=
202108140553 METAR KSEA 140553Z 24004KT 5SM FU HZ BKN040 24/13 A3004 RMK AO2 SLP175 FU BKN040 T02390133 10328 20239 53016=
202108140453 METAR KSEA 140453Z 23003KT 6SM HZ FEW042 BKN200 25/13 A3002 RMK AO2 SLP170 FU FEW042 T02500133=
202108140353 METAR KSEA 140353Z 00000KT 6SM FU HZ FEW042 BKN200 28/15 A3001 RMK AO2 SLP163 FU FEW042 T02780150=
202108140253 METAR KSEA 140253Z 30003KT 6SM FU HZ FEW042 BKN200 29/14 A2999 RMK AO2 SLP159 FU FEW042 T02940139 55001=
202108140153 METAR KSEA 140153Z 30004KT 6SM FU HZ FEW042 BKN200 31/14 A2999 RMK AO2 SLP157 FU FEW042 T03060139=
202108140053 METAR KSEA 140053Z 28004KT 5SM FU HZ FEW042 BKN200 31/14 A2999 RMK AO2 SLP159 FU FEW042 T03110139=
202108132353 METAR KSEA 132353Z 27005KT 5SM FU HZ FEW042 BKN200 32/14 A3000 RMK AO2 SLP160 FU FEW042 T03170139 10328 20272 58008=
202108132253 METAR KSEA 132253Z 25005KT 5SM FU HZ FEW042 BKN200 32/14 A3000 RMK AO2 SLP162 FU FEW042 T03220139=
202108132153 METAR KSEA 132153Z 29005KT 6SM FU HZ FEW042 BKN200 32/14 A3002 RMK AO2 SLP166 FU FEW042 T03170139=
202108132053 METAR KSEA 132053Z 28005KT 6SM FU HZ FEW040 BKN200 29/14 A3002 RMK AO2 SLP168 FU FEW040 T02940139 58005=
202108131953 METAR KSEA 131953Z 28005KT 6SM FU HZ FEW041 SCT200 29/16 A3003 RMK AO2 SLP171 FU FEW041 T02890156=
202108131853 METAR KSEA 131853Z 29006KT 6SM FU HZ FEW200 29/16 A3003 RMK AO2 SLP172 T02890161=
202108131753 METAR KSEA 131753Z VRB03KT 6SM FU HZ CLR 28/16 A3003 RMK AO2 SLP173 T02780156 10278 20200 50001=
202108131653 METAR KSEA 131653Z 00000KT 6SM FU HZ CLR 25/16 A3004 RMK AO2 SLP173 T02500161=
202108131553 METAR KSEA 131553Z 00000KT 6SM FU HZ SCT250 23/16 A3003 RMK AO2 SLP172 T02330156=
202108131453 METAR KSEA 131453Z 21003KT 6SM FU HZ SCT250 22/16 A3003 RMK AO2 SLP172 T02170156 53013=
202108131353 METAR KSEA 131353Z 00000KT 7SM FEW040 SCT250 21/14 A3002 RMK AO2 SLP167 FU FEW040 T02060144=
202108131253 METAR KSEA 131253Z 17004KT 7SM FEW040 SCT250 20/14 A3000 RMK AO2 SLP162 FU FEW040 T02000139=
202108131153 METAR KSEA 131153Z 16005KT 7SM FEW040 SCT250 21/14 A2999 RMK AO2 SLP158 FU FEW040 T02110144 10278 20211 53005=
202108131053 METAR KSEA 131053Z 00000KT 9SM SCT040 SCT250 23/13 A2999 RMK AO2 SLP157 FU SCT040 SCT250 T02330133=
202108130953 METAR KSEA 130953Z 00000KT 8SM FEW250 22/14 A2998 RMK AO2 SLP154 FU T02220139=
202108130853 METAR KSEA 130853Z 00000KT 9SM FEW250 23/14 A2998 RMK AO2 SLP153 FU T02280139 53005=
202108130753 METAR KSEA 130753Z 05004KT 9SM SCT250 26/14 A2997 RMK AO2 SLP151 FU T02610139 403500206=
202108130653 METAR KSEA 130653Z 03005KT 9SM SCT250 27/13 A2997 RMK AO2 SLP150 FU T02720133=
202108130553 METAR KSEA 130553Z 36006KT 9SM FU SCT250 26/13 A2996 RMK AO2 SLP148 T02560128 10350 20256 51009=
202108130453 METAR KSEA 130453Z 36007KT 9SM SCT250 27/13 A2996 RMK AO2 SLP147 T02720133=
202108130353 METAR KSEA 130353Z 36008KT 8SM FEW035 SCT250 28/14 A2995 RMK AO2 SLP144 FU FEW035 T02830139=
202108130253 METAR KSEA 130253Z 33006KT 7SM FEW044 SCT250 31/14 A2993 RMK AO2 SLP138 FU FEW044 T03060144 56010=
202108130153 METAR KSEA 130153Z 29005KT 7SM FEW044 SCT250 32/15 A2993 RMK AO2 SLP139 FU FEW044 T03220150=
202108130053 METAR KSEA 130053Z 29008KT 9SM FEW044 SCT250 33/15 A2995 RMK AO2 SLP144 FU FEW044 T03330150=
202108122353 METAR KSEA 122353Z VRB06KT 9SM FEW044 SCT250 34/16 A2996 RMK AO2 SLP149 FU FEW044 T03390161 10339 20267 56012=
202108122253 METAR KSEA 122253Z 30006KT 9SM FEW044 SCT250 33/16 A2997 RMK AO2 SLP152 FU FEW044 T03330161=
202108122153 METAR KSEA 122153Z 01007KT 10SM SCT044 BKN250 33/17 A2999 RMK AO2 SLP156 FU SCT044 T03280167=
202108122053 METAR KSEA 122053Z 29008KT 10SM SCT045 BKN250 31/17 A3000 RMK AO2 SLP161 FU SCT045 T03060172 58012=
202108121953 METAR KSEA 121953Z 03006KT 10SM BKN044 OVC250 30/17 A3002 RMK AO2 SLP166 FU BKN044 T03000172=
202108121853 METAR KSEA 121853Z VRB04KT 10SM BKN045 OVC250 28/17 A3003 RMK AO2 SLP172 FU BKN045 T02830172=
202108121753 METAR KSEA 121753Z 35009KT 10SM FEW050 SCT250 26/17 A3004 RMK AO2 SLP174 T02610167 10267 20206 51007=
202108121653 METAR KSEA 121653Z 02008KT 10SM SCT250 24/16 A3003 RMK AO2 SLP173 T02440161=
202108121553 METAR KSEA 121553Z 02009KT 10SM FEW120 SCT250 23/16 A3003 RMK AO2 SLP171 T02330161=
202108121453 METAR KSEA 121453Z 02007KT 10SM FEW120 SCT250 22/16 A3001 RMK AO2 SLP167 T02170161 53015=
202108121353 METAR KSEA 121353Z 02008KT 10SM SCT250 21/16 A2999 RMK AO2 SLP159 T02110156=
202108121253 METAR KSEA 121253Z 01008KT 10SM SCT250 21/16 A2998 RMK AO2 SLP155 T02060156=
202108121153 METAR KSEA 121153Z 36009KT 10SM CLR 21/15 A2997 RMK AO2 SLP150 T02110150 10244 20206 53001=
202108121053 METAR KSEA 121053Z 01008KT 10SM CLR 22/14 A2996 RMK AO2 SLP148 T02170144=
202108120953 METAR KSEA 120953Z 01006KT 10SM CLR 22/14 A2996 RMK AO2 SLP148 T02170144=
202108120853 METAR KSEA 120853Z 02008KT 10SM CLR 23/14 A2997 RMK AO2 SLP149 T02330144 57000=
202108120753 METAR KSEA 120753Z 36007KT 10SM CLR 24/15 A2996 RMK AO2 SLP148 T02390150 403280172=
202108120653 METAR KSEA 120653Z 02009KT 10SM CLR 24/14 A2997 RMK AO2 SLP150 T02390144=
202108120553 METAR KSEA 120553Z 36009KT 10SM CLR 23/14 A2997 RMK AO2 SLP149 T02330144 10317 20233 50006=
202108120453 METAR KSEA 120453Z 36006KT 10SM FEW250 25/14 A2997 RMK AO2 SLP151 T02500144=
202108120353 METAR KSEA 120353Z 32007KT 10SM SCT250 26/14 A2996 RMK AO2 SLP148 T02610139=
202108120253 METAR KSEA 120253Z 36011KT 10SM SCT250 28/14 A2995 RMK AO2 PK WND 36027/0156 SLP145 T02830139 56008=
202108120153 METAR KSEA 120153Z 35017KT 10SM SCT250 30/13 A2995 RMK AO2 SLP146 T03000133=
202108120053 METAR KSEA 120053Z 01017G23KT 10SM SCT250 31/13 A2996 RMK AO2 SLP150 T03110133=
202108112353 METAR KSEA 112353Z 35018KT 10SM SCT250 32/13 A2997 RMK AO2 PK WND 01028/2328 SLP152 T03170133 10328 20272 58022=
202108112253 METAR KSEA 112253Z 36016G27KT 10SM SCT250 32/13 A2999 RMK AO2 PK WND 34029/2235 SLP159 T03220133=
202108112153 METAR KSEA 112153Z 34018G29KT 10SM SCT250 32/14 A3002 RMK AO2 PK WND 35031/2059 SLP167 T03170139=
202108112053 METAR KSEA 112053Z 34019G25KT 10SM SCT250 32/14 A3004 RMK AO2 PK WND 01028/2042 SLP174 T03170139 58010=
202108111953 METAR KSEA 111953Z 36018G26KT 10SM SCT250 32/14 A3005 RMK AO2 PK WND 35026/1951 SLP178 T03170144=
202108111853 METAR KSEA 111853Z 36014KT 10SM SCT250 29/15 A3006 RMK AO2 SLP182 T02940150=
202108111753 METAR KSEA 111753Z 36014KT 10SM SCT250 28/15 A3007 RMK AO2 SLP184 T02780150 10278 20172 56004=
202108111653 METAR KSEA 111653Z 00000KT 10SM FEW250 23/14 A3007 RMK AO2 SLP186 T02280144=
202108111553 METAR KSEA 111553Z 03006KT 10SM FEW250 24/14 A3007 RMK AO2 SLP187 T02390144=
202108111453 METAR KSEA 111453Z 29003KT 10SM FEW250 20/14 A3008 RMK AO2 SLP189 T02000139 53004=
202108111353 METAR KSEA 111353Z 00000KT 10SM SCT250 18/13 A3007 RMK AO2 SLP187 T01830133=
202108111253 METAR KSEA 111253Z 06003KT 10SM BKN250 18/13 A3006 RMK AO2 SLP184 T01830133=
202108111153 METAR KSEA 111153Z 01004KT 10SM SCT250 18/13 A3007 RMK AO2 SLP185 T01780128 10239 20172 56002=
202108111053 METAR KSEA 111053Z 32003KT 10SM SCT250 17/13 A3007 RMK AO2 SLP187 T01720128=
202108110953 METAR KSEA 110953Z 28003KT 10SM SCT250 19/13 A3007 RMK AO2 SLP186 T01940133=
202108110853 METAR KSEA 110853Z 02005KT 10SM SCT250 21/13 A3007 RMK AO2 SLP187 T02060133 56004=
202108110753 METAR KSEA 110753Z 02006KT 10SM CLR 22/13 A3008 RMK AO2 SLP188 T02170128 402940167=
202108110653 METAR KSEA 110653Z 01006KT 10SM CLR 23/12 A3008 RMK AO2 SLP190 T02280122=
202108110553 METAR KSEA 110553Z 01005KT 10SM CLR 24/13 A3009 RMK AO2 SLP192 T02390128 10289 20239 51008=
202108110453 METAR KSEA 110453Z 03009KT 10SM SCT250 25/12 A3009 RMK AO2 SLP192 T02500122=
202108110353 METAR KSEA 110353Z 02009KT 10SM SCT250 26/12 A3008 RMK AO2 SLP188 T02560117=
202108110253 METAR KSEA 110253Z 02015KT 10SM SCT250 27/11 A3006 RMK AO2 SLP184 T02670111 56007=
202108110153 METAR KSEA 110153Z 02013KT 10SM SCT250 28/11 A3007 RMK AO2 SLP186 T02780106=
202108110053 METAR KSEA 110053Z 01009KT 10SM SCT250 28/09 A3007 RMK AO2 SLP187 T02830089=
202108102353 METAR KSEA 102353Z 01009G18KT 10SM SCT250 28/09 A3008 RMK AO2 SLP191 T02830089 10294 20233 58010=
202108102253 METAR KSEA 102253Z 35014G24KT 10SM SCT250 28/06 A3010 RMK AO2 SLP197 T02830061=
202108102153 METAR KSEA 102153Z 35014G24KT 10SM SCT250 29/07 A3011 RMK AO2 SLP199 T02890067=
202108102053 METAR KSEA 102053Z 30009KT 10SM SCT250 27/12 A3011 RMK AO2 SLP201 T02720122 58005=
202108101953 METAR KSEA 101953Z 35008KT 10SM SCT250 27/13 A3012 RMK AO2 SLP204 T02720128=
202108101853 METAR KSEA 101853Z 35006KT 10SM SCT250 26/13 A3013 RMK AO2 SLP207 T02560128=
202108101753 METAR KSEA 101753Z 35009KT 10SM BKN250 24/13 A3013 RMK AO2 SLP207 T02390128 10239 20167 51002=
202108101653 METAR KSEA 101653Z 28004KT 10SM BKN250 21/13 A3013 RMK AO2 SLP207 T02110133=
202108101553 METAR KSEA 101553Z 01008KT 10SM FEW200 BKN250 21/12 A3013 RMK AO2 SLP207 T02060122=
202108101453 METAR KSEA 101453Z 02008KT 10SM SCT200 BKN250 19/12 A3012 RMK AO2 SLP205 T01890122 53008=
202108101353 METAR KSEA 101353Z 36004KT 10SM SCT200 BKN250 17/12 A3011 RMK AO2 SLP201 T01670122=
202108101253 METAR KSEA 101253Z 03008KT 10SM SCT200 OVC250 17/12 A3010 RMK AO2 SLP198 T01720122 $=
202108101153 METAR KSEA 101153Z 03008KT 10SM BKN250 18/12 A3010 RMK AO2 SLP197 T01780122 10194 20172 53000 $=
202108101053 METAR KSEA 101053Z 03006KT 10SM SCT250 18/12 A3010 RMK AO2 SLP195 T01830122 $=
202108100953 METAR KSEA 100953Z 05004KT 10SM SCT250 18/13 A3010 RMK AO2 SLP195 T01830128 $=
202108100853 METAR KSEA 100853Z 01006KT 10SM CLR 18/12 A3010 RMK AO2 SLP196 T01780122 50001=
202108100753 METAR KSEA 100753Z 01005KT 10SM SCT250 18/13 A3010 RMK AO2 SLP198 T01830128 402610128=
202108100653 METAR KSEA 100653Z 02005KT 10SM SCT250 19/12 A3010 RMK AO2 SLP196 T01890122=
202108100553 METAR KSEA 100553Z 35007KT 10SM FEW250 18/12 A3009 RMK AO2 SLP195 T01830117 10256 20183 51004=
202108100453 METAR KSEA 100453Z 34005KT 10SM SCT250 20/11 A3009 RMK AO2 SLP195 T02000111=
202108100353 METAR KSEA 100353Z 35007KT 10SM FEW050 BKN250 21/11 A3008 RMK AO2 SLP192 T02060111=
202108100253 METAR KSEA 100253Z 35008KT 10SM FEW050 BKN250 22/11 A3008 RMK AO2 SLP191 T02220111 58002=
202108100153 METAR KSEA 100153Z 35008KT 10SM FEW050 BKN250 23/11 A3008 RMK AO2 SLP192 T02330111=
202108100053 METAR KSEA 100053Z 35014G19KT 10SM FEW050 BKN250 25/11 A3009 RMK AO2 SLP193 T02500111=
202108092353 METAR KSEA 092353Z 33011KT 10SM FEW040 BKN250 24/10 A3009 RMK AO2 SLP193 T02440100 10261 20178 56006=
202108092253 METAR KSEA 092253Z 33013KT 10SM FEW040 SCT250 26/11 A3009 RMK AO2 SLP194 T02560111=
202108092153 METAR KSEA 092153Z 30010KT 10SM FEW040 SCT250 24/12 A3010 RMK AO2 SLP196 T02440122=
202108092053 METAR KSEA 092053Z 30007G15KT 10SM FEW030 SCT200 23/13 A3011 RMK AO2 SLP199 T02280128 56013=
202108091953 METAR KSEA 091953Z 28006KT 10SM FEW030 SCT200 21/13 A3011 RMK AO2 SLP201 T02110128=
202108091853 METAR KSEA 091853Z 29007KT 10SM FEW020 SCT200 19/13 A3014 RMK AO2 SLP210 T01940128=
202108091753 METAR KSEA 091753Z 30004KT 10SM SCT015 BKN200 18/13 A3015 RMK AO2 SLP214 T01780128 10178 20133 51000=
202108091747 SPECI KSEA 091747Z 30004KT 10SM SCT015 BKN200 18/13 A3015 RMK AO2=
202108091718 SPECI KSEA 091718Z 25004KT 10SM BKN015 16/13 A3015 RMK AO2 T01610128=
202108091653 METAR KSEA 091653Z 27007KT 10SM BKN014 16/12 A3015 RMK AO2 SLP214 T01560122=
202108091553 METAR KSEA 091553Z 26003KT 10SM BKN010 16/13 A3015 RMK AO2 SLP213 T01560128=
202108091523 SPECI KSEA 091523Z 00000KT 10SM OVC010 15/12 A3015 RMK AO2 T01500122=
202108091453 METAR KSEA 091453Z 00000KT 10SM OVC009 14/12 A3015 RMK AO2 SLP214 T01440122 50003=
202108091423 SPECI KSEA 091423Z 00000KT 10SM FEW004 BKN009 14/12 A3015 RMK AO2 T01390122=
202108091353 METAR KSEA 091353Z 30003KT 10SM BKN010 13/12 A3015 RMK AO2 SLP214 T01330122=
202108091320 SPECI KSEA 091320Z 29003KT 10SM BKN011 BKN250 13/12 A3014 RMK AO2 T01330122=
202108091253 METAR KSEA 091253Z 00000KT 10SM SCT012 SCT250 14/12 A3014 RMK AO2 SLP212 T01390122 $=
202108091246 SPECI KSEA 091246Z 00000KT 10SM SCT012 14/12 A3014 RMK AO2 T01390122 $=
202108091153 METAR KSEA 091153Z 28003KT 10SM OVC012 14/12 A3014 RMK AO2 SLP210 CIG 010V014 T01390122 10167 20128 53002 $=
202108091117 SPECI KSEA 091117Z 00000KT 10SM BKN010 BKN014 13/12 A3014 RMK AO2 T01330122 $=
202108091053 METAR KSEA 091053Z 28003KT 10SM SCT015 13/12 A3014 RMK AO2 SLP210 T01330117 $=
202108090953 METAR KSEA 090953Z 00000KT 10SM CLR 14/12 A3013 RMK AO2 SLP208 T01390122 $=
202108090853 METAR KSEA 090853Z 24004KT 10SM CLR 14/12 A3013 RMK AO2 SLP209 T01440122 50003 $=
202108090753 METAR KSEA 090753Z 22004KT 10SM SCT250 15/12 A3014 RMK AO2 SLP210 T01500122 402330128 $=
202108090653 METAR KSEA 090653Z 20005KT 10SM FEW060 16/12 A3014 RMK AO2 SLP210 T01560122 $=
202108090553 METAR KSEA 090553Z 20006KT 10SM FEW060 17/12 A3012 RMK AO2 SLP206 T01670122 10233 20167 51014 $=
202108090453 METAR KSEA 090453Z 22005KT 10SM SCT060 SCT250 18/12 A3011 RMK AO2 SLP202 T01780117 $=
202108090353 METAR KSEA 090353Z 24007KT 10SM SCT060 SCT250 19/12 A3010 RMK AO2 SLP196 T01890117 $=
202108090253 METAR KSEA 090253Z 21006KT 10SM SCT060 21/11 A3008 RMK AO2 SLP192 T02110106 55001 $=
202108090153 METAR KSEA 090153Z 20007KT 10SM BKN060 22/09 A3007 RMK AO2 SLP189 T02170094 $=
202108090053 METAR KSEA 090053Z 24008G14KT 200V270 10SM SCT060 23/09 A3008 RMK AO2 SLP189 T02330094 $=
202108082353 METAR KSEA 082353Z 25006KT 10SM BKN055 23/09 A3009 RMK AO2 SLP192 T02280089 10233 20172 50001 $=
202108082253 METAR KSEA 082253Z 25008KT 10SM SCT045 BKN065 23/09 A3009 RMK AO2 SLP193 T02330089 $=
202108082153 METAR KSEA 082153Z 20008KT 130V240 10SM SCT042 SCT060 22/09 A3008 RMK AO2 SLP191 T02220094 $=
202108082053 METAR KSEA 082053Z 20009G16KT 10SM SCT035 22/09 A3008 RMK AO2 SLP191 T02170094 51007 $=
202108081953 METAR KSEA 081953Z 25010G15KT 10SM FEW026 SCT040 21/10 A3008 RMK AO2 SLP190 T02060100 $=
202108081853 METAR KSEA 081853Z 22009KT 10SM SCT026 19/11 A3007 RMK AO2 SLP188 T01890106 $=
202108081753 METAR KSEA 081753Z 21009KT 10SM SCT019 SCT060 17/11 A3006 RMK AO2 SLP185 T01720111 10178 20128 53009 $=
202108081653 METAR KSEA 081653Z 21008KT 10SM SCT014 BKN060 BKN110 16/12 A3005 RMK AO2 SLP180 T01610117 $=
202108081631 SPECI KSEA 081631Z 19007KT 170V230 10SM SCT014 SCT060 BKN110 16/12 A3004 RMK AO2 T01560117 $=
202108081553 METAR KSEA 081553Z 22007KT 10SM BKN013 BKN060 14/12 A3004 RMK AO2 SLP178 T01440117 $=
202108081453 METAR KSEA 081453Z 18005KT 10SM BKN011 OVC018 13/11 A3003 RMK AO2 SLP175 T01330111 53018 $=
202108081353 METAR KSEA 081353Z 17004KT 10SM BKN011 OVC017 13/11 A3002 RMK AO2 SLP170 T01280111 $=
202108081336 SPECI KSEA 081336Z 18006KT 10SM BKN012 BKN017 BKN090 13/11 A3001 RMK AO2 T01280106 $=
202108081253 METAR KSEA 081253Z 16009KT 10SM FEW010 SCT040 BKN080 13/11 A2999 RMK AO2 SLP159 T01280106 $=
202108081153 METAR KSEA 081153Z 15009KT 10SM BKN060 OVC080 13/11 A2998 RMK AO2 DZB1055E36 SLP156 P0000 60000 T01330111 10161 20133 53006 $=
202108081109 SPECI KSEA 081109Z 16005KT 9SM -DZ BKN040 OVC048 13/11 A2998 RMK AO2 DZB1055 P0000 T01330111 $=
202108081056 SPECI KSEA 081056Z 14005KT 7SM -DZ SCT020 BKN029 OVC040 14/10 A2997 RMK AO2 DZB55 P0000 T01440100 $=
202108081053 METAR KSEA 081053Z 12005KT 6SM HZ SCT020 BKN029 OVC040 14/10 A2998 RMK AO2 RAB42E53 SLP155 P0000 T01440100 $=
202108080953 METAR KSEA 080953Z 11007KT 10SM BKN022 OVC080 14/10 A2996 RMK AO2 SLP150 T01440100 $=
202108080853 METAR KSEA 080853Z 16005KT 10SM FEW019 BKN050 BKN060 14/10 A2995 RMK AO2 RAB05E25 SLP146 P0000 60000 T01440100 53010 $=
202108080839 SPECI KSEA 080839Z 17008KT 10SM FEW020 SCT038 BKN055 14/10 A2994 RMK AO2 RAB05E25 P0000 T01440100 $=
202108080753 METAR KSEA 080753Z 18009KT 10SM BKN024 BKN030 BKN044 15/11 A2993 RMK AO2 SLP139 T01500106 402390144 $=
202108080653 METAR KSEA 080653Z 21010KT 10SM SCT028 BKN040 15/10 A2992 RMK AO2 SLP136 T01500100 $=
202108080553 METAR KSEA 080553Z 21010KT 10SM BKN028 15/11 A2992 RMK AO2 SLP138 T01500106 10239 20150 53017 $=
202108080537 SPECI KSEA 080537Z 21010G16KT 10SM BKN028 BKN048 16/11 A2992 RMK AO2 T01560111 $=
202108080453 METAR KSEA 080453Z 21006KT 10SM SCT022 16/13 A2991 RMK AO2 SLP133 T01610128 $=
202108080419 SPECI KSEA 080419Z 22008KT 10SM BKN022 17/13 A2989 RMK AO2 T01670133 $=
202108080353 METAR KSEA 080353Z 22009KT 10SM FEW029 SCT060 SCT180 17/13 A2988 RMK AO2 SLP123 T01720133 $=
202108080253 METAR KSEA 080253Z 23004KT 10SM FEW029 BKN060 BKN180 19/14 A2987 RMK AO2 SLP120 T01890144 55002 $=
202108080153 METAR KSEA 080153Z 22010G18KT 10SM SCT038 SCT060 BKN180 21/15 A2985 RMK AO2 SLP114 T02110150 $=
202108080053 METAR KSEA 080053Z 23010KT 10SM FEW038 SCT060 SCT140 23/14 A2987 RMK AO2 SLP118 T02280144 $=
202108072353 METAR KSEA 072353Z 21013G21KT 10SM FEW028 SCT060 BKN160 22/16 A2988 RMK AO2 SLP122 T02220156 10239 20189 58012 $=
202108072253 METAR KSEA 072253Z 23014G21KT 10SM FEW030 BKN065 BKN120 22/16 A2989 RMK AO2 PK WND 22027/2228 SLP126 T02170161 $=
202108072153 METAR KSEA 072153Z 22013G24KT 10SM SCT031 BKN075 22/16 A2990 RMK AO2 SLP130 T02220156 $=
202108072053 METAR KSEA 072053Z 23014G24KT 10SM FEW026 BKN080 BKN130 22/15 A2991 RMK AO2 PK WND 21026/2029 SLP134 T02220150 56009 $=
202108071953 METAR KSEA 071953Z 23012KT 10SM SCT020 BKN050 BKN120 21/15 A2992 RMK AO2 SLP136 T02110150 $=
202108071853 METAR KSEA 071853Z 19012KT 10SM OVC018 21/14 A2993 RMK AO2 SLP138 T02110144 $=
202108071753 METAR KSEA 071753Z 19013G19KT 10SM OVC015 19/14 A2994 RMK AO2 SLP143 T01890144 10194 20167 58007 $=
202108071653 METAR KSEA 071653Z 16011KT 10SM OVC015 17/13 A2995 RMK AO2 SLP146 T01720133 $=
202108071553 METAR KSEA 071553Z 14013KT 10SM OVC020 17/12 A2996 RMK AO2 SLP149 T01720122 $=
202108071453 METAR KSEA 071453Z 17006KT 10SM OVC021 17/12 A2996 RMK AO2 SLP150 T01720122 56005 $=
202108071353 METAR KSEA 071353Z 19006KT 10SM OVC022 17/12 A2996 RMK AO2 SLP151 T01720122 $=
202108071253 METAR KSEA 071253Z 16007KT 10SM SCT031 BKN040 OVC049 17/12 A2996 RMK AO2 SLP150 T01670117 $=
202108071228 SPECI KSEA 071228Z 20008KT 10SM FEW025 OVC033 17/12 A2997 RMK AO2 T01670117 $=
202108071153 METAR KSEA 071153Z 21007KT 10SM OVC028 17/12 A2998 RMK AO2 SLP156 70001 T01670122 10178 20167 56014 $=
202108071128 SPECI KSEA 071128Z 20008KT 10SM BKN028 OVC035 17/12 A2998 RMK AO2 T01670122 $=
202108071053 METAR KSEA 071053Z 20011KT 10SM FEW030 BKN035 OVC060 17/12 A2999 RMK AO2 SLP159 T01670122 $=
202108070953 METAR KSEA 070953Z 19009KT 10SM OVC050 17/11 A3000 RMK AO2 SLP164 T01670111 $=
202108070853 METAR KSEA 070853Z 21007KT 10SM OVC080 17/11 A3002 RMK AO2 SLP169 T01670111 56010 $=
202108070753 METAR KSEA 070753Z 20008KT 10SM BKN075 OVC095 17/11 A3003 RMK AO2 SLP173 T01670111 402500167 $=
202108070653 METAR KSEA 070653Z 21008KT 10SM BKN065 BKN100 17/10 A3004 RMK AO2 SLP176 T01720100 $=
202108070553 METAR KSEA 070553Z 26007KT 10SM SCT065 BKN075 BKN100 OVC250 17/11 A3005 RMK AO2 SLP179 T01720106 10244 20172 51005 $=
202108070453 METAR KSEA 070453Z 25004KT 10SM BKN075 BKN250 18/11 A3005 RMK AO2 SLP179 T01780106 $=
202108070353 METAR KSEA 070353Z 26004KT 10SM FEW070 BKN090 BKN250 18/11 A3004 RMK AO2 SLP178 T01830111 $=
202108070253 METAR KSEA 070253Z 25006KT 10SM FEW035 SCT075 BKN250 21/11 A3003 RMK AO2 SLP174 T02060106 55002 $=
202108070153 METAR KSEA 070153Z 25014G21KT 10SM FEW038 SCT080 SCT250 23/06 A3003 RMK AO2 SLP174 T02280056 $=
202108070053 METAR KSEA 070053Z 24009KT 10SM FEW038 SCT250 23/09 A3003 RMK AO2 SLP174 T02330089 $=
202108062353 METAR KSEA 062353Z 23009KT 10SM FEW038 SCT250 24/10 A3004 RMK AO2 SLP176 T02440100 10250 20194 58004 $=
202108062253 METAR KSEA 062253Z 24010KT 10SM SCT036 SCT250 24/13 A3005 RMK AO2 SLP180 T02390128 $=
202108062153 METAR KSEA 062153Z 25011KT 10SM SCT035 SCT250 25/14 A3006 RMK AO2 SLP181 T02500144 $=
202108062053 METAR KSEA 062053Z 22011KT 10SM SCT033 BKN220 25/16 A3005 RMK AO2 SLP181 T02500156 51001 $=
202108062032 SPECI KSEA 062032Z 23011KT 10SM BKN033 25/16 A3005 RMK AO2 T02500161 $=
202108061953 METAR KSEA 061953Z 23011KT 10SM BKN029 23/16 A3005 RMK AO2 SLP180 T02280156=
202108061853 METAR KSEA 061853Z 21013KT 10SM BKN022 22/17 A3005 RMK AO2 SLP180 T02170172=
202108061803 SPECI KSEA 061803Z 22012KT 10SM OVC016 20/17 A3005 RMK AO2 T02000167=
202108061753 METAR KSEA 061753Z 23010KT 10SM OVC014 19/17 A3005 RMK AO2 SLP180 60001 T01940167 10194 20172 52003=
202108061712 SPECI KSEA 061712Z 22007KT 10SM FEW005 OVC011 18/17 A3005 RMK AO2 T01830167=
202108061653 METAR KSEA 061653Z 22008KT 4SM BR SCT004 OVC009 18/17 A3005 RMK AO2 DZE50 SLP178 P0001 T01830172=
202108061633 SPECI KSEA 061633Z 21009KT 2SM -DZ BR BKN005 OVC009 18/18 A3004 RMK AO2 P0001 T01780178=
202108061553 METAR KSEA 061553Z 22011G16KT 2SM R16L/4500V5500FT -DZ BR OVC003 17/17 A3005 RMK AO2 SLP179 P0000 T01720172=
202108061502 SPECI KSEA 061502Z 22007KT 2SM R16L/4500VP6000FT -DZ BR OVC004 17/17 A3004 RMK AO2 P0000 T01720167=
202108061453 METAR KSEA 061453Z 21007KT 2SM R16L/5500VP6000FT -DZ BR OVC006 17/17 A3004 RMK AO2 DZB00 SLP177 P0000 60000 T01720167 53006=
202108061446 SPECI KSEA 061446Z 22007KT 2SM R16L/5000VP6000FT -DZ BR OVC006 17/17 A3004 RMK AO2 DZB00 P0000 T01720167=
202108061353 METAR KSEA 061353Z 22007KT 9SM OVC008 18/17 A3003 RMK AO2 DZE26 SLP173 P0000 T01780167=
202108061253 METAR KSEA 061253Z 21009KT 9SM -DZ OVC009 18/16 A3002 RMK AO2 DZB45 SLP170 P0000 T01780161=
202108061245 SPECI KSEA 061245Z 21009KT 9SM -DZ OVC009 18/17 A3002 RMK AO2 DZB45 P0000 T01780167=
202108061153 METAR KSEA 061153Z 22008KT 10SM OVC010 18/17 A3002 RMK AO2 SLP170 60007 70007 T01780167 10189 20172 52001=
202108061053 METAR KSEA 061053Z 22010KT 10SM OVC010 18/16 A3002 RMK AO2 SLP169 T01780161=
202108061002 SPECI KSEA 061002Z 21008KT 10SM OVC010 18/17 A3002 RMK AO2 T01780167=
202108060953 METAR KSEA 060953Z 20010KT 10SM OVC009 18/17 A3002 RMK AO2 DZE28 SLP169 P0001 T01780167=
202108060853 METAR KSEA 060853Z 20006KT 3SM -DZ BR BKN006 OVC011 17/17 A3002 RMK AO2 SLP168 P0002 60006 T01720172 58003=
202108060826 SPECI KSEA 060826Z 19005KT 3SM -DZ BR BKN005 OVC010 17/17 A3002 RMK AO2 P0002 T01720172=
202108060806 SPECI KSEA 060806Z 18006KT 1 3/4SM -DZ BR OVC005 17/17 A3002 RMK AO2 P0001 T01720172=
202108060753 METAR KSEA 060753Z 17006KT 2SM -DZ BR BKN005 OVC011 17/17 A3002 RMK AO2 SFC VIS 2 1/2 RAE09DZB09 SLP170 P0003 T01720172 402830156=
202108060745 SPECI KSEA 060745Z 17006KT 2SM -DZ BR BKN006 OVC011 17/17 A3002 RMK AO2 SFC VIS 2 1/2 RAE09DZB09 P0002 T01720172=
202108060713 SPECI KSEA 060713Z 20005KT 3SM -DZ BR BKN007 OVC012 18/17 A3002 RMK AO2 RAE09DZB09 P0001 T01780172=
202108060653 METAR KSEA 060653Z 17005KT 4SM -RA BR FEW005 BKN013 OVC018 18/17 A3003 RMK AO2 RAB15 SLP172 P0001 T01780172=
202108060650 SPECI KSEA 060650Z 17005KT 4SM -RA BR FEW005 BKN013 OVC018 18/17 A3003 RMK AO2 RAB15 P0001=
202108060627 SPECI KSEA 060627Z 19008KT 4SM -RA BR OVC016 18/17 A3003 RMK AO2 RAB15 P0000 T01780167=
202108060553 METAR KSEA 060553Z 22009KT 10SM OVC014 19/16 A3003 RMK AO2 SLP172 T01890156 10283 20189 50015=
202108060453 METAR KSEA 060453Z 22011G19KT 10SM OVC014 19/16 A3003 RMK AO2 SLP173 T01890156=
202108060426 SPECI KSEA 060426Z 22010G18KT 10SM OVC014 19/16 A3002 RMK AO2 T01940156=
202108060404 SPECI KSEA 060404Z 23010G23KT 10SM FEW014 BKN024 BKN200 19/16 A3002 RMK AO2 T01940156=
202108060353 METAR KSEA 060353Z 24014G26KT 10SM SCT040 SCT095 BKN250 19/16 A3001 RMK AO2 PK WND 25027/0319 SLP167 T01890156=
202108060253 METAR KSEA 060253Z 25015G22KT 10SM FEW040 SCT100 SCT250 21/16 A2998 RMK AO2 SLP157 T02060156 53010=
202108060153 METAR KSEA 060153Z 22012KT 10SM FEW040 SCT100 SCT250 24/16 A2996 RMK AO2 SLP150 T02440161=
202108060053 METAR KSEA 060053Z 22011KT 10SM FEW040 SCT090 BKN250 27/16 A2995 RMK AO2 SLP147 T02720161=
202108052353 METAR KSEA 052353Z 22011KT 10SM FEW040 SCT130 SCT160 BKN250 28/14 A2995 RMK AO2 SLP146 FU SCT130 T02780144 10278 20217 58003=
202108052253 METAR KSEA 052253Z 23007KT 10SM FEW040 FEW090 SCT120 BKN250 27/13 A2996 RMK AO2 SLP147 FU SCT120 T02720128=
202108052153 METAR KSEA 052153Z VRB05KT 10SM FEW040 FEW090 SCT120 BKN220 26/14 A2996 RMK AO2 SLP148 FU SCT120 T02610139=
202108052053 METAR KSEA 052053Z 19007KT 10SM FEW040 SCT130 BKN220 26/14 A2996 RMK AO2 SLP149 FU SCT130 T02560144 55002=
202108051953 METAR KSEA 051953Z 20007KT 10SM FEW030 SCT080 BKN210 24/15 A2996 RMK AO2 SLP147 FU SCT080 T02440150=
202108051853 METAR KSEA 051853Z VRB06KT 10SM FEW030 SCT080 BKN210 23/15 A2996 RMK AO2 SLP148 FU SCT080 T02330150=
202108051753 METAR KSEA 051753Z 19005KT 10SM SCT080 BKN210 22/14 A2997 RMK AO2 SLP150 T02170144 10217 20156 52001=
202108051653 METAR KSEA 051653Z 26006KT 10SM SCT100 BKN220 21/14 A2996 RMK AO2 SLP149 FU SCT100 T02060144=
202108051553 METAR KSEA 051553Z 24003KT 10SM SCT120 BKN250 19/15 A2997 RMK AO2 SLP150 T01890150=
202108051453 METAR KSEA 051453Z 17004KT 10SM SCT130 BKN250 17/14 A2996 RMK AO2 SLP149 T01720144 50007=
202108051353 METAR KSEA 051353Z 00000KT 10SM SCT130 BKN250 16/14 A2996 RMK AO2 SLP150 T01560139=
202108051253 METAR KSEA 051253Z 00000KT 10SM BKN250 16/14 A2995 RMK AO2 SLP145 T01610139=
202108051153 METAR KSEA 051153Z 36003KT 10SM BKN250 18/14 A2994 RMK AO2 SLP142 T01780139 10228 20178 53004=
202108051053 METAR KSEA 051053Z 01007KT 10SM SCT250 19/14 A2993 RMK AO2 SLP139 T01890144=
202108050953 METAR KSEA 050953Z 36005KT 10SM CLR 18/14 A2993 RMK AO2 SLP139 T01830144=
202108050853 METAR KSEA 050853Z 34005KT 10SM CLR 19/14 A2993 RMK AO2 SLP138 T01890144 50001=
202108050753 METAR KSEA 050753Z 01005KT 10SM CLR 21/14 A2993 RMK AO2 SLP139 T02060144 403110144=
202108050653 METAR KSEA 050653Z 04010KT 10SM CLR 22/14 A2993 RMK AO2 SLP137 T02220144=
202108050553 METAR KSEA 050553Z 04011KT 10SM CLR 23/14 A2993 RMK AO2 SLP137 T02280144 10311 20228 50002=
202108050453 METAR KSEA 050453Z 03012KT 10SM FEW250 24/14 A2993 RMK AO2 SLP139 T02390139=
202108050353 METAR KSEA 050353Z 01012KT 10SM FEW250 24/13 A2992 RMK AO2 SLP136 T02440133=
202108050253 METAR KSEA 050253Z 36007KT 10SM FEW250 27/11 A2992 RMK AO2 SLP134 T02720111 56007=
202108050153 METAR KSEA 050153Z 35012KT 10SM FEW050 29/10 A2992 RMK AO2 SLP136 T02890100=
202108050053 METAR KSEA 050053Z 36011KT 10SM FEW050 30/11 A2993 RMK AO2 SLP139 T03000106=
202108042353 METAR KSEA 042353Z 30010KT 10SM FEW250 30/13 A2994 RMK AO2 SLP142 T03000128 10306 20228 56018=
202108042253 METAR KSEA 042253Z 35009KT 10SM FEW250 30/13 A2996 RMK AO2 SLP149 T03000128=
202108042153 METAR KSEA 042153Z 35009G16KT 10SM CLR 30/13 A2997 RMK AO2 SLP151 T03000133=
202108042053 METAR KSEA 042053Z 36007G14KT 320V040 10SM CLR 29/13 A3000 RMK AO2 SLP160 T02940128 58010=
202108041953 METAR KSEA 041953Z 31006KT 10SM CLR 28/14 A3001 RMK AO2 SLP164 T02780139=
202108041853 METAR KSEA 041853Z 28006KT 10SM CLR 25/16 A3002 RMK AO2 SLP168 T02500156=
202108041753 METAR KSEA 041753Z 28006KT 10SM CLR 23/15 A3002 RMK AO2 SLP170 T02280150 10233 20144 58005=
202108041653 METAR KSEA 041653Z 29004KT 10SM CLR 21/14 A3004 RMK AO2 SLP174 T02060144 $=
202108041553 METAR KSEA 041553Z 31003KT 10SM CLR 20/14 A3004 RMK AO2 SLP178 T02000144=
202108041453 METAR KSEA 041453Z 29003KT 10SM CLR 17/14 A3004 RMK AO2 SLP177 T01720139 53000=
202108041353 METAR KSEA 041353Z 00000KT 10SM CLR 16/13 A3004 RMK AO2 SLP177 T01610133=
202108041253 METAR KSEA 041253Z 00000KT 10SM FEW220 14/13 A3004 RMK AO2 SLP176 T01440128 $=
202108041153 METAR KSEA 041153Z 00000KT 10SM SCT250 16/13 A3004 RMK AO2 SLP176 T01560128 10206 20150 50000 $=
202108041053 METAR KSEA 041053Z 00000KT 10SM SCT250 16/13 A3004 RMK AO2 SLP176 T01560128 $=
202108040953 METAR KSEA 040953Z 00000KT 10SM SCT250 16/13 A3004 RMK AO2 SLP176 T01610128 $=
202108040853 METAR KSEA 040853Z 00000KT 10SM FEW250 18/13 A3004 RMK AO2 SLP175 T01780133 55000 $=
202108040753 METAR KSEA 040753Z 29003KT 10SM FEW250 18/13 A3003 RMK AO2 SLP175 T01830133 402780122 $=
202108040653 METAR KSEA 040653Z 01004KT 10SM FEW200 19/13 A3004 RMK AO2 SLP176 T01940128 $=
202108040553 METAR KSEA 040553Z 36006KT 10SM FEW150 SCT200 20/14 A3004 RMK AO2 SLP176 T02000139 10267 20200 53004 $=
202108040453 METAR KSEA 040453Z 01006KT 10SM FEW150 SCT200 22/12 A3003 RMK AO2 SLP174 T02220122 $=
202108040353 METAR KSEA 040353Z 32005KT 10SM FEW031 SCT150 SCT200 22/14 A3003 RMK AO2 TSB0256E11 SLPNO CB DSNT N-E T02170139 $=
202108040317 SPECI KSEA 040317Z 31005KT 10SM FEW070 SCT140 BKN200 24/13 A3002 RMK AO2 TSB0256E11 T02440133 $=
202108040302 SPECI KSEA 040302Z 33005KT 10SM TS FEW070CB SCT140 BKN200 24/13 A3002 RMK AO2 LTG DSNT N TSB0256 OCNL LTGIC OHD TS OHD MOV N T02440133 $=
202108040253 METAR KSEA 040253Z 33004KT 10SM VCTS FEW080 BKN140 BKN250 24/14 A3003 RMK AO2 LTG DSNT E SLP172 T02390139 58003 $=
202108040248 SPECI KSEA 040248Z 31006KT 10SM VCTS FEW080 BKN140 BKN250 24/14 A3003 RMK AO2 LTG DSNT E $=
202108040201 SPECI KSEA 040201Z 34006KT 10SM FEW080 BKN140 BKN250 26/13 A3003 RMK AO2 LTG DSNT N AND NE T02610128 $=
202108040153 METAR KSEA 040153Z 35006KT 10SM VCTS FEW080 BKN140 BKN250 26/13 A3003 RMK AO2 LTG DSNT N AND NE SLP175 T02610128 $=
202108040146 SPECI KSEA 040146Z 35006KT 10SM VCTS FEW080 BKN140 BKN250 26/13 A3004 RMK AO2 LTG DSNT NE T02610133=
202108040053 METAR KSEA 040053Z 35003KT 10SM FEW080 BKN140 BKN250 26/14 A3003 RMK AO2 SLP174 CB DSNT E-SE ACC S T02610144=
202108032353 METAR KSEA 032353Z 24005KT 10SM FEW090 BKN150 27/14 A3004 RMK AO2 SLP177 T02670144 56007=
202108032253 METAR KSEA 032253Z 27007KT 10SM SCT150 SCT250 27/14 A3005 RMK AO2 SLP178 T02720139=
202108032153 METAR KSEA 032153Z 26007KT 10SM SCT150 SCT250 27/14 A3006 RMK AO2 SLP181 T02670139=
202108032053 METAR KSEA 032053Z 29009KT 10SM SCT150 SCT250 26/13 A3007 RMK AO2 SLP185 T02610133 56008=
202108031953 METAR KSEA 031953Z 30005KT 10SM SCT150 SCT250 24/14 A3008 RMK AO2 SLP188 T02390139=
202108031853 METAR KSEA 031853Z 31005KT 10SM FEW150 SCT250 23/13 A3008 RMK AO2 SLP190 T02280128 $=
202108031753 METAR KSEA 031753Z 23006KT 10SM FEW150 22/13 A3009 RMK AO2 SLP190 T02170128 58006 $=
202108031653 METAR KSEA 031653Z 28005KT 10SM FEW250 22/12 A3010 RMK AO2 SLP193 T02170122 $=
202108031553 METAR KSEA 031553Z 10SM CLR A3011 RMK AO2 SLPNO $=
202108031453 METAR KSEA 031453Z 30004KT 10SM FEW150 SCT250 17/12 A3011 RMK AO2 SLP199 T01670117 52009=
202108031353 METAR KSEA 031353Z 27003KT 10SM FEW150 16/12 A3010 RMK AO2 SLP198 T01560117=
202108031253 METAR KSEA 031253Z 36004KT 10SM SCT150 17/09 A3009 RMK AO2 SLP192 T01670094=
202108031153 METAR KSEA 031153Z 33003KT 10SM SCT150 17/09 A3008 RMK AO2 SLP190 T01670094 10217 20167 50005=
202108031053 METAR KSEA 031053Z 33003KT 10SM FEW140 SCT250 18/09 A3008 RMK AO2 SLP191 T01780094=
202108030953 METAR KSEA 030953Z 35005KT 10SM FEW150 SCT250 18/10 A3008 RMK AO2 SLP188 T01780100=
202108030853 METAR KSEA 030853Z 03012KT 10SM SCT250 20/09 A3007 RMK AO2 SLP185 T02000094 58002=
202108030753 METAR KSEA 030753Z 35004KT 10SM FEW250 19/11 A3008 RMK AO2 SLP189 T01940106 403060139=
202108030653 METAR KSEA 030653Z 01009KT 10SM FEW150 SCT250 21/11 A3007 RMK AO2 SLP185 T02110111=
202108030553 METAR KSEA 030553Z 01008KT 10SM FEW150 SCT250 22/12 A3007 RMK AO2 SLP188 T02170117 10306 20211 51008=
202108030453 METAR KSEA 030453Z 36011KT 10SM FEW095 SCT150 SCT250 23/09 A3007 RMK AO2 SLP187 T02330094=
202108030353 METAR KSEA 030353Z 36009KT 10SM SCT095 SCT150 SCT250 24/08 A3007 RMK AO2 SLP186 T02440083=
202108030253 METAR KSEA 030253Z 02014KT 10SM FEW080 FEW150 SCT250 27/09 A3005 RMK AO2 PRESFR SLP179 T02670094 58011=
202108030153 METAR KSEA 030153Z 35013KT 10SM FEW080 FEW150 SCT250 28/11 A3007 RMK AO2 SLP186 T02780111=
202108030053 METAR KSEA 030053Z 34012KT 10SM FEW150 SCT250 29/10 A3008 RMK AO2 SLP191 T02890100=
202108022353 METAR KSEA 022353Z 35011KT 10SM SCT250 29/13 A3008 RMK AO2 SLP190 T02940128 10300 20200 56016=
202108022253 METAR KSEA 022253Z 29009KT 8SM CLR 29/14 A3010 RMK AO2 SLP195 T02890139=
202108022153 METAR KSEA 022153Z 29010KT 10SM FEW140 27/15 A3011 RMK AO2 SLP199 T02670150=
202108022053 METAR KSEA 022053Z 29009KT 10SM FEW140 26/15 A3013 RMK AO2 SLP207 T02610150 58012=
202108021953 METAR KSEA 021953Z 29008KT 10SM FEW120 25/15 A3014 RMK AO2 SLP211 T02500150=
202108021853 METAR KSEA 021853Z 30005KT 10SM FEW250 22/14 A3016 RMK AO2 SLP217 T02220144=
202108021753 METAR KSEA 021753Z 28006KT 10SM CLR 21/14 A3016 RMK AO2 SLP219 T02060139 10206 20139 58006=
202108021653 METAR KSEA 021653Z 28003KT 10SM FEW010 FEW250 19/14 A3017 RMK AO2 SLP222 T01940139=
202108021553 METAR KSEA 021553Z 00000KT 10SM FEW010 FEW250 17/13 A3018 RMK AO2 SLP225 T01670133=
202108021453 METAR KSEA 021453Z 29004KT 10SM FEW010 15/13 A3018 RMK AO2 SLP225 T01500128 53013=
202108021353 METAR KSEA 021353Z 29005KT 7SM FEW010 FEW140 SCT250 14/13 A3017 RMK AO2 SLP221 T01390128=
202108021253 METAR KSEA 021253Z 26003KT 10SM SCT140 SCT250 14/13 A3015 RMK AO2 SLP214 T01440128=
202108021153 METAR KSEA 021153Z 17003KT 10SM SCT250 15/13 A3014 RMK AO2 SLP212 T01500128 10189 20150 52003=
202108021053 METAR KSEA 021053Z 17004KT 10SM BKN250 15/13 A3014 RMK AO2 SLP211 T01500133=
202108020953 METAR KSEA 020953Z 00000KT 10SM BKN250 16/13 A3014 RMK AO2 SLP209 T01610133=
202108020853 METAR KSEA 020853Z 28004KT 10SM BKN250 16/13 A3013 RMK AO2 SLP208 T01560133 53008=
202108020753 METAR KSEA 020753Z 26003KT 10SM BKN250 18/14 A3013 RMK AO2 SLP206 T01780139 402720167=
202108020653 METAR KSEA 020653Z 26004KT 10SM OVC250 19/14 A3011 RMK AO2 SLP201 T01890139=
202108020553 METAR KSEA 020553Z 27003KT 10SM BKN250 19/14 A3011 RMK AO2 SLP200 T01890139 10272 20189 51012=
202108020453 METAR KSEA 020453Z 27004KT 10SM FEW250 21/14 A3010 RMK AO2 SLP197 T02060144=
202108020353 METAR KSEA 020353Z 27004KT 10SM FEW250 23/14 A3008 RMK AO2 SLP192 T02280144=
202108020253 METAR KSEA 020253Z 29004KT 10SM FEW250 23/15 A3007 RMK AO2 SLP188 T02330150 55001=
202108020153 METAR KSEA 020153Z 22006KT 10SM SCT250 26/14 A3007 RMK AO2 SLP186 T02560144=
202108020053 METAR KSEA 020053Z 25005KT 10SM SCT250 27/14 A3007 RMK AO2 SLP186 T02670144=
202108012353 METAR KSEA 012353Z 29005KT 10SM SCT250 27/15 A3008 RMK AO2 SLP188 T02720150 10272 20189 56006=
202108012253 METAR KSEA 012253Z 23006KT 10SM SCT250 27/14 A3008 RMK AO2 SLP189 T02670144=
202108012153 METAR KSEA 012153Z VRB06KT 10SM SCT200 26/14 A3008 RMK AO2 SLP190 T02560144=
202108012053 METAR KSEA 012053Z 23005KT 10SM BKN160 24/14 A3009 RMK AO2 SLP194 T02390139 58003=
202108011953 METAR KSEA 011953Z 20006KT 10SM BKN200 23/14 A3010 RMK AO2 SLP196 T02280139=
202108011853 METAR KSEA 011853Z 23008KT 10SM BKN180 21/13 A3010 RMK AO2 SLP197 T02110133=
202108011753 METAR KSEA 011753Z VRB06KT 10SM FEW040 BKN190 19/13 A3010 RMK AO2 SLP198 T01940133 10200 20167 51005=
202108011653 METAR KSEA 011653Z 21007KT 10SM FEW040 BKN180 18/13 A3010 RMK AO2 SLP197 T01830133=
202108011553 METAR KSEA 011553Z 22007KT 10SM FEW030 OVC150 17/13 A3010 RMK AO2 SLP196 T01720133=
202108011453 METAR KSEA 011453Z 20007KT 10SM FEW020 OVC140 17/13 A3009 RMK AO2 SLP193 T01720133 53012=
202108011353 METAR KSEA 011353Z 20005KT 10SM OVC130 17/14 A3007 RMK AO2 SLP186 T01670139=
202108011253 METAR KSEA 011253Z 19004KT 10SM OVC140 18/14 A3006 RMK AO2 SLP185 T01780139=
202108011153 METAR KSEA 011153Z 00000KT 10SM OVC150 18/14 A3005 RMK AO2 SLP181 T01830139 10200 20178 58001=
202108011053 METAR KSEA 011053Z 27005KT 10SM OVC140 19/14 A3006 RMK AO2 SLP183 T01890139=
202108010953 METAR KSEA 010953Z 00000KT 10SM OVC140 20/14 A3006 RMK AO2 SLP183 T02000139=
202108010853 METAR KSEA 010853Z 00000KT 10SM OVC140 19/13 A3005 RMK AO2 SLP182 T01890133 53009=
202108010753 METAR KSEA 010753Z 28004KT 10SM OVC180 18/13 A3005 RMK AO2 SLP179 T01830133 402500178=
202108010653 METAR KSEA 010653Z 22004KT 10SM OVC180 19/13 A3003 RMK AO2 SLP173 T01940133=
202108010553 METAR KSEA 010553Z 00000KT 10SM FEW090 OVC170 18/13 A3003 RMK AO2 SLP173 T01780133 10228 20178 50002=
202108010453 METAR KSEA 010453Z 20005KT 10SM BKN090 OVC150 19/13 A3004 RMK AO2 SLP176 T01940133=
202108010353 METAR KSEA 010353Z 31005KT 10SM BKN100 OVC190 19/13 A3002 RMK AO2 SLP171 T01890133=
202108010253 METAR KSEA 010253Z 30007KT 10SM BKN130 OVC190 21/14 A3002 RMK AO2 SLP171 T02060139 56011=
202108010153 METAR KSEA 010153Z 28006KT 10SM BKN130 OVC200 21/14 A3003 RMK AO2 SLP173 T02060139=
202108010053 METAR KSEA 010053Z 29005KT 10SM FEW110 BKN130 OVC220 21/14 A3002 RMK AO2 SLP171 T02110139=

###################################
#  short TAF from KSEA
###################################
202108261502 KSEA 261502Z 2615/2718 17008KT P6SM VCSH OVC018 FM262000 20006KT
                       P6SM BKN040 OVC070 FM262200 22007KT P6SM
                       VCSH OVC040 FM270500 20006KT P6SM BKN040
                       OVC060 FM270800 19008KT P6SM OVC020=

###################################
#  large TAF from KSEA
###################################
202108312342 TAF KSEA 312342Z 0100/0206 35007KT P6SM VCSH FEW040 BKN080 FM010400
                       01005KT P6SM SCT050 FM011200 04004KT P6SM
                       SCT250 FM011800 33007KT P6SM FEW250=
202108312117 KSEA 312117Z 3121/0124 22008G14KT P6SM FEW017 FEW045 SCT080 FM312330
                       36007KT P6SM VCSH FEW020 BKN060 FM010400
                       01005KT P6SM SCT050 FM011200 04004KT P6SM
                       SCT250 FM011800 33007KT P6SM FEW250=
202108312107 KSEA 312107Z 3121/0124 22008G14KT P6SM FEW017 FEW045 SCT080 FM312300
                       26010KT P6SM FEW020 BKN060 FM010400 01005KT
                       P6SM SCT050 FM011200 04004KT P6SM SCT250
                       FM011800 33007KT P6SM FEW250=
202108311737 TAF KSEA 311737Z 3118/0124 21008G16KT P6SM OVC015 FM312000 22008KT
                       P6SM SCT030 BKN050 FM312200 28010KT P6SM
                       BKN050 FM010400 01005KT P6SM SCT050 FM011200
                       04004KT P6SM SCT250 FM011800 33007KT P6SM
                       FEW250=
202108311527 KSEA 311527Z 3115/0118 19006KT P6SM OVC013 FM311900 22008KT P6SM
                       SCT030 BKN050 FM312200 28012KT P6SM BKN060
                       FM010300 01006KT P6SM SCT060 FM011200 04005KT
                       P6SM SCT250=
202108311346 KSEA 311346Z 3114/0118 17007KT P6SM VCSH OVC015 FM311900 22008KT
                       P6SM SCT030 BKN050 FM312200 28012KT P6SM
                       BKN060 FM010300 01006KT P6SM SCT060 FM011200
                       04005KT P6SM SCT250=
202108311133 TAF KSEA 311133Z 3112/0118 17007KT P6SM VCSH SCT015 OVC030 FM311900
                       22008KT P6SM SCT030 BKN050 FM312200 28012KT
                       P6SM BKN060 FM010300 01006KT P6SM SCT060
                       FM011200 04005KT P6SM SCT250=
202108310902 KSEA 310902Z 3109/0112 17007KT P6SM VCSH OVC030 FM311900 23008KT
                       P6SM SCT030 BKN050 FM312200 26012KT P6SM
                       BKN060 FM010300 36006KT P6SM SCT060=
202108310526 TAF KSEA 310526Z 3106/0112 04010KT P6SM VCSH BKN030 OVC070 FM311100
                       18008KT P6SM VCSH BKN030 OVC040 FM311900
                       23008KT P6SM SCT030 BKN050 FM312200 26012KT
                       P6SM BKN060 FM010300 36006KT P6SM SCT060=
202108310329 KSEA 310329Z 3103/0106 31004KT P6SM VCSH BKN035 OVC070 FM311100
                       19008KT P6SM VCSH BKN020 OVC040 FM311900
                       23008KT P6SM SCT030 BKN050 FM312200 31006KT
                       P6SM BKN060 FM010300 36006KT P6SM BKN060=
202108302320 TAF KSEA 302320Z 3100/0106 30007KT P6SM FEW030 OVC060 FM310500
                       23008KT P6SM VCSH BKN060 FM311100 19008KT
                       P6SM VCSH BKN020 OVC040 FM311900 23008KT
                       P6SM SCT030 BKN050 FM312200 31006KT P6SM
                       BKN060 FM010300 36006KT P6SM BKN060=
202108302101 KSEA 302101Z 3021/3124 27008KT P6SM FEW035 BKN060 FM310500 23008KT
                       P6SM VCSH BKN060 FM311100 19008KT P6SM VCSH
                       BKN020 OVC040 FM311900 23008KT P6SM SCT030
                       BKN050 FM312200 26006KT P6SM SCT060=
202108301720 TAF KSEA 301720Z 3018/3124 21008KT P6SM OVC030 FM302000 23010KT
                       P6SM SCT050
                      TEMPO 3020/3023 BKN050 FM302300 26010KT P6SM
                       SCT060 SCT250 FM310500 23009KT P6SM VCSH
                       BKN060 FM311100 19008KT P6SM VCSH BKN020
                       OVC040 FM311900 23008KT P6SM SCT030 BKN050
                       FM312200 26006KT P6SM SCT060=
202108301128 TAF KSEA 301128Z 3012/3118 23006KT P6SM OVC025 FM301400 20008KT
                       P6SM OVC015 FM301800 22010KT P6SM BKN030
                       FM302100 25012KT P6SM SCT070 FM310500 23009KT
                       P6SM VCSH BKN060 FM311100 19011KT P6SM BKN040=
202108300902 KSEA 300902Z 3009/3112 21006KT P6SM SCT200 FM301200 23006KT P6SM
                       BKN040 FM301500 20008KT P6SM OVC020 FM301800
                       22008KT P6SM BKN030 FM302100 25010KT P6SM
                       SCT070 FM310500 23009KT P6SM SCT070=
202108300529 TAF KSEA 300529Z 3006/3112 33006KT P6SM FEW250 FM301000 23006KT
                       P6SM BKN040 FM301500 20008KT P6SM OVC020
                       FM301800 22008KT P6SM BKN030 FM302100 25010KT
                       P6SM SCT070 FM310500 23009KT P6SM SCT070=
202108300301 KSEA 300301Z 3003/3106 31006KT P6SM FEW250 FM301100 23008KT P6SM
                       BKN020 FM301500 20005KT 4SM BR OVC015 FM301800
                       22008KT P6SM BKN020 FM302100 27005KT P6SM
                       SCT070 FM310300 30004KT P6SM SCT070=
202108292320 TAF KSEA 292320Z 3000/3106 30008KT P6SM FEW030 FM301100 23008KT
                       P6SM BKN020 FM301500 20005KT 4SM BR OVC015
                       FM301800 22008KT P6SM BKN020 FM302100 27005KT
                       P6SM SCT070 FM310300 30004KT P6SM SCT070=
202108292101 KSEA 292101Z 2921/3024 29008KT P6SM FEW200 FM301100 23008KT P6SM
                       BKN020 FM301500 20005KT 4SM BR OVC015 FM301800
                       22008KT P6SM BKN020 FM302100 27005KT P6SM
                       SCT070=
202108291734 TAF KSEA 291734Z 2918/3024 05004KT P6SM FEW200 FM301100 20008KT
                       P6SM BKN020 FM301500 20005KT 4SM BR OVC015
                       FM301800 22008KT P6SM BKN020 FM302100 27005KT
                       P6SM SCT070=
202108291500 KSEA 291500Z 2915/3018 36004KT P6SM SKC FM291800 32007KT P6SM SKC
                       FM301100 20008KT P6SM OVC020 FM301600 20008KT
                       P6SM BKN020=
202108291124 TAF KSEA 291124Z 2912/3018 04008KT P6SM SKC FM291500 03008KT P6SM
                       SCT007 FM291800 32007KT P6SM SKC FM301100
                       20008KT P6SM OVC020=
202108290901 KSEA 290901Z 2909/3012 04010KT P6SM SKC FM291400 03008KT P6SM SCT007
                       FM291800 32007KT P6SM SKC FM300300 28003KT
                       P6SM SKC=
202108290522 TAF KSEA 290522Z 2906/3012 02006KT P6SM SKC FM291400 36003KT P6SM
                       SCT007 FM291800 32007KT P6SM SKC FM300300
                       28003KT P6SM SKC=
202108290302 KSEA 290302Z 2903/3006 02006KT P6SM SCT200 FM291200 36003KT P6SM
                       SCT007 SCT200 FM291800 35006KT P6SM SKC
                       FM300300 02003KT P6SM SKC=
202108282320 TAF KSEA 282320Z 2900/3006 02007KT P6SM FEW200 FM290300 01006KT
                       P6SM SKC FM291200 36003KT P6SM BKN025 FM291800
                       35006KT P6SM SKC FM300300 02003KT P6SM SKC=
202108282100 KSEA 282100Z 2821/2924 02006KT P6SM FEW200 FM290300 01006KT P6SM
                       SKC FM291200 36003KT P6SM BKN025 FM291800
                       35006KT P6SM SKC=
202108281740 TAF KSEA 281740Z 2818/2924 34003KT P6SM FEW010 FM282100 33008KT
                       P6SM SKC FM290300 01006KT P6SM SKC FM291200
                       36003KT P6SM BKN025 FM291800 35006KT P6SM
                       SKC=
202108281459 KSEA 281459Z 2815/2918 34003KT P6SM SKC FM282100 33008KT P6SM SKC
                       FM290300 01006KT P6SM SKC FM291500 03003KT
                       P6SM SKC FM291700 VRB03KT P6SM SCT020=
202108281129 TAF KSEA 281129Z 2812/2918 04009KT P6SM SKC FM281800 33007KT P6SM
                       SKC FM290300 01006KT P6SM SKC=
202108280915 KSEA 280915Z 2809/2912 04009KT P6SM SKC FM281800 33007KT P6SM SKC=
202108280539 TAF KSEA 280539Z 2806/2912 04006KT P6SM SCT100 FM280900 02004KT
                       P6SM SCT250 FM281800 33005KT P6SM SCT250=
202108280309 KSEA 280309Z 2803/2906 02008KT P6SM FEW025 FEW050 SCT250 FM280400
                       04006KT P6SM SCT100 SCT250 FM280900 02004KT
                       P6SM SCT250 FM281800 33005KT P6SM SCT250=
202108272331 TAF KSEA 272331Z 2800/2906 04010KT P6SM SCT030 SCT050 FM280400
                       04006KT P6SM SCT100 SCT250 FM280900 02004KT
                       P6SM SCT250 FM281800 33005KT P6SM SCT250=
202108272105 KSEA 272105Z 2721/2824 04010KT P6SM SCT030 BKN050 FM280400 04006KT
                       P6SM BKN100 FM280900 02004KT P6SM SCT025=
202108271739 TAF KSEA 271739Z 2718/2824 16005KT P6SM OVC025 FM272100 24005KT
                       P6SM SCT030 BKN050 FM280000 35006KT P6SM
                       BKN100 FM280900 02004KT P6SM SCT025=
202108271502 KSEA 271502Z 2715/2818 15007KT P6SM VCSH SCT005 BKN015 BKN030 FM271700
                       18005KT P6SM OVC030 FM272100 24005KT P6SM
                       SCT030 BKN050 FM280200 35006KT P6SM BKN100
                       FM280900 02004KT P6SM SCT025=
202108271351 KSEA 271351Z 2714/2818 14007KT P6SM VCSH FEW015 BKN030 FM271700
                       18005KT P6SM OVC030 FM272100 24005KT P6SM
                       SCT030 BKN050 FM280200 35006KT P6SM BKN100
                       FM280900 02004KT P6SM SCT025=
202108271127 TAF KSEA 271127Z 2712/2818 12005KT 6SM -SHRA BR BKN004 OVC010 FM271300
                       VRB04KT 6SM BR VCSH OVC009 FM271700 21004KT
                       P6SM OVC020 FM272000 29005KT P6SM SCT030
                       BKN050 FM280200 35006KT P6SM BKN100 FM280900
                       02004KT P6SM SCT025=
202108271100 KSEA 271100Z 2711/2812 12005KT 6SM -SHRA BR BKN004 OVC010 FM271300
                       VRB04KT 6SM BR VCSH OVC009 FM271800 21004KT
                       P6SM OVC020 FM272000 29005KT P6SM SCT030
                       BKN050 FM280200 35006KT P6SM BKN100 FM280900
                       02004KT P6SM SCT025=
202108270909 KSEA 270909Z 2709/2812 15008KT 6SM BR VCSH OVC013 FM271300 19004KT
                       6SM BR VCSH OVC009 FM271800 21004KT P6SM
                       OVC020 FM272000 29005KT P6SM SCT030 BKN050
                       FM280200 35006KT P6SM BKN100 FM280900 02004KT
                       P6SM SCT025=
202108270537 TAF KSEA 270537Z 2706/2812 24007KT P6SM VCSH BKN025 OVC050 FM270800
                       19008KT P6SM OVC020 FM272000 29005KT P6SM
                       SCT040 BKN050 FM280200 35006KT P6SM BKN100
                       FM280900 02004KT P6SM SCT025=
202108270331 KSEA 270331Z 2704/2806 20012KT P6SM VCSH FEW020 BKN070 BKN180 FM270600
                       20006KT P6SM VCSH BKN020 BKN040 OVC060 FM270900
                       19008KT P6SM OVC020 FM272000 29005KT P6SM
                       BKN050=
202108270304 KSEA 270304Z 2703/2806 20012KT P6SM VCSH FEW020 BKN070 BKN180 FM270600
                       20006KT P6SM BKN040 OVC060 FM270900 19008KT
                       P6SM OVC020 FM272000 29005KT P6SM BKN050=
202108262335 TAF KSEA 262335Z 2700/2806 22010KT P6SM VCSH OVC040 FM270500 20006KT
                       P6SM BKN040 OVC060 FM270800 19008KT P6SM
                       OVC020=
202108262102 KSEA 262102Z 2621/2724 20012KT P6SM BKN040 OVC100 FM270000 22010KT
                       P6SM VCSH OVC040 FM270500 20006KT P6SM BKN040
                       OVC060 FM270800 19008KT P6SM OVC020=
202108261734 TAF KSEA 261734Z 2618/2724 19008KT P6SM VCSH OVC025 FM262000 20006KT
                       P6SM BKN040 OVC070 FM270000 22007KT P6SM
                       VCSH OVC040 FM270500 20006KT P6SM BKN040
                       OVC060 FM270800 19008KT P6SM OVC020=
202108261502 KSEA 261502Z 2615/2718 17008KT P6SM VCSH OVC018 FM262000 20006KT
                       P6SM BKN040 OVC070 FM262200 22007KT P6SM
                       VCSH OVC040 FM270500 20006KT P6SM BKN040
                       OVC060 FM270800 19008KT P6SM OVC020=
202108261219 KSEA 261219Z 2612/2718 21008KT P6SM VCSH OVC014 FM262000 20006KT
                       P6SM BKN040 OVC070 FM262200 22007KT P6SM
                       VCSH OVC040 FM270500 20006KT P6SM BKN040
                       OVC060 FM270800 19008KT P6SM OVC020=
202108261120 TAF KSEA 261120Z 2612/2718 21008KT P6SM OVC013 FM262000 20006KT
                       P6SM BKN040 OVC070 FM262200 22007KT P6SM
                       VCSH OVC040 FM270500 20006KT P6SM BKN040
                       OVC060 FM270800 19008KT P6SM OVC020=
202108261058 KSEA 261058Z 2611/2712 21008KT P6SM OVC013 FM262000 20006KT P6SM
                       BKN040 OVC070 FM262200 22007KT P6SM VCSH
                       OVC040 FM270500 20006KT P6SM BKN040 OVC060
                       FM270800 19008KT P6SM OVC020=
202108260858 KSEA 260858Z 2609/2712 21004KT P6SM SCT050 BKN150 FM261200 18004KT
                       P6SM BKN040 OVC100 FM261600 18005KT P6SM
                       BKN040 OVC070 FM262200 22007KT P6SM VCSH
                       OVC040 FM270500 20006KT P6SM BKN040 OVC060=
202108260529 TAF KSEA 260529Z 2606/2712 20005KT P6SM VCSH BKN150 FM261200 18004KT
                       P6SM BKN040 OVC100 FM261600 18005KT P6SM
                       BKN040 OVC070 FM262200 22007KT P6SM VCSH
                       OVC040 FM270500 20006KT P6SM BKN040 OVC060=
202108260300 KSEA 260300Z 2603/2706 22009KT P6SM SCT180 BKN240 FM261200 18004KT
                       P6SM BKN040 OVC100 FM261600 18005KT P6SM
                       BKN040 OVC070 FM262200 22007KT P6SM VCSH
                       OVC040=
202108252332 TAF KSEA 252332Z 2600/2706 21008KT P6SM FEW180 BKN250 FM261200
                       18004KT P6SM BKN040 OVC100 FM261600 18005KT
                       P6SM BKN040 OVC070 FM262200 22007KT P6SM
                       VCSH OVC040=
202108252053 KSEA 252053Z 2521/2624 24007KT P6SM BKN250 FM261200 18004KT P6SM
                       BKN040 OVC100 FM261600 18005KT P6SM BKN030
                       OVC050=
202108251736 TAF KSEA 251736Z 2518/2624 20006KT P6SM SCT250 FM252000 24007KT
                       P6SM BKN250 FM261200 18004KT P6SM BKN040
                       OVC100 FM261600 18005KT P6SM BKN030 OVC050=
202108251501 KSEA 251501Z 2515/2618 19003KT P6SM SCT250 FM251900 23007KT P6SM
                       BKN250 FM261100 18008KT P6SM BKN060 OVC100
                       FM261400 18008KT P6SM BKN012 OVC020=
202108251133 TAF KSEA 251133Z 2512/2618 VRB03KT P6SM SCT250 FM251500 19003KT
                       P6SM SCT250 FM251900 23006KT P6SM BKN250
                       FM261100 18008KT P6SM BKN060 OVC100 FM261400
                       18008KT P6SM BKN012 OVC020=
202108250532 TAF KSEA 250532Z 2506/2612 02008KT P6SM BKN250 FM251100 VRB03KT
                       P6SM SCT250 FM251400 19003KT P6SM SCT250
                       FM251900 23006KT P6SM BKN250 FM261100 18008KT
                       P6SM BKN060 OVC100=
202108250300 KSEA 250300Z 2503/2606 35008KT P6SM BKN250 FM251100 VRB03KT P6SM
                       SCT250 FM251400 19003KT P6SM SCT250 FM251900
                       24007KT P6SM SCT250 FM260300 23006KT P6SM
                       OVC250=
202108242322 TAF KSEA 242322Z 2500/2606 30008KT P6SM SCT250 FM251100 VRB03KT
                       P6SM SCT250 FM251400 19003KT P6SM SCT250
                       FM251900 24007KT P6SM SCT250=
202108242059 KSEA 242059Z 2421/2524 30008KT P6SM SCT250 FM251100 VRB03KT P6SM
                       SKC FM251400 19003KT P6SM SKC=
202108241720 TAF KSEA 241720Z 2418/2524 04007KT P6SM SKC FM241900 34008KT P6SM
                       SCT250 FM251100 VRB03KT P6SM SKC FM251400
                       19003KT P6SM SKC=
202108241502 KSEA 241502Z 2415/2518 04007KT P6SM SKC FM241900 34008KT P6SM SCT250
                       FM251100 VRB03KT P6SM SCT250=
202108241131 TAF KSEA 241131Z 2412/2518 02004KT P6SM SKC FM241900 34008KT P6SM
                       SCT250 FM251100 17004KT P6SM SCT250=
202108240903 KSEA 240903Z 2409/2512 02004KT P6SM SKC FM241900 34008KT P6SM SCT250
                       FM251100 17004KT P6SM SCT250=
202108240530 TAF KSEA 240530Z 2406/2512 02008KT P6SM SKC FM241900 34008KT P6SM
                       SCT250 FM251100 17004KT P6SM SCT250=
202108240301 KSEA 240301Z 2403/2506 32006KT P6SM FEW050 FM240400 01005KT P6SM
                       SKC FM241900 34007KT P6SM SCT250=
202108232322 TAF KSEA 232322Z 2400/2506 33007KT P6SM SCT040 FM240400 01005KT
                       P6SM SKC FM241900 34007KT P6SM SCT250=
202108232102 KSEA 232102Z 2321/2424 25005KT P6SM SCT040 FM240000 32007KT P6SM
                       SCT050 FM240400 01003KT P6SM SKC FM241900
                       34007KT P6SM SKC=
202108231726 TAF KSEA 231726Z 2318/2424 21005KT P6SM BKN030 FM232000 25006KT
                       P6SM SCT045 FM240000 32007KT P6SM SCT050
                       FM240400 01003KT P6SM SKC FM241900 34007KT
                       P6SM SKC=
202108231510 KSEA 231510Z 2315/2418 18006KT P6SM OVC020 FM231600 19007KT P6SM
                       BKN030 FM232000 25006KT P6SM SCT050 FM240000
                       32007KT P6SM SCT050 FM240400 01003KT P6SM
                       SCT250=
202108231139 TAF KSEA 231139Z 2312/2418 17006KT P6SM BKN015 OVC040 FM231500
                       19004KT P6SM BKN030 FM232000 25005KT P6SM
                       SCT050 FM240000 32007KT P6SM SCT050 FM240400
                       01003KT P6SM SCT250=
202108231043 KSEA 231043Z 2311/2412 18006KT P6SM BKN015 BKN050 FM231400 VRB04KT
                       P6SM BKN030 FM232000 28005KT P6SM SCT050
                       FM240300 34007KT P6SM SCT250=
202108230906 KSEA 230906Z 2309/2412 21007KT P6SM SCT045 BKN050 FM231400 VRB04KT
                       P6SM BKN030 FM232000 28005KT P6SM SCT050
                       FM240300 34007KT P6SM SCT250=
202108230536 TAF KSEA 230536Z 2306/2412 28005KT P6SM SCT050 BKN070 FM231400
                       VRB04KT P6SM BKN030 FM232000 28005KT P6SM
                       SCT050 FM240300 34007KT P6SM SCT250=
202108230259 KSEA 230259Z 2303/2406 28005KT P6SM SCT050 BKN070 FM231400 VRB04KT
                       P6SM BKN030 FM232000 28005KT P6SM SCT050
                       FM240300 34007KT P6SM SCT250=
202108222327 TAF KSEA 222327Z 2300/2406 22012G20KT P6SM BKN060 FM230300 24010KT
                       P6SM BKN060 FM230600 20005KT P6SM BKN050
                       FM231400 VRB04KT P6SM BKN030 FM232000 28005KT
                       P6SM SCT050 FM240300 34007KT P6SM SCT250=
202108222104 KSEA 222104Z 2221/2324 22012G20KT P6SM BKN050 FM230300 24010KT
                       P6SM BKN060 FM230600 20005KT P6SM BKN050
                       FM232000 28005KT P6SM SCT050=
202108221731 TAF KSEA 221731Z 2218/2324 22012G20KT P6SM BKN035 OVC050 FM230000
                       24010KT P6SM BKN050 FM230600 20005KT P6SM
                       BKN050 FM232000 28005KT P6SM SCT050=
202108221504 KSEA 221504Z 2215/2318 21010KT P6SM BKN018 OVC050 FM222000 23009KT
                       P6SM BKN035 OVC050 FM230000 24010KT P6SM
                       BKN050 BKN060 FM230400 VRB05KT P6SM BKN050=
202108221305 KSEA 221305Z 2213/2318 21008KT P6SM OVC014 FM221700 20008KT P6SM
                       VCSH OVC020 FM222000 23009KT P6SM BKN035
                       OVC050 FM230000 24010KT P6SM BKN050 BKN060
                       FM230400 VRB05KT P6SM BKN050=
202108221138 TAF KSEA 221138Z 2212/2318 21008KT P6SM OVC045 FM221300 21009KT
                       P6SM OVC020 FM221700 20008KT P6SM VCSH OVC020
                       FM222000 23009KT P6SM BKN035 OVC050 FM230000
                       24010KT P6SM BKN050 BKN060 FM230400 VRB05KT
                       P6SM BKN060=
202108220855 KSEA 220855Z 2209/2312 22009KT P6SM VCSH OVC060 FM221100 20008KT
                       P6SM OVC020 FM221700 21009KT P6SM VCSH OVC020
                       FM222000 23009KT P6SM BKN030 OVC050 FM230000
                       24010KT P6SM BKN050 BKN070 FM230400 VRB05KT
                       P6SM BKN070=
202108220528 TAF KSEA 220528Z 2206/2312 23006KT P6SM VCSH OVC050 FM221100 20008KT
                       P6SM OVC015 FM221700 21009KT P6SM VCSH OVC020
                       FM222000 23009KT P6SM BKN030 OVC050 FM230000
                       24010KT P6SM BKN050 BKN070 FM230400 VRB05KT
                       P6SM BKN070=
202108220301 KSEA 220301Z 2203/2306 23006KT P6SM VCSH OVC045 FM220900 20008KT
                       P6SM OVC015 FM221700 21009KT P6SM VCSH OVC020
                       FM222000 23009KT P6SM BKN030 OVC050 FM230000
                       24010KT P6SM BKN050=
202108212332 TAF KSEA 212332Z 2200/2306 24007KT P6SM BKN035 BKN060 FM220100
                       21008KT P6SM BKN060 FM220900 20008KT P6SM
                       OVC015 FM221700 21009KT P6SM VCSH OVC020
                       FM222000 23009KT P6SM BKN030 OVC050 FM230000
                       24010KT P6SM BKN050=
202108212102 KSEA 212102Z 2121/2224 24007KT P6SM SCT025 BKN060 FM220100 21008KT
                       P6SM BKN060 FM220900 20008KT P6SM OVC015
                       FM221700 21009KT P6SM OVC020=
202108211726 TAF KSEA 211726Z 2118/2224 23005KT P6SM BKN015 OVC040 FM212100
                       24006KT P6SM SCT025 BKN050 FM220500 21008KT
                       P6SM BKN060 FM220900 20008KT P6SM OVC015
                       FM221700 21009KT P6SM OVC020=
202108211502 KSEA 211502Z 2115/2218 22003KT P6SM SCT010 OVC025
                      TEMPO 2115/2117 BKN010 FM211800 23005KT P6SM
                       BKN018 BKN040 FM212100 24006KT P6SM SCT025
                       BKN050 FM220500 21010KT P6SM SCT025 OVC050
                       FM221000 21008KT P6SM OVC020=
202108211125 TAF KSEA 211125Z 2112/2218 22003KT P6SM SCT005 OVC012
                      TEMPO 2112/2116 BKN005 OVC010 FM211800 23005KT
                       P6SM BKN018 BKN040 FM212100 24006KT P6SM
                       SCT025 BKN050 FM220500 21010KT P6SM SCT025
                       OVC050 FM221000 21008KT P6SM OVC020=
202108210900 KSEA 210900Z 2109/2212 20005KT P6SM BKN025 OVC035 FM211000 22003KT
                       P6SM OVC022 FM211800 23005KT P6SM BKN025
                       BKN040 FM212100 24006KT P6SM SCT025 BKN050
                       FM220500 21010KT P6SM SCT025 OVC050 FM221000
                       21008KT P6SM OVC020=
202108210528 TAF KSEA 210528Z 2106/2212 23005KT P6SM BKN025 OVC035 FM211000
                       22003KT P6SM OVC022 FM211800 23005KT P6SM
                       BKN025 BKN040 FM212100 24006KT P6SM SCT025
                       BKN050 FM220500 21010KT P6SM SCT025 OVC050
                       FM221000 21008KT P6SM OVC020=
202108210303 KSEA 210303Z 2103/2206 29005KT P6SM OVC030 FM211000 20003KT P6SM
                       OVC020 FM211800 23005KT P6SM BKN020 BKN040
                       FM212100 24006KT P6SM SCT025 BKN050 FM220500
                       21010KT P6SM SCT025 OVC050=
202108202320 TAF KSEA 202320Z 2100/2206 24010KT P6SM OVC025 FM210400 VRB04KT
                       P6SM VCSH OVC025 FM211000 18005KT P6SM OVC020
                       FM211800 23005KT P6SM BKN025 BKN040 FM212100
                       VRB04KT P6SM SCT025 BKN050=
202108202104 KSEA 202104Z 2021/2124 22010KT P6SM OVC030 FM210400 VRB04KT P6SM
                       VCSH OVC030 FM211000 18005KT P6SM OVC025
                       FM211800 23005KT P6SM BKN025 BKN050 FM212100
                       25005KT P6SM SCT025 BKN050=
202108201720 TAF KSEA 201720Z 2018/2124 22010KT P6SM OVC022 FM202000 22010KT
                       P6SM BKN030 OVC050 FM202200 23007KT P6SM
                       SCT025 BKN040 FM210400 VRB04KT P6SM VCSH
                       OVC030 FM211000 18005KT P6SM OVC025 FM211800
                       23005KT P6SM BKN025 BKN050 FM212100 25005KT
                       P6SM SCT025 BKN050=
202108201503 KSEA 201503Z 2015/2118 20008KT P6SM OVC015 FM201800 20008KT P6SM
                       BKN020 BKN040 FM202200 23007KT P6SM SCT025
                       BKN050 FM210300 21004KT P6SM BKN035 OVC050
                       FM211000 VRB03KT P6SM OVC022=
202108201121 TAF KSEA 201121Z 2012/2118 20009KT P6SM OVC010 FM201800 21007KT
                       P6SM BKN015 BKN040 FM202200 23007KT P6SM
                       SCT025 BKN050 FM210300 21004KT P6SM BKN035
                       OVC050 FM211000 VRB03KT P6SM OVC022=
202108200900 KSEA 200900Z 2009/2112 20009KT P6SM OVC009 FM201800 21007KT P6SM
                       BKN015 BKN040 FM202100 23007KT P6SM SCT025
                       BKN050 FM210400 21004KT P6SM BKN035 OVC050=
202108200641 KSEA 200641Z 2007/2112 20005KT P6SM FEW050 FEW250
                      TEMPO 2007/2008 BKN009 FM200800 20007KT P6SM
                       OVC009 FM201800 21007KT P6SM BKN015 BKN040
                       FM202100 23007KT P6SM SCT025 BKN050 FM210400
                       21004KT P6SM BKN035 OVC050=
202108200539 TAF KSEA 200539Z 2006/2112 20005KT P6SM FEW050 FEW250
                      TEMPO 2008/2010 BKN010 FM201000 18005KT P6SM
                       BKN010 OVC050 FM201400 20007KT P6SM OVC009
                       FM201800 21007KT P6SM BKN015 BKN040 FM202100
                       23007KT P6SM SCT025 BKN050 FM210400 21004KT
                       P6SM BKN035 OVC050=
202108200259 KSEA 200259Z 2003/2106 20005KT P6SM FEW050 FEW250 FM200700 18004KT
                       P6SM BKN050 FM201000 18005KT P6SM BKN015
                       OVC050 FM201600 20007KT P6SM OVC010 FM202000
                       23007KT P6SM SCT025 BKN050=
202108192320 TAF KSEA 192320Z 2000/2106 VRB04KT P6SM SCT050 FM200700 18004KT
                       P6SM BKN050 FM201000 18007KT P6SM BKN015
                       OVC050 FM202000 23007KT P6SM SCT025 BKN050=
202108192102 KSEA 192102Z 1921/2024 VRB04KT P6SM SCT060 FM201100 18006KT P6SM
                       BKN012 BKN050 FM201800 18008KT P6SM BKN020
                       OVC050 FM202200 23007KT P6SM SCT025 BKN050=
202108191720 TAF KSEA 191720Z 1918/2024 23006KT P6SM SCT060 FM201100 18006KT
                       P6SM BKN012 FM201800 18008KT P6SM BKN020
                       BKN050 FM202200 23007KT P6SM SCT025 BKN050=
202108191458 KSEA 191458Z 1915/2018 22006KT 5SM BR BKN005
                      TEMPO 1916/1918 2SM BR OVC002 FM191900 22006KT
                       P6SM SCT010 SCT070 FM192000 27006KT P6SM
                       BKN080 FM201100 21005KT P6SM OVC014=
202108191128 TAF KSEA 191128Z 1912/2018 21004KT P6SM SCT080 FM191300 23004KT
                       5SM BR BKN005
                      TEMPO 1913/1915 2SM BR OVC004 FM191700 23005KT
                       P6SM SCT010 BKN070 FM192000 27006KT P6SM
                       BKN080 FM201100 21005KT P6SM OVC014=
202108190907 KSEA 190907Z 1909/2012 19004KT P6SM BKN100 FM191300 23004KT 5SM
                       BR BKN006 FM191700 23005KT P6SM OVC035 FM192100
                       25006KT P6SM BKN060 FM201000 21005KT P6SM
                       OVC014=
202108190520 TAF KSEA 190520Z 1906/2012 VRB04KT P6SM BKN080 FM191300 23004KT
                       6SM BR BKN010 FM191700 23005KT P6SM OVC035
                       FM192100 25006KT P6SM BKN060 FM201000 21005KT
                       P6SM OVC014=
202108190304 KSEA 190304Z 1903/2006 VRB04KT P6SM BKN080 FM191300 VRB03KT 4SM
                       BR BKN010 FM191600 23005KT P6SM OVC040 FM192100
                       25006KT P6SM BKN060=
202108182322 TAF KSEA 182322Z 1900/2006 29008KT P6SM SCT150 BKN250 FM190500
                       33006KT P6SM FEW250 FM191300 17003KT 4SM
                       BR BKN010 FM191600 21003KT P6SM OVC070 FM191800
                       23004KT P6SM FEW250=
202108182056 KSEA 182056Z 1821/1924 28005KT P6SM FEW250 FM190000 26006KT P6SM
                       FEW250 FM190500 33006KT P6SM FEW250 FM191300
                       VRB03KT 4SM BR BKN010 FM191600 VRB03KT P6SM
                       OVC006=
202108181859 KSEA 181859Z 1819/1924 25005KT P6SM SKC FM190000 26006KT P6SM FEW250
                       FM190500 33006KT P6SM FEW250 FM191300 VRB03KT
                       4SM BR BKN010 FM191600 VRB03KT P6SM OVC006=
202108181723 TAF KSEA 181723Z 1818/1924 21004KT P6SM SCT010 SCT250 FM181900
                       23005KT P6SM BKN020 FM190000 26006KT P6SM
                       FEW250 FM190500 33006KT P6SM FEW250 FM191300
                       VRB03KT 4SM BR BKN010 FM191600 VRB03KT P6SM
                       OVC006=
202108181455 KSEA 181455Z 1815/1918 20004KT 1SM BR OVC002
                      TEMPO 1815/1816 1/2SM FG OVC001 FM181700
                       23004KT P6SM SKC FM190000 26006KT P6SM FEW250
                       FM190700 VRB03KT P6SM FEW250 FM191300 VRB03KT
                       4SM BR OVC003 FM191600 VRB03KT P6SM OVC006=
202108181140 TAF KSEA 181140Z 1812/1918 20004KT P6SM SKC FM181300 20004KT 4SM
                       BR OVC002
                      TEMPO 1814/1816 1SM BR OVC002 FM181700 23004KT
                       P6SM SKC FM190000 34006KT P6SM SKC FM190700
                       VRB03KT P6SM SKC FM191300 VRB03KT 4SM BR
                       OVC003 FM191600 VRB03KT P6SM OVC006=
202108180937 KSEA 180937Z 1810/1912 18006KT P6SM SKC FM181400 18006KT P6SM SCT005
                       FM181700 23005KT P6SM SKC FM190000 34006KT
                       P6SM SKC FM190700 VRB03KT P6SM SKC=
202108180532 TAF KSEA 180532Z 1806/1912 16006KT P6SM SKC FM181400 18006KT P6SM
                       SCT005 FM181700 23005KT P6SM SKC FM190000
                       34006KT P6SM SKC FM190700 VRB03KT P6SM SKC=
202108180305 KSEA 180305Z 1803/1906 VRB04KT P6SM BKN090 FM180600 VRB04KT P6SM
                       FEW090 FM181200 18006KT P6SM SCT005 FM181700
                       23005KT P6SM SKC=
202108172323 TAF KSEA 172323Z 1800/1906 VRB04KT P6SM SCT030 SCT250 FM180400
                       VRB04KT P6SM SCT040 FM181200 18006KT P6SM
                       SCT005 FM181700 23005KT P6SM SCT040=
202108172105 KSEA 172105Z 1721/1824 VRB04KT P6SM BKN025 FM172300 VRB04KT P6SM
                       SCT025 BKN040 FM180400 VRB04KT P6SM SCT040
                       FM181200 18006KT P6SM SCT005 FM181700 23005KT
                       P6SM SCT040=
202108171725 KSEA 171725Z 1718/1824 VRB04KT P6SM VCSH SCT022 OVC040 FM172100
                       23006KT P6SM SCT025 BKN040 FM180600 VRB04KT
                       P6SM SCT040 FM181200 18006KT P6SM SCT005
                       FM181700 23005KT P6SM SCT040=
202108171720 TAF KSEA 171720Z 1718/1824 VRB04KT P6SM VCSH BKN022 OVC040 FM172100
                       23006KT P6SM SCT025 BKN040 FM180600 VRB04KT
                       P6SM SCT040 FM181200 18006KT P6SM SCT005
                       FM181700 23005KT P6SM SCT040=
202108171503 KSEA 171503Z 1715/1818 21006KT P6SM BKN015 OVC040 FM171900 21006KT
                       P6SM SCT025 BKN040 FM180600 VRB04KT P6SM
                       SCT040=
202108171139 TAF KSEA 171139Z 1712/1818 18008KT P6SM SCT020 OVC040 FM171400
                       18008KT P6SM OVC020 FM171900 21006KT P6SM
                       SCT025 BKN040 FM172200 26006KT P6SM SCT040
                       FM180300 19004KT P6SM SCT040=
202108170809 KSEA 170809Z 1708/1812 18010KT P6SM OVC025 FM171300 21006KT P6SM
                       VCSH BKN012 OVC020 FM171800 21006KT P6SM
                       SCT015 BKN025 FM172100 18006KT P6SM SCT040=
202108170538 TAF KSEA 170538Z 1706/1812 21010KT P6SM SCT040 SCT100 FM171000
                       21010KT P6SM SCT020 BKN040 FM171300 21006KT
                       P6SM VCSH BKN012 OVC020 FM171800 21006KT
                       P6SM SCT015 BKN025 FM172100 18006KT P6SM
                       SCT040=
202108170307 KSEA 170307Z 1703/1806 23012KT P6SM VCSH SCT030 OVC060 FM170600
                       VRB04KT P6SM -SHRA OVC025 FM171200 18006KT
                       P6SM VCSH BKN015 BKN040 FM172200 VRB04KT
                       P6SM SCT020 BKN040=
202108170113 KSEA 170113Z 1701/1806 23012KT P6SM VCSH BKN030 OVC060 FM170400
                       VRB04KT P6SM -SHRA OVC020 FM171200 18006KT
                       P6SM VCSH BKN015 BKN040 FM172200 VRB04KT
                       P6SM SCT020 BKN040=
202108162320 TAF KSEA 162320Z 1700/1806 23012KT P6SM VCSH BKN040 OVC080 FM170400
                       VRB04KT P6SM -SHRA OVC020 FM171200 18006KT
                       P6SM VCSH BKN015 BKN040 FM172200 VRB04KT
                       P6SM SCT020 BKN040=
202108162059 KSEA 162059Z 1621/1724 23014G20KT P6SM SCT025 BKN080 FM162300 23012KT
                       P6SM SCT025 BKN040 OVC080 FM170400 VRB04KT
                       P6SM -SHRA BKN025 OVC040 FM171300 20006KT
                       P6SM OVC020 FM172000 VRB04KT P6SM BKN040=
202108161720 TAF KSEA 161720Z 1618/1724 22006KT P6SM BKN012 OVC025 FM162000
                       22006KT P6SM BKN025 OVC050 FM162200 22010KT
                       P6SM VCSH SCT025 OVC040 FM170400 VRB04KT
                       P6SM -SHRA BKN025 OVC040 FM171300 20006KT
                       P6SM OVC020 FM172000 VRB04KT P6SM BKN040=
202108161508 KSEA 161508Z 1615/1718 21010KT 6SM BR OVC006 FM161700 20006KT P6SM
                       BKN012 BKN040 OVC090 FM162000 20006KT P6SM
                       VCSH BKN025 OVC050 FM162200 20012KT P6SM
                       VCSH SCT025 OVC040 FM170400 VRB04KT P6SM
                       -SHRA BKN025 OVC040 FM171300 20006KT P6SM
                       OVC020=
202108161138 TAF KSEA 161138Z 1612/1718 20006KT P6SM BKN120 FM161300 20006KT
                       P6SM OVC004 FM161500 20006KT P6SM OVC006
                       FM161700 20006KT P6SM BKN015 OVC030 FM162000
                       20006KT P6SM VCSH BKN025 OVC040 FM162200
                       20012KT P6SM VCSH SCT025 OVC040 FM171300
                       20006KT P6SM OVC012=
202108160909 KSEA 160909Z 1609/1712 20006KT P6SM BKN150 FM161200 18008KT P6SM
                       OVC008 FM161700 20006KT P6SM BKN015 OVC030
                       FM162000 20006KT P6SM VCSH BKN025 OVC040
                       FM162300 20006KT P6SM VCSH SCT025 OVC040
                       FM171000 20006KT P6SM OVC012=
202108160538 TAF KSEA 160538Z 1606/1712 20006KT P6SM BKN150 FM161000 18008KT
                       P6SM BKN012 BKN150 FM161200 18008KT P6SM
                       OVC008 FM161700 20006KT P6SM BKN015 OVC030
                       FM162000 20006KT P6SM VCSH BKN025 OVC040
                       FM162300 20006KT P6SM VCSH SCT025 OVC040
                       FM171000 20006KT P6SM OVC012=
202108160306 KSEA 160306Z 1603/1706 24005KT P6SM SCT080 BKN150 FM161000 18008KT
                       P6SM BKN012 BKN050 FM161200 18008KT P6SM
                       OVC008 FM161700 21006KT P6SM BKN015 OVC030
                       FM162000 21006KT P6SM VCSH SCT025 OVC040=
202108152320 TAF KSEA 152320Z 1600/1706 24005KT P6SM BKN150 FM161000 18008KT
                       P6SM BKN012 BKN050 FM161200 18008KT P6SM
                       OVC008 FM161700 21006KT P6SM BKN015 OVC030
                       FM162000 21006KT P6SM VCSH SCT025 OVC040=
202108152112 KSEA 152112Z 1521/1624 24007KT P6SM BKN150 FM161000 18008KT P6SM
                       BKN012 FM161200 18008KT P6SM OVC008 FM161700
                       21006KT P6SM BKN015 FM162000 21006KT P6SM
                       SCT025 OVC040=
202108151741 TAF KSEA 151741Z 1518/1624 24007KT P6SM BKN150 FM161000 18008KT
                       P6SM BKN012 FM161200 18008KT P6SM OVC008
                       FM161700 21006KT P6SM BKN012 FM162000 21006KT
                       P6SM BKN020 OVC040=
202108151606 KSEA 151606Z 1516/1618 21006KT 5SM BR OVC005 FM151800 21006KT P6SM
                       BKN012 FM151900 24007KT P6SM BKN200 FM160300
                       23005KT P6SM BKN150 FM161200 19008KT P6SM
                       OVC011=
202108151507 KSEA 151507Z 1515/1618 21006KT 5SM BR SCT002 OVC008
                      TEMPO 1515/1517 2SM BR OVC002 FM151700 21006KT
                       P6SM BKN012 FM151900 24007KT P6SM BKN200
                       FM160300 23005KT P6SM BKN150 FM161200 19008KT
                       P6SM OVC011=
202108151134 TAF KSEA 151134Z 1512/1618 19005KT P6SM SCT200 FM151400 19005KT
                       P6SM OVC004 FM151700 22005KT P6SM SCT200
                       FM152200 28005KT P6SM BKN150 FM160300 23005KT
                       P6SM BKN150 FM161200 19008KT P6SM OVC011=
202108150929 KSEA 150929Z 1509/1612 20005KT P6SM SCT200 FM151200 19005KT P6SM
                       OVC007 FM151800 24006KT P6SM BKN150 FM161100
                       19008KT P6SM OVC011=
202108150530 TAF KSEA 150530Z 1506/1612 20005KT P6SM SCT200 FM151200 19005KT
                       P6SM OVC007 FM151800 24006KT P6SM BKN150
                       FM161100 19008KT P6SM OVC011=
202108150303 KSEA 150303Z 1503/1606 20005KT P6SM SCT200 FM151200 19005KT P6SM
                       OVC007 FM151800 24006KT P6SM BKN150=
202108142320 TAF KSEA 142320Z 1500/1606 28004KT P6SM FEW120 SCT250 FM151200
                       19005KT P6SM OVC007 FM151800 24006KT P6SM
                       BKN150=
202108142110 KSEA 142110Z 1421/1524 26005KT P6SM FEW130 SCT200 FM150300 26003KT
                       P6SM SKC FM151200 19005KT P6SM OVC010 FM151800
                       24006KT P6SM SCT100=
202108141720 TAF KSEA 141720Z 1418/1524 23008KT P6SM FEW010 SCT250 FM142100
                       26007KT P6SM SCT250 FM150300 26003KT P6SM
                       SKC FM151200 19005KT P6SM OVC010 FM151800
                       24006KT P6SM SCT100=
202108141430 KSEA 141430Z 1415/1518 20007KT P6SM BKN003 BKN010
                      TEMPO 1416/1417 SCT003 SCT010 FM141700 23006KT
                       P6SM SCT250 FM142100 26007KT P6SM SCT250
                       FM150300 26003KT P6SM SKC=
202108141120 TAF KSEA 141120Z 1412/1518 21006KT 6SM FU SCT200 FM141500 23005KT
                       6SM FU BR BKN020 FM142100 26007KT P6SM SCT250
                       FM150300 26003KT P6SM SKC=
202108140901 KSEA 140901Z 1409/1512 21007KT 6SM FU SCT200 FM141500 23005KT 6SM
                       FU BR BKN020 FM142100 26007KT P6SM SCT250
                       FM150300 26003KT P6SM SCT250=
202108140531 TAF KSEA 140531Z 1406/1512 30003KT 6SM FU HZ FEW040 BKN200 FM140900
                       21005KT 5SM FU SCT200 FM141500 21005KT 6SM
                       FU BR BKN020 FM142100 27006KT P6SM SCT250
                       FM150300 26003KT P6SM SCT250=
202108140301 KSEA 140301Z 1403/1506 30003KT 6SM FU HZ FEW040 BKN200 FM140900
                       21005KT 6SM FU SCT200 FM141500 21005KT 6SM
                       FU BR BKN020 FM142100 27006KT P6SM SCT250
                       FM150300 26003KT P6SM SCT250=
202108132322 TAF KSEA 132322Z 1400/1506 25005KT 5SM FU HZ FEW040 BKN250 FM140300
                       31004KT 6SM FU SCT250 FM140900 21005KT P6SM
                       SCT250 FM142100 27006KT P6SM SCT250=
202108132101 KSEA 132101Z 1321/1424 28006KT 6SM FU HZ FEW040 SCT250 FM140300
                       31004KT 6SM FU SCT250 FM140900 22005KT P6SM
                       SCT250=
202108131816 TAF KSEA 131816Z 1318/1424 VRB03KT 6SM FU HZ SKC FM132000 27007KT
                       6SM FU HZ SCT250 FM140300 36004KT 6SM FU
                       SCT250 FM140900 22005KT P6SM SCT250=
202108131502 KSEA 131502Z 1315/1418 21003KT 6SM FU HZ SCT250 FM131800 30006KT
                       6SM FU FEW250 FM140300 36004KT 6SM FU SCT250=
202108131140 TAF KSEA 131140Z 1312/1418 VRB03KT 6SM FU SKC FM131800 30006KT
                       6SM FU FEW250 FM140300 36004KT 6SM FU SCT250=
202108130905 KSEA 130905Z 1309/1412 00000KT 6SM FU SCT250 FM131200 VRB03KT 6SM
                       FU FEW250 FM131800 30008KT 6SM FU SCT040
                       SCT250 FM140300 36006KT 6SM FU SCT250=
202108130522 TAF KSEA 130522Z 1306/1412 36006KT 6SM FU SCT040 SCT250 FM131500
                       23003KT 6SM FU FEW250 FM132000 30008KT 6SM
                       FU SCT040 SCT250 FM140300 36006KT 6SM FU
                       SCT250=
202108130301 KSEA 130301Z 1303/1406 34006KT 6SM FU SCT040 SCT250 FM131500 23003KT
                       6SM FU FEW250 FM132000 30008KT 6SM FU SCT040
                       SCT250 FM140300 36006KT 6SM FU SCT250=
202108122320 TAF KSEA 122320Z 1300/1406 01007KT 6SM FU SCT045 BKN250 FM130500
                       36006KT 6SM FU SCT050 BKN250 FM131500 23003KT
                       6SM FU FEW250 FM132000 30008KT 6SM FU SCT250
                       FM140300 36006KT P6SM SCT250=
202108122059 KSEA 122059Z 1221/1324 29008KT P6SM SCT045 BKN250 FM130000 33010G15KT
                       P6SM SCT250 FM130500 36006KT P6SM FEW250
                       FM131500 23003KT P6SM FEW250 FM132000 30008KT
                       P6SM SCT250=
202108121737 TAF KSEA 121737Z 1218/1324 02008KT P6SM SCT250 FM130000 33010G15KT
                       P6SM SCT250 FM130500 36006KT P6SM FEW250
                       FM131500 23003KT P6SM FEW250 FM132000 30008KT
                       P6SM SCT250=
202108121458 KSEA 121458Z 1215/1318 02007KT P6SM FEW120 SCT250 FM121800 32010KT
                       P6SM SCT250 FM130500 36004KT P6SM FEW250
                       FM131500 23003KT P6SM FEW250=
202108121302 KSEA 121302Z 1213/1318 02008KT P6SM SKC FM121800 32010KT P6SM SKC
                       FM130400 36004KT P6SM FEW250=
202108121120 TAF KSEA 121120Z 1212/1318 02007KT P6SM SKC FM121800 32008KT P6SM
                       SKC FM130400 36004KT P6SM FEW250=
202108120909 KSEA 120909Z 1209/1312 02007KT P6SM SKC FM121800 32008KT P6SM SKC=
202108120522 TAF KSEA 120522Z 1206/1312 36007KT P6SM SKC FM120900 02005KT P6SM
                       SKC FM121800 32008KT P6SM SKC=
202108120309 KSEA 120309Z 1203/1306 36011KT P6SM SKC FM120900 02005KT P6SM SKC
                       FM121500 VRB03KT P6SM SKC FM121800 32008KT
                       P6SM SKC=
202108112320 TAF KSEA 112320Z 1200/1306 36015G25KT P6SM SKC FM120300 35008KT
                       P6SM SKC FM120500 02005KT P6SM SKC FM121500
                       VRB03KT P6SM SKC FM121800 32008KT P6SM SKC=
202108112015 KSEA 112015Z 1120/1224 36015G25KT P6SM SKC FM120300 35008KT P6SM
                       SKC FM120500 02005KT P6SM SKC FM121500 VRB03KT
                       P6SM SKC FM121800 32006KT P6SM SKC=
202108111751 TAF KSEA 111751Z 1118/1224 VRB03KT P6SM SKC FM111900 32008KT P6SM
                       SKC FM120000 35005KT P6SM SKC FM120400 02005KT
                       P6SM SKC FM121500 VRB03KT P6SM SKC FM121800
                       32006KT P6SM SKC=
202108111120 TAF KSEA 111120Z 1112/1218 VRB03KT P6SM SCT250 FM111800 33008KT
                       P6SM SCT250 FM120000 35005KT P6SM SCT250
                       FM120400 02005KT P6SM SKC=
202108110906 KSEA 110906Z 1109/1212 01006KT P6SM SCT250 FM111800 33008KT P6SM
                       SCT250 FM120000 35005KT P6SM SCT250 FM120400
                       02005KT P6SM SKC=
202108110520 TAF KSEA 110520Z 1106/1212 02010KT P6SM SCT250 FM110700 01006KT
                       P6SM SCT250 FM111800 33008KT P6SM SCT250
                       FM120000 36005KT P6SM SCT250=
202108110301 KSEA 110301Z 1103/1206 02015KT P6SM SCT250 FM110600 01006KT P6SM
                       SCT250 FM120000 33010KT P6SM SCT250=
202108102320 TAF KSEA 102320Z 1100/1206 35014G24KT P6SM SCT250 FM110200 01007KT
                       P6SM SCT250 FM111500 35005KT P6SM SCT250
                       FM120000 33010KT P6SM SCT250=
202108102056 KSEA 102056Z 1021/1124 30009KT P6SM SCT250 FM110200 01005KT P6SM
                       SCT250 FM111500 35008KT P6SM SCT250=
202108101720 TAF KSEA 101720Z 1018/1124 28004KT P6SM BKN250 FM102000 33007KT
                       P6SM BKN250 FM110200 01005KT P6SM SCT250
                       FM111500 35008KT P6SM SCT250=
202108101608 KSEA 101608Z 1016/1118 02008KT P6SM SCT200 BKN250 FM102000 33007KT
                       P6SM SCT250 FM110200 01005KT P6SM SCT250
                       FM111500 35008KT P6SM SCT250=
202108101501 KSEA 101501Z 1015/1118 02008KT P6SM SCT200 BKN250 FM101700 35004KT
                       P6SM SCT250 FM102000 33007KT P6SM SCT250
                       FM110200 01005KT P6SM SCT250 FM111500 35008KT
                       P6SM SCT250=
202108101120 TAF KSEA 101120Z 1012/1118 03005KT P6SM SCT250 FM101700 35004KT
                       P6SM SCT250 FM102000 33007KT P6SM SCT250
                       FM110200 01005KT P6SM SCT250=
202108100900 KSEA 100900Z 1009/1112 01004KT P6SM SCT250 FM101200 VRB03KT P6SM
                       SCT250 FM101700 35004KT P6SM SCT250 FM102000
                       33007KT P6SM SCT250 FM110200 01005KT P6SM
                       SCT250=
202108100530 TAF KSEA 100530Z 1006/1112 01004KT P6SM SCT250 FM101200 02002KT
                       P6SM SCT250 FM101700 35004KT P6SM SCT250
                       FM102000 33007KT P6SM SCT250 FM110200 01005KT
                       P6SM SCT250=
202108100258 KSEA 100258Z 1003/1106 35008KT P6SM FEW050 BKN250 FM100500 01004KT
                       P6SM SCT250 FM101200 02002KT P6SM SCT250
                       FM101700 35004KT P6SM SCT250=
202108092321 TAF KSEA 092321Z 1000/1106 33013KT P6SM FEW040 SCT250 FM100500
                       01004KT P6SM SCT250 FM101200 02002KT P6SM
                       SCT250 FM101700 35004KT P6SM SCT250=
202108092056 KSEA 092056Z 0921/1024 30008KT P6SM FEW030 SCT200 FM100000 31006KT
                       P6SM FEW040 SCT250 FM100500 01004KT P6SM
                       SCT250 FM101200 02002KT P6SM SCT250 FM101700
                       35004KT P6SM SCT250=
202108091852 KSEA 091852Z 0919/1024 30004KT P6SM SCT015 BKN200 FM092000 30006KT
                       P6SM FEW040 FM100500 01004KT P6SM SCT250
                       FM101200 02002KT P6SM SCT250=
202108091723 TAF KSEA 091723Z 0918/1024 27006KT P6SM BKN015 FM092000 30006KT
                       P6SM FEW040 FM100500 01004KT P6SM SCT250
                       FM101200 02002KT P6SM SCT250=
202108091501 KSEA 091501Z 0915/1018 VRB04KT P6SM OVC009
                      TEMPO 0915/0916 OVC005 FM091700 30003KT P6SM
                       BKN030 FM091800 29006KT P6SM SCT040 FM092100
                       30006KT P6SM FEW040 FM100500 01004KT P6SM
                       SCT250=
202108091133 TAF KSEA 091133Z 0912/1018 VRB04KT P6SM BKN010 BKN014 FM091800
                       25006KT P6SM SCT040 FM092100 30006KT P6SM
                       FEW040 FM100500 01004KT P6SM SCT250=
202108090850 KSEA 090850Z 0909/1012 22004KT P6SM SCT250 FM091800 25006KT P6SM
                       SCT040 FM092100 30007KT P6SM FEW040 FM100400
                       35004KT P6SM SCT250=
202108090533 TAF KSEA 090533Z 0906/1012 VRB05KT P6SM SCT060 SCT250 FM091000
                       04004KT P6SM BKN025 FM091800 30006KT P6SM
                       SCT040 FM092100 30007KT P6SM FEW040 FM100400
                       35004KT P6SM SCT250=
202108090253 KSEA 090253Z 0903/1006 23008KT P6SM SCT040 BKN060 FM090600 VRB03KT
                       P6SM BKN040 FM091000 04004KT P6SM BKN025
                       FM091800 30006KT P6SM SCT040 FM092100 34008KT
                       P6SM FEW040=
202108082320 TAF KSEA 082320Z 0900/1006 25008KT P6SM SCT045 BKN070 FM090600
                       36004KT P6SM BKN040 FM091000 02004KT P6SM
                       BKN025 FM091800 30006KT P6SM SCT040 FM092100
                       33008KT P6SM FEW040=
202108082104 KSEA 082104Z 0821/0924 20009G16KT P6SM SCT035 FM090300 36004KT
                       P6SM BKN030 FM091000 02004KT P6SM BKN025
                       FM091800 30006KT P6SM SCT040=
202108081730 TAF KSEA 081730Z 0818/0924 21008KT P6SM SCT014 BKN060 BKN110 FM082100
                       23005KT P6SM SCT025 BKN060 FM090300 36004KT
                       P6SM BKN030 FM091000 02004KT P6SM BKN025
                       FM091800 30006KT P6SM SCT040=
202108081637 KSEA 081637Z 0817/0918 19007KT P6SM SCT014 SCT060 BKN110 FM082100
                       23005KT P6SM SCT020 BKN060 FM090100 VRB03KT
                       P6SM BKN035 FM090500 02002KT P6SM SCT250=
202108081505 KSEA 081505Z 0815/0918 18005KT P6SM VCSH BKN011 OVC018 FM081900
                       20006KT P6SM OVC020 FM082100 23005KT P6SM
                       BKN025 FM090100 VRB03KT P6SM BKN035 FM090500
                       02002KT P6SM SCT250=
202108081347 KSEA 081347Z 0814/0918 17007KT P6SM VCSH FEW010 SCT040 BKN080
                      TEMPO 0814/0818 -RA BKN010 FM081900 20006KT
                       P6SM OVC035 FM090100 VRB03KT P6SM BKN070
                       FM090500 02002KT P6SM SCT250=
202108081321 KSEA 081321Z 0813/0918 17007KT P6SM VCSH FEW010 SCT040 BKN080 FM081900
                       20006KT P6SM OVC035 FM090100 VRB03KT P6SM
                       BKN070 FM090500 02002KT P6SM SCT250=
202108081130 TAF KSEA 081130Z 0812/0918 14005KT P6SM -DZ SCT020 BKN035 OVC050
                       FM081300 17007KT P6SM VCSH OVC020 FM081900
                       20006KT P6SM OVC035 FM090100 VRB03KT P6SM
                       BKN070 FM090500 02002KT P6SM SCT250=
202108080901 KSEA 080901Z 0809/0912 16006KT P6SM VCSH FEW019 BKN050 OVC060 FM081000
                       17007KT P6SM VCSH OVC020 FM081800 20006KT
                       P6SM OVC035 FM090100 VRB03KT P6SM BKN070=
202108080535 TAF KSEA 080535Z 0806/0912 22010KT P6SM VCSH SCT022 BKN030 FM081000
                       17007KT P6SM VCSH OVC020 FM081800 20006KT
                       P6SM OVC035 FM090100 VRB03KT P6SM BKN070=
202108080302 KSEA 080302Z 0803/0906 23010KT P6SM VCSH SCT030 BKN050 OVC070 FM080600
                       22010KT P6SM VCSH OVC030 FM081000 17007KT
                       P6SM VCSH OVC020 FM081800 20006KT P6SM OVC025=
202108072320 TAF KSEA 072320Z 0800/0906 23014G21KT P6SM VCSH FEW030 BKN070 BKN120
                       FM080200 23012KT P6SM VCSH BKN030 OVC070
                       FM080600 22010KT P6SM VCSH OVC030 FM081000
                       17007KT P6SM VCSH OVC020 FM081800 20006KT
                       P6SM OVC025=
202108072102 KSEA 072102Z 0721/0824 23014G24KT P6SM VCSH SCT025 BKN080 BKN130
                       FM080100 22010KT P6SM VCSH OVC030 FM081000
                       17007KT P6SM VCSH OVC020 FM081800 20006KT
                       P6SM OVC021=
202108071720 TAF KSEA 071720Z 0718/0824 16011KT P6SM VCSH OVC015 FM072100 22010KT
                       P6SM VCSH OVC025 FM080300 22010KT P6SM VCSH
                       OVC030 FM081000 17007KT P6SM VCSH OVC020
                       FM081800 20006KT P6SM OVC021=
202108071503 KSEA 071503Z 0715/0818 19006KT P6SM OVC020 FM072300 22008KT P6SM
                       VCSH OVC025 FM080300 22008KT P6SM VCSH OVC030
                       FM081200 17006KT P6SM OVC050=
202108071222 KSEA 071222Z 0712/0818 21008KT P6SM VCSH OVC028 FM071500 20007KT
                       4SM -RA BR OVC015 FM072300 22008KT 6SM BR
                       VCSH OVC020 FM080300 22008KT P6SM VCSH OVC030
                       FM081200 17006KT P6SM OVC050=
202108071126 TAF KSEA 071126Z 0712/0818 20010KT P6SM VCSH BKN035 OVC060 FM071500
                       20007KT 4SM -RA BR OVC015 FM072300 22008KT
                       6SM BR VCSH OVC020 FM080300 22008KT P6SM
                       VCSH OVC030 FM081200 17006KT P6SM OVC050=
202108070908 KSEA 070908Z 0709/0812 21007KT P6SM VCSH SCT030 OVC080 FM071500
                       20007KT 4SM -RA BR OVC015 FM072300 22008KT
                       6SM BR VCSH OVC020 FM080300 22008KT P6SM
                       VCSH OVC030=
202108070535 TAF KSEA 070535Z 0706/0812 25006KT P6SM BKN070 BKN250 FM070900
                       17005KT P6SM VCSH SCT030 OVC050 FM071500
                       20007KT 4SM -RA BR OVC015 FM072300 22008KT
                       6SM BR VCSH OVC020 FM080300 22008KT P6SM
                       VCSH OVC030=
202108070302 KSEA 070302Z 0703/0806 24008KT P6SM FEW035 SCT080 BKN250 FM070900
                       17005KT P6SM VCSH SCT030 OVC050 FM071500
                       20007KT 4SM -RA BR OVC015 FM072300 22008KT
                       6SM BR OVC020 FM080300 23005KT P6SM OVC035=
202108062320 TAF KSEA 062320Z 0700/0806 24010KT P6SM SCT035 SCT250 FM070200
                       22005KT P6SM SCT020 BKN070 FM070900 17005KT
                       P6SM VCSH SCT010 OVC030 FM071800 20007KT
                       4SM -RA BR OVC015 FM072300 22008KT 6SM BR
                       OVC020 FM080300 23005KT P6SM OVC035=
202108062058 KSEA 062058Z 0621/0724 22011KT P6SM VCSH SCT040 BKN250 FM070200
                       22005KT P6SM VCSH SCT020 BKN070 FM070900
                       17005KT P6SM VCSH SCT020 OVC060 FM072000
                       20007KT P6SM VCSH OVC020=
202108061720 TAF KSEA 061720Z 0618/0724 22008KT 4SM BR VCSH SCT004 OVC009 FM062300
                       22010KT P6SM VCSH SCT020 BKN040 FM070200
                       22005KT P6SM VCSH SCT020 BKN070 FM070900
                       17005KT P6SM VCSH SCT020 OVC060 FM072000
                       20007KT P6SM VCSH OVC020=
202108061600 KSEA 061600Z 0616/0718 22010KT P6SM VCSH OVC010
                      TEMPO 0616/0618 20007KT 1 1/2SM -RA BR OVC003
                       FM061800 21007KT P6SM VCSH OVC019 FM062300
                       22006KT P6SM VCSH SCT020 BKN040 FM070200
                       22005KT P6SM VCSH SCT020 BKN070 FM070900
                       17005KT P6SM VCSH SCT020 OVC060=
202108061456 KSEA 061456Z 0615/0718 22010KT P6SM VCSH OVC010
                      TEMPO 0615/0616 20007KT 1 1/2SM -RA BR OVC007
                       FM061800 21007KT P6SM VCSH OVC019 FM062300
                       22006KT P6SM VCSH SCT020 BKN040 FM070200
                       22005KT P6SM VCSH SCT020 BKN070 FM070900
                       17005KT P6SM VCSH SCT020 OVC060=
202108061122 TAF KSEA 061122Z 0612/0718 22010KT P6SM VCSH OVC010
                      TEMPO 0612/0616 20007KT 1 1/2SM -RA BR OVC007
                       FM061800 21007KT P6SM VCSH OVC019 FM062300
                       22006KT P6SM VCSH SCT020 BKN040 FM070200
                       22005KT P6SM VCSH SCT020 BKN070 FM070900
                       17005KT P6SM VCSH SCT020 OVC060=
202108060902 KSEA 060902Z 0609/0712 18010KT 3SM -DZ BKN006 OVC010 FM061300 20007KT
                       1 1/2SM BR VCSH OVC009 FM061800 21007KT
                       P6SM VCSH OVC019 FM062100 22006KT P6SM VCSH
                       SCT020 BKN040 FM070500 27005KT P6SM VCSH
                       SCT020 BKN070=
202108060728 KSEA 060728Z 0607/0712 22006KT 3SM -DZ BR BKN007 OVC012 FM060900
                       18010KT P6SM VCSH OVC020
                      TEMPO 0612/0616 5SM -RA OVC012 FM062100 22006KT
                       P6SM VCSH SCT020 BKN040 FM070500 27005KT
                       P6SM VCSH SCT020 BKN070=
202108060534 TAF KSEA 060534Z 0606/0712 22012G20KT P6SM BKN014 BKN030 FM060900
                       18010KT P6SM OVC020
                      TEMPO 0612/0616 5SM -RA OVC012 FM062100 22006KT
                       P6SM VCSH SCT020 BKN040 FM070500 27005KT
                       P6SM VCSH SCT020 BKN070=
202108060304 KSEA 060304Z 0603/0706 24012G20KT P6SM FEW040 BKN100 BKN250 FM060600
                       22012KT P6SM BKN040 BKN090 FM060900 18010KT
                       P6SM OVC020
                      TEMPO 0612/0616 5SM -RA OVC012 FM062100 22006KT
                       P6SM VCSH SCT020 BKN040=
202108052320 TAF KSEA 052320Z 0600/0706 21008KT P6SM SCT040 BKN200 FM060400
                       21012KT P6SM BKN040 BKN120 FM060900 18010KT
                       P6SM OVC030 FM061200 18008KT P6SM OVC020
                       TEMPO 0612/0616 5SM -RA OVC012 FM062100
                       22006KT P6SM VCSH SCT020 BKN040=
202108052103 KSEA 052103Z 0521/0624 21006KT P6SM SCT040 BKN200 FM060200 21008KT
                       P6SM BKN040 BKN120 FM060700 20008KT P6SM
                       OVC030 FM061000 18008KT P6SM VCSH OVC020
                       FM062100 25005KT P6SM VCSH BKN025 OVC050=
202108051720 TAF KSEA 051720Z 0518/0624 VRB04KT P6SM SCT120 BKN200 FM060200
                       21008KT P6SM BKN050 BKN120 FM060700 20008KT
                       P6SM OVC030 FM061000 18008KT P6SM VCSH OVC020
                       FM062100 25005KT P6SM VCSH BKN025 OVC050=
202108051503 KSEA 051503Z 0515/0618 VRB04KT P6SM SCT120 BKN200 FM052200 23005KT
                       P6SM SCT050 BKN120 FM060200 21008KT P6SM
                       BKN050 BKN120 FM060700 20008KT P6SM OVC030
                       FM061000 18008KT P6SM -SHRA OVC020 FM061600
                       21005KT P6SM VCSH OVC020=
202108051131 TAF KSEA 051131Z 0512/0618 01007KT P6SM SCT250 FM051700 26008KT
                       P6SM SKC FM060000 26008G16KT P6SM SCT250
                       FM060300 23009KT P6SM BKN120 FM060500 22008KT
                       P6SM OVC060 FM060700 20007KT P6SM OVC030=
202108050902 KSEA 050902Z 0509/0612 34005KT P6SM FEW250 FM051200 22005KT P6SM
                       SCT250 FM052200 25011KT P6SM SCT250 FM060300
                       24010KT P6SM BKN120=
202108050528 TAF KSEA 050528Z 0506/0612 02012KT P6SM FEW250 FM051200 22005KT
                       P6SM SCT250 FM052200 25011KT P6SM SCT250
                       FM060300 24010KT P6SM BKN120=
202108050301 KSEA 050301Z 0503/0606 36008KT P6SM FEW250 FM050500 02005KT P6SM
                       FEW250 FM051200 22005KT P6SM SCT250 FM052200
                       25011KT P6SM SCT250=
202108042328 TAF KSEA 042328Z 0500/0606 35009KT P6SM SKC FM050500 02005KT P6SM
                       FEW250 FM051200 22005KT P6SM SCT250 FM052200
                       25011KT P6SM SCT250=
202108042058 KSEA 042058Z 0421/0524 35009KT P6SM SKC FM050200 02005KT P6SM FEW250
                       FM051500 21005KT P6SM SCT250=
202108041722 TAF KSEA 041722Z 0418/0524 30005KT P6SM SKC FM042200 32009KT P6SM
                       FEW250 FM050300 35005KT P6SM FEW250 FM051500
                       21005KT P6SM SCT250=
202108041508 KSEA 041508Z 0415/0518 30003KT P6SM SCT250 FM042000 31007KT P6SM
                       FEW250 FM050000 35008KT P6SM FEW250 FM050500
                       35005KT P6SM SKC=
202108041140 TAF KSEA 041140Z 0412/0518 30003KT P6SM SCT250 FM041800 31005KT
                       P6SM FEW250 FM050000 35008KT P6SM FEW250
                       FM050300 31005KT P6SM SKC=
202108040902 KSEA 040902Z 0409/0512 01006KT P6SM FEW250 FM041200 35003KT P6SM
                       FEW250 FM042000 30004KT P6SM FEW250 FM050000
                       33007KT P6SM FEW250=
202108040525 TAF KSEA 040525Z 0406/0512 01006KT P6SM FEW150 SCT200 FM041200
                       35003KT P6SM FEW250 FM042000 30004KT P6SM
                       FEW250 FM050000 33007KT P6SM FEW250=
202108040302 KSEA 040302Z 0403/0506 33004KT P6SM VCTS FEW080CB BKN140 BKN250
                       FM040500 01004KT P6SM FEW120 SCT250 FM041200
                       35003KT P6SM FEW100 FM041500 26003KT P6SM
                       SCT050 FM042000 30004KT P6SM FEW200 FM050000
                       33007KT P6SM FEW200=
202108040032 KSEA 040032Z 0401/0506 27007KT P6SM VCTS FEW080CB BKN150 FM040300
                       VRB05KT P6SM SCT100 FM041200 35003KT P6SM
                       FEW100 FM041500 26003KT P6SM SCT050 FM042000
                       30004KT P6SM FEW200 FM050000 33007KT P6SM
                       FEW200=
202108032320 TAF KSEA 032320Z 0400/0506 27007KT P6SM SCT150 SCT250 FM040300
                       VRB05KT P6SM SCT100 FM041200 35003KT P6SM
                       FEW100 FM041500 26003KT P6SM SCT050 FM042000
                       30004KT P6SM FEW200 FM050000 33007KT P6SM
                       FEW200=
202108032058 KSEA 032058Z 0321/0424 29009KT P6SM SCT150 SCT250 FM040300 VRB05KT
                       P6SM SCT050 BKN100 FM041200 35003KT P6SM
                       FEW100 FM041500 26003KT P6SM SCT050 FM042000
                       30004KT P6SM FEW200=
202108031724 TAF KSEA 031724Z 0318/0424 28005KT P6SM FEW250 FM040300 VRB05KT
                       P6SM SCT050 BKN100 FM041200 35003KT P6SM
                       FEW100 FM041500 26003KT P6SM SCT050 FM042000
                       30004KT P6SM FEW200=
202108031500 KSEA 031500Z 0315/0418 30004KT P6SM FEW150 SCT250 FM031700 35006KT
                       P6SM SCT070 BKN100 FM040300 35005KT P6SM
                       SCT050 BKN100 FM041200 35003KT P6SM FEW100=
202108031128 TAF KSEA 031128Z 0312/0418 33003KT P6SM FEW140 SCT250 FM031700
                       35006KT P6SM SCT070 BKN100 FM040300 35005KT
                       P6SM FEW100=
202108030901 KSEA 030901Z 0309/0412 03012KT P6SM SCT250 FM031700 35006KT P6SM
                       SCT070 BKN100 FM040300 35005KT P6SM SKC=
202108030520 TAF KSEA 030520Z 0306/0412 36011KT P6SM FEW100 SCT150 SCT250 FM030900
                       36005KT P6SM SCT150 SCT250 FM031600 35006KT
                       P6SM BKN100 FM040300 35005KT P6SM SKC=
202108030305 KSEA 030305Z 0303/0406 02012KT P6SM FEW150 FM030600 02008KT P6SM
                       SKC FM031600 35006KT P6SM SKC FM031800 30006KT
                       P6SM FEW250 FM040000 29008KT P6SM SKC=
202108030102 KSEA 030102Z 0301/0406 34010G18KT P6SM SKC FM030300 35005KT P6SM
                       FEW150 FM030600 02005KT P6SM SKC FM031800
                       30006KT P6SM FEW250 FM040000 29008KT P6SM
                       SKC=
202108022347 TAF KSEA 022347Z 0300/0406 29009KT P6SM FEW140 FM030200 34009G18KT
                       P6SM SKC FM030300 35005KT P6SM FEW150 FM030600
                       02005KT P6SM SKC FM031800 30006KT P6SM FEW250
                       FM040000 29008KT P6SM SKC=
202108022112 KSEA 022112Z 0221/0324 29009KT P6SM FEW140 FM030000 34009G18KT
                       P6SM SKC FM030300 35005KT P6SM FEW150 FM031800
                       30006KT P6SM SKC=
202108021720 TAF KSEA 021720Z 0218/0324 00000KT P6SM FEW010 FEW250 FM022100
                       33008KT P6SM FEW250 FM030000 34008G18KT
                       P6SM SKC FM030300 35005KT P6SM FEW150 FM031800
                       30006KT P6SM SKC=
202108021500 KSEA 021500Z 0215/0318 29004KT P6SM FEW010 FM022100 33008KT P6SM
                       FEW250 FM030000 34008G18KT P6SM SKC FM030300
                       35005KT P6SM FEW150=
202108021121 TAF KSEA 021121Z 0212/0318 26004KT P6SM SCT250 FM022100 33008KT
                       P6SM FEW250 FM030000 34008G18KT P6SM SKC
                       FM030300 35005KT P6SM FEW150=
202108020901 KSEA 020901Z 0209/0312 28004KT P6SM BKN250 FM022100 33008KT P6SM
                       SKC=
202108020532 TAF KSEA 020532Z 0206/0312 27004KT P6SM SCT250 FM022100 33008KT
                       P6SM SKC=
202108020301 KSEA 020301Z 0203/0306 33004KT P6SM SCT250 FM022100 33008KT P6SM
                       SKC=
202108012320 TAF KSEA 012320Z 0200/0306 VRB05KT P6SM SCT200 FM022100 33008KT
                       P6SM SKC=
202108012100 KSEA 012100Z 0121/0224 24005KT P6SM BKN150 FM020000 VRB04KT P6SM
                       SCT150 FM022200 33006KT P6SM SKC=
202108011720 TAF KSEA 011720Z 0118/0224 24005KT P6SM SCT050 BKN150 FM012200
                       VRB04KT P6SM SCT150 FM022200 33006KT P6SM
                       SKC=
202108011500 KSEA 011500Z 0115/0218 22005KT P6SM OVC140 FM012000 28005KT P6SM
                       BKN150 FM020600 35005KT P6SM SCT150 FM021200
                       32005KT P6SM SCT010=
202108011302 KSEA 011302Z 0113/0218 22005KT P6SM OVC140 FM012000 28005KT P6SM
                       BKN150 FM020600 35005KT P6SM SCT150 FM021200
                       32005KT P6SM SCT010=
202108011120 TAF KSEA 011120Z 0112/0218 25005KT P6SM FEW070 OVC140 FM012000
                       28005KT P6SM BKN150 FM020600 35005KT P6SM
                       SCT150 FM021200 32005KT P6SM SCT010=
202108010902 KSEA 010902Z 0109/0212 20005KT P6SM OVC015 FM011100 22004KT P6SM
                       SCT070 OVC120 FM012000 30007KT P6SM BKN150=
202108010520 TAF KSEA 010520Z 0106/0212 20005KT P6SM BKN090 OVC150 FM012000
                       30007KT P6SM BKN150=
202108010254 KSEA 010254Z 0103/0206 30007KT P6SM BKN150 OVC200 FM010600 VRB03KT
                       P6SM VCSH OVC090 FM012000 30007KT P6SM BKN150=