##########################################################
# Query made at 02/17/2025 21:29:27 UTC
# Time interval: from 07/01/2021 00:00  to 07/31/2021 23:59  UTC
##########################################################

##########################################################
# KSEA, Seattle, Seattle-Tacoma International Airport (United States)
# WMO index: 72793. WIGOS ID: 0-20000-0-72793
# Latitude 47-27-00N. Longitude 122-17-59W. Altitude 130 m.
##########################################################

###################################
#  METAR/SPECI from KSEA
###################################
202107312353 METAR KSEA 312353Z 01004KT 10SM FEW110 OVC150 22/13 A3005 RMK AO2 SLP181 T02220128 10233 20200 55003=
202107312253 METAR KSEA 312253Z 29008KT 10SM BKN160 OVC220 21/13 A3002 RMK AO2 SLP170 T02110133=
202107312153 METAR KSEA 312153Z 31009KT 10SM BKN170 OVC220 22/13 A3004 RMK AO2 PRESFR SLP175 T02170133=
202107312053 METAR KSEA 312053Z 23007KT 10SM FEW110 SCT150 BKN180 22/13 A3006 RMK AO2 PRESRR SLP184 T02170133 52000=
202107311953 METAR KSEA 311953Z 04005KT 10SM FEW090 SCT110 BKN150 23/12 A3007 RMK AO2 SLP184 T02330122=
202107311853 METAR KSEA 311853Z VRB05KT 10SM FEW090 SCT110 BKN150 23/12 A3006 RMK AO2 SLP183 T02280122=
202107311753 METAR KSEA 311753Z 06006KT 10SM FEW070 SCT095 BKN120 22/12 A3006 RMK AO2 SLP184 60000 T02170117 10228 20178 51014=
202107311653 METAR KSEA 311653Z 07003KT 10SM FEW090 SCT110 BKN150 20/12 A3005 RMK AO2 SLP179 T02000117=
202107311553 METAR KSEA 311553Z 28005KT 10SM FEW080 SCT090 BKN110 19/12 A3004 RMK AO2 RAE06 SLP175 P0000 T01890117=
202107311453 METAR KSEA 311453Z 32007KT 10SM -RA FEW080 SCT090 OVC110 19/12 A3002 RMK AO2 RAB50 SLP169 P0000 60000 T01890122 53009=
202107311353 METAR KSEA 311353Z 36006KT 10SM OVC110 21/12 A3001 RMK AO2 SLP164 T02060117=
202107311253 METAR KSEA 311253Z 01003KT 10SM OVC150 19/12 A2999 RMK AO2 SLP159 T01940117=
202107311153 METAR KSEA 311153Z 26003KT 10SM OVC150 21/12 A2999 RMK AO2 SLP159 T02110117 10261 20206 53008=
202107311053 METAR KSEA 311053Z 00000KT 10SM OVC150 22/11 A2998 RMK AO2 SLP155 T02220111=
202107310953 METAR KSEA 310953Z 34003KT 10SM BKN160 OVC200 23/10 A2997 RMK AO2 SLP152 T02330100=
202107310853 METAR KSEA 310853Z 02007KT 10SM BKN170 OVC220 25/10 A2997 RMK AO2 SLP150 T02500100 57002=
202107310753 METAR KSEA 310753Z 02012KT 10SM BKN170 OVC220 25/10 A2997 RMK AO2 SLP151 T02500100 403330161=
202107310653 METAR KSEA 310653Z 02009KT 10SM SCT170 BKN220 26/11 A2997 RMK AO2 SLP151 T02560111=
202107310553 METAR KSEA 310553Z 03011KT 10SM BKN220 BKN250 26/12 A2997 RMK AO2 SLP152 T02610122 10333 20261 53007=
202107310453 METAR KSEA 310453Z 01007KT 10SM FEW200 SCT250 27/12 A2996 RMK AO2 SLP148 T02720117=
202107310353 METAR KSEA 310353Z 36009KT 10SM FEW200 SCT250 28/11 A2995 RMK AO2 SLP144 T02780111=
202107310253 METAR KSEA 310253Z 35008KT 10SM SCT250 30/11 A2995 RMK AO2 SLP145 T03000106 55001=
202107310153 METAR KSEA 310153Z 31008KT 10SM SCT250 32/11 A2994 RMK AO2 SLP143 T03170111=
202107310053 METAR KSEA 310053Z 32010KT 10SM SCT250 32/11 A2995 RMK AO2 SLP145 T03220111=
202107302353 METAR KSEA 302353Z 33008KT 10SM FEW250 33/11 A2996 RMK AO2 SLP147 T03280111 10328 20250 56010=
202107302253 METAR KSEA 302253Z 34012KT 10SM FEW250 32/10 A2997 RMK AO2 SLP150 T03220100=
202107302153 METAR KSEA 302153Z 33011KT 10SM FEW250 32/12 A2998 RMK AO2 SLP155 T03170117=
202107302053 METAR KSEA 302053Z 30007KT 10SM CLR 29/13 A2999 RMK AO2 SLP157 T02940128 58013=
202107301953 METAR KSEA 301953Z 01010KT 10SM CLR 29/12 A3000 RMK AO2 SLP164 T02890122=
202107301853 METAR KSEA 301853Z 36007KT 10SM CLR 27/12 A3002 RMK AO2 SLP169 T02670117=
202107301753 METAR KSEA 301753Z 35011KT 10SM CLR 26/11 A3003 RMK AO2 SLP171 T02560111 10256 20161 58002=
202107301653 METAR KSEA 301653Z 34008KT 10SM FEW120 24/12 A3004 RMK AO2 SLP174 T02440117=
202107301553 METAR KSEA 301553Z 02006KT 10SM FEW120 22/12 A3003 RMK AO2 SLP173 T02220122=
202107301453 METAR KSEA 301453Z 04003KT 10SM FEW120 21/14 A3003 RMK AO2 SLP172 T02060139 53008=
202107301353 METAR KSEA 301353Z 30004KT 10SM FEW120 17/12 A3002 RMK AO2 SLP168 T01670122=
202107301253 METAR KSEA 301253Z 36005KT 10SM FEW120 16/12 A3001 RMK AO2 SLP164 T01610117=
202107301153 METAR KSEA 301153Z 00000KT 10SM CLR 17/12 A3001 RMK AO2 SLP165 T01720117 10233 20172 53003=
202107301053 METAR KSEA 301053Z 00000KT 10SM CLR 18/12 A3000 RMK AO2 SLP163 T01780122=
202107300953 METAR KSEA 300953Z 35005KT 10SM CLR 18/11 A3000 RMK AO2 SLP163 T01830111=
202107300853 METAR KSEA 300853Z 02006KT 10SM CLR 22/11 A3000 RMK AO2 SLP161 T02170111 56002=
202107300753 METAR KSEA 300753Z 36007KT 10SM CLR 20/12 A3000 RMK AO2 SLP162 T02000117 403280150=
202107300653 METAR KSEA 300653Z 04012KT 10SM CLR 23/11 A3000 RMK AO2 SLP162 T02280111=
202107300553 METAR KSEA 300553Z 04010KT 10SM CLR 23/11 A3000 RMK AO2 SLP164 T02330111 10322 20233 53010=
202107300453 METAR KSEA 300453Z 03013KT 10SM CLR 25/13 A3000 RMK AO2 SLP161 T02500128=
202107300353 METAR KSEA 300353Z 36009KT 10SM CLR 26/12 A2998 RMK AO2 SLP154 T02560117=
202107300253 METAR KSEA 300253Z 35008KT 10SM FEW250 28/11 A2997 RMK AO2 SLP153 T02830106 55010=
202107300153 METAR KSEA 300153Z 36011KT 10SM FEW250 31/11 A2997 RMK AO2 SLP153 T03060106=
202107300053 METAR KSEA 300053Z 36012KT 10SM FEW100 32/10 A2999 RMK AO2 SLP158 T03170100=
202107292353 METAR KSEA 292353Z 35010KT 10SM FEW080 32/10 A3001 RMK AO2 SLP164 T03220100 10328 20244 56014=
202107292253 METAR KSEA 292253Z 01009KT 10SM FEW050 32/11 A3002 RMK AO2 SLP167 T03220106=
202107292153 METAR KSEA 292153Z 35010KT 10SM FEW050 32/10 A3003 RMK AO2 SLP173 T03170100=
202107292053 METAR KSEA 292053Z 35012KT 10SM FEW050 29/11 A3005 RMK AO2 SLP178 T02940106 58016=
202107291953 METAR KSEA 291953Z 33009KT 10SM CLR 28/12 A3006 RMK AO2 SLP184 T02830122=
202107291853 METAR KSEA 291853Z 33007KT 10SM CLR 27/13 A3008 RMK AO2 SLP191 T02670128=
202107291753 METAR KSEA 291753Z 28006KT 10SM CLR 25/14 A3010 RMK AO2 SLP194 T02500139 10250 20150 58004=
202107291653 METAR KSEA 291653Z 29003KT 10SM CLR 23/14 A3010 RMK AO2 SLP196 T02280139=
202107291553 METAR KSEA 291553Z 00000KT 10SM CLR 21/13 A3011 RMK AO2 SLP199 T02110128=
202107291453 METAR KSEA 291453Z 29003KT 10SM CLR 19/13 A3011 RMK AO2 SLP198 T01940128 53007=
202107291353 METAR KSEA 291353Z 00000KT 10SM CLR 16/12 A3010 RMK AO2 SLP195 T01610122=
202107291253 METAR KSEA 291253Z 00000KT 10SM FEW120 15/12 A3009 RMK AO2 SLP193 T01500117=
202107291153 METAR KSEA 291153Z 35003KT 10SM CLR 17/12 A3009 RMK AO2 SLP192 T01720122 10228 20156 53005=
202107291053 METAR KSEA 291053Z 00000KT 10SM CLR 18/12 A3008 RMK AO2 SLP189 T01830122=
202107290953 METAR KSEA 290953Z 36004KT 10SM CLR 18/11 A3008 RMK AO2 SLP189 T01830111=
202107290853 METAR KSEA 290853Z 03006KT 10SM CLR 20/12 A3007 RMK AO2 SLP187 T02000117 58002=
202107290753 METAR KSEA 290753Z 02007KT 10SM CLR 21/12 A3008 RMK AO2 SLP188 T02060117 403110144=
202107290653 METAR KSEA 290653Z 04013KT 10SM CLR 21/11 A3007 RMK AO2 SLP187 T02110111=
202107290553 METAR KSEA 290553Z 02011KT 10SM SCT250 23/09 A3008 RMK AO2 SLP189 T02280094 10306 20222 53009=
202107290453 METAR KSEA 290453Z 01009KT 10SM SCT250 22/09 A3007 RMK AO2 SLP186 T02220089=
202107290353 METAR KSEA 290353Z 35007KT 10SM SCT250 24/08 A3005 RMK AO2 SLP180 T02440078=
202107290253 METAR KSEA 290253Z 36007KT 10SM SCT250 28/09 A3005 RMK AO2 SLP179 T02780089 55009=
202107290153 METAR KSEA 290153Z 01009KT 10SM SCT250 30/08 A3005 RMK AO2 SLP179 T03000083=
202107290053 METAR KSEA 290053Z 34007KT 10SM FEW060 SCT250 30/08 A3006 RMK AO2 SLP183 T03000083=
202107282353 METAR KSEA 282353Z 35007KT 10SM FEW060 SCT250 31/08 A3008 RMK AO2 SLP188 T03060083 10311 20222 58014=
202107282253 METAR KSEA 282253Z 35009KT 10SM SCT200 BKN250 30/06 A3009 RMK AO2 SLP193 T03000056=
202107282153 METAR KSEA 282153Z VRB06KT 10SM FEW200 SCT250 29/08 A3011 RMK AO2 SLP198 T02940083=
202107282053 METAR KSEA 282053Z 30008KT 10SM SCT200 BKN250 27/11 A3012 RMK AO2 SLP202 T02720106 58006=
202107281953 METAR KSEA 281953Z 28007KT 10SM SCT200 BKN250 24/11 A3013 RMK AO2 SLP205 T02440111=
202107281853 METAR KSEA 281853Z 26003KT 10SM FEW200 BKN250 24/12 A3013 RMK AO2 SLP207 T02440117=
202107281753 METAR KSEA 281753Z 27006KT 10SM FEW200 SCT250 22/11 A3013 RMK AO2 SLP208 T02220106 10228 20144 58003=
202107281653 METAR KSEA 281653Z 26005KT 10SM SCT250 21/12 A3014 RMK AO2 SLP211 T02110117=
202107281553 METAR KSEA 281553Z 26003KT 10SM SCT250 20/12 A3015 RMK AO2 SLP212 T02000117=
202107281453 METAR KSEA 281453Z 28004KT 10SM SCT250 17/11 A3014 RMK AO2 SLP211 T01720111 53007=
202107281353 METAR KSEA 281353Z 00000KT 10SM SCT250 16/12 A3014 RMK AO2 SLP209 T01610117=
202107281253 METAR KSEA 281253Z 00000KT 10SM SCT250 15/11 A3013 RMK AO2 SLP207 T01500111=
202107281153 METAR KSEA 281153Z 00000KT 10SM SCT250 16/12 A3012 RMK AO2 SLP204 T01560117 10222 20156 50000=
202107281053 METAR KSEA 281053Z 00000KT 10SM FEW250 16/12 A3013 RMK AO2 SLP206 T01610117=
202107280953 METAR KSEA 280953Z 00000KT 10SM FEW250 17/09 A3013 RMK AO2 SLP205 T01720094=
202107280853 METAR KSEA 280853Z 03005KT 10SM FEW250 19/09 A3012 RMK AO2 SLP204 T01890094 53011=
202107280753 METAR KSEA 280753Z 01008KT 10SM FEW250 21/09 A3011 RMK AO2 SLP199 T02060089 402830172=
202107280653 METAR KSEA 280653Z 03010KT 10SM FEW250 22/09 A3010 RMK AO2 SLP196 T02170094=
202107280553 METAR KSEA 280553Z 01007KT 10SM FEW250 22/11 A3009 RMK AO2 SLP193 T02170111 10278 20211 52013=
202107280453 METAR KSEA 280453Z 00000KT 10SM FEW250 23/09 A3008 RMK AO2 SLP189 T02280089=
202107280353 METAR KSEA 280353Z 34005KT 10SM SCT250 24/09 A3006 RMK AO2 SLP183 T02390089=
202107280253 METAR KSEA 280253Z 29004KT 10SM FEW050 SCT250 26/12 A3005 RMK AO2 SLP180 T02610122 53000=
202107280153 METAR KSEA 280153Z 29007KT 10SM FEW050 SCT250 27/11 A3005 RMK AO2 SLP178 T02670111=
202107280053 METAR KSEA 280053Z 31006KT 10SM FEW050 SCT250 27/14 A3005 RMK AO2 SLP178 T02720139=
202107272353 METAR KSEA 272353Z 29008KT 10SM FEW040 SCT250 27/14 A3005 RMK AO2 SLP179 T02720144 10283 20217 58005=
202107272253 METAR KSEA 272253Z VRB05KT 10SM FEW040 SCT250 27/14 A3006 RMK AO2 SLP181 T02670139=
202107272153 METAR KSEA 272153Z 30007KT 10SM FEW040 SCT250 27/14 A3006 RMK AO2 SLP184 T02670144=
202107272053 METAR KSEA 272053Z 30006KT 10SM FEW030 SCT250 26/14 A3007 RMK AO2 SLP184 T02560139 50000=
202107271953 METAR KSEA 271953Z 02009KT 10SM FEW030 SCT250 26/13 A3007 RMK AO2 SLP186 T02560133=
202107271853 METAR KSEA 271853Z 28006KT 10SM FEW030 SCT250 24/14 A3007 RMK AO2 SLP185 T02390139=
202107271753 METAR KSEA 271753Z 28006KT 10SM FEW010 FEW200 22/14 A3007 RMK AO2 SLP184 T02220139 10222 20172 51006=
202107271653 METAR KSEA 271653Z 27005KT 10SM CLR 20/13 A3006 RMK AO2 SLP184 T02000133=
202107271553 METAR KSEA 271553Z 27005KT 10SM FEW010 SCT250 19/13 A3006 RMK AO2 SLP182 T01890133=
202107271453 METAR KSEA 271453Z VRB03KT 10SM FEW010 SCT250 19/13 A3005 RMK AO2 SLP178 T01890133 51009=
202107271353 METAR KSEA 271353Z 14003KT 10SM SCT250 17/13 A3004 RMK AO2 SLP176 T01720133=
202107271253 METAR KSEA 271253Z 04007KT 10SM FEW020 SCT220 17/13 A3003 RMK AO2 SLP172 T01720128=
202107271153 METAR KSEA 271153Z 03007KT 10SM SCT250 17/13 A3002 RMK AO2 SLP168 T01720128 10206 20172 53005=
202107271053 METAR KSEA 271053Z 03008KT 10SM SCT250 18/13 A3001 RMK AO2 SLP166 T01780128=
202107270953 METAR KSEA 270953Z 01007KT 10SM SCT250 18/13 A3001 RMK AO2 SLP164 T01780128=
202107270853 METAR KSEA 270853Z 03008KT 10SM SCT250 19/13 A3000 RMK AO2 SLP163 T01890128 53009=
202107270753 METAR KSEA 270753Z 03009KT 10SM SCT250 19/13 A2999 RMK AO2 SLP159 T01940128 402830156=
202107270653 METAR KSEA 270653Z 02008KT 10SM SCT250 20/13 A2998 RMK AO2 SLP156 T02000128=
202107270553 METAR KSEA 270553Z 04013KT 10SM FEW250 21/13 A2998 RMK AO2 SLP155 T02060128 10278 20206 50007=
202107270453 METAR KSEA 270453Z 04008KT 10SM FEW250 23/12 A2998 RMK AO2 SLP155 T02280117=
202107270353 METAR KSEA 270353Z 04010KT 10SM FEW050 SCT250 24/11 A2996 RMK AO2 SLP151 T02390111=
202107270253 METAR KSEA 270253Z 35007KT 10SM FEW050 SCT250 25/11 A2995 RMK AO2 SLP146 T02500111 56005=
202107270153 METAR KSEA 270153Z 35006KT 10SM FEW050 FEW250 27/11 A2995 RMK AO2 SLP147 T02670106=
202107270053 METAR KSEA 270053Z 34012KT 10SM FEW050 FEW250 27/10 A2996 RMK AO2 SLP148 T02720100=
202107262353 METAR KSEA 262353Z 35010KT 10SM FEW050 FEW250 28/11 A2997 RMK AO2 SLP152 T02780106 10283 20206 56013=
202107262253 METAR KSEA 262253Z 35010KT 10SM FEW040 FEW250 28/11 A2998 RMK AO2 SLP155 T02780106=
202107262153 METAR KSEA 262153Z 01011KT 10SM FEW040 FEW250 27/11 A3000 RMK AO2 SLP161 T02720111=
202107262053 METAR KSEA 262053Z 32009KT 10SM FEW040 FEW250 26/13 A3001 RMK AO2 SLP164 T02610133 58007=
202107261953 METAR KSEA 261953Z 32006KT 10SM FEW030 FEW250 25/13 A3002 RMK AO2 SLP167 T02500133=
202107261853 METAR KSEA 261853Z 29007KT 10SM FEW030 FEW250 23/13 A3002 RMK AO2 SLP171 T02280128=
202107261753 METAR KSEA 261753Z 28005KT 10SM FEW030 FEW250 21/13 A3003 RMK AO2 SLP173 T02110128 10211 20156 58003=
202107261653 METAR KSEA 261653Z 23004KT 10SM FEW015 FEW250 19/12 A3004 RMK AO2 SLP175 T01940122=
202107261553 METAR KSEA 261553Z 23006KT 10SM FEW015 FEW250 18/12 A3004 RMK AO2 SLP176 T01830122=
202107261453 METAR KSEA 261453Z 08004KT 10SM FEW060 FEW250 18/12 A3004 RMK AO2 SLP175 T01830122 53007=
202107261353 METAR KSEA 261353Z 05007KT 10SM FEW060 SCT120 SCT250 17/12 A3003 RMK AO2 SLP172 T01670117=
202107261253 METAR KSEA 261253Z 02010KT 10SM SCT060 SCT140 SCT250 16/12 A3002 RMK AO2 SLP170 T01560117=
202107261153 METAR KSEA 261153Z 01009KT 10SM SCT140 16/12 A3002 RMK AO2 SLP168 T01610117 10200 20156 56002=
202107261053 METAR KSEA 261053Z 02009KT 10SM SCT140 16/12 A3002 RMK AO2 SLP169 T01610117=
202107260953 METAR KSEA 260953Z 36009KT 10SM CLR 16/12 A3002 RMK AO2 SLP168 T01610117=
202107260853 METAR KSEA 260853Z 36008KT 10SM CLR 17/12 A3002 RMK AO2 SLP170 T01670117 53004=
202107260753 METAR KSEA 260753Z 03015KT 10SM CLR 18/12 A3001 RMK AO2 SLP166 T01780122 402940156=
202107260653 METAR KSEA 260653Z 01012KT 10SM CLR 19/12 A3001 RMK AO2 SLP167 T01890122=
202107260553 METAR KSEA 260553Z 03015KT 10SM CLR 20/13 A3001 RMK AO2 SLP167 T02000128 10289 20200 51005=
202107260453 METAR KSEA 260453Z 02013KT 10SM CLR 21/13 A3001 RMK AO2 SLP166 T02110133=
202107260353 METAR KSEA 260353Z 01012KT 10SM CLR 23/13 A3000 RMK AO2 SLP164 T02280128=
202107260253 METAR KSEA 260253Z 36012KT 10SM FEW030 26/12 A3000 RMK AO2 SLP161 T02560122 55007=
202107260153 METAR KSEA 260153Z 01009KT 10SM FEW030 27/12 A2999 RMK AO2 SLP160 T02720122=
202107260053 METAR KSEA 260053Z 04007KT 360V060 10SM FEW030 28/13 A3000 RMK AO2 SLP164 T02830128=
202107252353 METAR KSEA 252353Z VRB04KT 10SM FEW030 29/12 A3002 RMK AO2 SLP168 T02890117 10294 20211 58016=
202107252253 METAR KSEA 252253Z 36007KT 10SM FEW030 28/12 A3004 RMK AO2 SLP175 T02830117=
202107252153 METAR KSEA 252153Z 02005KT 10SM FEW030 28/13 A3006 RMK AO2 SLP181 T02830128=
202107252053 METAR KSEA 252053Z 31008KT 10SM FEW030 26/13 A3007 RMK AO2 SLP184 T02610128 58010=
202107251953 METAR KSEA 251953Z 31007KT 10SM FEW030 26/13 A3008 RMK AO2 SLP189 T02560133=
202107251853 METAR KSEA 251853Z 28007KT 10SM FEW030 23/13 A3009 RMK AO2 SLP193 T02280128=
202107251753 METAR KSEA 251753Z 29007KT 10SM FEW030 21/13 A3010 RMK AO2 SLP195 T02110133 10217 20156 58004=
202107251653 METAR KSEA 251653Z 29005KT 10SM CLR 21/13 A3011 RMK AO2 SLP199 T02060133=
202107251553 METAR KSEA 251553Z 24004KT 10SM CLR 19/13 A3011 RMK AO2 SLP202 T01890133=
202107251453 METAR KSEA 251453Z 35003KT 10SM CLR 19/13 A3011 RMK AO2 SLP199 T01890133 51010=
202107251353 METAR KSEA 251353Z 00000KT 10SM CLR 18/13 A3010 RMK AO2 SLP197 T01780133=
202107251253 METAR KSEA 251253Z 34005KT 10SM CLR 16/13 A3009 RMK AO2 SLP192 T01560128=
202107251153 METAR KSEA 251153Z 01005KT 10SM CLR 16/12 A3008 RMK AO2 SLP189 T01610122 10222 20161 53001=
202107251053 METAR KSEA 251053Z 34005KT 10SM CLR 17/12 A3008 RMK AO2 SLP188 T01670122=
202107250953 METAR KSEA 250953Z 03011KT 10SM CLR 19/12 A3007 RMK AO2 SLP186 T01890122=
202107250853 METAR KSEA 250853Z 34007KT 10SM CLR 17/12 A3007 RMK AO2 SLP187 T01720122 52000=
202107250753 METAR KSEA 250753Z 03009KT 10SM CLR 19/12 A3008 RMK AO2 SLP188 T01940122 402890156=
202107250653 METAR KSEA 250653Z 02009KT 10SM CLR 21/12 A3007 RMK AO2 SLP187 T02060122=
202107250553 METAR KSEA 250553Z 04009KT 10SM CLR 22/12 A3007 RMK AO2 SLP187 T02220122 10283 20222 53003=
202107250453 METAR KSEA 250453Z 03007KT 10SM CLR 23/12 A3007 RMK AO2 SLP186 T02330117=
202107250353 METAR KSEA 250353Z 36007KT 10SM CLR 23/12 A3007 RMK AO2 SLP184 T02280122=
202107250253 METAR KSEA 250253Z 36007KT 10SM FEW030 26/12 A3007 RMK AO2 SLP184 T02560122 56013=
202107250153 METAR KSEA 250153Z 36009KT 10SM FEW030 27/12 A3007 RMK AO2 SLP186 T02670122=
202107250053 METAR KSEA 250053Z 35011KT 10SM FEW030 27/12 A3009 RMK AO2 SLP192 T02720117=
202107242353 METAR KSEA 242353Z 34012KT 10SM FEW030 28/11 A3010 RMK AO2 SLP197 T02780111 10289 20222 58014=
202107242253 METAR KSEA 242253Z 36015KT 10SM FEW030 28/11 A3012 RMK AO2 SLP203 T02830111=
202107242153 METAR KSEA 242153Z 35010KT 10SM FEW030 28/12 A3013 RMK AO2 SLP207 T02780117=
202107242053 METAR KSEA 242053Z 35009KT 10SM FEW030 27/13 A3014 RMK AO2 SLP211 T02670133 58015=
202107241953 METAR KSEA 241953Z VRB06KT 10SM FEW020 25/14 A3016 RMK AO2 SLP217 T02500139=
202107241853 METAR KSEA 241853Z 36007KT 330V050 10SM CLR 25/13 A3018 RMK AO2 SLP222 T02500133=
202107241753 METAR KSEA 241753Z 34007KT 10SM CLR 23/13 A3019 RMK AO2 SLP227 T02330133 10233 20156 58005=
202107241653 METAR KSEA 241653Z VRB03KT 10SM CLR 21/14 A3021 RMK AO2 SLP233 T02110139=
202107241553 METAR KSEA 241553Z 02008KT 10SM FEW180 20/14 A3021 RMK AO2 SLP233 T02000139=
202107241453 METAR KSEA 241453Z 05008KT 10SM CLR 18/13 A3021 RMK AO2 SLP233 T01830133 53005=
202107241353 METAR KSEA 241353Z 03010KT 10SM FEW080 17/13 A3019 RMK AO2 SLP229 T01720133=
202107241253 METAR KSEA 241253Z 02006KT 10SM FEW090 17/13 A3019 RMK AO2 SLP227 T01670133=
202107241153 METAR KSEA 241153Z 35005KT 10SM SCT250 16/13 A3019 RMK AO2 SLP228 T01560128 10206 20156 58005=
202107241053 METAR KSEA 241053Z 03006KT 10SM CLR 18/13 A3020 RMK AO2 SLP229 T01780133=
202107240953 METAR KSEA 240953Z 03008KT 10SM CLR 18/13 A3020 RMK AO2 SLP232 T01780133=
202107240853 METAR KSEA 240853Z 02006KT 10SM CLR 18/13 A3021 RMK AO2 SLP233 T01830133 56001=
202107240753 METAR KSEA 240753Z 02006KT 10SM CLR 19/13 A3021 RMK AO2 SLP233 T01890133 402670117=
202107240653 METAR KSEA 240653Z 03007KT 10SM CLR 19/13 A3021 RMK AO2 SLP233 T01940128=
202107240553 METAR KSEA 240553Z 03008KT 10SM FEW250 21/13 A3021 RMK AO2 SLP234 T02060128 10267 20206 53001=
202107240453 METAR KSEA 240453Z 02009KT 10SM SCT250 21/12 A3021 RMK AO2 SLP235 T02060117=
202107240353 METAR KSEA 240353Z 35008KT 10SM FEW250 21/11 A3020 RMK AO2 SLP232 T02110111=
202107240253 METAR KSEA 240253Z 33009KT 10SM FEW050 FEW250 23/11 A3021 RMK AO2 SLP233 T02330106 56010=
202107240153 METAR KSEA 240153Z 35011KT 10SM FEW050 FEW250 25/10 A3021 RMK AO2 SLP234 T02500100=
202107240053 METAR KSEA 240053Z 35008KT 10SM FEW050 FEW250 26/09 A3022 RMK AO2 SLP238 T02610094=
202107232353 METAR KSEA 232353Z 28009KT 10SM FEW050 26/08 A3024 RMK AO2 SLP243 T02610078 10261 20189 58012=
202107232253 METAR KSEA 232253Z 28007KT 10SM FEW050 25/09 A3026 RMK AO2 SLP250 T02500089=
202107232153 METAR KSEA 232153Z 29006KT 10SM FEW050 24/08 A3026 RMK AO2 SLP252 T02440078=
202107232053 METAR KSEA 232053Z 30006KT 10SM FEW040 23/09 A3027 RMK AO2 SLP255 T02280094 58005=
202107231953 METAR KSEA 231953Z VRB03KT 10SM FEW030 22/09 A3028 RMK AO2 SLP258 T02170094=
202107231853 METAR KSEA 231853Z VRB06KT 10SM FEW030 21/10 A3029 RMK AO2 SLP261 T02060100=
202107231753 METAR KSEA 231753Z 29007KT 10SM FEW025 FEW120 19/09 A3029 RMK AO2 SLP261 T01940094 10194 20117 51006=
202107231653 METAR KSEA 231653Z 28005KT 10SM FEW025 FEW120 18/10 A3028 RMK AO2 SLP260 T01780100=
202107231553 METAR KSEA 231553Z VRB03KT 10SM FEW025 FEW120 16/11 A3028 RMK AO2 SLP258 T01610106=
202107231453 METAR KSEA 231453Z 22004KT 10SM FEW120 14/11 A3027 RMK AO2 SLP254 T01440106 53013=
202107231353 METAR KSEA 231353Z AUTO 21004KT 10SM FEW120 13/11 A3026 RMK AO2 SLP250 T01330111=
202107231253 METAR KSEA 231253Z 19004KT 10SM FEW120 FEW250 12/10 A3024 RMK AO2 SLP245 T01220100=
202107231153 METAR KSEA 231153Z 00000KT 10SM FEW120 12/09 A3023 RMK AO2 SLP241 T01170094 10172 20117 51009=
202107231053 METAR KSEA 231053Z 27003KT 10SM CLR 13/10 A3023 RMK AO2 SLP240 T01280100=
202107230953 METAR KSEA 230953Z 27003KT 10SM CLR 13/09 A3021 RMK AO2 SLP235 T01280094=
202107230853 METAR KSEA 230853Z 30003KT 10SM CLR 14/09 A3020 RMK AO2 SLP231 T01390094 51009=
202107230753 METAR KSEA 230753Z 29003KT 10SM CLR 14/09 A3019 RMK AO2 SLP229 T01390094 402500117=
202107230653 METAR KSEA 230653Z 31003KT 10SM CLR 16/08 A3018 RMK AO2 SLP225 T01560083=
202107230553 METAR KSEA 230553Z 36006KT 10SM FEW250 17/08 A3018 RMK AO2 SLP223 T01670078 10244 20167 53012=
202107230453 METAR KSEA 230453Z 31005KT 10SM SCT250 17/07 A3016 RMK AO2 SLP218 T01720067=
202107230353 METAR KSEA 230353Z 01007KT 10SM FEW040 BKN250 21/07 A3014 RMK AO2 SLP210 T02060067=
202107230253 METAR KSEA 230253Z 33006KT 10SM FEW040 BKN250 21/07 A3014 RMK AO2 SLP210 T02110072 55002=
202107230153 METAR KSEA 230153Z 33005KT 10SM FEW040 SCT250 23/08 A3013 RMK AO2 SLP209 T02330083=
202107230053 METAR KSEA 230053Z 03007KT 10SM FEW040 FEW250 24/07 A3014 RMK AO2 SLP210 T02440067=
202107222353 METAR KSEA 222353Z 32008KT 10SM FEW040 FEW250 24/09 A3014 RMK AO2 SLP212 T02390089 10250 20183 58011=
202107222253 METAR KSEA 222253Z 34009KT 10SM FEW040 FEW250 24/06 A3016 RMK AO2 SLP217 T02440056=
202107222153 METAR KSEA 222153Z 27007KT 10SM FEW035 SCT250 23/07 A3017 RMK AO2 SLP220 T02280067=
202107222053 METAR KSEA 222053Z 28007KT 10SM SCT035 BKN250 22/08 A3018 RMK AO2 SLP223 T02170083 56004=
202107221953 METAR KSEA 221953Z 29011KT 10SM FEW037 SCT250 21/09 A3018 RMK AO2 SLP225 T02110089=
202107221853 METAR KSEA 221853Z 31009KT 10SM SCT031 SCT250 20/10 A3019 RMK AO2 SLP226 T02000100=
202107221753 METAR KSEA 221753Z 31008KT 10SM FEW025 SCT040 SCT250 19/11 A3019 RMK AO2 SLP229 T01890106 10189 20117 50000=
202107221653 METAR KSEA 221653Z 04006KT 10SM FEW025 FEW050 SCT250 18/10 A3019 RMK AO2 SLP230 T01830100=
202107221553 METAR KSEA 221553Z 00000KT 10SM FEW015 SCT050 17/10 A3019 RMK AO2 SLP229 T01720100=
202107221453 METAR KSEA 221453Z 06007KT 10SM FEW015 BKN050 15/09 A3019 RMK AO2 SLP228 T01500089 53006=
202107221353 METAR KSEA 221353Z 06005KT 10SM FEW025 BKN049 14/09 A3019 RMK AO2 SLP227 T01440094=
202107221253 METAR KSEA 221253Z 00000KT 10SM FEW026 FEW043 SCT060 12/11 A3017 RMK AO2 SLP222 T01170106=
202107221153 METAR KSEA 221153Z 00000KT 10SM FEW043 SCT060 BKN140 13/11 A3017 RMK AO2 SLP223 T01280106 10161 20122 53004=
202107221053 METAR KSEA 221053Z 18004KT 10SM BKN060 13/11 A3017 RMK AO2 SLP221 T01330106=
202107220953 METAR KSEA 220953Z 05005KT 10SM FEW042 OVC060 16/09 A3016 RMK AO2 SLP218 T01560089=
202107220853 METAR KSEA 220853Z 06005KT 10SM BKN065 16/09 A3016 RMK AO2 SLP218 T01560089 51005=
202107220753 METAR KSEA 220753Z 07003KT 10SM BKN060 16/09 A3016 RMK AO2 SLP218 T01610089 402220133=
202107220653 METAR KSEA 220653Z 00000KT 10SM BKN055 15/09 A3016 RMK AO2 SLP217 T01500094=
202107220553 METAR KSEA 220553Z 00000KT 10SM BKN040 16/09 A3015 RMK AO2 SLP214 T01560094 10222 20156 51010=
202107220453 METAR KSEA 220453Z 32004KT 10SM SCT045 16/09 A3014 RMK AO2 SLP211 T01610094=
202107220353 METAR KSEA 220353Z 33005KT 10SM SCT045 18/10 A3013 RMK AO2 SLP207 T01780100=
202107220253 METAR KSEA 220253Z 30007KT 10SM SCT045 20/11 A3012 RMK AO2 SLP204 T02000106 56006=
202107220153 METAR KSEA 220153Z 32004KT 10SM SCT060 22/09 A3012 RMK AO2 SLP204 T02170089=
202107220053 METAR KSEA 220053Z 31006KT 10SM FEW045 SCT090 22/09 A3013 RMK AO2 SLP207 T02220089=
202107212353 METAR KSEA 212353Z 24006KT 10SM SCT045 SCT090 21/09 A3014 RMK AO2 SLP210 T02110094 10222 20156 58008=
202107212253 METAR KSEA 212253Z VRB05KT 10SM SCT034 SCT100 21/10 A3016 RMK AO2 SLP216 T02110100=
202107212153 METAR KSEA 212153Z 25005KT 10SM SCT033 SCT100 21/09 A3016 RMK AO2 SLP216 T02060094=
202107212053 METAR KSEA 212053Z 20005KT 10SM SCT030 BKN037 19/10 A3016 RMK AO2 SLP219 T01940100 58001=
202107211953 METAR KSEA 211953Z VRB05KT 10SM FEW026 BKN031 BKN060 18/10 A3017 RMK AO2 SLP222 T01830100=
202107211943 SPECI KSEA 211943Z 24006KT 10SM OVC031 18/10 A3017 RMK AO2 T01780100=
202107211853 METAR KSEA 211853Z VRB04KT 10SM OVC023 17/10 A3017 RMK AO2 SLP222 T01670100=
202107211753 METAR KSEA 211753Z 16006KT 10SM OVC021 16/10 A3017 RMK AO2 SLP220 T01610100 10161 20133 51008=
202107211653 METAR KSEA 211653Z 19005KT 10SM SCT016 OVC024 14/10 A3016 RMK AO2 SLP218 T01440100=
202107211553 METAR KSEA 211553Z 20008KT 10SM SCT015 BKN025 OVC040 14/10 A3015 RMK AO2 SLP216 T01390100=
202107211453 METAR KSEA 211453Z 14006KT 10SM BKN025 OVC040 13/10 A3014 RMK AO2 SLP212 T01330100 51006=
202107211353 METAR KSEA 211353Z 19005KT 10SM OVC021 13/09 A3013 RMK AO2 SLP209 T01330094=
202107211253 METAR KSEA 211253Z 20005KT 10SM OVC018 13/10 A3013 RMK AO2 SLP207 T01330100=
202107211153 METAR KSEA 211153Z 23004KT 10SM OVC019 14/11 A3012 RMK AO2 SLP205 T01390106 10172 20139 52006=
202107211053 METAR KSEA 211053Z 24004KT 10SM OVC021 14/11 A3012 RMK AO2 SLP203 T01390106=
202107210953 METAR KSEA 210953Z 26004KT 10SM OVC026 14/11 A3011 RMK AO2 SLP201 T01440106=
202107210853 METAR KSEA 210853Z 26003KT 10SM OVC027 14/11 A3010 RMK AO2 SLP199 T01440111 51006=
202107210812 SPECI KSEA 210812Z 00000KT 10SM BKN028 BKN060 14/11 A3010 RMK AO2 T01390106=
202107210753 METAR KSEA 210753Z 24003KT 10SM FEW030 BKN060 14/11 A3010 RMK AO2 SLP197 T01390106 402220139=
202107210653 METAR KSEA 210653Z 30003KT 10SM BKN032 16/10 A3009 RMK AO2 SLP196 T01560100=
202107210553 METAR KSEA 210553Z 01008KT 10SM BKN055 17/11 A3009 RMK AO2 SLP193 T01720106 10222 20156 53000=
202107210453 METAR KSEA 210453Z 34004KT 10SM FEW035 17/11 A3009 RMK AO2 SLP194 T01720111=
202107210353 METAR KSEA 210353Z 01007KT 10SM FEW034 19/12 A3008 RMK AO2 SLP191 T01940117=
202107210253 METAR KSEA 210253Z 30005KT 10SM FEW034 21/12 A3009 RMK AO2 SLP193 T02060117 56016=
202107210153 METAR KSEA 210153Z 31003KT 10SM SCT034 22/12 A3010 RMK AO2 SLP197 T02170117=
202107210053 METAR KSEA 210053Z 28007KT 10SM SCT035 22/12 A3012 RMK AO2 SLP203 T02170117=
202107202353 METAR KSEA 202353Z 25006KT 10SM SCT032 21/11 A3013 RMK AO2 SLP209 T02110111 10222 20167 58016=
202107202328 SPECI KSEA 202328Z 30007KT 10SM BKN030 22/11 A3014 RMK AO2 T02170111=
202107202253 METAR KSEA 202253Z 01006KT 10SM BKN027 22/12 A3015 RMK AO2 SLP215 T02220117=
202107202153 METAR KSEA 202153Z 23008KT 170V250 10SM OVC030 20/12 A3017 RMK AO2 SLP221 T02000117=
202107202053 METAR KSEA 202053Z 21007KT 10SM OVC023 18/12 A3018 RMK AO2 SLP226 T01830117 58003=
202107201953 METAR KSEA 201953Z 24007KT 10SM FEW017 OVC022 17/12 A3019 RMK AO2 SLP229 T01720117=
202107201853 METAR KSEA 201853Z 21007KT 10SM SCT017 OVC024 17/12 A3019 RMK AO2 SLP229 T01720117=
202107201753 METAR KSEA 201753Z 20008KT 10SM FEW008 OVC016 17/12 A3019 RMK AO2 DZE49 SLP229 P0000 60000 T01670117 10167 20139 50003=
202107201653 METAR KSEA 201653Z 20007KT 150V220 7SM -DZ SCT005 OVC017 14/12 A3020 RMK AO2 DZB50 SLP231 P0000 T01440122=
202107201624 SPECI KSEA 201624Z 20007KT 7SM FEW005 OVC016 15/13 A3019 RMK AO2 T01500128=
202107201553 METAR KSEA 201553Z 21005KT 7SM FEW005 OVC013 14/13 A3019 RMK AO2 DZE30 SLP227 P0000 T01440128=
202107201531 SPECI KSEA 201531Z 21007KT 7SM SCT005 OVC013 14/13 A3019 RMK AO2 DZE30 P0000 T01440133=
202107201510 SPECI KSEA 201510Z 23004KT 7SM -DZ BKN005 OVC013 14/13 A3018 RMK AO2 P0000 T01440133=
202107201453 METAR KSEA 201453Z 23007KT 6SM -DZ BR FEW005 OVC013 14/13 A3018 RMK AO2 DZB48 SLP225 P0000 60000 T01390133 53010=
202107201436 SPECI KSEA 201436Z 22006KT 5SM BR FEW007 OVC013 14/13 A3018 RMK AO2 T01390128=
202107201353 METAR KSEA 201353Z 25006KT 10SM FEW007 OVC015 14/13 A3017 RMK AO2 SLP222 T01440128=
202107201325 SPECI KSEA 201325Z 25006KT 10SM FEW007 OVC015 14/13 A3017 RMK AO2 T01440128=
202107201305 SPECI KSEA 201305Z 23006KT 7SM FEW008 OVC013 15/13 A3016 RMK AO2 T01500128=
202107201253 METAR KSEA 201253Z 21005KT 10SM OVC013 15/13 A3016 RMK AO2 SLP217 SHRA SW-W T01500128=
202107201153 METAR KSEA 201153Z 23005KT 10SM OVC013 15/13 A3015 RMK AO2 SLP215 CIG 011V015 T01500128 10172 20150 53004=
202107201053 METAR KSEA 201053Z 21006KT 10SM BKN013 OVC019 16/13 A3015 RMK AO2 SLP213 T01560128=
202107201001 SPECI KSEA 201001Z 20006KT 10SM OVC014 16/13 A3014 RMK AO2 T01560128=
202107200953 METAR KSEA 200953Z 17007KT 10SM BKN015 OVC020 16/13 A3014 RMK AO2 SLP212 T01560128=
202107200921 SPECI KSEA 200921Z 22006KT 10SM OVC019 16/13 A3014 RMK AO2 T01560128=
202107200853 METAR KSEA 200853Z 24006KT 10SM SCT018 16/13 A3014 RMK AO2 SLP211 T01560128 53007=
202107200753 METAR KSEA 200753Z 21007KT 10SM SCT017 16/13 A3013 RMK AO2 SLP208 T01560128 402780128=
202107200653 METAR KSEA 200653Z 20007KT 10SM CLR 17/13 A3012 RMK AO2 SLP204 T01670128=
202107200553 METAR KSEA 200553Z 27003KT 10SM CLR 17/10 A3012 RMK AO2 SLP204 T01720100 10272 20172 53013=
202107200453 METAR KSEA 200453Z 22003KT 10SM CLR 19/10 A3011 RMK AO2 SLP200 T01890100=
202107200353 METAR KSEA 200353Z 26006KT 10SM FEW050 21/10 A3009 RMK AO2 SLP194 T02060100=
202107200253 METAR KSEA 200253Z 25004KT 10SM FEW050 24/10 A3008 RMK AO2 SLP190 T02390100 53000=
202107200153 METAR KSEA 200153Z 25008KT 10SM FEW050 26/11 A3007 RMK AO2 SLP187 T02560106=
202107200053 METAR KSEA 200053Z 18009KT 10SM FEW050 27/11 A3008 RMK AO2 SLP189 T02670111=
202107192353 METAR KSEA 192353Z 17008KT 10SM FEW050 27/09 A3008 RMK AO2 SLP190 T02720094 10278 20211 58009=
202107192253 METAR KSEA 192253Z 22006KT 10SM FEW050 27/09 A3009 RMK AO2 SLP194 T02670094=
202107192153 METAR KSEA 192153Z 25007KT 10SM FEW050 FEW150 26/11 A3010 RMK AO2 SLP197 T02610111=
202107192053 METAR KSEA 192053Z VRB06KT 10SM FEW050 FEW150 24/12 A3011 RMK AO2 SLP199 T02440117 56008=
202107191953 METAR KSEA 191953Z 27006KT 10SM FEW040 FEW150 24/11 A3011 RMK AO2 SLP202 T02440106=
202107191853 METAR KSEA 191853Z VRB04KT 10SM CLR 22/12 A3012 RMK AO2 SLP203 T02220117=
202107191753 METAR KSEA 191753Z 27007KT 10SM CLR 21/12 A3013 RMK AO2 SLP207 T02060117 10211 20128 58003=
202107191653 METAR KSEA 191653Z 26005KT 10SM CLR 19/11 A3014 RMK AO2 SLP210 T01940111=
202107191553 METAR KSEA 191553Z 28004KT 10SM CLR 18/12 A3014 RMK AO2 SLP210 T01780117=
202107191453 METAR KSEA 191453Z 22003KT 10SM CLR 17/12 A3014 RMK AO2 SLP210 T01670117 53005=
202107191353 METAR KSEA 191353Z 00000KT 10SM CLR 16/11 A3013 RMK AO2 SLP208 T01560111=
202107191253 METAR KSEA 191253Z 00000KT 10SM CLR 13/10 A3013 RMK AO2 SLP206 T01330100=
202107191153 METAR KSEA 191153Z 00000KT 10SM CLR 14/10 A3012 RMK AO2 SLP205 T01390100 10178 20139 51006=
202107191053 METAR KSEA 191053Z 03003KT 10SM CLR 15/09 A3012 RMK AO2 SLP204 T01500094=
202107190953 METAR KSEA 190953Z 36005KT 10SM CLR 15/09 A3011 RMK AO2 SLP200 T01500094=
202107190853 METAR KSEA 190853Z 02007KT 10SM CLR 17/09 A3010 RMK AO2 SLP199 T01670094 50002=
202107190753 METAR KSEA 190753Z 02008KT 10SM CLR 18/10 A3011 RMK AO2 SLP199 T01780100 402670139=
202107190653 METAR KSEA 190653Z 34006KT 10SM CLR 17/10 A3010 RMK AO2 SLP198 T01670100=
202107190553 METAR KSEA 190553Z 35007KT 10SM CLR 18/10 A3010 RMK AO2 SLP196 T01780100 10261 20178 53004=
202107190453 METAR KSEA 190453Z 33007KT 10SM FEW150 19/11 A3010 RMK AO2 SLP195 T01890106=
202107190353 METAR KSEA 190353Z 35006KT 10SM FEW150 21/11 A3009 RMK AO2 SLP193 T02060111=
202107190253 METAR KSEA 190253Z 34006KT 10SM FEW150 SCT220 23/10 A3009 RMK AO2 SLP192 T02330100 56006=
202107190153 METAR KSEA 190153Z 30005KT 10SM FEW150 SCT220 26/11 A3009 RMK AO2 SLP193 T02560111=
202107190053 METAR KSEA 190053Z 31007KT 10SM FEW030 SCT220 26/11 A3010 RMK AO2 SLP196 T02560106=
202107182353 METAR KSEA 182353Z 31008KT 10SM FEW030 SCT220 26/11 A3010 RMK AO2 SLP198 T02560106 10267 20194 57013=
202107182253 METAR KSEA 182253Z 31007KT 10SM FEW030 SCT220 26/11 A3012 RMK AO2 SLP202 T02560106=
202107182153 METAR KSEA 182153Z 29009KT 10SM FEW030 SCT220 25/11 A3013 RMK AO2 SLP208 T02500111=
202107182053 METAR KSEA 182053Z 31009KT 10SM FEW020 FEW210 24/11 A3014 RMK AO2 SLP212 T02440111 58008=
202107181953 METAR KSEA 181953Z 27007KT 10SM FEW020 FEW200 23/11 A3016 RMK AO2 SLP216 T02280111=
202107181853 METAR KSEA 181853Z VRB05KT 10SM FEW020 FEW200 21/11 A3017 RMK AO2 SLP220 T02060106=
202107181753 METAR KSEA 181753Z 27006KT 10SM FEW020 FEW210 20/11 A3017 RMK AO2 SLP221 T02000106 10200 20150 50001=
202107181653 METAR KSEA 181653Z 28007KT 10SM FEW020 FEW230 19/11 A3017 RMK AO2 SLP222 T01940106=
202107181553 METAR KSEA 181553Z 00000KT 10SM FEW070 FEW130 SCT220 18/09 A3017 RMK AO2 SLP222 T01780089=
202107181453 METAR KSEA 181453Z 07003KT 10SM FEW050 SCT120 SCT210 17/09 A3017 RMK AO2 SLP219 T01720094 51007=
202107181353 METAR KSEA 181353Z 00000KT 10SM FEW050 SCT100 16/11 A3016 RMK AO2 SLP218 T01560106=
202107181253 METAR KSEA 181253Z 07004KT 10SM SCT060 15/10 A3015 RMK AO2 SLP214 T01500100=
202107181153 METAR KSEA 181153Z 05005KT 10SM SCT050 15/10 A3015 RMK AO2 SLP212 T01500100 10172 20139 50004=
202107181053 METAR KSEA 181053Z 03004KT 10SM BKN055 15/10 A3015 RMK AO2 SLP213 T01500100=
202107180953 METAR KSEA 180953Z 04008KT 10SM BKN060 16/10 A3014 RMK AO2 SLP210 T01560100=
202107180853 METAR KSEA 180853Z 35005KT 10SM BKN055 16/10 A3013 RMK AO2 SLP208 T01560100 53010=
202107180753 METAR KSEA 180753Z VRB03KT 10SM SCT060 16/10 A3012 RMK AO2 SLP205 T01610100 402500128=
202107180653 METAR KSEA 180653Z 35005KT 10SM FEW060 FEW250 17/10 A3011 RMK AO2 SLP201 T01670100=
202107180553 METAR KSEA 180553Z 36007KT 10SM SCT055 BKN250 17/11 A3010 RMK AO2 SLP198 T01720106 10250 20172 51011=
202107180453 METAR KSEA 180453Z 35006KT 10SM FEW055 BKN250 17/11 A3010 RMK AO2 SLP197 T01720106=
202107180353 METAR KSEA 180353Z 35010KT 10SM SCT055 BKN250 19/11 A3008 RMK AO2 SLP190 T01890106=
202107180253 METAR KSEA 180253Z 32010KT 10SM SCT050 SCT250 21/11 A3007 RMK AO2 SLP187 T02060111 55000=
202107180153 METAR KSEA 180153Z 35009KT 10SM SCT050 SCT250 23/11 A3006 RMK AO2 SLP184 T02330111=
202107180053 METAR KSEA 180053Z 29007KT 10SM SCT050 SCT250 24/12 A3006 RMK AO2 SLP185 T02390117=
202107172353 METAR KSEA 172353Z 30006KT 10SM SCT040 SCT250 24/12 A3007 RMK AO2 SLP187 T02440117 10244 20189 58011=
202107172253 METAR KSEA 172253Z 30006KT 10SM SCT040 24/12 A3008 RMK AO2 SLP191 T02390117=
202107172153 METAR KSEA 172153Z 32005KT 10SM SCT036 23/12 A3010 RMK AO2 SLP196 T02330122=
202107172053 METAR KSEA 172053Z 25006KT 10SM SCT030 22/12 A3010 RMK AO2 SLP198 T02170122 58002=
202107171953 METAR KSEA 171953Z 27006KT 10SM SCT028 21/12 A3011 RMK AO2 SLP201 T02060122=
202107171853 METAR KSEA 171853Z 26005KT 10SM SCT028 19/12 A3011 RMK AO2 SLP202 T01890117=
202107171753 METAR KSEA 171753Z 22008KT 10SM SCT023 BKN030 19/12 A3011 RMK AO2 SLP201 T01890117 10200 20128 50003=
202107171653 METAR KSEA 171653Z 23010KT 10SM BKN018 BKN065 17/12 A3011 RMK AO2 SLP202 T01720117=
202107171553 METAR KSEA 171553Z 21006KT 10SM FEW018 SCT033 BKN065 17/12 A3010 RMK AO2 SLP199 T01720117=
202107171453 METAR KSEA 171453Z 18006KT 10SM BKN032 OVC065 16/11 A3010 RMK AO2 SLP198 T01560111 53012=
202107171419 SPECI KSEA 171419Z 19005KT 10SM SCT029 OVC060 15/11 A3010 RMK AO2 T01500111=
202107171353 METAR KSEA 171353Z 18005KT 10SM OVC029 15/12 A3009 RMK AO2 SLP195 T01500117=
202107171335 SPECI KSEA 171335Z 17004KT 10SM OVC030 15/12 A3009 RMK AO2 T01500117=
202107171308 SPECI KSEA 171308Z 18003KT 10SM BKN028 13/12 A3008 RMK AO2 T01330117=
202107171253 METAR KSEA 171253Z 18005KT 10SM FEW029 SCT035 13/12 A3007 RMK AO2 SLP189 T01330117=
202107171153 METAR KSEA 171153Z 00000KT 10SM SCT025 SCT035 14/11 A3007 RMK AO2 SLP187 T01390111 10161 20133 51005=
202107171053 METAR KSEA 171053Z 21004KT 10SM BKN033 BKN080 14/11 A3006 RMK AO2 SLP186 T01390111=
202107170953 METAR KSEA 170953Z 22005KT 10SM BKN035 BKN043 14/11 A3006 RMK AO2 SLP184 T01440111=
202107170853 METAR KSEA 170853Z 19006KT 10SM BKN044 14/12 A3005 RMK AO2 SLP181 T01440117 53000=
202107170753 METAR KSEA 170753Z 23005KT 10SM SCT040 SCT085 15/11 A3005 RMK AO2 SLP181 T01500111 402170133=
202107170653 METAR KSEA 170653Z 21007KT 10SM BKN085 16/11 A3005 RMK AO2 SLP181 T01560111=
202107170553 METAR KSEA 170553Z 21004KT 10SM SCT055 BKN085 16/11 A3005 RMK AO2 SLP181 T01610111 10211 20161 51004=
202107170453 METAR KSEA 170453Z 26004KT 10SM BKN055 BKN250 17/11 A3005 RMK AO2 SLP181 T01720111=
202107170353 METAR KSEA 170353Z 21006KT 10SM BKN060 BKN250 18/12 A3004 RMK AO2 SLP177 T01830117=
202107170253 METAR KSEA 170253Z 20009KT 10SM FEW030 BKN055 19/12 A3004 RMK AO2 SLP177 T01890117 55004=
202107170153 METAR KSEA 170153Z 20009KT 10SM FEW028 BKN055 19/12 A3003 RMK AO2 SLP176 T01940122=
202107170053 METAR KSEA 170053Z 22007KT 10SM FEW028 BKN060 20/12 A3004 RMK AO2 SLP177 T02000117=
202107162353 METAR KSEA 162353Z 21008KT 10SM FEW028 BKN060 21/12 A3005 RMK AO2 SLP181 T02060117 10217 20150 56008=
202107162253 METAR KSEA 162253Z 22010KT 10SM FEW025 BKN050 20/12 A3005 RMK AO2 SLP182 T02000117=
202107162153 METAR KSEA 162153Z 21008KT 10SM FEW023 OVC042 19/12 A3006 RMK AO2 SLP186 T01940117=
202107162053 METAR KSEA 162053Z 24008KT 10SM SCT021 OVC047 19/12 A3007 RMK AO2 SLP189 T01890117 58002=
202107162030 SPECI KSEA 162030Z 22009KT 10SM SCT022 OVC047 18/12 A3008 RMK AO2 T01830117=
202107161953 METAR KSEA 161953Z 24009KT 10SM BKN023 OVC049 18/11 A3008 RMK AO2 SLP191 T01830111=
202107161853 METAR KSEA 161853Z 23007KT 10SM BKN017 OVC040 17/11 A3008 RMK AO2 SLP191 T01670111=
202107161827 SPECI KSEA 161827Z 22004KT 10SM OVC015 16/11 A3008 RMK AO2 T01560111=
202107161753 METAR KSEA 161753Z 19006KT 10SM OVC014 15/11 A3008 RMK AO2 SLP191 T01500111 10156 20133 50005=
202107161653 METAR KSEA 161653Z 21007KT 10SM OVC011 14/11 A3008 RMK AO2 SLP192 T01390111=
202107161553 METAR KSEA 161553Z 20005KT 10SM OVC007 13/12 A3008 RMK AO2 SLP190 T01330117=
202107161453 METAR KSEA 161453Z 21006KT 10SM OVC008 13/11 A3006 RMK AO2 SLP186 T01330111 51008=
202107161353 METAR KSEA 161353Z 22007KT 10SM OVC010 13/11 A3006 RMK AO2 SLP184 T01330111=
202107161253 METAR KSEA 161253Z 21006KT 10SM OVC010 14/11 A3005 RMK AO2 SLP183 T01390111=
202107161153 METAR KSEA 161153Z 21006KT 10SM BKN011 OVC040 13/11 A3004 RMK AO2 SLP178 T01330111 10167 20133 53001=
202107161112 SPECI KSEA 161112Z 20007KT 10SM BKN012 OVC041 14/11 A3003 RMK AO2 T01390111=
202107161053 METAR KSEA 161053Z 22006KT 10SM SCT010 OVC040 14/11 A3004 RMK AO2 SLP177 T01390111=
202107160953 METAR KSEA 160953Z 21007KT 10SM SCT010 OVC039 13/11 A3004 RMK AO2 SLP177 T01330111=
202107160950 SPECI KSEA 160950Z 20007KT 10SM SCT010 OVC039 13/11 A3004 RMK AO2=
202107160922 SPECI KSEA 160922Z 20008KT 10SM BKN010 OVC040 13/11 A3004 RMK AO2 T01330111=
202107160853 METAR KSEA 160853Z 20008KT 10SM FEW010 OVC041 14/11 A3004 RMK AO2 SLP176 T01390111 52003=
202107160753 METAR KSEA 160753Z 22008KT 10SM BKN040 14/11 A3003 RMK AO2 SLP176 T01440111 402060122=
202107160653 METAR KSEA 160653Z 22007KT 10SM OVC037 16/12 A3003 RMK AO2 SLP174 T01560117=
202107160553 METAR KSEA 160553Z 20007KT 10SM BKN038 17/12 A3003 RMK AO2 SLP173 T01670117 10206 20167 53003=
202107160453 METAR KSEA 160453Z 23004KT 10SM BKN037 18/12 A3003 RMK AO2 SLP173 T01830117=
202107160353 METAR KSEA 160353Z 26004KT 10SM SCT040 SCT200 18/12 A3002 RMK AO2 SLP170 T01830117=
202107160253 METAR KSEA 160253Z 21006KT 10SM SCT035 SCT200 19/12 A3002 RMK AO2 SLP171 T01940117 56012=
202107160153 METAR KSEA 160153Z 24005KT 10SM SCT035 19/12 A3002 RMK AO2 SLP172 T01940117=
202107160053 METAR KSEA 160053Z 16005KT 10SM SCT033 20/11 A3004 RMK AO2 SLP177 T02000111=
202107152353 METAR KSEA 152353Z 19007KT 10SM SCT030 21/11 A3005 RMK AO2 SLP182 T02060111 10206 20156 58007=
202107152253 METAR KSEA 152253Z 19007KT 10SM SCT029 19/11 A3007 RMK AO2 SLP187 T01940106=
202107152153 METAR KSEA 152153Z 23009KT 10SM SCT026 BKN034 19/11 A3007 RMK AO2 SLP189 T01890106=
202107152053 METAR KSEA 152053Z 21010KT 10SM BKN022 BKN030 18/11 A3008 RMK AO2 SLP190 T01830106 58002=
202107151953 METAR KSEA 151953Z 23007KT 10SM BKN019 17/11 A3008 RMK AO2 SLP192 T01720106=
202107151853 METAR KSEA 151853Z 24008KT 10SM OVC018 16/11 A3008 RMK AO2 SLP191 T01610106=
202107151753 METAR KSEA 151753Z 18007KT 10SM OVC016 15/11 A3008 RMK AO2 SLP192 T01500106 10156 20122 50006=
202107151653 METAR KSEA 151653Z 22007KT 10SM OVC012 14/11 A3008 RMK AO2 SLP192 T01440106=
202107151630 SPECI KSEA 151630Z 19006KT 10SM BKN010 OVC022 14/11 A3008 RMK AO2 T01390106=
202107151553 METAR KSEA 151553Z 20007KT 10SM BKN007 OVC011 14/11 A3007 RMK AO2 SLP189 T01390106=
202107151453 METAR KSEA 151453Z 24008KT 10SM OVC008 13/11 A3006 RMK AO2 SLP186 T01280106 53012=
202107151353 METAR KSEA 151353Z 21007KT 7SM OVC008 13/11 A3005 RMK AO2 SLP180 T01280111=
202107151253 METAR KSEA 151253Z 21006KT 7SM OVC005 12/11 A3004 RMK AO2 SLP178 T01220111=
202107151153 METAR KSEA 151153Z 22009KT 10SM OVC006 13/11 A3003 RMK AO2 SLP173 T01280106 10156 20122 53004=
202107151053 METAR KSEA 151053Z 23008KT 10SM OVC006 13/11 A3002 RMK AO2 SLP172 T01280106=
202107150953 METAR KSEA 150953Z 21009KT 10SM OVC007 13/11 A3002 RMK AO2 SLP171 T01280106=
202107150853 METAR KSEA 150853Z 21009KT 10SM OVC007 13/11 A3002 RMK AO2 SLP170 T01280111 51007=
202107150822 SPECI KSEA 150822Z 21010KT 10SM BKN007 13/11 A3002 RMK AO2 T01280111=
202107150753 METAR KSEA 150753Z 20008KT 10SM FEW010 13/11 A3002 RMK AO2 SLP169 T01280111 402330122=
202107150653 METAR KSEA 150653Z 21007KT 10SM CLR 14/11 A3001 RMK AO2 SLP168 T01440111=
202107150553 METAR KSEA 150553Z 21008KT 10SM FEW080 16/12 A3000 RMK AO2 SLP163 T01560122 10233 20156 53009=
202107150453 METAR KSEA 150453Z 20007KT 10SM FEW200 17/13 A2999 RMK AO2 SLP159 T01720128=
202107150353 METAR KSEA 150353Z 20006KT 10SM CLR 19/14 A2997 RMK AO2 SLP153 T01940139=
202107150253 METAR KSEA 150253Z 21007KT 10SM CLR 21/14 A2997 RMK AO2 SLP154 T02110139 56011=
202107150153 METAR KSEA 150153Z 22006KT 10SM CLR 22/13 A2997 RMK AO2 SLP154 T02220133=
202107150053 METAR KSEA 150053Z 23006KT 10SM CLR 22/13 A2999 RMK AO2 SLP160 T02220133=
202107142353 METAR KSEA 142353Z 26007KT 10SM FEW050 23/13 A3000 RMK AO2 SLP164 T02280133 10228 20144 56015=
202107142253 METAR KSEA 142253Z VRB03KT 10SM FEW050 21/13 A3002 RMK AO2 SLP170 T02110128=
202107142153 METAR KSEA 142153Z 20008KT 10SM FEW050 20/13 A3003 RMK AO2 SLP174 T02000128=
202107142053 METAR KSEA 142053Z VRB05KT 10SM SCT016 19/12 A3005 RMK AO2 SLP180 T01890122 58008=
202107142033 SPECI KSEA 142033Z 19008KT 10SM BKN015 19/12 A3005 RMK AO2 T01890122=
202107141953 METAR KSEA 141953Z 28009KT 10SM BKN012 17/12 A3005 RMK AO2 SLP183 T01720122=
202107141909 SPECI KSEA 141909Z VRB04KT 10SM OVC010 16/12 A3006 RMK AO2 T01610122=
202107141853 METAR KSEA 141853Z VRB05KT 10SM OVC009 16/12 A3006 RMK AO2 SLP185 T01560122=
202107141753 METAR KSEA 141753Z 24005KT 7SM OVC006 14/12 A3007 RMK AO2 SLP188 T01440117 10144 20122 58000=
202107141721 SPECI KSEA 141721Z 20004KT 10SM OVC006 14/12 A3007 RMK AO2 T01390117=
202107141653 METAR KSEA 141653Z 20007KT 3SM BR OVC004 13/12 A3007 RMK AO2 SFC VIS 5 SLP189 T01330117=
202107141644 SPECI KSEA 141644Z 20007KT 2SM BR OVC003 13/12 A3007 RMK AO2 SFC VIS 5 T01330117=
202107141553 METAR KSEA 141553Z 21006KT 1SM R16L/P6000FT BR OVC003 13/12 A3007 RMK AO2 SFC VIS 2 SLP188 T01280117=
202107141534 SPECI KSEA 141534Z 21008KT 1SM R16L/P6000FT BR OVC003 13/12 A3007 RMK AO2 SFC VIS 2 T01280117=
202107141453 METAR KSEA 141453Z 20006KT 1/2SM R16L/P6000FT BR OVC002 12/12 A3007 RMK AO2 SFC VIS 1 SLP187 T01220117 53007=
202107141404 SPECI KSEA 141404Z 20006KT 1/2SM R16L/P6000FT BR OVC002 13/12 A3006 RMK AO2 SFC VIS 6 T01280117=
202107141353 METAR KSEA 141353Z 21006KT 1/2SM R16L/P6000FT BR OVC001 12/12 A3006 RMK AO2 SFC VIS 1 SLP184 T01220117=
202107141259 SPECI KSEA 141259Z 19007KT 1/2SM R16L/P6000FT BR OVC003 12/12 A3006 RMK AO2 SFC VIS 1 T01220117=
202107141253 METAR KSEA 141253Z 19006KT 5SM BR OVC003 12/12 A3005 RMK AO2 SLP181 T01220117=
202107141153 METAR KSEA 141153Z 21006KT 9SM BKN004 13/12 A3005 RMK AO2 SLP180 T01280117 10189 20128 53007=
202107141139 SPECI KSEA 141139Z 21004KT 10SM BKN004 13/12 A3005 RMK AO2 T01280122=
202107141135 SPECI KSEA 141135Z 21003KT 10SM SCT004 13/12 A3005 RMK AO2 T01280117=
202107141130 SPECI KSEA 141130Z 22004KT 10SM BKN004 13/12 A3005 RMK AO2 T01280117=
202107141053 METAR KSEA 141053Z 22004KT 10SM CLR 13/12 A3004 RMK AO2 SLP177 T01280117=
202107140953 METAR KSEA 140953Z 26004KT 10SM CLR 14/12 A3004 RMK AO2 SLP175 T01390122=
202107140853 METAR KSEA 140853Z 27005KT 10SM CLR 14/13 A3003 RMK AO2 SLP173 T01440128 51004=
202107140753 METAR KSEA 140753Z 27003KT 10SM CLR 16/13 A3003 RMK AO2 SLP173 T01560128 402720122=
202107140653 METAR KSEA 140653Z 27005KT 10SM CLR 18/13 A3002 RMK AO2 SLP170 T01780128=
202107140553 METAR KSEA 140553Z 28004KT 10SM CLR 18/14 A3002 RMK AO2 SLP170 T01830139 10272 20183 53006=
202107140453 METAR KSEA 140453Z 28003KT 10SM CLR 21/14 A3001 RMK AO2 SLP167 T02110139=
202107140353 METAR KSEA 140353Z 27004KT 10SM CLR 22/14 A3000 RMK AO2 SLP163 T02220139=
202107140253 METAR KSEA 140253Z 21005KT 10SM CLR 25/14 A3000 RMK AO2 SLP163 T02500139 56009=
202107140153 METAR KSEA 140153Z 26005KT 10SM CLR 27/14 A3000 RMK AO2 SLP163 T02720139=
202107140053 METAR KSEA 140053Z 26006KT 10SM CLR 27/14 A3002 RMK AO2 SLP168 T02670139=
202107132353 METAR KSEA 132353Z VRB04KT 10SM CLR 26/13 A3003 RMK AO2 SLP172 T02610133 10267 20150 58016=
202107132253 METAR KSEA 132253Z 26006KT 10SM CLR 26/13 A3005 RMK AO2 SLP179 T02560128=
202107132153 METAR KSEA 132153Z 22005KT 10SM CLR 23/14 A3006 RMK AO2 SLP185 T02330139=
202107132053 METAR KSEA 132053Z 23004KT 10SM CLR 22/13 A3007 RMK AO2 SLP188 T02220133 58010=
202107131953 METAR KSEA 131953Z 22005KT 10SM CLR 19/13 A3009 RMK AO2 SLP194 T01940128=
202107131853 METAR KSEA 131853Z 24006KT 10SM FEW008 18/12 A3010 RMK AO2 SLP197 T01780122=
202107131830 SPECI KSEA 131830Z VRB04KT 10SM SCT008 17/12 A3010 RMK AO2 T01670122=
202107131736 SPECI KSEA 131736Z 18005KT 7SM OVC005 15/12 A3011 RMK AO2 T01500117=
202107131653 METAR KSEA 131653Z 18008KT 2SM BR OVC003 14/12 A3011 RMK AO2 SFC VIS 5 SLP201 T01390117=
202107131553 METAR KSEA 131553Z 22007KT 1/2SM R16L/5000VP6000FT BR OVC002 13/12 A3011 RMK AO2 SFC VIS 1 SLP201 T01280117=
202107131453 METAR KSEA 131453Z 22008KT 1/2SM R16L/6000VP6000FT BR OVC002 13/12 A3011 RMK AO2 SFC VIS 1 SLP201 T01280117 53007=
202107131434 SPECI KSEA 131434Z 20008KT 1/2SM R16L/P6000FT BR OVC002 12/12 A3011 RMK AO2 SFC VIS 1 1/2 T01220117=
202107131353 METAR KSEA 131353Z 23008KT 5SM BR OVC003 12/12 A3010 RMK AO2 SLP197 T01220117=
202107131253 METAR KSEA 131253Z 22007KT 7SM OVC004 12/12 A3009 RMK AO2 SLP195 T01220117=
202107131234 SPECI KSEA 131234Z 20008KT 10SM BKN005 13/12 A3009 RMK AO2 T01280117=
202107131216 SPECI KSEA 131216Z 21005KT 10SM SCT005 13/12 A3009 RMK AO2 T01280117=
202107131153 METAR KSEA 131153Z 22006KT 10SM FEW010 13/12 A3009 RMK AO2 SLP194 T01280117 10194 20128 53008=
202107131053 METAR KSEA 131053Z 20005KT 10SM CLR 13/12 A3008 RMK AO2 SLP190 T01330117=
202107130953 METAR KSEA 130953Z 20005KT 10SM CLR 14/12 A3007 RMK AO2 SLP188 T01390117=
202107130853 METAR KSEA 130853Z 21008KT 10SM CLR 14/12 A3007 RMK AO2 SLP186 T01440122 51002=
202107130753 METAR KSEA 130753Z 21006KT 10SM CLR 16/13 A3007 RMK AO2 SLP186 T01560128 402720128=
202107130653 METAR KSEA 130653Z 25005KT 10SM CLR 18/13 A3006 RMK AO2 SLP185 T01830133=
202107130553 METAR KSEA 130553Z 26005KT 10SM CLR 19/13 A3006 RMK AO2 SLP183 T01940128 10272 20194 53009=
202107130453 METAR KSEA 130453Z 28005KT 10SM CLR 21/13 A3005 RMK AO2 SLP181 T02110133=
202107130353 METAR KSEA 130353Z 28004KT 10SM CLR 23/13 A3003 RMK AO2 SLP175 T02330133=
202107130253 METAR KSEA 130253Z 25005KT 10SM FEW250 26/13 A3003 RMK AO2 SLP174 T02560133 56005=
202107130153 METAR KSEA 130153Z 27005KT 10SM FEW250 27/14 A3004 RMK AO2 SLP175 T02670139=
202107130053 METAR KSEA 130053Z 26007KT 10SM FEW250 27/13 A3003 RMK AO2 SLP175 T02670133=
202107122353 METAR KSEA 122353Z 25007KT 10SM FEW250 27/13 A3005 RMK AO2 SLP180 T02720133 10272 20194 57009=
202107122253 METAR KSEA 122253Z 25008KT 10SM FEW250 27/13 A3006 RMK AO2 SLP183 T02670128=
202107122153 METAR KSEA 122153Z 28007KT 250V310 10SM FEW250 27/12 A3007 RMK AO2 SLP186 T02670117=
202107122053 METAR KSEA 122053Z 29010KT 10SM FEW250 25/12 A3008 RMK AO2 SLP189 T02500117 58007=
202107121953 METAR KSEA 121953Z 26007KT 10SM FEW250 23/13 A3009 RMK AO2 SLP192 T02280128=
202107121853 METAR KSEA 121853Z 28006KT 10SM FEW250 22/12 A3009 RMK AO2 SLP195 T02170122=
202107121753 METAR KSEA 121753Z 22005KT 10SM FEW250 20/13 A3010 RMK AO2 SLP196 T02000128 10200 20128 53001=
202107121653 METAR KSEA 121653Z 26004KT 10SM FEW010 18/12 A3010 RMK AO2 SLP196 T01780122=
202107121553 METAR KSEA 121553Z VRB03KT 10SM FEW010 17/12 A3009 RMK AO2 SLP195 T01670122=
202107121453 METAR KSEA 121453Z 28004KT 10SM FEW010 15/12 A3009 RMK AO2 SLP195 T01500122 51008=
202107121353 METAR KSEA 121353Z 29003KT 10SM FEW010 13/12 A3009 RMK AO2 SLP193 T01330122=
202107121253 METAR KSEA 121253Z 28004KT 10SM FEW250 13/12 A3008 RMK AO2 SLP191 T01280117=
202107121153 METAR KSEA 121153Z 00000KT 10SM FEW250 13/12 A3007 RMK AO2 SLP187 T01330117 10211 20133 53005=
202107121053 METAR KSEA 121053Z 00000KT 10SM CLR 14/12 A3006 RMK AO2 SLP185 T01440117=
202107120953 METAR KSEA 120953Z 35007KT 10SM CLR 15/11 A3006 RMK AO2 SLP183 T01500111=
202107120853 METAR KSEA 120853Z 36006KT 10SM CLR 17/11 A3006 RMK AO2 SLP182 T01720111 58000=
202107120753 METAR KSEA 120753Z 02009KT 10SM CLR 18/12 A3006 RMK AO2 SLP183 T01830117 402720128=
202107120653 METAR KSEA 120653Z 02010KT 10SM CLR 19/12 A3006 RMK AO2 SLP182 T01940117=
202107120553 METAR KSEA 120553Z 03009KT 10SM CLR 21/12 A3006 RMK AO2 SLP182 T02110122 10272 20211 55000=
202107120453 METAR KSEA 120453Z 02007KT 10SM CLR 22/11 A3006 RMK AO2 SLP183 T02220111=
202107120353 METAR KSEA 120353Z 36007KT 10SM CLR 22/11 A3005 RMK AO2 SLP180 T02220111=
202107120253 METAR KSEA 120253Z 36008KT 10SM CLR 24/11 A3006 RMK AO2 SLP182 T02440111 56010=
202107120153 METAR KSEA 120153Z 35009KT 10SM CLR 26/11 A3006 RMK AO2 SLP184 T02610106=
202107120053 METAR KSEA 120053Z 36009KT 10SM CLR 27/11 A3007 RMK AO2 SLP188 T02720111=
202107112353 METAR KSEA 112353Z 28009KT 10SM CLR 27/13 A3009 RMK AO2 SLP192 T02670128 10272 20183 56019=
202107112253 METAR KSEA 112253Z 35009G14KT 290V030 10SM CLR 27/12 A3010 RMK AO2 SLP197 T02720122=
202107112153 METAR KSEA 112153Z 28006KT 10SM CLR 24/13 A3012 RMK AO2 SLP204 T02440128=
202107112053 METAR KSEA 112053Z 26007KT 10SM CLR 23/12 A3014 RMK AO2 SLP211 T02280122 58012=
202107111953 METAR KSEA 111953Z 26004KT 10SM CLR 21/13 A3016 RMK AO2 SLP216 T02110128=
202107111853 METAR KSEA 111853Z 25007KT 220V280 10SM CLR 19/13 A3017 RMK AO2 SLP221 T01940128=
202107111753 METAR KSEA 111753Z VRB05KT 10SM FEW010 19/13 A3018 RMK AO2 SLP223 T01890128 10189 20128 58003=
202107111653 METAR KSEA 111653Z 20005KT 10SM FEW010 FEW020 17/12 A3019 RMK AO2 SLP227 T01670122=
202107111553 METAR KSEA 111553Z 17004KT 10SM FEW010 SCT020 16/12 A3019 RMK AO2 SLP228 T01560122=
202107111453 METAR KSEA 111453Z 23004KT 10SM FEW010 SCT020 14/12 A3019 RMK AO2 SLP227 T01440122 51007=
202107111353 METAR KSEA 111353Z 00000KT 10SM FEW005 FEW030 14/12 A3018 RMK AO2 SLP226 T01390122=
202107111253 METAR KSEA 111253Z 25004KT 10SM FEW005 13/12 A3017 RMK AO2 SLP222 T01280117=
202107111153 METAR KSEA 111153Z 26003KT 10SM CLR 13/12 A3017 RMK AO2 SLP219 T01280122 10183 20128 53006=
202107111053 METAR KSEA 111053Z 26004KT 10SM CLR 13/12 A3016 RMK AO2 SLP217 T01330122=
202107110953 METAR KSEA 110953Z 25003KT 10SM CLR 14/12 A3015 RMK AO2 SLP216 T01390122=
202107110853 METAR KSEA 110853Z 26003KT 10SM FEW065 15/12 A3015 RMK AO2 SLP214 T01500122 53003=
202107110753 METAR KSEA 110753Z 35004KT 10SM SCT065 16/13 A3014 RMK AO2 SLP212 T01610128 402610139=
202107110653 METAR KSEA 110653Z 27003KT 10SM CLR 16/13 A3014 RMK AO2 SLP212 T01560128=
202107110553 METAR KSEA 110553Z 30003KT 10SM CLR 18/12 A3014 RMK AO2 SLP211 T01830122 10261 20172 53007=
202107110453 METAR KSEA 110453Z 04009KT 10SM FEW250 22/12 A3013 RMK AO2 SLP208 T02220117=
202107110353 METAR KSEA 110353Z 31004KT 10SM CLR 22/14 A3012 RMK AO2 SLP202 T02170139=
202107110253 METAR KSEA 110253Z 29005KT 10SM CLR 24/14 A3012 RMK AO2 SLP203 T02390139 56009=
202107110153 METAR KSEA 110153Z 30005KT 10SM CLR 25/14 A3012 RMK AO2 SLP204 T02500144=
202107110053 METAR KSEA 110053Z 29006KT 10SM CLR 26/14 A3013 RMK AO2 SLP207 T02560144=
202107102353 METAR KSEA 102353Z 27005KT 10SM CLR 25/14 A3014 RMK AO2 SLP212 T02500144 10256 20161 56013=
202107102253 METAR KSEA 102253Z 27008KT 10SM CLR 25/14 A3015 RMK AO2 SLP214 T02500139=
202107102153 METAR KSEA 102153Z 26006KT 10SM CLR 23/14 A3016 RMK AO2 SLP219 T02330139=
202107102053 METAR KSEA 102053Z VRB06KT 10SM CLR 23/14 A3018 RMK AO2 SLP225 T02280139 58007=
202107101953 METAR KSEA 101953Z 27005KT 10SM CLR 21/13 A3020 RMK AO2 SLP230 T02060133=
202107101853 METAR KSEA 101853Z VRB04KT 10SM FEW010 19/13 A3021 RMK AO2 SLP233 T01890128=
202107101803 SPECI KSEA 101803Z 23007KT 200V270 10SM FEW007 SCT030 17/13 A3020 RMK AO2 T01670128=
202107101753 METAR KSEA 101753Z VRB06KT 10SM BKN007 BKN020 16/13 A3020 RMK AO2 SLP232 T01610128 10161 20139 53005=
202107101653 METAR KSEA 101653Z 22007KT 10SM BKN004 BKN020 16/13 A3019 RMK AO2 SLP229 T01560128=
202107101553 METAR KSEA 101553Z 22006KT 2SM BR BKN003 OVC016 14/13 A3019 RMK AO2 SFC VIS 4 SLP229 T01440128=
202107101453 METAR KSEA 101453Z 21006KT 2SM BR OVC004 14/13 A3019 RMK AO2 SFC VIS 6 SLP227 T01390128 52014=
202107101438 SPECI KSEA 101438Z 20007KT 2SM BKN005 OVC020 14/13 A3019 RMK AO2 SFC VIS 10 T01390128=
202107101417 SPECI KSEA 101417Z 20007KT 10SM BKN005 BKN020 14/13 A3018 RMK AO2 T01390128=
202107101409 SPECI KSEA 101409Z 20007KT 10SM SCT005 BKN020 14/13 A3018 RMK AO2 T01390128=
202107101353 METAR KSEA 101353Z 21006KT 10SM FEW005 SCT020 14/13 A3017 RMK AO2 SLP222 T01440128=
202107101253 METAR KSEA 101253Z 00000KT 10SM FEW010 FEW200 14/12 A3016 RMK AO2 SLP218 T01390122=
202107101153 METAR KSEA 101153Z 00000KT 10SM FEW250 14/12 A3015 RMK AO2 SLP213 T01440122 10189 20144 53011=
202107101053 METAR KSEA 101053Z 00000KT 10SM CLR 15/12 A3013 RMK AO2 SLP207 T01500122=
202107100953 METAR KSEA 100953Z 00000KT 10SM CLR 16/13 A3012 RMK AO2 SLP203 T01610128=
202107100853 METAR KSEA 100853Z 28003KT 10SM CLR 16/13 A3011 RMK AO2 SLP202 T01560128 53012=
202107100753 METAR KSEA 100753Z 00000KT 10SM CLR 18/13 A3010 RMK AO2 SLP197 T01780128 402780122=
202107100653 METAR KSEA 100653Z 29003KT 10SM CLR 17/13 A3009 RMK AO2 SLP193 T01670128=
202107100553 METAR KSEA 100553Z 29004KT 10SM CLR 19/13 A3008 RMK AO2 SLP189 T01890128 10278 20189 51011=
202107100453 METAR KSEA 100453Z 01008KT 10SM CLR 22/12 A3007 RMK AO2 SLP186 T02220122=
202107100353 METAR KSEA 100353Z 33006KT 10SM CLR 23/12 A3005 RMK AO2 SLP182 T02330122=
202107100253 METAR KSEA 100253Z 35008KT 10SM CLR 25/12 A3004 RMK AO2 SLP178 T02500122 55006=
202107100153 METAR KSEA 100153Z 33007KT 10SM CLR 26/12 A3004 RMK AO2 SLP178 T02610122=
202107100053 METAR KSEA 100053Z 29009KT 10SM FEW250 26/13 A3005 RMK AO2 SLP180 T02610128=
202107092353 METAR KSEA 092353Z 36008KT 10SM SCT250 27/12 A3006 RMK AO2 SLP185 T02670122 10272 20194 58014=
202107092253 METAR KSEA 092253Z 28009KT 10SM SCT250 26/13 A3008 RMK AO2 SLP191 T02610133=
202107092153 METAR KSEA 092153Z 29010KT 10SM SCT250 26/13 A3009 RMK AO2 SLP195 T02560133=
202107092053 METAR KSEA 092053Z 33009KT 10SM SCT250 25/13 A3011 RMK AO2 SLP199 T02500128 58009=
202107091953 METAR KSEA 091953Z 31007KT 10SM SCT250 23/13 A3012 RMK AO2 SLP204 T02280128=
202107091853 METAR KSEA 091853Z 28008KT 10SM FEW015 FEW250 21/13 A3013 RMK AO2 SLP208 T02110128=
202107091753 METAR KSEA 091753Z 28006KT 10SM FEW010 FEW250 19/13 A3013 RMK AO2 SLP208 T01940128 10194 20122 58004=
202107091653 METAR KSEA 091653Z 26005KT 10SM FEW010 FEW250 18/12 A3014 RMK AO2 SLP212 T01780122=
202107091553 METAR KSEA 091553Z 28005KT 10SM FEW005 16/12 A3015 RMK AO2 SLP215 T01560122=
202107091453 METAR KSEA 091453Z 19004KT 10SM FEW005 FEW050 14/12 A3014 RMK AO2 SLP212 T01440117 50007=
202107091353 METAR KSEA 091353Z 23004KT 10SM FEW008 SCT050 13/12 A3015 RMK AO2 SLP212 T01330117=
202107091253 METAR KSEA 091253Z 19004KT 10SM FEW008 SCT050 13/12 A3013 RMK AO2 SLP209 T01280117=
202107091153 METAR KSEA 091153Z 17005KT 10SM FEW008 BKN050 13/12 A3012 RMK AO2 SLP205 T01280117 10167 20128 51010=
202107091053 METAR KSEA 091053Z 24004KT 10SM SCT050 13/12 A3011 RMK AO2 SLP201 T01330117=
202107090953 METAR KSEA 090953Z 26003KT 10SM FEW008 SCT050 13/12 A3011 RMK AO2 SLP201 T01330122=
202107090853 METAR KSEA 090853Z 21006KT 10SM CLR 14/12 A3009 RMK AO2 SLP196 T01440122 51008=
202107090753 METAR KSEA 090753Z 23003KT 10SM CLR 15/12 A3009 RMK AO2 SLP193 T01500117 402280117=
202107090653 METAR KSEA 090653Z 27003KT 10SM CLR 16/12 A3008 RMK AO2 SLP191 T01560122=
202107090553 METAR KSEA 090553Z 28003KT 10SM FEW200 17/11 A3007 RMK AO2 SLP187 T01720111 10228 20167 53013=
202107090453 METAR KSEA 090453Z 27005KT 10SM FEW200 18/11 A3005 RMK AO2 SLP182 T01830106=
202107090353 METAR KSEA 090353Z 00000KT 10SM FEW080 SCT200 21/10 A3004 RMK AO2 SLP176 T02060100=
202107090253 METAR KSEA 090253Z 27005KT 10SM FEW060 SCT200 21/10 A3003 RMK AO2 SLP174 T02110100 55003=
202107090153 METAR KSEA 090153Z 23005KT 10SM FEW060 SCT200 22/10 A3002 RMK AO2 SLP171 T02220100=
202107090053 METAR KSEA 090053Z 22004KT 10SM FEW060 SCT200 22/09 A3003 RMK AO2 SLP173 T02220094=
202107082353 METAR KSEA 082353Z VRB03KT 10SM FEW060 SCT210 22/09 A3004 RMK AO2 SLP177 T02220089 10222 20144 58007=
202107082253 METAR KSEA 082253Z VRB06KT 10SM FEW060 SCT210 22/11 A3004 RMK AO2 SLP179 T02170106=
202107082153 METAR KSEA 082153Z 20007KT 10SM FEW025 FEW070 BKN210 19/11 A3006 RMK AO2 SLP183 T01940106=
202107082053 METAR KSEA 082053Z 24005KT 10SM SCT023 SCT060 BKN210 18/11 A3006 RMK AO2 SLP185 T01830106 50002=
202107082016 SPECI KSEA 082016Z 25007KT 10SM SCT020 BKN035 17/11 A3006 RMK AO2 T01720106=
202107081953 METAR KSEA 081953Z 16008KT 10SM BKN019 BKN030 17/11 A3007 RMK AO2 SLP186 T01720106=
202107081853 METAR KSEA 081853Z VRB05KT 10SM OVC017 16/10 A3007 RMK AO2 SLP186 T01610100=
202107081753 METAR KSEA 081753Z 23007KT 10SM OVC016 14/10 A3005 RMK AO2 SLP183 T01440100 10150 20117 53005=
202107081653 METAR KSEA 081653Z 23007KT 190V250 10SM OVC016 14/10 A3005 RMK AO2 SLP181 T01440100=
202107081553 METAR KSEA 081553Z 21004KT 10SM OVC017 14/10 A3004 RMK AO2 SLP178 T01390100=
202107081453 METAR KSEA 081453Z 20004KT 10SM OVC016 13/10 A3004 RMK AO2 SLP177 T01330100 55001=
202107081353 METAR KSEA 081353Z 24003KT 10SM OVC018 12/10 A3003 RMK AO2 SLP176 T01220100=
202107081253 METAR KSEA 081253Z 22003KT 10SM OVC020 12/09 A3004 RMK AO2 SLP176 T01170094=
202107081218 SPECI KSEA 081218Z 20003KT 10SM BKN024 BKN035 12/09 A3004 RMK AO2 T01170094=
202107081153 METAR KSEA 081153Z 20004KT 10SM SCT035 12/09 A3004 RMK AO2 SLP178 T01170094 10144 20117 52002=
202107081053 METAR KSEA 081053Z 22004KT 10SM SCT035 12/09 A3004 RMK AO2 SLP176 T01170094=
202107080953 METAR KSEA 080953Z 21004KT 10SM BKN035 13/09 A3004 RMK AO2 SLP177 T01280094=
202107080853 METAR KSEA 080853Z 22005KT 10SM BKN034 13/09 A3003 RMK AO2 SLP176 T01280094 56004=
202107080753 METAR KSEA 080753Z 22006KT 10SM OVC034 13/09 A3004 RMK AO2 SLP176 T01330094 402170133=
202107080653 METAR KSEA 080653Z 22006KT 10SM OVC035 14/10 A3004 RMK AO2 SLP177 T01390100=
202107080553 METAR KSEA 080553Z 22006KT 10SM SCT036 14/11 A3005 RMK AO2 SLP179 T01440106 10217 20144 51009=
202107080453 METAR KSEA 080453Z 22006KT 10SM FEW035 16/11 A3004 RMK AO2 SLP178 T01560106=
202107080353 METAR KSEA 080353Z 24006KT 10SM FEW035 17/11 A3003 RMK AO2 SLP173 T01670106=
202107080253 METAR KSEA 080253Z 25008KT 10SM FEW035 FEW250 18/11 A3002 RMK AO2 SLP170 T01830106 55005=
202107080153 METAR KSEA 080153Z 23009KT 10SM FEW035 FEW250 20/11 A3001 RMK AO2 SLP169 T02000111=
202107080053 METAR KSEA 080053Z 24011KT 10SM FEW035 FEW250 21/12 A3002 RMK AO2 SLP171 T02060117=
202107072353 METAR KSEA 072353Z 23010KT 10SM FEW035 FEW250 22/12 A3003 RMK AO2 SLP174 T02170117 10217 20167 58006=
202107072253 METAR KSEA 072253Z 24011KT 10SM SCT034 SCT150 21/12 A3005 RMK AO2 SLP179 T02110117=
202107072153 METAR KSEA 072153Z 24012G15KT 10SM SCT034 21/12 A3005 RMK AO2 SLP179 T02110117=
202107072053 METAR KSEA 072053Z 26011KT 10SM BKN033 21/12 A3005 RMK AO2 SLP180 T02060122 51001=
202107071953 METAR KSEA 071953Z 24011KT 10SM OVC030 18/12 A3005 RMK AO2 SLP180 T01830117=
202107071939 SPECI KSEA 071939Z 23013G21KT 10SM OVC030 19/12 A3005 RMK AO2 T01890117=
202107071853 METAR KSEA 071853Z 21013G19KT 10SM OVC023 18/12 A3005 RMK AO2 SLP180 T01780117=
202107071753 METAR KSEA 071753Z 22013KT 10SM OVC018 17/11 A3005 RMK AO2 RAE06 SLP179 P0000 60000 T01670111 10167 20139 53005=
202107071653 METAR KSEA 071653Z 22012KT 10SM -RA OVC016 16/11 A3004 RMK AO2 RAB50 SLP177 P0000 T01560111=
202107071609 SPECI KSEA 071609Z 22009KT 10SM BKN016 OVC021 16/12 A3004 RMK AO2 T01560117=
202107071553 METAR KSEA 071553Z 21011KT 10SM OVC014 16/12 A3004 RMK AO2 SLP176 T01560117=
202107071453 METAR KSEA 071453Z 20010KT 10SM OVC010 14/11 A3003 RMK AO2 SLP174 T01440111 51013=
202107071353 METAR KSEA 071353Z 20008KT 10SM OVC008 14/12 A3002 RMK AO2 SLP170 T01390117=
202107071253 METAR KSEA 071253Z 21011KT 10SM OVC007 14/12 A3001 RMK AO2 SLP165 T01390117=
202107071153 METAR KSEA 071153Z 19009KT 10SM BKN008 14/12 A2999 RMK AO2 SLP160 T01390122 10200 20139 53019=
202107071132 SPECI KSEA 071132Z 20008KT 10SM BKN008 OVC180 14/12 A2999 RMK AO2 PRESRR T01390122=
202107071122 SPECI KSEA 071122Z 22008KT 10SM SCT008 BKN180 BKN250 14/12 A2998 RMK AO2 T01390122=
202107071053 METAR KSEA 071053Z 24009KT 10SM FEW010 BKN190 BKN250 14/12 A2996 RMK AO2 SLP151 T01390122=
202107070953 METAR KSEA 070953Z 20009KT 10SM SCT250 16/13 A2996 RMK AO2 SLP148 T01560133=
202107070853 METAR KSEA 070853Z 23006KT 10SM FEW250 17/13 A2994 RMK AO2 SLP142 T01720128 53004=
202107070753 METAR KSEA 070753Z 34004KT 10SM CLR 18/13 A2993 RMK AO2 SLP139 T01830128 402780122=
202107070653 METAR KSEA 070653Z 28005KT 10SM SCT250 17/13 A2993 RMK AO2 SLP138 T01720128=
202107070553 METAR KSEA 070553Z 29003KT 10SM BKN250 20/12 A2993 RMK AO2 SLP138 T02000122 10278 20200 53003=
202107070453 METAR KSEA 070453Z 33005KT 10SM SCT150 BKN250 22/12 A2992 RMK AO2 SLP136 T02170117=
202107070353 METAR KSEA 070353Z 30005KT 10SM SCT250 22/13 A2991 RMK AO2 SLP133 T02220128=
202107070253 METAR KSEA 070253Z VRB06KT 10SM SCT250 26/12 A2992 RMK AO2 SLP135 T02610117 56010=
202107070153 METAR KSEA 070153Z 32007KT 10SM SCT250 27/13 A2992 RMK AO2 SLP137 T02670128=
202107070053 METAR KSEA 070053Z 30008KT 10SM SCT250 28/13 A2993 RMK AO2 SLP139 T02780133=
202107062353 METAR KSEA 062353Z 29009KT 10SM FEW250 27/13 A2995 RMK AO2 SLP145 T02670128 10267 20156 56025=
202107062253 METAR KSEA 062253Z 25006KT 10SM CLR 25/14 A2997 RMK AO2 SLP152 T02500144=
202107062153 METAR KSEA 062153Z 30007KT 260V330 10SM CLR 25/15 A2999 RMK AO2 SLP161 T02500150=
202107062053 METAR KSEA 062053Z 27006KT 10SM FEW009 22/14 A3002 RMK AO2 SLP170 T02170144 58015=
202107061953 METAR KSEA 061953Z 26007KT 10SM FEW009 20/14 A3004 RMK AO2 SLP176 T02000144=
202107061907 SPECI KSEA 061907Z VRB05KT 10SM SCT009 19/14 A3005 RMK AO2 T01890139=
202107061853 METAR KSEA 061853Z 00000KT 7SM BKN007 18/14 A3006 RMK AO2 SLP183 T01780139=
202107061818 SPECI KSEA 061818Z VRB03KT 3SM BR OVC005 16/14 A3006 RMK AO2 T01610139=
202107061753 METAR KSEA 061753Z VRB03KT 2SM BR OVC003 16/13 A3007 RMK AO2 SLP186 T01560133 10156 20122 58003=
202107061736 SPECI KSEA 061736Z 26004KT 2SM BR OVC002 15/13 A3007 RMK AO2 T01500133=
202107061653 METAR KSEA 061653Z 28004KT 3/4SM R16L/2000VP6000FT BR OVC002 14/13 A3007 RMK AO2 SLP189 T01390133=
202107061643 SPECI KSEA 061643Z 27004KT 3/4SM R16L/2000VP6000FT BR OVC002 14/13 A3007 RMK AO2 T01390133=
202107061607 SPECI KSEA 061607Z 26003KT 3/4SM R16L/2200VP6000FT BR OVC001 14/13 A3007 RMK AO2 T01390133=
202107061553 METAR KSEA 061553Z 20004KT 3/4SM R16L/2600VP6000FT BR OVC002 14/13 A3007 RMK AO2 SLP190 T01390133=
202107061518 SPECI KSEA 061518Z 00000KT 3/4SM R16L/4500VP6000FT BR OVC002 13/13 A3008 RMK AO2 T01330128=
202107061453 METAR KSEA 061453Z 23003KT 1/2SM R16L/1800V4000FT FG OVC001 13/13 A3007 RMK AO2 SLP189 T01280128 52003=
202107061443 SPECI KSEA 061443Z 19003KT 1/2SM R16L/1600V4500FT FG OVC001 13/13 A3007 RMK AO2 T01280128=
202107061433 SPECI KSEA 061433Z 22003KT 1/4SM R16L/1600V2400FT FG VV001 13/13 A3007 RMK AO2 T01280128=
202107061420 SPECI KSEA 061420Z 00000KT 1/4SM R16L/0700V1400FT FG VV001 13/13 A3007 RMK AO2 T01280128=
202107061353 METAR KSEA 061353Z 00000KT 1/8SM R16L/0600V1200FT FG VV001 13/13 A3007 RMK AO2 SLP187 T01280128=
202107061253 METAR KSEA 061253Z 00000KT 1/4SM R16L/1000V1400FT FG VV001 12/12 A3006 RMK AO2 SLP186 T01220122=
202107061251 SPECI KSEA 061251Z 22003KT 1/4SM R16L/1200V2200FT FG VV001 13/13 A3006 RMK AO2=
202107061241 SPECI KSEA 061241Z 21004KT 1/4SM R16L/1400V2000FT FG VV002 13/13 A3006 RMK AO2 T01280128=
202107061220 SPECI KSEA 061220Z 20005KT 1/4SM R16L/1600V5000FT FG VV002 13/13 A3006 RMK AO2 T01280128=
202107061159 SPECI KSEA 061159Z 20006KT 1/2SM R16L/P6000FT FG BKN002 13/13 A3006 RMK AO2 T01280128=
202107061153 METAR KSEA 061153Z 20006KT 10SM SCT002 13/13 A3007 RMK AO2 SLP185 SCT V BKN T01330128 10183 20128 51001=
202107061112 SPECI KSEA 061112Z 17004KT 10SM SCT003 SCT010 13/13 A3006 RMK AO2 T01330128=
202107061053 METAR KSEA 061053Z 20004KT 10SM FEW010 13/13 A3006 RMK AO2 SLP185 T01330128=
202107060953 METAR KSEA 060953Z 23003KT 10SM FEW010 14/13 A3007 RMK AO2 SLP187 T01390128=
202107060853 METAR KSEA 060853Z 23004KT 10SM CLR 15/13 A3006 RMK AO2 SLP185 T01500133 51002=
202107060753 METAR KSEA 060753Z 00000KT 10SM CLR 16/14 A3006 RMK AO2 SLP184 T01560139 402330133=
202107060653 METAR KSEA 060653Z 21003KT 10SM CLR 17/14 A3006 RMK AO2 SLP185 T01670139=
202107060553 METAR KSEA 060553Z 26003KT 10SM CLR 18/14 A3006 RMK AO2 SLP183 T01830139 10233 20178 50002=
202107060453 METAR KSEA 060453Z 25003KT 10SM FEW250 19/14 A3006 RMK AO2 SLP184 T01940139=
202107060353 METAR KSEA 060353Z 20005KT 10SM CLR 21/14 A3005 RMK AO2 SLP181 T02060139=
202107060253 METAR KSEA 060253Z 24004KT 10SM CLR 22/14 A3005 RMK AO2 SLP180 T02170139 56006=
202107060153 METAR KSEA 060153Z 27005KT 10SM CLR 23/14 A3005 RMK AO2 SLP181 T02280139=
202107060053 METAR KSEA 060053Z VRB04KT 10SM CLR 22/13 A3006 RMK AO2 SLP183 T02220133=
202107052353 METAR KSEA 052353Z VRB04KT 10SM FEW030 22/13 A3007 RMK AO2 SLP186 T02170133 10217 20156 58009=
202107052253 METAR KSEA 052253Z 23007KT 10SM FEW030 21/13 A3008 RMK AO2 SLP190 T02060133=
202107052153 METAR KSEA 052153Z VRB06KT 10SM FEW020 20/13 A3009 RMK AO2 SLP195 T02000128=
202107052053 METAR KSEA 052053Z 26006KT 10SM FEW020 18/12 A3010 RMK AO2 SLP197 T01830122 58001=
202107052031 SPECI KSEA 052031Z 23007KT 10SM SCT017 18/12 A3010 RMK AO2 T01830122=
202107051953 METAR KSEA 051953Z 26009KT 10SM BKN017 18/12 A3011 RMK AO2 SLP200 T01780122=
202107051904 SPECI KSEA 051904Z 17006KT 10SM OVC015 17/12 A3011 RMK AO2 T01720122=
202107051853 METAR KSEA 051853Z 18008KT 10SM OVC014 17/12 A3011 RMK AO2 SLP200 T01720117=
202107051806 SPECI KSEA 051806Z 20006KT 10SM OVC010 16/12 A3010 RMK AO2 T01610122=
202107051753 METAR KSEA 051753Z 19006KT 9SM OVC008 16/12 A3010 RMK AO2 SLP198 T01560122 10156 20133 51006=
202107051653 METAR KSEA 051653Z 23007KT 9SM OVC007 14/12 A3009 RMK AO2 SLP196 T01440122=
202107051553 METAR KSEA 051553Z 22006KT 7SM OVC007 14/12 A3009 RMK AO2 SLP195 T01390122=
202107051453 METAR KSEA 051453Z 23008KT 8SM OVC007 14/12 A3008 RMK AO2 SLP191 T01390117 52014=
202107051353 METAR KSEA 051353Z 22007KT 9SM OVC007 13/12 A3007 RMK AO2 SLP186 T01330117=
202107051253 METAR KSEA 051253Z 22005KT 7SM OVC006 13/12 A3005 RMK AO2 SLP181 T01330117=
202107051153 METAR KSEA 051153Z 21006KT 10SM OVC006 13/12 A3004 RMK AO2 SLP176 T01330117 10183 20133 51009=
202107051053 METAR KSEA 051053Z 20008KT 10SM OVC005 13/12 A3003 RMK AO2 SLP174 T01330117=
202107050953 METAR KSEA 050953Z 22008KT 10SM OVC006 13/12 A3002 RMK AO2 SLP170 T01330122=
202107050853 METAR KSEA 050853Z 21008KT 8SM BKN006 14/12 A3001 RMK AO2 SLP168 T01390122 51005=
202107050847 SPECI KSEA 050847Z 21008KT 8SM BKN006 14/12 A3001 RMK AO2=
202107050753 METAR KSEA 050753Z 23007KT 6SM FU CLR 16/13 A3001 RMK AO2 SLP166 T01560133 402500139=
202107050653 METAR KSEA 050653Z 26004KT 8SM CLR 17/14 A3000 RMK AO2 SLP162 T01720139=
202107050553 METAR KSEA 050553Z 28005KT 10SM FEW100 18/14 A3000 RMK AO2 SLP163 T01830144 10250 20183 53007=
202107050453 METAR KSEA 050453Z 25008KT 10SM FEW040 FEW100 20/14 A2999 RMK AO2 SLP161 T02000144=
202107050353 METAR KSEA 050353Z 23004KT 10SM FEW030 FEW120 22/15 A2998 RMK AO2 SLP157 T02220150=
202107050253 METAR KSEA 050253Z 21006KT 10SM FEW100 23/15 A2998 RMK AO2 SLP155 T02330150 56004=
202107050153 METAR KSEA 050153Z 20008KT 10SM FEW060 FEW100 24/15 A2998 RMK AO2 SLP155 T02440150=
202107050053 METAR KSEA 050053Z 24008KT 10SM FEW060 FEW110 24/14 A2998 RMK AO2 SLP156 T02440144=
202107042353 METAR KSEA 042353Z 25008KT 10SM FEW060 FEW120 24/14 A2999 RMK AO2 SLP160 T02440139 10244 20172 56011=
202107042253 METAR KSEA 042253Z 22008KT 10SM FEW050 FEW120 24/13 A3000 RMK AO2 SLP162 T02390128=
202107042153 METAR KSEA 042153Z 20007KT 10SM FEW040 FEW150 23/13 A3001 RMK AO2 SLP167 T02280133=
202107042053 METAR KSEA 042053Z 20009KT 10SM FEW035 FEW170 21/13 A3002 RMK AO2 SLP171 T02110133 58001=
202107041953 METAR KSEA 041953Z 22007KT 190V250 10SM FEW014 21/13 A3003 RMK AO2 SLP173 T02060133=
202107041853 METAR KSEA 041853Z 25007KT 10SM FEW014 18/13 A3003 RMK AO2 SLP175 T01830128=
202107041829 SPECI KSEA 041829Z 25009KT 10SM SCT014 18/13 A3003 RMK AO2 T01830128=
202107041753 METAR KSEA 041753Z 21007KT 10SM OVC011 17/13 A3003 RMK AO2 SLP172 T01720128 10178 20139 53002=
202107041720 SPECI KSEA 041720Z 20009KT 10SM OVC010 17/13 A3002 RMK AO2 T01670128=
202107041653 METAR KSEA 041653Z 21008KT 10SM OVC007 16/13 A3002 RMK AO2 SLP170 T01610128=
202107041553 METAR KSEA 041553Z 20007KT 10SM OVC005 15/13 A3002 RMK AO2 SLP170 T01500128=
202107041453 METAR KSEA 041453Z 20008KT 9SM OVC003 14/13 A3002 RMK AO2 SLP168 T01440128 51010=
202107041353 METAR KSEA 041353Z 21007KT 9SM OVC004 14/13 A3001 RMK AO2 SLP166 T01390128=
202107041315 SPECI KSEA 041315Z 19006KT 9SM OVC003 14/13 A3000 RMK AO2 T01390128=
202107041253 METAR KSEA 041253Z 20009KT 10SM OVC005 14/13 A3000 RMK AO2 SLP162 T01390128=
202107041153 METAR KSEA 041153Z 21006KT 9SM BKN005 14/13 A2998 RMK AO2 SLP158 T01440133 10211 20144 53007=
202107041128 SPECI KSEA 041128Z 21004KT 9SM BKN005 14/13 A2998 RMK AO2 T01440133=
202107041053 METAR KSEA 041053Z 24005KT 10SM SCT010 14/13 A2998 RMK AO2 SLP155 T01440133=
202107040953 METAR KSEA 040953Z 23006KT 10SM FEW060 16/13 A2997 RMK AO2 SLP153 T01560133=
202107040853 METAR KSEA 040853Z 21006KT 10SM CLR 16/14 A2996 RMK AO2 SLP150 T01610139 53006=
202107040753 METAR KSEA 040753Z 17005KT 10SM CLR 17/14 A2996 RMK AO2 SLP148 T01720144 402780139=
202107040653 METAR KSEA 040653Z 28003KT 10SM CLR 19/14 A2995 RMK AO2 SLP146 T01940144=
202107040553 METAR KSEA 040553Z 25004KT 10SM CLR 21/14 A2994 RMK AO2 SLP144 T02110144 10278 20211 53005=
202107040453 METAR KSEA 040453Z 27005KT 10SM FEW050 23/14 A2994 RMK AO2 SLP142 T02280144=
202107040353 METAR KSEA 040353Z 26003KT 10SM FEW050 24/14 A2993 RMK AO2 SLP138 T02440139=
202107040253 METAR KSEA 040253Z 31004KT 10SM FEW050 27/14 A2993 RMK AO2 SLP139 T02670139 56009=
202107040153 METAR KSEA 040153Z 27006KT 10SM FEW050 FEW200 27/14 A2993 RMK AO2 SLP141 T02720139=
202107040053 METAR KSEA 040053Z 29007KT 10SM FEW050 FEW170 28/14 A2994 RMK AO2 SLP144 T02780139=
202107032353 METAR KSEA 032353Z 25007KT 10SM FEW040 FEW180 27/13 A2996 RMK AO2 SLP149 T02720133 10278 20183 56012=
202107032253 METAR KSEA 032253Z 26006KT 10SM FEW040 27/14 A2997 RMK AO2 SLP152 T02720144=
202107032153 METAR KSEA 032153Z 25006KT 10SM FEW030 26/13 A2998 RMK AO2 SLP156 T02560133=
202107032053 METAR KSEA 032053Z 29007KT 10SM FEW030 24/14 A2999 RMK AO2 SLP161 T02440139 57007=
202107031953 METAR KSEA 031953Z 26005KT 10SM FEW020 23/15 A3000 RMK AO2 SLP162 T02330150=
202107031853 METAR KSEA 031853Z VRB04KT 10SM CLR 22/15 A3001 RMK AO2 SLP167 T02170150=
202107031753 METAR KSEA 031753Z 24007KT 9SM FEW010 FEW020 19/14 A3001 RMK AO2 SLP168 T01890144 10189 20139 51000=
202107031653 METAR KSEA 031653Z 18006KT 10SM FEW010 SCT030 18/14 A3001 RMK AO2 SLP168 T01780144=
202107031553 METAR KSEA 031553Z 22005KT 10SM FEW005 SCT025 17/14 A3002 RMK AO2 SLP169 T01670139=
202107031519 SPECI KSEA 031519Z 20004KT 10SM FEW005 SCT025 SCT130 16/14 A3002 RMK AO2 T01610139=
202107031453 METAR KSEA 031453Z 20003KT 9SM SCT005 SCT025 SCT130 16/14 A3001 RMK AO2 SLP168 T01560139 53002=
202107031353 METAR KSEA 031353Z 20004KT 9SM SCT003 SCT025 SCT120 15/14 A3001 RMK AO2 SLP166 VIS SW 1 T01500144=
202107031350 SPECI KSEA 031350Z 20004KT 9SM SCT003 SCT025 SCT120 15/14 A3001 RMK AO2 VIS SW 1=
202107031253 METAR KSEA 031253Z 20003KT 10SM SCT120 SCT250 14/14 A3001 RMK AO2 SLP165 T01440139=
202107031153 METAR KSEA 031153Z 00000KT 10SM SCT120 SCT250 14/13 A3000 RMK AO2 SLP165 T01440133 10211 20144 53006=
202107031053 METAR KSEA 031053Z 00000KT 10SM CLR 16/14 A3000 RMK AO2 SLP162 T01560139=
202107030953 METAR KSEA 030953Z 00000KT 10SM CLR 16/14 A2999 RMK AO2 SLP159 T01560139=
202107030853 METAR KSEA 030853Z 00000KT 10SM CLR 16/14 A2999 RMK AO2 SLP158 T01560139 50001=
202107030753 METAR KSEA 030753Z 00000KT 10SM CLR 18/14 A2999 RMK AO2 SLP159 T01780144 402610144=
202107030653 METAR KSEA 030653Z 00000KT 10SM CLR 18/15 A2998 RMK AO2 SLP158 T01830150=
202107030553 METAR KSEA 030553Z 00000KT 10SM CLR 21/15 A2998 RMK AO2 SLP158 T02110150 10256 20206 58000=
202107030453 METAR KSEA 030453Z 29003KT 10SM CLR 21/15 A2999 RMK AO2 SLP160 T02110150=
202107030353 METAR KSEA 030353Z 31004KT 10SM CLR 22/15 A2998 RMK AO2 SLP157 T02220150=
202107030253 METAR KSEA 030253Z 31006KT 10SM FEW050 24/14 A2998 RMK AO2 SLP158 T02390144 56007=
202107030153 METAR KSEA 030153Z 28007KT 10SM SCT040 25/14 A2999 RMK AO2 SLP159 T02500139=
202107030053 METAR KSEA 030053Z 26006KT 10SM SCT040 25/14 A3000 RMK AO2 SLP162 T02500139=
202107022353 METAR KSEA 022353Z 29008KT 10SM BKN037 BKN250 24/14 A3001 RMK AO2 SLP165 T02440144 10261 20178 58011=
202107022253 METAR KSEA 022253Z 28008KT 10SM BKN032 BKN250 25/14 A3002 RMK AO2 SLP170 T02500144=
202107022153 METAR KSEA 022153Z 28007KT 10SM BKN030 BKN250 24/15 A3003 RMK AO2 SLP174 T02390150=
202107022053 METAR KSEA 022053Z 10SM FEW030 SCT037 BKN250 22/15 A3004 RMK AO2 SLP176 T02220150 58003=
202107021953 METAR KSEA 021953Z 28006KT 10SM SCT030 BKN037 21/15 A3005 RMK AO2 SLP178 T02110150=
202107021853 METAR KSEA 021853Z 29005KT 10SM BKN030 OVC035 19/14 A3005 RMK AO2 SLP181 T01890144=
202107021753 METAR KSEA 021753Z 26007KT 10SM SCT010 OVC037 18/14 A3005 RMK AO2 SLP180 T01830139 10183 20144 51002=
202107021728 SPECI KSEA 021728Z 24004KT 10SM BKN010 BKN027 OVC037 17/14 A3005 RMK AO2 T01720139=
202107021653 METAR KSEA 021653Z 22006KT 10SM BKN006 OVC026 17/14 A3005 RMK AO2 SLP179 T01670139=
202107021553 METAR KSEA 021553Z 20006KT 10SM OVC003 16/14 A3004 RMK AO2 SLP178 T01560139=
202107021453 METAR KSEA 021453Z 19006KT 8SM OVC003 15/14 A3004 RMK AO2 SLP177 T01500139 51008=
202107021353 METAR KSEA 021353Z 21006KT 9SM OVC003 15/14 A3004 RMK AO2 SLP175 T01500139=
202107021328 SPECI KSEA 021328Z 21005KT 9SM OVC004 15/14 A3003 RMK AO2 T01500139=
202107021253 METAR KSEA 021253Z 21006KT 10SM BKN005 OVC034 14/14 A3003 RMK AO2 SLP173 T01440139=
202107021228 SPECI KSEA 021228Z 22007KT 10SM BKN007 OVC036 15/14 A3002 RMK AO2 T01500139=
202107021217 SPECI KSEA 021217Z 22006KT 10SM SCT008 SCT020 OVC036 15/14 A3002 RMK AO2 T01500139=
202107021153 METAR KSEA 021153Z 21007KT 10SM SCT020 BKN039 OVC060 15/13 A3002 RMK AO2 SLP169 T01500133 10183 20150 51004=
202107021053 METAR KSEA 021053Z 21006KT 10SM SCT030 BKN042 OVC060 16/14 A3001 RMK AO2 SLP167 T01560139=
202107021024 SPECI KSEA 021024Z 20007KT 10SM BKN031 OVC060 16/14 A3001 RMK AO2 T01560139=
202107020953 METAR KSEA 020953Z 21007KT 10SM OVC028 16/14 A3001 RMK AO2 SLP167 T01560139=
202107020946 SPECI KSEA 020946Z 20007KT 10SM OVC028 16/14 A3001 RMK AO2 T01610139=
202107020853 METAR KSEA 020853Z 19006KT 10SM SCT028 OVC060 17/14 A3000 RMK AO2 SLP164 T01670144 53002=
202107020753 METAR KSEA 020753Z 20006KT 10SM FEW050 BKN060 OVC090 17/14 A3000 RMK AO2 SLP162 T01720144 402330167=
202107020653 METAR KSEA 020653Z 20004KT 10SM BKN050 OVC090 18/15 A2999 RMK AO2 SLP161 T01830150=
202107020553 METAR KSEA 020553Z 18005KT 10SM SCT035 BKN050 BKN090 18/15 A3000 RMK AO2 SLP162 T01830150 10222 20178 53004=
202107020453 METAR KSEA 020453Z 23005KT 10SM SCT040 19/15 A2999 RMK AO2 SLP161 T01940150=
202107020353 METAR KSEA 020353Z 21005KT 10SM SCT040 20/15 A2998 RMK AO2 SLP158 T02000150=
202107020253 METAR KSEA 020253Z 26005KT 10SM BKN040 21/15 A2999 RMK AO2 SLP158 T02110150 55005=
202107020153 METAR KSEA 020153Z 27006KT 10SM BKN043 22/14 A2998 RMK AO2 SLP158 T02170144=
202107020053 METAR KSEA 020053Z 28005KT 10SM SCT031 OVC045 22/14 A2999 RMK AO2 SLP159 T02170139=
202107012353 METAR KSEA 012353Z 27006KT 10SM SCT033 OVC047 22/14 A3000 RMK AO2 SLP163 T02220139 10233 20189 58002=
202107012253 METAR KSEA 012253Z 26007KT 10SM SCT032 OVC046 23/14 A3000 RMK AO2 SLP164 T02330139=
202107012153 METAR KSEA 012153Z 26005KT 10SM FEW030 OVC038 23/14 A3000 RMK AO2 SLP165 T02280139=
202107012053 METAR KSEA 012053Z 25006KT 10SM FEW027 BKN034 22/13 A3001 RMK AO2 SLP165 T02170133 58001=
202107011953 METAR KSEA 011953Z VRB03KT 10SM SCT027 BKN032 BKN044 21/13 A3001 RMK AO2 SLP166 T02060133=
202107011853 METAR KSEA 011853Z 19005KT 10SM BKN030 19/14 A3001 RMK AO2 SLP167 T01940139=
202107011817 SPECI KSEA 011817Z 24006KT 10SM OVC033 19/14 A3001 RMK AO2 T01890139=
202107011753 METAR KSEA 011753Z 22005KT 10SM BKN024 OVC030 19/13 A3001 RMK AO2 SLP166 T01890133 10189 20167 51006=
202107011718 SPECI KSEA 011718Z 21006KT 10SM BKN020 BKN028 OVC038 19/14 A3000 RMK AO2 T01890139=
202107011653 METAR KSEA 011653Z 25004KT 10SM SCT019 OVC038 18/14 A3001 RMK AO2 SLP165 T01830139=
202107011553 METAR KSEA 011553Z 19003KT 10SM FEW019 OVC033 18/14 A3000 RMK AO2 SLP163 T01780139=
202107011453 METAR KSEA 011453Z 18005KT 10SM FEW020 OVC028 17/14 A2999 RMK AO2 SLP160 T01670144 53006=
202107011353 METAR KSEA 011353Z 24003KT 10SM OVC026 17/14 A2998 RMK AO2 SLP156 T01670139=
202107011335 SPECI KSEA 011335Z 26004KT 10SM BKN028 OVC037 17/14 A2998 RMK AO2 T01670139=
202107011253 METAR KSEA 011253Z 24003KT 10SM FEW025 OVC037 17/14 A2998 RMK AO2 SLP155 T01670139=
202107011153 METAR KSEA 011153Z 18003KT 10SM SCT025 OVC039 17/14 A2997 RMK AO2 SLP154 60000 T01670139 10178 20167 55001=
202107011053 METAR KSEA 011053Z 20003KT 10SM FEW030 OVC041 17/14 A2997 RMK AO2 SLP152 T01670139=
202107010953 METAR KSEA 010953Z 21003KT 10SM SCT015 OVC026 17/14 A2997 RMK AO2 SLP154 T01720139=
202107010853 METAR KSEA 010853Z 23004KT 10SM BKN019 OVC024 17/14 A2998 RMK AO2 DZE0754 SLP155 P0000 60000 T01720139 50004=
202107010812 SPECI KSEA 010812Z 18004KT 10SM FEW011 BKN016 OVC028 17/15 A2998 RMK AO2 DZE0754 P0000 T01720150=
202107010753 METAR KSEA 010753Z 00000KT 9SM -DZ BKN013 OVC025 17/15 A2998 RMK AO2 DZB25 SLP157 P0000 T01670150 402330156=
202107010737 SPECI KSEA 010737Z 19004KT 4SM -DZ BR BKN011 OVC017 17/16 A2998 RMK AO2 DZB25 P0000 T01670156=
202107010653 METAR KSEA 010653Z 22009KT 10SM OVC020 18/14 A2997 RMK AO2 SLP154 CIG 017V023 T01780139=
202107010622 SPECI KSEA 010622Z 22007KT 10SM OVC026 18/14 A2997 RMK AO2 CIG 023V029 T01780139=
202107010553 METAR KSEA 010553Z 21008KT 10SM BKN030 OVC040 18/14 A2996 RMK AO2 SLP151 T01780139 10228 20178 53013=
202107010453 METAR KSEA 010453Z 21008KT 10SM BKN030 BKN040 18/14 A2995 RMK AO2 SLP146 T01830139=
202107010438 SPECI KSEA 010438Z 22012KT 10SM BKN030 18/14 A2995 RMK AO2 T01830139=
202107010353 METAR KSEA 010353Z 21009KT 10SM BKN028 18/14 A2994 RMK AO2 SLP142 T01830139=
202107010253 METAR KSEA 010253Z 22011KT 10SM FEW025 BKN032 19/14 A2993 RMK AO2 SLP138 T01940144 53005=
202107010153 METAR KSEA 010153Z 22010KT 10SM BKN031 21/14 A2992 RMK AO2 SLP135 T02110144=
202107010133 SPECI KSEA 010133Z 22010KT 10SM BKN031 21/14 A2991 RMK AO2 T02110144=
202107010053 METAR KSEA 010053Z 24009KT 10SM BKN029 22/15 A2991 RMK AO2 SLP133 T02170150=
202107010044 SPECI KSEA 010044Z 23008KT 10SM BKN029 22/15 A2991 RMK AO2 T02170150=

# No short TAF reports from KSEA in databse.

###################################
#  large TAF from KSEA
###################################
202107312320 TAF KSEA 312320Z 0100/0206 30007KT P6SM BKN150 FM010600 VRB04KT
                       P6SM VCSH OVC090 FM012000 30007KT P6SM BKN150=
202107312102 KSEA 312102Z 3121/0124 VRB04KT P6SM BKN150 FM010000 30007KT P6SM
                       BKN150 FM010900 VRB04KT P6SM VCSH BKN090
                       OVC150=
202107311720 TAF KSEA 311720Z 3118/0124 VRB04KT P6SM BKN120 FM312100 34007KT
                       P6SM VCSH BKN090 FM010900 VRB03KT P6SM BKN120=
202107311501 KSEA 311501Z 3115/0118 32007KT P6SM VCSH SCT080 OVC100 FM312100
                       34010KT P6SM BKN120 FM010900 VRB03KT P6SM
                       BKN200=
202107311120 TAF KSEA 311120Z 3112/0118 01006KT P6SM BKN150 BKN250 FM011300
                       VRB03KT P6SM SCT005 BKN250=
202107310533 TAF KSEA 310533Z 3106/0112 01006KT P6SM SCT150 BKN250 FM011100
                       VRB03KT P6SM SCT008 BKN250=
202107310307 KSEA 310307Z 3103/0106 35008KT P6SM SCT250 FM310400 02005KT P6SM
                       SCT200 FM310800 VRB03KT P6SM BKN150 FM311800
                       33008KT P6SM SCT150=
202107302320 TAF KSEA 302320Z 3100/0106 34012KT P6SM FEW250 FM310400 02007KT
                       P6SM SCT200 FM310800 VRB03KT P6SM BKN150
                       FM311800 33008KT P6SM SCT150=
202107302100 KSEA 302100Z 3021/3124 35010KT P6SM SKC FM310800 35006KT P6SM SCT150=
202107301720 TAF KSEA 301720Z 3018/3124 35010KT P6SM SKC FM310800 35006KT P6SM
                       SCT150=
202107301501 KSEA 301501Z 3015/3118 36004KT P6SM SKC FM301800 34008KT P6SM FEW150
                       FM310800 35006KT P6SM BKN200=
202107301125 TAF KSEA 301125Z 3012/3118 36004KT P6SM SKC FM301800 34008KT P6SM
                       FEW150 FM310800 35006KT P6SM BKN200=
202107300940 KSEA 300940Z 3010/3112 02006KT P6SM SKC FM301800 34008KT P6SM FEW150
                       FM310400 35011KT P6SM BKN200=
202107300526 TAF KSEA 300526Z 3006/3112 02010KT P6SM SKC FM301800 34008KT P6SM
                       FEW150 FM310400 35011KT P6SM BKN200=
202107300300 KSEA 300300Z 3003/3106 35008KT P6SM SKC FM300600 03005KT P6SM SKC
                       FM301800 33008KT P6SM SCT120=
202107292320 TAF KSEA 292320Z 3000/3106 36008KT P6SM FEW050 FM300400 03005KT
                       P6SM SKC FM301800 33008KT P6SM SCT120=
202107292104 KSEA 292104Z 2921/3024 35010KT P6SM SKC FM300300 02007KT P6SM SKC=
202107291720 TAF KSEA 291720Z 2918/3024 33008KT P6SM SKC FM300300 02007KT P6SM
                       SKC=
202107291504 KSEA 291504Z 2915/3018 VRB04KT P6SM SKC FM291900 33008KT P6SM SKC
                       FM300300 02007KT P6SM SKC=
202107291121 TAF KSEA 291121Z 2912/3018 VRB04KT P6SM SKC FM291900 33008KT P6SM
                       SKC FM300300 02007KT P6SM SKC=
202107290906 KSEA 290906Z 2909/3012 03005KT P6SM SKC FM291900 33008KT P6SM SKC
                       FM300300 02007KT P6SM SKC=
202107290540 TAF KSEA 290540Z 2906/3012 01008KT P6SM FEW250 FM290900 VRB03KT
                       P6SM FEW250 FM291900 33008KT P6SM SCT250=
202107290301 KSEA 290301Z 2903/3006 36008KT P6SM SCT250 FM290500 02005KT P6SM
                       SCT250 FM290900 VRB03KT P6SM SCT250 FM291900
                       32007KT P6SM SCT250=
202107282330 TAF KSEA 282330Z 2900/3006 32009KT P6SM SCT250 FM290400 01006KT
                       P6SM SCT250 FM290900 VRB03KT P6SM SCT250
                       FM291900 32007KT P6SM SCT250=
202107282105 KSEA 282105Z 2821/2924 32009KT P6SM SCT250 FM290400 01006KT P6SM
                       SCT250 FM290900 VRB03KT P6SM SCT250 FM291700
                       31005KT P6SM SCT250=
202107281733 TAF KSEA 281733Z 2818/2924 32007KT P6SM SCT250 FM290400 01006KT
                       P6SM SCT250 FM290900 VRB03KT P6SM SCT250
                       FM291700 31005KT P6SM SCT250=
202107281502 KSEA 281502Z 2815/2918 VRB03KT P6SM SCT250 FM281700 30006KT P6SM
                       SCT250 FM290400 01006KT P6SM SCT250=
202107281130 TAF KSEA 281130Z 2812/2918 VRB03KT P6SM SCT250 FM281700 30006KT
                       P6SM SCT250 FM290400 01006KT P6SM SCT250=
202107280933 KSEA 280933Z 2810/2912 03006KT P6SM SCT250 FM281700 30006KT P6SM
                       SCT250 FM290400 01006KT P6SM SCT250=
202107280539 TAF KSEA 280539Z 2806/2912 03006KT P6SM SCT250 FM281700 30006KT
                       P6SM SCT250 FM290400 01006KT P6SM SCT250=
202107280304 KSEA 280304Z 2803/2906 29004KT P6SM FEW050 SCT250 FM280400 33005KT
                       P6SM FEW050 SCT250 FM280500 03005KT P6SM
                       SCT250 FM281700 29005KT P6SM SCT250 FM282100
                       31009KT P6SM SCT250=
202107272329 TAF KSEA 272329Z 2800/2906 33009KT P6SM SCT250 FM280500 03005KT
                       P6SM SCT250 FM281700 29005KT P6SM SCT250
                       FM282100 31009KT P6SM SCT250=
202107272110 KSEA 272110Z 2721/2824 33009KT P6SM SCT250 FM280700 03005KT P6SM
                       SCT250 FM281700 29005KT P6SM SCT250=
202107271722 TAF KSEA 271722Z 2718/2824 29006KT P6SM SCT250 FM272100 33009KT
                       P6SM SCT250 FM280700 03005KT P6SM SCT250
                       FM281700 29005KT P6SM SCT250=
202107271501 KSEA 271501Z 2715/2818 VRB03KT P6SM FEW010 SCT250 FM271600 31006KT
                       P6SM SCT250 FM280300 01008KT P6SM SCT250=
202107271133 TAF KSEA 271133Z 2712/2818 02006KT P6SM BKN250 FM271400 VRB03KT
                       P6SM SCT004 FM271600 31006KT P6SM SCT250
                       FM280300 01008KT P6SM SCT250=
202107270922 KSEA 270922Z 2709/2812 02006KT P6SM BKN250 FM271400 VRB03KT P6SM
                       SCT004 FM271800 31008KT P6SM SCT250 FM280300
                       01008KT P6SM SCT250=
202107270537 TAF KSEA 270537Z 2706/2812 02006KT P6SM BKN250 FM271400 VRB03KT
                       P6SM SCT006 FM271800 31008KT P6SM SCT250
                       FM280300 01008KT P6SM SCT250=
202107270301 KSEA 270301Z 2703/2806 35007KT P6SM FEW050 SCT250 FM271500 29004KT
                       P6SM FEW030 FM272000 32005KT P6SM SKC=
202107262325 TAF KSEA 262325Z 2700/2806 35010KT P6SM FEW040 FEW250 FM270200
                       36006KT P6SM SKC FM271500 29004KT P6SM FEW030
                       FM272000 32005KT P6SM SKC=
202107262057 KSEA 262057Z 2621/2724 32009KT P6SM FEW040 FEW250 FM270200 36006KT
                       P6SM SKC FM271500 29004KT P6SM FEW030 FM272000
                       32005KT P6SM SKC=
202107261733 TAF KSEA 261733Z 2618/2724 23004KT P6SM FEW015 FEW250 FM270200
                       36006KT P6SM SKC FM271500 29004KT P6SM FEW030
                       FM272000 32005KT P6SM SKC=
202107261458 KSEA 261458Z 2615/2718 08004KT P6SM FEW060 FEW250 FM261800 33008KT
                       P6SM SKC FM270200 36006KT P6SM SKC FM271700
                       29004KT P6SM FEW030=
202107261120 TAF KSEA 261120Z 2612/2718 03008KT P6SM SKC FM261800 33008KT P6SM
                       SKC FM270200 36006KT P6SM SKC=
202107260858 KSEA 260858Z 2609/2712 03008KT P6SM SKC FM261800 33008KT P6SM SKC
                       FM270200 36006KT P6SM SKC=
202107260520 TAF KSEA 260520Z 2606/2712 36010KT P6SM SKC FM260800 03006KT P6SM
                       SKC FM261800 33008KT P6SM SKC FM270200 36010KT
                       P6SM SKC=
202107260302 KSEA 260302Z 2603/2706 36010KT P6SM SKC FM260600 03006KT P6SM SKC
                       FM261800 33008KT P6SM SKC FM270200 36010KT
                       P6SM SKC=
202107252320 TAF KSEA 252320Z 2600/2706 36008KT P6SM SKC FM260400 03005KT P6SM
                       SKC FM261800 33007KT P6SM SKC FM262200 36010KT
                       P6SM SKC=
202107252100 KSEA 252100Z 2521/2624 32010KT P6SM SKC FM260400 03005KT P6SM SKC=
202107251720 TAF KSEA 251720Z 2518/2624 31007KT P6SM SKC FM252200 32012KT P6SM
                       SKC FM260400 03005KT P6SM SKC=
202107251120 TAF KSEA 251120Z 2512/2618 02006KT P6SM SKC FM251800 32008KT P6SM
                       SKC FM260400 01005KT P6SM SKC=
202107250901 KSEA 250901Z 2509/2612 02006KT P6SM SKC FM251800 32008KT P6SM SKC
                       FM260400 01005KT P6SM SKC=
202107250520 TAF KSEA 250520Z 2506/2612 36008KT P6SM SKC FM250800 02004KT P6SM
                       SKC FM251800 32008KT P6SM SKC=
202107250301 KSEA 250301Z 2503/2606 36008KT P6SM SKC FM250800 02004KT P6SM SKC
                       FM251800 32010KT P6SM SKC=
202107242320 TAF KSEA 242320Z 2500/2606 36014KT P6SM SKC FM250600 03007KT P6SM
                       SKC FM251800 33010KT P6SM SKC=
202107241724 TAF KSEA 241724Z 2418/2524 33007KT P6SM SKC FM250600 02006KT P6SM
                       SKC=
202107241516 KSEA 241516Z 2415/2518 05006KT P6SM SKC FM241800 34008KT P6SM SKC
                       FM250600 02006KT P6SM SKC=
202107241127 TAF KSEA 241127Z 2412/2518 02006KT P6SM SKC FM241800 34008KT P6SM
                       SKC FM250600 02006KT P6SM SKC=
202107240914 KSEA 240914Z 2409/2512 02006KT P6SM SKC FM241800 31007KT P6SM SKC
                       FM250600 02006KT P6SM SKC=
202107240526 TAF KSEA 240526Z 2406/2512 02006KT P6SM SKC FM241800 31007KT P6SM
                       SKC FM250600 02006KT P6SM SKC=
202107240301 KSEA 240301Z 2403/2506 34010KT P6SM SKC FM240600 02006KT P6SM SKC
                       FM241800 31007KT P6SM SKC=
202107232320 TAF KSEA 232320Z 2400/2506 31007KT P6SM SKC FM240600 02006KT P6SM
                       SKC FM241800 31007KT P6SM SKC=
202107232101 KSEA 232101Z 2321/2424 30007KT P6SM SKC FM240600 02006KT P6SM SKC
                       FM241800 31007KT P6SM SKC=
202107231720 TAF KSEA 231720Z 2318/2424 28005KT P6SM FEW120 FM232000 31008KT
                       P6SM SKC FM240600 02006KT P6SM SKC FM241800
                       31007KT P6SM SKC=
202107231500 KSEA 231500Z 2315/2418 22004KT P6SM FEW120 FM231900 31006KT P6SM
                       SKC FM240600 02006KT P6SM SKC=
202107231141 TAF KSEA 231141Z 2312/2418 VRB03KT P6SM SKC FM231900 31006KT P6SM
                       SKC FM240600 02006KT P6SM SKC=
202107230913 KSEA 230913Z 2309/2412 34006KT P6SM SCT250 FM231200 20006KT P6SM
                       SKC FM231900 31006KT P6SM SKC FM240600 02006KT
                       P6SM SKC=
202107230523 TAF KSEA 230523Z 2306/2412 34006KT P6SM SCT250 FM231200 20006KT
                       P6SM SKC FM231900 31006KT P6SM SKC FM240600
                       02006KT P6SM SKC=
202107230311 KSEA 230311Z 2303/2406 33006KT P6SM FEW040 BKN250 FM230500 35005KT
                       P6SM SCT250 FM231200 20005KT P6SM SKC FM231900
                       29006KT P6SM SKC=
202107222320 TAF KSEA 222320Z 2300/2406 34008KT P6SM FEW040 SCT250 FM230500
                       35005KT P6SM SCT250 FM231200 20005KT P6SM
                       SKC FM231900 29006KT P6SM SKC=
202107222100 KSEA 222100Z 2221/2324 29007KT P6SM SCT035 SCT250 FM230500 35006KT
                       P6SM SCT250 FM231200 20005KT P6SM SKC FM231900
                       29006KT P6SM SKC=
202107221722 TAF KSEA 221722Z 2218/2324 04006KT P6SM FEW025 SCT050 FM222000
                       30007KT P6SM FEW050 SCT250 FM230500 35006KT
                       P6SM SCT250 FM231200 20005KT P6SM SKC FM231900
                       29006KT P6SM SKC=
202107221502 KSEA 221502Z 2215/2318 06007KT P6SM FEW015 BKN050 FM221700 33006KT
                       P6SM SCT050 FM231200 18006KT P6SM SKC=
202107221128 TAF KSEA 221128Z 2212/2318 VRB03KT P6SM BKN050 FM221700 33006KT
                       P6SM SCT050 FM231200 18006KT P6SM SKC=
202107220911 KSEA 220911Z 2209/2312 VRB03KT P6SM BKN045 FM221700 33006KT P6SM
                       SCT050=
202107220533 TAF KSEA 220533Z 2206/2312 32004KT P6SM SCT045 FM221200 VRB03KT
                       P6SM BKN035 FM221700 33006KT P6SM SCT050=
202107220306 KSEA 220306Z 2203/2306 30007KT P6SM SCT045 FM220900 03005KT P6SM
                       BKN050 FM221400 02004KT P6SM BKN025 OVC050
                       FM221800 32007KT P6SM SCT050=
202107212322 TAF KSEA 212322Z 2200/2306 28005KT P6SM SCT035 FM220200 34005KT
                       P6SM SCT040 FM220900 03005KT P6SM BKN050
                       FM221400 02004KT P6SM BKN025 OVC050 FM221800
                       32007KT P6SM SCT050=
202107212102 KSEA 212102Z 2121/2224 23006KT P6SM SCT040
                      TEMPO 2121/2123 BKN040 FM220200 34005KT P6SM
                       SCT040 FM220900 03005KT P6SM BKN050 FM221400
                       02004KT P6SM BKN025 OVC050 FM221800 32007KT
                       P6SM SCT050=
202107211721 TAF KSEA 211721Z 2118/2224 19005KT P6SM SCT015 OVC025 FM211900
                       25007KT P6SM SCT025 BKN040 FM212200 29006KT
                       P6SM SCT040 FM220200 36006KT P6SM SCT040
                       FM220900 03005KT P6SM BKN050 FM221400 02004KT
                       P6SM BKN025 OVC050 FM221800 32007KT P6SM
                       SCT050=
202107211502 KSEA 211502Z 2115/2218 19006KT P6SM BKN025 OVC040 FM211900 25007KT
                       P6SM BKN040 FM220200 27006KT P6SM SCT040
                       FM220900 03005KT P6SM BKN050=
202107211259 KSEA 211259Z 2113/2218 22005KT P6SM OVC020 FM211900 25007KT P6SM
                       BKN040 FM220200 27006KT P6SM SCT040 FM220900
                       03005KT P6SM BKN050=
202107211126 TAF KSEA 211126Z 2112/2218 22005KT P6SM OVC020 FM211900 25007KT
                       P6SM BKN040 FM220200 27006KT P6SM SCT040
                       FM220900 03005KT P6SM BKN050=
202107210851 KSEA 210851Z 2109/2212 VRB03KT P6SM OVC025 FM211200 17005KT P6SM
                       OVC020 FM211900 25005KT P6SM BKN040 FM220200
                       29006KT P6SM SCT040=
202107210524 TAF KSEA 210524Z 2106/2212 35005KT P6SM SCT025 FM211100 19005KT
                       P6SM OVC025 FM211900 25005KT P6SM BKN040
                       FM220200 29006KT P6SM SCT040=
202107210301 KSEA 210301Z 2103/2206 32005KT P6SM FEW035 FM210900 20005KT P6SM
                       BKN025 FM211900 25005KT P6SM BKN040 FM220200
                       33006KT P6SM SCT040=
202107202323 TAF KSEA 202323Z 2100/2206 33005KT P6SM BKN030 FM210200 32006KT
                       P6SM SCT035 FM210900 20005KT P6SM BKN025
                       FM211900 25005KT P6SM BKN040 FM220200 33006KT
                       P6SM SCT040=
202107202104 KSEA 202104Z 2021/2124 21007KT P6SM OVC025 FM202200 26008KT P6SM
                       BKN030
                      TEMPO 2022/2101 SCT035 FM210100 28006KT P6SM
                       SCT035 FM210300 33006KT P6SM SCT040 FM211200
                       20005KT P6SM BKN022 FM211900 25005KT P6SM
                       BKN040=
202107201728 TAF KSEA 201728Z 2018/2124 21007KT P6SM FEW006 OVC020 FM202200
                       26008KT P6SM BKN030
                      TEMPO 2022/2101 SCT035 FM210100 28006KT P6SM
                       SCT035 FM210300 33006KT P6SM SCT040 FM211200
                       20005KT P6SM BKN022 FM211900 25005KT P6SM
                       BKN040=
202107201502 KSEA 201502Z 2015/2118 22007KT P6SM OVC012
                      TEMPO 2015/2018 5SM -DZ BR FM201800 23005KT
                       P6SM OVC020 FM202200 26008KT P6SM SCT035
                       FM210000 28009KT P6SM FEW060 FM211200 20005KT
                       P6SM BKN020=
202107201138 TAF KSEA 201138Z 2012/2118 21006KT P6SM BKN013 OVC015 FM201800
                       23005KT P6SM OVC020 FM202200 26008KT P6SM
                       SCT035 FM210000 28009KT P6SM FEW060 FM211200
                       20005KT P6SM BKN020=
202107200913 KSEA 200913Z 2009/2112 24006KT P6SM SCT018 FM201100 20006KT P6SM
                       OVC015 FM201800 23005KT P6SM OVC020 FM202200
                       26008KT P6SM SCT035 FM210000 28009KT P6SM
                       FEW060=
202107200538 TAF KSEA 200538Z 2006/2112 22004KT P6SM SKC FM201100 22004KT P6SM
                       OVC010 FM201800 23005KT P6SM OVC020 FM202200
                       26008KT P6SM SCT035 FM210000 28009KT P6SM
                       FEW060=
202107200254 KSEA 200254Z 2003/2106 24008KT P6SM SKC FM201200 22004KT P6SM OVC010
                       FM201800 23005KT P6SM OVC020 FM202200 26008KT
                       P6SM SCT035 FM210000 28009KT P6SM FEW060=
202107192320 TAF KSEA 192320Z 2000/2106 24006KT P6SM SKC FM200800 23005KT P6SM
                       SCT100 FM201000 22005KT P6SM BKN035 FM201400
                       22004KT P6SM OVC030 FM201800 23005KT P6SM
                       BKN035 FM202200 24006KT P6SM SCT040 FM210000
                       25007KT P6SM FEW060=
202107192133 KSEA 192133Z 1922/2024 24006KT P6SM SKC FM200800 23005KT P6SM SCT100
                       FM201000 22005KT P6SM BKN035 FM201400 22004KT
                       P6SM OVC030 FM201800 24005KT P6SM BKN035=
202107191738 TAF KSEA 191738Z 1918/2024 24005KT P6SM SKC FM192000 23007KT P6SM
                       SKC FM200800 22005KT P6SM SCT100 FM201000
                       22005KT P6SM BKN035 FM201400 22004KT P6SM
                       OVC030 FM201800 24005KT P6SM BKN035=
202107191505 KSEA 191505Z 1915/2018 22004KT P6SM SKC FM192000 27007KT P6SM SKC
                       FM200800 21005KT P6SM SCT100 FM201400 22004KT
                       P6SM BKN030=
202107191120 TAF KSEA 191120Z 1912/2018 02006KT P6SM SKC FM192000 27007KT P6SM
                       SKC FM200800 21005KT P6SM SCT100 FM201400
                       22004KT P6SM BKN030=
202107190905 KSEA 190905Z 1909/2012 02006KT P6SM SKC FM192000 29007KT P6SM SKC
                       FM200800 21005KT P6SM SCT100=
202107190539 TAF KSEA 190539Z 1906/2012 33007KT P6SM FEW150 FM190800 01005KT
                       P6SM SKC FM192000 27007KT P6SM SKC=
202107190301 KSEA 190301Z 1903/2006 34005KT P6SM FEW250 FM192000 27007KT P6SM
                       SKC=
202107182322 TAF KSEA 182322Z 1900/2006 31007KT P6SM SCT250 FM190300 35004KT
                       P6SM FEW250 FM191800 27007KT P6SM SKC=
202107182101 KSEA 182101Z 1821/1924 31008KT P6SM FEW250 FM190300 35004KT P6SM
                       FEW250 FM191800 27007KT P6SM SKC=
202107181721 TAF KSEA 181721Z 1818/1924 28007KT P6SM FEW040 SCT250 FM190300
                       35004KT P6SM SCT250 FM191800 27007KT P6SM
                       SKC=
202107181500 KSEA 181500Z 1815/1918 VRB03KT P6SM FEW050 SCT250 FM181900 31006KT
                       P6SM BKN150 FM190300 35004KT P6SM SCT150=
202107181129 TAF KSEA 181129Z 1812/1918 02004KT P6SM BKN050 FM181900 31006KT
                       P6SM BKN150 FM190300 35004KT P6SM SCT150=
202107180906 KSEA 180906Z 1809/1912 35006KT P6SM SCT050 SCT250 FM181200 02004KT
                       P6SM BKN050 FM181900 31006KT P6SM SCT150
                       FM190300 35004KT P6SM SCT150=
202107180527 TAF KSEA 180527Z 1806/1912 35006KT P6SM SCT050 SCT250 FM181200
                       02004KT P6SM BKN050 FM181900 29006KT P6SM
                       SCT250 FM190300 34005KT P6SM SCT250=
202107180302 KSEA 180302Z 1803/1906 34010KT P6SM SCT050 SCT250 FM180600 35005KT
                       P6SM SKC FM181900 29006KT P6SM SCT250 FM190300
                       34005KT P6SM SCT250=
202107172321 TAF KSEA 172321Z 1800/1906 30006KT P6SM SCT040 FM180300 34005KT
                       P6SM SKC FM181900 29006KT P6SM SCT250 FM190300
                       34005KT P6SM SCT250=
202107172102 KSEA 172102Z 1721/1824 25006KT P6SM SCT035 FM180300 34005KT P6SM
                       SKC=
202107171720 TAF KSEA 171720Z 1718/1824 21006KT P6SM SCT020 BKN070
                      TEMPO 1718/1719 BKN020 OVC070 FM172000 23004KT
                       P6SM SCT060 FM172200 28007KT P6SM SKC FM180300
                       34005KT P6SM SKC=
202107171425 KSEA 171425Z 1714/1818 19005KT P6SM SCT030 BKN060
                      TEMPO 1714/1718 BKN030 OVC060 FM172000 23004KT
                       P6SM SCT060 FM172200 28007KT P6SM SKC FM180300
                       34005KT P6SM SKC=
202107171127 TAF KSEA 171127Z 1712/1818 21004KT P6SM BKN035 OVC045 FM171300
                       22004KT P6SM SCT025 OVC030 FM172000 23004KT
                       P6SM BKN030 FM172200 28007KT P6SM SKC FM180300
                       34005KT P6SM SKC=
202107170911 KSEA 170911Z 1709/1812 VRB05KT P6SM BKN045 FM171100 VRB05KT P6SM
                       OVC030 FM172000 23004KT P6SM BKN030 FM172200
                       28007KT P6SM SKC=
202107170537 TAF KSEA 170537Z 1706/1812 26004KT P6SM OVC050 FM170700 VRB05KT
                       P6SM BKN050 FM171100 VRB05KT P6SM OVC030
                       FM172000 23004KT P6SM BKN030 FM172200 28007KT
                       P6SM SKC=
202107170302 KSEA 170302Z 1703/1806 20009KT P6SM OVC050 FM170700 VRB05KT P6SM
                       BKN050 FM171100 VRB05KT P6SM OVC030 FM172000
                       23004KT P6SM BKN030 FM172200 28007KT P6SM
                       SKC=
202107162327 TAF KSEA 162327Z 1700/1806 22010KT P6SM FEW025 BKN050 FM170700
                       VRB05KT P6SM SCT020 BKN050 FM171100 VRB05KT
                       P6SM OVC020 FM172000 23004KT P6SM BKN025
                       FM172200 28007KT P6SM SCT030=
202107162100 KSEA 162100Z 1621/1724 24008KT P6SM SCT021 OVC045 FM170000 21006KT
                       P6SM SCT025 BKN045 FM171100 21006KT P6SM
                       OVC020 FM172000 23004KT P6SM SCT025=
202107161720 TAF KSEA 161720Z 1618/1724 21007KT P6SM OVC011 FM162100 21006KT
                       P6SM OVC022 FM170000 21006KT P6SM SCT025
                       BKN040 FM171100 21006KT P6SM OVC020 FM172000
                       23004KT P6SM SCT025=
202107161503 KSEA 161503Z 1615/1718 21006KT P6SM OVC008 FM161800 21006KT P6SM
                       OVC012 FM162100 21006KT P6SM OVC022 FM170000
                       21006KT P6SM SCT025 BKN040 FM171100 21006KT
                       P6SM OVC020=
202107161127 TAF KSEA 161127Z 1612/1718 21006KT P6SM BKN012 OVC035 FM161500
                       21006KT P6SM OVC008 FM161800 21006KT P6SM
                       OVC012 FM162100 21006KT P6SM OVC022 FM170000
                       21006KT P6SM SCT025 BKN040 FM171100 21006KT
                       P6SM OVC020=
202107160918 KSEA 160918Z 1609/1712 21006KT P6SM BKN035 FM161000 21006KT P6SM
                       OVC006 FM161700 21006KT P6SM OVC012 FM162100
                       21006KT P6SM OVC022 FM170000 21006KT P6SM
                       SCT025 BKN040 FM171100 21006KT P6SM OVC020=
202107160537 TAF KSEA 160537Z 1606/1712 21006KT P6SM BKN035 FM161000 21006KT
                       P6SM OVC006 FM161700 21006KT P6SM OVC012
                       FM162100 21006KT P6SM OVC022 FM170000 21006KT
                       P6SM SCT025 BKN040 FM171100 21006KT P6SM
                       OVC020=
202107160301 KSEA 160301Z 1603/1706 21006KT P6SM SCT035 SCT200 FM160800 21008KT
                       P6SM BKN020 OVC035 FM162000 22006KT P6SM
                       SCT020 BKN035=
202107152321 TAF KSEA 152321Z 1600/1706 19007KT P6SM SCT035 FM160800 21008KT
                       P6SM OVC011 FM162000 22006KT P6SM BKN020=
202107152059 KSEA 152059Z 1521/1624 21008KT P6SM BKN025 FM152300 24008KT P6SM
                       SCT025 BKN040 FM160800 21008KT P6SM OVC011
                       FM162000 22006KT P6SM BKN020=
202107151720 TAF KSEA 151720Z 1518/1624 21008KT P6SM OVC012 FM152100 21008KT
                       P6SM BKN020 FM152300 24008KT P6SM SCT025
                       BKN040 FM160800 21008KT P6SM OVC011=
202107151459 KSEA 151459Z 1515/1618 21008KT P6SM OVC008 FM151900 21008KT P6SM
                       OVC012 FM152100 21008KT P6SM BKN020 FM152300
                       24008KT P6SM SCT025 BKN040 FM160800 21008KT
                       P6SM OVC011=
202107151124 TAF KSEA 151124Z 1512/1618 21008KT P6SM OVC005 FM151600 21008KT
                       P6SM OVC008 FM151900 21008KT P6SM OVC012
                       FM152100 21008KT P6SM BKN020 FM152300 24008KT
                       P6SM SCT025 BKN040 FM160800 21008KT P6SM
                       OVC011=
202107150905 KSEA 150905Z 1509/1612 21008KT P6SM OVC006 FM151900 21008KT P6SM
                       OVC012 FM152100 21008KT P6SM BKN020 FM152300
                       24008KT P6SM SCT025 BKN040 FM160900 21008KT
                       P6SM OVC011=
202107150539 TAF KSEA 150539Z 1506/1612 21008KT P6SM SKC FM150900 21008KT P6SM
                       OVC008 FM151900 21008KT P6SM OVC012 FM152100
                       21008KT P6SM BKN020 FM152300 24008KT P6SM
                       SCT025 BKN040 FM160900 21008KT P6SM OVC011=
202107142320 TAF KSEA 142320Z 1500/1606 24005KT P6SM SKC FM151100 21008KT P6SM
                       OVC008 FM151900 21008KT P6SM OVC012 FM152100
                       22008KT P6SM BKN020 FM152200 22008KT P6SM
                       SKC=
202107142001 KSEA 142001Z 1420/1524 28009KT P6SM BKN012 FM142100 23008KT P6SM
                       SKC
                      TEMPO 1421/1422 FEW020 FM151100 21008KT P6SM
                       OVC008 FM151900 21008KT P6SM OVC012 FM152100
                       22008KT P6SM BKN020 FM152300 22008KT P6SM
                       SKC=
202107141722 TAF KSEA 141722Z 1418/1524 20007KT 5SM BR OVC004 FM141900 21006KT
                       P6SM OVC011 FM142000 25006KT P6SM SKC FM151100
                       21008KT P6SM OVC008 FM151900 21008KT P6SM
                       OVC012 FM152100 22008KT P6SM BKN020 FM152300
                       22008KT P6SM SKC=
202107141519 KSEA 141519Z 1415/1518 21006KT 2SM BR OVC002
                      TEMPO 1415/1417 1SM BR FM141700 21006KT 5SM
                       BR OVC004 FM141800 21006KT P6SM OVC008 FM141900
                       21006KT P6SM OVC011 FM142000 25006KT P6SM
                       SCT250 FM151100 21008KT P6SM OVC008 FM151700
                       21008KT P6SM OVC012=
202107141457 KSEA 141457Z 1415/1518 21006KT 5SM BR OVC002
                      TEMPO 1415/1416 3SM BR FM141600 21006KT 5SM
                       BR OVC004 FM141700 21006KT P6SM OVC008 FM141900
                       21006KT P6SM OVC011 FM142000 25006KT P6SM
                       SCT250 FM151100 21008KT P6SM OVC008 FM151700
                       21008KT P6SM OVC012=
202107141358 KSEA 141358Z 1414/1518 21006KT 1SM BR OVC001 FM141600 21006KT 4SM
                       BR OVC004 FM141700 21006KT P6SM OVC008 FM141900
                       21006KT P6SM OVC011 FM142000 25006KT P6SM
                       SCT250 FM151100 21008KT P6SM OVC008 FM151700
                       21008KT P6SM OVC012=
202107141145 KSEA 141145Z 1412/1518 21006KT 4SM BR OVC003
                      TEMPO 1414/1416 1SM BR FM141700 21006KT P6SM
                       OVC008 FM141900 21006KT P6SM OVC011 FM142000
                       25006KT P6SM SCT250 FM151100 21008KT P6SM
                       OVC008 FM151700 21008KT P6SM OVC012=
202107141132 TAF KSEA 141132Z 1412/1518 21006KT P6SM SKC FM141300 21006KT 4SM
                       BR OVC003
                      TEMPO 1414/1416 1SM BR FM141700 21006KT P6SM
                       OVC008 FM141900 21006KT P6SM OVC011 FM142000
                       25006KT P6SM SCT250 FM151100 21008KT P6SM
                       OVC008 FM151700 21008KT P6SM OVC012=
202107140910 KSEA 140910Z 1409/1512 VRB04KT P6SM SKC FM141300 21008KT 4SM BR
                       OVC003 FM141700 21008KT P6SM OVC008 FM141900
                       21008KT P6SM OVC011 FM142000 25006KT P6SM
                       SCT250 FM151100 21008KT P6SM OVC011=
202107140539 TAF KSEA 140539Z 1406/1512 VRB04KT P6SM SKC FM141200 21008KT P6SM
                       OVC004 FM141700 21008KT P6SM OVC008 FM141900
                       21008KT P6SM OVC011 FM142000 25006KT P6SM
                       SCT250 FM151100 21008KT P6SM OVC011=
202107140300 KSEA 140300Z 1403/1506 22006KT P6SM SKC FM140500 VRB04KT P6SM SKC
                       FM141200 21008KT P6SM OVC009 FM141600 21008KT
                       P6SM OVC012 FM141800 23005KT P6SM SCT250=
202107132320 TAF KSEA 132320Z 1400/1506 26006KT P6SM SKC FM140500 VRB04KT P6SM
                       SKC FM141200 21008KT P6SM OVC009 FM141600
                       21008KT P6SM OVC012 FM141800 23005KT P6SM
                       SCT250=
202107132101 KSEA 132101Z 1321/1424 26006KT P6SM SKC FM140500 VRB04KT P6SM SKC
                       FM141200 21008KT P6SM OVC009 FM141600 21008KT
                       P6SM OVC012 FM141800 23005KT P6SM SCT250=
202107131847 KSEA 131847Z 1319/1424 21006KT P6SM SCT010 FM132000 29006KT P6SM
                       SKC FM141200 21008KT P6SM OVC009 FM141700
                       21008KT P6SM OVC012=
202107131753 KSEA 131753Z 1318/1424 21006KT P6SM OVC005 FM131900 29006KT P6SM
                       SKC FM141200 21008KT P6SM OVC009 FM141700
                       21008KT P6SM OVC012=
202107131720 TAF KSEA 131720Z 1318/1424 21006KT 5SM BR OVC003
                      TEMPO 1318/1319 1SM BR FM131900 29006KT P6SM
                       SKC FM141200 21008KT P6SM OVC009 FM141700
                       21008KT P6SM OVC012=
202107131602 KSEA 131602Z 1316/1418 21006KT 4SM BR OVC002
                      TEMPO 1316/1319 1SM BR FM131900 29006KT P6SM
                       SKC FM141200 21008KT P6SM OVC009 FM141700
                       21008KT P6SM OVC012=
202107131458 KSEA 131458Z 1315/1418 21006KT 4SM BR OVC002
                      TEMPO 1315/1316 1SM BR FM131600 21006KT P6SM
                       SCT004 FM131900 29006KT P6SM SKC FM141200
                       21008KT P6SM OVC009 FM141700 21008KT P6SM
                       OVC012=
202107131306 KSEA 131306Z 1313/1418 21006KT 4SM BR OVC002 FM131600 21006KT P6SM
                       SCT004 FM131900 29006KT P6SM SKC FM141200
                       21008KT P6SM OVC009 FM141700 21008KT P6SM
                       OVC012=
202107131140 TAF KSEA 131140Z 1312/1418 21006KT P6SM SKC FM131400 21006KT 4SM
                       BR OVC002 FM131600 21006KT P6SM SCT004 FM131900
                       29006KT P6SM SKC FM141200 21008KT P6SM OVC009
                       FM141700 21008KT P6SM OVC012=
202107130901 KSEA 130901Z 1309/1412 21006KT P6SM SKC
                      TEMPO 1314/1316 SCT003 FM131900 29006KT P6SM
                       SKC=
202107130536 TAF KSEA 130536Z 1306/1412 29006KT P6SM SKC FM131100 21006KT P6SM
                       SKC
                      TEMPO 1314/1316 SCT003 FM131900 29006KT P6SM
                       SKC=
202107130300 KSEA 130300Z 1303/1406 26006KT P6SM SKC FM130600 03003KT P6SM SKC
                       FM131500 22005KT P6SM SCT007 FM131800 29005KT
                       P6SM SKC=
202107122320 TAF KSEA 122320Z 1300/1406 30010KT P6SM SKC FM130600 03003KT P6SM
                       SKC FM131500 22005KT P6SM SCT007 FM131800
                       29005KT P6SM SKC=
202107122106 KSEA 122106Z 1221/1324 31009KT P6SM SKC FM130000 32007KT P6SM SKC
                       FM130600 03003KT P6SM SKC FM131500 22005KT
                       P6SM SCT007 FM131800 25005KT P6SM SKC=
202107121720 TAF KSEA 121720Z 1218/1324 31005KT P6SM SKC FM130000 32007KT P6SM
                       SKC FM130600 03003KT P6SM SKC FM131500 22005KT
                       P6SM SCT007 FM131800 25005KT P6SM SKC=
202107121608 KSEA 121608Z 1216/1318 31005KT P6SM SKC FM130000 32007KT P6SM SKC
                       FM130600 05003KT P6SM SKC FM131500 25005KT
                       P6SM SCT007=
202107121508 KSEA 121508Z 1215/1318 29004KT P6SM FEW010
                      TEMPO 1215/1217 BKN005 FM121900 31005KT P6SM
                       FEW250 FM130000 32007KT P6SM SKC FM130600
                       05003KT P6SM SKC=
202107121310 KSEA 121310Z 1213/1318 28004KT P6SM FEW250 FM121500 03004KT P6SM
                       SCT020
                      TEMPO 1215/1218 OVC005 FM122000 28005KT P6SM
                       FEW250 FM130000 30006KT P6SM SKC FM130600
                       34004KT P6SM SKC=
202107121122 TAF KSEA 121122Z 1212/1318 02009KT P6SM SKC FM121500 03004KT P6SM
                       SCT020
                      TEMPO 1215/1218 OVC005 FM122000 28005KT P6SM
                       FEW250 FM130000 30006KT P6SM SKC FM130600
                       34004KT P6SM SKC=
202107120851 KSEA 120851Z 1209/1312 02009KT P6SM SKC FM121500 03004KT P6SM SCT020
                       TEMPO 1215/1218 OVC005 FM122000 28005KT
                       P6SM FEW250 FM130000 30006KT P6SM SKC FM130600
                       01004KT P6SM SKC=
202107120525 TAF KSEA 120525Z 1206/1312 02007KT P6SM SKC FM121000 VRB03KT P6SM
                       SKC FM121500 03004KT P6SM SCT020
                      TEMPO 1215/1218 OVC005 FM122000 28005KT P6SM
                       BKN050 FM130000 30006KT P6SM SKC=
202107120301 KSEA 120301Z 1203/1306 35009KT P6SM SKC FM121000 VRB03KT P6SM SKC
                       FM121500 24004KT P6SM SCT020
                      TEMPO 1215/1218 OVC005 FM122000 28005KT P6SM
                       BKN050 FM130000 30006KT P6SM SKC=
202107112326 TAF KSEA 112326Z 1200/1306 35010KT P6SM SKC FM121000 VRB03KT P6SM
                       SKC FM121500 24004KT P6SM SCT020
                      TEMPO 1215/1218 OVC005 FM122000 28005KT P6SM
                       BKN050 FM130000 30006KT P6SM SKC=
202107112057 KSEA 112057Z 1121/1224 30007KT P6SM SKC FM120600 36003KT P6SM SKC
                       FM121000 VRB03KT P6SM SKC FM121500 24004KT
                       P6SM SCT020 FM122000 28005KT P6SM SKC=
202107111720 TAF KSEA 111720Z 1118/1224 20005KT P6SM SKC FM112100 30007KT P6SM
                       SKC FM120600 36003KT P6SM SKC FM121000 VRB03KT
                       P6SM SKC FM121500 24004KT P6SM SCT020 FM122000
                       28005KT P6SM SKC=
202107111454 KSEA 111454Z 1115/1218 26003KT P6SM FEW005 FEW030
                      TEMPO 1115/1117 OVC005 FM111800 29003KT P6SM
                       SKC FM120000 31007KT P6SM SKC FM120600 36004KT
                       P6SM SKC=
202107111227 KSEA 111227Z 1112/1218 26003KT P6SM FEW060
                      TEMPO 1113/1116 BKN005 FM111800 29003KT P6SM
                       SKC FM120000 31007KT P6SM SKC FM120600 36004KT
                       P6SM SKC=
202107111120 TAF KSEA 111120Z 1112/1218 26003KT P6SM FEW060 FM111800 29003KT
                       P6SM SKC FM120000 31007KT P6SM SKC FM120600
                       36004KT P6SM SKC=
202107110852 KSEA 110852Z 1109/1212 34004KT P6SM SCT070 FM111200 03006KT P6SM
                       FEW050 FM111800 29003KT P6SM SKC FM120000
                       34007KT P6SM SKC=
202107110520 TAF KSEA 110520Z 1106/1212 04009KT P6SM FEW250 FM110900 34007KT
                       P6SM SKC FM111200 03006KT P6SM BKN050 FM111800
                       29003KT P6SM SKC FM120000 34007KT P6SM SKC=
202107102320 TAF KSEA 102320Z 1100/1206 27008KT P6SM SKC FM110300 31006KT P6SM
                       SKC FM111500 36003KT P6SM BKN050 FM112000
                       34007KT P6SM SKC=
202107102058 KSEA 102058Z 1021/1124 26006KT P6SM SKC FM110000 28007KT P6SM SKC
                       FM110300 31006KT P6SM SKC FM111500 36003KT
                       P6SM BKN050 FM112000 34007KT P6SM SKC=
202107101932 KSEA 101932Z 1020/1124 23004KT P6SM SKC FM110000 28007KT P6SM SKC
                       FM110300 31006KT P6SM SKC FM111500 36003KT
                       P6SM BKN050 FM112000 34007KT P6SM SKC=
202107101725 TAF KSEA 101725Z 1018/1124 22007KT P6SM BKN004 BKN020 FM101900
                       23007KT P6SM BKN020 BKN050 FM110000 28007KT
                       P6SM SKC FM110300 31006KT P6SM SKC FM111500
                       36003KT P6SM BKN050 FM112000 34007KT P6SM
                       SKC=
202107101604 KSEA 101604Z 1016/1118 22006KT 4SM BR BKN003 OVC016 FM101700 22006KT
                       P6SM FEW015 SCT050 FM101800 24006KT P6SM
                       SKC FM110000 28007KT P6SM SKC FM110300 31006KT
                       P6SM SKC=
202107101429 KSEA 101429Z 1014/1118 20007KT P6SM BKN005 BKN020 FM101600 22006KT
                       P6SM FEW015 SCT050 FM101800 24006KT P6SM
                       SKC FM110000 28007KT P6SM SKC FM110300 31006KT
                       P6SM SKC=
202107101123 TAF KSEA 101123Z 1012/1118 VRB03KT P6SM SKC FM101400 20004KT P6SM
                       FEW004 SCT250 FM101800 24006KT P6SM SKC
                       FM110000 28007KT P6SM SKC FM110300 31006KT
                       P6SM SKC=
202107100851 KSEA 100851Z 1009/1112 VRB03KT P6SM SKC FM101400 20004KT P6SM FEW004
                       SCT250 FM101800 24006KT P6SM SKC FM110000
                       31007KT P6SM SKC FM110600 01004KT P6SM SKC=
202107100522 TAF KSEA 100522Z 1006/1112 01008KT P6SM SKC FM101400 VRB04KT P6SM
                       FEW004 SCT250 FM101800 24006KT P6SM SKC
                       FM110000 31007KT P6SM SKC=
202107100304 KSEA 100304Z 1003/1106 32008KT P6SM SKC FM101400 VRB04KT P6SM FEW004
                       SCT250 FM101800 30006KT P6SM SKC=
202107092326 TAF KSEA 092326Z 1000/1106 32008KT P6SM SKC FM101400 22006KT P6SM
                       FEW004 FM101800 30006KT P6SM SKC=
202107092101 KSEA 092101Z 0921/1024 32008KT P6SM SKC FM101400 22006KT P6SM SCT006
                       FM101800 30006KT P6SM SKC=
202107091740 TAF KSEA 091740Z 0918/1024 32006KT P6SM SKC FM101400 22006KT P6SM
                       SCT006 FM101800 30006KT P6SM SKC=
202107091505 KSEA 091505Z 0915/1018 19004KT P6SM SCT050 FM092000 33006KT P6SM
                       SKC=
202107091213 KSEA 091213Z 0912/1018 VRB03KT P6SM FEW008 BKN050 FM091300 VRB03KT
                       P6SM SCT020 BKN250
                      TEMPO 0913/0916 OVC010 FM091700 32006KT P6SM
                       SKC FM100000 33005KT P6SM SKC FM100600 36003KT
                       P6SM FEW250=
202107091121 TAF KSEA 091121Z 0912/1018 24003KT P6SM SCT050 FM091300 VRB03KT
                       P6SM SCT020 BKN250
                      TEMPO 0913/0916 OVC010 FM091700 32006KT P6SM
                       SKC FM100000 33005KT P6SM SKC FM100600 36003KT
                       P6SM FEW250=
202107090850 KSEA 090850Z 0909/1012 23003KT P6SM SKC FM091300 VRB03KT P6SM SCT020
                       BKN250
                      TEMPO 0913/0916 OVC010 FM091700 32006KT P6SM
                       SKC FM100000 33005KT P6SM SKC=
202107090522 TAF KSEA 090522Z 0906/1012 27005KT P6SM FEW200 FM091300 VRB03KT
                       P6SM SCT020 BKN250
                      TEMPO 0913/0916 OVC010 FM091700 32006KT P6SM
                       SKC FM100000 33005KT P6SM SKC=
202107090300 KSEA 090300Z 0903/1006 VRB04KT P6SM SCT250 FM091300 VRB03KT P6SM
                       SCT020 BKN250
                      TEMPO 0913/0916 OVC010 FM091700 32006KT P6SM
                       SKC=
202107082340 TAF KSEA 082340Z 0900/1006 23006KT P6SM SCT250 FM091300 VRB03KT
                       P6SM OVC010 FM091700 32006KT P6SM SKC=
202107082112 KSEA 082112Z 0821/0924 23006KT P6SM SCT030 BKN250 FM090000 28006KT
                       P6SM SCT250 FM091300 VRB03KT P6SM OVC025
                       FM091700 32006KT P6SM SKC=
202107081941 KSEA 081941Z 0820/0924 23006KT P6SM OVC022 FM082100 23006KT P6SM
                       SCT030 BKN250 FM090000 28006KT P6SM SCT250
                       FM091300 VRB03KT P6SM OVC025 FM091700 32006KT
                       P6SM SKC=
202107081721 TAF KSEA 081721Z 0818/0924 23006KT P6SM OVC022 FM082000 23006KT
                       P6SM SCT030 BKN250 FM090000 28006KT P6SM
                       SCT250 FM091300 VRB03KT P6SM OVC025 FM091700
                       32006KT P6SM SKC=
202107081505 KSEA 081505Z 0815/0918 20006KT P6SM OVC022 FM081900 26007KT P6SM
                       BKN250 FM090900 36003KT P6SM FEW250=
202107081121 TAF KSEA 081121Z 0812/0918 22004KT P6SM SCT035 FM081400 VRB03KT
                       P6SM BKN025 FM081700 26007KT P6SM BKN250
                       FM090900 36003KT P6SM FEW250=
202107080850 KSEA 080850Z 0809/0912 22006KT P6SM OVC035 FM081300 VRB03KT P6SM
                       OVC012 FM081700 26007KT P6SM SCT250 FM090600
                       33003KT P6SM SCT250=
202107080521 TAF KSEA 080521Z 0806/0912 22006KT P6SM FEW035 FM081000 VRB03KT
                       P6SM SCT250 FM081300 06003KT P6SM OVC012
                       FM081700 26007KT P6SM SCT250=
202107080301 KSEA 080301Z 0803/0906 24010KT P6SM SCT035 FM081000 VRB03KT P6SM
                       OVC012 FM081900 26007KT P6SM SCT250=
202107072339 TAF KSEA 072339Z 0800/0906 24010KT P6SM SCT035 FM081000 VRB03KT
                       P6SM OVC012 FM081900 26007KT P6SM SCT250=
202107072106 KSEA 072106Z 0721/0824 24010KT P6SM BKN030 FM080000 24008KT P6SM
                       SCT035 FM080800 19004KT P6SM BKN010=
202107071736 TAF KSEA 071736Z 0718/0824 21011KT P6SM OVC018 FM071900 24010KT
                       P6SM BKN020 FM080000 24008KT P6SM SCT030
                       FM080800 19004KT P6SM BKN010=
202107071527 KSEA 071527Z 0715/0818 21010KT P6SM OVC010 FM071900 24010KT P6SM
                       SCT010 FM072200 24008KT P6SM SKC FM080600
                       19004KT P6SM SKC=
202107071223 KSEA 071223Z 0712/0818 19009KT P6SM BKN008 FM071400 21010KT P6SM
                       OVC005 FM071900 24010KT P6SM SCT010 FM072200
                       24008KT P6SM SKC FM080600 19004KT P6SM SKC=
202107071124 TAF KSEA 071124Z 0712/0818 24009KT P6SM FEW010 BKN190 BKN250 FM071400
                       21010KT 1/2SM FG OVC001 FM071800 23008KT
                       3/4SM BR OVC005 FM071900 24010KT P6SM SCT010
                       FM072200 24008KT P6SM SKC FM080600 19004KT
                       P6SM SKC=
202107070856 KSEA 070856Z 0709/0812 23006KT P6SM FEW250 FM071000 23007KT P6SM
                       FEW010 FM071200 21008KT 3/4SM BR BKN002
                       TEMPO 0712/0715 1/2SM FG OVC002 FM071800
                       23008KT 3/4SM BR OVC005 FM071900 24010KT
                       P6SM SCT010 FM072200 24008KT P6SM SKC FM080600
                       19004KT P6SM SKC=
202107070524 TAF KSEA 070524Z 0706/0812 33005KT P6SM SCT150 BKN250 FM071000
                       23007KT P6SM FEW010 FM071200 21008KT 3/4SM
                       BR BKN002
                      TEMPO 0712/0715 1/2SM FG OVC002 FM071800
                       23008KT 3/4SM BR OVC005 FM071900 24010KT
                       P6SM SCT010 FM072200 24008KT P6SM SKC FM080600
                       19004KT P6SM SKC=
202107070306 KSEA 070306Z 0703/0806 30007KT P6SM SKC FM070600 35004KT P6SM SKC
                       FM071000 23007KT P6SM FEW010 FM071200 21008KT
                       3/4SM BR BKN002
                      TEMPO 0712/0715 1/2SM FG OVC002 FM071800
                       23008KT 3/4SM BR OVC005 FM071900 24010KT
                       P6SM SCT010 FM072200 24008KT P6SM SKC=
202107062320 TAF KSEA 062320Z 0700/0806 30007KT P6SM SKC FM070600 35004KT P6SM
                       SKC FM071000 23007KT P6SM FEW010 FM071200
                       21008KT 3/4SM BR BKN002
                      TEMPO 0712/0715 1/2SM FG OVC002 FM071800
                       23008KT 3/4SM BR OVC005 FM071900 24010KT
                       P6SM SCT010 FM072200 24008KT P6SM SKC=
202107062240 KSEA 062240Z 0623/0724 30007KT P6SM SKC FM070600 35004KT P6SM SKC
                       FM071000 23007KT P6SM FEW010 FM071200 21008KT
                       3/4SM BR BKN002
                      TEMPO 0712/0715 1/2SM FG OVC002 FM071800
                       23010KT 3/4SM BR OVC005 FM072000 23008KT
                       P6SM SCT010=
202107062105 KSEA 062105Z 0621/0724 27006KT P6SM SKC FM070600 35004KT P6SM SKC
                       FM071000 23007KT P6SM FEW010 FM071200 21008KT
                       3/4SM BR BKN002
                      TEMPO 0712/0715 1/2SM FG OVC002 FM071800
                       23010KT 3/4SM BR OVC005 FM072000 23008KT
                       P6SM SCT010=
202107061756 TAF KSEA 061756Z 0618/0724 28004KT 3/4SM BR OVC002 FM061900 29004KT
                       3SM BR OVC005 FM062000 32005KT P6SM FEW010
                       FM062100 32007KT P6SM SKC FM070600 35004KT
                       P6SM SKC FM071000 23007KT P6SM FEW010 FM071200
                       21008KT 3/4SM BR BKN002
                      TEMPO 0712/0715 1/2SM FG OVC002 FM071800
                       23010KT 3/4SM BR OVC005 FM072000 23008KT
                       P6SM SCT010=
202107061440 KSEA 061440Z 0615/0718 22003KT 1/4SM FG VV001 FM061600 22004KT
                       2SM BR OVC005 FM061800 32005KT P6SM FEW010
                       FM062100 32007KT P6SM SKC FM070600 35004KT
                       P6SM SKC FM071000 23007KT P6SM BKN020=
202107061219 KSEA 061219Z 0612/0718 20006KT 1/4SM FG VV002 FM061500 22003KT
                       2SM BR OVC005 FM061800 32005KT P6SM FEW010
                       FM062100 32007KT P6SM SKC FM070600 35004KT
                       P6SM SKC FM071000 23007KT P6SM BKN020=
202107061125 TAF KSEA 061125Z 0612/0718 23003KT P6SM FEW010 FM061300 27003KT
                       P6SM OVC008 FM061800 32005KT P6SM FEW010
                       FM062100 32007KT P6SM SKC FM070600 35004KT
                       P6SM SKC FM071000 23007KT P6SM BKN020=
202107061040 KSEA 061040Z 0611/0712 23003KT P6SM FEW010 FM061300 27003KT P6SM
                       OVC010 FM061800 32005KT P6SM FEW010 FM062100
                       32007KT P6SM SKC FM070600 35004KT P6SM SKC
                       FM071000 23005KT P6SM BKN020=
202107060908 KSEA 060908Z 0609/0712 25003KT P6SM FEW250 FM061000 VRB04KT P6SM
                       BKN008 FM061800 32005KT P6SM FEW010 FM062100
                       32007KT P6SM SKC FM070600 35004KT P6SM SKC
                       FM071000 23005KT P6SM BKN020=
202107060520 TAF KSEA 060520Z 0606/0712 25003KT P6SM FEW250 FM061000 VRB04KT
                       P6SM BKN008 FM061800 32005KT P6SM FEW010
                       FM062100 32007KT P6SM SKC FM070600 35004KT
                       P6SM SKC FM071000 23005KT P6SM BKN020=
202107060308 KSEA 060308Z 0603/0706 24004KT P6SM SKC FM060500 02004KT P6SM SKC
                       FM061000 VRB04KT P6SM BKN008 FM061800 32005KT
                       P6SM FEW010 FM062100 32007KT P6SM SKC=
202107052323 TAF KSEA 052323Z 0600/0706 25006KT P6SM FEW030 SCT200 FM060300
                       31006KT P6SM SCT200 FM061000 VRB04KT P6SM
                       BKN006 FM061800 32005KT P6SM FEW010 FM062100
                       32007KT P6SM SKC=
202107052100 KSEA 052100Z 0521/0624 26006KT P6SM FEW015 SCT200 FM060300 31004KT
                       P6SM SCT200 FM061000 VRB03KT P6SM BKN006
                       FM061800 32005KT P6SM FEW010=
202107051726 TAF KSEA 051726Z 0518/0624 22007KT P6SM OVC009 FM051900 24006KT
                       P6SM BKN012
                      TEMPO 0520/0521 SCT015 FM052100 25006KT P6SM
                       FEW015 SCT200 FM060300 31004KT P6SM SCT200
                       FM061000 VRB03KT P6SM BKN006 FM061800 32005KT
                       P6SM FEW010=
202107051453 KSEA 051453Z 0515/0618 22007KT P6SM OVC009 FM051900 24006KT P6SM
                       BKN012
                      TEMPO 0520/0521 SCT015 FM052100 21006KT P6SM
                       FEW015 SCT200 FM052200 26006KT P6SM SCT200
                       FM060300 28004KT P6SM SCT200=
202107051120 TAF KSEA 051120Z 0512/0618 20008KT P6SM OVC005 FM051500 24006KT
                       P6SM OVC003 FM052000 21006KT P6SM SCT015
                       FM052200 26006KT P6SM FEW030 SCT200 FM060300
                       28004KT P6SM SCT200=
202107050853 KSEA 050853Z 0509/0612 21008KT P6SM BKN006 FM051000 21006KT P6SM
                       OVC005 FM051500 24006KT P6SM OVC003 FM052000
                       21006KT P6SM SCT015 FM052200 26006KT P6SM
                       FEW030 SCT200 FM060300 28004KT P6SM SCT200=
202107050520 TAF KSEA 050520Z 0506/0612 25008KT P6SM FEW040 FEW100 FM051200
                       21006KT P6SM OVC008 FM051800 21006KT P6SM
                       OVC011 FM052000 21006KT P6SM SCT015 FM052200
                       26006KT P6SM FEW030 SCT200 FM060300 28004KT
                       P6SM SCT200=
202107050309 KSEA 050309Z 0503/0606 21006KT P6SM SCT200 FM051100 21006KT P6SM
                       OVC009 FM051800 21006KT P6SM OVC011 FM052000
                       21006KT P6SM SCT015 FM052200 26006KT P6SM
                       FEW030 SCT200=
202107042325 TAF KSEA 042325Z 0500/0606 24007KT P6SM SCT200 FM051100 22003KT
                       P6SM OVC009 FM052000 23004KT P6SM SCT015
                       FM052200 26006KT P6SM FEW030 SCT200=
202107042104 KSEA 042104Z 0421/0524 23007KT P6SM FEW035 SCT200 FM042200 25007KT
                       P6SM SCT200 FM051100 22003KT P6SM OVC009
                       FM052000 23004KT P6SM SCT015 FM052200 25005KT
                       P6SM FEW030 SCT200=
202107041835 KSEA 041835Z 0419/0524 22007KT P6SM SCT015 FM042000 23006KT P6SM
                       FEW015 SCT200 FM042200 25007KT P6SM SCT200
                       FM051100 22003KT P6SM OVC009 FM052000 23004KT
                       P6SM SCT015 FM052200 25005KT P6SM FEW030
                       SCT200=
202107041721 TAF KSEA 041721Z 0418/0524 22007KT P6SM OVC009
                      TEMPO 0419/0420 SCT012 FM042000 23006KT P6SM
                       SCT015 SCT200 FM042200 25007KT P6SM SCT200
                       FM051100 22003KT P6SM OVC009 FM052000 23004KT
                       P6SM SCT015 FM052200 25005KT P6SM FEW030
                       SCT200=
202107041501 KSEA 041501Z 0415/0518 21007KT P6SM OVC003 FM041700 22006KT P6SM
                       OVC008 FM042000 23006KT P6SM SCT012 SCT200
                       FM050100 26007KT P6SM SCT200 FM051000 22003KT
                       P6SM SCT100 FM051500 23004KT P6SM SCT030=
202107041331 KSEA 041331Z 0414/0518 21006KT P6SM OVC003 FM041600 22006KT P6SM
                       OVC010 FM042000 23006KT P6SM SCT020 SCT200
                       FM050100 26007KT P6SM SCT200 FM051000 22003KT
                       P6SM SCT100 FM051500 23004KT P6SM SCT030=
202107041224 KSEA 041224Z 0412/0518 21006KT P6SM OVC005 FM042000 23006KT P6SM
                       SCT020 SCT200 FM050100 26007KT P6SM SCT200
                       FM051000 22003KT P6SM SCT100 FM051500 23004KT
                       P6SM SCT030=
202107041125 TAF KSEA 041125Z 0412/0518 24005KT P6SM OVC010 FM042000 23006KT
                       P6SM SCT020 SCT200 FM050100 26007KT P6SM
                       SCT200 FM051000 22003KT P6SM SCT100 FM051500
                       23004KT P6SM SCT030=
202107040901 KSEA 040901Z 0409/0512 26003KT P6SM FEW050 FM041100 22005KT P6SM
                       OVC010 FM042000 23006KT P6SM SCT020 SCT200
                       FM050100 26007KT P6SM SCT200 FM051000 22003KT
                       P6SM SCT100=
202107040520 TAF KSEA 040520Z 0406/0512 26003KT P6SM FEW050 FM041100 22005KT
                       P6SM OVC010 FM042000 23006KT P6SM SCT020
                       SCT200 FM050100 26007KT P6SM SCT200 FM051000
                       22003KT P6SM SCT100=
202107040311 KSEA 040311Z 0403/0506 32004KT P6SM SKC FM041100 22005KT P6SM OVC010
                       FM042000 23006KT P6SM SCT020 SCT200 FM050100
                       26007KT P6SM SCT200=
202107032322 TAF KSEA 032322Z 0400/0506 30007KT P6SM SKC FM041100 22005KT P6SM
                       OVC010 FM042000 23006KT P6SM SCT020 SCT200
                       FM050100 26007KT P6SM SCT200=
202107032102 KSEA 032102Z 0321/0424 29008KT P6SM FEW030 FM032300 30007KT P6SM
                       SKC FM041100 22005KT P6SM OVC010 FM042000
                       23006KT P6SM SCT020 SCT200=
202107031730 TAF KSEA 031730Z 0318/0424 21005KT P6SM SCT030 FM032300 26007KT
                       P6SM SKC FM041200 22004KT P6SM OVC010 FM042000
                       23006KT P6SM SCT200=
202107031501 KSEA 031501Z 0315/0418 20003KT P6SM SCT005 SCT120
                      TEMPO 0315/0317 BKN005 FM031700 23005KT P6SM
                       FEW020 SCT120 FM031900 25005KT P6SM SCT030
                       FM032300 26007KT P6SM SKC FM041200 22004KT
                       P6SM OVC015=
202107031303 KSEA 031303Z 0313/0418 20003KT P6SM FEW012 SCT120 SCT250
                      TEMPO 0313/0316 BKN012 FM031600 23005KT P6SM
                       FEW020 SCT120 FM031800 25005KT P6SM SCT030
                       FM032300 26007KT P6SM SKC FM041200 22004KT
                       P6SM OVC015=
202107031123 TAF KSEA 031123Z 0312/0418 29003KT P6SM SKC
                      TEMPO 0312/0313 BKN012 FM031300 23005KT P6SM
                       OVC012 FM031800 25005KT P6SM SCT030 FM032300
                       26007KT P6SM SKC FM041200 22004KT P6SM OVC015=
202107030901 KSEA 030901Z 0309/0412 29003KT P6SM SKC FM031100 23005KT P6SM BKN015
                       FM031700 25005KT P6SM SCT030 FM032300 26007KT
                       P6SM SKC=
202107030520 TAF KSEA 030520Z 0306/0412 29003KT P6SM SKC FM031100 23005KT P6SM
                       BKN015 FM031700 25005KT P6SM SCT030 FM032300
                       26007KT P6SM SKC=
202107030305 KSEA 030305Z 0303/0406 29005KT P6SM SCT040 FM031100 23005KT P6SM
                       BKN015 FM031700 25005KT P6SM SCT030 FM032300
                       26007KT P6SM SKC=
202107022324 TAF KSEA 022324Z 0300/0406 29007KT P6SM SCT035 FM030300 29005KT
                       P6SM SCT040 FM031100 23005KT P6SM BKN015
                       FM031700 25005KT P6SM SCT030 FM032300 25007KT
                       P6SM SKC=
202107021720 TAF KSEA 021720Z 0218/0324 21006KT P6SM BKN006 OVC025
                      TEMPO 0218/0220 SCT006 BKN030 FM022000 25006KT
                       P6SM SCT010 BKN035 FM022200 30006KT P6SM
                       SCT035 FM031100 24003KT P6SM BKN010 FM031800
                       28005KT P6SM SCT025=
202107021507 KSEA 021507Z 0215/0318 20006KT P6SM BKN004 OVC025
                      TEMPO 0216/0219 SCT006 BKN030 FM021900 25006KT
                       P6SM SCT010 BKN035 FM022200 29006KT P6SM
                       SCT035 FM030300 33005KT P6SM SCT040 FM031400
                       35003KT P6SM SCT020=
202107021301 KSEA 021301Z 0213/0318 21006KT P6SM SCT008 OVC035
                      TEMPO 0213/0216 OVC005 FM022000 31006KT P6SM
                       SCT035 FM030300 36005KT P6SM SCT040 FM031400
                       35003KT P6SM SCT020=
202107021244 KSEA 021244Z 0213/0318 21006KT P6SM SCT008 OVC035
                      TEMPO 0213/0216 BKN007 FM022000 31006KT P6SM
                       SCT035 FM030300 36005KT P6SM SCT040 FM031400
                       35003KT P6SM SCT020=
202107021124 TAF KSEA 021124Z 0212/0318 21006KT P6SM SCT030 BKN040 OVC060
                      TEMPO 0212/0216 BKN025 FM022000 31006KT P6SM
                       SCT035 FM030300 36005KT P6SM SCT040 FM031400
                       35003KT P6SM SCT020=
202107021000 KSEA 021000Z 0210/0312 21007KT P6SM OVC028 FM021200 23004KT P6SM
                       OVC022 FM022000 28006KT P6SM SCT035 FM030300
                       30005KT P6SM SKC=
202107020901 KSEA 020901Z 0209/0312 19006KT P6SM SCT028 OVC060 FM021200 23004KT
                       P6SM OVC022 FM022000 28006KT P6SM SCT035
                       FM030300 30005KT P6SM SKC=
202107020520 TAF KSEA 020520Z 0206/0312 23005KT P6SM BKN040 FM020800 VRB04KT
                       P6SM OVC035 FM021200 23004KT P6SM OVC022
                       FM022000 28006KT P6SM SCT035 FM030300 30005KT
                       P6SM SKC=
202107020301 KSEA 020301Z 0203/0306 27005KT P6SM BKN040 FM020800 VRB04KT P6SM
                       OVC035 FM021200 23004KT P6SM OVC022 FM022000
                       28006KT P6SM SCT035 FM030300 30005KT P6SM
                       SKC=
202107012320 TAF KSEA 012320Z 0200/0306 27005KT P6SM BKN040 FM020300 30006KT
                       P6SM SCT050 FM020800 26004KT P6SM OVC035
                       FM021200 23004KT P6SM OVC022 FM022000 28006KT
                       P6SM SCT035 FM030300 33005KT P6SM SKC=
202107012107 KSEA 012107Z 0121/0224 25005KT P6SM OVC035 FM012200 27005KT P6SM
                       BKN040 FM020200 30006KT P6SM SCT050 FM020800
                       26004KT P6SM OVC035 FM021200 23004KT P6SM
                       OVC022 FM022000 28006KT P6SM SCT035=
202107011732 TAF KSEA 011732Z 0118/0224 23005KT P6SM SCT022 OVC035
                      TEMPO 0118/0120 BKN020 FM012200 26005KT P6SM
                       BKN050 FM020200 30006KT P6SM SCT050 FM020800
                       26004KT P6SM OVC035 FM021200 23004KT P6SM
                       OVC022 FM022000 28006KT P6SM SCT035=
202107011506 KSEA 011506Z 0115/0218 18005KT P6SM OVC025 FM012100 19005KT P6SM
                       BKN035 FM020000 24008KT P6SM SCT040 BKN050
                       FM020600 28004KT P6SM OVC030=
202107011120 TAF KSEA 011120Z 0112/0218 20003KT P6SM BKN030 OVC040 FM011300
                       20005KT P6SM OVC025 FM012100 19005KT P6SM
                       BKN035 FM020000 24008KT P6SM SCT040 BKN050
                       FM020600 28004KT P6SM OVC030=
202107010814 KSEA 010814Z 0108/0212 20005KT P6SM BKN013 OVC025 FM010900 22005KT
                       P6SM OVC013 FM011500 20005KT P6SM OVC017
                       FM012100 19005KT P6SM BKN021 FM020000 24008KT
                       P6SM SCT025 BKN050=
202107010520 TAF KSEA 010520Z 0106/0212 21008KT P6SM BKN030 BKN040 FM010900
                       22005KT P6SM BKN022 FM011200 20005KT P6SM
                       OVC017 FM012100 19005KT P6SM BKN021 FM020000
                       24008KT P6SM SCT025 BKN050=
202107010305 KSEA 010305Z 0103/0206 23008KT P6SM BKN030 FM010900 22005KT P6SM
                       BKN022 FM011200 20005KT P6SM OVC017 FM012100
                       19005KT P6SM BKN021 FM020000 24008KT P6SM
                       SCT025 BKN050=
202107010125 KSEA 010125Z 0101/0206 23008KT P6SM BKN030 FM010900 22005KT P6SM
                       OVC017 FM012100 19005KT P6SM BKN021 FM020000
                       24008KT P6SM SCT025=