##########################################################
# Query made at 02/17/2025 21:37:51 UTC
# Time interval: from 12/01/2021 00:00  to 12/31/2021 23:59  UTC
##########################################################

##########################################################
# KSEA, Seattle, Seattle-Tacoma International Airport (United States)
# WMO index: 72793. WIGOS ID: 0-20000-0-72793
# Latitude 47-27-00N. Longitude 122-17-59W. Altitude 130 m.
##########################################################

###################################
#  METAR/SPECI from KSEA
###################################
202112312353 METAR KSEA 312353Z 35005KT 10SM FEW030 SCT250 M02/M11 A3009 RMK AO2 SLP200 4/003 T10221106 11006 21028 51021=
202112312253 METAR KSEA 312253Z 01007KT 10SM FEW030 SCT250 M01/M10 A3007 RMK AO2 SLP195 T10111100=
202112312153 METAR KSEA 312153Z 35010KT 10SM FEW030 M01/M08 A3005 RMK AO2 SLP188 T10111083=
202112312053 METAR KSEA 312053Z 34012KT 10SM FEW030 M01/M08 A3003 RMK AO2 SLP179 T10061083 53010=
202112311953 METAR KSEA 311953Z 34010KT 10SM FEW030 M01/M07 A3002 RMK AO2 SLP177 T10061067=
202112311853 METAR KSEA 311853Z 01008KT 10SM FEW020 SCT080 M01/M06 A3000 RMK AO2 SLP170 T10111056=
202112311753 METAR KSEA 311753Z 01008KT 10SM SCT018 SCT060 BKN090 M02/M06 A3000 RMK AO2 SLP168 4/004 933005 T10221061 11017 21039 51035=
202112311653 METAR KSEA 311653Z 06007KT 10SM FEW024 FEW060 BKN085 M02/M06 A2996 RMK AO2 SLP158 T10221056=
202112311553 METAR KSEA 311553Z 02009KT 10SM FEW020 SCT060 OVC090 M02/M06 A2993 RMK AO2 SLP147 T10221056=
202112311453 METAR KSEA 311453Z 36006KT 10SM FEW020 BKN060 OVC085 M02/M06 A2989 RMK AO2 SLP133 T10221056 53019=
202112311353 METAR KSEA 311353Z 02005KT 10SM FEW020 SCT040 OVC080 M02/M05 A2987 RMK AO2 SLP125 T10171050=
202112311253 METAR KSEA 311253Z 00000KT 10SM FEW013 SCT019 OVC080 M02/M04 A2985 RMK AO2 SLP118 T10221044=
202112311219 SPECI KSEA 311219Z 16003KT 10SM BKN020 BKN085 M02/M04 A2984 RMK AO2 T10221044=
202112311153 METAR KSEA 311153Z 16003KT 9SM FEW025 BKN043 M03/M05 A2984 RMK AO2 SNE41 SLP114 4/004 P0000 60000 70009 T10331050 11006 21033 51010=
202112311141 SPECI KSEA 311141Z 18004KT 9SM FEW025 BKN043 M03/M04 A2983 RMK AO2 SNE41 P0000 T10281044=
202112311053 METAR KSEA 311053Z 15003KT 8SM -SN BKN025 BKN043 OVC060 M02/M04 A2984 RMK AO2 SLP114 P0000 T10171039=
202112310953 METAR KSEA 310953Z 16003KT 9SM -SN OVC026 M01/M04 A2983 RMK AO2 SLP111 P0000 T10111044=
202112310853 METAR KSEA 310853Z 19003KT 9SM -SN BKN022 OVC048 M02/M04 A2981 RMK AO2 SNB23 SLP104 P0000 60000 T10171044 52005=
202112310848 SPECI KSEA 310848Z 19003KT 9SM -SN BKN022 OVC045 M02/M05 A2980 RMK AO2 SNB23 P0000=
202112310824 SPECI KSEA 310824Z 12003KT 10SM -SN SCT024 OVC042 M01/M06 A2979 RMK AO2 SNB23 P0000 T10111056=
202112310753 METAR KSEA 310753Z 08003KT 10SM BKN024 OVC040 M01/M06 A2979 RMK AO2 SLP098 T10111056 400111022=
202112310653 METAR KSEA 310653Z 06005KT 10SM OVC050 M01/M05 A2978 RMK AO2 SLP095 T10111050=
202112310553 METAR KSEA 310553Z 07004KT 10SM BKN033 OVC040 M01/M04 A2977 RMK AO2 SLP090 60001 4/004 T10111044 10000 21011 53012=
202112310453 METAR KSEA 310453Z 06003KT 10SM SCT026 OVC034 M01/M04 A2975 RMK AO2 SNE45 SLP083 P0000 T10111039=
202112310448 SPECI KSEA 310448Z 07003KT 9SM SCT026 OVC032 M01/M04 A2974 RMK AO2 SNE45 P0000=
202112310353 METAR KSEA 310353Z 05006KT 9SM -SN BKN025 OVC043 M01/M03 A2973 RMK AO2 SLP078 P0000 T10111033=
202112310253 METAR KSEA 310253Z 06006KT 5SM -SN BR OVC055 M01/M03 A2972 RMK AO2 SLP074 P0000 60001 T10111033 51012=
202112310153 METAR KSEA 310153Z 06005KT 4SM -SN BR BKN044 OVC060 M01/M03 A2971 RMK AO2 SLP073 P0000 T10111028=
202112310132 SPECI KSEA 310132Z 07005KT 3SM -SN BR FEW006 OVC030 M01/M03 A2971 RMK AO2 P0000 T10111028=
202112310118 SPECI KSEA 310118Z 06006KT 3SM -SN BR FEW006 OVC024 M01/M03 A2970 RMK AO2 P0000 T10111028=
202112310053 METAR KSEA 310053Z 05006KT 2SM -SN BR FEW011 OVC019 M01/M03 A2970 RMK AO2 SLP068 P0001 T10111028=
202112310018 SPECI KSEA 310018Z VRB05KT 2SM -SN FEW015 BKN029 OVC055 M01/M03 A2969 RMK AO2 P0001 T10061033=
202112302353 METAR KSEA 302353Z 05005KT 5SM -SN FEW025 OVC050 00/M03 A2969 RMK AO2 SNB20 SLP063 4/004 P0000 60000 T00001033 10011 20000 53015=
202112302253 METAR KSEA 302253Z 01006KT 10SM FEW017 SCT024 OVC055 00/M04 A2967 RMK AO2 SLP056 T00001039=
202112302153 METAR KSEA 302153Z 35009KT 10SM BKN019 OVC025 00/M03 A2965 RMK AO2 SLP051 T00001028=
202112302102 SPECI KSEA 302102Z 34007KT 10SM BKN015 BKN080 00/M03 A2964 RMK AO2 T00001028=
202112302053 METAR KSEA 302053Z 01007KT 10SM BKN013 OVC018 00/M03 A2964 RMK AO2 SLP048 T00001028 53009=
202112301953 METAR KSEA 301953Z 03011KT 10SM BKN014 01/M02 A2962 RMK AO2 PK WND 01026/1910 SLP041 T00061022=
202112301948 SPECI KSEA 301948Z 03012KT 10SM BKN014 01/M02 A2962 RMK AO2 PK WND 01026/1910=
202112301853 METAR KSEA 301853Z 35011KT 10SM SCT013 SCT065 00/M02 A2961 RMK AO2 SLP038 T00001022=
202112301838 SPECI KSEA 301838Z 34013KT 10SM SCT015 BKN065 01/M02 A2961 RMK AO2 T00061022=
202112301753 METAR KSEA 301753Z 33004KT 10SM FEW008 BKN021 OVC065 01/M02 A2960 RMK AO2 SLP034 4/004 933005 60008 T00061022 10011 21011 51036=
202112301729 SPECI KSEA 301729Z 34006KT 10SM FEW008 BKN023 OVC028 01/M03 A2959 RMK AO2 T00111028=
202112301653 METAR KSEA 301653Z 34009KT 10SM FEW008 BKN030 OVC049 01/M01 A2957 RMK AO2 SLP023 T00061006=
202112301640 SPECI KSEA 301640Z 30005KT 10SM SCT008 BKN031 OVC043 01/M01 A2956 RMK AO2 T00061006=
202112301553 METAR KSEA 301553Z 30007KT 7SM OVC008 01/00 A2954 RMK AO2 SNE09 SLP013 P0000 T00110000=
202112301509 SPECI KSEA 301509Z 21009G17KT 7SM OVC009 01/M01 A2951 RMK AO2 SNE09 P0000 T00061006=
202112301453 METAR KSEA 301453Z 21014G21KT 3SM -SN BR OVC005 01/M01 A2949 RMK AO2 SLP997 P0001 60008 T00061006 56043=
202112301444 SPECI KSEA 301444Z 21013G23KT 3/4SM R16L/P6000FT -SN BR OVC005 01/M01 A2948 RMK AO2 P0001 T00061006=
202112301353 METAR KSEA 301353Z 21007KT 3/4SM R16L/4000VP6000FT -SN BR VV004 00/M01 A2950 RMK AO2 SLP001 SNINCR 1/4 P0005 T00001006=
202112301343 SPECI KSEA 301343Z 20006KT 1/2SM R16L/2800V4500FT -SN BR VV006 00/M01 A2952 RMK AO2 P0003 T00001006=
202112301333 SPECI KSEA 301333Z 18009KT 3/4SM R16L/5500VP6000FT -SN BR SCT005 OVC013 00/M01 A2951 RMK AO2 P0001 T00001011=
202112301324 SPECI KSEA 301324Z 16011KT 1SM R16L/P6000FT -SN BR FEW005 OVC015 M01/M01 A2950 RMK AO2 P0000 T10061011=
202112301310 SPECI KSEA 301310Z 14017G25KT 1 1/4SM -SN BR OVC016 M01/M02 A2950 RMK AO2 PRESFR P0000 T10061017=
202112301253 METAR KSEA 301253Z 14014KT 1 1/2SM -SN BR OVC017 M01/M02 A2952 RMK AO2 PRESFR SLP008 SNINCR 1/4 P0002 T10061017=
202112301234 SPECI KSEA 301234Z 15016KT 1SM R16L/P6000FT -SN BR VV013 M01/M02 A2955 RMK AO2 P0001 T10061017=
202112301210 SPECI KSEA 301210Z 16016KT 1 1/4SM -SN BR OVC016 M01/M02 A2958 RMK AO2 PRESFR P0001 T10111022=
202112301153 METAR KSEA 301153Z 15013KT 1 1/2SM -SN BR OVC022 M01/M02 A2962 RMK AO2 SNB1059 PRESFR SLP041 4/003 P0001 60012 70015 T10111022 11006 21033 56026=
202112301151 SPECI KSEA 301151Z 15011KT 1 1/2SM -SN BR OVC022 M01/M02 A2962 RMK AO2 SNB1059 PRESFR 4/003 P0001=
202112301139 SPECI KSEA 301139Z 16013G20KT 2 1/2SM -SN BR OVC028 M01/M02 A2964 RMK AO2 SNB1059 P0001 T10061022=
202112301100 SPECI KSEA 301100Z 18012KT 6SM -SN BR BKN048 OVC065 M01/M03 A2968 RMK AO2 SNB1059 P0000 T10061033=
202112301053 METAR KSEA 301053Z 18012KT 8SM BKN050 OVC065 M01/M04 A2969 RMK AO2 SLP063 T10061039=
202112300953 METAR KSEA 300953Z 18014KT 10SM FEW012 OVC032 M01/M04 A2970 RMK AO2 SLP068 T10111039=
202112300913 SPECI KSEA 300913Z 19014KT 10SM FEW012 OVC031 M02/M03 A2973 RMK AO2 T10171033=
202112300903 SPECI KSEA 300903Z 20015G22KT 9SM SCT009 OVC029 M02/M03 A2973 RMK AO2 T10171033=
202112300853 METAR KSEA 300853Z 21019KT 10SM BKN007 OVC029 M02/M03 A2974 RMK AO2 PK WND 21026/0841 SNE21 SLP082 P0001 60011 T10171033 58029=
202112300824 SPECI KSEA 300824Z 20017G24KT 4SM BR OVC007 M02/M03 A2976 RMK AO2 SNE21 P0001 T10171033=
202112300753 METAR KSEA 300753Z 18011KT 2SM -SN BR BKN007 OVC012 M02/M04 A2979 RMK AO2 SLP098 P0004 T10221039 410171056=
202112300748 SPECI KSEA 300748Z 16012KT 1 3/4SM -SN BR BKN007 OVC014 M03/M04 A2979 RMK AO2 P0004=
202112300723 SPECI KSEA 300723Z 16008KT 1 1/2SM -SN BR SCT006 OVC014 M03/M04 A2981 RMK AO2 P0002 T10281039=
202112300720 SPECI KSEA 300720Z 15008KT 1 1/4SM -SN BR SCT006 BKN010 OVC016 M03/M04 A2981 RMK AO2 P0002 T10281039=
202112300653 METAR KSEA 300653Z 14007KT 1/2SM R16L/4500V6000FT SN BR OVC007 M03/M04 A2983 RMK AO2 SLP112 SNINCR 1/3 P0006 T10281039=
202112300639 SPECI KSEA 300639Z 16007KT 3/4SM R16L/5500VP6000FT -SN BR OVC008 M03/M04 A2983 RMK AO2 P0003 T10331044=
202112300628 SPECI KSEA 300628Z 16006KT 1SM R16L/6000VP6000FT -SN BR BKN008 OVC013 M03/M04 A2983 RMK AO2 P0002 T10331044=
202112300553 METAR KSEA 300553Z 14009KT 1SM R16L/P6000FT -SN BR VV012 M03/M04 A2985 RMK AO2 SNB04 SLP120 4/002 P0003 60003 T10331044 11022 21033 57020=
202112300543 SPECI KSEA 300543Z 14007KT 1SM R16L/5000VP6000FT -SN BR VV012 M03/M04 A2986 RMK AO2 SNB04 P0002 T10331044=
202112300532 SPECI KSEA 300532Z 15006KT 1SM R16L/P6000FT -SN BR VV016 M03/M05 A2986 RMK AO2 SNB04 P0001 T10331050=
202112300522 SPECI KSEA 300522Z 16007KT 1 1/2SM -SN BR BKN018 OVC023 M03/M05 A2986 RMK AO2 SNB04 P0001 T10331050=
202112300508 SPECI KSEA 300508Z 15009KT 2 1/2SM -SN BKN018 OVC034 M03/M06 A2987 RMK AO2 SFC VIS 3 SNB04 P0000 T10281056=
202112300504 SPECI KSEA 300504Z 15008KT 6SM -SN OVC018 M03/M06 A2987 RMK AO2 SNB04 P0000 T10281056=
202112300453 METAR KSEA 300453Z 13007KT 10SM BKN018 OVC023 M03/M06 A2987 RMK AO2 SLP126 T10281061=
202112300446 SPECI KSEA 300446Z 13009KT 10SM BKN022 OVC036 M03/M06 A2986 RMK AO2 T10281061=
202112300353 METAR KSEA 300353Z 13007KT 10SM FEW029 OVC085 M03/M07 A2989 RMK AO2 SLP134 T10281067=
202112300253 METAR KSEA 300253Z 14005KT 10SM OVC095 M03/M08 A2991 RMK AO2 SLP140 T10281078 50001=
202112300153 METAR KSEA 300153Z 00000KT 10SM BKN120 OVC200 M03/M08 A2992 RMK AO2 SLP144 T10281083=
202112300053 METAR KSEA 300053Z 00000KT 10SM FEW033 SCT140 BKN200 M03/M09 A2993 RMK AO2 SLP145 T10281089=
202112292353 METAR KSEA 292353Z 00000KT 10SM FEW033 BKN160 BKN200 M03/M09 A2991 RMK AO2 SLP140 T10281089 11017 21039 58010=
202112292253 METAR KSEA 292253Z 05005KT 10SM FEW033 BKN200 M02/M09 A2992 RMK AO2 SLP143 T10221089=
202112292153 METAR KSEA 292153Z 02006KT 10SM FEW030 BKN250 M02/M09 A2993 RMK AO2 SLP148 T10221089=
202112292053 METAR KSEA 292053Z 01010KT 10SM FEW030 BKN250 M02/M09 A2994 RMK AO2 SLP149 T10221089 53002=
202112291953 METAR KSEA 291953Z 02008KT 10SM FEW030 BKN250 M03/M08 A2993 RMK AO2 SLP145 T10281078=
202112291853 METAR KSEA 291853Z 36008KT 10SM FEW030 SCT250 M03/M08 A2994 RMK AO2 SLP149 T10281078=
202112291753 METAR KSEA 291753Z 03008KT 10SM FEW025 M04/M08 A2993 RMK AO2 SLP148 4/001 T10391078 11033 21056 51027=
202112291653 METAR KSEA 291653Z 03006KT 10SM FEW025 M05/M08 A2991 RMK AO2 SLP139 T10501083=
202112291553 METAR KSEA 291553Z 05006KT 10SM SCT021 M05/M08 A2988 RMK AO2 SLP130 T10501083=
202112291453 METAR KSEA 291453Z 05009KT 10SM FEW040 M06/M09 A2985 RMK AO2 SLP120 T10561089 53014=
202112291353 METAR KSEA 291353Z 04013KT 10SM FEW040 M04/M08 A2983 RMK AO2 SLP112 T10441083 $=
202112291253 METAR KSEA 291253Z 02012KT 10SM FEW040 M03/M08 A2982 RMK AO2 SLP108 T10331078 $=
202112291153 METAR KSEA 291153Z 01007KT 10SM SCT037 M04/M07 A2981 RMK AO2 SLP106 P0000 60000 70006 4/002 T10441072 11028 21050 53011 $=
202112291053 METAR KSEA 291053Z 02011KT 10SM SCT016 OVC055 M03/M07 A2980 RMK AO2 SLP101 T10281067 $=
202112291041 SPECI KSEA 291041Z 02013KT 10SM SCT016 OVC050 M03/M06 A2979 RMK AO2 T10281061 $=
202112291028 SPECI KSEA 291028Z 01012G18KT 10SM BKN016 OVC046 M03/M06 A2979 RMK AO2 T10281061 $=
202112290953 METAR KSEA 290953Z 02012KT 10SM OVC043 M03/M07 A2978 RMK AO2 SLP097 T10281067 $=
202112290908 SPECI KSEA 290908Z 01013KT 10SM OVC030 M03/M07 A2978 RMK AO2 T10281072 $=
202112290853 METAR KSEA 290853Z 01013KT 9SM BKN025 OVC032 M03/M07 A2978 RMK AO2 SNB25E50 SLP094 P0000 60000 T10281072 53012 $=
202112290825 SPECI KSEA 290825Z 02010KT 9SM -SN BKN023 OVC028 M03/M06 A2977 RMK AO2 SNB25 P0000 T10331056 $=
202112290753 METAR KSEA 290753Z 01009KT 10SM OVC027 M03/M06 A2976 RMK AO2 SLP089 T10331061 410221044 $=
202112290653 METAR KSEA 290653Z 36011KT 10SM OVC019 M03/M07 A2975 RMK AO2 SNE43 SLP087 P0000 T10331067 $=
202112290643 SPECI KSEA 290643Z 36009KT 9SM OVC019 M03/M07 A2975 RMK AO2 SNE43 4/002 P0000 T10331067 $=
202112290553 METAR KSEA 290553Z 36010KT 9SM -SN SCT020 OVC025 M03/M06 A2974 RMK AO2 SNB51 SLP083 P0000 60000 T10331056 11028 21039 55001 $=
202112290455 SPECI KSEA 290455Z 36006KT 10SM OVC018 M03/M06 A2974 RMK AO2 T10331061 $=
202112290454 SPECI KSEA 290454Z 10SM OVC018 M03/M06 A2974 RMK AO2 T10331061 $=
202112290453 METAR KSEA 290453Z 10SM OVC018 M03/M06 A2974 RMK AO2 SLP082 T10331061 $=
202112290353 METAR KSEA 290353Z 36007KT 10SM OVC027 M03/M07 A2973 RMK AO2 SLP080 T10331067=
202112290253 METAR KSEA 290253Z 36009KT 10SM OVC023 M03/M06 A2974 RMK AO2 SLP083 T10281061 55004=
202112290153 METAR KSEA 290153Z 35006KT 10SM BKN021 OVC050 M03/M07 A2974 RMK AO2 SLP083 T10331067=
202112290144 SPECI KSEA 290144Z 36007KT 10SM BKN021 OVC050 M04/M07 A2974 RMK AO2 T10391067=
202112290053 METAR KSEA 290053Z 01005KT 10SM FEW039 OVC050 M03/M07 A2974 RMK AO2 SLP084 T10331067=
202112282353 METAR KSEA 282353Z 02008KT 10SM OVC040 M03/M07 A2976 RMK AO2 SLP088 60000 4/002 T10281067 11022 21039 56013=
202112282331 SPECI KSEA 282331Z 03009KT 10SM SCT028 OVC038 M03/M06 A2976 RMK AO2 T10281061=
202112282253 METAR KSEA 282253Z 36009KT 10SM FEW015 OVC028 M03/M07 A2976 RMK AO2 SLP090 T10281067=
202112282208 SPECI KSEA 282208Z 02009KT 10SM FEW015 OVC028 M03/M07 A2976 RMK AO2 T10281072=
202112282153 METAR KSEA 282153Z 01008KT 10SM FEW015 OVC030 M02/M07 A2976 RMK AO2 SLP090 T10221067=
202112282053 METAR KSEA 282053Z 02009KT 10SM FEW010 OVC032 M03/M06 A2980 RMK AO2 SLP102 60000 T10281061 58010=
202112281953 METAR KSEA 281953Z 04007KT 020V110 10SM FEW010 OVC030 M03/M07 A2981 RMK AO2 SLP107 T10281067=
202112281853 METAR KSEA 281853Z 02006KT 10SM FEW010 SCT034 BKN055 M03/M06 A2983 RMK AO2 SNE1757 SLP112 P0000 T10331061=
202112281803 SPECI KSEA 281803Z 02008KT 7SM SCT009 BKN030 OVC055 M04/M06 A2983 RMK AO2 SNE1757 P0000 T10391061=
202112281753 METAR KSEA 281753Z 04008KT 7SM -SN BKN009 BKN030 OVC060 M04/M06 A2982 RMK AO2 SLP111 P0000 60000 4/002 933002 T10391061 11028 21039 51006=
202112281653 METAR KSEA 281653Z 04007KT 5SM -SN BKN006 BKN029 OVC060 M04/M06 A2982 RMK AO2 SLP110 P0000 T10391056=
202112281645 SPECI KSEA 281645Z 04008KT 3SM -SN BKN006 BKN029 OVC060 M04/M06 A2982 RMK AO2 P0000 T10391056=
202112281600 SPECI KSEA 281600Z 01009KT 9SM -SN FEW006 OVC027 M04/M06 A2983 RMK AO2 P0000 T10391056=
202112281553 METAR KSEA 281553Z 02010KT 7SM -SN SCT007 BKN011 OVC027 M03/M06 A2983 RMK AO2 SLP112 P0000 T10331056=
202112281546 SPECI KSEA 281546Z 02009KT 7SM -SN SCT007 BKN011 OVC027 M04/M06 A2982 RMK AO2 P0000 T10391056=
202112281521 SPECI KSEA 281521Z 36006KT 7SM -SN BR BKN008 OVC029 M04/M05 A2982 RMK AO2 P0000 T10391050=
202112281509 SPECI KSEA 281509Z 34006KT 4SM -SN BR FEW006 OVC029 M04/M06 A2982 RMK AO2 P0000 T10391056=
202112281453 METAR KSEA 281453Z 35007G17KT 190V100 6SM -SN BR OVC029 M03/M05 A2981 RMK AO2 SLP105 P0000 60000 T10331050 55001=
202112281353 METAR KSEA 281353Z 02006KT 6SM -SN OVC026 M04/M06 A2980 RMK AO2 SNB31 SLP103 P0000 T10391056 $=
202112281331 SPECI KSEA 281331Z 36007KT 9SM -SN OVC022 M04/M06 A2981 RMK AO2 SNB31 P0000 T10391056 $=
202112281253 METAR KSEA 281253Z 36005KT 10SM BKN016 OVC025 M04/M06 A2981 RMK AO2 SLP105 T10391056 $=
202112281153 METAR KSEA 281153Z 36006KT 10SM OVC022 M04/M06 A2981 RMK AO2 SNE36 SLP107 4/002 P0000 60002 70003 T10391056 11028 21050 58001 $=
202112281136 SPECI KSEA 281136Z 01006KT 9SM OVC023 M04/M06 A2981 RMK AO2 SNE36 P0000 T10391056 $=
202112281053 METAR KSEA 281053Z 03005KT 9SM -SN OVC024 M04/M06 A2982 RMK AO2 SLP111 P0000 T10391056 $=
202112280953 METAR KSEA 280953Z 06005KT 5SM -SN SCT014 OVC027 M04/M06 A2981 RMK AO2 SLP107 P0000 T10391056 $=
202112280950 SPECI KSEA 280950Z 06006KT 5SM -SN SCT014 OVC027 M04/M06 A2981 RMK AO2 P0000 $=
202112280853 METAR KSEA 280853Z 08005KT 5SM -SN BKN013 BKN034 OVC045 M04/M07 A2981 RMK AO2 SLP106 P0000 60002 T10441067 50001 $=
202112280827 SPECI KSEA 280827Z 06006KT 3SM -SN BKN012 OVC046 M03/M06 A2981 RMK AO2 P0000 T10331061 $=
202112280753 METAR KSEA 280753Z 07008KT 2SM -SN SCT025 BKN033 OVC045 M04/M07 A2981 RMK AO2 SLP108 P0001 T10441067 410281083 $=
202112280744 SPECI KSEA 280744Z VRB05KT 2SM -SN OVC033 M04/M07 A2981 RMK AO2 P0001 T10391067 $=
202112280711 SPECI KSEA 280711Z 06005KT 1 3/4SM -SN BKN025 OVC044 M03/M07 A2981 RMK AO2 P0000 T10331067 $=
202112280653 METAR KSEA 280653Z 06006KT 2SM -SN FEW015 SCT030 OVC045 M03/M07 A2981 RMK AO2 SLP106 P0001 T10331067 $=
202112280649 SPECI KSEA 280649Z 06006KT 2SM -SN FEW015 SCT030 OVC045 M03/M07 A2981 RMK AO2 4/002 P0001 $=
202112280645 SPECI KSEA 280645Z 07006KT 1 3/4SM -SN SCT015 BKN025 OVC045 M03/M07 A2981 RMK AO2 4/002 P0001 T10331067 $=
202112280632 SPECI KSEA 280632Z 07007KT 2SM -SN BKN029 OVC045 M03/M07 A2981 RMK AO2 4/002 P0000 T10281067 $=
202112280553 METAR KSEA 280553Z 07004KT 2 1/2SM -SN SCT034 OVC048 M04/M07 A2980 RMK AO2 SLP105 4/002 P0001 60001 T10441072 11044 21061 53002 $=
202112280543 SPECI KSEA 280543Z VRB04KT 2SM -SN BR BKN032 OVC048 M05/M07 A2980 RMK AO2 P0001 T10501072 $=
202112280509 SPECI KSEA 280509Z 12005KT 2SM -SN BR OVC018 M06/M08 A2980 RMK AO2 P0001 T10561078=
202112280453 METAR KSEA 280453Z 10005KT 3SM -SN OVC020 M05/M08 A2980 RMK AO2 SNB25 SLP105 P0000 T10501078=
202112280442 SPECI KSEA 280442Z 11004KT 3SM -SN BR OVC024 M06/M08 A2980 RMK AO2 SNB25 P0000 T10561078=
202112280426 SPECI KSEA 280426Z 12006KT 4SM -SN OVC036 M06/M08 A2980 RMK AO2 SNB25 P0000 T10561083=
202112280353 METAR KSEA 280353Z 13006KT 10SM OVC050 M06/M09 A2980 RMK AO2 SLP103 T10561089=
202112280253 METAR KSEA 280253Z 15008KT 7SM FEW022 OVC080 M06/M09 A2980 RMK AO2 SLP104 T10611094 58005=
202112280153 METAR KSEA 280153Z 12006KT 10SM FEW022 OVC100 M06/M11 A2982 RMK AO2 SLP110 T10561111=
202112280114 SPECI KSEA 280114Z 14007KT 10SM SCT021 OVC100 M06/M11 A2981 RMK AO2 T10611111=
202112280053 METAR KSEA 280053Z 15007KT 10SM BKN023 OVC110 M06/M11 A2981 RMK AO2 SLP106 T10561106=
202112280010 SPECI KSEA 280010Z 15009KT 10SM BKN028 OVC110 M06/M11 A2981 RMK AO2 T10561111=
202112272353 METAR KSEA 272353Z 13007KT 10SM BKN032 OVC110 M06/M11 A2981 RMK AO2 SLP109 4/002 T10561111 11050 21072 56000=
202112272253 METAR KSEA 272253Z 00000KT 10SM BKN036 BKN200 M06/M12 A2982 RMK AO2 SLP110 T10561117=
202112272153 METAR KSEA 272153Z 00000KT 10SM SCT040 SCT200 M06/M12 A2981 RMK AO2 SLP106 T10561122=
202112272053 METAR KSEA 272053Z 00000KT 10SM FEW020 SCT050 SCT230 M06/M12 A2981 RMK AO2 SLP109 T10611122 56020=
202112271953 METAR KSEA 271953Z 32003KT 10SM FEW019 SCT055 BKN240 M07/M12 A2983 RMK AO2 SLP114 T10671117=
202112271853 METAR KSEA 271853Z 08006KT 10SM FEW020 SCT050 BKN230 M07/M12 A2985 RMK AO2 SLP120 T10671122=
202112271753 METAR KSEA 271753Z 02007KT 10SM FEW017 SCT055 BKN200 M07/M12 A2987 RMK AO2 SLP129 T10721117 11072 21083 53023=
202112271653 METAR KSEA 271653Z 07007KT 10SM FEW015 SCT055 SCT200 M08/M12 A2983 RMK AO2 SLP113 T10781117=
202112271553 METAR KSEA 271553Z 03009KT 10SM BKN055 M08/M12 A2983 RMK AO2 SLP114 T10831117=
202112271453 METAR KSEA 271453Z 02013KT 10SM BKN055 M07/M11 A2981 RMK AO2 SLP106 60000 T10721106 51015=
202112271434 SPECI KSEA 271434Z 03013KT 10SM SCT015 OVC055 M07/M10 A2980 RMK AO2 T10721100=
202112271408 SPECI KSEA 271408Z 03014KT 10SM BKN016 M08/M11 A2980 RMK AO2 T10781106 $=
202112271353 METAR KSEA 271353Z 02013KT 10SM SCT014 M08/M11 A2980 RMK AO2 SLP104 T10781106 $=
202112271330 SPECI KSEA 271330Z 01012KT 10SM BKN012 M08/M11 A2979 RMK AO2 T10781111 $=
202112271253 METAR KSEA 271253Z 01017G26KT 10SM FEW015 SCT035 M08/M12 A2978 RMK AO2 PK WND 01026/1251 SNE32 SLP099 P0000 T10831122 $=
202112271235 SPECI KSEA 271235Z 36015G24KT 9SM FEW015 SCT035 M08/M12 A2978 RMK AO2 SNE32 P0000 T10831122 $=
202112271153 METAR KSEA 271153Z 01017G22KT 9SM -SN FEW017 BKN034 M08/M11 A2976 RMK AO2 SLP091 4/003 P0000 60001 70026 T10781111 11056 21078 50019 $=
202112271107 SPECI KSEA 271107Z 01018KT 6SM -SN SCT014 OVC043 M07/M11 A2976 RMK AO2 P0000 T10721106 $=
202112271053 METAR KSEA 271053Z 01018KT 4SM -SN BKN014 OVC040 M07/M10 A2976 RMK AO2 SLP090 P0000 T10671100 $=
202112271044 SPECI KSEA 271044Z 02016G23KT 3SM -SN BKN014 OVC033 M07/M09 A2976 RMK AO2 P0000 T10671094 $=
202112271034 SPECI KSEA 271034Z 02019KT 2 1/2SM -SN OVC015 M07/M09 A2975 RMK AO2 P0000 T10671089 $=
202112271003 SPECI KSEA 271003Z 36014G23KT 3SM -SN BKN016 OVC027 M07/M09 A2975 RMK AO2 P0000 T10671094 $=
202112270953 METAR KSEA 270953Z 01015G25KT 2SM -SN OVC014 M07/M09 A2974 RMK AO2 PK WND 02027/0943 SLP083 P0000 T10671089 $=
202112270938 SPECI KSEA 270938Z 02018KT 2 1/2SM -SN BKN013 OVC025 M07/M09 A2973 RMK AO2 PK WND 02026/0925 P0000 T10671089 $=
202112270853 METAR KSEA 270853Z 01018KT 6SM -SN BKN014 OVC050 M06/M09 A2970 RMK AO2 SLP070 BKN V SCT P0000 60001 T10611089 51022 $=
202112270753 METAR KSEA 270753Z 02018KT 6SM -SN BKN012 BKN023 OVC029 M06/M09 A2968 RMK AO2 SLP064 P0000 T10611089 410061067 $=
202112270653 METAR KSEA 270653Z 36009KT 5SM -SN SCT007 BKN011 OVC022 M06/M08 A2966 RMK AO2 SLP055 CIG 009V013 P0001 T10611078 $=
202112270619 SPECI KSEA 270619Z 02016G21KT 3SM -SN FEW008 BKN013 OVC022 M06/M08 A2964 RMK AO2 P0001 T10611083 $=
202112270606 SPECI KSEA 270606Z 01016G21KT 2 1/2SM -SN BR SCT008 BKN014 OVC022 M06/M08 A2964 RMK AO2 P0000 T10561078 $=
202112270553 METAR KSEA 270553Z 01012G19KT 1 1/4SM -SN BR SCT008 BKN014 OVC020 M06/M08 A2964 RMK AO2 SLP048 P0001 60001 4/003 T10561078 11044 21061 53024 $=
202112270530 SPECI KSEA 270530Z 01012KT 1 1/4SM -SN BR FEW007 BKN014 OVC018 M06/M08 A2962 RMK AO2 P0001 T10561078 $=
202112270453 METAR KSEA 270453Z 01014G22KT 1 1/2SM -SN BR BKN012 OVC017 M06/M08 A2961 RMK AO2 SNB22 SLP038 P0000 T10561078 $=
202112270430 SPECI KSEA 270430Z 01014KT 7SM -SN OVC010 M06/M08 A2960 RMK AO2 SNB22 P0000 T10561078 $=
202112270353 METAR KSEA 270353Z 01016KT 10SM OVC010 M06/M08 A2958 RMK AO2 SLP029 T10561078 $=
202112270253 METAR KSEA 270253Z 01013KT 10SM BKN013 OVC031 M05/M08 A2957 RMK AO2 SNB13E26 SLP024 P0000 60000 T10501078 51017 $=
202112270228 SPECI KSEA 270228Z 01013KT 7SM BKN013 OVC032 M06/M08 A2956 RMK AO2 SNB13E26 P0000 T10561078 $=
202112270216 SPECI KSEA 270216Z 36011KT 7SM -SN SCT013 OVC032 M05/M08 A2956 RMK AO2 SNB13 P0000 T10501083 $=
202112270153 METAR KSEA 270153Z 02012KT 10SM SCT013 OVC033 M05/M09 A2955 RMK AO2 SLP017 T10501089 $=
202112270136 SPECI KSEA 270136Z 02012KT 10SM BKN013 OVC033 M05/M08 A2955 RMK AO2 T10501083 $=
202112270053 METAR KSEA 270053Z 01010KT 10SM FEW017 OVC035 M04/M08 A2954 RMK AO2 SLP015 T10441083 $=
202112270024 SPECI KSEA 270024Z 36010KT 10SM SCT017 OVC035 M05/M08 A2953 RMK AO2 T10501078 $=
202112262353 METAR KSEA 262353Z 36013KT 9SM BKN013 OVC019 M05/M08 A2952 RMK AO2 SLP006 60005 4/003 T10501078 11033 21050 53018 $=
202112262334 SPECI KSEA 262334Z 02013KT 10SM BKN013 OVC019 M04/M07 A2951 RMK AO2 T10391072 $=
202112262253 METAR KSEA 262253Z 01013KT 10SM FEW019 BKN024 OVC048 M04/M08 A2950 RMK AO2 SNE46 SLP998 P0001 T10391078=
202112262230 SPECI KSEA 262230Z 01013G18KT 3SM -SN FEW017 BKN026 OVC050 M04/M07 A2948 RMK AO2 P0001 T10441072=
202112262220 SPECI KSEA 262220Z 36013G19KT 1 1/2SM -SN FEW008 OVC020 M04/M07 A2949 RMK AO2 P0001 T10441072=
202112262153 METAR KSEA 262153Z 36013G20KT 1 3/4SM -SN BR FEW008 BKN013 OVC022 M05/M07 A2947 RMK AO2 SLP993 SNINCR 1/2 P0000 T10501067=
202112262138 SPECI KSEA 262138Z 35011G20KT 1/2SM R16L/3500VP6000FT SN FZFG FEW008 BKN013 OVC020 M05/M07 A2947 RMK AO2 P0000 T10501067=
202112262131 SPECI KSEA 262131Z 35013KT 1/2SM R16L/3000V5500FT SN FZFG BKN011 OVC016 M05/M07 A2947 RMK AO2 P0000 T10501067=
202112262120 SPECI KSEA 262120Z 35015KT 1 1/4SM R16L/5000VP6000FT -SN BR OVC013 M05/M07 A2947 RMK AO2 P0000 T10501072=
202112262053 METAR KSEA 262053Z 35013KT 4SM -SN BR OVC011 M04/M07 A2946 RMK AO2 SNE16B32 SLP988 P0000 60004 T10441067 51016=
202112262041 SPECI KSEA 262041Z 35017KT 8SM -SN OVC012 M04/M07 A2946 RMK AO2 SNE16B32 P0000 T10441067=
202112262025 SPECI KSEA 262025Z 36015KT 8SM OVC012 M04/M07 A2946 RMK AO2 SNE16 P0000 T10441067=
202112262007 SPECI KSEA 262007Z 36015KT 5SM -SN BR FEW010 SCT014 OVC039 M04/M07 A2945 RMK AO2 P0000 T10441067=
202112261953 METAR KSEA 261953Z 35013KT 1 3/4SM -SN BR SCT010 OVC037 M04/M07 A2946 RMK AO2 PK WND 36028/1918 SLP985 SNINCR 1/2 P0001 T10441067=
202112261925 SPECI KSEA 261925Z 36018G28KT 1/2SM R16L/2800V4500FT SN FZFG BKN012 OVC017 M04/M07 A2945 RMK AO2 PK WND 36028/1918 P0001 T10441067=
202112261853 METAR KSEA 261853Z 35016KT 1/4SM R16L/2400V5000FT SN FZFG BKN007 OVC012 M04/M06 A2944 RMK AO2 SLP980 P0003 T10391056=
202112261828 SPECI KSEA 261828Z 36019KT 1/2SM R16L/3500V5500FT SN FZFG BKN007 OVC012 M04/M06 A2943 RMK AO2 P0002 T10441061=
202112261819 SPECI KSEA 261819Z 36018KT 1/2SM R16L/3000V3500FT SN FZFG BKN010 OVC015 M04/M06 A2943 RMK AO2 P0002 T10441061=
202112261801 SPECI KSEA 261801Z 36018KT 1/4SM R16L/2200V2800FT SN FZFG VV009 M04/M06 A2942 RMK AO2 P0001 T10391061=
202112261753 METAR KSEA 261753Z 36017G22KT 1/2SM R16L/2200V4000FT SN FZFG VV011 M04/M06 A2942 RMK AO2 SLP972 SNINCR 1/3 60019 4/003 933003 P0004 60019 T10391056 11006 21039 51024=
202112261720 SPECI KSEA 261720Z 36013KT 1/2SM R16L/3500V5000FT SN FZFG FEW007 OVC011 M03/M05 A2941 RMK AO2 P0003 T10331050=
202112261653 METAR KSEA 261653Z 35012KT 1/4SM R16L/2400V4000FT SN FZFG VV007 M04/M05 A2940 RMK AO2 WSHFT 1550 SLP964 SNINCR 1/2 P0009 T10391050=
202112261610 SPECI KSEA 261610Z 36011KT 1/2SM R16L/3000V4500FT SN FZFG OVC006 M03/M04 A2938 RMK AO2 WSHFT 1550 P0004 T10331044=
202112261600 SPECI KSEA 261600Z 35013G21KT 1/2SM R16L/4000V4500FT -SN BR BKN005 OVC012 M03/M04 A2938 RMK AO2 P0002 T10281044=
202112261553 METAR KSEA 261553Z 01014G23KT 1 3/4SM R16L/4000VP6000FT -SN BR SCT007 OVC012 M02/M04 A2938 RMK AO2 SLP958 P0002 T10221039=
202112261545 SPECI KSEA 261545Z 18005KT 1 3/4SM -SN BR SCT007 BKN012 OVC020 M02/M03 A2937 RMK AO2 P0001 T10171028=
202112261537 SPECI KSEA 261537Z 17009KT 3SM -SN BR SCT007 BKN012 OVC020 M02/M03 A2937 RMK AO2 P0001 T10171028=
202112261515 SPECI KSEA 261515Z 18011KT 1 3/4SM -SN BR BKN007 OVC011 M02/M03 A2935 RMK AO2 P0000 T10171028=
202112261453 METAR KSEA 261453Z 18010KT 1SM R16L/P6000FT -SN BR OVC009 M02/M03 A2934 RMK AO2 SLP947 SNINCR 1/1 P0004 60004 T10171028 53001=
202112261428 SPECI KSEA 261428Z 18011G22KT 3/4SM R16L/4500VP6000FT -SN BR OVC007 M01/M03 A2934 RMK AO2 P0002 T10111028=
202112261355 SPECI KSEA 261355Z 18011G20KT 1SM R16L/5500VP6000FT -SN BKN014 OVC033 M02/M03 A2934 RMK AO2 P0000 T10171033=
202112261353 METAR KSEA 261353Z 19013G21KT 1SM R16L/5500VP6000FT -SN BKN016 OVC033 M01/M03 A2934 RMK AO2 SNB42 SLP944 P0000 T10111033=
202112261346 SPECI KSEA 261346Z 19015G21KT 2 1/2SM -SN BKN020 OVC033 M01/M04 A2934 RMK AO2 SNB42 P0000 T10061044=
202112261343 SPECI KSEA 261343Z 19013G19KT 5SM -SN SCT022 OVC033 M01/M04 A2933 RMK AO2 SNB42 P0000 T10061044=
202112261253 METAR KSEA 261253Z 17010KT 10SM FEW030 OVC039 M01/M04 A2934 RMK AO2 SLP943 T10061044=
202112261153 METAR KSEA 261153Z 18010KT 10SM SCT033 BKN042 OVC060 M01/M04 A2934 RMK AO2 SLP945 70012 T10111044 10000 21017 58004=
202112261053 METAR KSEA 261053Z 17007KT 10SM OVC045 M01/M03 A2935 RMK AO2 SLP950 T10111033=
202112260953 METAR KSEA 260953Z 18009KT 10SM SCT010 M02/M03 A2935 RMK AO2 SLP948 T10171033=
202112260906 SPECI KSEA 260906Z 18010KT 10SM FEW008 SCT085 M02/M03 A2935 RMK AO2 T10171033=
202112260853 METAR KSEA 260853Z 18007KT 10SM SCT010 SCT016 BKN085 M01/M03 A2935 RMK AO2 SLP949 T10111028 58007=
202112260837 SPECI KSEA 260837Z 17008KT 10SM SCT010 BKN019 M01/M02 A2935 RMK AO2 T10061022=
202112260753 METAR KSEA 260753Z 20008KT 10SM FEW015 SCT035 BKN065 M01/M03 A2936 RMK AO2 SLP951 T10061028 400281006=
202112260745 SPECI KSEA 260745Z 18009KT 10SM FEW010 SCT021 BKN034 M01/M03 A2936 RMK AO2 T10061028=
202112260738 SPECI KSEA 260738Z 18011KT 10SM FEW010 SCT015 BKN024 M01/M02 A2936 RMK AO2 T10061022=
202112260731 SPECI KSEA 260731Z 17008KT 10SM FEW010 BKN014 BKN024 M01/M02 A2937 RMK AO2 T10061022=
202112260714 SPECI KSEA 260714Z 18009KT 10SM SCT014 BKN020 BKN028 00/M02 A2937 RMK AO2 T00001017=
202112260653 METAR KSEA 260653Z 18011KT 10SM FEW011 FEW019 FEW040 M01/M02 A2937 RMK AO2 SLP956 T10061022=
202112260613 SPECI KSEA 260613Z 18012KT 10SM SCT012 SCT020 SCT026 00/M02 A2937 RMK AO2 T00001022=
202112260553 METAR KSEA 260553Z 18010KT 10SM SCT015 BKN022 BKN030 00/M02 A2937 RMK AO2 SLP956 60001 T00001022 10011 20000 58001=
202112260528 SPECI KSEA 260528Z 19012KT 10SM FEW015 BKN022 BKN030 00/M02 A2937 RMK AO2 T00001022=
202112260453 METAR KSEA 260453Z 19009KT 10SM BKN010 OVC018 00/M02 A2938 RMK AO2 SLP958 T00001017=
202112260353 METAR KSEA 260353Z 19009KT 10SM SCT013 BKN018 OVC025 01/M02 A2938 RMK AO2 SLP959 T00061017=
202112260315 SPECI KSEA 260315Z 20010KT 10SM SCT012 BKN017 OVC110 01/M01 A2938 RMK AO2 T00061011=
202112260303 SPECI KSEA 260303Z 19010KT 10SM BKN014 BKN110 01/M01 A2938 RMK AO2 T00061011=
202112260253 METAR KSEA 260253Z 19009KT 10SM FEW010 SCT016 BKN095 01/M01 A2938 RMK AO2 SLP958 60001 T00061011 56014=
202112260153 METAR KSEA 260153Z 18010KT 10SM FEW019 OVC050 01/M01 A2938 RMK AO2 SLP959 T00111011=
202112260053 METAR KSEA 260053Z 22011G18KT 8SM FEW019 BKN055 OVC070 01/M01 A2940 RMK AO2 RAE2358SNB2358E19 SLP964 P0001 T00111006=
202112260029 SPECI KSEA 260029Z 17005KT 10SM SCT021 BKN043 OVC065 01/M01 A2940 RMK AO2 RAE2358SNB2358E19 P0001 T00061011=
202112260020 SPECI KSEA 260020Z 21005KT 3SM BR SCT014 BKN022 OVC085 01/M01 A2941 RMK AO2 RAE2358SNB2358E19 P0001 T00061006=
202112260001 SPECI KSEA 260001Z 26007KT 3SM -SN BR SCT010 BKN014 OVC027 01/M01 A2942 RMK AO2 RAE2358SNB2358 P0000 T00061011=
202112252353 METAR KSEA 252353Z 24011G22KT 6SM -RA BR SCT010 BKN014 OVC025 01/M01 A2942 RMK AO2 RAB51 SLP972 P0000 60004 T00111006 10028 20011 55007=
202112252253 METAR KSEA 252253Z 22008KT 10SM SCT012 BKN018 BKN022 02/01 A2942 RMK AO2 SLP970 T00220011=
202112252153 METAR KSEA 252153Z 21010KT 10SM FEW017 SCT021 BKN070 03/01 A2942 RMK AO2 RAE51SNB09E32B35E51 SLP972 P0001 T00280011=
202112252137 SPECI KSEA 252137Z 21011KT 10SM -RASN SCT009 BKN021 BKN070 02/00 A2943 RMK AO2 SNB09E32B35 P0001 T00220000=
202112252133 SPECI KSEA 252133Z 22012G19KT 10SM -RA SCT009 BKN021 OVC070 02/00 A2943 RMK AO2 SNB09E32 P0001 T00220000=
202112252122 SPECI KSEA 252122Z 21011KT 6SM -RASN BR BKN009 BKN015 OVC070 02/01 A2943 RMK AO2 SNB09 P0001 T00220006=
202112252110 SPECI KSEA 252110Z 19011KT 7SM -RASN BKN011 OVC016 02/01 A2943 RMK AO2 SNB09 P0000 T00220006=
202112252053 METAR KSEA 252053Z 20010KT 10SM -RA BKN011 OVC016 03/01 A2944 RMK AO2 SNB07E46 SLP978 P0001 60003 T00280011 56011=
202112252049 SPECI KSEA 252049Z 20011KT 10SM -RA BKN013 OVC019 03/01 A2944 RMK AO2 SNB07E46 P0001=
202112252012 SPECI KSEA 252012Z 21011KT 5SM -RASN BR BKN008 OVC015 02/01 A2945 RMK AO2 SNB07 P0001 T00220006=
202112251953 METAR KSEA 251953Z 20013KT 10SM -RA BKN010 OVC015 03/01 A2946 RMK AO2 SLP983 P0001 T00280011=
202112251853 METAR KSEA 251853Z 18009KT 7SM -RA OVC012 02/01 A2947 RMK AO2 SLP989 P0001 T00220011=
202112251838 SPECI KSEA 251838Z 19013KT 7SM -RA OVC011 03/01 A2948 RMK AO2 P0000 T00280011=
202112251753 METAR KSEA 251753Z 20013G20KT 10SM -RA BKN009 OVC014 02/01 A2948 RMK AO2 SNE31 SLP990 P0000 60007 T00220011 10022 20011 53009=
202112251739 SPECI KSEA 251739Z 20012KT 10SM -RA BKN009 OVC014 02/01 A2948 RMK AO2 SNE31 P0000 T00220011=
202112251706 SPECI KSEA 251706Z 20013KT 10SM -RASN BR SCT008 BKN011 OVC035 02/01 A2947 RMK AO2 P0000 T00220011=
202112251653 METAR KSEA 251653Z 19012G24KT 6SM -RASN BR BKN008 BKN011 OVC032 02/01 A2947 RMK AO2 PK WND 20027/1612 SLP987 P0001 T00170011=
202112251553 METAR KSEA 251553Z 19015G22KT 8SM -RASN BR BKN007 OVC014 02/01 A2945 RMK AO2 PK WND 21034/1525 SNB14 SLP983 P0004 T00170006=
202112251453 METAR KSEA 251453Z 19011G24KT 10SM -RA OVC007 02/01 A2945 RMK AO2 PK WND 19027/1414 RAB49 SLP981 P0002 60002 T00170006 53002=
202112251353 METAR KSEA 251353Z 19011KT 10SM OVC007 02/01 A2944 RMK AO2 SLP979 T00220006=
202112251253 METAR KSEA 251253Z 19011G21KT 10SM OVC007 02/01 A2944 RMK AO2 RAB10E43 SLP978 P0000 T00220011=
202112251216 SPECI KSEA 251216Z 18011KT 5SM -RA OVC009 02/01 A2944 RMK AO2 RAB10 P0000 T00220006=
202112251153 METAR KSEA 251153Z 19010KT 10SM OVC010 02/01 A2944 RMK AO2 RAB12E38 SLP978 P0000 60003 70021 T00220011 10028 20022 50007=
202112251150 SPECI KSEA 251150Z 19010KT 10SM OVC010 02/01 A2944 RMK AO2 RAB12E38 P0000=
202112251112 SPECI KSEA 251112Z 19013G21KT 8SM -RA OVC009 02/01 A2944 RMK AO2 RAB12 P0000 T00220006=
202112251053 METAR KSEA 251053Z 19012G20KT 10SM BKN011 OVC026 02/01 A2944 RMK AO2 RAE20 SLP977 P0000 T00220006=
202112250953 METAR KSEA 250953Z 19017G24KT 7SM -RA OVC010 02/01 A2942 RMK AO2 PK WND 18028/0907 RAB44 SLP971 P0000 T00220011=
202112250853 METAR KSEA 250853Z 20014G26KT 9SM OVC007 03/01 A2940 RMK AO2 PK WND 20026/0846 RAE51 SLP966 P0001 60003 T00280011 51029=
202112250753 METAR KSEA 250753Z 20016G27KT 5SM -RA BR OVC007 02/01 A2939 RMK AO2 PK WND 20032/0720 SLP960 P0002 T00220011 400610022=
202112250718 SPECI KSEA 250718Z 21017G31KT 4SM -RA BR BKN008 OVC012 02/01 A2937 RMK AO2 PK WND 19031/0709 P0000 T00220011=
202112250653 METAR KSEA 250653Z 20019G36KT 6SM -RA BR BKN010 OVC015 03/01 A2935 RMK AO2 PK WND 20036/0646 RAE10B23 SLP948 P0000 T00280011=
202112250620 SPECI KSEA 250620Z 20018G29KT 8SM OVC010 03/01 A2933 RMK AO2 PK WND 19031/0603 RAE10 P0000 T00280011=
202112250553 METAR KSEA 250553Z 19014G23KT 10SM -RA OVC009 03/01 A2932 RMK AO2 PK WND 18029/0455 SLP936 P0006 60009 T00280011 10044 20028 52009=
202112250505 SPECI KSEA 250505Z 17018G26KT 4SM RA BR BKN011 OVC019 03/01 A2931 RMK AO2 PK WND 18029/0455 P0002 T00280006=
202112250453 METAR KSEA 250453Z 18016G27KT 8SM -RA BKN016 OVC021 03/01 A2931 RMK AO2 PK WND 17027/0453 SLP932 P0001 T00330011=
202112250353 METAR KSEA 250353Z 18015G23KT 10SM -RA SCT020 BKN025 OVC030 04/01 A2930 RMK AO2 PK WND 19028/0343 RAE0257B18 SLP931 P0000 T00390006=
202112250253 METAR KSEA 250253Z 18010G20KT 10SM -RA FEW015 OVC024 03/01 A2929 RMK AO2 RAB33 SLP928 P0002 60002 T00330011 53003=
202112250221 SPECI KSEA 250221Z 16009KT 10SM OVC028 04/01 A2929 RMK AO2 T00390011=
202112250153 METAR KSEA 250153Z 15007KT 10SM FEW016 OVC033 04/01 A2929 RMK AO2 RAE0055 SLP926 P0000 T00390011=
202112250053 METAR KSEA 250053Z 12008KT 10SM -RA SCT015 OVC038 04/01 A2928 RMK AO2 SLP923 P0000 T00390011=
202112250043 SPECI KSEA 250043Z 11007KT 10SM -RA SCT015 OVC038 04/02 A2928 RMK AO2 P0000 T00390017=
202112242353 METAR KSEA 242353Z 16008KT 7SM -RA SCT013 BKN028 OVC033 04/02 A2928 RMK AO2 RAB41 SLP925 P0000 60007 T00390022 10050 20033 53009=
202112242304 SPECI KSEA 242304Z 17007KT 10SM SCT021 BKN045 BKN160 04/02 A2927 RMK AO2 T00390017=
202112242253 METAR KSEA 242253Z 17006KT 10SM FEW014 BKN021 BKN038 04/02 A2927 RMK AO2 SLP918 T00390017=
202112242153 METAR KSEA 242153Z 20013G18KT 10SM SCT013 BKN019 BKN036 04/02 A2925 RMK AO2 RAE51 SLP913 P0004 T00440022=
202112242053 METAR KSEA 242053Z 19008KT 7SM -RA BKN017 OVC025 04/02 A2926 RMK AO2 SLP915 P0002 60003 T00390017 56004=
202112242048 SPECI KSEA 242048Z 18008KT 7SM -RA BKN017 OVC025 04/02 A2926 RMK AO2 P0002=
202112242027 SPECI KSEA 242027Z 18009KT 7SM -RA SCT015 BKN034 OVC042 04/02 A2926 RMK AO2 P0001 T00390017=
202112241953 METAR KSEA 241953Z 22010G18KT 6SM -RA BR FEW019 BKN026 OVC048 03/01 A2926 RMK AO2 RAB37 SLP917 P0001 T00330011=
202112241926 SPECI KSEA 241926Z 18010KT 10SM BKN019 BKN060 OVC250 04/01 A2926 RMK AO2 T00440011=
202112241853 METAR KSEA 241853Z 17008KT 10SM FEW015 BKN046 BKN070 BKN250 04/02 A2927 RMK AO2 RAE50 SLP919 P0000 T00440017=
202112241830 SPECI KSEA 241830Z 17008KT 10SM -RA SCT015 SCT022 BKN035 04/02 A2927 RMK AO2 P0000 T00390017=
202112241753 METAR KSEA 241753Z 17005KT 7SM -RA SCT012 BKN018 OVC024 04/02 A2926 RMK AO2 RAB37 SLP918 P0000 60002 T00390017 10039 20022 53004=
202112241745 SPECI KSEA 241745Z 18005KT 7SM -RA SCT012 BKN018 OVC024 03/02 A2927 RMK AO2 RAB37 P0000 T00330017=
202112241701 SPECI KSEA 241701Z 18010KT 10SM BKN012 OVC038 03/01 A2926 RMK AO2 T00330011=
202112241653 METAR KSEA 241653Z 18011KT 10SM SCT014 BKN022 BKN038 03/01 A2926 RMK AO2 SLP916 T00330011=
202112241615 SPECI KSEA 241615Z 18012KT 10SM SCT027 BKN034 03/01 A2925 RMK AO2 T00330006=
202112241553 METAR KSEA 241553Z 19008KT 10SM BKN024 BKN032 03/01 A2925 RMK AO2 SLP911 T00330011=
202112241514 SPECI KSEA 241514Z 17010KT 10SM FEW013 BKN026 OVC033 03/01 A2925 RMK AO2 T00330011=
202112241453 METAR KSEA 241453Z 18011KT 10SM BKN030 BKN034 OVC050 03/01 A2925 RMK AO2 SLP914 60002 T00330011 56006=
202112241353 METAR KSEA 241353Z 18009KT 10SM SCT023 BKN036 OVC070 03/01 A2925 RMK AO2 RAB1258E08 SLP915 P0000 T00280011=
202112241313 SPECI KSEA 241313Z 18013G19KT 10SM SCT010 BKN042 OVC050 02/01 A2926 RMK AO2 RAB1258E08 P0000 T00220011=
202112241253 METAR KSEA 241253Z 18012KT 10SM BKN010 OVC018 02/01 A2926 RMK AO2 SLP918 P0002 T00220011=
202112241244 SPECI KSEA 241244Z 18012G19KT 10SM -RA BKN010 OVC018 02/01 A2926 RMK AO2 P0002 T00220011=
202112241233 SPECI KSEA 241233Z 18011G20KT 7SM -RA BKN008 BKN012 OVC018 02/01 A2927 RMK AO2 P0002 T00220011=
202112241153 METAR KSEA 241153Z 19014G22KT 9SM UP SCT008 BKN013 OVC018 03/01 A2927 RMK AO2 RAE53UPB53 SLP920 P0006 60013 70015 T00280011 10039 20022 57001=
202112241148 SPECI KSEA 241148Z 19012G22KT 7SM -RA SCT008 BKN013 OVC018 02/01 A2927 RMK AO2 P0006=
202112241114 SPECI KSEA 241114Z 20013G20KT 7SM -RA BKN008 OVC014 02/01 A2928 RMK AO2 P0002 T00220006=
202112241053 METAR KSEA 241053Z 19013G20KT 8SM -RA OVC013 03/01 A2927 RMK AO2 PK WND 17032/1026 RAB0959 SLP921 P0007 T00280011=
202112241038 SPECI KSEA 241038Z 18015G25KT 4SM -RA BR BKN013 OVC019 03/01 A2927 RMK AO2 PK WND 17032/1026 RAB0959 P0006 T00280006=
202112241000 SPECI KSEA 241000Z 15012KT 10SM -RA SCT021 OVC027 03/01 A2927 RMK AO2 RAB0959 P0000 T00330006=
202112240953 METAR KSEA 240953Z 16012KT 10SM OVC030 03/01 A2927 RMK AO2 RAB0858E53 SLP921 P0000 T00330006=
202112240905 SPECI KSEA 240905Z 15013KT 6SM -RA SCT025 OVC033 03/01 A2930 RMK AO2 RAB0858 P0000 T00330006=
202112240853 METAR KSEA 240853Z 15012KT 10SM FEW018 BKN029 OVC035 03/01 A2931 RMK AO2 RAB0754E08 SLP932 P0000 60000 T00330006 58031=
202112240807 SPECI KSEA 240807Z 17015KT 10SM -RA BKN018 BKN023 OVC040 03/01 A2934 RMK AO2 RAB0754 P0000 T00330006=
202112240753 METAR KSEA 240753Z 17014KT 10SM FEW017 BKN037 OVC048 03/01 A2934 RMK AO2 RAE03B27E41 SLP945 P0000 T00330006 400780033=
202112240653 METAR KSEA 240653Z 18013G20KT 10SM -RA SCT016 BKN030 OVC060 03/01 A2938 RMK AO2 RAB51 SLP958 P0000 T00330006=
202112240553 METAR KSEA 240553Z 19013KT 10SM FEW013 BKN055 OVC080 04/01 A2940 RMK AO2 SLP964 T00390006 10044 20033 55004=
202112240531 SPECI KSEA 240531Z 20013KT 10SM SCT013 OVC095 03/01 A2940 RMK AO2 T00330011=
202112240453 METAR KSEA 240453Z 20018G26KT 10SM BKN015 OVC110 04/01 A2940 RMK AO2 PK WND 22026/0446 SLP963 T00390006=
202112240353 METAR KSEA 240353Z 20017G27KT 10SM BKN019 OVC140 04/01 A2941 RMK AO2 PK WND 20027/0352 SLP966 T00390006=
202112240332 SPECI KSEA 240332Z 20019G24KT 10SM FEW014 BKN022 OVC110 03/01 A2940 RMK AO2 T00330006=
202112240253 METAR KSEA 240253Z 19016G26KT 10SM BKN014 OVC090 04/01 A2941 RMK AO2 PK WND 19026/0253 SLP968 T00390011 58008=
202112240153 METAR KSEA 240153Z 20015G21KT 10SM FEW018 BKN024 OVC100 04/01 A2943 RMK AO2 PK WND 20027/0123 SLP973 T00440011=
202112240053 METAR KSEA 240053Z 22018G24KT 10SM SCT021 BKN110 OVC200 04/01 A2943 RMK AO2 PK WND 21029/0037 SLP974 T00440011=
202112232353 METAR KSEA 232353Z 21015G27KT 10SM FEW020 SCT120 OVC200 04/01 A2944 RMK AO2 PK WND 22029/2332 SLP976 T00440006 10061 20044 53003=
202112232253 METAR KSEA 232253Z 22016G24KT 10SM FEW019 BKN140 BKN250 05/01 A2942 RMK AO2 PK WND 22030/2155 SLP972 T00500011=
202112232153 METAR KSEA 232153Z 22022G31KT 10SM SCT020 BKN100 06/01 A2942 RMK AO2 PK WND 22034/2108 SLP971 T00610011=
202112232148 SPECI KSEA 232148Z 21019G28KT 10SM SCT020 BKN100 06/02 A2943 RMK AO2 PK WND 22034/2108=
202112232053 METAR KSEA 232053Z 23019G29KT 10SM BKN020 BKN080 BKN200 06/01 A2944 RMK AO2 PK WND 22031/2025 SLP975 T00560011 58002=
202112232029 SPECI KSEA 232029Z 22019G31KT 10SM SCT020 SCT080 BKN200 06/01 A2943 RMK AO2 PK WND 22031/2025 T00560011=
202112231953 METAR KSEA 231953Z 22014G24KT 10SM BKN019 06/02 A2944 RMK AO2 PK WND 23027/1915 SLP977 T00560017=
202112231853 METAR KSEA 231853Z 23011G25KT 10SM BKN017 05/02 A2945 RMK AO2 SLP981 T00500017=
202112231753 METAR KSEA 231753Z 20014G21KT 10SM BKN015 04/02 A2944 RMK AO2 SLP977 60002 T00440017 10056 20039 53012=
202112231712 SPECI KSEA 231712Z 22014G24KT 10SM FEW011 BKN016 OVC023 04/02 A2943 RMK AO2 T00440022=
202112231653 METAR KSEA 231653Z 22016G27KT 10SM BKN012 BKN019 04/02 A2942 RMK AO2 PK WND 20027/1650 SLP971 T00440022=
202112231553 METAR KSEA 231553Z 19013G23KT 10SM BKN013 BKN023 04/03 A2941 RMK AO2 RAB07E17 SLP965 P0000 T00440028=
202112231550 SPECI KSEA 231550Z 20011G23KT 10SM BKN013 BKN018 04/03 A2941 RMK AO2 RAB07E17 P0000=
202112231453 METAR KSEA 231453Z 21013G21KT 7SM SCT015 BKN022 04/02 A2942 RMK AO2 RAB1357E18 SLP968 P0000 60002 T00440022 55006=
202112231418 SPECI KSEA 231418Z 19012KT 7SM BKN015 OVC022 04/03 A2941 RMK AO2 RAB1357E18 P0000 T00440028=
202112231353 METAR KSEA 231353Z 21012KT 10SM BKN012 BKN020 OVC039 05/03 A2941 RMK AO2 RAB1257E43 SLP968 P0002 T00500033=
202112231350 SPECI KSEA 231350Z 20011KT 10SM BKN012 BKN020 OVC039 05/03 A2942 RMK AO2 RAB1257E43 P0002=
202112231253 METAR KSEA 231253Z 25010G18KT 10SM BKN017 BKN025 OVC035 06/03 A2943 RMK AO2 SLP974 T00560033=
202112231250 SPECI KSEA 231250Z 23010G18KT 10SM BKN017 BKN025 OVC080 06/03 A2943 RMK AO2=
202112231153 METAR KSEA 231153Z 22012G19KT 10SM FEW015 OVC075 05/03 A2942 RMK AO2 SLP971 60018 70050 T00500033 10089 20050 50003=
202112231053 METAR KSEA 231053Z 21010KT 10SM FEW033 BKN048 OVC070 05/03 A2942 RMK AO2 RAE0956 SLP971 P0000 T00500033=
202112231047 SPECI KSEA 231047Z 22011KT 10SM FEW033 BKN048 OVC070 05/03 A2943 RMK AO2 RAE0956 P0000=
202112231015 SPECI KSEA 231015Z 24010G19KT 10SM BKN011 OVC035 06/04 A2942 RMK AO2 RAE0956 P0000 T00560039=
202112230953 METAR KSEA 230953Z 23009KT 10SM -RA FEW013 BKN029 OVC035 06/04 A2941 RMK AO2 PK WND 22026/0901 SLP968 P0005 T00610044=
202112230929 SPECI KSEA 230929Z 24012KT 10SM -RA FEW009 BKN015 OVC025 07/05 A2941 RMK AO2 PK WND 22026/0901 P0004 T00670050=
202112230853 METAR KSEA 230853Z 22015G24KT 5SM -RA BR BKN009 OVC016 07/06 A2939 RMK AO2 SLP958 P0009 60013 T00720061 56010=
202112230844 SPECI KSEA 230844Z 23012G19KT 4SM RA BR FEW007 BKN013 OVC028 07/06 A2939 RMK AO2 P0006 T00720061=
202112230829 SPECI KSEA 230829Z 23007KT 5SM -RA BR FEW019 BKN025 OVC034 07/06 A2939 RMK AO2 P0002 T00720056=
202112230753 METAR KSEA 230753Z 22008KT 10SM -RA OVC036 08/05 A2939 RMK AO2 SLP958 P0003 T00780050 401000050=
202112230653 METAR KSEA 230653Z 18010KT 10SM -RA FEW039 BKN048 OVC075 08/04 A2940 RMK AO2 RAE26B51 SLP961 P0001 T00830044=
202112230553 METAR KSEA 230553Z 16011KT 10SM -RA FEW041 BKN047 OVC070 08/04 A2942 RMK AO2 RAB06E17B48 SLP968 P0000 60005 T00830044 10083 20067 57019=
202112230453 METAR KSEA 230453Z 14008KT 10SM OVC047 07/05 A2943 RMK AO2 SLP972 T00720050=
202112230353 METAR KSEA 230353Z 16007KT 10SM BKN038 OVC047 08/05 A2946 RMK AO2 RAB08E22 SLP985 P0000 T00780050=
202112230253 METAR KSEA 230253Z 15010KT 10SM OVC036 07/06 A2947 RMK AO2 SLP988 60005 T00720056 58021=
202112230153 METAR KSEA 230153Z 13008KT 10SM FEW008 SCT030 OVC048 07/06 A2950 RMK AO2 RAE31 SLP997 P0001 T00720061=
202112230053 METAR KSEA 230053Z 15009KT 9SM -RA FEW009 OVC040 07/06 A2952 RMK AO2 SLP004 P0004 T00670056=
202112222353 METAR KSEA 222353Z 18006KT 4SM -RA BR FEW009 SCT025 OVC031 07/06 A2954 RMK AO2 SLP010 P0009 60022 T00670056 10100 20067 56016=
202112222318 SPECI KSEA 222318Z 22009KT 3SM RA BR FEW009 BKN016 OVC035 07/06 A2954 RMK AO2 P0004 T00720061=
202112222253 METAR KSEA 222253Z 18007KT 5SM -RA BR SCT016 BKN023 OVC033 08/06 A2954 RMK AO2 SLP012 P0009 T00780061=
202112222234 SPECI KSEA 222234Z 17008KT 4SM -RA BR BKN020 OVC033 08/06 A2955 RMK AO2 P0005 T00780061=
202112222153 METAR KSEA 222153Z 18006KT 6SM -RA BR SCT030 OVC034 08/06 A2956 RMK AO2 SLP018 P0003 T00780061=
202112222053 METAR KSEA 222053Z 17010KT 7SM -RA FEW025 BKN045 OVC055 09/06 A2959 RMK AO2 RAB24 SLP026 P0001 60001 T00890061 58026 $=
202112221953 METAR KSEA 221953Z 19010KT 10SM FEW025 BKN050 BKN070 OVC150 09/05 A2961 RMK AO2 SLP035 T00940050 $=
202112221853 METAR KSEA 221853Z 18011KT 10SM FEW025 SCT050 BKN090 BKN150 09/05 A2964 RMK AO2 SLP045 T00940050 $=
202112221753 METAR KSEA 221753Z 17016KT 10SM FEW037 SCT048 BKN150 OVC250 09/05 A2966 RMK AO2 SLP052 60005 T00890050 10089 20072 58016 $=
202112221653 METAR KSEA 221653Z 17014G20KT 10SM BKN030 OVC038 08/06 A2968 RMK AO2 SLP058 T00830056 $=
202112221553 METAR KSEA 221553Z 17012G20KT 10SM SCT023 BKN032 BKN040 08/06 A2970 RMK AO2 SLP065 T00780056 $=
202112221453 METAR KSEA 221453Z 18016G23KT 10SM FEW021 BKN038 08/06 A2971 RMK AO2 RAE21 SLP069 P0001 60005 T00780056 56017 $=
202112221424 SPECI KSEA 221424Z 18009KT 7SM FEW020 BKN030 OVC037 07/06 A2972 RMK AO2 RAE21 P0001 T00720061 $=
202112221353 METAR KSEA 221353Z 19012KT 7SM -RA FEW018 BKN029 OVC037 07/06 A2973 RMK AO2 RAE20B39 SLP076 P0004 T00720061 $=
202112221301 SPECI KSEA 221301Z 20010KT 8SM -RA FEW019 BKN028 OVC034 08/06 A2974 RMK AO2 P0001 T00780061=
202112221253 METAR KSEA 221253Z 20010G20KT 9SM -RA SCT026 BKN035 OVC044 08/06 A2974 RMK AO2 RAB38 SLP080 P0000 T00780061=
202112221228 SPECI KSEA 221228Z 18010KT 10SM FEW022 BKN042 OVC048 08/06 A2974 RMK AO2 T00780061=
202112221153 METAR KSEA 221153Z 18011G18KT 10SM FEW012 BKN027 OVC033 07/06 A2976 RMK AO2 RAB1054E47 SLP086 P0007 60022 70026 T00720061 10078 20039 58002=
202112221053 METAR KSEA 221053Z 20009G19KT 8SM FEW018 BKN029 OVC060 08/06 A2979 RMK AO2 RAE26 SLP095 P0000 T00780061=
202112221044 SPECI KSEA 221044Z 18011KT 10SM FEW018 BKN029 OVC050 08/06 A2978 RMK AO2 RAE26 P0000 T00780061=
202112220953 METAR KSEA 220953Z 19011KT 7SM -RA BKN014 OVC022 08/06 A2978 RMK AO2 RAB50 SLP095 P0000 T00780061=
202112220853 METAR KSEA 220853Z 19014KT 10SM OVC020 07/06 A2977 RMK AO2 SLP089 60015 T00670056 56018=
202112220753 METAR KSEA 220753Z 18009KT 3SM BR FEW002 OVC024 05/04 A2977 RMK AO2 RAE53 SLP090 P0006 T00500044 400500011=
202112220725 SPECI KSEA 220725Z 17009KT 4SM -RA BR SCT002 BKN025 OVC030 05/04 A2978 RMK AO2 P0004 T00500044=
202112220653 METAR KSEA 220653Z 17006KT 2 1/2SM -RA BR OVC002 04/04 A2980 RMK AO2 SLP099 P0009 T00440039=
202112220553 METAR KSEA 220553Z 16007KT 3SM -RA BR BKN004 OVC018 04/03 A2982 RMK AO2 RAB36 SLP106 P0002 60004 T00390033 10039 20022 58028=
202112220540 SPECI KSEA 220540Z 15010KT 3SM -RA BR BKN004 OVC019 04/03 A2982 RMK AO2 RAB36 P0001 T00390033=
202112220453 METAR KSEA 220453Z 16008KT 4SM BR SCT006 BKN020 OVC025 03/03 A2985 RMK AO2 SLP119 P0002 T00330028=
202112220353 METAR KSEA 220353Z 16008KT 3SM BR SCT006 OVC028 03/02 A2989 RMK AO2 SLP130 T00280022=
202112220347 SPECI KSEA 220347Z 16010KT 2SM BR FEW006 OVC027 03/02 A2989 RMK AO2 SFC VIS 3=
202112220332 SPECI KSEA 220332Z 14007KT 1SM R16L/P6000FT BR BKN028 BKN036 OVC046 03/02 A2990 RMK AO2 SFC VIS 2 T00280022=
202112220253 METAR KSEA 220253Z 15004KT 6SM BR FEW041 BKN070 OVC080 03/02 A2990 RMK AO2 SLP136 60000 T00280022 56022=
202112220153 METAR KSEA 220153Z 17007KT 5SM BR SCT003 SCT040 OVC090 02/02 A2992 RMK AO2 RAE00 SLP142 P0000 T00220017=
202112220148 SPECI KSEA 220148Z 16007KT 5SM BR SCT003 BKN040 OVC090 02/02 A2992 RMK AO2 RAE00 P0000=
202112220118 SPECI KSEA 220118Z 16006KT 4SM BR BKN004 OVC040 03/02 A2993 RMK AO2 RAE00 P0000 T00280017=
202112220053 METAR KSEA 220053Z 18006KT 7SM -RA FEW006 SCT041 OVC085 02/01 A2995 RMK AO2 RAB35 SLP151 P0000 T00220011=
202112220020 SPECI KSEA 220020Z 19005KT 5SM BR FEW006 BKN070 OVC095 02/01 A2996 RMK AO2 T00220011=
202112220017 SPECI KSEA 220017Z 20004KT 2SM BR FEW006 BKN070 OVC095 02/01 A2996 RMK AO2 SFC VIS 4 T00220011=
202112212353 METAR KSEA 212353Z 20003KT 2SM BR BKN005 OVC095 02/01 A2997 RMK AO2 SFC VIS 3 SLP159 T00220011 10028 20017 58031=
202112212333 SPECI KSEA 212333Z 18003KT 1 1/2SM BR OVC005 02/01 A2998 RMK AO2 SFC VIS 3 T00220011=
202112212253 METAR KSEA 212253Z 20003KT 1 1/2SM BR OVC003 02/02 A3001 RMK AO2 SFC VIS 3 SLP171 T00220017=
202112212153 METAR KSEA 212153Z 11005KT 1/2SM R16L/P6000FT BR OVC004 02/01 A3003 RMK AO2 SFC VIS 3 SLP179 VIS SW 1 T00220011=
202112212151 SPECI KSEA 212151Z 10005KT 1/2SM R16L/P6000FT BR OVC004 02/01 A3003 RMK AO2 SFC VIS 3 VIS SW 1=
202112212053 METAR KSEA 212053Z 12004KT 3SM BR OVC005 02/01 A3006 RMK AO2 SFC VIS 6 SLP190 T00220011 58014=
202112211953 METAR KSEA 211953Z 00000KT 2SM BR OVC005 02/01 A3009 RMK AO2 SFC VIS 6 SLP199 T00220006=
202112211947 SPECI KSEA 211947Z 00000KT 2SM BR OVC005 02/01 A3009 RMK AO2 SFC VIS 6=
202112211945 SPECI KSEA 211945Z 15003KT 1 1/2SM BR OVC005 02/01 A3009 RMK AO2 SFC VIS 6 T00220006=
202112211853 METAR KSEA 211853Z 10004KT 1 1/2SM BR OVC003 02/01 A3010 RMK AO2 SFC VIS 6 SLP205 T00220006=
202112211753 METAR KSEA 211753Z 03003KT 1/2SM R16L/P6000FT BR OVC002 02/01 A3012 RMK AO2 SFC VIS 4 SLP209 T00170006 10017 20011 55004=
202112211653 METAR KSEA 211653Z 02005KT 1/2SM R16L/P6000FT BR OVC003 01/01 A3011 RMK AO2 SFC VIS 3 SLP208 T00110006=
202112211553 METAR KSEA 211553Z 06003KT 2SM BR OVC004 02/01 A3012 RMK AO2 SFC VIS 6 SLP211 T00170006=
202112211453 METAR KSEA 211453Z 02009KT 1 1/2SM BR OVC003 01/01 A3013 RMK AO2 SFC VIS 6 SLP213 T00110006 56009=
202112211353 METAR KSEA 211353Z 02011KT 1SM R16L/P6000FT BR OVC002 02/01 A3013 RMK AO2 SFC VIS 3 SLP214 T00170011=
202112211340 SPECI KSEA 211340Z 02010KT 1SM R16L/P6000FT BR OVC002 02/01 A3013 RMK AO2 SFC VIS 4 T00170006=
202112211253 METAR KSEA 211253Z 36008KT 10SM BKN004 OVC024 01/00 A3015 RMK AO2 SLP221 T00110000=
202112211231 SPECI KSEA 211231Z 36006KT 10SM SCT006 OVC024 02/M01 A3016 RMK AO2 T00171006=
202112211153 METAR KSEA 211153Z 01007KT 10SM OVC024 02/M01 A3016 RMK AO2 SLP223 70026 T00171011 10022 20017 50003=
202112211053 METAR KSEA 211053Z 35009KT 10SM BKN025 OVC030 02/M01 A3018 RMK AO2 SLP230 T00171011=
202112210953 METAR KSEA 210953Z 36009KT 10SM OVC022 02/M01 A3017 RMK AO2 SLP225 T00171011=
202112210853 METAR KSEA 210853Z 01009KT 10SM BKN021 OVC028 02/M01 A3015 RMK AO2 SLP219 T00171011 58005=
202112210753 METAR KSEA 210753Z 02008KT 10SM SCT017 OVC022 02/M01 A3017 RMK AO2 SLP226 T00221006 400280006=
202112210653 METAR KSEA 210653Z 02009KT 10SM OVC017 02/M01 A3017 RMK AO2 SLP226 T00221006=
202112210553 METAR KSEA 210553Z 02007G18KT 10SM OVC015 02/00 A3016 RMK AO2 SLP225 60000 T00220000 10028 20017 51008=
202112210453 METAR KSEA 210453Z 35006KT 10SM OVC019 02/01 A3016 RMK AO2 SLP224 T00220006=
202112210353 METAR KSEA 210353Z 36007KT 10SM OVC023 02/01 A3015 RMK AO2 DZE24 SLP221 P0000 T00170006=
202112210253 METAR KSEA 210253Z 01009KT 5SM -DZ FEW007 BKN024 OVC041 02/00 A3014 RMK AO2 DZB17 SLP217 P0000 60000 T00170000 51016=
202112210237 SPECI KSEA 210237Z 01008KT 6SM -DZ FEW021 BKN032 OVC046 02/00 A3014 RMK AO2 DZB17 P0000 T00170000=
202112210153 METAR KSEA 210153Z 36008KT 10SM BKN015 OVC043 02/00 A3014 RMK AO2 SLP217 T00170000=
202112210053 METAR KSEA 210053Z 02009KT 10SM OVC016 02/M01 A3012 RMK AO2 DZB03E50 SLP208 P0000 T00221006=
202112202353 METAR KSEA 202353Z 36007KT 10SM BKN016 03/00 A3009 RMK AO2 SLP200 P0000 60008 T00280000 10028 20011 53012=
202112202311 SPECI KSEA 202311Z 36006KT 10SM BKN016 BKN050 BKN065 03/01 A3008 RMK AO2 T00280006=
202112202253 METAR KSEA 202253Z 02006KT 10SM SCT016 BKN050 BKN065 03/01 A3008 RMK AO2 RAE38 SLP194 P0000 T00280011=
202112202240 SPECI KSEA 202240Z 01007KT 10SM SCT020 BKN050 BKN065 03/01 A3007 RMK AO2 RAE38 P0000 T00280006=
202112202153 METAR KSEA 202153Z 04010KT 9SM -RA BKN021 OVC030 03/01 A3006 RMK AO2 RAE21B47 SLP189 P0001 T00280006=
202112202053 METAR KSEA 202053Z 02009KT 6SM -RA BR OVC020 02/01 A3006 RMK AO2 RAE1956B19SNE43 SLP190 P0003 60007 T00170006 51009=
202112202043 SPECI KSEA 202043Z 02010KT 5SM -RA BR BKN020 OVC045 02/01 A3006 RMK AO2 RAE1956B19SNE43 P0003 T00170006=
202112202033 SPECI KSEA 202033Z 02010KT 4SM -RASN BR BKN019 BKN030 OVC042 02/01 A3006 RMK AO2 RAE1956B19 P0003 T00170006=
202112202000 SPECI KSEA 202000Z 01009KT 4SM -SN BR FEW009 BKN042 OVC060 01/00 A3005 RMK AO2 RAE1956 P0001 T00110000=
202112201953 METAR KSEA 201953Z 01008KT 4SM -RASN BR FEW004 BKN029 OVC045 02/01 A3005 RMK AO2 SNE12B51 SLP186 P0002 T00170006=
202112201913 SPECI KSEA 201913Z 02010KT 6SM -RA BR FEW004 BKN029 OVC038 02/01 A3005 RMK AO2 SNE12 P0001 T00170006=
202112201853 METAR KSEA 201853Z 01009KT 6SM -RASN BR BKN023 OVC032 02/01 A3005 RMK AO2 SLP188 P0002 T00170006=
202112201805 SPECI KSEA 201805Z 02012KT 6SM -RASN BR FEW014 BKN023 OVC032 02/01 A3003 RMK AO2 RAB00 P0000 T00170006=
202112201753 METAR KSEA 201753Z 03011KT 5SM -SN BR FEW004 BKN022 OVC028 01/00 A3003 RMK AO2 RAE14B38E42SNB14 SLP180 P0004 60018 T00110000 10028 20006 53017=
202112201745 SPECI KSEA 201745Z 02012KT 5SM -SN BR FEW004 BKN020 OVC028 01/00 A3003 RMK AO2 RAE14B38E42SNB14 P0003 T00110000=
202112201717 SPECI KSEA 201717Z 03012KT 5SM -SN BR SCT006 OVC026 01/00 A3002 RMK AO2 RAE14SNB14 P0002 T00110000=
202112201705 SPECI KSEA 201705Z 02014KT 3SM -RA BR SCT006 OVC024 01/00 A3002 RMK AO2 P0001 T00110000=
202112201653 METAR KSEA 201653Z 02013KT 6SM -RA BR BKN007 BKN017 OVC024 02/01 A3001 RMK AO2 SNE25 SLP172 P0002 T00170006=
202112201627 SPECI KSEA 201627Z 01010KT 10SM -RA BKN007 OVC024 02/01 A3000 RMK AO2 SNE25 P0001 T00170006=
202112201612 SPECI KSEA 201612Z 01008KT 7SM -RASN FEW008 OVC024 02/01 A2999 RMK AO2 P0001 T00170006=
202112201553 METAR KSEA 201553Z 36004KT 6SM -RASN BR OVC023 01/00 A2999 RMK AO2 SLP165 P0008 T00110000=
202112201453 METAR KSEA 201453Z 36005KT 4SM -RASN BR OVC024 01/00 A2998 RMK AO2 SLP163 P0003 60004 T00110000 53000=
202112201353 METAR KSEA 201353Z 02007KT 10SM -RASN BKN024 OVC031 02/M01 A2998 RMK AO2 SNB49 SLP161 P0001 T00221006 $=
202112201336 SPECI KSEA 201336Z 01007KT 10SM -RA BKN025 BKN040 OVC075 02/00 A2998 RMK AO2 P0001 T00220000 $=
202112201253 METAR KSEA 201253Z 04004KT 10SM -RA SCT055 BKN075 OVC090 03/00 A2998 RMK AO2 RAB50 SLP162 P0000 T00280000 $=
202112201153 METAR KSEA 201153Z 03008KT 10SM BKN065 OVC075 03/M01 A2998 RMK AO2 SLP162 T00281006 10028 20022 53002 $=
202112201053 METAR KSEA 201053Z 01009KT 10SM OVC065 03/00 A2998 RMK AO2 SLP160 T00280000 $=
202112200953 METAR KSEA 200953Z 01010KT 10SM OVC065 03/00 A2998 RMK AO2 SLP160 T00280000 $=
202112200853 METAR KSEA 200853Z 02011KT 10SM BKN060 OVC200 03/00 A2997 RMK AO2 SLP159 T00280000 55002 $=
202112200753 METAR KSEA 200753Z 01013KT 10SM BKN065 OVC200 03/01 A2997 RMK AO2 SLP157 T00280006 400720022 $=
202112200653 METAR KSEA 200653Z 02010KT 10SM FEW060 OVC200 02/01 A2997 RMK AO2 SLP159 T00220006 $=
202112200553 METAR KSEA 200553Z 01010KT 10SM FEW060 BKN200 03/01 A2998 RMK AO2 SLP161 T00280006 10056 20028 51008 $=
202112200453 METAR KSEA 200453Z 02012KT 10SM FEW050 BKN200 03/01 A2998 RMK AO2 SLP160 T00280011 $=
202112200353 METAR KSEA 200353Z 02011KT 10SM FEW020 03/02 A2997 RMK AO2 SLP157 T00330017 $=
202112200253 METAR KSEA 200253Z 01011KT 10SM FEW020 03/02 A2996 RMK AO2 SLP153 T00330017 50001 $=
202112200153 METAR KSEA 200153Z 02010KT 10SM FEW015 SCT050 04/01 A2997 RMK AO2 SLP157 T00390011 $=
202112200053 METAR KSEA 200053Z 01011KT 10SM FEW015 FEW050 SCT220 04/01 A2996 RMK AO2 SLP154 T00440011 $=
202112192353 METAR KSEA 192353Z 01012KT 10SM FEW015 SCT050 06/02 A2995 RMK AO2 SLP152 T00560017 10072 20050 53001 $=
202112192253 METAR KSEA 192253Z 02010KT 10SM FEW015 SCT050 07/02 A2995 RMK AO2 SLP150 T00670017 $=
202112192153 METAR KSEA 192153Z 01010KT 10SM SCT015 BKN050 07/02 A2995 RMK AO2 SLP150 T00670022 $=
202112192053 METAR KSEA 192053Z 04010KT 10SM BKN015 BKN060 BKN210 07/03 A2995 RMK AO2 SLP151 T00670028 56008 $=
202112191953 METAR KSEA 191953Z 36008KT 10SM SCT010 SCT030 BKN060 06/03 A2996 RMK AO2 SLP152 T00560028 $=
202112191853 METAR KSEA 191853Z 01008KT 10SM FEW007 FEW030 SCT050 BKN200 06/03 A2997 RMK AO2 SLP158 T00560028 $=
202112191753 METAR KSEA 191753Z 03006KT 10SM FEW010 BKN024 BKN200 05/03 A2998 RMK AO2 SLP160 60000 T00500028 10050 20039 53005 $=
202112191711 SPECI KSEA 191711Z 01006KT 10SM FEW004 OVC026 04/03 A2997 RMK AO2 T00440028 $=
202112191653 METAR KSEA 191653Z 01006KT 9SM FEW010 OVC026 04/03 A2997 RMK AO2 SLP157 T00390028 $=
202112191553 METAR KSEA 191553Z 08003KT 10SM FEW009 OVC022 04/03 A2995 RMK AO2 SLP152 T00440028 $=
202112191534 SPECI KSEA 191534Z 00000KT 10SM FEW009 OVC022 04/03 A2996 RMK AO2 T00390028 $=
202112191453 METAR KSEA 191453Z 00000KT 10SM BKN009 OVC024 04/02 A2996 RMK AO2 RAB1354E51 SLP155 P0000 60000 T00390022 53012 $=
202112191353 METAR KSEA 191353Z 17003KT 6SM BR BKN010 OVC016 04/02 A2994 RMK AO2 RAB34E53 SLP149 P0000 T00390022 $=
202112191336 SPECI KSEA 191336Z 00000KT 10SM -RA BKN010 OVC019 04/02 A2994 RMK AO2 RAB34 P0000 T00390022 $=
202112191308 SPECI KSEA 191308Z 00000KT 10SM OVC017 04/02 A2994 RMK AO2 T00390017 $=
202112191253 METAR KSEA 191253Z 00000KT 10SM BKN014 OVC019 04/02 A2994 RMK AO2 SLP147 T00390022 $=
202112191153 METAR KSEA 191153Z 14003KT 10SM OVC018 04/02 A2993 RMK AO2 SLP143 7//// T00440017 10050 20039 50002 $=
202112191126 SPECI KSEA 191126Z 15003KT 10SM FEW010 OVC016 04/02 A2993 RMK AO2 T00440017 $=
202112191053 METAR KSEA 191053Z 14003KT 10SM OVC010 04/02 A2993 RMK AO2 SLP145 T00440017 $=
202112191013 SPECI KSEA 191013Z 15003KT 10SM OVC013 04/02 A2993 RMK AO2 T00390017 $=
202112190953 METAR KSEA 190953Z 13004KT 10SM OVC015 04/02 A2992 RMK AO2 SLP141 T00440022 $=
202112190853 METAR KSEA 190853Z VRB03KT 10SM OVC016 04/02 A2992 RMK AO2 SLP140 T00390017 51015 $=
202112190753 METAR KSEA 190753Z 19003KT 10SM BKN016 OVC022 05/02 A2992 RMK AO2 SLP139 T00500022 401000022 $=
202112190718 SPECI KSEA 190718Z 17008KT 10SM BKN016 04/02 A2991 RMK AO2 T00440017 $=
202112190653 METAR KSEA 190653Z 19010KT 10SM SCT015 04/02 A2989 RMK AO2 SLP130 T00440022 $=
202112190638 SPECI KSEA 190638Z 17007KT 10SM SCT015 04/02 A2989 RMK AO2 T00390017 $=
202112190608 SPECI KSEA 190608Z 19009KT 10SM BKN015 04/02 A2988 RMK AO2 T00440022 $=
202112190553 METAR KSEA 190553Z 17012KT 10SM SCT017 BKN230 04/02 A2987 RMK AO2 SLP124 60000 T00390017 10056 20033 50003 $=
202112190523 SPECI KSEA 190523Z 16009KT 10SM SCT015 BKN230 04/02 A2988 RMK AO2 T00390022 $=
202112190453 METAR KSEA 190453Z 16008KT 10SM OVC015 04/02 A2989 RMK AO2 SLP130 T00440022 $=
202112190408 SPECI KSEA 190408Z 15008G17KT 10SM OVC015 04/02 A2989 RMK AO2 T00390022 $=
202112190353 METAR KSEA 190353Z 14007KT 10SM OVC014 04/02 A2989 RMK AO2 SLP129 T00390022 $=
202112190253 METAR KSEA 190253Z 19010G22KT 10SM FEW009 OVC013 04/03 A2986 RMK AO2 SLP122 60000 T00440028 53015 $=
202112190237 SPECI KSEA 190237Z 18014G19KT 10SM BKN009 OVC015 04/03 A2985 RMK AO2 T00440028 $=
202112190153 METAR KSEA 190153Z 18016G25KT 10SM FEW010 BKN017 04/03 A2984 RMK AO2 SLP113 T00440033 $=
202112190053 METAR KSEA 190053Z 18016G23KT 10SM BKN016 BKN021 OVC070 05/03 A2983 RMK AO2 PK WND 19027/0021 RAE08 SLP111 P0000 T00500033 $=
202112190033 SPECI KSEA 190033Z 19015G26KT 10SM BKN013 BKN018 OVC070 05/03 A2982 RMK AO2 PK WND 19027/0021 RAE08 P0000 T00500033 $=
202112182353 METAR KSEA 182353Z 20015KT 10SM -RA FEW013 OVC044 06/04 A2982 RMK AO2 RAE24B52 SLP107 P0000 6//// T00560039 10100 20056 51025 $=
202112182253 METAR KSEA 182253Z 21015G22KT 6SM -RA BR BKN013 OVC036 06/06 A2981 RMK AO2 SLP105 T00610056 PNO $=
202112182153 METAR KSEA 182153Z 22019G26KT 8SM -RA FEW005 SCT015 BKN025 07/06 A2977 RMK AO2 SLP091 T00720061 PNO $=
202112182130 SPECI KSEA 182130Z 23020G32KT 9SM -RA FEW015 SCT025 BKN045 10/07 A2978 RMK AO2 T01000072 PNO $=
202112182053 METAR KSEA 182053Z 22018G31KT 4SM -RA FEW010 BKN020 OVC030 10/07 A2974 RMK AO2 RAE10B36 SLP080 6//// T01000072 55011 PNO $=
202112181953 METAR KSEA 181953Z 19016G24KT 10SM -RA FEW010 OVC025 10/07 A2973 RMK AO2 SLP076 T00940072 PNO $=
202112181924 SPECI KSEA 181924Z 19018G24KT 7SM -RA FEW010 OVC025 09/07 A2974 RMK AO2 T00890072 PNO $=
202112181853 METAR KSEA 181853Z 20018G27KT 7SM -RA FEW010 BKN030 OVC050 09/06 A2976 RMK AO2 RAB32 SLP085 T00940067 PNO $=
202112181753 METAR KSEA 181753Z 18012G23KT 10SM BKN030 OVC060 09/06 A2978 RMK AO2 RAE17 SLP091 6//// T00940067 56038 PNO $=
202112181718 SPECI KSEA 181718Z 19006KT 10SM OVC030 08/06 A2980 RMK AO2 RAE17 T00780061 PNO $=
202112181653 METAR KSEA 181653Z 18012G19KT 6SM -RA BR FEW005 OVC025 08/06 A2981 RMK AO2 RAE22B39 SLP102 T00780061 PNO $=
202112181553 METAR KSEA 181553Z 16003KT 5SM -RA BR FEW004 OVC020 06/05 A2985 RMK AO2 SLP116 T00610050 PNO $=
202112181453 METAR KSEA 181453Z 13007KT 10SM -RA SCT004 OVC020 04/03 A2989 RMK AO2 SLP130 P0000 60010 T00390028 56022 $=
202112181353 METAR KSEA 181353Z 12008KT 5SM -RA BR SCT004 OVC022 04/03 A2991 RMK AO2 SLP139 P0004 T00390033=
202112181348 SPECI KSEA 181348Z 13006KT 4SM -RA BR SCT004 OVC022 04/03 A2992 RMK AO2 P0004=
202112181330 SPECI KSEA 181330Z 11008KT 2 1/2SM -RA BR FEW005 BKN022 OVC030 04/03 A2992 RMK AO2 P0002 T00390033=
202112181311 SPECI KSEA 181311Z 10009KT 3SM -RA BR FEW005 SCT017 OVC024 04/03 A2994 RMK AO2 P0000 T00390028=
202112181253 METAR KSEA 181253Z 10008KT 2SM -RA BR FEW005 BKN023 OVC032 03/03 A2996 RMK AO2 SLP153 P0006 T00330028=
202112181217 SPECI KSEA 181217Z 11008KT 2 1/2SM -RA BR SCT005 BKN019 OVC027 03/02 A2998 RMK AO2 P0002 T00330022=
202112181153 METAR KSEA 181153Z 13007KT 3SM -RA BR BKN021 BKN027 OVC038 03/02 A2999 RMK AO2 SLP166 P0008 60016 70031 T00280017 10028 20022 56036=
202112181131 SPECI KSEA 181131Z 14005KT 4SM -RA BR BKN020 OVC028 03/02 A3000 RMK AO2 P0004 T00280017=
202112181053 METAR KSEA 181053Z 14008KT 7SM -RA SCT025 BKN040 OVC050 03/01 A3003 RMK AO2 SLP178 P0003 T00280011=
202112181046 SPECI KSEA 181046Z 14007KT 7SM -RA SCT026 SCT031 OVC040 03/01 A3003 RMK AO2 P0003 T00280011=
202112181037 SPECI KSEA 181037Z 15006KT 7SM -RA BKN026 BKN031 OVC042 03/01 A3003 RMK AO2 P0002 T00280011=
202112180953 METAR KSEA 180953Z 12012KT 7SM -RA FEW035 BKN043 OVC055 03/01 A3005 RMK AO2 PRESFR SLP187 P0001 T00280011=
202112180853 METAR KSEA 180853Z 11012KT 8SM -RA FEW029 BKN037 OVC060 02/01 A3010 RMK AO2 SLP202 P0001 60004 T00220011 58029=
202112180834 SPECI KSEA 180834Z 12010G22KT 7SM -RA SCT026 BKN035 OVC050 03/01 A3012 RMK AO2 P0001 T00280011=
202112180753 METAR KSEA 180753Z 12009KT 7SM -RA SCT015 BKN027 OVC033 03/01 A3014 RMK AO2 SLP216 P0002 T00280011 400670017=
202112180744 SPECI KSEA 180744Z 12012KT 7SM -RA FEW015 BKN025 OVC033 03/01 A3015 RMK AO2 P0002 T00280011=
202112180726 SPECI KSEA 180726Z 12009KT 7SM -RA SCT025 BKN032 OVC045 03/01 A3015 RMK AO2 P0001 T00280011=
202112180653 METAR KSEA 180653Z 12008KT 7SM -RA BKN024 BKN034 OVC045 03/01 A3017 RMK AO2 SLP226 P0001 T00280011=
202112180553 METAR KSEA 180553Z 11010KT 10SM -RA OVC024 03/01 A3019 RMK AO2 RAB0454 SLP231 P0003 60015 T00280011 10061 20028 58018=
202112180457 SPECI KSEA 180457Z 11011KT 9SM -RA OVC020 03/01 A3020 RMK AO2 RAB54 P0000 T00280011=
202112180453 METAR KSEA 180453Z 11010KT 8SM OVC020 03/01 A3021 RMK AO2 SLP238 P0005 T00280011=
202112180353 METAR KSEA 180353Z 10012G17KT 5SM -RA BR OVC019 03/01 A3023 RMK AO2 SLP246 P0005 T00330011=
202112180253 METAR KSEA 180253Z 10007KT 9SM -RA BKN025 OVC032 04/01 A3024 RMK AO2 SLP250 P0002 60002 T00440006 58009=
202112180225 SPECI KSEA 180225Z 14007KT 7SM -RA OVC029 04/00 A3025 RMK AO2 P0002 T00440000=
202112180153 METAR KSEA 180153Z 19005KT 10SM -RA BKN033 OVC040 05/M01 A3025 RMK AO2 RAB50 SLP255 P0000 T00501011=
202112180053 METAR KSEA 180053Z 12010KT 10SM SCT039 OVC046 06/M02 A3026 RMK AO2 SLP256 T00561022=
202112172353 METAR KSEA 172353Z 11006KT 10SM BKN043 OVC140 06/M02 A3027 RMK AO2 SLP259 T00611017 10067 20033 56008=
202112172253 METAR KSEA 172253Z 14005KT 10SM FEW043 BKN140 BKN250 07/M01 A3027 RMK AO2 SLP261 ACSL DSNT SE T00671006=
202112172153 METAR KSEA 172153Z 16005KT 10SM FEW050 BKN150 BKN250 07/01 A3028 RMK AO2 SLP264 ACSL DSNT SE T00670006=
202112172053 METAR KSEA 172053Z 16006KT 10SM FEW050 BKN160 BKN250 06/01 A3029 RMK AO2 SLP268 T00610011 58011=
202112171953 METAR KSEA 171953Z 16006KT 10SM FEW025 SCT050 BKN120 BKN200 05/00 A3031 RMK AO2 SLP274 T00500000=
202112171853 METAR KSEA 171853Z 15006KT 10SM FEW025 SCT040 BKN100 BKN200 04/00 A3033 RMK AO2 SLP280 T00440000=
202112171753 METAR KSEA 171753Z 17005KT 10SM FEW025 SCT041 BKN100 BKN200 03/01 A3033 RMK AO2 SLP279 T00330006 10033 20022 53009=
202112171653 METAR KSEA 171653Z 18003KT 10SM FEW017 SCT038 BKN080 OVC180 03/00 A3031 RMK AO2 SLP275 T00280000=
202112171606 SPECI KSEA 171606Z 16006KT 10SM FEW017 SCT027 SCT036 03/01 A3030 RMK AO2 T00280006 $=
202112171553 METAR KSEA 171553Z 15007KT 10SM FEW010 BKN017 OVC030 03/01 A3030 RMK AO2 SLP269 T00280006 $=
202112171453 METAR KSEA 171453Z 16005KT 10SM SCT013 BKN029 BKN036 03/02 A3030 RMK AO2 SLP270 T00280017 53009 $=
202112171438 SPECI KSEA 171438Z 17003KT 10SM SCT011 BKN029 BKN034 03/02 A3031 RMK AO2 T00280017 $=
202112171353 METAR KSEA 171353Z 14009KT 7SM SCT001 SCT055 02/02 A3029 RMK AO2 SLP265 T00220017=
202112171333 SPECI KSEA 171333Z 14008KT 1SM R16L/P6000FT SCT001 SCT032 BKN055 02/02 A3028 RMK AO2 SFC VIS 8 T00220017=
202112171311 SPECI KSEA 171311Z 15009KT 1SM R16L/P6000FT BR BKN001 OVC055 02/02 A3028 RMK AO2 SFC VIS 3 T00220017=
202112171253 METAR KSEA 171253Z 13009KT 1/2SM R16L/2800V5000FT FG VV001 02/02 A3028 RMK AO2 TWR VIS 1 SLP263 T00220017=
202112171224 SPECI KSEA 171224Z 15007KT 1/2SM R16L/2600VP6000FT FG BKN001 OVC040 03/02 A3028 RMK AO2 TWR VIS 1 T00280022=
202112171153 METAR KSEA 171153Z 14004KT 1SM R16L/P6000FT BR SCT003 BKN050 03/02 A3027 RMK AO2 SFC VIS 4 SLP260 70005 T00280022 10050 20017 52020=
202112171138 SPECI KSEA 171138Z 14004KT 8SM SCT003 BKN050 03/02 A3027 RMK AO2 T00280022=
202112171053 METAR KSEA 171053Z 11004KT 10SM SCT050 03/02 A3025 RMK AO2 SLP253 T00280017=
202112170953 METAR KSEA 170953Z 12003KT 9SM BKN042 BKN055 03/02 A3023 RMK AO2 SLP248 T00280022=
202112170853 METAR KSEA 170853Z 11004KT 8SM OVC055 03/02 A3021 RMK AO2 SLP240 T00330022 51017=
202112170753 METAR KSEA 170753Z 05005KT 10SM OVC038 04/03 A3020 RMK AO2 SLP236 T00390028 400670022=
202112170653 METAR KSEA 170653Z 07004KT 10SM OVC037 04/02 A3018 RMK AO2 SLP229 T00440022=
202112170553 METAR KSEA 170553Z 01003KT 10SM OVC034 04/02 A3016 RMK AO2 SLP223 60005 T00390022 10056 20039 51027=
202112170453 METAR KSEA 170453Z 00000KT 10SM OVC050 04/02 A3014 RMK AO2 RAE26 SLP214 P0000 T00440022=
202112170426 SPECI KSEA 170426Z 07003KT 10SM FEW029 SCT035 OVC047 04/02 A3013 RMK AO2 RAE26 P0000 T00440022=
202112170353 METAR KSEA 170353Z 04004KT 10SM -RA BKN029 OVC044 04/02 A3012 RMK AO2 SLP208 P0001 T00440022=
202112170253 METAR KSEA 170253Z 03008KT 10SM -RA FEW006 OVC030 04/03 A3008 RMK AO2 RAB07 SLP195 P0002 60004 T00440028 53020=
202112170200 SPECI KSEA 170200Z 02008KT 8SM SCT005 OVC033 05/03 A3006 RMK AO2 T00500033=
202112170153 METAR KSEA 170153Z 03005KT 10SM FEW012 OVC035 05/03 A3006 RMK AO2 RAE49 SLP187 P0002 T00500033=
202112170053 METAR KSEA 170053Z 00000KT 6SM -RA BR OVC031 05/03 A3004 RMK AO2 RAB51 SLP181 P0000 T00500028=
202112162353 METAR KSEA 162353Z 00000KT 10SM FEW030 OVC038 06/02 A3002 RMK AO2 SLP175 T00560022 10067 20044 53017=
202112162253 METAR KSEA 162253Z 23005KT 10SM FEW015 BKN030 BKN090 05/03 A3000 RMK AO2 SLP166 T00500028=
202112162221 SPECI KSEA 162221Z 22009KT 10SM FEW015 BKN030 BKN090 06/03 A2998 RMK AO2 T00560028=
202112162153 METAR KSEA 162153Z 25008KT 10SM BKN028 06/03 A2998 RMK AO2 SLP162 T00560028=
202112162110 SPECI KSEA 162110Z 23009KT 10SM SCT013 BKN020 OVC024 06/03 A2997 RMK AO2 T00560028=
202112162053 METAR KSEA 162053Z 23008KT 10SM SCT010 BKN014 BKN095 06/03 A2997 RMK AO2 SLP158 T00610033 51003=
202112161953 METAR KSEA 161953Z 20007KT 10SM SCT010 OVC016 05/03 A2996 RMK AO2 SLP156 T00500033 $=
202112161948 SPECI KSEA 161948Z 19005KT 10SM SCT010 OVC016 05/03 A2996 RMK AO2 $=
202112161918 SPECI KSEA 161918Z 21004KT 10SM SCT008 OVC014 04/03 A2996 RMK AO2 T00440028=
202112161853 METAR KSEA 161853Z 21005KT 10SM BKN008 OVC020 04/03 A2996 RMK AO2 SLP154 T00440028 $=
202112161753 METAR KSEA 161753Z 20004KT 10SM BKN009 OVC020 04/03 A2995 RMK AO2 SLP152 60000 T00440028 10044 20028 53018 $=
202112161700 SPECI KSEA 161700Z 20005KT 10SM BKN009 OVC020 04/02 A2993 RMK AO2 T00390022 $=
202112161653 METAR KSEA 161653Z 17003KT 10SM BKN011 OVC025 03/02 A2993 RMK AO2 RAE46 SLP144 P0000 T00330022 $=
202112161553 METAR KSEA 161553Z 19006KT 10SM -RA BKN012 OVC025 03/02 A2990 RMK AO2 RAB52 SLP136 P0000 T00330017=
202112161453 METAR KSEA 161453Z 13006KT 10SM BKN012 OVC026 03/02 A2990 RMK AO2 SLP134 T00280017 53015=
202112161353 METAR KSEA 161353Z 14004KT 10SM BKN015 OVC025 03/01 A2989 RMK AO2 SLP129 T00330006=
202112161253 METAR KSEA 161253Z 16005KT 10SM OVC024 03/00 A2986 RMK AO2 SLP122 T00330000=
202112161243 SPECI KSEA 161243Z 15004KT 10SM OVC025 03/M01 A2986 RMK AO2 T00331006=
202112161153 METAR KSEA 161153Z 17004KT 10SM OVC030 03/01 A2985 RMK AO2 SLP118 60003 70008 T00280006 10044 20022 51017=
202112161053 METAR KSEA 161053Z 00000KT 10SM OVC032 03/00 A2984 RMK AO2 SLP114 T00280000=
202112160953 METAR KSEA 160953Z 02003KT 10SM OVC030 03/M01 A2982 RMK AO2 SLP108 T00281006=
202112160853 METAR KSEA 160853Z 14003KT 10SM BKN033 BKN040 BKN110 03/M02 A2980 RMK AO2 SLP101 60003 T00281017 51010=
202112160753 METAR KSEA 160753Z 00000KT 10SM FEW028 BKN041 OVC080 03/M01 A2980 RMK AO2 RAE15 SLP101 P0001 T00281006 400560022=
202112160717 SPECI KSEA 160717Z 07008KT 10SM FEW026 OVC036 03/00 A2980 RMK AO2 RAE15 P0001 T00330000=
202112160653 METAR KSEA 160653Z 09008KT 8SM -RA OVC023 03/00 A2979 RMK AO2 RAB11 SLP098 P0002 T00330000=
202112160553 METAR KSEA 160553Z 12006KT 10SM BKN028 OVC034 04/M02 A2977 RMK AO2 SLP091 60001 T00391017 10056 20039 53022=
202112160453 METAR KSEA 160453Z 12011KT 10SM OVC034 04/M02 A2974 RMK AO2 SLP081 T00441017=
202112160353 METAR KSEA 160353Z 12010KT 10SM OVC034 04/M01 A2972 RMK AO2 RAE28 SLP073 P0001 T00391006=
202112160253 METAR KSEA 160253Z 12010G21KT 10SM -RA OVC030 04/00 A2971 RMK AO2 RAB38 SLP069 P0000 60000 T00440000 53009=
202112160153 METAR KSEA 160153Z 12012KT 10SM OVC047 05/M02 A2968 RMK AO2 SLP061 T00501022=
202112160053 METAR KSEA 160053Z 11012KT 10SM OVC049 05/M01 A2968 RMK AO2 RAE31 SLP058 P0000 T00501011=
202112160018 SPECI KSEA 160018Z 08010KT 10SM -RA OVC031 05/M01 A2968 RMK AO2 P0000 T00501006=
202112152353 METAR KSEA 152353Z 09010KT 10SM -RA OVC028 05/M01 A2968 RMK AO2 SLP059 P0000 60004 T00501006 10056 20039 56008=
202112152253 METAR KSEA 152253Z 09012G19KT 8SM -RA OVC023 04/00 A2969 RMK AO2 SLP062 P0003 T00440000=
202112152153 METAR KSEA 152153Z 10009KT 7SM -RA BKN027 OVC038 04/M01 A2969 RMK AO2 SLP063 P0001 T00441006=
202112152116 SPECI KSEA 152116Z 09009KT 10SM -RA BKN029 OVC038 05/M01 A2970 RMK AO2 P0000 T00501006=
202112152053 METAR KSEA 152053Z 14006KT 10SM -RA BKN035 BKN041 OVC049 06/M02 A2970 RMK AO2 SLP068 P0000 60000 T00561017 56016=
202112151953 METAR KSEA 151953Z 08006KT 10SM -RA FEW042 BKN049 OVC060 06/M02 A2971 RMK AO2 RAB47 SLP068 P0000 T00561022=
202112151853 METAR KSEA 151853Z 13008KT 10SM FEW042 BKN049 OVC065 06/M03 A2973 RMK AO2 SLP076 T00561028=
202112151753 METAR KSEA 151753Z 11008KT 10SM OVC060 05/M02 A2975 RMK AO2 SLP084 T00501022 10050 20022 56004=
202112151653 METAR KSEA 151653Z 11008KT 10SM OVC055 04/M02 A2976 RMK AO2 SLP086 T00441022=
202112151553 METAR KSEA 151553Z 11008KT 10SM BKN065 OVC080 04/M02 A2976 RMK AO2 SLP086 T00391017=
202112151453 METAR KSEA 151453Z 10011KT 10SM OVC055 03/M02 A2976 RMK AO2 SLP088 T00331017 56007=
202112151353 METAR KSEA 151353Z 10010KT 10SM OVC070 03/M02 A2977 RMK AO2 SLP090 T00331017=
202112151253 METAR KSEA 151253Z 12005KT 10SM FEW070 BKN080 OVC095 03/M01 A2977 RMK AO2 SLP091 T00281011=
202112151153 METAR KSEA 151153Z 13006KT 10SM BKN095 OVC110 03/M01 A2979 RMK AO2 SLP095 70014 T00281006 10039 20022 58006=
202112151053 METAR KSEA 151053Z 15006KT 10SM BKN070 OVC090 02/M01 A2980 RMK AO2 SLP100 T00221006=
202112150953 METAR KSEA 150953Z 15004KT 10SM SCT045 OVC060 03/M01 A2980 RMK AO2 SLP100 T00281006=
202112150853 METAR KSEA 150853Z 14008KT 10SM BKN047 OVC055 03/M01 A2980 RMK AO2 SLP102 T00331006 58004=
202112150753 METAR KSEA 150753Z 16007KT 10SM BKN046 OVC070 04/M01 A2981 RMK AO2 SLP105 T00391011 400440006=
202112150653 METAR KSEA 150653Z 17007KT 10SM SCT041 BKN049 BKN090 03/M01 A2981 RMK AO2 SLP104 T00281006=
202112150553 METAR KSEA 150553Z 17008KT 10SM SCT037 OVC046 04/00 A2982 RMK AO2 SLP106 60007 T00390000 10039 20028 50001=
202112150453 METAR KSEA 150453Z 17006KT 10SM OVC036 03/01 A2982 RMK AO2 SLP107 T00330006=
202112150353 METAR KSEA 150353Z 15008KT 10SM SCT034 BKN040 OVC060 03/01 A2982 RMK AO2 RAE0254 SLP106 P0000 T00330011=
202112150343 SPECI KSEA 150343Z 15009KT 10SM FEW026 BKN038 OVC060 03/01 A2982 RMK AO2 RAE0254 P0000 T00280011=
202112150253 METAR KSEA 150253Z 14009KT 10SM -RA OVC026 03/01 A2981 RMK AO2 SLP106 P0003 60007 T00280011 50003=
202112150203 SPECI KSEA 150203Z 16008KT 8SM -RA OVC013 03/01 A2982 RMK AO2 P0002 T00280011=
202112150153 METAR KSEA 150153Z 17009KT 7SM -RA BKN015 OVC021 03/01 A2981 RMK AO2 SLP106 P0002 T00280011=
202112150053 METAR KSEA 150053Z 16010KT 10SM -RA FEW015 BKN029 OVC036 03/01 A2981 RMK AO2 SLP106 P0002 T00280011=
202112142353 METAR KSEA 142353Z 16011KT 5SM -RA BR SCT012 OVC021 03/01 A2981 RMK AO2 SLP103 P0002 60007 T00280011 10044 20028 53006=
202112142306 SPECI KSEA 142306Z 14011KT 10SM -RA FEW015 SCT026 OVC055 03/01 A2980 RMK AO2 P0000 T00280011=
202112142253 METAR KSEA 142253Z 16008KT 10SM -RA FEW012 BKN024 OVC050 03/01 A2980 RMK AO2 SLP100 P0004 T00280011=
202112142222 SPECI KSEA 142222Z 17009KT 4SM -RA BR BKN013 OVC021 03/01 A2980 RMK AO2 P0003 T00280006=
202112142153 METAR KSEA 142153Z 20011KT 6SM -RA BKN018 OVC024 03/01 A2979 RMK AO2 RAB19 SLP097 P0001 T00330006=
202112142133 SPECI KSEA 142133Z 18007G17KT 7SM -RA BKN022 OVC030 04/00 A2979 RMK AO2 RAB19 P0000 T00390000=
202112142053 METAR KSEA 142053Z 16007KT 10SM OVC044 04/M01 A2979 RMK AO2 RAE08 SLP096 P0000 60000 T00391006 58003=
202112141953 METAR KSEA 141953Z 20009KT 10SM -RA SCT023 BKN035 OVC050 04/M01 A2980 RMK AO2 RAB26 SLP100 P0000 T00391006=
202112141947 SPECI KSEA 141947Z 20008KT 10SM -RA SCT023 OVC037 04/M01 A2980 RMK AO2 RAB26 P0000=
202112141928 SPECI KSEA 141928Z 19011KT 10SM -RA SCT023 BKN028 OVC033 03/M01 A2980 RMK AO2 RAB26 P0000 T00331006=
202112141853 METAR KSEA 141853Z 19012G17KT 10SM FEW015 SCT047 BKN060 03/M01 A2980 RMK AO2 SLP099 T00331011=
202112141753 METAR KSEA 141753Z 18009KT 10SM FEW015 SCT039 BKN050 03/M01 A2979 RMK AO2 SLP097 T00281006 10028 20006 53022=
202112141653 METAR KSEA 141653Z 20008KT 10SM FEW018 BKN044 BKN055 03/M01 A2977 RMK AO2 SLP089 T00281006=
202112141553 METAR KSEA 141553Z 18010G17KT 10SM SCT017 BKN055 BKN170 02/M01 A2974 RMK AO2 SLP080 T00171011=
202112141453 METAR KSEA 141453Z 20005KT 10SM FEW025 SCT060 SCT170 01/M01 A2973 RMK AO2 SLP075 T00111011 53021=
202112141353 METAR KSEA 141353Z 17007KT 10SM FEW025 SCT038 02/M01 A2970 RMK AO2 SLP066 T00171006=
202112141253 METAR KSEA 141253Z 17011KT 10SM FEW025 SCT095 01/M01 A2968 RMK AO2 SLP058 T00111006=
202112141153 METAR KSEA 141153Z 17009KT 10SM FEW025 SCT095 01/M01 A2966 RMK AO2 SLP053 70005 T00111006 10044 20011 51023=
202112141053 METAR KSEA 141053Z 19011KT 10SM SCT015 BKN050 OVC070 03/01 A2965 RMK AO2 SLP048 T00280006=
202112141029 SPECI KSEA 141029Z 19008KT 10SM SCT013 OVC055 03/01 A2964 RMK AO2 T00280006=
202112140953 METAR KSEA 140953Z 20015KT 10SM BKN013 OVC032 03/01 A2962 RMK AO2 SLP039 T00330011=
202112140853 METAR KSEA 140853Z 20011KT 10SM FEW023 SCT130 03/01 A2959 RMK AO2 SLP029 T00330006 51023=
202112140753 METAR KSEA 140753Z 20010KT 10SM FEW023 03/01 A2957 RMK AO2 SLP023 T00330006 400560022=
202112140741 SPECI KSEA 140741Z 21013KT 10SM FEW023 04/01 A2957 RMK AO2 T00390006=
202112140653 METAR KSEA 140653Z 20011KT 10SM BKN019 OVC028 04/01 A2956 RMK AO2 SLP018 T00440011=
202112140553 METAR KSEA 140553Z 18011G20KT 10SM OVC028 04/02 A2952 RMK AO2 SLP006 60002 T00440017 10050 20039 53034=
202112140539 SPECI KSEA 140539Z 20012KT 10SM OVC028 05/01 A2952 RMK AO2 T00500011=
202112140453 METAR KSEA 140453Z 20012G18KT 10SM SCT029 BKN037 05/02 A2949 RMK AO2 SLP995 T00500017=
202112140444 SPECI KSEA 140444Z 19011G17KT 10SM SCT029 BKN039 05/02 A2948 RMK AO2 T00500022=
202112140419 SPECI KSEA 140419Z 19011G23KT 10SM FEW017 BKN025 BKN060 05/02 A2947 RMK AO2 T00500022=
202112140353 METAR KSEA 140353Z 20008KT 10SM SCT025 BKN060 04/03 A2946 RMK AO2 RAE0254 SLP983 P0000 T00440028=
202112140253 METAR KSEA 140253Z 18009KT 10SM -RA BKN030 BKN039 OVC055 04/03 A2942 RMK AO2 RAB01 SLP972 P0002 60002 T00440033 51025=
202112140153 METAR KSEA 140153Z 20006KT 10SM FEW009 BKN039 OVC047 05/04 A2940 RMK AO2 RAB16E45 SLP964 P0000 T00500039=
202112140125 SPECI KSEA 140125Z 19006KT 10SM -RA FEW008 SCT032 OVC041 05/03 A2939 RMK AO2 RAB16 P0000 T00500033=
202112140053 METAR KSEA 140053Z 18005KT 10SM FEW018 OVC042 04/03 A2938 RMK AO2 SLP958 T00440028=
202112132353 METAR KSEA 132353Z 03006KT 10SM FEW020 OVC048 05/02 A2935 RMK AO2 SLP947 60000 T00500017 10056 20039 55000=
202112132253 METAR KSEA 132253Z 03006KT 10SM FEW020 OVC050 05/03 A2933 RMK AO2 RAE17 SLP942 P0000 T00500033=
202112132153 METAR KSEA 132153Z 36006KT 7SM -RA FEW034 BKN043 OVC060 05/04 A2933 RMK AO2 SLP941 P0000 T00500039=
202112132053 METAR KSEA 132053Z 31005KT 10SM -RA OVC049 05/03 A2935 RMK AO2 RAB37 SLP947 P0000 60000 T00500033 58029=
202112131953 METAR KSEA 131953Z 34006KT 10SM FEW008 BKN065 OVC080 04/03 A2938 RMK AO2 SLP958 T00440033=
202112131904 SPECI KSEA 131904Z 35008KT 8SM FEW002 OVC090 04/03 A2941 RMK AO2 T00440028=
202112131853 METAR KSEA 131853Z 36007KT 10SM FEW020 OVC100 04/03 A2942 RMK AO2 SLP972 T00440028=
202112131753 METAR KSEA 131753Z 36004KT 10SM FEW020 BKN110 04/02 A2944 RMK AO2 SLP977 60003 T00390022 10044 20022 56020=
202112131653 METAR KSEA 131653Z 00000KT 10SM FEW008 SCT050 BKN140 04/02 A2946 RMK AO2 SLP984 T00440022=
202112131635 SPECI KSEA 131635Z 06004KT 10SM FEW008 BKN055 04/03 A2946 RMK AO2 T00440028=
202112131553 METAR KSEA 131553Z 32005KT 10SM FEW020 SCT055 02/01 A2945 RMK AO2 SLP982 T00220011=
202112131453 METAR KSEA 131453Z 06003KT 10SM BKN041 OVC050 03/02 A2950 RMK AO2 SLP997 60003 T00330022 51008=
202112131353 METAR KSEA 131353Z 22003KT 10SM FEW033 OVC041 04/02 A2949 RMK AO2 RAE09 SLP993 P0001 T00390022 $=
202112131253 METAR KSEA 131253Z 14006KT 6SM -RA BR SCT020 BKN030 OVC036 04/02 A2950 RMK AO2 SLP997 P0002 T00390022 $=
202112131222 SPECI KSEA 131222Z 12006KT 10SM -RA SCT025 BKN033 OVC045 04/02 A2948 RMK AO2 P0001 T00440017 $=
202112131153 METAR KSEA 131153Z 12006KT 9SM -RA BKN024 OVC035 04/02 A2947 RMK AO2 SLP989 P0006 60010 70022 T00390017 10044 20033 56010 $=
202112131122 SPECI KSEA 131122Z 15005KT 7SM -RA BKN026 OVC034 04/02 A2948 RMK AO2 P0003 T00390017 $=
202112131053 METAR KSEA 131053Z 18007KT 10SM -RA FEW033 BKN046 OVC055 04/01 A2949 RMK AO2 RAB50 SLP993 P0000 T00390011 $=
202112130953 METAR KSEA 130953Z 09009KT 10SM BKN049 OVC060 04/01 A2947 RMK AO2 RAE50 SLP986 P0000 T00390006 $=
202112130853 METAR KSEA 130853Z 07008KT 10SM -RA SCT035 BKN044 OVC055 04/01 A2950 RMK AO2 SLP000 P0003 60004 T00390011 58023 $=
202112130831 SPECI KSEA 130831Z 09010KT 9SM -RA SCT020 BKN033 OVC055 03/01 A2952 RMK AO2 P0003 T00330011 $=
202112130753 METAR KSEA 130753Z 13010KT 7SM -RA FEW018 BKN025 OVC035 04/01 A2955 RMK AO2 RAB36 SLP017 P0001 T00390006 400500022 $=
202112130744 SPECI KSEA 130744Z 12010KT 7SM -RA BKN025 OVC036 03/01 A2956 RMK AO2 RAB36 P0001 T00330006 $=
202112130653 METAR KSEA 130653Z 10009KT 10SM OVC100 04/01 A2955 RMK AO2 SLP015 T00390006 $=
202112130553 METAR KSEA 130553Z 10008KT 10SM FEW050 BKN200 03/01 A2957 RMK AO2 SLP023 60008 T00330006 10044 20028 56014 $=
202112130453 METAR KSEA 130453Z 10007KT 10SM FEW050 BKN200 03/01 A2958 RMK AO2 SLP025 T00330006 $=
202112130353 METAR KSEA 130353Z 12006KT 10SM FEW045 BKN055 03/02 A2961 RMK AO2 RAE0258 SLP034 P0000 T00330017 $=
202112130253 METAR KSEA 130253Z 15003KT 10SM -RA SCT030 OVC042 03/02 A2961 RMK AO2 RAE13B47 SLP037 P0000 60008 T00330022 50001 $=
202112130227 SPECI KSEA 130227Z 22003KT 10SM SCT011 BKN034 OVC048 03/02 A2961 RMK AO2 RAE13 P0000 T00330017 $=
202112130153 METAR KSEA 130153Z 20007KT 5SM -RA BR OVC013 03/02 A2962 RMK AO2 SLP038 P0008 T00330017 $=
202112130112 SPECI KSEA 130112Z 17006KT 7SM -RA SCT019 OVC026 03/02 A2962 RMK AO2 P0001 T00330022 $=
202112130053 METAR KSEA 130053Z 16006KT 10SM -RA FEW019 BKN036 OVC070 03/02 A2961 RMK AO2 RAE12B50 SLP036 P0000 T00330022 $=
202112122353 METAR KSEA 122353Z 13009KT 6SM -RA BR OVC021 03/02 A2961 RMK AO2 SLP035 P0003 60004 T00330022 10050 20033 58006 $=
202112122253 METAR KSEA 122253Z 16011KT 6SM -RA BR OVC017 04/02 A2962 RMK AO2 RAB39 SLP037 P0000 T00390017 $=
202112122153 METAR KSEA 122153Z 15008KT 10SM BKN015 BKN022 OVC038 04/02 A2963 RMK AO2 RAB00E40 SLP041 P0001 T00440022 $=
202112122129 SPECI KSEA 122129Z 16013KT 5SM -RA BR SCT014 BKN020 OVC025 04/02 A2963 RMK AO2 RAB00 P0001 T00390017 $=
202112122053 METAR KSEA 122053Z 17009KT 10SM SCT028 BKN034 OVC055 04/01 A2963 RMK AO2 SLP041 T00440011 58002 $=
202112121953 METAR KSEA 121953Z 17013G20KT 10SM BKN020 OVC070 04/01 A2963 RMK AO2 PK WND 17027/1936 SLP044 T00440006 $=
202112121853 METAR KSEA 121853Z 17011KT 10SM FEW020 SCT031 BKN065 04/01 A2963 RMK AO2 SLP043 T00440006 $=
202112121753 METAR KSEA 121753Z 17012G19KT 10SM FEW020 BKN050 BKN120 04/01 A2963 RMK AO2 SLP043 T00440006 10044 20022 51024 $=
202112121653 METAR KSEA 121653Z 17009KT 10SM SCT020 BKN050 BKN100 03/00 A2961 RMK AO2 SLP037 T00280000 $=
202112121553 METAR KSEA 121553Z 20008KT 10SM SCT018 BKN050 BKN090 03/01 A2959 RMK AO2 SLP030 T00330006 $=
202112121453 METAR KSEA 121453Z 19012KT 10SM FEW010 BKN110 03/00 A2956 RMK AO2 SLP019 T00330000 53007 $=
202112121353 METAR KSEA 121353Z 17010KT 10SM BKN140 03/01 A2955 RMK AO2 SLP015 T00330006 $=
202112121253 METAR KSEA 121253Z 19015G22KT 10SM FEW023 SCT100 03/01 A2954 RMK AO2 SLP013 T00330006 $=
202112121237 SPECI KSEA 121237Z 19012G22KT 10SM FEW017 SCT023 SCT100 03/01 A2954 RMK AO2 T00330006 $=
202112121216 SPECI KSEA 121216Z 18013KT 10SM SCT018 BKN026 OVC110 03/01 A2954 RMK AO2 T00330011 $=
202112121153 METAR KSEA 121153Z 18015G20KT 10SM FEW020 BKN038 BKN050 03/01 A2954 RMK AO2 SLP012 60005 70031 T00330011 10050 20028 51012 $=
202112121053 METAR KSEA 121053Z 18015G23KT 10SM SCT023 03/01 A2953 RMK AO2 SLP009 T00330011 $=
202112121033 SPECI KSEA 121033Z 18012KT 10SM FEW014 SCT022 03/01 A2953 RMK AO2 T00330011 $=
202112121001 SPECI KSEA 121001Z 20011KT 10SM FEW009 SCT015 BKN022 03/02 A2952 RMK AO2 T00330017 $=
202112120953 METAR KSEA 120953Z 19012KT 10SM SCT012 BKN017 03/02 A2952 RMK AO2 SLP002 T00330017 $=
202112120904 SPECI KSEA 120904Z 20014KT 10SM FEW007 BKN011 OVC015 03/02 A2950 RMK AO2 T00330022 $=
202112120853 METAR KSEA 120853Z 20012KT 10SM SCT010 BKN019 OVC085 03/02 A2950 RMK AO2 PK WND 21029/0802 RAE27 SLP999 P0004 60005 T00330022 53001 $=
202112120844 SPECI KSEA 120844Z 20014KT 10SM SCT010 BKN018 OVC085 03/02 A2950 RMK AO2 PK WND 21029/0802 RAE27 P0004 T00330022 $=
202112120836 SPECI KSEA 120836Z 20012G21KT 10SM SCT010 BKN035 OVC085 03/02 A2950 RMK AO2 PK WND 21029/0802 RAE27 P0004 T00330022 $=
202112120801 SPECI KSEA 120801Z 21021G29KT 5SM RA BR BKN013 BKN018 OVC028 04/02 A2950 RMK AO2 PK WND 21029/0800 P0002 T00390017 $=
202112120753 METAR KSEA 120753Z 21015G28KT 7SM -RA SCT017 OVC033 04/02 A2949 RMK AO2 PK WND 20029/0738 RAB48 PRESRR SLP994 P0001 T00390017 400890033=
202112120653 METAR KSEA 120653Z 15010KT 10SM FEW090 03/02 A2948 RMK AO2 SLP989 T00330017=
202112120553 METAR KSEA 120553Z 16010KT 10SM SCT037 04/02 A2950 RMK AO2 SLP998 T00390017 10056 20039 58010=
202112120453 METAR KSEA 120453Z 16012KT 10SM SCT025 SCT045 04/02 A2952 RMK AO2 SLP005 T00390022=
202112120353 METAR KSEA 120353Z 18011KT 10SM SCT024 BKN090 BKN250 04/02 A2953 RMK AO2 SLP008 T00440022=
202112120253 METAR KSEA 120253Z 20014KT 10SM SCT022 OVC100 05/02 A2953 RMK AO2 SLP008 T00500022 53003=
202112120239 SPECI KSEA 120239Z 19012KT 10SM SCT022 BKN095 BKN120 05/02 A2953 RMK AO2 T00500022=
202112120200 SPECI KSEA 120200Z 20014KT 10SM SCT021 BKN026 BKN090 06/02 A2952 RMK AO2 T00560022=
202112120153 METAR KSEA 120153Z 20012KT 10SM SCT023 BKN030 BKN090 06/02 A2952 RMK AO2 SLP004 T00560022=
202112120053 METAR KSEA 120053Z 20013G24KT 10SM OVC080 06/03 A2951 RMK AO2 PK WND 23030/0004 SLP999 T00560028=
202112112353 METAR KSEA 112353Z 23013G25KT 10SM SCT015 BKN047 BKN065 05/03 A2952 RMK AO2 PK WND 25035/2258 RAE16B38E50 SLP005 P0002 60012 T00500028 10089 20050 53006=
202112112329 SPECI KSEA 112329Z 24012G22KT 10SM FEW012 SCT017 OVC044 06/04 A2951 RMK AO2 PK WND 25035/2258 RAE16 P0002 T00610039=
202112112312 SPECI KSEA 112312Z 23018G26KT 9SM -RA BKN014 BKN027 OVC032 06/04 A2951 RMK AO2 PK WND 25035/2258 LTG DSNT NE P0002 T00610039=
202112112300 SPECI KSEA 112300Z 24023G35KT 3SM -RA BR FEW015 BKN030 OVC036 06/04 A2950 RMK AO2 PK WND 25035/2258 P0001 T00610039=
202112112253 METAR KSEA 112253Z 23018G35KT 1 1/2SM R16L/5500VP6000FT -RA BR FEW021 BKN028 OVC036 06/04 A2949 RMK AO2 PK WND 25035/2248 RAB46PLB50E51 SLP995 P0003 T00610039=
202112112250 SPECI KSEA 112250Z 24021G35KT 1 1/2SM R16L/5500VP6000FT -RAPL FEW021 BKN028 OVC036 06/03 A2950 RMK AO2 PK WND 25035/2248 RAB46PLB50 P0003=
202112112247 SPECI KSEA 112247Z 25021G33KT 2SM R16L/5500VP6000FT -RA FEW019 BKN026 OVC037 08/04 A2950 RMK AO2 PK WND 25033/2246 RAB46 P0000=
202112112210 SPECI KSEA 112210Z 21015G20KT 10SM SCT022 BKN030 09/06 A2949 RMK AO2 T00890056=
202112112153 METAR KSEA 112153Z 20013G19KT 10SM FEW017 BKN023 BKN030 08/06 A2949 RMK AO2 SLP992 T00830056=
202112112053 METAR KSEA 112053Z 20014G23KT 10SM BKN017 BKN026 OVC037 08/06 A2951 RMK AO2 RAE10 SLP999 P0000 60007 T00780056 56009=
202112112049 SPECI KSEA 112049Z 20011G23KT 10SM BKN017 BKN026 OVC037 08/06 A2951 RMK AO2 RAE10 P0000=
202112111953 METAR KSEA 111953Z 21011KT 9SM -RA FEW007 BKN042 BKN049 07/05 A2953 RMK AO2 RAB1854E09B19 SLP006 P0003 T00670050=
202112111915 SPECI KSEA 111915Z 24011G24KT 10SM FEW007 OVC038 07/04 A2953 RMK AO2 RAB1854E09 P0001 T00670044=
202112111853 METAR KSEA 111853Z 23013G24KT 9SM SCT008 BKN022 OVC036 07/06 A2953 RMK AO2 PK WND 20026/1835 RAE45 SLP008 P0004 T00720056=
202112111753 METAR KSEA 111753Z 20017G27KT 9SM -RA FEW009 BKN022 OVC060 07/06 A2951 RMK AO2 PK WND 19029/1729 RAB1659E29B47 SLP001 P0001 60014 T00720061 10072 20061 51019=
202112111705 SPECI KSEA 111705Z 21021G29KT 9SM -RA SCT008 BKN049 OVC070 07/06 A2949 RMK AO2 PK WND 20029/1704 RAB1659 P0000 T00720061=
202112111653 METAR KSEA 111653Z 20020G31KT 10SM BKN008 BKN021 OVC047 07/06 A2950 RMK AO2 PK WND 18037/1641 RAE31 SLP997 P0002 T00720061=
202112111619 SPECI KSEA 111619Z 20019G26KT 6SM -RA BR BKN008 BKN013 OVC023 07/06 A2949 RMK AO2 PK WND 21031/1557 P0001 T00720061=
202112111606 SPECI KSEA 111606Z 20019G31KT 6SM -RA BR SCT008 BKN013 OVC027 07/06 A2948 RMK AO2 PK WND 21031/1557 P0000 T00720056=
202112111553 METAR KSEA 111553Z 20022G33KT 4SM -RA BR FEW015 SCT020 OVC029 07/06 A2947 RMK AO2 PK WND 20036/1542 RAE13B38 SLP988 P0003 T00720056=
202112111537 SPECI KSEA 111537Z 20025G35KT 8SM BKN018 BKN023 OVC037 07/05 A2945 RMK AO2 PK WND 20035/1537 RAE13 P0002 T00720050=
202112111453 METAR KSEA 111453Z 20018G35KT 9SM -RA SCT021 OVC032 07/05 A2945 RMK AO2 PK WND 19037/1407 SLP981 P0002 60008 T00720050 56028=
202112111353 METAR KSEA 111353Z 19020G28KT 10SM -RA SCT040 BKN050 OVC060 07/04 A2947 RMK AO2 PK WND 18030/1254 SLP986 P0003 T00720044=
202112111253 METAR KSEA 111253Z 18016G28KT 10SM -RA FEW035 BKN055 OVC070 06/04 A2949 RMK AO2 PK WND 17033/1206 SLP994 P0003 T00610039=
202112111153 METAR KSEA 111153Z 18019G30KT 8SM -RA FEW015 BKN050 OVC060 06/04 A2954 RMK AO2 PK WND 19038/1100 SLP010 P0003 60030 70035 T00610039 10072 20056 58051=
202112111100 SPECI KSEA 111100Z 18025G38KT 7SM -RA FEW016 SCT025 OVC037 06/04 A2958 RMK AO2 PK WND 19038/1100 PRESFR P0001 T00610039=
202112111053 METAR KSEA 111053Z 18021G33KT 8SM -RA FEW016 BKN026 OVC031 06/04 A2960 RMK AO2 PK WND 19038/1032 PRESFR SLP029 P0007 T00610039=
202112110953 METAR KSEA 110953Z 19020G32KT 6SM -RA BR BKN015 BKN021 OVC027 06/04 A2966 RMK AO2 PK WND 22032/0950 SLP051 P0008 T00610044=
202112110853 METAR KSEA 110853Z 20022G32KT 9SM -RA SCT014 BKN019 OVC027 07/04 A2969 RMK AO2 PK WND 20032/0850 SLP062 P0003 60012 T00670044 58028=
202112110753 METAR KSEA 110753Z 20015G23KT 7SM -RA SCT017 BKN024 OVC029 07/05 A2972 RMK AO2 SLP072 P0006 T00670050 400780039=
202112110653 METAR KSEA 110653Z 20012G21KT 7SM -RA BKN025 OVC033 07/04 A2975 RMK AO2 SLP082 P0003 T00720044=
202112110600 SPECI KSEA 110600Z 18017G24KT 7SM -RA OVC027 07/03 A2977 RMK AO2 P0000 T00720033=
202112110553 METAR KSEA 110553Z 18016G25KT 7SM -RA OVC030 07/03 A2978 RMK AO2 PK WND 17031/0502 RAB44 SLP091 P0000 60002 T00720033 10078 20061 58017=
202112110536 SPECI KSEA 110536Z 18016G22KT 10SM OVC030 08/03 A2978 RMK AO2 PK WND 17031/0502 T00780028=
202112110453 METAR KSEA 110453Z 19016G26KT 10SM OVC029 07/03 A2979 RMK AO2 PK WND 19029/0422 RAB02E45 SLP096 P0001 T00720028=
202112110353 METAR KSEA 110353Z 18014G27KT 10SM OVC029 07/03 A2983 RMK AO2 PK WND 18027/0349 RAE50 SLP108 P0001 T00720028=
202112110351 SPECI KSEA 110351Z 18015G27KT 10SM OVC029 07/02 A2983 RMK AO2 PK WND 18027/0349 RAE50 P0001=
202112110253 METAR KSEA 110253Z 18013G25KT 10SM -RA SCT034 OVC042 07/03 A2987 RMK AO2 PK WND 18030/0155 RAB51 SLP123 P0000 60000 T00670028 58036=
202112110153 METAR KSEA 110153Z 18014G25KT 10SM SCT028 BKN100 OVC200 07/02 A2991 RMK AO2 RAB03E15 SLP136 P0000 T00670022=
202112110111 SPECI KSEA 110111Z 18014G22KT 10SM -RA SCT027 BKN037 OVC045 06/03 A2993 RMK AO2 RAB03 P0000 T00610028=
202112110053 METAR KSEA 110053Z 17011KT 10SM BKN027 BKN042 OVC050 06/03 A2995 RMK AO2 RAE50 SLP150 P0000 T00610028=
202112102353 METAR KSEA 102353Z 18012KT 6SM -RA BKN020 OVC026 06/03 A2998 RMK AO2 SLP160 P0002 60003 T00610028 10061 20044 56029=
202112102253 METAR KSEA 102253Z 18011KT 6SM -RA BKN029 BKN044 OVC100 06/02 A3001 RMK AO2 RAB42 SLP172 P0001 T00610022=
202112102237 SPECI KSEA 102237Z 18012KT 10SM SCT027 BKN070 OVC100 06/02 A3001 RMK AO2 T00610022=
202112102153 METAR KSEA 102153Z 15011KT 10SM BKN028 OVC035 06/03 A3002 RMK AO2 SLP176 T00560028=
202112102134 SPECI KSEA 102134Z 14010KT 10SM BKN027 OVC034 06/03 A3004 RMK AO2 T00560028=
202112102110 SPECI KSEA 102110Z 17011KT 10SM FEW027 OVC036 06/02 A3006 RMK AO2 T00560022=
202112102053 METAR KSEA 102053Z 18011KT 10SM FEW018 OVC027 06/02 A3006 RMK AO2 SLP190 60000 T00560022 58006=
202112101953 METAR KSEA 101953Z 18011KT 10SM BKN026 OVC039 05/02 A3008 RMK AO2 RAB16E38 SLP195 P0000 T00500022=
202112101942 SPECI KSEA 101942Z 18010KT 10SM FEW027 BKN033 OVC041 05/02 A3008 RMK AO2 RAB16E38 P0000 T00500022=
202112101853 METAR KSEA 101853Z 19012KT 10SM BKN016 OVC021 06/02 A3009 RMK AO2 SLP199 T00560022=
202112101753 METAR KSEA 101753Z 19010KT 10SM OVC015 04/02 A3008 RMK AO2 SLP196 T00440017 10044 20039 51005=
202112101653 METAR KSEA 101653Z 18008KT 10SM OVC018 04/02 A3008 RMK AO2 SLP195 T00440017=
202112101553 METAR KSEA 101553Z 19008KT 10SM BKN017 OVC023 04/02 A3008 RMK AO2 SLP196 T00390017=
202112101526 SPECI KSEA 101526Z 18008KT 10SM BKN015 OVC021 04/02 A3008 RMK AO2 T00390017=
202112101453 METAR KSEA 101453Z 17009KT 10SM OVC013 04/02 A3007 RMK AO2 SLP191 T00390017 50004=
202112101448 SPECI KSEA 101448Z 18008KT 10SM OVC013 04/02 A3007 RMK AO2=
202112101353 METAR KSEA 101353Z 17005KT 10SM FEW010 BKN015 OVC024 04/02 A3007 RMK AO2 SLP191 T00390017=
202112101325 SPECI KSEA 101325Z 22007KT 10SM OVC016 04/02 A3006 RMK AO2 CIG 013V019 T00390022=
202112101253 METAR KSEA 101253Z 21009KT 10SM BKN013 OVC022 04/02 A3005 RMK AO2 SLP187 CIG 010V016 T00390022=
202112101200 SPECI KSEA 101200Z 19008KT 10SM BKN010 OVC015 04/02 A3002 RMK AO2 T00390017=
202112101153 METAR KSEA 101153Z 20008KT 10SM SCT010 OVC015 04/02 A3002 RMK AO2 SLP176 T00390017 10044 20028 51007=
202112101113 SPECI KSEA 101113Z 20007KT 10SM FEW010 BKN015 OVC021 04/02 A3002 RMK AO2 T00390017=
202112101053 METAR KSEA 101053Z 19011KT 10SM BKN013 OVC020 04/02 A3001 RMK AO2 SLP172 T00390017=
202112100953 METAR KSEA 100953Z 20008KT 10SM BKN010 OVC015 04/02 A3002 RMK AO2 SLP175 T00390022=
202112100853 METAR KSEA 100853Z 20011KT 10SM BKN012 OVC020 04/02 A3000 RMK AO2 SLP169 T00390017 51005=
202112100815 SPECI KSEA 100815Z 20007KT 10SM OVC013 04/02 A3000 RMK AO2 CIG 011V015 T00390017=
202112100753 METAR KSEA 100753Z 21010KT 10SM OVC016 04/02 A3000 RMK AO2 SLP169 CIG 014V018 T00390017 400610022=
202112100701 SPECI KSEA 100701Z 19008KT 10SM BKN019 BKN100 04/02 A3000 RMK AO2 T00390017=
202112100653 METAR KSEA 100653Z 19010KT 10SM SCT019 BKN100 04/01 A2999 RMK AO2 SLP166 T00390011=
202112100553 METAR KSEA 100553Z 15006KT 10SM SCT095 BKN110 03/01 A2999 RMK AO2 SLP164 T00280011 10056 20022 51011=
202112100453 METAR KSEA 100453Z 15006KT 10SM SCT110 03/01 A2999 RMK AO2 SLP164 T00280006=
202112100353 METAR KSEA 100353Z 15007KT 10SM SCT120 03/01 A2997 RMK AO2 SLP158 T00280006=
202112100253 METAR KSEA 100253Z 18004KT 10SM SCT150 03/01 A2996 RMK AO2 SLP153 T00330006 53018=
202112100153 METAR KSEA 100153Z 19005KT 10SM SCT041 04/01 A2994 RMK AO2 SLP147 T00390006=
202112100053 METAR KSEA 100053Z 22008KT 10SM BKN032 BKN045 05/01 A2992 RMK AO2 SLP140 T00500011=
202112092353 METAR KSEA 092353Z 22007KT 10SM FEW020 BKN025 06/01 A2990 RMK AO2 SLP135 T00560011 10061 20039 53010=
202112092253 METAR KSEA 092253Z 20006KT 10SM BKN018 BKN026 06/02 A2989 RMK AO2 SLP130 T00560017=
202112092153 METAR KSEA 092153Z 21011KT 10SM BKN019 OVC027 05/02 A2987 RMK AO2 SLP125 T00500017=
202112092053 METAR KSEA 092053Z 22011KT 10SM BKN017 OVC022 05/02 A2987 RMK AO2 SLP125 T00500017 58004=
202112092033 SPECI KSEA 092033Z 23013KT 10SM OVC015 05/01 A2987 RMK AO2 T00500011=
202112091953 METAR KSEA 091953Z 23010KT 10SM OVC014 04/02 A2988 RMK AO2 SLP128 T00440017=
202112091853 METAR KSEA 091853Z 21010G19KT 10SM BKN010 OVC014 04/02 A2989 RMK AO2 SLP132 T00390017=
202112091753 METAR KSEA 091753Z 21015G22KT 10SM OVC010 04/02 A2989 RMK AO2 PK WND 22026/1742 SLP129 T00390017 10039 20033 52001=
202112091653 METAR KSEA 091653Z 20013KT 10SM BKN010 OVC016 04/02 A2988 RMK AO2 SLP129 T00390017=
202112091553 METAR KSEA 091553Z 20013G18KT 10SM BKN014 OVC080 04/01 A2988 RMK AO2 SLP129 T00390011=
202112091453 METAR KSEA 091453Z 20016KT 10SM OVC011 04/01 A2988 RMK AO2 SLP128 T00390011 56015=
202112091353 METAR KSEA 091353Z 19011KT 10SM OVC011 04/01 A2989 RMK AO2 SLP130 T00390011=
202112091253 METAR KSEA 091253Z 18008KT 10SM OVC011 03/01 A2992 RMK AO2 SLP140 T00330011=
202112091153 METAR KSEA 091153Z 19008KT 10SM OVC014 04/01 A2993 RMK AO2 SLP144 T00390011 10039 20033 58012=
202112091127 SPECI KSEA 091127Z 20008KT 10SM OVC014 04/02 A2994 RMK AO2 T00390017=
202112091053 METAR KSEA 091053Z 21008KT 10SM OVC016 03/01 A2995 RMK AO2 SLP150 T00330011=
202112090953 METAR KSEA 090953Z 19006KT 10SM OVC015 03/01 A2995 RMK AO2 SLP151 T00330011=
202112090923 SPECI KSEA 090923Z 19009KT 10SM OVC015 03/01 A2996 RMK AO2 T00330011=
202112090913 SPECI KSEA 090913Z 19007KT 10SM OVC013 03/01 A2996 RMK AO2 T00330011=
202112090853 METAR KSEA 090853Z 18007KT 10SM OVC017 03/01 A2996 RMK AO2 SLP155 T00330011 58005=
202112090753 METAR KSEA 090753Z 18008KT 10SM BKN018 03/01 A2998 RMK AO2 SLP160 T00330011 400940033=
202112090700 SPECI KSEA 090700Z 19009KT 10SM FEW013 SCT018 03/01 A2998 RMK AO2 T00330011=
202112090653 METAR KSEA 090653Z 21007KT 10SM BKN015 BKN085 03/01 A2998 RMK AO2 SLP161 T00330011=
202112090651 SPECI KSEA 090651Z 21009KT 10SM BKN015 BKN085 03/01 A2998 RMK AO2=
202112090609 SPECI KSEA 090609Z 21012KT 10SM OVC014 03/01 A2997 RMK AO2 T00330011=
202112090553 METAR KSEA 090553Z 20009KT 10SM BKN015 04/01 A2997 RMK AO2 SLP156 T00390011 10061 20039 58002=
202112090453 METAR KSEA 090453Z 18008KT 10SM BKN016 04/01 A2997 RMK AO2 SLP156 T00390011=
202112090353 METAR KSEA 090353Z 24008KT 10SM SCT018 04/02 A2997 RMK AO2 SLP158 T00440017=
202112090253 METAR KSEA 090253Z 21007KT 10SM SCT020 SCT090 05/01 A2997 RMK AO2 SLP157 T00500011 51004=
202112090153 METAR KSEA 090153Z 22006KT 10SM FEW034 SCT095 04/01 A2997 RMK AO2 SLP157 T00440006=
202112090053 METAR KSEA 090053Z 23008KT 10SM FEW034 BKN100 06/01 A2997 RMK AO2 SLP157 T00560006=
202112082353 METAR KSEA 082353Z 21011KT 10SM FEW033 SCT100 06/00 A2996 RMK AO2 SLP153 T00610000 10083 20056 53005=
202112082253 METAR KSEA 082253Z 22010KT 10SM R16L/4500VP6000FT FEW033 SCT095 08/01 A2995 RMK AO2 SLP149 T00780006=
202112082153 METAR KSEA 082153Z 23008KT 10SM SCT032 SCT100 07/01 A2995 RMK AO2 SLP149 T00720011=
202112082053 METAR KSEA 082053Z 22010KT 10SM FEW018 BKN030 BKN080 07/01 A2994 RMK AO2 SLP147 T00720011 51007=
202112081953 METAR KSEA 081953Z 23011KT 10SM SCT024 BKN046 BKN080 07/01 A2994 RMK AO2 SLP147 T00720011=
202112081917 SPECI KSEA 081917Z 22006KT 10SM SCT021 BKN030 BKN075 07/02 A2994 RMK AO2 T00720017=
202112081853 METAR KSEA 081853Z 21007KT 10SM BKN021 BKN080 06/02 A2994 RMK AO2 SLP147 T00610017=
202112081753 METAR KSEA 081753Z 23004KT 10SM BKN020 06/02 A2992 RMK AO2 SLP141 T00560017 10078 20056 53018=
202112081653 METAR KSEA 081653Z 21007KT 10SM BKN021 06/02 A2990 RMK AO2 SLP132 T00610022=
202112081553 METAR KSEA 081553Z VRB06KT 10SM BKN021 BKN026 BKN050 06/03 A2987 RMK AO2 SLP124 T00610028=
202112081547 SPECI KSEA 081547Z 25005KT 10SM BKN021 OVC026 06/03 A2987 RMK AO2=
202112081453 METAR KSEA 081453Z 22014G22KT 10SM SCT015 SCT021 07/04 A2983 RMK AO2 PK WND 21027/1410 SLP108 T00670039 53007=
202112081449 SPECI KSEA 081449Z 21016G22KT 10SM SCT013 SCT019 07/04 A2983 RMK AO2 PK WND 21027/1410=
202112081431 SPECI KSEA 081431Z 22007G14KT 10SM BKN013 07/05 A2982 RMK AO2 PK WND 21027/1410 T00720050=
202112081353 METAR KSEA 081353Z 22021G30KT 10SM BKN015 07/06 A2980 RMK AO2 PK WND 21031/1313 SLP099 T00720056=
202112081326 SPECI KSEA 081326Z 22016G29KT 10SM FEW009 OVC015 08/06 A2980 RMK AO2 PK WND 21031/1313 T00780056=
202112081253 METAR KSEA 081253Z 21017G30KT 10SM OVC014 08/06 A2980 RMK AO2 PK WND 21030/1246 SLP098 T00780056=
202112081212 SPECI KSEA 081212Z 21016G27KT 10SM BKN013 OVC020 08/06 A2980 RMK AO2 PK WND 20030/1154 T00780056=
202112081153 METAR KSEA 081153Z 20020G33KT 10SM OVC016 08/06 A2981 RMK AO2 PK WND 21034/1115 SLP100 60003 70009 T00780056 10094 20078 53001=
202112081053 METAR KSEA 081053Z 20020G28KT 10SM BKN017 OVC110 08/06 A2980 RMK AO2 PK WND 21031/1041 SLP100 T00780061=
202112081006 SPECI KSEA 081006Z 21015G28KT 10SM BKN017 OVC060 08/07 A2981 RMK AO2 PK WND 21028/0957 T00830067=
202112080953 METAR KSEA 080953Z 20017G29KT 10SM SCT016 OVC055 08/07 A2980 RMK AO2 PK WND 21029/0953 RAE08 SLP099 P0000 T00830067=
202112080932 SPECI KSEA 080932Z 21014G21KT 10SM FEW005 SCT011 OVC048 08/07 A2980 RMK AO2 PK WND 21026/0856 RAE08 P0000 T00830072=
202112080925 SPECI KSEA 080925Z 22015G23KT 9SM SCT005 BKN013 OVC050 08/07 A2981 RMK AO2 PK WND 21026/0856 RAE08 P0000 T00830072=
202112080853 METAR KSEA 080853Z 23017KT 4SM -RA BR BKN006 BKN010 OVC014 09/08 A2980 RMK AO2 PK WND 20029/0841 RAB01E12B33 SLP099 P0003 60003 T00890078 56016=
202112080847 SPECI KSEA 080847Z 21016G29KT 3SM -RA BR SCT006 BKN010 OVC014 09/08 A2980 RMK AO2 PK WND 20029/0841 RAB01E12B33 P0002=
202112080841 SPECI KSEA 080841Z 21017G29KT 2 1/2SM -RA BR FEW006 SCT010 OVC016 09/08 A2980 RMK AO2 PK WND 20029/0841 RAB01E12B33 P0000 T00890078=
202112080830 SPECI KSEA 080830Z 21011G20KT 5SM BR BKN014 OVC020 09/08 A2981 RMK AO2 RAB01E12 P0000 T00940078=
202112080753 METAR KSEA 080753Z 19010G19KT 7SM BKN024 BKN030 OVC034 09/07 A2981 RMK AO2 RAB06E15 SLP101 P0000 T00890072 400940061=
202112080712 SPECI KSEA 080712Z 20012G20KT 10SM -RA SCT009 BKN043 OVC075 09/07 A2983 RMK AO2 RAB06 P0000 T00890072=
202112080653 METAR KSEA 080653Z 20011KT 10SM BKN008 OVC043 09/08 A2984 RMK AO2 SLP111 T00890078=
202112080623 SPECI KSEA 080623Z 20009KT 10SM BKN008 BKN044 OVC055 09/08 A2984 RMK AO2 T00890083=
202112080617 SPECI KSEA 080617Z 20009KT 10SM BKN010 BKN044 OVC050 09/08 A2984 RMK AO2 T00890083=
202112080553 METAR KSEA 080553Z 21009KT 10SM SCT010 BKN015 OVC060 09/08 A2985 RMK AO2 SLP115 60002 T00940083 10094 20089 56012=
202112080518 SPECI KSEA 080518Z 20009KT 10SM FEW006 BKN015 OVC085 09/08 A2985 RMK AO2 T00940083=
202112080502 SPECI KSEA 080502Z 17008KT 7SM SCT004 BKN010 OVC060 09/08 A2985 RMK AO2 T00890083=
202112080453 METAR KSEA 080453Z 18007KT 2SM BR BKN004 BKN009 OVC060 09/08 A2986 RMK AO2 SFC VIS 6 RAE13 SLP119 P0002 T00890083=
202112080359 SPECI KSEA 080359Z 19006KT 2SM -RA BR OVC002 09/08 A2987 RMK AO2 SFC VIS 3 P0001 T00890083=
202112080353 METAR KSEA 080353Z 20006KT 3SM -RA BR OVC002 09/08 A2987 RMK AO2 RAB45 SLP124 P0000 T00890083=
202112080338 SPECI KSEA 080338Z 19006KT 7SM OVC004 09/08 A2987 RMK AO2 T00890083=
202112080253 METAR KSEA 080253Z 18004KT 10SM BKN007 OVC030 09/08 A2988 RMK AO2 SLP128 T00890083 56023=
202112080153 METAR KSEA 080153Z 17003KT 10SM FEW004 OVC035 09/08 A2991 RMK AO2 SLP135 T00890083=
202112080053 METAR KSEA 080053Z 16006KT 10SM FEW005 BKN048 BKN200 09/08 A2993 RMK AO2 SLP142 T00890078=
202112080002 SPECI KSEA 080002Z 18009KT 10SM SCT005 BKN050 BKN200 09/08 A2995 RMK AO2 T00890078=
202112072353 METAR KSEA 072353Z 18008KT 7SM BKN005 BKN050 BKN200 09/08 A2995 RMK AO2 SLP152 60004 T00890078 10089 20072 56018=
202112072340 SPECI KSEA 072340Z 19009KT 6SM BR BKN005 BKN020 09/08 A2996 RMK AO2 T00890078=
202112072253 METAR KSEA 072253Z 18009KT 2SM BR OVC004 09/08 A2997 RMK AO2 SFC VIS 4 RAB26E35 SLP158 P0000 T00890083=
202112072219 SPECI KSEA 072219Z 18007KT 2SM BR OVC005 09/08 A2999 RMK AO2 SFC VIS 5 T00890078=
202112072153 METAR KSEA 072153Z 19006KT 1 1/2SM BR BKN005 OVC031 09/08 A2999 RMK AO2 SFC VIS 3 RAB2058E15 SLP163 P0001 T00890083=
202112072127 SPECI KSEA 072127Z 15008KT 1 1/2SM BR BKN005 OVC028 09/08 A2999 RMK AO2 SFC VIS 2 RAB2058E15 P0001 T00890083=
202112072053 METAR KSEA 072053Z 21004KT 1SM R16L/P6000FT BR OVC005 08/08 A3001 RMK AO2 TWR VIS 1 1/2 RAB07E43 SLP170 P0003 60003 T00830078 55005=
202112071953 METAR KSEA 071953Z 14004KT 1 1/2SM BR BKN005 OVC010 08/07 A3001 RMK AO2 TWR VIS 3 SLP169 T00830072=
202112071944 SPECI KSEA 071944Z 15004KT 1 1/2SM BR BKN005 OVC010 08/07 A3001 RMK AO2 T00830072=
202112071915 SPECI KSEA 071915Z 13004KT 3SM BR SCT005 OVC010 08/07 A3001 RMK AO2 T00780067=
202112071900 SPECI KSEA 071900Z 15004KT 3SM SCT006 OVC009 08/07 A3002 RMK AO2 SFC VIS 10 T00780067=
202112071853 METAR KSEA 071853Z 15003KT 2SM BR BKN006 OVC010 08/07 A3002 RMK AO2 TWR VIS 3 SLP175 T00780072=
202112071828 SPECI KSEA 071828Z 00000KT 1 1/2SM BR OVC006 07/07 A3003 RMK AO2 TWR VIS 2 1/2 T00720072=
202112071753 METAR KSEA 071753Z 13005KT 1/2SM R16L/P6000FT BR OVC002 07/07 A3002 RMK AO2 SFC VIS 1 SLP175 T00720067 10072 20061 50003=
202112071700 SPECI KSEA 071700Z 00000KT 1/2SM R16L/P6000FT BR VV003 07/07 A3003 RMK AO2 SFC VIS 3/4 T00670067=
202112071653 METAR KSEA 071653Z 00000KT 1/4SM R16L/2800VP6000FT FG VV004 07/07 A3003 RMK AO2 SFC VIS 1/2 SLP176 T00670067=
202112071553 METAR KSEA 071553Z 14003KT 1/4SM R16L/2800VP6000FT FG VV002 07/07 A3002 RMK AO2 SLP174 T00670067=
202112071539 SPECI KSEA 071539Z 10003KT 1/4SM R16L/3000VP6000FT FG VV002 07/06 A3002 RMK AO2 TWR VIS 1/2 T00670061=
202112071453 METAR KSEA 071453Z 00000KT 1/4SM R16L/1800V2400FT FG VV001 07/07 A3001 RMK AO2 TWR VIS 1/2 SLP172 T00670067 50001=
202112071443 SPECI KSEA 071443Z 00000KT 1/4SM R16L/1600V2000FT FG VV001 07/06 A3002 RMK AO2 TWR VIS 1/2 T00670061=
202112071353 METAR KSEA 071353Z 33003KT 1/4SM R16L/2200V5500FT FG VV001 06/06 A3002 RMK AO2 TWR VIS 1/2 SLP173 T00610061=
202112071346 SPECI KSEA 071346Z 36003KT 1/4SM R16L/2800V5500FT FG VV001 07/06 A3002 RMK AO2 T00670061=
202112071322 SPECI KSEA 071322Z 01004KT 1/2SM R16L/2200V2400FT FG VV001 06/06 A3002 RMK AO2 T00610061=
202112071253 METAR KSEA 071253Z 35004KT 1/2SM R16L/1800V2000FT FG VV001 06/06 A3002 RMK AO2 SLP175 T00610061=
202112071234 SPECI KSEA 071234Z 34005KT 1/2SM R16L/1600V1800FT FG VV001 07/06 A3002 RMK AO2 T00670061=
202112071212 SPECI KSEA 071212Z 35004KT 1/2SM R16L/2000V4000FT FG VV001 07/06 A3002 RMK AO2 T00670061=
202112071153 METAR KSEA 071153Z 01005KT 1 1/2SM R16L/6000VP6000FT BR OVC002 07/06 A3001 RMK AO2 SLP171 60004 70011 T00670061 10067 20061 53004=
202112071140 SPECI KSEA 071140Z 01004KT 1 1/2SM BR OVC002 07/06 A3001 RMK AO2 T00670061=
202112071053 METAR KSEA 071053Z 00000KT 3SM BR OVC002 07/06 A3000 RMK AO2 SLP166 T00670061=
202112071042 SPECI KSEA 071042Z 14004KT 2SM BR OVC002 06/06 A2999 RMK AO2 T00610061=
202112071016 SPECI KSEA 071016Z 13004KT 1SM R16L/5500VP6000FT BR OVC001 06/06 A2997 RMK AO2 T00610061=
202112070953 METAR KSEA 070953Z 16007KT 1SM R16L/P6000FT BR OVC002 06/06 A2997 RMK AO2 RAE42 PRESFR SLP155 P0001 T00610056=
202112070853 METAR KSEA 070853Z 00000KT 1SM R16L/P6000FT -RA BR OVC002 06/06 A3000 RMK AO2 SLP166 P0000 60003 T00610061 50007=
202112070753 METAR KSEA 070753Z 34004KT 2SM -RA BR OVC002 06/06 A3002 RMK AO2 SLP172 P0001 T00610056 400720028=
202112070653 METAR KSEA 070653Z 32003KT 1SM R16L/P6000FT -RA BR OVC002 07/06 A3000 RMK AO2 SLP166 P0002 T00670061=
202112070553 METAR KSEA 070553Z 31005KT 3/4SM R16L/P6000FT -RA BR VV002 07/06 A2998 RMK AO2 DZE35RAB35 SLP159 P0002 60007 T00670061 10072 20061 53004=
202112070535 SPECI KSEA 070535Z 31003KT 1/2SM R16L/P6000FT -RA FG VV002 07/06 A2997 RMK AO2 DZE35RAB35 P0001 T00670061=
202112070453 METAR KSEA 070453Z 01003KT 1SM R16L/P6000FT -DZ BR BKN003 OVC010 07/06 A2996 RMK AO2 SLP154 P0002 T00670061=
202112070428 SPECI KSEA 070428Z 00000KT 1 1/2SM -DZ BR BKN004 OVC009 07/06 A2996 RMK AO2 P0002 T00670061=
202112070353 METAR KSEA 070353Z 06003KT 1 1/2SM -DZ BR BKN006 BKN010 OVC014 07/06 A2996 RMK AO2 SLP155 P0001 T00670061=
202112070314 SPECI KSEA 070314Z 05003KT 1 1/2SM -DZ BR BKN007 OVC012 07/06 A2997 RMK AO2 P0000 T00670061=
202112070253 METAR KSEA 070253Z 08003KT 1SM R16L/P6000FT -DZ BR SCT002 OVC009 07/06 A2996 RMK AO2 SLP156 P0001 60002 T00670061 52003=
202112070250 SPECI KSEA 070250Z 07003KT 1SM R16L/P6000FT -DZ BR SCT002 OVC009 07/06 A2996 RMK AO2 P0001=
202112070234 SPECI KSEA 070234Z 04005KT 3/4SM R16L/P6000FT -DZ BR BKN002 OVC008 07/06 A2997 RMK AO2 P0001 T00670061=
202112070153 METAR KSEA 070153Z VRB05KT 1SM R16L/4500VP6000FT -DZ BR FEW002 OVC008 07/06 A2996 RMK AO2 SLP156 P0000 T00670056=
202112070144 SPECI KSEA 070144Z 10005KT 1SM R16L/4000VP6000FT -DZ BR FEW002 OVC008 06/06 A2996 RMK AO2 P0000 T00610056=
202112070127 SPECI KSEA 070127Z 10006KT 3/4SM R16L/P6000FT -DZ BR FEW002 BKN009 OVC012 06/06 A2996 RMK AO2 P0000 T00610056=
202112070053 METAR KSEA 070053Z 10005KT 2SM -DZ BR FEW004 BKN008 OVC016 06/06 A2996 RMK AO2 SLP154 P0001 T00610056=
202112070026 SPECI KSEA 070026Z 09004KT 2SM -DZ BR SCT004 BKN008 OVC015 06/05 A2996 RMK AO2 P0001 T00610050=
202112062353 METAR KSEA 062353Z 00000KT 1SM R16L/6000VP6000FT -DZ BR OVC005 06/05 A2996 RMK AO2 DZB51 SLP153 P0000 60000 T00610050 10061 20044 55007=
202112062351 SPECI KSEA 062351Z 00000KT 1SM R16L/6000VP6000FT -DZ BR OVC005 06/05 A2996 RMK AO2 DZB51 P0000=
202112062253 METAR KSEA 062253Z 13004KT 2SM BR OVC004 06/04 A2995 RMK AO2 SLP149 T00560044=
202112062230 SPECI KSEA 062230Z 09004KT 3SM BR OVC003 06/04 A2995 RMK AO2 SFC VIS 5 T00560044=
202112062153 METAR KSEA 062153Z 00000KT 1SM R16L/P6000FT BR OVC003 06/04 A2996 RMK AO2 SFC VIS 1 1/2 SLP154 T00560044=
202112062053 METAR KSEA 062053Z 16003KT 1SM R16L/P6000FT BR OVC004 05/04 A2998 RMK AO2 SFC VIS 1 1/2 SLP161 T00500039 56023=
202112061953 METAR KSEA 061953Z 14004KT 1/2SM R16L/P6000FT BR OVC004 04/04 A3000 RMK AO2 SFC VIS 1 SLP167 T00440039=
202112061921 SPECI KSEA 061921Z 16005KT 1/2SM R16L/P6000FT BR OVC004 05/04 A3001 RMK AO2 SFC VIS 1 T00500039=
202112061853 METAR KSEA 061853Z 17006KT 2SM BR OVC003 05/04 A3003 RMK AO2 SFC VIS 3 SLP177 T00500039=
202112061753 METAR KSEA 061753Z 20006KT 2SM BR OVC003 04/04 A3005 RMK AO2 SFC VIS 6 RAE15 SLP184 P0000 60000 T00440039 10044 20028 56009=
202112061747 SPECI KSEA 061747Z 21007KT 6SM BR OVC003 04/04 A3005 RMK AO2 RAE15 VIS S 2 P0000=
202112061653 METAR KSEA 061653Z 21006G15KT 3SM -RA BR BKN005 OVC016 04/03 A3005 RMK AO2 RAB24 SLP187 P0000 T00390033=
202112061625 SPECI KSEA 061625Z 18007KT 3SM -RA BR BKN008 BKN016 OVC021 03/03 A3006 RMK AO2 RAB24 P0000 T00330028=
202112061553 METAR KSEA 061553Z 21007KT 10SM BKN013 OVC039 04/02 A3008 RMK AO2 RAE28 SLP194 P0000 T00390022=
202112061530 SPECI KSEA 061530Z 21004KT 10SM BKN014 BKN024 OVC050 03/02 A3008 RMK AO2 RAE28 P0000 T00330017=
202112061453 METAR KSEA 061453Z 16004KT 10SM -RA BKN035 OVC044 03/02 A3008 RMK AO2 RAB37 SLP195 P0000 60000 T00280017 56026=
202112061353 METAR KSEA 061353Z 18005KT 10SM BKN055 OVC075 03/01 A3010 RMK AO2 SLP200 T00280011=
202112061253 METAR KSEA 061253Z 16006KT 10SM BKN060 OVC070 03/01 A3012 RMK AO2 SLP207 T00280011=
202112061153 METAR KSEA 061153Z 13005KT 10SM BKN055 OVC070 03/01 A3016 RMK AO2 SLP222 60000 T00280011 10033 20028 56040=
202112061053 METAR KSEA 061053Z 12003KT 10SM SCT038 BKN055 OVC065 03/01 A3020 RMK AO2 SLP236 T00280011=
202112060953 METAR KSEA 060953Z 17003KT 10SM FEW027 BKN047 OVC060 03/01 A3024 RMK AO2 RAE20 SLP249 P0000 T00280011=
202112060853 METAR KSEA 060853Z 14007KT 10SM -RA FEW045 BKN055 OVC065 03/02 A3028 RMK AO2 SLP263 P0000 60000 T00280017 58029=
202112060753 METAR KSEA 060753Z 15005KT 10SM -RA BKN042 BKN050 OVC060 03/01 A3032 RMK AO2 RAB50 SLP278 P0000 T00280011 400560006=
202112060653 METAR KSEA 060653Z 15005KT 10SM BKN070 OVC080 03/00 A3034 RMK AO2 SLP284 T00330000=
202112060553 METAR KSEA 060553Z 30003KT 10SM SCT075 OVC090 03/00 A3036 RMK AO2 SLP292 T00280000 10039 20028 56025=
202112060453 METAR KSEA 060453Z 00000KT 10SM FEW040 OVC100 03/M01 A3037 RMK AO2 SLP295 T00331006=
202112060353 METAR KSEA 060353Z 06003KT 10SM BKN100 03/M01 A3040 RMK AO2 PRESFR SLP305 T00331011 $=
202112060253 METAR KSEA 060253Z 04007KT 10SM FEW040 BKN100 04/M01 A3044 RMK AO2 SLP317 T00391011 58011 $=
202112060153 METAR KSEA 060153Z 02007KT 10SM FEW040 BKN120 04/M01 A3048 RMK AO2 SLP331 T00391011 $=
202112060053 METAR KSEA 060053Z 01006KT 10SM FEW040 BKN130 BKN200 03/01 A3047 RMK AO2 SLP328 T00330006 $=
202112052353 METAR KSEA 052353Z 03006KT 10SM FEW040 SCT140 BKN200 04/01 A3047 RMK AO2 SLP328 T00390006 10056 20039 56024 $=
202112052253 METAR KSEA 052253Z 36007KT 10SM FEW010 FEW040 BKN220 06/M01 A3050 RMK AO2 SLP337 T00561006 $=
202112052153 METAR KSEA 052153Z 01009KT 10SM FEW010 FEW040 BKN220 05/00 A3051 RMK AO2 SLP342 T00500000 $=
202112052053 METAR KSEA 052053Z 36007KT 10SM FEW020 FEW060 SCT210 05/01 A3054 RMK AO2 SLP353 T00500011 58007 $=
202112051953 METAR KSEA 051953Z 36005KT 10SM FEW010 FEW060 BKN210 05/01 A3055 RMK AO2 SLP357 T00500011 $=
202112051853 METAR KSEA 051853Z 04003KT 10SM FEW010 SCT060 BKN220 04/00 A3056 RMK AO2 SLP359 T00440000 $=
202112051753 METAR KSEA 051753Z VRB03KT 10SM FEW020 SCT060 BKN220 04/00 A3056 RMK AO2 SLP360 60000 T00390000 10044 20011 53019 $=
202112051653 METAR KSEA 051653Z 06003KT 10SM FEW010 SCT050 BKN200 03/01 A3054 RMK AO2 SLP352 T00280006 $=
202112051553 METAR KSEA 051553Z 00000KT 10SM FEW010 SCT042 BKN190 02/00 A3052 RMK AO2 SLP344 T00170000 $=
202112051453 METAR KSEA 051453Z 00000KT 10SM BKN036 BKN180 02/M01 A3051 RMK AO2 RAE02 SLP340 P0000 60000 T00171006 51012 $=
202112051353 METAR KSEA 051353Z 00000KT 10SM -RA FEW013 BKN046 OVC055 02/M01 A3050 RMK AO2 RAB14E34B45SNB05E14B34E45 SLP337 P0000 T00221011 $=
202112051343 SPECI KSEA 051343Z 06006KT 7SM -SN FEW015 OVC046 02/00 A3050 RMK AO2 RAB14E34SNB05E14B34 P0000 T00170000 $=
202112051316 SPECI KSEA 051316Z 02012KT 4SM -RA BR FEW006 BKN015 OVC029 02/01 A3049 RMK AO2 RAB14SNB05E14 P0000 T00170006 $=
202112051305 SPECI KSEA 051305Z 02012KT 3SM -SN BR SCT008 BKN029 OVC042 02/01 A3049 RMK AO2 SNB05 P0000 T00170006 $=
202112051259 SPECI KSEA 051259Z 01009KT 1 1/4SM BR FEW006 BKN029 BKN040 01/00 A3049 RMK AO2 T00110000 $=
202112051255 SPECI KSEA 051255Z 35003KT 1 3/4SM BR FEW022 SCT029 BKN040 02/01 A3049 RMK AO2 T00170006 $=
202112051253 METAR KSEA 051253Z VRB03KT 5SM BR BKN040 02/01 A3049 RMK AO2 SLP333 T00170006 $=
202112051153 METAR KSEA 051153Z 07004KT 9SM BKN040 02/01 A3047 RMK AO2 SLP328 70047 T00170006 10033 20006 51020=
202112051053 METAR KSEA 051053Z 00000KT 10SM SCT025 SCT060 02/01 A3046 RMK AO2 SLP324 T00220011=
202112051019 SPECI KSEA 051019Z 00000KT 6SM BR BKN060 01/01 A3044 RMK AO2 T00110006=
202112051001 SPECI KSEA 051001Z 30003KT 2SM BR SCT055 01/M01 A3043 RMK AO2 T00061006=
202112050953 METAR KSEA 050953Z 00000KT 3SM BR SCT055 01/M01 A3043 RMK AO2 SLP315 T00111006=
202112050853 METAR KSEA 050853Z 10003KT 10SM CLR 02/00 A3041 RMK AO2 SLP308 T00220000 51025=
202112050753 METAR KSEA 050753Z 00000KT 10SM SCT055 03/01 A3039 RMK AO2 SLP301 T00280011 400560028=
202112050653 METAR KSEA 050653Z 14003KT 8SM BKN060 03/01 A3037 RMK AO2 SLP293 T00280011=
202112050553 METAR KSEA 050553Z 07007KT 10SM SCT065 03/02 A3033 RMK AO2 SLP282 60003 T00330017 10044 20033 51037=
202112050453 METAR KSEA 050453Z 05005KT 10SM FEW009 BKN065 04/02 A3031 RMK AO2 SLP273 T00390022=
202112050353 METAR KSEA 050353Z 03004KT 10SM SCT009 OVC065 04/03 A3027 RMK AO2 RAE02 SLP259 P0000 T00390028=
202112050309 SPECI KSEA 050309Z 04007KT 10SM BKN005 BKN012 OVC050 04/03 A3023 RMK AO2 RAE02 P0000 T00390028=
202112050307 SPECI KSEA 050307Z 04008KT 10SM SCT005 BKN027 OVC050 04/03 A3023 RMK AO2 RAE02 P0000 T00390028=
202112050305 SPECI KSEA 050305Z 04007KT 10SM BKN005 BKN027 OVC050 04/03 A3023 RMK AO2 RAE02 P0000 T00390028=
202112050253 METAR KSEA 050253Z 04008KT 10SM -RA BKN004 OVC027 04/03 A3023 RMK AO2 SLP245 P0001 60003 T00390028 53032=
202112050153 METAR KSEA 050153Z 03009KT 5SM -RA BR OVC003 04/03 A3019 RMK AO2 RAB02E14B38 SLP234 P0001 T00390028=
202112050140 SPECI KSEA 050140Z 02010KT 7SM -RA OVC003 04/03 A3019 RMK AO2 RAB02E14B38 P0000 T00390028=
202112050113 SPECI KSEA 050113Z 36009KT 7SM -RA BKN005 BKN009 OVC040 04/03 A3017 RMK AO2 RAB02 P0000 T00390028=
202112050053 METAR KSEA 050053Z 36011KT 10SM SCT007 BKN012 OVC041 04/03 A3016 RMK AO2 RAE41 SLP223 P0001 T00390028=
202112050033 SPECI KSEA 050033Z 01010KT 5SM -RA BR SCT006 BKN012 OVC040 04/03 A3015 RMK AO2 P0001 T00390028=
202112042353 METAR KSEA 042353Z 01007KT 5SM -RA BR BKN011 OVC036 04/03 A3013 RMK AO2 SLP212 P0004 60021 T00390033 10056 20039 53018=
202112042253 METAR KSEA 042253Z 36010KT 3SM -RA BR SCT005 BKN008 OVC036 04/03 A3010 RMK AO2 SLP201 P0006 T00440033=
202112042235 SPECI KSEA 042235Z 36010KT 3SM -RA BR FEW005 SCT015 OVC034 04/03 A3009 RMK AO2 P0005 T00440033=
202112042153 METAR KSEA 042153Z 31004KT 4SM -RA BR SCT005 BKN015 OVC025 05/04 A3008 RMK AO2 SLP196 P0006 T00500044=
202112042053 METAR KSEA 042053Z 00000KT 3SM -RA BR BKN005 BKN010 OVC015 06/04 A3008 RMK AO2 SLP194 P0005 60005 T00560044 58004=
202112042021 SPECI KSEA 042021Z 18004KT 4SM -RA BR BKN008 OVC015 05/04 A3008 RMK AO2 P0002 T00500044=
202112041953 METAR KSEA 041953Z 17005KT 6SM -RA BR FEW005 SCT015 BKN025 05/04 A3009 RMK AO2 RAB13 SLP199 P0000 T00500039=
202112041914 SPECI KSEA 041914Z 18008KT 6SM -RA BR FEW005 SCT010 BKN030 05/04 A3009 RMK AO2 RAB13 P0000 T00500039=
202112041853 METAR KSEA 041853Z 18008KT 6SM BR SCT005 SCT010 BKN025 04/04 A3009 RMK AO2 RAE49 SLP198 P0000 T00440039=
202112041753 METAR KSEA 041753Z 19004KT 5SM -RA BR BKN005 OVC010 04/03 A3009 RMK AO2 SLP199 P0003 60023 T00390033 10039 20033 53014=
202112041710 SPECI KSEA 041710Z 20006KT 4SM -RA BR FEW005 BKN010 BKN025 04/03 A3008 RMK AO2 P0000 T00390028=
202112041653 METAR KSEA 041653Z 20005KT 4SM -RA BR FEW005 SCT010 BKN025 04/03 A3007 RMK AO2 SLP192 P0008 T00390028=
202112041609 SPECI KSEA 041609Z 23004KT 3SM RA BR FEW005 BKN009 OVC015 03/03 A3006 RMK AO2 P0002 T00330028=
202112041553 METAR KSEA 041553Z 18003KT 2 1/2SM -RA BR SCT009 OVC015 03/03 A3005 RMK AO2 SLP187 P0010 T00330028=
202112041516 SPECI KSEA 041516Z 00000KT 4SM -RA BR FEW009 SCT015 OVC020 03/03 A3005 RMK AO2 P0003 T00330028=
202112041453 METAR KSEA 041453Z 15004KT 4SM -RA BR BKN025 OVC035 03/02 A3005 RMK AO2 SLP185 P0002 60002 T00330022 53006=
202112041434 SPECI KSEA 041434Z 12004KT 6SM -RA BR BKN025 OVC035 04/02 A3004 RMK AO2 P0001 T00390022=
202112041353 METAR KSEA 041353Z 15005KT 10SM -RA FEW040 OVC065 03/02 A3005 RMK AO2 RAB43 SLP184 P0000 T00330022=
202112041253 METAR KSEA 041253Z 16011KT 10SM OVC070 03/02 A3003 RMK AO2 RAB21E50 SLP179 P0000 T00330017=
202112041153 METAR KSEA 041153Z 14006KT 10SM OVC075 04/02 A3003 RMK AO2 SLP179 T00390017 10039 20033 56010=
202112041053 METAR KSEA 041053Z 36003KT 10SM OVC075 04/01 A3005 RMK AO2 SLP185 T00390011=
202112040953 METAR KSEA 040953Z 36003KT 10SM OVC075 03/01 A3004 RMK AO2 SLP183 T00330011=
202112040853 METAR KSEA 040853Z 34003KT 10SM OVC085 03/01 A3006 RMK AO2 SLP189 T00330011 58018=
202112040753 METAR KSEA 040753Z 04004KT 10SM OVC090 04/01 A3009 RMK AO2 SLP199 T00390006 400610017=
202112040653 METAR KSEA 040653Z 04005KT 10SM OVC090 04/01 A3010 RMK AO2 SLP202 T00390011=
202112040553 METAR KSEA 040553Z 02009KT 10SM OVC090 04/01 A3012 RMK AO2 PRESFR SLP208 T00390011 10044 20039 56013=
202112040453 METAR KSEA 040453Z 03008KT 10SM OVC100 04/01 A3012 RMK AO2 SLP210 T00390011=
202112040353 METAR KSEA 040353Z 03008KT 10SM SCT110 OVC140 04/01 A3014 RMK AO2 SLP217 T00390011=
202112040253 METAR KSEA 040253Z 03008KT 10SM FEW015 BKN140 04/01 A3016 RMK AO2 SLP221 T00390006 58016=
202112040153 METAR KSEA 040153Z 02009KT 10SM FEW015 BKN140 04/01 A3018 RMK AO2 SLP229 T00390011=
202112040053 METAR KSEA 040053Z 02010KT 10SM FEW014 BKN170 04/01 A3020 RMK AO2 SLP236 T00390011=
202112032353 METAR KSEA 032353Z 05009KT 10SM SCT014 BKN180 04/01 A3020 RMK AO2 SLP237 T00390011 10061 20039 56018=
202112032253 METAR KSEA 032253Z 03012KT 10SM SCT013 BKN180 04/01 A3022 RMK AO2 SLP241 T00440011=
202112032153 METAR KSEA 032153Z 02009KT 10SM SCT017 BKN180 06/02 A3024 RMK AO2 SLP250 T00610017=
202112032053 METAR KSEA 032053Z 01009KT 10SM FEW012 BKN150 04/01 A3026 RMK AO2 SLP255 T00440011 58019=
202112031953 METAR KSEA 031953Z 02010KT 10SM FEW012 SCT150 BKN200 04/01 A3027 RMK AO2 SLP261 T00440011=
202112031853 METAR KSEA 031853Z 04007KT 10SM FEW017 SCT150 BKN200 04/01 A3031 RMK AO2 SLP272 T00390011=
202112031753 METAR KSEA 031753Z 02008KT 10SM FEW017 SCT150 BKN200 04/01 A3031 RMK AO2 SLP275 T00390011 10039 20017 56008=
202112031653 METAR KSEA 031653Z 05007KT 10SM FEW005 BKN160 03/01 A3032 RMK AO2 SLP276 T00330006=
202112031553 METAR KSEA 031553Z 05009KT 10SM FEW005 BKN150 03/01 A3033 RMK AO2 SLP279 T00330006=
202112031453 METAR KSEA 031453Z 06006KT 10SM BKN160 03/00 A3034 RMK AO2 SLP283 T00280000 57004=
202112031353 METAR KSEA 031353Z 02005KT 10SM SCT160 03/M01 A3035 RMK AO2 SLP287 T00281006=
202112031253 METAR KSEA 031253Z 04008KT 10SM BKN150 03/00 A3034 RMK AO2 SLP283 T00330000=
202112031153 METAR KSEA 031153Z 00000KT 10SM FEW200 02/M01 A3035 RMK AO2 SLP287 70011 T00221006 10056 20017 55001=
202112031053 METAR KSEA 031053Z 02008KT 10SM CLR 03/M01 A3034 RMK AO2 SLP285 T00281006=
202112030953 METAR KSEA 030953Z 01007KT 10SM CLR 03/00 A3035 RMK AO2 SLP288 T00280000=
202112030853 METAR KSEA 030853Z 01007KT 10SM CLR 03/00 A3035 RMK AO2 SLP287 T00280000 58004=
202112030753 METAR KSEA 030753Z 02009KT 10SM SCT046 04/01 A3036 RMK AO2 SLP289 T00440006 401170044=
202112030653 METAR KSEA 030653Z 04005KT 10SM BKN045 05/01 A3037 RMK AO2 SLP292 T00500011=
202112030553 METAR KSEA 030553Z 04007KT 10SM FEW060 06/01 A3037 RMK AO2 SLP292 T00560011 10067 20050 50007=
202112030453 METAR KSEA 030453Z 03007KT 10SM OVC060 06/02 A3037 RMK AO2 SLP292 T00610022=
202112030353 METAR KSEA 030353Z 03007KT 10SM OVC065 06/02 A3036 RMK AO2 SLP290 T00610022=
202112030253 METAR KSEA 030253Z 01007KT 10SM OVC065 06/02 A3035 RMK AO2 SLP285 T00560022 51006=
202112030153 METAR KSEA 030153Z 02009KT 10SM OVC055 07/02 A3034 RMK AO2 SLP282 T00670017=
202112030053 METAR KSEA 030053Z 36007KT 10SM FEW020 BKN050 BKN200 06/02 A3034 RMK AO2 SLP281 T00610017=
202112022353 METAR KSEA 022353Z 35007KT 10SM FEW018 OVC042 07/03 A3033 RMK AO2 SLP278 60008 T00670028 10083 20061 52002=
202112022253 METAR KSEA 022253Z 03005KT 10SM FEW018 OVC038 07/04 A3032 RMK AO2 RAE49 SLP276 P0001 T00720039=
202112022212 SPECI KSEA 022212Z 02008KT 8SM -RA FEW017 SCT025 OVC034 07/03 A3033 RMK AO2 P0000 T00670033=
202112022153 METAR KSEA 022153Z 02011G20KT 3SM -RA SCT013 BKN018 OVC030 06/03 A3033 RMK AO2 RAE2057B22 SLP277 P0006 T00610033=
202112022126 SPECI KSEA 022126Z 06008KT 7SM -RA BKN016 OVC034 08/05 A3032 RMK AO2 RAE2057B22 P0002 T00780050=
202112022117 SPECI KSEA 022117Z 05010KT 10SM BKN014 OVC034 08/05 A3031 RMK AO2 RAE2057 P0001 T00780050=
202112022053 METAR KSEA 022053Z 05007KT 10SM -RA FEW020 OVC035 08/06 A3032 RMK AO2 RAE17B36 SLP275 P0001 60001 T00830056 52011=
202112021953 METAR KSEA 021953Z 06008KT 5SM -RA FEW015 BKN036 OVC050 08/05 A3030 RMK AO2 RAE23B41 SLP268 P0000 T00780050=
202112021853 METAR KSEA 021853Z 06009KT 10SM -RA FEW005 SCT015 OVC030 08/05 A3031 RMK AO2 RAB41 SLP271 P0000 T00780050=
202112021841 SPECI KSEA 021841Z 07007KT 10SM -RA FEW005 SCT015 OVC030 08/05 A3031 RMK AO2 RAB41 P0000 T00780050=
202112021753 METAR KSEA 021753Z VRB05KT 10SM SCT015 BKN022 OVC035 08/06 A3029 RMK AO2 RAE26 SLP264 P0000 60003 T00830056 10100 20072 51023=
202112021653 METAR KSEA 021653Z 11008KT 5SM -RA BR FEW007 BKN023 OVC033 07/06 A3027 RMK AO2 RAE11B50 SLP258 P0001 T00720061=
202112021553 METAR KSEA 021553Z 08008KT 7SM -RA FEW007 BKN021 OVC050 08/06 A3025 RMK AO2 SLP251 P0002 T00780061=
202112021513 SPECI KSEA 021513Z 05012KT 3SM -RA BR SCT007 OVC015 08/07 A3023 RMK AO2 P0001 T00780067=
202112021453 METAR KSEA 021453Z 04011KT 3SM -RA BR SCT007 OVC011 08/07 A3022 RMK AO2 RAB24 SLP240 P0000 60000 T00830067 53010=
202112021414 SPECI KSEA 021414Z VRB05KT 10SM FEW007 BKN012 OVC019 09/07 A3021 RMK AO2 T00940067=
202112021353 METAR KSEA 021353Z 21005KT 10SM OVC022 10/07 A3021 RMK AO2 SLP235 T01000067=
202112021253 METAR KSEA 021253Z 20009KT 10SM OVC020 10/07 A3020 RMK AO2 SLP232 T01000072=
202112021153 METAR KSEA 021153Z 19005KT 10SM BKN024 10/08 A3019 RMK AO2 SLP229 T01000078 10117 20100 53011=
202112021117 SPECI KSEA 021117Z 24004KT 10SM FEW016 BKN024 OVC030 11/08 A3021 RMK AO2 PRESRR T01060078=
202112021053 METAR KSEA 021053Z 19006KT 10SM BKN014 BKN025 OVC030 10/08 A3018 RMK AO2 SLP225 T01000083=
202112021033 SPECI KSEA 021033Z 21009KT 10SM BKN013 BKN021 OVC028 11/08 A3018 RMK AO2 T01060083=
202112021015 SPECI KSEA 021015Z 20010KT 10SM SCT011 BKN023 OVC029 11/09 A3016 RMK AO2 T01060089=
202112020953 METAR KSEA 020953Z 21007KT 10SM BKN010 OVC017 11/09 A3017 RMK AO2 SLP222 T01110089=
202112020917 SPECI KSEA 020917Z 23010KT 10SM BKN012 OVC020 11/09 A3017 RMK AO2 T01110089=
202112020853 METAR KSEA 020853Z 22011KT 10SM OVC016 11/09 A3016 RMK AO2 SLP218 T01110089 51003=
202112020753 METAR KSEA 020753Z 22009KT 10SM OVC012 12/09 A3015 RMK AO2 SLP217 T01170094 401330117=
202112020653 METAR KSEA 020653Z 22008KT 10SM OVC011 12/09 A3015 RMK AO2 SLP217 T01170094=
202112020553 METAR KSEA 020553Z 23009KT 10SM BKN013 OVC050 12/09 A3015 RMK AO2 SLP215 T01170094 10128 20117 53020=
202112020513 SPECI KSEA 020513Z 21010KT 10SM BKN014 OVC060 12/09 A3013 RMK AO2 T01170094=
202112020453 METAR KSEA 020453Z 21012G20KT 10SM SCT014 BKN055 OVC100 12/09 A3011 RMK AO2 SLP204 T01220094=
202112020353 METAR KSEA 020353Z 20017KT 10SM FEW034 SCT055 OVC100 12/09 A3010 RMK AO2 SLP197 T01170094=
202112020253 METAR KSEA 020253Z 20016KT 10SM BKN038 OVC100 12/10 A3009 RMK AO2 SLP195 T01220100 57004=
202112020153 METAR KSEA 020153Z 22012G22KT 10SM BKN030 BKN110 BKN250 12/09 A3010 RMK AO2 PK WND 22026/0116 SLP200 T01220094=
202112020053 METAR KSEA 020053Z 22016G23KT 10SM FEW020 BKN110 BKN250 12/09 A3009 RMK AO2 PK WND 21027/0030 SLP194 T01220094=
202112012353 METAR KSEA 012353Z 21016G24KT 10SM FEW020 BKN110 BKN250 13/09 A3010 RMK AO2 SLP199 T01280094 10133 20128 56012=
202112012253 METAR KSEA 012253Z 21015G23KT 10SM FEW020 BKN110 BKN250 13/09 A3010 RMK AO2 SLP200 T01280094=
202112012153 METAR KSEA 012153Z 20015G25KT 10SM FEW020 BKN110 BKN250 13/09 A3011 RMK AO2 PK WND 21026/2056 SLP204 T01330094=
202112012053 METAR KSEA 012053Z 20017G25KT 10SM FEW020 BKN110 OVC250 13/09 A3014 RMK AO2 PK WND 23027/2026 SLP211 T01330094 58009=
202112011953 METAR KSEA 011953Z 21016G22KT 10SM FEW020 SCT045 BKN110 BKN250 13/09 A3015 RMK AO2 SLP215 T01280089=
202112011853 METAR KSEA 011853Z 21011KT 10SM SCT020 BKN050 BKN120 BKN250 13/09 A3017 RMK AO2 PK WND 21027/1759 SLP224 T01330089=
202112011826 SPECI KSEA 011826Z 21015G25KT 10SM SCT019 13/09 A3016 RMK AO2 PK WND 21027/1759 T01280089=
202112011800 SPECI KSEA 011800Z 21018G27KT 10SM BKN019 13/08 A3017 RMK AO2 PK WND 21027/1759 T01330083=
202112011753 METAR KSEA 011753Z 21019G28KT 10SM SCT018 BKN050 BKN100 BKN250 13/08 A3016 RMK AO2 PK WND 21028/1749 SLP220 T01280083 10128 20117 56010=
202112011653 METAR KSEA 011653Z 19012KT 10SM SCT025 SCT050 BKN095 BKN250 12/08 A3017 RMK AO2 SLP224 T01220083=
202112011553 METAR KSEA 011553Z 20012KT 10SM FEW010 SCT030 BKN095 BKN250 12/08 A3018 RMK AO2 SLP225 T01170083=
202112011453 METAR KSEA 011453Z 21016G25KT 10SM SCT027 OVC040 12/08 A3019 RMK AO2 SLP230 T01220083 51004=
202112011451 SPECI KSEA 011451Z 20017G25KT 10SM SCT027 OVC040 12/08 A3019 RMK AO2=
202112011405 SPECI KSEA 011405Z 22011G19KT 10SM OVC029 12/08 A3019 RMK AO2 T01220078 $=
202112011353 METAR KSEA 011353Z 22012G22KT 10SM OVC030 12/08 A3020 RMK AO2 SLP232 T01220078 $=
202112011253 METAR KSEA 011253Z 22013KT 10SM OVC031 12/08 A3018 RMK AO2 SLP226 T01220078 $=
202112011153 METAR KSEA 011153Z 22013G23KT 10SM BKN029 BKN120 13/08 A3018 RMK AO2 SLP225 70003 T01280078 10128 20117 56011=
202112011105 SPECI KSEA 011105Z 21012G23KT 10SM SCT025 BKN110 12/08 A3018 RMK AO2 T01220083=
202112011053 METAR KSEA 011053Z 21013G24KT 10SM BKN025 BKN110 12/08 A3018 RMK AO2 SLP225 T01220083=
202112010953 METAR KSEA 010953Z 21014KT 10SM OVC024 12/09 A3020 RMK AO2 SLP232 T01170094=
202112010853 METAR KSEA 010853Z 21015KT 10SM OVC022 12/09 A3021 RMK AO2 SLP236 T01220094 58007=
202112010753 METAR KSEA 010753Z 21014G22KT 10SM FEW024 BKN029 12/09 A3023 RMK AO2 SLP242 T01170094 401220106=
202112010653 METAR KSEA 010653Z 21017G25KT 10SM SCT022 BKN090 12/09 A3023 RMK AO2 SLP243 T01220094=
202112010646 SPECI KSEA 010646Z 21014KT 10SM SCT022 BKN090 12/09 A3023 RMK AO2 T01220094=
202112010553 METAR KSEA 010553Z 20013KT 10SM FEW015 BKN020 OVC090 12/09 A3023 RMK AO2 SLP244 T01220094 10122 20117 51003=
202112010453 METAR KSEA 010453Z 20014KT 10SM FEW016 SCT039 OVC110 12/09 A3023 RMK AO2 SLP243 T01220094=
202112010436 SPECI KSEA 010436Z 21015KT 10SM SCT018 BKN050 OVC110 12/09 A3023 RMK AO2 T01170094=
202112010353 METAR KSEA 010353Z 21014G24KT 10SM BKN016 BKN060 OVC090 12/09 A3024 RMK AO2 SLP247 T01170094=
202112010253 METAR KSEA 010253Z 21014G24KT 10SM FEW014 BKN080 OVC095 12/09 A3022 RMK AO2 PK WND 20026/0237 SLP241 T01170094 51007=
202112010153 METAR KSEA 010153Z 21013G21KT 10SM SCT013 BKN075 OVC095 12/09 A3021 RMK AO2 SLP236 T01170094=
202112010053 METAR KSEA 010053Z 20014G21KT 10SM BKN017 OVC080 12/09 A3023 RMK AO2 SLP242 T01170094=
202112010045 SPECI KSEA 010045Z 20014KT 10SM BKN017 OVC080 12/09 A3021 RMK AO2 T01170094=

# No short TAF reports from KSEA in databse.

###################################
#  large TAF from KSEA
###################################
202112312325 TAF KSEA 312325Z 0100/0206 03008KT P6SM BKN200 FM010800 04005KT
                       P6SM SCT120 OVC200 FM011600 14005KT P6SM
                       BKN100 OVC200 FM012200 17007KT P6SM BKN060
                       OVC100=
202112312104 KSEA 312104Z 3121/0124 36011KT P6SM SCT050 FM010300 04005KT P6SM
                       SCT050 BKN200 FM011600 14005KT P6SM BKN100
                       OVC200 FM012200 17005KT P6SM BKN060 OVC100=
202112311737 TAF KSEA 311737Z 3118/0124 04007KT P6SM SCT050 BKN090 FM312100
                       01008KT P6SM SCT050 FM010300 04005KT P6SM
                       SCT050 BKN200 FM011600 14005KT P6SM BKN100
                       OVC200 FM012200 17005KT P6SM BKN060 OVC100=
202112311401 KSEA 311401Z 3114/0118 03004KT P6SM SCT025 BKN040 FM311800 36007KT
                       P6SM SCT050 FM010200 04004KT P6SM SCT050
                       BKN200=
202112311137 KSEA 311137Z 3112/0118 05004KT P6SM BKN025 FM311800 36007KT P6SM
                       SCT050 FM010200 04004KT P6SM SCT050 BKN200=
202112311136 TAF KSEA 311136Z 3112/0118 05004KT P6SM OVC050 FM311800 36007KT
                       P6SM SCT050 FM010200 04004KT P6SM SCT050
                       BKN200=
202112310907 KSEA 310907Z 3109/0112 03003KT P6SM -SHSN BKN025 OVC050 FM311200
                       05007KT P6SM OVC050 FM311800 02005KT P6SM
                       SCT050 FM010200 04006KT P6SM SCT050 BKN200=
202112310520 TAF KSEA 310520Z 3106/0112 05007KT P6SM -SHSN OVC030 FM310700 03005KT
                       P6SM BKN025 OVC050 FM311200 05007KT P6SM
                       OVC050 FM311800 02005KT P6SM SCT050 FM010200
                       04006KT P6SM SCT050 BKN200=
202112310357 KSEA 310357Z 3104/0106 05007KT P6SM -SHSN OVC030 FM310600 05007KT
                       P6SM VCSH SCT030 OVC035 FM310900 03005KT
                       P6SM BKN022 BKN050 FM311800 02008KT P6SM
                       SCT050 FM010200 04006KT P6SM SCT050 BKN200=
202112310301 KSEA 310301Z 3103/0106 05007KT P6SM VCSH OVC035 FM310900 03005KT
                       P6SM BKN022 BKN050 FM311800 02008KT P6SM
                       SCT050 FM010200 04006KT P6SM SCT050 BKN200=
202112310117 KSEA 310117Z 3101/0106 05007KT 5SM -SHSN OVC020
                      TEMPO 3101/3104 2SM -SN BR SCT005 BKN009
                       OVC020 FM310900 03005KT P6SM BKN022 BKN050
                       FM311800 02008KT P6SM SCT050 FM010200 04006KT
                       P6SM SCT050 BKN200=
202112302332 TAF KSEA 302332Z 3100/0106 36008KT P6SM VCSH SCT022 BKN035 BKN050
                       TEMPO 3100/3104 4SM -SN BR BKN016 OVC030
                       FM310400 04007KT P6SM BKN035 FM310900 03005KT
                       P6SM BKN022 BKN050 FM311800 02008KT P6SM
                       SCT050 FM010200 04006KT P6SM SCT050 BKN200=
202112302058 KSEA 302058Z 3021/3124 01008KT P6SM SCT012 BKN020 BKN050 FM302300
                       36008KT P6SM BKN035 BKN050 FM310200 04005KT
                       P6SM BKN050 FM311800 02008KT P6SM SCT050=
202112301738 TAF KSEA 301738Z 3018/3124 35010KT P6SM VCSH SCT010 BKN025 BKN050
                       FM302200 36008KT P6SM BKN035 BKN050 FM310200
                       04005KT P6SM BKN050 FM311800 02008KT P6SM
                       SCT050=
202112301605 KSEA 301605Z 3016/3118 31007KT 6SM BR VCSH BKN007 OVC015 FM301800
                       35010KT P6SM VCSH BKN015 FM310100 04005KT
                       P6SM OVC015=
202112301448 KSEA 301448Z 3015/3118 15008KT 1SM -SN BR VV005 FM301800 35012KT
                       P6SM VCSH OVC015 FM310100 04005KT P6SM OVC015=
202112301319 KSEA 301319Z 3013/3118 14012G18KT 1SM -SN BR BKN010 FM301800 35012KT
                       P6SM VCSH OVC015 FM310100 04005KT P6SM OVC015=
202112301140 TAF KSEA 301140Z 3012/3118 19012G18KT 1SM -SN BR BKN010 FM301800
                       35012KT P6SM VCSH OVC015 FM310100 04005KT
                       P6SM OVC015=
202112300857 KSEA 300857Z 3009/3112 21012G20KT 1SM -SN BR VV010 FM302000 05008KT
                       P6SM VCSH OVC015 FM310100 04005KT 6SM BR
                       OVC015=
202112300554 KSEA 300554Z 3006/3112 14010KT 1SM -SN BR VV010 FM302000 05008KT
                       P6SM VCSH OVC015 FM310100 04005KT 6SM BR
                       OVC015=
202112300520 TAF KSEA 300520Z 3006/3112 14010KT P6SM VCSH BKN020 OVC040 FM301200
                       16009KT 5SM -SN OVC020 FM302200 05008KT
                       P6SM VCSH OVC015 FM310100 04005KT 6SM BR
                       OVC015=
202112300302 KSEA 300302Z 3003/3106 14005KT P6SM OVC080 FM300500 17010KT P6SM
                       VCSH OVC040 FM301200 16009KT 5SM -SN OVC020
                       FM302200 05008KT P6SM VCSH OVC015 FM310100
                       04005KT 6SM BR OVC015=
202112292333 TAF KSEA 292333Z 3000/3106 05005KT P6SM SCT030 BKN200 FM300400
                       15007KT P6SM OVC080 FM300800 16006KT P6SM
                       VCSH OVC040 FM301300 15008KT 5SM -SN OVC020
                       FM302200 05008KT P6SM VCSH OVC015 FM310100
                       04005KT 6SM BR OVC015=
202112292106 KSEA 292106Z 2921/3024 01010KT P6SM SCT030 BKN200 FM292300 04010KT
                       P6SM SCT120 BKN200 FM300200 15007KT P6SM
                       OVC080 FM300800 16006KT P6SM VCSH OVC040
                       FM301300 15008KT 5SM -SN OVC020 FM302200
                       05008KT P6SM VCSH OVC015=
202112291731 TAF KSEA 291731Z 2918/3024 03008KT P6SM SKC FM292300 04010KT P6SM
                       SCT120 BKN200 FM300200 15007KT P6SM OVC080
                       FM300800 16006KT P6SM VCSH OVC040 FM301300
                       15008KT 5SM -SN OVC020 FM302200 05008KT
                       P6SM VCSH OVC015=
202112291404 KSEA 291404Z 2914/3018 04012KT P6SM SCT040 FM292300 05012KT P6SM
                       SCT120 BKN200 FM300200 15004KT P6SM OVC100
                       FM300800 16006KT P6SM OVC030 FM301200 15008KT
                       3SM -SN OVC020=
202112291139 TAF KSEA 291139Z 2912/3018 02012KT P6SM SCT016 OVC050 FM291700
                       04012KT P6SM SCT050 FM292300 05012KT P6SM
                       SCT120 BKN200 FM300200 15004KT P6SM OVC100
                       FM300800 16006KT P6SM OVC030 FM301200 15008KT
                       3SM -SN OVC020=
202112290904 KSEA 290904Z 2909/3012 02012KT P6SM -SHSN BKN025 OVC030 FM291300
                       03011KT P6SM SCT050 FM292300 05012KT P6SM
                       SCT120 BKN200=
202112290520 TAF KSEA 290520Z 2906/3012 36010KT P6SM OVC024 FM290700 02007KT
                       P6SM -SHSN OVC020 FM291300 03011KT P6SM
                       SCT050 FM292300 05012KT P6SM SCT120 BKN200=
202112290304 KSEA 290304Z 2903/3006 36010KT P6SM OVC024 FM290500 02007KT P6SM
                       -SHSN OVC020 FM291300 03011KT P6SM SCT050
                       FM292300 05012KT P6SM SCT120 BKN200=
202112282324 TAF KSEA 282324Z 2900/3006 35010KT P6SM SCT015 OVC028 FM290300
                       04007KT P6SM -SN OVC028 FM291300 03011KT
                       P6SM SCT050 FM292300 05012KT P6SM SCT120
                       BKN200=
202112282105 KSEA 282105Z 2821/2924 03009KT P6SM SCT010 OVC035 FM282300 03006KT
                       P6SM BKN035 FM290300 04007KT P6SM -SN OVC028
                       FM291300 03011KT P6SM FEW250 FM292300 05012KT
                       P6SM SCT120 BKN200=
202112281729 TAF KSEA 281729Z 2818/2924 04008KT P6SM FEW006 BKN030 FM282300
                       03006KT P6SM BKN035 FM290300 04007KT P6SM
                       -SN OVC028 FM291300 03011KT P6SM FEW250
                       FM292300 05012KT P6SM SCT120 BKN200=
202112281404 KSEA 281404Z 2814/2918 03006KT 6SM -SN SCT015 OVC025 FM281600 04004KT
                       5SM BR OVC020 FM290000 04002KT P6SM OVC035
                       FM290900 04007KT P6SM BKN040=
202112281139 TAF KSEA 281139Z 2812/2918 03005KT P6SM -SN SCT015 OVC025 FM281600
                       04004KT 5SM -SN BR OVC020 FM290000 04002KT
                       P6SM OVC035 FM290900 02007KT P6SM BKN040=
202112280907 KSEA 280907Z 2809/2912 08006KT 5SM -SN BKN015 BKN035 OVC045 FM281200
                       04005KT P6SM OVC035 FM281900 02003KT P6SM
                       OVC050 FM290000 01007KT P6SM OVC035 FM290900
                       02007KT P6SM BKN035=
202112280653 KSEA 280653Z 2807/2912 06006KT 2SM -SN FEW015 BKN030 OVC040 FM281200
                       04005KT P6SM OVC035 FM281900 02003KT P6SM
                       OVC050 FM290000 01007KT P6SM OVC035 FM290900
                       02007KT P6SM BKN035=
202112280520 TAF KSEA 280520Z 2806/2912 12006KT 4SM -SN OVC035 FM281200 09005KT
                       P6SM OVC035 FM281900 02003KT P6SM OVC050
                       FM290000 01007KT P6SM OVC035 FM290900 02007KT
                       P6SM BKN035=
202112280303 KSEA 280303Z 2803/2906 15008KT P6SM -SHSN FEW022 OVC080 FM280500
                       05004KT P6SM -SHSN OVC025 FM281200 05002KT
                       P6SM OVC035 FM281900 05005KT P6SM OVC050=
202112272336 TAF KSEA 272336Z 2800/2906 05002KT P6SM OVC050 FM280500 05004KT
                       P6SM -SHSN OVC025 FM281200 05002KT P6SM
                       OVC035 FM281900 05005KT P6SM OVC050=
202112272101 KSEA 272101Z 2721/2824 05003KT P6SM FEW015 SCT050 FM272300 04006KT
                       P6SM OVC050 FM280400 08004KT P6SM -SHSN
                       OVC030 FM280900 05005KT P6SM OVC035=
202112271731 TAF KSEA 271731Z 2718/2824 05009KT P6SM FEW015 OVC050 FM272300
                       04006KT P6SM OVC050 FM280400 08004KT P6SM
                       -SHSN OVC030 FM280900 05005KT P6SM OVC035=
202112271356 KSEA 271356Z 2714/2818 02015KT P6SM FEW015 OVC040 FM271700 04010KT
                       P6SM OVC040 FM272300 04006KT P6SM OVC050
                       FM280400 08004KT P6SM OVC030 FM280900 05005KT
                       P6SM OVC035=
202112271317 KSEA 271317Z 2713/2818 01015G25KT P6SM FEW015 OVC040 FM271700 04010KT
                       P6SM OVC040 FM272300 04006KT P6SM OVC050
                       FM280400 08004KT P6SM OVC030 FM280900 05005KT
                       P6SM OVC035=
202112271139 TAF KSEA 271139Z 2712/2818 01015G25KT 6SM -SN BKN015 OVC040 FM271700
                       04010KT P6SM OVC040 FM272300 04006KT P6SM
                       OVC050 FM280400 08004KT P6SM OVC030 FM280900
                       05005KT P6SM OVC035=
202112270906 KSEA 270906Z 2709/2812 01015G25KT 6SM -SN BKN015 OVC050 FM271700
                       04010KT P6SM OVC050 FM280400 04003KT P6SM
                       OVC050 FM280900 10004KT P6SM OVC035=
202112270520 TAF KSEA 270520Z 2706/2812 01014KT P6SM -SN OVC010 FM270900 02015G20KT
                       6SM BLSN OVC030 FM271700 02007KT P6SM OVC050
                       FM280400 04003KT P6SM OVC050 FM280900 10004KT
                       P6SM OVC035=
202112270301 KSEA 270301Z 2703/2806 01013KT P6SM BKN013 OVC030 FM270600 04010KT
                       P6SM OVC025 FM271700 02007KT P6SM OVC050=
202112262333 TAF KSEA 262333Z 2700/2806 02015KT P6SM OVC030 FM270600 04010KT
                       P6SM OVC025 FM271700 02007KT P6SM OVC050=
202112262138 KSEA 262138Z 2622/2724 35015KT 1/2SM SN OVC015 FM262300 35012KT
                       2SM -SHSN OVC025 FM270000 03008KT P6SM OVC025
                       FM270600 04010KT P6SM OVC030=
202112262101 KSEA 262101Z 2621/2724 35015KT 2SM -SHSN OVC015 FM270000 03008KT
                       P6SM OVC025 FM270600 04010KT P6SM OVC030=
202112261817 KSEA 261817Z 2618/2724 35015G20KT 1/4SM +SN OVC007 FM261900 03012G20KT
                       1/2SM SN OVC010 FM262100 04010KT 1SM -SHSN
                       OVC020 FM270000 03008KT P6SM OVC025 FM270600
                       04010KT P6SM OVC030=
202112261742 TAF KSEA 261742Z 2618/2724 35012G20KT 1/4SM +SN OVC007 FM261900
                       03012G20KT 3/4SM -SHSN OVC020 FM262100 04010KT
                       1SM -SHSN OVC020 FM270000 03008KT P6SM OVC025
                       FM270600 04010KT P6SM OVC030=
202112261607 KSEA 261607Z 2616/2718 01012G20KT 1/2SM SN BKN005 OVC015 FM261800
                       04009KT 3/4SM -SHSN OVC020 FM262100 04009KT
                       1 1/2SM -SHSN OVC020 FM270000 06005KT P6SM
                       OVC025 FM270600 03008KT P6SM OVC035=
202112261457 KSEA 261457Z 2615/2718 18010G20KT 1SM -SHSN BR BKN009 OVC030 FM261600
                       08010KT 3/4SM -SHSN BR OVC015 FM261800 04009KT
                       P6SM -SHSN OVC020 FM270000 06005KT P6SM
                       OVC025 FM270600 03008KT P6SM OVC035=
202112261406 KSEA 261406Z 2614/2718 18010G20KT 1SM -SHSN BR BKN015 OVC030 FM261600
                       08010KT 3/4SM -SHSN BR OVC015 FM261800 04009KT
                       P6SM -SHSN OVC020 FM270000 06005KT P6SM
                       OVC025 FM270600 03008KT P6SM OVC035=
202112261141 TAF KSEA 261141Z 2612/2718 18007KT P6SM -SHSN SCT010 OVC040 FM261300
                       12007KT 1SM -SHSN BR OVC015 FM261600 08007KT
                       3/4SM -SHSN BR OVC015 FM261800 04009KT P6SM
                       -SHSN OVC020 FM270000 06005KT P6SM OVC025
                       FM270600 03008KT P6SM OVC035=
202112260901 KSEA 260901Z 2609/2712 18007KT P6SM -SHSN SCT010 OVC020 FM261300
                       08007KT 1SM -SHSN BR OVC015 FM261800 03009KT
                       P6SM -SHSN OVC020 FM270000 06005KT P6SM
                       OVC020=
202112260538 TAF KSEA 260538Z 2606/2712 19009KT P6SM BKN010 OVC020 FM260700
                       19009KT 5SM -SHSN BR OVC015 FM261300 08007KT
                       1SM -SHSN BR OVC015 FM261800 03009KT P6SM
                       -SHSN OVC020 FM270000 06005KT P6SM OVC020=
202112260204 KSEA 260204Z 2602/2706 19006KT P6SM SCT020 OVC040 FM260700 02006KT
                       5SM -SHSN BR OVC015 FM261800 03010KT P6SM
                       OVC020=
202112252329 TAF KSEA 252329Z 2600/2706 19006KT P6SM -SHRA OVC015 FM260300 15006KT
                       4SM -SN BR OVC010 FM260700 02012KT 5SM -SHSN
                       BR OVC015 FM261500 03010KT P6SM OVC020=
202112252105 KSEA 252105Z 2521/2624 19010KT P6SM -SHRA OVC010 FM260000 19006KT
                       5SM -SHRA OVC015 FM260300 15006KT 3SM -SN
                       BR OVC010 FM260700 02012KT 5SM -SHSN BR
                       OVC015 FM261500 03012KT P6SM OVC020=
202112251722 TAF KSEA 251722Z 2518/2624 19012G21KT P6SM -RA OVC008 FM252100
                       19010KT 5SM -SHRA OVC020 FM260000 19006KT
                       5SM -SHRA OVC018 FM260300 15006KT 3SM -SN
                       BR OVC010 FM260700 02012KT 5SM -SHSN BR
                       OVC015 FM261500 03012KT P6SM OVC020=
202112251404 KSEA 251404Z 2514/2618 19012G21KT P6SM -RA BKN010 OVC025
                      TEMPO 2514/2516 5SM -RA OVC007 FM251800 19010KT
                       5SM -SHRA OVC020 FM260000 19006KT 5SM -SHRA
                       OVC018 FM260300 15006KT 3SM -SN BR OVC010
                       FM260700 02012KT 5SM -SHSN BR OVC015=
202112251138 TAF KSEA 251138Z 2512/2618 19012G21KT P6SM -RA BKN010 OVC025 FM251800
                       19010KT 5SM -SHRA OVC020 FM260000 19006KT
                       5SM -SHRA OVC018 FM260300 15006KT 3SM -SN
                       BR OVC010 FM260700 02012KT 5SM -SHSN BR
                       OVC015=
202112250902 KSEA 250902Z 2509/2612 20015G26KT P6SM -RA OVC025
                      TEMPO 2509/2511 5SM -RA BR OVC007 FM251800
                       21006KT 5SM -SHRA OVC025 FM252200 22010KT
                       5SM -SHRA OVC030 FM260000 VRB05KT 5SM -SHRA
                       OVC020 FM260300 36005KT 3SM -SN BR OVC010
                       FM260600 35008KT 5SM -SHSN BR OVC015=
202112250520 TAF KSEA 250520Z 2506/2612 18015G25KT P6SM -RA SCT015 OVC025 FM251800
                       21006KT 5SM -SHRA OVC025 FM252200 22010KT
                       5SM -SHRA OVC030 FM260000 VRB05KT 5SM -SHRA
                       OVC020 FM260300 36005KT 3SM -SN BR OVC010
                       FM260600 35008KT 5SM -SHSN BR OVC015=
202112250159 KSEA 250159Z 2502/2606 VRB05KT P6SM -SHRA SCT015 OVC030 FM251000
                       VRB04KT 3SM -SHRA OVC015 FM252200 20010KT
                       5SM -RA OVC015 FM260300 30005KT 5SM -SN
                       OVC010=
202112242339 TAF KSEA 242339Z 2500/2606 17010KT P6SM VCSH SCT021 BKN045 BKN160
                       FM250600 VRB05KT P6SM -SHRASN OVC020 FM251000
                       36010KT 3SM -SHSN OVC015 FM251300 VRB05KT
                       3SM -SHRASN OVC015 FM252200 20010KT 5SM
                       -RA OVC015 FM260300 30005KT 5SM -SN OVC010=
202112242054 KSEA 242054Z 2421/2524 18008KT P6SM -RA BKN015 OVC025 FM250600
                       VRB05KT P6SM -SHRASN OVC020 FM251000 36010KT
                       3SM -SHSN OVC015 FM251300 VRB05KT 3SM -SHRASN
                       OVC015 FM252200 20010KT 5SM -RASN OVC015=
202112241738 TAF KSEA 241738Z 2418/2524 18010KT P6SM VCSH BKN012 OVC040 FM250600
                       VRB05KT P6SM -SHRASN OVC020 FM251000 36010KT
                       3SM -SHSN OVC015 FM251300 VRB05KT 3SM -SHRASN
                       OVC015 FM252200 20010KT 5SM -RASN OVC015=
202112241403 KSEA 241403Z 2414/2518 18012KT P6SM SCT020 BKN035
                      TEMPO 2414/2418 -SHRA BKN020 OVC035 FM241800
                       18010KT P6SM VCSH BKN020 BKN040 FM250600
                       VRB04KT P6SM -SHRASN OVC020 FM251000 36010KT
                       3SM -SHSN OVC015=
202112241120 TAF KSEA 241120Z 2412/2518 18012G20KT P6SM -SHRA OVC018 FM241800
                       18010KT P6SM VCSH BKN020 BKN040 FM250600
                       VRB04KT P6SM -SHRASN OVC020 FM251000 36010KT
                       3SM -SHSN OVC015=
202112240903 KSEA 240903Z 2409/2512 15012KT P6SM OVC030 FM241100 16014KT P6SM
                       -RA OVC020 FM241600 20010KT P6SM -SHRA BKN025
                       FM250600 VRB04KT P6SM -SHRASN OVC020=
202112240520 TAF KSEA 240520Z 2406/2512 20015G25KT P6SM -SHRA BKN015 OVC050
                       FM241100 19012G25KT P6SM -RA BKN020 OVC040
                       FM241500 18010KT P6SM -RA OVC020 FM242100
                       20010KT P6SM OVC030 FM250300 16007KT P6SM
                       OVC020 FM250600 16009KT P6SM OVC015=
202112240302 KSEA 240302Z 2403/2506 19015G20KT P6SM BKN015 OVC050 FM241100 16012G25KT
                       P6SM -RA BKN020 OVC040 FM241500 17010KT
                       P6SM -RA OVC020 FM242100 19010KT P6SM OVC030
                       FM250300 15007KT P6SM OVC015=
202112232322 TAF KSEA 232322Z 2400/2506 22018G30KT P6SM FEW019 BKN140 BKN250
                       FM240300 19015G20KT P6SM BKN025 OVC050 FM241100
                       16012G25KT P6SM -RA BKN020 OVC040 FM241500
                       17010KT P6SM -RA OVC020 FM242100 19010KT
                       P6SM OVC030 FM250300 15007KT P6SM OVC015=
202112232054 KSEA 232054Z 2321/2424 22019G31KT P6SM SCT020 SCT080 BKN200 FM240300
                       19015KT P6SM BKN025 OVC050 FM241100 16012G25KT
                       P6SM -RA BKN020 OVC040 FM241500 17010KT
                       P6SM -RA OVC020 FM242100 19010KT P6SM OVC030=
202112231740 TAF KSEA 231740Z 2318/2424 22015G30KT P6SM FEW011 BKN016 OVC023
                       FM232100 22010G20KT P6SM OVC040 FM240300
                       19010KT P6SM BKN025 OVC050 FM241100 16012G25KT
                       P6SM -RA BKN020 OVC040 FM241500 17010KT
                       P6SM -RA OVC020 FM242100 19010KT P6SM OVC030=
202112231558 KSEA 231558Z 2316/2418 19015G25KT P6SM VCSH BKN015 OVC035
                      TEMPO 2316/2317 -SHRA FM240400 18008KT P6SM
                       BKN025 OVC050 FM241100 16012G22KT P6SM -RA
                       BKN020 OVC040=
202112231402 KSEA 231402Z 2314/2418 21012KT P6SM SCT015 BKN040
                      TEMPO 2314/2317 -SHRA BKN015 OVC035 FM240400
                       18008KT P6SM BKN025 OVC050 FM241100 16012G22KT
                       P6SM -RA BKN020 OVC040=
202112231120 TAF KSEA 231120Z 2312/2418 21012KT P6SM VCSH SCT025 BKN060
                      TEMPO 2316/2320 -SHRA BKN025 OVC050 FM240400
                       18008KT P6SM BKN025 OVC050 FM241100 16012G22KT
                       P6SM -RA BKN020 OVC040=
202112230906 KSEA 230906Z 2309/2412 22015G24KT 5SM -RA BR BKN009 OVC015 FM231200
                       22012G20KT P6SM -SHRA BKN015 OVC030 FM231700
                       22012KT P6SM VCSH SCT015 BKN030 FM232200
                       22012KT P6SM SCT020 BKN040=
202112230520 TAF KSEA 230520Z 2306/2412 17012KT P6SM SCT015 OVC035
                      TEMPO 2306/2309 4SM SHRA BR BKN015 OVC030
                       FM230900 19012KT P6SM -SHRA BKN015 OVC030
                       FM231700 21012KT P6SM VCSH SCT015 BKN025
                       OVC040 FM232200 21012KT P6SM SCT025 BKN040=
202112230310 KSEA 230310Z 2303/2406 17010KT P6SM SCT015 OVC035 FM230800 19010KT
                       P6SM -SHRA BKN015 OVC030 FM231700 21012KT
                       P6SM VCSH SCT015 BKN025 OVC040 FM232200
                       21012KT P6SM SCT025 BKN040 OVC060=
202112222345 TAF KSEA 222345Z 2300/2406 21010KT 3SM -RA SCT008 BKN015 OVC030
                       FM230200 19010KT P6SM -SHRA BKN012 OVC020
                       FM231700 21012KT P6SM VCSH SCT015 BKN025
                       OVC040 FM232200 21012KT P6SM SCT025 BKN040
                       OVC060=
202112222034 KSEA 222034Z 2221/2324 19010KT P6SM VCSH FEW025 BKN050 BKN070
                      TEMPO 2221/2223 4SM -RA BR BKN025 FM230400
                       17011KT P6SM -SHRA OVC015 FM231000 21010KT
                       P6SM VCSH BKN020 BKN040 FM231700 23012KT
                       P6SM VCSH OVC030=
202112221720 TAF KSEA 221720Z 2218/2324 17014G22KT P6SM VCSH BKN030 OVC040 FM230400
                       17011KT P6SM -SHRA OVC015 FM231000 21010KT
                       P6SM VCSH BKN020 BKN040 FM231700 23012KT
                       P6SM VCSH OVC030=
202112221620 KSEA 221620Z 2216/2318 17013G22KT P6SM SCT023 BKN030 BKN040 FM230300
                       15011KT 5SM -RA BR OVC015 FM231000 21010KT
                       P6SM VCSH BKN020 BKN040=
202112221401 KSEA 221401Z 2214/2318 19012G20KT P6SM -SHRA BKN025 OVC040 FM230400
                       19012KT 5SM -RA BR OVC015 FM231000 22008KT
                       P6SM VCSH BKN020 BKN040=
202112221120 TAF KSEA 221120Z 2212/2318 19012G22KT P6SM -SHRA BKN022 OVC040
                       FM230400 19012KT 5SM -RA BR OVC015 FM231000
                       22008KT P6SM VCSH BKN020 BKN040=
202112220901 KSEA 220901Z 2209/2312 19012G22KT P6SM -SHRA OVC020 FM230400 19012KT
                       5SM -RA BR OVC015 FM231000 22008KT P6SM
                       VCSH BKN020 BKN040=
202112220520 TAF KSEA 220520Z 2206/2312 16008KT 3SM -SHRA BR OVC025 FM220900
                       19010G18KT 5SM -RA BR OVC010 FM221500 19015G22KT
                       5SM -RA BKN007 OVC015 FM221800 18012KT 5SM
                       -RA OVC025 FM230000 16010KT P6SM -RA OVC030
                       FM230800 17012KT P6SM OVC025=
202112220359 KSEA 220359Z 2204/2306 17007KT 3SM -SHRA BR OVC025 FM220900 19008G18KT
                       5SM -RA BR OVC007 FM221500 19015G22KT 5SM
                       -RA BKN007 OVC015 FM221800 18012KT 5SM -RA
                       BKN025=
202112220216 KSEA 220216Z 2202/2306 17007KT 5SM BR BKN040 OVC060 FM220500 17006KT
                       P6SM -SHRA OVC015 FM220900 19008G18KT 5SM
                       -RA BR OVC007 FM221500 19015G22KT 5SM -RA
                       BKN007 OVC015 FM221800 18012KT 5SM -RA BKN025=
202112212331 TAF KSEA 212331Z 2200/2306 VRB04KT 2SM BR OVC003 FM220400 17006KT
                       P6SM -SHRA OVC005 FM220900 19008G18KT 5SM
                       -RA BR OVC007 FM221500 19015G22KT 5SM -RA
                       BKN007 OVC015 FM221800 18012KT 5SM -RA BKN025=
202112212306 KSEA 212306Z 2123/2224 VRB04KT 2SM BR OVC003 FM220400 17006KT P6SM
                       -SHRA OVC005 FM220900 17008G18KT 5SM -RA
                       BR OVC007 FM221500 18015G22KT 5SM -RA BKN007
                       OVC015 FM221800 18012KT 5SM -RA BKN025=
202112212124 KSEA 212124Z 2121/2224 12004KT 6SM BR OVC005 FM220400 17006KT P6SM
                       -SHRA OVC007 FM220900 17008G18KT 5SM -RA
                       BR OVC007 FM221500 18015G22KT 5SM -RA BKN007
                       OVC015 FM221800 18012KT 5SM -RA BKN025=
202112212000 KSEA 212000Z 2120/2224 VRB02KT 4SM BR OVC005 FM212100 14004KT P6SM
                       SCT007 BKN015 FM220400 17006KT P6SM -SHRA
                       OVC007 FM220900 17008G18KT 5SM -RA BR OVC007
                       FM221500 18015G22KT 5SM -RA BKN007 OVC015
                       FM221800 18012KT 5SM -RA BKN025=
202112211735 TAF KSEA 211735Z 2118/2224 02005KT 5SM BR OVC003
                      TEMPO 2118/2120 3SM BR FM212100 14004KT P6SM
                       SCT007 BKN020 FM220400 17006KT P6SM -SHRA
                       OVC007 FM220900 17008G18KT 5SM -RA BR OVC007
                       FM221500 18015G22KT 5SM -RA BKN007 OVC015
                       FM221800 18012KT 5SM -RA BKN025=
202112211639 KSEA 211639Z 2117/2218 06003KT 6SM BR OVC004 FM211800 04004KT P6SM
                       SCT007 BKN025 FM220300 17006KT P6SM -SHRA
                       OVC007 FM220900 17008G18KT 5SM -RA BR OVC007
                       FM221500 18015G22KT 5SM -RA BKN007 OVC015=
202112211542 KSEA 211542Z 2116/2218 02010KT P6SM BKN006 OVC024
                      TEMPO 2116/2118 3SM BR BKN002 FM211800 04004KT
                       P6SM SCT030 OVC050 FM212200 20004KT P6SM
                       OVC035 FM220200 15004KT P6SM OVC030 FM220400
                       17008G18KT 5SM -RA BR OVC015 FM221500 18012G20KT
                       P6SM -RA OVC025=
202112211401 KSEA 211401Z 2114/2218 02010KT P6SM BKN006 OVC024
                      TEMPO 2114/2117 3SM BR BKN002 FM211800 04004KT
                       P6SM SCT030 OVC050 FM212200 20004KT P6SM
                       OVC035 FM220200 15004KT P6SM OVC030 FM220400
                       17008G18KT 5SM -RA BR OVC015 FM221500 18012G20KT
                       P6SM -RA OVC025=
202112211318 KSEA 211318Z 2113/2218 35008KT P6SM SCT006 OVC024
                      TEMPO 2113/2117 BKN004 FM211800 04004KT P6SM
                       SCT030 OVC050 FM212200 20004KT P6SM OVC035
                       FM220200 15004KT P6SM OVC030 FM220400 17008G18KT
                       5SM -RA BR OVC015 FM221500 18012G20KT P6SM
                       -RA OVC025=
202112211120 TAF KSEA 211120Z 2112/2218 35009KT P6SM BKN025 OVC030 FM211800
                       04004KT P6SM SCT030 OVC050 FM212200 20004KT
                       P6SM OVC035 FM220200 15004KT P6SM OVC030
                       FM220400 17008G18KT 5SM -RA BR OVC015 FM221500
                       18012G20KT P6SM -RA OVC025=
202112210816 KSEA 210816Z 2108/2212 02008KT P6SM SCT017 OVC022 FM211800 VRB03KT
                       P6SM BKN025 OVC050 FM212200 20005KT P6SM
                       OVC030 FM220400 17005KT 5SM -RA BR OVC015=
202112210520 TAF KSEA 210520Z 2106/2212 36008KT P6SM OVC025 FM210800 02005KT
                       4SM BR BKN015 OVC020 FM211800 VRB03KT P6SM
                       BKN025 OVC050 FM212200 20005KT P6SM OVC030
                       FM220400 17005KT 5SM -RA BR OVC015=
202112210301 KSEA 210301Z 2103/2206 01009KT 5SM -DZ BR BKN025 OVC040 FM210600
                       02005KT 4SM BR BKN015 OVC025 FM211900 VRB03KT
                       P6SM BKN025 OVC050 FM220400 17005KT 5SM
                       -RA BR OVC015=
202112210208 KSEA 210208Z 2102/2206 36008KT P6SM BKN015 OVC040 FM210600 02005KT
                       4SM BR BKN015 OVC025 FM211900 VRB03KT P6SM
                       BKN025 OVC050 FM220400 17005KT 5SM -RA BR
                       OVC015=
202112202320 TAF KSEA 202320Z 2100/2206 01007KT P6SM SCT015 BKN050
                      TEMPO 2100/2102 5SM -RA BR BKN015 OVC050
                       FM210200 02005KT 4SM BR BKN015 OVC025 FM211900
                       VRB03KT P6SM BKN025 OVC050 FM220400 17005KT
                       5SM -RA BR OVC015=
202112202113 KSEA 202113Z 2021/2124 02009KT 6SM -RA BR OVC020 FM210000 01006KT
                       5SM -SHRA BR OVC020 FM210600 02006KT 4SM
                       BR BKN008 OVC020 FM211900 17006KT P6SM BKN050=
202112201726 TAF KSEA 201726Z 2018/2124 02007KT P6SM -RA FEW008 OVC023 FM210000
                       01006KT 5SM -SHRA BR OVC020 FM210600 02006KT
                       4SM BR BKN008 OVC020 FM211900 17006KT P6SM
                       BKN050=
202112201402 KSEA 201402Z 2014/2118 02007KT P6SM -RA BKN025 OVC030 FM201500
                       03008KT P6SM -RA OVC025 FM202000 01010KT
                       5SM -RA BR OVC020 FM210300 02006KT 4SM BR
                       OVC008=
202112201120 TAF KSEA 201120Z 2012/2118 01009KT P6SM VCSH SCT035 OVC070
                      TEMPO 2012/2015 BKN035 FM201500 03008KT P6SM
                       -RA OVC030 FM202000 01010KT 5SM -RA BR OVC020
                       FM210300 02006KT 4SM BR OVC008=
202112200900 KSEA 200900Z 2009/2112 02011KT P6SM BKN060 OVC200 FM201500 03008KT
                       P6SM -RA OVC030 FM202000 01010KT 5SM -RA
                       BR OVC020 FM210300 02006KT P6SM OVC020 FM210900
                       VRB03KT P6SM OVC015=
202112200520 TAF KSEA 200520Z 2006/2112 02012KT P6SM FEW020 FM200900 03006KT
                       P6SM BKN030 OVC050 FM201500 03008KT P6SM
                       -RA OVC030 FM202000 01010KT 5SM -RA BR OVC020
                       FM210300 02006KT P6SM OVC020 FM210900 VRB03KT
                       P6SM OVC015=
202112200304 KSEA 200304Z 2003/2106 02010KT P6SM FEW020 FM200600 03006KT P6SM
                       BKN050 OVC200 FM200900 03006KT P6SM BKN030
                       OVC050 FM201500 03008KT P6SM -RA OVC030
                       FM202000 01010KT 5SM -RA BR OVC015 FM210300
                       02006KT P6SM OVC015=
202112192321 TAF KSEA 192321Z 2000/2106 02010KT P6SM FEW015 SCT050 FM200600
                       03006KT P6SM BKN050 OVC200 FM200900 03006KT
                       P6SM BKN030 OVC050 FM201500 03008KT P6SM
                       -RA OVC030 FM202000 01010KT 5SM -RA BR OVC015
                       FM210300 02006KT P6SM OVC015=
202112192101 KSEA 192101Z 1921/2024 04010KT P6SM SCT015 SCT060
                      TEMPO 1921/2001 BKN015 BKN060 FM200700 04006KT
                       P6SM BKN030 OVC070 FM201500 04006KT P6SM
                       -RA OVC030 FM202000 04004KT 5SM -RA BR OVC015=
202112191720 TAF KSEA 191720Z 1918/2024 01006KT P6SM FEW010 BKN025 FM192000
                       02008KT P6SM SCT025 BKN050 FM192200 03010KT
                       P6SM SCT050 FM200700 04006KT P6SM BKN030
                       OVC070 FM201500 04006KT P6SM -RA OVC030
                       FM202000 04004KT 5SM -RA BR OVC015=
202112191308 KSEA 191308Z 1913/2018 00000KT P6SM BKN014 OVC020 FM191400 03004KT
                       P6SM OVC020 FM192000 02008KT P6SM SCT025
                       BKN050 FM192200 03010KT P6SM SCT050 FM200700
                       04006KT P6SM BKN030 OVC070 FM201500 04006KT
                       P6SM -RA OVC030=
202112191123 TAF KSEA 191123Z 1912/2018 14003KT P6SM OVC010 FM191400 03004KT
                       P6SM OVC020 FM192000 02008KT P6SM SCT025
                       BKN050 FM192200 03010KT P6SM SCT050 FM200700
                       04006KT P6SM BKN030 OVC070 FM201500 04006KT
                       P6SM -RA OVC030=
202112190903 KSEA 190903Z 1909/2012 VRB03KT P6SM OVC016 FM191400 03004KT P6SM
                       OVC020 FM192000 02008KT P6SM SCT025 BKN050
                       FM192300 03010KT P6SM SCT050=
202112190520 TAF KSEA 190520Z 1906/2012 16008KT P6SM BKN015 FM191400 03004KT
                       P6SM OVC020 FM192000 02008KT P6SM SCT025
                       BKN050 FM192300 03010KT P6SM SCT050=
202112190414 KSEA 190414Z 1904/2006 16008KT P6SM BKN015 FM191400 03004KT P6SM
                       OVC020 FM192000 02008KT P6SM SCT025 BKN050
                       FM192300 03010KT P6SM SCT050=
202112190302 KSEA 190302Z 1903/2006 20012G21KT P6SM BKN015 FM190800 16008KT
                       P6SM BKN015 OVC030 FM191400 03004KT P6SM
                       OVC020 FM192000 02008KT P6SM SCT025 BKN050
                       FM192300 03010KT P6SM SCT050=
202112190033 KSEA 190033Z 1901/2006 20013G21KT P6SM SCT015 OVC045
                      TEMPO 1901/1903 -RA BKN015 OVC045 FM190300
                       16008KT P6SM BKN015 OVC030 FM191600 03004KT
                       P6SM OVC020 FM192000 02008KT P6SM SCT025
                       BKN050 FM192300 03010KT P6SM SCT050=
202112182320 TAF KSEA 182320Z 1900/2006 21015G22KT 6SM -RA BR BKN013 OVC035
                       FM190300 16008KT P6SM BKN015 OVC030 FM191600
                       03004KT P6SM OVC020 FM192000 02008KT P6SM
                       SCT025 BKN050 FM192300 03010KT P6SM SCT050=
202112182143 KSEA 182143Z 1822/1924 23017G27KT P6SM -RA FEW015 SCT025 BKN045
                       TEMPO 1822/1901 5SM -RA BR BKN015 OVC025
                       FM190100 16008KT P6SM BKN015 OVC030 FM191600
                       03004KT P6SM OVC020 FM192100 01008KT P6SM
                       SCT025 BKN050=
202112181721 TAF KSEA 181721Z 1818/1924 18015G25KT 6SM -RA BR FEW005 OVC020
                       WS020/20050KT FM182200 20012G18KT 5SM -RA
                       BR OVC012 FM190100 16008KT P6SM BKN015 OVC030
                       FM191600 03004KT P6SM OVC020 FM192100 01008KT
                       P6SM SCT025 BKN050=
202112181451 KSEA 181451Z 1815/1918 17016G26KT 6SM -RA SCT005 OVC022 WS020/20050KT
                       FM182200 20012G18KT 5SM -RA BR OVC012 FM190100
                       16008KT P6SM VCSH BKN015 OVC030 FM191500
                       06006KT P6SM OVC020=
202112181138 TAF KSEA 181138Z 1812/1918 15010KT 6SM -RA BKN025 OVC040 FM181500
                       17016G26KT 6SM -RA OVC022 WS020/20050KT
                       FM182200 20012G18KT 5SM -RA BR OVC012 FM190100
                       16008KT P6SM VCSH BKN015 OVC030 FM191500
                       06006KT P6SM OVC020=
202112180900 KSEA 180900Z 1809/1912 12012KT 6SM -RA BKN028 OVC050 FM181600 19016G26KT
                       6SM -RA OVC015 WS020/20050KT FM182200 22012KT
                       5SM -RA BR OVC012 FM190000 20004KT 5SM -RA
                       BR OVC010=
202112180520 TAF KSEA 180520Z 1806/1912 10012G18KT 5SM -RA BR OVC020 FM180700
                       13010KT 4SM -RA BR OVC020 FM181600 19016G26KT
                       6SM -RA OVC015 FM182200 22012KT 5SM -RA
                       BR OVC012 FM190000 20004KT 5SM -RA BR OVC010=
202112180250 KSEA 180250Z 1803/1906 14005KT P6SM -RA OVC030 FM180400 15007KT
                       P6SM -RA OVC035 FM180700 17010KT 4SM -RA
                       OVC020 FM181600 19016G26KT 6SM -RA OVC015
                       FM182200 22012KT 5SM -RA BR OVC012=
202112172320 TAF KSEA 172320Z 1800/1906 14005KT P6SM BKN045 OVC120 FM180400
                       15007KT P6SM -RA OVC035 FM180700 17010KT
                       6SM -RA OVC020 FM181600 19016G26KT 6SM -RA
                       OVC015 FM182200 22012KT 5SM -RA BR OVC012=
202112172102 KSEA 172102Z 1721/1824 16006KT P6SM FEW050 BKN150 BKN250 FM180100
                       16004KT P6SM BKN050 OVC120 FM180500 15007KT
                       P6SM -RA OVC035 FM181000 17010KT 6SM -RA
                       OVC020 FM181600 19014G22KT 6SM -RA OVC015=
202112171721 TAF KSEA 171721Z 1718/1824 15005KT P6SM SCT040 BKN080 OVC200 FM180500
                       15007KT P6SM -RA OVC035 FM181000 17010KT
                       6SM -RA OVC020 FM181600 19014G22KT 6SM -RA
                       OVC015=
202112171413 KSEA 171413Z 1714/1818 14008KT P6SM SCT001 BKN050 BKN200
                      TEMPO 1714/1717 2SM BR BKN001 FM172000 14009KT
                       P6SM BKN050 OVC120 FM180500 15007KT P6SM
                       -RA OVC035 FM181000 17010KT 6SM -RA OVC020
                       FM181700 19014G22KT 6SM -RA OVC015=
202112171125 TAF KSEA 171125Z 1712/1818 11005KT P6SM BKN040
                      TEMPO 1714/1718 2SM BR SCT002 FM172000 14005KT
                       P6SM BKN050 OVC120 FM180500 15007KT P6SM
                       -RA OVC035 FM181000 17010KT 6SM -RA OVC020
                       FM181700 19014G22KT 6SM -RA OVC015=
202112170901 KSEA 170901Z 1709/1812 10005KT P6SM BKN040 FM172100 16005KT P6SM
                       SCT025 BKN050 OVC120 FM180300 17007KT P6SM
                       OVC035 FM181000 17010KT P6SM OVC020=
202112170520 TAF KSEA 170520Z 1706/1812 07003KT P6SM VCSH BKN030 OVC045 FM170800
                       10002KT P6SM OVC015 FM172100 16005KT P6SM
                       SCT025 BKN050 OVC120 FM180300 17007KT P6SM
                       OVC035 FM181000 17010KT P6SM OVC020=
202112170254 KSEA 170254Z 1703/1806 02008KT P6SM VCSH SCT005 OVC035 FM170400
                       VRB04KT P6SM BKN020 FM170800 VRB04KT P6SM
                       OVC015 FM172100 16005KT P6SM SCT025 BKN050
                       OVC120 FM180300 14007KT P6SM OVC035=
202112162325 TAF KSEA 162325Z 1700/1806 22005KT P6SM VCSH BKN025 BKN050 FM170400
                       VRB04KT P6SM BKN020 FM170800 VRB04KT P6SM
                       OVC015 FM172100 16005KT P6SM SCT025 BKN050
                       OVC120 FM180300 14007KT P6SM OVC035=
202112162055 KSEA 162055Z 1621/1724 20006KT P6SM VCSH BKN015 OVC025 FM162300
                       18005KT P6SM VCSH BKN022 FM170400 VRB05KT
                       P6SM BKN020 FM170800 VRB04KT P6SM OVC015
                       FM172100 16003KT P6SM SCT025 BKN050 OVC120=
202112161734 TAF KSEA 161734Z 1618/1724 17005KT P6SM VCSH BKN012 OVC025 FM162100
                       18005KT P6SM VCSH BKN022 FM170400 VRB05KT
                       P6SM BKN020 FM170800 VRB04KT P6SM OVC015
                       FM172100 16003KT P6SM SCT025 BKN050 OVC120=
202112161407 KSEA 161407Z 1614/1718 15005KT P6SM VCSH OVC020 FM162100 VRB05KT
                       P6SM OVC025 FM170800 VRB04KT P6SM OVC015=
202112161128 TAF KSEA 161128Z 1612/1718 VRB03KT P6SM OVC030 FM161600 17005KT
                       P6SM VCSH OVC020 FM162100 VRB05KT P6SM OVC025
                       FM170800 VRB04KT P6SM OVC015=
202112160902 KSEA 160902Z 1609/1712 10003KT P6SM BKN035 FM161300 08004KT P6SM
                       OVC020 FM161600 17005KT P6SM OVC020 FM161800
                       21005KT P6SM OVC030 FM170300 VRB04KT P6SM
                       OVC040=
202112160520 TAF KSEA 160520Z 1606/1712 12010KT P6SM -SHRA OVC030 FM160800 10003KT
                       P6SM OVC025 FM161300 08004KT P6SM OVC020
                       FM161600 17005KT P6SM OVC020 FM161800 21005KT
                       P6SM OVC030 FM170300 VRB04KT P6SM OVC040=
202112160306 KSEA 160306Z 1603/1706 12010G20KT P6SM -RA OVC020 FM161000 10003KT
                       P6SM OVC025 FM161300 08004KT P6SM OVC025
                       FM161500 14005KT P6SM OVC020=
202112160215 KSEA 160215Z 1602/1706 12012KT P6SM -SHRA OVC045 FM160300 12008KT
                       P6SM -RA OVC020 FM161000 10003KT P6SM OVC025
                       FM161300 08004KT P6SM OVC025 FM161500 14005KT
                       P6SM OVC020=
202112152320 TAF KSEA 152320Z 1600/1706 10010G20KT 6SM -RA OVC020 FM160200 10007KT
                       P6SM VCSH OVC030 FM161000 10003KT P6SM OVC025
                       FM161300 08004KT P6SM OVC025 FM161500 14005KT
                       P6SM OVC020=
202112152051 KSEA 152051Z 1521/1624 08008KT P6SM -RA FEW040 BKN050 OVC060 FM152200
                       11010KT 6SM -RA BR OVC050 FM160200 10007KT
                       P6SM VCSH OVC030 FM161000 10003KT P6SM OVC025
                       FM161300 08004KT P6SM OVC025=
202112151720 TAF KSEA 151720Z 1518/1624 11008KT P6SM BKN060 OVC080 FM152200
                       11010KT 6SM -RA BR OVC050 FM160200 10007KT
                       P6SM VCSH OVC030 FM161000 10003KT P6SM OVC025
                       FM161300 08004KT P6SM OVC025=
202112151313 KSEA 151313Z 1513/1618 15007KT P6SM VCSH SCT035 BKN045 OVC060 FM151700
                       16008KT P6SM VCSH OVC050 FM152200 11010KT
                       6SM -RA BR OVC050 FM160200 10007KT P6SM
                       VCSH OVC030 FM161000 10003KT P6SM OVC025=
202112151129 TAF KSEA 151129Z 1512/1618 15007KT P6SM SCT035 BKN045 OVC060 FM151400
                       16008KT P6SM VCSH OVC030 FM152200 11010KT
                       6SM -RA BR OVC050 FM160200 10007KT P6SM
                       VCSH OVC030 FM161000 10003KT P6SM OVC025=
202112150903 KSEA 150903Z 1509/1612 14008KT P6SM VCSH SCT035 BKN045 OVC060 FM151400
                       14007KT 6SM -SHRA OVC030 FM152200 11010KT
                       P6SM -RA OVC050 FM160300 10007KT P6SM VCSH
                       OVC030 FM161000 10003KT P6SM OVC025=
202112150520 TAF KSEA 150520Z 1506/1612 15008KT P6SM VCSH SCT035 BKN040 OVC060
                       FM151400 14007KT 6SM -SHRA OVC030 FM152200
                       11010KT P6SM -RA OVC050 FM160300 10007KT
                       P6SM VCSH OVC030 FM161000 10003KT P6SM OVC025=
202112150304 KSEA 150304Z 1503/1606 15009KT 6SM -RA OVC025
                      TEMPO 1503/1506 5SM -RA OVC010 FM150600 15007KT
                       P6SM VCSH OVC035 FM151400 11010KT 6SM -SHRA
                       OVC030 FM152000 11007KT P6SM -RA OVC050=
202112142320 TAF KSEA 142320Z 1500/1606 17010KT 6SM -RA BKN013 OVC020 FM150300
                       15007KT 6SM -RA OVC010 FM150600 15007KT
                       P6SM VCSH OVC035 FM151400 11010KT 6SM -SHRA
                       OVC030 FM152000 11007KT P6SM -RA OVC050=
202112142040 KSEA 142040Z 1421/1524 20009KT P6SM VCSH SCT020 BKN035 OVC050 FM150000
                       19007KT P6SM VCSH OVC020 FM150300 15007KT
                       P6SM VCSH OVC020 FM150600 15007KT P6SM VCSH
                       OVC035 FM151400 11010KT 6SM -SHRASN OVC030
                       FM152000 11007KT P6SM -RA OVC050=
202112141720 TAF KSEA 141720Z 1418/1524 20007KT P6SM FEW018 BKN045 FM142100
                       20005KT P6SM BKN030 FM150300 15007KT P6SM
                       VCSH OVC020 FM150600 15007KT P6SM VCSH OVC035
                       FM151400 11010KT 6SM -SHRASN OVC030=
202112141415 KSEA 141415Z 1414/1518 17008KT P6SM VCSH SCT015 SCT040 FM141700
                       18008KT P6SM SCT025 BKN040 FM142100 20005KT
                       P6SM OVC050 FM150300 15007KT P6SM VCSH OVC025
                       FM151400 11010KT 6SM -SHRASN OVC030=
202112141310 KSEA 141310Z 1413/1518 17011KT P6SM VCSH SCT015 BKN060 FM141700
                       18008KT P6SM SCT025 BKN040 FM142100 20005KT
                       P6SM OVC050 FM150300 15007KT P6SM VCSH OVC025
                       FM151400 11010KT 6SM -SHRASN OVC030=
202112141134 TAF KSEA 141134Z 1412/1518 19011KT P6SM VCSH SCT015 BKN060 FM141400
                       18006KT P6SM VCSH BKN025 BKN040 FM142100
                       20005KT P6SM OVC050 FM150300 15007KT P6SM
                       VCSH OVC025=
202112140907 KSEA 140907Z 1409/1512 20012G18KT P6SM VCSH SCT025 BKN045 FM141100
                       18006KT P6SM BKN050 FM142100 20005KT P6SM
                       OVC050 FM150200 18004KT P6SM OVC025=
202112140526 KSEA 140526Z 1406/1512 20012G18KT P6SM VCSH SCT025 BKN035 FM141100
                       18006KT P6SM BKN050 FM142100 20005KT P6SM
                       OVC050 FM150200 18004KT P6SM OVC025=
202112140520 TAF KSEA 140520Z 1406/1512 18009KT P6SM -SHRA BKN030 BKN040 OVC050
                       FM140900 18006KT P6SM VCSH OVC030 FM142100
                       20005KT P6SM OVC050 FM150000 18004KT P6SM
                       OVC025=
202112140307 KSEA 140307Z 1403/1506 18009KT P6SM -SHRA BKN030 BKN040 OVC050
                       FM140900 18006KT P6SM VCSH OVC030 FM142100
                       20005KT P6SM OVC050 FM150000 18004KT P6SM
                       OVC025=
202112140057 KSEA 140057Z 1401/1506 18005KT P6SM -SHRA FEW020 OVC040 FM140300
                       15007KT P6SM -SHRA OVC025 FM140900 17010KT
                       P6SM VCSH OVC020 FM142100 20006KT P6SM VCSH
                       OVC035=
202112132322 TAF KSEA 132322Z 1400/1506 03006KT P6SM -SHRA FEW020 OVC050 FM140300
                       15007KT P6SM -SHRA OVC025 FM140900 17010KT
                       P6SM VCSH OVC020 FM142100 20006KT P6SM VCSH
                       OVC035=
202112132101 KSEA 132101Z 1321/1424 33005KT P6SM -RA OVC050 FM140300 15007KT
                       P6SM -SHRA OVC025 FM140900 17010KT P6SM
                       -SHRA OVC020=
202112131932 KSEA 131932Z 1320/1424 35007KT P6SM OVC090 FM132100 02006KT P6SM
                       SCT035 OVC090 FM140300 15007KT P6SM -SHRA
                       OVC025 FM140900 17010KT P6SM -SHRA OVC020=
202112131721 TAF KSEA 131721Z 1318/1424 06004KT P6SM SCT050 BKN140 FM132100
                       02006KT P6SM SCT035 OVC060 FM140300 15007KT
                       P6SM -SHRA OVC025 FM140900 17010KT P6SM
                       -SHRA OVC020=
202112131532 KSEA 131532Z 1316/1418 06003KT P6SM VCSH BKN040 OVC050 FM131800
                       06005KT P6SM SCT035 BKN060 FM132100 02006KT
                       P6SM SCT035 OVC060 FM140300 15007KT P6SM
                       -SHRA OVC025 FM140900 17012KT P6SM -SHRA
                       OVC020=
202112131402 KSEA 131402Z 1314/1418 14004KT P6SM VCSH SCT025 BKN040
                      TEMPO 1314/1316 -SHRA BKN025 OVC040 FM131800
                       06005KT P6SM SCT035 BKN060 FM132100 02006KT
                       P6SM SCT035 OVC060 FM140300 15007KT P6SM
                       -SHRA OVC025 FM140900 17012KT P6SM -SHRA
                       OVC020=
202112131133 TAF KSEA 131133Z 1312/1418 14007KT P6SM VCSH SCT025 BKN040
                      TEMPO 1312/1316 -SHRA BKN025 OVC040 FM131800
                       06005KT P6SM SCT035 BKN060 FM132100 02006KT
                       P6SM SCT035 OVC060 FM140300 15007KT P6SM
                       -SHRA OVC025 FM140900 17012KT P6SM -SHRA
                       OVC020=
202112130823 KSEA 130823Z 1308/1412 13010KT P6SM BKN035 OVC050
                      TEMPO 1308/1312 -SHRA BKN022 OVC040 FM131200
                       09007KT P6SM -SHRA OVC025 FM131800 33003KT
                       P6SM SCT035 BKN060 FM140000 34006KT P6SM
                       -SHRA BKN035 OVC060 FM140300 18008KT P6SM
                       -SHRA OVC025=
202112130520 TAF KSEA 130520Z 1306/1412 11006KT P6SM FEW045 BKN060 FM131200
                       09007KT P6SM -SHRA OVC025 FM131800 33003KT
                       P6SM SCT035 BKN060 FM140000 34006KT P6SM
                       -SHRA BKN035 OVC060 FM140300 18008KT P6SM
                       -SHRA OVC025=
202112130302 KSEA 130302Z 1303/1406 15003KT P6SM VCSH SCT030 OVC040 FM130700
                       11007KT P6SM SCT035 BKN060 FM131200 09007KT
                       P6SM -RA OVC025 FM131700 12008KT P6SM VCSH
                       BKN030 FM132200 VRB05KT 6SM -RA OVC025=
202112122334 TAF KSEA 122334Z 1300/1406 16010KT 6SM -RA BKN015 OVC040 FM130300
                       15008KT P6SM VCSH BKN025 BKN060 FM130700
                       11007KT P6SM SCT035 BKN060 FM131200 09007KT
                       P6SM -RA OVC025 FM131700 12008KT P6SM VCSH
                       BKN030 FM132200 VRB05KT 6SM -RA OVC025=
202112122101 KSEA 122101Z 1221/1324 17012KT P6SM VCSH SCT020 BKN050
                      TEMPO 1221/1301 4SM -RA BKN020 FM130200 14008KT
                       P6SM VCSH BKN025 BKN060 FM130700 12007KT
                       P6SM SCT035 BKN060 FM131200 09007KT P6SM
                       -RA OVC025 FM131700 14008KT P6SM BKN030=
202112121730 TAF KSEA 121730Z 1218/1324 19012KT P6SM VCSH SCT020 BKN050
                      TEMPO 1220/1224 4SM -SHRA BKN020 FM130200
                       14008KT P6SM VCSH BKN025 BKN060 FM130700
                       12007KT P6SM SCT035 BKN060 FM131200 09007KT
                       P6SM -RA OVC025 FM131700 14008KT P6SM BKN030=
202112121359 KSEA 121359Z 1214/1318 19012G18KT P6SM VCSH BKN035 BKN070 FM121600
                       19012G18KT P6SM VCSH BKN035 BKN050 FM122000
                       17011KT 6SM -SHRA BKN022 OVC035 FM130200
                       14008KT P6SM VCSH BKN025 BKN060 FM130700
                       12007KT P6SM SCT035 BKN060=
202112121358 KSEA 121358Z 1214/1318 19012G18KT P6SM VCSH BKN035 BKN070 FM121500
                       19012G18KT P6SM VCSH BKN030 BKN050 FM122000
                       17011KT 6SM -SHRA BKN022 OVC035 FM130200
                       14008KT P6SM VCSH BKN025 BKN060 FM130700
                       12007KT P6SM SCT035 BKN060=
202112121135 TAF KSEA 121135Z 1212/1318 19012G22KT P6SM VCSH BKN025 BKN060 FM121500
                       19012G18KT P6SM VCSH BKN030 BKN050 FM122000
                       17011KT 6SM -SHRA BKN022 OVC035 FM130200
                       14008KT P6SM VCSH BKN025 BKN060 FM130700
                       12007KT P6SM SCT035 BKN060=
202112120903 KSEA 120903Z 1209/1312 19012G20KT P6SM VCSH BKN020 BKN060 FM121300
                       19012G18KT P6SM VCSH BKN030 BKN050 FM121900
                       17010KT 6SM -SHRA OVC015 FM130000 14007KT
                       P6SM BKN025 BKN060 FM130400 12005KT P6SM
                       SCT035 BKN060=
202112120520 TAF KSEA 120520Z 1206/1312 18012G20KT P6SM SCT025 BKN090 BKN250
                       TEMPO 1206/1209 -SHRA BKN025 OVC060 FM120900
                       19012G20KT 6SM -SHRA BR OVC025 FM121300
                       19012G18KT P6SM VCSH BKN030 BKN050 FM121900
                       17010KT 6SM -SHRA OVC015 FM130000 14007KT
                       P6SM BKN025 BKN060 FM130400 12005KT P6SM
                       SCT035 BKN060=
202112120305 KSEA 120305Z 1203/1306 20014G20KT P6SM SCT022 OVC100
                      TEMPO 1206/1209 -SHRA BKN022 OVC060 FM120900
                       19013G20KT 6SM -SHRA BR OVC025 FM121300
                       19012G18KT P6SM VCSH BKN030 BKN050 FM121900
                       17010KT 6SM -SHRA OVC015=
202112112334 TAF KSEA 112334Z 1200/1306 22015G22KT P6SM -RA BKN025 OVC035 FM120300
                       20012KT P6SM VCSH BKN035 FM120900 19013G20KT
                       6SM -SHRA BR OVC025 FM121300 19012G18KT
                       P6SM VCSH BKN030 BKN050 FM121900 17010KT
                       6SM -SHRA OVC015=
202112112105 KSEA 112105Z 1121/1224 22015G22KT P6SM -SHRA BKN020 OVC035 FM120300
                       18012KT P6SM VCSH BKN035 FM120900 19013G20KT
                       6SM -SHRA BR OVC025 FM121800 19012KT 6SM
                       -SHRA BR BKN030 BKN050=
202112111725 TAF KSEA 111725Z 1118/1224 22020G28KT 6SM -RA BKN010 OVC020 FM112000
                       22015G22KT P6SM -SHRA BKN030 BKN050 FM120300
                       18012KT P6SM VCSH BKN035 FM120900 19013G20KT
                       6SM -SHRA BR OVC025 FM121800 19012KT 6SM
                       -SHRA BR BKN030 BKN050=
202112111501 KSEA 111501Z 1115/1218 20020G30KT P6SM -SHRA OVC025 FM111600 22018G28KT
                       P6SM -SHRA BKN025 OVC040 FM112000 22012G18KT
                       P6SM VCSH BKN030 BKN050 FM120300 18010KT
                       P6SM VCSH BKN035 FM120900 19013G20KT 6SM
                       -SHRA BR BKN020 OVC035=
202112111137 TAF KSEA 111137Z 1112/1218 20025G35KT 6SM RA BR OVC025 FM111600
                       22018G28KT P6SM -SHRA BKN025 OVC040 FM112000
                       22012G18KT P6SM VCSH BKN030 BKN050 FM120300
                       18010KT P6SM VCSH BKN035 FM120900 19013G20KT
                       6SM -SHRA BR BKN020 OVC035=
202112110902 KSEA 110902Z 1109/1212 20025G35KT 5SM RA BR OVC015 WS020/18045KT
                       FM111500 22015G25KT P6SM -SHRA BKN015 OVC030
                       FM112000 22012KT P6SM VCSH BKN025 BKN050=
202112110619 KSEA 110619Z 1106/1212 18017G28KT 5SM -RA BKN015 OVC030 WS020/18045KT
                       FM110900 19025G35KT 5SM RA BR OVC015 WS020/18045KT
                       FM111500 22015G25KT P6SM -SHRA BKN015 OVC030
                       FM112000 22012KT P6SM VCSH BKN025 BKN050=
202112110520 TAF KSEA 110520Z 1106/1212 18025G35KT 5SM -RA BKN015 OVC030 WS020/18045KT
                       FM110900 19025G35KT 5SM RA BR OVC015 WS020/18045KT
                       FM111500 22015G25KT P6SM -SHRA BKN015 OVC030
                       FM112000 22012KT P6SM VCSH BKN025 BKN050=
202112110315 KSEA 110315Z 1103/1206 18013G25KT P6SM -RA SCT035 OVC040
                      TEMPO 1103/1106 BKN030 FM110600 19020G30KT
                       5SM RA BR OVC015 WS020/18045KT FM111500
                       22015G25KT P6SM -SHRA BKN015 OVC030 FM112000
                       22012KT P6SM VCSH BKN025 BKN050=
202112102320 TAF KSEA 102320Z 1100/1206 18012G22KT P6SM -RA OVC025 FM110600
                       19020G30KT 5SM RA BR OVC015 WS020/18045KT
                       FM111500 22015G25KT P6SM -SHRA BKN015 OVC030
                       FM112000 22012KT P6SM VCSH BKN025 BKN050=
202112102102 KSEA 102102Z 1021/1124 18012KT P6SM -RA OVC027 FM110000 18012G22KT
                       P6SM -RA OVC022 FM110600 19020G30KT 5SM
                       RA BR OVC015 WS020/18050KT FM111500 22015G25KT
                       P6SM -SHRA BKN015 OVC030 FM112000 22012KT
                       P6SM VCSH BKN025 BKN050=
202112101721 TAF KSEA 101721Z 1018/1124 18010KT P6SM BKN020 OVC070 FM102200
                       18012G22KT P6SM -RA OVC020 FM110600 19020G30KT
                       5SM RA BR OVC015 WS020/18050KT FM111500
                       22015G25KT P6SM -SHRA BKN015 OVC030 FM112000
                       22012KT P6SM VCSH BKN025 BKN050=
202112101402 KSEA 101402Z 1014/1118 18010KT P6SM BKN015 BKN035 FM102100 19011KT
                       P6SM -RA OVC018 FM110200 19014G23KT 6SM
                       -RA BR OVC014 WS020/18040KT FM110700 19022G32KT
                       6SM RA BR OVC011 FM111500 20018G28KT 6SM
                       -SHRA BR OVC014=
202112101127 TAF KSEA 101127Z 1012/1118 18010KT P6SM BKN015 BKN035 FM102100
                       19011KT P6SM -RA OVC018 FM110200 19014G23KT
                       6SM -RA BR OVC014 WS020/18040KT FM110700
                       19022G32KT 6SM RA BR OVC011 FM111500 20018G28KT
                       6SM -SHRA BR OVC014=
202112100829 KSEA 100829Z 1008/1112 18007KT P6SM BKN013 BKN050 FM102000 19008KT
                       P6SM -RA OVC015 FM110200 19014G23KT 5SM
                       -RA OVC010=
202112100520 TAF KSEA 100520Z 1006/1112 15007KT P6SM FEW050 SCT120 FM101200
                       19004KT P6SM BKN050 FM102000 19008KT P6SM
                       -RA OVC015 FM110200 19014G23KT 5SM -RA OVC010=
202112100302 KSEA 100302Z 1003/1106 18004KT P6SM SCT040 SCT150 FM100600 19006KT
                       P6SM OVC015 FM102000 19008KT P6SM -RA OVC015
                       FM110200 19014G23KT 5SM -RA OVC010=
202112092320 TAF KSEA 092320Z 1000/1106 20006KT P6SM BKN020 BKN080
                      TEMPO 1000/1004 SCT020 BKN080 FM100600 19006KT
                       P6SM OVC015 FM102000 19008KT P6SM -RA OVC015
                       FM110200 19014G23KT 5SM -RA OVC010=
202112092101 KSEA 092101Z 0921/1024 22011KT P6SM BKN017 OVC025 FM100600 19006KT
                       P6SM OVC015 FM102000 19008KT P6SM -RA OVC015=
202112091723 TAF KSEA 091723Z 0918/1024 20010G18KT P6SM BKN010 OVC016 FM092200
                       22007KT P6SM -SHRA BKN022 OVC035 FM100600
                       19006KT P6SM VCSH OVC017 FM101200 18006KT
                       P6SM OVC012 FM102000 19008KT P6SM -RA OVC015=
202112091401 KSEA 091401Z 0914/1018 20010KT P6SM OVC012 FM091600 20008KT P6SM
                       -SHRA OVC015 FM092200 22007KT P6SM -SHRA
                       BKN022 OVC035 FM100600 19006KT P6SM VCSH
                       OVC017 FM101200 18006KT P6SM OVC012=
202112091132 TAF KSEA 091132Z 0912/1018 20008KT P6SM OVC015 FM091600 20006KT
                       P6SM -SHRA OVC015 FM092200 22007KT P6SM
                       -SHRA BKN022 OVC035 FM100600 19006KT P6SM
                       VCSH OVC017 FM101200 18006KT P6SM OVC012=
202112090859 KSEA 090859Z 0909/1012 18008KT P6SM OVC015 FM091200 20008KT P6SM
                       BKN020 OVC030 FM091500 20006KT P6SM VCSH
                       OVC018=
202112090520 TAF KSEA 090520Z 0906/1012 24008KT P6SM BKN020 BKN040
                      TEMPO 0908/0912 BKN020 FM091200 20008KT P6SM
                       BKN020 OVC030 FM091500 20006KT P6SM VCSH
                       OVC018=
202112090300 KSEA 090300Z 0903/1006 21007KT P6SM VCSH SCT020 SCT090 FM090600
                       20012KT P6SM VCSH BKN020 OVC030 FM091400
                       20008KT P6SM BKN020 OVC050=
202112082334 TAF KSEA 082334Z 0900/1006 22010KT P6SM VCSH SCT035 SCT100 FM090600
                       20012KT P6SM VCSH BKN020 OVC030 FM091400
                       20008KT P6SM BKN020 OVC050=
202112082124 KSEA 082124Z 0821/0924 22010KT P6SM VCSH FEW018 BKN030 BKN080 FM082300
                       22012KT P6SM SCT025 BKN040 FM090600 20012KT
                       P6SM BKN020 OVC030 FM091600 20008KT P6SM
                       BKN030 OVC050=
202112081800 TAF KSEA 081800Z 0818/0924 21008KT P6SM VCSH BKN020 OVC050 FM081900
                       22012KT P6SM VCSH SCT015 BKN030 FM082300
                       22012KT P6SM SCT025 BKN040 FM090600 20012KT
                       P6SM BKN020 OVC030 FM091600 20008KT P6SM
                       BKN030 OVC050=
202112081656 KSEA 081656Z 0817/0918 21008KT P6SM -SHRA BKN020 OVC050 FM081800
                       22012KT P6SM VCSH SCT015 BKN030 FM082300
                       22012KT P6SM SCT025 BKN040 FM090600 20012KT
                       P6SM BKN020 OVC030=
202112081438 KSEA 081438Z 0815/0918 22012G20KT P6SM -SHRA BKN015 OVC025 FM082000
                       22012KT P6SM VCSH SCT015 BKN030 FM082300
                       22012KT P6SM SCT025 BKN040 FM090600 20012KT
                       P6SM BKN020 OVC030=
202112081139 TAF KSEA 081139Z 0812/0918 20018G28KT P6SM BKN020 OVC050 FM081700
                       22014G24KT P6SM -SHRA BKN015 OVC025 FM082100
                       22012G20KT P6SM VCSH SCT015 BKN030 FM082300
                       22012KT P6SM SCT025 BKN040 FM090600 20012KT
                       P6SM BKN020 OVC030=
202112080834 KSEA 080834Z 0809/0912 19012G20KT P6SM BKN022 OVC035 FM081400 24020G30KT
                       5SM -RA BKN012 OVC020 FM081800 24012G20KT
                       P6SM VCSH BKN030 FM082200 21012KT P6SM SCT025
                       BKN040 FM090600 21012KT P6SM BKN022 OVC035=
202112080520 TAF KSEA 080520Z 0806/0912 19006KT 6SM -RA BR BKN004 BKN009 OVC060
                       FM080700 20015G25KT 4SM -RA BR BKN004 OVC010
                       FM081200 21020G30KT 5SM -RA BKN012 OVC020
                       FM081800 23012G20KT P6SM VCSH BKN030=
202112080401 KSEA 080401Z 0804/0906 20006KT 3SM -RA BR OVC002 FM080600 20015G25KT
                       P6SM -RA BKN005 OVC010 FM080900 21015G25KT
                       6SM -RA BKN012=
202112080400 KSEA 080400Z 0804/0906 20006KT 3SM -RA BR OVC002 FM080600 20015G25KT
                       P6SM BKN005 OVC010 FM080900 21015G25KT 6SM
                       -RA BKN012=
202112080208 KSEA 080208Z 0802/0906 17007KT P6SM FEW005 OVC035 FM080600 20015G25KT
                       P6SM SCT005 OVC010 FM080900 21015G25KT 6SM
                       -RA BKN012=
202112072320 TAF KSEA 072320Z 0800/0906 19009KT 5SM BR OVC005 FM080600 20015G25KT
                       P6SM SCT005 OVC010 FM080900 21015G25KT 6SM
                       -RA BKN012=
202112072101 KSEA 072101Z 0721/0824 20005KT 2SM BR SCT003 OVC005 FM080000 21005KT
                       4SM BR OVC007 FM080600 20015G25KT 6SM BR
                       SCT005 OVC010=
202112071720 TAF KSEA 071720Z 0718/0824 14003KT 1/2SM FG OVC001 FM071900 14005KT
                       4SM BR SCT003 OVC005 FM072200 17005KT 6SM
                       BR OVC012 FM080600 20015G25KT 6SM BR SCT005
                       OVC010=
202112071646 KSEA 071646Z 0717/0818 14003KT 1/4SM FG OVC001 FM071800 14005KT
                       4SM BR SCT006 OVC009 FM072200 17005KT 6SM
                       BR OVC015 FM080600 20015G23KT 6SM BR SCT005
                       OVC010=
202112071413 KSEA 071413Z 0714/0818 35004KT 1/4SM FG OVC001 FM071700 12005KT
                       4SM BR SCT006 OVC009 FM072200 17005KT 6SM
                       BR OVC015 FM080600 20015G23KT 6SM BR SCT005
                       OVC010=
202112071315 KSEA 071315Z 0713/0818 35004KT 1/2SM FG OVC001 FM071700 12005KT
                       4SM BR SCT006 OVC009 FM072200 17005KT 6SM
                       BR OVC015 FM080600 20015G23KT 6SM BR SCT005
                       OVC010=
202112071140 TAF KSEA 071140Z 0712/0818 VRB03KT 3SM -DZ BR OVC002 FM071700 12005KT
                       4SM BR SCT006 OVC009 FM072200 17005KT 6SM
                       BR OVC015 FM080600 20015G23KT 6SM BR SCT005
                       OVC010=
202112070902 KSEA 070902Z 0709/0812 VRB03KT 1SM -DZ BR OVC002 FM071700 18006KT
                       P6SM SCT008 BKN015=
202112070520 TAF KSEA 070520Z 0706/0812 VRB03KT 2SM -DZ BR OVC005 FM071700 18006KT
                       P6SM SCT008 BKN015=
202112070245 KSEA 070245Z 0703/0806 06004KT 1SM -DZ BR OVC003 FM070600 15005KT
                       P6SM BKN008 OVC015 FM071700 18006KT P6SM
                       SCT008 BKN015=
202112062320 TAF KSEA 062320Z 0700/0806 14004KT 4SM BR OVC006
                      TEMPO 0700/0704 2SM -DZ BR OVC003 FM070600
                       15005KT P6SM BKN008 OVC015 FM071700 18006KT
                       P6SM SCT008 BKN015=
202112062216 KSEA 062216Z 0622/0724 00000KT 3SM BR OVC006
                      TEMPO 0622/0702 1SM -DZ BR OVC003 FM071000
                       15005KT P6SM BKN008 OVC015 FM071700 18006KT
                       P6SM SCT008 BKN015 BKN040=
202112061958 KSEA 061958Z 0620/0724 18006KT 3SM BR OVC010
                      TEMPO 0620/0623 1SM -DZ BR OVC004 FM071000
                       18006KT P6SM BKN008 OVC015 FM071700 18006KT
                       P6SM SCT008 BKN015 BKN040=
202112061800 KSEA 061800Z 0618/0724 20008KT 6SM BR SCT003 OVC015
                      TEMPO 0618/0621 3SM -DZ BR BKN003 OVC015
                       FM070400 18006KT 5SM BR OVC005 FM071000
                       18006KT P6SM BKN008 OVC015 FM071700 18006KT
                       P6SM SCT008 BKN015 BKN040=
202112061720 TAF KSEA 061720Z 0618/0724 20010KT P6SM SCT005 OVC022
                      TEMPO 0618/0622 3SM -RA BR BKN005 OVC015
                       FM070400 18006KT 5SM BR OVC005 FM071000
                       18006KT P6SM BKN008 OVC015 FM071700 18006KT
                       P6SM SCT008 BKN015 BKN040=
202112061501 KSEA 061501Z 0615/0718 12005KT 6SM -RASN BR OVC015 FM061900 14004KT
                       4SM -RA BR OVC008 FM062200 13005KT 4SM BR
                       VCSH OVC010 FM070600 VRB03KT 3SM BR OVC005=
202112061324 KSEA 061324Z 0613/0718 16006KT P6SM -RA SCT040 BKN050 FM061500
                       12005KT 6SM -RASN BR OVC015 FM061900 14004KT
                       4SM -RA BR OVC008 FM062200 13005KT 4SM BR
                       VCSH OVC010 FM070600 VRB03KT 3SM BR OVC005=
202112061134 TAF KSEA 061134Z 0612/0718 14007KT P6SM -RA SCT040 BKN050 FM061300
                       12005KT 6SM -RASN BR OVC015 FM061900 14004KT
                       4SM -RA BR OVC008 FM062200 13005KT 4SM BR
                       VCSH OVC010 FM070600 VRB03KT 3SM BR OVC005=
202112060901 KSEA 060901Z 0609/0712 14007KT P6SM -RA SCT040 BKN050 FM061300
                       12005KT 6SM -RASN BR OVC015 FM061900 14004KT
                       4SM -RA BR OVC008 FM062200 13005KT 4SM BR
                       VCSH OVC010 FM070600 VRB03KT 3SM BR OVC005=
202112060520 TAF KSEA 060520Z 0606/0712 06003KT P6SM VCSH OVC100 FM060900 08004KT
                       P6SM -RA OVC040 FM061300 12005KT 6SM -RASN
                       BR OVC015 FM061900 14004KT 4SM -RA BR OVC008
                       FM062200 13005KT 4SM BR VCSH OVC010 FM070600
                       VRB03KT 3SM BR OVC005=
202112060302 KSEA 060302Z 0603/0706 04007KT P6SM SCT040 BKN100 FM060700 VRB03KT
                       P6SM VCSH BKN040 OVC100 FM060900 12004KT
                       P6SM -RA OVC040 FM061600 12005KT 4SM -RA
                       BR OVC015 FM062000 14004KT 4SM BR VCSH OVC010=
202112052320 TAF KSEA 052320Z 0600/0706 35006KT P6SM SCT040 BKN200 FM060100
                       VRB03KT P6SM SCT040 BKN100 FM060700 VRB03KT
                       P6SM VCSH BKN040 OVC100 FM060900 12004KT
                       P6SM -RA OVC040 FM061600 12005KT 4SM -RA
                       BR OVC015 FM062000 14004KT 4SM BR VCSH OVC010=
202112052102 KSEA 052102Z 0521/0624 35006KT P6SM SCT060 SCT200 FM060100 VRB03KT
                       P6SM BKN100 FM060800 VRB03KT P6SM VCSH BKN060
                       OVC100 FM060900 12004KT P6SM -RA OVC040
                       FM061600 12005KT P6SM -RA OVC025=
202112051720 TAF KSEA 051720Z 0518/0624 06005KT P6SM FEW010 SCT050 BKN200 FM051900
                       08006KT P6SM SCT050 SCT200 FM052300 VRB03KT
                       P6SM BKN100 FM060800 VRB03KT P6SM VCSH BKN060
                       OVC100 FM060900 12004KT P6SM -RA OVC040
                       FM061600 12005KT P6SM -RA OVC025=
202112051401 KSEA 051401Z 0514/0618 06005KT P6SM SCT020 BKN045 FM051800 08006KT
                       P6SM SCT028 SCT050 FM052300 VRB03KT P6SM
                       BKN150 FM060800 VRB03KT P6SM VCSH BKN060
                       OVC100 FM060900 12004KT P6SM -RA OVC040=
202112051136 TAF KSEA 051136Z 0512/0618 10004KT P6SM SCT025 SCT060 FM051800
                       08006KT P6SM SCT028 SCT040 FM052300 VRB03KT
                       P6SM BKN150 FM060800 VRB03KT P6SM VCSH BKN060
                       OVC100 FM060900 12004KT P6SM -RA OVC040=
202112050906 KSEA 050906Z 0509/0612 10003KT P6SM SCT050 FM051200 10004KT P6SM
                       BKN025 BKN040 FM051800 08006KT P6SM SCT028
                       SCT040 FM052300 VRB03KT P6SM BKN150 FM060800
                       VRB03KT P6SM VCSH BKN060 OVC100 FM061100
                       12004KT P6SM -RA OVC040=
202112050520 TAF KSEA 050520Z 0506/0612 04005KT P6SM VCSH BKN020 BKN040 FM051800
                       08006KT P6SM SCT028 SCT040 FM052300 VRB03KT
                       P6SM BKN150 FM060800 VRB03KT P6SM VCSH BKN060
                       OVC100 FM061100 12004KT P6SM -RA OVC040=
202112050254 KSEA 050254Z 0503/0606 02010KT P6SM VCSH SCT003 OVC010 FM051000
                       VRB03KT P6SM OVC017 FM051700 VRB03KT P6SM
                       BKN022=
202112042320 TAF KSEA 042320Z 0500/0606 36010KT P6SM -RA SCT008 OVC030
                      TEMPO 0500/0503 3SM -RA BR BKN008 OVC020
                       FM050300 36008KT P6SM VCSH BKN020 OVC040
                       FM051000 VRB03KT P6SM OVC017 FM051700 VRB03KT
                       P6SM BKN022=
202112042224 KSEA 042224Z 0422/0524 34010KT P6SM -RA SCT008 BKN015 OVC025
                      TEMPO 0422/0501 3SM -RA BR BKN008 OVC015
                       FM050200 36008KT P6SM VCSH BKN015 OVC030
                       FM051000 VRB03KT P6SM BKN015 FM051700 21005KT
                       P6SM BKN025=
202112042124 KSEA 042124Z 0421/0524 VRB04KT 5SM -RA BR SCT005 OVC012
                      TEMPO 0421/0423 3SM -RA BR BKN005 OVC010
                       FM050200 36008KT P6SM VCSH BKN012 OVC025
                       FM051000 VRB03KT P6SM BKN015 FM051700 21005KT
                       P6SM BKN025=
202112042106 KSEA 042106Z 0421/0524 VRB04KT 5SM -RA BR SCT005 OVC012
                      TEMPO 0421/0423 3SM -RA BR BKN005 OVC010
                       FM050200 18006KT P6SM VCSH BKN012 OVC025
                       FM051000 18005KT P6SM BKN015 FM051700 21005KT
                       P6SM BKN025=
202112041720 TAF KSEA 041720Z 0418/0524 VRB04KT P6SM -RA SCT010 OVC025
                      TEMPO 0418/0422 3SM -RA BR BKN010 OVC025
                       FM050200 18006KT P6SM VCSH SCT012 BKN025
                       FM051000 18005KT P6SM BKN015 FM051700 21005KT
                       P6SM BKN025=
202112041458 KSEA 041458Z 0415/0518 VRB03KT 4SM -RA SCT015 OVC025 FM041800 VRB03KT
                       3SM -RA BR SCT006 OVC010 FM050200 19006KT
                       P6SM SCT012 BKN020 OVC035=
202112041138 TAF KSEA 041138Z 0412/0518 36004KT P6SM OVC050 FM041600 VRB03KT
                       P6SM -RA OVC025 FM041800 VRB03KT 5SM -RA
                       BR SCT006 OVC012 FM050200 19006KT P6SM SCT012
                       BKN020 OVC035=
202112040913 KSEA 040913Z 0409/0512 36004KT P6SM OVC090 FM041300 36004KT P6SM
                       VCSH OVC050 FM041500 VRB03KT P6SM -RA OVC030
                       FM041700 05006KT 5SM -RA BR SCT009 OVC015
                       FM042300 15006KT P6SM -SHRA BKN025 FM050200
                       17005KT P6SM VCSH BKN040=
202112040520 TAF KSEA 040520Z 0406/0512 02009KT P6SM OVC120 FM041000 03006KT
                       P6SM VCSH OVC050 FM041400 VRB03KT P6SM -RA
                       OVC030 FM041700 05006KT 5SM -RA BR SCT009
                       OVC015 FM042300 15006KT P6SM -SHRA BKN025
                       FM050200 17005KT P6SM VCSH BKN040=
202112040251 KSEA 040251Z 0403/0506 02009KT P6SM OVC100 FM041000 00000KT P6SM
                       OVC050 FM041500 VRB03KT P6SM -RA OVC025
                       FM041700 02006KT 5SM -RA BR OVC015 FM042300
                       34010KT P6SM -SHRA BKN020 BKN040=
202112032320 TAF KSEA 032320Z 0400/0506 02012KT P6SM SCT015 BKN150 FM040600
                       02006KT P6SM OVC100 FM041000 00000KT P6SM
                       OVC050 FM041500 VRB03KT P6SM -RA OVC025
                       FM041700 02006KT 5SM -RA BR OVC015 FM042300
                       34010KT P6SM -SHRA BKN020 BKN040=
202112032103 KSEA 032103Z 0321/0424 01010KT P6SM FEW012 BKN150 FM040000 36008KT
                       P6SM SCT150 FM040600 02006KT P6SM BKN120
                       FM041000 00000KT P6SM OVC060 FM041500 VRB03KT
                       P6SM -RA OVC025 FM041700 02006KT 6SM -RA
                       BR OVC014=
202112031720 TAF KSEA 031720Z 0318/0424 05007KT P6SM OVC150 FM040300 02006KT
                       P6SM OVC100 FM041200 09004KT P6SM -RA OVC025
                       FM041700 14005KT 6SM -RA BR OVC014=
202112031303 KSEA 031303Z 0313/0418 02008KT P6SM FEW005 BKN200 FM031700 01007KT
                       P6SM BKN120 OVC200 FM040300 02006KT P6SM
                       OVC100 FM041200 09004KT P6SM -RA OVC025
                       FM041700 14005KT 6SM -RA BR OVC014=
202112031120 TAF KSEA 031120Z 0312/0418 02007KT P6SM BCFG SCT005 BKN200
                      TEMPO 0313/0316 2SM BR BKN002 FM031700 01007KT
                       P6SM BKN120 OVC200 FM040300 02006KT P6SM
                       OVC100 FM041200 09004KT P6SM -RA OVC025
                       FM041700 14005KT 6SM -RA BR OVC014=
202112030858 KSEA 030858Z 0309/0412 02007KT P6SM BKN200 FM031200 04005KT P6SM
                       BCFG SCT005 BKN200
                      TEMPO 0312/0316 2SM BR BKN002 FM031700 01007KT
                       P6SM BKN120 OVC200 FM040300 02006KT P6SM
                       OVC080=
202112030520 TAF KSEA 030520Z 0306/0412 02007KT P6SM BKN050 FM031200 04005KT
                       P6SM BCFG SCT005 BKN200
                      TEMPO 0312/0316 2SM BR BKN002 FM031700 01007KT
                       P6SM BKN120 OVC200 FM040300 02006KT P6SM
                       OVC080=
202112030259 KSEA 030259Z 0303/0406 02007KT P6SM BKN050 FM031200 04005KT P6SM
                       BCFG SCT005
                      TEMPO 0312/0316 2SM BR BKN002 FM031700 VRB03KT
                       P6SM OVC200=
202112022320 TAF KSEA 022320Z 0300/0406 02007KT P6SM BKN040 BKN200 FM030600
                       02007KT P6SM SCT040 SCT200 FM031200 04005KT
                       P6SM BCFG SCT005
                      TEMPO 0312/0316 2SM BR BKN002 FM031700 VRB03KT
                       P6SM OVC200=
202112022102 KSEA 022102Z 0221/0324 05006KT P6SM -SHRA OVC035 FM030000 04005KT
                       P6SM BKN040 BKN200 FM030600 04005KT P6SM
                       SCT040 SCT200 FM031200 04005KT P6SM BCFG
                       SCT005
                      TEMPO 0312/0316 2SM BR BKN002 FM031700 VRB03KT
                       P6SM SCT200=
202112021720 TAF KSEA 021720Z 0218/0324 VRB04KT P6SM SCT015 BKN030 BKN200
                      TEMPO 0218/0220 5SM -SHRA BR BKN015 OVC030
                       FM022200 36006KT P6SM SCT040 BKN200 FM030600
                       04005KT P6SM BKN200 FM031200 04005KT P6SM
                       BCFG SCT005
                      TEMPO 0312/0316 2SM BR BKN002 FM031700 VRB03KT
                       P6SM SCT200=
202112021445 KSEA 021445Z 0215/0318 04006KT P6SM VCSH BKN015 OVC030 FM021700
                       36007KT P6SM SCT020 BKN035 FM022100 36008KT
                       P6SM SCT025 BKN050 FM030300 02006KT P6SM
                       FEW050 SCT200 FM031200 04005KT P6SM BCFG
                       SCT005 BKN200=
202112021130 TAF KSEA 021130Z 0212/0318 21007KT P6SM VCSH BKN015 OVC030 FM021800
                       26008KT P6SM SCT020 BKN035 FM022100 32007KT
                       P6SM SCT025 BKN050 FM030300 02006KT P6SM
                       FEW050 SCT200 FM031200 04005KT P6SM BCFG
                       SCT005 BKN200=
202112020905 KSEA 020905Z 0209/0312 21011KT P6SM VCSH OVC017 FM021100 23007KT
                       P6SM VCSH OVC020 FM021700 36010KT P6SM SCT025
                       BKN050 FM030400 04006KT P6SM FEW060 SCT250=
202112020520 TAF KSEA 020520Z 0206/0312 21014KT P6SM VCSH SCT018 OVC040
                      TEMPO 0206/0209 -RA OVC015 FM021100 25007KT
                       P6SM VCSH OVC025 FM021700 36010KT P6SM SCT025
                       BKN050 FM030400 04006KT P6SM FEW060 SCT250=
202112020300 KSEA 020300Z 0203/0306 21015KT P6SM VCSH BKN030 OVC090 FM020600
                       23012KT P6SM -SHRA BKN015 OVC030 FM021100
                       03007KT P6SM VCSH BKN015 OVC025 FM021700
                       36010KT P6SM SCT020 BKN050=
202112012329 TAF KSEA 012329Z 0200/0306 21015G23KT P6SM FEW020 BKN110 BKN250
                       FM020300 21010KT P6SM VCSH BKN025 OVC040
                       FM020600 VRB05KT P6SM -SHRA BKN015 OVC030
                       FM021000 03007KT P6SM VCSH BKN015 OVC025
                       FM021700 36010KT P6SM SCT020 BKN050=
202112012000 KSEA 012000Z 0120/0224 21016G22KT P6SM FEW020 SCT045 BKN110 FM020300
                       21010KT P6SM VCSH BKN025 OVC040 FM020600
                       23009KT P6SM -SHRA BKN015 OVC022 FM021200
                       34005KT P6SM BKN022 OVC035 FM021800 36007KT
                       P6SM BKN050=
202112011734 TAF KSEA 011734Z 0118/0224 19012KT P6SM SCT025 SCT050 BKN100 FM012100
                       20010G18KT P6SM BKN035 OVC060 FM020300 21010KT
                       P6SM VCSH BKN025 OVC040 FM020600 23009KT
                       P6SM -SHRA BKN015 OVC022 FM021200 34005KT
                       P6SM BKN022 OVC035 FM021800 36007KT P6SM
                       BKN050=
202112011407 KSEA 011407Z 0114/0218 21012G22KT P6SM BKN030 OVC080 FM012100 20010G18KT
                       P6SM BKN035 OVC060 FM020300 21010KT P6SM
                       VCSH BKN025 OVC040 FM020900 23009KT P6SM
                       -SHRA BKN015 OVC022 FM021700 34005KT P6SM
                       VCSH BKN022 OVC035=
202112011126 TAF KSEA 011126Z 0112/0218 20014G23KT P6SM BKN025 OVC080 FM012100
                       20010G18KT P6SM BKN035 OVC060 FM020300 21010KT
                       P6SM VCSH BKN025 OVC040 FM020900 23009KT
                       P6SM -SHRA BKN015 OVC022 FM021700 34005KT
                       P6SM VCSH BKN022 OVC035=
202112010900 KSEA 010900Z 0109/0212 21014KT P6SM OVC025 FM011200 18008KT P6SM
                       OVC020 FM011900 20010G18KT P6SM OVC020 FM020400
                       20008KT P6SM VCSH BKN030 OVC050=
202112010520 TAF KSEA 010520Z 0106/0212 21014G24KT P6SM BKN015 OVC090 FM010900
                       19010KT P6SM OVC030 FM011200 18008KT P6SM
                       OVC020 FM011900 20010G18KT P6SM OVC020 FM020400
                       20008KT P6SM VCSH BKN030 OVC050=
202112010251 KSEA 010251Z 0103/0206 20012G20KT P6SM SCT013 BKN070 FM010600 19011KT
                       P6SM OVC020 FM011000 18008KT P6SM OVC020
                       FM012100 20010KT P6SM SCT025 BKN050 FM020400
                       20008KT P6SM VCSH BKN030 OVC050=