##########################################################
# Query made at 02/17/2025 21:21:07 UTC
# Time interval: from 02/01/2021 00:00  to 02/28/2021 23:59  UTC
##########################################################

##########################################################
# KSEA, Seattle, Seattle-Tacoma International Airport (United States)
# WMO index: 72793. WIGOS ID: 0-20000-0-72793
# Latitude 47-27-00N. Longitude 122-17-59W. Altitude 130 m.
##########################################################

###################################
#  METAR/SPECI from KSEA
###################################
202102282353 METAR KSEA 282353Z 19007KT 10SM FEW025 OVC040 11/05 A3024 RMK AO2 SLP247 T01060050 10117 20078 56017=
202102282253 METAR KSEA 282253Z 20010KT 10SM FEW025 BKN042 11/04 A3025 RMK AO2 SLP252 T01110044=
202102282202 SPECI KSEA 282202Z 21008KT 10SM SCT026 BKN042 10/04 A3026 RMK AO2 T01000044=
202102282153 METAR KSEA 282153Z 21008KT 10SM BKN026 OVC042 10/05 A3027 RMK AO2 SLP258 T01000050=
202102282053 METAR KSEA 282053Z 18009KT 10SM OVC022 09/04 A3029 RMK AO2 SLP265 T00940044 58009=
202102281953 METAR KSEA 281953Z 19007KT 10SM OVC020 09/04 A3031 RMK AO2 SLP271 T00890044=
202102281853 METAR KSEA 281853Z 16007KT 9SM OVC021 08/04 A3031 RMK AO2 SLP273 T00830044=
202102281753 METAR KSEA 281753Z 18008KT 10SM OVC018 08/04 A3032 RMK AO2 SLP274 T00780039 10078 20056 51008=
202102281653 METAR KSEA 281653Z 16008KT 10SM OVC018 07/04 A3032 RMK AO2 SLP274 T00720039=
202102281553 METAR KSEA 281553Z 19010KT 10SM OVC017 07/04 A3030 RMK AO2 SLP270 T00670039=
202102281453 METAR KSEA 281453Z 18011KT 10SM OVC019 06/03 A3029 RMK AO2 SLP266 T00610033 50003=
202102281353 METAR KSEA 281353Z 20008KT 10SM OVC014 06/04 A3029 RMK AO2 SLP267 T00610039=
202102281253 METAR KSEA 281253Z 19010KT 10SM OVC014 06/04 A3029 RMK AO2 SLP264 T00560039=
202102281153 METAR KSEA 281153Z 18009KT 10SM SCT007 OVC013 06/03 A3028 RMK AO2 DZE37 SLP263 P0000 60001 70001 T00560033 10067 20050 58006=
202102281137 SPECI KSEA 281137Z 18009KT 10SM SCT007 OVC013 05/03 A3028 RMK AO2 DZE37 P0000 T00500033=
202102281110 SPECI KSEA 281110Z 19008KT 4SM -DZ BR OVC009 05/03 A3029 RMK AO2 P0000 T00500033=
202102281053 METAR KSEA 281053Z 19009KT 3SM -DZ BR OVC011 05/03 A3029 RMK AO2 SLP265 P0000 T00500033=
202102280953 METAR KSEA 280953Z 17008KT 5SM -DZ BR OVC013 05/03 A3030 RMK AO2 RAB0855E11DZB50 SLP270 P0001 T00500033=
202102280933 SPECI KSEA 280933Z 17008KT 10SM OVC013 06/03 A3030 RMK AO2 RAB0855E11 P0001 T00560033=
202102280853 METAR KSEA 280853Z 17008KT 7SM OVC015 06/03 A3030 RMK AO2 RAE38 SLP269 P0000 60000 T00560033 50000=
202102280753 METAR KSEA 280753Z 20008KT 7SM -RA OVC016 06/02 A3030 RMK AO2 RAB38 SLP270 P0000 T00560022 400940000=
202102280653 METAR KSEA 280653Z 21013KT 10SM BKN020 OVC025 06/02 A3030 RMK AO2 SLP268 T00610022=
202102280553 METAR KSEA 280553Z 21011KT 10SM BKN027 OVC070 07/01 A3030 RMK AO2 SLP269 T00670011 10089 20067 53007=
202102280538 SPECI KSEA 280538Z 21010KT 10SM BKN027 BKN039 OVC070 07/01 A3030 RMK AO2 T00670011=
202102280453 METAR KSEA 280453Z 22012KT 10SM FEW026 OVC070 07/01 A3028 RMK AO2 SLP263 T00670011=
202102280353 METAR KSEA 280353Z 21010KT 10SM FEW037 OVC070 07/01 A3028 RMK AO2 SLP264 T00720006=
202102280253 METAR KSEA 280253Z 21008KT 10SM FEW040 BKN080 OVC200 07/M01 A3028 RMK AO2 SLP262 T00721006 53001=
202102280153 METAR KSEA 280153Z 21004KT 10SM SCT041 BKN090 OVC200 07/01 A3027 RMK AO2 SLP259 T00720006=
202102280053 METAR KSEA 280053Z 22004KT 10SM FEW041 SCT090 BKN250 08/M01 A3027 RMK AO2 SLP259 T00781006=
202102272353 METAR KSEA 272353Z 24008KT 10SM SCT040 BKN250 09/M01 A3027 RMK AO2 SLP260 T00891006 10094 20056 56002=
202102272253 METAR KSEA 272253Z 20008KT 10SM FEW035 SCT050 SCT220 09/00 A3028 RMK AO2 SLP261 T00890000=
202102272153 METAR KSEA 272153Z 18005KT 10SM FEW032 SCT050 BKN220 08/M01 A3027 RMK AO2 SLP260 T00831006=
202102272053 METAR KSEA 272053Z 17005KT 10SM SCT032 BKN050 08/00 A3028 RMK AO2 SLP262 T00830000 50008=
202102271953 METAR KSEA 271953Z VRB03KT 10SM FEW025 BKN036 07/01 A3028 RMK AO2 SLP264 T00670006=
202102271919 SPECI KSEA 271919Z 00000KT 10SM SCT025 BKN036 06/03 A3027 RMK AO2 T00610028=
202102271853 METAR KSEA 271853Z 29003KT 10SM BKN022 BKN200 06/03 A3027 RMK AO2 SLP260 T00560028=
202102271839 SPECI KSEA 271839Z 00000KT 10SM BKN020 BKN200 06/01 A3027 RMK AO2 T00610011=
202102271753 METAR KSEA 271753Z 20003KT 10SM SCT032 BKN220 06/04 A3026 RMK AO2 SLP255 T00560039 10056 20000 51021=
202102271653 METAR KSEA 271653Z 00000KT 8SM SCT004 BKN030 04/02 A3025 RMK AO2 SLP252 T00390022=
202102271553 METAR KSEA 271553Z 14003KT 8SM FEW001 SCT045 02/01 A3021 RMK AO2 SLP240 FG BANK W-N T00170011=
202102271538 SPECI KSEA 271538Z 18003KT 8SM FEW001 SCT045 01/01 A3021 RMK AO2 T00110006=
202102271453 METAR KSEA 271453Z 18003KT 9SM FEW045 01/00 A3019 RMK AO2 SLP233 T00060000 51026=
202102271353 METAR KSEA 271353Z 00000KT 10SM FEW045 01/01 A3017 RMK AO2 SLP226 T00110006=
202102271253 METAR KSEA 271253Z 14006KT 10SM SCT045 01/00 A3014 RMK AO2 SLP216 T00110000=
202102271153 METAR KSEA 271153Z 12005KT 9SM SCT047 02/01 A3011 RMK AO2 SLP206 60002 70013 T00170006 10039 20011 51025=
202102271053 METAR KSEA 271053Z 11006KT 10SM SCT080 02/01 A3009 RMK AO2 SLP197 T00170006=
202102270953 METAR KSEA 270953Z 16004KT 10SM FEW070 BKN080 02/01 A3008 RMK AO2 SLP194 T00220011=
202102270853 METAR KSEA 270853Z 12008KT 10SM SCT036 SCT043 BKN075 03/01 A3004 RMK AO2 SLP180 60002 T00280011 53017=
202102270753 METAR KSEA 270753Z 17007KT 10SM FEW045 BKN070 02/01 A3001 RMK AO2 SLP170 T00220011 401060022=
202102270653 METAR KSEA 270653Z 13009KT 10SM SCT036 BKN047 OVC085 04/02 A3000 RMK AO2 RAE38 SLP166 P0002 T00390017=
202102270609 SPECI KSEA 270609Z 09008KT 10SM -RA FEW017 SCT030 OVC060 04/02 A2999 RMK AO2 P0002 T00390017=
202102270553 METAR KSEA 270553Z 07009KT 5SM -RA BR SCT016 BKN024 OVC060 03/02 A2999 RMK AO2 SLP164 RAB14GRB18E34 P0007 60010 T00330017 10094 20033 53017=
202102270534 SPECI KSEA 270534Z 06008KT 7SM -RA SCT016 BKN023 OVC031 03/01 A2999 RMK AO2 P0007 T00330011=
202102270527 SPECI KSEA 270527Z 04008KT 4SM -GRRA FEW014 BKN021 OVC031 03/01 A2998 RMK AO2 RAB14GRB18 GR 1/4 P0007 T00330006=
202102270518 SPECI KSEA 270518Z 35007KT 4SM +GRRA FEW019 BKN029 OVC080 04/01 A2998 RMK AO2 RAB14GRB18 GR LESS THAN 1/4 P0000 T00440011=
202102270453 METAR KSEA 270453Z 19007KT 10SM FEW029 SCT050 OVC080 05/01 A2994 RMK AO2 RAB11E29 SLP149 P0000 T00500011=
202102270353 METAR KSEA 270353Z 21007KT 10SM SCT036 BKN050 06/02 A2994 RMK AO2 SLP147 T00560022=
202102270253 METAR KSEA 270253Z 12008KT 10SM FEW040 SCT080 SCT250 05/02 A2994 RMK AO2 SLP146 60003 T00500017 51004=
202102270153 METAR KSEA 270153Z 10006KT 10SM FEW040 SCT075 BKN250 06/02 A2993 RMK AO2 RAE14 SLP145 P0001 T00560017=
202102270053 METAR KSEA 270053Z 05013G17KT 10SM -RA SCT037 BKN080 BKN250 06/02 A2994 RMK AO2 RAB50 SLP145 P0002 T00560017=
202102262353 METAR KSEA 262353Z 21011G18KT 10SM SCT042 BKN075 09/01 A2992 RMK AO2 RAB05E14 SLP141 SHRA NW-N P0000 60000 T00940011 10106 20056 58022=
202102262253 METAR KSEA 262253Z 20015G21KT 10SM SCT065 BKN110 09/01 A2994 RMK AO2 SLP148 T00890006=
202102262153 METAR KSEA 262153Z 20010KT 10SM BKN085 10/M02 A2997 RMK AO2 SLP156 T01001022=
202102262053 METAR KSEA 262053Z 19012KT 10SM SCT080 09/00 A2999 RMK AO2 SLP163 T00890000 58004=
202102261953 METAR KSEA 261953Z 13007KT 10SM FEW025 BKN080 08/03 A3001 RMK AO2 SLP172 T00830028=
202102261853 METAR KSEA 261853Z 18007KT 10SM FEW020 BKN075 07/02 A3002 RMK AO2 SLP173 T00720022=
202102261753 METAR KSEA 261753Z 19007KT 10SM FEW020 BKN080 06/02 A3000 RMK AO2 SLP168 60001 T00610022 10061 20039 51029=
202102261653 METAR KSEA 261653Z 15009KT 10SM FEW015 SCT075 BKN200 04/02 A2999 RMK AO2 SLP162 T00440017=
202102261553 METAR KSEA 261553Z 21006KT 10SM FEW015 SCT080 04/01 A2994 RMK AO2 SLP148 T00440011=
202102261453 METAR KSEA 261453Z 20005KT 10SM FEW015 BKN075 04/02 A2992 RMK AO2 SLP139 60001 T00390022 53022=
202102261353 METAR KSEA 261353Z 24007KT 10SM FEW014 SCT070 BKN110 04/02 A2989 RMK AO2 RAE1256 SLP131 P0000 T00390022=
202102261317 SPECI KSEA 261317Z 23006KT 10SM SCT014 BKN041 BKN080 04/03 A2987 RMK AO2 RAE1256 P0000 T00440028=
202102261253 METAR KSEA 261253Z 24006KT 10SM -RA BKN014 05/03 A2986 RMK AO2 RAE16B47 SLP120 P0001 T00500028=
202102261204 SPECI KSEA 261204Z 22010KT 5SM -RA OVC014 05/02 A2983 RMK AO2 PRESFR P0001 T00500022=
202102261153 METAR KSEA 261153Z 24008KT 8SM -RA OVC015 06/02 A2985 RMK AO2 RAB49 SLP116 P0000 60000 70012 T00560022 10061 20056 56021=
202102261053 METAR KSEA 261053Z 25010G20KT 10SM OVC015 06/03 A2987 RMK AO2 PK WND 26026/0957 SLP122 T00610028=
202102260953 METAR KSEA 260953Z 22015G21KT 10SM OVC016 06/02 A2989 RMK AO2 PK WND 21028/0907 SLP129 T00610022=
202102260853 METAR KSEA 260853Z 22018G24KT 10SM BKN019 OVC085 06/03 A2991 RMK AO2 PK WND 23030/0813 SLP137 T00610028 56025=
202102260753 METAR KSEA 260753Z 21021G30KT 10SM OVC018 06/03 A2993 RMK AO2 PK WND 22032/0713 SLP143 T00610028 400890033=
202102260653 METAR KSEA 260653Z 22021G32KT 10SM OVC017 06/03 A2996 RMK AO2 PK WND 20032/0651 SLP154 T00610028=
202102260553 METAR KSEA 260553Z 22018G30KT 10SM BKN017 06/02 A2999 RMK AO2 PK WND 20030/0545 SLP162 T00610022 10089 20056 58021=
202102260453 METAR KSEA 260453Z 21014G23KT 10SM BKN017 BKN250 06/03 A3001 RMK AO2 PK WND 23026/0414 SLP170 T00610028=
202102260353 METAR KSEA 260353Z 21011G21KT 10SM BKN015 BKN250 06/02 A3003 RMK AO2 SLP178 T00560022=
202102260253 METAR KSEA 260253Z 24011G18KT 10SM BKN018 BKN140 06/02 A3005 RMK AO2 SLP185 T00560022 55009=
202102260153 METAR KSEA 260153Z 23010KT 10SM SCT019 BKN090 BKN140 07/02 A3005 RMK AO2 SLP183 T00670022=
202102260110 SPECI KSEA 260110Z 21016G21KT 10SM BKN019 BKN080 07/03 A3006 RMK AO2 T00720028=
202102260053 METAR KSEA 260053Z 23010G20KT 10SM SCT023 BKN080 BKN100 07/03 A3007 RMK AO2 SLP190 T00720028=
202102260012 SPECI KSEA 260012Z 25014KT 10SM SCT024 BKN110 BKN200 08/02 A3007 RMK AO2 T00780022=
202102252353 METAR KSEA 252353Z 25015G23KT 10SM BKN024 BKN110 BKN200 08/03 A3008 RMK AO2 PK WND 22027/2254 SLP193 T00830028 10089 20067 53002=
202102252318 SPECI KSEA 252318Z 24016G26KT 10SM BKN022 BKN120 BKN200 08/03 A3007 RMK AO2 PK WND 22027/2254 T00780028=
202102252253 METAR KSEA 252253Z 22020G30KT 10SM FEW022 SCT120 BKN200 08/03 A3006 RMK AO2 PK WND 22032/2220 SLP186 T00780028=
202102252153 METAR KSEA 252153Z 23014G24KT 10SM SCT022 BKN110 08/03 A3005 RMK AO2 SLP186 T00830028=
202102252148 SPECI KSEA 252148Z 22020G24KT 10SM SCT022 BKN110 08/03 A3006 RMK AO2=
202102252053 METAR KSEA 252053Z 21012KT 10SM BKN019 BKN110 07/03 A3007 RMK AO2 PK WND 21030/2012 SLP191 T00720033 55015=
202102252045 SPECI KSEA 252045Z 21011G21KT 10SM BKN019 BKN110 07/03 A3007 RMK AO2 PK WND 21030/2012 T00720028=
202102252017 SPECI KSEA 252017Z 21017G30KT 10SM SCT017 BKN130 07/03 A3007 RMK AO2 PK WND 21030/2012 T00720033=
202102251953 METAR KSEA 251953Z 21016KT 10SM BKN017 BKN025 08/04 A3006 RMK AO2 PK WND 19029/1856 SLP187 T00780039=
202102251942 SPECI KSEA 251942Z 21017G25KT 10SM BKN016 BKN025 07/04 A3007 RMK AO2 PK WND 19029/1856 T00720039=
202102251853 METAR KSEA 251853Z 20018G24KT 10SM BKN014 OVC021 07/04 A3008 RMK AO2 PK WND 22026/1818 SLP195 T00670044=
202102251753 METAR KSEA 251753Z 20017G26KT 10SM BKN012 07/06 A3012 RMK AO2 PK WND 20026/1752 SLP207 60012 T00670056 10067 20033 50005=
202102251653 METAR KSEA 251653Z 20011KT 10SM OVC010 06/05 A3013 RMK AO2 SLP210 T00610050=
202102251637 SPECI KSEA 251637Z 20011G19KT 10SM OVC010 06/04 A3013 RMK AO2 T00610039=
202102251553 METAR KSEA 251553Z 21012G20KT 10SM OVC009 06/04 A3012 RMK AO2 SLP207 T00560039=
202102251453 METAR KSEA 251453Z 20014G22KT 9SM OVC009 04/03 A3010 RMK AO2 RAE45 SLP203 P0002 60012 T00440028 56021 $=
202102251353 METAR KSEA 251353Z 20003KT 3SM -RA BR OVC009 04/03 A3013 RMK AO2 SLP212 P0005 T00390033 $=
202102251348 SPECI KSEA 251348Z 00000KT 3SM -RA BR OVC009 04/03 A3013 RMK AO2 P0005 $=
202102251322 SPECI KSEA 251322Z 17004KT 6SM -RA BR OVC011 03/03 A3013 RMK AO2 P0003 T00330028 $=
202102251253 METAR KSEA 251253Z 15008KT 5SM -RA BR BKN008 OVC012 03/02 A3013 RMK AO2 SLP211 P0005 T00330017 $=
202102251153 METAR KSEA 251153Z 17010KT 7SM -RA BKN009 OVC014 03/02 A3016 RMK AO2 SLP223 P0008 60012 70013 T00330022 10056 20033 58043=
202102251146 SPECI KSEA 251146Z 17010KT 7SM -RA BKN009 OVC013 03/02 A3017 RMK AO2 PRESFR P0007 T00330022=
202102251127 SPECI KSEA 251127Z 19010G22KT 8SM -RA OVC013 04/02 A3020 RMK AO2 P0004 T00390017=
202102251053 METAR KSEA 251053Z 18012G21KT 9SM -RA OVC019 04/02 A3022 RMK AO2 SLP242 P0003 T00440017=
202102250953 METAR KSEA 250953Z 22013KT 7SM -RA SCT022 OVC029 05/02 A3026 RMK AO2 RAB36 SLP257 P0001 T00500017=
202102250853 METAR KSEA 250853Z 17008KT 10SM BKN075 OVC090 04/01 A3029 RMK AO2 SLP268 T00440006 58035=
202102250753 METAR KSEA 250753Z 15003KT 10SM FEW055 OVC070 05/01 A3034 RMK AO2 SLP284 T00500006 400780000=
202102250653 METAR KSEA 250653Z 15006KT 10SM OVC080 04/01 A3036 RMK AO2 SLP289 T00440011=
202102250553 METAR KSEA 250553Z 15007KT 10SM OVC110 05/01 A3040 RMK AO2 SLP304 T00500011 10072 20044 58032=
202102250453 METAR KSEA 250453Z 14007KT 10SM BKN110 OVC200 06/01 A3045 RMK AO2 SLP321 T00560006=
202102250353 METAR KSEA 250353Z 17004KT 10SM SCT120 OVC200 05/00 A3047 RMK AO2 SLP328 T00500000=
202102250253 METAR KSEA 250253Z 17004KT 10SM CLR 05/00 A3050 RMK AO2 SLP337 T00500000 56020=
202102250153 METAR KSEA 250153Z 22003KT 10SM FEW180 BKN250 06/M01 A3050 RMK AO2 SLP339 T00561006=
202102250053 METAR KSEA 250053Z 21004KT 10SM FEW026 BKN250 07/M01 A3052 RMK AO2 SLP346 T00671006=
202102242353 METAR KSEA 242353Z 19004KT 10SM FEW026 BKN250 07/M01 A3056 RMK AO2 SLP357 T00721011 10078 20039 58008=
202102242253 METAR KSEA 242253Z 21003KT 10SM FEW024 BKN250 07/01 A3057 RMK AO2 SLP361 T00720006=
202102242153 METAR KSEA 242153Z VRB03KT 10SM SCT021 SCT250 07/01 A3057 RMK AO2 SLP363 T00670006=
202102242058 SPECI KSEA 242058Z 27005KT 10SM SCT018 06/02 A3058 RMK AO2 T00610017=
202102242053 METAR KSEA 242053Z 27003KT 10SM BKN018 06/01 A3058 RMK AO2 SLP365 T00560011 58001=
202102241953 METAR KSEA 241953Z 26004KT 10SM BKN020 05/02 A3059 RMK AO2 SLP369 T00500017=
202102241853 METAR KSEA 241853Z 17006KT 10SM BKN016 BKN024 04/02 A3060 RMK AO2 SLP371 T00440022=
202102241753 METAR KSEA 241753Z 25004KT 10SM FEW003 BKN021 04/02 A3058 RMK AO2 SLP366 60001 T00440022 10056 20006 51014=
202102241748 SPECI KSEA 241748Z 26003KT 10SM FEW003 BKN021 04/02 A3058 RMK AO2=
202102241653 METAR KSEA 241653Z 27003KT 8SM FEW003 SCT022 03/02 A3057 RMK AO2 RAE1558 SLP363 P0000 T00330022 $=
202102241638 SPECI KSEA 241638Z 26003KT 10SM FEW002 SCT022 03/02 A3057 RMK AO2 RAE1558 P0000 T00280022 $=
202102241558 SPECI KSEA 241558Z 31003KT 6SM BCFG FEW001 BKN022 02/02 A3056 RMK AO2 RAE58 P0000 T00220017 $=
202102241553 METAR KSEA 241553Z 31003KT 5SM -RA BR OVC022 03/03 A3055 RMK AO2 SLP357 P0001 T00280028 $=
202102241453 METAR KSEA 241453Z 08005KT 3SM -RA BR FEW001 BKN022 OVC044 02/02 A3054 RMK AO2 TWR VIS 10 RAB40 SLP352 VIS S 3/4 P0000 60000 T00170017 51011 $=
202102241441 SPECI KSEA 241441Z 12005KT 3SM -RA BCFG FEW001 SCT025 OVC044 01/01 A3054 RMK AO2 TWR VIS 10 RAB40 VIS S 3/4 P0000 T00110011 $=
202102241426 SPECI KSEA 241426Z 13005KT 1 1/2SM BCFG SCT001 SCT028 BKN044 01/01 A3054 RMK AO2 VIS S 3/4 T00110006 $=
202102241400 SPECI KSEA 241400Z 14005KT 3/4SM R16L/P6000FT BR SCT001 BKN028 01/01 A3053 RMK AO2 T00060006 $=
202102241353 METAR KSEA 241353Z 13004KT 1/2SM R16L/P6000FT FG BKN001 BKN028 01/01 A3053 RMK AO2 SLP350 T00060006 $=
202102241342 SPECI KSEA 241342Z 13003KT 1/2SM R16L/P6000FT FG BKN001 BKN022 OVC049 01/01 A3053 RMK AO2 T00060006 $=
202102241302 SPECI KSEA 241302Z 00000KT 5SM BR FEW001 BKN029 OVC049 01/01 A3053 RMK AO2 T00110011 $=
202102241253 METAR KSEA 241253Z 00000KT 1/2SM R16L/P6000FT FG BKN001 BKN022 OVC049 01/01 A3053 RMK AO2 SLP347 T00110011 $=
202102241246 SPECI KSEA 241246Z 00000KT 1/2SM R16L/P6000FT FG BKN001 BKN022 OVC049 01/01 A3052 RMK AO2 T00110011 $=
202102241226 SPECI KSEA 241226Z 13006KT 4SM BR SCT001 SCT020 OVC049 02/02 A3051 RMK AO2 T00170017 $=
202102241209 SPECI KSEA 241209Z 13004KT 1/2SM R16L/5500VP6000FT FG SCT001 BKN020 OVC049 02/02 A3051 RMK AO2 T00170017 $=
202102241153 METAR KSEA 241153Z 13004KT 1/4SM R16L/2800VP6000FT FG BKN001 OVC020 02/02 A3051 RMK AO2 SLP341 70036 T00170017 10033 20000 51028 $=
202102241128 SPECI KSEA 241128Z 13005KT 1/4SM R16L/2000V2800FT FG BKN001 BKN037 OVC055 01/01 A3049 RMK AO2 T00110006 $=
202102241106 SPECI KSEA 241106Z 12004KT 1/4SM R16L/1400V1800FT FG BKN001 BKN035 OVC055 01/01 A3049 RMK AO2 T00110006 $=
202102241053 METAR KSEA 241053Z 12004KT 1/4SM R16L/1800V3000FT FG BKN001 OVC060 01/01 A3048 RMK AO2 SLP332 T00110006 $=
202102241036 SPECI KSEA 241036Z 12005KT 1/2SM R16L/1800V4500FT FG BKN001 OVC065 01/01 A3048 RMK AO2 T00110006 $=
202102240953 METAR KSEA 240953Z 15003KT 1/4SM R16L/3500VP6000FT FG BKN001 01/M01 A3046 RMK AO2 SLP323 T00061006 $=
202102240946 SPECI KSEA 240946Z 12005KT 1/2SM R16L/P6000FT FG BKN001 01/M01 A3046 RMK AO2 T00061006 $=
202102240853 METAR KSEA 240853Z 18003KT 10SM SCT065 02/01 A3043 RMK AO2 SLP312 T00220006 53020 $=
202102240753 METAR KSEA 240753Z 31003KT 10SM FEW015 OVC045 03/01 A3040 RMK AO2 SLP304 T00280011 400940022 $=
202102240702 SPECI KSEA 240702Z 00000KT 10SM SCT015 BKN022 OVC050 03/02 A3039 RMK AO2 T00280022 $=
202102240653 METAR KSEA 240653Z 00000KT 10SM SCT016 BKN050 OVC070 03/02 A3039 RMK AO2 SLP301 T00280017 $=
202102240553 METAR KSEA 240553Z 01007KT 10SM FEW009 BKN030 OVC070 03/01 A3037 RMK AO2 RAE30 SLP293 P0002 60028 T00330011 10072 20028 53026 $=
202102240537 SPECI KSEA 240537Z 04003KT 10SM FEW009 BKN018 OVC041 03/02 A3036 RMK AO2 RAE30 P0002 T00330017 $=
202102240523 SPECI KSEA 240523Z 09004KT 9SM -RA SCT008 BKN014 OVC026 03/02 A3035 RMK AO2 P0002 T00280017 $=
202102240453 METAR KSEA 240453Z 14004KT 10SM -RA FEW002 BKN018 OVC024 03/02 A3033 RMK AO2 SLP281 P0008 T00330017 $=
202102240353 METAR KSEA 240353Z 25005KT 6SM -RA BR FEW014 OVC020 03/03 A3030 RMK AO2 SLP272 P0007 T00280028 $=
202102240317 SPECI KSEA 240317Z 13010KT 7SM -RA SCT022 OVC036 03/02 A3029 RMK AO2 P0004 T00330017 $=
202102240253 METAR KSEA 240253Z 10006KT 4SM RA BR OVC019 03/02 A3029 RMK AO2 SLP267 P0011 60011 T00330017 53013 $=
202102240221 SPECI KSEA 240221Z 08006KT 3SM RA BR BKN017 BKN033 04/02 A3027 RMK AO2 VIS N 2 P0002 T00390017 $=
202102240153 METAR KSEA 240153Z 05013KT 4SM -RA BR FEW010 BKN024 BKN050 04/02 A3026 RMK AO2 RAB30PLB31E43 SLP257 P0000 T00390017=
202102240143 SPECI KSEA 240143Z 05013KT 7SM -RA BKN024 BKN034 06/02 A3026 RMK AO2 RAB30PLB31E43 P0000 T00560022=
202102240135 SPECI KSEA 240135Z 07007KT 8SM -RAPL BKN022 BKN040 07/03 A3025 RMK AO2 RAB30PLB31 P0000 T00670028=
202102240053 METAR KSEA 240053Z 15008KT 10SM BKN033 07/03 A3025 RMK AO2 SLP252 SHRA N T00670028=
202102232353 METAR KSEA 232353Z 13004KT 10SM FEW022 BKN040 07/03 A3025 RMK AO2 RAE08 SLP253 P0000 60008 T00720028 10094 20050 55003=
202102232321 SPECI KSEA 232321Z 06006KT 10SM SCT022 BKN047 07/03 A3025 RMK AO2 RAE08 P0000 T00670033=
202102232253 METAR KSEA 232253Z 00000KT 7SM -RA BKN023 BKN046 06/03 A3025 RMK AO2 RAB28 SLP252 P0008 T00560033=
202102232243 SPECI KSEA 232243Z 30004KT 4SM R16L/4500VP6000FT -RA BKN023 BKN043 06/03 A3025 RMK AO2 RAB28 P0007 T00560028=
202102232153 METAR KSEA 232153Z 24011KT 10SM FEW025 BKN032 BKN110 08/02 A3024 RMK AO2 SLP250 SHRA W T00780022=
202102232053 METAR KSEA 232053Z 23015G23KT 10SM FEW025 BKN032 BKN110 08/02 A3026 RMK AO2 SLP256 T00830017 58016=
202102231953 METAR KSEA 231953Z 22011G19KT 10SM FEW025 SCT032 BKN120 09/01 A3028 RMK AO2 SLP263 T00890011 $=
202102231943 SPECI KSEA 231943Z 22012G20KT 10SM FEW026 BKN032 BKN120 09/02 A3029 RMK AO2 T00890017 $=
202102231853 METAR KSEA 231853Z 23015KT 10SM BKN023 07/01 A3030 RMK AO2 SLP269 T00720011=
202102231848 SPECI KSEA 231848Z 24013KT 10SM BKN023 07/02 A3030 RMK AO2=
202102231827 SPECI KSEA 231827Z 23015G21KT 10SM SCT021 07/02 A3031 RMK AO2 T00670017=
202102231753 METAR KSEA 231753Z 23013G22KT 10SM BKN020 07/02 A3031 RMK AO2 SLP272 T00670017 10067 20044 53000=
202102231653 METAR KSEA 231653Z 22009KT 10SM BKN016 06/02 A3031 RMK AO2 SLP272 T00560022=
202102231553 METAR KSEA 231553Z 23008KT 10SM OVC015 06/02 A3031 RMK AO2 SLP272 T00560022=
202102231453 METAR KSEA 231453Z 22007KT 10SM OVC015 06/02 A3031 RMK AO2 SLP272 T00560022 53002=
202102231432 SPECI KSEA 231432Z 20008KT 10SM OVC015 06/02 A3031 RMK AO2 T00560022=
202102231353 METAR KSEA 231353Z 21007KT 10SM OVC013 05/02 A3031 RMK AO2 SLP272 T00500022=
202102231253 METAR KSEA 231253Z 22010KT 10SM BKN017 05/02 A3031 RMK AO2 SLP271 T00500017=
202102231247 SPECI KSEA 231247Z 21009KT 10SM BKN017 05/02 A3030 RMK AO2=
202102231153 METAR KSEA 231153Z 23013G20KT 10SM SCT015 05/02 A3029 RMK AO2 SLP265 70027 T00500017 10061 20039 50002=
202102231053 METAR KSEA 231053Z 23012KT 10SM FEW020 05/01 A3030 RMK AO2 SLP269 T00500011=
202102230953 METAR KSEA 230953Z 20007KT 10SM SCT018 04/01 A3030 RMK AO2 SLP269 T00440011=
202102230944 SPECI KSEA 230944Z 20007KT 10SM SCT018 04/01 A3030 RMK AO2 T00440011=
202102230931 SPECI KSEA 230931Z 20007KT 10SM BKN018 04/01 A3030 RMK AO2 T00440011=
202102230853 METAR KSEA 230853Z 19007KT 10SM FEW015 04/01 A3028 RMK AO2 SLP264 T00440006 51019=
202102230753 METAR KSEA 230753Z 23010KT 10SM FEW015 FEW060 05/01 A3027 RMK AO2 SLP258 T00500011 401110050=
202102230653 METAR KSEA 230653Z 23012KT 10SM FEW020 SCT120 06/02 A3025 RMK AO2 SLP252 T00560017=
202102230553 METAR KSEA 230553Z 23010KT 10SM FEW023 BKN140 06/02 A3023 RMK AO2 SLP245 T00610017 10111 20056 51028=
202102230453 METAR KSEA 230453Z 23010KT 10SM FEW023 06/01 A3020 RMK AO2 SLP237 T00610011=
202102230406 SPECI KSEA 230406Z 22015KT 10SM SCT023 07/02 A3017 RMK AO2 T00670017=
202102230353 METAR KSEA 230353Z 21011KT 10SM BKN023 07/02 A3018 RMK AO2 SLP226 T00670022=
202102230311 SPECI KSEA 230311Z 19007KT 10SM BKN020 07/03 A3016 RMK AO2 T00670028=
202102230253 METAR KSEA 230253Z 21012G20KT 10SM FEW025 07/03 A3015 RMK AO2 SLP215 T00720028 53021=
202102230153 METAR KSEA 230153Z 22017G23KT 10SM SCT025 08/03 A3011 RMK AO2 PK WND 25027/0102 SLP202 T00830033=
202102230053 METAR KSEA 230053Z 23014G22KT 10SM SCT020 SCT200 10/04 A3010 RMK AO2 PK WND 22026/0043 SLP198 T01000039=
202102222353 METAR KSEA 222353Z 22016G28KT 10SM FEW008 SCT018 BKN200 11/07 A3008 RMK AO2 PK WND 21028/2350 SLP195 60019 T01110072 10111 20094 55011=
202102222253 METAR KSEA 222253Z 22021G27KT 10SM FEW008 BKN017 BKN200 11/08 A3008 RMK AO2 PK WND 21029/2237 SLP193 T01060078=
202102222230 SPECI KSEA 222230Z 22017G23KT 10SM FEW008 BKN015 BKN200 11/08 A3008 RMK AO2 PK WND 21026/2203 T01060083=
202102222222 SPECI KSEA 222222Z 21016G22KT 10SM FEW008 SCT013 BKN200 11/09 A3008 RMK AO2 PK WND 21026/2203 T01060089=
202102222153 METAR KSEA 222153Z 21017G25KT 10SM FEW007 BKN011 10/08 A3009 RMK AO2 PK WND 21027/2142 RAE44 SLP196 P0002 T01000083=
202102222133 SPECI KSEA 222133Z 20019G25KT 10SM -RA FEW006 BKN010 OVC055 09/08 A3007 RMK AO2 PRESFR P0001 T00940083=
202102222053 METAR KSEA 222053Z 20017G25KT 7SM -RA OVC006 09/08 A3012 RMK AO2 SLP206 P0009 60017 T00940083 56021=
202102221953 METAR KSEA 221953Z 21013G21KT 5SM -RA BR BKN007 OVC014 10/08 A3015 RMK AO2 SLP216 P0004 T01000083=
202102221853 METAR KSEA 221853Z 22012G19KT 5SM -RA BR OVC006 09/08 A3015 RMK AO2 SLP216 P0004 T00940083=
202102221753 METAR KSEA 221753Z 20013KT 6SM -RA BR OVC005 09/08 A3018 RMK AO2 SLP226 P0002 60008 T00940083 10094 20094 58003=
202102221653 METAR KSEA 221653Z 20014G20KT 5SM -RA BR OVC005 09/08 A3018 RMK AO2 SLP228 P0003 T00940083=
202102221553 METAR KSEA 221553Z 20014KT 6SM -RA BR OVC008 09/08 A3019 RMK AO2 PK WND 20028/1536 RAB16 SLP229 P0002 T00940083=
202102221453 METAR KSEA 221453Z 21013G18KT 10SM BKN008 OVC012 09/08 A3019 RMK AO2 SLP230 60001 T00940083 56008=
202102221353 METAR KSEA 221353Z 21015G24KT 10SM BKN007 OVC012 09/08 A3019 RMK AO2 RAE10 SLP231 P0000 T00940083 $=
202102221253 METAR KSEA 221253Z 20015G20KT 3SM -RA BR OVC005 09/08 A3020 RMK AO2 SLP235 P0001 T00940083 $=
202102221231 SPECI KSEA 221231Z 20014G21KT 3SM -RA BR OVC006 09/09 A3020 RMK AO2 P0001 T00940089 $=
202102221153 METAR KSEA 221153Z 19014KT 2SM -RA BR OVC005 09/09 A3021 RMK AO2 SLP238 P0001 60032 70040 T00940089 10094 20094 58005 $=
202102221053 METAR KSEA 221053Z 20015KT 2SM -RA BR BKN006 OVC013 09/08 A3023 RMK AO2 PK WND 20026/1027 SLP244 P0003 T00940083 $=
202102221044 SPECI KSEA 221044Z 21017KT 2SM -RA BR BKN006 OVC013 09/08 A3022 RMK AO2 PK WND 20026/1027 P0002 T00940083 $=
202102221033 SPECI KSEA 221033Z 20018G26KT 2SM -RA BR SCT008 OVC013 09/08 A3022 RMK AO2 PK WND 20026/1027 P0002 T00940083 $=
202102220953 METAR KSEA 220953Z 20017G25KT 3SM -RA BR BKN008 OVC015 09/08 A3022 RMK AO2 PK WND 20026/0935 RAE0857B46 SLP239 P0002 T00940083 $=
202102220853 METAR KSEA 220853Z 21014G23KT 7SM -RA OVC007 09/08 A3023 RMK AO2 PK WND 17030/0815 SLP243 P0003 60026 T00940083 56012 $=
202102220753 METAR KSEA 220753Z 18015G24KT 4SM -RA BR BKN007 OVC021 09/08 A3024 RMK AO2 SLP246 P0010 T00940083 401060061 $=
202102220653 METAR KSEA 220653Z 19017G22KT 5SM -RA BR BKN008 OVC013 09/08 A3025 RMK AO2 SLP250 P0013 T00940083 $=
202102220626 SPECI KSEA 220626Z 18013KT 3SM -RA BR BKN005 OVC012 09/08 A3024 RMK AO2 P0008 T00940078 $=
202102220553 METAR KSEA 220553Z 19012G18KT 2SM -RA BR BKN007 OVC012 09/08 A3026 RMK AO2 SLP256 P0004 60007 T00940083 10106 20094 57011 $=
202102220513 SPECI KSEA 220513Z 17010KT 3SM -RA BR OVC013 09/08 A3027 RMK AO2 P0000 T00940078 $=
202102220453 METAR KSEA 220453Z 15013KT 3SM -RA BR OVC015 09/08 A3027 RMK AO2 SLP258 P0003 T00940078 $=
202102220431 SPECI KSEA 220431Z 16017G23KT 4SM -RA BR SCT015 OVC023 09/08 A3028 RMK AO2 P0002 T00940078 $=
202102220353 METAR KSEA 220353Z 19018G27KT 4SM -RA BR FEW014 OVC037 10/08 A3029 RMK AO2 PK WND 21029/0259 RAB05 SLP265 P0000 T01000078 $=
202102220253 METAR KSEA 220253Z 21017G27KT 10SM BKN025 BKN150 10/07 A3030 RMK AO2 PK WND 22031/0231 SLP267 T01000072 55004 $=
202102220214 SPECI KSEA 220214Z 21018G28KT 10SM SCT013 BKN150 10/07 A3028 RMK AO2 PK WND 22028/0204 T01000072 $=
202102220153 METAR KSEA 220153Z 21018G25KT 10SM BKN018 BKN170 10/07 A3029 RMK AO2 SLP263 T01000072 $=
202102220053 METAR KSEA 220053Z 20012G22KT 10SM OVC018 11/07 A3031 RMK AO2 SLP270 T01060072 $=
202102212353 METAR KSEA 212353Z 20015G27KT 10SM OVC019 11/07 A3031 RMK AO2 PK WND 20027/2345 SLP272 T01060072 10106 20083 56008 $=
202102212253 METAR KSEA 212253Z 20016G24KT 10SM OVC016 11/07 A3032 RMK AO2 SLP275 T01060072 $=
202102212153 METAR KSEA 212153Z 20014G23KT 10SM OVC015 10/07 A3031 RMK AO2 SLP271 T01000072 $=
202102212122 SPECI KSEA 212122Z 19014KT 10SM OVC017 09/07 A3032 RMK AO2 T00940072 $=
202102212053 METAR KSEA 212053Z 22014G25KT 10SM BKN013 OVC018 09/07 A3034 RMK AO2 PK WND 21029/2000 SLP281 T00940067 53007 $=
202102211953 METAR KSEA 211953Z 20019G28KT 10SM BKN019 OVC028 10/06 A3030 RMK AO2 PK WND 19028/1947 SLP269 T01000061 $=
202102211853 METAR KSEA 211853Z 21017G26KT 10SM BKN012 BKN017 OVC027 09/06 A3032 RMK AO2 PK WND 23027/1831 SLP276 T00890061 $=
202102211753 METAR KSEA 211753Z 21016G22KT 10SM BKN016 BKN024 OVC085 08/06 A3031 RMK AO2 RAE22 SLP274 P0000 60001 T00830056 10083 20072 51005 $=
202102211653 METAR KSEA 211653Z 20015G22KT 9SM -RA BKN012 OVC015 08/06 A3031 RMK AO2 RAB51 SLP272 P0001 T00780056 $=
202102211621 SPECI KSEA 211621Z 19013G21KT 10SM BKN012 OVC019 08/05 A3030 RMK AO2 T00780050 $=
202102211553 METAR KSEA 211553Z 18012KT 8SM SCT014 BKN016 OVC023 08/05 A3030 RMK AO2 SLP270 T00780050 $=
202102211532 SPECI KSEA 211532Z 18013KT 10SM BKN014 OVC021 08/05 A3030 RMK AO2 T00780050 $=
202102211453 METAR KSEA 211453Z 20015G22KT 10SM OVC015 07/05 A3030 RMK AO2 PK WND 19026/1436 SLP268 T00720050 55002 $=
202102211353 METAR KSEA 211353Z 20016G22KT 10SM OVC016 07/04 A3029 RMK AO2 PK WND 20028/1334 SLP266 T00720044 $=
202102211253 METAR KSEA 211253Z 19018G26KT 10SM SCT014 OVC021 07/04 A3029 RMK AO2 PK WND 20029/1210 SLP266 T00720039 $=
202102211153 METAR KSEA 211153Z 19014G21KT 10SM OVC021 07/04 A3030 RMK AO2 SLP270 60000 T00720039 10072 20056 56016 $=
202102211053 METAR KSEA 211053Z 18014KT 9SM SCT016 OVC022 06/03 A3030 RMK AO2 RAE02 SLP270 P0000 T00610033 $=
202102210953 METAR KSEA 210953Z 18013KT 4SM -RA OVC015 06/03 A3033 RMK AO2 RAB47 SLP278 P0000 T00610033 $=
202102210853 METAR KSEA 210853Z 17012KT 10SM BKN016 OVC026 06/03 A3035 RMK AO2 SLP285 60000 T00610028 56004 $=
202102210753 METAR KSEA 210753Z 19013KT 10SM OVC016 06/03 A3035 RMK AO2 RAE49 SLP285 P0000 T00610028 400940033 $=
202102210653 METAR KSEA 210653Z 19011KT 10SM -RA OVC019 06/03 A3036 RMK AO2 SLP290 P0000 T00610028 $=
202102210553 METAR KSEA 210553Z 18012KT 10SM -RA BKN023 BKN030 OVC100 06/03 A3036 RMK AO2 RAB47 SLP290 P0000 60000 T00610028 10078 20061 53004 $=
202102210530 SPECI KSEA 210530Z 19011KT 10SM BKN023 BKN030 OVC100 06/03 A3037 RMK AO2 T00610028 $=
202102210453 METAR KSEA 210453Z 20014G20KT 10SM SCT022 BKN035 OVC100 06/03 A3035 RMK AO2 SLP287 T00610028 $=
202102210448 SPECI KSEA 210448Z 20012KT 10SM SCT022 BKN035 OVC100 06/03 A3035 RMK AO2 $=
202102210353 METAR KSEA 210353Z 20012G20KT 10SM FEW018 BKN024 OVC060 07/03 A3035 RMK AO2 RAE0255 SLP285 P0000 T00670028 $=
202102210307 SPECI KSEA 210307Z 19011KT 10SM FEW018 BKN024 OVC038 06/03 A3035 RMK AO2 RAE0255 P0000 T00610033 $=
202102210253 METAR KSEA 210253Z 19012KT 10SM -RA SCT024 BKN055 OVC070 07/03 A3035 RMK AO2 RAB44 SLP287 P0000 60000 T00670033 53015 $=
202102210153 METAR KSEA 210153Z 22014G20KT 10SM FEW023 OVC070 07/02 A3033 RMK AO2 PK WND 21026/0117 SLP278 T00670022 $=
202102210053 METAR KSEA 210053Z 21015G20KT 10SM SCT023 OVC100 07/02 A3032 RMK AO2 PK WND 22026/2355 SLP276 T00720022 $=
202102202353 METAR KSEA 202353Z 22017G25KT 10SM FEW020 FEW070 OVC110 08/01 A3031 RMK AO2 SLP272 T00780011 10094 20056 53011 $=
202102202253 METAR KSEA 202253Z 23014G20KT 10SM FEW020 FEW034 BKN110 08/01 A3030 RMK AO2 SLP268 T00830011 $=
202102202153 METAR KSEA 202153Z 22010KT 10SM FEW019 BKN034 BKN043 09/02 A3028 RMK AO2 SLP263 T00890022 $=
202102202146 SPECI KSEA 202146Z 22011KT 10SM BKN034 BKN043 09/02 A3028 RMK AO2 T00890022=
202102202053 METAR KSEA 202053Z 21013KT 10SM FEW019 BKN025 08/03 A3028 RMK AO2 SLP261 T00830028 50004=
202102201953 METAR KSEA 201953Z 20012KT 10SM BKN022 BKN200 08/03 A3028 RMK AO2 SLP262 T00780028=
202102201853 METAR KSEA 201853Z 21007KT 10SM BKN015 BKN022 BKN032 06/03 A3027 RMK AO2 SLP260 T00560028=
202102201824 SPECI KSEA 201824Z 19008KT 10SM SCT016 BKN022 06/03 A3027 RMK AO2 T00560028=
202102201753 METAR KSEA 201753Z 20008KT 10SM BKN011 OVC018 05/03 A3026 RMK AO2 SLP257 T00500028 10061 20033 51027=
202102201653 METAR KSEA 201653Z 19006KT 10SM BKN010 OVC014 06/04 A3024 RMK AO2 SLP248 T00560039=
202102201621 SPECI KSEA 201621Z 16005KT 10SM BKN011 05/03 A3023 RMK AO2 T00500033=
202102201553 METAR KSEA 201553Z 18003KT 10SM SCT012 BKN080 04/03 A3021 RMK AO2 SLP240 T00390028=
202102201536 SPECI KSEA 201536Z 15003KT 10SM SCT010 BKN080 03/02 A3020 RMK AO2 T00330022=
202102201453 METAR KSEA 201453Z 25004KT 10SM FEW007 BKN011 BKN025 04/02 A3018 RMK AO2 SLP230 T00390022 53021=
202102201353 METAR KSEA 201353Z 24006KT 10SM BKN010 BKN015 OVC030 05/03 A3016 RMK AO2 SLP220 T00500028=
202102201253 METAR KSEA 201253Z 24006KT 10SM SCT010 BKN014 OVC020 05/03 A3014 RMK AO2 SLP213 T00500028=
202102201153 METAR KSEA 201153Z 22005KT 10SM BKN010 OVC015 05/03 A3012 RMK AO2 SLP208 70013 T00500033 10056 20044 53008=
202102201053 METAR KSEA 201053Z 22008KT 10SM BKN010 BKN015 OVC070 05/03 A3011 RMK AO2 SLP203 T00500033=
202102200953 METAR KSEA 200953Z 23006KT 10SM FEW007 BKN010 OVC015 05/03 A3011 RMK AO2 SLP204 T00500033=
202102200913 SPECI KSEA 200913Z 20004KT 10SM FEW008 BKN012 OVC017 05/04 A3010 RMK AO2 T00500039=
202102200853 METAR KSEA 200853Z 20006KT 10SM SCT009 OVC017 05/04 A3010 RMK AO2 SLP200 T00500039 51011=
202102200753 METAR KSEA 200753Z 20004KT 10SM SCT008 BKN019 BKN075 OVC180 04/03 A3008 RMK AO2 SLP195 T00440033 401000044=
202102200714 SPECI KSEA 200714Z 21007KT 10SM SCT007 OVC016 05/04 A3008 RMK AO2 T00500039=
202102200653 METAR KSEA 200653Z 19005KT 10SM BKN008 OVC018 05/04 A3008 RMK AO2 SLP194 T00500039=
202102200645 SPECI KSEA 200645Z 19004KT 10SM BKN008 OVC018 05/04 A3008 RMK AO2 T00500039=
202102200600 SPECI KSEA 200600Z 17007KT 10SM FEW011 BKN027 OVC075 05/03 A3007 RMK AO2 T00500033=
202102200553 METAR KSEA 200553Z 15009KT 10SM BKN011 OVC028 05/03 A3006 RMK AO2 RAB18E27 SLP188 P0000 60006 T00500033 10056 20050 53008=
202102200453 METAR KSEA 200453Z 17007KT 10SM BKN012 OVC065 05/04 A3005 RMK AO2 SLP184 T00500039=
202102200440 SPECI KSEA 200440Z 16007KT 10SM BKN012 BKN065 OVC090 05/04 A3005 RMK AO2 T00500039=
202102200353 METAR KSEA 200353Z 15008KT 10SM FEW014 SCT050 OVC100 05/03 A3004 RMK AO2 SLP181 T00500033=
202102200253 METAR KSEA 200253Z 17008KT 10SM FEW024 OVC049 05/04 A3004 RMK AO2 RAE50 SLP180 P0001 60006 T00500039 55004=
202102200153 METAR KSEA 200153Z 19007KT 10SM -RA FEW024 SCT035 OVC060 06/04 A3003 RMK AO2 RAB50 SLP179 P0000 T00560039=
202102200053 METAR KSEA 200053Z 20008KT 10SM BKN055 OVC080 06/03 A3004 RMK AO2 RAE36 SLP181 P0005 T00560033=
202102200030 SPECI KSEA 200030Z 20008KT 6SM -RA BR SCT024 OVC050 06/04 A3005 RMK AO2 P0005 T00560039=
202102192353 METAR KSEA 192353Z 26009KT 3SM -RA BR BKN027 OVC041 06/03 A3005 RMK AO2 RAB03 SLP185 P0006 60006 T00560033 10100 20056 55009=
202102192313 SPECI KSEA 192313Z 24009KT 10SM -RA BKN028 OVC044 07/03 A3006 RMK AO2 RAB03 P0000 T00670028=
202102192253 METAR KSEA 192253Z 26011G19KT 10SM FEW029 BKN043 OVC200 08/02 A3005 RMK AO2 SLP184 VCSH T00830022=
202102192153 METAR KSEA 192153Z 22010KT 10SM FEW022 SCT036 BKN050 BKN170 09/03 A3006 RMK AO2 RAB12E21 SLP188 P0000 T00940033=
202102192128 SPECI KSEA 192128Z 21012G18KT 10SM SCT027 BKN036 BKN060 BKN250 09/03 A3006 RMK AO2 RAB12E21 P0000 T00890033=
202102192053 METAR KSEA 192053Z 21013G19KT 10SM BKN024 BKN030 OVC060 09/03 A3008 RMK AO2 PK WND 25036/2031 SLP194 T00890033 58013=
202102192008 SPECI KSEA 192008Z 20012KT 10SM SCT024 BKN030 BKN200 08/03 A3010 RMK AO2 T00830033=
202102192000 SPECI KSEA 192000Z 20015KT 10SM BKN022 08/03 A3010 RMK AO2 T00830033=
202102191953 METAR KSEA 191953Z 21015KT 10SM SCT022 BKN030 OVC060 08/03 A3010 RMK AO2 SLP202 T00780033=
202102191929 SPECI KSEA 191929Z 19014KT 10SM SCT022 BKN030 OVC060 08/04 A3011 RMK AO2 T00780039=
202102191853 METAR KSEA 191853Z 17010KT 10SM SCT016 BKN024 OVC042 07/04 A3011 RMK AO2 SLP206 T00720039=
202102191800 SPECI KSEA 191800Z 20012KT 10SM BKN021 07/04 A3012 RMK AO2 T00670039=
202102191753 METAR KSEA 191753Z 19012KT 10SM SCT022 BKN050 BKN090 OVC250 07/04 A3012 RMK AO2 SLP207 60001 T00670039 10067 20050 53017=
202102191653 METAR KSEA 191653Z 20012KT 10SM SCT030 SCT050 BKN090 BKN250 06/03 A3010 RMK AO2 SLP202 T00610033=
202102191553 METAR KSEA 191553Z 18013KT 10SM FEW015 SCT030 BKN100 BKN250 05/03 A3008 RMK AO2 SLP196 T00500033=
202102191453 METAR KSEA 191453Z 18012KT 10SM SCT024 BKN031 OVC080 06/03 A3007 RMK AO2 RAB21E38 SLP190 P0001 60001 T00560033 50007=
202102191423 SPECI KSEA 191423Z 20013G20KT 7SM -RA FEW017 BKN022 OVC080 06/04 A3007 RMK AO2 RAB21 P0000 T00610039=
202102191353 METAR KSEA 191353Z 20010KT 10SM SCT016 06/04 A3007 RMK AO2 SLP190 T00560039=
202102191328 SPECI KSEA 191328Z 19011KT 10SM SCT016 06/04 A3006 RMK AO2 T00560039=
202102191253 METAR KSEA 191253Z 19011G18KT 10SM BKN014 06/04 A3006 RMK AO2 SLP187 T00610044=
202102191153 METAR KSEA 191153Z 20011KT 10SM OVC011 06/04 A3005 RMK AO2 SLP183 60001 70009 T00610044 10067 20061 53008=
202102191053 METAR KSEA 191053Z 20016G21KT 10SM BKN013 06/04 A3003 RMK AO2 SLP177 T00610044=
202102191034 SPECI KSEA 191034Z 21013G20KT 10SM BKN013 06/04 A3003 RMK AO2 T00610044=
202102190953 METAR KSEA 190953Z 20014KT 10SM FEW013 SCT090 06/04 A3002 RMK AO2 RAE04 SLP174 P0000 T00610044=
202102190940 SPECI KSEA 190940Z 20015KT 10SM FEW007 FEW075 SCT090 06/04 A3002 RMK AO2 RAE04 P0000 T00610044=
202102190853 METAR KSEA 190853Z 20010KT 7SM -RA BKN007 OVC012 07/05 A3002 RMK AO2 RAB47 SLP175 P0001 60001 T00670050 52017=
202102190834 SPECI KSEA 190834Z 20009KT 10SM OVC007 07/05 A3002 RMK AO2 T00670050=
202102190753 METAR KSEA 190753Z 20009KT 10SM OVC010 07/05 A3001 RMK AO2 SLP169 T00670050 400720028=
202102190733 SPECI KSEA 190733Z 19011KT 10SM OVC010 07/05 A3000 RMK AO2 T00670050=
202102190653 METAR KSEA 190653Z 20015KT 10SM BKN007 OVC011 07/05 A2999 RMK AO2 SLP164 T00670050=
202102190631 SPECI KSEA 190631Z 21012G22KT 10SM BKN008 OVC012 07/05 A2999 RMK AO2 T00670050=
202102190553 METAR KSEA 190553Z 20012KT 10SM BKN010 OVC021 07/05 A2997 RMK AO2 SLP158 60001 T00670050 10067 20044 53002=
202102190545 SPECI KSEA 190545Z 20016G23KT 10SM BKN010 OVC021 07/05 A2997 RMK AO2 T00670050=
202102190453 METAR KSEA 190453Z 18012KT 10SM OVC022 06/04 A2997 RMK AO2 RAE17 SLP156 P0000 T00610044=
202102190353 METAR KSEA 190353Z 17011KT 9SM -RA BKN018 OVC024 05/04 A2997 RMK AO2 SLP157 P0000 T00500039=
202102190253 METAR KSEA 190253Z 15010KT 9SM -RA OVC022 05/03 A2997 RMK AO2 SLP157 P0000 60001 T00500033 53001=
202102190153 METAR KSEA 190153Z 13009KT 7SM -RA OVC026 05/03 A2996 RMK AO2 SLP153 P0000 T00500028=
202102190053 METAR KSEA 190053Z 10006KT 10SM -RA OVC027 06/02 A2995 RMK AO2 PK WND 13026/0002 SLP151 P0001 T00560022=
202102182353 METAR KSEA 182353Z 11008KT 10SM -RA OVC024 06/02 A2997 RMK AO2 RAE18B44 SLP155 P0001 60007 T00610017 10072 20056 56026=
202102182327 SPECI KSEA 182327Z 12008KT 10SM FEW022 OVC028 06/02 A2997 RMK AO2 RAE18 P0001 T00610022=
202102182253 METAR KSEA 182253Z 13009KT 6SM -RA FEW022 BKN030 OVC045 06/03 A2998 RMK AO2 SLP162 P0002 T00560028=
202102182153 METAR KSEA 182153Z 16006KT 7SM -RA BKN026 OVC033 06/02 A3001 RMK AO2 SLP173 P0001 T00610022=
202102182125 SPECI KSEA 182125Z 17005KT 7SM -RA BKN029 OVC036 07/02 A3003 RMK AO2 P0000 T00670017=
202102182053 METAR KSEA 182053Z 14011KT 10SM -RA BKN036 OVC045 07/01 A3004 RMK AO2 RAB40 SLP182 P0001 60003 T00720011 56023=
202102181953 METAR KSEA 181953Z 14009KT 10SM SCT030 OVC048 07/01 A3006 RMK AO2 RAE00B26E50 SLP188 P0000 T00720006=
202102181853 METAR KSEA 181853Z 09008KT 10SM -RA SCT031 OVC039 06/01 A3009 RMK AO2 SLP197 P0002 T00560011=
202102181753 METAR KSEA 181753Z 00000KT 9SM -RA BKN042 OVC070 06/01 A3011 RMK AO2 RAB48 SLP207 P0000 60000 T00560011 10061 20039 55007=
202102181653 METAR KSEA 181653Z 12006KT 10SM BKN075 OVC100 06/M03 A3010 RMK AO2 SLP201 T00611028=
202102181553 METAR KSEA 181553Z 18004KT 10SM BKN090 OVC110 04/M01 A3011 RMK AO2 SLP205 T00391011=
202102181453 METAR KSEA 181453Z 00000KT 10SM OVC090 04/M01 A3014 RMK AO2 SLP214 T00391011 56023=
202102181353 METAR KSEA 181353Z 00000KT 10SM BKN120 04/M02 A3014 RMK AO2 SLP217 T00391017=
202102181253 METAR KSEA 181253Z 09010KT 10SM OVC130 05/M02 A3015 RMK AO2 SLP219 T00501022=
202102181153 METAR KSEA 181153Z 11006KT 10SM BKN170 04/M01 A3020 RMK AO2 SLP236 T00441011 10044 20028 58027=
202102181053 METAR KSEA 181053Z 11005KT 10SM BKN150 04/M01 A3024 RMK AO2 SLP247 T00391011=
202102180953 METAR KSEA 180953Z 12006KT 10SM FEW150 BKN200 04/M01 A3025 RMK AO2 SLP254 T00391006=
202102180853 METAR KSEA 180853Z 11009KT 10SM FEW150 BKN200 04/00 A3028 RMK AO2 SLP263 T00390000 58013=
202102180753 METAR KSEA 180753Z 12006KT 10SM BKN200 04/00 A3032 RMK AO2 SLP275 T00390000 400890022=
202102180653 METAR KSEA 180653Z 12006KT 10SM BKN200 04/01 A3032 RMK AO2 SLP278 T00440006=
202102180553 METAR KSEA 180553Z 10008KT 10SM FEW035 BKN200 04/01 A3032 RMK AO2 SLP277 T00440006 10089 20039 56008=
202102180453 METAR KSEA 180453Z 07005KT 10SM FEW035 BKN200 05/01 A3032 RMK AO2 SLP277 T00500006=
202102180353 METAR KSEA 180353Z 03004KT 10SM SCT035 BKN200 06/01 A3034 RMK AO2 SLP281 T00560006=
202102180253 METAR KSEA 180253Z 01005KT 10SM FEW050 BKN250 04/00 A3034 RMK AO2 SLP285 T00440000 55001=
202102180153 METAR KSEA 180153Z 34004KT 10SM FEW050 BKN250 06/01 A3034 RMK AO2 SLP285 T00560006=
202102180053 METAR KSEA 180053Z 04004KT 10SM FEW028 BKN250 08/00 A3034 RMK AO2 SLP282 T00780000=
202102172353 METAR KSEA 172353Z 34004KT 10SM FEW027 SCT060 BKN250 09/00 A3035 RMK AO2 SLP285 60000 T00890000 10089 20044 56003=
202102172253 METAR KSEA 172253Z 02004KT 10SM FEW025 SCT060 BKN250 09/01 A3035 RMK AO2 SLP286 T00890006=
202102172153 METAR KSEA 172153Z 00000KT 10SM SCT025 BKN055 08/00 A3034 RMK AO2 SLP283 T00780000=
202102172053 METAR KSEA 172053Z 00000KT 10SM FEW024 SCT033 BKN055 07/01 A3036 RMK AO2 SLP289 60000 T00720011 50002=
202102171953 METAR KSEA 171953Z 03005KT 10SM FEW023 BKN034 07/02 A3037 RMK AO2 RAE38 SLP293 P0000 T00670017=
202102171940 SPECI KSEA 171940Z 02008KT 10SM SCT023 BKN032 BKN200 06/01 A3037 RMK AO2 RAE38 P0000 T00610011=
202102171853 METAR KSEA 171853Z 02008KT 9SM -RA BKN020 OVC028 05/02 A3036 RMK AO2 RAE1754B16E29B49 SLP290 P0000 T00500017=
202102171753 METAR KSEA 171753Z 04008KT 9SM -RA BKN017 BKN026 04/02 A3035 RMK AO2 RAB1655 SLP288 P0000 60000 T00440017 10056 20022 51023=
202102171747 SPECI KSEA 171747Z 04009KT 8SM -RA BKN017 BKN026 04/02 A3035 RMK AO2 RAB1655 P0000=
202102171653 METAR KSEA 171653Z 08010KT 7SM OVC014 04/01 A3033 RMK AO2 SLP281 T00390011=
202102171553 METAR KSEA 171553Z VRB06KT 10SM BKN011 BKN030 OVC055 06/03 A3031 RMK AO2 SLP273 T00560028=
202102171453 METAR KSEA 171453Z 10004KT 10SM BKN011 BKN028 04/02 A3028 RMK AO2 SLP263 T00390017 51022=
202102171446 SPECI KSEA 171446Z 07005KT 10SM BKN011 BKN028 04/02 A3028 RMK AO2 T00390017=
202102171353 METAR KSEA 171353Z 00000KT 10SM FEW015 BKN028 04/02 A3027 RMK AO2 SLP259 T00390017=
202102171333 SPECI KSEA 171333Z 00000KT 10SM BKN028 03/01 A3026 RMK AO2 T00330011=
202102171253 METAR KSEA 171253Z 16005KT 10SM SCT065 03/01 A3024 RMK AO2 SLP248 T00330011=
202102171153 METAR KSEA 171153Z 16011KT 10SM FEW014 SCT049 03/01 A3022 RMK AO2 SLP240 T00330011 10056 20028 50009=
202102171105 SPECI KSEA 171105Z 16008KT 10SM SCT014 SCT049 04/02 A3021 RMK AO2 T00440017=
202102171053 METAR KSEA 171053Z 17005KT 10SM BKN014 04/02 A3022 RMK AO2 SLP241 T00440022=
202102170953 METAR KSEA 170953Z 13007KT 10SM OVC014 05/03 A3020 RMK AO2 SLP235 T00500028=
202102170853 METAR KSEA 170853Z 13007KT 10SM OVC012 05/03 A3019 RMK AO2 SLP232 T00500028 53022=
202102170753 METAR KSEA 170753Z 17005KT 10SM BKN013 OVC100 05/03 A3016 RMK AO2 SLP220 T00500028 401060033=
202102170653 METAR KSEA 170653Z 16005KT 10SM BKN013 05/03 A3015 RMK AO2 SLP216 T00500028=
202102170623 SPECI KSEA 170623Z 14006KT 10SM BKN014 OVC120 06/03 A3014 RMK AO2 T00560028=
202102170553 METAR KSEA 170553Z 19008KT 10SM SCT014 SCT120 06/03 A3012 RMK AO2 SLP209 T00560028 10100 20056 52015=
202102170453 METAR KSEA 170453Z 21006KT 10SM FEW026 BKN080 06/03 A3011 RMK AO2 SLP204 T00560033=
202102170353 METAR KSEA 170353Z 22010KT 10SM FEW026 SCT090 06/03 A3009 RMK AO2 SLP199 T00610028=
202102170253 METAR KSEA 170253Z 22013KT 10SM FEW026 SCT095 07/03 A3008 RMK AO2 LTG DSNT NE SLP194 T00670028 53002=
202102170153 METAR KSEA 170153Z 21008KT 10SM FEW026 SCT090 07/02 A3007 RMK AO2 SLP191 T00720022=
202102170053 METAR KSEA 170053Z 22011KT 10SM FEW026 FEW070 SCT090 08/03 A3006 RMK AO2 SLP189 T00830028=
202102162353 METAR KSEA 162353Z 22005KT 10SM FEW025 SCT070 BKN085 10/04 A3007 RMK AO2 SLP192 T01000039 10106 20061 55000=
202102162253 METAR KSEA 162253Z 19006KT 10SM FEW015 SCT028 BKN090 10/04 A3007 RMK AO2 SLP191 T01000039=
202102162153 METAR KSEA 162153Z 22005KT 10SM SCT020 SCT031 BKN085 09/04 A3007 RMK AO2 SLP190 T00890039=
202102162132 SPECI KSEA 162132Z 19003KT 10SM SCT022 SCT031 BKN090 09/04 A3007 RMK AO2 T00890044=
202102162053 METAR KSEA 162053Z 22004KT 10SM FEW013 BKN025 BKN100 09/04 A3007 RMK AO2 SLP192 T00890044 51012=
202102161953 METAR KSEA 161953Z 19007KT 10SM FEW003 BKN022 BKN100 08/04 A3006 RMK AO2 SLP187 FU FEW003 T00780044=
202102161853 METAR KSEA 161853Z 20007KT 10SM FEW007 BKN016 BKN085 07/04 A3006 RMK AO2 SLP187 T00720039=
202102161824 SPECI KSEA 161824Z 20008KT 10SM FEW009 BKN015 BKN085 07/04 A3005 RMK AO2 T00670044=
202102161753 METAR KSEA 161753Z 22008KT 10SM BKN011 BKN085 06/04 A3004 RMK AO2 SLP181 T00610039 10061 20044 51023=
202102161653 METAR KSEA 161653Z 20009KT 10SM BKN010 BKN085 BKN110 06/04 A3002 RMK AO2 SLP175 T00610044=
202102161643 SPECI KSEA 161643Z 20007KT 10SM BKN010 BKN085 BKN110 06/04 A3002 RMK AO2 T00560039=
202102161553 METAR KSEA 161553Z 22007KT 10SM OVC008 04/04 A2999 RMK AO2 SLP166 T00440039=
202102161453 METAR KSEA 161453Z 24007KT 10SM OVC006 05/03 A2997 RMK AO2 SLP158 T00500033 53010 $=
202102161353 METAR KSEA 161353Z 22008KT 10SM BKN006 OVC011 05/04 A2995 RMK AO2 SLP152 T00500039 $=
202102161253 METAR KSEA 161253Z 24008KT 5SM BR BKN006 OVC010 05/04 A2994 RMK AO2 SLP147 T00500039 $=
202102161248 SPECI KSEA 161248Z 22009KT 5SM BR FEW004 BKN006 OVC010 04/04 A2994 RMK AO2 $=
202102161230 SPECI KSEA 161230Z 22009KT 3SM R16L/3500VP6000FT BR BKN004 OVC009 05/04 A2993 RMK AO2 T00500044 $=
202102161153 METAR KSEA 161153Z 17007KT 1/2SM R16L/5500VP6000FT FG OVC002 04/04 A2993 RMK AO2 SLP144 60004 70028 T00440039 10044 20033 51009 $=
202102161138 SPECI KSEA 161138Z 17006KT 1/2SM R16L/P6000FT FG BKN002 OVC012 04/03 A2993 RMK AO2 T00390033 $=
202102161053 METAR KSEA 161053Z 15006KT 3/4SM R16L/P6000FT BR FEW003 OVC006 03/03 A2993 RMK AO2 DZB09E38 SLP146 P0000 T00330033 $=
202102161039 SPECI KSEA 161039Z 14009KT 3/4SM R16L/P6000FT BR FEW003 OVC009 04/03 A2993 RMK AO2 DZB09E38 P0000 T00390033 $=
202102161010 SPECI KSEA 161010Z 13009KT 3/4SM R16L/P6000FT -DZ BR SCT002 BKN013 OVC022 04/03 A2992 RMK AO2 DZB09 P0000 T00390028 $=
202102160953 METAR KSEA 160953Z 13009KT 3/4SM R16L/P6000FT BR BKN002 OVC021 04/03 A2992 RMK AO2 SLP140 T00390028 $=
202102160853 METAR KSEA 160853Z 12005KT 1/2SM R16L/4000VP6000FT FG BKN002 OVC015 04/03 A2990 RMK AO2 DZE40 SLP136 P0000 60004 T00390028 51032 $=
202102160841 SPECI KSEA 160841Z 13005KT 1/2SM R16L/P6000FT FG BKN002 OVC015 04/03 A2990 RMK AO2 DZE40 P0000 T00390028 $=
202102160753 METAR KSEA 160753Z 16005KT 3SM -DZ BR SCT005 OVC015 03/02 A2988 RMK AO2 RAE48DZB48 SLP128 P0001 T00330022 400670006 $=
202102160736 SPECI KSEA 160736Z 17003KT 3SM -RA BR FEW004 BKN016 OVC022 03/03 A2987 RMK AO2 P0001 T00330028 $=
202102160703 SPECI KSEA 160703Z 20005KT 3SM -RA BR FEW005 OVC013 03/03 A2986 RMK AO2 P0001 T00330028 $=
202102160653 METAR KSEA 160653Z 21004KT 4SM -RA BR BKN004 OVC017 03/03 A2985 RMK AO2 SLP119 P0003 T00330028 $=
202102160612 SPECI KSEA 160612Z 00000KT 4SM -RA BR BKN003 OVC024 04/03 A2983 RMK AO2 P0001 T00390028 $=
202102160553 METAR KSEA 160553Z 02003KT 6SM -RA BR SCT002 OVC022 04/03 A2981 RMK AO2 SLP103 4/001 P0001 60013 T00390033 10067 20039 51039 $=
202102160543 SPECI KSEA 160543Z 03005KT 5SM -RA BR SCT002 OVC015 04/03 A2980 RMK AO2 P0001 T00390033 $=
202102160533 SPECI KSEA 160533Z 03005KT 1SM R16L/P6000FT -RA BR SCT002 OVC012 04/03 A2980 RMK AO2 SFC VIS 3 P0001 T00390033 $=
202102160506 SPECI KSEA 160506Z 03006KT 1SM R16L/P6000FT -RA BR SCT002 OVC006 04/03 A2978 RMK AO2 SFC VIS 3 P0001 T00390033 $=
202102160453 METAR KSEA 160453Z 02006KT 5SM -RA BR SCT004 BKN019 OVC038 04/03 A2977 RMK AO2 SLP089 P0004 T00390033 $=
202102160422 SPECI KSEA 160422Z 02011KT 7SM -RA FEW004 SCT007 OVC038 04/03 A2975 RMK AO2 P0002 T00390033 $=
202102160405 SPECI KSEA 160405Z 03012KT 6SM -RA BR FEW004 BKN007 OVC038 04/03 A2974 RMK AO2 P0001 T00390033 $=
202102160353 METAR KSEA 160353Z 02012KT 6SM -RA BR BKN004 OVC030 04/03 A2974 RMK AO2 DZE0259RAB0259 SLP078 P0004 T00390028 $=
202102160342 SPECI KSEA 160342Z 36009KT 3SM -RA BR OVC004 04/03 A2973 RMK AO2 DZE0259RAB0259 P0001 T00390028 $=
202102160318 SPECI KSEA 160318Z 36009KT 5SM -RA BR BKN005 OVC016 04/03 A2972 RMK AO2 DZE0259RAB0259 P0001 T00390028 $=
202102160253 METAR KSEA 160253Z 01011KT 3SM -DZ BR OVC003 04/03 A2969 RMK AO2 RAE01DZB01 SLP065 P0001 60004 T00390033 53035 $=
202102160250 SPECI KSEA 160250Z 01011KT 3SM -DZ BR OVC003 04/03 A2969 RMK AO2 RAE01DZB01 P0001 $=
202102160244 SPECI KSEA 160244Z 01011KT 1SM R16L/P6000FT -DZ BR OVC003 04/03 A2969 RMK AO2 RAE01DZB01 P0001 T00390033 $=
202102160240 SPECI KSEA 160240Z 01010KT 1SM R16L/P6000FT -DZ BR VV001 04/03 A2969 RMK AO2 RAE01DZB01 P0001 T00390033 $=
202102160212 SPECI KSEA 160212Z 36009KT 1/2SM R16L/4500VP6000FT -DZ FG BKN001 OVC008 04/03 A2967 RMK AO2 RAE01DZB01 P0001 T00390033 $=
202102160206 SPECI KSEA 160206Z 01008KT 1SM R16L/P6000FT -DZ BR BKN001 OVC008 04/03 A2966 RMK AO2 RAE01DZB01 P0001 T00390033 $=
202102160153 METAR KSEA 160153Z 36008KT 2SM -RA BR BKN003 OVC007 04/03 A2965 RMK AO2 SLP050 P0003 T00390033 $=
202102160133 SPECI KSEA 160133Z 36009KT 1 1/2SM -RA BR OVC002 06/05 A2964 RMK AO2 P0003 T00560050 $=
202102160122 SPECI KSEA 160122Z 24003KT 1/2SM R16L/2400VP6000FT -RA FG OVC002 06/06 A2963 RMK AO2 P0001 T00610056 $=
202102160114 SPECI KSEA 160114Z 21006KT 1SM R16L/3500VP6000FT -RA BR OVC002 06/06 A2962 RMK AO2 P0001 T00610056 $=
202102160106 SPECI KSEA 160106Z 21006KT 2SM R16L/5000VP6000FT -RA BR OVC004 06/06 A2962 RMK AO2 P0001 T00610056 $=
202102160053 METAR KSEA 160053Z 21005KT 3SM -RA BR OVC005 06/06 A2961 RMK AO2 SLP036 P0000 T00610056 $=
202102152353 METAR KSEA 152353Z 19008KT 5SM -RA BR BKN007 OVC011 06/05 A2959 RMK AO2 RAB24 SLP028 4/002 P0001 60005 T00610050 10067 20044 51012 $=
202102152350 SPECI KSEA 152350Z 18008KT 5SM -RA BR SCT007 OVC011 06/05 A2959 RMK AO2 RAB24 P0000 $=
202102152320 SPECI KSEA 152320Z 20009KT 10SM OVC012 07/05 A2958 RMK AO2 T00670050 $=
202102152253 METAR KSEA 152253Z 19008KT 10SM FEW009 OVC016 07/05 A2957 RMK AO2 SLP022 T00670050 $=
202102152153 METAR KSEA 152153Z 19013G18KT 7SM SCT008 OVC015 06/06 A2955 RMK AO2 RAE30 SLP016 P0000 T00610056 $=
202102152146 SPECI KSEA 152146Z 18012KT 7SM SCT008 BKN013 OVC027 06/05 A2955 RMK AO2 RAE30 P0000 T00610050 $=
202102152053 METAR KSEA 152053Z 19014KT 6SM -RA BR BKN008 BKN013 OVC043 06/05 A2955 RMK AO2 SLP015 P0002 60004 T00610050 58001 $=
202102152035 SPECI KSEA 152035Z 19012KT 5SM -RA BR SCT006 BKN010 OVC027 06/05 A2956 RMK AO2 P0001 T00560050 $=
202102151953 METAR KSEA 151953Z 18014KT 2SM -RA BR FEW006 OVC012 06/04 A2956 RMK AO2 SLP019 P0001 T00560044 $=
202102151905 SPECI KSEA 151905Z 19012KT 2SM -RA BR SCT006 OVC012 06/05 A2956 RMK AO2 P0000 T00560050 $=
202102151853 METAR KSEA 151853Z 18014KT 2SM -RA BR OVC006 06/05 A2955 RMK AO2 DZB37E49RAB49 SLP016 P0001 T00560050 $=
202102151848 SPECI KSEA 151848Z 19012KT 2SM -DZ BR OVC006 06/05 A2955 RMK AO2 DZB37 P0000 $=
202102151841 SPECI KSEA 151841Z 19013KT 1/2SM R16L/P6000FT -DZ BR BKN005 06/05 A2955 RMK AO2 SFC VIS 1 1/2 DZB37 P0000 T00560050 $=
202102151753 METAR KSEA 151753Z 18010KT 1/2SM R16L/2200VP6000FT BR BKN003 OVC015 04/04 A2955 RMK AO2 SFC VIS 1 SLP016 60006 4/004 933007 T00440039 10044 20006 50005 $=
202102151653 METAR KSEA 151653Z 16010KT 1/2SM R16L/P6000FT FG BKN004 OVC009 02/02 A2956 RMK AO2 RAE52 SLP019 P0002 T00220017 $=
202102151633 SPECI KSEA 151633Z 13011KT 1/2SM R16L/5000VP6000FT -RA FG BKN007 OVC010 02/02 A2955 RMK AO2 P0001 T00220017 $=
202102151613 SPECI KSEA 151613Z 13011KT 1/2SM R16L/5500VP6000FT -RA FG SCT007 OVC013 02/01 A2955 RMK AO2 P0001 T00170011 $=
202102151553 METAR KSEA 151553Z 13008KT 1 1/2SM -RA BR SCT008 OVC013 02/01 A2955 RMK AO2 SLP016 P0003 T00170006 $=
202102151545 SPECI KSEA 151545Z 13008KT 1 1/2SM -RA BR SCT008 OVC014 02/01 A2954 RMK AO2 P0003 T00170006 $=
202102151505 SPECI KSEA 151505Z 12009KT 2SM -RA BR BKN008 OVC014 01/00 A2954 RMK AO2 P0001 T00060000 $=
202102151453 METAR KSEA 151453Z 14008KT 2SM -RA BR SCT008 OVC013 01/M01 A2954 RMK AO2 SLP012 P0000 60001 T00061006 56011 $=
202102151442 SPECI KSEA 151442Z 11012KT 3SM -RA BR FEW008 OVC013 01/M01 A2954 RMK AO2 P0000 T00061006 $=
202102151427 SPECI KSEA 151427Z 11014KT 3SM -RA BR OVC013 01/M01 A2954 RMK AO2 P0000 T00061006 $=
202102151353 METAR KSEA 151353Z 12010KT 3SM -RA BR OVC018 01/M01 A2954 RMK AO2 SLP014 P0000 T00061006 $=
202102151253 METAR KSEA 151253Z 10012KT 7SM -RA FEW019 BKN027 OVC031 01/M01 A2955 RMK AO2 SLP016 P0001 T00061006 $=
202102151153 METAR KSEA 151153Z 10011KT 10SM -RA OVC025 01/M01 A2957 RMK AO2 SLP023 P0004 60018 70043 4/005 T00111006 10011 20011 56030 $=
202102151053 METAR KSEA 151053Z 11014KT 10SM -RA SCT020 BKN026 OVC031 01/M01 A2960 RMK AO2 SLP034 P0004 T00111006 $=
202102150953 METAR KSEA 150953Z 11017KT 7SM -RA BKN018 OVC029 01/M01 A2963 RMK AO2 SLP044 P0004 T00111006 $=
202102150853 METAR KSEA 150853Z 14008KT 10SM -RA SCT019 OVC026 01/00 A2966 RMK AO2 SLP054 P0002 60006 T00110000 58018 $=
202102150753 METAR KSEA 150753Z 11015KT 7SM -RA SCT015 OVC024 01/M01 A2968 RMK AO2 SLP061 P0001 T00111006 400671011 $=
202102150729 SPECI KSEA 150729Z 11013KT 7SM -RA BKN015 OVC021 01/M01 A2968 RMK AO2 P0001 T00111006 $=
202102150653 METAR KSEA 150653Z 11010KT 5SM -RA BR OVC011 01/M01 A2970 RMK AO2 SLP067 P0003 T00111006 $=
202102150553 METAR KSEA 150553Z 11009KT 10SM -RA BKN014 OVC020 01/M01 A2972 RMK AO2 SLP073 P0004 60013 4/005 T00111006 10033 20011 55006 $=
202102150453 METAR KSEA 150453Z 11014KT 5SM -RA BR FEW003 OVC013 01/M01 A2971 RMK AO2 SLP069 P0007 T00111006 $=
202102150416 SPECI KSEA 150416Z 11011KT 3SM -RA BR BKN003 OVC013 01/00 A2971 RMK AO2 P0001 T00110000 $=
202102150353 METAR KSEA 150353Z 10011KT 3SM -RA BR OVC014 01/00 A2972 RMK AO2 SLP073 P0001 T00110000 $=
202102150344 SPECI KSEA 150344Z 11010KT 3SM -RA BR BKN012 OVC019 01/M01 A2972 RMK AO2 P0001 T00111006 $=
202102150253 METAR KSEA 150253Z 11011KT 4SM -RA BR OVC015 01/M01 A2974 RMK AO2 SLP079 P0000 60001 T00111006 56023 $=
202102150153 METAR KSEA 150153Z 11013KT 4SM -RA BR OVC017 01/M01 A2975 RMK AO2 RAE0059B18 SLP085 P0001 T00111006 $=
202102150053 METAR KSEA 150053Z 11010KT 4SM -RA SCT015 OVC023 02/M01 A2977 RMK AO2 SLP091 P0000 T00171006 $=
202102142353 METAR KSEA 142353Z 10008KT 5SM -RA OVC018 02/M02 A2981 RMK AO2 RAB48 SLP103 P0000 60006 4/006 T00221017 10022 21011 56022 $=
202102142253 METAR KSEA 142253Z 09009KT 10SM BKN024 OVC031 02/M02 A2981 RMK AO2 SLP105 RAB23E39 P0001 T00221017 $=
202102142153 METAR KSEA 142153Z 10010KT 6SM BR SCT019 OVC026 01/M01 A2984 RMK AO2 SNE37 SLP116 P0001 T00111011=
202102142053 METAR KSEA 142053Z 09012KT 3SM -SN BR SCT018 OVC024 01/M02 A2987 RMK AO2 SLP125 P0002 60004 T00061017 58017=
202102142019 SPECI KSEA 142019Z 10012KT 2SM -SN OVC017 01/M02 A2989 RMK AO2 P0001 T00061022=
202102141953 METAR KSEA 141953Z 10009KT 4SM -SN OVC017 01/M03 A2991 RMK AO2 SLP138 P0002 T00061028=
202102141853 METAR KSEA 141853Z 11011KT 4SM -SN BKN015 OVC021 00/M03 A2991 RMK AO2 SNB1756E17B49 SLP137 P0000 T00001028=
202102141823 SPECI KSEA 141823Z 11013KT 5SM BR BKN016 OVC021 M01/M03 A2992 RMK AO2 SNB1756E17 P0000 T10061028=
202102141753 METAR KSEA 141753Z 10013KT 2 1/2SM R16L/6000VP6000FT BR BKN014 OVC021 M01/M03 A2992 RMK AO2 SNE51 SLP143 P0002 60006 4/007 933002 T10111028 10000 21011 58002=
202102141653 METAR KSEA 141653Z 11013KT 1SM R16L/6000VP6000FT -SN BR OVC014 M01/M03 A2993 RMK AO2 SLP147 SNINCR 1/8 P0002 T10111028=
202102141553 METAR KSEA 141553Z 11010KT 1SM R16L/5000VP6000FT -SN BR OVC014 M01/M03 A2993 RMK AO2 SLP146 P0002 T10111028=
202102141532 SPECI KSEA 141532Z 10009KT 1 1/2SM -SN BR OVC014 M01/M03 A2993 RMK AO2 P0001 T10111033=
202102141508 SPECI KSEA 141508Z 10008KT 2SM -SN OVC017 M01/M04 A2993 RMK AO2 P0000 T10111039=
202102141453 METAR KSEA 141453Z 11010KT 3SM -SN OVC017 M01/M04 A2993 RMK AO2 SNB04E13B41 SLP145 P0000 60000 T10061044 56017=
202102141353 METAR KSEA 141353Z 11009KT 7SM OVC018 M01/M04 A2993 RMK AO2 SNE34 SLP146 P0000 T10061039=
202102141306 SPECI KSEA 141306Z 11012KT 4SM -SN BR BKN015 OVC023 M01/M02 A2995 RMK AO2 P0000 T10061022=
202102141253 METAR KSEA 141253Z 11012KT 2SM -SN BR BKN014 OVC025 M01/M04 A2995 RMK AO2 SLP152 P0000 T10061039=
202102141220 SPECI KSEA 141220Z 11011KT 2SM -SN BR BKN014 OVC021 M01/M03 A2996 RMK AO2 P0000 T10111033=
202102141153 METAR KSEA 141153Z 11011KT 2SM -SN BR SCT016 OVC021 M01/M03 A2998 RMK AO2 SLP162 P0001 60001 7//// 4/007 T10111033 10000 21011 58003=
202102141127 SPECI KSEA 141127Z 11009KT 2SM -SN BR BKN017 OVC029 M01/M03 A2999 RMK AO2 P0000 T10111033=
202102141053 METAR KSEA 141053Z 12009KT 7SM -SN BKN018 OVC022 M01/M06 A2999 RMK AO2 SNB48 SLP166 P0000 T10061056=
202102140953 METAR KSEA 140953Z 11011KT 10SM OVC020 M01/M06 A2998 RMK AO2 SLP163 T10061061=
202102140853 METAR KSEA 140853Z 11010KT 10SM OVC021 M01/M07 A2999 RMK AO2 SLP165 T10061067 58001=
202102140753 METAR KSEA 140753Z 11009KT 10SM OVC020 M01/M07 A3001 RMK AO2 SLP172 T10061067 410061039=
202102140653 METAR KSEA 140653Z 11011KT 10SM BKN021 OVC035 M01/M07 A3002 RMK AO2 SLP177 T10061067=
202102140553 METAR KSEA 140553Z 11011KT 10SM BKN024 OVC034 M01/M06 A2999 RMK AO2 SLP166 60002 4/008 T10111061 11006 21017 50006=
202102140453 METAR KSEA 140453Z 11012KT 10SM BKN017 OVC031 M01/M06 A2999 RMK AO2 SNE15 SLP167 P0000 T10111061=
202102140416 SPECI KSEA 140416Z 11010KT 9SM BKN017 OVC034 M01/M06 A2999 RMK AO2 SNE15 P0000 T10111061=
202102140353 METAR KSEA 140353Z 11009KT 10SM -SN FEW018 BKN034 M01/M06 A2998 RMK AO2 SLP164 P0000 T10111061=
202102140330 SPECI KSEA 140330Z 11010KT 9SM SCT018 OVC034 M01/M07 A2997 RMK AO2 P0000 T10111067=
202102140253 METAR KSEA 140253Z 11011KT 7SM FEW009 OVC016 M01/M06 A2997 RMK AO2 SNE26 SLP160 P0000 60002 T10111061 53021=
202102140237 SPECI KSEA 140237Z 11011KT 7SM FEW008 OVC015 M01/M04 A2996 RMK AO2 SNE26 P0000 T10111044=
202102140153 METAR KSEA 140153Z 11011KT 4SM -SN FEW004 OVC012 M02/M04 A2995 RMK AO2 SNE17B45 SLP153 P0000 T10171039=
202102140129 SPECI KSEA 140129Z 11012KT 5SM BR FEW004 OVC012 M02/M03 A2994 RMK AO2 SNE17 P0000 T10171033=
202102140059 SPECI KSEA 140059Z 11012KT 2SM -SN BR OVC012 M02/M03 A2993 RMK AO2 P0000 T10171033=
202102140053 METAR KSEA 140053Z 11011KT 1 1/4SM R16L/5000VP6000FT -SN BR FEW004 OVC010 M02/M03 A2993 RMK AO2 TWR VIS 2 SLP145 P0002 T10171033=
202102140048 SPECI KSEA 140048Z 10012KT 3/4SM R16L/5000VP6000FT -SN BR FEW004 OVC010 M02/M03 A2993 RMK AO2 P0002=
202102140029 SPECI KSEA 140029Z 10009KT 3/4SM R16L/4500VP6000FT -SN BR FEW004 OVC009 M01/M03 A2992 RMK AO2 P0001 T10111028=
202102132353 METAR KSEA 132353Z 09011KT 1 1/2SM -SN BR FEW005 OVC013 M01/M03 A2991 RMK AO2 SLP139 4/008 P0002 60011 T10111028 11011 21022 53026=
202102132304 SPECI KSEA 132304Z 09009KT 1SM R16L/4000VP6000FT -SN BR FEW003 OVC011 M01/M03 A2989 RMK AO2 P0000 T10111028=
202102132253 METAR KSEA 132253Z 10008KT 2SM -SN BR FEW008 OVC011 M01/M03 A2988 RMK AO2 SLP130 P0001 T10111028=
202102132249 SPECI KSEA 132249Z 08009KT 2SM R16L/5000VP6000FT -SN BR FEW008 OVC011 M01/M03 A2988 RMK AO2 P0001=
202102132211 SPECI KSEA 132211Z 12007KT 3/4SM R16L/P6000FT -SN FEW009 OVC014 M01/M03 A2987 RMK AO2 P0000 T10111028=
202102132153 METAR KSEA 132153Z 11008KT 3/4SM R16L/P6000FT -SN FEW009 OVC018 M01/M03 A2985 RMK AO2 SLP120 P0001 T10111028=
202102132144 SPECI KSEA 132144Z 11009KT 3/4SM R16L/4000VP6000FT -SN BR FEW009 OVC018 M01/M03 A2985 RMK AO2 P0001 T10111028=
202102132053 METAR KSEA 132053Z 11008KT 3/4SM R16L/3000V4000FT -SN BR VV010 M02/M03 A2983 RMK AO2 SLP113 P0003 60007 T10171033 53022=
202102131953 METAR KSEA 131953Z 08008KT 3/4SM R16L/3000V5000FT -SN BR VV012 M02/M04 A2980 RMK AO2 SLP102 P0003 T10171039 $=
202102131943 SPECI KSEA 131943Z 08007KT 3/4SM R16L/3000V5500FT -SN BR VV012 M02/M04 A2979 RMK AO2 P0002 T10171039 $=
202102131914 SPECI KSEA 131914Z 08007KT 3/4SM R16L/3500VP6000FT -SN VV015 M02/M05 A2978 RMK AO2 P0000 T10171050 $=
202102131853 METAR KSEA 131853Z 09007KT 1SM R16L/P6000FT -SN VV018 M02/M06 A2977 RMK AO2 SLP091 P0001 T10171056 $=
202102131848 SPECI KSEA 131848Z 09009KT 1SM R16L/P6000FT -SN VV018 M02/M06 A2976 RMK AO2 P0001 $=
202102131753 METAR KSEA 131753Z 10013KT 3/4SM R16L/5000VP6000FT -SN BR VV013 M03/M05 A2973 RMK AO2 SLP079 P0002 6//// 4/008 933013 T10281050 11028 21039 51024 $=
202102131653 METAR KSEA 131653Z 10013KT 3/4SM R16L/4500V6000FT -SN BR VV014 M03/M06 A2971 RMK AO2 SLP072 P0167 T10331056 $=
202102131608 SPECI KSEA 131608Z 10015KT 3/4SM R16L/6000VP6000FT -SN BR VV013 M03/M06 A2970 RMK AO2 T10331056 PNO $=
202102131553 METAR KSEA 131553Z 10016KT 3/4SM R16L/4500V5500FT -SN BR VV009 M03/M06 A2969 RMK AO2 PK WND 09026/1503 SLP067 T10331056 PNO $=
202102131453 METAR KSEA 131453Z 11016G24KT 3/4SM R16L/5500VP6000FT -SN BR VV008 M04/M06 A2966 RMK AO2 PK WND 11027/1441 SLP055 P0000 60009 T10391056 51017 $=
202102131436 SPECI KSEA 131436Z 11017KT 1/2SM R16L/5000V5500FT SN FZFG VV007 M04/M06 A2966 RMK AO2 PK WND 11026/1421 P0000 T10391056 $=
202102131412 SPECI KSEA 131412Z 11019G25KT 3/4SM R16L/P6000FT -SN BR VV011 M04/M06 A2965 RMK AO2 P0000 T10391061=
202102131353 METAR KSEA 131353Z 11019G25KT 1SM R16L/P6000FT -SN VV015 M03/M06 A2964 RMK AO2 PK WND 12030/1314 SLP047 P0002 T10331061=
202102131349 SPECI KSEA 131349Z 11017G27KT 1SM R16L/P6000FT -SN VV015 M03/M06 A2964 RMK AO2 PK WND 12030/1314 P0002=
202102131332 SPECI KSEA 131332Z 11019G29KT 1 1/2SM -SN BKN016 OVC023 M03/M06 A2962 RMK AO2 PK WND 12030/1314 P0002 T10331061=
202102131258 SPECI KSEA 131258Z 11015G21KT 1SM R16L/P6000FT -SN VV012 M03/M05 A2961 RMK AO2 P0001 T10331050=
202102131253 METAR KSEA 131253Z 10015G21KT 3/4SM R16L/P6000FT -SN VV009 M03/M05 A2961 RMK AO2 SLP037 SNINCR 1/6 P0007 T10331050=
202102131153 METAR KSEA 131153Z 09012KT 3/4SM R16L/P6000FT -SN VV009 M03/M05 A2959 RMK AO2 A02 SLP034 P0009 60039 70044 4/005 T10331050 11033 21039 58036 T10331050=
202102131053 METAR KSEA 131053Z 11015KT 1/2SM R16L/4500V6000FT SN VV006 M04/M06 A2964 RMK AO2 SLP047 P0010 T10391056=
202102130953 METAR KSEA 130953Z 11015KT 3/4SM R16L/5000V6000FT -SN VV009 M04/M06 A2968 RMK AO2 PK WND 10026/0926 SLP062 SNINCR 1/4 P0006 T10391056=
202102130920 SPECI KSEA 130920Z 11015G23KT 3/4SM R16L/4500VP6000FT -SN VV009 M04/M06 A2971 RMK AO2 P0002 T10391056=
202102130853 METAR KSEA 130853Z 11017G27KT 1/2SM R16L/4500V5000FT SN VV007 M03/M06 A2972 RMK AO2 PK WND 13028/0838 SLP076 SNINCR 1/3 P0005 60014 T10331056 58036=
202102130753 METAR KSEA 130753Z 10013G22KT 3/4SM R16L/P6000FT -SN VV009 M03/M06 A2976 RMK AO2 PK WND 12028/0654 SLP088 P0003 T10331056 400111039=
202102130653 METAR KSEA 130653Z 11020G27KT 1/2SM R16L/5000V5500FT SN VV007 M04/M06 A2980 RMK AO2 PK WND 12027/0653 SLP103 SNINCR 1/2 P0006 T10391061=
202102130617 SPECI KSEA 130617Z 11011G17KT 1/2SM R16L/4500V5500FT SN VV007 M04/M06 A2982 RMK AO2 P0003 T10391056=
202102130553 METAR KSEA 130553Z 10010KT 1SM R16L/5500VP6000FT -SN BR VV009 M04/M06 A2983 RMK AO2 SLP113 P0003 60005 T10391061 11006 21039 56023=
202102130516 SPECI KSEA 130516Z 10011G18KT 1SM R16L/P6000FT -SN VV013 M04/M07 A2984 RMK AO2 P0000 T10391067=
202102130508 SPECI KSEA 130508Z 11011G18KT 1 1/2SM -SN OVC014 M03/M07 A2985 RMK AO2 P0000 T10331067=
202102130453 METAR KSEA 130453Z 11011G18KT 2SM -SN OVC018 M03/M07 A2985 RMK AO2 SLP120 P0001 T10331067=
202102130408 SPECI KSEA 130408Z 09012KT 3SM -SN OVC028 M03/M07 A2987 RMK AO2 P0000 T10331067=
202102130353 METAR KSEA 130353Z 10012KT 2 1/2SM -SN OVC026 M03/M07 A2988 RMK AO2 SLP129 P0001 T10331067=
202102130344 SPECI KSEA 130344Z 10011KT 2 1/2SM -SN OVC020 M03/M07 A2988 RMK AO2 P0001 T10331067=
202102130253 METAR KSEA 130253Z 10009G21KT 3SM -SN OVC022 M03/M08 A2990 RMK AO2 SNB06 SLP137 P0000 60000 T10281078 56028=
202102130213 SPECI KSEA 130213Z 08013G20KT 4SM -SN OVC026 M03/M08 A2993 RMK AO2 SNB06 P0000 T10281078=
202102130153 METAR KSEA 130153Z 09014G22KT 8SM OVC030 M02/M08 A2993 RMK AO2 SLP147 T10221083=
202102130053 METAR KSEA 130053Z 07017G21KT 10SM OVC038 M01/M09 A2996 RMK AO2 SLP155 T10111094=
202102122353 METAR KSEA 122353Z 09013KT 10SM OVC049 M01/M09 A2999 RMK AO2 SLP166 T10061094 10011 21011 56021=
202102122253 METAR KSEA 122253Z 10015G21KT 10SM OVC049 00/M10 A3001 RMK AO2 SLP172 T00001100=
202102122153 METAR KSEA 122153Z 08009KT 10SM OVC060 01/M10 A3003 RMK AO2 SLP178 T00061100=
202102122053 METAR KSEA 122053Z 09013KT 10SM SCT050 OVC100 01/M11 A3005 RMK AO2 SLP186 T00061106 58004=
202102121953 METAR KSEA 121953Z 10007KT 10SM BKN050 OVC070 01/M10 A3006 RMK AO2 SLP191 T00061100=
202102121853 METAR KSEA 121853Z 07008KT 10SM OVC060 00/M10 A3006 RMK AO2 SLP188 T00001100=
202102121753 METAR KSEA 121753Z 08012KT 10SM BKN050 OVC060 M01/M11 A3006 RMK AO2 SLP191 T10061111 11006 21011 50001=
202102121653 METAR KSEA 121653Z 09010KT 10SM SCT049 OVC060 M01/M11 A3006 RMK AO2 SLP191 T10111111=
202102121553 METAR KSEA 121553Z 09006KT 10SM OVC049 M01/M11 A3007 RMK AO2 SLP194 T10111111=
202102121453 METAR KSEA 121453Z 07007KT 10SM OVC047 M01/M11 A3006 RMK AO2 SLP190 T10111106 53011=
202102121353 METAR KSEA 121353Z 08008KT 10SM OVC047 M01/M10 A3005 RMK AO2 SLP185 T10111100=
202102121253 METAR KSEA 121253Z 07011KT 10SM BKN050 OVC065 M01/M10 A3002 RMK AO2 SLP177 T10111100=
202102121153 METAR KSEA 121153Z 06010G16KT 10SM FEW050 OVC070 M01/M10 A3002 RMK AO2 SLP178 60000 T10111100 10000 21011 50003=
202102121053 METAR KSEA 121053Z 05011KT 10SM OVC050 M01/M09 A3003 RMK AO2 SLP180 T10061094=
202102120953 METAR KSEA 120953Z 06009KT 10SM OVC070 M01/M09 A3003 RMK AO2 SLP179 T10111089=
202102120853 METAR KSEA 120853Z 08010KT 10SM OVC042 M01/M08 A3001 RMK AO2 SLP174 60000 T10061083 50002=
202102120753 METAR KSEA 120753Z 06007KT 10SM OVC055 M01/M07 A3001 RMK AO2 SLP174 T10061067 400331011=
202102120653 METAR KSEA 120653Z 04008KT 10SM OVC055 M01/M06 A3001 RMK AO2 SNE17 SLP173 P0000 T10061056=
202102120553 METAR KSEA 120553Z 04008KT 9SM -SN OVC046 M01/M05 A3001 RMK AO2 SLP171 P0000 60000 T10111050 10006 21011 53003=
202102120453 METAR KSEA 120453Z 04006KT 7SM -SN OVC049 M01/M04 A3000 RMK AO2 SLP170 P0000 T10111044=
202102120353 METAR KSEA 120353Z 06010KT 4SM -SN OVC035 M01/M05 A3000 RMK AO2 SLP169 P0000 T10111050=
202102120253 METAR KSEA 120253Z 05010KT 5SM -SN OVC035 M01/M05 A3000 RMK AO2 SLP168 P0000 60000 T10061050 55008=
202102120153 METAR KSEA 120153Z 03010KT 9SM -SN OVC046 01/M05 A3000 RMK AO2 SLP168 P0000 T00061050=
202102120101 SPECI KSEA 120101Z 04011KT 3SM -SN OVC032 M01/M03 A3001 RMK AO2 P0000 T10061033=
202102120053 METAR KSEA 120053Z 04011KT 2 1/2SM -SN BKN028 OVC039 00/M03 A3001 RMK AO2 SLP172 P0000 T00001028=
202102120029 SPECI KSEA 120029Z 03011KT 2 1/2SM -SN BKN027 OVC039 00/M03 A3002 RMK AO2 P0000 T00001028=
202102120005 SPECI KSEA 120005Z 04010KT 1 1/2SM -SN OVC023 00/M02 A3002 RMK AO2 P0000 T00001022=
202102112353 METAR KSEA 112353Z 03011KT 1SM R16L/5000VP6000FT -SN BKN018 OVC024 00/M02 A3002 RMK AO2 SLP177 P0000 60000 T00001022 10033 20000 55003=
202102112326 SPECI KSEA 112326Z 03012KT 1SM R16L/4500VP6000FT -SN OVC018 00/M03 A3002 RMK AO2 P0000 T00001028=
202102112304 SPECI KSEA 112304Z 03014KT 1 1/2SM -SN OVC025 01/M03 A3002 RMK AO2 P0000 T00061033=
202102112253 METAR KSEA 112253Z 03013KT 3SM -SN BKN029 OVC035 02/M03 A3002 RMK AO2 SNE2156B31 SLP175 P0000 T00171033=
202102112153 METAR KSEA 112153Z 36009KT 8SM -SN FEW030 OVC044 02/M04 A3002 RMK AO2 SLP175 P0000 T00221044=
202102112053 METAR KSEA 112053Z 03011KT 10SM -SN FEW030 OVC060 03/M05 A3003 RMK AO2 SNB52 SLP179 P0000 60000 T00331050 58013=
202102111953 METAR KSEA 111953Z 36012KT 10SM OVC060 03/M04 A3005 RMK AO2 SLP184 T00281044=
202102111853 METAR KSEA 111853Z 01013KT 10SM OVC055 02/M04 A3006 RMK AO2 SLP189 T00221044=
202102111753 METAR KSEA 111753Z 36015KT 10SM FEW015 OVC055 02/M04 A3007 RMK AO2 SLP193 T00171039 10017 20006 58005=
202102111653 METAR KSEA 111653Z 01013KT 10SM FEW015 BKN047 OVC060 01/M04 A3007 RMK AO2 SLP194 T00111039=
202102111553 METAR KSEA 111553Z 36009KT 10SM FEW015 OVC060 01/M03 A3008 RMK AO2 SLP197 T00061033=
202102111453 METAR KSEA 111453Z 01011KT 10SM BKN060 OVC075 01/M02 A3008 RMK AO2 SLP197 T00061022 58018=
202102111353 METAR KSEA 111353Z 36010KT 10SM OVC060 01/M02 A3012 RMK AO2 SLP207 T00061022=
202102111253 METAR KSEA 111253Z 01006KT 10SM OVC060 01/M02 A3013 RMK AO2 SLP211 T00111022=
202102111153 METAR KSEA 111153Z 36006KT 10SM OVC065 01/M02 A3014 RMK AO2 SLP215 T00111017 10028 20011 57009=
202102111053 METAR KSEA 111053Z 03005KT 10SM SCT060 OVC075 02/M03 A3015 RMK AO2 SLP219 T00171033=
202102110953 METAR KSEA 110953Z 06005KT 10SM OVC060 02/M04 A3016 RMK AO2 SLP222 T00171039=
202102110853 METAR KSEA 110853Z 13004KT 10SM OVC065 02/M04 A3017 RMK AO2 SLP225 T00221039 52002=
202102110753 METAR KSEA 110753Z 14005KT 10SM OVC060 02/M04 A3017 RMK AO2 SLP225 T00221039 400611017=
202102110653 METAR KSEA 110653Z 14007KT 10SM FEW030 OVC070 02/M04 A3016 RMK AO2 SLP223 T00221039=
202102110553 METAR KSEA 110553Z 14005KT 10SM BKN065 03/M04 A3016 RMK AO2 SLP224 T00281039 10056 20022 55003=
202102110453 METAR KSEA 110453Z 14005KT 10SM BKN055 02/M04 A3016 RMK AO2 SLP222 T00221044=
202102110353 METAR KSEA 110353Z 17003KT 10SM OVC070 04/M03 A3016 RMK AO2 SLP223 T00391033=
202102110253 METAR KSEA 110253Z 00000KT 10SM BKN070 04/M03 A3017 RMK AO2 SLP226 T00441033 53001=
202102110153 METAR KSEA 110153Z 00000KT 10SM BKN070 BKN200 04/M04 A3017 RMK AO2 SLP227 T00441039=
202102110053 METAR KSEA 110053Z 21003KT 10SM BKN070 BKN250 04/M04 A3016 RMK AO2 SLP224 T00441039=
202102102353 METAR KSEA 102353Z 23007KT 10SM FEW034 BKN070 BKN250 06/M03 A3017 RMK AO2 SLP226 T00561033 10061 20011 55006=
202102102253 METAR KSEA 102253Z 24007KT 10SM SCT033 BKN050 06/M03 A3016 RMK AO2 SLP224 T00611033=
202102102153 METAR KSEA 102153Z 23007KT 10SM SCT023 BKN035 BKN050 06/M02 A3017 RMK AO2 SLP227 T00561017=
202102102148 SPECI KSEA 102148Z 21008KT 10SM BKN023 BKN035 06/M01 A3017 RMK AO2=
202102102053 METAR KSEA 102053Z 13006KT 10SM FEW012 SCT060 05/M02 A3018 RMK AO2 SLP230 T00501017 50000=
202102101953 METAR KSEA 101953Z 17005KT 10SM FEW009 SCT055 04/M01 A3020 RMK AO2 SLP235 T00391006=
202102101853 METAR KSEA 101853Z 00000KT 10SM FEW007 FEW015 SCT055 02/M02 A3020 RMK AO2 SLP236 T00171017=
202102101820 SPECI KSEA 101820Z 14004KT 10SM FEW007 SCT015 BKN055 02/M02 A3019 RMK AO2 T00171022=
202102101753 METAR KSEA 101753Z 15006KT 10SM FEW020 BKN055 01/M03 A3018 RMK AO2 SLP231 T00111028 10011 21017 50003=
202102101653 METAR KSEA 101653Z 12004KT 10SM FEW015 BKN055 00/M03 A3018 RMK AO2 SLP232 T00001028=
202102101553 METAR KSEA 101553Z 13005KT 10SM FEW015 BKN055 00/M03 A3018 RMK AO2 SLP230 T00001028=
202102101453 METAR KSEA 101453Z 13006KT 8SM OVC050 M01/M03 A3017 RMK AO2 SLP228 T10061033 51005=
202102101353 METAR KSEA 101353Z 12006KT 10SM BKN050 M01/M03 A3017 RMK AO2 SLP227 T10061033=
202102101253 METAR KSEA 101253Z 14005KT 10SM BKN050 M01/M03 A3017 RMK AO2 SLP227 T10061033=
202102101153 METAR KSEA 101153Z 12005KT 10SM SCT050 M01/M04 A3016 RMK AO2 SLP221 T10111039 10022 21011 56002=
202102101053 METAR KSEA 101053Z 12004KT 10SM FEW050 M01/M04 A3016 RMK AO2 SLP221 T10061039=
202102100953 METAR KSEA 100953Z 00000KT 10SM SCT050 00/M03 A3015 RMK AO2 SLP220 T00001033=
202102100853 METAR KSEA 100853Z 00000KT 10SM BKN050 01/M03 A3016 RMK AO2 SLP223 T00111033 58000=
202102100753 METAR KSEA 100753Z 08004KT 10SM SCT050 01/M04 A3017 RMK AO2 SLP224 T00111039=
202102100635 METAR KSEA 100635Z 02006KT 10SM BKN050 02/M03 A3016 RMK AO2 SLP224 T00171033=
202102100553 METAR KSEA 100553Z 04008KT 10SM BKN050 02/M03 A3016 RMK AO2 SLP223 T00221033 10061 20022 58000=
202102100453 METAR KSEA 100453Z 04007KT 10SM BKN055 03/M02 A3016 RMK AO2 SLP225 T00281022=
202102100353 METAR KSEA 100353Z 01008KT 10SM BKN055 03/M03 A3016 RMK AO2 SLP225 T00281028=
202102100253 METAR KSEA 100253Z 02009KT 10SM SCT060 03/M02 A3016 RMK AO2 SLP225 T00281022 53006=
202102100153 METAR KSEA 100153Z 36007KT 10SM SCT050 03/M03 A3016 RMK AO2 SLP222 T00281028=
202102100053 METAR KSEA 100053Z 36005KT 10SM FEW028 SCT050 05/M03 A3015 RMK AO2 SLP219 T00501033=
202102092353 METAR KSEA 092353Z 03006KT 10SM FEW028 SCT050 06/M03 A3015 RMK AO2 SLP218 T00611028 10072 20028 56003=
202102092253 METAR KSEA 092253Z 04004KT 10SM FEW028 SCT048 07/M03 A3015 RMK AO2 SLP218 T00671033=
202102092153 METAR KSEA 092153Z 30005KT 10SM SCT028 BKN045 06/M01 A3015 RMK AO2 SLP219 T00611011=
202102092129 SPECI KSEA 092129Z 29004KT 10SM SCT025 BKN037 04/M02 A3015 RMK AO2 T00441017=
202102092053 METAR KSEA 092053Z 36003KT 10SM BKN024 04/M02 A3016 RMK AO2 SLP221 T00441017 58001=
202102091953 METAR KSEA 091953Z 28003KT 10SM FEW017 BKN024 04/M02 A3017 RMK AO2 SLP225 T00441017=
202102091942 SPECI KSEA 091942Z 00000KT 10SM FEW015 BKN022 04/M02 A3017 RMK AO2 T00441017=
202102091853 METAR KSEA 091853Z 03005KT 10SM FEW014 SCT022 04/M01 A3017 RMK AO2 SLP226 T00441011=
202102091846 SPECI KSEA 091846Z 02003KT 10SM FEW014 SCT022 04/M02 A3017 RMK AO2 T00391017=
202102091753 METAR KSEA 091753Z 35004KT 10SM FEW013 BKN020 03/M01 A3016 RMK AO2 SLP221 T00281006 10028 21006 53017 $=
202102091750 SPECI KSEA 091750Z 36005KT 10SM FEW013 BKN020 03/M01 A3015 RMK AO2 $=
202102091653 METAR KSEA 091653Z 36005KT 10SM FEW013 SCT025 02/M01 A3014 RMK AO2 SLP215 T00171006 $=
202102091553 METAR KSEA 091553Z 36007KT 10SM FEW006 FEW024 FEW200 M01/M02 A3012 RMK AO2 SLP210 T10061022=
202102091517 SPECI KSEA 091517Z 01005KT 10SM FEW006 SCT024 01/M01 A3011 RMK AO2 T00061011=
202102091453 METAR KSEA 091453Z 35003KT 10SM SCT006 BKN026 01/00 A3011 RMK AO2 SLP205 T00110000 53003=
202102091448 SPECI KSEA 091448Z 35003KT 9SM SCT006 BKN026 01/00 A3011 RMK AO2=
202102091353 METAR KSEA 091353Z 01006KT 9SM SCT006 BKN060 01/M01 A3010 RMK AO2 SLP202 T00061006=
202102091312 SPECI KSEA 091312Z 36006KT 10SM FEW006 SCT060 01/M01 A3010 RMK AO2 T00111006=
202102091253 METAR KSEA 091253Z 00000KT 10SM BKN060 02/01 A3010 RMK AO2 SLP202 T00170006=
202102091153 METAR KSEA 091153Z 02004KT 10SM SCT041 OVC060 02/01 A3010 RMK AO2 SLP202 T00170006 10044 20017 53001=
202102091053 METAR KSEA 091053Z 01005KT 10SM FEW030 BKN060 02/00 A3010 RMK AO2 SLP200 T00220000=
202102090953 METAR KSEA 090953Z 06003KT 10SM OVC060 03/00 A3010 RMK AO2 SLP201 T00280000=
202102090853 METAR KSEA 090853Z 03003KT 10SM FEW030 OVC060 03/00 A3009 RMK AO2 SLP200 T00330000 51005=
202102090753 METAR KSEA 090753Z 02004KT 10SM FEW030 OVC065 04/01 A3009 RMK AO2 SLP198 T00390006 400720017=
202102090653 METAR KSEA 090653Z 01003KT 10SM BKN030 OVC070 04/01 A3009 RMK AO2 SLP198 T00390006=
202102090553 METAR KSEA 090553Z 05005KT 10SM SCT030 OVC070 04/01 A3008 RMK AO2 SLP195 T00440006 10056 20039 53006=
202102090453 METAR KSEA 090453Z 01004KT 10SM SCT032 OVC060 04/01 A3007 RMK AO2 SLP193 T00390006=
202102090353 METAR KSEA 090353Z 02004KT 10SM SCT035 OVC070 05/M01 A3007 RMK AO2 SLP190 T00501006=
202102090253 METAR KSEA 090253Z 03003KT 10SM FEW039 BKN070 06/M01 A3006 RMK AO2 SLP189 T00561011 53004=
202102090153 METAR KSEA 090153Z 05004KT 10SM FEW030 BKN060 06/M02 A3006 RMK AO2 SLP187 T00561022=
202102090053 METAR KSEA 090053Z 00000KT 10SM FEW030 BKN060 BKN250 06/M02 A3005 RMK AO2 SLP187 T00561022=
202102082353 METAR KSEA 082353Z 18004KT 10SM FEW030 BKN060 BKN250 06/M02 A3005 RMK AO2 SLP186 T00561017 10072 20028 58004=
202102082253 METAR KSEA 082253Z VRB04KT 10SM SCT027 BKN060 BKN250 07/M01 A3006 RMK AO2 SLP188 T00671006=
202102082153 METAR KSEA 082153Z 28006KT 10SM SCT023 SCT250 06/M01 A3006 RMK AO2 SLP189 T00611006=
202102082053 METAR KSEA 082053Z 21006KT 10SM SCT014 SCT060 SCT250 05/01 A3006 RMK AO2 SLP190 T00500006 50000=
202102082049 SPECI KSEA 082049Z 23009KT 10SM SCT014 SCT060 SCT250 05/01 A3007 RMK AO2=
202102082020 SPECI KSEA 082020Z 25006KT 10SM BKN015 BKN250 04/01 A3007 RMK AO2 T00440006=
202102081953 METAR KSEA 081953Z 23008KT 10SM BKN012 04/01 A3007 RMK AO2 SLP193 T00440006=
202102081924 SPECI KSEA 081924Z 18009KT 10SM OVC011 05/01 A3008 RMK AO2 T00500011=
202102081853 METAR KSEA 081853Z 19007KT 10SM BKN009 OVC013 03/01 A3008 RMK AO2 SLP194 T00330006=
202102081843 SPECI KSEA 081843Z 19005KT 10SM BKN009 OVC015 03/01 A3007 RMK AO2 T00330011=
202102081753 METAR KSEA 081753Z 18006KT 10SM BKN012 BKN060 03/01 A3007 RMK AO2 SLP190 60000 T00330011 10033 20017 53010=
202102081731 SPECI KSEA 081731Z 20006KT 10SM BKN014 BKN060 03/01 A3006 RMK AO2 T00330006=
202102081653 METAR KSEA 081653Z 19006KT 10SM SCT015 BKN060 BKN250 03/01 A3005 RMK AO2 SLP185 T00280006=
202102081612 SPECI KSEA 081612Z 15005KT 10SM FEW012 BKN020 BKN065 03/01 A3004 RMK AO2 T00280006=
202102081553 METAR KSEA 081553Z 15007KT 10SM FEW012 SCT025 BKN065 02/01 A3004 RMK AO2 SLP180 T00220006=
202102081546 SPECI KSEA 081546Z 15007KT 10SM FEW014 SCT025 BKN065 02/01 A3003 RMK AO2 T00220006=
202102081453 METAR KSEA 081453Z 07005KT 10SM SCT013 BKN025 OVC070 02/01 A3003 RMK AO2 SLP180 60000 T00220006 53006=
202102081436 SPECI KSEA 081436Z 07005KT 10SM SCT013 BKN023 OVC070 02/01 A3003 RMK AO2 T00220006=
202102081353 METAR KSEA 081353Z 07006KT 7SM FEW004 BKN012 OVC025 02/01 A3003 RMK AO2 SNE24 SLP178 P0000 T00170006=
202102081305 SPECI KSEA 081305Z 08007KT 3SM -SN BR FEW007 OVC012 02/01 A3002 RMK AO2 P0000 T00170006=
202102081253 METAR KSEA 081253Z 08007KT 2SM -SN BR FEW007 OVC014 02/01 A3002 RMK AO2 SNB16 SLP174 P0000 T00170006=
202102081247 SPECI KSEA 081247Z 07008KT 2SM -SN BR FEW007 OVC014 02/00 A3002 RMK AO2 SNB16 P0000=
202102081222 SPECI KSEA 081222Z 06007KT 2SM -SN BR BKN007 OVC012 02/00 A3001 RMK AO2 SNB16 P0000 T00170000=
202102081218 SPECI KSEA 081218Z 05008KT 2SM -SN BR SCT007 OVC012 02/01 A3001 RMK AO2 SNB16 P0000 T00220006=
202102081153 METAR KSEA 081153Z 16004KT 10SM OVC009 03/01 A3001 RMK AO2 SLP170 60004 70004 T00330011 10039 20033 53006=
202102081053 METAR KSEA 081053Z 18005KT 10SM OVC012 03/01 A3000 RMK AO2 SLP167 T00330011=
202102081036 SPECI KSEA 081036Z 18007KT 10SM BKN012 OVC021 03/01 A3000 RMK AO2 T00330011=
202102080953 METAR KSEA 080953Z 20007KT 10SM SCT013 BKN021 BKN035 04/02 A2999 RMK AO2 SLP165 T00390017=
202102080926 SPECI KSEA 080926Z 18007KT 10SM SCT013 BKN021 BKN035 04/02 A2999 RMK AO2 T00390017=
202102080853 METAR KSEA 080853Z 19009KT 10SM BKN013 BKN020 BKN035 04/02 A2999 RMK AO2 SLP164 60004 T00390017 55000=
202102080835 SPECI KSEA 080835Z 19006KT 10SM BKN015 BKN035 BKN075 04/02 A2999 RMK AO2 T00390022=
202102080753 METAR KSEA 080753Z 19008KT 10SM FEW012 BKN034 OVC070 04/02 A2999 RMK AO2 SLP164 T00390022 400890033=
202102080653 METAR KSEA 080653Z 22007KT 10SM SCT033 BKN055 04/02 A2999 RMK AO2 RAE18 SLP162 P0004 T00390017=
202102080623 SPECI KSEA 080623Z 19009KT 10SM SCT022 BKN043 OVC055 04/02 A2999 RMK AO2 RAE18 P0004 T00390017=
202102080553 METAR KSEA 080553Z 25008KT 7SM -RA SCT015 OVC021 04/02 A2999 RMK AO2 RAB03 SLP164 P0000 60000 T00440017 10078 20044 53010=
202102080453 METAR KSEA 080453Z 22010KT 10SM BKN016 OVC034 05/01 A2997 RMK AO2 RAB13E49 SLP159 P0000 T00500011=
202102080446 SPECI KSEA 080446Z 23008KT 10SM -RA SCT016 BKN026 OVC034 05/01 A2997 RMK AO2 RAB13 P0000 T00500011=
202102080414 SPECI KSEA 080414Z 22008KT 10SM -RA SCT017 BKN041 OVC048 05/02 A2997 RMK AO2 RAB13 P0000 T00500017=
202102080353 METAR KSEA 080353Z 22011KT 10SM SCT017 BKN022 OVC028 05/02 A2997 RMK AO2 SLP158 T00500017=
202102080253 METAR KSEA 080253Z 23011KT 10SM SCT018 OVC024 06/02 A2996 RMK AO2 SLP154 T00560017 53003=
202102080153 METAR KSEA 080153Z 21012KT 10SM BKN019 BKN065 06/02 A2996 RMK AO2 SLP153 T00560017=
202102080053 METAR KSEA 080053Z 22011KT 10SM OVC021 07/02 A2995 RMK AO2 SLP151 T00670017=
202102072353 METAR KSEA 072353Z 22015G22KT 10SM BKN023 BKN095 08/02 A2995 RMK AO2 SLP151 T00780022 10089 20061 58016=
202102072322 SPECI KSEA 072322Z 21014G21KT 10SM BKN024 OVC095 08/03 A2996 RMK AO2 T00780028=
202102072253 METAR KSEA 072253Z 20009G20KT 10SM SCT026 BKN095 08/02 A2997 RMK AO2 SLP156 T00780022=
202102072153 METAR KSEA 072153Z 20015G21KT 10SM FEW027 SCT035 BKN070 08/02 A2999 RMK AO2 SLP163 T00780017=
202102072053 METAR KSEA 072053Z 22019G22KT 10SM SCT024 BKN031 BKN100 09/02 A3000 RMK AO2 SLP167 T00890022 58012=
202102071953 METAR KSEA 071953Z 21015KT 10SM FEW020 SCT029 BKN050 08/02 A3002 RMK AO2 SLP174 T00830017=
202102071853 METAR KSEA 071853Z 20012KT 10SM SCT020 BKN026 07/02 A3003 RMK AO2 SLP178 T00720022=
202102071753 METAR KSEA 071753Z 21009KT 10SM BKN017 BKN040 06/02 A3004 RMK AO2 SLP179 T00610022 10061 20050 58001=
202102071653 METAR KSEA 071653Z 20011KT 10SM BKN016 BKN040 06/02 A3004 RMK AO2 SLP180 T00560022=
202102071553 METAR KSEA 071553Z 19009KT 140V200 10SM BKN015 OVC021 05/02 A3004 RMK AO2 SLP180 T00500022=
202102071453 METAR KSEA 071453Z 20011KT 10SM OVC019 05/02 A3004 RMK AO2 SLP180 T00500017 53002=
202102071353 METAR KSEA 071353Z 22011KT 10SM BKN020 OVC025 06/02 A3004 RMK AO2 SLP180 T00560017=
202102071253 METAR KSEA 071253Z 22014KT 10SM BKN021 BKN049 06/02 A3003 RMK AO2 SLP177 T00560017=
202102071153 METAR KSEA 071153Z 22013KT 10SM BKN023 BKN050 06/02 A3003 RMK AO2 SLP178 T00560017 10072 20056 51004=
202102071146 SPECI KSEA 071146Z 20011KT 10SM BKN023 BKN050 06/01 A3003 RMK AO2 T00560011=
202102071053 METAR KSEA 071053Z 22010KT 10SM SCT020 SCT050 06/02 A3003 RMK AO2 SLP178 T00560017=
202102070953 METAR KSEA 070953Z 22012KT 10SM SCT022 SCT050 06/02 A3003 RMK AO2 SLP176 T00610017=
202102070904 SPECI KSEA 070904Z 22009KT 10SM SCT022 BKN050 06/01 A3002 RMK AO2 T00560011=
202102070853 METAR KSEA 070853Z 22011KT 10SM BKN023 BKN050 06/02 A3002 RMK AO2 SLP174 T00610017 53006=
202102070753 METAR KSEA 070753Z 22016G22KT 10SM OVC023 07/02 A3001 RMK AO2 SLP170 T00670017 401000061=
202102070653 METAR KSEA 070653Z 21012G19KT 10SM OVC021 07/03 A3000 RMK AO2 SLP168 T00720028=
202102070553 METAR KSEA 070553Z 22015KT 10SM BKN018 07/03 A3000 RMK AO2 SLP168 T00720028 10094 20072 53006=
202102070453 METAR KSEA 070453Z 23017G25KT 10SM BKN017 07/03 A2999 RMK AO2 PK WND 22026/0414 SLP164 T00720033=
202102070353 METAR KSEA 070353Z 22016G29KT 10SM OVC016 07/03 A2998 RMK AO2 PK WND 22029/0347 SLP160 T00720033=
202102070253 METAR KSEA 070253Z 22015G22KT 10SM OVC015 08/04 A2998 RMK AO2 SLP162 T00780044 51012=
202102070153 METAR KSEA 070153Z 21017G24KT 10SM OVC016 08/05 A2997 RMK AO2 SLP157 T00830050=
202102070053 METAR KSEA 070053Z 23010KT 10SM BKN020 09/05 A2997 RMK AO2 SLP155 T00890050=
202102062353 METAR KSEA 062353Z 23017G21KT 10SM BKN021 OVC027 09/05 A2995 RMK AO2 SLP148 60000 T00940050 10100 20061 53013=
202102062253 METAR KSEA 062253Z 23016G21KT 10SM BKN019 BKN075 10/06 A2993 RMK AO2 PK WND 22027/2205 SLP142 T01000056=
202102062224 SPECI KSEA 062224Z 22018G25KT 10SM BKN016 BKN023 10/06 A2992 RMK AO2 PK WND 22027/2205 T01000056=
202102062153 METAR KSEA 062153Z 23016G26KT 10SM BKN014 BKN022 09/06 A2992 RMK AO2 PK WND 22031/2115 SLP138 T00940061=
202102062117 SPECI KSEA 062117Z 21017G31KT 10SM OVC010 09/06 A2992 RMK AO2 PK WND 22031/2115 T00890061=
202102062053 METAR KSEA 062053Z 21023G33KT 10SM OVC009 09/06 A2991 RMK AO2 PK WND 21035/2043 SLP136 60000 T00890061 56027=
202102062011 SPECI KSEA 062011Z 20023G33KT 10SM BKN008 OVC014 08/06 A2992 RMK AO2 PK WND 20033/2002 T00780061=
202102061953 METAR KSEA 061953Z 20018G31KT 10SM OVC012 08/06 A2993 RMK AO2 PK WND 20035/1943 SLP143 T00780061=
202102061853 METAR KSEA 061853Z 20019G29KT 5SM BR BKN010 OVC015 07/05 A2997 RMK AO2 PK WND 21032/1804 RAE06 SLP156 P0000 T00670050=
202102061753 METAR KSEA 061753Z 19021G33KT 3SM -RA BR SCT010 BKN014 OVC021 06/04 A2999 RMK AO2 PK WND 20033/1753 RAB47 SLP164 P0000 60000 T00610044 10072 20061 58024=
202102061737 SPECI KSEA 061737Z 19025G31KT 4SM BR FEW010 BKN022 OVC100 06/04 A2999 RMK AO2 PK WND 22031/1657 T00610039=
202102061653 METAR KSEA 061653Z 20021G33KT 10SM BKN012 OVC085 07/03 A3003 RMK AO2 PK WND 20035/1621 SLP176 T00670033=
202102061553 METAR KSEA 061553Z 21028G37KT 10SM BKN013 OVC020 07/03 A3002 RMK AO2 PK WND 20037/1552 SLP175 T00670033=
202102061453 METAR KSEA 061453Z 20023G33KT 10SM OVC013 07/03 A3006 RMK AO2 PK WND 20033/1452 SLP188 T00670033 58034=
202102061437 SPECI KSEA 061437Z 19021G25KT 10SM BKN013 OVC018 07/03 A3007 RMK AO2 T00670033=
202102061353 METAR KSEA 061353Z 21016G23KT 10SM BKN017 OVC025 07/03 A3011 RMK AO2 PK WND 21027/1313 SLP203 T00670033=
202102061253 METAR KSEA 061253Z 19013G24KT 10SM BKN021 OVC029 07/03 A3014 RMK AO2 SLP212 T00720033=
202102061153 METAR KSEA 061153Z 19015KT 10SM BKN022 OVC028 07/03 A3016 RMK AO2 SLP222 60000 T00670033 10072 20067 58015=
202102061053 METAR KSEA 061053Z 20014G20KT 10SM SCT019 OVC025 07/03 A3018 RMK AO2 SLP228 T00720033=
202102060953 METAR KSEA 060953Z 20014KT 10SM BKN020 OVC026 07/03 A3020 RMK AO2 SLP234 T00720033=
202102060853 METAR KSEA 060853Z 19014KT 10SM BKN018 OVC025 07/04 A3021 RMK AO2 RAE50 SLP236 P0000 60000 T00720039 58015=
202102060753 METAR KSEA 060753Z 18009KT 10SM -RA OVC015 07/04 A3024 RMK AO2 SLP247 CIG 013V017 P0000 T00720044 401110067=
202102060653 METAR KSEA 060653Z 18009KT 9SM -RA BKN016 OVC022 07/04 A3025 RMK AO2 SLP252 P0000 T00720044=
202102060601 SPECI KSEA 060601Z 18009KT 10SM -RA BKN016 OVC023 07/05 A3025 RMK AO2 P0000 T00720050=
202102060553 METAR KSEA 060553Z 18010KT 10SM -RA BKN014 OVC021 07/05 A3025 RMK AO2 RAB50 SLP252 P0000 60000 T00720050 10094 20072 55001=
202102060536 SPECI KSEA 060536Z 18011KT 9SM BKN014 OVC021 07/05 A3025 RMK AO2 T00720050=
202102060453 METAR KSEA 060453Z 20010KT 10SM BKN020 OVC025 08/05 A3025 RMK AO2 RAE50 SLP251 P0000 T00780050=
202102060353 METAR KSEA 060353Z 21012KT 170V240 6SM -RA BR OVC014 07/06 A3026 RMK AO2 RAB47 SLP254 P0000 T00720056=
202102060253 METAR KSEA 060253Z 21011KT 10SM SCT017 BKN022 OVC030 08/06 A3025 RMK AO2 SLP253 60000 T00830056 58001=
202102060153 METAR KSEA 060153Z 21007KT 10SM FEW008 SCT017 OVC027 08/07 A3026 RMK AO2 DZE51 SLP256 P0000 T00830067=
202102060117 SPECI KSEA 060117Z 20007KT 4SM -DZ BR FEW006 BKN015 08/07 A3027 RMK AO2 P0000 T00830067=
202102060110 SPECI KSEA 060110Z 21008KT 6SM -DZ BR SCT010 BKN013 OVC022 08/06 A3027 RMK AO2 P0000 T00830061=
202102060053 METAR KSEA 060053Z 19007KT 5SM -DZ FEW015 OVC023 09/06 A3027 RMK AO2 DZB38 SLP258 P0000 T00890061=
202102060041 SPECI KSEA 060041Z 19006KT 6SM -DZ OVC025 09/06 A3027 RMK AO2 DZB38 P0000 T00890061=
202102060015 SPECI KSEA 060015Z 22007KT 10SM FEW016 BKN030 OVC048 09/06 A3027 RMK AO2 T00890061=
202102052353 METAR KSEA 052353Z 16005KT 10SM FEW016 OVC027 09/06 A3026 RMK AO2 SLP254 T00890061 10111 20089 55003=
202102052253 METAR KSEA 052253Z 22008KT 10SM FEW018 OVC027 09/06 A3026 RMK AO2 SLP254 T00940056=
202102052229 SPECI KSEA 052229Z 22007KT 10SM BKN027 BKN048 10/06 A3026 RMK AO2 T01000056=
202102052153 METAR KSEA 052153Z 21008KT 10SM SCT018 SCT040 BKN120 BKN250 11/05 A3026 RMK AO2 SLP254 T01060050=
202102052053 METAR KSEA 052053Z 25008KT 10SM FEW015 SCT020 BKN043 11/06 A3027 RMK AO2 SLP257 T01060056 51017=
202102051953 METAR KSEA 051953Z 24008KT 10SM SCT012 BKN030 11/06 A3026 RMK AO2 SLP255 T01060061=
202102051930 SPECI KSEA 051930Z 21009KT 10SM FEW027 BKN034 10/06 A3026 RMK AO2 T01000061=
202102051853 METAR KSEA 051853Z 22013KT 10SM FEW014 BKN023 09/06 A3024 RMK AO2 SLP249 T00890061=
202102051841 SPECI KSEA 051841Z 21011KT 10SM SCT014 BKN023 09/06 A3024 RMK AO2 T00940061=
202102051826 SPECI KSEA 051826Z 22010KT 10SM BKN014 BKN019 09/06 A3024 RMK AO2 T00940061=
202102051753 METAR KSEA 051753Z 20011KT 10SM SCT034 BKN200 10/07 A3022 RMK AO2 RAB00E07 SLP241 P0000 60000 T01000067 10100 20078 51031=
202102051653 METAR KSEA 051653Z 22005KT 10SM SCT010 SCT026 BKN049 09/07 A3021 RMK AO2 SLP238 T00940072=
202102051609 SPECI KSEA 051609Z 20006KT 10SM SCT010 BKN032 08/07 A3018 RMK AO2 T00830067=
202102051553 METAR KSEA 051553Z 19005KT 10SM BKN010 BKN020 08/07 A3017 RMK AO2 SLP225 T00830067=
202102051541 SPECI KSEA 051541Z 19006KT 10SM BKN010 OVC020 08/07 A3017 RMK AO2 T00830067=
202102051453 METAR KSEA 051453Z 21008KT 10SM OVC007 08/07 A3012 RMK AO2 SLP208 T00830067 53024=
202102051353 METAR KSEA 051353Z 20010KT 10SM OVC007 08/07 A3008 RMK AO2 SLP196 T00780067=
202102051253 METAR KSEA 051253Z 21019G28KT 10SM OVC008 08/06 A3006 RMK AO2 PK WND 22030/1219 SLP187 T00780061=
202102051235 SPECI KSEA 051235Z 22017G25KT 10SM OVC008 08/06 A3006 RMK AO2 PK WND 22030/1219 T00780061=
202102051153 METAR KSEA 051153Z 22022G30KT 10SM OVC011 08/06 A3005 RMK AO2 PK WND 22031/1142 SLP185 60000 70001 T00780056 10083 20078 56019=
202102051053 METAR KSEA 051053Z 21019G27KT 10SM OVC013 08/06 A3005 RMK AO2 PK WND 20034/1018 SLP185 T00780056=
202102050953 METAR KSEA 050953Z 21022G33KT 10SM OVC014 08/06 A3008 RMK AO2 PK WND 21033/0948 SLP194 T00780056=
202102050853 METAR KSEA 050853Z 21017G24KT 10SM OVC014 08/06 A3011 RMK AO2 PK WND 20029/0814 SLP204 60000 T00830056 55020=
202102050753 METAR KSEA 050753Z 20023G30KT 10SM OVC016 08/06 A3011 RMK AO2 PK WND 22032/0735 SLP203 T00830056 400890056=
202102050736 SPECI KSEA 050736Z 21023G32KT 10SM OVC016 08/06 A3012 RMK AO2 PK WND 22032/0735 T00830056=
202102050653 METAR KSEA 050653Z 20020G32KT 10SM BKN012 OVC018 08/06 A3013 RMK AO2 PK WND 21032/0648 RAE06 SLP212 P0000 T00830061=
202102050553 METAR KSEA 050553Z 20018G26KT 10SM -RA OVC011 08/07 A3017 RMK AO2 PK WND 21031/0511 RAB46 SLP224 P0000 60001 T00830067 10089 20072 56023=
202102050530 SPECI KSEA 050530Z 21018G28KT 10SM BKN010 OVC016 08/07 A3018 RMK AO2 PK WND 21031/0511 T00830067=
202102050453 METAR KSEA 050453Z 20020G26KT 10SM OVC008 08/07 A3019 RMK AO2 PK WND 21027/0421 SLP231 T00830067=
202102050433 SPECI KSEA 050433Z 20016G25KT 10SM OVC009 09/07 A3020 RMK AO2 PK WND 21027/0421 T00890067=
202102050353 METAR KSEA 050353Z 20017G24KT 10SM OVC012 09/07 A3021 RMK AO2 SLP239 T00890067=
202102050253 METAR KSEA 050253Z 20013G22KT 10SM OVC012 08/07 A3024 RMK AO2 SLP248 P0001 60001 T00830067 56023=
202102050235 SPECI KSEA 050235Z 19015G20KT 10SM OVC012 08/07 A3024 RMK AO2 P0001 T00830067=
202102050153 METAR KSEA 050153Z 19014KT 10SM OVC009 08/06 A3025 RMK AO2 PK WND 18028/0121 DZE49 SLP250 P0000 T00780061=
202102050053 METAR KSEA 050053Z 20014G25KT 5SM -DZ BR OVC007 08/06 A3027 RMK AO2 DZE27B48RAB27E30B47E48 SLP260 P0000 T00780061=
202102050014 SPECI KSEA 050014Z 18011KT 2SM -DZ BR OVC007 07/06 A3029 RMK AO2 P0000 T00720056=
202102042353 METAR KSEA 042353Z 19010KT 3SM -DZ BR OVC008 08/06 A3031 RMK AO2 SLP271 P0000 60000 T00780056 10078 20067 57022=
202102042326 SPECI KSEA 042326Z 18011KT 4SM -DZ BR OVC009 07/06 A3031 RMK AO2 P0000 T00720056=
202102042253 METAR KSEA 042253Z 18010KT 8SM -DZ OVC012 07/05 A3033 RMK AO2 RAE24DZB53 SLP278 P0000 T00720050=
202102042205 SPECI KSEA 042205Z 18008KT 10SM -RA OVC012 07/05 A3035 RMK AO2 P0000 T00720050=
202102042153 METAR KSEA 042153Z 17007KT 9SM -RA OVC015 07/04 A3035 RMK AO2 RAB42 SLP286 P0000 T00720044=
202102042053 METAR KSEA 042053Z 20011KT 10SM BKN016 OVC030 07/04 A3037 RMK AO2 SLP294 T00720044 58006=
202102041953 METAR KSEA 041953Z 21010G19KT 10SM BKN017 OVC050 07/04 A3039 RMK AO2 SLP299 T00720039=
202102041853 METAR KSEA 041853Z 22012KT 10SM SCT013 BKN018 OVC055 07/04 A3041 RMK AO2 SLP305 T00720044=
202102041845 SPECI KSEA 041845Z 21013KT 10SM SCT013 BKN018 OVC055 07/04 A3040 RMK AO2 T00670044=
202102041753 METAR KSEA 041753Z 20011KT 10SM OVC011 07/04 A3039 RMK AO2 SLP300 T00670044 10067 20056 51006=
202102041749 SPECI KSEA 041749Z 21011KT 10SM BKN009 OVC018 07/04 A3039 RMK AO2=
202102041715 SPECI KSEA 041715Z 22008KT 10SM BKN013 OVC018 06/04 A3039 RMK AO2 T00610044=
202102041653 METAR KSEA 041653Z 20009KT 10SM SCT013 OVC018 06/04 A3039 RMK AO2 SLP299 T00610044=
202102041645 SPECI KSEA 041645Z 20010KT 10SM SCT013 OVC018 06/04 A3038 RMK AO2 T00610044=
202102041553 METAR KSEA 041553Z 20009KT 10SM OVC010 06/04 A3038 RMK AO2 SLP295 T00610044=
202102041453 METAR KSEA 041453Z 20007KT 10SM OVC010 06/04 A3037 RMK AO2 SLP294 T00610039 58000=
202102041438 SPECI KSEA 041438Z 19009KT 10SM OVC010 06/04 A3037 RMK AO2 T00610039=
202102041401 SPECI KSEA 041401Z 18007KT 10SM OVC008 06/04 A3037 RMK AO2 T00560039=
202102041353 METAR KSEA 041353Z 19007KT 10SM OVC010 06/04 A3037 RMK AO2 SLP294 T00560039=
202102041253 METAR KSEA 041253Z 19007KT 10SM BKN010 OVC014 06/03 A3038 RMK AO2 SLP296 T00560033=
202102041153 METAR KSEA 041153Z 21009KT 10SM OVC013 06/03 A3037 RMK AO2 SLP294 60000 70001 T00610033 10061 20056 50000=
202102041127 SPECI KSEA 041127Z 21009KT 10SM OVC013 06/03 A3037 RMK AO2 T00610033=
202102041053 METAR KSEA 041053Z 20010KT 10SM OVC017 06/03 A3038 RMK AO2 SLP295 T00610033=
202102040953 METAR KSEA 040953Z 20011KT 10SM FEW017 OVC026 06/03 A3037 RMK AO2 SLP293 T00610033=
202102040853 METAR KSEA 040853Z 18007KT 10SM FEW015 BKN022 OVC027 06/03 A3037 RMK AO2 SLP294 60000 T00610033 51006=
202102040818 SPECI KSEA 040818Z 17008KT 10SM BKN025 OVC036 06/04 A3037 RMK AO2 T00560039=
202102040753 METAR KSEA 040753Z 17008KT 10SM FEW011 OVC030 06/04 A3037 RMK AO2 SLP294 T00560039 401000044=
202102040653 METAR KSEA 040653Z 18007KT 10SM FEW011 SCT030 BKN043 06/04 A3036 RMK AO2 RAE18 SLP291 P0000 T00560039=
202102040553 METAR KSEA 040553Z 19006KT 10SM -RA FEW011 BKN030 OVC043 06/04 A3035 RMK AO2 RAB36 SLP287 P0001 60001 T00610044 10078 20061 52015=
202102040536 SPECI KSEA 040536Z 19007KT 10SM -RA SCT011 BKN022 OVC047 06/04 A3035 RMK AO2 RAB36 P0001 T00610044=
202102040453 METAR KSEA 040453Z 22006KT 10SM FEW010 SCT026 OVC032 07/04 A3034 RMK AO2 SLP283 T00670044=
202102040438 SPECI KSEA 040438Z 21006KT 10SM SCT025 BKN034 OVC050 07/04 A3034 RMK AO2 T00670044=
202102040407 SPECI KSEA 040407Z 22007KT 10SM FEW011 BKN025 OVC055 07/04 A3033 RMK AO2 T00670039=
202102040353 METAR KSEA 040353Z 22007KT 10SM FEW018 BKN036 OVC055 07/04 A3032 RMK AO2 SLP277 T00670039=
202102040253 METAR KSEA 040253Z 22006KT 10SM BKN038 07/03 A3031 RMK AO2 SLP273 T00670033 51017=
202102040153 METAR KSEA 040153Z 23004KT 10SM BKN060 BKN250 07/03 A3029 RMK AO2 SLP266 T00670033=
202102040053 METAR KSEA 040053Z 23004KT 10SM FEW042 BKN065 BKN250 07/03 A3028 RMK AO2 SLP264 T00720033=
202102032353 METAR KSEA 032353Z 27006KT 10SM BKN041 BKN250 08/02 A3026 RMK AO2 SLP256 T00780022 10100 20061 53025=
202102032253 METAR KSEA 032253Z 00000KT 10SM BKN030 BKN250 09/02 A3023 RMK AO2 SLP247 T00940022=
202102032153 METAR KSEA 032153Z 07003KT 10SM SCT023 BKN030 BKN250 09/03 A3020 RMK AO2 SLP235 T00890028=
202102032137 SPECI KSEA 032137Z 35006KT 10SM SCT021 BKN030 BKN250 08/02 A3020 RMK AO2 T00830022=
202102032053 METAR KSEA 032053Z 35004KT 10SM BKN022 BKN030 08/03 A3018 RMK AO2 SLP230 T00780028 51033=
202102031953 METAR KSEA 031953Z 33005KT 10SM BKN015 BKN023 07/03 A3015 RMK AO2 SLP220 T00720033=
202102031853 METAR KSEA 031853Z 02004KT 10SM BKN015 BKN023 07/03 A3013 RMK AO2 SLP212 T00670033=
202102031753 METAR KSEA 031753Z 05005KT 10SM FEW012 BKN023 BKN039 07/04 A3009 RMK AO2 SLP197 60000 T00670039 10067 20044 51036=
202102031717 SPECI KSEA 031717Z 01011KT 10SM BKN015 BKN080 06/04 A3007 RMK AO2 T00610039=
202102031653 METAR KSEA 031653Z 35007KT 10SM BKN011 BKN080 06/04 A3006 RMK AO2 SLP187 T00560039=
202102031627 SPECI KSEA 031627Z 35005KT 10SM BKN011 BKN080 04/03 A3004 RMK AO2 T00440033=
202102031553 METAR KSEA 031553Z 02005KT 10SM FEW027 SCT045 BKN070 05/03 A3001 RMK AO2 RAE18 SLP172 P0000 T00500033=
202102031453 METAR KSEA 031453Z 35005KT 10SM -RA FEW027 OVC040 05/03 A2998 RMK AO2 RAB24 SLP161 P0000 60000 T00500033 53052=
202102031353 METAR KSEA 031353Z 01009KT 10SM FEW025 OVC049 04/03 A2992 RMK AO2 SLP138 T00440028 $=
202102031253 METAR KSEA 031253Z 34004KT 10SM OVC043 04/03 A2987 RMK AO2 PRESRR SLP124 T00440028 $=
202102031153 METAR KSEA 031153Z 05007KT 10SM OVC055 05/03 A2982 RMK AO2 SLP108 60009 70065 T00500028 10056 20044 53013 $=
202102031053 METAR KSEA 031053Z 03009KT 10SM OVC055 05/03 A2980 RMK AO2 RAE37 SLP100 P0001 T00500028 $=
202102030953 METAR KSEA 030953Z 03007KT 10SM -RA OVC038 05/03 A2979 RMK AO2 RAE0859B18 SLP095 P0002 T00500028 $=
202102030914 SPECI KSEA 030914Z 07006KT 10SM FEW025 OVC038 05/03 A2979 RMK AO2 RAE0859 P0000 T00500028 $=
202102030853 METAR KSEA 030853Z 07006KT 10SM -RA OVC029 05/03 A2978 RMK AO2 SLP094 P0003 60006 T00500028 55003 $=
202102030753 METAR KSEA 030753Z 12006KT 10SM -RA OVC028 05/03 A2978 RMK AO2 RAB10 SLP094 P0003 T00500033 400780039 $=
202102030740 SPECI KSEA 030740Z VRB03KT 7SM -RA OVC026 05/03 A2979 RMK AO2 RAB10 P0002 T00500033 $=
202102030653 METAR KSEA 030653Z 15005KT 10SM FEW033 BKN075 BKN110 05/03 A2978 RMK AO2 SLP093 T00500028 $=
202102030553 METAR KSEA 030553Z 13007KT 10SM FEW033 BKN100 04/03 A2979 RMK AO2 SLP098 60009 T00440028 10061 20044 55003 $=
202102030537 SPECI KSEA 030537Z 15010KT 10SM FEW033 BKN060 OVC100 05/03 A2980 RMK AO2 T00500028 $=
202102030453 METAR KSEA 030453Z 16010KT 10SM SCT022 BKN029 OVC035 05/03 A2979 RMK AO2 RAE29 SLP097 P0000 T00500028 $=
202102030353 METAR KSEA 030353Z 14008G19KT 10SM -RA BKN025 OVC055 05/03 A2980 RMK AO2 SLP098 P0001 T00500028 $=
202102030253 METAR KSEA 030253Z 15010KT 8SM -RA BKN026 OVC100 05/03 A2980 RMK AO2 SLP100 P0002 60008 T00500028 56012 $=
202102030241 SPECI KSEA 030241Z 17009KT 7SM -RA BKN028 OVC100 05/03 A2981 RMK AO2 P0001 T00500028 $=
202102030153 METAR KSEA 030153Z 18014G22KT 10SM -RA FEW029 BKN036 OVC110 06/02 A2981 RMK AO2 RAB42 SLP102 P0000 T00610022 $=
202102030053 METAR KSEA 030053Z 17009KT 10SM FEW017 SCT022 BKN042 06/03 A2983 RMK AO2 RAE45 SLP108 P0006 T00560028 $=
202102030024 SPECI KSEA 030024Z 19007KT 180V240 3SM RA BR FEW018 BKN025 OVC039 06/04 A2984 RMK AO2 P0002 T00560039 $=
202102030008 SPECI KSEA 030008Z 18008KT 6SM -RA BR SCT024 BKN031 06/04 A2984 RMK AO2 P0001 T00560039 $=
202102022353 METAR KSEA 022353Z 20011KT 8SM -RA FEW010 BKN024 BKN045 05/04 A2984 RMK AO2 WSHFT 2313 SLP112 P0013 60019 T00500039 10078 20039 51008 $=
202102022341 SPECI KSEA 022341Z 20008KT 3SM R16L/6000VP6000FT -RA BR FEW008 BKN017 BKN040 04/03 A2984 RMK AO2 WSHFT 2313 P0011 T00440028 $=
202102022328 SPECI KSEA 022328Z 24013G20KT 2SM R16L/5500VP6000FT +RA BR SCT008 BKN017 OVC025 04/02 A2985 RMK AO2 WSHFT 2313 P0004 T00390017=
202102022325 SPECI KSEA 022325Z 27015G21KT 2 1/2SM +RA BR BKN008 OVC021 04/02 A2984 RMK AO2 P0000 T00440022=
202102022322 SPECI KSEA 022322Z 25012G21KT 2 1/2SM RA BR SCT008 BKN024 OVC028 05/03 A2985 RMK AO2 PRESRR P0000 T00500028=
202102022253 METAR KSEA 022253Z 20014G20KT 10SM -RA BKN022 BKN030 OVC034 07/03 A2983 RMK AO2 RAB30 SLP108 P0000 T00720033=
202102022235 SPECI KSEA 022235Z 19016G20KT 8SM -RA FEW019 BKN026 OVC050 07/04 A2983 RMK AO2 RAB30 P0000 T00720039=
202102022216 SPECI KSEA 022216Z 20012KT 10SM FEW015 BKN031 BKN060 07/03 A2983 RMK AO2 T00720033=
202102022153 METAR KSEA 022153Z 22013G19KT 10SM FEW015 BKN028 BKN055 07/04 A2983 RMK AO2 PK WND 23030/2054 WSHFT 2048 RAE16 SLP109 P0003 T00720044=
202102022140 SPECI KSEA 022140Z 21011KT 10SM FEW015 BKN028 BKN055 07/04 A2983 RMK AO2 PK WND 23030/2054 WSHFT 2048 RAE16 P0003 T00670044=
202102022117 SPECI KSEA 022117Z 21010KT 10SM FEW009 SCT017 BKN050 06/04 A2983 RMK AO2 PK WND 23030/2054 WSHFT 2048 RAE16 P0003 T00560039=
202102022108 SPECI KSEA 022108Z 24010G22KT 7SM -RA FEW009 BKN016 OVC026 06/04 A2983 RMK AO2 PK WND 23030/2054 WSHFT 2048 P0002 T00560039=
202102022053 METAR KSEA 022053Z 21024G31KT 5SM -RA BR FEW009 BKN016 OVC027 07/04 A2981 RMK AO2 PK WND 22031/2053 RAB31 SLP104 P0000 60003 T00670044 58007=
202102022031 SPECI KSEA 022031Z 21008KT 7SM -RA FEW009 BKN015 OVC035 07/04 A2983 RMK AO2 RAB31 P0000 T00720044=
202102021953 METAR KSEA 021953Z 22009KT 10SM FEW008 BKN013 OVC024 07/05 A2984 RMK AO2 SLP114 T00670050=
202102021914 SPECI KSEA 021914Z 22008KT 10SM SCT007 BKN011 OVC016 06/04 A2985 RMK AO2 T00610044=
202102021853 METAR KSEA 021853Z 21010KT 7SM BKN007 OVC013 06/05 A2985 RMK AO2 RAB1754E50 SLP116 P0003 T00610050=
202102021849 SPECI KSEA 021849Z 21009KT 6SM -RA BR BKN007 OVC015 06/05 A2985 RMK AO2 RAB1754 P0003=
202102021753 METAR KSEA 021753Z 18008KT 7SM FEW006 OVC017 06/04 A2984 RMK AO2 RAE09 SLP111 P0000 60028 T00560039 10061 20050 50007=
202102021730 SPECI KSEA 021730Z 15007KT 10SM SCT006 SCT013 OVC022 06/04 A2983 RMK AO2 RAE09 P0000 T00560039=
202102021653 METAR KSEA 021653Z 20007KT 6SM -RA BR SCT008 BKN013 OVC025 05/04 A2984 RMK AO2 SLP112 P0014 T00500039=
202102021631 SPECI KSEA 021631Z 21008KT 5SM -RA BR SCT008 BKN013 OVC025 06/04 A2984 RMK AO2 P0010 T00560039=
202102021558 SPECI KSEA 021558Z 21009KT 3SM +RA BR FEW009 SCT014 OVC023 06/03 A2983 RMK AO2 P0003 T00560033=
202102021553 METAR KSEA 021553Z 23011G17KT 4SM RA BR FEW012 OVC025 06/04 A2982 RMK AO2 SLP107 P0014 T00560039=
202102021548 SPECI KSEA 021548Z 21008KT 5SM RA BR FEW012 FEW018 OVC025 06/04 A2983 RMK AO2 P0012=
202102021453 METAR KSEA 021453Z 17005KT 10SM -RA FEW013 OVC030 06/04 A2981 RMK AO2 RAE1356B45 SLP104 P0000 60000 T00610044 55002=
202102021353 METAR KSEA 021353Z 16005KT 10SM -RA FEW030 OVC042 06/04 A2981 RMK AO2 RAB22 SLP103 P0000 T00560044=
202102021253 METAR KSEA 021253Z 18009KT 10SM BKN050 OVC070 06/04 A2982 RMK AO2 SLP106 T00560039=
202102021153 METAR KSEA 021153Z 16010KT 10SM FEW015 SCT048 OVC080 06/04 A2982 RMK AO2 SLP106 60028 70078 T00610039 10089 20061 51018=
202102021053 METAR KSEA 021053Z 20009KT 10SM FEW015 BKN050 OVC090 06/04 A2982 RMK AO2 SLP105 T00610044=
202102020953 METAR KSEA 020953Z 21011KT 10SM FEW015 BKN036 OVC085 06/04 A2980 RMK AO2 SLP097 T00610044=
202102020928 SPECI KSEA 020928Z 21009KT 10SM FEW013 FEW018 OVC033 06/04 A2978 RMK AO2 T00610044=
202102020853 METAR KSEA 020853Z 21010KT 10SM FEW007 BKN019 OVC027 07/05 A2977 RMK AO2 RAE20 SLP087 P0004 60028 T00670050 51031=
202102020755 SPECI KSEA 020755Z 22012KT 6SM -RA BR SCT007 BKN015 OVC036 07/06 A2974 RMK AO2 P0000 T00720061=
202102020753 METAR KSEA 020753Z 22010KT 6SM RA BR SCT007 BKN012 OVC036 08/06 A2974 RMK AO2 SLP077 P0011 T00780061 401000067=
202102020720 SPECI KSEA 020720Z 23007KT 5SM -RA BR SCT004 BKN012 OVC027 08/07 A2972 RMK AO2 P0004 T00780072=
202102020653 METAR KSEA 020653Z 24009KT 1SM R16L/P6000FT RA BR BKN004 BKN012 OVC017 08/07 A2971 RMK AO2 RAB00 SLP067 P0013 T00780067=
202102020627 SPECI KSEA 020627Z 25012KT 1SM R16L/P6000FT RA BR BKN002 BKN007 OVC023 08/07 A2969 RMK AO2 RAB00 P0005 T00830072=
202102020619 SPECI KSEA 020619Z 23007KT 1/2SM R16L/2200VP6000FT RA FG BKN002 OVC025 08/07 A2969 RMK AO2 RAB00 P0002 T00830072=
202102020617 SPECI KSEA 020617Z 24006KT 1/2SM R16L/2200VP6000FT RA FG SCT002 BKN006 OVC025 08/07 A2969 RMK AO2 RAB00 P0001 T00830072=
202102020612 SPECI KSEA 020612Z 27005KT 1 1/4SM R16L/3000VP6000FT -RA BR SCT002 BKN023 OVC029 08/07 A2968 RMK AO2 RAB00 VIS W 1 P0000 T00830072=
202102020610 SPECI KSEA 020610Z 25005KT 3SM -RA BR SCT002 BKN023 OVC029 08/07 A2968 RMK AO2 RAB00 VIS W 1 P0000 T00830072=
202102020553 METAR KSEA 020553Z 21005KT 10SM BKN029 OVC034 08/08 A2967 RMK AO2 RAE02B31E41 SLP055 P0000 60014 T00830078 10100 20083 53006=
202102020453 METAR KSEA 020453Z 15006KT 10SM -RA SCT042 OVC050 08/08 A2966 RMK AO2 SLP049 P0003 T00830078=
202102020353 METAR KSEA 020353Z 13006KT 10SM -RA OVC042 09/08 A2965 RMK AO2 SLP047 P0003 T00890078=
202102020253 METAR KSEA 020253Z 17006KT 9SM -RA OVC046 09/07 A2966 RMK AO2 SLP049 P0005 60008 T00890072 56009=
202102020153 METAR KSEA 020153Z 15005KT 10SM -RA OVC047 09/08 A2967 RMK AO2 RAE12B42 SLP053 P0001 T00940078=
202102020053 METAR KSEA 020053Z 13005KT 7SM -RA OVC050 09/08 A2966 RMK AO2 PRESFR SLP051 P0002 T00940078=
202102012353 METAR KSEA 012353Z 20007KT 7SM -RA OVC060 09/08 A2968 RMK AO2 SLP059 P0004 60021 T00940078 10100 20094 58015=
202102012253 METAR KSEA 012253Z 12007KT 7SM -RA BKN038 OVC047 09/08 A2971 RMK AO2 SLP066 P0004 T00940083=
202102012153 METAR KSEA 012153Z 14006KT 5SM -RA BR FEW016 OVC045 10/08 A2971 RMK AO2 SLP067 P0005 T01000083=
202102012137 SPECI KSEA 012137Z 14007KT 6SM -RA BR SCT016 OVC048 09/08 A2972 RMK AO2 P0004 T00940078=
202102012053 METAR KSEA 012053Z 15005KT 6SM -RA BR BKN016 BKN024 OVC050 10/08 A2973 RMK AO2 SLP073 P0004 60008 T01000078 58008=
202102012009 SPECI KSEA 012009Z 17005KT 6SM R16L/1000VP6000FT -RA BR BKN020 OVC055 10/08 A2973 RMK AO2 P0001 T01000078=
202102012000 SPECI KSEA 012000Z 18006KT 6SM R16L/0500V1800FT -RA BR SCT022 BKN037 OVC055 10/08 A2973 RMK AO2 P0001 T01000078=
202102011953 METAR KSEA 011953Z 18003KT 7SM R16L/0500V3000FT -RA FEW022 OVC055 10/08 A2974 RMK AO2 SLP077 P0003 T01000083=
202102011853 METAR KSEA 011853Z 16008KT 10SM -RA FEW030 BKN050 OVC070 10/07 A2975 RMK AO2 SLP079 P0001 T01000072=
202102011753 METAR KSEA 011753Z 14007KT 9SM -RA FEW030 OVC055 10/07 A2975 RMK AO2 SLP081 P0002 60015 T01000072 10100 20072 55005=
202102011653 METAR KSEA 011653Z 16004KT 10SM -RA OVC055 09/07 A2975 RMK AO2 SLP081 P0003 T00940072=
202102011553 METAR KSEA 011553Z 11007KT 10SM -RA FEW025 OVC048 09/07 A2975 RMK AO2 SLP083 P0002 T00940067=
202102011453 METAR KSEA 011453Z 12008KT 10SM -RA BKN048 OVC060 08/07 A2976 RMK AO2 SLP087 P0002 60008 T00830067 56013=
202102011353 METAR KSEA 011353Z 11009KT 10SM -RA OVC043 09/07 A2977 RMK AO2 SLP090 P0003 T00890072=
202102011253 METAR KSEA 011253Z 11008KT 10SM -RA OVC049 08/07 A2978 RMK AO2 SLP093 P0003 T00830067=
202102011153 METAR KSEA 011153Z 15004KT 7SM -RA OVC045 07/07 A2980 RMK AO2 SLP100 P0005 60013 70027 T00720067 10078 20061 58014=
202102011053 METAR KSEA 011053Z 12006KT 7SM -RA OVC044 07/06 A2983 RMK AO2 SLP108 P0002 T00720061=
202102010953 METAR KSEA 010953Z 07003KT 6SM -RA BR OVC046 07/06 A2984 RMK AO2 SLP112 P0004 T00670056=
202102010853 METAR KSEA 010853Z 05004KT 7SM -RA OVC046 07/06 A2984 RMK AO2 RAE0756B34 SLP114 P0002 60002 T00670056 58017=
202102010753 METAR KSEA 010753Z 07004KT 5SM -RA BR FEW003 SCT024 OVC050 07/06 A2987 RMK AO2 RAB31 SLP123 P0000 T00670056 401000061=
202102010653 METAR KSEA 010653Z 04005KT 6SM BR FEW003 SCT035 OVC048 07/06 A2988 RMK AO2 RAB15E46 SLP127 P0000 T00670056=
202102010616 SPECI KSEA 010616Z 00000KT 6SM -RA BR SCT003 OVC039 07/06 A2991 RMK AO2 RAB15 P0000 T00670056=
202102010558 SPECI KSEA 010558Z 00000KT 6SM BR BKN005 OVC042 07/06 A2990 RMK AO2 T00670056=
202102010553 METAR KSEA 010553Z 00000KT 2SM BR BKN005 OVC042 06/05 A2990 RMK AO2 RAB03E32 SLP130 P0002 60007 T00610050 10072 20061 58002=
202102010548 SPECI KSEA 010548Z 35003KT 2SM BR BKN005 OVC042 06/05 A2990 RMK AO2 RAB03E32 P0002=
202102010531 SPECI KSEA 010531Z 00000KT 7SM -RA SCT005 OVC040 07/06 A2990 RMK AO2 RAB03 P0002 T00670061=
202102010453 METAR KSEA 010453Z 28003KT 10SM OVC044 06/06 A2989 RMK AO2 SLP131 T00610061=
202102010406 SPECI KSEA 010406Z 22003KT 10SM FEW021 BKN043 OVC050 06/06 A2990 RMK AO2 T00610061=
202102010353 METAR KSEA 010353Z 17003KT 10SM BKN021 BKN043 OVC055 06/06 A2990 RMK AO2 SLP134 T00610061=
202102010253 METAR KSEA 010253Z 00000KT 10SM FEW004 BKN022 06/06 A2990 RMK AO2 SLP133 60005 T00610061 50001=
202102010153 METAR KSEA 010153Z 15005KT 9SM SCT004 BKN022 OVC029 06/06 A2991 RMK AO2 RAE46 SLP137 P0002 T00610056=
202102010130 SPECI KSEA 010130Z 19004KT 8SM -RA BKN003 BKN008 OVC019 06/06 A2991 RMK AO2 P0001 T00610056=
202102010104 SPECI KSEA 010104Z 19008KT 7SM -RA BKN005 BKN020 OVC046 07/06 A2991 RMK AO2 P0000 T00670056=
202102010053 METAR KSEA 010053Z 19005KT 8SM -RA SCT005 BKN031 OVC046 07/06 A2991 RMK AO2 SLP135 P0003 T00670056=

# No short TAF reports from KSEA in databse.

###################################
#  large TAF from KSEA
###################################
202102282334 TAF KSEA 282334Z 0100/0206 19010KT P6SM SCT025 BKN040 BKN100 FM010400
                       17006KT P6SM BKN050 BKN100 FM010900 15005KT
                       P6SM SCT060 BKN100 FM011500 16004KT P6SM
                       BKN100 OVC200 FM012100 22006KT P6SM SCT120
                       BKN200=
202102282102 KSEA 282102Z 2821/0124 19008KT P6SM BKN025 FM010400 17006KT P6SM
                       OVC040 FM010900 15005KT P6SM BKN060 BKN100
                       FM011500 16004KT P6SM BKN100 OVC200=
202102281723 TAF KSEA 281723Z 2818/0124 17007KT P6SM OVC017 FM282200 19008KT
                       P6SM BKN025 FM010400 17006KT P6SM OVC040
                       FM010900 15005KT P6SM BKN060 BKN100 FM011500
                       16004KT P6SM BKN100 OVC200=
202102281402 KSEA 281402Z 2814/0118 19010KT P6SM OVC014
                      TEMPO 2814/2816 5SM -DZ OVC009 FM281800 17007KT
                       P6SM VCSH OVC015 FM282300 19008KT P6SM BKN025
                       FM010400 17006KT P6SM OVC040 FM010500 15005KT
                       P6SM OVC050=
202102281259 KSEA 281259Z 2813/0118 19010KT P6SM OVC014
                      TEMPO 2813/2816 5SM -DZ OVC009 FM281800 17007KT
                       P6SM VCSH OVC015 FM282300 19008KT P6SM BKN025
                       FM010400 17006KT P6SM OVC040 FM010500 15005KT
                       P6SM OVC050=
202102281133 TAF KSEA 281133Z 2812/0118 19008KT 4SM -RA BR OVC009 FM281800 17007KT
                       P6SM VCSH OVC015 FM282300 19008KT P6SM BKN025
                       FM010400 17006KT P6SM OVC040 FM010500 15005KT
                       P6SM OVC050=
202102280905 KSEA 280905Z 2809/0112 18008KT P6SM -RA OVC015 FM281600 17007KT
                       P6SM VCSH OVC015 FM282300 19008KT P6SM BKN025
                       FM010400 17006KT P6SM OVC040=
202102280520 TAF KSEA 280520Z 2806/0112 21010KT P6SM BKN040 OVC070 FM280800
                       18008KT P6SM -RA OVC020 FM281600 17007KT
                       P6SM VCSH OVC015 FM282300 19008KT P6SM BKN025
                       FM010400 17006KT P6SM OVC040=
202102280309 KSEA 280309Z 2803/0106 20006KT P6SM BKN040 OVC200 FM280900 18006KT
                       P6SM -SHRA OVC020 FM282100 20007KT P6SM
                       BKN022 BKN040 FM010400 15005KT P6SM SCT025
                       BKN050=
202102272333 TAF KSEA 272333Z 2800/0106 18008KT P6SM BKN050 BKN120 BKN200 FM280400
                       18006KT P6SM SCT025 OVC040 FM280900 18006KT
                       P6SM -SHRA OVC020 FM282100 20007KT P6SM
                       BKN022 BKN040 FM010400 15005KT P6SM SCT025
                       BKN050=
202102272104 KSEA 272104Z 2721/2824 18006KT P6SM BKN050 BKN120 BKN200 FM280400
                       18006KT P6SM SCT035 OVC060 FM280900 18006KT
                       P6SM -SHRA OVC020 FM282200 20009KT P6SM
                       BKN030 BKN050=
202102271731 TAF KSEA 271731Z 2718/2824 15006KT P6SM SCT035 BKN200 FM272100
                       20006KT P6SM SCT050 BKN120 BKN200 FM280400
                       18006KT P6SM SCT035 OVC060 FM280900 18006KT
                       P6SM -SHRA OVC020 FM282200 20009KT P6SM
                       BKN030 BKN050=
202102271359 KSEA 271359Z 2714/2818 15006KT P6SM SCT050 FM272100 20006KT P6SM
                       SCT060 BKN120 BKN200 FM280400 18006KT P6SM
                       SCT035 OVC060 FM280900 18006KT P6SM -SHRA
                       OVC020=
202102271132 TAF KSEA 271132Z 2712/2818 13006KT P6SM BKN060 FM271500 16006KT
                       P6SM SCT060 FM272100 20006KT P6SM SCT060
                       BKN120 BKN200 FM280400 18006KT P6SM SCT035
                       OVC060 FM280900 18006KT P6SM -SHRA OVC020=
202102270948 KSEA 270948Z 2710/2812 15006KT P6SM SCT035 BKN060 FM272100 20006KT
                       P6SM SCT060 BKN120 BKN200 FM280500 18007KT
                       P6SM VCSH OVC025=
202102270531 TAF KSEA 270531Z 2706/2812 35008KT 4SM TSGR SCT015 BKN025CB OVC050
                       FM270700 VRB04KT P6SM -SHRA SCT020 BKN035
                       OVC050 FM271100 18006KT P6SM BKN025 FM271900
                       20006KT P6SM BKN040 BKN070 FM280500 18007KT
                       P6SM VCSH OVC025=
202102270458 KSEA 270458Z 2705/2806 19007KT P6SM VCTS BKN030CB OVC080
                      TEMPO 2705/2706 -TSRA BKN030CB FM270600 18006KT
                       P6SM -SHRA OVC030 FM271100 18006KT P6SM
                       OVC025 FM271900 20006KT P6SM BKN040 BKN070
                       FM280500 18007KT P6SM VCSH OVC025=
202102270305 KSEA 270305Z 2703/2806 12008KT P6SM VCSH FEW040 SCT080 SCT250 FM271100
                       18006KT P6SM OVC025 FM271900 20006KT P6SM
                       BKN040 BKN070 FM280500 18007KT P6SM VCSH
                       OVC025=
202102262335 TAF KSEA 262335Z 2700/2806 21012G18KT P6SM VCSH BKN045 BKN070 FM270400
                       21010KT P6SM VCSH OVC035 FM271100 18006KT
                       P6SM OVC025 FM271900 20006KT P6SM BKN040
                       BKN070 FM280500 18007KT P6SM VCSH OVC025=
202102262103 KSEA 262103Z 2621/2724 20011KT P6SM SCT040 BKN070 FM270000 22012KT
                       P6SM VCSH BKN040 BKN060 FM270600 24010KT
                       P6SM VCSH OVC035 FM271100 18006KT P6SM OVC035=
202102261727 TAF KSEA 261727Z 2618/2724 21011KT P6SM BKN040 BKN070 FM262300
                       22012KT P6SM VCSH BKN040 BKN060 FM270600
                       24010KT P6SM VCSH OVC035 FM271100 18006KT
                       P6SM OVC035=
202102261406 KSEA 261406Z 2614/2718 24010KT P6SM SCT015 OVC040 FM261800 24012KT
                       P6SM VCSH OVC040 FM270300 22012KT P6SM VCSH
                       OVC030 FM270500 24010KT P6SM VCSH OVC030
                       FM270900 VRB06KT P6SM OVC030=
202102261140 TAF KSEA 261140Z 2612/2718 25012G25KT P6SM -SHRA OVC015 FM261400
                       23016G24KT P6SM OVC020 FM261800 24018G28KT
                       P6SM VCSH OVC040 FM270300 22015G22KT P6SM
                       VCSH OVC030 FM270500 24010KT P6SM VCSH OVC030
                       FM270900 VRB06KT P6SM OVC030=
202102260904 KSEA 260904Z 2609/2712 25016G25KT P6SM -SHRA BKN019 OVC080 FM261800
                       25017G25KT P6SM VCSH BKN025 OVC040 FM270200
                       22012G22KT P6SM VCSH BKN035 FM270400 21010KT
                       P6SM VCSH BKN040=
202102260539 TAF KSEA 260539Z 2606/2712 23012G18KT P6SM VCSH BKN020 BKN100 FM260900
                       25016G28KT P6SM -SHRA OVC017 FM261800 25017G25KT
                       P6SM VCSH BKN025 OVC040 FM270200 22012G18KT
                       P6SM VCSH BKN035=
202102260304 KSEA 260304Z 2603/2706 23012G18KT P6SM VCSH BKN020 BKN100 FM260900
                       25016G28KT P6SM -SHRA OVC017 FM261800 25017G25KT
                       P6SM VCSH BKN025 OVC040 FM270200 22012G18KT
                       P6SM VCSH BKN035=
202102252336 KSEA 252336Z 2600/2706 22017G27KT P6SM VCSH SCT020 BKN050
                      TEMPO 2600/2604 -SHRA BKN022 FM260400 21018G28KT
                       P6SM VCSH BKN022 FM260900 25016G28KT P6SM
                       -SHRA OVC017 FM261800 25017G25KT P6SM VCSH
                       BKN025 OVC040 FM270200 22012G18KT P6SM VCSH
                       BKN035=
202102252335 TAF KSEA 252335Z 2600/2706 22017G27KT P6SM VCSH SCT020 BKN050
                      TEMPO 2601/2605 -SHRA BKN022 FM260500 21018G28KT
                       P6SM VCSH BKN022 FM260900 25016G28KT P6SM
                       -SHRA OVC017 FM261800 25017G25KT P6SM VCSH
                       BKN025 OVC040 FM270200 22012G18KT P6SM VCSH
                       BKN035=
202102252102 KSEA 252102Z 2521/2624 21012G22KT P6SM VCSH BKN020 BKN050 FM260300
                       21015G25KT P6SM VCSH BKN035 FM260900 23016G28KT
                       P6SM -SHRA OVC017 FM261800 24017G25KT P6SM
                       VCSH BKN025 OVC040=
202102251734 TAF KSEA 251734Z 2518/2624 22014G22KT P6SM VCSH BKN010 OVC030 FM252100
                       23018G28KT 6SM -SHRA BR BKN020 OVC040 FM260300
                       21015G25KT P6SM VCSH BKN035 FM260900 23016G28KT
                       P6SM -SHRA OVC017 FM261800 24017G25KT P6SM
                       VCSH BKN025 OVC040=
202102251408 KSEA 251408Z 2514/2618 20008KT P6SM -RA OVC020
                      TEMPO 2514/2516 3SM -RA BR OVC009 FM251600
                       22014G26KT P6SM VCSH BKN022 FM252100 23018G28KT
                       5SM -SHRA BKN019 FM260700 22015G26KT P6SM
                       VCSH BKN040 FM261100 24016G28KT P6SM VCSH
                       BKN050=
202102251139 TAF KSEA 251139Z 2512/2618 18012G20KT P6SM -RA OVC020 FM251600
                       22015G27KT P6SM VCSH BKN022 FM252100 23018G30KT
                       6SM -SHRA OVC030 FM260700 22015G28KT P6SM
                       VCSH BKN040 FM261100 24015G25KT P6SM VCSH
                       BKN050=
202102250906 KSEA 250906Z 2509/2612 17010KT P6SM BKN035 OVC070 FM251200 18013KT
                       P6SM -RA OVC020 FM251600 22015G27KT P6SM
                       VCSH BKN022 FM252100 23018G30KT 6SM -SHRA
                       OVC030 FM260700 22015G27KT P6SM VCSH BKN040=
202102250520 TAF KSEA 250520Z 2506/2612 16006KT P6SM OVC100 FM250900 17010KT
                       P6SM -RA BKN025 OVC050 FM251200 18013KT
                       P6SM -RA OVC020 FM251600 22015G27KT P6SM
                       VCSH BKN022 FM252100 23018G30KT 6SM -SHRA
                       OVC030 FM260700 22015G27KT P6SM VCSH BKN040=
202102250306 KSEA 250306Z 2503/2606 16007KT P6SM BKN100 OVC250 FM250900 17008KT
                       P6SM OVC050 FM251200 16012KT P6SM -RA OVC025
                       FM251800 22015G25KT P6SM -SHRA OVC025=
202102242320 TAF KSEA 242320Z 2500/2606 21003KT P6SM FEW024 OVC250 FM250300
                       16007KT P6SM BKN100 OVC250 FM250900 17008KT
                       P6SM OVC050 FM251200 16012KT P6SM -RA OVC025
                       FM251800 22015G25KT P6SM -SHRA OVC025=
202102242110 KSEA 242110Z 2421/2524 27005KT P6SM SCT018 BKN250 FM250300 16007KT
                       P6SM BKN100 OVC250 FM250900 17008KT P6SM
                       OVC050 FM251200 16010KT P6SM -RA OVC025=
202102241731 TAF KSEA 241731Z 2418/2524 VRB04KT P6SM FEW003 SCT022
                      TEMPO 2418/2420 BKN022 FM242000 20004KT P6SM
                       SCT030 SCT250 FM250300 16007KT P6SM BKN100
                       OVC250 FM250900 17008KT P6SM OVC050 FM251200
                       16010KT P6SM -RA OVC025=
202102241507 KSEA 241507Z 2415/2518 10004KT 4SM BR SCT005 SCT025 BKN050
                      TEMPO 2415/2416 3SM -RA BR FM241800 21004KT
                       P6SM SCT250 FM250300 16007KT P6SM OVC100=
202102241405 KSEA 241405Z 2414/2518 10004KT 4SM BR SCT005 SCT025 BKN050
                      TEMPO 2414/2416 1/2SM FG FM241800 21004KT
                       P6SM SCT250 FM250300 16007KT P6SM OVC100=
202102241326 KSEA 241326Z 2413/2518 10004KT 4SM BR SCT005 SCT025 BKN050 FM241800
                       21004KT P6SM SCT250 FM250300 16007KT P6SM
                       OVC100=
202102241122 TAF KSEA 241122Z 2412/2518 10004KT 4SM BR SCT025 BKN050
                      TEMPO 2412/2415 1/2SM FG BKN001 FM241800
                       21004KT P6SM SCT250 FM250300 16007KT P6SM
                       OVC100=
202102241041 KSEA 241041Z 2411/2512 10004KT 5SM BR SCT025 BKN050
                      TEMPO 2411/2414 1SM BR BKN001 FM241800 18004KT
                       P6SM SCT025 SCT250=
202102240901 KSEA 240901Z 2409/2512 VRB03KT P6SM SCT025 BKN050 FM241000 07006KT
                       P6SM SCT025 BKN050 FM241800 18004KT P6SM
                       SCT025 SCT250=
202102240707 KSEA 240707Z 2407/2512 VRB03KT P6SM VCSH BKN020 FM241000 07006KT
                       P6SM OVC025 FM241800 18004KT P6SM SCT025
                       SCT250=
202102240521 TAF KSEA 240521Z 2406/2512 14006KT P6SM VCSH BKN025
                      TEMPO 2406/2408 5SM -SHRA BKN015 OVC025 FM241000
                       07006KT P6SM OVC025 FM241800 18004KT P6SM
                       SCT025 SCT250=
202102240222 KSEA 240222Z 2402/2506 05013KT 4SM SHRA BR SCT010 BKN025 OVC040
                       FM240300 05013KT 6SM -SHRA BR OVC025
                      TEMPO 2403/2406 4SM SHRA OVC019 FM240600
                       14006KT P6SM BKN040 FM240900 08006KT P6SM
                       OVC025 FM241800 18004KT P6SM SCT025 SCT250=
202102232323 TAF KSEA 232323Z 2400/2506 VRB05KT P6SM VCSH SCT025 BKN045
                      TEMPO 2400/2404 -SHRA BKN025 FM240600 14006KT
                       P6SM BKN040 FM240900 08006KT P6SM OVC025
                       FM241800 18004KT P6SM SCT025 SCT250=
202102232134 KSEA 232134Z 2322/2424 23015G23KT P6SM VCSH FEW025 BKN030 BKN110
                       TEMPO 2322/2324 35007KT P6SM -SHRA SCT025
                       OVC030 FM240000 VRB05KT P6SM -SHRA BKN030
                       FM240600 14006KT P6SM BKN040 FM240800 08006KT
                       P6SM OVC025=
202102232003 KSEA 232003Z 2320/2424 22011G19KT P6SM VCSH FEW025 SCT030 BKN120
                       FM240000 VRB05KT P6SM -SHRA BKN030 FM240600
                       14006KT P6SM BKN040 FM240800 08006KT P6SM
                       OVC025=
202102231735 TAF KSEA 231735Z 2318/2424 22009KT P6SM BKN016 FM232000 20008KT
                       P6SM VCSH SCT025 BKN050 FM240000 VRB05KT
                       P6SM -SHRA BKN030 FM240600 14006KT P6SM
                       BKN040 FM240800 08006KT P6SM OVC025=
202102231401 KSEA 231401Z 2314/2418 21010KT P6SM BKN013 BKN040 FM231800 22014G25KT
                       P6SM -SHRA SCT025 BKN040 FM240400 20008KT
                       P6SM BKN035 FM240600 14006KT P6SM BKN040
                       FM240800 08006KT P6SM OVC030=
202102231329 KSEA 231329Z 2313/2418 23010KT P6SM BKN017 BKN040 FM231800 22014G25KT
                       P6SM -SHRA SCT025 BKN040 FM240400 20008KT
                       P6SM BKN035 FM240600 14006KT P6SM BKN040=
202102231127 TAF KSEA 231127Z 2312/2418 23010KT P6SM FEW020 BKN050 FM231800
                       22014G25KT P6SM -SHRA SCT025 BKN040 FM240400
                       20008KT P6SM BKN035 FM240600 14006KT P6SM
                       BKN040=
202102230900 KSEA 230900Z 2309/2412 19008KT P6SM FEW015 SCT120 FM231200 21014KT
                       P6SM VCSH BKN035 FM231800 22017G25KT P6SM
                       -SHRA SCT025 BKN040 FM240400 20008KT P6SM
                       BKN035=
202102230703 KSEA 230703Z 2307/2412 23012KT P6SM FEW020 SCT120 FM231000 21014KT
                       P6SM VCSH BKN035 FM231800 22017G25KT P6SM
                       -SHRA SCT025 BKN040 FM240400 20008KT P6SM
                       BKN035=
202102230520 TAF KSEA 230520Z 2306/2412 21014G22KT P6SM SCT025 BKN050
                      TEMPO 2306/2310 BKN022 FM231000 21014KT P6SM
                       VCSH BKN035 FM231800 22017G25KT P6SM -SHRA
                       SCT025 BKN040 FM240400 20008KT P6SM BKN035=
202102230303 KSEA 230303Z 2303/2406 21014G22KT P6SM SCT025 BKN050 FM231000 21014KT
                       P6SM VCSH BKN035 FM231800 22017G25KT P6SM
                       -SHRA SCT025 BKN040 FM240300 20008KT P6SM
                       BKN035=
202102222322 TAF KSEA 222322Z 2300/2406 23020G30KT P6SM SCT020 BKN250
                      TEMPO 2300/2302 BKN020 OVC250 FM230300 22018G28KT
                       P6SM SCT050 BKN100 FM231000 21014KT P6SM
                       BKN050 FM231800 22017G25KT P6SM -SHRA SCT025
                       BKN040 FM240300 20008KT P6SM BKN035=
202102222101 KSEA 222101Z 2221/2324 20017G25KT P6SM -RA OVC006 FM222300 23017G27KT
                       P6SM -RA OVC015 FM230100 23020G30KT P6SM
                       VCSH BKN035 FM230300 22018G28KT P6SM SCT050
                       BKN100 FM231000 21014G22KT P6SM BKN050=
202102221720 TAF KSEA 221720Z 2218/2324 20014G20KT 5SM -RA BR OVC005 FM222100
                       23015G23KT P6SM -RA OVC015 FM230000 23018G28KT
                       P6SM VCSH BKN035 FM230300 22018G28KT P6SM
                       SCT050 BKN100 FM231000 21014G22KT P6SM BKN050=
202102221359 KSEA 221359Z 2214/2318 21015G25KT P6SM -RA BKN007 OVC012 FM221800
                       21014G22KT 4SM RA BR OVC012 FM230000 23018G25KT
                       4SM RA BR OVC015 FM230400 22017G27KT P6SM
                       VCSH BKN035 FM231100 21014G20KT P6SM OVC050=
202102221129 TAF KSEA 221129Z 2212/2318 20013G22KT 2SM -RA BR BKN005 OVC010
                       FM221800 21014G22KT 4SM RA BR OVC012 FM230000
                       23018G25KT 4SM RA BR OVC015 FM230400 22017G27KT
                       P6SM VCSH BKN035 FM231100 21014G20KT P6SM
                       OVC050=
202102220857 KSEA 220857Z 2209/2312 20013G24KT P6SM -RA OVC007 FM221800 21014G22KT
                       4SM RA BR OVC015 FM230400 22017G27KT P6SM
                       VCSH BKN035=
202102220601 KSEA 220601Z 2206/2312 20018G26KT 2SM -RA BR BKN007 OVC012
                      TEMPO 2206/2210 OVC007 FM221000 20018G26KT
                       6SM -RA BR OVC015 FM221800 21014G22KT 4SM
                       RA BR OVC015 FM230400 22017G27KT P6SM VCSH
                       BKN035=
202102220520 TAF KSEA 220520Z 2206/2312 20018G26KT 6SM -RA BR OVC025
                      TEMPO 2206/2210 4SM -RA BR OVC015 FM221000
                       20018G26KT 6SM -RA BR OVC015 FM221800 21014G22KT
                       4SM RA BR OVC015 FM230400 22017G27KT P6SM
                       VCSH BKN035=
202102220313 KSEA 220313Z 2203/2306 22014G25KT P6SM VCSH BKN025 OVC080 FM220500
                       20018G26KT 6SM -RA BR OVC015 FM221200 20018G26KT
                       P6SM -RA OVC007 FM222100 21018G26KT 4SM
                       RA BR OVC015 FM230300 22016KT P6SM VCSH
                       BKN025=
202102212334 TAF KSEA 212334Z 2200/2306 22014G25KT P6SM VCSH BKN015 OVC020 FM220500
                       20018G26KT 6SM -RA BR OVC015 FM221200 20018G26KT
                       P6SM -RA OVC007 FM222100 21018G26KT 4SM
                       RA BR OVC015 FM230300 22016KT P6SM VCSH
                       BKN025=
202102212105 KSEA 212105Z 2121/2224 22014G25KT P6SM VCSH BKN015 OVC020 FM220500
                       20018G26KT 6SM -RA BR OVC015 FM221200 20018G26KT
                       P6SM -RA OVC007 FM222100 21018G26KT 4SM
                       -RA BR OVC015=
202102211724 TAF KSEA 211724Z 2118/2224 20015G25KT P6SM -RA OVC015 FM212000
                       20017G24KT 6SM BR VCSH OVC025 FM220500 20015G25KT
                       5SM -RA BR OVC015=
202102211356 KSEA 211356Z 2114/2218 20015G25KT P6SM -RA OVC015 FM212000 20017G24KT
                       6SM -RA BR OVC025 FM220500 20015G25KT 5SM
                       -RA BR OVC015=
202102211122 TAF KSEA 211122Z 2112/2218 18014KT P6SM VCSH SCT015 OVC025 FM211400
                       19014KT P6SM -RA OVC015 FM212000 20017G24KT
                       6SM -RA BR OVC025 FM220500 20015G25KT 5SM
                       -RA BR OVC015=
202102210858 KSEA 210858Z 2109/2212 18012G18KT P6SM VCSH BKN015 OVC025 FM211400
                       19012KT P6SM -RA OVC015 FM212000 20017G24KT
                       6SM -RA BR OVC025 FM220500 20015G25KT 5SM
                       -RA BR OVC020=
202102210520 TAF KSEA 210520Z 2106/2212 19012G18KT P6SM -RA OVC022 FM211400
                       19012KT P6SM -RA OVC015 FM212000 20017G24KT
                       6SM -RA BR OVC025 FM220500 20015G25KT 5SM
                       -RA BR OVC020=
202102210303 KSEA 210303Z 2103/2206 19011KT P6SM -RA SCT025 OVC050
                      TEMPO 2103/2106 -RA OVC025 FM210600 19012KT
                       P6SM -RA OVC024 FM211400 19011KT P6SM -RA
                       OVC015 FM212000 20017G24KT 6SM -RA OVC015=
202102202331 TAF KSEA 202331Z 2100/2206 23014G20KT P6SM SCT035 BKN100 FM210200
                       21014G20KT P6SM OVC050 FM210500 19011KT
                       P6SM -RA OVC025 FM211400 19011KT P6SM -RA
                       OVC015 FM212000 20017G24KT 6SM -RA OVC015=
202102202104 KSEA 202104Z 2021/2124 20013KT P6SM BKN025 OVC050 FM202200 20015KT
                       P6SM OVC050 FM210500 19011KT P6SM -RA OVC025
                       FM211400 19011KT P6SM -RA OVC015=
202102201723 TAF KSEA 201723Z 2018/2124 19006KT P6SM BKN010 OVC015 FM201900
                       20010KT P6SM SCT020 OVC050 FM202200 20012G18KT
                       P6SM OVC050 FM210500 19011KT P6SM -RA OVC025
                       FM211400 19011KT P6SM -RA OVC015=
202102201400 KSEA 201400Z 2014/2118 23006KT P6SM BKN010 BKN015 OVC030 FM201800
                       20010KT P6SM SCT020 OVC050 FM202200 20012G18KT
                       P6SM OVC050 FM210500 19011KT P6SM -RA OVC025=
202102201124 TAF KSEA 201124Z 2012/2118 22008KT P6SM BKN010 OVC015 FM201800
                       20010KT P6SM SCT020 OVC050 FM202200 20012G18KT
                       P6SM OVC050 FM210500 19011KT P6SM -RA OVC025=
202102200857 KSEA 200857Z 2009/2112 20005KT P6SM SCT009 OVC015 FM201800 20010KT
                       P6SM SCT020 OVC050 FM202200 20012G18KT P6SM
                       OVC050 FM210500 18012KT P6SM -RA OVC025=
202102200557 KSEA 200557Z 2006/2112 16008KT P6SM VCSH BKN011 OVC025 FM201000
                       VRB05KT P6SM VCSH OVC012 FM201800 20010KT
                       P6SM SCT020 OVC050 FM202200 20012G18KT P6SM
                       OVC050 FM210500 18012KT P6SM -RA OVC025=
202102200520 TAF KSEA 200520Z 2006/2112 16008KT P6SM VCSH SCT020 BKN050
                      TEMPO 2006/2010 BKN020 FM201000 VRB05KT P6SM
                       VCSH OVC015 FM201800 20010KT P6SM SCT020
                       OVC050 FM202200 20012G18KT P6SM OVC050 FM210500
                       18012KT P6SM -RA OVC025=
202102200258 KSEA 200258Z 2003/2106 18009KT P6SM VCSH SCT025 OVC045
                      TEMPO 2003/2006 -SHRA BKN025 FM200600 19008KT
                       P6SM VCSH OVC020 FM201000 VRB05KT P6SM -SHRA
                       OVC015 FM201500 20008KT P6SM SCT020 OVC050
                       FM201900 20012G18KT P6SM OVC050=
202102192321 TAF KSEA 192321Z 2000/2106 26011KT P6SM VCSH SCT025 BKN045 OVC200
                       TEMPO 2000/2004 -SHRA BKN025 FM200600 19008KT
                       P6SM VCSH OVC020 FM201000 VRB05KT P6SM -SHRA
                       OVC015 FM201500 20008KT P6SM SCT020 OVC050
                       FM201900 20012G18KT P6SM OVC050=
202102192102 KSEA 192102Z 1921/2024 20012KT P6SM VCSH SCT025 BKN030 BKN060 FM200000
                       21008KT P6SM VCSH BKN050 FM200600 19008KT
                       P6SM OVC020=
202102191720 TAF KSEA 191720Z 1918/2024 20012KT P6SM VCSH SCT030 SCT050 BKN090
                       FM191900 20011KT P6SM VCSH SCT035 BKN050
                       FM192100 21008KT P6SM VCSH BKN050 FM200600
                       19008KT P6SM OVC020=
202102191401 KSEA 191401Z 1914/2018 19011G19KT P6SM VCSH BKN015
                      TEMPO 1914/1916 SCT015 FM191600 19011KT P6SM
                       VCSH BKN020 FM191900 20011KT P6SM VCSH BKN035
                       FM192100 21008KT P6SM VCSH BKN050 FM200600
                       19008KT P6SM OVC020=
202102191124 TAF KSEA 191124Z 1912/2018 19011G19KT P6SM VCSH SCT010 BKN015 FM191600
                       19011KT P6SM VCSH OVC020 FM191900 20011KT
                       P6SM VCSH BKN035 FM192100 21008KT P6SM VCSH
                       BKN050 FM200600 19008KT P6SM OVC020=
202102190905 KSEA 190905Z 1909/2012 19009KT P6SM VCSH SCT007 OVC010
                      TEMPO 1909/1911 6SM -RA BR OVC007 FM191100
                       19008KT P6SM VCSH OVC015 FM191600 19007KT
                       P6SM -SHRA OVC020 FM192000 20009KT P6SM
                       VCSH BKN035 FM192200 21008KT P6SM BKN050
                       FM200600 19008KT P6SM OVC030=
202102190659 KSEA 190659Z 1907/2012 19012G23KT P6SM -SHRA SCT007 OVC010
                      TEMPO 1907/1910 4SM -RA BR OVC007 FM191100
                       19008KT P6SM -SHRA OVC015 FM191600 19007KT
                       P6SM VCSH OVC020 FM192000 20009KT P6SM VCSH
                       BKN035 FM192200 21008KT P6SM BKN050 FM200600
                       19008KT P6SM OVC030=
202102190520 TAF KSEA 190520Z 1906/2012 17010KT P6SM -SHRA BKN015 OVC022 FM191100
                       19008KT P6SM -SHRA OVC015 FM191600 19007KT
                       P6SM VCSH OVC020 FM192000 20009KT P6SM VCSH
                       BKN035 FM192200 21008KT P6SM BKN050 FM200600
                       19008KT P6SM OVC030=
202102190259 KSEA 190259Z 1903/2006 15009KT 6SM -SHRA BR BKN020 OVC035 FM190500
                       17009KT P6SM VCSH OVC015 FM191200 19008KT
                       P6SM VCSH OVC015 FM191500 19007KT P6SM VCSH
                       OVC020 FM191800 20009KT P6SM VCSH BKN035
                       FM192100 21008KT P6SM BKN050=
202102182324 TAF KSEA 182324Z 1900/2006 13009KT 5SM -RA FEW020 BKN030 OVC045
                       FM190500 17009KT 5SM -SHRA BR OVC015 FM191200
                       19008KT P6SM VCSH OVC015 FM191500 19007KT
                       P6SM VCSH OVC020 FM191800 20009KT P6SM VCSH
                       BKN035 FM192100 21008KT P6SM BKN050=
202102182053 KSEA 182053Z 1821/1924 14009KT P6SM VCSH SCT030 OVC050 FM182200
                       11007KT 5SM -RA BR OVC020 FM190500 17009KT
                       5SM -SHRA BR OVC015 FM191200 19008KT P6SM
                       VCSH OVC015 FM191500 19007KT P6SM VCSH OVC020
                       FM191800 20009KT P6SM VCSH OVC020=
202102181725 TAF KSEA 181725Z 1818/1924 18009KT P6SM BKN090 OVC110 FM182000
                       14009KT 5SM -RA BR OVC020 FM190500 17009KT
                       5SM -SHRA BR OVC015 FM191200 19008KT P6SM
                       VCSH OVC015 FM191500 19007KT P6SM VCSH OVC020=
202102181410 KSEA 181410Z 1814/1918 11007KT P6SM OVC120 FM181800 14009KT P6SM
                       -RA OVC040 FM182200 14009KT 5SM -RA BR OVC020
                       FM190500 17009KT 5SM -SHRA BR OVC015 FM191200
                       19008KT P6SM VCSH OVC015=
202102181128 TAF KSEA 181128Z 1812/1918 12007KT P6SM OVC150 FM181800 14009KT
                       P6SM -RA OVC040 FM182200 14009KT 5SM -RA
                       BR OVC020 FM190500 17009KT 5SM -SHRA BR
                       OVC015 FM191200 19008KT P6SM VCSH OVC015=
202102180902 KSEA 180902Z 1809/1912 11007KT P6SM SCT120 OVC200 FM181200 12007KT
                       P6SM BKN050 OVC100 FM181800 16012KT P6SM
                       -RA OVC040 FM182200 19012G20KT 5SM -RA BR
                       BKN020 OVC040=
202102180606 KSEA 180606Z 1806/1912 00000KT P6SM SCT120 OVC200 FM181200 12004KT
                       P6SM BKN050 OVC100 FM181800 16012KT P6SM
                       -RA OVC040 FM182200 19012G20KT 5SM -RA BR
                       BKN020 OVC040=
202102180306 KSEA 180306Z 1803/1906 01005KT P6SM SCT040 BKN250 FM180600 00000KT
                       P6SM SCT120 OVC200 FM181200 12004KT P6SM
                       BKN050 OVC100 FM181800 16012KT P6SM -RA
                       OVC040 FM182200 19012G20KT 5SM -RA BR BKN020
                       OVC040=
202102172320 TAF KSEA 172320Z 1800/1906 VRB03KT P6SM SCT040 BKN250 FM180600
                       00000KT P6SM SCT120 OVC200 FM181200 12004KT
                       P6SM BKN050 OVC100 FM181800 16012KT P6SM
                       -RA OVC040 FM182200 19012G20KT 5SM -RA BR
                       BKN020 OVC040=
202102172019 KSEA 172019Z 1720/1824 04004KT P6SM VCSH BKN040 FM180300 04004KT
                       P6SM SCT040 BKN200 FM181200 12006KT P6SM
                       BKN050 OVC100 FM181800 16012KT P6SM -RA
                       OVC040=
202102171720 TAF KSEA 171720Z 1718/1824 VRB04KT P6SM VCSH BKN020 BKN050 FM172100
                       32005KT P6SM SCT020 BKN050 FM180300 05004KT
                       P6SM BKN250 FM181500 08006KT P6SM OVC100
                       FM182100 12012KT P6SM -RA BKN040 OVC080=
202102171401 KSEA 171401Z 1714/1818 VRB03KT P6SM FEW015 BKN025
                      TEMPO 1714/1716 SCT025 SCT060 FM172200 32005KT
                       P6SM BKN050 FM180300 05004KT P6SM BKN250
                       FM181500 08006KT P6SM BKN100=
202102171120 TAF KSEA 171120Z 1712/1818 17005KT P6SM SCT015 SCT050
                      TEMPO 1712/1716 BKN015 BKN050 FM171600 VRB03KT
                       P6SM BKN020 FM172200 32005KT P6SM BKN050
                       FM180300 05004KT P6SM BKN250 FM181500 08006KT
                       P6SM BKN100=
202102170901 KSEA 170901Z 1709/1812 15006KT P6SM OVC012 FM171700 VRB03KT P6SM
                       BKN020 FM172200 32005KT P6SM SCT030=
202102170520 TAF KSEA 170520Z 1706/1812 22013KT P6SM VCSH SCT030 BKN080 FM170700
                       VRB04KT P6SM SCT035 OVC050 FM171200 18006KT
                       P6SM OVC025 FM171700 VRB03KT P6SM BKN020
                       FM172200 32005KT P6SM SCT030=
202102170338 KSEA 170338Z 1704/1806 22013KT P6SM VCSH SCT030 BKN080 FM170700
                       VRB04KT P6SM SCT035 OVC050 FM171200 18006KT
                       P6SM OVC025 FM171700 VRB03KT P6SM BKN020
                       FM172200 32005KT P6SM SCT030=
202102162323 TAF KSEA 162323Z 1700/1806 20008KT P6SM VCSH SCT030 BKN080 FM170200
                       VRB04KT P6SM VCSH SCT025 BKN050 FM170900
                       VRB04KT P6SM BKN022 OVC050 FM171200 18006KT
                       P6SM OVC015 FM171700 VRB03KT P6SM BKN020
                       FM172200 32005KT P6SM SCT030=
202102162103 KSEA 162103Z 1621/1724 22008KT P6SM SCT025 SCT050 BKN100
                      TEMPO 1621/1623 BKN025 BKN050 BKN100 FM162300
                       22010G18KT P6SM SCT025 BKN050 FM170900 19008KT
                       P6SM BKN025 OVC050 FM171200 VRB03KT P6SM
                       OVC015 FM171700 VRB03KT P6SM BKN020=
202102161720 TAF KSEA 161720Z 1618/1724 20010KT P6SM VCSH BKN012 BKN050 BKN100
                       FM162000 22012G20KT P6SM VCSH BKN025 OVC050
                       FM170200 22010G18KT P6SM SCT025 BKN050 FM170900
                       19008KT P6SM BKN025 OVC050 FM171200 VRB03KT
                       P6SM OVC015 FM171700 VRB03KT P6SM BKN020=
202102161404 KSEA 161404Z 1614/1718 22008KT P6SM VCSH BKN006 OVC012 FM161800
                       20012KT P6SM VCSH SCT006 OVC015 FM162000
                       21014G22KT P6SM -SHRA SCT010 OVC025 FM170200
                       22011G18KT P6SM BKN050 FM170900 19008KT
                       P6SM BKN025 OVC050 FM171200 16005KT P6SM
                       OVC015=
202102161127 TAF KSEA 161127Z 1612/1718 15006KT 3SM BR VCSH SCT002 OVC015
                      TEMPO 1612/1616 1/2SM FG BKN002 OVC006 FM161600
                       20012KT 4SM BR VCSH SCT006 OVC015 FM162000
                       21014G22KT P6SM -SHRA SCT010 OVC025 FM170200
                       22011G18KT P6SM BKN050 FM170900 19008KT
                       P6SM BKN025 OVC050 FM171200 16005KT P6SM
                       OVC015=
202102160902 KSEA 160902Z 1609/1712 12005KT 4SM BR SCT002 OVC020
                      TEMPO 1609/1613 1/2SM FG BKN002 OVC015 FM161300
                       20012KT 4SM BR VCSH OVC010 FM162000 21014G22KT
                       P6SM SCT010 OVC025 FM162200 22011G18KT P6SM
                       BKN050=
202102160700 KSEA 160700Z 1607/1712 VRB04KT P6SM -SHRA SCT004 OVC025
                      TEMPO 1607/1609 4SM -SHRA BR BKN004 OVC015
                       FM160900 19006KT 6SM BR BKN004 OVC007 FM161400
                       20012KT 4SM BR VCSH OVC010 FM162000 21014G22KT
                       P6SM SCT010 OVC025 FM162200 22011G18KT P6SM
                       BKN050=
202102160520 TAF KSEA 160520Z 1606/1712 02011KT 6SM -SHRA BR SCT007 OVC035 FM160900
                       19006KT 6SM BR BKN004 OVC007 FM161400 20012KT
                       4SM BR VCSH OVC010 FM162000 21014G22KT P6SM
                       SCT010 OVC025 FM162200 22011G18KT P6SM BKN050=
202102160436 KSEA 160436Z 1605/1706 36010KT 6SM -SHRA BR SCT007 OVC035 FM160900
                       19006KT 6SM BR BKN004 OVC007 FM161400 20012KT
                       4SM BR VCSH OVC010 FM162000 21014G22KT P6SM
                       SCT010 OVC025=
202102160242 KSEA 160242Z 1603/1706 36010KT 1/2SM -SHRA FG BKN002 OVC009 FM160900
                       19006KT 1SM BR BKN004 OVC007 FM161400 20012KT
                       4SM BR VCSH OVC010 FM162000 21014G22KT P6SM
                       SCT010 OVC025=
202102152328 TAF KSEA 152328Z 1600/1706 19010KT 6SM -SHRA BR SCT007 OVC015 FM160400
                       20012KT 5SM -SHRA BR OVC010 FM161400 20012KT
                       6SM BR VCSH OVC010 FM162000 21014G22KT P6SM
                       SCT010 OVC025=
202102152107 KSEA 152107Z 1521/1624 19010KT 6SM -SHRA BR OVC010 FM160400 20012G20KT
                       5SM -SHRA BR OVC010 FM161400 20012KT 6SM
                       BR VCSH OVC010=
202102151733 TAF KSEA 151733Z 1518/1624 12010KT 2SM -RA BR SCT005 OVC010
                      TEMPO 1518/1520 1/2SM -RA FG OVC005 FM152000
                       19010KT 3SM -SHRA OVC010 FM160400 20012G20KT
                       5SM -SHRA BR OVC010 FM161400 20012KT 6SM
                       BR VCSH OVC010=
202102151656 KSEA 151656Z 1517/1618 12010KT P6SM -RA SCT007 OVC015
                      TEMPO 1517/1520 1/2SM -RA FG OVC007 FM152000
                       19012G20KT 5SM -SHRA OVC015 FM160400 20010KT
                       6SM -SHRA BR OVC015=
202102151403 KSEA 151403Z 1514/1618 12010KT P6SM -RA SCT015 OVC025
                      TEMPO 1514/1518 3SM -RA BR OVC015 FM152000
                       19012G20KT 5SM -SHRA OVC015 FM160400 20010KT
                       6SM -SHRA BR OVC015=
202102151120 TAF KSEA 151120Z 1512/1618 11012KT P6SM -RA SCT015 BKN025 OVC035
                       FM151500 13010KT 4SM -RA BR SCT007 OVC015
                       FM152000 19012G20KT 5SM -RA OVC015 FM160400
                       20010KT 6SM -RA BR OVC015=
202102150915 KSEA 150915Z 1509/1612 13008KT P6SM -RA SCT015 OVC026 FM151500
                       16010KT 4SM -RA BR SCT007 OVC015 FM152000
                       19012G20KT 5SM -RA OVC015 FM160400 20011KT
                       6SM -RA BR OVC015=
202102150606 KSEA 150606Z 1506/1612 11009KT P6SM -RA FEW003 BKN015 OVC020
                      TEMPO 1506/1509 3SM -RA BR BKN003 OVC015
                       FM150900 13008KT 3SM -RA BR OVC007 FM151500
                       16010KT 4SM -RA OVC007 FM152000 19012G20KT
                       5SM -RA OVC015 FM160400 20011KT 6SM -RA
                       BR OVC015=
202102150520 TAF KSEA 150520Z 1506/1612 11011KT 3SM -RA BR BKN003 OVC013 FM150900
                       13008KT 3SM -RA BR OVC007 FM151500 16010KT
                       4SM -RA OVC007 FM152000 19012G20KT 5SM -RA
                       OVC015 FM160400 20011KT 6SM -RA BR OVC015=
202102150300 KSEA 150300Z 1503/1606 11011KT 4SM -RA BR OVC015 FM150900 10008KT
                       6SM -RA OVC015 FM151500 16010KT P6SM -RA
                       OVC015 FM152000 20015KT P6SM -RA OVC009
                       FM160000 21010KT P6SM -RA OVC015=
202102142329 TAF KSEA 142329Z 1500/1606 09012KT 3SM -SN BR SCT018 OVC024 FM150900
                       10008KT 6SM -RA OVC015 FM151500 16010KT
                       P6SM -RA OVC015 FM152000 20015KT P6SM -RA
                       OVC009 FM160000 21010KT P6SM -RA OVC015=
202102142057 KSEA 142057Z 1421/1524 09012KT 3SM -SN BR SCT018 OVC024 FM150900
                       10008KT 6SM -RA OVC015 FM151500 16010KT
                       P6SM -RA OVC015 FM152000 20015G20KT P6SM
                       -RA OVC009=
202102141730 TAF KSEA 141730Z 1418/1524 11013KT 1SM -SN BR OVC014 FM142100 09006KT
                       4SM -RASN OVC015 FM150900 10008KT 6SM -RA
                       OVC015 FM151500 16010KT P6SM -RA OVC015
                       FM152000 20015G20KT P6SM -RA OVC009=
202102141401 KSEA 141401Z 1414/1518 11008KT P6SM VCSH OVC020
                      TEMPO 1414/1416 4SM -SHSN OVC015 FM141600
                       10006KT 3SM -SN OVC015 FM142100 09006KT
                       4SM -RASN OVC015 FM150900 10008KT 6SM -RA
                       OVC015 FM151500 16010KT P6SM -RA OVC015=
202102141128 TAF KSEA 141128Z 1412/1518 11008KT P6SM VCSH OVC020
                      TEMPO 1412/1416 5SM -SHSN OVC010 FM141600
                       10006KT 3SM -SN OVC015 FM142100 09006KT
                       4SM -RASN OVC015 FM150900 10008KT 6SM -RA
                       OVC015 FM151500 16010KT P6SM -RA OVC015=
202102140900 KSEA 140900Z 1409/1512 11010KT P6SM OVC020 FM141200 07005KT P6SM
                       VCSH OVC015
                      TEMPO 1414/1418 5SM -SN OVC010 FM141800 12006KT
                       3SM -SN OVC015 FM142100 12006KT 5SM -RA
                       OVC015 FM150100 08007KT 4SM -RA OVC015=
202102140520 TAF KSEA 140520Z 1406/1512 10011KT P6SM BKN015 OVC030 FM141200
                       07005KT P6SM VCSH OVC015
                      TEMPO 1414/1418 5SM -SN OVC010 FM141800 12006KT
                       3SM -SN OVC015 FM142100 12006KT 5SM -RA
                       OVC015 FM150100 08007KT 4SM -RA OVC015=
202102140300 KSEA 140300Z 1403/1506 10011KT P6SM FEW010 OVC015 FM141200 07005KT
                       P6SM VCSH OVC015
                      TEMPO 1414/1418 5SM -SN OVC010 FM141800 12006KT
                       3SM -SN OVC015 FM142100 12006KT P6SM -RA
                       OVC015=
202102132320 TAF KSEA 132320Z 1400/1506 10008KT 3SM -SHSN SCT010 OVC015
                      TEMPO 1400/1403 1SM -SN OVC010 FM140300 09006KT
                       P6SM VCSH BKN025 OVC050 FM141200 07005KT
                       P6SM VCSH OVC015
                      TEMPO 1414/1418 5SM -SN OVC010 FM141800 12006KT
                       3SM -SN OVC015 FM142100 12006KT P6SM -RA
                       OVC015=
202102132103 KSEA 132103Z 1321/1424 08010KT 3/4SM -SN VV012 FM132300 11008KT
                       3SM -SHSN BKN018 OVC035 FM140300 09006KT
                       P6SM VCSH BKN025 OVC050 FM141200 07005KT
                       P6SM VCSH OVC015
                      TEMPO 1414/1418 5SM -SN OVC010 FM141800 12006KT
                       3SM -SN OVC015=
202102131821 KSEA 131821Z 1318/1424 08010KT 2SM -SN OVC015
                      TEMPO 1318/1321 3/4SM -SN VV010 FM132300
                       11008KT 3SM -SHSN BKN018 OVC035 FM140300
                       09006KT P6SM VCSH BKN025 OVC050 FM141200
                       07005KT P6SM VCSH OVC015
                      TEMPO 1412/1416 5SM -SN OVC010=
202102131733 TAF KSEA 131733Z 1318/1424 08010KT 2SM -SN OVC015
                      TEMPO 1318/1321 3/4SM -SN VV010 FM132100
                       11008KT 3SM -SHSN BKN018 OVC035 FM140000
                       09006KT P6SM VCSH BKN025 OVC050 FM141200
                       07005KT 5SM -SN OVC015=
202102131501 KSEA 131501Z 1315/1418 11014G24KT 1 1/2SM -SN OVC015
                      TEMPO 1315/1318 1/2SM SN VV010 FM131800 08010KT
                       2SM -SN OVC015 FM132100 11008KT 4SM -SHSN
                       BKN018 OVC035 FM140000 09006KT P6SM VCSH
                       BKN025 OVC050 FM141200 07005KT 5SM -SN OVC015=
202102131312 KSEA 131312Z 1313/1418 11014G22KT 1 1/2SM -SN VV013
                      TEMPO 1313/1315 1/2SM SN VV009 FM131800 08010KT
                       2SM -SN OVC010 FM132100 11008KT 4SM -SHSN
                       BKN018 OVC035 FM140000 09006KT P6SM VCSH
                       BKN025 OVC050 FM141200 07005KT 5SM -SN OVC015=
202102131123 TAF KSEA 131123Z 1312/1418 11015KT 1/2SM SN VV006 FM131800 08010KT
                       2SM -SN OVC010 FM132100 11008KT 4SM -SHSN
                       BKN018 OVC035 FM140000 09006KT P6SM VCSH
                       BKN025 OVC050 FM141200 07005KT 5SM -SN OVC015=
202102130902 KSEA 130902Z 1309/1412 11015G25KT 1 1/2SM -SN OVC011
                      TEMPO 1309/1313 1/2SM SN VV007 FM131300 09013KT
                       1SM -SN OVC010 FM131800 08010KT 2SM -SN
                       OVC010 FM132200 10012KT 4SM -SHSN BKN022
                       OVC050 FM140500 09009KT 6SM BR VCSH BKN030
                       OVC050=
202102130700 KSEA 130700Z 1307/1412 11015G25KT 2SM -SN OVC013
                      TEMPO 1307/1311 1/2SM SN VV007 FM131100 09013KT
                       2SM -SN OVC010 FM131800 08010KT 2SM -SN
                       OVC010 FM132200 10012KT 4SM -SHSN BKN022
                       OVC050 FM140500 09009KT 6SM BR VCSH BKN030
                       OVC050=
202102130520 TAF KSEA 130520Z 1306/1412 09012G18KT 3SM -SN OVC015
                      TEMPO 1306/1310 1 1/2SM -SN OVC010 FM131000
                       09013KT 2SM -SN OVC010 FM131800 08010KT
                       2SM -SN OVC010 FM132200 10012KT 4SM -SHSN
                       BKN022 OVC050 FM140500 09009KT 6SM BR VCSH
                       BKN030 OVC050=
202102130200 KSEA 130200Z 1302/1406 09012G20KT P6SM OVC030
                      TEMPO 1302/1304 4SM -SN OVC022 FM130400 09012G18KT
                       4SM -SN OVC020 FM131000 07012KT 2SM -SN
                       OVC010 FM131800 06007KT 3SM -SN OVC010=
202102122327 TAF KSEA 122327Z 1300/1406 07012KT P6SM OVC050 FM130400 07013KT
                       5SM -SN OVC030 FM131000 07012KT 2SM -SN
                       OVC010 FM131800 06007KT 3SM -SN OVC010=
202102122101 KSEA 122101Z 1221/1324 07010KT P6SM OVC050 FM130300 07012KT 5SM
                       -SN OVC030 FM131000 07012KT 2SM -SN OVC010
                       FM131800 06007KT 3SM -SN OVC010=
202102121723 TAF KSEA 121723Z 1218/1324 07010KT P6SM OVC050 FM130300 07012KT
                       5SM -SN OVC030 FM131000 07012KT 1SM -SN
                       OVC010=
202102121403 KSEA 121403Z 1214/1318 07012KT P6SM OVC050 FM130500 07012KT 5SM
                       -SN OVC030 FM131000 07012KT 1SM -SN OVC008=
202102121141 TAF KSEA 121141Z 1212/1318 07012KT P6SM OVC050 FM130500 07012KT
                       5SM -SN OVC030 FM131000 07012KT 1SM -SN
                       OVC008=
202102120953 KSEA 120953Z 1210/1312 07012KT P6SM OVC040 FM121900 07012KT P6SM
                       BKN050 OVC090 FM130100 08014G22KT P6SM OVC060
                       FM130500 08014G22KT P6SM -SN OVC040 FM131000
                       08014G22KT 3SM -SN OVC025=
202102120520 TAF KSEA 120520Z 1206/1312 05012KT P6SM VCSH OVC040
                      TEMPO 1206/1210 5SM -SN OVC030 FM121000 06013KT
                       P6SM OVC035 FM121900 06012KT P6SM BKN050
                       OVC090 FM130100 08014G22KT P6SM OVC060 FM130500
                       08014G22KT P6SM -SN OVC040 FM131000 08014G22KT
                       5SM -SN OVC030=
202102120259 KSEA 120259Z 1203/1306 04011KT P6SM -SN OVC035
                      TEMPO 1203/1206 5SM -SN OVC030 FM120600 05010KT
                       P6SM VCSH OVC030
                      TEMPO 1206/1210 -SN OVC025 FM121000 06013KT
                       P6SM OVC035=
202102112320 TAF KSEA 112320Z 1200/1306 03013G20KT P6SM VCSH SCT030 OVC040
                      TEMPO 1200/1202 3SM -SN OVC030 FM120200 08014G22KT
                       P6SM VCSH OVC030 FM120600 05010KT P6SM VCSH
                       OVC030
                      TEMPO 1206/1210 -SN OVC025 FM121000 06013KT
                       P6SM OVC035
                      PROB30 1210/1216 -SN OVC020=
202102112102 KSEA 112102Z 1121/1224 03013G20KT P6SM VCSH SCT030 OVC060
                      TEMPO 1121/1124 -SN OVC030 FM120200 08014G22KT
                       P6SM VCSH OVC060 FM120600 05010KT P6SM VCSH
                       SCT030 OVC050
                      TEMPO 1206/1210 -SN OVC025 FM121000 VRB03KT
                       P6SM OVC050
                      PROB30 1210/1216 -SN OVC025=
202102111733 TAF KSEA 111733Z 1118/1224 06012KT P6SM SCT020 OVC050 FM112000
                       04013G20KT P6SM VCSH OVC050
                      TEMPO 1120/1124 -SN OVC040 FM120200 08014G22KT
                       P6SM VCSH OVC060 FM120600 05010KT P6SM VCSH
                       SCT030 OVC050
                      TEMPO 1206/1210 -SN OVC025 FM121000 VRB03KT
                       P6SM OVC050
                      PROB30 1210/1216 -SN OVC025=
202102111411 KSEA 111411Z 1114/1218 01010KT P6SM OVC060 FM111800 06012G20KT
                       P6SM VCSH OVC050
                      TEMPO 1120/1124 -SN OVC040 FM120200 08012G22KT
                       P6SM VCSH OVC060=
202102111124 TAF KSEA 111124Z 1112/1218 03007KT P6SM OVC060 FM111800 06012G20KT
                       P6SM VCSH OVC050
                      TEMPO 1120/1124 -SN OVC040 FM120200 08012G22KT
                       P6SM VCSH OVC060=
202102110902 KSEA 110902Z 1109/1212 VRB05KT P6SM OVC060 FM111400 01010KT P6SM
                       OVC050 FM111800 05012G22KT P6SM OVC040=
202102110522 TAF KSEA 110522Z 1106/1212 VRB03KT P6SM OVC050 FM110900 01010KT
                       P6SM OVC050 FM111800 05012G22KT P6SM OVC040=
202102110336 KSEA 110336Z 1104/1206 VRB03KT P6SM OVC070 FM110700 01010KT P6SM
                       OVC045 FM111800 09012G18KT P6SM -SHSN OVC040=
202102102322 TAF KSEA 102322Z 1100/1206 24007KT P6SM BKN050 FM110400 36008KT
                       P6SM OVC040
                      TEMPO 1104/1108 5SM -SN OVC025 FM110800 36012G22KT
                       P6SM BKN030
                      TEMPO 1108/1112 -SHSN FM111900 09012G18KT
                       P6SM BKN040=
202102102110 KSEA 102110Z 1021/1124 VRB04KT P6SM BKN050 FM110400 01008KT P6SM
                       BKN040 FM111600 09012G18KT P6SM -SHSN OVC040=
202102101720 TAF KSEA 101720Z 1018/1124 VRB04KT P6SM BKN050 FM102200 01008KT
                       P6SM BKN050 FM111600 09012G18KT P6SM -SHSN
                       OVC040=
202102101403 KSEA 101403Z 1014/1118 VRB05KT P6SM BKN050 FM101800 36010KT P6SM
                       SCT050 FM110300 01008KT P6SM OVC050 FM111600
                       09012G18KT P6SM VCSH OVC045=
202102101126 TAF KSEA 101126Z 1012/1118 VRB04KT P6SM SCT050 FM101800 36010KT
                       P6SM SCT050 FM110300 01008KT P6SM OVC050
                       FM111600 09012G18KT P6SM VCSH OVC045=
202102100901 KSEA 100901Z 1009/1112 05004KT P6SM BKN050 FM101800 36010KT P6SM
                       BKN050=
202102100520 TAF KSEA 100520Z 1006/1112 03006KT P6SM SCT050 FM101800 36010KT
                       P6SM BKN050=
202102100301 KSEA 100301Z 1003/1106 04004KT P6SM SCT050 FM101800 36008KT P6SM
                       BKN050=
202102092320 TAF KSEA 092320Z 1000/1106 04004KT P6SM SCT050 FM101800 36010KT
                       P6SM BKN050=
202102092024 KSEA 092024Z 0920/1024 31005KT P6SM SCT020 BKN025 FM092200 32005KT
                       P6SM SCT025 BKN040 FM100600 05003KT P6SM
                       SCT050 SCT200=
202102091722 TAF KSEA 091722Z 0918/1024 36005KT P6SM SCT030 FM092200 30005KT
                       P6SM BKN050 FM100600 05003KT P6SM SCT050
                       SCT200=
202102091415 KSEA 091415Z 0914/1018 02006KT P6SM FEW006 BKN060 FM091700 36005KT
                       P6SM BKN050 FM092200 30005KT P6SM SCT060
                       FM100500 05003KT P6SM SCT250=
202102091135 TAF KSEA 091135Z 0912/1018 04003KT P6SM SCT030 BKN060 FM091700
                       VRB04KT P6SM BKN040 FM092200 30005KT P6SM
                       SCT060 FM100500 05003KT P6SM SCT250=
202102090901 KSEA 090901Z 0909/1012 03004KT P6SM SCT030 OVC060 FM091200 06003KT
                       P6SM BKN025 FM091600 02004KT P6SM SCT025
                       BKN040 FM092100 33003KT P6SM SCT040 BKN200=
202102090520 TAF KSEA 090520Z 0906/1012 VRB05KT P6SM SCT030 BKN060 FM090700
                       10003KT P6SM BKN035 FM091200 06003KT P6SM
                       BKN025 FM091600 02004KT P6SM SCT025 BKN040
                       FM092100 33003KT P6SM SCT040 BKN200=
202102090306 KSEA 090306Z 0903/1006 VRB05KT P6SM SCT030 BKN060 FM090600 09003KT
                       P6SM BKN035 FM091200 06003KT P6SM BKN025
                       FM091600 02004KT P6SM SCT025 BKN040 FM092100
                       33003KT P6SM SCT040 BKN200=
202102082324 TAF KSEA 082324Z 0900/1006 VRB05KT P6SM SCT030 BKN060 FM090300
                       05003KT P6SM BKN035 FM091200 09003KT P6SM
                       BKN025 FM091600 02004KT P6SM SCT025 BKN040=
202102082113 KSEA 082113Z 0821/0924 24005KT P6SM SCT015 BKN060 FM090200 05003KT
                       P6SM BKN035 FM090900 VRB03KT P6SM BKN025=
202102081848 KSEA 081848Z 0819/0924 19007KT P6SM VCSH SCT010 BKN015 OVC060
                      TEMPO 0819/0821 BKN010 FM082100 24005KT P6SM
                       SCT025 BKN040 FM090200 05003KT P6SM BKN035
                       FM090900 VRB03KT P6SM BKN025=
202102081727 TAF KSEA 081727Z 0818/0924 19007KT P6SM VCSH SCT015 BKN060 BKN250
                       TEMPO 0818/0819 BKN015 FM082100 24005KT
                       P6SM SCT025 BKN040 FM090200 05003KT P6SM
                       BKN035 FM090900 VRB03KT P6SM BKN025=
202102081401 KSEA 081401Z 0814/0918 19007KT P6SM VCSH FEW005 OVC020 FM082100
                       20005KT P6SM BKN040 FM090200 05003KT P6SM
                       BKN035 FM090900 VRB03KT P6SM BKN025=
202102081151 KSEA 081151Z 0812/0918 19007KT P6SM VCSH BKN015 OVC025
                      TEMPO 0812/0815 -RASN OVC012 FM082100 20005KT
                       P6SM BKN040 FM090200 05003KT P6SM BKN035
                       FM090900 VRB03KT P6SM BKN025=
202102081126 TAF KSEA 081126Z 0812/0918 19007KT P6SM VCSH BKN015 OVC025 FM082100
                       20005KT P6SM BKN040 FM090200 05003KT P6SM
                       BKN035 FM090900 VRB03KT P6SM BKN025=
202102080909 KSEA 080909Z 0809/0912 19009KT P6SM VCSH BKN015 BKN035 FM081300
                       24004KT P6SM OVC050 FM090200 34003KT P6SM
                       OVC050=
202102080541 KSEA 080541Z 0806/0912 22010KT P6SM VCSH SCT015 OVC035
                      TEMPO 0806/0808 -RA OVC015 FM081000 21007KT
                       P6SM OVC050 FM081300 24004KT P6SM OVC050
                       FM090200 34003KT P6SM OVC050=
202102080520 TAF KSEA 080520Z 0806/0912 22010KT P6SM VCSH FEW025 BKN035 OVC050
                       FM081000 21007KT P6SM OVC050 FM081300 24004KT
                       P6SM OVC050 FM090200 34003KT P6SM OVC050=
202102080300 KSEA 080300Z 0803/0906 22011KT P6SM VCSH SCT015 OVC025 FM080600
                       19007KT P6SM BKN025=
202102080124 KSEA 080124Z 0801/0906 22011KT P6SM -SHRA OVC020 FM080600 19007KT
                       P6SM BKN025=
202102072320 TAF KSEA 072320Z 0800/0906 36007KT 4SM -RA OVC025 FM080300 VRB03KT
                       6SM -SHRA OVC025 FM080600 14003KT P6SM BKN025=
202102072107 KSEA 072107Z 0721/0824 23012G18KT P6SM VCSH BKN040 FM072300 36007KT
                       4SM -RA OVC025 FM080300 VRB03KT 6SM -SHRA
                       OVC025 FM080600 14003KT P6SM BKN025=
202102071732 TAF KSEA 071732Z 0718/0824 22012KT P6SM BKN020 BKN050 FM071900
                       23012G18KT P6SM VCSH BKN040 FM072200 36007KT
                       4SM -RA OVC025 FM080300 VRB03KT 6SM -SHRA
                       OVC025 FM080600 14003KT P6SM BKN025=
202102071402 KSEA 071402Z 0714/0818 22012KT P6SM BKN020 BKN050 FM071900 23012G18KT
                       P6SM VCSH BKN040 FM072300 23012KT P6SM -SHRA
                       OVC035 FM080600 18008KT P6SM VCSH OVC025
                       FM081200 17005KT P6SM BKN030=
202102071135 TAF KSEA 071135Z 0712/0818 22012KT P6SM SCT020 BKN050 FM071900
                       23012G18KT P6SM VCSH BKN040 FM072300 23012KT
                       P6SM -SHRA OVC035 FM080600 18008KT P6SM
                       VCSH OVC025 FM081200 17005KT P6SM BKN030=
202102070900 KSEA 070900Z 0709/0812 22012G20KT P6SM OVC020 FM072100 23012G18KT
                       P6SM -SHRA OVC035 FM080300 23010KT P6SM
                       OVC025=
202102070520 TAF KSEA 070520Z 0706/0812 22015G22KT P6SM OVC020 FM072100 23012G18KT
                       P6SM -SHRA OVC035 FM080300 23010KT P6SM
                       OVC025=
202102070259 KSEA 070259Z 0703/0806 22015G22KT P6SM OVC015 FM070600 23015G25KT
                       P6SM OVC025=
202102062320 TAF KSEA 062320Z 0700/0806 22018G25KT P6SM BKN015 OVC025 FM070600
                       23015G25KT P6SM OVC025=
202102062104 KSEA 062104Z 0621/0724 21025G35KT P6SM OVC015 FM070200 21020G30KT
                       P6SM SCT015 OVC025 FM070600 23015G25KT P6SM
                       OVC025=
202102061737 TAF KSEA 061737Z 0618/0724 20025G35KT P6SM -RA OVC015 FM062200
                       21025G35KT P6SM SCT015 OVC020 FM070200 23020G30KT
                       P6SM SCT020 OVC030 FM070600 23015G25KT P6SM
                       OVC030=
202102061602 KSEA 061602Z 0616/0718 20025G35KT P6SM -RA OVC015 FM062200 21025G35KT
                       P6SM SCT015 OVC020 FM070200 23020G30KT P6SM
                       SCT020 OVC030 FM070600 23015G25KT P6SM OVC030=
202102061359 KSEA 061359Z 0614/0718 21016G23KT P6SM BKN017 OVC025 FM061500 20018G29KT
                       4SM -RA BR OVC010 FM062200 21018G28KT P6SM
                       SCT015 OVC020 FM070200 23018G29KT P6SM SCT020
                       OVC030 FM070600 23012KT P6SM OVC030=
202102061125 TAF KSEA 061125Z 0612/0718 20014G20KT P6SM SCT019 OVC025 FM061500
                       20018G29KT 4SM -RA BR OVC010 FM062200 21018G28KT
                       P6SM SCT015 OVC020 FM070200 23018G29KT P6SM
                       SCT020 OVC030 FM070600 23012KT P6SM OVC030=
202102060858 KSEA 060858Z 0609/0712 19014KT P6SM BKN018 OVC025 FM061500 20018G29KT
                       4SM -RA BR OVC010 FM062200 21018G28KT P6SM
                       SCT015 OVC020 FM070200 23018G29KT P6SM SCT020
                       OVC030=
202102060520 TAF KSEA 060520Z 0606/0712 21010KT P6SM SCT010 OVC015 FM061500
                       20018G29KT 4SM -RA BR OVC010 FM062200 21018G28KT
                       P6SM SCT015 OVC020 FM070200 23018G29KT P6SM
                       SCT020 OVC030=
202102060301 KSEA 060301Z 0603/0706 23008KT P6SM SCT020 OVC030 FM060600 21009KT
                       P6SM SCT010 OVC015 FM061500 20018G29KT 4SM
                       -RA BR OVC010 FM062200 21018G28KT P6SM SCT015
                       OVC020=
202102052331 TAF KSEA 052331Z 0600/0706 23008KT P6SM SCT020 OVC030 FM060600
                       21009KT P6SM SCT010 OVC015 FM061500 20018G29KT
                       4SM -RA BR OVC010 FM062200 21018G28KT P6SM
                       SCT015 OVC020=
202102052105 KSEA 052105Z 0521/0624 23008KT P6SM SCT015 OVC020 FM060600 19012KT
                       P6SM SCT010 OVC015 FM061500 20016G25KT P6SM
                       -RA SCT010 OVC020=
202102051728 TAF KSEA 051728Z 0518/0624 22007KT P6SM SCT010 OVC035
                      TEMPO 0518/0520 SCT010 OVC020 FM052000 21008KT
                       P6SM SCT015 OVC020 FM060600 19012KT P6SM
                       SCT010 OVC015 FM061500 20016G25KT P6SM -RA
                       SCT010 OVC020=
202102051359 KSEA 051359Z 0514/0618 20012G25KT P6SM VCSH OVC007 FM051600 20012KT
                       P6SM SCT010 OVC020 FM051900 21009KT P6SM
                       SCT015 BKN020 FM060600 19012KT P6SM OVC025=
202102051136 TAF KSEA 051136Z 0512/0618 21019G27KT P6SM VCSH OVC013 FM051600
                       20010KT P6SM SCT010 OVC020 FM051900 21009KT
                       P6SM SCT015 BKN020 FM060600 19012KT P6SM
                       OVC025=
202102050857 KSEA 050857Z 0509/0612 20013G22KT P6SM VCSH OVC015 FM051200 21015G24KT
                       P6SM -RA OVC010 FM051600 20010KT P6SM SCT010
                       OVC020 FM051900 21009KT P6SM SCT015 OVC025=
202102050520 TAF KSEA 050520Z 0506/0612 20013G22KT P6SM VCSH OVC015 FM051200
                       21015G24KT P6SM -RA OVC010 FM051600 20010KT
                       P6SM SCT010 OVC020 FM051900 21009KT P6SM
                       SCT015 OVC025=
202102050321 KSEA 050321Z 0503/0606 20010G22KT P6SM VCSH OVC010 FM051200 21015G24KT
                       P6SM -RA OVC010 FM051600 20010KT P6SM SCT010
                       OVC020 FM051900 21009KT P6SM SCT015 OVC025=
202102050258 KSEA 050258Z 0503/0606 20010G22KT P6SM VCSH OVC010 FM051200 21015G24KT
                       P6SM OVC010 FM051600 20010KT P6SM SCT010
                       OVC020 FM051900 21009KT P6SM SCT015 OVC025=
202102050020 KSEA 050020Z 0500/0606 19011KT 3SM -RA BR OVC007 FM050300 20010G22KT
                       4SM -RA BR OVC010 FM051200 21015G24KT P6SM
                       SCT010 OVC020 FM051900 21009KT P6SM OVC015=
202102042325 TAF KSEA 042325Z 0500/0606 19011KT 6SM -RA BR SCT005 OVC010 FM050300
                       20010G22KT 6SM -RA BR OVC010 FM051200 21015G24KT
                       P6SM SCT010 OVC020 FM051900 21009KT P6SM
                       OVC015=
202102042105 KSEA 042105Z 0421/0524 20012KT P6SM VCSH BKN015 OVC020 FM050300
                       20010G15KT P6SM -RA OVC015 FM051200 21015G24KT
                       P6SM SCT010 OVC015=
202102041723 TAF KSEA 041723Z 0418/0524 20009KT P6SM -RA OVC015 FM050300 20010G15KT
                       P6SM -RA OVC015 FM051200 21015G24KT P6SM
                       SCT010 OVC015=
202102041353 KSEA 041353Z 0414/0518 19007KT P6SM BKN010 OVC014 FM041500 20009KT
                       P6SM -RA OVC015 FM050300 20010G15KT P6SM
                       -RA OVC015 FM051200 21015KT P6SM -RA OVC015=
202102041140 TAF KSEA 041140Z 0412/0518 20010KT P6SM OVC017 FM041500 20009KT
                       P6SM -RA OVC015 FM050300 20010G15KT P6SM
                       -RA OVC015 FM051200 21015KT P6SM -RA OVC015=
202102040859 KSEA 040859Z 0409/0512 18007KT P6SM VCSH FEW015 BKN022 OVC027 FM041200
                       17005KT P6SM OVC015 FM041500 20009KT P6SM
                       -RA OVC015=
202102040625 KSEA 040625Z 0406/0512 19006KT P6SM -RA FEW011 BKN030 OVC045 FM040800
                       17008KT P6SM -RA OVC025 FM041200 17005KT
                       P6SM OVC015 FM041500 18009KT P6SM -RA OVC015=
202102040520 TAF KSEA 040520Z 0406/0512 18006KT P6SM BKN035 OVC250 FM040800
                       17008KT P6SM OVC025 FM041200 17005KT P6SM
                       OVC015 FM041500 18009KT P6SM -RA OVC015=
202102040259 KSEA 040259Z 0403/0506 18006KT P6SM BKN035 OVC250 FM040800 17008KT
                       P6SM OVC025 FM041200 17005KT P6SM OVC015
                       FM041600 18009KT P6SM -RA OVC015=
202102032321 TAF KSEA 032321Z 0400/0506 00000KT P6SM BKN030 BKN250 FM040100
                       18006KT P6SM BKN030 OVC250 FM040800 17008KT
                       P6SM OVC025 FM041200 17005KT P6SM OVC015
                       FM041600 18009KT P6SM -RA OVC015=
202102032110 KSEA 032110Z 0321/0424 35006KT P6SM SCT025 BKN030 FM040100 18006KT
                       P6SM OVC050 FM040800 17008KT P6SM OVC025
                       FM041200 17005KT P6SM OVC015=
202102031720 TAF KSEA 031720Z 0318/0424 35007KT P6SM SCT011 BKN080
                      TEMPO 0318/0320 BKN011 FM032000 35006KT P6SM
                       BKN050 FM040100 18006KT P6SM OVC050 FM040800
                       17008KT P6SM OVC025 FM041200 17005KT P6SM
                       OVC015=
202102031413 KSEA 031413Z 0314/0418 01009KT P6SM VCSH SCT025 OVC045 FM032000
                       35006KT P6SM BKN050 FM040100 18006KT P6SM
                       OVC050 FM040800 17008KT P6SM OVC025 FM041200
                       17005KT P6SM OVC015=
202102031140 TAF KSEA 031140Z 0312/0418 03009KT P6SM VCSH SCT025 OVC050
                      TEMPO 0312/0314 -SHRA SCT020 OVC035 FM032000
                       35006KT P6SM OVC050 FM040100 18006KT P6SM
                       OVC050 FM040800 17008KT P6SM OVC025=
202102031041 KSEA 031041Z 0311/0412 04006KT P6SM -SHRA SCT025 OVC035
                      TEMPO 0312/0316 OVC025 FM032000 35006KT P6SM
                       OVC050 FM040100 18006KT P6SM OVC050 FM040800
                       17008KT P6SM OVC025=
202102030905 KSEA 030905Z 0309/0412 07006KT P6SM -RA OVC025 FM031300 04004KT
                       P6SM OVC025 FM031800 34005KT P6SM OVC050
                       FM040100 18006KT P6SM OVC050 FM040800 17008KT
                       P6SM OVC025=
202102030520 TAF KSEA 030520Z 0306/0412 15010KT P6SM -RA OVC025 FM031300 05005KT
                       P6SM OVC025 FM031800 01005KT P6SM OVC040
                       FM032100 30005KT P6SM OVC050=
202102030300 KSEA 030300Z 0303/0406 17010KT P6SM -RA OVC025 FM031300 05005KT
                       P6SM OVC025 FM031800 01005KT P6SM OVC040
                       FM032100 30005KT P6SM OVC050=
202102022322 TAF KSEA 022322Z 0300/0406 19015G20KT P6SM -RA BKN020 BKN030 OVC035
                       FM030100 19012KT P6SM VCSH OVC025 FM030500
                       15008KT P6SM -RA OVC020 FM031300 05005KT
                       P6SM OVC025 FM031800 01005KT P6SM BKN015
                       FM032100 30005KT P6SM BKN020=
202102022051 KSEA 022051Z 0221/0324 22010KT P6SM -RA FEW009 BKN015 OVC035 FM030100
                       19009KT P6SM VCSH OVC025 FM030500 15008KT
                       P6SM -RA OVC020 FM031300 05005KT P6SM OVC025
                       FM031800 01005KT P6SM BKN015=
202102021730 TAF KSEA 021730Z 0218/0324 21010KT 5SM -RA BR SCT008 BKN013 OVC025
                       FM022000 20012G18KT 5SM -SHRA OVC020 FM030100
                       19009KT P6SM VCSH OVC025 FM031300 08005KT
                       P6SM OVC025=
202102021420 KSEA 021420Z 0214/0318 20007KT P6SM VCSH SCT020 OVC050 FM021530
                       18006KT 5SM -RA BR OVC015 FM022000 19012KT
                       P6SM -SHRA OVC025 FM030100 19009KT P6SM
                       VCSH SCT030 OVC040 FM031300 08005KT P6SM
                       OVC025=
202102021145 TAF KSEA 021145Z 0212/0318 20007KT P6SM VCSH SCT020 OVC050 FM021500
                       20007KT 5SM -SHRA BR OVC015 FM022000 19012KT
                       P6SM -SHRA OVC025 FM030100 19009KT P6SM
                       VCSH SCT030 OVC040 FM031300 08005KT P6SM
                       OVC025=
202102020520 TAF KSEA 020520Z 0206/0312 19008KT P6SM -RA OVC040 FM021200 17005KT
                       4SM -RA BR OVC020 FM021800 20007KT 5SM BR
                       VCSH OVC015 FM022100 19012KT P6SM VCSH OVC025=
202102020301 KSEA 020301Z 0203/0306 19008KT P6SM -RA OVC040 FM021200 17005KT
                       4SM -RA BR OVC015 FM021800 20007KT 5SM BR
                       VCSH OVC015 FM022100 19012KT P6SM VCSH OVC025=
202102012339 TAF KSEA 012339Z 0200/0306 15006KT 6SM -RA BR BKN030 OVC050 FM020300
                       19008KT P6SM -RA OVC020 FM021200 17005KT
                       4SM -RA BR OVC008 FM021800 20007KT 5SM BR
                       VCSH OVC015 FM022100 19012KT P6SM VCSH OVC025=
202102012104 KSEA 012104Z 0121/0224 15006KT 6SM -RA BR BKN015 BKN025 OVC050
                       FM020300 19008KT P6SM -RA OVC020 FM020900
                       18006KT P6SM VCSH OVC025 FM021000 18006KT
                       6SM -RA BR OVC015 FM021400 16005KT 6SM -RA
                       BR OVC020=
202102011737 TAF KSEA 011737Z 0118/0224 12006KT P6SM -RA OVC050 FM012100 15007KT
                       6SM -RA BR OVC025 FM020300 19008KT P6SM
                       -RA OVC015 FM020900 18006KT P6SM VCSH OVC025
                       FM021000 18006KT 6SM -RA BR OVC015 FM021400
                       16005KT 6SM -RA BR OVC020=
202102011402 KSEA 011402Z 0114/0218 10005KT 6SM -RA BR SCT010 OVC045 FM011600
                       12006KT 5SM -RA BR OVC025 FM012100 15007KT
                       6SM -RA BR OVC025 FM020300 19008KT P6SM
                       -RA OVC015 FM020900 18006KT P6SM VCSH OVC025
                       FM021000 12005KT 6SM -RA BR OVC015=
202102011140 TAF KSEA 011140Z 0112/0218 10005KT 6SM -RA BR SCT010 OVC045 FM011600
                       12006KT 5SM -RA BR OVC025 FM012100 15007KT
                       6SM -RA BR OVC025 FM020300 19008KT P6SM
                       -RA OVC015 FM020900 18006KT P6SM VCSH OVC025
                       FM021000 12005KT 6SM -RA BR OVC015=
202102010916 KSEA 010916Z 0109/0212 VRB03KT 6SM -RA BR SCT010 OVC045 FM011200
                       09004KT 5SM -RA BR BKN009 FM011600 12006KT
                       5SM -RA BR OVC010 FM012100 15007KT 6SM -RA
                       BR OVC020 FM020300 19008KT P6SM -RA OVC015
                       FM020900 18006KT P6SM VCSH OVC025=
202102010520 TAF KSEA 010520Z 0106/0212 VRB03KT P6SM -RA BKN020 OVC050 FM010800
                       VRB03KT 5SM -RA BR OVC007 FM011600 12006KT
                       5SM -RA BR OVC010 FM012100 15007KT 6SM -RA
                       BR OVC020 FM020300 19008KT P6SM -RA OVC015=
202102010259 KSEA 010259Z 0103/0206 VRB03KT P6SM VCSH FEW005 BKN022 FM010600
                       08003KT 4SM -RA OVC009 FM011100 08005KT
                       5SM -RA OVC025 FM011700 12006KT 5SM -RA
                       BR OVC010 FM012100 15007KT 6SM -RA BR OVC020=