##########################################################
# Query made at 02/17/2025 21:24:26 UTC
# Time interval: from 04/01/2021 00:00  to 04/30/2021 23:59  UTC
##########################################################

##########################################################
# KSEA, Seattle, Seattle-Tacoma International Airport (United States)
# WMO index: 72793. WIGOS ID: 0-20000-0-72793
# Latitude 47-27-00N. Longitude 122-17-59W. Altitude 130 m.
##########################################################

###################################
#  METAR/SPECI from KSEA
###################################
202104302353 METAR KSEA 302353Z 21010G19KT 10SM SCT028 SCT250 18/12 A3015 RMK AO2 SLP214 60001 T01780117 10178 20133 56012=
202104302253 METAR KSEA 302253Z 20015KT 10SM SCT027 SCT250 17/12 A3016 RMK AO2 SLP218 T01720122=
202104302200 SPECI KSEA 302200Z 23012KT 10SM BKN019 BKN032 BKN250 16/12 A3018 RMK AO2 T01610117=
202104302153 METAR KSEA 302153Z 21009KT 10SM FEW010 SCT022 BKN032 BKN250 17/12 A3018 RMK AO2 SLP226 T01670117=
202104302053 METAR KSEA 302053Z 22014KT 10SM SCT008 SCT020 BKN060 BKN250 16/13 A3019 RMK AO2 SLP227 60001 T01610128 58001=
202104301953 METAR KSEA 301953Z 21015KT 10SM SCT005 SCT017 BKN060 BKN250 14/13 A3018 RMK AO2 RAE23 SLP227 P0001 T01440128=
202104301946 SPECI KSEA 301946Z 21015KT 10SM SCT005 SCT017 BKN060 BKN250 14/13 A3019 RMK AO2 RAE23 P0001 T01440133=
202104301936 SPECI KSEA 301936Z 21014KT 5SM BR SCT005 BKN020 BKN060 BKN250 14/14 A3019 RMK AO2 RAE23 P0001 T01440139=
202104301924 SPECI KSEA 301924Z 23013KT 3SM R16L/2800VP6000FT BR BKN003 BKN010 14/13 A3020 RMK AO2 SFC VIS 5 RAE23 P0001 T01390133=
202104301853 METAR KSEA 301853Z 22010KT 1/2SM R16L/0700VP6000FT -RA FG BKN003 OVC010 13/13 A3020 RMK AO2 TWR VIS 1 RAB41 SLP231 P0000 T01330128=
202104301812 SPECI KSEA 301812Z 20011KT 1SM R16L/P6000FT BR BKN005 OVC010 13/13 A3019 RMK AO2 TWR VIS 3 T01330128=
202104301753 METAR KSEA 301753Z 20011KT 2 1/2SM BR BKN005 OVC010 13/12 A3019 RMK AO2 SLP229 60010 T01330122 10133 20100 58002=
202104301653 METAR KSEA 301653Z 18011KT 5SM BR BKN006 OVC020 12/12 A3019 RMK AO2 RAE50 SLP230 P0000 T01220117=
202104301553 METAR KSEA 301553Z 18010KT 5SM -RA BR BKN005 OVC019 12/11 A3020 RMK AO2 SLP232 P0005 T01170111=
202104301537 SPECI KSEA 301537Z 18010KT 5SM -RA BR BKN005 BKN017 OVC070 11/11 A3019 RMK AO2 P0004 T01110106=
202104301453 METAR KSEA 301453Z 18010KT 3SM -RA BR SCT014 BKN024 OVC075 11/10 A3019 RMK AO2 SFC VIS 5 SLP230 P0003 60005 T01110100 50000=
202104301443 SPECI KSEA 301443Z 17008KT 3SM -RA BR FEW010 BKN024 OVC050 11/10 A3019 RMK AO2 SFC VIS 5 P0003 T01110100=
202104301428 SPECI KSEA 301428Z 17008KT 3SM -RA BR FEW015 BKN031 OVC050 11/09 A3019 RMK AO2 P0002 T01060094=
202104301353 METAR KSEA 301353Z 19007KT 1SM R16L/P6000FT -RA BR SCT015 OVC026 11/09 A3020 RMK AO2 TWR VIS 3 RAB08E33B50 SLP231 P0002 T01060089=
202104301330 SPECI KSEA 301330Z 19006KT 1SM R16L/P6000FT -RA BR SCT018 OVC026 11/09 A3019 RMK AO2 TWR VIS 3 RAB08 P0001 T01060089=
202104301253 METAR KSEA 301253Z 18009KT 10SM OVC019 12/08 A3019 RMK AO2 SLP230 T01170078=
202104301153 METAR KSEA 301153Z 17009KT 10SM BKN018 OVC047 12/08 A3019 RMK AO2 SLP230 T01170078 10128 20117 56008=
202104301053 METAR KSEA 301053Z 19007KT 10SM OVC015 12/08 A3020 RMK AO2 SLP231 T01220083=
202104301026 SPECI KSEA 301026Z 18008KT 10SM FEW014 BKN019 OVC025 12/08 A3020 RMK AO2 T01220078=
202104300953 METAR KSEA 300953Z 18008KT 10SM SCT019 BKN110 BKN160 12/07 A3020 RMK AO2 SLP232 T01220067=
202104300853 METAR KSEA 300853Z 16008KT 10SM SCT019 BKN120 13/07 A3022 RMK AO2 SLP238 T01280067 58001=
202104300753 METAR KSEA 300753Z 16007KT 10SM SCT038 BKN100 12/07 A3022 RMK AO2 SLP240 T01220067 402330094=
202104300653 METAR KSEA 300653Z 19009KT 10SM FEW026 BKN140 12/07 A3022 RMK AO2 SLP240 T01220067=
202104300553 METAR KSEA 300553Z 20008KT 10SM SCT110 BKN250 13/06 A3022 RMK AO2 SLP239 T01280061 10233 20128 50015=
202104300453 METAR KSEA 300453Z 22014KT 10SM BKN250 14/01 A3022 RMK AO2 SLP240 T01390006=
202104300353 METAR KSEA 300353Z 21015KT 10SM BKN250 16/M02 A3020 RMK AO2 SLP231 T01561022=
202104300253 METAR KSEA 300253Z 20008KT 10SM FEW200 BKN250 17/M01 A3018 RMK AO2 SLP224 T01721011 53005=
202104300153 METAR KSEA 300153Z 23009KT 10SM FEW200 BKN250 19/03 A3017 RMK AO2 SLP222 T01940033=
202104300053 METAR KSEA 300053Z 25010KT 10SM BKN250 22/06 A3016 RMK AO2 SLP219 T02170056=
202104292353 METAR KSEA 292353Z 23007KT 10SM BKN250 23/08 A3016 RMK AO2 SLP219 T02280078 10233 20161 57012=
202104292253 METAR KSEA 292253Z 25008KT 10SM BKN250 23/08 A3017 RMK AO2 SLP222 T02280078=
202104292153 METAR KSEA 292153Z 21009KT 10SM BKN250 22/08 A3019 RMK AO2 SLP228 T02220083=
202104292053 METAR KSEA 292053Z VRB05KT 10SM BKN250 21/08 A3020 RMK AO2 SLP231 T02110083 58013=
202104291953 METAR KSEA 291953Z VRB04KT 10SM BKN220 21/09 A3021 RMK AO2 SLP235 T02060094=
202104291853 METAR KSEA 291853Z 25006KT 10SM BKN220 18/09 A3023 RMK AO2 SLP242 T01830094=
202104291753 METAR KSEA 291753Z 00000KT 10SM FEW150 BKN250 16/09 A3024 RMK AO2 SLP244 T01610094 10167 20094 58002=
202104291653 METAR KSEA 291653Z 00000KT 10SM FEW150 BKN250 15/09 A3024 RMK AO2 SLP246 T01500089=
202104291553 METAR KSEA 291553Z 00000KT 10SM FEW150 OVC250 14/09 A3024 RMK AO2 SLP245 T01390089=
202104291453 METAR KSEA 291453Z 00000KT 10SM FEW150 OVC200 12/09 A3024 RMK AO2 SLP247 T01170089 55006=
202104291353 METAR KSEA 291353Z VRB03KT 10SM OVC200 11/08 A3024 RMK AO2 SLP245 T01110083=
202104291253 METAR KSEA 291253Z 01003KT 10SM BKN200 10/07 A3025 RMK AO2 SLP250 T01000072=
202104291153 METAR KSEA 291153Z 31004KT 10SM BKN180 10/07 A3026 RMK AO2 SLP253 T01000072 10122 20100 56006=
202104291053 METAR KSEA 291053Z 36006KT 10SM BKN170 10/07 A3026 RMK AO2 SLP254 T01000067=
202104290953 METAR KSEA 290953Z 36007KT 10SM OVC170 11/07 A3027 RMK AO2 SLP254 T01110072=
202104290853 METAR KSEA 290853Z 33007KT 10SM OVC180 11/08 A3028 RMK AO2 SLP259 T01110078 55001=
202104290753 METAR KSEA 290753Z 36005KT 10SM OVC190 12/07 A3027 RMK AO2 SLP257 T01170072 401780083=
202104290653 METAR KSEA 290653Z 35005KT 10SM OVC200 12/07 A3028 RMK AO2 SLP260 T01220072=
202104290553 METAR KSEA 290553Z 35005KT 10SM OVC180 12/07 A3028 RMK AO2 SLP260 T01220072 10178 20122 51008=
202104290453 METAR KSEA 290453Z 34006KT 10SM OVC180 13/07 A3028 RMK AO2 SLP259 T01330072=
202104290353 METAR KSEA 290353Z 35006KT 10SM OVC150 14/07 A3027 RMK AO2 SLP256 T01440067=
202104290253 METAR KSEA 290253Z 36007KT 10SM FEW120 BKN150 OVC200 16/07 A3026 RMK AO2 SLP252 T01560067 56010=
202104290153 METAR KSEA 290153Z 01007KT 10SM FEW120 BKN150 OVC250 17/06 A3026 RMK AO2 SLP254 T01720056=
202104290053 METAR KSEA 290053Z VRB03KT 10SM FEW120 BKN150 OVC250 18/03 A3027 RMK AO2 SLP257 T01780028=
202104282353 METAR KSEA 282353Z 31003KT 10SM FEW120 SCT160 OVC250 18/04 A3029 RMK AO2 SLP263 T01780044 10178 20139 50000=
202104282253 METAR KSEA 282253Z 26005KT 10SM SCT160 OVC250 17/05 A3029 RMK AO2 SLP264 T01720050=
202104282153 METAR KSEA 282153Z 22004KT 10SM BKN160 OVC250 17/05 A3029 RMK AO2 SLP264 T01720050=
202104282053 METAR KSEA 282053Z 00000KT 10SM BKN150 BKN250 16/05 A3029 RMK AO2 SLP263 T01610050 58005=
202104281953 METAR KSEA 281953Z 00000KT 10SM BKN160 BKN250 16/05 A3029 RMK AO2 SLP264 T01560050=
202104281853 METAR KSEA 281853Z 00000KT 10SM FEW025 BKN150 BKN250 15/06 A3030 RMK AO2 SLP267 T01500056=
202104281753 METAR KSEA 281753Z 28007KT 10SM FEW020 BKN140 BKN250 14/08 A3030 RMK AO2 SLP268 T01440078 10144 20083 51001=
202104281653 METAR KSEA 281653Z 17004KT 10SM FEW020 BKN160 BKN250 13/07 A3030 RMK AO2 SLP267 T01280067=
202104281553 METAR KSEA 281553Z 19005KT 10SM SCT100 BKN250 12/07 A3031 RMK AO2 SLP272 T01170067=
202104281453 METAR KSEA 281453Z 14006KT 10SM SCT100 BKN250 09/06 A3030 RMK AO2 SLP266 T00940061 51008=
202104281353 METAR KSEA 281353Z 12005KT 10SM SCT100 BKN250 09/06 A3029 RMK AO2 SLP263 T00890061=
202104281253 METAR KSEA 281253Z 16005KT 10SM BKN100 OVC200 09/07 A3029 RMK AO2 SLP262 T00940067=
202104281153 METAR KSEA 281153Z 00000KT 10SM BKN110 08/06 A3027 RMK AO2 SLP258 T00830061 10122 20083 53004=
202104281053 METAR KSEA 281053Z 00000KT 10SM FEW090 SCT250 10/06 A3027 RMK AO2 SLP256 T01000061=
202104280953 METAR KSEA 280953Z 00000KT 10SM BKN090 10/06 A3026 RMK AO2 SLP253 T01000061=
202104280853 METAR KSEA 280853Z 25003KT 10SM BKN080 10/07 A3026 RMK AO2 SLP254 T01000067 51007=
202104280753 METAR KSEA 280753Z 18004KT 10SM SCT085 BKN100 11/07 A3026 RMK AO2 SLP252 T01060067 401610072=
202104280653 METAR KSEA 280653Z 00000KT 10SM BKN090 11/07 A3025 RMK AO2 SLP250 T01060067=
202104280553 METAR KSEA 280553Z 22004KT 10SM SCT100 BKN120 12/06 A3024 RMK AO2 SLP247 T01220061 10156 20122 51017=
202104280453 METAR KSEA 280453Z 27003KT 10SM BKN100 BKN200 12/06 A3023 RMK AO2 SLP244 T01220056=
202104280353 METAR KSEA 280353Z 24004KT 10SM BKN110 BKN250 13/04 A3021 RMK AO2 SLP237 T01330044=
202104280253 METAR KSEA 280253Z 27003KT 10SM FEW040 BKN120 BKN250 14/04 A3019 RMK AO2 SLP230 T01390044 53004=
202104280153 METAR KSEA 280153Z 25005KT 10SM FEW040 SCT170 OVC250 14/04 A3017 RMK AO2 SLP224 T01440044=
202104280053 METAR KSEA 280053Z 24009KT 10SM FEW030 SCT170 OVC250 15/04 A3018 RMK AO2 SLP226 T01500039=
202104272353 METAR KSEA 272353Z 22009KT 10SM FEW030 BKN250 16/04 A3018 RMK AO2 SLP226 T01560044 10161 20111 58002=
202104272253 METAR KSEA 272253Z 22009KT 10SM FEW030 BKN250 16/06 A3018 RMK AO2 SLP226 T01560056=
202104272153 METAR KSEA 272153Z 23008KT 10SM SCT030 BKN250 15/07 A3019 RMK AO2 SLP228 T01500067=
202104272053 METAR KSEA 272053Z 23008KT 200V280 10SM SCT028 OVC250 14/06 A3018 RMK AO2 SLP227 T01440061 53005=
202104271953 METAR KSEA 271953Z 21007KT 190V250 10SM SCT027 BKN250 14/06 A3017 RMK AO2 SLP223 T01390061=
202104271927 SPECI KSEA 271927Z 24007KT 10SM SCT025 13/06 A3017 RMK AO2 T01330056=
202104271853 METAR KSEA 271853Z 18008KT 10SM BKN024 BKN250 13/06 A3017 RMK AO2 SLP223 T01280061=
202104271753 METAR KSEA 271753Z 21009KT 10SM BKN022 OVC030 11/06 A3017 RMK AO2 SLP223 T01110061 10111 20072 52005=
202104271653 METAR KSEA 271653Z 22007KT 10SM FEW012 OVC022 11/07 A3016 RMK AO2 SLP220 T01110067=
202104271553 METAR KSEA 271553Z 19006KT 10SM SCT012 OVC021 09/06 A3016 RMK AO2 SLP219 T00940061=
202104271453 METAR KSEA 271453Z 18005KT 10SM FEW011 BKN018 BKN250 09/06 A3015 RMK AO2 SLP217 T00890061 53019=
202104271428 SPECI KSEA 271428Z 17005KT 10SM BKN021 OVC250 09/06 A3015 RMK AO2 T00890061=
202104271353 METAR KSEA 271353Z 16007KT 10SM FEW020 BKN250 08/06 A3012 RMK AO2 SLP207 T00830061=
202104271253 METAR KSEA 271253Z 18006KT 10SM FEW060 SCT250 08/06 A3011 RMK AO2 SLP204 T00780056=
202104271153 METAR KSEA 271153Z 21005KT 10SM FEW065 SCT250 08/06 A3010 RMK AO2 SLP198 T00830056 10106 20078 53006=
202104271053 METAR KSEA 271053Z 21006KT 10SM FEW065 SCT250 08/06 A3008 RMK AO2 SLP192 T00830056=
202104270953 METAR KSEA 270953Z 20007KT 10SM OVC070 09/06 A3007 RMK AO2 SLP188 T00940061=
202104270853 METAR KSEA 270853Z 24004KT 10SM OVC065 10/06 A3008 RMK AO2 SLP191 T01000061 51020=
202104270753 METAR KSEA 270753Z 21005KT 10SM OVC070 10/06 A3006 RMK AO2 SLP184 T01000061 401610072=
202104270653 METAR KSEA 270653Z 24003KT 10SM BKN070 10/06 A3004 RMK AO2 SLP180 T01000061=
202104270553 METAR KSEA 270553Z 24004KT 10SM SCT070 10/06 A3002 RMK AO2 SLP171 T01000061 10161 20100 51015=
202104270453 METAR KSEA 270453Z 28003KT 10SM SCT070 12/05 A3001 RMK AO2 SLP169 T01170050=
202104270353 METAR KSEA 270353Z 29003KT 10SM FEW045 SCT070 12/04 A2999 RMK AO2 SLP160 T01220044=
202104270253 METAR KSEA 270253Z 29004KT 10SM FEW045 SCT070 13/04 A2997 RMK AO2 SLP156 T01330044 51014=
202104270153 METAR KSEA 270153Z 31006KT 10SM FEW045 SCT070 14/04 A2997 RMK AO2 SLP153 T01390044=
202104270053 METAR KSEA 270053Z 26007KT 10SM FEW045 SCT070 16/03 A2995 RMK AO2 SLP147 T01560028=
202104262353 METAR KSEA 262353Z 25009KT 10SM FEW042 SCT065 16/03 A2993 RMK AO2 SLP142 T01560033 10161 20111 50002=
202104262253 METAR KSEA 262253Z VRB05KT 10SM FEW042 SCT065 16/03 A2993 RMK AO2 SLP142 T01560033=
202104262153 METAR KSEA 262153Z VRB04KT 10SM SCT041 SCT065 16/04 A2993 RMK AO2 SLP141 T01560044=
202104262053 METAR KSEA 262053Z 26006KT 10SM SCT034 SCT060 14/04 A2993 RMK AO2 SLP140 SHRA W T01440039 51004=
202104261953 METAR KSEA 261953Z 25007KT 230V300 10SM SCT030 SCT060 14/05 A2992 RMK AO2 SLP139 T01440050=
202104261853 METAR KSEA 261853Z 23007KT 10SM SCT025 13/04 A2992 RMK AO2 SLP138 T01280039=
202104261753 METAR KSEA 261753Z 22008KT 10SM SCT020 12/06 A2991 RMK AO2 SLP135 T01170056 10122 20072 51012=
202104261653 METAR KSEA 261653Z 25006KT 10SM SCT017 11/05 A2991 RMK AO2 SLP133 SCT V BKN T01060050=
202104261646 SPECI KSEA 261646Z 23005KT 10SM SCT017 11/06 A2991 RMK AO2 SCT V BKN T01060061=
202104261553 METAR KSEA 261553Z 21009KT 10SM BKN016 10/06 A2989 RMK AO2 SLP130 T01000056=
202104261453 METAR KSEA 261453Z 18005KT 10SM FEW009 FEW050 09/06 A2988 RMK AO2 SLP125 T00940056 53017=
202104261353 METAR KSEA 261353Z 17005KT 10SM FEW008 FEW050 FEW250 08/06 A2986 RMK AO2 SLP119 T00780056=
202104261253 METAR KSEA 261253Z 21007KT 10SM FEW007 SCT050 07/05 A2984 RMK AO2 SLP112 T00720050=
202104261153 METAR KSEA 261153Z 20007KT 10SM FEW016 SCT050 08/05 A2983 RMK AO2 SLP107 70002 T00780050 10100 20078 53011=
202104261053 METAR KSEA 261053Z 21008KT 10SM FEW010 BKN060 BKN080 08/06 A2982 RMK AO2 SLP103 T00830056=
202104260953 METAR KSEA 260953Z 20010KT 10SM FEW011 BKN060 09/06 A2980 RMK AO2 SLP097 T00890061=
202104260853 METAR KSEA 260853Z 20006KT 10SM FEW011 SCT060 BKN080 09/07 A2980 RMK AO2 SLP096 T00890067 51008=
202104260753 METAR KSEA 260753Z 22005KT 10SM FEW015 BKN055 09/07 A2979 RMK AO2 SLP094 T00940067 401560083=
202104260708 SPECI KSEA 260708Z 21006KT 10SM SCT016 OVC055 09/07 A2978 RMK AO2 T00940072=
202104260700 SPECI KSEA 260700Z 21006KT 10SM BKN016 OVC055 10/07 A2978 RMK AO2 T01000072=
202104260653 METAR KSEA 260653Z 21006KT 10SM SCT016 BKN055 10/08 A2978 RMK AO2 SLP090 T01000078=
202104260623 SPECI KSEA 260623Z 17006KT 10SM FEW020 FEW026 OVC055 10/08 A2978 RMK AO2 T01000078=
202104260553 METAR KSEA 260553Z 16006KT 10SM FEW010 BKN020 OVC028 10/08 A2977 RMK AO2 SLP089 T01000078 10144 20100 51015=
202104260500 SPECI KSEA 260500Z 18006KT 10SM BKN026 OVC060 11/07 A2977 RMK AO2 T01110067=
202104260453 METAR KSEA 260453Z 19005KT 10SM BKN030 OVC060 11/07 A2976 RMK AO2 SLP085 T01110067=
202104260353 METAR KSEA 260353Z 15007KT 10SM FEW026 BKN033 BKN048 11/07 A2975 RMK AO2 SLP081 T01060067=
202104260253 METAR KSEA 260253Z 20008KT 10SM FEW025 SCT050 BKN090 12/06 A2973 RMK AO2 SLP074 SHRA W-N T01170061 53005=
202104260153 METAR KSEA 260153Z 24007KT 10SM FEW035 BKN075 BKN250 13/04 A2972 RMK AO2 SLP069 T01330044=
202104260053 METAR KSEA 260053Z 22006KT 10SM FEW025 FEW055 SCT090 BKN250 14/04 A2972 RMK AO2 SLP070 T01390039=
202104252353 METAR KSEA 252353Z 27009KT 10SM FEW025 SCT055 BKN090 14/05 A2971 RMK AO2 SLP067 T01440050 10156 20111 55004=
202104252253 METAR KSEA 252253Z 24013KT 10SM FEW025 SCT050 BKN090 16/05 A2971 RMK AO2 SLP067 T01560050=
202104252153 METAR KSEA 252153Z 24010KT 10SM FEW030 SCT050 BKN085 15/04 A2972 RMK AO2 SLP070 T01500044=
202104252053 METAR KSEA 252053Z 20006KT 10SM FEW027 SCT060 BKN100 14/06 A2972 RMK AO2 SLP071 T01390056 58008=
202104251953 METAR KSEA 251953Z 20011KT 10SM SCT025 BKN065 OVC090 13/05 A2973 RMK AO2 SLP075 T01280050=
202104251853 METAR KSEA 251853Z 21010KT 10SM SCT024 BKN060 OVC095 12/06 A2974 RMK AO2 SLP079 T01170061=
202104251753 METAR KSEA 251753Z 20008KT 10SM FEW010 BKN034 OVC070 11/06 A2975 RMK AO2 SLP080 60002 T01110061 10111 20083 53001=
202104251653 METAR KSEA 251653Z 21009KT 10SM FEW010 OVC032 11/07 A2974 RMK AO2 SLP079 T01060067=
202104251553 METAR KSEA 251553Z 18007KT 10SM FEW010 BKN033 OVC041 09/07 A2974 RMK AO2 SLP079 T00890067=
202104251453 METAR KSEA 251453Z 18006KT 10SM BKN026 OVC036 08/07 A2974 RMK AO2 RAB1355E15 SLP079 P0002 60002 T00830067 53008=
202104251353 METAR KSEA 251353Z 21006KT 9SM BKN028 OVC036 08/06 A2973 RMK AO2 RAB21E39 SLP076 P0000 T00830061=
202104251253 METAR KSEA 251253Z 19007KT 10SM OVC044 08/06 A2972 RMK AO2 SLP071 T00830056=
202104251153 METAR KSEA 251153Z 19007KT 10SM FEW014 OVC043 09/06 A2972 RMK AO2 SLP071 60014 70052 T00890061 10089 20083 51002=
202104251100 SPECI KSEA 251100Z 20011KT 10SM FEW014 SCT036 OVC046 09/07 A2972 RMK AO2 T00890067=
202104251053 METAR KSEA 251053Z 20009KT 10SM FEW014 BKN021 OVC048 09/07 A2972 RMK AO2 RAE0958 SLP071 P0000 T00890067=
202104250953 METAR KSEA 250953Z 21008KT 7SM -RA FEW007 BKN024 OVC036 09/07 A2972 RMK AO2 SLP071 P0002 T00890072=
202104250853 METAR KSEA 250853Z 13009KT 5SM -RA BR FEW006 SCT015 OVC021 08/07 A2971 RMK AO2 SLP069 P0006 60012 T00830072 55003=
202104250827 SPECI KSEA 250827Z 13006KT 5SM -RA BR FEW015 BKN025 OVC031 08/07 A2971 RMK AO2 P0003 T00830067=
202104250753 METAR KSEA 250753Z 09006KT 5SM -RA BR OVC038 08/07 A2971 RMK AO2 RAB27 SLP068 P0003 T00830067 401000083=
202104250653 METAR KSEA 250653Z 08006KT 7SM FEW013 SCT041 OVC048 09/07 A2972 RMK AO2 RAE49 SLP070 P0003 T00890072=
202104250553 METAR KSEA 250553Z 13005KT 7SM -RA SCT013 OVC048 09/07 A2972 RMK AO2 SLP072 P0002 60006 T00890072 10100 20089 53001=
202104250453 METAR KSEA 250453Z 13006KT 10SM -RA SCT015 BKN075 OVC095 09/07 A2972 RMK AO2 RAB53 SLP072 P0000 T00890072=
202104250442 SPECI KSEA 250442Z 11005KT 10SM SCT015 BKN075 OVC095 09/07 A2972 RMK AO2 T00890072=
202104250353 METAR KSEA 250353Z 13005KT 10SM SCT010 BKN015 OVC050 09/08 A2972 RMK AO2 RAB02E44 SLP071 P0001 T00940078=
202104250336 SPECI KSEA 250336Z 13005KT 10SM -RA SCT011 BKN020 OVC050 09/07 A2972 RMK AO2 RAB02 P0001 T00940072=
202104250305 SPECI KSEA 250305Z 14005KT 10SM -RA BKN009 OVC065 09/08 A2972 RMK AO2 RAB02 P0000 T00940078=
202104250253 METAR KSEA 250253Z 16005KT 10SM FEW007 BKN011 OVC070 09/08 A2972 RMK AO2 SLP071 60003 T00940078 58012=
202104250249 SPECI KSEA 250249Z 14004KT 10SM FEW007 BKN011 OVC070 09/08 A2972 RMK AO2=
202104250153 METAR KSEA 250153Z 17006KT 10SM SCT011 OVC065 09/08 A2973 RMK AO2 RAE21 SLP075 P0001 T00940078=
202104250053 METAR KSEA 250053Z 17008KT 9SM -RA SCT012 BKN018 OVC055 09/07 A2974 RMK AO2 SLP079 P0002 T00940072=
202104242353 METAR KSEA 242353Z 19008KT 10SM -RA FEW013 BKN030 OVC050 09/07 A2976 RMK AO2 SLP083 P0001 60012 T00940072 10094 20083 58008=
202104242314 SPECI KSEA 242314Z 19008KT 10SM -RA BKN010 BKN017 OVC050 09/08 A2976 RMK AO2 P0000 T00940078=
202104242307 SPECI KSEA 242307Z 18008KT 10SM -RA FEW009 BKN042 OVC055 09/08 A2976 RMK AO2 P0000 T00940078=
202104242300 SPECI KSEA 242300Z 18009KT 9SM -RA SCT011 BKN016 OVC060 09/08 A2976 RMK AO2 P0000 T00940078=
202104242253 METAR KSEA 242253Z 18011KT 9SM -RA FEW012 BKN045 OVC060 09/07 A2976 RMK AO2 SLP085 P0003 T00940072=
202104242153 METAR KSEA 242153Z 21012KT 7SM -RA FEW009 BKN050 OVC055 09/08 A2978 RMK AO2 SLP090 P0003 T00890078=
202104242053 METAR KSEA 242053Z 22009KT 8SM -RA FEW008 BKN042 OVC050 09/07 A2978 RMK AO2 SLP091 P0002 60005 T00890067 58006=
202104242006 SPECI KSEA 242006Z 21011G17KT 9SM -RA SCT008 BKN014 OVC027 09/07 A2978 RMK AO2 P0000 T00890072=
202104241953 METAR KSEA 241953Z 21011G17KT 10SM -RA SCT010 BKN027 OVC038 09/08 A2978 RMK AO2 SLP093 P0002 T00940078=
202104241853 METAR KSEA 241853Z 20008KT 10SM -RA SCT008 BKN012 OVC029 09/07 A2980 RMK AO2 SLP096 P0001 T00940072=
202104241753 METAR KSEA 241753Z 23006KT 7SM -RA SCT008 BKN018 OVC023 08/07 A2980 RMK AO2 SLP097 P0004 60020 T00830072 10089 20083 55002=
202104241653 METAR KSEA 241653Z 24006KT 7SM -RA BKN007 BKN015 OVC031 08/07 A2980 RMK AO2 SLP097 P0004 T00830067=
202104241553 METAR KSEA 241553Z 21007KT 7SM -RA SCT007 BKN027 OVC045 08/07 A2980 RMK AO2 SLP099 P0002 T00830072=
202104241517 SPECI KSEA 241517Z 22006KT 7SM -RA SCT007 BKN030 OVC048 08/07 A2980 RMK AO2 P0001 T00830067=
202104241455 SPECI KSEA 241455Z 21008KT 7SM -RA SCT007 BKN013 OVC048 08/07 A2980 RMK AO2 P0000 T00830072=
202104241453 METAR KSEA 241453Z 21007KT 6SM -RA BR SCT007 BKN030 OVC048 08/07 A2980 RMK AO2 RAE1354B14 SLP100 P0003 60010 T00830072 56005=
202104241353 METAR KSEA 241353Z 22005KT 7SM -RA SCT025 BKN030 OVC038 08/08 A2980 RMK AO2 SLP099 P0004 T00830078=
202104241253 METAR KSEA 241253Z 16006KT 6SM -RA BR BKN006 BKN010 OVC013 08/07 A2980 RMK AO2 SLP099 P0003 T00830072=
202104241237 SPECI KSEA 241237Z 17005KT 6SM -RA BR BKN006 BKN010 OVC015 08/08 A2981 RMK AO2 P0002 T00830078=
202104241216 SPECI KSEA 241216Z 18007KT 7SM -RA SCT006 BKN011 OVC046 08/08 A2981 RMK AO2 P0000 T00830078=
202104241153 METAR KSEA 241153Z 17006KT 8SM -RA FEW006 SCT011 OVC048 08/07 A2982 RMK AO2 SLP104 P0002 60011 70011 T00830072 10100 20083 56008=
202104241150 SPECI KSEA 241150Z 17006KT 8SM -RA FEW006 SCT011 OVC048 08/07 A2982 RMK AO2 P0002=
202104241053 METAR KSEA 241053Z 17005KT 7SM -RA FEW038 BKN047 OVC060 08/07 A2983 RMK AO2 SLP107 P0002 T00830072=
202104240953 METAR KSEA 240953Z 21007KT 8SM -RA FEW025 BKN050 OVC060 09/07 A2984 RMK AO2 SLP112 P0002 T00890072=
202104240943 SPECI KSEA 240943Z 20006KT 7SM -RA SCT027 OVC050 09/07 A2985 RMK AO2 P0002 T00890072=
202104240853 METAR KSEA 240853Z 21008KT 8SM -RA BKN023 BKN028 OVC055 09/07 A2986 RMK AO2 SLP116 P0001 60005 T00890072 58009=
202104240753 METAR KSEA 240753Z 22007KT 8SM -RA FEW013 OVC023 09/07 A2988 RMK AO2 SLP123 P0002 T00890072 401610072=
202104240653 METAR KSEA 240653Z 21008KT 8SM -RA BKN022 OVC055 09/07 A2988 RMK AO2 SLP125 P0002 T00940072=
202104240605 SPECI KSEA 240605Z 21008KT 7SM -RA BKN023 BKN035 OVC060 09/07 A2988 RMK AO2 P0001 T00940067=
202104240553 METAR KSEA 240553Z 22007KT 8SM -RA SCT025 SCT035 OVC070 10/07 A2988 RMK AO2 RAB50 SLP126 P0000 60000 T01000067 10161 20100 52003=
202104240453 METAR KSEA 240453Z 22012KT 10SM FEW055 SCT075 OVC090 11/06 A2988 RMK AO2 SLP124 T01060056=
202104240353 METAR KSEA 240353Z 20008KT 10SM OVC100 11/06 A2988 RMK AO2 SLP125 T01110056=
202104240253 METAR KSEA 240253Z 24007KT 10SM BKN100 OVC200 11/06 A2988 RMK AO2 SLP124 T01110056 56003=
202104240153 METAR KSEA 240153Z 25010KT 10SM BKN120 BKN200 13/06 A2988 RMK AO2 SLP124 T01280056=
202104240053 METAR KSEA 240053Z 26008KT 10SM FEW120 SCT160 BKN250 15/06 A2987 RMK AO2 SLP122 T01500056=
202104232353 METAR KSEA 232353Z 24008KT 10SM FEW140 OVC250 16/06 A2988 RMK AO2 SLP125 T01610056 10161 20117 58015=
202104232253 METAR KSEA 232253Z 23008KT 10SM FEW150 OVC250 15/05 A2990 RMK AO2 SLP130 T01500050=
202104232153 METAR KSEA 232153Z 22010KT 10SM FEW150 OVC250 16/06 A2992 RMK AO2 SLP136 T01610056=
202104232053 METAR KSEA 232053Z 22006KT 10SM FEW030 FEW150 OVC250 14/06 A2993 RMK AO2 SLP141 T01440056 56020=
202104231953 METAR KSEA 231953Z 19008KT 10SM FEW030 BKN250 14/05 A2994 RMK AO2 SLP145 T01390050=
202104231853 METAR KSEA 231853Z 24008KT 10SM FEW025 BKN250 13/05 A2997 RMK AO2 SLP154 T01280050=
202104231753 METAR KSEA 231753Z 20012KT 10SM SCT024 BKN250 12/04 A2999 RMK AO2 SLP161 T01170044 10117 20072 58003=
202104231653 METAR KSEA 231653Z 19009KT 10SM FEW032 SCT250 11/05 A3000 RMK AO2 SLP164 T01110050=
202104231553 METAR KSEA 231553Z 20009KT 10SM SCT030 BKN180 BKN250 09/05 A2999 RMK AO2 SLP163 T00940050=
202104231539 SPECI KSEA 231539Z 21010KT 10SM SCT030 BKN180 BKN250 09/05 A3000 RMK AO2 T00940050=
202104231453 METAR KSEA 231453Z 16007KT 10SM BKN027 OVC180 08/05 A3000 RMK AO2 SLP164 T00830050 53006=
202104231353 METAR KSEA 231353Z 17005KT 10SM FEW030 BKN180 OVC250 07/05 A2998 RMK AO2 SLP157 T00720050=
202104231253 METAR KSEA 231253Z 17005KT 10SM FEW030 BKN200 07/04 A2998 RMK AO2 SLP157 T00720044=
202104231153 METAR KSEA 231153Z 20004KT 10SM FEW030 BKN200 08/04 A2998 RMK AO2 SLP157 T00780044 10111 20072 58002=
202104231053 METAR KSEA 231053Z 20006KT 10SM FEW030 BKN200 08/04 A2998 RMK AO2 SLP159 T00780044=
202104230953 METAR KSEA 230953Z 19007KT 10SM FEW050 08/04 A2998 RMK AO2 SLP159 T00780044=
202104230853 METAR KSEA 230853Z 19006KT 10SM CLR 08/05 A2998 RMK AO2 SLP159 T00830050 51008=
202104230753 METAR KSEA 230753Z 20007KT 10SM CLR 08/05 A2998 RMK AO2 SLP158 T00830050=
202104230653 METAR KSEA 230653Z 22005KT 10SM CLR 09/06 A2997 RMK AO2 SLP154 T00940056 401670083=
202104230553 METAR KSEA 230553Z 23008KT 10SM CLR 11/06 A2996 RMK AO2 SLP152 T01110061 10167 20111 51010=
202104230453 METAR KSEA 230453Z 23006KT 10SM CLR 12/06 A2995 RMK AO2 SLP149 T01220061=
202104230353 METAR KSEA 230353Z 21006KT 10SM CLR 13/06 A2994 RMK AO2 SLP146 T01280056=
202104230253 METAR KSEA 230253Z 20005KT 10SM FEW045 14/05 A2993 RMK AO2 SLP141 T01440050 56003=
202104230153 METAR KSEA 230153Z 22006KT 10SM FEW045 15/05 A2993 RMK AO2 SLP142 T01500050=
202104230053 METAR KSEA 230053Z 22007KT 10SM SCT045 16/05 A2993 RMK AO2 SLP142 T01560050=
202104222353 METAR KSEA 222353Z 23007KT 10SM SCT043 17/06 A2994 RMK AO2 SLP144 T01670056 10167 20111 58008=
202104222253 METAR KSEA 222253Z 23004KT 10SM SCT043 16/05 A2995 RMK AO2 SLP147 T01560050=
202104222153 METAR KSEA 222153Z VRB06KT 10SM SCT042 16/05 A2996 RMK AO2 SLP152 T01560050=
202104222053 METAR KSEA 222053Z 26008KT 10SM FEW023 SCT038 15/06 A2996 RMK AO2 SLP152 T01500056 55000=
202104221953 METAR KSEA 221953Z 24005KT 10SM SCT022 SCT037 14/07 A2996 RMK AO2 SLP151 T01390067=
202104221853 METAR KSEA 221853Z 21006KT 10SM SCT019 BKN032 12/07 A2997 RMK AO2 SLP153 T01220067=
202104221845 SPECI KSEA 221845Z 24006KT 10SM SCT019 BKN032 12/07 A2997 RMK AO2 T01220067=
202104221753 METAR KSEA 221753Z 20009KT 10SM BKN019 BKN026 12/07 A2996 RMK AO2 SLP153 T01170067 10117 20094 51006=
202104221653 METAR KSEA 221653Z 20006KT 10SM OVC021 10/07 A2996 RMK AO2 SLP151 T01000067=
202104221553 METAR KSEA 221553Z 22008KT 10SM OVC018 10/06 A2995 RMK AO2 SLP148 T01000061=
202104221453 METAR KSEA 221453Z 18009KT 10SM OVC016 10/06 A2994 RMK AO2 SLP145 T01000061 53008=
202104221353 METAR KSEA 221353Z 17006KT 10SM OVC015 09/06 A2994 RMK AO2 SLP142 T00940061=
202104221342 SPECI KSEA 221342Z 16007KT 10SM OVC015 09/06 A2993 RMK AO2 T00940056=
202104221253 METAR KSEA 221253Z 19006KT 10SM OVC013 09/06 A2992 RMK AO2 SLP137 T00940061=
202104221153 METAR KSEA 221153Z 19010KT 10SM OVC011 09/06 A2992 RMK AO2 SLP136 T00940061 10133 20083 53003=
202104221053 METAR KSEA 221053Z 20008KT 10SM OVC010 09/07 A2991 RMK AO2 SLP135 T00940067=
202104220953 METAR KSEA 220953Z 22008KT 10SM BKN010 09/07 A2991 RMK AO2 SLP133 T00890067=
202104220853 METAR KSEA 220853Z 20009KT 10SM SCT008 BKN200 09/07 A2991 RMK AO2 SLP133 T00940072 50002=
202104220826 SPECI KSEA 220826Z 21005KT 10SM SCT008 BKN200 09/07 A2991 RMK AO2 T00940072=
202104220753 METAR KSEA 220753Z 22005KT 10SM FEW200 10/08 A2991 RMK AO2 SLP134 T01000078=
202104220653 METAR KSEA 220653Z 21004KT 10SM FEW200 12/08 A2990 RMK AO2 SLP131 T01170078 402280089=
202104220553 METAR KSEA 220553Z 21005KT 10SM FEW200 13/06 A2990 RMK AO2 SLP130 T01330061 10228 20133 58002=
202104220453 METAR KSEA 220453Z 22006KT 10SM FEW200 14/06 A2991 RMK AO2 SLP132 T01440061=
202104220353 METAR KSEA 220353Z 32003KT 10SM FEW080 SCT200 16/06 A2991 RMK AO2 SLP132 T01610061=
202104220253 METAR KSEA 220253Z 36004KT 10SM SCT075 BKN200 19/03 A2991 RMK AO2 SLP133 T01890033 58020=
202104220153 METAR KSEA 220153Z 36006KT 10SM SCT075 BKN200 21/04 A2994 RMK AO2 SLP143 T02060039=
202104220053 METAR KSEA 220053Z 31007KT 10SM FEW060 BKN250 21/04 A2996 RMK AO2 SLP149 T02110044=
202104212353 METAR KSEA 212353Z 31006KT 10SM FEW060 BKN250 23/03 A2997 RMK AO2 SLP153 T02280033 10228 20156 58022=
202104212253 METAR KSEA 212253Z 29009KT 10SM FEW060 SCT250 22/05 A2999 RMK AO2 SLP160 T02170050=
202104212153 METAR KSEA 212153Z 31009KT 10SM FEW060 SCT250 22/04 A3002 RMK AO2 SLP170 T02170044=
202104212053 METAR KSEA 212053Z VRB05KT 10SM FEW060 FEW120 SCT250 20/04 A3003 RMK AO2 SLP175 T02000044 56020=
202104211953 METAR KSEA 211953Z VRB04KT 10SM FEW060 FEW250 18/06 A3005 RMK AO2 SLP181 T01830061=
202104211853 METAR KSEA 211853Z VRB03KT 10SM FEW250 18/06 A3007 RMK AO2 SLP188 T01780061=
202104211753 METAR KSEA 211753Z 26007KT 10SM FEW250 16/07 A3009 RMK AO2 SLP195 T01560067 10161 20089 58009=
202104211653 METAR KSEA 211653Z VRB03KT 10SM FEW250 14/07 A3011 RMK AO2 SLP200 T01440072=
202104211553 METAR KSEA 211553Z 00000KT 10SM FEW250 13/07 A3012 RMK AO2 SLP206 T01280067=
202104211453 METAR KSEA 211453Z 16004KT 10SM FEW250 11/05 A3012 RMK AO2 SLP205 T01110050 53007=
202104211353 METAR KSEA 211353Z 16003KT 10SM FEW250 09/03 A3011 RMK AO2 SLP201 T00940033=
202104211253 METAR KSEA 211253Z 15003KT 10SM FEW250 09/03 A3010 RMK AO2 SLP199 T00940033=
202104211153 METAR KSEA 211153Z 00000KT 10SM FEW250 10/03 A3010 RMK AO2 SLP198 T01000028 10144 20100 55001=
202104211053 METAR KSEA 211053Z 13003KT 10SM CLR 11/03 A3010 RMK AO2 SLP197 T01110033=
202104210953 METAR KSEA 210953Z 18003KT 10SM CLR 11/03 A3010 RMK AO2 SLP198 T01110033=
202104210853 METAR KSEA 210853Z 00000KT 10SM CLR 12/04 A3010 RMK AO2 SLP198 T01220039 50000=
202104210753 METAR KSEA 210753Z 05008KT 10SM CLR 14/03 A3010 RMK AO2 SLP198 T01440033=
202104210653 METAR KSEA 210653Z 03005KT 10SM CLR 14/03 A3010 RMK AO2 SLP199 T01440028 402220089=
202104210553 METAR KSEA 210553Z 01006KT 10SM CLR 14/02 A3010 RMK AO2 SLP198 T01390017 10222 20122 51004=
202104210453 METAR KSEA 210453Z 36008KT 10SM CLR 15/01 A3010 RMK AO2 SLP198 T01500011=
202104210353 METAR KSEA 210353Z 36007KT 10SM FEW050 16/00 A3009 RMK AO2 SLP196 T01610000=
202104210253 METAR KSEA 210253Z 35007KT 10SM FEW050 17/01 A3009 RMK AO2 SLP194 T01720006 56010=
202104210153 METAR KSEA 210153Z 35012KT 10SM FEW050 20/02 A3010 RMK AO2 SLP197 T02000017=
202104210053 METAR KSEA 210053Z 34013KT 10SM FEW050 21/01 A3010 RMK AO2 SLP199 T02110006=
202104202353 METAR KSEA 202353Z 35010KT 10SM FEW050 22/01 A3012 RMK AO2 SLP204 T02220011 10222 20167 58018=
202104202253 METAR KSEA 202253Z 31008KT 10SM FEW050 21/03 A3013 RMK AO2 SLP210 T02110033=
202104202153 METAR KSEA 202153Z 30010KT 10SM FEW050 21/04 A3016 RMK AO2 SLP217 T02110039=
202104202053 METAR KSEA 202053Z 28010KT 10SM FEW050 21/04 A3017 RMK AO2 SLP222 T02060044 58017=
202104201953 METAR KSEA 201953Z 29008KT 10SM FEW040 19/06 A3019 RMK AO2 SLP227 T01940056=
202104201853 METAR KSEA 201853Z 25004KT 10SM FEW040 17/07 A3021 RMK AO2 SLP235 T01720067=
202104201753 METAR KSEA 201753Z 26004KT 10SM FEW040 FEW100 17/07 A3022 RMK AO2 SLP239 T01670072 10167 20089 58002=
202104201653 METAR KSEA 201653Z 00000KT 10SM FEW100 16/06 A3023 RMK AO2 SLP241 T01560061=
202104201553 METAR KSEA 201553Z 00000KT 10SM FEW100 13/07 A3023 RMK AO2 SLP242 T01330067=
202104201453 METAR KSEA 201453Z 17005KT 10SM FEW100 11/06 A3022 RMK AO2 SLP240 T01110056 53006=
202104201353 METAR KSEA 201353Z 13005KT 10SM FEW100 10/04 A3021 RMK AO2 SLP237 T01000044=
202104201253 METAR KSEA 201253Z 07004KT 10SM SCT100 11/04 A3020 RMK AO2 SLP233 T01060039=
202104201153 METAR KSEA 201153Z 11004KT 10SM CLR 11/01 A3021 RMK AO2 SLP234 T01110006 10167 20106 53003=
202104201053 METAR KSEA 201053Z 09004KT 10SM CLR 12/M02 A3020 RMK AO2 SLP232 T01221017=
202104200953 METAR KSEA 200953Z 07005KT 10SM CLR 13/02 A3020 RMK AO2 SLP231 T01280022=
202104200853 METAR KSEA 200853Z 09006KT 10SM SCT095 14/M01 A3020 RMK AO2 SLP231 T01391011 53006=
202104200753 METAR KSEA 200753Z 08007KT 10SM SCT095 16/00 A3019 RMK AO2 SLP228 T01560000=
202104200653 METAR KSEA 200653Z 08008KT 10SM SCT095 17/01 A3018 RMK AO2 SLP225 T01670011 402220089=
202104200553 METAR KSEA 200553Z 03007KT 10SM SCT100 16/04 A3018 RMK AO2 SLP225 T01560044 10217 20144 51011=
202104200453 METAR KSEA 200453Z 35006KT 10SM BKN100 16/04 A3017 RMK AO2 SLP223 T01560044=
202104200353 METAR KSEA 200353Z 01004KT 10SM SCT095 BKN250 18/03 A3016 RMK AO2 SLP220 T01830033=
202104200253 METAR KSEA 200253Z 26003KT 10SM SCT090 BKN250 19/04 A3015 RMK AO2 SLP214 T01890039 56009=
202104200153 METAR KSEA 200153Z 26005KT 10SM SCT090 BKN250 20/04 A3015 RMK AO2 SLP216 T02000044=
202104200053 METAR KSEA 200053Z 25004KT 10SM FEW050 SCT150 BKN250 21/03 A3017 RMK AO2 SLP221 T02110028=
202104192353 METAR KSEA 192353Z 26006KT 10SM FEW050 BKN250 22/03 A3018 RMK AO2 SLP224 T02170033 10222 20161 56017=
202104192253 METAR KSEA 192253Z VRB04KT 10SM FEW040 SCT250 22/04 A3019 RMK AO2 SLP227 T02170039=
202104192153 METAR KSEA 192153Z 00000KT 10SM FEW040 SCT250 21/05 A3021 RMK AO2 SLP235 T02060050=
202104192053 METAR KSEA 192053Z 25005KT 10SM FEW040 SCT250 19/06 A3023 RMK AO2 SLP241 T01940056 58011=
202104191953 METAR KSEA 191953Z 25006KT 10SM FEW040 FEW250 18/05 A3024 RMK AO2 SLP247 T01780050=
202104191853 METAR KSEA 191853Z 27007KT 10SM FEW040 FEW250 17/06 A3025 RMK AO2 SLP250 T01670056=
202104191753 METAR KSEA 191753Z 00000KT 10SM FEW250 16/06 A3026 RMK AO2 SLP252 T01610056 10161 20089 51006=
202104191653 METAR KSEA 191653Z 25004KT 10SM FEW250 14/06 A3026 RMK AO2 SLP252 T01390056=
202104191553 METAR KSEA 191553Z 18004KT 10SM FEW250 12/07 A3025 RMK AO2 SLP250 T01220067=
202104191453 METAR KSEA 191453Z 20005KT 10SM FEW250 11/06 A3024 RMK AO2 SLP246 T01110061 52011=
202104191353 METAR KSEA 191353Z 19005KT 10SM SCT250 09/04 A3023 RMK AO2 SLP243 T00940044=
202104191253 METAR KSEA 191253Z 15005KT 10SM SCT250 09/03 A3022 RMK AO2 SLP238 T00890028=
202104191153 METAR KSEA 191153Z 00000KT 10SM CLR 10/03 A3021 RMK AO2 SLP234 T01000028 10150 20100 51010=
202104191053 METAR KSEA 191053Z 19003KT 10SM CLR 11/02 A3020 RMK AO2 SLP231 T01060022=
202104190953 METAR KSEA 190953Z 16004KT 10SM CLR 11/02 A3019 RMK AO2 SLP227 T01060022=
202104190853 METAR KSEA 190853Z 22003KT 10SM FEW095 12/02 A3018 RMK AO2 SLP223 T01220017 51018=
202104190753 METAR KSEA 190753Z 00000KT 10SM FEW095 14/01 A3016 RMK AO2 SLP218 T01390006=
202104190653 METAR KSEA 190653Z 17004KT 10SM CLR 13/01 A3015 RMK AO2 SLP214 T01330011 402610100=
202104190553 METAR KSEA 190553Z 20006KT 10SM CLR 15/01 A3012 RMK AO2 SLP206 T01500011 10261 20150 51018=
202104190453 METAR KSEA 190453Z 20007KT 10SM FEW200 16/02 A3012 RMK AO2 SLP204 T01610022=
202104190353 METAR KSEA 190353Z 24008KT 10SM FEW200 19/02 A3011 RMK AO2 SLP200 T01890022=
202104190253 METAR KSEA 190253Z 25009KT 10SM FEW200 21/01 A3007 RMK AO2 SLP189 T02110011 55004=
202104190153 METAR KSEA 190153Z 27011KT 10SM FEW200 23/01 A3006 RMK AO2 SLP186 T02280006=
202104190053 METAR KSEA 190053Z 23009KT 10SM FEW210 26/02 A3007 RMK AO2 SLP187 T02560022=
202104182353 METAR KSEA 182353Z 00000KT 10SM CLR 26/04 A3008 RMK AO2 SLP192 T02560039 10261 20189 58020=
202104182253 METAR KSEA 182253Z 28003KT 10SM CLR 25/04 A3010 RMK AO2 SLP198 T02500044=
202104182153 METAR KSEA 182153Z 25005KT 10SM CLR 25/03 A3013 RMK AO2 SLP206 T02500028=
202104182053 METAR KSEA 182053Z 23005KT 10SM FEW210 23/03 A3014 RMK AO2 SLP212 T02330028 58009=
202104181953 METAR KSEA 181953Z 25004KT 10SM FEW220 22/05 A3016 RMK AO2 SLP216 T02220050=
202104181853 METAR KSEA 181853Z VRB03KT 10SM FEW230 21/04 A3017 RMK AO2 SLP220 T02060044=
202104181753 METAR KSEA 181753Z 27005KT 10SM FEW220 19/05 A3017 RMK AO2 SLP221 T01940050 10194 20100 55001=
202104181653 METAR KSEA 181653Z 00000KT 10SM FEW170 17/04 A3017 RMK AO2 SLP220 T01720044=
202104181553 METAR KSEA 181553Z 00000KT 10SM FEW170 16/04 A3017 RMK AO2 SLP222 T01560039=
202104181453 METAR KSEA 181453Z 17004KT 10SM FEW200 13/04 A3017 RMK AO2 SLP222 T01330044 53003=
202104181353 METAR KSEA 181353Z 16004KT 10SM FEW200 11/03 A3017 RMK AO2 SLP220 T01110033=
202104181253 METAR KSEA 181253Z 15003KT 10SM CLR 11/03 A3017 RMK AO2 SLP221 T01110033=
202104181153 METAR KSEA 181153Z 14005KT 10SM CLR 12/03 A3017 RMK AO2 SLP219 T01170033 10178 20111 58000=
202104181053 METAR KSEA 181053Z 14004KT 10SM CLR 12/03 A3018 RMK AO2 SLP223 T01220033=
202104180953 METAR KSEA 180953Z 13005KT 10SM CLR 13/03 A3017 RMK AO2 SLP221 T01330033=
202104180853 METAR KSEA 180853Z 16003KT 10SM CLR 14/05 A3017 RMK AO2 SLP220 T01440050 53001=
202104180753 METAR KSEA 180753Z 17003KT 10SM CLR 14/06 A3017 RMK AO2 SLP220 T01440056=
202104180653 METAR KSEA 180653Z 07005KT 10SM CLR 17/05 A3016 RMK AO2 SLP218 T01670050 402670089=
202104180553 METAR KSEA 180553Z 01005KT 10SM CLR 17/05 A3017 RMK AO2 SLP219 T01720050 10267 20167 51008=
202104180453 METAR KSEA 180453Z 35004KT 10SM CLR 18/05 A3016 RMK AO2 SLP217 T01830050=
202104180353 METAR KSEA 180353Z 34005KT 10SM CLR 18/05 A3015 RMK AO2 SLP216 T01830050=
202104180253 METAR KSEA 180253Z 32006KT 10SM CLR 22/02 A3014 RMK AO2 SLP211 T02170022 56006=
202104180153 METAR KSEA 180153Z 35005KT 10SM CLR 25/03 A3014 RMK AO2 SLP210 T02500028=
202104180053 METAR KSEA 180053Z 35003KT 10SM CLR 27/01 A3015 RMK AO2 SLP215 T02670006=
202104172353 METAR KSEA 172353Z 01004KT 10SM CLR 26/00 A3016 RMK AO2 SLP217 T02610000 10267 20189 56015=
202104172253 METAR KSEA 172253Z 31007KT 10SM CLR 25/03 A3017 RMK AO2 SLP221 T02500033=
202104172153 METAR KSEA 172153Z 29007KT 10SM CLR 24/03 A3019 RMK AO2 SLP227 T02440033=
202104172053 METAR KSEA 172053Z 27004KT 10SM CLR 23/04 A3021 RMK AO2 SLP233 T02280039 58008=
202104171953 METAR KSEA 171953Z 28005KT 10SM CLR 21/06 A3021 RMK AO2 SLP235 T02110056=
202104171853 METAR KSEA 171853Z 27005KT 10SM CLR 20/05 A3022 RMK AO2 SLP239 T02000050=
202104171753 METAR KSEA 171753Z VRB03KT 10SM CLR 20/06 A3023 RMK AO2 SLP241 T02000061 10200 20089 51003=
202104171653 METAR KSEA 171653Z 00000KT 10SM CLR 18/04 A3023 RMK AO2 SLP241 T01780044=
202104171553 METAR KSEA 171553Z 28003KT 10SM CLR 15/04 A3023 RMK AO2 SLP241 T01500039=
202104171453 METAR KSEA 171453Z 00000KT 10SM CLR 14/04 A3022 RMK AO2 SLP238 T01390039 53009=
202104171353 METAR KSEA 171353Z 00000KT 10SM CLR 10/03 A3021 RMK AO2 SLP236 T01000033=
202104171253 METAR KSEA 171253Z 34004KT 10SM CLR 10/03 A3020 RMK AO2 SLP232 T01000033=
202104171153 METAR KSEA 171153Z 03004KT 10SM CLR 11/03 A3019 RMK AO2 SLP229 T01110033 10183 20106 53003=
202104171053 METAR KSEA 171053Z 02004KT 10SM CLR 11/03 A3019 RMK AO2 SLP227 T01110033=
202104170953 METAR KSEA 170953Z 07005KT 10SM CLR 13/04 A3018 RMK AO2 SLP224 T01280039=
202104170853 METAR KSEA 170853Z 04005KT 10SM CLR 14/05 A3018 RMK AO2 SLP226 T01390050 50006=
202104170753 METAR KSEA 170753Z 00000KT 10SM CLR 16/04 A3019 RMK AO2 SLP227 T01560044=
202104170653 METAR KSEA 170653Z 00000KT 10SM CLR 16/04 A3017 RMK AO2 SLP222 T01610044 402610083=
202104170553 METAR KSEA 170553Z 03012KT 10SM CLR 18/04 A3017 RMK AO2 SLP220 T01830039 10256 20172 50006=
202104170453 METAR KSEA 170453Z 02011KT 10SM CLR 19/03 A3017 RMK AO2 SLP221 T01940033=
202104170353 METAR KSEA 170353Z 02010KT 10SM CLR 19/03 A3016 RMK AO2 SLP219 T01940033=
202104170253 METAR KSEA 170253Z 02010KT 10SM CLR 21/02 A3015 RMK AO2 SLP215 T02110022 55001=
202104170153 METAR KSEA 170153Z 35012KT 10SM CLR 22/02 A3014 RMK AO2 SLP213 T02220017=
202104170053 METAR KSEA 170053Z 36014KT 10SM CLR 24/00 A3015 RMK AO2 SLP215 T02440000=
202104162353 METAR KSEA 162353Z 35010KT 10SM CLR 26/02 A3015 RMK AO2 SLP215 T02560022 10261 20200 56016=
202104162253 METAR KSEA 162253Z 34011KT 10SM CLR 26/04 A3016 RMK AO2 SLP219 T02610039=
202104162153 METAR KSEA 162153Z 33007KT 10SM CLR 26/03 A3018 RMK AO2 SLP225 T02560033=
202104162053 METAR KSEA 162053Z 01008KT 10SM CLR 25/03 A3020 RMK AO2 SLP231 T02500028 58010=
202104161953 METAR KSEA 161953Z 35009KT 10SM CLR 24/02 A3021 RMK AO2 SLP235 T02390022=
202104161853 METAR KSEA 161853Z 35009KT 10SM CLR 22/04 A3022 RMK AO2 SLP239 T02170044=
202104161753 METAR KSEA 161753Z 36007KT 10SM CLR 20/04 A3023 RMK AO2 SLP241 T02000044 10200 20083 50002=
202104161653 METAR KSEA 161653Z 01005KT 10SM CLR 17/05 A3023 RMK AO2 SLP243 T01720050=
202104161553 METAR KSEA 161553Z 02004KT 10SM CLR 16/04 A3023 RMK AO2 SLP242 T01560044=
202104161453 METAR KSEA 161453Z 04004KT 10SM CLR 13/04 A3022 RMK AO2 SLP240 T01280044 53015=
202104161353 METAR KSEA 161353Z 00000KT 10SM CLR 10/03 A3021 RMK AO2 SLP234 T01000028=
202104161253 METAR KSEA 161253Z 02004KT 10SM CLR 09/01 A3020 RMK AO2 SLP231 T00940006=
202104161153 METAR KSEA 161153Z 13003KT 10SM CLR 11/01 A3018 RMK AO2 SLP226 T01110011 10172 20106 53007=
202104161053 METAR KSEA 161053Z 00000KT 10SM CLR 12/01 A3017 RMK AO2 SLP222 T01220011=
202104160953 METAR KSEA 160953Z 00000KT 10SM CLR 12/02 A3016 RMK AO2 SLP219 T01170022=
202104160853 METAR KSEA 160853Z 12004KT 10SM CLR 14/02 A3016 RMK AO2 SLP218 T01440022 51013=
202104160753 METAR KSEA 160753Z 09003KT 10SM CLR 14/03 A3016 RMK AO2 SLP216 T01440028=
202104160653 METAR KSEA 160653Z 36005KT 10SM CLR 15/02 A3014 RMK AO2 SLP212 T01500017 402390061=
202104160553 METAR KSEA 160553Z 03005KT 10SM CLR 18/01 A3012 RMK AO2 SLP205 T01780011 10233 20178 51015=
202104160453 METAR KSEA 160453Z 03013KT 10SM CLR 19/01 A3011 RMK AO2 SLP202 T01890006=
202104160353 METAR KSEA 160353Z 03012KT 10SM CLR 19/01 A3010 RMK AO2 SLP197 T01890011=
202104160253 METAR KSEA 160253Z 36008KT 10SM CLR 19/01 A3008 RMK AO2 SLP191 T01940011 53003=
202104160153 METAR KSEA 160153Z 36011KT 10SM CLR 22/M01 A3007 RMK AO2 SLP188 T02171006=
202104160053 METAR KSEA 160053Z 34015KT 10SM CLR 23/M02 A3007 RMK AO2 SLP188 T02281017=
202104152353 METAR KSEA 152353Z 36015KT 10SM CLR 23/00 A3007 RMK AO2 SLP188 T02330000 10239 20172 58012=
202104152253 METAR KSEA 152253Z 35014KT 10SM CLR 24/00 A3008 RMK AO2 SLP191 T02390000=
202104152153 METAR KSEA 152153Z 32010KT 10SM CLR 23/03 A3009 RMK AO2 SLP196 T02280028=
202104152053 METAR KSEA 152053Z 34010KT 10SM CLR 22/02 A3010 RMK AO2 SLP199 T02220022 58011=
202104151953 METAR KSEA 151953Z 32008KT 10SM CLR 21/04 A3012 RMK AO2 SLP204 T02060039=
202104151853 METAR KSEA 151853Z 31005KT 10SM CLR 19/04 A3013 RMK AO2 SLP209 T01890039=
202104151753 METAR KSEA 151753Z 31007KT 10SM CLR 17/06 A3014 RMK AO2 SLP211 T01720056 10178 20061 51001=
202104151653 METAR KSEA 151653Z 36006KT 10SM CLR 17/03 A3014 RMK AO2 SLP210 T01670028=
202104151553 METAR KSEA 151553Z 36006KT 10SM CLR 13/03 A3014 RMK AO2 SLP212 T01330028=
202104151453 METAR KSEA 151453Z 01005KT 10SM CLR 10/03 A3013 RMK AO2 SLP211 T01000033 53013=
202104151353 METAR KSEA 151353Z 00000KT 10SM CLR 08/03 A3012 RMK AO2 SLP206 T00780028=
202104151253 METAR KSEA 151253Z 04005KT 10SM CLR 08/02 A3011 RMK AO2 SLP202 T00780017=
202104151153 METAR KSEA 151153Z 00000KT 10SM CLR 09/01 A3010 RMK AO2 SLP198 T00890011 10139 20083 53004=
202104151053 METAR KSEA 151053Z 12003KT 10SM CLR 09/01 A3009 RMK AO2 SLP196 T00890011=
202104150953 METAR KSEA 150953Z 00000KT 10SM CLR 10/01 A3009 RMK AO2 SLP194 T01000006=
202104150853 METAR KSEA 150853Z 00000KT 10SM CLR 10/01 A3008 RMK AO2 SLP194 T01000006 50002=
202104150753 METAR KSEA 150753Z 10004KT 10SM CLR 12/00 A3009 RMK AO2 SLP194 T01220000=
202104150653 METAR KSEA 150653Z 04005KT 10SM CLR 12/M02 A3008 RMK AO2 SLP193 T01171017 401940039=
202104150553 METAR KSEA 150553Z 00000KT 10SM CLR 14/M02 A3008 RMK AO2 SLP191 T01391022 10194 20122 51002=
202104150453 METAR KSEA 150453Z 02010KT 10SM CLR 15/M03 A3008 RMK AO2 SLP191 T01501028=
202104150353 METAR KSEA 150353Z 02012KT 10SM CLR 16/M03 A3008 RMK AO2 SLP193 T01561028=
202104150253 METAR KSEA 150253Z 02010KT 10SM CLR 17/M01 A3007 RMK AO2 SLP189 T01671011 55005=
202104150153 METAR KSEA 150153Z 35008KT 10SM CLR 18/M01 A3007 RMK AO2 SLP189 T01781011=
202104150053 METAR KSEA 150053Z 36008KT 10SM CLR 19/M01 A3008 RMK AO2 SLP191 T01941011=
202104142353 METAR KSEA 142353Z 01013KT 10SM CLR 19/M01 A3009 RMK AO2 SLP195 T01891011 10194 20139 56017=
202104142253 METAR KSEA 142253Z 36014KT 10SM CLR 19/M02 A3010 RMK AO2 SLP198 T01891022=
202104142153 METAR KSEA 142153Z 36011KT 10SM CLR 19/M02 A3012 RMK AO2 SLP206 T01891022=
202104142053 METAR KSEA 142053Z 34011KT 10SM CLR 18/M01 A3014 RMK AO2 SLP212 T01781011 56022=
202104141953 METAR KSEA 141953Z 35012G15KT 10SM CLR 17/01 A3015 RMK AO2 SLP218 T01670011=
202104141853 METAR KSEA 141853Z 01008KT 10SM CLR 16/02 A3018 RMK AO2 SLP227 T01560017=
202104141753 METAR KSEA 141753Z 02011KT 10SM CLR 14/01 A3020 RMK AO2 SLP234 T01390011 10139 20039 58009=
202104141653 METAR KSEA 141653Z 01011KT 10SM CLR 12/00 A3022 RMK AO2 SLP240 T01220000=
202104141553 METAR KSEA 141553Z 03008KT 10SM CLR 11/M01 A3022 RMK AO2 SLP241 T01061011=
202104141453 METAR KSEA 141453Z 02009KT 10SM CLR 09/M01 A3023 RMK AO2 SLP244 T00891011 53002=
202104141353 METAR KSEA 141353Z 01010KT 10SM CLR 06/00 A3023 RMK AO2 SLP243 T00610000=
202104141253 METAR KSEA 141253Z 02003KT 10SM CLR 05/M02 A3022 RMK AO2 SLP241 T00501022=
202104141153 METAR KSEA 141153Z 36005KT 10SM FEW250 06/M02 A3022 RMK AO2 SLP241 T00611017 10122 20061 53002=
202104141053 METAR KSEA 141053Z 25003KT 10SM CLR 08/M01 A3022 RMK AO2 SLP238 T00781011=
202104140953 METAR KSEA 140953Z 04012KT 10SM CLR 09/M01 A3022 RMK AO2 SLP239 T00891011=
202104140853 METAR KSEA 140853Z 02008KT 10SM CLR 10/M02 A3022 RMK AO2 SLP239 T01001017 56009=
202104140753 METAR KSEA 140753Z 02016KT 10SM CLR 11/M03 A3022 RMK AO2 SLP241 T01111028=
202104140653 METAR KSEA 140653Z 03016KT 10SM CLR 12/M03 A3024 RMK AO2 SLP245 T01171033 401780044=
202104140553 METAR KSEA 140553Z 04011KT 10SM CLR 12/M03 A3025 RMK AO2 SLP248 T01221033 10167 20117 50001=
202104140453 METAR KSEA 140453Z 03013KT 10SM CLR 12/M04 A3025 RMK AO2 SLP249 T01221044=
202104140353 METAR KSEA 140353Z 04010G21KT 10SM CLR 13/M04 A3025 RMK AO2 SLP249 T01281039=
202104140253 METAR KSEA 140253Z 01011KT 10SM CLR 13/M04 A3024 RMK AO2 SLP248 T01331044 55003=
202104140153 METAR KSEA 140153Z 36018G27KT 10SM CLR 15/M04 A3024 RMK AO2 PK WND 36027/0147 SLP247 T01501044=
202104140053 METAR KSEA 140053Z 35022KT 10SM CLR 16/M05 A3024 RMK AO2 PK WND 36029/0028 SLP248 T01611050=
202104132353 METAR KSEA 132353Z 34019G28KT 10SM CLR 16/M06 A3025 RMK AO2 PK WND 35031/2305 SLP252 T01611061 10178 20139 56010=
202104132253 METAR KSEA 132253Z 34023G29KT 10SM CLR 17/M04 A3026 RMK AO2 PK WND 34029/2252 SLP252 T01671044=
202104132153 METAR KSEA 132153Z 35020G31KT 10SM CLR 18/M03 A3027 RMK AO2 PK WND 36031/2151 SLP256 T01781033=
202104132053 METAR KSEA 132053Z 36016G20KT 10SM CLR 17/M03 A3028 RMK AO2 SLP261 T01671033 58016=
202104131953 METAR KSEA 131953Z 35015G23KT 10SM CLR 17/M04 A3030 RMK AO2 WSHFT 1900 SLP268 T01671044=
202104131917 SPECI KSEA 131917Z 03010G18KT 350V070 10SM CLR 16/M07 A3031 RMK AO2 WSHFT 1900 T01561072=
202104131853 METAR KSEA 131853Z 02012KT 10SM CLR 15/M07 A3032 RMK AO2 SLP274 T01501067=
202104131753 METAR KSEA 131753Z 36010KT 10SM CLR 14/M03 A3033 RMK AO2 SLP277 T01391028 10139 20050 50001=
202104131653 METAR KSEA 131653Z 02004KT 10SM CLR 12/M02 A3033 RMK AO2 SLP277 T01171022=
202104131553 METAR KSEA 131553Z 36006KT 10SM CLR 09/M02 A3033 RMK AO2 SLP278 T00941017=
202104131453 METAR KSEA 131453Z 03006KT 10SM CLR 08/M02 A3033 RMK AO2 SLP277 T00781022 53008=
202104131353 METAR KSEA 131353Z 02010KT 10SM CLR 06/M03 A3032 RMK AO2 SLP274 T00561028=
202104131253 METAR KSEA 131253Z 03008KT 10SM CLR 06/M03 A3030 RMK AO2 SLP269 T00611033=
202104131153 METAR KSEA 131153Z 01010KT 10SM CLR 05/M03 A3030 RMK AO2 SLP268 T00501033 10100 20044 53003=
202104131053 METAR KSEA 131053Z 04007KT 10SM CLR 07/M04 A3030 RMK AO2 SLP267 T00671039=
202104130953 METAR KSEA 130953Z 02012KT 10SM CLR 08/M04 A3029 RMK AO2 SLP263 T00781039=
202104130853 METAR KSEA 130853Z 03009KT 10SM CLR 08/M04 A3029 RMK AO2 SLP264 T00831039 51007=
202104130753 METAR KSEA 130753Z 04008KT 10SM CLR 09/M03 A3029 RMK AO2 SLP263 T00891028=
202104130653 METAR KSEA 130653Z 03008KT 10SM CLR 09/M04 A3028 RMK AO2 SLP261 T00941039 401500022=
202104130553 METAR KSEA 130553Z 02010KT 10SM FEW120 09/M01 A3027 RMK AO2 SLP258 T00941011 10144 20094 51012=
202104130453 METAR KSEA 130453Z 02011KT 10SM FEW120 10/00 A3026 RMK AO2 SLP255 T01000000=
202104130353 METAR KSEA 130353Z 36011KT 10SM FEW120 10/M01 A3025 RMK AO2 SLP250 T01001006=
202104130253 METAR KSEA 130253Z 35012KT 10SM FEW050 SCT120 11/00 A3023 RMK AO2 SLP247 T01110000 53004=
202104130153 METAR KSEA 130153Z 36017G25KT 10SM FEW040 FEW100 13/01 A3022 RMK AO2 SLP243 T01280006=
202104130053 METAR KSEA 130053Z 35020G26KT 10SM FEW040 FEW100 13/02 A3023 RMK AO2 PK WND 35027/0041 SLP244 T01330017=
202104122353 METAR KSEA 122353Z 35019G25KT 10SM FEW040 14/02 A3022 RMK AO2 SLP241 T01390017 10150 20100 58008=
202104122253 METAR KSEA 122253Z 35016KT 10SM FEW040 14/02 A3023 RMK AO2 SLP245 T01440017=
202104122153 METAR KSEA 122153Z 35014KT 10SM FEW040 14/03 A3024 RMK AO2 SLP247 T01440033=
202104122053 METAR KSEA 122053Z 35017KT 10SM FEW035 13/03 A3024 RMK AO2 SLP249 T01330028 58014=
202104121953 METAR KSEA 121953Z 34014KT 10SM FEW035 13/03 A3026 RMK AO2 SLP254 T01280028=
202104121853 METAR KSEA 121853Z 35012G20KT 10SM FEW035 11/02 A3027 RMK AO2 SLP259 T01110022=
202104121753 METAR KSEA 121753Z 01017KT 10SM FEW200 11/02 A3029 RMK AO2 SLP263 T01060017 10106 20022 58006=
202104121653 METAR KSEA 121653Z 01012KT 10SM FEW200 09/02 A3030 RMK AO2 SLP270 T00890017=
202104121553 METAR KSEA 121553Z 02016KT 10SM FEW200 07/01 A3031 RMK AO2 SLP272 T00670011=
202104121453 METAR KSEA 121453Z 03011KT 10SM FEW200 04/00 A3030 RMK AO2 SLP270 T00440000 53002=
202104121353 METAR KSEA 121353Z 36004KT 10SM FEW200 03/00 A3030 RMK AO2 SLP268 T00280000=
202104121253 METAR KSEA 121253Z 02006KT 10SM SCT200 03/00 A3029 RMK AO2 SLP266 T00330000=
202104121153 METAR KSEA 121153Z 05003KT 10SM FEW220 04/M01 A3030 RMK AO2 SLP268 T00391006 10067 20039 58005=
202104121053 METAR KSEA 121053Z 05005KT 10SM FEW220 04/M01 A3031 RMK AO2 SLP270 T00391006=
202104120953 METAR KSEA 120953Z 03005KT 10SM CLR 04/M01 A3031 RMK AO2 SLP272 T00441006=
202104120853 METAR KSEA 120853Z 03006KT 10SM CLR 06/M01 A3031 RMK AO2 SLP273 T00561006 58003=
202104120753 METAR KSEA 120753Z 36008KT 10SM CLR 05/M01 A3032 RMK AO2 SLP274 T00501011=
202104120653 METAR KSEA 120653Z 02014KT 10SM CLR 06/M01 A3033 RMK AO2 SLP278 T00611006 401220011=
202104120553 METAR KSEA 120553Z 01011KT 10SM CLR 07/M02 A3032 RMK AO2 SLP277 T00671017 10122 20061 53006=
202104120453 METAR KSEA 120453Z 01009KT 10SM CLR 07/M02 A3031 RMK AO2 SLP274 T00671022=
202104120353 METAR KSEA 120353Z 36007KT 10SM CLR 07/M04 A3031 RMK AO2 SLP272 T00671039=
202104120253 METAR KSEA 120253Z 35013KT 10SM CLR 08/M04 A3030 RMK AO2 SLP270 T00781039 55005=
202104120153 METAR KSEA 120153Z 35013KT 10SM FEW040 09/M02 A3030 RMK AO2 SLP270 T00941022=
202104120053 METAR KSEA 120053Z 35014KT 10SM FEW040 11/M02 A3030 RMK AO2 SLP270 T01111022=
202104112253 METAR KSEA 112253Z 34010KT 10SM FEW040 12/M02 A3033 RMK AO2 SLP278 T01221022=
202104112153 METAR KSEA 112153Z 01010G17KT 330V040 10SM SCT040 12/00 A3034 RMK AO2 SLP282 T01170000=
202104112053 METAR KSEA 112053Z 01009KT 320V040 10SM SCT038 11/00 A3035 RMK AO2 SLP285 T01110000 56012=
202104111953 METAR KSEA 111953Z 34009KT 10SM SCT036 11/00 A3036 RMK AO2 SLP290 T01110000=
202104111853 METAR KSEA 111853Z 01008KT 340V040 10SM SCT028 09/M01 A3037 RMK AO2 SLP293 T00941006=
202104111753 METAR KSEA 111753Z 00000KT 10SM SCT025 08/01 A3039 RMK AO2 SLP298 T00830006 10083 20011 58000=
202104111653 METAR KSEA 111653Z VRB05KT 10SM SCT020 07/00 A3039 RMK AO2 SLP299 T00720000=
202104111553 METAR KSEA 111553Z 00000KT 10SM FEW020 FEW050 04/M01 A3039 RMK AO2 SLP300 T00441011=
202104111453 METAR KSEA 111453Z 17004KT 10SM FEW025 FEW060 03/M01 A3039 RMK AO2 SLP299 T00331011 53008=
202104111353 METAR KSEA 111353Z 13005KT 10SM FEW024 FEW060 02/M02 A3038 RMK AO2 SLP295 T00171022=
202104111253 METAR KSEA 111253Z 14005KT 10SM FEW060 02/M02 A3036 RMK AO2 SLP291 T00171022=
202104111153 METAR KSEA 111153Z 13005KT 10SM FEW060 02/M02 A3036 RMK AO2 SLP290 T00171017 10061 20017 51009=
202104111053 METAR KSEA 111053Z 09003KT 10SM FEW070 03/M02 A3035 RMK AO2 SLP287 T00281022=
202104110953 METAR KSEA 110953Z 00000KT 10SM FEW070 03/M01 A3035 RMK AO2 SLP285 T00331011=
202104110853 METAR KSEA 110853Z 03007KT 10SM FEW070 05/M01 A3034 RMK AO2 SLP281 T00501011 50001=
202104110753 METAR KSEA 110753Z 06005KT 10SM BKN070 05/M02 A3034 RMK AO2 SLP283 T00501017=
202104110653 METAR KSEA 110653Z 04007KT 10SM BKN075 06/M02 A3034 RMK AO2 SLP282 T00611017 401170044=
202104110553 METAR KSEA 110553Z 02008KT 10SM BKN080 06/M01 A3033 RMK AO2 SLP281 T00611011 10100 20056 51014=
202104110453 METAR KSEA 110453Z 36008KT 10SM BKN085 06/M02 A3032 RMK AO2 SLP276 T00611017=
202104110353 METAR KSEA 110353Z 34007KT 10SM BKN070 BKN250 07/M02 A3031 RMK AO2 SLP273 T00671017=
202104110253 METAR KSEA 110253Z 01014KT 10SM SCT065 BKN085 BKN250 08/M01 A3029 RMK AO2 SLP266 T00781011 52010=
202104110153 METAR KSEA 110153Z 02012KT 10SM FEW035 BKN085 09/M03 A3028 RMK AO2 SLP262 T00891033=
202104110053 METAR KSEA 110053Z 03010KT 10SM FEW035 SCT060 BKN100 09/M05 A3027 RMK AO2 SLP260 T00941050=
202104102353 METAR KSEA 102353Z 03010KT 10SM SCT060 BKN090 09/M05 A3026 RMK AO2 SLP256 T00941050 10117 20067 51012=
202104102253 METAR KSEA 102253Z VRB04KT 10SM FEW050 FEW080 BKN110 11/M03 A3025 RMK AO2 SLP250 T01111033=
202104102153 METAR KSEA 102153Z 27008KT 10SM SCT048 BKN085 09/M03 A3024 RMK AO2 SLP249 T00891033=
202104102053 METAR KSEA 102053Z VRB05KT 10SM BKN045 BKN075 09/M02 A3022 RMK AO2 SLP243 SHRA S-W T00941017 51007=
202104101953 METAR KSEA 101953Z 24008KT 10SM BKN040 BKN070 09/M02 A3022 RMK AO2 SLP242 T00941017=
202104101853 METAR KSEA 101853Z VRB04KT 10SM BKN037 08/M02 A3021 RMK AO2 SLP240 T00831017=
202104101753 METAR KSEA 101753Z 24007KT 10SM SCT027 BKN038 07/M01 A3020 RMK AO2 SLP236 T00671011 10078 20044 53024=
202104101653 METAR KSEA 101653Z 23008KT 10SM SCT023 06/00 A3017 RMK AO2 SLP225 T00610000=
202104101553 METAR KSEA 101553Z 22010KT 10SM FEW018 SCT024 05/00 A3015 RMK AO2 SLP218 T00500000=
202104101542 SPECI KSEA 101542Z 22008KT 10SM SCT018 SCT025 05/01 A3015 RMK AO2 T00500006=
202104101453 METAR KSEA 101453Z 24004KT 10SM FEW018 BKN024 04/01 A3013 RMK AO2 SLP212 T00440006 51035=
202104101353 METAR KSEA 101353Z VRB03KT 10SM BKN020 BKN060 04/01 A3010 RMK AO2 SLP201 T00440011=
202104101310 SPECI KSEA 101310Z 23007KT 10SM BKN018 BKN060 04/01 A3008 RMK AO2 T00440006=
202104101253 METAR KSEA 101253Z 24006KT 10SM SCT018 BKN060 04/01 A3007 RMK AO2 SLP190 T00440011=
202104101153 METAR KSEA 101153Z 20020G26KT 10SM SCT070 BKN090 06/01 A3003 RMK AO2 PK WND 21026/1152 SLP176 60002 70002 T00560011 10072 20056 53005=
202104101053 METAR KSEA 101053Z 22019G26KT 10SM FEW020 BKN070 06/01 A3002 RMK AO2 PK WND 22026/1051 SLP173 T00560011=
202104100953 METAR KSEA 100953Z 21013G19KT 10SM FEW020 SCT070 06/02 A3001 RMK AO2 SLP171 T00560017=
202104100853 METAR KSEA 100853Z 21015KT 10SM SCT020 BKN065 06/04 A3001 RMK AO2 PK WND 22026/0843 RAE07 SLP171 P0000 60002 T00610039 53005=
202104100836 SPECI KSEA 100836Z 22016G23KT 10SM SCT020 BKN065 06/04 A3001 RMK AO2 RAE07 P0000 T00610039=
202104100808 SPECI KSEA 100808Z 21015KT 10SM FEW010 BKN020 OVC055 06/04 A3000 RMK AO2 RAE07 P0000 T00610044=
202104100753 METAR KSEA 100753Z 20017KT 10SM -RA FEW010 SCT018 OVC040 06/04 A3000 RMK AO2 SLP167 P0001 T00610044=
202104100735 SPECI KSEA 100735Z 19015G23KT 10SM -RA FEW015 SCT020 OVC041 06/04 A3000 RMK AO2 P0001 T00610044=
202104100653 METAR KSEA 100653Z 20015G21KT 7SM -RA BKN025 OVC030 07/03 A3000 RMK AO2 PK WND 19026/0628 SLP167 P0001 T00670033 401000022=
202104100640 SPECI KSEA 100640Z 21017G24KT 9SM -RA OVC025 07/03 A3000 RMK AO2 PK WND 19026/0628 P0000 T00720033=
202104100612 SPECI KSEA 100612Z 18015KT 10SM -RA SCT027 BKN032 OVC042 07/02 A3000 RMK AO2 P0000 T00720022=
202104100553 METAR KSEA 100553Z 19016KT 10SM -RA BKN026 BKN035 OVC047 07/02 A3000 RMK AO2 RAB13E27B46 SLP166 P0000 60000 T00720022 10089 20072 58019=
202104100453 METAR KSEA 100453Z 17012KT 10SM OVC027 07/02 A3003 RMK AO2 SLP178 T00720022=
202104100353 METAR KSEA 100353Z 19010KT 10SM BKN027 OVC032 07/03 A3005 RMK AO2 SLP185 T00720028=
202104100253 METAR KSEA 100253Z 20014KT 10SM SCT040 OVC075 08/02 A3006 RMK AO2 SLP186 T00780022 56015=
202104100153 METAR KSEA 100153Z 23013G17KT 10SM FEW040 BKN070 OVC100 08/02 A3007 RMK AO2 SLP193 T00780022=
202104100053 METAR KSEA 100053Z 22017G22KT 10SM FEW035 BKN075 OVC100 08/02 A3008 RMK AO2 SLP194 T00830017=
202104092353 METAR KSEA 092353Z 23012G19KT 10SM FEW033 BKN100 OVC120 09/02 A3010 RMK AO2 SLP201 T00890017 10100 20078 58021=
202104092253 METAR KSEA 092253Z 22012G19KT 10SM FEW032 BKN055 OVC110 09/02 A3012 RMK AO2 SLP208 T00890017=
202104092153 METAR KSEA 092153Z 23009KT 10SM FEW047 BKN055 OVC085 09/02 A3015 RMK AO2 SLP217 T00940017=
202104092053 METAR KSEA 092053Z 22013KT 10SM FEW035 BKN050 OVC090 09/01 A3016 RMK AO2 SLP222 T00940006 56010=
202104091953 METAR KSEA 091953Z 22011KT 10SM BKN044 OVC095 09/02 A3018 RMK AO2 SLP227 T00890017=
202104091853 METAR KSEA 091853Z 21010KT 10SM SCT043 BKN120 OVC200 09/00 A3018 RMK AO2 SLP228 T00890000=
202104091753 METAR KSEA 091753Z 21011KT 10SM FEW020 BKN110 BKN250 08/01 A3019 RMK AO2 SLP233 T00830006 10083 20022 58007=
202104091653 METAR KSEA 091653Z 20009KT 10SM FEW020 SCT110 BKN250 07/01 A3021 RMK AO2 SLP238 T00670011=
202104091553 METAR KSEA 091553Z 18009KT 10SM FEW015 FEW140 SCT250 06/01 A3021 RMK AO2 SLP239 ACSL DSNT SE T00560011=
202104091453 METAR KSEA 091453Z 19007KT 10SM SCT020 SCT140 SCT250 04/01 A3022 RMK AO2 SLP241 ACSL DSNT SE T00390006 55005=
202104091353 METAR KSEA 091353Z 15009KT 10SM FEW015 FEW140 FEW250 02/M01 A3022 RMK AO2 SLP240 ACSL DSNT SE T00221011=
202104091253 METAR KSEA 091253Z 14007KT 10SM FEW250 02/M01 A3022 RMK AO2 SLP242 T00221011=
202104091153 METAR KSEA 091153Z 14006KT 10SM SCT250 03/M01 A3023 RMK AO2 SLP246 T00281011 10067 20028 56018=
202104091053 METAR KSEA 091053Z 13003KT 10SM CLR 03/M01 A3024 RMK AO2 SLP250 T00331011=
202104090953 METAR KSEA 090953Z 16006KT 10SM SCT250 04/M01 A3026 RMK AO2 SLP254 T00391011=
202104090853 METAR KSEA 090853Z 15005KT 10SM SCT045 SCT250 04/M01 A3029 RMK AO2 SLP264 T00441006 56008=
202104090753 METAR KSEA 090753Z 16006KT 10SM SCT250 04/M01 A3029 RMK AO2 SLP267 T00391006=
202104090653 METAR KSEA 090653Z 20005KT 10SM SCT075 BKN250 06/00 A3030 RMK AO2 SLP269 T00560000 401220044=
202104090553 METAR KSEA 090553Z 22008KT 10SM FEW075 BKN250 07/00 A3031 RMK AO2 SLP272 T00670000 10122 20061 50009=
202104090453 METAR KSEA 090453Z 24006KT 10SM SCT075 07/01 A3032 RMK AO2 SLP274 T00720006=
202104090353 METAR KSEA 090353Z 25009KT 10SM BKN075 08/00 A3030 RMK AO2 SLP268 T00830000=
202104090253 METAR KSEA 090253Z 22008KT 10SM FEW040 SCT075 BKN250 09/00 A3028 RMK AO2 SLP263 T00940000 58006=
202104090153 METAR KSEA 090153Z 24009KT 10SM CLR 11/M02 A3029 RMK AO2 SLP265 T01061017=
202104090053 METAR KSEA 090053Z 24011KT 10SM FEW040 BKN075 12/M01 A3030 RMK AO2 SLP267 T01171006=
202104082353 METAR KSEA 082353Z 22009KT 10SM SCT040 BKN070 BKN250 12/M02 A3030 RMK AO2 SLP268 T01221022 10122 20078 58003=
202104082253 METAR KSEA 082253Z 20009KT 10SM SCT040 SCT250 12/M02 A3030 RMK AO2 SLP268 T01221017=
202104082153 METAR KSEA 082153Z 23011G15KT 10SM SCT040 SCT250 12/M02 A3031 RMK AO2 SLP271 T01221017=
202104082053 METAR KSEA 082053Z 21007KT 10SM SCT040 SCT250 11/M04 A3031 RMK AO2 SLP271 T01061039 51008=
202104081953 METAR KSEA 081953Z VRB04KT 10SM SCT030 10/M02 A3030 RMK AO2 SLP270 T01001017=
202104081855 SPECI KSEA 081855Z 21006KT 10SM SCT025 09/00 A3030 RMK AO2 T00890000=
202104081853 METAR KSEA 081853Z 10SM SCT025 09/01 A3030 RMK AO2 SLP269 T00890006=
202104081753 METAR KSEA 081753Z 21009KT 10SM SCT020 08/02 A3028 RMK AO2 SLP264 T00830017 10083 20044 53029=
202104081653 METAR KSEA 081653Z 19009KT 10SM SCT017 07/02 A3026 RMK AO2 SLP254 T00670017=
202104081553 METAR KSEA 081553Z 19008KT 10SM SCT015 06/02 A3022 RMK AO2 SLP243 T00610022=
202104081532 SPECI KSEA 081532Z 17007KT 10SM SCT015 06/02 A3022 RMK AO2 T00560022=
202104081453 METAR KSEA 081453Z 15008KT 10SM BKN014 BKN020 05/02 A3020 RMK AO2 SLP234 T00500017 53030=
202104081442 SPECI KSEA 081442Z 16008KT 10SM BKN014 BKN020 05/02 A3019 RMK AO2 T00500017=
202104081353 METAR KSEA 081353Z 20008KT 10SM BKN019 04/02 A3016 RMK AO2 SLP222 T00440017=
202104081253 METAR KSEA 081253Z 22007KT 10SM OVC019 05/02 A3013 RMK AO2 SLP212 T00500022=
202104081153 METAR KSEA 081153Z 21006KT 10SM SCT011 BKN017 OVC025 05/03 A3011 RMK AO2 SLP204 CIG 014V020 60016 70025 T00500028 10067 20050 53023=
202104081145 SPECI KSEA 081145Z 21009KT 10SM SCT011 BKN017 OVC023 05/03 A3010 RMK AO2 T00500028=
202104081123 SPECI KSEA 081123Z 21006KT 10SM BKN010 BKN015 OVC025 06/03 A3010 RMK AO2 T00560033=
202104081053 METAR KSEA 081053Z 23007KT 10SM BKN008 OVC015 06/03 A3008 RMK AO2 SLP195 T00560033=
202104081046 SPECI KSEA 081046Z 23006KT 10SM BKN008 OVC015 06/03 A3008 RMK AO2 T00560033=
202104081025 SPECI KSEA 081025Z 22008KT 10SM FEW007 BKN012 OVC020 06/03 A3008 RMK AO2 T00560033=
202104080953 METAR KSEA 080953Z 23009G16KT 10SM BKN014 OVC022 06/04 A3006 RMK AO2 SLP188 CIG 011V017 T00610039=
202104080853 METAR KSEA 080853Z 23014G18KT 10SM BKN012 OVC022 07/04 A3004 RMK AO2 SLP180 CIG 010V014 60016 T00670044 53005=
202104080820 SPECI KSEA 080820Z 22012KT 10SM BKN013 OVC023 06/04 A3002 RMK AO2 T00610044=
202104080753 METAR KSEA 080753Z 20011KT 10SM SCT017 BKN065 BKN100 06/04 A3001 RMK AO2 RAE18 SLP169 P0003 T00560044=
202104080726 SPECI KSEA 080726Z 20010KT 10SM SCT017 BKN035 OVC095 06/04 A3001 RMK AO2 RAE18 P0003 T00560044=
202104080653 METAR KSEA 080653Z 25010KT 5SM RA BR SCT008 BKN017 OVC030 06/04 A3002 RMK AO2 SLP173 CIG 013V020 P0013 T00560044 400890056=
202104080553 METAR KSEA 080553Z 24011KT 6SM -RA BR FEW009 BKN016 OVC043 07/05 A3002 RMK AO2 SLP174 CIG 013V019 P0007 60007 T00670050 10083 20067 58001=
202104080518 SPECI KSEA 080518Z 20012KT 7SM -RA SCT009 BKN016 OVC022 07/05 A3002 RMK AO2 P0001 T00720050=
202104080453 METAR KSEA 080453Z 20013KT 10SM -RA BKN015 BKN027 OVC036 07/05 A3002 RMK AO2 SLP175 P0000 T00720050=
202104080424 SPECI KSEA 080424Z 20012KT 10SM -RA BKN015 OVC025 07/05 A3003 RMK AO2 P0000 T00720050=
202104080407 SPECI KSEA 080407Z 21015G21KT 10SM -RA BKN014 OVC020 07/05 A3003 RMK AO2 P0000 T00720050=
202104080353 METAR KSEA 080353Z 21013KT 10SM -RA OVC017 08/05 A3002 RMK AO2 SLP176 P0000 T00780050=
202104080253 METAR KSEA 080253Z 22014KT 10SM -RA BKN018 OVC029 07/05 A3003 RMK AO2 SLP176 P0000 60000 T00720050 56007=
202104080234 SPECI KSEA 080234Z 21014G20KT 10SM -RA BKN020 BKN032 OVC050 08/05 A3002 RMK AO2 P0000 T00780050=
202104080153 METAR KSEA 080153Z 21015G24KT 10SM -RA FEW020 BKN030 OVC060 08/05 A3003 RMK AO2 RAB42 SLP176 P0000 T00780050=
202104080135 SPECI KSEA 080135Z 21015G21KT 10SM SCT027 BKN055 OVC070 08/05 A3003 RMK AO2 T00830050=
202104080053 METAR KSEA 080053Z 22013KT 10SM SCT016 BKN025 OVC060 08/05 A3004 RMK AO2 SLP180 T00830050=
202104080026 SPECI KSEA 080026Z 22013G22KT 10SM BKN016 BKN028 OVC080 08/06 A3004 RMK AO2 T00830056=
202104072353 METAR KSEA 072353Z 20010KT 10SM FEW016 SCT046 OVC070 08/05 A3005 RMK AO2 SLP183 60002 T00780050 10089 20078 58010=
202104072253 METAR KSEA 072253Z 22013G19KT 10SM FEW034 SCT048 OVC065 08/06 A3006 RMK AO2 RAB01E20 SLP187 P0001 T00780056=
202104072153 METAR KSEA 072153Z 23010KT 10SM FEW020 BKN050 OVC080 08/05 A3007 RMK AO2 RAE37 SLP191 P0001 T00830050=
202104072119 SPECI KSEA 072119Z 20011KT 9SM -RA FEW016 BKN032 OVC043 08/04 A3007 RMK AO2 P0001 T00830044=
202104072053 METAR KSEA 072053Z 23010KT 9SM -RA SCT021 BKN027 OVC042 08/04 A3008 RMK AO2 RAB46 SLP193 P0000 60000 T00830044 55002=
202104071953 METAR KSEA 071953Z 23015G22KT 10SM BKN028 OVC035 09/03 A3007 RMK AO2 SLP190 T00890033=
202104071946 SPECI KSEA 071946Z 22012KT 10SM BKN028 OVC035 09/04 A3007 RMK AO2 T00890039=
202104071853 METAR KSEA 071853Z 22016G22KT 10SM SCT021 BKN070 OVC110 09/04 A3008 RMK AO2 SLP192 T00890039=
202104071753 METAR KSEA 071753Z 22013KT 10SM BKN019 OVC025 08/04 A3008 RMK AO2 SLP194 T00830039 10083 20056 53004=
202104071653 METAR KSEA 071653Z 21013G18KT 10SM OVC017 08/03 A3007 RMK AO2 SLP191 T00780033=
202104071553 METAR KSEA 071553Z 19012KT 10SM OVC017 07/03 A3007 RMK AO2 SLP191 T00670033=
202104071453 METAR KSEA 071453Z 17011KT 10SM OVC015 06/03 A3007 RMK AO2 SLP189 T00610033 51005=
202104071353 METAR KSEA 071353Z 16007KT 10SM OVC012 06/03 A3007 RMK AO2 SLP189 T00610028=
202104071253 METAR KSEA 071253Z 20009KT 10SM OVC011 06/03 A3006 RMK AO2 SLP187 T00610033=
202104071153 METAR KSEA 071153Z 19009KT 10SM OVC013 06/03 A3005 RMK AO2 SLP184 CIG 011V015 T00610033 10083 20056 53002=
202104071138 SPECI KSEA 071138Z 21006KT 10SM OVC014 06/04 A3006 RMK AO2 T00610039=
202104071053 METAR KSEA 071053Z 18009KT 10SM SCT014 BKN240 06/04 A3004 RMK AO2 SLP179 T00610039=
202104071032 SPECI KSEA 071032Z 21006KT 10SM BKN013 06/04 A3004 RMK AO2 T00610039=
202104070953 METAR KSEA 070953Z 00000KT 10SM OVC250 06/04 A3004 RMK AO2 SLP181 T00560039=
202104070853 METAR KSEA 070853Z 24003KT 10SM BKN250 07/04 A3005 RMK AO2 SLP182 T00670044 53001=
202104070753 METAR KSEA 070753Z 00000KT 10SM BKN250 07/05 A3004 RMK AO2 SLP180 T00720050=
202104070653 METAR KSEA 070653Z 25003KT 10SM SCT250 08/04 A3004 RMK AO2 SLP180 T00780044 401560028=
202104070553 METAR KSEA 070553Z 20003KT 10SM SCT250 08/04 A3004 RMK AO2 SLP181 T00830044 10156 20083 50001=
202104070353 METAR KSEA 070353Z 31003KT 10SM BKN200 11/02 A3004 RMK AO2 SLP181 T01110017=
202104070253 METAR KSEA 070253Z 00000KT 10SM BKN250 13/01 A3004 RMK AO2 SLP180 T01330006 56006=
202104070153 METAR KSEA 070153Z 22003KT 10SM BKN250 14/02 A3004 RMK AO2 SLP180 T01390017=
202104070053 METAR KSEA 070053Z 26004KT 10SM BKN250 14/03 A3005 RMK AO2 SLP184 T01440028=
202104062353 METAR KSEA 062353Z 25007KT 10SM BKN250 15/02 A3006 RMK AO2 SLP186 T01500022 10150 20072 56017=
202104062253 METAR KSEA 062253Z 23004KT 10SM FEW040 SCT250 14/03 A3008 RMK AO2 SLP192 T01440028=
202104062153 METAR KSEA 062153Z 27006KT 10SM FEW035 SCT250 14/02 A3009 RMK AO2 SLP198 T01440017=
202104062053 METAR KSEA 062053Z 24004KT 10SM FEW035 FEW250 13/02 A3011 RMK AO2 SLP203 T01280022 58016=
202104062018 SPECI KSEA 062018Z 00000KT 10SM FEW250 12/02 A3012 RMK AO2=
202104061953 METAR KSEA 061953Z 28005KT 10SM FEW250 12/03 A3012 RMK AO2 SLP208 T01220028=
202104061853 METAR KSEA 061853Z VRB04KT 10SM FEW250 10/03 A3014 RMK AO2 SLP214 T01000033=
202104061753 METAR KSEA 061753Z VRB04KT 10SM FEW250 09/03 A3016 RMK AO2 SLP220 T00890028 10089 20028 55001=
202104061653 METAR KSEA 061653Z 19004KT 10SM FEW250 07/03 A3016 RMK AO2 SLP220 T00720028=
202104061553 METAR KSEA 061553Z 18003KT 10SM FEW250 06/02 A3016 RMK AO2 SLP219 T00610022=
202104061453 METAR KSEA 061453Z 15004KT 10SM CLR 04/01 A3016 RMK AO2 SLP222 T00440011 58002=
202104061353 METAR KSEA 061353Z 12005KT 10SM CLR 03/01 A3016 RMK AO2 SLP223 T00330006=
202104061253 METAR KSEA 061253Z 13006KT 10SM FEW250 03/01 A3017 RMK AO2 SLP224 T00280006=
202104061153 METAR KSEA 061153Z 15005KT 10SM CLR 04/01 A3017 RMK AO2 SLP223 T00390011 10072 20033 53002=
202104061053 METAR KSEA 061053Z 17005KT 10SM CLR 04/01 A3016 RMK AO2 SLP221 T00390011=
202104060953 METAR KSEA 060953Z 19004KT 10SM CLR 04/02 A3016 RMK AO2 SLP221 T00440017=
202104060853 METAR KSEA 060853Z 19005KT 10SM CLR 05/02 A3016 RMK AO2 SLP222 T00500017 50002=
202104060753 METAR KSEA 060753Z 22004KT 10SM CLR 06/02 A3017 RMK AO2 SLP223 T00560017=
202104060653 METAR KSEA 060653Z 20003KT 10SM CLR 07/02 A3016 RMK AO2 SLP221 T00720017 401330017=
202104060553 METAR KSEA 060553Z 21004KT 10SM CLR 07/02 A3016 RMK AO2 SLP220 T00720017 10133 20072 50005=
202104060453 METAR KSEA 060453Z 00000KT 10SM FEW050 08/01 A3016 RMK AO2 SLP222 T00780011=
202104060353 METAR KSEA 060353Z 06004KT 10SM FEW050 11/M04 A3015 RMK AO2 SLP219 T01111039=
202104060253 METAR KSEA 060253Z 00000KT 10SM FEW040 11/M02 A3014 RMK AO2 SLP215 T01061017 56009=
202104060153 METAR KSEA 060153Z 27005KT 10SM FEW040 12/M02 A3014 RMK AO2 SLP215 T01221022=
202104060053 METAR KSEA 060053Z VRB05KT 10SM FEW040 13/M02 A3015 RMK AO2 SLP219 T01281022=
202104052353 METAR KSEA 052353Z 27006KT 10SM FEW040 13/M02 A3017 RMK AO2 SLP225 T01281017 10133 20078 56022=
202104052253 METAR KSEA 052253Z 26003KT 10SM FEW040 12/M01 A3019 RMK AO2 SLP232 T01221011=
202104052153 METAR KSEA 052153Z 27006KT 10SM FEW035 12/00 A3021 RMK AO2 SLP240 T01170000=
202104052053 METAR KSEA 052053Z 24004KT 10SM FEW035 11/02 A3024 RMK AO2 SLP247 T01060017 58008=
202104051953 METAR KSEA 051953Z 25006KT 10SM SCT027 11/02 A3025 RMK AO2 SLP251 T01060017=
202104051853 METAR KSEA 051853Z 25005KT 10SM SCT024 09/02 A3025 RMK AO2 SLP254 T00890022=
202104051753 METAR KSEA 051753Z 23006KT 10SM SCT024 08/02 A3026 RMK AO2 SLP256 T00780022 10078 20017 58002=
202104051732 SPECI KSEA 051732Z 26004KT 10SM FEW007 BKN024 07/02 A3026 RMK AO2 T00670022=
202104051653 METAR KSEA 051653Z VRB03KT 10SM FEW005 SCT022 07/03 A3027 RMK AO2 SLP258 T00670033=
202104051647 SPECI KSEA 051647Z 26003KT 10SM FEW005 SCT022 06/03 A3027 RMK AO2=
202104051618 SPECI KSEA 051618Z 19003KT 10SM FEW004 BKN022 05/03 A3027 RMK AO2 T00500028=
202104051556 SPECI KSEA 051556Z 21004KT 10SM FEW004 BKN022 04/03 A3027 RMK AO2 T00440033=
202104051553 METAR KSEA 051553Z 22004KT 10SM FEW004 BKN022 04/03 A3027 RMK AO2 SLP259 T00440033=
202104051510 SPECI KSEA 051510Z 18004KT 10SM SCT003 BKN022 04/02 A3027 RMK AO2 T00390022=
202104051453 METAR KSEA 051453Z 17004KT 10SM BKN003 BKN020 03/02 A3027 RMK AO2 SLP258 T00330022 53008=
202104051357 SPECI KSEA 051357Z 13004KT 10SM BKN003 BKN020 02/00 A3026 RMK AO2 T00220000=
202104051353 METAR KSEA 051353Z 12004KT 10SM FEW007 SCT020 02/00 A3026 RMK AO2 SLP255 T00220000=
202104051346 SPECI KSEA 051346Z 13004KT 10SM FEW007 SCT020 02/M01 A3026 RMK AO2 T00171006=
202104051253 METAR KSEA 051253Z 12006KT 10SM FEW013 02/00 A3025 RMK AO2 SLP252 T00170000=
202104051153 METAR KSEA 051153Z 00000KT 10SM CLR 03/01 A3024 RMK AO2 SLP250 T00280011 10056 20022 53002=
202104051053 METAR KSEA 051053Z 00000KT 10SM CLR 03/00 A3024 RMK AO2 SLP249 T00280000=
202104050953 METAR KSEA 050953Z 17004KT 10SM CLR 03/M01 A3024 RMK AO2 SLP247 T00281006=
202104050853 METAR KSEA 050853Z 00000KT 10SM CLR 04/M02 A3024 RMK AO2 SLP248 T00391017 53000=
202104050753 METAR KSEA 050753Z 12003KT 10SM CLR 05/M01 A3024 RMK AO2 SLP248 T00501011=
202104050653 METAR KSEA 050653Z 00000KT 10SM CLR 04/M01 A3024 RMK AO2 SLP248 T00441011 401110039=
202104050553 METAR KSEA 050553Z 36007KT 10SM CLR 06/M01 A3024 RMK AO2 SLP248 T00561011 10094 20050 50003=
202104050453 METAR KSEA 050453Z 36007KT 10SM CLR 06/M02 A3024 RMK AO2 SLP249 T00561017=
202104050353 METAR KSEA 050353Z 35008KT 10SM FEW080 06/M02 A3024 RMK AO2 SLP247 T00611022=
202104050253 METAR KSEA 050253Z 35009KT 10SM FEW043 SCT080 07/M02 A3023 RMK AO2 SLP245 T00721017 55005=
202104050053 METAR KSEA 050053Z 34010KT 10SM FEW043 BKN060 08/M02 A3023 RMK AO2 SLP244 T00831017=
202104042353 METAR KSEA 042353Z 01018KT 10SM FEW043 BKN095 09/M02 A3024 RMK AO2 SLP249 T00941017 10111 20078 56001=
202104042253 METAR KSEA 042253Z 02015G20KT 10SM SCT043 BKN095 11/M01 A3024 RMK AO2 SLP249 T01111006=
202104042153 METAR KSEA 042153Z 36011KT 10SM FEW044 BKN050 BKN100 09/M01 A3025 RMK AO2 SLP250 T00941011=
202104042053 METAR KSEA 042053Z 33007KT 10SM SCT049 BKN060 BKN100 10/M01 A3025 RMK AO2 SLP250 T01001006 58004=
202104041953 METAR KSEA 041953Z 33007KT 10SM FEW035 BKN055 OVC060 09/01 A3026 RMK AO2 SLP255 T00940006=
202104041853 METAR KSEA 041853Z 36010KT 10SM SCT029 BKN035 OVC049 09/01 A3027 RMK AO2 SLP257 T00890006=
202104041753 METAR KSEA 041753Z 33011KT 10SM FEW025 OVC047 08/01 A3026 RMK AO2 SLP255 60000 T00780011 10083 20067 53008=
202104041653 METAR KSEA 041653Z 36012KT 10SM SCT025 OVC044 08/01 A3025 RMK AO2 SLP252 T00780011=
202104041553 METAR KSEA 041553Z 02008KT 10SM OVC041 07/01 A3024 RMK AO2 SLP247 T00720006=
202104041453 METAR KSEA 041453Z 02009KT 10SM OVC035 07/02 A3024 RMK AO2 SLP246 60000 T00720017 53013=
202104041353 METAR KSEA 041353Z 05008KT 10SM FEW010 OVC033 07/01 A3022 RMK AO2 RAE03 SLP238 P0000 T00670011=
202104041253 METAR KSEA 041253Z 05010KT 10SM -RA FEW015 OVC033 07/04 A3021 RMK AO2 RAB50 SLP236 P0000 T00720039=
202104041231 SPECI KSEA 041231Z 05009KT 10SM FEW015 OVC033 07/05 A3020 RMK AO2 T00720050=
202104041153 METAR KSEA 041153Z 04009KT 10SM OVC029 07/05 A3020 RMK AO2 SLP233 60000 T00720050 10100 20072 55002=
202104041053 METAR KSEA 041053Z 04011KT 10SM OVC028 08/05 A3020 RMK AO2 SLP232 T00780050=
202104040953 METAR KSEA 040953Z 05015KT 10SM FEW007 OVC023 08/06 A3020 RMK AO2 SLP233 T00780056=
202104040853 METAR KSEA 040853Z 03013KT 10SM FEW007 BKN021 OVC060 08/06 A3020 RMK AO2 SLP234 60000 T00780061 53008=
202104040838 SPECI KSEA 040838Z 02014KT 10SM FEW007 BKN021 OVC060 08/06 A3020 RMK AO2 T00780061=
202104040753 METAR KSEA 040753Z 02013KT 10SM SCT021 OVC060 08/06 A3018 RMK AO2 RAE0659 SLP227 P0000 T00780061=
202104040653 METAR KSEA 040653Z 03014KT 10SM -RA OVC055 08/06 A3018 RMK AO2 RAB04 SLP226 P0000 T00830061 401720050=
202104040553 METAR KSEA 040553Z 35007KT 10SM OVC070 10/07 A3018 RMK AO2 RAE07 SLP227 P0000 60000 T01000072 10161 20100 51013=
202104040453 METAR KSEA 040453Z 00000KT 10SM -RA FEW050 OVC070 12/06 A3017 RMK AO2 RAB46 SLP222 P0000 T01170061=
202104040353 METAR KSEA 040353Z 25006KT 10SM FEW070 OVC090 13/06 A3016 RMK AO2 SLP219 T01280056=
202104040253 METAR KSEA 040253Z 23008KT 10SM FEW050 OVC090 14/05 A3014 RMK AO2 SLP214 T01390050 53004=
202104040153 METAR KSEA 040153Z 22008KT 10SM FEW050 BKN100 OVC200 15/04 A3014 RMK AO2 SLP212 T01500044=
202104040053 METAR KSEA 040053Z 24011KT 10SM FEW050 BKN110 OVC250 16/04 A3013 RMK AO2 SLP209 T01560039=
202104032353 METAR KSEA 032353Z 21009KT 10SM FEW045 SCT130 OVC250 16/04 A3013 RMK AO2 SLP209 T01610044 10172 20106 56005=
202104032253 METAR KSEA 032253Z 23008KT 10SM FEW045 SCT130 OVC250 17/05 A3013 RMK AO2 SLP210 T01670050=
202104032153 METAR KSEA 032153Z 23009KT 10SM FEW045 SCT110 OVC250 17/05 A3014 RMK AO2 SLP212 T01670050=
202104032053 METAR KSEA 032053Z 24009KT 10SM FEW045 BKN110 BKN220 15/04 A3014 RMK AO2 SLP214 T01500044 56004=
202104031953 METAR KSEA 031953Z 19007KT 10SM FEW045 SCT110 BKN200 15/03 A3015 RMK AO2 SLP215 T01500028=
202104031853 METAR KSEA 031853Z 19006KT 10SM FEW045 SCT110 BKN220 13/04 A3015 RMK AO2 SLP218 T01330039=
202104031753 METAR KSEA 031753Z 19007KT 10SM FEW045 SCT120 BKN220 11/04 A3016 RMK AO2 SLP219 T01060039 10111 20050 53010=
202104031653 METAR KSEA 031653Z 14006KT 10SM FEW040 SCT110 BKN160 09/04 A3014 RMK AO2 SLP215 T00940044=
202104031553 METAR KSEA 031553Z 19005KT 10SM FEW040 FEW120 BKN180 08/05 A3014 RMK AO2 SLP212 T00780050=
202104031453 METAR KSEA 031453Z 16003KT 10SM FEW040 FEW120 BKN180 07/04 A3013 RMK AO2 SLP209 T00670039 53001=
202104031353 METAR KSEA 031353Z 14006KT 10SM FEW040 SCT120 BKN180 06/03 A3012 RMK AO2 SLP207 T00610033=
202104031253 METAR KSEA 031253Z 15006KT 10SM OVC190 06/03 A3012 RMK AO2 SLP206 T00610033=
202104031153 METAR KSEA 031153Z 00000KT 10SM FEW095 OVC220 06/03 A3013 RMK AO2 SLP209 T00560028 10078 20056 51001=
202104031053 METAR KSEA 031053Z 06003KT 10SM SCT095 OVC220 06/03 A3012 RMK AO2 SLP208 T00610028=
202104030953 METAR KSEA 030953Z 00000KT 10SM BKN220 OVC250 06/03 A3013 RMK AO2 SLP209 T00610028=
202104030853 METAR KSEA 030853Z 00000KT 10SM OVC250 07/03 A3012 RMK AO2 SLP208 T00670028 53004=
202104030753 METAR KSEA 030753Z 00000KT 10SM OVC250 08/03 A3012 RMK AO2 SLP206 T00780028=
202104030653 METAR KSEA 030653Z 35003KT 10SM FEW220 BKN250 08/03 A3011 RMK AO2 SLP204 T00780033 401390056=
202104030553 METAR KSEA 030553Z 32003KT 10SM BKN250 08/03 A3011 RMK AO2 SLP203 T00780033 10139 20072 51007=
202104030453 METAR KSEA 030453Z 31003KT 10SM BKN200 08/04 A3011 RMK AO2 SLP203 T00830039=
202104030353 METAR KSEA 030353Z 29003KT 10SM BKN200 09/03 A3010 RMK AO2 SLP199 T00940028=
202104030253 METAR KSEA 030253Z 00000KT 10SM BKN200 11/03 A3009 RMK AO2 SLP196 T01060028 53001=
202104030153 METAR KSEA 030153Z 21004KT 10SM FEW040 BKN250 13/01 A3008 RMK AO2 SLP194 T01280011=
202104030053 METAR KSEA 030053Z 19006KT 10SM FEW040 BKN250 13/01 A3009 RMK AO2 SLP195 T01330011=
202104022353 METAR KSEA 022353Z 23007KT 10SM FEW040 BKN250 13/02 A3009 RMK AO2 SLP195 T01330022 10139 20094 58001=
202104022253 METAR KSEA 022253Z VRB03KT 10SM SCT040 BKN250 13/02 A3009 RMK AO2 SLP197 T01330022=
202104022153 METAR KSEA 022153Z 22010KT 10SM SCT040 BKN230 13/03 A3009 RMK AO2 SLP197 T01280033=
202104022053 METAR KSEA 022053Z 20007KT 10SM SCT037 BKN200 12/03 A3009 RMK AO2 SLP197 T01220033 50004=
202104021953 METAR KSEA 021953Z VRB05KT 10SM BKN036 BKN200 11/03 A3009 RMK AO2 SLP198 T01110028=
202104021853 METAR KSEA 021853Z 26006KT 10SM FEW020 SCT040 BKN200 11/03 A3009 RMK AO2 SLP195 T01060033=
202104021753 METAR KSEA 021753Z 21006KT 10SM SCT020 BKN041 10/04 A3008 RMK AO2 SLP193 T01000044 10100 20056 51010=
202104021720 SPECI KSEA 021720Z 19005KT 10SM FEW018 SCT022 OVC044 09/04 A3007 RMK AO2 T00890039=
202104021653 METAR KSEA 021653Z 21006KT 10SM SCT016 BKN022 OVC044 08/04 A3007 RMK AO2 SLP190 T00830039=
202104021553 METAR KSEA 021553Z 19007KT 10SM OVC017 07/03 A3006 RMK AO2 SLP186 T00720033=
202104021536 SPECI KSEA 021536Z 15005KT 10SM BKN016 OVC044 07/03 A3006 RMK AO2 T00670033=
202104021453 METAR KSEA 021453Z 15007KT 10SM SCT016 BKN050 06/03 A3005 RMK AO2 SLP183 T00610033 51012=
202104021353 METAR KSEA 021353Z 13008KT 10SM SCT015 06/03 A3004 RMK AO2 SLP180 T00560028=
202104021253 METAR KSEA 021253Z 14007KT 10SM OVC015 06/03 A3003 RMK AO2 SLP176 T00610033=
202104021209 SPECI KSEA 021209Z 16006KT 10SM OVC016 06/03 A3001 RMK AO2 T00610033=
202104021153 METAR KSEA 021153Z 16007KT 10SM OVC014 06/04 A3001 RMK AO2 SLP170 T00610039 10078 20056 53007=
202104021053 METAR KSEA 021053Z 17005KT 10SM OVC010 07/04 A3000 RMK AO2 SLP167 T00670039=
202104020953 METAR KSEA 020953Z 21007KT 10SM OVC010 07/04 A3000 RMK AO2 SLP165 T00670044=
202104020943 SPECI KSEA 020943Z 21006KT 10SM BKN011 07/04 A2999 RMK AO2 T00670044=
202104020929 SPECI KSEA 020929Z 21006KT 10SM FEW009 BKN025 06/03 A2999 RMK AO2 T00560033=
202104020853 METAR KSEA 020853Z 21005KT 10SM FEW030 06/04 A2999 RMK AO2 SLP163 T00610039 51014=
202104020753 METAR KSEA 020753Z 20005KT 10SM FEW250 06/03 A2998 RMK AO2 SLP160 T00610033=
202104020653 METAR KSEA 020653Z 23005KT 10SM FEW120 07/03 A2997 RMK AO2 SLP155 T00720033 401440056=
202104020553 METAR KSEA 020553Z 22004KT 10SM FEW120 08/04 A2995 RMK AO2 SLP149 T00780044 10144 20067 51010=
202104020453 METAR KSEA 020453Z 35003KT 10SM FEW120 09/03 A2995 RMK AO2 SLP148 T00940028=
202104020353 METAR KSEA 020353Z 00000KT 10SM SCT200 09/04 A2994 RMK AO2 SLP144 T00940039=
202104020253 METAR KSEA 020253Z 33004KT 10SM SCT130 BKN200 11/03 A2992 RMK AO2 SLP138 T01110033 55002=
202104020153 METAR KSEA 020153Z 36006KT 10SM SCT150 BKN200 13/03 A2991 RMK AO2 SLP136 T01280033=
202104020053 METAR KSEA 020053Z 01004KT 10SM SCT160 BKN200 14/04 A2992 RMK AO2 SLP139 T01390039=
202104012353 METAR KSEA 012353Z 21004KT 10SM FEW030 SCT150 BKN200 14/02 A2992 RMK AO2 SLP139 T01440017 10144 20100 58009=
202104012253 METAR KSEA 012253Z 31003KT 10SM FEW030 FEW120 BKN200 14/03 A2994 RMK AO2 SLP144 T01390028=
202104012153 METAR KSEA 012153Z 25005KT 10SM FEW030 BKN200 13/03 A2994 RMK AO2 SLP145 T01330033=
202104012053 METAR KSEA 012053Z 22006KT 10SM FEW020 SCT150 BKN200 13/04 A2995 RMK AO2 SLP149 T01280044 58006=
202104011953 METAR KSEA 011953Z 21009KT 10SM FEW020 SCT150 BKN200 12/04 A2997 RMK AO2 SLP154 T01220044=
202104011853 METAR KSEA 011853Z VRB05KT 10SM FEW020 SCT150 BKN250 11/05 A2997 RMK AO2 SLP155 T01110050=
202104011753 METAR KSEA 011753Z 19007KT 10SM FEW020 SCT150 BKN250 11/05 A2997 RMK AO2 SLP155 T01060050 10106 20061 53007=
202104011653 METAR KSEA 011653Z 22006KT 10SM FEW020 SCT150 BKN250 09/04 A2996 RMK AO2 SLP151 T00940044=
202104011553 METAR KSEA 011553Z 25004KT 10SM FEW010 FEW150 BKN200 09/04 A2995 RMK AO2 SLP149 T00890039=
202104011453 METAR KSEA 011453Z 25004KT 10SM FEW150 BKN200 07/03 A2994 RMK AO2 SLP147 T00720028 53007=
202104011353 METAR KSEA 011353Z 22004KT 10SM OVC220 08/02 A2992 RMK AO2 SLP138 T00780022=
202104011253 METAR KSEA 011253Z 17007KT 10SM BKN250 07/03 A2992 RMK AO2 SLP136 T00720028=
202104011153 METAR KSEA 011153Z 15006KT 10SM SCT250 06/03 A2992 RMK AO2 SLP140 T00610033 10094 20056 56013=
202104011053 METAR KSEA 011053Z 18004KT 10SM BKN250 07/02 A2992 RMK AO2 SLP139 T00670022=
202104010953 METAR KSEA 010953Z 16007KT 10SM SCT250 06/02 A2994 RMK AO2 SLP146 T00610022=
202104010853 METAR KSEA 010853Z 14005KT 10SM SCT250 07/02 A2996 RMK AO2 SLP153 T00670022 56015=
202104010753 METAR KSEA 010753Z 15004KT 10SM FEW250 07/03 A2998 RMK AO2 SLP158 T00670028=
202104010653 METAR KSEA 010653Z 00000KT 10SM CLR 08/02 A2998 RMK AO2 SLP160 T00830022 401670017=
202104010553 METAR KSEA 010553Z 00000KT 10SM SCT250 09/03 A3001 RMK AO2 SLP168 T00890028 10167 20083 57015=
202104010453 METAR KSEA 010453Z 35003KT 10SM SCT250 10/02 A3002 RMK AO2 SLP173 T01000022=
202104010353 METAR KSEA 010353Z 00000KT 10SM SCT180 BKN250 11/02 A3004 RMK AO2 SLP178 T01060017=
202104010253 METAR KSEA 010253Z 35005KT 10SM SCT180 BKN250 12/01 A3005 RMK AO2 SLP184 T01170011 56027=
202104010153 METAR KSEA 010153Z 35005KT 10SM BKN250 14/01 A3007 RMK AO2 SLP190 T01440006=
202104010053 METAR KSEA 010053Z 30006KT 10SM BKN250 16/01 A3010 RMK AO2 SLP200 T01560011=

# No short TAF reports from KSEA in databse.

###################################
#  large TAF from KSEA
###################################
202104302322 TAF KSEA 302322Z 0100/0206 20015KT P6SM SCT027 SCT250 FM010600
                       25008KT P6SM BKN020 FM010900 23007KT 6SM
                       BR OVC015 FM011400 19008KT 1/2SM FG OVC020
                       FM011800 22007KT 1/2SM FG OVC015 FM012000
                       22008KT P6SM BKN050=
202104302051 KSEA 302051Z 3021/0124 21015KT P6SM SCT005 BKN060 BKN250 FM010000
                       21005KT P6SM BKN035
                      TEMPO 0100/0102 1 1/2SM BR FM010600 22008KT
                       P6SM BKN020 FM010900 14007KT 6SM BR OVC015
                       FM011400 16008KT 1/2SM FG OVC003 FM011800
                       22007KT 1/2SM FG OVC015=
202104301900 KSEA 301900Z 3019/0124 18010KT 1SM -RA BR BKN003 OVC010
                      TEMPO 3019/3020 1/2SM -RA FG FM302100 21008KT
                       5SM BR OVC020 FM010000 21005KT P6SM BKN035
                       FM010600 22008KT P6SM BKN020 FM010900 14007KT
                       6SM BR OVC015 FM011400 16008KT 1/2SM FG
                       OVC015=
202104301722 TAF KSEA 301722Z 3018/0124 18010KT 5SM BR BKN006 OVC020 FM302000
                       21008KT 6SM BR OVC020 FM010000 21005KT P6SM
                       BKN035 FM010600 22008KT P6SM BKN020 FM010900
                       14007KT P6SM OVC015 FM011200 16008KT 6SM
                       BR OVC025=
202104301453 KSEA 301453Z 3015/0118 18006KT 5SM -RA BR FEW015 BKN030 OVC050
                       FM301800 20008KT 6SM -RA BR OVC015 FM302000
                       21008KT 6SM BR BKN020 FM010000 21005KT P6SM
                       BKN035 FM010600 22008KT P6SM BKN020 FM010900
                       14007KT P6SM OVC015=
202104301129 TAF KSEA 301129Z 3012/0118 18008KT P6SM VCSH OVC015 FM301300 18006KT
                       P6SM -RA OVC015 FM301800 20008KT 6SM -RA
                       BR OVC015 FM010000 21005KT P6SM BKN020 FM010600
                       22008KT P6SM BKN020 FM010900 14007KT P6SM
                       OVC015=
202104300901 KSEA 300901Z 3009/0112 18008KT P6SM VCSH SCT020 BKN100
                      TEMPO 3009/3013 -RA BKN020 FM301300 18006KT
                       P6SM -RA OVC020 FM301800 20008KT 6SM -RA
                       BR OVC015 FM010100 21005KT P6SM OVC025=
202104300801 KSEA 300801Z 3008/0112 18008KT P6SM SCT040 BKN100 FM300900 18006KT
                       P6SM BKN035 OVC070 FM301300 18006KT P6SM
                       -RA OVC025 FM301800 20008KT 6SM -RA BR OVC015
                       FM010100 21005KT P6SM OVC025=
202104300520 TAF KSEA 300520Z 3006/0112 20012KT P6SM SCT100 OVC250 FM300900
                       18006KT P6SM BKN035 OVC070 FM301300 18006KT
                       P6SM -RA OVC025 FM301800 20008KT 6SM -RA
                       BR OVC015 FM010100 21005KT P6SM OVC025=
202104300303 KSEA 300303Z 3003/0106 20006KT P6SM SCT100 OVC250 FM300900 18006KT
                       P6SM BKN035 OVC070 FM301300 18006KT P6SM
                       -RA OVC025 FM301800 20008KT 6SM -RA BR OVC015
                       FM010100 21005KT P6SM OVC025=
202104292320 TAF KSEA 292320Z 3000/0106 25006KT P6SM BKN250 FM300300 20006KT
                       P6SM SCT080 OVC250 FM300900 18006KT P6SM
                       BKN035 OVC070 FM301300 18006KT P6SM -RA
                       OVC025 FM301800 20008KT 6SM -RA BR OVC015
                       FM010100 21005KT P6SM OVC025=
202104291722 TAF KSEA 291722Z 2918/3024 VRB03KT P6SM BKN250 FM292000 25006KT
                       P6SM BKN250 FM300300 20006KT P6SM SCT080
                       OVC150 FM300900 18006KT P6SM BKN035 OVC070
                       FM301300 18006KT P6SM -RA OVC025 FM301800
                       20008KT 6SM -RA BR OVC015=
202104291502 KSEA 291502Z 2915/3018 00000KT P6SM OVC200 FM292000 25006KT P6SM
                       SCT200 FM300300 20009KT P6SM SCT080 OVC150
                       FM300900 18010KT P6SM BKN030 OVC070 FM301100
                       18010KT P6SM -RA OVC025=
202104291120 TAF KSEA 291120Z 2912/3018 34006KT P6SM OVC200 FM291500 07003KT
                       P6SM BKN200 FM292000 25006KT P6SM SCT200
                       FM300300 20009KT P6SM SCT080 OVC150 FM300900
                       18010KT P6SM BKN030 OVC070 FM301100 18010KT
                       P6SM -RA OVC025=
202104290900 KSEA 290900Z 2909/3012 34006KT P6SM OVC200 FM291500 07003KT P6SM
                       BKN150 FM292000 25006KT P6SM SCT200 FM300300
                       20009KT P6SM SCT080 OVC150 FM300900 18010KT
                       P6SM BKN030 OVC060=
202104290525 TAF KSEA 290525Z 2906/3012 34006KT P6SM OVC200 FM291500 07003KT
                       P6SM BKN150 FM292000 25006KT P6SM SCT200
                       FM300300 20009KT P6SM SCT080 OVC150 FM300900
                       18010KT P6SM BKN030 OVC060=
202104290311 KSEA 290311Z 2903/3006 35007KT P6SM SCT120 OVC150 FM290600 01002KT
                       P6SM SCT100 BKN150 FM291500 07003KT P6SM
                       BKN150 FM292000 25006KT P6SM SCT200 FM300300
                       20009KT P6SM OVC080=
202104282339 TAF KSEA 282339Z 2900/3006 26005KT P6SM SCT160 BKN250 FM290200
                       35003KT P6SM SCT150 BKN200 FM290400 01002KT
                       P6SM SCT100 BKN200 FM291500 07003KT P6SM
                       BKN250 FM292000 25006KT P6SM BKN250=
202104282101 KSEA 282101Z 2821/2924 26005KT P6SM BKN150 BKN250 FM290400 35003KT
                       P6SM SCT100 BKN200 FM291300 04003KT P6SM
                       SCT100 BKN200 FM291500 10003KT P6SM BKN250=
202104281732 TAF KSEA 281732Z 2818/2924 VRB03KT P6SM BKN160 BKN200 FM282100
                       26005KT P6SM BKN200 FM290400 35003KT P6SM
                       SCT100 BKN200 FM291300 04003KT P6SM SCT100
                       BKN200 FM291500 10003KT P6SM BKN250=
202104281507 KSEA 281507Z 2815/2918 VRB03KT P6SM SCT050 BKN080 FM282100 26005KT
                       P6SM BKN100 BKN200 FM290400 01004KT P6SM
                       SCT100 BKN200 FM291500 05003KT P6SM SCT250=
202104281120 TAF KSEA 281120Z 2812/2918 VRB03KT P6SM SCT050 BKN080 FM282100
                       29005KT P6SM BKN100 BKN200 FM290400 01004KT
                       P6SM SCT100 BKN200=
202104280901 KSEA 280901Z 2809/2912 VRB03KT P6SM SCT050 BKN080 FM282100 29005KT
                       P6SM BKN100 BKN200 FM290300 01004KT P6SM
                       BKN100 BKN200=
202104280520 TAF KSEA 280520Z 2806/2912 24004KT P6SM FEW035 BKN120 FM280800
                       VRB03KT P6SM SCT050 BKN100 FM282100 29005KT
                       P6SM BKN100 BKN200 FM290300 01004KT P6SM
                       BKN100 BKN200=
202104280304 KSEA 280304Z 2803/2906 27004KT P6SM FEW035 BKN120 FM280400 VRB03KT
                       P6SM SCT050 BKN100 FM282100 29005KT P6SM
                       BKN100 BKN200 FM290300 01004KT P6SM BKN100
                       BKN200=
202104272321 TAF KSEA 272321Z 2800/2906 22008KT P6SM FEW035 BKN250 FM280400
                       VRB03KT P6SM SCT050 BKN100 FM282100 29005KT
                       P6SM BKN100 BKN200 FM290300 01004KT P6SM
                       BKN100 BKN200=
202104272100 KSEA 272100Z 2721/2824 23008KT P6SM FEW030 SCT060 BKN250 FM280400
                       VRB03KT P6SM SCT050 BKN100 FM282100 29005KT
                       P6SM BKN100 BKN200=
202104271720 TAF KSEA 271720Z 2718/2824 22007KT P6SM BKN023 FM272000 23007KT
                       P6SM BKN050 OVC100 FM280400 VRB03KT P6SM
                       SCT050 BKN100 FM282100 29005KT P6SM BKN100
                       BKN200=
202104271500 KSEA 271500Z 2715/2818 18005KT P6SM BKN023 FM271800 21007KT P6SM
                       BKN100 FM272200 25004KT P6SM OVC100=
202104271125 TAF KSEA 271125Z 2712/2818 21007KT P6SM BKN060 FM271800 21007KT
                       P6SM BKN100 FM272200 25004KT P6SM OVC100=
202104270901 KSEA 270901Z 2709/2812 23003KT P6SM BKN060 FM271800 20005KT P6SM
                       BKN060 FM272200 23007KT P6SM BKN060=
202104270522 TAF KSEA 270522Z 2706/2812 29003KT P6SM SCT040 SCT070 FM271000
                       15004KT P6SM BKN060 FM271800 20005KT P6SM
                       BKN060 FM272200 23007KT P6SM BKN060=
202104270307 KSEA 270307Z 2703/2806 29006KT P6SM SCT040 SCT070 FM271000 15004KT
                       P6SM BKN060 FM271800 20005KT P6SM BKN060
                       FM272200 23007KT P6SM BKN060=
202104262325 TAF KSEA 262325Z 2700/2806 26006KT P6SM SCT040 SCT070 FM271000
                       15004KT P6SM BKN060 FM271800 20005KT P6SM
                       BKN060 FM272200 23007KT P6SM BKN060=
202104262057 KSEA 262057Z 2621/2724 26006KT P6SM SCT035 SCT060 FM270300 20003KT
                       P6SM BKN060 FM271000 15004KT P6SM BKN060
                       FM271800 20005KT P6SM BKN060=
202104261728 TAF KSEA 261728Z 2618/2724 25006KT P6SM SCT017 FM270300 20003KT
                       P6SM BKN060 FM271000 15004KT P6SM BKN060
                       FM271800 20005KT P6SM BKN060=
202104261500 KSEA 261500Z 2615/2718 18005KT P6SM FEW009 FEW050 FM261900 25006KT
                       P6SM BKN050 FM270300 30003KT P6SM BKN060=
202104261259 KSEA 261259Z 2613/2718 21007KT P6SM BKN015 OVC030 FM261900 25006KT
                       P6SM BKN050 FM270300 30003KT P6SM BKN060=
202104261120 TAF KSEA 261120Z 2612/2718 VRB03KT P6SM BKN015 OVC030 FM261900
                       25006KT P6SM BKN050 FM270300 30003KT P6SM
                       BKN060=
202104260906 KSEA 260906Z 2609/2712 VRB03KT P6SM BKN015 OVC030 FM261900 25006KT
                       P6SM BKN050 FM270300 30003KT P6SM BKN060=
202104260520 TAF KSEA 260520Z 2606/2712 20008KT P6SM VCSH BKN025 OVC050 FM260900
                       VRB03KT P6SM OVC020 FM262000 26006KT P6SM
                       BKN035 FM270000 26006KT P6SM BKN060=
202104260302 KSEA 260302Z 2603/2706 20008KT P6SM VCSH FEW025 SCT050 BKN090 FM260900
                       VRB03KT P6SM OVC020 FM262000 26006KT P6SM
                       BKN035 FM270000 26006KT P6SM BKN060=
202104252325 TAF KSEA 252325Z 2600/2706 24013KT P6SM VCSH FEW025 SCT050 BKN090
                       FM260900 VRB03KT P6SM OVC020 FM261700 22003KT
                       P6SM OVC019 FM262000 26006KT P6SM BKN035
                       FM270000 26006KT P6SM BKN060=
202104252057 KSEA 252057Z 2521/2624 20006KT P6SM FEW027 SCT060 BKN100 FM252200
                       21008KT P6SM VCSH OVC050 FM260300 21004KT
                       P6SM OVC050 FM260900 17004KT P6SM OVC025
                       FM262100 20006KT P6SM OVC060=
202104251729 TAF KSEA 251729Z 2518/2624 21009KT P6SM FEW010 OVC030 FM252200
                       21008KT P6SM VCSH OVC050 FM260300 21004KT
                       P6SM OVC050 FM260900 17004KT P6SM OVC025
                       FM262100 20006KT P6SM OVC060=
202104251458 KSEA 251458Z 2515/2618 20008KT P6SM -SHRA BKN020 OVC030 FM252200
                       21008KT P6SM VCSH OVC050 FM260300 21004KT
                       P6SM OVC050 FM260900 17004KT P6SM OVC025=
202104251132 TAF KSEA 251132Z 2512/2618 20008KT P6SM -SHRA BKN015 OVC025 FM252200
                       21008KT P6SM VCSH OVC050 FM260300 21004KT
                       P6SM OVC050=
202104250901 KSEA 250901Z 2509/2612 13008KT 6SM -RA BR SCT010 OVC020 FM251100
                       16006KT P6SM -RA SCT007 BKN015 OVC020 FM252200
                       21007KT P6SM -SHRA OVC040=
202104250520 TAF KSEA 250520Z 2506/2612 18008KT P6SM -RA SCT010 OVC050 FM251000
                       16006KT P6SM -RA SCT010 OVC022 FM252200
                       21007KT P6SM -SHRA OVC040=
202104250302 KSEA 250302Z 2503/2606 18008KT P6SM -RA BKN010 OVC050 FM250600
                       18008KT P6SM SCT010 OVC050 FM251000 16006KT
                       P6SM VCSH SCT010 OVC022 FM252200 21007KT
                       P6SM VCSH OVC040=
202104242322 TAF KSEA 242322Z 2500/2606 18008KT P6SM -RA BKN010 BKN030 OVC050
                       FM250400 19005KT P6SM -RA OVC015 FM251600
                       16006KT P6SM VCSH OVC022 FM252200 21007KT
                       P6SM VCSH OVC040=
202104242000 KSEA 242000Z 2420/2524 21011KT P6SM -RA SCT010 BKN027 OVC040 FM250400
                       19005KT P6SM -RA OVC015 FM251600 16006KT
                       P6SM VCSH OVC022 FM252200 21007KT P6SM VCSH
                       BKN050=
202104241721 TAF KSEA 241721Z 2418/2524 21007KT 6SM -RA BR SCT007 BKN030 OVC050
                       TEMPO 2418/2420 BKN007 BKN015 OVC030 FM242100
                       20007KT P6SM -RA OVC012 FM250400 19005KT
                       P6SM -RA OVC015 FM251600 16006KT P6SM VCSH
                       OVC022 FM252200 21007KT P6SM VCSH BKN050=
202104241457 KSEA 241457Z 2415/2518 21007KT 6SM -RA BR SCT007 BKN030 OVC050
                       FM242100 20007KT P6SM -RA OVC012 FM250400
                       19005KT P6SM -RA OVC015 FM251600 16006KT
                       P6SM VCSH BKN022=
202104241302 KSEA 241302Z 2413/2518 18006KT 6SM -RA BR OVC010 FM242100 20007KT
                       P6SM -RA OVC012 FM250400 19005KT P6SM -RA
                       OVC015 FM251600 16006KT P6SM VCSH BKN022=
202104241122 TAF KSEA 241122Z 2412/2518 17007KT P6SM -RA SCT025 OVC040
                      TEMPO 2412/2415 BKN020 OVC035 FM241500 19006KT
                       6SM -RA BR OVC015 FM242100 22007KT P6SM
                       -RA OVC012 FM250400 19005KT P6SM -RA OVC015
                       FM251600 16006KT P6SM VCSH BKN022=
202104240900 KSEA 240900Z 2409/2512 21008KT 6SM -RA OVC022 FM241500 19006KT
                       6SM -RA BR OVC012 FM242100 22007KT P6SM
                       -RA OVC020 FM250400 19005KT P6SM -RA OVC016=
202104240646 KSEA 240646Z 2407/2512 21008KT 6SM -RA OVC022 FM241500 19006KT
                       6SM -RA BR OVC012 FM242100 22007KT P6SM
                       -RA OVC020 FM250400 19005KT P6SM -RA OVC016=
202104240528 TAF KSEA 240528Z 2406/2512 20010KT P6SM SCT040 OVC070 FM241000
                       19006KT P6SM -RA OVC022 FM241500 19006KT
                       6SM -RA BR OVC012 FM242100 22007KT P6SM
                       -RA OVC020 FM250400 19005KT P6SM -RA OVC016=
202104240313 KSEA 240313Z 2403/2506 22007KT P6SM OVC100 FM240700 22007KT P6SM
                       OVC070 FM241000 19006KT P6SM -RA OVC022
                       FM241500 19006KT 6SM -RA BR OVC014 FM242100
                       22007KT P6SM -RA OVC020=
202104232320 TAF KSEA 232320Z 2400/2506 23008KT P6SM FEW150 OVC250 FM240300
                       22007KT P6SM OVC050 FM240900 19006KT P6SM
                       -RA OVC022 FM241500 19006KT 6SM -RA BR OVC014
                       FM242100 22007KT P6SM -RA OVC020=
202104232057 KSEA 232057Z 2321/2424 22006KT P6SM FEW030 FEW150 OVC250 FM240300
                       22007KT P6SM OVC050 FM240900 19006KT P6SM
                       -RA OVC022 FM241500 19006KT 6SM -RA BR OVC014
                       FM242100 22007KT P6SM -RA OVC020=
202104231721 TAF KSEA 231721Z 2318/2424 19009KT P6SM FEW030 SCT250 FM240300
                       22007KT P6SM OVC050 FM240900 19006KT P6SM
                       -RA OVC022 FM241500 19006KT 6SM -RA BR OVC014
                       FM242100 22007KT P6SM -RA OVC020=
202104231458 KSEA 231458Z 2315/2418 17006KT P6SM BKN030 OVC180 FM231800 21006KT
                       P6SM BKN070 BKN120 FM240300 22007KT P6SM
                       OVC050 FM240900 19006KT P6SM -RA OVC022
                       FM241500 19006KT 6SM -RA BR OVC014=
202104231128 TAF KSEA 231128Z 2312/2418 19006KT P6SM SCT030 BKN200 FM231800
                       21006KT P6SM BKN070 BKN120 FM240300 22007KT
                       P6SM OVC050 FM240900 19006KT P6SM -RA OVC022
                       FM241500 19006KT 6SM -RA BR OVC014=
202104230901 KSEA 230901Z 2309/2412 19006KT P6SM FEW050 FM231000 19006KT P6SM
                       OVC045 FM231800 21006KT P6SM BKN070 BKN120
                       FM240300 22007KT P6SM OVC050 FM241100 19006KT
                       6SM -RA BR OVC015=
202104230524 TAF KSEA 230524Z 2306/2412 22005KT P6SM FEW050 FM231000 19006KT
                       P6SM OVC045 FM231800 21006KT P6SM BKN070
                       BKN120 FM240300 22007KT P6SM OVC050 FM241100
                       19006KT 6SM -RA BR OVC015=
202104230304 KSEA 230304Z 2303/2406 20005KT P6SM FEW050 FM230900 19006KT P6SM
                       OVC035 FM231800 20006KT P6SM BKN060 FM240300
                       22007KT P6SM OVC060=
202104222325 TAF KSEA 222325Z 2300/2406 23004KT P6SM SCT045 FM230100 22005KT
                       P6SM SCT050 FM230900 19006KT P6SM OVC035
                       FM231800 20006KT P6SM BKN060 FM240300 25010KT
                       P6SM OVC060=
202104222058 KSEA 222058Z 2221/2324 26008KT P6SM FEW023 SCT040 FM230100 22005KT
                       P6SM SCT050 SCT200 FM230900 19006KT P6SM
                       OVC030 FM231800 20006KT P6SM BKN035=
202104221918 KSEA 221918Z 2219/2324 21006KT P6SM SCT019 BKN030 FM230100 22005KT
                       P6SM SCT050 SCT200 FM230900 19006KT P6SM
                       OVC030 FM231800 20006KT P6SM BKN035=
202104221730 TAF KSEA 221730Z 2218/2324 20006KT P6SM OVC021 FM222100 23005KT
                       P6SM BKN035 FM230100 22005KT P6SM SCT050
                       SCT200 FM230900 19006KT P6SM OVC030 FM231800
                       20006KT P6SM BKN035=
202104221501 KSEA 221501Z 2215/2318 18009KT P6SM OVC015 FM221800 22007KT P6SM
                       OVC020 FM222100 23005KT P6SM BKN035 FM230100
                       22005KT P6SM SCT050 SCT200 FM230900 19008KT
                       P6SM OVC030=
202104221120 TAF KSEA 221120Z 2212/2318 21007KT P6SM OVC010 FM221800 23006KT
                       P6SM OVC017 FM222100 23005KT P6SM BKN035
                       FM230100 22005KT P6SM SCT050 SCT200 FM230900
                       19008KT P6SM OVC030=
202104220832 KSEA 220832Z 2209/2312 21006KT P6SM BKN008
                      TEMPO 2209/2211 SCT008 FM221200 19006KT P6SM
                       OVC010 FM221800 23006KT P6SM OVC017 FM222100
                       23005KT P6SM BKN050 BKN080 FM230100 22005KT
                       P6SM SCT050 SCT200 FM230900 19008KT P6SM
                       OVC030=
202104220536 TAF KSEA 220536Z 2206/2312 22006KT P6SM FEW060 SCT200 FM220900
                       19006KT P6SM SCT200 FM221300 19006KT P6SM
                       OVC012 FM221800 23006KT P6SM OVC022 FM222100
                       23005KT P6SM BKN050 BKN080 FM230100 22005KT
                       P6SM SCT050 SCT200 FM230900 19008KT P6SM
                       OVC030=
202104220313 KSEA 220313Z 2203/2306 35006KT P6SM BKN200 FM220900 19006KT P6SM
                       SCT200 FM221300 19006KT P6SM OVC012 FM221800
                       23006KT P6SM OVC022 FM222100 23005KT P6SM
                       BKN050 BKN080=
202104212325 TAF KSEA 212325Z 2200/2306 29009KT P6SM SCT080 SCT200 FM220300
                       33006KT P6SM BKN250 FM221200 VRB04KT P6SM
                       BKN030 FM221500 20005KT P6SM OVC022 FM221900
                       23005KT P6SM OVC035 FM222100 23005KT P6SM
                       BKN050 BKN080=
202104212103 KSEA 212103Z 2121/2224 VRB05KT P6SM SCT100 SCT250 FM220300 33006KT
                       P6SM BKN250 FM221200 VRB04KT P6SM BKN030
                       FM221500 20005KT P6SM OVC022 FM221900 23005KT
                       P6SM OVC035 FM222200 23005KT P6SM BKN050
                       BKN080=
202104211721 TAF KSEA 211721Z 2118/2224 16004KT P6SM FEW250 FM211930 27006KT
                       P6SM FEW250 FM212100 26008KT P6SM SCT250
                       FM220300 33006KT P6SM BKN250 FM221200 VRB04KT
                       P6SM BKN030 FM221500 20005KT P6SM OVC022=
202104211512 KSEA 211512Z 2115/2218 16004KT P6SM FEW250 FM211800 27006KT P6SM
                       FEW250 FM212100 26008KT P6SM SCT250 FM220300
                       33006KT P6SM BKN250 FM221200 VRB04KT P6SM
                       BKN030 FM221500 20005KT P6SM OVC022=
202104211131 TAF KSEA 211131Z 2112/2218 VRB03KT P6SM FEW250 FM211800 27006KT
                       P6SM FEW250 FM212100 26008KT P6SM SCT250
                       FM220300 33006KT P6SM BKN250 FM221200 VRB04KT
                       P6SM BKN030 FM221500 20005KT P6SM OVC022=
202104210902 KSEA 210902Z 2109/2212 03005KT P6SM SKC FM211800 28005KT P6SM SKC
                       FM212100 28008KT P6SM FEW250 FM220300 33006KT
                       P6SM BKN250 FM221100 VRB04KT P6SM BKN015=
202104210525 TAF KSEA 210525Z 2106/2212 02007KT P6SM SKC FM211800 28005KT P6SM
                       SKC FM212100 28008KT P6SM FEW250 FM220300
                       33006KT P6SM BKN250 FM221100 VRB04KT P6SM
                       BKN015=
202104210302 KSEA 210302Z 2103/2206 35008KT P6SM FEW050 FM210400 03003KT P6SM
                       SKC FM211800 30006KT P6SM SKC=
202104202320 TAF KSEA 202320Z 2100/2206 31008KT P6SM FEW050 FM210400 03003KT
                       P6SM SKC FM211800 30006KT P6SM SKC=
202104202102 KSEA 202102Z 2021/2124 31009KT P6SM FEW050 FM210600 03003KT P6SM
                       SKC FM211800 30004KT P6SM SKC=
202104201720 TAF KSEA 201720Z 2018/2124 31005KT P6SM SKC FM202100 34009KT P6SM
                       SKC FM210600 03003KT P6SM SKC FM211800 30004KT
                       P6SM SKC=
202104201503 KSEA 201503Z 2015/2118 VRB05KT P6SM FEW100 FM201700 31005KT P6SM
                       SKC FM202100 34009KT P6SM SKC FM210600 VRB03KT
                       P6SM SKC=
202104201221 KSEA 201221Z 2012/2118 08005KT P6SM FEW090 FM201700 31005KT P6SM
                       SKC FM202100 34009KT P6SM SKC FM210600 VRB03KT
                       P6SM SKC=
202104201124 TAF KSEA 201124Z 2012/2118 08005KT P6SM FEW090 FM201900 34009KT
                       P6SM SKC FM210600 VRB03KT P6SM SKC=
202104200902 KSEA 200902Z 2009/2112 08006KT P6SM SCT090 FM202000 34009KT P6SM
                       SKC FM210800 VRB03KT P6SM SKC=
202104200524 TAF KSEA 200524Z 2006/2112 VRB04KT P6SM BKN100 FM201200 VRB03KT
                       P6SM SCT090 FM202000 34009KT P6SM SKC FM210800
                       VRB03KT P6SM SKC=
202104200301 KSEA 200301Z 2003/2106 VRB03KT P6SM SCT200 FM201200 VRB03KT P6SM
                       SCT120 FM201800 32006KT P6SM FEW120=
202104192323 TAF KSEA 192323Z 2000/2106 VRB04KT P6SM FEW040 SCT250 FM200300
                       02006KT P6SM SCT200 FM201200 VRB03KT P6SM
                       SCT120 FM201800 32006KT P6SM FEW120=
202104192101 KSEA 192101Z 1921/2024 25005KT P6SM FEW040 SCT250 FM200300 02006KT
                       P6SM SCT200 FM201200 20003KT P6SM SCT120=
202104191720 TAF KSEA 191720Z 1918/2024 25004KT P6SM FEW250 FM192000 25006KT
                       P6SM SCT200 FM200300 02006KT P6SM SCT200
                       FM201200 20003KT P6SM SCT120=
202104191501 KSEA 191501Z 1915/2018 20005KT P6SM FEW250 FM192000 25006KT P6SM
                       SCT200 FM200300 02006KT P6SM SCT200 FM201200
                       20003KT P6SM BKN200=
202104191126 TAF KSEA 191126Z 1912/2018 18004KT P6SM SCT200 FM192000 25006KT
                       P6SM SCT200 FM200300 02006KT P6SM SCT200
                       FM201200 20003KT P6SM BKN200=
202104190905 KSEA 190905Z 1909/2012 20005KT P6SM SCT200 FM191200 18004KT P6SM
                       SCT200 FM192000 25006KT P6SM SCT200 FM200300
                       02007KT P6SM SCT200=
202104190536 TAF KSEA 190536Z 1906/2012 20006KT P6SM SCT200 FM191200 18004KT
                       P6SM SCT200 FM192000 25006KT P6SM SCT200
                       FM200300 02007KT P6SM SCT200=
202104190300 KSEA 190300Z 1903/2006 25008KT P6SM FEW200 FM190500 36004KT P6SM
                       SCT200 FM191500 12004KT P6SM SCT200=
202104182320 TAF KSEA 182320Z 1900/2006 29005KT P6SM SKC FM190500 36004KT P6SM
                       SCT200 FM191500 12004KT P6SM SCT200=
202104182110 KSEA 182110Z 1821/1924 25005KT P6SM SKC FM190100 29006KT P6SM FEW200
                       FM190500 36004KT P6SM SCT200 FM191500 12004KT
                       P6SM SCT200=
202104181723 TAF KSEA 181723Z 1818/1924 17004KT P6SM SKC FM181900 29006KT P6SM
                       FEW200 FM190500 36004KT P6SM SCT200 FM191500
                       12004KT P6SM SCT200=
202104181505 KSEA 181505Z 1815/1918 17004KT P6SM SKC FM181900 29006KT P6SM FEW200
                       FM190500 36004KT P6SM SCT200 FM191500 12004KT
                       P6SM SCT200=
202104181120 TAF KSEA 181120Z 1812/1918 VRB04KT P6SM SKC FM181900 27006KT P6SM
                       FEW200 FM190500 VRB04KT P6SM SCT200 FM191200
                       16005KT P6SM SCT200=
202104180900 KSEA 180900Z 1809/1912 VRB04KT P6SM SKC FM181900 27006KT P6SM SKC
                       FM190500 VRB04KT P6SM SKC=
202104180522 TAF KSEA 180522Z 1806/1912 VRB04KT P6SM SKC FM181900 27006KT P6SM
                       SKC FM190500 VRB04KT P6SM SKC=
202104180301 KSEA 180301Z 1803/1906 VRB05KT P6SM SKC FM181900 27006KT P6SM SKC=
202104172323 TAF KSEA 172323Z 1800/1906 31007KT P6SM SKC FM180400 03005KT P6SM
                       SKC FM181000 VRB04KT P6SM SKC FM181900 27006KT
                       P6SM SKC=
202104172100 KSEA 172100Z 1721/1824 29005KT P6SM SKC FM180400 03005KT P6SM SKC
                       FM181000 VRB04KT P6SM SKC FM181900 27006KT
                       P6SM SKC=
202104171721 TAF KSEA 171721Z 1718/1824 29005KT P6SM SKC FM180400 03005KT P6SM
                       SKC FM181000 VRB04KT P6SM SKC FM181900 27006KT
                       P6SM SKC=
202104171501 KSEA 171501Z 1715/1818 02003KT P6SM SKC FM171900 29005KT P6SM SKC
                       FM180400 03005KT P6SM SKC FM181000 VRB04KT
                       P6SM SKC=
202104171137 TAF KSEA 171137Z 1712/1818 03007KT P6SM SKC FM171900 29005KT P6SM
                       SKC FM180400 03005KT P6SM SKC FM181000 VRB04KT
                       P6SM SKC=
202104170901 KSEA 170901Z 1709/1812 03007KT P6SM SKC FM171900 29005KT P6SM SKC
                       FM180400 03005KT P6SM SKC=
202104170534 TAF KSEA 170534Z 1706/1812 03007KT P6SM SKC FM171900 29005KT P6SM
                       SKC FM180400 03005KT P6SM SKC=
202104170311 KSEA 170311Z 1703/1806 02010KT P6SM SKC FM170400 03005KT P6SM SKC
                       FM171900 29005KT P6SM SKC=
202104162340 TAF KSEA 162340Z 1700/1806 36009KT P6SM SKC FM170400 03005KT P6SM
                       SKC FM171900 29005KT P6SM SKC=
202104162106 KSEA 162106Z 1621/1724 36009KT P6SM SKC FM170400 03005KT P6SM SKC
                       FM171900 29005KT P6SM SKC=
202104161724 TAF KSEA 161724Z 1618/1724 03005KT P6SM SKC FM162200 36009KT P6SM
                       SKC FM170400 03005KT P6SM SKC FM171900 29005KT
                       P6SM SKC=
202104161500 KSEA 161500Z 1615/1718 04005KT P6SM SKC FM162200 36009KT P6SM SKC
                       FM170400 03005KT P6SM SKC=
202104161123 TAF KSEA 161123Z 1612/1718 09004KT P6SM SKC FM161900 35010KT P6SM
                       SKC FM170400 03007KT P6SM SKC=
202104160901 KSEA 160901Z 1609/1712 09004KT P6SM SKC FM161900 35010KT P6SM SKC
                       FM170400 03007KT P6SM SKC=
202104160533 TAF KSEA 160533Z 1606/1712 02008KT P6SM SKC FM161900 35010KT P6SM
                       SKC FM170400 03007KT P6SM SKC=
202104160259 KSEA 160259Z 1603/1706 35010KT P6SM SKC FM160600 02005KT P6SM SKC
                       FM161900 35009KT P6SM SKC=
202104152321 TAF KSEA 152321Z 1600/1706 35011KT P6SM SKC FM160600 02005KT P6SM
                       SKC FM161900 35009KT P6SM SKC=
202104152101 KSEA 152101Z 1521/1624 35009KT P6SM SKC FM160600 02005KT P6SM SKC=
202104151731 TAF KSEA 151731Z 1518/1624 36007KT P6SM SKC FM160600 03005KT P6SM
                       SKC=
202104151502 KSEA 151502Z 1515/1618 01005KT P6SM SKC FM152000 35008KT P6SM SKC
                       FM160300 02006KT P6SM SKC=
202104151127 TAF KSEA 151127Z 1512/1618 06005KT P6SM SKC FM152000 35008KT P6SM
                       SKC FM160300 02006KT P6SM SKC=
202104150900 KSEA 150900Z 1509/1612 04005KT P6SM SKC FM152000 35008KT P6SM SKC
                       FM160300 02006KT P6SM SKC=
202104150533 TAF KSEA 150533Z 1506/1612 01009KT P6SM SKC FM152000 35008KT P6SM
                       SKC FM160300 02006KT P6SM SKC=
202104150258 KSEA 150258Z 1503/1606 01006KT P6SM SKC FM152000 35008KT P6SM SKC=
202104142323 TAF KSEA 142323Z 1500/1606 35014G19KT P6SM SKC FM150200 01006KT
                       P6SM SKC FM152000 35008KT P6SM SKC=
202104142101 KSEA 142101Z 1421/1524 35012G19KT P6SM SKC FM150300 01006KT P6SM
                       SKC=
202104141738 TAF KSEA 141738Z 1418/1524 36010G18KT P6SM SKC FM142000 35012G22KT
                       P6SM SKC FM150300 01006KT P6SM SKC=
202104141504 KSEA 141504Z 1415/1518 02009KT P6SM SKC FM142000 35012G22KT P6SM
                       SKC FM150300 01006KT P6SM SKC=
202104141304 KSEA 141304Z 1413/1518 02005KT P6SM SKC FM142000 35010G22KT P6SM
                       SKC FM150300 01006KT P6SM SKC=
202104141138 TAF KSEA 141138Z 1412/1518 VRB06KT P6SM SKC FM142000 35010G22KT
                       P6SM SKC FM150300 01006KT P6SM SKC=
202104140904 KSEA 140904Z 1409/1512 02008KT P6SM SKC FM141900 36011G22KT P6SM
                       SKC FM150300 01005KT P6SM SKC=
202104140527 TAF KSEA 140527Z 1406/1512 03012KT P6SM SKC FM140900 02005KT P6SM
                       SKC FM141900 36011G22KT P6SM SKC FM150300
                       01005KT P6SM SKC=
202104140259 KSEA 140259Z 1403/1506 03012KT P6SM SKC FM140900 02005KT P6SM SKC
                       FM141900 36011G22KT P6SM SKC=
202104132337 TAF KSEA 132337Z 1400/1506 36022G26KT P6SM SKC FM140300 03012KT
                       P6SM SKC FM140900 02005KT P6SM SKC FM141900
                       36011G22KT P6SM SKC=
202104132101 KSEA 132101Z 1321/1424 36016G26KT P6SM SKC FM140300 03011KT P6SM
                       SKC FM141200 02005KT P6SM SKC FM141900 36009KT
                       P6SM SKC=
202104131726 TAF KSEA 131726Z 1318/1424 36009G17KT P6SM SKC FM132000 36016G26KT
                       P6SM SKC FM140300 03010KT P6SM SKC FM141200
                       02005KT P6SM SKC FM141900 36009KT P6SM SKC=
202104131505 KSEA 131505Z 1315/1418 03010KT P6SM SKC FM131700 36018G28KT P6SM
                       SKC FM140400 03012KT P6SM SKC FM141200 02005KT
                       P6SM SKC=
202104131122 TAF KSEA 131122Z 1312/1418 03010KT P6SM SKC FM131700 36018G28KT
                       P6SM SKC FM140400 03012KT P6SM SKC FM141200
                       02005KT P6SM SKC=
202104130901 KSEA 130901Z 1309/1412 03010KT P6SM SKC FM131700 36015G23KT P6SM
                       SKC FM140500 02012KT P6SM SKC=
202104130522 TAF KSEA 130522Z 1306/1412 02010KT P6SM SKC FM131700 36015G23KT
                       P6SM SKC FM140500 02012KT P6SM SKC=
202104130301 KSEA 130301Z 1303/1406 35012G18KT P6SM FEW090 FM130400 02010KT
                       P6SM FEW090 FM131800 36015G23KT P6SM SKC=
202104122321 TAF KSEA 122321Z 1300/1406 35015G23KT P6SM FEW090 FM130400 02010KT
                       P6SM FEW090 FM131800 36015G23KT P6SM SKC=
202104122104 KSEA 122104Z 1221/1324 35015G23KT P6SM FEW060 FM130400 02010KT
                       P6SM FEW090 FM131800 36015G23KT P6SM SKC=
202104121720 TAF KSEA 121720Z 1218/1324 01012KT P6SM SKC FM122100 36015G23KT
                       P6SM SCT090 FM130400 02010KT P6SM FEW090
                       FM131800 36015G23KT P6SM SKC=
202104121500 KSEA 121500Z 1215/1318 03010KT P6SM FEW200 FM121700 01012KT P6SM
                       FEW250 FM122100 36015G23KT P6SM SCT090 FM130400
                       02010KT P6SM FEW090=
202104121122 TAF KSEA 121122Z 1212/1318 03007KT P6SM FEW250 FM121700 01012KT
                       P6SM FEW250 FM122100 36015G23KT P6SM SCT090
                       FM130400 02010KT P6SM FEW090=
202104120905 KSEA 120905Z 1209/1312 03007KT P6SM FEW250 FM121700 03012KT P6SM
                       FEW250 FM122100 36015G23KT P6SM SCT090 FM130600
                       02010KT P6SM FEW090=
202104120528 TAF KSEA 120528Z 1206/1312 02009KT P6SM SKC FM121700 03012KT P6SM
                       SKC FM122100 36015G23KT P6SM SCT090 FM130600
                       02010KT P6SM FEW090=
202104120300 KSEA 120300Z 1203/1306 35012KT P6SM SKC FM120500 03007KT P6SM SCT250
                       FM121800 01012KT P6SM SKC FM122200 36015G23KT
                       P6SM SCT090=
202104112320 TAF KSEA 112320Z 1200/1306 34010KT P6SM FEW040 FM120500 03007KT
                       P6SM SCT250 FM121800 01012KT P6SM SKC FM122200
                       36015G23KT P6SM SCT090=
202104112100 KSEA 112100Z 1121/1224 36010KT P6SM FEW040 FM120500 03007KT P6SM
                       SKC FM121800 01012KT P6SM SKC FM122200 36015G23KT
                       P6SM SKC=
202104111720 TAF KSEA 111720Z 1118/1224 32006KT P6SM SCT020 FM112000 35011KT
                       P6SM FEW030 FM120500 03007KT P6SM SKC FM121800
                       01012KT P6SM SKC FM122200 36015G23KT P6SM
                       SKC=
202104111500 KSEA 111500Z 1115/1218 15004KT P6SM FEW025 FEW060 FM111900 35011KT
                       P6SM SKC FM120500 03007KT P6SM SKC=
202104111258 KSEA 111258Z 1113/1218 12005KT P6SM FEW060
                      TEMPO 1113/1116 BKN022 FM111900 35011KT P6SM
                       SKC FM120500 03007KT P6SM SKC=
202104111125 TAF KSEA 111125Z 1112/1218 08005KT P6SM SCT060 FM111900 35011KT
                       P6SM SKC FM120500 03007KT P6SM SKC=
202104110902 KSEA 110902Z 1109/1212 03007KT P6SM SCT070 FM111000 08005KT P6SM
                       SCT060 FM111900 34010KT P6SM SKC FM120500
                       03007KT P6SM SKC=
202104110521 TAF KSEA 110521Z 1106/1212 01007KT P6SM SCT070 FM111000 08005KT
                       P6SM SCT060 FM111900 34010KT P6SM SKC FM120500
                       03007KT P6SM SKC=
202104110258 KSEA 110258Z 1103/1206 01010KT P6SM SCT070 BKN250 FM110700 06005KT
                       P6SM SCT120 FM111900 35008KT P6SM SCT250=
202104102321 TAF KSEA 102321Z 1100/1206 29008KT P6SM SCT060 BKN120 FM110200
                       02008KT P6SM SCT120 FM110700 06005KT P6SM
                       SCT120 FM111900 35008KT P6SM SCT250=
202104101722 TAF KSEA 101722Z 1018/1124 23008KT P6SM SCT025 SCT050 FM102000
                       25010KT P6SM BKN060 FM102300 31010G18KT
                       P6SM BKN060 FM110200 02008KT P6SM SCT150
                       FM110700 06005KT P6SM SCT250 FM111900 35008KT
                       P6SM SCT250=
202104101504 KSEA 101504Z 1015/1118 24004KT P6SM BKN025
                      TEMPO 1015/1017 SCT025 BKN050 FM101700 26008KT
                       P6SM BKN050 FM102300 31010G18KT P6SM BKN050
                       FM110200 02008KT P6SM SCT150=
202104101342 KSEA 101342Z 1014/1118 23011KT P6SM VCSH SCT018 BKN060
                      TEMPO 1014/1016 BKN018 FM101700 26015KT P6SM
                       VCSH OVC050 FM102300 31017G24KT P6SM BKN050
                       FM110000 34013KT P6SM SCT050 FM110200 02010KT
                       P6SM SCT150=
202104101140 TAF KSEA 101140Z 1012/1118 21015G21KT P6SM VCSH SCT020 BKN060 FM101700
                       26015KT P6SM VCSH OVC050 FM102300 31017G24KT
                       P6SM BKN050 FM110000 34013KT P6SM SCT050
                       FM110200 02010KT P6SM SCT150=
202104100909 KSEA 100909Z 1009/1112 21015G21KT P6SM VCSH SCT020 BKN060 FM101700
                       26015KT P6SM VCSH OVC050 FM102300 31017G24KT
                       P6SM BKN050 FM110000 34013KT P6SM BKN050
                       FM110200 02010KT P6SM OVC050=
202104100534 TAF KSEA 100534Z 1006/1112 17012KT P6SM -RA OVC027 FM101000 21024G32KT
                       P6SM -RA OVC050 FM101700 31006KT P6SM VCSH
                       OVC050 FM102100 30012G20KT P6SM BKN050=
202104100303 KSEA 100303Z 1003/1106 22013G20KT P6SM SCT040 OVC060 FM100500 22020G32KT
                       P6SM -RA OVC025 FM101100 31006KT P6SM VCSH
                       OVC050 FM101700 30012G20KT P6SM BKN050=
202104092339 TAF KSEA 092339Z 1000/1106 22013KT P6SM OVC050 FM100400 22020G32KT
                       P6SM -RA OVC025 FM101100 31006KT P6SM VCSH
                       OVC050 FM101700 30012G20KT P6SM BKN050=
202104092108 KSEA 092108Z 0921/1024 21013KT P6SM SCT050 BKN120 FM092300 22013KT
                       P6SM OVC050 FM100400 22020G32KT P6SM -RA
                       OVC025 FM101100 31006KT P6SM VCSH OVC050=
202104091720 TAF KSEA 091720Z 0918/1024 19007KT P6SM SCT200 FM091900 21010KT
                       P6SM SCT050 BKN120 FM092300 20013KT P6SM
                       OVC050 FM100400 21012G20KT P6SM -RA OVC025
                       FM100700 20020G27KT 6SM -RA BR OVC025 FM101100
                       22025G35KT P6SM VCSH OVC050=
202104091510 KSEA 091510Z 0915/1018 19007KT P6SM SCT200 FM091900 21010KT P6SM
                       SCT050 BKN120 FM092300 20013KT P6SM OVC050
                       FM100400 21012G20KT P6SM -RA OVC025 FM100700
                       20020G27KT 6SM -RA BR OVC025 FM101100 22025G35KT
                       P6SM VCSH OVC050=
202104091142 TAF KSEA 091142Z 0912/1018 14005KT P6SM SCT200 FM091900 21010KT
                       P6SM SCT050 BKN120 FM092300 20013KT P6SM
                       OVC050 FM100400 21012G20KT P6SM -RA OVC025
                       FM100700 20020G27KT 6SM -RA BR OVC025 FM101100
                       22025G35KT P6SM VCSH OVC050=
202104090909 KSEA 090909Z 0909/1012 16006KT P6SM SCT045 BKN250 FM091900 21010KT
                       P6SM SCT050 BKN120 FM092300 22012G18KT P6SM
                       OVC050 FM100300 21012G18KT P6SM -RA OVC025=
202104090520 TAF KSEA 090520Z 0906/1012 21008KT P6SM FEW040 SCT070 BKN250 FM090900
                       16006KT P6SM FEW050 BKN250 FM091900 21010KT
                       P6SM SCT050 BKN120 FM092300 22012G18KT P6SM
                       OVC050 FM100300 21012G18KT P6SM -RA OVC025=
202104090301 KSEA 090301Z 0903/1006 21008KT P6SM FEW040 SCT070 BKN250 FM090900
                       16006KT P6SM FEW050 BKN250 FM091900 21010KT
                       P6SM SCT050 BKN120 FM092300 22012G18KT P6SM
                       OVC050 FM100300 21012G18KT P6SM -RA OVC025=
202104082330 TAF KSEA 082330Z 0900/1006 24008KT P6SM SCT040 BKN070
                      TEMPO 0900/0904 31006KT FM090900 16006KT
                       P6SM FEW050 BKN250 FM091900 21010KT P6SM
                       SCT050 BKN120 FM092300 22012G18KT P6SM OVC050
                       FM100300 21012G18KT P6SM -RA OVC025=
202104082101 KSEA 082101Z 0821/0924 21007KT P6SM SCT050 SCT250
                      TEMPO 0821/0901 BKN050 BKN250 FM090300 29006KT
                       P6SM SCT080 BKN100 FM090900 17005KT P6SM
                       BKN100=
202104081729 TAF KSEA 081729Z 0818/0924 19009KT P6SM SCT020 SCT050 FM082000
                       25010KT P6SM BKN050 FM090300 29006KT P6SM
                       SCT080 BKN100 FM090900 17005KT P6SM BKN100=
202104081500 KSEA 081500Z 0815/0918 15008KT P6SM BKN020 FM081700 23008KT P6SM
                       BKN025 FM082000 25010KT P6SM BKN050 FM090300
                       29006KT P6SM SCT080 BKN100=
202104081128 TAF KSEA 081128Z 0812/0918 23009KT P6SM VCSH BKN010 OVC015 FM081400
                       22012KT P6SM BKN015 OVC025 FM081700 23012KT
                       P6SM OVC025 FM082000 25010KT P6SM BKN050
                       FM090300 29006KT P6SM SCT080 BKN100=
202104080907 KSEA 080907Z 0809/0912 23015G23KT P6SM VCSH BKN012 OVC025 FM081200
                       21018G24KT P6SM BKN013 OVC025 FM081700 23012KT
                       P6SM OVC025 FM082000 25010KT P6SM BKN050
                       FM090300 29006KT P6SM SCT080 BKN100=
202104080524 TAF KSEA 080524Z 0806/0912 20015KT P6SM -RA BKN015 OVC030 FM080700
                       21019G27KT 6SM -RA BR OVC019 FM081200 21018G24KT
                       P6SM SCT025 OVC035 FM081800 23012KT P6SM
                       BKN050 FM082000 25010KT P6SM BKN050 FM090300
                       29006KT P6SM SCT080 BKN100=
202104080258 KSEA 080258Z 0803/0906 22012G20KT P6SM -RA BKN020 OVC030 FM080600
                       20010G18KT P6SM VCSH BKN040 OVC050 FM080900
                       24007KT P6SM BKN050=
202104080121 KSEA 080121Z 0801/0906 22012G20KT P6SM -RA SCT015 BKN025 OVC050
                       FM080600 20010G18KT P6SM VCSH BKN040 OVC050
                       FM080900 24007KT P6SM BKN050=
202104072320 TAF KSEA 072320Z 0800/0906 20012G20KT P6SM -RA SCT025 BKN035 OVC040
                       FM080600 20010G18KT P6SM VCSH BKN040 OVC050
                       FM080900 24007KT P6SM BKN050=
202104072109 KSEA 072109Z 0721/0824 20012G20KT P6SM -RA SCT015 BKN025 OVC040
                       FM080200 20010G18KT P6SM VCSH SCT020 BKN030
                       OVC050 FM080900 24007KT P6SM BKN050=
202104071724 TAF KSEA 071724Z 0718/0824 20010G18KT P6SM OVC018 FM072000 20012G20KT
                       P6SM -RA SCT015 OVC020 FM080200 20016G26KT
                       P6SM SCT020 BKN030 OVC050=
202104071503 KSEA 071503Z 0715/0818 20010KT P6SM OVC015 FM072000 20012G20KT
                       P6SM -RA SCT015 OVC020 FM080200 20016G26KT
                       P6SM SCT020 BKN030 OVC050=
202104071126 TAF KSEA 071126Z 0712/0818 20010KT P6SM OVC011 FM072000 20012G20KT
                       P6SM -RA SCT012 OVC020 FM080200 20016G26KT
                       P6SM SCT020 BKN030 OVC050=
202104070913 KSEA 070913Z 0709/0812 22006KT P6SM SCT100 BKN250 FM071200 20010KT
                       P6SM OVC011 FM072000 20012G20KT P6SM -RA
                       OVC020 FM080200 20016G26KT P6SM SCT020 BKN030
                       OVC050=
202104070541 TAF KSEA 070541Z 0706/0812 VRB04KT P6SM BKN250 FM070900 22006KT
                       P6SM SCT100 BKN250 FM071200 20010KT P6SM
                       BKN025 OVC050 FM072000 20012G20KT P6SM -RA
                       OVC020 FM080200 20016G26KT P6SM SCT020 BKN030
                       OVC050=
202104070307 KSEA 070307Z 0703/0806 VRB04KT P6SM BKN250 FM070900 22006KT P6SM
                       SCT100 BKN250 FM071200 20010KT P6SM BKN025
                       OVC050 FM072000 20012G20KT P6SM OVC020
                      PROB30 0720/0724 P6SM -RA=
202104062336 TAF KSEA 062336Z 0700/0806 25005KT P6SM SCT250 FM070200 02003KT
                       P6SM BKN250 FM070900 22006KT P6SM SCT100
                       BKN250 FM071200 20010KT P6SM BKN025 OVC050
                       FM072000 20012G20KT P6SM OVC025
                      PROB30 0720/0724 P6SM -RA OVC025=
202104062103 KSEA 062103Z 0621/0724 25005KT P6SM SCT250 FM070200 02003KT P6SM
                       BKN250 FM070900 22006KT P6SM SCT100 BKN250
                       FM071200 20010KT P6SM BKN025 OVC050 FM072000
                       20010KT P6SM OVC025
                      PROB30 0720/0724 P6SM -RA OVC025=
202104061732 TAF KSEA 061732Z 0618/0724 20005KT P6SM SKC FM062300 26006KT P6SM
                       BKN250 FM070200 02004KT P6SM BKN250 FM070900
                       22006KT P6SM SCT100 BKN250 FM071200 20010KT
                       P6SM BKN020 OVC040=
202104061507 KSEA 061507Z 0615/0718 18005KT P6SM SKC FM062300 26006KT P6SM BKN250
                       FM070200 VRB03KT P6SM BKN250 FM070800 22006KT
                       P6SM SCT100 BKN250 FM071200 20010KT P6SM
                       BKN020 OVC040=
202104061127 TAF KSEA 061127Z 0612/0718 18006KT P6SM SKC FM062300 33006KT P6SM
                       BKN250 FM070500 22006KT P6SM SCT100 BKN250
                       FM071200 18010KT P6SM BKN020 OVC040=
202104060916 KSEA 060916Z 0609/0712 VRB03KT P6SM SKC FM061400 VRB03KT P6SM FEW020
                       FM061800 24007KT P6SM FEW250 FM062300 33006KT
                       P6SM BKN250 FM070500 22006KT P6SM SCT100
                       BKN250=
202104060532 TAF KSEA 060532Z 0606/0712 VRB03KT P6SM SKC FM061400 VRB03KT P6SM
                       FEW020 FM061800 24007KT P6SM FEW250 FM062300
                       33006KT P6SM BKN250 FM070500 22006KT P6SM
                       SCT100 BKN250=
202104060258 KSEA 060258Z 0603/0706 25005KT P6SM SKC FM060500 VRB03KT P6SM SKC
                       FM061300 VRB03KT P6SM FEW020 FM061800 24007KT
                       P6SM FEW250=
202104052338 TAF KSEA 052338Z 0600/0706 24006KT P6SM SKC FM060400 VRB03KT P6SM
                       SCT250 FM061200 VRB03KT P6SM BKN250=
202104052103 KSEA 052103Z 0521/0624 24006KT P6SM SKC FM060400 VRB03KT P6SM SCT250
                       FM061200 VRB03KT P6SM BKN250=
202104051726 TAF KSEA 051726Z 0518/0624 24006KT P6SM SKC
                      TEMPO 0518/0521 SCT025 SCT050 FM060400 VRB03KT
                       P6SM SKC=
202104051606 KSEA 051606Z 0516/0618 21004KT P6SM SCT007 BKN022 FM051800 24006KT
                       P6SM SKC FM060400 VRB03KT P6SM SKC=
202104051503 KSEA 051503Z 0515/0618 VRB03KT P6SM SCT007 BKN015
                      TEMPO 0515/0516 SCT001 BKN003 FM051700 25008KT
                       P6SM SKC FM060400 VRB03KT P6SM SKC=
202104051341 KSEA 051341Z 0514/0618 VRB03KT P6SM SKC
                      TEMPO 0514/0516 SCT001 BKN003 FM051700 25008KT
                       P6SM SKC FM060400 VRB03KT P6SM SKC=
202104051120 TAF KSEA 051120Z 0512/0618 VRB03KT P6SM SKC FM051700 25008KT P6SM
                       SKC FM060400 VRB03KT P6SM SKC=
202104050901 KSEA 050901Z 0509/0612 01007KT P6SM SKC FM051400 15004KT P6SM SCT050
                       FM051700 25008KT P6SM SKC FM060400 VRB03KT
                       P6SM SKC=
202104050520 TAF KSEA 050520Z 0506/0612 01007KT P6SM SKC FM051400 15004KT P6SM
                       SCT050 FM051700 25008KT P6SM SKC=
202104050311 KSEA 050311Z 0503/0606 35010KT P6SM VCSH SCT040 FM050400 03007KT
                       P6SM SKC FM051400 15004KT P6SM SCT050 FM051700
                       25008KT P6SM SKC=
202104042323 TAF KSEA 042323Z 0500/0606 35010KT P6SM VCSH BKN050
                      TEMPO 0500/0503 -RA BKN035 FM050400 03007KT
                       P6SM SKC FM051400 15004KT P6SM SCT050 FM051700
                       25008KT P6SM SKC=
202104042139 KSEA 042139Z 0422/0524 33010KT P6SM VCSH BKN050
                      TEMPO 0500/0503 -RA FM050400 05007KT P6SM
                       SKC FM051400 13004KT P6SM SCT050 FM051700
                       25006KT P6SM SKC=
202104041723 TAF KSEA 041723Z 0418/0524 36012KT P6SM VCSH SCT030 OVC040
                      TEMPO 0418/0422 -RA BKN030 FM042200 34010KT
                       P6SM BKN050 FM050400 05007KT P6SM SKC FM051400
                       13004KT P6SM SCT050 FM051700 25006KT P6SM
                       SKC=
202104041505 KSEA 041505Z 0415/0518 03010KT P6SM VCSH OVC030 FM042000 35007KT
                       P6SM OVC030 FM042200 34008KT P6SM BKN040
                       FM050400 05007KT P6SM SCT040 SCT250=
202104041120 TAF KSEA 041120Z 0412/0518 03012KT P6SM VCSH OVC025 FM042000 35007KT
                       P6SM OVC030 FM042200 34008KT P6SM BKN040
                       FM050400 05007KT P6SM SCT040 SCT250=
202104040902 KSEA 040902Z 0409/0512 35009KT P6SM VCSH SCT015 OVC020 FM041000
                       01012KT P6SM -RA OVC015 FM042000 35007KT
                       P6SM VCSH OVC020 FM042200 34008KT P6SM BKN040
                       FM050400 05007KT P6SM SCT040=
202104040520 TAF KSEA 040520Z 0406/0512 23008KT P6SM VCSH SCT060 OVC080 FM040800
                       35006KT P6SM -RA SCT015 OVC020 FM041000
                       01012KT P6SM -RA OVC015 FM042000 35007KT
                       P6SM VCSH OVC020 FM042200 34008KT P6SM BKN040
                       FM050400 35007KT P6SM SCT040=
202104040310 KSEA 040310Z 0403/0506 23008KT P6SM VCSH SCT050 OVC080 FM040800
                       35006KT P6SM -RA SCT015 OVC020 FM041000
                       01012KT P6SM -RA OVC015 FM042000 35007KT
                       P6SM VCSH OVC020 FM042200 34008KT P6SM BKN040
                       FM050400 35007KT P6SM SCT040=
202104032321 TAF KSEA 032321Z 0400/0506 25009KT P6SM BKN070 OVC100 FM040300
                       29007KT P6SM VCSH BKN040 OVC060 FM040700
                       35006KT P6SM -RA SCT015 OVC020 FM041000
                       01012KT P6SM -RA OVC015 FM042000 35007KT
                       P6SM VCSH OVC020 FM042200 34008KT P6SM BKN040
                       FM050400 35007KT P6SM SCT040=
202104032102 KSEA 032102Z 0321/0424 24009KT P6SM BKN100 OVC200 FM032300 25008KT
                       P6SM BKN060 OVC100 FM040200 29005KT P6SM
                       VCSH BKN040 OVC060 FM040500 35006KT P6SM
                       -RA SCT015 OVC020 FM041000 01012KT P6SM
                       -RA OVC015 FM042000 35007KT P6SM VCSH OVC020
                       FM042200 34008KT P6SM SCT040=
202104031734 TAF KSEA 031734Z 0318/0424 22007KT P6SM BKN100 OVC180 FM032300
                       25008KT P6SM BKN060 OVC100 FM040200 29005KT
                       P6SM VCSH BKN040 OVC060 FM040500 35006KT
                       P6SM -RA SCT015 OVC020 FM041000 01012KT
                       P6SM -RA OVC015 FM042000 35007KT P6SM VCSH
                       OVC020 FM042200 34008KT P6SM SCT040=
202104031501 KSEA 031501Z 0315/0418 VRB03KT P6SM SCT120 OVC200 FM032000 23006KT
                       P6SM BKN090 OVC120 FM040000 26007KT P6SM
                       BKN050 OVC100 FM040300 29005KT P6SM VCSH
                       BKN035 OVC050 FM040700 34005KT P6SM VCSH
                       OVC030=
202104031120 TAF KSEA 031120Z 0312/0418 VRB03KT P6SM SCT120 OVC200 FM032000
                       23006KT P6SM BKN090 OVC120 FM040000 26007KT
                       P6SM BKN050 OVC100 FM040300 29005KT P6SM
                       VCSH BKN035 OVC050 FM040700 34005KT P6SM
                       VCSH OVC030=
202104030901 KSEA 030901Z 0309/0412 VRB03KT P6SM BKN200 FM031200 04004KT P6SM
                       SCT120 OVC200 FM032000 23006KT P6SM BKN090
                       OVC120 FM040000 24007KT P6SM BKN050 OVC100
                       FM040300 21005KT P6SM VCSH BKN035 OVC050
                       FM040700 34005KT P6SM VCSH OVC030=
202104030520 TAF KSEA 030520Z 0306/0412 VRB03KT P6SM BKN200 FM031200 04004KT
                       P6SM SCT120 OVC200 FM032000 23006KT P6SM
                       BKN090 OVC120 FM040000 24007KT P6SM BKN050
                       OVC100 FM040300 21005KT P6SM VCSH BKN035
                       OVC050=
202104030300 KSEA 030300Z 0303/0406 00000KT P6SM BKN200 FM031200 04004KT P6SM
                       SCT120 OVC200 FM032000 23006KT P6SM BKN090
                       OVC120 FM040000 24007KT P6SM BKN050 OVC100
                       FM040300 21005KT P6SM VCSH BKN035 OVC050=
202104022337 TAF KSEA 022337Z 0300/0406 24007KT P6SM SCT050 BKN200 FM030300
                       03004KT P6SM BKN200 FM031200 04004KT P6SM
                       SCT120 OVC200 FM032000 23006KT P6SM BKN090
                       OVC120 FM040000 24007KT P6SM BKN050 OVC100
                       FM040300 21005KT P6SM VCSH BKN035 OVC050=
202104022111 KSEA 022111Z 0221/0324 21006KT P6SM SCT050 BKN200 FM022200 24007KT
                       P6SM SCT050 SCT200 FM030300 03004KT P6SM
                       SCT200 FM031200 04004KT P6SM SCT120 OVC200
                       FM032000 23006KT P6SM BKN090 OVC120=
202104021740 TAF KSEA 021740Z 0218/0324 18007KT P6SM BKN020 BKN050
                      TEMPO 0218/0220 SCT025 BKN050 FM022000 21006KT
                       P6SM BKN050 BKN200 FM022200 24007KT P6SM
                       SCT050 SCT200 FM030300 03004KT P6SM SCT200
                       FM031200 04004KT P6SM SCT120 OVC200 FM032000
                       23006KT P6SM BKN090 OVC120=
202104021503 KSEA 021503Z 0215/0318 18007KT P6SM BKN018 BKN050
                      TEMPO 0215/0219 SCT022 BKN050 FM021900 21006KT
                       P6SM BKN050 BKN200 FM022200 24007KT P6SM
                       SCT050 SCT200 FM030300 03004KT P6SM SCT200=
202104021300 KSEA 021300Z 0213/0318 21004KT P6SM OVC015 FM021500 19005KT P6SM
                       BKN020 FM021800 23006KT P6SM SCT030 SCT250
                       FM030300 03004KT P6SM SCT250=
202104021120 TAF KSEA 021120Z 0212/0318 21004KT P6SM OVC010 FM021400 19005KT
                       P6SM BKN025 FM021800 23006KT P6SM SCT030
                       SCT250 FM030300 03004KT P6SM SCT250=
202104020902 KSEA 020902Z 0209/0312 VRB03KT P6SM SCT030 SCT200 FM021000 14004KT
                       P6SM SCT025 BKN060 FM021400 19005KT P6SM
                       SCT025 OVC040 FM021800 23006KT P6SM SCT040
                       FM030300 01004KT P6SM SCT250=
202104020528 TAF KSEA 020528Z 0206/0312 VRB03KT P6SM SCT100 SCT200 FM021000
                       14004KT P6SM SCT025 BKN060 FM021400 19005KT
                       P6SM SCT025 OVC040 FM021800 23006KT P6SM
                       SCT040=
202104020300 KSEA 020300Z 0203/0306 33004KT P6SM SCT120 BKN200 FM020600 00000KT
                       P6SM SCT030 BKN090 BKN200 FM021000 18005KT
                       P6SM SCT025 BKN060
                      TEMPO 0210/0214 BKN025 BKN060 FM021800 VRB04KT
                       P6SM SCT040=
202104012320 TAF KSEA 012320Z 0200/0306 31005KT P6SM FEW030 SCT120 BKN200 FM020600
                       00000KT P6SM SCT030 BKN090 BKN200 FM021000
                       18005KT P6SM SCT025 BKN060
                      TEMPO 0210/0214 BKN025 BKN060 FM021800 VRB04KT
                       P6SM SCT040=
202104012102 KSEA 012102Z 0121/0224 22006KT P6SM FEW020 SCT150 BKN200 FM020600
                       18006KT P6SM SCT030 BKN060
                      TEMPO 0210/0214 BKN025 BKN050 FM021700 VRB04KT
                       P6SM SCT050=
202104011720 TAF KSEA 011720Z 0118/0224 23007KT P6SM SCT020 SCT070 BKN200 FM020600
                       18006KT P6SM SCT030 BKN060
                      TEMPO 0210/0214 BKN025 BKN050 FM021700 VRB04KT
                       P6SM SCT050=
202104011503 KSEA 011503Z 0115/0218 24004KT P6SM OVC200 FM012200 24008KT P6SM
                       SCT070 BKN100 OVC200 FM020300 18006KT P6SM
                       SCT040 BKN060=
202104011120 TAF KSEA 011120Z 0112/0218 20004KT P6SM BKN250 FM012200 26010KT
                       P6SM SCT070 BKN100 FM020300 11005KT P6SM
                       SCT040 BKN060=
202104010900 KSEA 010900Z 0109/0212 VRB04KT P6SM SCT250 FM011200 20004KT P6SM
                       BKN250 FM012200 26010KT P6SM SCT070 BKN100
                       FM020300 VRB03KT P6SM SCT040 BKN060=
202104010520 TAF KSEA 010520Z 0106/0212 VRB04KT P6SM BKN250 FM011200 20004KT
                       P6SM BKN250 FM012200 26010KT P6SM SCT070
                       BKN100 FM020300 VRB03KT P6SM SCT040 BKN060=
202104010305 KSEA 010305Z 0103/0206 35005KT P6SM SCT180 BKN250 FM011200 20004KT
                       P6SM BKN250 FM012200 26010KT P6SM SCT070
                       BKN100=
202104010303 KSEA 010303Z 0103/0206 35005KT P6SM SCT180 BKN250 FM011200 20004KT
                       P6SM SCT250 FM012200 26010KT P6SM SCT070
                       BKN100=