##########################################################
# Query made at 02/17/2025 21:27:46 UTC
# Time interval: from 06/01/2021 00:00  to 06/30/2021 23:59  UTC
##########################################################

##########################################################
# KSEA, Seattle, Seattle-Tacoma International Airport (United States)
# WMO index: 72793. WIGOS ID: 0-20000-0-72793
# Latitude 47-27-00N. Longitude 122-17-59W. Altitude 130 m.
##########################################################

###################################
#  METAR/SPECI from KSEA
###################################
202106302353 METAR KSEA 302353Z 25008KT 10SM SCT027 BKN080 23/15 A2991 RMK AO2 SLP133 T02280150 10233 20183 55001=
202106302327 SPECI KSEA 302327Z 23009KT 10SM BKN025 23/15 A2991 RMK AO2 T02280150=
202106302253 METAR KSEA 302253Z 21011KT 10SM SCT022 23/14 A2991 RMK AO2 SLP133 T02280144=
202106302225 SPECI KSEA 302225Z 22010G17KT 10SM SCT022 22/14 A2991 RMK AO2 T02220144=
202106302153 METAR KSEA 302153Z 22009G17KT 10SM BKN022 22/14 A2991 RMK AO2 SLP133 T02220144=
202106302053 METAR KSEA 302053Z 18010KT 10SM BKN022 21/14 A2992 RMK AO2 SLP135 T02110144 51000=
202106301953 METAR KSEA 301953Z 19008KT 10SM OVC020 21/14 A2992 RMK AO2 SLP134 T02060144=
202106301853 METAR KSEA 301853Z 20007KT 10SM OVC018 19/14 A2992 RMK AO2 SLP136 T01940144=
202106301753 METAR KSEA 301753Z 19008KT 10SM OVC016 18/14 A2992 RMK AO2 SLP134 T01830139 10189 20156 51007=
202106301653 METAR KSEA 301653Z 21007KT 10SM OVC014 18/14 A2991 RMK AO2 SLP134 T01780139=
202106301553 METAR KSEA 301553Z 22008KT 10SM OVC014 17/14 A2990 RMK AO2 SLP130 T01720139=
202106301453 METAR KSEA 301453Z 21008KT 10SM OVC012 17/14 A2990 RMK AO2 SLP127 T01720139 51010=
202106301353 METAR KSEA 301353Z 21008KT 10SM OVC010 17/14 A2989 RMK AO2 SLP125 T01670139=
202106301321 SPECI KSEA 301321Z 20008KT 10SM OVC010 16/14 A2989 RMK AO2 T01610139=
202106301253 METAR KSEA 301253Z 16007KT 10SM FEW010 BKN017 16/14 A2988 RMK AO2 SLP120 T01560139=
202106301238 SPECI KSEA 301238Z 18006KT 10SM BKN017 16/14 A2988 RMK AO2 T01560139=
202106301153 METAR KSEA 301153Z 20007KT 10SM FEW015 16/14 A2986 RMK AO2 SLP116 T01560139 10183 20156 53005=
202106301053 METAR KSEA 301053Z 20006KT 10SM CLR 16/14 A2986 RMK AO2 SLP113 T01560139=
202106300953 METAR KSEA 300953Z 21006KT 10SM CLR 16/13 A2985 RMK AO2 SLP113 T01610133=
202106300853 METAR KSEA 300853Z 21006KT 10SM CLR 16/13 A2985 RMK AO2 SLP112 T01610133 50005=
202106300753 METAR KSEA 300753Z 20007KT 10SM CLR 17/13 A2985 RMK AO2 SLP113 T01670133 402940167=
202106300653 METAR KSEA 300653Z 21007KT 10SM CLR 17/13 A2985 RMK AO2 SLP110 T01720133=
202106300553 METAR KSEA 300553Z 21011KT 10SM CLR 18/13 A2984 RMK AO2 SLP108 T01830133 10294 20183 53031=
202106300453 METAR KSEA 300453Z 23012KT 10SM CLR 21/13 A2981 RMK AO2 SLP098 T02060133=
202106300353 METAR KSEA 300353Z 23010KT 10SM CLR 23/14 A2977 RMK AO2 SLP085 T02280144=
202106300253 METAR KSEA 300253Z 22010KT 10SM CLR 26/15 A2974 RMK AO2 SLP075 T02610150 55001=
202106300153 METAR KSEA 300153Z 20009KT 160V220 10SM CLR 28/15 A2973 RMK AO2 SLP070 T02780150=
202106300053 METAR KSEA 300053Z 25007KT 10SM CLR 29/15 A2974 RMK AO2 SLP073 T02890150=
202106292353 METAR KSEA 292353Z 21011KT 10SM CLR 29/14 A2975 RMK AO2 SLP076 T02890144 10289 20222 58010=
202106292253 METAR KSEA 292253Z 22008KT 10SM CLR 28/16 A2976 RMK AO2 SLP080 T02830161=
202106292153 METAR KSEA 292153Z 20009KT 10SM CLR 27/16 A2977 RMK AO2 SLP084 T02720161=
202106292053 METAR KSEA 292053Z 20008KT 10SM CLR 26/16 A2978 RMK AO2 SLP087 T02610161 58006=
202106291953 METAR KSEA 291953Z 22008KT 10SM CLR 25/16 A2979 RMK AO2 SLP090 T02500156=
202106291853 METAR KSEA 291853Z 20010KT 10SM CLR 24/15 A2979 RMK AO2 SLP091 T02390150=
202106291753 METAR KSEA 291753Z 23009KT 10SM CLR 23/16 A2980 RMK AO2 SLP092 T02280156 10228 20167 58010=
202106291653 METAR KSEA 291653Z 23005KT 10SM FEW005 21/16 A2981 RMK AO2 SLP095 T02110156=
202106291553 METAR KSEA 291553Z 20006KT 10SM FEW005 19/16 A2982 RMK AO2 SLP098 T01940156=
202106291453 METAR KSEA 291453Z 20007KT 10SM SCT005 18/15 A2982 RMK AO2 SLP101 T01830150 50002=
202106291353 METAR KSEA 291353Z 23007KT 10SM BKN006 17/15 A2983 RMK AO2 SLP102 T01670150=
202106291320 SPECI KSEA 291320Z 22008KT 10SM BKN007 17/15 A2982 RMK AO2 T01670150=
202106291253 METAR KSEA 291253Z 19007KT 10SM SCT007 17/15 A2982 RMK AO2 SLP100 T01670150=
202106291203 SPECI KSEA 291203Z 20008KT 10SM SCT007 17/15 A2982 RMK AO2 T01670150=
202106291153 METAR KSEA 291153Z 17008KT 10SM SCT010 17/15 A2982 RMK AO2 SLP099 T01670150 10283 20167 51018=
202106291053 METAR KSEA 291053Z 19009KT 10SM SCT010 17/15 A2981 RMK AO2 SLP098 T01670150=
202106290953 METAR KSEA 290953Z 20011KT 10SM CLR 17/15 A2980 RMK AO2 SLP092 T01720150=
202106290853 METAR KSEA 290853Z 20013KT 10SM CLR 18/16 A2977 RMK AO2 SLP082 T01780156 53030=
202106290753 METAR KSEA 290753Z 20011KT 10SM CLR 19/16 A2973 RMK AO2 SLP071 T01890156 404220189=
202106290653 METAR KSEA 290653Z 19011KT 10SM CLR 22/16 A2970 RMK AO2 SLP058 T02170161=
202106290553 METAR KSEA 290553Z 21006KT 9SM CLR 28/18 A2968 RMK AO2 SLP892 T02780178 10422 20278 53008=
202106290453 METAR KSEA 290453Z 03013KT 10SM CLR 37/17 A2966 RMK AO2 SLP888 T03670172=
202106290353 METAR KSEA 290353Z 01011KT 10SM CLR 37/17 A2965 RMK AO2 SLP884 T03670172=
202106290253 METAR KSEA 290253Z 36007KT 10SM CLR 38/17 A2965 RMK AO2 SLP884 T03780172 56009=
202106290153 METAR KSEA 290153Z 34008KT 10SM CLR 41/17 A2965 RMK AO2 SLP884 T04110167=
202106290053 METAR KSEA 290053Z 34009KT 10SM CLR 42/17 A2966 RMK AO2 SLP044 T04170167=
202106282353 METAR KSEA 282353Z 28009KT 10SM CLR 41/18 A2968 RMK AO2 SLP051 T04060178 10417 20361 58014=
202106282253 METAR KSEA 282253Z 30008KT 10SM CLR 40/18 A2969 RMK AO2 SLP898 T04000178=
202106282153 METAR KSEA 282153Z 29009KT 10SM CLR 41/18 A2971 RMK AO2 SLP902 T04060178=
202106282053 METAR KSEA 282053Z 30008KT 10SM CLR 39/18 A2972 RMK AO2 SLP906 T03940183 58012=
202106281953 METAR KSEA 281953Z 28009KT 10SM CLR 37/18 A2973 RMK AO2 SLP070 T03720183=
202106281853 METAR KSEA 281853Z 36013KT 10SM CLR 39/17 A2975 RMK AO2 SLP915 T03890167=
202106281753 METAR KSEA 281753Z 01012KT 10SM CLR 37/17 A2975 RMK AO2 SLP918 T03720167 10372 20217 58010=
202106281653 METAR KSEA 281653Z 01011KT 10SM CLR 34/17 A2977 RMK AO2 SLP922 T03440167=
202106281553 METAR KSEA 281553Z 04013G22KT 10SM CLR 34/16 A2977 RMK AO2 SLP924 T03390161=
202106281453 METAR KSEA 281453Z 05012G16KT 10SM CLR 32/16 A2978 RMK AO2 SLP927 T03220161 58000=
202106281353 METAR KSEA 281353Z 00000KT 10SM CLR 26/18 A2979 RMK AO2 SLP087 T02610178=
202106281253 METAR KSEA 281253Z 00000KT 10SM CLR 23/17 A2979 RMK AO2 SLP088 T02280172=
202106281153 METAR KSEA 281153Z 17004KT 10SM CLR 22/17 A2978 RMK AO2 SLP087 T02220172 10294 20222 55003=
202106281053 METAR KSEA 281053Z 31004KT 10SM CLR 26/17 A2978 RMK AO2 SLP084 T02560172=
202106280953 METAR KSEA 280953Z 36006KT 10SM CLR 27/17 A2979 RMK AO2 SLP929 T02720172=
202106280853 METAR KSEA 280853Z 34003KT 10SM CLR 27/17 A2979 RMK AO2 SLP090 T02720167 50000=
202106280753 METAR KSEA 280753Z 36006KT 10SM CLR 27/17 A2980 RMK AO2 SLP091 T02720172 404000228=
202106280653 METAR KSEA 280653Z 34004KT 10SM CLR 28/17 A2979 RMK AO2 SLP090 T02780172=
202106280553 METAR KSEA 280553Z 01004KT 10SM CLR 29/17 A2979 RMK AO2 SLP090 T02940172 10400 20289 53007=
202106280453 METAR KSEA 280453Z 00000KT 10SM CLR 31/18 A2978 RMK AO2 SLP086 T03110178=
202106280353 METAR KSEA 280353Z 33003KT 10SM CLR 33/18 A2977 RMK AO2 SLP083 T03280178=
202106280253 METAR KSEA 280253Z 35010KT 10SM CLR 36/18 A2977 RMK AO2 SLP082 T03610178 56010=
202106280153 METAR KSEA 280153Z 30007KT 10SM CLR 37/18 A2977 RMK AO2 SLP083 T03720183=
202106280053 METAR KSEA 280053Z 30005KT 10SM CLR 39/18 A2978 RMK AO2 SLP087 T03890183=
202106272353 METAR KSEA 272353Z 33007KT 10SM CLR 39/18 A2980 RMK AO2 SLP093 T03890183 10394 20328 56018=
202106272253 METAR KSEA 272253Z 32009KT 10SM CLR 38/18 A2982 RMK AO2 SLP098 T03830183=
202106272153 METAR KSEA 272153Z 34012KT 10SM CLR 39/18 A2984 RMK AO2 SLP104 T03890178=
202106272053 METAR KSEA 272053Z 34010KT 10SM CLR 37/17 A2985 RMK AO2 SLP111 T03670172 58018=
202106271953 METAR KSEA 271953Z 35012KT 10SM CLR 36/17 A2988 RMK AO2 SLP959 T03560172=
202106271853 METAR KSEA 271853Z 01014KT 10SM CLR 34/18 A2990 RMK AO2 SLP124 T03440178=
202106271753 METAR KSEA 271753Z 01012KT 10SM CLR 33/17 A2991 RMK AO2 SLP129 T03330172 10333 20239 58009=
202106271653 METAR KSEA 271653Z 02009KT 10SM CLR 31/17 A2993 RMK AO2 SLP136 T03110172=
202106271553 METAR KSEA 271553Z 36008KT 10SM CLR 29/17 A2994 RMK AO2 SLP138 T02940172=
202106271453 METAR KSEA 271453Z 03008KT 10SM CLR 27/17 A2994 RMK AO2 SLP138 T02720172 53001=
202106271353 METAR KSEA 271353Z 34005KT 10SM CLR 24/18 A2993 RMK AO2 SLP137 T02440178=
202106271253 METAR KSEA 271253Z 04008KT 10SM CLR 25/18 A2993 RMK AO2 SLP135 T02500178=
202106271153 METAR KSEA 271153Z 04005KT 10SM CLR 25/16 A2993 RMK AO2 SLP137 T02500161 10300 20228 58000=
202106271053 METAR KSEA 271053Z 02007KT 10SM CLR 24/16 A2993 RMK AO2 SLP138 T02440161=
202106270953 METAR KSEA 270953Z 30004KT 10SM CLR 23/16 A2993 RMK AO2 SLP138 T02280161=
202106270853 METAR KSEA 270853Z 00000KT 10SM CLR 28/16 A2993 RMK AO2 SLP137 T02780161 55001=
202106270753 METAR KSEA 270753Z 05008KT 10SM CLR 29/16 A2992 RMK AO2 SLP134 T02940156 403890206=
202106270653 METAR KSEA 270653Z 06005KT 10SM CLR 29/16 A2994 RMK AO2 SLP139 T02940156=
202106270553 METAR KSEA 270553Z 36007KT 10SM CLR 28/16 A2994 RMK AO2 SLP138 T02830156 10389 20283 53006=
202106270453 METAR KSEA 270453Z 35006KT 10SM CLR 29/16 A2993 RMK AO2 SLP137 T02940156=
202106270353 METAR KSEA 270353Z 34006KT 10SM CLR 31/17 A2992 RMK AO2 SLP133 T03110167=
202106270253 METAR KSEA 270253Z 35006KT 10SM CLR 36/17 A2992 RMK AO2 SLP132 T03560167 55007=
202106270153 METAR KSEA 270153Z 35008KT 10SM CLR 37/16 A2991 RMK AO2 SLP131 T03720156=
202106270053 METAR KSEA 270053Z 36010KT 10SM CLR 38/15 A2993 RMK AO2 SLP135 T03780150=
202106262353 METAR KSEA 262353Z 33006KT 10SM CLR 38/15 A2994 RMK AO2 SLP139 T03830150 10383 20294 56015=
202106262253 METAR KSEA 262253Z 32006KT 10SM CLR 38/17 A2995 RMK AO2 SLP144 T03830167=
202106262153 METAR KSEA 262153Z 30009KT 10SM FEW020 37/17 A2997 RMK AO2 SLP149 T03670172=
202106262053 METAR KSEA 262053Z 29009KT 10SM CLR 36/19 A2998 RMK AO2 SLP155 T03560189 58009=
202106261953 METAR KSEA 261953Z 29008KT 10SM CLR 33/19 A2999 RMK AO2 SLP159 T03330189=
202106261853 METAR KSEA 261853Z 31005KT 10SM CLR 31/19 A3001 RMK AO2 SLP163 T03110189=
202106261753 METAR KSEA 261753Z 01005KT 10SM CLR 31/18 A3001 RMK AO2 SLP165 T03110183 10311 20206 58004=
202106261653 METAR KSEA 261653Z 33005KT 10SM CLR 29/18 A3002 RMK AO2 SLP167 T02940178=
202106261553 METAR KSEA 261553Z 36006KT 10SM CLR 27/17 A3002 RMK AO2 SLP167 T02670172=
202106261453 METAR KSEA 261453Z VRB03KT 10SM CLR 26/18 A3002 RMK AO2 SLP169 T02560178 51008=
202106261353 METAR KSEA 261353Z 32004KT 10SM CLR 22/18 A3002 RMK AO2 SLP169 T02220178=
202106261253 METAR KSEA 261253Z 00000KT 10SM CLR 22/17 A3001 RMK AO2 SLP165 T02170167=
202106261153 METAR KSEA 261153Z 00000KT 10SM CLR 21/17 A3000 RMK AO2 SLP161 T02110172 10272 20211 50007=
202106261053 METAR KSEA 261053Z 00000KT 10SM CLR 23/17 A3000 RMK AO2 SLP161 T02280172=
202106260953 METAR KSEA 260953Z 10003KT 10SM CLR 23/17 A2999 RMK AO2 SLP157 T02280172=
202106260853 METAR KSEA 260853Z 00000KT 10SM CLR 23/15 A2998 RMK AO2 SLP153 T02330150 58000=
202106260753 METAR KSEA 260753Z 00000KT 10SM CLR 24/15 A2998 RMK AO2 SLP155 T02440150 403060178=
202106260653 METAR KSEA 260653Z 00000KT 10SM CLR 27/14 A2998 RMK AO2 SLP155 T02670139=
202106260553 METAR KSEA 260553Z 02006KT 10SM CLR 27/13 A2998 RMK AO2 SLP154 T02670133 10306 20256 53006=
202106260453 METAR KSEA 260453Z 34003KT 10SM CLR 28/13 A2997 RMK AO2 SLP153 T02780133=
202106260353 METAR KSEA 260353Z 01006KT 10SM CLR 29/14 A2996 RMK AO2 SLP148 T02890139=
202106260253 METAR KSEA 260253Z 03008KT 10SM CLR 30/14 A2996 RMK AO2 SLP147 T03000144 56009=
202106260153 METAR KSEA 260153Z 35006KT 10SM CLR 31/16 A2997 RMK AO2 SLP150 T03060156=
202106260053 METAR KSEA 260053Z 36009KT 10SM FEW060 31/16 A2998 RMK AO2 SLP155 T03060156=
202106252353 METAR KSEA 252353Z 36006KT 10SM FEW060 30/16 A2999 RMK AO2 SLP158 T03000156 10306 20250 56013=
202106252253 METAR KSEA 252253Z 35008KT 10SM FEW060 30/16 A3000 RMK AO2 SLP162 T03000161=
202106252153 METAR KSEA 252153Z 35008KT 10SM FEW050 30/16 A3001 RMK AO2 SLP165 T03000156=
202106252053 METAR KSEA 252053Z 36007KT 320V030 10SM FEW050 FEW250 29/16 A3003 RMK AO2 SLP171 T02940156 56012=
202106251953 METAR KSEA 251953Z 03005KT 10SM FEW050 FEW250 28/16 A3003 RMK AO2 SLP173 T02780156=
202106251853 METAR KSEA 251853Z 33008KT 10SM FEW150 FEW250 26/16 A3004 RMK AO2 SLP177 T02610156=
202106251753 METAR KSEA 251753Z 33011KT 10SM FEW150 SCT250 25/15 A3006 RMK AO2 SLP183 T02500150 10250 20178 50001=
202106251653 METAR KSEA 251653Z 29005KT 10SM FEW150 BKN250 22/14 A3006 RMK AO2 SLP184 T02220144=
202106251553 METAR KSEA 251553Z 28006KT 10SM BKN250 21/14 A3006 RMK AO2 SLP182 T02060139=
202106251453 METAR KSEA 251453Z 35007KT 10SM FEW180 BKN250 21/14 A3006 RMK AO2 SLP181 T02110139 51005=
202106251353 METAR KSEA 251353Z VRB04KT 10SM FEW180 BKN250 19/14 A3005 RMK AO2 SLP179 T01890139=
202106251253 METAR KSEA 251253Z 03005KT 10SM FEW180 BKN250 19/13 A3005 RMK AO2 SLP179 T01940128=
202106251153 METAR KSEA 251153Z 03008KT 10SM FEW180 BKN250 19/13 A3004 RMK AO2 SLP176 T01940133 10222 20194 55000=
202106251053 METAR KSEA 251053Z 06009KT 10SM BKN250 19/13 A3004 RMK AO2 SLP175 T01940133=
202106250953 METAR KSEA 250953Z 04008KT 10SM BKN250 20/13 A3004 RMK AO2 SLP176 T02000133=
202106250853 METAR KSEA 250853Z 03007KT 10SM BKN250 20/13 A3004 RMK AO2 SLP176 T02000128 50002=
202106250753 METAR KSEA 250753Z 02008KT 10SM BKN250 21/13 A3005 RMK AO2 SLP178 T02060133 402830128=
202106250653 METAR KSEA 250653Z 01008KT 10SM BKN250 21/13 A3004 RMK AO2 SLP175 T02110133=
202106250553 METAR KSEA 250553Z 02008KT 10SM FEW150 BKN250 22/13 A3003 RMK AO2 SLP175 T02220133 10283 20217 53002=
202106250453 METAR KSEA 250453Z 35006KT 10SM BKN250 22/13 A3003 RMK AO2 SLP172 T02170133=
202106250353 METAR KSEA 250353Z 35008KT 10SM BKN250 23/13 A3003 RMK AO2 SLP172 T02330133=
202106250253 METAR KSEA 250253Z 36007KT 10SM BKN250 26/13 A3003 RMK AO2 SLP173 T02610128 56004=
202106250153 METAR KSEA 250153Z 35008KT 10SM BKN250 27/13 A3003 RMK AO2 SLP173 T02670128=
202106250053 METAR KSEA 250053Z 34007KT 10SM BKN250 27/13 A3003 RMK AO2 SLP173 T02720133=
202106242353 METAR KSEA 242353Z 01009KT 10SM SCT250 28/13 A3004 RMK AO2 SLP178 T02780128 10283 20200 56005=
202106242253 METAR KSEA 242253Z 02011KT 340V040 10SM CLR 28/13 A3005 RMK AO2 SLP178 T02780133=
202106242153 METAR KSEA 242153Z 30007KT 10SM SCT250 26/14 A3005 RMK AO2 SLP180 T02610139=
202106242053 METAR KSEA 242053Z 28007KT 10SM SCT250 26/14 A3006 RMK AO2 SLP182 T02560139 55007=
202106241953 METAR KSEA 241953Z 27009KT 10SM SCT250 24/14 A3006 RMK AO2 SLP182 T02390139=
202106241853 METAR KSEA 241853Z 26005KT 10SM SCT250 22/14 A3007 RMK AO2 SLP186 T02220139=
202106241753 METAR KSEA 241753Z 27005KT 10SM SCT250 20/13 A3008 RMK AO2 SLP189 T02000128 10206 20128 50001=
202106241653 METAR KSEA 241653Z 18005KT 10SM SCT250 18/12 A3008 RMK AO2 SLP190 T01830122=
202106241553 METAR KSEA 241553Z 20003KT 10SM FEW005 BKN250 17/12 A3008 RMK AO2 SLP191 T01670122=
202106241453 METAR KSEA 241453Z 20003KT 10SM FEW005 FEW060 BKN250 14/12 A3007 RMK AO2 SLP188 T01440117 53008=
202106241353 METAR KSEA 241353Z 20004KT 10SM FEW005 FEW060 BKN250 13/12 A3006 RMK AO2 SLP184 T01330122=
202106241344 SPECI KSEA 241344Z 21005KT 10SM FEW005 FEW060 BKN250 13/12 A3006 RMK AO2 T01330122=
202106241253 METAR KSEA 241253Z 19005KT 10SM SCT060 BKN250 13/12 A3005 RMK AO2 SLP181 T01330122=
202106241153 METAR KSEA 241153Z 19003KT 10SM FEW100 13/12 A3005 RMK AO2 SLP179 T01330122 10178 20133 53007=
202106241053 METAR KSEA 241053Z 19004KT 10SM FEW250 14/12 A3004 RMK AO2 SLP177 T01390122=
202106240953 METAR KSEA 240953Z 00000KT 10SM CLR 15/13 A3003 RMK AO2 SLP175 T01500128=
202106240853 METAR KSEA 240853Z 29004KT 10SM CLR 14/12 A3003 RMK AO2 SLP173 T01440122 53013=
202106240753 METAR KSEA 240753Z 26003KT 10SM CLR 16/13 A3001 RMK AO2 SLP167 T01560128 402500128=
202106240653 METAR KSEA 240653Z 00000KT 10SM CLR 17/13 A3000 RMK AO2 SLP164 T01670128=
202106240553 METAR KSEA 240553Z 30003KT 10SM CLR 18/13 A2999 RMK AO2 SLP161 T01780133 10250 20178 51012=
202106240453 METAR KSEA 240453Z 28003KT 10SM FEW250 19/13 A2998 RMK AO2 SLP157 T01940133=
202106240353 METAR KSEA 240353Z 28003KT 10SM FEW250 21/12 A2997 RMK AO2 SLP153 T02110122=
202106240253 METAR KSEA 240253Z 28005KT 10SM FEW250 23/12 A2996 RMK AO2 SLP148 T02280122 53001=
202106240153 METAR KSEA 240153Z 26005KT 10SM FEW250 24/12 A2995 RMK AO2 SLP145 T02390117=
202106240053 METAR KSEA 240053Z 25005KT 10SM SCT250 24/11 A2995 RMK AO2 SLP145 T02440106=
202106232353 METAR KSEA 232353Z 20004KT 10SM SCT250 24/11 A2995 RMK AO2 SLP147 T02390106 10239 20150 56005=
202106232253 METAR KSEA 232253Z VRB03KT 10SM SCT250 23/11 A2995 RMK AO2 SLP148 T02280111=
202106232153 METAR KSEA 232153Z 23007KT 10SM SCT200 22/12 A2996 RMK AO2 SLP151 T02170117=
202106232053 METAR KSEA 232053Z 26007KT 10SM FEW030 SCT100 21/12 A2997 RMK AO2 SLP153 T02060122 55001=
202106231953 METAR KSEA 231953Z 19009KT 10SM FEW025 FEW100 19/12 A2996 RMK AO2 SLP152 T01940117=
202106231853 METAR KSEA 231853Z VRB06KT 10SM FEW016 SCT045 17/12 A2997 RMK AO2 SLP155 T01670117=
202106231814 SPECI KSEA 231814Z 25007KT 10SM SCT016 BKN045 16/12 A2998 RMK AO2 T01560117=
202106231753 METAR KSEA 231753Z 25006KT 10SM BKN016 16/12 A2997 RMK AO2 SLP154 T01560117 10156 20128 51010=
202106231653 METAR KSEA 231653Z 24005KT 10SM BKN011 BKN050 13/12 A2996 RMK AO2 SLP152 T01330117=
202106231553 METAR KSEA 231553Z VRB05KT 10SM OVC010 13/12 A2995 RMK AO2 SLP147 T01330117=
202106231542 SPECI KSEA 231542Z 21007KT 10SM OVC010 14/11 A2995 RMK AO2 T01390111=
202106231453 METAR KSEA 231453Z 21006KT 10SM OVC008 13/11 A2994 RMK AO2 SLP143 T01330111 53011=
202106231353 METAR KSEA 231353Z 21005KT 10SM BKN005 OVC009 13/12 A2992 RMK AO2 SLP136 T01330117=
202106231253 METAR KSEA 231253Z 23006KT 10SM BKN005 OVC011 13/12 A2991 RMK AO2 SLP133 T01280117=
202106231153 METAR KSEA 231153Z 23007KT 10SM OVC005 13/12 A2991 RMK AO2 SLP132 T01280117 10167 20128 51013=
202106231053 METAR KSEA 231053Z 20009KT 10SM OVC005 13/12 A2990 RMK AO2 SLP128 T01330117=
202106230953 METAR KSEA 230953Z 21010KT 10SM OVC006 13/12 A2988 RMK AO2 SLP123 T01330117=
202106230922 SPECI KSEA 230922Z 22010KT 10SM BKN006 13/12 A2988 RMK AO2 T01330122=
202106230853 METAR KSEA 230853Z 20010KT 10SM FEW007 SCT250 13/12 A2987 RMK AO2 SLP119 T01330122 53009=
202106230753 METAR KSEA 230753Z 22006KT 10SM FEW007 SCT250 14/12 A2986 RMK AO2 SLP114 T01390122 402440139=
202106230653 METAR KSEA 230653Z 20010KT 10SM SCT250 15/13 A2985 RMK AO2 SLP113 T01500128=
202106230553 METAR KSEA 230553Z 20008KT 10SM SCT250 17/14 A2984 RMK AO2 SLP110 T01670139 10239 20167 53012=
202106230453 METAR KSEA 230453Z 16006KT 10SM FEW250 19/14 A2983 RMK AO2 SLP105 T01940144=
202106230353 METAR KSEA 230353Z 20005KT 10SM SCT250 22/15 A2982 RMK AO2 SLP101 T02170150=
202106230253 METAR KSEA 230253Z 20007KT 10SM SCT250 23/15 A2981 RMK AO2 SLP098 T02280150 56008=
202106230153 METAR KSEA 230153Z 20007KT 10SM SCT250 23/15 A2981 RMK AO2 SLP099 T02330150=
202106230053 METAR KSEA 230053Z 18006KT 10SM SCT250 24/15 A2982 RMK AO2 SLP103 T02390150=
202106222353 METAR KSEA 222353Z 20004KT 10SM FEW040 SCT250 24/15 A2983 RMK AO2 SLP106 T02390150 10244 20189 58013=
202106222253 METAR KSEA 222253Z 29008KT 10SM FEW040 SCT200 24/15 A2985 RMK AO2 SLP112 T02440150=
202106222153 METAR KSEA 222153Z 26008KT 10SM FEW040 FEW200 23/15 A2986 RMK AO2 SLP116 T02330150=
202106222053 METAR KSEA 222053Z 24007KT 210V270 10SM FEW030 FEW200 23/14 A2987 RMK AO2 SLP119 T02280144 58008=
202106221953 METAR KSEA 221953Z 23008G16KT 190V260 10SM FEW025 FEW200 22/14 A2988 RMK AO2 SLP122 T02170139=
202106221853 METAR KSEA 221853Z 22006KT 10SM CLR 21/14 A2989 RMK AO2 SLP123 T02060139=
202106221753 METAR KSEA 221753Z 26008KT 10SM FEW020 19/13 A2989 RMK AO2 SLP127 T01890133 10189 20144 58001=
202106221653 METAR KSEA 221653Z 23007KT 10SM FEW013 18/13 A2990 RMK AO2 SLP130 T01780133=
202106221557 SPECI KSEA 221557Z 22010KT 10SM SCT010 17/13 A2990 RMK AO2 T01670128=
202106221553 METAR KSEA 221553Z 22010KT 10SM BKN008 16/13 A2990 RMK AO2 SLP131 T01610128=
202106221453 METAR KSEA 221453Z 21010KT 10SM BKN006 15/13 A2989 RMK AO2 SLP126 T01500128 53014=
202106221406 SPECI KSEA 221406Z 20010KT 10SM BKN007 14/13 A2988 RMK AO2 T01440128=
202106221353 METAR KSEA 221353Z 21009KT 10SM SCT007 14/13 A2988 RMK AO2 SLP122 T01440128=
202106221253 METAR KSEA 221253Z 19007KT 10SM FEW007 14/13 A2986 RMK AO2 SLP114 T01440128=
202106221153 METAR KSEA 221153Z 21007KT 190V270 10SM FEW007 16/13 A2985 RMK AO2 SLP112 T01560128 10239 20156 52004=
202106221053 METAR KSEA 221053Z 20007KT 10SM CLR 17/13 A2985 RMK AO2 SLP112 T01720128=
202106220953 METAR KSEA 220953Z 23003KT 10SM CLR 18/13 A2984 RMK AO2 SLP108 T01830128=
202106220853 METAR KSEA 220853Z 00000KT 10SM FEW250 19/12 A2984 RMK AO2 SLP108 T01940122 50004=
202106220753 METAR KSEA 220753Z 25003KT 10SM SCT250 20/13 A2984 RMK AO2 SLP108 T02000128 403170161=
202106220653 METAR KSEA 220653Z 30003KT 10SM CLR 22/12 A2983 RMK AO2 SLP105 T02220117=
202106220553 METAR KSEA 220553Z 35006KT 10SM CLR 23/11 A2983 RMK AO2 SLP104 T02280111 10317 20228 53008=
202106220453 METAR KSEA 220453Z 33005KT 10SM CLR 24/11 A2982 RMK AO2 SLP101 T02390111=
202106220353 METAR KSEA 220353Z 35008KT 10SM CLR 26/11 A2980 RMK AO2 SLP094 T02560111=
202106220253 METAR KSEA 220253Z 33007KT 10SM FEW060 29/11 A2980 RMK AO2 SLP096 T02890111 56007=
202106220153 METAR KSEA 220153Z 36006KT 10SM FEW060 31/11 A2981 RMK AO2 SLP095 T03110111=
202106220053 METAR KSEA 220053Z 29006KT 10SM FEW060 31/13 A2982 RMK AO2 SLP099 T03110133=
202106212353 METAR KSEA 212353Z 32005KT 10SM FEW060 31/13 A2983 RMK AO2 SLP103 T03110128 10317 20250 58012=
202106212253 METAR KSEA 212253Z 29006KT 10SM FEW060 31/13 A2984 RMK AO2 SLP109 T03110128=
202106212153 METAR KSEA 212153Z 29007KT 10SM FEW050 FEW250 30/13 A2985 RMK AO2 SLP112 T03000128=
202106212053 METAR KSEA 212053Z 29006KT 10SM FEW040 FEW250 28/13 A2986 RMK AO2 SLP115 T02830128 58011=
202106211953 METAR KSEA 211953Z 30008KT 10SM FEW250 28/13 A2988 RMK AO2 SLP120 T02780133=
202106211853 METAR KSEA 211853Z 31008KT 10SM FEW250 26/13 A2989 RMK AO2 SLP124 T02610133=
202106211753 METAR KSEA 211753Z 29005KT 10SM CLR 26/13 A2990 RMK AO2 SLP127 T02560128 10256 20167 57007=
202106211653 METAR KSEA 211653Z 28004KT 10SM CLR 24/13 A2990 RMK AO2 SLP129 T02390133=
202106211553 METAR KSEA 211553Z 01007KT 10SM CLR 22/12 A2991 RMK AO2 SLP132 T02220122=
202106211453 METAR KSEA 211453Z 04006KT 10SM FEW250 21/12 A2992 RMK AO2 SLP134 T02060117 50002=
202106211353 METAR KSEA 211353Z 04006KT 10SM FEW250 19/11 A2992 RMK AO2 SLP135 T01940106=
202106211253 METAR KSEA 211253Z 04004KT 10SM FEW140 FEW250 18/11 A2992 RMK AO2 SLP134 T01830111=
202106211153 METAR KSEA 211153Z 03004KT 10SM FEW250 18/11 A2991 RMK AO2 SLP131 T01780106 10222 20161 57001=
202106211053 METAR KSEA 211053Z 36005KT 10SM CLR 16/11 A2991 RMK AO2 SLP130 T01610106=
202106210953 METAR KSEA 210953Z 01004KT 10SM CLR 19/11 A2992 RMK AO2 SLP133 T01890111=
202106210853 METAR KSEA 210853Z 02008KT 10SM CLR 20/11 A2991 RMK AO2 SLP132 T02000111 58002=
202106210753 METAR KSEA 210753Z 35006KT 10SM CLR 19/12 A2992 RMK AO2 SLP136 T01890117 402720144=
202106210653 METAR KSEA 210653Z 35007KT 10SM CLR 21/11 A2992 RMK AO2 SLP135 T02060111=
202106210553 METAR KSEA 210553Z 01011KT 10SM SCT200 22/11 A2992 RMK AO2 SLP134 T02220111 10272 20206 53000=
202106210453 METAR KSEA 210453Z 36009KT 10SM FEW200 21/11 A2992 RMK AO2 SLP136 T02110111=
202106210353 METAR KSEA 210353Z 34009KT 10SM FEW200 22/12 A2991 RMK AO2 SLP134 T02220117=
202106210253 METAR KSEA 210253Z 36009KT 10SM FEW200 25/12 A2992 RMK AO2 SLP135 T02500122 56011=
202106210153 METAR KSEA 210153Z 35010KT 10SM FEW250 27/13 A2992 RMK AO2 SLP136 T02670128=
202106210053 METAR KSEA 210053Z 35009KT 10SM FEW220 27/13 A2993 RMK AO2 SLP140 T02720128=
202106202353 METAR KSEA 202353Z 35008KT 10SM FEW220 27/12 A2995 RMK AO2 SLP146 T02720122 10272 20211 58014=
202106202253 METAR KSEA 202253Z 36010KT 10SM FEW220 27/12 A2996 RMK AO2 SLP151 T02670117=
202106202153 METAR KSEA 202153Z 32010KT 10SM FEW220 26/13 A2998 RMK AO2 SLP157 T02560128=
202106202053 METAR KSEA 202053Z 34009KT 10SM FEW210 25/14 A2999 RMK AO2 SLP160 T02500139 58010=
202106201953 METAR KSEA 201953Z 35010KT 10SM FEW200 23/14 A3001 RMK AO2 SLP165 T02330139=
202106201853 METAR KSEA 201853Z 35010KT 10SM FEW180 22/14 A3002 RMK AO2 SLP169 T02220139=
202106201753 METAR KSEA 201753Z 35008KT 10SM FEW130 22/13 A3002 RMK AO2 SLP171 T02170133 10217 20144 58004=
202106201653 METAR KSEA 201653Z 36011KT 10SM FEW110 21/13 A3003 RMK AO2 SLP173 T02060128=
202106201553 METAR KSEA 201553Z 02011KT 10SM FEW100 18/12 A3003 RMK AO2 SLP173 T01830122=
202106201453 METAR KSEA 201453Z 01009KT 10SM FEW070 17/12 A3003 RMK AO2 SLP174 T01720122 55000=
202106201353 METAR KSEA 201353Z 35006KT 10SM FEW060 16/12 A3003 RMK AO2 SLP174 T01610122=
202106201253 METAR KSEA 201253Z 01009KT 10SM FEW060 15/12 A3003 RMK AO2 SLP172 T01500122=
202106201153 METAR KSEA 201153Z 36009KT 10SM FEW060 15/12 A3003 RMK AO2 SLP174 T01500117 10200 20150 55001=
202106201053 METAR KSEA 201053Z 36009KT 10SM FEW060 16/12 A3003 RMK AO2 SLP172 T01560117=
202106200953 METAR KSEA 200953Z 01009KT 10SM OVC060 17/12 A3003 RMK AO2 SLP173 T01670122=
202106200853 METAR KSEA 200853Z 36010KT 10SM OVC060 18/12 A3004 RMK AO2 SLP175 T01780122 51004=
202106200753 METAR KSEA 200753Z 03010KT 10SM BKN065 18/12 A3003 RMK AO2 SLP174 T01830122 402440122=
202106200653 METAR KSEA 200653Z 05006KT 10SM BKN060 19/12 A3003 RMK AO2 SLP173 T01890122=
202106200553 METAR KSEA 200553Z 03009KT 10SM FEW060 SCT150 20/12 A3002 RMK AO2 SLP171 T02000122 10244 20194 53004=
202106200453 METAR KSEA 200453Z 02008KT 10SM FEW060 SCT150 21/12 A3002 RMK AO2 SLP168 T02110117=
202106200353 METAR KSEA 200353Z 36008KT 10SM FEW060 SCT150 22/11 A3001 RMK AO2 SLP166 T02170106=
202106200253 METAR KSEA 200253Z 03009KT 10SM FEW035 SCT120 24/10 A3001 RMK AO2 SLP167 T02390100 56012=
202106200153 METAR KSEA 200153Z 28005KT 10SM FEW035 23/10 A3001 RMK AO2 SLP168 T02330100=
202106200053 METAR KSEA 200053Z 28006KT 10SM FEW035 FEW250 24/10 A3003 RMK AO2 SLP172 T02390100=
202106192353 METAR KSEA 192353Z 25007KT 10SM FEW030 FEW070 24/11 A3005 RMK AO2 SLP179 T02390106 10244 20172 58013=
202106192253 METAR KSEA 192253Z VRB04KT 10SM FEW030 SCT080 24/10 A3006 RMK AO2 SLP185 T02390100=
202106192153 METAR KSEA 192153Z 29006KT 10SM FEW030 SCT070 23/11 A3007 RMK AO2 SLP188 T02280111=
202106192053 METAR KSEA 192053Z 27005KT 10SM FEW030 SCT070 22/11 A3009 RMK AO2 SLP193 T02170106 58007=
202106191953 METAR KSEA 191953Z 29005KT 10SM FEW030 FEW070 20/11 A3010 RMK AO2 SLP198 T02000106=
202106191853 METAR KSEA 191853Z 29005KT 10SM FEW030 FEW070 18/10 A3011 RMK AO2 SLP200 T01830100=
202106191753 METAR KSEA 191753Z 29006KT 10SM FEW030 SCT075 SCT210 17/10 A3011 RMK AO2 SLP201 T01720100 10172 20122 56006=
202106191653 METAR KSEA 191653Z 24004KT 10SM FEW040 FEW110 SCT190 16/11 A3011 RMK AO2 SLP202 T01560106=
202106191553 METAR KSEA 191553Z 25003KT 10SM FEW030 FEW100 BKN180 14/10 A3012 RMK AO2 SLP206 T01390100=
202106191453 METAR KSEA 191453Z 01003KT 10SM FEW030 BKN220 14/09 A3013 RMK AO2 SLP207 T01440094 53007=
202106191353 METAR KSEA 191353Z 04004KT 10SM FEW120 BKN230 13/09 A3012 RMK AO2 SLP204 T01330089=
202106191253 METAR KSEA 191253Z 01007KT 10SM FEW130 BKN240 12/09 A3011 RMK AO2 SLP201 T01220089=
202106191153 METAR KSEA 191153Z 02007KT 10SM SCT140 SCT250 12/08 A3011 RMK AO2 SLP200 T01220083 10156 20122 51005=
202106191053 METAR KSEA 191053Z 36008KT 10SM FEW250 13/08 A3010 RMK AO2 SLP200 T01280083=
202106190953 METAR KSEA 190953Z 02006KT 10SM FEW250 13/08 A3010 RMK AO2 SLP196 T01330083=
202106190853 METAR KSEA 190853Z 35006KT 10SM SCT250 13/09 A3009 RMK AO2 SLP195 T01280089 53000=
202106190753 METAR KSEA 190753Z 02007KT 10SM BKN250 14/09 A3009 RMK AO2 SLP194 T01390089 402330133=
202106190653 METAR KSEA 190653Z 01008KT 10SM BKN250 15/08 A3008 RMK AO2 SLP192 T01500083=
202106190553 METAR KSEA 190553Z 04010KT 10SM BKN250 16/09 A3009 RMK AO2 SLP195 T01560089 10228 20156 53010=
202106190453 METAR KSEA 190453Z 04011KT 10SM BKN250 17/09 A3008 RMK AO2 SLP189 T01720089=
202106190353 METAR KSEA 190353Z 01011KT 10SM FEW060 BKN250 18/09 A3006 RMK AO2 SLP184 T01830089=
202106190253 METAR KSEA 190253Z 01012KT 10SM FEW050 BKN250 20/09 A3006 RMK AO2 SLP183 T02000089 55002=
202106190153 METAR KSEA 190153Z 35009KT 10SM FEW040 BKN250 22/10 A3005 RMK AO2 SLP181 T02170100=
202106190053 METAR KSEA 190053Z 30006KT 10SM FEW040 BKN250 23/11 A3006 RMK AO2 SLP184 T02280106=
202106182353 METAR KSEA 182353Z 30009KT 10SM FEW040 SCT250 22/10 A3007 RMK AO2 SLP186 T02220100 10233 20183 56012=
202106182253 METAR KSEA 182253Z 29009KT 10SM FEW040 SCT250 22/10 A3007 RMK AO2 SLP188 T02170100=
202106182153 METAR KSEA 182153Z 33005KT 10SM FEW040 SCT250 22/09 A3009 RMK AO2 SLP194 T02220094=
202106182053 METAR KSEA 182053Z 34008KT 10SM FEW030 SCT250 22/10 A3010 RMK AO2 SLP197 T02170100 56008=
202106181953 METAR KSEA 181953Z 30009KT 10SM FEW030 SCT250 21/11 A3011 RMK AO2 SLP200 T02060106=
202106181853 METAR KSEA 181853Z 30010KT 10SM SCT250 19/10 A3012 RMK AO2 SLP202 T01890100=
202106181753 METAR KSEA 181753Z 35006KT 10SM SCT250 18/09 A3013 RMK AO2 SLP206 T01830094 10189 20139 58002=
202106181653 METAR KSEA 181653Z VRB06KT 10SM SCT250 18/09 A3013 RMK AO2 SLP209 T01780089=
202106181553 METAR KSEA 181553Z 01008KT 10SM FEW250 17/08 A3013 RMK AO2 SLP208 T01670078=
202106181453 METAR KSEA 181453Z 02009KT 10SM FEW250 16/08 A3013 RMK AO2 SLP208 T01560078 53007=
202106181353 METAR KSEA 181353Z 03008KT 10SM FEW250 14/07 A3013 RMK AO2 SLP206 T01440072=
202106181253 METAR KSEA 181253Z 03011KT 10SM FEW250 14/07 A3012 RMK AO2 SLP202 T01390072=
202106181153 METAR KSEA 181153Z 03008KT 10SM FEW250 14/07 A3011 RMK AO2 SLP201 T01390072 10178 20139 53002=
202106181053 METAR KSEA 181053Z 05008KT 10SM CLR 14/08 A3010 RMK AO2 SLP197 T01440078=
202106180953 METAR KSEA 180953Z 04008KT 10SM CLR 14/08 A3010 RMK AO2 SLP199 T01440078=
202106180853 METAR KSEA 180853Z 04010KT 10SM CLR 15/08 A3011 RMK AO2 SLP199 T01500078 58002=
202106180753 METAR KSEA 180753Z 03013KT 10SM CLR 16/07 A3011 RMK AO2 SLP201 T01560072 402610117=
202106180653 METAR KSEA 180653Z 03013KT 10SM SCT250 17/07 A3011 RMK AO2 SLP202 T01670067=
202106180553 METAR KSEA 180553Z 36008KT 10SM FEW150 BKN250 17/08 A3011 RMK AO2 SLP201 T01670078 10261 20161 53006=
202106180453 METAR KSEA 180453Z 35008KT 10SM BKN250 17/08 A3010 RMK AO2 SLP197 T01720083=
202106180353 METAR KSEA 180353Z 34009KT 10SM BKN250 19/07 A3009 RMK AO2 SLP195 T01940067=
202106180253 METAR KSEA 180253Z 36008KT 10SM FEW060 BKN250 23/04 A3009 RMK AO2 SLP194 T02280039 58014=
202106180153 METAR KSEA 180153Z 34007KT 10SM FEW060 BKN250 24/02 A3011 RMK AO2 SLP199 T02440017=
202106180053 METAR KSEA 180053Z 35007KT 10SM FEW060 SCT250 26/03 A3012 RMK AO2 SLP205 T02560028=
202106172353 METAR KSEA 172353Z 34007KT 290V010 10SM FEW050 SCT250 26/04 A3013 RMK AO2 SLP209 T02560039 10256 20194 58014=
202106172253 METAR KSEA 172253Z 27008KT 10SM FEW050 FEW250 24/06 A3015 RMK AO2 SLP214 T02440061=
202106172153 METAR KSEA 172153Z 29010KT 10SM FEW050 FEW250 24/07 A3016 RMK AO2 SLP218 T02390067=
202106172053 METAR KSEA 172053Z 31008KT 10SM FEW040 FEW250 23/08 A3018 RMK AO2 SLP223 T02330078 58010=
202106171953 METAR KSEA 171953Z 32007KT 10SM FEW040 FEW250 22/09 A3019 RMK AO2 SLP227 T02220094=
202106171853 METAR KSEA 171853Z 31005KT 10SM FEW040 FEW250 21/09 A3020 RMK AO2 SLP231 T02110094=
202106171753 METAR KSEA 171753Z 31006KT 10SM FEW030 FEW250 20/10 A3021 RMK AO2 SLP233 T02000100 10200 20117 50002=
202106171653 METAR KSEA 171653Z 30005KT 10SM FEW250 18/10 A3021 RMK AO2 SLP233 T01830100=
202106171553 METAR KSEA 171553Z VRB03KT 10SM CLR 18/09 A3021 RMK AO2 SLP234 T01780089=
202106171453 METAR KSEA 171453Z 03006KT 10SM CLR 17/09 A3020 RMK AO2 SLP231 T01670089 50002=
202106171353 METAR KSEA 171353Z 09003KT 10SM FEW250 14/09 A3020 RMK AO2 SLP232 T01390094=
202106171253 METAR KSEA 171253Z 00000KT 10SM FEW250 12/09 A3020 RMK AO2 SLP231 T01170089=
202106171153 METAR KSEA 171153Z 00000KT 10SM FEW250 12/09 A3019 RMK AO2 SLP230 T01220089 10172 20117 53001=
202106171053 METAR KSEA 171053Z 04005KT 10SM FEW250 14/09 A3019 RMK AO2 SLP226 T01390089=
202106170953 METAR KSEA 170953Z 02005KT 10SM CLR 13/08 A3019 RMK AO2 SLP229 T01330078=
202106170853 METAR KSEA 170853Z 02008KT 10SM CLR 15/08 A3019 RMK AO2 SLP228 T01500078 56007=
202106170753 METAR KSEA 170753Z 01007KT 10SM CLR 16/07 A3020 RMK AO2 SLP232 T01560072 402220111=
202106170653 METAR KSEA 170653Z 04009KT 10SM CLR 17/07 A3020 RMK AO2 SLP232 T01670072=
202106170553 METAR KSEA 170553Z 01008KT 10SM CLR 17/07 A3021 RMK AO2 SLP236 T01720067 10222 20161 58002=
202106170453 METAR KSEA 170453Z 36007KT 10SM CLR 17/07 A3022 RMK AO2 SLP238 T01670067=
202106170353 METAR KSEA 170353Z 35010KT 10SM FEW050 17/08 A3022 RMK AO2 SLP237 T01720083=
202106170253 METAR KSEA 170253Z 34012KT 10SM FEW050 19/09 A3022 RMK AO2 SLP239 T01940089 56014=
202106170153 METAR KSEA 170153Z 35012KT 10SM FEW050 21/09 A3023 RMK AO2 SLP241 T02060089=
202106170053 METAR KSEA 170053Z 34009KT 10SM FEW050 22/09 A3024 RMK AO2 SLP244 T02220094=
202106162353 METAR KSEA 162353Z 34008KT 10SM FEW050 22/10 A3026 RMK AO2 SLP252 T02170100 10222 20167 56014=
202106162253 METAR KSEA 162253Z 36011KT 10SM FEW040 22/09 A3027 RMK AO2 SLP256 T02170094=
202106162153 METAR KSEA 162153Z 34009KT 10SM FEW040 FEW200 21/09 A3028 RMK AO2 SLP261 T02110094=
202106162053 METAR KSEA 162053Z 35007KT 10SM FEW035 SCT200 21/09 A3030 RMK AO2 SLP266 T02060094 56015=
202106161953 METAR KSEA 161953Z 30011KT 10SM SCT034 BKN220 18/09 A3032 RMK AO2 SLP271 T01830089=
202106161853 METAR KSEA 161853Z 30009KT 10SM SCT034 BKN220 18/11 A3033 RMK AO2 SLP276 T01830106=
202106161817 SPECI KSEA 161817Z 30006KT 10SM SCT031 17/11 A3034 RMK AO2 T01720106=
202106161810 SPECI KSEA 161810Z 28005KT 10SM BKN029 BKN038 17/11 A3034 RMK AO2 T01720106=
202106161753 METAR KSEA 161753Z 32005KT 10SM FEW022 SCT027 BKN041 BKN220 17/11 A3035 RMK AO2 SLP282 T01670106 10172 20122 58007=
202106161653 METAR KSEA 161653Z 27005KT 10SM BKN039 BKN047 BKN250 16/11 A3036 RMK AO2 SLP287 T01560106=
202106161553 METAR KSEA 161553Z VRB03KT 10SM SCT020 SCT045 BKN250 16/11 A3037 RMK AO2 SLP290 T01560111=
202106161453 METAR KSEA 161453Z 00000KT 10SM FEW016 BKN044 BKN250 14/11 A3037 RMK AO2 SLP289 T01440106 54000=
202106161353 METAR KSEA 161353Z 19004KT 10SM FEW020 BKN044 BKN250 13/11 A3037 RMK AO2 SLP289 T01330106=
202106161253 METAR KSEA 161253Z 17003KT 10SM BKN047 12/10 A3037 RMK AO2 SLP289 T01220100=
202106161153 METAR KSEA 161153Z 17005KT 10SM FEW025 OVC047 12/10 A3037 RMK AO2 SLP289 T01220100 10133 20111 53002=
202106161053 METAR KSEA 161053Z 14005KT 10SM OVC041 13/10 A3036 RMK AO2 SLP288 T01280100=
202106160953 METAR KSEA 160953Z 19004KT 10SM SCT043 12/10 A3036 RMK AO2 SLP285 T01170100=
202106160853 METAR KSEA 160853Z 17003KT 10SM FEW040 SCT070 12/09 A3036 RMK AO2 SLP287 T01170094 51005=
202106160753 METAR KSEA 160753Z 17004KT 10SM FEW032 SCT070 13/10 A3036 RMK AO2 SLP286 T01280100 402060117=
202106160653 METAR KSEA 160653Z 18004KT 10SM FEW025 SCT070 13/10 A3035 RMK AO2 SLP284 T01280100=
202106160553 METAR KSEA 160553Z 20007KT 10SM FEW040 13/09 A3035 RMK AO2 SLP282 T01330094 10189 20133 53019=
202106160453 METAR KSEA 160453Z 21008KT 10SM FEW040 SCT070 14/09 A3033 RMK AO2 SLP277 T01440094=
202106160353 METAR KSEA 160353Z 22007KT 10SM FEW040 SCT065 SCT200 16/09 A3030 RMK AO2 SLP267 T01560094=
202106160253 METAR KSEA 160253Z 22012KT 10SM FEW040 SCT100 SCT200 17/09 A3029 RMK AO2 SLP263 T01720089 53015=
202106160153 METAR KSEA 160153Z 23011KT 10SM FEW035 SCT100 SCT200 18/11 A3028 RMK AO2 SLP258 T01780111=
202106160053 METAR KSEA 160053Z 20010KT 10SM FEW035 FEW060 SCT090 SCT200 18/11 A3026 RMK AO2 SLP252 CB DSNT S T01830111=
202106152353 METAR KSEA 152353Z 22008KT 10SM FEW030 SCT055 BKN095 BKN200 18/11 A3025 RMK AO2 RAB40E51 SLP248 P0000 60000 T01780111 10206 20172 53019=
202106152253 METAR KSEA 152253Z 23012KT 10SM FEW030 BKN090 BKN200 18/10 A3023 RMK AO2 SLP241 T01830100=
202106152153 METAR KSEA 152153Z 23012KT 10SM FEW035 BKN085 BKN200 19/10 A3020 RMK AO2 SLP232 T01940100=
202106152053 METAR KSEA 152053Z 23010KT 10SM SCT032 BKN070 BKN200 19/10 A3019 RMK AO2 SLP228 VCSH T01890100 52013=
202106151953 METAR KSEA 151953Z 26015KT 10SM SCT032 BKN075 BKN200 18/10 A3017 RMK AO2 SLP223 T01780100=
202106151853 METAR KSEA 151853Z 23010KT 10SM SCT025 SCT050 BKN200 18/09 A3017 RMK AO2 SLP221 T01830089=
202106151753 METAR KSEA 151753Z 20008KT 10SM SCT025 SCT050 BKN200 17/09 A3015 RMK AO2 SLP215 T01720094 10172 20117 51012=
202106151653 METAR KSEA 151653Z 21008KT 10SM SCT025 SCT050 BKN200 17/11 A3014 RMK AO2 SLP212 T01670106=
202106151553 METAR KSEA 151553Z 19007KT 10SM FEW025 SCT045 BKN200 16/11 A3013 RMK AO2 SLP207 T01560106=
202106151453 METAR KSEA 151453Z 18005KT 10SM FEW030 SCT043 BKN220 14/11 A3012 RMK AO2 SLP203 T01440106 50007=
202106151353 METAR KSEA 151353Z 15006KT 10SM FEW035 BKN050 BKN070 13/11 A3012 RMK AO2 SLP204 T01330106=
202106151253 METAR KSEA 151253Z 17005KT 10SM BKN042 BKN050 BKN250 12/10 A3011 RMK AO2 SLP201 T01220100=
202106151153 METAR KSEA 151153Z 17005KT 10SM BKN036 BKN045 12/11 A3009 RMK AO2 SLP196 70004 T01220106 10150 20117 53009=
202106151053 METAR KSEA 151053Z 20005KT 10SM SCT038 12/10 A3008 RMK AO2 SLP191 T01170100=
202106150953 METAR KSEA 150953Z 20005KT 10SM BKN038 BKN070 12/10 A3008 RMK AO2 SLP190 T01220100=
202106150853 METAR KSEA 150853Z 20007KT 10SM BKN045 BKN070 BKN250 13/10 A3006 RMK AO2 SLP186 T01280100 51002=
202106150753 METAR KSEA 150753Z 19005KT 10SM SCT060 SCT250 13/11 A3006 RMK AO2 SLP187 T01280106 401830128=
202106150653 METAR KSEA 150653Z 17006KT 10SM FEW060 SCT080 SCT250 14/12 A3007 RMK AO2 SLP187 T01390117=
202106150553 METAR KSEA 150553Z 21005KT 10SM FEW060 SCT080 14/11 A3006 RMK AO2 SLP184 T01440111 10183 20144 50003=
202106150453 METAR KSEA 150453Z VRB03KT 10SM SCT060 16/12 A3006 RMK AO2 SLP185 T01560122=
202106150353 METAR KSEA 150353Z 16005KT 10SM FEW025 BKN080 16/13 A3005 RMK AO2 SLP181 T01560128=
202106150253 METAR KSEA 150253Z 19005KT 10SM FEW025 BKN080 BKN120 17/14 A3005 RMK AO2 SLP181 T01720139 55001=
202106150153 METAR KSEA 150153Z 13006KT 10SM SCT025 BKN090 18/13 A3004 RMK AO2 SLP178 T01780133=
202106150053 METAR KSEA 150053Z 14008KT 10SM FEW024 FEW080 BKN100 BKN250 18/13 A3004 RMK AO2 SLP178 T01780133=
202106142353 METAR KSEA 142353Z 14005KT 10SM FEW024 SCT070 BKN090 17/13 A3005 RMK AO2 RAB2255E14 SLP182 P0001 60004 T01720133 10178 20144 53005=
202106142253 METAR KSEA 142253Z 19005KT 10SM FEW012 SCT024 OVC090 17/13 A3005 RMK AO2 SLP181 T01670128=
202106142153 METAR KSEA 142153Z 18005KT 10SM FEW010 SCT022 OVC095 16/13 A3004 RMK AO2 SLP177 T01610128=
202106142130 SPECI KSEA 142130Z 17004KT 10SM BKN021 OVC095 16/13 A3004 RMK AO2 T01610133=
202106142053 METAR KSEA 142053Z 24005KT 10SM FEW009 SCT018 BKN055 16/13 A3004 RMK AO2 RAB03E13 SLP177 P0000 60003 T01560133 50008=
202106142034 SPECI KSEA 142034Z 00000KT 10SM FEW009 SCT020 BKN055 16/13 A3002 RMK AO2 RAB03E13 P0000 T01560133=
202106141956 SPECI KSEA 141956Z 24005KT 10SM SCT009 BKN019 OVC100 15/13 A3004 RMK AO2 T01500133=
202106141953 METAR KSEA 141953Z 23008KT 10SM SCT010 SCT030 OVC060 15/13 A3004 RMK AO2 RAE35 SLP178 P0000 T01500133=
202106141853 METAR KSEA 141853Z 20004KT 5SM -RA BR FEW015 SCT025 OVC050 14/13 A3003 RMK AO2 SLP174 P0003 T01440133=
202106141753 METAR KSEA 141753Z 19005KT 10SM -RA FEW008 SCT080 OVC095 15/14 A3001 RMK AO2 RAB43 SLP169 P0000 60000 T01500139 10150 20139 51007=
202106141749 SPECI KSEA 141749Z 24005KT 10SM -RA FEW011 OVC090 15/13 A3001 RMK AO2 RAB43 P0000=
202106141708 SPECI KSEA 141708Z 00000KT 10SM FEW007 OVC024 15/14 A3001 RMK AO2 T01500139=
202106141653 METAR KSEA 141653Z 18006KT 10SM OVC024 14/13 A3001 RMK AO2 SLP168 T01440133=
202106141553 METAR KSEA 141553Z 00000KT 10SM SCT006 BKN022 OVC043 14/13 A2999 RMK AO2 SLP162 T01440133=
202106141545 SPECI KSEA 141545Z 24005KT 10SM SCT006 BKN022 OVC034 14/13 A3000 RMK AO2 T01440133=
202106141518 SPECI KSEA 141518Z 21006KT 10SM BKN006 OVC022 14/13 A3000 RMK AO2 T01440133=
202106141453 METAR KSEA 141453Z 22006KT 8SM FEW005 BKN021 OVC035 14/13 A2999 RMK AO2 RAB39E49 SLP162 P0000 60000 T01440133 53012=
202106141353 METAR KSEA 141353Z 17005KT 10SM FEW005 OVC018 14/13 A2998 RMK AO2 RAB36E46 SLP157 P0000 T01390133=
202106141312 SPECI KSEA 141312Z 18003KT 10SM FEW005 BKN022 OVC032 14/13 A2997 RMK AO2 T01390133=
202106141253 METAR KSEA 141253Z 22005KT 10SM BKN024 OVC032 14/13 A2997 RMK AO2 SLP153 T01390133=
202106141153 METAR KSEA 141153Z 21004KT 10SM BKN024 OVC032 14/13 A2996 RMK AO2 SLP149 60002 70060 T01390133 10156 20139 51008=
202106141148 SPECI KSEA 141148Z 21006KT 10SM BKN024 OVC032 14/13 A2996 RMK AO2=
202106141053 METAR KSEA 141053Z 22007KT 10SM SCT004 BKN031 OVC065 14/14 A2995 RMK AO2 RAB02E50 SLP147 P0000 T01440139=
202106141005 SPECI KSEA 141005Z 21004KT 10SM -RA SCT003 SCT026 OVC065 15/14 A2993 RMK AO2 RAB02 P0000 T01500144=
202106140953 METAR KSEA 140953Z 00000KT 8SM SCT004 BKN026 OVC065 15/14 A2993 RMK AO2 SLP142 T01500144=
202106140950 SPECI KSEA 140950Z 00000KT 8SM SCT004 BKN026 OVC065 15/14 A2993 RMK AO2=
202106140925 SPECI KSEA 140925Z 24005KT 6SM BR BKN004 BKN015 OVC075 15/14 A2993 RMK AO2 T01500144=
202106140858 SPECI KSEA 140858Z 22005KT 2 1/2SM R16L/2400VP6000FT BR SCT002 BKN007 OVC013 15/15 A2993 RMK AO2 T01500150=
202106140853 METAR KSEA 140853Z 23004KT 2 1/2SM R16L/3500VP6000FT BR SCT002 SCT009 OVC025 15/14 A2993 RMK AO2 SLP140 60002 T01500144 58002=
202106140834 SPECI KSEA 140834Z 00000KT 2 1/2SM BR SCT002 BKN025 OVC060 15/15 A2993 RMK AO2 T01500150=
202106140812 SPECI KSEA 140812Z 28003KT 3/4SM R16L/3000VP6000FT BR BKN002 OVC025 15/15 A2994 RMK AO2 T01500150=
202106140806 SPECI KSEA 140806Z 27004KT 2 1/2SM R16L/3000VP6000FT BR FEW002 BKN025 OVC110 15/15 A2994 RMK AO2 T01500150=
202106140753 METAR KSEA 140753Z 20004KT 6SM BR SCT006 SCT075 BKN110 OVC250 15/15 A2993 RMK AO2 RAE48 SLP140 P0001 T01500150 401780139=
202106140653 METAR KSEA 140653Z 22003KT 5SM -RA BR SCT002 BKN060 OVC110 16/15 A2994 RMK AO2 RAB39 SLP145 P0001 T01560150=
202106140624 SPECI KSEA 140624Z 21004KT 5SM R16L/1600VP6000FT BR SCT002 OVC055 16/15 A2994 RMK AO2 VIS N 1/2 T01560150=
202106140615 SPECI KSEA 140615Z 00000KT 2SM R16L/1400V2000FT BR BKN002 OVC060 16/15 A2994 RMK AO2 VIS N 1/2 T01560150=
202106140610 SPECI KSEA 140610Z 00000KT 1/2SM R16L/1600V2000FT FG BKN002 OVC060 16/15 A2994 RMK AO2 T01560150=
202106140604 SPECI KSEA 140604Z 00000KT 2SM R16L/1600V2200FT BR BKN002 BKN060 BKN120 15/15 A2994 RMK AO2 BKN002 V SCT T01500150=
202106140553 METAR KSEA 140553Z 24003KT 2SM R16L/1800VP6000FT BR BKN002 BKN060 OVC120 15/15 A2994 RMK AO2 SLP142 60023 T01500150 10167 20150 53001=
202106140549 SPECI KSEA 140549Z 24005KT 1 3/4SM R16L/2200VP6000FT BR SCT001 SCT060 OVC120 16/15 A2994 RMK AO2=
202106140453 METAR KSEA 140453Z 24004KT 10SM FEW005 BKN032 OVC100 16/16 A2993 RMK AO2 RAE12 SLP141 P0000 T01610156=
202106140353 METAR KSEA 140353Z 12007KT 7SM -RA FEW003 SCT070 OVC100 16/16 A2990 RMK AO2 RAE15B53 SLP130 P0000 T01610156=
202106140253 METAR KSEA 140253Z 15007KT 10SM -RA FEW007 SCT032 OVC100 16/16 A2993 RMK AO2 SLP141 P0004 60023 T01610156 51006=
202106140210 SPECI KSEA 140210Z 13005KT 5SM -RA BR SCT007 OVC095 16/16 A2992 RMK AO2 P0002 T01610156=
202106140153 METAR KSEA 140153Z 18003KT 2SM -RA BR SCT007 BKN029 OVC060 16/16 A2993 RMK AO2 SLP139 P0007 T01560156=
202106140053 METAR KSEA 140053Z 19003KT 2SM -RA BR FEW003 BKN025 OVC095 16/15 A2993 RMK AO2 SLP140 P0012 T01560150=
202106140033 SPECI KSEA 140033Z 24004KT 1/2SM R16L/1400VP6000FT RA BR SCT003 BKN023 OVC050 15/15 A2992 RMK AO2 SFC VIS 1 P0008 T01500150=
202106140028 SPECI KSEA 140028Z 25008KT 1/2SM R16L/4500VP6000FT -RA BR FEW003 BKN030 OVC085 16/16 A2993 RMK AO2 SFC VIS 5 P0006 T01560156=
202106140013 SPECI KSEA 140013Z 04004KT 3SM -RA BR FEW007 BKN065 OVC090 17/16 A2991 RMK AO2 P0005 T01670156=
202106132353 METAR KSEA 132353Z 06006KT 3SM -RA BR BKN060 OVC080 17/16 A2991 RMK AO2 SLP135 P0016 60031 T01670156 10178 20150 51010=
202106132253 METAR KSEA 132253Z 29003KT 3SM -RA BR BKN060 OVC090 16/16 A2991 RMK AO2 SLP134 P0012 T01610156=
202106132153 METAR KSEA 132153Z 28004KT 5SM -RA BR OVC075 16/15 A2990 RMK AO2 RAB11 SLP129 P0003 T01610150=
202106132053 METAR KSEA 132053Z 29006KT 10SM FEW010 OVC095 17/14 A2988 RMK AO2 SLP124 T01670144 55003=
202106131953 METAR KSEA 131953Z 31005KT 10SM SCT010 BKN080 OVC100 17/14 A2988 RMK AO2 SLP122 T01720144=
202106131940 SPECI KSEA 131940Z 28006KT 10SM SCT010 BKN095 BKN120 17/15 A2988 RMK AO2 T01720150=
202106131853 METAR KSEA 131853Z 30004KT 10SM BKN007 OVC040 17/14 A2988 RMK AO2 SLP124 T01670144=
202106131753 METAR KSEA 131753Z 29005KT 10SM BKN009 BKN040 OVC095 15/14 A2989 RMK AO2 RAE00B19E31 SLP128 P0000 60004 T01500139 10156 20139 50001=
202106131726 SPECI KSEA 131726Z 26003KT 10SM -RA BKN009 OVC095 16/14 A2991 RMK AO2 RAE00B19 P0000 T01560139=
202106131653 METAR KSEA 131653Z 09006KT 10SM -RA FEW016 SCT080 OVC095 16/14 A2990 RMK AO2 SLP130 P0001 T01560139=
202106131553 METAR KSEA 131553Z 26003KT 9SM -RA OVC016 14/13 A2992 RMK AO2 RAB52 SLP137 P0000 T01440128=
202106131453 METAR KSEA 131453Z VRB03KT 10SM SCT016 BKN085 OVC120 14/13 A2989 RMK AO2 RAE35 SLP125 P0001 60003 T01440133 51019=
202106131353 METAR KSEA 131353Z 25005KT 8SM -RA SCT004 OVC015 14/13 A2988 RMK AO2 RAB05 SLP123 P0002 T01390133=
202106131253 METAR KSEA 131253Z 28007KT 10SM BKN004 BKN010 OVC037 15/14 A2986 RMK AO2 RAE12 SLP117 P0000 T01500144=
202106131230 SPECI KSEA 131230Z 23009G22KT 10SM SCT006 BKN037 OVC100 15/14 A2986 RMK AO2 RAE12 P0000 T01500144=
202106131153 METAR KSEA 131153Z 12012KT 10SM -RA BKN100 OVC110 16/14 A2983 RMK AO2 SLP107 P0002 60033 70034 T01560144 10167 20144 56007=
202106131053 METAR KSEA 131053Z 11010KT 10SM -RA SCT060 OVC095 16/14 A2983 RMK AO2 SLP107 P0005 T01560144=
202106130953 METAR KSEA 130953Z 11012KT 8SM -RA OVC090 16/14 A2984 RMK AO2 SLP110 P0008 T01560139=
202106130853 METAR KSEA 130853Z 12010KT 7SM -RA OVC090 15/14 A2986 RMK AO2 SLP114 P0008 60018 T01500139 58001=
202106130753 METAR KSEA 130753Z 13007KT 6SM -RA BR BKN080 OVC095 16/14 A2986 RMK AO2 SLP116 P0007 T01560139 402280100=
202106130653 METAR KSEA 130653Z 16005KT 7SM -RA BKN075 OVC090 15/13 A2986 RMK AO2 SLP117 P0003 T01500133=
202106130553 METAR KSEA 130553Z 22007KT 10SM -RA OVC100 17/13 A2986 RMK AO2 RAE20B50 PRESRR SLP116 P0001 60001 T01670128 10228 20167 53014=
202106130453 METAR KSEA 130453Z 35003KT 10SM -RA OVC085 18/11 A2985 RMK AO2 SLP114 P0000 T01780111=
202106130353 METAR KSEA 130353Z 31007KT 10SM -RA OVC090 19/09 A2982 RMK AO2 RAB50 SLP103 P0000 T01890094=
202106130253 METAR KSEA 130253Z 30006KT 10SM FEW060 OVC120 21/09 A2982 RMK AO2 SLP101 T02060094 56028=
202106130153 METAR KSEA 130153Z 36007KT 10SM FEW060 OVC160 22/09 A2984 RMK AO2 SLP110 T02170094=
202106130053 METAR KSEA 130053Z 36008KT 10SM FEW040 OVC160 22/09 A2987 RMK AO2 SLP119 T02220094=
202106122353 METAR KSEA 122353Z 00000KT 10SM FEW035 OVC170 22/09 A2990 RMK AO2 SLP130 T02220094 10228 20178 58020=
202106122253 METAR KSEA 122253Z 31005KT 10SM FEW035 BKN250 22/09 A2993 RMK AO2 SLP139 T02170089=
202106122153 METAR KSEA 122153Z VRB04KT 10SM FEW035 BKN250 22/09 A2994 RMK AO2 SLP145 T02220094=
202106122053 METAR KSEA 122053Z 31007KT 10SM FEW035 BKN250 21/10 A2996 RMK AO2 SLP150 T02110100 56021=
202106121953 METAR KSEA 121953Z 28006KT 10SM FEW024 FEW100 SCT220 20/11 A2997 RMK AO2 SLP154 T02000106=
202106121853 METAR KSEA 121853Z VRB05KT 10SM SCT024 BKN220 19/10 A2999 RMK AO2 SLP162 T01890100=
202106121753 METAR KSEA 121753Z 23006KT 10SM SCT024 BKN220 18/11 A3002 RMK AO2 SLP172 T01780111 10183 20100 50001=
202106121653 METAR KSEA 121653Z VRB06KT 10SM FEW030 SCT080 BKN210 17/11 A3003 RMK AO2 SLP175 T01670106=
202106121553 METAR KSEA 121553Z VRB03KT 10SM FEW030 BKN200 16/11 A3004 RMK AO2 SLP176 T01560106=
202106121453 METAR KSEA 121453Z 13007KT 10SM FEW014 FEW030 SCT200 14/11 A3002 RMK AO2 SLP171 T01440111 51007=
202106121353 METAR KSEA 121353Z 11005KT 9SM FEW006 SCT014 12/12 A3001 RMK AO2 SLP169 T01220122=
202106121321 SPECI KSEA 121321Z 16003KT 9SM FEW003 SCT012 12/12 A3001 RMK AO2 T01170117=
202106121303 SPECI KSEA 121303Z 00000KT 2SM R16L/1400VP6000FT BCFG SCT003 SCT014 11/11 A3001 RMK AO2 TWR VIS 7 T01110111=
202106121253 METAR KSEA 121253Z 00000KT 1SM R16L/0400V1000FT BCFG SCT003 SCT014 11/11 A3001 RMK AO2 TWR VIS 7 SLP169 T01060106=
202106121232 SPECI KSEA 121232Z 00000KT 1/8SM R16L/0400V0500FT FG SCT001 SCT031 11/11 A3001 RMK AO2 TWR VIS 7 T01060106=
202106121227 SPECI KSEA 121227Z 29003KT 1/4SM R16L/0400V0500FT FG SCT001 SCT031 11/11 A3000 RMK AO2 TWR VIS 7 T01060106=
202106121218 SPECI KSEA 121218Z 00000KT 3/4SM R16L/0500V2000FT BR SCT001 SCT031 11/11 A3000 RMK AO2 TWR VIS 7 T01110111=
202106121213 SPECI KSEA 121213Z 00000KT 3/4SM R16L/0800VP6000FT BR FEW001 BKN032 11/11 A3000 RMK AO2 T01110111=
202106121153 METAR KSEA 121153Z 22003KT 10SM SCT039 12/11 A3000 RMK AO2 SLP165 60012 70046 T01170111 10128 20111 53011=
202106121053 METAR KSEA 121053Z 15005KT 10SM BKN034 BKN075 12/11 A2999 RMK AO2 SLP161 T01170111=
202106120953 METAR KSEA 120953Z 16004KT 10SM BKN038 BKN048 OVC070 12/12 A2998 RMK AO2 RAE0857 SLP157 P0000 T01220117=
202106120853 METAR KSEA 120853Z 16004KT 8SM -RA FEW007 SCT022 OVC032 13/12 A2996 RMK AO2 RAE03B47 SLP153 P0000 60012 T01280122 53004=
202106120836 SPECI KSEA 120836Z 13004KT 8SM SCT007 BKN032 OVC050 13/12 A2996 RMK AO2 RAE03 P0000 T01280122=
202106120753 METAR KSEA 120753Z 15003KT 7SM -RA OVC020 12/12 A2996 RMK AO2 RAB47 SLP151 P0002 T01220122 401500111=
202106120729 SPECI KSEA 120729Z 00000KT 10SM BKN024 BKN075 12/12 A2995 RMK AO2 T01220117=
202106120653 METAR KSEA 120653Z 30004KT 10SM FEW030 SCT038 12/11 A2995 RMK AO2 RAE18 SLP147 P0010 T01170111=
202106120621 SPECI KSEA 120621Z 29004KT 8SM SCT003 SCT024 SCT034 12/12 A2995 RMK AO2 RAE18 P0010 T01170117=
202106120612 SPECI KSEA 120612Z 27005KT 4SM -RA BR SCT003 BKN022 OVC042 12/12 A2995 RMK AO2 P0010 T01220122=
202106120609 SPECI KSEA 120609Z 27005KT 2 1/2SM -RA BR SCT003 BKN033 OVC041 12/12 A2996 RMK AO2 P0010 T01220122=
202106120600 SPECI KSEA 120600Z 27007KT 1 1/2SM R16L/6000VP6000FT +RA BR SCT003 BKN027 OVC055 12/12 A2995 RMK AO2 P0004 T01220122=
202106120553 METAR KSEA 120553Z 29010KT 2SM R16L/4000VP6000FT -RA BR SCT003 BKN032 OVC060 12/12 A2995 RMK AO2 RAB22 SLP149 P0003 60003 T01220117 10150 20122 50009=
202106120550 SPECI KSEA 120550Z 28009KT 2SM R16L/4000VP6000FT -RA BR SCT004 BKN045 OVC075 12/12 A2995 RMK AO2 RAB22 P0003=
202106120453 METAR KSEA 120453Z 02005KT 10SM FEW060 BKN080 14/12 A2993 RMK AO2 SLP142 T01390122=
202106120353 METAR KSEA 120353Z 01004KT 10SM FEW060 OVC080 14/13 A2993 RMK AO2 SLP140 T01390128=
202106120253 METAR KSEA 120253Z 00000KT 10SM FEW045 OVC070 15/12 A2993 RMK AO2 SLP140 60000 T01500122 55001=
202106120153 METAR KSEA 120153Z 08005KT 10SM SCT045 OVC070 14/12 A2992 RMK AO2 SLP139 T01440117=
202106120053 METAR KSEA 120053Z 13003KT 10SM FEW007 OVC041 14/12 A2993 RMK AO2 RAE12 SLP140 P0000 T01390122=
202106112353 METAR KSEA 112353Z 12005KT 5SM -RA BR FEW007 OVC043 13/11 A2993 RMK AO2 RAB40 SLP142 P0002 60028 T01330111 10133 20117 51004=
202106112253 METAR KSEA 112253Z 20004KT 8SM FEW007 BKN050 OVC070 13/12 A2993 RMK AO2 RAE52 SLP141 P0004 T01280122=
202106112153 METAR KSEA 112153Z 10003KT 5SM -RA BR FEW009 OVC070 13/11 A2993 RMK AO2 SLP140 P0007 T01280106=
202106112104 SPECI KSEA 112104Z 29003KT 7SM -RA FEW009 OVC065 13/11 A2992 RMK AO2 P0001 T01280106=
202106112053 METAR KSEA 112053Z 00000KT 7SM -RA FEW015 OVC065 13/11 A2992 RMK AO2 SLP138 P0002 60015 T01280106 56006=
202106111953 METAR KSEA 111953Z 34004KT 7SM -RA OVC055 12/09 A2992 RMK AO2 SLP138 P0010 T01220094=
202106111853 METAR KSEA 111853Z 00000KT 7SM -RA OVC055 13/09 A2993 RMK AO2 SLP141 P0003 T01280094=
202106111753 METAR KSEA 111753Z 15006KT 7SM -RA OVC060 13/09 A2994 RMK AO2 SLP143 P0002 60003 T01280094 10144 20122 56001=
202106111653 METAR KSEA 111653Z 14008KT 10SM -RA BKN060 OVC070 14/09 A2994 RMK AO2 SLP143 P0000 T01390089=
202106111553 METAR KSEA 111553Z VRB03KT 10SM -RA BKN060 OVC080 14/08 A2993 RMK AO2 SLP140 P0001 T01390078=
202106111453 METAR KSEA 111453Z 20003KT 10SM -RA BKN060 OVC070 13/08 A2994 RMK AO2 RAB50 SLP144 P0000 60000 T01330083 56001=
202106111353 METAR KSEA 111353Z 19006KT 10SM FEW050 SCT070 BKN095 13/07 A2994 RMK AO2 SLP145 T01280072=
202106111253 METAR KSEA 111253Z 00000KT 10SM FEW070 BKN090 OVC250 13/07 A2994 RMK AO2 SLP143 SHRA W T01330067=
202106111153 METAR KSEA 111153Z 00000KT 10SM FEW060 BKN100 OVC250 12/07 A2994 RMK AO2 SLP145 T01220067 10156 20122 56019=
202106111053 METAR KSEA 111053Z 32004KT 10SM BKN090 OVC110 13/07 A2996 RMK AO2 SLP152 T01330067=
202106110953 METAR KSEA 110953Z 12005KT 10SM OVC110 13/06 A2998 RMK AO2 SLP157 T01330061=
202106110853 METAR KSEA 110853Z 12006KT 10SM OVC120 13/07 A3000 RMK AO2 SLP164 T01330067 58029=
202106110753 METAR KSEA 110753Z 10008KT 10SM FEW100 BKN140 OVC250 14/07 A3003 RMK AO2 SLP175 T01390067 401830089=
202106110653 METAR KSEA 110653Z 12006KT 10SM BKN100 BKN130 OVC250 14/06 A3006 RMK AO2 SLP186 T01440061=
202106110553 METAR KSEA 110553Z 00000KT 10SM OVC120 16/05 A3009 RMK AO2 SLP194 T01560050 10178 20150 58007=
202106110453 METAR KSEA 110453Z 18004KT 10SM FEW070 BKN140 OVC250 16/04 A3010 RMK AO2 SLP199 T01560044=
202106110353 METAR KSEA 110353Z 20003KT 10SM FEW080 BKN150 BKN200 16/04 A3010 RMK AO2 SLP201 T01560039=
202106110253 METAR KSEA 110253Z 21004KT 10SM FEW080 BKN200 16/04 A3011 RMK AO2 SLP203 T01610039 56010=
202106110153 METAR KSEA 110153Z 20008KT 10SM FEW035 SCT080 BKN250 17/05 A3012 RMK AO2 SLP206 T01670050=
202106110053 METAR KSEA 110053Z 19008KT 10SM FEW035 SCT070 BKN250 17/05 A3013 RMK AO2 SLP209 T01670050=
202106102353 METAR KSEA 102353Z 22007KT 180V250 10SM FEW035 SCT070 BKN250 17/04 A3014 RMK AO2 SLP213 T01720044 10183 20144 58007=
202106102253 METAR KSEA 102253Z 23012KT 10SM FEW035 SCT075 BKN250 18/04 A3016 RMK AO2 SLP217 T01830044=
202106102153 METAR KSEA 102153Z 21008KT 10SM FEW030 SCT070 SCT250 17/06 A3016 RMK AO2 SLP218 T01720056=
202106102053 METAR KSEA 102053Z 22011KT 10SM SCT030 BKN065 16/04 A3016 RMK AO2 SLP220 T01610039 58001=
202106101953 METAR KSEA 101953Z 22010KT 10SM SCT030 BKN065 16/05 A3017 RMK AO2 SLP222 T01560050=
202106101853 METAR KSEA 101853Z 23010KT 10SM SCT025 BKN065 16/06 A3016 RMK AO2 SLP220 T01610061=
202106101753 METAR KSEA 101753Z 21009KT 10SM SCT025 SCT048 BKN060 16/07 A3016 RMK AO2 SLP221 T01560072 10156 20089 51003=
202106101653 METAR KSEA 101653Z 20011KT 10SM SCT020 BKN060 14/07 A3016 RMK AO2 SLP221 T01390067=
202106101553 METAR KSEA 101553Z 20011KT 10SM FEW015 SCT020 BKN060 12/07 A3016 RMK AO2 SLP221 T01220072=
202106101515 SPECI KSEA 101515Z 18008KT 10SM BKN017 BKN033 BKN041 11/07 A3016 RMK AO2 T01060067=
202106101510 SPECI KSEA 101510Z 10SM BKN017 BKN033 BKN041 11/07 A3016 RMK AO2 T01060067=
202106101453 METAR KSEA 101453Z 19008KT 10SM SCT025 BKN033 BKN040 11/07 A3016 RMK AO2 SLP218 T01060067 51005=
202106101353 METAR KSEA 101353Z 18006KT 10SM FEW025 SCT060 10/07 A3016 RMK AO2 SLP218 T01000072=
202106101253 METAR KSEA 101253Z 18005KT 10SM FEW025 BKN044 09/07 A3015 RMK AO2 SLP216 T00890072 $=
202106101153 METAR KSEA 101153Z 22005KT 10SM BKN044 10/08 A3014 RMK AO2 SLP212 T01000078 10128 20100 51010 $=
202106101053 METAR KSEA 101053Z 21005KT 10SM FEW045 BKN065 11/08 A3013 RMK AO2 SLP208 T01060078 $=
202106100953 METAR KSEA 100953Z 18004KT 10SM OVC043 11/08 A3013 RMK AO2 SLP207 T01110078 $=
202106100853 METAR KSEA 100853Z 00000KT 10SM BKN038 11/07 A3011 RMK AO2 SLP201 T01110072 53004 $=
202106100753 METAR KSEA 100753Z 03008KT 10SM SCT042 BKN070 12/07 A3010 RMK AO2 SLP198 T01220067 402000078 $=
202106100653 METAR KSEA 100653Z 05009KT 10SM BKN039 13/06 A3010 RMK AO2 SLP197 T01280061 $=
202106100553 METAR KSEA 100553Z 00000KT 10SM FEW100 FEW250 12/07 A3010 RMK AO2 SLP198 T01170072 10189 20117 58002 $=
202106100453 METAR KSEA 100453Z 23005KT 10SM FEW100 FEW250 13/07 A3011 RMK AO2 SLP202 T01330072 $=
202106100353 METAR KSEA 100353Z 26003KT 10SM FEW040 FEW100 SCT250 14/07 A3011 RMK AO2 SLP201 T01440067 $=
202106100253 METAR KSEA 100253Z 26007KT 10SM FEW040 SCT100 SCT250 16/07 A3010 RMK AO2 SLP200 T01560067 53004=
202106100153 METAR KSEA 100153Z 26004KT 10SM FEW035 SCT100 SCT250 16/06 A3010 RMK AO2 SLP198 T01610056=
202106100053 METAR KSEA 100053Z 32010KT 10SM FEW035 SCT055 SCT250 18/06 A3009 RMK AO2 SLP196 T01830061=
202106092353 METAR KSEA 092353Z VRB06KT 10SM SCT050 19/03 A3009 RMK AO2 SLP196 T01890028 10200 20150 56008=
202106092253 METAR KSEA 092253Z 21006KT 10SM FEW030 SCT050 18/03 A3010 RMK AO2 SLP198 T01830033=
202106092153 METAR KSEA 092153Z 28007KT 10SM FEW030 SCT050 18/03 A3010 RMK AO2 SLP200 T01830028=
202106092053 METAR KSEA 092053Z VRB06KT 10SM SCT035 17/02 A3012 RMK AO2 SLP204 T01720022 58009=
202106091953 METAR KSEA 091953Z VRB06KT 10SM SCT035 17/04 A3013 RMK AO2 SLP208 T01670039=
202106091853 METAR KSEA 091853Z 19009KT 10SM SCT025 17/05 A3014 RMK AO2 SLP211 T01670050=
202106091753 METAR KSEA 091753Z 21008KT 10SM SCT025 15/06 A3014 RMK AO2 SLP213 T01500061 10156 20078 58000=
202106091653 METAR KSEA 091653Z 18008KT 10SM SCT025 14/06 A3014 RMK AO2 SLP214 T01390061=
202106091553 METAR KSEA 091553Z 20008KT 10SM FEW030 SCT060 13/07 A3014 RMK AO2 SLP213 T01280072=
202106091453 METAR KSEA 091453Z 19006KT 10SM FEW030 FEW060 12/07 A3014 RMK AO2 SLP213 T01170072 53009=
202106091353 METAR KSEA 091353Z 17006KT 10SM FEW030 FEW060 11/07 A3013 RMK AO2 SLP209 T01060067=
202106091253 METAR KSEA 091253Z 17005KT 10SM FEW030 FEW065 08/06 A3012 RMK AO2 SLP205 T00830056 $=
202106091153 METAR KSEA 091153Z 16006KT 10SM FEW060 08/06 A3011 RMK AO2 SLP204 70001 T00780056 10117 20078 51004 $=
202106091053 METAR KSEA 091053Z 18007KT 10SM FEW060 09/06 A3011 RMK AO2 SLP202 T00890056 $=
202106090953 METAR KSEA 090953Z 16005KT 10SM FEW060 09/06 A3011 RMK AO2 SLP203 T00940056 $=
202106090853 METAR KSEA 090853Z 20009KT 10SM BKN060 11/07 A3010 RMK AO2 SLP198 T01060067 53004 $=
202106090753 METAR KSEA 090753Z 19003KT 10SM BKN060 11/06 A3009 RMK AO2 SLP195 T01060061 402060094 $=
202106090653 METAR KSEA 090653Z 19004KT 10SM SCT070 SCT120 11/07 A3009 RMK AO2 SLP196 T01110067 $=
202106090553 METAR KSEA 090553Z 19005KT 10SM FEW065 SCT120 12/08 A3009 RMK AO2 SLP195 60001 T01170083 10183 20117 51014 $=
202106090453 METAR KSEA 090453Z 15007KT 10SM SCT065 SCT120 12/09 A3008 RMK AO2 SLP193 T01220089 $=
202106090353 METAR KSEA 090353Z 16006KT 10SM BKN065 BKN090 13/07 A3006 RMK AO2 SLP186 T01330072 $=
202106090253 METAR KSEA 090253Z 20006KT 10SM FEW046 BKN060 BKN200 13/07 A3005 RMK AO2 RAE04 SLP180 P0000 60001 T01330072 53023 $=
202106090153 METAR KSEA 090153Z 20011KT 6SM -RA BKN065 BKN085 13/10 A3003 RMK AO2 RAB40 SLP175 P0001 T01280100 $=
202106090053 METAR KSEA 090053Z 21010KT 10SM FEW035 BKN085 18/03 A2999 RMK AO2 SLP162 VCSH T01780033 $=
202106082353 METAR KSEA 082353Z 21008KT 10SM FEW040 BKN100 18/04 A2998 RMK AO2 SLP157 T01830044 10206 20139 53003 $=
202106082253 METAR KSEA 082253Z VRB05KT 10SM SCT040 SCT085 SCT250 19/03 A2997 RMK AO2 SLP153 T01940028 $=
202106082153 METAR KSEA 082153Z 25010KT 10SM SCT040 SCT120 SCT250 19/02 A2996 RMK AO2 SLP152 T01890022 $=
202106082053 METAR KSEA 082053Z 31007KT 10SM SCT040 SCT120 19/04 A2997 RMK AO2 SLP153 SHRA DSNT SE AND SW T01890039 50000 $=
202106081953 METAR KSEA 081953Z 29006KT 10SM SCT039 SCT049 BKN060 BKN130 18/06 A2998 RMK AO2 SLP156 T01780061 $=
202106081853 METAR KSEA 081853Z 24007KT 10SM SCT029 BKN080 16/07 A2997 RMK AO2 SLP156 T01610072=
202106081753 METAR KSEA 081753Z 27006KT 10SM SCT025 BKN080 14/08 A2997 RMK AO2 SLP154 T01390078 10150 20094 50001=
202106081653 METAR KSEA 081653Z 27006KT 10SM FEW025 BKN080 14/08 A2997 RMK AO2 SLP155 T01440083=
202106081553 METAR KSEA 081553Z 03003KT 10SM FEW040 SCT085 BKN250 13/07 A2997 RMK AO2 SLP154 T01280067=
202106081453 METAR KSEA 081453Z 08005KT 10SM FEW050 SCT090 SCT250 12/07 A2996 RMK AO2 SLP153 T01220072 51007=
202106081353 METAR KSEA 081353Z VRB03KT 10SM SCT085 BKN250 11/07 A2996 RMK AO2 SLP152 T01110072=
202106081253 METAR KSEA 081253Z 07003KT 10SM SCT050 SCT090 09/07 A2995 RMK AO2 SLP148 T00940067=
202106081153 METAR KSEA 081153Z 04003KT 10SM FEW030 SCT090 09/06 A2994 RMK AO2 SLP145 T00940061 10111 20094 53002=
202106081053 METAR KSEA 081053Z 04004KT 10SM SCT090 10/06 A2993 RMK AO2 SLP143 T01000056=
202106080953 METAR KSEA 080953Z 03006KT 10SM SCT080 SCT100 10/06 A2994 RMK AO2 SLP144 T01000056=
202106080853 METAR KSEA 080853Z 35005KT 10SM SCT100 09/06 A2993 RMK AO2 SLP143 T00940056 50000=
202106080753 METAR KSEA 080753Z 34003KT 10SM BKN100 11/06 A2994 RMK AO2 SLP144 T01060056 401720067=
202106080653 METAR KSEA 080653Z 33004KT 10SM SCT085 SCT160 SCT250 11/06 A2994 RMK AO2 SLP144 T01060061=
202106080553 METAR KSEA 080553Z 34005KT 10SM SCT085 SCT250 11/07 A2993 RMK AO2 SLP142 T01110072 10172 20111 53006=
202106080453 METAR KSEA 080453Z 25003KT 10SM FEW045 SCT160 BKN250 13/04 A2993 RMK AO2 SLP140 T01280044=
202106080353 METAR KSEA 080353Z 00000KT 10SM FEW045 SCT160 BKN250 14/04 A2992 RMK AO2 SLP137 T01390039=
202106080253 METAR KSEA 080253Z 26005KT 10SM FEW045 SCT160 BKN250 15/04 A2991 RMK AO2 SLP136 T01500039 56004=
202106080153 METAR KSEA 080153Z 24005KT 10SM SCT045 SCT170 BKN250 15/03 A2992 RMK AO2 SLP136 T01500028=
202106080053 METAR KSEA 080053Z 19006KT 10SM SCT045 BKN250 16/03 A2992 RMK AO2 SLP138 T01610028=
202106072353 METAR KSEA 072353Z 23005KT 10SM SCT045 BKN250 16/03 A2993 RMK AO2 SLP140 T01610028 10172 20117 58010=
202106072253 METAR KSEA 072253Z 25009KT 10SM SCT042 BKN250 16/04 A2994 RMK AO2 SLP146 T01610039=
202106072156 SPECI KSEA 072156Z 23007KT 10SM FEW042 SCT060 BKN250 16/03 A2995 RMK AO2 T01560028=
202106072153 METAR KSEA 072153Z 10SM FEW042 SCT060 BKN250 16/03 A2995 RMK AO2 SLP147 T01560033=
202106072053 METAR KSEA 072053Z 22010G15KT 10SM SCT042 BKN250 15/04 A2996 RMK AO2 SLP150 T01500039 58005=
202106071953 METAR KSEA 071953Z VRB04KT 10SM SCT037 BKN055 BKN200 13/04 A2996 RMK AO2 SLP154 T01280044=
202106071853 METAR KSEA 071853Z 26006KT 10SM FEW025 SCT042 BKN200 13/05 A2997 RMK AO2 SLP155 T01280050=
202106071833 SPECI KSEA 071833Z VRB03KT 10SM FEW020 SCT028 BKN040 13/06 A2997 RMK AO2 T01280056=
202106071753 METAR KSEA 071753Z 26005KT 10SM SCT020 BKN028 BKN040 12/06 A2997 RMK AO2 SLP156 60000 T01170056 10117 20072 50003=
202106071729 SPECI KSEA 071729Z 18006KT 10SM SCT018 BKN024 BKN055 11/06 A2997 RMK AO2 T01110061=
202106071653 METAR KSEA 071653Z 19008KT 10SM SCT017 BKN035 10/07 A2997 RMK AO2 SLP157 T01000067=
202106071622 SPECI KSEA 071622Z 21009KT 10SM SCT015 BKN030 BKN060 10/07 A2998 RMK AO2 T01000067=
202106071553 METAR KSEA 071553Z 21007KT 10SM SCT015 BKN025 BKN030 09/07 A2997 RMK AO2 SLP157 T00940072=
202106071525 SPECI KSEA 071525Z 20007KT 10SM FEW010 BKN015 BKN055 09/07 A2997 RMK AO2 T00890067=
202106071500 SPECI KSEA 071500Z 21008KT 10SM SCT009 BKN014 BKN055 09/07 A2996 RMK AO2 T00890072=
202106071453 METAR KSEA 071453Z 22009KT 10SM FEW009 BKN025 BKN055 09/07 A2996 RMK AO2 SLP153 60000 T00890067 51025=
202106071412 SPECI KSEA 071412Z 21006KT 10SM FEW010 SCT019 BKN060 08/07 A2995 RMK AO2 T00780067=
202106071353 METAR KSEA 071353Z 23010KT 10SM SCT009 BKN015 BKN023 08/07 A2995 RMK AO2 RAE02 SLP147 P0000 T00780067=
202106071323 SPECI KSEA 071323Z 23009KT 7SM SCT009 BKN012 BKN043 08/07 A2993 RMK AO2 RAE02 P0000 T00780067=
202106071304 SPECI KSEA 071304Z 22011KT 6SM BR BKN009 BKN017 OVC022 07/06 A2993 RMK AO2 RAE02 P0000 T00720061 $=
202106071253 METAR KSEA 071253Z 22011KT 4SM -RA BR SCT009 BKN015 OVC026 08/07 A2992 RMK AO2 RAE1156B48 SLP139 P0000 T00780067 $=
202106071230 SPECI KSEA 071230Z 23008KT 10SM FEW009 BKN026 OVC032 08/07 A2991 RMK AO2 RAE1156 P0000 T00780067 $=
202106071201 SPECI KSEA 071201Z 23013KT 10SM SCT012 BKN017 OVC026 08/07 A2989 RMK AO2 RAE1156 P0000 T00780067 $=
202106071153 METAR KSEA 071153Z 22012G19KT 10SM -RA FEW009 OVC014 08/07 A2989 RMK AO2 SLP127 P0001 60030 70046 T00830067 10089 20067 53008 $=
202106071135 SPECI KSEA 071135Z 19012KT 7SM -RA SCT007 BKN014 OVC024 08/07 A2988 RMK AO2 P0001 T00830072 $=
202106071053 METAR KSEA 071053Z 17011G18KT 7SM -RA SCT017 BKN027 OVC047 08/07 A2987 RMK AO2 RAE04B50 SLP122 CIG 023V029 P0000 T00830072 $=
202106071005 SPECI KSEA 071005Z 13007KT 10SM FEW015 BKN026 OVC040 08/07 A2986 RMK AO2 RAE04 CIG 023V029 P0000 T00830072 $=
202106070953 METAR KSEA 070953Z 13009KT 7SM -RA SCT025 BKN034 OVC045 08/07 A2986 RMK AO2 RAB0858 SLP119 P0001 T00780072 $=
202106070853 METAR KSEA 070853Z 12007KT 8SM SCT030 BKN038 OVC049 07/06 A2986 RMK AO2 RAB12E53 SLP118 P0003 60028 T00720061 58001 $=
202106070753 METAR KSEA 070753Z 12007KT 10SM BKN047 BKN060 OVC180 07/06 A2985 RMK AO2 RAE25 SLP117 P0008 T00720061 $=
202106070707 SPECI KSEA 070707Z 00000KT 3SM RA BR FEW007 SCT025 OVC035 07/06 A2987 RMK AO2 P0004 T00670056 $=
202106070659 SPECI KSEA 070659Z 24009KT 4SM -RA BR FEW008 BKN026 OVC034 07/06 A2988 RMK AO2 P0002 T00670056 $=
202106070653 METAR KSEA 070653Z 24005KT 2 1/2SM RA BR FEW014 BKN026 OVC040 07/06 A2987 RMK AO2 SLP123 P0017 T00670056 401280067 $=
202106070634 SPECI KSEA 070634Z 24009G17KT 2 1/2SM RA BR FEW014 BKN024 OVC041 07/06 A2987 RMK AO2 VIS 1 1/2V4 PRESRR P0005 T00720061=
202106070553 METAR KSEA 070553Z 17007KT 6SM -RA BR FEW020 BKN040 OVC050 09/08 A2986 RMK AO2 RAE11B39 SLP119 P0003 60011 T00890078 10128 20083 53005=
202106070453 METAR KSEA 070453Z 22010KT 180V250 7SM -RA SCT015 BKN030 OVC050 10/08 A2985 RMK AO2 RAB44 SLP117 P0000 T01000078=
202106070353 METAR KSEA 070353Z 15009KT 10SM FEW033 FEW060 SCT080 BKN170 10/09 A2984 RMK AO2 SLP113 T01000089=
202106070253 METAR KSEA 070253Z 17005KT 10SM FEW033 SCT055 11/09 A2985 RMK AO2 RAE04 SLP114 P0001 60008 T01060089 56008=
202106070153 METAR KSEA 070153Z 23013G21KT 4SM -RA BR FEW018 BKN046 OVC055 10/08 A2985 RMK AO2 SLP117 P0007 T01000078=
202106070053 METAR KSEA 070053Z 15014KT 10SM -RA BKN028 OVC034 12/08 A2984 RMK AO2 RAE07B49 SLP112 P0000 T01220078=
202106062353 METAR KSEA 062353Z 18011G17KT 10SM -RA SCT028 BKN041 OVC055 12/08 A2987 RMK AO2 RAE03B50 SLP121 P0000 60003 T01220083 10128 20094 56013=
202106062314 SPECI KSEA 062314Z 19010KT 10SM SCT017 OVC046 12/08 A2988 RMK AO2 RAE03 P0000 T01170078=
202106062253 METAR KSEA 062253Z 21010KT 10SM -RA BKN018 BKN030 OVC065 12/09 A2989 RMK AO2 RAE28B44 SLP128 P0001 T01170089=
202106062248 SPECI KSEA 062248Z 21009KT 10SM -RA BKN018 BKN050 OVC065 12/08 A2989 RMK AO2 RAE28B44 P0001=
202106062153 METAR KSEA 062153Z 21010KT 9SM -RA FEW013 SCT036 OVC055 11/08 A2991 RMK AO2 SLP135 P0001 T01060083=
202106062053 METAR KSEA 062053Z 23011KT 9SM -RA SCT015 BKN049 OVC065 11/08 A2992 RMK AO2 RAB11 SLP137 P0001 60001 T01110083 56013=
202106061953 METAR KSEA 061953Z 22010KT 10SM FEW018 BKN047 OVC055 11/07 A2992 RMK AO2 SLP139 T01110072=
202106061853 METAR KSEA 061853Z 21009KT 10SM FEW020 OVC047 11/08 A2993 RMK AO2 SLP144 T01110078=
202106061753 METAR KSEA 061753Z 21010KT 10SM FEW022 BKN060 OVC070 09/07 A2995 RMK AO2 RAE29 SLP150 P0001 60002 T00940072 10106 20089 58018=
202106061653 METAR KSEA 061653Z 22011KT 10SM -RA SCT020 BKN049 OVC060 09/07 A2997 RMK AO2 SLP157 P0001 T00940072=
202106061553 METAR KSEA 061553Z 19008KT 10SM -RA SCT022 BKN060 OVC075 11/06 A3000 RMK AO2 RAB53 SLP164 P0000 T01060061=
202106061453 METAR KSEA 061453Z 18010KT 10SM SCT019 BKN055 OVC065 10/06 A3001 RMK AO2 RAB01E23 SLP167 P0000 60000 T01000056 58008=
202106061353 METAR KSEA 061353Z 18007KT 10SM SCT015 BKN019 OVC070 09/06 A3002 RMK AO2 SLP172 T00940061=
202106061253 METAR KSEA 061253Z 18007KT 10SM OVC016 09/06 A3003 RMK AO2 SLP176 T00940061=
202106061153 METAR KSEA 061153Z 19009KT 10SM BKN015 09/06 A3003 RMK AO2 SLP176 T00940061 10106 20089 58017=
202106061053 METAR KSEA 061053Z 19008KT 10SM OVC020 09/06 A3005 RMK AO2 SLP183 T00940061=
202106060953 METAR KSEA 060953Z 17008KT 10SM BKN017 09/06 A3006 RMK AO2 SLP186 T00940061=
202106060853 METAR KSEA 060853Z 18006KT 10SM OVC017 09/06 A3008 RMK AO2 SLP193 T00940061 58003=
202106060753 METAR KSEA 060753Z 20007KT 10SM BKN023 BKN055 10/06 A3009 RMK AO2 SLP196 T01000061=
202106060653 METAR KSEA 060653Z 20011KT 10SM SCT025 SCT045 10/06 A3009 RMK AO2 SLP197 T01000056 401890100=
202106060553 METAR KSEA 060553Z 20012KT 10SM FEW026 SCT044 11/06 A3009 RMK AO2 SLP196 T01060056 10172 20106 51009=
202106060453 METAR KSEA 060453Z 21012KT 10SM SCT033 BKN050 11/06 A3009 RMK AO2 SLP195 T01110061=
202106060353 METAR KSEA 060353Z 22013KT 10SM FEW034 BKN049 BKN060 12/06 A3007 RMK AO2 SLP190 T01220061=
202106060253 METAR KSEA 060253Z 23013G20KT 10SM SCT046 BKN070 13/04 A3007 RMK AO2 PK WND 24028/0231 SLP187 T01330039 53010=
202106060153 METAR KSEA 060153Z 24017G21KT 10SM SCT044 BKN060 16/04 A3005 RMK AO2 SLP183 T01560044=
202106060053 METAR KSEA 060053Z 23014G22KT 10SM BKN060 15/04 A3004 RMK AO2 PK WND 25026/2356 SLP180 T01500039=
202106052353 METAR KSEA 052353Z 24016G30KT 10SM BKN055 17/03 A3003 RMK AO2 PK WND 25030/2349 SLP176 T01720033 10189 20150 53012=
202106052253 METAR KSEA 052253Z 23018G23KT 10SM SCT050 SCT070 18/04 A3002 RMK AO2 SLP171 T01780044=
202106052153 METAR KSEA 052153Z 22015G26KT 10SM SCT040 SCT070 BKN230 18/06 A3000 RMK AO2 PK WND 22028/2106 SLP165 T01780061=
202106052053 METAR KSEA 052053Z 22016G23KT 10SM FEW033 BKN140 17/07 A3000 RMK AO2 PK WND 23029/1958 SLP164 T01720067 53007=
202106051953 METAR KSEA 051953Z 21019G30KT 10SM FEW033 SCT050 SCT085 17/07 A2999 RMK AO2 PK WND 21030/1949 SLP161 T01720067=
202106051853 METAR KSEA 051853Z 22017G24KT 10SM FEW030 SCT085 17/08 A2999 RMK AO2 PK WND 21026/1829 SLP159 T01670078=
202106051753 METAR KSEA 051753Z 21016G23KT 10SM SCT027 BKN085 15/07 A2998 RMK AO2 PK WND 20026/1738 SLP157 60000 T01500072 10167 20111 52004=
202106051653 METAR KSEA 051653Z 21015G21KT 10SM FEW022 BKN085 16/08 A2997 RMK AO2 PK WND 20026/1623 SLP155 T01560083=
202106051558 SPECI KSEA 051558Z 20014G22KT 10SM SCT022 BKN085 14/08 A2997 RMK AO2 T01390083=
202106051553 METAR KSEA 051553Z 20015G23KT 10SM BKN022 BKN085 14/08 A2997 RMK AO2 SLP154 T01390083=
202106051453 METAR KSEA 051453Z 20014KT 10SM BKN017 OVC025 12/09 A2997 RMK AO2 SLP152 60000 T01220094 53009=
202106051353 METAR KSEA 051353Z 19012KT 10SM SCT008 SCT018 BKN026 11/09 A2995 RMK AO2 RAE01 SLP146 P0000 T01110094=
202106051329 SPECI KSEA 051329Z 19013KT 10SM FEW008 BKN018 11/09 A2994 RMK AO2 RAE01 P0000 T01110094=
202106051253 METAR KSEA 051253Z 19012KT 10SM -RA BKN023 BKN032 12/09 A2994 RMK AO2 RAB46 SLP144 P0000 T01170089=
202106051153 METAR KSEA 051153Z 20008KT 10SM BKN026 OVC040 12/07 A2994 RMK AO2 SLP143 T01220072 10156 20122 55004=
202106051133 SPECI KSEA 051133Z 20009KT 10SM OVC028 12/07 A2994 RMK AO2 T01220067=
202106051053 METAR KSEA 051053Z 21005KT 10SM BKN032 OVC045 12/07 A2994 RMK AO2 SLP143 T01220067=
202106050953 METAR KSEA 050953Z 20007KT 10SM BKN045 BKN055 OVC085 13/06 A2994 RMK AO2 SLP145 T01330061=
202106050853 METAR KSEA 050853Z 20010KT 10SM BKN047 BKN085 13/06 A2995 RMK AO2 SLP148 T01330056 58008=
202106050753 METAR KSEA 050753Z 22013KT 10SM FEW060 BKN085 BKN180 14/05 A2996 RMK AO2 SLP151 T01390050=
202106050653 METAR KSEA 050653Z 22011KT 10SM BKN080 OVC180 14/05 A2997 RMK AO2 SLP154 T01440050 402000106=
202106050553 METAR KSEA 050553Z 22012KT 10SM SCT075 OVC090 16/05 A2998 RMK AO2 SLP156 T01560050 10200 20156 56010=
202106050453 METAR KSEA 050453Z 22011KT 10SM FEW040 SCT070 BKN090 17/05 A2999 RMK AO2 SLP159 T01670050=
202106050353 METAR KSEA 050353Z 23008KT 10SM FEW040 BKN080 BKN250 17/06 A2998 RMK AO2 SLP158 T01720056=
202106050253 METAR KSEA 050253Z 22009KT 10SM FEW035 BKN090 BKN250 18/07 A3001 RMK AO2 SLP166 T01830067 56012=
202106050153 METAR KSEA 050153Z 22007KT 10SM FEW035 BKN090 BKN250 19/08 A3001 RMK AO2 SLP168 T01940078=
202106050053 METAR KSEA 050053Z 18006KT 10SM FEW035 BKN100 BKN250 20/09 A3003 RMK AO2 SLP174 T02000089=
202106042353 METAR KSEA 042353Z 15006KT 10SM FEW035 SCT110 SCT250 19/09 A3004 RMK AO2 SLP178 T01940089 10200 20139 58018=
202106042256 SPECI KSEA 042256Z 19005KT 10SM FEW030 BKN095 BKN250 18/09 A3006 RMK AO2 T01830094=
202106042253 METAR KSEA 042253Z 10SM FEW030 BKN095 BKN250 18/09 A3006 RMK AO2 SLP186 T01830094=
202106042153 METAR KSEA 042153Z 26006KT 10SM FEW030 BKN110 BKN250 17/09 A3008 RMK AO2 SLP191 T01670089=
202106042053 METAR KSEA 042053Z 22007KT 10SM FEW025 BKN090 BKN130 BKN250 16/09 A3010 RMK AO2 SLP198 T01610089 58006=
202106041953 METAR KSEA 041953Z 19008KT 10SM FEW023 BKN110 15/08 A3011 RMK AO2 SLP202 T01500083=
202106041853 METAR KSEA 041853Z 22010KT 10SM SCT021 BKN045 14/08 A3012 RMK AO2 SLP204 T01440078=
202106041753 METAR KSEA 041753Z 17007KT 10SM SCT018 BKN036 BKN047 14/08 A3011 RMK AO2 SLP203 T01440078 10144 20106 53008=
202106041744 SPECI KSEA 041744Z 23007KT 10SM SCT018 BKN036 BKN047 13/08 A3011 RMK AO2 T01330078=
202106041653 METAR KSEA 041653Z 22004KT 10SM FEW010 BKN018 BKN032 13/08 A3010 RMK AO2 SLP198 T01280083=
202106041553 METAR KSEA 041553Z 20006KT 10SM BKN015 12/08 A3009 RMK AO2 SLP196 T01170083=
202106041453 METAR KSEA 041453Z 16005KT 10SM BKN017 11/08 A3009 RMK AO2 SLP194 T01110078 51015=
202106041400 SPECI KSEA 041400Z 15006KT 10SM OVC015 11/08 A3008 RMK AO2 T01110083=
202106041353 METAR KSEA 041353Z 17006KT 10SM BKN013 11/08 A3007 RMK AO2 SLP189 T01110083=
202106041253 METAR KSEA 041253Z 19007KT 10SM BKN014 BKN021 OVC039 11/08 A3007 RMK AO2 SLP188 T01110083=
202106041153 METAR KSEA 041153Z 19006KT 10SM OVC014 11/09 A3004 RMK AO2 SLP179 T01110089 10150 20111 50006=
202106041128 SPECI KSEA 041128Z 19006KT 10SM BKN016 OVC036 11/09 A3004 RMK AO2 T01110089=
202106041053 METAR KSEA 041053Z 19005KT 10SM OVC011 12/09 A3004 RMK AO2 SLP178 T01170089=
202106040953 METAR KSEA 040953Z 22006KT 10SM OVC010 12/09 A3003 RMK AO2 SLP174 T01170094=
202106040936 SPECI KSEA 040936Z 23006KT 10SM BKN010 12/09 A3003 RMK AO2 T01170094=
202106040927 SPECI KSEA 040927Z 19006KT 10SM FEW009 BKN049 12/09 A3002 RMK AO2 T01170094=
202106040853 METAR KSEA 040853Z 23006KT 10SM SCT048 11/09 A3003 RMK AO2 SLP173 T01110089 51013=
202106040753 METAR KSEA 040753Z 24007KT 10SM FEW039 12/09 A3002 RMK AO2 SLP171 T01170094=
202106040653 METAR KSEA 040653Z 24009KT 10SM FEW039 14/10 A3001 RMK AO2 SLP166 T01390100 402390133=
202106040553 METAR KSEA 040553Z 24005KT 10SM FEW039 15/11 A2999 RMK AO2 SLP160 T01500106 10239 20150 53014=
202106040453 METAR KSEA 040453Z 23005KT 10SM FEW039 16/12 A2997 RMK AO2 SLP155 T01560117=
202106040353 METAR KSEA 040353Z 00000KT 10SM SCT039 SCT250 19/13 A2995 RMK AO2 SLP148 T01940128=
202106040253 METAR KSEA 040253Z 29006KT 10SM SCT055 SCT250 21/14 A2995 RMK AO2 SLP145 T02060139 55001=
202106040153 METAR KSEA 040153Z 22009KT 10SM FEW040 SCT250 23/14 A2994 RMK AO2 SLP141 T02280139=
202106040053 METAR KSEA 040053Z 20007KT 10SM FEW035 SCT250 23/14 A2994 RMK AO2 SLP142 T02330144=
202106032353 METAR KSEA 032353Z 19008KT 10SM FEW035 SCT250 23/14 A2995 RMK AO2 SLP146 T02330144 10239 20178 58013=
202106032253 METAR KSEA 032253Z 20008KT 10SM FEW030 SCT250 24/14 A2997 RMK AO2 SLP152 T02390139=
202106032153 METAR KSEA 032153Z 28007KT 10SM FEW030 SCT250 23/13 A2998 RMK AO2 SLP155 T02330133=
202106032053 METAR KSEA 032053Z 23007KT 10SM FEW025 FEW120 SCT250 22/13 A2999 RMK AO2 SLP159 T02220133 58007=
202106031953 METAR KSEA 031953Z 25007KT 210V270 10SM FEW020 FEW120 SCT250 21/13 A2999 RMK AO2 SLP161 T02110128=
202106031853 METAR KSEA 031853Z 24008KT 10SM FEW020 FEW120 SCT250 19/13 A3001 RMK AO2 SLP166 T01890128=
202106031753 METAR KSEA 031753Z 26007KT 10SM FEW012 BKN250 18/13 A3001 RMK AO2 SLP166 T01780133 10183 20133 51003=
202106031719 SPECI KSEA 031719Z 24006KT 10SM SCT012 BKN250 17/13 A3001 RMK AO2 T01720128=
202106031653 METAR KSEA 031653Z 24006KT 10SM BKN012 17/13 A3001 RMK AO2 SLP166 T01670128=
202106031553 METAR KSEA 031553Z 23006KT 10SM OVC011 16/13 A3001 RMK AO2 SLP165 T01560128=
202106031505 SPECI KSEA 031505Z VRB05KT 10SM OVC010 15/13 A3000 RMK AO2 T01500128=
202106031453 METAR KSEA 031453Z 21005KT 10SM BKN009 OVC020 15/13 A3000 RMK AO2 SLP163 T01500128 51008=
202106031353 METAR KSEA 031353Z 21004KT 10SM BKN009 14/13 A3000 RMK AO2 SLP162 T01440128=
202106031253 METAR KSEA 031253Z 16004KT 10SM BKN005 13/13 A2999 RMK AO2 SLP159 T01330128=
202106031245 SPECI KSEA 031245Z 18004KT 10SM BKN005 14/13 A2999 RMK AO2 T01390128=
202106031231 SPECI KSEA 031231Z 20004KT 10SM SCT005 14/13 A2999 RMK AO2 T01390128=
202106031153 METAR KSEA 031153Z 20005KT 10SM FEW100 14/13 A2998 RMK AO2 SLP154 T01390128 10194 20133 53007=
202106031053 METAR KSEA 031053Z 20004KT 10SM SCT250 14/13 A2997 RMK AO2 SLP151 T01390128=
202106030953 METAR KSEA 030953Z 00000KT 10SM SCT250 15/12 A2996 RMK AO2 SLP149 T01500122=
202106030853 METAR KSEA 030853Z 27004KT 10SM SCT250 15/12 A2996 RMK AO2 SLP148 T01500122 53006=
202106030753 METAR KSEA 030753Z 27004KT 10SM SCT250 16/12 A2995 RMK AO2 SLP147 T01560122=
202106030653 METAR KSEA 030653Z 29004KT 10SM SCT250 17/12 A2994 RMK AO2 SLP142 T01720117 402940144=
202106030553 METAR KSEA 030553Z 02009KT 10SM SCT250 19/12 A2994 RMK AO2 SLP141 T01940117 10294 20194 51015=
202106030453 METAR KSEA 030453Z 02008KT 10SM SCT250 21/12 A2993 RMK AO2 SLP138 T02110117=
202106030353 METAR KSEA 030353Z 01009KT 10SM SCT250 22/12 A2991 RMK AO2 SLP132 T02220122=
202106030253 METAR KSEA 030253Z 27004KT 10SM FEW250 25/13 A2989 RMK AO2 SLP126 T02500128 55002=
202106030153 METAR KSEA 030153Z 27006KT 10SM FEW050 FEW250 27/14 A2989 RMK AO2 SLP125 T02670139=
202106030053 METAR KSEA 030053Z 23007G15KT 10SM FEW050 FEW250 28/14 A2989 RMK AO2 PK WND 27026/0015 SLP125 T02780144=
202106022353 METAR KSEA 022353Z 27006KT 10SM FEW050 FEW250 29/14 A2990 RMK AO2 SLP128 T02890139 10294 20239 58016=
202106022253 METAR KSEA 022253Z 22006KT 10SM FEW050 FEW250 28/14 A2992 RMK AO2 SLP134 T02780139=
202106022153 METAR KSEA 022153Z 18007KT 10SM FEW050 FEW250 28/14 A2993 RMK AO2 SLP140 T02830139=
202106022053 METAR KSEA 022053Z 20007KT 10SM FEW040 FEW250 27/14 A2995 RMK AO2 SLP144 T02720139 56005=
202106021953 METAR KSEA 021953Z 22006KT 10SM FEW040 FEW250 26/13 A2995 RMK AO2 SLP146 T02610133=
202106021853 METAR KSEA 021853Z 24006KT 10SM FEW250 24/14 A2996 RMK AO2 SLP147 T02440139=
202106021753 METAR KSEA 021753Z VRB04KT 10SM FEW250 23/13 A2996 RMK AO2 SLP150 T02330128 10244 20144 51005=
202106021653 METAR KSEA 021653Z VRB03KT 10SM FEW250 22/13 A2996 RMK AO2 SLP149 T02220128=
202106021553 METAR KSEA 021553Z 18005KT 10SM CLR 20/13 A2996 RMK AO2 SLP147 T02000133=
202106021453 METAR KSEA 021453Z 17005KT 10SM CLR 19/13 A2995 RMK AO2 SLP145 T01940128 53015=
202106021353 METAR KSEA 021353Z 00000KT 10SM FEW250 18/13 A2993 RMK AO2 SLP137 T01780133=
202106021253 METAR KSEA 021253Z 00000KT 10SM CLR 16/12 A2991 RMK AO2 SLP133 T01560122=
202106021153 METAR KSEA 021153Z 00000KT 10SM CLR 17/13 A2990 RMK AO2 SLP129 T01720128 10211 20167 53005=
202106021053 METAR KSEA 021053Z 09005KT 10SM CLR 19/12 A2989 RMK AO2 SLP125 T01890122=
202106020953 METAR KSEA 020953Z 00000KT 10SM CLR 19/13 A2990 RMK AO2 SLP128 T01890128=
202106020853 METAR KSEA 020853Z 01006KT 10SM CLR 19/12 A2989 RMK AO2 SLP124 T01940122 53002=
202106020753 METAR KSEA 020753Z 36007KT 10SM CLR 19/13 A2988 RMK AO2 SLP123 T01890128=
202106020653 METAR KSEA 020653Z 33004KT 10SM CLR 20/12 A2988 RMK AO2 SLP121 T02000122 403000144=
202106020553 METAR KSEA 020553Z 36006KT 10SM CLR 21/13 A2988 RMK AO2 SLP122 T02110128 10300 20211 55003=
202106020453 METAR KSEA 020453Z 35006KT 10SM CLR 23/13 A2988 RMK AO2 SLP121 T02280128=
202106020353 METAR KSEA 020353Z 35006KT 10SM CLR 25/12 A2988 RMK AO2 SLP121 T02500122=
202106020253 METAR KSEA 020253Z 35006KT 10SM CLR 28/13 A2989 RMK AO2 SLP125 T02780128 56015=
202106020153 METAR KSEA 020153Z 34008KT 10SM CLR 29/13 A2990 RMK AO2 SLP128 T02890128=
202106020053 METAR KSEA 020053Z 35009KT 10SM CLR 29/13 A2991 RMK AO2 SLP132 T02940133=
202106012353 METAR KSEA 012353Z 34008KT 10SM CLR 30/13 A2993 RMK AO2 SLP140 T03000128 10300 20239 56021=
202106012253 METAR KSEA 012253Z 36009KT 10SM CLR 29/13 A2995 RMK AO2 SLP146 T02940128=
202106012153 METAR KSEA 012153Z 35010KT 10SM CLR 29/13 A2997 RMK AO2 SLP153 T02940128=
202106012053 METAR KSEA 012053Z 34009KT 10SM CLR 28/13 A3000 RMK AO2 SLP161 T02830128 58023=
202106011953 METAR KSEA 011953Z 36007KT 310V030 10SM CLR 27/13 A3003 RMK AO2 SLP171 T02720128=
202106011853 METAR KSEA 011853Z 36006KT 10SM CLR 26/13 A3005 RMK AO2 SLP178 T02560128=
202106011753 METAR KSEA 011753Z 05005KT 10SM CLR 24/13 A3007 RMK AO2 SLP185 T02390128 10244 20144 58011=
202106011653 METAR KSEA 011653Z 02011KT 10SM FEW250 22/12 A3008 RMK AO2 SLP191 T02220122=
202106011553 METAR KSEA 011553Z 02010KT 10SM FEW250 21/12 A3010 RMK AO2 SLP196 T02060117=
202106011453 METAR KSEA 011453Z 01008KT 10SM FEW250 19/12 A3010 RMK AO2 SLP197 T01940117 56002=
202106011353 METAR KSEA 011353Z 34003KT 10SM FEW250 17/12 A3010 RMK AO2 SLP198 T01720117=
202106011253 METAR KSEA 011253Z 03006KT 10SM SCT250 16/11 A3010 RMK AO2 SLP198 T01560106=
202106011153 METAR KSEA 011153Z 03007KT 10SM BKN250 16/11 A3011 RMK AO2 SLP199 T01610106 10200 20161 58010=
202106011053 METAR KSEA 011053Z 01007KT 10SM BKN250 17/11 A3012 RMK AO2 SLP203 T01670106=
202106010953 METAR KSEA 010953Z 02010KT 10SM BKN250 17/11 A3012 RMK AO2 SLP204 T01720106=
202106010853 METAR KSEA 010853Z 36004KT 10SM SCT250 17/11 A3014 RMK AO2 SLP209 T01720106 56009=
202106010753 METAR KSEA 010753Z 04008KT 10SM CLR 18/11 A3015 RMK AO2 SLP213 T01830106=
202106010653 METAR KSEA 010653Z 04006KT 10SM BKN250 19/10 A3015 RMK AO2 SLP215 T01940100 402670122=
202106010553 METAR KSEA 010553Z 01010KT 10SM BKN250 20/10 A3016 RMK AO2 SLP219 T02000100 10261 20194 52006=
202106010453 METAR KSEA 010453Z 36009KT 10SM SCT250 20/10 A3016 RMK AO2 SLP218 T02000100=
202106010353 METAR KSEA 010353Z 36008KT 10SM BKN250 21/09 A3015 RMK AO2 SLP214 T02110094=
202106010253 METAR KSEA 010253Z 35011KT 10SM BKN250 23/09 A3015 RMK AO2 SLP212 T02280089 56005=
202106010153 METAR KSEA 010153Z 34010KT 10SM FEW140 BKN250 24/09 A3015 RMK AO2 SLP213 T02440094=
202106010053 METAR KSEA 010053Z 34012KT 10SM FEW050 FEW140 BKN250 26/09 A3016 RMK AO2 SLP216 T02560089=

# No short TAF reports from KSEA in databse.

###################################
#  large TAF from KSEA
###################################
202106302339 TAF KSEA 302339Z 0100/0206 21011KT P6SM SCT020 FM010900 22005KT
                       P6SM BKN030 FM011200 22005KT P6SM OVC017
                       FM012100 19005KT P6SM BKN021 FM020000 24008KT
                       P6SM SCT025=
202106302106 KSEA 302106Z 3021/0124 21007KT P6SM BKN022 FM302200 24008KT P6SM
                       SKC FM010900 22005KT P6SM BKN030 FM011200
                       22005KT P6SM OVC025=
202106301724 TAF KSEA 301724Z 3018/0124 21007KT P6SM OVC014 FM301900 22007KT
                       P6SM SCT020 FM302100 24008KT P6SM SKC FM010900
                       22005KT P6SM BKN030 FM011200 22005KT P6SM
                       OVC025=
202106301502 KSEA 301502Z 3015/0118 20008KT P6SM OVC012 FM301700 22007KT P6SM
                       SCT020 FM301900 24008KT P6SM SKC FM010900
                       22005KT P6SM BKN030 FM011200 22005KT P6SM
                       OVC025=
202106301326 KSEA 301326Z 3013/0118 20008KT P6SM OVC010 FM301700 22007KT P6SM
                       SCT020 FM301900 24008KT P6SM SKC FM010900
                       22005KT P6SM BKN030 FM011200 22005KT P6SM
                       OVC025=
202106301137 TAF KSEA 301137Z 3012/0118 21007KT P6SM SKC FM301400 23007KT P6SM
                       OVC015 FM301700 22007KT P6SM SCT020 FM301900
                       24008KT P6SM SKC FM010900 22005KT P6SM BKN030
                       FM011200 22005KT P6SM OVC025=
202106300904 KSEA 300904Z 3009/0112 21007KT P6SM SKC FM301200 23007KT P6SM OVC012
                       FM301700 22007KT P6SM SCT015 FM301900 24008KT
                       P6SM SKC FM010900 22005KT P6SM BKN030=
202106300541 TAF KSEA 300541Z 3006/0112 22010KT P6SM SKC FM301200 23007KT P6SM
                       OVC012 FM301700 22007KT P6SM SCT015 FM301900
                       24008KT P6SM SKC FM010900 22005KT P6SM BKN030=
202106300314 KSEA 300314Z 3003/0106 22010KT P6SM SKC FM301200 23007KT P6SM OVC013
                       FM301700 25007KT P6SM SCT015 FM301900 24007KT
                       P6SM SKC=
202106292326 TAF KSEA 292326Z 3000/0106 22008KT P6SM SKC FM301200 23007KT P6SM
                       OVC013 FM301700 25007KT P6SM SCT015 FM301900
                       24007KT P6SM SKC=
202106292119 KSEA 292119Z 2921/3024 20008KT P6SM SKC FM301200 23006KT P6SM OVC013
                       FM301700 25007KT P6SM SCT015=
202106291735 TAF KSEA 291735Z 2918/3024 23006KT P6SM SCT005 FM292300 27009KT
                       P6SM SKC FM301200 23006KT P6SM OVC013 FM301700
                       25007KT P6SM SCT015=
202106291507 KSEA 291507Z 2915/3018 20010KT P6SM SCT005 FM292300 25009KT P6SM
                       SKC FM301200 24006KT P6SM OVC010=
202106291227 KSEA 291227Z 2912/3018 20010KT P6SM SKC
                      TEMPO 2912/2915 BKN008 FM301400 23006KT P6SM
                       OVC015=
202106291132 TAF KSEA 291132Z 2912/3018 21011KT P6SM SKC
                      TEMPO 2912/2915 FEW005 FM301400 23006KT P6SM
                       OVC015=
202106290908 KSEA 290908Z 2909/3012 22012KT P6SM SKC
                      TEMPO 2912/2915 FEW005=
202106290535 TAF KSEA 290535Z 2906/3012 01011KT P6SM SKC FM290900 24010KT P6SM
                       SKC=
202106290300 KSEA 290300Z 2903/3006 36007KT P6SM SKC FM290600 24010KT P6SM SKC=
202106282355 TAF KSEA 282355Z 2900/3006 35010KT P6SM SKC FM290600 24010KT P6SM
                       SKC=
202106281728 TAF KSEA 281728Z 2818/2924 02012KT P6SM SKC FM281900 36010KT P6SM
                       SKC FM282100 35015KT P6SM SKC FM290600 24010KT
                       P6SM SKC=
202106281618 KSEA 281618Z 2816/2918 04013G22KT P6SM SKC FM281800 35010KT P6SM
                       SKC FM282100 12005KT P6SM SKC FM290600 24010KT
                       P6SM SKC=
202106281120 TAF KSEA 281120Z 2812/2918 34003KT P6SM SKC FM281800 35010KT P6SM
                       SKC FM282100 12005KT P6SM SKC FM290300 24010KT
                       P6SM SKC=
202106280902 KSEA 280902Z 2809/2912 34003KT P6SM SKC FM281800 35010KT P6SM SKC
                       FM282100 12005KT P6SM SKC FM290300 24010KT
                       P6SM SKC=
202106280543 TAF KSEA 280543Z 2806/2912 02007KT P6SM SKC FM281800 35010KT P6SM
                       SKC=
202106280300 KSEA 280300Z 2803/2906 35010KT P6SM SKC FM280600 02007KT P6SM SKC
                       FM281800 35010KT P6SM SKC=
202106272320 TAF KSEA 272320Z 2800/2906 32009KT P6SM SKC FM280600 02007KT P6SM
                       SKC FM281800 35010KT P6SM SKC=
202106272100 KSEA 272100Z 2721/2824 34010KT P6SM SKC FM280600 02007KT P6SM SKC=
202106271720 TAF KSEA 271720Z 2718/2824 01008KT P6SM SKC FM272000 35012G20KT
                       P6SM SKC FM280600 02007KT P6SM SKC=
202106271500 KSEA 271500Z 2715/2818 03008KT P6SM SKC FM271900 35012G20KT P6SM
                       SKC FM280600 02007KT P6SM SKC=
202106271120 TAF KSEA 271120Z 2712/2818 02006KT P6SM SKC FM271900 35012G20KT
                       P6SM SKC FM280600 02007KT P6SM SKC=
202106270901 KSEA 270901Z 2709/2812 02006KT P6SM SKC FM272000 35012G20KT P6SM
                       SKC FM280600 02007KT P6SM SKC=
202106270551 TAF KSEA 270551Z 2706/2812 02006KT P6SM SKC FM272000 35012KT P6SM
                       SKC=
202106270258 KSEA 270258Z 2703/2806 36008KT P6SM SKC FM270600 02006KT P6SM SKC
                       FM272000 35012KT P6SM SKC=
202106262329 TAF KSEA 262329Z 2700/2806 32009KT P6SM SKC FM270600 01006KT P6SM
                       SKC FM272000 35012KT P6SM SKC=
202106262104 KSEA 262104Z 2621/2724 31009KT P6SM SKC FM262200 32009KT P6SM SKC
                       FM270600 01006KT P6SM SKC=
202106261731 TAF KSEA 261731Z 2618/2724 33005KT P6SM SKC FM262200 34010KT P6SM
                       SKC FM270600 01006KT P6SM SKC=
202106261502 KSEA 261502Z 2615/2718 00000KT P6SM SKC FM261900 34010KT P6SM SKC
                       FM270600 01006KT P6SM SKC=
202106261123 TAF KSEA 261123Z 2612/2718 00000KT P6SM SKC FM261900 34010KT P6SM
                       SKC FM270600 01006KT P6SM SKC=
202106260903 KSEA 260903Z 2609/2712 00000KT P6SM SKC FM261900 34010KT P6SM SKC
                       FM270600 01006KT P6SM SKC=
202106260522 TAF KSEA 260522Z 2606/2712 03007KT P6SM SKC FM261900 34010KT P6SM
                       SKC FM270600 01006KT P6SM SKC=
202106260301 KSEA 260301Z 2603/2706 03007KT P6SM SKC FM261900 33007KT P6SM SKC=
202106252328 TAF KSEA 252328Z 2600/2706 35009KT P6SM SCT250 FM260300 01004KT
                       P6SM SKC FM261900 33007KT P6SM SKC=
202106252105 KSEA 252105Z 2521/2624 35007KT P6SM SCT250 FM252300 35009KT P6SM
                       SCT250 FM260200 01004KT P6SM SKC=
202106251731 TAF KSEA 251731Z 2518/2624 33007KT P6SM BKN250 FM252200 35010KT
                       P6SM SCT250 FM260200 01004KT P6SM SKC=
202106251502 KSEA 251502Z 2515/2618 35007KT P6SM BKN250 FM252200 35010KT P6SM
                       SCT250 FM260500 01004KT P6SM SKC=
202106251125 TAF KSEA 251125Z 2512/2618 02004KT P6SM BKN250 FM251700 35008KT
                       P6SM SCT250 FM260500 01004KT P6SM SKC=
202106250906 KSEA 250906Z 2509/2612 02004KT P6SM BKN250 FM251700 35008KT P6SM
                       SCT250 FM260500 01004KT P6SM SCT250=
202106250520 TAF KSEA 250520Z 2506/2612 36007KT P6SM BKN250 FM250900 02004KT
                       P6SM BKN250 FM251700 35008KT P6SM SCT250
                       FM260500 01004KT P6SM SCT250=
202106250311 KSEA 250311Z 2503/2606 36007KT P6SM BKN250 FM251700 35006KT P6SM
                       SCT250=
202106242328 TAF KSEA 242328Z 2500/2606 35011KT P6SM SCT250 FM250200 02005KT
                       P6SM SCT250 FM251700 35006KT P6SM SCT250=
202106242104 KSEA 242104Z 2421/2524 30007KT P6SM SCT250 FM250200 02003KT P6SM
                       SCT250=
202106241736 TAF KSEA 241736Z 2418/2524 21004KT P6SM SCT250 FM242100 30007KT
                       P6SM SCT250 FM250200 02003KT P6SM SCT250=
202106241510 KSEA 241510Z 2415/2518 21004KT P6SM FEW005 SCT060 BKN250 FM241800
                       23004KT P6SM SCT250 FM242000 30007KT P6SM
                       SCT250 FM250200 02003KT P6SM SCT250=
202106241133 TAF KSEA 241133Z 2412/2518 30003KT P6SM SCT250 FM241300 21004KT
                       P6SM SCT008 FM241800 23004KT P6SM SCT250
                       FM242000 30007KT P6SM SCT250=
202106240900 KSEA 240900Z 2409/2512 30003KT P6SM SCT250 FM241300 21004KT P6SM
                       SCT008 FM241800 23004KT P6SM SCT250 FM242000
                       26006KT P6SM SCT250=
202106240520 TAF KSEA 240520Z 2406/2512 34003KT P6SM SCT250 FM241300 21004KT
                       P6SM SCT008 FM241800 23004KT P6SM SCT250
                       FM242000 26006KT P6SM SCT250=
202106240251 KSEA 240251Z 2403/2506 25005KT P6SM FEW250 FM240600 34003KT P6SM
                       SCT250 FM241300 21004KT P6SM SCT008 FM241800
                       23004KT P6SM SCT250 FM242000 26006KT P6SM
                       SCT250=
202106232320 TAF KSEA 232320Z 2400/2506 25005KT P6SM SCT250 FM241300 21004KT
                       P6SM SCT008 FM241800 23004KT P6SM SCT250
                       FM242000 26006KT P6SM SCT250=
202106232057 KSEA 232057Z 2321/2424 26007KT P6SM FEW030 SCT100 FM232200 24007KT
                       P6SM SCT250 FM241300 21004KT P6SM SCT008
                       FM241800 23004KT P6SM SCT250=
202106231727 TAF KSEA 231727Z 2318/2424 21006KT P6SM BKN010 BKN050 FM231900
                       25006KT P6SM SCT100 FM232200 24007KT P6SM
                       SCT250 FM241300 21004KT P6SM SCT008 FM241800
                       23004KT P6SM SCT250=
202106231500 KSEA 231500Z 2315/2418 21008KT P6SM OVC005 FM231700 21006KT P6SM
                       BKN010 FM231900 25006KT P6SM SCT250 FM241300
                       21004KT P6SM SCT008
                      TEMPO 2413/2416 BKN008=
202106231122 TAF KSEA 231122Z 2312/2418 21008KT P6SM OVC005 FM231700 21006KT
                       P6SM BKN010 FM231900 25006KT P6SM SCT250
                       FM241300 21004KT P6SM SCT008
                      TEMPO 2413/2416 BKN008=
202106230901 KSEA 230901Z 2309/2412 21008KT P6SM FEW007 SCT250 FM231000 20006KT
                       P6SM OVC007 FM231700 21006KT P6SM BKN015
                       FM231900 25006KT P6SM SCT250=
202106230520 TAF KSEA 230520Z 2306/2412 19006KT P6SM FEW250 FM231100 20006KT
                       P6SM OVC009 FM231700 21006KT P6SM BKN015
                       FM231900 25006KT P6SM SCT250=
202106230251 KSEA 230251Z 2303/2406 20007KT P6SM SCT250 FM230600 22007KT P6SM
                       BKN200 FM230900 20007KT P6SM SCT012
                      TEMPO 2309/2312 BKN012 FM231200 21010KT P6SM
                       BKN009 FM231700 20010KT P6SM BKN015
                      TEMPO 2318/2320 SCT020 FM232000 23006KT P6SM
                       SKC=
202106222320 TAF KSEA 222320Z 2300/2406 27007KT P6SM SCT200 FM230600 22007KT
                       P6SM BKN200 FM230900 20007KT P6SM SCT012
                       TEMPO 2309/2312 BKN012 FM231200 21010KT
                       P6SM OVC012 FM231700 20010KT P6SM BKN015
                       TEMPO 2318/2320 SCT020 FM232000 23006KT
                       P6SM SKC=
202106222104 KSEA 222104Z 2221/2324 24007KT P6SM SCT200 FM231200 21010KT P6SM
                       OVC012 FM231700 20010KT P6SM BKN015 FM232000
                       23006KT P6SM SKC=
202106221734 TAF KSEA 221734Z 2218/2324 23008KT P6SM SKC FM231200 21010KT P6SM
                       OVC012 FM231700 20010KT P6SM BKN015 FM232000
                       23006KT P6SM SKC=
202106221502 KSEA 221502Z 2215/2318 21010KT P6SM SCT006
                      TEMPO 2215/2218 BKN006 FM221900 24008KT P6SM
                       SCT250 FM231200 21010KT P6SM OVC012=
202106221125 TAF KSEA 221125Z 2212/2318 20005KT P6SM FEW250 FM221300 22007KT
                       P6SM FEW250
                      TEMPO 2213/2217 BKN007 FM221900 24008KT P6SM
                       SCT250 FM231300 21006KT P6SM OVC015=
202106220907 KSEA 220907Z 2209/2312 VRB03KT P6SM FEW250 FM221400 22007KT P6SM
                       FEW250
                      TEMPO 2214/2217 BKN015 FM221900 24008KT P6SM
                       SCT250=
202106220523 TAF KSEA 220523Z 2206/2312 35008KT P6SM SKC FM221400 22007KT P6SM
                       SCT250
                      TEMPO 2214/2217 BKN015 FM221900 24008KT P6SM
                       SCT250=
202106220251 KSEA 220251Z 2203/2306 36006KT P6SM FEW060 FM220900 29006KT P6SM
                       SCT250 FM221400 22007KT P6SM SCT250
                      TEMPO 2214/2217 BKN015 FM221900 23006KT P6SM
                       FEW250=
202106212320 TAF KSEA 212320Z 2200/2306 30008KT P6SM FEW250 FM220900 24006KT
                       P6SM SCT250 FM221400 22007KT P6SM SCT250
                       TEMPO 2214/2217 BKN015=
202106212102 KSEA 212102Z 2121/2224 30008KT P6SM FEW250 FM220900 24006KT P6SM
                       SCT250 FM221400 22007KT P6SM SCT250
                      TEMPO 2214/2217 BKN015=
202106211720 TAF KSEA 211720Z 2118/2224 30008KT P6SM SKC FM220900 24006KT P6SM
                       SCT250 FM221400 22005KT P6SM BKN015=
202106211502 KSEA 211502Z 2115/2218 04006KT P6SM SKC FM211700 32008KT P6SM SKC
                       FM220900 24006KT P6SM SCT250 FM221400 22005KT
                       P6SM BKN015=
202106211121 TAF KSEA 211121Z 2112/2218 01006KT P6SM SKC FM211700 30009KT P6SM
                       SKC FM220900 24006KT P6SM SCT250 FM221500
                       22005KT P6SM BKN015=
202106210902 KSEA 210902Z 2109/2212 01007KT P6SM SKC FM211700 30009KT P6SM SKC
                       FM221000 26006KT P6SM SCT250=
202106210522 TAF KSEA 210522Z 2106/2212 01007KT P6SM FEW250 FM211700 30010KT
                       P6SM SKC FM221000 26006KT P6SM SCT250=
202106210301 KSEA 210301Z 2103/2206 36010KT P6SM SKC FM210400 02006KT P6SM SKC
                       FM211700 30007KT P6SM FEW250=
202106202320 TAF KSEA 202320Z 2100/2206 33010KT P6SM SKC FM210400 02006KT P6SM
                       SKC FM211700 30007KT P6SM FEW250=
202106202058 KSEA 202058Z 2021/2124 36010KT P6SM SKC FM210400 02006KT P6SM SKC
                       FM211700 31007KT P6SM FEW250=
202106201720 TAF KSEA 201720Z 2018/2124 36010KT P6SM SKC FM210600 02006KT P6SM
                       SKC=
202106201458 KSEA 201458Z 2015/2118 36010KT P6SM SKC FM210600 02006KT P6SM SKC=
202106201128 TAF KSEA 201128Z 2012/2118 36010KT P6SM SKC FM210600 02006KT P6SM
                       SKC=
202106200901 KSEA 200901Z 2009/2112 36008KT P6SM OVC060 FM201800 35009KT P6SM
                       SKC FM210800 02005KT P6SM SKC=
202106200521 TAF KSEA 200521Z 2006/2112 02006KT P6SM FEW060 SCT150 FM201800
                       35009KT P6SM SKC FM210800 02005KT P6SM SKC=
202106200304 KSEA 200304Z 2003/2106 03008KT P6SM SCT080 BKN250 FM200600 02004KT
                       P6SM SCT250 FM201800 35006KT P6SM SCT250=
202106192320 TAF KSEA 192320Z 2000/2106 29008KT P6SM SCT080 BKN250 FM200600
                       02004KT P6SM SCT250 FM201800 35006KT P6SM
                       SCT250=
202106192100 KSEA 192100Z 1921/2024 26006KT P6SM SCT070 SCT200 FM192200 30008KT
                       P6SM SCT070 BKN250 FM200600 02004KT P6SM
                       SCT250 FM201800 35006KT P6SM SCT250=
202106191720 TAF KSEA 191720Z 1918/2024 26006KT P6SM SCT200 FM192200 30008KT
                       P6SM SCT100 BKN250 FM200600 02004KT P6SM
                       SCT250=
202106191501 KSEA 191501Z 1915/2018 05004KT P6SM SCT200 FM191800 26006KT P6SM
                       SCT200 FM192200 30008KT P6SM BKN250 FM200600
                       02004KT P6SM BKN250=
202106191123 TAF KSEA 191123Z 1912/2018 36008KT P6SM FEW250 FM191300 05004KT
                       P6SM SCT200 FM191800 26006KT P6SM SCT200
                       FM192200 30008KT P6SM BKN250 FM200600 02004KT
                       P6SM BKN250=
202106190850 KSEA 190850Z 1909/2012 02007KT P6SM BKN250 FM191300 05004KT P6SM
                       SCT200 FM191800 26006KT P6SM SCT200 FM192200
                       30008KT P6SM BKN250 FM200600 02004KT P6SM
                       BKN250=
202106190522 TAF KSEA 190522Z 1906/2012 04011KT P6SM BKN250 FM190700 03008KT
                       P6SM SCT200 FM191300 VRB04KT P6SM SCT200
                       FM191800 26006KT P6SM SCT200 FM192200 30008KT
                       P6SM BKN250=
202106190300 KSEA 190300Z 1903/2006 01012KT P6SM FEW050 BKN250 FM190700 02006KT
                       P6SM SCT200 FM191300 VRB04KT P6SM SCT200
                       FM192200 30008KT P6SM BKN120=
202106182339 TAF KSEA 182339Z 1900/2006 31009KT P6SM FEW040 SCT250 FM190100
                       34007KT P6SM SCT250 FM190700 02006KT P6SM
                       SCT200 FM191300 VRB04KT P6SM SCT200 FM192200
                       30008KT P6SM BKN120=
202106182105 KSEA 182105Z 1821/1924 34009KT P6SM FEW030 SCT200 FM190100 34012KT
                       P6SM SKC FM190700 02006KT P6SM SCT200 FM191400
                       VRB04KT P6SM SCT200=
202106181729 TAF KSEA 181729Z 1818/1924 35007KT P6SM SCT250 FM181900 34009KT
                       P6SM SCT200 FM190100 34012KT P6SM SKC FM190700
                       02006KT P6SM SCT200 FM191400 VRB04KT P6SM
                       SCT200=
202106181502 KSEA 181502Z 1815/1918 03008KT P6SM FEW250 FM181600 35007KT P6SM
                       SCT200 FM181900 32009KT P6SM SCT200 FM190100
                       34012KT P6SM SKC FM190700 02006KT P6SM SCT200=
202106181120 TAF KSEA 181120Z 1812/1918 03007KT P6SM SKC FM181600 35007KT P6SM
                       BKN200 FM181900 32009KT P6SM SCT200 FM190100
                       34012KT P6SM SKC FM190700 02006KT P6SM SCT200=
202106180906 KSEA 180906Z 1809/1912 04010KT P6SM BKN200 FM181100 03005KT P6SM
                       SKC FM181600 32007KT P6SM BKN200 FM181900
                       28009KT P6SM BKN200 FM190100 34012KT P6SM
                       BKN200 FM190700 02006KT P6SM SCT200=
202106180537 TAF KSEA 180537Z 1806/1912 35008KT P6SM BKN200 FM181100 03005KT
                       P6SM SKC FM181600 32005KT P6SM BKN200 FM181900
                       28006KT P6SM BKN200 FM190100 34008KT P6SM
                       BKN200=
202106180305 KSEA 180305Z 1803/1906 34007KT P6SM BKN250 FM180600 01007KT P6SM
                       FEW250 FM181100 03005KT P6SM SKC FM181600
                       32005KT P6SM SKC FM181900 28006KT P6SM SKC=
202106172327 TAF KSEA 172327Z 1800/1906 29008KT P6SM FEW250 FM180500 01007KT
                       P6SM SKC FM181100 03005KT P6SM SCT200 FM181600
                       32005KT P6SM SKC FM181900 28006KT P6SM SKC=
202106172101 KSEA 172101Z 1721/1824 31008KT P6SM FEW250 FM180500 01010KT P6SM
                       SKC FM181100 03005KT P6SM SCT200 FM181600
                       34005KT P6SM SKC=
202106171727 TAF KSEA 171727Z 1718/1824 30006KT P6SM FEW250 FM172100 31007KT
                       P6SM SKC FM180500 01010KT P6SM SKC FM181100
                       03005KT P6SM SCT200 FM181600 34005KT P6SM
                       SKC=
202106171500 KSEA 171500Z 1715/1818 03006KT P6SM SKC FM171800 32010KT P6SM SKC
                       FM180300 01010KT P6SM SKC FM181000 03005KT
                       P6SM SCT200=
202106171120 TAF KSEA 171120Z 1712/1818 04005KT P6SM SKC FM171800 32010KT P6SM
                       SKC FM180300 01010KT P6SM SKC FM181000 03005KT
                       P6SM SCT200=
202106170905 KSEA 170905Z 1709/1812 02007KT P6SM SKC FM171300 03005KT P6SM SKC
                       FM171800 32010KT P6SM SKC FM180600 01012KT
                       P6SM SKC=
202106170532 TAF KSEA 170532Z 1706/1812 36007KT P6SM SKC FM170900 02005KT P6SM
                       SKC FM171800 32010KT P6SM SKC FM180600 01012KT
                       P6SM SKC=
202106170303 KSEA 170303Z 1703/1806 35011KT P6SM SKC FM170600 02005KT P6SM SKC
                       FM171800 30010KT P6SM SKC=
202106162327 TAF KSEA 162327Z 1700/1806 35010KT P6SM SKC FM170600 02005KT P6SM
                       SKC FM171800 30010KT P6SM SKC=
202106162151 KSEA 162151Z 1622/1724 35009KT P6SM SKC FM170600 02005KT P6SM SKC=
202106161721 TAF KSEA 161721Z 1618/1724 28005KT P6SM SCT040 FM162100 35008KT
                       P6SM SKC FM170600 02005KT P6SM SKC=
202106161429 KSEA 161429Z 1614/1718 18006KT P6SM SCT025 OVC040 FM161700 VRB04KT
                       P6SM SCT040 FM161900 26004KT P6SM SCT040
                       FM162100 35008KT P6SM SKC=
202106161126 TAF KSEA 161126Z 1612/1718 18006KT P6SM SCT022 OVC040
                      TEMPO 1613/1616 BKN022 OVC040 FM161700 VRB04KT
                       P6SM BKN040 FM161900 VRB04KT P6SM SCT040
                       FM162100 35008KT P6SM SKC=
202106160903 KSEA 160903Z 1609/1712 18006KT P6SM BKN040 FM161200 18006KT P6SM
                       BKN022 FM161700 VRB04KT P6SM SCT030 FM162100
                       35008KT P6SM SKC=
202106160537 TAF KSEA 160537Z 1606/1712 21010KT P6SM SCT050 FM161200 18006KT
                       P6SM BKN022 FM161700 VRB04KT P6SM SCT030
                       FM162100 35008KT P6SM SKC=
202106160301 KSEA 160301Z 1603/1706 23010KT P6SM FEW035 SCT100 SCT200 FM160600
                       21010KT P6SM SCT050 FM161200 18006KT P6SM
                       BKN022 FM161800 VRB04KT P6SM SCT030=
202106152320 TAF KSEA 152320Z 1600/1706 23012KT P6SM VCSH BKN050 BKN090 FM160600
                       21010KT P6SM SCT050 FM161200 18006KT P6SM
                       BKN022 FM161800 VRB04KT P6SM SCT030=
202106151720 TAF KSEA 151720Z 1518/1624 20008KT P6SM SCT025 BKN050 BKN200 FM152200
                       21010KT P6SM -SHRA SCT025 BKN045 FM160200
                       21010KT P6SM BKN050 FM161100 18006KT P6SM
                       BKN022 FM161700 23005KT P6SM SCT030=
202106151504 KSEA 151504Z 1515/1618 19006KT P6SM BKN045 BKN250 FM152200 21008KT
                       P6SM -SHRA SCT025 OVC045
                      PROB30 1600/1602 -TSRA SCT025 OVC045CB FM160200
                       21008KT P6SM BKN050 FM161100 21008KT P6SM
                       OVC022=
202106151133 TAF KSEA 151133Z 1512/1618 19006KT P6SM BKN045 BKN250 FM152200
                       21008KT P6SM -SHRA SCT025 OVC045
                      PROB30 1522/1602 -TSRA SCT025 OVC045CB FM160200
                       21008KT P6SM BKN050 FM161100 21008KT P6SM
                       OVC022=
202106150919 KSEA 150919Z 1509/1612 18004KT P6SM BKN060 BKN250 FM152200 21008KT
                       P6SM VCTS SCT025 OVC050CB FM160200 21008KT
                       P6SM BKN050 FM161100 21008KT P6SM OVC022=
202106150533 TAF KSEA 150533Z 1506/1612 18004KT P6SM BKN060 FM150900 18004KT
                       P6SM SCT060 FM151400 18004KT P6SM BKN040
                       FM152200 21008KT P6SM VCTS SCT025 OVC050CB
                       FM160200 21008KT P6SM BKN050 FM161100 21008KT
                       P6SM OVC022=
202106150301 KSEA 150301Z 1503/1606 20005KT P6SM SCT030 SCT050 BKN100 FM151200
                       20005KT P6SM BKN025 OVC035 FM151800 21007KT
                       P6SM SCT025 OVC050 FM152000 21009KT P6SM
                       VCTS SCT025 OVC050CB FM160100 23009KT P6SM
                       BKN050=
202106142326 TAF KSEA 142326Z 1500/1606 20006KT P6SM -SHRA SCT020 OVC100 FM150100
                       22005KT P6SM SCT050 BKN100 FM151200 20005KT
                       P6SM BKN025 OVC035 FM151800 21007KT P6SM
                       SCT025 OVC050 FM152000 21009KT P6SM VCTS
                       SCT025 OVC050CB FM160100 23009KT P6SM BKN050=
202106142057 KSEA 142057Z 1421/1524 23006KT P6SM -SHRA SCT020 OVC050 FM150100
                       26005KT P6SM SCT050 BKN100 FM151200 20005KT
                       P6SM BKN025 OVC035 FM151800 21007KT P6SM
                       SCT025 OVC050 FM152100 21009KT P6SM VCTS
                       SCT025 OVC050CB=
202106141734 TAF KSEA 141734Z 1418/1524 19005KT 6SM -SHRA BR SCT010 OVC020
                      TEMPO 1418/1420 5SM -SHRA BR BKN007 FM142000
                       23007KT 6SM -SHRA BR SCT020 OVC030 FM142200
                       25008KT P6SM -SHRA OVC050 FM150100 26005KT
                       P6SM BKN100 FM151200 20005KT P6SM BKN025
                       OVC035 FM151800 21007KT P6SM SCT025 OVC050
                       FM152100 21009KT P6SM VCTS SCT025 OVC050CB=
202106141543 KSEA 141543Z 1416/1518 22005KT P6SM VCSH SCT005 OVC015
                      TEMPO 1416/1419 5SM BR BKN005 FM141900 23007KT
                       P6SM -SHRA SCT020 OVC025 FM142200 25008KT
                       P6SM VCSH OVC050 FM150100 26005KT P6SM BKN100
                       FM151500 20005KT P6SM BKN050=
202106141505 KSEA 141505Z 1415/1518 22005KT 5SM BR VCSH SCT005 OVC015 FM141900
                       23007KT P6SM -SHRA SCT020 OVC025 FM142200
                       25008KT P6SM VCSH OVC050 FM150100 26005KT
                       P6SM BKN100 FM151500 20005KT P6SM BKN050=
202106141120 TAF KSEA 141120Z 1412/1518 22005KT 6SM BR VCSH SCT003 BKN020 OVC050
                       FM141500 VRB04KT 3SM BR VCSH OVC015 FM142100
                       23007KT P6SM VCSH OVC040 FM150200 25008KT
                       P6SM BKN050 FM151000 26005KT P6SM BKN100
                       FM151500 20005KT P6SM BKN050=
202106140943 KSEA 140943Z 1410/1512 24005KT 2SM BR VCSH SCT003 BKN010 OVC020
                       TEMPO 1410/1412 6SM BR FM141500 VRB04KT
                       3SM BR VCSH OVC010 FM142100 23007KT P6SM
                       VCSH OVC040 FM150200 25008KT P6SM BKN050
                       FM151000 26005KT P6SM BKN100=
202106140835 KSEA 140835Z 1409/1512 28003KT 3/4SM BR VCSH BKN002 OVC025 FM141500
                       VRB04KT P6SM -SHRA OVC015 FM142100 23007KT
                       P6SM VCSH OVC040 FM150200 25008KT P6SM BKN050
                       FM151000 26005KT P6SM BKN100=
202106140557 KSEA 140557Z 1406/1512 VRB04KT P6SM VCSH FEW005 BKN030 OVC100
                      TEMPO 1406/1408 2SM BR FM141000 VRB04KT P6SM
                       -SHRA OVC015 FM142100 23007KT P6SM VCSH
                       OVC040 FM150200 25008KT P6SM BKN050 FM151000
                       26005KT P6SM BKN100=
202106140543 TAF KSEA 140543Z 1406/1512 VRB04KT P6SM VCSH FEW005 BKN030 OVC100
                       FM141000 VRB04KT P6SM -SHRA OVC015 FM142100
                       23007KT P6SM VCSH OVC040 FM150200 25008KT
                       P6SM BKN050 FM151000 26005KT P6SM BKN100=
202106140259 KSEA 140259Z 1403/1506 29006KT 6SM -RA SCT010 SCT030 OVC100 FM140500
                       VRB05KT 6SM -SHRA SCT015 OVC030 FM141000
                       VRB04KT P6SM -SHRA OVC015 FM142100 23007KT
                       P6SM VCSH OVC040 FM150200 25008KT P6SM BKN050=
202106132324 TAF KSEA 132324Z 1400/1506 29006KT 4SM -RA SCT010 OVC060 FM140500
                       VRB05KT 6SM -SHRA SCT020 OVC050 FM141000
                       VRB04KT P6SM -SHRA OVC020 FM142100 23007KT
                       P6SM -SHRA OVC040 FM150200 25008KT P6SM
                       VCSH BKN050=
202106132103 KSEA 132103Z 1321/1424 31007KT P6SM -RA BKN012 OVC080 FM140300
                       VRB05KT P6SM -SHRA SCT020 OVC050 FM140800
                       VRB04KT P6SM -SHRA OVC020 FM142100 23007KT
                       P6SM -SHRA OVC040=
202106131733 TAF KSEA 131733Z 1318/1424 25005KT 6SM -RA OVC015 FM132300 34007KT
                       P6SM -RA BKN012 OVC022 FM140300 VRB05KT
                       P6SM -SHRA SCT020 OVC050 FM140800 VRB04KT
                       P6SM -SHRA OVC020 FM142100 23007KT P6SM
                       -SHRA OVC040=
202106131359 KSEA 131359Z 1314/1418 VRB04KT P6SM -RA SCT006 BKN015 OVC030 FM131800
                       VRB04KT 3SM -RA BR SCT005 BKN010 OVC020
                       FM132300 34006KT P6SM -RA BKN012 OVC022
                       FM140300 34006KT P6SM -SHRA SCT020 BKN040
                       OVC060 FM140800 VRB04KT P6SM -SHRA BKN010
                       OVC020=
202106131140 TAF KSEA 131140Z 1312/1418 13008KT P6SM -RA OVC070 FM131600 13008KT
                       P6SM -RA OVC035 FM131800 VRB04KT 3SM -RA
                       BR SCT005 BKN010 OVC020 FM132300 34006KT
                       P6SM -RA BKN012 OVC022 FM140300 34006KT
                       P6SM -SHRA SCT020 BKN040 OVC060 FM140800
                       VRB04KT P6SM -SHRA BKN010 OVC020=
202106130925 KSEA 130925Z 1309/1412 14006KT P6SM -RA OVC070 FM131300 14006KT
                       P6SM -RA OVC040 FM131800 VRB04KT 3SM -RA
                       BR SCT005 BKN010 OVC020 FM132300 34006KT
                       P6SM VCSH BKN012 OVC022 FM140300 34006KT
                       P6SM -SHRA SCT020 BKN040 OVC060=
202106130529 TAF KSEA 130529Z 1306/1412 VRB04KT P6SM -RA OVC070 FM130900 VRB04KT
                       P6SM -RA OVC040 FM131300 VRB04KT 5SM -RA
                       BR SCT010 OVC020 FM131600 VRB04KT 3SM -RA
                       BR SCT005 BKN010 OVC020 FM132300 34006KT
                       P6SM VCSH BKN012 OVC022 FM140300 34006KT
                       P6SM -SHRA SCT020 BKN040 OVC060=
202106130256 KSEA 130256Z 1303/1406 33006KT P6SM FEW060 BKN150 OVC200 FM130500
                       VRB04KT P6SM -RA BKN040 OVC080 FM131100
                       06004KT 6SM -RA OVC025 FM131500 05005KT
                       4SM -RA BR SCT007 OVC012 FM132200 31005KT
                       P6SM VCSH BKN012 OVC022 FM140300 34006KT
                       P6SM -SHRA OVC040=
202106122334 TAF KSEA 122334Z 1300/1406 33006KT P6SM FEW040 BKN120 OVC200 FM130500
                       VRB04KT P6SM -RA BKN040 OVC080 FM131100
                       06004KT 6SM -RA OVC025 FM131500 05005KT
                       4SM -RA BR SCT007 OVC012 FM132200 31005KT
                       P6SM VCSH BKN012 OVC022 FM140300 34006KT
                       P6SM -SHRA OVC040=
202106122056 KSEA 122056Z 1221/1324 25007KT P6SM SCT040 BKN200 FM130000 33006KT
                       P6SM BKN120 OVC200 FM130500 VRB04KT P6SM
                       -RA BKN040 OVC080 FM131000 VRB05KT 4SM -RA
                       OVC025 FM131500 10005KT 3SM -RA BR SCT007
                       OVC012 FM132300 26005KT P6SM VCSH BKN012
                       OVC022=
202106121724 TAF KSEA 121724Z 1218/1324 21007KT P6SM SCT040 BKN200 FM122300
                       33006KT P6SM BKN120 OVC200 FM130500 VRB04KT
                       P6SM -RA BKN040 OVC080 FM131000 VRB05KT
                       4SM -RA OVC025 FM131500 10005KT 3SM -RA
                       BR SCT007 OVC012 FM132300 26005KT P6SM VCSH
                       BKN012 OVC022=
202106121505 KSEA 121505Z 1215/1318 13006KT P6SM SCT030 FM121900 24006KT P6SM
                       SCT050 BKN200 FM130000 36006KT P6SM BKN100
                       OVC200 FM130600 VRB04KT P6SM -RA OVC040
                       FM131300 13006KT 4SM -RA OVC020=
202106121301 KSEA 121301Z 1213/1318 00000KT 1SM BR SCT003 SCT030 FM121400 00000KT
                       P6SM SCT035 FM121900 24006KT P6SM SCT050
                       BKN200 FM130000 36006KT P6SM BKN100 OVC200
                       FM130600 VRB04KT P6SM -RA OVC040 FM131300
                       13006KT 4SM -RA OVC020=
202106121139 TAF KSEA 121139Z 1212/1318 15006KT P6SM BKN035 BKN060 FM121500
                       VRB04KT P6SM SCT035 BKN060 FM121900 24006KT
                       P6SM SCT050 BKN200 FM130000 36006KT P6SM
                       BKN100 OVC200 FM130600 VRB04KT P6SM -RA
                       OVC040 FM131300 13006KT 4SM -RA OVC020=
202106120908 KSEA 120908Z 1209/1312 VRB03KT P6SM -SHRA BKN035 BKN060 FM121400
                       VRB04KT P6SM SCT035 BKN060 FM121900 24006KT
                       P6SM SCT060 SCT200 FM130100 36006KT P6SM
                       SCT050 BKN200 FM130500 VRB04KT P6SM BKN080
                       OVC200 FM130900 VRB04KT P6SM -RA OVC040=
202106120532 TAF KSEA 120532Z 1206/1312 VRB03KT P6SM -SHRA BKN035 OVC060 FM120900
                       VRB03KT P6SM SCT035 BKN060 FM121900 24006KT
                       P6SM SCT060 SCT200 FM130100 36006KT P6SM
                       SCT050 BKN200 FM130500 VRB04KT P6SM BKN080
                       OVC200 FM130900 VRB04KT P6SM -RA OVC040=
202106120305 KSEA 120305Z 1203/1306 VRB03KT P6SM VCSH SCT020 BKN045 OVC060 FM120600
                       VRB03KT P6SM BKN040 FM120900 13005KT P6SM
                       OVC035 FM121900 24006KT P6SM SCT040 SCT200
                       FM130000 36006KT P6SM SCT050 BKN200 FM130500
                       VRB04KT P6SM BKN080 OVC200=
202106112337 TAF KSEA 112337Z 1200/1306 VRB03KT P6SM VCSH SCT020 BKN045 OVC060
                       FM120400 VRB03KT P6SM BKN040 FM120900 13005KT
                       P6SM OVC035 FM121900 24006KT P6SM SCT040
                       SCT200 FM130000 36006KT P6SM SCT050 BKN200
                       FM130500 VRB04KT P6SM BKN080 OVC200=
202106112103 KSEA 112103Z 1121/1224 VRB03KT P6SM -SHRA SCT020 BKN040 OVC060
                       FM120200 VRB03KT P6SM VCSH BKN040 FM120900
                       13005KT P6SM OVC035 FM121900 21006KT P6SM
                       SCT040 BKN200=
202106111720 TAF KSEA 111720Z 1118/1224 17007KT P6SM -SHRA BKN040 OVC060 FM120200
                       20005KT P6SM VCSH BKN040 FM120900 13005KT
                       P6SM OVC035 FM121900 21006KT P6SM SCT040
                       BKN200=
202106111503 KSEA 111503Z 1115/1218 19005KT P6SM -SHRA OVC050 FM111800 19010KT
                       P6SM -SHRA BKN035 OVC060 FM120200 23007KT
                       P6SM VCSH BKN040 FM120700 13005KT P6SM VCSH
                       BKN040=
202106111120 TAF KSEA 111120Z 1112/1218 32004KT P6SM BKN090 OVC110 FM111800
                       19010KT P6SM -SHRA BKN035 OVC060 FM120200
                       23007KT P6SM VCSH BKN040 FM120700 13005KT
                       P6SM VCSH BKN040=
202106110852 KSEA 110852Z 1109/1212 10008KT P6SM FEW100 OVC250 FM111200 12004KT
                       P6SM SCT050 OVC100 FM111800 19010KT P6SM
                       -SHRA BKN035 OVC060 FM120200 23007KT P6SM
                       VCSH BKN040=
202106110525 TAF KSEA 110525Z 1106/1212 18003KT P6SM FEW070 BKN140 OVC250 FM110900
                       13004KT P6SM SCT050 OVC100 FM111800 19010KT
                       P6SM -SHRA BKN035 OVC060 FM120200 23007KT
                       P6SM VCSH BKN040=
202106110302 KSEA 110302Z 1103/1206 23006KT P6SM SCT070 OVC200 FM110900 18004KT
                       P6SM SCT050 OVC100 FM111800 19010KT P6SM
                       -SHRA BKN035 OVC060 FM120200 23007KT P6SM
                       VCSH BKN040=
202106102327 TAF KSEA 102327Z 1100/1206 21011KT P6SM SCT060 BKN200 FM110400
                       23006KT P6SM SCT060 OVC200 FM110900 18004KT
                       P6SM SCT050 OVC100 FM111800 19009KT P6SM
                       -SHRA BKN035 OVC060 FM120200 23011KT P6SM
                       VCSH BKN040=
202106102103 KSEA 102103Z 1021/1124 21010KT P6SM SCT030 BKN060 FM110200 23006KT
                       P6SM SCT060 BKN120 FM110900 18004KT P6SM
                       SCT050 OVC100 FM111800 19009KT P6SM -SHRA
                       BKN040 OVC070=
202106101734 TAF KSEA 101734Z 1018/1124 20010KT P6SM SCT025 BKN060 FM102000
                       21010KT P6SM BKN060 FM110100 23006KT P6SM
                       SCT060 BKN120 FM110900 18004KT P6SM SCT050
                       OVC100 FM111800 19009KT P6SM -SHRA BKN040
                       OVC070=
202106101518 KSEA 101518Z 1015/1118 18008KT P6SM SCT022 BKN035
                      TEMPO 1015/1018 BKN018 FM101800 20008KT P6SM
                       SCT035 BKN060 FM102000 21010KT P6SM BKN060
                       FM110100 22006KT P6SM SCT060 BKN120 FM110700
                       18004KT P6SM SCT060 BKN120=
202106101503 KSEA 101503Z 1015/1118 18008KT P6SM SCT022 BKN035 FM101800 20008KT
                       P6SM SCT035 BKN060 FM102000 21010KT P6SM
                       BKN060 FM110100 22006KT P6SM SCT060 BKN120
                       FM110700 18004KT P6SM SCT060 BKN120=
202106101121 TAF KSEA 101121Z 1012/1118 21005KT P6SM FEW045 BKN060 FM101400
                       18007KT P6SM BKN035 FM101600 20008KT P6SM
                       SCT035 BKN060 FM102000 21010KT P6SM BKN060
                       FM110100 22006KT P6SM SCT060 BKN120 FM110700
                       18004KT P6SM SCT060 BKN120=
202106100852 KSEA 100852Z 1009/1112 03008KT P6SM SCT040 BKN070 FM101200 19007KT
                       P6SM SCT035 BKN060 FM101400 18007KT P6SM
                       BKN030 FM101600 20008KT P6SM SCT035 BKN060
                       FM102000 21010KT P6SM BKN060 FM110100 22006KT
                       P6SM SCT060 BKN120=
202106100522 TAF KSEA 100522Z 1006/1112 26003KT P6SM FEW040 FEW100 SCT250 FM100900
                       19005KT P6SM SCT030 BKN200 FM101200 19007KT
                       P6SM SCT035 BKN060 FM102000 21010KT P6SM
                       BKN060 BKN200 FM110100 22006KT P6SM SCT060
                       BKN120=
202106100305 KSEA 100305Z 1003/1106 26007KT P6SM FEW040 SCT100 SCT250 FM100900
                       19005KT P6SM SCT030 BKN200 FM101400 19007KT
                       P6SM BKN035 BKN080 FM102000 21010KT P6SM
                       BKN060 BKN200 FM110100 22006KT P6SM SCT060
                       BKN120=
202106092322 TAF KSEA 092322Z 1000/1106 25007KT P6SM VCSH BKN050 FM100300 31006KT
                       P6SM SCT050 SCT100 FM100900 19005KT P6SM
                       SCT030 BKN200 FM101400 19007KT P6SM BKN035
                       BKN080 FM102000 21010KT P6SM BKN060 BKN200
                       FM110100 22006KT P6SM SCT060 BKN120=
202106092102 KSEA 092102Z 0921/1024 22006KT P6SM SCT030 SCT060 FM100000 26007KT
                       P6SM VCSH BKN050 BKN100 FM100300 32006KT
                       P6SM SCT050 SCT100 FM100900 19005KT P6SM
                       SCT030 BKN200 FM101400 19007KT P6SM BKN035
                       BKN080 FM102000 21010KT P6SM BKN060 BKN200=
202106091724 TAF KSEA 091724Z 0918/1024 19007KT P6SM SCT030 SCT060 FM092200
                       24007KT P6SM VCSH BKN050 BKN100 FM100300
                       32006KT P6SM SCT050 SCT100 FM100900 19005KT
                       P6SM SCT030 BKN200 FM101400 19007KT P6SM
                       BKN035 BKN080 FM102000 21010KT P6SM BKN060
                       BKN200=
202106091502 KSEA 091502Z 0915/1018 18007KT P6SM SCT060 FM091800 22007KT P6SM
                       SCT060 BKN100 FM100000 24007KT P6SM VCSH
                       BKN050 BKN100 FM100600 VRB03KT P6SM SCT050
                       SCT100 FM101100 15005KT P6SM SCT030 BKN200=
202106091120 TAF KSEA 091120Z 0912/1018 18007KT P6SM SCT060 FM091800 22007KT
                       P6SM SCT060 BKN100 FM100000 24007KT P6SM
                       VCSH BKN050 BKN100 FM100600 VRB03KT P6SM
                       SCT050 SCT100 FM101100 15005KT P6SM SCT030
                       BKN200=
202106090901 KSEA 090901Z 0909/1012 18007KT P6SM BKN050 FM091800 22007KT P6SM
                       SCT060 BKN100 FM100000 24007KT P6SM VCSH
                       BKN050 BKN100 FM100600 18006KT P6SM SCT050
                       SCT100=
202106090520 TAF KSEA 090520Z 0906/1012 15007KT P6SM BKN080 FM091300 18004KT
                       P6SM BKN050 FM091800 23006KT P6SM SCT060
                       BKN100 FM092100 24007KT P6SM SCT100=
202106090303 KSEA 090303Z 0903/1006 20008KT P6SM VCSH SCT040 BKN060 BKN200 FM090600
                       21006KT P6SM BKN100 FM091300 18004KT P6SM
                       BKN050 FM091800 23006KT P6SM SCT060 BKN100
                       FM092100 24007KT P6SM SCT100=
202106090028 KSEA 090028Z 0900/1006 26008KT P6SM VCSH SCT040 BKN060 BKN120
                      TEMPO 0901/0904 -SHRA BKN040 FM090600 21006KT
                       P6SM BKN100 FM091300 18004KT P6SM BKN050
                       FM091800 23006KT P6SM SCT060 BKN100 FM092100
                       24007KT P6SM SCT100=
202106082320 TAF KSEA 082320Z 0900/1006 26008KT P6SM VCSH BKN060 BKN120 FM090600
                       21006KT P6SM BKN100 FM091300 18004KT P6SM
                       BKN050 FM091800 23006KT P6SM SCT060 BKN100
                       FM092100 24007KT P6SM SCT100=
202106082059 KSEA 082059Z 0821/0924 30006KT P6SM SCT050 SCT120 FM090000 26006KT
                       P6SM VCSH BKN060 BKN150 FM090600 21006KT
                       P6SM BKN100 FM091300 18004KT P6SM BKN050
                       FM091800 23006KT P6SM SCT060 BKN100=
202106081721 TAF KSEA 081721Z 0818/0924 27006KT P6SM BKN080 BKN140 FM082200
                       25006KT P6SM VCSH BKN060 BKN150 FM090600
                       21006KT P6SM BKN100 FM091300 18004KT P6SM
                       BKN050 FM091800 23006KT P6SM SCT060 BKN100=
202106081502 KSEA 081502Z 0815/0918 03006KT P6SM BKN090 FM081600 VRB03KT P6SM
                       SCT150 FM082000 21006KT P6SM BKN060 BKN150
                       FM090600 21006KT P6SM SCT150=
202106081120 TAF KSEA 081120Z 0812/0918 03006KT P6SM BKN090 FM081600 VRB03KT
                       P6SM SCT150 FM082000 21006KT P6SM BKN060
                       BKN150 FM090600 21006KT P6SM SCT150=
202106080924 KSEA 080924Z 0809/0912 VRB03KT P6SM BKN150 FM090200 21006KT P6SM
                       BKN060 BKN150=
202106080538 TAF KSEA 080538Z 0806/0912 VRB03KT P6SM BKN150 FM090400 21006KT
                       P6SM BKN150=
202106080301 KSEA 080301Z 0803/0906 31006KT P6SM SCT050 BKN180 FM080800 03004KT
                       P6SM SCT050 BKN100 FM081200 03003KT P6SM
                       SCT080 FM081600 26003KT P6SM BKN100=
202106072338 TAF KSEA 072338Z 0800/0906 25008KT P6SM SCT040 SCT060 BKN250 FM080100
                       28005KT P6SM SCT040 BKN100 FM080300 31006KT
                       P6SM SCT050 BKN100 FM080800 03004KT P6SM
                       SCT050 BKN100 FM081200 03003KT P6SM SCT040
                       BKN050 FM081600 26003KT P6SM BKN100=
202106072058 KSEA 072058Z 0721/0824 25005KT P6SM SCT025 BKN050 FM080100 28005KT
                       P6SM SCT025 BKN070 FM080300 32006KT P6SM
                       SCT050 BKN100 FM081200 02003KT P6SM SCT040
                       BKN050 FM081600 33003KT P6SM SCT040 OVC070=
202106071734 TAF KSEA 071734Z 0718/0824 19008KT P6SM -SHRA SCT015 BKN025 BKN050
                       FM071900 23006KT P6SM SCT025 BKN040 FM080100
                       28005KT P6SM SCT025 BKN070 FM080300 32006KT
                       P6SM SCT050 BKN100 FM081200 02003KT P6SM
                       SCT040 BKN050 FM081600 33003KT P6SM SCT040
                       OVC070=
202106071619 KSEA 071619Z 0716/0818 21008KT P6SM -SHRA FEW010 BKN015 BKN050
                       FM071900 23006KT P6SM SCT025 BKN040 FM080100
                       28005KT P6SM SCT025 BKN040 FM080300 32006KT
                       P6SM SCT050 BKN100 FM081200 19006KT P6SM
                       SCT040 BKN050=
202106071506 KSEA 071506Z 0715/0818 19010KT P6SM -SHRA FEW010 BKN015 BKN050
                       FM071900 23006KT P6SM SCT025 BKN040 FM080300
                       32006KT P6SM SCT050 BKN100 FM081200 19006KT
                       P6SM SCT040 BKN050=
202106071137 TAF KSEA 071137Z 0712/0818 19010KT P6SM -SHRA SCT012 BKN022 OVC035
                       FM071900 23006KT P6SM SCT025 BKN040 FM080300
                       32006KT P6SM SCT050 BKN100 FM081200 19006KT
                       P6SM SCT050 BKN100=
202106070902 KSEA 070902Z 0709/0812 16006KT P6SM SCT020 BKN035 OVC050 FM071300
                       20010KT P6SM SCT012 BKN020 OVC035 FM071900
                       23006KT P6SM SCT025 BKN040 FM080300 32006KT
                       P6SM SCT050 BKN100=
202106070540 TAF KSEA 070540Z 0706/0812 20010KT P6SM -SHRA SCT015 BKN025 OVC045
                       TEMPO 0707/0710 4SM SHRA FM071000 20010KT
                       P6SM SCT012 BKN020 OVC035 FM072100 23006KT
                       P6SM SCT025 BKN040 FM080300 32006KT P6SM
                       SCT050 BKN100=
202106070307 KSEA 070307Z 0703/0806 18006KT P6SM VCSH SCT030 SCT050 FM070600
                       20010KT 4SM -SHRA SCT020 BKN035 BKN050 FM071000
                       21012KT P6SM -SHRA BKN022 OVC035 FM071500
                       18005KT P6SM OVC015 FM071800 23005KT P6SM
                       BKN035=
202106062339 TAF KSEA 062339Z 0700/0806 21010KT P6SM -RA BKN018 BKN030 OVC060
                       FM070100 22008KT 4SM -RA FEW015 OVC035 FM070400
                       20010KT P6SM -SHRA SCT020 BKN035 BKN050
                       FM071000 21012KT P6SM -SHRA BKN022 OVC035
                       FM071500 18005KT P6SM OVC015 FM071800 23005KT
                       P6SM BKN035=
202106062056 KSEA 062056Z 0621/0724 22010KT P6SM -SHRA FEW018 BKN040 OVC050
                       FM062200 20010KT 4SM -RA FEW015 OVC020 FM070400
                       20010KT P6SM -SHRA SCT020 BKN035 BKN050
                       FM071000 21012KT P6SM BKN022 OVC035 FM071400
                       18005KT P6SM OVC015=
202106061728 TAF KSEA 061728Z 0618/0724 19010KT P6SM -RA SCT020 BKN050 OVC060
                       FM061900 17010KT P6SM -RA OVC040 FM062100
                       17010KT 4SM -RA OVC020 FM070400 20010KT
                       P6SM -SHRA SCT020 BKN035 BKN050 FM071000
                       21012KT P6SM BKN022 OVC035 FM071400 18005KT
                       P6SM OVC015=
202106061613 KSEA 061613Z 0616/0718 18010KT P6SM -RA SCT020 BKN050 OVC060 FM061900
                       17010KT P6SM -RA OVC040 FM062100 17010KT
                       4SM -RA OVC020 FM070400 20010KT P6SM -SHRA
                       SCT020 BKN035 BKN050 FM071000 21012KT P6SM
                       BKN022 OVC035=
202106061503 KSEA 061503Z 0615/0718 18010KT P6SM SCT020 BKN050 OVC060 FM061900
                       17010KT P6SM -RA OVC040 FM062200 17010KT
                       4SM -RA OVC020 FM070400 21012KT P6SM -SHRA
                       SCT020 BKN035 BKN050 FM071000 21012KT P6SM
                       BKN022 OVC035=
202106061132 TAF KSEA 061132Z 0612/0718 17008KT P6SM BKN020 OVC200 FM061500
                       17008KT P6SM SCT025 BKN050 OVC100 FM061900
                       17010KT P6SM -RA OVC040 FM062200 17010KT
                       4SM -RA OVC020 FM070400 21012KT P6SM -SHRA
                       SCT020 BKN035 BKN050 FM071000 21012KT P6SM
                       BKN022 OVC035=
202106060922 KSEA 060922Z 0609/0712 16008KT P6SM BKN020 BKN050 FM061300 16008KT
                       P6SM SCT025 BKN050 OVC100 FM061900 18010KT
                       P6SM -RA OVC040 FM062200 18010KT 4SM -RA
                       OVC020 FM070400 21012KT P6SM -SHRA SCT020
                       BKN035 BKN050 FM071000 21012KT P6SM BKN022
                       OVC035=
202106060541 TAF KSEA 060541Z 0606/0712 20012KT P6SM SCT030 BKN050 FM061200
                       16008KT P6SM SCT050 OVC100 FM061600 16008KT
                       P6SM OVC050 FM061900 18010KT P6SM -RA OVC040
                       FM062200 18010KT 4SM -RA OVC020 FM070400
                       21012KT P6SM -SHRA SCT020 BKN035 BKN050
                       FM071000 21012KT P6SM BKN022 OVC035=
202106060311 KSEA 060311Z 0603/0706 23015G25KT P6SM VCSH SCT050 BKN070 FM060700
                       21010KT P6SM OVC050 FM061200 16007KT P6SM
                       OVC050 FM061900 21007KT 6SM -SHRA OVC040
                       FM062200 21010KT 4SM -RA OVC020=
202106052339 TAF KSEA 052339Z 0600/0706 23015G25KT P6SM VCSH SCT050 BKN070 FM060700
                       21010KT P6SM OVC050 FM061200 16007KT P6SM
                       OVC050 FM061900 21007KT 6SM -SHRA OVC040
                       FM062200 21010KT 4SM -RA OVC020=
202106052109 KSEA 052109Z 0521/0624 22015G25KT P6SM -SHRA FEW030 SCT050 BKN140
                       FM060700 20012KT P6SM BKN050 FM061200 18007KT
                       P6SM OVC050=
202106051724 TAF KSEA 051724Z 0518/0624 22015G25KT P6SM -SHRA FEW022 BKN050
                       FM060700 20012KT P6SM BKN050 FM061200 18007KT
                       P6SM OVC050=
202106051501 KSEA 051501Z 0515/0618 20014KT P6SM -SHRA BKN020 OVC025 FM051800
                       22015G25KT P6SM -SHRA BKN050 FM060700 20010KT
                       P6SM OVC050 FM061200 18007KT P6SM OVC050=
202106051339 KSEA 051339Z 0514/0618 20012KT P6SM -SHRA BKN020 FM051800 22015G25KT
                       P6SM -SHRA BKN050 FM060700 20009KT P6SM
                       OVC050=
202106051121 TAF KSEA 051121Z 0512/0618 20009KT P6SM VCSH SCT030 OVC040
                      TEMPO 0512/0514 5SM -SHRA OVC030 FM051400
                       20012KT P6SM -SHRA OVC030 FM051800 22015G25KT
                       P6SM -SHRA BKN050 FM060700 20009KT P6SM
                       OVC050=
202106050857 KSEA 050857Z 0509/0612 20011KT P6SM OVC050 FM051000 20010KT P6SM
                       VCSH OVC040
                      TEMPO 0510/0514 5SM -RA OVC030 FM051400 20013KT
                       P6SM -SHRA OVC030 FM051800 22015G25KT P6SM
                       -SHRA BKN050 FM060700 20009KT P6SM OVC050=
202106050522 TAF KSEA 050522Z 0506/0612 22009KT P6SM FEW030 OVC070 FM050900
                       20008KT P6SM OVC050 FM051000 20010KT P6SM
                       VCSH OVC040
                      TEMPO 0510/0514 5SM -RA OVC030 FM051400 20013KT
                       P6SM -SHRA OVC030 FM051800 22015G25KT P6SM
                       -SHRA BKN050 FM060700 20009KT P6SM OVC050=
202106050301 KSEA 050301Z 0503/0606 19005KT P6SM FEW030 BKN090 BKN250 FM050900
                       20008KT P6SM OVC060 FM051000 20010KT P6SM
                       VCSH OVC040
                      TEMPO 0510/0514 5SM -SHRA OVC030 FM051400
                       20013KT P6SM -SHRA OVC035 FM052000 22015G25KT
                       P6SM -SHRA BKN035=
202106042338 TAF KSEA 042338Z 0500/0606 19005KT P6SM FEW030 BKN090 BKN250 FM050900
                       20008KT P6SM OVC060 FM051000 20010KT 5SM
                       -SHRA OVC030 FM051400 20013KT P6SM -SHRA
                       OVC035 FM052000 22015G25KT P6SM -SHRA BKN035=
202106042058 KSEA 042058Z 0421/0524 22007KT P6SM BKN090 BKN130 FM051100 20010KT
                       P6SM -SHRA OVC030 FM051400 20015KT P6SM
                       -SHRA OVC025=
202106041738 TAF KSEA 041738Z 0418/0524 22006KT P6SM BKN018 BKN030 FM041900
                       22007KT P6SM SCT030 FM042000 24008KT P6SM
                       BKN120 FM051100 20010KT P6SM -SHRA OVC030
                       FM051400 20015KT P6SM -SHRA OVC025=
202106041507 KSEA 041507Z 0415/0518 16006KT P6SM BKN017 FM041800 21006KT P6SM
                       SCT030 FM042000 24008KT P6SM BKN120 FM051100
                       20011KT P6SM OVC030=
202106041345 KSEA 041345Z 0414/0518 20007KT P6SM OVC015 FM041800 21006KT P6SM
                       SCT030 FM042000 24008KT P6SM BKN120 FM051100
                       20011KT P6SM OVC030=
202106041128 TAF KSEA 041128Z 0412/0518 20008KT P6SM OVC015 FM041700 20006KT
                       P6SM SCT030 FM042000 24008KT P6SM BKN120
                       FM051100 20011KT P6SM OVC030=
202106040957 KSEA 040957Z 0410/0512 20008KT P6SM OVC010 FM041700 20006KT P6SM
                       SCT050 FM042000 24008KT P6SM BKN120=
202106040909 KSEA 040909Z 0409/0512 20008KT P6SM BKN035 FM041100 20008KT P6SM
                       SCT010 BKN025 FM041700 20006KT P6SM SCT050
                       FM042000 24008KT P6SM BKN120=
202106040524 TAF KSEA 040524Z 0406/0512 25008KT P6SM SCT250 FM040900 20008KT
                       P6SM BKN035 FM041500 20006KT P6SM SCT050
                       FM042000 24008KT P6SM BKN120=
202106040301 KSEA 040301Z 0403/0506 25008KT P6SM SCT250 FM040900 20008KT P6SM
                       BKN040 FM041500 20006KT P6SM SCT050 FM042000
                       24008KT P6SM BKN120=
202106032340 TAF KSEA 032340Z 0400/0506 25008KT P6SM SCT250 FM040900 20008KT
                       P6SM BKN040 FM041500 20006KT P6SM SCT050
                       FM042000 24008KT P6SM BKN120=
202106031738 TAF KSEA 031738Z 0318/0424 24004KT P6SM SCT015 FM032000 25008KT
                       P6SM SCT040 FM040900 20008KT P6SM BKN040
                       FM041500 20006KT P6SM SCT050 FM042000 24008KT
                       P6SM BKN120=
202106031306 KSEA 031306Z 0313/0418 18006KT P6SM BKN005 FM031500 18006KT P6SM
                       OVC008 FM031800 20008KT P6SM SCT040 FM032200
                       25008KT P6SM SCT040 FM041100 20008KT P6SM
                       BKN020=
202106031135 TAF KSEA 031135Z 0312/0418 20008KT P6SM SCT250 FM031400 20008KT
                       P6SM OVC010 FM031800 20008KT P6SM SCT040
                       FM032200 25008KT P6SM SCT040 FM041100 20008KT
                       P6SM BKN020=
202106030911 KSEA 030911Z 0309/0412 27006KT P6SM SCT250 FM031200 20008KT P6SM
                       SCT250 FM031400 20008KT P6SM OVC010 FM031800
                       20008KT P6SM SCT040 FM032200 25008KT P6SM
                       SCT040 FM041100 20008KT P6SM BKN020=
202106030534 TAF KSEA 030534Z 0306/0412 01006KT P6SM SCT250 FM031000 20008KT
                       P6SM SCT250 FM031400 20008KT P6SM OVC010
                       FM031800 20008KT P6SM SCT040 FM032200 25008KT
                       P6SM SCT040 FM041100 20008KT P6SM BKN020=
202106030307 KSEA 030307Z 0303/0406 25008KT P6SM FEW250 FM030600 32006KT P6SM
                       SCT250 FM031000 27006KT P6SM SCT250 FM031400
                       20008KT P6SM BKN010 FM031800 22007KT P6SM
                       SCT015 BKN030 FM032000 25010KT P6SM SCT040=
202106022320 TAF KSEA 022320Z 0300/0406 22008KT P6SM FEW250 FM031400 20008KT
                       P6SM BKN010 FM031800 22007KT P6SM SCT015
                       BKN030 FM032000 23010KT P6SM SCT040=
202106022134 KSEA 022134Z 0222/0324 24007KT P6SM FEW040 FEW250 FM022300 29008KT
                       P6SM SKC FM031000 20008KT P6SM SKC=
202106021720 TAF KSEA 021720Z 0218/0324 17005KT P6SM SKC FM021900 26008KT P6SM
                       SKC FM022300 29008KT P6SM SKC FM031000 20008KT
                       P6SM SKC=
202106021521 KSEA 021521Z 0215/0318 17005KT P6SM SKC FM021900 26008KT P6SM SKC
                       FM022300 29008KT P6SM SKC FM031000 20008KT
                       P6SM SKC=
202106021126 TAF KSEA 021126Z 0212/0318 VRB03KT P6SM SKC FM021900 26008KT P6SM
                       SKC FM022300 29008KT P6SM SKC FM031000 20008KT
                       P6SM SKC=
202106020931 KSEA 020931Z 0210/0312 01006KT P6SM SKC FM021100 VRB03KT P6SM SKC
                       FM021900 26007KT P6SM SKC FM022300 29008KT
                       P6SM SCT250=
202106020539 TAF KSEA 020539Z 0206/0312 01006KT P6SM SKC FM021100 VRB03KT P6SM
                       SKC FM021900 26007KT P6SM SKC FM022300 29008KT
                       P6SM SCT250=
202106020254 KSEA 020254Z 0203/0306 34008KT P6SM SKC FM020400 03005KT P6SM SKC
                       FM021100 VRB03KT P6SM SKC FM021900 26007KT
                       P6SM SKC FM022300 29008KT P6SM SCT250=
202106012324 TAF KSEA 012324Z 0200/0306 36010KT P6SM SKC FM020400 03005KT P6SM
                       SKC FM021100 VRB03KT P6SM SKC FM021900 26007KT
                       P6SM SKC FM022300 29008KT P6SM SCT250=
202106012103 KSEA 012103Z 0121/0224 36010KT P6SM SKC FM020400 03005KT P6SM SKC
                       FM021100 VRB03KT P6SM SKC FM021900 26007KT
                       P6SM SKC=
202106011725 TAF KSEA 011725Z 0118/0224 36010KT P6SM SKC FM020400 03005KT P6SM
                       SKC FM021100 VRB03KT P6SM SKC FM021900 26007KT
                       P6SM SKC=
202106011502 KSEA 011502Z 0115/0218 36008KT P6SM SKC FM021100 VRB03KT P6SM SKC=
202106011124 TAF KSEA 011124Z 0112/0218 36008KT P6SM SCT250 FM021100 VRB03KT
                       P6SM SKC=
202106010915 KSEA 010915Z 0109/0212 02008KT P6SM SCT250 FM011800 34008KT P6SM
                       SCT250 FM021100 19006KT P6SM SKC=
202106010522 TAF KSEA 010522Z 0106/0212 02008KT P6SM SCT250 FM011800 34008KT
                       P6SM SCT250 FM021100 19006KT P6SM SKC=
202106010305 KSEA 010305Z 0103/0206 35010KT P6SM SCT250 FM010800 02006KT P6SM
                       SCT250 FM011800 34008KT P6SM SCT250 FM012000
                       34008KT P6SM SKC=