##########################################################
# Query made at 02/17/2025 21:44:35 UTC
# Time interval: from 04/01/2022 00:00  to 04/30/2022 23:59  UTC
##########################################################

##########################################################
# KSEA, Seattle, Seattle-Tacoma International Airport (United States)
# WMO index: 72793. WIGOS ID: 0-20000-0-72793
# Latitude 47-27-00N. Longitude 122-17-59W. Altitude 130 m.
##########################################################

###################################
#  METAR/SPECI from KSEA
###################################
202204302353 METAR KSEA 302353Z 23006KT 10SM SCT065 BKN220 15/05 A2999 RMK AO2 SLP161 T01500050 10156 20106 52007=
202204302253 METAR KSEA 302253Z 19006KT 10SM FEW035 SCT065 BKN220 15/05 A2998 RMK AO2 SLP159 T01500050=
202204302153 METAR KSEA 302153Z 23008KT 10SM FEW035 SCT050 BKN220 15/06 A2998 RMK AO2 SLP157 T01500061=
202204302053 METAR KSEA 302053Z 27008KT 10SM SCT035 SCT050 14/06 A2997 RMK AO2 SLP154 T01440056 51003=
202204301953 METAR KSEA 301953Z VRB05KT 10SM SCT029 SCT045 14/06 A2996 RMK AO2 SLP153 T01390056=
202204301853 METAR KSEA 301853Z 25003KT 10SM FEW014 SCT035 BKN055 12/08 A2997 RMK AO2 SLP155 T01220083=
202204301816 SPECI KSEA 301816Z VRB03KT 10SM FEW014 BKN034 BKN042 11/08 A2997 RMK AO2 T01110078=
202204301753 METAR KSEA 301753Z 24006KT 10SM SCT011 BKN019 BKN065 12/08 A2996 RMK AO2 RAE1656 SLP152 P0000 60015 T01170083 10117 20089 51015=
202204301734 SPECI KSEA 301734Z 24007KT 10SM SCT008 BKN015 BKN049 11/09 A2996 RMK AO2 RAE1656 P0000 T01110089=
202204301713 SPECI KSEA 301713Z 19006KT 10SM SCT005 BKN012 BKN049 10/08 A2995 RMK AO2 RAE1656 P0000 T01000083=
202204301653 METAR KSEA 301653Z 16006KT 7SM -RA FEW005 BKN008 BKN049 10/08 A2995 RMK AO2 SLP147 P0007 T01000083=
202204301639 SPECI KSEA 301639Z 17003KT 3SM RA BR SCT005 BKN012 BKN047 09/08 A2994 RMK AO2 P0006 T00940083=
202204301613 SPECI KSEA 301613Z 18006KT 1 1/2SM -RA BR BKN008 BKN013 OVC023 09/08 A2994 RMK AO2 P0001 T00890083=
202204301609 SPECI KSEA 301609Z 17005KT 2SM -RA BR SCT008 BKN021 OVC027 09/08 A2994 RMK AO2 P0001 T00940083=
202204301553 METAR KSEA 301553Z 16007KT 2SM -RA BR OVC025 09/08 A2994 RMK AO2 SLP144 P0004 T00890078=
202204301542 SPECI KSEA 301542Z 18007KT 5SM -RA BR BKN026 OVC033 09/08 A2994 RMK AO2 P0003 T00890078=
202204301453 METAR KSEA 301453Z 15005KT 10SM -RA SCT032 SCT040 OVC065 09/08 A2992 RMK AO2 RAB44 SLP137 P0001 60004 T00940078 53007=
202204301353 METAR KSEA 301353Z 12008KT 10SM BKN036 OVC070 09/07 A2990 RMK AO2 RAE25 SLP131 P0002 T00940072=
202204301253 METAR KSEA 301253Z 13008KT 5SM -RA BR FEW025 SCT030 OVC039 09/07 A2990 RMK AO2 RAE10B28 SLP130 P0001 T00940072=
202204301153 METAR KSEA 301153Z 10012KT 9SM -RA BKN048 OVC060 09/07 A2989 RMK AO2 SLP129 P0009 60037 70038 T00940072 10100 20089 58019=
202204301053 METAR KSEA 301053Z 12010KT 7SM -RA BKN036 BKN045 OVC055 09/07 A2992 RMK AO2 SLP139 P0006 T00940072=
202204300953 METAR KSEA 300953Z 09005KT 6SM -RA BR FEW003 BKN039 OVC050 09/08 A2993 RMK AO2 SLP143 P0004 T00940078=
202204300853 METAR KSEA 300853Z 08007KT 4SM -RA BR SCT002 OVC043 09/08 A2995 RMK AO2 SLP148 SCT V BKN P0005 60018 T00890078 58013=
202204300846 SPECI KSEA 300846Z 08007KT 5SM -RA BR FEW002 OVC043 09/08 A2995 RMK AO2 P0005 T00890078=
202204300753 METAR KSEA 300753Z 00000KT 5SM -RA BR BKN042 OVC055 09/08 A2997 RMK AO2 SLP156 P0007 T00890078 401560067=
202204300653 METAR KSEA 300653Z 20003KT 6SM -RA BR BKN046 OVC060 09/08 A2998 RMK AO2 SLP161 P0006 T00890078=
202204300553 METAR KSEA 300553Z 23006KT 9SM -RA BKN050 OVC070 10/07 A2999 RMK AO2 RAB42 SLP161 P0000 60000 T01000067 10150 20100 58009=
202204300453 METAR KSEA 300453Z 24007KT 10SM BKN055 OVC085 12/04 A3001 RMK AO2 SLP167 T01170044=
202204300353 METAR KSEA 300353Z 22003KT 10SM FEW050 OVC095 13/04 A3001 RMK AO2 SLP167 T01330039=
202204300253 METAR KSEA 300253Z 00000KT 10SM FEW050 BKN095 OVC200 14/02 A3001 RMK AO2 SLP170 T01390022 56024=
202204300153 METAR KSEA 300153Z 00000KT 10SM FEW040 SCT110 BKN200 14/02 A3003 RMK AO2 SLP176 T01440022=
202204300053 METAR KSEA 300053Z 25005KT 10SM FEW040 SCT100 BKN220 14/02 A3006 RMK AO2 SLP185 T01440022=
202204292353 METAR KSEA 292353Z 24006KT 10SM SCT040 SCT095 BKN220 14/02 A3009 RMK AO2 SLP195 T01440022 10156 20106 58026=
202204292253 METAR KSEA 292253Z 27005KT 10SM SCT040 SCT095 SCT250 15/03 A3011 RMK AO2 SLP204 T01500033=
202204292153 METAR KSEA 292153Z 30007KT 10SM SCT040 BKN250 14/04 A3014 RMK AO2 SLP213 T01440039=
202204292053 METAR KSEA 292053Z VRB04KT 10SM SCT038 BKN250 14/04 A3016 RMK AO2 SLP222 T01390039 58015=
202204291953 METAR KSEA 291953Z 26004KT 10SM FEW032 BKN065 12/04 A3018 RMK AO2 SLP228 T01220039=
202204291853 METAR KSEA 291853Z 22009KT 10SM BKN032 BKN040 11/04 A3020 RMK AO2 SLP235 T01110044=
202204291753 METAR KSEA 291753Z 17007KT 10SM SCT022 BKN046 12/05 A3021 RMK AO2 SLP237 60001 T01220050 10122 20072 50001=
202204291735 SPECI KSEA 291735Z 18008KT 10SM SCT022 BKN044 11/05 A3021 RMK AO2 T01060050=
202204291653 METAR KSEA 291653Z 16008KT 10SM FEW018 BKN025 OVC041 10/06 A3022 RMK AO2 SLP241 T01000056=
202204291553 METAR KSEA 291553Z 11008KT 10SM FEW006 BKN024 OVC042 08/06 A3021 RMK AO2 SLP238 T00830056=
202204291453 METAR KSEA 291453Z 14006KT 10SM FEW006 BKN024 OVC042 08/06 A3021 RMK AO2 RAE13 SLP237 P0000 60001 T00780061 51009=
202204291435 SPECI KSEA 291435Z 14006KT 10SM FEW008 BKN024 OVC046 07/06 A3021 RMK AO2 RAE13 P0000 T00720061=
202204291410 SPECI KSEA 291410Z 13007KT 7SM -RA BKN024 OVC034 08/06 A3020 RMK AO2 P0000 T00780061=
202204291357 SPECI KSEA 291357Z 17004KT 7SM R16L/6000VP6000FT -RA SCT021 BKN030 OVC035 07/06 A3020 RMK AO2 P0000 T00720056=
202204291353 METAR KSEA 291353Z 16005KT 2 1/2SM R16L/6000VP6000FT -RA BR SCT021 BKN030 OVC037 07/06 A3020 RMK AO2 RAE1257B41 SLP235 P0001 T00720056=
202204291341 SPECI KSEA 291341Z 16005KT 10SM -RA BKN018 BKN023 OVC029 07/06 A3020 RMK AO2 RAE1257B41 P0000 T00720056=
202204291253 METAR KSEA 291253Z 00000KT 10SM -RA FEW019 BKN036 OVC043 07/06 A3019 RMK AO2 RAB35 SLP232 P0000 T00720056=
202204291238 SPECI KSEA 291238Z 21005KT 10SM -RA FEW014 BKN036 OVC047 07/05 A3019 RMK AO2 RAB35 P0000 T00720050=
202204291153 METAR KSEA 291153Z 18004KT 10SM BKN029 BKN035 OVC043 08/05 A3018 RMK AO2 SLP227 T00780050 10083 20067 51006=
202204291150 SPECI KSEA 291150Z 18005KT 10SM BKN027 OVC043 08/05 A3018 RMK AO2=
202204291053 METAR KSEA 291053Z 21007KT 10SM OVC046 08/05 A3017 RMK AO2 SLP222 T00780050=
202204290953 METAR KSEA 290953Z 19005KT 10SM OVC047 08/04 A3016 RMK AO2 SLP221 T00780044=
202204290853 METAR KSEA 290853Z 21005KT 10SM FEW050 SCT090 07/04 A3015 RMK AO2 SLP217 T00720039 51013=
202204290753 METAR KSEA 290753Z 21005KT 10SM FEW040 SCT085 07/04 A3015 RMK AO2 SLP215 T00720039 401390056=
202204290653 METAR KSEA 290653Z 22007KT 10SM BKN048 08/04 A3013 RMK AO2 SLP209 T00830044=
202204290553 METAR KSEA 290553Z 24004KT 10SM FEW028 BKN035 08/04 A3011 RMK AO2 RAB01E23 SLP204 P0000 60000 T00830044 10133 20083 51017=
202204290453 METAR KSEA 290453Z 30004KT 10SM OVC034 09/04 A3010 RMK AO2 SLP200 T00890044=
202204290353 METAR KSEA 290353Z 31004KT 10SM FEW065 BKN080 OVC200 09/03 A3008 RMK AO2 RAE32 SLP194 P0000 T00940033=
202204290253 METAR KSEA 290253Z 32008KT 10SM -RA FEW046 SCT060 BKN090 10/04 A3006 RMK AO2 RAB50 SLP187 P0000 60000 T01000039 53010=
202204290153 METAR KSEA 290153Z 23006KT 10SM FEW055 BKN075 BKN250 12/02 A3004 RMK AO2 SLP180 T01170017=
202204290053 METAR KSEA 290053Z 23004KT 10SM SCT060 BKN090 BKN250 13/02 A3003 RMK AO2 SLP177 T01280017=
202204282353 METAR KSEA 282353Z 21004KT 10SM FEW060 BKN080 BKN250 13/01 A3003 RMK AO2 SLP176 T01280011 10139 20094 53001=
202204282253 METAR KSEA 282253Z 20007KT 10SM SCT030 SCT100 BKN250 14/01 A3002 RMK AO2 SLP174 T01390011=
202204282158 SPECI KSEA 282158Z 27006KT 10SM SCT030 SCT060 BKN250 13/01 A3003 RMK AO2 T01280006=
202204282153 METAR KSEA 282153Z 10SM SCT030 SCT060 BKN250 12/01 A3003 RMK AO2 SLP175 T01220006=
202204282053 METAR KSEA 282053Z 22007KT 10SM FEW020 SCT030 BKN060 OVC250 12/02 A3003 RMK AO2 SLP175 T01170017 57004=
202204281953 METAR KSEA 281953Z 26007KT 10SM FEW020 SCT030 BKN060 OVC250 11/03 A3003 RMK AO2 SLP176 T01110028=
202204281906 SPECI KSEA 281906Z 22005KT 10SM SCT023 SCT029 BKN055 11/04 A3004 RMK AO2 T01060039=
202204281853 METAR KSEA 281853Z 24007KT 10SM SCT023 BKN028 BKN039 OVC250 11/04 A3004 RMK AO2 SLP179 T01060044=
202204281753 METAR KSEA 281753Z VRB05KT 10SM SCT017 SCT025 BKN037 BKN250 09/05 A3004 RMK AO2 SLP180 T00940050 10094 20056 53003=
202204281700 SPECI KSEA 281700Z 15004KT 10SM SCT010 SCT020 BKN030 08/05 A3004 RMK AO2 T00780050=
202204281653 METAR KSEA 281653Z 20003KT 10SM SCT010 BKN020 OVC030 08/05 A3004 RMK AO2 SLP178 T00780050=
202204281605 SPECI KSEA 281605Z VRB03KT 10SM SCT008 SCT012 OVC020 07/06 A3003 RMK AO2 T00720056=
202204281553 METAR KSEA 281553Z 20004KT 10SM BKN008 BKN019 07/06 A3003 RMK AO2 SLP179 T00720056=
202204281520 SPECI KSEA 281520Z 17004KT 10SM BKN006 BKN019 07/06 A3003 RMK AO2 T00670056=
202204281453 METAR KSEA 281453Z 18004KT 10SM SCT008 BKN018 07/06 A3003 RMK AO2 SLP177 T00670056 53001=
202204281431 SPECI KSEA 281431Z 16003KT 10SM SCT008 BKN016 07/05 A3003 RMK AO2 T00670050=
202204281353 METAR KSEA 281353Z 14003KT 10SM BKN008 OVC013 07/04 A3003 RMK AO2 SLP176 T00670044=
202204281337 SPECI KSEA 281337Z 17004KT 10SM BKN008 OVC013 06/04 A3003 RMK AO2 T00610044=
202204281311 SPECI KSEA 281311Z 00000KT 10SM FEW006 OVC013 06/04 A3003 RMK AO2 T00610044=
202204281253 METAR KSEA 281253Z 00000KT 10SM BKN013 BKN060 06/04 A3002 RMK AO2 SLP174 T00560044=
202204281153 METAR KSEA 281153Z 15003KT 10SM FEW049 BKN060 06/04 A3003 RMK AO2 SLP176 60000 T00610039 10083 20061 56010=
202204281053 METAR KSEA 281053Z 13004KT 10SM BKN049 07/04 A3004 RMK AO2 SLP179 T00670044=
202204280953 METAR KSEA 280953Z 00000KT 10SM FEW060 BKN200 06/05 A3004 RMK AO2 SLP181 T00610050=
202204280853 METAR KSEA 280853Z 13005KT 10SM FEW035 SCT060 07/06 A3006 RMK AO2 SLP186 60000 T00670056 58010=
202204280753 METAR KSEA 280753Z 00000KT 10SM FEW035 BKN080 08/06 A3007 RMK AO2 SLP191 T00780056 401330039=
202204280715 SPECI KSEA 280715Z 00000KT 10SM SCT022 BKN035 OVC050 08/06 A3008 RMK AO2 T00780056=
202204280653 METAR KSEA 280653Z 00000KT 10SM FEW019 BKN025 OVC030 08/05 A3008 RMK AO2 RAB38E48 SLP194 P0000 T00830050=
202204280645 SPECI KSEA 280645Z 10004KT 10SM -RA BKN025 BKN030 OVC047 08/05 A3008 RMK AO2 RAB38 P0000 T00780050=
202204280553 METAR KSEA 280553Z 05006KT 10SM BKN050 OVC080 09/04 A3009 RMK AO2 SLP196 T00890044 10133 20083 50002=
202204280453 METAR KSEA 280453Z 35005KT 10SM BKN040 09/05 A3009 RMK AO2 SLP198 T00890050=
202204280353 METAR KSEA 280353Z 29004KT 10SM BKN060 08/04 A3009 RMK AO2 SLP197 T00830039=
202204280253 METAR KSEA 280253Z 22007KT 10SM FEW030 BKN060 BKN250 10/03 A3008 RMK AO2 SLP194 T01000028 51001=
202204280153 METAR KSEA 280153Z 22007KT 10SM FEW040 BKN090 BKN250 11/03 A3008 RMK AO2 SLP194 T01110028=
202204280053 METAR KSEA 280053Z 29006KT 10SM FEW040 BKN085 BKN250 11/03 A3009 RMK AO2 SLP196 T01110033=
202204272353 METAR KSEA 272353Z 20010KT 10SM SCT040 SCT110 13/03 A3008 RMK AO2 SLP193 T01280028 10133 20089 56005=
202204272253 METAR KSEA 272253Z 19010KT 10SM SCT040 SCT100 12/02 A3008 RMK AO2 SLP194 T01220022=
202204272153 METAR KSEA 272153Z 20011KT 10SM SCT040 SCT250 12/02 A3009 RMK AO2 SLP197 T01220017=
202204272053 METAR KSEA 272053Z 10SM FEW025 SCT038 BKN250 12/02 A3010 RMK AO2 SLP198 T01220022 58005=
202204271953 METAR KSEA 271953Z 26004KT 10SM FEW025 BKN055 BKN250 11/03 A3010 RMK AO2 SLP200 T01110028=
202204271853 METAR KSEA 271853Z 21007KT 10SM SCT025 BKN040 BKN250 10/02 A3011 RMK AO2 SLP203 T01000022=
202204271753 METAR KSEA 271753Z 22008KT 10SM FEW015 SCT026 BKN047 BKN250 09/03 A3011 RMK AO2 SLP203 T00940028 10094 20039 58002=
202204271711 SPECI KSEA 271711Z 23003KT 10SM FEW016 FEW030 08/04 A3011 RMK AO2 T00830044=
202204271700 SPECI KSEA 271700Z 27005KT 10SM SCT015 BKN028 08/04 A3011 RMK AO2 T00830044=
202204271653 METAR KSEA 271653Z VRB04KT 10SM FEW013 SCT022 BKN030 BKN250 08/05 A3011 RMK AO2 SLP204 T00830050=
202204271616 SPECI KSEA 271616Z 22005KT 10SM SCT013 BKN030 BKN100 07/04 A3011 RMK AO2 T00720039=
202204271553 METAR KSEA 271553Z 23003KT 10SM BKN010 BKN026 BKN110 BKN250 07/04 A3012 RMK AO2 SLP206 T00670039=
202204271501 SPECI KSEA 271501Z 24004KT 10SM BKN010 BKN023 BKN045 06/03 A3011 RMK AO2 T00610033=
202204271453 METAR KSEA 271453Z 23004KT 10SM FEW010 BKN022 BKN045 06/03 A3011 RMK AO2 SLP205 T00610033 53003=
202204271434 SPECI KSEA 271434Z 23004KT 10SM BKN022 BKN030 06/04 A3011 RMK AO2 T00610039=
202204271400 SPECI KSEA 271400Z 21003KT 10SM SCT024 OVC042 06/03 A3011 RMK AO2 T00560033=
202204271353 METAR KSEA 271353Z 21003KT 10SM BKN024 BKN042 06/03 A3011 RMK AO2 SLP203 T00560033=
202204271345 SPECI KSEA 271345Z 00000KT 10SM BKN024 BKN042 06/03 A3011 RMK AO2 T00560033=
202204271253 METAR KSEA 271253Z 16003KT 10SM BKN043 04/03 A3011 RMK AO2 SLP203 T00440028=
202204271153 METAR KSEA 271153Z 19004KT 10SM FEW110 04/02 A3011 RMK AO2 SLP203 70005 T00390022 10067 20039 56004=
202204271053 METAR KSEA 271053Z 18005KT 10SM SCT050 04/02 A3011 RMK AO2 SLP206 T00440022=
202204270953 METAR KSEA 270953Z 16005KT 10SM FEW050 04/02 A3011 RMK AO2 SLP205 T00440022=
202204270853 METAR KSEA 270853Z 15005KT 10SM SCT050 06/02 A3012 RMK AO2 SLP206 T00560022 58003=
202204270753 METAR KSEA 270753Z 16006KT 10SM FEW045 06/03 A3013 RMK AO2 SLP210 T00560028 401110056=
202204270653 METAR KSEA 270653Z 17004KT 10SM FEW035 SCT070 06/03 A3013 RMK AO2 SLP210 T00610028=
202204270553 METAR KSEA 270553Z 22005KT 10SM FEW035 07/02 A3013 RMK AO2 SLP210 T00720022 10111 20067 51013=
202204270453 METAR KSEA 270453Z 19007KT 10SM FEW035 08/03 A3012 RMK AO2 SLP208 T00780033=
202204270353 METAR KSEA 270353Z 21008KT 10SM FEW035 SCT250 09/01 A3011 RMK AO2 SLP204 T00890011=
202204270253 METAR KSEA 270253Z 21010KT 10SM FEW035 SCT120 SCT250 10/02 A3009 RMK AO2 SLP197 T01000017 53009=
202204270153 METAR KSEA 270153Z 22013KT 10SM FEW032 SCT080 SCT250 11/01 A3008 RMK AO2 SLP194 T01110011=
202204270055 SPECI KSEA 270055Z 18011KT 10SM FEW032 SCT080 SCT250 11/04 A3007 RMK AO2 T01060044=
202204270053 METAR KSEA 270053Z 19011G18KT 10SM CLR 11/04 A3007 RMK AO2 SLP190 T01060044=
202204262353 METAR KSEA 262353Z 21015G26KT 10SM SCT033 SCT100 SCT250 11/03 A3006 RMK AO2 PK WND 19026/2346 SLP188 60005 T01060028 10111 20072 50005=
202204262253 METAR KSEA 262253Z 20014KT 10SM SCT033 SCT100 SCT250 11/06 A3006 RMK AO2 RAE2156 SLP188 P0000 T01060056=
202204262153 METAR KSEA 262153Z 20012KT 8SM -RA FEW021 BKN032 BKN065 BKN250 08/05 A3006 RMK AO2 RAB26 SLP189 P0004 T00830050=
202204262145 SPECI KSEA 262145Z 22010KT 5SM -RA FEW021 BKN030 BKN065 08/05 A3007 RMK AO2 RAB26 P0004 T00780050=
202204262132 SPECI KSEA 262132Z 23011G25KT 6SM -RA BR FEW021 BKN027 BKN100 07/05 A3007 RMK AO2 RAB26 P0002 T00720050=
202204262053 METAR KSEA 262053Z 21014G22KT 10SM SCT030 SCT100 BKN250 11/04 A3005 RMK AO2 SLP182 SHRA SE 60001 T01110044 51002=
202204261953 METAR KSEA 261953Z 19013G19KT 10SM FEW016 SCT030 BKN080 BKN200 10/04 A3005 RMK AO2 LTG DSNT SE RAE07 SLP182 T01000044 PNO $=
202204261901 SPECI KSEA 261901Z 21010KT 7SM -RA SCT026 BKN030 BKN041 BKN250 08/05 A3005 RMK AO2 T00830050 PNO $=
202204261853 METAR KSEA 261853Z 23011G19KT 4SM -RA OVC026 07/04 A3005 RMK AO2 WSHFT 1820 RAB37 SLP185 P0001 T00720039=
202204261845 SPECI KSEA 261845Z 24015G21KT 9SM -RA SCT025 BKN038 OVC048 07/03 A3005 RMK AO2 WSHFT 1820 RAB37 P0000 T00720033=
202204261835 SPECI KSEA 261835Z 26010G21KT 10SM BKN025 BKN036 BKN048 08/03 A3005 RMK AO2 WSHFT 1820 T00780028=
202204261753 METAR KSEA 261753Z 23010KT 10SM FEW020 BKN050 BKN090 BKN250 09/03 A3004 RMK AO2 SLP181 VCSH VIRGA SE-S T00940033 10100 20056 51004=
202204261653 METAR KSEA 261653Z 21009KT 10SM FEW019 SCT043 BKN055 BKN250 09/04 A3004 RMK AO2 SLP179 T00890039=
202204261553 METAR KSEA 261553Z 20011KT 10SM FEW015 SCT023 BKN035 BKN250 08/04 A3004 RMK AO2 SLP179 T00830039=
202204261545 SPECI KSEA 261545Z 19010KT 10SM FEW015 SCT023 BKN035 BKN250 08/04 A3004 RMK AO2 T00830044=
202204261530 SPECI KSEA 261530Z 17009KT 10SM FEW015 BKN023 BKN033 08/04 A3004 RMK AO2 T00780039=
202204261453 METAR KSEA 261453Z 18007KT 10SM FEW015 SCT055 BKN250 07/03 A3003 RMK AO2 SLP177 T00670033 56003=
202204261353 METAR KSEA 261353Z 19006KT 10SM FEW015 SCT060 BKN250 06/04 A3003 RMK AO2 SLP177 T00610039=
202204261253 METAR KSEA 261253Z 19007KT 10SM FEW015 SCT055 06/04 A3004 RMK AO2 SLP178 T00560039=
202204261205 SPECI KSEA 261205Z 20008KT 10SM SCT014 BKN055 06/04 A3004 RMK AO2 T00610039=
202204261153 METAR KSEA 261153Z 20007KT 10SM BKN013 BKN055 06/03 A3004 RMK AO2 SLP180 70008 T00560033 10083 20056 55002=
202204261107 SPECI KSEA 261107Z 21007KT 10SM BKN013 06/03 A3004 RMK AO2 T00610033=
202204261053 METAR KSEA 261053Z 20008KT 10SM SCT014 06/04 A3003 RMK AO2 SLP178 T00610039=
202204261035 SPECI KSEA 261035Z 19008KT 10SM SCT014 06/03 A3003 RMK AO2 T00610033=
202204260953 METAR KSEA 260953Z 18009KT 10SM BKN016 07/04 A3004 RMK AO2 SLP179 T00670039=
202204260912 SPECI KSEA 260912Z 17006KT 10SM BKN016 06/03 A3004 RMK AO2 T00610033=
202204260853 METAR KSEA 260853Z 20006KT 10SM FEW017 SCT170 07/04 A3004 RMK AO2 SLP181 T00670039 57005=
202204260753 METAR KSEA 260753Z 21009KT 10SM FEW006 SCT200 07/04 A3005 RMK AO2 SLP183 T00720039 401390072=
202204260653 METAR KSEA 260653Z 21008KT 10SM FEW095 SCT200 08/04 A3006 RMK AO2 SLP185 T00780039=
202204260553 METAR KSEA 260553Z 22006KT 10SM FEW035 SCT095 08/04 A3006 RMK AO2 SLP186 T00830039 10122 20083 50001=
202204260453 METAR KSEA 260453Z 20006KT 10SM FEW035 BKN060 09/03 A3006 RMK AO2 SLP187 T00890033=
202204260353 METAR KSEA 260353Z 20006KT 10SM BKN048 BKN100 10/04 A3007 RMK AO2 SLP188 T01000039=
202204260253 METAR KSEA 260253Z 20007KT 10SM FEW036 SCT050 BKN090 BKN200 11/04 A3006 RMK AO2 SLP186 T01060039 58005=
202204260153 METAR KSEA 260153Z 20011KT 10SM SCT036 BKN085 11/04 A3006 RMK AO2 SLP187 T01060044=
202204260053 METAR KSEA 260053Z 16009KT 10SM SCT037 BKN046 BKN080 11/07 A3007 RMK AO2 SLP190 T01110072=
202204252353 METAR KSEA 252353Z 20010KT 10SM FEW026 BKN038 BKN100 12/05 A3007 RMK AO2 SLP190 60000 T01220050 10139 20100 56003=
202204252323 SPECI KSEA 252323Z 16010KT 10SM FEW026 BKN040 BKN100 13/06 A3007 RMK AO2 T01280061=
202204252253 METAR KSEA 252253Z 15008KT 10SM BKN026 BKN038 BKN090 12/06 A3008 RMK AO2 RAB14E30 SLP192 VCSH P0000 T01170061=
202204252236 SPECI KSEA 252236Z 18007KT 10SM BKN026 BKN050 12/06 A3008 RMK AO2 RAB14E30 VCSH P0000 T01220061=
202204252153 METAR KSEA 252153Z 13008KT 100V170 10SM SCT031 BKN049 13/06 A3007 RMK AO2 SLP190 T01280056=
202204252053 METAR KSEA 252053Z 15007KT 10SM SCT030 BKN075 13/04 A3008 RMK AO2 SLP193 T01280044 58001=
202204251953 METAR KSEA 251953Z 18009KT 10SM FEW027 BKN075 12/04 A3009 RMK AO2 SLP196 T01170044=
202204251853 METAR KSEA 251853Z 19013KT 10SM FEW020 BKN065 OVC080 11/06 A3010 RMK AO2 SLP198 T01110056=
202204251753 METAR KSEA 251753Z 20014KT 10SM FEW017 BKN075 OVC095 10/06 A3009 RMK AO2 SLP195 60008 T01000061 10111 20089 52009=
202204251653 METAR KSEA 251653Z 21011KT 10SM SCT070 BKN080 09/07 A3008 RMK AO2 SLP191 T00940067=
202204251553 METAR KSEA 251553Z 19010KT 10SM FEW047 BKN060 OVC075 09/08 A3007 RMK AO2 SLP188 T00940083=
202204251533 SPECI KSEA 251533Z 22010G19KT 10SM FEW009 SCT038 OVC046 10/07 A3006 RMK AO2 T01000072=
202204251453 METAR KSEA 251453Z 21007KT 10SM SCT031 BKN047 OVC055 10/09 A3006 RMK AO2 RAE00 SLP185 P0000 60008 T01000089 52006=
202204251445 SPECI KSEA 251445Z 22007KT 10SM BKN031 OVC055 10/09 A3006 RMK AO2 RAE00 P0000 T01000089=
202204251400 SPECI KSEA 251400Z 20005KT 7SM FEW007 OVC021 09/08 A3005 RMK AO2 RAE00 P0000 T00940083=
202204251353 METAR KSEA 251353Z 21004KT 2 1/2SM -RA BR SCT007 SCT015 OVC020 09/09 A3005 RMK AO2 RAB35 SLP183 P0003 T00940089=
202204251349 SPECI KSEA 251349Z 20005KT 2 1/2SM -RA BR FEW007 SCT015 OVC020 09/08 A3005 RMK AO2 RAB35 P0002=
202204251303 SPECI KSEA 251303Z 18007KT 9SM SCT010 OVC023 09/08 A3004 RMK AO2 T00940083=
202204251253 METAR KSEA 251253Z 18005KT 9SM BKN010 OVC022 09/08 A3004 RMK AO2 RAE33 SLP179 P0005 T00940083=
202204251229 SPECI KSEA 251229Z 16004KT 7SM -RA BKN013 OVC020 09/08 A3004 RMK AO2 P0005 T00940078=
202204251153 METAR KSEA 251153Z 16005KT 5SM RA BR BKN017 OVC025 09/08 A3004 RMK AO2 SLP177 P0003 60006 70006 T00940078 10111 20094 56005=
202204251107 SPECI KSEA 251107Z 15008KT 7SM -RA BKN023 BKN028 OVC036 09/08 A3004 RMK AO2 P0000 T00940078=
202204251053 METAR KSEA 251053Z 14008KT 10SM -RA FEW025 OVC035 10/08 A3004 RMK AO2 RAB23 SLP178 P0001 T01000078=
202204251039 SPECI KSEA 251039Z 14008KT 7SM -RA SCT026 BKN033 OVC044 10/08 A3004 RMK AO2 RAB23 P0001 T01000078=
202204251000 SPECI KSEA 251000Z 13008KT 10SM FEW013 BKN028 OVC045 10/08 A3004 RMK AO2 T01000078=
202204250953 METAR KSEA 250953Z 13007KT 10SM SCT029 OVC045 10/08 A3004 RMK AO2 RAE27 SLP179 P0001 T01000078=
202204250853 METAR KSEA 250853Z 17005KT 8SM -RA FEW020 BKN050 OVC070 10/08 A3005 RMK AO2 RAB38 SLP183 P0001 60001 T01000083 57005=
202204250843 SPECI KSEA 250843Z 17005KT 7SM -RA FEW020 SCT039 OVC050 10/08 A3005 RMK AO2 RAB38 P0000 T01000083=
202204250822 SPECI KSEA 250822Z 19005KT 10SM BKN022 BKN039 OVC100 11/08 A3006 RMK AO2 T01060078=
202204250753 METAR KSEA 250753Z 23005KT 10SM SCT040 BKN100 OVC250 11/08 A3006 RMK AO2 SLP186 T01060078 401940056=
202204250653 METAR KSEA 250653Z 23003KT 10SM BKN110 OVC250 11/07 A3006 RMK AO2 SLP185 T01060072=
202204250553 METAR KSEA 250553Z 24003KT 10SM SCT120 OVC250 11/06 A3007 RMK AO2 SLP188 T01110061 10194 20111 51006=
202204250453 METAR KSEA 250453Z 21006KT 10SM FEW035 BKN095 BKN200 12/06 A3006 RMK AO2 SLP187 T01220056=
202204250353 METAR KSEA 250353Z 26009G17KT 10SM FEW040 BKN100 BKN250 14/04 A3006 RMK AO2 SLP184 T01390039=
202204250253 METAR KSEA 250253Z 25010KT 10SM FEW040 BKN100 BKN250 15/05 A3005 RMK AO2 SLP181 T01500050 55003=
202204250153 METAR KSEA 250153Z 25011KT 10SM FEW040 SCT100 BKN250 17/06 A3003 RMK AO2 SLP177 T01670061=
202204250053 METAR KSEA 250053Z 22007KT 10SM FEW040 SCT100 BKN250 19/M01 A3004 RMK AO2 SLP178 T01891006=
202204242353 METAR KSEA 242353Z 23009G17KT 10SM SCT040 BKN250 19/01 A3005 RMK AO2 SLP184 T01940006 10194 20139 58022=
202204242253 METAR KSEA 242253Z 20006KT 10SM FEW040 SCT250 19/04 A3008 RMK AO2 SLP192 T01890039=
202204242153 METAR KSEA 242153Z 26010KT 10SM FEW040 SCT250 18/04 A3011 RMK AO2 SLP201 T01830044=
202204242053 METAR KSEA 242053Z 27007KT 10SM FEW030 SCT240 18/04 A3012 RMK AO2 SLP206 T01780044 58017=
202204241953 METAR KSEA 241953Z VRB05KT 10SM FEW030 SCT240 16/04 A3015 RMK AO2 SLP215 T01610039=
202204241853 METAR KSEA 241853Z 27007KT 10SM FEW020 SCT250 16/05 A3015 RMK AO2 SLP217 T01560050=
202204241753 METAR KSEA 241753Z VRB03KT 10SM SCT240 14/03 A3017 RMK AO2 SLP223 T01390033 10139 20056 58008=
202204241653 METAR KSEA 241653Z 15005KT 10SM SCT240 11/03 A3018 RMK AO2 SLP227 T01110033=
202204241553 METAR KSEA 241553Z 15007KT 10SM FEW240 10/03 A3019 RMK AO2 SLP230 T01000033=
202204241453 METAR KSEA 241453Z 15006KT 10SM FEW240 08/03 A3019 RMK AO2 SLP231 T00830028 55003=
202204241353 METAR KSEA 241353Z 15005KT 10SM FEW240 07/03 A3019 RMK AO2 SLP230 T00670028=
202204241253 METAR KSEA 241253Z 15005KT 10SM CLR 06/02 A3019 RMK AO2 SLP231 T00610022=
202204241153 METAR KSEA 241153Z 14004KT 10SM FEW250 07/03 A3020 RMK AO2 SLP236 T00670028 10117 20061 56013=
202204241053 METAR KSEA 241053Z 12005KT 10SM FEW250 07/03 A3022 RMK AO2 SLP239 T00670028=
202204240953 METAR KSEA 240953Z 13009KT 10SM FEW250 08/03 A3023 RMK AO2 SLP244 T00780033=
202204240853 METAR KSEA 240853Z 17004KT 10SM FEW250 08/03 A3024 RMK AO2 SLP249 T00780033 57007=
202204240753 METAR KSEA 240753Z 17005KT 10SM FEW250 08/03 A3025 RMK AO2 SLP252 T00830033 401500067=
202204240653 METAR KSEA 240653Z 18005KT 10SM FEW250 09/03 A3026 RMK AO2 SLP254 T00940033=
202204240553 METAR KSEA 240553Z 13005KT 10SM FEW250 11/04 A3027 RMK AO2 SLP256 T01110039 10150 20111 58002=
202204240453 METAR KSEA 240453Z 09004KT 10SM SCT250 13/03 A3028 RMK AO2 SLP260 T01280028=
202204240353 METAR KSEA 240353Z 00000KT 10SM SCT250 13/04 A3027 RMK AO2 SLP259 T01330039=
202204240253 METAR KSEA 240253Z 00000KT 10SM SCT250 14/03 A3027 RMK AO2 SLP258 T01390033 56011=
202204240153 METAR KSEA 240153Z 27003KT 10SM SCT250 14/04 A3028 RMK AO2 SLP261 T01390039=
202204240053 METAR KSEA 240053Z 30004KT 10SM FEW030 BKN250 15/04 A3029 RMK AO2 SLP264 T01500039=
202204232353 METAR KSEA 232353Z 00000KT 10SM FEW030 BKN250 14/03 A3030 RMK AO2 SLP268 T01440033 10150 20089 56012=
202204232253 METAR KSEA 232253Z 22006KT 10SM FEW030 FEW250 14/03 A3031 RMK AO2 SLP272 T01440033=
202204232153 METAR KSEA 232153Z VRB06KT 10SM FEW020 FEW250 13/06 A3033 RMK AO2 SLP277 T01330056=
202204232053 METAR KSEA 232053Z 23006KT 10SM FEW020 SCT250 13/06 A3034 RMK AO2 SLP281 T01280061 58007=
202204231953 METAR KSEA 231953Z 21006KT 10SM FEW010 SCT250 11/06 A3035 RMK AO2 SLP285 T01110061=
202204231853 METAR KSEA 231853Z 24006KT 10SM FEW014 BKN250 09/06 A3036 RMK AO2 SLP289 T00940056=
202204231753 METAR KSEA 231753Z 18005KT 10SM SCT012 BKN250 09/06 A3036 RMK AO2 SLP288 T00940056 10094 20067 51004=
202204231740 SPECI KSEA 231740Z VRB05KT 10SM SCT012 BKN250 09/06 A3036 RMK AO2 T00940056=
202204231653 METAR KSEA 231653Z 22007KT 10SM OVC012 08/05 A3036 RMK AO2 SLP287 T00830050=
202204231635 SPECI KSEA 231635Z 24006KT 10SM BKN011 OVC014 08/05 A3035 RMK AO2 T00780050=
202204231553 METAR KSEA 231553Z 19007KT 10SM OVC009 07/04 A3035 RMK AO2 SLP286 T00720044=
202204231453 METAR KSEA 231453Z 20005KT 10SM OVC009 07/05 A3034 RMK AO2 SLP283 T00720050 51011=
202204231425 SPECI KSEA 231425Z 19004KT 10SM BKN010 OVC016 07/05 A3034 RMK AO2 T00720050=
202204231353 METAR KSEA 231353Z 18005KT 10SM OVC009 07/04 A3033 RMK AO2 SLP279 T00670044=
202204231253 METAR KSEA 231253Z 21006KT 10SM BKN009 OVC018 07/05 A3032 RMK AO2 SLP276 T00720050=
202204231153 METAR KSEA 231153Z 20008KT 10SM OVC009 07/06 A3031 RMK AO2 SLP272 70001 T00720056 10100 20072 53014=
202204231136 SPECI KSEA 231136Z 20006KT 10SM BKN009 OVC020 08/06 A3030 RMK AO2 T00780056=
202204231105 SPECI KSEA 231105Z 22006KT 10SM BKN011 OVC020 08/06 A3030 RMK AO2 T00780056=
202204231053 METAR KSEA 231053Z 23007KT 10SM SCT012 BKN020 OVC040 08/06 A3029 RMK AO2 SLP264 T00780056=
202204231051 SPECI KSEA 231051Z 23007KT 10SM SCT012 BKN020 OVC040 08/06 A3029 RMK AO2=
202204230953 METAR KSEA 230953Z 20007KT 10SM FEW039 BKN046 BKN060 08/06 A3027 RMK AO2 SLP257 T00780056=
202204230853 METAR KSEA 230853Z 20004KT 10SM BKN039 BKN055 BKN065 08/07 A3026 RMK AO2 SLP254 T00830067 52013=
202204230753 METAR KSEA 230753Z 18006KT 10SM BKN045 BKN070 09/06 A3025 RMK AO2 SLP251 T00940061 401440056=
202204230653 METAR KSEA 230653Z 17003KT 10SM BKN042 OVC070 10/06 A3023 RMK AO2 SLP244 T01000056=
202204230553 METAR KSEA 230553Z 00000KT 10SM BKN044 BKN070 10/05 A3022 RMK AO2 SLP241 T01000050 10144 20100 51016=
202204230453 METAR KSEA 230453Z 00000KT 10SM FEW040 BKN070 12/03 A3021 RMK AO2 SLP238 T01170028=
202204230353 METAR KSEA 230353Z 01007KT 10SM FEW030 BKN070 11/04 A3019 RMK AO2 SLP230 T01110044=
202204230253 METAR KSEA 230253Z 30004KT 10SM FEW030 BKN075 BKN250 11/04 A3017 RMK AO2 SLP224 T01110039 53011=
202204230153 METAR KSEA 230153Z 30004KT 10SM FEW030 BKN060 BKN250 13/04 A3016 RMK AO2 SLP220 T01280039=
202204230053 METAR KSEA 230053Z 31005KT 10SM FEW035 SCT070 SCT250 13/04 A3015 RMK AO2 SLP217 T01330039=
202204222353 METAR KSEA 222353Z VRB05KT 10SM FEW035 BKN100 BKN250 14/04 A3014 RMK AO2 SLP213 60000 T01390044 10144 20089 53006=
202204222253 METAR KSEA 222253Z VRB06KT 10SM FEW035 SCT060 SCT250 14/06 A3013 RMK AO2 SLP210 T01390056=
202204222153 METAR KSEA 222153Z 23008KT 10SM SCT032 SCT090 SCT250 14/05 A3013 RMK AO2 SLP210 T01390050=
202204222053 METAR KSEA 222053Z 25005KT 10SM SCT027 SCT060 13/05 A3012 RMK AO2 SLP207 60000 T01280050 51004=
202204221953 METAR KSEA 221953Z 25005KT 10SM SCT020 BKN055 12/06 A3012 RMK AO2 SLP206 T01170056=
202204221853 METAR KSEA 221853Z 23005KT 10SM SCT015 BKN055 11/07 A3012 RMK AO2 RAE01 SLP206 P0000 T01060067=
202204221818 SPECI KSEA 221818Z 27005KT 10SM SCT010 BKN018 BKN050 10/07 A3011 RMK AO2 RAE01 P0000 T01000067=
202204221753 METAR KSEA 221753Z 28004KT 10SM -RA FEW006 BKN047 BKN055 09/07 A3011 RMK AO2 RAB1655E23B44 SLP204 P0001 60001 T00890067 10089 20056 53016=
202204221705 SPECI KSEA 221705Z 27005KT 5SM -RA BR BKN006 OVC039 09/07 A3010 RMK AO2 RAB1655 P0000 T00890072=
202204221653 METAR KSEA 221653Z 25004KT 7SM SCT008 OVC039 08/07 A3009 RMK AO2 SLP198 T00830072=
202204221553 METAR KSEA 221553Z 00000KT 4SM BCFG SCT002 OVC037 07/07 A3007 RMK AO2 RAE00 SLP191 VIS S-W 3/4 P0000 T00720067=
202204221520 SPECI KSEA 221520Z 00000KT 4SM R16L/5500VP6000FT BCFG SCT002 OVC037 07/06 A3006 RMK AO2 RAE00 VIS S-W 3/4 P0000 T00670061=
202204221510 SPECI KSEA 221510Z 00000KT 3/4SM R16L/4500VP6000FT BCFG BKN002 OVC037 07/06 A3006 RMK AO2 RAE00 P0000 T00670056=
202204221453 METAR KSEA 221453Z 17004KT 7SM -RA FEW002 OVC035 07/06 A3006 RMK AO2 SLP188 VIS S-W 1 FG BANK S-W P0000 60000 T00670056 52014=
202204221353 METAR KSEA 221353Z 16003KT 10SM -RA FEW005 OVC035 07/05 A3005 RMK AO2 RAB49 SLP183 P0000 T00670050=
202204221319 SPECI KSEA 221319Z 16004KT 10SM FEW005 BKN036 OVC044 06/05 A3004 RMK AO2 T00610050=
202204221253 METAR KSEA 221253Z 16004KT 7SM BKN006 OVC045 06/05 A3004 RMK AO2 SLP179 T00610050 $=
202204221239 SPECI KSEA 221239Z 00000KT 7SM BKN006 OVC045 06/05 A3003 RMK AO2 T00610050 $=
202204221153 METAR KSEA 221153Z 00000KT 7SM SCT005 OVC045 06/06 A3002 RMK AO2 SLP173 70009 T00610056 10078 20056 51013 $=
202204221150 SPECI KSEA 221150Z 00000KT 7SM FEW005 OVC045 06/06 A3002 RMK AO2 $=
202204221053 METAR KSEA 221053Z 00000KT 9SM BKN041 06/06 A3000 RMK AO2 SLP166 T00610056 $=
202204220953 METAR KSEA 220953Z 00000KT 6SM BR BKN038 OVC160 06/06 A2998 RMK AO2 SLP160 T00610056 $=
202204220853 METAR KSEA 220853Z 14003KT 10SM SCT039 BKN160 06/05 A2997 RMK AO2 SLP156 T00610050 51006 $=
202204220753 METAR KSEA 220753Z 16003KT 10SM SCT070 SCT250 06/06 A2996 RMK AO2 SLP154 T00610056 401330056 $=
202204220653 METAR KSEA 220653Z 18003KT 10SM FEW030 SCT070 07/06 A2996 RMK AO2 SLP152 T00670056 $=
202204220553 METAR KSEA 220553Z 13005KT 10SM FEW029 SCT080 07/06 A2995 RMK AO2 SLP149 60007 T00720056 10122 20072 51013 $=
202204220453 METAR KSEA 220453Z 13007KT 10SM FEW060 BKN100 BKN200 08/06 A2995 RMK AO2 SLP148 T00780056 $=
202204220353 METAR KSEA 220353Z 12008KT 10SM FEW046 SCT095 BKN200 08/06 A2992 RMK AO2 SLP140 T00780056 $=
202204220253 METAR KSEA 220253Z VRB03KT 10SM FEW034 BKN049 BKN080 08/05 A2991 RMK AO2 RAE03 SLP137 P0000 60007 T00830050 51019 $=
202204220153 METAR KSEA 220153Z 20005KT 3SM -RA BR FEW027 OVC038 08/06 A2991 RMK AO2 SLP136 P0006 T00780056 $=
202204220053 METAR KSEA 220053Z 16012KT 7SM -RA FEW024 BKN043 BKN200 09/06 A2988 RMK AO2 PK WND 18026/0035 RAB24 SLP125 P0001 T00890056 $=
202204212353 METAR KSEA 212353Z 18010KT 10SM FEW030 SCT049 BKN200 12/04 A2986 RMK AO2 SLP117 VCSH 60001 T01220039 10133 20100 51017=
202204212253 METAR KSEA 212253Z 23008KT 10SM FEW029 SCT048 BKN200 11/04 A2985 RMK AO2 RAB28E39 SLP114 SHRA SE P0001 T01060039=
202204212153 METAR KSEA 212153Z 27011KT 10SM FEW035 FEW050 SCT080 BKN220 12/04 A2982 RMK AO2 SLP107 T01220044=
202204212053 METAR KSEA 212053Z 22011G18KT 10SM FEW035 FEW044 SCT055 BKN250 13/05 A2980 RMK AO2 SLP099 60000 T01280050 51016=
202204211953 METAR KSEA 211953Z 19010KT 10SM FEW034 SCT045 BKN250 12/05 A2979 RMK AO2 PK WND 20027/1925 RAB39E50 SLP095 P0000 T01220050 $=
202204211853 METAR KSEA 211853Z 18011KT 10SM FEW033 SCT041 SCT060 BKN250 11/05 A2977 RMK AO2 RAB38E50 SLP089 P0000 T01060050 $=
202204211753 METAR KSEA 211753Z 21015G23KT 10SM FEW029 BKN045 BKN060 11/04 A2975 RMK AO2 SLP083 60001 T01060044 10111 20067 51026=
202204211653 METAR KSEA 211653Z 20013KT 10SM FEW022 SCT048 BKN065 10/06 A2973 RMK AO2 SLP075 T01000061=
202204211636 SPECI KSEA 211636Z 19012G18KT 10SM FEW022 BKN034 BKN070 09/06 A2973 RMK AO2 T00890056=
202204211553 METAR KSEA 211553Z 20008KT 10SM BKN028 OVC035 08/06 A2971 RMK AO2 RAE00 SLP066 P0000 T00830056=
202204211453 METAR KSEA 211453Z VRB05KT 10SM -RA SCT036 OVC046 07/05 A2968 RMK AO2 RAE22B38 SLP056 P0000 60001 T00720050 53013=
202204211353 METAR KSEA 211353Z 15005KT 10SM -RA FEW007 BKN041 OVC050 07/05 A2965 RMK AO2 RAB49 SLP048 P0000 T00670050=
202204211253 METAR KSEA 211253Z 12006KT 10SM OVC040 07/05 A2964 RMK AO2 RAE40 SLP044 P0001 T00670050=
202204211153 METAR KSEA 211153Z 19004KT 8SM -RA OVC034 07/06 A2964 RMK AO2 RAB1057 SLP043 P0009 60009 70017 T00670056 10083 20061 53020=
202204211108 SPECI KSEA 211108Z 22010KT 7SM -RA SCT003 BKN046 OVC085 07/06 A2962 RMK AO2 RAB1057 PRESRR P0001 T00670056=
202204211053 METAR KSEA 211053Z 21007KT 10SM FEW060 BKN075 OVC090 06/05 A2960 RMK AO2 SLP030 T00610050=
202204210953 METAR KSEA 210953Z 01006KT 10SM SCT110 07/05 A2956 RMK AO2 SLP018 T00670050=
202204210853 METAR KSEA 210853Z 02003KT 10SM OVC110 08/03 A2958 RMK AO2 SLP022 T00780033 56016=
202204210753 METAR KSEA 210753Z 05008KT 10SM BKN220 07/04 A2958 RMK AO2 SLP024 T00670044 401220033=
202204210653 METAR KSEA 210653Z 05004KT 10SM CLR 07/04 A2961 RMK AO2 SLP032 T00720039=
202204210553 METAR KSEA 210553Z 08005KT 10SM CLR 07/05 A2962 RMK AO2 SLP038 60001 T00720050 10117 20072 58003=
202204210453 METAR KSEA 210453Z 20003KT 10SM SCT046 SCT060 08/06 A2964 RMK AO2 SLP045 T00830061=
202204210353 METAR KSEA 210353Z 17004KT 10SM SCT043 BKN220 08/06 A2964 RMK AO2 SLP044 T00830061=
202204210253 METAR KSEA 210253Z 17005KT 10SM BKN042 BKN100 BKN200 09/06 A2963 RMK AO2 RAB26E51 SLP042 P0001 60001 T00890061 53006=
202204210153 METAR KSEA 210153Z 17011G25KT 10SM BKN050 OVC060 11/04 A2961 RMK AO2 SLP034 T01110044=
202204210053 METAR KSEA 210053Z 14006KT 10SM OVC060 11/04 A2962 RMK AO2 SLP037 T01110044=
202204202353 METAR KSEA 202353Z 13008KT 10SM OVC050 10/04 A2962 RMK AO2 RAE21 SLP037 P0000 60007 T01000044 10122 20089 58010=
202204202253 METAR KSEA 202253Z 14007KT 8SM -RA OVC040 09/04 A2963 RMK AO2 SLP041 P0006 T00940044=
202204202153 METAR KSEA 202153Z 12008KT 6SM -RA OVC036 09/03 A2965 RMK AO2 SLP047 P0001 T00940033=
202204202053 METAR KSEA 202053Z 18005KT 7SM -RA BKN045 OVC055 10/03 A2965 RMK AO2 RAB34 SLP047 P0000 60000 T01000028 55008=
202204201953 METAR KSEA 201953Z 10008KT 10SM OVC070 12/M01 A2965 RMK AO2 SLP046 VCSH T01221011=
202204201853 METAR KSEA 201853Z 05010KT 10SM BKN075 OVC095 11/00 A2965 RMK AO2 PRESFR SLP046 VCSH T01110000=
202204201753 METAR KSEA 201753Z 08007KT 10SM FEW040 BKN120 OVC200 11/01 A2967 RMK AO2 SLP055 T01060006 10106 20033 56026=
202204201653 METAR KSEA 201653Z 03004KT 10SM FEW040 BKN130 OVC200 09/01 A2969 RMK AO2 SLP059 T00890011=
202204201553 METAR KSEA 201553Z 11006KT 10SM FEW040 FEW100 BKN230 08/01 A2971 RMK AO2 SLP067 T00830011=
202204201453 METAR KSEA 201453Z 12005KT 10SM FEW040 FEW100 BKN250 06/01 A2975 RMK AO2 SLP083 T00610006 58017=
202204201353 METAR KSEA 201353Z 00000KT 10SM FEW040 FEW100 BKN250 04/01 A2978 RMK AO2 SLP092 T00440011=
202204201253 METAR KSEA 201253Z 10005KT 10SM FEW040 FEW100 SCT250 04/01 A2979 RMK AO2 SLP094 T00390006=
202204201153 METAR KSEA 201153Z 11008KT 10SM CLR 04/01 A2980 RMK AO2 SLP100 70001 T00440011 10072 20039 58015=
202204201053 METAR KSEA 201053Z 15003KT 10SM SCT250 04/01 A2984 RMK AO2 SLP112 T00390011=
202204200953 METAR KSEA 200953Z 12005KT 10SM BKN250 05/02 A2984 RMK AO2 SLP113 T00500017=
202204200853 METAR KSEA 200853Z 12006KT 10SM BKN250 06/02 A2985 RMK AO2 SLP116 T00560022 58007=
202204200753 METAR KSEA 200753Z 13004KT 10SM FEW038 06/02 A2987 RMK AO2 SLP124 T00560022 401220039=
202204200653 METAR KSEA 200653Z 18005KT 10SM SCT038 06/02 A2987 RMK AO2 SLP124 T00610022=
202204200553 METAR KSEA 200553Z 19003KT 10SM BKN055 07/02 A2987 RMK AO2 SLP123 T00720017 10122 20067 53006=
202204200453 METAR KSEA 200453Z 00000KT 10SM FEW050 SCT095 08/01 A2987 RMK AO2 SLP122 T00780006=
202204200353 METAR KSEA 200353Z 01004KT 10SM FEW050 SCT100 08/01 A2985 RMK AO2 SLP117 T00780006=
202204200253 METAR KSEA 200253Z 29006KT 10SM SCT048 BKN120 09/01 A2985 RMK AO2 SLP116 VIRGA OHD SHRA N T00940011 53005=
202204200153 METAR KSEA 200153Z 21006KT 10SM SCT035 SCT150 11/00 A2984 RMK AO2 SLP112 T01060000=
202204200053 METAR KSEA 200053Z 19007KT 10SM SCT035 12/01 A2984 RMK AO2 SLP111 T01170011=
202204192353 METAR KSEA 192353Z VRB05KT 10SM SCT035 SCT200 12/01 A2984 RMK AO2 SLP111 T01170011 10122 20083 58006=
202204192253 METAR KSEA 192253Z VRB06KT 10SM SCT034 SCT160 SCT250 12/01 A2984 RMK AO2 SLP113 T01170011=
202204192153 METAR KSEA 192153Z 19008KT 10SM SCT032 SCT160 BKN250 11/02 A2985 RMK AO2 SLP116 T01110022=
202204192053 METAR KSEA 192053Z 23006KT 10SM SCT025 BKN070 BKN250 10/03 A2985 RMK AO2 SLP117 VCSH T01000028 58003=
202204191953 METAR KSEA 191953Z 22007KT 190V250 10SM SCT022 BKN250 09/03 A2986 RMK AO2 SLP119 VCSH T00940033=
202204191853 METAR KSEA 191853Z 24007KT 10SM SCT020 BKN070 BKN250 09/03 A2987 RMK AO2 SLP122 T00890028=
202204191753 METAR KSEA 191753Z 20010KT 10SM SCT015 BKN070 BKN250 08/04 A2986 RMK AO2 SLP120 60001 T00830039 10083 20039 51007=
202204191719 SPECI KSEA 191719Z 19013KT 10SM SCT014 BKN070 BKN200 08/04 A2986 RMK AO2 T00780039=
202204191653 METAR KSEA 191653Z 20014KT 10SM BKN014 BKN075 07/04 A2986 RMK AO2 SLP118 T00720039=
202204191644 SPECI KSEA 191644Z 20014G21KT 10SM BKN014 BKN075 07/04 A2985 RMK AO2 T00720039=
202204191553 METAR KSEA 191553Z 20010KT 10SM FEW010 SCT060 BKN080 06/04 A2985 RMK AO2 SLP116 T00610039=
202204191453 METAR KSEA 191453Z 22009KT 10SM FEW010 SCT025 BKN060 05/04 A2984 RMK AO2 SLP113 60001 T00500039 53010=
202204191408 SPECI KSEA 191408Z 20013KT 10SM FEW011 SCT025 BKN080 BKN250 05/03 A2983 RMK AO2 T00500033=
202204191353 METAR KSEA 191353Z 20012KT 10SM SCT011 BKN025 BKN080 BKN250 05/03 A2983 RMK AO2 SLP109 T00500033=
202204191304 SPECI KSEA 191304Z 20013KT 10SM SCT010 BKN018 OVC024 04/03 A2982 RMK AO2 T00440028=
202204191253 METAR KSEA 191253Z 20010KT 10SM BKN010 OVC016 04/03 A2982 RMK AO2 RAE10 SLP105 P0001 T00440028=
202204191153 METAR KSEA 191153Z 22010KT 8SM -RA FEW007 BKN011 OVC026 04/02 A2981 RMK AO2 RAB1055 SLP103 P0009 60013 70034 T00390022 10056 20039 51009=
202204191127 SPECI KSEA 191127Z 23008KT 7SM -RA SCT007 BKN011 OVC022 04/03 A2981 RMK AO2 RAB1055 P0003 T00440033=
202204191053 METAR KSEA 191053Z 21009KT 10SM FEW023 BKN029 OVC038 04/03 A2980 RMK AO2 RAE50 SLP100 P0004 T00440028=
202204190953 METAR KSEA 190953Z 21012KT 10SM -RA FEW014 BKN022 OVC027 05/03 A2980 RMK AO2 RAB25 SLP099 P0000 T00500028=
202204190937 SPECI KSEA 190937Z 20013KT 10SM -RA FEW013 BKN028 OVC090 05/03 A2979 RMK AO2 RAB25 P0000 T00500028=
202204190925 SPECI KSEA 190925Z 20015G20KT 10SM -RA FEW013 BKN039 OVC090 05/03 A2979 RMK AO2 RAB25 P0000 T00500028=
202204190853 METAR KSEA 190853Z 19015G23KT 10SM BKN028 BKN110 05/03 A2979 RMK AO2 SLP094 60000 T00500028 53012=
202204190807 SPECI KSEA 190807Z 19014G21KT 10SM FEW017 SCT049 BKN110 06/03 A2977 RMK AO2 T00560028=
202204190753 METAR KSEA 190753Z 20011G20KT 10SM FEW017 BKN025 BKN110 06/03 A2977 RMK AO2 SLP090 T00560028 401110050=
202204190658 SPECI KSEA 190658Z 19011KT 10SM FEW016 SCT026 05/02 A2976 RMK AO2 T00500022=
202204190653 METAR KSEA 190653Z 19010G18KT 10SM FEW016 BKN026 05/03 A2976 RMK AO2 RAE16 SLP085 P0000 T00500028=
202204190553 METAR KSEA 190553Z 20011G20KT 10SM -RA BKN023 OVC034 06/03 A2975 RMK AO2 RAB50 SLP082 P0000 60010 T00560028 10089 20050 51024=
202204190453 METAR KSEA 190453Z 20010KT 10SM SCT014 BKN020 OVC026 06/03 A2974 RMK AO2 SLP080 T00560033=
202204190353 METAR KSEA 190353Z 19011KT 10SM FEW009 BKN016 06/03 A2972 RMK AO2 PK WND 23029/0301 SLP073 T00560033=
202204190253 METAR KSEA 190253Z 21016G32KT 10SM FEW008 OVC019 06/03 A2968 RMK AO2 PK WND 20032/0245 PRESRR SLP058 60010 T00560033 53042=
202204190153 METAR KSEA 190153Z 21013G26KT 10SM FEW009 BKN023 OVC050 06/04 A2961 RMK AO2 PK WND 23035/0103 RAE51 SLP035 P0003 T00610039=
202204190114 SPECI KSEA 190114Z 21017G29KT 4SM -RA BR FEW008 BKN024 OVC034 08/06 A2958 RMK AO2 PK WND 23035/0103 P0002 T00780061=
202204190053 METAR KSEA 190053Z 18008G18KT 7SM -RA BKN037 OVC046 09/08 A2956 RMK AO2 SLP016 P0007 T00890078=
202204182353 METAR KSEA 182353Z 25006KT 5SM -RA BR OVC047 08/07 A2955 RMK AO2 RAB21 SLP014 P0001 60011 T00830072 10100 20083 55024=
202204182253 METAR KSEA 182253Z 12006KT 10SM BKN050 OVC060 10/07 A2954 RMK AO2 RAE29 SLP010 P0001 T01000067=
202204182153 METAR KSEA 182153Z 09008KT 5SM -RA BR BKN046 OVC055 09/07 A2958 RMK AO2 SLP022 P0004 T00940072=
202204182053 METAR KSEA 182053Z 08005KT 5SM -RA BKN043 OVC050 09/06 A2963 RMK AO2 SLP039 P0004 60005 T00890061 58031=
202204181953 METAR KSEA 181953Z 26003KT 6SM -RA BKN047 OVC055 08/06 A2968 RMK AO2 RAB32 SLP057 P0001 T00830056=
202204181853 METAR KSEA 181853Z 29006KT 10SM OVC055 09/05 A2970 RMK AO2 SLP065 T00940050=
202204181753 METAR KSEA 181753Z 30005KT 10SM BKN055 OVC070 10/04 A2972 RMK AO2 SLP071 T01000039 10111 20067 58023=
202204181653 METAR KSEA 181653Z 28005KT 10SM OVC070 09/04 A2973 RMK AO2 SLP076 T00940044=
202204181553 METAR KSEA 181553Z 30009KT 10SM BKN070 OVC085 08/05 A2978 RMK AO2 SLP091 T00830050=
202204181453 METAR KSEA 181453Z 09007KT 10SM BKN070 OVC085 10/02 A2979 RMK AO2 SLP093 T01000022 58030=
202204181353 METAR KSEA 181353Z 17004KT 10SM OVC070 08/03 A2983 RMK AO2 SLP108 T00780033=
202204181253 METAR KSEA 181253Z 09006KT 10SM FEW045 OVC095 08/02 A2984 RMK AO2 SLP111 T00830022=
202204181153 METAR KSEA 181153Z 08004KT 10SM SCT060 BKN070 OVC085 08/03 A2988 RMK AO2 RAE51 SLP125 P0001 60002 70002 T00780028 10111 20072 58037=
202204181053 METAR KSEA 181053Z 09006KT 7SM -RA FEW025 BKN036 OVC045 08/02 A2993 RMK AO2 SLP143 P0001 T00780022=
202204180953 METAR KSEA 180953Z 14006KT 10SM -RA BKN041 OVC055 09/03 A2996 RMK AO2 SLP153 P0000 T00890028=
202204180853 METAR KSEA 180853Z 14007KT 10SM -RA SCT042 BKN050 OVC060 10/01 A2999 RMK AO2 RAB03E18B50 SLP162 P0000 60000 T01000011 58015=
202204180753 METAR KSEA 180753Z 11007G19KT 10SM BKN044 OVC055 10/02 A3000 RMK AO2 RAB42E53 SLP167 P0000 T01000022 401440028=
202204180653 METAR KSEA 180653Z 14008G19KT 10SM FEW045 BKN060 OVC080 11/M03 A3003 RMK AO2 SLP178 VIRGA T01061028=
202204180553 METAR KSEA 180553Z 14013KT 10SM FEW045 BKN090 BKN120 OVC200 11/M03 A3004 RMK AO2 SLP178 T01061033 10144 20106 58005=
202204180453 METAR KSEA 180453Z 13012KT 10SM BKN120 OVC200 11/M03 A3004 RMK AO2 SLP180 T01111033=
202204180353 METAR KSEA 180353Z 12011KT 10SM BKN200 12/M04 A3005 RMK AO2 SLP184 T01221044=
202204180253 METAR KSEA 180253Z 00000KT 10SM FEW120 BKN200 12/M02 A3005 RMK AO2 SLP183 T01221022 56023=
202204180153 METAR KSEA 180153Z 04007KT 10SM FEW120 BKN250 13/M02 A3006 RMK AO2 SLP187 T01331022=
202204180053 METAR KSEA 180053Z 33005KT 10SM FEW050 BKN250 14/M02 A3009 RMK AO2 SLP197 T01391017=
202204172353 METAR KSEA 172353Z 32006KT 10SM FEW050 BKN250 14/M01 A3012 RMK AO2 SLP206 T01391011 10139 20089 58026=
202204172253 METAR KSEA 172253Z 32006KT 10SM FEW050 BKN250 13/M01 A3015 RMK AO2 SLP216 T01331006=
202204172153 METAR KSEA 172153Z 29006KT 10SM FEW050 BKN250 12/00 A3017 RMK AO2 SLP225 T01220000=
202204172053 METAR KSEA 172053Z 28008KT 10SM FEW030 FEW050 12/00 A3020 RMK AO2 SLP233 T01170000 56025=
202204171953 METAR KSEA 171953Z 21004KT 10SM FEW030 FEW050 11/M01 A3022 RMK AO2 SLP241 T01111006=
202204171853 METAR KSEA 171853Z 09006KT 10SM FEW030 SCT042 09/M01 A3024 RMK AO2 SLP249 T00941011=
202204171753 METAR KSEA 171753Z 09006KT 10SM SCT035 SCT050 09/M01 A3027 RMK AO2 SLP259 T00941011 10094 20028 50000=
202204171653 METAR KSEA 171653Z VRB03KT 10SM SCT031 SCT050 08/00 A3028 RMK AO2 SLP262 T00780000=
202204171553 METAR KSEA 171553Z 15005KT 10SM FEW030 FEW220 07/M01 A3027 RMK AO2 SLP260 T00671006=
202204171453 METAR KSEA 171453Z 13004KT 10SM FEW030 FEW200 05/00 A3027 RMK AO2 SLP260 T00500000 51008=
202204171353 METAR KSEA 171353Z 20008KT 10SM FEW029 SCT050 SCT170 04/00 A3027 RMK AO2 SLP260 T00390000=
202204171253 METAR KSEA 171253Z 17008KT 10SM FEW030 SCT050 03/M01 A3025 RMK AO2 SLP254 T00281006=
202204171153 METAR KSEA 171153Z 18007KT 10SM SCT055 03/00 A3024 RMK AO2 SLP251 70001 T00330000 10044 20033 51013=
202204171053 METAR KSEA 171053Z 19011KT 10SM BKN055 04/01 A3023 RMK AO2 SLP246 T00390006=
202204170953 METAR KSEA 170953Z 19007KT 10SM FEW022 BKN030 04/01 A3022 RMK AO2 SLP242 T00390006=
202204170914 SPECI KSEA 170914Z 20008KT 10SM SCT024 OVC032 04/01 A3021 RMK AO2 T00390006=
202204170853 METAR KSEA 170853Z 19010KT 10SM BKN024 OVC030 04/01 A3021 RMK AO2 SLP238 T00390006 51020=
202204170835 SPECI KSEA 170835Z 20007KT 10SM BKN026 BKN065 04/01 A3020 RMK AO2 T00390006=
202204170753 METAR KSEA 170753Z 19008KT 10SM SCT030 SCT090 04/01 A3019 RMK AO2 SLP232 T00390006 400890028=
202204170653 METAR KSEA 170653Z 20009KT 10SM FEW030 SCT090 04/01 A3016 RMK AO2 SLP223 T00390006=
202204170553 METAR KSEA 170553Z 19012KT 10SM FEW025 FEW055 04/01 A3015 RMK AO2 SLP217 60000 T00440011 10067 20044 51027=
202204170453 METAR KSEA 170453Z 19011KT 10SM FEW025 SCT060 05/01 A3012 RMK AO2 SLP208 T00500006=
202204170353 METAR KSEA 170353Z 18008KT 10SM FEW039 SCT060 05/01 A3009 RMK AO2 SLP199 T00500006=
202204170253 METAR KSEA 170253Z 13008KT 10SM BKN045 BKN060 05/01 A3006 RMK AO2 SLP190 60000 T00500011 53024=
202204170153 METAR KSEA 170153Z 15012KT 10SM FEW045 SCT090 SCT140 BKN220 06/01 A3004 RMK AO2 SLP182 T00560011=
202204170053 METAR KSEA 170053Z 19008KT 10SM SCT050 BKN060 OVC085 06/01 A3001 RMK AO2 RAE26 SLP172 P0000 T00610006=
202204162353 METAR KSEA 162353Z 22008KT 10SM -RA FEW019 BKN055 OVC080 06/01 A2999 RMK AO2 RAB30 SLP166 P0000 60001 T00560011 10089 20044 53022=
202204162253 METAR KSEA 162253Z 24007KT 10SM FEW022 SCT033 SCT046 BKN130 08/02 A2997 RMK AO2 SLP156 T00780017=
202204162153 METAR KSEA 162153Z VRB05KT 10SM FEW035 SCT046 BKN130 07/03 A2995 RMK AO2 RAB06E37 SLP151 P0001 T00670028=
202204162053 METAR KSEA 162053Z 23010KT 10SM FEW019 BKN049 OVC055 04/01 A2993 RMK AO2 SLP143 T00440011 53020=
202204161953 METAR KSEA 161953Z 24007KT 10SM FEW030 BKN046 OVC060 08/M02 A2989 RMK AO2 SLP129 T00781017=
202204161853 METAR KSEA 161853Z VRB05KT 10SM FEW030 BKN046 BKN075 08/M02 A2988 RMK AO2 SLP125 T00831017=
202204161753 METAR KSEA 161753Z 04006KT 10SM FEW020 BKN075 09/M01 A2987 RMK AO2 SLP122 T00891006 10089 20028 53004=
202204161653 METAR KSEA 161653Z 01010KT 10SM FEW015 OVC110 07/01 A2985 RMK AO2 SLP117 T00720011=
202204161553 METAR KSEA 161553Z 02014KT 10SM FEW015 SCT100 BKN220 05/00 A2985 RMK AO2 SLP117 T00500000=
202204161453 METAR KSEA 161453Z 02012KT 10SM SCT100 BKN220 04/01 A2985 RMK AO2 SLP118 T00390006 55009=
202204161353 METAR KSEA 161353Z 02011KT 10SM BKN100 03/00 A2985 RMK AO2 SLP117 T00330000=
202204161253 METAR KSEA 161253Z 01009KT 10SM FEW095 OVC120 03/01 A2986 RMK AO2 SLP121 T00280006=
202204161153 METAR KSEA 161153Z 01009KT 10SM SCT095 OVC120 03/00 A2988 RMK AO2 SLP127 T00280000 10061 20028 56024=
202204161053 METAR KSEA 161053Z 02009KT 10SM SCT120 03/01 A2990 RMK AO2 SLP134 T00280006=
202204160953 METAR KSEA 160953Z 03009KT 10SM SCT110 03/00 A2993 RMK AO2 SLP142 T00330000=
202204160853 METAR KSEA 160853Z 36009KT 10SM CLR 03/00 A2996 RMK AO2 SLP152 T00330000 56019=
202204160753 METAR KSEA 160753Z 02009KT 10SM FEW250 04/00 A2997 RMK AO2 SLP158 T00390000 401000022=
202204160653 METAR KSEA 160653Z 03009KT 10SM FEW250 05/00 A2999 RMK AO2 SLP164 T00500000=
202204160553 METAR KSEA 160553Z 03008KT 10SM FEW045 06/M01 A3001 RMK AO2 SLP171 T00611011 10100 20050 58002=
202204160453 METAR KSEA 160453Z 33003KT 10SM SCT048 07/M02 A3003 RMK AO2 SLP176 T00671022=
202204160353 METAR KSEA 160353Z 31003KT 10SM FEW045 SCT090 07/00 A3003 RMK AO2 SLP177 T00670000=
202204160253 METAR KSEA 160253Z 21007KT 10SM FEW045 SCT075 SCT200 07/M02 A3002 RMK AO2 SLP173 T00721022 56010=
202204160153 METAR KSEA 160153Z 25004KT 10SM SCT045 SCT250 09/M04 A3002 RMK AO2 SLP173 CB DSNT S T00941039=
202204160053 METAR KSEA 160053Z 24003KT 10SM SCT040 SCT250 10/M03 A3003 RMK AO2 SLP179 T01001033=
202204152353 METAR KSEA 152353Z 24008KT 210V280 10SM SCT040 SCT250 10/M02 A3005 RMK AO2 SLP184 T01001022 10100 20061 58017=
202204152253 METAR KSEA 152253Z 18005KT 10SM SCT040 SCT250 09/M02 A3007 RMK AO2 SLP191 T00941022=
202204152153 METAR KSEA 152153Z 24008KT 10SM SCT035 SCT070 09/M01 A3009 RMK AO2 SLP198 T00891011=
202204152053 METAR KSEA 152053Z 19006KT 10SM FEW032 SCT070 09/00 A3010 RMK AO2 SLP201 T00890000 58004=
202204151953 METAR KSEA 151953Z 20006KT 10SM FEW027 BKN070 08/00 A3011 RMK AO2 SLP205 T00780000=
202204151853 METAR KSEA 151853Z 20006KT 10SM FEW022 SCT050 07/01 A3012 RMK AO2 SLP206 T00720006=
202204151753 METAR KSEA 151753Z 19007KT 10SM SCT022 BKN050 06/01 A3011 RMK AO2 SLP206 T00610011 10067 20022 51009=
202204151653 METAR KSEA 151653Z 20010KT 10SM FEW015 FEW034 BKN050 06/02 A3010 RMK AO2 SLP203 T00560022=
202204151619 SPECI KSEA 151619Z 21005KT 10SM SCT010 BKN033 04/02 A3010 RMK AO2 T00390017=
202204151553 METAR KSEA 151553Z 18005KT 10SM BKN011 OVC033 03/01 A3010 RMK AO2 SLP201 T00330011=
202204151544 SPECI KSEA 151544Z 19004KT 10SM SCT009 BKN013 OVC033 03/01 A3010 RMK AO2 T00330011=
202204151453 METAR KSEA 151453Z 19004KT 10SM FEW008 BKN022 OVC030 03/02 A3008 RMK AO2 SLP196 T00330017 53014=
202204151430 SPECI KSEA 151430Z 18004KT 10SM FEW009 SCT018 OVC032 03/01 A3007 RMK AO2 T00280011=
202204151353 METAR KSEA 151353Z 18007KT 10SM BKN010 BKN040 03/01 A3006 RMK AO2 SLP189 T00280011=
202204151253 METAR KSEA 151253Z 17005KT 10SM OVC009 03/01 A3005 RMK AO2 SLP184 T00280011=
202204151153 METAR KSEA 151153Z 15005KT 10SM OVC007 03/01 A3004 RMK AO2 SLP181 60001 70011 T00280011 10039 20022 53009=
202204151105 SPECI KSEA 151105Z 17005KT 10SM BKN007 02/01 A3004 RMK AO2 T00220011=
202204151053 METAR KSEA 151053Z 17005KT 10SM FEW007 SCT036 02/01 A3003 RMK AO2 SLP178 T00220011=
202204151034 SPECI KSEA 151034Z 18006KT 10SM FEW008 SCT014 BKN036 02/01 A3003 RMK AO2 T00220011=
202204151020 SPECI KSEA 151020Z 17005KT 10SM SCT008 BKN012 03/02 A3003 RMK AO2 T00280017=
202204150953 METAR KSEA 150953Z 18005KT 10SM BKN012 OVC065 03/02 A3002 RMK AO2 SLP176 T00280017=
202204150923 SPECI KSEA 150923Z 18005KT 10SM BKN012 03/01 A3002 RMK AO2 T00280011=
202204150853 METAR KSEA 150853Z 17005KT 10SM SCT038 BKN070 03/01 A3001 RMK AO2 SLP173 60001 T00280011 53009=
202204150835 SPECI KSEA 150835Z 17004KT 10SM SCT014 BKN070 03/01 A3001 RMK AO2 T00280011=
202204150827 SPECI KSEA 150827Z 18005KT 10SM BKN014 BKN070 03/01 A3001 RMK AO2 T00280011=
202204150807 SPECI KSEA 150807Z 18006KT 10SM BKN015 OVC020 03/01 A3001 RMK AO2 T00330011=
202204150800 SPECI KSEA 150800Z 18004KT 10SM BKN013 OVC020 03/02 A3001 RMK AO2 T00330017=
202204150753 METAR KSEA 150753Z 18006KT 10SM FEW007 BKN015 OVC020 03/01 A3001 RMK AO2 SLP170 T00330011 400890017=
202204150720 SPECI KSEA 150720Z 17005KT 10SM FEW009 OVC015 03/02 A3000 RMK AO2 T00330022=
202204150701 SPECI KSEA 150701Z 17004KT 10SM SCT010 OVC015 04/02 A2999 RMK AO2 T00390022=
202204150653 METAR KSEA 150653Z 17004KT 10SM OVC012 04/02 A2999 RMK AO2 RAE13 SLP165 P0001 T00390017=
202204150646 SPECI KSEA 150646Z 17005KT 10SM BKN010 OVC031 04/02 A2999 RMK AO2 RAE13 P0001 T00390017=
202204150632 SPECI KSEA 150632Z 17005KT 10SM SCT008 SCT025 OVC033 04/02 A2999 RMK AO2 RAE13 P0001 T00390022=
202204150625 SPECI KSEA 150625Z 14004KT 10SM SCT021 OVC031 04/02 A2999 RMK AO2 RAE13 P0001 T00390022=
202204150553 METAR KSEA 150553Z 20004KT 6SM -RA OVC019 04/01 A2999 RMK AO2 SLP163 P0007 60007 T00390011 10083 20033 51016=
202204150528 SPECI KSEA 150528Z 23004KT 4SM -RA FEW012 BKN019 OVC030 04/01 A2998 RMK AO2 P0002 T00390011=
202204150520 SPECI KSEA 150520Z 22004KT 2 1/2SM RA BKN015 OVC032 04/01 A2998 RMK AO2 P0001 T00390011=
202204150453 METAR KSEA 150453Z 22005KT 9SM -RA BKN013 OVC020 04/02 A2998 RMK AO2 RAB0356 SLP161 P0000 T00390017=
202204150353 METAR KSEA 150353Z 09007KT 10SM BKN016 BKN025 OVC031 04/01 A2996 RMK AO2 RAE22 SLP156 P0000 T00440006=
202204150319 SPECI KSEA 150319Z 22007KT 10SM -RA SCT018 BKN027 OVC040 05/01 A2995 RMK AO2 P0000 T00500006=
202204150253 METAR KSEA 150253Z 20009KT 10SM -RA SCT032CB BKN040 BKN150 05/01 A2994 RMK AO2 RAB51 SLP147 CB E MOV N P0000 60000 T00500011 53009=
202204150153 METAR KSEA 150153Z 25007KT 10SM SCT040CB SCT160 BKN250 07/00 A2992 RMK AO2 SLP142 CB E MOV N VCSH T00670000=
202204150053 METAR KSEA 150053Z 01004KT 10SM SCT040 SCT160 BKN250 08/M01 A2992 RMK AO2 SLP139 T00781006=
202204142353 METAR KSEA 142353Z 03008KT 10SM SCT039 SCT180 BKN250 08/M01 A2991 RMK AO2 SLP138 T00781006 10089 20028 56005=
202204142253 METAR KSEA 142253Z 28007KT 10SM SCT033 BKN250 08/00 A2991 RMK AO2 SLP139 VCSH T00830000=
202204142153 METAR KSEA 142153Z 25007KT 10SM SCT024 BKN250 07/00 A2992 RMK AO2 SLP141 T00720000=
202204142053 METAR KSEA 142053Z 25007KT 10SM SCT020 BKN030 BKN250 06/01 A2993 RMK AO2 SLP143 T00610006 58003=
202204142036 SPECI KSEA 142036Z VRB05KT 10SM SCT020 BKN030 BKN250 06/02 A2993 RMK AO2 T00610017=
202204141953 METAR KSEA 141953Z 27005KT 10SM SCT008 BKN015 BKN025 05/02 A2993 RMK AO2 SLP145 T00500017=
202204141853 METAR KSEA 141853Z 25006KT 10SM SCT004 BKN015 OVC025 04/02 A2993 RMK AO2 SLP146 T00390017=
202204141842 SPECI KSEA 141842Z 29006KT 10SM SCT004 BKN015 OVC025 03/02 A2994 RMK AO2 T00330017=
202204141753 METAR KSEA 141753Z 26006KT 5SM BR BKN005 BKN009 OVC013 03/02 A2994 RMK AO2 RAE50 SLP146 P0001 60003 T00330017 10033 20017 51002=
202204141745 SPECI KSEA 141745Z 26006KT 5SM -RA BR FEW005 SCT009 OVC012 03/02 A2994 RMK AO2 P0001 T00330022=
202204141712 SPECI KSEA 141712Z 22004KT 2 1/2SM -RA BR SCT004 BKN012 OVC018 02/02 A2994 RMK AO2 SFC VIS 4 P0000 T00220017=
202204141700 SPECI KSEA 141700Z 20004KT 4SM -RA BR SCT006 BKN012 OVC018 03/02 A2993 RMK AO2 P0000 T00280017=
202204141653 METAR KSEA 141653Z 18004KT 4SM -RA BR SCT004 BKN008 OVC018 02/01 A2993 RMK AO2 SLP146 P0001 T00220011=
202204141553 METAR KSEA 141553Z 16005KT 6SM -RA BR BKN009 OVC035 02/01 A2993 RMK AO2 SLP144 P0000 T00220011=
202204141546 SPECI KSEA 141546Z 16006KT 6SM -RA BR BKN009 OVC035 02/01 A2993 RMK AO2 P0000 T00220011=
202204141500 SPECI KSEA 141500Z 17006KT 4SM -RA BR FEW003 BKN010 OVC039 02/01 A2992 RMK AO2 P0000 T00170006=
202204141453 METAR KSEA 141453Z 17004KT 4SM -RA BR FEW003 BKN008 OVC035 02/01 A2992 RMK AO2 SLP141 P0001 60001 T00220011 51005=
202204141353 METAR KSEA 141353Z 16004KT 3SM -RA BR BKN005 BKN013 OVC060 02/01 A2991 RMK AO2 SFC VIS 5 RAE1254B38 SLP139 P0000 T00220011=
202204141347 SPECI KSEA 141347Z 17004KT 3SM -RA BR BKN005 BKN013 OVC060 02/01 A2991 RMK AO2 SFC VIS 5 RAE1254B38 P0000=
202204141253 METAR KSEA 141253Z 17004KT 6SM -RA BR FEW005 BKN050 OVC070 02/01 A2991 RMK AO2 SLP136 P0000 T00170006=
202204141153 METAR KSEA 141153Z 16004KT 7SM -RA BKN050 OVC070 02/01 A2990 RMK AO2 SLP136 P0001 60002 70002 T00170011 10033 20017 56008=
202204141121 SPECI KSEA 141121Z 20004KT 7SM -RA OVC032 02/01 A2991 RMK AO2 P0001 T00170011=
202204141053 METAR KSEA 141053Z 11005KT 6SM -RA BR OVC028 02/01 A2991 RMK AO2 SLP138 P0001 T00170006=
202204140953 METAR KSEA 140953Z 15004KT 10SM -RA OVC038 02/02 A2992 RMK AO2 RAE11B50 SLP141 P0000 T00220017=
202204140853 METAR KSEA 140853Z 31005KT 10SM -RA OVC042 02/01 A2993 RMK AO2 RAB51 SLP144 P0000 60000 T00220006 56006=
202204140815 SPECI KSEA 140815Z 00000KT 10SM FEW007 BKN065 OVC100 03/01 A2994 RMK AO2 T00280006=
202204140753 METAR KSEA 140753Z 17003KT 10SM BKN007 BKN075 02/01 A2994 RMK AO2 SLP146 T00220006 400670000=
202204140733 SPECI KSEA 140733Z 11003KT 10SM BKN007 OVC075 02/01 A2994 RMK AO2 T00220006=
202204140653 METAR KSEA 140653Z 00000KT 10SM SCT080 02/00 A2994 RMK AO2 SLP147 T00170000=
202204140553 METAR KSEA 140553Z 00000KT 10SM SCT080 02/00 A2995 RMK AO2 SLP151 T00220000 10067 20022 58009=
202204140453 METAR KSEA 140453Z 19004KT 10SM SCT080 03/01 A2996 RMK AO2 SLP156 T00280006=
202204140353 METAR KSEA 140353Z 00000KT 10SM SCT100 SCT200 03/01 A2997 RMK AO2 SLP158 T00330006=
202204140253 METAR KSEA 140253Z 24005KT 10SM FEW020 SCT080 BKN100 BKN200 04/01 A2998 RMK AO2 SLP160 T00390006 56005=
202204140153 METAR KSEA 140153Z 26005KT 10SM FEW015 FEW046 BKN090 BKN200 05/00 A2998 RMK AO2 SLP161 T00500000=
202204140053 METAR KSEA 140053Z 29006KT 10SM FEW048 BKN075 BKN200 06/01 A2998 RMK AO2 SLP160 T00560006=
202204132353 METAR KSEA 132353Z 26008KT 10SM FEW015 SCT048 BKN060 06/00 A2999 RMK AO2 SLP165 T00610000 10067 20039 55006=
202204132253 METAR KSEA 132253Z 30008KT 10SM FEW015 OVC060 06/M01 A2999 RMK AO2 SLP164 T00561006=
202204132153 METAR KSEA 132153Z 33009KT 10SM FEW012 BKN050 OVC070 06/M01 A3000 RMK AO2 SLP167 T00611006=
202204132053 METAR KSEA 132053Z 28006KT 10SM FEW010 OVC039 06/M01 A3001 RMK AO2 SLP172 T00561006 50004=
202204131953 METAR KSEA 131953Z 26006KT 10SM FEW010 OVC055 05/01 A3002 RMK AO2 SLP174 T00500006=
202204131853 METAR KSEA 131853Z 21005KT 10SM FEW010 OVC060 05/M01 A3001 RMK AO2 SLP173 T00501006=
202204131753 METAR KSEA 131753Z 13007KT 10SM FEW010 OVC075 04/M01 A3000 RMK AO2 SLP168 T00441011 10044 20011 51016=
202204131653 METAR KSEA 131653Z 00000KT 10SM FEW010 BKN065 OVC085 04/M01 A2998 RMK AO2 SLP163 T00441011=
202204131553 METAR KSEA 131553Z 35004KT 10SM FEW010 BKN065 OVC085 03/00 A2997 RMK AO2 SLP158 T00330000=
202204131453 METAR KSEA 131453Z 03006KT 10SM FEW010 OVC075 03/00 A2995 RMK AO2 SLP152 T00280000 53005=
202204131353 METAR KSEA 131353Z 01007KT 10SM FEW010 BKN110 BKN250 02/00 A2994 RMK AO2 SLP148 T00170000=
202204131253 METAR KSEA 131253Z 02011KT 10SM FEW060 BKN110 02/M01 A2993 RMK AO2 SLP146 T00221006=
202204131153 METAR KSEA 131153Z 01008KT 10SM BKN140 01/M01 A2994 RMK AO2 SLP147 70001 T00111006 10022 20000 56009=
202204131053 METAR KSEA 131053Z 36006KT 10SM FEW006 BKN120 01/00 A2995 RMK AO2 SLP150 T00110000=
202204130953 METAR KSEA 130953Z 01006KT 7SM FEW006 BKN120 01/00 A2995 RMK AO2 SLP151 T00110000=
202204130853 METAR KSEA 130853Z 04006KT 10SM SCT180 02/00 A2996 RMK AO2 SLP156 T00170000 58007=
202204130753 METAR KSEA 130753Z 35004KT 9SM CLR 01/M01 A2997 RMK AO2 SLP158 T00111006 400830006=
202204130653 METAR KSEA 130653Z 00000KT 10SM FEW020 02/00 A2998 RMK AO2 SLP161 T00170000=
202204130553 METAR KSEA 130553Z 00000KT 10SM FEW009 SCT065 02/00 A2998 RMK AO2 SLP163 T00220000 10061 20022 50003=
202204130539 SPECI KSEA 130539Z 00000KT 10SM FEW009 BKN065 02/00 A2999 RMK AO2 T00220000=
202204130453 METAR KSEA 130453Z 00000KT 10SM SCT049 02/00 A2999 RMK AO2 SLP164 T00220000=
202204130353 METAR KSEA 130353Z 25005KT 10SM SCT047 BKN200 02/00 A2998 RMK AO2 SLP163 T00220000=
202204130253 METAR KSEA 130253Z 00000KT 10SM FEW025 SCT050 BKN100 BKN200 03/00 A2997 RMK AO2 SLP159 SHRA W-N T00280000 53001=
202204130153 METAR KSEA 130153Z 30005KT 10SM FEW025 BKN100 BKN200 04/01 A2997 RMK AO2 SLP158 SHRA W T00440006=
202204130053 METAR KSEA 130053Z 20008KT 10SM FEW024 SCT065 BKN200 06/00 A2996 RMK AO2 SLP156 T00560000=
202204122353 METAR KSEA 122353Z 20010KT 10SM FEW015 SCT045 BKN065 BKN200 04/01 A2997 RMK AO2 RAE18 SLP158 P0000 60001 T00440011 10083 20022 50007=
202204122253 METAR KSEA 122253Z 20008KT 10SM -RA FEW012 BKN037 OVC048 03/01 A2998 RMK AO2 PK WND 22029/2206 SNB2158E37 SLP160 P0001 T00280011=
202204122237 SPECI KSEA 122237Z 20011G21KT 10SM -RA FEW010 BKN026 OVC050 03/01 A2998 RMK AO2 PK WND 22029/2206 SNB2158E37 P0001 T00280011=
202204122159 SPECI KSEA 122159Z 22016G23KT 7SM -RASN BKN023 BKN039 OVC060 03/00 A2998 RMK AO2 SNB58 P0000 T00330000=
202204122153 METAR KSEA 122153Z 23012G22KT 10SM -RA FEW022 BKN035 OVC065 03/M01 A2998 RMK AO2 PK WND 26029/2119 RAB51 SLP162 P0000 T00331011=
202204122053 METAR KSEA 122053Z 20009KT 10SM BKN036 BKN043 BKN120 BKN210 07/M01 A2995 RMK AO2 SLP151 VCSH T00671011 53006=
202204121953 METAR KSEA 121953Z 24011G21KT 10SM FEW030 BKN047 BKN120 BKN210 07/M01 A2994 RMK AO2 SLP147 T00721006=
202204121853 METAR KSEA 121853Z 19015KT 10SM SCT030 BKN150 BKN210 07/M02 A2993 RMK AO2 SLP145 T00721017=
202204121753 METAR KSEA 121753Z 20014G19KT 10SM SCT025 BKN070 BKN100 BKN250 06/00 A2993 RMK AO2 SLP145 T00560000 10056 20028 53016=
202204121653 METAR KSEA 121653Z 18015G24KT 10SM SCT016 BKN050 BKN075 BKN250 04/00 A2991 RMK AO2 SLP137 T00440000=
202204121645 SPECI KSEA 121645Z 18016G23KT 10SM SCT016 BKN050 BKN075 BKN250 05/01 A2991 RMK AO2 T00500006=
202204121553 METAR KSEA 121553Z 19014G21KT 10SM BKN016 BKN025 BKN050 04/00 A2990 RMK AO2 SLP134 T00390000=
202204121533 SPECI KSEA 121533Z 19017G23KT 10SM BKN016 BKN025 OVC050 04/00 A2989 RMK AO2 T00390000=
202204121453 METAR KSEA 121453Z 19012G20KT 10SM BKN014 OVC025 03/00 A2988 RMK AO2 SLP129 T00330000 53015=
202204121444 SPECI KSEA 121444Z 19012KT 10SM BKN014 OVC025 03/00 A2988 RMK AO2 T00330000=
202204121353 METAR KSEA 121353Z 20016G23KT 10SM BKN015 BKN043 OVC060 03/00 A2987 RMK AO2 SLP121 T00330000=
202204121323 SPECI KSEA 121323Z 19014G20KT 10SM BKN015 BKN055 03/00 A2986 RMK AO2 T00280000=
202204121253 METAR KSEA 121253Z 20011KT 10SM SCT017 BKN038 03/00 A2985 RMK AO2 SLP116 T00330000=
202204121153 METAR KSEA 121153Z 20014KT 10SM FEW027 BKN038 04/M01 A2984 RMK AO2 SLP113 70002 T00391006 10044 20033 51009=
202204121053 METAR KSEA 121053Z 19014G23KT 10SM SCT027 BKN034 04/M01 A2983 RMK AO2 SLP110 T00441006=
202204120953 METAR KSEA 120953Z 19008KT 10SM FEW024 BKN090 04/00 A2982 RMK AO2 SLP106 T00390000=
202204120853 METAR KSEA 120853Z 17010KT 10SM FEW021 BKN090 03/00 A2981 RMK AO2 SLP103 T00330000 51015=
202204120753 METAR KSEA 120753Z 16009KT 10SM FEW020 BKN090 04/01 A2980 RMK AO2 SLP100 T00440006 401170028=
202204120653 METAR KSEA 120653Z 16009KT 10SM FEW028 BKN080 04/01 A2978 RMK AO2 SLP093 T00440006=
202204120553 METAR KSEA 120553Z 17008KT 10SM FEW028 SCT080 BKN170 04/01 A2977 RMK AO2 SLP088 T00440006 10117 20044 51015=
202204120453 METAR KSEA 120453Z 18010KT 10SM FEW080 BKN160 06/01 A2976 RMK AO2 SLP087 T00560006=
202204120353 METAR KSEA 120353Z 19010KT 10SM FEW030 BKN080 BKN180 06/01 A2974 RMK AO2 SLP080 T00610006=
202204120253 METAR KSEA 120253Z 19008KT 10SM FEW030 SCT070 BKN160 07/01 A2972 RMK AO2 WSHFT 0143 SLP073 VCSH T00670006 52021=
202204120203 SPECI KSEA 120203Z 15012KT 10SM FEW030 SCT070 BKN200 08/00 A2971 RMK AO2 WSHFT 0143 CB DSNT S VCSH T00780000=
202204120153 METAR KSEA 120153Z 15013KT 10SM FEW030 SCT070 BKN200 08/00 A2971 RMK AO2 SLP068 CB DSNT S VCSH T00830000=
202204120053 METAR KSEA 120053Z 33009KT 10SM SCT030 SCT100 BKN200 10/M04 A2968 RMK AO2 LTG DSNT S SLP057 T01001044=
202204112353 METAR KSEA 112353Z 33008G18KT 10SM FEW030 FEW060 SCT120 BKN250 11/M04 A2966 RMK AO2 SLP052 T01061044 10106 20078 53013=
202204112253 METAR KSEA 112253Z 33013G22KT 10SM FEW030 SCT120 BKN220 10/M03 A2965 RMK AO2 SLP047 T01001033=
202204112153 METAR KSEA 112153Z 34014G24KT 10SM FEW025 FEW055 SCT100 BKN220 10/M02 A2963 RMK AO2 PK WND 35026/2117 SLP043 T01001022=
202204112053 METAR KSEA 112053Z 34014G25KT 10SM FEW020 SCT055 BKN190 10/M02 A2962 RMK AO2 SLP039 VCSH T01001022 51019=
202204111953 METAR KSEA 111953Z 34017G26KT 10SM FEW020 SCT070 BKN120 BKN200 10/M01 A2960 RMK AO2 PK WND 35027/1922 SLP032 T01001006=
202204111853 METAR KSEA 111853Z 35019KT 10SM FEW020 SCT050 BKN070 BKN130 09/M01 A2959 RMK AO2 PK WND 36026/1849 SLP026 T00941006=
202204111753 METAR KSEA 111753Z 35018G27KT 10SM FEW020 BKN050 OVC065 08/M01 A2956 RMK AO2 PK WND 36031/1719 SLP019 60002 T00781006 10078 20033 53022=
202204111653 METAR KSEA 111653Z 35018G29KT 10SM FEW015 BKN050 OVC070 06/M01 A2954 RMK AO2 PK WND 02029/1652 SLP011 T00611006=
202204111553 METAR KSEA 111553Z 36020G26KT 10SM FEW015 OVC050 05/00 A2951 RMK AO2 PK WND 35027/1458 SLP002 T00500000=
202204111453 METAR KSEA 111453Z 35018G27KT 10SM SCT015 OVC050 04/01 A2950 RMK AO2 PK WND 35028/1420 SLP998 60002 T00440006 53004=
202204111440 SPECI KSEA 111440Z 34017G26KT 10SM SCT015 OVC050 04/01 A2949 RMK AO2 PK WND 35028/1420 T00440006=
202204111353 METAR KSEA 111353Z 35015G29KT 10SM SCT012 BKN024 OVC050 04/02 A2948 RMK AO2 PK WND 36029/1345 RAE44 SLP991 P0000 T00390017=
202204111343 SPECI KSEA 111343Z 36014G25KT 10SM -RA SCT012 SCT024 OVC050 04/02 A2948 RMK AO2 PK WND 36026/1259 P0000 T00390017=
202204111253 METAR KSEA 111253Z 35014KT 10SM -RA BKN011 BKN020 OVC032 03/02 A2947 RMK AO2 SLP987 P0002 T00330017=
202204111153 METAR KSEA 111153Z 36014KT 10SM -RA OVC014 03/01 A2949 RMK AO2 PK WND 01026/1102 RAB51 SLP992 CIG 011V017 P0000 60000 70001 T00330011 10033 20022 56028=
202204111100 SPECI KSEA 111100Z 36015G23KT 10SM BKN014 OVC055 03/00 A2950 RMK AO2 T00330000=
202204111053 METAR KSEA 111053Z 36017KT 10SM SCT014 OVC055 03/00 A2950 RMK AO2 SLP998 T00330000=
202204110953 METAR KSEA 110953Z 01017KT 10SM FEW025 BKN055 OVC065 03/M01 A2953 RMK AO2 SLP008 T00281006=
202204110853 METAR KSEA 110853Z 02013KT 10SM BKN050 OVC065 03/00 A2957 RMK AO2 SLP022 T00330000 56055=
202204110753 METAR KSEA 110753Z 36010KT 10SM OVC075 03/00 A2962 RMK AO2 SLP040 T00280000 400890022=
202204110653 METAR KSEA 110653Z 35005KT 10SM SCT065 OVC085 02/00 A2967 RMK AO2 SLP058 T00220000=
202204110553 METAR KSEA 110553Z 07006KT 10SM OVC070 03/00 A2973 RMK AO2 SLP077 T00280000 10078 20028 58040=
202204110453 METAR KSEA 110453Z 13006KT 10SM FEW035 BKN060 OVC070 03/M01 A2979 RMK AO2 SLP096 T00281006=
202204110353 METAR KSEA 110353Z 13011KT 10SM FEW037 BKN075 BKN140 03/00 A2982 RMK AO2 SLP108 T00330000=
202204110253 METAR KSEA 110253Z 15010KT 10SM FEW037 SCT065 BKN140 BKN190 04/00 A2985 RMK AO2 SLP117 T00390000 58016=
202204110153 METAR KSEA 110153Z 14012KT 10SM SCT029 BKN065 BKN180 05/01 A2988 RMK AO2 SLP127 T00500006=
202204110053 METAR KSEA 110053Z 23014G19KT 10SM FEW031 SCT047 BKN055 06/00 A2990 RMK AO2 PK WND 20028/0034 WSHFT 0030 SLP134 T00560000=
202204110050 SPECI KSEA 110050Z 24012KT 10SM FEW031 SCT047 BKN055 06/00 A2990 RMK AO2 PK WND 20028/0034 WSHFT 0030=
202204102353 METAR KSEA 102353Z 22011KT 10SM FEW039 SCT070 BKN180 07/M02 A2990 RMK AO2 SLP134 60000 T00721022 10089 20050 56020=
202204102253 METAR KSEA 102253Z 21015KT 10SM SCT038 BKN110 BKN180 08/M01 A2992 RMK AO2 SLP141 T00781006=
202204102153 METAR KSEA 102153Z 20014KT 10SM SCT040 SCT048 BKN110 08/01 A2994 RMK AO2 RAE20 SLP147 P0000 T00830006=
202204102053 METAR KSEA 102053Z 21006KT 10SM -RA FEW032 BKN044 BKN055 07/02 A2996 RMK AO2 RAB50 SLP155 P0000 60000 T00670017 58015=
202204101953 METAR KSEA 101953Z 27009KT 10SM SCT022 BKN070 BKN110 07/02 A2998 RMK AO2 SLP161 T00720017=
202204101853 METAR KSEA 101853Z 25007KT 10SM SCT018 BKN022 OVC100 05/01 A3000 RMK AO2 SLP168 T00500011=
202204101753 METAR KSEA 101753Z 22011KT 10SM BKN017 BKN030 OVC080 05/02 A3001 RMK AO2 SLP170 60001 T00500017 10056 20028 50000=
202204101653 METAR KSEA 101653Z 27006KT 10SM BKN013 OVC080 04/02 A3001 RMK AO2 RAB29E30 SLP171 P0000 T00440017=
202204101637 SPECI KSEA 101637Z 25005KT 10SM BKN013 OVC019 04/02 A3001 RMK AO2 RAB29E30 P0000 T00390017=
202204101553 METAR KSEA 101553Z 29005KT 10SM SCT009 OVC019 04/02 A3001 RMK AO2 SLP170 T00390017=
202204101453 METAR KSEA 101453Z 24006KT 10SM BKN008 BKN012 OVC025 03/02 A3001 RMK AO2 SLP170 60001 T00330017 51008=
202204101353 METAR KSEA 101353Z 22006KT 10SM BKN006 OVC023 03/02 A3001 RMK AO2 SLP169 T00330017=
202204101253 METAR KSEA 101253Z 25011G17KT 10SM BKN010 OVC075 03/01 A2999 RMK AO2 RAE32 SLP165 P0001 T00280011=
202204101153 METAR KSEA 101153Z 22010KT 9SM -RA BKN008 OVC014 04/02 A2998 RMK AO2 SLP161 P0001 60014 70027 T00390022 10039 20022 56011=
202204101128 SPECI KSEA 101128Z 22012KT 5SM -RA BR BKN008 OVC012 04/02 A2998 RMK AO2 P0000 T00390022=
202204101118 SPECI KSEA 101118Z 21013G20KT 5SM -RA BR OVC010 04/02 A2998 RMK AO2 P0000 T00390022=
202204101053 METAR KSEA 101053Z 21013G19KT 10SM -RA OVC009 04/02 A2998 RMK AO2 RAE25B51 SLP161 P0001 T00390022=
202204100953 METAR KSEA 100953Z 18016G24KT 5SM -RA BR BKN012 OVC017 03/02 A2999 RMK AO2 SLP162 P0002 T00330017=
202204100853 METAR KSEA 100853Z 18012KT 10SM -RA OVC012 03/02 A3002 RMK AO2 RAB26 SLP173 P0000 60010 T00330017 56019=
202204100802 SPECI KSEA 100802Z 18012G21KT 10SM SCT008 BKN012 OVC025 03/02 A3003 RMK AO2 T00330017=
202204100753 METAR KSEA 100753Z 18014KT 10SM BKN008 OVC012 03/02 A3003 RMK AO2 RAE11 SLP178 P0002 T00330017 400940022=
202204100738 SPECI KSEA 100738Z 18015G22KT 10SM BKN008 OVC014 03/02 A3003 RMK AO2 RAE11 P0002 T00330017=
202204100728 SPECI KSEA 100728Z 18012KT 10SM BKN010 OVC018 03/02 A3004 RMK AO2 RAE11 P0002 T00280017=
202204100653 METAR KSEA 100653Z 16009KT 5SM -RA BR BKN007 OVC015 03/01 A3005 RMK AO2 SNB31E32 SLP183 P0008 T00280011=
202204100553 METAR KSEA 100553Z 14010KT 8SM -RA BKN009 BKN015 OVC023 03/01 A3007 RMK AO2 SLP193 P0006 60009 T00280011 10083 20028 58025=
202204100537 SPECI KSEA 100537Z 14010KT 6SM -RA BR BKN011 OVC021 03/01 A3009 RMK AO2 P0005 T00280011=
202204100525 SPECI KSEA 100525Z 16010KT 6SM -RA BR SCT014 OVC023 03/02 A3009 RMK AO2 P0003 T00330017=
202204100514 SPECI KSEA 100514Z 16013KT 6SM -RA BR BKN014 OVC021 03/01 A3011 RMK AO2 P0003 T00330011=
202204100453 METAR KSEA 100453Z 18010G20KT 8SM -RA SCT016 OVC021 04/01 A3012 RMK AO2 RAB10 SLP209 P0003 T00390011=
202204100436 SPECI KSEA 100436Z 20011KT 4SM -RA OVC024 04/02 A3013 RMK AO2 RAB10 P0002 T00440017=
202204100353 METAR KSEA 100353Z 23011G22KT 10SM FEW031 BKN075 OVC090 06/00 A3014 RMK AO2 SLP216 T00610000=
202204100253 METAR KSEA 100253Z 22016G23KT 10SM SCT070 SCT110 BKN180 07/M01 A3015 RMK AO2 PK WND 22028/0217 SLP217 T00671011 56020=
202204100153 METAR KSEA 100153Z 23012G22KT 10SM SCT075 SCT130 BKN180 08/M02 A3016 RMK AO2 PK WND 22026/0143 SLP222 T00781017=
202204100053 METAR KSEA 100053Z 22014KT 10SM FEW030 SCT045 BKN180 08/M01 A3019 RMK AO2 SLP230 T00831011=
202204092353 METAR KSEA 092353Z 16007KT 10SM FEW035 SCT047 08/01 A3021 RMK AO2 SLP238 60004 T00830011 10094 20050 58018=
202204092253 METAR KSEA 092253Z 22008KT 10SM SCT029 BKN037 07/01 A3023 RMK AO2 SLP246 T00720011=
202204092153 METAR KSEA 092153Z 12004KT 10SM FEW025 BKN060 07/02 A3025 RMK AO2 SLP251 T00720022=
202204092053 METAR KSEA 092053Z 00000KT 10SM FEW020 SCT030CB BKN070 06/02 A3026 RMK AO2 RAE28GSB1956E01 SLP257 CB SE MOV E P0002 60004 T00610017 56013=
202204092013 SPECI KSEA 092013Z 30008G14KT 6SM -RA FEW015 BKN030CB OVC050 05/01 A3028 RMK AO2 GSB1956E01 CB OHD MOV E P0001 T00500006=
202204092001 SPECI KSEA 092001Z VRB03G17KT 8SM -RA FEW015 BKN025CB OVC050 06/01 A3027 RMK AO2 GSB1956E01 CB OHD MOV E P0000 T00610011=
202204091953 METAR KSEA 091953Z 26012G17KT 200V330 7SM -RA FEW015 BKN025CB OVC050 07/01 A3027 RMK AO2 RAB25 SLP258 CB OHD MOV E P0002 T00720011=
202204091853 METAR KSEA 091853Z 20009G18KT 10SM SCT025 BKN030 BKN130 09/01 A3028 RMK AO2 SLP262 T00890011=
202204091753 METAR KSEA 091753Z 20009KT 10SM BKN020 BKN030 BKN110 07/01 A3030 RMK AO2 SLP269 T00670011 10072 20022 58008=
202204091653 METAR KSEA 091653Z 21011KT 10SM BKN020 BKN100 06/01 A3031 RMK AO2 SLP273 T00610011=
202204091611 SPECI KSEA 091611Z 19010KT 10SM SCT015 BKN025 BKN100 06/02 A3032 RMK AO2 T00560017=
202204091553 METAR KSEA 091553Z 19010KT 10SM FEW015 SCT025 BKN100 06/01 A3032 RMK AO2 SLP275 T00560011=
202204091453 METAR KSEA 091453Z 17009KT 10SM FEW015 SCT025 SCT130 04/01 A3032 RMK AO2 SLP277 T00440006 50001=
202204091424 SPECI KSEA 091424Z 17006KT 10SM SCT015 SCT025 03/00 A3032 RMK AO2 T00330000=
202204091353 METAR KSEA 091353Z 16007KT 10SM BKN015 BKN025 03/00 A3033 RMK AO2 SLP279 T00330000=
202204091253 METAR KSEA 091253Z 17006KT 10SM SCT015 BKN025 03/01 A3033 RMK AO2 SLP278 T00330006=
202204091153 METAR KSEA 091153Z 16007KT 10SM BKN015 BKN028 04/01 A3032 RMK AO2 SLP276 60000 T00390006 10061 20033 53002=
202204091131 SPECI KSEA 091131Z 17004KT 10SM BKN015 BKN030 03/01 A3032 RMK AO2 T00330006=
202204091053 METAR KSEA 091053Z 19007KT 10SM FEW025 04/01 A3031 RMK AO2 SLP274 T00390011=
202204091040 SPECI KSEA 091040Z 21009KT 10SM SCT025 04/01 A3032 RMK AO2 T00390011=
202204091008 SPECI KSEA 091008Z 18008KT 10SM BKN025 04/01 A3032 RMK AO2 T00440011=
202204090953 METAR KSEA 090953Z 17008KT 10SM FEW015 SCT024 04/01 A3032 RMK AO2 SLP275 T00390011=
202204090853 METAR KSEA 090853Z 17005KT 10SM FEW016 SCT032 SCT045 04/01 A3032 RMK AO2 SLP274 60000 T00390011 51008=
202204090753 METAR KSEA 090753Z 17004KT 10SM FEW031 BKN040 05/02 A3031 RMK AO2 SLP274 T00500017 401330050=
202204090653 METAR KSEA 090653Z 20008KT 10SM SCT030 BKN041 06/02 A3030 RMK AO2 RAB07E16 SLP269 P0000 T00610022=
202204090553 METAR KSEA 090553Z 21008KT 10SM BKN032 BKN055 BKN090 06/03 A3029 RMK AO2 SLP266 T00610028 10094 20056 51021=
202204090453 METAR KSEA 090453Z 22012KT 10SM FEW030 SCT060 BKN080 06/02 A3027 RMK AO2 SLP260 VIRGA NW-N T00610022=
202204090353 METAR KSEA 090353Z 22012KT 10SM SCT025 BKN030 07/03 A3025 RMK AO2 SLP252 T00720028=
202204090338 SPECI KSEA 090338Z 22010KT 10SM SCT023 BKN030 08/03 A3025 RMK AO2 T00780028=
202204090253 METAR KSEA 090253Z 22009G17KT 10SM BKN020 BKN100 08/04 A3023 RMK AO2 SLP244 T00830039 53007=
202204090153 METAR KSEA 090153Z 22011KT 10SM BKN018 BKN100 08/04 A3021 RMK AO2 SLP238 T00830039=
202204090130 SPECI KSEA 090130Z 24008G20KT 10SM BKN021 BKN100 BKN160 08/04 A3021 RMK AO2 T00830039=
202204090053 METAR KSEA 090053Z 24011G23KT 10SM SCT024 SCT085 BKN160 BKN200 08/04 A3021 RMK AO2 SLP238 T00830039=
202204082353 METAR KSEA 082353Z 23016G24KT 10SM FEW026 SCT060 BKN080 BKN200 09/03 A3021 RMK AO2 SLP237 60000 T00940033 10122 20078 51003=
202204082253 METAR KSEA 082253Z 22016G29KT 10SM FEW025 SCT070 BKN110 BKN200 09/03 A3021 RMK AO2 PK WND 20030/2237 SLP237 CB DSNT SE T00940033=
202204082153 METAR KSEA 082153Z 22017G31KT 10SM FEW029 BKN039 BKN200 08/02 A3022 RMK AO2 PK WND 23036/2127 RAB33E42 SLP240 VIRGA OHD CB DSNT N P0000 T00780022=
202204082053 METAR KSEA 082053Z 22015G25KT 10SM SCT021 SCT034 BKN070 BKN200 09/04 A3020 RMK AO2 PK WND 24036/2014 RAB30E44 SLP233 SHRA NW-SW P0000 60000 T00890039 58003=
202204081953 METAR KSEA 081953Z 22019G30KT 10SM SCT030 SCT070 BKN200 11/03 A3020 RMK AO2 PK WND 22030/1944 SLP231 T01060028=
202204081900 SPECI KSEA 081900Z 22013G25KT 10SM FEW025 BKN032 10/04 A3021 RMK AO2 T01000039=
202204081853 METAR KSEA 081853Z 22017G25KT 10SM BKN025 BKN050 11/04 A3021 RMK AO2 PK WND 19029/1833 SLP236 T01060044=
202204081753 METAR KSEA 081753Z 20015G21KT 10SM BKN022 BKN030 09/06 A3021 RMK AO2 PK WND 21028/1659 SLP235 T00940056 10100 20072 52003=
202204081747 SPECI KSEA 081747Z 20014G23KT 10SM BKN024 09/05 A3021 RMK AO2 PK WND 21028/1659=
202204081706 SPECI KSEA 081706Z 21017G28KT 10SM FEW013 SCT020 09/05 A3020 RMK AO2 PK WND 21028/1659 T00890050=
202204081653 METAR KSEA 081653Z 21013G25KT 10SM SCT014 BKN020 09/06 A3019 RMK AO2 SLP230 T00890056=
202204081553 METAR KSEA 081553Z 20014G22KT 10SM FEW009 SCT015 BKN021 08/06 A3020 RMK AO2 SLP231 T00830056=
202204081519 SPECI KSEA 081519Z 20012G19KT 10SM FEW008 BKN019 OVC024 07/06 A3019 RMK AO2 T00720061=
202204081453 METAR KSEA 081453Z 22014G24KT 10SM BKN022 08/05 A3019 RMK AO2 PK WND 21026/1409 SLP228 T00780050 53017=
202204081353 METAR KSEA 081353Z 20012G24KT 10SM FEW010 SCT035 SCT100 SCT250 08/04 A3016 RMK AO2 SLP220 T00780039=
202204081316 SPECI KSEA 081316Z 21011G21KT 10SM SCT011 BKN035 OVC100 08/06 A3016 RMK AO2 T00830061=
202204081253 METAR KSEA 081253Z 21014G21KT 10SM FEW008 BKN013 OVC095 09/07 A3015 RMK AO2 SLP214 T00890072=
202204081226 SPECI KSEA 081226Z 18011KT 10SM BKN011 OVC019 09/07 A3014 RMK AO2 T00890072=
202204081200 SPECI KSEA 081200Z 17010KT 10SM FEW009 BKN016 OVC020 08/07 A3014 RMK AO2 T00830072=
202204081153 METAR KSEA 081153Z 16009KT 10SM FEW009 BKN014 OVC020 09/07 A3014 RMK AO2 RAE00B24E40 SLP210 P0000 60006 70006 T00890072 10161 20089 51021=
202204081141 SPECI KSEA 081141Z 18011KT 10SM BKN012 OVC016 09/07 A3013 RMK AO2 RAE00B24E40 P0000 T00890072=
202204081137 SPECI KSEA 081137Z 17010KT 10SM -RA SCT011 OVC016 09/07 A3013 RMK AO2 RAE00B24 P0000 T00890072=
202204081123 SPECI KSEA 081123Z 17011KT 10SM BKN012 BKN019 OVC050 09/08 A3013 RMK AO2 RAE00 P0000 T00890078=
202204081053 METAR KSEA 081053Z 19016G22KT 10SM -RA FEW037 OVC046 09/07 A3013 RMK AO2 PK WND 20031/1000 SLP207 P0005 T00890072=
202204081021 SPECI KSEA 081021Z 20016G24KT 8SM -RA SCT017 BKN037 OVC070 09/07 A3012 RMK AO2 PK WND 20031/1000 P0003 T00890067=
202204080953 METAR KSEA 080953Z 22016G25KT 10SM -RA OVC020 09/06 A3011 RMK AO2 PK WND 21033/0859 RAB25 SLP202 P0001 T00940056=
202204080939 SPECI KSEA 080939Z 22017G26KT 9SM -RA BKN022 OVC036 10/06 A3010 RMK AO2 PK WND 21033/0859 RAB25 P0000 T01000056=
202204080853 METAR KSEA 080853Z 23016G25KT 10SM FEW050 SCT110 OVC160 12/M03 A3007 RMK AO2 PK WND 23030/0828 SLP189 T01221033 53025=
202204080753 METAR KSEA 080753Z 23012G21KT 10SM FEW120 OVC140 13/M02 A3004 RMK AO2 SLP178 T01331022 402280056=
202204080653 METAR KSEA 080653Z 21015G20KT 10SM BKN110 OVC200 15/03 A3001 RMK AO2 SLP169 T01500028=
202204080553 METAR KSEA 080553Z 20006KT 10SM SCT110 BKN140 OVC200 16/05 A3000 RMK AO2 SLP164 T01560050 10222 20156 55013=
202204080453 METAR KSEA 080453Z 10008KT 10SM SCT120 BKN200 19/01 A2999 RMK AO2 SLP159 T01940011=
202204080353 METAR KSEA 080353Z 17003KT 10SM SCT120 BKN200 20/02 A3001 RMK AO2 SLP169 T02000017=
202204080253 METAR KSEA 080253Z 00000KT 10SM SCT140 BKN250 20/02 A3004 RMK AO2 SLP178 T02000017 56017=
202204080153 METAR KSEA 080153Z 20003KT 10SM SCT140 BKN250 21/03 A3004 RMK AO2 SLP179 ACSL DSNT SE T02060028=
202204080053 METAR KSEA 080053Z 27004KT 10SM FEW150 BKN250 22/03 A3007 RMK AO2 SLP188 ACSL DSNT SE T02170028=
202204072353 METAR KSEA 072353Z 25005KT 10SM FEW150 SCT250 22/02 A3009 RMK AO2 SLP194 ACSL DSNT SE T02220017 10228 20139 56024=
202204072253 METAR KSEA 072253Z 26007KT 10SM SCT160 SCT250 22/03 A3011 RMK AO2 SLP201 ACSL DSNT SE T02220033=
202204072153 METAR KSEA 072153Z 27006KT 10SM SCT160 BKN250 21/03 A3013 RMK AO2 SLP210 ACSL DSNT SE T02110028=
202204072053 METAR KSEA 072053Z 29003KT 10SM FEW140 BKN250 21/04 A3016 RMK AO2 SLP219 ACSL DSNT SE T02060044 58024=
202204071953 METAR KSEA 071953Z VRB03KT 10SM FEW140 BKN250 18/04 A3019 RMK AO2 SLP230 T01780044=
202204071853 METAR KSEA 071853Z 28005KT 10SM FEW140 SCT200 BKN250 16/04 A3022 RMK AO2 SLP239 ACSL DSNT SE T01560044=
202204071753 METAR KSEA 071753Z 27004KT 10SM FEW140 BKN250 14/06 A3023 RMK AO2 SLP244 T01440056 10144 20056 58011=
202204071653 METAR KSEA 071653Z 00000KT 10SM FEW140 BKN220 12/04 A3025 RMK AO2 SLP250 ACSL DSNT SE T01220044=
202204071553 METAR KSEA 071553Z 30003KT 10SM FEW140 BKN220 09/04 A3026 RMK AO2 SLP255 ACSL DSNT SE T00940044=
202204071453 METAR KSEA 071453Z 36003KT 10SM SCT180 OVC250 08/04 A3026 RMK AO2 SLP256 T00780039 55001=
202204071353 METAR KSEA 071353Z 02006KT 10SM SCT180 OVC250 06/03 A3026 RMK AO2 SLP255 T00610028=
202204071253 METAR KSEA 071253Z 02007KT 10SM BKN200 06/02 A3026 RMK AO2 SLP253 T00610017=
202204071153 METAR KSEA 071153Z 36004KT 10SM SCT200 07/02 A3027 RMK AO2 SLP256 T00670022 10122 20061 56013=
202204071053 METAR KSEA 071053Z 05004KT 10SM SCT200 09/01 A3027 RMK AO2 SLP257 T00890011=
202204070953 METAR KSEA 070953Z 01006KT 10SM BKN200 08/02 A3029 RMK AO2 SLP264 T00830022=
202204070853 METAR KSEA 070853Z 02006KT 10SM BKN190 09/02 A3031 RMK AO2 SLP271 T00890022 58008=
202204070753 METAR KSEA 070753Z 01006KT 10SM SCT180 BKN220 09/02 A3032 RMK AO2 SLP274 T00940022 401560006=
202204070653 METAR KSEA 070653Z 01005KT 10SM BKN160 12/00 A3033 RMK AO2 SLP276 T01170000=
202204070553 METAR KSEA 070553Z 03005KT 10SM BKN170 12/M01 A3033 RMK AO2 SLP279 T01221011 10156 20122 58005=
202204070453 METAR KSEA 070453Z 06005KT 10SM SCT160 BKN190 13/M01 A3034 RMK AO2 SLP282 T01281011=
202204070353 METAR KSEA 070353Z 04005KT 10SM BKN200 13/M01 A3035 RMK AO2 SLP284 T01331011=
202204070253 METAR KSEA 070253Z 36006KT 10SM SCT150 OVC250 13/00 A3035 RMK AO2 SLP284 T01330000 58012=
202204070153 METAR KSEA 070153Z 36005KT 10SM SCT180 OVC250 14/00 A3036 RMK AO2 SLP288 T01440000=
202204070053 METAR KSEA 070053Z 36007KT 10SM OVC250 16/M01 A3037 RMK AO2 SLP293 T01561006=
202204062353 METAR KSEA 062353Z 32006KT 10SM OVC250 15/01 A3038 RMK AO2 SLP296 T01500006 10150 20089 57012=
202204062253 METAR KSEA 062253Z 30010KT 10SM FEW120 BKN250 13/M01 A3039 RMK AO2 SLP300 T01281006=
202204062153 METAR KSEA 062153Z 30009KT 10SM FEW120 BKN250 13/01 A3041 RMK AO2 SLP305 T01330006=
202204062053 METAR KSEA 062053Z 30009KT 10SM FEW120 BKN250 12/01 A3042 RMK AO2 SLP309 T01170011 58018=
202204061953 METAR KSEA 061953Z 32008KT 10SM BKN250 11/02 A3044 RMK AO2 SLP315 T01110017=
202204061853 METAR KSEA 061853Z VRB03KT 10SM BKN250 11/M01 A3046 RMK AO2 SLP322 T01061011=
202204061753 METAR KSEA 061753Z 36006KT 10SM SCT250 09/01 A3047 RMK AO2 SLP327 T00890006 10089 20006 58001=
202204061653 METAR KSEA 061653Z VRB04KT 10SM SCT250 08/01 A3048 RMK AO2 SLP332 T00780006=
202204061553 METAR KSEA 061553Z 31003KT 10SM SCT250 06/02 A3049 RMK AO2 SLP332 T00560017=
202204061455 SPECI KSEA 061455Z 04003KT 7SM R16L/2200VP6000FT SCT001 SCT250 03/02 A3048 RMK AO2 T00280017=
202204061453 METAR KSEA 061453Z 03003KT 3SM R16L/2200VP6000FT BR BKN001 03/01 A3048 RMK AO2 TWR VIS 10 SLP330 VIS S 1 VIS N 1/2 T00280011 56006=
202204061450 SPECI KSEA 061450Z 03003KT 3SM R16L/2000VP6000FT BR BKN001 03/01 A3048 RMK AO2 TWR VIS 10 VIS S 1 VIS N 1/2=
202204061446 SPECI KSEA 061446Z 10005KT 1/2SM R16L/2000VP6000FT FG BKN003 03/01 A3048 RMK AO2 TWR VIS 10 VIS S 1 T00280011=
202204061437 SPECI KSEA 061437Z 10005KT 10SM FEW003 02/01 A3049 RMK AO2 T00220011=
202204061353 METAR KSEA 061353Z 00000KT 10SM FEW010 03/01 A3049 RMK AO2 SLP333 T00280011=
202204061253 METAR KSEA 061253Z 01007KT 10SM CLR 01/M01 A3048 RMK AO2 SLP331 T00111006=
202204061153 METAR KSEA 061153Z 00000KT 10SM CLR 03/00 A3050 RMK AO2 SLP336 70001 T00280000 10083 20022 56000=
202204061053 METAR KSEA 061053Z 12004KT 10SM CLR 03/00 A3050 RMK AO2 SLP337 T00330000=
202204060953 METAR KSEA 060953Z 11005KT 10SM CLR 03/01 A3049 RMK AO2 SLP335 T00330006=
202204060853 METAR KSEA 060853Z 12005KT 10SM FEW055 04/01 A3050 RMK AO2 SLP335 T00440011 53011=
202204060753 METAR KSEA 060753Z 05005KT 10SM SCT055 05/01 A3048 RMK AO2 SLP331 T00500006 401170039=
202204060653 METAR KSEA 060653Z 10005KT 10SM SCT046 07/01 A3047 RMK AO2 SLP327 T00670006=
202204060553 METAR KSEA 060553Z 09006KT 10SM BKN045 07/02 A3046 RMK AO2 SLP324 60001 T00720017 10100 20067 51019=
202204060453 METAR KSEA 060453Z 09006KT 10SM SCT050 07/01 A3045 RMK AO2 SLP319 T00670011=
202204060353 METAR KSEA 060353Z 09005KT 10SM BKN050 07/02 A3043 RMK AO2 SLP313 T00720017=
202204060253 METAR KSEA 060253Z 04009KT 10SM BKN055 08/02 A3041 RMK AO2 SLP305 60001 T00830017 51012=
202204060153 METAR KSEA 060153Z 00000KT 10SM FEW045 SCT080 SCT250 09/01 A3040 RMK AO2 SLP302 T00890006=
202204060053 METAR KSEA 060053Z 05005KT 10SM FEW042 BKN070 BKN250 10/02 A3038 RMK AO2 RAB04E39 SLP297 P0001 T01000017=
202204052353 METAR KSEA 052353Z 30007KT 10SM FEW031 SCT050 BKN110 10/M01 A3037 RMK AO2 RAE05B16E26 SLP293 P0000 60000 T01001011 10117 20083 50011=
202204052310 SPECI KSEA 052310Z 02007KT 10SM SCT031 BKN060 09/M01 A3037 RMK AO2 RAE05 P0000 T00941006=
202204052253 METAR KSEA 052253Z 01011G24KT 330V050 6SM -RA SCT046 BKN060 09/M01 A3037 RMK AO2 RAB46 SLP294 P0000 T00891006=
202204052153 METAR KSEA 052153Z 20014KT 10SM FEW035 SCT055 BKN070 11/M01 A3034 RMK AO2 SLP284 SHRA NW T01111011=
202204052053 METAR KSEA 052053Z 19016KT 10SM FEW035 SCT050 BKN090 12/01 A3034 RMK AO2 SLP282 SHRA NW T01170006 51016=
202204051953 METAR KSEA 051953Z 23007G19KT 10SM SCT035 SCT050 11/M01 A3033 RMK AO2 SLP280 T01061011=
202204051853 METAR KSEA 051853Z 22012KT 10SM SCT035 SCT100 10/01 A3031 RMK AO2 SLP274 T01000006=
202204051753 METAR KSEA 051753Z 22018G26KT 10SM SCT035 09/01 A3029 RMK AO2 PK WND 21026/1752 SLP266 T00890011 10089 20039 51037=
202204051653 METAR KSEA 051653Z 19014G24KT 10SM SCT025 BKN030 07/02 A3026 RMK AO2 SLP256 T00720017=
202204051622 SPECI KSEA 051622Z 20013G23KT 10SM SCT025 SCT100 07/02 A3024 RMK AO2 T00670017=
202204051600 SPECI KSEA 051600Z 20015G24KT 10SM BKN023 BKN028 06/02 A3023 RMK AO2 T00610017=
202204051553 METAR KSEA 051553Z 20013G23KT 10SM SCT025 SCT100 06/02 A3022 RMK AO2 SLP244 T00610017=
202204051453 METAR KSEA 051453Z 21016G24KT 10SM SCT021 SCT100 04/01 A3018 RMK AO2 PK WND 21028/1411 SLP230 T00440006 53038=
202204051353 METAR KSEA 051353Z 21016G26KT 10SM SCT020 SCT100 04/01 A3014 RMK AO2 PK WND 21029/1300 SLP214 T00440006=
202204051253 METAR KSEA 051253Z 21016G26KT 10SM FEW025 SCT050 04/01 A3011 RMK AO2 PK WND 20032/1201 SLP204 T00440011 $=
202204051153 METAR KSEA 051153Z 21016G25KT 10SM FEW110 04/01 A3007 RMK AO2 PK WND 22026/1131 SLP192 70027 T00390006 10050 20039 51026 $=
202204051053 METAR KSEA 051053Z 20019G27KT 10SM FEW025 BKN100 BKN120 04/01 A3005 RMK AO2 PK WND 21028/1036 SLP183 T00390006 $=
202204050953 METAR KSEA 050953Z 20015G24KT 10SM SCT023 04/01 A3002 RMK AO2 PK WND 20028/0925 SLP174 T00390006 $=
202204050853 METAR KSEA 050853Z 19013KT 10SM BKN023 04/01 A2999 RMK AO2 PK WND 19027/0834 SLP164 T00390006 53032 $=
202204050812 SPECI KSEA 050812Z 20015G23KT 10SM BKN025 BKN100 04/01 A2996 RMK AO2 T00390006 $=
202204050753 METAR KSEA 050753Z 21013G22KT 10SM FEW025 SCT100 04/01 A2996 RMK AO2 PK WND 21030/0716 SLP153 T00440006 400940033 $=
202204050702 SPECI KSEA 050702Z 20015G26KT 10SM SCT024 04/01 A2993 RMK AO2 PK WND 21026/0654 T00390011 $=
202204050653 METAR KSEA 050653Z 20018G29KT 10SM FEW018 BKN024 04/01 A2992 RMK AO2 PK WND 19029/0648 SLP143 T00390011 $=
202204050553 METAR KSEA 050553Z 20015G24KT 10SM BKN024 BKN031 04/01 A2990 RMK AO2 SLP132 60003 T00390011 10067 20033 50015 $=
202204050549 SPECI KSEA 050549Z 19018KT 10SM BKN024 BKN031 04/01 A2990 RMK AO2 $=
202204050453 METAR KSEA 050453Z 19011G22KT 10SM SCT027 SCT100 05/01 A2988 RMK AO2 PK WND 21026/0441 SLP127 T00500011 $=
202204050353 METAR KSEA 050353Z 17010KT 10SM SCT030 SCT085 BKN180 04/02 A2985 RMK AO2 PK WND 22028/0315 RAE11 SLP117 P0003 T00390022 $=
202204050253 METAR KSEA 050253Z 25011G22KT 8SM -RA SCT019 BKN028 BKN044 04/02 A2983 RMK AO2 PK WND 23037/0159 RAB46 SLP109 P0000 60000 T00440017 53033 $=
202204050153 METAR KSEA 050153Z 21014G27KT 10SM FEW020 SCT025 BKN140 05/01 A2976 RMK AO2 PK WND 24032/0128 SLP087 T00500011 $=
202204050146 SPECI KSEA 050146Z 22020G27KT 10SM FEW020 SCT025 BKN140 05/01 A2976 RMK AO2 PK WND 24032/0128 T00500011 $=
202204050108 SPECI KSEA 050108Z 22019G27KT 10SM SCT020 BKN026 BKN090 06/02 A2976 RMK AO2 PK WND 22030/0055 T00560022 $=
202204050053 METAR KSEA 050053Z 23018G32KT 10SM FEW023 SCT090 SCT200 07/02 A2974 RMK AO2 PK WND 22032/0046 RAE2357 SLP080 P0000 T00670017 $=
202204050011 SPECI KSEA 050011Z 23017G29KT 10SM SCT025 BKN100 06/03 A2973 RMK AO2 PK WND 24030/2356 RAE2357 P0000 T00610028 $=
202204042353 METAR KSEA 042353Z 23020G30KT 8SM -RA BKN023 BKN090 BKN200 06/02 A2973 RMK AO2 PK WND 24040/2339 RAB14 SLP076 P0002 60020 T00560022 10089 20044 53033 $=
202204042327 SPECI KSEA 042327Z 26016G36KT 6SM VCTS -RA FEW020CB BKN029 BKN090 06/02 A2972 RMK AO2 PK WND 28036/2322 RAB14 P0001 T00610022 $=
202204042316 SPECI KSEA 042316Z 23017G33KT 5SM -RA BKN029 BKN044 BKN095 07/03 A2972 RMK AO2 PK WND 23033/2316 RAB14 P0000 T00670028 $=
202204042253 METAR KSEA 042253Z 22016G26KT 10SM SCT021 BKN075 BKN095 07/03 A2970 RMK AO2 PK WND 19031/2155 WSHFT 2229 RAB14E45 SLP064 VCSH P0008 T00670028 $=
202204042244 SPECI KSEA 042244Z 22016G27KT 10SM -RA SCT023 BKN080 OVC095 06/02 A2970 RMK AO2 PK WND 19031/2155 WSHFT 2229 RAB14 P0008 T00560022 $=
202204042234 SPECI KSEA 042234Z 22015G23KT 3SM R16L/6000VP6000FT -RA BKN023 BKN048 BKN070 04/02 A2968 RMK AO2 PK WND 19031/2155 RAB14 P0004 T00440017 $=
202204042223 SPECI KSEA 042223Z 27010G27KT 3SM +RA BKN024 BKN041 OVC070 07/02 A2969 RMK AO2 PK WND 19031/2155 RAB14 PRESRR P0000 T00720022=
202204042153 METAR KSEA 042153Z 21017G29KT 10SM FEW033 SCT042 BKN075 09/03 A2966 RMK AO2 PK WND 23034/2127 SLP050 SHRA W-N T00890033=
202204042053 METAR KSEA 042053Z 23011KT 7SM SCT023 BKN031 BKN050 07/04 A2963 RMK AO2 RAE1957B14E51 SLP043 P0005 60010 T00670039 51022=
202204042024 SPECI KSEA 042024Z 27012G25KT 7SM RA FEW019 BKN024 BKN040 06/03 A2963 RMK AO2 RAE1957B14 P0002 T00560028=
202204042022 SPECI KSEA 042022Z 27015G25KT 2 1/2SM RA FEW019 BKN024 BKN040 06/03 A2964 RMK AO2 RAE1957B14 P0002 T00560028=
202204042009 SPECI KSEA 042009Z 23011G22KT 10SM SCT019 BKN032 BKN050 07/04 A2962 RMK AO2 RAE1957 P0000 T00670039=
202204042000 SPECI KSEA 042000Z 24008G20KT 10SM FEW016 BKN023 06/03 A2962 RMK AO2 RAE1957 P0000 T00610033=
202204041953 METAR KSEA 041953Z 25013G22KT 7SM R16L/6000VP6000FT -RA SCT015 SCT025 BKN036 BKN130 06/03 A2962 RMK AO2 WSHFT 1840 SLP038 P0005 T00610033=
202204041855 SPECI KSEA 041855Z 26015G35KT 5SM -RA BKN025 BKN034 05/02 A2961 RMK AO2 WSHFT 1840 P0000 T00500017=
202204041853 METAR KSEA 041853Z 26017G35KT 6SM -RA SCT027 BKN034 OVC050 05/02 A2961 RMK AO2 PK WND 28035/1846 WSHFT 1837 RAE14B46 PRESRR SLP034 P0000 T00500017=
202204041753 METAR KSEA 041753Z 24013G27KT 7SM R16L/5000VP6000FT -RA SCT025 BKN043 BKN050 07/03 A2957 RMK AO2 PK WND 22036/1659 RAB43 SLP020 P0003 60004 T00720028 10094 20061 53021=
202204041720 SPECI KSEA 041720Z 23018G31KT 10SM SCT023 BKN032 09/02 A2954 RMK AO2 PK WND 22036/1659 T00890022=
202204041653 METAR KSEA 041653Z 22018G31KT 10SM BKN022 BKN031 BKN045 07/03 A2952 RMK AO2 PK WND 22031/1650 RAE41 SLP004 P0000 T00720033=
202204041649 SPECI KSEA 041649Z 22019G30KT 10SM BKN022 BKN031 BKN045 07/03 A2952 RMK AO2 PK WND 20030/1647 RAE41 P0000=
202204041553 METAR KSEA 041553Z 21014G20KT 7SM -RA FEW024 SCT040 BKN100 06/03 A2951 RMK AO2 PK WND 20031/1525 RAB31 SLP999 P0000 T00610033=
202204041541 SPECI KSEA 041541Z 21017G29KT 7SM -RA SCT026 BKN035 BKN055 07/03 A2950 RMK AO2 PK WND 20031/1525 RAB31 P0000 T00670028=
202204041453 METAR KSEA 041453Z 22018G30KT 10SM SCT020 BKN026 BKN031 07/03 A2949 RMK AO2 PK WND 22033/1407 SLP993 60001 T00720033 53030=
202204041431 SPECI KSEA 041431Z 21018G28KT 10SM SCT022 BKN028 BKN060 07/04 A2947 RMK AO2 PK WND 22033/1407 T00720039=
202204041353 METAR KSEA 041353Z 23020G30KT 10SM SCT019 SCT026 BKN032 07/04 A2944 RMK AO2 PK WND 22032/1321 RAB28E37 SLP974 P0000 T00720039=
202204041341 SPECI KSEA 041341Z 22019G32KT 10SM FEW005 BKN019 OVC028 08/04 A2943 RMK AO2 PK WND 22032/1321 RAB28E37 P0000 T00780039=
202204041253 METAR KSEA 041253Z 20019G29KT 10SM SCT015 BKN024 OVC040 08/06 A2940 RMK AO2 PK WND 20030/1219 RAB09E26 SLP961 P0001 T00780061=
202204041153 METAR KSEA 041153Z 19017G27KT 10SM SCT015 BKN021 OVC040 08/06 A2940 RMK AO2 PK WND 20027/1141 RAE42 SLP962 P0003 60039 70051 T00830061 10083 20072 58016=
202204041053 METAR KSEA 041053Z 18013G23KT 7SM -RA SCT015 BKN026 OVC041 08/06 A2943 RMK AO2 PK WND 19029/1010 SLP974 P0013 T00780061=
202204041001 SPECI KSEA 041001Z 19013KT 6SM RA BR BKN017 BKN025 OVC036 07/06 A2945 RMK AO2 P0002 T00720056=
202204040953 METAR KSEA 040953Z 21014G32KT 7SM -RA FEW021 BKN036 OVC045 08/06 A2944 RMK AO2 PK WND 18032/0943 SLP977 P0006 T00780056=
202204040853 METAR KSEA 040853Z 17018G26KT 9SM -RA BKN036 OVC044 07/05 A2945 RMK AO2 PK WND 18031/0819 SLP978 P0007 60017 T00720050 56054=
202204040753 METAR KSEA 040753Z 17017KT 9SM -RA BKN034 OVC045 08/06 A2948 RMK AO2 SLP990 P0004 T00780056 401220067=
202204040653 METAR KSEA 040653Z 17013G24KT 6SM -RA BR FEW021 BKN035 OVC045 08/06 A2954 RMK AO2 SLP010 P0006 T00780056=
202204040639 SPECI KSEA 040639Z 17013KT 7SM -RA FEW021 OVC035 08/06 A2956 RMK AO2 PRESFR P0004 T00780056=
202204040553 METAR KSEA 040553Z 17013G19KT 7SM -RA BKN023 BKN030 OVC037 08/06 A2961 RMK AO2 SLP032 P0004 60009 T00780061 10111 20078 58044=
202204040526 SPECI KSEA 040526Z 18013KT 7SM -RA BKN025 OVC036 08/06 A2963 RMK AO2 P0002 T00830061=
202204040453 METAR KSEA 040453Z 17012KT 8SM -RA SCT029 OVC036 08/06 A2965 RMK AO2 SLP047 P0003 T00830056=
202204040353 METAR KSEA 040353Z 17012KT 9SM -RA OVC037 09/06 A2970 RMK AO2 SLP063 P0002 T00890056=
202204040253 METAR KSEA 040253Z 17013KT 10SM -RA SCT028 OVC040 09/06 A2974 RMK AO2 PK WND 18029/0211 RAB27 SLP077 P0000 60000 T00940056 56032=
202204040153 METAR KSEA 040153Z 19016G28KT 10SM OVC039 11/05 A2977 RMK AO2 PK WND 19033/0056 SLP088 T01060050=
202204040053 METAR KSEA 040053Z 19020G31KT 10SM OVC037 11/05 A2980 RMK AO2 PK WND 20033/0027 SLP097 T01110050=
202204032353 METAR KSEA 032353Z 19014G23KT 10SM OVC035 11/06 A2983 RMK AO2 RAE42 SLP110 P0001 60003 T01060056 10122 20089 58022=
202204032253 METAR KSEA 032253Z 21014G22KT 8SM -RA OVC036 10/06 A2987 RMK AO2 PK WND 20028/2204 SLP122 P0002 T01000056=
202204032153 METAR KSEA 032153Z 20015G26KT 7SM -RA OVC036 11/05 A2988 RMK AO2 PK WND 17029/2104 RAB22 SLP126 P0000 T01060050=
202204032053 METAR KSEA 032053Z 19019G28KT 10SM OVC038 12/03 A2990 RMK AO2 PK WND 19028/2049 SLP132 60000 T01170033 56023=
202204031953 METAR KSEA 031953Z 18013G22KT 10SM OVC036 11/03 A2992 RMK AO2 RAE17 SLP140 P0000 T01110033=
202204031853 METAR KSEA 031853Z 18016G24KT 10SM -RA OVC038 10/02 A2994 RMK AO2 RAB02E24B50 SLP147 P0000 T01000022=
202204031753 METAR KSEA 031753Z 16010KT 130V190 10SM OVC046 09/03 A2997 RMK AO2 SLP156 60000 T00940033 10094 20067 58013=
202204031653 METAR KSEA 031653Z 19008KT 10SM FEW045 OVC070 08/03 A2999 RMK AO2 SLP163 T00830033=
202204031553 METAR KSEA 031553Z 16007KT 10SM FEW045 OVC070 07/04 A3000 RMK AO2 SLP166 T00720039=
202204031453 METAR KSEA 031453Z 17007KT 10SM FEW048 BKN080 07/03 A3001 RMK AO2 RAE08 SLP169 P0000 60000 T00670033 56014=
202204031353 METAR KSEA 031353Z 16005KT 10SM -RA FEW048 BKN060 OVC070 07/04 A3001 RMK AO2 RAB51 SLP171 P0000 T00670039=
202204031253 METAR KSEA 031253Z 19004KT 10SM BKN042 BKN070 OVC090 07/03 A3003 RMK AO2 SLP178 T00670033=
202204031153 METAR KSEA 031153Z 19003KT 10SM OVC085 07/03 A3005 RMK AO2 SLP183 T00670033 10083 20067 56020=
202204031053 METAR KSEA 031053Z 16004KT 10SM OVC080 07/03 A3007 RMK AO2 SLP189 T00720033=
202204030953 METAR KSEA 030953Z 00000KT 10SM FEW045 OVC100 07/03 A3009 RMK AO2 SLP196 T00720028=
202204030853 METAR KSEA 030853Z 16004KT 10SM OVC110 08/03 A3011 RMK AO2 SLP203 T00780028 56019=
202204030753 METAR KSEA 030753Z 15005KT 10SM SCT055 OVC140 08/03 A3013 RMK AO2 SLP209 T00780028 401280056=
202204030653 METAR KSEA 030653Z 19004KT 10SM OVC055 08/03 A3015 RMK AO2 SLP216 T00830033=
202204030553 METAR KSEA 030553Z 22006KT 10SM BKN150 OVC180 08/03 A3017 RMK AO2 SLP223 T00830028 10128 20083 58011=
202204030453 METAR KSEA 030453Z 24006KT 10SM FEW050 SCT160 BKN190 09/02 A3019 RMK AO2 SLP229 T00890022=
202204030353 METAR KSEA 030353Z 21004KT 10SM FEW050 SCT150 BKN200 09/03 A3019 RMK AO2 SLP231 T00940028=
202204030253 METAR KSEA 030253Z 22005KT 10SM FEW050 SCT120 BKN200 10/02 A3020 RMK AO2 SLP234 T01000017 56007=
202204030153 METAR KSEA 030153Z 22008KT 10SM FEW050 SCT120 SCT200 11/01 A3020 RMK AO2 SLP234 T01110011=
202204030053 METAR KSEA 030053Z 21009KT 10SM FEW050 FEW120 BKN200 12/02 A3021 RMK AO2 SLP236 T01170017=
202204022353 METAR KSEA 022353Z 21012KT 10SM FEW050 FEW120 BKN210 13/03 A3022 RMK AO2 SLP241 T01280028 10128 20094 56009=
202204022253 METAR KSEA 022253Z 22010G18KT 10SM FEW050 SCT200 13/03 A3023 RMK AO2 SLP244 T01280033=
202204022153 METAR KSEA 022153Z 22015G22KT 10SM FEW050 SCT120 BKN200 13/02 A3023 RMK AO2 SLP245 T01280022=
202204022053 METAR KSEA 022053Z 21016G23KT 10SM FEW030 SCT050 BKN120 13/02 A3025 RMK AO2 SLP250 T01280022 58002=
202204021953 METAR KSEA 021953Z 22011G22KT 10SM FEW030 SCT050 BKN095 12/03 A3026 RMK AO2 SLP254 T01170028=
202204021853 METAR KSEA 021853Z 22018G22KT 10SM FEW020 SCT033 BKN042 11/03 A3026 RMK AO2 SLP253 T01110028=
202204021753 METAR KSEA 021753Z 22009KT 10SM FEW021 SCT050 BKN100 09/03 A3025 RMK AO2 SLP251 T00940028 10094 20056 51019=
202204021722 SPECI KSEA 021722Z 21013KT 10SM FEW019 SCT028 BKN044 09/03 A3025 RMK AO2 T00890033=
202204021653 METAR KSEA 021653Z 19011KT 10SM SCT017 BKN028 08/04 A3024 RMK AO2 SLP247 T00830039=
202204021553 METAR KSEA 021553Z 21009KT 10SM OVC015 07/03 A3022 RMK AO2 SLP241 T00670033=
202204021453 METAR KSEA 021453Z 19008KT 10SM BKN018 06/03 A3019 RMK AO2 SLP233 T00610028 53017=
202204021353 METAR KSEA 021353Z 17008KT 10SM OVC018 06/03 A3017 RMK AO2 SLP225 T00610033=
202204021253 METAR KSEA 021253Z 18004KT 10SM BKN017 OVC032 06/03 A3016 RMK AO2 SLP220 T00610033=
202204021153 METAR KSEA 021153Z 17006KT 10SM BKN018 OVC026 06/03 A3014 RMK AO2 SLP215 60000 70005 T00610033 10078 20061 51016=
202204021053 METAR KSEA 021053Z 19007KT 10SM BKN019 OVC029 06/03 A3013 RMK AO2 SLP210 T00610033=
202204020953 METAR KSEA 020953Z 20008KT 10SM SCT020 BKN029 07/03 A3012 RMK AO2 SLP206 T00670028=
202204020853 METAR KSEA 020853Z 21008KT 10SM BKN017 BKN032 07/03 A3010 RMK AO2 SLP199 60000 T00670028 53013=
202204020753 METAR KSEA 020753Z 22011G20KT 10SM BKN018 OVC035 07/04 A3008 RMK AO2 SLP193 T00720039 401170044=
202204020714 SPECI KSEA 020714Z 22015G21KT 10SM BKN019 OVC095 07/04 A3006 RMK AO2 T00720039=
202204020653 METAR KSEA 020653Z 21013G22KT 10SM FEW018 SCT030 BKN095 07/04 A3006 RMK AO2 RAE52 SLP186 P0000 T00720039=
202204020651 SPECI KSEA 020651Z 22013G22KT 10SM -RA FEW018 SCT030 BKN095 07/04 A3006 RMK AO2 P0000=
202204020553 METAR KSEA 020553Z 20009KT 10SM -RA BKN025 OVC035 08/06 A3007 RMK AO2 SLP188 P0000 60005 T00780061 10106 20078 53002=
202204020510 SPECI KSEA 020510Z 19007KT 10SM -RA BKN028 OVC035 08/06 A3006 RMK AO2 P0000 T00780061=
202204020453 METAR KSEA 020453Z 18007KT 10SM -RA BKN030 OVC042 08/06 A3006 RMK AO2 RAE17B36 SLP185 P0001 T00780056=
202204020353 METAR KSEA 020353Z 19007KT 10SM -RA OVC055 08/06 A3006 RMK AO2 SLP186 P0002 T00780056=
202204020253 METAR KSEA 020253Z 21008KT 10SM -RA BKN038 OVC048 08/06 A3006 RMK AO2 RAB19 SLP187 P0002 60002 T00830056 56006=
202204020153 METAR KSEA 020153Z 22007KT 10SM SCT044 OVC070 10/03 A3006 RMK AO2 SLP188 T01000033=
202204020053 METAR KSEA 020053Z 23008KT 10SM FEW030 BKN060 OVC100 10/03 A3006 RMK AO2 SLP189 T01000028=
202204012353 METAR KSEA 012353Z 23007KT 10SM FEW030 OVC070 11/02 A3008 RMK AO2 SLP192 T01060022 10117 20083 56008=
202204012253 METAR KSEA 012253Z 24008KT 10SM FEW035 OVC070 11/02 A3008 RMK AO2 SLP193 T01060017=
202204012153 METAR KSEA 012153Z 21010G17KT 10SM FEW035 BKN080 BKN120 11/02 A3009 RMK AO2 SLP196 T01110022=
202204012053 METAR KSEA 012053Z 24008KT 210V270 10SM SCT035 BKN085 BKN120 11/02 A3010 RMK AO2 SLP201 T01060017 56010=
202204011953 METAR KSEA 011953Z 23011KT 10SM SCT033 SCT120 BKN250 10/02 A3011 RMK AO2 SLP203 T01000017=
202204011853 METAR KSEA 011853Z 20008G16KT 10SM SCT025 SCT120 BKN250 09/02 A3012 RMK AO2 SLP208 T00940022=
202204011753 METAR KSEA 011753Z 21010KT 10SM SCT021 BKN120 BKN200 09/03 A3013 RMK AO2 SLP211 T00890028 10094 20044 53001=
202204011653 METAR KSEA 011653Z 19008KT 10SM FEW015 SCT140 BKN200 08/03 A3012 RMK AO2 SLP206 T00830028=
202204011553 METAR KSEA 011553Z 18006KT 10SM FEW015 SCT140 BKN200 07/03 A3011 RMK AO2 SLP206 T00670028=
202204011453 METAR KSEA 011453Z 16005KT 10SM FEW010 SCT150 BKN200 06/02 A3013 RMK AO2 SLP211 T00560022 50000=
202204011353 METAR KSEA 011353Z 15005KT 10SM FEW010 SCT170 BKN230 04/02 A3013 RMK AO2 SLP211 T00440017=
202204011253 METAR KSEA 011253Z 17004KT 10SM SCT150 BKN230 05/02 A3013 RMK AO2 SLP212 T00500017=
202204011153 METAR KSEA 011153Z 19006KT 10SM FEW033 BKN170 06/03 A3013 RMK AO2 SLP210 T00560028 10072 20056 58008=
202204011053 METAR KSEA 011053Z 22006KT 10SM SCT037 BKN180 06/03 A3014 RMK AO2 SLP214 T00560028=
202204011012 SPECI KSEA 011012Z 21004KT 10SM SCT015 06/03 A3014 RMK AO2 T00610028=
202204010953 METAR KSEA 010953Z 17004KT 10SM BKN016 OVC046 06/03 A3014 RMK AO2 SLP215 T00610028=
202204010853 METAR KSEA 010853Z 18005KT 10SM FEW048 06/03 A3015 RMK AO2 SLP218 T00560028 50000=
202204010753 METAR KSEA 010753Z 22005KT 10SM BKN042 OVC055 07/03 A3016 RMK AO2 SLP221 T00670033 401220050=
202204010653 METAR KSEA 010653Z 20004KT 10SM OVC070 07/03 A3016 RMK AO2 SLP221 T00720033=
202204010553 METAR KSEA 010553Z 25005KT 10SM BKN035 BKN042 OVC070 08/04 A3015 RMK AO2 SLP218 T00780044 10122 20078 50003=
202204010453 METAR KSEA 010453Z 28004KT 10SM BKN039 OVC050 08/04 A3015 RMK AO2 SLP220 T00830039=
202204010353 METAR KSEA 010353Z 07005KT 10SM FEW046 BKN075 09/02 A3015 RMK AO2 SLP217 T00890017=
202204010253 METAR KSEA 010253Z 04006KT 10SM FEW032 BKN060 10/02 A3014 RMK AO2 SLP215 T01000022 56010=
202204010153 METAR KSEA 010153Z 04007KT 10SM FEW030 SCT055 BKN080 11/01 A3015 RMK AO2 SLP217 T01060011=
202204010053 METAR KSEA 010053Z 29006KT 10SM FEW030 BKN050 11/01 A3016 RMK AO2 SLP220 T01060006=

# No short TAF reports from KSEA in databse.

###################################
#  large TAF from KSEA
###################################
202204302320 TAF KSEA 302320Z 0100/0206 VRB05KT P6SM FEW035 SCT070 BKN220 FM011000
                       VRB04KT P6SM BKN035 FM011300 VRB04KT P6SM
                       OVC025 FM011800 21004KT P6SM BKN050 FM012100
                       24005KT P6SM OVC100 FM020000 23004KT P6SM
                       OVC250=
202204302058 KSEA 302058Z 3021/0124 27008KT P6SM SCT035 SCT050 FM011000 VRB04KT
                       P6SM BKN035 FM011300 VRB04KT P6SM BKN015
                       BKN030 FM011700 20003KT P6SM OVC030=
202204301721 TAF KSEA 301721Z 3018/0124 19006KT P6SM VCSH SCT020 BKN050
                      TEMPO 3018/3019 -SHRA BKN015 FM302000 22006KT
                       P6SM SCT030 BKN060 FM011000 VRB04KT P6SM
                       OVC030 FM011300 VRB04KT P6SM BKN015 BKN030
                       FM011700 20003KT P6SM OVC030=
202204301120 TAF KSEA 301120Z 3012/0118 12006KT P6SM -RA OVC040
                      TEMPO 3012/3016 5SM -RA BR OVC030 FM301600
                       VRB04KT P6SM -SHRA BKN030 OVC050 FM302100
                       32006KT P6SM SCT030 BKN060 FM011000 VRB03KT
                       P6SM BKN010 BKN030 FM011700 VRB03KT P6SM
                       SCT040=
202204300901 KSEA 300901Z 3009/0112 09006KT 4SM -RA BR SCT002 OVC040 FM301100
                       14006KT 4SM -RA BR SCT005 OVC025 FM301500
                       21006KT 6SM -SHRA SCT010 OVC020 FM301900
                       26006KT P6SM VCSH BKN025 FM302100 VRB04KT
                       P6SM SCT025 BKN050 FM011000 00000KT P6SM
                       BKN010 OVC040=
202204300520 TAF KSEA 300520Z 3006/0112 20006KT P6SM -RA OVC040 FM301000 14006KT
                       P6SM -RA OVC025 FM301500 21008KT 6SM -SHRA
                       SCT010 OVC020 FM302100 26008KT P6SM VCSH
                       BKN025=
202204300301 KSEA 300301Z 3003/0106 VRB03KT P6SM FEW050 BKN100 OVC200 FM300500
                       20006KT P6SM -RA BKN060 OVC100 FM301000
                       14006KT P6SM -RA OVC025 FM301500 21008KT
                       6SM -SHRA SCT010 OVC020 FM302100 26008KT
                       P6SM VCSH BKN025=
202204292325 TAF KSEA 292325Z 3000/0106 22008KT P6SM SCT040 BKN250 FM300500
                       20006KT P6SM -RA BKN060 OVC250 FM301000
                       14006KT P6SM -RA OVC025 FM301500 21008KT
                       6SM -SHRA SCT010 OVC020 FM302100 26008KT
                       P6SM VCSH BKN025=
202204292035 KSEA 292035Z 2921/3024 22008KT P6SM SCT030 BKN060 FM300500 20006KT
                       P6SM -RA BKN040 OVC060 FM301000 14006KT
                       P6SM -RA OVC025 FM301500 21008KT 6SM -SHRA
                       SCT010 OVC020=
202204291733 TAF KSEA 291733Z 2918/3024 17008KT P6SM BKN025 OVC040 FM292100
                       19008KT P6SM BKN050 FM300500 20006KT P6SM
                       -RA BKN040 OVC060 FM301000 14006KT P6SM
                       -RA OVC025 FM301500 21008KT 6SM -SHRA SCT010
                       OVC020=
202204291453 KSEA 291453Z 2915/3018 15007KT P6SM VCSH BKN025 OVC040 FM291700
                       19006KT P6SM SCT020 BKN035 OVC050 FM292100
                       19006KT P6SM SCT060 BKN100 FM300500 14006KT
                       P6SM -RA OVC040 FM301000 14006KT P6SM -RA
                       SCT010 BKN020 OVC035 FM301500 19010KT P6SM
                       -SHRA SCT006 BKN012 OVC020=
202204291135 TAF KSEA 291135Z 2912/3018 19006KT P6SM OVC035 FM291400 19006KT
                       P6SM SCT008 BKN015 OVC030 FM291700 19006KT
                       P6SM SCT020 BKN035 OVC050 FM292100 19006KT
                       P6SM SCT060 BKN100 FM300500 14006KT P6SM
                       -RA OVC040 FM301000 14006KT P6SM -RA SCT010
                       BKN020 OVC035 FM301500 19010KT P6SM -SHRA
                       SCT006 BKN012 OVC020=
202204290907 KSEA 290907Z 2909/3012 19006KT P6SM SCT035 BKN050 FM291400 19006KT
                       P6SM SCT008 BKN015 OVC030 FM291700 19006KT
                       P6SM SCT020 BKN035 OVC050 FM292100 19006KT
                       P6SM SCT060 BKN100 FM300500 14006KT P6SM
                       -RA OVC040 FM301000 14006KT P6SM -RA SCT010
                       BKN020 OVC035=
202204290536 TAF KSEA 290536Z 2906/3012 33006KT P6SM BKN035 OVC050 FM290900
                       VRB03KT P6SM SCT035 BKN050 FM291400 19006KT
                       P6SM SCT008 BKN015 OVC030 FM291700 19006KT
                       P6SM SCT020 BKN035 OVC050 FM292100 19006KT
                       P6SM SCT060 BKN100 FM300500 14006KT P6SM
                       -RA OVC040 FM301000 14006KT P6SM -RA SCT010
                       BKN020 OVC035=
202204290257 KSEA 290257Z 2903/3006 VRB05KT P6SM VCSH FEW025 BKN050 FM290800
                       15005KT P6SM BKN050 FM291300 18006KT P6SM
                       BKN040 FM291800 23006KT P6SM SCT040 BKN060
                       FM292100 24007KT P6SM SCT060 BKN100=
202204282320 TAF KSEA 282320Z 2900/3006 23006KT P6SM SCT030 BKN060
                      TEMPO 2900/2904 -SHRA BKN025 FM290800 15005KT
                       P6SM BKN050 FM291300 18006KT P6SM BKN040
                       FM291800 23006KT P6SM SCT040 BKN060 FM292100
                       24007KT P6SM SCT060 BKN100=
202204282058 KSEA 282058Z 2821/2924 23006KT P6SM SCT020 SCT030 BKN060 FM290000
                       VRB03KT P6SM SCT025 BKN050
                      TEMPO 2900/2904 -SHRA BKN025 FM290800 15005KT
                       P6SM BKN030 FM291300 18006KT P6SM BKN030
                       FM291800 23006KT P6SM SCT030 BKN050=
202204281720 TAF KSEA 281720Z 2818/2924 23006KT P6SM SCT015 BKN035 FM290200
                       VRB03KT P6SM SCT025 BKN050
                      TEMPO 2902/2906 -SHRA BKN025 FM291200 18006KT
                       P6SM BKN030=
202204281609 KSEA 281609Z 2816/2918 VRB03KT P6SM BKN008 BKN015 FM281800 23006KT
                       P6SM SCT015 BKN035 FM290200 VRB03KT P6SM
                       SCT025 BKN050
                      TEMPO 2902/2906 -SHRA BKN025 FM291200 18006KT
                       P6SM BKN030=
202204281458 KSEA 281458Z 2815/2918 VRB03KT P6SM SCT015 BKN040
                      TEMPO 2815/2816 SCT008 BKN015 FM281600 23006KT
                       P6SM SCT035 BKN050 FM290200 VRB03KT P6SM
                       -SHRA BKN025 BKN050 FM291200 18006KT P6SM
                       SCT030 BKN050=
202204281135 TAF KSEA 281135Z 2812/2918 VRB03KT P6SM SCT025 BKN050
                      TEMPO 2814/2816 BKN025 BKN050 FM281600 23006KT
                       P6SM SCT035 BKN050 FM290200 VRB03KT P6SM
                       -SHRA BKN025 BKN050 FM291200 20006KT P6SM
                       SCT050 BKN150=
202204280943 KSEA 280943Z 2810/2912 VRB03KT P6SM SCT045 FM281600 20006KT P6SM
                       SCT035 BKN050=
202204280537 TAF KSEA 280537Z 2806/2912 35006KT P6SM BKN040 FM280800 VRB03KT
                       P6SM SCT045 FM281600 20006KT P6SM SCT035
                       BKN050=
202204280304 KSEA 280304Z 2803/2906 22007KT P6SM FEW030 BKN060 BKN250 FM280600
                       VRB03KT P6SM SCT040 SCT070 FM281700 21004KT
                       P6SM SCT035 BKN050 FM282000 19007KT P6SM
                       SCT035 SCT050 FM290300 23007KT P6SM BKN040
                       BKN050=
202204272334 TAF KSEA 272334Z 2800/2906 19010KT P6SM SCT040 SCT100 FM280600
                       VRB03KT P6SM SCT040 SCT070 FM281700 21004KT
                       P6SM SCT035 BKN050 FM282000 19007KT P6SM
                       SCT035 SCT050 FM290300 23007KT P6SM BKN040
                       BKN050=
202204272100 KSEA 272100Z 2721/2824 25007KT P6SM FEW025 SCT040 BKN250 FM280200
                       VRB03KT P6SM SCT050 SCT100 FM281700 21006KT
                       P6SM SCT035 BKN050 FM282000 19007KT P6SM
                       SCT035 SCT050=
202204271935 KSEA 271935Z 2720/2824 21007KT P6SM SCT025 BKN040 BKN250 FM280200
                       VRB03KT P6SM SCT050 SCT100 FM281700 21006KT
                       P6SM SCT035 BKN050 FM282000 19007KT P6SM
                       SCT035 SCT050=
202204271742 TAF KSEA 271742Z 2718/2824 27005KT P6SM SCT015 BKN028 FM280200
                       VRB03KT P6SM SCT050 SCT100 FM281700 21006KT
                       P6SM SCT035 BKN050 FM282000 19007KT P6SM
                       SCT035 SCT050=
202204271502 KSEA 271502Z 2715/2818 18006KT P6SM SCT025 BKN045
                      TEMPO 2715/2716 BKN025 BKN045 FM271800 VRB03KT
                       P6SM SCT035 BKN050 FM280200 VRB03KT P6SM
                       SCT050 SCT100 FM281700 21006KT P6SM SCT035
                       BKN050=
202204271351 KSEA 271351Z 2714/2818 18006KT P6SM SCT025 BKN045
                      TEMPO 2714/2716 BKN025 BKN045 FM271800 VRB03KT
                       P6SM SCT035 BKN050 FM280200 VRB03KT P6SM
                       SCT050 SCT100 FM281700 21006KT P6SM SCT035
                       BKN050=
202204271132 TAF KSEA 271132Z 2712/2818 18006KT P6SM SCT050 FM271900 VRB03KT
                       P6SM SCT035 BKN050 FM280200 VRB03KT P6SM
                       SCT050 SCT100 FM281700 21006KT P6SM SCT035
                       BKN050=
202204270911 KSEA 270911Z 2709/2812 16006KT P6SM SCT035 FM271500 20006KT P6SM
                       SCT035 BKN050 FM280000 VRB04KT P6SM SCT050
                       BKN120=
202204270536 TAF KSEA 270536Z 2706/2812 19008KT P6SM SCT035 FM271500 22006KT
                       P6SM SCT035 BKN050 FM280000 VRB04KT P6SM
                       SCT050 BKN120=
202204270253 KSEA 270253Z 2703/2806 22012KT P6SM FEW030 SCT080 FM270500 21008KT
                       P6SM SCT035 BKN090 FM270900 VRB05KT P6SM
                       SCT035 BKN050 FM271700 21005KT P6SM SCT035
                       BKN050 FM280300 VRB04KT P6SM OVC060=
202204270115 KSEA 270115Z 2701/2806 18010KT P6SM FEW030 SCT070 FM270500 21005KT
                       P6SM SCT035 BKN090 FM270900 VRB05KT P6SM
                       SCT035 BKN050 FM271700 21005KT P6SM SCT035
                       BKN050=
202204262333 TAF KSEA 262333Z 2700/2806 21013G20KT P6SM VCSH SCT035 BKN070 FM270300
                       21005KT P6SM SCT035 BKN090 FM270900 VRB05KT
                       P6SM SCT035 BKN050 FM271700 21005KT P6SM
                       SCT035 BKN050=
202204262107 KSEA 262107Z 2621/2724 21013G20KT P6SM -SHRA SCT030 BKN040 BKN200
                       FM270100 22010G16KT P6SM BKN035 BKN070 FM270800
                       VRB05KT P6SM SCT035 BKN050 FM271700 21005KT
                       P6SM SCT035 BKN050=
202204261747 TAF KSEA 261747Z 2618/2724 20009KT P6SM -SHRA FEW020 BKN035 BKN050
                       FM270000 22011KT P6SM BKN035 BKN050 FM270800
                       VRB05KT P6SM SCT035 BKN050 FM271700 21005KT
                       P6SM SCT035 BKN050=
202204261502 KSEA 261502Z 2615/2718 19007KT P6SM FEW015 SCT050 FM261900 20009KT
                       P6SM -SHRA BKN035 BKN050 FM270600 18006KT
                       P6SM SCT035 BKN050=
202204261136 TAF KSEA 261136Z 2612/2718 20006KT P6SM SCT020
                      TEMPO 2612/2615 BKN020 FM261600 20006KT P6SM
                       SCT035 BKN050 FM262000 20012KT P6SM -SHRA
                       BKN035 BKN050 FM270600 18006KT P6SM SCT035
                       BKN050=
202204260905 KSEA 260905Z 2609/2712 20006KT P6SM SCT035 BKN060 FM261400 20006KT
                       P6SM SCT020 BKN035 OVC050 FM261900 20010KT
                       P6SM -SHRA BKN035 BKN050=
202204260537 TAF KSEA 260537Z 2606/2712 20006KT P6SM SCT035 BKN060 FM261400
                       20006KT P6SM SCT020 BKN035 OVC050 FM261900
                       20010KT P6SM -SHRA BKN035 BKN050=
202204260259 KSEA 260259Z 2603/2706 20010KT P6SM SCT035 BKN080 FM260900 19005KT
                       P6SM BKN050 FM261400 19007KT P6SM VCSH OVC035
                       FM261900 21010KT P6SM VCSH OVC040=
202204252341 TAF KSEA 252341Z 2600/2706 15008KT P6SM VCSH FEW030 BKN060 FM260900
                       19005KT P6SM BKN050 FM261400 19007KT P6SM
                       VCSH OVC035=
202204252108 KSEA 252108Z 2521/2624 19007KT P6SM VCSH SCT030 BKN080 FM260900
                       19005KT P6SM BKN050 FM261500 19007KT P6SM
                       VCSH OVC035=
202204251738 TAF KSEA 251738Z 2518/2624 21010KT P6SM VCSH SCT070 BKN080 FM252100
                       22010KT P6SM SCT030 BKN080 FM260900 19005KT
                       P6SM BKN050 FM261500 19007KT P6SM VCSH OVC035=
202204251510 KSEA 251510Z 2515/2618 21007KT P6SM VCSH SCT030 OVC050 FM252100
                       24008KT P6SM OVC050 FM260900 19005KT P6SM
                       OVC050 FM261400 18007KT P6SM VCSH OVC025=
202204251135 TAF KSEA 251135Z 2512/2618 14008KT P6SM -RA SCT015 OVC025 FM251800
                       21008KT P6SM VCSH SCT025 OVC030 FM252100
                       24008KT P6SM OVC050 FM260900 19005KT P6SM
                       OVC050 FM261400 18007KT P6SM VCSH OVC025=
202204251030 KSEA 251030Z 2511/2612 14008KT P6SM -RA SCT015 OVC025 FM251800
                       21008KT P6SM VCSH SCT025 OVC030 FM252100
                       24008KT P6SM OVC050 FM260900 19005KT P6SM
                       OVC050=
202204250903 KSEA 250903Z 2509/2612 17005KT 6SM -RA BR SCT020 BKN050 OVC060
                       FM251300 18008KT P6SM -RA OVC025 FM251800
                       21008KT P6SM VCSH SCT025 OVC030 FM252100
                       24008KT P6SM OVC050 FM260900 19005KT P6SM
                       OVC050=
202204250534 TAF KSEA 250534Z 2506/2612 25010KT P6SM FEW040 SCT100 FM250900
                       21006KT P6SM BKN030 OVC060 FM251300 21006KT
                       P6SM -RA SCT015 OVC030 FM251800 21008KT
                       P6SM VCSH SCT025 OVC030 FM252100 24008KT
                       P6SM OVC050=
202204250234 KSEA 250234Z 2503/2606 25010KT P6SM FEW040 SCT100 FM250900 21006KT
                       P6SM BKN030 OVC060 FM251400 21006KT P6SM
                       -SHRA SCT015 OVC025 FM251800 21008KT P6SM
                       SCT025 OVC030 FM252200 21009KT P6SM SCT030
                       OVC050=
202204242322 TAF KSEA 242322Z 2500/2606 22009KT P6SM SCT050 BKN120 FM250900
                       21006KT P6SM -RA BKN030 OVC060 FM251400
                       21006KT P6SM -SHRA SCT015 OVC025 FM251800
                       21008KT P6SM SCT025 OVC030 FM252200 21009KT
                       P6SM SCT030 OVC050=
202204242056 KSEA 242056Z 2421/2524 23007KT P6SM SCT250 FM242300 22009KT P6SM
                       SCT050 BKN120 FM250900 21006KT P6SM -RA
                       BKN030 OVC060 FM251400 21006KT P6SM -SHRA
                       SCT015 OVC025 FM251800 21008KT P6SM -SHRA
                       SCT025 OVC030=
202204241723 TAF KSEA 241723Z 2418/2524 19007KT P6SM SCT250 FM242300 22009KT
                       P6SM BKN120 FM250900 21006KT P6SM -RA BKN035
                       OVC060 FM251400 21006KT P6SM -SHRA SCT015
                       OVC025 FM251800 21008KT P6SM -SHRA SCT025
                       OVC030=
202204241502 KSEA 241502Z 2415/2518 14005KT P6SM SCT250 FM241700 20005KT P6SM
                       SCT100 BKN250 FM242300 22011KT P6SM BKN120
                       FM251000 21008KT P6SM -RA BKN040 OVC060=
202204241133 TAF KSEA 241133Z 2412/2518 14005KT P6SM SCT250 FM241700 20005KT
                       P6SM SCT100 BKN250 FM242300 22011KT P6SM
                       BKN120 FM251000 21008KT P6SM -RA BKN040
                       OVC060=
202204240901 KSEA 240901Z 2409/2512 17004KT P6SM SCT250 FM241700 20005KT P6SM
                       SCT100 BKN250 FM242300 22011KT P6SM BKN120
                       FM250800 21008KT P6SM -RA BKN040 OVC060=
202204240521 TAF KSEA 240521Z 2406/2512 VRB03KT P6SM SCT250 FM241400 17004KT
                       P6SM SCT100 BKN250 FM242300 22011KT P6SM
                       BKN120 FM250900 21008KT P6SM -RA BKN040
                       OVC060=
202204240254 KSEA 240254Z 2403/2506 VRB03KT P6SM SCT250 FM241100 17004KT P6SM
                       BKN250 FM242300 22011KT P6SM BKN120=
202204232331 TAF KSEA 232331Z 2400/2506 22007KT P6SM SCT200 BKN250 FM240600
                       35004KT P6SM BKN250 FM241100 17004KT P6SM
                       SCT200 BKN250 FM242300 22011KT P6SM BKN120=
202204232142 KSEA 232142Z 2322/2424 22007KT P6SM SCT250 FM240100 26005KT P6SM
                       SCT200 FM240800 17004KT P6SM BKN200 FM241600
                       21004KT P6SM SCT120 BKN200=
202204231729 TAF KSEA 231729Z 2318/2424 22006KT P6SM BKN015 FM231900 22007KT
                       P6SM SCT250 FM240100 26005KT P6SM SCT200
                       FM240800 17004KT P6SM BKN200 FM241600 21004KT
                       P6SM SCT120 BKN200=
202204231456 KSEA 231456Z 2315/2418 20005KT P6SM BKN009 OVC020
                      TEMPO 2316/2318 SCT012 SCT200 FM231800 25006KT
                       P6SM SCT040 SCT200 FM240100 26005KT P6SM
                       SCT200 FM240800 VRB04KT P6SM BKN200 FM241300
                       17004KT P6SM SCT120 BKN200=
202204231207 KSEA 231207Z 2312/2418 20007KT P6SM OVC009
                      TEMPO 2316/2318 SCT012 SCT200 FM231800 25006KT
                       P6SM SCT040 SCT200 FM240100 26005KT P6SM
                       SCT200 FM240800 VRB04KT P6SM BKN200 FM241300
                       17004KT P6SM SCT120 BKN200=
202204231131 TAF KSEA 231131Z 2312/2418 19005KT P6SM SCT015 BKN040
                      TEMPO 2312/2316 BKN011 FM231800 25006KT P6SM
                       SCT050 FM240200 26005KT P6SM SCT200 FM240800
                       VRB04KT P6SM BKN200 FM241300 17004KT P6SM
                       SCT120 BKN200=
202204230900 KSEA 230900Z 2309/2412 17004KT P6SM BKN040 FM231200 19005KT P6SM
                       SCT015 BKN040
                      TEMPO 2313/2317 BKN015 FM231800 25006KT P6SM
                       SCT050 FM240200 26005KT P6SM SCT200 FM240800
                       17004KT P6SM SCT200=
202204230749 KSEA 230749Z 2308/2412 17004KT P6SM BKN040 FM231200 19005KT P6SM
                       SCT015 BKN040
                      TEMPO 2313/2317 BKN015 FM231800 25006KT P6SM
                       SCT050 FM240200 26005KT P6SM SCT200 FM240800
                       17004KT P6SM SCT200=
202204230538 TAF KSEA 230538Z 2306/2412 VRB04KT P6SM FEW030 BKN060 FM230900
                       VRB04KT P6SM SCT050 SCT200 FM231200 19005KT
                       P6SM SCT015 BKN050
                      TEMPO 2313/2317 BKN015 FM231800 25006KT P6SM
                       SCT050 FM240200 26005KT P6SM SCT200 FM240800
                       17004KT P6SM SCT200=
202204230234 KSEA 230234Z 2303/2406 30004KT P6SM FEW030 BKN060 FM230900 VRB04KT
                       P6SM BKN050 BKN250 FM231400 19005KT P6SM
                       SCT015 BKN050 FM231800 25007KT P6SM SCT050=
202204222324 TAF KSEA 222324Z 2300/2406 25006KT P6SM SCT050 FM230300 28004KT
                       P6SM SCT050 FM230900 18004KT P6SM BKN050
                       BKN250 FM231400 21005KT P6SM SCT015 BKN025
                       BKN050 FM231800 25007KT P6SM SCT050=
202204222109 KSEA 222109Z 2221/2324 27006KT P6SM SCT025 BKN060 FM230300 35004KT
                       P6SM SCT050 BKN250 FM230900 19004KT P6SM
                       BKN050 BKN250 FM231400 20005KT P6SM BKN025
                       BKN050 FM231800 23007KT P6SM SCT050=
202204221732 TAF KSEA 221732Z 2218/2324 26003KT P6SM VCSH SCT010 OVC035 FM221900
                       27006KT P6SM BKN050 BKN250 FM230300 35004KT
                       P6SM SCT050 BKN250 FM230900 19004KT P6SM
                       BKN050 BKN250 FM231400 20005KT P6SM BKN025
                       BKN050 FM231800 23007KT P6SM SCT050=
202204221514 KSEA 221514Z 2215/2318 17003KT P6SM OVC035
                      TEMPO 2215/2217 1/2SM FG BKN002 OVC035 FM221900
                       25006KT P6SM BKN050 BKN250 FM230100 33004KT
                       P6SM SCT050 BKN250 FM230900 19004KT P6SM
                       BKN050 BKN250 FM231400 20005KT P6SM SCT015
                       BKN050
                      TEMPO 2314/2318 BKN015 OVC050=
202204221459 KSEA 221459Z 2215/2318 17003KT P6SM OVC035
                      TEMPO 2215/2216 2SM -SHRA BR SCT002 OVC035
                       FM221900 25006KT P6SM BKN050 BKN250 FM230100
                       33004KT P6SM SCT050 BKN250 FM230900 19004KT
                       P6SM BKN050 BKN250 FM231400 20005KT P6SM
                       SCT015 BKN050
                      TEMPO 2314/2318 BKN015 OVC050=
202204221121 TAF KSEA 221121Z 2212/2318 00000KT P6SM BKN040
                      TEMPO 2212/2216 2SM BR SCT003 OVC040 FM221900
                       25006KT P6SM BKN050 BKN250 FM230100 33004KT
                       P6SM SCT050 BKN250 FM230900 19004KT P6SM
                       BKN050 BKN250 FM231400 20005KT P6SM SCT015
                       BKN050
                      TEMPO 2314/2318 BKN015 OVC050=
202204220904 KSEA 220904Z 2209/2312 14003KT P6SM SCT040 BKN200
                      TEMPO 2212/2216 2SM BR SCT003 BKN040 FM221900
                       25006KT P6SM BKN050 BKN250 FM230100 33004KT
                       P6SM SCT050 BKN250 FM230900 19004KT P6SM
                       SCT050 BKN250=
202204220527 TAF KSEA 220527Z 2206/2312 15005KT P6SM FEW060 BKN100 FM220900
                       VRB03KT P6SM BKN050 BKN200 FM221900 25006KT
                       P6SM BKN050 BKN250 FM230100 33004KT P6SM
                       SCT050 BKN250 FM230900 19004KT P6SM SCT050
                       BKN250=
202204220257 KSEA 220257Z 2203/2306 20003KT P6SM FEW035 BKN050 FM220500 19003KT
                       P6SM -SHRA BKN050 FM220900 02002KT P6SM
                       BKN050 BKN200 FM221700 27003KT P6SM BKN050
                       BKN250=
202204220239 KSEA 220239Z 2203/2306 20003KT 4SM -RA BR FEW025 OVC040 FM220500
                       19003KT P6SM -SHRA BKN050 FM220900 02002KT
                       P6SM BKN050 BKN200 FM221700 27003KT P6SM
                       BKN050 BKN250=
202204212329 TAF KSEA 212329Z 2200/2306 23008KT P6SM -SHRA FEW030 SCT050 BKN200
                       FM220200 23003KT P6SM BKN050 BKN200 FM220700
                       02002KT P6SM BKN050 BKN200 FM221700 27003KT
                       P6SM BKN050 BKN250=
202204212104 KSEA 212104Z 2121/2224 22011G18KT P6SM -SHRA FEW040 SCT060 BKN250
                       FM220200 04003KT P6SM BKN050 BKN250 FM221700
                       34003KT P6SM BKN050 BKN250=
202204211735 TAF KSEA 211735Z 2118/2224 20013G18KT P6SM FEW022 SCT050 BKN070
                       FM212100 20010G18KT P6SM VCSH FEW025 BKN050
                       FM220500 04003KT P6SM BKN050 BKN250 FM221700
                       34003KT P6SM BKN050 BKN250=
202204211503 KSEA 211503Z 2115/2218 19007KT P6SM -SHRA SCT035 OVC045 FM212100
                       20009KT P6SM VCSH OVC050 FM220500 07003KT
                       P6SM BKN050 BKN250=
202204211242 KSEA 211242Z 2113/2218 18005KT P6SM -SHRA SCT030 OVC045
                      TEMPO 2113/2117 5SM -SHRA BR OVC030 FM212100
                       20009KT P6SM VCSH OVC050 FM220500 VRB03KT
                       P6SM BKN050 BKN250=
202204211120 TAF KSEA 211120Z 2112/2218 18008KT P6SM -RA FEW005 BKN025 OVC040
                       TEMPO 2112/2114 4SM -RA BR BKN005 OVC025
                       FM212100 20009KT P6SM VCSH OVC050 FM220500
                       VRB03KT P6SM BKN050 BKN250=
202204210901 KSEA 210901Z 2109/2212 VRB03KT P6SM OVC100 FM211300 16005KT P6SM
                       -SHRA OVC025 FM212100 20009KT P6SM VCSH
                       OVC050 FM220500 VRB03KT P6SM SCT050 BKN250=
202204210520 TAF KSEA 210520Z 2106/2212 20003KT P6SM SCT050 BKN250 FM211300
                       16005KT P6SM -SHRA OVC025 FM212100 20009KT
                       P6SM VCSH OVC050 FM220500 VRB03KT P6SM SCT050
                       BKN250=
202204210301 KSEA 210301Z 2103/2206 17007KT P6SM VCSH OVC040
                      TEMPO 2103/2105 6SM -SHRA FM210500 15005KT
                       P6SM BKN050 BKN100 FM211300 16005KT P6SM
                       -SHRA OVC015 FM212100 20009KT P6SM VCSH
                       OVC050=
202204202331 TAF KSEA 202331Z 2100/2206 14007KT P6SM -RA OVC040 FM210500 15005KT
                       P6SM BKN050 BKN100 FM211300 16005KT P6SM
                       -SHRA OVC015 FM212100 20009KT P6SM VCSH
                       OVC050=
202204202107 KSEA 202107Z 2021/2124 14005KT P6SM -RA BKN045 OVC060 FM210000
                       16010KT P6SM -RA OVC030 FM210500 13005KT
                       P6SM BKN050 BKN100 FM211300 16005KT P6SM
                       -SHRA OVC015 FM212100 20009KT P6SM VCSH
                       OVC050=
202204201732 TAF KSEA 201732Z 2018/2124 03004KT P6SM FEW040 BKN130 OVC200 FM202100
                       11012KT P6SM -RA OVC050 FM210000 16010KT
                       P6SM -RA OVC030 FM210500 13005KT P6SM BKN050
                       BKN100 FM211300 16005KT P6SM -SHRA OVC015
                       FM212100 20009KT P6SM VCSH OVC050=
202204201453 KSEA 201453Z 2015/2118 07005KT P6SM FEW040 FEW100 BKN250 FM202100
                       11012KT P6SM -RA OVC050 FM210000 16010KT
                       P6SM -RA OVC030 FM210500 13005KT P6SM BKN050
                       BKN100 FM211300 16005KT P6SM -SHRA OVC015=
202204201126 TAF KSEA 201126Z 2012/2118 15003KT P6SM SCT250 FM201500 07005KT
                       P6SM BKN150 BKN250 FM202100 11012KT P6SM
                       -RA OVC050 FM210000 16010KT P6SM -RA OVC030
                       FM210500 13005KT P6SM BKN050 BKN100 FM211300
                       16005KT P6SM -SHRA OVC015=
202204200900 KSEA 200900Z 2009/2112 12006KT P6SM BKN250 FM201100 04006KT P6SM
                       SCT120 BKN250 FM202100 02011KT P6SM -RA
                       OVC050 FM210000 02014KT P6SM -RA OVC030
                       FM210500 13005KT P6SM BKN050 BKN100=
202204200520 TAF KSEA 200520Z 2006/2112 01004KT P6SM FEW050 SCT100 FM201100
                       04006KT P6SM SCT120 BKN250 FM202100 02011KT
                       P6SM -RA OVC050 FM210000 02014KT P6SM -RA
                       OVC030 FM210500 13005KT P6SM BKN050 BKN100=
202204200301 KSEA 200301Z 2003/2106 23005KT P6SM SCT045 BKN100 FM200600 16007KT
                       P6SM SCT050 BKN250 FM201100 04006KT P6SM
                       SCT120 BKN250 FM202100 02011KT P6SM -SHRA
                       OVC050 FM210000 02014KT P6SM -SHRA OVC030=
202204192335 TAF KSEA 192335Z 2000/2106 VRB06KT P6SM VCSH SCT035 SCT160 SCT250
                       FM200100 21005KT P6SM SCT050 BKN100 FM200600
                       16007KT P6SM SCT050 BKN250 FM201100 04006KT
                       P6SM SCT120 BKN250 FM202100 02011KT P6SM
                       -SHRA OVC050 FM210000 02014KT P6SM -SHRA
                       OVC030=
202204192107 KSEA 192107Z 1921/2024 23006KT P6SM VCSH SCT025 BKN070 BKN250 FM200100
                       21005KT P6SM SCT050 BKN100 FM200600 08007KT
                       P6SM SCT050 BKN250 FM201000 04006KT P6SM
                       SCT120 BKN250 FM202100 02011KT P6SM -SHRA
                       OVC050=
202204191730 TAF KSEA 191730Z 1918/2024 20012KT P6SM VCSH SCT015 BKN080
                      TEMPO 1918/1919 BKN015 FM191900 22007KT P6SM
                       VCSH SCT025 BKN070 FM200000 21005KT P6SM
                       SCT050 BKN100 FM200600 08007KT P6SM BKN250
                       FM201000 04006KT P6SM SCT120 BKN250 FM202100
                       02011KT P6SM -SHRA OVC050=
202204191504 KSEA 191504Z 1915/2018 22009KT P6SM VCSH FEW010 SCT025 BKN060
                      TEMPO 1915/1919 -SHRA BKN025 FM192000 22007KT
                       P6SM VCSH SCT025 BKN050 FM200000 21005KT
                       P6SM SCT050 SCT200 FM200600 13005KT P6SM
                       BKN250 FM201300 06005KT P6SM SCT120 BKN250=
202204191120 TAF KSEA 191120Z 1912/2018 21010G18KT P6SM VCSH SCT020 OVC040
                      TEMPO 1912/1916 -SHRA OVC020 FM192000 22007KT
                       P6SM VCSH SCT025 BKN050 FM200000 21005KT
                       P6SM SCT050 SCT200 FM200600 13005KT P6SM
                       BKN250 FM201300 06005KT P6SM SCT120 BKN250=
202204190858 KSEA 190858Z 1909/2012 19013G20KT P6SM SCT025 BKN100
                      TEMPO 1909/1912 BKN025 OVC060 FM191200 18010KT
                       P6SM -SHRA OVC020 FM192000 22007KT P6SM
                       VCSH SCT025 BKN050 FM200000 21005KT P6SM
                       SCT050 SCT200=
202204190703 KSEA 190703Z 1907/2012 19010KT P6SM SCT023 BKN060
                      TEMPO 1908/1912 BKN023 OVC060 FM191200 18008KT
                       P6SM -SHRA OVC020 FM192000 22007KT P6SM
                       VCSH SCT025 BKN050 FM200000 21005KT P6SM
                       SCT050 SCT200=
202204190520 TAF KSEA 190520Z 1906/2012 20010G18KT P6SM BKN020 OVC030 FM191200
                       18008KT P6SM -SHRA OVC020 FM192000 22007KT
                       P6SM VCSH SCT025 BKN050 FM200000 21005KT
                       P6SM SCT050 SCT200=
202204190304 KSEA 190304Z 1903/2006 21015G25KT P6SM VCSH BKN022 BKN040 FM190600
                       21012KT P6SM VCSH BKN030 BKN050 FM191000
                       18010KT P6SM VCSH OVC020 FM191700 22007KT
                       P6SM SCT025 BKN050=
202204190138 KSEA 190138Z 1902/2006 21014G23KT 6SM -SHRA BR BKN025 BKN040 FM190600
                       21012KT P6SM -SHRA BKN030 BKN050 FM191000
                       18010KT P6SM VCSH OVC020 FM191700 22007KT
                       P6SM SCT025 BKN050=
202204182320 TAF KSEA 182320Z 1900/2006 18012G22KT 6SM -RA BR OVC030 FM190600
                       21012KT P6SM -SHRA BKN020 BKN050 FM191000
                       18010KT P6SM VCSH OVC020 FM191700 22007KT
                       P6SM SCT025 BKN050=
202204182112 KSEA 182112Z 1821/1924 VRB05KT 5SM -RA BR OVC035 FM182300 18012G22KT
                       6SM -RA BR OVC030 FM190600 21012KT P6SM
                       -SHRA BKN020 BKN050 FM191000 18010KT P6SM
                       VCSH OVC020 FM191700 22007KT P6SM SCT025
                       BKN050=
202204181720 TAF KSEA 181720Z 1818/1924 VRB05KT P6SM -RA OVC050 FM182100 18012KT
                       P6SM -RA OVC035 FM190000 18012G22KT 6SM
                       -RA BR OVC030 FM190600 21012KT P6SM -SHRA
                       BKN020 BKN050 FM191000 18010KT P6SM VCSH
                       OVC020 FM191700 22007KT P6SM SCT025 BKN050=
202204181604 KSEA 181604Z 1816/1918 VRB05KT P6SM -RA OVC050 FM182200 20012G20KT
                       6SM -RA BR OVC035 FM190200 18010KT 6SM -RA
                       BR OVC020 FM190800 19010KT P6SM VCSH OVC020=
202204181506 KSEA 181506Z 1815/1918 12008KT P6SM -RA OVC050 FM182200 20012G20KT
                       6SM -RA BR OVC035 FM190200 18010KT 6SM -RA
                       BR OVC020 FM190800 19010KT P6SM VCSH OVC020=
202204181126 TAF KSEA 181126Z 1812/1918 10007KT P6SM -SHRA SCT025 BKN035 FM181400
                       08010KT P6SM -RA SCT020 OVC030 FM182200
                       20012G20KT 6SM -RA BR OVC025 FM190200 18009KT
                       6SM -RA BR OVC020 FM190800 19010KT P6SM
                       VCSH OVC020=
202204180905 KSEA 180905Z 1809/1912 14007KT P6SM VCSH SCT040 OVC050 FM181000
                       10010KT P6SM -SHRA BKN040 FM181400 08010KT
                       P6SM -RA OVC030 FM182200 20012G20KT 6SM
                       -RA BR OVC025 FM190200 18009KT P6SM -RA
                       OVC020=
202204180520 TAF KSEA 180520Z 1806/1912 14007KT P6SM SCT050 OVC100 FM181000
                       10010KT P6SM BKN050 FM181400 08010KT P6SM
                       VCSH BKN040 FM181700 08010KT P6SM -RA OVC030
                       FM182200 20012G20KT 6SM -RA BR OVC025=
202204180259 KSEA 180259Z 1803/1906 VRB03KT P6SM BKN100 OVC200 FM180500 18007KT
                       P6SM SCT050 OVC080 FM181000 10010KT P6SM
                       BKN050 FM181400 08010KT P6SM VCSH BKN040
                       FM181700 08010KT P6SM -RA OVC030 FM182200
                       20012G20KT 6SM -RA BR OVC025=
202204180258 KSEA 180258Z 1803/1906 35006KT P6SM BKN100 OVC200 FM180500 18007KT
                       P6SM SCT050 OVC080 FM181000 10010KT P6SM
                       BKN050 FM181400 08010KT P6SM VCSH BKN040
                       FM181700 08010KT P6SM -RA OVC030 FM182200
                       20012G20KT 6SM -RA BR OVC025=
202204172345 TAF KSEA 172345Z 1800/1906 35006KT P6SM SCT100 FM180400 18007KT
                       P6SM SCT050 OVC100 FM180800 10010KT P6SM
                       BKN050 FM181400 08010KT P6SM -RA BKN040
                       FM181700 04007KT P6SM -RA OVC050=
202204172105 KSEA 172105Z 1721/1824 28008KT P6SM SCT030 SCT060 FM172200 33007KT
                       P6SM SCT100 FM180200 18007KT P6SM SCT050
                       OVC100 FM180800 10010KT P6SM BKN050 FM181400
                       08010KT P6SM -RA BKN040 FM181700 04007KT
                       P6SM -RA OVC050=
202204171730 TAF KSEA 171730Z 1718/1824 16005KT P6SM SCT030 SCT150 FM172200
                       33007KT P6SM SCT100 SCT250 FM180200 18007KT
                       P6SM SCT050 OVC100 FM180800 10010KT P6SM
                       BKN050 FM181400 08010KT P6SM -RA BKN040
                       FM181700 04007KT P6SM -RA OVC050=
202204171510 KSEA 171510Z 1715/1818 16005KT P6SM SCT030 SCT150 FM172200 33007KT
                       P6SM SCT100 SCT250 FM180200 18007KT P6SM
                       SCT050 OVC100 FM180800 10010KT P6SM BKN050
                       FM181400 08010KT P6SM -RA BKN040=
202204171210 KSEA 171210Z 1712/1818 19008KT P6SM SCT030 BKN050 FM172200 33007KT
                       P6SM SCT100 SCT250 FM180200 18007KT P6SM
                       SCT050 OVC100 FM180800 10010KT P6SM BKN050=
202204171120 TAF KSEA 171120Z 1712/1818 19008KT P6SM VCSH SCT030 BKN050 FM172200
                       33007KT P6SM SCT100 SCT250 FM180200 18007KT
                       P6SM SCT050 OVC100 FM180800 10010KT P6SM
                       BKN050=
202204170904 KSEA 170904Z 1709/1812 19008KT P6SM VCSH SCT030 BKN060
                      TEMPO 1709/1713 BKN020 OVC030 FM172200 33007KT
                       P6SM SCT100 SCT250 FM180200 10007KT P6SM
                       SCT050 OVC100=
202204170527 TAF KSEA 170527Z 1706/1812 19008KT P6SM VCSH SCT030 BKN060 FM170800
                       16006KT P6SM BKN060 FM172200 33007KT P6SM
                       SCT100 SCT250 FM180200 06007KT P6SM SCT050
                       OVC100=
202204170301 KSEA 170301Z 1703/1806 16008KT P6SM -SHRA BKN040 BKN060 FM170800
                       16006KT P6SM BKN050 FM172200 35007KT P6SM
                       SCT100=
202204162322 TAF KSEA 162322Z 1700/1806 23009KT P6SM -SHRA SCT030 OVC040 FM170200
                       19007KT P6SM BKN040 FM171400 15005KT P6SM
                       BKN050 FM172200 35007KT P6SM SCT100=
202204162122 KSEA 162122Z 1621/1724 01010KT P6SM VCSH SCT015 OVC100 FM162200
                       23010KT P6SM -SHRA OVC040 FM170200 19007KT
                       P6SM BKN040 FM171400 15005KT P6SM BKN050
                       FM171900 34007KT P6SM SCT100=
202204161738 TAF KSEA 161738Z 1618/1724 01010KT P6SM VCSH SCT015 OVC100 FM162200
                       21010KT P6SM -SHRA OVC040 FM170200 19007KT
                       P6SM BKN040=
202204161503 KSEA 161503Z 1615/1718 02012KT P6SM SCT050 BKN150 FM161800 32010KT
                       P6SM VCSH BKN050 OVC100 FM162200 21010KT
                       P6SM -SHRA OVC040 FM170200 19007KT P6SM
                       BKN040=
202204161120 TAF KSEA 161120Z 1612/1718 04007KT P6SM SCT050 BKN100 FM161800
                       32005KT P6SM VCSH BKN050 OVC100 FM162200
                       21010KT P6SM -SHRA OVC040 FM170200 19007KT
                       P6SM BKN040=
202204160902 KSEA 160902Z 1609/1712 02008KT P6SM BKN070 BKN120 FM161200 04007KT
                       P6SM SCT050 BKN090 FM161800 32005KT P6SM
                       VCSH BKN050 OVC100 FM162200 21010KT P6SM
                       -SHRA OVC040 FM170200 20007KT P6SM BKN040=
202204160525 TAF KSEA 160525Z 1606/1712 31005KT P6SM SCT050 SCT100 FM160800
                       02006KT P6SM BKN070 BKN120 FM161200 04007KT
                       P6SM SCT050 BKN090 FM161800 32005KT P6SM
                       VCSH BKN050 OVC100 FM162200 21010KT P6SM
                       -SHRA OVC040 FM170200 20006KT P6SM BKN040=
202204160321 KSEA 160321Z 1603/1706 21005KT P6SM SCT050 SCT100 FM160800 02006KT
                       P6SM BKN070 BKN120 FM161200 04007KT P6SM
                       SCT050 BKN090 FM161800 32005KT P6SM VCSH
                       BKN050 OVC100 FM162200 21010KT P6SM -SHRA
                       OVC040=
202204160301 KSEA 160301Z 1603/1706 21005KT P6SM SCT050 SCT100 FM161200 00000KT
                       P6SM SCT050 BKN090 FM161800 21007KT P6SM
                       VCSH BKN050 OVC100 FM162300 20010KT P6SM
                       -SHRA OVC040=
202204152320 TAF KSEA 152320Z 1600/1706 VRB04KT P6SM SCT050 SCT100 FM161200
                       00000KT P6SM SCT050 BKN090 FM161800 21007KT
                       P6SM VCSH BKN050 OVC100 FM162300 20010KT
                       P6SM -SHRA OVC040=
202204152105 KSEA 152105Z 1521/1624 VRB04KT P6SM SCT050 SCT100 FM162200 21007KT
                       P6SM BKN050=
202204151720 TAF KSEA 151720Z 1518/1624 23006KT P6SM SCT025 BKN050 FM152200
                       VRB04KT P6SM SCT050 BKN100 FM160500 VRB04KT
                       P6SM SCT050 SCT100 FM162200 21007KT P6SM
                       BKN050=
202204151457 KSEA 151457Z 1515/1618 19004KT P6SM FEW008 BKN022 OVC030 FM151700
                       21005KT P6SM SCT025 BKN050 FM152100 22005KT
                       P6SM SCT050 BKN100 FM160300 03007KT P6SM
                       BKN100=
202204151122 TAF KSEA 151122Z 1512/1618 17005KT P6SM BKN007 FM151500 20005KT
                       P6SM BKN015 FM151700 21005KT P6SM BKN050
                       FM152100 22005KT P6SM SCT050 BKN100 FM160300
                       03007KT P6SM BKN100=
202204150901 KSEA 150901Z 1509/1612 17005KT P6SM SCT040 BKN070 FM151000 20004KT
                       P6SM SCT010 SCT040 BKN070
                      TEMPO 1510/1514 BKN010 OVC050 FM151700 20005KT
                       P6SM SCT030 BKN050 FM152100 22005KT P6SM
                       SCT050 BKN100=
202204150527 KSEA 150527Z 1506/1612 22005KT P6SM -SHRA SCT015 OVC020
                      TEMPO 1506/1507 3SM -SHRA BKN015 FM151000
                       20004KT P6SM SCT010 BKN050 BKN100
                      TEMPO 1510/1514 BKN010 OVC050 FM151700 20005KT
                       P6SM SCT030 BKN050 FM152100 22005KT P6SM
                       SCT050 BKN100=
202204150524 TAF KSEA 150524Z 1506/1612 22005KT P6SM VCSH SCT013 OVC020
                      TEMPO 1506/1507 -SHRA BKN013 FM151000 20004KT
                       P6SM SCT010 BKN050 BKN100
                      TEMPO 1510/1514 BKN010 OVC050 FM151700 20005KT
                       P6SM SCT030 BKN050 FM152100 22005KT P6SM
                       SCT050 BKN100=
202204150304 KSEA 150304Z 1503/1606 18006KT P6SM SCT030 BKN150
                      TEMPO 1503/1507 -SHRA BKN030 BKN150 FM151000
                       00000KT P6SM SCT010 BKN050 BKN100
                      TEMPO 1510/1514 BKN010 OVC050 FM151700 VRB05KT
                       P6SM SCT030 BKN050=
202204142320 TAF KSEA 142320Z 1500/1606 VRB05KT P6SM VCSH BKN040 BKN100 FM151000
                       00000KT P6SM SCT010 BKN050 BKN100
                      TEMPO 1510/1514 BKN010 OVC050 FM151700 VRB05KT
                       P6SM SCT030 BKN050=
202204141720 TAF KSEA 141720Z 1418/1524 VRB05KT P6SM SCT015 OVC040
                      TEMPO 1418/1421 4SM -RA BR BKN012 OVC025
                       FM150600 00000KT P6SM SCT010 BKN050 OVC090
                       TEMPO 1510/1514 BKN010 OVC050 FM151700 VRB05KT
                       P6SM SCT015 BKN050 BKN090=
202204141428 KSEA 141428Z 1414/1518 17005KT P6SM -RA SCT005 SCT015 OVC050
                      TEMPO 1414/1417 3SM -RA BR BKN005 BKN012
                       OVC050 FM141800 VRB05KT P6SM VCSH SCT020
                       BKN050 BKN090 FM150600 14004KT P6SM OVC060=
202204141302 KSEA 141302Z 1413/1518 17005KT P6SM -SHRA BKN050 OVC070
                      TEMPO 1413/1416 6SM -SHRA SCT030 OVC050 FM141800
                       VRB05KT P6SM VCSH BKN050 BKN090 FM150600
                       14004KT P6SM OVC060=
202204141206 KSEA 141206Z 1412/1518 16005KT P6SM VCSH BKN050 OVC070
                      TEMPO 1413/1416 6SM -SHRA SCT030 OVC050 FM141800
                       VRB05KT P6SM VCSH BKN050 BKN090 FM150600
                       14004KT P6SM OVC060=
202204141120 TAF KSEA 141120Z 1412/1518 11005KT P6SM VCSH OVC028
                      TEMPO 1412/1416 6SM -SHRA FM141800 VRB05KT
                       P6SM VCSH BKN050 BKN090 FM150600 14004KT
                       P6SM OVC060=
202204140905 KSEA 140905Z 1409/1512 VRB04KT P6SM VCSH FEW010 OVC040
                      TEMPO 1409/1412 -SHRA FM141800 VRB05KT P6SM
                       VCSH BKN050 BKN090 FM150600 15004KT P6SM
                       OVC100=
202204140826 KSEA 140826Z 1408/1512 00000KT P6SM FEW007 BKN070 OVC100
                      TEMPO 1408/1412 BKN007 FM141800 VRB05KT P6SM
                       VCSH BKN050 BKN090 FM150600 15004KT P6SM
                       OVC100=
202204140740 KSEA 140740Z 1408/1512 VRB03KT P6SM BKN007 OVC080 FM141800 VRB05KT
                       P6SM VCSH BKN050 BKN090 FM150600 15004KT
                       P6SM OVC100=
202204140526 TAF KSEA 140526Z 1406/1512 19004KT P6SM SCT080 FM141000 VRB05KT
                       P6SM SCT010 SCT090 FM141800 VRB05KT P6SM
                       VCSH BKN050 BKN090 FM150600 15004KT P6SM
                       OVC100=
202204140302 KSEA 140302Z 1403/1506 24005KT P6SM VCSH FEW020 BKN100 FM140600
                       VRB03KT P6SM SCT050 BKN090 FM141000 00000KT
                       P6SM SCT010 SCT090 FM141800 VRB05KT P6SM
                       VCSH BKN050 BKN090=
202204132323 TAF KSEA 132323Z 1400/1506 VRB05KT P6SM VCSH BKN050 OVC090 FM140600
                       VRB03KT P6SM SCT050 BKN090 FM141000 00000KT
                       P6SM SCT010 SCT090 FM141800 VRB05KT P6SM
                       VCSH BKN050 BKN090=
202204132105 KSEA 132105Z 1321/1424 VRB05KT P6SM VCSH BKN040 OVC080 FM140600
                       VRB03KT P6SM SCT050 BKN090=
202204131720 TAF KSEA 131720Z 1318/1424 VRB04KT P6SM VCSH BKN050 OVC080 FM140600
                       VRB04KT P6SM SCT050 BKN090=
202204131502 KSEA 131502Z 1315/1418 02006KT P6SM OVC060 FM132000 35010KT P6SM
                       BKN060 FM140600 VRB03KT P6SM BKN060=
202204131301 KSEA 131301Z 1313/1418 02011KT P6SM FEW060 BKN110 FM131400 02006KT
                       P6SM OVC060 FM132000 35006KT P6SM BKN060
                       FM140300 09003KT P6SM OVC050=
202204131120 TAF KSEA 131120Z 1312/1418 36006KT P6SM FEW006 BKN120 FM131400
                       02006KT P6SM OVC060 FM132000 35006KT P6SM
                       BKN060 FM140300 09003KT P6SM OVC050=
202204130903 KSEA 130903Z 1309/1412 04006KT P6SM FEW100 SCT180 FM131000 11005KT
                       P6SM BKN070 FM131400 04009KT P6SM BKN070
                       FM132000 34006KT P6SM BKN060=
202204130521 TAF KSEA 130521Z 1306/1412 12004KT P6SM VCSH SCT050 FM131000 11005KT
                       P6SM BKN070 FM131400 04009KT P6SM BKN070
                       FM132000 34006KT P6SM BKN060=
202204130306 KSEA 130306Z 1303/1406 20010KT P6SM VCSH BKN045 FM130500 18007KT
                       P6SM BKN050 FM131000 11005KT P6SM BKN070
                       FM131400 04009KT P6SM BKN070 FM132000 34006KT
                       P6SM BKN060=
202204122327 TAF KSEA 122327Z 1300/1406 20010KT P6SM VCSH BKN045 FM130500 18007KT
                       P6SM BKN050 FM131000 11005KT P6SM BKN070
                       FM131400 04009KT P6SM BKN070 FM132000 34006KT
                       P6SM BKN060=
202204122100 KSEA 122100Z 1221/1324 18012G22KT P6SM VCSH BKN040 BKN120 FM130500
                       18007KT P6SM BKN050 FM131000 11005KT P6SM
                       BKN070=
202204121734 TAF KSEA 121734Z 1218/1324 18012G22KT P6SM VCSH BKN060 BKN250 FM130400
                       18007KT P6SM BKN050 FM131000 11005KT P6SM
                       BKN070=
202204121454 KSEA 121454Z 1215/1318 19012G20KT P6SM VCSH BKN015 OVC025 FM122100
                       20012G20KT 6SM -SHRA BKN040 FM130400 18007KT
                       P6SM BKN050=
202204121120 TAF KSEA 121120Z 1212/1318 18012G20KT P6SM VCSH SCT020 BKN035 FM122100
                       20012G20KT 6SM -SHRA BKN040 FM130400 18007KT
                       P6SM BKN050=
202204120906 KSEA 120906Z 1209/1312 18010KT P6SM FEW030 SCT070 BKN200 FM121200
                       18012KT P6SM VCSH BKN050 FM122100 20012G20KT
                       6SM -SHRA BKN040 FM130400 18007KT P6SM BKN050=
202204120533 TAF KSEA 120533Z 1206/1312 18010KT P6SM FEW030 SCT070 BKN200 FM121200
                       18012KT P6SM VCSH BKN050 FM122100 20012G20KT
                       6SM -SHRA BKN040 FM130400 18007KT P6SM BKN050=
202204120222 KSEA 120222Z 1202/1306 15010KT P6SM FEW030 SCT070 BKN200 FM120800
                       14012KT P6SM BKN050 FM122100 20011G18KT
                       P6SM BKN050=
202204112332 TAF KSEA 112332Z 1200/1306 33013G23KT P6SM SCT030 BKN150 FM120200
                       34011KT P6SM BKN070 FM120400 01008KT P6SM
                       BKN070 FM120800 14012KT P6SM BKN050 FM122100
                       20011G18KT P6SM BKN050=
202204112109 KSEA 112109Z 1121/1224 34014G25KT P6SM VCSH SCT050 BKN100 FM120200
                       30011KT P6SM VCSH BKN070 FM120400 23013KT
                       P6SM BKN050 FM120800 19012KT P6SM BKN050=
202204111737 TAF KSEA 111737Z 1118/1224 36020G26KT P6SM SCT015 OVC050 FM111900
                       36015G22KT P6SM VCSH OVC040 FM120200 30011KT
                       P6SM VCSH OVC040 FM120400 13009KT P6SM BKN050=
202204111502 KSEA 111502Z 1115/1218 35018G27KT P6SM -RA SCT015 OVC050 FM111900
                       01007KT P6SM VCSH OVC040 FM120400 18007KT
                       P6SM BKN050=
202204111120 TAF KSEA 111120Z 1112/1218 36015G25KT P6SM VCSH BKN015 OVC025 FM111500
                       36015G25KT P6SM -RA BKN015 OVC025 FM112000
                       01007KT P6SM -SHRA OVC040 FM120400 18007KT
                       P6SM BKN050=
202204110851 KSEA 110851Z 1109/1212 02009KT P6SM VCSH OVC040 FM111200 02010KT
                       P6SM -SHRA OVC025 FM111500 36015G20KT P6SM
                       -SHRA OVC030 FM112000 01007KT P6SM -RA OVC035
                       FM120400 26005KT P6SM BKN070=
202204110521 TAF KSEA 110521Z 1106/1212 12009KT P6SM VCSH SCT040 BKN070 FM110700
                       04009KT P6SM VCSH OVC030 FM111200 02010KT
                       P6SM -SHRA OVC025 FM111500 36015G20KT P6SM
                       -SHRA OVC030 FM112000 01007KT P6SM -RA OVC035
                       FM120400 26005KT P6SM BKN070=
202204110301 KSEA 110301Z 1103/1206 12012KT P6SM VCSH SCT040 BKN070 FM110700
                       04009KT P6SM VCSH OVC030 FM111200 02010KT
                       P6SM -SHRA OVC025 FM111500 36015G20KT P6SM
                       -RASN OVC030 FM112000 01007KT P6SM -RA OVC035
                       FM120400 26005KT P6SM BKN070=
202204102333 TAF KSEA 102333Z 1100/1206 21015KT P6SM VCSH SCT040 BKN110 BKN180
                       FM110400 04005KT P6SM VCSH OVC030 FM111200
                       02010KT P6SM -SHRA OVC025 FM111500 36015G20KT
                       P6SM -RASN OVC030 FM112000 01007KT P6SM
                       -RA OVC035 FM120400 26005KT P6SM BKN070=
202204102057 KSEA 102057Z 1021/1124 21006KT P6SM VCSH FEW030 BKN045 BKN060 FM102200
                       23007KT P6SM VCSH OVC040 FM110400 04005KT
                       P6SM -SHRA OVC030 FM111200 02010KT P6SM
                       -SHRA OVC025 FM112000 01007KT P6SM BKN035=
202204101723 TAF KSEA 101723Z 1018/1124 27006KT P6SM VCSH BKN013 OVC080 FM102200
                       23007KT P6SM VCSH OVC040 FM110400 04005KT
                       P6SM -SHRA OVC030 FM111200 02010KT P6SM
                       -SHRA OVC025 FM112000 01007KT P6SM BKN035=
202204101500 KSEA 101500Z 1015/1118 24006KT P6SM VCSH BKN008 BKN012 OVC025
                      TEMPO 1015/1018 6SM -RA BR FM102200 23007KT
                       P6SM VCSH OVC040 FM110400 04005KT P6SM -SHRA
                       OVC030=
202204101137 TAF KSEA 101137Z 1012/1118 20012G20KT 6SM -RA OVC015 FM102200 23007KT
                       P6SM VCSH OVC040 FM110400 04005KT P6SM -SHRA
                       OVC030=
202204100903 KSEA 100903Z 1009/1112 17010KT P6SM -SHRA OVC010 FM101200 20012KT
                       P6SM VCSH OVC015 FM102000 23007KT P6SM VCSH
                       OVC040 FM110300 18004KT P6SM -RA OVC030=
202204100709 KSEA 100709Z 1007/1112 17010KT 5SM -RA BKN007 OVC015 FM101200 20012KT
                       P6SM VCSH OVC030 FM102000 23007KT P6SM VCSH
                       OVC040 FM110300 18004KT P6SM -RA OVC030=
202204100523 TAF KSEA 100523Z 1006/1112 17012G20KT 5SM -RA OVC020 FM101200 20012KT
                       P6SM VCSH OVC030 FM102000 23007KT P6SM VCSH
                       OVC040 FM110300 18004KT P6SM -RA OVC030=
202204100229 KSEA 100229Z 1002/1106 22012G22KT P6SM VCSH SCT035 OVC050 FM100600
                       19012KT P6SM -RA OVC025 FM101200 20012KT
                       P6SM VCSH OVC030 FM102000 23007KT P6SM VCSH
                       OVC040 FM110300 18004KT P6SM -RA OVC030=
202204100200 KSEA 100200Z 1002/1106 22008KT P6SM VCSH SCT035 OVC050 FM100600
                       19012KT P6SM -RA OVC025 FM101200 20012KT
                       P6SM VCSH OVC030 FM102000 23007KT P6SM VCSH
                       OVC040 FM110300 18004KT P6SM -RA OVC030=
202204092320 TAF KSEA 092320Z 1000/1106 22008KT P6SM VCSH SCT029 BKN035
                      TEMPO 1000/1004 VRB06KT P6SM -RA FM100600
                       19012KT P6SM -RA OVC020 FM101200 20012KT
                       P6SM VCSH OVC030 FM102000 23007KT P6SM VCSH
                       OVC040 FM110300 18004KT P6SM -RA OVC030=
202204092101 KSEA 092101Z 0921/1024 21015KT P6SM VCSH FEW020 BKN030 BKN080
                      TEMPO 0921/0923 28007KT 6SM +RA FM100000
                       22018G25KT P6SM VCSH BKN030 FM100600 19012KT
                       P6SM -RA OVC020 FM101200 20012KT P6SM VCSH
                       OVC030 FM102000 23007KT P6SM VCSH OVC040=
202204091939 KSEA 091939Z 0920/1024 21015KT P6SM BKN020 BKN100
                      TEMPO 0920/0922 6SM +RA FM100000 22018G25KT
                       P6SM VCSH BKN030 FM100600 19012KT P6SM -RA
                       OVC020 FM101200 20012KT P6SM VCSH OVC030
                       FM102000 23007KT P6SM VCSH OVC040=
202204091732 TAF KSEA 091732Z 0918/1024 21015KT P6SM BKN020 BKN100 FM100000
                       22018G25KT P6SM VCSH BKN030 FM100600 19012KT
                       P6SM -RA OVC020 FM101200 20012KT P6SM VCSH
                       OVC030 FM102000 23007KT P6SM VCSH OVC040=
202204091457 KSEA 091457Z 0915/1018 17009KT P6SM FEW015 SCT025 SCT130 FM091800
                       20012G20KT P6SM VCSH BKN035 FM100000 22018G25KT
                       P6SM VCSH BKN030 FM100600 19012KT P6SM -RA
                       OVC020 FM101100 20012KT P6SM VCSH OVC030=
202204091220 KSEA 091220Z 0912/1018 17007KT P6SM BKN015 BKN030 FM091800 20012G20KT
                       P6SM VCSH BKN035 FM100000 22018G25KT P6SM
                       VCSH BKN030 FM100600 19012KT P6SM -RA OVC020
                       FM101100 20012KT P6SM VCSH OVC030=
202204091136 TAF KSEA 091136Z 0912/1018 17007KT P6SM FEW025 BKN050 FM091800
                       20012G20KT P6SM VCSH BKN035 FM100000 22018G25KT
                       P6SM VCSH BKN030 FM100600 19012KT P6SM -RA
                       OVC020 FM101100 20012KT P6SM VCSH OVC030=
202204090901 KSEA 090901Z 0909/1012 17007KT P6SM FEW015 SCT030 BKN050 FM091800
                       20015G20KT P6SM VCSH BKN035 FM100000 22018G25KT
                       P6SM VCSH BKN035 FM100500 19014G21KT P6SM
                       -RA OVC020=
202204090535 TAF KSEA 090535Z 0906/1012 22012G20KT P6SM FEW030 SCT060 BKN080
                       TEMPO 0906/0907 -RA BKN020 BKN100 FM090700
                       21012G20KT P6SM SCT020 BKN050 FM091800 20015G20KT
                       P6SM VCSH BKN035 FM100000 22018G25KT P6SM
                       VCSH BKN035 FM100500 19014G21KT P6SM -RA
                       OVC020=
202204090306 KSEA 090306Z 0903/1006 22012G20KT P6SM SCT020 BKN100
                      TEMPO 0903/0907 BKN020 BKN100 FM090700 21012G20KT
                       P6SM SCT020 BKN050 FM091800 20015G20KT P6SM
                       VCSH BKN035 FM100000 22018G25KT P6SM VCSH
                       BKN035=
202204082332 TAF KSEA 082332Z 0900/1006 22016G29KT P6SM VCTS BKN035CB FM090100
                       22016G29KT P6SM VCSH FEW025 SCT070 BKN110
                       FM090400 22012KT P6SM -SHRA BKN025 OVC050
                       FM091000 10015KT P6SM VCSH BKN020 FM091800
                       20015G20KT P6SM VCSH BKN035 FM100000 22018G25KT
                       P6SM VCSH BKN035=
202204082103 KSEA 082103Z 0821/0924 22015G25KT P6SM VCSH SCT021 SCT035 BKN070
                       TEMPO 0822/0823 26020G30KT 6SM RA FM090400
                       22007KT P6SM -SHRA BKN025 OVC050 FM091000
                       18007KT P6SM VCSH BKN020 FM091800 20015G20KT
                       P6SM VCSH BKN035=
202204081732 TAF KSEA 081732Z 0818/0924 21013G25KT P6SM SCT014 BKN020 FM090400
                       22007KT P6SM -SHRA BKN025 OVC050 FM091000
                       18007KT P6SM VCSH BKN020 FM091800 20015G20KT
                       P6SM VCSH BKN035=
202204081502 KSEA 081502Z 0815/0918 22015G25KT P6SM BKN018 BKN050 FM081700 20012G22KT
                       P6SM VCSH SCT020 BKN040 FM090400 VRB04KT
                       P6SM -SHRA BKN030 FM091000 18007KT P6SM
                       VCSH BKN020=
202204081208 KSEA 081208Z 0812/0918 18012G20KT P6SM VCSH BKN018 OVC040 FM081700
                       20012G22KT P6SM VCSH SCT020 BKN040 FM090400
                       VRB04KT P6SM -SHRA BKN030 FM091000 18007KT
                       P6SM VCSH BKN020=
202204081124 TAF KSEA 081124Z 0812/0918 20014G22KT P6SM VCSH SCT020 OVC040
                      TEMPO 0814/0817 BKN020 OVC040 FM081700 20012G22KT
                       P6SM VCSH SCT020 BKN040 FM090400 VRB04KT
                       P6SM -SHRA BKN030 FM091000 18007KT P6SM
                       VCSH BKN020=
202204080711 KSEA 080711Z 0807/0912 20014G22KT P6SM -RA BKN050 OVC100 FM081000
                       20012G22KT P6SM -RA OVC040 FM081400 20012G22KT
                       P6SM VCSH BKN030 FM081800 20012KT P6SM VCSH
                       BKN040 FM090400 VRB04KT P6SM -SHRA BKN030=
202204080520 TAF KSEA 080520Z 0806/0912 12007KT P6SM SCT050 OVC100 FM081000
                       18012KT P6SM -RA BKN040 OVC080 FM081400
                       20012G22KT P6SM VCSH BKN030 FM081800 20012KT
                       P6SM VCSH BKN040 FM090400 VRB04KT P6SM -SHRA
                       BKN030=
202204080317 KSEA 080317Z 0803/0906 VRB03KT P6SM SCT100 OVC200 FM080600 20006KT
                       P6SM BKN100 OVC200 FM081000 18012KT P6SM
                       -RA OVC030 FM081400 20012G22KT P6SM VCSH
                       BKN040=
202204072322 TAF KSEA 072322Z 0800/0906 27006KT P6SM SCT160 BKN250 FM080400
                       28006KT P6SM BKN120 FM081000 18012KT P6SM
                       -RA OVC030 FM081400 20012G22KT P6SM VCSH
                       BKN040=
202204072055 KSEA 072055Z 0721/0824 VRB03KT P6SM FEW140 BKN250 FM080500 28006KT
                       P6SM BKN120 FM081000 18012KT P6SM -RA OVC030
                       FM081400 20012KT P6SM VCSH BKN040=
202204071728 TAF KSEA 071728Z 0718/0824 30003KT P6SM FEW140 BKN250 FM071900
                       VRB03KT P6SM BKN250 FM080400 28006KT P6SM
                       BKN120 FM081000 18012KT P6SM -RA OVC030
                       FM081400 20012KT P6SM VCSH BKN040=
202204071455 KSEA 071455Z 0715/0818 02006KT P6SM SCT180 OVC250 FM071900 33007KT
                       P6SM BKN250 FM080400 24006KT P6SM BKN120
                       FM081000 18012KT P6SM -RA OVC030 FM081500
                       20012KT P6SM VCSH BKN040=
202204071120 TAF KSEA 071120Z 0712/0818 05005KT P6SM BKN200 FM071600 VRB04KT
                       P6SM SCT200 FM080400 22008KT P6SM BKN120
                       FM081000 18012KT P6SM -RA OVC030 FM081500
                       20012KT P6SM VCSH BKN040=
202204070907 KSEA 070907Z 0709/0812 03005KT P6SM BKN180 FM071600 VRB04KT P6SM
                       SCT200 FM080400 22008KT P6SM BKN120 FM081000
                       18010KT P6SM BKN030=
202204070520 TAF KSEA 070520Z 0706/0812 05005KT P6SM BKN250 FM071600 VRB04KT
                       P6SM SCT250 FM080400 22008KT P6SM SCT050
                       BKN200 FM081000 18010KT P6SM BKN050 OVC100=
202204070308 KSEA 070308Z 0703/0806 36006KT P6SM BKN250 FM070900 06006KT P6SM
                       BKN250 FM071900 34006KT P6SM BKN250 FM080300
                       15008KT P6SM BKN250=
202204062326 TAF KSEA 062326Z 0700/0806 30010KT P6SM BKN250 FM070300 03005KT
                       P6SM BKN250 FM070600 06006KT P6SM BKN250
                       FM071900 34006KT P6SM BKN250=
202204062054 KSEA 062054Z 0621/0724 32008KT P6SM BKN250 FM070300 03005KT P6SM
                       BKN250 FM070600 06006KT P6SM BKN250=
202204061720 TAF KSEA 061720Z 0618/0724 34005KT P6SM SCT250 FM062100 35008KT
                       P6SM BKN200 FM070300 03005KT P6SM BKN200
                       FM070600 06006KT P6SM BKN200=
202204061501 KSEA 061501Z 0615/0718 VRB04KT P6SM SCT250 FM061800 34005KT P6SM
                       SCT250 FM062100 35008KT P6SM BKN200=
202204061120 TAF KSEA 061120Z 0612/0718 VRB04KT P6SM SCT250 FM062100 35008KT
                       P6SM BKN200=
202204060901 KSEA 060901Z 0609/0712 VRB04KT P6SM FEW050 FM062100 35008KT P6SM
                       SCT250=
202204060520 TAF KSEA 060520Z 0606/0712 VRB04KT P6SM SCT050 FM062100 35008KT
                       P6SM SCT250=
202204060256 KSEA 060256Z 0603/0706 07004KT P6SM BKN050 FM060600 04004KT P6SM
                       FEW050 FM061200 03007KT P6SM SCT050 FM061800
                       01005KT P6SM SCT250=
202204052326 TAF KSEA 052326Z 0600/0706 01011G24KT 6SM -SHRA SCT045 BKN060 FM060200
                       23014KT P6SM BKN050 FM060600 04007KT P6SM
                       FEW050 FM061200 03007KT P6SM SCT050 FM061800
                       01005KT P6SM SCT250=
202204052054 KSEA 052054Z 0521/0624 23007G19KT P6SM VCSH SCT035 BKN050 FM060000
                       24015G20KT P6SM VCSH BKN025 FM060600 04007KT
                       P6SM FEW050 FM061200 03007KT P6SM SCT050=
202204051739 TAF KSEA 051739Z 0518/0624 20015G25KT P6SM SCT025 SCT100 FM052100
                       23012G25KT P6SM SCT030 BKN050 FM060000 24015G20KT
                       P6SM VCSH BKN025 FM060600 04007KT P6SM FEW050
                       FM061200 03007KT P6SM SCT050=
202204051449 KSEA 051449Z 0515/0618 20015G25KT P6SM SCT025 SCT100 FM052100 23012G25KT
                       P6SM SCT030 BKN050 FM060600 VRB04KT P6SM
                       SCT050=
202204051120 TAF KSEA 051120Z 0512/0618 20015G25KT P6SM VCSH SCT025 BKN050 BKN100
                       FM052100 23012KT P6SM SCT030 BKN050 FM060600
                       VRB04KT P6SM SCT050=
202204050900 KSEA 050900Z 0509/0612 20012G22KT P6SM VCSH SCT025 BKN040
                      TEMPO 0509/0513 BKN025 BKN040 FM052100 23012KT
                       P6SM SCT030 BKN050=
202204050520 TAF KSEA 050520Z 0506/0612 21012G22KT P6SM VCSH SCT025 BKN040 FM052100
                       23012KT P6SM SCT030 BKN050=
202204050301 KSEA 050301Z 0503/0606 24015G25KT P6SM -SHRA SCT020 BKN030 BKN050
                       FM050600 22013G22KT P6SM -SHRA BKN030 OVC050
                       FM051200 22012G20KT P6SM VCSH OVC030 FM051800
                       23010KT P6SM SCT030 BKN050=
202204042320 TAF KSEA 042320Z 0500/0606 22015G23KT P6SM -SHRA SCT020 BKN060
                       TEMPO 0500/0502 -TSRA BKN030CB FM050600
                       22013G22KT P6SM -SHRA BKN030 OVC050 FM051200
                       22012G20KT P6SM VCSH OVC030 FM051800 23010KT
                       P6SM SCT030 BKN050=
202204042107 KSEA 042107Z 0421/0524 22015G23KT P6SM -SHRA BKN030 OVC050 WS020/24050KT
                       TEMPO 0421/0501 -TSRA BKN030CB FM050600
                       22012G30KT P6SM -SHRA BKN030 OVC050 FM051200
                       22012G30KT P6SM VCSH OVC030=
202204041809 KSEA 041809Z 0418/0524 22020G30KT P6SM -SHRA SCT030 OVC050 WS020/24050KT
                       TEMPO 0421/0424 -TSRA BKN030CB FM050000
                       22022G29KT P6SM -SHRA BKN030 OVC040 FM050600
                       22012G30KT P6SM -SHRA BKN030 OVC050 FM051200
                       22012G30KT P6SM VCSH OVC030=
202204041731 TAF KSEA 041731Z 0418/0524 22020G30KT P6SM -SHRA SCT030 OVC050
                       WS020/24050KT FM050000 22022G29KT P6SM -SHRA
                       BKN030 OVC040 FM050600 22012G30KT P6SM -SHRA
                       BKN030 OVC050 FM051200 22012G30KT P6SM VCSH
                       OVC030=
202204041501 KSEA 041501Z 0415/0518 21025G35KT P6SM VCSH BKN030 OVC050 WS020/22060KT
                       FM041800 22020G30KT P6SM -SHRA SCT030 OVC050
                       WS020/24050KT FM050000 22015G25KT P6SM -RA
                       OVC040 FM050600 22012G30KT P6SM SHRA BKN030
                       OVC050 FM051200 22012G30KT P6SM VCSH OVC060=
202204041311 KSEA 041311Z 0413/0518 18020G30KT 6SM RA BR BKN025 OVC035 WS020/19050KT
                       FM041500 21025G35KT 6SM SHRA BR BKN035 OVC050
                       WS020/22060KT FM041800 22020G30KT P6SM -SHRA
                       OVC050 WS020/24050KT FM050000 22015G25KT
                       P6SM -RA OVC040 FM050600 22012G20KT P6SM
                       SHRA BKN030 OVC050 FM051200 22012KT P6SM
                       VCSH OVC060=
202204041157 TAF KSEA 041157Z 0412/0518 18020G30KT 6SM RA BR BKN025 OVC035 WS020/18050KT
                       FM041500 21025G35KT 6SM SHRA BR BKN035 OVC050
                       FM041800 22020G30KT P6SM -SHRA OVC050 FM050000
                       22015G25KT P6SM -RA OVC040 FM050600 22012G20KT
                       P6SM SHRA BKN030 OVC050 FM051200 22012KT
                       P6SM VCSH OVC060=
202204040859 KSEA 040859Z 0409/0512 17020G30KT 6SM RA BR BKN025 OVC035 WS020/18050KT
                       FM041500 21025G35KT 6SM SHRA BR BKN035 OVC050
                       FM041800 22015G25KT P6SM -SHRA OVC050 FM050600
                       22012G20KT P6SM SHRA BKN030 OVC060=
202204040553 TAF KSEA 040553Z 0406/0512 18012G25KT P6SM -RA SCT025 OVC035 WS020/18040KT
                       FM040700 19018G28KT 6SM -RA BR OVC025 WS020/18040KT
                       FM040900 19022G32KT 4SM RA BR OVC015 WS020/18050KT
                       FM041500 21025G35KT 6SM SHRA BR BKN035 OVC050
                       FM041800 22015G25KT P6SM -SHRA OVC050 FM050600
                       22012G20KT P6SM SHRA BKN030 OVC060=
202204040310 KSEA 040310Z 0403/0506 19017G27KT P6SM -RA SCT025 OVC040 WS020/18040KT
                       FM040400 19018G28KT 6SM -RA BR OVC025 WS020/18040KT
                       FM040900 19022G32KT 4SM RA BR OVC015 WS020/18050KT
                       FM041500 21025G35KT 6SM SHRA BR BKN035 OVC050=
202204032331 TAF KSEA 032331Z 0400/0506 20015G25KT P6SM -RA OVC030 WS020/18040KT
                       FM040200 19017G27KT 6SM RA BR OVC025 WS020/18040KT
                       FM040900 19022G32KT 4SM RA BR OVC015 WS020/18050KT
                       FM041500 21025G35KT 6SM SHRA BR BKN035 OVC050=
202204032101 KSEA 032101Z 0321/0424 20015G25KT 6SM -RA OVC022 WS020/18040KT
                       FM040300 19017G27KT 4SM RA BR OVC011 WS020/18040KT
                       FM040900 19022G32KT 5SM RA BR OVC015 WS020/18050KT
                       FM041500 21025G35KT 6SM -SHRA BR BKN022
                       OVC040=
202204031723 TAF KSEA 031723Z 0318/0424 19010G18KT P6SM -RA OVC040 FM032100
                       20015G25KT 6SM -RA OVC022 WS020/18040KT
                       FM040300 19017G27KT 4SM RA BR OVC011 WS020/18040KT
                       FM040900 19022G32KT 5SM RA BR OVC015 WS020/18050KT
                       FM041500 21025G35KT 6SM -SHRA BR BKN022
                       OVC040=
202204031503 KSEA 031503Z 0315/0418 17007KT P6SM OVC070 FM031700 19010G18KT
                       P6SM -RA OVC040 FM032100 20015G25KT 6SM
                       -RA OVC022 WS020/18040KT FM040300 19017G27KT
                       4SM RA BR OVC011 WS020/18040KT FM040900
                       19022G32KT 5SM RA BR OVC015 WS020/18050KT
                       FM041500 21025G35KT 6SM -SHRA BR BKN022
                       OVC040=
202204031140 TAF KSEA 031140Z 0312/0418 16005KT P6SM OVC070 FM031700 19010G18KT
                       P6SM -RA OVC040 FM032100 20015G25KT 6SM
                       -RA OVC022 WS020/18040KT FM040300 19017G27KT
                       4SM RA BR OVC011 WS020/18040KT FM040900
                       19022G32KT 5SM RA BR OVC015 WS020/18050KT
                       FM041500 21025G35KT 6SM -SHRA BR BKN022
                       OVC040=
202204030900 KSEA 030900Z 0309/0412 16005KT P6SM BKN120 BKN200 FM031700 19012G20KT
                       P6SM -RA OVC040 FM032100 20015G25KT 6SM
                       -RA OVC022 FM040400 19017G27KT 4SM RA BR
                       OVC013 FM040900 19022G32KT 5SM RA BR OVC017
                       WS020/18050KT=
202204030521 TAF KSEA 030521Z 0306/0412 22005KT P6SM FEW050 SCT120 BKN200 FM031700
                       19012G20KT P6SM -RA OVC040 FM032100 20015G25KT
                       6SM -RA OVC022 FM040400 19017G27KT 4SM RA
                       BR OVC013 FM040900 19022G32KT 5SM RA BR
                       OVC017 WS020/18050KT=
202204030308 KSEA 030308Z 0303/0406 22005KT P6SM FEW050 SCT120 BKN200 FM031700
                       19012G20KT P6SM -RA OVC040 FM032100 20015G25KT
                       6SM -RA OVC025=
202204022324 TAF KSEA 022324Z 0300/0406 22014G24KT P6SM SCT050 BKN120 FM030300
                       21006KT P6SM BKN100 FM031700 19012G20KT
                       P6SM -RA OVC040 FM032100 20015G25KT 6SM
                       -RA OVC025=
202204022056 KSEA 022056Z 0221/0324 22014G24KT P6SM SCT050 BKN120 FM030300 21006KT
                       P6SM BKN100 FM031700 19012G20KT P6SM -RA
                       OVC040=
202204021720 TAF KSEA 021720Z 0218/0324 22011KT P6SM SCT020 OVC035 FM022100
                       22008KT P6SM SCT030 OVC050 FM030300 21006KT
                       P6SM BKN100 FM031700 19012G20KT P6SM -RA
                       OVC040=
202204021504 KSEA 021504Z 0215/0318 20011KT P6SM VCSH BKN018 BKN035 FM021700
                       22011KT P6SM VCSH SCT020 OVC035 FM022100
                       22008KT P6SM SCT030 OVC050 FM030300 21006KT
                       P6SM BKN100 FM031700 19011KT P6SM -RA OVC040=
202204021123 TAF KSEA 021123Z 0212/0318 20011KT P6SM VCSH BKN018 BKN035 FM021700
                       22011KT P6SM VCSH SCT020 OVC035 FM022100
                       22008KT P6SM SCT030 OVC050 FM030300 21006KT
                       P6SM BKN100 FM031700 19011KT P6SM -RA OVC040=
202204020901 KSEA 020901Z 0209/0312 20011KT P6SM VCSH BKN018 BKN035 FM021700
                       22011KT P6SM VCSH SCT020 OVC035 FM022100
                       22008KT P6SM SCT030 OVC050 FM030300 21006KT
                       P6SM BKN100=
202204020524 TAF KSEA 020524Z 0206/0312 18008KT P6SM -RA OVC030 FM021000 20012KT
                       P6SM VCSH OVC025 FM021700 22012KT P6SM VCSH
                       OVC035 FM022100 22008KT P6SM SCT030 OVC050
                       FM030300 21006KT P6SM BKN100=
202204012320 TAF KSEA 012320Z 0200/0306 24006KT P6SM SCT035 OVC070 FM020200
                       18008KT P6SM -RA SCT025 OVC040 FM020600
                       20005KT P6SM -RA OVC025 FM021100 20012KT
                       P6SM VCSH OVC020 FM021700 22012KT P6SM OVC030
                       FM022100 22008KT P6SM SCT030 OVC050=
202204012116 KSEA 012116Z 0121/0224 24006KT P6SM SCT035 BKN100 FM020200 18008KT
                       P6SM -RA SCT025 OVC040 FM020600 20005KT
                       P6SM -RA OVC025 FM021100 20012KT P6SM VCSH
                       OVC020 FM021700 22012KT P6SM OVC030=
202204011720 TAF KSEA 011720Z 0118/0224 20006KT P6SM SCT020 BKN150 FM020200
                       18008KT P6SM -RA SCT025 OVC040 FM020600
                       20005KT P6SM -RA OVC025 FM021100 20012KT
                       P6SM VCSH OVC020=
202204011502 KSEA 011502Z 0115/0218 16006KT P6SM SCT010 SCT200
                      TEMPO 0115/0118 BKN010 BKN050 FM011800 22006KT
                       P6SM SCT030 BKN050 BKN120 FM020200 18008KT
                       P6SM -RA SCT025 OVC040 FM021100 20012KT
                       P6SM VCSH OVC025=
202204011227 KSEA 011227Z 0112/0218 18005KT P6SM SCT035 BKN050 FM011300 19006KT
                       P6SM BKN025 BKN050 FM011800 22006KT P6SM
                       SCT030 BKN050 BKN120 FM020200 18008KT P6SM
                       -RA SCT025 OVC040 FM021100 20012KT P6SM
                       VCSH OVC050=
202204011120 TAF KSEA 011120Z 0112/0218 18005KT P6SM SCT035 BKN050 FM011300
                       VRB03KT P6SM BKN025 BKN050 FM011800 22006KT
                       P6SM SCT030 BKN050 BKN120 FM020200 18008KT
                       P6SM -RA SCT025 OVC040 FM021100 20012KT
                       P6SM VCSH OVC050=
202204010907 KSEA 010907Z 0109/0212 18005KT P6SM SCT035 BKN050 FM011100 VRB03KT
                       P6SM BKN025 BKN050 FM011800 22006KT P6SM
                       SCT030 BKN050 BKN120 FM020200 18008KT P6SM
                       -RA SCT025 OVC040 FM021100 20012KT P6SM
                       VCSH OVC050=
202204010533 TAF KSEA 010533Z 0106/0212 VRB03KT P6SM BKN035 OVC050 FM011100
                       VRB03KT P6SM BKN025 BKN050 FM011800 22006KT
                       P6SM SCT030 BKN050 BKN120 FM020200 18008KT
                       P6SM -RA SCT025 OVC040 FM021100 20012KT
                       P6SM VCSH OVC050=
202204010302 KSEA 010302Z 0103/0206 05005KT P6SM BKN060 FM010800 VRB03KT P6SM
                       SCT025 BKN050 FM011100 VRB03KT P6SM BKN025
                       BKN050 FM011800 22006KT P6SM SCT030 BKN050
                       BKN120 FM020200 18008KT P6SM -RA SCT025
                       OVC040=