##########################################################
# Query made at 02/17/2025 21:57:51 UTC
# Time interval: from 12/01/2022 00:00  to 12/31/2022 23:59  UTC
##########################################################

##########################################################
# KSEA, Seattle, Seattle-Tacoma International Airport (United States)
# WMO index: 72793. WIGOS ID: 0-20000-0-72793
# Latitude 47-27-00N. Longitude 122-17-59W. Altitude 130 m.
##########################################################

###################################
#  METAR/SPECI from KSEA
###################################
202212312353 METAR KSEA 312353Z 25004KT 9SM -RA SCT027 BKN035 BKN042 08/06 A2990 RMK AO2 RAE06B30 SLP132 P0000 60000 T00830056 10094 20072 53014=
202212312336 SPECI KSEA 312336Z 22007KT 10SM -RA SCT027 BKN035 BKN042 08/05 A2989 RMK AO2 RAE06B30 P0000 T00830050=
202212312253 METAR KSEA 312253Z 23008KT 7SM -RA BKN020 OVC028 08/04 A2987 RMK AO2 RAB49 SLP124 P0000 T00830044=
202212312153 METAR KSEA 312153Z 22008KT 10SM BKN022 OVC028 09/04 A2986 RMK AO2 SLP117 T00890044=
202212312053 METAR KSEA 312053Z 24011KT 10SM OVC022 09/04 A2985 RMK AO2 SLP117 T00890044 51009=
202212312018 SPECI KSEA 312018Z 20011KT 10SM BKN016 09/05 A2985 RMK AO2 T00890050=
202212311953 METAR KSEA 311953Z 21014G21KT 10SM BKN013 09/05 A2985 RMK AO2 SLP114 T00890050=
202212311931 SPECI KSEA 311931Z 20015KT 10SM OVC013 08/05 A2984 RMK AO2 T00830050=
202212311853 METAR KSEA 311853Z 20013KT 10SM SCT012 BKN070 BKN200 08/06 A2983 RMK AO2 SLP111 T00830056=
202212311820 SPECI KSEA 311820Z 19014KT 10SM BKN013 OVC018 08/06 A2983 RMK AO2 T00780056=
202212311753 METAR KSEA 311753Z 19010KT 10SM SCT013 BKN024 OVC034 07/05 A2983 RMK AO2 RAE10 SLP108 P0000 60000 T00720050 10072 20067 53019=
202212311710 SPECI KSEA 311710Z 18007KT 10SM FEW016 BKN026 BKN045 07/06 A2981 RMK AO2 RAE10 P0000 T00670056=
202212311653 METAR KSEA 311653Z 18007KT 10SM -RA BKN008 BKN019 OVC025 07/06 A2981 RMK AO2 RAB37 SLP102 P0000 T00670056=
202212311637 SPECI KSEA 311637Z 18009KT 10SM -RA BKN009 OVC021 07/05 A2980 RMK AO2 RAB37 P0000 T00670050=
202212311616 SPECI KSEA 311616Z 19013KT 10SM FEW009 BKN020 07/05 A2979 RMK AO2 T00670050=
202212311553 METAR KSEA 311553Z 20012KT 10SM SCT020 BKN080 OVC160 07/05 A2977 RMK AO2 SLP090 T00670050=
202212311516 SPECI KSEA 311516Z 19010KT 10SM SCT021 BKN027 BKN085 07/05 A2977 RMK AO2 T00670050=
202212311453 METAR KSEA 311453Z 19013KT 10SM SCT017 OVC080 07/05 A2977 RMK AO2 SLP089 T00670050 51023=
202212311446 SPECI KSEA 311446Z 20011KT 10SM SCT017 OVC080 07/05 A2977 RMK AO2 T00670050=
202212311355 SPECI KSEA 311355Z 19010KT 10SM BKN013 OVC070 07/05 A2976 RMK AO2 T00720050=
202212311353 METAR KSEA 311353Z 19010KT 10SM SCT010 BKN015 OVC070 07/05 A2976 RMK AO2 SLP083 T00670050=
202212311253 METAR KSEA 311253Z 21014G23KT 10SM FEW007 OVC015 07/05 A2973 RMK AO2 SLP074 CIG 012V018 T00720050=
202212311153 METAR KSEA 311153Z 21017KT 10SM SCT007 BKN015 BKN200 07/06 A2970 RMK AO2 RAE36 SLP064 BKN015 V SCT P0000 60001 70019 T00670056 10078 20067 51014=
202212311053 METAR KSEA 311053Z 22010KT 5SM -RA BR SCT008 OVC015 07/06 A2969 RMK AO2 SLP062 CIG 013V017 P0001 T00720056=
202212311027 SPECI KSEA 311027Z 20011KT 5SM -RA BR SCT008 BKN015 OVC022 07/06 A2969 RMK AO2 P0000 T00720056=
202212310953 METAR KSEA 310953Z 21011G20KT 7SM -RA SCT016 BKN024 OVC031 07/05 A2967 RMK AO2 RAB50 SLP055 P0000 T00720050=
202212310853 METAR KSEA 310853Z 19013G19KT 7SM FEW019 BKN025 OVC035 08/05 A2966 RMK AO2 SLP050 VCSH T00780050 52019=
202212310842 SPECI KSEA 310842Z 19011KT 10SM FEW019 BKN025 OVC032 08/05 A2966 RMK AO2 T00780050=
202212310753 METAR KSEA 310753Z 20014KT 10SM SCT015 SCT035 BKN090 OVC180 08/06 A2964 RMK AO2 SLP043 T00780056 401170056=
202212310653 METAR KSEA 310653Z 19011KT 10SM SCT010 SCT026 BKN090 OVC180 07/05 A2962 RMK AO2 SLP037 T00720050=
202212310553 METAR KSEA 310553Z 19011KT 10SM FEW008 SCT042 BKN180 08/06 A2960 RMK AO2 RAE09 SLP031 P0000 60002 T00780061 10094 20078 53013=
202212310519 SPECI KSEA 310519Z 19017G24KT 10SM FEW008 SCT014 BKN041 08/06 A2958 RMK AO2 RAE09 P0000 T00780061=
202212310453 METAR KSEA 310453Z 19012KT 8SM -RA FEW016 BKN031 OVC070 08/06 A2958 RMK AO2 RAB13E23B53 SLP024 P0000 T00830061=
202212310353 METAR KSEA 310353Z 19013G21KT 10SM FEW018 OVC039 08/05 A2957 RMK AO2 SLP020 T00830050=
202212310253 METAR KSEA 310253Z 20012KT 10SM SCT016 BKN021 OVC050 08/06 A2956 RMK AO2 RAB12E45 SLP017 P0002 60002 T00830056 53010=
202212310225 SPECI KSEA 310225Z 20010G18KT 7SM -RA BKN018 OVC025 09/06 A2955 RMK AO2 RAB12 P0000 T00890056=
202212310153 METAR KSEA 310153Z 18012KT 10SM SCT025 BKN035 OVC048 09/05 A2955 RMK AO2 SLP013 T00940050=
202212310120 SPECI KSEA 310120Z 19012KT 10SM SCT025 OVC032 09/05 A2954 RMK AO2 T00940050=
202212310053 METAR KSEA 310053Z 18010G19KT 10SM FEW025 BKN033 OVC140 09/05 A2954 RMK AO2 RAE07 SLP009 P0000 T00940050=
202212310045 SPECI KSEA 310045Z 19011G21KT 10SM SCT025 BKN033 OVC140 09/05 A2954 RMK AO2 RAE07 P0000 T00940050=
202212302353 METAR KSEA 302353Z 20011KT 10SM -RA SCT019 BKN025 OVC031 09/06 A2953 RMK AO2 RAB32 SLP007 P0000 60001 T00940056 10117 20083 53002=
202212302323 SPECI KSEA 302323Z 18010KT 10SM BKN027 BKN041 OVC080 09/06 A2952 RMK AO2 T00940061=
202212302253 METAR KSEA 302253Z 19008KT 10SM FEW024 SCT040 SCT075 BKN180 09/07 A2952 RMK AO2 RAE22 SLP005 P0001 T00940067=
202212302153 METAR KSEA 302153Z 21013KT 10SM -RA FEW028 BKN049 BKN065 10/06 A2953 RMK AO2 PK WND 21027/2111 RAB41 SLP007 P0000 T01000061=
202212302053 METAR KSEA 302053Z 19016G24KT 10SM SCT031 BKN070 BKN250 11/06 A2953 RMK AO2 SLP005 60000 T01110056 58006=
202212301953 METAR KSEA 301953Z 19014G23KT 10SM SCT027 BKN039 OVC055 11/06 A2954 RMK AO2 SLP008 T01110061=
202212301853 METAR KSEA 301853Z 19015G23KT 10SM FEW022 BKN033 BKN060 09/07 A2955 RMK AO2 RAE20 SLP013 P0000 T00940067=
202212301753 METAR KSEA 301753Z 19010KT 6SM -RA BR SCT019 BKN030 08/06 A2954 RMK AO2 SLP012 P0007 60015 T00830061 10089 20078 53012=
202212301653 METAR KSEA 301653Z 18013G20KT 5SM -RA BR SCT026 OVC037 08/06 A2952 RMK AO2 PK WND 18026/1614 SLP004 P0001 T00830061=
202212301553 METAR KSEA 301553Z 18016G24KT 7SM -RA SCT025 SCT038 OVC050 08/06 A2951 RMK AO2 RAE18B42 SLP999 P0003 T00830056=
202212301453 METAR KSEA 301453Z 19012KT 5SM -RA BR SCT040 BKN090 BKN120 08/06 A2951 RMK AO2 RAB11E20B42 SLP999 P0003 60004 T00830061 51030=
202212301443 SPECI KSEA 301443Z 19014G24KT 5SM -RA BR SCT040 BKN090 BKN120 08/06 A2951 RMK AO2 RAB11E20B42 P0001 T00830061=
202212301353 METAR KSEA 301353Z 19014G23KT 10SM SCT017 BKN028 OVC045 08/06 A2949 RMK AO2 RAB35E44 SLP992 P0000 T00830061=
202212301253 METAR KSEA 301253Z 20015G25KT 10SM BKN016 OVC024 08/07 A2947 RMK AO2 PK WND 20034/1206 RAE21 SLP987 P0001 T00830067=
202212301243 SPECI KSEA 301243Z 20018G24KT 10SM BKN016 OVC022 08/07 A2946 RMK AO2 PK WND 20034/1206 RAE21 P0001 T00830067=
202212301153 METAR KSEA 301153Z 19016G29KT 6SM -RA BR BKN010 OVC016 08/07 A2942 RMK AO2 PK WND 18029/1145 RAB38 SLP970 P0000 60044 70053 T00830072 10083 20056 53016=
202212301126 SPECI KSEA 301126Z 19007KT 9SM BKN014 OVC020 07/06 A2941 RMK AO2 T00720061=
202212301053 METAR KSEA 301053Z 15011KT 10SM BKN019 OVC028 06/04 A2940 RMK AO2 RAE49 SLP962 P0002 T00610044=
202212301012 SPECI KSEA 301012Z 14008KT 9SM -RA BKN027 OVC034 06/04 A2938 RMK AO2 P0001 T00560039=
202212300953 METAR KSEA 300953Z 11010KT 7SM -RA OVC035 06/03 A2936 RMK AO2 SLP951 P0005 T00560033=
202212300853 METAR KSEA 300853Z 10011KT 7SM -RA OVC038 06/03 A2937 RMK AO2 SLP953 P0013 60037 T00610033 58031=
202212300753 METAR KSEA 300753Z 11012KT 5SM -RA OVC037 06/03 A2941 RMK AO2 SLP967 P0017 T00610033 400780050=
202212300653 METAR KSEA 300653Z 12013KT 5SM -RA FEW025 FEW031 OVC041 06/03 A2944 RMK AO2 SLP976 P0007 T00610033=
202212300553 METAR KSEA 300553Z 11009KT 8SM -RA FEW039 OVC046 07/03 A2947 RMK AO2 RAB00 SLP985 P0004 60004 T00670028 10078 20061 58033=
202212300453 METAR KSEA 300453Z 10009KT 10SM OVC033 07/03 A2950 RMK AO2 SLP997 T00720028=
202212300353 METAR KSEA 300353Z 11007KT 10SM OVC031 08/03 A2954 RMK AO2 RAB28E37 SLP011 P0000 T00780033=
202212300253 METAR KSEA 300253Z 14003KT 10SM OVC035 08/04 A2956 RMK AO2 SLP018 60000 T00780039 58014=
202212300209 SPECI KSEA 300209Z 13007KT 10SM OVC031 08/04 A2958 RMK AO2 T00780039=
202212300153 METAR KSEA 300153Z 12006KT 10SM OVC029 08/04 A2958 RMK AO2 SLP026 T00780039=
202212300053 METAR KSEA 300053Z 12004KT 10SM OVC029 07/04 A2960 RMK AO2 RAE2354 SLP030 P0000 T00720044=
202212292353 METAR KSEA 292353Z 00000KT 10SM -RA OVC025 07/05 A2960 RMK AO2 RAB21 SLP033 P0002 60004 T00670050 10078 20056 53002=
202212292253 METAR KSEA 292253Z 13005KT 10SM OVC028 08/04 A2960 RMK AO2 RAB00E50 SLP030 P0001 T00780039=
202212292244 SPECI KSEA 292244Z 16003KT 10SM -RA OVC028 07/04 A2960 RMK AO2 RAB00 P0001 T00720039=
202212292153 METAR KSEA 292153Z 00000KT 10SM FEW015 BKN033 OVC050 07/04 A2960 RMK AO2 SLP031 T00720039=
202212292053 METAR KSEA 292053Z 00000KT 10SM FEW015 BKN037 OVC055 07/04 A2960 RMK AO2 SLP031 60001 T00670039 58014=
202212291953 METAR KSEA 291953Z 24003KT 10SM FEW015 BKN055 BKN070 07/03 A2962 RMK AO2 RAB14E26 SLP037 P0001 T00720028=
202212291853 METAR KSEA 291853Z VRB04KT 7SM FEW040 BKN050 OVC070 07/03 A2964 RMK AO2 RAE09 SLP043 P0000 T00670028=
202212291753 METAR KSEA 291753Z 00000KT 7SM -RA BKN036 OVC044 06/04 A2964 RMK AO2 RAB23 SLP046 P0001 60001 T00560039 10072 20050 53010=
202212291653 METAR KSEA 291653Z 28005KT 10SM FEW010 SCT060 OVC080 06/03 A2963 RMK AO2 SLP040 VCSH T00560028=
202212291553 METAR KSEA 291553Z 12006KT 10SM FEW070 OVC090 07/01 A2960 RMK AO2 SLP033 T00670006=
202212291453 METAR KSEA 291453Z 10009KT 10SM FEW090 OVC100 07/01 A2961 RMK AO2 SLP035 T00670011 56025=
202212291353 METAR KSEA 291353Z 11009KT 10SM BKN048 BKN060 OVC120 06/02 A2964 RMK AO2 SLP044 T00610017=
202212291253 METAR KSEA 291253Z 12007KT 10SM BKN075 OVC090 06/02 A2966 RMK AO2 SLP051 T00560017=
202212291153 METAR KSEA 291153Z 11009KT 10SM BKN050 05/02 A2969 RMK AO2 SLP060 60000 70003 T00500022 10067 20050 58013=
202212291053 METAR KSEA 291053Z 14003KT 10SM FEW037 OVC047 05/03 A2972 RMK AO2 RAB23E32 SLP071 P0000 T00500033=
202212290953 METAR KSEA 290953Z 19003KT 10SM OVC042 06/03 A2972 RMK AO2 SLP072 T00560033=
202212290853 METAR KSEA 290853Z 11004KT 10SM BKN042 OVC055 06/03 A2973 RMK AO2 SLP074 60000 T00560033 58019=
202212290753 METAR KSEA 290753Z 10007KT 10SM FEW038 BKN050 06/03 A2975 RMK AO2 SLP081 T00560033 400780050=
202212290653 METAR KSEA 290653Z 11008KT 10SM OVC039 06/04 A2977 RMK AO2 RAE11 SLP089 P0000 T00610039=
202212290640 SPECI KSEA 290640Z 11008KT 10SM FEW029 OVC040 06/04 A2978 RMK AO2 RAE11 P0000 T00560039=
202212290553 METAR KSEA 290553Z VRB05KT 8SM -RA OVC017 06/04 A2978 RMK AO2 RAB01 SLP093 P0001 60003 T00610044 10061 20056 56007=
202212290453 METAR KSEA 290453Z 15006KT 4SM BR FEW007 BKN018 OVC043 06/04 A2978 RMK AO2 DZE41 SLP093 P0001 T00560044=
202212290353 METAR KSEA 290353Z 15006KT 3SM -DZ BR SCT007 OVC016 06/04 A2979 RMK AO2 DZB03 SLP097 P0000 T00560039=
202212290338 SPECI KSEA 290338Z 15007KT 4SM -DZ BR BKN008 BKN014 OVC036 06/04 A2980 RMK AO2 DZB03 P0000 T00560039=
202212290329 SPECI KSEA 290329Z 16007KT 9SM -DZ FEW008 BKN028 OVC036 06/04 A2980 RMK AO2 DZB03 P0000 T00560039=
202212290253 METAR KSEA 290253Z 15009KT 10SM SCT026 BKN038 OVC045 06/04 A2980 RMK AO2 DZE15 SLP100 P0000 60001 T00560039 56003=
202212290220 SPECI KSEA 290220Z 14008KT 10SM FEW009 SCT024 BKN047 06/04 A2980 RMK AO2 DZE15 P0000 T00560039=
202212290153 METAR KSEA 290153Z 15005KT 6SM -DZ BR FEW008 BKN018 OVC030 06/04 A2980 RMK AO2 DZB19 SLP100 P0001 T00560039=
202212290122 SPECI KSEA 290122Z 18006KT 7SM -DZ BKN008 OVC020 06/04 A2980 RMK AO2 DZB19 P0000 T00610039=
202212290053 METAR KSEA 290053Z 16005KT 10SM FEW010 BKN020 OVC046 06/04 A2981 RMK AO2 SLP102 T00610039=
202212282353 METAR KSEA 282353Z 17005KT 10SM SCT010 BKN019 OVC024 06/04 A2981 RMK AO2 RAB22E32 SLP103 P0000 60000 T00610039 10078 20056 50005=
202212282311 SPECI KSEA 282311Z 18009KT 10SM FEW009 BKN024 OVC029 06/04 A2982 RMK AO2 T00610039=
202212282253 METAR KSEA 282253Z 18009KT 10SM FEW011 SCT026 BKN035 06/03 A2981 RMK AO2 SLP103 T00610033=
202212282153 METAR KSEA 282153Z 19011G18KT 10SM SCT025 SCT050 BKN250 07/03 A2981 RMK AO2 SLP102 T00720028=
202212282053 METAR KSEA 282053Z 19013G23KT 10SM FEW020 SCT050 SCT200 08/03 A2980 RMK AO2 PK WND 21028/2005 SLP098 T00780028 58002=
202212282003 SPECI KSEA 282003Z 20017G24KT 10SM SCT018 SCT025 BKN050 BKN200 07/03 A2980 RMK AO2 T00720028=
202212281953 METAR KSEA 281953Z 20013KT 10SM SCT018 BKN022 BKN050 BKN200 08/03 A2981 RMK AO2 SLP101 T00780028=
202212281853 METAR KSEA 281853Z 19012KT 10SM SCT018 BKN023 BKN200 06/02 A2981 RMK AO2 SLP103 T00610022=
202212281753 METAR KSEA 281753Z 18011KT 10SM SCT016 BKN021 BKN050 06/02 A2980 RMK AO2 SLP100 T00560022 10056 20050 53025=
202212281725 SPECI KSEA 281725Z 21012KT 10SM BKN016 BKN025 06/03 A2979 RMK AO2 T00560028=
202212281653 METAR KSEA 281653Z 20017G22KT 10SM BKN012 BKN025 06/02 A2978 RMK AO2 SLP091 T00560022=
202212281603 SPECI KSEA 281603Z 20013G20KT 10SM BKN014 OVC020 05/02 A2975 RMK AO2 T00500022=
202212281553 METAR KSEA 281553Z 21011G21KT 10SM BKN016 BKN022 OVC050 06/02 A2975 RMK AO2 SLP080 T00560022=
202212281453 METAR KSEA 281453Z 21010KT 10SM OVC016 05/02 A2973 RMK AO2 SLP075 T00500022 51030=
202212281353 METAR KSEA 281353Z 20012G23KT 10SM BKN017 05/02 A2971 RMK AO2 PK WND 21028/1325 SLP068 T00500022=
202212281253 METAR KSEA 281253Z 20017G29KT 10SM BKN017 05/02 A2967 RMK AO2 PK WND 20032/1211 SLP055 T00500022=
202212281240 SPECI KSEA 281240Z 20016G25KT 10SM BKN017 05/02 A2967 RMK AO2 PK WND 20032/1211 T00500022=
202212281153 METAR KSEA 281153Z 21022G31KT 10SM SCT018 06/02 A2964 RMK AO2 PK WND 20037/1116 SLP044 70025 T00560022 10072 20056 53022=
202212281053 METAR KSEA 281053Z 21016G31KT 10SM SCT018 BKN180 06/02 A2962 RMK AO2 PK WND 22035/1016 SLP038 T00560022=
202212280953 METAR KSEA 280953Z 22022G36KT 10SM FEW018 SCT170 06/02 A2958 RMK AO2 PK WND 21036/0939 SLP023 T00610022=
202212280929 SPECI KSEA 280929Z 21019G31KT 10SM SCT018 BKN170 06/03 A2958 RMK AO2 PK WND 20032/0906 T00610028=
202212280901 SPECI KSEA 280901Z 21019G29KT 10SM BKN018 BKN023 06/03 A2957 RMK AO2 PK WND 21029/0854 T00610028=
202212280853 METAR KSEA 280853Z 20018G31KT 10SM SCT020 BKN110 07/03 A2957 RMK AO2 PK WND 21035/0830 SLP021 T00670028 51039=
202212280827 SPECI KSEA 280827Z 20020G33KT 10SM SCT021 OVC110 07/03 A2956 RMK AO2 PK WND 22034/0805 T00670028=
202212280753 METAR KSEA 280753Z 20021G34KT 10SM BKN021 OVC095 07/03 A2954 RMK AO2 PK WND 19034/0747 SLP011 T00670033 401170067=
202212280653 METAR KSEA 280653Z 22020G35KT 10SM OVC021 07/03 A2950 RMK AO2 PK WND 21035/0646 SLP995 T00720033=
202212280553 METAR KSEA 280553Z 22018G30KT 10SM OVC021 07/04 A2946 RMK AO2 PK WND 21040/0505 SLP981 60006 T00720039 10083 20072 51063=
202212280453 METAR KSEA 280453Z 21025G38KT 10SM BKN021 OVC065 07/04 A2940 RMK AO2 PK WND 22045/0420 RAE49 SLP962 P0000 T00720039=
202212280428 SPECI KSEA 280428Z 22024G45KT 10SM -RA BKN021 OVC042 07/03 A2938 RMK AO2 PK WND 22045/0420 PRESRR P0000 T00720033=
202212280353 METAR KSEA 280353Z 22026G41KT 10SM -RA SCT021 OVC047 07/04 A2934 RMK AO2 PK WND 22048/0338 RAE20B52 PRESRR SLP942 P0000 T00720039=
202212280253 METAR KSEA 280253Z 22020G36KT 10SM -RA OVC018 07/04 A2927 RMK AO2 PK WND 21046/0221 PRESRR SLP917 P0002 60006 T00720044 53036=
202212280218 SPECI KSEA 280218Z 22022G38KT 10SM -RA FEW008 OVC016 08/05 A2923 RMK AO2 PK WND 21038/0218 PRESRR P0001 T00780050=
202212280153 METAR KSEA 280153Z 21022G34KT 10SM -RA SCT007 OVC013 08/06 A2920 RMK AO2 PK WND 21036/0139 SLP896 P0004 T00780056=
202212280151 SPECI KSEA 280151Z 22022G34KT 10SM -RA SCT007 OVC013 08/06 A2920 RMK AO2 PK WND 21036/0139 P0004=
202212280125 SPECI KSEA 280125Z 20015G22KT 6SM -RA BR BKN008 OVC013 08/06 A2918 RMK AO2 P0001 T00780061=
202212280115 SPECI KSEA 280115Z 19012G23KT 10SM -RA BKN010 BKN026 OVC100 08/06 A2917 RMK AO2 P0001 T00780061=
202212280056 SPECI KSEA 280056Z 19016KT 10SM -RA SCT014 BKN026 BKN034 08/06 A2916 RMK AO2 P0000 T00830056=
202212280053 METAR KSEA 280053Z 19016KT 10SM -RA FEW014 BKN026 OVC150 08/06 A2916 RMK AO2 RAB51 SLP881 P0000 T00830056=
202212272353 METAR KSEA 272353Z 19013KT 10SM FEW029 SCT042 OVC160 08/05 A2912 RMK AO2 PRESRR SLP867 60000 T00830050 10117 20083 53050=
202212272253 METAR KSEA 272253Z 20010G19KT 10SM SCT035 BKN055 OVC070 09/06 A2907 RMK AO2 PK WND 21030/2157 RAE50 SLP849 P0000 T00890056=
202212272153 METAR KSEA 272153Z 19014G24KT 10SM -RA OVC060 10/06 A2901 RMK AO2 PK WND 19029/2121 RAB49 SLP831 P0000 T01000056=
202212272053 METAR KSEA 272053Z 17014G24KT 7SM OVC037 11/05 A2897 RMK AO2 PK WND 17026/2042 SLP816 T01110050 53011=
202212271953 METAR KSEA 271953Z 19008KT 10SM FEW035 BKN047 OVC065 12/06 A2895 RMK AO2 PK WND 21028/1904 SLP807 T01170056=
202212271853 METAR KSEA 271853Z 19012G21KT 10SM FEW039 SCT048 OVC060 12/07 A2895 RMK AO2 SLP807 T01170072=
202212271753 METAR KSEA 271753Z 18014G23KT 10SM OVC043 12/06 A2894 RMK AO2 SLP805 60019 T01170061 10117 20094 53020=
202212271653 METAR KSEA 271653Z 17012G23KT 10SM FEW025 OVC048 11/07 A2890 RMK AO2 RAB1556E41 SLP794 P0002 T01110072=
202212271553 METAR KSEA 271553Z 18011G20KT 10SM SCT025 OVC055 11/09 A2889 RMK AO2 RAE50 SLP789 P0008 T01110089=
202212271540 SPECI KSEA 271540Z 18014G21KT 9SM -RA SCT025 OVC050 11/09 A2889 RMK AO2 P0008 T01060089=
202212271533 SPECI KSEA 271533Z 18012KT 5SM -RA BR BKN025 BKN031 OVC038 11/09 A2889 RMK AO2 P0007 T01060089=
202212271453 METAR KSEA 271453Z 15015G20KT 7SM -RA SCT035 OVC045 09/07 A2888 RMK AO2 SLP785 P0002 60009 T00940072 55022=
202212271353 METAR KSEA 271353Z 12015G22KT 10SM -RA FEW042 BKN050 BKN070 09/07 A2887 RMK AO2 RAB21 SLP783 P0001 T00940067=
202212271253 METAR KSEA 271253Z 11015KT 10SM BKN045 OVC055 09/07 A2888 RMK AO2 RAE45 PRESFR SLP787 P0006 T00940067=
202212271153 METAR KSEA 271153Z 13014G22KT 7SM -RA BKN055 BKN070 OVC080 11/07 A2894 RMK AO2 RAE23B45 SLP807 P0002 60013 70073 T01060072 10117 20089 58033=
202212271053 METAR KSEA 271053Z 10010KT 10SM -RA BKN038 OVC045 11/09 A2897 RMK AO2 RAB44 SLP817 P0000 T01110089=
202212270953 METAR KSEA 270953Z 15007KT 10SM BKN045 OVC070 10/09 A2901 RMK AO2 SLP830 T01000089=
202212270853 METAR KSEA 270853Z 14008KT 10SM FEW050 BKN065 BKN100 10/08 A2904 RMK AO2 SLP840 60011 T01000083 58016=
202212270753 METAR KSEA 270753Z 13012G21KT 10SM FEW027 SCT070 OVC085 11/09 A2907 RMK AO2 RAE43 SLP847 P0008 T01110089 401390078=
202212270653 METAR KSEA 270653Z VRB04KT 4SM -RA BR OVC041 10/08 A2907 RMK AO2 SLP849 P0003 T01000078=
202212270553 METAR KSEA 270553Z 08006KT 7SM -RA OVC045 09/07 A2909 RMK AO2 PRESFR SLP856 P0008 60030 T00890072 10100 20078 56095=
202212270453 METAR KSEA 270453Z 03006KT 5SM -RA BR OVC050 09/07 A2917 RMK AO2 PRESFR SLP886 P0012 T00890067=
202212270353 METAR KSEA 270353Z 04007KT 7SM -RA OVC070 08/07 A2926 RMK AO2 PRESFR SLP915 P0005 T00830067=
202212270253 METAR KSEA 270253Z 03008KT 9SM -RA BKN048 OVC070 08/06 A2937 RMK AO2 PRESFR SLP953 P0005 60005 T00830061 56090=
202212270153 METAR KSEA 270153Z 02006KT 10SM -RA OVC050 09/06 A2946 RMK AO2 RAB08E22B47 PRESFR SLP982 P0000 T00940056=
202212270053 METAR KSEA 270053Z 05007KT 10SM BKN055 OVC070 10/07 A2955 RMK AO2 PRESFR SLP013 T01000067=
202212262353 METAR KSEA 262353Z 36005KT 10SM OVC080 10/07 A2964 RMK AO2 PRESFR SLP043 T01000067 10111 20100 58045=
202212262253 METAR KSEA 262253Z 09006KT 10SM OVC100 11/07 A2969 RMK AO2 SLP061 T01060067=
202212262153 METAR KSEA 262153Z 18009KT 10SM FEW030 BKN100 OVC200 11/07 A2973 RMK AO2 SLP074 T01060067=
202212262053 METAR KSEA 262053Z 18011KT 10SM SCT030 BKN130 11/07 A2978 RMK AO2 SLP090 T01110067 58019=
202212261953 METAR KSEA 261953Z 18011KT 10SM BKN030 OVC037 11/08 A2983 RMK AO2 SLP107 T01110078=
202212261853 METAR KSEA 261853Z 19012KT 10SM BKN033 OVC037 11/08 A2984 RMK AO2 SLP111 T01110078=
202212261753 METAR KSEA 261753Z 21012G19KT 10SM FEW015 FEW029 OVC037 11/08 A2983 RMK AO2 RAB17E30 SLP109 P0000 60030 T01060083 10139 20106 51030=
202212261715 SPECI KSEA 261715Z 22009KT 9SM BKN018 BKN030 11/08 A2982 RMK AO2 T01060083=
202212261653 METAR KSEA 261653Z 21009G18KT 10SM SCT021 BKN030 OVC085 11/08 A2981 RMK AO2 PK WND 22036/1557 RAE33 SLP101 P0004 T01060083=
202212261553 METAR KSEA 261553Z 23022G37KT 7SM -RA FEW009 SCT025 OVC050 11/09 A2978 RMK AO2 PK WND 24048/1520 SLP092 P0021 T01110089=
202212261531 SPECI KSEA 261531Z 23019G38KT 8SM -RA FEW005 BKN041 OVC050 12/09 A2978 RMK AO2 PK WND 24048/1520 P0019 T01170089=
202212261526 SPECI KSEA 261526Z 23021G48KT 1 1/2SM R16L/4500VP6000FT -RA BR FEW005 BKN031 OVC047 12/09 A2977 RMK AO2 PK WND 24048/1520 P0018 T01170094=
202212261524 SPECI KSEA 261524Z 23020G48KT 1 1/2SM R16L/4500VP6000FT -RA BR FEW005 BKN029 OVC045 12/09 A2978 RMK AO2 PK WND 24048/1520 P0018 T01170094=
202212261515 SPECI KSEA 261515Z 25017G35KT 1 1/4SM R16L/5000VP6000FT +RA BR FEW007 SCT023 OVC033 12/11 A2977 RMK AO2 PK WND 26035/1515 P0008 T01170106=
202212261511 SPECI KSEA 261511Z 26014KT 2 1/2SM RA BR FEW007 SCT023 OVC033 12/11 A2978 RMK AO2 PRESRR P0005 T01220111=
202212261453 METAR KSEA 261453Z 21014KT 4SM -RA BR FEW026 BKN033 OVC047 13/11 A2974 RMK AO2 PK WND 20026/1359 RAE1357B27 SLP078 P0004 60005 T01280111 55007=
202212261353 METAR KSEA 261353Z 19015G28KT 9SM -RA SCT027 OVC033 14/11 A2972 RMK AO2 PK WND 18028/1350 RAE28B46 SLP072 P0000 T01390106=
202212261253 METAR KSEA 261253Z 18010KT 7SM -RA OVC045 13/11 A2975 RMK AO2 RAE12B50 SLP079 P0001 T01280106=
202212261153 METAR KSEA 261153Z 15010KT 7SM -RA SCT037 BKN044 OVC065 12/09 A2976 RMK AO2 SLP085 P0001 60069 70086 T01170094 10117 20094 58038=
202212261053 METAR KSEA 261053Z 13011KT 8SM -RA BKN065 OVC080 11/09 A2980 RMK AO2 SLP096 P0010 T01060089=
202212260953 METAR KSEA 260953Z 12011KT 7SM -RA BKN065 OVC075 10/08 A2985 RMK AO2 SLP115 P0017 T01000083=
202212260853 METAR KSEA 260853Z 13009KT 6SM -RA BR FEW015 BKN060 OVC075 09/08 A2988 RMK AO2 SLP124 P0014 60041 T00940083 58031=
202212260753 METAR KSEA 260753Z 10007KT 4SM -RA BR FEW015 FEW042 OVC050 10/09 A2991 RMK AO2 SLP136 P0016 T01000089 401170083=
202212260700 SPECI KSEA 260700Z VRB04KT 3SM RA BR FEW015 OVC035 10/08 A2995 RMK AO2 P0001 T01000083=
202212260653 METAR KSEA 260653Z 00000KT 3SM RA BR BKN015 OVC036 10/09 A2995 RMK AO2 SLP150 P0011 T01000089=
202212260633 SPECI KSEA 260633Z 00000KT 5SM -RA BR BKN015 OVC036 10/09 A2996 RMK AO2 P0006 T01000089=
202212260553 METAR KSEA 260553Z 00000KT 3SM RA BKN038 OVC050 11/08 A2997 RMK AO2 SLP156 P0005 60010 T01060078 10117 20094 56018=
202212260453 METAR KSEA 260453Z 15004KT 10SM -RA FEW011 BKN070 OVC080 11/08 A2998 RMK AO2 RAB52 SLP160 P0000 T01060078=
202212260353 METAR KSEA 260353Z 11009KT 10SM SCT005 BKN020 BKN030 11/09 A2999 RMK AO2 RAB18E43 SLP163 P0000 T01060094=
202212260253 METAR KSEA 260253Z 16007KT 10SM SCT006 BKN019 BKN034 11/09 A3002 RMK AO2 RAE44 SLP174 P0004 60005 T01060094 58012=
202212260153 METAR KSEA 260153Z 00000KT 6SM -RA BR FEW011 BKN023 BKN034 10/09 A3005 RMK AO2 SLP182 P0001 T01000089=
202212260143 SPECI KSEA 260143Z 00000KT 6SM -RA BR FEW001 SCT013 OVC034 09/09 A3006 RMK AO2 P0001 T00940094=
202212260136 SPECI KSEA 260136Z 00000KT 1/2SM R16L/4000VP6000FT -RA BR SCT001 BKN013 OVC034 09/09 A3005 RMK AO2 SFC VIS 5 P0001 T00940089=
202212260120 SPECI KSEA 260120Z 27007KT 1/2SM R16L/1800VP6000FT -RA BR BKN001 BKN011 OVC036 09/09 A3006 RMK AO2 SFC VIS 1 P0001 T00940089=
202212260114 SPECI KSEA 260114Z 27010G20KT 1/2SM R16L/2000VP6000FT -RA BR SCT003 BKN036 OVC050 09/09 A3006 RMK AO2 SFC VIS 3 P0001 T00940089=
202212260053 METAR KSEA 260053Z 17005KT 4SM -RA BR FEW010 BKN034 OVC065 09/09 A3004 RMK AO2 RAB42 SLP181 P0000 T00940089=
202212260043 SPECI KSEA 260043Z 00000KT 3SM -RA BR BKN036 OVC100 10/09 A3005 RMK AO2 RAB42 P0000 T01000094=
202212260041 SPECI KSEA 260041Z 23003KT 1 3/4SM BR FEW029 BKN034 OVC100 10/09 A3005 RMK AO2 T01000089=
202212252353 METAR KSEA 252353Z VRB03KT 10SM BKN030 BKN060 OVC100 11/09 A3006 RMK AO2 SLP186 60004 T01110094 10117 20100 56040=
202212252253 METAR KSEA 252253Z 12006KT 10SM BKN033 BKN050 OVC100 12/09 A3008 RMK AO2 SLP194 T01170089=
202212252153 METAR KSEA 252153Z 13005KT 10SM FEW001 BKN041 BKN050 11/09 A3014 RMK AO2 SLP214 T01110089=
202212252120 SPECI KSEA 252120Z 13004KT 10SM FEW022 BKN033 OVC045 11/09 A3016 RMK AO2 T01110094 $=
202212252053 METAR KSEA 252053Z 00000KT 4SM BR BKN022 BKN037 11/09 A3018 RMK AO2 RAB23E44 SLP227 P0002 60004 T01060094 58012 $=
202212252030 SPECI KSEA 252030Z 16004KT 2 1/2SM RA BR FEW024 BKN028 OVC037 11/09 A3019 RMK AO2 RAB23 P0001 T01060089 $=
202212251953 METAR KSEA 251953Z 17004KT 10SM FEW010 SCT033 OVC048 11/08 A3019 RMK AO2 RAE01 SLP230 P0001 T01060083 $=
202212251853 METAR KSEA 251853Z 17004KT 5SM -RA BR FEW050 BKN070 OVC085 10/08 A3021 RMK AO2 RAB44 SLP238 P0001 T01000078 $=
202212251753 METAR KSEA 251753Z 22003KT 10SM FEW000 SCT038 OVC070 10/08 A3021 RMK AO2 RAB1654E05 SLP238 FG BANK W P0000 60003 T01000083 10106 20083 55011 $=
202212251653 METAR KSEA 251653Z 12007KT 10SM FEW050 BKN080 OVC100 10/08 A3021 RMK AO2 RAB24E45 SLP238 P0001 T01000083 $=
202212251553 METAR KSEA 251553Z 08009KT 10SM FEW041 SCT055 OVC090 10/08 A3021 RMK AO2 SLP239 P0001 T01000083 $=
202212251453 METAR KSEA 251453Z 00000KT 10SM OVC095 09/08 A3025 RMK AO2 RAE16B37E51 SLP250 P0001 60001 T00890083 58005 $=
202212251353 METAR KSEA 251353Z 09006KT 9SM -RA BKN065 OVC085 10/09 A3025 RMK AO2 RAB48 SLP252 P0000 T01000089 $=
202212251253 METAR KSEA 251253Z 19004KT 10SM SCT055 OVC110 09/08 A3026 RMK AO2 SLP256 T00890083 $=
202212251153 METAR KSEA 251153Z 19004KT 10SM FEW020 BKN060 OVC170 09/08 A3026 RMK AO2 SLP255 60007 70145 T00890083 10106 20089 58001 $=
202212251053 METAR KSEA 251053Z 20004KT 10SM SCT055 BKN140 09/08 A3027 RMK AO2 SLP256 T00940083 $=
202212250953 METAR KSEA 250953Z 22007KT 10SM FEW029 FEW039 BKN050 10/09 A3026 RMK AO2 SLP255 T01000089 $=
202212250853 METAR KSEA 250853Z 15004KT 10SM SCT024 BKN035 OVC055 11/09 A3026 RMK AO2 SLP255 60007 T01060089 53011 $=
202212250753 METAR KSEA 250753Z 17005KT 10SM BKN021 OVC050 10/09 A3025 RMK AO2 RAB07E26 SLP249 P0003 T01000094 401170022 $=
202212250732 SPECI KSEA 250732Z 19008KT 10SM SCT005 BKN019 OVC055 09/09 A3024 RMK AO2 RAB07E26 P0003 T00940094 $=
202212250653 METAR KSEA 250653Z 20007KT 7SM BKN009 OVC025 10/09 A3023 RMK AO2 RAB0558E37 SLP245 P0004 T01000089 $=
202212250651 SPECI KSEA 250651Z 21006KT 6SM BR BKN009 OVC025 10/09 A3023 RMK AO2 RAB0558E37 P0004 $=
202212250637 SPECI KSEA 250637Z 20005KT 10SM OVC010 10/09 A3023 RMK AO2 RAB0558E37 P0004 T01000094 $=
202212250627 SPECI KSEA 250627Z 19004KT 2 1/2SM RA BR OVC010 11/09 A3023 RMK AO2 VIS 1 3/4V5 RAB0558 P0004 T01060094 $=
202212250617 SPECI KSEA 250617Z 21004KT 1 3/4SM R16L/5500VP6000FT RA BR SCT005 OVC010 11/10 A3023 RMK AO2 RAB0558 P0004 T01060100 $=
202212250610 SPECI KSEA 250610Z 21005KT 2SM RA BR SCT006 OVC010 11/10 A3022 RMK AO2 RAB0558 P0002 T01060100 $=
202212250553 METAR KSEA 250553Z 20007KT 5SM BR OVC007 11/10 A3022 RMK AO2 RAE19B42E52 SLP241 P0002 60013 T01060100 10117 20106 51031 $=
202212250541 SPECI KSEA 250541Z 20010KT 6SM BR BKN007 OVC011 11/09 A3022 RMK AO2 RAE19 P0001 T01060094 $=
202212250526 SPECI KSEA 250526Z 20012KT 8SM OVC010 11/09 A3021 RMK AO2 RAE19 P0001 T01060094 $=
202212250453 METAR KSEA 250453Z 20009KT 6SM -RA BR BKN005 OVC010 11/10 A3020 RMK AO2 SLP234 P0002 T01060100 $=
202212250353 METAR KSEA 250353Z 19013KT 5SM -RA BR OVC005 11/09 A3016 RMK AO2 SLP220 P0004 T01060094 $=
202212250337 SPECI KSEA 250337Z 19013KT 5SM -RA BR OVC005 11/09 A3015 RMK AO2 P0003 T01060094 $=
202212250320 SPECI KSEA 250320Z 20012G19KT 5SM -RA BR OVC004 11/10 A3016 RMK AO2 P0002 T01060100 $=
202212250307 SPECI KSEA 250307Z 20011KT 5SM -RA BR BKN005 OVC009 11/10 A3015 RMK AO2 PRESRR P0002 T01060100 $=
202212250253 METAR KSEA 250253Z 20011KT 5SM -RA BR FEW005 BKN010 OVC015 11/10 A3013 RMK AO2 SLP211 P0003 60005 T01060100 51026 $=
202212250153 METAR KSEA 250153Z 20009G18KT 7SM -RA FEW008 BKN011 OVC017 11/09 A3011 RMK AO2 RAB49 SLP204 P0001 T01110094 $=
202212250053 METAR KSEA 250053Z 21013KT 7SM SCT008 BKN011 OVC017 11/10 A3009 RMK AO2 PK WND 20026/0000 RAB12E28 SLP197 P0001 T01110100 $=
202212242353 METAR KSEA 242353Z 19020G31KT 10SM FEW004 SCT008 OVC013 11/11 A3005 RMK AO2 PK WND 18031/2352 RAE26 SLP184 P0001 60066 T01110106 10117 20056 51024 $=
202212242340 SPECI KSEA 242340Z 19018G30KT 10SM SCT008 OVC013 11/11 A3004 RMK AO2 PK WND 20030/2338 RAE26 P0001 T01110106 $=
202212242304 SPECI KSEA 242304Z 20015G22KT 7SM -RA SCT004 BKN008 OVC015 11/11 A3004 RMK AO2 P0000 T01060106 $=
202212242253 METAR KSEA 242253Z 20016G25KT 3SM -RA BR SCT004 OVC015 11/11 A3003 RMK AO2 WSHFT 2142 SLP177 P0011 T01060106 $=
202212242208 SPECI KSEA 242208Z 23013G22KT 3SM -RA BR FEW004 BKN020 OVC038 11/11 A3001 RMK AO2 WSHFT 2142 P0008 T01110106=
202212242155 SPECI KSEA 242155Z 24015KT 1 1/2SM +RA BR FEW008 BKN020 OVC041 11/11 A3001 RMK AO2 PRESRR P0002 T01110111=
202212242153 METAR KSEA 242153Z 24012KT 2SM RA BR BKN022 BKN039 OVC050 11/11 A3001 RMK AO2 PK WND 19029/2120 PRESRR SLP170 P0005 T01110111=
202212242150 SPECI KSEA 242150Z 24012G20KT 2SM -RA BR BKN022 BKN039 OVC050 11/11 A3000 RMK AO2 PK WND 19029/2120 PRESRR P0004=
202212242053 METAR KSEA 242053Z 19015G24KT 3SM -RA BR FEW015 BKN028 OVC050 11/11 A2998 RMK AO2 SLP160 P0008 60049 T01110106 58012=
202212242017 SPECI KSEA 242017Z 15014KT 6SM -RA BR FEW011 BKN025 OVC049 08/08 A2997 RMK AO2 P0006 T00830078=
202212241955 SPECI KSEA 241955Z 13011KT 3SM RA BR SCT008 BKN011 OVC023 08/07 A3000 RMK AO2 PRESFR P0000 T00830072=
202212241953 METAR KSEA 241953Z 14012KT 2 1/2SM RA BR SCT006 BKN011 OVC023 08/07 A3001 RMK AO2 SLP170 P0015 T00830072=
202212241941 SPECI KSEA 241941Z 13008KT 2 1/2SM RA BR SCT006 BKN011 OVC018 07/06 A3003 RMK AO2 P0011 T00670056=
202212241916 SPECI KSEA 241916Z 13010KT 2 1/2SM RA BR SCT008 OVC015 06/05 A3003 RMK AO2 P0004 T00610050=
202212241853 METAR KSEA 241853Z 13007KT 2SM R16L/5500VP6000FT RA BR SCT010 OVC015 06/05 A3003 RMK AO2 SLP177 P0026 T00610050 $=
202212241826 SPECI KSEA 241826Z 14006KT 2SM RA BR SCT016 OVC022 06/05 A3002 RMK AO2 P0016 T00610050 $=
202212241804 SPECI KSEA 241804Z 12007KT 1 1/4SM RA BR BKN028 OVC036 06/04 A3002 RMK AO2 P0007 T00560044 $=
202212241800 SPECI KSEA 241800Z 12008KT 1 1/4SM RA BR OVC030 06/04 A3001 RMK AO2 P0004 T00560044 $=
202212241753 METAR KSEA 241753Z 12008KT 2SM RA BR OVC030 06/04 A3002 RMK AO2 SLP173 P0030 60059 T00560044 10056 20033 53000 $=
202212241726 SPECI KSEA 241726Z 11010KT 2 1/2SM RA BR OVC031 06/04 A3001 RMK AO2 P0015 T00560039 $=
202212241701 SPECI KSEA 241701Z 11008KT 1 3/4SM RA BR OVC033 06/04 A3001 RMK AO2 P0003 T00560039 $=
202212241653 METAR KSEA 241653Z 12008KT 2SM -RA BR OVC033 06/04 A3000 RMK AO2 VIS 3/4V5 SLP169 P0015 T00560039 $=
202212241553 METAR KSEA 241553Z 13008KT 5SM -RA BR BKN033 OVC045 06/04 A3000 RMK AO2 RAE1457B30 SLP168 P0003 T00560039 $=
202212241453 METAR KSEA 241453Z 14007KT 10SM -RA OVC033 04/03 A3001 RMK AO2 RAB22 SLP173 P0002 60011 T00440033 58027 $=
202212241353 METAR KSEA 241353Z 14009KT 10SM OVC035 04/03 A3004 RMK AO2 RAE34 SLP182 P0001 T00440033 $=
202212241333 SPECI KSEA 241333Z 13010KT 6SM -RA BR FEW026 OVC031 04/04 A3005 RMK AO2 P0001 T00440039 $=
202212241253 METAR KSEA 241253Z 11009KT 2 1/2SM -RA BR BKN028 OVC034 06/04 A3007 RMK AO2 SLP192 P0008 T00560044 $=
202212241238 SPECI KSEA 241238Z 11011KT 2 1/2SM -RA BR BKN028 OVC034 05/04 A3008 RMK AO2 P0007 T00500039 $=
202212241153 METAR KSEA 241153Z 13009KT 3SM -RA BR BKN041 OVC055 03/02 A3010 RMK AO2 SLP201 P0005 60008 70026 T00330022 10039 20017 58006 $=
202212241053 METAR KSEA 241053Z 12003KT 5SM -RA BR SCT048 OVC060 03/02 A3013 RMK AO2 RAB50 SLP213 P0002 T00330022 $=
202212240953 METAR KSEA 240953Z 16004KT 10SM SCT033 BKN110 OVC160 02/01 A3011 RMK AO2 SLP208 T00220011 $=
202212240853 METAR KSEA 240853Z 20003KT 8SM SCT030 BKN060 OVC180 03/02 A3011 RMK AO2 RAE34 SLP208 P0000 60001 T00280017 58001 $=
202212240753 METAR KSEA 240753Z 14004KT 7SM -RA BKN030 OVC041 03/02 A3012 RMK AO2 RAB14 SLP210 P0001 T00280017 400391050 $=
202212240720 SPECI KSEA 240720Z 12006KT 4SM -RA BR FEW002 FEW031 OVC045 03/02 A3013 RMK AO2 RAB14 P0001 T00280017 $=
202212240700 SPECI KSEA 240700Z 15005KT 2 1/2SM BR SCT002 SCT025 OVC045 03/02 A3013 RMK AO2 T00280022 $=
202212240653 METAR KSEA 240653Z 15006KT 1 1/2SM BR SCT002 BKN037 OVC047 03/02 A3013 RMK AO2 SLP213 T00280017 $=
202212240641 SPECI KSEA 240641Z 15008KT 1 1/2SM R16L/5500VP6000FT BR FEW001 SCT017 OVC044 03/02 A3012 RMK AO2 T00280022 $=
202212240636 SPECI KSEA 240636Z 16007KT 1 1/4SM R16L/5500VP6000FT BR BKN002 OVC036 03/02 A3013 RMK AO2 T00280022 $=
202212240625 SPECI KSEA 240625Z 14005KT 1/2SM R16L/1600VP6000FT FG VV002 03/02 A3012 RMK AO2 T00330022 $=
202212240615 SPECI KSEA 240615Z 15003KT 1/2SM R16L/1600V1800FT FG VV002 03/02 A3012 RMK AO2 T00280022 $=
202212240608 SPECI KSEA 240608Z 20004KT 1/2SM R16L/1600VP6000FT BR BKN002 BKN028 OVC036 02/02 A3012 RMK AO2 SFC VIS 3/4 T00170017=
202212240605 SPECI KSEA 240605Z 20004KT 1SM R16L/1600VP6000FT BR FEW002 BKN036 OVC048 02/02 A3012 RMK AO2 T00170017=
202212240603 SPECI KSEA 240603Z 18004KT 2 1/2SM R16L/1600VP6000FT BR FEW002 BKN036 OVC048 02/02 A3012 RMK AO2 T00220017=
202212240553 METAR KSEA 240553Z 17004KT 6SM BR SCT038 BKN048 OVC060 03/03 A3012 RMK AO2 SLP208 60001 T00330028 10039 20006 53000=
202212240453 METAR KSEA 240453Z 17003KT 10SM FEW044 FEW100 OVC120 02/02 A3011 RMK AO2 SLP206 T00220017=
202212240353 METAR KSEA 240353Z 15006KT 9SM SCT030 OVC043 02/02 A3011 RMK AO2 SLP206 T00220017=
202212240318 SPECI KSEA 240318Z 13009KT 9SM SCT022 BKN041 OVC060 03/02 A3011 RMK AO2 T00280017=
202212240253 METAR KSEA 240253Z 15006KT 9SM OVC020 02/01 A3011 RMK AO2 RAE07 SLP209 P0001 60001 T00220011 51016=
202212240153 METAR KSEA 240153Z 18007KT 7SM -RA BKN017 OVC060 02/01 A3010 RMK AO2 DZB48E50RAB50 SLP205 P0000 T00170006=
202212240053 METAR KSEA 240053Z 17005KT 7SM FEW005 OVC017 01/00 A3009 RMK AO2 DZE05 SLP201 P0000 T00110000=
202212240025 SPECI KSEA 240025Z 17006KT 8SM SCT005 OVC015 01/00 A3008 RMK AO2 DZE05 P0000 T00060000=
202212240009 SPECI KSEA 240009Z 16007KT 6SM BR SCT003 BKN007 OVC015 01/00 A3007 RMK AO2 DZE05 P0000 T00060000=
202212232353 METAR KSEA 232353Z 18008KT 6SM -DZ BR BKN003 OVC015 01/00 A3007 RMK AO2 SLP192 P0000 60005 T00060000 10006 21022 53023=
202212232338 SPECI KSEA 232338Z 18006KT 5SM -DZ OVC003 01/00 A3006 RMK AO2 P0000 T00060000=
202212232253 METAR KSEA 232253Z 17009KT 6SM -DZ BR OVC005 01/M01 A3003 RMK AO2 RAE20DZB20 SLP181 P0001 T00061006=
202212232153 METAR KSEA 232153Z 16009KT 4SM -RA BR OVC005 00/M01 A3000 RMK AO2 RAB35FZDZE35 SLP169 P0001 T00001011=
202212232135 SPECI KSEA 232135Z 15008KT 3SM -RA BR OVC006 00/M02 A3000 RMK AO2 RAB35FZDZE35 P0001 T00001017=
202212232053 METAR KSEA 232053Z 14007KT 2SM -FZDZ BR BKN006 OVC017 M01/M02 A3000 RMK AO2 SLP169 P0002 60003 T10061017 51005=
202212232051 SPECI KSEA 232051Z 14008KT 2SM -FZDZ BR BKN006 OVC017 M01/M02 A2999 RMK AO2 P0002=
202212231953 METAR KSEA 231953Z 12009KT 3SM -FZDZ BR OVC010 M02/M03 A2999 RMK AO2 SLP168 P0000 T10171028=
202212231853 METAR KSEA 231853Z 14007KT 5SM R16L/5000VP6000FT -FZDZ BR OVC010 M02/M03 A2999 RMK AO2 SLP168 P0001 T10221033=
202212231827 SPECI KSEA 231827Z 13010KT 3SM -FZDZ BR OVC013 M02/M03 A2998 RMK AO2 P0001 T10221033=
202212231753 METAR KSEA 231753Z 13009KT 3SM -FZDZ BR OVC017 M02/M04 A2998 RMK AO2 SLP165 P0000 60012 T10221039 11022 21039 53016=
202212231721 SPECI KSEA 231721Z 11009KT 3SM -FZDZ BR OVC022 M02/M04 A2997 RMK AO2 P0000 T10221044=
202212231653 METAR KSEA 231653Z 11006KT 3SM -FZDZ BR BKN010 BKN015 OVC022 M02/M04 A2996 RMK AO2 FZDZB33 SLP159 P0001 T10221044=
202212231633 SPECI KSEA 231633Z 12007KT 3SM -FZDZ BR SCT012 BKN015 OVC023 M03/M04 A2995 RMK AO2 FZDZB33 P0000 T10281044=
202212231553 METAR KSEA 231553Z 12010KT 5SM BR BKN015 OVC025 M03/M05 A2993 RMK AO2 FZDZE43 SLP147 P0000 T10331050=
202212231543 SPECI KSEA 231543Z 12010KT 5SM SCT018 OVC025 M03/M06 A2993 RMK AO2 FZDZE43 P0000 T10281056=
202212231512 SPECI KSEA 231512Z 13008KT 5SM -FZDZ BR FEW018 OVC025 M03/M05 A2993 RMK AO2 P0000 T10331050=
202212231459 SPECI KSEA 231459Z 13007KT 4SM BR BKN016 OVC025 M03/M05 A2993 RMK AO2 FZDZE59 P0000 T10331050=
202212231453 METAR KSEA 231453Z 11008KT 3SM -FZDZ BR BKN016 OVC026 M03/M05 A2993 RMK AO2 SLP148 P0000 60011 T10331050 58004=
202212231353 METAR KSEA 231353Z 11009KT 2 1/2SM -FZDZ BR FEW005 OVC012 M03/M04 A2995 RMK AO2 FZRAE32FZDZB32 SLP152 P0002 T10331044=
202212231336 SPECI KSEA 231336Z 13011KT 4SM -FZDZ BR FEW007 BKN014 OVC020 M03/M05 A2995 RMK AO2 FZRAE32FZDZB32 P0001 T10331050=
202212231329 SPECI KSEA 231329Z 14008KT 4SM -FZRA BR BKN014 OVC020 M03/M05 A2995 RMK AO2 P0001 T10331050=
202212231320 SPECI KSEA 231320Z 14005KT 3SM -FZRA BR SCT016 OVC022 M03/M05 A2995 RMK AO2 P0001 T10331050=
202212231301 SPECI KSEA 231301Z 13007KT 6SM -FZRA BR SCT016 OVC030 M03/M06 A2995 RMK AO2 P0000 T10331056=
202212231253 METAR KSEA 231253Z 13009KT 5SM -FZRA BR SCT016 OVC029 M03/M06 A2995 RMK AO2 SLP153 P0009 T10331056=
202212231207 SPECI KSEA 231207Z 12013KT 5SM -FZRA BR OVC028 M04/M06 A2994 RMK AO2 P0002 T10391061=
202212231153 METAR KSEA 231153Z 12013G20KT 4SM -FZRA OVC030 M04/M07 A2994 RMK AO2 SLP152 P0008 60016 70016 T10391067 11033 21050 58020=
202212231053 METAR KSEA 231053Z 11014KT 7SM -FZRA OVC031 M04/M07 A2998 RMK AO2 PK WND 12026/1034 SLP165 P0006 T10441072=
202212230953 METAR KSEA 230953Z 11014G23KT 5SM -FZRA OVC030 M04/M09 A3000 RMK AO2 SLP171 P0002 T10441089=
202212230948 SPECI KSEA 230948Z 11015G23KT 6SM -FZRA OVC030 M04/M09 A3000 RMK AO2 P0002=
202212230929 SPECI KSEA 230929Z 11017G25KT 8SM -FZRA OVC029 M04/M09 A3001 RMK AO2 P0001 T10441094=
202212230853 METAR KSEA 230853Z 09014KT 10SM -FZRA OVC035 M05/M11 A3003 RMK AO2 SLP183 P0000 60000 T10501106 58027=
202212230753 METAR KSEA 230753Z 09012G21KT 10SM -FZRA OVC039 M04/M12 A3007 RMK AO2 FZRAB02E30B40SNE02 SLP196 P0000 T10441117 410331078=
202212230746 SPECI KSEA 230746Z 09013G23KT 10SM -FZRA OVC039 M04/M12 A3008 RMK AO2 FZRAB02E30B40SNE02 P0000 T10441117=
202212230736 SPECI KSEA 230736Z 09012KT 10SM OVC039 M04/M12 A3008 RMK AO2 FZRAB02E30SNE02 P0000 T10441117=
202212230708 SPECI KSEA 230708Z 09012G20KT 10SM -FZRA OVC044 M04/M12 A3010 RMK AO2 FZRAB02SNE02 P0000 T10391122=
202212230653 METAR KSEA 230653Z 09010G22KT 10SM -SN OVC046 M05/M13 A3011 RMK AO2 SNB51 SLP208 P0000 T10501133=
202212230553 METAR KSEA 230553Z 08012G22KT 10SM SCT060 OVC075 M04/M13 A3012 RMK AO2 SLP211 T10441133 11039 21056 58024=
202212230453 METAR KSEA 230453Z 08009KT 10SM OVC070 M05/M14 A3015 RMK AO2 SLP223 T10501144=
202212230353 METAR KSEA 230353Z 08012KT 10SM BKN055 OVC070 M06/M16 A3017 RMK AO2 SLP231 T10561156=
202212230253 METAR KSEA 230253Z 09011KT 10SM BKN075 BKN090 OVC110 M06/M16 A3019 RMK AO2 SLP236 T10561156 58018=
202212230153 METAR KSEA 230153Z 09009KT 10SM OVC100 M06/M16 A3021 RMK AO2 SLP244 T10561161=
202212230053 METAR KSEA 230053Z 10008KT 10SM OVC100 M05/M16 A3022 RMK AO2 SLP248 T10501161=
202212222353 METAR KSEA 222353Z 09009KT 10SM OVC085 M05/M16 A3024 RMK AO2 SLP254 T10501156 11050 21067 56024=
202212222253 METAR KSEA 222253Z 09010KT 10SM OVC085 M05/M16 A3026 RMK AO2 SLP259 T10501161=
202212222153 METAR KSEA 222153Z 08014G22KT 10SM OVC100 M05/M16 A3029 RMK AO2 PK WND 08029/2125 SLP270 T10501161=
202212222053 METAR KSEA 222053Z 08010KT 10SM OVC110 M05/M16 A3031 RMK AO2 SLP278 T10501161 58029=
202212221953 METAR KSEA 221953Z 10010KT 10SM BKN100 OVC160 M06/M16 A3035 RMK AO2 SLP289 T10561161=
202212221853 METAR KSEA 221853Z 09007KT 10SM FEW100 BKN180 M06/M17 A3039 RMK AO2 SLP302 T10611167=
202212221753 METAR KSEA 221753Z 09011KT 10SM FEW100 BKN220 M07/M17 A3040 RMK AO2 SLP309 T10671172 11067 21078 56015=
202212221653 METAR KSEA 221653Z 08013KT 10SM FEW140 SCT200 M08/M18 A3042 RMK AO2 SLP314 T10781178=
202212221553 METAR KSEA 221553Z 08015G23KT 10SM FEW140 SCT200 M08/M17 A3042 RMK AO2 PK WND 08027/1514 SLP316 T10781172=
202212221453 METAR KSEA 221453Z 08017G24KT 10SM FEW140 SCT200 M08/M17 A3045 RMK AO2 PK WND 08031/1400 SLP324 T10781172 58014=
202212221353 METAR KSEA 221353Z 08019G31KT 10SM FEW150 SCT200 M08/M17 A3047 RMK AO2 PK WND 08031/1345 SLP331 T10781172=
202212221253 METAR KSEA 221253Z 08017G25KT 10SM SCT150 BKN200 M07/M17 A3047 RMK AO2 SLP332 T10721167=
202212221153 METAR KSEA 221153Z 08012KT 10SM SCT160 BKN210 M07/M16 A3049 RMK AO2 SLP338 T10721156 11044 21072 58010=
202212221053 METAR KSEA 221053Z 08016G25KT 10SM SCT250 M07/M16 A3051 RMK AO2 SLP343 T10671156=
202212220953 METAR KSEA 220953Z 04005KT 10SM FEW250 M07/M14 A3051 RMK AO2 SLP345 T10721139=
202212220853 METAR KSEA 220853Z 07009KT 10SM CLR M07/M12 A3052 RMK AO2 SLP348 T10671122 50001=
202212220753 METAR KSEA 220753Z 04007KT 10SM CLR M06/M11 A3054 RMK AO2 SLP355 T10611111 410111067=
202212220653 METAR KSEA 220653Z VRB06KT 10SM CLR M06/M10 A3053 RMK AO2 SLP351 T10561100=
202212220553 METAR KSEA 220553Z 04009KT 10SM CLR M07/M11 A3052 RMK AO2 SLP347 4/001 T10671106 11050 21067 51006=
202212220453 METAR KSEA 220453Z 02011KT 10SM FEW016 M06/M10 A3051 RMK AO2 SLP344 T10611100=
202212220353 METAR KSEA 220353Z 02012KT 10SM FEW016 M06/M10 A3051 RMK AO2 SLP344 T10611100=
202212220253 METAR KSEA 220253Z 02012KT 10SM FEW017 M06/M10 A3050 RMK AO2 SLP341 T10611100 55000=
202212220153 METAR KSEA 220153Z 03010KT 10SM FEW017 FEW250 M06/M09 A3049 RMK AO2 SLP338 T10561094=
202212220053 METAR KSEA 220053Z 02009KT 10SM SCT017 SCT250 M06/M09 A3051 RMK AO2 SLP343 T10561094=
202212212353 METAR KSEA 212353Z 01013KT 10SM FEW030 BKN250 M05/M09 A3050 RMK AO2 SLP341 4/001 T10501089 11028 21050 53010=
202212212253 METAR KSEA 212253Z 02014KT 10SM FEW030 SCT050 BKN250 M04/M08 A3048 RMK AO2 SLP334 T10391083=
202212212153 METAR KSEA 212153Z 02014KT 10SM FEW030 BKN055 M03/M08 A3047 RMK AO2 SLP330 T10331083=
202212212053 METAR KSEA 212053Z 01013G22KT 10SM FEW035 BKN055 M03/M08 A3047 RMK AO2 SLP330 T10281078 51005=
202212211953 METAR KSEA 211953Z 36011KT 10SM FEW035 BKN055 M03/M08 A3047 RMK AO2 SLP328 T10281083=
202212211853 METAR KSEA 211853Z 36010KT 10SM FEW035 BKN055 M03/M09 A3047 RMK AO2 SLP329 T10331089=
202212211753 METAR KSEA 211753Z 36008KT 10SM FEW035 BKN055 M03/M08 A3046 RMK AO2 SLP325 4/001 60000 T10331083 11022 21033 53015=
202212211653 METAR KSEA 211653Z 36008KT 10SM FEW016 FEW034 OVC055 M03/M07 A3044 RMK AO2 SLP319 T10331072=
202212211553 METAR KSEA 211553Z 01008KT 9SM FEW034 OVC055 M03/M07 A3042 RMK AO2 SNE50 SLP313 P0000 T10331067=
202212211453 METAR KSEA 211453Z 01008KT 9SM -SN FEW038 OVC060 M03/M07 A3041 RMK AO2 SLP310 P0000 60000 T10331067 51018=
202212211353 METAR KSEA 211353Z 36006KT 9SM -SN FEW021 SCT034 OVC050 M03/M06 A3040 RMK AO2 SLP305 P0000 T10281056=
202212211306 SPECI KSEA 211306Z 03008KT 6SM -SN BR FEW011 BKN032 OVC060 M03/M05 A3038 RMK AO2 P0000 T10281050=
202212211253 METAR KSEA 211253Z 03008KT 6SM -SN BR SCT010 BKN022 OVC060 M03/M05 A3038 RMK AO2 SLP299 P0000 T10281050=
202212211235 SPECI KSEA 211235Z 04010KT 9SM -SN BKN009 BKN014 OVC022 M03/M05 A3037 RMK AO2 P0000 T10281050=
202212211153 METAR KSEA 211153Z 03009KT 8SM -SN OVC010 M02/M05 A3036 RMK AO2 SLP291 4/002 P0000 60000 70064 T10221050 11006 21022 51025=
202212211129 SPECI KSEA 211129Z 03008KT 5SM -SN BR BKN011 OVC028 M02/M04 A3034 RMK AO2 P0000 T10221044=
202212211053 METAR KSEA 211053Z 02007KT 6SM -SN BR SCT012 BKN017 OVC029 M02/M04 A3033 RMK AO2 SLP283 P0000 T10221044=
202212211016 SPECI KSEA 211016Z 02007KT 9SM -SN FEW010 BKN028 OVC033 M02/M04 A3032 RMK AO2 P0000 T10221044=
202212210953 METAR KSEA 210953Z 02010KT 9SM -SN FEW010 SCT027 OVC033 M02/M04 A3031 RMK AO2 SLP275 P0000 T10171044=
202212210853 METAR KSEA 210853Z 02011KT 9SM -SN FEW014 BKN026 OVC032 M02/M04 A3028 RMK AO2 SLP266 P0000 60000 T10171044 53013=
202212210753 METAR KSEA 210753Z 03008KT 9SM -SN FEW015 OVC025 M01/M04 A3026 RMK AO2 SLP259 P0000 T10111039 400561017=
202212210748 SPECI KSEA 210748Z 03008KT 9SM -SN SCT014 OVC024 M01/M04 A3026 RMK AO2 P0000=
202212210733 SPECI KSEA 210733Z 06008KT 7SM -SN BKN014 OVC024 M01/M03 A3025 RMK AO2 P0000 T10111033=
202212210701 SPECI KSEA 210701Z 05008KT 6SM -SN BR BKN007 OVC022 M01/M03 A3025 RMK AO2 P0000 T10111028=
202212210653 METAR KSEA 210653Z 04007KT 7SM -SN SCT006 OVC022 M01/M03 A3024 RMK AO2 SNB50 SLP253 P0000 T10111028=
202212210553 METAR KSEA 210553Z 36006KT 10SM SCT006 OVC021 M01/M03 A3022 RMK AO2 SNE47 SLP243 P0000 60001 T10111028 11006 21017 53019=
202212210453 METAR KSEA 210453Z 03006KT 3SM -SN BR BKN005 OVC021 M01/M03 A3020 RMK AO2 SLP236 P0000 T10111028=
202212210430 SPECI KSEA 210430Z 02005KT 3SM -SN BR BKN005 OVC019 M01/M03 A3019 RMK AO2 P0000 T10111028=
202212210353 METAR KSEA 210353Z 01004KT 6SM -SN BR FEW005 BKN019 OVC025 M01/M03 A3018 RMK AO2 SLP230 P0001 T10111033=
202212210334 SPECI KSEA 210334Z VRB03KT 3SM -SN BR BKN023 OVC040 M02/M03 A3018 RMK AO2 P0001 T10171028=
202212210253 METAR KSEA 210253Z 34005KT 7SM -SN SCT025 BKN032 OVC043 M02/M03 A3016 RMK AO2 SNB45 SLP223 P0000 60000 T10171033 51010=
202212210245 SPECI KSEA 210245Z 02007KT 6SM -SN BR FEW009 BKN035 OVC045 M02/M03 A3016 RMK AO2 SNB45 P0000 T10171033=
202212210213 SPECI KSEA 210213Z 01006KT 9SM SCT028 OVC034 M02/M03 A3016 RMK AO2 T10171033=
202212210153 METAR KSEA 210153Z 01006KT 10SM BKN028 OVC038 M02/M03 A3015 RMK AO2 SNE30 SLP221 P0000 T10171033=
202212210130 SPECI KSEA 210130Z VRB05KT 8SM OVC033 M01/M03 A3015 RMK AO2 SNE30 P0000 T10111033=
202212210053 METAR KSEA 210053Z 03004KT 7SM -SN BKN028 OVC035 M01/M03 A3014 RMK AO2 SLP218 P0000 T10111033=
202212210020 SPECI KSEA 210020Z 02008KT 5SM -SN BR BKN029 OVC036 M02/M03 A3013 RMK AO2 P0000 T10171033=
202212202353 METAR KSEA 202353Z 03008KT 3SM -SN BR FEW010 OVC031 M02/M03 A3013 RMK AO2 SNB47 SLP213 P0000 60024 4/001 T10171033 10011 21017 51025=
202212202347 SPECI KSEA 202347Z 02007KT 5SM -SN BR FEW010 OVC031 M02/M03 A3013 RMK AO2 SNB47 P0000=
202212202253 METAR KSEA 202253Z 03011G18KT 350V070 7SM FEW008 OVC024 M01/M03 A3011 RMK AO2 SLP205 T10111033=
202212202153 METAR KSEA 202153Z 36013G20KT 3SM BR SCT006 SCT011 OVC020 M02/M03 A3009 RMK AO2 SLP199 T10171033=
202212202138 SPECI KSEA 202138Z 01013KT 3SM BR BKN006 OVC011 M02/M03 A3007 RMK AO2 T10171028=
202212202109 SPECI KSEA 202109Z 01011KT 1 1/4SM BR OVC003 M01/M03 A3007 RMK AO2 T10111028=
202212202053 METAR KSEA 202053Z 01012KT 1 3/4SM BR BKN005 OVC014 M01/M03 A3005 RMK AO2 SNE41 SLP187 P0000 60024 T10111028 51009=
202212202041 SPECI KSEA 202041Z 02013KT 1 3/4SM BR BKN005 BKN010 OVC014 M01/M03 A3005 RMK AO2 SNE41 P0000 T10111028=
202212202004 SPECI KSEA 202004Z 03012KT 6SM -SN BR OVC005 M01/M03 A3004 RMK AO2 P0000 T10111028=
202212201953 METAR KSEA 201953Z 02013KT 1 1/4SM -SN BR BKN005 OVC016 M01/M03 A3004 RMK AO2 SLP184 P0007 T10111028=
202212201945 SPECI KSEA 201945Z 03015KT 1 1/4SM -SN BR OVC005 M01/M03 A3004 RMK AO2 P0007 T10111028=
202212201931 SPECI KSEA 201931Z 03013KT 3/4SM R16L/4500VP6000FT -SN BR OVC005 M01/M02 A3004 RMK AO2 P0006 T10111022=
202212201853 METAR KSEA 201853Z 01012KT 3/4SM R16L/P6000FT -SN BR BKN003 OVC011 M01/M02 A3005 RMK AO2 RAE19SNB19 SLP185 P0017 T10061017=
202212201843 SPECI KSEA 201843Z 02013KT 3/4SM R16L/4500VP6000FT -SN BR BKN003 OVC011 M01/M02 A3004 RMK AO2 RAE19SNB19 P0015 T10061017=
202212201820 SPECI KSEA 201820Z 01014KT 1 1/2SM -SN BR BKN003 OVC011 00/M01 A3004 RMK AO2 RAE19SNB19 P0008 T00001011=
202212201753 METAR KSEA 201753Z 01013KT 2SM -RA BR BKN003 OVC011 01/00 A3003 RMK AO2 SLP178 P0019 60039 T00110000 10056 20006 53007=
202212201715 SPECI KSEA 201715Z 29010G20KT 2SM RA BR BKN006 OVC012 04/03 A3001 RMK AO2 P0004 T00390028=
202212201708 SPECI KSEA 201708Z 29008G20KT 260V340 6SM -RA BR SCT006 BKN012 OVC017 05/03 A3000 RMK AO2 PRESRR P0003 T00500033=
202212201653 METAR KSEA 201653Z 20015G21KT 7SM -RA BKN016 BKN022 OVC027 06/04 A2998 RMK AO2 SLP162 P0008 T00560039=
202212201553 METAR KSEA 201553Z 19009KT 7SM -RA OVC023 04/03 A2998 RMK AO2 SLP161 P0008 T00440028=
202212201453 METAR KSEA 201453Z 17005KT 9SM -RA OVC024 03/02 A3001 RMK AO2 SLP171 P0003 60004 T00330022 57023=
202212201405 SPECI KSEA 201405Z 18009KT 7SM -RA OVC028 03/02 A3002 RMK AO2 P0000 T00330017=
202212201353 METAR KSEA 201353Z 20008KT 9SM -RA FEW006 BKN033 OVC065 03/02 A3003 RMK AO2 RAB29 SLP180 P0001 T00330017=
202212201253 METAR KSEA 201253Z 20009KT 8SM FEW006 SCT010 OVC065 02/01 A3005 RMK AO2 SLP186 T00220011=
202212201205 SPECI KSEA 201205Z 14005KT 4SM BR SCT002 BKN006 OVC010 01/00 A3007 RMK AO2 T00110000=
202212201153 METAR KSEA 201153Z 16005KT 3SM BR SCT004 OVC010 01/00 A3007 RMK AO2 SLP194 60006 70006 T00110000 10017 20000 58022=
202212201053 METAR KSEA 201053Z 16004KT 10SM SCT004 OVC010 01/M01 A3010 RMK AO2 SLP202 T00061006=
202212201015 SPECI KSEA 201015Z 16004KT 10SM FEW006 BKN010 OVC043 00/M01 A3011 RMK AO2 T00001006=
202212200953 METAR KSEA 200953Z 14004KT 10SM BKN011 OVC043 01/M01 A3012 RMK AO2 SLP209 SNE42 P0000 T00061006=
202212200943 SPECI KSEA 200943Z 13003KT 10SM OVC011 01/M01 A3012 RMK AO2 SNE42 P0000 T00061006=
202212200857 SPECI KSEA 200857Z 12005KT 5SM -SN BR SCT009 OVC013 01/M01 A3014 RMK AO2 P0000 T00061006=
202212200853 METAR KSEA 200853Z 12004KT 5SM -SN BR OVC009 01/00 A3014 RMK AO2 SLP217 P0002 60006 T00060000 58020=
202212200850 SPECI KSEA 200850Z VRB04KT 4SM -SN BR OVC009 01/00 A3014 RMK AO2 P0002=
202212200833 SPECI KSEA 200833Z 15004KT 2SM -SN BR FEW006 OVC011 00/M01 A3015 RMK AO2 P0002 T00001006=
202212200753 METAR KSEA 200753Z 10008KT 3SM -SN BR FEW006 OVC013 01/M01 A3017 RMK AO2 SLP226 P0002 T00061006 400171011=
202212200726 SPECI KSEA 200726Z 11008KT 3SM -SN BR FEW006 OVC013 01/M01 A3018 RMK AO2 P0001 T00061006=
202212200653 METAR KSEA 200653Z 12007KT 2 1/2SM -SN BR FEW006 OVC011 01/M01 A3019 RMK AO2 SLP233 P0002 T00061006=
202212200559 SPECI KSEA 200559Z VRB06KT 2 1/2SM -SN BR FEW005 BKN013 OVC020 01/M01 A3020 RMK AO2 P0000 T00111006=
202212200553 METAR KSEA 200553Z 12005KT 4SM -SN BR FEW005 SCT013 BKN020 01/M01 A3020 RMK AO2 SNB47 SLP237 P0000 60000 T00111006 10017 20006 58011=
202212200528 SPECI KSEA 200528Z 11007KT 10SM FEW005 BKN020 OVC050 01/M01 A3020 RMK AO2 T00111006=
202212200453 METAR KSEA 200453Z 11006KT 8SM FEW005 OVC010 01/M01 A3021 RMK AO2 SNE41 SLP241 P0000 T00111006=
202212200441 SPECI KSEA 200441Z 12006KT 7SM BR FEW005 OVC010 01/M01 A3022 RMK AO2 SNE41 P0000 T00111006=
202212200428 SPECI KSEA 200428Z 14004KT 5SM -SN BR SCT005 OVC010 01/M01 A3022 RMK AO2 P0000 T00111006=
202212200353 METAR KSEA 200353Z 13005KT 4SM -SN BR BKN005 OVC014 01/M01 A3023 RMK AO2 SLP246 P0000 T00111006=
202212200335 SPECI KSEA 200335Z 12006KT 4SM -SN BR BKN005 OVC014 01/M01 A3023 RMK AO2 P0000 T00111006=
202212200253 METAR KSEA 200253Z 09003KT 4SM -SN BR SCT004 OVC012 01/M01 A3023 RMK AO2 SLP249 P0000 60000 T00111006 56009=
202212200153 METAR KSEA 200153Z 04005KT 5SM -SN BR SCT007 OVC011 01/M01 A3025 RMK AO2 SLP253 P0000 T00061011=
202212200053 METAR KSEA 200053Z 35004KT 3SM -SN BR OVC008 01/M01 A3026 RMK AO2 SLP259 P0000 T00061011=
202212192353 METAR KSEA 192353Z 01005KT 5SM -SN BR OVC009 01/M02 A3026 RMK AO2 SNB16 SLP258 P0000 60000 T00061017 10011 21006 55000=
202212192316 SPECI KSEA 192316Z 30003KT 5SM -SN BR BKN009 OVC040 01/M01 A3026 RMK AO2 SNB16 P0000 T00111011=
202212192259 SPECI KSEA 192259Z 00000KT 7SM SCT009 OVC047 01/M01 A3025 RMK AO2 T00111011=
202212192253 METAR KSEA 192253Z 00000KT 7SM SCT009 BKN035 OVC047 01/M01 A3025 RMK AO2 SNE31 SLP254 P0000 T00111011=
202212192231 SPECI KSEA 192231Z 12004KT 7SM FEW009 SCT035 OVC047 01/M02 A3025 RMK AO2 SNE31 P0000 T00111017=
202212192203 SPECI KSEA 192203Z 03003KT 7SM -SN FEW008 OVC045 01/M02 A3025 RMK AO2 P0000 T00111017=
202212192153 METAR KSEA 192153Z 03003KT 7SM -SN FEW023 SCT037 OVC049 01/M02 A3026 RMK AO2 SNB11 SLP256 P0000 T00111017=
202212192114 SPECI KSEA 192114Z 35003KT 6SM -SN FEW011 SCT038 OVC055 01/M02 A3026 RMK AO2 SNB11 P0000 T00061022=
202212192053 METAR KSEA 192053Z 32003KT 10SM SCT011 OVC055 01/M02 A3026 RMK AO2 SLP258 60000 T00061022 58002=
202212192039 SPECI KSEA 192039Z 34003KT 10SM BKN011 OVC050 01/M02 A3026 RMK AO2 T00061022=
202212191953 METAR KSEA 191953Z 35004KT 9SM OVC055 00/M02 A3026 RMK AO2 SNE49 SLP259 P0000 T00001022=
202212191853 METAR KSEA 191853Z 36004KT 9SM -SN FEW018 OVC055 00/M02 A3027 RMK AO2 SLP260 P0000 T00001022=
202212191849 SPECI KSEA 191849Z 35003KT 9SM -SN FEW018 OVC055 00/M02 A3027 RMK AO2 P0000=
202212191753 METAR KSEA 191753Z 01006KT 7SM -SN SCT015 BKN021 OVC050 M01/M02 A3026 RMK AO2 SLP257 P0000 60000 T10061022 10000 21011 53017=
202212191741 SPECI KSEA 191741Z 04004KT 8SM -SN FEW019 FEW045 OVC055 00/M02 A3026 RMK AO2 P0000 T00001022=
202212191705 SPECI KSEA 191705Z 36006KT 7SM -SN FEW005 BKN013 OVC055 M01/M03 A3024 RMK AO2 P0000 T10061028=
202212191653 METAR KSEA 191653Z 03005KT 9SM -SN FEW039 OVC055 M01/M02 A3024 RMK AO2 SLP250 P0000 T10061022=
202212191553 METAR KSEA 191553Z 03004KT 9SM -SN FEW036 OVC050 M01/M03 A3023 RMK AO2 SLP246 P0000 T10061028=
202212191453 METAR KSEA 191453Z 04004KT 9SM -SN OVC050 M01/M03 A3021 RMK AO2 SLP240 P0000 60000 T10061028 52002=
202212191353 METAR KSEA 191353Z 03004KT 10SM -SN OVC050 M01/M03 A3021 RMK AO2 SNB50 SLP240 P0000 T10061033=
202212191253 METAR KSEA 191253Z 02005KT 10SM SCT022 BKN033 OVC050 M01/M04 A3020 RMK AO2 SLP238 T10061039=
202212191247 SPECI KSEA 191247Z 03006KT 10SM FEW022 BKN033 OVC050 M01/M04 A3020 RMK AO2=
202212191225 SPECI KSEA 191225Z 04006KT 10SM BKN022 BKN030 OVC050 M01/M04 A3019 RMK AO2 T10061039=
202212191153 METAR KSEA 191153Z 35004KT 10SM SCT026 BKN033 OVC050 M01/M03 A3019 RMK AO2 SLP232 60000 70002 T10111033 10000 21011 51015=
202212191053 METAR KSEA 191053Z 00000KT 10SM SCT030 OVC050 M01/M04 A3019 RMK AO2 SLP232 T10111039=
202212190953 METAR KSEA 190953Z 02004KT 10SM FEW027 BKN055 M01/M04 A3016 RMK AO2 SNB0857E39 SLP223 P0000 T10111039=
202212190939 SPECI KSEA 190939Z 00000KT 10SM SCT027 BKN055 M01/M04 A3015 RMK AO2 SNB0857E39 P0000 T10061044=
202212190858 SPECI KSEA 190858Z 00000KT 9SM -SN BKN028 OVC034 M01/M04 A3014 RMK AO2 SNB57 P0000 T10061044=
202212190853 METAR KSEA 190853Z 27004KT 10SM BKN030 BKN033 OVC050 M01/M04 A3014 RMK AO2 SLP217 60000 T10061044 51024=
202212190753 METAR KSEA 190753Z 02007KT 10SM BKN034 OVC044 00/M04 A3012 RMK AO2 SNE21 SLP211 P0000 T00001044 400561006=
202212190722 SPECI KSEA 190722Z 04007KT 10SM BKN036 OVC044 00/M04 A3011 RMK AO2 SNE21 P0000 T00001039=
202212190653 METAR KSEA 190653Z 02005KT 9SM -SN BKN033 OVC042 00/M04 A3010 RMK AO2 SLP202 P0000 T00001039=
202212190553 METAR KSEA 190553Z 06006KT 9SM -SN SCT019 BKN033 OVC045 00/M04 A3007 RMK AO2 SNB34 SLP192 P0000 60002 T00001039 10022 21006 51023=
202212190535 SPECI KSEA 190535Z 05007KT 10SM -SN SCT019 BKN033 OVC045 00/M04 A3006 RMK AO2 SNB34 P0000 T00001039=
202212190453 METAR KSEA 190453Z 06007KT 10SM SCT024 BKN033 OVC045 00/M04 A3005 RMK AO2 SNE33 SLP186 P0000 T00001044=
202212190433 SPECI KSEA 190433Z 07006KT 9SM SCT024 BKN033 BKN045 00/M03 A3004 RMK AO2 SNE33 P0000 T00001033=
202212190353 METAR KSEA 190353Z 06008KT 9SM -SN SCT016 BKN036 00/M03 A3003 RMK AO2 SLP178 P0000 T00001028=
202212190323 SPECI KSEA 190323Z 07007KT 6SM -SN SCT005 BKN016 OVC024 00/M02 A3001 RMK AO2 P0000 T00001022=
202212190321 SPECI KSEA 190321Z 07008KT 7SM -SN SCT005 BKN034 OVC046 M01/M02 A3001 RMK AO2 P0000 T10061022=
202212190253 METAR KSEA 190253Z 07010KT 2SM -SN BR BKN008 BKN016 OVC024 00/M02 A3000 RMK AO2 SLP169 P0001 60002 T00001022 51024=
202212190227 SPECI KSEA 190227Z 06010KT 2SM -SN BR SCT008 BKN011 OVC020 00/M02 A2999 RMK AO2 P0001 T00001017=
202212190225 SPECI KSEA 190225Z 05009KT 1 3/4SM -SN BR BKN008 BKN013 OVC020 00/M02 A2999 RMK AO2 P0001 T00001017=
202212190204 SPECI KSEA 190204Z 33006KT 2SM -SN BR SCT010 BKN014 OVC027 01/M01 A2998 RMK AO2 P0000 T00061011=
202212190153 METAR KSEA 190153Z 01007KT 3SM -SN BR SCT010 BKN019 OVC027 01/M02 A2998 RMK AO2 SLP161 P0001 T00061017=
202212190105 SPECI KSEA 190105Z 04008KT 6SM -SN BKN010 BKN017 OVC026 01/M02 A2996 RMK AO2 P0000 T00111017=
202212190053 METAR KSEA 190053Z 03007KT 9SM -SN SCT012 BKN030 OVC043 02/M02 A2995 RMK AO2 SNB03 SLP152 P0000 T00171017=
202212190025 SPECI KSEA 190025Z 03009KT 9SM -SN SCT014 BKN030 OVC036 02/M02 A2994 RMK AO2 SNB03 P0000 T00171017=
202212190003 SPECI KSEA 190003Z 04011KT 10SM -SN FEW014 BKN022 OVC034 02/M02 A2993 RMK AO2 SNB03 P0000 T00221017=
202212182353 METAR KSEA 182353Z 02012KT 10SM FEW014 BKN026 OVC034 02/M01 A2993 RMK AO2 SLP143 T00221011 10056 20022 53017=
202212182309 SPECI KSEA 182309Z 23007KT 10SM SCT022 BKN028 BKN080 04/M01 A2991 RMK AO2 T00391006=
202212182253 METAR KSEA 182253Z 22012G21KT 10SM FEW020 SCT036 BKN090 04/M01 A2991 RMK AO2 SLP137 T00391006=
202212182153 METAR KSEA 182153Z 25014G25KT 10SM FEW020 SCT036 SCT050 06/M02 A2989 RMK AO2 PK WND 23027/2131 SLP130 T00561022=
202212182053 METAR KSEA 182053Z 22017G24KT 10SM FEW022 SCT030 SCT050 05/M01 A2988 RMK AO2 PK WND 21034/2010 SLP126 T00501011 56008=
202212181953 METAR KSEA 181953Z 22018G30KT 10SM FEW017 SCT030 SCT050 04/00 A2988 RMK AO2 PK WND 22031/1920 SLP127 T00440000=
202212181853 METAR KSEA 181853Z 21019G30KT 10SM FEW019 SCT024 BKN046 04/01 A2989 RMK AO2 PK WND 21030/1851 SLP132 T00390006=
202212181753 METAR KSEA 181753Z 19021G27KT 10SM SCT008 BKN014 OVC050 04/02 A2990 RMK AO2 PK WND 20027/1751 SLP134 T00390017 10039 20033 56006=
202212181653 METAR KSEA 181653Z 20019G28KT 10SM BKN014 BKN021 OVC050 03/01 A2991 RMK AO2 PK WND 19028/1647 SLP137 T00330011=
202212181553 METAR KSEA 181553Z 20015G22KT 10SM BKN014 OVC047 03/01 A2991 RMK AO2 SLP136 T00330011=
202212181453 METAR KSEA 181453Z 21013G20KT 10SM BKN014 BKN045 03/01 A2992 RMK AO2 SLP141 T00330011 56011=
202212181353 METAR KSEA 181353Z 20011G19KT 10SM BKN013 BKN017 OVC045 03/02 A2992 RMK AO2 SLP143 T00330017=
202212181253 METAR KSEA 181253Z 22014G21KT 10SM BKN010 OVC015 04/02 A2993 RMK AO2 SLP145 T00390017=
202212181245 SPECI KSEA 181245Z 21016G21KT 10SM BKN010 OVC016 04/02 A2993 RMK AO2 T00390017=
202212181219 SPECI KSEA 181219Z 21013G22KT 10SM SCT011 OVC016 04/02 A2994 RMK AO2 T00390022=
202212181153 METAR KSEA 181153Z 21010KT 10SM BKN012 OVC017 04/02 A2995 RMK AO2 SLP151 70014 T00390022 10044 20039 58006=
202212181053 METAR KSEA 181053Z 19009KT 10SM BKN013 OVC020 04/02 A2997 RMK AO2 SLP157 T00390022=
202212180953 METAR KSEA 180953Z 19008KT 10SM BKN012 OVC019 04/02 A2997 RMK AO2 SLP157 T00390022=
202212180853 METAR KSEA 180853Z 20008KT 10SM BKN012 OVC019 04/02 A2997 RMK AO2 SLP158 T00390022 58003=
202212180828 SPECI KSEA 180828Z 21008KT 10SM BKN011 OVC016 04/03 A2997 RMK AO2 T00390028=
202212180753 METAR KSEA 180753Z 20010KT 10SM BKN009 OVC015 04/04 A2998 RMK AO2 SLP162 T00390039 400441011=
202212180749 SPECI KSEA 180749Z 20010KT 10SM BKN008 OVC015 04/04 A2998 RMK AO2=
202212180653 METAR KSEA 180653Z 19012KT 10SM SCT009 OVC013 04/04 A2998 RMK AO2 SLP162 T00390039=
202212180637 SPECI KSEA 180637Z 20010KT 10SM OVC010 04/04 A2998 RMK AO2 T00390039=
202212180553 METAR KSEA 180553Z 22006KT 10SM BKN006 BKN010 OVC020 04/04 A2998 RMK AO2 DZE18 SLP163 P0000 60012 T00390039 10044 20022 56003=
202212180453 METAR KSEA 180453Z 22007KT 10SM -DZ BKN006 OVC010 04/04 A2998 RMK AO2 DZB50 SLP163 P0000 T00390039=
202212180353 METAR KSEA 180353Z 20010G17KT 10SM BKN006 OVC011 04/04 A2998 RMK AO2 RAE52 SLP163 P0001 T00390039=
202212180253 METAR KSEA 180253Z 16006KT 3SM -RA BR BKN008 OVC011 03/03 A2999 RMK AO2 SLP166 P0004 60011 T00330028 58012=
202212180248 SPECI KSEA 180248Z 15007KT 4SM -RA BR OVC008 03/03 A2999 RMK AO2 P0003=
202212180153 METAR KSEA 180153Z 15007KT 3SM -RA BR SCT009 BKN013 OVC019 03/02 A3000 RMK AO2 SLP170 P0003 T00280017=
202212180146 SPECI KSEA 180146Z 16007KT 2 1/2SM -RA BR SCT009 BKN015 OVC019 03/02 A3000 RMK AO2 P0003 T00280017=
202212180134 SPECI KSEA 180134Z 16006KT 5SM -RA BR FEW009 BKN015 OVC019 03/02 A3001 RMK AO2 P0002 T00280017=
202212180053 METAR KSEA 180053Z 20004KT 5SM -RA BR FEW013 BKN019 OVC025 02/02 A3002 RMK AO2 DZB2357E24RAB24 SLP175 P0004 T00220022=
202212172353 METAR KSEA 172353Z 19010KT 5SM BR FEW009 BKN013 OVC033 03/02 A3002 RMK AO2 DZE22 SLP177 P0001 60002 T00280017 10028 20000 55008=
202212172253 METAR KSEA 172253Z 19013KT 3SM -DZ BR SCT009 BKN013 OVC033 03/01 A3002 RMK AO2 DZB05 SLP177 P0001 T00280011=
202212172153 METAR KSEA 172153Z 23007KT 4SM BR OVC008 02/01 A3003 RMK AO2 SLP181 T00220011=
202212172053 METAR KSEA 172053Z 15009KT 7SM BKN009 OVC014 02/00 A3005 RMK AO2 SLP186 60000 T00170000 58014=
202212172037 SPECI KSEA 172037Z 14009KT 7SM BR BKN008 OVC014 02/00 A3005 RMK AO2 T00170000=
202212171953 METAR KSEA 171953Z 13010KT 1/2SM R16L/P6000FT BR OVC004 01/M01 A3007 RMK AO2 SFC VIS 4 DZE50 SLP192 P0000 T00061006=
202212171853 METAR KSEA 171853Z 14008KT 1/2SM R16L/P6000FT -DZ BR OVC004 01/M01 A3009 RMK AO2 SFC VIS 2 DZB52 SLP198 P0000 T00061006=
202212171753 METAR KSEA 171753Z 14007KT 1/2SM R16L/P6000FT BR OVC002 00/M01 A3009 RMK AO2 SFC VIS 2 SLP200 T00001006 10006 21006 55001=
202212171653 METAR KSEA 171653Z 16008KT 1/2SM R16L/3000VP6000FT BR OVC004 01/M01 A3008 RMK AO2 SFC VIS 2 SLP196 T00061006=
202212171553 METAR KSEA 171553Z 14008KT 1/2SM R16L/P6000FT BR BKN003 OVC010 00/M01 A3009 RMK AO2 SFC VIS 2 SLP198 T00001011=
202212171528 SPECI KSEA 171528Z 15007KT 1 1/2SM BR OVC003 00/M01 A3009 RMK AO2 SFC VIS 4 T00001011=
202212171453 METAR KSEA 171453Z 14006KT 1 1/2SM BR OVC006 00/M01 A3009 RMK AO2 SFC VIS 4 SLP201 T00001011 56013=
202212171353 METAR KSEA 171353Z VRB06KT 1SM R16L/P6000FT BR BKN006 OVC014 01/M01 A3010 RMK AO2 SFC VIS 2 SLP204 T00061006=
202212171317 SPECI KSEA 171317Z 14006KT 1/2SM R16L/P6000FT BR OVC008 M01/M01 A3011 RMK AO2 SFC VIS 2 T10061011=
202212171300 SPECI KSEA 171300Z 11006KT 3SM BR FEW004 OVC008 00/M01 A3011 RMK AO2 T00001006=
202212171253 METAR KSEA 171253Z 13007KT 2SM BR FEW004 OVC008 00/M01 A3011 RMK AO2 SLP208 T00001006=
202212171217 SPECI KSEA 171217Z 12005KT 2SM BR SCT004 BKN009 OVC015 00/M01 A3013 RMK AO2 T00001011=
202212171153 METAR KSEA 171153Z 00000KT 3/4SM R16L/3500VP6000FT BR SCT004 BKN008 OVC014 00/00 A3013 RMK AO2 SLP213 VIS NW-N 1/2 T00000000 10022 21011 55006=
202212171148 SPECI KSEA 171148Z VRB03KT 3/4SM R16L/P6000FT BR SCT004 BKN008 OVC014 01/00 A3013 RMK AO2 VIS NW-N 1/2=
202212171134 SPECI KSEA 171134Z 08005KT 3/4SM R16L/4000VP6000FT BR BKN004 OVC008 01/00 A3014 RMK AO2 T00060000=
202212171121 SPECI KSEA 171121Z 00000KT 1/4SM R16L/1200V3500FT FG VV001 00/00 A3014 RMK AO2 T00000000=
202212171053 METAR KSEA 171053Z 06005KT 1/8SM R16L/1000FT FG VV001 00/M01 A3015 RMK AO2 SLP218 T00001006=
202212170953 METAR KSEA 170953Z 00000KT 1/16SM R16L/0700V0800FT FG VV001 00/M01 A3015 RMK AO2 SLP220 T00001006=
202212170853 METAR KSEA 170853Z 05003KT 1/8SM R16L/0700V0800FT FG VV001 00/M01 A3017 RMK AO2 SLP225 T00001006 58009=
202212170838 SPECI KSEA 170838Z 03003KT 1/8SM R16L/0800V1000FT FZFG VV001 M01/M01 A3017 RMK AO2 T10061011=
202212170821 SPECI KSEA 170821Z 02003KT 1/8SM R16L/1000V3500FT FZFG VV001 M01/M02 A3017 RMK AO2 T10111017=
202212170753 METAR KSEA 170753Z 35004KT 1/4SM R16L/1800V5500FT FG BKN001 00/M01 A3018 RMK AO2 SLP230 T00001006 400671022=
202212170734 SPECI KSEA 170734Z 01004KT 1/4SM R16L/1600VP6000FT FG BKN001 00/M01 A3019 RMK AO2 T00001011=
202212170730 SPECI KSEA 170730Z 01005KT 3/4SM R16L/3000VP6000FT BR BKN002 00/M01 A3019 RMK AO2 VIS NW-N 1/4 T00001011=
202212170653 METAR KSEA 170653Z 04006KT 4SM BR SCT002 02/00 A3020 RMK AO2 SLP236 VIS NW 2 T00170000=
202212170650 SPECI KSEA 170650Z 03006KT 4SM BR FEW002 02/00 A3020 RMK AO2 VIS NW 2=
202212170553 METAR KSEA 170553Z 03006KT 9SM CLR 02/M01 A3021 RMK AO2 SLP240 T00171006 10050 20011 56015=
202212170453 METAR KSEA 170453Z 04005KT 10SM CLR 02/00 A3022 RMK AO2 SLP242 T00220000=
202212170353 METAR KSEA 170353Z 03003KT 10SM CLR 02/00 A3024 RMK AO2 SLP250 T00220000=
202212170253 METAR KSEA 170253Z 36004KT 8SM CLR 02/01 A3025 RMK AO2 SLP255 T00170006 56013=
202212170153 METAR KSEA 170153Z 36004KT 9SM CLR 02/00 A3026 RMK AO2 SLP256 T00170000=
202212170053 METAR KSEA 170053Z 33003KT 10SM FEW010 FEW250 03/00 A3028 RMK AO2 SLP265 T00280000=
202212162353 METAR KSEA 162353Z 36005KT 10SM FEW010 FEW250 05/01 A3029 RMK AO2 SLP269 T00500006 10067 20006 56012=
202212162253 METAR KSEA 162253Z 35004KT 10SM FEW005 FEW250 07/01 A3030 RMK AO2 SLP269 T00670006=
202212162153 METAR KSEA 162153Z 36005KT 10SM FEW001 FEW220 06/00 A3031 RMK AO2 SLP275 T00610000=
202212162053 METAR KSEA 162053Z 35007KT 10SM FEW001 FEW220 06/M01 A3033 RMK AO2 SLP280 T00561006 58021=
202212161953 METAR KSEA 161953Z 02007KT 10SM FEW001 SCT220 03/M01 A3036 RMK AO2 SLP291 T00331006=
202212161901 SPECI KSEA 161901Z 05005KT 6SM BCFG SCT001 BKN220 02/00 A3038 RMK AO2 T00220000=
202212161853 METAR KSEA 161853Z 06004KT 1SM R16L/P6000FT BCFG SCT001 BKN220 01/M01 A3039 RMK AO2 SLP300 T00111006=
202212161826 SPECI KSEA 161826Z 04004KT 1SM R16L/2400VP6000FT BCFG SCT001 BKN220 01/M01 A3040 RMK AO2 T00111006=
202212161753 METAR KSEA 161753Z 00000KT 1/2SM R16L/2800VP6000FT FG SCT001 BKN220 01/M01 A3039 RMK AO2 SLP302 T00061006 10006 21022 55001=
202212161733 SPECI KSEA 161733Z 06004KT 1/4SM R16L/0700V5000FT FG VV001 00/M01 A3039 RMK AO2 T00001011=
202212161720 SPECI KSEA 161720Z VRB03KT 1/4SM R16L/0800V2000FT FG VV001 00/M01 A3039 RMK AO2 T00001011=
202212161657 SPECI KSEA 161657Z 05005KT 1/2SM R16L/P6000FT FG BKN001 00/M01 A3039 RMK AO2 T00001011=
202212161653 METAR KSEA 161653Z 03004KT 1/2SM R16L/P6000FT FG BKN001 00/M02 A3039 RMK AO2 SLP302 T00001017=
202212161609 SPECI KSEA 161609Z 02004KT 7SM BCFG FEW001 BKN200 M01/M02 A3039 RMK AO2 T10111017=
202212161553 METAR KSEA 161553Z 35004KT 1SM R16L/P6000FT BCFG FEW001 SCT200 M02/M02 A3039 RMK AO2 TWR VIS 2 SLP301 T10221022=
202212161538 SPECI KSEA 161538Z 02004KT 3/4SM R16L/1400VP6000FT BR SCT001 BKN200 M02/M02 A3039 RMK AO2 T10171022=
202212161522 SPECI KSEA 161522Z 02005KT 1/4SM R16L/1000V1200FT FZFG VV001 M02/M03 A3039 RMK AO2 TWR VIS 1/2 T10171028=
202212161453 METAR KSEA 161453Z 03003KT 1/4SM R16L/2000V4000FT FZFG VV001 M01/M02 A3040 RMK AO2 TWR VIS 1/2 SLP304 T10111017 58009=
202212161353 METAR KSEA 161353Z 04003KT 1/4SM R16L/1400V5500FT FZFG VV001 M01/M02 A3041 RMK AO2 TWR VIS 1/2 SLP308 T10111017=
202212161348 SPECI KSEA 161348Z 04003KT 1/4SM R16L/1400V1600FT FZFG VV001 M01/M02 A3041 RMK AO2 TWR VIS 1/2=
202212161340 SPECI KSEA 161340Z 03004KT 1/4SM R16L/1400V3000FT FZFG VV001 M01/M02 A3041 RMK AO2 TWR VIS 1/2 T10111017=
202212161337 SPECI KSEA 161337Z 00000KT 1/4SM R16L/1600VP6000FT FZFG VV001 M01/M02 A3041 RMK AO2 T10111017=
202212161331 SPECI KSEA 161331Z 00000KT 1SM R16L/2800VP6000FT BR VV001 M01/M02 A3042 RMK AO2 TWR VIS 7 T10111017=
202212161324 SPECI KSEA 161324Z 00000KT 3/4SM R16L/2800VP6000FT BR VV001 M01/M02 A3042 RMK AO2 TWR VIS 7 VIS 1/2V1 3/4 T10111017=
202212161253 METAR KSEA 161253Z 07003KT 1/4SM R16L/1600V2600FT FZFG VV001 M01/M02 A3042 RMK AO2 TWR VIS 7 SLP313 T10111017=
202212161230 SPECI KSEA 161230Z 06003KT 1/4SM R16L/1600V2200FT FZFG VV001 M01/M02 A3042 RMK AO2 TWR VIS 7 T10061022=
202212161208 SPECI KSEA 161208Z 00000KT 3/4SM R16L/3500VP6000FT BR OVC001 M01/M02 A3043 RMK AO2 TWR VIS 7 T10111022=
202212161205 SPECI KSEA 161205Z 14003KT 1 1/2SM R16L/6000VP6000FT BR BKN001 M01/M02 A3043 RMK AO2 T10111022=
202212161200 SPECI KSEA 161200Z 00000KT 6SM BR BKN001 M02/M02 A3043 RMK AO2 T10171022=
202212161153 METAR KSEA 161153Z 10003KT 7SM BKN250 M01/M02 A3043 RMK AO2 SLP316 T10111022 10022 21011 58009=
202212161053 METAR KSEA 161053Z 04004KT 10SM SCT250 M01/M02 A3045 RMK AO2 SLP322 T10061017=
202212160953 METAR KSEA 160953Z 02004KT 10SM FEW250 00/M01 A3046 RMK AO2 SLP325 T00001011=
202212160853 METAR KSEA 160853Z 00000KT 10SM SCT250 01/M01 A3046 RMK AO2 SLP324 T00061011 58010=
202212160753 METAR KSEA 160753Z 03008KT 10SM SCT250 01/M01 A3047 RMK AO2 SLP329 T00111011 400501011=
202212160653 METAR KSEA 160653Z 02012KT 10SM SCT250 02/M01 A3048 RMK AO2 SLP332 T00171011=
202212160553 METAR KSEA 160553Z 02013KT 10SM CLR 02/M01 A3049 RMK AO2 SLP335 T00171006 10044 20017 53007=
202212160453 METAR KSEA 160453Z 02011KT 10SM CLR 02/M01 A3047 RMK AO2 SLP330 T00221011=
202212160353 METAR KSEA 160353Z 02011KT 10SM CLR 02/M01 A3047 RMK AO2 SLP330 T00221011=
202212160253 METAR KSEA 160253Z 03013KT 10SM CLR 03/M01 A3047 RMK AO2 SLP328 T00281011 56002=
202212160153 METAR KSEA 160153Z 02013KT 10SM CLR 03/M01 A3047 RMK AO2 SLP328 T00281011=
202212160053 METAR KSEA 160053Z 02012KT 10SM FEW020 FEW250 03/M02 A3047 RMK AO2 SLP328 T00331017=
202212152353 METAR KSEA 152353Z 01006KT 10SM FEW020 SCT220 04/M01 A3047 RMK AO2 SLP329 T00441011 10050 20011 55003=
202212152253 METAR KSEA 152253Z 02011KT 10SM FEW015 SCT220 04/M01 A3046 RMK AO2 SLP325 T00441011=
202212152153 METAR KSEA 152153Z 02011KT 10SM FEW012 SCT220 04/M01 A3047 RMK AO2 SLP329 T00441011=
202212152053 METAR KSEA 152053Z 02015KT 10SM FEW012 BKN220 04/M01 A3048 RMK AO2 SLP332 T00441011 58010=
202212151953 METAR KSEA 151953Z 02010KT 10SM FEW001 BKN220 04/M02 A3049 RMK AO2 SLP335 T00391017=
202212151853 METAR KSEA 151853Z 04013KT 10SM FEW001 BKN200 04/M01 A3050 RMK AO2 SLP340 T00441006=
202212151753 METAR KSEA 151753Z 03010KT 10SM FEW001 BKN250 01/M01 A3051 RMK AO2 SLP343 T00111011 10011 21011 53006=
202212151704 SPECI KSEA 151704Z 02008KT 7SM BCFG FEW001 BKN250 01/M01 A3050 RMK AO2 VIS W-NW 1 T00061006=
202212151653 METAR KSEA 151653Z 03008KT 1/2SM R16L/1400VP6000FT BR BKN001 BKN250 01/M01 A3050 RMK AO2 SFC VIS 1 1/2 SLP339 T00061006=
202212151553 METAR KSEA 151553Z 03010KT 1/2SM R16L/3500VP6000FT BR BKN001 M01/M01 A3049 RMK AO2 SFC VIS 3/4 SLP337 T10061011=
202212151502 SPECI KSEA 151502Z 03009KT 1/2SM R16L/2200VP6000FT BR BKN001 M01/M02 A3049 RMK AO2 SFC VIS 1 T10061017=
202212151453 METAR KSEA 151453Z 02010KT 1/2SM R16L/1400V2200FT BR VV001 M01/M02 A3049 RMK AO2 SFC VIS 1 SLP337 T10111022 53001=
202212151443 SPECI KSEA 151443Z 36008KT 7SM R16L/1600VP6000FT BCFG FEW001 SCT250 M01/M02 A3049 RMK AO2 T10061017=
202212151431 SPECI KSEA 151431Z 01005KT 7SM FEW250 00/M01 A3049 RMK AO2 T00001011=
202212151429 SPECI KSEA 151429Z 01005KT 1 1/2SM BR FEW250 01/M01 A3049 RMK AO2 T00061011=
202212151353 METAR KSEA 151353Z 02008KT 9SM CLR 01/M01 A3049 RMK AO2 SLP335 T00111006=
202212151253 METAR KSEA 151253Z 04005KT 9SM FEW025 01/M01 A3049 RMK AO2 SLP336 T00061011=
202212151153 METAR KSEA 151153Z 01007KT 10SM CLR 01/M02 A3049 RMK AO2 SLP335 T00061017 10033 20006 58002=
202212151053 METAR KSEA 151053Z 03008KT 10SM SCT022 02/M01 A3050 RMK AO2 SLP339 T00171011=
202212151043 SPECI KSEA 151043Z 02009KT 10SM FEW022 02/M01 A3051 RMK AO2 T00221006=
202212151005 SPECI KSEA 151005Z 05007KT 10SM BKN022 02/M01 A3051 RMK AO2 T00221006=
202212150953 METAR KSEA 150953Z 06007KT 10SM SCT024 02/M01 A3050 RMK AO2 SLP338 T00221006=
202212150853 METAR KSEA 150853Z 03008KT 10SM OVC023 03/00 A3050 RMK AO2 SLP337 T00280000 50005=
202212150753 METAR KSEA 150753Z 03007KT 10SM OVC023 03/01 A3050 RMK AO2 SLP339 T00330006 400610017=
202212150653 METAR KSEA 150653Z 02009KT 10SM OVC022 03/01 A3049 RMK AO2 SLP336 T00330006=
202212150607 SPECI KSEA 150607Z 35012KT 10SM BKN022 02/M01 A3049 RMK AO2 T00171006=
202212150553 METAR KSEA 150553Z 01007KT 10SM SCT024 02/M01 A3048 RMK AO2 SLP331 T00171006 10050 20017 53008=
202212150453 METAR KSEA 150453Z 02009KT 10SM FEW022 02/00 A3047 RMK AO2 SLP327 T00220000=
202212150353 METAR KSEA 150353Z 36008KT 10SM FEW022 02/M01 A3046 RMK AO2 SLP326 T00171006=
202212150253 METAR KSEA 150253Z 03008KT 10SM FEW022 03/M01 A3046 RMK AO2 SLP323 T00331006 53007=
202212150153 METAR KSEA 150153Z 03006KT 10SM SCT021 03/M01 A3044 RMK AO2 SLP319 T00331011=
202212150131 SPECI KSEA 150131Z 03008KT 10SM SCT021 04/M01 A3045 RMK AO2 T00391011=
202212150053 METAR KSEA 150053Z 03008KT 10SM BKN021 04/M01 A3045 RMK AO2 SLP320 T00441006=
202212142353 METAR KSEA 142353Z 03007KT 10SM BKN022 05/M01 A3044 RMK AO2 SLP316 T00501006 10061 20044 53007=
202212142253 METAR KSEA 142253Z 02008KT 10SM BKN023 06/M01 A3043 RMK AO2 SLP313 T00561006=
202212142153 METAR KSEA 142153Z 02011KT 10SM BKN027 06/M01 A3042 RMK AO2 SLP310 T00561006=
202212142053 METAR KSEA 142053Z 01007KT 10SM FEW020 BKN029 06/01 A3041 RMK AO2 SLP307 T00610006 50001=
202212141953 METAR KSEA 141953Z 02009KT 10SM OVC024 05/00 A3042 RMK AO2 SLP310 T00500000=
202212141918 SPECI KSEA 141918Z 01010KT 10SM BKN026 05/00 A3042 RMK AO2 T00500000=
202212141853 METAR KSEA 141853Z 01009KT 10SM FEW025 SCT036 05/00 A3042 RMK AO2 SLP310 T00500000=
202212141753 METAR KSEA 141753Z 01008KT 10SM FEW025 BKN035 04/01 A3041 RMK AO2 SLP307 60000 T00440011 10044 20028 53015=
202212141653 METAR KSEA 141653Z 01008KT 10SM FEW019 BKN038 03/01 A3039 RMK AO2 SLP300 T00330011=
202212141553 METAR KSEA 141553Z 35007KT 10SM FEW019 BKN042 03/01 A3037 RMK AO2 SLP295 T00280011=
202212141545 SPECI KSEA 141545Z 02007KT 10SM FEW019 BKN042 03/01 A3037 RMK AO2 T00330011=
202212141453 METAR KSEA 141453Z 01007KT 10SM BKN019 OVC038 04/02 A3037 RMK AO2 RAB36E46 SLP292 P0000 60000 T00390017 53013=
202212141353 METAR KSEA 141353Z 03005KT 10SM OVC024 04/02 A3035 RMK AO2 SLP286 T00390017=
202212141253 METAR KSEA 141253Z 04004KT 10SM BKN027 OVC032 04/01 A3033 RMK AO2 SLP281 T00390011=
202212141153 METAR KSEA 141153Z 00000KT 10SM SCT015 BKN021 OVC043 04/01 A3033 RMK AO2 SLP279 T00390011 10050 20039 51009=
202212141053 METAR KSEA 141053Z 00000KT 10SM BKN024 OVC031 04/02 A3032 RMK AO2 SLP278 T00440017=
202212140953 METAR KSEA 140953Z 00000KT 10SM FEW015 BKN023 OVC028 04/01 A3031 RMK AO2 SLP272 T00440006=
202212140940 SPECI KSEA 140940Z 00000KT 10SM OVC027 04/01 A3030 RMK AO2 T00440006=
202212140853 METAR KSEA 140853Z 00000KT 10SM OVC033 04/00 A3030 RMK AO2 SLP269 T00440000 52004=
202212140753 METAR KSEA 140753Z 00000KT 10SM OVC032 04/01 A3029 RMK AO2 SLP268 T00440011 400610000=
202212140653 METAR KSEA 140653Z 00000KT 10SM OVC031 05/01 A3029 RMK AO2 SLP265 T00500006=
202212140553 METAR KSEA 140553Z 09003KT 10SM OVC030 04/01 A3028 RMK AO2 SLP265 T00440011 10050 20044 51010=
202212140453 METAR KSEA 140453Z 06003KT 10SM OVC031 04/01 A3028 RMK AO2 SLP264 T00440011=
202212140353 METAR KSEA 140353Z 36003KT 10SM OVC032 05/01 A3026 RMK AO2 SLP257 T00500006=
202212140253 METAR KSEA 140253Z 16003KT 10SM SCT033 OVC050 04/01 A3025 RMK AO2 SLP255 T00440011 50002=
202212140153 METAR KSEA 140153Z 00000KT 10SM SCT028 BKN035 OVC055 04/01 A3026 RMK AO2 SLP256 T00440011=
202212140120 SPECI KSEA 140120Z 00000KT 10SM OVC030 04/01 A3026 RMK AO2 T00440011=
202212140053 METAR KSEA 140053Z 00000KT 10SM FEW012 OVC029 04/01 A3026 RMK AO2 SLP256 T00440011=
202212132353 METAR KSEA 132353Z 08003KT 10SM OVC027 05/00 A3025 RMK AO2 SLP252 T00500000 10061 20033 51002=
202212132316 SPECI KSEA 132316Z VRB04KT 10SM FEW012 OVC028 06/00 A3024 RMK AO2 T00560000=
202212132253 METAR KSEA 132253Z 00000KT 10SM FEW012 OVC030 06/00 A3025 RMK AO2 SLP252 T00560000=
202212132153 METAR KSEA 132153Z 00000KT 10SM FEW014 OVC032 05/M01 A3024 RMK AO2 SLP250 T00501006=
202212132053 METAR KSEA 132053Z 03003KT 10SM FEW014 OVC032 05/M01 A3024 RMK AO2 SLP250 T00501006 50000=
202212131953 METAR KSEA 131953Z 00000KT 10SM FEW012 OVC032 05/02 A3024 RMK AO2 SLP251 T00500017=
202212131853 METAR KSEA 131853Z 00000KT 10SM FEW010 BKN032 BKN140 06/02 A3025 RMK AO2 SLP252 T00560022=
202212131753 METAR KSEA 131753Z 00000KT 10SM FEW010 SCT036 BKN170 04/01 A3024 RMK AO2 SLP250 T00390011 10044 20000 51011=
202212131653 METAR KSEA 131653Z 00000KT 10SM FEW010 SCT036 BKN130 03/01 A3023 RMK AO2 SLP247 T00330011=
202212131553 METAR KSEA 131553Z 00000KT 10SM FEW010 SCT036 01/M01 A3022 RMK AO2 SLP244 T00061011=
202212131453 METAR KSEA 131453Z 00000KT 10SM SCT036 01/00 A3021 RMK AO2 SLP239 T00110000 51006=
202212131353 METAR KSEA 131353Z 09004KT 10SM SCT038 02/01 A3020 RMK AO2 SLP237 T00220011=
202212131253 METAR KSEA 131253Z 03005KT 10SM CLR 02/01 A3020 RMK AO2 SLP235 T00220006=
202212131153 METAR KSEA 131153Z 03003KT 10SM OVC110 03/01 A3019 RMK AO2 SLP233 70018 T00330011 10050 20028 53006=
202212131053 METAR KSEA 131053Z 05003KT 10SM BKN031 OVC110 03/02 A3018 RMK AO2 SLP230 T00330017=
202212131024 SPECI KSEA 131024Z 02005KT 10SM OVC030 04/02 A3019 RMK AO2 T00390017=
202212130953 METAR KSEA 130953Z 01005KT 10SM OVC027 04/01 A3018 RMK AO2 SLP228 T00390011=
202212130853 METAR KSEA 130853Z 32003KT 10SM OVC026 04/02 A3017 RMK AO2 SLP227 T00390017 50007=
202212130753 METAR KSEA 130753Z 00000KT 10SM OVC025 04/01 A3017 RMK AO2 SLP228 T00440011 400610033=
202212130653 METAR KSEA 130653Z 00000KT 10SM OVC026 04/01 A3016 RMK AO2 SLP223 T00390011=
202212130553 METAR KSEA 130553Z 00000KT 10SM OVC026 04/00 A3015 RMK AO2 SLP219 T00440000 10050 20044 53006=
202212130453 METAR KSEA 130453Z 33003KT 10SM OVC026 04/00 A3014 RMK AO2 SLP217 T00440000=
202212130353 METAR KSEA 130353Z 03005KT 10SM OVC028 05/M01 A3013 RMK AO2 SLP213 T00501006=
202212130253 METAR KSEA 130253Z 01003KT 10SM OVC027 05/00 A3013 RMK AO2 SLP213 T00500000 51010=
202212130153 METAR KSEA 130153Z 05006KT 10SM OVC031 05/01 A3013 RMK AO2 SLP211 T00500011=
202212130053 METAR KSEA 130053Z 36005KT 10SM FEW020 BKN031 BKN200 05/01 A3012 RMK AO2 SLP209 T00500011=
202212122353 METAR KSEA 122353Z 35006KT 10SM FEW019 SCT035 BKN200 04/01 A3010 RMK AO2 SLP203 60002 T00440006 10061 20039 52007=
202212122253 METAR KSEA 122253Z 34006KT 10SM FEW019 BKN031 BKN200 06/01 A3010 RMK AO2 SLP200 T00560011=
202212122153 METAR KSEA 122153Z 05003KT 10SM FEW017 BKN025 BKN033 06/02 A3009 RMK AO2 SLP197 T00610022=
202212122053 METAR KSEA 122053Z 02006KT 10SM SCT018 BKN025 OVC031 06/02 A3008 RMK AO2 SLP196 60002 T00610022 50004=
202212122036 SPECI KSEA 122036Z 05006KT 10SM FEW010 BKN018 OVC031 06/03 A3008 RMK AO2 T00610033=
202212121953 METAR KSEA 121953Z 06005KT 10SM SCT018 BKN035 BKN042 06/03 A3008 RMK AO2 SLP196 T00560033=
202212121940 SPECI KSEA 121940Z 05007KT 10SM FEW014 SCT019 BKN035 06/03 A3008 RMK AO2 T00560033=
202212121913 SPECI KSEA 121913Z 05004KT 9SM FEW006 SCT013 OVC022 05/03 A3008 RMK AO2 T00500033=
202212121900 SPECI KSEA 121900Z 05007KT 5SM BR FEW006 BKN013 OVC022 05/03 A3008 RMK AO2 T00500033=
202212121853 METAR KSEA 121853Z 04006KT 4SM BR BKN006 BKN013 OVC020 05/03 A3008 RMK AO2 RAE53 SLP193 P0002 T00500033=
202212121753 METAR KSEA 121753Z 03003KT 4SM -RA BR BKN007 OVC014 05/03 A3007 RMK AO2 SLP192 P0006 60016 T00500033 10050 20039 53019=
202212121653 METAR KSEA 121653Z 05005KT 4SM R16L/2400VP6000FT -RA BR BKN006 OVC012 05/03 A3005 RMK AO2 RAB01 SLP185 P0005 T00500033=
202212121643 SPECI KSEA 121643Z VRB03KT 4SM R16L/4500VP6000FT -RA BR BKN006 OVC012 05/04 A3005 RMK AO2 RAB01 P0003 T00500039=
202212121616 SPECI KSEA 121616Z 34004KT 5SM -RA BR BKN003 OVC011 05/04 A3004 RMK AO2 RAB01 P0000 T00500039=
202212121553 METAR KSEA 121553Z 30004KT 10SM BKN006 OVC011 05/04 A3003 RMK AO2 RAE32 SLP177 P0003 T00500039=
202212121526 SPECI KSEA 121526Z 34004KT 6SM -RA BR BKN006 BKN010 OVC021 05/04 A3002 RMK AO2 P0003 T00500039=
202212121517 SPECI KSEA 121517Z 33005KT 6SM -RA BR FEW006 SCT012 OVC020 05/04 A3002 RMK AO2 P0002 T00500039=
202212121510 SPECI KSEA 121510Z 33005KT 6SM -RA BR FEW006 BKN014 OVC020 05/04 A3002 RMK AO2 P0002 T00500039=
202212121453 METAR KSEA 121453Z 33006KT 6SM -RA BR BKN006 BKN012 OVC020 05/04 A3001 RMK AO2 SLP172 P0001 60002 T00500039 53010=
202212121353 METAR KSEA 121353Z 32005KT 10SM -RA BKN006 BKN012 OVC033 05/03 A3000 RMK AO2 SLP166 P0000 T00500033=
202212121323 SPECI KSEA 121323Z 32004KT 9SM -RA BKN009 BKN017 OVC038 04/03 A2999 RMK AO2 P0000 T00440033=
202212121253 METAR KSEA 121253Z 00000KT 9SM -RA FEW009 SCT015 OVC035 05/04 A2998 RMK AO2 SLP162 P0001 T00500039=
202212121249 SPECI KSEA 121249Z 00000KT 10SM -RA FEW009 SCT015 OVC035 05/04 A2998 RMK AO2 P0001=
202212121221 SPECI KSEA 121221Z 31003KT 8SM -RA FEW009 BKN015 OVC035 04/03 A2998 RMK AO2 P0001 T00390033=
202212121153 METAR KSEA 121153Z 05003KT 7SM -RA FEW015 BKN038 OVC050 05/03 A2997 RMK AO2 RAB50 SLP156 P0000 60000 70004 T00500033 10061 20033 51016=
202212121053 METAR KSEA 121053Z 00000KT 10SM FEW009 SCT018 OVC043 05/03 A2995 RMK AO2 SLP151 T00500033=
202212120953 METAR KSEA 120953Z 02004KT 10SM FEW009 SCT016 OVC043 05/03 A2994 RMK AO2 SLP146 T00500033=
202212120853 METAR KSEA 120853Z 32004KT 5SM BR FEW009 BKN043 04/03 A2992 RMK AO2 SLP140 T00390028 53005=
202212120753 METAR KSEA 120753Z 30004KT 10SM FEW007 BKN042 04/03 A2991 RMK AO2 SLP136 T00440033 400720044=
202212120653 METAR KSEA 120653Z VRB05KT 10SM SCT007 SCT035 BKN046 06/04 A2991 RMK AO2 SLP135 T00560039=
202212120648 SPECI KSEA 120648Z 00000KT 10SM SCT007 SCT035 BKN046 06/04 A2990 RMK AO2=
202212120553 METAR KSEA 120553Z 03004KT 10SM SCT035 BKN044 05/03 A2989 RMK AO2 SLP129 T00500033 10067 20044 51016=
202212120453 METAR KSEA 120453Z 03010KT 10SM FEW010 SCT040 06/04 A2987 RMK AO2 SLP124 T00560039=
202212120353 METAR KSEA 120353Z 36004KT 9SM FEW006 FEW020 SCT045 05/04 A2986 RMK AO2 SLP118 T00500039=
202212120346 SPECI KSEA 120346Z 01003KT 7SM FEW006 FEW020 SCT045 05/04 A2985 RMK AO2 T00500039=
202212120341 SPECI KSEA 120341Z 36003KT 2 1/2SM BR FEW006 FEW020 SCT045 06/04 A2985 RMK AO2 T00560039=
202212120325 SPECI KSEA 120325Z VRB03KT 10SM FEW006 FEW020 SCT045 06/04 A2985 RMK AO2 T00610044=
202212120253 METAR KSEA 120253Z 05005KT 10SM FEW020 BKN045 06/04 A2984 RMK AO2 SLP113 T00560039 51016=
202212120153 METAR KSEA 120153Z 02005KT 10SM FEW012 SCT020 BKN047 06/04 A2983 RMK AO2 SLP109 T00610044=
202212120139 SPECI KSEA 120139Z 04005KT 10SM FEW012 SCT020 BKN047 06/04 A2982 RMK AO2 T00610044=
202212120053 METAR KSEA 120053Z 03009KT 10SM FEW008 BKN019 BKN050 06/04 A2981 RMK AO2 SLP104 T00610044=
202212120037 SPECI KSEA 120037Z 03007KT 10SM FEW008 BKN019 BKN049 06/04 A2981 RMK AO2 T00610044=
202212120011 SPECI KSEA 120011Z 02010KT 10SM SCT008 BKN012 BKN047 06/04 A2980 RMK AO2 T00610044=
202212112353 METAR KSEA 112353Z 36009KT 10SM BKN008 BKN024 BKN047 07/05 A2979 RMK AO2 DZB32E50 SLP096 P0000 60000 T00670050 10072 20061 51018=
202212112253 METAR KSEA 112253Z 36010KT 10SM SCT004 BKN008 OVC012 07/05 A2978 RMK AO2 DZB11E33 SLP091 P0000 T00670050=
202212112153 METAR KSEA 112153Z 02006KT 3SM BR OVC004 07/06 A2975 RMK AO2 RAB07E23 SLP084 P0000 T00670056=
202212112107 SPECI KSEA 112107Z 01007KT 4SM -RA BR OVC002 07/06 A2974 RMK AO2 RAB07 P0000 T00670056=
202212112053 METAR KSEA 112053Z 01008KT 2 1/2SM BR OVC002 07/06 A2974 RMK AO2 SLP078 60000 T00670056 51004=
202212112008 SPECI KSEA 112008Z 01008KT 3SM BR OVC002 07/06 A2973 RMK AO2 T00670056=
202212111953 METAR KSEA 111953Z 36007KT 2 1/2SM BR OVC001 07/06 A2973 RMK AO2 RAE25 SLP076 P0000 T00670056=
202212111935 SPECI KSEA 111935Z 36006KT 1/2SM R16L/3000VP6000FT FG VV001 06/06 A2973 RMK AO2 RAE25 P0000 T00610056=
202212111929 SPECI KSEA 111929Z 02006KT 1/4SM R16L/3000VP6000FT FG VV001 06/06 A2973 RMK AO2 RAE25 P0000 T00610056=
202212111914 SPECI KSEA 111914Z 03004KT 1/2SM R16L/4500V5500FT -RA FG OVC001 06/06 A2973 RMK AO2 P0000 T00610056=
202212111853 METAR KSEA 111853Z 02003KT 1SM R16L/P6000FT -RA BR OVC003 07/05 A2973 RMK AO2 RAB51 SLP076 P0000 T00670050=
202212111813 SPECI KSEA 111813Z 02003KT 4SM BR OVC004 06/05 A2973 RMK AO2 T00610050=
202212111753 METAR KSEA 111753Z 01003KT 1 1/2SM BR BKN002 OVC008 06/05 A2972 RMK AO2 RAE52 SLP073 P0003 60004 T00610050 10067 20050 51018=
202212111701 SPECI KSEA 111701Z 00000KT 1SM R16L/5000VP6000FT -RA BR BKN004 OVC009 06/05 A2971 RMK AO2 P0000 T00610050=
202212111653 METAR KSEA 111653Z 00000KT 2SM -RA BR SCT005 OVC009 06/05 A2971 RMK AO2 RAB44 SLP068 P0000 T00610050=
202212111645 SPECI KSEA 111645Z 30003KT 1 3/4SM -RA BR FEW005 OVC011 06/05 A2971 RMK AO2 RAB44 P0000 T00610050=
202212111553 METAR KSEA 111553Z 00000KT 9SM OVC010 06/04 A2969 RMK AO2 RAE52 SLP061 P0000 T00560044=
202212111455 SPECI KSEA 111455Z 00000KT 9SM -RA BKN010 OVC036 06/04 A2967 RMK AO2 P0000 T00560044=
202212111453 METAR KSEA 111453Z 00000KT 10SM -RA BKN010 BKN022 OVC036 05/04 A2967 RMK AO2 SLP055 P0001 60001 T00500044 53017=
202212111353 METAR KSEA 111353Z 05003KT 10SM -RA BKN048 05/04 A2965 RMK AO2 RAB27 SLP047 P0000 T00500039=
202212111253 METAR KSEA 111253Z 00000KT 6SM BR OVC045 05/04 A2963 RMK AO2 SLP042 T00500039=
202212111153 METAR KSEA 111153Z 05004KT 10SM OVC041 06/04 A2962 RMK AO2 SLP038 70027 T00560044 10072 20044 51012=
202212111053 METAR KSEA 111053Z 09003KT 9SM BKN041 OVC080 06/04 A2961 RMK AO2 SLP035 T00560044=
202212110953 METAR KSEA 110953Z 06003KT 10SM SCT021 OVC048 06/04 A2960 RMK AO2 SLP030 T00560039=
202212110904 SPECI KSEA 110904Z 00000KT 10SM BKN020 BKN065 OVC085 06/04 A2959 RMK AO2 T00560039=
202212110853 METAR KSEA 110853Z 00000KT 10SM SCT021 BKN065 OVC085 06/04 A2959 RMK AO2 SLP026 T00560039 51018=
202212110839 SPECI KSEA 110839Z 00000KT 10SM BKN021 BKN060 OVC080 06/04 A2958 RMK AO2 T00560039=
202212110753 METAR KSEA 110753Z 08006KT 10SM FEW048 OVC080 06/04 A2957 RMK AO2 SLP021 T00610039 400780044=
202212110653 METAR KSEA 110653Z VRB04KT 10SM FEW041 BKN049 OVC080 07/04 A2956 RMK AO2 SLP017 T00670039=
202212110601 SPECI KSEA 110601Z 13004KT 10SM SCT024 SCT041 OVC075 07/04 A2954 RMK AO2 T00720044=
202212110553 METAR KSEA 110553Z 15005KT 10SM BKN024 BKN036 OVC075 07/04 A2953 RMK AO2 RAE50 SLP008 P0001 60006 T00720044 10078 20056 51023=
202212110453 METAR KSEA 110453Z 00000KT 6SM -RA BR FEW024 OVC039 06/03 A2952 RMK AO2 RAB49 SLP003 P0000 T00610033=
202212110353 METAR KSEA 110353Z VRB04KT 10SM FEW036 BKN047 07/03 A2948 RMK AO2 SLP992 T00670033=
202212110253 METAR KSEA 110253Z 10008KT 10SM FEW036 BKN045 07/03 A2946 RMK AO2 RAE17 SLP985 P0001 60005 T00670033 51018=
202212110153 METAR KSEA 110153Z 11008KT 8SM -RA SCT035 OVC042 07/04 A2945 RMK AO2 RAE29B45 SLP981 P0002 T00670039=
202212110053 METAR KSEA 110053Z 10005KT 10SM -RA FEW030 BKN035 OVC042 07/04 A2943 RMK AO2 SLP974 P0002 T00670039=
202212102353 METAR KSEA 102353Z 09009KT 9SM -RA BKN041 OVC049 07/04 A2941 RMK AO2 SLP967 P0004 60016 T00670039 10078 20061 53014=
202212102253 METAR KSEA 102253Z 09007KT 4SM RA BR BKN034 OVC042 07/04 A2939 RMK AO2 RAB2156 SLP961 P0005 T00670039=
202212102153 METAR KSEA 102153Z 10009KT 10SM SCT030 BKN040 OVC055 07/04 A2937 RMK AO2 RAE52 SLP954 P0007 T00670039=
202212102053 METAR KSEA 102053Z 12008KT 7SM -RA SCT035 BKN045 OVC055 07/03 A2937 RMK AO2 RAE02B30 SLP952 P0000 60000 T00720033 51007=
202212101953 METAR KSEA 101953Z 11007KT 10SM -RA BKN040 OVC050 08/03 A2937 RMK AO2 RAB42 SLP952 P0000 T00780028=
202212101853 METAR KSEA 101853Z 11006KT 10SM BKN045 OVC055 07/02 A2936 RMK AO2 RAB32E44 SLP950 P0000 T00670022=
202212101753 METAR KSEA 101753Z 10008KT 10SM SCT040 BKN050 07/02 A2935 RMK AO2 SLP946 60005 T00670022 10067 20050 52011=
202212101653 METAR KSEA 101653Z 12008KT 10SM BKN040 OVC050 07/02 A2934 RMK AO2 RAE44 SLP942 P0000 T00670022=
202212101553 METAR KSEA 101553Z 10012KT 10SM -RA OVC040 06/02 A2932 RMK AO2 SLP939 P0003 T00560022=
202212101453 METAR KSEA 101453Z 10009KT 10SM -RA OVC040 05/02 A2932 RMK AO2 SLP935 P0001 60002 T00500017 55000=
202212101353 METAR KSEA 101353Z 11012KT 10SM -RA BKN048 OVC060 06/02 A2931 RMK AO2 RAE22B50 SLP934 P0000 T00560017=
202212101253 METAR KSEA 101253Z 11011KT 10SM -RA OVC042 06/02 A2932 RMK AO2 RAB04 SLP937 P0001 T00560017=
202212101153 METAR KSEA 101153Z 11010KT 10SM OVC041 06/01 A2932 RMK AO2 RAE01 SLP935 P0000 60012 70058 T00560011 10056 20039 56008=
202212101053 METAR KSEA 101053Z 12010KT 10SM -RA BKN045 OVC055 06/02 A2932 RMK AO2 RAB15 SLP937 P0001 T00560017=
202212100953 METAR KSEA 100953Z 12011KT 10SM SCT043 BKN050 OVC080 05/02 A2932 RMK AO2 RAE51 SLP937 P0001 T00500017=
202212100853 METAR KSEA 100853Z 11009KT 10SM -RA SCT038 BKN045 OVC055 05/02 A2934 RMK AO2 SLP942 P0001 60010 T00500017 56015=
202212100753 METAR KSEA 100753Z 11010KT 8SM -RA BKN038 OVC050 04/02 A2935 RMK AO2 SLP948 P0005 T00440017 400610022=
202212100653 METAR KSEA 100653Z 11013G19KT 7SM -RA BKN039 OVC050 04/02 A2937 RMK AO2 SLP953 P0004 T00440017=
202212100553 METAR KSEA 100553Z 11012KT 9SM -RA OVC037 04/02 A2938 RMK AO2 SLP958 P0005 60040 T00440017 10056 20039 58033=
202212100453 METAR KSEA 100453Z 11011KT 7SM -RA OVC030 04/02 A2942 RMK AO2 SLP972 P0008 T00390017=
202212100353 METAR KSEA 100353Z 14010G19KT 7SM -RA OVC031 04/02 A2945 RMK AO2 SLP981 P0006 T00390017=
202212100253 METAR KSEA 100253Z 12010KT 6SM -RA BR FEW014 OVC032 04/02 A2948 RMK AO2 SLP992 P0007 60021 T00390017 56046=
202212100153 METAR KSEA 100153Z 11012G23KT 5SM -RA FEW014 OVC028 04/01 A2950 RMK AO2 SLP000 P0011 T00390011=
202212100053 METAR KSEA 100053Z 12007KT 7SM -RA OVC024 04/01 A2957 RMK AO2 SLP021 P0003 T00440011=
202212100023 SPECI KSEA 100023Z 16008KT 9SM -RA FEW012 OVC028 05/01 A2959 RMK AO2 P0000 T00500006=
202212092353 METAR KSEA 092353Z 11007KT 10SM -RA OVC034 06/00 A2962 RMK AO2 RAE2254B50 SLP039 P0000 60000 T00560000 10061 20044 58047=
202212092253 METAR KSEA 092253Z 10008KT 10SM -RA OVC037 06/00 A2967 RMK AO2 RAB32 SLP055 P0000 T00610000=
202212092153 METAR KSEA 092153Z 10009KT 10SM OVC043 06/00 A2972 RMK AO2 SLP073 T00610000=
202212092053 METAR KSEA 092053Z 11006KT 10SM BKN050 OVC060 06/01 A2976 RMK AO2 SLP086 T00610006 58044=
202212091953 METAR KSEA 091953Z 14006KT 10SM BKN055 OVC070 06/02 A2981 RMK AO2 SLP104 T00560017=
202212091853 METAR KSEA 091853Z 11006KT 10SM SCT055 BKN070 OVC090 05/01 A2986 RMK AO2 SLP119 T00500011=
202212091753 METAR KSEA 091753Z 16007KT 10SM FEW047 OVC060 04/01 A2989 RMK AO2 SLP131 60006 T00440006 10044 20022 58008=
202212091653 METAR KSEA 091653Z 18009KT 10SM FEW035 SCT060 BKN200 04/01 A2990 RMK AO2 SLP135 T00390006=
202212091553 METAR KSEA 091553Z 19007KT 10SM FEW027 BKN120 BKN200 03/01 A2991 RMK AO2 SLP136 T00280006=
202212091453 METAR KSEA 091453Z 17009KT 10SM FEW027 SCT110 BKN200 02/01 A2991 RMK AO2 SLP139 60006 T00220006 58003=
202212091446 SPECI KSEA 091446Z 18007KT 10SM FEW027 BKN110 02/01 A2991 RMK AO2 T00220006=
202212091353 METAR KSEA 091353Z 18007KT 10SM BKN029 OVC034 03/01 A2992 RMK AO2 RAE30 SLP139 P0002 T00280011=
202212091341 SPECI KSEA 091341Z 18007KT 10SM SCT014 BKN029 OVC034 03/01 A2991 RMK AO2 RAE30 P0002 T00280011=
202212091253 METAR KSEA 091253Z 19006KT 5SM -RA BR SCT008 OVC014 02/01 A2992 RMK AO2 RAB11 SLP142 P0004 T00220011=
202212091246 SPECI KSEA 091246Z 18007KT 6SM -RA BR FEW008 OVC013 02/01 A2993 RMK AO2 RAB11 P0003 T00220011=
202212091207 SPECI KSEA 091207Z 15006KT 7SM FEW007 BKN025 OVC036 03/01 A2992 RMK AO2 T00280011=
202212091153 METAR KSEA 091153Z 14007KT 10SM FEW030 OVC036 02/01 A2992 RMK AO2 RAE16 SLP142 P0000 60016 70024 T00220011 10039 20022 56009=
202212091105 SPECI KSEA 091105Z 17007KT 10SM -RA SCT023 OVC032 03/02 A2993 RMK AO2 P0000 T00280017=
202212091053 METAR KSEA 091053Z 18007KT 10SM -RA FEW011 BKN025 OVC030 03/02 A2993 RMK AO2 RAE12B23 SLP145 P0004 T00280017=
202212091034 SPECI KSEA 091034Z 17009KT 7SM -RA SCT012 BKN024 OVC110 03/02 A2993 RMK AO2 RAE12B23 P0003 T00280017=
202212091013 SPECI KSEA 091013Z 18008KT 10SM FEW005 BKN050 OVC110 03/02 A2993 RMK AO2 RAE12 P0001 T00280017=
202212091004 SPECI KSEA 091004Z 20006KT 10SM -RA FEW005 BKN026 OVC050 03/02 A2993 RMK AO2 P0001 T00280017=
202212090953 METAR KSEA 090953Z 16007KT 6SM -RA BR FEW005 SCT021 OVC030 03/02 A2994 RMK AO2 SLP146 P0007 T00280017=
202212090914 SPECI KSEA 090914Z 21011KT 6SM -RA BR FEW008 BKN022 OVC047 03/02 A2995 RMK AO2 P0003 T00280017=
202212090905 SPECI KSEA 090905Z 21010KT 9SM -RA FEW008 BKN030 OVC045 03/02 A2995 RMK AO2 P0001 T00280017=
202212090853 METAR KSEA 090853Z 21010KT 8SM -RA FEW019 BKN024 OVC047 03/02 A2995 RMK AO2 RAB09 SLP151 P0005 60005 T00330017 50004=
202212090838 SPECI KSEA 090838Z 21009KT 4SM -RA BR BKN021 BKN032 OVC070 03/02 A2995 RMK AO2 RAB09 P0002 T00330017=
202212090813 SPECI KSEA 090813Z 17008KT 9SM -RA SCT010 BKN055 OVC070 03/02 A2994 RMK AO2 RAB09 P0000 T00330017=
202212090753 METAR KSEA 090753Z 15007KT 10SM BKN010 BKN015 OVC020 03/01 A2995 RMK AO2 SLP152 T00280011 400610028=
202212090653 METAR KSEA 090653Z 18008KT 10SM OVC012 03/01 A2994 RMK AO2 SLP149 T00330011=
202212090553 METAR KSEA 090553Z 18008KT 10SM OVC012 04/01 A2994 RMK AO2 SLP147 T00390011 10056 20039 51008=
202212090532 SPECI KSEA 090532Z 17007KT 10SM BKN014 OVC021 04/02 A2994 RMK AO2 T00390017=
202212090453 METAR KSEA 090453Z 21011KT 10SM FEW014 BKN026 OVC085 04/02 A2993 RMK AO2 SLP146 T00440017=
202212090434 SPECI KSEA 090434Z 19011KT 10SM SCT019 BKN070 OVC085 04/02 A2993 RMK AO2 T00440017=
202212090353 METAR KSEA 090353Z 19011G18KT 10SM BKN016 OVC060 06/02 A2992 RMK AO2 SLP140 T00560022=
202212090253 METAR KSEA 090253Z 19009KT 10SM FEW012 BKN018 OVC025 06/03 A2991 RMK AO2 SLP138 T00560028 55001=
202212090153 METAR KSEA 090153Z 19009KT 10SM SCT012 BKN020 OVC031 06/03 A2991 RMK AO2 SLP136 T00560028=
202212090121 SPECI KSEA 090121Z 20009G15KT 10SM BKN012 OVC021 06/03 A2991 RMK AO2 T00560033=
202212090053 METAR KSEA 090053Z 13006KT 10SM OVC015 05/03 A2991 RMK AO2 SLP137 T00500033=
202212082353 METAR KSEA 082353Z 13007KT 10SM BKN016 BKN027 OVC085 05/03 A2992 RMK AO2 SLP139 60001 T00500028 10056 20039 56007=
202212082253 METAR KSEA 082253Z 14006KT 10SM BKN018 BKN026 OVC030 05/03 A2992 RMK AO2 SLP140 T00500028=
202212082153 METAR KSEA 082153Z 13009KT 10SM FEW018 BKN022 OVC043 04/02 A2992 RMK AO2 SLP139 T00440022=
202212082131 SPECI KSEA 082131Z 14010KT 10SM FEW019 BKN025 OVC046 04/02 A2992 RMK AO2 T00440022=
202212082053 METAR KSEA 082053Z 12009KT 10SM SCT025 OVC043 04/02 A2994 RMK AO2 SLP146 60001 T00440022 58010=
202212081953 METAR KSEA 081953Z 11008KT 10SM SCT013 OVC034 04/02 A2995 RMK AO2 RAE22 SLP151 P0000 T00390022=
202212081853 METAR KSEA 081853Z 12008KT 10SM -RA BKN014 BKN019 OVC041 04/03 A2996 RMK AO2 RAB1755 SLP156 P0001 T00440028=
202212081753 METAR KSEA 081753Z 14006KT 10SM BKN011 OVC016 04/03 A2997 RMK AO2 RAE48 SLP157 P0000 60007 T00440028 10061 20039 53007=
202212081653 METAR KSEA 081653Z 13009KT 10SM -RA FEW007 OVC012 04/03 A2995 RMK AO2 SLP152 P0000 T00440033=
202212081557 SPECI KSEA 081557Z 18007KT 10SM -RA OVC012 06/04 A2995 RMK AO2 P0000 T00560039=
202212081553 METAR KSEA 081553Z 18008KT 10SM -RA OVC012 06/04 A2995 RMK AO2 RAB24E38B53 SLP149 P0001 T00560039=
202212081542 SPECI KSEA 081542Z 19010KT 10SM OVC012 06/04 A2995 RMK AO2 RAB24E38 P0001 T00560039=
202212081515 SPECI KSEA 081515Z 18010KT 10SM FEW010 SCT042 OVC055 06/04 A2995 RMK AO2 T00560039=
202212081453 METAR KSEA 081453Z 18009KT 10SM SCT010 BKN019 OVC060 06/04 A2994 RMK AO2 RAE33 SLP148 P0002 60006 T00560039 53010=
202212081353 METAR KSEA 081353Z 20009KT 8SM -RA BKN012 OVC019 06/04 A2993 RMK AO2 RAB09 SLP144 P0001 T00610039=
202212081348 SPECI KSEA 081348Z 20008KT 8SM -RA FEW009 BKN013 OVC019 06/04 A2993 RMK AO2 RAB09 P0001=
202212081253 METAR KSEA 081253Z 21006KT 10SM OVC026 06/04 A2992 RMK AO2 RAE50 SLP141 P0003 T00610039=
202212081210 SPECI KSEA 081210Z 19005KT 6SM -RA OVC029 05/02 A2992 RMK AO2 P0001 T00500017=
202212081153 METAR KSEA 081153Z 13004KT 9SM -RA OVC031 04/02 A2992 RMK AO2 RAB01E13B33 SLP138 P0001 60002 70003 T00440017 10056 20039 55009=
202212081053 METAR KSEA 081053Z 16006KT 10SM OVC042 04/01 A2989 RMK AO2 RAB0955E27 SLP130 P0001 T00390011=
202212080953 METAR KSEA 080953Z 14011KT 10SM OVC037 05/01 A2992 RMK AO2 RAB23E48 SLP141 P0000 T00500006=
202212080853 METAR KSEA 080853Z 13006KT 10SM OVC041 05/00 A2994 RMK AO2 SLP147 60000 T00500000 56020=
202212080753 METAR KSEA 080753Z 15008KT 10SM OVC044 06/01 A2996 RMK AO2 RAB25E39 SLP154 P0000 T00560006 400720033=
202212080653 METAR KSEA 080653Z 13009KT 10SM BKN055 OVC070 06/00 A2998 RMK AO2 SLP160 T00560000=
202212080553 METAR KSEA 080553Z 13009KT 10SM OVC060 06/01 A3000 RMK AO2 SLP168 T00560006 10072 20050 58010=
202212080453 METAR KSEA 080453Z 15006KT 10SM OVC060 05/01 A3002 RMK AO2 SLP176 T00500006=
202212080353 METAR KSEA 080353Z 16008KT 10SM OVC055 06/01 A3003 RMK AO2 SLP178 T00560006=
202212080253 METAR KSEA 080253Z 17007KT 10SM OVC043 06/00 A3003 RMK AO2 SLP180 T00610000 56008=
202212080153 METAR KSEA 080153Z 15008KT 10SM OVC048 07/M01 A3004 RMK AO2 SLP180 T00671006=
202212080053 METAR KSEA 080053Z 15010KT 10SM BKN049 07/M01 A3004 RMK AO2 SLP182 T00671006=
202212072353 METAR KSEA 072353Z 17009KT 10SM BKN046 07/M01 A3006 RMK AO2 SLP187 T00671006 10072 20050 56009=
202212072253 METAR KSEA 072253Z 18010KT 10SM BKN044 07/00 A3006 RMK AO2 SLP188 T00720000=
202212072153 METAR KSEA 072153Z 21009KT 10SM FEW030 BKN043 07/01 A3007 RMK AO2 SLP191 T00720011=
202212072053 METAR KSEA 072053Z 20006KT 10SM FEW020 BKN043 07/02 A3009 RMK AO2 SLP196 VCSH T00720017 58018=
202212071953 METAR KSEA 071953Z 20004KT 10SM FEW025 BKN045 BKN100 BKN250 07/02 A3011 RMK AO2 SLP204 VCSH T00670022=
202212071853 METAR KSEA 071853Z 17007KT 10SM BKN047 BKN100 BKN250 06/01 A3013 RMK AO2 SLP212 VCSH T00560011=
202212071753 METAR KSEA 071753Z 14006KT 10SM BKN044 BKN100 05/02 A3014 RMK AO2 SLP216 VCSH 60001 T00500017 10050 20033 53002=
202212071653 METAR KSEA 071653Z 14007KT 10SM BKN047 BKN100 BKN250 04/02 A3014 RMK AO2 SLP214 VCSH T00440017=
202212071553 METAR KSEA 071553Z 14005KT 7SM SCT038 OVC047 04/02 A3014 RMK AO2 SLP214 T00390022=
202212071453 METAR KSEA 071453Z 16005KT 10SM SCT032 OVC046 04/02 A3014 RMK AO2 RAE50 SLP214 P0000 60001 T00390022 58004=
202212071353 METAR KSEA 071353Z 13006KT 9SM -RA OVC034 04/02 A3014 RMK AO2 RAB21 SLP216 P0001 T00390022=
202212071253 METAR KSEA 071253Z 16004KT 10SM FEW027 BKN032 OVC049 04/02 A3015 RMK AO2 SLP218 T00390022=
202212071153 METAR KSEA 071153Z 17005KT 10SM OVC027 04/02 A3015 RMK AO2 SLP218 60002 70004 T00440022 10050 20044 58006=
202212071053 METAR KSEA 071053Z 13005KT 10SM OVC026 04/03 A3016 RMK AO2 RAB0959E25 SLP222 P0000 T00440028=
202212070953 METAR KSEA 070953Z 17004KT 10SM BKN018 BKN023 OVC030 04/03 A3016 RMK AO2 RAB33E37 SLP223 P0000 T00440033=
202212070853 METAR KSEA 070853Z 20004KT 10SM BKN022 OVC043 05/03 A3017 RMK AO2 SLP224 60002 T00500028 58000=
202212070844 SPECI KSEA 070844Z 19005KT 10SM BKN022 BKN035 OVC048 05/03 A3016 RMK AO2 T00500028=
202212070807 SPECI KSEA 070807Z 18008KT 10SM FEW022 BKN043 OVC050 04/03 A3017 RMK AO2 T00440028=
202212070753 METAR KSEA 070753Z 18008KT 10SM BKN020 OVC045 05/03 A3017 RMK AO2 SLP226 T00500028 400560022=
202212070730 SPECI KSEA 070730Z 17008KT 10SM BKN018 OVC043 05/03 A3017 RMK AO2 T00500028=
202212070653 METAR KSEA 070653Z 18007KT 10SM BKN012 OVC044 05/03 A3017 RMK AO2 RAE35 SLP227 P0002 T00500033=
202212070553 METAR KSEA 070553Z 16005KT 6SM -RA BR BKN011 OVC019 05/03 A3017 RMK AO2 RAB28 SLP225 P0000 60000 T00500033 10056 20050 53007=
202212070544 SPECI KSEA 070544Z 16005KT 8SM -RA BKN011 OVC019 05/03 A3017 RMK AO2 RAB28 P0000 T00500028=
202212070453 METAR KSEA 070453Z 17008KT 10SM FEW010 OVC018 05/03 A3016 RMK AO2 SLP222 T00500033=
202212070353 METAR KSEA 070353Z 18006KT 10SM OVC017 05/03 A3015 RMK AO2 SLP220 T00500033=
202212070339 SPECI KSEA 070339Z 18006KT 10SM FEW012 BKN017 OVC034 05/03 A3015 RMK AO2 T00500033=
202212070253 METAR KSEA 070253Z 19007KT 10SM BKN011 OVC020 05/03 A3015 RMK AO2 SLP218 60000 T00500033 53005=
202212070153 METAR KSEA 070153Z 17008KT 10SM BKN012 OVC017 05/03 A3014 RMK AO2 DZE12 SLP216 P0000 T00500033=
202212070118 SPECI KSEA 070118Z 17007KT 10SM OVC010 05/03 A3014 RMK AO2 DZE12 P0000 T00500033=
202212070053 METAR KSEA 070053Z 17008KT 10SM -DZ BKN008 OVC015 05/03 A3013 RMK AO2 DZB50 SLP214 P0000 T00500033=
202212070031 SPECI KSEA 070031Z 16005KT 10SM BKN008 OVC015 05/03 A3013 RMK AO2 T00500033=
202212062353 METAR KSEA 062353Z 14005KT 10SM SCT010 OVC018 05/03 A3013 RMK AO2 SLP212 T00500033 10050 20039 55000=
202212062320 SPECI KSEA 062320Z 14006KT 10SM BKN013 OVC020 05/03 A3013 RMK AO2 T00500028=
202212062253 METAR KSEA 062253Z 14007KT 10SM FEW010 OVC015 05/03 A3012 RMK AO2 SLP210 T00500028=
202212062237 SPECI KSEA 062237Z 14007KT 10SM SCT010 OVC015 05/03 A3013 RMK AO2 T00500028=
202212062153 METAR KSEA 062153Z 16006KT 10SM OVC010 04/02 A3012 RMK AO2 SLP210 T00440022=
202212062053 METAR KSEA 062053Z 15006KT 10SM BKN010 OVC020 04/03 A3013 RMK AO2 SLP213 T00390028 58003=
202212062034 SPECI KSEA 062034Z 16006KT 10SM BKN010 OVC020 04/02 A3013 RMK AO2 T00440022=
202212061953 METAR KSEA 061953Z 18006KT 10SM BKN007 OVC015 04/03 A3014 RMK AO2 SLP214 T00440028=
202212061853 METAR KSEA 061853Z 17006KT 10SM BKN007 BKN012 04/03 A3014 RMK AO2 SLP217 T00390028=
202212061800 SPECI KSEA 061800Z 15006KT 10SM BKN008 OVC013 04/02 A3014 RMK AO2 T00390022=
202212061753 METAR KSEA 061753Z 15005KT 10SM FEW006 BKN015 OVC019 03/02 A3014 RMK AO2 SLP216 60002 T00330022 10039 20022 53015=
202212061653 METAR KSEA 061653Z 15004KT 7SM FEW005 BKN015 BKN045 03/02 A3013 RMK AO2 SLP212 T00330022=
202212061553 METAR KSEA 061553Z 14004KT 6SM BR SCT003 BKN017 OVC048 03/02 A3011 RMK AO2 RAE39 SLP204 P0000 T00280022=
202212061453 METAR KSEA 061453Z 15005KT 6SM -RA BR FEW001 BKN015 OVC020 03/02 A3010 RMK AO2 SLP202 P0000 60002 T00280017 51006=
202212061435 SPECI KSEA 061435Z 14006KT 6SM -RA BCFG FEW001 BKN015 OVC020 03/02 A3010 RMK AO2 P0000 T00280017=
202212061353 METAR KSEA 061353Z 16003KT 7SM -RA OVC011 03/02 A3009 RMK AO2 SLP199 P0002 T00280017=
202212061315 SPECI KSEA 061315Z 17003KT 6SM -RA BR FEW007 BKN011 OVC022 03/02 A3009 RMK AO2 P0001 T00280017=
202212061306 SPECI KSEA 061306Z 17004KT 5SM -RA BR FEW007 OVC022 03/02 A3009 RMK AO2 P0000 T00280017=
202212061253 METAR KSEA 061253Z 17003KT 6SM -RA BR OVC024 03/02 A3009 RMK AO2 RAE17B48 SLP199 P0000 T00280017=
202212061206 SPECI KSEA 061206Z 14004KT 6SM -RA BR BKN028 OVC034 02/02 A3008 RMK AO2 P0000 T00220017=
202212061153 METAR KSEA 061153Z 16004KT 7SM -RA OVC034 03/02 A3008 RMK AO2 RAB50 SLP195 P0000 60000 T00280017 10028 20022 50001=
202212061053 METAR KSEA 061053Z 16005KT 9SM BKN034 OVC049 02/01 A3009 RMK AO2 RAE11 SLP198 P0000 T00220011=
202212060953 METAR KSEA 060953Z 19003KT 10SM -RA FEW030 OVC038 03/01 A3009 RMK AO2 RAE16B43 SLP198 P0000 T00280011=
202212060943 SPECI KSEA 060943Z 00000KT 10SM -RA SCT030 OVC038 03/01 A3008 RMK AO2 RAE16B43 P0000 T00280011=
202212060853 METAR KSEA 060853Z 00000KT 7SM -RA BKN025 OVC035 03/01 A3008 RMK AO2 SLP195 P0000 60000 T00280006 51007=
202212060845 SPECI KSEA 060845Z 03003KT 10SM -RA BKN025 OVC033 03/01 A3008 RMK AO2 P0000 T00280006=
202212060823 SPECI KSEA 060823Z 00000KT 10SM -RA OVC033 03/01 A3007 RMK AO2 P0000 T00280011=
202212060753 METAR KSEA 060753Z 02003KT 9SM -RA BKN023 OVC036 02/01 A3008 RMK AO2 RAE0654B51 SLP194 P0000 T00220011 400500017=
202212060653 METAR KSEA 060653Z 07005KT 8SM -RA BKN020 OVC033 03/01 A3007 RMK AO2 SLP191 RAB27 P0000 T00280011=
202212060553 METAR KSEA 060553Z 01007KT 10SM FEW021 OVC030 03/01 A3006 RMK AO2 SLP187 60000 T00280006 10039 20028 53010=
202212060524 SPECI KSEA 060524Z 01006KT 10SM FEW010 SCT019 OVC032 03/01 A3005 RMK AO2 T00280011=
202212060509 SPECI KSEA 060509Z 01006KT 10SM SCT009 BKN019 OVC032 03/01 A3005 RMK AO2 T00280011=
202212060453 METAR KSEA 060453Z 36005KT 10SM OVC009 03/01 A3005 RMK AO2 SLP184 T00280011=
202212060353 METAR KSEA 060353Z 03006KT 8SM OVC009 04/02 A3003 RMK AO2 SLP179 T00390017=
202212060325 SPECI KSEA 060325Z 36005KT 9SM BKN008 OVC011 03/02 A3003 RMK AO2 T00330022=
202212060253 METAR KSEA 060253Z 36004KT 9SM OVC010 03/02 A3003 RMK AO2 SLP177 60000 T00330022 53003=
202212060153 METAR KSEA 060153Z 00000KT 7SM FEW006 BKN010 OVC030 03/02 A3002 RMK AO2 DZE49 SLP174 P0000 T00330022=
202212060053 METAR KSEA 060053Z 01003KT 5SM -DZ BR FEW006 OVC012 03/02 A3001 RMK AO2 SLP172 P0000 T00330022=
202212052353 METAR KSEA 052353Z 35004KT 4SM -DZ BR FEW007 OVC013 03/02 A3002 RMK AO2 SLP173 P0000 60000 T00330017 10050 20028 53002=
202212052316 SPECI KSEA 052316Z 36004KT 6SM -DZ BR OVC010 04/02 A3001 RMK AO2 P0000 T00390017=
202212052253 METAR KSEA 052253Z VRB03KT 6SM -DZ BR BKN009 OVC016 04/02 A3001 RMK AO2 SLP171 P0000 T00390017=
202212052238 SPECI KSEA 052238Z 00000KT 5SM -DZ BKN009 OVC018 04/02 A3001 RMK AO2 P0000 T00440017=
202212052216 SPECI KSEA 052216Z VRB03KT 7SM -DZ SCT009 OVC017 04/02 A3000 RMK AO2 P0000 T00440017=
202212052153 METAR KSEA 052153Z 00000KT 8SM -DZ BKN019 OVC033 04/01 A3000 RMK AO2 DZB49 SLP169 P0000 T00390011=
202212052053 METAR KSEA 052053Z 01003KT 10SM BKN015 OVC035 04/01 A3001 RMK AO2 SLP171 T00440011 58005=
202212052047 SPECI KSEA 052047Z 34003KT 10SM BKN015 OVC035 04/01 A3001 RMK AO2=
202212051953 METAR KSEA 051953Z 31003KT 10SM FEW022 OVC035 04/01 A3001 RMK AO2 SLP173 T00440006=
202212051853 METAR KSEA 051853Z 00000KT 10SM FEW010 SCT028 OVC037 04/01 A3002 RMK AO2 SLP176 T00390011=
202212051753 METAR KSEA 051753Z 02004KT 10SM FEW010 SCT028 BKN037 03/01 A3002 RMK AO2 SLP176 T00330011 10033 20017 53005=
202212051653 METAR KSEA 051653Z 05004KT 10SM FEW010 BKN033 BKN045 03/00 A3001 RMK AO2 SLP172 T00280000=
202212051553 METAR KSEA 051553Z 03005KT 9SM FEW005 OVC033 02/01 A3001 RMK AO2 SLP173 T00220011=
202212051453 METAR KSEA 051453Z 03004KT 5SM BR SCT001 OVC033 02/01 A3001 RMK AO2 SLP172 T00220011 53001=
202212051432 SPECI KSEA 051432Z 03004KT 1/2SM R16L/P6000FT BR SCT001 OVC031 02/01 A3001 RMK AO2 SFC VIS 3 T00220006=
202212051355 SPECI KSEA 051355Z 03005KT 1/2SM R16L/P6000FT BR BKN001 OVC030 02/01 A3001 RMK AO2 SFC VIS 1 T00170006=
202212051353 METAR KSEA 051353Z 03006KT 1/2SM R16L/P6000FT BKN001 OVC030 02/01 A3001 RMK AO2 SFC VIS 1 SLP171 T00170006=
202212051341 SPECI KSEA 051341Z 03005KT 1 1/2SM BKN001 OVC030 02/01 A3000 RMK AO2 TWR VIS 4 T00220006=
202212051333 SPECI KSEA 051333Z 03003KT 2SM FEW001 OVC030 02/01 A3000 RMK AO2 TWR VIS 4 T00170006=
202212051253 METAR KSEA 051253Z 00000KT 9SM OVC032 02/01 A3000 RMK AO2 SLP168 T00170011=
202212051158 SPECI KSEA 051158Z 15003KT 4SM BR FEW002 OVC032 02/01 A3000 RMK AO2 VIS N-NE 2 T00170011=
202212051153 METAR KSEA 051153Z 00000KT 6SM FEW002 OVC032 02/01 A3000 RMK AO2 SLP170 VIS N-NE 2 70031 T00170011 10028 20017 58001=
202212051133 SPECI KSEA 051133Z 04003KT 5SM BR FEW002 OVC032 02/01 A3000 RMK AO2 VIS N-NE 1 T00170006=
202212051111 SPECI KSEA 051111Z 09004KT 1/2SM R16L/1800VP6000FT FG SCT002 OVC032 02/01 A3001 RMK AO2 TWR VIS 10 T00170006=
202212051053 METAR KSEA 051053Z 00000KT 7SM SCT002 OVC033 02/01 A3001 RMK AO2 SLP173 VIS E-S 2 T00170006=
202212050953 METAR KSEA 050953Z 00000KT 7SM FEW005 BKN031 OVC045 02/01 A3001 RMK AO2 SLP172 T00170011=
202212050853 METAR KSEA 050853Z 04006KT 5SM BR FEW005 OVC033 02/01 A3001 RMK AO2 SLP171 VIS SE-S 2 T00220006 50002=
202212050840 SPECI KSEA 050840Z 03006KT 5SM BR FEW002 OVC033 02/01 A3001 RMK AO2 VIS SE-S 2 T00220006=
202212050753 METAR KSEA 050753Z 03004KT 2SM BR FEW002 OVC034 02/01 A3001 RMK AO2 SLP174 VIS 1 1/2V3 T00220006 400330000=
202212050653 METAR KSEA 050653Z 05005KT 2SM BR FEW002 BKN030 OVC038 02/01 A3000 RMK AO2 SLP170 T00220006=
202212050645 SPECI KSEA 050645Z 05005KT 2SM BR FEW002 BKN030 OVC038 02/01 A3000 RMK AO2 T00220006=
202212050553 METAR KSEA 050553Z 04003KT 7SM SCT025 BKN040 OVC095 02/01 A3000 RMK AO2 SLP169 60003 T00220006 10028 20011 51007=
202212050532 SPECI KSEA 050532Z 03004KT 8SM FEW027 OVC095 02/01 A3000 RMK AO2 T00220006=
202212050453 METAR KSEA 050453Z 00000KT 9SM FEW009 OVC028 02/01 A2999 RMK AO2 SLP167 T00220011=
202212050430 SPECI KSEA 050430Z 00000KT 10SM SCT009 BKN029 OVC095 02/01 A2999 RMK AO2 T00170006=
202212050353 METAR KSEA 050353Z 02004KT 9SM BKN021 OVC090 02/00 A2999 RMK AO2 SLP166 T00170000=
202212050253 METAR KSEA 050253Z 00000KT 7SM FEW004 SCT070 OVC090 02/00 A2998 RMK AO2 RAE25 SLP162 P0000 60003 T00170000 50002=
202212050248 SPECI KSEA 050248Z 00000KT 7SM FEW004 SCT070 OVC090 02/00 A2998 RMK AO2 RAE25 P0000=
202212050153 METAR KSEA 050153Z 00000KT 10SM -RA OVC040 02/00 A2997 RMK AO2 SLP160 P0001 T00170000=
202212050053 METAR KSEA 050053Z 11006KT 10SM -RA OVC034 02/00 A2997 RMK AO2 SLP160 P0002 T00220000=
202212042353 METAR KSEA 042353Z 09007KT 8SM -RA OVC031 02/00 A2997 RMK AO2 SLP158 P0001 60028 T00220000 10033 20000 53004=
202212042305 SPECI KSEA 042305Z 08006KT 5SM -RA BR FEW025 OVC034 01/00 A2996 RMK AO2 P0000 T00110000=
202212042253 METAR KSEA 042253Z 06004KT 6SM -RA BR BKN025 OVC034 01/00 A2996 RMK AO2 RAB09SNE09 SLP156 P0003 T00110000=
202212042201 SPECI KSEA 042201Z 13004KT 3SM R16L/3000VP6000FT -SN BR OVC020 01/M01 A2995 RMK AO2 P0001 T00111006=
202212042153 METAR KSEA 042153Z 00000KT 2 1/2SM -SN BR OVC016 01/00 A2995 RMK AO2 SLP153 P0013 T00060000=
202212042150 SPECI KSEA 042150Z 00000KT 2 1/2SM -SN BR FEW004 OVC016 01/00 A2995 RMK AO2 P0013=
202212042143 SPECI KSEA 042143Z 00000KT 1SM R16L/4000VP6000FT -SN BR FEW004 OVC016 01/00 A2996 RMK AO2 P0012 T00060000=
202212042130 SPECI KSEA 042130Z 00000KT 1SM R16L/2600VP6000FT -SN BR FEW003 OVC012 01/M01 A2996 RMK AO2 P0009 T00061006=
202212042057 SPECI KSEA 042057Z 35004KT 1SM R16L/4500VP6000FT -SN BR FEW010 OVC014 01/M01 A2997 RMK AO2 P0001 T00061006=
202212042053 METAR KSEA 042053Z 35003KT 2SM -SN BR FEW010 OVC014 01/M01 A2997 RMK AO2 SLP158 P0007 60011 T00061006 50004=
202212042047 SPECI KSEA 042047Z 35003KT 2SM -SN BR FEW010 OVC016 01/M01 A2997 RMK AO2 P0005=
202212042029 SPECI KSEA 042029Z 01006KT 3SM -SN BR OVC018 01/M01 A2997 RMK AO2 P0003 T00111006=
202212042018 SPECI KSEA 042018Z 02006KT 2SM -SN OVC020 02/M01 A2997 RMK AO2 P0002 T00171011=
202212042007 SPECI KSEA 042007Z 04005KT 3SM -SN FEW017 BKN024 OVC043 02/M01 A2997 RMK AO2 P0001 T00171011=
202212041953 METAR KSEA 041953Z 07005KT 8SM -SN SCT034 BKN043 OVC070 02/M01 A2997 RMK AO2 SNB51 SLP158 P0000 T00221006=
202212041853 METAR KSEA 041853Z 36006KT 10SM BKN038 OVC065 02/M01 A2996 RMK AO2 RAB12E42SNE12 SLP154 P0004 T00171006=
202212041753 METAR KSEA 041753Z 02008KT 10SM -SN BKN042 OVC055 02/M02 A2996 RMK AO2 SNB50 SLP154 P0000 60000 T00221017 10028 20000 55000=
202212041653 METAR KSEA 041653Z 02011KT 10SM FEW020 SCT070 OVC100 02/M02 A2996 RMK AO2 SLP155 T00221017=
202212041553 METAR KSEA 041553Z 01011KT 10SM FEW020 SCT090 OVC100 02/M02 A2995 RMK AO2 SLP153 T00171022=
202212041453 METAR KSEA 041453Z 01009KT 10SM SCT070 OVC090 02/M03 A2996 RMK AO2 SLP154 T00171028 55008=
202212041353 METAR KSEA 041353Z 01010KT 10SM BKN110 02/M03 A2995 RMK AO2 SLP152 T00171028=
202212041253 METAR KSEA 041253Z 36011KT 10SM SCT100 SCT200 01/M03 A2996 RMK AO2 SLP155 T00061033=
202212041153 METAR KSEA 041153Z 02013KT 10SM SCT100 BKN210 01/M03 A2998 RMK AO2 SLP161 4/001 T00061033 10022 20006 56024=
202212041053 METAR KSEA 041053Z 02013KT 10SM SCT100 BKN200 01/M03 A3000 RMK AO2 SLP169 T00111028=
202212040953 METAR KSEA 040953Z 02013KT 10SM FEW100 SCT200 01/M03 A3003 RMK AO2 SLP177 T00111028=
202212040853 METAR KSEA 040853Z 03011KT 10SM FEW100 01/M03 A3005 RMK AO2 SLP186 T00111033 58016=
202212040753 METAR KSEA 040753Z 03010KT 10SM CLR 01/M03 A3008 RMK AO2 SLP196 T00111033 400610006=
202212040653 METAR KSEA 040653Z 02014KT 10SM CLR 02/M03 A3010 RMK AO2 SLP201 T00171033=
202212040553 METAR KSEA 040553Z 36012KT 10SM CLR 02/M03 A3010 RMK AO2 SLP202 4/001 T00171028 10050 20017 57004=
202212040453 METAR KSEA 040453Z 02012KT 10SM CLR 02/M02 A3010 RMK AO2 SLP203 T00221017=
202212040353 METAR KSEA 040353Z 02009KT 10SM CLR 02/M01 A3011 RMK AO2 SLP205 T00171011=
202212040253 METAR KSEA 040253Z 03011KT 10SM CLR 03/M01 A3011 RMK AO2 SLP206 T00281006 51006=
202212040153 METAR KSEA 040153Z 02010KT 10SM CLR 03/M01 A3011 RMK AO2 SLP204 T00281006=
202212040053 METAR KSEA 040053Z 03007KT 10SM FEW180 03/M01 A3011 RMK AO2 SLP205 T00281006=
202212032353 METAR KSEA 032353Z 02011KT 10SM FEW030 SCT180 05/01 A3009 RMK AO2 SLP200 T00500006 10061 20039 56005=
202212032253 METAR KSEA 032253Z 01011KT 10SM FEW030 SCT180 06/01 A3009 RMK AO2 SLP200 T00560011=
202212032153 METAR KSEA 032153Z 01012KT 10SM FEW030 SCT180 06/01 A3009 RMK AO2 SLP200 T00610006=
202212032053 METAR KSEA 032053Z 02010KT 10SM FEW030 SCT180 06/01 A3011 RMK AO2 SLP205 T00610006 50001=
202212031953 METAR KSEA 031953Z 01008KT 10SM FEW030 FEW070 06/01 A3011 RMK AO2 SLP206 T00560006=
202212031853 METAR KSEA 031853Z 33005KT 10SM FEW030 FEW070 05/01 A3012 RMK AO2 SLP209 T00500006=
202212031753 METAR KSEA 031753Z 01005KT 10SM FEW070 04/00 A3011 RMK AO2 SLP204 4/002 60000 T00390000 10044 20011 53019=
202212031653 METAR KSEA 031653Z 07009KT 10SM FEW065 04/M03 A3008 RMK AO2 SLP195 T00391028=
202212031553 METAR KSEA 031553Z 09009KT 10SM FEW049 BKN070 03/M03 A3006 RMK AO2 SLP188 T00331028=
202212031453 METAR KSEA 031453Z 09011KT 10SM SCT048 BKN070 OVC090 03/M02 A3005 RMK AO2 SLP185 60000 T00281017 53004=
202212031353 METAR KSEA 031353Z 09013KT 10SM OVC060 02/M01 A3004 RMK AO2 RAE51 SLP183 P0000 T00221011=
202212031253 METAR KSEA 031253Z 07015KT 10SM -RA SCT040 OVC050 02/M01 A3004 RMK AO2 RAB51SNE07 SLP183 P0000 T00171011=
202212031211 SPECI KSEA 031211Z 07011G23KT 10SM SCT035 OVC049 02/M01 A3004 RMK AO2 SNE07 P0000 T00171006=
202212031153 METAR KSEA 031153Z 06010KT 9SM -SN SCT034 OVC049 01/M01 A3004 RMK AO2 RAE50 SLP182 4/002 P0000 60047 70052 T00111006 10022 20006 50005=
202212031100 SPECI KSEA 031100Z 07011KT 7SM -RASN FEW009 BKN033 OVC047 01/M01 A3003 RMK AO2 P0000 T00111006=
202212031053 METAR KSEA 031053Z 07011KT 6SM -RASN FEW005 BKN028 OVC036 01/M01 A3004 RMK AO2 RAB49 SLP182 P0008 T00111006=
202212031040 SPECI KSEA 031040Z 07011KT 3SM -SN FEW005 SCT021 OVC026 01/M01 A3004 RMK AO2 P0008 T00111006=
202212031017 SPECI KSEA 031017Z 09009KT 2SM -SN FEW005 OVC019 01/M01 A3004 RMK AO2 P0004 T00061006=
202212030953 METAR KSEA 030953Z 08010KT 1 1/4SM -SN SCT005 OVC017 01/M01 A3003 RMK AO2 SLP179 SNINCR 1/2 P0014 T00061006=
202212030943 SPECI KSEA 030943Z 08009KT 1SM R16L/P6000FT -SN SCT005 OVC017 01/M01 A3003 RMK AO2 P0013 T00061006=
202212030916 SPECI KSEA 030916Z 09011KT 1SM R16L/5500VP6000FT -SN VV012 01/M01 A3002 RMK AO2 P0006 T00061006=
202212030853 METAR KSEA 030853Z 09009KT 3/4SM R16L/5000VP6000FT -SN VV011 01/M01 A3002 RMK AO2 SLP177 P0011 60025 T00061006 53008=
202212030828 SPECI KSEA 030828Z 09012G20KT 1SM R16L/P6000FT -SN SCT005 OVC011 01/M01 A3002 RMK AO2 P0006 T00061006=
202212030753 METAR KSEA 030753Z 07011G20KT 3/4SM R16L/5500VP6000FT -SN VV008 02/M01 A3001 RMK AO2 SLP172 P0009 T00221006 400391028=
202212030725 SPECI KSEA 030725Z 07011G19KT 3/4SM R16L/4500VP6000FT -SN VV009 02/M01 A3001 RMK AO2 P0004 T00221006=
202212030653 METAR KSEA 030653Z 09010KT 1SM R16L/P6000FT -SN VV011 01/M01 A3000 RMK AO2 SLP170 P0005 T00061011=
202212030647 SPECI KSEA 030647Z 09010KT 1SM R16L/P6000FT -SN VV011 01/M01 A3000 RMK AO2 P0004=
202212030628 SPECI KSEA 030628Z 09012KT 1 1/2SM -SN OVC013 01/M01 A3000 RMK AO2 P0002 T00111011=
202212030624 SPECI KSEA 030624Z 09011KT 1 1/2SM -SN OVC015 01/M01 A3000 RMK AO2 P0002 T00111011=
202212030553 METAR KSEA 030553Z 09012KT 2SM -SN BR OVC017 01/M02 A2999 RMK AO2 SLP166 P0001 60004 T00111017 10033 20011 58000=
202212030546 SPECI KSEA 030546Z 09011KT 2SM -SN OVC018 02/M02 A2999 RMK AO2 P0001 T00171017=
202212030528 SPECI KSEA 030528Z 09009KT 3SM -SN OVC018 02/M02 A2999 RMK AO2 P0001 T00221017=
202212030453 METAR KSEA 030453Z 10013KT 2SM -SN BR OVC018 02/M02 A2999 RMK AO2 SLP166 P0002 T00171017=
202212030434 SPECI KSEA 030434Z 09012KT 2SM -SN BR OVC018 02/M02 A2999 RMK AO2 P0001 T00221017=
202212030353 METAR KSEA 030353Z 10009KT 2SM -SN OVC014 02/M02 A3000 RMK AO2 SNB06 SLP168 P0001 T00171017=
202212030319 SPECI KSEA 030319Z 12007KT 5SM -SN OVC026 02/M03 A3000 RMK AO2 SNB06 P0000 T00221028=
202212030253 METAR KSEA 030253Z 11010KT 10SM OVC038 03/M03 A2999 RMK AO2 SLP167 T00281033 55003=
202212030153 METAR KSEA 030153Z 11014KT 10SM BKN055 OVC100 03/M03 A2999 RMK AO2 SLP165 T00281028=
202212030053 METAR KSEA 030053Z 10010KT 10SM FEW065 BKN110 OVC180 03/M03 A2998 RMK AO2 SLP163 T00281028=
202212022353 METAR KSEA 022353Z 10008KT 10SM FEW048 SCT100 BKN180 03/M02 A3000 RMK AO2 SLP169 60000 T00331022 10039 20011 56012=
202212022253 METAR KSEA 022253Z 11007KT 10SM SCT048 BKN060 OVC180 03/M02 A3001 RMK AO2 SLP173 T00331017=
202212022153 METAR KSEA 022153Z 11011KT 10SM BKN047 BKN140 03/M02 A3002 RMK AO2 SLP177 T00331022=
202212022053 METAR KSEA 022053Z 11008KT 7SM BKN060 OVC200 03/M02 A3003 RMK AO2 SNE32 SLP181 P0000 60000 T00331022 58009=
202212022033 SPECI KSEA 022033Z 12008KT 7SM OVC060 03/M02 A3004 RMK AO2 SNE32 P0000 T00331022=
202212021953 METAR KSEA 021953Z VRB06G18KT 9SM -SN BKN055 OVC065 04/M02 A3005 RMK AO2 SNB48 SLP184 P0000 T00391017=
202212021853 METAR KSEA 021853Z VRB03KT 10SM BKN065 OVC100 02/M02 A3007 RMK AO2 SLP192 T00221017=
202212021753 METAR KSEA 021753Z 13005KT 10SM FEW020 BKN075 OVC120 01/M02 A3006 RMK AO2 SLP190 60001 T00111022 10017 21011 53007=
202212021653 METAR KSEA 021653Z 12006KT 7SM FEW025 BKN060 OVC080 01/M02 A3006 RMK AO2 SNE36 SLP188 P0000 T00111022=
202212021636 SPECI KSEA 021636Z 12005KT 7SM FEW025 SCT050 BKN065 OVC150 01/M02 A3005 RMK AO2 SNE36 P0000 T00061022=
202212021553 METAR KSEA 021553Z 14007KT 3SM -SN BR SCT025 BKN030 OVC050 01/M02 A3004 RMK AO2 SLP183 P0000 T00061017=
202212021514 SPECI KSEA 021514Z 13008KT 3SM -SN BR SCT025 OVC035 01/M02 A3004 RMK AO2 P0000 T00061017=
202212021453 METAR KSEA 021453Z 13007KT 1SM R16L/P6000FT -SN BR BKN019 OVC040 00/M02 A3004 RMK AO2 TWR VIS 1 1/2 SLP183 P0001 60001 T00001022 53006=
202212021436 SPECI KSEA 021436Z 12007KT 1SM R16L/5500VP6000FT -SN BR BKN015 OVC031 00/M02 A3004 RMK AO2 TWR VIS 2 P0000 T00001022=
202212021353 METAR KSEA 021353Z 14003KT 7SM -SN OVC037 00/M03 A3003 RMK AO2 SNB07 SLP179 P0000 T00001033=
202212021308 SPECI KSEA 021308Z 12006KT 10SM -SN OVC034 M01/M03 A3002 RMK AO2 SNB07 P0000 T10061033=
202212021253 METAR KSEA 021253Z 12006KT 10SM OVC039 M01/M03 A3002 RMK AO2 SLP175 T10061033=
202212021203 SPECI KSEA 021203Z 11008KT 10SM SCT017 BKN037 OVC043 M01/M04 A3002 RMK AO2 T10111039=
202212021153 METAR KSEA 021153Z 11008KT 10SM BKN019 OVC043 M01/M04 A3002 RMK AO2 SLP176 70002 T10111039 11011 21028 51013=
202212021053 METAR KSEA 021053Z 12007KT 10SM OVC026 M02/M04 A3002 RMK AO2 SLP175 T10171039=
202212021035 SPECI KSEA 021035Z 12006KT 10SM BKN028 OVC033 M01/M04 A3001 RMK AO2 T10111039=
202212020953 METAR KSEA 020953Z 11004KT 10SM BKN035 M02/M04 A3001 RMK AO2 SLP172 T10221044=
202212020853 METAR KSEA 020853Z 00000KT 10SM FEW050 M03/M06 A2998 RMK AO2 SLP163 T10281056 53018=
202212020753 METAR KSEA 020753Z 11005KT 10SM CLR M02/M06 A2996 RMK AO2 SLP155 T10171056 400281022=
202212020653 METAR KSEA 020653Z 12004KT 10SM CLR M02/M06 A2994 RMK AO2 SLP149 T10171061=
202212020553 METAR KSEA 020553Z 09003KT 10SM FEW038 M02/M07 A2993 RMK AO2 SLP145 T10171067 10011 21017 51021=
202212020453 METAR KSEA 020453Z 07005KT 10SM SCT037 M01/M06 A2991 RMK AO2 SLP139 T10111061=
202212020353 METAR KSEA 020353Z 07006KT 10SM SCT049 M01/M06 A2989 RMK AO2 SLP131 T10061061=
202212020253 METAR KSEA 020253Z 04007KT 10SM BKN049 00/M06 A2986 RMK AO2 SLP123 T00001056 51021=
202212020153 METAR KSEA 020153Z 07007KT 10SM FEW026 BKN050 00/M05 A2985 RMK AO2 SLP117 T00001050=
202212020053 METAR KSEA 020053Z 06004KT 10SM FEW026 BKN050 01/M04 A2983 RMK AO2 SLP110 T00061044=
202212012353 METAR KSEA 012353Z 36006KT 10SM FEW030 BKN070 01/M06 A2980 RMK AO2 SLP102 T00111056 10028 20006 53024=
202212012253 METAR KSEA 012253Z 07008KT 10SM FEW030 BKN070 02/M06 A2977 RMK AO2 SLP093 T00171056=
202212012153 METAR KSEA 012153Z 04009KT 10SM FEW030 BKN070 BKN200 02/M06 A2975 RMK AO2 SLP084 T00221056=
202212012053 METAR KSEA 012053Z 03013KT 10SM FEW030 BKN060 BKN200 02/M04 A2973 RMK AO2 SLP077 T00221044 51016=
202212011953 METAR KSEA 011953Z 35008KT 10SM SCT029 BKN060 BKN100 BKN250 02/M03 A2972 RMK AO2 SLP075 T00171028=
202212011853 METAR KSEA 011853Z 01011KT 10SM FEW015 SCT050 SCT090 BKN250 02/M03 A2971 RMK AO2 SLP069 T00171028=
202212011753 METAR KSEA 011753Z 01005KT 7SM FEW014 FEW021 FEW060 BKN250 01/M01 A2968 RMK AO2 SLP061 60002 T00061011 10011 21006 53014=
202212011721 SPECI KSEA 011721Z 35005KT 7SM FEW018 SCT023 BKN050 BKN250 00/M01 A2968 RMK AO2 T00001011=
202212011708 SPECI KSEA 011708Z 01004KT 8SM FEW016 BKN023 BKN055 00/M01 A2967 RMK AO2 T00001011=
202212011653 METAR KSEA 011653Z 00000KT 6SM R16L/1800V4500FT BR FEW018 SCT025 BKN060 BKN250 00/M01 A2967 RMK AO2 SNE05 SLP055 P0000 T00001006=
202212011606 SPECI KSEA 011606Z 00000KT 3SM BR SCT009 SCT015 BKN060 BKN250 00/M01 A2964 RMK AO2 SNE05 P0000 T00001006=
202212011553 METAR KSEA 011553Z 00000KT 1SM R16L/P6000FT -SN BR SCT009 BKN015 BKN030 00/M01 A2964 RMK AO2 TWR VIS 1 1/2 SLP047 P0001 T00001006=
202212011548 SPECI KSEA 011548Z 00000KT 1SM R16L/P6000FT -SN BR SCT009 BKN015 BKN030 00/M01 A2964 RMK AO2 TWR VIS 1 1/2 P0001=
202212011515 SPECI KSEA 011515Z 31004KT 3/4SM R16L/P6000FT -SN BR FEW003 SCT014 OVC026 00/M01 A2963 RMK AO2 TWR VIS 1 1/2 P0000 T00001006=
202212011514 SPECI KSEA 011514Z 31004KT 3/4SM R16L/P6000FT -SN BR FEW003 SCT014 OVC026 00/M01 A2963 RMK AO2 TWR VIS 2 P0000 T00001006=
202212011453 METAR KSEA 011453Z 06003KT 2SM -SN BR FEW018 OVC026 01/M01 A2962 RMK AO2 SFC VIS 2 1/2 SLP039 P0001 60001 T00061006 53024=
202212011417 SPECI KSEA 011417Z 06003KT 2 1/2SM -SN BR FEW015 OVC025 01/M01 A2961 RMK AO2 P0000 T00061006=
202212011353 METAR KSEA 011353Z 06003KT 6SM -SN BR FEW015 OVC039 01/M01 A2959 RMK AO2 SNB41 SLP030 P0000 T00061006 $=
202212011342 SPECI KSEA 011342Z 07003KT 8SM -SN FEW015 OVC055 01/M01 A2959 RMK AO2 SNB41 P0000 T00061011 $=
202212011341 SPECI KSEA 011341Z 07003KT 8SM -SN FEW015 01/M01 A2959 RMK AO2 SNB41 P0000 T00061011 $=
202212011323 SPECI KSEA 011323Z 06004KT 9SM FEW015 OVC055 01/M01 A2958 RMK AO2 T00061006 $=
202212011253 METAR KSEA 011253Z 00000KT 10SM BKN015 OVC040 01/00 A2957 RMK AO2 SLP023 T00060000 $=
202212011153 METAR KSEA 011153Z 04006KT 10SM FEW003 BKN045 OVC070 00/M01 A2955 RMK AO2 SLP015 70014 T00001011 10006 21017 53003 $=
202212011132 SPECI KSEA 011132Z 02006KT 9SM FEW003 BKN045 OVC070 00/M01 A2954 RMK AO2 T00001006 $=
202212011110 SPECI KSEA 011110Z 02006KT 5SM BR SCT003 OVC025 00/M01 A2955 RMK AO2 T00001006 $=
202212011053 METAR KSEA 011053Z 02007KT 3/4SM R16L/4000VP6000FT BR VV001 00/M01 A2954 RMK AO2 SLP014 T00001006 $=
202212011033 SPECI KSEA 011033Z 01009KT 3/4SM R16L/3500VP6000FT BR VV001 00/M01 A2954 RMK AO2 T00001011 $=
202212010953 METAR KSEA 010953Z 03007KT 5SM BR BKN003 OVC100 00/M01 A2954 RMK AO2 SLP013 T00001011 $=
202212010925 SPECI KSEA 010925Z 02006KT 6SM BR FEW003 FEW011 BKN100 M01/M02 A2953 RMK AO2 T10111022=
202212010907 SPECI KSEA 010907Z 02006KT 5SM BR SCT003 BKN011 M01/M02 A2954 RMK AO2 T10111022=
202212010853 METAR KSEA 010853Z 02006KT 9SM FEW011 BKN070 M01/M02 A2954 RMK AO2 SLP012 T10111022 58001=
202212010753 METAR KSEA 010753Z 36005KT 7SM SCT070 M02/M03 A2954 RMK AO2 SLP012 T10171028 400501017=
202212010653 METAR KSEA 010653Z 00000KT 7SM FEW003 BKN080 M01/M02 A2954 RMK AO2 SLP014 T10061017=
202212010636 SPECI KSEA 010636Z 00000KT 7SM SCT004 BKN140 M01/M02 A2954 RMK AO2 T10111022=
202212010615 SPECI KSEA 010615Z 02004KT 7SM BKN004 M01/M02 A2954 RMK AO2 T10061022=
202212010553 METAR KSEA 010553Z 00000KT 6SM BR FEW055 SCT075 SCT140 00/M01 A2954 RMK AO2 SLP012 60004 T00001006 10011 20000 51004=
202212010453 METAR KSEA 010453Z 16005KT 9SM FEW004 BKN075 BKN140 01/M01 A2954 RMK AO2 SLP012 T00061006=
202212010353 METAR KSEA 010353Z 13005KT 5SM BR OVC035 01/M01 A2954 RMK AO2 SNE53 SLP011 P0001 T00061006=
202212010320 SPECI KSEA 010320Z 18006KT 2SM -SN BR OVC023 00/M01 A2953 RMK AO2 P0001 T00001006=
202212010253 METAR KSEA 010253Z 07006KT 1 1/2SM -SN BR OVC015 01/M01 A2953 RMK AO2 SLP008 P0002 60003 T00061011 50005=
202212010225 SPECI KSEA 010225Z 00000KT 2SM -SN BR OVC022 01/M01 A2953 RMK AO2 P0001 T00061006=
202212010153 METAR KSEA 010153Z 00000KT 3SM -SN BR FEW014 OVC026 01/M01 A2953 RMK AO2 SLP009 P0001 T00061006=
202212010134 SPECI KSEA 010134Z 02005KT 1 3/4SM -SN BR SCT014 OVC024 01/M01 A2952 RMK AO2 P0001 T00061011=
202212010117 SPECI KSEA 010117Z 02005KT 1SM R16L/P6000FT -SN BR SCT014 OVC023 01/M02 A2952 RMK AO2 P0000 T00061017=
202212010112 SPECI KSEA 010112Z 03006KT 2SM -SN BR SCT016 OVC026 01/M02 A2952 RMK AO2 P0000 T00061017=
202212010053 METAR KSEA 010053Z 06006KT 5SM -SN BR OVC028 01/M01 A2951 RMK AO2 SLP003 P0000 T00111011=
202212010017 SPECI KSEA 010017Z 07007KT 3SM -SN BR OVC025 01/M01 A2951 RMK AO2 P0000 T00111011=

# No short TAF reports from KSEA in databse.

###################################
#  large TAF from KSEA
###################################
202212312329 TAF KSEA 312329Z 0100/0206 21008KT P6SM BKN025 BKN060 FM010300
                       22005KT P6SM BKN040 FM010700 19006KT P6SM
                       OVC025 FM011200 06003KT P6SM OVC022 FM012000
                       36002KT P6SM OVC025=
202212312055 KSEA 312055Z 3121/0124 21005KT P6SM BKN025 BKN070 FM312300 21005KT
                       P6SM SCT040 BKN070 FM010700 19006KT P6SM
                       OVC025 FM011200 06003KT P6SM OVC022=
202212311731 TAF KSEA 311731Z 3118/0124 19008KT P6SM VCSH OVC030 FM312000 21005KT
                       P6SM SCT025 BKN050 FM010100 21005KT P6SM
                       BKN040 BKN070 FM010700 19006KT P6SM OVC025
                       FM011200 06003KT P6SM OVC022=
202212311302 KSEA 311302Z 3113/0118 22010G20KT P6SM VCSH SCT008 OVC015 FM311600
                       19008KT P6SM VCSH OVC030 FM312000 21005KT
                       P6SM BKN022 BKN050 FM010100 21005KT P6SM
                       BKN040 BKN070 FM010700 19006KT P6SM OVC022=
202212311121 KSEA 311121Z 3112/0118 22010KT 5SM BR VCSH SCT008 OVC015 FM311600
                       19008KT P6SM VCSH OVC030 FM312000 21005KT
                       P6SM BKN022 BKN050 FM010100 21005KT P6SM
                       BKN040 BKN070 FM010700 19006KT P6SM OVC022=
202212311120 TAF KSEA 311120Z 3112/0118 19012KT P6SM VCSH SCT008 OVC015 FM311600
                       19008KT P6SM VCSH OVC030 FM312000 21005KT
                       P6SM BKN022 BKN050 FM010100 21005KT P6SM
                       BKN040 BKN070 FM010700 19006KT P6SM OVC022=
202212310858 KSEA 310858Z 3109/0112 19011KT P6SM VCSH FEW019 OVC035
                      TEMPO 3109/3110 BKN016 OVC027 FM311000 19012KT
                       P6SM VCSH OVC035 FM312000 21005KT P6SM BKN022
                       BKN050 FM010100 21005KT P6SM BKN040 BKN070
                       FM010700 19006KT P6SM OVC022=
202212310651 KSEA 310651Z 3107/0112 18011KT P6SM VCSH SCT018 OVC035
                      TEMPO 3107/3110 BKN016 OVC027 FM311000 19012KT
                       P6SM VCSH OVC015 FM312000 21005KT P6SM BKN022
                       BKN050 FM010100 21005KT P6SM BKN040 BKN070
                       FM010700 19006KT P6SM OVC022=
202212310526 TAF KSEA 310526Z 3106/0112 18014G22KT P6SM VCSH SCT018 OVC030
                      TEMPO 3106/3109 BKN016 OVC027 FM310900 19012KT
                       P6SM VCSH OVC015 FM312000 21005KT P6SM BKN022
                       BKN050 FM010100 21005KT P6SM BKN040 BKN070
                       FM010700 19006KT P6SM OVC022=
202212310253 KSEA 310253Z 3103/0106 18010G16KT P6SM VCSH BKN018 OVC030 FM310900
                       19007KT P6SM OVC014 FM312000 21005KT P6SM
                       BKN022 BKN050 FM010200 21005KT P6SM BKN045
                       BKN070=
202212302334 TAF KSEA 302334Z 3100/0106 18010G16KT P6SM VCSH SCT025 BKN040
                      TEMPO 3100/3103 -SHRA BKN025 OVC040 FM310500
                       19010KT P6SM VCSH BKN022 OVC040 FM311100
                       19007KT P6SM OVC018 FM312000 21005KT P6SM
                       BKN022 BKN050 FM010200 21005KT P6SM BKN045
                       BKN070=
202212302102 KSEA 302102Z 3021/3124 18015G25KT 6SM -SHRA SCT030 BKN050 FM302300
                       18010G20KT P6SM VCSH OVC050 FM311000 19008G18KT
                       P6SM OVC025=
202212301721 TAF KSEA 301721Z 3018/3124 18015G25KT 6SM -SHRA BKN035 FM302300
                       18010G20KT P6SM VCSH OVC050 FM310700 19011KT
                       P6SM VCSH BKN025 FM311000 19008KT P6SM OVC025=
202212301615 KSEA 301615Z 3016/3118 18015G25KT 6SM -SHRA BKN035 FM302300 18010G20KT
                       P6SM VCSH OVC050 FM310700 19011KT P6SM VCSH
                       BKN025 FM311000 19008KT P6SM OVC025=
202212301304 KSEA 301304Z 3013/3118 18016G29KT P6SM VCSH BKN010 OVC015 FM301600
                       20011G17KT P6SM -SHRA BKN020 BKN040 FM302000
                       22014G20KT P6SM VCSH BKN025 BKN050 FM302300
                       18008KT P6SM VCSH BKN050 FM310600 19011KT
                       P6SM VCSH BKN025 FM311000 19008KT P6SM OVC025=
202212301214 KSEA 301214Z 3012/3118 18016G29KT P6SM VCSH BKN010 OVC015 FM301600
                       20012KT P6SM -SHRA BKN020 BKN040 FM302000
                       22014G20KT P6SM VCSH BKN025 BKN050 FM302300
                       18008KT P6SM VCSH BKN050 FM310600 19011KT
                       P6SM VCSH BKN025 FM311000 19008KT P6SM OVC025=
202212301121 TAF KSEA 301121Z 3012/3118 18011KT P6SM VCSH BKN020 OVC030 FM301600
                       20012KT P6SM -SHRA BKN020 BKN040 FM302000
                       22014G20KT P6SM VCSH BKN025 BKN050 FM302300
                       18008KT P6SM VCSH BKN050 FM310600 19011KT
                       P6SM VCSH BKN025 FM311000 19008KT P6SM OVC025=
202212300857 KSEA 300857Z 3009/3112 12012KT 6SM -RA OVC030 FM301200 18011KT
                       4SM -RA BR OVC025 FM301600 20012KT P6SM
                       -SHRA BKN020 BKN040 FM302000 22014G20KT
                       P6SM VCSH BKN025 BKN050 FM310600 19011KT
                       P6SM VCSH BKN025=
202212300525 TAF KSEA 300525Z 3006/3112 12010KT 5SM -RA OVC035 FM300900 12012KT
                       4SM RA BR OVC015 FM301600 20012KT P6SM -SHRA
                       BKN020 BKN040 FM302000 22014G20KT P6SM VCSH
                       BKN025 BKN050 FM310600 19011KT P6SM VCSH
                       BKN025=
202212300251 KSEA 300251Z 3003/3106 13007KT P6SM OVC030 FM300600 11010KT P6SM
                       -RA OVC022 FM300900 12012KT 4SM RA BR OVC015
                       FM301600 20012G20KT P6SM -SHRA BKN020 BKN040
                       FM302000 22012G22KT P6SM VCSH BKN025 BKN050=
202212292320 TAF KSEA 292320Z 3000/3106 14005KT P6SM OVC028 FM300600 11010KT
                       P6SM -RA OVC022 FM300900 12012KT 4SM RA
                       BR OVC015 FM301600 20012G20KT P6SM -SHRA
                       BKN020 BKN040 FM302000 22012G22KT P6SM VCSH
                       BKN025 BKN050=
202212292101 KSEA 292101Z 2921/3024 VRB03KT P6SM -SHRA BKN035 OVC050 FM300000
                       VRB04KT P6SM VCSH SCT020 BKN040 FM300800
                       11010KT P6SM -RA BKN020 OVC040 FM301700
                       20012KT P6SM -SHRA BKN025 BKN050=
202212291722 TAF KSEA 291722Z 2918/3024 VRB04KT P6SM SCT030 OVC070
                      TEMPO 2918/2922 -RA BKN030 OVC050 FM292200
                       VRB04KT P6SM VCSH BKN025 BKN040 FM300800
                       11010KT P6SM -RA OVC020 FM301700 20012KT
                       P6SM -SHRA BKN025 BKN050=
202212291359 KSEA 291359Z 2914/3018 13009KT P6SM BKN040 OVC050 FM291500 10004KT
                       P6SM -SHRA OVC045 FM291800 13007KT 5SM -RA
                       OVC035 FM292300 14004KT 6SM BR VCSH BKN020
                       BKN040 FM300300 09006KT P6SM VCSH OVC025
                       FM300800 11010KT P6SM -RA OVC020=
202212291128 TAF KSEA 291128Z 2912/3018 13006KT P6SM BKN040 OVC050 FM291500
                       10004KT P6SM -SHRA OVC045 FM291800 13007KT
                       5SM -RA OVC035 FM292300 14004KT 6SM BR VCSH
                       BKN020 BKN040 FM300300 09006KT P6SM VCSH
                       OVC025 FM300800 11010KT P6SM -RA OVC020=
202212290856 KSEA 290856Z 2909/3012 13006KT P6SM BKN040 OVC050 FM291500 10004KT
                       P6SM -SHRA OVC030 FM291800 13007KT 5SM -RA
                       OVC050 FM292300 14004KT 6SM BR VCSH BKN020
                       BKN040 FM300300 09006KT P6SM VCSH OVC025=
202212290520 TAF KSEA 290520Z 2906/3012 15006KT 4SM BR FEW007 BKN020 OVC040
                       FM290800 13006KT 6SM BR OVC025 FM291500
                       10004KT P6SM -SHRA OVC030 FM291800 13007KT
                       5SM -RA OVC050 FM292300 14004KT 6SM BR VCSH
                       BKN020 BKN040=
202212290355 KSEA 290355Z 2904/3006 14008KT P6SM FEW009 SCT020 BKN050
                      TEMPO 2904/2905 4SM -DZ BR FM290600 13006KT
                       P6SM BKN030 FM291500 14008KT P6SM -RA OVC030
                       FM292300 14004KT 6SM BR VCSH BKN020 BKN040=
202212290248 KSEA 290248Z 2903/3006 14008KT P6SM FEW009 SCT020 BKN050 FM290600
                       13006KT P6SM BKN030 FM291500 14008KT P6SM
                       -RA OVC030 FM292300 14004KT 6SM BR VCSH
                       BKN020 BKN040=
202212282320 TAF KSEA 282320Z 2900/3006 18010KT P6SM BKN030 FM291500 14008KT
                       P6SM -RA OVC030
                      TEMPO 2918/2921 4SM -RA BR OVC020 FM292300
                       14004KT P6SM VCSH BKN020 BKN040=
202212282013 KSEA 282013Z 2820/2924 20014G22KT P6SM SCT025 BKN050 FM290000 20012KT
                       P6SM SCT025 BKN050 FM290800 18008KT P6SM
                       BKN030 FM291600 14010KT P6SM -RA OVC030
                       FM292100 12008KT 5SM -RA BR OVC020=
202212281738 TAF KSEA 281738Z 2818/2924 21012KT P6SM SCT020 BKN040
                      TEMPO 2818/2821 BKN018 OVC040 FM290000 22007KT
                       P6SM SCT025 BKN050 FM290800 16006KT P6SM
                       BKN030 FM291600 14010KT P6SM -RA OVC030
                       FM292100 12008KT 5SM -RA BR OVC020=
202212281518 KSEA 281518Z 2815/2918 22012KT P6SM VCSH SCT018 BKN040
                      TEMPO 2815/2818 BKN018 OVC040 FM281800 22012KT
                       P6SM VCSH SCT025 BKN040 FM290000 22007KT
                       P6SM VCSH BKN050=
202212281303 KSEA 281303Z 2813/2918 22015G25KT P6SM BKN020 FM281500 20013G21KT
                       P6SM VCSH BKN040 FM281800 22012KT P6SM VCSH
                       SCT025 BKN040 FM290000 22007KT P6SM VCSH
                       BKN050=
202212281122 TAF KSEA 281122Z 2812/2918 22015G25KT P6SM SCT020 BKN150 FM281500
                       20013G21KT P6SM VCSH BKN040 FM281800 22012KT
                       P6SM VCSH SCT025 BKN040 FM290000 22007KT
                       P6SM VCSH BKN050=
202212280911 KSEA 280911Z 2809/2912 22019G29KT P6SM BKN015 BKN025 FM281000 22015G25KT
                       P6SM VCSH BKN020 BKN040 FM281800 22012KT
                       P6SM VCSH SCT025 BKN040 FM290000 22007KT
                       P6SM VCSH BKN050=
202212280520 TAF KSEA 280520Z 2806/2912 22025G40KT P6SM BKN020 OVC060 FM281000
                       22015G25KT P6SM VCSH BKN020 BKN040 FM281800
                       22012KT P6SM VCSH SCT025 BKN040 FM290000
                       22007KT P6SM VCSH BKN050=
202212280233 KSEA 280233Z 2803/2906 22022G45KT P6SM -RA FEW008 OVC015 FM280500
                       22025G40KT P6SM -RA BKN015 OVC030 FM281000
                       22015G25KT P6SM VCSH BKN020 BKN040 FM281800
                       22012KT P6SM VCSH SCT025 BKN040=
202212272320 TAF KSEA 272320Z 2800/2906 20020G30KT P6SM -SHRA SCT020 OVC040
                       TEMPO 2800/2803 3SM SHRA BR BKN020 OVC040
                       FM280300 22025G35KT P6SM -SHRA BKN015 OVC030
                       FM281000 22015G25KT P6SM VCSH BKN020 BKN040
                       FM281800 22012KT P6SM VCSH SCT025 BKN040=
202212272109 KSEA 272109Z 2721/2824 18015G25KT P6SM -SHRA SCT020 OVC035
                      TEMPO 2722/2802 4SM SHRA BR BKN018 OVC030
                       FM280200 20020G30KT P6SM -SHRA BKN015 OVC030
                       FM280800 22022G34KT P6SM -SHRA BKN020 BKN040
                       FM281200 22015G25KT P6SM VCSH BKN020 FM281700
                       22012KT P6SM VCSH BKN020=
202212271720 TAF KSEA 271720Z 2718/2824 17015G25KT P6SM -RA SCT020 OVC040
                      TEMPO 2718/2722 4SM RA BR BKN020 OVC040 FM272200
                       19015G25KT P6SM -SHRA SCT015 OVC030
                      TEMPO 2722/2802 4SM SHRA BR BKN015 OVC030
                       FM280200 20020G30KT P6SM -SHRA BKN015 OVC030
                       FM280800 22022G34KT P6SM -SHRA BKN020 BKN040
                       FM281200 22015G25KT P6SM VCSH BKN020 FM281700
                       22012KT P6SM VCSH BKN020=
202212271311 KSEA 271311Z 2713/2818 12015KT P6SM -RA OVC040 WS020/18040KT FM271500
                       14014G24KT 4SM RA OVC040 WS020/18040KT FM272000
                       19012G25KT 4SM RA BR OVC025 FM280200 22018G30KT
                       4SM RA BR OVC020 FM280600 23021G31KT P6SM
                       -RA OVC035=
202212271156 KSEA 271156Z 2712/2818 15010KT P6SM -RA OVC040 WS020/18040KT FM271500
                       14014G24KT 4SM RA OVC040 WS020/18040KT FM272000
                       19012G25KT 4SM RA BR OVC025 FM280200 22018G30KT
                       4SM RA BR OVC020 FM280600 23021G31KT P6SM
                       -RA OVC035=
202212271136 TAF KSEA 271136Z 2712/2818 15010KT P6SM -RA OVC070 WS020/18040KT
                       FM271500 14014G24KT 4SM RA OVC040 WS020/18040KT
                       FM272000 19012G25KT 4SM RA BR OVC025 FM280200
                       22018G30KT 4SM RA BR OVC020 FM280600 23021G31KT
                       P6SM -RA OVC035=
202212270900 KSEA 270900Z 2709/2812 15013G23KT P6SM VCSH OVC070 WS020/18040KT
                       FM271500 14014G24KT 4SM RA OVC040 WS020/18040KT
                       FM272000 19012G25KT 4SM RA BR OVC025 FM280200
                       22018G30KT 4SM RA BR OVC015=
202212270541 TAF KSEA 270541Z 2706/2812 02010KT 5SM RA BR OVC040 FM270900 15013G25KT
                       5SM RA OVC040 WS020/18040KT FM272000 19012G25KT
                       4SM RA BR OVC025 FM280200 22018G30KT 4SM
                       RA BR OVC015=
202212270314 KSEA 270314Z 2703/2806 02010KT 5SM -RA OVC035 FM271200 15015G25KT
                       5SM -RA OVC020 FM271500 13020G30KT 4SM -RA
                       OVC020 FM272100 19012G25KT 4SM -RA BR OVC015=
202212262320 TAF KSEA 262320Z 2700/2806 09006KT P6SM OVC100 FM270100 10011KT
                       5SM -RA OVC030 FM271200 15015G25KT 5SM -RA
                       OVC020 FM271500 13020G30KT 4SM -RA OVC020
                       FM272100 19012G25KT 4SM -RA BR OVC015=
202212262051 KSEA 262051Z 2621/2724 18011KT P6SM BKN030 OVC035 FM270100 10011KT
                       5SM -RA OVC030 FM271200 15015G25KT 5SM -RA
                       OVC020 FM271500 13020G30KT 4SM -RA OVC020=
202212261720 TAF KSEA 261720Z 2618/2724 21009G15KT P6SM BKN020 FM262000 23009KT
                       P6SM VCSH OVC035 FM270100 10011KT 5SM -RA
                       OVC030 FM271200 15015G25KT 5SM -RA OVC020
                       FM271500 13020G30KT 4SM -RA OVC020=
202212261428 KSEA 261428Z 2614/2718 18012G25KT P6SM -RA OVC030 FM261500 17014G22KT
                       4SM -RA BR OVC020 FM262000 19005KT P6SM
                       VCSH OVC035 FM270100 12011KT 5SM -RA OVC020=
202212261330 KSEA 261330Z 2614/2718 18010G20KT P6SM -RA OVC045 FM261500 17014G22KT
                       4SM -RA BR OVC020 FM262000 19005KT P6SM
                       VCSH OVC035 FM270100 12011KT 5SM -RA OVC020=
202212261140 TAF KSEA 261140Z 2612/2718 13012G20KT P6SM -RA BKN060 OVC080 FM261400
                       17014G22KT 4SM -RA BR OVC015 FM262000 19005KT
                       P6SM VCSH OVC035 FM270100 12011KT 5SM -RA
                       OVC020=
202212260904 KSEA 260904Z 2609/2712 13008KT 6SM -RA BR FEW015 BKN060 OVC070
                       FM261200 16013G20KT 5SM RA BR OVC020 FM261600
                       20014G22KT 5SM BR VCSH OVC019 FM262000 19005KT
                       5SM BR VCSH OVC020 FM262300 15005KT P6SM
                       RA OVC035=
202212260535 TAF KSEA 260535Z 2606/2712 15007KT P6SM -RA OVC025 FM261200 16013G20KT
                       5SM RA BR OVC020 FM261600 20014G22KT 5SM
                       BR VCSH OVC019 FM262000 19005KT 5SM BR VCSH
                       OVC020 FM262300 15005KT P6SM RA OVC035=
202212260308 KSEA 260308Z 2603/2706 16006KT P6SM SCT008 BKN030 FM260500 13007KT
                       P6SM -RA OVC050 FM261200 17013G20KT 5SM
                       BR VCSH OVC020=
202212252320 TAF KSEA 252320Z 2600/2706 12006KT P6SM BKN035 OVC100 FM260500
                       13007KT P6SM -RA OVC050 FM261200 17013G20KT
                       5SM BR VCSH OVC020=
202212252113 KSEA 252113Z 2521/2624 16004KT 4SM BR BKN020 OVC035 FM260000 14006KT
                       P6SM OVC035 FM261200 17013G20KT 5SM BR VCSH
                       OVC030=
202212252041 KSEA 252041Z 2521/2624 16004KT 2SM -RA BR FEW025 BKN028 OVC035
                       FM260000 14006KT P6SM OVC035 FM261200 17013G20KT
                       5SM BR VCSH OVC030=
202212251720 TAF KSEA 251720Z 2518/2624 11006KT P6SM FEW050 OVC100 FM252000
                       08006KT 4SM -SHRA BR OVC015 FM260000 14006KT
                       P6SM OVC035 FM261200 17013G20KT P6SM OVC030=
202212251359 KSEA 251359Z 2514/2618 20005KT P6SM SCT050 BKN110 FM251700 11006KT
                       4SM RA BR OVC020 FM252000 08006KT 4SM -SHRA
                       BR OVC015 FM260000 10006KT P6SM -SHRA OVC030
                       FM260400 14008KT P6SM OVC035=
202212251140 TAF KSEA 251140Z 2512/2618 20005KT P6SM SCT050 BKN100 FM251700
                       11006KT 4SM RA BR OVC020 FM252000 08006KT
                       4SM -SHRA BR OVC015 FM260000 10006KT P6SM
                       -SHRA OVC035=
202212250851 KSEA 250851Z 2509/2612 17005KT P6SM BKN020 OVC050 FM251800 12008KT
                       4SM RA BR OVC020 FM252000 08006KT 4SM -SHRA
                       BR OVC015=
202212250538 TAF KSEA 250538Z 2506/2612 18008KT 5SM -SHRA BR OVC015 FM250800
                       19010KT 4SM BR OVC015 FM251800 12008KT 4SM
                       RA BR OVC020 FM252000 08006KT 4SM -SHRA
                       BR OVC015=
202212250304 KSEA 250304Z 2503/2606 20015G20KT 5SM -RA BR SCT005 OVC015 FM250600
                       16008KT 5SM BR OVC030 FM251200 09004KT 6SM
                       BR OVC025=
202212242320 TAF KSEA 242320Z 2500/2606 20015G25KT 3SM -RA BR SCT004 OVC015
                       FM250600 16008KT 5SM BR OVC030 FM251200
                       09004KT 6SM BR OVC025=
202212242044 KSEA 242044Z 2421/2524 15015KT 6SM -RA BR FEW010 BKN025 OVC050
                       FM250500 18007KT 5SM BR OVC015 FM250600
                       16008KT 5SM BR OVC030 FM251200 09004KT 6SM
                       BR OVC025=
202212241720 TAF KSEA 241720Z 2418/2524 12008KT 2SM RA BR OVC030 WS020/19035KT
                       FM242100 18010G22KT 5SM -SHRA BR OVC015
                       FM250500 18007KT 5SM -SHRA BR OVC008 FM250600
                       18008KT 5SM BR OVC030=
202212241402 KSEA 241402Z 2414/2518 12010KT 6SM -RA BR BKN025 OVC030 WS020/19035KT
                       FM241800 17014G24KT 4SM RA BR BKN010 OVC015
                       WS020/19035KT FM242100 18010G22KT 5SM -SHRA
                       BR OVC015 FM250500 18007KT 5SM -SHRA BR
                       OVC008=
202212241314 KSEA 241314Z 2413/2518 12010KT 2SM -RA BR BKN025 OVC030 WS020/19035KT
                       FM241800 17014G24KT 4SM RA BR BKN010 OVC015
                       WS020/19035KT FM242200 18009G17KT 5SM -SHRA
                       BR OVC015 FM250500 18007KT 5SM -SHRA BR
                       OVC008=
202212241140 TAF KSEA 241140Z 2412/2518 12003KT 5SM -RA BR BKN030 OVC060 FM241300
                       16006KT 6SM RA OVC030 WS020/19035KT FM241800
                       17014G24KT 4SM RA BR BKN010 OVC015 WS020/19035KT
                       FM242200 18009G17KT 5SM -SHRA BR OVC015
                       FM250500 18007KT 5SM -SHRA BR OVC008=
202212240906 KSEA 240906Z 2409/2512 20003KT P6SM -RA BKN030 OVC040 FM241300
                       16006KT 6SM RA OVC020 WS020/19035KT FM241800
                       17011G18KT 4SM RA BR BKN010 OVC015 WS020/19035KT
                       FM242200 18009G17KT 5SM -SHRA BR OVC015=
202212240534 TAF KSEA 240534Z 2406/2512 18007KT 6SM -SHRA BR OVC015 FM240900
                       17006KT 5SM -RA BR OVC017 FM241300 16006KT
                       6SM RA OVC020 WS020/19035KT FM241800 17011G18KT
                       4SM RA BR BKN010 OVC015 WS020/19035KT FM242200
                       18009G17KT 5SM -SHRA BR OVC015=
202212240259 KSEA 240259Z 2403/2506 18007KT 6SM -SHRA BR OVC015 FM240900 17006KT
                       5SM -RA BR OVC017 FM241300 16006KT 6SM RA
                       OVC020 WS020/19035KT FM241800 17011G18KT
                       4SM RA BR BKN010 OVC015 WS020/19035KT FM242200
                       18009G17KT 5SM -SHRA BR OVC015=
202212232321 TAF KSEA 232321Z 2400/2506 17008KT 5SM -SHRA BR BKN006 OVC015 FM240300
                       18007KT 6SM -DZ BR BKN010 OVC015 FM240900
                       17006KT 5SM -RA BR OVC017 FM241300 16006KT
                       6SM RA OVC020 WS020/19035KT FM241800 17011G18KT
                       4SM RA BR BKN010 OVC015 WS020/19035KT FM242200
                       18009G17KT 5SM -SHRA BR OVC015=
202212232136 KSEA 232136Z 2322/2424 14006KT 3SM -FZDZ BR BKN006 OVC015 FM232300
                       15008KT 5SM -DZ BR BKN015 OVC020 FM240300
                       18005KT 6SM -DZ VCSH OVC021 FM240600 17006KT
                       P6SM -RA OVC017 FM241300 16006KT P6SM RA
                       OVC030 WS020/19035KT FM241800 17008KT 4SM
                       RA BR OVC018 WS020/19035KT=
202212231958 KSEA 231958Z 2320/2424 12006KT 3SM -FZDZ BR BKN010 OVC015 FM232300
                       15008KT 5SM -DZ BR BKN015 OVC020 FM240300
                       18005KT 6SM -DZ VCSH OVC021 FM240600 17006KT
                       P6SM -RA OVC017 FM241300 16006KT P6SM RA
                       OVC030 WS020/19035KT FM241800 17008KT 4SM
                       RA BR OVC018 WS020/19035KT=
202212231741 TAF KSEA 231741Z 2318/2424 11006KT 3SM -FZDZ BR BKN010 OVC020 FM232100
                       15008KT 5SM -DZ BR OVC018 FM240300 18005KT
                       6SM -DZ VCSH OVC021 FM240600 17006KT P6SM
                       -RA OVC017 FM241300 16006KT P6SM RA OVC030
                       WS020/19035KT FM241800 17008KT 4SM RA BR
                       OVC018 WS020/19035KT=
202212231517 KSEA 231517Z 2315/2418 13008KT 4SM -FZDZ BR SCT016 OVC025 FM232100
                       14008KT 5SM -RA OVC020 FM240600 17006KT
                       P6SM -RA OVC017 FM241300 16006KT P6SM RA
                       OVC030=
202212231333 KSEA 231333Z 2314/2418 14005KT 3SM -FZRA BR OVC018 FM231500 15008KT
                       5SM -FZRA VCSH OVC020 FM232100 14008KT 5SM
                       -RA OVC016 FM240600 17006KT P6SM -RA OVC017
                       FM241300 16006KT P6SM RA OVC030=
202212231146 TAF KSEA 231146Z 2312/2418 14012KT 5SM -FZRA OVC025 FM231400 14009KT
                       P6SM -FZRA OVC018 FM231700 15008KT 3SM -FZRA
                       OVC020 FM232100 14008KT 5SM -RA OVC016 FM240600
                       17006KT P6SM -RA OVC017 FM241300 16006KT
                       P6SM RA OVC030=
202212230824 KSEA 230824Z 2308/2412 09010G20KT P6SM -FZRA OVC035 FM231000 09009KT
                       P6SM -FZRA OVC030 FM231400 13008KT P6SM
                       -FZRA OVC020 FM231600 13008KT 4SM -FZRA
                       OVC020 FM232100 15008KT P6SM -RA OVC020=
202212230520 TAF KSEA 230520Z 2306/2412 09010KT P6SM OVC050 FM230800 09008KT
                       P6SM -SN OVC040 FM231000 09008KT P6SM -FZRA
                       OVC040 FM231400 13008KT P6SM -FZRA OVC020
                       FM231600 13008KT 4SM -FZRA OVC020 FM232100
                       15008KT P6SM -RA OVC020=
202212230300 KSEA 230300Z 2303/2406 09010KT P6SM OVC070 FM230700 11008KT 6SM
                       -SN OVC040 FM230900 12008KT P6SM -FZRA OVC015
                       FM231900 15008KT P6SM -RA OVC015=
202212222323 TAF KSEA 222323Z 2300/2406 09010KT P6SM OVC090 FM230800 11008KT
                       6SM -SN OVC040 FM231000 12008KT P6SM -FZRA
                       OVC015 FM231900 15008KT P6SM -RA OVC015=
202212222058 KSEA 222058Z 2221/2324 07012G22KT P6SM BKN100 OVC200 FM230800 12011KT
                       6SM -SN OVC040 FM231000 12009KT P6SM -FZRA
                       OVC015=
202212221727 TAF KSEA 221727Z 2218/2324 08015G25KT P6SM BKN200 FM222200 07014G22KT
                       P6SM BKN100 OVC200 FM230800 12011KT 6SM
                       -SN OVC040 FM231000 12009KT P6SM -FZRA OVC015=
202212221359 KSEA 221359Z 2214/2318 08018G27KT P6SM SCT150 BKN200 FM221500 06014G23KT
                       P6SM SCT020 BKN100 FM222000 05012KT P6SM
                       OVC080 FM230800 12011KT 6SM -SN OVC030 FM231100
                       12009KT P6SM -SN OVC019=
202212221148 TAF KSEA 221148Z 2212/2318 08010KT P6SM SCT250 FM221600 06014KT
                       P6SM SCT020 BKN100 FM222000 05012KT P6SM
                       OVC080 FM230800 12011KT 6SM -SN OVC030 FM231100
                       12009KT P6SM -SN OVC019=
202212220535 TAF KSEA 220535Z 2206/2312 02012KT P6SM FEW015 SCT250 FM221500
                       06014KT P6SM SCT020 BKN100 FM222000 05012KT
                       P6SM OVC080 FM231000 11013KT 6SM -SN OVC050=
202212220250 KSEA 220250Z 2203/2306 03012KT P6SM SCT020 SCT250 FM220500 05010KT
                       P6SM SCT060 BKN250 FM221500 06012KT P6SM
                       SCT050 BKN100 FM222000 05008KT P6SM SCT050
                       OVC100=
202212212320 TAF KSEA 212320Z 2200/2306 03012KT P6SM SCT050 BKN250 FM220500
                       05010KT P6SM SCT060 BKN250 FM221500 06012KT
                       P6SM SCT050 BKN100 FM222000 05008KT P6SM
                       SCT050 OVC100=
202212212057 KSEA 212057Z 2121/2224 03012KT P6SM SCT035 BKN060 FM220500 05010KT
                       P6SM SCT060 BKN250 FM221500 06012KT P6SM
                       SCT050 BKN100=
202212211721 TAF KSEA 211721Z 2118/2224 01006KT P6SM SCT035 OVC050 FM212000
                       03010KT P6SM SCT035 BKN060 FM220500 05008KT
                       P6SM SCT060 BKN250 FM221500 06012KT P6SM
                       SCT050 BKN100=
202212211601 KSEA 211601Z 2116/2218 01006KT P6SM SCT035 OVC050
                      TEMPO 2116/2117 6SM -SN SCT030 FM211700 36007KT
                       P6SM SCT015 BKN035 FM212000 03007KT P6SM
                       SCT035 BKN060 FM220500 05007KT P6SM SCT060
                       BKN250=
202212211414 KSEA 211414Z 2114/2218 01006KT P6SM SCT035 OVC050
                      TEMPO 2114/2117 6SM -SN SCT030 FM211700 36007KT
                       P6SM SCT015 BKN035 FM212000 03007KT P6SM
                       SCT025 BKN050 FM220500 05007KT P6SM BKN050
                       BKN250=
202212211144 TAF KSEA 211144Z 2112/2218 02007KT 6SM -SN BR BKN015 OVC030 FM211400
                       01007KT P6SM SCT015 OVC020 FM211700 36007KT
                       P6SM SCT015 BKN035 FM212000 03007KT P6SM
                       SCT025 BKN050 FM220500 05007KT P6SM BKN050
                       BKN250=
202212210857 KSEA 210857Z 2109/2212 02009KT P6SM SCT015 OVC030
                      TEMPO 2109/2111 6SM -SN BR BKN025 FM211200
                       03006KT P6SM VCSH BKN006 OVC010 FM211800
                       36008KT P6SM SCT015 BKN025 FM212100 02007KT
                       P6SM SCT025 BKN050 FM220500 05007KT P6SM
                       BKN050 BKN250=
202212210533 TAF KSEA 210533Z 2106/2212 03006KT P6SM VCSH SCT005 OVC018
                      TEMPO 2106/2110 3SM -SN BR BKN005 FM211200
                       03006KT P6SM VCSH BKN006 OVC010 FM211800
                       36008KT P6SM SCT015 BKN025 FM212100 02007KT
                       P6SM SCT025 BKN050 FM220500 05007KT P6SM
                       BKN050 BKN250=
202212210319 KSEA 210319Z 2103/2206 35006KT P6SM BKN030 OVC040
                      TEMPO 2103/2106 5SM -SN BR FM211000 03006KT
                       P6SM BKN006 OVC010 FM211800 03005KT P6SM
                       SCT015 OVC025 FM212100 02007KT P6SM SCT025
                       OVC050=
202212210001 KSEA 210001Z 2100/2206 01010KT P6SM SCT008 OVC020
                      TEMPO 2100/2102 3SM -SN BR FM211000 03006KT
                       P6SM BKN006 OVC010 FM211800 03005KT P6SM
                       SCT015 OVC025 FM212100 02007KT P6SM SCT025
                       OVC050=
202212202320 TAF KSEA 202320Z 2100/2206 01010KT P6SM SCT008 OVC020 FM211000
                       03006KT P6SM BKN006 OVC010 FM211800 03005KT
                       P6SM SCT015 OVC025 FM212100 02007KT P6SM
                       SCT025 OVC050=
202212202103 KSEA 202103Z 2021/2124 36010KT 2SM BR OVC006 FM210000 36010KT P6SM
                       SCT006 BKN012 OVC020 FM211000 03006KT P6SM
                       BKN006 OVC010 FM211800 03005KT P6SM SCT015
                       OVC025=
202212201904 KSEA 201904Z 2019/2124 36010KT 5SM -SN SCT006 BKN015 OVC030
                      TEMPO 2019/2021 1SM -SN BR BKN004 OVC010
                       FM202100 36010KT 2SM -SN OVC006 FM210000
                       36010KT P6SM SCT006 BKN012 OVC020 FM211000
                       03006KT P6SM BKN006 OVC010=
202212201730 KSEA 201730Z 2018/2124 36010KT 5SM -RASN SCT006 BKN015 OVC030
                      TEMPO 2018/2021 2SM RASN BR BKN006 OVC012
                       FM202100 36010KT 2SM -SN OVC006 FM210000
                       36010KT P6SM SCT006 BKN012 OVC020 FM211000
                       03006KT P6SM BKN006 OVC010=
202212201720 TAF KSEA 201720Z 2018/2124 36010KT 5SM -RASN SCT006 BKN015 OVC030
                       FM202100 36010KT 2SM -SN OVC006 FM210000
                       36010KT P6SM SCT006 BKN012 OVC020 FM211000
                       03006KT P6SM BKN006 OVC010=
202212201403 KSEA 201403Z 2014/2118 20008KT P6SM -RA SCT006 BKN030 OVC050 FM201900
                       36010KT 5SM -RASN SCT006 BKN015 OVC030 FM202100
                       36010KT 2SM -SN OVC006 FM210000 36010KT
                       P6SM SCT006 BKN012 OVC020 FM211000 03006KT
                       P6SM BKN006 OVC010=
202212201143 TAF KSEA 201143Z 2012/2118 15006KT P6SM BKN011 OVC040
                      TEMPO 2013/2015 SCT011 OVC040 FM201500 15008KT
                       5SM -SN SCT006 OVC011 FM201900 36010KT 2SM
                       -SN OVC006 FM202300 36010KT P6SM SCT006
                       BKN012 OVC020 FM211000 03006KT P6SM BKN006
                       OVC010=
202212200928 KSEA 200928Z 2009/2112 12006KT 5SM -SN SCT006 OVC012 FM201500 15008KT
                       2SM -SN OVC006 FM201900 36010KT 2SM -SN
                       OVC006 FM202300 36010KT P6SM SCT006 BKN012
                       OVC020=
202212200535 TAF KSEA 200535Z 2006/2112 12006KT 6SM BR VCSH SCT005 OVC010
                      TEMPO 2006/2010 -SN BKN005 FM201000 02006KT
                       6SM BR VCSH SCT007 OVC015 FM201500 17008KT
                       4SM -RASN BR OVC015 FM201900 34011KT 4SM
                       -SN OVC007 FM210500 36008KT 6SM -SHSN BKN007
                       OVC012=
202212200253 KSEA 200253Z 2003/2106 05005KT 5SM -SN SCT007 OVC010
                      TEMPO 2003/2007 BKN007 FM201000 02006KT 2SM
                       -SN OVC008 FM201800 VRB03KT 4SM -SN BR BKN010
                       OVC025=
202212192333 TAF KSEA 192333Z 2000/2106 02006KT 6SM -SN BR SCT009 OVC040 FM200200
                       05004KT 5SM -SN SCT009 OVC040 FM200600 02006KT
                       4SM -SN SCT012 OVC020 FM201400 02006KT 2SM
                       -SN SCT006 BKN012 OVC020 FM201800 VRB03KT
                       4SM -SN BR BKN010 OVC025=
202212192059 KSEA 192059Z 1921/2024 32003KT P6SM SCT015 OVC050 FM192200 02006KT
                       P6SM BKN035 OVC050 FM200600 02006KT 4SM
                       -SN SCT012 OVC020 FM201400 02006KT 2SM -SN
                       SCT006 BKN012 OVC020 FM201800 VRB03KT 4SM
                       -SN BR BKN010 OVC025=
202212191747 TAF KSEA 191747Z 1918/2024 04006KT P6SM SCT045 OVC050
                      TEMPO 1918/1920 6SM -SN BKN013 OVC050 FM192200
                       02006KT P6SM BKN035 OVC050 FM200600 02006KT
                       4SM -SN SCT012 OVC022 FM201400 02006KT 2SM
                       -SN SCT006 BKN012 OVC020 FM201800 VRB03KT
                       4SM -SN BR BKN010 OVC025=
202212191409 KSEA 191409Z 1914/2018 02006KT P6SM SCT030 OVC050
                      TEMPO 1914/1918 6SM -SN BKN030 OVC050 FM192200
                       02006KT P6SM BKN035 OVC050 FM200600 02006KT
                       4SM -SN SCT012 OVC022 FM201400 02006KT 2SM
                       -SN SCT006 BKN012 OVC020=
202212191137 TAF KSEA 191137Z 1912/2018 02006KT P6SM SCT030 OVC050
                      TEMPO 1915/1919 6SM -SN BKN030 OVC050 FM192200
                       02006KT P6SM BKN035 OVC050 FM200600 02006KT
                       P6SM BKN022 OVC035=
202212190924 KSEA 190924Z 1909/2012 03006KT P6SM -SN BKN025 OVC035 FM192100
                       03006KT P6SM BKN025 OVC050=
202212190523 TAF KSEA 190523Z 1906/2012 06007KT P6SM SCT020 BKN035 OVC045
                      TEMPO 1906/1910 3SM -SN BR BKN020 OVC035
                       FM191000 05006KT 3SM -SN BR BKN015 OVC040
                       FM192100 03007KT P6SM BKN025 OVC050=
202212190358 KSEA 190358Z 1904/2006 05008KT P6SM SCT015 BKN040
                      TEMPO 1904/1908 3SM -SN BR BKN015 OVC040
                       FM190800 03008KT P6SM BKN025 BKN040=
202212190305 KSEA 190305Z 1903/2006 02008KT 6SM -SN BR SCT010 BKN020 OVC030
                       TEMPO 1903/1905 2SM -SN BR BKN008 OVC015
                       FM190500 01008KT P6SM BKN025 BKN040 FM191200
                       03012KT P6SM SCT015 OVC030=
202212190119 KSEA 190119Z 1901/2006 02008KT 6SM -SN BR SCT010 BKN020 OVC030
                       TEMPO 1901/1903 2SM -SN BR BKN010 OVC012
                       FM190300 01008KT P6SM BKN025 BKN040 FM191200
                       03012KT P6SM SCT015 OVC030=
202212182342 TAF KSEA 182342Z 1900/2006 23010KT P6SM SCT020 BKN030 FM190200
                       01008KT P6SM SCT025 BKN040 FM191200 03012KT
                       P6SM SCT015 OVC030=
202212182116 KSEA 182116Z 1821/1924 20015G25KT P6SM SCT020 BKN050 FM190200 01008KT
                       P6SM SCT025 BKN040 FM191200 03012KT P6SM
                       SCT015 OVC030=
202212181739 TAF KSEA 181739Z 1818/1924 20013G22KT P6SM BKN012 OVC020 FM182100
                       23013G22KT P6SM BKN012 OVC025 FM190300 01008KT
                       P6SM SCT006 BKN015 OVC020 FM191200 03012KT
                       P6SM SCT015 OVC030=
202212181404 KSEA 181404Z 1814/1918 20010G16KT P6SM BKN012 OVC020 FM181600 20008KT
                       P6SM BKN012 OVC020 FM182100 25008KT P6SM
                       BKN012 OVC020 FM190300 01008KT 5SM -SN SCT006
                       BKN011 OVC020 FM190800 03010KT P6SM BKN006
                       OVC011 FM191200 03010KT P6SM SCT008 BKN015
                       OVC030=
202212181133 TAF KSEA 181133Z 1812/1918 20008KT P6SM BKN011 OVC020 FM182100
                       25008KT P6SM BKN011 OVC020 FM190300 01008KT
                       5SM -SN SCT006 BKN011 OVC020 FM190800 03010KT
                       P6SM BKN006 OVC011 FM191200 03010KT P6SM
                       SCT008 BKN015 OVC030=
202212180901 KSEA 180901Z 1809/1912 20008KT P6SM BKN011 OVC020 FM182100 25008KT
                       P6SM -RASN BKN015 OVC025 FM190100 35006KT
                       P6SM -SN OVC015=
202212180529 TAF KSEA 180529Z 1806/1912 20008KT P6SM SCT006 OVC013
                      TEMPO 1806/1810 4SM -RA BKN006 OVC010 FM182100
                       25008KT P6SM -RASN BKN015 OVC025 FM190100
                       35006KT P6SM -SN OVC015=
202212172344 TAF KSEA 172344Z 1800/1906 18010KT P6SM BKN010 FM180300 19006KT
                       P6SM OVC007 FM180600 18007KT P6SM OVC003
                       FM181300 19007KT P6SM OVC007=
202212172108 KSEA 172108Z 1721/1824 17008KT 5SM BR BKN006 OVC015 FM180000 18003KT
                       P6SM OVC010 FM181600 19007KT P6SM OVC007=
202212171736 TAF KSEA 171736Z 1718/1824 15006KT 2SM BR OVC004
                      TEMPO 1718/1720 1/2SM FG FM172000 19005KT
                       2SM BR OVC006 FM180000 18003KT P6SM OVC010
                       FM181600 19007KT P6SM OVC007=
202212171321 KSEA 171321Z 1713/1818 14006KT 2SM BR OVC008 FM171900 19005KT 1SM
                       BR OVC005 FM180000 18003KT P6SM OVC009 FM180300
                       18005KT 6SM BR OVC010=
202212171120 TAF KSEA 171120Z 1712/1818 06005KT 1/2SM FG VV001
                      TEMPO 1712/1716 1/2SM FG BKN001 FM171900
                       19005KT 1SM BR OVC003 FM180000 18003KT P6SM
                       OVC010=
202212170835 KSEA 170835Z 1709/1812 01003KT 1/2SM FZFG VV001
                      TEMPO 1709/1713 1/2SM FG BKN001 FM171300
                       VRB03KT 6SM BR BKN007 FM171900 19005KT P6SM
                       BKN010 OVC020=
202212170736 KSEA 170736Z 1708/1812 01005KT 1SM BR BKN002
                      TEMPO 1709/1713 2SM BR BKN002 FM171300 VRB03KT
                       6SM BR BKN007 FM171900 19005KT P6SM BKN010
                       OVC020=
202212170521 TAF KSEA 170521Z 1706/1812 04005KT P6SM BKN250
                      TEMPO 1709/1713 2SM BR BKN007 FM171300 VRB03KT
                       6SM BR BKN007 FM171900 19005KT P6SM BKN010
                       OVC020=
202212170310 KSEA 170310Z 1703/1806 36004KT P6SM SKC FM170600 05003KT 6SM BR
                       SCT010 FM170900 10004KT 1/4SM FG BKN003
                       FM171900 19005KT 3SM BR BKN007 FM172000
                       19006KT 6SM BR OVC010=
202212162340 TAF KSEA 162340Z 1700/1806 35006KT P6SM SCT250 FM170600 05003KT
                       6SM BR SCT010 FM170900 10004KT 1/4SM FG
                       BKN003 FM171900 19005KT 3SM BR BKN007 FM172000
                       19006KT 6SM BR OVC010=
202212162101 KSEA 162101Z 1621/1724 03003KT P6SM SCT250 FM170600 05003KT 6SM
                       BR SCT010 FM170900 10004KT 1SM BR BKN005=
202212161738 TAF KSEA 161738Z 1618/1724 03004KT 3SM BR SCT003 FM161900 03003KT
                       P6SM SCT250 FM170600 05003KT 6SM BR SCT010=
202212161553 KSEA 161553Z 1616/1718 02004KT 1/2SM FZFG VV001 FM161700 02004KT
                       3SM BR SCT003 FM161800 06003KT P6SM SCT250
                       FM170900 13004KT P6SM SCT250=
202212161410 KSEA 161410Z 1614/1718 04005KT P6SM SCT250
                      TEMPO 1614/1616 1/4SM FZFG VV001 FM161800
                       06003KT P6SM SCT250 FM170900 13004KT P6SM
                       SCT250=
202212161244 KSEA 161244Z 1613/1718 04005KT P6SM SCT250
                      TEMPO 1613/1616 1/2SM FG VV001 FM161800 06003KT
                       P6SM SCT250 FM170900 13004KT P6SM SCT250=
202212161209 KSEA 161209Z 1612/1718 04005KT P6SM SCT250
                      TEMPO 1612/1616 1SM BR BKN001 FM161800 06003KT
                       P6SM SCT250 FM170900 13004KT P6SM SCT250=
202212161120 TAF KSEA 161120Z 1612/1718 04005KT P6SM SCT250
                      TEMPO 1612/1616 3SM BR BKN005 FM161800 06003KT
                       P6SM SCT250 FM170900 13004KT P6SM SCT250=
202212160859 KSEA 160859Z 1609/1712 02005KT P6SM SCT250 FM161200 06004KT 3SM
                       BR BKN005 FM161800 06003KT P6SM SCT250 FM170900
                       13004KT P6SM SCT250=
202212160527 TAF KSEA 160527Z 1606/1712 02010KT P6SM SCT250 FM161200 06004KT
                       3SM BR BKN005 FM161800 06003KT P6SM SCT250
                       FM170900 13004KT P6SM SCT250=
202212160259 KSEA 160259Z 1603/1706 03012KT P6SM SKC FM160600 05006KT P6SM SCT250
                       FM161200 06004KT 3SM BR BKN005 FM161800
                       06003KT P6SM SCT250 FM162300 03004KT P6SM
                       SCT250=
202212152340 TAF KSEA 152340Z 1600/1706 02010KT P6SM FEW015 SCT220 FM160600
                       05006KT P6SM SCT250 FM161200 06004KT 3SM
                       BR BKN005 FM161800 06003KT P6SM SCT250 FM162300
                       03004KT P6SM SCT250=
202212152056 KSEA 152056Z 1521/1624 03008KT P6SM SCT250 FM160000 03005KT P6SM
                       SCT250 FM160600 05005KT P6SM SCT250 FM161200
                       06004KT 3SM BR BKN005 FM161900 06004KT P6SM
                       SCT250=
202212151739 TAF KSEA 151739Z 1518/1624 03008KT P6SM SCT250 FM160000 03005KT
                       P6SM SCT250 FM160600 05005KT P6SM SCT250
                       FM161200 06004KT P6SM SCT250=
202212151518 KSEA 151518Z 1515/1618 02008KT P6SM SCT025
                      TEMPO 1515/1518 1SM BR OVC001 FM151800 03008KT
                       P6SM SCT250 FM160000 03005KT P6SM SCT250
                       FM160600 05005KT P6SM SCT250=
202212151433 KSEA 151433Z 1515/1618 02008KT P6SM SCT025
                      TEMPO 1515/1517 1SM BR OVC005 FM151800 03008KT
                       P6SM SCT250 FM160000 03005KT P6SM SCT250
                       FM160600 05005KT P6SM SCT250=
202212151357 KSEA 151357Z 1514/1618 02008KT P6SM SCT025 FM151800 03006KT P6SM
                       SCT250 FM160600 05005KT P6SM SCT250=
202212151120 TAF KSEA 151120Z 1512/1618 02008KT P6SM SCT025
                      TEMPO 1512/1516 BKN020 FM151800 03006KT P6SM
                       SCT250 FM160600 05005KT P6SM SCT250=
202212150855 KSEA 150855Z 1509/1612 02008KT P6SM OVC020
                      TEMPO 1510/1514 5SM BR BKN015 FM151800 03006KT
                       P6SM SCT250 FM160600 05005KT P6SM SCT250=
202212150520 TAF KSEA 150520Z 1506/1612 02008KT P6SM SCT020
                      TEMPO 1506/1510 BKN020 FM151000 02008KT P6SM
                       SCT015
                      TEMPO 1510/1514 5SM BR BKN015 FM152100 02008KT
                       P6SM SCT250=
202212150138 KSEA 150138Z 1502/1606 03008KT P6SM SCT020 FM152100 02009KT P6SM
                       FEW040 SCT250=
202212142323 TAF KSEA 142323Z 1500/1606 02009KT P6SM OVC028 FM150700 04006KT
                       P6SM BKN030 FM152100 02009KT P6SM FEW040
                       SCT250=
202212142107 KSEA 142107Z 1421/1524 01009KT P6SM BKN020 OVC030 FM150000 02007KT
                       P6SM SCT022 OVC030 FM150700 04004KT P6SM
                       SCT030 SCT250 FM152200 02007KT P6SM SCT250=
202212141837 KSEA 141837Z 1419/1524 01010KT P6SM BKN020 OVC030 FM150000 02007KT
                       P6SM BKN040 FM150700 04004KT P6SM SCT030
                       SCT250 FM152200 02007KT P6SM SCT250=
202212141721 TAF KSEA 141721Z 1418/1524 36007KT P6SM SCT020 BKN040 FM142000
                       02006KT P6SM BKN045 FM150000 02007KT P6SM
                       SCT040 FM150700 04004KT P6SM SCT030 SCT250
                       FM152200 02007KT P6SM SCT250=
202212141420 KSEA 141420Z 1414/1518 VRB03KT P6SM OVC025
                      TEMPO 1414/1415 -RA OVC015 FM141800 02006KT
                       P6SM BKN040 FM150000 02007KT P6SM SCT040
                       FM150700 06004KT P6SM SCT030 SCT250=
202212141357 KSEA 141357Z 1414/1518 VRB03KT P6SM OVC025 FM141800 02006KT P6SM
                       BKN040 FM150000 02007KT P6SM SCT040 FM150700
                       06004KT P6SM SCT030 SCT250=
202212141120 TAF KSEA 141120Z 1412/1518 VRB03KT P6SM OVC025 FM141800 34006KT
                       P6SM BKN040 FM150000 02007KT P6SM SCT040
                       FM150700 06004KT P6SM SCT030 SCT250=
202212140900 KSEA 140900Z 1409/1512 VRB03KT P6SM OVC030 FM141800 34006KT P6SM
                       BKN040 FM150000 02007KT P6SM SCT040 FM150700
                       06004KT P6SM BKN030=
202212140520 TAF KSEA 140520Z 1406/1512 VRB03KT P6SM OVC030 FM141800 34006KT
                       P6SM BKN040 FM150000 02007KT P6SM SCT040=
202212140300 KSEA 140300Z 1403/1506 VRB03KT P6SM OVC040 FM140900 VRB03KT P6SM
                       OVC030 FM142100 02005KT P6SM BKN040=
202212132321 TAF KSEA 132321Z 1400/1506 VRB03KT P6SM BKN027 BKN050 FM140600
                       07003KT P6SM OVC020 FM142100 02005KT P6SM
                       BKN030 BKN060=
202212132137 KSEA 132137Z 1322/1424 VRB03KT P6SM BKN035 BKN100 FM140000 VRB03KT
                       P6SM BKN040 BKN120 FM140400 VRB03KT P6SM
                       SCT025 OVC040 FM140700 07003KT P6SM OVC020
                       FM142100 02005KT P6SM BKN035 BKN060=
202212131723 TAF KSEA 131723Z 1318/1424 VRB03KT P6SM FEW010 BKN035 BKN200 FM132100
                       VRB03KT P6SM BKN050 BKN120 FM140000 VRB03KT
                       P6SM SCT040 BKN120 FM140400 VRB03KT P6SM
                       SCT025 OVC040 FM140700 07003KT P6SM OVC020
                       FM142100 02005KT P6SM BKN035 BKN060=
202212131357 KSEA 131357Z 1314/1418 VRB03KT P6SM SCT035
                      TEMPO 1314/1317 BKN030 FM131700 VRB03KT P6SM
                       SCT035 BKN200 FM140000 VRB03KT P6SM SCT040
                       BKN120 FM140400 VRB03KT P6SM SCT025 OVC040
                       FM140800 07003KT P6SM OVC020=
202212131120 TAF KSEA 131120Z 1312/1418 VRB03KT P6SM BKN030 FM131700 VRB03KT
                       P6SM BKN035 BKN200 FM140000 VRB03KT P6SM
                       SCT040 BKN120 FM140400 VRB03KT P6SM SCT025
                       OVC040 FM140800 VRB03KT P6SM OVC020=
202212130855 KSEA 130855Z 1309/1412 VRB03KT P6SM BKN025 FM131200 00000KT 5SM
                       BR SCT010 BKN020 FM131700 VRB03KT P6SM BKN025
                       BKN200 FM140000 VRB03KT P6SM SCT040 BKN120
                       FM140400 VRB03KT P6SM SCT025 OVC040=
202212130520 TAF KSEA 130520Z 1306/1412 VRB03KT P6SM BKN028 FM131200 00000KT
                       5SM BR SCT010 BKN020 FM131700 VRB03KT P6SM
                       BKN025 BKN200 FM140000 VRB03KT P6SM SCT040
                       BKN120=
202212130342 KSEA 130342Z 1304/1406 VRB03KT P6SM BKN025 FM132000 VRB03KT P6SM
                       SCT040 BKN100=
202212122323 TAF KSEA 122323Z 1300/1406 36005KT P6SM BKN035 FM130500 04004KT
                       P6SM BKN022 FM130900 05004KT P6SM OVC014
                       FM132000 VRB03KT P6SM SCT015 BKN030=
202212122209 KSEA 122209Z 1222/1324 03006KT P6SM BKN030 BKN050 FM130000 02005KT
                       P6SM SCT040 FM130700 05004KT P6SM BKN008
                       FM131000 05004KT 4SM BR OVC006 FM132100
                       VRB03KT P6SM SCT010 BKN035=
202212121740 TAF KSEA 121740Z 1218/1324 03005KT P6SM VCSH SCT010 BKN022 BKN045
                       TEMPO 1218/1220 5SM BR BKN009 FM122100 34006KT
                       P6SM BKN035 BKN050 FM130000 02005KT P6SM
                       SCT040 FM130700 05004KT P6SM BKN008 FM131000
                       05004KT 4SM BR OVC006 FM132100 VRB03KT P6SM
                       SCT010 BKN035=
202212121616 KSEA 121616Z 1216/1318 32004KT P6SM SCT009 BKN015 OVC040
                      TEMPO 1216/1218 BKN006 OVC012 FM121800 02005KT
                       P6SM SCT015 BKN022 BKN045 FM122100 35010KT
                       P6SM SCT035 FM130700 00000KT P6SM SCT030=
202212121329 KSEA 121329Z 1213/1318 32003KT P6SM -SHRA SCT009 BKN015 OVC040
                       TEMPO 1213/1215 BKN009 FM121500 02005KT
                       P6SM OVC020 FM122100 35010KT P6SM SCT035
                       FM130700 00000KT P6SM SCT030=
202212121249 KSEA 121249Z 1213/1318 31003KT P6SM -SHRA FEW009 BKN015 OVC035
                       FM121400 02002KT P6SM OVC025 FM122100 35010KT
                       P6SM SCT035 FM130700 00000KT P6SM SCT030=
202212121127 TAF KSEA 121127Z 1212/1318 02003KT P6SM SCT020 OVC045 FM121400
                       02002KT P6SM OVC020 FM122100 35010KT P6SM
                       SCT035 FM130700 00000KT P6SM SCT030=
202212120853 KSEA 120853Z 1209/1312 02005KT P6SM BKN040 FM121200 02003KT P6SM
                       OVC015 FM122100 35010KT P6SM SCT035 FM130700
                       00000KT P6SM SCT030=
202212120540 TAF KSEA 120540Z 1206/1312 03010KT P6SM FEW010 SCT040 FM120900
                       02005KT P6SM BKN015 FM121700 36008KT P6SM
                       BKN020 FM122100 35010KT P6SM SCT035 FM130700
                       00000KT P6SM SCT030=
202212120257 KSEA 120257Z 1203/1306 05005KT P6SM FEW020 BKN045 FM120900 02005KT
                       P6SM SCT005 OVC012 FM121700 36008KT P6SM
                       BKN020 FM122200 36010KT P6SM SCT030=
202212112320 TAF KSEA 112320Z 1200/1306 36008KT P6SM VCSH SCT008 OVC012
                      TEMPO 1200/1204 4SM -SHRA BR BKN008 OVC012
                       FM120900 02005KT P6SM SCT005 OVC012 FM121700
                       36008KT P6SM BKN020 FM122200 36010KT P6SM
                       SCT030=
202212112107 KSEA 112107Z 1121/1224 01008KT 4SM BR BKN005 OVC012
                      TEMPO 1121/1123 2SM -SHRA BR BKN002 OVC010
                       FM112300 36008KT P6SM VCSH SCT005 BKN012
                       OVC030 FM120900 02005KT P6SM SCT005 OVC012
                       FM121700 35008KT P6SM BKN020=
202212111937 KSEA 111937Z 1120/1224 02006KT 1SM -SHRA BR BKN002 OVC012 FM112100
                       36007KT 3SM -SHRA BR BKN005 OVC015 FM112300
                       36007KT P6SM SCT005 BKN015 BKN040 FM120600
                       02004KT P6SM OVC012 FM121700 35008KT P6SM
                       SCT020 SCT040=
202212111727 TAF KSEA 111727Z 1118/1224 00000KT P6SM SCT005 BKN015 OVC040
                      TEMPO 1118/1121 2SM -SHRA BR BKN005 OVC015
                       FM112200 35006KT P6SM SCT020 BKN040 FM120600
                       00000KT P6SM BKN015 FM121700 35008KT P6SM
                       SCT020 SCT040=
202212111539 KSEA 111539Z 1116/1218 00000KT P6SM BKN012 OVC035 FM111800 35006KT
                       P6SM BKN015 BKN040 FM112200 35006KT P6SM
                       SCT020 BKN040 FM120600 00000KT P6SM OVC015=
202212111402 KSEA 111402Z 1114/1218 05003KT P6SM VCSH OVC035 FM112200 33006KT
                       P6SM OVC020 FM120600 VRB03KT P6SM BKN015=
202212111133 TAF KSEA 111133Z 1112/1218 VRB03KT P6SM VCSH FEW020 BKN040 OVC070
                       FM111400 05003KT P6SM OVC025 FM112200 33006KT
                       P6SM OVC020 FM120600 VRB03KT P6SM BKN015=
202212110911 KSEA 110911Z 1109/1212 VRB03KT P6SM VCSH FEW020 BKN060
                      TEMPO 1109/1111 BKN020 FM111600 05003KT P6SM
                       OVC025 FM112200 33007KT P6SM BKN050 FM120600
                       VRB03KT P6SM BKN016=
202212110903 KSEA 110903Z 1109/1212 VRB03KT P6SM VCSH FEW020 BKN060 FM111600
                       05003KT P6SM OVC025 FM112200 33007KT P6SM
                       BKN050 FM120600 VRB03KT P6SM BKN016=
202212110535 TAF KSEA 110535Z 1106/1212 VRB03KT P6SM VCSH FEW025 OVC040 FM111200
                       VRB03KT P6SM BKN030 FM111700 03004KT P6SM
                       BKN020 FM112200 33007KT P6SM BKN050 FM120600
                       VRB03KT P6SM BKN016=
202212110306 KSEA 110306Z 1103/1206 10008KT P6SM BKN040 FM111200 VRB03KT P6SM
                       BKN030 FM112200 31007KT P6SM BKN050=
202212102320 TAF KSEA 102320Z 1100/1206 12007KT P6SM -RA OVC040
                      TEMPO 1100/1104 4SM RA BR OVC030 FM110400
                       12007KT P6SM VCSH BKN025 OVC040 FM111800
                       VRB03KT P6SM SCT025 BKN040 FM112200 31007KT
                       P6SM BKN050=
202212102102 KSEA 102102Z 1021/1124 15007KT P6SM -SHRA OVC040
                      TEMPO 1021/1023 5SM SHRA FM110600 15007KT
                       P6SM VCSH BKN025 OVC040 FM111800 VRB03KT
                       P6SM SCT025 BKN050=
202212101720 TAF KSEA 101720Z 1018/1124 12008KT P6SM VCSH OVC040 FM110600 08006KT
                       P6SM OVC025=
202212101400 KSEA 101400Z 1014/1118 12012G18KT 6SM -RA OVC040 FM101600 13012KT
                       P6SM -SHRA OVC050 FM110000 09008KT P6SM
                       VCSH BKN035 OVC040 FM110700 08006KT P6SM
                       OVC025=
202212101126 TAF KSEA 101126Z 1012/1118 12012G18KT 6SM -RA OVC040 FM101600 13012KT
                       P6SM -SHRA OVC050 FM110000 09008KT P6SM
                       VCSH BKN027 OVC040 FM110500 08005KT P6SM
                       OVC025=
202212100900 KSEA 100900Z 1009/1112 12010G20KT 6SM -RA BKN040 WS020/14040KT
                       FM101000 12012G18KT 6SM -RA OVC040 FM101600
                       12010KT P6SM -SHRA BKN025 OVC035 FM110000
                       09008KT P6SM VCSH BKN027 OVC040 FM110600
                       VRB04KT P6SM BKN045=
202212100534 TAF KSEA 100534Z 1006/1112 14010G20KT 6SM -RA BR OVC030 WS020/14040KT
                       FM101000 12012G18KT 6SM -RA BR OVC018 FM101600
                       12010KT P6SM -SHRA BKN025 OVC035 FM110000
                       09008KT P6SM VCSH BKN027 OVC040 FM110600
                       VRB04KT P6SM BKN045=
202212100256 KSEA 100256Z 1003/1106 11014G20KT 6SM -RA BR OVC030 WS020/14040KT
                       FM101200 12012G18KT 6SM -RA BR OVC017 FM101700
                       12010KT 6SM -SHRA BR BKN025 OVC035 FM110200
                       09008KT P6SM VCSH BKN027 OVC040=
202212092339 TAF KSEA 092339Z 1000/1106 11010KT P6SM -RA OVC030 FM100300 11014G22KT
                       6SM -RA BR OVC025 WS020/14040KT FM101200
                       12012G18KT 6SM -RA BR OVC017 FM101700 12010KT
                       6SM -SHRA BR BKN025 OVC035 FM110200 09008KT
                       P6SM VCSH BKN027 OVC040=
202212092059 KSEA 092059Z 0921/1024 12008KT P6SM -RA BKN040 OVC080 FM100000
                       11012KT P6SM -RA OVC030 FM100300 11014G22KT
                       6SM -RA BR OVC027 WS020/14040KT FM101200
                       12012G18KT 6SM -RA BR OVC022 FM101700 12010KT
                       6SM -SHRA BR BKN025 OVC035=
202212091731 TAF KSEA 091731Z 0918/1024 18008KT P6SM BKN040 OVC080 FM100000
                       11012KT P6SM -RA OVC040 FM100300 11014G22KT
                       6SM -RA BR OVC027 WS020/14040KT FM101200
                       12012G18KT 6SM -RA BR OVC022 FM101700 12010KT
                       6SM -SHRA BR BKN025 OVC035=
202212091408 KSEA 091408Z 0914/1018 17009KT P6SM VCSH BKN025 OVC035 FM091800
                       16008KT P6SM BKN040 OVC080 FM100000 11012KT
                       P6SM -RA OVC040 FM100600 12014G20KT 6SM
                       -RA BR OVC030 FM101600 16010KT 6SM -SHRA
                       BR BKN025 OVC035=
202212091135 TAF KSEA 091135Z 0912/1018 18007KT 6SM -SHRA BR BKN022 OVC030 FM091500
                       17009KT P6SM VCSH SCT022 OVC040 FM091800
                       16008KT P6SM BKN040 OVC080 FM100000 11012KT
                       P6SM -RA OVC040 FM100600 12014G20KT 6SM
                       -RA BR OVC030 FM101600 16010KT 6SM -SHRA
                       BR BKN025 OVC035=
202212090851 KSEA 090851Z 0909/1012 19010KT P6SM -RA BKN012 OVC035 FM091100
                       20005KT P6SM VCSH OVC050 FM091300 18006KT
                       P6SM VCSH BKN015 FM091800 16005KT P6SM SCT020
                       BKN035 FM100100 11012KT P6SM -RA OVC025=
202212090532 TAF KSEA 090532Z 0906/1012 19010KT P6SM SCT015 OVC080 FM090900
                       18008KT P6SM -RA BKN012 OVC020 FM091100
                       20005KT P6SM VCSH OVC050 FM091300 18006KT
                       P6SM VCSH BKN015 FM091800 16005KT P6SM SCT020
                       BKN035 FM100100 11012KT P6SM -RA OVC025=
202212090259 KSEA 090259Z 0903/1006 19009KT P6SM VCSH SCT012 OVC030 FM091000
                       18008KT P6SM VCSH BKN012 OVC020 FM091900
                       16005KT P6SM SCT020 BKN040 FM100400 11012KT
                       P6SM -RA OVC030=
202212082332 TAF KSEA 082332Z 0900/1006 14008KT P6SM VCSH BKN017 OVC040 FM090300
                       18007KT P6SM -SHRA BKN015 OVC025 FM091000
                       18008KT P6SM VCSH BKN012 OVC020 FM091900
                       16005KT P6SM SCT020 BKN040 FM100400 11012KT
                       P6SM -RA OVC030=
202212082134 KSEA 082134Z 0822/0924 15010KT P6SM VCSH SCT025 OVC040 FM090200
                       18007KT P6SM -SHRA BKN015 OVC025 FM091000
                       18008KT P6SM VCSH BKN012 OVC020 FM091900
                       16005KT P6SM SCT020 BKN040=
202212081732 TAF KSEA 081732Z 0818/0924 20010KT P6SM VCSH SCT015 OVC040
                      TEMPO 0818/0821 -SHRA BKN012 OVC030 FM082100
                       21010KT P6SM -SHRA BKN022 OVC030 FM090200
                       18007KT P6SM -SHRA BKN015 OVC025 FM091000
                       18008KT P6SM VCSH BKN012 OVC020 FM091900
                       16005KT P6SM SCT020 BKN040=
202212081546 KSEA 081546Z 0816/0918 20010KT P6SM VCSH SCT015 OVC040
                      TEMPO 0816/0820 -SHRA BKN012 OVC030 FM082000
                       21010KT P6SM -SHRA BKN022 OVC030 FM090200
                       18007KT P6SM -SHRA BKN015 OVC025 FM091000
                       18008KT P6SM VCSH BKN012 OVC020=
202212081352 KSEA 081352Z 0814/0918 20009KT P6SM -RA BKN012 OVC020 FM081600
                       19010KT 4SM -SHRA BR OVC018 FM082100 21010KT
                       P6SM -SHRA BKN022 OVC030 FM090200 18007KT
                       P6SM -SHRA BKN015 OVC025 FM091000 18008KT
                       P6SM VCSH BKN012 OVC020=
202212081137 TAF KSEA 081137Z 0812/0918 16010KT P6SM -RA OVC025 FM081600 19012KT
                       4SM -SHRA BR OVC018 FM082100 21012KT P6SM
                       -SHRA BKN022 OVC030 FM090200 18007KT P6SM
                       -SHRA BKN015 OVC025 FM091000 18008KT P6SM
                       VCSH BKN012 OVC020=
202212080852 KSEA 080852Z 0809/0912 16010KT P6SM -RA BKN020 OVC040 FM081600
                       19012KT 4SM -SHRA BR OVC020 FM082100 21012KT
                       P6SM -SHRA BKN030 FM090200 18008KT P6SM
                       -SHRA SCT020 BKN035 BKN050 FM091000 18008KT
                       P6SM BKN012 OVC020=
202212080540 TAF KSEA 080540Z 0806/0912 17010KT P6SM OVC050 FM080900 17010KT
                       P6SM -RA BKN020 OVC040 FM081600 19012KT
                       4SM -SHRA BR OVC020 FM082100 21012KT P6SM
                       -SHRA BKN030 FM090200 18008KT P6SM -SHRA
                       SCT020 BKN035 BKN050 FM091000 18008KT P6SM
                       BKN012 OVC020=
202212080321 KSEA 080321Z 0803/0906 17010KT P6SM OVC040 FM080800 14012KT P6SM
                       -RA BKN020 OVC040 FM081600 19012G18KT 4SM
                       -SHRA BR OVC020 FM082100 20010KT P6SM VCSH
                       BKN030=
202212072336 TAF KSEA 072336Z 0800/0906 17010KT P6SM BKN040 BKN060 FM080800
                       14012KT P6SM -RA BKN020 OVC040 FM081600
                       19012G18KT 4SM -SHRA BR OVC020 FM082100
                       20010KT P6SM VCSH BKN030=
202212072052 KSEA 072052Z 0721/0824 16005KT P6SM SCT025 OVC040 FM072200 17007KT
                       P6SM BKN040 BKN060 FM080800 14012KT P6SM
                       -RA BKN020 OVC040 FM081500 19012G18KT 4SM
                       -SHRA BR OVC020 FM082100 20010KT P6SM VCSH
                       BKN035=
202212071720 TAF KSEA 071720Z 0718/0824 15007KT P6SM SCT025 OVC040 FM072200
                       17007KT P6SM BKN040 BKN060 FM080800 14012KT
                       P6SM -RA BKN020 OVC040 FM081500 19012G18KT
                       4SM -SHRA BR OVC020 FM082100 20010KT P6SM
                       VCSH BKN035=
202212071351 KSEA 071351Z 0714/0818 16005KT P6SM VCSH BKN025 OVC035
                      TEMPO 0714/0716 -RA FM071800 17004KT P6SM
                       BKN022 OVC030 FM072200 20007KT P6SM BKN040
                       BKN060 FM080800 16014KT P6SM -RA BKN020
                       OVC040 FM081500 19011KT 4SM -SHRA BR OVC020=
202212071130 TAF KSEA 071130Z 0712/0818 16005KT P6SM VCSH BKN018 OVC025
                      TEMPO 0712/0715 -RA OVC020 FM071800 17004KT
                       P6SM BKN022 OVC030 FM072200 20007KT P6SM
                       BKN040 BKN060 FM080800 16014KT P6SM -RA
                       BKN020 OVC040 FM081500 19011KT 4SM -SHRA
                       BR OVC020=
202212070855 KSEA 070855Z 0709/0812 19006KT P6SM VCSH BKN020 OVC035
                      TEMPO 0709/0712 -RA OVC020 FM071800 18008KT
                       P6SM SCT012 BKN022 OVC035 FM072200 16008KT
                       P6SM SCT025 BKN040 OVC060 FM080800 16014KT
                       P6SM -RA BKN020 OVC040=
202212070540 TAF KSEA 070540Z 0706/0812 18008KT P6SM BKN012 OVC020 FM071800
                       18008KT P6SM SCT012 BKN022 OVC035 FM072200
                       16008KT P6SM SCT025 BKN040 OVC060 FM080800
                       16014KT P6SM -RA BKN020 OVC040=
202212070314 KSEA 070314Z 0703/0806 18006KT P6SM BKN012 OVC020 FM071800 16012KT
                       P6SM SCT020 BKN040 OVC080 FM080500 16014KT
                       P6SM -RA BKN020 OVC040=
202212062320 TAF KSEA 062320Z 0700/0806 14006KT P6SM BKN018 OVC040 FM071800
                       16012KT P6SM SCT020 BKN040 OVC080 FM080500
                       16014KT P6SM -RA BKN020 OVC040=
202212061722 TAF KSEA 061722Z 0618/0724 15004KT P6SM SCT005 BKN015 OVC040 FM062200
                       16006KT P6SM BKN020 OVC040 FM071200 16006KT
                       P6SM BKN015 OVC030 FM072100 16012KT P6SM
                       SCT020 BKN040 OVC080=
202212061403 KSEA 061403Z 0614/0718 16005KT P6SM VCSH SCT011 OVC025
                      TEMPO 0614/0616 -RA OVC011 FM061800 18005KT
                       P6SM OVC015=
202212061310 KSEA 061310Z 0613/0718 16005KT P6SM VCSH OVC025
                      TEMPO 0613/0616 -RA FEW007 OVC022 FM061800
                       18005KT P6SM OVC015=
202212061120 TAF KSEA 061120Z 0612/0718 16005KT P6SM VCSH BKN035 OVC050
                      TEMPO 0612/0616 -RA OVC025 FM061800 18005KT
                       P6SM OVC015=
202212060901 KSEA 060901Z 0609/0712 00000KT P6SM VCSH BKN025 OVC035
                      TEMPO 0609/0612 -RA FM061200 VRB03KT P6SM
                       OVC008 FM061800 18006KT P6SM OVC014=
202212060532 TAF KSEA 060532Z 0606/0712 36004KT P6SM SCT015 BKN025 OVC035 FM060900
                       VRB03KT P6SM SCT008 BKN015 OVC025 FM061200
                       VRB03KT P6SM OVC008 FM061800 18006KT P6SM
                       OVC014=
202212060327 KSEA 060327Z 0603/0706 36004KT P6SM OVC009 FM061200 VRB03KT P6SM
                       OVC009 FM061600 18006KT P6SM OVC014=
202212052325 TAF KSEA 052325Z 0600/0706 VRB03KT P6SM BKN009 OVC016 FM061600
                       18006KT P6SM OVC020=
202212052051 KSEA 052051Z 0521/0624 34003KT P6SM BKN015 OVC035
                      TEMPO 0521/0601 SCT015 BKN035 FM061600 18006KT
                       P6SM OVC020=
202212051721 TAF KSEA 051721Z 0518/0624 05004KT P6SM FEW010 BKN035 BKN045 FM052000
                       02004KT P6SM BKN030 OVC045 FM060600 VRB03KT
                       P6SM OVC015 FM061600 18006KT P6SM OVC020=
202212051407 KSEA 051407Z 0514/0618 05003KT P6SM SCT002 OVC030
                      TEMPO 0514/0516 1SM BR BKN001 OVC025 FM051900
                       34003KT P6SM OVC015 FM060600 VRB03KT P6SM
                       OVC015=
202212051320 KSEA 051320Z 0513/0618 05003KT P6SM VCSH SCT002 OVC030
                      TEMPO 0513/0516 5SM -RA BR OVC025 FM051900
                       34003KT P6SM OVC015 FM060600 VRB03KT P6SM
                       OVC015=
202212051302 KSEA 051302Z 0513/0618 05003KT P6SM SCT002 OVC035
                      TEMPO 0513/0516 5SM BR FM051900 34003KT P6SM
                       OVC015 FM060600 VRB03KT P6SM OVC015=
202212051126 TAF KSEA 051126Z 0512/0618 05003KT 6SM BR SCT002 OVC035
                      TEMPO 0512/0516 1/2SM FG FM051900 34003KT
                       P6SM OVC015 FM060600 VRB03KT P6SM OVC015=
202212050902 KSEA 050902Z 0509/0612 04006KT 5SM BR FEW005 OVC035 FM051200 07004KT
                       4SM BR FEW005 OVC015 FM051900 34004KT 5SM
                       BR OVC015 FM060000 00000KT P6SM OVC025=
202212050704 KSEA 050704Z 0507/0612 05005KT 2SM BR FEW002 BKN030 OVC040 FM050900
                       07004KT 2SM BR FEW002 OVC015 FM051900 34004KT
                       5SM BR OVC015 FM060000 00000KT P6SM OVC025=
202212050520 TAF KSEA 050520Z 0506/0612 02003KT P6SM BKN020 OVC090 FM050900
                       10003KT 6SM BR OVC020 FM051300 VRB02KT 4SM
                       BR OVC015 FM051900 00000KT 5SM BR OVC010
                       FM060000 00000KT P6SM OVC025=
202212050253 KSEA 050253Z 0503/0606 VRB03KT P6SM FEW004 SCT070 OVC090 FM050700
                       10003KT P6SM OVC020 FM051300 VRB02KT 4SM
                       BR OVC009 FM051900 00000KT 5SM BR OVC010=
202212042330 TAF KSEA 042330Z 0500/0606 11003KT 6SM -RA BR FEW025 OVC035 FM050200
                       06004KT P6SM VCSH OVC020 FM050700 05003KT
                       P6SM OVC015 FM051300 VRB02KT 4SM BR OVC009
                       FM051900 00000KT 5SM BR OVC010=
202212042204 KSEA 042204Z 0422/0524 35003KT P6SM -RASN OVC030
                      TEMPO 0422/0423 3SM -SN BR OVC020 FM042300
                       11003KT P6SM OVC025 FM050200 06004KT P6SM
                       OVC020 FM050700 05003KT P6SM OVC010 FM051300
                       VRB02KT P6SM OVC010=
202212042115 KSEA 042115Z 0421/0524 35003KT P6SM -RASN OVC030
                      TEMPO 0421/0422 2SM -SN FEW015 FM042200 11003KT
                       P6SM OVC025 FM050200 06004KT P6SM OVC020
                       FM050700 05003KT P6SM OVC010 FM051300 VRB02KT
                       P6SM OVC010=
202212042053 KSEA 042053Z 0421/0524 35003KT P6SM VCSH OVC050
                      TEMPO 0421/0422 2SM -SN FEW015 FM042200 11003KT
                       P6SM VCSH SCT035 OVC060 FM050200 06004KT
                       P6SM OVC020 FM050700 05003KT P6SM OVC010
                       FM051300 VRB02KT P6SM OVC010=
202212042022 KSEA 042022Z 0420/0524 08004KT P6SM VCSH OVC050
                      TEMPO 0420/0421 2SM -SN FEW015 FM042100 11003KT
                       P6SM VCSH SCT035 OVC060 FM050200 06004KT
                       P6SM OVC020 FM050700 05003KT P6SM OVC010
                       FM051300 VRB02KT P6SM OVC010=
202212042011 KSEA 042011Z 0420/0524 08004KT P6SM VCSH OVC050
                      TEMPO 0420/0421 3SM -SN FEW015 FM042100 11003KT
                       P6SM VCSH SCT035 OVC060 FM050200 06004KT
                       P6SM OVC020 FM050700 05003KT P6SM OVC010
                       FM051300 VRB02KT P6SM OVC010=
202212041813 KSEA 041813Z 0418/0524 01010KT P6SM -RASN OVC040 FM041900 08004KT
                       P6SM VCSH OVC050 FM042100 11003KT P6SM VCSH
                       SCT035 OVC060 FM050200 06004KT P6SM OVC020
                       FM050700 05003KT P6SM OVC010 FM051300 VRB02KT
                       P6SM OVC010=
202212041723 TAF KSEA 041723Z 0418/0524 01010KT P6SM VCSH FEW020 SCT050 OVC100
                       FM041900 08004KT P6SM VCSH OVC070 FM042100
                       11003KT P6SM VCSH SCT035 OVC060 FM050200
                       06004KT P6SM OVC020 FM050700 05003KT P6SM
                       OVC010 FM051300 VRB02KT P6SM OVC010=
202212041403 KSEA 041403Z 0414/0518 01010KT P6SM VCSH BKN110 FM041900 08004KT
                       P6SM VCSH OVC060 FM042100 11003KT P6SM VCSH
                       SCT035 OVC060
                      TEMPO 0421/0501 -SN OVC035 FM050200 06004KT
                       P6SM OVC020=
202212041120 TAF KSEA 041120Z 0412/0518 02013KT P6SM SCT100 BKN200 FM041900
                       08004KT P6SM OVC060 FM042100 11003KT P6SM
                       VCSH SCT035 OVC060
                      TEMPO 0421/0501 -SN OVC035 FM050200 06004KT
                       P6SM OVC020=
202212040910 KSEA 040910Z 0409/0512 03010KT P6SM SCT100 FM041900 08004KT P6SM
                       OVC060 FM042100 11003KT P6SM VCSH SCT035
                       OVC060
                      TEMPO 0421/0501 -RASN OVC035 FM050200 06004KT
                       P6SM OVC015=
202212040520 TAF KSEA 040520Z 0406/0512 02009KT P6SM SKC FM041000 05009KT P6SM
                       SCT100 FM041900 08004KT P6SM OVC060 FM042200
                       11003KT P6SM OVC060 FM050200 VRB03KT 5SM
                       BR VCSH BKN035 FM050500 VRB03KT 5SM BR OVC025=
202212040300 KSEA 040300Z 0403/0506 03011KT P6SM SKC FM040600 06010KT P6SM SCT120
                       FM041000 04009KT P6SM SCT100 FM041900 07004KT
                       P6SM OVC060 FM042200 12003KT P6SM OVC060=
202212032320 TAF KSEA 032320Z 0400/0506 03010KT P6SM SCT150 FM040600 06010KT
                       P6SM SCT120 FM041000 04009KT P6SM SCT100
                       FM041900 07004KT P6SM OVC060 FM042200 12003KT
                       P6SM OVC060=
202212032057 KSEA 032057Z 0321/0424 03010KT P6SM FEW030 SCT250 FM040600 06009KT
                       P6SM SCT120 FM041000 04009KT P6SM SCT100
                       FM041900 07004KT P6SM OVC060=
202212031720 TAF KSEA 031720Z 0318/0424 07009KT P6SM FEW060 FM032100 03007KT
                       P6SM SCT250 FM040600 06011KT P6SM SCT120
                       FM041000 04009KT P6SM SCT100=
202212031357 KSEA 031357Z 0314/0418 06011KT P6SM OVC050 FM031800 03009KT P6SM
                       SCT250 FM040600 06011KT P6SM SCT120=
202212031123 TAF KSEA 031123Z 0312/0418 06009KT P6SM SCT010 BKN030 OVC050 FM031400
                       05008KT P6SM SCT020 BKN050 FM031800 02009KT
                       P6SM SCT250 FM040600 06011KT P6SM SCT120=
202212030904 KSEA 030904Z 0309/0412 07009G17KT 1SM -SN OVC010 FM031100 05005KT
                       5SM -SN SCT015 OVC025 FM031400 03004KT P6SM
                       BKN050 FM031800 01006KT P6SM SCT080=
202212030806 KSEA 030806Z 0308/0412 07009G20KT 1SM -SN OVC009 FM031000 05005KT
                       5SM -SN SCT015 OVC030 FM031400 03004KT P6SM
                       BKN050 FM031800 01006KT P6SM SCT080=
202212030711 KSEA 030711Z 0307/0412 10009KT 2SM -SN OVC014 FM031000 05005KT
                       5SM -SN SCT015 OVC030 FM031400 03004KT P6SM
                       BKN050 FM031800 01006KT P6SM SCT080=
202212030520 TAF KSEA 030520Z 0306/0412 10009KT 2SM -SN OVC014 FM030800 08009KT
                       5SM -SN OVC020 FM031200 05005KT 5SM -SN
                       OVC035 FM031600 03004KT P6SM BKN050 FM031800
                       01006KT P6SM SCT080=
202212030424 KSEA 030424Z 0304/0406 10010KT 2SM -SN OVC014 FM030700 07009KT
                       5SM -SN OVC020 FM031200 04005KT 5SM -SN
                       OVC020 FM031500 03004KT P6SM OVC035=
202212030316 KSEA 030316Z 0303/0406 11010KT 6SM -SN OVC035 FM030700 06009KT
                       5SM -SN OVC025 FM031200 04005KT 5SM -SN
                       OVC020 FM031500 03004KT P6SM OVC035=
202212030300 KSEA 030300Z 0303/0406 11010KT P6SM VCSH OVC040 FM030400 08010KT
                       P6SM -RASN OVC030 FM030700 06009KT 5SM -SN
                       OVC025 FM031200 04005KT 5SM -SN OVC020 FM031500
                       03004KT P6SM OVC035=
202212022324 TAF KSEA 022324Z 0300/0406 13007KT P6SM BKN050 OVC100 FM030300
                       08010KT P6SM -RASN OVC040 FM030700 06009KT
                       5SM -SN OVC025 FM031200 04005KT 5SM -SN
                       OVC020 FM031500 03004KT P6SM OVC035=
202212022100 KSEA 022100Z 0221/0324 13007KT P6SM VCSH BKN050 OVC200 FM030300
                       08010KT P6SM -RASN OVC040 FM030700 06009KT
                       5SM -SN OVC025 FM031200 04005KT 5SM -SN
                       OVC020=
202212021725 TAF KSEA 021725Z 0218/0324 11006KT P6SM VCSH FEW030 BKN050 OVC070
                       FM022000 13007KT P6SM OVC050 FM030300 08010KT
                       P6SM -RASN OVC040 FM030700 06009KT 5SM -SN
                       OVC025 FM031200 04005KT 5SM -SN OVC020=
202212021447 KSEA 021447Z 0215/0318 13005KT 5SM -SN SCT015 OVC030
                      TEMPO 0215/0217 2SM -SN BR BKN014 OVC025
                       FM021700 11006KT P6SM VCSH BKN035 OVC050
                       FM022000 13006KT P6SM OVC050 FM030300 08010KT
                       P6SM -RASN OVC040 FM030700 06009KT 5SM -SN
                       OVC025=
202212021424 KSEA 021424Z 0214/0318 13005KT 6SM -SN OVC030 FM021600 11006KT
                       P6SM VCSH BKN035 OVC050 FM022000 13006KT
                       P6SM OVC050 FM030300 08010KT P6SM -RASN
                       OVC040 FM030700 06009KT 5SM -SN OVC025=
202212021133 TAF KSEA 021133Z 0212/0318 12006KT P6SM OVC027 FM021600 11006KT
                       P6SM BKN035 OVC050 FM022000 13006KT P6SM
                       OVC050 FM030300 08010KT P6SM -RASN OVC040
                       FM030700 06009KT 5SM -SN OVC025=
202212020855 KSEA 020855Z 0209/0312 10006KT P6SM SCT050 FM021100 10006KT P6SM
                       OVC040 FM021600 14006KT P6SM OVC050 FM022000
                       15006KT P6SM OVC060 FM030300 08007KT P6SM
                       -RA OVC050=
202212020520 TAF KSEA 020520Z 0206/0312 08006KT P6SM BKN050 FM021000 10006KT
                       P6SM OVC050 FM021600 14006KT P6SM OVC050
                       FM022000 15006KT P6SM OVC060 FM030300 08007KT
                       P6SM -RA OVC050=
202212020258 KSEA 020258Z 0203/0306 04008KT P6SM BKN050 FM020400 08005KT P6SM
                       BKN050 FM021000 10003KT P6SM OVC050 FM021600
                       14006KT P6SM OVC050 FM022000 15006KT P6SM
                       OVC060 FM030300 08007KT P6SM -RA OVC050=
202212012320 TAF KSEA 012320Z 0200/0306 04008KT P6SM FEW030 BKN070 FM020400
                       08005KT P6SM BKN050 FM021000 10003KT P6SM
                       OVC050 FM021600 14004KT P6SM BKN050 FM022000
                       15006KT P6SM OVC100=
202212012056 KSEA 012056Z 0121/0224 34009KT P6SM SCT030 BKN100 FM012300 01004KT
                       P6SM BKN050 FM020000 04006KT P6SM SCT025
                       OVC040 FM020400 08006KT P6SM SCT050 BKN080
                       FM021000 10003KT P6SM BKN050=
202212012055 KSEA 012055Z 0121/0224 34008KT P6SM SCT030 BKN100 FM012300 01004KT
                       P6SM BKN050 FM020000 04006KT P6SM SCT025
                       OVC040 FM020400 08006KT P6SM SCT050 BKN080
                       FM021000 10003KT P6SM BKN050=
202212011723 TAF KSEA 011723Z 0118/0224 02004KT P6SM FEW020 BKN050 BKN250 FM012100
                       34004KT P6SM SCT015 OVC035 FM020000 04006KT
                       P6SM SCT025 OVC040 FM020400 08006KT P6SM
                       SCT050 BKN080 FM021000 10003KT P6SM BKN050=
202212011520 KSEA 011520Z 0115/0218 31004KT 5SM BR VCSH SCT005 OVC030
                      TEMPO 0115/0117 3/4SM -SN BR FEW003 OVC015
                       FM011700 04008KT 5SM BR VCSH SCT008 BKN015
                       OVC030 FM012100 34008KT P6SM SCT015 OVC025
                       FM020000 04006KT P6SM SCT025 OVC040 FM020400
                       08006KT P6SM SCT050 BKN080=
202212011519 KSEA 011519Z 0115/0218 31004KT 5SM BR VCSH SCT005 OVC030
                      TEMPO 0115/0117 3/4SM -SN BR BKN003 OVC015
                       FM011700 04008KT 5SM BR VCSH SCT008 BKN015
                       OVC030 FM012100 34008KT P6SM SCT015 OVC025
                       FM020000 04006KT P6SM SCT025 OVC040 FM020400
                       08006KT P6SM SCT050 BKN080=
202212011409 KSEA 011409Z 0114/0218 05005KT 5SM BR VCSH SCT005 OVC030
                      TEMPO 0114/0117 3SM -SN BR BKN005 OVC015
                       FM011700 04008KT 5SM BR VCSH SCT008 BKN015
                       OVC030 FM012100 34008KT P6SM SCT015 OVC025
                       FM020000 04006KT P6SM SCT025 OVC040 FM020400
                       08006KT P6SM SCT050 BKN080=
202212011132 TAF KSEA 011132Z 0112/0218 03008KT 4SM BR VCSH SCT005 OVC030
                      TEMPO 0112/0116 1SM -SN BR BKN002 OVC015
                       FM011600 36008KT 5SM BR VCSH SCT008 BKN015
                       OVC030 FM012100 34008KT P6SM SCT015 OVC025
                       FM020000 04006KT P6SM SCT025 OVC040 FM020400
                       08006KT P6SM SCT050 BKN080=
202212011011 KSEA 011011Z 0110/0212 03006KT 5SM BR VCSH BKN005 BKN035 OVC050
                       FM011100 03008KT 3SM -SHSN BKN012 OVC025
                       FM011800 34008KT P6SM SCT008 BKN015 OVC030
                       FM012100 34008KT P6SM SCT015 OVC025 FM020000
                       04006KT P6SM SCT025 OVC040 FM020400 04006KT
                       P6SM SCT050 BKN100=
202212010905 KSEA 010905Z 0109/0212 03006KT P6SM VCSH SCT015 BKN035 OVC050 FM011100
                       03008KT 2SM -SHSN BKN013 OVC025 FM011800
                       34008KT P6SM SCT008 BKN015 OVC030 FM012100
                       34008KT P6SM SCT015 OVC025 FM020000 04006KT
                       P6SM SCT025 OVC040 FM020400 04006KT P6SM
                       SCT050 BKN100=
202212010631 KSEA 010631Z 0107/0212 02004KT P6SM SCT006 BKN040 OVC070
                      TEMPO 0107/0110 6SM BR BKN004 OVC025 FM011000
                       03006KT P6SM SCT015 BKN020 OVC040 FM011200
                       03010KT 2SM -SHSN BKN008 OVC015 FM011800
                       34008KT P6SM SCT008 BKN015 OVC030 FM012100
                       34008KT P6SM SCT015 OVC025 FM020000 04006KT
                       P6SM SCT025 OVC040 FM020400 04006KT P6SM
                       SCT050 BKN100=
202212010520 TAF KSEA 010520Z 0106/0212 15004KT P6SM SCT006 BKN040 OVC070 FM010900
                       03006KT P6SM SCT015 BKN025 OVC040 FM011200
                       03010KT 2SM -SHSN BKN008 OVC015 FM011800
                       34008KT P6SM SCT008 BKN015 OVC030 FM012100
                       34008KT P6SM SCT015 OVC025 FM020000 04006KT
                       P6SM SCT025 OVC040 FM020400 04006KT P6SM
                       SCT050 BKN100=
202212010309 KSEA 010309Z 0103/0206 05006KT 2SM -SN OVC015 FM010500 05006KT
                       4SM BR SCT003 OVC006 FM011100 03010KT 3SM
                       -SHSN SCT004 BKN008 OVC015 FM011800 34008KT
                       P6SM SCT008 BKN015 OVC030 FM012100 34008KT
                       P6SM SCT015 OVC025 FM020000 04006KT P6SM
                       SCT025 OVC040=
202212010035 KSEA 010035Z 0101/0206 04010KT 3SM -SN BR OVC025 FM010300 05005KT
                       5SM BR VCSH OVC025 FM010700 03007KT 3SM
                       -SHSN OVC020 FM011000 03010KT 3SM -SHSN
                       OVC020 FM011600 03006KT P6SM OVC030=