##########################################################
# Query made at 02/17/2025 22:11:05 UTC
# Time interval: from 08/01/2023 00:00  to 08/31/2023 23:59  UTC
##########################################################

##########################################################
# KSEA, Seattle, Seattle-Tacoma International Airport (United States)
# WMO index: 72793. WIGOS ID: 0-20000-0-72793
# Latitude 47-27-00N. Longitude 122-17-59W. Altitude 130 m.
##########################################################

###################################
#  METAR/SPECI from KSEA
###################################
202308312353 METAR KSEA 312353Z 34011KT 10SM FEW025 SCT090 BKN150 20/13 A2984 RMK AO2 RAE48 SLP108 P0000 60002 T02000128 10206 20172 56011=
202308312253 METAR KSEA 312253Z 34009KT 10SM -RA FEW025 BKN070 BKN150 19/14 A2984 RMK AO2 RAE00B52 SLP111 P0000 T01890144=
202308312153 METAR KSEA 312153Z 33010KT 10SM -RA FEW020 OVC070 19/14 A2986 RMK AO2 RAE25B53 SLP115 P0001 T01890139=
202308312053 METAR KSEA 312053Z 31008KT 10SM -RA FEW020 SCT060 OVC080 18/15 A2987 RMK AO2 SLP120 P0001 60001 T01780150 56009=
202308311953 METAR KSEA 311953Z 29006KT 10SM -RA SCT017 OVC070 19/14 A2987 RMK AO2 SLP121 P0000 T01890144=
202308311942 SPECI KSEA 311942Z 29007KT 10SM -RA SCT017 OVC075 19/14 A2987 RMK AO2 P0000 T01890139=
202308311853 METAR KSEA 311853Z 30007KT 10SM -RA BKN017 OVC075 19/14 A2989 RMK AO2 RAB1754 SLP124 P0000 T01890139=
202308311811 SPECI KSEA 311811Z 31006KT 10SM -RA BKN017 BKN050 OVC075 18/14 A2990 RMK AO2 RAB1754 P0000 T01780144=
202308311753 METAR KSEA 311753Z 29007KT 10SM SCT017 BKN050 OVC075 17/14 A2990 RMK AO2 SLP129 60000 T01720144 10178 20150 55002=
202308311736 SPECI KSEA 311736Z 29005KT 10SM SCT013 BKN050 OVC075 18/14 A2990 RMK AO2 T01780139=
202308311653 METAR KSEA 311653Z 29006KT 10SM BKN012 BKN050 OVC075 18/14 A2990 RMK AO2 SLP128 T01780144=
202308311626 SPECI KSEA 311626Z VRB04KT 10SM SCT010 BKN050 OVC075 18/14 A2990 RMK AO2 T01780139=
202308311601 SPECI KSEA 311601Z 00000KT 10SM BKN010 BKN050 OVC075 18/14 A2991 RMK AO2 T01780139=
202308311553 METAR KSEA 311553Z 00000KT 10SM SCT010 BKN075 BKN120 17/14 A2990 RMK AO2 SLP131 T01720139=
202308311453 METAR KSEA 311453Z 00000KT 7SM FEW008 FEW050 SCT120 BKN160 15/14 A2990 RMK AO2 SLP131 60000 T01500139 55006=
202308311434 SPECI KSEA 311434Z 00000KT 7SM FEW008 FEW040 SCT120 BKN160 15/13 A2991 RMK AO2 T01500133=
202308311353 METAR KSEA 311353Z 00000KT 7SM FEW035 SCT120 BKN160 BKN250 16/13 A2990 RMK AO2 SLP129 T01560133=
202308311253 METAR KSEA 311253Z 04003KT 10SM FEW032 BKN110 16/14 A2991 RMK AO2 RAB44E51 SLP132 P0000 T01610139=
202308311153 METAR KSEA 311153Z 03004KT 10SM FEW032 BKN160 16/14 A2992 RMK AO2 SLP137 60000 70001 T01610139 10183 20156 58017=
202308311053 METAR KSEA 311053Z 03005KT 10SM BKN032 BKN095 16/14 A2994 RMK AO2 SLP143 T01560139=
202308310953 METAR KSEA 310953Z 36003KT 10SM SCT031 BKN095 BKN120 16/14 A2996 RMK AO2 SLP149 T01610139=
202308310853 METAR KSEA 310853Z 02004KT 10SM OVC100 17/13 A2997 RMK AO2 SLP154 60000 T01670133 56009=
202308310753 METAR KSEA 310753Z 00000KT 10SM SCT033 BKN120 16/13 A2998 RMK AO2 SLP156 T01560133 402330150=
202308310653 METAR KSEA 310653Z 30004KT 10SM BKN047 OVC110 17/14 A2999 RMK AO2 RAE06 SLP161 P0000 T01670139=
202308310553 METAR KSEA 310553Z 04006KT 10SM -RA OVC100 18/13 A3000 RMK AO2 RAB16 SLP164 P0001 60001 T01830133 10228 20183 58013=
202308310453 METAR KSEA 310453Z 01005KT 10SM SCT040 BKN070 OVC110 19/11 A3002 RMK AO2 SLP171 T01940111=
202308310353 METAR KSEA 310353Z 04006KT 10SM FEW042 SCT080 OVC200 20/12 A3004 RMK AO2 SLP175 T02000117=
202308310253 METAR KSEA 310253Z 04008KT 10SM SCT042 OVC080 21/12 A3004 RMK AO2 SLP177 T02060122 56012=
202308310153 METAR KSEA 310153Z 05009KT 10SM SCT044 BKN070 BKN250 22/12 A3005 RMK AO2 SLP179 T02170117=
202308310053 METAR KSEA 310053Z 04007KT 10SM FEW039 SCT080 BKN250 22/12 A3006 RMK AO2 SLP184 T02220117=
202308302353 METAR KSEA 302353Z 08003KT 10SM FEW038 BKN070 BKN250 22/12 A3008 RMK AO2 SLP189 T02220117 10233 20172 56017=
202308302253 METAR KSEA 302253Z 00000KT 10SM FEW038 BKN070 BKN250 22/12 A3009 RMK AO2 SLP194 T02170117=
202308302153 METAR KSEA 302153Z 07006KT 10SM FEW043 BKN065 BKN250 22/12 A3011 RMK AO2 SLP200 T02170117=
202308302053 METAR KSEA 302053Z 21004KT 10SM FEW030 BKN060 21/12 A3013 RMK AO2 SLP207 T02110117 58006=
202308301953 METAR KSEA 301953Z 16008KT 10SM FEW015 BKN049 BKN200 20/13 A3014 RMK AO2 SLP210 T02000128=
202308301853 METAR KSEA 301853Z 22006KT 10SM FEW015 SCT040 BKN060 19/14 A3015 RMK AO2 SLP213 T01890139=
202308301753 METAR KSEA 301753Z 19008KT 10SM SCT012 BKN040 BKN055 18/14 A3015 RMK AO2 SLP214 60000 T01780139 10178 20156 50001=
202308301722 SPECI KSEA 301722Z 21007KT 10SM SCT010 BKN040 BKN048 17/14 A3015 RMK AO2 T01670139=
202308301653 METAR KSEA 301653Z 21008KT 10SM BKN010 BKN015 17/14 A3015 RMK AO2 SLP214 T01670139=
202308301553 METAR KSEA 301553Z 21008KT 10SM BKN010 BKN015 16/14 A3015 RMK AO2 SLP215 T01610139=
202308301453 METAR KSEA 301453Z 20004KT 10SM BKN010 OVC015 16/14 A3014 RMK AO2 SLP213 60000 T01560139 53007=
202308301412 SPECI KSEA 301412Z 21005KT 10SM BKN011 OVC033 16/14 A3014 RMK AO2 T01560139=
202308301353 METAR KSEA 301353Z 20007KT 10SM SCT012 BKN032 16/14 A3013 RMK AO2 SLP207 T01560139=
202308301310 SPECI KSEA 301310Z 20004KT 10SM BKN011 OVC025 16/14 A3012 RMK AO2 T01560139 $=
202308301253 METAR KSEA 301253Z 19005KT 10SM SCT012 OVC024 16/14 A3012 RMK AO2 RAE21 SLP205 P0000 T01560139 $=
202308301153 METAR KSEA 301153Z 21006KT 10SM -RA BKN012 OVC022 16/14 A3012 RMK AO2 RAB50 SLP204 P0000 60000 70010 T01560139 10161 20150 53002 $=
202308301121 SPECI KSEA 301121Z 17004KT 10SM BKN012 BKN018 OVC024 16/14 A3012 RMK AO2 T01560139 $=
202308301053 METAR KSEA 301053Z 21006KT 10SM FEW014 OVC020 16/14 A3011 RMK AO2 SLP202 T01560139 $=
202308300953 METAR KSEA 300953Z 21006KT 10SM OVC019 16/14 A3011 RMK AO2 SLP202 T01560139 $=
202308300911 SPECI KSEA 300911Z 20006KT 10SM SCT010 BKN025 15/14 A3012 RMK AO2 T01500139 $=
202308300853 METAR KSEA 300853Z 20005KT 10SM BKN010 BKN025 BKN030 15/14 A3011 RMK AO2 SLP202 T01500139 56004 $=
202308300753 METAR KSEA 300753Z 17004KT 10SM FEW020 BKN027 OVC041 16/14 A3011 RMK AO2 SLP203 T01560144 401670144 $=
202308300653 METAR KSEA 300653Z 20003KT 10SM OVC023 16/14 A3012 RMK AO2 SLP204 T01560139 $=
202308300553 METAR KSEA 300553Z 00000KT 10SM OVC025 15/14 A3012 RMK AO2 RAE23 SLP206 P0001 60004 T01500139 10161 20150 51002 $=
202308300525 SPECI KSEA 300525Z 00000KT 10SM BKN026 OVC032 16/14 A3012 RMK AO2 RAE23 P0001 T01560139 $=
202308300453 METAR KSEA 300453Z VRB03KT 10SM -RA OVC038 16/13 A3012 RMK AO2 RAB44 SLP206 P0001 T01610133 $=
202308300353 METAR KSEA 300353Z 12004KT 10SM OVC036 16/14 A3013 RMK AO2 SLP208 T01610139 $=
202308300253 METAR KSEA 300253Z 09005KT 10SM BKN044 OVC055 16/13 A3012 RMK AO2 SLP205 60002 T01560133 55001 $=
202308300153 METAR KSEA 300153Z 07008KT 10SM FEW006 BKN041 OVC080 16/13 A3012 RMK AO2 RAE50 SLP204 P0000 T01560133 $=
202308300053 METAR KSEA 300053Z 06007KT 10SM -RA FEW006 OVC030 16/14 A3013 RMK AO2 SLP207 LTG DSNT E CB DSNT E P0002 T01560139 $=
202308292353 METAR KSEA 292353Z 09007KT 5SM -RA FEW004 SCT034 OVC050 16/14 A3012 RMK AO2 SLP206 LTG DSNT NE AND E CB DSNT NE AND E P0003 60006 T01560139 10161 20156 55005 $=
202308292253 METAR KSEA 292253Z 10009KT 7SM -RA SCT003 BKN034 OVC046 16/14 A3012 RMK AO2 SLP204 LTG DSNT N AND SE CB DSNT N AND SE P0000 T01560139 $=
202308292206 SPECI KSEA 292206Z 10007KT 5SM -RA FEW004 SCT038 OVC046 16/14 A3013 RMK AO2 LTG DSNT NW-N CB DSNT NW-N P0000 T01560139 $=
202308292153 METAR KSEA 292153Z 10009KT 3SM R16L/6000VP6000FT RA BR FEW010 SCT037 OVC065 16/14 A3013 RMK AO2 SLP208 LTG DSNT NW-N CB DSNT NW-N P0003 T01560139=
202308292120 SPECI KSEA 292120Z 11006KT 5SM -RA FEW010 BKN029 OVC037 16/13 A3014 RMK AO2 RAB20 LTG DSNT NW CB DSNT NW P0000 T01610133=
202308292053 METAR KSEA 292053Z 15006KT 9SM FEW008 SCT012 OVC035 16/13 A3014 RMK AO2 LTG DSNT NW SLP211 CB DSNT NW T01610133 53006=
202308291953 METAR KSEA 291953Z 16004KT 7SM FEW008 BKN011 OVC020 16/13 A3013 RMK AO2 SLP207 T01560128=
202308291928 SPECI KSEA 291928Z 18005KT 7SM FEW008 OVC011 16/13 A3012 RMK AO2 T01560128=
202308291853 METAR KSEA 291853Z 20008KT 7SM BKN008 OVC015 16/13 A3012 RMK AO2 SLP205 T01560128=
202308291800 SPECI KSEA 291800Z VRB05KT 7SM BKN008 OVC015 15/13 A3012 RMK AO2 T01500133=
202308291753 METAR KSEA 291753Z 15006KT 7SM BKN010 OVC015 15/13 A3012 RMK AO2 SLP204 60000 T01500133 10156 20144 53004=
202308291737 SPECI KSEA 291737Z VRB04KT 6SM BR BKN010 OVC015 15/13 A3012 RMK AO2 T01500133=
202308291653 METAR KSEA 291653Z 15007KT 10SM SCT009 BKN015 OVC030 16/13 A3012 RMK AO2 SLP203 T01560128=
202308291553 METAR KSEA 291553Z 16006KT 7SM SCT008 BKN012 OVC020 15/13 A3011 RMK AO2 SLP201 T01500128=
202308291453 METAR KSEA 291453Z 17005KT 7SM SCT008 BKN013 15/13 A3011 RMK AO2 RAE24 SLP201 P0000 60000 T01500128 52008=
202308291424 SPECI KSEA 291424Z 17006KT 7SM SCT008 BKN013 BKN018 15/13 A3010 RMK AO2 RAE24 P0000 T01500133=
202308291353 METAR KSEA 291353Z 18004KT 3SM -RA BR BKN006 OVC011 14/13 A3010 RMK AO2 SLP198 PCPN VRY LGT P0000 T01440133=
202308291339 SPECI KSEA 291339Z 17005KT 6SM -RA BR BKN008 OVC013 14/13 A3010 RMK AO2 LTG DSNT N P0000 T01440128=
202308291314 SPECI KSEA 291314Z 18005KT 6SM -RA BR SCT006 OVC013 14/13 A3009 RMK AO2 P0000 T01440133=
202308291253 METAR KSEA 291253Z 17004KT 6SM -RA BR OVC010 14/13 A3009 RMK AO2 RAB25 SLP194 P0000 T01440128=
202308291225 SPECI KSEA 291225Z 18004KT 7SM -RA OVC013 14/13 A3009 RMK AO2 LTG DSNT NE AND E RAB25 P0000 T01440128=
202308291153 METAR KSEA 291153Z 18005KT 8SM FEW007 OVC015 14/13 A3008 RMK AO2 RAE06 SLP192 P0001 60002 70002 T01440133 10172 20144 56005=
202308291140 SPECI KSEA 291140Z 19004KT 8SM FEW007 SCT013 OVC018 14/13 A3008 RMK AO2 RAE06 P0001 T01440133=
202308291130 SPECI KSEA 291130Z 20003KT 10SM VCTS OVC018CB 14/13 A3008 RMK AO2 RAE06 OCNL LTGIC VC W TS W MOV N P0001 T01440133=
202308291108 SPECI KSEA 291108Z 21004KT 10SM OVC016 15/13 A3008 RMK AO2 LTG DSNT N AND NE AND S RAE06 P0001 T01500133=
202308291053 METAR KSEA 291053Z 23004KT 10SM -RA OVC014 15/13 A3009 RMK AO2 LTG DSNT N AND S RAB31 SLP193 P0001 T01500128=
202308290953 METAR KSEA 290953Z 21006KT 10SM OVC018 16/12 A3008 RMK AO2 SLP193 T01560122=
202308290853 METAR KSEA 290853Z 19005KT 10SM OVC021 16/12 A3010 RMK AO2 LTG DSNT E AND SW AND NW SLP198 T01610122 50001=
202308290827 SPECI KSEA 290827Z 20003KT 10SM OVC020 17/13 A3010 RMK AO2 LTG DSNT W-N T01670128=
202308290753 METAR KSEA 290753Z 22004KT 10SM VCTS OVC020CB 17/13 A3010 RMK AO2 LTG DSNT N SLP199 OCNL LTGCG VC TS SW MOV N T01670128 401940161=
202308290653 METAR KSEA 290653Z 24005KT 10SM SCT022 OVC027 17/13 A3010 RMK AO2 SLP197 T01670128=
202308290553 METAR KSEA 290553Z 23005KT 10SM BKN020 OVC027 17/12 A3010 RMK AO2 SLP197 T01720122 10189 20172 58003=
202308290453 METAR KSEA 290453Z 22006KT 10SM OVC021 18/12 A3010 RMK AO2 SLP198 T01780122=
202308290353 METAR KSEA 290353Z 23006KT 10SM BKN020 OVC027 18/12 A3011 RMK AO2 SLP201 T01780122=
202308290253 METAR KSEA 290253Z 21006KT 10SM OVC017 18/13 A3011 RMK AO2 SLP200 T01780128 51005=
202308290153 METAR KSEA 290153Z 20006KT 10SM OVC018 18/14 A3010 RMK AO2 SLP198 T01830139=
202308290053 METAR KSEA 290053Z 22007KT 10SM OVC016 18/14 A3010 RMK AO2 SLP197 T01830139=
202308282353 METAR KSEA 282353Z 23007KT 10SM OVC018 19/14 A3009 RMK AO2 SLP193 T01890139 10194 20172 56007=
202308282253 METAR KSEA 282253Z 21006KT 10SM OVC019 19/14 A3009 RMK AO2 SLP195 T01890139=
202308282153 METAR KSEA 282153Z 21007KT 10SM OVC016 18/13 A3010 RMK AO2 SLP196 T01830133=
202308282053 METAR KSEA 282053Z 22008KT 8SM OVC013 18/14 A3011 RMK AO2 SLP201 T01830139 58002=
202308281958 SPECI KSEA 281958Z 22008KT 10SM BKN013 OVC016 18/13 A3012 RMK AO2 LTG DSNT SW CB DSNT SW T01780133=
202308281953 METAR KSEA 281953Z 22009KT 10SM BKN013 OVC016 18/13 A3012 RMK AO2 LTG DSNT SW SLP203 T01780133=
202308281853 METAR KSEA 281853Z 24008KT 10SM BKN011 OVC015 18/14 A3012 RMK AO2 SLP204 T01780139=
202308281753 METAR KSEA 281753Z 21007KT 8SM BKN010 OVC014 17/13 A3012 RMK AO2 SLP204 T01720133 10172 20161 51004=
202308281708 SPECI KSEA 281708Z 23009KT 8SM SCT009 OVC011 17/13 A3011 RMK AO2 T01720133=
202308281653 METAR KSEA 281653Z 21006KT 7SM BKN009 OVC011 17/13 A3011 RMK AO2 SLP202 T01720133=
202308281553 METAR KSEA 281553Z 22005KT 7SM OVC008 17/14 A3011 RMK AO2 SLP201 T01670139=
202308281453 METAR KSEA 281453Z 24004KT 7SM OVC008 17/14 A3010 RMK AO2 SLP198 T01670139 53002=
202308281353 METAR KSEA 281353Z 21004KT 7SM OVC008 17/14 A3010 RMK AO2 SLP196 T01670139=
202308281253 METAR KSEA 281253Z 27003KT 8SM OVC008 16/14 A3010 RMK AO2 SLP194 T01610139=
202308281153 METAR KSEA 281153Z 24004KT 8SM OVC008 17/14 A3010 RMK AO2 SLP195 T01670139 10172 20161 56002=
202308281053 METAR KSEA 281053Z 22004KT 9SM OVC009 17/14 A3010 RMK AO2 SLP196 T01670139=
202308280953 METAR KSEA 280953Z 22005KT 9SM OVC009 17/14 A3009 RMK AO2 SLP194 T01670139=
202308280900 SPECI KSEA 280900Z 22006KT 8SM OVC008 17/14 A3010 RMK AO2 T01670139=
202308280853 METAR KSEA 280853Z 23005KT 9SM OVC010 17/14 A3010 RMK AO2 SLP197 T01670139 51007=
202308280828 SPECI KSEA 280828Z 21006KT 9SM BKN010 17/14 A3010 RMK AO2 T01670139=
202308280753 METAR KSEA 280753Z 20006KT 9SM CLR 16/13 A3010 RMK AO2 SLP197 T01610133 402890150=
202308280653 METAR KSEA 280653Z 21006KT 9SM CLR 17/13 A3010 RMK AO2 SLP196 T01670133=
202308280553 METAR KSEA 280553Z 21008KT 9SM CLR 17/13 A3008 RMK AO2 SLP191 T01720133 10283 20172 51021=
202308280453 METAR KSEA 280453Z 22007KT 9SM CLR 20/14 A3006 RMK AO2 SLP185 T02000139=
202308280353 METAR KSEA 280353Z 21005KT 9SM FEW140 23/13 A3004 RMK AO2 SLP178 T02280133=
202308280253 METAR KSEA 280253Z 26005KT 8SM SCT160 24/12 A3002 RMK AO2 SLP170 T02440122 53005=
202308280153 METAR KSEA 280153Z 24005KT 9SM SCT160 27/13 A3001 RMK AO2 SLP166 T02720133=
202308280053 METAR KSEA 280053Z 28005KT 8SM FEW150 28/11 A3001 RMK AO2 SLP165 T02780111=
202308272353 METAR KSEA 272353Z 22009KT 8SM SCT150 28/13 A3000 RMK AO2 SLP164 T02780128 10289 20211 56012=
202308272253 METAR KSEA 272253Z 25005KT 8SM SCT140 28/12 A3001 RMK AO2 SLP164 T02830117=
202308272153 METAR KSEA 272153Z VRB03KT 8SM FEW140 27/12 A3003 RMK AO2 SLP171 T02720117=
202308272053 METAR KSEA 272053Z 27007KT 9SM FEW140 26/12 A3004 RMK AO2 SLP175 T02610122 58012=
202308271953 METAR KSEA 271953Z 26005KT 10SM FEW140 25/12 A3005 RMK AO2 SLP180 T02500122=
202308271853 METAR KSEA 271853Z 19005KT 10SM FEW140 22/13 A3006 RMK AO2 SLP184 T02220133=
202308271753 METAR KSEA 271753Z 20006KT 10SM FEW140 FEW180 21/13 A3007 RMK AO2 SLP187 T02110128 10211 20150 50001=
202308271653 METAR KSEA 271653Z VRB04KT 10SM FEW140 SCT180 18/13 A3008 RMK AO2 SLP188 T01830128=
202308271553 METAR KSEA 271553Z 20005KT 10SM FEW004 SCT180 17/13 A3008 RMK AO2 SLP190 T01670128=
202308271453 METAR KSEA 271453Z 21006KT 9SM FEW004 SCT180 16/13 A3007 RMK AO2 SLP188 T01560128 51007=
202308271431 SPECI KSEA 271431Z 20003KT 10SM FEW004 SCT180 16/13 A3007 RMK AO2 T01560128=
202308271353 METAR KSEA 271353Z 19006KT 9SM FEW180 15/13 A3007 RMK AO2 SLP184 T01500128=
202308271253 METAR KSEA 271253Z 17005KT 10SM CLR 15/13 A3006 RMK AO2 SLP182 T01500128=
202308271153 METAR KSEA 271153Z 19005KT 10SM CLR 16/13 A3005 RMK AO2 SLP179 T01560128 10250 20156 53008=
202308271053 METAR KSEA 271053Z 18005KT 9SM CLR 17/13 A3004 RMK AO2 SLP176 T01670128=
202308270953 METAR KSEA 270953Z 17004KT 7SM CLR 17/11 A3003 RMK AO2 SLP174 T01720106=
202308270853 METAR KSEA 270853Z 17005KT 8SM CLR 18/11 A3003 RMK AO2 SLP171 T01780106 51010=
202308270753 METAR KSEA 270753Z 30003KT 8SM CLR 22/10 A3002 RMK AO2 SLP169 T02170100 403110150=
202308270653 METAR KSEA 270653Z 05006KT 8SM CLR 24/09 A3001 RMK AO2 SLP164 T02440089=
202308270553 METAR KSEA 270553Z 06007KT 8SM CLR 25/09 A3000 RMK AO2 SLP161 T02500094 10306 20233 51012=
202308270453 METAR KSEA 270453Z 01008KT 8SM CLR 24/09 A2999 RMK AO2 SLP159 T02440094=
202308270353 METAR KSEA 270353Z 34005KT 8SM BKN110 24/10 A2998 RMK AO2 SLP156 T02440100=
202308270253 METAR KSEA 270253Z 36005KT 6SM HZ SCT110 26/10 A2996 RMK AO2 SLP149 T02560100 53004=
202308270153 METAR KSEA 270153Z 36008KT 6SM HZ SCT120 28/10 A2995 RMK AO2 SLP145 T02780100=
202308270053 METAR KSEA 270053Z 34007KT 6SM HZ SCT120 29/11 A2995 RMK AO2 SLP145 T02940111=
202308262353 METAR KSEA 262353Z 34013KT 7SM SCT120 31/11 A2995 RMK AO2 SLP144 T03060106 10311 20244 58011=
202308262253 METAR KSEA 262253Z 35012KT 6SM HZ SCT120 31/11 A2996 RMK AO2 SLP147 T03060111=
202308262153 METAR KSEA 262153Z 35009KT 7SM SCT150 31/11 A2998 RMK AO2 SLP154 T03060111=
202308262053 METAR KSEA 262053Z 36010KT 7SM SCT150 29/12 A2998 RMK AO2 SLP156 T02890117 58013=
202308261953 METAR KSEA 261953Z 34008KT 7SM SCT140 28/12 A3000 RMK AO2 SLP162 T02780117=
202308261853 METAR KSEA 261853Z 01007KT 7SM FEW140 26/12 A3001 RMK AO2 SLP165 T02610122=
202308261753 METAR KSEA 261753Z 34007KT 7SM CLR 24/12 A3002 RMK AO2 SLP168 T02440122 10244 20150 58007=
202308261653 METAR KSEA 261653Z 36007KT 7SM SCT120 22/12 A3003 RMK AO2 SLP175 T02170122=
202308261553 METAR KSEA 261553Z 36005KT 7SM SCT120 19/12 A3004 RMK AO2 SLP177 T01890122=
202308261453 METAR KSEA 261453Z 36005KT 7SM FEW130 SCT250 17/12 A3004 RMK AO2 SLP176 T01720117 50002=
202308261353 METAR KSEA 261353Z 01005KT 7SM FEW130 FEW250 16/11 A3004 RMK AO2 SLP177 T01560111=
202308261253 METAR KSEA 261253Z 00000KT 7SM FEW130 FEW250 16/12 A3004 RMK AO2 SLP174 T01560117=
202308261153 METAR KSEA 261153Z 36004KT 7SM FEW200 16/12 A3003 RMK AO2 SLP173 70002 T01610117 10194 20156 53001=
202308261053 METAR KSEA 261053Z 00000KT 8SM SCT200 17/12 A3003 RMK AO2 SLP173 T01670117=
202308260953 METAR KSEA 260953Z 01004KT 8SM FEW200 18/12 A3003 RMK AO2 SLP172 T01780117=
202308260853 METAR KSEA 260853Z 01003KT 8SM CLR 18/12 A3003 RMK AO2 SLP172 T01780117 52006=
202308260753 METAR KSEA 260753Z 35006KT 8SM CLR 18/11 A3003 RMK AO2 SLP171 T01780106 403000161=
202308260653 METAR KSEA 260653Z 35006KT 9SM CLR 19/11 A3002 RMK AO2 SLP170 T01940111=
202308260553 METAR KSEA 260553Z 35008KT 9SM CLR 19/11 A3001 RMK AO2 SLP167 T01940111 10294 20194 51002=
202308260453 METAR KSEA 260453Z 36006KT 9SM CLR 20/11 A3001 RMK AO2 SLP167 T02000111=
202308260353 METAR KSEA 260353Z 36008KT 9SM CLR 21/11 A3001 RMK AO2 SLP167 T02110111=
202308260253 METAR KSEA 260253Z 36007KT 8SM FEW060 23/10 A3001 RMK AO2 SLP165 T02280100 52006=
202308260153 METAR KSEA 260153Z 34013KT 8SM FEW060 25/10 A3000 RMK AO2 SLP162 T02500100=
202308260053 METAR KSEA 260053Z 35013KT 10SM FEW060 FEW120 28/11 A2999 RMK AO2 SLP160 T02780111=
202308252353 METAR KSEA 252353Z 35011KT 10SM FEW060 SCT120 SCT200 29/11 A2999 RMK AO2 SLP158 60001 T02940111 10300 20172 55001=
202308252253 METAR KSEA 252253Z 35010KT 10SM FEW060 SCT120 BKN200 28/11 A2998 RMK AO2 SLP157 T02830106=
202308252153 METAR KSEA 252153Z 36011KT 10SM FEW110 28/12 A2998 RMK AO2 SLP156 T02830117=
202308252053 METAR KSEA 252053Z VRB05KT 10SM FEW110 27/13 A2999 RMK AO2 SLP159 60001 T02670133 56024=
202308251953 METAR KSEA 251953Z 03005KT 10SM FEW040 SCT070 BKN110 BKN200 25/13 A3001 RMK AO2 SLP164 T02500128=
202308251853 METAR KSEA 251853Z 34006KT 7SM FEW042 SCT065 BKN100 21/14 A3002 RMK AO2 RAE31 SLP171 P0001 T02060144=
202308251753 METAR KSEA 251753Z 09010KT 7SM -RA OVC100 17/13 A3006 RMK AO2 RAB01 SLP184 P0001 60001 T01720128 10183 20161 51027=
202308251653 METAR KSEA 251653Z 15004KT 10SM OVC100 17/12 A3006 RMK AO2 RAB06E47 SLP182 VCSH P0000 T01670117=
202308251553 METAR KSEA 251553Z 20008KT 10SM FEW080 BKN120 OVC160 17/11 A3005 RMK AO2 SLP179 T01670111=
202308251453 METAR KSEA 251453Z 04005KT 7SM FEW080 BKN120 OVC160 18/11 A2998 RMK AO2 SLP157 T01780106 53012=
202308251353 METAR KSEA 251353Z 02006KT 10SM FEW080 BKN120 BKN160 18/10 A2995 RMK AO2 SLP147 T01780100=
202308251253 METAR KSEA 251253Z 35008KT 10SM FEW080 SCT130 BKN160 17/11 A2994 RMK AO2 SLP142 T01720106=
202308251153 METAR KSEA 251153Z 35009KT 10SM SCT180 17/11 A2995 RMK AO2 SLP145 T01670106 10189 20161 55003=
202308251053 METAR KSEA 251053Z 35007KT 10SM SCT200 17/11 A2994 RMK AO2 SLP142 T01720106=
202308250953 METAR KSEA 250953Z 01012KT 10SM BKN210 18/11 A2994 RMK AO2 SLP143 T01830106=
202308250853 METAR KSEA 250853Z 03013KT 10SM BKN220 19/11 A2996 RMK AO2 SLP148 T01890106 50006=
202308250753 METAR KSEA 250753Z 03012KT 10SM SCT240 19/11 A2997 RMK AO2 SLP154 T01890106 402560133=
202308250653 METAR KSEA 250653Z 36013KT 10SM FEW200 18/10 A2997 RMK AO2 SLP153 T01830100=
202308250553 METAR KSEA 250553Z 02015KT 10SM CLR 19/10 A2994 RMK AO2 SLP142 T01890100 10250 20189 50000=
202308250453 METAR KSEA 250453Z 01016KT 10SM CLR 19/11 A2994 RMK AO2 SLP143 T01890106=
202308250353 METAR KSEA 250353Z 01013KT 10SM CLR 19/11 A2994 RMK AO2 SLP143 T01940106=
202308250253 METAR KSEA 250253Z 35011KT 10SM CLR 20/11 A2994 RMK AO2 SLP143 T02000106 56009=
202308250153 METAR KSEA 250153Z 35013KT 10SM CLR 23/11 A2994 RMK AO2 SLP143 T02280106=
202308250053 METAR KSEA 250053Z 34011KT 10SM CLR 24/11 A2995 RMK AO2 SLP147 T02440106=
202308242353 METAR KSEA 242353Z 35011KT 10SM CLR 25/10 A2996 RMK AO2 SLP151 T02500100 10256 20200 56022=
202308242253 METAR KSEA 242253Z 35011KT 10SM CLR 24/11 A2998 RMK AO2 SLP157 T02440106=
202308242153 METAR KSEA 242153Z 36012KT 10SM CLR 25/11 A3000 RMK AO2 SLP164 T02500111=
202308242053 METAR KSEA 242053Z 36011KT 10SM CLR 23/11 A3003 RMK AO2 SLP173 T02330106 58017=
202308241953 METAR KSEA 241953Z 36009G17KT 10SM CLR 22/11 A3005 RMK AO2 SLP180 T02220106=
202308241853 METAR KSEA 241853Z 35014KT 10SM CLR 21/11 A3007 RMK AO2 SLP185 T02110106=
202308241753 METAR KSEA 241753Z 36012G17KT 10SM CLR 20/11 A3008 RMK AO2 SLP191 T02000111 10200 20133 58005=
202308241653 METAR KSEA 241653Z 01012KT 10SM FEW015 18/11 A3009 RMK AO2 SLP195 T01780111=
202308241553 METAR KSEA 241553Z 02009KT 10SM FEW015 16/11 A3009 RMK AO2 SLP196 T01610111=
202308241453 METAR KSEA 241453Z 35008KT 10SM FEW015 14/12 A3010 RMK AO2 SLP196 T01440122 53000=
202308241353 METAR KSEA 241353Z 36006KT 10SM FEW030 13/12 A3010 RMK AO2 SLP197 T01330117=
202308241253 METAR KSEA 241253Z 01008KT 10SM CLR 14/11 A3009 RMK AO2 SLP194 T01390111=
202308241153 METAR KSEA 241153Z 02008KT 10SM CLR 14/12 A3009 RMK AO2 SLP195 7//// T01390117 10167 20139 56005=
202308241053 METAR KSEA 241053Z 02008KT 10SM CLR 14/11 A3010 RMK AO2 SLP197 T01440111=
202308240953 METAR KSEA 240953Z 02009KT 10SM CLR 15/11 A3010 RMK AO2 SLP197 T01500111=
202308240853 METAR KSEA 240853Z 01008KT 10SM CLR 16/11 A3011 RMK AO2 SLP200 T01560106 58003=
202308240753 METAR KSEA 240753Z 03008KT 10SM CLR 16/11 A3012 RMK AO2 SLP203 T01610111 402280139=
202308240653 METAR KSEA 240653Z 02009KT 10SM CLR 17/11 A3012 RMK AO2 SLP202 T01670106=
202308240553 METAR KSEA 240553Z 36007KT 10SM CLR 17/11 A3012 RMK AO2 SLP203 T01670106 10228 20161 50002=
202308240453 METAR KSEA 240453Z 02008KT 10SM CLR 17/11 A3012 RMK AO2 SLP205 T01720106=
202308240353 METAR KSEA 240353Z 36007KT 10SM FEW060 FEW250 17/10 A3012 RMK AO2 SLP204 T01720100=
202308240253 METAR KSEA 240253Z 35007KT 10SM FEW060 SCT250 19/09 A3011 RMK AO2 SLP202 T01890089 55003=
202308240153 METAR KSEA 240153Z 32007KT 10SM SCT070 21/09 A3011 RMK AO2 SLP200 T02110094=
202308240053 METAR KSEA 240053Z VRB04KT 10SM FEW035 SCT070 22/08 A3011 RMK AO2 SLP201 T02170083=
202308232353 METAR KSEA 232353Z 27007KT 10SM FEW035 SCT090 SCT250 22/08 A3012 RMK AO2 SLP205 T02220083 10222 20183 58009=
202308232253 METAR KSEA 232253Z 30006KT 10SM SCT035 SCT250 22/09 A3013 RMK AO2 SLP209 T02220094=
202308232153 METAR KSEA 232153Z 21007KT 10SM SCT030 SCT250 21/09 A3014 RMK AO2 SLP212 T02110089=
202308232053 METAR KSEA 232053Z 22005KT 10SM SCT030 BKN250 21/11 A3015 RMK AO2 SLP214 T02060106 58001=
202308231953 METAR KSEA 231953Z 21006KT 10SM SCT025 BKN250 19/11 A3016 RMK AO2 SLP217 T01940111=
202308231853 METAR KSEA 231853Z 21008KT 10SM SCT021 BKN250 19/11 A3016 RMK AO2 SLP217 T01890111 $=
202308231843 SPECI KSEA 231843Z 21008KT 10SM SCT021 BKN250 19/11 A3016 RMK AO2 T01890111 $=
202308231753 METAR KSEA 231753Z 21008KT 10SM SCT017 BKN025 BKN060 18/13 A3015 RMK AO2 SLP216 6//// T01830133 51008=
202308231653 METAR KSEA 231653Z 21005KT 10SM FEW009 SCT015 BKN025 16/14 A3015 RMK AO2 SLP215 T01560139 PNO $=
202308231553 METAR KSEA 231553Z 25005KT 10SM SCT009 BKN015 15/13 A3015 RMK AO2 SLP214 T01500128=
202308231519 SPECI KSEA 231519Z 21006KT 10SM SCT009 BKN015 BKN060 15/13 A3014 RMK AO2 T01500128=
202308231453 METAR KSEA 231453Z 19004KT 10SM SCT010 BKN060 BKN075 15/13 A3013 RMK AO2 SLP209 VCSH T01500133 51012=
202308231409 SPECI KSEA 231409Z 19003KT 7SM FEW003 SCT009 OVC055 14/13 A3013 RMK AO2 VCSH T01440128=
202308231353 METAR KSEA 231353Z 23005KT 7SM FEW003 BKN007 OVC030 14/13 A3013 RMK AO2 SLP207 T01390128=
202308231340 SPECI KSEA 231340Z 26006KT 7SM BKN007 OVC034 14/13 A3013 RMK AO2 T01440128=
202308231259 SPECI KSEA 231259Z 21008KT 10SM FEW009 SCT025 BKN070 14/13 A3011 RMK AO2 T01440128=
202308231253 METAR KSEA 231253Z 20007KT 10SM FEW021 BKN026 BKN060 14/13 A3011 RMK AO2 SLP199 T01440128=
202308231240 SPECI KSEA 231240Z 19006KT 10SM FEW021 BKN026 OVC060 14/13 A3010 RMK AO2 T01440133=
202308231153 METAR KSEA 231153Z 16003KT 10SM FEW014 SCT024 BKN055 14/13 A3010 RMK AO2 SLP195 60006 70006 T01390128 10161 20139 51007=
202308231146 SPECI KSEA 231146Z 17003KT 10SM FEW014 SCT024 BKN055 14/13 A3009 RMK AO2 T01440128=
202308231141 SPECI KSEA 231141Z 16004KT 10SM FEW014 BKN024 BKN055 14/13 A3009 RMK AO2 T01440128=
202308231101 SPECI KSEA 231101Z 15004KT 10SM BKN020 BKN024 OVC040 14/13 A3009 RMK AO2 T01440128=
202308231053 METAR KSEA 231053Z 15004KT 10SM SCT024 BKN040 OVC050 14/13 A3009 RMK AO2 RAE05 SLP194 P0000 T01440128=
202308230953 METAR KSEA 230953Z 20003KT 5SM RA BR BKN037 OVC046 14/13 A3008 RMK AO2 RAE0858B41 SLP191 P0004 T01440133=
202308230853 METAR KSEA 230853Z 18005KT 7SM -RA FEW035 SCT043 OVC055 15/13 A3007 RMK AO2 RAB0754E0755B48 SLP189 P0000 60002 T01500128 53004=
202308230753 METAR KSEA 230753Z 16003KT 10SM BKN048 OVC060 15/13 A3007 RMK AO2 RAB37E52 SLP187 P0002 T01500128 402220122=
202308230653 METAR KSEA 230653Z 19004KT 10SM BKN048 BKN060 OVC070 16/12 A3006 RMK AO2 RAE01 SLP185 P0000 T01610117=
202308230553 METAR KSEA 230553Z 16005KT 9SM -RA FEW060 BKN080 OVC100 16/12 A3006 RMK AO2 RAB47 SLP185 P0000 60000 T01560122 10206 20156 51011=
202308230453 METAR KSEA 230453Z 17005KT 10SM BKN075 BKN090 16/12 A3005 RMK AO2 RAE49 SLP182 P0000 T01610117=
202308230353 METAR KSEA 230353Z 20007KT 10SM -RA BKN075 16/12 A3004 RMK AO2 RAB53 SLP179 P0000 T01610117=
202308230253 METAR KSEA 230253Z 24009KT 10SM FEW040 BKN090 BKN200 18/10 A3003 RMK AO2 SLP174 VCSH T01780100 53006=
202308230153 METAR KSEA 230153Z 23008KT 210V270 10SM FEW040 BKN080 BKN200 20/09 A3001 RMK AO2 SLP168 T02000089=
202308230053 METAR KSEA 230053Z 23007KT 10SM FEW035 BKN085 21/09 A3001 RMK AO2 SLP168 T02060094=
202308222353 METAR KSEA 222353Z 24009KT 10SM FEW035 SCT070 BKN095 21/08 A3001 RMK AO2 SLP167 T02110083 10222 20172 58008=
202308222253 METAR KSEA 222253Z 24009KT 10SM FEW035 SCT090 21/08 A3002 RMK AO2 SLP170 T02060083=
202308222153 METAR KSEA 222153Z 20010G16KT 170V250 10SM FEW035 SCT080 SCT250 22/09 A3003 RMK AO2 SLP172 T02170089=
202308222053 METAR KSEA 222053Z 22008KT 190V260 10SM FEW035 FEW065 BKN085 BKN250 19/08 A3003 RMK AO2 SLP175 T01940083 58006=
202308221953 METAR KSEA 221953Z 23009G19KT 10SM SCT045 BKN085 20/09 A3005 RMK AO2 SLP180 T02000089=
202308221853 METAR KSEA 221853Z 22007KT 10SM FEW025 BKN042 BKN070 BKN250 19/09 A3005 RMK AO2 SLP180 T01890089=
202308221753 METAR KSEA 221753Z 28007KT 10SM FEW025 BKN036 BKN045 17/09 A3005 RMK AO2 SLP181 T01720094 10172 20122 51005=
202308221653 METAR KSEA 221653Z 21006KT 10SM SCT022 BKN032 16/09 A3005 RMK AO2 SLP180 T01560094=
202308221553 METAR KSEA 221553Z 21006KT 10SM BKN030 BKN038 BKN250 15/09 A3004 RMK AO2 SLP178 T01500094=
202308221453 METAR KSEA 221453Z VRB04KT 10SM SCT021 SCT035 BKN070 14/09 A3004 RMK AO2 SLP175 T01440094 51010=
202308221357 SPECI KSEA 221357Z 16007KT 10SM SCT019 BKN070 BKN250 12/09 A3004 RMK AO2 T01220089=
202308221355 SPECI KSEA 221355Z 16007KT 10SM BKN019 12/09 A3003 RMK AO2 T01220089=
202308221353 METAR KSEA 221353Z AUTO 17007KT 10SM SCT019 BKN070 BKN250 12/09 A3003 RMK AO2 SLP175 T01220089=
202308221344 SPECI KSEA 221344Z 18007KT 10SM SCT019 BKN070 BKN250 12/09 A3003 RMK AO2 T01220089=
202308221253 METAR KSEA 221253Z 16006KT 10SM BKN018 13/09 A3002 RMK AO2 SLP170 T01280089=
202308221248 SPECI KSEA 221248Z 16006KT 10SM BKN018 13/09 A3002 RMK AO2=
202308221153 METAR KSEA 221153Z 18007KT 10SM SCT014 SCT050 13/09 A3001 RMK AO2 SLP165 T01280089 10161 20128 51008=
202308221122 SPECI KSEA 221122Z 18008KT 10SM BKN014 13/09 A3000 RMK AO2 T01330089=
202308221053 METAR KSEA 221053Z 18008KT 10SM SCT060 13/08 A3000 RMK AO2 SLP163 T01330083=
202308220953 METAR KSEA 220953Z 18005KT 10SM SCT065 13/08 A2999 RMK AO2 SLP160 T01330078=
202308220853 METAR KSEA 220853Z 19006KT 10SM BKN070 14/09 A2998 RMK AO2 SLP158 T01390089 51010=
202308220753 METAR KSEA 220753Z 22003KT 10SM CLR 14/08 A2998 RMK AO2 SLP157 T01390083 402390117=
202308220653 METAR KSEA 220653Z 22006KT 10SM CLR 15/08 A2997 RMK AO2 SLP153 T01500083=
202308220553 METAR KSEA 220553Z 22007KT 10SM FEW060 SCT250 16/08 A2995 RMK AO2 SLP148 T01610083 10239 20156 51025=
202308220453 METAR KSEA 220453Z 00000KT 10SM FEW060 SCT250 16/09 A2994 RMK AO2 SLP142 T01610089=
202308220353 METAR KSEA 220353Z 30006KT 10SM FEW150 SCT250 17/09 A2991 RMK AO2 SLP134 T01720089=
202308220253 METAR KSEA 220253Z 25008KT 9SM SCT250 21/09 A2988 RMK AO2 SLP122 T02060094 53006=
202308220153 METAR KSEA 220153Z 22006KT 10SM SCT250 24/09 A2985 RMK AO2 SLP113 T02390089=
202308220053 METAR KSEA 220053Z 22006KT 6SM HZ FU FEW043 SCT250 24/08 A2985 RMK AO2 SLP114 FU FEW043 T02390083=
202308212353 METAR KSEA 212353Z 21004KT 6SM HZ FU SCT043 SCT250 24/08 A2986 RMK AO2 SLP115 FU SCT043 T02390083 10239 20161 58001=
202308212253 METAR KSEA 212253Z VRB03KT 8SM SCT250 23/10 A2986 RMK AO2 SLP117 T02280100=
202308212153 METAR KSEA 212153Z 28006KT 8SM BKN200 22/11 A2987 RMK AO2 SLP118 T02220106=
202308212053 METAR KSEA 212053Z 27005KT 8SM BKN200 21/11 A2986 RMK AO2 SLP116 T02060106 53002=
202308211953 METAR KSEA 211953Z 24004KT 7SM OVC190 19/11 A2985 RMK AO2 SLP113 T01890106 $=
202308211853 METAR KSEA 211853Z 20004KT 6SM HZ FU FEW015 OVC190 18/11 A2986 RMK AO2 SLP115 T01780106 $=
202308211753 METAR KSEA 211753Z 13004KT 6SM HZ FU FEW015 OVC250 17/11 A2986 RMK AO2 SLP114 T01670106 10167 20117 50001 $=
202308211653 METAR KSEA 211653Z 20005KT 7SM FEW010 SCT050 BKN250 15/11 A2986 RMK AO2 SLP116 FU SCT050 T01500106 $=
202308211553 METAR KSEA 211553Z VRB03KT 6SM HZ FU FEW005 BKN040 14/11 A2986 RMK AO2 SLP114 FU BKN040 T01390106 $=
202308211453 METAR KSEA 211453Z 22003KT 5SM HZ FU FEW003 BKN039 13/10 A2985 RMK AO2 SLP115 FU BKN039 T01280100 53006 $=
202308211405 SPECI KSEA 211405Z 00000KT 5SM BR FU FEW003 OVC038 12/10 A2985 RMK AO2 FU OVC038 T01220100 $=
202308211353 METAR KSEA 211353Z 22004KT 5SM BR FU OVC037 12/10 A2985 RMK AO2 SLP111 FU OVC037 T01220100 $=
202308211311 SPECI KSEA 211311Z 25003KT 7SM OVC037 12/10 A2984 RMK AO2 FU OVC037 T01220100 $=
202308211253 METAR KSEA 211253Z 28004KT 7SM OVC037 12/10 A2983 RMK AO2 SLP107 T01220100 $=
202308211153 METAR KSEA 211153Z 00000KT 7SM BKN037 13/10 A2984 RMK AO2 SLP107 FU BKN037 T01330100 10189 20133 51004 $=
202308211053 METAR KSEA 211053Z 29005KT 7SM OVC047 13/10 A2983 RMK AO2 SLP107 FU OVC047 T01330100 $=
202308210953 METAR KSEA 210953Z 00000KT 6SM FU OVC047 14/09 A2983 RMK AO2 SLP104 FU OVC047 T01390094 $=
202308210853 METAR KSEA 210853Z 30004KT 5SM FU OVC046 16/09 A2982 RMK AO2 SLP103 FU OVC046 T01560094 56005 $=
202308210753 METAR KSEA 210753Z 00000KT 5SM FU OVC044 16/09 A2983 RMK AO2 SLP104 FU OVC044 T01610094 402670144 $=
202308210653 METAR KSEA 210653Z 36005KT 5SM FU OVC044 19/09 A2983 RMK AO2 SLP106 FU OVC044 T01890089 $=
202308210553 METAR KSEA 210553Z 36005KT 5SM FU OVC046 18/08 A2984 RMK AO2 SLP108 FU OVC046 T01830083 10261 20183 50004 $=
202308210453 METAR KSEA 210453Z 35006KT 4SM HZ FU OVC044 19/09 A2984 RMK AO2 SLP109 T01890089 $=
202308210353 METAR KSEA 210353Z 01006KT 4SM HZ FU OVC039 21/08 A2983 RMK AO2 SLP106 T02110078 $=
202308210253 METAR KSEA 210253Z 32005KT 3SM HZ FU OVC034 22/06 A2983 RMK AO2 SLP104 T02170061 56004 $=
202308210153 METAR KSEA 210153Z 32007KT 3SM HZ FU OVC031 24/03 A2983 RMK AO2 SLP104 T02440033 $=
202308210053 METAR KSEA 210053Z 32007KT 3SM HZ FU SCT028 BKN035 25/04 A2983 RMK AO2 SLP104 T02500044=
202308202353 METAR KSEA 202353Z 34011KT 3SM HZ FU SCT028 BKN035 26/04 A2984 RMK AO2 SLP108 T02560044 10267 20206 56013=
202308202253 METAR KSEA 202253Z 33011KT 3SM HZ FU SCT028 BKN035 26/07 A2985 RMK AO2 SLP111 T02560067=
202308202153 METAR KSEA 202153Z 33010KT 3SM HZ FU SCT028 BKN035 26/06 A2986 RMK AO2 SLP115 T02610061=
202308202053 METAR KSEA 202053Z 30006KT 5SM HZ FU SCT028 BKN036 25/10 A2988 RMK AO2 SLP120 T02500100 57017=
202308201953 METAR KSEA 201953Z 27007KT 6SM HZ FU SCT035 BKN042 23/11 A2989 RMK AO2 SLP126 T02280111=
202308201853 METAR KSEA 201853Z 01005KT 5SM HZ FU SCT035 23/10 A2991 RMK AO2 SLP134 T02280100=
202308201753 METAR KSEA 201753Z 02006KT 5SM HZ FU BKN038 21/10 A2993 RMK AO2 SLP139 T02110100 10211 20144 58005=
202308201653 METAR KSEA 201653Z 36010KT 8SM SCT047 19/11 A2993 RMK AO2 SLP141 FU SCT047 T01940106=
202308201553 METAR KSEA 201553Z 03010KT 10SM FEW047 18/11 A2994 RMK AO2 SLP143 FU FEW049 T01830106=
202308201453 METAR KSEA 201453Z 02010KT 10SM SCT050 17/11 A2994 RMK AO2 SLP143 FU SCT050 T01670106 53007=
202308201353 METAR KSEA 201353Z 36005KT 10SM BKN050 15/11 A2993 RMK AO2 SLP141 FU BKN050 T01500106=
202308201253 METAR KSEA 201253Z 36003KT 10SM BKN050 14/09 A2993 RMK AO2 SLP138 FU BKN050 T01440094=
202308201153 METAR KSEA 201153Z 01004KT 10SM BKN060 15/09 A2992 RMK AO2 SLP136 FU BKN060 T01500089 10200 20150 58003=
202308201053 METAR KSEA 201053Z 06004KT 10SM BKN055 17/09 A2993 RMK AO2 SLP138 FU BKN055 T01720089=
202308200953 METAR KSEA 200953Z 02004KT 10SM BKN060 17/08 A2993 RMK AO2 SLP138 FU BKN060 T01720083=
202308200853 METAR KSEA 200853Z 03003KT 10SM OVC060 18/08 A2993 RMK AO2 SLP140 T01830078 50000=
202308200753 METAR KSEA 200753Z 03007KT 10SM OVC070 19/08 A2993 RMK AO2 SLP140 T01890078 402500111=
202308200653 METAR KSEA 200653Z 05007KT 10SM CLR 19/08 A2993 RMK AO2 SLP139 T01940078=
202308200553 METAR KSEA 200553Z 04011KT 10SM CLR 20/07 A2993 RMK AO2 SLP140 T02000072 10244 20194 51008=
202308200453 METAR KSEA 200453Z 03011KT 10SM CLR 21/07 A2993 RMK AO2 SLP139 T02060072=
202308200353 METAR KSEA 200353Z 02009KT 10SM CLR 21/08 A2992 RMK AO2 SLP135 T02060078=
202308200253 METAR KSEA 200253Z 35008KT 10SM CLR 21/09 A2991 RMK AO2 SLP131 T02060089 55002=
202308200153 METAR KSEA 200153Z 34009KT 10SM CLR 22/09 A2990 RMK AO2 SLP128 T02220089=
202308200053 METAR KSEA 200053Z 33011KT 10SM CLR 23/09 A2990 RMK AO2 SLP130 T02330089=
202308192353 METAR KSEA 192353Z 35010KT 10SM CLR 24/09 A2991 RMK AO2 SLP133 T02440094 10250 20200 56017=
202308192253 METAR KSEA 192253Z 34011KT 10SM CLR 24/09 A2993 RMK AO2 SLP138 T02440094=
202308192159 SPECI KSEA 192159Z 36009KT 10SM CLR 24/09 A2994 RMK AO2 T02390094=
202308192153 METAR KSEA 192153Z AUTO 01010KT 10SM CLR 24/09 A2994 RMK AO2 SLP143 T02390094=
202308192053 METAR KSEA 192053Z 34012G18KT 10SM CLR 24/10 A2996 RMK AO2 SLP150 T02390100 56012=
202308191953 METAR KSEA 191953Z 35011KT 10SM CLR 22/08 A2997 RMK AO2 SLP153 T02220083=
202308191853 METAR KSEA 191853Z 02009G18KT 10SM CLR 22/11 A2998 RMK AO2 SLP156 T02220106=
202308191753 METAR KSEA 191753Z 02007KT 10SM FEW015 20/10 A3000 RMK AO2 SLP162 FU FEW015 T02000100 10206 20111 58014=
202308191653 METAR KSEA 191653Z 34007KT 10SM FEW200 19/09 A3001 RMK AO2 SLP167 T01890094=
202308191553 METAR KSEA 191553Z 03007KT 10SM FEW200 17/09 A3002 RMK AO2 SLP171 T01720094=
202308191453 METAR KSEA 191453Z 29003KT 10SM FEW200 14/10 A3004 RMK AO2 SLP175 T01440100 53006=
202308191353 METAR KSEA 191353Z 13005KT 10SM FEW200 13/09 A3003 RMK AO2 SLP174 T01280094=
202308191253 METAR KSEA 191253Z 32004KT 10SM FEW250 12/09 A3002 RMK AO2 SLP169 T01170089=
202308191153 METAR KSEA 191153Z 00000KT 10SM CLR 13/09 A3002 RMK AO2 SLP170 T01330094 10167 20122 53003=
202308191053 METAR KSEA 191053Z 17004KT 10SM CLR 12/09 A3002 RMK AO2 SLP169 T01220094=
202308190953 METAR KSEA 190953Z 00000KT 10SM CLR 14/09 A3001 RMK AO2 SLP167 T01390094=
202308190853 METAR KSEA 190853Z 27003KT 10SM CLR 14/09 A3001 RMK AO2 SLP168 T01390094 53005=
202308190753 METAR KSEA 190753Z 30004KT 10SM CLR 15/09 A3001 RMK AO2 SLP166 T01500089 402390139=
202308190653 METAR KSEA 190653Z 28004KT 10SM CLR 15/11 A3000 RMK AO2 SLP164 T01500106=
202308190553 METAR KSEA 190553Z 23004KT 10SM CLR 17/10 A3000 RMK AO2 SLP162 T01670100 10239 20167 50011=
202308190453 METAR KSEA 190453Z 26003KT 10SM CLR 18/10 A3000 RMK AO2 SLP163 T01780100=
202308190353 METAR KSEA 190353Z 31004KT 10SM CLR 19/10 A2998 RMK AO2 SLP156 T01940100=
202308190253 METAR KSEA 190253Z 31004KT 10SM CLR 21/08 A2996 RMK AO2 SLP150 T02110083 53002=
202308190153 METAR KSEA 190153Z 29006KT 10SM CLR 23/10 A2996 RMK AO2 SLP148 T02280100=
202308190053 METAR KSEA 190053Z 24003KT 10SM CLR 23/09 A2995 RMK AO2 SLP146 T02330094=
202308182353 METAR KSEA 182353Z VRB03KT 10SM FEW035 23/09 A2996 RMK AO2 SLP149 T02280094 10233 20167 58006=
202308182253 METAR KSEA 182253Z VRB06KT 10SM CLR 22/09 A2997 RMK AO2 SLP151 T02220094=
202308182153 METAR KSEA 182153Z 27007KT 240V330 10SM FEW035 21/09 A2997 RMK AO2 SLP154 T02110094=
202308182053 METAR KSEA 182053Z VRB05KT 10SM FEW035 19/09 A2998 RMK AO2 SLP155 T01940094 51005=
202308181955 SPECI KSEA 181955Z 22006KT 10SM SCT031 SCT120 SCT250 19/09 A2998 RMK AO2 T01890094=
202308181953 METAR KSEA 181953Z 10SM SCT033 SCT120 SCT250 18/09 A2998 RMK AO2 SLP155 T01830094=
202308181908 SPECI KSEA 181908Z 26007KT 10SM BKN030 18/09 A2997 RMK AO2 T01830089=
202308181900 SPECI KSEA 181900Z 25009KT 10SM BKN028 17/09 A2997 RMK AO2 T01720089=
202308181853 METAR KSEA 181853Z 26008G17KT 10SM SCT026 BKN035 BKN250 18/09 A2997 RMK AO2 SLP154 T01830089=
202308181753 METAR KSEA 181753Z 22005KT 10SM SCT028 BKN033 17/09 A2996 RMK AO2 SLP150 T01720089 10172 20139 52019=
202308181653 METAR KSEA 181653Z 24008KT 10SM BKN022 BKN029 16/09 A2994 RMK AO2 SLP142 T01560094=
202308181553 METAR KSEA 181553Z 23007KT 10SM BKN022 OVC031 14/09 A2993 RMK AO2 SLP138 T01440089=
202308181453 METAR KSEA 181453Z 21009KT 10SM SCT017 BKN023 BKN031 14/09 A2991 RMK AO2 SLP131 T01440094 51011=
202308181448 SPECI KSEA 181448Z 21009KT 10SM SCT017 BKN023 BKN031 14/09 A2990 RMK AO2=
202308181410 SPECI KSEA 181410Z 21009KT 10SM SCT025 BKN031 BKN100 14/09 A2990 RMK AO2 T01390094=
202308181353 METAR KSEA 181353Z 21010KT 10SM FEW020 BKN025 14/09 A2989 RMK AO2 SLP125 T01390094=
202308181253 METAR KSEA 181253Z 21009KT 10SM FEW020 OVC027 14/09 A2987 RMK AO2 SLP119 T01440094=
202308181153 METAR KSEA 181153Z 20009KT 10SM OVC020 14/10 A2985 RMK AO2 SLP112 T01440100 10189 20144 51014=
202308181103 SPECI KSEA 181103Z 21007KT 10SM OVC015 15/11 A2985 RMK AO2 T01500106=
202308181053 METAR KSEA 181053Z 21007KT 10SM OVC014 15/11 A2984 RMK AO2 SLP109 T01500106=
202308180953 METAR KSEA 180953Z 21007KT 10SM BKN014 BKN027 16/12 A2983 RMK AO2 SLP104 T01560117=
202308180853 METAR KSEA 180853Z 21007KT 10SM BKN020 OVC024 16/12 A2981 RMK AO2 SLP098 T01610122 50013=
202308180753 METAR KSEA 180753Z 20007KT 10SM OVC016 17/13 A2981 RMK AO2 SLP099 T01670128 403280167=
202308180712 SPECI KSEA 180712Z 23007KT 10SM BKN015 17/13 A2981 RMK AO2 T01720128=
202308180653 METAR KSEA 180653Z 24007KT 10SM SCT012 17/13 A2980 RMK AO2 SLP096 T01720128=
202308180553 METAR KSEA 180553Z 22012KT 10SM FEW250 19/13 A2977 RMK AO2 SLP085 T01890133 10322 20189 51013=
202308180453 METAR KSEA 180453Z 24007KT 10SM FEW250 19/14 A2977 RMK AO2 SLP085 T01940139=
202308180353 METAR KSEA 180353Z 20008KT 10SM SCT250 21/14 A2976 RMK AO2 SLP082 T02060139=
202308180253 METAR KSEA 180253Z 20007KT 10SM SCT250 24/13 A2974 RMK AO2 SLP072 T02440133 55007=
202308180153 METAR KSEA 180153Z 23007KT 10SM BKN250 30/13 A2973 RMK AO2 SLP072 T03000128=
202308180053 METAR KSEA 180053Z 24009KT 10SM BKN250 32/14 A2974 RMK AO2 SLP073 T03170139=
202308172353 METAR KSEA 172353Z 25008KT 10SM BKN250 32/13 A2976 RMK AO2 SLP079 T03220133 10328 20250 58021=
202308172253 METAR KSEA 172253Z 20005KT 10SM BKN250 31/12 A2978 RMK AO2 SLP087 T03110122=
202308172153 METAR KSEA 172153Z 19007KT 10SM BKN250 31/13 A2981 RMK AO2 SLP095 T03110128=
202308172053 METAR KSEA 172053Z 25005KT 10SM SCT170 BKN250 30/12 A2982 RMK AO2 SLP101 T03000122 58007=
202308171953 METAR KSEA 171953Z VRB04KT 10SM SCT150 BKN250 28/13 A2983 RMK AO2 SLP103 T02830128=
202308171853 METAR KSEA 171853Z 27006KT 10SM FEW140 SCT250 26/13 A2984 RMK AO2 SLP108 T02610128=
202308171753 METAR KSEA 171753Z 29004KT 10SM FEW120 SCT250 25/14 A2984 RMK AO2 SLP109 T02500139 10250 20183 58005=
202308171653 METAR KSEA 171653Z 29006KT 10SM FEW120 SCT250 23/14 A2985 RMK AO2 SLP112 T02280139=
202308171553 METAR KSEA 171553Z 25003KT 10SM FEW050 FEW120 SCT250 22/14 A2986 RMK AO2 SLP114 T02170139=
202308171453 METAR KSEA 171453Z 00000KT 10SM SCT250 21/14 A2986 RMK AO2 SLP113 T02060139 55001=
202308171353 METAR KSEA 171353Z 00000KT 10SM FEW170 BKN250 19/14 A2986 RMK AO2 SLP112 T01890139=
202308171253 METAR KSEA 171253Z 00000KT 10SM FEW170 BKN250 19/14 A2986 RMK AO2 SLP112 T01890139=
202308171153 METAR KSEA 171153Z 00000KT 10SM BKN250 22/14 A2986 RMK AO2 SLP114 T02170139 10261 20194 56007=
202308171053 METAR KSEA 171053Z 00000KT 10SM SCT250 20/13 A2986 RMK AO2 SLP114 T02000133=
202308170953 METAR KSEA 170953Z 00000KT 10SM CLR 21/13 A2987 RMK AO2 SLP117 T02110133=
202308170853 METAR KSEA 170853Z 35003KT 10SM CLR 23/14 A2988 RMK AO2 SLP121 T02330139 58005=
202308170753 METAR KSEA 170753Z 35005KT 10SM CLR 23/13 A2989 RMK AO2 SLP124 T02330133 403500194=
202308170653 METAR KSEA 170653Z 33004KT 10SM CLR 24/13 A2989 RMK AO2 SLP125 T02440133=
202308170553 METAR KSEA 170553Z 36005KT 10SM CLR 25/13 A2990 RMK AO2 SLP126 T02500128 10344 20250 50001=
202308170453 METAR KSEA 170453Z 31005KT 10SM CLR 26/13 A2990 RMK AO2 SLP128 T02560133=
202308170353 METAR KSEA 170353Z 35007KT 10SM FEW250 28/13 A2989 RMK AO2 SLP125 T02780133=
202308170253 METAR KSEA 170253Z 35005KT 10SM FEW250 31/12 A2989 RMK AO2 SLP125 T03110117 55010=
202308170153 METAR KSEA 170153Z 36007KT 10SM SCT250 33/11 A2989 RMK AO2 SLP125 T03330111=
202308170053 METAR KSEA 170053Z 29007KT 10SM SCT250 34/12 A2990 RMK AO2 SLP128 T03390117=
202308162353 METAR KSEA 162353Z 29007KT 10SM FEW250 34/12 A2992 RMK AO2 SLP135 T03440117 10350 20272 58019=
202308162253 METAR KSEA 162253Z 29006KT 10SM FEW250 34/11 A2994 RMK AO2 SLP141 T03440111=
202308162153 METAR KSEA 162153Z 29007KT 10SM FEW250 33/12 A2996 RMK AO2 SLP149 T03330122=
202308162053 METAR KSEA 162053Z 29009KT 10SM CLR 32/14 A2998 RMK AO2 SLP154 T03170144 58014=
202308161953 METAR KSEA 161953Z 29007KT 10SM CLR 30/15 A2999 RMK AO2 SLP159 T03000150=
202308161853 METAR KSEA 161853Z 30007KT 10SM CLR 29/15 A3001 RMK AO2 SLP165 T02890150=
202308161753 METAR KSEA 161753Z 28006KT 10SM CLR 27/15 A3002 RMK AO2 SLP169 T02720150 10278 20194 58002=
202308161653 METAR KSEA 161653Z 02005KT 10SM CLR 27/14 A3003 RMK AO2 SLP172 T02720139=
202308161553 METAR KSEA 161553Z 28004KT 10SM CLR 24/15 A3004 RMK AO2 SLP173 T02440150=
202308161453 METAR KSEA 161453Z 29004KT 10SM FEW150 23/14 A3003 RMK AO2 SLP171 T02280144 53007=
202308161353 METAR KSEA 161353Z 36003KT 7SM FEW150 21/14 A3002 RMK AO2 SLP167 T02110139=
202308161253 METAR KSEA 161253Z 00000KT 10SM FEW150 20/14 A3001 RMK AO2 SLP165 T02000139=
202308161153 METAR KSEA 161153Z 00000KT 10SM CLR 22/14 A3001 RMK AO2 SLP163 T02170139 10267 20211 53004=
202308161053 METAR KSEA 161053Z 00000KT 10SM CLR 22/14 A3000 RMK AO2 SLP161 T02220144=
202308160953 METAR KSEA 160953Z 08003KT 10SM CLR 24/14 A2999 RMK AO2 SLP159 T02390139=
202308160853 METAR KSEA 160853Z 00000KT 10SM CLR 24/12 A2999 RMK AO2 SLP159 T02440122 51003=
202308160753 METAR KSEA 160753Z 31003KT 10SM CLR 23/13 A2999 RMK AO2 SLP158 T02330128 403500200=
202308160653 METAR KSEA 160653Z 31003KT 10SM CLR 26/12 A2999 RMK AO2 SLP158 T02560122=
202308160553 METAR KSEA 160553Z 30003KT 10SM CLR 27/13 A2999 RMK AO2 SLP156 T02670128 10350 20267 51009=
202308160453 METAR KSEA 160453Z 01007KT 10SM CLR 28/12 A2998 RMK AO2 SLP156 T02830122=
202308160353 METAR KSEA 160353Z 36007KT 10SM FEW250 29/13 A2997 RMK AO2 SLP152 T02940128=
202308160253 METAR KSEA 160253Z 36007KT 10SM FEW250 32/13 A2996 RMK AO2 SLP147 T03170128 55005=
202308160153 METAR KSEA 160153Z VRB05KT 10SM FEW250 33/13 A2995 RMK AO2 SLP145 T03330133=
202308160053 METAR KSEA 160053Z 35009KT 10SM FEW250 34/12 A2996 RMK AO2 SLP148 T03440122 $=
202308152353 METAR KSEA 152353Z 36012KT 10SM FEW250 34/12 A2997 RMK AO2 SLP152 T03440122 10350 20278 57010 $=
202308152253 METAR KSEA 152253Z 34008KT 10SM FEW250 35/13 A2998 RMK AO2 SLP155 T03500133 $=
202308152153 METAR KSEA 152153Z 28008KT 10SM CLR 33/14 A2999 RMK AO2 SLP159 T03330139 $=
202308152053 METAR KSEA 152053Z 29006KT 10SM CLR 31/15 A3000 RMK AO2 SLP162 T03110150 $=
202308151953 METAR KSEA 151953Z 31006KT 10SM CLR 30/15 A3001 RMK AO2 SLP166 T03000150 $=
202308151853 METAR KSEA 151853Z 30007KT 10SM CLR 29/14 A3002 RMK AO2 SLP168 T02940144 $=
202308151801 SPECI KSEA 151801Z 01004KT 10SM CLR 29/14 A3002 RMK AO2 T02890144 $=
202308151753 METAR KSEA 151753Z AUTO VRB03KT 10SM CLR 28/15 RMK AO2 SLPNO T02780150 10283 20200 $=
202308151653 METAR KSEA 151653Z 36005KT 10SM CLR 26/17 A3002 RMK AO2 SLPNO T02610167=
202308151553 METAR KSEA 151553Z 02006KT 10SM CLR 25/14 A3001 RMK AO2 SLP164 T02500144 $=
202308151453 METAR KSEA 151453Z 36007KT 10SM CLR 23/14 A3000 RMK AO2 SLP161 T02330144 51067 $=
202308151353 METAR KSEA 151353Z 35005KT 10SM CLR 21/14 A2999 RMK AO2 SLP158 T02060144 $=
202308151253 METAR KSEA 151253Z 33003KT 10SM CLR 21/14 A2998 RMK AO2 SLP154 T02060139 $=
202308151153 METAR KSEA 151153Z 34004KT 10SM CLR 21/13 A2980 RMK AO2 SLP092 T02110133 10272 20211 58057 $=
202308151053 METAR KSEA 151053Z 04008KT 10SM CLR 24/13 A2997 RMK AO2 SLP151 T02390133 $=
202308150953 METAR KSEA 150953Z 02008KT 10SM CLR 25/13 A2997 RMK AO2 SLPNO T02500133 $=
202308150853 METAR KSEA 150853Z 03010KT 10SM CLR 26/13 A2997 RMK AO2 SLPNO T02560133 53003 $=
202308150753 METAR KSEA 150753Z 04009KT 10SM CLR 26/13 A2996 RMK AO2 SLP148 T02610133 403440217 $=
202308150653 METAR KSEA 150653Z 05010KT 10SM CLR 26/13 A2996 RMK AO2 SLP148 T02610133 $=
202308150553 METAR KSEA 150553Z 04010KT 10SM CLR 27/13 A2996 RMK AO2 SLP148 T02720128 10344 20261 51013 $=
202308150453 METAR KSEA 150453Z 02007KT 10SM CLR 28/12 A2996 RMK AO2 SLP148 T02780122 $=
202308150353 METAR KSEA 150353Z 35008KT 10SM CLR 27/14 A2994 RMK AO2 SLP141 T02720139 $=
202308150253 METAR KSEA 150253Z 36007KT 10SM CLR 30/13 A2992 RMK AO2 SLP134 T03000133 57007 $=
202308150153 METAR KSEA 150153Z 01010KT 10SM CLR 33/13 A2992 RMK AO2 SLP134 T03280128 $=
202308150053 METAR KSEA 150053Z 36011KT 10SM CLR 34/13 A2994 RMK AO2 SLP140 T03390128 $=
202308142353 METAR KSEA 142353Z 01011KT 10SM CLR 34/14 A2994 RMK AO2 SLP140 T03390139 10344 20217 $=
202308142253 METAR KSEA 142253Z 35015KT 10SM CLR 33/14 A2995 RMK AO2 SLP144 T03330144 $=
202308142153 METAR KSEA 142153Z 35016KT 10SM CLR 33/16 A2997 RMK AO2 SLPNO T03280161=
202308142053 METAR KSEA 142053Z 35015G19KT 10SM CLR 32/17 A2999 RMK AO2 SLPNO T03220167=
202308141953 METAR KSEA 141953Z 03011KT 10SM CLR 31/17 A3001 RMK AO2 SLPNO T03110172=
202308141853 METAR KSEA 141853Z 01008KT 10SM CLR 29/17 A3002 RMK AO2 SLPNO T02890167=
202308141753 METAR KSEA 141753Z 36010KT 10SM CLR 27/17 A3004 RMK AO2 SLPNO T02670172=
202308141653 METAR KSEA 141653Z 03010KT 10SM CLR 24/17 A3004 RMK AO2 SLP175 T02440172 $=
202308141553 METAR KSEA 141553Z 02012KT 10SM CLR 23/15 A3005 RMK AO2 SLP177 T02330150 $=
202308141453 METAR KSEA 141453Z 02010KT 10SM CLR 22/15 A3005 RMK AO2 SLP178 T02220150 51008 $=
202308141353 METAR KSEA 141353Z 03011KT 10SM FEW250 22/14 A3005 RMK AO2 SLP176 T02170144 $=
202308141253 METAR KSEA 141253Z 03009KT 10SM FEW250 22/14 A3003 RMK AO2 SLP172 T02170139 $=
202308141153 METAR KSEA 141153Z 04009KT 10SM CLR 22/13 A3003 RMK AO2 SLP170 T02220133 10267 20222 57002 $=
202308141053 METAR KSEA 141053Z 03007KT 10SM CLR 23/13 A3003 RMK AO2 SLP170 T02280128 $=
202308140953 METAR KSEA 140953Z 04006KT 10SM CLR 23/13 A3003 RMK AO2 SLP171 T02330128 $=
202308140853 METAR KSEA 140853Z 04006KT 10SM CLR 24/12 A3003 RMK AO2 SLP171 T02390122 56005 $=
202308140753 METAR KSEA 140753Z 01007KT 10SM CLR 24/12 A3003 RMK AO2 SLP172 T02390117 403170172 $=
202308140653 METAR KSEA 140653Z 01009KT 10SM CLR 25/12 A3004 RMK AO2 SLP174 T02500117 $=
202308140553 METAR KSEA 140553Z 02009KT 10SM CLR 27/12 A3005 RMK AO2 SLP177 T02670117 10317 20267 52005 $=
202308140453 METAR KSEA 140453Z 04012KT 10SM CLR 27/12 A3004 RMK AO2 SLP175 T02720122 $=
202308140356 SPECI KSEA 140356Z 03008KT 10SM CLR 28/13 A3003 RMK AO2 T02780128 $=
202308140353 METAR KSEA 140353Z 03008KT 020V100 10SM CLR 28/12 A3003 RMK AO2 SLP174 T02780122 $=
202308140253 METAR KSEA 140253Z 01011KT 10SM CLR 29/13 A3003 RMK AO2 SLP173 T02890128 56012 $=
202308140153 METAR KSEA 140153Z 36009KT 10SM CLR 31/14 A3003 RMK AO2 SLP174 T03060144 $=
202308140053 METAR KSEA 140053Z 01009KT 10SM FEW250 31/14 A3005 RMK AO2 SLP178 T03110139 $=
202308132353 METAR KSEA 132353Z 36010G15KT 10SM SCT250 31/14 A3007 RMK AO2 SLP184 T03110139 10311 20250 56019 $=
202308132253 METAR KSEA 132253Z 35008G17KT 10SM FEW250 31/14 A3008 RMK AO2 SLP189 T03060144 $=
202308132153 METAR KSEA 132153Z 35012KT 10SM FEW250 31/14 A3010 RMK AO2 SLP196 T03060144 $=
202308132053 METAR KSEA 132053Z 35012G16KT 10SM FEW250 30/14 A3012 RMK AO2 SLP203 T03000144 58012 $=
202308131953 METAR KSEA 131953Z 35012KT 7SM FEW250 28/14 A3013 RMK AO2 SLP207 T02830144 $=
202308131853 METAR KSEA 131853Z 35008KT 10SM FEW250 26/14 A3015 RMK AO2 SLP213 T02610144 $=
202308131753 METAR KSEA 131753Z 01010KT 10SM FEW250 25/14 A3016 RMK AO2 SLP216 T02500139 10256 20172 58006 $=
202308131653 METAR KSEA 131653Z 02009KT 10SM FEW250 23/13 A3017 RMK AO2 SLP220 T02330133 $=
202308131553 METAR KSEA 131553Z 01010KT 10SM FEW030 FEW250 21/13 A3018 RMK AO2 SLP222 T02110133 $=
202308131453 METAR KSEA 131453Z 04006KT 10SM FEW025 FEW250 20/13 A3018 RMK AO2 SLP222 T02000128 53002 $=
202308131353 METAR KSEA 131353Z 05007KT 10SM FEW250 18/12 A3017 RMK AO2 SLP219 T01830122 $=
202308131253 METAR KSEA 131253Z 03007KT 10SM FEW250 18/12 A3017 RMK AO2 SLP218 T01780122 $=
202308131153 METAR KSEA 131153Z 02005KT 10SM CLR 18/12 A3017 RMK AO2 SLP220 T01830122 10217 20183 50000 $=
202308131053 METAR KSEA 131053Z 04008KT 10SM CLR 18/12 A3018 RMK AO2 SLP222 T01830122 $=
202308130953 METAR KSEA 130953Z 03006KT 10SM CLR 19/12 A3018 RMK AO2 SLP222 T01890122 $=
202308130853 METAR KSEA 130853Z 04013KT 10SM CLR 19/12 A3017 RMK AO2 SLP220 T01940122 50001 $=
202308130753 METAR KSEA 130753Z 03011KT 10SM CLR 20/12 A3018 RMK AO2 SLP223 T02000122 402780172 $=
202308130653 METAR KSEA 130653Z 02010KT 10SM CLR 21/12 A3017 RMK AO2 SLP221 T02060117 $=
202308130553 METAR KSEA 130553Z 03010KT 10SM FEW250 22/12 A3017 RMK AO2 SLP219 T02170122 10278 20217 53003 $=
202308130453 METAR KSEA 130453Z 02010KT 10SM FEW250 22/12 A3016 RMK AO2 SLP218 T02220122 $=
202308130353 METAR KSEA 130353Z 01009KT 10SM FEW180 FEW250 22/12 A3016 RMK AO2 SLP218 T02220122 $=
202308130253 METAR KSEA 130253Z 35007KT 10SM FEW180 SCT250 24/12 A3016 RMK AO2 SLP216 T02390122 56005 $=
202308130153 METAR KSEA 130153Z 35013KT 10SM FEW040 FEW180 SCT250 26/12 A3016 RMK AO2 SLP217 T02560117 $=
202308130053 METAR KSEA 130053Z 34013KT 10SM FEW180 SCT250 27/12 A3017 RMK AO2 SLP219 T02670122 $=
202308122353 METAR KSEA 122353Z 36013KT 10SM FEW040 FEW180 SCT250 27/12 A3018 RMK AO2 SLP222 T02720122 10278 20222 56007 $=
202308122253 METAR KSEA 122253Z 35012G18KT 10SM FEW040 FEW180 SCT250 27/11 A3018 RMK AO2 SLP223 T02720111 $=
202308122153 METAR KSEA 122153Z 32009KT 10SM FEW035 FEW250 27/11 A3019 RMK AO2 SLP227 T02720111 $=
202308122053 METAR KSEA 122053Z 36009KT 10SM FEW030 SCT250 26/11 A3020 RMK AO2 SLP229 T02610111 57003 $=
202308121953 METAR KSEA 121953Z 36011KT 10SM FEW030 SCT250 26/11 A3020 RMK AO2 SLP230 T02560111 $=
202308121853 METAR KSEA 121853Z 31008KT 10SM SCT250 23/12 A3020 RMK AO2 SLP230 T02330122 $=
202308121753 METAR KSEA 121753Z 02008KT 10SM BKN250 22/12 A3020 RMK AO2 SLP232 T02220117 10228 20172 51005 $=
202308121653 METAR KSEA 121653Z 35007KT 10SM BKN250 22/12 A3020 RMK AO2 SLP231 T02170117 $=
202308121553 METAR KSEA 121553Z 02007KT 10SM BKN250 20/12 A3020 RMK AO2 SLP231 T02000117 $=
202308121453 METAR KSEA 121453Z 02008KT 10SM BKN250 19/11 A3019 RMK AO2 SLP226 T01890111 53010 $=
202308121353 METAR KSEA 121353Z 03008KT 10SM BKN250 18/11 A3018 RMK AO2 SLP223 T01780111 $=
202308121253 METAR KSEA 121253Z 05004KT 10SM BKN250 18/11 A3017 RMK AO2 SLP219 T01780111 $=
202308121153 METAR KSEA 121153Z 04005KT 10SM BKN250 17/11 A3016 RMK AO2 SLP216 T01720111 10206 20172 51006 $=
202308121053 METAR KSEA 121053Z 04007KT 10SM FEW150 BKN250 18/12 A3015 RMK AO2 SLP214 T01780117 $=
202308120953 METAR KSEA 120953Z 05005KT 10SM SCT250 18/12 A3015 RMK AO2 SLP213 T01780117 $=
202308120853 METAR KSEA 120853Z 03010KT 10SM CLR 18/11 A3014 RMK AO2 SLP210 T01780111 51009 $=
202308120753 METAR KSEA 120753Z 04011KT 10SM FEW250 18/11 A3013 RMK AO2 SLP207 T01830111 402610150 $=
202308120653 METAR KSEA 120653Z 04009KT 10SM SCT250 19/11 A3012 RMK AO2 SLP204 T01940111 $=
202308120553 METAR KSEA 120553Z 03012KT 10SM BKN250 21/11 A3011 RMK AO2 SLP201 T02060111 10261 20206 53013 $=
202308120453 METAR KSEA 120453Z 02009KT 10SM FEW120 SCT220 21/11 A3010 RMK AO2 SLP198 T02110111 $=
202308120353 METAR KSEA 120353Z 36007KT 10SM FEW120 SCT250 22/11 A3008 RMK AO2 SLP191 T02170106 $=
202308120253 METAR KSEA 120253Z 36009KT 10SM FEW050 FEW130 SCT250 24/10 A3007 RMK AO2 SLP188 T02390100 53001 $=
202308120153 METAR KSEA 120153Z 29007KT 10SM FEW150 SCT250 24/11 A3007 RMK AO2 SLP186 T02440106 $=
202308120053 METAR KSEA 120053Z 33006KT 10SM FEW040 FEW150 SCT250 26/11 A3007 RMK AO2 SLP186 T02560106 $=
202308112353 METAR KSEA 112353Z 34007KT 10SM FEW050 FEW150 SCT220 26/10 A3007 RMK AO2 SLP187 T02560100 10261 20200 58004 $=
202308112253 METAR KSEA 112253Z VRB06KT 10SM FEW045 FEW150 SCT220 25/09 A3008 RMK AO2 SLP189 T02500094 $=
202308112153 METAR KSEA 112153Z 24008KT 10SM FEW045 FEW150 SCT220 24/10 A3008 RMK AO2 SLP189 T02440100 $=
202308112053 METAR KSEA 112053Z VRB05KT 10SM FEW035 SCT055 SCT200 24/10 A3008 RMK AO2 SLP191 T02390100 56000 $=
202308111953 METAR KSEA 111953Z 28007KT 10SM FEW030 SCT055 23/12 A3009 RMK AO2 SLP192 T02330117 $=
202308111853 METAR KSEA 111853Z 27006KT 10SM FEW030 FEW050 22/12 A3008 RMK AO2 SLP190 T02220122 $=
202308111753 METAR KSEA 111753Z 28006KT 10SM BKN050 20/12 A3008 RMK AO2 SLP192 T02000117 10211 20150 51007 $=
202308111653 METAR KSEA 111653Z 29003KT 10SM BKN050 19/12 A3008 RMK AO2 SLP190 T01890122 $=
202308111553 METAR KSEA 111553Z 00000KT 10SM BKN050 17/12 A3007 RMK AO2 SLP188 T01720117 $=
202308111453 METAR KSEA 111453Z 28003KT 10SM BKN046 BKN050 16/11 A3006 RMK AO2 SLP184 T01610111 53010 $=
202308111353 METAR KSEA 111353Z 00000KT 10SM BKN044 BKN050 16/12 A3005 RMK AO2 SLP180 T01560117 $=
202308111253 METAR KSEA 111253Z 16003KT 10SM OVC044 16/12 A3004 RMK AO2 SLP178 T01560117 $=
202308111153 METAR KSEA 111153Z 07003KT 10SM BKN044 16/12 A3003 RMK AO2 SLP174 T01560117 10189 20156 51005 $=
202308111053 METAR KSEA 111053Z 05005KT 10SM BKN044 16/11 A3003 RMK AO2 SLP173 T01610111 $=
202308110953 METAR KSEA 110953Z 03008KT 10SM SCT030 16/11 A3002 RMK AO2 SLP171 T01610111 $=
202308110853 METAR KSEA 110853Z 02006KT 10SM CLR 17/11 A3002 RMK AO2 SLP169 T01670111 51001 $=
202308110753 METAR KSEA 110753Z 01008KT 10SM CLR 17/11 A3002 RMK AO2 SLP169 T01720111 402330156 $=
202308110653 METAR KSEA 110653Z 02006KT 10SM CLR 18/11 A3002 RMK AO2 SLP168 T01830111 $=
202308110553 METAR KSEA 110553Z 01008KT 10SM CLR 18/11 A3001 RMK AO2 SLP168 T01830111 10233 20183 51001 $=
202308110453 METAR KSEA 110453Z 01007KT 10SM FEW060 19/11 A3001 RMK AO2 SLP168 T01890111 $=
202308110353 METAR KSEA 110353Z 36007KT 10SM SCT060 19/11 A3002 RMK AO2 SLP169 T01890106 $=
202308110253 METAR KSEA 110253Z 33005KT 10SM FEW045 SCT065 20/09 A3001 RMK AO2 SLP167 T02000094 56006 $=
202308110153 METAR KSEA 110153Z 33008KT 10SM FEW045 SCT065 22/10 A3001 RMK AO2 SLP168 T02170100 $=
202308110053 METAR KSEA 110053Z 31006KT 10SM FEW045 BKN060 23/11 A3002 RMK AO2 SLP171 T02280106 $=
202308102353 METAR KSEA 102353Z 01004KT 10SM FEW040 BKN060 22/11 A3003 RMK AO2 SLP173 T02220106 10233 20189 56005 $=
202308102253 METAR KSEA 102253Z 31005KT 10SM BKN043 OVC055 22/11 A3003 RMK AO2 SLP174 T02170111 $=
202308102153 METAR KSEA 102153Z 00000KT 10SM FEW036 OVC060 22/11 A3004 RMK AO2 SLP176 T02220106 $=
202308102053 METAR KSEA 102053Z 00000KT 10SM SCT033 BKN049 21/11 A3005 RMK AO2 SLP178 T02110111 53003 $=
202308101953 METAR KSEA 101953Z 22004KT 10SM SCT030 BKN050 20/12 A3004 RMK AO2 SLP177 T02000117 $=
202308101853 METAR KSEA 101853Z 23006KT 10SM SCT037 BKN055 19/12 A3004 RMK AO2 SLP176 T01940117 $=
202308101753 METAR KSEA 101753Z 25005KT 10SM SCT029 BKN038 BKN055 19/12 A3004 RMK AO2 SLP175 T01890117 10194 20156 51010 $=
202308101653 METAR KSEA 101653Z 25006KT 10SM SCT027 BKN041 19/12 A3003 RMK AO2 SLP172 T01890117 $=
202308101553 METAR KSEA 101553Z 29004KT 10SM FEW025 SCT050 SCT080 17/12 A3003 RMK AO2 SLP172 T01670117 $=
202308101453 METAR KSEA 101453Z 18004KT 10SM FEW015 FEW038 BKN055 16/11 A3001 RMK AO2 SLP165 T01610111 53005 $=
202308101353 METAR KSEA 101353Z 15005KT 10SM BKN055 BKN070 16/11 A3000 RMK AO2 SLP162 T01560111 $=
202308101253 METAR KSEA 101253Z 15006KT 10SM OVC040 16/11 A3000 RMK AO2 SLP162 T01560111 $=
202308101153 METAR KSEA 101153Z 13005KT 10SM OVC037 16/11 A2999 RMK AO2 SLP160 T01610111 10183 20156 51007 $=
202308101053 METAR KSEA 101053Z 17005KT 10SM OVC036 16/11 A2999 RMK AO2 SLP158 T01560106 $=
202308100953 METAR KSEA 100953Z 00000KT 10SM OVC030 17/11 A2998 RMK AO2 SLP156 T01670106 $=
202308100853 METAR KSEA 100853Z 00000KT 10SM SCT043 16/11 A2997 RMK AO2 SLP153 T01610106 51007 $=
202308100753 METAR KSEA 100753Z 24003KT 10SM BKN046 17/11 A2997 RMK AO2 SLP153 T01670106 402500156 $=
202308100653 METAR KSEA 100653Z 21007KT 10SM BKN041 18/11 A2996 RMK AO2 SLP149 T01780106 $=
202308100553 METAR KSEA 100553Z 22005KT 10SM BKN045 18/11 A2995 RMK AO2 SLP146 T01830106 10250 20183 51010 $=
202308100453 METAR KSEA 100453Z 26003KT 10SM BKN048 19/11 A2995 RMK AO2 SLP146 T01890111 $=
202308100353 METAR KSEA 100353Z 00000KT 10SM OVC039 19/12 A2994 RMK AO2 SLP141 T01890117 $=
202308100253 METAR KSEA 100253Z 30005KT 10SM FEW030 SCT055 SCT200 19/12 A2992 RMK AO2 SLP136 T01940122 53007 $=
202308100153 METAR KSEA 100153Z 22014KT 10SM FEW030 FEW060 SCT200 23/12 A2990 RMK AO2 SLP130 T02280117 $=
202308100053 METAR KSEA 100053Z 22014G20KT 10SM FEW025 FEW055 SCT200 24/13 A2990 RMK AO2 SLP128 T02390133 $=
202308092353 METAR KSEA 092353Z 21013KT 10SM SCT030 SCT200 24/14 A2990 RMK AO2 SLP129 T02440144 10250 20172 58006 $=
202308092253 METAR KSEA 092253Z 21012G23KT 10SM FEW030 FEW060 SCT200 25/15 A2991 RMK AO2 SLP133 T02500150 $=
202308092153 METAR KSEA 092153Z 21014G20KT 10SM FEW025 SCT060 SCT200 24/16 A2992 RMK AO2 SLP134 T02440156 $=
202308092053 METAR KSEA 092053Z 22017G24KT 10SM SCT021 BKN070 24/15 A2992 RMK AO2 SLP136 T02390150 58002 $=
202308092025 SPECI KSEA 092025Z 23013G21KT 10SM SCT021 BKN040 BKN070 23/15 A2992 RMK AO2 T02280150 $=
202308091953 METAR KSEA 091953Z 20007KT 10SM FEW008 BKN017 22/15 A2992 RMK AO2 SLP138 T02220150 $=
202308091903 SPECI KSEA 091903Z 14009KT 10SM SCT008 OVC015 19/16 A2993 RMK AO2 T01940156 $=
202308091900 SPECI KSEA 091900Z 14009KT 10SM BKN011 OVC016 19/15 A2993 RMK AO2 T01940150 $=
202308091853 METAR KSEA 091853Z 14009KT 10SM BKN008 OVC018 19/16 A2993 RMK AO2 SLP139 T01890156 $=
202308091753 METAR KSEA 091753Z 16008KT 10SM BKN007 OVC013 17/16 A2993 RMK AO2 SLP138 RAE32 P0000 60000 T01720156 10178 20156 50003 $=
202308091720 SPECI KSEA 091720Z 17008KT 6SM -RA BR FEW007 OVC013 17/15 A2993 RMK AO2 PCPN VRY LGT P0000 T01720150 $=
202308091659 SPECI KSEA 091659Z 19010KT 6SM -RA BKN013 OVC025 17/14 A2993 RMK AO2 P0000 T01720144 $=
202308091653 METAR KSEA 091653Z 19010KT 6SM -RA BKN015 OVC042 18/14 A2993 RMK AO2 RAB40 SLP139 P0000 T01780139 $=
202308091640 SPECI KSEA 091640Z 19010KT 9SM -RA BKN015 OVC042 18/14 A2993 RMK AO2 RAB40 P0000 T01780139 $=
202308091553 METAR KSEA 091553Z 16009KT 10SM SCT017 OVC044 17/13 A2992 RMK AO2 SLP137 T01720133 $=
202308091531 SPECI KSEA 091531Z 15008KT 10SM SCT016 OVC046 17/13 A2992 RMK AO2 T01720133 $=
202308091453 METAR KSEA 091453Z 14008KT 10SM OVC013 17/13 A2992 RMK AO2 RAB13E23 SLP135 P0000 60000 T01670133 51007 $=
202308091406 SPECI KSEA 091406Z 16006KT 10SM OVC013 17/13 A2992 RMK AO2 T01670133 $=
202308091353 METAR KSEA 091353Z 16006KT 10SM SCT013 BKN055 OVC090 17/13 A2992 RMK AO2 SLP135 T01670128=
202308091253 METAR KSEA 091253Z 17006KT 10SM SCT055 OVC085 16/13 A2990 RMK AO2 SLP130 T01610133=
202308091153 METAR KSEA 091153Z 19007KT 10SM BKN100 OVC120 16/13 A2990 RMK AO2 RAE05 SLP128 P0000 60000 T01610133 10200 20156 55002=
202308091053 METAR KSEA 091053Z 18004KT 10SM -RA FEW026 BKN120 16/13 A2989 RMK AO2 RAB52 SLP126 P0000 T01560128=
202308090953 METAR KSEA 090953Z 20003KT 10SM BKN150 16/12 A2989 RMK AO2 SLP126 T01610122=
202308090853 METAR KSEA 090853Z 00000KT 10SM SCT200 16/12 A2990 RMK AO2 SLP130 T01560122 58006=
202308090753 METAR KSEA 090753Z 01003KT 10SM CLR 18/12 A2991 RMK AO2 SLP132 T01780117 402610156=
202308090653 METAR KSEA 090653Z 35005KT 10SM CLR 18/12 A2992 RMK AO2 SLP136 T01830117=
202308090553 METAR KSEA 090553Z 02008KT 10SM FEW090 SCT150 21/12 A2992 RMK AO2 SLP136 T02060122 10261 20200 58002=
202308090453 METAR KSEA 090453Z 35008KT 10SM FEW090 BKN140 21/14 A2993 RMK AO2 SLP138 T02060139=
202308090353 METAR KSEA 090353Z 36008KT 10SM FEW040 FEW090 SCT140 SCT200 22/14 A2992 RMK AO2 SLP137 T02170139=
202308090253 METAR KSEA 090253Z 35007KT 10SM FEW040 FEW130 SCT200 24/13 A2993 RMK AO2 SLP138 T02390133 55008=
202308090153 METAR KSEA 090153Z 31005KT 10SM FEW035 FEW100 SCT200 26/13 A2992 RMK AO2 SLP137 T02560128=
202308090053 METAR KSEA 090053Z 32005KT 10SM FEW030 FEW100 SCT200 26/12 A2993 RMK AO2 SLP139 T02610122=
202308082353 METAR KSEA 082353Z 21006KT 10SM FEW030 FEW100 SCT200 25/12 A2995 RMK AO2 SLP147 T02500117 10256 20183 58024=
202308082253 METAR KSEA 082253Z 17008KT 10SM FEW030 FEW100 SCT220 24/14 A2997 RMK AO2 SLP154 T02440139=
202308082153 METAR KSEA 082153Z 24007KT 10SM FEW025 FEW120 SCT250 23/14 A3000 RMK AO2 SLP165 T02330139=
202308082053 METAR KSEA 082053Z 25007KT 10SM SCT018 BKN120 BKN250 22/14 A3002 RMK AO2 SLP171 T02170139=
202308082030 SPECI KSEA 082030Z 18006KT 10SM SCT018 BKN120 BKN250 21/14 A3003 RMK AO2 T02060139=
202308081953 METAR KSEA 081953Z 19005KT 10SM SCT014 BKN020 BKN120 22/14 A3004 RMK AO2 SLP177 T02170139 $=
202308081853 METAR KSEA 081853Z 22008KT 10SM BKN014 OVC020 19/13 A3005 RMK AO2 SLP181 T01940133 $=
202308081753 METAR KSEA 081753Z 23008KT 190V270 10SM BKN013 OVC020 18/13 A3006 RMK AO2 SLP183 T01830133 10183 20156 58005 $=
202308081653 METAR KSEA 081653Z 19006KT 10SM BKN013 BKN020 18/13 A3006 RMK AO2 SLP185 T01830133 $=
202308081553 METAR KSEA 081553Z 20004KT 10SM BKN010 OVC020 17/13 A3007 RMK AO2 SLP187 T01670133 $=
202308081453 METAR KSEA 081453Z 00000KT 10SM BKN011 OVC020 17/14 A3007 RMK AO2 SLP188 T01670139 56001=
202308081353 METAR KSEA 081353Z 26003KT 10SM BKN014 OVC020 16/14 A3007 RMK AO2 SLP188 T01610139=
202308081327 SPECI KSEA 081327Z 22003KT 10SM BKN014 BKN019 OVC045 16/14 A3007 RMK AO2 T01610139=
202308081253 METAR KSEA 081253Z 20003KT 10SM SCT019 BKN044 16/13 A3007 RMK AO2 SLP187 T01560133=
202308081214 SPECI KSEA 081214Z 18004KT 10SM SCT014 SCT022 BKN044 16/13 A3007 RMK AO2 T01560133=
202308081153 METAR KSEA 081153Z 00000KT 10SM OVC012 16/13 A3008 RMK AO2 SLP189 T01610133 10183 20156 58002=
202308081053 METAR KSEA 081053Z 00000KT 10SM OVC013 16/13 A3008 RMK AO2 SLP191 T01610133=
202308080953 METAR KSEA 080953Z 29003KT 10SM OVC012 16/13 A3009 RMK AO2 SLP193 T01610133=
202308080940 SPECI KSEA 080940Z 29003KT 10SM OVC012 16/13 A3009 RMK AO2 T01610133=
202308080916 SPECI KSEA 080916Z 00000KT 10SM BKN015 OVC042 17/14 A3009 RMK AO2 T01670139=
202308080853 METAR KSEA 080853Z 00000KT 10SM FEW015 BKN042 16/13 A3008 RMK AO2 SLP191 T01610133 53002=
202308080753 METAR KSEA 080753Z 00000KT 10SM FEW031 SCT180 17/14 A3008 RMK AO2 SLP191 T01670139 402500161=
202308080653 METAR KSEA 080653Z 27005KT 10SM FEW031 17/14 A3008 RMK AO2 SLP189 T01670139=
202308080553 METAR KSEA 080553Z 27006KT 10SM BKN040 18/14 A3008 RMK AO2 SLP189 T01780144 10250 20178 53002=
202308080453 METAR KSEA 080453Z 30003KT 10SM FEW050 SCT220 21/15 A3007 RMK AO2 SLP187 T02060150=
202308080353 METAR KSEA 080353Z 29004KT 10SM FEW030 FEW150 SCT220 22/15 A3007 RMK AO2 SLP187 T02170150=
202308080253 METAR KSEA 080253Z 28003KT 10SM FEW030 BKN220 23/15 A3007 RMK AO2 SLP187 T02330150 56007=
202308080153 METAR KSEA 080153Z 27003KT 10SM FEW030 FEW120 BKN220 24/15 A3007 RMK AO2 SLP188 T02390150=
202308080053 METAR KSEA 080053Z 28005KT 10SM FEW030 FEW120 SCT220 24/14 A3009 RMK AO2 SLP193 T02440144=
202308072353 METAR KSEA 072353Z 28007KT 10SM FEW030 FEW120 SCT220 24/15 A3009 RMK AO2 SLP195 T02440150 10250 20200 58018=
202308072253 METAR KSEA 072253Z 25007KT 10SM FEW025 SCT050 BKN120 24/15 A3011 RMK AO2 SLP202 T02390150=
202308072153 METAR KSEA 072153Z 28007KT 10SM SCT023 BKN050 BKN120 23/16 A3013 RMK AO2 SLP207 T02280156=
202308072114 SPECI KSEA 072114Z VRB05KT 10SM SCT021 BKN030 BKN050 22/16 A3014 RMK AO2 T02220156=
202308072053 METAR KSEA 072053Z 26005KT 10SM BKN019 BKN023 BKN030 23/16 A3015 RMK AO2 SLP213 T02280156 58002=
202308071953 METAR KSEA 071953Z 28006KT 10SM FEW015 BKN025 OVC035 22/16 A3016 RMK AO2 T02170156=
202308071853 METAR KSEA 071853Z 24004KT 10SM FEW010 OVC022 21/16 A3016 RMK AO2 SLP217 T02110156=
202308071753 METAR KSEA 071753Z 00000KT 10SM FEW010 BKN016 OVC025 20/16 A3015 RMK AO2 SLP215 T02000161 10200 20178 53006=
202308071653 METAR KSEA 071653Z 23004KT 10SM FEW008 BKN018 OVC025 19/16 A3014 RMK AO2 SLP211 T01890161=
202308071638 SPECI KSEA 071638Z 19004KT 10SM FEW008 BKN018 OVC025 19/16 A3014 RMK AO2 T01890161=
202308071553 METAR KSEA 071553Z 24003KT 10SM BKN016 OVC025 18/16 A3014 RMK AO2 SLP209 T01830156=
202308071528 SPECI KSEA 071528Z 00000KT 10SM BKN016 OVC025 18/16 A3013 RMK AO2 T01780161=
202308071453 METAR KSEA 071453Z 28004KT 10SM BKN010 OVC020 18/16 A3014 RMK AO2 SLP209 T01780161 58005=
202308071423 SPECI KSEA 071423Z 29003KT 10SM BKN010 BKN020 OVC060 18/16 A3014 RMK AO2 T01780161=
202308071353 METAR KSEA 071353Z 00000KT 10SM FEW009 BKN022 OVC060 18/16 A3015 RMK AO2 SLP213 T01780161=
202308071253 METAR KSEA 071253Z 00000KT 10SM FEW009 BKN021 OVC070 18/16 A3015 RMK AO2 SLP213 T01780156=
202308071202 SPECI KSEA 071202Z 00000KT 10SM SCT008 OVC024 18/16 A3015 RMK AO2 T01780156=
202308071153 METAR KSEA 071153Z 00000KT 10SM BKN007 OVC024 18/16 A3015 RMK AO2 SLP214 60002 70002 T01780156 10189 20172 58003=
202308071125 SPECI KSEA 071125Z 00000KT 10SM BKN009 BKN013 OVC027 18/16 A3016 RMK AO2 T01780156=
202308071102 SPECI KSEA 071102Z 00000KT 10SM SCT008 BKN025 OVC070 17/16 A3015 RMK AO2 T01720156=
202308071053 METAR KSEA 071053Z 24003KT 10SM SCT010 BKN021 OVC030 17/16 A3016 RMK AO2 RAE40 SLP217 P0000 T01720156=
202308071037 SPECI KSEA 071037Z 00000KT 10SM -RA FEW012 BKN021 OVC030 17/16 A3016 RMK AO2 P0000 T01720156=
202308071010 SPECI KSEA 071010Z 22004KT 10SM -RA SCT019 BKN033 OVC070 17/16 A3016 RMK AO2 P0000 T01720156=
202308070953 METAR KSEA 070953Z 22004KT 10SM -RA FEW010 BKN019 OVC031 17/16 A3016 RMK AO2 SLP218 P0002 T01720156=
202308070948 SPECI KSEA 070948Z 22005KT 10SM -RA BKN019 OVC031 17/16 A3016 RMK AO2 P0001=
202308070853 METAR KSEA 070853Z 20005KT 10SM -RA SCT027 BKN036 OVC100 18/15 A3017 RMK AO2 RAB50 SLP219 P0000 60000 T01780150 57001=
202308070753 METAR KSEA 070753Z 23004KT 10SM BKN034 OVC160 19/15 A3017 RMK AO2 SLP220 VIRGA N T01890150 402440167=
202308070653 METAR KSEA 070653Z 21005KT 10SM BKN036 OVC170 19/15 A3017 RMK AO2 SLP220 T01890150=
202308070553 METAR KSEA 070553Z 19005KT 10SM FEW075 BKN180 BKN250 19/15 A3017 RMK AO2 SLP220 T01890150 10244 20189 58001=
202308070453 METAR KSEA 070453Z 21008KT 10SM FEW100 BKN180 20/15 A3017 RMK AO2 SLP221 T02000150=
202308070353 METAR KSEA 070353Z 21004KT 10SM FEW030 SCT140 BKN180 22/16 A3017 RMK AO2 SLP222 T02170156=
202308070253 METAR KSEA 070253Z 00000KT 10SM FEW025 BKN180 23/16 A3017 RMK AO2 SLP221 T02280156 56006=
202308070153 METAR KSEA 070153Z 22005KT 10SM FEW025 SCT160 SCT250 23/15 A3017 RMK AO2 SLP221 T02330150=
202308070053 METAR KSEA 070053Z 22006KT 10SM FEW020 FEW160 BKN250 24/15 A3018 RMK AO2 SLP223 T02390150=
202308062353 METAR KSEA 062353Z 20007G15KT 10SM FEW020 SCT160 BKN250 23/15 A3019 RMK AO2 SLP227 T02330150 10239 20178 58013=
202308062253 METAR KSEA 062253Z 20006KT 10SM FEW020 BKN160 22/15 A3020 RMK AO2 SLP231 T02220150=
202308062153 METAR KSEA 062153Z 22009KT 10SM FEW020 BKN160 21/15 A3021 RMK AO2 SLP235 T02110150=
202308062053 METAR KSEA 062053Z 22007KT 190V250 10SM FEW010 FEW017 BKN120 20/15 A3022 RMK AO2 SLP239 T02000150 50002=
202308061953 METAR KSEA 061953Z 26005KT 10SM FEW010 OVC015 19/15 A3023 RMK AO2 SLP241 T01890150=
202308061853 METAR KSEA 061853Z 23004KT 10SM SCT008 OVC013 18/15 A3023 RMK AO2 SLP240 T01830150=
202308061753 METAR KSEA 061753Z 24003KT 10SM OVC009 18/16 A3022 RMK AO2 SLP238 T01780156 10183 20167 51009=
202308061653 METAR KSEA 061653Z 23006KT 10SM FEW007 OVC014 18/16 A3021 RMK AO2 SLP235 T01830156=
202308061605 SPECI KSEA 061605Z 21007KT 3SM R16L/5000VP6000FT BR OVC002 18/16 A3020 RMK AO2 T01780161=
202308061553 METAR KSEA 061553Z 22006KT 1/4SM R16L/3500V5500FT BR OVC002 17/16 A3020 RMK AO2 SFC VIS 1 SLP232 T01720161=
202308061522 SPECI KSEA 061522Z 21005KT 1/8SM R16L/1600V2400FT FG VV001 17/16 A3020 RMK AO2 SFC VIS 1/2 T01720161=
202308061510 SPECI KSEA 061510Z 22005KT 1/8SM R16L/1400V2200FT FG VV001 17/16 A3019 RMK AO2 SFC VIS 1/4 T01720161=
202308061506 SPECI KSEA 061506Z 22005KT 1/4SM R16L/1800V2200FT FG VV001 17/16 A3019 RMK AO2 TWR VIS 1/2 T01720161=
202308061453 METAR KSEA 061453Z 23003KT 1/4SM R16L/2000V3000FT FG VV001 17/16 A3019 RMK AO2 TWR VIS 1/2 SLP228 T01720161 51012=
202308061451 SPECI KSEA 061451Z 23004KT 1/4SM R16L/2200V3000FT FG VV001 17/16 A3019 RMK AO2 TWR VIS 1/2=
202308061431 SPECI KSEA 061431Z 21004KT 1/2SM R16L/P6000FT BR OVC003 17/16 A3019 RMK AO2 SFC VIS 2 T01720161=
202308061410 SPECI KSEA 061410Z 22003KT 1 1/2SM BR OVC003 17/16 A3019 RMK AO2 SFC VIS 3 T01720161=
202308061353 METAR KSEA 061353Z VRB03KT 10SM OVC005 17/16 A3018 RMK AO2 SLP225 T01720161=
202308061253 METAR KSEA 061253Z 21004KT 10SM BKN007 BKN130 17/16 A3017 RMK AO2 SLP220 T01720161=
202308061244 SPECI KSEA 061244Z 19004KT 10SM BKN007 BKN130 17/16 A3017 RMK AO2 T01720161=
202308061153 METAR KSEA 061153Z 15003KT 10SM FEW120 BKN150 17/16 A3016 RMK AO2 SLP216 60001 70002 T01720161 10194 20167 53004=
202308061053 METAR KSEA 061053Z 00000KT 10SM FEW120 SCT140 BKN210 17/16 A3014 RMK AO2 SLP212 T01720156=
202308060953 METAR KSEA 060953Z 18005KT 10SM FEW100 BKN180 17/16 A3014 RMK AO2 SLP212 T01720156=
202308060853 METAR KSEA 060853Z 00000KT 10SM FEW100 OVC120 18/16 A3014 RMK AO2 RAE0758 SLP212 P0000 60001 T01830156 56006=
202308060753 METAR KSEA 060753Z 00000KT 10SM -RA FEW080 FEW110 OVC130 19/16 A3015 RMK AO2 RAB15 SLP213 P0001 T01890161 402220167=
202308060653 METAR KSEA 060653Z 25003KT 10SM BKN110 18/16 A3015 RMK AO2 RAE29 SLP215 P0000 T01830161=
202308060553 METAR KSEA 060553Z 16004KT 10SM -RA FEW100 BKN120 19/16 A3016 RMK AO2 RAB45 SLP217 P0000 60001 T01940156 10222 20189 51009=
202308060453 METAR KSEA 060453Z 29004KT 10SM FEW095 OVC120 19/15 A3015 RMK AO2 RAB08E33 SLP213 P0001 T01890150=
202308060353 METAR KSEA 060353Z 28005KT 10SM FEW080 SCT100 OVC130 19/14 A3015 RMK AO2 SLP212 T01940144=
202308060253 METAR KSEA 060253Z 33004KT 10SM FEW070 SCT095 OVC110 20/14 A3013 RMK AO2 RAB08E49 SLP208 P0000 60000 T02000139 56002=
202308060153 METAR KSEA 060153Z 32004KT 10SM FEW070 BKN100 OVC130 21/14 A3013 RMK AO2 SLP209 T02110139=
202308060053 METAR KSEA 060053Z 26005KT 10SM FEW060 SCT100 OVC130 21/14 A3013 RMK AO2 SLP208 T02110139=
202308052353 METAR KSEA 052353Z 28005KT 10SM SCT080 OVC110 22/14 A3014 RMK AO2 SLP210 60000 T02170144 10222 20178 58007=
202308052253 METAR KSEA 052253Z 28003KT 10SM SCT090 BKN110 22/14 A3015 RMK AO2 RAE09 SLP212 P0000 T02170144=
202308052153 METAR KSEA 052153Z 28004KT 10SM -RA SCT080 BKN110 21/15 A3016 RMK AO2 RAB49 SLP217 P0000 T02110150=
202308052053 METAR KSEA 052053Z 26005KT 10SM FEW080 BKN100 OVC120 21/15 A3016 RMK AO2 SLP216 60000 T02110150 58001=
202308051953 METAR KSEA 051953Z 00000KT 10SM OVC100 20/15 A3016 RMK AO2 SLP219 T02000150=
202308051853 METAR KSEA 051853Z 28004KT 10SM OVC110 19/16 A3016 RMK AO2 RAE49 SLP219 P0000 T01940156=
202308051753 METAR KSEA 051753Z 29004KT 10SM -RA BKN100 OVC110 18/15 A3016 RMK AO2 SLP218 P0000 60000 T01780150 10189 20167 50000=
202308051653 METAR KSEA 051653Z 21003KT 10SM -RA OVC110 18/14 A3017 RMK AO2 SLP221 P0000 T01780144=
202308051553 METAR KSEA 051553Z 27005KT 10SM -RA SCT075 BKN100 OVC120 17/13 A3016 RMK AO2 RAB50 SLP217 P0000 T01720133=
202308051453 METAR KSEA 051453Z 29005KT 10SM SCT150 OVC250 18/13 A3016 RMK AO2 SLP217 T01780133 53012=
202308051353 METAR KSEA 051353Z 26003KT 10SM SCT160 OVC250 17/13 A3015 RMK AO2 SLP212 T01670133=
202308051253 METAR KSEA 051253Z 36003KT 10SM SCT110 BKN160 OVC250 18/13 A3014 RMK AO2 SLP209 VIRGA SE-S T01830133=
202308051153 METAR KSEA 051153Z 35003KT 10SM FEW110 OVC160 19/13 A3013 RMK AO2 SLP205 T01890133 10222 20189 56005=
202308051053 METAR KSEA 051053Z 36004KT 10SM FEW110 OVC170 19/13 A3013 RMK AO2 SLP206 T01890133=
202308050953 METAR KSEA 050953Z 00000KT 10SM OVC190 19/13 A3014 RMK AO2 SLP209 T01890133=
202308050853 METAR KSEA 050853Z 01004KT 10SM OVC190 19/13 A3014 RMK AO2 SLP211 T01940133 50004=
202308050753 METAR KSEA 050753Z 00000KT 10SM OVC220 20/13 A3014 RMK AO2 SLP211 T02000128 402940156=
202308050653 METAR KSEA 050653Z 31004KT 10SM OVC250 20/13 A3014 RMK AO2 SLP209 T02000128=
202308050553 METAR KSEA 050553Z 04012KT 10SM BKN250 22/12 A3013 RMK AO2 SLP207 T02220122 10289 20222 53006=
202308050453 METAR KSEA 050453Z 06008KT 10SM FEW200 BKN250 24/10 A3012 RMK AO2 SLP204 T02390100=
202308050353 METAR KSEA 050353Z 04010KT 10SM SCT200 BKN250 24/09 A3012 RMK AO2 SLP203 T02440094=
202308050253 METAR KSEA 050253Z 36006KT 10SM SCT200 BKN250 26/09 A3011 RMK AO2 SLP201 T02560094 55001=
202308050153 METAR KSEA 050153Z 35007KT 10SM FEW050 SCT200 BKN250 27/09 A3011 RMK AO2 SLP199 T02670094=
202308050053 METAR KSEA 050053Z 35009KT 10SM FEW050 SCT200 BKN250 29/09 A3011 RMK AO2 SLP200 T02890089=
202308042353 METAR KSEA 042353Z 35011KT 10SM FEW040 FEW200 SCT250 29/09 A3012 RMK AO2 SLP202 T02890094 10294 20217 56009=
202308042253 METAR KSEA 042253Z 01010KT 10SM FEW040 FEW200 SCT250 29/09 A3012 RMK AO2 SLP203 T02890094=
202308042153 METAR KSEA 042153Z 01008KT 10SM FEW040 SCT250 28/09 A3014 RMK AO2 SLP209 T02830094=
202308042053 METAR KSEA 042053Z 33009G14KT 10SM FEW030 SCT250 27/11 A3015 RMK AO2 SLP212 T02670111 56007=
202308041953 METAR KSEA 041953Z 29007KT 10SM SCT250 24/12 A3015 RMK AO2 SLP213 T02440117=
202308041853 METAR KSEA 041853Z 29006KT 10SM SCT250 24/12 A3016 RMK AO2 SLP215 T02390122=
202308041753 METAR KSEA 041753Z 27005KT 10SM FEW200 SCT250 22/12 A3017 RMK AO2 SLP219 T02170122 10222 20156 58002=
202308041653 METAR KSEA 041653Z 28006KT 10SM FEW200 SCT250 21/12 A3017 RMK AO2 SLP221 T02060122=
202308041553 METAR KSEA 041553Z 28005KT 10SM FEW200 SCT250 19/12 A3017 RMK AO2 SLP221 T01940122=
202308041453 METAR KSEA 041453Z 19003KT 10SM FEW100 SCT250 18/12 A3017 RMK AO2 SLP221 T01830117 53009=
202308041353 METAR KSEA 041353Z 00000KT 10SM FEW100 FEW250 17/12 A3016 RMK AO2 SLP218 T01670117=
202308041253 METAR KSEA 041253Z 01003KT 10SM FEW100 FEW250 16/11 A3015 RMK AO2 SLP213 T01610106=
202308041153 METAR KSEA 041153Z 01004KT 10SM SCT250 17/11 A3014 RMK AO2 SLP211 T01670106 10217 20167 53005=
202308041053 METAR KSEA 041053Z 00000KT 10SM FEW250 18/11 A3014 RMK AO2 SLP209 T01780106=
202308040953 METAR KSEA 040953Z 04004KT 10SM FEW250 18/11 A3013 RMK AO2 SLP207 T01830111=
202308040853 METAR KSEA 040853Z 36006KT 10SM FEW100 FEW250 18/11 A3013 RMK AO2 SLP206 T01780111 51006=
202308040753 METAR KSEA 040753Z 02007KT 10SM FEW100 19/11 A3013 RMK AO2 SLP205 T01890111 402890150=
202308040653 METAR KSEA 040653Z 03007KT 10SM CLR 21/11 A3012 RMK AO2 SLP204 T02060106=
202308040553 METAR KSEA 040553Z 03009KT 10SM CLR 22/11 A3011 RMK AO2 SLP200 T02170111 10289 20217 53011=
202308040453 METAR KSEA 040453Z 02008KT 10SM CLR 22/10 A3010 RMK AO2 SLP197 T02220100=
202308040353 METAR KSEA 040353Z 34004KT 10SM CLR 23/10 A3008 RMK AO2 SLP190 T02280100=
202308040253 METAR KSEA 040253Z 35008KT 10SM FEW040 FEW250 26/09 A3008 RMK AO2 SLP189 T02560094 53001=
202308040153 METAR KSEA 040153Z 36009KT 10SM FEW040 FEW250 27/08 A3007 RMK AO2 SLP185 T02720083=
202308040053 METAR KSEA 040053Z 01010KT 10SM FEW040 28/09 A3007 RMK AO2 SLP185 T02780094=
202308032353 METAR KSEA 032353Z 33008KT 280V020 10SM FEW040 28/09 A3008 RMK AO2 SLP188 T02830094 10283 20217 58009=
202308032253 METAR KSEA 032253Z 30009KT 10SM FEW040 28/11 A3009 RMK AO2 SLP192 T02780111=
202308032153 METAR KSEA 032153Z 30008KT 10SM FEW030 27/11 A3010 RMK AO2 SLP196 T02670106=
202308032053 METAR KSEA 032053Z 30011KT 10SM FEW030 FEW250 26/12 A3010 RMK AO2 SLP197 T02560117 58007=
202308031953 METAR KSEA 031953Z 31008KT 10SM FEW030 FEW250 25/12 A3011 RMK AO2 SLP200 T02500122=
202308031853 METAR KSEA 031853Z 32008KT 260V340 10SM FEW025 FEW250 24/13 A3012 RMK AO2 SLP205 T02390128=
202308031753 METAR KSEA 031753Z 30006KT 10SM FEW020 FEW200 22/13 A3012 RMK AO2 SLP205 T02170128 10222 20150 52001=
202308031653 METAR KSEA 031653Z 27005KT 10SM FEW010 FEW200 21/12 A3012 RMK AO2 SLP205 T02060122=
202308031553 METAR KSEA 031553Z 28003KT 10SM FEW010 FEW200 19/12 A3012 RMK AO2 SLP205 T01940117=
202308031453 METAR KSEA 031453Z 23003KT 10SM FEW010 FEW200 18/11 A3012 RMK AO2 SLP204 T01780111 53008=
202308031353 METAR KSEA 031353Z 00000KT 10SM FEW200 16/12 A3011 RMK AO2 SLP201 T01610122=
202308031253 METAR KSEA 031253Z 00000KT 10SM FEW140 16/12 A3010 RMK AO2 SLP197 T01560117=
202308031153 METAR KSEA 031153Z 00000KT 10SM CLR 17/12 A3010 RMK AO2 SLP196 T01670122 10189 20167 50006=
202308031053 METAR KSEA 031053Z 06004KT 10SM CLR 17/12 A3010 RMK AO2 SLP196 T01720117=
202308030953 METAR KSEA 030953Z 05005KT 10SM CLR 18/12 A3009 RMK AO2 SLP193 T01780117=
202308030853 METAR KSEA 030853Z 02006KT 10SM CLR 19/11 A3008 RMK AO2 SLP190 T01890111 51006=
202308030753 METAR KSEA 030753Z 35004KT 10SM CLR 18/11 A3008 RMK AO2 SLP189 T01780106 402890156=
202308030653 METAR KSEA 030653Z 35007KT 10SM CLR 18/11 A3007 RMK AO2 SLP187 T01830106=
202308030553 METAR KSEA 030553Z 35007KT 10SM CLR 19/11 A3006 RMK AO2 SLP185 T01890106 10289 20189 53009=
202308030453 METAR KSEA 030453Z 32007KT 10SM CLR 20/10 A3005 RMK AO2 SLP181 T02000100=
202308030353 METAR KSEA 030353Z 34009KT 10SM FEW050 22/11 A3004 RMK AO2 SLP178 T02170111=
202308030253 METAR KSEA 030253Z 34011KT 10SM FEW050 24/11 A3004 RMK AO2 SLP175 T02390111 55001=
202308030153 METAR KSEA 030153Z 34011KT 10SM FEW050 27/11 A3003 RMK AO2 SLP172 T02670106=
202308030053 METAR KSEA 030053Z 29008KT 10SM FEW040 28/09 A3003 RMK AO2 SLP172 T02780089=
202308022353 METAR KSEA 022353Z 23004KT 10SM FEW040 28/06 A3004 RMK AO2 SLP175 T02830061 10289 20222 58008=
202308022253 METAR KSEA 022253Z 23007KT 210V290 10SM FEW040 28/08 A3005 RMK AO2 SLP178 T02830083=
202308022153 METAR KSEA 022153Z 15004KT 10SM FEW040 27/07 A3006 RMK AO2 SLP182 T02670072=
202308022053 METAR KSEA 022053Z 31007KT 10SM FEW035 FEW250 27/09 A3006 RMK AO2 SLP183 T02670089 55002=
202308021953 METAR KSEA 021953Z 30007KT 10SM FEW035 26/10 A3006 RMK AO2 SLP182 T02560100=
202308021853 METAR KSEA 021853Z 28008KT 10SM FEW030 FEW100 24/10 A3006 RMK AO2 SLP184 T02390100=
202308021753 METAR KSEA 021753Z 27006KT 10SM FEW030 FEW100 23/10 A3007 RMK AO2 SLP186 T02280100 10228 20156 58003=
202308021653 METAR KSEA 021653Z 28005KT 10SM CLR 22/10 A3008 RMK AO2 SLP189 T02170100=
202308021553 METAR KSEA 021553Z VRB03KT 10SM CLR 21/09 A3008 RMK AO2 SLP192 T02060094=
202308021453 METAR KSEA 021453Z 00000KT 10SM CLR 18/09 A3008 RMK AO2 SLP189 T01830089 53010=
202308021353 METAR KSEA 021353Z 00000KT 10SM CLR 17/09 A3007 RMK AO2 SLP186 T01670094=
202308021253 METAR KSEA 021253Z VRB04KT 10SM CLR 17/09 A3006 RMK AO2 SLP181 T01670089=
202308021153 METAR KSEA 021153Z 04007KT 10SM CLR 17/08 A3005 RMK AO2 SLP179 T01720083 10206 20156 55001=
202308021053 METAR KSEA 021053Z 01005KT 10SM CLR 16/08 A3005 RMK AO2 SLP178 T01560083=
202308020953 METAR KSEA 020953Z 02006KT 10SM CLR 17/08 A3005 RMK AO2 SLP178 T01720083=
202308020853 METAR KSEA 020853Z 03007KT 10SM CLR 18/08 A3005 RMK AO2 SLP180 T01830083 58001=
202308020753 METAR KSEA 020753Z 04010KT 10SM CLR 19/08 A3006 RMK AO2 SLP182 T01890083 402830144=
202308020653 METAR KSEA 020653Z 03013KT 10SM CLR 19/08 A3006 RMK AO2 SLP183 T01940083=
202308020553 METAR KSEA 020553Z 03012KT 10SM CLR 21/08 A3006 RMK AO2 SLP182 T02060078 10278 20206 50004=
202308020453 METAR KSEA 020453Z 04009KT 10SM CLR 22/08 A3006 RMK AO2 SLP183 T02170078=
202308020353 METAR KSEA 020353Z 01007KT 10SM FEW040 22/07 A3005 RMK AO2 SLP179 T02170067=
202308020253 METAR KSEA 020253Z 36009KT 10SM FEW040 24/07 A3004 RMK AO2 SLP177 T02440067 55004=
202308020153 METAR KSEA 020153Z 35009KT 10SM FEW040 26/08 A3004 RMK AO2 SLP177 T02560083=
202308020053 METAR KSEA 020053Z 36010G18KT 320V020 10SM FEW040 27/07 A3005 RMK AO2 SLP178 T02720067=
202308012353 METAR KSEA 012353Z 35012KT 10SM FEW040 27/07 A3005 RMK AO2 SLP181 T02720072 10283 20211 58012=
202308012253 METAR KSEA 012253Z 34008G16KT 10SM FEW040 28/08 A3006 RMK AO2 SLP184 T02780083=
202308012153 METAR KSEA 012153Z 28007KT 10SM FEW035 26/11 A3008 RMK AO2 SLP189 T02610111=
202308012053 METAR KSEA 012053Z 29006KT 10SM FEW035 26/11 A3009 RMK AO2 SLP193 T02560111 56013=
202308011953 METAR KSEA 011953Z 29007KT 10SM FEW030 24/11 A3010 RMK AO2 SLP196 T02440111=
202308011853 METAR KSEA 011853Z 29006KT 10SM FEW030 23/11 A3011 RMK AO2 SLP202 T02280111=
202308011753 METAR KSEA 011753Z 26006KT 10SM CLR 21/11 A3013 RMK AO2 SLP206 T02110111 10211 20144 58002=
202308011653 METAR KSEA 011653Z 28005KT 10SM CLR 21/11 A3014 RMK AO2 SLP210 T02060111=
202308011553 METAR KSEA 011553Z 03005KT 10SM CLR 19/11 A3014 RMK AO2 SLP210 T01940106=
202308011453 METAR KSEA 011453Z 00000KT 10SM CLR 18/09 A3013 RMK AO2 SLP208 T01780094 53004=
202308011353 METAR KSEA 011353Z 35003KT 10SM CLR 16/10 A3013 RMK AO2 SLP207 T01560100=
202308011253 METAR KSEA 011253Z 00000KT 10SM CLR 15/09 A3012 RMK AO2 SLP205 T01500094=
202308011153 METAR KSEA 011153Z 05003KT 10SM CLR 14/09 A3012 RMK AO2 SLP205 T01440094 10189 20144 53002=
202308011053 METAR KSEA 011053Z 01003KT 10SM CLR 16/10 A3011 RMK AO2 SLP202 T01560100=
202308010953 METAR KSEA 010953Z 03004KT 10SM CLR 17/10 A3012 RMK AO2 SLP203 T01670100=
202308010853 METAR KSEA 010853Z 04005KT 10SM CLR 17/10 A3012 RMK AO2 SLP202 T01670100 52001=
202308010753 METAR KSEA 010753Z 04006KT 10SM CLR 17/10 A3011 RMK AO2 SLP202 T01720100 402560139=
202308010653 METAR KSEA 010653Z 03009KT 10SM CLR 18/10 A3011 RMK AO2 SLP201 T01780100=
202308010553 METAR KSEA 010553Z 03007KT 10SM CLR 19/09 A3011 RMK AO2 SLP201 T01890089 10256 20189 51003=
202308010453 METAR KSEA 010453Z 04011KT 10SM FEW050 20/08 A3011 RMK AO2 SLP201 T02000083=
202308010353 METAR KSEA 010353Z 36007KT 10SM FEW050 20/07 A3011 RMK AO2 SLP200 T02000072=
202308010253 METAR KSEA 010253Z 35008KT 10SM FEW050 23/08 A3010 RMK AO2 SLP198 T02280078 55000=
202308010153 METAR KSEA 010153Z 35011KT 10SM FEW050 25/07 A3010 RMK AO2 SLP196 T02500072=
202308010053 METAR KSEA 010053Z 35006KT 10SM FEW050 25/07 A3010 RMK AO2 SLP197 T02500067=

# No short TAF reports from KSEA in databse.

###################################
#  large TAF from KSEA
###################################
202308312335 TAF KSEA 312335Z 0100/0206 33009KT P6SM -SHRA FEW025 BKN070 BKN150
                       FM010400 03006KT P6SM FEW030 BKN080 BKN150
                       FM011300 36007KT P6SM SCT040 BKN080 FM012100
                       35010KT P6SM FEW050 FEW100=
202308312107 KSEA 312107Z 3121/0124 33008KT P6SM -SHRA SCT020 BKN060 OVC080
                       FM010400 03004KT P6SM SCT035 SCT070 SCT100
                       FM011000 36007KT P6SM BKN100=
202308312051 KSEA 312051Z 3121/0124 33006KT P6SM -SHRA SCT020 BKN060 OVC080
                       FM010400 03004KT P6SM SCT035 SCT070 SCT100
                       FM011000 36007KT P6SM BKN100=
202308311949 KSEA 311949Z 3120/0124 VRB04KT P6SM -SHRA SCT020 BKN050 OVC080
                       FM312100 33006KT P6SM -SHRA SCT030 BKN070
                       BKN100 FM010400 03004KT P6SM SCT035 SCT070
                       SCT100 FM011000 36007KT P6SM BKN100=
202308311858 KSEA 311858Z 3119/0124 VRB04KT P6SM -SHRA BKN020 BKN050 OVC080
                       FM312100 33006KT P6SM -SHRA SCT030 BKN070
                       BKN100 FM010400 03004KT P6SM SCT035 SCT070
                       SCT100 FM011000 36007KT P6SM BKN100=
202308311737 TAF KSEA 311737Z 3118/0124 VRB04KT P6SM -SHRA SCT020 BKN050 OVC080
                       FM312100 33006KT P6SM -SHRA SCT030 BKN070
                       BKN100 FM010400 03004KT P6SM SCT035 SCT070
                       SCT100 FM011000 36007KT P6SM BKN100=
202308311516 KSEA 311516Z 3115/0118 02004KT P6SM SCT008 BKN035 OVC050 FM311800
                       35004KT P6SM -SHRA BKN035 OVC050 FM010400
                       35004KT P6SM SCT035 BKN050=
202308311137 TAF KSEA 311137Z 3112/0118 02004KT P6SM BKN035 OVC050 FM311600
                       35004KT P6SM -SHRA BKN035 OVC050 FM010400
                       35004KT P6SM SCT035 BKN050=
202308311014 KSEA 311014Z 3110/0112 36004KT P6SM SCT035 OVC090 FM311500 VRB03KT
                       P6SM -SHRA BKN035 OVC060 FM312100 34008KT
                       P6SM -SHRA BKN035 OVC060 FM010600 34006KT
                       P6SM SCT035 OVC050=
202308310526 TAF KSEA 310526Z 3106/0112 04006KT P6SM SCT040 BKN070 FM311000
                       VRB03KT P6SM -SHRA OVC030 FM311700 33005KT
                       P6SM -SHRA OVC025 FM312100 34008KT P6SM
                       -SHRA OVC035 FM010300 02005KT P6SM OVC040=
202308310155 KSEA 310155Z 3102/0106 06006KT P6SM FEW040 BKN070 FM311000 22005KT
                       P6SM -SHRA OVC020 FM311700 33005KT P6SM
                       -SHRA OVC012 FM312300 34007KT P6SM -SHRA
                       OVC025=
202308302338 TAF KSEA 302338Z 3100/0106 VRB05KT P6SM FEW040 BKN070 FM311000
                       22005KT P6SM -SHRA OVC020 FM311700 33005KT
                       P6SM -SHRA OVC012 FM312300 34007KT P6SM
                       -SHRA OVC025=
202308302055 KSEA 302055Z 3021/3124 21008KT P6SM FEW015 BKN040 BKN060 FM310000
                       23007KT P6SM FEW025 BKN050 BKN080 FM311100
                       VRB05KT P6SM -SHRA OVC012 FM311700 33005KT
                       P6SM -SHRA OVC012=
202308301913 KSEA 301913Z 3019/3124 21008KT P6SM SCT015 BKN040 BKN060 FM310000
                       23008KT P6SM SCT020 BKN040 BKN050 FM311100
                       17006KT P6SM -SHRA OVC012=
202308301720 TAF KSEA 301720Z 3018/3124 21008KT P6SM BKN015 OVC025 FM310000
                       23008KT P6SM SCT020 BKN035 OVC050 FM311100
                       17006KT P6SM -SHRA OVC012=
202308301451 KSEA 301451Z 3015/3118 20006KT P6SM BKN012 OVC030 FM302100 22008KT
                       P6SM SCT020 BKN035 OVC050 FM311100 17006KT
                       P6SM OVC012=
202308301141 TAF KSEA 301141Z 3012/3118 19006KT P6SM BKN012 OVC020 FM301500
                       19006KT P6SM SCT012 OVC020 FM302100 22008KT
                       P6SM SCT020 BKN035 OVC050 FM310900 17006KT
                       P6SM OVC012=
202308300902 KSEA 300902Z 3009/3112 19006KT P6SM SCT010 BKN020 OVC030
                      TEMPO 3009/3012 BKN010 OVC020 FM301200 19008KT
                       P6SM OVC020 FM302000 22008KT P6SM BKN050=
202308300527 TAF KSEA 300527Z 3006/3112 VRB04KT P6SM OVC040 FM300900 19006KT
                       P6SM BKN030 OVC050 FM301200 19008KT P6SM
                       OVC025 FM301600 21009KT P6SM OVC020 FM302000
                       22008KT P6SM BKN050=
202308300307 KSEA 300307Z 3003/3106 08006KT P6SM -SHRA BKN040 OVC050 FM300600
                       20007KT P6SM -SHRA BKN050 FM300900 19006KT
                       P6SM BKN030 OVC050 FM301200 19008KT P6SM
                       OVC025 FM301800 21009KT P6SM OVC020=
202308292331 TAF KSEA 292331Z 3000/3106 08007KT P6SM SHRA SCT003 BKN035 OVC045
                       TEMPO 3000/3003 2SM TSRA OVC015CB FM300600
                       20007KT P6SM -SHRA BKN030 FM301200 19008KT
                       P6SM OVC015=
202308292214 KSEA 292214Z 2922/3024 17007KT P6SM VCTS BKN011CB OVC020CB
                      TEMPO 2922/2923 4SM TSRA OVC015CB FM300100
                       09007KT P6SM SHRA OVC025 FM300600 20007KT
                       P6SM -SHRA BKN030 FM301000 19008KT P6SM
                       VCSH OVC015=
202308292136 KSEA 292136Z 2922/3024 17007KT P6SM VCTS BKN011CB OVC020CB
                      TEMPO 2922/2923 2SM TSRA OVC015CB FM300100
                       09007KT P6SM SHRA OVC025 FM300600 20007KT
                       P6SM -SHRA BKN030 FM301000 19008KT P6SM
                       VCSH OVC015=
202308292057 KSEA 292057Z 2921/3024 17007KT P6SM VCTS BKN011CB OVC020CB FM300100
                       09007KT P6SM SHRA OVC025 FM300600 20007KT
                       P6SM -SHRA BKN030 FM301000 19008KT P6SM
                       VCSH OVC015=
202308291951 KSEA 291951Z 2920/3024 17007KT P6SM VCTS BKN008CB OVC015CB FM292000
                       10004KT P6SM SHRA OVC025
                      PROB30 2922/3001 6SM TSRA OVC025CB FM300600
                       20007KT P6SM -SHRA BKN030 FM301000 19008KT
                       P6SM VCSH OVC015=
202308291922 KSEA 291922Z 2919/3024 17007KT P6SM VCTS BKN008CB OVC015CB FM292000
                       10004KT P6SM SHRA OVC025
                      PROB30 2922/3004 6SM TSRA OVC025CB FM300600
                       20007KT P6SM -SHRA BKN030 FM301000 19008KT
                       P6SM VCSH OVC015=
202308291839 KSEA 291839Z 2919/3024 17007KT P6SM BKN008 OVC015 FM292000 10004KT
                       P6SM SHRA OVC025
                      PROB30 2922/3004 6SM TSRA OVC025CB FM300600
                       20007KT P6SM -SHRA BKN030 FM301000 19008KT
                       P6SM VCSH OVC015=
202308291737 TAF KSEA 291737Z 2918/3024 17007KT P6SM SHRA BKN015 OVC030 FM292200
                       10004KT P6SM SHRA OVC030
                      PROB30 2922/3004 6SM TSRA OVC025CB FM300600
                       20007KT P6SM -SHRA BKN030 FM301000 19008KT
                       P6SM VCSH OVC015=
202308291454 KSEA 291454Z 2915/3018 20006KT P6SM SHRA OVC010 FM291800 21009KT
                       P6SM SHRA OVC015 FM292300 12006KT P6SM SHRA
                       OVC035
                      PROB30 3000/3005 6SM TSRA OVC025CB FM300600
                       20007KT P6SM -SHRA BKN030 FM301000 19008KT
                       P6SM VCSH OVC015=
202308291144 TAF KSEA 291144Z 2912/3018 21006KT P6SM VCTS OVC018CB FM291500
                       20006KT P6SM SHRA OVC010 FM291800 21009KT
                       P6SM SHRA OVC015 FM292300 12006KT P6SM SHRA
                       OVC035
                      PROB30 3000/3005 6SM TSRA OVC025CB FM300600
                       20007KT P6SM -SHRA BKN030 FM301000 19008KT
                       P6SM VCSH OVC015=
202308290911 KSEA 290911Z 2909/3012 19005KT P6SM VCSH OVC021 FM291000 22007KT
                       P6SM VCSH OVC010 FM291500 20005KT P6SM SHRA
                       OVC009 FM291800 21009KT P6SM SHRA OVC015
                       FM300000 22004KT P6SM SHRA OVC035=
202308290534 TAF KSEA 290534Z 2906/3012 21006KT P6SM VCSH OVC020 FM291000 22007KT
                       P6SM SHRA OVC010 FM291500 20005KT P6SM SHRA
                       OVC009
                      PROB30 2915/2917 TSRA OVC009CB FM291800 21009KT
                       P6SM SHRA OVC015 FM292100 22007KT P6SM SHRA
                       OVC020 FM300000 22004KT P6SM SHRA OVC035=
202308290320 KSEA 290320Z 2903/3006 23005KT P6SM VCSH OVC020 FM291000 22007KT
                       P6SM SHRA OVC009 FM291800 21009KT P6SM SHRA
                       OVC015 FM292100 22007KT P6SM SHRA OVC020=
202308282325 TAF KSEA 282325Z 2900/3006 22007KT P6SM VCSH OVC020 FM290300 23005KT
                       P6SM VCSH BKN030 FM291000 22007KT P6SM SHRA
                       OVC009 FM291800 21009KT P6SM SHRA OVC015=
202308282052 KSEA 282052Z 2821/2924 22008KT P6SM VCTS BKN020CB FM282300 23007KT
                       P6SM VCSH BKN050 FM290800 22005KT P6SM SHRA
                       OVC025 FM291200 22008KT P6SM SHRA OVC009=
202308281955 KSEA 281955Z 2820/2924 21006KT P6SM VCTS BKN020CB FM282100 23007KT
                       P6SM VCSH BKN050 FM290800 22005KT P6SM SHRA
                       OVC025 FM291200 22008KT P6SM SHRA OVC009=
202308281809 KSEA 281809Z 2818/2924 21006KT P6SM VCSH BKN020
                      TEMPO 2818/2820 3SM TSRA OVC010CB FM282100
                       23007KT P6SM VCSH BKN050 FM290800 22005KT
                       P6SM SHRA OVC025 FM291200 22008KT P6SM SHRA
                       OVC009=
202308281753 KSEA 281753Z 2818/2924 21006KT P6SM VCSH BKN020 FM282100 23007KT
                       P6SM VCSH BKN050 FM290800 22005KT P6SM SHRA
                       OVC025 FM291200 22008KT P6SM SHRA OVC009=
202308281729 TAF KSEA 281729Z 2818/2924 21006KT P6SM BKN020 FM282100 23007KT
                       P6SM VCSH BKN050 FM290800 22005KT P6SM SHRA
                       OVC025 FM291200 22008KT P6SM SHRA OVC009=
202308281505 KSEA 281505Z 2815/2918 22005KT P6SM OVC008 FM281800 21006KT P6SM
                       BKN020 FM282000 23007KT P6SM VCSH BKN050
                       FM290300 24005KT P6SM VCSH BKN040 FM290800
                       22005KT P6SM VCSH OVC025=
202308281123 TAF KSEA 281123Z 2812/2918 22005KT P6SM OVC008
                      TEMPO 2814/2817 OVC006 FM281800 21006KT P6SM
                       BKN015 FM282000 21006KT P6SM BKN030 FM282200
                       23007KT P6SM VCSH BKN050 FM290300 24005KT
                       P6SM VCSH BKN040 FM290800 22005KT P6SM VCSH
                       OVC025=
202308280855 KSEA 280855Z 2809/2912 21006KT P6SM BKN010
                      TEMPO 2814/2817 OVC006 FM281900 21006KT P6SM
                       BKN025 FM282200 23007KT P6SM VCSH BKN050
                       FM290300 21005KT P6SM VCSH BKN040=
202308280533 TAF KSEA 280533Z 2806/2912 25006KT P6SM FEW100 FM281100 22005KT
                       6SM BR OVC015 FM281900 21006KT P6SM BKN025
                       FM282200 23007KT P6SM VCSH BKN050 FM290300
                       21005KT P6SM VCSH BKN040=
202308280255 KSEA 280255Z 2803/2906 25006KT P6SM FEW100 FM280700 23006KT P6SM
                       FEW100 FM281200 21004KT 6SM BR BKN012 FM281800
                       21006KT P6SM SCT040 FM282200 23007KT P6SM
                       VCSH BKN050=
202308272323 TAF KSEA 272323Z 2800/2906 30006KT 6SM HZ FEW100 FM280700 23006KT
                       P6SM FEW100 FM281500 21004KT 6SM BR BKN012
                       FM281800 21006KT P6SM SCT040 FM282200 23007KT
                       P6SM VCSH BKN050=
202308272102 KSEA 272102Z 2721/2824 26005KT 6SM HZ FEW120 FM272300 30006KT 6SM
                       HZ FEW100 FM280700 23006KT P6SM FEW100 FM281500
                       21004KT 6SM BR BKN012 FM281800 21006KT P6SM
                       SCT040 FM282200 23007KT P6SM VCSH BKN050=
202308271734 TAF KSEA 271734Z 2718/2824 24005KT 6SM HZ FEW120 FM272300 30006KT
                       6SM HZ FEW100 FM280700 23006KT P6SM SKC
                       FM281500 21004KT 6SM BR BKN012=
202308271504 KSEA 271504Z 2715/2818 21006KT 6SM HZ FEW006 SCT150 FM271700 24005KT
                       6SM HZ FEW120 FM272300 30006KT 6SM HZ FEW100
                       FM280700 23006KT P6SM SKC FM281500 21004KT
                       6SM BR BKN007=
202308271128 TAF KSEA 271128Z 2712/2818 19005KT P6SM FEW100 FM271700 24005KT
                       6SM HZ FEW100 FM272300 27006KT 6SM HZ FEW100
                       FM280700 23006KT P6SM SKC FM281300 22004KT
                       6SM BR BKN007=
202308270900 KSEA 270900Z 2709/2812 21005KT 6SM HZ FEW100 FM271200 20005KT P6SM
                       BCFG SCT004 FM271600 23006KT 6SM HZ SKC
                       FM272300 28006KT 6SM HZ SKC=
202308270535 TAF KSEA 270535Z 2706/2812 33006KT 6SM HZ FEW100 FM271200 20005KT
                       P6SM BCFG SCT004 FM271600 23006KT 6SM HZ
                       SKC FM272300 28006KT 6SM HZ SKC=
202308270307 KSEA 270307Z 2703/2806 33006KT 6SM HZ SCT200 FM271200 20005KT P6SM
                       BCFG FEW004 FM271600 23006KT 6SM HZ SKC
                       FM271900 VRB04KT 6SM HZ FEW250 FM272100
                       30006KT 6SM HZ FEW250=
202308262320 TAF KSEA 262320Z 2700/2806 35011KT 6SM HZ SCT150 FM270300 33006KT
                       6SM HZ SCT200 FM271200 21005KT P6SM BCFG
                       FEW004 FM271600 23006KT 6SM HZ SKC FM271900
                       VRB04KT 6SM HZ FEW250 FM272100 30006KT 6SM
                       HZ FEW250=
202308262105 KSEA 262105Z 2621/2724 35011KT 6SM HZ SCT150 FM270300 33006KT 6SM
                       HZ SCT200 FM271200 23005KT P6SM BCFG FEW004
                       FM271600 21006KT 6SM HZ SKC FM271900 VRB04KT
                       6SM HZ FEW200 FM272100 30006KT 6SM HZ FEW200=
202308261751 TAF KSEA 261751Z 2618/2724 35007KT 6SM HZ SCT120 FM262100 35011KT
                       6SM HZ SCT200 FM270300 33006KT 6SM HZ SCT200
                       FM271200 23005KT P6SM BCFG FEW004 FM271600
                       21006KT 6SM HZ SKC FM271900 VRB04KT 6SM
                       HZ FEW200 FM272100 30006KT 6SM HZ FEW200=
202308261509 KSEA 261509Z 2615/2718 36005KT 6SM HZ SCT250 FM261700 35007KT 6SM
                       HZ FEW200 FM262100 35011KT 6SM HZ SCT200
                       FM270300 33006KT 6SM HZ SCT200 FM271200
                       23005KT P6SM BCFG FEW004=
202308261125 TAF KSEA 261125Z 2612/2718 02004KT P6SM SKC FM261700 35007KT 6SM
                       HZ FEW200 FM262100 35011KT 6SM HZ SCT200
                       FM270300 33006KT 6SM HZ SCT200 FM271200
                       23005KT P6SM BCFG FEW004=
202308260959 KSEA 260959Z 2610/2712 01005KT P6SM SKC FM261200 02005KT P6SM SKC
                       FM261600 35007KT 6SM HZ SKC FM262100 35010G18KT
                       6SM HZ SKC FM270000 35012KT 6SM HZ SKC=
202308260525 TAF KSEA 260525Z 2606/2712 35005KT P6SM SKC FM261200 02005KT P6SM
                       SKC FM261600 35007KT 6SM HZ SKC FM262100
                       35010G18KT 6SM HZ SKC FM270000 35012KT 6SM
                       HZ SKC=
202308260258 KSEA 260258Z 2603/2706 35008KT P6SM SCT100 FM260600 VRB03KT P6SM
                       SKC FM261600 35007KT 6SM HZ SCT200 FM262000
                       35010G18KT 6SM HZ SCT200=
202308252339 TAF KSEA 252339Z 2600/2706 35007KT P6SM SCT100 FM260600 VRB03KT
                       P6SM SKC FM261600 35007KT 6SM HZ SCT200
                       FM262000 35010G18KT 6SM HZ SCT200=
202308252053 KSEA 252053Z 2521/2624 35007KT P6SM SCT200 FM260600 VRB03KT P6SM
                       SKC FM261600 35007KT 6SM HZ SCT200=
202308251738 TAF KSEA 251738Z 2518/2624 16006KT P6SM VCTS BKN120CB BKN200 FM252000
                       35007KT P6SM SCT200 FM260400 02005KT P6SM
                       SKC FM261600 36006KT 6SM HZ SCT200=
202308251549 KSEA 251549Z 2516/2618 18009KT P6SM -TSRA BKN100CB FM251700 16006KT
                       P6SM SCT120 BKN200 FM251900 35007KT P6SM
                       SCT200 FM260400 02005KT P6SM SKC=
202308251537 KSEA 251537Z 2516/2618 18009KT P6SM -TSRA BKN100CB FM251700 16006KT
                       P6SM SCT120 BKN200 FM251800 35007KT P6SM
                       SCT200 FM261000 02005KT P6SM SKC=
202308251456 KSEA 251456Z 2515/2618 01005KT P6SM BKN120 BKN160 FM251510 VRB05KT
                       P6SM VCTS BKN100CB FM251530 VRB05KT P6SM
                       -TSRA BKN050CB FM251700 16006KT P6SM SCT120
                       BKN200 FM251900 35007KT P6SM SCT200 FM261000
                       02005KT P6SM SKC=
202308251135 TAF KSEA 251135Z 2512/2618 35007KT P6SM SCT120 BKN200 FM251700
                       32006KT P6SM SCT120 BKN200 FM260300 34005KT
                       P6SM SCT200 FM261000 02005KT P6SM SKC=
202308250900 KSEA 250900Z 2509/2612 03011KT P6SM SCT120 BKN200 FM251200 07006KT
                       P6SM SCT120 SCT250 FM251700 32005KT P6SM
                       SCT120 SCT250=
202308250520 TAF KSEA 250520Z 2506/2612 03010KT P6SM SCT250 FM251200 07006KT
                       P6SM SCT120 SCT250 FM251700 32005KT P6SM
                       SCT120 SCT250=
202308250257 KSEA 250257Z 2503/2606 36009KT P6SM FEW200 FM251200 03006KT P6SM
                       SCT120 BKN200 FM251700 02005KT P6SM BKN120
                       BKN200=
202308242337 TAF KSEA 242337Z 2500/2606 36010G16KT P6SM FEW200 FM250300 36009KT
                       P6SM FEW200 FM251200 03006KT P6SM SCT120
                       BKN200 FM251700 02005KT P6SM BKN120 BKN200=
202308242105 KSEA 242105Z 2421/2524 36010G16KT P6SM FEW200 FM250300 36009KT
                       P6SM FEW200 FM251200 03006KT P6SM SCT120
                       BKN200 FM251700 02005KT P6SM BKN120 BKN200=
202308241727 TAF KSEA 241727Z 2418/2524 36010G16KT P6SM FEW200 FM250300 36009KT
                       P6SM FEW200 FM251200 03006KT P6SM SCT120
                       BKN200 FM251700 02005KT P6SM BKN120 BKN200=
202308241501 KSEA 241501Z 2415/2518 01008KT P6SM FEW015 FM241800 36010G16KT
                       P6SM FEW200 FM250300 36009KT P6SM FEW200
                       FM251200 04006KT P6SM SCT120 BKN200 FM251700
                       02005KT P6SM BKN120 BKN200=
202308241129 TAF KSEA 241129Z 2412/2518 01008KT P6SM SKC FM241800 36010G16KT
                       P6SM FEW200 FM250300 36009KT P6SM FEW200
                       FM251200 04006KT P6SM SCT120 BKN200 FM251700
                       02005KT P6SM BKN120 BKN200=
202308240859 KSEA 240859Z 2409/2512 01007KT P6SM SKC FM241800 36010G18KT P6SM
                       SCT250 FM250300 36007KT P6SM SCT250=
202308240521 TAF KSEA 240521Z 2406/2512 35007KT P6SM SCT250 FM241800 36010G18KT
                       P6SM SCT250 FM250300 36007KT P6SM SCT250=
202308240254 KSEA 240254Z 2403/2506 35008KT P6SM SCT250 FM241800 36010G18KT
                       P6SM SCT250=
202308232326 TAF KSEA 232326Z 2400/2506 23006KT P6SM FEW030 BKN250 FM240200
                       01008KT P6SM SCT250 FM241800 36010G18KT
                       P6SM SCT250=
202308232052 KSEA 232052Z 2321/2424 23006KT P6SM SCT030 BKN250 FM240000 33006KT
                       P6SM BKN250 FM240300 01008KT P6SM SCT250=
202308231720 TAF KSEA 231720Z 2318/2424 21006KT P6SM FEW009 SCT015 BKN030 FM232000
                       23006KT P6SM SCT035 BKN060 FM240000 33006KT
                       P6SM BKN250 FM240300 01008KT P6SM SCT250=
202308231552 KSEA 231552Z 2316/2418 21006KT P6SM SCT009 BKN015 BKN060 FM231900
                       23006KT P6SM SCT035 BKN060 FM240000 33006KT
                       P6SM BKN050 FM240300 01008KT P6SM SCT250=
202308231436 KSEA 231436Z 2315/2418 18004KT P6SM FEW003 SCT009 OVC050 FM231600
                       18006KT P6SM SCT025 BKN040
                      TEMPO 2316/2318 BKN025 BKN040 FM231900 23006KT
                       P6SM SCT035 BKN050 FM240000 33006KT P6SM
                       BKN050 FM240300 01008KT P6SM SCT250=
202308231137 TAF KSEA 231137Z 2312/2418 18006KT P6SM BKN022 OVC040 FM231600
                       18006KT P6SM SCT025 BKN040
                      TEMPO 2316/2318 BKN025 BKN040 FM231900 23006KT
                       P6SM SCT035 BKN050 FM240000 33006KT P6SM
                       BKN050 FM240300 01008KT P6SM SCT250=
202308230907 KSEA 230907Z 2309/2412 18005KT P6SM -SHRA BKN030 OVC050 FM231300
                       18005KT P6SM BKN030 FM231900 22006KT P6SM
                       SCT040 BKN060 FM240100 33006KT P6SM SCT060
                       SCT250=
202308230520 TAF KSEA 230520Z 2306/2412 17006KT P6SM VCSH BKN070 FM230900 18005KT
                       P6SM VCSH BKN050 FM231300 18005KT P6SM BKN030
                       FM231900 22006KT P6SM SCT040 BKN060 FM240100
                       33006KT P6SM SCT060 SCT250=
202308230302 KSEA 230302Z 2303/2406 23010KT P6SM VCSH SCT050 BKN100 FM230900
                       18005KT P6SM VCSH BKN050 FM231300 18005KT
                       P6SM BKN030 FM231900 22006KT P6SM SCT040
                       BKN060 FM240000 32006KT P6SM SCT050 SCT100=
202308222328 TAF KSEA 222328Z 2300/2406 23010KT P6SM VCSH SCT050 BKN100 FM230900
                       18005KT P6SM VCSH BKN050 FM231300 18005KT
                       P6SM BKN030 FM231900 22006KT P6SM SCT040
                       BKN060 FM232300 32006KT P6SM SCT050 SCT100=
202308222055 KSEA 222055Z 2221/2324 23010KT P6SM VCSH SCT050 BKN100 FM230300
                       21006KT P6SM VCSH SCT060 BKN100 FM230900
                       18005KT P6SM VCSH BKN050 FM231300 18005KT
                       P6SM BKN030 FM231900 22006KT P6SM SCT040
                       BKN060=
202308222052 KSEA 222052Z 2221/2324 23010KT P6SM SCT050 BKN100 FM230300 21006KT
                       P6SM SCT060 BKN100 FM230900 18005KT P6SM
                       BKN050 FM231300 18005KT P6SM BKN030 FM231900
                       22006KT P6SM SCT040 BKN060=
202308221733 TAF KSEA 221733Z 2218/2324 19005KT P6SM SCT030 BKN070 FM222100
                       23008KT P6SM VCSH SCT080 BKN100 FM230900
                       18005KT P6SM VCSH BKN050 FM231200 18005KT
                       P6SM SCT030 BKN050=
202308221452 KSEA 221452Z 2215/2318 19005KT P6SM SCT020 BKN070 BKN250
                      TEMPO 2215/2218 BKN019 FM221800 21006KT P6SM
                       SCT020 BKN100 FM222000 23010KT P6SM BKN100
                       FM230300 21006KT P6SM SCT060 BKN100 FM230900
                       18005KT P6SM BKN050=
202308221135 TAF KSEA 221135Z 2212/2318 19005KT P6SM SCT060 FM221300 18007KT
                       4SM BR BKN015 FM221800 21006KT P6SM SCT020
                       BKN100 FM222000 23010KT P6SM BKN100 FM230300
                       21006KT P6SM SCT060 BKN100 FM230900 18005KT
                       P6SM BKN050=
202308220857 KSEA 220857Z 2209/2312 19005KT P6SM BKN070 FM221200 19005KT P6SM
                       BKN020
                      TEMPO 2212/2216 4SM BR BKN015 FM221700 21006KT
                       P6SM SCT020 BKN100 FM222000 23009KT P6SM
                       BKN100 FM230300 21006KT P6SM SCT060 BKN100=
202308220523 TAF KSEA 220523Z 2206/2312 21005KT P6SM SCT060 SCT250 FM221200
                       19005KT P6SM BKN020
                      TEMPO 2212/2216 4SM BR BKN015 FM221700 21006KT
                       P6SM SCT020 BKN100 FM222000 23009KT P6SM
                       BKN100 FM230300 21006KT P6SM SCT060 BKN100=
202308220259 KSEA 220259Z 2203/2306 26008KT P6SM SCT250 FM220600 21006KT P6SM
                       SCT250 FM221200 19005KT P6SM BKN020
                      TEMPO 2212/2216 4SM BR BKN015 FM221700 21005KT
                       P6SM BKN100=
202308212325 TAF KSEA 212325Z 2200/2306 26008KT 6SM HZ SCT250 FM220600 21006KT
                       P6SM SCT250 FM221200 19005KT 4SM BR BKN020
                       FM221700 21005KT P6SM BKN100=
202308212053 KSEA 212053Z 2121/2224 26008KT 6SM HZ OVC200 FM220600 21006KT P6SM
                       SCT250 FM221200 21005KT 4SM BR BKN015 FM221700
                       19005KT P6SM BKN030=
202308212052 KSEA 212052Z 2121/2224 26008KT P6SM OVC020 FM220600 21006KT P6SM
                       SCT250 FM221200 21005KT 4SM BR BKN015 FM221700
                       19005KT P6SM BKN030=
202308211732 TAF KSEA 211732Z 2118/2224 24005KT 6SM HZ FEW010 SCT050 BKN250
                       FM212100 26008KT P6SM SCT250 FM220600 21006KT
                       P6SM SCT250 FM221200 21005KT 4SM BR BKN015
                       FM221700 19005KT P6SM BKN030=
202308211453 KSEA 211453Z 2115/2218 VRB05KT 5SM FU OVC040 FM211800 31005KT 6SM
                       HZ BKN250 FM212200 27008KT P6SM SCT250 FM220200
                       23005KT P6SM SCT250 FM221200 21005KT 4SM
                       BR BKN015 FM221700 19005KT P6SM BKN030=
202308211140 TAF KSEA 211140Z 2112/2218 VRB05KT 6SM FU OVC045 FM211500 31005KT
                       6SM HZ BKN250 FM212200 27008KT P6SM SCT250
                       FM220200 23005KT P6SM SCT250 FM221200 21005KT
                       4SM BR BKN015 FM221700 19005KT P6SM BKN030=
202308210859 KSEA 210859Z 2109/2212 30004KT 5SM HZ FU OVC045 FM211100 VRB03KT
                       4SM HZ SKC FM211500 31005KT 5SM HZ BKN250
                       FM212200 27008KT P6SM SCT250 FM220200 23005KT
                       P6SM SCT250=
202308210529 TAF KSEA 210529Z 2106/2212 35004KT 4SM HZ FU OVC045 FM211100 VRB03KT
                       4SM HZ SKC FM211500 31005KT 5SM HZ BKN250
                       FM212200 27008KT P6SM SCT250 FM220200 23005KT
                       P6SM SCT250=
202308210309 KSEA 210309Z 2103/2206 34006KT 3SM HZ FU BKN035 FM210600 35004KT
                       5SM HZ FU SKC FM211100 25004KT 6SM HZ SKC
                       FM211500 28005KT 6SM HZ BKN250 FM212200
                       25008KT P6SM BKN250=
202308202331 TAF KSEA 202331Z 2100/2206 34006KT 3SM HZ FU BKN035 FM210600 35004KT
                       5SM HZ FU SKC FM211100 25004KT 6SM HZ SKC
                       FM211500 28005KT 6SM HZ BKN250 FM212200
                       28008KT P6SM BKN250=
202308202209 KSEA 202209Z 2022/2124 34006KT 3SM FU BKN035 FM210600 35004KT 5SM
                       HZ FU SKC FM211100 25004KT 6SM HZ SKC FM211500
                       28005KT P6SM BKN250=
202308202100 KSEA 202100Z 2021/2124 33008KT 5SM FU HZ BKN040 FM202200 34006KT
                       5SM FU BKN050 FM210600 35004KT 6SM HZ FU
                       SKC FM211100 25004KT 6SM HZ SKC FM211500
                       28005KT P6SM BKN250=
202308201720 TAF KSEA 201720Z 2018/2124 34009KT 6SM FU OVC050 FM202200 28006KT
                       5SM FU OVC050 FM210600 35004KT P6SM SKC
                       FM211100 25004KT P6SM SKC FM211500 18003KT
                       P6SM BKN250=
202308201504 KSEA 201504Z 2015/2118 04009KT 6SM FU BKN050 FM201800 32009KT 6SM
                       FU OVC050 FM210600 35004KT P6SM SKC FM211100
                       25004KT P6SM SKC=
202308201139 TAF KSEA 201139Z 2012/2118 06004KT 6SM FU OVC050 FM201800 32009KT
                       6SM FU OVC050 FM210600 35004KT P6SM SKC
                       FM211100 25004KT P6SM SKC=
202308200901 KSEA 200901Z 2009/2112 03003KT 6SM FU OVC060 FM201800 32008KT 6SM
                       FU SKC FM210300 35006KT P6SM SKC=
202308200520 TAF KSEA 200520Z 2006/2112 02008KT 6SM FU SKC FM200900 02005KT
                       5SM FU SKC FM201800 32008KT 6SM FU SKC FM210300
                       35006KT P6SM SKC=
202308200259 KSEA 200259Z 2003/2106 35012KT P6SM SKC FM200600 02008KT 6SM FU
                       SKC FM200900 02005KT 5SM FU SKC FM201800
                       32007KT 4SM FU SKC=
202308192320 TAF KSEA 192320Z 2000/2106 35012KT P6SM SKC FM200400 02006KT 6SM
                       FU SKC FM200900 02007KT 5SM FU SKC FM201200
                       03005KT 5SM FU SKC FM201800 32005KT 4SM
                       FU SKC=
202308192100 KSEA 192100Z 1921/2024 35011G17KT P6SM SKC FM192200 36012KT 6SM
                       HZ SKC FM200400 02008KT 5SM FU SKC FM200900
                       02007KT 4SM FU SKC FM201200 03005KT 4SM
                       FU SKC=
202308191723 TAF KSEA 191723Z 1918/2024 35007KT P6SM SKC FM192200 36012KT 6SM
                       HZ SKC FM200400 02008KT 5SM FU SKC FM200900
                       02007KT 4SM FU SKC FM201200 03005KT 4SM
                       FU SKC=
202308191458 KSEA 191458Z 1915/2018 VRB04KT P6SM SKC FM191700 35007KT P6SM SKC
                       FM192200 36012KT 6SM HZ SKC FM200600 02008KT
                       6SM HZ SKC=
202308191134 TAF KSEA 191134Z 1912/2018 VRB03KT P6SM SKC FM191800 36006KT P6SM
                       SKC FM192200 36012KT 6SM HZ SKC FM200600
                       02008KT 6SM HZ SKC=
202308190923 KSEA 190923Z 1909/2012 VRB03KT P6SM SKC FM191300 02004KT P6SM SKC
                       FM192000 36011KT 6SM HZ SKC=
202308190523 TAF KSEA 190523Z 1906/2012 30006KT P6SM SKC FM190800 02004KT P6SM
                       SKC FM191600 01008KT P6SM SKC FM192100 35011KT
                       6SM HZ SKC FM200500 02011KT 6SM HZ SKC=
202308190258 KSEA 190258Z 1903/2006 33006KT P6SM SKC FM190800 02004KT P6SM SKC
                       FM191600 01008KT P6SM SKC FM192100 35011KT
                       6SM HZ SKC=
202308182320 TAF KSEA 182320Z 1900/2006 26006KT P6SM SKC FM190300 35006KT P6SM
                       SKC FM190800 02004KT P6SM SKC FM191600 01008KT
                       P6SM SKC FM192100 35011KT 6SM HZ SKC=
202308182054 KSEA 182054Z 1821/1924 26006KT P6SM SKC FM190300 35006KT P6SM SKC
                       FM190800 02004KT P6SM SKC FM191600 01008KT
                       P6SM SKC FM192100 35011KT 6SM HZ SKC=
202308181720 TAF KSEA 181720Z 1818/1924 23008KT P6SM BKN025 OVC035 FM181900
                       24007KT P6SM SCT025 FM182000 26006KT P6SM
                       SKC FM190300 35006KT P6SM SKC FM190800 02004KT
                       P6SM SKC FM191600 01008KT P6SM SKC=
202308181500 KSEA 181500Z 1815/1918 21008KT P6SM SCT015 BKN020 OVC030 FM181900
                       23006KT P6SM SCT025 FM182100 25006KT P6SM
                       SKC FM190200 35006KT P6SM SKC=
202308181339 KSEA 181339Z 1814/1918 21008KT P6SM OVC022 FM181900 23006KT P6SM
                       SCT020 FM182100 25006KT P6SM SKC FM190200
                       35006KT P6SM SKC=
202308181138 TAF KSEA 181138Z 1812/1918 21008KT P6SM OVC016 FM181700 21008KT
                       P6SM OVC020 FM181900 23006KT P6SM SCT020
                       FM182100 25006KT P6SM SKC FM190200 35006KT
                       P6SM SKC=
202308180901 KSEA 180901Z 1809/1912 21008KT P6SM OVC016 FM181300 21008KT P6SM
                       OVC020 FM181900 23006KT P6SM SCT020 FM182100
                       25006KT P6SM SKC FM190200 33006KT P6SM SKC=
202308180533 TAF KSEA 180533Z 1806/1912 23007KT P6SM SCT250 FM181000 19007KT
                       P6SM OVC010 FM181900 23006KT P6SM SCT010
                       FM182100 25007KT P6SM SKC FM190200 33006KT
                       P6SM SKC=
202308180309 KSEA 180309Z 1803/1906 23007KT P6SM SCT250 FM181000 19007KT P6SM
                       OVC010 FM181900 23006KT P6SM SCT010 FM182100
                       25007KT P6SM SKC FM190200 33006KT P6SM SKC=
202308172320 TAF KSEA 172320Z 1800/1906 23007KT P6SM SCT250 FM181000 19007KT
                       P6SM OVC010 FM181900 23006KT P6SM SCT010
                       FM182100 25007KT P6SM SKC FM190200 33006KT
                       P6SM SKC=
202308172052 KSEA 172052Z 1721/1824 28006KT P6SM FEW150 BKN250 FM180300 23007KT
                       P6SM SCT250 FM181100 19008KT P6SM BKN009
                       FM181900 23006KT P6SM FEW250=
202308171721 TAF KSEA 171721Z 1718/1824 28006KT P6SM SCT250 FM180300 23007KT
                       P6SM FEW250 FM181100 19008KT P6SM BKN009
                       FM181900 23006KT P6SM FEW250=
202308171505 KSEA 171505Z 1715/1818 VRB03KT P6SM SCT250 FM171800 26006KT P6SM
                       SCT250 FM181000 21010KT P6SM OVC011=
202308171128 TAF KSEA 171128Z 1712/1818 VRB03KT P6SM SCT250 FM171800 24006KT
                       P6SM SCT250 FM181000 21010KT P6SM OVC011=
202308170909 KSEA 170909Z 1709/1812 VRB03KT P6SM SKC FM171800 24006KT P6SM SKC
                       FM181000 22010KT P6SM OVC011=
202308170532 TAF KSEA 170532Z 1706/1812 36006KT P6SM FEW250 FM171000 VRB03KT
                       P6SM FEW250 FM171800 29006KT P6SM FEW250=
202308170257 KSEA 170257Z 1703/1806 36006KT P6SM SCT250 FM171000 VRB03KT P6SM
                       FEW250 FM171800 29006KT P6SM FEW250=
202308162320 TAF KSEA 162320Z 1700/1806 31008KT P6SM SKC FM170200 33007KT P6SM
                       SKC FM170700 34004KT P6SM SKC FM171200 VRB03KT
                       P6SM FEW250 FM171800 26006KT P6SM SKC=
202308162107 KSEA 162107Z 1621/1724 31008KT P6SM SKC FM170200 35008KT P6SM SKC
                       FM170700 35004KT P6SM SKC FM171100 VRB03KT
                       P6SM SKC FM171800 26006KT P6SM SKC=
202308161720 TAF KSEA 161720Z 1618/1724 33006KT P6SM SKC FM170200 35008KT P6SM
                       SKC FM170700 35004KT P6SM SKC FM171100 VRB03KT
                       P6SM SKC FM171800 26006KT P6SM SKC=
202308161454 KSEA 161454Z 1615/1718 35004KT P6SM SKC FM161900 32006KT P6SM SKC
                       FM170200 35008KT P6SM SKC FM170500 VRB03KT
                       P6SM SKC=
202308161129 TAF KSEA 161129Z 1612/1718 VRB03KT P6SM SKC FM161600 30005KT P6SM
                       SKC FM170200 35008KT P6SM SKC FM170500 VRB03KT
                       P6SM SKC=
202308160923 KSEA 160923Z 1609/1712 VRB03KT P6SM SKC FM161600 30006KT P6SM SKC
                       FM170300 35005KT P6SM SKC=
202308160520 TAF KSEA 160520Z 1606/1712 36005KT P6SM SKC FM160900 VRB03KT P6SM
                       SKC FM161600 30006KT P6SM SKC FM170300 35005KT
                       P6SM SKC=
202308160257 KSEA 160257Z 1603/1706 36005KT P6SM SKC FM160900 VRB03KT P6SM SKC
                       FM161600 30006KT P6SM SKC=
202308152328 TAF KSEA 152328Z 1600/1706 32008KT P6SM SKC FM160200 36005KT P6SM
                       SKC FM160900 03009KT P6SM SKC FM161600 32005KT
                       P6SM SKC=
202308152054 KSEA 152054Z 1521/1624 31008KT P6SM SKC FM160200 36005KT P6SM SKC
                       FM160900 03009KT P6SM SKC=
202308151732 TAF KSEA 151732Z 1518/1624 01008KT P6SM SKC FM160000 01005KT P6SM
                       SKC FM160900 03009KT P6SM SKC=
202308151512 KSEA 151512Z 1515/1618 01008KT P6SM SKC FM160000 01005KT P6SM SKC
                       FM160900 03009KT P6SM FEW250=
202308151120 TAF KSEA 151120Z 1512/1618 02008KT P6SM SKC FM151700 32008KT P6SM
                       SKC FM160400 01005KT P6SM SKC FM161500 35006KT
                       P6SM FEW250=
202308150852 KSEA 150852Z 1509/1612 03008KT P6SM SKC FM151200 VRB04KT P6SM FEW250
                       FM151700 32008KT P6SM FEW250 FM160400 35005KT
                       P6SM FEW250=
202308150520 TAF KSEA 150520Z 1506/1612 02008KT P6SM FEW250 FM151200 VRB04KT
                       P6SM FEW250 FM151700 32008KT P6SM FEW250
                       FM160400 35005KT P6SM FEW250=
202308150307 KSEA 150307Z 1503/1606 01010KT P6SM FEW250 FM151200 VRB05KT P6SM
                       FEW250 FM151700 30008KT P6SM FEW250 FM160500
                       35005KT P6SM FEW250=
202308142320 TAF KSEA 142320Z 1500/1606 36014G22KT 6SM HZ FEW250 FM150300 01010KT
                       P6SM FEW250 FM151200 VRB05KT P6SM FEW250
                       FM151700 28008KT P6SM FEW250 FM160500 25005KT
                       P6SM FEW250=
202308142055 KSEA 142055Z 1421/1524 36014G22KT 6SM HZ FEW250 FM150300 01010KT
                       P6SM FEW250 FM151400 VRB05KT P6SM FEW250
                       FM151700 30008KT P6SM FEW250=
202308141734 TAF KSEA 141734Z 1418/1524 36014G22KT 6SM HZ FEW250 FM150300 01010KT
                       P6SM FEW250 FM151400 VRB05KT P6SM FEW250
                       FM151700 30008KT P6SM FEW250=
202308141457 KSEA 141457Z 1415/1518 03011KT P6SM FEW250 FM141800 35014G22KT
                       P6SM FEW250 FM150300 01010KT P6SM SKC=
202308141135 TAF KSEA 141135Z 1412/1518 02009KT P6SM SKC FM141800 35012KT P6SM
                       SKC FM142200 35013G22KT P6SM FEW250 FM150300
                       01010KT P6SM SKC=
202308140906 KSEA 140906Z 1409/1512 03007KT P6SM SKC FM141200 02009KT P6SM SKC
                       FM141800 35011KT P6SM SKC FM142200 35013G21KT
                       P6SM FEW250 FM150300 01010KT P6SM SKC=
202308140520 TAF KSEA 140520Z 1406/1512 03010KT P6SM SKC FM141000 02009KT P6SM
                       SKC FM141800 35011KT P6SM SKC FM142200 35013G21KT
                       P6SM FEW250 FM150300 01010KT P6SM SKC=
202308140301 KSEA 140301Z 1403/1506 03010KT P6SM SKC FM141000 02009KT P6SM SKC
                       FM141800 35011KT P6SM SKC FM142200 35013G21KT
                       P6SM FEW250=
202308132320 TAF KSEA 132320Z 1400/1506 35012G19KT P6SM SKC FM140400 03010KT
                       P6SM SKC FM141000 02009KT P6SM SKC FM141800
                       35011KT P6SM SKC FM142200 35013G21KT P6SM
                       FEW250=
202308132101 KSEA 132101Z 1321/1424 35012G19KT P6SM SKC
                      TEMPO 1321/1401 5SM HZ FM140400 03008KT P6SM
                       SKC FM141000 02009KT P6SM SKC FM141800 35011KT
                       P6SM SKC=
202308131720 TAF KSEA 131720Z 1318/1424 01008KT P6SM SKC FM131900 35010KT P6SM
                       SKC FM132100 35012G19KT P6SM SKC FM140400
                       03008KT P6SM SKC FM141000 02009KT P6SM SKC=
202308131505 KSEA 131505Z 1315/1418 04006KT P6SM SCT250 FM131900 35010KT P6SM
                       SCT250 FM140200 03012KT P6SM SKC FM140700
                       02009KT P6SM SKC=
202308131142 TAF KSEA 131142Z 1312/1418 04008KT P6SM SCT250 FM131800 35012KT
                       P6SM SCT250 FM140300 01010KT P6SM SKC=
202308130905 KSEA 130905Z 1309/1412 04010KT P6SM SKC FM131100 02007KT P6SM SCT250
                       FM131800 35012KT P6SM SCT250 FM140300 01011KT
                       P6SM SKC=
202308130520 TAF KSEA 130520Z 1306/1412 02010KT P6SM SCT250 FM131100 02007KT
                       P6SM SCT250 FM131800 35012KT P6SM SCT250
                       FM140300 01011KT P6SM SKC=
202308130300 KSEA 130300Z 1303/1406 35010KT P6SM SCT250 FM130700 02010KT P6SM
                       SCT250 FM131100 02007KT P6SM SCT250 FM131800
                       35012KT P6SM SCT250=
202308122324 TAF KSEA 122324Z 1300/1406 35011KT P6SM FEW040 SCT250 FM130700
                       02010KT P6SM SCT250 FM131100 02007KT P6SM
                       SCT250 FM131800 35011KT P6SM SCT250=
202308122055 KSEA 122055Z 1221/1324 35011KT P6SM FEW030 SCT250 FM130700 02010KT
                       P6SM SCT250 FM131100 02007KT P6SM SCT250=
202308121735 TAF KSEA 121735Z 1218/1324 35010KT P6SM SCT250 FM130700 02010KT
                       P6SM SCT250 FM131100 02007KT P6SM SCT250=
202308121504 KSEA 121504Z 1215/1318 02009KT P6SM FEW150 BKN250 FM121800 34010KT
                       P6SM SCT250 FM130700 02010KT P6SM SCT250=
202308121120 TAF KSEA 121120Z 1212/1318 04007KT P6SM FEW150 BKN250 FM121800
                       34010KT P6SM SCT250 FM130700 02010KT P6SM
                       SCT250=
202308120859 KSEA 120859Z 1209/1312 03010KT P6SM SKC FM121800 34010KT P6SM SCT250
                       FM130700 02008KT P6SM SCT250=
202308120535 TAF KSEA 120535Z 1206/1312 02009KT P6SM SCT250 FM120900 02007KT
                       P6SM BKN150 FM121800 34010KT P6SM SCT250
                       FM130700 02008KT P6SM SCT250=
202308120326 KSEA 120326Z 1203/1306 36009KT P6SM SCT220 FM120700 02007KT P6SM
                       BKN150 FM121200 03004KT P6SM BKN050 BKN250
                       FM121800 33005KT P6SM BKN250 FM122100 33010KT
                       P6SM BKN250=
202308112332 TAF KSEA 112332Z 1200/1306 33009KT P6SM FEW045 FEW150 SCT220 FM120400
                       02007KT P6SM BKN150 FM121200 03004KT P6SM
                       BKN050 BKN250 FM121800 33005KT P6SM BKN250
                       FM122100 33010KT P6SM BKN250=
202308112103 KSEA 112103Z 1121/1224 29006KT P6SM SCT045 FM120000 33009KT P6SM
                       FEW050 FM120400 02007KT P6SM BKN150 FM121200
                       03004KT P6SM OVC050=
202308111735 TAF KSEA 111735Z 1118/1224 28003KT P6SM BKN050 FM111900 27006KT
                       P6SM SCT045 FM120000 33009KT P6SM SCT050
                       FM120400 02007KT P6SM BKN150 FM121200 03004KT
                       P6SM OVC050=
202308111503 KSEA 111503Z 1115/1218 28003KT P6SM BKN045 FM111900 27006KT P6SM
                       SCT045 FM120000 33009KT P6SM SCT050 FM120400
                       02007KT P6SM BKN150=
202308111139 TAF KSEA 111139Z 1112/1218 05003KT P6SM BKN045 FM111900 27006KT
                       P6SM SCT045 FM120000 33005KT P6SM SCT050
                       FM120400 02007KT P6SM BKN150=
202308110858 KSEA 110858Z 1109/1212 03006KT P6SM SKC FM111300 05003KT P6SM BKN045
                       FM111800 32006KT P6SM SCT050 FM112300 30007KT
                       P6SM SCT050=
202308110539 TAF KSEA 110539Z 1106/1212 35006KT P6SM SCT050 FM111300 35006KT
                       P6SM BKN050 FM112100 32006KT P6SM SCT050=
202308110308 KSEA 110308Z 1103/1206 35006KT P6SM SCT050 FM111300 35006KT P6SM
                       BKN050 FM112100 32006KT P6SM SCT050=
202308102339 TAF KSEA 102339Z 1100/1206 31005KT P6SM BKN040 BKN050 FM110100
                       31006KT P6SM BKN070 FM110900 02006KT P6SM
                       BKN060 FM111700 VRB04KT P6SM BKN070=
202308102106 KSEA 102106Z 1021/1124 24005KT P6SM SCT030 BKN050 FM102200 22004KT
                       P6SM SCT050 FM110100 31006KT P6SM SCT200
                       FM110800 02006KT P6SM SCT200 FM111100 03005KT
                       P6SM BKN060=
202308101732 TAF KSEA 101732Z 1018/1124 15005KT P6SM FEW025 BKN045 BKN070 FM101900
                       24005KT P6SM BKN050 BKN070 FM102200 26004KT
                       P6SM SCT050 FM110100 34006KT P6SM SCT200
                       FM110800 02006KT P6SM SCT200 FM111100 03005KT
                       P6SM BKN060=
202308101605 KSEA 101605Z 1016/1118 15005KT P6SM FEW025 BKN050 BKN070 FM101900
                       24005KT P6SM BKN050 BKN070 FM102200 26004KT
                       P6SM SCT050 FM110100 34006KT P6SM SCT200
                       FM110800 02006KT P6SM SCT200 FM111000 03005KT
                       P6SM BKN060=
202308101455 KSEA 101455Z 1015/1118 15005KT P6SM BKN050 BKN070 FM102200 24004KT
                       P6SM SCT050 FM110100 34006KT P6SM SCT200
                       FM110800 02006KT P6SM SCT200 FM111000 03005KT
                       P6SM BKN060=
202308101125 TAF KSEA 101125Z 1012/1118 20004KT P6SM BKN040
                      TEMPO 1012/1015 BKN030 FM102200 24004KT P6SM
                       SCT050 FM110100 34006KT P6SM SCT200 FM110800
                       02006KT P6SM SCT200=
202308100908 KSEA 100908Z 1009/1112 21004KT P6SM BKN045
                      TEMPO 1012/1013 BKN030 FM102200 24004KT P6SM
                       SCT050 FM110100 34006KT P6SM SCT200=
202308100541 TAF KSEA 100541Z 1006/1112 VRB03KT P6SM BKN045 FM100900 18006KT
                       P6SM BKN045 FM102200 24004KT P6SM SCT050
                       FM110100 34006KT P6SM SCT200=
202308100303 KSEA 100303Z 1003/1106 32007KT P6SM SCT025 SCT050 FM100900 18006KT
                       P6SM SCT050 FM101500 18006KT P6SM BKN050
                       FM102000 24004KT P6SM SCT050 SCT100 FM110100
                       34006KT P6SM SCT200=
202308092351 TAF KSEA 092351Z 1000/1106 22012G20KT P6SM SCT050 SCT200 FM100300
                       02007KT P6SM VCSH SCT025 BKN040 FM100900
                       16006KT P6SM BKN070 FM101500 18004KT P6SM
                       BKN050 FM102000 24004KT P6SM SCT050 SCT100=
202308092226 KSEA 092226Z 0922/1024 22012G20KT P6SM SCT025 BKN050 FM100300 04007KT
                       P6SM VCSH SCT025 BKN040 FM100900 15006KT
                       P6SM BKN070 FM101500 18004KT P6SM BKN050=
202308092057 KSEA 092057Z 0921/1024 22010KT P6SM SCT025 BKN050 FM100300 04007KT
                       P6SM VCSH SCT025 BKN040 FM100900 15006KT
                       P6SM BKN070 FM101500 18004KT P6SM BKN050=
202308091815 KSEA 091815Z 0918/1024 20007KT P6SM VCSH BKN015 OVC025
                      TEMPO 0918/0919 BKN007 FM092100 23008KT P6SM
                       VCSH SCT025 BKN040 FM100300 04007KT P6SM
                       SCT025 BKN040 FM100900 15006KT P6SM BKN070
                       FM101500 18004KT P6SM BKN050=
202308091729 TAF KSEA 091729Z 0918/1024 20007KT P6SM VCSH BKN015 OVC025 FM092100
                       23008KT P6SM VCSH SCT025 BKN040 FM100300
                       04007KT P6SM SCT025 BKN040 FM100900 15006KT
                       P6SM BKN070 FM101500 18004KT P6SM BKN050=
202308091509 KSEA 091509Z 0915/1018 19005KT P6SM OVC015 FM091700 20007KT P6SM
                       OVC025 FM092100 23008KT P6SM VCSH SCT025
                       BKN040 FM100300 04007KT P6SM SCT025 BKN040
                       FM100900 15006KT P6SM BKN050=
202308091349 KSEA 091349Z 0914/1018 19005KT P6SM VCSH SCT050 OVC080 FM091500
                       19005KT P6SM BKN020 FM092200 23008KT P6SM
                       VCSH SCT025 BKN040 FM100300 04007KT P6SM
                       SCT025 BKN040 FM100900 15006KT P6SM BKN050=
202308091140 TAF KSEA 091140Z 0912/1018 19005KT P6SM SCT025 BKN110 FM091500
                       19005KT P6SM BKN020 FM092200 23008KT P6SM
                       VCSH SCT025 BKN040 FM100300 04007KT P6SM
                       SCT025 BKN040 FM100900 15006KT P6SM BKN050=
202308090910 KSEA 090910Z 0909/1012 VRB04KT P6SM OVC110 FM091000 19005KT P6SM
                       BKN060
                      TEMPO 0915/0916 OVC020 FM092300 23008KT P6SM
                       SCT025 BKN040 FM100300 04007KT P6SM SCT025
                       BKN040=
202308090535 TAF KSEA 090535Z 0906/1012 35008KT P6SM FEW090 BKN140 FM090800
                       VRB04KT P6SM SCT070 FM091500 19007KT P6SM
                       VCSH OVC015 FM091800 19008KT P6SM -SHRA
                       SCT012 OVC020 FM092300 23008KT P6SM SCT025
                       BKN040 FM100300 04007KT P6SM SCT025 BKN040=
202308090306 KSEA 090306Z 0903/1006 35007KT P6SM FEW040 SCT200 FM090900 19004KT
                       P6SM BKN200 FM091400 19008KT P6SM OVC015
                       FM091900 19008KT P6SM -SHRA SCT012 OVC020
                       FM092300 23008KT P6SM SCT025 BKN040=
202308082341 TAF KSEA 082341Z 0900/1006 19006KT P6SM SCT025 BKN200 FM090300
                       33007KT P6SM SCT200 FM090900 19004KT P6SM
                       BKN200 FM091400 19008KT P6SM OVC015 FM091900
                       19008KT P6SM -SHRA SCT012 OVC020 FM092300
                       23008KT P6SM SCT025 BKN040=
202308082104 KSEA 082104Z 0821/0924 26006KT P6SM SCT025 BKN200 FM090100 33007KT
                       P6SM SCT200 FM090900 19004KT P6SM BKN200
                       FM091400 19008KT P6SM OVC015 FM091900 19008KT
                       P6SM -SHRA SCT012 OVC020=
202308081725 TAF KSEA 081725Z 0818/0924 21004KT P6SM BKN012 OVC022 FM082000
                       23004KT P6SM SCT012 BKN022 FM082200 26004KT
                       P6SM SCT025 SCT200 FM090100 33007KT P6SM
                       SCT200 FM090900 19004KT P6SM BKN200 FM091400
                       19008KT P6SM OVC015 FM091900 19008KT P6SM
                       -SHRA SCT012 OVC020=
202308081520 KSEA 081520Z 0815/0918 26004KT P6SM BKN011 OVC020 FM081800 26004KT
                       P6SM SCT012 OVC022 FM082000 26004KT P6SM
                       SCT020 BKN070 FM090100 33007KT P6SM FEW070
                       SCT200 FM091300 19004KT P6SM BKN020=
202308081138 TAF KSEA 081138Z 0812/0918 32002KT P6SM OVC015 FM081600 20004KT
                       P6SM OVC015 FM081800 23007KT P6SM SCT020
                       BKN070 FM090300 33007KT P6SM FEW070 SCT200
                       FM091300 19004KT P6SM BKN020=
202308081010 KSEA 081010Z 0810/0912 32002KT P6SM OVC015 FM081300 19004KT P6SM
                       OVC015 FM081800 23007KT P6SM SCT020 BKN070
                       FM090300 33007KT P6SM FEW070 SCT200 FM090800
                       23004KT P6SM FEW070 BKN120=
202308080859 KSEA 080859Z 0809/0912 33002KT P6SM SCT015 BKN040 FM081300 19004KT
                       P6SM OVC015 FM081800 23007KT P6SM SCT020
                       BKN070 FM090300 33007KT P6SM FEW070 SCT200=
202308080542 TAF KSEA 080542Z 0806/0912 30004KT P6SM FEW050 SCT200 FM080800
                       33005KT P6SM OVC050 FM081300 19004KT P6SM
                       OVC015 FM081800 23007KT P6SM BKN070 FM090300
                       33007KT P6SM FEW070 SCT200=
202308080311 KSEA 080311Z 0803/0906 30004KT P6SM FEW030 BKN200 FM080800 33005KT
                       P6SM OVC050 FM081300 18003KT P6SM OVC015=
202308072329 TAF KSEA 072329Z 0800/0906 28006KT P6SM SCT025 BKN100 FM080100
                       35005KT P6SM BKN100 FM080800 33005KT P6SM
                       OVC050 FM081300 18003KT P6SM OVC015=
202308072108 KSEA 072108Z 0721/0824 28006KT P6SM BKN025 OVC035 FM072200 28006KT
                       P6SM BKN060 FM080000 35005KT P6SM BKN100
                       FM080800 33005KT P6SM OVC050 FM081300 18003KT
                       P6SM OVC012=
202308071958 KSEA 071958Z 0720/0824 28006KT P6SM BKN025 OVC035 FM072100 28006KT
                       P6SM BKN060 FM080000 35005KT P6SM BKN100
                       FM080800 33005KT P6SM OVC050 FM081300 18003KT
                       P6SM OVC012=
202308071732 TAF KSEA 071732Z 0718/0824 23004KT P6SM SCT008 BKN015 OVC030 FM071900
                       25004KT P6SM BKN040 FM080000 35005KT P6SM
                       BKN100 FM080800 33005KT P6SM OVC050 FM081300
                       18003KT P6SM OVC012=
202308071502 KSEA 071502Z 0715/0818 28004KT P6SM BKN010 OVC020 FM071700 23007KT
                       P6SM SCT008 BKN015 OVC030 FM071830 25004KT
                       P6SM BKN040 FM080000 30005KT P6SM BKN100
                       FM080800 20006KT P6SM BKN200 FM081300 20006KT
                       P6SM OVC012=
202308071132 TAF KSEA 071132Z 0712/0818 20005KT P6SM -SHRA OVC008 FM071700 23007KT
                       P6SM SCT008 BKN015 OVC030 FM072000 25004KT
                       P6SM BKN050 FM080000 30005KT P6SM BKN100
                       FM080800 20006KT P6SM BKN200 FM081300 20006KT
                       P6SM OVC012=
202308070907 KSEA 070907Z 0709/0812 20005KT P6SM -SHRA BKN025 OVC040 FM071300
                       20005KT P6SM -SHRA OVC008 FM071800 23007KT
                       P6SM SCT008 BKN015 OVC030 FM072100 25004KT
                       P6SM BKN050 FM080000 30005KT P6SM BKN100=
202308070520 TAF KSEA 070520Z 0706/0812 21008KT P6SM FEW100 BKN150 FM071000
                       19004KT P6SM VCSH OVC025 FM071200 20005KT
                       P6SM SHRA OVC008 FM071800 23007KT P6SM BKN025
                       FM072100 25004KT P6SM BKN050 FM080000 30005KT
                       P6SM BKN100=
202308070302 KSEA 070302Z 0703/0806 20004KT P6SM FEW025 BKN150 FM070400 18006KT
                       P6SM OVC070 FM070900 16004KT P6SM VCSH OVC025
                       FM071200 20005KT P6SM SHRA OVC009 FM071800
                       23007KT P6SM BKN025 FM072100 VRB04KT P6SM
                       BKN035=
202308062330 TAF KSEA 062330Z 0700/0806 22008KT P6SM FEW020 BKN160 FM070400
                       18006KT P6SM OVC070 FM070900 16004KT P6SM
                       VCSH OVC025 FM071200 20005KT P6SM SHRA OVC009
                       FM071800 23007KT P6SM BKN025 FM072100 VRB04KT
                       P6SM BKN035=
202308062125 KSEA 062125Z 0621/0724 23007KT P6SM FEW015 BKN120 FM070500 20004KT
                       P6SM OVC050 FM070900 16004KT P6SM VCSH OVC025
                       FM071200 20005KT P6SM VCSH OVC015=
202308061733 TAF KSEA 061733Z 0618/0724 21005KT P6SM BKN015 FM062000 23006KT
                       P6SM SCT080 BKN150 FM070500 20004KT P6SM
                       OVC050 FM070900 16004KT P6SM VCSH OVC025
                       FM071200 20005KT P6SM VCSH OVC015=
202308061623 KSEA 061623Z 0616/0718 21006KT 6SM BR BKN008
                      TEMPO 0616/0617 5SM BR OVC003 FM061800 21005KT
                       P6SM SCT015 FM062000 24007KT P6SM SCT080
                       BKN100 FM070500 19004KT P6SM OVC050 FM071000
                       16003KT P6SM VCSH OVC035=
202308061612 KSEA 061612Z 0616/0718 21006KT 4SM BR OVC007
                      TEMPO 0616/0617 2SM BR OVC002 FM061800 21005KT
                       P6SM SCT015 FM062000 24007KT P6SM SCT080
                       BKN100 FM070500 19004KT P6SM OVC050 FM071000
                       16003KT P6SM VCSH OVC035=
202308061456 KSEA 061456Z 0615/0718 22004KT P6SM BKN007 OVC100
                      TEMPO 0615/0616 1/4SM FG VV001 FM061700 21005KT
                       P6SM SCT015 OVC100 FM062000 24007KT P6SM
                       SCT080 BKN100 FM070500 19004KT P6SM OVC050
                       FM071000 16003KT P6SM VCSH OVC035=
202308061438 KSEA 061438Z 0615/0718 21004KT P6SM BKN007 OVC100
                      TEMPO 0615/0616 2SM BR OVC003 FM061700 21005KT
                       P6SM SCT015 OVC100 FM062000 24007KT P6SM
                       SCT080 BKN100 FM070500 19004KT P6SM OVC050
                       FM071000 16003KT P6SM VCSH OVC035=
202308061322 KSEA 061322Z 0613/0718 21004KT P6SM BKN007 OVC100 FM061700 21005KT
                       P6SM SCT020 OVC100 FM062000 24007KT P6SM
                       SCT080 BKN100 FM070500 19004KT P6SM OVC050
                       FM071000 16003KT P6SM VCSH OVC035=
202308061232 KSEA 061232Z 0613/0718 19005KT P6SM OVC080 FM062000 25007KT P6SM
                       SCT080 BKN100 FM070500 19004KT P6SM OVC050
                       FM071000 16003KT P6SM VCSH OVC035=
202308061138 TAF KSEA 061138Z 0612/0718 19005KT P6SM OVC080 FM062000 25009KT
                       P6SM SCT080 BKN100 FM070500 19004KT P6SM
                       OVC050 FM071000 16003KT P6SM VCSH OVC035=
202308060900 KSEA 060900Z 0609/0712 00000KT P6SM VCSH FEW100 OVC120 FM061200
                       22006KT P6SM OVC050 FM062000 23009KT P6SM
                       BKN100 FM070500 20005KT P6SM SCT050 BKN100=
202308060527 TAF KSEA 060527Z 0606/0712 29004KT P6SM VCSH FEW100 OVC120 FM060800
                       20004KT P6SM OVC100 FM061200 22006KT P6SM
                       OVC050
                      TEMPO 0614/0618 SCT020 FM062000 23009KT P6SM
                       BKN100 FM070500 20005KT P6SM SCT050 BKN100=
202308060307 KSEA 060307Z 0603/0706 33004KT P6SM VCSH FEW070 SCT100 OVC110 FM060500
                       VRB03KT P6SM OVC070 FM061500 22006KT P6SM
                       OVC050 FM062000 23006KT P6SM BKN090 FM070500
                       17005KT P6SM OVC035=
202308052344 TAF KSEA 052344Z 0600/0706 28005KT P6SM VCSH BKN090 FM060500 VRB03KT
                       P6SM OVC070 FM061500 22006KT P6SM OVC050
                       FM062000 23006KT P6SM BKN090 FM070500 17005KT
                       P6SM OVC035=
202308052100 KSEA 052100Z 0521/0624 28006KT P6SM VCSH FEW080 OVC110 FM052300
                       35006KT P6SM VCSH BKN080 OVC100 FM060500
                       VRB03KT P6SM OVC060 FM061500 23006KT P6SM
                       OVC080 FM062300 27005KT P6SM OVC050=
202308051739 TAF KSEA 051739Z 0518/0624 28003KT P6SM VCSH OVC110 FM052300 35006KT
                       P6SM VCSH BKN080 OVC100 FM060500 VRB03KT
                       P6SM OVC060 FM061500 23006KT P6SM OVC080
                       FM062300 27005KT P6SM OVC050=
202308051606 KSEA 051606Z 0516/0618 27006KT P6SM VCSH SCT070 OVC120 FM051800
                       30006KT P6SM VCSH OVC120 FM052300 35006KT
                       P6SM VCSH BKN080 OVC100 FM060500 VRB03KT
                       P6SM OVC050 FM061500 25006KT P6SM OVC080=
202308051458 KSEA 051458Z 0515/0618 30005KT P6SM SCT150 OVC250 FM051700 32006KT
                       P6SM VCSH OVC120 FM052300 35006KT P6SM VCSH
                       BKN080 OVC100 FM060500 VRB03KT P6SM OVC050
                       FM061500 25006KT P6SM OVC080=
202308051139 TAF KSEA 051139Z 0512/0618 01004KT P6SM OVC150 FM051700 32006KT
                       P6SM OVC120 FM052300 35006KT P6SM VCSH BKN080
                       OVC100 FM060500 VRB03KT P6SM OVC050 FM061500
                       25006KT P6SM OVC080=
202308050907 KSEA 050907Z 0509/0612 01004KT P6SM OVC200 FM051700 32006KT P6SM
                       OVC120 FM060600 20003KT P6SM OVC050=
202308050520 TAF KSEA 050520Z 0506/0612 04007KT P6SM BKN250 FM051200 01004KT
                       P6SM BKN150 BKN250 FM051700 32006KT P6SM
                       BKN120 BKN250 FM060600 20003KT P6SM OVC050=
202308050307 KSEA 050307Z 0503/0606 36006KT P6SM SCT200 BKN250 FM050400 03007KT
                       P6SM SCT150 BKN250 FM051200 VRB03KT P6SM
                       BKN100 FM051700 32006KT P6SM SCT100 BKN250=
202308042320 TAF KSEA 042320Z 0500/0606 01010KT P6SM SCT040 SCT200 FM050400
                       03007KT P6SM SCT150 BKN250 FM051200 VRB03KT
                       P6SM BKN100 FM051700 32006KT P6SM SCT100
                       BKN250=
202308042057 KSEA 042057Z 0421/0524 31007KT P6SM SCT250 FM050000 32010KT P6SM
                       SCT200 FM050400 03007KT P6SM SCT150 FM051200
                       VRB03KT P6SM BKN100 FM051700 32006KT P6SM
                       SCT150 BKN250=
202308041720 TAF KSEA 041720Z 0418/0524 29007KT P6SM SCT250 FM050000 32010KT
                       P6SM SCT200 FM050400 03007KT P6SM SCT150
                       FM051200 VRB03KT P6SM BKN100 FM051700 32006KT
                       P6SM SCT150=
202308041457 KSEA 041457Z 0415/0518 VRB04KT P6SM SCT100 SCT250 FM041800 32010KT
                       P6SM SCT200 FM050400 03005KT P6SM SCT150
                       FM051700 32010KT P6SM SCT150=
202308041136 TAF KSEA 041136Z 0412/0518 03004KT P6SM SCT100 FM041800 32010KT
                       P6SM SCT200 FM050400 03005KT P6SM SCT150
                       FM051700 32010KT P6SM SCT150=
202308040903 KSEA 040903Z 0409/0512 36006KT P6SM SCT100 FM041200 03004KT P6SM
                       SCT100 FM041800 32008KT P6SM SCT200 FM050400
                       03005KT P6SM SCT150=
202308040520 TAF KSEA 040520Z 0406/0512 02007KT P6SM FEW250 FM041200 VRB04KT
                       P6SM SCT250 FM041800 32008KT P6SM SCT250
                       FM050400 03005KT P6SM SCT250=
202308032324 TAF KSEA 032324Z 0400/0506 30009KT P6SM FEW040 FM040500 02005KT
                       P6SM SCT250 FM041000 VRB04KT P6SM SCT250
                       FM041700 32006KT P6SM SCT250=
202308032159 KSEA 032159Z 0322/0424 30008KT P6SM FEW030 FM040500 02005KT P6SM
                       SCT250 FM041000 VRB04KT P6SM SCT250 FM041700
                       32005KT P6SM SKC=
202308031734 TAF KSEA 031734Z 0318/0424 28006KT P6SM FEW010 FM031900 31008KT
                       P6SM FEW200 FM040500 02005KT P6SM SCT250
                       FM041000 VRB04KT P6SM SCT250 FM041700 32005KT
                       P6SM SKC=
202308031505 KSEA 031505Z 0315/0418 23005KT P6SM FEW010 FM031900 32008KT P6SM
                       SKC FM040500 02005KT P6SM SKC FM041100 04004KT
                       P6SM SKC=
202308031139 TAF KSEA 031139Z 0312/0418 06004KT P6SM SKC FM031800 32008KT P6SM
                       SKC FM040500 02005KT P6SM SKC FM041100 04004KT
                       P6SM SKC=
202308030900 KSEA 030900Z 0309/0412 02006KT P6SM SKC FM031800 32008KT P6SM SKC
                       FM040500 02005KT P6SM SKC=
202308030522 TAF KSEA 030522Z 0306/0412 35009KT P6SM SKC FM030800 04004KT P6SM
                       SKC FM031800 32008KT P6SM SKC FM040500 02005KT
                       P6SM SKC=
202308030256 KSEA 030256Z 0303/0406 01009KT P6SM FEW050 FM030700 03003KT P6SM
                       SKC FM031700 32007KT P6SM SKC=
202308022322 TAF KSEA 022322Z 0300/0406 32008KT P6SM FEW030 FM030300 02007KT
                       P6SM SKC FM030800 VRB03KT P6SM SKC FM031700
                       32007KT P6SM SKC=
202308022101 KSEA 022101Z 0221/0324 32007KT P6SM FEW030 FM030300 02007KT P6SM
                       SKC FM030800 VRB04KT P6SM SKC FM031600 32006KT
                       P6SM SKC=
202308021742 TAF KSEA 021742Z 0218/0324 29006KT P6SM SKC FM022300 33009KT P6SM
                       SKC FM030300 02007KT P6SM SKC FM030800 VRB04KT
                       P6SM SKC FM031600 32006KT P6SM SKC=
202308021527 KSEA 021527Z 0215/0318 01005KT P6SM SKC FM021800 29006KT P6SM SKC
                       FM022300 34009KT P6SM SKC FM030300 02007KT
                       P6SM SKC FM030900 02004KT P6SM SKC=
202308021138 TAF KSEA 021138Z 0212/0318 01005KT P6SM SKC FM021800 29006KT P6SM
                       SKC FM022300 34009KT P6SM SKC FM030300 02007KT
                       P6SM SKC FM030900 02004KT P6SM SKC=
202308020905 KSEA 020905Z 0209/0312 03007KT P6SM SKC FM021800 29006KT P6SM SKC
                       FM022300 34009KT P6SM SKC FM030300 02007KT
                       P6SM SKC=
202308020521 TAF KSEA 020521Z 0206/0312 03008KT P6SM SKC FM021000 05004KT P6SM
                       SKC FM021800 29006KT P6SM SKC FM022300 34009KT
                       P6SM SKC FM030300 02007KT P6SM SKC=
202308020256 KSEA 020256Z 0203/0306 01009KT P6SM SKC FM020900 03004KT P6SM SKC
                       FM021600 30008KT P6SM SKC=
202308020013 KSEA 020013Z 0200/0306 01010G16KT P6SM SKC FM020700 03007KT P6SM
                       SKC FM021100 03004KT P6SM SKC FM021600 30008KT
                       P6SM SKC=
202308012336 TAF KSEA 012336Z 0200/0306 29009KT P6SM FEW035 FM020100 34010KT
                       P6SM SKC FM020500 03007KT P6SM SKC FM021600
                       30008KT P6SM SKC=
202308012050 KSEA 012050Z 0121/0224 30010KT P6SM FEW030 FM020100 35010KT P6SM
                       SKC FM020700 03007KT P6SM SKC FM021600 28008KT
                       P6SM SKC=
202308011750 TAF KSEA 011750Z 0118/0224 30010KT P6SM SKC FM020100 35010KT P6SM
                       SKC FM020700 03007KT P6SM SKC FM021600 28008KT
                       P6SM SKC=
202308011504 KSEA 011504Z 0115/0218 02006KT P6SM SKC FM011800 33007KT P6SM SKC
                       FM020000 35009KT P6SM SKC FM020700 03007KT
                       P6SM SKC=
202308011122 TAF KSEA 011122Z 0112/0218 02006KT P6SM SKC FM011800 33007KT P6SM
                       SKC FM020000 35009KT P6SM SKC FM020700 03007KT
                       P6SM SKC=
202308010859 KSEA 010859Z 0109/0212 04006KT P6SM SKC FM011800 33007KT P6SM SKC
                       FM020000 34009KT P6SM SKC FM020700 03009KT
                       P6SM SKC=
202308010521 TAF KSEA 010521Z 0106/0212 04008KT P6SM SKC FM011200 03004KT P6SM
                       SKC FM011800 33007KT P6SM SKC FM012200 34009KT
                       P6SM SKC FM020300 03009KT P6SM SKC=
202308010303 KSEA 010303Z 0103/0206 01008KT P6SM SKC FM010600 03008KT P6SM SKC
                       FM011200 02003KT P6SM SKC FM011700 29004KT
                       P6SM SKC FM012200 31008KT P6SM SKC=