##########################################################
# Query made at 02/17/2025 22:01:10 UTC
# Time interval: from 02/01/2023 00:00  to 02/28/2023 23:59  UTC
##########################################################

##########################################################
# KSEA, Seattle, Seattle-Tacoma International Airport (United States)
# WMO index: 72793. WIGOS ID: 0-20000-0-72793
# Latitude 47-27-00N. Longitude 122-17-59W. Altitude 130 m.
##########################################################

###################################
#  METAR/SPECI from KSEA
###################################
202302282353 METAR KSEA 282353Z 02013KT 10SM FEW029 SCT055 BKN180 04/00 A2962 RMK AO2 SLP038 T00440000 10072 20044 53018=
202302282253 METAR KSEA 282253Z 33004KT 10SM FEW018 BKN044 BKN140 06/M01 A2960 RMK AO2 SLP032 T00561006=
202302282153 METAR KSEA 282153Z 28007KT 10SM FEW023 BKN030 BKN050 BKN200 06/M01 A2958 RMK AO2 SLP025 T00561006=
202302282053 METAR KSEA 282053Z 23011KT 10SM SCT036 BKN049 BKN200 07/M02 A2956 RMK AO2 SLP020 T00671017 51016=
202302281953 METAR KSEA 281953Z 22012G17KT 10SM SCT032 BKN042 BKN049 BKN200 05/M01 A2956 RMK AO2 SLP017 T00501011=
202302281853 METAR KSEA 281853Z 21012G21KT 10SM SCT023 BKN033 BKN200 05/M01 A2954 RMK AO2 SLP010 T00501006=
202302281810 SPECI KSEA 281810Z 21014KT 10SM FEW018 SCT023 BKN030 BKN200 05/M01 A2952 RMK AO2 T00501006=
202302281753 METAR KSEA 281753Z 20015G21KT 10SM BKN025 BKN200 05/00 A2952 RMK AO2 SLP004 60000 T00500000 10050 20017 51023=
202302281653 METAR KSEA 281653Z 20016G21KT 10SM BKN023 BKN200 04/00 A2950 RMK AO2 SLP997 T00390000=
202302281553 METAR KSEA 281553Z 18011G20KT 10SM BKN019 BKN024 BKN250 02/M01 A2947 RMK AO2 SLP989 T00221006=
202302281453 METAR KSEA 281453Z 20014G21KT 10SM BKN018 02/M01 A2945 RMK AO2 SLP981 60000 T00221006 53021=
202302281427 SPECI KSEA 281427Z 19012G20KT 10SM SCT013 BKN021 02/M01 A2944 RMK AO2 T00171006=
202302281353 METAR KSEA 281353Z 18014G22KT 10SM BKN013 OVC025 02/00 A2943 RMK AO2 PK WND 19028/1339 SLP973 T00220000=
202302281310 SPECI KSEA 281310Z 20015G22KT 10SM OVC011 02/01 A2941 RMK AO2 T00220006=
202302281253 METAR KSEA 281253Z 18014KT 10SM BKN008 OVC015 02/01 A2941 RMK AO2 RAB39E49 SLP967 P0000 T00220006=
202302281243 SPECI KSEA 281243Z 19014G23KT 10SM -RA BKN008 OVC015 02/01 A2940 RMK AO2 RAB39 P0000 T00220006=
202302281153 METAR KSEA 281153Z 19013G19KT 10SM OVC011 03/01 A2939 RMK AO2 PK WND 20026/1141 SNE19 SLP959 P0000 60018 70019 T00280006 10039 20006 51005=
202302281119 SPECI KSEA 281119Z 19011KT 9SM BKN013 OVC021 02/01 A2938 RMK AO2 SNE19 P0000 T00220011=
202302281053 METAR KSEA 281053Z 15007KT 7SM -SN BKN013 OVC019 02/00 A2938 RMK AO2 SLP958 P0002 T00170000=
202302281042 SPECI KSEA 281042Z 15008KT 5SM -SN BR BKN013 OVC020 02/00 A2938 RMK AO2 P0002 T00170000=
202302280953 METAR KSEA 280953Z 17004KT 6SM -SN BR OVC016 01/00 A2938 RMK AO2 RAB10E48SNB10 SLP958 P0000 T00060000=
202302280910 SPECI KSEA 280910Z 00000KT 9SM -RASN BKN028 OVC037 01/00 A2938 RMK AO2 RAB10SNB10 P0000 T00060000=
202302280853 METAR KSEA 280853Z 28003KT 10SM SCT034 OVC042 01/00 A2937 RMK AO2 SNE41 SLP955 P0003 60016 T00060000 50001=
202302280841 SPECI KSEA 280841Z 00000KT 7SM FEW006 BKN034 OVC044 01/00 A2937 RMK AO2 SNE41 P0003 T00110000=
202302280805 SPECI KSEA 280805Z 10005KT 2SM -SN BR FEW004 OVC013 01/M01 A2937 RMK AO2 P0001 T00061006=
202302280753 METAR KSEA 280753Z 11006KT 2SM -SN BR OVC011 01/M01 A2937 RMK AO2 RAE37SNE12B37 SLP955 P0010 T00111006 400560000=
202302280737 SPECI KSEA 280737Z 15009KT 4SM -SN BR FEW009 OVC013 02/00 A2938 RMK AO2 RAE37SNE12B37 P0006 T00170000=
202302280712 SPECI KSEA 280712Z 13008KT 8SM -RA FEW007 FEW011 OVC017 02/00 A2938 RMK AO2 SNE12 P0002 T00170000=
202302280653 METAR KSEA 280653Z 19006KT 5SM -RASN BR FEW013 OVC018 02/M01 A2938 RMK AO2 RAB34SNB49 SLP956 P0003 T00171006=
202302280650 SPECI KSEA 280650Z 17007KT 5SM -RASN SCT015 OVC020 02/M01 A2938 RMK AO2 RAB34SNB49 P0002=
202302280640 SPECI KSEA 280640Z 17011KT 9SM -RA FEW015 OVC029 03/M01 A2938 RMK AO2 RAB34 P0000 T00281006=
202302280553 METAR KSEA 280553Z 13008KT 10SM BKN042 OVC060 04/M03 A2937 RMK AO2 SLP953 60000 T00391033 10056 20033 55005=
202302280453 METAR KSEA 280453Z 12004KT 10SM FEW035 BKN065 BKN200 03/M03 A2937 RMK AO2 SLP952 T00331033=
202302280353 METAR KSEA 280353Z 12005KT 10SM FEW038 SCT060 BKN200 04/M03 A2937 RMK AO2 SLP953 T00391033=
202302280253 METAR KSEA 280253Z 12005KT 10SM SCT039 OVC049 05/M02 A2938 RMK AO2 SLP959 60000 T00501017 56010=
202302280153 METAR KSEA 280153Z 09005KT 10SM FEW018 BKN044 OVC080 05/01 A2939 RMK AO2 SLP960 T00500006=
202302280053 METAR KSEA 280053Z 29004KT 10SM FEW017 BKN034 BKN080 04/01 A2941 RMK AO2 RAB31E44 SLP966 P0000 T00440006=
202302272353 METAR KSEA 272353Z 00000KT 10SM SCT033 BKN050 BKN090 06/00 A2942 RMK AO2 RAE2258B27E38 SLP969 P0000 60001 T00560000 10056 20028 56020=
202302272253 METAR KSEA 272253Z 13004KT 10SM -RA BKN044 BKN055 OVC065 06/01 A2943 RMK AO2 RAB48 SLP976 P0001 T00560006=
202302272153 METAR KSEA 272153Z 00000KT 10SM FEW025 BKN035 OVC055 04/01 A2945 RMK AO2 RAE10 SLP981 P0000 T00440006=
202302272053 METAR KSEA 272053Z 24010KT 10SM -RA BKN035 OVC044 04/M01 A2947 RMK AO2 RAB49 SLP989 P0000 60000 T00391006 58009=
202302271953 METAR KSEA 271953Z 19007KT 10SM FEW025 BKN042 OVC050 05/M03 A2949 RMK AO2 SNE03 SLP994 P0000 T00501033 $=
202302271904 SPECI KSEA 271904Z 11008KT 9SM OVC055 04/M03 A2949 RMK AO2 SNE03 P0000 T00441033 $=
202302271853 METAR KSEA 271853Z 11005KT 10SM -SN SCT025 BKN045 OVC060 04/M03 A2949 RMK AO2 SNB50 SLP995 P0000 T00441028=
202302271850 SPECI KSEA 271850Z 00000KT 10SM -SN SCT025 BKN045 OVC060 04/M03 A2949 RMK AO2 SNB50 P0000=
202302271806 SPECI KSEA 271806Z 07007KT 10SM FEW025 BKN050 OVC065 03/M01 A2950 RMK AO2 T00331011=
202302271753 METAR KSEA 271753Z 05008KT 9SM SCT014 BKN022 OVC050 03/M01 A2950 RMK AO2 SNB1657E51 SLP999 P0000 60000 T00281011 10033 20006 58017=
202302271726 SPECI KSEA 271726Z 36003KT 5SM -SN BR BKN014 OVC020 02/M02 A2952 RMK AO2 SNB1657 P0000 T00221022=
202302271659 SPECI KSEA 271659Z 08005KT 8SM -SN BKN029 BKN036 OVC050 03/M04 A2953 RMK AO2 SNB57 P0000 T00331039=
202302271653 METAR KSEA 271653Z VRB04KT 9SM BKN036 BKN050 OVC070 03/M04 A2953 RMK AO2 SLP007 T00331039=
202302271553 METAR KSEA 271553Z 09006KT 10SM BKN070 OVC085 03/M04 A2953 RMK AO2 SLP010 T00281044=
202302271453 METAR KSEA 271453Z 08010KT 10SM BKN070 BKN085 OVC110 02/M03 A2955 RMK AO2 SLP017 T00171033 58038=
202302271353 METAR KSEA 271353Z 09008KT 10SM FEW055 SCT085 BKN130 OVC170 02/M03 A2960 RMK AO2 SLP033 T00171028=
202302271253 METAR KSEA 271253Z 06006KT 10SM FEW045 OVC170 01/M02 A2963 RMK AO2 SLP042 T00111022=
202302271153 METAR KSEA 271153Z 07003KT 10SM OVC170 01/M02 A2967 RMK AO2 SLP056 60000 70002 T00061017 10022 20000 58021=
202302271053 METAR KSEA 271053Z 00000KT 10SM SCT050 OVC180 01/M02 A2969 RMK AO2 SLP064 T00061017=
202302270953 METAR KSEA 270953Z 13005KT 10SM BKN042 BKN050 02/M01 A2972 RMK AO2 SLP072 T00171011=
202302270853 METAR KSEA 270853Z 11005KT 10SM FEW024 OVC047 02/M01 A2973 RMK AO2 SLP076 60000 T00171006 58001=
202302270753 METAR KSEA 270753Z 16006KT 10SM SCT013 BKN032 BKN039 01/M01 A2973 RMK AO2 RAE26 SLP078 P0000 T00111006 400780000=
202302270732 SPECI KSEA 270732Z 20005KT 10SM SCT015 BKN039 BKN050 02/M01 A2973 RMK AO2 RAE26 P0000 T00171006=
202302270653 METAR KSEA 270653Z 17006KT 10SM -RA SCT015 BKN023 OVC034 02/00 A2973 RMK AO2 SLP077 P0000 T00170000=
202302270553 METAR KSEA 270553Z 21007KT 10SM -RA FEW016 BKN025 OVC040 02/00 A2973 RMK AO2 RAE27B43 SLP078 P0001 60001 T00220000 10056 20017 53007=
202302270528 SPECI KSEA 270528Z 18007KT 10SM FEW016 BKN025 BKN060 02/00 A2973 RMK AO2 RAE27 P0001 T00170000=
202302270453 METAR KSEA 270453Z 20010KT 10SM -RA FEW030 SCT039 BKN060 02/M01 A2973 RMK AO2 RAB51 SLP075 P0000 T00221006=
202302270353 METAR KSEA 270353Z 17008KT 10SM FEW039 BKN046 BKN180 02/M01 A2972 RMK AO2 SLP073 T00171006=
202302270253 METAR KSEA 270253Z 20011KT 10SM SCT038 BKN047 OVC060 02/M01 A2971 RMK AO2 PK WND 21030/0200 RAE22 SLP071 P0000 60000 T00221006 53015=
202302270153 METAR KSEA 270153Z 21014KT 10SM -RA FEW020 BKN050 BKN110 02/M01 A2970 RMK AO2 RAB47 SLP066 P0000 T00221006=
202302270053 METAR KSEA 270053Z 22014G22KT 10SM FEW020 SCT110 BKN160 04/M02 A2968 RMK AO2 SLP060 T00441022=
202302262353 METAR KSEA 262353Z 22013G22KT 10SM FEW020 SCT100 BKN160 04/M02 A2967 RMK AO2 PK WND 23027/2342 SLP057 T00391017 10078 20033 51018=
202302262253 METAR KSEA 262253Z 22017G23KT 10SM FEW020 BKN040 BKN120 04/M02 A2966 RMK AO2 PK WND 23026/2158 SLP053 T00441017=
202302262153 METAR KSEA 262153Z 25015G25KT 10SM FEW020 BKN040 BKN120 06/M02 A2963 RMK AO2 PK WND 23027/2101 SLP043 T00611022=
202302262053 METAR KSEA 262053Z 25015G24KT 10SM FEW020 SCT040 BKN120 07/M03 A2962 RMK AO2 SLP038 T00721028 51023=
202302261953 METAR KSEA 261953Z 26011G18KT 10SM FEW020 BKN037 BKN120 06/M02 A2961 RMK AO2 SLP035 T00611017=
202302261853 METAR KSEA 261853Z 23015G20KT 10SM FEW014 FEW025 SCT110 05/M01 A2958 RMK AO2 SLP025 T00501011=
202302261753 METAR KSEA 261753Z 22008KT 10SM FEW014 SCT022 BKN100 03/00 A2955 RMK AO2 SLP014 4/001 60001 T00330000 10033 20000 53028=
202302261653 METAR KSEA 261653Z 22013KT 10SM BKN012 OVC017 03/01 A2951 RMK AO2 SLP003 T00280006=
202302261631 SPECI KSEA 261631Z 22010KT 10SM OVC011 02/01 A2950 RMK AO2 T00220006=
202302261553 METAR KSEA 261553Z 21012KT 10SM OVC009 02/00 A2949 RMK AO2 SLP994 T00220000=
202302261453 METAR KSEA 261453Z 22012KT 10SM OVC008 02/00 A2946 RMK AO2 SLP986 60001 T00170000 53017=
202302261353 METAR KSEA 261353Z 21014G20KT 10SM FEW006 BKN010 OVC020 02/00 A2945 RMK AO2 PK WND 22027/1316 SLP980 P0001 T00170000=
202302261253 METAR KSEA 261253Z 19007KT 10SM FEW005 BKN013 OVC019 01/M01 A2942 RMK AO2 SNE45 SLP972 P0000 T00061006=
202302261242 SPECI KSEA 261242Z 18006KT 7SM -SN SCT003 BKN008 OVC017 01/M01 A2942 RMK AO2 P0000 T00061006=
202302261208 SPECI KSEA 261208Z 23004KT 1SM R16L/P6000FT -SN BR OVC004 00/M01 A2942 RMK AO2 P0000 T00001006=
202302261200 SPECI KSEA 261200Z 22005KT 1 1/2SM -SN BR OVC004 00/M01 A2942 RMK AO2 P0000 T00001006=
202302261153 METAR KSEA 261153Z 22005KT 3/4SM R16L/P6000FT -SN BR BKN004 OVC022 00/M01 A2941 RMK AO2 SLP969 4/002 P0006 60028 70028 T00001011 10050 20000 56036=
202302261144 SPECI KSEA 261144Z 22003KT 3/4SM R16L/5000VP6000FT -SN BR OVC004 00/M01 A2941 RMK AO2 P0006 T00001011=
202302261114 SPECI KSEA 261114Z 19003KT 1SM R16L/P6000FT -SN BR OVC004 00/00 A2942 RMK AO2 P0003 T00000000=
202302261053 METAR KSEA 261053Z 15006KT 3/4SM R16L/5000VP6000FT -SN BR BKN004 OVC007 00/M01 A2943 RMK AO2 SLP974 P0007 T00001006=
202302261029 SPECI KSEA 261029Z 16006KT 3/4SM R16L/6000VP6000FT -SN BR OVC005 00/M01 A2945 RMK AO2 P0004 T00001006=
202302261017 SPECI KSEA 261017Z 15006KT 1SM R16L/6000VP6000FT -SN BR OVC005 00/M01 A2946 RMK AO2 P0003 T00001006=
202302261001 SPECI KSEA 261001Z 15008KT 3/4SM R16L/6000VP6000FT -SN BR OVC003 00/M01 A2947 RMK AO2 P0001 T00001006=
202302260953 METAR KSEA 260953Z 15006KT 1SM R16L/6000VP6000FT -SN BR BKN003 BKN008 OVC012 00/M01 A2947 RMK AO2 SLP989 P0006 T00001006=
202302260930 SPECI KSEA 260930Z 13006KT 1SM R16L/P6000FT -SN BR BKN004 OVC010 00/M01 A2949 RMK AO2 P0004 T00001006=
202302260920 SPECI KSEA 260920Z 13008KT 3/4SM R16L/5000VP6000FT -SN BR OVC005 00/M01 A2950 RMK AO2 P0003 T00001006=
202302260853 METAR KSEA 260853Z 16007KT 3/4SM R16L/P6000FT -SN BR BKN003 OVC007 00/M01 A2952 RMK AO2 SLP006 P0007 60009 T00001011 58019=
202302260821 SPECI KSEA 260821Z 19011KT 1 1/4SM -SN BR BKN004 OVC010 01/M01 A2955 RMK AO2 P0003 T00061006=
202302260814 SPECI KSEA 260814Z 20010G20KT 1 1/4SM -SN BR BKN006 OVC010 01/M01 A2955 RMK AO2 P0002 T00061006=
202302260753 METAR KSEA 260753Z 20015G25KT 1 3/4SM -SN BR BKN008 OVC013 01/M01 A2956 RMK AO2 PK WND 23034/0658 RAB12E33SNB24 SLP017 P0002 T00111006 400561044=
202302260740 SPECI KSEA 260740Z 22012G21KT 2SM -SN BR SCT008 OVC013 01/M01 A2956 RMK AO2 PK WND 23034/0658 RAB12E33SNB24 P0001 T00111006=
202302260735 SPECI KSEA 260735Z 22013G27KT 2SM -SN BR FEW008 OVC015 01/M01 A2956 RMK AO2 PK WND 23034/0658 RAB12E33SNB24 P0001 T00111011=
202302260725 SPECI KSEA 260725Z 23018G26KT 5SM -RASN FEW012 OVC021 02/M01 A2956 RMK AO2 PK WND 23034/0658 RAB12SNB24 P0000 T00221011=
202302260722 SPECI KSEA 260722Z 21015G26KT 6SM -RA FEW014 OVC024 02/M01 A2956 RMK AO2 PK WND 23034/0658 RAB12 P0000 T00221011=
202302260653 METAR KSEA 260653Z 23019G32KT 10SM OVC042 04/M03 A2956 RMK AO2 PK WND 22032/0652 SLP020 T00391028=
202302260553 METAR KSEA 260553Z 24006KT 10SM BKN060 OVC080 04/M05 A2958 RMK AO2 SLP026 T00391050 10050 20039 56023=
202302260453 METAR KSEA 260453Z 23008KT 10SM OVC080 04/M06 A2960 RMK AO2 SLP033 T00441056=
202302260353 METAR KSEA 260353Z 22004KT 10SM OVC090 05/M05 A2962 RMK AO2 SLP041 T00501050=
202302260253 METAR KSEA 260253Z 17004KT 10SM OVC110 05/M06 A2965 RMK AO2 SLP049 T00501061 56032=
202302260153 METAR KSEA 260153Z 16005KT 10SM OVC110 04/M06 A2967 RMK AO2 SLP058 T00441056=
202302260053 METAR KSEA 260053Z 20004KT 10SM FEW060 SCT110 BKN190 BKN220 05/M06 A2970 RMK AO2 SLP067 ACSL DSNT SE T00501056=
202302252353 METAR KSEA 252353Z 25003KT 10SM FEW060 SCT110 BKN190 BKN220 05/M06 A2974 RMK AO2 SLP081 ACSL DSNT SE T00501056 10056 20000 56044=
202302252253 METAR KSEA 252253Z 21005KT 10SM FEW060 SCT120 BKN190 BKN220 05/M07 A2978 RMK AO2 SLP093 ACSL DSNT SE T00501072=
202302252153 METAR KSEA 252153Z 17006KT 10SM FEW060 BKN120 BKN190 BKN220 05/M07 A2982 RMK AO2 SLP109 T00501072=
202302252053 METAR KSEA 252053Z 22005KT 10SM FEW060 SCT120 BKN190 BKN220 04/M07 A2987 RMK AO2 SLP126 T00441067 56039=
202302251953 METAR KSEA 251953Z VRB03KT 10SM FEW060 SCT120 BKN220 04/M08 A2992 RMK AO2 SLP141 T00391078=
202302251853 METAR KSEA 251853Z 12003KT 10SM FEW060 SCT140 BKN190 BKN220 01/M08 A2995 RMK AO2 SLP151 T00111078=
202302251753 METAR KSEA 251753Z 17003KT 10SM FEW060 SCT130 BKN200 00/M07 A2999 RMK AO2 SLP167 T00001072 10000 21044 58016=
202302251653 METAR KSEA 251653Z 00000KT 10SM FEW140 BKN200 M01/M08 A3002 RMK AO2 SLP176 T10061078=
202302251553 METAR KSEA 251553Z 15005KT 10SM FEW140 BKN200 M03/M07 A3003 RMK AO2 SLP179 T10281072=
202302251453 METAR KSEA 251453Z VRB04KT 10SM FEW140 BKN200 M03/M08 A3004 RMK AO2 SLP183 T10331083 56011=
202302251353 METAR KSEA 251353Z 15003KT 10SM FEW200 M04/M09 A3004 RMK AO2 SLP185 T10391094=
202302251253 METAR KSEA 251253Z 08004KT 10SM CLR M03/M10 A3006 RMK AO2 SLP190 T10281100=
202302251153 METAR KSEA 251153Z 06003KT 10SM CLR M03/M11 A3007 RMK AO2 SLP193 T10331106 11006 21039 58006=
202302251053 METAR KSEA 251053Z 06004KT 10SM CLR M03/M11 A3009 RMK AO2 SLP198 T10281106=
202302250953 METAR KSEA 250953Z 04005KT 10SM CLR M03/M11 A3009 RMK AO2 SLP200 T10281111=
202302250853 METAR KSEA 250853Z 01007KT 10SM CLR M03/M11 A3009 RMK AO2 SLP200 T10281111 55008=
202302250753 METAR KSEA 250753Z 04008KT 10SM FEW200 M02/M12 A3009 RMK AO2 SLP198 T10171117 400391056=
202302250653 METAR KSEA 250653Z 04010KT 10SM SCT200 M02/M10 A3011 RMK AO2 SLP207 T10171100=
202302250553 METAR KSEA 250553Z 03009KT 10SM SCT200 M01/M09 A3012 RMK AO2 SLP209 T10111089 10033 21017 53008=
202302250453 METAR KSEA 250453Z 36007KT 10SM CLR M01/M09 A3010 RMK AO2 SLP204 T10111089=
202302250353 METAR KSEA 250353Z 01009KT 10SM CLR M01/M08 A3009 RMK AO2 SLP202 T10111083=
202302250253 METAR KSEA 250253Z 35009KT 10SM SCT200 M01/M08 A3009 RMK AO2 SLP201 T10061078 53001=
202302250153 METAR KSEA 250153Z 33007KT 10SM BKN200 01/M08 A3007 RMK AO2 SLP194 T00061083=
202302250053 METAR KSEA 250053Z 34009KT 10SM FEW040 SCT250 02/M09 A3007 RMK AO2 SLP195 T00221089=
202302242353 METAR KSEA 242353Z 34010KT 10SM FEW040 SCT250 03/M09 A3009 RMK AO2 SLP200 T00331089 10039 20000 55006=
202302242253 METAR KSEA 242253Z 35009KT 10SM FEW040 FEW250 03/M10 A3009 RMK AO2 SLP200 T00331100=
202302242153 METAR KSEA 242153Z 35009KT 10SM FEW040 FEW250 03/M11 A3009 RMK AO2 SLP201 T00331111=
202302242053 METAR KSEA 242053Z 02010G15KT 10SM FEW250 03/M12 A3011 RMK AO2 SLP205 T00281122 58006=
202302241953 METAR KSEA 241953Z 04007KT 10SM CLR 02/M13 A3012 RMK AO2 SLP211 T00171128=
202302241853 METAR KSEA 241853Z 36009KT 10SM CLR 01/M13 A3013 RMK AO2 SLP213 T00061128=
202302241753 METAR KSEA 241753Z 04008KT 10SM CLR 00/M13 A3013 RMK AO2 SLP213 T00001128 10000 21056 50009=
202302241653 METAR KSEA 241653Z 02008KT 10SM CLR M02/M13 A3013 RMK AO2 SLP216 T10171128=
202302241553 METAR KSEA 241553Z 04011KT 10SM CLR M03/M13 A3012 RMK AO2 SLP210 T10331128=
202302241453 METAR KSEA 241453Z 04010KT 10SM CLR M04/M13 A3010 RMK AO2 SLP203 T10441133 53018=
202302241353 METAR KSEA 241353Z 02009KT 10SM CLR M04/M13 A3007 RMK AO2 SLP195 T10441128=
202302241253 METAR KSEA 241253Z 36010KT 10SM CLR M06/M13 A3005 RMK AO2 SLP186 T10561133=
202302241153 METAR KSEA 241153Z 02007KT 10SM CLR M05/M13 A3004 RMK AO2 SLP185 T10501133 11022 21056 50005=
202302241053 METAR KSEA 241053Z 02009KT 10SM CLR M04/M14 A3005 RMK AO2 SLP187 T10441139=
202302240953 METAR KSEA 240953Z 04005KT 10SM CLR M04/M14 A3005 RMK AO2 SLP186 T10391144=
202302240853 METAR KSEA 240853Z 06007KT 10SM CLR M03/M16 A3003 RMK AO2 SLP180 T10331161 51020=
202302240753 METAR KSEA 240753Z 09009KT 10SM CLR M03/M16 A3001 RMK AO2 SLP173 T10281161 400171033=
202302240653 METAR KSEA 240653Z 08011KT 10SM CLR M03/M16 A2999 RMK AO2 SLP167 T10331161=
202302240553 METAR KSEA 240553Z 09010G16KT 10SM CLR M03/M16 A2997 RMK AO2 SLP160 T10281161 10011 21028 53025=
202302240453 METAR KSEA 240453Z 09015G25KT 10SM CLR M02/M16 A2994 RMK AO2 SLP150 T10221156=
202302240353 METAR KSEA 240353Z 10014G19KT 10SM CLR M02/M16 A2992 RMK AO2 SLP142 T10221161=
202302240253 METAR KSEA 240253Z 09010KT 10SM FEW030 FEW080 M02/M16 A2989 RMK AO2 SLP134 T10171156 53026=
202302240153 METAR KSEA 240153Z 10013KT 10SM FEW030 FEW080 SCT250 M01/M15 A2986 RMK AO2 SLP123 T10111150=
202302240053 METAR KSEA 240053Z 10012KT 10SM FEW030 FEW080 SCT250 00/M15 A2983 RMK AO2 SLP113 T00001150=
202302232353 METAR KSEA 232353Z 08016G21KT 10SM FEW030 FEW080 SCT250 01/M15 A2982 RMK AO2 SLP107 T00111150 10017 21022 53015=
202302232253 METAR KSEA 232253Z 09016G20KT 10SM FEW080 SCT150 SCT250 01/M15 A2979 RMK AO2 SLP100 T00111150=
202302232153 METAR KSEA 232153Z 09018G26KT 10SM FEW030 SCT080 SCT150 BKN250 01/M16 A2978 RMK AO2 PK WND 09026/2150 SLP094 T00111156=
202302232053 METAR KSEA 232053Z 10017G26KT 10SM FEW030 SCT075 BKN130 BKN250 01/M15 A2977 RMK AO2 PK WND 09026/2053 SLP093 T00111150 51014=
202302231953 METAR KSEA 231953Z 08012G26KT 10SM FEW030 BKN075 BKN200 01/M16 A2977 RMK AO2 PK WND 09030/1935 SLP090 T00061156=
202302231853 METAR KSEA 231853Z 09014KT 10SM FEW030 BKN075 BKN150 M02/M17 A2975 RMK AO2 PK WND 09027/1757 SLP086 T10171167=
202302231753 METAR KSEA 231753Z 09013G24KT 10SM FEW030 BKN075 BKN150 M02/M17 A2973 RMK AO2 SLP079 60000 T10221172 11022 21028 51022=
202302231653 METAR KSEA 231653Z 10013G20KT 10SM SCT065 BKN080 BKN150 BKN200 M03/M17 A2971 RMK AO2 SLP072 T10281167=
202302231553 METAR KSEA 231553Z 09013G23KT 10SM FEW030 BKN065 BKN150 M03/M17 A2969 RMK AO2 SLP064 T10281167=
202302231453 METAR KSEA 231453Z 10013G22KT 10SM FEW030 OVC050 M03/M17 A2967 RMK AO2 SLP056 60000 T10281167 53014=
202302231353 METAR KSEA 231353Z 09013G19KT 10SM OVC042 M03/M16 A2965 RMK AO2 PK WND 09027/1312 SNE20 SLP051 P0000 T10281161=
202302231320 SPECI KSEA 231320Z 09014G27KT 9SM OVC043 M03/M16 A2965 RMK AO2 PK WND 09027/1312 SNE20 P0000 T10281156=
202302231253 METAR KSEA 231253Z 10012G25KT 9SM -SN OVC044 M03/M16 A2964 RMK AO2 PK WND 09028/1230 SLP047 P0000 T10281156=
202302231204 SPECI KSEA 231204Z 10011G23KT 9SM -SN OVC034 M02/M14 A2963 RMK AO2 P0000 T10221144=
202302231153 METAR KSEA 231153Z 09014G23KT 9SM -SN OVC026 M02/M14 A2962 RMK AO2 PK WND 13027/1056 SLP041 P0000 60000 70002 T10221139 10000 21033 51003=
202302231053 METAR KSEA 231053Z 10014G22KT 9SM -SN OVC023 M02/M13 A2962 RMK AO2 PK WND 09026/1019 SNB19 SLP040 P0000 T10221133=
202302231020 SPECI KSEA 231020Z 10017G26KT 10SM -SN OVC027 M02/M12 A2962 RMK AO2 PK WND 09026/1019 SNB19 P0000 T10221117=
202302230953 METAR KSEA 230953Z 10012G22KT 10SM OVC034 M02/M11 A2962 RMK AO2 PK WND 12026/0900 SNE33 SLP040 P0000 T10221111=
202302230942 SPECI KSEA 230942Z 10014KT 10SM OVC032 M02/M11 A2962 RMK AO2 PK WND 12026/0900 SNE33 P0000 T10221111=
202302230933 SPECI KSEA 230933Z 10013G22KT 9SM OVC026 M02/M11 A2962 RMK AO2 PK WND 12026/0900 SNE33 P0000 T10221106=
202302230853 METAR KSEA 230853Z 11016G23KT 4SM -SN OVC026 M02/M09 A2961 RMK AO2 PK WND 13029/0825 SNB31 SLP038 P0000 60000 T10221094 52006=
202302230836 SPECI KSEA 230836Z 12019G27KT 5SM -SN OVC032 M02/M10 A2961 RMK AO2 PK WND 13029/0825 SNB31 P0000 T10221100=
202302230753 METAR KSEA 230753Z 11013G20KT 10SM OVC049 M01/M13 A2961 RMK AO2 SLP035 T10111128 400331011=
202302230653 METAR KSEA 230653Z 11015G24KT 10SM OVC050 M01/M13 A2960 RMK AO2 SLP034 T10061128=
202302230553 METAR KSEA 230553Z 12013G20KT 10SM OVC050 00/M12 A2960 RMK AO2 SLP032 T00001122 10022 20000 52005=
202302230453 METAR KSEA 230453Z 11015G24KT 10SM BKN044 OVC055 00/M11 A2959 RMK AO2 SLP031 T00001111=
202302230353 METAR KSEA 230353Z 09009KT 10SM FEW040 OVC055 01/M10 A2958 RMK AO2 SLP028 T00061100=
202302230253 METAR KSEA 230253Z 09010KT 10SM OVC050 01/M09 A2958 RMK AO2 SLP027 T00111094 53005=
202302230153 METAR KSEA 230153Z 09010KT 10SM FEW020 BKN060 BKN110 02/M09 A2957 RMK AO2 SLP024 T00171089=
202302230125 SPECI KSEA 230125Z 05012G17KT 10SM SCT018 BKN060 BKN110 02/M07 A2957 RMK AO2 T00171072=
202302230053 METAR KSEA 230053Z 02012KT 10SM SCT019 BKN028 OVC070 02/M03 A2957 RMK AO2 SLP022 T00171033=
202302230051 SPECI KSEA 230051Z 02011KT 10SM SCT019 BKN028 OVC075 02/M03 A2957 RMK AO2=
202302222353 METAR KSEA 222353Z 02014KT 10SM SCT016 BKN095 02/M03 A2956 RMK AO2 SLP020 T00221028 10033 20000 55000=
202302222253 METAR KSEA 222253Z 01015KT 10SM SCT015 BKN100 02/M02 A2956 RMK AO2 SLP017 T00221022=
202302222153 METAR KSEA 222153Z 02015G21KT 10SM SCT015 BKN060 02/M03 A2956 RMK AO2 SLP019 T00171028=
202302222053 METAR KSEA 222053Z 02016KT 10SM FEW013 SCT060 BKN100 03/M02 A2956 RMK AO2 PK WND 02026/1954 SLP019 T00281022 58005=
202302221953 METAR KSEA 221953Z 02019KT 10SM SCT011 BKN100 01/M02 A2958 RMK AO2 SLP026 T00111022=
202302221853 METAR KSEA 221853Z 02017KT 10SM SCT010 BKN095 01/M02 A2958 RMK AO2 SLP026 SCT V BKN T00111017=
202302221753 METAR KSEA 221753Z 02014KT 10SM FEW010 BKN075 BKN090 00/M02 A2958 RMK AO2 SLP025 60002 T00001022 10028 21006 51009=
202302221729 SPECI KSEA 221729Z 01014KT 10SM SCT007 BKN070 BKN090 00/M02 A2957 RMK AO2 SCT007 V BKN T00001022=
202302221653 METAR KSEA 221653Z 01017KT 7SM SCT006 BKN013 BKN090 M01/M02 A2957 RMK AO2 SNE42 SLP022 BKN013 V SCT P0000 T10061022=
202302221646 SPECI KSEA 221646Z 01015G23KT 7SM SCT006 BKN013 BKN090 00/M02 A2957 RMK AO2 SNE42 BKN V SCT P0000 T00001022=
202302221613 SPECI KSEA 221613Z 01013KT 5SM -SN BR FEW006 BKN019 BKN090 00/M02 A2957 RMK AO2 PCPN VRY LGT P0000 T00001022=
202302221553 METAR KSEA 221553Z 01014KT 1 1/2SM -SN BR FEW006 BKN011 BKN020 M01/M02 A2956 RMK AO2 TWR VIS 4 SLP020 P0000 T10061022=
202302221523 SPECI KSEA 221523Z 01014KT 1 1/2SM -SN BR FEW006 BKN011 BKN020 00/M02 A2955 RMK AO2 TWR VIS 2 P0000 T00001017=
202302221453 METAR KSEA 221453Z 01014KT 1 1/2SM -SN BR BKN009 OVC015 00/M01 A2955 RMK AO2 TWR VIS 2 SLP015 P0002 60002 T00001011 53011=
202302221416 SPECI KSEA 221416Z 36011KT 2SM -SN BR BKN006 OVC015 01/M01 A2954 RMK AO2 P0001 T00061011=
202302221409 SPECI KSEA 221409Z 36012KT 2SM -SN BR OVC004 01/M01 A2953 RMK AO2 P0001 T00061011=
202302221353 METAR KSEA 221353Z 36011KT 5SM -SN BR OVC003 01/M01 A2953 RMK AO2 RAE40SNB40 SLP010 P0000 T00061011 $=
202302221340 SPECI KSEA 221340Z 36014KT 7SM -SN OVC003 01/M01 A2953 RMK AO2 RAE40SNB40 P0000 T00061011 $=
202302221253 METAR KSEA 221253Z 35009KT 10SM -RA BKN004 OVC050 02/00 A2952 RMK AO2 RAB49 SLP005 P0000 T00170000 $=
202302221249 SPECI KSEA 221249Z 35009KT 9SM -RA BKN004 OVC050 02/00 A2952 RMK AO2 RAB49 P0000 $=
202302221153 METAR KSEA 221153Z 00000KT 10SM BKN023 OVC055 02/01 A2951 RMK AO2 SLP003 70006 T00220006 10028 20017 51003 $=
202302221053 METAR KSEA 221053Z 13003KT 10SM FEW011 BKN021 OVC050 03/01 A2951 RMK AO2 SLP002 T00280006 $=
202302221012 SPECI KSEA 221012Z 00000KT 10SM BKN021 OVC048 02/01 A2951 RMK AO2 T00220006 $=
202302220953 METAR KSEA 220953Z 08004KT 10SM FEW011 OVC048 02/01 A2951 RMK AO2 SLP002 T00220006 $=
202302220853 METAR KSEA 220853Z 13004KT 10SM FEW011 BKN043 02/01 A2951 RMK AO2 SLP000 T00220006 51005 $=
202302220753 METAR KSEA 220753Z 16004KT 10SM FEW013 BKN033 02/00 A2950 RMK AO2 SLP999 T00220000 400670017 $=
202302220653 METAR KSEA 220653Z 16004KT 10SM SCT022 BKN034 03/00 A2950 RMK AO2 SLP998 T00280000 $=
202302220553 METAR KSEA 220553Z 17007KT 10SM FEW012 SCT018 BKN034 03/00 A2949 RMK AO2 SLP995 T00280000 10061 20028 53002 $=
202302220527 SPECI KSEA 220527Z 15007KT 10SM BKN015 OVC036 03/01 A2949 RMK AO2 T00330006 $=
202302220502 SPECI KSEA 220502Z 16007KT 10SM SCT013 OVC033 03/00 A2949 RMK AO2 T00330000 $=
202302220453 METAR KSEA 220453Z 17008KT 10SM BKN015 OVC033 03/01 A2949 RMK AO2 SLP993 T00330006 $=
202302220353 METAR KSEA 220353Z 18008KT 10SM BKN015 OVC020 04/01 A2948 RMK AO2 SLP991 T00390006 $=
202302220253 METAR KSEA 220253Z 19009KT 10SM BKN022 04/00 A2948 RMK AO2 SLP992 T00440000 53001 $=
202302220153 METAR KSEA 220153Z 16008KT 10SM SCT022 BKN033 04/01 A2948 RMK AO2 SLP991 T00440006 $=
202302220125 SPECI KSEA 220125Z 17008KT 10SM FEW027 BKN033 BKN055 05/01 A2948 RMK AO2 T00500011 $=
202302220053 METAR KSEA 220053Z 17008KT 10SM BKN025 BKN050 BKN200 06/01 A2948 RMK AO2 SLP992 T00560011 $=
202302212353 METAR KSEA 212353Z 19009KT 10SM FEW025 SCT050 BKN200 06/02 A2948 RMK AO2 SLP991 60006 T00610017 10067 20028 58011 $=
202302212253 METAR KSEA 212253Z 17007KT 10SM FEW022 SCT034 BKN055 05/02 A2949 RMK AO2 RAE37SNB2157E07 SLP995 P0002 T00500017 $=
202302212232 SPECI KSEA 212232Z VRB03KT 10SM -RA FEW022 BKN032 BKN049 06/02 A2950 RMK AO2 SNB2157E07 P0002 T00560017 $=
202302212207 SPECI KSEA 212207Z 01007KT 9SM -RA FEW021 BKN028 OVC037 04/01 A2951 RMK AO2 SNB2157E07 P0002 T00390011 $=
202302212157 SPECI KSEA 212157Z 36005KT 4SM -RASN OVC019 03/01 A2951 RMK AO2 SNB57 P0001 T00280006 $=
202302212153 METAR KSEA 212153Z 35005KT 6SM -RA OVC021 03/01 A2951 RMK AO2 RAB24 SLP002 P0004 T00330006 $=
202302212053 METAR KSEA 212053Z 20010KT 10SM FEW023 BKN029 BKN041 07/01 A2951 RMK AO2 SLP001 T00670011 58018=
202302211953 METAR KSEA 211953Z 21012KT 10SM BKN025 BKN033 06/01 A2953 RMK AO2 SLP008 T00610011=
202302211853 METAR KSEA 211853Z 20011KT 10SM BKN021 BKN026 06/01 A2955 RMK AO2 SLP015 T00560011=
202302211753 METAR KSEA 211753Z 23011G20KT 10SM BKN021 05/01 A2957 RMK AO2 SLP020 T00500006 10050 20039 56017=
202302211653 METAR KSEA 211653Z 20009KT 10SM BKN017 04/01 A2958 RMK AO2 SLP023 T00440006=
202302211553 METAR KSEA 211553Z 19006KT 10SM BKN015 04/01 A2961 RMK AO2 SLP033 T00390006=
202302211453 METAR KSEA 211453Z 22010KT 10SM BKN015 04/01 A2962 RMK AO2 SLP037 T00390006 56020=
202302211353 METAR KSEA 211353Z 22011KT 10SM BKN015 04/01 A2964 RMK AO2 SLP045 T00390006=
202302211321 SPECI KSEA 211321Z 22012G23KT 10SM BKN017 BKN095 04/01 A2965 RMK AO2 T00440006=
202302211253 METAR KSEA 211253Z 22015G22KT 10SM FEW017 BKN095 04/01 A2965 RMK AO2 PK WND 23026/1219 SLP049 T00390006=
202302211222 SPECI KSEA 211222Z 21015G26KT 10SM FEW019 BKN090 04/00 A2967 RMK AO2 PK WND 23026/1219 T00440000=
202302211153 METAR KSEA 211153Z 22011G19KT 10SM BKN019 04/01 A2968 RMK AO2 SLP057 70020 T00440006 10078 20044 58006=
202302211053 METAR KSEA 211053Z 22014G25KT 10SM BKN019 04/01 A2969 RMK AO2 PK WND 19026/1025 SLP061 T00440006=
202302210953 METAR KSEA 210953Z 20017G24KT 10SM BKN019 05/01 A2970 RMK AO2 SLP066 T00500011=
202302210941 SPECI KSEA 210941Z 22011G22KT 10SM BKN019 05/01 A2970 RMK AO2 T00500011=
202302210853 METAR KSEA 210853Z 24014G31KT 10SM FEW019 05/01 A2970 RMK AO2 PK WND 24031/0844 SLP064 T00500011 58000=
202302210753 METAR KSEA 210753Z 25016G30KT 10SM FEW019 06/01 A2970 RMK AO2 PK WND 27034/0734 SLP065 T00560011 400830056=
202302210653 METAR KSEA 210653Z 23011G19KT 200V260 10SM SCT021 07/03 A2970 RMK AO2 PK WND 21031/0630 SLP065 T00670028=
202302210621 SPECI KSEA 210621Z 22016G28KT 10SM SCT019 07/04 A2969 RMK AO2 PK WND 22030/0610 T00720039=
202302210553 METAR KSEA 210553Z 22018G28KT 10SM BKN019 BKN027 OVC200 08/05 A2970 RMK AO2 PK WND 20035/0533 SLP064 60015 T00780050 10083 20072 56034=
202302210505 SPECI KSEA 210505Z 21023G34KT 10SM OVC015 08/06 A2972 RMK AO2 PK WND 21034/0504 T00830061=
202302210453 METAR KSEA 210453Z 22017G27KT 10SM FEW008 BKN013 OVC021 08/06 A2972 RMK AO2 PK WND 21030/0356 RAE25 SLP072 P0001 T00780061=
202302210413 SPECI KSEA 210413Z 21015G25KT 3SM -RA BR FEW006 BKN011 OVC016 08/06 A2975 RMK AO2 PK WND 21030/0356 P0001 T00780061=
202302210353 METAR KSEA 210353Z 21020G28KT 2 1/2SM -RA BR SCT005 BKN009 OVC014 08/06 A2977 RMK AO2 PK WND 20031/0326 SLP088 P0005 T00780061=
202302210334 SPECI KSEA 210334Z 22018G31KT 2 1/2SM -RA BR OVC005 07/06 A2978 RMK AO2 PK WND 20031/0326 P0004 T00720061=
202302210302 SPECI KSEA 210302Z 21021G28KT 2SM -RA BR OVC004 07/06 A2980 RMK AO2 PK WND 20028/0255 P0001 T00720061=
202302210253 METAR KSEA 210253Z 21018G28KT 3SM -RA BR OVC004 07/06 A2980 RMK AO2 PK WND 19030/0155 PRESFR SLP098 P0005 60009 T00720061 56064=
202302210245 SPECI KSEA 210245Z 21017G26KT 3SM -RA BR BKN004 OVC010 07/06 A2981 RMK AO2 PK WND 19030/0155 PRESFR P0004 T00720061=
202302210153 METAR KSEA 210153Z 20020G32KT 3SM -RA BR BKN005 OVC009 07/06 A2984 RMK AO2 PK WND 21033/0118 RAB06 PRESFR SLP111 P0004 T00720061=
202302210116 SPECI KSEA 210116Z 20020G33KT 2SM -RA BR BKN008 OVC011 08/06 A2991 RMK AO2 PK WND 20033/0110 RAB06 P0001 T00780056=
202302210053 METAR KSEA 210053Z 20023G34KT 10SM OVC011 08/06 A2993 RMK AO2 PK WND 19034/0053 RAB2357E19 PRESFR SLP142 P0000 T00780056=
202302210037 SPECI KSEA 210037Z 20015G25KT 7SM OVC011 08/06 A2995 RMK AO2 PK WND 21030/0010 RAB2357E19 P0000 T00780056=
202302202353 METAR KSEA 202353Z 20016G23KT 4SM BR BKN007 OVC013 08/06 A2999 RMK AO2 PK WND 20029/2316 DZE07RAB07E49 SLP163 P0000 60000 T00780061 10083 20072 56033=
202302202345 SPECI KSEA 202345Z 20018G24KT 2SM -RA BR BKN007 OVC013 08/06 A2999 RMK AO2 PK WND 20029/2316 DZE07RAB07 P0000 T00780061=
202302202326 SPECI KSEA 202326Z 20017G25KT 1 1/2SM R16L/5000VP6000FT -RA BR SCT007 BKN011 OVC021 07/06 A3000 RMK AO2 PK WND 20029/2316 DZE07RAB07 P0000 T00720056=
202302202307 SPECI KSEA 202307Z 19021G27KT 2SM -RA BR FEW007 BKN015 OVC023 08/06 A3002 RMK AO2 PK WND 19027/2307 DZE07RAB07 P0000 T00780056=
202302202300 SPECI KSEA 202300Z 19018G27KT 2SM -DZ BKN014 OVC021 08/06 A3002 RMK AO2 PK WND 18026/2259 P0000 T00780056=
202302202253 METAR KSEA 202253Z 19022G27KT 3SM -DZ FEW012 BKN017 OVC023 08/05 A3002 RMK AO2 PK WND 21037/2155 DZB30 PRESFR SLP172 P0000 T00780050=
202302202239 SPECI KSEA 202239Z 20021G31KT 4SM -DZ BKN017 BKN023 OVC085 08/05 A3004 RMK AO2 PK WND 21037/2155 DZB30 P0000 T00780050=
202302202223 SPECI KSEA 202223Z 20016G35KT 9SM FEW018 BKN030 OVC085 08/04 A3002 RMK AO2 PK WND 21037/2155 T00830044=
202302202153 METAR KSEA 202153Z 21022G31KT 10SM BKN018 OVC024 08/05 A3005 RMK AO2 PK WND 21033/2059 SLP182 T00830050=
202302202109 SPECI KSEA 202109Z 21021G33KT 10SM SCT012 OVC019 08/05 A3008 RMK AO2 PK WND 21033/2059 T00780050=
202302202053 METAR KSEA 202053Z 21022G31KT 7SM BKN014 OVC019 08/05 A3009 RMK AO2 PK WND 23034/2043 SLP196 60000 T00830050 56026=
202302202033 SPECI KSEA 202033Z 21017G29KT 7SM BKN014 OVC019 08/05 A3010 RMK AO2 PK WND 19033/2006 T00780050=
202302201953 METAR KSEA 201953Z 21019G30KT 10SM OVC015 08/05 A3011 RMK AO2 PK WND 19031/1926 RAE1854 SLP204 P0000 T00830050=
202302201853 METAR KSEA 201853Z 19019G26KT 10SM -RA OVC015 08/06 A3013 RMK AO2 PK WND 20032/1808 RAB40 SLP213 P0000 T00780056=
202302201837 SPECI KSEA 201837Z 20018G26KT 10SM OVC015 08/05 A3015 RMK AO2 PK WND 20032/1808 T00780050=
202302201753 METAR KSEA 201753Z 20019G27KT 10SM OVC013 08/06 A3016 RMK AO2 PK WND 19030/1726 RAE48 SLP223 P0001 60005 T00780056 10078 20072 58004=
202302201653 METAR KSEA 201653Z 21017G23KT 6SM -RA BR OVC012 08/06 A3018 RMK AO2 SLP227 P0003 T00780056=
202302201553 METAR KSEA 201553Z 21013KT 10SM -RA OVC012 08/06 A3019 RMK AO2 SLP230 P0000 T00780056=
202302201453 METAR KSEA 201453Z 20014G19KT 10SM -RA OVC012 07/06 A3018 RMK AO2 SLP228 P0001 60001 T00720056 55006=
202302201353 METAR KSEA 201353Z 19011KT 10SM -RA OVC014 08/05 A3018 RMK AO2 SLP226 P0000 T00780050=
202302201340 SPECI KSEA 201340Z 19011KT 10SM -RA OVC014 08/05 A3018 RMK AO2 P0000 T00780050=
202302201253 METAR KSEA 201253Z 21014KT 10SM -RA OVC015 08/05 A3018 RMK AO2 SLP229 P0000 T00780050=
202302201153 METAR KSEA 201153Z 21014G22KT 10SM -RA BKN015 OVC025 08/05 A3020 RMK AO2 SLP233 P0000 60002 70007 T00780050 10078 20072 58000=
202302201053 METAR KSEA 201053Z 20012KT 10SM -RA OVC015 08/06 A3020 RMK AO2 SLP236 P0000 T00780056=
202302200953 METAR KSEA 200953Z 21014KT 10SM -RA BKN015 OVC060 08/06 A3021 RMK AO2 RAE09B50 SLP238 P0000 T00780056=
202302200853 METAR KSEA 200853Z 19012KT 10SM -RA BKN015 BKN025 OVC060 07/05 A3020 RMK AO2 RAB33 SLP234 P0002 60002 T00720050 57005=
202302200753 METAR KSEA 200753Z 19010KT 10SM OVC015 08/05 A3020 RMK AO2 RAE19 SLP235 P0000 T00780050 400890044=
202302200653 METAR KSEA 200653Z 18009KT 10SM -RA OVC015 08/05 A3021 RMK AO2 SLP238 CIG 013V018 P0000 T00780050=
202302200553 METAR KSEA 200553Z 20011KT 10SM -RA OVC015 08/05 A3021 RMK AO2 RAB50 SLP239 P0000 60005 T00780050 10089 20072 53004=
202302200453 METAR KSEA 200453Z 20012KT 10SM OVC017 08/05 A3021 RMK AO2 SLP237 T00780050=
202302200353 METAR KSEA 200353Z 20011KT 10SM BKN017 BKN022 OVC065 08/05 A3020 RMK AO2 RAE47 SLP235 P0003 T00780050=
202302200253 METAR KSEA 200253Z 22013KT 7SM -RA OVC016 08/05 A3020 RMK AO2 PK WND 21026/0215 RAB38 SLP235 P0002 60002 T00780050 53005=
202302200153 METAR KSEA 200153Z 21013G22KT 10SM BKN018 OVC028 08/05 A3018 RMK AO2 RAE20 SLP229 P0000 T00830050=
202302200053 METAR KSEA 200053Z 21013G21KT 10SM -RA OVC021 09/06 A3017 RMK AO2 RAB52 SLP227 P0000 T00890056=
202302192353 METAR KSEA 192353Z 20010KT 10SM OVC017 09/06 A3019 RMK AO2 DZE31RAB39E50 SLP230 P0000 60000 T00890061 10089 20061 58009=
202302192253 METAR KSEA 192253Z 15008KT 7SM -DZ OVC015 08/05 A3020 RMK AO2 DZB18 SLP234 P0000 T00780050=
202302192221 SPECI KSEA 192221Z 14006KT 5SM -DZ OVC016 08/04 A3022 RMK AO2 DZB18 P0000 T00780044=
202302192153 METAR KSEA 192153Z 15008KT 9SM OVC014 08/04 A3022 RMK AO2 SLP242 T00780044=
202302192053 METAR KSEA 192053Z 17010KT 7SM OVC014 08/04 A3021 RMK AO2 SLP239 T00780039 58009=
202302191953 METAR KSEA 191953Z 20012KT 9SM OVC014 07/04 A3024 RMK AO2 SLP247 T00720039=
202302191853 METAR KSEA 191853Z 18009KT 7SM OVC014 07/04 A3026 RMK AO2 SLP254 T00670039=
202302191753 METAR KSEA 191753Z 18011KT 8SM BKN014 OVC020 06/04 A3024 RMK AO2 SLP249 60000 T00610044 10061 20050 50001=
202302191653 METAR KSEA 191653Z 18007KT 8SM OVC013 06/04 A3026 RMK AO2 SLP254 T00610039=
202302191553 METAR KSEA 191553Z 18008KT 9SM SCT010 OVC018 06/04 A3024 RMK AO2 DZE16 SLP248 P0000 T00560039=
202302191453 METAR KSEA 191453Z 17006KT 10SM -DZ BKN008 OVC014 06/04 A3024 RMK AO2 RAB51E53DZB53 SLP248 P0000 60000 T00560039 50001=
202302191353 METAR KSEA 191353Z 16007KT 10SM BKN006 OVC010 06/04 A3025 RMK AO2 SLP251 T00560039=
202302191311 SPECI KSEA 191311Z 16006KT 10SM BKN005 OVC009 06/04 A3025 RMK AO2 T00560044=
202302191253 METAR KSEA 191253Z 19007KT 4SM BR OVC004 06/04 A3024 RMK AO2 RAE03 SLP249 P0000 T00560044=
202302191240 SPECI KSEA 191240Z 19005KT 4SM BR BKN003 OVC007 06/04 A3025 RMK AO2 RAE03 P0000 T00560044=
202302191153 METAR KSEA 191153Z 18003KT 4SM -RA BR SCT004 BKN009 OVC013 06/04 A3024 RMK AO2 RAB47 SLP247 P0000 60000 70003 T00560044 10067 20044 55002=
202302191133 SPECI KSEA 191133Z 16003KT 6SM BR SCT003 BKN009 OVC015 05/04 A3024 RMK AO2 T00500044=
202302191126 SPECI KSEA 191126Z 15003KT 5SM BR BKN003 OVC014 05/04 A3025 RMK AO2 T00500044=
202302191115 SPECI KSEA 191115Z 17003KT 4SM BR SCT003 OVC017 05/04 A3025 RMK AO2 T00500044=
202302191053 METAR KSEA 191053Z 15006KT 4SM BR BKN018 BKN023 OVC030 05/04 A3022 RMK AO2 SLP242 T00500039=
202302191032 SPECI KSEA 191032Z 14004KT 7SM BKN018 BKN040 OVC047 05/04 A3024 RMK AO2 T00500039=
202302190953 METAR KSEA 190953Z 16003KT 10SM OVC042 05/04 A3025 RMK AO2 SLP251 T00500039=
202302190853 METAR KSEA 190853Z 00000KT 10SM BKN036 BKN043 OVC050 05/04 A3024 RMK AO2 SLP249 60000 T00500039 53006=
202302190753 METAR KSEA 190753Z 29003KT 10SM BKN037 OVC048 05/04 A3023 RMK AO2 RAE06 SLP244 P0000 T00500039 400830044=
202302190653 METAR KSEA 190653Z 24003KT 10SM -RA OVC043 06/03 A3021 RMK AO2 RAB46 SLP239 P0000 T00560033=
202302190553 METAR KSEA 190553Z 00000KT 10SM FEW030 BKN045 06/04 A3022 RMK AO2 SLP243 T00610039 10078 20050 51017=
202302190453 METAR KSEA 190453Z 35004KT 10SM FEW015 SCT030 OVC045 06/03 A3022 RMK AO2 SLP241 T00560033=
202302190353 METAR KSEA 190353Z 02006KT 10SM FEW010 SCT030 OVC045 07/04 A3019 RMK AO2 SLP231 T00670039=
202302190253 METAR KSEA 190253Z 36004KT 10SM FEW010 SCT025 OVC045 07/04 A3017 RMK AO2 SLP226 T00670044 51019=
202302190153 METAR KSEA 190153Z 35004KT 10SM FEW010 SCT025 OVC040 07/04 A3015 RMK AO2 SLP218 T00670044=
202302190053 METAR KSEA 190053Z 36005KT 10SM FEW005 SCT020 OVC035 07/06 A3014 RMK AO2 SLP214 T00720056=
202302190015 SPECI KSEA 190015Z 00000KT 10SM FEW003 SCT025 OVC045 08/06 A3012 RMK AO2 T00780061=
202302182353 METAR KSEA 182353Z 27003KT 10SM FEW003 BKN025 OVC045 08/06 A3011 RMK AO2 SLP206 60003 T00780056 10083 20061 53002=
202302182253 METAR KSEA 182253Z 00000KT 4SM BR SCT003 BKN030 OVC040 07/06 A3011 RMK AO2 DZE48 SLP204 P0001 T00720061 $=
202302182237 SPECI KSEA 182237Z 00000KT 2SM -DZ BR SCT005 BKN025 OVC040 07/06 A3011 RMK AO2 P0001 T00720061 $=
202302182153 METAR KSEA 182153Z 26004KT 1 1/2SM -DZ BR BKN005 BKN010 OVC020 07/06 A3011 RMK AO2 RAE01DZB01 SLP204 P0001 T00720056 $=
202302182137 SPECI KSEA 182137Z 23006KT 1 1/2SM -DZ BR SCT006 BKN011 OVC027 07/06 A3010 RMK AO2 RAE01DZB01 P0001 T00670056 $=
202302182121 SPECI KSEA 182121Z 22007KT 2SM -DZ BR SCT006 BKN011 OVC031 07/06 A3009 RMK AO2 RAE01DZB01 P0001 T00670056 $=
202302182053 METAR KSEA 182053Z 23008KT 1SM R16L/6000VP6000FT -RA BR BKN009 OVC014 07/05 A3010 RMK AO2 RAB20 SLP202 P0001 60001 T00670050 55003 $=
202302182039 SPECI KSEA 182039Z 24007KT 2SM -RA BR OVC011 07/04 A3010 RMK AO2 RAB20 P0001 T00720044=
202302181953 METAR KSEA 181953Z 21009KT 10SM OVC014 08/04 A3009 RMK AO2 SLP198 T00780039=
202302181853 METAR KSEA 181853Z 19009KT 8SM BKN011 OVC015 07/04 A3010 RMK AO2 SLP202 T00670039=
202302181753 METAR KSEA 181753Z 17009KT 10SM BKN012 OVC015 06/03 A3011 RMK AO2 SLP205 T00610028 10061 20044 55000=
202302181653 METAR KSEA 181653Z 20011KT 10SM SCT012 BKN016 OVC024 06/02 A3010 RMK AO2 SLP201 T00560022=
202302181553 METAR KSEA 181553Z 18013KT 10SM SCT012 BKN016 OVC024 05/02 A3010 RMK AO2 SLP201 T00500017=
202302181453 METAR KSEA 181453Z 19012KT 10SM BKN016 OVC024 05/02 A3011 RMK AO2 SLP205 T00500022 55010=
202302181422 SPECI KSEA 181422Z 19010KT 10SM BKN016 OVC024 05/02 A3011 RMK AO2 T00500022=
202302181353 METAR KSEA 181353Z 19011KT 10SM OVC014 05/02 A3010 RMK AO2 SLP202 T00500017=
202302181337 SPECI KSEA 181337Z 19012KT 10SM OVC014 05/02 A3012 RMK AO2 T00500022=
202302181253 METAR KSEA 181253Z 19012KT 10SM OVC015 05/02 A3013 RMK AO2 SLP211 T00500022=
202302181231 SPECI KSEA 181231Z 19009KT 10SM OVC016 05/02 A3014 RMK AO2 T00500022=
202302181153 METAR KSEA 181153Z 19009KT 10SM SCT018 OVC140 05/02 A3014 RMK AO2 SLP216 70020 T00500022 10056 20044 58015=
202302181133 SPECI KSEA 181133Z 19009KT 10SM SCT013 BKN150 OVC190 05/02 A3014 RMK AO2 T00500017=
202302181053 METAR KSEA 181053Z 18008KT 10SM BKN015 BKN020 OVC190 05/02 A3016 RMK AO2 SLP221 T00500017=
202302180953 METAR KSEA 180953Z 17008KT 10SM OVC015 05/02 A3018 RMK AO2 SLP227 T00500017=
202302180853 METAR KSEA 180853Z 18007KT 10SM BKN016 OVC080 04/02 A3019 RMK AO2 SLP231 T00440017 56008=
202302180753 METAR KSEA 180753Z 17006KT 10SM BKN015 OVC065 05/02 A3019 RMK AO2 SLP232 T00500022 400780039=
202302180653 METAR KSEA 180653Z 20007KT 10SM BKN015 OVC090 06/02 A3019 RMK AO2 SLP232 CIG 013V018 T00560022=
202302180640 SPECI KSEA 180640Z 18005KT 10SM BKN015 BKN085 OVC110 06/03 A3020 RMK AO2 T00560028=
202302180553 METAR KSEA 180553Z 22006KT 10SM FEW015 BKN095 OVC120 06/03 A3021 RMK AO2 SLP238 T00560028 10078 20056 53000=
202302180453 METAR KSEA 180453Z 20007KT 10SM FEW018 SCT027 BKN100 06/03 A3021 RMK AO2 SLP239 T00560028=
202302180353 METAR KSEA 180353Z 20004KT 10SM BKN022 06/02 A3021 RMK AO2 SLP238 T00560022=
202302180344 SPECI KSEA 180344Z 16005KT 10SM BKN022 06/02 A3020 RMK AO2 T00610022=
202302180253 METAR KSEA 180253Z 12007KT 10SM BKN031 BKN100 07/02 A3021 RMK AO2 SLP238 T00670017 58006=
202302180153 METAR KSEA 180153Z 12003KT 10SM FEW012 SCT032 BKN110 07/01 A3022 RMK AO2 SLP242 T00670011=
202302180053 METAR KSEA 180053Z 00000KT 10SM FEW010 BKN039 08/02 A3023 RMK AO2 SLP244 T00780022=
202302172353 METAR KSEA 172353Z 20003KT 10SM FEW010 BKN039 07/02 A3023 RMK AO2 SLP244 60001 T00720022 10078 20050 58008=
202302172253 METAR KSEA 172253Z 20003KT 10SM FEW009 FEW030 BKN038 07/03 A3024 RMK AO2 SLP250 T00670028=
202302172200 SPECI KSEA 172200Z 23005KT 10SM FEW007 SCT016 BKN032 07/04 A3025 RMK AO2 T00670044=
202302172153 METAR KSEA 172153Z 23006KT 10SM SCT007 SCT012 BKN027 06/04 A3025 RMK AO2 SLP253 T00610044=
202302172100 SPECI KSEA 172100Z 22006KT 9SM SCT009 OVC015 06/04 A3025 RMK AO2 T00610044=
202302172053 METAR KSEA 172053Z 23006KT 7SM BKN007 OVC015 06/04 A3025 RMK AO2 SLP253 60001 T00560039 58001=
202302171953 METAR KSEA 171953Z 21007KT 6SM BR BKN008 BKN015 OVC025 06/04 A3025 RMK AO2 SLP253 T00560039=
202302171921 SPECI KSEA 171921Z 21007KT 6SM BR BKN005 BKN011 OVC022 06/04 A3026 RMK AO2 T00560039=
202302171853 METAR KSEA 171853Z 21007KT 1 1/4SM BR BKN008 OVC025 05/04 A3026 RMK AO2 TWR VIS 2 RAB02E49 SLP255 P0001 T00500039=
202302171817 SPECI KSEA 171817Z 21007KT 1 1/4SM R16L/5000VP6000FT -RA BR OVC008 05/04 A3026 RMK AO2 TWR VIS 2 RAB02 P0000 T00500039=
202302171800 SPECI KSEA 171800Z 21004KT 1 1/2SM R16L/4500VP6000FT BR BKN005 OVC009 05/04 A3025 RMK AO2 TWR VIS 2 T00500039=
202302171753 METAR KSEA 171753Z 22006KT 1SM R16L/P6000FT BR BKN007 OVC012 05/04 A3025 RMK AO2 TWR VIS 2 RAE40 SLP253 P0005 60019 T00500039 10056 20039 53012=
202302171655 SPECI KSEA 171655Z 17004KT 2SM -RA BR BKN008 OVC012 04/03 A3025 RMK AO2 SFC VIS 4 P0000 T00440033=
202302171653 METAR KSEA 171653Z 17004KT 1SM R16L/P6000FT -RA BR OVC010 04/03 A3025 RMK AO2 TWR VIS 2 RAB1555 SLP251 P0004 T00440033=
202302171633 SPECI KSEA 171633Z 16005KT 1SM R16L/P6000FT -RA BR BKN009 OVC015 04/03 A3024 RMK AO2 TWR VIS 1 1/2 RAB1555 P0002 T00440033=
202302171553 METAR KSEA 171553Z 15005KT 1SM R16L/P6000FT BR SCT005 OVC014 04/03 A3022 RMK AO2 TWR VIS 1 1/2 RAE29 SLP243 P0003 T00440033=
202302171453 METAR KSEA 171453Z 12004KT 1SM R16L/P6000FT -RA BR SCT005 OVC012 04/03 A3022 RMK AO2 TWR VIS 3 RAB1354 SLP241 P0005 60007 T00440028 51004=
202302171421 SPECI KSEA 171421Z 12003KT 3/4SM R16L/P6000FT -RA BR SCT007 OVC012 04/03 A3022 RMK AO2 TWR VIS 3 RAB1354 P0002 T00390028=
202302171401 SPECI KSEA 171401Z 11005KT 1SM R16L/P6000FT -RA BR OVC013 04/02 A3021 RMK AO2 TWR VIS 3 RAB1354 P0001 T00440022=
202302171353 METAR KSEA 171353Z 12004KT 2 1/2SM BR OVC015 04/02 A3022 RMK AO2 RAE32 SLP240 P0002 T00440022=
202302171253 METAR KSEA 171253Z 18004KT 10SM -RA OVC021 05/01 A3021 RMK AO2 RAB24E33B50 SLP239 P0000 T00500011=
202302171153 METAR KSEA 171153Z 16006KT 10SM OVC022 06/01 A3021 RMK AO2 SLP237 T00560006 10061 20056 51001=
202302171053 METAR KSEA 171053Z 19007KT 10SM OVC025 06/M01 A3020 RMK AO2 SLP236 T00611006=
202302170953 METAR KSEA 170953Z 19008KT 10SM OVC029 06/M01 A3021 RMK AO2 SLP237 T00611006=
202302170946 SPECI KSEA 170946Z 17009KT 10SM OVC029 06/M01 A3020 RMK AO2 T00611006=
202302170853 METAR KSEA 170853Z 18007KT 10SM OVC033 06/01 A3020 RMK AO2 SLP236 T00610006 53006=
202302170753 METAR KSEA 170753Z 19007KT 10SM OVC034 06/01 A3019 RMK AO2 SLP232 T00610011 400720011=
202302170653 METAR KSEA 170653Z 22006KT 10SM FEW041 SCT048 OVC065 06/01 A3019 RMK AO2 SLP232 T00560011=
202302170553 METAR KSEA 170553Z 18005KT 10SM BKN042 BKN060 OVC070 06/00 A3018 RMK AO2 SLP231 T00610000 10072 20056 53001=
202302170453 METAR KSEA 170453Z 18003KT 10SM BKN050 OVC065 06/M01 A3018 RMK AO2 SLP229 T00611006=
202302170353 METAR KSEA 170353Z 18007KT 10SM BKN050 OVC075 07/M01 A3018 RMK AO2 SLP229 T00671011=
202302170253 METAR KSEA 170253Z 17006KT 10SM OVC075 06/M02 A3018 RMK AO2 SLP229 T00611017 52005=
202302170153 METAR KSEA 170153Z 15006KT 10SM OVC070 06/M01 A3017 RMK AO2 SLP227 T00611011=
202302170053 METAR KSEA 170053Z 19004KT 10SM OVC070 07/M01 A3017 RMK AO2 SLP226 T00671011=
202302162353 METAR KSEA 162353Z 19005KT 10SM OVC075 07/M01 A3017 RMK AO2 SLP224 T00721011 10072 20039 53000=
202302162253 METAR KSEA 162253Z 20006KT 10SM FEW030 OVC080 07/M01 A3016 RMK AO2 SLP223 T00721011=
202302162153 METAR KSEA 162153Z 20006KT 10SM OVC080 07/M02 A3016 RMK AO2 SLP221 T00671017=
202302162053 METAR KSEA 162053Z 21006KT 10SM OVC090 06/M02 A3016 RMK AO2 SLP224 T00611017 58007=
202302161953 METAR KSEA 161953Z 17006KT 10SM OVC100 06/M01 A3017 RMK AO2 SLP226 T00611006=
202302161853 METAR KSEA 161853Z 20005KT 10SM BKN100 OVC250 05/M01 A3018 RMK AO2 SLP230 T00501006=
202302161753 METAR KSEA 161753Z 15005KT 10SM BKN110 OVC250 04/M01 A3018 RMK AO2 SLP231 T00391006 10039 20011 51009=
202302161653 METAR KSEA 161653Z 14004KT 10SM OVC110 03/M02 A3018 RMK AO2 SLP228 T00281017=
202302161553 METAR KSEA 161553Z 16003KT 10SM FEW020 BKN120 OVC200 02/M02 A3017 RMK AO2 SLP226 T00171017=
202302161453 METAR KSEA 161453Z 17004KT 10SM BKN120 02/M02 A3016 RMK AO2 SLP221 T00221017 58008=
202302161353 METAR KSEA 161353Z 19003KT 10SM BKN130 01/M02 A3017 RMK AO2 SLP225 T00111017=
202302161253 METAR KSEA 161253Z 00000KT 10SM FEW120 BKN150 02/M02 A3017 RMK AO2 SLP227 T00171017=
202302161153 METAR KSEA 161153Z 00000KT 10SM SCT120 02/M02 A3018 RMK AO2 SLP230 T00171017 10028 20011 56017=
202302161053 METAR KSEA 161053Z 00000KT 10SM BKN110 02/M02 A3020 RMK AO2 SLP235 T00171017=
202302160953 METAR KSEA 160953Z 14004KT 10SM FEW120 SCT220 02/M02 A3021 RMK AO2 SLP240 T00171017=
202302160853 METAR KSEA 160853Z 13005KT 10SM SCT120 02/M01 A3023 RMK AO2 SLP247 T00221011 58016=
202302160753 METAR KSEA 160753Z 13007KT 10SM BKN110 03/M01 A3025 RMK AO2 SLP253 T00281011 400671022=
202302160653 METAR KSEA 160653Z 14006KT 10SM BKN100 02/M01 A3027 RMK AO2 SLP259 T00221011=
202302160553 METAR KSEA 160553Z 13007KT 10SM FEW120 SCT220 03/M02 A3028 RMK AO2 SLP263 T00281017 10067 20028 56011=
202302160453 METAR KSEA 160453Z 13005KT 10SM FEW120 SCT250 03/M02 A3029 RMK AO2 SLP267 T00331022=
202302160353 METAR KSEA 160353Z 16003KT 10SM FEW100 SCT250 03/M03 A3030 RMK AO2 SLP271 T00331028=
202302160253 METAR KSEA 160253Z 00000KT 10SM FEW100 SCT250 04/M03 A3031 RMK AO2 SLP275 T00441028 56006=
202302160153 METAR KSEA 160153Z 00000KT 10SM SCT100 SCT250 05/M03 A3032 RMK AO2 SLP277 T00501028=
202302160053 METAR KSEA 160053Z 00000KT 10SM FEW110 SCT250 06/M03 A3032 RMK AO2 SLP277 T00611028=
202302152353 METAR KSEA 152353Z VRB04KT 10SM FEW110 BKN250 07/M02 A3033 RMK AO2 SLP280 T00671022 10067 20022 56012=
202302152253 METAR KSEA 152253Z 23005KT 10SM SCT110 BKN250 07/M02 A3033 RMK AO2 SLP281 T00671022=
202302152153 METAR KSEA 152153Z 22007KT 10SM FEW040 SCT120 BKN250 06/M03 A3035 RMK AO2 SLP287 T00611028=
202302152053 METAR KSEA 152053Z 22008KT 10SM FEW040 FEW150 BKN250 06/M02 A3036 RMK AO2 SLP292 T00611022 58008=
202302151953 METAR KSEA 151953Z 21005KT 10SM FEW040 FEW150 BKN250 05/M02 A3039 RMK AO2 SLP299 T00501022=
202302151853 METAR KSEA 151853Z 21005KT 10SM FEW040 FEW150 BKN250 04/M03 A3039 RMK AO2 SLP302 T00391033=
202302151753 METAR KSEA 151753Z 16004KT 10SM FEW035 BKN250 02/M03 A3039 RMK AO2 SLP301 T00221033 10022 21022 53008=
202302151653 METAR KSEA 151653Z 14008KT 10SM FEW035 BKN250 01/M04 A3038 RMK AO2 SLP297 T00111039=
202302151553 METAR KSEA 151553Z 15005KT 10SM SCT032 SCT200 M01/M04 A3037 RMK AO2 SLP296 T10061039=
202302151453 METAR KSEA 151453Z 15005KT 10SM FEW050 FEW200 M02/M05 A3036 RMK AO2 SLP292 T10221050 50001=
202302151353 METAR KSEA 151353Z 15005KT 10SM FEW037 M01/M04 A3037 RMK AO2 SLP294 T10111039 $=
202302151253 METAR KSEA 151253Z 14008KT 10SM FEW037 M01/M04 A3036 RMK AO2 SLP291 T10111039 $=
202302151153 METAR KSEA 151153Z 14008KT 10SM FEW037 M01/M03 A3036 RMK AO2 SLP290 T10061033 10022 21011 51007 $=
202302151053 METAR KSEA 151053Z 13005KT 10SM BKN037 M01/M03 A3036 RMK AO2 SLP291 T10061033 $=
202302150953 METAR KSEA 150953Z 13005KT 10SM FEW220 M01/M03 A3035 RMK AO2 SLP287 T10061028 $=
202302150853 METAR KSEA 150853Z 13007KT 10SM CLR 00/M03 A3034 RMK AO2 SLP283 T00001028 50006 $=
202302150753 METAR KSEA 150753Z 13006KT 10SM BKN038 01/M02 A3034 RMK AO2 SLP283 T00061022 400611017 $=
202302150653 METAR KSEA 150653Z 14006KT 10SM SCT040 01/M02 A3033 RMK AO2 SLP281 T00061022 $=
202302150553 METAR KSEA 150553Z 12006KT 10SM FEW041 02/M01 A3032 RMK AO2 SLP277 T00221011 10056 20006 51012 $=
202302150453 METAR KSEA 150453Z 00000KT 10SM FEW035 SCT200 02/M02 A3031 RMK AO2 SLP275 T00221022 $=
202302150353 METAR KSEA 150353Z 00000KT 10SM FEW035 SCT200 02/M03 A3030 RMK AO2 SLP270 T00221028 $=
202302150253 METAR KSEA 150253Z 00000KT 10SM FEW035 SCT200 03/M02 A3029 RMK AO2 SLP266 T00331022 53016 $=
202302150153 METAR KSEA 150153Z 12005KT 10SM SCT038 04/M03 A3026 RMK AO2 SLP258 T00391033 $=
202302150053 METAR KSEA 150053Z 03005KT 10SM BKN041 05/M04 A3026 RMK AO2 SLP256 T00501039 $=
202302142353 METAR KSEA 142353Z 04006KT 10SM BKN039 06/M03 A3024 RMK AO2 SLP249 T00561028 10061 20033 53019 $=
202302142253 METAR KSEA 142253Z 04008KT 10SM SCT029 BKN037 05/M02 A3022 RMK AO2 SLP242 T00501017 $=
202302142233 SPECI KSEA 142233Z 03005KT 10SM BKN029 OVC037 05/M02 A3021 RMK AO2 T00501017 $=
202302142153 METAR KSEA 142153Z 35012KT 10SM FEW030 BKN038 05/M02 A3020 RMK AO2 SLP236 T00501017 $=
202302142053 METAR KSEA 142053Z 34011G19KT 10SM BKN036 05/M02 A3018 RMK AO2 SLP230 T00501022 51021 $=
202302141953 METAR KSEA 141953Z 35011KT 10SM SCT030 04/M03 A3017 RMK AO2 SLP224 T00441028 $=
202302141853 METAR KSEA 141853Z 01007KT 10SM FEW015 FEW050 04/M01 A3015 RMK AO2 SLP219 T00441006 $=
202302141753 METAR KSEA 141753Z 04006KT 10SM FEW015 FEW050 SCT250 03/M01 A3012 RMK AO2 SLP209 T00281006 10028 21017 53022 $=
202302141653 METAR KSEA 141653Z 03011KT 10SM FEW015 SCT035 SCT048 02/M01 A3009 RMK AO2 SLP198 T00171011 $=
202302141553 METAR KSEA 141553Z 02008KT 9SM SCT011 SCT021 BKN030 01/M01 A3005 RMK AO2 SLP188 VIRGA T00061011 $=
202302141550 SPECI KSEA 141550Z 01009KT 7SM SCT011 SCT021 BKN030 01/M01 A3005 RMK AO2 VIRGA $=
202302141541 SPECI KSEA 141541Z 01008KT 6SM BR FEW008 SCT015 BKN021 M01/M02 A3005 RMK AO2 T10111022 $=
202302141453 METAR KSEA 141453Z 05004KT 10SM FEW010 BKN045 00/M02 A3001 RMK AO2 SLP173 T00001017 53030 $=
202302141353 METAR KSEA 141353Z 08004KT 9SM SCT046 M01/M02 A2998 RMK AO2 SLP161 T10061022 $=
202302141253 METAR KSEA 141253Z 00000KT 8SM FEW002 M01/M02 A2995 RMK AO2 SLP152 T10111022 $=
202302141153 METAR KSEA 141153Z 00000KT 10SM FEW002 SCT041 01/M02 A2992 RMK AO2 SLP142 60000 70035 T00061017 10017 21006 53011 $=
202302141053 METAR KSEA 141053Z 16005KT 10SM FEW002 M01/M02 A2991 RMK AO2 SLP137 T10061017 $=
202302140953 METAR KSEA 140953Z 13007KT 9SM FEW002 00/M01 A2990 RMK AO2 SLP134 T00001011 $=
202302140903 SPECI KSEA 140903Z 14009KT 10SM FEW001 SCT041 01/M01 A2989 RMK AO2 T00061011 $=
202302140853 METAR KSEA 140853Z VRB05KT 1/2SM R16L/P6000FT FG BKN001 OVC041 01/M01 A2989 RMK AO2 SLP131 60000 T00111006 50004 $=
202302140826 SPECI KSEA 140826Z VRB04KT 1/2SM R16L/5000VP6000FT FG BKN001 BKN041 01/M01 A2989 RMK AO2 T00111006 $=
202302140803 SPECI KSEA 140803Z 11006KT 10SM FEW003 BKN032 BKN040 02/00 A2990 RMK AO2 T00170000 $=
202302140753 METAR KSEA 140753Z VRB05KT 10SM SCT003 BKN021 BKN038 02/00 A2990 RMK AO2 SLP133 T00170000 400780006 $=
202302140750 SPECI KSEA 140750Z VRB05KT 10SM SCT003 BKN021 BKN038 02/00 A2990 RMK AO2 $=
202302140717 SPECI KSEA 140717Z 18007KT 1 1/2SM BKN003 OVC014 01/M01 A2991 RMK AO2 SFC VIS 8 T00061006 $=
202302140653 METAR KSEA 140653Z VRB03KT 1/2SM R16L/P6000FT FG SCT003 OVC014 02/00 A2990 RMK AO2 SNE46 SLP134 P0000 T00170000 $=
202302140646 SPECI KSEA 140646Z 15006KT 1/2SM R16L/P6000FT FG SCT003 OVC014 01/00 A2990 RMK AO2 SNE46 P0000 T00110000 $=
202302140628 SPECI KSEA 140628Z 19007KT 1SM R16L/4500VP6000FT -SN BR SCT001 BKN011 OVC075 01/M01 A2990 RMK AO2 P0000 T00061006 $=
202302140616 SPECI KSEA 140616Z 13007KT 090V160 1/2SM R16L/4500VP6000FT -SN FG SCT003 BKN031 OVC075 01/M01 A2989 RMK AO2 P0000 T00111006 $=
202302140557 SPECI KSEA 140557Z 12010G18KT 3SM -SN BR FEW008 OVC034 01/M01 A2988 RMK AO2 P0000 T00061011 $=
202302140553 METAR KSEA 140553Z 11012KT 2SM -SN BR FEW004 SCT008 OVC027 01/M01 A2988 RMK AO2 SLP127 P0011 60035 T00061011 10061 20006 53015 $=
202302140540 SPECI KSEA 140540Z VRB05KT 1SM R16L/P6000FT -SN BR OVC006 01/M01 A2989 RMK AO2 P0010 T00111006 $=
202302140509 SPECI KSEA 140509Z 13005KT 3/4SM R16L/2200VP6000FT -SN BR FEW004 OVC009 01/M01 A2988 RMK AO2 P0003 T00111006 $=
202302140500 SPECI KSEA 140500Z VRB04KT 1SM R16L/0600VP6000FT -SN BR FEW004 OVC009 02/M01 A2987 RMK AO2 P0001 T00171006 $=
202302140453 METAR KSEA 140453Z 12005KT 1 1/2SM -SN BR OVC011 01/M01 A2987 RMK AO2 RAE0358SNB0358 SLP123 P0016 T00111006 $=
202302140442 SPECI KSEA 140442Z 11007KT 2SM -SN BR OVC011 02/M01 A2986 RMK AO2 RAE0358SNB0358 P0014 T00171006 $=
202302140431 SPECI KSEA 140431Z 12008KT 080V140 1 3/4SM -SN BR OVC010 02/00 A2986 RMK AO2 RAE0358SNB0358 P0011 T00170000 $=
202302140418 SPECI KSEA 140418Z 11004KT 2 1/2SM -SN BR OVC011 01/M01 A2986 RMK AO2 RAE0358SNB0358 P0007 T00111006 $=
202302140400 SPECI KSEA 140400Z 09006KT 1 3/4SM -SN BR FEW006 OVC013 02/01 A2985 RMK AO2 LTG DSNT W RAE0358SNB0358 P0001 T00220006 $=
202302140353 METAR KSEA 140353Z 08006KT 2 1/2SM RA BR BKN013 OVC020CB 02/01 A2984 RMK AO2 LTG DSNT W RAB20 TSB10E30B35E50 SLP114 CB OHD MOV SE P0008 T00220006 $=
202302140349 SPECI KSEA 140349Z 08005KT 2 1/2SM TSRA BR BKN013 OVC020CB 02/00 A2984 RMK AO2 RAB20 TSB10E30B35 CB OHD MOV SE P0007 $=
202302140336 SPECI KSEA 140336Z 04008G19KT 2SM TSRA BKN020 BKN031CB OVC075 02/M01 A2983 RMK AO2 RAB20 TSB10E30B35 CB OHD MOV SE P0001 T00221006 $=
202302140328 SPECI KSEA 140328Z 06010G14KT 3SM TSRA BKN020 BKN031CB OVC075 04/M01 A2982 RMK AO2 RAB20 TSB10 TS N MOV NE P0000 T00441006=
202302140316 SPECI KSEA 140316Z VRB04KT 10SM TS SCT022 BKN031CB OVC085 04/M01 A2981 RMK AO2 LTG DSNT NW TSB10 TS N MOV NE T00441006=
202302140305 SPECI KSEA 140305Z 22006G16KT 10SM SCT029 BKN070 OVC085 04/M01 A2980 RMK AO2 LTG DSNT NW T00441006=
202302140253 METAR KSEA 140253Z 23011KT 10SM VCTS FEW026 BKN065 OVC085 04/M01 A2978 RMK AO2 LTG DSNT E SLP095 60000 T00441011 53001=
202302140243 SPECI KSEA 140243Z 22013KT 10SM VCTS SCT026 BKN065 OVC090 05/M01 A2978 RMK AO2 LTG DSNT E T00501011=
202302140220 SPECI KSEA 140220Z 22012KT 10SM BKN028 BKN060 OVC110 05/M01 A2978 RMK AO2 CB DSNT NE T00501006=
202302140207 SPECI KSEA 140207Z 22010KT 10SM VCTS FEW024 FEW060 BKN110 06/01 A2977 RMK AO2 CB DSNT NE T00560006=
202302140153 METAR KSEA 140153Z 21011KT 10SM FEW023 SCT034 BKN120 06/01 A2977 RMK AO2 SLP088 T00560006=
202302140138 SPECI KSEA 140138Z 19007KT 10SM BKN024 BKN028 BKN034 05/01 A2977 RMK AO2 T00500011=
202302140100 SPECI KSEA 140100Z 08005KT 10SM SCT020 SCT028 OVC034 06/02 A2978 RMK AO2 T00560017=
202302140053 METAR KSEA 140053Z 07008KT 10SM BKN020 OVC034 05/01 A2978 RMK AO2 RAB11E31 SLP092 P0000 T00500011=
202302140027 SPECI KSEA 140027Z 22005KT 10SM -RA BKN022 OVC034 06/01 A2978 RMK AO2 RAB11 P0000 T00610011=
202302132353 METAR KSEA 132353Z 21010KT 10SM SCT024 BKN039 OVC075 06/02 A2978 RMK AO2 SLP092 T00610017 10078 20061 55006=
202302132342 SPECI KSEA 132342Z 22011KT 10SM SCT023 BKN030 OVC090 06/02 A2978 RMK AO2 T00610017=
202302132328 SPECI KSEA 132328Z 22011G21KT 10SM SCT024 BKN029 BKN090 07/02 A2977 RMK AO2 T00670017=
202302132253 METAR KSEA 132253Z 21016G23KT 10SM BKN033 OVC041 07/01 A2977 RMK AO2 SLP089 T00670011=
202302132153 METAR KSEA 132153Z 21012G20KT 10SM SCT027 BKN034 06/01 A2979 RMK AO2 SLP096 T00610011=
202302132100 SPECI KSEA 132100Z 21013G19KT 10SM FEW026 BKN035 07/01 A2980 RMK AO2 T00720011=
202302132053 METAR KSEA 132053Z 20011G21KT 10SM SCT020 BKN028 08/02 A2980 RMK AO2 SLP099 T00780017 58017=
202302131953 METAR KSEA 131953Z 21013KT 10SM SCT019 BKN027 07/02 A2983 RMK AO2 SLP109 T00670017=
202302131853 METAR KSEA 131853Z 21010KT 10SM BKN017 BKN023 OVC035 06/02 A2985 RMK AO2 SLP116 T00610022=
202302131812 SPECI KSEA 131812Z 24009KT 10SM BKN016 BKN035 06/02 A2985 RMK AO2 T00610022=
202302131753 METAR KSEA 131753Z 24010KT 10SM BKN014 BKN034 06/02 A2985 RMK AO2 SLP115 60000 T00610022 10061 20050 50002=
202302131746 SPECI KSEA 131746Z 22010KT 10SM BKN012 BKN034 06/02 A2985 RMK AO2 T00610017=
202302131653 METAR KSEA 131653Z 22011KT 10SM SCT014 BKN030 BKN090 BKN200 05/02 A2985 RMK AO2 SLP116 T00500017=
202302131626 SPECI KSEA 131626Z 23009KT 10SM SCT014 BKN030 05/02 A2986 RMK AO2 T00500017=
202302131553 METAR KSEA 131553Z 22010KT 10SM BKN014 05/02 A2986 RMK AO2 SLP118 T00500017=
202302131453 METAR KSEA 131453Z 24011KT 10SM BKN014 05/02 A2984 RMK AO2 RAE1355 SLP114 P0000 60000 T00500017 55015=
202302131436 SPECI KSEA 131436Z 23009G23KT 10SM BKN014 OVC050 05/02 A2984 RMK AO2 RAE1355 P0000 T00500022=
202302131405 SPECI KSEA 131405Z 22012KT 10SM BKN016 OVC050 06/03 A2983 RMK AO2 RAE1355 P0000 T00560028=
202302131353 METAR KSEA 131353Z 21015G22KT 10SM -RA SCT013 SCT031 OVC050 06/03 A2983 RMK AO2 RAB38 SLP109 P0000 T00560028=
202302131345 SPECI KSEA 131345Z 20011KT 10SM -RA SCT013 SCT022 OVC055 06/03 A2983 RMK AO2 RAB38 P0000 T00560028=
202302131253 METAR KSEA 131253Z 20014G21KT 10SM BKN017 BKN025 OVC065 06/03 A2986 RMK AO2 SLP120 T00610028=
202302131215 SPECI KSEA 131215Z 18012G20KT 10SM SCT019 BKN025 OVC085 06/03 A2987 RMK AO2 T00610028=
202302131153 METAR KSEA 131153Z 19013KT 10SM FEW020 SCT026 BKN090 06/03 A2989 RMK AO2 PK WND 21026/1131 SLP128 SCT V BKN 60001 70001 T00610028 10078 20061 56007=
202302131053 METAR KSEA 131053Z 21009G20KT 10SM SCT020 06/03 A2989 RMK AO2 PK WND 21028/1005 SLP129 SCT V BKN T00610028=
202302130953 METAR KSEA 130953Z 21013G23KT 10SM FEW019 SCT065 07/03 A2989 RMK AO2 PK WND 22028/0907 SLP131 T00670033=
202302130903 SPECI KSEA 130903Z 21019G24KT 10SM SCT012 BKN060 07/04 A2990 RMK AO2 T00720044=
202302130853 METAR KSEA 130853Z 20017G24KT 10SM BKN012 BKN048 BKN060 07/05 A2991 RMK AO2 PK WND 18027/0801 RAE50 SLP136 P0000 60001 T00720050 55013=
202302130753 METAR KSEA 130753Z 19015G26KT 10SM -RA OVC013 07/06 A2990 RMK AO2 PK WND 20026/0745 SLP135 CIG 011V015 P0001 T00720056 401000000=
202302130724 SPECI KSEA 130724Z 19014G22KT 7SM -RA OVC013 07/05 A2993 RMK AO2 CIG 011V015 P0001 T00720050=
202302130653 METAR KSEA 130653Z 18015KT 9SM -RA OVC016 08/04 A2993 RMK AO2 SLP144 P0000 T00780044=
202302130553 METAR KSEA 130553Z 17015KT 10SM -RA OVC019 08/04 A2995 RMK AO2 PK WND 19027/0459 RAB12E25B42 PRESFR SLP149 P0000 60000 T00780039 10100 20078 58016=
202302130453 METAR KSEA 130453Z 19014G25KT 10SM OVC022 09/04 A2999 RMK AO2 PK WND 22026/0433 SLP163 T00890039=
202302130353 METAR KSEA 130353Z 21012G20KT 10SM OVC023 08/02 A2999 RMK AO2 SLP166 T00830022=
202302130317 SPECI KSEA 130317Z 22012KT 10SM BKN028 BKN038 OVC045 09/02 A3001 RMK AO2 T00890022=
202302130253 METAR KSEA 130253Z 20011KT 10SM BKN032 OVC041 09/03 A3000 RMK AO2 SLP167 T00890028 56029=
202302130153 METAR KSEA 130153Z 21010KT 10SM OVC032 09/01 A3002 RMK AO2 SLP174 T00940006=
202302130111 SPECI KSEA 130111Z 21010KT 10SM OVC030 10/01 A3005 RMK AO2 T01000006=
202302130053 METAR KSEA 130053Z 19007KT 10SM OVC029 09/02 A3005 RMK AO2 SLP184 T00940017=
202302130023 SPECI KSEA 130023Z 18008KT 10SM OVC029 09/02 A3006 RMK AO2 T00940022=
202302122353 METAR KSEA 122353Z 18007KT 10SM FEW025 OVC034 09/02 A3008 RMK AO2 SLP195 T00940022 10100 20039 58032=
202302122253 METAR KSEA 122253Z 20007KT 10SM OVC034 10/02 A3011 RMK AO2 SLP206 T01000017=
202302122153 METAR KSEA 122153Z 28004KT 10SM FEW020 BKN038 OVC100 08/02 A3015 RMK AO2 SLP220 T00830022=
202302122053 METAR KSEA 122053Z 17007KT 10SM FEW020 BKN047 BKN100 08/02 A3018 RMK AO2 SLP228 T00780017 58022=
202302121953 METAR KSEA 121953Z 19007KT 10SM FEW010 SCT048 BKN210 07/03 A3021 RMK AO2 SLP238 T00720028=
202302121853 METAR KSEA 121853Z 18007KT 10SM FEW010 SCT100 BKN220 06/02 A3023 RMK AO2 SLP245 T00560017=
202302121753 METAR KSEA 121753Z 00000KT 10SM FEW010 SCT120 BKN210 04/02 A3024 RMK AO2 SLP251 T00390017 10039 20000 55000=
202302121653 METAR KSEA 121653Z 13004KT 10SM FEW010 SCT120 BKN200 02/01 A3024 RMK AO2 SLP250 T00220006=
202302121553 METAR KSEA 121553Z 00000KT 10SM FEW007 SCT120 01/00 A3024 RMK AO2 SLP251 T00110000=
202302121453 METAR KSEA 121453Z 00000KT 10SM FEW007 FEW110 00/M01 A3024 RMK AO2 SLP251 T00001006 56013=
202302121408 SPECI KSEA 121408Z 17003KT 10SM FEW005 SCT100 01/M01 A3025 RMK AO2 T00111011=
202302121353 METAR KSEA 121353Z 18003KT 10SM CLR 01/M01 A3025 RMK AO2 SLP254 T00111006=
202302121253 METAR KSEA 121253Z 00000KT 10SM CLR 02/M01 A3027 RMK AO2 SLP259 T00171006=
202302121153 METAR KSEA 121153Z 04003KT 7SM FEW100 SCT200 02/00 A3028 RMK AO2 SLP264 T00170000 10044 20011 57001=
202302121131 SPECI KSEA 121131Z 04003KT 7SM FEW100 SCT200 02/00 A3029 RMK AO2 T00220000=
202302121119 SPECI KSEA 121119Z AUTO 00000KT 1 1/2SM BR CLR 02/01 A3029 RMK AO2 T00170006=
202302121053 METAR KSEA 121053Z AUTO 13005KT 7SM FEW100 SCT200 02/00 A3028 RMK AO2 SLP263 T00170000=
202302120953 METAR KSEA 120953Z 04004KT 9SM CLR 02/00 A3029 RMK AO2 SLP266 T00170000=
202302120853 METAR KSEA 120853Z 03005KT 10SM CLR 03/01 A3028 RMK AO2 SLP264 T00330006 55003=
202302120753 METAR KSEA 120753Z 06004KT 10SM FEW200 04/01 A3028 RMK AO2 SLP263 T00390006 400890033=
202302120653 METAR KSEA 120653Z 06005KT 10SM SCT200 04/01 A3028 RMK AO2 SLP261 T00440011=
202302120553 METAR KSEA 120553Z 01008KT 10SM FEW150 SCT200 04/01 A3029 RMK AO2 SLP266 T00390006 10078 20033 53005=
202302120453 METAR KSEA 120453Z 01006KT 10SM FEW150 SCT220 03/01 A3027 RMK AO2 SLP259 T00330006=
202302120353 METAR KSEA 120353Z 36005KT 10SM FEW040 SCT160 BKN220 04/01 A3026 RMK AO2 SLP257 T00440006=
202302120253 METAR KSEA 120253Z 36006KT 10SM FEW035 SCT180 BKN250 05/00 A3028 RMK AO2 SLP262 T00500000 57001=
202302120153 METAR KSEA 120153Z 01004KT 10SM FEW030 SCT180 BKN250 06/00 A3027 RMK AO2 SLP260 T00560000=
202302120053 METAR KSEA 120053Z 34007KT 10SM BKN250 07/01 A3029 RMK AO2 SLP265 T00720006=
202302112353 METAR KSEA 112353Z 32006KT 10SM FEW030 BKN250 08/01 A3028 RMK AO2 SLP263 T00780006 10089 20067 56005=
202302112253 METAR KSEA 112253Z 01004KT 10SM SCT027 BKN220 08/01 A3028 RMK AO2 SLP264 SCT V BKN T00830006=
202302112246 SPECI KSEA 112246Z 34005KT 10SM SCT027 BKN220 08/01 A3029 RMK AO2 SCT V BKN T00830011=
202302112153 METAR KSEA 112153Z 02007KT 10SM BKN026 BKN220 08/02 A3029 RMK AO2 SLP266 T00830017=
202302112136 SPECI KSEA 112136Z 35006KT 10SM BKN026 BKN220 08/01 A3029 RMK AO2 T00780011=
202302112053 METAR KSEA 112053Z 01006KT 10SM SCT023 SCT220 08/01 A3030 RMK AO2 SLP268 T00830011 58007=
202302111953 METAR KSEA 111953Z 35010KT 10SM SCT021 BKN220 08/02 A3032 RMK AO2 SLP276 T00830017=
202302111853 METAR KSEA 111853Z 01007KT 10SM SCT018 BKN220 07/01 A3032 RMK AO2 SLP274 T00720011=
202302111753 METAR KSEA 111753Z 05007KT 10SM SCT019 BKN220 07/02 A3032 RMK AO2 SLP275 T00670017 10072 20033 51006=
202302111712 SPECI KSEA 111712Z 04009KT 10SM SCT016 BKN220 06/02 A3032 RMK AO2 T00560017=
202302111653 METAR KSEA 111653Z 04007KT 10SM BKN018 BKN220 06/02 A3031 RMK AO2 SLP274 T00560022=
202302111621 SPECI KSEA 111621Z 04008KT 10SM BKN016 05/02 A3032 RMK AO2 T00500017=
202302111553 METAR KSEA 111553Z 05005KT 10SM FEW020 FEW180 04/02 A3032 RMK AO2 SLP274 T00440017=
202302111453 METAR KSEA 111453Z 06006KT 10SM CLR 04/01 A3030 RMK AO2 SLP270 T00390011 53003=
202302111353 METAR KSEA 111353Z 05006KT 10SM SCT045 04/02 A3029 RMK AO2 SLP265 T00440017=
202302111253 METAR KSEA 111253Z 04006KT 10SM SCT045 05/02 A3028 RMK AO2 SLP264 T00500017=
202302111153 METAR KSEA 111153Z 05012KT 10SM BKN045 06/02 A3029 RMK AO2 SLP264 T00560022 10067 20050 51006=
202302111053 METAR KSEA 111053Z 04011KT 10SM SCT050 BKN060 06/02 A3029 RMK AO2 SLP263 T00560022=
202302110953 METAR KSEA 110953Z 04009KT 10SM SCT044 BKN055 06/02 A3029 RMK AO2 SLP264 T00560022=
202302110853 METAR KSEA 110853Z 03009KT 10SM BKN042 BKN050 06/03 A3027 RMK AO2 SLP258 T00610028 50006=
202302110753 METAR KSEA 110753Z 03008KT 10SM FEW042 SCT055 06/02 A3027 RMK AO2 SLP258 T00610022 401110056=
202302110653 METAR KSEA 110653Z 03009KT 10SM SCT050 06/03 A3026 RMK AO2 SLP257 T00610028=
202302110553 METAR KSEA 110553Z 04008KT 10SM SCT039 BKN055 07/03 A3025 RMK AO2 SLP252 T00670028 10111 20056 51014=
202302110453 METAR KSEA 110453Z 04012KT 10SM BKN030 07/03 A3024 RMK AO2 SLP248 T00670028=
202302110353 METAR KSEA 110353Z 02012KT 10SM FEW060 07/02 A3023 RMK AO2 SLP245 T00670022=
202302110253 METAR KSEA 110253Z 01006KT 10SM FEW035 FEW060 06/02 A3021 RMK AO2 SLP239 T00610022 53009=
202302110153 METAR KSEA 110153Z 22004KT 10SM FEW035 SCT050 09/02 A3020 RMK AO2 SLP234 T00890017=
202302110053 METAR KSEA 110053Z 20004KT 10SM FEW038 SCT060 10/02 A3019 RMK AO2 SLP231 T01000022=
202302102353 METAR KSEA 102353Z VRB04KT 10SM FEW025 SCT200 11/02 A3018 RMK AO2 SLP228 T01060022 10111 20083 55004=
202302102253 METAR KSEA 102253Z 16005KT 10SM FEW025 SCT200 11/03 A3018 RMK AO2 SLP227 T01060028=
202302102153 METAR KSEA 102153Z 20007KT 10SM FEW020 FEW035 SCT190 10/02 A3018 RMK AO2 SLP228 T01000017=
202302102053 METAR KSEA 102053Z 20006KT 10SM FEW020 FEW030 SCT120 SCT190 10/04 A3020 RMK AO2 SLP232 T01000039 58004=
202302101953 METAR KSEA 101953Z 19009KT 10SM FEW015 SCT030 SCT120 BKN190 10/05 A3020 RMK AO2 SLP234 T01000050=
202302101853 METAR KSEA 101853Z 20008KT 10SM SCT010 SCT030 BKN150 09/06 A3021 RMK AO2 SLP237 T00890061=
202302101753 METAR KSEA 101753Z 19006KT 10SM SCT009 SCT016 BKN030 BKN160 09/06 A3021 RMK AO2 SLP236 T00890056 10089 20061 51015=
202302101716 SPECI KSEA 101716Z 18005KT 10SM FEW009 BKN013 BKN030 BKN170 08/06 A3020 RMK AO2 T00830056=
202302101653 METAR KSEA 101653Z 18003KT 10SM SCT009 BKN040 BKN170 07/06 A3020 RMK AO2 SLP234 T00720056=
202302101629 SPECI KSEA 101629Z 17005KT 10SM BKN009 BKN040 07/06 A3019 RMK AO2 T00720056=
202302101606 SPECI KSEA 101606Z 16007KT 10SM FEW009 SCT030 BKN170 07/05 A3018 RMK AO2 T00670050=
202302101553 METAR KSEA 101553Z 17008KT 10SM FEW025 SCT030 BKN190 07/05 A3018 RMK AO2 SLP228 T00670050=
202302101453 METAR KSEA 101453Z 17008KT 10SM FEW027 SCT033 BKN190 07/05 A3016 RMK AO2 SLP221 T00670050 53008=
202302101440 SPECI KSEA 101440Z 17009KT 10SM FEW027 BKN033 07/05 A3016 RMK AO2 T00670050=
202302101353 METAR KSEA 101353Z 15007KT 9SM FEW021 BKN027 OVC033 07/06 A3015 RMK AO2 SLP219 T00670056=
202302101302 SPECI KSEA 101302Z 18009KT 10SM BKN023 07/05 A3015 RMK AO2 T00720050=
202302101253 METAR KSEA 101253Z 18009KT 10SM SCT021 07/05 A3015 RMK AO2 SLP215 T00720050=
202302101153 METAR KSEA 101153Z 19008KT 10SM SCT020 BKN075 07/06 A3014 RMK AO2 SLP213 60008 70009 T00720056 10094 20072 50006=
202302101142 SPECI KSEA 101142Z 18007KT 10SM SCT021 OVC075 08/06 A3014 RMK AO2 T00780056=
202302101134 SPECI KSEA 101134Z 19007KT 10SM BKN021 OVC070 08/06 A3014 RMK AO2 T00780056=
202302101053 METAR KSEA 101053Z 19010KT 10SM FEW015 SCT026 BKN049 08/06 A3014 RMK AO2 SLP215 T00780056=
202302100953 METAR KSEA 100953Z 19010KT 10SM BKN027 OVC032 08/06 A3013 RMK AO2 SLP211 T00780056=
202302100853 METAR KSEA 100853Z 18011KT 10SM OVC046 08/06 A3012 RMK AO2 RAE05 SLP207 P0000 60008 T00780056 51019=
202302100753 METAR KSEA 100753Z 19010KT 10SM -RA OVC034 08/06 A3012 RMK AO2 SLP207 P0005 T00780056 401390056=
202302100653 METAR KSEA 100653Z 22008G18KT 6SM -RA OVC042 09/05 A3010 RMK AO2 SLP200 P0003 T00890050=
202302100553 METAR KSEA 100553Z 21014G24KT 8SM -RA OVC046 09/04 A3006 RMK AO2 RAB33 SLP188 P0001 60001 T00940039 10133 20089 53010=
202302100453 METAR KSEA 100453Z 16007KT 10SM BKN085 OVC150 09/M01 A3003 RMK AO2 SLP176 T00941006=
202302100353 METAR KSEA 100353Z 15006KT 10SM FEW120 SCT180 09/M01 A3002 RMK AO2 SLP175 T00941011=
202302100253 METAR KSEA 100253Z 15006KT 10SM SCT180 09/M01 A3003 RMK AO2 SLP179 T00941006 56007=
202302100153 METAR KSEA 100153Z 17005KT 10SM BKN190 09/01 A3004 RMK AO2 SLP180 T00890011=
202302100053 METAR KSEA 100053Z VRB03KT 10SM FEW120 BKN190 12/01 A3004 RMK AO2 SLP181 T01170006=
202302092353 METAR KSEA 092353Z 27003KT 10SM SCT120 13/02 A3006 RMK AO2 SLP185 T01330022 10139 20078 57028=
202302092253 METAR KSEA 092253Z 00000KT 10SM FEW100 SCT200 12/02 A3008 RMK AO2 SLP194 T01220022=
202302092153 METAR KSEA 092153Z 16006KT 10SM BKN100 BKN200 13/01 A3011 RMK AO2 SLP205 T01280011=
202302092053 METAR KSEA 092053Z 00000KT 10SM BKN090 11/02 A3014 RMK AO2 SLP214 T01060017 58024=
202302091953 METAR KSEA 091953Z 00000KT 10SM BKN100 BKN120 09/02 A3017 RMK AO2 SLP225 T00890017=
202302091853 METAR KSEA 091853Z 27005KT 10SM BKN090 08/03 A3020 RMK AO2 SLP236 T00780028=
202302091753 METAR KSEA 091753Z 00000KT 10SM OVC090 08/02 A3021 RMK AO2 SLP239 VIRGA T00780022 10089 20056 58014=
202302091653 METAR KSEA 091653Z 00000KT 10SM OVC080 07/02 A3023 RMK AO2 SLP246 T00670022=
202302091553 METAR KSEA 091553Z 20003KT 10SM OVC075 06/02 A3024 RMK AO2 SLP249 T00610017=
202302091453 METAR KSEA 091453Z 00000KT 10SM BKN075 BKN090 06/01 A3025 RMK AO2 SLP253 T00560011 56026=
202302091353 METAR KSEA 091353Z 28004KT 10SM BKN070 OVC130 06/00 A3027 RMK AO2 SLP260 T00560000=
202302091253 METAR KSEA 091253Z 12005KT 10SM SCT060 BKN080 OVC100 07/M01 A3030 RMK AO2 SLP268 T00721011=
202302091153 METAR KSEA 091153Z 14003KT 10SM BKN060 OVC090 06/M01 A3033 RMK AO2 SLP280 T00611006 10067 20061 56021=
202302091053 METAR KSEA 091053Z 11007KT 10SM FEW049 BKN070 OVC090 07/M01 A3035 RMK AO2 SLP286 T00671006=
202302090953 METAR KSEA 090953Z 12006KT 10SM SCT065 OVC090 07/M01 A3037 RMK AO2 SLP294 T00671006=
202302090853 METAR KSEA 090853Z 12005KT 10SM OVC090 06/00 A3039 RMK AO2 SLP301 T00610000 58016=
202302090753 METAR KSEA 090753Z 11007KT 10SM OVC070 06/01 A3042 RMK AO2 SLP309 T00610006 400890039=
202302090653 METAR KSEA 090653Z 13004KT 10SM OVC080 06/01 A3043 RMK AO2 SLP313 T00610006=
202302090553 METAR KSEA 090553Z 13005KT 10SM OVC080 07/01 A3044 RMK AO2 SLP317 T00670011 10083 20061 58006=
202302090453 METAR KSEA 090453Z 15006KT 10SM OVC085 07/01 A3046 RMK AO2 SLP322 T00670011=
202302090353 METAR KSEA 090353Z 16004KT 10SM SCT090 OVC110 07/01 A3045 RMK AO2 SLP321 T00720006=
202302090253 METAR KSEA 090253Z 11004KT 10SM BKN110 08/01 A3046 RMK AO2 SLP323 T00780011 58007=
202302090153 METAR KSEA 090153Z 13003KT 10SM FEW025 SCT140 SCT250 07/01 A3047 RMK AO2 SLP326 T00720006=
202302090053 METAR KSEA 090053Z 00000KT 10SM FEW025 FEW150 SCT250 08/01 A3047 RMK AO2 SLP327 T00780011=
202302082353 METAR KSEA 082353Z 19003KT 10SM FEW025 SCT250 08/01 A3048 RMK AO2 SLP330 T00830011 10089 20050 58009=
202302082253 METAR KSEA 082253Z 22006KT 10SM FEW022 BKN250 08/00 A3049 RMK AO2 SLP333 T00830000=
202302082153 METAR KSEA 082153Z 26007KT 10SM SCT022 BKN250 08/02 A3050 RMK AO2 SLP338 T00830017=
202302082053 METAR KSEA 082053Z 25008KT 10SM SCT020 BKN250 08/02 A3050 RMK AO2 SLP339 T00830017 56001=
202302081953 METAR KSEA 081953Z 23007KT 10SM SCT017 BKN030 BKN120 BKN250 07/02 A3051 RMK AO2 SLP339 T00720022=
202302081938 SPECI KSEA 081938Z 19006KT 10SM SCT017 BKN030 BKN120 BKN250 07/02 A3050 RMK AO2 T00720022=
202302081853 METAR KSEA 081853Z 20007KT 10SM SCT015 BKN022 07/02 A3050 RMK AO2 SLP336 T00670022=
202302081800 SPECI KSEA 081800Z 18006KT 10SM FEW012 OVC024 05/02 A3051 RMK AO2 T00500017=
202302081753 METAR KSEA 081753Z 20005KT 10SM BKN012 BKN024 05/02 A3051 RMK AO2 SLP339 T00500017 10050 20039 51012=
202302081749 SPECI KSEA 081749Z 20005KT 10SM BKN012 BKN024 05/02 A3051 RMK AO2=
202302081653 METAR KSEA 081653Z 17006KT 10SM BKN026 04/02 A3048 RMK AO2 SLP332 T00440017=
202302081553 METAR KSEA 081553Z 17006KT 10SM SCT015 BKN022 04/02 A3047 RMK AO2 SLP328 T00440017=
202302081453 METAR KSEA 081453Z 19007KT 10SM BKN016 04/01 A3044 RMK AO2 SLP318 T00390011 51020=
202302081438 SPECI KSEA 081438Z 18010KT 10SM BKN016 04/01 A3044 RMK AO2 T00390011=
202302081353 METAR KSEA 081353Z 14006KT 10SM OVC012 04/02 A3043 RMK AO2 SLP313 T00390017=
202302081253 METAR KSEA 081253Z 20007KT 10SM OVC013 04/02 A3041 RMK AO2 SLP305 T00390017=
202302081153 METAR KSEA 081153Z 21010KT 10SM OVC012 04/02 A3038 RMK AO2 SLP297 70030 T00440022 10056 20044 51020=
202302081122 SPECI KSEA 081122Z 21007KT 10SM OVC014 04/02 A3038 RMK AO2 T00440022=
202302081053 METAR KSEA 081053Z 22006KT 10SM BKN016 OVC110 05/02 A3037 RMK AO2 SLP292 T00500022=
202302080953 METAR KSEA 080953Z 21010KT 10SM SCT016 BKN120 05/02 A3035 RMK AO2 SLP285 T00500022=
202302080853 METAR KSEA 080853Z 22012KT 10SM SCT016 04/02 A3032 RMK AO2 SLP277 T00440017 51014=
202302080829 SPECI KSEA 080829Z 21012KT 10SM SCT016 05/02 A3032 RMK AO2 T00500017=
202302080818 SPECI KSEA 080818Z 21010KT 10SM BKN016 05/02 A3032 RMK AO2 T00500022=
202302080753 METAR KSEA 080753Z 22008KT 10SM SCT015 BKN110 05/02 A3032 RMK AO2 SLP275 T00500022 401000050=
202302080722 SPECI KSEA 080722Z 21012KT 10SM SCT016 BKN075 BKN100 05/02 A3031 RMK AO2 T00500017=
202302080653 METAR KSEA 080653Z 22009G17KT 10SM BKN015 06/02 A3030 RMK AO2 SLP270 T00560022=
202302080624 SPECI KSEA 080624Z 22013KT 10SM OVC014 06/02 A3029 RMK AO2 T00560022=
202302080553 METAR KSEA 080553Z 22009G20KT 10SM BKN018 06/02 A3028 RMK AO2 SLP262 T00560022 10083 20050 53030=
202302080453 METAR KSEA 080453Z 21014G21KT 10SM FEW022 SCT120 06/01 A3024 RMK AO2 PK WND 24028/0437 SLP250 T00560011=
202302080353 METAR KSEA 080353Z 22017G26KT 10SM SCT022 SCT110 06/02 A3020 RMK AO2 PK WND 21029/0322 SLP237 T00610022=
202302080253 METAR KSEA 080253Z 22019G27KT 10SM FEW024 SCT120 07/02 A3019 RMK AO2 PK WND 21029/0157 SLP232 T00670022 51020=
202302080153 METAR KSEA 080153Z 22012G22KT 10SM FEW022 SCT080 07/03 A3018 RMK AO2 SLP228 T00720028=
202302080053 METAR KSEA 080053Z 22014G27KT 10SM FEW023 FEW075 SCT150 08/03 A3017 RMK AO2 PK WND 23027/0044 SLP225 T00780028=
202302072353 METAR KSEA 072353Z 22016G26KT 10SM FEW075 SCT100 BKN150 09/03 A3013 RMK AO2 PK WND 22030/2255 SLP211 SHRA S 60007 T00890028 10100 20078 53009=
202302072314 SPECI KSEA 072314Z 22016G25KT 10SM SCT016 BKN150 09/06 A3012 RMK AO2 PK WND 22030/2255 T00940056=
202302072253 METAR KSEA 072253Z 21017G29KT 10SM BKN016 BKN150 09/06 A3012 RMK AO2 PK WND 20032/2240 SLP206 T00940056=
202302072239 SPECI KSEA 072239Z 21015G23KT 10SM BKN015 09/06 A3011 RMK AO2 T00940061=
202302072219 SPECI KSEA 072219Z 20013G22KT 10SM BKN014 BKN040 09/07 A3011 RMK AO2 T00940067=
202302072200 SPECI KSEA 072200Z 21011G24KT 10SM SCT014 BKN021 09/06 A3011 RMK AO2 T00890061=
202302072153 METAR KSEA 072153Z 20012G20KT 10SM FEW012 SCT022 BKN075 09/07 A3011 RMK AO2 PK WND 21027/2114 RAE2058 SLP203 P0000 T00940067=
202302072107 SPECI KSEA 072107Z 20017G24KT 10SM FEW015 SCT024 BKN080 09/07 A3011 RMK AO2 RAE2058 P0000 T00890067=
202302072053 METAR KSEA 072053Z 19013G24KT 6SM -RA BR SCT017 BKN024 BKN030 BKN130 08/06 A3010 RMK AO2 PK WND 20027/2014 RAB12 SLP203 P0006 60007 T00830061 51002=
202302072011 SPECI KSEA 072011Z 19017G25KT 9SM OVC025 08/05 A3010 RMK AO2 T00830050=
202302071953 METAR KSEA 071953Z 18014G24KT 10SM SCT025 OVC040 09/05 A3010 RMK AO2 RAE42 SLP199 P0000 T00890050=
202302071900 SPECI KSEA 071900Z 19013G19KT 10SM -RA SCT024 BKN039 OVC046 08/06 A3011 RMK AO2 P0000 T00830056=
202302071853 METAR KSEA 071853Z 19010KT 10SM -RA SCT024 BKN029 OVC044 08/06 A3012 RMK AO2 RAB09E30B49 SLP205 P0001 T00830056=
202302071836 SPECI KSEA 071836Z 20011KT 10SM SCT024 BKN029 OVC044 08/05 A3011 RMK AO2 RAB09E30 P0001 T00830050=
202302071753 METAR KSEA 071753Z 18014G22KT 10SM SCT029 BKN035 OVC045 08/05 A3010 RMK AO2 RAE41 SLP200 P0001 60023 T00830050 10083 20067 58012=
202302071653 METAR KSEA 071653Z 18011KT 7SM -RA BR BKN030 OVC038 07/04 A3011 RMK AO2 SLP205 P0003 T00720044=
202302071553 METAR KSEA 071553Z 18012KT 6SM -RA BR BKN030 OVC038 07/04 A3012 RMK AO2 SLP208 P0005 T00720044=
202302071514 SPECI KSEA 071514Z 17012KT 7SM -RA SCT027 OVC036 07/04 A3013 RMK AO2 P0003 T00720044=
202302071453 METAR KSEA 071453Z 18011KT 7SM -RA OVC027 07/04 A3013 RMK AO2 SLP212 P0008 60014 T00670044 58023=
202302071442 SPECI KSEA 071442Z 17012KT 7SM -RA OVC028 07/04 A3014 RMK AO2 P0007 T00670044=
202302071353 METAR KSEA 071353Z 17011KT 7SM -RA OVC038 07/04 A3016 RMK AO2 SLP222 P0005 T00670039=
202302071253 METAR KSEA 071253Z 18010KT 10SM -RA OVC032 07/04 A3018 RMK AO2 SLP228 P0001 T00720039=
202302071153 METAR KSEA 071153Z 16013KT 8SM -RA OVC034 07/04 A3020 RMK AO2 SLP235 P0004 60010 70012 T00720039 10083 20072 58023=
202302071053 METAR KSEA 071053Z 18012KT 8SM -RA OVC039 07/04 A3023 RMK AO2 SLP245 P0003 T00720044=
202302070953 METAR KSEA 070953Z 19008KT 10SM -RA BKN042 OVC100 07/04 A3025 RMK AO2 RAB0858 SLP253 P0002 T00720039=
202302070853 METAR KSEA 070853Z 18009KT 10SM OVC049 07/03 A3027 RMK AO2 RAE23 SLP258 P0001 60001 T00720033 58011=
202302070753 METAR KSEA 070753Z 18009KT 10SM -RA OVC035 08/03 A3029 RMK AO2 RAB34 SLP264 P0000 T00830028 400890056=
202302070653 METAR KSEA 070653Z 16009KT 10SM BKN045 OVC055 08/03 A3030 RMK AO2 SLP269 T00780033=
202302070553 METAR KSEA 070553Z 15009KT 10SM OVC040 07/03 A3030 RMK AO2 RAB04E13B29E49 SLP270 P0000 60000 T00720033 10083 20072 58008=
202302070453 METAR KSEA 070453Z 17010KT 10SM FEW033 OVC042 08/03 A3031 RMK AO2 SLP274 T00780033=
202302070353 METAR KSEA 070353Z 18008KT 10SM FEW032 OVC050 08/03 A3032 RMK AO2 SLP277 T00780033=
202302070253 METAR KSEA 070253Z 19010KT 10SM FEW038 SCT060 BKN160 08/03 A3033 RMK AO2 SLP278 T00780033 58013=
202302070153 METAR KSEA 070153Z 19011KT 10SM SCT027 BKN039 BKN200 08/04 A3034 RMK AO2 SLP283 T00830039=
202302070121 SPECI KSEA 070121Z 19008KT 10SM BKN027 BKN055 BKN200 08/04 A3036 RMK AO2 T00830044=
202302070053 METAR KSEA 070053Z 21010KT 10SM FEW023 BKN030 BKN200 08/05 A3036 RMK AO2 SLP290 T00830050=
202302062353 METAR KSEA 062353Z 19014KT 10SM FEW023 SCT029 BKN040 08/06 A3036 RMK AO2 SLP291 60002 T00780056 10089 20072 56006=
202302062253 METAR KSEA 062253Z 19012KT 10SM FEW021 BKN028 OVC036 08/05 A3037 RMK AO2 RAE38 SLP294 P0000 T00830050=
202302062153 METAR KSEA 062153Z 21013KT 7SM -RA BKN025 BKN032 OVC120 08/05 A3037 RMK AO2 SLP293 P0002 T00830050=
202302062053 METAR KSEA 062053Z 19011G23KT 7SM -RA BKN021 OVC026 08/05 A3038 RMK AO2 SLP297 P0000 60000 T00830050 58002=
202302061953 METAR KSEA 061953Z 19013KT 7SM -RA BKN024 BKN030 OVC040 08/05 A3039 RMK AO2 RAB43 SLP300 P0000 T00830050 $=
202302061853 METAR KSEA 061853Z 19015KT 10SM SCT020 BKN025 BKN120 08/04 A3040 RMK AO2 SLP301 T00780044=
202302061753 METAR KSEA 061753Z 19015G23KT 7SM BKN018 BKN030 07/04 A3039 RMK AO2 SLP300 60000 T00720044 10072 20056 53008 $=
202302061653 METAR KSEA 061653Z 19017G24KT 10SM SCT015 BKN025 BKN060 07/04 A3038 RMK AO2 PK WND 20026/1636 SLP295 P0000 T00670039 $=
202302061553 METAR KSEA 061553Z 19014G24KT 10SM SCT015 BKN023 OVC065 06/04 A3037 RMK AO2 SLP293 T00610039=
202302061453 METAR KSEA 061453Z 19016G22KT 6SM BR FEW008 OVC015 06/04 A3036 RMK AO2 RAE51 SLP291 P0000 60000 T00560039 53004=
202302061438 SPECI KSEA 061438Z 19013G22KT 6SM -RA BR SCT008 BKN015 OVC020 06/04 A3036 RMK AO2 P0000 T00560039=
202302061353 METAR KSEA 061353Z 18012KT 10SM -RA OVC013 06/03 A3036 RMK AO2 RAB35 SLP289 P0000 T00560028=
202302061300 SPECI KSEA 061300Z 18011KT 10SM OVC013 06/03 A3035 RMK AO2 T00610033=
202302061253 METAR KSEA 061253Z 18009G17KT 10SM OVC015 06/03 A3036 RMK AO2 SLP288 T00610033=
202302061153 METAR KSEA 061153Z 18010KT 10SM BKN017 OVC075 06/03 A3035 RMK AO2 SLP286 60000 70007 T00610028 10067 20056 51022=
202302061123 SPECI KSEA 061123Z 19012G19KT 10SM BKN019 BKN045 OVC085 06/03 A3034 RMK AO2 T00610028=
202302061053 METAR KSEA 061053Z 19010KT 10SM SCT019 BKN044 OVC080 06/03 A3035 RMK AO2 SLP284 SCT V BKN T00610028=
202302060953 METAR KSEA 060953Z 19010KT 10SM SCT018 OVC039 06/03 A3032 RMK AO2 SLP276 T00610028=
202302060853 METAR KSEA 060853Z 18009KT 10SM SCT020 BKN041 OVC150 06/03 A3029 RMK AO2 RAE0759 SLP264 P0000 60000 T00560028 51030=
202302060833 SPECI KSEA 060833Z 18010KT 10SM SCT020 BKN041 OVC150 06/03 A3028 RMK AO2 RAE0759 P0000 T00560033=
202302060802 SPECI KSEA 060802Z 18009KT 7SM BKN017 BKN039 OVC050 06/03 A3027 RMK AO2 RAE0759 P0000 T00610033=
202302060753 METAR KSEA 060753Z 20009KT 7SM -RA BKN014 BKN043 OVC060 06/04 A3027 RMK AO2 SLP258 P0000 T00610039 400830056=
202302060653 METAR KSEA 060653Z 21011KT 9SM -RA BKN011 OVC025 06/04 A3024 RMK AO2 RAB49 SLP247 P0000 T00610039=
202302060553 METAR KSEA 060553Z 21013KT 10SM OVC013 07/04 A3019 RMK AO2 SLP233 CIG 011V017 60002 T00670039 10083 20067 53043=
202302060453 METAR KSEA 060453Z 21010KT 10SM OVC011 07/04 A3015 RMK AO2 RAB04E18 SLP218 P0002 T00670044=
202302060353 METAR KSEA 060353Z 22009KT 10SM OVC010 07/05 A3011 RMK AO2 SLP205 T00720050=
202302060253 METAR KSEA 060253Z 22010KT 10SM OVC012 08/06 A3007 RMK AO2 SLP190 T00780056 53037=
202302060153 METAR KSEA 060153Z 20007KT 10SM OVC010 08/06 A3002 RMK AO2 SLP174 T00830061=
202302060053 METAR KSEA 060053Z 21005KT 10SM OVC011 08/07 A2999 RMK AO2 SLP164 T00830067=
202302060034 SPECI KSEA 060034Z 22006KT 10SM BKN007 OVC012 08/07 A2999 RMK AO2 T00830067=
202302060006 SPECI KSEA 060006Z 22009KT 10SM FEW007 BKN011 OVC033 08/07 A2997 RMK AO2 T00830067=
202302052353 METAR KSEA 052353Z 21008KT 10SM FEW011 BKN014 OVC033 08/07 A2996 RMK AO2 RAB24E46 SLP152 P0000 60005 T00830067 10083 20072 53024=
202302052306 SPECI KSEA 052306Z 23007KT 10SM BKN013 BKN017 OVC044 08/06 A2994 RMK AO2 T00830061=
202302052253 METAR KSEA 052253Z 22005KT 10SM FEW009 SCT028 OVC045 08/06 A2993 RMK AO2 RAE01 SLP144 P0000 T00830061=
202302052244 SPECI KSEA 052244Z 21005KT 10SM FEW009 SCT028 OVC045 08/06 A2992 RMK AO2 RAE01 P0000 T00830061=
202302052212 SPECI KSEA 052212Z 21007KT 10SM SCT007 BKN012 OVC028 08/07 A2991 RMK AO2 RAE01 P0000 T00830067=
202302052153 METAR KSEA 052153Z 21006KT 6SM -RA BR SCT013 BKN028 OVC050 08/07 A2990 RMK AO2 RAB09 SLP133 P0002 T00830067=
202302052053 METAR KSEA 052053Z 17003KT 10SM BKN007 BKN014 OVC020 08/06 A2988 RMK AO2 RAE38 SLP128 P0001 60003 T00780061 51022=
202302052015 SPECI KSEA 052015Z 16004KT 2SM -RA BR BKN009 OVC015 08/06 A2987 RMK AO2 SFC VIS 4 P0000 T00780061=
202302051953 METAR KSEA 051953Z 14005KT 2SM -RA BR SCT005 BKN019 OVC026 07/06 A2986 RMK AO2 SFC VIS 5 SLP121 P0001 T00720061=
202302051925 SPECI KSEA 051925Z 15004KT 2SM -RA BKN005 OVC033 08/06 A2986 RMK AO2 SFC VIS 8 P0001 T00780061=
202302051913 SPECI KSEA 051913Z 14006KT 1SM R16L/P6000FT -RA BKN005 BKN031 OVC049 07/06 A2986 RMK AO2 SFC VIS 8 P0000 T00720061=
202302051853 METAR KSEA 051853Z 16006KT 10SM -RA BKN005 BKN034 OVC047 07/06 A2985 RMK AO2 SLP115 P0001 T00720061=
202302051838 SPECI KSEA 051838Z 19005KT 10SM -RA BKN005 BKN042 OVC049 07/06 A2984 RMK AO2 P0001 T00720056=
202302051753 METAR KSEA 051753Z 21005KT 8SM -RA SCT011 BKN047 OVC070 07/06 A2982 RMK AO2 RAB48 SLP106 P0000 60000 T00720061 10072 20056 53042=
202302051702 SPECI KSEA 051702Z 23003KT 10SM SCT011 OVC060 07/06 A2978 RMK AO2 T00670056=
202302051653 METAR KSEA 051653Z 23005KT 10SM BKN009 OVC065 07/06 A2977 RMK AO2 SLP090 T00670056=
202302051620 SPECI KSEA 051620Z 22004KT 10SM FEW007 FEW020 OVC070 06/04 A2975 RMK AO2 T00610044=
202302051553 METAR KSEA 051553Z 20004KT 10SM FEW020 OVC065 06/04 A2973 RMK AO2 SLP076 T00610044=
202302051453 METAR KSEA 051453Z 00000KT 10SM OVC090 06/04 A2969 RMK AO2 SLP063 T00610039 53018=
202302051353 METAR KSEA 051353Z 00000KT 10SM OVC075 06/04 A2966 RMK AO2 SLP052 T00610044=
202302051253 METAR KSEA 051253Z 34005KT 10SM OVC070 07/04 A2965 RMK AO2 SLP048 T00670044=
202302051153 METAR KSEA 051153Z 29004KT 10SM BKN070 06/04 A2964 RMK AO2 SLP044 70012 T00560039 10083 20056 57007=
202302051053 METAR KSEA 051053Z 32007KT 10SM BKN100 06/04 A2965 RMK AO2 SLP046 T00610044=
202302050953 METAR KSEA 050953Z 32005KT 10SM BKN110 07/03 A2965 RMK AO2 SLP049 T00720033=
202302050853 METAR KSEA 050853Z VRB03KT 10SM SCT110 08/03 A2966 RMK AO2 SLP051 T00780033 56043=
202302050753 METAR KSEA 050753Z 07013KT 10SM BKN095 OVC120 07/04 A2969 RMK AO2 PRESFR SLP060 T00720039 401110067=
202302050653 METAR KSEA 050653Z 07014KT 10SM OVC100 07/05 A2973 RMK AO2 SLP073 T00720050=
202302050553 METAR KSEA 050553Z 07009KT 10SM FEW041 OVC048 08/05 A2979 RMK AO2 RAE51 SLP095 P0001 60008 T00780050 10106 20072 58024=
202302050453 METAR KSEA 050453Z 07008KT 9SM -RA OVC043 08/06 A2983 RMK AO2 SLP107 P0003 T00780056=
202302050353 METAR KSEA 050353Z 16005KT 6SM -RA BR BKN036 OVC044 07/06 A2986 RMK AO2 SLP118 P0004 T00720061=
202302050253 METAR KSEA 050253Z 14006KT 10SM -RA OVC048 09/04 A2986 RMK AO2 RAB03E36B52 SLP119 P0000 60000 T00890044 56009=
202302050153 METAR KSEA 050153Z 14008KT 10SM BKN047 OVC055 09/05 A2987 RMK AO2 SLP122 T00940050=
202302050053 METAR KSEA 050053Z 15009KT 10SM BKN049 BKN065 OVC080 10/05 A2988 RMK AO2 SLP125 T01000050=
202302042353 METAR KSEA 042353Z 09010KT 10SM FEW004 BKN039 OVC050 11/06 A2989 RMK AO2 RAB2258E47 SLP129 P0001 60002 T01060056 10111 20089 56028=
202302042330 SPECI KSEA 042330Z 08008KT 9SM -RA FEW004 BKN039 OVC050 11/06 A2990 RMK AO2 RAB2258 P0001 T01060061=
202302042253 METAR KSEA 042253Z 00000KT 10SM BKN050 OVC065 11/06 A2992 RMK AO2 RAE51 SLP138 P0000 T01060061=
202302042153 METAR KSEA 042153Z 00000KT 10SM -RA BKN047 BKN055 OVC075 10/06 A2994 RMK AO2 SLP146 P0001 T01000061=
202302042053 METAR KSEA 042053Z 19004KT 10SM -RA SCT040 BKN060 OVC100 09/06 A2997 RMK AO2 RAB16 SLP157 P0000 60000 T00940056 58014=
202302041953 METAR KSEA 041953Z 19007KT 10SM FEW040 BKN065 OVC100 11/05 A3000 RMK AO2 SLP166 T01110050=
202302041853 METAR KSEA 041853Z 16008KT 10SM SCT050 BKN070 BKN100 10/05 A3001 RMK AO2 SLP170 T01000050=
202302041753 METAR KSEA 041753Z 13008KT 10SM FEW050 BKN070 BKN100 09/05 A3001 RMK AO2 SLP171 60002 T00890050 10089 20067 53001=
202302041653 METAR KSEA 041653Z 14009KT 10SM BKN042 BKN050 OVC095 08/05 A3001 RMK AO2 SLP171 T00830050=
202302041553 METAR KSEA 041553Z 15008KT 10SM BKN039 OVC050 07/05 A3001 RMK AO2 SLP170 T00720050=
202302041453 METAR KSEA 041453Z 13006KT 10SM FEW035 OVC050 07/05 A3001 RMK AO2 RAE45 SLP171 P0000 60002 T00720050 58013=
202302041353 METAR KSEA 041353Z 14005KT 10SM -RA FEW048 BKN060 OVC095 07/05 A3003 RMK AO2 SLP176 P0001 T00720050=
202302041253 METAR KSEA 041253Z 16006KT 7SM -RA FEW042 BKN050 OVC065 07/05 A3004 RMK AO2 SLP182 P0001 T00670050=
202302041153 METAR KSEA 041153Z 13007KT 10SM -RA FEW032 SCT050 BKN070 07/05 A3005 RMK AO2 SLP184 P0000 60002 70023 T00670050 10083 20067 58001=
202302041053 METAR KSEA 041053Z 18007KT 9SM -RA BKN038 OVC050 07/05 A3006 RMK AO2 SLP187 P0001 T00670050=
202302040953 METAR KSEA 040953Z 18008KT 9SM -RA FEW028 OVC036 08/04 A3006 RMK AO2 SLP187 P0001 T00780044=
202302040946 SPECI KSEA 040946Z 19009KT 9SM -RA OVC036 08/04 A3006 RMK AO2 P0001 T00780044=
202302040921 SPECI KSEA 040921Z 19009KT 9SM -RA BKN028 OVC038 08/04 A3006 RMK AO2 P0000 T00780044=
202302040853 METAR KSEA 040853Z 18007KT 10SM -RA SCT026 BKN037 OVC048 08/04 A3005 RMK AO2 SLP184 P0000 60000 T00780044 53002=
202302040753 METAR KSEA 040753Z 17007KT 10SM -RA BKN032 OVC039 08/04 A3004 RMK AO2 RAB49 SLP182 P0000 T00780039 401000033=
202302040653 METAR KSEA 040653Z 16010KT 10SM FEW032 SCT050 OVC120 08/04 A3004 RMK AO2 PK WND 17026/0559 RAE08 SLP180 P0000 T00780044=
202302040617 SPECI KSEA 040617Z 17008KT 10SM SCT022 BKN037 OVC130 07/05 A3004 RMK AO2 PK WND 17026/0559 RAE08 P0000 T00720050=
202302040600 SPECI KSEA 040600Z 17018G26KT 7SM -RA FEW013 BKN025 OVC041 07/05 A3004 RMK AO2 PK WND 17026/0559 P0000 T00720050=
202302040553 METAR KSEA 040553Z 19011G19KT 7SM -RA SCT025 OVC036 07/05 A3005 RMK AO2 SLP183 P0004 60019 T00720050 10089 20072 51026=
202302040453 METAR KSEA 040453Z 18011G21KT 6SM -RA BR FEW016 SCT028 OVC038 07/06 A3003 RMK AO2 SLP178 P0009 T00720056=
202302040353 METAR KSEA 040353Z 20009KT 4SM -RA OVC021 08/05 A3002 RMK AO2 RAE0254B20E29B47 SLP174 P0001 T00780050=
202302040300 SPECI KSEA 040300Z 19012G22KT 10SM OVC025 08/04 A2998 RMK AO2 RAE0254 P0000 T00830044=
202302040253 METAR KSEA 040253Z 18015G22KT 10SM -RA SCT027 OVC035 08/04 A2997 RMK AO2 PK WND 20029/0217 SLP157 P0000 60005 T00830044 51023=
202302040233 SPECI KSEA 040233Z 19013G22KT 10SM -RA SCT027 OVC035 08/04 A2996 RMK AO2 PK WND 20029/0217 P0000 T00830044=
202302040153 METAR KSEA 040153Z 20014G24KT 10SM -RA OVC025 08/04 A2996 RMK AO2 PK WND 21028/0135 SLP154 P0003 T00830044=
202302040111 SPECI KSEA 040111Z 20014G22KT 10SM -RA OVC027 08/05 A2994 RMK AO2 P0001 T00830050=
202302040053 METAR KSEA 040053Z 18007KT 10SM -RA SCT029 OVC034 08/05 A2993 RMK AO2 PK WND 17030/2358 SLP144 P0002 T00780050=
202302032353 METAR KSEA 032353Z 19014G39KT 10SM -RA OVC033 09/03 A2990 RMK AO2 PK WND 18039/2350 SLP133 P0001 60002 T00890033 10100 20067 53018=
202302032253 METAR KSEA 032253Z 19020G31KT 10SM -RA OVC038 09/03 A2987 RMK AO2 PK WND 20031/2251 SLP124 P0000 T00940028=
202302032153 METAR KSEA 032153Z 18018G29KT 10SM -RA FEW030 OVC044 10/02 A2985 RMK AO2 PK WND 19033/2139 RAB47 SLP117 P0000 T01000022=
202302032053 METAR KSEA 032053Z 17018G34KT 10SM FEW030 OVC065 10/02 A2985 RMK AO2 PK WND 17040/2034 RAE13 SLP115 P0001 60001 T01000017 50003=
202302031953 METAR KSEA 031953Z 16008KT 10SM -RA BKN055 OVC070 07/M01 A2988 RMK AO2 RAB30 SLP126 P0000 T00671006=
202302031853 METAR KSEA 031853Z 29003KT 10SM BKN070 OVC090 07/M02 A2985 RMK AO2 SLP116 T00671022=
202302031753 METAR KSEA 031753Z 14007KT 10SM FEW120 BKN150 BKN230 06/M02 A2984 RMK AO2 SLP112 ACSL DSNT SE T00611022 10061 20033 50012=
202302031653 METAR KSEA 031653Z 14010KT 10SM SCT120 BKN150 BKN230 05/M01 A2984 RMK AO2 SLP114 T00501011=
202302031553 METAR KSEA 031553Z 20005KT 10SM OVC120 04/00 A2983 RMK AO2 SLP109 T00440000=
202302031453 METAR KSEA 031453Z 08010G16KT 10SM OVC110 04/M01 A2980 RMK AO2 SLP100 T00441006 58016=
202302031353 METAR KSEA 031353Z 22004KT 10SM OVC130 05/01 A2983 RMK AO2 SLP110 T00500006=
202302031253 METAR KSEA 031253Z 00000KT 10SM OVC140 04/M03 A2983 RMK AO2 SLP110 T00441028=
202302031153 METAR KSEA 031153Z 00000KT 10SM OVC190 04/M03 A2985 RMK AO2 SLP116 T00391028 10083 20033 58029=
202302031053 METAR KSEA 031053Z 05007KT 10SM BKN180 06/M03 A2988 RMK AO2 SLP126 T00611033=
202302030953 METAR KSEA 030953Z 00000KT 10SM BKN140 04/M03 A2992 RMK AO2 SLP141 T00441028=
202302030853 METAR KSEA 030853Z 34004KT 10SM BKN170 04/M03 A2994 RMK AO2 SLP146 T00391033 56030=
202302030753 METAR KSEA 030753Z 33005KT 10SM BKN170 05/M03 A2996 RMK AO2 SLP155 T00501028 401060000=
202302030653 METAR KSEA 030653Z 05006KT 10SM BKN150 07/M04 A2999 RMK AO2 SLP164 T00671039=
202302030553 METAR KSEA 030553Z 08008KT 10SM SCT120 08/M05 A3003 RMK AO2 SLP177 T00831050 10100 20072 58017=
202302030453 METAR KSEA 030453Z 12008KT 10SM BKN090 OVC120 07/M03 A3006 RMK AO2 SLP189 T00721033=
202302030353 METAR KSEA 030353Z 12007KT 10SM SCT085 BKN110 OVC200 08/M02 A3008 RMK AO2 SLP196 T00831022=
202302030253 METAR KSEA 030253Z 13007KT 10SM FEW160 SCT250 08/M04 A3008 RMK AO2 SLP195 T00831039 56009=
202302030153 METAR KSEA 030153Z 13006KT 10SM FEW150 SCT250 08/M06 A3008 RMK AO2 SLP196 T00831056=
202302030053 METAR KSEA 030053Z 15005KT 10SM SCT150 BKN250 07/M03 A3010 RMK AO2 SLP202 T00721028=
202302022353 METAR KSEA 022353Z 17003KT 10SM SCT150 BKN250 10/M02 A3011 RMK AO2 SLP204 ACSL DSNT SE T01001017 10106 20050 56011=
202302022253 METAR KSEA 022253Z 22004KT 10SM SCT150 BKN250 10/M02 A3011 RMK AO2 SLP205 ACSL DSNT SE T01001017=
202302022153 METAR KSEA 022153Z 18003KT 10SM SCT140 BKN250 09/M01 A3012 RMK AO2 SLP208 ACSL DSNT SE T00941011=
202302022053 METAR KSEA 022053Z 22003KT 10SM SCT140 BKN250 09/M01 A3014 RMK AO2 SLP215 ACSL DSNT SE T00941011 58004=
202302021953 METAR KSEA 021953Z 13004KT 10SM SCT140 BKN250 08/M02 A3015 RMK AO2 SLP219 ACSL DSNT SE T00831017=
202302021853 METAR KSEA 021853Z 17005KT 10SM FEW140 BKN250 06/M03 A3017 RMK AO2 SLP224 ACSL DSNT SE T00611028=
202302021753 METAR KSEA 021753Z 16006KT 10SM SCT140 BKN250 06/M05 A3015 RMK AO2 SLP220 ACSL DSNT SE T00561050 10056 20000 52006=
202302021653 METAR KSEA 021653Z 16005KT 10SM SCT140 BKN250 03/M05 A3015 RMK AO2 SLP219 ACSL DSNT SE T00281050=
202302021553 METAR KSEA 021553Z 16006KT 10SM SCT140 BKN250 01/M06 A3014 RMK AO2 SLP215 ACSL DSNT SE T00111061=
202302021453 METAR KSEA 021453Z 13007KT 10SM FEW140 SCT220 02/M05 A3014 RMK AO2 SLP214 ACSL DSNT SE T00171050 50003=
202302021353 METAR KSEA 021353Z 13011KT 10SM SCT220 01/M04 A3014 RMK AO2 SLP217 T00111039=
202302021253 METAR KSEA 021253Z 14005KT 10SM SCT220 01/M03 A3013 RMK AO2 SLP213 T00061028=
202302021153 METAR KSEA 021153Z 16003KT 10SM SCT220 01/M06 A3012 RMK AO2 SLP210 T00111056 10050 20006 56002=
202302021053 METAR KSEA 021053Z 15003KT 10SM BKN220 02/M06 A3013 RMK AO2 SLP211 T00171056=
202302020953 METAR KSEA 020953Z 14006KT 10SM BKN220 02/M06 A3013 RMK AO2 SLP211 T00221056=
202302020853 METAR KSEA 020853Z 13004KT 10SM SCT220 02/M06 A3013 RMK AO2 SLP212 T00171056 50003=
202302020753 METAR KSEA 020753Z 16003KT 10SM BKN220 03/M05 A3013 RMK AO2 SLP214 T00281050 400830000=
202302020653 METAR KSEA 020653Z 15004KT 10SM BKN200 04/M06 A3013 RMK AO2 SLP213 T00391061=
202302020553 METAR KSEA 020553Z 14004KT 10SM BKN200 04/M05 A3012 RMK AO2 SLP209 T00441050 10083 20039 53000=
202302020453 METAR KSEA 020453Z 00000KT 10SM BKN200 06/M04 A3012 RMK AO2 SLP209 T00611044=
202302020353 METAR KSEA 020353Z 00000KT 10SM FEW150 BKN250 06/M04 A3012 RMK AO2 SLP208 T00561044=
202302020253 METAR KSEA 020253Z 00000KT 10SM FEW150 BKN250 06/M05 A3012 RMK AO2 SLP209 T00611050 56002=
202302020153 METAR KSEA 020153Z 00000KT 10SM SCT150 BKN250 06/M04 A3012 RMK AO2 SLP209 T00611044=
202302020053 METAR KSEA 020053Z 00000KT 10SM SCT150 BKN250 08/M04 A3012 RMK AO2 SLP209 T00781044=
202302012353 METAR KSEA 012353Z 24004KT 10SM SCT160 BKN250 08/M05 A3013 RMK AO2 SLP211 T00781050 10083 20033 55002=
202302012253 METAR KSEA 012253Z 15003KT 10SM BKN160 BKN250 08/M03 A3012 RMK AO2 SLP209 ACSL DSNT SE T00781028=
202302012153 METAR KSEA 012153Z 00000KT 10SM BKN160 BKN250 07/M03 A3013 RMK AO2 SLP213 ACSL DSNT SE T00671028=
202302012053 METAR KSEA 012053Z 18006KT 10SM SCT160 BKN250 08/M03 A3013 RMK AO2 SLP213 ACSL DSNT SE T00781033 58005=
202302011953 METAR KSEA 011953Z VRB03KT 10SM FEW140 BKN250 07/M03 A3014 RMK AO2 SLP217 T00671028=
202302011853 METAR KSEA 011853Z 17004KT 10SM FEW140 BKN250 05/M04 A3015 RMK AO2 SLP220 ACSL DSNT SE T00501044=
202302011753 METAR KSEA 011753Z 15006KT 10SM FEW140 BKN250 03/M04 A3015 RMK AO2 SLP219 ACSL DSNT SE T00331044 10033 20000 50004=
202302011653 METAR KSEA 011653Z 14007KT 10SM FEW140 OVC250 02/M04 A3015 RMK AO2 SLP219 ACSL DSNT SE T00221044=
202302011553 METAR KSEA 011553Z 14004KT 10SM SCT140 BKN250 01/M05 A3015 RMK AO2 SLP220 ACSL DSNT SE T00061050=
202302011453 METAR KSEA 011453Z 14006KT 10SM SCT130 BKN190 01/M05 A3014 RMK AO2 SLP216 T00111050 56004=
202302011353 METAR KSEA 011353Z 14006KT 10SM BKN130 01/M04 A3014 RMK AO2 SLP217 T00111044=
202302011253 METAR KSEA 011253Z 14007KT 10SM OVC140 01/M04 A3015 RMK AO2 SLP218 T00111044=
202302011153 METAR KSEA 011153Z 12005KT 10SM OVC140 01/M04 A3015 RMK AO2 SLP220 T00111044 10033 20006 58002=
202302011053 METAR KSEA 011053Z 14003KT 10SM FEW037 OVC150 02/M04 A3016 RMK AO2 SLP223 T00171044=
202302010953 METAR KSEA 010953Z 14004KT 10SM OVC150 02/M04 A3016 RMK AO2 SLP222 T00171039=
202302010853 METAR KSEA 010853Z 14004KT 10SM OVC130 02/M04 A3016 RMK AO2 SLP222 T00221039 50001=
202302010753 METAR KSEA 010753Z 12005KT 10SM BKN130 02/M04 A3016 RMK AO2 SLP224 T00221039 400501006=
202302010653 METAR KSEA 010653Z 14003KT 10SM OVC140 03/M04 A3016 RMK AO2 SLP222 T00281039=
202302010553 METAR KSEA 010553Z 15004KT 10SM OVC100 03/M04 A3016 RMK AO2 SLP222 T00331039 10044 20028 55001=
202302010453 METAR KSEA 010453Z 15003KT 10SM SCT120 OVC200 03/M04 A3015 RMK AO2 SLP221 T00331039=
202302010353 METAR KSEA 010353Z 00000KT 10SM BKN090 OVC110 03/M03 A3016 RMK AO2 SLP223 T00331028=
202302010253 METAR KSEA 010253Z 18003KT 10SM BKN110 OVC250 03/M03 A3016 RMK AO2 SLP224 T00281028 56010=
202302010153 METAR KSEA 010153Z 00000KT 10SM SCT120 BKN250 03/M04 A3017 RMK AO2 SLP226 T00281039=
202302010053 METAR KSEA 010053Z 00000KT 10SM BKN120 OVC200 04/M03 A3018 RMK AO2 SLP230 T00391028=

# No short TAF reports from KSEA in databse.

###################################
#  large TAF from KSEA
###################################
202302282340 KSEA 282340Z 0100/0206 35007KT P6SM VCSH BKN040 BKN120
                      TEMPO 0100/0102 02012KT 5SM -SHRA SCT020
                       BKN030 FM010300 03004KT P6SM BKN050 FM011100
                       12005KT P6SM BKN025 OVC050 FM011800 19007KT
                       P6SM BKN060 FM020300 21011KT P6SM OVC050=
202302282320 TAF KSEA 282320Z 0100/0206 35006KT P6SM VCSH BKN040 BKN120
                      TEMPO 0100/0102 5SM -SHRA SCT020 BKN030 FM010300
                       03004KT P6SM BKN050 FM011100 12005KT P6SM
                       BKN025 OVC050 FM011800 19007KT P6SM BKN060
                       FM020300 21011KT P6SM OVC050=
202302282059 KSEA 282059Z 2821/0124 25008KT P6SM VCSH SCT030 BKN040 FM282300
                       35008KT P6SM VCSH BKN050 BKN120
                      TEMPO 2823/0102 5SM -SHRA SCT025 BKN030 FM010400
                       03004KT P6SM SCT120 SCT200 FM011200 13005KT
                       P6SM BKN020 OVC050 FM011800 19007KT P6SM
                       BKN060=
202302281721 TAF KSEA 281721Z 2818/0124 19012G18KT P6SM VCSH SCT020 BKN025 OVC030
                       FM282000 23005KT P6SM VCSH SCT025 BKN040
                       FM282300 27006KT P6SM VCSH BKN050 BKN120
                       TEMPO 2823/0102 35008KT 5SM -SHRA BKN030
                       FM010300 03004KT P6SM SCT120 SCT200 FM011200
                       13005KT P6SM BKN020 OVC050 FM011800 19007KT
                       P6SM BKN060=
202302281549 KSEA 281549Z 2816/0118 19012G18KT P6SM VCSH BKN020 OVC030 FM282000
                       23004KT P6SM VCSH BKN040 FM282300 27004KT
                       P6SM BKN070 BKN120 FM010500 03004KT P6SM
                       SCT120 SCT200=
202302281256 KSEA 281256Z 2813/0118 18010G18KT 6SM -RASN BR BKN014 OVC025 FM281600
                       18008KT P6SM VCSH BKN027 BKN040 FM282000
                       23004KT P6SM VCSH BKN040 FM282300 27004KT
                       P6SM BKN070 BKN120 FM010500 03004KT P6SM
                       SCT120 SCT200=
202302281136 TAF KSEA 281136Z 2812/0118 16010KT 5SM -RASN BR BKN014 OVC025 FM281600
                       21005KT P6SM VCSH BKN027 BKN040 FM282000
                       23004KT P6SM VCSH BKN040 FM282300 27004KT
                       P6SM BKN070 BKN120 FM010500 03004KT P6SM
                       SCT120 SCT200=
202302280744 KSEA 280744Z 2808/0112 16008KT P6SM VCSH SCT015 BKN030
                      TEMPO 2808/2812 5SM -RASN BKN012 OVC020 FM281200
                       18006KT 5SM -RASN BR OVC020 FM281600 21005KT
                       P6SM VCSH BKN030 BKN050 FM282300 27004KT
                       P6SM BKN100 FM010200 01004KT P6SM BKN050=
202302280540 TAF KSEA 280540Z 2806/0112 10006KT P6SM VCSH BKN040 FM280900 18006KT
                       4SM -SN BR OVC020 FM281600 21005KT P6SM
                       OVC040 FM282300 27004KT P6SM BKN100 FM010200
                       01004KT P6SM BKN050=
202302280309 KSEA 280309Z 2803/0106 10006KT P6SM OVC040 FM280900 18006KT 6SM
                       -SN BR OVC020 FM281600 21005KT P6SM OVC035
                       FM282300 27004KT P6SM BKN100=
202302272323 TAF KSEA 272323Z 2800/0106 14006KT P6SM -SHRA OVC040 FM280200 10006KT
                       P6SM OVC040 FM280900 18006KT 6SM -SN BR
                       OVC020 FM281600 21005KT P6SM OVC030=
202302272100 KSEA 272100Z 2721/2824 18008KT P6SM -SHRA OVC035 FM280200 10006KT
                       P6SM OVC040 FM280900 16006KT 6SM -SN BR
                       OVC025 FM281400 20008KT P6SM OVC030=
202302271842 KSEA 271842Z 2719/2824 08007KT P6SM SCT030 OVC050
                      TEMPO 2719/2723 -RASN OVC030 FM280200 10006KT
                       P6SM OVC050 FM280900 16006KT 6SM -SN BR
                       OVC025 FM281400 20008KT P6SM OVC030=
202302271734 TAF KSEA 271734Z 2718/2824 08006KT 5SM -SN OVC025 FM272200 08007KT
                       6SM -SHRASN OVC030 FM280200 10006KT P6SM
                       OVC050 FM280900 16006KT 6SM -SN BR OVC025
                       FM281400 20008KT P6SM OVC030=
202302271403 KSEA 271403Z 2714/2818 08007KT P6SM OVC035 FM271600 08006KT 4SM
                       -SN OVC025 FM272200 08007KT 6SM -SHRASN
                       OVC030 FM280200 10006KT P6SM OVC050 FM280900
                       14006KT 6SM -SN BR OVC025=
202302271318 KSEA 271318Z 2713/2818 07006KT P6SM BKN045 FM271400 06005KT P6SM
                       OVC035 FM271700 08006KT 4SM -SN OVC025 FM272200
                       08007KT 6SM -SHRASN OVC030 FM280200 10006KT
                       P6SM OVC050 FM280900 14006KT 6SM -SN BR
                       OVC025=
202302271140 TAF KSEA 271140Z 2712/2818 13004KT P6SM BKN045 FM271400 10005KT
                       P6SM OVC035 FM271700 08006KT 4SM -SN OVC025
                       FM272200 08007KT 6SM -SHRASN OVC030 FM280200
                       10006KT P6SM OVC050 FM280900 14006KT 6SM
                       -SN BR OVC025=
202302270852 KSEA 270852Z 2709/2812 16006KT P6SM SCT013 BKN030 OVC040 FM271400
                       09005KT P6SM OVC035 FM271700 06006KT 4SM
                       -SN OVC025 FM280000 10007KT 6SM -SHRASN
                       OVC035 FM280200 07006KT P6SM OVC050=
202302270548 TAF KSEA 270548Z 2706/2812 18006KT P6SM -SHRA SCT030 BKN050 FM270900
                       17005KT P6SM OVC045 FM271400 09005KT P6SM
                       OVC050 FM271700 06006KT 4SM -SN OVC025 FM272200
                       10007KT 6SM -SHRASN OVC035 FM280100 07006KT
                       P6SM OVC050=
202302270255 KSEA 270255Z 2703/2806 22009KT P6SM -SHRA FEW020 BKN050 FM270600
                       17006KT P6SM -SHRA OVC050 FM271200 08005KT
                       P6SM VCSH OVC035 FM271700 06006KT P6SM -RASN
                       OVC025 FM272200 10007KT P6SM -SHRASN OVC035=
202302262327 TAF KSEA 262327Z 2700/2806 25015G22KT P6SM VCSH SCT040 BKN120 FM270200
                       22009KT P6SM -SHRA OVC050 FM270600 17006KT
                       P6SM -SHRA OVC050 FM271200 08005KT P6SM
                       VCSH OVC035 FM271700 06006KT P6SM -RASN
                       OVC025 FM272200 10007KT P6SM -SHRASN OVC035=
202302262057 KSEA 262057Z 2621/2724 25015G22KT P6SM VCSH SCT040 BKN120 FM270200
                       22009KT P6SM -SHRA OVC050 FM270600 17006KT
                       P6SM -SHRA OVC050 FM271200 08005KT P6SM
                       VCSH OVC035 FM271700 06006KT P6SM -RASN
                       OVC025=
202302261758 KSEA 261758Z 2618/2724 22009KT P6SM SCT025 BKN100 FM262000 22012G20KT
                       P6SM VCSH BKN040 BKN100 FM270200 22009KT
                       P6SM -SHRA OVC050 FM270600 17006KT P6SM
                       -SHRA OVC050 FM271200 08005KT P6SM VCSH
                       OVC035 FM271700 06006KT P6SM -RASN OVC025=
202302261727 TAF KSEA 261727Z 2618/2724 22014G22KT P6SM BKN015 OVC020 FM262000
                       22012G20KT P6SM VCSH OVC035 FM270200 22009KT
                       P6SM -SHRA OVC050 FM270600 17006KT P6SM
                       -SHRA OVC050 FM271200 08005KT P6SM VCSH
                       OVC035 FM271700 06006KT P6SM -RASN OVC025=
202302261426 KSEA 261426Z 2614/2718 15006KT P6SM VCSH FEW006 BKN010 OVC020
                      TEMPO 2614/2616 17011G20KT 4SM -SHSN BR OVC008
                       FM261600 22014G22KT 6SM BR VCSH OVC020 FM262000
                       22012G20KT P6SM VCSH OVC035 FM270200 22009KT
                       P6SM OVC050 FM270600 17006KT P6SM OVC025=
202302261309 KSEA 261309Z 2613/2718 15006KT P6SM VCSH FEW005 BKN013 OVC020
                      TEMPO 2613/2616 17011G20KT 4SM -SHSN BR OVC008
                       FM261600 22014G22KT 6SM BR VCSH OVC020 FM262000
                       22012G20KT P6SM VCSH OVC035 FM270200 22009KT
                       P6SM OVC050 FM270600 17006KT P6SM OVC025=
202302261139 TAF KSEA 261139Z 2612/2718 15006KT 3/4SM -SN BR BKN004 OVC007 FM261400
                       17011G20KT 4SM -SHSN BR OVC009 FM261600
                       22014G22KT 6SM BR VCSH OVC020 FM262000 22012G20KT
                       P6SM VCSH OVC035 FM270200 22009KT P6SM OVC050
                       FM270600 17006KT P6SM OVC025=
202302260951 KSEA 260951Z 2610/2712 13010KT 2SM -SN BR FEW008 OVC015
                      TEMPO 2610/2612 13010G20KT 3/4SM -SN BR BKN004
                       OVC010 FM261200 17010KT 4SM -SHSN OVC015
                       FM261600 22014G22KT P6SM VCSH OVC025 FM270200
                       22009KT P6SM OVC050=
202302260744 KSEA 260744Z 2608/2712 22012G26KT 2SM -SN BR FEW008 OVC015 FM261200
                       17010KT P6SM -SHSN OVC025 FM261600 22014G22KT
                       P6SM VCSH OVC035 FM270200 22009KT P6SM OVC050=
202302260548 TAF KSEA 260548Z 2606/2712 23008KT P6SM OVC080 FM260800 17008KT
                       5SM -RASN OVC050 FM260900 17010G20KT 2SM
                       -SN OVC025 FM261200 17010KT P6SM -SHRASN
                       OVC035 FM261600 22014G22KT P6SM VCSH OVC050
                       FM270200 22009KT P6SM OVC050=
202302260301 KSEA 260301Z 2603/2706 19005KT P6SM OVC070 FM260600 16006KT 6SM
                       -RASN OVC035 FM260700 17010G20KT 3SM -SN
                       OVC020 FM261000 18011KT 2SM -SN OVC020 FM261600
                       17010G22KT P6SM -SHRASN OVC035 FM262000
                       22014G22KT P6SM -SHRA OVC050=
202302252320 TAF KSEA 252320Z 2600/2706 19005KT P6SM OVC070 FM260300 16006KT
                       6SM -RASN OVC035 FM260700 17012G20KT 3SM
                       -RASN OVC020 FM261000 18011KT 5SM -RASN
                       OVC020 FM261500 17010G22KT P6SM -SHRASN
                       OVC035 FM262000 22014G22KT P6SM -SHRA OVC050=
202302252102 KSEA 252102Z 2521/2624 22005KT P6SM SCT120 BKN200 FM252200 19005KT
                       P6SM OVC070 FM260300 16006KT 6SM -RASN OVC035
                       FM260700 17012G20KT 5SM -RASN OVC020 FM261500
                       17010G22KT P6SM -SHRASN OVC035 FM261800
                       22014G22KT P6SM -SHRA OVC050=
202302251722 TAF KSEA 251722Z 2518/2624 00000KT P6SM BKN200 FM252200 19005KT
                       P6SM OVC060 FM260300 16006KT 6SM -RASN OVC035
                       FM260700 17012G20KT 5SM -RASN OVC020 FM261500
                       17010G22KT P6SM -SHRASN OVC035 FM261800
                       22014G22KT P6SM -SHRA OVC050=
202302251357 KSEA 251357Z 2514/2618 15005KT P6SM SCT200 FM252200 19005KT P6SM
                       OVC060 FM260300 16006KT 6SM -RASN OVC035
                       FM260700 17012G20KT 5SM -RASN OVC020 FM261500
                       17010G22KT P6SM -SHRASN OVC035=
202302251132 TAF KSEA 251132Z 2512/2618 06006KT P6SM SCT200 FM251300 13006KT
                       P6SM BKN100 FM252200 19005KT P6SM OVC060
                       FM260300 16006KT 6SM -RASN OVC035 FM260700
                       17012KT 5SM -RASN OVC025 FM261500 17010KT
                       P6SM -SHRASN OVC035=
202302250907 KSEA 250907Z 2509/2612 01007KT P6SM SCT200 FM251300 13006KT P6SM
                       BKN100 FM252200 19005KT P6SM OVC100 FM260300
                       16006KT 6SM -RASN OVC035=
202302250528 TAF KSEA 250528Z 2506/2612 01005KT P6SM SCT120 FM251300 13006KT
                       P6SM BKN100 FM252200 19005KT P6SM OVC100
                       FM260300 16006KT 6SM -RASN OVC035=
202302250301 KSEA 250301Z 2503/2606 01005KT P6SM SCT200 FM251300 13006KT P6SM
                       BKN200 FM251700 15004KT P6SM BKN120 FM252200
                       19005KT P6SM OVC100=
202302242320 TAF KSEA 242320Z 2500/2606 35009KT P6SM FEW250 FM250300 01004KT
                       P6SM SCT250 FM251300 13006KT P6SM BKN200
                       FM251700 15004KT P6SM BKN120 FM252200 19005KT
                       P6SM OVC100=
202302242056 KSEA 242056Z 2421/2524 02008KT P6SM SKC FM250300 01004KT P6SM SCT250
                       FM251300 13006KT P6SM BKN200 FM251700 15004KT
                       P6SM BKN120=
202302241720 TAF KSEA 241720Z 2418/2524 03008KT P6SM SKC FM250300 01004KT P6SM
                       SCT250 FM251300 13006KT P6SM BKN200 FM251700
                       15004KT P6SM BKN120=
202302241451 KSEA 241451Z 2415/2518 03008KT P6SM SKC FM250300 36004KT P6SM SCT250
                       FM251300 13006KT P6SM BKN200=
202302241130 TAF KSEA 241130Z 2412/2518 05008KT P6SM SKC FM250300 36004KT P6SM
                       SCT250 FM251300 13006KT P6SM BKN200=
202302240923 KSEA 240923Z 2409/2512 05008KT P6SM SKC FM250300 36004KT P6SM SCT250=
202302240536 TAF KSEA 240536Z 2406/2512 09015G25KT P6SM SKC FM240800 03012KT
                       P6SM SCT200 FM241300 05011KT P6SM SKC FM241800
                       03009KT P6SM SKC FM250300 36004KT P6SM SCT250=
202302240252 KSEA 240252Z 2403/2506 10013KT P6SM FEW030 FEW080 SCT250 FM240800
                       03012KT P6SM SCT200 FM241300 05011KT P6SM
                       SKC FM241800 03009KT P6SM SKC=
202302232320 TAF KSEA 232320Z 2400/2506 09016G25KT P6SM SCT250 FM240300 03016G23KT
                       P6SM SCT200 FM240800 03012KT P6SM SCT200
                       FM241300 05011KT P6SM SKC FM241800 03009KT
                       P6SM SKC=
202302232057 KSEA 232057Z 2321/2424 10016G25KT P6SM FEW030 BKN200 FM240300 03012G20KT
                       P6SM SCT200 FM240800 03012KT P6SM SCT200
                       FM241300 05011KT P6SM SKC=
202302231725 KSEA 231725Z 2318/2424 10012G22KT P6SM SCT040 BKN080 FM231900 05012G20KT
                       P6SM SCT040 OVC070 FM240300 03012G20KT P6SM
                       SCT200 FM240800 03012KT P6SM SCT200 FM241300
                       05011KT P6SM SKC=
202302231724 TAF KSEA 231724Z 2318/2424 07012G22KT P6SM SCT040 BKN080 FM231900
                       05012G20KT P6SM SCT040 OVC070 FM240300 03012G20KT
                       P6SM SCT200 FM240800 03012KT P6SM SCT200
                       FM241300 05011KT P6SM SKC=
202302231419 KSEA 231419Z 2314/2418 07012G22KT P6SM SCT020 OVC040 FM231900 05012G20KT
                       P6SM SCT040 OVC070 FM240300 03012G20KT P6SM
                       SCT200 FM240800 03012KT P6SM SCT200=
202302231133 TAF KSEA 231133Z 2312/2418 10014G24KT P6SM SCT012 OVC022
                      TEMPO 2312/2314 6SM -SN FM231500 07012G22KT
                       P6SM SCT020 OVC040 FM231900 05012G20KT P6SM
                       SCT040 OVC070 FM240300 03012G20KT P6SM SCT200
                       FM240800 03012KT P6SM SCT200=
202302230934 KSEA 230934Z 2310/2412 11014G24KT 3SM -SN OVC015 FM231200 11014G24KT
                       P6SM SCT015 OVC025 FM231500 07012G22KT P6SM
                       SCT020 OVC035 FM232100 03013G20KT P6SM SCT120
                       BKN200 FM240300 04013G20KT P6SM SCT200 FM240800
                       02008KT P6SM SCT200=
202302230520 TAF KSEA 230520Z 2306/2412 09012G18KT P6SM VCSH BKN050 FM231000
                       07012G18KT P6SM BKN080 FM231900 03013G20KT
                       P6SM SCT120 BKN200 FM240300 04013G20KT P6SM
                       SCT200 FM240800 02008KT P6SM SCT200=
202302230307 KSEA 230307Z 2303/2406 09010KT P6SM -SHSN OVC050 FM230600 09012G18KT
                       P6SM BKN040 FM231200 07012G18KT P6SM BKN080
                       FM231900 03013G20KT P6SM SCT120 BKN200 FM240300
                       04013G20KT P6SM SCT200=
202302222332 TAF KSEA 222332Z 2300/2406 02014KT P6SM SCT020 BKN060 FM230200
                       03012G18KT P6SM VCSH SCT017 BKN040 FM230600
                       09012G18KT P6SM BKN040 FM231200 07012G18KT
                       P6SM BKN080 FM231900 03013G20KT P6SM SCT120
                       BKN200 FM240300 04013G20KT P6SM SCT200=
202302222106 KSEA 222106Z 2221/2324 02014KT P6SM SCT025 BKN050 FM222300 02012KT
                       P6SM SCT035 BKN050 FM230600 09012G18KT P6SM
                       BKN060 FM231200 07012G18KT P6SM BKN100=
202302221721 TAF KSEA 221721Z 2218/2324 36014KT P6SM SCT012 BKN020 OVC040 FM221900
                       02012KT P6SM SCT025 OVC040 FM222300 02012KT
                       P6SM SCT035 BKN050 FM230600 09012G18KT P6SM
                       BKN060 FM231200 07012G18KT P6SM BKN100=
202302221536 KSEA 221536Z 2216/2318 35012KT P6SM -SN SCT004 BKN015 OVC025
                      TEMPO 2216/2219 2SM -SN BKN005 OVC012 FM222000
                       02012KT P6SM SCT025 OVC045 FM222300 02012KT
                       P6SM SCT035 BKN050 FM230600 09012G18KT P6SM
                       BKN100=
202302221317 KSEA 221317Z 2213/2318 35010KT P6SM -RA BKN004 BKN025 OVC040 FM221600
                       02012KT P6SM SCT006 BKN025 OVC040 FM222000
                       02012KT P6SM SCT025 OVC045 FM222300 02012KT
                       P6SM SCT035 BKN050 FM230600 09012G18KT P6SM
                       BKN100=
202302221139 TAF KSEA 221139Z 2212/2318 VRB03KT P6SM BKN020 OVC045 FM221800
                       02008KT P6SM SCT025 OVC045 FM222300 02012KT
                       P6SM SCT035 BKN050 FM230600 09012G18KT P6SM
                       BKN100=
202302220914 KSEA 220914Z 2209/2312 15006KT P6SM SCT020 BKN040 FM221500 04007KT
                       P6SM VCSH SCT025 BKN035 FM221900 02012G22KT
                       P6SM SCT035 BKN050=
202302220526 TAF KSEA 220526Z 2206/2312 15006KT P6SM VCSH SCT015 BKN030 OVC035
                       TEMPO 2206/2210 5SM -SHRA BR BKN015 FM221100
                       04007KT P6SM VCSH SCT025 BKN035 FM221900
                       02012G22KT P6SM SCT035 BKN050 FM230000 04009KT
                       P6SM BKN070=
202302220309 KSEA 220309Z 2203/2306 15006KT 6SM BR VCSH BKN020 OVC035
                      TEMPO 2205/2209 2SM -SHRA BR BKN010 FM221000
                       04008KT P6SM VCSH SCT025 OVC040 FM221800
                       04014KT P6SM BKN035 FM230000 02013G20KT
                       P6SM BKN050=
202302220104 KSEA 220104Z 2201/2306 18008KT P6SM VCSH BKN025 OVC040 FM220300
                       14006KT 6SM -SHRA BR BKN020 OVC035
                      TEMPO 2205/2209 2SM -SHRA BR BKN010 FM221000
                       04008KT P6SM SCT025 OVC040 FM221800 04014KT
                       P6SM BKN035 FM230000 02013G20KT P6SM BKN050=
202302212322 TAF KSEA 212322Z 2200/2306 18006KT P6SM VCSH SCT025 BKN040 FM220300
                       14006KT P6SM -SHRA SCT020 OVC035 FM221000
                       04008KT P6SM SCT025 OVC040 FM221800 04014KT
                       P6SM BKN035 FM230000 02013G20KT P6SM BKN050=
202302212003 KSEA 212003Z 2120/2224 21012KT P6SM BKN025 BKN040 FM220300 14008KT
                       P6SM -SHRA SCT020 OVC035 FM220800 04008KT
                       P6SM SCT025 OVC040 FM221500 04014KT P6SM
                       BKN035 FM222000 02013G20KT P6SM BKN050=
202302211731 TAF KSEA 211731Z 2118/2224 21012KT P6SM BKN020 FM212000 21012KT
                       P6SM SCT020 BKN040 FM220300 14008KT P6SM
                       -SHRA SCT020 OVC035 FM220800 04008KT P6SM
                       SCT025 OVC040 FM221500 04014KT P6SM BKN035
                       FM222000 02013G20KT P6SM BKN050=
202302211409 KSEA 211409Z 2114/2218 21012KT P6SM BKN020 FM212000 21012KT P6SM
                       SCT020 BKN040 FM220300 14008KT P6SM -SHRA
                       SCT020 OVC035 FM220800 04008KT P6SM SCT025
                       OVC040 FM221500 04014KT P6SM BKN100=
202302211143 TAF KSEA 211143Z 2112/2218 23014G24KT P6SM BKN020 FM211500 21012KT
                       P6SM BKN020 FM212000 21012KT P6SM SCT020
                       BKN040 FM220300 14008KT P6SM -SHRA SCT020
                       OVC035 FM220800 04008KT P6SM SCT025 OVC040
                       FM221500 04014KT P6SM BKN100=
202302210915 KSEA 210915Z 2109/2212 23016G28KT P6SM SCT020 FM211600 21014G24KT
                       P6SM SCT020 BKN040 FM212100 21012KT P6SM
                       -SHRA SCT020 OVC040 FM220000 24008KT P6SM
                       -RA OVC015=
202302210634 KSEA 210634Z 2107/2212 23017G27KT P6SM VCSH SCT025 FM210800 23025G34KT
                       P6SM VCSH SCT020 OVC035 FM211300 21018G28KT
                       P6SM VCSH SCT022 BKN045 FM211800 22015G22KT
                       P6SM -SHRA BKN035 OVC050 FM212100 23010KT
                       P6SM -SHRA OVC035 FM220000 24008KT P6SM
                       -RA OVC015=
202302210523 TAF KSEA 210523Z 2106/2212 23017G27KT P6SM VCSH FEW008 BKN015 OVC025
                       FM210800 23025G34KT P6SM VCSH SCT020 OVC035
                       FM211300 21018G28KT P6SM VCSH SCT022 BKN045
                       FM211800 22015G22KT P6SM -SHRA BKN035 OVC050
                       FM212100 23010KT P6SM -SHRA OVC035 FM220000
                       24008KT P6SM -RA OVC015=
202302210357 KSEA 210357Z 2104/2206 22025G35KT 3SM -SHRA SCT007 OVC025 FM210500
                       23028G34KT P6SM VCSH SCT020 OVC030 FM210800
                       23025G40KT P6SM VCSH SCT020 OVC035 FM211300
                       21018G28KT P6SM VCSH SCT022 BKN045 FM211800
                       22015G22KT P6SM -SHRA BKN035 OVC050 FM212100
                       23010KT P6SM -SHRA BKN027=
202302210300 KSEA 210300Z 2103/2206 20020G30KT P6SM VCSH BKN015 OVC035
                      TEMPO 2103/2104 3SM -RA BR BKN004 OVC010
                       FM210400 22025G35KT P6SM -SHRA SCT017 OVC025
                       FM210800 23025G40KT P6SM VCSH SCT020 OVC035
                       FM211300 21018G28KT P6SM VCSH SCT022 BKN045
                       FM211800 22015G22KT P6SM -SHRA BKN035 OVC050
                       FM212100 23010KT P6SM -SHRA BKN027=
202302210255 KSEA 210255Z 2103/2206 20020G30KT P6SM VCSH BKN015 OVC035
                      TEMPO 2103/2104 3SM BR BKN005 OVC010 FM210400
                       22025G35KT P6SM -SHRA SCT017 OVC025 FM210800
                       23025G40KT P6SM VCSH SCT020 OVC035 FM211300
                       21018G28KT P6SM VCSH SCT022 BKN045 FM211800
                       22015G22KT P6SM -SHRA BKN035 OVC050 FM212100
                       23010KT P6SM -SHRA BKN027=
202302202334 TAF KSEA 202334Z 2100/2206 20020G30KT P6SM VCSH BKN015 OVC035
                      TEMPO 2100/2104 SCT015 BKN040 FM210400 22025G35KT
                       P6SM -SHRA SCT017 OVC025 FM210800 23025G40KT
                       P6SM VCSH SCT020 OVC035 FM211300 21018G28KT
                       P6SM VCSH SCT022 BKN045 FM211800 22015G22KT
                       P6SM -SHRA BKN035 OVC050 FM212100 23010KT
                       P6SM -SHRA BKN027=
202302202004 KSEA 202004Z 2020/2124 20015G25KT P6SM -RA OVC015 FM210500 22025G38KT
                       P6SM -SHRA BKN017 OVC025 FM210800 23025G40KT
                       P6SM VCSH SCT020 OVC050 FM211300 21020G28KT
                       P6SM VCSH SCT022 BKN045 FM211800 22015G22KT
                       P6SM -SHRA BKN030 OVC045=
202302201735 TAF KSEA 201735Z 2018/2124 20013G22KT 5SM -RA BR BKN008 OVC012
                       FM210500 22025G38KT P6SM -SHRA BKN012 OVC020
                       FM210800 23025G40KT P6SM VCSH SCT020 OVC050
                       FM211300 21020G28KT P6SM VCSH SCT022 BKN045
                       FM211800 22015G22KT P6SM -SHRA BKN030 OVC045=
202302201402 KSEA 201402Z 2014/2118 19012KT P6SM -RA OVC015 FM201700 20012G20KT
                       5SM -RA BR BKN008 OVC012 FM210500 22025G38KT
                       P6SM -SHRA BKN012 OVC020 FM210800 23025G38KT
                       P6SM SCT020 OVC050 FM211300 21018G28KT P6SM
                       SCT025 BKN050=
202302201122 TAF KSEA 201122Z 2012/2118 20012KT P6SM -RA OVC015 FM201700 20012G20KT
                       5SM -RA BR BKN008 OVC012 FM210400 22024G32KT
                       P6SM -SHRA BKN012 OVC020 FM210800 23024G34KT
                       P6SM SCT020 OVC050 FM211300 21018G28KT P6SM
                       SCT025 BKN050=
202302200856 KSEA 200856Z 2009/2112 19012KT P6SM -RA BKN015 BKN025 OVC060 FM201700
                       20021G28KT 5SM -RA BR BKN008 OVC012 FM210300
                       22024G32KT 5SM BR BKN012 OVC020=
202302200540 TAF KSEA 200540Z 2006/2112 20012KT P6SM OVC018 FM200900 21012G23KT
                       6SM -RA BR OVC012 FM201700 20021G28KT 5SM
                       -RA BR BKN008 OVC012 FM210300 22024G32KT
                       5SM BR BKN012 OVC020=
202302200253 KSEA 200253Z 2003/2106 21012G22KT 6SM -DZ BR BKN015 OVC025 FM200900
                       21012G23KT 6SM -RA BR OVC011 FM201800 21021G30KT
                       5SM -RA BR BKN008 OVC012 FM210300 21011G21KT
                       5SM BR BKN012 OVC020=
202302192331 TAF KSEA 192331Z 2000/2106 19011KT 6SM -DZ BR FEW007 OVC015 FM200900
                       21012KT 6SM -RA BR OVC011 FM201800 21021G30KT
                       5SM -RA BR BKN008 OVC012 FM210300 21011G21KT
                       5SM BR BKN012 OVC020=
202302192057 KSEA 192057Z 1921/2024 19011KT P6SM FEW007 OVC012 FM200600 21012KT
                       6SM -RA BR OVC011 FM201800 21012G18KT 5SM
                       -RA BR BKN008 OVC012=
202302191720 TAF KSEA 191720Z 1918/2024 19008KT 6SM BR FEW007 OVC012 FM200600
                       21012KT 6SM -RA BR OVC011 FM201800 21012G18KT
                       5SM -RA BR BKN008 OVC012=
202302191359 KSEA 191359Z 1914/2018 16007KT P6SM BKN006 OVC010 FM191800 19008KT
                       P6SM BKN015 OVC025 FM200600 21012KT 6SM
                       -RA BR OVC011=
202302191120 TAF KSEA 191120Z 1912/2018 16007KT 4SM BR FEW005 BKN018 OVC030
                       TEMPO 1912/1916 2SM -RA BR BKN005 OVC018
                       FM200600 21012KT 6SM -RA BR OVC011=
202302190901 KSEA 190901Z 1909/2012 00000KT P6SM FEW015 BKN035 OVC050 FM191100
                       17005KT 6SM BR BKN015 OVC020 FM191600 19009KT
                       5SM BR BKN010 OVC015 FM200600 21014KT 6SM
                       -RA BR OVC011=
202302190543 TAF KSEA 190543Z 1906/2012 VRB04KT P6SM FEW015 OVC035 FM190900
                       17005KT 6SM BR BKN015 OVC020 FM191600 19009KT
                       5SM BR BKN010 OVC015 FM200600 21014KT 6SM
                       -RA BR OVC011=
202302190257 KSEA 190257Z 1903/2006 VRB04KT P6SM SCT025 OVC040 FM190900 18004KT
                       6SM BR BKN015 OVC020 FM191500 18009KT 5SM
                       BR BKN010 OVC015=
202302182328 TAF KSEA 182328Z 1900/2006 35003KT 6SM BR FEW005 BKN020 OVC035
                       TEMPO 1900/1901 2SM -RA BR BKN005 FM190200
                       08003KT 5SM BR SCT020 OVC030 FM190900 18004KT
                       6SM BR BKN015 OVC020 FM191500 18009KT 5SM
                       BR BKN010 OVC015=
202302182223 KSEA 182223Z 1822/1924 27005KT 6SM -DZ BR BKN015 OVC020
                      TEMPO 1822/1901 35005KT 2SM -RA BR BKN005
                       FM190200 08004KT P6SM OVC025 FM190700 13004KT
                       P6SM OVC020 FM191500 18008KT P6SM BKN010
                       OVC015=
202302182045 KSEA 182045Z 1821/1924 23007KT 6SM -DZ BR BKN010 OVC015
                      TEMPO 1821/1823 29005KT 2SM -RA BR OVC005
                       FM182300 03004KT P6SM OVC015 FM190200 08004KT
                       P6SM OVC025 FM190700 13004KT P6SM OVC020
                       FM191500 18008KT P6SM BKN010 OVC015=
202302181720 TAF KSEA 181720Z 1818/1924 20009KT P6SM VCSH BKN012 BKN015 OVC025
                       TEMPO 1820/1823 5SM -DZ BR FM182300 03004KT
                       P6SM OVC020 FM190200 08004KT P6SM OVC025
                       FM190700 13004KT P6SM OVC020 FM191500 18008KT
                       P6SM BKN010 OVC015=
202302181400 KSEA 181400Z 1814/1918 19010KT P6SM OVC014 FM181600 20008KT 6SM
                       -DZ BR OVC012 FM182300 03004KT P6SM OVC015
                       FM190300 08004KT P6SM OVC025 FM190600 14004KT
                       P6SM OVC015 FM191200 18008KT P6SM OVC015=
202302181126 TAF KSEA 181126Z 1812/1918 18008KT P6SM BKN015 OVC200 FM181600
                       20008KT 6SM -DZ BR OVC012 FM182300 03004KT
                       P6SM OVC015 FM190300 08004KT P6SM OVC025
                       FM190600 14004KT P6SM OVC015 FM191200 18008KT
                       P6SM OVC015=
202302180858 KSEA 180858Z 1809/1912 18007KT P6SM BKN015 OVC080 FM181800 18008KT
                       6SM BR VCSH OVC012 FM182300 24005KT P6SM
                       VCSH BKN040 FM190200 03004KT P6SM VCSH BKN020=
202302180539 TAF KSEA 180539Z 1806/1912 20007KT P6SM SCT025 BKN100 FM180800
                       19007KT P6SM OVC015 FM181800 18008KT 6SM
                       BR VCSH OVC012 FM182300 24005KT P6SM VCSH
                       BKN040 FM190200 03004KT P6SM VCSH BKN020=
202302180339 KSEA 180339Z 1804/1906 12007KT P6SM BKN030 BKN100 FM180800 19006KT
                       P6SM OVC014 FM181800 18008KT 6SM -RA BR
                       OVC012 FM190200 32004KT P6SM VCSH BKN017
                       OVC030=
202302172325 TAF KSEA 172325Z 1800/1906 20005KT P6SM SCT015 BKN035
                      TEMPO 1804/1808 BKN015 FM180800 19006KT P6SM
                       OVC014 FM181800 18008KT 6SM -RA BR OVC012
                       FM190200 32004KT P6SM VCSH BKN017 OVC030=
202302172020 KSEA 172020Z 1720/1824 20006KT P6SM VCSH SCT008 OVC015
                      TEMPO 1720/1722 BKN008 FM180100 22005KT P6SM
                       OVC025 FM180900 19006KT P6SM VCSH OVC012
                       FM181800 18008KT 6SM -RA BR OVC010=
202302171729 TAF KSEA 171729Z 1718/1824 17005KT 6SM BR VCSH SCT006 BKN013
                      TEMPO 1718/1720 4SM BR BKN006 FM172000 20004KT
                       P6SM VCSH OVC015 FM180100 22005KT P6SM OVC025
                       FM180900 19006KT P6SM VCSH OVC012 FM181800
                       18008KT 6SM -RA BR OVC010=
202302171616 KSEA 171616Z 1716/1818 16005KT 6SM BR VCSH SCT005 BKN013
                      TEMPO 1716/1718 2SM BR BKN004 FM172000 21006KT
                       P6SM VCSH OVC015 FM180100 22006KT P6SM OVC030
                       FM181200 19006KT P6SM VCSH OVC015=
202302171427 KSEA 171427Z 1714/1818 12005KT P6SM -RA OVC012
                      TEMPO 1714/1716 3SM BR FM172000 21006KT P6SM
                       VCSH OVC015 FM180100 22006KT P6SM OVC030
                       FM181200 19006KT P6SM VCSH OVC015=
202302171128 TAF KSEA 171128Z 1712/1818 19007KT P6SM -RA OVC025 FM171400 18006KT
                       P6SM -RA OVC017 FM172000 21006KT P6SM VCSH
                       OVC015 FM180100 22006KT P6SM OVC030 FM181200
                       19006KT P6SM VCSH OVC015=
202302170851 KSEA 170851Z 1709/1812 19006KT P6SM VCSH OVC035 FM171200 18006KT
                       P6SM -RA OVC025 FM171500 16006KT P6SM -RA
                       OVC017 FM171900 21006KT P6SM VCSH BKN020
                       FM172300 24004KT P6SM BKN030 FM180200 VRB03KT
                       P6SM BKN040=
202302170529 TAF KSEA 170529Z 1706/1812 18005KT P6SM BKN050 OVC060 FM171200
                       18006KT P6SM -RA OVC025 FM171500 16006KT
                       P6SM -RA OVC017 FM171900 21006KT P6SM VCSH
                       BKN020 FM172300 24004KT P6SM BKN030 FM180200
                       VRB03KT P6SM BKN040=
202302170257 KSEA 170257Z 1703/1806 17006KT P6SM OVC070 FM170600 17006KT P6SM
                       OVC045 FM171300 16006KT P6SM -RA OVC017
                       FM171900 21006KT P6SM VCSH BKN022 FM172300
                       24004KT P6SM BKN040=
202302162320 TAF KSEA 162320Z 1700/1806 20004KT P6SM OVC070 FM170600 17006KT
                       P6SM OVC045 FM171300 16006KT P6SM -RA OVC017
                       FM171900 21006KT P6SM VCSH BKN022 FM172300
                       24004KT P6SM BKN040=
202302162221 KSEA 162221Z 1622/1724 20004KT P6SM OVC080 FM171100 21006KT P6SM
                       VCSH OVC020 FM171200 16006KT P6SM -RA OVC020
                       FM172100 21006KT P6SM OVC025=
202302161725 TAF KSEA 161725Z 1618/1724 16004KT P6SM OVC100 FM170500 18006KT
                       P6SM -RA OVC045 FM171100 21006KT P6SM -RA
                       OVC020 FM171300 15006KT P6SM VCSH OVC015=
202302161431 KSEA 161431Z 1615/1718 17004KT P6SM OVC120 FM162200 18006KT P6SM
                       OVC080 FM170500 18006KT P6SM -RA OVC045
                       FM171100 21006KT P6SM -RA OVC020 FM171500
                       15006KT P6SM VCSH OVC015=
202302161123 TAF KSEA 161123Z 1612/1718 14005KT P6SM OVC100 FM162200 18006KT
                       P6SM OVC080 FM170500 18006KT P6SM -RA OVC045
                       FM171100 21006KT P6SM -RA OVC020 FM171500
                       15006KT P6SM VCSH OVC015=
202302160852 KSEA 160852Z 1609/1712 12006KT P6SM BKN100 FM161400 12006KT P6SM
                       OVC100 FM162200 18006KT P6SM BKN080 OVC120
                       FM170500 18006KT P6SM -RA OVC045 FM171100
                       21006KT P6SM -RA OVC020=
202302160528 TAF KSEA 160528Z 1606/1712 12006KT P6SM BKN200 FM161400 12006KT
                       P6SM OVC120 FM162200 18006KT P6SM BKN080
                       OVC120 FM170500 18006KT P6SM -RA OVC045
                       FM171100 21006KT P6SM -RA OVC020=
202302160350 KSEA 160350Z 1604/1706 00000KT P6SM BKN200 FM161400 10005KT P6SM
                       OVC120 FM162000 21004KT P6SM BKN080 OVC120
                       FM170300 17006KT P6SM OVC050=
202302152327 TAF KSEA 152327Z 1600/1706 22005KT P6SM FEW040 BKN200 FM160300
                       12006KT P6SM SCT120 BKN200 FM161000 10005KT
                       P6SM OVC120 FM162000 21004KT P6SM BKN080
                       OVC120 FM170300 17006KT P6SM OVC050=
202302152053 KSEA 152053Z 1521/1624 21005KT P6SM FEW040 SCT200 FM160300 12006KT
                       P6SM SCT120 BKN200 FM161000 10005KT P6SM
                       OVC120 FM162000 21004KT P6SM BKN080 OVC120=
202302151728 TAF KSEA 151728Z 1518/1624 14006KT P6SM SCT040 SCT200 FM152000
                       21005KT P6SM SCT200 FM160300 12006KT P6SM
                       SCT120 BKN200 FM161000 10005KT P6SM OVC120
                       FM162000 21004KT P6SM BKN080 OVC120=
202302151448 KSEA 151448Z 1515/1618 14005KT P6SM SCT040 SCT200 FM152000 18006KT
                       P6SM SCT200 FM160300 12006KT P6SM SCT120
                       BKN200 FM160800 12005KT P6SM OVC120=
202302151126 TAF KSEA 151126Z 1512/1618 13005KT P6SM SCT040 SCT200 FM152000
                       18006KT P6SM SCT200 FM160300 12006KT P6SM
                       SCT120 BKN200 FM160800 12005KT P6SM OVC120=
202302150854 KSEA 150854Z 1509/1612 13005KT P6SM SCT040 SCT200 FM151200 18006KT
                       P6SM SCT200 FM160300 12006KT P6SM SCT120
                       BKN200=
202302150532 TAF KSEA 150532Z 1506/1612 VRB03KT P6SM SCT200 FM151200 18006KT
                       P6SM SCT200 FM160300 12006KT P6SM SCT120
                       BKN200=
202302150422 KSEA 150422Z 1504/1606 VRB03KT P6SM SCT200 FM151200 16006KT P6SM
                       BKN020 FM151800 20006KT P6SM FEW030 SCT200
                       FM160000 20006KT P6SM BKN120 BKN200=
202302142325 TAF KSEA 142325Z 1500/1606 03010KT P6SM SCT035 SCT200 FM150300
                       05005KT P6SM SCT200 FM151200 16006KT P6SM
                       BKN020 FM151800 20006KT P6SM FEW030 SCT200
                       FM160000 21005KT P6SM BKN120 BKN200=
202302142050 KSEA 142050Z 1421/1524 36011KT P6SM SCT035 SCT200 FM150300 05005KT
                       P6SM SCT200 FM151200 16006KT P6SM BKN020
                       FM151800 20006KT P6SM FEW030 SCT200=
202302141734 TAF KSEA 141734Z 1418/1524 02011KT P6SM FEW040 SCT200 FM150300
                       05005KT P6SM SCT200 FM151200 16006KT P6SM
                       BKN020 FM151800 20006KT P6SM FEW030 SCT200=
202302141604 KSEA 141604Z 1416/1518 01006KT P6SM SCT035
                      TEMPO 1416/1418 BKN030 FM141800 01008KT P6SM
                       FEW040 SCT250 FM150300 14004KT P6SM SCT150
                       FM151200 15004KT P6SM BKN100=
202302141422 KSEA 141422Z 1414/1518 06004KT P6SM VCSH SCT045
                      TEMPO 1414/1416 -SHSN BKN030 FM141600 01006KT
                       P6SM SCT040 FM141800 01008KT P6SM SCT250
                       FM150300 14004KT P6SM SCT150 FM151200 15004KT
                       P6SM BKN100=
202302141241 KSEA 141241Z 1413/1518 VRB05KT P6SM VCSH FEW002 SCT025 SCT040
                      TEMPO 1413/1414 -RASN BKN025 FM141500 01006KT
                       P6SM SCT040 FM141800 01008KT P6SM SCT250
                       FM150300 14004KT P6SM SCT150 FM151200 15004KT
                       P6SM BKN100=
202302141120 TAF KSEA 141120Z 1412/1518 VRB05KT P6SM FEW002 SCT025 SCT040 FM141600
                       01006KT P6SM SCT040 FM141800 01008KT P6SM
                       SCT250 FM150300 14004KT P6SM SCT150 FM151200
                       15004KT P6SM BKN100=
202302140901 KSEA 140901Z 1409/1512 VRB05KT P6SM SCT003 BKN040
                      TEMPO 1409/1413 1/2SM FG BKN001 FM141300
                       01006KT P6SM BKN022 BKN035 FM141400 01006KT
                       P6SM BKN040 FM141700 01008KT P6SM SCT250=
202302140803 KSEA 140803Z 1408/1512 VRB05KT P6SM SCT003 BKN021 BKN040 FM140900
                       VRB05KT P6SM SCT008 BKN015 OVC030 FM141100
                       01006KT P6SM BKN022 BKN035 FM141400 01006KT
                       P6SM BKN040 FM141700 01008KT P6SM SCT250=
202302140529 TAF KSEA 140529Z 1406/1512 VRB05KT 1SM -SN BKN004 OVC008 FM140700
                       VRB05KT 4SM BR SCT004 BKN008 OVC015 FM140900
                       VRB05KT P6SM SCT008 BKN015 OVC030 FM141100
                       01006KT P6SM BKN022 BKN035 FM141400 01006KT
                       P6SM BKN040 FM141700 01008KT P6SM SCT250=
202302140322 KSEA 140322Z 1403/1506 VRB05KT P6SM -TSRA SCT022 BKN030CB OVC060
                       FM140400 VRB05KT P6SM -SHRA BKN022 OVC035
                       FM141000 03007KT P6SM SCT022 BKN035 FM141900
                       01009KT P6SM SCT250=
202302140301 KSEA 140301Z 1403/1506 23010KT P6SM SCT025 OVC050 FM140400 VRB05KT
                       P6SM -SHRA BKN022 OVC035 FM141000 03007KT
                       P6SM SCT022 BKN035 FM141900 01009KT P6SM
                       SCT250=
202302132329 TAF KSEA 132329Z 1400/1506 21010G20KT P6SM VCSH OVC030 FM140100
                       VRB05KT P6SM -SHRA SCT030 OVC050 FM140600
                       15005KT P6SM SCT050 BKN110 FM141000 03007KT
                       P6SM BKN035 FM141900 01009KT P6SM SCT250=
202302132059 KSEA 132059Z 1321/1424 22010G20KT P6SM -SHRA BKN025 FM132200 33005KT
                       P6SM -SHRA OVC020 FM140100 VRB05KT P6SM
                       VCSH SCT030 OVC050 FM140600 15005KT P6SM
                       SCT050 BKN110 FM141000 03007KT P6SM BKN030
                       FM141900 01009KT P6SM SCT250=
202302131735 TAF KSEA 131735Z 1318/1424 23009KT P6SM VCSH BKN025 OVC040 FM132100
                       24008KT P6SM -SHRA OVC025 FM132200 33005KT
                       P6SM -SHRA OVC020 FM140100 VRB05KT P6SM
                       VCSH SCT030 OVC050 FM140600 15005KT P6SM
                       SCT050 BKN110 FM141000 03007KT P6SM BKN030=
202302131306 KSEA 131306Z 1313/1418 21010G20KT P6SM VCSH BKN020 BKN060 FM131800
                       23009KT P6SM VCSH BKN025 OVC040 FM132100
                       24008KT P6SM -SHRA OVC025 FM132200 33005KT
                       P6SM -SHRA OVC020 FM140100 VRB05KT P6SM
                       VCSH SCT030 OVC050 FM140600 15005KT P6SM
                       SCT050 BKN110 FM141200 03007KT P6SM BKN030=
202302131129 TAF KSEA 131129Z 1312/1418 21010G20KT P6SM VCSH SCT020 BKN060 FM131800
                       23009KT P6SM VCSH BKN025 OVC040 FM132100
                       24008KT P6SM -SHRA OVC025 FM132200 33005KT
                       P6SM -SHRA OVC020 FM140100 VRB05KT P6SM
                       VCSH SCT030 OVC050 FM140600 15005KT P6SM
                       SCT050 BKN110 FM141200 03007KT P6SM BKN030=
202302130903 KSEA 130903Z 1309/1412 20017G24KT P6SM VCSH BKN012 BKN050 BKN060
                       FM131700 23011KT P6SM VCSH BKN025 OVC040
                       FM132000 24008KT P6SM -SHRA OVC025 FM132200
                       33005KT P6SM -SHRA OVC015 FM140000 01007KT
                       P6SM -RA OVC050 FM140900 15005KT P6SM BKN110=
202302130528 TAF KSEA 130528Z 1306/1412 20012G25KT P6SM -RA OVC022 FM130900
                       22012G25KT P6SM SCT025 BKN050 FM131700 23011KT
                       P6SM VCSH BKN025 OVC040 FM132000 24008KT
                       P6SM -SHRA OVC025 FM132200 33005KT P6SM
                       -SHRA OVC015 FM140000 01007KT P6SM -RA OVC050
                       FM140900 15005KT P6SM BKN110=
202302130321 KSEA 130321Z 1303/1406 22010KT P6SM BKN030 OVC040 FM130400 19008KT
                       P6SM -RA BKN030 OVC060 FM130600 21012G20KT
                       P6SM -RA OVC025 FM131000 22012G20KT P6SM
                       SCT025 BKN050 FM131800 23010KT P6SM VCSH
                       BKN025 OVC040 FM132000 24006KT P6SM -SHRA
                       OVC015 FM140000 33005KT P6SM -SHRA OVC015=
202302122328 TAF KSEA 122328Z 1300/1406 20008KT P6SM OVC035 FM130400 19008KT
                       P6SM -RA BKN030 OVC060 FM130600 21012G20KT
                       P6SM -RA OVC025 FM131000 22012G20KT P6SM
                       SCT025 BKN050 FM131800 23010KT P6SM VCSH
                       BKN025 OVC040 FM132000 24006KT P6SM -SHRA
                       OVC015 FM140000 33005KT P6SM -SHRA OVC015=
202302122102 KSEA 122102Z 1221/1324 17007KT P6SM FEW020 BKN045 BKN100 FM130400
                       19008KT P6SM -RA BKN030 OVC060 FM130600
                       21012G20KT P6SM -RA OVC025 FM131000 22012G20KT
                       P6SM SCT025 BKN050 FM131800 23010KT P6SM
                       VCSH BKN025 OVC040=
202302121724 TAF KSEA 121724Z 1218/1324 13004KT P6SM FEW010 SCT120 BKN200 FM130400
                       19008KT P6SM -RA BKN030 OVC060 FM130600
                       21012G20KT P6SM -RA OVC025 FM131000 22012G20KT
                       P6SM SCT025 BKN050 FM131800 23010KT P6SM
                       VCSH BKN025 OVC040=
202302121422 KSEA 121422Z 1214/1318 16004KT P6SM VCFG SCT100 SCT200
                      TEMPO 1214/1216 2SM BR FEW005 FM121800 17004KT
                       P6SM BKN080 BKN200 FM130400 19008KT P6SM
                       VCSH BKN030 OVC060 FM130600 21012G20KT P6SM
                       -RA OVC025 FM131000 22012G20KT P6SM VCSH
                       OVC020=
202302121359 KSEA 121359Z 1214/1318 16005KT P6SM VCFG FEW100 SCT200
                      TEMPO 1214/1216 2SM BR FEW001 FM121800 17004KT
                       P6SM BKN080 BKN200 FM130400 19008KT P6SM
                       VCSH BKN030 OVC060 FM130600 21012G20KT P6SM
                       -RA OVC025 FM131000 22012G20KT P6SM VCSH
                       OVC020=
202302121132 KSEA 121132Z 1212/1318 13005KT P6SM FEW100 SCT200
                      TEMPO 1212/1216 2SM BR FEW001 FM121800 17004KT
                       P6SM BKN080 BKN200 FM130400 19008KT P6SM
                       VCSH BKN030 OVC060 FM130600 21012G20KT P6SM
                       -RA OVC025 FM131000 22012G20KT P6SM VCSH
                       OVC020=
202302121130 TAF KSEA 121130Z 1212/1318 13005KT P6SM FEW100 SCT200 FM121800
                       17004KT P6SM BKN080 BKN200 FM130400 19008KT
                       P6SM VCSH BKN030 OVC060 FM130600 21012G20KT
                       P6SM -RA OVC025 FM131000 22012G20KT P6SM
                       VCSH OVC020=
202302120902 KSEA 120902Z 1209/1312 03005KT P6SM FEW150 SCT200 FM121800 17004KT
                       P6SM BKN080 BKN250 FM130400 19008KT P6SM
                       -RA BKN030 OVC060 FM130600 21010KT P6SM
                       -RA OVC025=
202302120530 TAF KSEA 120530Z 1206/1312 01005KT P6SM FEW150 SCT200 FM120800
                       05003KT P6SM SCT040 BKN200 FM121800 17004KT
                       P6SM BKN080 BKN250 FM130400 19008KT P6SM
                       -RA BKN030 OVC060 FM130600 21010KT P6SM
                       -RA OVC025=
202302120334 KSEA 120334Z 1204/1306 36005KT P6SM FEW035 BKN180 FM120800 06003KT
                       P6SM SCT040 BKN120 FM121800 18004KT P6SM
                       BKN080 BKN250 FM130400 19008KT P6SM -RA
                       BKN030 OVC060=
202302112323 TAF KSEA 112323Z 1200/1306 01005KT P6SM SCT027 BKN200 FM120200
                       VRB03KT P6SM SCT040 BKN200 FM121800 18004KT
                       P6SM BKN080 BKN250 FM130400 19008KT P6SM
                       -RA BKN030 OVC060=
202302112157 KSEA 112157Z 1122/1224 02006KT P6SM SCT030 SCT250
                      TEMPO 1122/1124 BKN030 BKN200 FM120200 VRB03KT
                       P6SM SCT040 BKN200 FM121800 18004KT P6SM
                       BKN080 BKN250=
202302112100 KSEA 112100Z 1121/1224 01006KT P6SM SCT030 SCT250 FM120100 VRB03KT
                       P6SM SCT040 BKN200 FM121800 18004KT P6SM
                       BKN080 BKN250=
202302111724 TAF KSEA 111724Z 1118/1224 03008KT P6SM SCT018 BKN200
                      TEMPO 1118/1120 BKN018 BKN200 FM112000 36005KT
                       P6SM BKN040 BKN200 FM120100 VRB03KT P6SM
                       SCT040 BKN200 FM121800 18004KT P6SM BKN080
                       BKN250=
202302111624 KSEA 111624Z 1116/1218 03006KT P6SM BKN018 FM112000 30005KT P6SM
                       BKN040 FM120300 VRB03KT P6SM SCT040 BKN070=
202302111121 TAF KSEA 111121Z 1112/1218 04007KT P6SM SCT040 BKN060 FM111400
                       03004KT P6SM BKN040 FM112000 30005KT P6SM
                       BKN040 FM120300 VRB03KT P6SM SCT040 BKN070=
202302110858 KSEA 110858Z 1109/1212 02008KT P6SM BKN040 FM111200 03005KT P6SM
                       BKN035 FM111800 33005KT P6SM BKN035 FM120300
                       VRB03KT P6SM BKN035=
202302110531 TAF KSEA 110531Z 1106/1212 04012KT P6SM BKN030 FM110800 02006KT
                       P6SM FEW050 SCT250 FM111500 05005KT P6SM
                       BKN035 FM112000 35005KT P6SM BKN035 FM120300
                       VRB03KT P6SM BKN035=
202302110302 KSEA 110302Z 1103/1206 VRB04KT P6SM FEW035 FEW060 FM110400 VRB04KT
                       P6SM BKN050 FM111300 35003KT P6SM BKN025
                       FM111800 01003KT P6SM BKN035=
202302102339 TAF KSEA 102339Z 1100/1206 20007KT P6SM FEW025 SCT190 FM110200
                       26004KT P6SM FEW035 SCT200 FM110400 35005KT
                       P6SM BKN050 FM111300 35003KT P6SM BKN025
                       FM111800 01003KT P6SM BKN035=
202302102054 KSEA 102054Z 1021/1124 21006KT P6SM FEW015 SCT030 BKN150 FM110000
                       25005KT P6SM BKN070 FM110300 35005KT P6SM
                       BKN050 FM111300 35003KT P6SM BKN020 FM111800
                       36003KT P6SM BKN035=
202302101738 TAF KSEA 101738Z 1018/1124 17008KT P6SM SCT009 BKN040 BKN170 FM102000
                       21006KT P6SM BKN050 FM110000 25005KT P6SM
                       BKN070 FM110300 35005KT P6SM BKN050 FM111300
                       35003KT P6SM BKN020=
202302101644 KSEA 101644Z 1017/1118 17008KT P6SM SCT025 BKN045
                      TEMPO 1017/1018 -SHRA BKN009 BKN045 FM102000
                       21006KT P6SM BKN050 FM111200 VRB03KT P6SM
                       BKN020=
202302101427 KSEA 101427Z 1014/1118 17008KT P6SM SCT025 BKN045
                      TEMPO 1014/1018 -SHRA BKN025 BKN045 FM102000
                       21006KT P6SM BKN050 FM111200 VRB03KT P6SM
                       BKN020=
202302101122 TAF KSEA 101122Z 1012/1118 19010KT P6SM SCT025 BKN045
                      TEMPO 1014/1018 -SHRA BKN025 BKN045 FM102000
                       21006KT P6SM BKN050 FM111200 VRB03KT P6SM
                       BKN020=
202302100922 KSEA 100922Z 1009/1112 19011G20KT P6SM OVC035 FM101200 19010KT
                       P6SM SCT015 BKN035 FM102000 22005KT P6SM
                       BKN050 FM110500 VRB04KT P6SM BKN050=
202302100541 TAF KSEA 100541Z 1006/1112 16007KT P6SM VCSH BKN080 OVC150 FM100700
                       19011KT P6SM -RA OVC040 FM100800 19011G20KT
                       P6SM -RA SCT015 OVC035 FM101200 19010KT
                       P6SM SCT015 BKN040 FM102000 22005KT P6SM
                       BKN050 FM110500 VRB04KT P6SM BKN050=
202302100300 KSEA 100300Z 1003/1106 17005KT P6SM BKN180 FM100600 17008KT P6SM
                       -RA OVC045 FM100800 18010G20KT P6SM -RA
                       SCT010 OVC020 FM101200 19010KT P6SM SCT015
                       BKN035 FM102000 22005KT P6SM BKN050=
202302092339 TAF KSEA 092339Z 1000/1106 15006KT P6SM BKN080 BKN200 FM100600
                       14008KT P6SM -RA OVC045 FM100800 17010G20KT
                       P6SM -RA SCT010 OVC020 FM101200 19010KT
                       P6SM SCT015 BKN035 FM102000 22005KT P6SM
                       BKN050=
202302092110 KSEA 092110Z 0921/1024 11008KT P6SM BKN080 BKN200 FM100600 14008KT
                       P6SM -RA OVC045 FM100800 17012G20KT P6SM
                       -RA SCT010 OVC020 FM101200 19010KT P6SM
                       -SHRA SCT015 BKN025 OVC040=
202302091730 TAF KSEA 091730Z 0918/1024 VRB03KT P6SM OVC080 FM092100 11008KT
                       P6SM SCT080 BKN200 FM100500 14008KT P6SM
                       -RA OVC045 FM100800 17012G20KT P6SM -RA
                       SCT010 OVC020 FM101200 19010KT P6SM -SHRA
                       SCT015 BKN025 OVC040=
202302091456 KSEA 091456Z 0915/1018 VRB03KT P6SM OVC070 FM092100 11008KT P6SM
                       SCT080 BKN200 FM100300 14008KT P6SM -RA
                       OVC045 FM100800 17012G20KT P6SM -RA SCT010
                       OVC020 FM101200 19010KT P6SM -SHRA SCT015
                       BKN025 OVC040=
202302091143 TAF KSEA 091143Z 0912/1018 11008KT P6SM OVC070 FM092100 11008KT
                       P6SM SCT080 BKN200 FM100300 14008KT P6SM
                       -RA OVC045 FM100800 17012G20KT P6SM -RA
                       SCT010 OVC020 FM101200 19010KT P6SM -SHRA
                       SCT015 BKN025 OVC040=
202302090916 KSEA 090916Z 0909/1012 12005KT P6SM OVC060 FM092100 15004KT P6SM
                       BKN250 FM100600 17009KT 6SM -RA BR BKN020
                       OVC030=
202302090520 TAF KSEA 090520Z 0906/1012 14005KT P6SM OVC060 FM090900 11005KT
                       P6SM OVC050 FM092100 15004KT P6SM BKN250
                       FM100600 17009KT 6SM -RA BR BKN020 OVC030=
202302090253 KSEA 090253Z 0903/1006 13005KT P6SM SCT050 BKN080 BKN250 FM091300
                       08005KT P6SM OVC050 FM092300 13004KT P6SM
                       BKN250=
202302082330 TAF KSEA 082330Z 0900/1006 22006KT P6SM SCT045 BKN250 FM090600
                       12006KT P6SM BKN060 OVC100 FM091300 08005KT
                       P6SM OVC050 FM092300 13004KT P6SM BKN250=
202302082038 KSEA 082038Z 0821/0924 23006KT P6SM SCT020 BKN030 BKN120 FM082200
                       22006KT P6SM BKN045 BKN120 FM090600 12006KT
                       P6SM OVC080 FM091300 08005KT P6SM OVC050=
202302081738 TAF KSEA 081738Z 0818/0924 17006KT P6SM BKN025 FM081900 17006KT
                       P6SM BKN045 FM090600 12006KT P6SM OVC080
                       FM091300 08005KT P6SM OVC050=
202302081409 KSEA 081409Z 0814/0918 17006KT P6SM OVC012
                      TEMPO 0818/0819 SCT012 BKN100 FM081900 17006KT
                       P6SM SCT080 BKN200 FM090600 12006KT P6SM
                       OVC080=
202302081143 TAF KSEA 081143Z 0812/0918 20006KT P6SM BKN015 FM081500 20006KT
                       P6SM SCT020 BKN100
                      TEMPO 0815/0818 BKN020 BKN100 FM081800 17006KT
                       P6SM SCT080 BKN200 FM090600 12006KT P6SM
                       OVC080=
202302080900 KSEA 080900Z 0809/0912 23012KT P6SM SCT025 BKN060 FM081200 20006KT
                       P6SM SCT020 BKN060
                      TEMPO 0813/0817 BKN020 OVC050 FM082100 17005KT
                       P6SM SCT080 SCT150 FM090100 12006KT P6SM
                       BKN080 OVC100=
202302080520 TAF KSEA 080520Z 0806/0912 23012G20KT P6SM SCT025 BKN060 FM081200
                       20006KT P6SM SCT020 BKN060
                      TEMPO 0813/0817 BKN020 OVC050 FM082100 17005KT
                       P6SM SCT080 SCT150 FM090100 12006KT P6SM
                       BKN080 OVC100=
202302080246 KSEA 080246Z 0803/0906 23012G20KT P6SM SCT025 BKN060 FM081200 19007KT
                       P6SM SCT020 BKN050
                      TEMPO 0813/0817 BKN020 OVC050 FM082100 17005KT
                       P6SM SCT080 SCT150=
202302072320 TAF KSEA 072320Z 0800/0906 21015G27KT P6SM BKN018 BKN100
                      TEMPO 0800/0802 SCT018 BKN100 FM080200 23012G20KT
                       P6SM SCT025 BKN050 FM081200 19007KT P6SM
                       SCT020 BKN050
                      TEMPO 0813/0817 BKN020 OVC050=
202302072108 KSEA 072108Z 0721/0824 19015G25KT P6SM BKN025 OVC040
                      TEMPO 0721/0723 SCT025 BKN040 FM072300 20015G25KT
                       P6SM SCT030 BKN050 FM080200 23012G20KT P6SM
                       SCT025 BKN050 FM081200 19007KT P6SM SCT025
                       BKN050=
202302071724 TAF KSEA 071724Z 0718/0824 18012G20KT P6SM -RA BKN020 OVC030 FM072100
                       21015G25KT P6SM SCT020 BKN030 BKN050 FM080200
                       23012G20KT P6SM SCT025 BKN050 FM081200 19007KT
                       P6SM SCT025 BKN050=
202302071403 KSEA 071403Z 0714/0818 18012KT P6SM -RA OVC035 FM071700 18015G25KT
                       6SM -RA BR BKN015 OVC025 FM072100 21015G25KT
                       P6SM SCT015 BKN030 BKN050 FM080200 23012G20KT
                       P6SM SCT025 BKN050 FM081200 19010KT P6SM
                       SCT025 BKN050=
202302071145 TAF KSEA 071145Z 0712/0818 18012KT P6SM -RA OVC035 FM071700 18015G25KT
                       6SM -RA BR BKN015 OVC025 FM072100 21015G25KT
                       P6SM SCT015 BKN030 BKN050 FM080200 23012G20KT
                       P6SM SCT025 BKN050 FM081200 19010KT P6SM
                       SCT025 BKN050=
202302070914 KSEA 070914Z 0709/0812 18010KT P6SM -RA OVC045 FM071100 18012KT
                       P6SM -RA OVC025 FM071600 18015G30KT 6SM
                       -RA BR OVC015 FM072100 21014G23KT P6SM SCT015
                       BKN030 BKN050 FM080000 23012G19KT P6SM SCT025
                       BKN050=
202302070520 TAF KSEA 070520Z 0706/0812 18011G19KT P6SM SCT025 OVC040 FM070900
                       18015G25KT P6SM -RA BKN025 OVC035 FM071300
                       18015G30KT 6SM -RA BR OVC015 FM072100 21014G23KT
                       P6SM SCT015 BKN030 BKN050 FM080000 23012G19KT
                       P6SM SCT025 BKN050=
202302070246 KSEA 070246Z 0703/0806 19011G19KT P6SM SCT025 BKN035 BKN060 FM070800
                       18015G25KT P6SM -RA BKN025 OVC035 FM071300
                       18015G27KT 6SM -RA BR OVC015 FM072100 21014G23KT
                       P6SM SCT015 BKN030 BKN050 FM080000 23013G21KT
                       P6SM SCT025 BKN050=
202302062321 TAF KSEA 062321Z 0700/0806 19012G20KT P6SM FEW015 BKN025 OVC035
                       FM070300 19015G25KT P6SM SCT025 BKN035 BKN060
                       FM070900 18015G25KT P6SM -RA BKN025 OVC035
                       FM071300 18015G25KT 6SM -RA BR OVC015 FM072100
                       21014G23KT P6SM BKN025 BKN050 FM080000 23013G21KT
                       P6SM SCT025 BKN050=
202302062104 KSEA 062104Z 0621/0724 19014G24KT P6SM -SHRA BKN025 OVC060 FM070300
                       19017G28KT P6SM SCT025 BKN035 BKN060 FM070900
                       18015G25KT P6SM -RA BKN025 OVC035 FM071300
                       18015G25KT 6SM -RA BR OVC015 FM072200 21017G28KT
                       P6SM BKN025 BKN050=
202302061725 TAF KSEA 061725Z 0618/0724 19015G25KT P6SM SCT015 BKN025 BKN060
                       FM070300 19017G28KT P6SM SCT025 BKN035 BKN060
                       FM070900 18015G25KT P6SM -RA BKN025 OVC035
                       FM071300 18015G25KT 6SM -RA BR OVC015 FM072200
                       21017G28KT P6SM BKN025 BKN050=
202302061452 KSEA 061452Z 0615/0718 19011KT P6SM OVC015
                      TEMPO 0615/0619 -RA OVC008 FM062200 19012G21KT
                       P6SM OVC025 FM070900 20011KT P6SM -RA OVC020=
202302061320 KSEA 061320Z 0613/0718 19011KT P6SM OVC015 FM062200 19012G21KT
                       P6SM OVC025 FM070900 20011KT P6SM -RA OVC020=
202302061120 TAF KSEA 061120Z 0612/0718 19009KT P6SM SCT020 OVC040 FM061500
                       19011KT P6SM OVC020 FM062200 19012G18KT
                       P6SM OVC030 FM070900 20015G25KT P6SM -RA
                       OVC025=
202302060914 KSEA 060914Z 0609/0712 19009KT P6SM SCT020 OVC040 FM061200 19011KT
                       P6SM OVC015 FM062200 19012G18KT P6SM OVC025
                       FM070900 20015G25KT P6SM -RA OVC025=
202302060529 TAF KSEA 060529Z 0606/0712 22009KT P6SM VCSH OVC012
                      TEMPO 0606/0608 5SM -RA FM061200 19011KT
                       P6SM OVC015 FM062200 19012G18KT P6SM OVC025
                       FM070900 20015G25KT P6SM -RA OVC025=
202302060253 KSEA 060253Z 0603/0706 22008KT P6SM VCSH OVC012
                      TEMPO 0603/0607 5SM -RA FM061200 19008KT
                       P6SM OVC025 FM062000 19012G19KT P6SM OVC019=
202302052335 TAF KSEA 052335Z 0600/0706 24008KT P6SM -RA OVC030 FM061200 19008KT
                       P6SM OVC025 FM062000 19012G19KT P6SM OVC019=
202302051952 KSEA 051952Z 0520/0624 15005KT P6SM -RA SCT005 BKN035 OVC050
                      TEMPO 0520/0522 BKN005 FM052200 24008KT P6SM
                       -RA OVC030 FM060500 23012KT P6SM OVC050
                       FM061200 20009KT P6SM OVC025=
202302051738 TAF KSEA 051738Z 0518/0624 23003KT P6SM VCSH SCT015 OVC060
                      TEMPO 0518/0520 BKN030 FM052000 24008KT 4SM
                       -RA OVC030 FM060500 23012KT P6SM OVC050
                       FM061200 20009KT P6SM OVC025=
202302051359 KSEA 051359Z 0514/0618 10006KT P6SM BKN070 OVC100 FM051600 08005KT
                       P6SM -RA OVC045 FM052000 24008KT 6SM -RA
                       OVC020 FM060300 22012KT 6SM BR VCSH OVC030
                       FM060900 20009KT P6SM OVC025=
202302051120 TAF KSEA 051120Z 0512/0618 10006KT P6SM BKN060 OVC100 FM051500
                       08005KT P6SM VCSH OVC045
                      TEMPO 0516/0520 5SM -RA BR OVC035 FM052000
                       24008KT 6SM -RA OVC020 FM060300 22012KT
                       6SM BR VCSH OVC030 FM060900 20009KT P6SM
                       OVC025=
202302050900 KSEA 050900Z 0509/0612 10006KT P6SM BKN060 OVC100 FM051500 08005KT
                       P6SM -RA OVC045 FM052000 21008KT 6SM -RA
                       OVC020 FM060300 22012KT 6SM BR VCSH OVC030=
202302050532 TAF KSEA 050532Z 0506/0612 09006KT 6SM -RA OVC035 FM050700 10006KT
                       P6SM BKN035 OVC060 FM051500 08005KT P6SM
                       -RA OVC045 FM052000 21008KT 6SM -RA OVC020
                       FM060300 22012KT 6SM BR VCSH OVC030=
202302050252 KSEA 050252Z 0503/0606 15008KT P6SM -RA OVC045 FM050700 08006KT
                       P6SM SCT030 BKN045 OVC070 FM051100 05005KT
                       P6SM OVC035 FM051600 10005KT P6SM OVC025=
202302042320 TAF KSEA 042320Z 0500/0606 16008KT P6SM -SHRA OVC050 FM050500 08006KT
                       P6SM BKN030 OVC045 FM051100 05005KT P6SM
                       OVC035 FM051600 10005KT P6SM OVC025=
202302042055 KSEA 042055Z 0421/0524 16008KT P6SM -RA OVC050 FM050500 08006KT
                       P6SM BKN030 OVC045 FM051100 05005KT P6SM
                       OVC035 FM051600 10005KT P6SM OVC025=
202302041735 TAF KSEA 041735Z 0418/0524 16010KT P6SM VCSH OVC045 FM042100 14008KT
                       P6SM -RA OVC035 FM050500 08006KT P6SM BKN030
                       OVC045 FM051100 05005KT P6SM OVC035 FM051600
                       10005KT P6SM OVC025=
202302041359 KSEA 041359Z 0414/0518 20008KT P6SM -SHRA SCT050 OVC060 FM041700
                       16010KT P6SM VCSH OVC035 FM042200 14008KT
                       P6SM -RA OVC025 FM050500 08006KT P6SM BKN030
                       OVC040 FM051100 05005KT P6SM OVC030=
202302041120 TAF KSEA 041120Z 0412/0518 20008KT P6SM -SHRA OVC035 FM041700 16010KT
                       P6SM VCSH OVC025 FM042200 14008KT P6SM -RA
                       OVC025 FM050500 08006KT P6SM BKN030 OVC040=
202302040900 KSEA 040900Z 0409/0512 20008KT P6SM -SHRA SCT025 OVC035 FM041000
                       16012KT P6SM -RA SCT010 OVC020 FM041700
                       16010KT P6SM VCSH OVC025 FM042200 17008KT
                       P6SM -RA OVC025 FM050500 10006KT P6SM BKN025
                       OVC040=
202302040530 TAF KSEA 040530Z 0406/0512 19012G20KT 5SM -RA OVC020 FM040700 20011G18KT
                       P6SM -SHRA BKN022 OVC035 FM041000 16012KT
                       P6SM -RA SCT010 OVC020 FM041700 16010KT
                       P6SM VCSH OVC025 FM042200 17008KT P6SM -RA
                       OVC025 FM050500 14006KT P6SM BKN025 OVC040=
202302040251 KSEA 040251Z 0403/0506 19012G20KT P6SM -RA BKN025 OVC035 FM041000
                       16010KT P6SM -RA SCT010 OVC020 FM041700
                       16007KT P6SM VCSH SCT010 OVC020 FM042200
                       17008KT P6SM VCSH OVC020=
202302032320 TAF KSEA 032320Z 0400/0506 17015G30KT P6SM -RA OVC040 FM040400
                       19012G18KT P6SM -RA BKN020 OVC030 FM041000
                       16010KT P6SM -RA SCT010 OVC020 FM041700
                       16007KT P6SM VCSH SCT010 OVC020 FM042200
                       17008KT P6SM VCSH OVC020=
202302032058 KSEA 032058Z 0321/0424 17015G30KT P6SM -RA OVC050 FM040400 19012G18KT
                       P6SM -SHRA BKN020 OVC030 FM041000 16010KT
                       P6SM -RA SCT010 OVC020 FM041700 16007KT
                       P6SM VCSH SCT010 OVC020=
202302031724 TAF KSEA 031724Z 0318/0424 14010KT P6SM OVC100 FM031900 17015G25KT
                       P6SM -RA OVC040 FM040400 19012G18KT P6SM
                       -SHRA BKN020 OVC030 FM041000 16010KT P6SM
                       -RA SCT010 OVC020 FM041700 16007KT P6SM
                       VCSH SCT010 OVC020=
202302031402 KSEA 031402Z 0314/0418 VRB03KT P6SM OVC100 FM031900 17015G25KT
                       P6SM -RA OVC040 FM040400 19012G18KT P6SM
                       -SHRA BKN020 OVC030 FM041000 16010KT P6SM
                       -RA SCT010 OVC020=
202302031152 TAF KSEA 031152Z 0312/0418 05006KT P6SM BKN150 FM031600 08006KT
                       P6SM OVC100 FM031900 17015G25KT P6SM -RA
                       OVC040 FM040400 19012G18KT P6SM -SHRA BKN020
                       OVC030 FM041000 16010KT P6SM -RA SCT010
                       OVC020=
202302030904 KSEA 030904Z 0309/0412 36004KT P6SM BKN150 FM031600 08006KT P6SM
                       OVC100 FM031900 17015G25KT P6SM -RA OVC040
                       FM040500 19012G18KT P6SM -RA OVC030 FM041000
                       16010KT P6SM -RA OVC025=
202302030520 TAF KSEA 030520Z 0306/0412 12008KT P6SM BKN090 OVC120 FM031300
                       14007KT P6SM OVC100 FM031700 17012G20KT
                       P6SM VCSH SCT040 OVC080 FM032000 18017G30KT
                       P6SM -RA OVC040 FM040500 19012G18KT P6SM
                       -RA OVC030 FM041000 16010KT P6SM -RA OVC025=
202302030251 KSEA 030251Z 0303/0406 13006KT P6SM FEW150 SCT250 FM030400 VRB04KT
                       P6SM BKN150 BKN250 FM031300 14007KT P6SM
                       OVC100 FM031700 17012G20KT P6SM VCSH SCT040
                       OVC080 FM032000 18017G30KT P6SM -RA OVC040
                       FM040500 20012G20KT P6SM -RA OVC030=
202302022324 TAF KSEA 022324Z 0300/0406 18003KT P6SM SCT150 BKN250 FM030400
                       VRB04KT P6SM BKN150 BKN250 FM031300 14007KT
                       P6SM OVC100 FM031700 17012G20KT P6SM VCSH
                       SCT040 OVC080 FM032000 18017G30KT P6SM -RA
                       OVC040 FM040500 20012G20KT P6SM -RA OVC030=
202302022101 KSEA 022101Z 0221/0324 16005KT P6SM SCT150 BKN250 FM030400 08004KT
                       P6SM BKN150 BKN250 FM031300 12007KT P6SM
                       OVC100 FM031700 17012KT P6SM VCSH SCT040
                       OVC080 FM032000 18014KT P6SM -RA OVC045=
202302021726 TAF KSEA 021726Z 0218/0324 16006KT P6SM SCT150 BKN250 FM030400
                       08004KT P6SM BKN150 BKN250 FM031300 12007KT
                       P6SM OVC100 FM031700 17012KT P6SM VCSH SCT040
                       OVC080 FM032000 18014KT P6SM -RA OVC045=
202302021415 KSEA 021415Z 0214/0318 14006KT P6SM BKN250 FM030400 03004KT P6SM
                       BKN250 FM031200 VRB03KT P6SM OVC100=
202302021129 TAF KSEA 021129Z 0212/0318 14004KT P6SM BKN250 FM030400 03004KT
                       P6SM BKN250 FM031200 VRB03KT P6SM OVC100=
202302020920 KSEA 020920Z 0209/0312 14005KT P6SM SCT250 FM030000 VRB03KT P6SM
                       BKN250=
202302020535 TAF KSEA 020535Z 0206/0312 00000KT P6SM BKN250 FM021500 14005KT
                       P6SM SCT250 FM030000 VRB03KT P6SM BKN250=
202302020309 KSEA 020309Z 0203/0306 00000KT P6SM FEW150 BKN250 FM021400 14005KT
                       P6SM SCT250 FM030100 VRB03KT P6SM BKN250=
202302012332 TAF KSEA 012332Z 0200/0306 15004KT P6SM BKN160 BKN250 FM020100
                       VRB03KT P6SM BKN250 FM021400 14005KT P6SM
                       SCT250 FM030100 VRB03KT P6SM BKN250=
202302012106 KSEA 012106Z 0121/0224 18007KT P6SM SCT160 BKN250 FM020100 VRB03KT
                       P6SM BKN250 FM021400 10004KT P6SM BKN250=
202302011735 TAF KSEA 011735Z 0118/0224 14007KT P6SM FEW150 OVC250 FM012000
                       21004KT P6SM BKN250 FM020100 VRB03KT P6SM
                       BKN250 FM021400 10004KT P6SM BKN250=
202302011416 KSEA 011416Z 0114/0218 14004KT P6SM OVC150 FM012000 21004KT P6SM
                       BKN250 FM020300 VRB03KT P6SM BKN250=
202302011134 TAF KSEA 011134Z 0112/0218 14004KT P6SM SCT040 OVC150 FM012000
                       21004KT P6SM BKN250 FM020300 VRB03KT P6SM
                       BKN250=
202302010921 KSEA 010921Z 0109/0212 14005KT P6SM OVC100 FM011800 18003KT P6SM
                       OVC250 FM012100 25004KT P6SM BKN250 FM020300
                       VRB04KT P6SM BKN250=
202302010525 TAF KSEA 010525Z 0106/0212 15003KT P6SM SCT120 OVC200 FM011000
                       14005KT P6SM OVC100 FM011800 18003KT P6SM
                       OVC250 FM012100 25004KT P6SM BKN250 FM020300
                       VRB04KT P6SM BKN250=
202302010259 KSEA 010259Z 0103/0206 15003KT P6SM BKN110 OVC250 FM011000 14005KT
                       P6SM OVC100 FM011700 18003KT P6SM OVC250=