##########################################################
# Query made at 02/17/2025 22:02:49 UTC
# Time interval: from 03/01/2023 00:00  to 03/31/2023 23:59  UTC
##########################################################

##########################################################
# KSEA, Seattle, Seattle-Tacoma International Airport (United States)
# WMO index: 72793. WIGOS ID: 0-20000-0-72793
# Latitude 47-27-00N. Longitude 122-17-59W. Altitude 130 m.
##########################################################

###################################
#  METAR/SPECI from KSEA
###################################
202303312353 METAR KSEA 312353Z 19011KT 10SM -RA FEW020 SCT029 OVC037 07/04 A2990 RMK AO2 SLP133 P0001 60004 T00720039 10089 20072 56014 $=
202303312253 METAR KSEA 312253Z 19011G22KT 7SM -RA BKN023 BKN030 OVC047 08/04 A2991 RMK AO2 RAE18B40 SLP135 P0000 T00780039 $=
202303312217 SPECI KSEA 312217Z 19011G22KT 10SM -RA SCT027 BKN034 OVC043 08/03 A2991 RMK AO2 P0000 T00830033 $=
202303312153 METAR KSEA 312153Z 19011G18KT 10SM -RA BKN023 BKN032 OVC040 08/04 A2992 RMK AO2 RAB01 SLP140 P0001 T00830039 $=
202303312128 SPECI KSEA 312128Z 18010G21KT 10SM -RA SCT021 BKN027 OVC042 08/04 A2993 RMK AO2 RAB01 P0001 T00780039 $=
202303312053 METAR KSEA 312053Z 20015G23KT 10SM SCT022 BKN030 OVC041 08/03 A2994 RMK AO2 RAE35 SLP147 P0001 60002 T00780033 53001 $=
202303311953 METAR KSEA 311953Z 22019G26KT 7SM -RA SCT021 BKN030 OVC040 07/03 A2993 RMK AO2 PK WND 22026/1953 RAE1859B44 SLP144 P0000 T00720028 $=
202303311902 SPECI KSEA 311902Z 21010KT 10SM SCT028 BKN033 OVC049 08/03 A2993 RMK AO2 RAE1859 P0000 T00780033=
202303311853 METAR KSEA 311853Z 20011G28KT 7SM R16L/4500VP6000FT -RA FEW021 BKN028 OVC035 08/03 A2993 RMK AO2 PK WND 19028/1844 RAB45 SLP144 P0001 T00780033=
202303311847 SPECI KSEA 311847Z 21015G28KT 9SM R16L/4500VP6000FT -RA FEW021 BKN028 OVC035 07/03 A2994 RMK AO2 PK WND 19028/1844 RAB45 P0001=
202303311753 METAR KSEA 311753Z 20011KT 10SM FEW028 BKN033 OVC040 08/02 A2993 RMK AO2 SLP144 60000 T00780017 10083 20050 51001=
202303311653 METAR KSEA 311653Z 19013KT 10SM FEW028 BKN033 OVC045 07/02 A2993 RMK AO2 SLP143 T00720017=
202303311553 METAR KSEA 311553Z 18009KT 10SM SCT026 BKN030 OVC040 07/02 A2993 RMK AO2 SLP145 T00670022=
202303311453 METAR KSEA 311453Z 19010KT 10SM FEW020 BKN030 OVC040 06/02 A2993 RMK AO2 RAB06E15 SLP143 P0000 60000 T00610022 52002=
202303311353 METAR KSEA 311353Z 20009KT 10SM FEW020 BKN025 OVC032 06/02 A2993 RMK AO2 SLP143 T00560022=
202303311330 SPECI KSEA 311330Z 20010KT 10SM FEW020 BKN028 OVC034 06/02 A2993 RMK AO2 T00560022=
202303311253 METAR KSEA 311253Z 19010KT 10SM SCT022 BKN030 OVC036 06/02 A2993 RMK AO2 SLP141 T00560022=
202303311210 SPECI KSEA 311210Z 20006KT 10SM FEW019 BKN030 OVC036 06/03 A2993 RMK AO2 T00560033=
202303311153 METAR KSEA 311153Z 21006KT 10SM BKN024 OVC029 05/03 A2993 RMK AO2 RAE06 SLP141 P0000 60002 70002 T00500033 10067 20050 58003=
202303311053 METAR KSEA 311053Z 20006KT 9SM -RA BKN023 BKN032 OVC041 06/03 A2993 RMK AO2 RAB0955E26B46 SLP143 P0001 T00560028=
202303311051 SPECI KSEA 311051Z 21007KT 9SM -RA BKN023 BKN032 OVC041 06/03 A2993 RMK AO2 RAB0955E26B46 P0001=
202303311037 SPECI KSEA 311037Z 21011KT 10SM SCT023 BKN032 OVC046 06/03 A2993 RMK AO2 RAB0955E26 P0001 T00560028=
202303310953 METAR KSEA 310953Z 21007KT 9SM FEW019 OVC028 06/02 A2993 RMK AO2 RAB25E39 SLP144 P0001 T00560022=
202303310948 SPECI KSEA 310948Z 22008KT 10SM FEW019 OVC028 06/02 A2993 RMK AO2 RAB25E39 P0001=
202303310853 METAR KSEA 310853Z 20009KT 10SM SCT033 OVC055 06/01 A2993 RMK AO2 SLP144 T00610011 53004=
202303310753 METAR KSEA 310753Z 21010KT 10SM FEW027 SCT032 OVC055 07/01 A2993 RMK AO2 SLP142 T00670011 401170061=
202303310653 METAR KSEA 310653Z 21007KT 10SM BKN031 OVC055 07/01 A2993 RMK AO2 SLP141 T00670011=
202303310553 METAR KSEA 310553Z 20011KT 10SM FEW024 OVC060 07/01 A2992 RMK AO2 SLP141 T00670011 10117 20067 51016=
202303310453 METAR KSEA 310453Z 20009KT 10SM FEW028 OVC060 07/01 A2992 RMK AO2 SLP139 T00720011=
202303310353 METAR KSEA 310353Z 22011G19KT 10SM OVC055 07/01 A2990 RMK AO2 SLP134 T00720006=
202303310253 METAR KSEA 310253Z 23010KT 10SM BKN055 08/00 A2988 RMK AO2 SLP125 T00830000 53011=
202303310153 METAR KSEA 310153Z 22009KT 10SM BKN055 10/M01 A2986 RMK AO2 SLP119 T01001011=
202303310053 METAR KSEA 310053Z 21013G22KT 10SM BKN050 11/M02 A2985 RMK AO2 SLP115 T01061017=
202303302353 METAR KSEA 302353Z 22013G23KT 10SM BKN050 12/M01 A2984 RMK AO2 SLP113 T01171011 10117 20078 55002=
202303302253 METAR KSEA 302253Z 22014G23KT 10SM BKN050 11/M01 A2984 RMK AO2 SLP112 T01061011=
202303302153 METAR KSEA 302153Z 20015G21KT 10SM FEW040 BKN048 11/01 A2984 RMK AO2 SLP113 T01110006=
202303302053 METAR KSEA 302053Z 22013G21KT 10SM BKN036 BKN250 11/01 A2985 RMK AO2 SLP115 T01060011 51004=
202303301953 METAR KSEA 301953Z 24012KT 10SM BKN032 BKN250 09/01 A2985 RMK AO2 SLP115 T00940011=
202303301925 SPECI KSEA 301925Z 22011G19KT 10SM SCT030 BKN250 09/02 A2985 RMK AO2 T00940017=
202303301853 METAR KSEA 301853Z 22012G19KT 10SM BKN027 BKN250 09/02 A2985 RMK AO2 SLP114 T00940017=
202303301753 METAR KSEA 301753Z 21010KT 10SM BKN021 BKN250 08/02 A2984 RMK AO2 SLP111 T00780022 10078 20061 51009=
202303301653 METAR KSEA 301653Z 22012G18KT 10SM BKN018 BKN250 07/02 A2983 RMK AO2 SLP108 T00670022=
202303301553 METAR KSEA 301553Z 21009KT 10SM BKN015 BKN250 06/02 A2982 RMK AO2 SLP105 T00610022=
202303301507 SPECI KSEA 301507Z 21008KT 10SM BKN015 BKN090 06/02 A2981 RMK AO2 T00610022=
202303301453 METAR KSEA 301453Z 21009KT 10SM BKN014 BKN090 06/02 A2981 RMK AO2 SLP101 T00610017 53008=
202303301403 SPECI KSEA 301403Z 20009KT 10SM BKN013 BKN090 06/03 A2980 RMK AO2 T00610028=
202303301353 METAR KSEA 301353Z 21008KT 10SM SCT013 BKN090 BKN250 06/02 A2980 RMK AO2 SLP097 T00610022=
202303301253 METAR KSEA 301253Z 22010KT 10SM OVC090 07/02 A2979 RMK AO2 SLP094 T00670022=
202303301153 METAR KSEA 301153Z 20007KT 10SM OVC090 07/02 A2979 RMK AO2 SLP092 T00720017 10089 20072 56004=
202303301053 METAR KSEA 301053Z 22007KT 10SM OVC090 08/01 A2979 RMK AO2 SLP094 T00780011=
202303300953 METAR KSEA 300953Z 20006KT 10SM OVC090 08/01 A2979 RMK AO2 SLP095 T00780011=
202303300853 METAR KSEA 300853Z 11004KT 10SM OVC085 08/00 A2980 RMK AO2 SLP096 T00830000 51002=
202303300753 METAR KSEA 300753Z 15005KT 10SM OVC080 09/01 A2980 RMK AO2 SLP098 T00890006 401610050=
202303300653 METAR KSEA 300653Z 18006KT 10SM BKN075 08/M01 A2979 RMK AO2 SLP096 T00781006=
202303300553 METAR KSEA 300553Z 00000KT 10SM BKN075 09/M04 A2979 RMK AO2 SLP095 T00891039 10161 20083 52009=
202303300453 METAR KSEA 300453Z 01004KT 10SM SCT070 11/M08 A2978 RMK AO2 SLP091 T01111083=
202303300353 METAR KSEA 300353Z 02006KT 10SM FEW120 FEW250 10/M08 A2977 RMK AO2 SLP089 T01001078=
202303300253 METAR KSEA 300253Z 35006KT 10SM CLR 11/M06 A2976 RMK AO2 SLP086 T01061061 55003=
202303300153 METAR KSEA 300153Z 33004KT 10SM FEW040 SCT090 BKN250 14/M06 A2976 RMK AO2 SLP086 T01391056=
202303300053 METAR KSEA 300053Z 25005KT 10SM FEW040 SCT090 BKN250 15/M06 A2976 RMK AO2 SLP084 T01501061=
202303292353 METAR KSEA 292353Z 30006KT 10SM FEW040 SCT085 BKN250 15/M04 A2977 RMK AO2 SLP089 T01501044 10161 20111 56016=
202303292253 METAR KSEA 292253Z 31005KT 10SM BKN085 BKN250 15/M04 A2979 RMK AO2 SLP093 T01501039=
202303292153 METAR KSEA 292153Z 00000KT 10SM BKN080 14/M03 A2980 RMK AO2 SLP098 T01441033=
202303292053 METAR KSEA 292053Z 31004KT 10SM BKN080 13/M02 A2982 RMK AO2 SLP104 T01331017 57003=
202303291953 METAR KSEA 291953Z 32005KT 10SM BKN080 12/M02 A2982 RMK AO2 SLP105 T01221022=
202303291853 METAR KSEA 291853Z 02009KT 10SM BKN080 12/M02 A2982 RMK AO2 SLP105 T01221017=
202303291753 METAR KSEA 291753Z 03008KT 10SM BKN085 11/M01 A2983 RMK AO2 SLP107 T01111006 10111 20050 55001=
202303291653 METAR KSEA 291653Z 02011KT 10SM SCT090 11/M01 A2983 RMK AO2 SLP106 T01061006=
202303291553 METAR KSEA 291553Z 01011KT 10SM BKN070 BKN100 09/M01 A2983 RMK AO2 SLP108 T00941006=
202303291453 METAR KSEA 291453Z 36007KT 10SM SCT110 SCT220 07/M02 A2983 RMK AO2 SLP109 T00671017 53012=
202303291353 METAR KSEA 291353Z 36006KT 10SM SCT110 SCT220 05/M02 A2981 RMK AO2 SLP102 T00501017=
202303291253 METAR KSEA 291253Z 00000KT 10SM FEW110 07/M03 A2980 RMK AO2 SLP098 T00721033=
202303291153 METAR KSEA 291153Z 04004KT 10SM FEW110 06/M03 A2980 RMK AO2 SLP097 T00611028 10106 20061 55005=
202303291053 METAR KSEA 291053Z 07005KT 10SM FEW110 08/M03 A2979 RMK AO2 SLP095 T00781028=
202303290953 METAR KSEA 290953Z 08005KT 10SM SCT110 08/M02 A2980 RMK AO2 SLP099 T00831022=
202303290853 METAR KSEA 290853Z 07006KT 10SM BKN110 09/M02 A2981 RMK AO2 SLP101 T00891017 56004=
202303290753 METAR KSEA 290753Z 09005KT 10SM BKN110 09/M01 A2981 RMK AO2 SLP101 T00941011 401500094=
202303290653 METAR KSEA 290653Z 10007KT 10SM BKN100 10/M02 A2982 RMK AO2 SLP104 T01001017=
202303290553 METAR KSEA 290553Z 12007KT 10SM OVC095 11/M02 A2982 RMK AO2 SLP105 T01061022 10133 20106 50008=
202303290453 METAR KSEA 290453Z 11008KT 10SM OVC075 12/M03 A2983 RMK AO2 SLP106 T01171028=
202303290353 METAR KSEA 290353Z 13008G15KT 10SM OVC070 12/M04 A2982 RMK AO2 SLP102 T01221039=
202303290253 METAR KSEA 290253Z 05005KT 10SM OVC080 12/M05 A2980 RMK AO2 SLP096 T01221050 53011=
202303290153 METAR KSEA 290153Z 04007KT 10SM FEW040 BKN080 13/M05 A2979 RMK AO2 SLP093 T01281050=
202303290053 METAR KSEA 290053Z 03010KT 10SM FEW040 BKN085 13/M06 A2977 RMK AO2 SLP088 T01331056=
202303282353 METAR KSEA 282353Z 08008KT 10SM FEW040 BKN100 BKN200 13/M06 A2977 RMK AO2 SLP085 T01331056 10150 20122 57003=
202303282253 METAR KSEA 282253Z 10011G22KT 10SM FEW040 BKN110 BKN220 14/M06 A2977 RMK AO2 PK WND 09031/2155 SLP087 T01391061=
202303282153 METAR KSEA 282153Z 09018G27KT 10SM FEW040 BKN110 BKN220 14/M07 A2977 RMK AO2 PK WND 09027/2153 SLP087 T01391067=
202303282053 METAR KSEA 282053Z 11015G23KT 10SM FEW030 SCT120 BKN220 15/M07 A2977 RMK AO2 PK WND 08027/2014 SLP088 T01501072 56010=
202303281953 METAR KSEA 281953Z 11015G21KT 10SM FEW030 FEW100 BKN200 14/M07 A2978 RMK AO2 SLP091 T01441067=
202303281853 METAR KSEA 281853Z 07015G22KT 10SM FEW030 FEW100 BKN200 13/M07 A2979 RMK AO2 PK WND 08027/1809 SLP093 T01331072=
202303281753 METAR KSEA 281753Z 04009KT 10SM FEW100 BKN200 12/M04 A2980 RMK AO2 SLP099 T01171044 10117 20094 56010=
202303281653 METAR KSEA 281653Z 03008KT 10SM FEW100 BKN200 11/M04 A2981 RMK AO2 SLP103 T01061039=
202303281553 METAR KSEA 281553Z 02007KT 10SM CLR 09/M05 A2982 RMK AO2 SLP103 T00941050=
202303281453 METAR KSEA 281453Z 09012G26KT 10SM SCT100 BKN200 10/M06 A2983 RMK AO2 PK WND 07028/1434 SLP109 T01001061 58002=
202303281353 METAR KSEA 281353Z 10013G22KT 10SM OVC100 10/M07 A2984 RMK AO2 SLP109 T01001067=
202303281253 METAR KSEA 281253Z 09013KT 10SM BKN100 10/M07 A2984 RMK AO2 SLP111 T01001072=
202303281153 METAR KSEA 281153Z 09012G18KT 10SM BKN095 10/M08 A2984 RMK AO2 PK WND 09028/1054 SLP111 T01001078 10111 20100 58015=
202303281053 METAR KSEA 281053Z 10016G23KT 10SM OVC110 11/M08 A2986 RMK AO2 SLP117 T01061078=
202303280953 METAR KSEA 280953Z 10013G24KT 10SM OVC100 11/M08 A2987 RMK AO2 SLP122 T01111083=
202303280853 METAR KSEA 280853Z 09013G22KT 10SM BKN120 11/M08 A2989 RMK AO2 SLP126 T01111083 58021=
202303280753 METAR KSEA 280753Z 08011KT 10SM BKN140 11/M08 A2991 RMK AO2 SLP133 T01061083 401500000=
202303280653 METAR KSEA 280653Z 08012G21KT 10SM BKN160 11/M08 A2993 RMK AO2 SLP142 T01061083=
202303280553 METAR KSEA 280553Z 06010KT 10SM SCT220 10/M08 A2995 RMK AO2 SLP148 T01001083 10144 20100 56023=
202303280453 METAR KSEA 280453Z 06009KT 10SM SCT200 11/M08 A2996 RMK AO2 SLP154 T01061083=
202303280353 METAR KSEA 280353Z 08010G18KT 10SM SCT200 11/M07 A2999 RMK AO2 SLP163 T01061072=
202303280253 METAR KSEA 280253Z 10010KT 10SM FEW100 BKN200 11/M06 A3001 RMK AO2 SLP172 T01111061 56013=
202303280153 METAR KSEA 280153Z 10010G18KT 10SM FEW060 FEW095 BKN200 12/M08 A3003 RMK AO2 SLP176 T01221083=
202303280053 METAR KSEA 280053Z 10014G21KT 10SM FEW060 SCT095 BKN250 13/M08 A3004 RMK AO2 SLP181 T01331078=
202303272353 METAR KSEA 272353Z 14012G17KT 10SM FEW040 SCT095 BKN250 14/M08 A3005 RMK AO2 SLP185 VIRGA S T01391078 10150 20072 56029=
202303272253 METAR KSEA 272253Z VRB03KT 10SM FEW035 SCT080 BKN250 14/M01 A3008 RMK AO2 SLP194 T01391006=
202303272153 METAR KSEA 272153Z 31009KT 10SM FEW030 SCT250 13/01 A3010 RMK AO2 SLP202 T01280006=
202303272053 METAR KSEA 272053Z 33008KT 10SM FEW030 SCT250 13/M01 A3014 RMK AO2 SLP215 T01281011 58028=
202303271953 METAR KSEA 271953Z 35010G14KT 10SM FEW030 SCT250 11/M01 A3018 RMK AO2 SLP228 T01111011=
202303271853 METAR KSEA 271853Z 36008KT 10SM FEW015 BKN250 09/M01 A3021 RMK AO2 SLP238 T00941011=
202303271753 METAR KSEA 271753Z 01010KT 10SM FEW010 BKN250 08/M01 A3022 RMK AO2 SLP244 T00781006 10078 20000 56013=
202303271653 METAR KSEA 271653Z 03008KT 10SM FEW010 BKN250 06/00 A3024 RMK AO2 SLP247 T00610000=
202303271553 METAR KSEA 271553Z 05007KT 10SM FEW010 BKN250 03/01 A3025 RMK AO2 SLP253 T00330006=
202303271453 METAR KSEA 271453Z 02005KT 10SM FEW010 BKN250 02/00 A3026 RMK AO2 SLP258 T00220000 56011=
202303271353 METAR KSEA 271353Z 04003KT 10SM SCT250 01/M02 A3027 RMK AO2 SLP260 T00061017=
202303271253 METAR KSEA 271253Z 14003KT 10SM SCT250 02/M01 A3028 RMK AO2 SLP263 T00171011=
202303271153 METAR KSEA 271153Z 00000KT 10SM BKN220 02/M01 A3030 RMK AO2 SLP268 T00171011 10039 20011 58007=
202303271053 METAR KSEA 271053Z 13004KT 10SM SCT250 02/M01 A3031 RMK AO2 SLP272 T00171011=
202303270953 METAR KSEA 270953Z 13004KT 10SM FEW025 02/M01 A3032 RMK AO2 SLP275 T00171011=
202303270853 METAR KSEA 270853Z 15005KT 10SM FEW025 03/M01 A3032 RMK AO2 SLP275 T00281006 51001=
202303270753 METAR KSEA 270753Z 18004KT 10SM FEW025 02/M01 A3032 RMK AO2 SLP276 T00221006 401000022=
202303270653 METAR KSEA 270653Z 14005KT 10SM FEW025 03/00 A3032 RMK AO2 SLP276 T00330000=
202303270553 METAR KSEA 270553Z 14006KT 10SM FEW025 04/00 A3031 RMK AO2 SLP275 T00390000 10094 20039 51008=
202303270453 METAR KSEA 270453Z 15006KT 10SM FEW021 04/00 A3031 RMK AO2 SLP274 T00440000=
202303270353 METAR KSEA 270353Z 16008KT 10SM FEW021 FEW150 04/01 A3030 RMK AO2 SLP270 T00440006=
202303270253 METAR KSEA 270253Z 20008KT 10SM FEW021 FEW150 06/01 A3029 RMK AO2 SLP266 T00560011 53004=
202303270153 METAR KSEA 270153Z 20012KT 10SM FEW021CB BKN150 07/01 A3028 RMK AO2 SLP264 CB W MOV N T00670011=
202303270053 METAR KSEA 270053Z 25011G18KT 10SM FEW027 SCT050 BKN150 09/01 A3028 RMK AO2 SLP262 T00890011=
202303262353 METAR KSEA 262353Z 26011KT 10SM FEW027 BKN050 09/01 A3027 RMK AO2 SLP260 SHRA SE T00940006 10100 20056 55004=
202303262253 METAR KSEA 262253Z 25009G17KT 10SM SCT027 09/M01 A3027 RMK AO2 SLP260 T00891006=
202303262153 METAR KSEA 262153Z 20012KT 10SM SCT027 09/00 A3028 RMK AO2 SLP261 T00890000=
202303262056 SPECI KSEA 262056Z 25006KT 10SM SCT021 BKN033 08/01 A3029 RMK AO2 T00830011=
202303262053 METAR KSEA 262053Z 10SM SCT021 BKN033 08/01 A3029 RMK AO2 SLP265 T00830011 58004=
202303261953 METAR KSEA 261953Z 22009KT 10SM FEW020 SCT033 BKN055 07/01 A3030 RMK AO2 SLP267 T00720011=
202303261853 METAR KSEA 261853Z VRB04KT 10SM FEW020 BKN030 BKN055 07/M01 A3029 RMK AO2 SLP267 T00721006=
202303261753 METAR KSEA 261753Z VRB05KT 10SM FEW027 SCT036 BKN050 06/M01 A3030 RMK AO2 SLP270 T00611006 10067 20022 53007=
202303261653 METAR KSEA 261653Z VRB04KT 10SM FEW010 SCT038 OVC050 05/00 A3029 RMK AO2 SLP268 T00500000=
202303261553 METAR KSEA 261553Z 00000KT 10SM FEW010 BKN033 OVC046 04/00 A3029 RMK AO2 SLP265 T00440000=
202303261453 METAR KSEA 261453Z 16003KT 10SM FEW010 BKN028 OVC036 03/00 A3028 RMK AO2 SLP263 T00330000 53002=
202303261353 METAR KSEA 261353Z 14005KT 10SM FEW017 BKN023 OVC034 03/00 A3027 RMK AO2 SLP261 T00280000=
202303261253 METAR KSEA 261253Z 19005KT 10SM FEW009 BKN024 03/00 A3027 RMK AO2 SLP260 T00280000=
202303261234 SPECI KSEA 261234Z 21007KT 10SM FEW009 BKN024 OVC034 03/01 A3028 RMK AO2 T00280006=
202303261227 SPECI KSEA 261227Z 20007KT 10SM SCT024 OVC034 03/01 A3027 RMK AO2 T00280006=
202303261153 METAR KSEA 261153Z 21009KT 10SM FEW010 BKN024 BKN030 03/01 A3027 RMK AO2 SLP260 T00330006 10044 20022 53004=
202303261144 SPECI KSEA 261144Z 20008KT 10SM SCT010 BKN026 03/01 A3027 RMK AO2 T00280006=
202303261107 SPECI KSEA 261107Z 19007KT 10SM FEW013 SCT030 03/00 A3027 RMK AO2 T00280000=
202303261053 METAR KSEA 261053Z 19008KT 10SM BKN012 OVC030 03/00 A3027 RMK AO2 SLP257 T00280000=
202303261032 SPECI KSEA 261032Z 18010KT 10SM OVC012 03/00 A3026 RMK AO2 T00330000=
202303260953 METAR KSEA 260953Z 19009KT 10SM OVC015 04/01 A3027 RMK AO2 SLP257 T00390006=
202303260853 METAR KSEA 260853Z 20009KT 10SM FEW013 OVC024 04/01 A3026 RMK AO2 SLP256 T00390006 52004=
202303260753 METAR KSEA 260753Z 18007KT 10SM OVC025 04/01 A3026 RMK AO2 SLP255 T00440006 400890022=
202303260653 METAR KSEA 260653Z 20005KT 10SM OVC027 04/01 A3025 RMK AO2 SLP253 T00440006=
202303260553 METAR KSEA 260553Z 17009KT 10SM BKN020 04/01 A3025 RMK AO2 SLP253 T00390006 10083 20039 51008=
202303260541 SPECI KSEA 260541Z 16006KT 10SM BKN018 04/01 A3025 RMK AO2 T00440006=
202303260453 METAR KSEA 260453Z 17006KT 10SM FEW040 FEW250 04/01 A3025 RMK AO2 SLP252 T00440006=
202303260353 METAR KSEA 260353Z 23006KT 10SM FEW040 FEW250 05/01 A3024 RMK AO2 SLP249 T00500011=
202303260253 METAR KSEA 260253Z 21005KT 10SM FEW040 FEW250 06/00 A3023 RMK AO2 SLP245 T00610000 55000=
202303260153 METAR KSEA 260153Z 25005KT 10SM FEW035 SCT250 07/M02 A3022 RMK AO2 SLP243 T00721022=
202303260053 METAR KSEA 260053Z VRB06KT 10SM FEW035 SCT250 08/M03 A3022 RMK AO2 SLP242 T00831033=
202303252353 METAR KSEA 252353Z 27007KT 10SM FEW035 SCT250 08/M03 A3023 RMK AO2 SLP244 T00831028 10089 20039 56010=
202303252253 METAR KSEA 252253Z 21008G15KT 10SM FEW035 SCT250 08/M02 A3023 RMK AO2 SLP246 T00831017=
202303252153 METAR KSEA 252153Z 23010KT 10SM FEW035 SCT250 08/M02 A3024 RMK AO2 SLP250 T00781022=
202303252053 METAR KSEA 252053Z VRB05KT 10SM SCT033 BKN250 07/M02 A3026 RMK AO2 SLP255 T00721017 58006=
202303251953 METAR KSEA 251953Z 24009KT 10SM BKN030 06/M01 A3027 RMK AO2 SLP260 T00611006=
202303251853 METAR KSEA 251853Z 26009G15KT 10SM BKN020 06/M01 A3028 RMK AO2 SLP262 T00611006=
202303251753 METAR KSEA 251753Z 22007KT 10SM BKN016 04/M01 A3027 RMK AO2 SLP261 T00391011 10044 20022 51006=
202303251653 METAR KSEA 251653Z 19009KT 10SM OVC015 03/M01 A3027 RMK AO2 SLP261 T00331006=
202303251626 SPECI KSEA 251626Z 20009KT 10SM SCT013 BKN019 03/M01 A3027 RMK AO2 T00331006=
202303251553 METAR KSEA 251553Z 20009KT 10SM BKN012 OVC017 03/M01 A3027 RMK AO2 SLP259 T00281006=
202303251453 METAR KSEA 251453Z 19007KT 10SM OVC012 02/M01 A3026 RMK AO2 SLP256 T00221006 53007=
202303251353 METAR KSEA 251353Z 19006KT 10SM BKN011 OVC017 02/M01 A3025 RMK AO2 SLP253 T00221006=
202303251253 METAR KSEA 251253Z 17008KT 10SM OVC011 02/M01 A3024 RMK AO2 SLP249 T00221006=
202303251229 SPECI KSEA 251229Z 17008KT 10SM BKN011 OVC016 02/M01 A3024 RMK AO2 T00221006=
202303251153 METAR KSEA 251153Z 19007KT 10SM SCT010 OVC017 02/M01 A3024 RMK AO2 SLP248 CIG 014V020 T00221006 10039 20022 53001=
202303251143 SPECI KSEA 251143Z 18006KT 10SM SCT013 OVC017 02/M01 A3023 RMK AO2 CIG 014V020 T00221006=
202303251053 METAR KSEA 251053Z 20006KT 10SM BKN011 OVC018 02/M01 A3023 RMK AO2 SLP245 T00221006=
202303251020 SPECI KSEA 251020Z 20006KT 10SM BKN013 OVC021 03/M01 A3023 RMK AO2 T00281006=
202303250953 METAR KSEA 250953Z 18007KT 10SM SCT011 OVC020 03/M01 A3023 RMK AO2 SLP247 T00281006=
202303250853 METAR KSEA 250853Z 18008KT 10SM BKN019 OVC027 03/M01 A3023 RMK AO2 SLP247 T00281006 51006=
202303250753 METAR KSEA 250753Z 17010KT 10SM BKN019 OVC025 03/M01 A3023 RMK AO2 SLP247 T00281006 400830028=
202303250653 METAR KSEA 250653Z 18009KT 10SM BKN018 OVC028 03/00 A3022 RMK AO2 SLP243 CIG 014V021 T00330000=
202303250600 SPECI KSEA 250600Z 19007KT 10SM BKN019 BKN033 BKN120 04/00 A3022 RMK AO2 T00390000=
202303250553 METAR KSEA 250553Z 19008KT 10SM SCT019 BKN033 BKN120 04/00 A3021 RMK AO2 SLP241 SCT V BKN 60000 T00390000 10067 20039 51015=
202303250453 METAR KSEA 250453Z 22015KT 10SM FEW020 BKN033 BKN037 04/00 A3020 RMK AO2 SLP236 T00440000=
202303250412 SPECI KSEA 250412Z 22012KT 10SM FEW018 OVC033 05/01 A3019 RMK AO2 T00500006=
202303250353 METAR KSEA 250353Z 21011KT 10SM BKN020 OVC030 05/01 A3018 RMK AO2 RAE19 SLP231 P0000 T00500006=
202303250253 METAR KSEA 250253Z 22011G17KT 7SM -RA BKN022 BKN028 05/01 A3017 RMK AO2 SLP225 P0000 60000 T00500011 53008=
202303250153 METAR KSEA 250153Z 23016G22KT 10SM -RA BKN023 BKN027 OVC033 06/M01 A3015 RMK AO2 PK WND 22027/0140 RAB46 SLP220 P0000 T00611006=
202303250053 METAR KSEA 250053Z 20016KT 10SM BKN023 OVC027 06/01 A3015 RMK AO2 PK WND 23028/0008 SLP217 T00610006=
202303242353 METAR KSEA 242353Z 19018G26KT 10SM SCT019 BKN024 BKN033 07/01 A3014 RMK AO2 PK WND 21027/2319 SLP217 60000 T00670006 10083 20050 55000=
202303242326 SPECI KSEA 242326Z 21016G27KT 10SM SCT019 BKN024 BKN033 07/01 A3014 RMK AO2 PK WND 21027/2319 T00670011=
202303242253 METAR KSEA 242253Z 19019G28KT 10SM FEW016 SCT027 BKN033 BKN180 07/02 A3014 RMK AO2 PK WND 23028/2223 RAB25E33 SLP215 P0000 T00670017=
202303242153 METAR KSEA 242153Z 21013G21KT 10SM SCT028 BKN034 BKN110 BKN180 07/01 A3014 RMK AO2 PK WND 21028/2118 SLP215 T00720011=
202303242053 METAR KSEA 242053Z 22015G23KT 10SM BKN030 BKN110 07/M01 A3014 RMK AO2 PK WND 20026/2010 SLP216 VCSH T00671006 58001=
202303242041 SPECI KSEA 242041Z 22014G25KT 10SM BKN030 BKN110 07/00 A3014 RMK AO2 PK WND 20026/2010 VCSH T00670000=
202303241953 METAR KSEA 241953Z 21015G24KT 10SM BKN024 BKN250 07/00 A3015 RMK AO2 PK WND 22028/1930 SLP218 T00670000=
202303241853 METAR KSEA 241853Z 22014G22KT 10SM BKN023 BKN060 06/00 A3015 RMK AO2 SLP219 T00610000=
202303241753 METAR KSEA 241753Z 21013G22KT 10SM OVC018 05/01 A3014 RMK AO2 SLP217 60000 T00500006 10050 20028 53018=
202303241653 METAR KSEA 241653Z 20010KT 10SM BKN016 OVC022 04/01 A3012 RMK AO2 SLP210 T00440011=
202303241635 SPECI KSEA 241635Z 19010KT 10SM OVC016 04/01 A3012 RMK AO2 T00390006=
202303241627 SPECI KSEA 241627Z 20011KT 10SM OVC014 04/01 A3012 RMK AO2 T00390006=
202303241617 SPECI KSEA 241617Z 20009KT 10SM OVC016 03/01 A3012 RMK AO2 T00330006=
202303241610 SPECI KSEA 241610Z 21011KT 10SM OVC014 03/01 A3011 RMK AO2 T00330006=
202303241600 SPECI KSEA 241600Z 21011KT 10SM OVC016 03/01 A3011 RMK AO2 T00330006=
202303241553 METAR KSEA 241553Z 21009KT 10SM OVC014 03/01 A3011 RMK AO2 SLP205 T00330011=
202303241453 METAR KSEA 241453Z 20012KT 10SM OVC011 03/01 A3009 RMK AO2 SLP199 60000 T00330011 53010=
202303241407 SPECI KSEA 241407Z 22010G19KT 10SM OVC011 03/01 A3008 RMK AO2 T00330011=
202303241353 METAR KSEA 241353Z 22013G19KT 10SM OVC009 03/01 A3008 RMK AO2 SLP194 RAE37 P0000 T00330011=
202303241253 METAR KSEA 241253Z 20011KT 10SM -RA OVC009 03/01 A3007 RMK AO2 SLP191 P0000 T00330011=
202303241153 METAR KSEA 241153Z 19008KT 7SM -RA BKN009 OVC015 03/01 A3006 RMK AO2 SLP188 P0000 60000 70004 T00280011 10039 20028 56004=
202303241120 SPECI KSEA 241120Z 20012KT 8SM -RA BKN008 OVC015 03/01 A3006 RMK AO2 P0000 T00280011=
202303241053 METAR KSEA 241053Z 19012KT 8SM -RA BKN010 OVC015 03/01 A3006 RMK AO2 RAB51 SLP189 P0000 T00280011=
202303241024 SPECI KSEA 241024Z 20014KT 10SM BKN010 OVC020 03/01 A3006 RMK AO2 T00330006=
202303240953 METAR KSEA 240953Z 21010G20KT 10SM BKN015 OVC200 03/01 A3007 RMK AO2 RAE22 SLP190 CIG 013V018 P0000 T00330011=
202303240853 METAR KSEA 240853Z 21013KT 10SM -RA OVC015 04/01 A3007 RMK AO2 RAB53 SLP193 CIG 013V018 P0000 60000 T00390006 53008=
202303240753 METAR KSEA 240753Z 20012G20KT 10SM FEW014 BKN026 03/00 A3006 RMK AO2 SLP188 BKN V SCT T00330000 401000033=
202303240653 METAR KSEA 240653Z 19011KT 10SM BKN023 BKN035 04/01 A3005 RMK AO2 SLP186 T00390006=
202303240553 METAR KSEA 240553Z 19013G21KT 10SM SCT019 BKN026 OVC035 04/01 A3005 RMK AO2 RAB21E42 SLP184 P0000 60000 T00390006 10072 20039 51016=
202303240502 SPECI KSEA 240502Z 19011KT 10SM BKN017 BKN120 BKN210 04/01 A3004 RMK AO2 T00390011=
202303240453 METAR KSEA 240453Z 19011KT 10SM SCT014 SCT021 BKN120 04/01 A3004 RMK AO2 PK WND 19026/0413 SLP181 T00390006=
202303240419 SPECI KSEA 240419Z 21013G26KT 10SM SCT017 BKN120 04/01 A3002 RMK AO2 PK WND 19026/0413 T00390006=
202303240353 METAR KSEA 240353Z 19019G25KT 10SM FEW010 BKN019 BKN120 04/01 A3001 RMK AO2 PK WND 19026/0335 SLP171 T00390006=
202303240253 METAR KSEA 240253Z 20015G23KT 10SM FEW003 BKN018 BKN120 05/01 A3000 RMK AO2 PK WND 22032/0202 SLP168 60000 T00500011 53026=
202303240237 SPECI KSEA 240237Z 20014G22KT 10SM FEW003 BKN018 BKN120 04/01 A2999 RMK AO2 PK WND 22032/0202 T00440011=
202303240153 METAR KSEA 240153Z 21020G33KT 10SM BKN017 BKN048 BKN100 05/01 A2997 RMK AO2 PK WND 21035/0133 RAB11E26 SLP158 P0000 T00500011=
202303240053 METAR KSEA 240053Z 21018G29KT 10SM FEW023 BKN028 BKN043 BKN250 06/02 A2994 RMK AO2 PK WND 21034/0030 RAB08E51 SLP147 P0000 T00560022=
202303240012 SPECI KSEA 240012Z 20019G26KT 8SM -RA SCT023 BKN028 OVC034 07/01 A2993 RMK AO2 PK WND 20026/0012 RAB08 P0000 T00720011=
202303232353 METAR KSEA 232353Z 19015G22KT 10SM SCT028 OVC035 07/01 A2992 RMK AO2 SLP141 60003 T00720011 10100 20044 53008=
202303232253 METAR KSEA 232253Z 19009KT 10SM FEW025 BKN035 OVC044 07/02 A2992 RMK AO2 SLP140 T00670022=
202303232153 METAR KSEA 232153Z 22014KT 10SM SCT016 SCT055 OVC080 06/03 A2990 RMK AO2 RAE16 SLP132 P0003 T00610033=
202303232116 SPECI KSEA 232116Z 21012KT 10SM FEW013 BKN030 OVC048 05/03 A2989 RMK AO2 RAE16 P0003 T00500033=
202303232053 METAR KSEA 232053Z 23011G27KT 6SM -RA BR FEW012 BKN026 OVC034 05/02 A2990 RMK AO2 PK WND 25033/2030 WSHFT 2023 RAB1955E04B35 SLP133 P0000 60000 T00500022 55000=
202303232038 SPECI KSEA 232038Z 24018G33KT 5SM -RA BR FEW013 BKN034 OVC042 05/02 A2990 RMK AO2 PK WND 25033/2030 WSHFT 2023 RAB1955E04B35 PRESRR P0000 T00500022=
202303231953 METAR KSEA 231953Z 19013G20KT 10SM BKN035 OVC045 09/02 A2988 RMK AO2 RAE21 SLP125 P0000 T00890022=
202303231853 METAR KSEA 231853Z 21010KT 10SM -RA FEW034 BKN042 OVC065 08/02 A2989 RMK AO2 RAB53 SLP129 P0000 T00830017=
202303231753 METAR KSEA 231753Z 20011KT 10SM FEW029 SCT060 BKN100 BKN200 09/03 A2990 RMK AO2 RAE09 SLP132 P0000 60001 T00940028 10100 20061 58009=
202303231653 METAR KSEA 231653Z 19011KT 10SM -RA BKN030 OVC042 07/03 A2992 RMK AO2 RAB50 SLP138 P0000 T00720033=
202303231600 SPECI KSEA 231600Z 19010KT 10SM SCT015 BKN031 BKN060 07/03 A2992 RMK AO2 T00670033=
202303231553 METAR KSEA 231553Z 19009KT 10SM SCT015 BKN021 BKN040 07/03 A2992 RMK AO2 RAB14E38 SLP139 P0001 T00670033=
202303231453 METAR KSEA 231453Z 20009KT 10SM BKN015 BKN021 07/03 A2993 RMK AO2 SLP141 60000 T00670033 51005=
202303231423 SPECI KSEA 231423Z 20010KT 10SM SCT016 BKN023 OVC035 07/03 A2993 RMK AO2 T00670033=
202303231353 METAR KSEA 231353Z 20011KT 10SM FEW014 BKN034 07/03 A2992 RMK AO2 RAE1256 SLP140 P0000 T00670028=
202303231302 SPECI KSEA 231302Z 21011KT 10SM SCT016 BKN041 BKN070 07/03 A2992 RMK AO2 RAE1256 P0000 T00670033=
202303231253 METAR KSEA 231253Z 20010KT 10SM -RA SCT016 BKN022 OVC041 07/03 A2992 RMK AO2 RAB39 SLP137 P0000 T00670033=
202303231208 SPECI KSEA 231208Z 21009KT 10SM FEW017 BKN023 OVC095 07/03 A2992 RMK AO2 T00720033=
202303231153 METAR KSEA 231153Z 21012KT 10SM FEW015 SCT030 OVC095 07/03 A2991 RMK AO2 SLP135 T00670033 10083 20067 51002=
202303231053 METAR KSEA 231053Z 22011KT 10SM FEW033 BKN046 BKN080 07/04 A2991 RMK AO2 SLP135 T00720039=
202303230953 METAR KSEA 230953Z 20014KT 10SM SCT017 OVC055 07/03 A2991 RMK AO2 SLP135 T00720033=
202303230853 METAR KSEA 230853Z 21013G18KT 10SM BKN018 OVC060 08/03 A2991 RMK AO2 SLP133 T00780033 51010=
202303230753 METAR KSEA 230753Z 21016G21KT 10SM OVC015 08/04 A2990 RMK AO2 SLP133 T00780039 401610033=
202303230653 METAR KSEA 230653Z 21011G18KT 10SM OVC016 08/04 A2989 RMK AO2 SLP128 T00780044=
202303230643 SPECI KSEA 230643Z 20012KT 10SM BKN016 OVC095 08/04 A2989 RMK AO2 T00780044=
202303230553 METAR KSEA 230553Z 24014KT 10SM FEW017 SCT050 BKN100 08/04 A2987 RMK AO2 SLP124 T00830044 10156 20083 53026=
202303230453 METAR KSEA 230453Z 20013KT 10SM FEW050 OVC080 10/06 A2985 RMK AO2 SLP114 T01000056=
202303230353 METAR KSEA 230353Z 25005KT 10SM BKN100 12/04 A2981 RMK AO2 SLP102 T01170039=
202303230253 METAR KSEA 230253Z 22011KT 10SM FEW030 SCT070 SCT100 13/02 A2980 RMK AO2 SLP097 T01330017 53003=
202303230153 METAR KSEA 230153Z 19005KT 10SM FEW030 SCT100 14/01 A2979 RMK AO2 SLP093 T01440011=
202303230053 METAR KSEA 230053Z 20007KT 10SM FEW030 SCT100 16/02 A2978 RMK AO2 SLP093 T01560022=
202303222353 METAR KSEA 222353Z 25005KT 10SM FEW030 SCT100 16/04 A2979 RMK AO2 SLP094 T01560044 10161 20100 56004=
202303222253 METAR KSEA 222253Z 25005KT 10SM FEW030 FEW100 16/04 A2979 RMK AO2 SLP093 T01610039=
202303222153 METAR KSEA 222153Z 33005KT 10SM FEW030 FEW100 16/01 A2979 RMK AO2 SLP095 T01560006=
202303222053 METAR KSEA 222053Z VRB05KT 10SM FEW030 FEW100 14/03 A2980 RMK AO2 SLP098 T01390028 58004=
202303221953 METAR KSEA 221953Z 33006KT 10SM FEW100 12/05 A2981 RMK AO2 SLP101 T01220050=
202303221853 METAR KSEA 221853Z 28003KT 10SM FEW100 FEW250 11/04 A2981 RMK AO2 SLP102 T01110044=
202303221753 METAR KSEA 221753Z 01007KT 10SM FEW100 10/04 A2981 RMK AO2 SLP103 T01000039 10106 20033 51007=
202303221653 METAR KSEA 221653Z 03004KT 10SM FEW005 FEW100 09/03 A2981 RMK AO2 SLP101 T00890033=
202303221553 METAR KSEA 221553Z 09003KT 10SM FEW001 SCT100 07/03 A2980 RMK AO2 SLP099 T00720033=
202303221453 METAR KSEA 221453Z 11003KT 6SM BCFG FEW001 SCT060 05/03 A2979 RMK AO2 SLP096 T00500028 53008=
202303221353 METAR KSEA 221353Z 00000KT 6SM BCFG FEW001 SCT060 04/02 A2978 RMK AO2 SLP093 FG BANK NW-NE T00390022=
202303221314 SPECI KSEA 221314Z 07006KT 6SM BCFG SCT001 04/03 A2977 RMK AO2 T00440033=
202303221302 SPECI KSEA 221302Z 04006KT 4SM BCFG BKN001 04/03 A2978 RMK AO2 T00390033=
202303221253 METAR KSEA 221253Z 02008KT 4SM R16L/1400VP6000FT BCFG BKN003 04/03 A2978 RMK AO2 SLP091 T00390028=
202303221250 SPECI KSEA 221250Z 02008KT 4SM R16L/1400VP6000FT BCFG BKN003 04/03 A2978 RMK AO2=
202303221246 SPECI KSEA 221246Z 03006KT 6SM R16L/1400V1600FT BCFG SCT003 04/03 A2978 RMK AO2 VIS N 1/2 T00390033=
202303221240 SPECI KSEA 221240Z 04005KT 1/2SM R16L/1400FT FG BKN003 04/03 A2978 RMK AO2 T00390033=
202303221235 SPECI KSEA 221235Z 03004KT 1/4SM R16L/1400FT FG VV003 04/03 A2978 RMK AO2 T00390033=
202303221216 SPECI KSEA 221216Z 03004KT 1/4SM R16L/1200VP6000FT FG VV002 04/03 A2977 RMK AO2 T00440033=
202303221209 SPECI KSEA 221209Z 07004KT 1/4SM R16L/1200V1800FT FG VV001 04/04 A2977 RMK AO2 T00440039=
202303221201 SPECI KSEA 221201Z 08004KT 1/4SM R16L/1000V4000FT FG VV001 04/04 A2977 RMK AO2 T00440039=
202303221153 METAR KSEA 221153Z 09006KT 1/2SM R16L/3500VP6000FT FG BKN002 04/04 A2977 RMK AO2 SLP088 T00440039 10083 20044 51004=
202303221140 SPECI KSEA 221140Z 08006KT 1/2SM R16L/P6000FT FG BKN002 04/03 A2977 RMK AO2 T00440033=
202303221131 SPECI KSEA 221131Z 07005KT 7SM BKN002 05/03 A2977 RMK AO2 T00500033=
202303221053 METAR KSEA 221053Z 06007KT 10SM FEW002 SCT026 06/03 A2977 RMK AO2 SLP087 T00560033=
202303220953 METAR KSEA 220953Z 02004KT 8SM SCT002 06/04 A2977 RMK AO2 SLP087 T00610039=
202303220934 SPECI KSEA 220934Z 04004KT 9SM FEW002 06/04 A2976 RMK AO2 T00610044=
202303220853 METAR KSEA 220853Z 01006KT 10SM FEW030 06/04 A2976 RMK AO2 SLP083 T00610044 55000=
202303220753 METAR KSEA 220753Z 36007KT 10SM CLR 07/04 A2975 RMK AO2 SLP081 T00670044 401390056=
202303220653 METAR KSEA 220653Z 01012KT 10SM CLR 08/05 A2975 RMK AO2 SLP080 T00780050=
202303220553 METAR KSEA 220553Z 01009KT 10SM CLR 08/05 A2976 RMK AO2 SLP083 T00830050 10133 20072 53008=
202303220453 METAR KSEA 220453Z 36009KT 10SM CLR 09/05 A2974 RMK AO2 SLP079 T00890050=
202303220353 METAR KSEA 220353Z 35006KT 10SM FEW040 08/05 A2974 RMK AO2 SLP077 T00830050=
202303220253 METAR KSEA 220253Z 34008KT 10SM FEW030 FEW250 09/05 A2973 RMK AO2 SLP076 T00890050 55001=
202303220153 METAR KSEA 220153Z 35009KT 10SM FEW030 SCT250 11/05 A2973 RMK AO2 SLP074 T01060050=
202303220053 METAR KSEA 220053Z 35013KT 10SM FEW030 SCT250 12/06 A2973 RMK AO2 SLP073 T01170056=
202303212353 METAR KSEA 212353Z 34010KT 10SM FEW025 SCT250 13/06 A2973 RMK AO2 SLP076 T01330061 10139 20083 56018=
202303212253 METAR KSEA 212253Z 34012KT 10SM FEW025 SCT250 14/06 A2974 RMK AO2 SLP078 T01390056=
202303212153 METAR KSEA 212153Z 36010KT 10SM SCT024 SCT250 13/04 A2976 RMK AO2 SLP084 T01280044=
202303212053 METAR KSEA 212053Z 03010KT 10SM SCT020 BKN250 11/04 A2979 RMK AO2 SLP094 T01060044 58019=
202303212003 SPECI KSEA 212003Z 03010KT 10SM SCT018 SCT024 BKN250 11/05 A2981 RMK AO2 T01060050=
202303211953 METAR KSEA 211953Z 02011KT 10SM BKN018 BKN250 10/04 A2981 RMK AO2 SLP102 T01000044=
202303211853 METAR KSEA 211853Z 02010KT 10SM BKN016 09/04 A2983 RMK AO2 SLP107 T00940044=
202303211815 SPECI KSEA 211815Z 03010KT 10SM SCT011 BKN016 09/05 A2984 RMK AO2 T00940050=
202303211753 METAR KSEA 211753Z 04011KT 7SM SCT008 BKN012 BKN018 09/05 A2984 RMK AO2 SLP113 T00890050 10094 20056 51002=
202303211656 SPECI KSEA 211656Z 01010KT 10SM FEW008 BKN012 OVC036 09/04 A2984 RMK AO2 T00940044=
202303211653 METAR KSEA 211653Z 36010KT 10SM SCT012 BKN036 09/04 A2984 RMK AO2 SLP112 T00940044=
202303211553 METAR KSEA 211553Z 34005KT 10SM BKN032 08/04 A2985 RMK AO2 SLP114 T00780039=
202303211453 METAR KSEA 211453Z 00000KT 10SM SCT020 BKN043 BKN070 BKN250 06/03 A2984 RMK AO2 SLP112 SCT V BKN T00560033 58004=
202303211423 SPECI KSEA 211423Z 00000KT 10SM SCT017 BKN030 BKN070 06/04 A2984 RMK AO2 SCT V BKN T00610039=
202303211353 METAR KSEA 211353Z 28004KT 10SM BKN016 BKN030 07/04 A2985 RMK AO2 SLP114 T00670039=
202303211321 SPECI KSEA 211321Z 00000KT 10SM OVC015 07/04 A2985 RMK AO2 T00670039=
202303211253 METAR KSEA 211253Z 00000KT 10SM OVC013 07/04 A2985 RMK AO2 SLP115 T00720039=
202303211234 SPECI KSEA 211234Z 00000KT 10SM OVC013 07/04 A2985 RMK AO2 T00670044=
202303211213 SPECI KSEA 211213Z 21003KT 10SM SCT011 BKN034 07/04 A2985 RMK AO2 T00670044=
202303211153 METAR KSEA 211153Z 22004KT 10SM FEW011 BKN014 OVC034 07/04 A2985 RMK AO2 SLP115 60000 70004 T00720044 10089 20072 50001=
202303211135 SPECI KSEA 211135Z 19006KT 10SM FEW009 BKN014 OVC034 07/04 A2985 RMK AO2 T00720044=
202303211119 SPECI KSEA 211119Z 20006KT 10SM OVC012 07/04 A2985 RMK AO2 T00720044=
202303211053 METAR KSEA 211053Z 19005KT 10SM OVC015 07/05 A2985 RMK AO2 SLP115 T00720050=
202303210953 METAR KSEA 210953Z 22006KT 10SM OVC015 07/05 A2985 RMK AO2 SLP116 T00720050=
202303210853 METAR KSEA 210853Z 22006KT 10SM OVC015 08/05 A2985 RMK AO2 RAB21E35 SLP115 P0000 60000 T00780050 51010=
202303210840 SPECI KSEA 210840Z 22007KT 10SM OVC011 07/05 A2985 RMK AO2 RAB21E35 P0000 T00720050=
202303210811 SPECI KSEA 210811Z 21009KT 10SM OVC009 08/05 A2984 RMK AO2 T00780050=
202303210753 METAR KSEA 210753Z 21010KT 10SM FEW010 BKN013 OVC032 08/05 A2984 RMK AO2 SLP110 T00780050 401330078=
202303210740 SPECI KSEA 210740Z 21011KT 10SM BKN013 BKN018 OVC032 08/05 A2983 RMK AO2 T00780050=
202303210719 SPECI KSEA 210719Z 21008KT 10SM FEW011 SCT024 OVC030 08/05 A2983 RMK AO2 T00780050=
202303210709 SPECI KSEA 210709Z 21006KT 10SM SCT011 BKN024 OVC030 08/05 A2983 RMK AO2 T00780050=
202303210653 METAR KSEA 210653Z 21009KT 10SM BKN011 OVC022 08/05 A2983 RMK AO2 SLP109 T00830050=
202303210553 METAR KSEA 210553Z 23008KT 10SM BKN016 BKN025 OVC050 09/05 A2982 RMK AO2 SLP104 T00890050 10117 20089 51014=
202303210453 METAR KSEA 210453Z 22007KT 10SM FEW031 BKN055 09/04 A2981 RMK AO2 SLP101 T00940044=
202303210353 METAR KSEA 210353Z 23008KT 10SM BKN055 09/04 A2979 RMK AO2 SLP095 T00940044=
202303210253 METAR KSEA 210253Z 25007KT 10SM BKN040 09/05 A2978 RMK AO2 SLP090 T00940050 53012=
202303210153 METAR KSEA 210153Z 25009KT 10SM SCT038 BKN075 BKN250 11/05 A2976 RMK AO2 SLP085 T01060050=
202303210053 METAR KSEA 210053Z 25008KT 10SM FEW025 SCT070 BKN090 BKN200 11/05 A2975 RMK AO2 SLP080 T01110050=
202303210000 METAR KSEA 182353Z 32005KT 10SM FEW200 18/M03 A2994 RMK AO2 SLP144 T01831033 10183 20111 56017=
202303202353 METAR KSEA 202353Z 23007KT 10SM FEW025 SCT070 BKN090 12/05 A2974 RMK AO2 SLP078 60000 T01170050 10133 20089 53004=
202303202253 METAR KSEA 202253Z 24011KT 10SM FEW020 SCT065 BKN080 BKN200 12/04 A2974 RMK AO2 SLP077 T01220044=
202303202153 METAR KSEA 202153Z 21014G20KT 10SM FEW018 BKN060 BKN200 12/06 A2973 RMK AO2 RAB2056E06 SLP074 P0000 T01220061=
202303202110 SPECI KSEA 202110Z 25008KT 10SM FEW020 SCT029 BKN045 11/07 A2973 RMK AO2 RAB2056E06 P0000 T01060072=
202303202053 METAR KSEA 202053Z 26008G16KT 10SM FEW019 BKN028 BKN044 10/07 A2973 RMK AO2 SLP074 T01000067 51006=
202303201953 METAR KSEA 201953Z 22010KT 10SM FEW010 SCT030 BKN046 11/08 A2972 RMK AO2 SLP072 T01110078=
202303201940 SPECI KSEA 201940Z 23007G15KT 200V260 10SM FEW010 SCT030 BKN040 11/08 A2973 RMK AO2 T01060078=
202303201853 METAR KSEA 201853Z 20007KT 10SM SCT012 BKN029 OVC041 09/08 A2972 RMK AO2 SLP070 T00940078=
202303201800 SPECI KSEA 201800Z 19007KT 10SM SCT012 BKN029 OVC039 09/07 A2971 RMK AO2 T00890072=
202303201753 METAR KSEA 201753Z 20008KT 10SM SCT008 BKN012 OVC022 09/07 A2971 RMK AO2 RAE12 SLP068 P0001 60004 T00890072 10094 20078 53013=
202303201715 SPECI KSEA 201715Z 20008KT 10SM SCT008 BKN012 OVC022 09/07 A2970 RMK AO2 RAE12 P0001 T00890072=
202303201653 METAR KSEA 201653Z 19008KT 9SM -RA FEW009 BKN016 OVC023 09/07 A2969 RMK AO2 RAB33 SLP062 P0002 T00890072=
202303201646 SPECI KSEA 201646Z 18008KT 6SM -RA BR FEW009 BKN016 OVC023 09/07 A2969 RMK AO2 RAB33 P0002 T00890067=
202303201636 SPECI KSEA 201636Z 17007KT 7SM -RA BKN016 OVC025 08/07 A2969 RMK AO2 RAB33 P0001 T00830067=
202303201628 SPECI KSEA 201628Z 18007KT 7SM BKN014 BKN021 OVC028 08/07 A2969 RMK AO2 T00830067=
202303201553 METAR KSEA 201553Z 18006KT 7SM SCT016 BKN030 OVC046 08/07 A2967 RMK AO2 RAE18 SLP055 P0000 T00830067=
202303201547 SPECI KSEA 201547Z 17006KT 7SM SCT016 BKN030 OVC046 08/07 A2967 RMK AO2 RAE18 P0000=
202303201453 METAR KSEA 201453Z 18005KT 3SM -RA BR FEW003 SCT015 OVC028 08/07 A2966 RMK AO2 SLP050 VIS S 1 P0000 60001 T00780067 53012=
202303201441 SPECI KSEA 201441Z 17004KT 3SM -RA BR FEW003 SCT015 OVC028 08/07 A2966 RMK AO2 VIS S 1 P0000 T00780067=
202303201353 METAR KSEA 201353Z 00000KT 3SM -RA BR SCT002 OVC034 08/07 A2965 RMK AO2 SLP045 PCPN VRY LGT P0000 T00830067=
202303201253 METAR KSEA 201253Z 06006KT 6SM -RA BR SCT002 OVC035 08/07 A2963 RMK AO2 SLP041 VIS N-NE 1 1/2 SCT V BKN P0001 T00830067=
202303201153 METAR KSEA 201153Z 07006KT 3SM -RA BR SCT004 BKN039 OVC050 08/07 A2962 RMK AO2 SLP038 VIS N-NE 1 P0003 60010 70010 T00780067 10094 20078 58003=
202303201102 SPECI KSEA 201102Z 00000KT 3SM -RA BR FEW004 SCT033 OVC042 08/07 A2962 RMK AO2 P0000 T00830067=
202303201053 METAR KSEA 201053Z 00000KT 6SM -RA BR FEW011 BKN035 OVC044 08/07 A2963 RMK AO2 SLP038 P0003 T00830067=
202303200953 METAR KSEA 200953Z 16003KT 7SM -RA FEW030 BKN041 OVC050 08/07 A2963 RMK AO2 SLP040 P0002 T00780067=
202303200853 METAR KSEA 200853Z 00000KT 8SM -RA BKN045 OVC055 08/07 A2963 RMK AO2 SLP039 P0002 60002 T00780067 53003=
202303200753 METAR KSEA 200753Z 28003KT 8SM -RA BKN050 OVC060 08/06 A2962 RMK AO2 SLP036 P0000 T00830061 401560078=
202303200653 METAR KSEA 200653Z 30003KT 10SM -RA OVC050 09/06 A2962 RMK AO2 SLP039 P0000 T00890056=
202303200553 METAR KSEA 200553Z 26004KT 10SM -RA OVC060 09/06 A2962 RMK AO2 RAB50 SLP037 P0000 60000 T00890056 10128 20089 58001=
202303200453 METAR KSEA 200453Z VRB05KT 10SM OVC070 09/05 A2963 RMK AO2 SLP040 T00940050=
202303200353 METAR KSEA 200353Z 23005KT 10SM OVC090 11/04 A2963 RMK AO2 SLP042 T01060039=
202303200253 METAR KSEA 200253Z 23009KT 10SM OVC090 11/03 A2962 RMK AO2 SLP039 T01110028 55003=
202303200153 METAR KSEA 200153Z 22007KT 10SM OVC090 11/03 A2962 RMK AO2 SLP036 T01110033=
202303200053 METAR KSEA 200053Z 24003KT 10SM OVC100 12/04 A2962 RMK AO2 SLP036 T01220039=
202303192353 METAR KSEA 192353Z 24004KT 10SM OVC090 13/03 A2964 RMK AO2 SLP041 T01280033 10156 20106 56018=
202303192253 METAR KSEA 192253Z 26005KT 10SM OVC090 14/01 A2965 RMK AO2 SLP046 T01390011=
202303192153 METAR KSEA 192153Z 28006KT 10SM BKN110 15/01 A2967 RMK AO2 SLP052 T01500011=
202303192053 METAR KSEA 192053Z 28007KT 10SM FEW070 BKN110 15/03 A2969 RMK AO2 SLP059 T01500028 58021=
202303191953 METAR KSEA 191953Z 33006KT 10SM FEW070 BKN100 14/04 A2971 RMK AO2 SLP066 T01440044=
202303191853 METAR KSEA 191853Z 32004KT 10SM FEW075 BKN090 OVC110 12/03 A2974 RMK AO2 SLP076 T01170033=
202303191753 METAR KSEA 191753Z 33004KT 10SM FEW070 OVC100 11/03 A2975 RMK AO2 SLP080 T01110033 10117 20078 58012=
202303191653 METAR KSEA 191653Z 35006KT 10SM FEW050 BKN090 OVC110 11/01 A2976 RMK AO2 SLP084 T01060011=
202303191553 METAR KSEA 191553Z 35008KT 10SM FEW060 BKN095 OVC110 09/01 A2978 RMK AO2 SLP089 T00890011=
202303191453 METAR KSEA 191453Z 01009KT 10SM FEW070 OVC110 08/01 A2979 RMK AO2 SLP092 T00830011 58017=
202303191353 METAR KSEA 191353Z 03010KT 10SM FEW130 OVC180 09/01 A2980 RMK AO2 SLP097 T00940011=
202303191253 METAR KSEA 191253Z 02006KT 10SM FEW150 BKN200 08/02 A2983 RMK AO2 SLP106 T00830017=
202303191153 METAR KSEA 191153Z 05005KT 10SM SCT150 OVC200 09/01 A2984 RMK AO2 SLP110 T00940006 10139 20078 58016=
202303191053 METAR KSEA 191053Z 00000KT 10SM FEW110 BKN150 OVC220 08/00 A2986 RMK AO2 SLP116 T00830000=
202303190953 METAR KSEA 190953Z 00000KT 10SM SCT100 OVC220 09/M01 A2988 RMK AO2 SLP123 T00941011=
202303190853 METAR KSEA 190853Z 14005KT 10SM FEW140 OVC220 11/M01 A2989 RMK AO2 SLP126 T01061011 57009=
202303190753 METAR KSEA 190753Z 00000KT 10SM OVC220 11/M01 A2989 RMK AO2 SLP129 T01061011 401830044=
202303190653 METAR KSEA 190653Z 12009KT 10SM OVC250 13/M01 A2990 RMK AO2 SLP133 T01281011=
202303190553 METAR KSEA 190553Z 09007KT 10SM OVC250 14/M01 A2991 RMK AO2 SLP136 T01391011 10183 20133 58000=
202303190453 METAR KSEA 190453Z 09006KT 10SM SCT200 14/M01 A2992 RMK AO2 SLP138 T01391011=
202303190353 METAR KSEA 190353Z 07009KT 10SM SCT200 15/M02 A2992 RMK AO2 SLP138 T01501017=
202303190253 METAR KSEA 190253Z 03006KT 10SM SCT200 15/M02 A2991 RMK AO2 SLP137 T01501022 56008=
202303190153 METAR KSEA 190153Z 31003KT 10SM FEW200 15/M02 A2991 RMK AO2 SLP137 T01501022=
202303190053 METAR KSEA 190053Z VRB03KT 10SM FEW200 18/M02 A2993 RMK AO2 SLP140 T01781022=
202303182353 METAR KSEA 182353Z 32005KT 10SM FEW200 18/M03 A2994 RMK AO2 SLP144 T01831033 10183 20111 56017=
202303182253 METAR KSEA 182253Z 28005KT 10SM FEW200 18/M02 A2995 RMK AO2 SLP148 T01781017=
202303182153 METAR KSEA 182153Z 28007KT 10SM CLR 17/01 A2996 RMK AO2 SLP152 T01720006=
202303182053 METAR KSEA 182053Z 00000KT 10SM CLR 16/01 A2999 RMK AO2 SLP162 T01560011 58019=
202303181953 METAR KSEA 181953Z VRB04KT 10SM CLR 14/01 A3002 RMK AO2 SLP173 T01390011=
202303181853 METAR KSEA 181853Z 28006KT 10SM CLR 12/03 A3004 RMK AO2 SLP178 T01220028=
202303181753 METAR KSEA 181753Z VRB03KT 10SM CLR 11/02 A3005 RMK AO2 SLP181 T01110022 10111 20044 58009=
202303181653 METAR KSEA 181653Z 27003KT 10SM CLR 09/04 A3006 RMK AO2 SLP186 T00890039=
202303181553 METAR KSEA 181553Z 19003KT 10SM CLR 07/04 A3006 RMK AO2 SLP188 T00720039=
202303181453 METAR KSEA 181453Z 00000KT 10SM FEW120 06/03 A3008 RMK AO2 SLP192 T00560028 58003=
202303181353 METAR KSEA 181353Z 00000KT 10SM SCT130 05/01 A3008 RMK AO2 SLP193 T00500011=
202303181253 METAR KSEA 181253Z 22003KT 10SM SCT120 BKN150 07/02 A3008 RMK AO2 SLP194 T00670017=
202303181153 METAR KSEA 181153Z 12003KT 10SM BKN120 BKN150 07/02 A3009 RMK AO2 SLP194 T00670022 10122 20061 58004=
202303181053 METAR KSEA 181053Z 00000KT 10SM BKN150 07/02 A3010 RMK AO2 SLP198 T00670017=
202303180953 METAR KSEA 180953Z 17003KT 10SM BKN170 BKN200 08/01 A3010 RMK AO2 SLP199 T00780011=
202303180853 METAR KSEA 180853Z 19003KT 10SM BKN150 OVC200 08/M01 A3010 RMK AO2 SLP198 T00831011 58000=
202303180753 METAR KSEA 180753Z 13006KT 10SM BKN150 OVC200 10/M02 A3010 RMK AO2 SLP199 T01001022=
202303180653 METAR KSEA 180653Z 00000KT 10SM BKN170 OVC200 11/M02 A3010 RMK AO2 SLP200 T01061022=
202303180553 METAR KSEA 180553Z 11009KT 10SM OVC180 12/M03 A3010 RMK AO2 SLP199 T01221028 10167 20117 51004=
202303180453 METAR KSEA 180453Z 11010KT 10SM OVC160 13/M03 A3010 RMK AO2 SLP198 T01281028=
202303180353 METAR KSEA 180353Z 09005KT 10SM BKN200 13/M03 A3009 RMK AO2 SLP197 T01331028=
202303180253 METAR KSEA 180253Z 08008KT 10SM BKN200 14/M04 A3009 RMK AO2 SLP195 T01391039 53001=
202303180153 METAR KSEA 180153Z 34004KT 10SM BKN200 14/M03 A3008 RMK AO2 SLP192 T01391033=
202303180053 METAR KSEA 180053Z 30006KT 10SM BKN250 16/M04 A3008 RMK AO2 SLP192 T01561039=
202303172353 METAR KSEA 172353Z 31005KT 10SM BKN250 17/M03 A3008 RMK AO2 SLP194 T01671028 10167 20111 56013=
202303172253 METAR KSEA 172253Z 26006KT 10SM BKN250 16/M04 A3009 RMK AO2 SLP196 T01611044=
202303172153 METAR KSEA 172153Z 24005KT 10SM BKN250 17/M04 A3011 RMK AO2 SLP202 T01671039=
202303172053 METAR KSEA 172053Z 00000KT 10SM BKN250 16/M02 A3012 RMK AO2 SLP207 T01611017 58009=
202303171953 METAR KSEA 171953Z 28003KT 10SM BKN250 13/M01 A3013 RMK AO2 SLP212 T01331006=
202303171853 METAR KSEA 171853Z 28005KT 10SM BKN250 12/02 A3014 RMK AO2 SLP215 T01220017=
202303171753 METAR KSEA 171753Z 28004KT 10SM BKN250 11/01 A3015 RMK AO2 SLP217 T01110011 53001=
202303171653 METAR KSEA 171653Z 34004KT 10SM SCT250 10/M02 A3015 RMK AO2 SLP217 T01001017=
202303171553 METAR KSEA 171553Z 36003KT 10SM CLR 06/02 A3014 RMK AO2 SLP216 T00610022 $=
202303171453 METAR KSEA 171453Z 01006KT 10SM CLR 04/00 A3015 RMK AO2 SLP217 T00440000 53003 $=
202303171353 METAR KSEA 171353Z 05003KT 10SM CLR 06/M01 A3014 RMK AO2 SLP215 T00561011 $=
202303171253 METAR KSEA 171253Z 00000KT 10SM CLR 04/01 A3014 RMK AO2 SLP215 T00390011 $=
202303171153 METAR KSEA 171153Z 33004KT 10SM CLR 04/01 A3014 RMK AO2 SLP213 T00390006 56006 $=
202303171053 METAR KSEA 171053Z 02004KT 10SM CLR 04/01 A3014 RMK AO2 SLP214 T00390006 $=
202303170953 METAR KSEA 170953Z 03005KT 10SM CLR 04/M02 A3015 RMK AO2 SLP218 T00441017 $=
202303170853 METAR KSEA 170853Z 33005KT 10SM CLR 04/01 A3016 RMK AO2 SLP219 T00440006 51004 $=
202303170753 METAR KSEA 170753Z 07004KT 10SM FEW250 07/M03 A3015 RMK AO2 SLP218 T00721033 $=
202303170653 METAR KSEA 170653Z 03004KT 10SM SCT240 08/M02 A3015 RMK AO2 SLP216 T00781017 $=
202303170553 METAR KSEA 170553Z 36005KT 10SM BKN240 07/M02 A3014 RMK AO2 SLP216 T00721017 53005 $=
202303170453 METAR KSEA 170453Z 05007KT 10SM SCT250 08/M01 A3013 RMK AO2 SLP212 T00831011 $=
202303170353 METAR KSEA 170353Z 06007KT 10SM SCT250 09/M01 A3013 RMK AO2 SLP212 T00941011 $=
202303170253 METAR KSEA 170253Z 04008KT 10SM BKN250 10/01 A3013 RMK AO2 SLP210 T01000006 55007 $=
202303170153 METAR KSEA 170153Z 04008KT 10SM BKN250 10/02 A3012 RMK AO2 SLP208 T01000017 $=
202303170053 METAR KSEA 170053Z 01011KT 10SM BKN250 11/01 A3013 RMK AO2 SLP211 T01110011 $=
202303162353 METAR KSEA 162353Z 36009KT 10SM BKN250 12/01 A3015 RMK AO2 SLP217 T01220011 56021 $=
202303162253 METAR KSEA 162253Z 34012KT 10SM BKN250 12/00 A3017 RMK AO2 SLP224 T01170000 $=
202303162153 METAR KSEA 162153Z 33009KT 10SM BKN250 12/00 A3018 RMK AO2 SLP230 T01170000 $=
202303162053 METAR KSEA 162053Z 36009KT 10SM BKN250 12/M01 A3021 RMK AO2 SLP239 T01221011 56017 $=
202303161953 METAR KSEA 161953Z 35011KT 10SM BKN250 11/M02 A3023 RMK AO2 SLP244 T01061017=
202303161853 METAR KSEA 161853Z 01011KT 10SM BKN250 09/M02 A3024 RMK AO2 SLP249 T00891022=
202303161753 METAR KSEA 161753Z 01009KT 10SM BKN250 07/M01 A3026 RMK AO2 SLP255 T00721011 10072 20011 57003=
202303161653 METAR KSEA 161653Z 02012KT 10SM FEW015 BKN250 05/M01 A3026 RMK AO2 SLP257 T00501011=
202303161553 METAR KSEA 161553Z 02011KT 10SM FEW015 BKN250 03/M01 A3027 RMK AO2 SLP259 T00281011=
202303161453 METAR KSEA 161453Z 01011KT 10SM BKN250 02/M02 A3027 RMK AO2 SLP260 T00171017 55002=
202303161353 METAR KSEA 161353Z 02011KT 10SM FEW250 01/M02 A3027 RMK AO2 SLP259 T00111017=
202303161253 METAR KSEA 161253Z 02009KT 10SM CLR 02/M01 A3027 RMK AO2 SLP260 T00171011=
202303161153 METAR KSEA 161153Z 04009KT 10SM CLR 02/M01 A3028 RMK AO2 SLP261 T00171006 10061 20006 58004=
202303161053 METAR KSEA 161053Z 00000KT 10SM CLR 02/M01 A3028 RMK AO2 SLP261 T00171011=
202303160953 METAR KSEA 160953Z 00000KT 10SM CLR 02/M01 A3029 RMK AO2 SLP266 T00221006=
202303160853 METAR KSEA 160853Z 01005KT 10SM CLR 03/M01 A3029 RMK AO2 SLP265 T00281006 50000=
202303160753 METAR KSEA 160753Z 04005KT 10SM FEW060 04/00 A3029 RMK AO2 SLP266 T00440000 401060039=
202303160653 METAR KSEA 160653Z 05005KT 10SM BKN060 06/00 A3029 RMK AO2 SLP266 T00560000=
202303160553 METAR KSEA 160553Z 04005KT 10SM BKN050 06/M01 A3029 RMK AO2 SLP265 T00561006 10106 20056 51010=
202303160453 METAR KSEA 160453Z 04008KT 10SM SCT050 07/M01 A3028 RMK AO2 SLP263 T00721006=
202303160353 METAR KSEA 160353Z 03008KT 10SM CLR 07/M01 A3027 RMK AO2 SLP259 T00721006=
202303160253 METAR KSEA 160253Z 04009KT 10SM FEW043 08/M01 A3026 RMK AO2 SLP254 T00781006 51009=
202303160153 METAR KSEA 160153Z 02006KT 10SM FEW040 SCT085 09/M02 A3025 RMK AO2 SLP252 T00891017=
202303160053 METAR KSEA 160053Z 28004KT 10SM FEW030 BKN085 10/M04 A3024 RMK AO2 SLP249 T01001039=
202303152353 METAR KSEA 152353Z 25007KT 10SM FEW030 BKN085 11/M03 A3023 RMK AO2 SLP245 T01061033 10106 20061 53005=
202303152253 METAR KSEA 152253Z 18006KT 10SM SCT030 BKN085 10/M02 A3022 RMK AO2 SLP243 T01001017=
202303152153 METAR KSEA 152153Z 21007KT 10SM SCT030 10/M01 A3022 RMK AO2 SLP240 T01001011=
202303152053 METAR KSEA 152053Z 00000KT 10SM SCT030 08/M01 A3022 RMK AO2 SLP240 T00781006 51016=
202303151953 METAR KSEA 151953Z 16007KT 10SM SCT030 08/00 A3020 RMK AO2 SLP237 T00830000=
202303151853 METAR KSEA 151853Z 13008KT 090V150 10SM SCT024 BKN030 08/00 A3019 RMK AO2 SLP233 T00780000=
202303151753 METAR KSEA 151753Z 13006KT 10SM SCT020 06/01 A3017 RMK AO2 SLP224 T00610006 10067 20039 51030=
202303151653 METAR KSEA 151653Z VRB06KT 10SM FEW015 SCT032 06/01 A3014 RMK AO2 SLP215 T00560006=
202303151636 SPECI KSEA 151636Z 16007KT 10SM SCT015 BKN032 05/01 A3013 RMK AO2 T00500006=
202303151553 METAR KSEA 151553Z VRB06KT 10SM BKN015 BKN032 04/01 A3011 RMK AO2 SLP206 T00440006=
202303151505 SPECI KSEA 151505Z 00000KT 10SM SCT013 SCT023 OVC033 04/01 A3008 RMK AO2 T00440011=
202303151453 METAR KSEA 151453Z 00000KT 10SM BKN013 04/01 A3008 RMK AO2 SLP193 T00440006 51045=
202303151353 METAR KSEA 151353Z 23006KT 10SM BKN013 OVC019 04/01 A3004 RMK AO2 SLP181 T00440006=
202303151253 METAR KSEA 151253Z 25011KT 10SM OVC018 04/01 A2999 RMK AO2 SLP163 T00440006=
202303151153 METAR KSEA 151153Z 21011KT 10SM OVC015 05/02 A2994 RMK AO2 SLP148 T00500017 10067 20044 51028=
202303151053 METAR KSEA 151053Z 20011KT 10SM OVC020 05/01 A2992 RMK AO2 SLP139 T00500011=
202303150953 METAR KSEA 150953Z 19009KT 10SM BKN020 BKN028 OVC080 05/01 A2990 RMK AO2 SLP131 T00500011=
202303150904 SPECI KSEA 150904Z 19010KT 10SM BKN016 04/01 A2987 RMK AO2 T00440011=
202303150853 METAR KSEA 150853Z 18012KT 10SM FEW016 BKN045 04/01 A2986 RMK AO2 SLP119 T00440011 53028=
202303150753 METAR KSEA 150753Z 21012KT 10SM FEW065 05/01 A2982 RMK AO2 SLP106 T00500011 401060011=
202303150653 METAR KSEA 150653Z 22008KT 10SM SCT065 BKN080 BKN120 06/01 A2980 RMK AO2 SLP099 T00560011=
202303150553 METAR KSEA 150553Z 23004KT 10SM BKN070 OVC085 07/00 A2978 RMK AO2 SLP091 T00670000 10106 20061 53030=
202303150453 METAR KSEA 150453Z 22007KT 10SM OVC085 07/M01 A2974 RMK AO2 SLP080 T00721006=
202303150353 METAR KSEA 150353Z 24006KT 10SM SCT070 BKN085 07/M01 A2971 RMK AO2 SLP068 T00721011=
202303150253 METAR KSEA 150253Z 25003KT 10SM FEW030 BKN075 08/M03 A2969 RMK AO2 SLP061 T00831028 53002=
202303150153 METAR KSEA 150153Z 26004KT 10SM FEW030 SCT080 SCT250 09/M03 A2967 RMK AO2 SLP056 T00891033=
202303150053 METAR KSEA 150053Z 30006KT 10SM FEW030 SCT250 10/M02 A2967 RMK AO2 SLP056 T01001022=
202303142353 METAR KSEA 142353Z 00000KT 10SM FEW030 SCT250 10/M03 A2968 RMK AO2 SLP058 T01001028 10106 20067 56026=
202303142253 METAR KSEA 142253Z 26008KT 10SM FEW030 SCT140 SCT250 10/M03 A2970 RMK AO2 SLP065 T01001028=
202303142153 METAR KSEA 142153Z VRB05KT 10SM FEW025 SCT140 BKN250 09/M03 A2973 RMK AO2 SLP074 T00941028=
202303142053 METAR KSEA 142053Z 27005KT 10SM SCT025 BKN220 09/M03 A2976 RMK AO2 SLP084 T00941028 58027=
202303141953 METAR KSEA 141953Z 27005KT 10SM FEW020 FEW070 BKN220 09/M02 A2979 RMK AO2 SLP096 T00891017=
202303141853 METAR KSEA 141853Z VRB03KT 10SM FEW015 FEW070 SCT170 BKN220 08/M02 A2982 RMK AO2 SLP104 T00831017=
202303141753 METAR KSEA 141753Z VRB05KT 10SM FEW015 FEW070 SCT170 07/M01 A2984 RMK AO2 SLP112 T00671011 10067 20011 58016=
202303141653 METAR KSEA 141653Z VRB06KT 10SM FEW001 FEW050 SCT080 BKN170 04/M01 A2986 RMK AO2 SLP120 CCSL SE-S T00441011=
202303141633 SPECI KSEA 141633Z 15005KT 10SM FEW001 FEW050 SCT080 BKN170 04/M01 A2987 RMK AO2 CCSL SE-S T00441006=
202303141553 METAR KSEA 141553Z 17004KT 10SM FEW010 FEW046 SCT080 BKN180 04/M01 A2988 RMK AO2 SLP126 ACSL SE CCSL E-S T00441006=
202303141453 METAR KSEA 141453Z 15004KT 10SM FEW003 FEW046 SCT080 BKN180 02/M01 A2988 RMK AO2 SLP128 ACSL SE CCSL OHD T00171011 56006=
202303141430 SPECI KSEA 141430Z 15005KT 10SM FEW003 FEW046 SCT180 02/M01 A2988 RMK AO2 CCSL N T00221006=
202303141353 METAR KSEA 141353Z 15007KT 10SM FEW040 SCT080 SCT180 03/00 A2988 RMK AO2 SLP129 T00280000=
202303141253 METAR KSEA 141253Z 18003KT 10SM FEW031 FEW040 SCT049 02/M01 A2989 RMK AO2 SLP132 T00171006=
202303141153 METAR KSEA 141153Z 10003KT 10SM FEW027 SCT040 SCT049 03/00 A2990 RMK AO2 RAE02 SLP134 P0000 60000 70028 T00280000 10044 20022 50000=
202303141132 SPECI KSEA 141132Z 17006KT 10SM FEW015 BKN027 02/00 A2990 RMK AO2 RAE02 P0000 T00220000=
202303141053 METAR KSEA 141053Z 18008KT 10SM -RA FEW015 SCT026 BKN200 03/01 A2990 RMK AO2 RAB52 SLP136 P0000 T00330006=
202303140953 METAR KSEA 140953Z 20015KT 10SM FEW015 SCT028 03/01 A2991 RMK AO2 SLP138 T00330006=
202303140853 METAR KSEA 140853Z 17010KT 10SM FEW013 BKN028 03/01 A2990 RMK AO2 SLP134 T00330006 51019=
202303140842 SPECI KSEA 140842Z 18011KT 10SM SCT013 BKN026 03/01 A2990 RMK AO2 T00330006=
202303140813 SPECI KSEA 140813Z 17011KT 10SM SCT023 03/01 A2989 RMK AO2 T00330006=
202303140753 METAR KSEA 140753Z 18009KT 10SM FEW013 BKN025 03/01 A2989 RMK AO2 SLP129 T00330006 400890028=
202303140746 SPECI KSEA 140746Z 17010KT 10SM FEW013 BKN025 03/01 A2988 RMK AO2 T00330006=
202303140711 SPECI KSEA 140711Z 18008KT 10SM FEW017 FEW022 SCT031 03/01 A2988 RMK AO2 T00330006=
202303140653 METAR KSEA 140653Z 18010KT 10SM FEW017 BKN022 BKN044 04/01 A2987 RMK AO2 SLP123 T00390006=
202303140644 SPECI KSEA 140644Z 19010KT 10SM FEW017 BKN022 BKN027 04/01 A2987 RMK AO2 T00390006=
202303140553 METAR KSEA 140553Z 21008G17KT 10SM FEW027 04/00 A2985 RMK AO2 SLP115 T00390000 10078 20033 53024=
202303140453 METAR KSEA 140453Z 20009G17KT 10SM FEW031 04/01 A2982 RMK AO2 SLP108 T00390006=
202303140353 METAR KSEA 140353Z 22011KT 10SM FEW034 SCT100 04/01 A2979 RMK AO2 SLP098 T00440006=
202303140253 METAR KSEA 140253Z 21011G20KT 10SM SCT034 SCT100 06/00 A2977 RMK AO2 SLP090 T00560000 53015=
202303140153 METAR KSEA 140153Z 20010KT 10SM SCT025 SCT050 07/01 A2975 RMK AO2 SLP082 T00670006=
202303140053 METAR KSEA 140053Z 19011G20KT 10SM SCT024 SCT060 08/03 A2974 RMK AO2 SLP078 T00780028=
202303132353 METAR KSEA 132353Z 18011G19KT 10SM FEW020 SCT060 SCT100 07/03 A2973 RMK AO2 SLP074 60004 T00720028 10078 20050 51005=
202303132253 METAR KSEA 132253Z 18016KT 10SM FEW015 SCT060 BKN090 06/05 A2972 RMK AO2 RAE20 SLP073 P0000 T00610050=
202303132153 METAR KSEA 132153Z 18013KT 8SM -RA SCT014 BKN046 06/05 A2973 RMK AO2 RAB50 SLP074 P0000 T00610050=
202303132053 METAR KSEA 132053Z 18013KT 10SM SCT012 OVC050 06/06 A2971 RMK AO2 SLP070 60004 T00610056 50005=
202303131953 METAR KSEA 131953Z 18011KT 10SM FEW010 BKN017 OVC049 06/06 A2971 RMK AO2 RAE49 SLP070 P0001 T00560056=
202303131853 METAR KSEA 131853Z 15009KT 7SM -RA SCT006 BKN013 OVC029 06/05 A2970 RMK AO2 SLP067 P0003 T00560050=
202303131840 SPECI KSEA 131840Z 17008KT 8SM -RA FEW006 BKN010 OVC015 05/05 A2970 RMK AO2 P0002 T00500050=
202303131753 METAR KSEA 131753Z 16008KT 7SM -RA FEW006 BKN018 OVC041 05/04 A2970 RMK AO2 SLP065 P0002 60024 T00500044 10067 20044 51010=
202303131653 METAR KSEA 131653Z 15009KT 10SM -RA SCT007 BKN021 OVC041 05/04 A2969 RMK AO2 RAB01 SLP060 P0001 T00500044=
202303131611 SPECI KSEA 131611Z 17013KT 10SM -RA FEW007 BKN019 OVC044 05/04 A2969 RMK AO2 RAB01 P0001 T00500044=
202303131602 SPECI KSEA 131602Z 18012KT 10SM -RA BKN019 OVC047 05/04 A2969 RMK AO2 RAB01 P0000 T00500044=
202303131553 METAR KSEA 131553Z 16011KT 10SM SCT019 BKN041 OVC055 05/04 A2969 RMK AO2 RAE49 SLP060 SCT019 V BKN P0002 T00500044=
202303131453 METAR KSEA 131453Z 17009KT 8SM -RA SCT014 OVC031 05/04 A2967 RMK AO2 SLP055 P0012 60019 T00500044 53011=
202303131429 SPECI KSEA 131429Z 18012KT 6SM RA BR SCT013 OVC028 06/06 A2967 RMK AO2 P0007 T00560056=
202303131353 METAR KSEA 131353Z 21011KT 6SM -RA BR FEW015 OVC038 06/06 A2965 RMK AO2 SLP050 P0004 T00560056=
202303131253 METAR KSEA 131253Z 21010KT 10SM -RA FEW015 OVC035 06/06 A2964 RMK AO2 SLP043 P0003 T00610061=
202303131226 SPECI KSEA 131226Z 22008KT 7SM -RA FEW015 BKN031 OVC045 06/06 A2964 RMK AO2 P0003 T00610061=
202303131153 METAR KSEA 131153Z 23011KT 7SM -RA FEW009 BKN026 OVC035 07/07 A2964 RMK AO2 PK WND 26026/1110 RAE26B48 SLP043 P0005 60015 70037 T00670067 10089 20067 53002=
202303131109 SPECI KSEA 131109Z 25018G26KT 3SM -RA FEW008 BKN020 OVC048 08/08 A2962 RMK AO2 PK WND 24026/1107 P0001 T00830078=
202303131053 METAR KSEA 131053Z 17011KT 10SM -RA SCT022 BKN032 OVC050 09/08 A2960 RMK AO2 SLP031 P0002 T00890078=
202303130953 METAR KSEA 130953Z 16006KT 10SM -RA SCT030 BKN049 OVC070 08/07 A2962 RMK AO2 SLP037 P0004 T00830072=
202303130853 METAR KSEA 130853Z 20004KT 10SM -RA BKN031 BKN045 OVC065 08/08 A2963 RMK AO2 SLP040 P0002 60004 T00780078 56014=
202303130753 METAR KSEA 130753Z 14010KT 9SM -RA SCT033 BKN042 OVC055 07/06 A2963 RMK AO2 RAB18 SLP042 P0001 T00720061 400831006=
202303130653 METAR KSEA 130653Z 12007KT 10SM FEW027 SCT034 OVC044 08/07 A2965 RMK AO2 RAE37 SLP047 P0001 T00780067=
202303130600 SPECI KSEA 130600Z 14007KT 7SM -RA SCT025 BKN035 OVC047 08/06 A2967 RMK AO2 P0000 T00780056=
202303130553 METAR KSEA 130553Z 13006KT 7SM -RA BKN026 BKN030 OVC040 07/06 A2967 RMK AO2 SLP055 P0007 60019 T00720056 10083 20061 56003=
202303130513 SPECI KSEA 130513Z 16004KT 6SM -RA BR BKN027 OVC035 08/06 A2968 RMK AO2 P0002 T00780056=
202303130453 METAR KSEA 130453Z 15005KT 8SM -RA BKN030 OVC035 08/06 A2968 RMK AO2 SLP057 P0001 T00830061=
202303130353 METAR KSEA 130353Z 13008KT 10SM -RA FEW019 SCT034 OVC041 08/06 A2967 RMK AO2 SLP056 P0002 T00830056=
202303130253 METAR KSEA 130253Z 12007KT 7SM -RA BKN033 OVC042 08/06 A2968 RMK AO2 RAE29B44 SLP059 P0005 60009 T00780056 56008=
202303130238 SPECI KSEA 130238Z 13005KT 10SM OVC031 08/06 A2968 RMK AO2 RAE29 P0004 T00780056=
202303130223 SPECI KSEA 130223Z 13006KT 9SM -RA BKN029 OVC038 07/06 A2968 RMK AO2 P0004 T00720056=
202303130202 SPECI KSEA 130202Z VRB03KT 6SM R16L/6000VP6000FT -RA BR BKN032 OVC040 07/05 A2968 RMK AO2 P0002 T00670050=
202303130153 METAR KSEA 130153Z 00000KT 2 1/2SM -RA BR BKN032 OVC040 06/05 A2969 RMK AO2 VIS 1 3/4V3 RAB12 SLP063 P0004 T00610050=
202303130053 METAR KSEA 130053Z 00000KT 10SM OVC034 07/05 A2969 RMK AO2 SLP062 T00670050=
202303122353 METAR KSEA 122353Z 16004KT 10SM OVC032 07/06 A2970 RMK AO2 RAE22 SLP067 P0000 60003 T00720056 10083 20050 56021=
202303122253 METAR KSEA 122253Z 30005KT 9SM -RA OVC030 07/05 A2973 RMK AO2 RAE23B52 SLP076 P0001 T00720050=
202303122153 METAR KSEA 122153Z VRB05KT 8SM -RA OVC034 08/05 A2974 RMK AO2 RAE05B36 SLP079 P0001 T00830050=
202303122053 METAR KSEA 122053Z 16003KT 10SM -RA FEW020 BKN044 OVC055 08/03 A2977 RMK AO2 SLP088 P0001 60001 T00830033 58016=
202303121953 METAR KSEA 121953Z 00000KT 10SM -RA FEW020 OVC055 07/03 A2979 RMK AO2 RAB45 SLP095 P0000 T00670028=
202303121853 METAR KSEA 121853Z 25006KT 10SM FEW015 SCT047 OVC060 07/03 A2980 RMK AO2 RAE05 SLP100 P0000 T00670028=
202303121753 METAR KSEA 121753Z 31003KT 10SM -RA FEW000 FEW010 SCT055 OVC070 05/02 A2981 RMK AO2 RAB41 SLP104 FG BANK W-NW P0000 60000 T00500017 10056 21006 55009=
202303121653 METAR KSEA 121653Z 06005KT 10SM FEW006 SCT070 BKN140 BKN200 06/01 A2981 RMK AO2 SLP102 T00560006=
202303121553 METAR KSEA 121553Z 36004KT 10SM FEW003 SCT140 BKN170 BKN200 03/01 A2982 RMK AO2 SLP108 T00280006=
202303121546 SPECI KSEA 121546Z 36004KT 10SM FEW003 SCT140 BKN170 BKN200 03/00 A2983 RMK AO2 T00280000=
202303121453 METAR KSEA 121453Z 01004KT 10SM SCT090 BKN170 02/M01 A2984 RMK AO2 SLP113 T00171006 58015=
202303121353 METAR KSEA 121353Z VRB03KT 10SM SCT100 03/M01 A2985 RMK AO2 SLP118 T00281011=
202303121253 METAR KSEA 121253Z 36004KT 10SM CLR 01/M03 A2987 RMK AO2 SLP125 T00061028=
202303121153 METAR KSEA 121153Z 00000KT 10SM FEW070 02/M02 A2988 RMK AO2 SLP127 T00221017 10056 20017 58015=
202303121053 METAR KSEA 121053Z 11006KT 10SM CLR 02/M01 A2990 RMK AO2 SLP134 T00221011=
202303120953 METAR KSEA 120953Z 12004KT 10SM FEW200 03/M01 A2992 RMK AO2 SLP140 T00281011=
202303120853 METAR KSEA 120853Z 15003KT 10SM FEW200 03/01 A2993 RMK AO2 SLP142 T00280006 56004=
202303120753 METAR KSEA 120753Z 12005KT 10SM CLR 04/01 A2993 RMK AO2 SLP142 T00390006 401110039=
202303120653 METAR KSEA 120653Z 10006KT 10SM CLR 05/01 A2993 RMK AO2 SLP144 T00500011=
202303120553 METAR KSEA 120553Z 00000KT 10SM FEW090 05/01 A2994 RMK AO2 SLP146 T00500006 10094 20044 52002=
202303120453 METAR KSEA 120453Z 24003KT 10SM SCT090 06/01 A2994 RMK AO2 SLP146 T00560006=
202303120353 METAR KSEA 120353Z 00000KT 10SM BKN095 06/01 A2993 RMK AO2 SLP144 T00610011=
202303120253 METAR KSEA 120253Z 29004KT 10SM BKN095 07/01 A2993 RMK AO2 SLP144 T00670011 53005=
202303120153 METAR KSEA 120153Z 30007KT 10SM SCT075 BKN100 07/02 A2993 RMK AO2 SLP142 T00720017=
202303120053 METAR KSEA 120053Z 30007KT 10SM FEW045 SCT070 BKN100 08/03 A2992 RMK AO2 SLP139 T00780028=
202303112353 METAR KSEA 112353Z 27007KT 10SM FEW045 SCT070 BKN100 10/M01 A2992 RMK AO2 SLP139 T01001006 10111 20061 56004=
202303112253 METAR KSEA 112253Z 22006KT 10SM FEW035 SCT065 BKN100 10/M01 A2992 RMK AO2 SLP140 T01001011=
202303112153 METAR KSEA 112153Z 19008KT 10SM FEW030 SCT060 BKN100 09/M01 A2992 RMK AO2 SLP141 T00941011=
202303112053 METAR KSEA 112053Z 19008KT 10SM FEW030 SCT060 BKN100 09/00 A2993 RMK AO2 SLP144 T00940000 58001=
202303111953 METAR KSEA 111953Z 21008KT 10SM SCT035 BKN055 BKN100 09/01 A2994 RMK AO2 SLP146 T00890011=
202303111853 METAR KSEA 111853Z VRB03KT 10SM FEW030 SCT055 BKN100 08/02 A2993 RMK AO2 SLP144 T00780017=
202303111753 METAR KSEA 111753Z 21005KT 10SM SCT039 BKN055 OVC100 06/02 A2994 RMK AO2 RAB24E48 SLP145 P0000 60000 T00610017 10061 20039 53010=
202303111653 METAR KSEA 111653Z 16006KT 10SM FEW038 BKN055 OVC100 06/01 A2992 RMK AO2 RAB05E35 SLP141 P0000 T00560011=
202303111553 METAR KSEA 111553Z 18005KT 10SM FEW025 BKN049 OVC100 04/01 A2991 RMK AO2 SLP139 T00440011=
202303111453 METAR KSEA 111453Z 14008KT 10SM BKN047 OVC055 04/01 A2990 RMK AO2 SLP135 RAB30E35 P0000 T00440011 53008=
202303111353 METAR KSEA 111353Z 12006KT 10SM BKN040 BKN055 OVC110 05/01 A2989 RMK AO2 SLP131 T00500011=
202303111253 METAR KSEA 111253Z 18008KT 10SM SCT050 OVC110 04/02 A2989 RMK AO2 SLP129 T00390017=
202303111153 METAR KSEA 111153Z 18007KT 10SM FEW022 SCT050 OVC120 04/02 A2988 RMK AO2 SLP127 60003 70017 T00390017 10056 20039 51014=
202303111100 SPECI KSEA 111100Z 19010KT 10SM SCT014 SCT024 OVC050 04/02 A2988 RMK AO2 T00440022=
202303111053 METAR KSEA 111053Z 19009KT 10SM SCT011 BKN024 OVC050 04/02 A2988 RMK AO2 RAB15E48 SLP125 P0003 T00440022=
202303111017 SPECI KSEA 111017Z 20010KT 5SM -RA BR SCT016 BKN023 OVC035 05/02 A2987 RMK AO2 RAB15 P0001 T00500022=
202303110953 METAR KSEA 110953Z 18009KT 10SM SCT019 BKN065 OVC120 05/02 A2986 RMK AO2 SLP120 SCT V BKN T00500022=
202303110853 METAR KSEA 110853Z 20011KT 10SM SCT013 BKN070 OVC140 05/02 A2984 RMK AO2 RAE44 SLP113 P0000 60000 T00500022 51024=
202303110845 SPECI KSEA 110845Z 19014G19KT 10SM SCT013 BKN070 OVC130 05/03 A2984 RMK AO2 RAE44 P0000 T00500028=
202303110753 METAR KSEA 110753Z 19008G17KT 10SM -RA SCT011 BKN017 OVC030 05/03 A2983 RMK AO2 RAB50 SLP108 P0000 T00500028 401000033=
202303110653 METAR KSEA 110653Z 21008KT 10SM FEW009 SCT019 OVC029 06/03 A2979 RMK AO2 RAE0556 SLP097 P0000 T00560033=
202303110553 METAR KSEA 110553Z 18008KT 10SM -RA FEW009 OVC023 05/03 A2977 RMK AO2 SLP088 P0001 60012 T00500033 10083 20050 51022=
202303110533 SPECI KSEA 110533Z 19013KT 5SM -RA BR SCT009 BKN015 OVC021 05/03 A2976 RMK AO2 P0001 T00500033=
202303110513 SPECI KSEA 110513Z 21011KT 9SM -RA BKN011 OVC020 05/03 A2976 RMK AO2 P0001 T00500033=
202303110453 METAR KSEA 110453Z 21008KT 10SM -RA BKN022 OVC027 05/03 A2975 RMK AO2 SLP083 P0003 T00500028=
202303110353 METAR KSEA 110353Z 22008KT 10SM -RA BKN030 OVC044 06/03 A2972 RMK AO2 SLP074 P0008 T00560028=
202303110253 METAR KSEA 110253Z 22012G18KT 9SM -RA SCT026 OVC034 07/02 A2970 RMK AO2 RAB50 SLP066 P0000 60000 T00670022 53029=
202303110153 METAR KSEA 110153Z 22007KT 10SM FEW027 BKN041 BKN120 BKN200 07/02 A2967 RMK AO2 RAB22E34 SLP054 P0000 T00670022=
202303110053 METAR KSEA 110053Z 22012KT 10SM FEW033 BKN050 BKN120 08/01 A2964 RMK AO2 SLP044 T00780011=
202303102353 METAR KSEA 102353Z 20009KT 10SM FEW037 BKN120 BKN200 08/01 A2961 RMK AO2 SLP036 T00830011 10100 20056 53031=
202303102253 METAR KSEA 102253Z 22014KT 10SM SCT047 BKN120 BKN200 09/00 A2958 RMK AO2 SLP024 T00890000=
202303102153 METAR KSEA 102153Z 21013KT 10SM BKN041 BKN050 BKN120 BKN200 10/M01 A2955 RMK AO2 SLP012 T01001006=
202303102053 METAR KSEA 102053Z 21009KT 10SM BKN035 BKN200 08/01 A2952 RMK AO2 SLP003 T00830011 53027=
202303101953 METAR KSEA 101953Z 21013KT 10SM FEW020 BKN031 BKN200 08/02 A2949 RMK AO2 SLP993 T00780017=
202303101934 SPECI KSEA 101934Z 20009G17KT 10SM FEW018 SCT027 BKN200 08/02 A2948 RMK AO2 T00780017=
202303101853 METAR KSEA 101853Z 21010G20KT 10SM BKN019 BKN025 BKN200 07/02 A2946 RMK AO2 SLP984 T00670017=
202303101753 METAR KSEA 101753Z 23011KT 10SM BKN018 BKN030 BKN080 06/03 A2944 RMK AO2 SLP976 60002 T00610028 10061 20033 53025=
202303101710 SPECI KSEA 101710Z 23009KT 10SM SCT012 BKN018 04/02 A2942 RMK AO2 T00440022=
202303101653 METAR KSEA 101653Z 25009KT 10SM FEW008 BKN012 05/02 A2941 RMK AO2 SLP967 T00500022=
202303101635 SPECI KSEA 101635Z 23009KT 10SM FEW008 OVC012 04/02 A2941 RMK AO2 T00440022=
202303101553 METAR KSEA 101553Z VRB05KT 10SM OVC012 04/03 A2939 RMK AO2 SLP959 T00440028=
202303101522 SPECI KSEA 101522Z 00000KT 10SM BKN014 OVC070 04/02 A2937 RMK AO2 T00390022=
202303101453 METAR KSEA 101453Z 18003KT 7SM FEW005 BKN023 OVC070 04/02 A2936 RMK AO2 RAE17 SLP951 P0002 60002 T00390022 53012=
202303101412 SPECI KSEA 101412Z 29003KT 7SM -RA FEW005 BKN023 OVC033 04/02 A2936 RMK AO2 P0002 T00390022=
202303101353 METAR KSEA 101353Z 24004KT 7SM -RA SCT030 OVC038 04/02 A2935 RMK AO2 RAE1258B46 SLP945 P0000 T00390022=
202303101253 METAR KSEA 101253Z 02011KT 9SM -RA SCT034 BKN045 OVC060 04/01 A2934 RMK AO2 RAB35 SLP942 P0000 T00390011=
202303101153 METAR KSEA 101153Z 01006KT 10SM OVC047 05/01 A2933 RMK AO2 RAE30 SLP939 P0001 60002 70002 T00500006 10089 20050 53001=
202303101132 SPECI KSEA 101132Z 09009KT 10SM BKN033 OVC044 06/00 A2932 RMK AO2 RAE30 P0001 T00610000=
202303101053 METAR KSEA 101053Z 09012G23KT 9SM -RA OVC026 06/00 A2932 RMK AO2 PK WND 11032/1000 SLP935 P0001 T00560000=
202303101029 SPECI KSEA 101029Z 08013G23KT 6SM -RA OVC026 06/M01 A2932 RMK AO2 PK WND 11032/1000 P0000 T00611006=
202303100953 METAR KSEA 100953Z 09010G18KT 10SM -RA OVC036 08/M03 A2932 RMK AO2 PK WND 12027/0925 RAB50 SLP936 P0000 T00781033=
202303100853 METAR KSEA 100853Z 09010G20KT 10SM OVC050 08/M04 A2933 RMK AO2 PK WND 08027/0811 SLP937 T00831039 56034=
202303100753 METAR KSEA 100753Z 09018G29KT 10SM OVC065 09/M04 A2934 RMK AO2 PK WND 09029/0751 SLP943 T00891044 400940006=
202303100653 METAR KSEA 100653Z 09015G23KT 10SM OVC075 08/M04 A2937 RMK AO2 PK WND 10031/0617 SLP954 T00831044=
202303100553 METAR KSEA 100553Z 10014G21KT 10SM OVC080 08/M04 A2943 RMK AO2 PK WND 10027/0529 SLP973 T00831044 10089 20078 56045=
202303100453 METAR KSEA 100453Z 09014G32KT 10SM BKN080 OVC100 08/M04 A2947 RMK AO2 PK WND 09032/0444 SLP987 T00831039=
202303100353 METAR KSEA 100353Z 10014G22KT 10SM OVC080 08/M04 A2952 RMK AO2 SLP004 T00831044=
202303100253 METAR KSEA 100253Z 12016G24KT 10SM OVC080 08/M05 A2956 RMK AO2 PK WND 09030/0154 SLP018 T00831050 58041=
202303100153 METAR KSEA 100153Z 10013G29KT 10SM OVC060 08/M05 A2961 RMK AO2 PK WND 12037/0111 SLP033 T00781050=
202303100053 METAR KSEA 100053Z 11015G24KT 10SM OVC060 08/M05 A2964 RMK AO2 SLP045 T00831050=
202303092353 METAR KSEA 092353Z 11013G20KT 10SM FEW018 OVC060 08/M05 A2968 RMK AO2 PK WND 11027/2258 SLP059 T00831050 10094 20039 58035=
202303092253 METAR KSEA 092253Z 11012KT 10SM FEW018 BKN070 OVC090 08/M04 A2973 RMK AO2 PK WND 10027/2154 SLP075 T00831044=
202303092153 METAR KSEA 092153Z 12017G24KT 10SM FEW015 SCT100 BKN150 BKN250 09/M04 A2976 RMK AO2 PK WND 12027/2123 SLP087 T00891039=
202303092053 METAR KSEA 092053Z 11012KT 10SM FEW050 SCT080 BKN150 09/M02 A2979 RMK AO2 SLP095 T00941022 58036=
202303091953 METAR KSEA 091953Z 05005KT 10SM BKN060 BKN150 BKN250 08/M02 A2983 RMK AO2 SLP111 T00781017=
202303091853 METAR KSEA 091853Z 33005KT 10SM OVC055 05/M01 A2987 RMK AO2 SLP124 T00501011=
202303091753 METAR KSEA 091753Z 32005KT 10SM OVC065 03/M01 A2990 RMK AO2 SLP132 T00331011 10044 20017 55009=
202303091653 METAR KSEA 091653Z 06008KT 10SM OVC070 03/M02 A2989 RMK AO2 SLP132 T00281017=
202303091553 METAR KSEA 091553Z 08004KT 10SM OVC070 04/M03 A2991 RMK AO2 SLP137 T00391033=
202303091453 METAR KSEA 091453Z 17003KT 10SM FEW050 OVC085 03/M03 A2992 RMK AO2 SLP142 T00281028 56009=
202303091353 METAR KSEA 091353Z 11009KT 10SM FEW050 BKN070 OVC080 03/M03 A2993 RMK AO2 SLP146 T00281033=
202303091253 METAR KSEA 091253Z 13007KT 10SM BKN070 BKN085 02/M03 A2994 RMK AO2 SLP147 T00221028=
202303091153 METAR KSEA 091153Z 11010KT 10SM OVC060 02/M02 A2995 RMK AO2 SLP151 70001 T00221017 10028 20006 58009=
202303091053 METAR KSEA 091053Z 11008KT 10SM SCT060 BKN220 02/M01 A2996 RMK AO2 SLP155 T00221011=
202303090953 METAR KSEA 090953Z 15003KT 10SM FEW090 OVC180 01/M01 A2998 RMK AO2 SLP161 T00111011=
202303090853 METAR KSEA 090853Z 10006KT 10SM FEW080 BKN150 02/M01 A2998 RMK AO2 SLP160 T00221006 58005=
202303090753 METAR KSEA 090753Z 12007KT 10SM SCT080 BKN170 02/M01 A2998 RMK AO2 SLP162 T00171006 400670006=
202303090653 METAR KSEA 090653Z 11008KT 10SM SCT060 BKN190 02/00 A2999 RMK AO2 SLP166 T00220000=
202303090553 METAR KSEA 090553Z 12007KT 10SM FEW060 SCT090 02/00 A2999 RMK AO2 SLP165 60000 T00220000 10061 20022 53002=
202303090453 METAR KSEA 090453Z 10008KT 10SM FEW060 SCT090 03/01 A2998 RMK AO2 SLP162 T00280006=
202303090353 METAR KSEA 090353Z 11009KT 10SM BKN060 OVC070 03/01 A2999 RMK AO2 RAE50 SLP164 P0000 T00280011=
202303090253 METAR KSEA 090253Z 11010KT 10SM -RA BKN033 OVC055 03/01 A2998 RMK AO2 SLP163 RAB48 P0000 60000 T00280011 53008=
202303090153 METAR KSEA 090153Z 12010KT 10SM -RA FEW012 BKN045 BKN200 03/01 A2997 RMK AO2 RAB50 SLP160 P0000 T00330011=
202303090053 METAR KSEA 090053Z 16010KT 10SM FEW035 BKN065 BKN200 05/02 A2996 RMK AO2 SLP156 T00500017=
202303082353 METAR KSEA 082353Z 00000KT 10SM FEW034 SCT065 BKN200 06/01 A2996 RMK AO2 RAE28 SLP154 P0001 60001 T00610006 10067 20039 50003=
202303082253 METAR KSEA 082253Z 07006KT 10SM -RA FEW034 OVC046 06/M01 A2996 RMK AO2 SLP154 P0000 T00561011=
202303082153 METAR KSEA 082153Z 00000KT 10SM -RA FEW033 BKN050 06/M03 A2995 RMK AO2 RAB51 SLP152 P0000 T00611033=
202303082053 METAR KSEA 082053Z VRB03KT 10SM FEW025 BKN060 BKN120 BKN200 06/01 A2995 RMK AO2 SLP151 T00610011 53002=
202303081953 METAR KSEA 081953Z 22006KT 10SM FEW025 SCT075 SCT110 BKN250 06/02 A2995 RMK AO2 SLP150 T00610017=
202303081902 SPECI KSEA 081902Z 20005KT 10SM SCT012 SCT060 BKN250 05/02 A2994 RMK AO2 T00500022=
202303081853 METAR KSEA 081853Z 24004KT 10SM BKN010 BKN060 05/02 A2994 RMK AO2 SLP149 T00500022=
202303081847 SPECI KSEA 081847Z 25005KT 10SM BKN010 BKN060 05/02 A2994 RMK AO2=
202303081753 METAR KSEA 081753Z 19003KT 10SM BKN006 BKN060 04/02 A2994 RMK AO2 SLP148 60000 T00390017 10039 20006 50003=
202303081700 SPECI KSEA 081700Z 15004KT 10SM BKN006 OVC050 03/02 A2994 RMK AO2 T00280017=
202303081653 METAR KSEA 081653Z 15004KT 10SM BKN010 OVC049 03/01 A2994 RMK AO2 RAB19E47 SLP149 P0000 T00280011=
202303081600 SPECI KSEA 081600Z 16004KT 10SM OVC010 02/01 A2994 RMK AO2 T00220006=
202303081553 METAR KSEA 081553Z 16005KT 7SM BKN008 BKN050 02/01 A2994 RMK AO2 SLP149 T00220006=
202303081453 METAR KSEA 081453Z 14004KT 5SM BR BKN008 BKN050 02/01 A2993 RMK AO2 SLP145 T00170006 51005=
202303081435 SPECI KSEA 081435Z 15004KT 2SM BR BKN005 BKN008 BKN014 02/01 A2993 RMK AO2 SFC VIS 3 T00170006=
202303081401 SPECI KSEA 081401Z 13004KT 2SM BR BKN003 BKN008 02/01 A2993 RMK AO2 SFC VIS 3 T00170006=
202303081353 METAR KSEA 081353Z 15005KT 5SM BR BKN003 BKN008 01/00 A2993 RMK AO2 SLP143 BKN003 V SCT T00110000=
202303081341 SPECI KSEA 081341Z 15005KT 3SM BR BKN003 BKN008 02/01 A2992 RMK AO2 BKN003 V SCT T00170006=
202303081329 SPECI KSEA 081329Z 15004KT 4SM BR SCT004 BKN008 OVC100 02/01 A2992 RMK AO2 T00170006=
202303081253 METAR KSEA 081253Z 17006KT 5SM BR OVC003 01/00 A2992 RMK AO2 SLP142 T00110000=
202303081222 SPECI KSEA 081222Z 00000KT 4SM BR BKN003 BKN095 01/00 A2992 RMK AO2 T00060000=
202303081207 SPECI KSEA 081207Z 18003KT 7SM SCT006 BKN100 01/00 A2992 RMK AO2 T00060000=
202303081153 METAR KSEA 081153Z 00000KT 6SM BR FEW010 BKN110 01/01 A2992 RMK AO2 SLP139 70003 T00110006 10033 20011 56008=
202303081053 METAR KSEA 081053Z 00000KT 9SM SCT110 01/M01 A2992 RMK AO2 SLP141 T00111006=
202303080953 METAR KSEA 080953Z 05008KT 10SM SCT110 03/01 A2993 RMK AO2 SLP143 T00280011=
202303080853 METAR KSEA 080853Z 06005KT 10SM FEW075 BKN100 02/01 A2994 RMK AO2 SLP147 T00220006 58012=
202303080753 METAR KSEA 080753Z 00000KT 10SM SCT075 BKN095 03/02 A2996 RMK AO2 SLP153 T00330017 401060022=
202303080653 METAR KSEA 080653Z 01005KT 10SM BKN100 03/02 A2996 RMK AO2 SLP154 T00280017=
202303080553 METAR KSEA 080553Z 01005KT 10SM FEW060 SCT250 03/01 A2998 RMK AO2 SLP160 60003 T00280011 10083 20022 50001=
202303080453 METAR KSEA 080453Z 35005KT 10SM FEW060 SCT250 03/01 A2998 RMK AO2 SLP161 T00280006=
202303080353 METAR KSEA 080353Z 00000KT 10SM SCT060 BKN250 04/01 A2998 RMK AO2 SLP161 T00440011=
202303080253 METAR KSEA 080253Z 35005KT 10SM FEW040 SCT060 BKN250 04/01 A2997 RMK AO2 RAE14 SLP159 P0000 60003 T00390011 58004=
202303080153 METAR KSEA 080153Z 25003KT 10SM -RA BKN039 BKN060 06/02 A2999 RMK AO2 RAE31B48 SLP164 P0000 T00610017=
202303080053 METAR KSEA 080053Z 25003KT 10SM -RA BKN034 BKN070 06/01 A2998 RMK AO2 SLP163 P0003 T00610011=
202303072353 METAR KSEA 072353Z 10010KT 10SM -RA BKN045 BKN075 OVC250 08/M01 A2998 RMK AO2 RAB50 SLP162 P0000 60000 T00831011 10106 20067 55008=
202303072253 METAR KSEA 072253Z 27007KT 10SM FEW025 BKN050 BKN250 09/M02 A2998 RMK AO2 SLP160 VCSH T00941022=
202303072153 METAR KSEA 072153Z 32006KT 10SM SCT025 SCT050 SCT100 BKN250 11/M01 A2999 RMK AO2 SLP164 T01061006=
202303072053 METAR KSEA 072053Z 29007KT 10SM SCT025 SCT050 SCT120 BKN250 08/01 A3001 RMK AO2 SLP170 T00830006 58008=
202303071953 METAR KSEA 071953Z 30008KT 10SM FEW025 SCT050 SCT120 BKN250 09/02 A3002 RMK AO2 SLP175 T00890017=
202303071853 METAR KSEA 071853Z 26007KT 10SM FEW020 SCT050 SCT120 BKN250 07/02 A3003 RMK AO2 SLP178 T00720022=
202303071753 METAR KSEA 071753Z 36005KT 10SM FEW010 SCT050 SCT120 BKN250 07/02 A3003 RMK AO2 SLP178 T00720017 10072 20028 51000=
202303071653 METAR KSEA 071653Z 35004KT 10SM FEW010 FEW050 SCT100 BKN250 06/02 A3003 RMK AO2 SLP178 T00560017=
202303071553 METAR KSEA 071553Z 02003KT 10SM SCT055 BKN090 BKN250 04/01 A3004 RMK AO2 SLP181 T00390011=
202303071453 METAR KSEA 071453Z 07005KT 10SM SCT055 BKN090 BKN250 03/01 A3003 RMK AO2 SLP179 T00280011 58004=
202303071353 METAR KSEA 071353Z 07004KT 10SM SCT065 BKN085 03/01 A3004 RMK AO2 SLP180 T00330011=
202303071253 METAR KSEA 071253Z 00000KT 10SM BKN070 03/01 A3004 RMK AO2 SLP181 T00280011=
202303071153 METAR KSEA 071153Z 27003KT 10SM FEW006 OVC070 03/02 A3004 RMK AO2 RAE1054 SLP182 P0000 60001 70001 T00330017 10056 20028 50002=
202303071142 SPECI KSEA 071142Z 25004KT 10SM SCT006 OVC070 03/01 A3005 RMK AO2 RAE1054 P0000 T00280011=
202303071053 METAR KSEA 071053Z 25008KT 10SM -RA OVC009 03/02 A3004 RMK AO2 RAB23 SLP182 P0000 T00330017=
202303071034 SPECI KSEA 071034Z 25007KT 10SM -RA BKN007 BKN015 OVC050 04/02 A3005 RMK AO2 RAB23 P0000 T00390017=
202303071025 SPECI KSEA 071025Z 24007KT 10SM -RA FEW010 BKN021 OVC050 04/02 A3005 RMK AO2 RAB23 P0000 T00390017=
202303070953 METAR KSEA 070953Z 24004KT 10SM OVC049 04/02 A3005 RMK AO2 SLP184 T00440022=
202303070853 METAR KSEA 070853Z 20004KT 10SM BKN049 OVC085 04/02 A3004 RMK AO2 SLP180 60001 T00390017 56001=
202303070753 METAR KSEA 070753Z 00000KT 10SM FEW038 BKN060 OVC080 05/01 A3004 RMK AO2 RAE0654 SLP180 P0000 T00500011 400941006=
202303070653 METAR KSEA 070653Z 00000KT 10SM -RA BKN040 OVC075 04/02 A3003 RMK AO2 RAB08E18B34 SLP178 P0001 T00440017=
202303070353 METAR KSEA 070353Z 13007KT 10SM SCT050 BKN075 BKN150 06/00 A3001 RMK AO2 SLP172 T00610000=
202303070253 METAR KSEA 070253Z 11008KT 10SM FEW040 SCT065 SCT150 07/M01 A3001 RMK AO2 SLP171 T00671006 53007=
202303070153 METAR KSEA 070153Z 16006KT 10SM FEW040 BKN095 BKN150 07/M01 A3000 RMK AO2 SLP167 T00721006=
202303070053 METAR KSEA 070053Z 18009KT 10SM SCT036 BKN110 BKN250 08/M01 A2999 RMK AO2 SLP165 T00781006=
202303062353 METAR KSEA 062353Z 19009KT 10SM SCT036 SCT060 BKN140 BKN250 09/M01 A2999 RMK AO2 RAE13 SLP164 P0000 60000 T00891006 10094 20039 55001=
202303062253 METAR KSEA 062253Z 24005KT 10SM -RA SCT040 BKN065 BKN250 08/01 A2999 RMK AO2 RAB50 SLP163 P0000 T00830011=
202303062153 METAR KSEA 062153Z 25007KT 10SM SCT044 BKN060 BKN250 09/01 A2998 RMK AO2 SLP162 T00940011=
202303062053 METAR KSEA 062053Z 18009G16KT 10SM SCT033 SCT070 BKN250 09/01 A2999 RMK AO2 SLP164 T00890006 58001=
202303061953 METAR KSEA 061953Z 17007KT 120V200 10SM FEW010 SCT050 SCT070 BKN200 08/01 A3000 RMK AO2 SLP168 T00780006=
202303061853 METAR KSEA 061853Z 15005KT 10SM FEW010 BKN039 BKN050 06/02 A3000 RMK AO2 SLP168 VCSH T00610017=
202303061753 METAR KSEA 061753Z 16004KT 10SM FEW010 BKN046 BKN055 04/01 A2999 RMK AO2 SLP166 VCSH T00440011 10044 21006 53014=
202303061653 METAR KSEA 061653Z 18004KT 10SM FEW010 SCT046 BKN055 03/01 A2998 RMK AO2 SLP162 T00280011=
202303061553 METAR KSEA 061553Z 11005KT 10SM FEW010 BKN050 BKN070 02/00 A2996 RMK AO2 SLP155 VIRGA T00220000=
202303061453 METAR KSEA 061453Z 00000KT 10SM FEW010 SCT070 BKN250 01/M01 A2995 RMK AO2 SLP153 T00061006 53007=
202303061353 METAR KSEA 061353Z 16004KT 10SM FEW055 SCT130 SCT240 01/M01 A2994 RMK AO2 SLP147 T00061006 $=
202303061253 METAR KSEA 061253Z 14003KT 10SM FEW055 SCT240 01/M01 A2993 RMK AO2 SLP145 T00111006 $=
202303061153 METAR KSEA 061153Z 08006KT 7SM R16L/3000VP6000FT BCFG FEW055 BKN240 01/M01 A2993 RMK AO2 SLP144 60002 70030 T00061006 10033 20000 50004 $=
202303061053 METAR KSEA 061053Z 00000KT 10SM SCT055 BKN240 01/M01 A2993 RMK AO2 SLP145 T00111006 $=
202303060953 METAR KSEA 060953Z 15004KT 10SM BKN055 BKN075 BKN240 02/01 A2993 RMK AO2 SLP144 T00170006 $=
202303060853 METAR KSEA 060853Z 11004KT 10SM SCT060 SCT095 BKN240 02/00 A2992 RMK AO2 SLP140 60002 T00220000 52012 $=
202303060753 METAR KSEA 060753Z 11004KT 10SM FEW020 SCT050 BKN095 OVC240 02/01 A2991 RMK AO2 RAE0658 SLP136 P0000 T00220006 400941017 $=
202303060701 SPECI KSEA 060701Z 09008KT 10SM FEW005 SCT022 BKN070 OVC130 02/01 A2989 RMK AO2 RAE0658 P0000 T00220006 $=
202303060653 METAR KSEA 060653Z 09006KT 10SM -RA FEW005 BKN023 OVC070 02/01 A2989 RMK AO2 SLP132 P0002 T00220011 $=
202303060553 METAR KSEA 060553Z 12008KT 10SM -RA FEW003 BKN025 OVC050 03/01 A2988 RMK AO2 SLP128 P0001 60028 T00280011 10078 20028 51015 $=
202303060453 METAR KSEA 060453Z 10009KT 5SM -RA BR SCT004 BKN015 OVC020 03/01 A2987 RMK AO2 SLP124 P0002 T00280011 $=
202303060436 SPECI KSEA 060436Z 09006KT 7SM -RA OVC018 03/01 A2987 RMK AO2 P0001 T00330011 $=
202303060414 SPECI KSEA 060414Z VRB05KT 9SM -RA SCT018 OVC033 03/02 A2986 RMK AO2 P0001 T00330017 $=
202303060353 METAR KSEA 060353Z 12008KT 9SM -RA OVC029 03/01 A2986 RMK AO2 SLP119 P0008 T00330011 $=
202303060253 METAR KSEA 060253Z 12006KT 4SM RA OVC016 04/01 A2984 RMK AO2 SLP114 P0017 60017 T00390006 53033 $=
202303060203 SPECI KSEA 060203Z 14008KT 6SM -RA OVC027 06/01 A2981 RMK AO2 P0001 T00560006 $=
202303060153 METAR KSEA 060153Z 16009KT 10SM -RA SCT029 OVC038 06/01 A2981 RMK AO2 RAB51 SLP103 P0000 T00610006 $=
202303060053 METAR KSEA 060053Z 29008KT 10SM BKN070 OVC085 07/M02 A2976 RMK AO2 SLP086 T00721017 $=
202303052353 METAR KSEA 052353Z 31008KT 10SM FEW020 SCT060 BKN170 08/M02 A2974 RMK AO2 SLP080 T00781017 10094 20050 53010 $=
202303052253 METAR KSEA 052253Z 30009KT 10SM FEW020 FEW060 BKN180 08/M01 A2973 RMK AO2 SLP076 T00781006 $=
202303052153 METAR KSEA 052153Z 32007KT 10SM FEW020 FEW060 BKN200 09/01 A2972 RMK AO2 SLP072 T00890006 $=
202303052053 METAR KSEA 052053Z 29006KT 10SM FEW020 BKN210 08/00 A2971 RMK AO2 SLP070 T00780000 57001 $=
202303051953 METAR KSEA 051953Z 02006KT 10SM FEW020 SCT060 BKN230 07/M01 A2972 RMK AO2 SLP071 T00721006 $=
202303051853 METAR KSEA 051853Z 03008KT 10SM FEW020 BKN220 07/00 A2971 RMK AO2 SLP069 T00670000 $=
202303051753 METAR KSEA 051753Z 01005KT 10SM FEW013 SCT040 BKN200 06/00 A2971 RMK AO2 SLP071 T00560000 10056 21017 51013 $=
202303051653 METAR KSEA 051653Z 02005KT 10SM FEW013 FEW030 BKN150 04/M01 A2971 RMK AO2 SLP069 T00391006 $=
202303051553 METAR KSEA 051553Z 11004KT 10SM FEW013 SCT030 BKN100 02/M01 A2970 RMK AO2 SLP064 T00171011 $=
202303051453 METAR KSEA 051453Z 09007KT 6SM BR FEW010 FEW030 SCT120 00/M02 A2968 RMK AO2 SLP058 T00001017 51009 $=
202303051353 METAR KSEA 051353Z 00000KT 10SM SCT060 00/M02 A2967 RMK AO2 SLP055 T00001017 $=
202303051253 METAR KSEA 051253Z 00000KT 10SM BKN060 M01/M02 A2966 RMK AO2 SLP054 T10111022 $=
202303051153 METAR KSEA 051153Z 03004KT 10SM SCT060 00/M02 A2965 RMK AO2 SLP049 70022 T00001022 10044 21017 51004 $=
202303051053 METAR KSEA 051053Z 33004KT 10SM FEW060 M01/M04 A2965 RMK AO2 SLP048 T10111039 $=
202303050953 METAR KSEA 050953Z 11004KT 10SM FEW070 01/M02 A2964 RMK AO2 SLP047 T00111022 $=
202303050853 METAR KSEA 050853Z 22003KT 10SM FEW070 SCT200 02/M02 A2964 RMK AO2 SLP045 T00221022 51011 $=
202303050753 METAR KSEA 050753Z 00000KT 10SM FEW070 BKN210 04/M03 A2963 RMK AO2 SLP043 T00391028 400720022 $=
202303050653 METAR KSEA 050653Z 00000KT 10SM FEW080 BKN230 03/M02 A2962 RMK AO2 SLP040 T00331022 $=
202303050553 METAR KSEA 050553Z 15004KT 10SM SCT080 04/M01 A2960 RMK AO2 SLP034 T00391011 10072 20028 51021 $=
202303050453 METAR KSEA 050453Z 18004KT 10SM BKN060 BKN080 03/M01 A2959 RMK AO2 SLP030 T00281006 $=
202303050353 METAR KSEA 050353Z 19004KT 10SM FEW070 BKN085 04/M01 A2957 RMK AO2 SLP020 T00391006 $=
202303050253 METAR KSEA 050253Z 19009G18KT 10SM SCT048 BKN060 OVC100 05/M01 A2954 RMK AO2 PK WND 20026/0238 SLP013 T00501006 53026 $=
202303050153 METAR KSEA 050153Z 17010KT 10SM FEW025 BKN050 BKN200 06/M02 A2951 RMK AO2 SLP001 T00611017 $=
202303050053 METAR KSEA 050053Z 17014G22KT 10SM BKN060 BKN070 OVC085 07/M02 A2948 RMK AO2 SLP990 T00721017 $=
202303042353 METAR KSEA 042353Z 14010KT 10SM OVC055 07/M01 A2947 RMK AO2 SLP986 60002 T00671011 10067 20033 53007 $=
202303042253 METAR KSEA 042253Z 12008KT 10SM BKN065 BKN075 OVC095 06/00 A2945 RMK AO2 RAE03 SLP982 P0000 T00610000 $=
202303042209 SPECI KSEA 042209Z 10008KT 10SM FEW046 OVC060 06/01 A2945 RMK AO2 RAE03 P0000 T00560006 $=
202303042153 METAR KSEA 042153Z 09009G17KT 10SM -RA SCT021 BKN025 OVC032 06/01 A2944 RMK AO2 RAB08 SLP979 P0002 T00560006 $=
202303042138 SPECI KSEA 042138Z 11007KT 7SM -RA BKN021 OVC028 06/00 A2946 RMK AO2 RAB08 P0002 T00560000 $=
202303042053 METAR KSEA 042053Z 25007KT 10SM FEW035 BKN050 OVC070 06/01 A2944 RMK AO2 SLP979 60000 T00560006 55001 $=
202303041953 METAR KSEA 041953Z 09008KT 10SM FEW035 BKN044 OVC060 06/M01 A2943 RMK AO2 SLP975 T00611011 $=
202303041853 METAR KSEA 041853Z 10006KT 10SM BKN030 OVC044 05/00 A2944 RMK AO2 RAE50 SLP978 P0000 T00500000 $=
202303041824 SPECI KSEA 041824Z 08007KT 10SM -RA FEW020 BKN030 OVC044 03/01 A2945 RMK AO2 P0000 T00330011 $=
202303041753 METAR KSEA 041753Z 07009KT 6SM -RA BR BKN020 OVC028 03/01 A2945 RMK AO2 SLP980 P0005 60020 T00330006 10039 20028 56019 $=
202303041653 METAR KSEA 041653Z 12012G19KT 5SM -RA BR BKN017 OVC024 03/00 A2947 RMK AO2 SLP988 P0004 T00330000 $=
202303041553 METAR KSEA 041553Z 10009KT 10SM -RA BKN024 OVC030 03/00 A2948 RMK AO2 RAB23 SLP991 P0002 T00330000 $=
202303041453 METAR KSEA 041453Z 08006KT 10SM OVC026 03/01 A2951 RMK AO2 RAE51 SLP000 P0003 60009 T00280006 58021 $=
202303041353 METAR KSEA 041353Z 11008KT 9SM -RA FEW013 OVC024 03/01 A2953 RMK AO2 RAB02 SLP010 P0006 T00280006 $=
202303041310 SPECI KSEA 041310Z 12004KT 7SM -RA SCT013 BKN022 OVC035 03/01 A2955 RMK AO2 RAB02 P0003 T00280011 $=
202303041253 METAR KSEA 041253Z 13010KT 8SM BKN034 OVC045 03/02 A2956 RMK AO2 SLP018 T00330017 $=
202303041153 METAR KSEA 041153Z 11006KT 10SM SCT037 BKN045 OVC055 03/02 A2957 RMK AO2 RAE50 SLP022 P0000 60026 70039 T00280017 10039 20022 58029 $=
202303041053 METAR KSEA 041053Z 10008KT 10SM -RA SCT020 SCT035 OVC048 03/02 A2960 RMK AO2 SLP032 P0001 T00280017 $=
202303041035 SPECI KSEA 041035Z 11007KT 10SM -RA SCT020 BKN036 OVC048 02/02 A2961 RMK AO2 P0001 T00220017 $=
202303040953 METAR KSEA 040953Z 12007KT 7SM -RA BR FEW007 BKN015 OVC024 02/01 A2964 RMK AO2 SLP044 P0010 T00220006 $=
202303040853 METAR KSEA 040853Z 11008KT 6SM -RA BR FEW007 BKN017 OVC024 02/01 A2966 RMK AO2 SNE15 SLP052 P0007 60015 T00220006 58015 $=
202303040816 SPECI KSEA 040816Z 11011KT 4SM -RA BR FEW007 BKN016 OVC027 02/01 A2967 RMK AO2 SNE15 P0003 T00220006 $=
202303040753 METAR KSEA 040753Z 11008KT 6SM -RASN BR FEW011 BKN015 OVC025 03/01 A2968 RMK AO2 SNB24 SLP058 P0007 T00280006 400560022 $=
202303040724 SPECI KSEA 040724Z 15007KT 7SM -RASN BKN016 OVC025 03/01 A2969 RMK AO2 SNB24 P0004 T00330006 $=
202303040653 METAR KSEA 040653Z 16009KT 8SM -RA SCT017 OVC027 03/01 A2970 RMK AO2 RAB32 SLP066 P0001 T00330006 $=
202303040647 SPECI KSEA 040647Z 15013G17KT 120V180 9SM -RA SCT017 OVC027 04/01 A2970 RMK AO2 RAB32 P0001 $=
202303040553 METAR KSEA 040553Z 14010KT 10SM FEW036 BKN048 OVC120 03/01 A2972 RMK AO2 SLP072 60005 T00330006 10039 20022 56023 $=
202303040453 METAR KSEA 040453Z 12010KT 10SM FEW029 SCT075 BKN100 03/01 A2974 RMK AO2 RAE36 SLP079 P0000 T00280006 $=
202303040424 SPECI KSEA 040424Z 12008KT 10SM -RA FEW009 SCT034 OVC070 03/01 A2975 RMK AO2 P0000 T00280006 $=
202303040353 METAR KSEA 040353Z 14010KT 6SM -RA BR FEW006 BKN021 OVC030 03/01 A2976 RMK AO2 SLP086 RAB15 P0001 T00280011=
202303040253 METAR KSEA 040253Z 14012KT 10SM FEW009 OVC017 03/01 A2979 RMK AO2 RAE33B42E51 SLP096 P0000 60004 T00330011 56023=
202303040234 SPECI KSEA 040234Z 14008KT 10SM FEW009 SCT013 OVC020 03/01 A2979 RMK AO2 RAE33 P0000 T00330011=
202303040206 SPECI KSEA 040206Z 17007KT 10SM -RA FEW010 BKN013 OVC024 03/01 A2980 RMK AO2 P0000 T00330011=
202303040153 METAR KSEA 040153Z 19008KT 6SM -RA BR BKN013 OVC022 03/02 A2980 RMK AO2 SLP101 P0002 T00330017=
202303040140 SPECI KSEA 040140Z 19013G19KT 7SM -RA BKN012 BKN020 OVC024 03/02 A2981 RMK AO2 P0001 T00330017=
202303040053 METAR KSEA 040053Z 13006KT 9SM -RA SCT020 OVC027 03/02 A2983 RMK AO2 SLP109 P0002 T00330017=
202303032353 METAR KSEA 032353Z 17009KT 3SM -RA BR SCT011 OVC020 02/01 A2986 RMK AO2 RAB2259 SLP120 P0006 60008 T00220006 10056 20022 56023=
202303032310 SPECI KSEA 032310Z 16007KT 7SM -RA FEW016 BKN025 OVC048 04/02 A2987 RMK AO2 RAB2259 P0001 T00390017=
202303032253 METAR KSEA 032253Z 17011KT 10SM FEW012 BKN030 OVC060 04/02 A2988 RMK AO2 RAB2158E26 SLP127 P0002 T00390017=
202303032215 SPECI KSEA 032215Z 18013G18KT 4SM -RA BKN016 OVC028 04/01 A2990 RMK AO2 RAB2158 P0002 T00390011=
202303032153 METAR KSEA 032153Z 18011KT 10SM FEW034 BKN055 OVC070 05/01 A2990 RMK AO2 SLP134 T00500006=
202303032053 METAR KSEA 032053Z 20012KT 10SM SCT019 BKN030 BKN046 05/01 A2993 RMK AO2 SLP143 T00500006 58018=
202303031953 METAR KSEA 031953Z 22012KT 10SM SCT016 BKN030 BKN047 05/01 A2995 RMK AO2 SLP153 T00500011=
202303031943 SPECI KSEA 031943Z 22013KT 10SM SCT016 BKN032 BKN047 04/01 A2996 RMK AO2 T00440011=
202303031853 METAR KSEA 031853Z 22012KT 10SM BKN019 BKN024 04/02 A2997 RMK AO2 SLP159 T00440017=
202303031833 SPECI KSEA 031833Z 21011G18KT 10SM BKN016 BKN250 05/01 A2998 RMK AO2 T00500011=
202303031753 METAR KSEA 031753Z 21015KT 10SM OVC014 04/01 A2998 RMK AO2 PK WND 20026/1720 SLP161 T00390011 10039 20022 58002=
202303031653 METAR KSEA 031653Z 20014G21KT 10SM BKN012 OVC018 03/01 A2999 RMK AO2 SLP163 T00330006=
202303031553 METAR KSEA 031553Z 20013G26KT 7SM BKN011 OVC015 03/00 A2999 RMK AO2 PK WND 19026/1546 SLP165 T00280000=
202303031453 METAR KSEA 031453Z 20015G26KT 10SM BKN012 OVC016 03/00 A2999 RMK AO2 PK WND 20027/1427 SLP163 T00280000 58006=
202303031353 METAR KSEA 031353Z 20017G23KT 10SM BKN010 OVC016 03/00 A3000 RMK AO2 PK WND 18027/1334 SLP167 T00280000=
202303031253 METAR KSEA 031253Z 20017KT 10SM BKN014 OVC100 03/00 A3000 RMK AO2 PK WND 19027/1220 SLP168 T00280000=
202303031153 METAR KSEA 031153Z 20011G22KT 10SM BKN014 BKN020 03/00 A3000 RMK AO2 PK WND 19026/1123 SLP169 70014 T00330000 10039 20028 58003=
202303031135 SPECI KSEA 031135Z 20013G25KT 10SM BKN013 03/00 A3001 RMK AO2 PK WND 19026/1123 T00280000=
202303031053 METAR KSEA 031053Z 19008G16KT 10SM BKN017 BKN021 OVC110 03/M01 A3002 RMK AO2 PK WND 20027/1014 SLP172 T00281006=
202303031029 SPECI KSEA 031029Z 19013G22KT 10SM FEW013 BKN020 BKN095 03/00 A3001 RMK AO2 PK WND 20027/1014 T00280000=
202303031019 SPECI KSEA 031019Z 21014G27KT 10SM SCT014 BKN095 03/00 A3002 RMK AO2 PK WND 20027/1014 T00280000=
202303030953 METAR KSEA 030953Z 19012G21KT 10SM BKN015 BKN019 OVC080 03/00 A3003 RMK AO2 SLP176 T00330000=
202303030934 SPECI KSEA 030934Z 20012KT 10SM OVC016 03/00 A3002 RMK AO2 T00280000=
202303030853 METAR KSEA 030853Z 20013G19KT 10SM OVC014 03/00 A3001 RMK AO2 PK WND 22026/0812 SLP172 T00280000 50001=
202303030836 SPECI KSEA 030836Z 20011KT 10SM OVC014 03/00 A3002 RMK AO2 PK WND 22026/0812 T00330000=
202303030753 METAR KSEA 030753Z 21011G19KT 10SM BKN018 03/00 A3002 RMK AO2 SLP174 T00330000 400890022=
202303030653 METAR KSEA 030653Z 22014G21KT 10SM BKN018 04/00 A3002 RMK AO2 SLP176 T00390000=
202303030600 SPECI KSEA 030600Z 21012KT 10SM SCT016 03/00 A3001 RMK AO2 T00330000=
202303030553 METAR KSEA 030553Z 21013G20KT 10SM SCT016 BKN023 03/00 A3001 RMK AO2 SLP172 T00330000 10089 20033 51008=
202303030453 METAR KSEA 030453Z 21010KT 10SM BKN019 BKN120 03/M01 A3001 RMK AO2 SLP172 T00331006=
202303030353 METAR KSEA 030353Z 23012KT 10SM BKN017 04/01 A3000 RMK AO2 SLP167 T00390006=
202303030253 METAR KSEA 030253Z 22009KT 10SM BKN020 BKN110 04/01 A2999 RMK AO2 SLP164 T00390006 51018=
202303030242 SPECI KSEA 030242Z 21013G19KT 10SM BKN020 BKN110 04/01 A2999 RMK AO2 T00390006=
202303030153 METAR KSEA 030153Z 21015G21KT 10SM SCT029 BKN130 06/00 A2997 RMK AO2 SLP158 T00560000=
202303030053 METAR KSEA 030053Z 21017G23KT 10SM FEW040 BKN110 07/M01 A2995 RMK AO2 SLP152 T00671006=
202303022353 METAR KSEA 022353Z 21014KT 10SM FEW040 SCT060 BKN140 08/02 A2993 RMK AO2 SLP145 T00780017 10089 20050 53009=
202303022253 METAR KSEA 022253Z 21014KT 10SM FEW040 SCT060 08/01 A2991 RMK AO2 PK WND 20026/2237 SLP138 T00830011=
202303022153 METAR KSEA 022153Z 23015G22KT 10SM SCT040 BKN060 BKN090 09/00 A2990 RMK AO2 SLP135 T00890000=
202303022053 METAR KSEA 022053Z 21013KT 10SM SCT024 BKN033 08/03 A2991 RMK AO2 SLP135 T00830028 56003=
202303022041 SPECI KSEA 022041Z 21013G21KT 10SM BKN024 OVC033 08/02 A2991 RMK AO2 T00780022=
202303022032 SPECI KSEA 022032Z 20011G20KT 10SM SCT024 BKN031 OVC110 07/02 A2991 RMK AO2 T00720017=
202303021953 METAR KSEA 021953Z 21018G25KT 10SM BKN021 BKN035 BKN085 07/03 A2991 RMK AO2 PK WND 22027/1937 SLP137 T00670028=
202303021853 METAR KSEA 021853Z 20014G22KT 10SM BKN016 BKN024 06/02 A2991 RMK AO2 PK WND 22029/1812 SLP139 T00560022=
202303021753 METAR KSEA 021753Z 20018G27KT 10SM SCT013 BKN018 05/02 A2989 RMK AO2 PK WND 19032/1714 SLP131 60014 T00500022 10050 20028 53009=
202303021733 SPECI KSEA 021733Z 21020G31KT 10SM SCT013 BKN018 04/02 A2988 RMK AO2 PK WND 19032/1714 T00440022=
202303021722 SPECI KSEA 021722Z 19019G32KT 10SM SCT018 BKN030 BKN050 04/02 A2987 RMK AO2 PK WND 19032/1714 T00440022=
202303021653 METAR KSEA 021653Z 20015G34KT 10SM OVC015 04/02 A2986 RMK AO2 PK WND 20034/1647 RAE49 SLP121 P0001 T00390017=
202303021632 SPECI KSEA 021632Z 19023G32KT 6SM -RA BR BKN014 OVC020 04/02 A2985 RMK AO2 PK WND 19032/1631 P0001 T00390017=
202303021553 METAR KSEA 021553Z 22018G26KT 10SM -RA OVC019 04/02 A2986 RMK AO2 PK WND 21030/1538 SLP119 P0003 T00440017=
202303021453 METAR KSEA 021453Z 19007KT 7SM -RA BKN018 OVC023 03/02 A2987 RMK AO2 SLP122 P0003 60010 T00330017 56022=
202303021353 METAR KSEA 021353Z 17009KT 7SM -RA OVC016 03/01 A2988 RMK AO2 SLP128 P0005 T00280011=
202303021253 METAR KSEA 021253Z 17008KT 7SM -RA OVC020 03/01 A2990 RMK AO2 SLP136 P0002 T00330006=
202303021208 SPECI KSEA 021208Z 16012KT 10SM -RA OVC028 03/01 A2993 RMK AO2 P0000 T00330006=
202303021153 METAR KSEA 021153Z 16011KT 10SM -RA OVC030 03/01 A2993 RMK AO2 RAB51 SLP145 P0000 60002 70004 T00280006 10039 20022 58034=
202303021053 METAR KSEA 021053Z 17014KT 10SM SCT012 OVC100 02/01 A2997 RMK AO2 RAE26 SLP159 P0000 T00220006=
202303020953 METAR KSEA 020953Z 18015G22KT 10SM -RA OVC011 03/01 A3000 RMK AO2 PK WND 17028/0941 SLP167 P0001 T00280006=
202303020853 METAR KSEA 020853Z 19014G23KT 9SM -RA OVC013 03/01 A3003 RMK AO2 RAB06E35B52 SLP179 P0001 60001 T00330006 56007=
202303020819 SPECI KSEA 020819Z 19017G24KT 10SM -RA BKN015 BKN022 OVC034 03/01 A3004 RMK AO2 RAB06 P0001 T00330006=
202303020753 METAR KSEA 020753Z 20011KT 10SM BKN013 OVC044 03/01 A3005 RMK AO2 RAE0658 SLP184 P0000 T00330011 400721022=
202303020726 SPECI KSEA 020726Z 20011KT 10SM BKN013 BKN018 OVC027 03/01 A3005 RMK AO2 RAE0658 P0000 T00330011=
202303020714 SPECI KSEA 020714Z 19013G20KT 10SM SCT013 BKN019 OVC041 03/01 A3005 RMK AO2 RAE0658 P0000 T00330011=
202303020653 METAR KSEA 020653Z 21015G20KT 10SM -RA OVC013 03/01 A3005 RMK AO2 RAB31 SLP186 P0000 T00330011=
202303020622 SPECI KSEA 020622Z 18012KT 10SM SCT017 BKN021 OVC029 04/01 A3005 RMK AO2 T00390006=
202303020553 METAR KSEA 020553Z 19011KT 10SM SCT023 BKN031 OVC060 03/00 A3007 RMK AO2 RAE06B27E50 SLP192 P0000 60002 T00330000 10067 20033 58007=
202303020453 METAR KSEA 020453Z 20010G22KT 10SM -RA SCT024 OVC046 04/00 A3008 RMK AO2 RAB48 SLP196 P0000 T00390000=
202303020353 METAR KSEA 020353Z 20009KT 10SM SCT024 BKN050 OVC100 04/02 A3009 RMK AO2 RAB11E25 SLP200 P0002 T00390017=
202303020322 SPECI KSEA 020322Z 19009KT 8SM -RA BKN024 OVC080 04/01 A3009 RMK AO2 RAB11 P0002 T00390011=
202303020253 METAR KSEA 020253Z 23011KT 10SM FEW030 FEW055 OVC085 05/01 A3009 RMK AO2 SLP200 T00500006 55006=
202303020153 METAR KSEA 020153Z 22009KT 10SM FEW036 SCT080 BKN110 06/M01 A3009 RMK AO2 SLP199 T00611006=
202303020053 METAR KSEA 020053Z 21012KT 10SM FEW036 OVC100 06/M02 A3009 RMK AO2 SLP199 T00611017=
202303012353 METAR KSEA 012353Z 22010KT 10SM FEW030 BKN110 OVC200 07/M01 A3011 RMK AO2 SLP205 T00671011 10072 20011 53002=
202303012253 METAR KSEA 012253Z 22013KT 10SM SCT029 SCT070 OVC110 07/M01 A3010 RMK AO2 SLP203 T00671011=
202303012153 METAR KSEA 012153Z 23008KT 10SM FEW010 BKN033 OVC060 06/M02 A3011 RMK AO2 SLP204 T00611017=
202303012053 METAR KSEA 012053Z 23006KT 10SM FEW010 BKN036 06/M01 A3010 RMK AO2 SLP203 T00561011 53007=
202303011953 METAR KSEA 011953Z VRB03KT 7SM FEW010 BKN050 BKN250 04/00 A3009 RMK AO2 SLP201 T00440000=
202303011853 METAR KSEA 011853Z 21006KT 7SM SCT006 BKN050 BKN250 03/00 A3008 RMK AO2 SLP198 T00280000=
202303011841 SPECI KSEA 011841Z 17004KT 7SM SCT006 BKN050 BKN250 03/00 A3008 RMK AO2 T00280000=
202303011753 METAR KSEA 011753Z 16005KT 5SM BR BKN005 BKN025 02/M01 A3008 RMK AO2 SLP196 T00171006 10017 21011 53018=
202303011704 SPECI KSEA 011704Z 15006KT 1 1/2SM BR BKN005 OVC025 01/M01 A3006 RMK AO2 T00061011=
202303011653 METAR KSEA 011653Z 15006KT 1 1/2SM BR BKN004 OVC025 01/M01 A3006 RMK AO2 SLP189 T00061011=
202303011608 SPECI KSEA 011608Z 17004KT 1 1/4SM BR OVC003 M01/M02 A3004 RMK AO2 SFC VIS 1 1/2 T10061017=
202303011553 METAR KSEA 011553Z 18004KT 1 1/4SM BR OVC005 M01/M02 A3004 RMK AO2 SFC VIS 1 1/2 SLP184 T10061017=
202303011453 METAR KSEA 011453Z 14005KT 3SM BR FEW000 OVC004 M01/M02 A3003 RMK AO2 SLP178 T10111022 51027=
202303011421 SPECI KSEA 011421Z 15004KT 3SM BR FEW000 OVC004 M01/M03 A3001 RMK AO2 T10111028=
202303011353 METAR KSEA 011353Z 16005KT 10SM BKN006 M01/M03 A3000 RMK AO2 SLP170 T10111028 $=
202303011311 SPECI KSEA 011311Z 12005KT 10SM BKN006 M01/M03 A2999 RMK AO2 T10111028 $=
202303011253 METAR KSEA 011253Z 11006KT 10SM FEW006 SCT029 BKN042 M01/M03 A2999 RMK AO2 SLP164 T10111028 $=
202303011153 METAR KSEA 011153Z 12003KT 4SM R16L/4000VP6000FT BR SCT005 OVC029 M01/M02 A2994 RMK AO2 SLP150 T10111022 10017 21022 51027 $=
202303011145 SPECI KSEA 011145Z 11005KT 4SM BR SCT005 OVC029 M01/M03 A2994 RMK AO2 T10111028 $=
202303011102 SPECI KSEA 011102Z 00000KT 3/4SM R16L/2000V4000FT BR SCT001 BKN010 M02/M03 A2993 RMK AO2 TWR VIS 4 T10171028 $=
202303011053 METAR KSEA 011053Z 00000KT 3/4SM R16L/1400V2200FT BR SCT001 BKN010 M02/M03 A2993 RMK AO2 TWR VIS 4 SLP145 T10171033=
202303011030 SPECI KSEA 011030Z 00000KT 3/4SM R16L/1800VP6000FT BR BKN001 BKN010 OVC028 M01/M02 A2992 RMK AO2 TWR VIS 4 T10061022=
202303011017 SPECI KSEA 011017Z 00000KT 1 1/2SM BR FEW001 BKN010 OVC028 M01/M02 A2991 RMK AO2 T10111022=
202303010953 METAR KSEA 010953Z 00000KT 6SM BR BKN010 00/M02 A2989 RMK AO2 SLP130 T00001017=
202303010938 SPECI KSEA 010938Z 09003KT 5SM BR OVC010 00/M02 A2988 RMK AO2 T00001017=
202303010853 METAR KSEA 010853Z 00000KT 10SM FEW031 01/M01 A2986 RMK AO2 SLP122 T00111011 51026=
202303010753 METAR KSEA 010753Z 00000KT 10SM CLR 00/M02 A2985 RMK AO2 SLP118 T00001022 400721006=
202303010653 METAR KSEA 010653Z 04006KT 10SM CLR 01/M02 A2982 RMK AO2 SLP106 T00111017=
202303010553 METAR KSEA 010553Z 03005KT 10SM CLR 01/M01 A2979 RMK AO2 SLP095 T00111011 10044 20006 53025=
202303010453 METAR KSEA 010453Z 04007KT 10SM FEW180 02/M01 A2975 RMK AO2 SLP084 T00171011=
202303010353 METAR KSEA 010353Z 36004KT 10SM FEW060 FEW090 SCT180 01/M02 A2973 RMK AO2 SLP077 T00111022=
202303010253 METAR KSEA 010253Z 35006KT 10SM FEW060 SCT090 SCT200 02/M02 A2971 RMK AO2 SLP071 T00221017 53031=
202303010153 METAR KSEA 010153Z 02008KT 10SM FEW020 SCT050 SCT200 03/M01 A2968 RMK AO2 SLP059 T00331011=
202303010053 METAR KSEA 010053Z 02009KT 10SM FEW015 SCT060 BKN200 04/M01 A2965 RMK AO2 SLP049 T00391006=

# No short TAF reports from KSEA in databse.

###################################
#  large TAF from KSEA
###################################
202303312346 TAF KSEA 312346Z 0100/0206 20014G22KT P6SM -RA BKN025 OVC035 FM010400
                       21012G19KT P6SM -SHRA OVC025 FM011900 22014G22KT
                       P6SM -SHRA BKN050=
202303312053 KSEA 312053Z 3121/0124 20014G22KT P6SM -RA BKN025 OVC035 FM010000
                       21012G19KT P6SM -RA OVC020 FM010700 20010G20KT
                       P6SM VCSH OVC025=
202303311737 TAF KSEA 311737Z 3118/0124 19012G20KT P6SM -SHRA SCT020 BKN025
                       FM312100 19014G22KT P6SM -RA BKN025 OVC035
                       FM010000 21012G19KT P6SM -RA OVC020 FM010700
                       20010G20KT P6SM VCSH OVC025=
202303311356 KSEA 311356Z 3114/0118 20009KT P6SM -RA FEW020 BKN025 OVC030 FM311500
                       19012G18KT P6SM -RA SCT020 OVC025 FM312100
                       19014G22KT P6SM -RA BKN025 OVC035 FM010000
                       21012G19KT P6SM -RA OVC020 FM010700 20010G20KT
                       P6SM VCSH OVC025=
202303311136 TAF KSEA 311136Z 3112/0118 20006KT P6SM -RA BKN023 BKN030 OVC040
                       FM311500 19012G18KT P6SM -RA SCT020 OVC025
                       FM312100 19014G22KT P6SM -RA BKN025 OVC035
                       FM010000 21012G19KT P6SM -RA OVC020 FM010700
                       20010G20KT P6SM VCSH OVC025=
202303310956 KSEA 310956Z 3110/0112 21007KT P6SM VCSH FEW019 OVC028 FM311500
                       19012G18KT P6SM -RA SCT020 OVC025 FM312100
                       19014G22KT P6SM -RA BKN025 OVC035 FM010200
                       21012G19KT 6SM -RA BR BKN015 OVC020=
202303310908 KSEA 310908Z 3109/0112 20009KT P6SM VCSH SCT035 OVC060 FM311500
                       19012G18KT P6SM -RA SCT020 OVC025 FM312100
                       19014G22KT P6SM -RA BKN025 OVC035 FM010200
                       21012G19KT 6SM -RA BR BKN015 OVC020=
202303310531 TAF KSEA 310531Z 3106/0112 22011KT P6SM BKN050 FM310900 20008KT
                       P6SM OVC025 FM311500 19012G18KT P6SM -RA
                       SCT020 OVC025 FM312100 19014G22KT P6SM -RA
                       BKN025 OVC035 FM010200 21012G19KT 6SM -RA
                       BR BKN015 OVC020=
202303310304 KSEA 310304Z 3103/0106 22011KT P6SM BKN050 FM310900 20008KT P6SM
                       OVC025 FM311500 19012G18KT P6SM -RA SCT020
                       OVC025 FM312100 19014G22KT P6SM -RA BKN025
                       OVC035 FM010200 21012G19KT 6SM -RA BR BKN015
                       OVC020=
202303302331 TAF KSEA 302331Z 3100/0106 22012G22KT P6SM BKN050 FM310900 20008KT
                       P6SM OVC025 FM311500 19012G18KT P6SM -RA
                       SCT020 OVC025 FM312100 19014G22KT P6SM -RA
                       BKN025 OVC035 FM010200 21012G19KT 6SM -RA
                       BR BKN015 OVC020=
202303302046 KSEA 302046Z 3021/3124 23012G19KT P6SM BKN040 BKN250 FM310300 22010KT
                       P6SM SCT035 OVC050 FM310900 18008KT P6SM
                       OVC025 FM312100 19009KT P6SM VCSH BKN030
                       OVC040=
202303301721 TAF KSEA 301721Z 3018/3124 22011G19KT P6SM SCT020 BKN250
                      TEMPO 3018/3019 BKN020 FM302100 22014G23KT
                       P6SM BKN050 BKN250 FM310300 22010KT P6SM
                       SCT035 OVC050 FM310900 18008KT P6SM OVC025
                       FM312100 19009KT P6SM VCSH BKN030 OVC040=
202303301620 KSEA 301620Z 3016/3118 22010KT P6SM SCT015 BKN090
                      TEMPO 3016/3018 BKN015 FM302000 20011G20KT
                       P6SM BKN050 FM310300 22010KT P6SM OVC035
                       FM310900 18008KT P6SM OVC025=
202303301351 KSEA 301351Z 3014/3118 22010KT P6SM SCT015 OVC090
                      TEMPO 3014/3017 BKN015 FM302000 20011G20KT
                       P6SM BKN050 FM310300 22010KT P6SM OVC035
                       FM310900 18008KT P6SM OVC025=
202303301139 TAF KSEA 301139Z 3012/3118 22007KT P6SM OVC090 FM301400 18005KT
                       P6SM FEW020 OVC090
                      TEMPO 3014/3017 BKN020 FM302000 20011G20KT
                       P6SM BKN050 FM310300 22010KT P6SM OVC035
                       FM310900 18008KT P6SM OVC025=
202303300902 KSEA 300902Z 3009/3112 15004KT P6SM OVC090 FM301400 18005KT P6SM
                       OVC040 FM302000 20011G20KT P6SM BKN050 FM310300
                       22010KT P6SM OVC035=
202303300525 TAF KSEA 300525Z 3006/3112 19005KT P6SM BKN100 BKN200 FM301400
                       18005KT P6SM OVC040 FM302000 20011G20KT
                       P6SM BKN050 FM310300 22010KT P6SM OVC035=
202303300259 KSEA 300259Z 3003/3106 35005KT P6SM SCT100 BKN200 FM300600 19005KT
                       P6SM BKN100 BKN200 FM301400 18005KT P6SM
                       OVC040 FM302000 20011G20KT P6SM BKN050 FM310300
                       22010KT P6SM OVC035=
202303292323 TAF KSEA 292323Z 3000/3106 28007KT P6SM BKN080 BKN200 FM300600
                       19005KT P6SM BKN100 BKN200 FM301400 18005KT
                       P6SM OVC040 FM302000 20011KT P6SM BKN050=
202303292053 KSEA 292053Z 2921/3024 32008KT P6SM BKN080 FM300100 28007KT P6SM
                       BKN080 BKN200 FM300800 19005KT P6SM BKN100
                       BKN200 FM301400 18005KT P6SM OVC030 FM302000
                       20011KT P6SM BKN050=
202303291720 TAF KSEA 291720Z 2918/3024 34008KT P6SM SCT120 FM300100 28007KT
                       P6SM FEW100 BKN200 FM300800 19005KT P6SM
                       BKN100 BKN200 FM301400 18005KT P6SM OVC030
                       FM302000 20011KT P6SM BKN050=
202303291454 KSEA 291454Z 2915/3018 02005KT P6SM BKN100 FM291800 33005KT P6SM
                       SCT120 BKN200 FM300100 25005KT P6SM SCT120
                       BKN200 FM300900 19005KT P6SM SCT120 BKN200
                       FM301400 18005KT P6SM OVC025=
202303291120 TAF KSEA 291120Z 2912/3018 07005KT P6SM SCT110 FM291800 33005KT
                       P6SM SCT120 BKN200 FM300100 25005KT P6SM
                       SCT120 BKN200 FM300900 19005KT P6SM SCT120
                       BKN200 FM301400 18005KT P6SM OVC025=
202303290906 KSEA 290906Z 2909/3012 06006KT P6SM BKN110 FM291800 33005KT P6SM
                       SCT120 BKN200 FM300100 25005KT P6SM SCT120
                       BKN200=
202303290521 TAF KSEA 290521Z 2906/3012 04007KT P6SM OVC080 FM290900 04007KT
                       P6SM SCT120 BKN200 FM291800 33005KT P6SM
                       SCT120 BKN200 FM300100 25005KT P6SM SCT120
                       BKN200=
202303290257 KSEA 290257Z 2903/3006 04007KT P6SM OVC080 FM290900 04007KT P6SM
                       SCT120 BKN200 FM291800 33005KT P6SM SCT120
                       BKN200 FM300100 25005KT P6SM SCT120 BKN200=
202303282357 KSEA 282357Z 2900/3006 08010KT P6SM BKN100 BKN200 FM290200 07007KT
                       P6SM BKN120 FM290900 04007KT P6SM SCT120
                       BKN200 FM291800 33005KT P6SM SCT120 BKN200
                       FM300100 25005KT P6SM SCT120 BKN200=
202303282320 TAF KSEA 282320Z 2900/3006 10013G21KT P6SM SCT120 BKN200 FM290200
                       07010KT P6SM BKN150 FM290900 04007KT P6SM
                       SCT120 BKN200 FM291800 33005KT P6SM SCT120
                       BKN200 FM300100 25005KT P6SM SCT120 BKN200=
202303282151 KSEA 282151Z 2822/2924 10013G21KT P6SM SCT120 BKN200 FM290200 05008KT
                       P6SM BKN150 FM291800 33005KT P6SM SCT120
                       BKN200=
202303281920 KSEA 281920Z 2819/2924 06012G18KT P6SM BKN100 BKN200 FM282200 04010G16KT
                       P6SM OVC100 FM290500 05008KT P6SM BKN100
                       OVC150 FM291800 33005KT P6SM SCT120 BKN200=
202303281723 TAF KSEA 281723Z 2818/2924 03009KT P6SM BKN100 BKN200 FM282200
                       03010G16KT P6SM OVC100 FM290500 05008KT
                       P6SM BKN100 OVC150 FM291800 33005KT P6SM
                       SCT120 BKN200=
202303281453 KSEA 281453Z 2815/2918 09013G22KT P6SM OVC100 FM290100 05008KT
                       P6SM BKN100 OVC150 FM290800 03008KT P6SM
                       BKN150=
202303281120 TAF KSEA 281120Z 2812/2918 08015G25KT P6SM OVC110 FM290100 05008KT
                       P6SM BKN100 OVC150 FM290800 03008KT P6SM
                       BKN150=
202303280729 KSEA 280729Z 2807/2912 08012G21KT P6SM BKN200 FM281000 07010G18KT
                       P6SM BKN120 OVC200 FM281500 06014G24KT P6SM
                       SCT120 SCT200 FM290100 05008KT P6SM BKN080
                       OVC200 FM290800 03008KT P6SM SCT080 BKN200=
202303280521 TAF KSEA 280521Z 2806/2912 07008KT P6SM BKN200 FM281000 07010G18KT
                       P6SM BKN120 OVC200 FM281500 06014G24KT P6SM
                       SCT120 SCT200 FM290100 05008KT P6SM BKN080
                       OVC200 FM290800 03008KT P6SM SCT080 BKN200=
202303280255 KSEA 280255Z 2803/2906 08008KT P6SM BKN200 FM281000 09010G18KT
                       P6SM SCT090 BKN120 OVC200 FM281500 06014G22KT
                       P6SM BKN120 FM282000 05012G18KT P6SM SCT120
                       SCT200 FM290300 07008KT P6SM BKN120 OVC200=
202303280035 KSEA 280035Z 2801/2906 11009KT P6SM SCT070 BKN200 FM280500 06010KT
                       P6SM BKN200 FM281000 07010G18KT P6SM BKN120
                       OVC200 FM281500 06014G22KT P6SM BKN120 FM282000
                       03012G18KT P6SM SCT120 SCT200 FM290300 07008KT
                       P6SM BKN120 OVC200=
202303272338 TAF KSEA 272338Z 2800/2906 05008KT P6SM SCT070 BKN200 FM280500
                       06010KT P6SM BKN200 FM281000 07010G18KT
                       P6SM BKN120 OVC200 FM281500 06014G22KT P6SM
                       BKN120 FM282000 03012G18KT P6SM SCT120 SCT200
                       FM290300 07008KT P6SM BKN120 OVC200=
202303272107 KSEA 272107Z 2721/2824 35010KT P6SM SCT200 FM280500 04009KT P6SM
                       BKN200 FM281000 07010G18KT P6SM SCT120 BKN200
                       FM281500 06013G21KT P6SM BKN120 FM282000
                       03012KT P6SM SCT200=
202303271740 TAF KSEA 271740Z 2718/2824 04010KT P6SM SCT200 FM280300 06009KT
                       P6SM BKN200 FM281000 07010G18KT P6SM SCT120
                       BKN200 FM281500 06013G21KT P6SM BKN120 FM282000
                       03012KT P6SM SCT200=
202303271405 KSEA 271405Z 2714/2818 VRB03KT P6SM SCT250 FM271500 09003KT P6SM
                       SCT030 FM271700 04010KT P6SM SCT180 FM280200
                       09009KT P6SM BKN150 FM281100 05008KT P6SM
                       BKN120=
202303271149 TAF KSEA 271149Z 2712/2818 13004KT P6SM SCT250 FM271500 09003KT
                       P6SM SCT030 FM271700 04010KT P6SM SCT180
                       FM280200 09009KT P6SM BKN150 FM281100 05008KT
                       P6SM BKN120=
202303270934 KSEA 270934Z 2710/2812 15005KT P6SM FEW025 FM271200 04004KT P6SM
                       SCT030 FM271800 04010KT P6SM SCT250 FM280800
                       06010KT P6SM BKN250=
202303270549 TAF KSEA 270549Z 2706/2812 13004KT P6SM SKC FM271200 04004KT P6SM
                       SCT030 FM271800 04010KT P6SM SCT250 FM280800
                       06010KT P6SM BKN250=
202303270307 KSEA 270307Z 2703/2806 19008KT P6SM VCSH SCT025 SCT100 FM271200
                       05004KT P6SM SCT050 SCT100 FM271800 03009KT
                       P6SM SCT250 FM280200 06011KT P6SM BKN250=
202303262320 TAF KSEA 262320Z 2700/2806 23009KT P6SM VCSH SCT025 BKN050 FM270600
                       16004KT P6SM SCT025 BKN035 FM271200 05004KT
                       P6SM SCT050 BKN120 FM271800 03009KT P6SM
                       SCT250 FM280200 06011KT P6SM BKN250=
202303262055 KSEA 262055Z 2621/2724 22008KT P6SM SCT030 BKN050 FM262300 21009KT
                       P6SM VCSH BKN050 FM270600 16004KT P6SM BKN050
                       FM271200 10004KT P6SM SCT050 BKN120 FM271800
                       02009KT P6SM SCT250=
202303261847 KSEA 261847Z 2619/2724 20005KT P6SM SCT030 BKN050
                      TEMPO 2619/2621 -RA BKN025 OVC050 FM262300
                       21009KT P6SM VCSH BKN050 FM270600 16004KT
                       P6SM BKN050 FM271200 10004KT P6SM SCT050
                       BKN120 FM271800 02009KT P6SM SCT250=
202303261720 TAF KSEA 261720Z 2618/2724 20003KT P6SM SCT030 BKN050 FM262300
                       21009KT P6SM VCSH BKN050 FM270600 16004KT
                       P6SM BKN050 FM271200 10004KT P6SM SCT050
                       BKN120 FM271800 02009KT P6SM SCT250=
202303261440 KSEA 261440Z 2615/2718 18007KT P6SM SCT015 BKN022 OVC035 FM261900
                       20006KT P6SM SCT025 BKN050 FM270300 16006KT
                       P6SM SCT050 FM270500 13004KT P6SM SCT050
                       BKN120 FM271000 10004KT P6SM SCT050=
202303261136 TAF KSEA 261136Z 2612/2718 18009KT P6SM BKN012 OVC030 FM261900
                       19006KT P6SM SCT030 BKN050 FM270300 16006KT
                       P6SM SCT050 FM270500 13004KT P6SM SCT050
                       BKN120 FM271000 10004KT P6SM SCT050=
202303260907 KSEA 260907Z 2609/2712 20008KT P6SM FEW013 OVC025 FM261200 18006KT
                       P6SM BKN020 FM261800 18006KT P6SM SCT030
                       BKN050 FM270300 15006KT P6SM SCT050=
202303260538 TAF KSEA 260538Z 2606/2712 18006KT P6SM SCT040 FM261200 18006KT
                       P6SM BKN020 FM261800 18006KT P6SM SCT030
                       BKN050 FM270300 15006KT P6SM SCT050=
202303260304 KSEA 260304Z 2603/2706 21008KT P6SM SCT040 FM261000 17004KT P6SM
                       SCT012 BKN020 OVC030 FM262000 21006KT P6SM
                       SCT030 BKN050 FM270500 15006KT P6SM SCT050=
202303252338 TAF KSEA 252338Z 2600/2706 23008KT P6SM BKN040 FM261000 17004KT
                       P6SM SCT012 BKN020 OVC030 FM262000 21006KT
                       P6SM SCT030 BKN050 FM270500 15006KT P6SM
                       SCT050=
202303252040 KSEA 252040Z 2521/2624 23008KT P6SM VCSH SCT030 BKN050 FM260200
                       25005KT P6SM -SHRA SCT025 OVC040 FM260700
                       17004KT P6SM VCSH SCT015 BKN020 OVC025 FM262000
                       21006KT P6SM SCT030 BKN050=
202303251737 TAF KSEA 251737Z 2518/2624 20010KT P6SM SCT015 BKN020 OVC050 FM252100
                       22010KT P6SM VCSH SCT025 BKN050 FM252300
                       23008KT P6SM -SHRA SCT025 OVC040 FM260700
                       17004KT P6SM VCSH SCT015 BKN020 OVC025 FM262000
                       21006KT P6SM SCT030 BKN050=
202303251357 KSEA 251357Z 2514/2618 19007KT P6SM BKN011 OVC017 FM251800 20010KT
                       P6SM SCT012 BKN022 OVC035 FM252200 22010KT
                       P6SM VCSH SCT035 BKN050 FM260300 16004KT
                       P6SM VCSH SCT035 BKN050 FM260800 18006KT
                       P6SM SCT030 BKN050=
202303251148 TAF KSEA 251148Z 2512/2618 20008KT P6SM BKN011 OVC018 FM251800
                       20010KT P6SM SCT012 BKN022 OVC035 FM252200
                       22010KT P6SM VCSH SCT035 BKN050 FM260300
                       16004KT P6SM VCSH SCT035 BKN050 FM260800
                       18006KT P6SM SCT030 BKN050=
202303250911 KSEA 250911Z 2509/2612 18008KT P6SM BKN020 OVC030 FM251100 20010KT
                       P6SM BKN011 OVC020 FM251800 21010KT P6SM
                       VCSH SCT012 BKN022 OVC035 FM252200 21010KT
                       P6SM SCT035 BKN050=
202303250535 TAF KSEA 250535Z 2506/2612 21014KT P6SM SCT020 BKN035 FM250800
                       21014KT P6SM BKN020 OVC030 FM251100 21010KT
                       P6SM BKN011 OVC020 FM251800 21010KT P6SM
                       VCSH SCT012 BKN022 OVC035 FM252200 21010KT
                       P6SM SCT035 BKN050=
202303250259 KSEA 250259Z 2503/2606 21014G22KT P6SM -SHRA BKN022 OVC035 FM250700
                       21010KT P6SM OVC017 FM251800 21010KT P6SM
                       VCSH BKN027 OVC040 FM252300 22009KT P6SM
                       VCSH BKN035 OVC050=
202303242336 TAF KSEA 242336Z 2500/2606 21014G22KT P6SM VCSH BKN025 OVC045 FM250400
                       21012KT P6SM VCSH BKN025 OVC040 FM251000
                       19009KT P6SM OVC017 FM251800 21010KT P6SM
                       VCSH BKN027 OVC040 FM252300 22009KT P6SM
                       VCSH BKN035 OVC050=
202303241938 KSEA 241938Z 2420/2524 21012G20KT P6SM VCSH BKN022 OVC040 FM242100
                       23012G20KT P6SM -SHRA BKN030 OVC045 FM250400
                       21010KT P6SM VCSH BKN025 OVC040 FM251000
                       19009KT P6SM OVC017 FM252000 21010KT P6SM
                       VCSH BKN027 OVC040=
202303241720 TAF KSEA 241720Z 2418/2524 21012KT P6SM VCSH BKN020 OVC040 FM242100
                       23012G20KT P6SM -SHRA BKN030 OVC045 FM250400
                       21010KT P6SM VCSH BKN025 OVC040 FM251000
                       19009KT P6SM OVC017 FM252000 21010KT P6SM
                       VCSH BKN027 OVC040=
202303241350 KSEA 241350Z 2414/2518 20010KT P6SM -SHRA OVC009 FM241700 23012G20KT
                       P6SM -SHRA BKN020 OVC040 FM250100 23012G20KT
                       P6SM -SHRA OVC040 FM251000 19008KT P6SM
                       BKN020=
202303241141 TAF KSEA 241141Z 2412/2518 20012KT P6SM -RA BKN010 OVC015 FM241300
                       20010KT P6SM VCSH OVC020 FM241700 23012G20KT
                       P6SM -SHRA BKN020 OVC040 FM250100 23012G20KT
                       P6SM -SHRA OVC040 FM251000 19008KT P6SM
                       BKN020=
202303240855 KSEA 240855Z 2409/2512 20012G20KT P6SM FEW015 BKN025 FM241200 20010KT
                       P6SM VCSH OVC020 FM241700 20010KT P6SM -SHRA
                       SCT020 BKN035 OVC050 FM242100 23012G22KT
                       P6SM -SHRA BKN020 OVC040 FM250600 19010KT
                       P6SM SCT020 BKN035 OVC050=
202303240538 TAF KSEA 240538Z 2406/2512 20012KT P6SM BKN020 BKN100 FM241200
                       20010KT P6SM VCSH OVC020 FM241700 20010KT
                       P6SM -SHRA SCT020 BKN035 OVC050 FM242100
                       23012G22KT P6SM -SHRA BKN020 OVC040 FM250600
                       19010KT P6SM SCT020 BKN035 OVC050=
202303240314 KSEA 240314Z 2403/2506 20014G24KT P6SM FEW008 BKN020 BKN100 FM240900
                       20010KT P6SM VCSH OVC020 FM241900 20012G22KT
                       P6SM -SHRA BKN030 OVC050=
202303232320 TAF KSEA 232320Z 2400/2506 21013G20KT P6SM -SHRA FEW015 BKN030
                       OVC045 FM240400 22012G20KT P6SM -SHRA BKN035
                       FM240900 19009KT P6SM VCSH OVC022 FM241900
                       21012G22KT P6SM -SHRA BKN030 OVC050=
202303232056 KSEA 232056Z 2321/2424 23015G25KT P6SM -SHRA FEW015 BKN030 OVC045
                       FM240100 22012G22KT P6SM -SHRA BKN035 FM240900
                       19009KT P6SM VCSH OVC025 FM242100 21012G20KT
                       P6SM -SHRA BKN030 OVC050=
202303231736 TAF KSEA 231736Z 2318/2424 19011KT P6SM VCSH SCT015 OVC030
                      TEMPO 2318/2320 -RA BKN015 OVC025 FM232000
                       18013G22KT P6SM -RA OVC020 FM240100 20012G22KT
                       P6SM -SHRA BKN035 FM240900 19009KT P6SM
                       VCSH OVC025 FM242100 21012G20KT P6SM -SHRA
                       BKN030 OVC050=
202303231504 KSEA 231504Z 2315/2418 19011KT P6SM VCSH SCT015 OVC030
                      TEMPO 2315/2319 BKN015 OVC025 FM231900 18013G22KT
                       P6SM -RA OVC018 FM232300 20010G18KT P6SM
                       -SHRA OVC040 FM241100 19008KT P6SM -SHRA
                       OVC025=
202303231242 KSEA 231242Z 2313/2418 21012KT P6SM VCSH FEW017 BKN023 OVC090 FM231600
                       19011KT P6SM VCSH OVC030 FM231900 18015G25KT
                       P6SM -RA OVC020 FM232300 20010G18KT P6SM
                       -SHRA OVC040 FM241100 19008KT P6SM -SHRA
                       OVC025=
202303231140 TAF KSEA 231140Z 2312/2418 22012KT P6SM BKN045 BKN080 FM231600
                       19011KT P6SM OVC030 FM231900 18015G25KT
                       P6SM -RA OVC020 FM232300 20010G18KT P6SM
                       -SHRA OVC040 FM241100 19008KT P6SM -SHRA
                       OVC025=
202303230857 KSEA 230857Z 2309/2412 22013KT P6SM BKN018 OVC060 FM231000 20013KT
                       P6SM OVC025 FM231800 18015G25KT P6SM -RA
                       OVC030 FM232300 20010G18KT P6SM -SHRA OVC040=
202303230539 TAF KSEA 230539Z 2306/2412 22013KT P6SM FEW030 OVC080 FM231000
                       20013KT P6SM OVC025 FM231800 18015G25KT
                       P6SM -RA OVC030 FM232300 20010G18KT P6SM
                       -SHRA OVC040=
202303230310 KSEA 230310Z 2303/2406 24008KT P6SM FEW030 SCT100 FM230600 23013KT
                       P6SM BKN035 FM231000 20015KT P6SM OVC025
                       FM231800 18015G25KT P6SM -RA OVC025 FM232300
                       20010G18KT P6SM -SHRA OVC040=
202303222334 TAF KSEA 222334Z 2300/2406 24006KT P6SM SCT100 FM230600 23013KT
                       P6SM BKN060 FM231000 20015KT P6SM OVC025
                       FM231700 18015G25KT P6SM -RA OVC025 FM232300
                       20010G18KT P6SM -SHRA OVC040=
202303222146 KSEA 222146Z 2222/2324 24006KT P6SM SCT100 FM230600 23013KT P6SM
                       BKN060 FM231000 20015KT P6SM OVC020 FM231700
                       18010KT P6SM -SHRA OVC035=
202303222055 KSEA 222055Z 2221/2324 09004KT P6SM SCT002 SCT100 FM222200 24006KT
                       P6SM BKN120 FM230600 23008KT P6SM BKN060
                       FM231000 20008KT P6SM OVC020 FM231700 18010KT
                       P6SM -SHRA OVC035=
202303221731 TAF KSEA 221731Z 2218/2324 09004KT P6SM SCT002 SCT100 FM222200
                       24006KT P6SM BKN120 FM230600 23008KT P6SM
                       BKN060 FM231000 20008KT P6SM OVC020 FM231700
                       18010KT P6SM -SHRA OVC035=
202303221453 KSEA 221453Z 2215/2318 03003KT 6SM BCFG BR SCT003 SCT040 FM221700
                       02005KT P6SM SKC FM222200 24006KT P6SM BKN120
                       FM230600 23008KT P6SM BKN060=
202303221205 KSEA 221205Z 2212/2318 02007KT 1/4SM FG BKN001 FM221500 03003KT
                       P6SM SCT010 FM221700 02005KT P6SM SKC FM230000
                       24006KT P6SM BKN120 FM230600 23008KT P6SM
                       BKN060=
202303221126 TAF KSEA 221126Z 2212/2318 02007KT P6SM FEW002 SCT025 FM221300
                       03003KT P6SM SCT010 FM221700 02005KT P6SM
                       SKC FM230000 24006KT P6SM BKN120 FM230600
                       23008KT P6SM BKN060=
202303220855 KSEA 220855Z 2209/2312 35007KT P6SM SKC FM221500 03003KT P6SM SCT010
                       FM221700 02005KT P6SM SKC FM230000 24006KT
                       P6SM BKN120=
202303220523 TAF KSEA 220523Z 2206/2312 35007KT P6SM FEW030 SCT150 FM221500
                       03003KT P6SM SCT010 FM221700 02005KT P6SM
                       SKC FM230000 24006KT P6SM BKN120=
202303220302 KSEA 220302Z 2203/2306 35007KT P6SM SCT150 FM221500 03003KT P6SM
                       SCT010 FM221700 02005KT P6SM SKC FM230000
                       24006KT P6SM BKN120=
202303212336 TAF KSEA 212336Z 2200/2306 35012KT P6SM SCT030 SCT150 FM220300
                       03005KT P6SM SCT150 FM221500 03003KT P6SM
                       SCT010 FM221700 35005KT P6SM SKC=
202303212100 KSEA 212100Z 2121/2224 03010KT P6SM SCT020 SCT150 FM212200 01011KT
                       P6SM SCT030 SCT150 FM220300 03005KT P6SM
                       SCT150=
202303211735 TAF KSEA 211735Z 2118/2224 36006KT P6SM BKN012 BKN035 FM212000
                       01009KT P6SM SCT020 SCT050 FM212200 01011KT
                       P6SM SCT030 SCT150 FM220300 03005KT P6SM
                       SCT150=
202303211352 KSEA 211352Z 2114/2218 21003KT P6SM OVC015 FM211500 35003KT P6SM
                       OVC020 FM211800 36006KT P6SM BKN030 FM212000
                       35006KT P6SM SCT030 BKN050 FM220300 03005KT
                       P6SM BKN250=
202303211137 TAF KSEA 211137Z 2112/2218 19006KT P6SM OVC015 FM211500 35003KT
                       P6SM OVC020 FM211800 36006KT P6SM BKN030
                       FM212000 35006KT P6SM SCT030 BKN050 FM220300
                       03005KT P6SM BKN250=
202303210907 KSEA 210907Z 2109/2212 22006KT P6SM OVC015 FM211500 35003KT P6SM
                       OVC025 FM211800 36006KT P6SM SCT030 BKN050
                       FM220300 03005KT P6SM BKN250=
202303210529 TAF KSEA 210529Z 2106/2212 22008KT P6SM SCT025 BKN050 FM210800
                       18004KT P6SM OVC025 FM211500 35003KT P6SM
                       OVC025 FM211800 36006KT P6SM SCT030 BKN050
                       FM220300 03005KT P6SM BKN250=
202303210310 KSEA 210310Z 2103/2206 24008KT P6SM SCT025 SCT060 BKN080 FM210800
                       18004KT P6SM OVC025 FM211500 35003KT P6SM
                       OVC020 FM211830 36006KT P6SM SCT030 BKN050
                       FM212000 35010KT P6SM BKN050=
202303202323 TAF KSEA 202323Z 2100/2206 24011KT P6SM VCSH SCT025 SCT060 BKN080
                       FM210800 18004KT P6SM OVC025 FM211500 35003KT
                       P6SM OVC020 FM211830 36006KT P6SM SCT030
                       BKN050 FM212000 35010KT P6SM BKN050=
202303202109 KSEA 202109Z 2021/2124 24011KT P6SM VCSH BKN028 OVC040 FM210000
                       20007KT P6SM OVC040 FM210800 18004KT P6SM
                       OVC025 FM211500 35003KT P6SM OVC020 FM211830
                       36006KT P6SM SCT030 BKN050 FM212000 35010KT
                       P6SM BKN050=
202303201740 TAF KSEA 201740Z 2018/2124 20008KT P6SM -SHRA BKN013 OVC020 FM202100
                       22009KT P6SM VCSH SCT030 OVC040 FM210000
                       20007KT P6SM OVC040 FM210800 18004KT P6SM
                       OVC025=
202303201506 KSEA 201506Z 2015/2118 16006KT 3SM -RA BR SCT010 OVC025 FM201600
                       19007KT P6SM -SHRA OVC020 FM202100 22009KT
                       P6SM VCSH SCT030 OVC040 FM210000 20007KT
                       P6SM OVC040 FM210800 18004KT P6SM OVC025=
202303201351 KSEA 201351Z 2014/2118 16006KT 6SM -RA SCT005 OVC025 FM201600 19007KT
                       P6SM -SHRA OVC020 FM202100 22009KT P6SM
                       VCSH SCT030 OVC040 FM210000 20007KT P6SM
                       OVC040 FM210800 18004KT P6SM OVC025=
202303201131 TAF KSEA 201131Z 2012/2118 16006KT 6SM -RA SCT005 OVC025 FM201600
                       19007KT P6SM -SHRA OVC020 FM202100 22009KT
                       P6SM VCSH SCT030 OVC040 FM210000 20007KT
                       P6SM OVC040 FM210800 18004KT P6SM OVC025=
202303200855 KSEA 200855Z 2009/2112 28003KT P6SM -RA OVC050 FM201000 16008KT
                       P6SM -RA OVC020 FM201600 17007KT P6SM VCSH
                       OVC025 FM201800 22006KT P6SM VCSH OVC025
                       FM210000 20006KT P6SM OVC040=
202303200520 TAF KSEA 200520Z 2006/2112 20007KT P6SM SCT030 OVC040 FM200700
                       19005KT P6SM -RA OVC040 FM201000 16008KT
                       P6SM -RA OVC020 FM201600 17007KT P6SM VCSH
                       OVC025 FM201800 22006KT P6SM VCSH OVC025
                       FM210000 20006KT P6SM OVC040=
202303200258 KSEA 200258Z 2003/2106 22007KT P6SM FEW060 OVC090 FM200500 17007KT
                       P6SM -RA SCT030 OVC040 FM201000 19008KT
                       P6SM -RA OVC015 FM201600 17007KT P6SM VCSH
                       OVC025 FM202100 22006KT P6SM VCSH OVC025=
202303192324 TAF KSEA 192324Z 2000/2106 26005KT P6SM SCT050 OVC090 FM200400
                       12007KT P6SM -RA SCT030 OVC040 FM201000
                       19008KT P6SM -RA OVC015 FM201600 17007KT
                       P6SM VCSH OVC025 FM202100 22006KT P6SM VCSH
                       OVC025=
202303192101 KSEA 192101Z 1921/2024 VRB05KT P6SM FEW070 OVC100 FM192200 22008KT
                       P6SM BKN050 OVC100 FM200400 15007KT P6SM
                       -RA SCT030 OVC040 FM201000 19008KT P6SM
                       -RA OVC015 FM201600 18007KT P6SM VCSH OVC025=
202303191735 TAF KSEA 191735Z 1918/2024 35006KT P6SM FEW050 OVC100 FM191900
                       10006KT P6SM FEW050 OVC100 FM192200 22008KT
                       P6SM BKN050 OVC100 FM200400 15007KT P6SM
                       -RA SCT030 OVC040 FM201000 19008KT P6SM
                       -RA OVC015 FM201600 18007KT P6SM VCSH OVC025=
202303191352 KSEA 191352Z 1914/2018 03008KT P6SM BKN100 OVC250 FM191900 10006KT
                       P6SM OVC100 FM192200 22008KT P6SM BKN050
                       OVC100 FM200400 15007KT P6SM -RA SCT030
                       OVC040 FM201000 19008KT P6SM -RA OVC020
                       FM201600 18007KT P6SM VCSH BKN022 OVC030=
202303191125 TAF KSEA 191125Z 1912/2018 VRB04KT P6SM BKN100 OVC250 FM191900
                       06006KT P6SM OVC100 FM192300 22008KT P6SM
                       BKN050 OVC100 FM200400 15007KT P6SM -RA
                       SCT030 OVC040 FM201000 19008KT P6SM -RA
                       OVC020 FM201600 18007KT P6SM VCSH BKN022
                       OVC030=
202303190851 KSEA 190851Z 1909/2012 VRB04KT P6SM BKN100 BKN250 FM191200 06005KT
                       P6SM BKN100 OVC150 FM191900 01005KT P6SM
                       OVC100 FM192300 19005KT P6SM BKN050 OVC100
                       FM200400 15005KT P6SM -RA OVC030 FM201000
                       VRB04KT P6SM -RA BKN015=
202303190520 TAF KSEA 190520Z 1906/2012 03004KT P6SM SCT200 FM191200 06005KT
                       P6SM BKN100 OVC150 FM191900 01005KT P6SM
                       OVC100 FM192300 19005KT P6SM BKN050 OVC100
                       FM200400 15005KT P6SM -RA OVC030 FM201000
                       VRB04KT P6SM -RA BKN015=
202303190252 KSEA 190252Z 1903/2006 VRB03KT P6SM SCT250 FM191200 05005KT P6SM
                       BKN100 OVC150 FM192100 13005KT P6SM OVC100
                       FM200000 15005KT P6SM VCSH BKN050 OVC100=
202303182320 TAF KSEA 182320Z 1900/2006 VRB05KT P6SM FEW250 FM190300 06005KT
                       P6SM SCT250 FM191200 05005KT P6SM BKN100
                       OVC150 FM192100 13005KT P6SM OVC100 FM200000
                       15005KT P6SM VCSH BKN050 OVC100=
202303182109 KSEA 182109Z 1821/1924 34005KT P6SM SKC FM190200 06005KT P6SM SCT250
                       FM191200 05005KT P6SM BKN100 OVC150 FM192100
                       13005KT P6SM OVC100=
202303181727 TAF KSEA 181727Z 1818/1924 34005KT P6SM SKC FM190200 06005KT P6SM
                       SCT250 FM191200 05005KT P6SM BKN100 OVC150
                       FM192100 13005KT P6SM OVC100=
202303181340 KSEA 181340Z 1814/1918 15003KT P6SM SKC FM181900 34005KT P6SM SKC
                       FM190200 06005KT P6SM SCT250 FM191200 05005KT
                       P6SM BKN100 OVC150=
202303181120 TAF KSEA 181120Z 1812/1918 VRB04KT P6SM SKC FM181900 34005KT P6SM
                       SKC FM190200 06005KT P6SM SCT250 FM191200
                       05005KT P6SM BKN100 OVC150=
202303180903 KSEA 180903Z 1809/1912 16003KT P6SM BKN150 FM181200 VRB04KT P6SM
                       SCT200 FM181900 35005KT P6SM SCT250 FM190200
                       05005KT P6SM SCT250=
202303180520 TAF KSEA 180520Z 1806/1912 10007KT P6SM OVC150 FM180900 12005KT
                       P6SM SCT100 OVC200 FM181200 06004KT P6SM
                       BKN100 OVC200 FM181800 02005KT P6SM SCT250
                       FM190200 05005KT P6SM SCT250=
202303180300 KSEA 180300Z 1803/1906 06006KT P6SM OVC200 FM180900 07005KT P6SM
                       SCT100 OVC200 FM181200 03004KT P6SM BKN100
                       OVC200 FM181800 33005KT P6SM SCT250 FM190200
                       04005KT P6SM SCT250=
202303172320 TAF KSEA 172320Z 1800/1906 28006KT P6SM BKN250 FM180300 03004KT
                       P6SM OVC200 FM180900 07005KT P6SM SCT100
                       OVC200 FM181200 03004KT P6SM BKN100 OVC200
                       FM181800 33005KT P6SM SCT250=
202303172112 KSEA 172112Z 1721/1824 30004KT P6SM BKN250 FM180300 03004KT P6SM
                       OVC200 FM180900 07005KT P6SM SCT150 OVC200
                       FM181500 03004KT P6SM BKN100 OVC200=
202303171720 TAF KSEA 171720Z 1718/1824 34004KT P6SM SCT250 FM180300 03004KT
                       P6SM OVC200 FM180900 07005KT P6SM SCT150
                       OVC200 FM181500 03004KT P6SM BKN100 OVC200=
202303171319 KSEA 171319Z 1713/1818 03004KT P6SM SKC FM172000 32005KT P6SM SCT200
                       FM180100 03004KT P6SM OVC200 FM180600 07005KT
                       P6SM SCT150 BKN200=
202303171120 TAF KSEA 171120Z 1712/1818 06004KT P6SM SKC FM172000 32005KT P6SM
                       SCT200 FM180100 03004KT P6SM OVC200 FM180600
                       07005KT P6SM SCT150 BKN200=
202303170855 KSEA 170855Z 1709/1812 09005KT P6SM SKC FM171600 VRB03KT P6SM SKC
                       FM172000 30005KT P6SM BKN200 FM180000 03004KT
                       P6SM OVC250 FM180300 06005KT P6SM SCT120
                       BKN200=
202303170530 TAF KSEA 170530Z 1706/1812 07007KT P6SM SCT250 FM171300 VRB03KT
                       P6SM BKN250 FM172000 30005KT P6SM BKN200
                       FM180000 03004KT P6SM OVC250 FM180300 06005KT
                       P6SM SCT120 BKN200=
202303170305 KSEA 170305Z 1703/1806 04008KT P6SM BKN250 FM172000 32005KT P6SM
                       BKN200 FM180500 03004KT P6SM SCT120 BKN200=
202303162321 TAF KSEA 162321Z 1700/1806 36010KT P6SM SCT200 FM170400 03006KT
                       P6SM SCT200 FM172000 32005KT P6SM BKN200
                       FM180500 03004KT P6SM SCT120 BKN200=
202303162109 KSEA 162109Z 1621/1724 01010KT P6SM SCT200 FM170400 03006KT P6SM
                       SCT200 FM172000 29005KT P6SM BKN200=
202303161720 TAF KSEA 161720Z 1618/1724 02011KT P6SM SCT200 FM170400 03006KT
                       P6SM SCT200 FM172000 29005KT P6SM BKN200=
202303161352 KSEA 161352Z 1614/1718 02009KT P6SM SKC FM161900 36009KT P6SM BKN250
                       FM170400 03006KT P6SM SCT250=
202303161120 TAF KSEA 161120Z 1612/1718 04004KT P6SM SCT250 FM161900 02009KT
                       P6SM BKN250 FM170400 03006KT P6SM SCT250=
202303160853 KSEA 160853Z 1609/1712 03005KT P6SM FEW060 FEW250 FM161200 05004KT
                       P6SM BKN250 FM161800 02006KT P6SM BKN250
                       FM162300 36007KT P6SM BKN250=
202303160521 TAF KSEA 160521Z 1606/1712 03005KT P6SM SCT050 FM161200 05004KT
                       P6SM BKN250 FM161800 02006KT P6SM BKN250
                       FM162300 36007KT P6SM BKN250=
202303160258 KSEA 160258Z 1603/1706 18006KT P6SM FEW040 BKN080 FM160600 03005KT
                       P6SM SCT070 BKN120 FM161200 05004KT P6SM
                       BKN250 FM161800 02006KT P6SM BKN250 FM162300
                       36007KT P6SM BKN250=
202303152320 TAF KSEA 152320Z 1600/1706 18006KT P6SM SCT030 BKN080 FM160600
                       03005KT P6SM SCT070 BKN120 FM161200 05004KT
                       P6SM BKN250 FM161800 36006KT P6SM BKN250=
202303152100 KSEA 152100Z 1521/1624 22006KT P6SM SCT030 FM152300 VRB04KT P6SM
                       BKN040 FM160300 32004KT P6SM SCT050 FM160600
                       03005KT P6SM SCT070 BKN120 FM161200 05004KT
                       P6SM BKN250 FM161800 36006KT P6SM BKN250=
202303151745 TAF KSEA 151745Z 1518/1624 16005KT P6SM SCT030 FM151900 22005KT
                       P6SM SCT060 FM152300 VRB04KT P6SM BKN070
                       FM160300 32004KT P6SM SCT070 FM160600 03005KT
                       P6SM SCT070 BKN120 FM161200 05004KT P6SM
                       BKN250 FM161800 36006KT P6SM BKN250=
202303151509 KSEA 151509Z 1515/1618 36005KT P6SM VCSH BKN015 FM151600 VRB04KT
                       P6SM BKN025 FM151800 22005KT P6SM BKN060
                       FM152100 VRB04KT P6SM SCT070 FM160300 32004KT
                       P6SM SCT070 FM160600 03005KT P6SM SCT070
                       FM161200 05004KT P6SM SCT250=
202303151352 KSEA 151352Z 1514/1618 30008KT P6SM VCSH SCT015 BKN060
                      TEMPO 1514/1516 -RA BKN015 FM151600 21008KT
                       P6SM VCSH BKN025 OVC060 FM151800 22009KT
                       P6SM BKN060 FM152100 26008KT P6SM BKN070
                       FM160300 03005KT P6SM SCT070 FM161200 05004KT
                       P6SM SCT250=
202303151125 TAF KSEA 151125Z 1512/1618 19010KT P6SM VCSH SCT022 OVC060
                      TEMPO 1512/1514 -RA BKN022 FM151400 31008KT
                       P6SM VCSH BKN025 OVC060 FM151800 22009KT
                       P6SM BKN060 FM152100 26008KT P6SM BKN070
                       FM160300 03005KT P6SM SCT070 FM161200 05004KT
                       P6SM SCT250=
202303150855 KSEA 150855Z 1509/1612 22010KT P6SM VCSH BKN060 OVC100
                      TEMPO 1509/1513 -RA SCT025 FM151400 19007KT
                       P6SM BKN040 FM151800 22009KT P6SM BKN060
                       FM152100 29006KT P6SM BKN070 FM160300 36005KT
                       P6SM BKN050=
202303150854 KSEA 150854Z 1509/1612 22010KT P6SM BKN060 OVC100
                      TEMPO 1509/1513 -RA SCT025 FM151400 19007KT
                       P6SM BKN040 FM151800 22009KT P6SM BKN060
                       FM152100 29006KT P6SM BKN070 FM160300 36005KT
                       P6SM BKN050=
202303150538 TAF KSEA 150538Z 1506/1612 22007KT P6SM FEW030 OVC080 FM151200
                       20005KT P6SM VCSH BKN030 BKN100 FM151500
                       19007KT P6SM BKN040 FM151800 22009KT P6SM
                       BKN060 FM152100 29006KT P6SM BKN070 FM160300
                       36005KT P6SM BKN050=
202303150256 KSEA 150256Z 1503/1606 24004KT P6SM FEW030 SCT080 FM151200 21005KT
                       P6SM VCSH BKN025 BKN100 FM151500 20007KT
                       P6SM BKN040 FM151800 23009KT P6SM BKN050=
202303142330 TAF KSEA 142330Z 1500/1606 28006KT P6SM SCT025 SCT150 FM151200
                       21005KT P6SM VCSH BKN025 BKN100 FM151500
                       20007KT P6SM BKN040 FM151800 23009KT P6SM
                       BKN050=
202303142108 KSEA 142108Z 1421/1524 28006KT P6SM SCT025 SCT070 SCT200 FM151200
                       21005KT P6SM VCSH BKN030 BKN100 FM151500
                       20007KT P6SM BKN040 FM151800 23009KT P6SM
                       BKN040=
202303141743 TAF KSEA 141743Z 1418/1524 16005KT P6SM SCT080 BKN200 FM142100
                       28006KT P6SM SCT070 SCT200 FM151100 21005KT
                       P6SM VCSH BKN030 BKN100 FM151500 20007KT
                       P6SM BKN040=
202303141355 KSEA 141355Z 1414/1518 18005KT P6SM FEW030 SCT050 FM142100 28006KT
                       P6SM SCT070 SCT200 FM150800 21005KT P6SM
                       -RA BKN030 BKN100 FM151500 20007KT P6SM
                       VCSH BKN040=
202303141125 TAF KSEA 141125Z 1412/1518 18010KT P6SM VCSH SCT025 SCT070 FM141500
                       18007KT P6SM FEW030 SCT070 FM142100 28006KT
                       P6SM SCT070 SCT200 FM150800 21005KT P6SM
                       -RA BKN030 BKN100 FM151500 20007KT P6SM
                       VCSH BKN040=
202303140852 KSEA 140852Z 1409/1512 18010KT P6SM VCSH SCT025 BKN040
                      TEMPO 1409/1413 -SHRA BKN025 FM141300 18007KT
                       P6SM SCT030 BKN050 FM142100 28005KT P6SM
                       SCT030 BKN100 FM150600 21005KT P6SM VCSH
                       BKN030 BKN100=
202303140544 TAF KSEA 140544Z 1406/1512 21011G17KT P6SM FEW030 FM141300 18005KT
                       P6SM SCT030 BKN070 FM142100 28005KT P6SM
                       SCT030 BKN100 FM150600 21005KT P6SM VCSH
                       BKN030 BKN100=
202303140306 KSEA 140306Z 1403/1506 21011G20KT P6SM SCT035 SCT100 FM140900 18009KT
                       P6SM VCSH BKN040 BKN070 FM141400 17005KT
                       P6SM SCT030 BKN070 FM142100 27005KT P6SM
                       SCT030 BKN100=
202303132327 TAF KSEA 132327Z 1400/1506 20010KT P6SM VCSH SCT015 OVC045 FM141100
                       17009KT P6SM VCSH BKN040 BKN070 FM141400
                       17005KT P6SM SCT030 BKN070 FM142100 27005KT
                       P6SM SCT030 BKN100=
202303132106 KSEA 132106Z 1321/1424 20010KT P6SM VCSH SCT015 OVC045 FM141100
                       17009KT P6SM VCSH BKN040 BKN070 FM141400
                       17005KT P6SM SCT030 BKN070 FM142100 27005KT
                       P6SM SCT030 SCT250=
202303131723 TAF KSEA 131723Z 1318/1424 19011KT P6SM -RA SCT015 OVC030 FM132000
                       21010KT P6SM VCSH SCT020 OVC035 FM140100
                       20009KT P6SM VCSH BKN040 BKN070 FM141400
                       17005KT P6SM SCT030 BKN070=
202303131507 KSEA 131507Z 1315/1418 20011KT 5SM -RA SCT015 OVC030 FM132000 21010KT
                       P6SM VCSH SCT020 OVC035 FM140100 20009KT
                       P6SM VCSH BKN040 BKN070 FM141400 17005KT
                       P6SM SCT030 BKN070=
202303131351 KSEA 131351Z 1314/1418 21011KT 5SM -RA SCT007 OVC030 FM132000 21012KT
                       P6SM VCSH SCT020 OVC030 FM140100 20009KT
                       P6SM VCSH BKN040 BKN070 FM141400 17005KT
                       P6SM SCT030 BKN070=
202303131124 TAF KSEA 131124Z 1312/1418 21011KT 5SM -RA SCT007 OVC030 FM132000
                       21012KT P6SM VCSH SCT020 OVC030 FM140100
                       20009KT P6SM VCSH BKN040 BKN070 FM141400
                       17005KT P6SM SCT030 BKN070=
202303130852 KSEA 130852Z 1309/1412 15010G16KT 6SM -RA BR OVC025 FM131200 19010KT
                       5SM -RA SCT007 OVC014 FM132000 21007KT P6SM
                       -SHRA SCT015 OVC030 FM140100 20007KT P6SM
                       VCSH BKN040 BKN070=
202303130524 TAF KSEA 130524Z 1306/1412 16007KT P6SM -RA SCT020 OVC030
                      TEMPO 1306/1309 6SM -RA BR OVC020 FM130900
                       19010G16KT 6SM -RA BR OVC020 FM131200 19010KT
                       5SM -RA SCT007 OVC014 FM132000 21007KT P6SM
                       -SHRA SCT015 OVC030 FM140100 20007KT P6SM
                       VCSH BKN040 BKN070=
202303130347 KSEA 130347Z 1304/1406 12010KT 6SM -RA BR OVC027 FM130600 17010G16KT
                       6SM -RA BR OVC020 FM131600 19011KT 6SM -SHRA
                       SCT007 OVC010 FM132000 21006KT 6SM -SHRA
                       SCT007 OVC035=
202303122330 TAF KSEA 122330Z 1300/1406 VRB04KT P6SM -RA OVC035 FM130100 12010KT
                       6SM -RA BR OVC027 FM130800 17009KT 6SM -RA
                       BR OVC020 FM131600 19011KT 6SM -SHRA SCT007
                       OVC010 FM132000 21006KT 6SM -SHRA SCT007
                       OVC035=
202303122055 KSEA 122055Z 1221/1324 VRB04KT P6SM -RA SCT020 BKN050 BKN100 FM130000
                       12010KT 6SM -RA BR OVC027 FM130800 17009KT
                       6SM -RA BR OVC020 FM131600 19011KT 6SM -SHRA
                       SCT007 OVC010=
202303121731 TAF KSEA 121731Z 1218/1324 06005KT P6SM -RA BKN050 BKN150 FM130000
                       12010KT 6SM -RA BR OVC027 FM130900 17009KT
                       6SM -RA BR OVC020 FM131600 19011KT 6SM -SHRA
                       SCT007 OVC010=
202303121504 KSEA 121504Z 1215/1318 VRB03KT P6SM SCT050 SCT090 FM121900 10008KT
                       P6SM -RA OVC045 FM130000 12010KT 6SM -RA
                       BR OVC027 FM130900 17009KT 6SM -RA BR OVC020
                       FM131600 19011KT 6SM -SHRA SCT007 OVC010=
202303121353 KSEA 121353Z 1214/1318 10005KT P6SM SCT050 SCT090 FM122000 10008KT
                       P6SM -RA OVC045 FM130000 12010KT 6SM -RA
                       BR OVC027 FM130900 17009KT 6SM -RA BR OVC020
                       FM131600 19011KT 6SM -SHRA SCT007 OVC010=
202303121122 TAF KSEA 121122Z 1212/1318 10005KT P6SM SCT050 SCT090 FM122000
                       10008KT P6SM -RA OVC045 FM130000 12010KT
                       6SM -RA BR OVC027 FM130900 17009KT 6SM -RA
                       BR OVC020 FM131600 19011KT 6SM -SHRA SCT007
                       OVC010=
202303120851 KSEA 120851Z 1209/1312 10005KT P6SM SCT050 SCT090 FM122200 08008KT
                       P6SM -RA OVC045 FM130200 12010KT 6SM -RA
                       BR OVC027 FM130900 17009KT 6SM -RA BR OVC020=
202303120522 TAF KSEA 120522Z 1206/1312 VRB03KT P6SM SCT090 FM120900 09005KT
                       P6SM SCT050 BKN100 FM122200 08008KT P6SM
                       -RA OVC045 FM130200 12010KT 6SM -RA BR OVC027
                       FM130900 17009KT 6SM -RA BR OVC020=
202303120309 KSEA 120309Z 1203/1306 VRB04KT P6SM BKN060 OVC100 FM120500 11005KT
                       P6SM BKN080 OVC100 FM120800 09005KT P6SM
                       OVC050 FM122200 14006KT P6SM -RA OVC050=
202303120023 KSEA 120023Z 1200/1306 VRB06KT P6SM VCSH SCT035 BKN060 OVC100 FM120300
                       13005KT P6SM BKN080 OVC100 FM120800 09005KT
                       P6SM OVC050 FM122200 14006KT P6SM -RA OVC050=
202303112339 TAF KSEA 112339Z 1200/1306 20006KT P6SM VCSH SCT035 BKN050 OVC100
                       FM120300 13005KT P6SM BKN080 OVC100 FM120800
                       09005KT P6SM OVC050 FM122200 14006KT P6SM
                       -RA OVC050=
202303112055 KSEA 112055Z 1121/1224 20006KT P6SM VCSH SCT035 BKN050 OVC100 FM120300
                       08005KT P6SM BKN080 OVC100 FM120800 10005KT
                       P6SM OVC050=
202303111733 TAF KSEA 111733Z 1118/1224 18006KT P6SM VCSH SCT035 BKN050 OVC100
                       FM120300 08005KT P6SM BKN080 OVC100 FM120800
                       10005KT P6SM OVC050=
202303111404 KSEA 111404Z 1114/1218 13007KT P6SM VCSH BKN040 OVC100 FM111800
                       21006KT P6SM VCSH SCT025 BKN050 FM120300
                       08005KT P6SM BKN080 OVC120 FM120800 10005KT
                       P6SM OVC050=
202303111121 TAF KSEA 111121Z 1112/1218 19010KT P6SM VCSH SCT011 BKN025 OVC050
                       FM111300 18007KT P6SM VCSH OVC040 FM111800
                       21006KT P6SM VCSH SCT025 BKN050 FM120300
                       08005KT P6SM BKN080 OVC120 FM120800 10005KT
                       P6SM OVC050=
202303110858 KSEA 110858Z 1109/1212 19010KT P6SM VCSH SCT015 BKN050 OVC150 FM111300
                       18007KT P6SM VCSH OVC022 FM111800 21006KT
                       P6SM VCSH SCT025 BKN050 FM120300 08005KT
                       P6SM BKN080 OVC120=
202303110526 TAF KSEA 110526Z 1106/1212 19009KT P6SM VCSH OVC022 FM111800 21006KT
                       P6SM VCSH SCT025 BKN050 FM120300 08005KT
                       P6SM BKN080 OVC120=
202303110419 KSEA 110419Z 1104/1206 22008KT P6SM SCT025 BKN040 BKN120
                      TEMPO 1104/1106 -SHRA BKN025 OVC040 FM110600
                       19006KT P6SM VCSH OVC025 FM111800 21006KT
                       P6SM SCT025 BKN050=
202303110251 KSEA 110251Z 1103/1206 22008KT P6SM BKN040 BKN120 FM110600 19006KT
                       P6SM OVC025 FM111800 21006KT P6SM SCT025
                       BKN050=
202303102321 TAF KSEA 102321Z 1100/1206 21010KT P6SM BKN040 BKN120 FM110600
                       19006KT P6SM OVC025 FM111800 21006KT P6SM
                       SCT025 BKN050=
202303102057 KSEA 102057Z 1021/1124 21010KT P6SM BKN040 BKN200 FM110800 19006KT
                       P6SM OVC025 FM111800 21006KT P6SM SCT025
                       BKN040=
202303101721 TAF KSEA 101721Z 1018/1124 23009KT P6SM SCT012 BKN020 FM102000
                       22007KT P6SM SCT025 BKN040 FM110800 19006KT
                       P6SM OVC025 FM111800 21006KT P6SM SCT025
                       BKN040=
202303101400 KSEA 101400Z 1014/1118 22007KT P6SM VCSH SCT020 OVC030
                      TEMPO 1014/1017 VRB03KT -SHRA OVC020 FM101700
                       18008KT P6SM VCSH SCT020 BKN030 FM102000
                       22007KT P6SM VCSH SCT025 BKN040 FM110800
                       19006KT P6SM OVC025=
202303101215 KSEA 101215Z 1012/1118 02007KT P6SM VCSH SCT020 OVC030
                      TEMPO 1012/1016 VRB05KT -SHRA OVC020 FM101600
                       18008KT P6SM VCSH SCT020 BKN030 FM102000
                       22007KT P6SM VCSH SCT025 BKN040 FM110800
                       19006KT P6SM OVC025=
202303101120 TAF KSEA 101120Z 1012/1118 07008KT 6SM -RA BR OVC020
                      TEMPO 1012/1016 VRB05KT 5SM -RA BR SCT010
                       OVC015 FM101600 18008KT P6SM VCSH SCT020
                       OVC025 FM102000 22007KT P6SM VCSH SCT025
                       BKN040 FM110800 19006KT P6SM OVC025=
202303100857 KSEA 100857Z 1009/1112 08009G17KT P6SM VCSH OVC050 FM101000 03008KT
                       P6SM -RA SCT025 OVC030 FM101200 05005KT
                       6SM -RA BR OVC020
                      TEMPO 1012/1016 5SM -RA BR SCT010 OVC015
                       FM101600 18006KT P6SM VCSH OVC020 FM102000
                       20007KT P6SM VCSH SCT025 BKN040 FM110600
                       17006KT P6SM OVC025=
202303100520 TAF KSEA 100520Z 1006/1112 11014G24KT P6SM OVC070 FM100900 08011KT
                       P6SM VCSH BKN050 OVC070 FM101200 13005KT
                       6SM -RA BR OVC020 FM102000 20007KT P6SM
                       VCSH SCT025 BKN040 FM110600 17006KT P6SM
                       OVC025=
202303100300 KSEA 100300Z 1003/1106 11015G25KT P6SM OVC070 FM100900 08011KT
                       P6SM VCSH BKN050 OVC070 FM101200 13005KT
                       6SM -RA BR OVC020 FM101800 20007KT P6SM
                       SCT025 BKN045=
202303092327 TAF KSEA 092327Z 1000/1106 11014G24KT P6SM BKN070 OVC100 FM100900
                       06008KT P6SM BKN050 OVC070 FM101200 13005KT
                       6SM -RA BR OVC020 FM101800 20007KT P6SM
                       SCT025 BKN045=
202303092159 KSEA 092159Z 0922/1024 12015G25KT P6SM SCT100 BKN200 FM100600 06008KT
                       P6SM BKN050 OVC070 FM101200 13005KT 6SM
                       -RA BR BKN025 OVC040 FM101900 20007KT P6SM
                       -SHRA SCT025 BKN045=
202303092058 KSEA 092058Z 0921/1024 11012G20KT P6SM SCT070 BKN150 FM100600 03005KT
                       P6SM BKN050 OVC070 FM101200 13005KT 6SM
                       -RA BR BKN025 OVC040 FM101900 20007KT P6SM
                       -SHRA SCT025 BKN045=
202303091722 TAF KSEA 091722Z 0918/1024 06008KT P6SM OVC070 FM092100 09012G20KT
                       P6SM BKN090 BKN200 FM100600 03005KT P6SM
                       BKN050 OVC070 FM101200 13005KT 6SM -RA BR
                       BKN025 OVC040 FM101900 20007KT P6SM -SHRA
                       SCT025 BKN045=
202303091357 KSEA 091357Z 0914/1018 11008KT P6SM SCT050 OVC060 FM091900 09011G19KT
                       P6SM BKN090 BKN200 FM100600 03005KT P6SM
                       BKN050 OVC070 FM101100 13005KT 6SM -RA BR
                       BKN025 OVC040=
202303091123 TAF KSEA 091123Z 0912/1018 11008KT P6SM SCT050 OVC060 FM091900
                       09011G19KT P6SM BKN090 BKN200 FM100600 03005KT
                       P6SM BKN050 OVC070 FM101100 13005KT 6SM
                       -RA BR BKN025 OVC040=
202303090853 KSEA 090853Z 0909/1012 11008KT P6SM SCT070 BKN090 FM091800 09008KT
                       P6SM BKN100 BKN200 FM100600 04005KT P6SM
                       OVC060=
202303090542 TAF KSEA 090542Z 0906/1012 11008KT P6SM SCT050 BKN090 FM091800
                       05008KT P6SM BKN100 BKN200 FM092100 07012KT
                       P6SM BKN100 BKN200 FM100600 04005KT P6SM
                       OVC060=
202303090258 KSEA 090258Z 0903/1006 12008KT P6SM SCT035 BKN040 BKN200
                      TEMPO 0903/0904 -SHRA BKN030 OVC050 FM090500
                       11005KT P6SM SCT050 BKN090 FM091800 05008KT
                       P6SM BKN100 BKN200 FM092100 07012KT P6SM
                       BKN100 BKN200=
202303090256 KSEA 090256Z 0903/1006 19006KT P6SM SCT035 BKN040 BKN200
                      TEMPO 0903/0904 -SHRA BKN030 OVC050 FM090500
                       11005KT P6SM SCT050 BKN090 FM091800 05008KT
                       P6SM BKN100 BKN200 FM092100 07012KT P6SM
                       BKN100 BKN200=
202303082320 TAF KSEA 082320Z 0900/1006 19006KT P6SM SCT035 BKN050 BKN120
                      TEMPO 0900/0904 -SHRA BKN025 OVC050 FM090500
                       11005KT P6SM SCT050 BKN090 FM091800 05008KT
                       P6SM BKN100 BKN200 FM092100 07012KT P6SM
                       BKN100 BKN200=
202303082059 KSEA 082059Z 0821/0924 19005KT P6SM SCT035 BKN060 BKN120
                      TEMPO 0821/0824 -SHRA BKN035 OVC060 FM090500
                       11006KT P6SM BKN090 FM091800 06010KT P6SM
                       BKN100 BKN150=
202303081724 TAF KSEA 081724Z 0818/0924 15004KT P6SM BKN008 OVC050 FM081900
                       22005KT P6SM VCSH BKN050 OVC100 FM090500
                       11006KT P6SM BKN090 FM091800 06010KT P6SM
                       BKN100 BKN150=
202303081451 KSEA 081451Z 0815/0918 15003KT 6SM BR VCSH BKN020 BKN050 BKN100
                       TEMPO 0815/0816 3SM BR BKN005 BKN015 FM081700
                       20005KT P6SM SCT025 BKN050 FM081900 22005KT
                       P6SM VCSH BKN050 OVC100 FM090500 11006KT
                       P6SM BKN090=
202303081213 KSEA 081213Z 0812/0918 VRB03KT P6SM VCSH SCT020 SCT050 BKN100
                      TEMPO 0813/0817 2SM BR SCT002 BKN005 OVC050
                       FM081900 22005KT P6SM VCSH BKN050 OVC100
                       FM090500 11006KT P6SM BKN090=
202303081120 TAF KSEA 081120Z 0812/0918 08005KT P6SM VCSH SCT050 BKN100
                      TEMPO 0814/0818 5SM BR SCT010 BKN020 OVC050
                       FM081900 22005KT P6SM VCSH BKN050 OVC100
                       FM090500 11006KT P6SM BKN090=
202303080852 KSEA 080852Z 0809/0912 VRB03KT P6SM SCT050 BKN090 FM081000 VRB03KT
                       P6SM VCSH SCT050 BKN100
                      TEMPO 0815/0818 5SM BR BKN025 OVC050 FM082000
                       20005KT P6SM VCSH BKN050 BKN100 FM090200
                       14005KT P6SM OVC040=
202303080520 TAF KSEA 080520Z 0806/0912 33005KT P6SM SCT060 BKN250 FM080700
                       11004KT P6SM SCT050 BKN200 FM081000 VRB03KT
                       P6SM SCT050 BKN100 FM082000 20005KT P6SM
                       VCSH BKN050 BKN100 FM090200 14005KT P6SM
                       OVC040=
202303080301 KSEA 080301Z 0803/0906 33005KT P6SM VCSH FEW040 SCT060 BKN200 FM080400
                       11004KT P6SM SCT050 BKN100 FM082000 20005KT
                       P6SM VCSH BKN050 BKN100=
202303072320 TAF KSEA 072320Z 0800/0906 31005KT P6SM FEW025 SCT050 BKN120
                      TEMPO 0800/0804 -SHRA SCT025 BKN035 BKN050
                       FM080400 11004KT P6SM SCT050 BKN100 FM082000
                       18005KT P6SM VCSH BKN050 BKN100=
202303072101 KSEA 072101Z 0721/0824 31006KT P6SM SCT050 BKN120 FM080200 11004KT
                       P6SM SCT050 BKN100 FM082000 18005KT P6SM
                       BKN050 BKN100=
202303071733 TAF KSEA 071733Z 0718/0824 35004KT P6SM SCT050 BKN100 FM080200
                       11004KT P6SM SCT050 BKN100 FM082000 18005KT
                       P6SM BKN050 BKN100=
202303071359 KSEA 071359Z 0714/0818 11005KT P6SM VCSH SCT050 BKN070 FM072000
                       31005KT P6SM VCSH BKN050 BKN100 FM080200
                       11004KT P6SM SCT050 BKN100 FM081500 18005KT
                       P6SM BKN030 OVC050=
202303071120 TAF KSEA 071120Z 0712/0818 15005KT P6SM VCSH SCT030 BKN040 BKN100
                       TEMPO 0712/0716 -SHRA BKN010 OVC025 FM072000
                       21005KT P6SM VCSH BKN050 BKN100 FM080200
                       11004KT P6SM SCT050 BKN100 FM081500 18005KT
                       P6SM BKN030 OVC050=
202303070854 KSEA 070854Z 0709/0812 11005KT P6SM VCSH BKN040 BKN100
                      TEMPO 0709/0711 -SHRA BKN020 OVC040 FM071300
                       13006KT P6SM VCSH BKN050 BKN100
                      TEMPO 0714/0718 -SHRA SCT025 OVC050 FM072000
                       21005KT P6SM VCSH BKN050 BKN100 FM080300
                       11004KT P6SM SCT050 BKN100=
202303070523 TAF KSEA 070523Z 0706/0812 11007KT P6SM VCSH BKN040 BKN100
                      TEMPO 0706/0708 -RA FM071300 13006KT P6SM
                       VCSH BKN050 BKN100
                      TEMPO 0714/0718 -SHRA OVC050 FM072000 21005KT
                       P6SM VCSH BKN050 BKN100 FM080300 11004KT
                       P6SM SCT050 BKN100=
202303070428 KSEA 070428Z 0704/0806 18007KT P6SM VCSH SCT040 BKN100
                      TEMPO 0704/0706 -RA BKN040 FM070600 11005KT
                       P6SM BKN050 BKN100 FM072000 21005KT P6SM
                       SCT050 BKN100 FM080300 11004KT P6SM SCT050
                       BKN100=
202303070255 KSEA 070255Z 0703/0806 18007KT P6SM SCT040 BKN100 FM070600 11005KT
                       P6SM BKN050 BKN100 FM072000 21005KT P6SM
                       SCT050 BKN100 FM080300 11004KT P6SM SCT050
                       BKN100=
202303062322 TAF KSEA 062322Z 0700/0806 18007KT P6SM BKN070 BKN250 FM070600
                       11005KT P6SM BKN050 BKN100 FM072000 21005KT
                       P6SM SCT050 BKN100 FM080300 11004KT P6SM
                       SCT050 BKN100=
202303062109 KSEA 062109Z 0621/0724 18010G16KT P6SM SCT035 SCT070 BKN250 FM070600
                       11005KT P6SM BKN050 BKN100 FM071900 21005KT
                       P6SM OVC050=
202303061725 TAF KSEA 061725Z 0618/0724 18004KT P6SM FEW010 SCT045 BKN060 FM062000
                       18008KT P6SM BKN050 BKN100 FM070600 11005KT
                       P6SM BKN050 BKN100 FM071900 21005KT P6SM
                       OVC050=
202303061411 KSEA 061411Z 0614/0718 16005KT P6SM SCT050 SCT250 FM061500 12004KT
                       P6SM BKN100 FM062000 20010KT P6SM BKN050
                       BKN100 FM070400 15008KT P6SM VCSH OVC050=
202303061127 TAF KSEA 061127Z 0612/0718 10005KT P6SM SCT050 BKN200 FM061500
                       12004KT P6SM BKN100 FM062000 20010KT P6SM
                       BKN050 BKN100 FM070400 15008KT P6SM VCSH
                       OVC050=
202303060859 KSEA 060859Z 0609/0712 13004KT P6SM SCT060 BKN200 FM061100 10005KT
                       6SM BR BKN100 FM062000 20010KT P6SM -SHRA
                       BKN050 BKN100 FM070400 15008KT P6SM OVC050=
202303060530 TAF KSEA 060530Z 0606/0712 06006KT P6SM -SHRA BKN027 OVC040 FM060800
                       13004KT P6SM BKN040 OVC080 FM061100 10005KT
                       6SM BR BKN100 FM062000 20010KT P6SM BKN100=
202303060238 KSEA 060238Z 0603/0706 15008KT P6SM -SHRA BKN027 OVC040 FM060800
                       13004KT P6SM BKN040 OVC080 FM061100 10005KT
                       6SM BR BKN100 FM062000 20010KT P6SM BKN100=
202303052331 TAF KSEA 052331Z 0600/0706 34006KT P6SM VCSH SCT060 BKN200
                      TEMPO 0600/0604 -SHRA BKN060 FM060400 06006KT
                       P6SM -SHRA BKN027 OVC040 FM060800 13004KT
                       P6SM BKN040 OVC080 FM061100 10005KT 6SM
                       BR BKN100 FM062000 20010KT P6SM BKN100=
202303052057 KSEA 052057Z 0521/0624 35006KT P6SM FEW020 BKN200 FM060400 11004KT
                       P6SM VCSH OVC045 FM060800 13004KT P6SM VCSH
                       OVC015 FM061700 10005KT P6SM SCT020 BKN035
                       FM062200 13006KT P6SM BKN050=
202303051724 TAF KSEA 051724Z 0518/0624 02005KT P6SM FEW030 BKN150 FM052200
                       35005KT P6SM BKN100 FM060400 11004KT P6SM
                       VCSH OVC045 FM060800 13004KT P6SM VCSH OVC015
                       FM061700 10005KT P6SM SCT020 BKN035 FM062200
                       13006KT P6SM BKN050=
202303051405 KSEA 051405Z 0514/0618 00000KT P6SM SCT060 FM051600 VRB03KT P6SM
                       SCT025 SCT200 FM051900 02005KT P6SM BKN050
                       FM052200 35005KT P6SM BKN100 FM060400 06003KT
                       P6SM OVC060=
202303051129 TAF KSEA 051129Z 0512/0618 33004KT P6SM FEW070 SCT200 FM051500
                       VRB03KT P6SM SCT025 SCT200 FM051900 02005KT
                       P6SM BKN050 FM052200 35005KT P6SM BKN100
                       FM060400 06003KT P6SM OVC060=
202303050856 KSEA 050856Z 0509/0612 22003KT P6SM FEW070 SCT200 FM051500 VRB03KT
                       P6SM SCT025 OVC050 FM051900 02005KT P6SM
                       BKN050 FM052200 35005KT P6SM BKN100=
202303050536 TAF KSEA 050536Z 0506/0612 12006KT P6SM VCSH OVC070 FM050900 16006KT
                       P6SM SCT025 OVC050 FM051900 02005KT P6SM
                       BKN050 FM052200 35005KT P6SM BKN100=
202303050301 KSEA 050301Z 0503/0606 18010G20KT P6SM VCSH SCT050 OVC060 FM050400
                       12006KT P6SM VCSH OVC070 FM050900 16006KT
                       P6SM SCT025 OVC050 FM051900 02005KT P6SM
                       BKN050=
202303042328 TAF KSEA 042328Z 0500/0606 10009KT P6SM VCSH BKN045 OVC060 FM050400
                       12006KT P6SM VCSH OVC070 FM050900 16006KT
                       P6SM SCT025 OVC050 FM051900 02005KT P6SM
                       BKN050=
202303042051 KSEA 042051Z 0421/0524 10009KT P6SM VCSH BKN035 OVC045
                      TEMPO 0421/0422 -RA FM050400 12006KT P6SM
                       OVC050 FM050900 16006KT P6SM VCSH BKN022
                       OVC040
                      PROB30 0512/0518 -RA FM052100 14005KT P6SM
                       BKN050=
202303041824 KSEA 041824Z 0418/0524 04010KT 6SM -RA BKN022 OVC030 FM042200 10009KT
                       P6SM VCSH BKN030 OVC040 FM050400 12006KT
                       P6SM OVC050 FM050900 16006KT P6SM VCSH BKN022
                       OVC040
                      PROB30 0512/0518 -RA FM052100 14005KT P6SM
                       BKN050=
202303041728 TAF KSEA 041728Z 0418/0524 09010KT P6SM -RA BKN025 OVC035 FM042300
                       10009KT P6SM VCSH BKN030 OVC040 FM050400
                       12006KT P6SM OVC050 FM050900 16006KT P6SM
                       VCSH BKN022 OVC040
                      PROB30 0512/0518 -RA FM052100 14005KT P6SM
                       BKN050=
202303041401 KSEA 041401Z 0414/0518 11007KT P6SM -RA BKN025 OVC040 FM041900
                       11008KT P6SM VCSH BKN035 OVC050 FM042200
                       09009KT P6SM VCSH SCT035 BKN050 OVC080 FM050400
                       09006KT P6SM OVC050 FM051100 16006KT P6SM
                       VCSH BKN022 OVC040=
202303041125 TAF KSEA 041125Z 0412/0518 11007KT P6SM -RA BKN025 OVC040 FM041900
                       11008KT P6SM VCSH BKN035 OVC050 FM042200
                       09009KT P6SM VCSH SCT035 BKN050 OVC080 FM050400
                       09006KT P6SM OVC050 FM051100 16006KT P6SM
                       VCSH BKN022 OVC040=
202303040713 KSEA 040713Z 0407/0512 14009KT P6SM -SHRA BKN025 OVC080 FM040900
                       11006KT 6SM -SHRASN BR SCT015 OVC020 FM041600
                       11008KT P6SM VCSH BKN035 OVC050 FM042200
                       16009KT P6SM VCSH SCT035 BKN050 OVC080 FM050400
                       09006KT P6SM OVC050=
202303040521 TAF KSEA 040521Z 0406/0512 14012KT P6SM -SHRA SCT025 OVC080 FM040900
                       11006KT 6SM -SHRASN BR SCT015 OVC020 FM041600
                       11008KT P6SM VCSH BKN035 OVC050 FM042200
                       16009KT P6SM VCSH SCT035 BKN050 OVC080 FM050400
                       09006KT P6SM OVC050=
202303040315 KSEA 040315Z 0403/0506 14012KT P6SM -SHRA SCT010 OVC018 FM040900
                       11006KT 6SM -SHRASN BR SCT015 OVC020 FM041600
                       11008KT P6SM VCSH BKN035 OVC050 FM042200
                       16009KT P6SM VCSH SCT035 BKN050 OVC080=
202303032323 TAF KSEA 032323Z 0400/0506 17012KT P6SM -SHRA SCT015 BKN030 OVC050
                       TEMPO 0400/0402 5SM -SHRA BR BKN018 OVC030
                       FM040200 16008KT 6SM -SHRA BR BKN015 OVC020
                       FM040900 11006KT 6SM -SHRASN BR SCT015 OVC020
                       FM041600 11008KT P6SM VCSH BKN035 OVC050
                       FM042200 16009KT P6SM VCSH SCT035 BKN050
                       OVC080=
202303032057 KSEA 032057Z 0321/0424 20012G18KT P6SM -SHRA SCT015 BKN030 OVC050
                       TEMPO 0321/0401 5SM -SHRA BR BKN018 OVC030
                       FM040100 15008KT P6SM -RA BKN022 OVC040
                       FM040900 11006KT 6SM -SHRASN BR SCT015 OVC020
                       FM041600 11008KT P6SM VCSH BKN035 OVC050=
202303031727 TAF KSEA 031727Z 0318/0424 19014G24KT P6SM VCSH SCT009 BKN012 OVC020
                       FM032000 19012G18KT P6SM -SHRA BKN025 OVC040
                       FM040200 15008KT P6SM -RA BKN022 OVC040
                       FM040900 11006KT 6SM -SHRASN BR SCT015 OVC020
                       FM041600 11008KT P6SM VCSH BKN035 OVC050=
202303031618 KSEA 031618Z 0316/0418 19014G24KT P6SM VCSH BKN012 OVC020 FM032000
                       19012G18KT P6SM -SHRA BKN025 OVC040 FM040200
                       15008KT P6SM -SHRA BKN022 OVC040 FM040900
                       13006KT 6SM -SHRASN BR OVC020 FM041600 07007KT
                       P6SM VCSH BKN035=
202303031403 KSEA 031403Z 0314/0418 19014G22KT P6SM VCSH BKN012 OVC020 FM032000
                       19012G18KT P6SM -SHRA BKN022 OVC040 FM040200
                       15008KT P6SM -SHRA BKN022 OVC040 FM040900
                       13006KT 6SM -SHRASN BR OVC020 FM041600 07007KT
                       P6SM VCSH BKN035=
202303031128 TAF KSEA 031128Z 0312/0418 19010G16KT P6SM VCSH BKN015 BKN030 BKN100
                       TEMPO 0312/0316 SCT020 BKN100 FM032000 19012G18KT
                       P6SM -SHRA BKN025 OVC040 FM040200 15008KT
                       P6SM -SHRA BKN022 OVC040 FM040900 13006KT
                       6SM -SHRASN BR OVC020 FM041600 07007KT P6SM
                       VCSH BKN035=
202303030915 KSEA 030915Z 0309/0412 22012KT P6SM OVC014 FM031200 20008KT P6SM
                       -SHRA SCT015 BKN020 OVC025 FM032000 19012G18KT
                       P6SM -SHRA BKN035 OVC050 FM040200 15008KT
                       P6SM -SHRA BKN025 OVC050=
202303030526 TAF KSEA 030526Z 0306/0412 22011KT P6SM BKN020 BKN110 FM031200
                       20008KT P6SM -SHRA SCT015 BKN020 OVC025
                       FM032000 19012G18KT P6SM -SHRA BKN035 OVC050
                       FM040200 15008KT P6SM -SHRA BKN025 OVC050=
202303030306 KSEA 030306Z 0303/0406 22010KT P6SM VCSH BKN020 BKN110 FM031200
                       20011KT P6SM -SHRA SCT010 BKN020 OVC025
                       FM032000 19012G18KT P6SM -SHRA BKN035 OVC050
                       FM040200 15008KT P6SM -SHRA BKN025 OVC050=
202303022320 TAF KSEA 022320Z 0300/0406 23012G22KT P6SM VCSH BKN040 BKN060 FM031200
                       20011KT P6SM -SHRA SCT010 BKN020 OVC025
                       FM032000 19012G18KT P6SM -SHRA BKN035 OVC050
                       FM040200 15008KT P6SM -SHRA BKN025 OVC050=
202303022107 KSEA 022107Z 0221/0324 22012G23KT P6SM VCSH SCT025 BKN035 FM030400
                       22012G19KT P6SM VCSH BKN035 FM031200 20011KT
                       P6SM -SHRA BKN020 OVC025 FM032000 19012G18KT
                       P6SM -SHRA BKN035 OVC050=
202303021956 KSEA 021956Z 0220/0324 22014G26KT P6SM VCSH SCT015 BKN025 FM022100
                       22014G25KT P6SM VCSH SCT025 BKN035 FM030400
                       22012G19KT P6SM VCSH BKN035 FM031200 20011KT
                       P6SM -SHRA BKN020 OVC025 FM032000 19012G18KT
                       P6SM -SHRA BKN035 OVC050=
202303021732 TAF KSEA 021732Z 0218/0324 21015G30KT P6SM -SHRA SCT020 BKN025
                       OVC050 FM022000 23014G28KT P6SM VCSH BKN040
                       BKN100 FM030400 22012G19KT P6SM VCSH BKN035
                       FM031200 20011KT P6SM -SHRA BKN020 OVC025
                       FM032000 19012G18KT P6SM -SHRA BKN035 OVC050=
202303021635 KSEA 021635Z 0217/0318 21015G25KT P6SM -SHRA OVC020 FM021800 23013G25KT
                       P6SM -SHRA BKN020 OVC035 FM022100 22012G18KT
                       P6SM VCSH BKN040 BKN100 FM030400 20012KT
                       P6SM VCSH BKN035 FM031200 20010KT P6SM VCSH
                       BKN025=
202303021358 KSEA 021358Z 0214/0318 19010G18KT P6SM -RA OVC015 FM021800 23015G23KT
                       P6SM -SHRA BKN020 OVC035 FM022100 22012G18KT
                       P6SM VCSH BKN040 BKN100 FM030400 20012KT
                       P6SM VCSH BKN035 FM031200 20010KT P6SM VCSH
                       BKN025=
202303021129 TAF KSEA 021129Z 0212/0318 19017G28KT P6SM -RA OVC013 FM021800
                       23015G23KT P6SM -SHRA BKN020 OVC035 FM022100
                       22012G18KT P6SM VCSH BKN040 BKN100 FM030400
                       20012KT P6SM VCSH BKN035 FM031200 20010KT
                       P6SM VCSH BKN025=
202303020909 KSEA 020909Z 0209/0312 19015G25KT P6SM -RA BKN015 OVC025 FM021000
                       20018G29KT 5SM -RA BR SCT007 OVC015 FM021800
                       23012G23KT P6SM -SHRA BKN022 OVC035 FM022100
                       22012KT P6SM VCSH BKN050=
202303020526 TAF KSEA 020526Z 0206/0312 19012G20KT P6SM -RA BKN025 OVC040 FM021000
                       20018G29KT 5SM -RA BR SCT007 OVC015 FM021800
                       23012G23KT P6SM -SHRA BKN022 OVC035 FM022100
                       22012KT P6SM VCSH BKN050=
202303020256 KSEA 020256Z 0203/0306 21012G18KT P6SM -RA BKN035 OVC050 FM020500
                       19012G21KT P6SM -RA OVC025 FM020800 19018G29KT
                       5SM -RA BR SCT007 OVC015 FM021800 23012G23KT
                       P6SM -SHRA SCT025 OVC035=
202303012324 TAF KSEA 012324Z 0200/0306 21012G18KT P6SM BKN035 OVC050 FM020500
                       19012G21KT P6SM -RA OVC025 FM020800 19018G29KT
                       5SM -RA BR SCT007 OVC015 FM021800 23012G23KT
                       P6SM -SHRA SCT025 OVC035=
202303012057 KSEA 012057Z 0121/0224 22007KT P6SM BKN040 BKN250 FM020300 21011KT
                       P6SM OVC050 FM020600 19012G21KT 6SM -RA
                       BR OVC015 FM021200 19018G32KT 4SM -RA BR
                       SCT007 OVC015 FM021700 22013G23KT P6SM VCSH
                       SCT025 BKN035=
202303011734 TAF KSEA 011734Z 0118/0224 17006KT P6SM BKN005 OVC025
                      TEMPO 0118/0119 2SM BR SCT005 FM011900 20007KT
                       P6SM OVC060 FM020300 21011KT P6SM OVC050
                       FM020600 19012G18KT 6SM -RA BR OVC015 FM021200
                       19015G32KT 4SM -RA BR OVC015 FM021700 22013G23KT
                       P6SM VCSH SCT025 BKN035=
202303011524 KSEA 011524Z 0115/0218 15003KT 5SM BR SCT005 OVC030
                      TEMPO 0115/0118 2SM BR BKN004 FM011800 19006KT
                       P6SM SCT010 BKN050 FM012000 20007KT P6SM
                       OVC100 FM020300 21011KT P6SM OVC050 FM020900
                       19012KT P6SM VCSH OVC030 FM021200 19015G25KT
                       P6SM -RA OVC022=
202303011253 KSEA 011253Z 0113/0218 VRB02KT 4SM BR SCT005 OVC030
                      TEMPO 0113/0116 2SM BR BKN005 FM011700 19006KT
                       P6SM SCT010 BKN050 FM012000 20007KT P6SM
                       OVC100 FM020300 21011KT P6SM OVC050 FM020900
                       19012KT P6SM VCSH OVC030 FM021200 19015G25KT
                       P6SM -RA OVC022=
202303011131 TAF KSEA 011131Z 0112/0218 VRB02KT 4SM BR SCT002 BKN010 OVC030
                       TEMPO 0112/0116 1/2SM FG VV001 FM011700
                       19006KT P6SM SCT010 BKN050 FM012000 20007KT
                       P6SM OVC100 FM020300 21011KT P6SM OVC050
                       FM020900 19012KT P6SM VCSH OVC030 FM021200
                       19015G25KT P6SM -RA OVC022=
202303011035 KSEA 011035Z 0111/0212 VRB02KT 3SM BR SCT002 BKN009 OVC025
                      TEMPO 0111/0115 1/2SM FG VV002 FM011700 19007KT
                       P6SM SCT010 BKN040 FM020300 21011KT P6SM
                       OVC050 FM021000 19012KT P6SM -RA OVC020=
202303010908 KSEA 010908Z 0109/0212 VRB03KT P6SM BCFG FEW002 SCT035 FM011100
                       12005KT P6SM BKN025
                      TEMPO 0111/0115 4SM BR FM011800 19007KT P6SM
                       BKN060 FM020300 21011KT P6SM OVC050 FM021000
                       19012KT P6SM -RA OVC020=
202303010528 TAF KSEA 010528Z 0106/0212 02006KT P6SM SCT020 BKN050 FM011100
                       12005KT P6SM BKN025 OVC050
                      TEMPO 0113/0116 4SM BR FM011800 19007KT P6SM
                       BKN060 FM020300 21011KT P6SM OVC050 FM021000
                       19012KT P6SM -RA OVC020=
202303010251 KSEA 010251Z 0103/0206 03008KT P6SM SCT020 BKN050 FM011100 12005KT
                       P6SM BKN025 OVC050 FM011800 19007KT P6SM
                       BKN060 FM020300 21011KT P6SM OVC050=