##########################################################
# Query made at 02/17/2025 22:36:13 UTC
# Time interval: from 11/01/2024 00:00  to 11/30/2024 23:59  UTC
##########################################################

##########################################################
# KSEA, Seattle, Seattle-Tacoma International Airport (United States)
# WMO index: 72793. WIGOS ID: 0-20000-0-72793
# Latitude 47-27-00N. Longitude 122-17-59W. Altitude 130 m.
##########################################################

###################################
#  METAR/SPECI from KSEA
###################################
202411302353 METAR KSEA 302353Z 00000KT 10SM FEW035 BKN075 OVC250 06/01 A3027 RMK AO2 SLP260 T00610011 10067 20039 55000=
202411302253 METAR KSEA 302253Z 28003KT 10SM FEW035 BKN075 BKN250 07/02 A3026 RMK AO2 SLP255 T00670017=
202411302153 METAR KSEA 302153Z 00000KT 10SM FEW035 SCT075 BKN250 06/01 A3026 RMK AO2 SLP258 T00610011=
202411302053 METAR KSEA 302053Z 21003KT 10SM SCT075 BKN090 BKN220 07/01 A3027 RMK AO2 SLP260 T00670011 58004=
202411301953 METAR KSEA 301953Z 00000KT 10SM FEW100 BKN220 07/02 A3029 RMK AO2 SLP267 T00670017=
202411301853 METAR KSEA 301853Z 00000KT 10SM FEW002 FEW100 BKN220 05/01 A3029 RMK AO2 SLP265 T00500011=
202411301753 METAR KSEA 301753Z 19003KT 10SM FEW002 FEW100 SCT220 04/01 A3028 RMK AO2 SLP264 T00390011 10039 20011 53011=
202411301653 METAR KSEA 301653Z 19003KT 10SM FEW002 SCT085 03/01 A3027 RMK AO2 SLP261 T00280006=
202411301553 METAR KSEA 301553Z 14008KT 10SM BKN085 02/00 A3026 RMK AO2 SLP257 T00170000=
202411301453 METAR KSEA 301453Z 14007KT 10SM OVC090 03/01 A3025 RMK AO2 SLP253 T00280006 58006=
202411301353 METAR KSEA 301353Z 18004KT 10SM FEW017 OVC110 01/00 A3026 RMK AO2 SLP256 T00110000=
202411301253 METAR KSEA 301253Z 12006KT 10SM SCT017 SCT110 BKN140 BKN220 02/00 A3027 RMK AO2 SLP259 T00170000=
202411301153 METAR KSEA 301153Z 13006KT 10SM SCT017 BKN110 BKN220 02/00 A3027 RMK AO2 SLP260 T00170000 10033 20011 50002=
202411301118 SPECI KSEA 301118Z 12006KT 10SM SCT016 BKN110 02/00 A3029 RMK AO2 T00170000=
202411301053 METAR KSEA 301053Z 12005KT 10SM BKN016 BKN110 02/00 A3029 RMK AO2 SLP267 T00220000=
202411301005 SPECI KSEA 301005Z 00000KT 10SM BKN017 BKN220 02/00 A3030 RMK AO2 T00170000=
202411300953 METAR KSEA 300953Z 12003KT 10SM SCT018 BKN220 01/00 A3030 RMK AO2 SLP269 T00110000=
202411300853 METAR KSEA 300853Z 14006KT 10SM SCT017 BKN220 02/00 A3026 RMK AO2 SLP258 T00170000 58003=
202411300844 SPECI KSEA 300844Z 13006KT 10SM SCT017 BKN220 02/00 A3027 RMK AO2 T00170000=
202411300753 METAR KSEA 300753Z 12005KT 10SM OVC017 02/00 A3029 RMK AO2 SLP267 T00220000 400610011=
202411300653 METAR KSEA 300653Z 14006KT 10SM BKN016 03/01 A3027 RMK AO2 SLP261 T00280006=
202411300553 METAR KSEA 300553Z 13005KT 10SM BKN017 03/01 A3027 RMK AO2 SLP261 T00330006 10050 20022 55003=
202411300508 SPECI KSEA 300508Z 14003KT 10SM BKN018 03/00 A3027 RMK AO2 T00280000=
202411300453 METAR KSEA 300453Z 00000KT 10SM SCT020 SCT180 02/00 A3027 RMK AO2 SLP259 T00220000=
202411300353 METAR KSEA 300353Z 15004KT 10SM FEW020 FEW150 SCT200 02/00 A3026 RMK AO2 SLP257 T00220000=
202411300253 METAR KSEA 300253Z 12004KT 10SM FEW020 FEW050 SCT200 04/00 A3028 RMK AO2 SLP263 T00390000 56004=
202411300153 METAR KSEA 300153Z 00000KT 10SM FEW020 SCT240 04/01 A3028 RMK AO2 SLP264 T00390006=
202411300053 METAR KSEA 300053Z 16003KT 10SM FEW021 FEW160 BKN240 04/00 A3029 RMK AO2 SLP265 T00390000=
202411292353 METAR KSEA 292353Z 00000KT 10SM FEW023 BKN240 05/01 A3029 RMK AO2 SLP267 T00500006 10061 20039 55001=
202411292253 METAR KSEA 292253Z 15005KT 10SM SCT022 BKN220 06/00 A3028 RMK AO2 SLP264 T00560000=
202411292153 METAR KSEA 292153Z 12005KT 10SM BKN020 BKN220 05/01 A3030 RMK AO2 SLP269 T00500006=
202411292106 SPECI KSEA 292106Z 14007KT 10SM SCT021 BKN220 06/00 A3030 RMK AO2 T00560000=
202411292053 METAR KSEA 292053Z 18007KT 10SM BKN021 BKN050 BKN200 05/00 A3030 RMK AO2 SLP270 T00500000 50002=
202411292019 SPECI KSEA 292019Z 15008KT 10SM BKN021 BKN050 BKN200 06/01 A3030 RMK AO2 T00560006=
202411291953 METAR KSEA 291953Z 18006KT 10SM SCT024 BKN050 BKN200 05/01 A3031 RMK AO2 SLP272 T00500011=
202411291935 SPECI KSEA 291935Z 18006KT 10SM SCT024 BKN050 BKN200 05/02 A3031 RMK AO2 T00500017=
202411291853 METAR KSEA 291853Z 19005KT 10SM SCT009 BKN025 04/02 A3032 RMK AO2 SLP275 T00440017=
202411291753 METAR KSEA 291753Z 21004KT 10SM SCT008 OVC025 04/02 A3029 RMK AO2 SLP269 T00390022 10039 20017 53008=
202411291740 SPECI KSEA 291740Z VRB05KT 10SM SCT008 OVC025 04/02 A3029 RMK AO2 T00390022=
202411291653 METAR KSEA 291653Z 21003KT 7SM SCT013 OVC026 03/02 A3028 RMK AO2 SLP265 T00280022=
202411291641 SPECI KSEA 291641Z 00000KT 7SM SCT013 OVC026 03/02 A3028 RMK AO2 T00280022=
202411291553 METAR KSEA 291553Z 17004KT 7SM SCT006 OVC013 02/02 A3026 RMK AO2 SLP259 T00220017=
202411291453 METAR KSEA 291453Z 14006KT 1 1/2SM BR FEW002 OVC006 02/02 A3027 RMK AO2 SFC VIS 6 SLP259 T00220017 53002=
202411291353 METAR KSEA 291353Z 14004KT 1SM R16L/P6000FT BR SCT002 OVC005 02/02 A3027 RMK AO2 SFC VIS 3 SLP259 T00220017=
202411291343 SPECI KSEA 291343Z 16006KT 1SM R16L/P6000FT BR SCT002 OVC005 02/02 A3026 RMK AO2 SFC VIS 3 T00220017=
202411291327 SPECI KSEA 291327Z 15004KT 1/2SM R16L/P6000FT BR BKN003 OVC006 02/02 A3026 RMK AO2 SFC VIS 2 T00220017=
202411291253 METAR KSEA 291253Z 15006KT 1/4SM R16L/P6000FT BR OVC003 02/02 A3026 RMK AO2 SFC VIS 3/4 SLP256 T00220017=
202411291200 SPECI KSEA 291200Z 14007KT 3/4SM R16L/5000VP6000FT BR BKN002 OVC006 02/02 A3026 RMK AO2 T00170017=
202411291153 METAR KSEA 291153Z 15007KT 1/4SM R16L/6000VP6000FT FG VV002 02/02 A3026 RMK AO2 SLP257 T00170017 10017 20000 50010=
202411291053 METAR KSEA 291053Z 13007KT 1/4SM R16L/2200V3000FT FG VV002 02/02 A3026 RMK AO2 SLP258 T00170017=
202411291000 SPECI KSEA 291000Z 14005KT 1/4SM R16L/2200V2400FT FG VV002 02/02 A3025 RMK AO2 T00170017=
202411290953 METAR KSEA 290953Z 13004KT 1/2SM R16L/2000V2600FT FG VV002 02/02 A3025 RMK AO2 SLP254 T00170017=
202411290906 SPECI KSEA 290906Z 13004KT 1/2SM R16L/2000V3000FT FG VV002 02/02 A3024 RMK AO2 T00170017=
202411290902 SPECI KSEA 290902Z 12004KT 1/4SM R16L/1600V2200FT FG VV002 02/01 A3024 RMK AO2 T00170011=
202411290853 METAR KSEA 290853Z 13004KT 1/4SM R16L/1600V3000FT FG VV002 02/02 A3023 RMK AO2 SLP247 T00170017 53003=
202411290753 METAR KSEA 290753Z 12005KT 1/4SM R16L/1800V2400FT FG VV002 02/01 A3022 RMK AO2 SLP243 T00170011 400610000=
202411290733 SPECI KSEA 290733Z 12004KT 1/4SM R16L/1600V3000FT FG VV002 02/02 A3022 RMK AO2 T00170017=
202411290724 SPECI KSEA 290724Z 00000KT 1/4SM R16L/1400V1600FT FG VV002 02/02 A3022 RMK AO2 T00170017=
202411290714 SPECI KSEA 290714Z 00000KT 1/4SM R16L/1400V3500FT FG VV002 02/02 A3022 RMK AO2 T00170017=
202411290653 METAR KSEA 290653Z 13003KT 1/4SM R16L/1200V2000FT FG VV002 01/01 A3022 RMK AO2 SLP243 T00110011=
202411290635 SPECI KSEA 290635Z 00000KT 1/4SM R16L/1200V2200FT FG VV002 01/01 A3022 RMK AO2 T00060006=
202411290624 SPECI KSEA 290624Z 00000KT 1/4SM R16L/1200V2000FT FG SCT002 SCT220 01/01 A3022 RMK AO2 T00060006=
202411290617 SPECI KSEA 290617Z 14004KT 1/4SM R16L/1200V2400FT FG SCT002 SCT220 01/00 A3022 RMK AO2 T00060000=
202411290553 METAR KSEA 290553Z 13005KT 3/4SM R16L/P6000FT BR SCT002 SCT220 00/00 A3022 RMK AO2 SLP244 T00000000 10056 20000 50004=
202411290453 METAR KSEA 290453Z 13004KT 8SM SCT250 01/00 A3022 RMK AO2 SLP245 T00060000=
202411290353 METAR KSEA 290353Z 16003KT 9SM BKN250 01/01 A3022 RMK AO2 SLP243 T00110006=
202411290253 METAR KSEA 290253Z 36004KT 10SM FEW010 BKN250 03/02 A3021 RMK AO2 SLP239 T00280017 55005=
202411290153 METAR KSEA 290153Z 02004KT 10SM FEW010 BKN250 04/02 A3021 RMK AO2 SLP238 T00390017=
202411290053 METAR KSEA 290053Z 00000KT 10SM FEW012 BKN250 05/02 A3021 RMK AO2 SLP239 T00500022=
202411282353 METAR KSEA 282353Z 36003KT 10SM FEW015 BKN250 06/02 A3023 RMK AO2 SLP245 T00560022 10061 20022 56011=
202411282253 METAR KSEA 282253Z 02005KT 10SM FEW009 BKN250 06/02 A3023 RMK AO2 SLP246 T00610022=
202411282153 METAR KSEA 282153Z 02004KT 10SM FEW007 BKN250 04/02 A3025 RMK AO2 SLP252 T00390022=
202411282053 METAR KSEA 282053Z 36004KT 7SM SCT002 BKN250 04/03 A3026 RMK AO2 SLP256 T00390028 58017=
202411282024 SPECI KSEA 282024Z VRB04KT 6SM BR SCT002 BKN250 03/03 A3027 RMK AO2 T00330028=
202411281953 METAR KSEA 281953Z VRB03KT 2SM BR SCT002 BKN250 03/02 A3028 RMK AO2 SFC VIS 6 SLP263 T00330022=
202411281937 SPECI KSEA 281937Z 07004KT 1 1/2SM BR BKN002 BKN250 03/02 A3028 RMK AO2 SFC VIS 2 T00280022=
202411281922 SPECI KSEA 281922Z 07004KT 1/2SM R16L/P6000FT BR BKN002 BKN250 03/02 A3029 RMK AO2 SFC VIS 3/4 T00280022=
202411281853 METAR KSEA 281853Z 01004KT 1/8SM R16L/1200V4000FT FG VV002 03/02 A3030 RMK AO2 SFC VIS 1/4 SLP269 T00280022=
202411281753 METAR KSEA 281753Z VRB03KT 1/8SM R16L/1200V4000FT FG VV002 03/03 A3031 RMK AO2 SFC VIS 1/4 SLP273 T00280028 10028 20017 58001=
202411281728 SPECI KSEA 281728Z 00000KT 1/8SM R16L/1200V4000FT FG VV002 02/02 A3031 RMK AO2 SFC VIS 1/2 T00220022=
202411281653 METAR KSEA 281653Z 00000KT 1/8SM R16L/1200V4000FT FG VV001 03/03 A3031 RMK AO2 SFC VIS 1/4 SLP275 T00280028=
202411281628 SPECI KSEA 281628Z 00000KT 1/8SM R16L/1200V4000FT FG VV001 02/02 A3031 RMK AO2 T00220022=
202411281553 METAR KSEA 281553Z 00000KT 1/16SM R16L/0800V1200FT FG VV001 02/02 A3031 RMK AO2 TWR VIS 1/8 SLP274 T00220022=
202411281453 METAR KSEA 281453Z 34004KT 1/8SM R16L/1000V1400FT FG VV001 02/02 A3031 RMK AO2 SLP274 T00220022 56007=
202411281353 METAR KSEA 281353Z 00000KT 1/8SM R16L/1000V1400FT FG VV001 02/02 A3031 RMK AO2 SLP275 T00170017=
202411281253 METAR KSEA 281253Z 00000KT 1/8SM R16L/1000V1400FT FG VV001 02/02 A3032 RMK AO2 SLP277 T00220022=
202411281153 METAR KSEA 281153Z 00000KT 1/8SM R16L/0800V1000FT FG VV001 03/03 A3033 RMK AO2 SLP282 T00280028 10044 20017 57007=
202411281053 METAR KSEA 281053Z 08004KT 1/8SM R16L/0800V1000FT FG VV001 03/03 A3035 RMK AO2 SLP286 T00280028=
202411280953 METAR KSEA 280953Z 03003KT 1/8SM R16L/1000FT FG VV001 02/02 A3034 RMK AO2 SLP285 T00220022=
202411280901 SPECI KSEA 280901Z 04005KT 1/8SM R16L/0700V1200FT FG VV001 02/02 A3035 RMK AO2 T00170017=
202411280853 METAR KSEA 280853Z 04005KT 1/8SM R16L/1000V2400FT FG VV001 02/02 A3036 RMK AO2 SLP289 T00170017 58002=
202411280838 SPECI KSEA 280838Z 04004KT 1/4SM R16L/1200V3000FT FG VV001 03/02 A3036 RMK AO2 T00280022=
202411280832 SPECI KSEA 280832Z 05005KT 1/2SM R16L/1200V5000FT FG VV001 03/02 A3036 RMK AO2 T00280017=
202411280811 SPECI KSEA 280811Z 00000KT 7SM FEW002 03/02 A3036 RMK AO2 T00330022=
202411280753 METAR KSEA 280753Z 00000KT 10SM CLR 03/03 A3037 RMK AO2 SLP293 T00330028 400720028=
202411280653 METAR KSEA 280653Z 07003KT 10SM FEW044 04/02 A3036 RMK AO2 SLP291 T00440022=
202411280553 METAR KSEA 280553Z 00000KT 10SM FEW044 04/02 A3036 RMK AO2 SLP291 T00390022 10061 20033 51002=
202411280453 METAR KSEA 280453Z 00000KT 10SM BKN044 05/03 A3036 RMK AO2 SLP290 T00500028=
202411280353 METAR KSEA 280353Z 00000KT 10SM SCT045 04/03 A3036 RMK AO2 SLP290 T00390028=
202411280253 METAR KSEA 280253Z 16003KT 10SM FEW045 05/03 A3035 RMK AO2 SLP288 T00500028 51006=
202411280153 METAR KSEA 280153Z 02003KT 10SM SCT025 05/03 A3036 RMK AO2 SLP288 T00500028=
202411280053 METAR KSEA 280053Z 00000KT 10SM SCT025 SCT250 06/03 A3034 RMK AO2 SLP284 T00560028=
202411272353 METAR KSEA 272353Z 00000KT 10SM FEW015 SCT025 SCT250 06/03 A3034 RMK AO2 SLP282 T00610033 10072 20056 56009=
202411272253 METAR KSEA 272253Z 24003KT 10SM FEW014 SCT021 SCT250 07/03 A3034 RMK AO2 SLP283 T00670033=
202411272243 SPECI KSEA 272243Z 25003KT 10SM FEW015 SCT021 SCT250 07/03 A3034 RMK AO2 T00670033=
202411272211 SPECI KSEA 272211Z 25005KT 10SM BKN016 BKN025 BKN029 BKN250 07/04 A3035 RMK AO2 T00670039=
202411272153 METAR KSEA 272153Z 27005KT 10SM SCT014 BKN030 BKN250 07/03 A3035 RMK AO2 SLP287 T00720033=
202411272053 METAR KSEA 272053Z 22007KT 10SM FEW008 SCT015 BKN250 07/04 A3036 RMK AO2 SLP291 T00670039 58003=
202411272026 SPECI KSEA 272026Z 25006KT 10SM SCT008 BKN015 BKN030 06/04 A3037 RMK AO2 T00610039=
202411271953 METAR KSEA 271953Z 28007KT 10SM BKN008 BKN015 BKN030 06/04 A3038 RMK AO2 SLP295 T00560044=
202411271853 METAR KSEA 271853Z 19003KT 10SM BKN006 06/04 A3037 RMK AO2 SLP293 T00610044=
202411271753 METAR KSEA 271753Z 28003KT 10SM BKN006 BKN012 06/04 A3037 RMK AO2 SLP294 T00560044 10061 20044 51008=
202411271746 SPECI KSEA 271746Z 28003KT 10SM BKN006 BKN012 06/04 A3037 RMK AO2 T00560044=
202411271653 METAR KSEA 271653Z 00000KT 10SM SCT009 BKN013 OVC046 06/04 A3037 RMK AO2 SLP294 T00560039=
202411271553 METAR KSEA 271553Z 00000KT 7SM SCT007 BKN013 OVC040 06/05 A3036 RMK AO2 SLP288 T00560050=
202411271453 METAR KSEA 271453Z 16006KT 3SM BR FEW002 BKN009 OVC027 06/05 A3035 RMK AO2 SFC VIS 6 SLP286 T00560050 50000=
202411271425 SPECI KSEA 271425Z 14007KT 1 1/2SM BR FEW002 BKN007 OVC020 06/05 A3035 RMK AO2 SFC VIS 5 T00560050=
202411271401 SPECI KSEA 271401Z 14006KT 2SM BR SCT003 BKN012 OVC047 06/05 A3035 RMK AO2 SFC VIS 4 T00560050=
202411271353 METAR KSEA 271353Z 13004KT 2SM BR SCT002 BKN015 OVC045 06/05 A3035 RMK AO2 SFC VIS 4 SLP287 T00560050=
202411271335 SPECI KSEA 271335Z 14006KT 2SM BR SCT002 BKN015 OVC040 06/05 A3035 RMK AO2 SFC VIS 4 T00560050=
202411271253 METAR KSEA 271253Z 15007KT 1/4SM R16L/4000VP6000FT FG OVC002 05/04 A3035 RMK AO2 SFC VIS 1/2 SLP284 T00500044=
202411271217 SPECI KSEA 271217Z 11004KT 1/4SM R16L/P6000FT BR FEW002 BKN010 OVC047 05/04 A3035 RMK AO2 SFC VIS 4 T00500044=
202411271153 METAR KSEA 271153Z 14005KT 3SM BR SCT002 BKN026 OVC047 05/04 A3035 RMK AO2 SFC VIS 5 RAE23 SLP285 P0001 60005 70005 T00500044 10067 20050 50008=
202411271119 SPECI KSEA 271119Z 13004KT 6SM -RA BR FEW002 BKN028 OVC039 05/04 A3035 RMK AO2 P0001 T00500044=
202411271053 METAR KSEA 271053Z 15004KT 4SM -RA BR SCT018 OVC024 06/05 A3035 RMK AO2 SLP286 P0004 T00560050=
202411270953 METAR KSEA 270953Z 00000KT 10SM -RA OVC025 06/04 A3034 RMK AO2 RAB50 SLP281 P0000 T00560044=
202411270941 SPECI KSEA 270941Z 00000KT 9SM BKN024 OVC028 06/04 A3033 RMK AO2 T00560044=
202411270853 METAR KSEA 270853Z 16004KT 10SM OVC037 06/04 A3032 RMK AO2 RAE05B23E34 SLP277 P0000 60000 T00560044 51012=
202411270753 METAR KSEA 270753Z 07004KT 7SM -RA OVC038 06/04 A3031 RMK AO2 RAB51 SLP274 P0000 T00610039 400720050=
202411270653 METAR KSEA 270653Z 00000KT 10SM OVC042 06/04 A3030 RMK AO2 SLP269 T00610039=
202411270553 METAR KSEA 270553Z VRB03KT 10SM BKN039 OVC049 07/04 A3029 RMK AO2 SLP266 T00670039 10072 20056 53013=
202411270453 METAR KSEA 270453Z 07005KT 10SM OVC045 07/03 A3027 RMK AO2 SLP259 T00670033=
202411270353 METAR KSEA 270353Z 00000KT 10SM SCT030 OVC043 06/03 A3026 RMK AO2 SLP257 T00610033=
202411270253 METAR KSEA 270253Z 16003KT 10SM BKN043 06/03 A3025 RMK AO2 SLP253 T00560033 51010=
202411270153 METAR KSEA 270153Z 06005KT 10SM FEW040 OVC048 07/03 A3024 RMK AO2 SLP250 T00670028=
202411270053 METAR KSEA 270053Z 05004KT 10SM OVC037 07/04 A3023 RMK AO2 SLP246 T00670039=
202411262353 METAR KSEA 262353Z 03003KT 10SM FEW020 OVC034 07/04 A3022 RMK AO2 SLP242 T00720039 10072 20061 53013=
202411262253 METAR KSEA 262253Z 01004KT 10SM SCT020 OVC039 07/04 A3021 RMK AO2 SLP237 T00720039=
202411262153 METAR KSEA 262153Z VRB03KT 10SM BKN015 OVC040 07/03 A3019 RMK AO2 SLP232 T00720033=
202411262053 METAR KSEA 262053Z 00000KT 10SM OVC015 07/04 A3018 RMK AO2 SLP229 T00720039 53007=
202411262007 SPECI KSEA 262007Z 00000KT 10SM BKN020 OVC039 07/03 A3017 RMK AO2 T00670028=
202411261953 METAR KSEA 261953Z 01003KT 10SM FEW015 BKN039 OVC065 07/03 A3017 RMK AO2 SLP226 T00720033=
202411261853 METAR KSEA 261853Z 00000KT 10SM FEW014 SCT030 OVC040 07/03 A3017 RMK AO2 SLP225 T00670028=
202411261753 METAR KSEA 261753Z 36005KT 10SM BKN020 OVC040 06/04 A3016 RMK AO2 SLP222 T00610039 10061 20050 53022=
202411261653 METAR KSEA 261653Z 04005KT 10SM BKN021 OVC041 06/03 A3014 RMK AO2 SLP213 T00610033=
202411261643 SPECI KSEA 261643Z 05006KT 10SM OVC021 06/03 A3013 RMK AO2 T00610033=
202411261553 METAR KSEA 261553Z 03004KT 10SM SCT019 BKN041 BKN070 06/04 A3011 RMK AO2 SLP205 T00560039=
202411261522 SPECI KSEA 261522Z 04006KT 10SM SCT019 BKN041 BKN070 06/03 A3010 RMK AO2 T00560033=
202411261453 METAR KSEA 261453Z 01006KT 10SM OVC019 06/03 A3010 RMK AO2 SLP200 T00560033 53010=
202411261353 METAR KSEA 261353Z 03007KT 10SM OVC015 06/04 A3008 RMK AO2 SLP195 T00560039 $=
202411261330 SPECI KSEA 261330Z 36006KT 10SM OVC015 06/04 A3008 RMK AO2 T00560044 $=
202411261253 METAR KSEA 261253Z 01007KT 10SM BKN010 OVC037 06/04 A3007 RMK AO2 SLP190 T00560044 $=
202411261248 SPECI KSEA 261248Z 01008KT 10SM BKN010 OVC037 06/04 A3007 RMK AO2 $=
202411261221 SPECI KSEA 261221Z 02007KT 10SM FEW011 BKN021 OVC040 06/04 A3006 RMK AO2 T00560044 $=
202411261203 SPECI KSEA 261203Z 02006KT 10SM BKN011 OVC040 06/04 A3006 RMK AO2 T00610044 $=
202411261153 METAR KSEA 261153Z 03007KT 10SM BKN009 OVC038 06/04 A3005 RMK AO2 SLP185 60000 70035 T00610044 10067 20061 52008 $=
202411261135 SPECI KSEA 261135Z 01008KT 10SM OVC009 06/04 A3005 RMK AO2 T00610044 $=
202411261109 SPECI KSEA 261109Z 01006KT 10SM SCT008 BKN017 OVC023 06/05 A3005 RMK AO2 T00610050 $=
202411261053 METAR KSEA 261053Z 01007KT 10SM BKN017 BKN023 OVC038 06/05 A3005 RMK AO2 RAE17 SLP183 P0000 T00610050 $=
202411261039 SPECI KSEA 261039Z 03007KT 10SM SCT017 OVC038 06/05 A3005 RMK AO2 RAE17 P0000 T00610050 $=
202411261021 SPECI KSEA 261021Z 02007KT 10SM FEW017 BKN028 OVC038 06/05 A3004 RMK AO2 RAE17 P0000 T00610050 $=
202411260953 METAR KSEA 260953Z 01006KT 9SM -RA BKN014 OVC030 06/05 A3004 RMK AO2 RAB26 SLP179 P0000 T00610050 $=
202411260853 METAR KSEA 260853Z 36004KT 10SM OVC010 06/05 A3003 RMK AO2 SLP177 60000 T00610050 51006 $=
202411260840 SPECI KSEA 260840Z 35004KT 10SM OVC010 06/06 A3003 RMK AO2 T00610056 $=
202411260753 METAR KSEA 260753Z 31004KT 9SM OVC006 07/06 A3003 RMK AO2 SLP177 T00670056 400890061 $=
202411260653 METAR KSEA 260653Z 36004KT 9SM OVC005 07/06 A3002 RMK AO2 RAE19 SLP174 P0000 T00670061 $=
202411260616 SPECI KSEA 260616Z VRB05KT 6SM -RA BR SCT004 OVC008 07/06 A3002 RMK AO2 P0000 T00670061 $=
202411260553 METAR KSEA 260553Z 36005KT 5SM -RA BR OVC003 07/06 A3001 RMK AO2 RAB27 SLP171 P0004 60013 T00670061 10083 20067 53012 $=
202411260539 SPECI KSEA 260539Z 02005KT 5SM -RA BR BKN004 OVC008 07/06 A3001 RMK AO2 RAB27 P0002 T00670061 $=
202411260509 SPECI KSEA 260509Z 35006KT 7SM SCT003 OVC008 07/06 A3000 RMK AO2 T00670061 $=
202411260453 METAR KSEA 260453Z 35005KT 7SM BKN003 OVC020 07/06 A3000 RMK AO2 SLP167 T00720061 $=
202411260426 SPECI KSEA 260426Z 36006KT 7SM BKN005 OVC030 07/06 A2999 RMK AO2 T00720061 $=
202411260353 METAR KSEA 260353Z 35006KT 4SM BR BKN003 OVC030 07/07 A2999 RMK AO2 RAE51 SLP163 P0002 T00720067 $=
202411260317 SPECI KSEA 260317Z 34003KT 5SM -RA BR FEW003 BKN030 OVC047 07/07 A2998 RMK AO2 P0001 T00720067 $=
202411260304 SPECI KSEA 260304Z 35004KT 6SM -RA BR SCT003 BKN016 OVC048 07/07 A2998 RMK AO2 P0000 T00720067 $=
202411260253 METAR KSEA 260253Z 34004KT 5SM -RA BR SCT003 BKN013 OVC048 07/07 A2998 RMK AO2 SLP159 P0003 60007 T00720067 51006 $=
202411260224 SPECI KSEA 260224Z 31003KT 6SM -RA BR BKN002 BKN016 OVC055 07/07 A2998 RMK AO2 P0001 T00720067 $=
202411260213 SPECI KSEA 260213Z 34004KT 8SM -RA FEW004 BKN030 OVC060 07/07 A2997 RMK AO2 P0001 T00720067 $=
202411260153 METAR KSEA 260153Z 01004KT 4SM -RA BR FEW009 BKN020 OVC036 08/07 A2997 RMK AO2 RAB07 SLP158 P0002 T00780067 $=
202411260145 SPECI KSEA 260145Z 01005KT 6SM -RA BR FEW004 BKN015 OVC021 08/07 A2997 RMK AO2 RAB07 P0002 T00780067 $=
202411260134 SPECI KSEA 260134Z 02005KT 7SM -RA FEW004 BKN013 OVC018 08/07 A2997 RMK AO2 RAB07 P0001 T00780072 $=
202411260108 SPECI KSEA 260108Z 02004KT 10SM -RA FEW003 BKN026 OVC055 08/07 A2997 RMK AO2 RAB07 P0001 T00780072 $=
202411260053 METAR KSEA 260053Z 02004KT 10SM SCT005 BKN032 OVC050 08/07 A2996 RMK AO2 RAB2355E11B24E47DZB13E24 SLP155 P0002 T00780067 $=
202411260047 SPECI KSEA 260047Z 03004KT 9SM SCT005 BKN030 OVC050 08/07 A2996 RMK AO2 RAB2355E11B24E47DZB13E24 P0002 $=
202411260013 SPECI KSEA 260013Z 34003KT 6SM -DZ BKN006 OVC015 08/07 A2996 RMK AO2 RAB2355E11DZB13 P0000 T00830072 $=
202411252353 METAR KSEA 252353Z 00000KT 10SM FEW006 BKN016 OVC034 08/07 A2996 RMK AO2 DZE38 SLP153 P0001 60001 T00830072 10089 20072 53006 $=
202411252338 SPECI KSEA 252338Z 00000KT 10SM FEW010 BKN016 OVC034 08/06 A2996 RMK AO2 DZE38 P0001 T00830061 $=
202411252323 SPECI KSEA 252323Z 00000KT 9SM -DZ FEW009 SCT012 OVC030 08/07 A2995 RMK AO2 P0001 T00830067 $=
202411252253 METAR KSEA 252253Z 28003KT 10SM -DZ FEW007 BKN012 OVC036 08/07 A2995 RMK AO2 DZB51 SLP150 P0000 T00830072 $=
202411252247 SPECI KSEA 252247Z 31003KT 10SM FEW007 BKN014 OVC036 08/07 A2995 RMK AO2 $=
202411252227 SPECI KSEA 252227Z VRB03KT 10SM FEW006 BKN015 OVC037 09/07 A2994 RMK AO2 T00890072 $=
202411252153 METAR KSEA 252153Z 34003KT 9SM SCT006 BKN010 OVC039 08/07 A2994 RMK AO2 SLP147 T00830072 $=
202411252053 METAR KSEA 252053Z 35003KT 10SM SCT006 BKN010 OVC040 08/07 A2994 RMK AO2 SLP147 T00830067 51002=
202411251953 METAR KSEA 251953Z 29003KT 10SM FEW006 BKN011 OVC035 08/07 A2994 RMK AO2 SLP147 T00830067=
202411251853 METAR KSEA 251853Z 30003KT 10SM FEW005 BKN011 OVC030 08/06 A2995 RMK AO2 SLP149 T00780061=
202411251753 METAR KSEA 251753Z VRB03KT 5SM BR BKN010 OVC030 07/06 A2994 RMK AO2 RAB36E47 SLP145 P0000 60021 T00720056 10072 20061 53012=
202411251653 METAR KSEA 251653Z 11005KT 4SM BR BKN010 OVC030 07/06 A2992 RMK AO2 RAE46 SLP140 P0002 T00720056=
202411251612 SPECI KSEA 251612Z 14007KT 2SM -RA BR SCT007 OVC013 07/06 A2992 RMK AO2 P0002 T00670061=
202411251606 SPECI KSEA 251606Z 13005KT 1 3/4SM -RA BR FEW007 BKN013 OVC023 07/06 A2992 RMK AO2 P0001 T00670056=
202411251556 SPECI KSEA 251556Z 12006KT 2 1/2SM -RA BR FEW007 BKN013 OVC023 07/06 A2992 RMK AO2 VIS 1 3/4V5 P0001 T00670056=
202411251553 METAR KSEA 251553Z 13006KT 3SM -RA BR SCT007 BKN015 OVC025 07/06 A2991 RMK AO2 SLP138 P0007 T00670056=
202411251453 METAR KSEA 251453Z 12005KT 3SM -RA BR FEW005 BKN023 OVC031 07/06 A2990 RMK AO2 SLP133 P0003 60012 T00670056 53005=
202411251353 METAR KSEA 251353Z 10004KT 5SM -RA BR FEW003 SCT018 OVC027 06/05 A2989 RMK AO2 SLP128 P0004 T00610050=
202411251332 SPECI KSEA 251332Z 07004KT 5SM -RA BR FEW002 BKN017 OVC027 06/06 A2988 RMK AO2 P0003 T00610056=
202411251305 SPECI KSEA 251305Z 06004KT 1SM R16L/P6000FT -RA BR SCT002 OVC019 06/06 A2989 RMK AO2 SFC VIS 5 P0000 T00610056=
202411251253 METAR KSEA 251253Z 06005KT 4SM -RA BR SCT002 BKN020 OVC033 06/06 A2988 RMK AO2 SLP127 P0005 T00610056=
202411251247 SPECI KSEA 251247Z 06006KT 4SM -RA BR SCT002 BKN020 OVC033 06/06 A2988 RMK AO2 P0004=
202411251153 METAR KSEA 251153Z 06004KT 5SM -RA BR FEW013 SCT025 OVC032 06/06 A2988 RMK AO2 SLP127 P0006 60022 70036 T00610056 10072 20061 51009=
202411251053 METAR KSEA 251053Z 02004KT 8SM -RA FEW010 BKN038 OVC050 06/05 A2988 RMK AO2 SLP126 P0004 T00610050=
202411250953 METAR KSEA 250953Z 36006KT 8SM -RA SCT044 BKN055 OVC070 06/06 A2986 RMK AO2 SLP120 P0003 T00610056=
202411250853 METAR KSEA 250853Z 34006KT 8SM -RA BKN038 OVC050 06/06 A2985 RMK AO2 SLP117 P0001 60009 T00610056 58011=
202411250753 METAR KSEA 250753Z 01007KT 10SM -RA SCT036 BKN055 OVC070 06/04 A2987 RMK AO2 RAE28B50 SLP121 P0001 T00610044 400780056=
202411250653 METAR KSEA 250653Z 07008KT 7SM -RA SCT032 BKN038 OVC050 06/04 A2988 RMK AO2 SLP127 P0007 T00610044=
202411250553 METAR KSEA 250553Z 07008KT 7SM -RA BKN040 OVC050 07/04 A2989 RMK AO2 SLP128 P0004 60004 T00670039 10078 20067 53001=
202411250453 METAR KSEA 250453Z 11005KT 10SM -RA FEW033 OVC050 07/03 A2989 RMK AO2 RAB39 SLP129 P0000 T00720033=
202411250353 METAR KSEA 250353Z 08004KT 10SM SCT034 OVC043 07/03 A2988 RMK AO2 SLP126 T00720033=
202411250253 METAR KSEA 250253Z 10006KT 10SM BKN033 OVC040 08/03 A2988 RMK AO2 SLP127 T00780033 58002=
202411250153 METAR KSEA 250153Z 09005KT 10SM OVC037 08/04 A2989 RMK AO2 SLP129 T00780039=
202411250053 METAR KSEA 250053Z 09007KT 10SM OVC031 08/04 A2989 RMK AO2 SLP131 T00780039=
202411242353 METAR KSEA 242353Z 11007KT 10SM OVC031 08/04 A2989 RMK AO2 SLP129 60005 T00780044 10078 20067 53003=
202411242253 METAR KSEA 242253Z 10006KT 10SM OVC032 08/05 A2988 RMK AO2 SLP126 T00780050=
202411242153 METAR KSEA 242153Z 10007KT 10SM BKN030 OVC037 07/05 A2988 RMK AO2 RAE33 SLP125 P0001 T00720050=
202411242053 METAR KSEA 242053Z 11007KT 060V130 9SM -RA OVC031 07/05 A2988 RMK AO2 RAB1955 SLP126 P0003 60004 T00720050 51005=
202411241953 METAR KSEA 241953Z 16006KT 10SM OVC033 08/03 A2987 RMK AO2 RAB23E52 SLP125 P0001 T00780033=
202411241853 METAR KSEA 241853Z 09007KT 10SM FEW010 OVC038 07/03 A2987 RMK AO2 SLP124 T00670033=
202411241753 METAR KSEA 241753Z 06005KT 10SM OVC040 07/03 A2987 RMK AO2 RAB11E20 SLP122 P0000 60005 T00720033 10072 20056 53014=
202411241653 METAR KSEA 241653Z 11005KT 10SM OVC037 06/03 A2985 RMK AO2 RAB32E49 SLP116 P0000 T00610033=
202411241553 METAR KSEA 241553Z 11007KT 10SM OVC040 06/04 A2983 RMK AO2 RAE19 SLP109 P0001 T00610039=
202411241453 METAR KSEA 241453Z 11008KT 10SM -RA OVC032 06/04 A2983 RMK AO2 RAB19 SLP108 P0001 60004 T00610039 53008=
202411241353 METAR KSEA 241353Z 09008KT 10SM OVC035 06/03 A2981 RMK AO2 RAE50 SLP103 P0002 T00560033=
202411241253 METAR KSEA 241253Z 13008KT 9SM -RA OVC034 06/03 A2981 RMK AO2 SLP102 P0001 T00560033=
202411241153 METAR KSEA 241153Z 12007KT 9SM -RA OVC038 06/03 A2980 RMK AO2 SLP099 P0001 60004 70004 T00560028 10067 20056 56006=
202411241053 METAR KSEA 241053Z 11008KT 10SM -RA OVC039 06/03 A2981 RMK AO2 RAB08 SLP101 P0003 T00560028=
202411240953 METAR KSEA 240953Z 17004KT 10SM OVC045 06/03 A2981 RMK AO2 RAE35 SLP101 P0000 T00610028=
202411240853 METAR KSEA 240853Z 12005KT 10SM -RA FEW035 OVC042 06/03 A2982 RMK AO2 RAB45 SLP105 P0000 60000 T00610028 50002=
202411240753 METAR KSEA 240753Z 15006KT 10SM FEW045 OVC060 06/02 A2983 RMK AO2 SLP108 T00560022 401000050=
202411240653 METAR KSEA 240653Z 13007KT 10SM OVC060 07/02 A2982 RMK AO2 SLP104 T00670022=
202411240553 METAR KSEA 240553Z 14006KT 10SM FEW060 FEW210 06/02 A2981 RMK AO2 SLP103 T00610022 10094 20061 53007=
202411240453 METAR KSEA 240453Z 15006KT 10SM FEW060 FEW170 06/02 A2980 RMK AO2 SLP099 T00610022=
202411240353 METAR KSEA 240353Z 12008KT 10SM FEW044 SCT060 SCT240 07/02 A2979 RMK AO2 SLP097 T00720017=
202411240253 METAR KSEA 240253Z 18006KT 10SM BKN050 BKN240 08/02 A2979 RMK AO2 SLP095 T00780022 53007=
202411240153 METAR KSEA 240153Z 17006KT 10SM FEW035 SCT060 SCT150 06/02 A2978 RMK AO2 SLP093 T00610022=
202411240053 METAR KSEA 240053Z 20006KT 10SM FEW035 FEW060 SCT150 08/03 A2977 RMK AO2 SLP089 T00830028=
202411232353 METAR KSEA 232353Z 22010G17KT 10SM FEW030 SCT048 BKN070 BKN150 09/04 A2977 RMK AO2 RAB38E47 SLP088 P0000 60000 T00940039 10100 20083 52008=
202411232253 METAR KSEA 232253Z 21009KT 10SM FEW047 SCT060 BKN070 BKN150 09/03 A2976 RMK AO2 SLP085 T00940033=
202411232153 METAR KSEA 232153Z 21008KT 10SM SCT031 SCT041 BKN055 09/04 A2975 RMK AO2 SLP081 T00940044=
202411232053 METAR KSEA 232053Z 20010KT 10SM FEW027 SCT040 BKN060 09/04 A2974 RMK AO2 RAB15E24 SLP078 P0000 60000 T00940039 51008=
202411231953 METAR KSEA 231953Z 20011KT 10SM FEW015 BKN037 OVC110 09/04 A2973 RMK AO2 SLP076 T00940044=
202411231853 METAR KSEA 231853Z 19014KT 10SM FEW025 BKN150 09/04 A2973 RMK AO2 SLP074 T00940044=
202411231753 METAR KSEA 231753Z 20007KT 10SM FEW025 SCT031 BKN140 08/04 A2972 RMK AO2 SLP070 T00830044 10083 20050 53017=
202411231653 METAR KSEA 231653Z 16006KT 10SM BKN032 BKN140 07/04 A2970 RMK AO2 SLP063 T00720039=
202411231553 METAR KSEA 231553Z 16008KT 10SM SCT030 OVC140 07/03 A2968 RMK AO2 SLP057 T00670028=
202411231453 METAR KSEA 231453Z 16007KT 10SM BKN033 BKN170 07/03 A2967 RMK AO2 SLP053 T00670033 53003=
202411231353 METAR KSEA 231353Z 16006KT 10SM BKN033 BKN170 07/03 A2967 RMK AO2 SLP052 T00720033=
202411231253 METAR KSEA 231253Z 16007KT 10SM SCT055 BKN180 BKN210 06/03 A2966 RMK AO2 SLP050 T00610033=
202411231153 METAR KSEA 231153Z 00000KT 10SM BKN048 BKN060 OVC210 06/03 A2966 RMK AO2 SLP050 60000 70021 T00610033 10094 20056 50002=
202411231053 METAR KSEA 231053Z 16006KT 10SM FEW050 BKN180 OVC220 06/03 A2966 RMK AO2 SLP051 T00610033=
202411230953 METAR KSEA 230953Z 14009KT 10SM FEW045 BKN180 BKN210 07/04 A2966 RMK AO2 SLP049 T00720044=
202411230853 METAR KSEA 230853Z 17006KT 10SM FEW042 OVC210 07/04 A2965 RMK AO2 SLP048 60000 T00720039 58010=
202411230753 METAR KSEA 230753Z 18008KT 10SM FEW045 BKN250 08/04 A2966 RMK AO2 SLP051 T00780044 401500061=
202411230653 METAR KSEA 230653Z 18006KT 10SM FEW035 BKN044 BKN050 BKN250 08/06 A2968 RMK AO2 RAB16E52 SLP059 P0000 T00830056=
202411230553 METAR KSEA 230553Z 18008KT 10SM BKN041 BKN070 09/05 A2968 RMK AO2 SLP058 60002 T00940050 10128 20089 50006=
202411230453 METAR KSEA 230453Z 17008KT 10SM FEW039 SCT049 OVC060 09/06 A2968 RMK AO2 RAE27 SLP059 P0001 T00890056=
202411230353 METAR KSEA 230353Z 18010G17KT 8SM -RA SCT030 BKN047 OVC055 09/06 A2968 RMK AO2 RAB52 SLP056 P0000 T00940056=
202411230253 METAR KSEA 230253Z 18009KT 10SM BKN048 OVC060 10/06 A2966 RMK AO2 RAB0154E04 SLP052 P0000 60001 T01000056 51019=
202411230153 METAR KSEA 230153Z 20009KT 10SM OVC047 09/07 A2965 RMK AO2 RAB14E50 SLP048 P0001 T00940067=
202411230053 METAR KSEA 230053Z 18010KT 10SM FEW037 BKN047 BKN070 10/06 A2964 RMK AO2 PK WND 21033/2356 RAB01E19B40E53 SLP044 P0000 T01000061=
202411222353 METAR KSEA 222353Z 19020G28KT 10SM FEW020 SCT060 SCT120 13/04 A2961 RMK AO2 PK WND 17033/2257 SLP033 60000 T01280039 10150 20094 53014=
202411222253 METAR KSEA 222253Z 20020G32KT 10SM FEW020 SCT055 SCT120 14/04 A2959 RMK AO2 PK WND 19032/2248 SLP027 SHRA W-N T01390039=
202411222153 METAR KSEA 222153Z 18018G26KT 10SM BKN060 BKN110 14/04 A2957 RMK AO2 PK WND 18034/2100 SLP020 T01390044=
202411222053 METAR KSEA 222053Z 18022G29KT 10SM FEW020 SCT060 BKN110 14/05 A2957 RMK AO2 PK WND 18029/2031 SLP019 60000 T01390050 58004=
202411221953 METAR KSEA 221953Z 13013KT 10SM FEW015 BKN080 BKN095 12/08 A2957 RMK AO2 WSHFT 1901 SLP019 T01220078=
202411221916 SPECI KSEA 221916Z 16014G22KT 10SM FEW015 BKN080 BKN090 13/08 A2958 RMK AO2 WSHFT 1901 T01280078=
202411221853 METAR KSEA 221853Z 12011G18KT 10SM FEW015 SCT040 BKN070 10/08 A2959 RMK AO2 PK WND 19027/1754 WSHFT 1752 RAE44 SLP028 P0000 T01000078=
202411221809 SPECI KSEA 221809Z 11011G19KT 10SM -RA FEW010 OVC070 09/07 A2959 RMK AO2 PK WND 19027/1754 WSHFT 1752 P0000 T00940072=
202411221800 SPECI KSEA 221800Z 14015G29KT 10SM -RA OVC070 11/07 A2958 RMK AO2 PK WND 19027/1754 WSHFT 1740 P0000 T01110072=
202411221753 METAR KSEA 221753Z 18018G29KT 10SM -RA FEW005 BKN060 BKN075 11/07 A2958 RMK AO2 PK WND 18029/1751 WSHFT 1737 SLP024 P0003 60019 T01110067 10111 20067 53025=
202411221745 SPECI KSEA 221745Z 18018G28KT 10SM -RA FEW005 BKN060 BKN075 10/07 A2957 RMK AO2 PK WND 18028/1744 P0003 T01000072=
202411221653 METAR KSEA 221653Z 21003KT 7SM -RA BKN041 OVC055 09/07 A2958 RMK AO2 SLP023 P0002 T00890072=
202411221553 METAR KSEA 221553Z 13010KT 10SM -RA OVC050 10/05 A2951 RMK AO2 SLP999 P0000 T01000050=
202411221453 METAR KSEA 221453Z 11016G23KT 10SM -RA OVC049 09/06 A2950 RMK AO2 SLP998 P0005 60014 T00940056 56046=
202411221353 METAR KSEA 221353Z 10008KT 9SM -RA OVC060 09/06 A2953 RMK AO2 RAE1256B19E30B48 SLP006 P0002 T00890056=
202411221253 METAR KSEA 221253Z 06014KT 10SM -RA FEW060 BKN070 OVC090 08/06 A2955 RMK AO2 PK WND 10027/1203 WSHFT 1200 PRESFR SLP013 P0007 T00780061=
202411221220 SPECI KSEA 221220Z 10016G24KT 7SM -RA OVC055 08/06 A2961 RMK AO2 PK WND 10027/1203 WSHFT 1200 PRESFR P0003 T00830056=
202411221153 METAR KSEA 221153Z 36005KT 5SM -RA BR OVC055 07/06 A2964 RMK AO2 SLP045 P0008 60011 70012 T00670056 10094 20056 55017=
202411221053 METAR KSEA 221053Z 08011KT 9SM -RA OVC060 09/05 A2963 RMK AO2 PRESFR SLP040 P0003 T00890050=
202411220953 METAR KSEA 220953Z 06007KT 10SM -RA BKN065 OVC090 07/04 A2969 RMK AO2 RAB51 SLP061 P0000 T00720039=
202411220853 METAR KSEA 220853Z 34005KT 10SM BKN110 OVC180 06/04 A2969 RMK AO2 SLP061 T00610039 58051=
202411220753 METAR KSEA 220753Z 03009KT 10SM OVC160 07/04 A2975 RMK AO2 PRESFR SLP081 T00670039 401000050=
202411220653 METAR KSEA 220653Z 06007KT 10SM FEW060 SCT150 SCT180 06/04 A2979 RMK AO2 PRESFR SLP096 T00610044=
202411220553 METAR KSEA 220553Z 01006KT 9SM FEW060 06/05 A2984 RMK AO2 SLP114 60001 T00610050 10083 20056 58020=
202411220453 METAR KSEA 220453Z 05007KT 10SM SCT060 07/06 A2988 RMK AO2 SLP125 T00670056=
202411220353 METAR KSEA 220353Z 04008KT 10SM BKN060 07/06 A2990 RMK AO2 SLP132 T00720061=
202411220253 METAR KSEA 220253Z 03007KT 10SM FEW048 OVC065 07/06 A2991 RMK AO2 RAB0154E03 SLP135 P0000 60001 T00720061 50004=
202411220153 METAR KSEA 220153Z 01005KT 10SM FEW030 BKN040 OVC049 07/06 A2992 RMK AO2 RAE03B34E43 SLP139 P0000 T00720061=
202411220053 METAR KSEA 220053Z 31007KT 7SM -RA BKN039 OVC060 08/06 A2992 RMK AO2 RAB40 SLP141 P0001 T00780061=
202411212353 METAR KSEA 212353Z 29004KT 10SM BKN049 OVC055 08/06 A2989 RMK AO2 RAE00B40E53 SLP131 P0000 60000 T00830061 10100 20083 55001=
202411212253 METAR KSEA 212253Z 33004KT 8SM -RA OVC050 08/06 A2989 RMK AO2 RAB41 SLP130 P0000 T00830061=
202411212153 METAR KSEA 212153Z 29003KT 10SM BKN060 OVC080 09/05 A2988 RMK AO2 RAB31E40 SLP127 P0000 T00940050=
202411212053 METAR KSEA 212053Z 00000KT 10SM FEW055 BKN085 OVC100 10/03 A2990 RMK AO2 SLP132 VCSH T01000028 58006=
202411211953 METAR KSEA 211953Z 00000KT 10SM FEW050 FEW080 BKN110 BKN200 10/02 A2992 RMK AO2 SLP137 T01000022=
202411211853 METAR KSEA 211853Z 00000KT 10SM SCT050 BKN100 BKN200 09/02 A2992 RMK AO2 SLP140 T00890022=
202411211753 METAR KSEA 211753Z 09006KT 10SM SCT050 BKN120 BKN200 08/02 A2992 RMK AO2 SLP138 T00830017 10089 20050 50003=
202411211653 METAR KSEA 211653Z 11008KT 10SM SCT047 BKN120 OVC200 08/02 A2992 RMK AO2 SLP139 T00780017=
202411211553 METAR KSEA 211553Z 09003KT 10SM SCT050 BKN140 BKN200 07/02 A2992 RMK AO2 SLP139 T00670017=
202411211453 METAR KSEA 211453Z 09005KT 10SM BKN050 06/02 A2991 RMK AO2 SLP136 T00610017 53006=
202411211353 METAR KSEA 211353Z 12006KT 10SM BKN048 06/02 A2990 RMK AO2 SLP134 T00560017=
202411211253 METAR KSEA 211253Z 13006KT 10SM BKN043 OVC055 06/02 A2990 RMK AO2 SLP132 T00610022=
202411211153 METAR KSEA 211153Z 14006KT 10SM BKN050 BKN080 OVC095 06/02 A2989 RMK AO2 SLP129 T00610017 10089 20056 51013=
202411211053 METAR KSEA 211053Z 12005KT 10SM BKN047 06/02 A2988 RMK AO2 SLP126 T00610017=
202411210953 METAR KSEA 210953Z 00000KT 10SM BKN049 06/02 A2987 RMK AO2 SLP122 T00610017=
202411210853 METAR KSEA 210853Z 19004KT 10SM OVC049 07/02 A2985 RMK AO2 SLP115 T00670017 51010=
202411210753 METAR KSEA 210753Z 13006KT 10SM FEW040 SCT070 BKN140 08/02 A2984 RMK AO2 SLP113 T00780017 401280056=
202411210653 METAR KSEA 210653Z 14004KT 10SM FEW044 BKN070 OVC090 08/01 A2984 RMK AO2 SLP110 T00780011=
202411210553 METAR KSEA 210553Z 13005KT 10SM BKN110 09/01 A2982 RMK AO2 SLP105 T00890006 10106 20078 51020=
202411210453 METAR KSEA 210453Z 13008KT 10SM BKN070 BKN110 09/01 A2981 RMK AO2 SLP104 T00890006=
202411210353 METAR KSEA 210353Z 13007KT 10SM SCT120 08/01 A2978 RMK AO2 SLP093 T00830006=
202411210253 METAR KSEA 210253Z 10009KT 10SM FEW070 SCT150 08/01 A2976 RMK AO2 SLP086 T00830006 56003=
202411210153 METAR KSEA 210153Z 12011KT 10SM SCT070 SCT150 09/01 A2976 RMK AO2 SLP087 T00890006=
202411210053 METAR KSEA 210053Z 12010KT 10SM BKN080 BKN150 09/01 A2976 RMK AO2 SLP084 T00940006=
202411202353 METAR KSEA 202353Z 10SM BKN065 OVC080 11/01 A2977 RMK AO2 SLP088 T01110006 10128 20083 53007=
202411202253 METAR KSEA 202253Z 16009KT 10SM OVC060 12/M01 A2976 RMK AO2 SLP084 T01171006=
202411202153 METAR KSEA 202153Z 18013G24KT 10SM SCT050 BKN070 OVC200 12/M01 A2975 RMK AO2 PK WND 18030/2126 SLP080 VCSH T01171006=
202411202053 METAR KSEA 202053Z 10SM BKN065 OVC080 12/00 A2975 RMK AO2 SLP081 T01170000 51006=
202411201953 METAR KSEA 201953Z 15009KT 10SM BKN055 BKN080 BKN130 11/03 A2974 RMK AO2 SLP078 T01110028=
202411201853 METAR KSEA 201853Z 14009KT 10SM SCT060 SCT080 BKN120 BKN200 11/02 A2975 RMK AO2 SLP081 T01060022=
202411201753 METAR KSEA 201753Z 15010G18KT 10SM SCT050 BKN070 BKN110 08/02 A2973 RMK AO2 SLP075 60000 T00830022 10083 20056 51028=
202411201653 METAR KSEA 201653Z 17007KT 10SM BKN050 OVC075 07/02 A2972 RMK AO2 SLP071 T00670022=
202411201553 METAR KSEA 201553Z 13012KT 10SM SCT070 BKN190 06/02 A2967 RMK AO2 SLP056 T00610022=
202411201453 METAR KSEA 201453Z 12009KT 10SM SCT070 06/03 A2965 RMK AO2 SLP047 60000 T00610028 53020=
202411201353 METAR KSEA 201353Z 12014KT 10SM FEW070 SCT140 06/03 A2962 RMK AO2 SLP038 T00610028=
202411201253 METAR KSEA 201253Z 12013KT 10SM SCT055 BKN070 BKN150 06/03 A2961 RMK AO2 RAE12 SLP033 P0000 T00610033=
202411201153 METAR KSEA 201153Z 12016G23KT 10SM -RA SCT055 BKN070 OVC085 06/03 A2959 RMK AO2 SLP027 P0001 60010 70015 T00560033 10089 20056 50026=
202411201053 METAR KSEA 201053Z 10010KT 9SM -RA BKN030 OVC037 06/03 A2959 RMK AO2 SLP027 P0006 T00610033=
202411200953 METAR KSEA 200953Z VRB03KT 9SM -RA OVC039 07/03 A2957 RMK AO2 PRESRR SLP020 P0002 T00720033=
202411200853 METAR KSEA 200853Z VRB06KT 10SM -RA BKN043 OVC050 08/01 A2951 RMK AO2 PK WND 12032/0801 RAB27 PRESRR SLP000 P0001 60001 T00830006 53031=
202411200753 METAR KSEA 200753Z 12016G28KT 10SM OVC065 08/M01 A2944 RMK AO2 PK WND 13038/0734 SLP977 T00831011 400890022=
202411200653 METAR KSEA 200653Z 13022G39KT 10SM OVC070 08/M01 A2942 RMK AO2 PK WND 12041/0635 SLP971 T00781006=
202411200553 METAR KSEA 200553Z 13026G45KT 10SM OVC070 08/00 A2942 RMK AO2 PK WND 12048/0537 RAB0454E0456 SLP969 P0000 60005 T00780000 10083 20056 58024=
202411200453 METAR KSEA 200453Z 12026G45KT 10SM OVC065 07/01 A2945 RMK AO2 PK WND 13046/0405 RAE44 SLP981 P0000 T00670006=
202411200353 METAR KSEA 200353Z 12025G40KT 9SM -RA BKN041 OVC049 06/02 A2948 RMK AO2 PK WND 12051/0331 SLP991 P0003 T00610017=
202411200253 METAR KSEA 200253Z 12030G45KT 8SM -RA OVC034 07/01 A2949 RMK AO2 PK WND 12048/0209 RAB0157 SLP994 P0002 60002 T00670006 58051=
202411200153 METAR KSEA 200153Z 12026G45KT 10SM OVC046 08/M02 A2954 RMK AO2 PK WND 13045/0147 SLP012 T00831017=
202411200053 METAR KSEA 200053Z 13022G36KT 10SM OVC065 08/M02 A2960 RMK AO2 PK WND 13040/0040 SLP031 T00831022=
202411192353 METAR KSEA 192353Z 11016G33KT 10SM OVC080 08/M02 A2964 RMK AO2 PK WND 12033/2344 SLP046 T00781017 10078 20050 56050=
202411192253 METAR KSEA 192253Z 11012G23KT 10SM OVC090 08/M01 A2968 RMK AO2 PK WND 12027/2211 SLP058 T00781011=
202411192153 METAR KSEA 192153Z 11011KT 10SM FEW060 OVC080 07/M01 A2974 RMK AO2 SLP080 T00721006=
202411192053 METAR KSEA 192053Z 09007KT 10SM FEW050 OVC120 07/01 A2979 RMK AO2 SLP097 T00670006 58034=
202411191953 METAR KSEA 191953Z 11008KT 10SM FEW020 FEW050 OVC120 06/01 A2984 RMK AO2 SLP115 T00610006=
202411191853 METAR KSEA 191853Z 09008KT 10SM FEW020 SCT050 BKN150 06/01 A2987 RMK AO2 SLP125 T00560006=
202411191753 METAR KSEA 191753Z 12007KT 10SM FEW020 FEW050 SCT150 BKN220 05/01 A2989 RMK AO2 SLP132 T00500006 10050 20022 58007=
202411191653 METAR KSEA 191653Z 10007KT 10SM FEW020 SCT049 SCT150 BKN250 04/01 A2991 RMK AO2 SLP138 T00390011=
202411191553 METAR KSEA 191553Z 11006KT 10SM FEW010 SCT055 SCT100 BKN250 03/01 A2993 RMK AO2 SLP143 T00330006=
202411191453 METAR KSEA 191453Z VRB03KT 10SM FEW010 BKN050 BKN110 03/01 A2991 RMK AO2 SLP139 T00330011 55002=
202411191353 METAR KSEA 191353Z 14003KT 10SM FEW045 SCT110 BKN150 02/01 A2991 RMK AO2 SLP138 T00220011=
202411191253 METAR KSEA 191253Z 10006KT 10SM OVC038 02/01 A2992 RMK AO2 SLP141 T00220011=
202411191153 METAR KSEA 191153Z 15003KT 10SM FEW028 BKN047 OVC055 02/01 A2992 RMK AO2 RAE19 SLP141 P0000 60028 70029 T00220011 10044 20022 58004=
202411191119 SPECI KSEA 191119Z 08004KT 10SM FEW002 BKN037 OVC050 02/01 A2992 RMK AO2 RAE19 P0000 T00220011=
202411191053 METAR KSEA 191053Z 11006KT 10SM -RA FEW009 BKN025 OVC030 03/02 A2993 RMK AO2 SLP143 P0008 T00280017=
202411190953 METAR KSEA 190953Z 18007KT 7SM -RA OVC009 03/02 A2993 RMK AO2 SLP146 P0007 T00280017=
202411190942 SPECI KSEA 190942Z 17011KT 8SM -RA BKN008 OVC015 03/02 A2994 RMK AO2 P0005 T00280017=
202411190908 SPECI KSEA 190908Z 19010G20KT 7SM -RA BKN014 OVC020 03/02 A2993 RMK AO2 P0002 T00330017=
202411190853 METAR KSEA 190853Z 19009G16KT 6SM -RA BR SCT014 OVC020 03/02 A2993 RMK AO2 SLP145 P0008 60013 T00330017 53001=
202411190753 METAR KSEA 190753Z 18009KT 8SM -RA OVC016 04/02 A2993 RMK AO2 SLP143 P0003 T00390022 400610039=
202411190653 METAR KSEA 190653Z 16007KT 10SM -RA OVC024 04/01 A2992 RMK AO2 SLP141 P0002 T00440011=
202411190553 METAR KSEA 190553Z 13007KT 8SM -RA OVC026 04/01 A2993 RMK AO2 RAE15B27 SLP144 P0000 60001 T00440011 10056 20039 58004=
202411190515 SPECI KSEA 190515Z 15005KT 10SM BKN028 OVC040 04/01 A2994 RMK AO2 RAE15 P0000 T00440011=
202411190453 METAR KSEA 190453Z 15010KT 10SM -RA SCT028 OVC038 04/01 A2993 RMK AO2 RAE23B27 SLP145 P0000 T00440011=
202411190423 SPECI KSEA 190423Z 16008KT 10SM FEW017 BKN031 OVC048 04/01 A2994 RMK AO2 RAE23 P0000 T00440011=
202411190353 METAR KSEA 190353Z 19005KT 9SM -RA FEW017 BKN026 OVC032 04/01 A2995 RMK AO2 RAB12 SLP149 P0001 T00390011=
202411190314 SPECI KSEA 190314Z 18013G20KT 10SM -RA BKN028 OVC048 05/00 A2994 RMK AO2 RAB12 P0000 T00500000=
202411190253 METAR KSEA 190253Z 18006KT 10SM BKN040 BKN046 OVC100 05/00 A2994 RMK AO2 SLP149 60000 T00500000 58001=
202411190153 METAR KSEA 190153Z 19012KT 10SM FEW023 BKN040 OVC070 05/01 A2995 RMK AO2 RAE34 SLP150 P0000 T00500011=
202411190139 SPECI KSEA 190139Z 20012KT 10SM SCT023 BKN031 OVC060 05/01 A2995 RMK AO2 RAE34 P0000 T00500011=
202411190113 SPECI KSEA 190113Z 19009KT 10SM -RA FEW021 BKN027 OVC040 05/02 A2995 RMK AO2 P0000 T00500017=
202411190053 METAR KSEA 190053Z 20009G23KT 10SM -RA SCT023 BKN034 OVC048 05/01 A2995 RMK AO2 RAB52 SLP151 P0000 T00500006=
202411190030 SPECI KSEA 190030Z 19010KT 10SM FEW026 BKN032 BKN060 06/01 A2995 RMK AO2 T00560006=
202411182353 METAR KSEA 182353Z 20014G22KT 10SM FEW021 BKN026 BKN200 06/01 A2995 RMK AO2 SLP150 60000 T00560006 10061 20044 53004=
202411182253 METAR KSEA 182253Z 21014G20KT 10SM SCT022 BKN027 BKN200 06/02 A2995 RMK AO2 SLP148 T00610017=
202411182241 SPECI KSEA 182241Z 21011G19KT 10SM SCT022 BKN027 BKN200 06/02 A2994 RMK AO2 T00610017=
202411182153 METAR KSEA 182153Z 21010KT 10SM FEW023 BKN030 BKN200 06/02 A2994 RMK AO2 SLP145 T00610017=
202411182053 METAR KSEA 182053Z 19011G15KT 10SM SCT015 BKN022 06/02 A2993 RMK AO2 SLP146 60000 T00560022 51003=
202411182039 SPECI KSEA 182039Z 21009KT 10SM SCT010 BKN019 OVC025 06/02 A2993 RMK AO2 T00560022=
202411181953 METAR KSEA 181953Z 21010KT 10SM BKN012 OVC020 05/02 A2993 RMK AO2 RAE11 SLP144 P0000 T00500022=
202411181948 SPECI KSEA 181948Z 21010KT 10SM BKN012 OVC023 05/02 A2993 RMK AO2 RAE11 P0000=
202411181853 METAR KSEA 181853Z 22013G19KT 10SM -RA BKN016 BKN020 OVC025 05/03 A2992 RMK AO2 RAB34 SLP142 P0000 T00500028=
202411181832 SPECI KSEA 181832Z 22011KT 10SM BKN016 OVC025 05/02 A2992 RMK AO2 T00500022=
202411181753 METAR KSEA 181753Z 22009KT 10SM BKN014 OVC024 05/02 A2991 RMK AO2 SLP136 T00500022 10050 20044 53025=
202411181700 SPECI KSEA 181700Z 18007KT 10SM BKN012 OVC020 04/02 A2988 RMK AO2 T00440017=
202411181653 METAR KSEA 181653Z 18008KT 10SM BKN015 OVC020 04/02 A2988 RMK AO2 SLP127 T00440022=
202411181623 SPECI KSEA 181623Z 17009KT 10SM BKN015 OVC020 05/02 A2987 RMK AO2 T00500022=
202411181553 METAR KSEA 181553Z 16006KT 10SM BKN013 OVC030 05/02 A2985 RMK AO2 SLP116 T00500022=
202411181524 SPECI KSEA 181524Z 17006KT 10SM BKN014 OVC020 04/02 A2984 RMK AO2 T00440022=
202411181453 METAR KSEA 181453Z 22007KT 10SM BKN015 OVC021 04/02 A2983 RMK AO2 SLP110 T00440022 51022=
202411181353 METAR KSEA 181353Z 20004KT 10SM SCT010 OVC017 05/03 A2981 RMK AO2 SLP103 T00500028 $=
202411181344 SPECI KSEA 181344Z 19005KT 10SM SCT010 OVC017 05/03 A2980 RMK AO2 T00500028 $=
202411181253 METAR KSEA 181253Z 20008KT 10SM BKN010 OVC020 05/03 A2979 RMK A02 SLP095 T00500028=
202411181100 SPECI KSEA 181100Z 20013KT 10SM BKN012 OVC022 04/02 A2975 RMK AO2 T00440022 $=
202411181053 METAR KSEA 181053Z 20012G21KT 10SM BKN015 OVC022 04/02 A2975 RMK AO2 RAE25 SLP082 P0000 T00440022 $=
202411180953 METAR KSEA 180953Z 21013KT 10SM -RA BKN017 OVC029 04/03 A2974 RMK AO2 RAB38 SLP080 CIG 012V022 P0000 T00440028 $=
202411180939 SPECI KSEA 180939Z 21012G20KT 8SM -RA SCT013 BKN021 OVC032 04/02 A2974 RMK AO2 RAB38 P0000 T00440022 $=
202411180853 METAR KSEA 180853Z 20012G21KT 10SM SCT013 BKN030 BKN100 OVC200 04/02 A2974 RMK AO2 PK WND 20028/0817 SLP077 T00440022 51012 $=
202411180828 SPECI KSEA 180828Z 20016KT 10SM SCT011 BKN090 BKN110 OVC200 04/02 A2974 RMK AO2 PK WND 20028/0817 SCT V BKN T00440022 $=
202411180753 METAR KSEA 180753Z 20018G29KT 10SM BKN012 BKN060 OVC100 05/02 A2973 RMK AO2 PK WND 20029/0751 SLP076 T00500022 400940044 $=
202411180743 SPECI KSEA 180743Z 20015KT 10SM BKN013 BKN060 OVC140 05/03 A2974 RMK AO2 PK WND 20029/0706 T00500028 $=
202411180715 SPECI KSEA 180715Z 20017G29KT 10SM SCT013 SCT020 OVC140 06/02 A2973 RMK AO2 PK WND 20029/0706 SCT020 V BKN T00560022 $=
202411180653 METAR KSEA 180653Z 21015G20KT 10SM BKN013 BKN020 04/02 A2972 RMK AO2 SLP073 BKN013 V SCT T00440022 $=
202411180622 SPECI KSEA 180622Z 20010G22KT 10SM BKN012 OVC070 05/03 A2972 RMK AO2 CIG 010V016 T00500028 $=
202411180558 SPECI KSEA 180558Z 20014G25KT 10SM SCT014 BKN085 BKN200 04/02 A2970 RMK AO2 SCT V BKN T00440022 $=
202411180553 METAR KSEA 180553Z 21017G28KT 10SM BKN014 BKN090 OVC200 04/02 A2970 RMK AO2 PK WND 20028/0548 SLP066 T00440022 10072 20044 53013 $=
202411180511 SPECI KSEA 180511Z 18015G21KT 10SM BKN013 BKN021 06/03 A2970 RMK AO2 PK WND 20026/0454 T00560033 $=
202411180453 METAR KSEA 180453Z 20015G25KT 10SM BKN015 OVC090 06/03 A2969 RMK AO2 PK WND 21027/0419 SLP062 T00560033 $=
202411180353 METAR KSEA 180353Z 21016G27KT 10SM BKN015 BKN020 OVC090 06/03 A2967 RMK AO2 PK WND 19028/0328 SLP054 T00610033 $=
202411180253 METAR KSEA 180253Z 21011G21KT 10SM OVC022 07/03 A2966 RMK AO2 SLP052 T00670033 53023 $=
202411180153 METAR KSEA 180153Z 20012G19KT 10SM BKN018 OVC023 07/03 A2963 RMK AO2 PK WND 22032/0106 SLP042 T00670033 $=
202411180053 METAR KSEA 180053Z 21014G26KT 10SM OVC020 07/04 A2960 RMK AO2 PK WND 21026/0032 SLP030 T00720039 $=
202411172353 METAR KSEA 172353Z 20013G22KT 10SM BKN018 OVC023 07/04 A2959 RMK AO2 PK WND 21026/2310 SLP027 60001 T00720044 10094 20072 53005 $=
202411172253 METAR KSEA 172253Z 20017G26KT 10SM FEW013 BKN020 OVC060 07/04 A2959 RMK AO2 PK WND 21026/2251 SLP026 T00720044 $=
202411172153 METAR KSEA 172153Z 21014G19KT 10SM FEW013 BKN018 BKN120 08/06 A2956 RMK AO2 SLP016 T00780056 $=
202411172053 METAR KSEA 172053Z 21008G18KT 10SM BKN025 BKN032 OVC055 07/06 A2958 RMK AO2 RAE16 SLP022 P0001 60001 T00720056 56011 $=
202411171953 METAR KSEA 171953Z 25013G22KT 9SM -RA SCT011 BKN017 OVC026 08/07 A2959 RMK AO2 SLP025 P0000 T00830067 $=
202411171853 METAR KSEA 171853Z 20010KT 10SM -RA BKN014 BKN025 OVC080 09/07 A2959 RMK AO2 RAB1759E12B51 SLP026 P0000 T00890067 $=
202411171753 METAR KSEA 171753Z 18012KT 10SM SCT017 BKN055 OVC070 09/07 A2961 RMK AO2 SLP034 60000 T00890067 10094 20083 58001 $=
202411171653 METAR KSEA 171653Z 18011KT 10SM FEW010 BKN017 BKN090 09/07 A2961 RMK AO2 SLP036 T00890067=
202411171612 SPECI KSEA 171612Z 20010KT 10SM FEW010 BKN017 BKN050 09/07 A2962 RMK AO2 T00890067=
202411171553 METAR KSEA 171553Z 20012G19KT 10SM FEW010 BKN050 BKN075 08/07 A2961 RMK AO2 RAE1456 SLP034 P0000 T00830067=
202411171503 SPECI KSEA 171503Z 19012KT 10SM FEW005 BKN050 OVC060 08/07 A2961 RMK AO2 RAE1456 P0000 T00830072=
202411171453 METAR KSEA 171453Z 20015G23KT 10SM -RA SCT044 OVC050 08/07 A2961 RMK AO2 PK WND 21027/1407 RAB47 SLP035 P0000 60000 T00830072 50000=
202411171353 METAR KSEA 171353Z 19015G25KT 10SM FEW020 BKN075 BKN200 09/07 A2962 RMK AO2 PK WND 21028/1303 SLP037 T00890067=
202411171300 SPECI KSEA 171300Z 20015G23KT 10SM FEW017 BKN049 09/07 A2961 RMK AO2 T00890067=
202411171253 METAR KSEA 171253Z 20013G21KT 10SM SCT007 BKN017 OVC042 09/07 A2962 RMK AO2 RAE1158 SLP038 P0000 T00890067=
202411171231 SPECI KSEA 171231Z 20013G22KT 10SM SCT007 BKN017 OVC042 09/08 A2962 RMK AO2 RAE1158 P0000 T00940078=
202411171153 METAR KSEA 171153Z 19013G21KT 9SM -RA BKN008 OVC013 09/08 A2961 RMK AO2 PK WND 18026/1117 RAB42 SLP035 P0000 60009 70024 T00940083 10094 20067 55000=
202411171150 SPECI KSEA 171150Z 19012G23KT 7SM -RA BKN008 OVC013 09/08 A2961 RMK AO2 PK WND 18026/1117 RAB42 P0000=
202411171106 SPECI KSEA 171106Z 18016G21KT 7SM OVC013 09/08 A2961 RMK AO2 T00940078=
202411171053 METAR KSEA 171053Z 19017G22KT 10SM FEW008 BKN015 OVC019 09/08 A2961 RMK AO2 PK WND 20027/1010 RAB39E50 SLP033 P0000 T00940078=
202411170953 METAR KSEA 170953Z 20016G27KT 10SM OVC016 09/08 A2961 RMK AO2 PK WND 19028/0937 SLP036 T00940078=
202411170853 METAR KSEA 170853Z 19015G22KT 10SM BKN015 OVC021 09/08 A2961 RMK AO2 RAE31 SLP034 P0002 60009 T00890078 58019=
202411170809 SPECI KSEA 170809Z 18011KT 5SM -RA BR OVC013 08/07 A2963 RMK AO2 P0001 T00830072=
202411170753 METAR KSEA 170753Z 18010KT 3SM -RA BR BKN015 OVC020 08/07 A2964 RMK AO2 RAB00 SLP044 P0005 T00780072 400780022=
202411170653 METAR KSEA 170653Z 17006KT 4SM BR OVC018 07/07 A2965 RMK AO2 RAE02B39E51 SLP049 P0002 T00720067=
202411170553 METAR KSEA 170553Z 16005KT 3SM -RA BR FEW009 OVC018 07/06 A2967 RMK AO2 RAB16 SLP053 P0003 60008 T00670061 10067 20050 56022=
202411170453 METAR KSEA 170453Z 18006KT 5SM BR FEW009 BKN018 OVC023 07/06 A2969 RMK AO2 SLP061 T00670056=
202411170353 METAR KSEA 170353Z 14005KT 10SM FEW008 OVC025 06/05 A2970 RMK AO2 SLP065 T00610050=
202411170253 METAR KSEA 170253Z 22004KT 10SM FEW006 SCT011 OVC025 06/05 A2973 RMK AO2 SLP077 60005 T00610050 56030=
202411170153 METAR KSEA 170153Z 21004KT 7SM SCT006 SCT010 OVC021 06/05 A2975 RMK AO2 RAE0055 SLP082 P0001 T00560050=
202411170053 METAR KSEA 170053Z 17007KT 5SM -RA BR FEW006 SCT010 OVC024 05/04 A2977 RMK AO2 PRESFR SLP091 P0004 T00500044=
202411170046 SPECI KSEA 170046Z 17007KT 5SM -RA BR FEW006 SCT010 OVC024 05/04 A2978 RMK AO2 P0004 T00500044=
202411170015 SPECI KSEA 170015Z 18005KT 4SM -RA BR BKN026 OVC031 05/04 A2981 RMK AO2 P0001 T00500044=
202411162353 METAR KSEA 162353Z 16007KT 4SM -RA BR SCT025 OVC032 06/04 A2982 RMK AO2 RAB2257 SLP107 P0003 60007 T00560044 10061 20044 58037=
202411162253 METAR KSEA 162253Z 15010KT 10SM SCT025 BKN032 OVC050 06/04 A2986 RMK AO2 RAE10 SLP121 P0001 T00560039=
202411162153 METAR KSEA 162153Z 14008KT 8SM -RA SCT038 BKN055 OVC070 06/03 A2991 RMK AO2 SLP138 P0002 T00610028=
202411162053 METAR KSEA 162053Z 16010G20KT 10SM -RA BKN041 OVC050 06/02 A2993 RMK AO2 SLP144 P0001 60001 T00610022 58033=
202411161953 METAR KSEA 161953Z 15008KT 10SM -RA BKN040 OVC050 06/02 A2997 RMK AO2 RAB06 SLP158 P0000 T00560022=
202411161853 METAR KSEA 161853Z 16007KT 10SM FEW043 OVC070 06/01 A3001 RMK AO2 RAE22 SLP171 P0000 T00560011=
202411161753 METAR KSEA 161753Z 15007KT 10SM -RA OVC043 04/01 A3003 RMK AO2 RAB50 SLP177 P0000 60000 T00440006 10044 20022 57014 $=
202411161653 METAR KSEA 161653Z 15007KT 10SM OVC044 04/01 A3004 RMK AO2 SLP182 T00390006 $=
202411161553 METAR KSEA 161553Z 16010KT 10SM OVC043 04/01 A3006 RMK AO2 SLP187 T00390006 $=
202411161453 METAR KSEA 161453Z 16008KT 10SM BKN035 OVC043 03/01 A3007 RMK AO2 SLP192 T00280006 58010 $=
202411161353 METAR KSEA 161353Z 16008KT 10SM BKN045 OVC190 03/00 A3008 RMK AO2 SLP195 T00280000 $=
202411161253 METAR KSEA 161253Z 15005KT 10SM FEW023 BKN048 OVC190 02/01 A3009 RMK AO2 SLP200 T00220006 $=
202411161153 METAR KSEA 161153Z 15007KT 10SM SCT023 OVC200 02/01 A3010 RMK AO2 SLP202 70006 T00220011 10050 20022 58009 $=
202411161143 SPECI KSEA 161143Z 13007KT 10SM SCT023 BKN200 02/01 A3010 RMK AO2 T00220011 $=
202411161126 SPECI KSEA 161126Z 14006KT 10SM BKN020 BKN200 03/02 A3010 RMK AO2 T00280017 $=
202411161106 SPECI KSEA 161106Z 15006KT 10SM SCT017 SCT045 BKN200 02/02 A3011 RMK AO2 T00220017 $=
202411161053 METAR KSEA 161053Z 14006KT 10SM CLR 02/02 A3012 RMK AO2 SLP206 T00220017 $=
202411160953 METAR KSEA 160953Z 14005KT 10SM SCT045 SCT170 OVC200 03/02 A3013 RMK AO2 SLP210 T00280017 $=
202411160853 METAR KSEA 160853Z 14006KT 10SM SCT044 SCT170 OVC200 03/02 A3013 RMK AO2 SLP210 T00330017 58006 $=
202411160753 METAR KSEA 160753Z 17004KT 10SM SCT030 OVC210 03/02 A3014 RMK AO2 SLP213 T00330022 400890033 $=
202411160653 METAR KSEA 160653Z 13007KT 10SM SCT031 OVC220 04/03 A3014 RMK AO2 SLP214 T00390033 $=
202411160553 METAR KSEA 160553Z 13006KT 10SM SCT028 05/04 A3015 RMK AO2 RAE28 SLP216 P0000 60005 T00500039 10078 20050 51005 $=
202411160528 SPECI KSEA 160528Z 09005KT 10SM SCT028 06/02 A3014 RMK AO2 RAE28 P0000 T00560022 $=
202411160510 SPECI KSEA 160510Z VRB03KT 10SM -RA BKN028 OVC037 06/03 A3015 RMK AO2 P0000 T00610028 $=
202411160453 METAR KSEA 160453Z 00000KT 10SM -RA FEW020 BKN030 OVC037 06/03 A3014 RMK AO2 SLP216 P0002 T00560033 $=
202411160353 METAR KSEA 160353Z 05003KT 4SM -RA BR FEW015 OVC025 06/03 A3014 RMK AO2 SLP215 P0003 T00560033 $=
202411160340 SPECI KSEA 160340Z 13004KT 5SM -RA FEW014 SCT020 OVC025 06/03 A3014 RMK AO2 P0002 T00610033 $=
202411160312 SPECI KSEA 160312Z 10004KT 3SM -RA BR BKN010 OVC017 06/04 A3014 RMK AO2 T00610039 PNO $=
202411160253 METAR KSEA 160253Z 18004KT 7SM -RA BKN019 BKN024 OVC038 06/03 A3013 RMK AO2 RAB45 SLP212 P0000 60000 T00610033 51005=
202411160153 METAR KSEA 160153Z 17003KT 10SM BKN026 06/03 A3013 RMK AO2 SLP212 T00610028=
202411160120 SPECI KSEA 160120Z 17005KT 10SM BKN030 06/03 A3012 RMK AO2 T00610028=
202411160053 METAR KSEA 160053Z 05005KT 10SM BKN028 07/03 A3012 RMK AO2 SLP207 VIRGA SW SHRA SE T00720028=
202411152353 METAR KSEA 152353Z 29004KT 10SM SCT028 SCT065 08/03 A3011 RMK AO2 SLP206 SHRA SE 60000 T00780033 10089 20067 53010=
202411152253 METAR KSEA 152253Z 31006KT 10SM SCT023 BKN035 08/03 A3010 RMK AO2 SLP201 T00830028=
202411152153 METAR KSEA 152153Z 29003KT 10SM FEW026 SCT034 SCT060 08/03 A3009 RMK AO2 SLP197 T00830033=
202411152053 METAR KSEA 152053Z 28007KT 10SM FEW022 SCT034 BKN042 08/03 A3008 RMK AO2 SLP195 60000 T00780033 58004=
202411151953 METAR KSEA 151953Z 32005KT 10SM FEW015 SCT030 BKN042 07/04 A3009 RMK AO2 RAB32E40 SLP197 P0000 T00720039=
202411151853 METAR KSEA 151853Z VRB04KT 10SM SCT013 BKN030 BKN047 08/05 A3009 RMK AO2 SLP199 T00780050=
202411151753 METAR KSEA 151753Z 00000KT 10SM SCT022 BKN031 BKN050 07/04 A3010 RMK AO2 SLP200 60001 T00670044 10067 20050 51012=
202411151653 METAR KSEA 151653Z 00000KT 10SM FEW015 SCT041 BKN055 06/04 A3009 RMK AO2 SLP198 T00610044=
202411151553 METAR KSEA 151553Z 32004KT 10SM SCT015 BKN050 06/04 A3008 RMK AO2 SLP193 T00560044=
202411151453 METAR KSEA 151453Z 36003KT 10SM FEW011 BKN050 BKN075 06/04 A3006 RMK AO2 SLP188 60001 T00560039 53007=
202411151353 METAR KSEA 151353Z 35004KT 10SM FEW024 BKN047 06/04 A3005 RMK AO2 SLP184 T00560039=
202411151253 METAR KSEA 151253Z 00000KT 10SM FEW024 BKN042 OVC049 06/04 A3005 RMK AO2 RAB05E37 SLP184 P0001 T00560044=
202411151209 SPECI KSEA 151209Z 36004KT 10SM -RA FEW017 SCT026 OVC040 06/04 A3004 RMK AO2 RAB05 P0000 T00610039=
202411151153 METAR KSEA 151153Z 30003KT 10SM FEW017 BKN027 OVC070 06/04 A3004 RMK AO2 RAE08 SLP181 P0000 60000 70012 T00560044 10067 20056 50001=
202411151146 SPECI KSEA 151146Z 34004KT 10SM FEW013 BKN020 OVC070 06/04 A3004 RMK AO2 RAE08 P0000 T00560039=
202411151053 METAR KSEA 151053Z 00000KT 10SM -RA FEW031 SCT049 OVC065 06/04 A3004 RMK AO2 RAB48 SLP182 P0000 T00560039=
202411151029 SPECI KSEA 151029Z 31003KT 10SM BKN029 BKN065 06/05 A3005 RMK AO2 T00560050=
202411151000 SPECI KSEA 151000Z 31003KT 10SM FEW009 SCT030 OVC060 06/05 A3005 RMK AO2 T00560050=
202411150953 METAR KSEA 150953Z 00000KT 10SM FEW030 BKN060 06/05 A3005 RMK AO2 SLP182 T00560050=
202411150853 METAR KSEA 150853Z 28003KT 10SM FEW026 OVC055 06/04 A3004 RMK AO2 SLP180 60000 T00560044 53004=
202411150753 METAR KSEA 150753Z 12003KT 10SM BKN046 06/03 A3003 RMK AO2 SLP177 T00610033 401000061=
202411150653 METAR KSEA 150653Z 10004KT 10SM BKN044 06/03 A3003 RMK AO2 RAE15 SLP175 P0000 T00610033=
202411150553 METAR KSEA 150553Z 07005KT 10SM -RA BKN038 BKN048 06/04 A3003 RMK AO2 RAB52 SLP175 P0000 60011 T00610039 10083 20061 53009=
202411150453 METAR KSEA 150453Z 06008KT 10SM OVC040 06/04 A3001 RMK AO2 RAE08 SLP171 P0000 T00610044=
202411150353 METAR KSEA 150353Z 02011KT 10SM -RA OVC038 07/05 A3000 RMK AO2 SLP168 P0003 T00670050=
202411150303 SPECI KSEA 150303Z 01012KT 10SM -RA SCT021 OVC031 07/05 A3000 RMK AO2 P0001 T00670050=
202411150253 METAR KSEA 150253Z 01011KT 7SM -RA FEW021 BKN025 OVC032 07/05 A3000 RMK AO2 SLP166 P0008 60008 T00670050 53013=
202411150231 SPECI KSEA 150231Z 02016G21KT 3SM RA BR SCT010 OVC021 07/06 A2999 RMK AO2 P0006 T00670056=
202411150222 SPECI KSEA 150222Z 36006G15KT 2 1/2SM +RA BR BKN010 OVC019 07/05 A2999 RMK AO2 P0001 T00720050=
202411150153 METAR KSEA 150153Z 16004KT 8SM -RA BKN010 OVC013 08/06 A2998 RMK AO2 RAB51 SLP160 P0000 T00830061=
202411150126 SPECI KSEA 150126Z 16004KT 10SM BKN017 OVC026 08/06 A2998 RMK AO2 T00780061=
202411150053 METAR KSEA 150053Z 17005KT 10SM BKN013 OVC026 08/06 A2997 RMK AO2 SLP157 T00780061=
202411150030 SPECI KSEA 150030Z 18005KT 10SM BKN012 BKN018 OVC055 08/06 A2997 RMK AO2 T00780061=
202411150020 SPECI KSEA 150020Z 16006KT 10SM BKN015 BKN027 OVC060 08/06 A2996 RMK AO2 T00780061=
202411142353 METAR KSEA 142353Z 19005KT 10SM SCT010 SCT065 BKN100 BKN200 08/06 A2996 RMK AO2 RAE08 SLP153 P0001 60001 T00780061 10100 20078 53005=
202411142253 METAR KSEA 142253Z 17007KT 10SM -RA SCT010 BKN055 OVC070 08/06 A2995 RMK AO2 RAE19B40 SLP148 P0000 T00780061=
202411142153 METAR KSEA 142153Z 19008KT 10SM -RA SCT012 BKN033 OVC060 08/06 A2995 RMK AO2 RAB50 SLP149 P0000 T00780061=
202411142133 SPECI KSEA 142133Z 20009KT 10SM SCT012 BKN030 OVC060 08/06 A2995 RMK AO2 T00830056=
202411142053 METAR KSEA 142053Z 20010KT 10SM BKN015 BKN028 OVC033 08/06 A2995 RMK AO2 SLP148 60000 T00830061 51014=
202411141953 METAR KSEA 141953Z 20011KT 10SM FEW014 BKN021 OVC028 09/06 A2994 RMK AO2 PK WND 22027/1908 RAB11E20 SLP145 P0000 T00890061=
202411141853 METAR KSEA 141853Z 21015G21KT 10SM SCT015 OVC028 10/07 A2992 RMK AO2 SLP139 T01000072=
202411141753 METAR KSEA 141753Z 21011KT 10SM BKN015 OVC023 10/07 A2990 RMK AO2 SLP133 60000 T01000072 10100 20089 51029=
202411141653 METAR KSEA 141653Z 20009KT 10SM BKN016 OVC022 09/07 A2988 RMK AO2 SLP125 T00940072=
202411141553 METAR KSEA 141553Z 19012KT 10SM BKN015 BKN020 09/07 A2985 RMK AO2 SLP115 T00890072=
202411141453 METAR KSEA 141453Z 19013G21KT 10SM BKN015 BKN020 09/07 A2982 RMK AO2 SLP103 60000 T00940072 53023=
202411141353 METAR KSEA 141353Z 20014G23KT 10SM FEW015 BKN020 09/07 A2979 RMK AO2 SLP094 T00940072=
202411141336 SPECI KSEA 141336Z 20017G22KT 10SM SCT015 BKN022 09/07 A2978 RMK AO2 T00940072=
202411141253 METAR KSEA 141253Z 19016G24KT 9SM BKN014 BKN019 OVC027 09/07 A2977 RMK AO2 RAE1157 SLP087 P0000 T00940072=
202411141208 SPECI KSEA 141208Z 20015G23KT 10SM BKN016 BKN021 OVC028 09/08 A2976 RMK AO2 RAE1157 P0000 T00940078=
202411141153 METAR KSEA 141153Z 20017G24KT 8SM -RA BKN014 BKN019 OVC025 09/08 A2975 RMK AO2 RAE21B39 SLP080 P0011 60011 70055 T00940078 10100 20089 53022=
202411141053 METAR KSEA 141053Z 19015KT 8SM -RA OVC023 09/07 A2971 RMK AO2 PK WND 17030/1028 RAB09 SLP068 P0000 T00940067=
202411141022 SPECI KSEA 141022Z 18019G26KT 10SM -RA BKN028 OVC034 10/06 A2970 RMK AO2 PK WND 18026/1018 RAB09 P0000 T01000061=
202411140953 METAR KSEA 140953Z 18017G27KT 10SM BKN038 BKN047 OVC055 10/06 A2969 RMK AO2 PK WND 18028/0937 RAE06 SLP060 P0000 T01000061=
202411140853 METAR KSEA 140853Z 16009KT 10SM -RA OVC047 09/06 A2968 RMK AO2 RAB48 SLP056 P0000 60000 T00940061 51007=
202411140753 METAR KSEA 140753Z 16010KT 10SM SCT041 OVC055 09/06 A2967 RMK AO2 SLP055 T00940061 401280089=
202411140653 METAR KSEA 140653Z 17008KT 10SM FEW034 OVC047 09/06 A2967 RMK AO2 SLP053 T00940061=
202411140553 METAR KSEA 140553Z VRB05KT 10SM BKN034 OVC049 09/07 A2966 RMK AO2 RAB04E49 SLP051 P0001 60013 T00940067 10106 20089 51016=
202411140453 METAR KSEA 140453Z 18010G21KT 10SM OVC047 09/06 A2965 RMK AO2 RAE03 SLP046 P0000 T00940061=
202411140353 METAR KSEA 140353Z 17006KT 7SM -RA BKN034 OVC045 09/07 A2963 RMK AO2 RAB06 SLP041 P0007 T00890072=
202411140253 METAR KSEA 140253Z 16009KT 10SM SCT042 BKN060 OVC070 09/06 A2961 RMK AO2 SLP035 60005 T00940061 53012=
202411140153 METAR KSEA 140153Z 17012KT 10SM OVC060 09/07 A2960 RMK AO2 PK WND 19026/0101 RAE23 SLP030 P0000 T00940067=
202411140053 METAR KSEA 140053Z 18012G20KT 10SM -RA BKN035 OVC055 10/08 A2958 RMK AO2 SLP025 P0005 T01000083=
202411132353 METAR KSEA 132353Z 23009KT 3SM RA BR FEW020 OVC044 10/08 A2958 RMK AO2 PK WND 20029/2309 RAB2259 SLP023 P0010 60012 T01000083 10128 20100 53013=
202411132253 METAR KSEA 132253Z 19012G21KT 10SM FEW020 BKN045 BKN100 12/07 A2954 RMK AO2 RAB22E35 SLP010 P0000 T01220067=
202411132153 METAR KSEA 132153Z 19015G24KT 10SM BKN045 OVC060 13/07 A2954 RMK AO2 RAE15 SLP008 P0000 T01280072=
202411132053 METAR KSEA 132053Z 17008KT 10SM -RA BKN041 BKN060 12/09 A2954 RMK AO2 RAE32B49 SLP009 P0000 60002 T01220089 58004=
202411131953 METAR KSEA 131953Z 16006KT 10SM -RA FEW015 OVC045 11/09 A2955 RMK AO2 RAB16 SLP012 P0001 T01110089=
202411131853 METAR KSEA 131853Z 19009KT 10SM FEW015 OVC040 11/09 A2955 RMK AO2 RAB32E51 SLP014 VCSH P0001 T01110089=
202411131753 METAR KSEA 131753Z 15010KT 10SM FEW010 SCT026 OVC035 11/09 A2955 RMK AO2 RAE22 SLP014 P0004 60019 T01060094 10117 20100 50007=
202411131725 SPECI KSEA 131725Z 18009KT 7SM FEW015 SCT026 OVC035 10/09 A2955 RMK AO2 RAE22 P0004 T01000089=
202411131653 METAR KSEA 131653Z 20010KT 2 1/2SM RA BR FEW026 BKN037 OVC048 11/09 A2956 RMK AO2 RAB06 SLP015 P0010 T01060094=
202411131553 METAR KSEA 131553Z 17009KT 10SM BKN049 BKN085 11/08 A2953 RMK AO2 RAB1456E12 SLP007 P0000 T01110078=
202411131453 METAR KSEA 131453Z 18012KT 10SM BKN040 OVC055 11/08 A2953 RMK AO2 RAE48 SLP007 P0000 60005 T01110078 55013=
202411131353 METAR KSEA 131353Z 16007KT 10SM -RA BKN040 OVC055 11/08 A2953 RMK AO2 SLP005 P0003 T01060083=
202411131253 METAR KSEA 131253Z 13004KT 8SM -RA OVC037 10/08 A2955 RMK AO2 RAB02 SLP013 P0002 T01000078=
202411131153 METAR KSEA 131153Z 18003KT 10SM OVC040 11/08 A2957 RMK AO2 RAE47 SLP020 P0000 60005 70014 T01060078 10122 20089 55015=
202411131053 METAR KSEA 131053Z 20009KT 10SM -RA BKN043 OVC060 11/07 A2957 RMK AO2 PK WND 18027/1017 SLP018 P0003 T01110072=
202411130953 METAR KSEA 130953Z 17020G27KT 10SM -RA OVC038 12/06 A2959 RMK AO2 PK WND 19027/0937 RAB53 SLP025 P0000 T01220061=
202411130853 METAR KSEA 130853Z 13011KT 10SM OVC043 10/07 A2962 RMK AO2 SLP036 60002 T01000067 58037=
202411130753 METAR KSEA 130753Z 17006KT 10SM OVC043 09/07 A2966 RMK AO2 RAE05B21E53 SLP052 P0001 T00940067 401170083=
202411130653 METAR KSEA 130653Z 11007KT 10SM -RA OVC046 09/07 A2968 RMK AO2 SLP059 P0001 T00940067=
202411130553 METAR KSEA 130553Z VRB04KT 10SM -RA OVC050 09/07 A2973 RMK AO2 SLP073 P0001 60007 T00940072 10111 20089 56032=
202411130453 METAR KSEA 130453Z 11006KT 9SM -RA OVC048 09/07 A2975 RMK AO2 PRESFR SLP082 P0004 T00940072=
202411130353 METAR KSEA 130353Z 18014G21KT 10SM -RA OVC048 10/07 A2979 RMK AO2 SLP096 P0001 T01000067=
202411130253 METAR KSEA 130253Z 18014KT 10SM -RA BKN045 OVC055 10/07 A2982 RMK AO2 SLP106 P0001 60001 T01000067 58022=
202411130153 METAR KSEA 130153Z 18010G19KT 10SM -RA OVC046 10/07 A2986 RMK AO2 RAB02 SLP118 P0000 T01000072=
202411130053 METAR KSEA 130053Z 19009KT 10SM BKN045 OVC060 11/07 A2987 RMK AO2 SLP122 T01110067=
202411122353 METAR KSEA 122353Z 17007KT 10SM OVC034 11/07 A2989 RMK AO2 RAE41 SLP128 P0001 60001 T01060072 10117 20100 58022=
202411122253 METAR KSEA 122253Z 19006KT 9SM -RA SCT033 OVC048 11/08 A2992 RMK AO2 RAB32 SLP140 P0000 T01060078=
202411122153 METAR KSEA 122153Z 19008KT 10SM BKN030 OVC035 12/07 A2994 RMK AO2 SLP146 T01170067=
202411122112 SPECI KSEA 122112Z 22007KT 10SM SCT024 BKN030 OVC038 11/07 A2995 RMK AO2 T01110072=
202411122053 METAR KSEA 122053Z 22008KT 10SM BKN023 BKN031 OVC041 11/07 A2995 RMK AO2 SLP150 VCSH T01110072 58007=
202411122021 SPECI KSEA 122021Z 20008KT 10SM SCT022 BKN026 OVC034 11/07 A2996 RMK AO2 T01110072=
202411121953 METAR KSEA 121953Z 20008KT 7SM FEW015 BKN030 BKN038 11/07 A2997 RMK AO2 SLP155 T01060072=
202411121853 METAR KSEA 121853Z 21013KT 10SM SCT027 BKN035 BKN110 11/07 A2998 RMK AO2 SLP160 T01060072=
202411121753 METAR KSEA 121753Z 19012KT 10SM SCT026 BKN034 BKN041 10/07 A2997 RMK AO2 SLP157 60001 T01000067 10100 20083 51006=
202411121653 METAR KSEA 121653Z 20011G20KT 10SM SCT026 BKN040 BKN110 09/06 A2997 RMK AO2 SLP157 T00940056=
202411121553 METAR KSEA 121553Z 19011G17KT 10SM SCT025 BKN039 BKN110 08/06 A2996 RMK AO2 RAE1455 SLP153 P0000 T00830061=
202411121500 SPECI KSEA 121500Z 18010KT 10SM SCT025 BKN036 OVC110 08/06 A2995 RMK AO2 RAE1455 P0000 T00830061=
202411121453 METAR KSEA 121453Z 19010KT 10SM -RA BKN021 BKN035 OVC043 08/07 A2995 RMK AO2 SLP151 P0001 60001 T00830067 51022=
202411121435 SPECI KSEA 121435Z 20013KT 10SM -RA BKN021 BKN027 OVC041 08/06 A2995 RMK AO2 P0000 T00830061=
202411121353 METAR KSEA 121353Z 19012G20KT 10SM -RA SCT013 BKN047 BKN100 08/07 A2994 RMK AO2 RAB33 SLP145 P0000 T00830067=
202411121345 SPECI KSEA 121345Z 19014G20KT 10SM -RA SCT015 BKN044 BKN065 08/07 A2993 RMK AO2 RAB33 P0000 T00830067=
202411121253 METAR KSEA 121253Z 18015G23KT 10SM BKN024 OVC090 08/06 A2991 RMK AO2 SLP137 T00830061=
202411121153 METAR KSEA 121153Z 18014G25KT 10SM BKN017 OVC022 09/06 A2989 RMK AO2 SLP128 60002 70042 T00890061 10089 20083 51023=
202411121053 METAR KSEA 121053Z 17014G21KT 10SM BKN016 OVC023 09/07 A2987 RMK AO2 SLP122 T00890067=
202411120953 METAR KSEA 120953Z 19014KT 10SM BKN016 OVC022 09/07 A2985 RMK AO2 RAE39 SLP114 P0000 T00890067=
202411120853 METAR KSEA 120853Z 19013KT 10SM -RA BKN015 OVC029 08/07 A2982 RMK AO2 PK WND 18026/0821 RAB07 SLP105 P0001 60002 T00830067 51012=
202411120835 SPECI KSEA 120835Z 19013G25KT 10SM -RA SCT015 BKN020 OVC040 08/07 A2982 RMK AO2 PK WND 18026/0821 RAB07 P0001 T00830067=
202411120753 METAR KSEA 120753Z 18013G20KT 10SM FEW025 OVC033 08/06 A2981 RMK AO2 RAB18E33 SLP101 P0000 T00830061 401110083=
202411120653 METAR KSEA 120653Z 18014G20KT 10SM FEW025 OVC033 08/06 A2980 RMK AO2 PK WND 18026/0607 RAE23 SLP098 P0001 T00830061=
202411120553 METAR KSEA 120553Z 18014G23KT 8SM -RA BKN030 BKN037 OVC045 08/06 A2979 RMK AO2 RAE14B49 SLP093 P0000 60015 T00830061 10094 20083 51010=
202411120516 SPECI KSEA 120516Z 19010KT 10SM FEW021 BKN038 OVC046 08/06 A2978 RMK AO2 RAE14 P0000 T00830061=
202411120453 METAR KSEA 120453Z 22009KT 10SM -RA SCT017 BKN028 OVC038 08/07 A2978 RMK AO2 RAB0356 SLP093 P0009 T00830067=
202411120439 SPECI KSEA 120439Z 19011KT 5SM -RA BR FEW015 BKN029 OVC038 08/07 A2978 RMK AO2 RAB0356 P0007 T00830067=
202411120353 METAR KSEA 120353Z 21008KT 10SM FEW020 OVC030 08/06 A2978 RMK AO2 RAE21 SLP091 P0002 T00830061=
202411120253 METAR KSEA 120253Z 18011KT 10SM -RA BKN029 BKN037 OVC047 09/07 A2975 RMK AO2 RAE05B29 SLP083 P0000 60004 T00890067 53009=
202411120241 SPECI KSEA 120241Z 17007KT 10SM BKN028 OVC037 09/07 A2975 RMK AO2 RAE05B29E40 P0000 T00940072=
202411120213 SPECI KSEA 120213Z 17010KT 10SM SCT021 BKN036 OVC043 09/07 A2975 RMK AO2 RAE05 P0000 T00890072=
202411120153 METAR KSEA 120153Z 18008KT 10SM -RA SCT021 BKN027 OVC036 09/07 A2975 RMK AO2 RAB0058 SLP080 P0004 T00890072=
202411120122 SPECI KSEA 120122Z 18009KT 8SM -RA BKN023 OVC031 09/07 A2974 RMK AO2 RAB0058 P0002 T00890072=
202411120053 METAR KSEA 120053Z 15008KT 10SM SCT031 OVC048 09/07 A2973 RMK AO2 SLP075 T00940072=
202411112353 METAR KSEA 112353Z 18010KT 10SM FEW020 SCT032 BKN120 BKN250 09/07 A2973 RMK AO2 SLP074 60006 T00940067 10111 20083 53007=
202411112253 METAR KSEA 112253Z 18010G17KT 10SM FEW020 BKN040 BKN250 09/08 A2971 RMK AO2 RAE48 SLP069 P0001 T00940078=
202411112215 SPECI KSEA 112215Z 19013G20KT 10SM -RA SCT017 BKN036 OVC046 09/08 A2972 RMK AO2 P0001 T00940078=
202411112158 SPECI KSEA 112158Z 20009KT 9SM -RA SCT017 BKN025 OVC032 09/07 A2972 RMK AO2 P0000 T00890072=
202411112153 METAR KSEA 112153Z 21010KT 9SM -RA SCT015 BKN034 OVC055 09/08 A2972 RMK AO2 SLP071 P0003 T00890078=
202411112053 METAR KSEA 112053Z 21012G19KT 6SM -RA BR SCT020 OVC033 08/07 A2971 RMK AO2 SLP067 P0002 60002 T00830072 51017=
202411111953 METAR KSEA 111953Z 21013G20KT 10SM -RA FEW020 BKN036 BKN045 09/07 A2971 RMK AO2 RAB48 SLP066 P0000 T00890067=
202411111853 METAR KSEA 111853Z 20015G22KT 10SM FEW020 BKN065 BKN080 OVC130 10/07 A2967 RMK AO2 SLP055 T01000072=
202411111753 METAR KSEA 111753Z 19014G20KT 10SM SCT015 SCT025 BKN037 BKN130 11/08 A2966 RMK AO2 SLP050 60019 T01060078 10111 20100 51043=
202411111705 SPECI KSEA 111705Z 19010KT 10SM SCT015 SCT029 10/08 A2964 RMK AO2 T01000083=
202411111653 METAR KSEA 111653Z 19010KT 10SM BKN015 BKN021 BKN050 10/08 A2964 RMK AO2 SLP043 T01000083=
202411111627 SPECI KSEA 111627Z 18013KT 10SM BKN020 BKN120 10/08 A2962 RMK AO2 T01000083=
202411111553 METAR KSEA 111553Z 21011G25KT 10SM SCT013 BKN048 OVC060 10/08 A2959 RMK AO2 PK WND 22027/1516 RAB07E50 SLP027 P0006 T01000083=
202411111453 METAR KSEA 111453Z 19008KT 7SM FEW005 BKN029 OVC039 11/09 A2953 RMK AO2 RAE52 SLP006 P0004 60013 T01060094 53004=
202411111407 SPECI KSEA 111407Z 17009KT 7SM -RA FEW005 BKN029 OVC037 11/09 A2952 RMK AO2 P0000 T01060094=
202411111353 METAR KSEA 111353Z 16009KT 6SM -RA BR FEW005 BKN032 OVC043 11/09 A2951 RMK AO2 SLP999 P0003 T01060094=
202411111346 SPECI KSEA 111346Z 16006KT 6SM -RA BR FEW005 BKN034 OVC043 11/10 A2951 RMK AO2 P0002 T01060100=
202411111253 METAR KSEA 111253Z 12011KT 7SM -RA FEW010 SCT036 OVC050 11/10 A2950 RMK AO2 SLP995 P0006 T01110100=
202411111153 METAR KSEA 111153Z 18006KT 6SM -RA BR FEW045 BKN055 OVC065 11/10 A2952 RMK AO2 SLP001 P0010 60055 70065 T01110100 10111 20100 56011=
202411111053 METAR KSEA 111053Z 15006KT 6SM -RA BR BKN036 BKN045 OVC060 11/09 A2952 RMK AO2 SLP001 P0010 T01060094=
202411110953 METAR KSEA 110953Z 12008KT 6SM RA BR BKN040 BKN060 OVC070 11/09 A2953 RMK AO2 SLP005 P0008 T01060089=
202411110853 METAR KSEA 110853Z 13006KT 4SM RA BR SCT033 OVC041 10/08 A2955 RMK AO2 SLP013 P0005 60027 T01000083 56029=
202411110753 METAR KSEA 110753Z 12012KT 6SM -RA BR BKN042 OVC050 10/08 A2958 RMK AO2 SLP022 P0011 T01000083 401280089=
202411110653 METAR KSEA 110653Z 11009KT 6SM -RA BR FEW045 BKN060 OVC075 10/08 A2961 RMK AO2 SLP032 P0011 T01000083=
202411110553 METAR KSEA 110553Z 13011KT 6SM -RA BR FEW048 BKN060 OVC075 10/08 A2964 RMK AO2 SLP044 P0008 60010 T01000078 10128 20100 56033=
202411110453 METAR KSEA 110453Z 11012G22KT 8SM -RA SCT050 OVC070 11/07 A2966 RMK AO2 RAB11 SLP050 P0001 T01060072=
202411110353 METAR KSEA 110353Z 12011KT 10SM SCT045 OVC065 12/06 A2969 RMK AO2 RAE53 SLP062 P0001 T01170061=
202411110253 METAR KSEA 110253Z 11008KT 10SM -RA SCT045 OVC065 12/06 A2974 RMK AO2 RAB29 SLP076 P0000 60000 T01170061 58030=
202411110153 METAR KSEA 110153Z 13008KT 10SM OVC050 12/07 A2978 RMK AO2 SLP091 T01170067=
202411110053 METAR KSEA 110053Z 17003KT 10SM BKN050 OVC060 12/07 A2980 RMK AO2 SLP098 T01220072=
202411102353 METAR KSEA 102353Z 00000KT 10SM SCT050 BKN065 11/09 A2983 RMK AO2 SLP107 T01110089 10122 20106 56021=
202411102253 METAR KSEA 102253Z 27003KT 10SM BKN055 OVC065 11/09 A2985 RMK AO2 SLP115 T01110089=
202411102153 METAR KSEA 102153Z 20003KT 10SM FEW040 BKN055 BKN070 12/09 A2986 RMK AO2 SLP119 T01220094=
202411102053 METAR KSEA 102053Z 19003KT 10SM FEW030 BKN070 BKN110 11/09 A2989 RMK AO2 SLP128 T01110094 58018=
202411101953 METAR KSEA 101953Z 25007KT 10SM FEW030 BKN070 OVC110 12/09 A2992 RMK AO2 SLP140 T01170094=
202411101853 METAR KSEA 101853Z 00000KT 10SM FEW015 SCT050 BKN070 11/09 A2993 RMK AO2 SLP142 T01060094=
202411101753 METAR KSEA 101753Z 17003KT 10SM FEW015 SCT055 OVC070 11/09 A2994 RMK AO2 SLP147 T01060094 10111 20089 58007=
202411101653 METAR KSEA 101653Z 00000KT 10SM FEW020 BKN055 OVC070 10/09 A2996 RMK AO2 SLP154 T01000089=
202411101553 METAR KSEA 101553Z 31003KT 10SM BKN050 BKN080 09/08 A2996 RMK AO2 SLP153 T00940083=
202411101453 METAR KSEA 101453Z 00000KT 10SM SCT045 OVC075 09/08 A2996 RMK AO2 SLP153 T00940083 58006=
202411101353 METAR KSEA 101353Z 00000KT 10SM OVC045 09/08 A2998 RMK AO2 SLP159 T00940078=
202411101253 METAR KSEA 101253Z 17004KT 10SM OVC037 09/08 A2998 RMK AO2 SLP159 T00940083=
202411101153 METAR KSEA 101153Z 13003KT 10SM OVC032 09/08 A2998 RMK AO2 SLP159 60001 70006 T00940083 10094 20089 56008=
202411101140 SPECI KSEA 101140Z 12004KT 10SM SCT025 OVC032 09/08 A2998 RMK AO2 T00940083=
202411101105 SPECI KSEA 101105Z 15003KT 10SM OVC016 09/08 A2999 RMK AO2 T00940083=
202411101053 METAR KSEA 101053Z 15003KT 10SM OVC014 09/08 A2999 RMK AO2 SLP162 T00940083=
202411100953 METAR KSEA 100953Z 17003KT 7SM OVC014 09/09 A2999 RMK AO2 SLP163 T00940089=
202411100920 SPECI KSEA 100920Z 16004KT 8SM FEW008 OVC014 09/09 A3000 RMK AO2 T00940089=
202411100903 SPECI KSEA 100903Z 19005KT 9SM SCT009 OVC016 09/09 A3000 RMK AO2 T00940089=
202411100853 METAR KSEA 100853Z 18007KT 5SM BR FEW005 BKN009 OVC016 09/09 A3000 RMK AO2 SLP167 60001 T00940089 58001=
202411100851 SPECI KSEA 100851Z 18007KT 4SM BR BKN007 OVC016 09/09 A3000 RMK AO2=
202411100839 SPECI KSEA 100839Z 16008KT 3SM BR SCT005 BKN011 OVC016 09/09 A3000 RMK AO2 T00940089=
202411100753 METAR KSEA 100753Z 17003KT 1SM R16L/4000VP6000FT BR OVC006 09/09 A3001 RMK AO2 SFC VIS 3 RAB08E28 SLP171 P0001 T00940089 401170083=
202411100741 SPECI KSEA 100741Z 00000KT 1SM R16L/3000V4000FT BR BKN006 OVC012 09/09 A3001 RMK AO2 SFC VIS 3 RAB08E28 P0001 T00940089=
202411100653 METAR KSEA 100653Z 00000KT 1SM R16L/P6000FT BR BKN002 OVC015 09/09 A3001 RMK AO2 SFC VIS 2 SLP169 T00890089=
202411100617 SPECI KSEA 100617Z 00000KT 1SM R16L/P6000FT BR BKN002 OVC015 09/09 A3000 RMK AO2 SFC VIS 2 T00890089=
202411100610 SPECI KSEA 100610Z 00000KT 1SM R16L/P6000FT BR OVC001 09/09 A3000 RMK AO2 SFC VIS 2 T00890089=
202411100553 METAR KSEA 100553Z 00000KT 3SM BR SCT007 OVC015 09/09 A3000 RMK AO2 SLP166 60003 T00940089 10100 20094 53007=
202411100515 SPECI KSEA 100515Z 18006KT 5SM BR FEW007 OVC015 09/08 A2999 RMK AO2 T00940083=
202411100453 METAR KSEA 100453Z 16006KT 7SM SCT010 OVC015 09/09 A2999 RMK AO2 SLP163 T00940089=
202411100353 METAR KSEA 100353Z 00000KT 10SM SCT017 OVC023 09/09 A2999 RMK AO2 RAE0258 SLP162 P0000 T00940089=
202411100253 METAR KSEA 100253Z 18005KT 7SM -RA FEW017 OVC024 09/08 A2998 RMK AO2 RAB25 SLP159 P0003 60003 T00940083 53004=
202411100153 METAR KSEA 100153Z 00000KT 10SM SCT012 OVC021 10/08 A2997 RMK AO2 SLP157 T01000083=
202411100053 METAR KSEA 100053Z 22004KT 9SM BKN024 OVC031 10/08 A2997 RMK AO2 RAB16E28 SLP155 P0000 T01000083=
202411092353 METAR KSEA 092353Z 15006KT 7SM BKN023 OVC028 10/09 A2997 RMK AO2 RAE27 SLP155 P0001 60002 T01000089 10117 20094 53005=
202411092345 SPECI KSEA 092345Z 15006KT 8SM BR BKN023 OVC028 09/09 A2997 RMK AO2 RAE27 P0001 T00940089=
202411092253 METAR KSEA 092253Z 21004KT 3SM -RA BR SCT028 BKN037 OVC046 10/08 A2996 RMK AO2 RAB2157 SLP153 P0001 T01000083=
202411092153 METAR KSEA 092153Z 00000KT 10SM SCT028 OVC033 11/07 A2995 RMK AO2 SLP151 T01060072=
202411092053 METAR KSEA 092053Z 18005KT 10SM OVC047 11/07 A2995 RMK AO2 SLP150 60000 T01060067 58006=
202411091953 METAR KSEA 091953Z 16006KT 10SM BKN045 OVC090 11/07 A2996 RMK AO2 RAE21 SLP154 P0000 T01060072=
202411091853 METAR KSEA 091853Z 13006KT 8SM -RA BKN070 OVC085 10/07 A2997 RMK AO2 SLP156 P0000 T01000072=
202411091753 METAR KSEA 091753Z 16005KT 10SM -RA OVC065 11/07 A2997 RMK AO2 RAB50 SLP155 P0000 60000 T01110067 10111 20083 51009=
202411091653 METAR KSEA 091653Z 20005KT 10SM OVC080 10/06 A2997 RMK AO2 SLP154 T01000061=
202411091553 METAR KSEA 091553Z 27004KT 10SM BKN085 OVC110 09/07 A2996 RMK AO2 SLP152 T00890067=
202411091453 METAR KSEA 091453Z 00000KT 10SM BKN090 OVC110 08/06 A2994 RMK AO2 SLP147 T00830056 56008=
202411091353 METAR KSEA 091353Z 00000KT 10SM SCT095 OVC110 09/05 A2995 RMK AO2 SLP148 T00940050=
202411091253 METAR KSEA 091253Z 17003KT 10SM FEW080 BKN095 OVC120 09/05 A2995 RMK AO2 SLP150 T00940050=
202411091153 METAR KSEA 091153Z 00000KT 10SM SCT070 BKN095 OVC120 10/04 A2997 RMK AO2 SLP154 T01000044 10117 20094 58009=
202411091053 METAR KSEA 091053Z 16004KT 10SM FEW070 BKN090 OVC120 10/05 A2998 RMK AO2 SLP159 T01000050=
202411090953 METAR KSEA 090953Z 15005KT 10SM BKN080 BKN095 OVC120 10/06 A2999 RMK AO2 SLP161 T01000056=
202411090853 METAR KSEA 090853Z 17004KT 10SM BKN080 OVC170 10/05 A3000 RMK AO2 SLP164 T01000050 56006=
202411090753 METAR KSEA 090753Z 17005KT 10SM BKN085 OVC180 11/05 A3000 RMK AO2 SLP164 T01060050 401610072=
202411090653 METAR KSEA 090653Z 16007KT 10SM FEW090 SCT110 BKN190 11/06 A3001 RMK AO2 SLP167 T01110056=
202411090553 METAR KSEA 090553Z 19006KT 10SM BKN120 OVC200 12/06 A3002 RMK AO2 SLP170 T01170061 10139 20106 53000=
202411090453 METAR KSEA 090453Z 18006KT 10SM SCT110 BKN200 12/06 A3001 RMK AO2 SLP169 T01170061=
202411090353 METAR KSEA 090353Z 19006KT 10SM BKN200 12/05 A3001 RMK AO2 SLP171 T01220050=
202411090253 METAR KSEA 090253Z 18004KT 10SM BKN220 13/05 A3001 RMK AO2 SLP171 T01280050 56002=
202411090153 METAR KSEA 090153Z 21003KT 10SM FEW140 OVC230 13/04 A3002 RMK AO2 SLP171 T01330044=
202411090053 METAR KSEA 090053Z 18004KT 10SM SCT180 BKN250 13/05 A3001 RMK AO2 SLP169 T01280050=
202411082353 METAR KSEA 082353Z 16007KT 10SM FEW160 BKN250 14/05 A3002 RMK AO2 SLP172 T01390050 10161 20106 56017=
202411082253 METAR KSEA 082253Z 24008KT 10SM FEW160 BKN240 16/06 A3004 RMK AO2 SLP178 T01560061=
202411082153 METAR KSEA 082153Z 19005KT 10SM FEW160 BKN230 15/07 A3005 RMK AO2 SLP181 T01500067=
202411082053 METAR KSEA 082053Z 22007KT 10SM FEW090 SCT150 BKN230 16/06 A3007 RMK AO2 SLP189 T01560061 58023=
202411081953 METAR KSEA 081953Z 19008KT 10SM FEW090 SCT150 BKN230 14/05 A3010 RMK AO2 SLP201 T01440050=
202411081853 METAR KSEA 081853Z 19007KT 10SM BKN150 BKN230 12/06 A3013 RMK AO2 SLP209 T01220061=
202411081753 METAR KSEA 081753Z 15007KT 10SM BKN150 BKN200 11/06 A3014 RMK AO2 SLP213 T01110061 10111 20072 50004=
202411081653 METAR KSEA 081653Z 17005KT 10SM SCT150 BKN220 10/06 A3015 RMK AO2 SLP216 T01000061=
202411081553 METAR KSEA 081553Z 16006KT 10SM FEW150 BKN200 09/07 A3014 RMK AO2 SLP213 T00890067=
202411081453 METAR KSEA 081453Z 15005KT 10SM FEW150 BKN210 08/05 A3013 RMK AO2 SLP210 ACSL DSNT SE T00830050 56008=
202411081353 METAR KSEA 081353Z 14005KT 10SM SCT180 09/05 A3013 RMK AO2 SLP211 T00890050=
202411081253 METAR KSEA 081253Z 14006KT 10SM SCT200 09/04 A3014 RMK AO2 SLP213 T00890044=
202411081153 METAR KSEA 081153Z 16007KT 10SM BKN210 09/03 A3015 RMK AO2 SLP217 T00890033 10122 20083 58009=
202411081053 METAR KSEA 081053Z 14006KT 10SM SCT220 09/03 A3016 RMK AO2 SLP220 T00940028=
202411080953 METAR KSEA 080953Z 16005KT 10SM SCT230 11/03 A3018 RMK AO2 SLP225 T01060028=
202411080853 METAR KSEA 080853Z 14010KT 10SM BKN240 11/06 A3018 RMK AO2 SLP227 T01110061 58002=
202411080753 METAR KSEA 080753Z 15007KT 10SM BKN220 11/06 A3019 RMK AO2 SLP230 T01110056 401500033=
202411080653 METAR KSEA 080653Z 14007KT 10SM BKN220 10/06 A3019 RMK AO2 SLP231 T01000056=
202411080553 METAR KSEA 080553Z 00000KT 10SM BKN180 11/05 A3019 RMK AO2 SLP229 T01110050 10133 20106 53001=
202411080453 METAR KSEA 080453Z 13005KT 10SM BKN200 11/05 A3017 RMK AO2 SLP225 T01110050=
202411080353 METAR KSEA 080353Z 13003KT 10SM OVC200 12/05 A3018 RMK AO2 SLP227 T01170050=
202411080253 METAR KSEA 080253Z 00000KT 10SM BKN180 12/05 A3018 RMK AO2 SLP228 T01170050 56006=
202411080153 METAR KSEA 080153Z 17004KT 10SM BKN200 11/05 A3018 RMK AO2 SLP228 T01060050=
202411080053 METAR KSEA 080053Z 00000KT 10SM SCT150 BKN220 12/05 A3019 RMK AO2 SLP231 T01220050=
202411072353 METAR KSEA 072353Z 27003KT 10SM FEW150 BKN210 13/05 A3020 RMK AO2 SLP234 T01330050 10150 20089 56011=
202411072253 METAR KSEA 072253Z 24003KT 10SM FEW150 SCT250 14/05 A3021 RMK AO2 SLP239 T01440050=
202411072153 METAR KSEA 072153Z 17003KT 10SM FEW150 SCT220 14/05 A3021 RMK AO2 SLP239 T01390050=
202411072053 METAR KSEA 072053Z 27005KT 10SM FEW150 SCT220 12/06 A3023 RMK AO2 SLP245 T01220056 56004=
202411071953 METAR KSEA 071953Z 30003KT 10SM FEW150 FEW220 12/07 A3024 RMK AO2 SLP246 T01170067=
202411071853 METAR KSEA 071853Z 27006KT 10SM FEW005 FEW220 09/07 A3024 RMK AO2 SLP248 T00940067 $=
202411071753 METAR KSEA 071753Z VRB04KT 10SM FEW005 SCT220 09/05 A3025 RMK AO2 SLP251 T00890050 10089 20033 50009 $=
202411071653 METAR KSEA 071653Z 00000KT 10SM FEW005 FEW220 07/04 A3025 RMK AO2 SLP251 T00720044=
202411071553 METAR KSEA 071553Z 00000KT 10SM FEW002 FEW220 05/04 A3023 RMK AO2 SLP246 T00500039=
202411071453 METAR KSEA 071453Z 05004KT 10SM FEW002 FEW220 04/04 A3022 RMK AO2 SLP241 T00440039 55008=
202411071353 METAR KSEA 071353Z 00000KT 10SM SCT220 06/04 A3021 RMK AO2 SLP240 T00560044=
202411071253 METAR KSEA 071253Z 06003KT 10SM FEW250 05/04 A3024 RMK AO2 SLP248 T00500044=
202411071153 METAR KSEA 071153Z 33003KT 10SM FEW250 04/04 A3024 RMK AO2 SLP249 T00440039 10078 20044 58008=
202411071053 METAR KSEA 071053Z 03004KT 10SM CLR 05/04 A3025 RMK AO2 SLP251 T00500039=
202411070953 METAR KSEA 070953Z 01006KT 10SM CLR 04/04 A3027 RMK AO2 SLP257 T00440039=
202411070853 METAR KSEA 070853Z 36003KT 10SM CLR 06/02 A3027 RMK AO2 SLP257 T00560022 56007=
202411070753 METAR KSEA 070753Z 00000KT 10SM CLR 07/03 A3027 RMK AO2 SLP258 T00670028 401280050=
202411070653 METAR KSEA 070653Z VRB03KT 10SM CLR 07/03 A3028 RMK AO2 SLP261 T00720033=
202411070553 METAR KSEA 070553Z 00000KT 10SM CLR 07/04 A3029 RMK AO2 SLP265 T00670039 10122 20061 56008=
202411070453 METAR KSEA 070453Z 03003KT 10SM CLR 08/04 A3029 RMK AO2 SLP265 T00830039=
202411070353 METAR KSEA 070353Z 36006KT 10SM CLR 07/04 A3030 RMK AO2 SLP270 T00720044=
202411070253 METAR KSEA 070253Z 35004KT 10SM CLR 08/03 A3031 RMK AO2 SLP273 T00830033 56004=
202411070153 METAR KSEA 070153Z 01004KT 10SM CLR 09/03 A3031 RMK AO2 SLP273 T00940028=
202411070053 METAR KSEA 070053Z 02006KT 10SM FEW065 11/02 A3031 RMK AO2 SLP272 T01060022=
202411062353 METAR KSEA 062353Z 36004KT 10SM SCT065 SCT120 12/01 A3032 RMK AO2 SLP276 T01220011 10128 20089 56016=
202411062253 METAR KSEA 062253Z 36006KT 10SM BKN065 12/01 A3034 RMK AO2 SLP281 T01220011=
202411062153 METAR KSEA 062153Z 35006KT 10SM FEW060 SCT120 SCT250 13/02 A3035 RMK AO2 SLP286 T01280017=
202411062053 METAR KSEA 062053Z 00000KT 10SM FEW070 SCT120 SCT250 12/03 A3037 RMK AO2 SLP292 T01170028 58012=
202411061953 METAR KSEA 061953Z VRB03KT 10SM FEW030 FEW070 SCT120 SCT250 12/01 A3038 RMK AO2 SLP296 T01170011=
202411061853 METAR KSEA 061853Z 00000KT 10SM FEW030 FEW070 SCT120 10/02 A3040 RMK AO2 SLP301 T01000017=
202411061753 METAR KSEA 061753Z 00000KT 10SM FEW070 SCT120 SCT250 08/02 A3041 RMK AO2 SLP305 T00830017 10083 20050 50001=
202411061653 METAR KSEA 061653Z 13003KT 10SM SCT070 SCT120 BKN220 07/02 A3041 RMK AO2 SLP308 T00720022=
202411061553 METAR KSEA 061553Z 00000KT 10SM FEW060 SCT120 BKN220 07/03 A3041 RMK AO2 SLP308 T00670028=
202411061453 METAR KSEA 061453Z 00000KT 10SM SCT065 BKN120 BKN200 06/02 A3040 RMK AO2 SLP304 T00560022 53004=
202411061353 METAR KSEA 061353Z 14003KT 10SM BKN070 05/02 A3040 RMK AO2 SLP302 T00500022=
202411061253 METAR KSEA 061253Z 11004KT 10SM OVC075 06/02 A3039 RMK AO2 SLP301 T00610022=
202411061153 METAR KSEA 061153Z 11003KT 10SM BKN080 OVC110 06/02 A3039 RMK AO2 SLP299 T00610022 10072 20061 55004=
202411061053 METAR KSEA 061053Z 12006KT 10SM OVC100 06/02 A3038 RMK AO2 SLP297 T00610022=
202411060953 METAR KSEA 060953Z 12005KT 10SM OVC090 06/03 A3039 RMK AO2 SLP300 T00610028=
202411060853 METAR KSEA 060853Z 13005KT 10SM OVC095 07/02 A3040 RMK AO2 SLP303 T00670022 53003=
202411060753 METAR KSEA 060753Z 12005KT 10SM OVC095 07/03 A3040 RMK AO2 SLP301 T00670028 401170056=
202411060653 METAR KSEA 060653Z 12008KT 10SM OVC100 07/02 A3040 RMK AO2 SLP301 T00670022=
202411060553 METAR KSEA 060553Z 13003KT 10SM BKN120 07/03 A3039 RMK AO2 SLP301 T00670033 10100 20061 50005=
202411060453 METAR KSEA 060453Z 12007KT 10SM FEW050 07/05 A3039 RMK AO2 SLP301 T00670050=
202411060353 METAR KSEA 060353Z 05005KT 10SM BKN050 08/05 A3039 RMK AO2 SLP299 T00830050=
202411060253 METAR KSEA 060253Z 10005KT 10SM BKN050 09/05 A3038 RMK AO2 SLP295 T00890050 53009=
202411060153 METAR KSEA 060153Z 02005KT 10SM BKN050 09/03 A3036 RMK AO2 SLP290 T00890033=
202411060053 METAR KSEA 060053Z 36005KT 10SM FEW035 BKN060 BKN200 09/05 A3035 RMK AO2 SLP286 T00890050=
202411052353 METAR KSEA 052353Z 02008KT 10SM FEW034 BKN060 BKN200 10/05 A3035 RMK AO2 SLP285 T01000050 10117 20089 53009=
202411052253 METAR KSEA 052253Z 08007KT 10SM FEW035 SCT060 SCT200 10/04 A3034 RMK AO2 SLP282 T01000044=
202411052153 METAR KSEA 052153Z 02009KT 10SM FEW034 SCT065 BKN200 10/04 A3033 RMK AO2 SLP279 T01000044=
202411052053 METAR KSEA 052053Z 09003KT 10SM SCT030 BKN037 BKN050 BKN200 11/04 A3033 RMK AO2 SLP277 T01110044 51008=
202411051953 METAR KSEA 051953Z 09004KT 10SM SCT027 BKN034 BKN200 10/04 A3032 RMK AO2 SLP275 T01000039=
202411051853 METAR KSEA 051853Z 15003KT 10SM SCT025 BKN034 BKN180 10/04 A3031 RMK AO2 SLP273 T01000039=
202411051846 SPECI KSEA 051846Z 10005KT 10SM SCT025 BKN034 BKN180 10/04 A3032 RMK AO2 T01000044=
202411051821 SPECI KSEA 051821Z 14003KT 10SM BKN027 09/04 A3031 RMK AO2 T00890044=
202411051753 METAR KSEA 051753Z 19004KT 10SM FEW030 SCT150 BKN220 09/04 A3030 RMK AO2 SLP268 T00890044 10094 20061 51012=
202411051653 METAR KSEA 051653Z 10SM FEW050 SCT150 BKN200 09/04 A3030 RMK AO2 SLP266 ACSL DSNT SE T00890044=
202411051553 METAR KSEA 051553Z 11006KT 10SM FEW030 BKN150 OVC200 07/04 A3028 RMK AO2 SLP261 T00720039=
202411051453 METAR KSEA 051453Z 13005KT 10SM FEW080 BKN150 BKN200 07/04 A3027 RMK AO2 SLP258 T00670039 51010=
202411051353 METAR KSEA 051353Z 14006KT 10SM SCT090 BKN140 07/04 A3026 RMK AO2 SLP254 T00670039=
202411051253 METAR KSEA 051253Z 16005KT 10SM BKN220 07/04 A3025 RMK AO2 SLP249 T00670039=
202411051153 METAR KSEA 051153Z 14007KT 10SM FEW050 BKN180 06/04 A3023 RMK AO2 SLP246 70029 T00610039 10083 20056 51011=
202411051053 METAR KSEA 051053Z 15005KT 10SM FEW040 SCT250 06/03 A3023 RMK AO2 SLP244 T00610033=
202411050953 METAR KSEA 050953Z 11003KT 10SM FEW040 SCT250 06/03 A3022 RMK AO2 SLP239 T00560033=
202411050853 METAR KSEA 050853Z 14006KT 10SM FEW040 SCT250 07/03 A3020 RMK AO2 SLP234 T00670033 51022=
202411050753 METAR KSEA 050753Z 10006KT 10SM SCT090 07/03 A3018 RMK AO2 SLP228 T00720033 401280072=
202411050653 METAR KSEA 050653Z 22009KT 10SM FEW090 08/03 A3017 RMK AO2 SLP223 T00830033=
202411050553 METAR KSEA 050553Z 23010KT 10SM CLR 08/03 A3013 RMK AO2 SLP212 T00830033 10117 20078 51019=
202411050453 METAR KSEA 050453Z 22012KT 10SM FEW090 08/03 A3011 RMK AO2 SLP204 T00830028=
202411050353 METAR KSEA 050353Z 20010KT 10SM SCT090 08/03 A3010 RMK AO2 SLP202 T00830033=
202411050253 METAR KSEA 050253Z 21008KT 10SM FEW025 FEW095 08/03 A3008 RMK AO2 SLP192 T00830028 53031=
202411050153 METAR KSEA 050153Z 23008G17KT 10SM FEW025 09/04 A3005 RMK AO2 SLP182 T00940039=
202411050053 METAR KSEA 050053Z 25011G24KT 10SM FEW025 FEW250 11/04 A3001 RMK AO2 SLP169 T01060044=
202411042353 METAR KSEA 042353Z 25012G23KT 10SM FEW025 SCT250 12/06 A2998 RMK AO2 PK WND 24026/2254 SLP160 60000 T01170056 10128 20083 53026=
202411042253 METAR KSEA 042253Z 23011G24KT 10SM FEW020 SCT250 13/06 A2995 RMK AO2 PK WND 23027/2155 SLP149 T01280056=
202411042153 METAR KSEA 042153Z 23014G29KT 10SM FEW020 13/06 A2992 RMK AO2 PK WND 23032/2117 SLP139 T01280061=
202411042053 METAR KSEA 042053Z 23021G31KT 10SM FEW020 13/07 A2990 RMK AO2 PK WND 24036/2013 SLP132 60000 T01280067 53002=
202411041953 METAR KSEA 041953Z 22017G32KT 10SM SCT014 12/09 A2988 RMK AO2 PK WND 20035/1909 SLP125 T01220089=
202411041942 SPECI KSEA 041942Z 21020G34KT 10SM SCT014 12/09 A2988 RMK AO2 PK WND 20035/1909 T01170089=
202411041853 METAR KSEA 041853Z 20021G33KT 10SM SCT009 BKN014 11/08 A2987 RMK AO2 PK WND 19035/1832 RAE05 SLP123 P0000 T01060083=
202411041832 SPECI KSEA 041832Z 20020G35KT 10SM SCT009 OVC014 09/08 A2988 RMK AO2 PK WND 19035/1832 RAE05 P0000 T00940083=
202411041753 METAR KSEA 041753Z 18006KT 3SM -RA BR BKN016 OVC024 08/07 A2990 RMK AO2 SLP131 P0004 60029 T00830072 10100 20078 55019=
202411041721 SPECI KSEA 041721Z 19005KT 3SM -RA BR SCT016 BKN025 OVC030 08/07 A2990 RMK AO2 P0001 T00830067=
202411041653 METAR KSEA 041653Z 16010KT 6SM -RA BR OVC034 08/07 A2988 RMK AO2 SLP126 P0011 T00830067=
202411041553 METAR KSEA 041553Z 18011KT 3SM RA BR BKN033 OVC041 08/06 A2993 RMK AO2 SLP141 P0010 T00780061=
202411041453 METAR KSEA 041453Z 16013KT 5SM -RA BR BKN033 OVC041 08/06 A2995 RMK AO2 PK WND 18027/1403 RAB00 SLP151 P0004 60004 T00830056 58053=
202411041353 METAR KSEA 041353Z 19018G27KT 10SM SCT035 OVC041 10/05 A3002 RMK AO2 PK WND 17027/1351 SLP174 T01000050=
202411041253 METAR KSEA 041253Z 19012KT 10SM SCT035 BKN065 OVC120 10/05 A3005 RMK AO2 PRESFR SLP182 T01000050=
202411041153 METAR KSEA 041153Z 18012KT 10SM SCT034 SCT049 OVC070 09/06 A3011 RMK AO2 SLP204 60001 70001 T00940056 10100 20089 58032=
202411041053 METAR KSEA 041053Z 18013KT 10SM BKN055 OVC065 09/06 A3015 RMK AO2 RAE24 SLP219 P0001 T00940061=
202411040953 METAR KSEA 040953Z 19013KT 7SM -RA FEW035 BKN045 OVC070 09/07 A3019 RMK AO2 RAB46 SLP229 P0000 T00940067=
202411040853 METAR KSEA 040853Z 18010KT 10SM SCT025 SCT035 OVC090 09/06 A3021 RMK AO2 SLP237 T00940061 58006=
202411040753 METAR KSEA 040753Z 19010KT 10SM FEW028 BKN035 OVC085 09/07 A3022 RMK AO2 SLP240 T00940067 401110072=
202411040742 SPECI KSEA 040742Z 19010KT 10SM SCT029 BKN037 OVC090 09/07 A3021 RMK AO2 T00940067=
202411040712 SPECI KSEA 040712Z 20012KT 10SM BKN023 BKN029 OVC085 09/07 A3022 RMK AO2 VCSH T00940067=
202411040653 METAR KSEA 040653Z 19011KT 10SM SCT025 SCT030 OVC080 09/07 A3022 RMK AO2 SLP242 VCSH T00940067=
202411040612 SPECI KSEA 040612Z 17008KT 10SM SCT023 OVC090 09/07 A3023 RMK AO2 T00940067=
202411040553 METAR KSEA 040553Z 18009KT 10SM BKN023 OVC090 09/07 A3023 RMK AO2 SLP243 T00940067 10106 20094 58005=
202411040453 METAR KSEA 040453Z 18008KT 10SM OVC020 10/07 A3023 RMK AO2 SLP246 T01000067=
202411040353 METAR KSEA 040353Z 18006KT 10SM OVC021 10/07 A3024 RMK AO2 SLP247 T01000067=
202411040336 SPECI KSEA 040336Z 19005KT 10SM BKN021 OVC110 10/07 A3024 RMK AO2 T01000067=
202411040253 METAR KSEA 040253Z 17006KT 10SM FEW025 OVC110 10/07 A3024 RMK AO2 SLP248 T01000072 56001=
202411040153 METAR KSEA 040153Z 12007KT 10SM BKN026 BKN120 10/07 A3024 RMK AO2 SLP249 T01000072=
202411040053 METAR KSEA 040053Z 13006KT 10SM FEW022 SCT029 BKN120 10/07 A3025 RMK AO2 SLP250 T01000072=
202411032353 METAR KSEA 032353Z 16006KT 10SM FEW023 SCT120 BKN220 10/07 A3024 RMK AO2 SLP248 T01000072 10111 20083 51006=
202411032328 SPECI KSEA 032328Z 18005KT 10SM FEW016 SCT023 BKN220 10/07 A3024 RMK AO2 T01000067=
202411032253 METAR KSEA 032253Z 19005KT 10SM BKN016 OVC023 11/07 A3024 RMK AO2 SLP246 T01060067=
202411032153 METAR KSEA 032153Z 18005KT 10SM FEW013 BKN025 BKN055 OVC170 11/07 A3023 RMK AO2 SLP244 T01060072=
202411032053 METAR KSEA 032053Z 20006KT 10SM FEW013 BKN025 BKN050 10/07 A3022 RMK AO2 SLP242 T01000072 51012=
202411031953 METAR KSEA 031953Z 21004KT 10SM FEW009 BKN022 BKN050 10/07 A3021 RMK AO2 SLP239 T01000072=
202411031853 METAR KSEA 031853Z 19005KT 10SM FEW005 SCT010 BKN015 10/07 A3021 RMK AO2 SLP236 T01000072=
202411031820 SPECI KSEA 031820Z 19005KT 10SM SCT005 SCT010 OVC015 09/08 A3020 RMK AO2 T00890078=
202411031753 METAR KSEA 031753Z 18005KT 8SM BKN004 BKN008 OVC019 09/08 A3019 RMK AO2 SLP230 T00890078 10089 20078 51029=
202411031706 SPECI KSEA 031706Z 19004KT 8SM BKN004 OVC015 08/08 A3017 RMK AO2 T00830078=
202411031653 METAR KSEA 031653Z 00000KT 7SM SCT004 OVC015 08/08 A3016 RMK AO2 SLP221 SCT004 V BKN T00830078=
202411031553 METAR KSEA 031553Z 20003KT 10SM FEW008 BKN021 08/08 A3013 RMK AO2 SLP212 T00780078=
202411031502 SPECI KSEA 031502Z 18004KT 10SM SCT008 BKN024 08/07 A3011 RMK AO2 T00780072=
202411031453 METAR KSEA 031453Z 21005KT 10SM BKN008 OVC026 08/07 A3010 RMK AO2 SLP201 T00780072 51024=
202411031353 METAR KSEA 031353Z 00000KT 10SM BKN007 OVC040 08/07 A3008 RMK AO2 SLP193 T00780072=
202411031335 SPECI KSEA 031335Z 19003KT 8SM BKN008 BKN040 OVC050 08/07 A3007 RMK AO2 T00780072=
202411031325 SPECI KSEA 031325Z 18003KT 8SM SCT008 BKN016 OVC048 08/07 A3007 RMK AO2 T00780072=
202411031253 METAR KSEA 031253Z 19003KT 10SM SCT008 BKN038 OVC065 08/07 A3006 RMK AO2 SLP187 T00780072=
202411031209 SPECI KSEA 031209Z 00000KT 10SM BKN007 OVC025 08/07 A3003 RMK AO2 T00780067=
202411031153 METAR KSEA 031153Z 00000KT 9SM SCT013 OVC025 08/07 A3003 RMK AO2 SLP175 60001 70015 T00780067 10083 20072 51022=
202411031053 METAR KSEA 031053Z 00000KT 10SM FEW009 OVC014 08/07 A3000 RMK AO2 RAE35 SLP167 P0000 T00780067=
202411031041 SPECI KSEA 031041Z 00000KT 10SM SCT008 OVC014 08/07 A3000 RMK AO2 RAE35 P0000 T00780067=
202411031012 SPECI KSEA 031012Z 14003KT 6SM -RA BR BKN009 OVC015 08/07 A2999 RMK AO2 P0000 T00780067=
202411030953 METAR KSEA 030953Z 00000KT 4SM -RA BR BKN010 OVC017 08/06 A2999 RMK AO2 RAB32 SLP161 P0001 T00780061=
202411030918 SPECI KSEA 030918Z 17003KT 10SM BKN012 OVC018 08/06 A2997 RMK AO2 T00830056=
202411030853 METAR KSEA 030853Z 14003KT 10SM OVC016 08/06 A2996 RMK AO2 SLP152 T00830056 52020=
202411030837 SPECI KSEA 030837Z 13005KT 10SM OVC016 08/06 A2995 RMK AO2 T00830056=
202411030822 SPECI KSEA 030822Z 16005KT 10SM OVC014 08/05 A2995 RMK AO2 T00830050=
202411030753 METAR KSEA 030753Z 15005KT 10SM BKN015 OVC021 08/05 A2994 RMK AO2 SLP146 T00830050 401170072=
202411030653 METAR KSEA 030653Z 00000KT 10SM OVC017 08/06 A2992 RMK AO2 SLP139 T00780056=
202411030553 METAR KSEA 030553Z 15004KT 10SM OVC022 08/05 A2990 RMK AO2 SLP132 60014 T00830050 10106 20072 53013=
202411030453 METAR KSEA 030453Z VRB03KT 10SM OVC027 08/05 A2989 RMK AO2 SLP128 T00780050=
202411030441 SPECI KSEA 030441Z 18006KT 10SM BKN025 OVC032 08/05 A2988 RMK AO2 T00780050=
202411030353 METAR KSEA 030353Z 16005KT 10SM BKN048 OVC060 07/06 A2987 RMK AO2 SLP121 T00720056=
202411030253 METAR KSEA 030253Z 17005KT 10SM SCT050 OVC060 08/06 A2986 RMK AO2 SLP121 60014 T00780056 51010=
202411030153 METAR KSEA 030153Z 00000KT 10SM SCT025 OVC060 08/06 A2986 RMK AO2 RAE21 SLP117 P0001 T00780061=
202411030053 METAR KSEA 030053Z 30007KT 3SM -RA BR FEW016 BKN030 OVC065 07/06 A2985 RMK AO2 PK WND 27027/0030 RAB03 SLP116 P0013 T00720061=
202411022353 METAR KSEA 022353Z 21009KT 10SM FEW035 SCT070 OVC095 11/07 A2983 RMK AO2 SLP109 T01060067 10117 20094 51011=
202411022253 METAR KSEA 022253Z 22010KT 10SM FEW028 SCT095 OVC110 11/06 A2983 RMK AO2 SLP107 T01060061=
202411022153 METAR KSEA 022153Z 23014G20KT 10SM SCT016 BKN030 BKN120 11/06 A2981 RMK AO2 SLP102 T01110061=
202411022053 METAR KSEA 022053Z 22009G17KT 10SM FEW015 SCT030 BKN036 11/07 A2980 RMK AO2 SLP098 T01110067 58001=
202411021953 METAR KSEA 021953Z 23007KT 10SM SCT015 BKN036 10/07 A2981 RMK AO2 SLP100 T01000067=
202411021853 METAR KSEA 021853Z 22011KT 10SM BKN015 11/07 A2981 RMK AO2 SLP102 T01060072=
202411021811 SPECI KSEA 021811Z 24007G16KT 10SM SCT009 BKN016 OVC042 09/07 A2981 RMK AO2 T00940067=
202411021801 SPECI KSEA 021801Z 23008G16KT 180V250 10SM BKN011 OVC016 09/07 A2980 RMK AO2 T00940072=
202411021753 METAR KSEA 021753Z 21009G16KT 10SM BKN009 OVC014 09/07 A2981 RMK AO2 SLP100 T00940072 10094 20078 51011=
202411021723 SPECI KSEA 021723Z 20007KT 10SM FEW009 BKN013 OVC027 09/07 A2980 RMK AO2 T00890072=
202411021653 METAR KSEA 021653Z 19006KT 10SM BKN014 BKN019 OVC043 09/07 A2980 RMK AO2 SLP097 T00890072=
202411021553 METAR KSEA 021553Z 23009KT 10SM FEW013 BKN021 BKN045 08/06 A2979 RMK AO2 SLP094 T00830061=
202411021521 SPECI KSEA 021521Z 21006KT 10SM FEW015 BKN021 BKN045 08/06 A2978 RMK AO2 T00830061=
202411021453 METAR KSEA 021453Z 22007KT 10SM FEW025 SCT034 BKN048 08/07 A2977 RMK AO2 SLP089 T00780067 53018=
202411021353 METAR KSEA 021353Z 22007KT 10SM FEW016 OVC029 09/07 A2976 RMK AO2 SLP083 T00890072=
202411021253 METAR KSEA 021253Z 25006KT 10SM OVC016 09/07 A2973 RMK AO2 SLP075 T00890072=
202411021211 SPECI KSEA 021211Z 24006KT 10SM SCT008 BKN015 OVC021 09/08 A2973 RMK AO2 T00890078=
202411021153 METAR KSEA 021153Z 22007KT 10SM BKN008 BKN014 OVC022 09/08 A2972 RMK AO2 SLP071 BKN008 V SCT 60000 70044 T00890078 10100 20083 53009=
202411021116 SPECI KSEA 021116Z 21007KT 10SM BKN008 BKN014 OVC022 09/08 A2971 RMK AO2 T00890078=
202411021053 METAR KSEA 021053Z 20008KT 10SM SCT007 SCT015 BKN035 09/08 A2971 RMK AO2 SLP067 SCT015 V BKN T00890078=
202411020953 METAR KSEA 020953Z 21009KT 10SM FEW009 SCT015 BKN080 09/08 A2970 RMK AO2 SLP064 SCT V BKN T00890078=
202411020853 METAR KSEA 020853Z 19010KT 10SM SCT009 SCT020 BKN065 OVC160 09/08 A2969 RMK AO2 RAE00 SLP062 P0000 60000 T00890078 53007=
202411020816 SPECI KSEA 020816Z 20010KT 10SM FEW009 SCT021 BKN039 OVC170 09/08 A2969 RMK AO2 RAE00 SCT V BKN P0000 T00890078=
202411020753 METAR KSEA 020753Z 20009KT 9SM -RA FEW013 BKN021 OVC029 09/08 A2969 RMK AO2 RAB10E14B50 SLP060 P0000 T00940078 401060072=
202411020653 METAR KSEA 020653Z 18006KT 10SM BKN026 OVC032 10/07 A2967 RMK AO2 RAB30E44 SLP055 VCSH P0000 T01000072=
202411020645 SPECI KSEA 020645Z 19005KT 10SM BKN026 OVC032 10/08 A2967 RMK AO2 RAB30E44 VCSH P0000 T01000078=
202411020553 METAR KSEA 020553Z 18010KT 10SM FEW023 BKN036 OVC044 10/08 A2967 RMK AO2 SLP055 T01000078 10106 20094 53009=
202411020517 SPECI KSEA 020517Z 17009KT 10SM FEW020 SCT030 OVC039 10/08 A2967 RMK AO2 T01000083=
202411020453 METAR KSEA 020453Z 19007KT 10SM BKN018 BKN040 10/08 A2966 RMK AO2 SLP052 VCSH T01000083=
202411020431 SPECI KSEA 020431Z 18007KT 10SM BKN018 BKN030 BKN037 10/08 A2966 RMK AO2 T01000083=
202411020353 METAR KSEA 020353Z 17006KT 10SM FEW023 BKN032 10/08 A2965 RMK AO2 SLP046 T01000083=
202411020253 METAR KSEA 020253Z 16008KT 10SM BKN030 10/08 A2965 RMK AO2 SLP045 T01000083 53013=
202411020216 SPECI KSEA 020216Z 16008KT 10SM SCT025 BKN037 10/09 A2964 RMK AO2 T01000089=
202411020153 METAR KSEA 020153Z 14008KT 10SM FEW009 BKN028 BKN060 10/09 A2963 RMK AO2 SLP042 T01000089=
202411020053 METAR KSEA 020053Z 15009KT 10SM FEW007 BKN020 BKN100 BKN250 10/09 A2961 RMK AO2 SLP035 T01000089=
202411020006 SPECI KSEA 020006Z 18005KT 10SM FEW006 BKN012 BKN100 BKN250 11/09 A2961 RMK AO2 T01060094=
202411012353 METAR KSEA 012353Z 18005KT 10SM SCT006 SCT040 BKN095 BKN250 11/09 A2961 RMK AO2 SLP032 60018 T01060094 10106 20083 53009=
202411012332 SPECI KSEA 012332Z 17007KT 10SM SCT006 BKN040 BKN090 10/09 A2960 RMK AO2 T01000094=
202411012319 SPECI KSEA 012319Z 17008KT 10SM BKN006 BKN060 10/09 A2960 RMK AO2 T01000094=
202411012253 METAR KSEA 012253Z 18008KT 10SM BKN004 BKN030 OVC060 10/09 A2959 RMK AO2 RAE22 SLP027 P0001 T01000089=
202411012241 SPECI KSEA 012241Z 19006KT 10SM SCT004 BKN030 OVC090 09/09 A2959 RMK AO2 RAE22 P0001 T00940089=
202411012221 SPECI KSEA 012221Z 19007KT 10SM -RA SCT007 BKN015 OVC065 09/09 A2959 RMK AO2 P0000 T00940089=
202411012153 METAR KSEA 012153Z 20008KT 7SM -RA SCT006 OVC010 09/08 A2959 RMK AO2 SLP026 P0007 T00940083=
202411012139 SPECI KSEA 012139Z 20008KT 5SM -RA BR BKN005 OVC010 09/08 A2959 RMK AO2 P0007 T00940083=
202411012116 SPECI KSEA 012116Z 20007KT 4SM -RA BR SCT005 OVC012 09/08 A2958 RMK AO2 P0003 T00890083=
202411012053 METAR KSEA 012053Z 16009KT 3SM -RA BR BKN013 OVC020 09/08 A2958 RMK AO2 SLP022 P0005 60010 T00890078 56004=
202411012012 SPECI KSEA 012012Z 17006KT 3SM -RA BR BKN019 OVC025 09/08 A2958 RMK AO2 P0000 T00890078=
202411011953 METAR KSEA 011953Z 15006KT 2 1/2SM -RA BR BKN023 OVC027 09/07 A2958 RMK AO2 SLP022 P0003 T00890072=
202411011920 SPECI KSEA 011920Z 13004KT 3SM -RA BR BKN027 OVC031 09/07 A2958 RMK AO2 P0001 T00890072=
202411011853 METAR KSEA 011853Z 11007KT 6SM -RA BR SCT025 OVC031 08/07 A2958 RMK AO2 SLP022 P0002 T00830067=
202411011820 SPECI KSEA 011820Z 11008KT 2 1/2SM -RA BR SCT029 OVC048 08/07 A2958 RMK AO2 P0000 T00830067=
202411011753 METAR KSEA 011753Z 12010KT 5SM -RA BR SCT032 BKN040 OVC055 08/07 A2959 RMK AO2 SLP026 P0004 60026 T00830067 10089 20072 56006=
202411011653 METAR KSEA 011653Z 11009KT 6SM -RA BR FEW035 BKN047 OVC060 08/06 A2959 RMK AO2 SLP027 P0004 T00780061=
202411011553 METAR KSEA 011553Z 12009KT 8SM -RA FEW035 OVC047 07/06 A2960 RMK AO2 SLP032 P0005 T00720061=
202411011453 METAR KSEA 011453Z 12011KT 7SM -RA SCT032 OVC044 07/06 A2961 RMK AO2 SLP033 P0004 60013 T00720056 56023=
202411011353 METAR KSEA 011353Z 12010KT 8SM -RA BKN032 OVC043 07/06 A2962 RMK AO2 SLP037 P0003 T00720056=
202411011253 METAR KSEA 011253Z 12011KT 6SM -RA BR SCT033 OVC042 07/06 A2965 RMK AO2 SLP047 P0006 T00720056 $=
202411011153 METAR KSEA 011153Z 12009KT 7SM -RA SCT034 OVC043 07/06 A2967 RMK AO2 SLP055 P0004 60023 70052 T00720061 10083 20072 58015=
202411011053 METAR KSEA 011053Z 12013KT 6SM -RA BR FEW025 OVC040 08/07 A2970 RMK AO2 SLP063 P0005 T00780067=
202411011025 SPECI KSEA 011025Z 14005KT 8SM -RA FEW022 BKN032 OVC041 07/07 A2970 RMK AO2 P0003 T00720067=
202411011000 SPECI KSEA 011000Z 15009KT 6SM -RA BR BKN026 OVC040 08/07 A2971 RMK AO2 P0001 T00780067=
202411010953 METAR KSEA 010953Z 16008KT 6SM -RA BR SCT024 OVC039 07/07 A2971 RMK AO2 RAE0856B14 SLP067 P0004 T00720067=
202411010907 SPECI KSEA 010907Z 12013G23KT 10SM FEW022 OVC030 07/06 A2972 RMK AO2 RAE0856 P0000 T00720061=
202411010853 METAR KSEA 010853Z 13011KT 10SM -RA BKN021 OVC030 07/06 A2972 RMK AO2 SLP071 P0002 60010 T00720061 56009=
202411010753 METAR KSEA 010753Z 12011KT 6SM -RA BR BKN027 BKN032 OVC040 07/06 A2973 RMK AO2 SLP074 P0007 T00720061 401060050=
202411010725 SPECI KSEA 010725Z 12009KT 8SM -RA BKN028 BKN037 OVC044 07/06 A2974 RMK AO2 P0004 T00720061=
202411010653 METAR KSEA 010653Z 12011KT 9SM -RA FEW031 OVC044 08/06 A2974 RMK AO2 RAB05 SLP078 P0001 T00780061=
202411010553 METAR KSEA 010553Z 12010KT 10SM FEW034 BKN043 OVC050 08/06 A2975 RMK AO2 RAE08B42E51 SLP081 P0000 60027 T00780061 10094 20078 56015=
202411010453 METAR KSEA 010453Z 11008KT 9SM -RA OVC033 08/06 A2977 RMK AO2 SLP086 P0005 T00830061=
202411010353 METAR KSEA 010353Z 11006KT 8SM -RA OVC035 08/06 A2977 RMK AO2 SLP088 P0006 T00830061=
202411010253 METAR KSEA 010253Z 10005KT 7SM -RA OVC035 08/06 A2979 RMK AO2 SLP097 P0007 60016 T00830061 56009=
202411010153 METAR KSEA 010153Z 10007KT 7SM -RA OVC036 08/07 A2980 RMK AO2 SLP099 P0008 T00830067=
202411010053 METAR KSEA 010053Z 16003KT 10SM -RA SCT026 OVC042 09/06 A2981 RMK AO2 RAE06B29 SLP102 P0001 T00890061=

# No short TAF reports from KSEA in databse.

###################################
#  large TAF from KSEA
###################################
202411302320 TAF KSEA 302320Z 0100/0206 36004KT P6SM FEW035 BKN080 BKN250 FM010400
                       04004KT P6SM SCT120 BKN200 FM011200 03004KT
                       3SM BR BKN005 OVC015 FM011800 34005KT P6SM
                       FEW005 SCT025 FM012100 02006KT P6SM SCT100=
202411302052 KSEA 302052Z 3021/0124 36004KT P6SM SCT080 BKN220 FM010400 04004KT
                       P6SM SCT120 BKN200 FM011100 03004KT 5SM
                       BR BKN005 OVC015 FM011800 34005KT P6SM FEW005
                       SCT025=
202411301720 TAF KSEA 301720Z 3018/0124 19003KT P6SM FEW020 SCT080 FM302200
                       36004KT P6SM SCT045 BKN120 FM010400 04004KT
                       P6SM SCT120 BKN200 FM011100 03004KT 5SM
                       BR BKN005 OVC015 FM011800 34005KT P6SM FEW005
                       SCT025=
202411301303 KSEA 301303Z 3013/0118 12005KT P6SM SCT015 BKN120 FM301900 VRB04KT
                       P6SM SCT015 BKN060 FM302200 36004KT P6SM
                       SCT045 BKN120 FM010400 04004KT P6SM SCT120
                       BKN200 FM011100 03004KT 5SM BR BKN005=
202411301126 TAF KSEA 301126Z 3012/0118 12005KT 6SM BR BKN015 BKN120 FM301900
                       VRB04KT P6SM SCT015 BKN050 FM302200 36004KT
                       P6SM SCT045 BKN120 FM010400 04004KT P6SM
                       SCT120 BKN200 FM011100 03004KT 5SM BR BKN005=
202411300859 KSEA 300859Z 3009/0112 14005KT P6SM BKN017 FM301200 15004KT 6SM
                       BR BKN015 BKN150 FM301800 18006KT P6SM SCT015
                       BKN030 FM302200 36003KT P6SM SCT035 BKN070
                       FM010100 VRB03KT P6SM BKN030=
202411300554 KSEA 300554Z 3006/0112 13004KT P6SM BKN017 FM301000 15004KT 4SM
                       BR BKN010 OVC020 FM301800 18006KT P6SM SCT015
                       BKN030 FM302200 36003KT P6SM SCT035 BKN070
                       FM010100 VRB03KT P6SM BKN030=
202411300520 TAF KSEA 300520Z 3006/0112 13004KT P6SM FEW020 SCT200 FM301000
                       15004KT 4SM BR BKN010 OVC020 FM301800 18006KT
                       P6SM SCT015 BKN030 FM302200 36003KT P6SM
                       SCT035 BKN070 FM010100 VRB03KT P6SM BKN030=
202411300300 KSEA 300300Z 3003/0106 VRB03KT P6SM FEW020 SCT050 BKN200 FM301000
                       15004KT 4SM BR BKN010 OVC020 FM301800 18006KT
                       P6SM SCT015 BKN030 FM302200 36003KT P6SM
                       SCT035 BKN070 FM010100 VRB03KT P6SM BKN030=
202411292320 TAF KSEA 292320Z 3000/0106 18006KT P6SM SCT020 BKN050 BKN200 FM301000
                       15004KT 4SM BR BKN008 OVC020 FM301800 15006KT
                       P6SM BKN027 FM302000 36003KT P6SM SCT035=
202411292053 KSEA 292053Z 2921/3024 15008KT P6SM BKN021 BKN050 BKN200 FM292200
                       18006KT P6SM SCT025 BKN050 BKN200 FM300800
                       15004KT 5SM BR BKN004 OVC006 FM301600 15006KT
                       P6SM BKN012 FM302000 18003KT P6SM SCT035=
202411291939 KSEA 291939Z 2920/3024 18006KT P6SM SCT025 BKN050 BKN200 FM300800
                       15004KT 5SM BR BKN004 OVC006 FM301600 15006KT
                       P6SM BKN012 FM302000 18003KT P6SM SCT035=
202411291850 KSEA 291850Z 2919/3024 16006KT P6SM SCT013 OVC026 FM292000 14003KT
                       P6SM BKN040 FM300800 15004KT 5SM BR BKN004
                       OVC006 FM301600 15006KT P6SM BKN012 FM302000
                       18003KT P6SM SCT035=
202411291720 TAF KSEA 291720Z 2918/3024 16006KT P6SM SCT013 OVC026 FM291900
                       14003KT P6SM BKN040 FM300800 15004KT 5SM
                       BR BKN004 OVC006 FM301600 15006KT P6SM BKN012
                       FM302000 18003KT P6SM SCT035=
202411291535 KSEA 291535Z 2916/3018 16006KT 6SM BR BKN006 OVC010 FM292000 20005KT
                       6SM BR OVC015 FM300000 14003KT P6SM BKN030
                       FM300600 11004KT 2SM BR OVC003 FM300800
                       00000KT 1/4SM FG OVC002=
202411291357 KSEA 291357Z 2914/3018 16006KT 3SM BR SCT002 OVC005 FM292100 20005KT
                       6SM BR OVC015 FM300000 14003KT P6SM BKN030
                       FM300600 11004KT 2SM BR OVC003 FM300800
                       00000KT 1/4SM FG OVC002=
202411291120 TAF KSEA 291120Z 2912/3018 13007KT 1/4SM FG VV002 FM291400 14004KT
                       1/4SM FG OVC003 FM292100 20005KT P6SM OVC009
                       FM300000 14003KT P6SM BKN030 FM300600 11004KT
                       2SM BR OVC003 FM300800 00000KT 1/4SM FG
                       OVC002=
202411290854 KSEA 290854Z 2909/3012 12005KT 1/4SM FG VV002 FM291400 14004KT
                       1/4SM FG OVC003 FM291800 20005KT 6SM BR
                       OVC009 FM292100 20005KT P6SM SCT020 BKN035
                       FM300100 14003KT P6SM BKN030 FM300600 11004KT
                       1/4SM FG OVC003=
202411290618 KSEA 290618Z 2906/3012 14005KT 1SM BR SCT002 BKN250
                      TEMPO 2906/2908 1/2SM FG BKN003 FM290800
                       00000KT 1/4SM FG OVC003 FM291400 18003KT
                       1SM BR BKN007 FM291800 20005KT 6SM BR FEW010
                       BKN015 FM292100 20005KT P6SM SCT020 BKN035
                       FM300100 14003KT P6SM BKN030=
202411290520 TAF KSEA 290520Z 2906/3012 14005KT P6SM BKN250
                      TEMPO 2906/2908 1/2SM FG BKN003 FM290800
                       00000KT 1/4SM FG OVC003 FM291400 18003KT
                       1SM BR BKN007 FM291800 20005KT 6SM BR FEW010
                       BKN015 FM292100 20005KT P6SM SCT020 BKN035
                       FM300100 14003KT P6SM BKN030=
202411290259 KSEA 290259Z 2903/3006 36005KT P6SM FEW010 BKN250
                      TEMPO 2906/2908 1/2SM FG BKN003 FM290800
                       00000KT 1/4SM FG OVC001 FM291400 18003KT
                       1SM BR BKN004 FM291800 20005KT 6SM BR FEW004
                       BKN010 FM292100 20005KT P6SM BKN035 FM300100
                       16003KT P6SM BKN030=
202411282320 TAF KSEA 282320Z 2900/3006 36005KT P6SM BKN250 FM290600 00000KT
                       1/4SM FG OVC001 FM291400 18003KT 1SM BR
                       BKN004 FM291800 20005KT 6SM BR FEW004 BKN010
                       FM292100 20005KT P6SM BKN035=
202411282051 KSEA 282051Z 2821/2924 36004KT 6SM BR SCT002 BKN250 FM290100 34003KT
                       6SM BR BKN045 OVC100 FM290600 00000KT 1/4SM
                       FG OVC001 FM291400 18003KT 1SM BR BKN004
                       FM291800 20005KT 6SM BR FEW004 SCT050=
202411281957 KSEA 281957Z 2820/2924 36004KT 6SM BR SCT002 OVC200 FM290100 34003KT
                       6SM BR BKN045 OVC100 FM290600 00000KT 1/4SM
                       FG OVC001 FM291400 18003KT 1SM BR BKN004
                       FM291800 20005KT 6SM BR FEW004 SCT050=
202411281929 KSEA 281929Z 2819/2924 VRB03KT 1SM BR BKN002 BKN250 FM282100 36004KT
                       6SM BR BKN022 OVC200 FM290100 34003KT 6SM
                       BR BKN045 OVC100 FM290600 00000KT 1/4SM
                       FG OVC001 FM291400 18003KT 1SM BR BKN004
                       FM291800 20005KT 6SM BR FEW004 SCT050=
202411281903 KSEA 281903Z 2819/2924 VRB03KT 1/4SM FG VV002 FM282100 36004KT
                       6SM BR BKN022 OVC200 FM290100 34003KT 6SM
                       BR BKN045 OVC100 FM290600 00000KT 1/4SM
                       FG OVC001 FM291400 18003KT 1SM BR BKN004
                       FM291800 20005KT 6SM BR FEW004 SCT050=
202411281733 KSEA 281733Z 2818/2924 VRB03KT 1/2SM FG VV002 FM282000 36004KT
                       6SM BR BKN022 OVC200 FM290100 34003KT 6SM
                       BR BKN045 OVC100 FM290600 00000KT 1/4SM
                       FG OVC001 FM291400 18003KT 1SM BR BKN004
                       FM291800 20005KT 6SM BR FEW004 SCT050=
202411281721 TAF KSEA 281721Z 2818/2924 VRB03KT 1/4SM FG VV001 FM282000 36004KT
                       6SM BR BKN022 OVC200 FM290100 34003KT 6SM
                       BR BKN045 OVC100 FM290600 00000KT 1/4SM
                       FG OVC001 FM291400 18003KT 1SM BR BKN004
                       FM291800 20005KT 6SM BR FEW004 SCT050=
202411281607 KSEA 281607Z 2816/2918 00000KT 1/4SM FG VV001 FM281800 VRB03KT
                       1/4SM FG OVC002 FM282000 36004KT 6SM BR
                       BKN020 OVC030 FM290100 34003KT 6SM BR OVC035
                       FM290600 00000KT 1/4SM FG OVC001=
202411281602 KSEA 281602Z 2816/2918 00000KT 1/4SM FG VV001 FM281800 VRB03KT
                       1/4SM FG OVC002 FM282000 36004KT 6SM BR
                       BKN020 OVC030 FM290100 34003KT 1/4SM FG
                       OVC015 FM290600 00000KT 1/4SM FG OVC001=
202411281352 KSEA 281352Z 2814/2918 00000KT 1/4SM FG VV001 FM281800 VRB03KT
                       1/4SM FG OVC002 FM282000 36004KT 6SM BR
                       BKN020 OVC030 FM290100 34003KT 1/4SM FG
                       OVC015 FM290600 00000KT 1/4SM FG OVC001=
202411281120 TAF KSEA 281120Z 2812/2918 08004KT 1/4SM FG VV001 FM281800 VRB03KT
                       1/4SM FG OVC002 FM282000 36004KT 6SM BR
                       BKN020 OVC030 FM290100 34003KT 1/4SM FG
                       OVC001 FM290600 00000KT 1/4SM FG OVC001=
202411280854 KSEA 280854Z 2809/2912 04004KT 1/4SM FG VV001 FM281200 11002KT
                       3SM BR SCT002 BKN015 OVC025 FM281800 VRB03KT
                       P6SM BKN025 OVC035 FM290100 34003KT P6SM
                       BKN035 OVC045 FM290600 17003KT P6SM BKN030
                       OVC035=
202411280539 TAF KSEA 280539Z 2806/2912 VRB03KT P6SM BKN045 FM280900 08003KT
                       5SM BR OVC025 FM281200 11002KT 3SM BR SCT002
                       BKN015 OVC025 FM281800 VRB03KT P6SM BKN025
                       OVC035 FM290100 34003KT P6SM BKN035 OVC045
                       FM290600 17003KT P6SM BKN030 OVC035=
202411272323 TAF KSEA 272323Z 2800/2906 26003KT P6SM FEW015 SCT025 SCT250 FM280200
                       36004KT P6SM SCT025 OVC035 FM280900 08003KT
                       5SM BR OVC025 FM281200 11002KT 3SM BR SCT002
                       BKN015 OVC025 FM281800 25003KT P6SM BKN025
                       OVC035=
202411272231 KSEA 272231Z 2723/2824 27005KT P6SM BKN015 BKN030 BKN250 FM280000
                       36004KT P6SM SCT025 OVC035 FM280900 08003KT
                       5SM BR OVC025 FM281200 11002KT 3SM BR SCT002
                       BKN015 OVC025 FM281800 25003KT P6SM BKN025
                       OVC035=
202411271938 KSEA 271938Z 2720/2824 22003KT P6SM BKN006 BKN012 FM272200 27005KT
                       P6SM OVC035 FM280000 36004KT P6SM OVC035
                       FM280900 08003KT 5SM BR OVC025 FM281200
                       11002KT 3SM BR SCT002 BKN015 OVC025=
202411271733 TAF KSEA 271733Z 2718/2824 00000KT P6SM SCT009 BKN013 OVC045 FM272000
                       22004KT P6SM BKN015 OVC025 FM272200 27005KT
                       P6SM OVC035 FM280000 36004KT P6SM OVC035
                       FM280900 08003KT 5SM BR OVC025 FM281200
                       11002KT 3SM BR SCT002 BKN015 OVC025=
202411271354 KSEA 271354Z 2714/2818 15005KT 4SM BR SCT002 BKN015 OVC040
                      TEMPO 2714/2717 1/4SM FG OVC003 FM271800
                       20005KT P6SM BKN015 OVC020 FM272100 27005KT
                       P6SM OVC035 FM280000 33004KT P6SM OVC035=
202411271315 KSEA 271315Z 2713/2818 15005KT 1/2SM FG OVC002
                      TEMPO 2713/2716 1/4SM FG OVC003 FM271800
                       20005KT P6SM BKN015 OVC020 FM272100 27005KT
                       P6SM OVC035 FM280000 33004KT P6SM OVC035=
202411271300 KSEA 271300Z 2713/2818 15005KT 1/2SM FG OVC002
                      TEMPO 2713/2716 1/2SM FG OVC003 FM271800
                       20005KT P6SM BKN015 OVC020 FM272100 27005KT
                       P6SM OVC035 FM280000 33004KT P6SM OVC035=
202411271127 KSEA 271127Z 2712/2818 15004KT 4SM -RA BR SCT018 OVC024
                      TEMPO 2712/2715 6SM FEW002 FM271500 17005KT
                       P6SM OVC030 FM271800 20005KT P6SM BKN020
                       OVC030 FM272100 27005KT P6SM OVC035 FM280000
                       33004KT P6SM OVC035=
202411271120 TAF KSEA 271120Z 2712/2818 15004KT 4SM -RA BR SCT018 OVC024 FM271300
                       16004KT 6SM BR OVC025 FM271500 17005KT P6SM
                       OVC030 FM271800 20005KT P6SM BKN020 OVC030
                       FM272100 27005KT P6SM OVC035 FM280000 33004KT
                       P6SM OVC035=
202411270855 KSEA 270855Z 2709/2812 VRB04KT P6SM -SHRA OVC040 FM271200 14004KT
                       P6SM OVC025 FM271500 17005KT P6SM BKN020
                       OVC035 FM271800 20005KT P6SM OVC035=
202411270520 TAF KSEA 270520Z 2706/2812 06004KT P6SM -SHRA SCT030 OVC040 FM270900
                       15003KT P6SM -DZ SCT020 BKN025 OVC030 FM271500
                       17005KT P6SM BKN020 OVC035 FM271800 20005KT
                       P6SM OVC035=
202411270253 KSEA 270253Z 2703/2806 06004KT P6SM -SHRA OVC040 FM270900 VRB05KT
                       P6SM -DZ SCT020 BKN025 OVC030 FM271700 17005KT
                       P6SM BKN020 OVC035 FM272100 24004KT P6SM
                       OVC035=
202411262330 TAF KSEA 262330Z 2700/2806 VRB03KT P6SM SCT020 BKN035 OVC050 FM270300
                       12004KT P6SM -SHRA OVC035 FM270900 17005KT
                       P6SM -DZ SCT020 BKN025 OVC030 FM271700 17005KT
                       P6SM BKN020 OVC035 FM272100 24004KT P6SM
                       OVC035=
202411261725 TAF KSEA 261725Z 2618/2724 04005KT P6SM BKN021 OVC040 FM261900
                       01006KT P6SM SCT015 BKN025 BKN050 FM262300
                       VRB03KT P6SM SCT025 BKN035 OVC050 FM270300
                       12004KT P6SM -SHRA OVC035 FM270900 17005KT
                       P6SM -DZ SCT020 BKN025 OVC030 FM271700 17005KT
                       P6SM BKN025 OVC035=
202411261457 KSEA 261457Z 2615/2718 02005KT P6SM OVC019 FM261900 35005KT P6SM
                       SCT006 BKN011 OVC020 FM262200 VRB03KT P6SM
                       SCT015 BKN025 OVC035 FM270300 14005KT P6SM
                       -SHRA BKN025=
202411261158 KSEA 261158Z 2612/2718 02007KT P6SM BKN009 OVC040 FM261500 02005KT
                       6SM BR OVC007 FM261900 VRB03KT P6SM SCT006
                       BKN011 OVC020 FM262200 VRB03KT P6SM SCT015
                       BKN025 OVC035 FM270300 14005KT P6SM -SHRA
                       BKN025=
202411261120 TAF KSEA 261120Z 2612/2718 02007KT P6SM SCT017 OVC040 FM261500
                       02005KT 6SM BR OVC007 FM261900 VRB03KT P6SM
                       SCT006 BKN011 OVC020 FM262200 VRB03KT P6SM
                       SCT015 BKN025 OVC035 FM270300 14005KT P6SM
                       -SHRA BKN025=
202411260858 KSEA 260858Z 2609/2712 36004KT P6SM OVC010 FM261200 02004KT 6SM
                       BR OVC007 FM261900 VRB03KT P6SM SCT006 BKN011
                       OVC020 FM262200 VRB03KT P6SM SCT015 BKN025
                       OVC035 FM270300 14005KT P6SM -SHRA BKN025=
202411260531 TAF KSEA 260531Z 2606/2712 35006KT P6SM VCSH SCT003 OVC010 FM260900
                       VRB03KT 4SM BR OVC005 FM261900 VRB03KT P6SM
                       SCT006 BKN011 OVC020 FM262200 VRB03KT P6SM
                       SCT015 BKN025 OVC035 FM270300 14005KT P6SM
                       -SHRA BKN025=
202411260210 KSEA 260210Z 2602/2706 01005KT 4SM -SHRA BR FEW008 BKN020 OVC035
                       FM260500 VRB03KT P6SM SCT020 OVC035 FM261200
                       VRB03KT 4SM BR OVC005 FM261900 VRB03KT P6SM
                       SCT006 BKN011 OVC020 FM262200 VRB03KT P6SM
                       SCT015 BKN025 OVC035=
202411252330 TAF KSEA 252330Z 2600/2706 VRB03KT P6SM SCT008 BKN022 OVC035 FM260300
                       VRB03KT P6SM SCT020 OVC035 FM261200 VRB03KT
                       4SM BR OVC005 FM261900 VRB03KT P6SM SCT006
                       BKN011 OVC020 FM262200 VRB03KT P6SM SCT015
                       BKN025 OVC035=
202411252107 KSEA 252107Z 2521/2624 VRB03KT P6SM SCT008 BKN015 OVC030 FM260000
                       VRB03KT P6SM SCT015 BKN025 OVC040 FM260200
                       VRB03KT P6SM SCT020 OVC035 FM261200 VRB03KT
                       4SM BR OVC005 FM261800 VRB03KT P6SM BKN011
                       FM262100 VRB03KT P6SM BKN030=
202411251741 TAF KSEA 251741Z 2518/2624 12006KT P6SM SCT004 OVC010
                      TEMPO 2518/2520 BKN004 OVC010 FM252000 12006KT
                       P6SM SCT008 BKN015 OVC030 FM252200 12006KT
                       P6SM SCT015 BKN025 OVC040 FM260200 VRB03KT
                       P6SM SCT020 OVC035 FM261200 VRB03KT 4SM
                       BR OVC005 FM261800 VRB03KT P6SM BKN011 FM262100
                       VRB03KT P6SM BKN030=
202411251605 KSEA 251605Z 2516/2618 12006KT 2SM -RA BKN006 OVC015 FM251700 12006KT
                       P6SM SCT006 BKN015 OVC025 FM252000 17006KT
                       P6SM -SHRA SCT025 OVC035 FM260200 15006KT
                       P6SM BKN035=
202411251409 KSEA 251409Z 2514/2618 06005KT 5SM -RA BR BKN020 OVC035 FM251600
                       12006KT 6SM -SHRA OVC025 FM251900 17006KT
                       P6SM -SHRA SCT025 OVC035 FM260200 15006KT
                       P6SM BKN035=
202411251306 KSEA 251306Z 2513/2618 06005KT 4SM -RA BR BKN020 OVC035 FM251600
                       12006KT 6SM -SHRA OVC025 FM251900 17006KT
                       P6SM -SHRA SCT025 OVC035 FM260200 15006KT
                       P6SM BKN035=
202411251138 TAF KSEA 251138Z 2512/2618 02004KT P6SM -RA OVC035 FM251500 12006KT
                       P6SM -SHRA OVC025 FM251900 17006KT P6SM
                       -SHRA SCT025 OVC035 FM260200 15006KT P6SM
                       BKN035=
202411250857 KSEA 250857Z 2509/2612 35004KT P6SM -RA OVC035 FM251000 05006KT
                       6SM -RA OVC025 FM251500 12006KT P6SM -SHRA
                       OVC025 FM252100 17006KT P6SM -SHRA SCT025
                       OVC035 FM260200 15006KT P6SM BKN035=
202411250531 TAF KSEA 250531Z 2506/2612 10006KT P6SM -RA OVC035 FM250800 05006KT
                       6SM -RA OVC025 FM251200 12006KT P6SM -SHRA
                       OVC025 FM252100 17006KT P6SM -SHRA SCT025
                       OVC035 FM260200 15006KT P6SM BKN035=
202411250256 KSEA 250256Z 2503/2606 10006KT P6SM -SHRA OVC035 FM250800 05006KT
                       P6SM -SHRA OVC025 FM251200 12006KT P6SM
                       -SHRA OVC025 FM252100 17006KT P6SM -SHRA
                       SCT025 OVC035=
202411242331 TAF KSEA 242331Z 2500/2606 10006KT P6SM -RA OVC025 FM250900 06006KT
                       P6SM -RA OVC021 FM252000 14006KT P6SM SCT025
                       OVC035=
202411242124 KSEA 242124Z 2421/2524 10006KT P6SM -RA OVC025 FM250900 06006KT
                       P6SM -RA OVC021 FM252000 14006KT P6SM -RA
                       OVC021=
202411241732 TAF KSEA 241732Z 2418/2524 10006KT P6SM OVC035 FM242200 10006KT
                       P6SM -RA OVC025 FM250900 06006KT P6SM -RA
                       OVC021 FM252000 14006KT P6SM -RA OVC021=
202411241405 KSEA 241405Z 2414/2518 10007KT P6SM -RA OVC035 FM241600 12006KT
                       P6SM -RA OVC025 FM242000 09006KT 5SM -RA
                       BR OVC022 FM250400 10006KT P6SM -RA OVC015=
202411241130 TAF KSEA 241130Z 2412/2518 11008KT P6SM -RA OVC040 FM241600 12006KT
                       P6SM -RA OVC025 FM242000 09006KT 5SM -RA
                       BR OVC022 FM250400 10006KT P6SM -RA OVC015=
202411240904 KSEA 240904Z 2409/2512 12005KT P6SM -RA FEW035 OVC040 FM241000
                       11006KT P6SM -SHRA BKN035 FM241500 10006KT
                       P6SM -SHRA BKN022 OVC035
                      PROB30 2505/2510 02006KT -RA OVC015=
202411240520 TAF KSEA 240520Z 2406/2512 14006KT P6SM BKN060 FM241000 11006KT
                       P6SM -SHRA BKN035 FM241500 10006KT P6SM
                       -SHRA BKN022 OVC035
                      PROB30 2505/2510 02006KT -RA OVC015=
202411240256 KSEA 240256Z 2403/2506 18006KT P6SM OVC050 FM241000 12006KT P6SM
                       VCSH BKN045 FM241300 11006KT P6SM -SHRA
                       BKN022 OVC035 FM242300 08006KT P6SM -SHRA
                       BKN022 OVC035=
202411232335 TAF KSEA 232335Z 2400/2506 20010KT P6SM SCT040 BKN060 FM240400
                       18008KT P6SM BKN045 FM241000 11006KT P6SM
                       BKN045 FM241300 11006KT P6SM -SHRA BKN022
                       OVC035 FM242300 08006KT P6SM -SHRA BKN022
                       OVC035=
202411232109 KSEA 232109Z 2321/2424 19010KT P6SM SCT025 BKN040 BKN060 FM240400
                       17008KT P6SM BKN050 FM241000 11006KT P6SM
                       BKN050 FM241600 11006KT P6SM -SHRA BKN022
                       OVC035 FM242100 11006KT P6SM SCT025 BKN040=
202411231748 TAF KSEA 231748Z 2318/2424 17008KT P6SM BKN035 BKN150
                      TEMPO 2320/2323 -SHRA BKN025 BKN035 FM240400
                       17008KT P6SM BKN050 FM241000 11006KT P6SM
                       BKN050 FM241600 11006KT P6SM -SHRA BKN022
                       OVC035 FM242100 11006KT P6SM SCT025 BKN040=
202411231401 KSEA 231401Z 2314/2418 17010KT P6SM BKN035 BKN150 FM232200 21008KT
                       P6SM VCSH BKN035 OVC050 FM240400 15007KT
                       P6SM VCSH BKN050=
202411231123 TAF KSEA 231123Z 2312/2418 16006KT P6SM FEW050 BKN180 OVC220 FM231500
                       18010KT P6SM OVC045 FM232200 21008KT P6SM
                       VCSH BKN035 OVC050 FM240400 15007KT P6SM
                       VCSH BKN050=
202411230909 KSEA 230909Z 2309/2412 17006KT P6SM FEW040 OVC210 FM231200 16006KT
                       P6SM OVC035 FM231800 18010KT P6SM OVC030
                       FM232200 21008KT P6SM VCSH BKN035 OVC050
                       FM240400 15007KT P6SM BKN050=
202411230532 TAF KSEA 230532Z 2306/2412 17008KT P6SM OVC045 FM231200 16006KT
                       P6SM OVC035 FM231800 18010KT P6SM OVC030
                       FM232200 21008KT P6SM VCSH BKN035 OVC050
                       FM240400 15007KT P6SM BKN050=
202411230259 KSEA 230259Z 2303/2406 18011KT P6SM VCSH OVC045 FM230600 15008KT
                       P6SM OVC045 FM231200 16006KT P6SM OVC035
                       FM231800 18010KT P6SM VCSH OVC030=
202411222323 TAF KSEA 222323Z 2300/2406 18018G30KT P6SM VCSH SCT060 BKN100 FM230300
                       16012G18KT P6SM VCSH OVC060 FM230600 15008KT
                       P6SM OVC045 FM231200 16006KT P6SM OVC035
                       FM231800 18010KT P6SM VCSH OVC030=
202411222058 KSEA 222058Z 2221/2324 18015G25KT P6SM VCSH OVC060
                      TEMPO 2221/2224 18022G31KT FM230300 16012G18KT
                       P6SM VCSH BKN060 FM230600 15008KT P6SM SCT060
                       BKN100 FM231200 19006KT P6SM BKN030=
202411221806 KSEA 221806Z 2218/2324 18015G25KT P6SM -SHRA OVC060 FM230300 16012G18KT
                       P6SM VCSH BKN060 FM230600 15008KT P6SM SCT060
                       BKN100 FM231200 19006KT P6SM BKN030=
202411221721 TAF KSEA 221721Z 2218/2324 20007KT P6SM -SHRA OVC040 FM221900 18015G25KT
                       P6SM -SHRA OVC035 FM230300 16012G18KT P6SM
                       VCSH BKN040 FM230600 15008KT P6SM SCT050
                       BKN100 FM231200 19006KT P6SM BKN030=
202411221616 KSEA 221616Z 2216/2318 11010G20KT P6SM -SHRA OVC050 FM221900 16015G25KT
                       P6SM -SHRA OVC035 FM230300 16012G18KT P6SM
                       VCSH BKN040 FM230600 15008KT P6SM SCT050
                       BKN100=
202411221233 KSEA 221233Z 2213/2318 08011G20KT P6SM -RA OVC060 FM221600 11010G20KT
                       P6SM -SHRA OVC022 FM221900 16015G25KT P6SM
                       -SHRA OVC035 FM230300 16012G18KT P6SM VCSH
                       BKN040 FM230600 15008KT P6SM SCT050 BKN100=
202411221120 TAF KSEA 221120Z 2212/2318 08011KT P6SM -RA OVC060 FM221600 11010KT
                       P6SM -SHRA OVC022 FM221900 16015G25KT P6SM
                       -SHRA OVC035 FM230300 16012G18KT P6SM VCSH
                       BKN040 FM230600 15008KT P6SM SCT050 BKN100=
202411220906 KSEA 220906Z 2209/2312 07009KT P6SM VCSH SCT070 BKN110 OVC150 FM221200
                       08015G27KT P6SM -RA BKN025 OVC040 FM221600
                       11010KT P6SM -SHRA OVC022 FM221900 16015G25KT
                       P6SM -SHRA OVC035 FM230300 16012G18KT P6SM
                       VCSH BKN040=
202411220540 TAF KSEA 220540Z 2206/2312 07009KT P6SM OVC050 FM221200 08015G27KT
                       P6SM -RA BKN025 OVC040 FM221600 11010KT
                       P6SM -SHRA OVC022 FM221900 16015G25KT P6SM
                       -SHRA OVC035 FM230300 16012G18KT P6SM VCSH
                       BKN040=
202411220314 KSEA 220314Z 2203/2306 05007KT P6SM OVC050 FM221100 08015G27KT
                       P6SM -RA BKN025 OVC040 FM221500 11010KT
                       P6SM OVC035 FM221900 18015G25KT P6SM -SHRA
                       OVC050=
202411212338 TAF KSEA 212338Z 2200/2306 01005KT P6SM -SHRA OVC050 FM220300 07010KT
                       P6SM OVC050 FM220900 08015G30KT P6SM -RA
                       BKN025 OVC040 FM221500 11010KT P6SM OVC035
                       FM221900 18015G25KT P6SM -SHRA OVC050=
202411212221 KSEA 212221Z 2122/2224 VRB04KT P6SM -SHRA OVC050 FM220300 07010KT
                       P6SM OVC050 FM220900 08015G30KT P6SM -RA
                       BKN025 OVC040 FM221500 11010KT P6SM OVC035
                       FM221900 18015G25KT P6SM -SHRA OVC050=
202411212053 KSEA 212053Z 2121/2224 07005KT P6SM SCT050 BKN070 FM212200 12006KT
                       P6SM -SHRA OVC050 FM220300 07010KT P6SM
                       OVC050 FM220900 08015G30KT P6SM -RA BKN025
                       OVC040 FM221500 11010KT P6SM OVC035 FM221900
                       18015G25KT P6SM -SHRA OVC050=
202411211738 TAF KSEA 211738Z 2118/2224 07005KT P6SM SCT050 BKN070 FM212200
                       12006KT P6SM -SHRA OVC050 FM220300 07010KT
                       P6SM OVC050 FM220900 08015G30KT P6SM -RA
                       BKN025 OVC040 FM221500 11010KT P6SM OVC035
                       FM221900 18015G25KT P6SM -SHRA OVC050=
202411211559 KSEA 211559Z 2116/2218 07005KT P6SM SCT050 BKN070 FM212200 12006KT
                       P6SM -SHRA OVC050 FM220300 07010KT P6SM
                       OVC050 FM221000 08010G16KT P6SM -RA OVC035=
202411211120 TAF KSEA 211120Z 2112/2218 12005KT P6SM VCSH BKN045 FM211500 07005KT
                       P6SM SCT050 BKN070 FM212200 12006KT P6SM
                       -SHRA OVC050 FM220300 07010KT P6SM OVC050
                       FM221000 08010G16KT P6SM -RA OVC035=
202411211009 KSEA 211009Z 2110/2212 13006KT P6SM VCSH BKN050 FM211500 07005KT
                       P6SM SCT050 BKN070 FM212200 12006KT P6SM
                       VCSH BKN035 FM220600 07010KT P6SM OVC050
                       FM221100 08010G16KT P6SM -RA OVC035=
202411210535 TAF KSEA 210535Z 2106/2212 13008KT P6SM VCSH BKN050 FM210900 13005KT
                       P6SM BKN035 FM211500 07005KT P6SM SCT050
                       BKN070 FM212200 12006KT P6SM VCSH BKN035
                       FM220600 07010KT P6SM OVC050 FM221100 08010G16KT
                       P6SM -RA OVC035=
202411210313 KSEA 210313Z 2103/2206 10007KT P6SM VCSH BKN050 FM210900 13005KT
                       P6SM BKN035 FM211400 02005KT P6SM SCT050
                       BKN070 FM211800 15005KT P6SM VCSH BKN030=
202411202323 TAF KSEA 202323Z 2100/2206 16009KT P6SM VCSH OVC060 FM210500 12007KT
                       P6SM BKN050 FM211300 02005KT P6SM SCT050
                       BKN070 FM211800 15005KT P6SM VCSH BKN030=
202411202057 KSEA 202057Z 2021/2124 14010KT P6SM -SHRA OVC040 FM202200 13008KT
                       P6SM VCSH OVC035 FM210500 12007KT P6SM BKN050
                       FM211100 10005KT P6SM BKN070=
202411201443 KSEA 201443Z 2015/2118 13013KT P6SM -SHRA OVC060 FM201700 12011KT
                       P6SM -SHRA OVC040 FM202200 13008KT P6SM
                       VCSH OVC035 FM210500 12007KT P6SM BKN050
                       FM211100 10005KT P6SM BKN070=
202411201226 KSEA 201226Z 2012/2118 13012G21KT P6SM -RA OVC040 FM201300 13010KT
                       P6SM -RA OVC040 FM201700 12011KT P6SM -SHRA
                       OVC020 FM202200 13008KT P6SM VCSH OVC035
                       FM210500 12007KT P6SM BKN050 FM211100 10005KT
                       P6SM BKN070=
202411201120 TAF KSEA 201120Z 2012/2118 13012KT P6SM -RA OVC035 FM201300 13010KT
                       P6SM -RA OVC040 FM201700 12011KT P6SM -SHRA
                       OVC020 FM202200 13008KT P6SM VCSH OVC035
                       FM210500 12007KT P6SM BKN050 FM211100 10005KT
                       P6SM BKN070=
202411200902 KSEA 200902Z 2009/2112 13012KT P6SM -RA OVC050 FM201300 13010KT
                       P6SM -RA OVC030 FM201700 12011KT P6SM -SHRA
                       OVC020 FM202200 13008KT P6SM VCSH OVC035
                       FM210500 12007KT P6SM BKN050=
202411200535 TAF KSEA 200535Z 2006/2112 12025G45KT P6SM -RA BKN035 OVC060 WS015/15055KT
                       FM200900 13020G35KT P6SM -RA OVC040 FM201300
                       13014G22KT P6SM -RA OVC030 FM201700 12011KT
                       P6SM -SHRA OVC020 FM202200 13008KT P6SM
                       VCSH OVC035 FM210500 12007KT P6SM BKN050=
202411200303 KSEA 200303Z 2003/2106 12030G50KT P6SM -RA BKN035 OVC060 WS015/15055KT
                       FM200700 10025G40KT P6SM -RA OVC050 FM201100
                       13012KT P6SM OVC030 FM201500 13010KT P6SM
                       -SHRA OVC015 FM202100 13008KT P6SM VCSH
                       OVC035=
202411200050 KSEA 200050Z 2001/2106 11015G40KT P6SM -SHRA OVC080 FM200300 12025G50KT
                       P6SM -SHRA BKN035 OVC060 WS015/15055KT FM200700
                       10025G40KT P6SM -RA OVC050 FM201100 13012KT
                       P6SM OVC030 FM201500 13010KT P6SM -SHRA
                       OVC015 FM202100 13008KT P6SM VCSH OVC035=
202411192329 TAF KSEA 192329Z 2000/2106 11012G25KT P6SM -SHRA OVC090 FM200300
                       12025G35KT P6SM -SHRA BKN035 OVC060 WS015/15055KT
                       FM200700 10020G30KT P6SM -RA OVC050 FM201100
                       13012KT P6SM OVC030 FM201500 13010KT P6SM
                       -SHRA OVC015 FM202100 13008KT P6SM VCSH
                       OVC035=
202411192100 KSEA 192100Z 1921/2024 07007KT P6SM FEW025 OVC070 FM192300 08015G25KT
                       P6SM -SHRA OVC060 FM200300 12025G35KT P6SM
                       -SHRA BKN035 OVC060 WS015/15055KT FM200700
                       10020G30KT P6SM -RA OVC050 FM201100 13012KT
                       P6SM OVC030 FM201800 13008KT P6SM OVC015=
202411191741 TAF KSEA 191741Z 1918/2024 07007KT P6SM FEW025 OVC070 FM192300
                       08015G25KT P6SM -SHRA OVC060 FM200300 12025G35KT
                       P6SM -SHRA BKN035 OVC060 WS015/15055KT FM200700
                       10020G30KT P6SM -RA OVC050 FM201100 13012KT
                       P6SM OVC030=
202411191247 KSEA 191247Z 1913/2018 16008KT P6SM FEW025 OVC050 FM191400 13006KT
                       P6SM FEW025 OVC035 FM191800 07007KT P6SM
                       FEW025 OVC070 FM192300 08015G25KT P6SM -SHRA
                       OVC060 FM200300 12025G35KT P6SM -SHRA BKN035
                       OVC060 FM200700 10020G30KT P6SM -RA OVC050
                       FM201100 13012KT P6SM OVC030=
202411191127 TAF KSEA 191127Z 1912/2018 16008KT P6SM -RA FEW009 BKN020 OVC030
                       FM191400 13006KT P6SM FEW025 OVC035 FM191800
                       07007KT P6SM FEW025 OVC070 FM192300 08015G25KT
                       P6SM -SHRA OVC060 FM200300 12025G35KT P6SM
                       -SHRA BKN035 OVC060 FM200700 10020G30KT
                       P6SM -RA OVC050 FM201100 13012KT P6SM OVC030=
202411190956 KSEA 190956Z 1910/2012 16008KT 6SM -RA BR OVC020
                      TEMPO 1910/1911 OVC009 FM191400 13006KT P6SM
                       FEW025 OVC035 FM191800 07007KT P6SM FEW025
                       OVC070 FM192300 08015G25KT P6SM FEW025 OVC060
                       FM200200 12025G35KT P6SM FEW025 OVC060=
202411190905 KSEA 190905Z 1909/2012 16008KT 6SM -RA BR OVC020 FM191400 13006KT
                       P6SM FEW025 OVC035 FM191800 07007KT P6SM
                       FEW025 OVC070 FM192300 08015G25KT P6SM FEW025
                       OVC060 FM200200 12025G35KT P6SM FEW025 OVC060=
202411190520 TAF KSEA 190520Z 1906/2012 17008KT P6SM VCSH FEW017 BKN030 OVC050
                       FM190900 16008KT P6SM OVC020 FM191400 13006KT
                       P6SM FEW025 OVC035 FM191800 07007KT P6SM
                       FEW025 OVC070 FM192300 08015G25KT P6SM FEW025
                       OVC060 FM200200 12025G35KT P6SM FEW025 OVC060=
202411190256 KSEA 190256Z 1903/2006 19012KT P6SM FEW020 BKN040 OVC070 FM190500
                       17008KT P6SM VCSH OVC030 FM190900 16008KT
                       P6SM OVC020 FM191400 13006KT P6SM FEW025
                       OVC035 FM191800 07007KT P6SM FEW025 OVC070
                       FM192300 08015G25KT P6SM FEW025 OVC060=
202411182320 TAF KSEA 182320Z 1900/2006 21010G20KT P6SM SCT020 BKN030 FM190500
                       15008KT P6SM VCSH OVC030 FM190900 16008KT
                       P6SM OVC020
                      PROB30 1909/1910 -SHRA FM191400 13006KT P6SM
                       FEW025 OVC035 FM191800 07007KT P6SM FEW025
                       OVC070=
202411182048 KSEA 182048Z 1821/1924 21009KT P6SM SCT010 BKN020 OVC025 FM190000
                       19008KT P6SM FEW030 OVC040 FM190500 15008KT
                       P6SM VCSH OVC030 FM191400 13006KT P6SM FEW025
                       OVC035=
202411181815 TAF KSEA 181815Z 1818/1924 19010KT P6SM BKN015 OVC030 FM182200
                       20008KT P6SM -SHRA FEW030 OVC040 FM190500
                       15008KT P6SM VCSH OVC030 FM191400 13006KT
                       P6SM FEW025 OVC035=
202411181731 TAF KSEA 181731Z 1818/1924 19010KT P6SM BKN015 OVC030 FM182200
                       20008KT P6SM -SHRA FEW030 OVC040 FM190500
                       15008KT P6SM VCSH OVC030 FM191400 13006KT
                       P6SM FEW025 OVC035=
202411181404 KSEA 181404Z 1814/1918 20005KT P6SM VCSH SCT010 OVC015 FM181500
                       21009KT P6SM OVC030 FM181800 21010KT P6SM
                       OVC040 FM190000 17007KT P6SM -SHRA OVC040
                       FM190600 15008KT P6SM VCSH OVC030 FM191100
                       15006KT P6SM OVC025=
202411181120 TAF KSEA 181120Z 1812/1918 19012KT P6SM VCSH BKN012 OVC025 FM181500
                       21009KT P6SM OVC030 FM181800 21010KT P6SM
                       OVC040 FM190000 17007KT P6SM -SHRA OVC040
                       FM190600 15008KT P6SM VCSH OVC030 FM191100
                       15006KT P6SM OVC025=
202411180900 KSEA 180900Z 1809/1912 19010G20KT P6SM -SHRA OVC015 FM181100 19006KT
                       P6SM VCSH OVC025 FM181500 21009KT P6SM OVC035
                       FM190000 17007KT P6SM -SHRA OVC040 FM190600
                       15008KT P6SM VCSH OVC030=
202411180526 TAF KSEA 180526Z 1806/1912 21014G23KT P6SM VCSH OVC020 FM180800
                       19010KT P6SM -SHRA OVC015 FM181100 19006KT
                       P6SM VCSH OVC025 FM181500 21009KT P6SM OVC035
                       FM190000 17007KT P6SM -SHRA OVC040 FM190600
                       15008KT P6SM VCSH OVC030=
202411180301 KSEA 180301Z 1803/1906 21012G21KT P6SM VCSH OVC020 FM180700 19010KT
                       P6SM -SHRA OVC015 FM181100 19006KT P6SM
                       VCSH OVC025 FM181500 21009KT P6SM OVC035
                       FM182000 17006KT P6SM -SHRA OVC040=
202411172320 TAF KSEA 172320Z 1800/1906 21013G20KT P6SM FEW013 BKN018 BKN120
                       FM180200 19008G18KT P6SM -SHRA OVC030 FM180900
                       19008KT P6SM -SHRA OVC015 FM181500 20010KT
                       P6SM OVC035 FM182000 20010KT P6SM OVC040=
202411172057 KSEA 172057Z 1721/1824 21013KT P6SM VCSH BKN025 BKN030 OVC050 FM180200
                       19008G18KT P6SM -SHRA OVC030 FM180900 19008KT
                       P6SM -SHRA OVC015 FM181500 20010KT P6SM
                       OVC035=
202411171720 TAF KSEA 171720Z 1718/1824 20010KT P6SM FEW010 BKN015 BKN050 FM171900
                       22013KT P6SM -SHRA OVC020 FM180200 19008G18KT
                       P6SM -SHRA OVC030 FM180900 19008KT P6SM
                       -SHRA OVC015=
202411171412 KSEA 171412Z 1714/1818 20012G25KT P6SM -RA FEW020 OVC050 FM171600
                       19010KT 6SM -SHRA BR OVC015 FM171900 22010KT
                       P6SM -SHRA OVC020 FM180200 19008KT P6SM
                       -SHRA OVC030 FM180900 19008KT P6SM -SHRA
                       OVC015=
202411171140 TAF KSEA 171140Z 1712/1818 20010G20KT P6SM -RA OVC013 FM171600
                       19010KT 6SM -SHRA BR OVC015 FM171900 22010KT
                       P6SM -SHRA OVC020 FM180200 19008KT P6SM
                       -SHRA OVC030 FM180900 19008KT P6SM -SHRA
                       OVC015=
202411170850 KSEA 170850Z 1709/1812 18010KT 5SM -SHRA BR OVC013 FM171200 20008KT
                       P6SM -RA OVC015 FM171900 22010KT P6SM -SHRA
                       OVC020 FM180100 20009KT P6SM -SHRA OVC030=
202411170520 TAF KSEA 170520Z 1706/1812 18010KT 5SM -SHRA OVC018 FM171200 20008KT
                       P6SM -RA OVC015 FM171900 22010KT P6SM -SHRA
                       OVC020 FM180100 20009KT P6SM -SHRA OVC030=
202411170302 KSEA 170302Z 1703/1806 20007KT P6SM -RA SCT010 OVC025 FM170600
                       18010KT 5SM -RA OVC015 FM171200 20008KT
                       P6SM -RA OVC020 FM171900 22010KT P6SM -SHRA
                       OVC025 FM180100 20009KT P6SM -SHRA OVC030=
202411170000 KSEA 170000Z 1700/1806 17010KT P6SM -RA OVC030 FM170600 20013G22KT
                       5SM -RA OVC015 FM171200 19010KT P6SM -RA
                       OVC015 FM171900 20008KT P6SM -SHRA OVC045=
202411162348 TAF KSEA 162348Z 1700/1806 17010G20KT P6SM -RA OVC030 FM170600
                       20013G22KT 5SM -RA OVC015 FM171200 19010KT
                       P6SM -RA OVC015 FM171900 20008KT P6SM -SHRA
                       OVC045=
202411162103 KSEA 162103Z 1621/1724 17010G20KT P6SM -RA OVC040 FM162300 17010G20KT
                       5SM -RA OVC025 FM170600 20013G22KT 5SM -RA
                       BR OVC012 FM171200 19010KT 5SM -RA BR OVC012=
202411161746 TAF KSEA 161746Z 1618/1724 15007KT P6SM VCSH BKN045 FM162000 17007KT
                       P6SM -RA OVC040 FM162300 17006KT 5SM -RA
                       OVC025 FM170600 20013G22KT 5SM -RA BR OVC012
                       FM171200 19010KT 5SM -RA BR OVC012=
202411161435 KSEA 161435Z 1615/1718 15007KT P6SM VCSH BKN040 OVC100 FM161800
                       17006KT P6SM -RA OVC025 FM162300 16006KT
                       4SM -RA OVC020 FM170300 17009KT 5SM -RA
                       BR OVC015 FM171000 20013G22KT 5SM -RA BR
                       OVC012=
202411161127 TAF KSEA 161127Z 1612/1718 15004KT P6SM VCSH SCT040 OVC100 FM161400
                       15005KT P6SM VCSH OVC040 FM161800 17006KT
                       P6SM -RA OVC025 FM162300 16006KT 4SM -RA
                       OVC020 FM170300 17009KT 5SM -RA BR OVC015
                       FM171000 20013G22KT 5SM -RA BR OVC012=
202411160917 KSEA 160917Z 1609/1712 13005KT P6SM SCT020 OVC040
                      TEMPO 1609/1610 5SM -RA BR OVC020 FM161200
                       15004KT P6SM VCSH OVC030 FM161800 17006KT
                       P6SM -RA OVC025 FM162300 16006KT 4SM -RA
                       OVC020 FM170300 17009KT 5SM -RA BR OVC015=
202411160521 TAF KSEA 160521Z 1606/1712 VRB03KT P6SM VCSH SCT020 OVC030
                      TEMPO 1606/1610 5SM -RA BR OVC020 FM161200
                       15004KT P6SM VCSH OVC030 FM161800 17006KT
                       P6SM -RA OVC025 FM162300 16006KT 4SM -RA
                       OVC020 FM170300 17009KT 5SM -RA BR OVC015=
202411160300 KSEA 160300Z 1603/1706 18004KT P6SM BKN020 FM160600 15005KT P6SM
                       OVC030 FM161800 17006KT P6SM -RA OVC025
                       FM162300 16006KT 4SM -RA OVC020=
202411152331 TAF KSEA 152331Z 1600/1706 30004KT P6SM SCT025 BKN050 FM160200
                       VRB04KT P6SM SCT050 BKN200 FM160600 15005KT
                       P6SM OVC040 FM161800 17006KT P6SM -RA OVC040
                       FM162300 16006KT 4SM -RA OVC020=
202411152059 KSEA 152059Z 1521/1624 30004KT P6SM SCT025 BKN050 FM160200 VRB04KT
                       P6SM SCT050 BKN200 FM160600 15005KT P6SM
                       OVC040 FM161800 17006KT P6SM -RA OVC040
                       FM162000 16006KT 4SM -RA OVC030=
202411151744 TAF KSEA 151744Z 1518/1624 30004KT P6SM SCT025 BKN050 FM160200
                       VRB04KT P6SM SCT050 BKN200 FM160600 15005KT
                       P6SM OVC040 FM161800 16006KT P6SM -RA OVC040=
202411151409 KSEA 151409Z 1514/1618 VRB04KT P6SM SCT025 BKN045 FM151800 30004KT
                       P6SM SCT025 BKN050 FM160200 VRB04KT P6SM
                       SCT050 BKN200 FM160600 15005KT P6SM OVC040=
202411151120 TAF KSEA 151120Z 1512/1618 20004KT P6SM VCSH BKN025 FM151800 30004KT
                       P6SM SCT025 BKN050 FM160200 VRB04KT P6SM
                       SCT050 BKN200 FM160600 15005KT P6SM OVC040=
202411150911 KSEA 150911Z 1509/1612 VRB03KT P6SM VCSH SCT020 OVC040 FM151200
                       13005KT P6SM VCSH OVC020 FM151900 31004KT
                       P6SM BKN050 FM160200 VRB04KT P6SM SCT050
                       BKN250 FM160500 12004KT P6SM OVC040=
202411150522 TAF KSEA 150522Z 1506/1612 04008KT P6SM VCSH SCT020 OVC040 FM151200
                       13005KT P6SM VCSH OVC020 FM151900 31004KT
                       P6SM BKN050 FM160200 VRB04KT P6SM SCT050
                       BKN250 FM160500 12004KT P6SM OVC040=
202411150408 KSEA 150408Z 1504/1606 02010KT P6SM -SHRA SCT020 OVC035 FM150600
                       16006KT P6SM VCSH SCT012 OVC035 FM150800
                       18005KT P6SM VCSH OVC022 FM151900 31004KT
                       P6SM BKN050 FM160200 VRB04KT P6SM SCT050
                       BKN250=
202411150312 KSEA 150312Z 1503/1606 02010KT P6SM -RA SCT020 OVC030 FM150400
                       14006KT P6SM -SHRA BKN010 OVC020 FM150600
                       16006KT P6SM VCSH SCT012 OVC035 FM150800
                       18005KT P6SM VCSH OVC022 FM151900 31004KT
                       P6SM BKN050=
202411150234 KSEA 150234Z 1503/1606 02010G20KT 2SM RA BR BKN010 OVC020 FM150400
                       14006KT P6SM -SHRA BKN010 OVC020
                      TEMPO 1504/1506 36006KT 3SM RA BR OVC010
                       FM150600 16006KT P6SM VCSH SCT012 OVC035
                       FM150800 18005KT P6SM VCSH OVC022 FM151900
                       31004KT P6SM BKN050=
202411150226 KSEA 150226Z 1502/1606 17006KT P6SM -SHRA BKN010 OVC020
                      TEMPO 1502/1506 02006KT 2SM RA BR FM150600
                       16006KT P6SM VCSH SCT012 OVC035 FM150800
                       18005KT P6SM VCSH OVC022 FM151900 31004KT
                       P6SM BKN050=
202411150057 KSEA 150057Z 1501/1606 17006KT P6SM -SHRA BKN050
                      TEMPO 1503/1506 02006KT FM150600 16006KT
                       P6SM VCSH SCT022 OVC035 FM150800 18005KT
                       P6SM VCSH OVC022 FM151900 31004KT P6SM BKN050=
202411142348 TAF KSEA 142348Z 1500/1606 17006KT P6SM -SHRA BKN050 FM150600 16006KT
                       P6SM VCSH SCT022 OVC035 FM150800 18005KT
                       P6SM VCSH OVC022 FM151900 31004KT P6SM BKN050=
202411142001 KSEA 142001Z 1420/1524 22009G15KT P6SM VCSH BKN020 OVC035 FM150000
                       17006KT P6SM -SHRA BKN022 OVC035 FM150600
                       16006KT P6SM SCT022 OVC035 FM150900 18005KT
                       P6SM OVC022 FM152000 22004KT P6SM BKN050=
202411141939 KSEA 141939Z 1420/1524 22009G15KT P6SM VCSH BKN015 OVC035 FM142030
                       22009KT P6SM VCSH SCT015 OVC035
                      TEMPO 1421/1423 BKN025 FM150000 17006KT P6SM
                       -SHRA BKN022 OVC035 FM150600 16006KT P6SM
                       SCT022 OVC035 FM150900 18005KT P6SM OVC022
                       FM152000 22004KT P6SM BKN050=
202411141847 KSEA 141847Z 1419/1524 22009KT P6SM VCSH BKN015 OVC035 FM141915
                       22009KT P6SM VCSH SCT015 OVC035
                      TEMPO 1421/1423 BKN025 FM150000 17006KT P6SM
                       -SHRA BKN022 OVC035 FM150600 16006KT P6SM
                       SCT022 OVC035 FM150900 18005KT P6SM OVC022
                       FM152000 22004KT P6SM BKN050=
202411141836 KSEA 141836Z 1419/1524 22009KT P6SM VCSH SCT015 OVC035
                      TEMPO 1421/1423 BKN025 FM150000 17006KT P6SM
                       -SHRA BKN022 OVC035 FM150600 16006KT P6SM
                       SCT022 OVC035 FM150900 18005KT P6SM OVC022
                       FM152000 22004KT P6SM BKN050=
202411141749 KSEA 141749Z 1418/1524 19010G18KT P6SM VCSH BKN025 OVC040 FM141900
                       22009KT P6SM -SHRA SCT025 OVC035
                      TEMPO 1421/1423 BKN025 FM150000 17006KT P6SM
                       -SHRA BKN022 OVC035 FM150600 16006KT P6SM
                       SCT022 OVC035 FM150900 18005KT P6SM OVC022
                       FM152000 22004KT P6SM BKN050=
202411141740 TAF KSEA 141740Z 1418/1524 19010G18KT P6SM VCSH BKN025 OVC040 FM141900
                       22009KT P6SM -SHRA SCT025 OVC035
                      TEMPO 1419/1421 BKN025 FM150300 17006KT P6SM
                       -SHRA SCT022 OVC035 FM150900 18005KT P6SM
                       OVC022 FM152000 22004KT P6SM BKN050=
202411141120 TAF KSEA 141120Z 1412/1518 18014G22KT P6SM -SHRA BKN022 OVC040
                       FM141600 18012G18KT P6SM -SHRA BKN025 OVC040
                       FM142000 22009KT P6SM -SHRA SCT025 OVC035
                       FM150300 17006KT P6SM VCSH SCT022 OVC035
                       FM150900 18005KT P6SM OVC022=
202411141027 KSEA 141027Z 1410/1512 18015G25KT P6SM -SHRA BKN030 OVC050 FM141400
                       18012G18KT P6SM -SHRA BKN025 OVC040 FM150000
                       22009KT P6SM -SHRA SCT027 OVC035 FM150300
                       17006KT P6SM SCT030 OVC040
                      PROB30 1503/1504 -RA=
202411140858 KSEA 140858Z 1409/1512 18011KT P6SM -SHRA BKN035 OVC050 FM141400
                       18011KT P6SM -SHRA BKN025 OVC040 FM150000
                       22009KT P6SM -SHRA SCT027 OVC035 FM150300
                       17006KT P6SM SCT030 OVC040
                      PROB30 1503/1504 -RA=
202411140520 TAF KSEA 140520Z 1406/1512 17012G20KT P6SM OVC050 FM140900 19010G18KT
                       P6SM -SHRA BKN015 OVC030 FM141400 19014KT
                       P6SM -SHRA BKN015 OVC025 FM150000 22009KT
                       P6SM -SHRA SCT027 OVC035 FM150300 17006KT
                       P6SM SCT030 OVC040
                      PROB30 1503/1504 -RA=
202411140252 KSEA 140252Z 1403/1506 17012KT P6SM OVC060 FM140900 19010G18KT
                       P6SM -SHRA BKN015 OVC030 FM141400 19014KT
                       P6SM -SHRA BKN015 OVC025 FM150000 22009KT
                       P6SM -SHRA SCT027 OVC035=
202411140047 KSEA 140047Z 1401/1506 18015G25KT P6SM -RA BKN045 OVC060 FM140300
                       18011G24KT P6SM -SHRA SCT015 BKN022 OVC030
                       FM140900 19010G18KT P6SM -SHRA BKN015 OVC025
                       FM150000 22009KT P6SM -SHRA SCT027 OVC035=
202411132343 KSEA 132343Z 1400/1506 18015G25KT P6SM -RA BKN045 OVC060
                      TEMPO 1400/1401 3SM RA BR FM140300 18011G24KT
                       P6SM -SHRA SCT015 BKN022 OVC030 FM140900
                       19010G18KT P6SM -SHRA BKN015 OVC025 FM150000
                       22009KT P6SM -SHRA SCT027 OVC035=
202411132322 TAF KSEA 132322Z 1400/1506 18015G25KT P6SM -RA BKN045 OVC060 FM140300
                       18011G24KT P6SM -SHRA SCT015 BKN022 OVC030
                       FM140900 19010G18KT P6SM -SHRA BKN015 OVC025
                       FM150000 22009KT P6SM -SHRA SCT027 OVC035=
202411132054 KSEA 132054Z 1321/1424 18012KT P6SM -SHRA BKN045 OVC060 FM140300
                       18011KT P6SM -SHRA SCT015 BKN022 OVC030
                       FM140900 19011KT P6SM -SHRA BKN015 OVC025
                       FM142300 22009KT P6SM -SHRA BKN027 OVC035=
202411131722 TAF KSEA 131722Z 1318/1424 20013G21KT P6SM -SHRA BKN035 OVC040
                       FM132000 18012KT P6SM -SHRA SCT025 BKN035
                       OVC050 FM140300 18011KT P6SM -SHRA SCT015
                       BKN022 OVC030 FM140900 19011KT P6SM -SHRA
                       BKN015 OVC025 FM142300 22009KT P6SM -SHRA
                       BKN027 OVC035=
202411131526 KSEA 131526Z 1315/1418 20013G21KT P6SM -SHRA BKN035 OVC040 FM132000
                       18012KT P6SM -SHRA SCT025 BKN035 OVC050
                       FM140300 18011KT P6SM -SHRA SCT015 BKN022
                       OVC030 FM140900 19011KT P6SM -SHRA BKN015
                       OVC025=
202411131258 KSEA 131258Z 1313/1418 18010KT 6SM -RA BR OVC035 WS020/18045KT
                       FM131500 20013G21KT P6SM -SHRA BKN025 OVC035
                       FM132000 18012KT P6SM -SHRA SCT025 BKN035
                       OVC050 FM140300 18011KT P6SM -SHRA SCT015
                       BKN022 OVC030 FM140900 19011KT P6SM -SHRA
                       BKN015 OVC025=
202411131124 TAF KSEA 131124Z 1312/1418 19014G22KT 6SM -RA BR OVC035 WS020/18045KT
                       FM131500 20013G21KT P6SM -SHRA BKN025 OVC035
                       FM132000 18012KT P6SM -SHRA SCT025 BKN035
                       OVC050 FM140300 18011KT P6SM -SHRA SCT015
                       BKN022 OVC030 FM140900 19011KT P6SM -SHRA
                       BKN015 OVC025=
202411130900 KSEA 130900Z 1309/1412 14011KT P6SM OVC040 FM131000 16018G28KT
                       6SM RA BR OVC035 WS020/18045KT FM131500
                       20015G25KT P6SM -SHRA BKN025 OVC035 FM132000
                       18012KT P6SM -SHRA SCT025 BKN035 OVC050
                       FM140300 18012KT P6SM -SHRA SCT015 BKN022
                       OVC030=
202411130530 TAF KSEA 130530Z 1306/1412 14012KT P6SM -RA OVC045 FM130900 15018G28KT
                       6SM RA BR OVC035 WS020/18045KT FM131500
                       20015G25KT P6SM -SHRA BKN025 OVC035 FM132000
                       18012KT P6SM -SHRA SCT025 BKN035 OVC050
                       FM140300 18012KT P6SM -SHRA SCT015 BKN022
                       OVC030=
202411130316 KSEA 130316Z 1303/1406 18014KT P6SM -RA OVC045 FM130800 15018G28KT
                       6SM RA BR OVC035 WS020/18045KT FM131500
                       20015G25KT P6SM -RA OVC024=
202411130011 KSEA 130011Z 1300/1406 20009KT P6SM VCSH OVC035 FM130500 15015G25KT
                       6SM RA BR OVC030 WS020/18045KT FM131000
                       19015G35KT P6SM -RA OVC025 WS020/18045KT
                       FM131500 20015G25KT P6SM -RA OVC022 FM132300
                       20010G25KT P6SM -RA OVC027=
202411122320 TAF KSEA 122320Z 1300/1406 20009KT P6SM VCSH SCT022 BKN030 OVC035
                       FM130500 15015G25KT 6SM RA BR OVC030 WS020/18045KT
                       FM131000 19015G35KT P6SM -RA OVC025 WS020/18045KT
                       FM131500 20015G25KT P6SM -RA OVC022 FM132300
                       20010G25KT P6SM -RA OVC027=
202411122045 KSEA 122045Z 1221/1324 20009KT P6SM VCSH SCT022 BKN026 OVC035 FM130100
                       14010KT P6SM -RA SCT035 OVC050 FM130500
                       15015G25KT P6SM -RA OVC035 WS020/18045KT
                       FM131000 19015G35KT P6SM -RA OVC025 WS020/18045KT
                       FM131500 20015G25KT P6SM -RA OVC022=
202411121722 TAF KSEA 121722Z 1218/1324 19012G20KT P6SM SCT025 BKN040 BKN110
                       FM122000 17009KT P6SM SCT035 OVC060 FM130100
                       14010KT P6SM -RA SCT035 OVC050 FM130500
                       15015G25KT P6SM -RA OVC035 WS020/18045KT
                       FM131000 19015G35KT P6SM -RA OVC025 WS020/18045KT
                       FM131500 20015G25KT P6SM -RA OVC022=
202411121508 KSEA 121508Z 1215/1318 19012G20KT P6SM SCT025 BKN035 OVC050 FM122000
                       17009KT P6SM SCT035 OVC060 FM130100 14010KT
                       P6SM -RA SCT035 OVC050 FM130500 15015G25KT
                       P6SM -RA OVC035 WS020/18045KT=
202411121208 KSEA 121208Z 1212/1318 19012G20KT P6SM SCT025 BKN035 OVC050
                      TEMPO 1212/1216 -SHRA BKN020 OVC035 FM122000
                       17009KT P6SM SCT035 OVC060 FM130100 14010KT
                       P6SM -RA SCT035 OVC050 FM130500 15015G25KT
                       P6SM -RA OVC035 WS020/18045KT=
202411121126 TAF KSEA 121126Z 1212/1318 19012KT P6SM SCT025 BKN035 OVC050
                      TEMPO 1212/1216 -SHRA BKN020 OVC035 FM122000
                       17008KT P6SM SCT035 OVC060 FM130100 14010KT
                       P6SM -RA SCT035 OVC050 FM130500 15015G25KT
                       P6SM -RA OVC035 WS020/18045KT=
202411120903 KSEA 120903Z 1209/1312 19012KT P6SM SCT025 BKN035 OVC050
                      TEMPO 1209/1213 -SHRA BKN025 OVC035 FM122000
                       17008KT P6SM SCT035 OVC060 FM130100 17008KT
                       P6SM -RA SCT035 OVC060 FM130500 15015G25KT
                       P6SM -RA OVC025=
202411120540 TAF KSEA 120540Z 1206/1312 19012KT P6SM SCT025 BKN035 OVC050
                      TEMPO 1206/1210 -SHRA BKN025 OVC035 FM122000
                       17008KT P6SM SCT035 OVC060 FM130100 17008KT
                       P6SM -RA SCT035 OVC060 FM130500 15015G25KT
                       P6SM -RA OVC025=
202411120301 KSEA 120301Z 1203/1306 18011KT P6SM -SHRA BKN030 OVC045 FM120500
                       18011KT P6SM -SHRA SCT030 BKN045 FM121200
                       18011KT P6SM VCSH BKN025 FM121600 19010KT
                       P6SM OVC040 FM130000 18010KT P6SM -RA OVC025
                       FM130300 15015G25KT P6SM -RA OVC025=
202411112326 TAF KSEA 112326Z 1200/1306 18012G22KT P6SM -SHRA FEW020 BKN040
                       BKN250 FM121200 18011KT P6SM VCSH BKN025
                       FM121600 19010KT P6SM OVC040 FM130000 18010KT
                       P6SM -RA OVC025 FM130300 15015G25KT P6SM
                       -RA OVC025=
202411112105 KSEA 112105Z 1121/1224 21012G19KT P6SM -SHRA SCT020 OVC035 FM120000
                       18012G18KT P6SM -RA BKN022 OVC040 FM121400
                       18011KT P6SM VCSH BKN025=
202411111734 TAF KSEA 111734Z 1118/1224 19012G22KT P6SM -SHRA SCT015 SCT030
                       BKN050 FM112000 20010KT P6SM -SHRA SCT025
                       OVC050 FM120000 18012G18KT P6SM -RA BKN022
                       OVC040 FM121400 18011KT P6SM VCSH BKN025=
202411111633 KSEA 111633Z 1117/1218 18013KT P6SM -SHRA BKN020 BKN120 FM112000
                       20010KT P6SM -SHRA SCT025 OVC050 FM120500
                       18012G18KT P6SM -RA BKN022 OVC040 FM121400
                       18011KT P6SM VCSH BKN025=
202411111122 TAF KSEA 111122Z 1112/1218 15009KT 6SM -RA BR OVC035 FM111600 18010G18KT
                       P6SM -SHRA SCT025 BKN035 OVC050 FM112000
                       20010KT P6SM -SHRA SCT025 OVC050 FM120500
                       18012G18KT P6SM -RA BKN022 OVC040 FM121400
                       18011KT P6SM VCSH BKN025=
202411110858 KSEA 110858Z 1109/1212 12012KT 6SM -RA OVC035 FM111200 14012G18KT
                       5SM -RA OVC022 FM111600 18010G18KT P6SM
                       -SHRA SCT025 BKN035 OVC050 FM112000 20010KT
                       P6SM -SHRA SCT025 OVC050 FM120600 18010KT
                       P6SM -RA BKN022 OVC040=
202411110538 TAF KSEA 110538Z 1106/1212 12012KT P6SM -RA OVC050 FM111200 14012G18KT
                       5SM -RA OVC022 FM111600 18010G18KT P6SM
                       -SHRA SCT025 BKN035 OVC050 FM112000 20010KT
                       P6SM -SHRA SCT025 OVC050 FM120600 18010KT
                       P6SM -RA BKN022 OVC040=
202411110323 KSEA 110323Z 1103/1206 12008KT P6SM -RA OVC040 FM110900 14008G17KT
                       5SM -RA OVC022 FM111400 18010G18KT P6SM
                       -RA OVC035 FM111600 19009KT P6SM -SHRA OVC050=
202411102326 TAF KSEA 102326Z 1100/1206 18003KT P6SM BKN060 FM110230 12008KT
                       P6SM -RA OVC040 FM110900 14008G17KT 5SM
                       -RA OVC022 FM111400 18010G18KT P6SM -RA
                       OVC035 FM111600 19009KT P6SM -SHRA OVC050=
202411102050 KSEA 102050Z 1021/1124 18003KT P6SM BKN060 FM110230 12008KT P6SM
                       -RA OVC040 FM110900 14008KT 5SM -RA OVC022
                       FM111400 18010G18KT P6SM -RA OVC035=
202411101748 TAF KSEA 101748Z 1018/1124 18003KT P6SM BKN060 FM110230 12008KT
                       P6SM -RA OVC040 FM110900 14008KT 5SM -RA
                       OVC022 FM111400 18010G18KT P6SM -RA OVC035=
202411101427 KSEA 101427Z 1014/1118 17006KT P6SM SCT015 OVC040 FM101900 16006KT
                       P6SM SCT035 OVC050 FM110100 12008KT P6SM
                       -RA OVC040 FM110600 12008KT 5SM -RA OVC022
                       FM111100 18014KT P6SM -RA OVC015=
202411101304 KSEA 101304Z 1013/1118 17006KT P6SM SCT015 OVC035 FM101900 16006KT
                       P6SM SCT035 OVC050 FM110100 12008KT P6SM
                       -RA OVC040 FM110600 12008KT 5SM -RA OVC022
                       FM111100 18014KT P6SM -RA OVC015=
202411101139 TAF KSEA 101139Z 1012/1118 16003KT P6SM SCT008 OVC015 FM101700
                       14006KT P6SM SCT015 BKN025 OVC040 FM101900
                       14006KT P6SM SCT035 OVC050 FM110100 12008KT
                       P6SM -RA OVC040 FM110600 12008KT 5SM -RA
                       OVC022 FM111100 18014KT P6SM -RA OVC015=
202411100859 KSEA 100859Z 1010/1112 00000KT 6SM BR SCT006 OVC014 FM101400 16006KT
                       P6SM SCT008 OVC014 FM101700 14006KT P6SM
                       SCT015 BKN025 OVC040 FM101900 14006KT P6SM
                       SCT035 OVC050 FM110100 12008KT P6SM -RA
                       OVC040 FM110600 12008KT 5SM -RA OVC022=
202411100700 KSEA 100700Z 1007/1112 00000KT 2SM BR BKN002 OVC012 FM100900 00000KT
                       4SM BR BKN006 OVC012 FM101400 16006KT P6SM
                       SCT008 OVC014 FM101700 14006KT P6SM SCT015
                       BKN025 OVC040 FM101900 14006KT P6SM SCT035
                       OVC050 FM110100 12008KT P6SM -RA OVC040
                       FM110600 12008KT 5SM -RA OVC022=
202411100539 TAF KSEA 100539Z 1006/1112 16006KT 3SM BR BKN006 OVC012 FM101400
                       16006KT P6SM SCT008 OVC014 FM101700 14006KT
                       P6SM SCT015 BKN025 OVC040 FM101900 14006KT
                       P6SM SCT035 OVC050 FM110100 12008KT P6SM
                       -RA OVC040 FM110600 12008KT 5SM -RA OVC022=
202411100107 KSEA 100107Z 1001/1106 19005KT P6SM VCSH OVC025 FM101200 18003KT
                       P6SM OVC020 FM101600 14004KT P6SM OVC035=
202411092345 TAF KSEA 092345Z 1000/1106 21004KT 4SM -SHRA SCT025 OVC045 FM100200
                       15003KT P6SM VCSH OVC025 FM101200 18003KT
                       P6SM OVC020 FM101600 14004KT P6SM OVC035=
202411092232 KSEA 092232Z 0923/1024 00000KT P6SM SCT028 OVC035 FM100000 18006KT
                       P6SM -SHRA OVC015 FM100500 16003KT P6SM
                       OVC025 FM101200 17004KT P6SM OVC007 FM101700
                       14003KT P6SM OVC025=
202411092100 KSEA 092100Z 0921/1024 19004KT P6SM -SHRA OVC045 FM092300 20006KT
                       P6SM -SHRA OVC030 FM100000 18006KT 5SM -SHRA
                       BR OVC015 FM100500 16003KT P6SM OVC025 FM101200
                       17004KT 6SM BR OVC007 FM101700 14003KT P6SM
                       OVC025=
202411091736 TAF KSEA 091736Z 0918/1024 19004KT P6SM -SHRA SCT060 OVC080 FM092300
                       20006KT P6SM -SHRA OVC030 FM100000 18006KT
                       5SM -SHRA BR OVC015 FM100500 16003KT P6SM
                       OVC025 FM101200 17004KT 6SM BR OVC007 FM101700
                       14003KT P6SM OVC025=
202411091356 KSEA 091356Z 0914/1018 17004KT P6SM VCSH SCT060 OVC080 FM091600
                       20006KT 6SM -RA BR OVC030 FM100000 18006KT
                       4SM -RA BR OVC015 FM100500 16003KT P6SM
                       OVC025 FM101200 17004KT 6SM BR OVC007=
202411091132 TAF KSEA 091132Z 0912/1018 16004KT P6SM OVC100 FM091300 15006KT
                       P6SM VCSH OVC060 FM091600 20006KT 6SM -RA
                       BR OVC030 FM100000 18006KT 4SM -RA BR OVC015
                       FM100500 16003KT P6SM OVC025 FM101200 17004KT
                       6SM BR OVC007=
202411090906 KSEA 090906Z 0909/1012 18006KT P6SM SCT080 BKN110 FM091000 16004KT
                       P6SM OVC100 FM091200 15006KT P6SM VCSH OVC040
                       FM091800 20006KT 6SM -RA BR OVC030 FM100000
                       18006KT 4SM -RA BR OVC015 FM100500 16003KT
                       P6SM VCSH OVC025=
202411090540 TAF KSEA 090540Z 0906/1012 18006KT P6SM SCT080 BKN110 FM091000
                       16004KT P6SM OVC100 FM091200 15006KT P6SM
                       VCSH OVC040 FM091800 20006KT 6SM -RA BR
                       OVC030 FM100000 18006KT 4SM -RA BR OVC015
                       FM100500 16003KT P6SM VCSH OVC025=
202411090301 KSEA 090301Z 0903/1006 18005KT P6SM SCT150 BKN220 FM090700 16004KT
                       P6SM OVC100 FM091200 15006KT P6SM -SHRA
                       OVC040 FM091800 20006KT 5SM -SHRA BR OVC030
                       TEMPO 0921/0924 3SM -RA BR OVC020 FM100000
                       18006KT 6SM -SHRA BR OVC015=
202411082323 TAF KSEA 082323Z 0900/1006 18005KT P6SM SCT150 BKN200 FM090700
                       16004KT P6SM OVC100 FM091200 15006KT P6SM
                       -SHRA OVC040 FM091800 20006KT 5SM -SHRA
                       BR OVC030
                      TEMPO 0921/0924 3SM -RA BR OVC020 FM100000
                       18006KT 6SM -SHRA BR OVC015=
202411082056 KSEA 082056Z 0821/0924 18005KT P6SM SCT120 BKN200 FM090500 16004KT
                       P6SM OVC100 FM091100 15006KT P6SM -SHRA
                       OVC040 FM091800 20006KT P6SM -SHRA OVC030
                       TEMPO 0921/0924 3SM -RA BR OVC020=
202411081720 TAF KSEA 081720Z 0818/0924 18005KT P6SM SCT120 BKN200 FM090500
                       16004KT P6SM OVC100 FM091100 15006KT P6SM
                       -SHRA OVC040 FM091800 20006KT P6SM -SHRA
                       OVC030=
202411081356 KSEA 081356Z 0814/0918 14006KT P6SM BKN180 FM081800 19005KT P6SM
                       OVC200 FM090500 16004KT P6SM OVC100 FM091100
                       15006KT P6SM -SHRA OVC040=
202411081124 TAF KSEA 081124Z 0812/0918 14010KT P6SM BKN180 FM081800 19005KT
                       P6SM OVC200 FM090500 16004KT P6SM OVC100
                       FM091100 15006KT P6SM -SHRA OVC040=
202411080906 KSEA 080906Z 0809/0912 14010KT P6SM BKN180 FM081800 19005KT P6SM
                       OVC200 FM090500 16004KT P6SM OVC100 FM091100
                       15006KT P6SM -SHRA OVC040=
202411080539 TAF KSEA 080539Z 0806/0912 17004KT P6SM BKN180 FM081800 19005KT
                       P6SM OVC200 FM090500 16004KT P6SM OVC100=
202411080257 KSEA 080257Z 0803/0906 17004KT P6SM BKN180 FM081800 18005KT P6SM
                       OVC200=
202411072320 TAF KSEA 072320Z 0800/0906 15004KT P6SM BKN200 FM081800 18005KT
                       P6SM OVC200=
202411072059 KSEA 072059Z 0721/0824 26004KT P6SM SCT050 SCT200 FM080300 15004KT
                       P6SM BKN200 FM081800 18005KT P6SM OVC200=
202411071720 TAF KSEA 071720Z 0718/0824 VRB03KT P6SM SCT050 SCT200 FM080300
                       15004KT P6SM BKN200 FM081800 18005KT P6SM
                       OVC200=
202411071122 TAF KSEA 071122Z 0712/0818 04004KT P6SM SCT200 FM071800 VRB03KT
                       P6SM SCT050 SCT200 FM080300 15004KT P6SM
                       BKN200=
202411070903 KSEA 070903Z 0709/0812 VRB03KT P6SM SCT200 FM071200 08004KT 6SM
                       BR BKN006 FM071800 17003KT P6SM SCT007 BKN250
                       FM072100 20003KT P6SM SCT250 FM080300 17004KT
                       P6SM BKN200=
202411070521 TAF KSEA 070521Z 0706/0812 03005KT P6SM SCT200 FM071200 08004KT
                       6SM BR BKN006 FM071800 17003KT P6SM SCT007
                       BKN250 FM072100 20003KT P6SM SCT250 FM080300
                       17004KT P6SM BKN200=
202411070251 KSEA 070251Z 0703/0806 03005KT P6SM SCT060 SCT200 FM071200 08004KT
                       6SM BR BKN004 FM071800 17003KT P6SM SCT007
                       BKN250 FM072100 20003KT P6SM SCT250 FM080300
                       14004KT P6SM BKN250=
202411062320 TAF KSEA 062320Z 0700/0806 36005KT P6SM BKN060 FM070400 03005KT
                       P6SM SCT060 SCT200 FM071200 08004KT 6SM
                       BR BKN004 FM071800 17003KT P6SM SCT007 BKN250
                       FM072100 20003KT P6SM SCT250 FM080300 14004KT
                       P6SM BKN250=
202411062104 KSEA 062104Z 0621/0724 VRB03KT P6SM SCT100 BKN200 FM062200 36004KT
                       P6SM SCT045 SCT100 SCT200 FM070400 03005KT
                       P6SM SCT200 FM071200 08004KT 6SM BR BKN004
                       FM071800 14003KT P6SM SCT007 BKN250 FM072100
                       18003KT P6SM SCT250=
202411061740 KSEA 061740Z 0618/0724 VRB03KT P6SM SCT100 BKN200 FM062000 36004KT
                       P6SM SCT045 SCT100 SCT200 FM070400 05005KT
                       P6SM SCT200 FM071200 09004KT 6SM BR BKN004
                       FM071800 14003KT P6SM SCT007 BKN250=
202411061720 TAF KSEA 061720Z 0618/0724 VRB03KT P6SM SCT100 BKN200 FM062000
                       36004KT P6SM SCT045 SCT100 SCT200 FM070400
                       05005KT P6SM SCT200 FM071200 09004KT 6SM
                       BR BKN004=
202411061120 TAF KSEA 061120Z 0612/0718 12005KT P6SM SCT002 BKN100 FM061700
                       VRB03KT P6SM BKN100 FM062000 36004KT P6SM
                       SCT045 BKN100 FM070000 02004KT P6SM BKN200
                       FM070400 05005KT P6SM SCT200 FM071200 07004KT
                       6SM BR BKN004=
202411060532 TAF KSEA 060532Z 0606/0712 10004KT P6SM BKN100 FM061500 VRB03KT
                       P6SM SCT002 BKN100 FM061800 VRB03KT P6SM
                       SCT045 BKN100 FM070000 02004KT P6SM BKN200=
202411060327 KSEA 060327Z 0603/0706 10004KT P6SM BKN050 FM060700 10004KT P6SM
                       SCT050 BKN200 FM061500 VRB03KT P6SM SCT002
                       BKN200 FM061800 VRB03KT P6SM SCT045 BKN200=
202411052320 TAF KSEA 052320Z 0600/0706 06008KT P6SM SCT035 SCT060 FM060400
                       04004KT P6SM BKN100 BKN200 FM061100 10005KT
                       P6SM SCT022 BKN050 FM061500 VRB03KT P6SM
                       SCT020 BKN040 FM061800 35003KT P6SM BKN040=
202411052058 KSEA 052058Z 0521/0624 10004KT P6SM SCT030 BKN035 FM052200 35005KT
                       P6SM BKN040 FM060400 04004KT P6SM BKN100
                       BKN200 FM061100 11005KT P6SM SCT022 BKN050
                       FM061500 VRB03KT P6SM SCT020 BKN040 FM061800
                       35003KT P6SM BKN040=
202411051854 KSEA 051854Z 0519/0624 14004KT P6SM SCT025 SCT035 BKN150 FM052200
                       35005KT P6SM BKN040 FM060400 04004KT P6SM
                       BKN100 BKN200 FM061100 11005KT P6SM SCT022
                       BKN050 FM061500 VRB03KT P6SM SCT020 BKN040=
202411051720 TAF KSEA 051720Z 0518/0624 20005KT P6SM SCT050 BKN150 FM052200
                       35005KT P6SM BKN050 FM060400 04004KT P6SM
                       BKN100 BKN200 FM061100 11005KT P6SM SCT022
                       BKN050 FM061500 VRB03KT P6SM SCT020 BKN040=
202411051129 TAF KSEA 051129Z 0512/0618 15006KT P6SM SCT040 BKN200 FM051600
                       20005KT P6SM BKN050 BKN120 FM052300 35005KT
                       P6SM BKN050 FM060400 04004KT P6SM BKN100
                       BKN200 FM061100 11005KT P6SM SCT022 BKN200=
202411050858 KSEA 050858Z 0509/0612 15006KT P6SM SCT040 BKN200 FM051500 17007KT
                       P6SM BKN040 FM052300 35005KT P6SM SCT040
                       FM060400 04004KT P6SM BKN050=
202411050520 TAF KSEA 050520Z 0506/0612 20010KT P6SM SCT040 SCT090 FM051500
                       20008KT P6SM BKN040 FM052300 35006KT P6SM
                       SCT040 FM060400 04004KT P6SM BKN050=
202411050306 KSEA 050306Z 0503/0606 21012KT P6SM SCT025 SCT040 FM050600 22010KT
                       P6SM SCT040 FM051500 22008KT P6SM BKN040
                       FM052300 35006KT P6SM SCT040=
202411042338 TAF KSEA 042338Z 0500/0606 22014G24KT P6SM SCT040 FM050600 22012KT
                       P6SM SCT040 FM051500 22008KT P6SM BKN040
                       FM052300 35006KT P6SM SCT040=
202411042106 KSEA 042106Z 0421/0524 22018G28KT P6SM SCT040 FM050400 22012KT
                       P6SM SCT025 BKN040=
202411041736 TAF KSEA 041736Z 0418/0524 18014G22KT 3SM -RA OVC025 FM041900 22014G22KT
                       P6SM SCT025 BKN040 FM050600 22012KT P6SM
                       SCT025 BKN040=
202411041537 KSEA 041537Z 0416/0518 18015G25KT 5SM -RA OVC035 FM041800 18020G30KT
                       5SM -RA BKN018 OVC025 FM042100 21016G28KT
                       P6SM -RA SCT025 BKN035 FM050200 23012G25KT
                       P6SM BKN035 FM051000 22012KT P6SM BKN045=
202411041129 TAF KSEA 041129Z 0412/0518 18013KT P6SM -SHRA BKN050 OVC070 FM041300
                       18015G25KT P6SM -RA OVC035 FM041700 18020G30KT
                       5SM -RA BKN018 OVC025 FM042100 21016G28KT
                       P6SM -RA SCT025 BKN035 FM050200 23012G25KT
                       P6SM BKN035 FM051000 22012KT P6SM BKN045=
202411040853 KSEA 040853Z 0409/0512 19010KT P6SM -SHRA SCT030 BKN035 OVC100
                       FM041300 18015G25KT P6SM -RA OVC035 FM041700
                       18016G27KT 5SM -RA BKN020 OVC025 FM042100
                       21020G30KT P6SM -RA BKN015 OVC020 FM050200
                       23020G28KT P6SM BKN035=
202411040520 TAF KSEA 040520Z 0406/0512 17006KT P6SM VCSH BKN020 OVC100 FM041300
                       18012G20KT P6SM VCSH OVC035 FM041700 18016G27KT
                       5SM -RA BKN020 OVC025 FM042100 21020G30KT
                       P6SM -RA BKN015 OVC020 FM050200 23020G28KT
                       P6SM BKN035=
202411040306 KSEA 040306Z 0403/0506 17006KT P6SM FEW025 OVC100 FM040400 17006KT
                       P6SM VCSH OVC050 FM041300 18012G20KT P6SM
                       -RA OVC035 FM041700 18018G27KT P6SM -RA
                       BKN020 OVC025 FM042100 21018G25KT P6SM -RA
                       BKN015 OVC020=
202411040046 KSEA 040046Z 0401/0506 17005KT P6SM BKN040 OVC100 FM040400 17006KT
                       P6SM VCSH OVC050 FM041300 18012G20KT P6SM
                       -RA OVC035 FM041700 18018G27KT P6SM -RA
                       BKN020 OVC025 FM042100 21018G25KT P6SM -RA
                       BKN015 OVC020=
202411032320 TAF KSEA 032320Z 0400/0506 17005KT P6SM BKN015 OVC025 FM040400
                       17006KT P6SM VCSH OVC050 FM041300 18012G20KT
                       P6SM -RA OVC035 FM041700 18018G27KT P6SM
                       -RA BKN020 OVC025 FM042100 21018G25KT P6SM
                       -RA BKN015 OVC020=
202411032058 KSEA 032058Z 0321/0424 21005KT P6SM FEW009 BKN015 FM032200 17006KT
                       P6SM BKN040 FM040400 17006KT P6SM VCSH OVC040
                       FM041300 18012G20KT P6SM -RA BKN025 OVC030
                       FM041700 18015G23KT P6SM -RA BKN020 OVC025=
202411031728 TAF KSEA 031728Z 0318/0424 23006KT P6SM FEW008 BKN020 FM032100
                       21005KT P6SM VCSH OVC035 FM040400 17006KT
                       P6SM VCSH OVC040 FM041300 18012G20KT P6SM
                       -RA BKN025 OVC030 FM041700 18015G23KT P6SM
                       -RA BKN020 OVC025=
202411031600 KSEA 031600Z 0316/0418 19003KT P6SM VCSH FEW009 BKN020 FM031800
                       23006KT P6SM VCSH OVC030 FM032100 21005KT
                       P6SM VCSH OVC035 FM040900 17006KT P6SM VCSH
                       SCT030 OVC035 FM041200 18012G25KT P6SM -RA
                       BKN025 OVC030=
202411031130 TAF KSEA 031130Z 0312/0418 VRB03KT P6SM VCSH FEW009 OVC015 FM031500
                       19006KT P6SM VCSH SCT015 OVC025 FM031900
                       23006KT P6SM VCSH OVC030 FM032100 21005KT
                       P6SM VCSH OVC035 FM040900 17006KT P6SM VCSH
                       SCT030 OVC035 FM041200 18012G25KT P6SM -RA
                       BKN025 OVC030=
202411030859 KSEA 030859Z 0309/0412 14004KT P6SM VCSH OVC015 FM031500 19006KT
                       P6SM VCSH SCT015 OVC025 FM032000 21005KT
                       P6SM VCSH OVC035=
202411030526 TAF KSEA 030526Z 0306/0412 17005KT P6SM -SHRA BKN025 OVC060 FM030900
                       17004KT P6SM VCSH BKN012 FM031500 19006KT
                       P6SM VCSH SCT015 OVC025 FM032000 21005KT
                       P6SM VCSH OVC035=
202411030257 KSEA 030257Z 0303/0406 17005KT P6SM -SHRA SCT025 OVC060 FM030900
                       17004KT P6SM VCSH BKN012 FM031500 19006KT
                       P6SM VCSH BKN015 OVC025 FM032100 21005KT
                       P6SM VCSH OVC035=
202411022327 TAF KSEA 022327Z 0300/0406 23010KT P6SM SCT025 BKN035 FM030100
                       21008KT P6SM -SHRA SCT012 BKN022 OVC040
                       FM030900 17004KT P6SM VCSH BKN012 FM031500
                       19006KT P6SM VCSH BKN015 OVC025 FM032100
                       21005KT P6SM VCSH OVC035=
202411022051 KSEA 022051Z 0221/0324 23007KT P6SM SCT015 BKN035 FM030200 18008KT
                       P6SM -SHRA SCT012 BKN022 OVC040 FM030900
                       17004KT P6SM VCSH BKN012 FM031500 19006KT
                       P6SM VCSH BKN015 OVC025=
202411021720 TAF KSEA 021720Z 0218/0324 20007KT P6SM BKN015 OVC040 FM022000
                       21010KT P6SM SCT022 BKN035 FM030200 18008KT
                       P6SM -SHRA SCT012 BKN022 OVC040 FM030900
                       17004KT P6SM VCSH BKN012 FM031500 19006KT
                       P6SM VCSH BKN015 OVC025=
202411021504 KSEA 021504Z 0215/0318 20007KT P6SM SCT008 SCT030 OVC040 FM022000
                       21010KT P6SM SCT022 BKN035 FM030200 18008KT
                       P6SM -SHRA SCT012 BKN022 OVC040 FM030900
                       17004KT P6SM VCSH BKN012=
202411021124 TAF KSEA 021124Z 0212/0318 20008KT P6SM BKN008 BKN015 OVC035 FM021300
                       20007KT P6SM SCT008 SCT012 OVC022 FM022000
                       21010KT P6SM SCT022 BKN035 FM030200 18008KT
                       P6SM -SHRA SCT012 BKN022 OVC040 FM030900
                       17004KT P6SM VCSH BKN012=
202411020858 KSEA 020858Z 0209/0312 19010KT P6SM SCT009 SCT020 BKN050 FM021000
                       17008KT P6SM SCT012 OVC022 FM021600 17008KT
                       P6SM -SHRA BKN012 OVC022 FM022100 21010KT
                       P6SM SCT022 BKN035 FM030200 18008KT P6SM
                       -SHRA SCT012 BKN022 OVC040=
202411020540 TAF KSEA 020540Z 0206/0312 17008KT P6SM SCT025 OVC040
                      TEMPO 0206/0210 BKN025 OVC040 FM021000 17008KT
                       P6SM SCT012 OVC022 FM021600 17008KT P6SM
                       -SHRA BKN012 OVC022 FM022100 21008KT P6SM
                       SCT022 BKN035 FM030200 18008KT P6SM -SHRA
                       SCT012 BKN022 OVC040=
202411020321 KSEA 020321Z 0203/0306 16008KT P6SM OVC022 FM021200 18008KT P6SM
                       OVC020 FM022100 21008KT P6SM SCT025 BKN040
                       FM030200 18008KT P6SM SCT012 BKN022 OVC040=
202411012326 TAF KSEA 012326Z 0200/0306 18012KT P6SM -SHRA SCT004 BKN030 OVC050
                       FM020300 16005KT P6SM OVC035 FM021200 18007KT
                       P6SM OVC020 FM021800 21009KT P6SM OVC019=
202411012117 KSEA 012117Z 0121/0224 12011KT 6SM -RA BKN040 OVC050
                      TEMPO 0121/0122 3SM -RA BR BKN015 OVC020
                       FM012200 14008KT 5SM -RA SCT012 OVC030 FM020000
                       18012KT P6SM -SHRA SCT012 OVC022 FM020500
                       16005KT 6SM BR OVC025 FM021200 18007KT P6SM
                       OVC020=
202411011938 KSEA 011938Z 0120/0224 12011KT 6SM -RA BKN040 OVC050
                      TEMPO 0120/0121 3SM -RA BR BKN025 FM012100
                       14008KT 5SM -RA SCT012 OVC030 FM020000 18012KT
                       P6SM -SHRA SCT012 OVC022 FM020500 16005KT
                       6SM BR OVC025 FM021200 18007KT P6SM OVC020=
202411011720 TAF KSEA 011720Z 0118/0224 12011KT 6SM -RA BKN040 OVC050 FM012100
                       14008KT 5SM -RA SCT012 OVC030 FM020000 18012KT
                       P6SM -SHRA SCT012 OVC022 FM020500 16005KT
                       6SM BR OVC025 FM021200 18007KT P6SM OVC020=
202411011500 KSEA 011500Z 0115/0218 12011KT P6SM -RA SCT025 OVC045 FM012100
                       14008KT 5SM -RA SCT012 OVC030 FM020000 18012KT
                       P6SM -SHRA SCT012 OVC022 FM020500 16005KT
                       6SM BR OVC025=
202411011209 KSEA 011209Z 0112/0218 12008KT P6SM -RA SCT025 OVC045
                      TEMPO 0112/0114 BKN025 FM012100 14008KT 5SM
                       -RA SCT012 OVC030 FM020000 18012KT P6SM
                       -SHRA SCT012 OVC022 FM020500 16005KT 6SM
                       BR OVC025=
202411011121 TAF KSEA 011121Z 0112/0218 12008KT P6SM -RA OVC025 FM012100 14008KT
                       5SM -RA SCT012 OVC030 FM020000 18012KT P6SM
                       -SHRA SCT012 OVC022 FM020500 16005KT 6SM
                       BR OVC025=
202411010902 KSEA 010902Z 0109/0212 12008KT P6SM -RA OVC022 FM011300 12008KT
                       5SM -RA BKN012 OVC022 FM012100 14008KT P6SM
                       -RA SCT012 OVC022 FM020000 18012KT P6SM
                       SCT012 OVC022=
202411010540 TAF KSEA 010540Z 0106/0212 12008KT P6SM -RA OVC035 FM010800 12008KT
                       5SM -RA OVC022 FM011300 12008KT 5SM -RA
                       BKN012 OVC022 FM012100 14008KT P6SM -RA
                       SCT012 OVC022 FM020000 18012KT P6SM SCT012
                       OVC022=
202411010319 KSEA 010319Z 0103/0206 12008KT P6SM -RA OVC035 FM011000 12008KT
                       P6SM -RA OVC025 FM011500 09010KT 6SM -RA
                       OVC020 FM011900 10007KT P6SM OVC019 FM012300
                       16008KT 5SM BR OVC015=