##########################################################
# Query made at 02/17/2025 22:19:25 UTC
# Time interval: from 01/01/2024 00:00  to 01/31/2024 23:59  UTC
##########################################################

##########################################################
# KSEA, Seattle, Seattle-Tacoma International Airport (United States)
# WMO index: 72793. WIGOS ID: 0-20000-0-72793
# Latitude 47-27-00N. Longitude 122-17-59W. Altitude 130 m.
##########################################################

###################################
#  METAR/SPECI from KSEA
###################################
202401312353 METAR KSEA 312353Z 32003KT 10SM -RA OVC070 12/09 A2946 RMK AO2 RAE09B52 SLP982 P0000 60000 T01170089 10150 20117 58003=
202401312253 METAR KSEA 312253Z 31003KT 10SM -RA OVC065 12/09 A2947 RMK AO2 SLP984 P0000 T01170089=
202401312157 SPECI KSEA 312157Z 00000KT 10SM -RA FEW020 OVC065 12/09 A2947 RMK AO2 P0000 T01220089=
202401312153 METAR KSEA 312153Z 00000KT 10SM -RA FEW020 OVC065 12/09 A2947 RMK AO2 SLP985 P0000 T01220089=
202401312053 METAR KSEA 312053Z 18005KT 10SM -RA OVC065 13/08 A2947 RMK AO2 SLP985 P0000 60000 T01330078 58002=
202401311953 METAR KSEA 311953Z 13005KT 10SM -RA OVC080 14/07 A2947 RMK AO2 SLP985 P0000 T01440067=
202401311853 METAR KSEA 311853Z 10011KT 10SM -RA OVC080 14/07 A2948 RMK AO2 RAB04E28B49 SLP987 P0000 T01390067=
202401311753 METAR KSEA 311753Z 11012G21KT 10SM SCT060 BKN080 OVC095 14/07 A2948 RMK AO2 SLP986 60005 T01390067 10139 20117 58001=
202401311653 METAR KSEA 311653Z 11015KT 10SM FEW060 BKN075 OVC090 13/07 A2949 RMK AO2 SLP990 T01280067=
202401311553 METAR KSEA 311553Z 11013G22KT 10SM BKN075 OVC120 13/07 A2948 RMK AO2 RAE31 SLP990 P0001 T01280072=
202401311453 METAR KSEA 311453Z 12013G22KT 10SM -RA OVC075 12/08 A2948 RMK AO2 SLP989 P0001 60004 T01220078 56012=
202401311353 METAR KSEA 311353Z 12011KT 10SM -RA OVC075 12/08 A2949 RMK AO2 SLP991 P0001 T01220083=
202401311253 METAR KSEA 311253Z 10014KT 10SM -RA OVC075 12/08 A2949 RMK AO2 SLP993 P0002 T01220083=
202401311153 METAR KSEA 311153Z 11017G25KT 10SM -RA OVC070 12/08 A2952 RMK AO2 SLP000 P0003 60007 70009 T01220083 10161 20117 58017=
202401311053 METAR KSEA 311053Z 10010KT 10SM -RA OVC070 12/08 A2954 RMK AO2 SLP010 P0003 T01220083=
202401310953 METAR KSEA 310953Z 09006KT 10SM -RA OVC080 13/08 A2955 RMK AO2 SLP013 P0001 T01280078=
202401310853 METAR KSEA 310853Z 19004KT 10SM -RA OVC085 14/06 A2956 RMK AO2 RAB43 SLP016 P0000 60000 T01440061 55005=
202401310753 METAR KSEA 310753Z 11009KT 10SM FEW060 OVC085 15/06 A2956 RMK AO2 RAE28 SLP016 P0000 T01500056 401610106=
202401310653 METAR KSEA 310653Z 10015KT 10SM -RA OVC085 15/06 A2957 RMK AO2 RAB15 SLP018 P0000 T01500061=
202401310553 METAR KSEA 310553Z 10011KT 10SM FEW055 SCT070 OVC095 16/05 A2958 RMK AO2 SLP023 T01560050 10156 20117 56036=
202401310453 METAR KSEA 310453Z 09008KT 10SM SCT100 BKN110 BKN180 16/05 A2961 RMK AO2 SLP032 T01560050=
202401310353 METAR KSEA 310353Z 09009KT 10SM FEW065 BKN095 15/06 A2965 RMK AO2 SLP045 T01500056=
202401310253 METAR KSEA 310253Z 10007KT 10SM SCT075 BKN140 15/06 A2969 RMK AO2 SLP060 T01500061 58028=
202401310153 METAR KSEA 310153Z 11007KT 10SM BKN075 BKN140 15/08 A2972 RMK AO2 SLP072 T01500078=
202401310053 METAR KSEA 310053Z VRB05KT 10SM BKN080 BKN160 15/08 A2975 RMK AO2 SLP081 T01500078=
202401302353 METAR KSEA 302353Z 36004KT 10SM BKN080 BKN150 14/09 A2977 RMK AO2 SLP088 60000 T01390094 10156 20111 56026=
202401302253 METAR KSEA 302253Z 35004KT 10SM BKN085 BKN150 14/09 A2979 RMK AO2 SLP093 T01440094=
202401302153 METAR KSEA 302153Z 35007KT 10SM FEW070 BKN090 BKN110 13/09 A2982 RMK AO2 SLP104 T01330094=
202401302053 METAR KSEA 302053Z 04007KT 10SM FEW070 SCT090 OVC110 14/09 A2985 RMK AO2 SLP114 60000 T01390094 58041=
202401301953 METAR KSEA 301953Z 08007KT 10SM BKN070 OVC090 13/09 A2992 RMK AO2 RAE19 SLP137 P0000 T01280094=
202401301853 METAR KSEA 301853Z 10003KT 10SM -RA BKN070 OVC090 11/09 A2996 RMK AO2 RAE09B49 SLP151 P0000 T01110089=
202401301753 METAR KSEA 301753Z 00000KT 10SM -RA SCT055 OVC070 12/09 A2997 RMK AO2 RAB06 SLP155 P0002 60002 T01220089 10133 20106 56006=
202401301653 METAR KSEA 301653Z 21003KT 10SM OVC070 12/07 A2998 RMK AO2 SLP158 T01170072=
202401301553 METAR KSEA 301553Z 14003KT 10SM BKN090 OVC190 13/07 A2998 RMK AO2 SLP158 T01280067=
202401301453 METAR KSEA 301453Z 13006KT 10SM SCT095 BKN190 12/07 A2999 RMK AO2 SLP161 T01220072 58009=
202401301353 METAR KSEA 301353Z 09004KT 10SM BKN100 12/08 A3000 RMK AO2 SLP164 T01220078 $=
202401301253 METAR KSEA 301253Z 12005KT 10SM OVC100 13/08 A3002 RMK AO2 SLP170 T01280083 $=
202401301153 METAR KSEA 301153Z 12005KT 10SM OVC095 13/08 A3002 RMK AO2 SLP171 60000 T01280083 10156 20122 53005 $=
202401301053 METAR KSEA 301053Z 01003KT 10SM OVC080 14/08 A3001 RMK AO2 SLP169 T01390083 $=
202401300953 METAR KSEA 300953Z 00000KT 10SM FEW060 BKN085 13/08 A3000 RMK AO2 SLP164 T01280083 $=
202401300853 METAR KSEA 300853Z 25006KT 10SM FEW060 BKN085 13/09 A3000 RMK AO2 SLP166 60000 T01330089 51004 $=
202401300753 METAR KSEA 300753Z 14006KT 10SM FEW060 OVC085 14/09 A2999 RMK AO2 RAB22E32 SLP160 P0000 T01440094 401610106 $=
202401300653 METAR KSEA 300653Z 15009KT 10SM FEW060 BKN075 OVC090 13/09 A3001 RMK AO2 RAB41E51 SLP167 P0000 T01330094 $=
202401300553 METAR KSEA 300553Z 00000KT 10SM FEW090 BKN110 13/09 A2999 RMK AO2 SLP162 T01330094 10144 20117 51026=
202401300453 METAR KSEA 300453Z 19007KT 10SM BKN120 OVC180 13/10 A2997 RMK AO2 SLP155 T01280100=
202401300353 METAR KSEA 300353Z 20008KT 10SM BKN110 OVC180 13/11 A2995 RMK AO2 SLP148 T01280106=
202401300253 METAR KSEA 300253Z 18006KT 10SM BKN150 OVC200 13/11 A2991 RMK AO2 SLP136 T01280106 53005=
202401300153 METAR KSEA 300153Z 17004KT 10SM FEW120 BKN160 OVC230 13/10 A2989 RMK AO2 SLP129 T01280100=
202401300053 METAR KSEA 300053Z 15005KT 10SM FEW120 SCT150 OVC230 14/09 A2989 RMK AO2 SLP127 T01390094=
202401292353 METAR KSEA 292353Z 12010KT 10SM FEW120 SCT150 BKN210 14/11 A2990 RMK AO2 SLP131 T01390106 10150 20133 56016=
202401292253 METAR KSEA 292253Z 20005KT 10SM SCT120 BKN210 14/10 A2992 RMK AO2 SLP137 T01390100=
202401292153 METAR KSEA 292153Z 19006KT 10SM SCT120 BKN180 BKN210 13/10 A2992 RMK AO2 SLP138 T01330100=
202401292053 METAR KSEA 292053Z 20004KT 10SM SCT120 BKN170 BKN200 14/10 A2995 RMK AO2 SLP147 T01390100 58017=
202401291953 METAR KSEA 291953Z 18005KT 10SM FEW120 SCT160 BKN200 14/11 A2996 RMK AO2 SLP153 T01390106=
202401291853 METAR KSEA 291853Z 00000KT 10SM FEW100 SCT140 BKN200 15/09 A2999 RMK AO2 SLP159 T01500089=
202401291753 METAR KSEA 291753Z 00000KT 10SM SCT080 BKN190 BKN250 13/08 A3000 RMK AO2 SLP164 T01330083 10139 20122 56007=
202401291653 METAR KSEA 291653Z 24003KT 10SM FEW020 SCT080 BKN190 BKN250 13/08 A3000 RMK AO2 SLP167 T01280078=
202401291553 METAR KSEA 291553Z 14006KT 10SM FEW010 SCT080 OVC250 14/07 A3001 RMK AO2 SLP167 T01390072=
202401291453 METAR KSEA 291453Z 13008KT 10SM FEW080 BKN250 13/07 A3002 RMK AO2 SLP172 T01330072 56016=
202401291353 METAR KSEA 291353Z 12005KT 10SM FEW080 BKN250 13/07 A3003 RMK AO2 SLP175 T01330072=
202401291253 METAR KSEA 291253Z 12007KT 10SM SCT075 OVC250 13/08 A3005 RMK AO2 SLP182 T01280083=
202401291153 METAR KSEA 291153Z 12007KT 10SM BKN075 BKN140 OVC250 13/09 A3007 RMK AO2 SLP187 70024 T01330089 10161 20106 50001=
202401291053 METAR KSEA 291053Z VRB03KT 10SM SCT140 OVC250 16/08 A3007 RMK AO2 SLP189 T01560083=
202401290953 METAR KSEA 290953Z VRB03KT 10SM OVC140 16/08 A3007 RMK AO2 SLP187 T01560083=
202401290853 METAR KSEA 290853Z 00000KT 10SM BKN130 13/09 A3006 RMK AO2 SLP185 T01330089 50001=
202401290753 METAR KSEA 290753Z 00000KT 10SM OVC110 13/09 A3007 RMK AO2 SLP190 T01330094 401610106=
202401290653 METAR KSEA 290653Z 32003KT 10SM FEW060 OVC110 13/10 A3008 RMK AO2 SLP191 T01330100=
202401290553 METAR KSEA 290553Z 13006KT 10SM OVC120 15/09 A3006 RMK AO2 SLP185 60001 T01500094 10161 20139 58007=
202401290453 METAR KSEA 290453Z 12011KT 10SM OVC110 15/09 A3007 RMK AO2 SLP188 T01500094=
202401290353 METAR KSEA 290353Z 12008KT 10SM BKN110 14/11 A3008 RMK AO2 SLP192 T01440106=
202401290253 METAR KSEA 290253Z 11009KT 10SM FEW050 BKN090 BKN110 14/11 A3008 RMK AO2 RAE15 SLP193 P0000 60001 T01440111 58009=
202401290153 METAR KSEA 290153Z 10007KT 10SM -RA BKN110 15/12 A3009 RMK AO2 SLP196 P0000 T01500117=
202401290053 METAR KSEA 290053Z 13007KT 10SM -RA OVC100 15/12 A3011 RMK AO2 SLP201 P0001 T01500122=
202401282353 METAR KSEA 282353Z 15005KT 10SM -RA SCT055 BKN080 16/12 A3011 RMK AO2 RAB53 SLP203 P0000 60000 T01560122 10156 20133 56009=
202401282253 METAR KSEA 282253Z 12005KT 10SM SCT033 OVC046 16/13 A3011 RMK AO2 RAB39E51 SLP203 P0000 T01560128=
202401282153 METAR KSEA 282153Z 12005KT 10SM FEW008 BKN045 OVC055 15/12 A3012 RMK AO2 RAE04 SLP207 P0000 T01500122=
202401282053 METAR KSEA 282053Z VRB03KT 7SM -RA SCT009 OVC038 15/12 A3014 RMK AO2 RAB52 SLP213 P0000 60000 T01500122 50002=
202401281953 METAR KSEA 281953Z 19006KT 10SM SCT009 BKN029 OVC070 14/12 A3015 RMK AO2 SLP216 T01390122=
202401281853 METAR KSEA 281853Z 22005KT 9SM SCT009 BKN014 OVC040 14/12 A3014 RMK AO2 SLP214 T01390122=
202401281753 METAR KSEA 281753Z 18003KT 10SM SCT009 BKN014 OVC046 13/12 A3014 RMK AO2 SLP211 60023 T01330122 10133 20117 51017=
202401281653 METAR KSEA 281653Z 19007KT 10SM FEW007 SCT015 OVC022 13/11 A3013 RMK AO2 SLP209 T01280111=
202401281553 METAR KSEA 281553Z 21009KT 10SM FEW010 SCT013 OVC025 13/11 A3011 RMK AO2 SLP202 T01280111 $=
202401281516 SPECI KSEA 281516Z 22009KT 10SM SCT012 BKN018 OVC022 13/11 A3009 RMK AO2 T01280111 $=
202401281453 METAR KSEA 281453Z 22009KT 10SM SCT006 BKN013 OVC023 13/12 A3008 RMK AO2 RAE1358 SLP194 P0000 60023 T01280117 53018 $=
202401281353 METAR KSEA 281353Z 19005KT 7SM -RA BKN003 OVC008 12/11 A3006 RMK AO2 SLP184 P0017 T01220111 $=
202401281329 SPECI KSEA 281329Z 20005KT 4SM -RA BR BKN008 OVC013 12/11 A3005 RMK AO2 P0015 T01170111 $=
202401281317 SPECI KSEA 281317Z 24004KT 3SM R16L/4000VP6000FT +RA BR FEW008 OVC017 12/11 A3005 RMK AO2 P0010 T01170111 $=
202401281253 METAR KSEA 281253Z 15007KT 4SM RA BR FEW014 BKN019 OVC025 12/11 A3004 RMK AO2 SLP177 P0006 T01170106 $=
202401281239 SPECI KSEA 281239Z 14008KT 3SM -RA BR SCT018 BKN026 OVC033 12/11 A3003 RMK AO2 P0004 T01170106 $=
202401281153 METAR KSEA 281153Z 14008KT 7SM -RA FEW018 BKN047 OVC070 12/10 A3003 RMK AO2 SLP175 P0008 60031 70099 T01170100 10139 20106 53005 $=
202401281053 METAR KSEA 281053Z 15008KT 6SM -RA BR BKN033 OVC042 11/09 A3003 RMK AO2 SLP175 P0011 T01110094 $=
202401280953 METAR KSEA 280953Z 13008KT 7SM -RA SCT033 BKN042 OVC070 11/09 A3002 RMK AO2 SLP170 P0007 T01060094 $=
202401280853 METAR KSEA 280853Z 12006KT 10SM -RA FEW040 OVC048 11/09 A3002 RMK AO2 SLP170 P0003 60005 T01110089 58012 $=
202401280753 METAR KSEA 280753Z VRB04KT 5SM -RA BKN046 OVC065 13/09 A3004 RMK AO2 RAB21 SLP179 P0002 T01280094 401390089 $=
202401280653 METAR KSEA 280653Z 17009KT 10SM SCT043 OVC090 13/11 A3004 RMK AO2 RAE0556 SLP178 P0000 T01330111 $=
202401280553 METAR KSEA 280553Z 15007KT 8SM -RA OVC034 13/11 A3005 RMK AO2 SLP183 P0002 60006 T01280106 10139 20122 51007 $=
202401280453 METAR KSEA 280453Z 13008KT 10SM -RA FEW036 BKN044 OVC070 13/11 A3004 RMK AO2 RAB26 SLP180 P0002 T01280111 $=
202401280353 METAR KSEA 280353Z 16007KT 10SM FEW035 BKN050 12/10 A3004 RMK AO2 RAB02E50 SLP180 P0000 T01220100 $=
202401280253 METAR KSEA 280253Z 14008KT 10SM FEW020 BKN034 OVC048 12/10 A3003 RMK AO2 RAE49 SLP176 P0002 60002 T01220100 56006 $=
202401280153 METAR KSEA 280153Z 14008KT 10SM -RA FEW015 BKN034 OVC043 12/11 A3004 RMK AO2 SLP178 P0000 T01220106 $=
202401280053 METAR KSEA 280053Z 13010KT 10SM -RA FEW013 BKN030 OVC043 13/11 A3004 RMK AO2 RAB52 SLP179 P0000 T01280111 $=
202401272353 METAR KSEA 272353Z 12010KT 10SM FEW009 BKN030 OVC037 13/12 A3005 RMK AO2 RAE35 SLP182 P0004 60028 T01280117 10133 20106 58002 $=
202401272333 SPECI KSEA 272333Z 12008KT 3SM -RA BR FEW009 BKN030 OVC037 13/12 A3006 RMK AO2 P0004 T01280117 $=
202401272316 SPECI KSEA 272316Z 12007KT 2 1/2SM -RA BR FEW007 SCT024 OVC029 13/12 A3006 RMK AO2 P0003 T01280117 $=
202401272304 SPECI KSEA 272304Z 12006KT 1 3/4SM -RA BR FEW007 BKN029 OVC035 13/12 A3006 RMK AO2 P0002 T01280117 $=
202401272253 METAR KSEA 272253Z 14007KT 1 1/2SM R16L/5000VP6000FT RA BR FEW016 BKN024 OVC029 13/11 A3006 RMK AO2 RAE2154B45 SLP186 P0004 T01280111 $=
202401272153 METAR KSEA 272153Z 14007KT 4SM -RA BR FEW016 OVC024 13/11 A3006 RMK AO2 RAB05 SLP184 P0002 T01280111=
202401272138 SPECI KSEA 272138Z 15005KT 4SM -RA BR FEW016 OVC024 12/11 A3006 RMK AO2 RAB05 P0002 T01220111=
202401272112 SPECI KSEA 272112Z 14007KT 2 1/2SM -RA BR SCT010 BKN024 12/11 A3005 RMK AO2 RAB05 P0001 T01220111=
202401272053 METAR KSEA 272053Z 15007KT 10SM FEW004 BKN010 OVC016 12/11 A3006 RMK AO2 RAE44 SLP185 P0006 60018 T01220111 51010=
202401272048 SPECI KSEA 272048Z 14007KT 10SM SCT006 OVC012 12/11 A3005 RMK AO2 RAE44 P0006=
202401272039 SPECI KSEA 272039Z 15007KT 2SM -RA BR SCT004 OVC013 12/11 A3005 RMK AO2 P0006 T01220111=
202401272020 SPECI KSEA 272020Z 14006KT 1 1/4SM R16L/5500VP6000FT -RA BR BKN004 OVC018 12/11 A3005 RMK AO2 P0004 T01170106=
202401272013 SPECI KSEA 272013Z 15007KT 1 1/2SM -RA BR SCT004 BKN018 OVC023 12/11 A3005 RMK AO2 P0003 T01170106=
202401271953 METAR KSEA 271953Z 14008KT 2SM RA BR FEW019 BKN027 OVC035 12/10 A3005 RMK AO2 SLP181 P0009 T01170100=
202401271944 SPECI KSEA 271944Z 14008KT 2 1/2SM -RA BR FEW021 BKN029 OVC037 12/10 A3004 RMK AO2 P0007 T01170100=
202401271853 METAR KSEA 271853Z 15007KT 8SM -RA SCT030 OVC036 11/09 A3003 RMK AO2 SLP175 P0003 T01060089=
202401271837 SPECI KSEA 271837Z 15006KT 10SM -RA FEW028 OVC034 11/09 A3002 RMK AO2 P0002 T01060089=
202401271827 SPECI KSEA 271827Z 18006KT 3SM -RA BR BKN027 OVC035 11/09 A3001 RMK AO2 P0002 T01060089=
202401271753 METAR KSEA 271753Z 12012KT 7SM -RA BKN036 OVC065 11/08 A3000 RMK AO2 SLP166 P0003 60034 T01060083 10106 20089 53001=
202401271653 METAR KSEA 271653Z 12009KT 3SM R16L/6000VP6000FT -RA BR FEW024 BKN031 OVC041 10/08 A2999 RMK AO2 SLP162 P0006 T01000083=
202401271553 METAR KSEA 271553Z 12010G18KT 5SM -RA BR OVC040 09/08 A2999 RMK AO2 SLP163 P0010 T00940078=
202401271453 METAR KSEA 271453Z 12006KT 5SM -RA BR BKN055 OVC070 09/08 A3000 RMK AO2 SLP165 P0007 60015 T00940078 58015=
202401271353 METAR KSEA 271353Z 11009KT 5SM -RA BR BKN048 OVC065 09/07 A3001 RMK AO2 SLP170 P0007 T00940072=
202401271253 METAR KSEA 271253Z 13007KT 7SM -RA SCT060 OVC075 09/07 A3003 RMK AO2 SLP175 P0001 T00890067=
202401271153 METAR KSEA 271153Z 14005KT 5SM -RA BR BKN032 OVC044 09/07 A3004 RMK AO2 RAB37 SLP180 P0001 60001 70039 T00890067 10094 20089 58008=
202401271131 SPECI KSEA 271131Z 19005KT 9SM SCT029 BKN037 OVC045 09/07 A3005 RMK AO2 T00890067=
202401271053 METAR KSEA 271053Z 13007KT 10SM OVC028 09/06 A3005 RMK AO2 SLP184 T00940061=
202401270953 METAR KSEA 270953Z 16004KT 10SM OVC028 09/07 A3006 RMK AO2 SLP186 T00940072=
202401270853 METAR KSEA 270853Z 13008KT 10SM BKN023 BKN031 OVC045 09/07 A3006 RMK AO2 SLP188 60000 T00890072 51002=
202401270820 SPECI KSEA 270820Z 12008KT 10SM BKN027 BKN045 OVC070 09/07 A3007 RMK AO2 T00940072=
202401270800 SPECI KSEA 270800Z 12006KT 10SM FEW019 BKN031 OVC050 09/08 A3006 RMK AO2 T00890078=
202401270753 METAR KSEA 270753Z 13005KT 10SM FEW019 BKN029 OVC045 09/08 A3006 RMK AO2 RAE50 SLP188 P0000 T00940078 401170067=
202401270653 METAR KSEA 270653Z 15003KT 10SM -RA SCT015 OVC028 09/08 A3007 RMK AO2 SLP189 PCPN VRY LGT P0000 T00940078=
202401270553 METAR KSEA 270553Z 15007KT 4SM -RA BR FEW009 SCT023 OVC027 09/08 A3006 RMK AO2 SLP186 P0001 60038 T00890078 10100 20083 53016=
202401270453 METAR KSEA 270453Z 12010KT 3SM -RA BR FEW011 OVC022 08/07 A3004 RMK AO2 SLP180 P0003 T00830072=
202401270436 SPECI KSEA 270436Z 12010KT 4SM -RA BR OVC024 09/07 A3004 RMK AO2 P0001 T00890067=
202401270353 METAR KSEA 270353Z 13011KT 7SM -RA OVC035 08/07 A3002 RMK AO2 SLP173 P0013 T00830067=
202401270253 METAR KSEA 270253Z 14006KT 4SM RA BR OVC032 08/07 A3001 RMK AO2 SLP170 P0011 60021 T00830067 55010=
202401270153 METAR KSEA 270153Z 12008KT 5SM -RA OVC050 09/06 A3000 RMK AO2 SLP165 P0007 T00940061=
202401270053 METAR KSEA 270053Z 00000KT 8SM -RA OVC050 09/06 A3002 RMK AO2 RAB03 SLP171 P0003 T00940061=
202401262353 METAR KSEA 262353Z 24004KT 10SM OVC041 10/05 A3004 RMK AO2 SLP180 T01000050 10117 20089 55006=
202401262253 METAR KSEA 262253Z 28003KT 10SM BKN041 OVC048 11/05 A3004 RMK AO2 SLP179 T01060050=
202401262153 METAR KSEA 262153Z 00000KT 10SM BKN045 OVC100 11/05 A3005 RMK AO2 SLP184 T01060050=
202401262053 METAR KSEA 262053Z 12004KT 10SM BKN049 OVC100 12/03 A3006 RMK AO2 SLP187 T01170033 58020=
202401261953 METAR KSEA 261953Z 12003KT 10SM BKN050 OVC100 11/04 A3009 RMK AO2 SLP197 T01110039=
202401261853 METAR KSEA 261853Z 00000KT 10SM BKN055 BKN080 BKN250 10/04 A3012 RMK AO2 SLP206 T01000044=
202401261753 METAR KSEA 261753Z 20004KT 10SM BKN065 BKN080 OVC100 09/04 A3012 RMK AO2 SLP207 T00890044 10094 20072 56004=
202401261653 METAR KSEA 261653Z 00000KT 10SM FEW050 BKN080 BKN100 08/05 A3012 RMK AO2 SLP207 T00780050=
202401261553 METAR KSEA 261553Z 00000KT 10SM SCT050 OVC085 07/04 A3013 RMK AO2 SLP209 T00720039=
202401261453 METAR KSEA 261453Z 14007KT 10SM SCT050 OVC095 08/04 A3013 RMK AO2 SLP211 T00780039 57001=
202401261353 METAR KSEA 261353Z 19004KT 10SM FEW040 SCT055 OVC100 07/04 A3014 RMK AO2 SLP212 T00720039=
202401261253 METAR KSEA 261253Z 11006KT 10SM FEW040 SCT055 BKN120 07/04 A3013 RMK AO2 SLP212 T00720044=
202401261153 METAR KSEA 261153Z 12006KT 10SM FEW045 SCT060 BKN170 07/04 A3014 RMK AO2 SLP213 70014 T00720044 10089 20067 56013=
202401261053 METAR KSEA 261053Z 16006KT 10SM FEW050 SCT065 BKN200 07/04 A3015 RMK AO2 SLP216 T00720044=
202401260953 METAR KSEA 260953Z 12007KT 10SM FEW060 BKN210 07/05 A3016 RMK AO2 SLP222 T00720050=
202401260853 METAR KSEA 260853Z 14005KT 10SM BKN033 OVC050 08/06 A3018 RMK AO2 SLP226 T00780061 53001=
202401260753 METAR KSEA 260753Z 00000KT 10SM SCT037 OVC055 08/06 A3018 RMK AO2 SLP227 T00780056 401060056=
202401260653 METAR KSEA 260653Z 13007KT 10SM FEW038 SCT065 BKN085 09/06 A3017 RMK AO2 SLP222 T00890061=
202401260640 SPECI KSEA 260640Z 12007KT 10SM SCT029 BKN039 OVC085 09/06 A3017 RMK AO2 T00890061=
202401260614 SPECI KSEA 260614Z 15005KT 10SM BKN024 OVC033 09/07 A3018 RMK AO2 T00890067=
202401260553 METAR KSEA 260553Z 18004KT 10SM OVC030 08/07 A3017 RMK AO2 RAE15 SLP225 P0000 60001 T00830067 10106 20083 53010=
202401260515 SPECI KSEA 260515Z 21004KT 10SM FEW025 OVC030 08/07 A3017 RMK AO2 RAE15 P0000 T00830072=
202401260453 METAR KSEA 260453Z 18005KT 10SM -RA BKN025 OVC031 08/07 A3016 RMK AO2 SLP221 P0001 T00830072=
202401260353 METAR KSEA 260353Z 21006KT 9SM -RA OVC022 09/07 A3015 RMK AO2 RAB09E15B50 SLP216 P0000 T00890067=
202401260253 METAR KSEA 260253Z 19007KT 10SM OVC030 10/06 A3014 RMK AO2 SLP214 T01000061 51014=
202401260243 SPECI KSEA 260243Z 19007KT 10SM OVC029 10/06 A3014 RMK AO2 T01000061=
202401260153 METAR KSEA 260153Z 21010KT 10SM BKN029 OVC046 10/06 A3013 RMK AO2 SLP209 T01000056=
202401260120 SPECI KSEA 260120Z 19008KT 10SM BKN027 OVC039 10/06 A3012 RMK AO2 T01000061=
202401260053 METAR KSEA 260053Z 21007KT 10SM SCT027 BKN034 OVC049 10/06 A3012 RMK AO2 SLP206 T01000061=
202401260039 SPECI KSEA 260039Z 19008KT 10SM SCT029 OVC047 11/06 A3011 RMK AO2 T01060061=
202401252353 METAR KSEA 252353Z 20007KT 10SM OVC027 11/06 A3010 RMK AO2 SLP200 60001 T01060061 10106 20078 53009=
202401252307 SPECI KSEA 252307Z 19010KT 9SM BKN028 OVC034 11/06 A3009 RMK AO2 T01060061=
202401252253 METAR KSEA 252253Z 19007KT 10SM SCT028 BKN037 OVC043 11/06 A3009 RMK AO2 SLP195 T01060061=
202401252153 METAR KSEA 252153Z 18010KT 10SM BKN040 OVC047 11/06 A3007 RMK AO2 RAE2059 SLP190 P0000 T01060061=
202401252053 METAR KSEA 252053Z 15009KT 10SM -RA BKN039 OVC050 09/06 A3007 RMK AO2 RAB12 SLP191 P0001 60001 T00940061 51012=
202401251953 METAR KSEA 251953Z 19008KT 10SM BKN035 OVC050 10/05 A3007 RMK AO2 RAB09E18 SLP190 VCSH P0000 T01000050=
202401251853 METAR KSEA 251853Z 16007KT 10SM BKN045 OVC055 09/05 A3006 RMK AO2 SLP187 T00890050=
202401251753 METAR KSEA 251753Z 16011KT 10SM FEW010 BKN039 OVC050 08/05 A3004 RMK AO2 SLP180 60012 T00780050 10083 20056 53020=
202401251653 METAR KSEA 251653Z 14011KT 10SM BKN030 BKN036 BKN050 07/04 A3001 RMK AO2 SLP170 T00720044=
202401251553 METAR KSEA 251553Z 14010G19KT 10SM BKN034 OVC050 07/04 A2998 RMK AO2 RAE16 SLP162 P0002 T00720044=
202401251453 METAR KSEA 251453Z 16008KT 7SM -RA SCT027 OVC037 06/04 A2998 RMK AO2 SLP159 P0003 60010 T00610044 52015=
202401251353 METAR KSEA 251353Z 15007KT 7SM -RA FEW029 OVC039 06/04 A2996 RMK AO2 SLP154 P0004 T00610044=
202401251253 METAR KSEA 251253Z 15008KT 10SM -RA OVC046 06/04 A2994 RMK AO2 SLP148 P0003 T00560039=
202401251153 METAR KSEA 251153Z 16006KT 10SM -RA OVC044 06/04 A2993 RMK AO2 RAB41 SLP143 P0001 60010 70043 T00610039 10078 20061 51013=
202401251053 METAR KSEA 251053Z 15007KT 10SM OVC039 06/04 A2992 RMK AO2 RAE53 SLP139 P0002 T00610039=
202401250953 METAR KSEA 250953Z 17007KT 10SM -RA FEW036 BKN055 OVC070 06/03 A2990 RMK AO2 RAB53 SLP133 P0000 T00610033=
202401250853 METAR KSEA 250853Z 14006KT 10SM FEW040 OVC050 06/04 A2989 RMK AO2 SLP129 60007 T00610039 53010=
202401250753 METAR KSEA 250753Z 12008KT 10SM FEW040 BKN050 07/03 A2988 RMK AO2 SLP126 T00670033 401060061=
202401250653 METAR KSEA 250653Z 13007KT 10SM FEW042 SCT080 SCT090 07/05 A2986 RMK AO2 RAE41 SLP119 P0007 T00720050=
202401250553 METAR KSEA 250553Z 19007KT 9SM -RA FEW038 BKN050 OVC100 08/06 A2986 RMK AO2 RAB00 SLP120 P0002 60006 T00780056 10106 20072 53016=
202401250453 METAR KSEA 250453Z 17009KT 10SM FEW039 SCT060 BKN110 08/04 A2985 RMK AO2 SLP114 T00780044=
202401250353 METAR KSEA 250353Z 16011KT 10SM FEW023 FEW050 SCT160 08/04 A2983 RMK AO2 RAE05 SLP108 P0000 T00780044=
202401250253 METAR KSEA 250253Z 16012KT 8SM -RA FEW023 SCT050 BKN160 08/06 A2981 RMK AO2 RAB53 SLP104 P0000 60004 T00830056 51020=
202401250153 METAR KSEA 250153Z 15011KT 10SM FEW027 SCT055 BKN160 09/07 A2980 RMK AO2 RAE22 SLP101 P0002 T00890067=
202401250053 METAR KSEA 250053Z 22013G21KT 3SM -RA BR FEW017 BKN037 OVC049 09/07 A2978 RMK AO2 RAE42B46 SLP093 P0002 T00940072=
202401250043 SPECI KSEA 250043Z 21012KT 9SM SCT024 BKN035 OVC047 10/07 A2978 RMK AO2 RAE42 P0000 T01000072=
202401250027 SPECI KSEA 250027Z 21006KT 9SM -RA BKN024 BKN035 OVC060 11/08 A2977 RMK AO2 P0000 T01060078=
202401242353 METAR KSEA 242353Z 18008KT 10SM -RA FEW036 BKN055 OVC070 11/08 A2975 RMK AO2 RAB19 SLP083 P0000 60003 T01060078 10106 20078 53004=
202401242253 METAR KSEA 242253Z 16011KT 10SM SCT029 BKN050 BKN150 11/08 A2975 RMK AO2 RAB25E50 SLP080 VCSH P0001 T01060078=
202401242233 SPECI KSEA 242233Z 15011KT 4SM -RA BKN028 BKN042 OVC060 11/08 A2975 RMK AO2 RAB25 P0001 T01060078=
202401242153 METAR KSEA 242153Z 15010KT 10SM SCT039 BKN050 11/07 A2975 RMK AO2 SLP080 T01060072=
202401242108 SPECI KSEA 242108Z 15010KT 10SM SCT029 BKN050 10/07 A2974 RMK AO2 T01000072=
202401242053 METAR KSEA 242053Z 14008KT 10SM FEW011 BKN029 BKN050 10/08 A2974 RMK AO2 RAB02E13 SLP079 P0000 60002 T01000078 51007=
202401241953 METAR KSEA 241953Z 17009KT 10SM BKN025 OVC030 08/06 A2974 RMK AO2 RAE05B09E19 SLP079 P0001 T00830061=
202401241907 SPECI KSEA 241907Z 14006KT 7SM BKN029 OVC037 08/06 A2974 RMK AO2 RAE05 P0000 T00780056=
202401241853 METAR KSEA 241853Z 14007KT 7SM -RA OVC033 08/06 A2973 RMK AO2 RAB45 SLP077 P0001 T00780056=
202401241753 METAR KSEA 241753Z 09006KT 10SM OVC040 08/05 A2972 RMK AO2 SLP072 60024 T00780050 10078 20061 51005=
202401241653 METAR KSEA 241653Z 07005KT 10SM SCT031 OVC045 07/05 A2971 RMK AO2 RAE39 SLP068 P0004 T00670050=
202401241553 METAR KSEA 241553Z 29003KT 6SM -RA BR SCT035 OVC042 06/04 A2972 RMK AO2 SLP071 P0006 T00610044=
202401241453 METAR KSEA 241453Z 10011KT 7SM -RA OVC045 07/04 A2971 RMK AO2 SLP067 P0005 60014 T00720039 58026=
202401241353 METAR KSEA 241353Z 11004KT 10SM -RA OVC048 07/04 A2973 RMK AO2 SLP077 P0005 T00670039=
202401241253 METAR KSEA 241253Z 18004KT 6SM -RA BR OVC041 06/04 A2977 RMK AO2 SLP089 P0004 T00610039=
202401241153 METAR KSEA 241153Z 22003KT 10SM -RA OVC048 06/03 A2979 RMK AO2 RAB43 SLP093 P0000 60000 70001 T00610033 10078 20061 56016=
202401241053 METAR KSEA 241053Z 12007KT 10SM SCT065 BKN090 OVC110 07/03 A2980 RMK AO2 SLP097 T00720028=
202401240953 METAR KSEA 240953Z 18004KT 10SM BKN080 BKN110 06/03 A2982 RMK AO2 SLP103 T00610033=
202401240853 METAR KSEA 240853Z 12005KT 10SM FEW043 BKN180 07/04 A2983 RMK AO2 SLP109 T00670039 58025=
202401240753 METAR KSEA 240753Z 09008KT 10SM SCT043 BKN180 07/04 A2986 RMK AO2 SLP118 T00720044 401110061=
202401240653 METAR KSEA 240653Z 10006KT 10SM BKN180 08/05 A2989 RMK AO2 SLP128 T00780050=
202401240553 METAR KSEA 240553Z 12006KT 10SM FEW200 08/05 A2991 RMK AO2 SLP135 T00780050 10100 20067 56013=
202401240453 METAR KSEA 240453Z 13007KT 10SM SCT055 07/05 A2992 RMK AO2 SLP139 T00720050=
202401240353 METAR KSEA 240353Z VRB03KT 10SM FEW030 BKN055 08/06 A2993 RMK AO2 SLP143 T00830056=
202401240253 METAR KSEA 240253Z 23003KT 10SM SCT044 BKN060 08/06 A2995 RMK AO2 SLP148 T00830056 50003=
202401240153 METAR KSEA 240153Z 20004KT 10SM FEW036 SCT055 SCT200 08/05 A2995 RMK AO2 SLP149 T00780050=
202401240053 METAR KSEA 240053Z 19004KT 10SM FEW032 SCT050 SCT200 08/05 A2994 RMK AO2 SLP145 T00830050=
202401232353 METAR KSEA 232353Z 19008KT 10SM FEW032 SCT050 BKN200 10/06 A2994 RMK AO2 SLP144 T01000061 10111 20100 53003=
202401232253 METAR KSEA 232253Z 22009KT 10SM FEW019 SCT032 BKN050 BKN200 11/07 A2993 RMK AO2 SLP142 T01060067=
202401232153 METAR KSEA 232153Z 22009KT 10SM FEW025 BKN047 BKN200 11/06 A2992 RMK AO2 SLP138 T01060061=
202401232053 METAR KSEA 232053Z 22014G19KT 10SM FEW015 SCT040 BKN200 11/07 A2993 RMK AO2 SLP141 T01060067 51010=
202401231953 METAR KSEA 231953Z 20009G16KT 10SM FEW015 BKN040 10/07 A2992 RMK AO2 SLP140 T01000067=
202401231853 METAR KSEA 231853Z 21011KT 10SM FEW009 SCT040 10/07 A2992 RMK AO2 SLP138 T01000072=
202401231832 SPECI KSEA 231832Z 19012KT 10SM SCT006 SCT015 10/07 A2991 RMK AO2 T01000072=
202401231753 METAR KSEA 231753Z 19010KT 10SM BKN006 BKN015 09/08 A2990 RMK AO2 SLP131 BKN006 V SCT 60001 T00940078 10094 20078 53020=
202401231734 SPECI KSEA 231734Z 21010KT 10SM BKN006 BKN015 09/08 A2989 RMK AO2 BKN006 V SCT T00890078=
202401231653 METAR KSEA 231653Z 19008KT 10SM SCT006 BKN015 09/07 A2988 RMK AO2 SLP124 SCT006 V BKN T00890072=
202401231553 METAR KSEA 231553Z 18008KT 10SM FEW009 BKN015 OVC020 08/07 A2985 RMK AO2 RAE1456 SLP115 P0000 T00830067=
202401231453 METAR KSEA 231453Z 17006KT 8SM -RA BKN012 BKN020 08/07 A2984 RMK AO2 RAE1354B45 SLP110 P0001 60001 T00780067 53017=
202401231421 SPECI KSEA 231421Z 16007KT 10SM BKN012 OVC018 08/07 A2983 RMK AO2 RAE1354 P0000 T00830067=
202401231353 METAR KSEA 231353Z 17006KT 7SM -RA BKN015 OVC023 08/07 A2982 RMK AO2 RAB21 SLP105 P0000 T00780067=
202401231253 METAR KSEA 231253Z 15006KT 10SM BKN016 BKN028 OVC060 08/06 A2980 RMK AO2 SLP098 T00830061=
202401231153 METAR KSEA 231153Z 16007KT 10SM FEW014 BKN022 OVC033 08/07 A2979 RMK AO2 RAB05E23 SLP094 P0000 60000 70032 T00780067 10089 20078 51008=
202401231122 SPECI KSEA 231122Z 17006KT 10SM -RA OVC014 08/06 A2978 RMK AO2 RAB05 P0000 T00830061=
202401231053 METAR KSEA 231053Z 15008KT 10SM BKN018 OVC027 08/06 A2978 RMK AO2 SLP091 T00830061=
202401230953 METAR KSEA 230953Z 15006KT 10SM BKN023 OVC031 08/06 A2977 RMK AO2 SLP089 T00780056=
202401230920 SPECI KSEA 230920Z 15005KT 10SM BKN019 BKN025 OVC032 08/06 A2977 RMK AO2 T00780056=
202401230853 METAR KSEA 230853Z 13009KT 10SM BKN012 BKN021 OVC025 08/06 A2976 RMK AO2 SLP085 T00830056 51008=
202401230826 SPECI KSEA 230826Z 13009KT 10SM BKN012 OVC017 08/06 A2976 RMK AO2 T00830056=
202401230801 SPECI KSEA 230801Z 15006KT 10SM SCT011 BKN017 OVC024 08/06 A2975 RMK AO2 T00830056=
202401230753 METAR KSEA 230753Z 16005KT 10SM BKN011 BKN017 OVC024 08/06 A2975 RMK AO2 SLP082 T00830056 401060067=
202401230653 METAR KSEA 230653Z 12007KT 050V150 10SM OVC011 09/06 A2974 RMK AO2 SLP077 T00890061=
202401230553 METAR KSEA 230553Z 14006KT 10SM BKN013 09/07 A2972 RMK AO2 SLP072 T00890067 10106 20089 51013=
202401230453 METAR KSEA 230453Z 13006KT 10SM BKN011 OVC020 09/07 A2971 RMK AO2 SLP068 T00940072=
202401230429 SPECI KSEA 230429Z 00000KT 10SM FEW011 BKN020 OVC030 09/07 A2971 RMK AO2 T00940072=
202401230353 METAR KSEA 230353Z 19004KT 10SM SCT022 OVC034 09/08 A2970 RMK AO2 SLP064 T00940078=
202401230253 METAR KSEA 230253Z 21004KT 10SM FEW028 OVC035 09/07 A2968 RMK AO2 SLP058 T00940072 51020=
202401230153 METAR KSEA 230153Z 19004KT 10SM OVC037 10/08 A2967 RMK AO2 SLP053 T01000078=
202401230134 SPECI KSEA 230134Z 20003KT 10SM FEW023 OVC035 09/08 A2966 RMK AO2 T00940078=
202401230053 METAR KSEA 230053Z 18005KT 10SM SCT023 OVC029 10/08 A2965 RMK AO2 SLP046 T01000078=
202401230039 SPECI KSEA 230039Z 17007KT 10SM SCT023 OVC030 10/08 A2964 RMK AO2 T01000078=
202401222353 METAR KSEA 222353Z 19005KT 10SM FEW019 OVC029 11/08 A2962 RMK AO2 SLP038 60021 T01060083 10106 20078 53023=
202401222253 METAR KSEA 222253Z 22012KT 10SM FEW009 OVC017 11/08 A2960 RMK AO2 RAE40 SLP029 P0001 T01060083=
202401222215 SPECI KSEA 222215Z 20009KT 7SM -RA FEW009 BKN015 OVC023 10/08 A2958 RMK AO2 P0000 T01000083=
202401222153 METAR KSEA 222153Z 19011KT 7SM -RA SCT009 BKN014 OVC023 10/08 A2957 RMK AO2 SLP020 P0005 T01000083=
202401222053 METAR KSEA 222053Z 18009KT 5SM -RA BR BKN005 OVC010 09/08 A2955 RMK AO2 SLP014 P0007 60015 T00940078 51018=
202401221953 METAR KSEA 221953Z 18011KT 1 1/2SM -RA BR BKN009 OVC015 08/07 A2954 RMK AO2 SLP009 P0004 T00830072=
202401221947 SPECI KSEA 221947Z 17008KT 1 3/4SM -RA BR BKN009 OVC015 08/07 A2954 RMK AO2 P0004=
202401221918 SPECI KSEA 221918Z 14007KT 2SM -RA BR FEW007 BKN013 OVC018 08/07 A2953 RMK AO2 P0001 T00830067=
202401221853 METAR KSEA 221853Z 15009KT 1 1/4SM R16L/5500VP6000FT -RA BR OVC026 08/06 A2952 RMK AO2 SLP005 P0004 T00780061=
202401221846 SPECI KSEA 221846Z 15010KT 1 1/2SM -RA BR OVC028 08/06 A2952 RMK AO2 P0003 T00830061=
202401221753 METAR KSEA 221753Z 14005KT 5SM -RA BR OVC032 08/06 A2950 RMK AO2 SLP997 P0003 60011 T00780056 10083 20067 53026=
202401221653 METAR KSEA 221653Z 10008KT 7SM -RA BKN042 OVC060 07/05 A2947 RMK AO2 SLP988 P0003 T00720050=
202401221553 METAR KSEA 221553Z 10007KT 7SM -RA BKN048 OVC060 08/04 A2944 RMK AO2 RAB09 SLP976 P0004 T00780044=
202401221453 METAR KSEA 221453Z 19003KT 10SM BKN050 OVC060 08/04 A2942 RMK AO2 SLP971 60001 T00780044 51003=
202401221353 METAR KSEA 221353Z 12003KT 10SM SCT040 SCT060 OVC075 08/05 A2942 RMK AO2 RAE23 SLP970 P0000 T00780050=
202401221253 METAR KSEA 221253Z 11011KT 10SM -RA OVC039 08/05 A2942 RMK AO2 RAE14B42 SLP971 P0001 T00780050=
202401221153 METAR KSEA 221153Z 10008KT 9SM -RA BKN044 OVC050 08/05 A2942 RMK AO2 SLP968 P0003 60019 70052 T00780050 10083 20067 58006=
202401221053 METAR KSEA 221053Z 10009KT 9SM -RA SCT045 BKN060 OVC080 08/04 A2942 RMK AO2 SLP970 P0004 T00780044=
202401220953 METAR KSEA 220953Z 09006KT 8SM -RA BKN055 OVC070 07/04 A2943 RMK AO2 SLP974 P0003 T00720044=
202401220853 METAR KSEA 220853Z 08004KT 10SM -RA BKN060 OVC100 07/04 A2943 RMK AO2 SLP975 P0001 60009 T00720044 58016=
202401220753 METAR KSEA 220753Z 07006KT 10SM -RA BKN055 OVC070 08/04 A2945 RMK AO2 SLP980 P0003 T00780044 400890056=
202401220653 METAR KSEA 220653Z 10009KT 8SM -RA BKN050 OVC065 07/04 A2947 RMK AO2 SLP988 P0005 T00720044=
202401220553 METAR KSEA 220553Z 12009KT 10SM -RA BKN050 OVC070 07/04 A2948 RMK AO2 SLP991 P0003 60014 T00720039 10083 20072 55002=
202401220453 METAR KSEA 220453Z 10008KT 10SM -RA FEW050 OVC060 08/04 A2948 RMK AO2 RAE0356B12 SLP989 P0002 T00780044=
202401220353 METAR KSEA 220353Z 00000KT 10SM -RA OVC048 08/04 A2948 RMK AO2 RAB0255E07B26 SLP989 P0000 T00780044=
202401220253 METAR KSEA 220253Z 09011KT 10SM FEW037 BKN050 OVC080 07/04 A2949 RMK AO2 RAE10 SLP993 P0002 60009 T00720044 50002=
202401220153 METAR KSEA 220153Z 12006KT 8SM -RA FEW041 OVC048 07/06 A2950 RMK AO2 SLP997 P0004 T00720056=
202401220053 METAR KSEA 220053Z 12005KT 7SM -RA BKN055 OVC070 08/05 A2949 RMK AO2 RAE08B36 SLP995 P0003 T00780050=
202401212353 METAR KSEA 212353Z 11007KT 10SM -RA FEW036 OVC060 08/05 A2948 RMK AO2 RAB31 SLP991 P0000 60011 T00780050 10089 20072 55002=
202401212253 METAR KSEA 212253Z 13008KT 10SM BKN041 OVC050 08/05 A2948 RMK AO2 RAE13 SLP989 P0000 T00830050=
202401212153 METAR KSEA 212153Z 10011KT 9SM -RA FEW045 BKN060 OVC075 08/05 A2947 RMK AO2 RAB10 SLP987 P0001 T00780050=
202401212053 METAR KSEA 212053Z 10013KT 10SM SCT050 OVC060 07/04 A2949 RMK AO2 RAE52 SLP994 P0004 60010 T00720044 50000=
202401211953 METAR KSEA 211953Z 10009KT 6SM -RA OVC046 07/04 A2950 RMK AO2 SLP999 P0006 T00720039=
202401211853 METAR KSEA 211853Z 00000KT 10SM -RA BKN047 BKN055 OVC075 08/04 A2950 RMK AO2 RAB51 SLP998 P0000 T00780039=
202401211753 METAR KSEA 211753Z 10010KT 10SM BKN047 OVC060 08/04 A2949 RMK AO2 SLP993 60008 T00780039 10078 20061 58005=
202401211653 METAR KSEA 211653Z 11006KT 10SM OVC042 07/04 A2950 RMK AO2 SLP997 T00670039=
202401211553 METAR KSEA 211553Z 10009KT 10SM OVC036 07/04 A2951 RMK AO2 RAE50 SLP999 P0000 T00670039=
202401211453 METAR KSEA 211453Z 10011KT 10SM -RA OVC033 07/04 A2950 RMK AO2 SLP998 P0001 60008 T00670039 58002=
202401211353 METAR KSEA 211353Z 19004KT 10SM -RA OVC045 06/04 A2951 RMK AO2 SLP002 P0003 T00610039=
202401211253 METAR KSEA 211253Z 13007KT 7SM -RA OVC041 06/04 A2952 RMK AO2 SLP003 P0004 T00610039=
202401211153 METAR KSEA 211153Z 12006KT 9SM -RA OVC032 06/03 A2951 RMK AO2 RAB53 SLP000 P0000 60024 70031 T00610033 10061 20056 53004=
202401211053 METAR KSEA 211053Z 12010KT 10SM OVC041 06/03 A2950 RMK AO2 SLP998 T00610028=
202401210953 METAR KSEA 210953Z 11011KT 10SM OVC039 06/03 A2950 RMK AO2 RAE35 SLP997 P0001 T00560028=
202401210853 METAR KSEA 210853Z 12010KT 10SM -RA OVC039 06/03 A2950 RMK AO2 SLP996 P0005 60023 T00560028 55002=
202401210753 METAR KSEA 210753Z 12013KT 7SM -RA OVC048 06/03 A2950 RMK AO2 SLP996 P0010 T00560028 401060017=
202401210653 METAR KSEA 210653Z 10012KT 8SM -RA OVC046 06/03 A2950 RMK AO2 SLP996 P0008 T00560028=
202401210553 METAR KSEA 210553Z 11009KT 7SM -RA SCT040 OVC050 06/02 A2950 RMK AO2 SLP998 P0005 60007 T00610022 10078 20061 53006=
202401210453 METAR KSEA 210453Z 11010KT 10SM -RA SCT035 OVC050 07/02 A2949 RMK AO2 SLP995 P0000 T00670022=
202401210353 METAR KSEA 210353Z 12008KT 10SM -RA SCT035 OVC060 07/02 A2948 RMK AO2 RAE0259B16 SLP991 P0002 T00670022=
202401210253 METAR KSEA 210253Z 11003KT 10SM -RA SCT035 BKN065 OVC090 07/04 A2948 RMK AO2 RAB28 SLP992 P0000 60000 T00720039 50001=
202401210153 METAR KSEA 210153Z 24003KT 10SM SCT040 BKN060 OVC075 07/03 A2949 RMK AO2 SLP993 T00720033=
202401210053 METAR KSEA 210053Z 00000KT 10SM FEW040 SCT070 BKN090 07/03 A2949 RMK AO2 SLP994 T00720028=
202401202353 METAR KSEA 202353Z 32005KT 10SM FEW050 SCT100 BKN200 07/03 A2948 RMK AO2 SLP990 T00720033 10106 20044 56012=
202401202253 METAR KSEA 202253Z 30006KT 10SM FEW060 SCT110 SCT200 09/03 A2948 RMK AO2 SLP992 T00940033=
202401202153 METAR KSEA 202153Z 34005KT 10SM FEW060 SCT110 BKN200 09/02 A2949 RMK AO2 SLP994 T00940022=
202401202053 METAR KSEA 202053Z 36005KT 10SM FEW060 SCT110 BKN200 08/02 A2952 RMK AO2 SLP002 T00780022 57030=
202401201953 METAR KSEA 201953Z 03005KT 10SM FEW060 SCT110 BKN220 07/02 A2954 RMK AO2 SLP012 T00670022=
202401201853 METAR KSEA 201853Z 03005KT 10SM SCT060 BKN120 06/01 A2958 RMK AO2 SLP023 T00610011=
202401201753 METAR KSEA 201753Z 00000KT 7SM BCFG FEW001 SCT060 BKN120 04/03 A2960 RMK AO2 SLP034 T00440033 10044 20017 58008=
202401201740 SPECI KSEA 201740Z 32003KT 2SM R16L/1000VP6000FT BCFG SCT001 BKN120 04/03 A2960 RMK AO2 T00390028=
202401201653 METAR KSEA 201653Z 00000KT 1/4SM R16L/1000V1200FT FG VV001 03/02 A2962 RMK AO2 SLP039 T00280022=
202401201624 SPECI KSEA 201624Z 18004KT 1/2SM R16L/1200V1800FT FG BKN001 BKN120 03/02 A2962 RMK AO2 T00330022=
202401201553 METAR KSEA 201553Z 17004KT 3/4SM R16L/1200V3500FT BCFG BKN001 BKN120 BKN170 03/02 A2962 RMK AO2 SLP040 T00280017=
202401201544 SPECI KSEA 201544Z 17004KT 3/4SM R16L/2000VP6000FT BCFG BKN001 BKN120 BKN170 03/02 A2963 RMK AO2 T00280017=
202401201534 SPECI KSEA 201534Z 16004KT 8SM FEW001 BKN170 03/01 A2962 RMK AO2 T00280011=
202401201453 METAR KSEA 201453Z 20005KT 10SM BKN170 03/01 A2963 RMK AO2 SLP042 T00280006 56015=
202401201353 METAR KSEA 201353Z 04005KT 10SM BKN160 03/01 A2964 RMK AO2 SLP044 T00330011=
202401201253 METAR KSEA 201253Z 33003KT 10SM BKN130 BKN160 02/01 A2965 RMK AO2 SLP047 T00170006=
202401201153 METAR KSEA 201153Z 09003KT 10SM SCT120 OVC150 03/01 A2967 RMK AO2 SLP055 T00330011 10061 20033 58018=
202401201053 METAR KSEA 201053Z 02003KT 10SM BKN130 OVC160 04/01 A2970 RMK AO2 SLP065 T00390011=
202401200953 METAR KSEA 200953Z 32003KT 10SM FEW095 BKN120 OVC140 04/01 A2971 RMK AO2 SLP068 T00390011=
202401200853 METAR KSEA 200853Z 00000KT 10SM BKN130 OVC160 04/02 A2973 RMK AO2 SLP074 T00440017 58013=
202401200753 METAR KSEA 200753Z 04005KT 10SM FEW120 OVC160 04/01 A2974 RMK AO2 SLP078 T00440011 400830028=
202401200653 METAR KSEA 200653Z 01006KT 10SM OVC130 04/01 A2976 RMK AO2 SLP085 T00440006=
202401200553 METAR KSEA 200553Z 09007KT 10SM BKN180 06/M01 A2976 RMK AO2 SLP087 T00561011 10078 20044 58011=
202401200453 METAR KSEA 200453Z 07006KT 10SM BKN180 06/M01 A2977 RMK AO2 SLP089 T00611006=
202401200353 METAR KSEA 200353Z 05003KT 10SM BKN150 06/01 A2979 RMK AO2 SLP098 T00560006=
202401200253 METAR KSEA 200253Z 03004KT 10SM BKN150 BKN200 06/01 A2980 RMK AO2 SLP098 T00560006 56016=
202401200153 METAR KSEA 200153Z 00000KT 10SM BKN150 BKN200 07/M01 A2980 RMK AO2 SLP101 T00671011=
202401200053 METAR KSEA 200053Z 13008KT 10SM FEW090 BKN140 BKN200 07/M01 A2982 RMK AO2 SLP105 T00671011=
202401192353 METAR KSEA 192353Z 12006KT 10SM FEW090 SCT120 BKN180 08/M01 A2984 RMK AO2 SLP113 60000 T00781011 10083 20056 58027=
202401192253 METAR KSEA 192253Z 12006KT 10SM FEW085 BKN120 BKN180 08/M01 A2987 RMK AO2 SLP123 T00781011=
202401192153 METAR KSEA 192153Z 15008KT 10SM FEW055 OVC080 07/M01 A2990 RMK AO2 RAE32 SLP133 P0000 T00671006=
202401192053 METAR KSEA 192053Z 19005KT 10SM -RA FEW055 BKN075 OVC090 06/01 A2992 RMK AO2 RAB49 SLP142 P0000 60000 T00610011 56008=
202401191953 METAR KSEA 191953Z 16008KT 10SM SCT070 BKN085 OVC100 07/M02 A2993 RMK AO2 SLP145 T00671017=
202401191853 METAR KSEA 191853Z 09010G19KT 10SM BKN060 OVC080 07/M01 A2993 RMK AO2 SLP144 T00671011=
202401191753 METAR KSEA 191753Z 16005KT 10SM OVC070 06/M02 A2995 RMK AO2 SLP151 T00561022 10061 20033 53001=
202401191653 METAR KSEA 191653Z 14007KT 10SM BKN060 BKN070 OVC100 05/M03 A2993 RMK AO2 SLP144 T00501028=
202401191553 METAR KSEA 191553Z 11009KT 10SM SCT060 OVC095 04/M03 A2995 RMK AO2 SLP151 T00441033=
202401191453 METAR KSEA 191453Z 11011KT 10SM FEW080 BKN120 05/M02 A2995 RMK AO2 SLP150 T00501017 55010=
202401191353 METAR KSEA 191353Z 05008KT 10SM BKN085 OVC110 03/00 A2993 RMK AO2 SLP144 T00330000=
202401191253 METAR KSEA 191253Z 06006KT 10SM OVC110 04/M01 A2996 RMK AO2 SLP153 T00391006=
202401191153 METAR KSEA 191153Z 08011KT 10SM BKN110 04/M01 A2998 RMK AO2 SLP160 60002 70040 T00391006 10039 20028 56020=
202401191053 METAR KSEA 191053Z 09012KT 10SM OVC100 03/M01 A2999 RMK AO2 RAE47 SLP164 P0001 T00331006=
202401190953 METAR KSEA 190953Z 10015G23KT 10SM -RA BKN060 OVC075 03/M01 A3002 RMK AO2 SLP175 P0000 T00331011=
202401190853 METAR KSEA 190853Z VRB04KT 10SM -RA OVC070 04/M02 A3004 RMK AO2 SLP180 P0001 60001 T00391017 55006=
202401190753 METAR KSEA 190753Z 10007KT 10SM -RA BKN060 OVC070 03/M01 A3003 RMK AO2 RAB04 SLP180 P0000 T00331011 400390011=
202401190653 METAR KSEA 190653Z 10011G23KT 10SM SCT045 OVC070 03/M01 A3004 RMK AO2 RAE50 SLP181 P0000 T00331011=
202401190553 METAR KSEA 190553Z 11016G23KT 10SM -RA BKN050 OVC070 03/M02 A3006 RMK AO2 SLP188 P0000 60004 T00281017 10028 20022 58008=
202401190453 METAR KSEA 190453Z 10013KT 10SM -RA FEW047 BKN060 OVC070 03/M02 A3007 RMK AO2 SLP193 P0000 T00281017=
202401190353 METAR KSEA 190353Z 10014KT 10SM -RA SCT034 BKN060 OVC085 03/M02 A3008 RMK AO2 SLP196 P0000 T00281017=
202401190253 METAR KSEA 190253Z 11014KT 10SM -RA FEW033 BKN043 OVC050 02/M02 A3008 RMK AO2 SLP197 P0001 60004 T00221017 56004=
202401190153 METAR KSEA 190153Z 11012G18KT 10SM -RA FEW045 OVC060 02/M02 A3008 RMK AO2 SLP196 P0001 T00221017=
202401190053 METAR KSEA 190053Z 10017G26KT 7SM -RA FEW042 OVC055 03/M01 A3008 RMK AO2 PK WND 12026/0052 SLP195 P0002 T00281011=
202401182353 METAR KSEA 182353Z 10011G17KT 5SM -RA FEW031 BKN039 OVC050 02/M01 A3009 RMK AO2 SLP201 P0005 60022 T00221006 10022 20017 56003=
202401182253 METAR KSEA 182253Z 10009KT 5SM -RA BR FEW029 BKN040 OVC055 02/00 A3010 RMK AO2 SLP202 P0005 T00220000=
202401182153 METAR KSEA 182153Z 09011KT 5SM -RA BR FEW007 OVC030 02/00 A3009 RMK AO2 SLP199 P0004 T00220000=
202401182142 SPECI KSEA 182142Z 09011KT 6SM -RA BR FEW007 OVC029 02/00 A3009 RMK AO2 P0003 T00220000=
202401182053 METAR KSEA 182053Z 10016KT 5SM -RA FEW007 OVC033 02/M01 A3010 RMK AO2 SLP203 P0002 60008 T00221006 50005=
202401181953 METAR KSEA 181953Z 10009KT 7SM -RA FEW006 SCT027 OVC036 02/M01 A3011 RMK AO2 SLP206 P0002 T00221006=
202401181925 SPECI KSEA 181925Z 09008G18KT 7SM -RA FEW006 SCT027 OVC034 02/00 A3012 RMK AO2 P0001 T00220000=
202401181853 METAR KSEA 181853Z 08005KT 6SM -RA FEW006 BKN028 OVC036 02/M01 A3011 RMK AO2 SLP207 P0004 T00221006=
202401181842 SPECI KSEA 181842Z 11006KT 6SM -RA FEW006 BKN028 OVC036 02/M01 A3011 RMK AO2 P0003 T00221006=
202401181753 METAR KSEA 181753Z 09013KT 5SM -RA BR FEW008 SCT020 OVC042 02/M01 A3009 RMK AO2 SLP198 P0005 60012 T00171006 10028 20017 51016=
202401181653 METAR KSEA 181653Z 09011KT 6SM -RA FEW005 BKN035 OVC045 02/M01 A3008 RMK AO2 SLP194 P0003 T00221006=
202401181553 METAR KSEA 181553Z 09010G16KT 7SM -RA FEW003 OVC034 03/00 A3006 RMK AO2 SLP190 P0002 T00280000=
202401181453 METAR KSEA 181453Z 06008KT 6SM -RA BR FEW001 OVC035 02/01 A3004 RMK AO2 SLP182 RAB18 P0002 60002 T00220011 55001=
202401181353 METAR KSEA 181353Z 01007KT 5SM BR SCT001 OVC033 02/01 A3003 RMK AO2 SLP179 T00170011 $=
202401181253 METAR KSEA 181253Z 36005KT 3SM BCFG SCT001 OVC037 02/01 A3003 RMK AO2 SLP178 VIS N 1/2 T00170011 $=
202401181223 SPECI KSEA 181223Z 01006KT 3SM BCFG FEW001 OVC037 02/01 A3002 RMK AO2 T00170011 $=
202401181153 METAR KSEA 181153Z 01004KT 1/2SM R16L/1800VP6000FT FG BKN001 OVC038 02/01 A3004 RMK AO2 SLP183 70022 T00170011 10039 20011 53007 $=
202401181137 SPECI KSEA 181137Z 36004KT 1/2SM R16L/1800VP6000FT FG BKN001 OVC038 02/01 A3004 RMK AO2 T00170011 $=
202401181117 SPECI KSEA 181117Z 35003KT 1/2SM R16L/1400V2200FT FG VV001 02/01 A3003 RMK AO2 T00170011 $=
202401181053 METAR KSEA 181053Z 04006KT 1/2SM R16L/1200VP6000FT FG VV001 02/01 A3003 RMK AO2 SLP179 T00170011 $=
202401181048 SPECI KSEA 181048Z 03006KT 1/2SM R16L/1400V4500FT FG VV001 02/01 A3003 RMK AO2 $=
202401181038 SPECI KSEA 181038Z 03006KT 1/2SM R16L/1200V1800FT FG VV001 02/01 A3003 RMK AO2 T00170011 $=
202401180953 METAR KSEA 180953Z 04007KT 1/2SM R16L/2000V3500FT FG VV001 02/01 A3002 RMK AO2 SLP176 T00170006 $=
202401180932 SPECI KSEA 180932Z 03006KT 4SM R16L/4500VP6000FT BCFG SCT001 OVC044 02/01 A3002 RMK AO2 VIS N 1/2 T00220006 $=
202401180853 METAR KSEA 180853Z 06003KT 5SM BR FEW022 FEW035 OVC046 03/01 A3003 RMK AO2 SLP178 T00280011 51028 $=
202401180837 SPECI KSEA 180837Z 00000KT 10SM SCT012 OVC046 03/02 A3003 RMK AO2 T00330017 $=
202401180814 SPECI KSEA 180814Z 00000KT 10SM OVC012 03/01 A3002 RMK AO2 T00330011 $=
202401180753 METAR KSEA 180753Z 00000KT 9SM SCT010 OVC048 03/01 A3001 RMK AO2 SLP170 T00280011 400441011 $=
202401180717 SPECI KSEA 180717Z 11003KT 10SM FEW010 OVC046 03/02 A2999 RMK AO2 T00330017 $=
202401180653 METAR KSEA 180653Z 14004KT 9SM BKN010 BKN014 OVC047 03/02 A2998 RMK AO2 CIG 009V012 SLP160 T00330017 $=
202401180553 METAR KSEA 180553Z 16003KT 10SM BKN011 OVC014 03/02 A2995 RMK AO2 CIG 008V011 SLP151 T00330017 10039 20017 51045 $=
202401180527 SPECI KSEA 180527Z 14005KT 10SM BKN014 OVC021 03/01 A2993 RMK AO2 T00330011 $=
202401180453 METAR KSEA 180453Z 15004KT 10SM BKN018 OVC023 03/01 A2991 RMK AO2 SLP139 T00330011 $=
202401180353 METAR KSEA 180353Z 16005KT 10SM SCT014 OVC023 03/01 A2986 RMK AO2 SLP122 T00280006 $=
202401180326 SPECI KSEA 180326Z 13005KT 10SM BKN014 OVC025 02/01 A2984 RMK AO2 T00220006 $=
202401180253 METAR KSEA 180253Z 09005KT 10SM BKN018 OVC025 02/00 A2981 RMK AO2 SLP105 T00220000 53031 $=
202401180153 METAR KSEA 180153Z 09006KT 10SM OVC021 02/00 A2978 RMK AO2 SLP094 T00220000 $=
202401180053 METAR KSEA 180053Z 09007KT 10SM FEW005 OVC021 02/00 A2975 RMK AO2 SLP083 T00220000 $=
202401172353 METAR KSEA 172353Z 08006KT 3SM BR FEW004 OVC024 02/00 A2972 RMK AO2 RAE42 SLP074 P0000 60013 T00170000 10044 20011 51059 $=
202401172325 SPECI KSEA 172325Z VRB06KT 2 1/2SM -RA BR SCT003 OVC026 02/01 A2971 RMK AO2 PRESRR P0000 T00220006=
202401172253 METAR KSEA 172253Z 09005KT 2 1/2SM -RA BR BKN003 OVC029 01/00 A2967 RMK AO2 PRESRR SLP056 P0002 T00110000=
202401172212 SPECI KSEA 172212Z 05005KT 3/4SM R16L/P6000FT -RA BR BKN004 OVC025 01/00 A2962 RMK AO2 SFC VIS 1 3/4 P0001 T00110000=
202401172153 METAR KSEA 172153Z 05010KT 3/4SM R16L/P6000FT -RA BR SCT002 BKN005 OVC021 02/01 A2961 RMK AO2 SFC VIS 1 1/2 SLP035 P0001 T00170006=
202401172120 SPECI KSEA 172120Z 03008KT 3/4SM R16L/P6000FT -RA BR SCT004 BKN009 OVC020 02/01 A2956 RMK AO2 SFC VIS 2 P0000 T00220006=
202401172053 METAR KSEA 172053Z 03014KT 3/4SM R16L/P6000FT -RA BR BKN004 OVC010 02/01 A2954 RMK AO2 SFC VIS 5 CIG 002V007 SLP014 P0000 60010 T00220006 53047=
202401171953 METAR KSEA 171953Z 01009KT 3/4SM R16L/P6000FT -RA BR BKN002 OVC010 03/02 A2948 RMK AO2 SFC VIS 5 SLPNO P0003 T00330022=
202401171911 SPECI KSEA 171911Z 34005KT 1/2SM R16L/P6000FT -RA BR BKN002 OVC010 04/03 A2944 RMK AO2 TWR VIS 1 P0001 T00390028=
202401171900 SPECI KSEA 171900Z 1SM R16L/P6000FT -RA BR OVC002 04/02 A2943 RMK AO2 SFC VIS 1 3/4 P0000 T00390022=
202401171853 METAR KSEA 171853Z 28007KT 3/4SM R16L/5500VP6000FT -RA BR OVC002 03/02 A2943 RMK AO2 TWR VIS 1 CIG 001V005 SLP976 P0007 T00330022 $=
202401171753 METAR KSEA 171753Z 14007KT 3/4SM R16L/6000VP6000FT -RA BR BKN003 OVC010 01/M01 A2940 RMK AO2 TWR VIS 1 SLP966 P0002 60009 T00111006 10011 20000 $=
202401171653 METAR KSEA 171653Z 16007KT 3/4SM R16L/6000VP6000FT -RA BR BKN004 OVC008 01/M01 A2939 RMK AO2 TWR VIS 1 DZE10RAB10 SLP961 P0005 T00061006=
202401171615 SPECI KSEA 171615Z 16007KT 3/4SM R16L/6000VP6000FT -RA BR BKN004 OVC008 00/M01 A2940 RMK AO2 TWR VIS 1 DZE10RAB10 P0002 T00001011=
202401171553 METAR KSEA 171553Z 15006KT 1SM R16L/P6000FT -DZ BR FEW002 BKN008 OVC013 01/M01 A2941 RMK AO2 DZB39 SLP970 P0000 T00061011=
202401171539 SPECI KSEA 171539Z 16008KT 1SM R16L/P6000FT -DZ BR FEW002 BKN008 OVC013 00/M01 A2941 RMK AO2 DZB39 P0000 T00001011 $=
202401171524 SPECI KSEA 171524Z 14008KT 2SM BR BKN008 OVC013 00/00 A2942 RMK AO2 P0000 T00000000 $=
202401171505 SPECI KSEA 171505Z 14009KT 2SM -DZ BR BKN008 OVC015 00/M01 A2943 RMK AO2 P0000 T00001011 $=
202401171500 SPECI KSEA 171500Z 2 1/2SM -DZ BR OVC010 00/M01 A2943 RMK AO2 P0000 T00001011 $=
202401171453 METAR KSEA 171453Z 12007KT 1 1/2SM -DZ BR BKN007 OVC013 00/M02 A2944 RMK AO2 SLP978 P0001 60002 T00001017 58020=
202401171353 METAR KSEA 171353Z 13008KT 2 1/2SM -DZ BR BKN007 OVC025 00/00 A2947 RMK AO2 DZB28 SLP989 P0001 T00000000 $=
202401171333 SPECI KSEA 171333Z 13008KT 4SM -DZ BKN008 OVC031 00/00 A2948 RMK AO2 DZB28 P0001 T00000000 $=
202401171328 SPECI KSEA 171328Z 14007KT 4SM -DZ BKN008 OVC031 00/ A2948 RMK AO2 DZB28 T0000 PNO $=
202401171254 SPECI KSEA 171254Z 12006KT 9SM FEW011 OVC025 01/M02 A2950 RMK AO2 T00061017 $=
202401171253 METAR KSEA 171253Z 9SM FEW011 OVC025 01/M02 A2950 RMK AO2 SLP999 T00061017 $=
202401171247 SPECI KSEA 171247Z VRB03KT 7SM FEW011 OVC025 01/M01 A2950 RMK AO2 $=
202401171225 SPECI KSEA 171225Z 12005KT 10SM BKN011 OVC039 00/M02 A2952 RMK AO2 T00001017 $=
202401171155 SPECI KSEA 171155Z 09003KT 10SM BKN011 OVC039 00/M02 A2953 RMK AO2 T00001017 $=
202401171153 METAR KSEA 171153Z 10SM BKN011 OVC041 00/M01 A2953 RMK AO2 SLP009 6//// 7//// T00001011 $=
202401171117 SPECI KSEA 171117Z 15007KT 7SM BKN029 OVC049 00/M02 A2954 RMK AO2 T00001017 $=
202401171053 METAR KSEA 171053Z 14005KT 8SM BKN014 BKN025 OVC034 00/M02 A2955 RMK AO2 RAE22FZRAB22E51 SLP016 P0002 T00001017 $=
202401171023 SPECI KSEA 171023Z 12006KT 4SM -FZRA BR BKN008 OVC016 00/M02 A2957 RMK AO2 RAE22FZRAB22 P0001 T00001017 $=
202401170953 METAR KSEA 170953Z 13008KT 3SM -RA BR OVC008 00/M01 A2958 RMK AO2 SLP026 P0004 T00001006 $=
202401170951 SPECI KSEA 170951Z 13008KT 3SM -RA BR OVC008 00/M01 A2958 RMK AO2 P0003 $=
202401170942 SPECI KSEA 170942Z 13006KT 3SM -RA BR OVC008 00/M01 A2958 RMK AO2 T00001006 PNO $=
202401170853 METAR KSEA 170853Z 11006KT 4SM -RA BR OVC008 00/M01 A2960 RMK AO2 CIG 004V011 SLP033 6//// T00001006 58022 PNO $=
202401170814 SPECI KSEA 170814Z 13009KT 4SM -RA BR FEW004 SCT010 OVC015 00/M01 A2961 RMK AO2 PRESFR T00001006 PNO $=
202401170753 METAR KSEA 170753Z 13003KT 3SM -RA BR BKN017 OVC023 00/M01 A2963 RMK AO2 SLP042 T00001006 400221056 PNO $=
202401170653 METAR KSEA 170653Z 10005KT 5SM -RA BR OVC021 00/M01 A2965 RMK AO2 SLP050 T00001011 PNO $=
202401170553 METAR KSEA 170553Z 08005KT 5SM -RA BR BKN017 OVC041 M01/M02 A2967 RMK AO2 RAB15FZRAE15 SLP056 P0001 60004 T10061022 10022 21006 58025 $=
202401170544 SPECI KSEA 170544Z 09006KT 5SM -RA BR BKN017 OVC041 M01/M02 A2967 RMK AO2 RAB15FZRAE15 P0001 T10061022 $=
202401170515 SPECI KSEA 170515Z 09006KT 7SM -RA SCT014 OVC046 01/M03 A2967 RMK AO2 RAB15FZRAE15 P0001 T00061033 $=
202401170453 METAR KSEA 170453Z 09005KT 6SM -FZRA SCT014 BKN022 OVC037 00/M03 A2969 RMK AO2 DZE19RAB19E21FZRAB21 SLP065 P0003 T00001033=
202401170421 SPECI KSEA 170421Z 15004KT 5SM -FZRA SCT014 OVC024 M01/M04 A2971 RMK AO2 DZE19RAB19E21FZRAB21 P0001 T10061039=
202401170410 SPECI KSEA 170410Z 15006KT 8SM -DZ SCT015 BKN020 OVC028 00/M04 A2972 RMK AO2 P0000 T00001044=
202401170353 METAR KSEA 170353Z 14007KT 10SM -DZ SCT015 OVC030 01/M06 A2972 RMK AO2 SLP076 DZB42 P0000 T00061056=
202401170253 METAR KSEA 170253Z 00000KT 10SM BKN044 OVC150 02/M09 A2974 RMK AO2 SLP082 T00171089 56027=
202401170153 METAR KSEA 170153Z 09006KT 10SM SCT036 BKN048 OVC150 02/M10 A2975 RMK AO2 SLP085 T00171100=
202401170053 METAR KSEA 170053Z 00000KT 10SM SCT039 BKN050 OVC180 01/M08 A2979 RMK AO2 SLP099 T00111078=
202401162353 METAR KSEA 162353Z 00000KT 10SM FEW060 FEW160 BKN200 01/M08 A2982 RMK AO2 SLP109 T00111083 10022 21011 57030=
202401162253 METAR KSEA 162253Z 00000KT 10SM BKN200 02/M09 A2985 RMK AO2 SLP118 T00171089=
202401162153 METAR KSEA 162153Z 25004KT 10SM BKN220 01/M09 A2989 RMK AO2 SLP132 T00111089=
202401162053 METAR KSEA 162053Z 13004KT 10SM BKN220 02/M13 A2991 RMK AO2 PRESFR SLP140 T00171133 58035=
202401161953 METAR KSEA 161953Z 00000KT 10SM SCT180 BKN230 01/M14 A2997 RMK AO2 SLP159 T00061144=
202401161853 METAR KSEA 161853Z VRB05KT 10SM BKN180 BKN230 00/M15 A2999 RMK AO2 SLP168 T00001150=
202401161753 METAR KSEA 161753Z 14006KT 10SM BKN180 BKN250 M01/M15 A3002 RMK AO2 SLP176 T10111150 11011 21033 56015 $=
202401161653 METAR KSEA 161653Z 12007KT 10SM BKN210 BKN250 M02/M16 A3003 RMK AO2 SLP181 T10171156=
202401161553 METAR KSEA 161553Z 11007KT 10SM SCT210 BKN250 M03/M16 A3005 RMK AO2 SLP186 T10281156 $=
202401161453 METAR KSEA 161453Z 11007KT 10SM FEW250 M03/M16 A3006 RMK AO2 SLP192 T10331156 58028 $=
202401161353 METAR KSEA 161353Z 13009KT 10SM SCT250 M03/M16 A3010 RMK AO2 SLP204 T10331161 $=
202401161253 METAR KSEA 161253Z 12008KT 10SM SCT250 M02/M16 A3013 RMK AO2 SLP213 T10221161 $=
202401161153 METAR KSEA 161153Z 08006KT 10SM FEW250 M03/M16 A3015 RMK AO2 SLP221 T10281156 11017 21033 58019 $=
202401161053 METAR KSEA 161053Z 06006KT 10SM FEW250 M03/M14 A3017 RMK AO2 SLP228 T10281144 $=
202401160953 METAR KSEA 160953Z 09009KT 10SM SCT250 M03/M16 A3019 RMK AO2 SLP232 T10281161 $=
202401160853 METAR KSEA 160853Z 10009KT 10SM SCT250 M02/M16 A3020 RMK AO2 SLP239 T10221161 56017 $=
202401160753 METAR KSEA 160753Z 10007KT 10SM SCT250 M02/M16 A3021 RMK AO2 PRESFR SLP241 T10221156 400331061 $=
202401160653 METAR KSEA 160653Z 09008KT 10SM SCT250 M02/M16 A3024 RMK AO2 SLP253 T10171156 $=
202401160553 METAR KSEA 160553Z 07009G18KT 10SM SCT250 M02/M15 A3026 RMK AO2 SLP257 T10171150 10017 21017 58008 $=
202401160453 METAR KSEA 160453Z 08010KT 10SM SCT250 M01/M15 A3028 RMK AO2 SLP264 T10111150 $=
202401160353 METAR KSEA 160353Z 08009KT 10SM SCT250 M01/M15 A3028 RMK AO2 SLP266 T10111150 $=
202401160253 METAR KSEA 160253Z 10007KT 10SM SCT250 M01/M15 A3028 RMK AO2 SLP265 T10111150 55016 $=
202401160153 METAR KSEA 160153Z 10008KT 10SM BKN250 M01/M14 A3028 RMK AO2 SLP264 T10061144 $=
202401160053 METAR KSEA 160053Z 08007KT 10SM BKN250 01/M14 A3031 RMK AO2 SLP274 T00061139 $=
202401152353 METAR KSEA 152353Z 07010KT 10SM BKN250 02/M14 A3033 RMK AO2 SLP282 T00171144 10033 21011 56014 $=
202401152253 METAR KSEA 152253Z 05008KT 10SM BKN250 02/M14 A3034 RMK AO2 SLP286 T00221139 $=
202401152153 METAR KSEA 152153Z 10004KT 10SM BKN220 03/M15 A3035 RMK AO2 SLP290 T00281150 $=
202401152053 METAR KSEA 152053Z 10006KT 10SM BKN220 03/M15 A3037 RMK AO2 SLP295 T00281150 58003 $=
202401151953 METAR KSEA 151953Z 09008KT 10SM BKN220 02/M16 A3038 RMK AO2 SLP299 T00171156 $=
202401151853 METAR KSEA 151853Z 09009KT 10SM BKN220 00/M16 A3039 RMK AO2 SLP302 T00001156 $=
202401151753 METAR KSEA 151753Z 08007KT 10SM BKN220 M01/M15 A3038 RMK AO2 SLP298 T10111150 11011 21061 53005 $=
202401151653 METAR KSEA 151653Z 04007KT 10SM BKN220 M02/M13 A3037 RMK AO2 SLP296 T10221133 $=
202401151553 METAR KSEA 151553Z 05007KT 10SM BKN220 M05/M12 A3037 RMK AO2 SLP296 T10501122 $=
202401151453 METAR KSEA 151453Z 04007KT 10SM CLR M05/M12 A3036 RMK AO2 SLP294 T10501122 55001 $=
202401151353 METAR KSEA 151353Z 03005KT 10SM FEW250 M04/M13 A3035 RMK AO2 SLP291 T10441128 $=
202401151253 METAR KSEA 151253Z 02008KT 10SM CLR M06/M12 A3035 RMK AO2 SLP290 T10561117 $=
202401151153 METAR KSEA 151153Z 02008KT 10SM SCT250 M04/M13 A3036 RMK AO2 SLP294 T10441128 11039 21061 50009 $=
202401151053 METAR KSEA 151053Z 03005KT 10SM CLR M06/M12 A3037 RMK AO2 SLP296 T10561122 $=
202401150953 METAR KSEA 150953Z 04006KT 10SM CLR M06/M13 A3037 RMK AO2 SLP295 T10611128 $=
202401150853 METAR KSEA 150853Z 06007KT 10SM CLR M05/M13 A3034 RMK AO2 SLP286 T10501128 50010 $=
202401150753 METAR KSEA 150753Z 10004KT 10SM CLR M04/M14 A3034 RMK AO2 SLP288 T10391139 410061072=
202401150653 METAR KSEA 150653Z 04006KT 10SM FEW250 M05/M14 A3033 RMK AO2 SLP284 T10501139=
202401150553 METAR KSEA 150553Z 09007KT 10SM SCT250 M04/M15 A3031 RMK AO2 SLP275 T10391150 11011 21039 50006=
202401150453 METAR KSEA 150453Z 09008KT 10SM BKN250 M03/M13 A3031 RMK AO2 SLP277 T10331133=
202401150353 METAR KSEA 150353Z 05007KT 10SM BKN250 M03/M12 A3031 RMK AO2 SLP277 T10331117=
202401150253 METAR KSEA 150253Z 05005KT 10SM BKN250 M03/M12 A3029 RMK AO2 SLP269 T10281122 51018=
202401150153 METAR KSEA 150153Z 35004KT 10SM BKN250 M03/M12 A3027 RMK AO2 SLP265 T10331117 $=
202401150053 METAR KSEA 150053Z 03007KT 10SM FEW120 BKN240 M02/M12 A3025 RMK AO2 SLP258 T10221117 $=
202401142353 METAR KSEA 142353Z 35005KT 10SM FEW120 BKN240 M01/M12 A3023 RMK AO2 SLP251 T10111122 11006 21056 53006 $=
202401142253 METAR KSEA 142253Z 00000KT 10SM FEW120 BKN240 M01/M13 A3022 RMK AO2 SLP245 T10111128 $=
202401142153 METAR KSEA 142153Z 07003KT 10SM FEW120 BKN240 M01/M14 A3022 RMK AO2 SLP246 T10111139 $=
202401142053 METAR KSEA 142053Z 08003KT 10SM FEW150 BKN240 M02/M14 A3022 RMK AO2 SLP245 T10171139 50006 $=
202401141953 METAR KSEA 141953Z 00000KT 10SM SCT130 BKN230 M03/M13 A3023 RMK AO2 SLP249 T10281133 $=
202401141853 METAR KSEA 141853Z 11004KT 10SM SCT130 BKN220 M04/M15 A3022 RMK AO2 SLP247 T10391150 $=
202401141753 METAR KSEA 141753Z 12006KT 10SM FEW140 BKN240 M06/M17 A3020 RMK AO2 SLP240 T10561167 11056 21072 53024 $=
202401141653 METAR KSEA 141653Z 11007KT 10SM FEW150 BKN240 M07/M17 A3017 RMK AO2 SLP230 T10671172 $=
202401141553 METAR KSEA 141553Z 11006KT 10SM FEW150 SCT230 M07/M17 A3014 RMK AO2 SLP221 T10671172 $=
202401141453 METAR KSEA 141453Z 11005KT 10SM FEW200 M07/M17 A3013 RMK AO2 SLP215 T10721172 53033 $=
202401141353 METAR KSEA 141353Z 09007KT 10SM FEW200 M07/M18 A3008 RMK AO2 SLP201 T10721178 $=
202401141253 METAR KSEA 141253Z 09005KT 10SM SCT200 M07/M18 A3006 RMK AO2 SLP193 T10671178 $=
202401141153 METAR KSEA 141153Z 11006KT 10SM BKN200 M07/M17 A3003 RMK AO2 SLP182 T10671172 11061 21072 51019 $=
202401141053 METAR KSEA 141053Z 06007KT 10SM FEW200 M07/M17 A3002 RMK AO2 SLP179 T10721172 $=
202401140953 METAR KSEA 140953Z 09008KT 10SM FEW140 M06/M18 A2999 RMK AO2 SLP169 T10611178 $=
202401140853 METAR KSEA 140853Z 06005KT 10SM CLR M07/M16 A2997 RMK AO2 SLP163 T10671161 53026 $=
202401140753 METAR KSEA 140753Z 05008KT 10SM FEW230 M07/M18 A2994 RMK AO2 SLP152 T10671183 410561094 $=
202401140653 METAR KSEA 140653Z 07007KT 10SM SCT230 M07/M19 A2990 RMK AO2 SLP139 T10671189 $=
202401140553 METAR KSEA 140553Z 06009KT 10SM SCT220 M07/M18 A2990 RMK AO2 SLP137 T10671183 11056 21072 53015 $=
202401140453 METAR KSEA 140453Z 09011KT 10SM SCT220 M07/M19 A2988 RMK AO2 SLP132 T10671189 $=
202401140353 METAR KSEA 140353Z 08008KT 10SM FEW180 SCT220 M06/M18 A2987 RMK AO2 SLP126 T10611178 $=
202401140253 METAR KSEA 140253Z 08007KT 10SM FEW180 BKN220 M06/M17 A2985 RMK AO2 SLP122 T10611172 51024 $=
202401140153 METAR KSEA 140153Z 05006KT 10SM FEW180 BKN220 M06/M17 A2983 RMK AO2 SLP116 T10561167 $=
202401140053 METAR KSEA 140053Z 07008KT 10SM FEW180 BKN220 M06/M17 A2981 RMK AO2 SLP107 T10561172 $=
202401132353 METAR KSEA 132353Z 10005KT 10SM BKN240 M06/M17 A2978 RMK AO2 SLP097 T10561172 55012 $=
202401132253 METAR KSEA 132253Z 05008KT 10SM BKN240 M06/M18 A2976 RMK AO2 SLP091 T10561183 $=
202401132153 METAR KSEA 132153Z 08011KT 10SM BKN240 M06/M17 A2978 RMK AO2 SLP098 T10611172 $=
202401132053 METAR KSEA 132053Z 08014G18KT 10SM BKN220 M06/M17 A2981 RMK AO2 PK WND 08028/2003 SLP109 T10611172 56044 $=
202401131953 METAR KSEA 131953Z 08015G24KT 10SM BKN220 M06/M19 A2985 RMK AO2 SLP121 T10611194 $=
202401131853 METAR KSEA 131853Z 07011KT 10SM BKN220 M07/M19 A2990 RMK AO2 SLP139 T10671189 $=
202401131753 METAR KSEA 131753Z 09011KT 10SM BKN220 M07/M20 A2994 RMK AO2 SLP153 T10721200 56029 $=
202401131653 METAR KSEA 131653Z 05009KT 10SM BKN220 M08/M21 A2997 RMK AO2 SLP164 T10831206 $=
202401131558 SPECI KSEA 131558Z 06007KT 10SM SCT220 M09/M18 A2998 RMK AO2 T10891178 $=
202401131553 METAR KSEA 131553Z 06007KT 10SM SCT220 M09/ A2999 RMK AO2 SLP170 T1089 $=
202401131453 METAR KSEA 131453Z 07007KT 10SM FEW080 M09/M22 A3003 RMK AO2 SLP183 T10891217 58030 $=
202401131353 METAR KSEA 131353Z 08012G20KT 10SM FEW080 M09/M22 A3006 RMK AO2 SLP194 T10891217 $=
202401131253 METAR KSEA 131253Z 08013KT 10SM FEW240 M09/M19 A3010 RMK AO2 SLP204 T10941194 $=
202401131153 METAR KSEA 131153Z 09015G22KT 10SM SCT240 M09/M19 A3012 RMK AO2 SLP211 T10941194 11083 21094 56023 $=
202401131053 METAR KSEA 131053Z 11013KT 10SM SCT240 M09/M21 A3013 RMK AO2 SLP213 T10891206 $=
202401130953 METAR KSEA 130953Z 08012KT 10SM SCT240 M09/M20 A3017 RMK AO2 SLP227 T10891200 $=
202401130853 METAR KSEA 130853Z 08013G20KT 10SM BKN210 OVC240 M09/M19 A3019 RMK AO2 SLP234 T10891194 58020 $=
202401130753 METAR KSEA 130753Z 07009KT 10SM OVC220 M09/M18 A3022 RMK AO2 SLP244 T10891183 410391094 $=
202401130653 METAR KSEA 130653Z 04009KT 10SM SCT220 M09/M17 A3023 RMK AO2 SLP248 T10891167 $=
202401130553 METAR KSEA 130553Z 06008KT 10SM BKN220 M08/M16 A3025 RMK AO2 SLP255 T10831161 $=
202401130510 SPECI KSEA 130510Z 03011KT 10SM CLR M08/M16 A3025 RMK AO2 T10831156 $=
202401130453 METAR KSEA 130453Z 03012KT 10SM CLR M09/M13 A3025 RMK AO2 SLPNO T10891133=
202401130353 METAR KSEA 130353Z 03010KT 10SM CLR M08/M14 A3026 RMK AO2 SLP260 T10831139 $=
202401130253 METAR KSEA 130253Z 02010KT 10SM FEW028 M08/M15 A3026 RMK AO2 SLP261 T10831150 50002=
202401130153 METAR KSEA 130153Z 36009KT 10SM FEW028 FEW060 SCT200 M09/M14 A3027 RMK AO2 SLP264 T10941139 $=
202401130053 METAR KSEA 130053Z 36011KT 10SM FEW028 FEW060 SCT200 M08/M14 A3027 RMK AO2 SLP263 T10831144 $=
202401122356 SPECI KSEA 122356Z 01012KT 10SM FEW029 SCT055 SCT200 M07/M15 A3025 RMK AO2 T10721150 $=
202401122353 METAR KSEA 122353Z 10SM FEW029 SCT055 SCT200 M07/M15 A3025 RMK AO2 SLP259 T10721150 $=
202401122253 METAR KSEA 122253Z 35016G21KT 10SM FEW029 SCT055 SCT200 M07/M13 A3024 RMK AO2 SLP252 T10671133 $=
202401122153 METAR KSEA 122153Z 36010KT 10SM SCT029 BKN055 M06/M14 A3024 RMK AO2 SLP253 T10611139 $=
202401122053 METAR KSEA 122053Z 36012KT 10SM FEW025 BKN055 M07/M17 A3024 RMK AO2 SLP253 T10671167 51014 $=
202401121953 METAR KSEA 121953Z 02014G23KT 10SM FEW024 BKN055 M07/M17 A3023 RMK AO2 SLP249 T10721172 $=
202401121853 METAR KSEA 121853Z 01011KT 10SM FEW015 BKN060 M07/M16 A3022 RMK AO2 SLP247 T10721156 $=
202401121753 METAR KSEA 121753Z 35014KT 10SM FEW015 BKN060 M07/M15 A3020 RMK AO2 SLP240 T10671150 11050 21067 53022 $=
202401121653 METAR KSEA 121653Z 36013KT 10SM FEW015 BKN060 BKN070 M07/M17 A3018 RMK AO2 SLP231 T10671167 $=
202401121553 METAR KSEA 121553Z 36015KT 10SM FEW010 OVC060 M07/M16 A3015 RMK AO2 SLP222 T10671161 $=
202401121453 METAR KSEA 121453Z 01013KT 10SM FEW010 OVC060 M06/M14 A3013 RMK AO2 SLP217 T10611144 53021 $=
202401121353 METAR KSEA 121353Z 36015KT 10SM FEW025 OVC060 M06/M13 A3011 RMK AO2 SLP206 T10561128 $=
202401121253 METAR KSEA 121253Z 01015G22KT 10SM OVC060 M05/M12 A3008 RMK AO2 SLP198 T10501122 $=
202401121153 METAR KSEA 121153Z 35013KT 10SM OVC060 M05/M11 A3007 RMK AO2 SLP193 60000 T10501111 11028 21050 53028 $=
202401121053 METAR KSEA 121053Z 35017G26KT 10SM OVC060 M04/M11 A3004 RMK AO2 PK WND 36026/1050 SLP182 T10441111=
202401120953 METAR KSEA 120953Z 35015KT 10SM OVC060 M04/M10 A3001 RMK AO2 SLP171 T10391100=
202401120853 METAR KSEA 120853Z 35013G20KT 9SM OVC065 M04/M09 A2999 RMK AO2 SNE51 SLP165 P0000 60000 T10391094 53023=
202401120753 METAR KSEA 120753Z 35011G18KT 9SM -SN BKN060 OVC075 M03/M09 A2996 RMK AO2 SLP156 P0000 T10331089 400721033=
202401120653 METAR KSEA 120653Z 36010KT 9SM -SN OVC055 M03/M09 A2994 RMK AO2 SNB35 SLP149 P0000 T10331089=
202401120636 SPECI KSEA 120636Z 36011G20KT 10SM -SN OVC055 M03/M09 A2994 RMK AO2 SNB35 P0000 T10331094=
202401120553 METAR KSEA 120553Z 35009KT 10SM OVC050 M03/M08 A2992 RMK AO2 SLP141 60000 T10281078 10039 21028 51024=
202401120453 METAR KSEA 120453Z 35007KT 10SM FEW012 OVC046 M03/M06 A2990 RMK AO2 SNE34 SLP135 P0000 T10281061=
202401120403 SPECI KSEA 120403Z 34010KT 3SM -SN FEW007 SCT010 OVC043 M02/M05 A2989 RMK AO2 P0000 T10221050=
202401120354 SPECI KSEA 120354Z 35014KT 2 1/2SM -SN FEW007 BKN013 OVC043 M02/M05 A2988 RMK AO2 P0000 T10221050=
202401120353 METAR KSEA 120353Z 35013KT 2SM -SN BR FEW007 SCT013 OVC043 M02/M04 A2988 RMK AO2 SLP127 P0000 T10221044=
202401120342 SPECI KSEA 120342Z 35014G19KT 2SM -SN BR FEW007 BKN013 OVC041 M02/M04 A2987 RMK AO2 P0000 T10171039=
202401120328 SPECI KSEA 120328Z 35015KT 2 1/2SM -SN FEW009 BKN023 OVC038 M02/M05 A2987 RMK AO2 P0000 T10171050=
202401120253 METAR KSEA 120253Z 36012KT 5SM -SN FEW023 OVC038 M01/M05 A2985 RMK AO2 SNB19 SLP117 P0000 60000 T10111050 51030=
202401120238 SPECI KSEA 120238Z 35016KT 4SM -SN BKN023 OVC036 M01/M05 A2984 RMK AO2 SNB19 P0000 T10111050=
202401120229 SPECI KSEA 120229Z 35013KT 5SM -SN FEW020 SCT025 OVC036 M01/M06 A2985 RMK AO2 SNB19 P0000 T10061056=
202401120205 SPECI KSEA 120205Z 01010G19KT 10SM SCT019 OVC033 M01/M06 A2983 RMK AO2 T10061056=
202401120153 METAR KSEA 120153Z 01013KT 10SM BKN019 OVC031 M01/M05 A2983 RMK AO2 SLP111 T10061050=
202401120103 SPECI KSEA 120103Z 35013KT 10SM BKN015 BKN050 00/M04 A2980 RMK AO2 T00001039=
202401120053 METAR KSEA 120053Z 35012KT 10SM SCT015 BKN050 BKN200 01/M04 A2980 RMK AO2 WSHFT 2340 SLP100 T00061039=
202401120000 SPECI KSEA 120000Z 01014G21KT 10SM FEW026 BKN065 BKN200 04/M03 A2976 RMK AO2 WSHFT 2340 T00391033=
202401112353 METAR KSEA 112353Z 33015G28KT 10SM FEW026 BKN055 BKN200 04/M03 A2976 RMK AO2 PK WND 32028/2345 WSHFT 2334 SLP086 T00441028 10072 20039 53003=
202401112253 METAR KSEA 112253Z 25012G20KT 10SM FEW034 SCT041 BKN095 07/M02 A2972 RMK AO2 SLP073 T00721022=
202401112228 SPECI KSEA 112228Z 27009KT 10SM FEW026 BKN034 BKN200 07/00 A2973 RMK AO2 T00720000=
202401112153 METAR KSEA 112153Z 27009KT 10SM BKN021 BKN200 06/00 A2973 RMK AO2 SLP077 T00610000=
202401112053 METAR KSEA 112053Z 25012G20KT 10SM BKN019 BKN032 BKN070 05/00 A2975 RMK AO2 SLP083 T00500000 58021=
202401112039 SPECI KSEA 112039Z 22008KT 10SM FEW019 BKN024 BKN070 05/00 A2976 RMK AO2 T00500000=
202401111953 METAR KSEA 111953Z 23011KT 10SM SCT016 BKN080 BKN200 04/00 A2977 RMK AO2 SLP090 T00440000=
202401111853 METAR KSEA 111853Z 22010KT 10SM FEW025 BKN070 BKN090 BKN200 05/00 A2979 RMK AO2 SLP098 VCSH T00500000 $=
202401111753 METAR KSEA 111753Z 26005KT 10SM FEW015 SCT065 BKN100 BKN200 04/M01 A2981 RMK AO2 SLP104 VCSH T00441011 10044 20022 58001 $=
202401111653 METAR KSEA 111653Z 20006KT 10SM FEW015 BKN060 OVC080 03/M01 A2982 RMK AO2 SLP107 SHRA N-E T00331006 $=
202401111553 METAR KSEA 111553Z 22006KT 10SM BKN065 BKN085 03/M01 A2982 RMK AO2 SLP107 T00281006 $=
202401111453 METAR KSEA 111453Z 24005KT 10SM FEW015 BKN065 02/M01 A2982 RMK AO2 SLP107 T00221006 51008 $=
202401111353 METAR KSEA 111353Z 22004KT 10SM FEW014 BKN065 03/00 A2982 RMK AO2 SLP105 T00280000 $=
202401111322 SPECI KSEA 111322Z 26003KT 10SM FEW014 BKN065 02/00 A2982 RMK AO2 T00220000 $=
202401111253 METAR KSEA 111253Z 28004KT 10SM BKN014 BKN070 02/M01 A2981 RMK AO2 SLP104 T00221006 $=
202401111153 METAR KSEA 111153Z 26008KT 10SM BKN014 OVC020 03/01 A2979 RMK AO2 SLP097 70002 T00330006 10039 20022 55001 $=
202401111053 METAR KSEA 111053Z 23009KT 10SM OVC011 03/02 A2979 RMK AO2 SLP096 T00330017 $=
202401111047 SPECI KSEA 111047Z 21010KT 10SM OVC011 03/01 A2978 RMK AO2 $=
202401110953 METAR KSEA 110953Z 21007KT 10SM OVC009 03/01 A2980 RMK AO2 SLP099 T00280006 $=
202401110949 SPECI KSEA 110949Z 20009KT 10SM OVC009 03/01 A2979 RMK AO2 $=
202401110908 SPECI KSEA 110908Z 21009KT 10SM BKN011 BKN020 OVC025 03/01 A2981 RMK AO2 CIG 009V014 T00280006 $=
202401110853 METAR KSEA 110853Z 18011KT 10SM FEW013 BKN027 OVC036 03/01 A2980 RMK AO2 SLP101 T00280006 58008 $=
202401110753 METAR KSEA 110753Z 19010KT 10SM FEW005 SCT024 BKN038 02/00 A2982 RMK AO2 SLP105 T00220000 400500017 $=
202401110730 SPECI KSEA 110730Z 17010KT 10SM FEW005 SCT024 BKN042 02/01 A2981 RMK AO2 T00220006 $=
202401110700 SPECI KSEA 110700Z 19007KT 9SM FEW004 OVC026 03/01 A2983 RMK AO2 T00280011 $=
202401110653 METAR KSEA 110653Z 20008KT 8SM BKN004 OVC025 03/01 A2983 RMK AO2 SLP110 T00280011 $=
202401110624 SPECI KSEA 110624Z 20009KT 7SM BKN004 OVC024 03/02 A2983 RMK AO2 T00280017 $=
202401110553 METAR KSEA 110553Z 21007KT 9SM SCT007 BKN018 OVC023 03/02 A2983 RMK AO2 SLP110 60002 T00330017 10044 20022 51012 $=
202401110522 SPECI KSEA 110522Z 19005KT 8SM SCT004 BKN015 OVC023 03/02 A2983 RMK AO2 T00330022 $=
202401110510 SPECI KSEA 110510Z 20006KT 5SM BR BKN004 BKN013 OVC018 03/02 A2982 RMK AO2 CIG 003V007 T00330022 $=
202401110453 METAR KSEA 110453Z 19007KT 6SM BR BKN005 OVC010 03/02 A2982 RMK AO2 SLP108 T00330017 $=
202401110412 SPECI KSEA 110412Z 20005KT 8SM BKN007 BKN014 BKN050 03/02 A2982 RMK AO2 T00330022 $=
202401110353 METAR KSEA 110353Z 00000KT 10SM SCT007 BKN014 BKN050 03/02 A2982 RMK AO2 SLP106 T00330022 $=
202401110338 SPECI KSEA 110338Z 00000KT 10SM SCT006 BKN014 BKN050 03/02 A2981 RMK AO2 T00330022 $=
202401110318 SPECI KSEA 110318Z 16005KT 10SM FEW006 SCT044 02/01 A2980 RMK AO2 T00220011 $=
202401110253 METAR KSEA 110253Z 16005KT 10SM FEW016 SCT036 02/01 A2979 RMK AO2 SLP099 60002 T00220011 51019 $=
202401110241 SPECI KSEA 110241Z 17005KT 10SM FEW016 SCT032 03/01 A2979 RMK AO2 T00280011 $=
202401110153 METAR KSEA 110153Z 18003KT 10SM SCT016 BKN023 03/02 A2978 RMK AO2 RAE09 SLP093 P0002 T00330017 $=
202401110147 SPECI KSEA 110147Z 18004KT 10SM SCT014 BKN023 03/02 A2978 RMK AO2 RAE09 P0002 $=
202401110123 SPECI KSEA 110123Z 00000KT 10SM BKN013 OVC018 04/02 A2977 RMK AO2 RAE09 P0001 T00390017 $=
202401110053 METAR KSEA 110053Z 00000KT 4SM -RA FEW012 BKN022 04/01 A2976 RMK AO2 RAB37 SLP087 P0000 T00390011 $=
202401110020 SPECI KSEA 110020Z 00000KT 10SM FEW014 BKN029 04/01 A2975 RMK AO2 T00390011 $=
202401102353 METAR KSEA 102353Z 15003KT 10SM FEW014 SCT040 04/01 A2974 RMK AO2 SLP079 T00390011 10050 20028 53019 $=
202401102253 METAR KSEA 102253Z 16006KT 10SM FEW015 SCT030 04/01 A2971 RMK AO2 SLP070 T00440006 $=
202401102153 METAR KSEA 102153Z 15004KT 10SM FEW015 BKN030 04/01 A2969 RMK AO2 SLP062 T00440006 $=
202401102133 SPECI KSEA 102133Z 14006KT 10SM FEW015 SCT020 BKN030 04/00 A2968 RMK AO2 T00390000 $=
202401102053 METAR KSEA 102053Z 12005KT 10SM SCT013 OVC019 04/00 A2968 RMK AO2 SLP060 T00390000 50006 $=
202401102039 SPECI KSEA 102039Z 16004KT 10SM SCT013 OVC019 04/01 A2968 RMK AO2 T00390006 $=
202401102007 SPECI KSEA 102007Z 16006KT 10SM BKN013 OVC019 04/01 A2968 RMK AO2 T00390006 $=
202401101953 METAR KSEA 101953Z 15006KT 10SM SCT009 BKN017 03/01 A2968 RMK AO2 SLP060 T00330006 $=
202401101926 SPECI KSEA 101926Z 14005KT 10SM SCT009 BKN017 04/01 A2968 RMK AO2 T00390006 $=
202401101904 SPECI KSEA 101904Z 14006KT 10SM SCT009 BKN014 BKN250 04/01 A2968 RMK AO2 T00390006 $=
202401101853 METAR KSEA 101853Z 15008KT 10SM BKN009 BKN250 04/01 A2968 RMK AO2 SLP058 T00390011 $=
202401101753 METAR KSEA 101753Z 17007KT 7SM BKN005 OVC015 03/01 A2966 RMK AO2 SLP053 60000 T00280011 10028 20017 53021 $=
202401101653 METAR KSEA 101653Z 16009KT 1 1/2SM BR OVC007 02/01 A2964 RMK AO2 SFC VIS 6 CIG 003V011 SLP046 T00220011 $=
202401101643 SPECI KSEA 101643Z 17008KT 1 1/2SM BR BKN005 OVC009 02/01 A2964 RMK AO2 SFC VIS 5 CIG 002V008 T00220011 $=
202401101553 METAR KSEA 101553Z 15007KT 1/2SM R16L/P6000FT BR OVC003 02/01 A2962 RMK AO2 SFC VIS 1 SLP038 T00220011 $=
202401101513 SPECI KSEA 101513Z 15007KT 1SM R16L/P6000FT BR OVC003 02/01 A2961 RMK AO2 SFC VIS 3 T00220011 $=
202401101453 METAR KSEA 101453Z 16008KT 4SM BR BKN005 OVC010 02/01 A2960 RMK AO2 RAE39 SLP032 P0000 60000 T00220011 53005 $=
202401101353 METAR KSEA 101353Z 17008KT 5SM -RA BR OVC006 02/01 A2959 RMK AO2 RAB51 SLP028 P0000 T00220011 $=
202401101253 METAR KSEA 101253Z 17009KT 4SM BR OVC006 02/01 A2958 RMK AO2 CIG 004V010 SLP027 T00220006 $=
202401101153 METAR KSEA 101153Z 19008KT 10SM OVC007 02/01 A2959 RMK AO2 RAE06 SLP027 P0000 60001 70009 T00220006 10044 20022 50003 $=
202401101053 METAR KSEA 101053Z 19010KT 10SM -RA BKN007 OVC014 02/00 A2959 RMK AO2 SLP029 RAB14 P0001 T00220000 $=
202401101041 SPECI KSEA 101041Z 18011KT 10SM -RA BKN009 OVC014 02/01 A2959 RMK AO2 RAB14 P0001 T00220006 $=
202401100953 METAR KSEA 100953Z 22010KT 10SM OVC011 03/00 A2958 RMK AO2 SLP026 T00280000 $=
202401100853 METAR KSEA 100853Z 20012KT 10SM OVC010 03/00 A2958 RMK AO2 CIG 009V013 SLP024 T00280000 55000 $=
202401100753 METAR KSEA 100753Z 22011G18KT 10SM OVC010 03/01 A2957 RMK AO2 PK WND 21027/0720 CIG 007V013 SLP023 T00280006 400890028 $=
202401100721 SPECI KSEA 100721Z 21019G27KT 10SM SCT008 BKN013 OVC100 03/01 A2957 RMK AO2 PK WND 21027/0720 T00330011 $=
202401100653 METAR KSEA 100653Z 22013KT 10SM BKN017 BKN022 OVC100 04/01 A2956 RMK AO2 SLP019 T00440011 $=
202401100553 METAR KSEA 100553Z 20013G19KT 10SM BKN021 BKN032 BKN120 04/01 A2958 RMK AO2 SLP025 T00440006 10067 20039 58033 $=
202401100453 METAR KSEA 100453Z 20014KT 10SM BKN023 04/01 A2961 RMK AO2 PK WND 20027/0355 SLP036 T00440006 $=
202401100353 METAR KSEA 100353Z 20017G23KT 10SM SCT022 SCT090 04/01 A2965 RMK AO2 PK WND 20029/0257 SLP050 T00390006 $=
202401100333 SPECI KSEA 100333Z 20013KT 10SM SCT022 SCT090 04/01 A2967 RMK AO2 PK WND 20029/0257 T00440006 $=
202401100253 METAR KSEA 100253Z 20020G30KT 10SM BKN019 BKN090 05/01 A2968 RMK AO2 PK WND 22033/0211 SLP057 T00500011 51008 $=
202401100153 METAR KSEA 100153Z 22013G22KT 10SM FEW019 SCT100 BKN140 05/01 A2967 RMK AO2 PK WND 22033/0131 SLP057 T00500006 $=
202401100117 SPECI KSEA 100117Z 22017G27KT 10SM SCT019 BKN140 05/01 A2966 RMK AO2 PK WND 22033/0058 T00500011 $=
202401100053 METAR KSEA 100053Z 23019G32KT 10SM BKN021 BKN160 06/02 A2967 RMK AO2 PK WND 21035/0043 SLP054 T00560017 $=
202401092353 METAR KSEA 092353Z 22017G27KT 10SM BKN020 BKN180 07/02 A2965 RMK AO2 PK WND 22033/2308 SLP049 60000 T00670017 10072 20056 51016 $=
202401092253 METAR KSEA 092253Z 22016G27KT 10SM BKN020 BKN200 07/02 A2964 RMK AO2 PK WND 23033/2224 SLP046 T00670022 $=
202401092153 METAR KSEA 092153Z 23016G33KT 10SM BKN019 BKN024 BKN200 07/02 A2962 RMK AO2 PK WND 23037/2126 SLP037 T00670022 $=
202401092053 METAR KSEA 092053Z 23020G33KT 10SM BKN020 BKN200 07/02 A2961 RMK AO2 PK WND 22042/1955 SLP033 60000 T00670022 51009 $=
202401091953 METAR KSEA 091953Z 23027G41KT 10SM BKN021 BKN050 BKN200 07/02 A2960 RMK AO2 PK WND 22043/1916 SLP029 T00670022 $=
202401091853 METAR KSEA 091853Z 22021G33KT 10SM OVC019 07/03 A2959 RMK AO2 PK WND 22038/1840 RAE46 SLP027 P0000 T00670033 $=
202401091753 METAR KSEA 091753Z 20023G32KT 7SM -RA BKN018 OVC028 06/03 A2958 RMK AO2 PK WND 20034/1733 SLP024 P0002 60008 T00560028 10067 20050 55007 $=
202401091653 METAR KSEA 091653Z 19019G33KT 10SM -RA SCT015 BKN028 OVC033 06/03 A2958 RMK AO2 PK WND 19033/1646 RAE03B49 SLP023 P0000 T00560028=
202401091553 METAR KSEA 091553Z 18022G29KT 6SM RA BR FEW013 BKN020 OVC026 05/03 A2957 RMK AO2 PK WND 19031/1524 RAB37 SLP022 P0003 T00500028=
202401091453 METAR KSEA 091453Z 20011G24KT 10SM BKN019 OVC025 06/02 A2960 RMK AO2 PK WND 21037/1407 RAB23E36 SLP031 P0000 60003 T00560022 53006=
202401091425 SPECI KSEA 091425Z 22019G30KT 8SM -RA BKN018 BKN023 OVC033 06/02 A2960 RMK AO2 PK WND 21037/1407 RAB23 P0000 T00560022=
202401091353 METAR KSEA 091353Z 22021G38KT 10SM SCT019 SCT023 05/02 A2957 RMK AO2 PK WND 22045/1343 RAB10E34 SLP020 P0003 T00500017=
202401091253 METAR KSEA 091253Z 21021G35KT 10SM BKN022 BKN027 OVC032 06/03 A2958 RMK AO2 PK WND 22035/1251 RAB1156E05 SLP023 P0000 T00610028=
202401091153 METAR KSEA 091153Z 22016G27KT 10SM FEW015 SCT024 BKN029 07/03 A2958 RMK AO2 PK WND 22027/1152 RAE14B25E34 SLP025 P0004 60046 70092 T00670033 10094 20061 50006=
202401091122 SPECI KSEA 091122Z 21011G21KT 10SM FEW015 SCT021 OVC029 06/04 A2960 RMK AO2 PK WND 23026/1054 RAE14 P0003 T00610039=
202401091053 METAR KSEA 091053Z 22019G31KT 8SM -RA FEW021 BKN043 OVC070 06/03 A2961 RMK AO2 PK WND 22041/1042 RAB27 SLP034 P0001 T00610028=
202401090953 METAR KSEA 090953Z 21019G29KT 10SM BKN023 OVC031 08/04 A2959 RMK AO2 PK WND 22033/0915 SLP029 T00780039=
202401090913 SPECI KSEA 090913Z 23022G32KT 10SM SCT020 BKN026 BKN090 08/04 A2958 RMK AO2 PK WND 23032/0909 LTG DSNT SE T00780044=
202401090853 METAR KSEA 090853Z 21019G31KT 10SM SCT036 BKN065 OVC085 08/05 A2956 RMK AO2 PK WND 23042/0808 RAE35 TSB17E43 SLP019 TS DSNT NE-E P0016 60041 T00780050 55020=
202401090843 SPECI KSEA 090843Z 21018G27KT 10SM BKN038 OVC080 07/04 A2955 RMK AO2 PK WND 23042/0808 RAE35 TSB17E43 TS DSNT NE-E P0016 T00720044=
202401090835 SPECI KSEA 090835Z 22018G29KT 10SM TS FEW018CB OVC038 07/04 A2955 RMK AO2 PK WND 23042/0808 RAE35 TSB17 OCNL LTGCG VC TS E MOV NE P0016 T00720044=
202401090818 SPECI KSEA 090818Z 24023G39KT 2SM TSRA FEW016 SCT021CB OVC038 07/04 A2957 RMK AO2 PK WND 23042/0808 TSB17 PRESRR OCNL LTGCG OHD TS OHD MOV N P0012 T00720044=
202401090753 METAR KSEA 090753Z 18020G36KT 6SM RA OVC048 09/07 A2948 RMK AO2 PK WND 18036/0743 SLP991 P0010 T00940067 400940028=
202401090653 METAR KSEA 090653Z 19015G30KT 6SM RA BR FEW012 BKN017 OVC037 09/07 A2957 RMK AO2 PK WND 19030/0650 SLP022 P0015 T00940072=
202401090622 SPECI KSEA 090622Z 20014G20KT 5SM RA BR FEW006 BKN015 OVC021 09/07 A2960 RMK AO2 P0009 T00890072=
202401090553 METAR KSEA 090553Z 20013G20KT 6SM -RA BR OVC020 09/07 A2962 RMK AO2 PK WND 19027/0530 SLP039 P0002 60018 T00940072 10094 20044 56050=
202401090453 METAR KSEA 090453Z 19015G21KT 3SM -RA BR SCT017 OVC026 09/07 A2966 RMK AO2 RAE27B40 SLP053 P0004 T00940072=
202401090432 SPECI KSEA 090432Z 18012KT 7SM FEW023 OVC028 08/07 A2968 RMK AO2 RAE27 P0003 T00830067=
202401090353 METAR KSEA 090353Z 18012KT 3SM -RA BR OVC030 07/06 A2972 RMK AO2 RAB28 PRESFR SLP072 P0002 T00670056=
202401090253 METAR KSEA 090253Z 16009KT 7SM OVC022 06/05 A2977 RMK AO2 RAE45 SLP091 P0003 60010 T00610050 58044=
202401090245 SPECI KSEA 090245Z 16009KT 6SM BR FEW007 OVC022 06/05 A2978 RMK AO2 RAE45 P0003 T00610050=
202401090219 SPECI KSEA 090219Z 16006KT 3SM -RA BR FEW007 BKN014 OVC020 06/04 A2980 RMK AO2 P0003 T00560044=
202401090153 METAR KSEA 090153Z 16007KT 2SM -RA BR SCT007 OVC022 06/04 A2982 RMK AO2 SLP107 P0004 T00560044=
202401090105 SPECI KSEA 090105Z 14008KT 2SM -RA BR SCT009 OVC019 05/03 A2986 RMK AO2 P0001 T00500033=
202401090053 METAR KSEA 090053Z 14009KT 1 3/4SM -RA BR SCT003 OVC011 04/03 A2987 RMK AO2 PRESFR SLP122 P0003 T00440033=
202401082353 METAR KSEA 082353Z 14008KT 1 1/2SM -RA BR FEW004 OVC010 04/03 A2990 RMK AO2 SLP136 P0002 60010 T00440033 10050 20033 56027=
202401082253 METAR KSEA 082253Z 12007KT 1 1/2SM -RA BR SCT003 OVC013 04/03 A2993 RMK AO2 SLP144 P0003 T00440028=
202401082232 SPECI KSEA 082232Z 13006KT 1 1/4SM -RA BR SCT003 OVC012 04/03 A2994 RMK AO2 P0002 T00440028=
202401082214 SPECI KSEA 082214Z 14005KT 1 1/2SM R16L/6000VP6000FT -RA BR BKN003 OVC012 04/03 A2995 RMK AO2 P0001 T00440028=
202401082156 SPECI KSEA 082156Z 13008KT 1 3/4SM -RA BR BKN005 OVC013 04/03 A2995 RMK AO2 P0000 T00440028=
202401082155 SPECI KSEA 082155Z 13008KT 1 3/4SM -RA BR SCT005 OVC013 04/03 A2995 RMK AO2 P0000 T00440028=
202401082153 METAR KSEA 082153Z 12007KT 1 1/2SM -RA BR BKN005 OVC013 04/03 A2995 RMK AO2 SLP151 P0001 T00440028=
202401082147 SPECI KSEA 082147Z 12007KT 1 1/2SM -RA BR BKN005 OVC013 04/03 A2995 RMK AO2 P0001=
202401082121 SPECI KSEA 082121Z 14008KT 1 1/2SM -RA BR FEW005 OVC015 04/03 A2997 RMK AO2 P0000 T00390028=
202401082053 METAR KSEA 082053Z 12005KT 2SM -RA BR FEW005 SCT015 OVC020 04/03 A2999 RMK AO2 SLP163 P0002 60004 T00440028 58024=
202401081953 METAR KSEA 081953Z 10004KT 3SM -RA BR SCT018 OVC023 04/02 A3002 RMK AO2 SLP175 P0001 T00440022=
202401081927 SPECI KSEA 081927Z 09004KT 6SM -RA BR FEW005 BKN029 OVC038 04/02 A3003 RMK AO2 P0001 T00440022=
202401081853 METAR KSEA 081853Z 10006KT 10SM -RA FEW005 SCT026 OVC040 04/02 A3005 RMK AO2 SLP183 P0001 T00390017=
202401081827 SPECI KSEA 081827Z 11008KT 10SM -RA FEW005 SCT026 OVC040 04/02 A3005 RMK AO2 P0000 T00390017=
202401081753 METAR KSEA 081753Z 10010KT 6SM -RA BR FEW005 OVC028 03/02 A3006 RMK AO2 SLP188 P0002 60018 T00330017 10033 20028 58018=
202401081728 SPECI KSEA 081728Z 11008KT 6SM -RA BR FEW005 OVC028 03/02 A3007 RMK AO2 P0001 T00330017=
202401081711 SPECI KSEA 081711Z 11008KT 5SM -RA BR FEW010 OVC025 03/02 A3008 RMK AO2 P0000 T00330017=
202401081653 METAR KSEA 081653Z 12008KT 5SM -RA BR FEW005 BKN014 OVC023 03/02 A3008 RMK AO2 SLP197 P0005 T00330017=
202401081602 SPECI KSEA 081602Z 14007KT 8SM -RA FEW005 BKN012 OVC020 03/02 A3010 RMK AO2 P0001 T00330017=
202401081553 METAR KSEA 081553Z 14008KT 7SM -RA BKN012 OVC020 03/02 A3010 RMK AO2 SLP202 P0004 T00330017=
202401081539 SPECI KSEA 081539Z 14009KT 6SM -RA BR FEW007 BKN013 OVC022 03/02 A3010 RMK AO2 P0004 T00330017=
202401081500 SPECI KSEA 081500Z 16007KT 6SM -RA BR FEW005 SCT012 OVC022 03/02 A3011 RMK AO2 P0001 T00330017=
202401081453 METAR KSEA 081453Z 15007KT 6SM -RA BR SCT012 OVC024 03/02 A3011 RMK AO2 SLP207 P0003 60007 T00330017 58006=
202401081405 SPECI KSEA 081405Z 16007KT 8SM -RA SCT009 BKN015 OVC024 03/02 A3012 RMK AO2 P0000 T00280017 $=
202401081353 METAR KSEA 081353Z 16007KT 8SM -RA SCT009 BKN014 OVC030 03/02 A3012 RMK AO2 SLP210 P0002 T00330017 $=
202401081345 SPECI KSEA 081345Z 15007KT 8SM -RA SCT009 BKN014 OVC030 03/02 A3012 RMK AO2 P0001 T00330017 $=
202401081253 METAR KSEA 081253Z 13007KT 7SM -RA BKN019 OVC028 03/01 A3013 RMK AO2 SLP212 P0002 T00330011 $=
202401081153 METAR KSEA 081153Z 15005KT 7SM -RA BKN018 BKN035 OVC045 03/02 A3013 RMK AO2 RAB22 SLP213 P0001 60001 70012 T00330017 10039 20033 50005 $=
202401081128 SPECI KSEA 081128Z 15005KT 10SM -RA BKN017 BKN035 OVC045 03/02 A3013 RMK AO2 RAB22 P0000 T00330017 $=
202401081053 METAR KSEA 081053Z 14005KT 10SM SCT019 BKN050 OVC080 03/01 A3013 RMK AO2 SLP213 T00330011 $=
202401080953 METAR KSEA 080953Z 16004KT 10SM SCT021 BKN044 OVC120 03/02 A3013 RMK AO2 RAB15E19 SLP212 P0000 T00330017 $=
202401080853 METAR KSEA 080853Z 15006KT 8SM FEW007 SCT021 BKN038 OVC130 03/02 A3012 RMK AO2 SLP207 60000 T00330017 58006 $=
202401080822 SPECI KSEA 080822Z 14005KT 9SM SCT007 SCT017 BKN042 OVC140 03/02 A3013 RMK AO2 T00330017 $=
202401080753 METAR KSEA 080753Z 16005KT 10SM FEW011 BKN018 OVC040 03/02 A3013 RMK AO2 SLP212 T00330017 400500022 $=
202401080717 SPECI KSEA 080717Z 14007KT 10SM BKN020 BKN040 OVC250 03/02 A3012 RMK AO2 T00330017 $=
202401080653 METAR KSEA 080653Z 11006KT 10SM FEW008 SCT024 BKN032 OVC250 03/02 A3013 RMK AO2 RAE20 SLP213 P0000 T00330017 $=
202401080624 SPECI KSEA 080624Z 13004KT 10SM FEW007 SCT013 BKN048 03/02 A3013 RMK AO2 RAE20 P0000 T00330017 $=
202401080600 SPECI KSEA 080600Z 18003KT 8SM -RA FEW007 BKN013 OVC030 04/02 A3013 RMK AO2 CIG 010V016 P0000 T00390022 $=
202401080553 METAR KSEA 080553Z 00000KT 8SM -RA BKN007 BKN011 OVC018 04/02 A3013 RMK AO2 SLP213 P0000 60000 T00390017 10050 20039 53007 $=
202401080533 SPECI KSEA 080533Z 14003KT 7SM -RA BKN007 BKN015 04/02 A3012 RMK AO2 P0000 T00390022 $=
202401080517 SPECI KSEA 080517Z 14003KT 5SM -RA BR SCT009 BKN017 OVC022 04/02 A3012 RMK AO2 P0000 T00390017 $=
202401080453 METAR KSEA 080453Z 00000KT 8SM -RA BKN020 OVC027 04/02 A3011 RMK AO2 RAB47 SLP206 P0000 T00390017 $=
202401080353 METAR KSEA 080353Z 04006KT 10SM FEW007 OVC024 04/02 A3011 RMK AO2 SLP206 T00440017 $=
202401080339 SPECI KSEA 080339Z 05004KT 9SM FEW007 OVC026 04/02 A3012 RMK AO2 T00440017 $=
202401080309 SPECI KSEA 080309Z 04004KT 10SM BKN027 OVC055 04/02 A3012 RMK AO2 T00390017 $=
202401080253 METAR KSEA 080253Z 04005KT 10SM SCT027 OVC055 04/02 A3011 RMK AO2 SLP206 T00390017 53011 $=
202401080153 METAR KSEA 080153Z 00000KT 10SM FEW030 OVC055 04/02 A3010 RMK AO2 SLP201 T00440017 $=
202401080103 SPECI KSEA 080103Z 00000KT 10SM SCT027 BKN032 OVC055 04/02 A3009 RMK AO2 T00390017 $=
202401080053 METAR KSEA 080053Z 00000KT 10SM BKN027 BKN032 OVC055 04/02 A3009 RMK AO2 SLP198 T00390022 $=
202401080009 SPECI KSEA 080009Z 00000KT 10SM FEW007 FEW012 BKN055 05/02 A3008 RMK AO2 T00500017 $=
202401072353 METAR KSEA 072353Z 00000KT 10SM FEW041 OVC055 05/02 A3008 RMK AO2 RAE27 SLP195 P0000 60002 T00500017 10050 20033 53003 $=
202401072253 METAR KSEA 072253Z 00000KT 10SM -RA FEW012 SCT041 OVC050 05/01 A3007 RMK AO2 RAB51 SLP193 P0000 T00500011 $=
202401072153 METAR KSEA 072153Z 00000KT 10SM SCT014 BKN033 OVC050 05/01 A3007 RMK AO2 SLP191 T00500011 $=
202401072053 METAR KSEA 072053Z 20003KT 10SM FEW026 BKN032 OVC049 05/02 A3007 RMK AO2 SLP192 60002 T00500017 51004 $=
202401071953 METAR KSEA 071953Z 19003KT 10SM FEW018 BKN034 OVC050 04/02 A3007 RMK AO2 RAE15 SLP191 P0000 T00390017 $=
202401071853 METAR KSEA 071853Z 00000KT 10SM -RA SCT012 OVC024 03/01 A3007 RMK AO2 RAB09 SLP192 P0002 T00330011 $=
202401071753 METAR KSEA 071753Z 00000KT 10SM BKN021 OVC026 04/02 A3006 RMK AO2 SLP187 60009 T00440022 10044 20022 53015 $=
202401071653 METAR KSEA 071653Z 16005KT 10SM FEW016 SCT027 BKN034 03/01 A3004 RMK AO2 SLP183 RAB1554E34 P0007 T00280011 $=
202401071629 SPECI KSEA 071629Z 00000KT 5SM -RA BR FEW004 BKN020 BKN050 03/01 A3004 RMK AO2 RAB1554 P0004 T00280011 $=
202401071607 SPECI KSEA 071607Z 14003KT 2 1/2SM -RA BR FEW004 BKN018 OVC029 03/02 A3003 RMK AO2 RAB1554 P0000 T00330017 $=
202401071553 METAR KSEA 071553Z 16004KT 5SM BR SCT016 BKN023 OVC035 03/02 A3002 RMK AO2 SLP175 T00280017 $=
202401071453 METAR KSEA 071453Z 17004KT 10SM FEW022 BKN031 BKN050 03/02 A3001 RMK AO2 SLP173 60002 T00280017 53014 $=
202401071353 METAR KSEA 071353Z 00000KT 8SM FEW017 BKN026 OVC043 03/02 A3000 RMK AO2 SLP168 T00280017 $=
202401071349 SPECI KSEA 071349Z 00000KT 4SM BR FEW017 BKN026 OVC032 03/02 A3000 RMK AO2 $=
202401071341 SPECI KSEA 071341Z 16003KT 1SM R16L/P6000FT BR FEW017 BKN027 OVC032 03/02 A3000 RMK AO2 TWR VIS 10 T00280017 $=
202401071314 SPECI KSEA 071314Z 00000KT 4SM BR FEW020 BKN026 OVC032 03/02 A2999 RMK AO2 T00330017 $=
202401071303 SPECI KSEA 071303Z 00000KT 5SM BR FEW020 SCT025 OVC030 04/02 A2999 RMK AO2 T00390022 $=
202401071253 METAR KSEA 071253Z 00000KT 5SM BR SCT023 BKN028 OVC033 03/02 A2998 RMK AO2 RAB02E25 SLP163 P0002 T00330017 $=
202401071153 METAR KSEA 071153Z 00000KT 5SM BR OVC020 03/02 A2997 RMK AO2 SLP159 60000 70021 T00330022 10044 20028 51016=
202401071127 SPECI KSEA 071127Z 15003KT 4SM BR SCT016 BKN022 OVC055 03/02 A2997 RMK AO2 T00280017=
202401071053 METAR KSEA 071053Z 09003KT 4SM BR FEW026 BKN039 OVC060 03/02 A2997 RMK AO2 SLP156 T00330022=
202401070953 METAR KSEA 070953Z 00000KT 3SM BR SCT047 OVC070 03/02 A2994 RMK AO2 SLP149 T00330017=
202401070853 METAR KSEA 070853Z 00000KT 10SM BKN046 OVC060 03/02 A2993 RMK AO2 SLP143 60000 T00330017 51012=
202401070753 METAR KSEA 070753Z 00000KT 4SM BR OVC038 04/02 A2992 RMK AO2 RAE09 SLP141 P0000 T00390017 400670022=
202401070723 SPECI KSEA 070723Z 00000KT 9SM SCT016 OVC036 04/02 A2992 RMK AO2 RAE09 P0000 T00390022=
202401070653 METAR KSEA 070653Z 00000KT 8SM -RA OVC016 04/02 A2991 RMK AO2 RAB52 SLP138 P0000 T00390022=
202401070643 SPECI KSEA 070643Z 00000KT 10SM BKN017 OVC036 04/02 A2991 RMK AO2 T00390022=
202401070553 METAR KSEA 070553Z 19003KT 10SM FEW001 BKN035 BKN070 03/02 A2989 RMK AO2 SLP131 60005 T00330022 10056 20022 51022=
202401070453 METAR KSEA 070453Z 00000KT 5SM BR SCT001 BKN030 03/02 A2987 RMK AO2 SLP125 FG BANK SE-SW T00330022=
202401070446 SPECI KSEA 070446Z 17003KT 5SM BR FEW001 BKN030 04/03 A2987 RMK AO2 FG BANK SE-SW T00390028=
202401070353 METAR KSEA 070353Z 00000KT 7SM BKN037 BKN075 04/02 A2985 RMK AO2 SLP117 T00390022=
202401070253 METAR KSEA 070253Z 01004KT 10SM FEW030 SCT075 03/01 A2983 RMK AO2 SLP109 60005 T00280011 51021=
202401070218 SPECI KSEA 070218Z 03003KT 10SM FEW022 SCT040 SCT060 04/01 A2981 RMK AO2 T00390011=
202401070153 METAR KSEA 070153Z 05004KT 10SM BKN022 BKN038 BKN060 04/02 A2981 RMK AO2 RAE50 SLP103 P0005 T00390017=
202401070104 SPECI KSEA 070104Z 35007KT 10SM -RA SCT020 BKN025 BKN070 06/03 A2979 RMK AO2 CB DSNT N-NE P0000 T00560028=
202401070053 METAR KSEA 070053Z 30005KT 10SM -RA SCT020 BKN030 BKN070 06/03 A2979 RMK AO2 RAB52 SLP095 P0000 T00560028=
202401070042 SPECI KSEA 070042Z 24003KT 10SM SCT019 SCT030 BKN075 06/03 A2978 RMK AO2 T00560028=
202401062353 METAR KSEA 062353Z 19003KT 10SM FEW018 BKN028 BKN080 06/03 A2976 RMK AO2 RAE2255B11E25 SLP087 P0000 60000 T00560033 10061 20044 55001=
202401062253 METAR KSEA 062253Z 13008KT 10SM -RA FEW006 BKN026 BKN035 06/03 A2976 RMK AO2 RAB46 SLP086 P0000 T00610028=
202401062153 METAR KSEA 062153Z 13007KT 10SM FEW006 FEW019 BKN025 06/03 A2977 RMK AO2 SLP088 T00610033=
202401062053 METAR KSEA 062053Z 14011KT 10SM FEW007 BKN022 OVC032 06/03 A2977 RMK AO2 SLP088 T00560033 50000=
202401061953 METAR KSEA 061953Z 13009KT 10SM BKN021 OVC028 05/03 A2977 RMK AO2 SLP090 T00500028=
202401061853 METAR KSEA 061853Z 17007KT 10SM OVC018 05/03 A2977 RMK AO2 SLP088 T00500028=
202401061753 METAR KSEA 061753Z 19006KT 10SM OVC017 04/03 A2976 RMK AO2 RAB05E17 SLP084 P0001 60016 T00440028 10050 20044 51012=
202401061653 METAR KSEA 061653Z 07003KT 10SM BKN018 OVC024 05/02 A2975 RMK AO2 RAE23 SLP081 P0001 T00500022=
202401061553 METAR KSEA 061553Z VRB04KT 9SM -RA FEW009 SCT015 OVC023 05/03 A2973 RMK AO2 RAB1454 SLP077 P0001 T00500033 $=
202401061528 SPECI KSEA 061528Z 00000KT 10SM -RA FEW003 SCT019 OVC025 05/03 A2973 RMK AO2 RAB1454 P0001 T00500033 $=
202401061517 SPECI KSEA 061517Z 32005KT 5SM -RA BR FEW004 BKN014 OVC027 05/03 A2973 RMK AO2 RAB1454 P0000 T00500033 $=
202401061453 METAR KSEA 061453Z 25005KT 10SM FEW005 BKN025 OVC029 05/04 A2972 RMK AO2 RAE45 SLP073 P0000 60013 T00500039 53010 $=
202401061353 METAR KSEA 061353Z 22004KT 10SM -RA SCT007 BKN027 OVC037 05/04 A2971 RMK AO2 SLP068 P0002 T00500039 $=
202401061347 SPECI KSEA 061347Z 22004KT 10SM -RA SCT007 BKN027 OVC037 05/04 A2970 RMK AO2 P0002 $=
202401061328 SPECI KSEA 061328Z 21007KT 10SM -RA SCT006 BKN035 OVC060 04/03 A2969 RMK AO2 P0002 T00440033 $=
202401061253 METAR KSEA 061253Z 24006G14KT 4SM -RA BR BKN013 OVC020 05/03 A2969 RMK AO2 PK WND 22027/1206 SLP062 CIG 010V016 P0011 T00500028 $=
202401061156 SPECI KSEA 061156Z 21015G22KT 4SM -RA BR FEW007 BKN012 OVC018 05/03 A2968 RMK AO2 P0001 T00500033 $=
202401061153 METAR KSEA 061153Z 23011G19KT 4SM -RA BR SCT010 BKN015 OVC020 05/03 A2968 RMK AO2 SLP059 P0009 60025 70044 T00500033 10072 20050 56025 $=
202401061053 METAR KSEA 061053Z 21008KT 10SM -RA SCT019 BKN026 OVC035 06/03 A2970 RMK AO2 SLP065 P0001 T00560033 $=
202401061034 SPECI KSEA 061034Z 20015KT 10SM -RA SCT012 BKN020 OVC035 06/03 A2971 RMK AO2 P0001 T00560033 $=
202401060953 METAR KSEA 060953Z 19008KT 5SM -RA BR FEW007 BKN012 OVC020 06/04 A2972 RMK AO2 SLP071 P0006 T00560039 $=
202401060924 SPECI KSEA 060924Z 17008G17KT 6SM -RA BR FEW007 BKN012 OVC023 06/04 A2974 RMK AO2 P0004 T00560039 $=
202401060853 METAR KSEA 060853Z 19009KT 6SM -RA BR FEW015 BKN022 OVC026 06/04 A2976 RMK AO2 SLP084 P0006 60009 T00610039 58043 $=
202401060828 SPECI KSEA 060828Z 20008KT 7SM -RA FEW020 BKN028 OVC040 06/04 A2977 RMK AO2 P0003 T00610039 $=
202401060757 SPECI KSEA 060757Z 18008KT 10SM -RA BKN031 OVC044 07/04 A2979 RMK AO2 P0001 T00670039 $=
202401060753 METAR KSEA 060753Z 18009KT 10SM -RA BKN029 OVC044 06/04 A2979 RMK AO2 SLP097 P0002 T00610039 400830044 $=
202401060653 METAR KSEA 060653Z 18008KT 9SM -RA BKN029 OVC045 07/04 A2985 RMK AO2 SLP116 P0001 T00670039 $=
202401060553 METAR KSEA 060553Z 19009G23KT 10SM -RA OVC028 07/04 A2989 RMK AO2 SLP128 P0002 60005 T00720039 10078 20072 58044=
202401060453 METAR KSEA 060453Z 19015G27KT 8SM -RA BKN024 OVC033 08/04 A2993 RMK AO2 PK WND 20027/0448 RAE0355B49 SLP143 P0000 T00780039=
202401060353 METAR KSEA 060353Z 19012G22KT 10SM -RA BKN024 BKN035 OVC041 08/04 A2998 RMK AO2 RAB01 SLP161 P0002 T00780044=
202401060346 SPECI KSEA 060346Z 19012G24KT 8SM -RA BKN024 BKN035 OVC041 08/04 A2999 RMK AO2 RAB01 P0002 T00780044=
202401060253 METAR KSEA 060253Z 19020G27KT 10SM SCT027 BKN034 OVC040 08/04 A3002 RMK AO2 PK WND 19027/0252 RAE47 SLP172 P0001 60001 T00780039 58039=
202401060241 SPECI KSEA 060241Z 19014G22KT 10SM -RA BKN025 OVC036 08/04 A3003 RMK AO2 P0001 T00780039=
202401060153 METAR KSEA 060153Z 18015G22KT 10SM -RA SCT025 BKN034 OVC060 07/04 A3006 RMK AO2 SLP186 P0000 T00720044=
202401060053 METAR KSEA 060053Z 18015G26KT 7SM -RA FEW025 BKN040 OVC065 08/04 A3010 RMK AO2 PK WND 18026/0046 RAE06B28 SLP202 P0000 T00780044=
202401060007 SPECI KSEA 060007Z 18014G24KT 10SM SCT022 BKN033 OVC047 08/04 A3012 RMK AO2 RAE06 P0000 T00780044=
202401052353 METAR KSEA 052353Z 18012KT 7SM -RA BKN022 OVC033 07/05 A3013 RMK AO2 SLP212 P0003 60013 T00720050 10083 20067 58028=
202401052253 METAR KSEA 052253Z 19011KT 6SM -RA BKN023 OVC030 08/04 A3017 RMK AO2 SLP225 P0009 T00780044 $=
202401052153 METAR KSEA 052153Z 19014G20KT 5SM -RA BKN024 OVC036 08/04 A3020 RMK AO2 RAB21 SLP235 P0001 T00780039 $=
202401052145 SPECI KSEA 052145Z 19014G22KT 7SM -RA BKN027 OVC034 08/03 A3020 RMK AO2 RAB21 P0000 T00830033 $=
202401052053 METAR KSEA 052053Z 17014KT 10SM BKN038 BKN060 OVC120 08/02 A3022 RMK AO2 RAB34E43 SLP241 P0000 60000 T00830022 58030 $=
202401051953 METAR KSEA 051953Z 18010KT 10SM FEW020 BKN060 OVC120 08/03 A3025 RMK AO2 SLP253 T00780028 $=
202401051853 METAR KSEA 051853Z 19012KT 10SM FEW020 BKN040 OVC120 07/03 A3029 RMK AO2 SLP266 T00720028 $=
202401051753 METAR KSEA 051753Z 20010G19KT 10SM FEW010 BKN030 OVC110 07/03 A3031 RMK AO2 SLP272 60001 T00670028 10067 20050 51009 $=
202401051700 SPECI KSEA 051700Z 18011KT 10SM SCT020 BKN070 OVC090 07/03 A3030 RMK AO2 T00670033 $=
202401051653 METAR KSEA 051653Z 18011KT 10SM FEW010 BKN020 OVC070 07/03 A3030 RMK AO2 SLP270 T00670033 $=
202401051610 SPECI KSEA 051610Z 19012KT 10SM FEW005 SCT012 OVC023 06/04 A3030 RMK AO2 T00610039 $=
202401051553 METAR KSEA 051553Z 19011G19KT 10SM SCT010 BKN014 OVC020 06/04 A3030 RMK AO2 SLP268 T00610039 $=
202401051523 SPECI KSEA 051523Z 19007KT 10SM FEW005 OVC010 06/04 A3030 RMK AO2 T00610039 $=
202401051453 METAR KSEA 051453Z 20011KT 10SM OVC007 06/04 A3028 RMK AO2 SLP263 60001 T00560039 53008 $=
202401051353 METAR KSEA 051353Z 18010KT 10SM BKN009 OVC011 06/04 A3027 RMK AO2 DZB28E35 SLP260 P0000 T00560039 $=
202401051344 SPECI KSEA 051344Z 18010G17KT 10SM BKN009 OVC013 06/04 A3027 RMK AO2 DZB28E35 CIG 007V011 P0000 T00560039 $=
202401051339 SPECI KSEA 051339Z 18012G17KT 10SM OVC013 06/04 A3026 RMK AO2 DZB28E35 P0000 T00560039 $=
202401051302 SPECI KSEA 051302Z 19011G19KT 8SM BKN016 BKN035 06/03 A3025 RMK AO2 T00560033 $=
202401051253 METAR KSEA 051253Z 19011KT 9SM SCT021 BKN055 05/03 A3025 RMK AO2 RAE12 SLP254 P0001 T00500033 $=
202401051210 SPECI KSEA 051210Z 22011G19KT 8SM -RA SCT022 OVC033 06/03 A3027 RMK AO2 P0001 T00610033 $=
202401051153 METAR KSEA 051153Z 20011KT 10SM -RA BKN022 OVC043 06/03 A3026 RMK AO2 RAB47 SLP254 P0000 60000 7//// T00610028 10061 20044 51007 $=
202401051053 METAR KSEA 051053Z 20012KT 10SM OVC100 06/03 A3025 RMK AO2 SLP253 T00610033 $=
202401050953 METAR KSEA 050953Z 21012KT 10SM FEW040 SCT120 06/03 A3024 RMK AO2 SLPNO T00560033 $=
202401050853 METAR KSEA 050853Z 20010KT 10SM FEW040 BKN110 05/03 A3024 RMK AO2 SLPNO T00500033 50004 $=
202401050812 SPECI KSEA 050812Z 20008KT 10SM FEW020 SCT045 SCT130 05/03 A3025 RMK AO2 T00500033 $=
202401050753 METAR KSEA 050753Z 20009KT 10SM BKN021 05/03 A3024 RMK AO2 SLPNO T00500033 400780050 $=
202401050725 SPECI KSEA 050725Z 22012KT 10SM FEW012 06/03 A3024 RMK AO2 T00560033 $=
202401050653 METAR KSEA 050653Z 22005KT 10SM BKN007 OVC012 06/04 A3023 RMK AO2 CIG 006V009 SLPNO T00610044 $=
202401050627 SPECI KSEA 050627Z 18006KT 10SM BKN007 BKN047 OVC055 06/04 A3023 RMK AO2 T00610044 $=
202401050553 METAR KSEA 050553Z 18007KT 10SM FEW009 BKN049 06/04 A3022 RMK AO2 SLPNO 60010 T00560044 10078 20056 51012 $=
202401050546 SPECI KSEA 050546Z 17006KT 10SM FEW009 BKN049 06/04 A3022 RMK AO2 T00560044 $=
202401050453 METAR KSEA 050453Z 12003KT 10SM BKN040 06/04 A3022 RMK AO2 SLPNO T00610044 $=
202401050353 METAR KSEA 050353Z 17005KT 10SM FEW005 OVC050 07/06 A3021 RMK AO2 SLPNO T00670056 $=
202401050253 METAR KSEA 050253Z 14006KT 10SM FEW004 SCT035 OVC049 07/06 A3019 RMK AO2 RAE50 SLPNO P0002 60010 T00720056 51014 $=
202401050223 SPECI KSEA 050223Z 13006KT 6SM -RA BR SCT003 BKN032 OVC049 08/06 A3018 RMK AO2 P0002 T00780061 $=
202401050153 METAR KSEA 050153Z 09003KT 3SM -RA BR SCT003 BKN015 OVC034 08/06 A3018 RMK AO2 RAB0054E0055B21 SLPNO P0002 T00780061 $=
202401050137 SPECI KSEA 050137Z 08004KT 2SM -RA BR BKN003 OVC018 08/06 A3017 RMK AO2 RAB0054E0055B21 P0002 T00780061 $=
202401050111 SPECI KSEA 050111Z 01003KT 2SM BR BKN006 OVC012 07/06 A3017 RMK AO2 RAB0054E0055 P0001 T00720061 $=
202401050053 METAR KSEA 050053Z VRB03KT 1 3/4SM BR FEW004 BKN009 OVC022 07/06 A3016 RMK AO2 RAB08E52 SLPNO P0006 T00720061=
202401050045 SPECI KSEA 050045Z 00000KT 1 1/2SM -RA BR SCT004 BKN009 OVC020 07/07 A3016 RMK AO2 RAB08 P0005 T00720067=
202401042353 METAR KSEA 042353Z 25005KT 1 1/2SM BR BKN003 OVC010 07/06 A3015 RMK AO2 SLPNO 6//// T00720061=
202401042342 SPECI KSEA 042342Z 26004KT 1 1/2SM BR BKN003 OVC010 08/07 A3014 RMK AO2 CIG 001V008 T00780067=
202401042314 SPECI KSEA 042314Z 24005KT 2SM BR BKN003 OVC010 08/06 A3014 RMK AO2 T00780061=
202401042258 SPECI KSEA 042258Z 24004KT 1 1/2SM BR BKN003 OVC010 08/06 A3013 RMK AO2 T00780061=
202401042253 METAR KSEA 042253Z AUTO 24004KT 4SM BR 08/06 RMK AO2 SLPNO T00780061 $=
202401042223 SPECI KSEA 042223Z 24004KT 1SM BR BKN003 OVC015 07/07 A3012 RMK AO2 SLPNO T00720072=
202401042153 METAR KSEA 042153Z 00000KT 1 1/2SM BR BKN009 OVC015 07/07 A3012 RMK AO2 SLPNO T00720072=
202401042140 SPECI KSEA 042140Z 00000KT 1 1/2SM BR BKN009 OVC015 07/07 A3012 RMK AO2 SLPNO T00720072=
202401042053 METAR KSEA 042053Z 24003KT 3SM BR BKN009 OVC015 07/07 A3011 RMK AO2 SLPNO T00670067=
202401042035 SPECI KSEA 042035Z 29003KT 3SM BR BKN009 OVC015 07/07 A3012 RMK AO2 SLPNO T00720072=
202401041953 METAR KSEA 041953Z 19006KT 4SM BR FEW006 BKN015 OVC020 07/07 A3011 RMK AO2 SLPNO T00670067=
202401041853 METAR KSEA 041853Z 21003KT 5SM BR FEW006 OVC023 07/07 A3012 RMK AO2 SLPNO T00720072=
202401041835 SPECI KSEA 041835Z 16005KT 5SM BR FEW006 OVC023 07/07 A3012 RMK AO2 SLPNO T00720072=
202401041753 METAR KSEA 041753Z 15006KT 5SM -RA BR OVC024 07/07 A3011 RMK AO2 SLPNO T00670067=
202401041653 METAR KSEA 041653Z 18006KT 5SM BR OVC026 07/06 A3010 RMK AO2 SLPNO T00670061=
202401041600 SPECI KSEA 041600Z 17004KT 10SM OVC029 07/04 A3008 RMK AO2 T00670039=
202401041553 METAR KSEA 041553Z 14005KT 10SM OVC031 07/04 A3009 RMK AO2 RAE51 SLP196 P0000 T00670039=
202401041453 METAR KSEA 041453Z 19004KT 10SM -RA SCT045 OVC095 06/04 A3009 RMK AO2 SLP199 P0001 60001 T00610044 58006=
202401041353 METAR KSEA 041353Z VRB05KT 10SM -RA FEW033 OVC048 07/04 A3011 RMK AO2 RAE10B43 SLP203 P0000 T00670044=
202401041253 METAR KSEA 041253Z 14006KT 10SM -RA OVC050 07/04 A3011 RMK AO2 RAB50 SLP204 P0000 T00670044=
202401041153 METAR KSEA 041153Z 17005KT 10SM FEW028 FEW041 OVC065 07/04 A3011 RMK AO2 RAE30 SLP205 P0000 60004 70012 T00670044 10078 20067 50000=
202401041053 METAR KSEA 041053Z 18005KT 10SM -RA FEW027 OVC039 07/04 A3012 RMK AO2 RAB28 SLP207 P0001 T00720039=
202401040953 METAR KSEA 040953Z 18009KT 10SM FEW060 OVC085 07/05 A3012 RMK AO2 SLP206 T00720050=
202401040940 SPECI KSEA 040940Z 18011KT 10SM FEW060 OVC080 07/05 A3011 RMK AO2 T00670050=
202401040853 METAR KSEA 040853Z 17009KT 10SM FEW017 BKN029 OVC050 07/06 A3011 RMK AO2 RAE35 SLP205 P0002 60003 T00670056 50006=
202401040753 METAR KSEA 040753Z 19008KT 5SM -RA BR OVC028 07/06 A3011 RMK AO2 RAB37 SLP205 P0001 T00720056 401000050=
202401040653 METAR KSEA 040653Z 18010KT 10SM BKN028 BKN033 OVC070 08/05 A3010 RMK AO2 SLP200 T00780050=
202401040553 METAR KSEA 040553Z 19010KT 10SM SCT021 BKN038 OVC050 08/05 A3009 RMK AO2 RAE0457 SLP198 P0000 60000 T00780050 10083 20072 51010=
202401040453 METAR KSEA 040453Z 20008KT 10SM -RA FEW021 SCT030 OVC048 08/06 A3009 RMK AO2 RAB44 SLP196 P0000 T00780056=
202401040353 METAR KSEA 040353Z 19011G19KT 10SM FEW045 BKN055 OVC070 08/06 A3008 RMK AO2 RAE0259 SLP195 P0000 T00780056=
202401040253 METAR KSEA 040253Z 18011KT 10SM -RA FEW028 SCT050 OVC080 08/06 A3006 RMK AO2 RAB48 SLP189 P0000 60000 T00780056 51012=
202401040153 METAR KSEA 040153Z 19012KT 10SM FEW026 BKN090 OVC110 08/06 A3005 RMK AO2 SLP185 T00780056=
202401040113 SPECI KSEA 040113Z 20011KT 10SM BKN024 OVC050 08/06 A3005 RMK AO2 T00830056=
202401040053 METAR KSEA 040053Z 20010KT 10SM FEW015 SCT025 OVC035 08/06 A3004 RMK AO2 SLP182 T00780056=
202401040032 SPECI KSEA 040032Z 19011KT 10SM FEW009 BKN019 OVC033 08/06 A3004 RMK AO2 T00780056=
202401032353 METAR KSEA 032353Z 18009KT 7SM FEW008 OVC014 08/06 A3003 RMK AO2 RAE34 SLP177 P0001 60008 T00780061 10100 20072 51013=
202401032330 SPECI KSEA 032330Z 16005KT 3SM -RA BR BKN008 OVC012 08/06 A3002 RMK AO2 P0001 T00780061=
202401032253 METAR KSEA 032253Z 16011KT 2SM -RA BR BKN008 OVC015 08/06 A3002 RMK AO2 SLP172 P0006 T00780061=
202401032245 SPECI KSEA 032245Z 16008KT 2SM -RA BR BKN008 OVC015 07/06 A3001 RMK AO2 P0006 T00720061=
202401032153 METAR KSEA 032153Z 18006KT 3SM -RA BR FEW009 BKN019 OVC030 07/06 A3001 RMK AO2 RAB14E27B45 SLP169 P0001 T00720056=
202401032150 SPECI KSEA 032150Z 18006KT 3SM -RA BR FEW009 SCT016 OVC032 07/05 A3000 RMK AO2 RAB14E27B45 P0001=
202401032053 METAR KSEA 032053Z 20006KT 10SM FEW010 OVC049 09/04 A2999 RMK AO2 SLP163 T00890039 53007=
202401031953 METAR KSEA 031953Z 23003KT 10SM OVC050 08/05 A2998 RMK AO2 SLP161 T00830050=
202401031853 METAR KSEA 031853Z 22003KT 10SM FEW055 BKN080 BKN150 09/03 A2998 RMK AO2 SLP158 T00940028 $=
202401031753 METAR KSEA 031753Z 13009KT 10SM BKN050 BKN060 08/02 A2997 RMK AO2 SLP155 T00830022 10089 20050 53011 $=
202401031653 METAR KSEA 031653Z 19004KT 10SM BKN060 BKN110 BKN220 07/02 A2996 RMK AO2 SLP153 T00670022=
202401031553 METAR KSEA 031553Z 13008KT 10SM FEW050 BKN110 BKN200 08/02 A2994 RMK AO2 SLP148 T00780017=
202401031453 METAR KSEA 031453Z 13006KT 10SM FEW050 SCT090 OVC110 07/02 A2994 RMK AO2 SLP145 T00670022 53007=
202401031353 METAR KSEA 031353Z 13006KT 10SM SCT050 OVC090 07/02 A2992 RMK AO2 SLP141 T00720017=
202401031253 METAR KSEA 031253Z 00000KT 10SM OVC085 06/04 A2992 RMK AO2 SLP140 T00560039=
202401031153 METAR KSEA 031153Z 00000KT 10SM FEW050 OVC085 05/03 A2991 RMK AO2 SLP138 60000 70024 T00500033 10083 20050 55001=
202401031053 METAR KSEA 031053Z 00000KT 10SM OVC085 06/03 A2991 RMK AO2 SLP137 T00560033=
202401030953 METAR KSEA 030953Z 00000KT 10SM FEW055 FEW070 OVC090 06/03 A2992 RMK AO2 SLP138 T00560033=
202401030853 METAR KSEA 030853Z 24003KT 10SM SCT070 OVC090 06/03 A2992 RMK AO2 SLP139 60000 T00610028 51008=
202401030753 METAR KSEA 030753Z 20003KT 10SM FEW060 BKN110 07/02 A2992 RMK AO2 SLP139 T00670022 400830033=
202401030653 METAR KSEA 030653Z 15006KT 10SM OVC050 07/03 A2991 RMK AO2 RAB13E35 SLP136 P0000 T00720028=
202401030553 METAR KSEA 030553Z 12007KT 10SM SCT055 OVC070 08/02 A2989 RMK AO2 SLP131 60004 T00780022 10083 20067 53005=
202401030453 METAR KSEA 030453Z 00000KT 10SM BKN065 BKN180 08/03 A2988 RMK AO2 SLP126 T00830028=
202401030353 METAR KSEA 030353Z 03004KT 10SM FEW060 SCT090 OVC180 07/03 A2987 RMK AO2 SLP124 T00720033=
202401030253 METAR KSEA 030253Z 08003KT 10SM OVC060 08/03 A2988 RMK AO2 RAB18E46 SLP125 P0000 60004 T00780028 55009=
202401030153 METAR KSEA 030153Z 10008KT 10SM OVC050 08/03 A2987 RMK AO2 SLP124 T00780033=
202401030053 METAR KSEA 030053Z 10012KT 10SM OVC049 07/03 A2989 RMK AO2 RAE50 SLP130 P0004 T00720033=
202401022353 METAR KSEA 022353Z 11006KT 7SM -RA OVC046 08/04 A2991 RMK AO2 SLP135 P0001 60019 T00780039 10078 20056 55013=
202401022253 METAR KSEA 022253Z 08009KT 10SM -RA BKN055 OVC070 07/04 A2989 RMK AO2 SLP131 P0004 T00720039=
202401022153 METAR KSEA 022153Z 10006KT 7SM -RA BKN044 OVC060 07/03 A2992 RMK AO2 SLP140 P0002 T00720033=
202401022053 METAR KSEA 022053Z 12008KT 7SM -RA OVC044 07/03 A2994 RMK AO2 SLP148 P0006 60012 T00720028 58023=
202401021953 METAR KSEA 021953Z 00000KT 6SM -RA BR FEW005 BKN045 OVC055 06/05 A2998 RMK AO2 SLP160 P0004 T00610050=
202401021853 METAR KSEA 021853Z 00000KT 6SM -RA BR FEW005 BKN048 OVC060 06/05 A3000 RMK AO2 SLP167 P0002 T00610050=
202401021753 METAR KSEA 021753Z 17003KT 6SM -RA BR FEW003 BKN046 OVC070 06/04 A3001 RMK AO2 RAE27B50 SLP172 P0001 60001 T00560044 10072 20033 53015=
202401021653 METAR KSEA 021653Z 00000KT 7SM -RA FEW010 BKN060 OVC085 06/04 A2999 RMK AO2 RAB49 SLP165 P0000 T00560044=
202401021553 METAR KSEA 021553Z 24003KT 10SM FEW010 OVC110 05/02 A2997 RMK AO2 SLP158 T00500022=
202401021453 METAR KSEA 021453Z 00000KT 10SM OVC110 04/02 A2997 RMK AO2 SLP158 T00440022 56018=
202401021353 METAR KSEA 021353Z 00000KT 10SM BKN140 05/03 A2998 RMK AO2 SLP161 T00500028=
202401021253 METAR KSEA 021253Z 00000KT 10SM BKN150 04/01 A3000 RMK AO2 SLP168 T00390011=
202401021153 METAR KSEA 021153Z 00000KT 10SM BKN150 03/01 A3002 RMK AO2 SLP176 T00330011 10072 20033 58021=
202401021053 METAR KSEA 021053Z 00000KT 10SM BKN160 04/02 A3005 RMK AO2 SLP184 T00440017=
202401020953 METAR KSEA 020953Z 00000KT 10SM BKN160 04/01 A3006 RMK AO2 SLP188 T00440006=
202401020853 METAR KSEA 020853Z 00000KT 10SM BKN120 05/01 A3008 RMK AO2 SLP196 T00500011 58010=
202401020753 METAR KSEA 020753Z 30004KT 10SM FEW140 BKN200 04/01 A3010 RMK AO2 SLP200 T00390011 400830011=
202401020653 METAR KSEA 020653Z 11005KT 10SM BKN140 06/01 A3011 RMK AO2 SLP203 T00610006=
202401020553 METAR KSEA 020553Z 00000KT 10SM FEW140 BKN230 06/01 A3012 RMK AO2 SLP207 T00560006 10067 20044 58014=
202401020453 METAR KSEA 020453Z 10003KT 7SM BR BKN160 06/03 A3013 RMK AO2 SLP213 T00560028=
202401020353 METAR KSEA 020353Z 07004KT 6SM BR BKN140 05/03 A3015 RMK AO2 SLP218 T00500033=
202401020253 METAR KSEA 020253Z 16003KT 6SM BR SCT180 06/04 A3016 RMK AO2 SLP222 T00560039 58007=
202401020153 METAR KSEA 020153Z 00000KT 8SM BKN210 06/03 A3017 RMK AO2 SLP228 T00560033=
202401020053 METAR KSEA 020053Z 00000KT 9SM FEW060 FEW150 OVC220 06/03 A3018 RMK AO2 SLP230 T00560028=
202401012353 METAR KSEA 012353Z 00000KT 10SM FEW055 FEW140 BKN250 06/03 A3018 RMK AO2 SLP230 T00610028 10083 20044 55004=
202401012253 METAR KSEA 012253Z 27003KT 10SM FEW055 FEW140 BKN240 07/03 A3018 RMK AO2 SLP229 T00720028=
202401012153 METAR KSEA 012153Z 27003KT 10SM FEW005 SCT055 BKN240 08/03 A3018 RMK AO2 SLP229 T00780028=
202401012053 METAR KSEA 012053Z 00000KT 10SM FEW005 BKN060 BKN200 07/03 A3019 RMK AO2 SLP232 T00720033 58012=
202401011953 METAR KSEA 011953Z 30003KT 10SM FEW002 BKN060 07/03 A3022 RMK AO2 SLP241 T00670033=
202401011853 METAR KSEA 011853Z 19003KT 10SM FEW002 BKN060 05/02 A3023 RMK AO2 SLP247 T00500017=
202401011753 METAR KSEA 011753Z 00000KT 10SM FEW001 BKN060 05/02 A3023 RMK AO2 SLP245 T00500022 10050 20011 53010=
202401011653 METAR KSEA 011653Z 16003KT 6SM BR FEW001 BKN055 03/01 A3021 RMK AO2 SLP239 T00330011=
202401011553 METAR KSEA 011553Z 17003KT 3SM R16L/6000VP6000FT BCFG FEW001 BKN055 02/01 A3020 RMK AO2 SLP235 VIS N 1 T00170011=
202401011547 SPECI KSEA 011547Z 19003KT 3SM R16L/2200VP6000FT BCFG FEW001 BKN055 02/02 A3020 RMK AO2 VIS N 1=
202401011512 SPECI KSEA 011512Z 06004KT 1SM R16L/1600VP6000FT BR BKN001 BKN055 03/02 A3019 RMK AO2 VIS N 1/2 S 3/4 T00280017=
202401011453 METAR KSEA 011453Z 06003KT 2 1/2SM R16L/3500VP6000FT BR BKN001 BKN055 02/01 A3020 RMK AO2 SLP236 VIS N 1/2 S 3/4 T00220011 55003=
202401011431 SPECI KSEA 011431Z 00000KT 2 1/2SM R16L/2400VP6000FT BR BKN001 BKN055 02/02 A3020 RMK AO2 VIS N AND S 1/2 T00220017=
202401011425 SPECI KSEA 011425Z 03004KT 4SM R16L/2400VP6000FT BR BKN001 BKN055 02/02 A3020 RMK AO2 T00220017=
202401011414 SPECI KSEA 011414Z 04006KT 1/8SM R16L/1200VP6000FT FG BKN001 OVC055 02/01 A3019 RMK AO2 T00220011=
202401011353 METAR KSEA 011353Z 01005KT 1/8SM R16L/0800FT FG VV001 02/01 A3019 RMK AO2 SLP234 T00220011=
202401011323 SPECI KSEA 011323Z 36003KT 1/8SM R16L/0800V1400FT FG VV001 02/01 A3019 RMK AO2 T00170006=
202401011304 SPECI KSEA 011304Z 05003KT 1/4SM R16L/1200V2000FT FG VV001 02/01 A3019 RMK AO2 T00170006=
202401011256 SPECI KSEA 011256Z 05006KT 1/4SM R16L/1200V3000FT FG BKN001 OVC055 02/01 A3020 RMK AO2 T00220006=
202401011253 METAR KSEA 011253Z 05005KT 3/4SM R16L/1200VP6000FT BR SCT001 BKN055 02/01 A3020 RMK AO2 SLP235 T00220006=
202401011248 SPECI KSEA 011248Z 06005KT 2SM R16L/2800VP6000FT BR FEW001 BKN055 02/01 A3020 RMK AO2=
202401011153 METAR KSEA 011153Z 06003KT 7SM BKN210 03/01 A3021 RMK AO2 SLP238 T00280006 10067 20022 50002=
202401011053 METAR KSEA 011053Z 00000KT 10SM OVC220 03/01 A3023 RMK AO2 SLP244 T00280011=
202401010953 METAR KSEA 010953Z 11003KT 8SM BKN220 03/01 A3022 RMK AO2 SLP240 T00330011=
202401010853 METAR KSEA 010853Z 00000KT 10SM BKN210 03/02 A3020 RMK AO2 SLP236 T00330017 58001=
202401010753 METAR KSEA 010753Z VRB03KT 10SM OVC220 04/02 A3021 RMK AO2 SLP237 T00440022 401000039=
202401010653 METAR KSEA 010653Z 00000KT 10SM OVC220 06/03 A3021 RMK AO2 SLP238 T00560028=
202401010553 METAR KSEA 010553Z 15004KT 10SM FEW002 BKN220 06/03 A3021 RMK AO2 SLP237 T00610033 10083 20044 53001=
202401010453 METAR KSEA 010453Z 08003KT 10SM SCT002 BKN220 07/04 A3020 RMK AO2 SLP235 T00670044=
202401010448 SPECI KSEA 010448Z 11003KT 9SM FEW002 06/04 A3020 RMK AO2=
202401010353 METAR KSEA 010353Z 03004KT 10SM FEW025 BKN220 06/03 A3020 RMK AO2 SLP236 T00560033=
202401010253 METAR KSEA 010253Z 36004KT 10SM FEW025 BKN220 06/03 A3020 RMK AO2 SLP235 T00610033 51008=
202401010153 METAR KSEA 010153Z 35004KT 10SM FEW025 BKN220 06/03 A3019 RMK AO2 SLP233 T00610033=
202401010053 METAR KSEA 010053Z 36003KT 10SM FEW025 BKN220 08/04 A3019 RMK AO2 SLP230 T00780039=

# No short TAF reports from KSEA in databse.

###################################
#  large TAF from KSEA
###################################
202401312321 TAF KSEA 312321Z 0100/0206 VRB03KT P6SM -RA OVC060 FM010300 14008KT
                       P6SM -SHRA OVC050 FM011100 15006KT P6SM
                       VCSH BKN025 OVC040 FM011500 14006KT P6SM
                       VCSH OVC025 FM011800 17007KT P6SM OVC040=
202401312050 KSEA 312050Z 3121/0124 12006KT P6SM -RA OVC080 FM010300 11008KT
                       P6SM -SHRA OVC050 FM010900 11006KT P6SM
                       VCSH BKN025 OVC040 FM011500 14006KT P6SM
                       VCSH OVC025=
202401311721 TAF KSEA 311721Z 3118/0124 11015KT P6SM -RA BKN070 OVC090 FM312100
                       11010KT P6SM -RA OVC060 FM010300 11008KT
                       P6SM -SHRA OVC040 FM010900 11006KT P6SM
                       VCSH BKN025 OVC040 FM011500 14006KT P6SM
                       VCSH OVC025=
202401311200 KSEA 311200Z 3112/0118 11012G18KT P6SM -RA OVC050 FM311800 09010KT
                       P6SM -RA SCT030 OVC045 FM312100 10008KT
                       P6SM -RA OVC035 FM010400 11006KT P6SM -SHRA
                       BKN025 OVC040 FM011000 11004KT P6SM VCSH
                       BKN022 OVC035=
202401311135 TAF KSEA 311135Z 3112/0118 09010KT P6SM -RA OVC050 FM311800 09010KT
                       P6SM -RA SCT030 OVC045 FM312100 10008KT
                       P6SM -RA OVC035 FM010400 11006KT P6SM -SHRA
                       BKN025 OVC040 FM011000 11004KT P6SM VCSH
                       BKN022 OVC035=
202401310520 TAF KSEA 310520Z 3106/0112 10006KT P6SM SCT100 BKN120 FM310900
                       09010KT P6SM -RA OVC050 FM311800 09010KT
                       P6SM -RA SCT030 OVC050 FM312100 10010KT
                       6SM -RA OVC035 FM010000 11008KT 6SM -RA
                       OVC025 FM010900 11002KT P6SM -SHRA OVC050=
202401310259 KSEA 310259Z 3103/0106 10006KT P6SM SCT070 BKN140 FM310900 09010KT
                       P6SM -RA OVC050 FM311800 09010KT P6SM -RA
                       SCT030 OVC050 FM312100 10010KT 6SM -RA OVC035
                       FM010000 11008KT 6SM -RA OVC025=
202401302331 TAF KSEA 302331Z 3100/0106 35006KT P6SM BKN080 FM310300 07006KT
                       P6SM OVC100 FM310900 09010KT P6SM -RA OVC050
                       FM311800 09010KT P6SM -RA SCT030 OVC050
                       FM312100 10010KT 6SM -RA OVC035 FM010000
                       11008KT 6SM -RA OVC025=
202401302137 KSEA 302137Z 3022/3124 36007KT P6SM BKN090 FM310000 07007KT P6SM
                       OVC070 FM310900 09010KT P6SM -RA OVC060
                       FM311200 10010KT P6SM -RA SCT030 OVC050
                       FM312100 10010KT 6SM -RA OVC025=
202401302111 KSEA 302111Z 3021/3124 10005KT P6SM BKN060 FM310900 09010KT P6SM
                       -RA OVC060 FM311200 10010KT P6SM -RA SCT030
                       OVC050 FM312100 10010KT 6SM -RA OVC025=
202401301733 TAF KSEA 301733Z 3018/3124 20004KT P6SM -RA OVC070 FM302000 10005KT
                       P6SM BKN060 FM310900 09010KT P6SM -RA OVC060
                       FM311200 10010KT P6SM -RA SCT030 OVC050
                       FM312100 10010KT 6SM -RA OVC025=
202401301123 TAF KSEA 301123Z 3012/3118 VRB04KT P6SM OVC080 FM301700 09008KT
                       P6SM SCT060 BKN100 OVC200 FM310900 09010KT
                       P6SM -RA OVC060 FM311200 10010KT P6SM -RA
                       SCT030 OVC050=
202401300830 KSEA 300830Z 3009/3112 14006KT P6SM FEW060 OVC090 FM301300 16006KT
                       P6SM BKN060 OVC100 FM301700 09008KT P6SM
                       SCT060 BKN100 OVC200 FM311100 09008KT P6SM
                       -RA OVC060=
202401300539 TAF KSEA 300539Z 3006/3112 18008KT P6SM BKN100 OVC200 FM300800
                       18008KT P6SM -SHRA BKN060 OVC100 FM301300
                       16006KT P6SM BKN060 OVC100 FM301700 09008KT
                       P6SM SCT060 BKN100 OVC200 FM311100 09008KT
                       P6SM -RA OVC060=
202401300312 KSEA 300312Z 3003/3106 16006KT P6SM VCSH SCT060 OVC100 FM300500
                       18009KT P6SM -RA SCT035 OVC070 FM301100
                       12005KT P6SM VCSH SCT015 OVC025 FM301900
                       09008KT P6SM -SHRA BKN040=
202401292320 TAF KSEA 292320Z 3000/3106 19005KT P6SM SCT120 OVC200 FM300100
                       16006KT P6SM VCSH SCT060 OVC100 FM300600
                       18009KT P6SM -RA SCT020 BKN035 FM301100
                       12005KT P6SM VCSH SCT015 OVC025 FM301900
                       09008KT P6SM -SHRA BKN040=
202401292111 KSEA 292111Z 2921/3024 19005KT P6SM BKN150 OVC250 FM300200 16006KT
                       P6SM VCSH BKN060 OVC100 FM300600 18008KT
                       P6SM -RA SCT020 BKN035 OVC050 FM301000 18008KT
                       P6SM VCSH SCT015 OVC025 FM301900 04007KT
                       P6SM -SHRA OVC015=
202401291736 TAF KSEA 291736Z 2918/3024 13007KT P6SM FEW020 OVC250 FM300200
                       16006KT P6SM VCSH BKN060 OVC100 FM300600
                       18008KT P6SM -RA SCT020 BKN035 OVC050 FM301000
                       18008KT P6SM VCSH SCT015 OVC025 FM301900
                       04007KT P6SM -SHRA OVC015=
202401291612 KSEA 291612Z 2916/3018 13007KT P6SM FEW010 SCT080 OVC250 FM300200
                       16006KT P6SM VCSH BKN060 OVC100 FM300600
                       18008KT P6SM -RA SCT020 BKN035 OVC050 FM301100
                       18008KT P6SM -RA BKN015 OVC025 FM301600
                       10005KT P6SM OVC015=
202401291135 TAF KSEA 291135Z 2912/3018 12004KT P6SM SCT140 OVC250 FM300200
                       16006KT P6SM BKN060 OVC100 FM300600 18008KT
                       P6SM -RA SCT020 BKN035 OVC050 FM301100 18008KT
                       P6SM -RA BKN015 OVC025 FM301600 10005KT
                       P6SM OVC015=
202401290901 KSEA 290901Z 2909/3012 14004KT P6SM BKN120 FM300200 16006KT P6SM
                       BKN060 OVC100 FM300600 18008KT P6SM -RA
                       SCT020 BKN035 OVC050 FM301100 18008KT P6SM
                       -RA BKN015 OVC025=
202401290535 TAF KSEA 290535Z 2906/3012 10009KT P6SM SCT060 BKN100 OVC200 FM300200
                       16006KT P6SM BKN060 OVC100 FM300600 18008KT
                       P6SM -RA SCT020 BKN035 OVC050 FM301100 18008KT
                       P6SM -RA BKN015 OVC025=
202401290316 KSEA 290316Z 2903/3006 09008KT P6SM SCT060 BKN100 OVC200 FM300400
                       16006KT P6SM SCT050 BKN100=
202401282341 TAF KSEA 282341Z 2900/3006 14006KT P6SM SCT030 BKN045 OVC070 FM290900
                       09006KT P6SM SCT070 BKN120 OVC200 FM300400
                       16006KT P6SM SCT050 BKN100=
202401282033 KSEA 282033Z 2821/2924 20006KT P6SM SCT009 BKN030 OVC070 FM290000
                       14006KT P6SM SCT030 BKN045 OVC070 FM290400
                       12006KT P6SM SCT070 BKN120 FM291200 13005KT
                       P6SM OVC040=
202401281720 TAF KSEA 281720Z 2818/2924 19007KT P6SM FEW007 SCT015 OVC023 FM282000
                       16006KT P6SM SCT015 BKN030 OVC040 FM290000
                       14006KT P6SM SCT030 BKN045 OVC070 FM290400
                       12006KT P6SM SCT070 BKN120 FM291200 13005KT
                       P6SM OVC040=
202401281456 KSEA 281456Z 2815/2918 22009KT P6SM SCT006 BKN013 OVC023 FM282000
                       16006KT P6SM SCT015 BKN025 OVC040 FM290000
                       14006KT P6SM SCT030 BKN045 OVC070 FM290400
                       12006KT P6SM SCT070 BKN120=
202401281403 KSEA 281403Z 2814/2918 19005KT P6SM VCSH SCT003 OVC008
                      TEMPO 2814/2815 -RA BKN003 FM281500 19005KT
                       P6SM OVC012 FM282000 16006KT P6SM SCT015
                       BKN025 OVC040 FM290000 14006KT P6SM SCT030
                       BKN045 OVC070 FM290400 12006KT P6SM SCT070
                       BKN120=
202401281300 KSEA 281300Z 2813/2918 15007KT 4SM -RA BR FEW014 BKN019 OVC025
                       FM281400 16006KT 3SM BR SCT006 BKN015 OVC020
                       FM282000 16006KT P6SM SCT015 BKN025 OVC040
                       FM290000 14006KT P6SM SCT030 BKN045 OVC070
                       FM290400 12006KT P6SM SCT070 BKN120=
202401281120 TAF KSEA 281120Z 2812/2918 15008KT 6SM -RA BR BKN030 OVC040 FM281400
                       16006KT 3SM BR SCT006 BKN015 OVC020 FM282000
                       16006KT P6SM SCT015 BKN025 OVC040 FM290000
                       14006KT P6SM SCT030 BKN045 OVC070 FM290400
                       12006KT P6SM SCT070 BKN120=
202401280901 KSEA 280901Z 2809/2912 12006KT P6SM -RA FEW040 OVC050 FM281400
                       16006KT 3SM BR SCT006 BKN012 OVC020 FM282000
                       16006KT P6SM SCT015 BKN025 OVC040 FM282300
                       16006KT P6SM SCT030 BKN045 OVC070 FM290400
                       13006KT P6SM SCT060 BKN120=
202401280542 TAF KSEA 280542Z 2806/2912 14008KT P6SM -RA SCT030 BKN045 OVC060
                       FM280900 14008KT 5SM -RA SCT020 OVC035 FM281400
                       16006KT 3SM BR SCT006 BKN012 OVC020 FM282000
                       16006KT P6SM SCT015 BKN025 OVC040 FM282300
                       16006KT P6SM SCT030 BKN045 OVC070 FM290400
                       13006KT P6SM SCT060 BKN120=
202401280313 KSEA 280313Z 2803/2906 14008KT P6SM SCT020 BKN035 OVC050
                      TEMPO 2803/2806 5SM -RA FM280700 16005KT
                       4SM -RA BR OVC015 FM281200 16006KT 4SM BR
                       OVC010 FM282000 17005KT 6SM BR OVC025=
202401272320 TAF KSEA 272320Z 2800/2906 16007KT 4SM RA BR FEW015 BKN025 OVC030
                       TEMPO 2800/2802 1 1/2SM -RA FM280300 17008KT
                       5SM -RA OVC030 FM280900 16005KT 4SM -RA
                       BR OVC015 FM281200 16006KT 4SM BR OVC010
                       FM282000 17005KT 6SM BR OVC025=
202401272156 KSEA 272156Z 2722/2824 14007KT 4SM -RA BR FEW015 OVC025 FM280000
                       16007KT 4SM BR OVC025 FM280300 17008KT 6SM
                       -RA OVC035 FM280900 16005KT 4SM -RA BR OVC015
                       FM281200 16006KT 4SM BR OVC010=
202401272038 KSEA 272038Z 2721/2824 16004KT 2SM -RA BR BKN004 OVC020
                      TEMPO 2721/2723 1SM -RA BR FM280000 16007KT
                       4SM BR OVC025 FM280300 17008KT 6SM -RA OVC035
                       FM280900 16005KT 4SM -RA BR OVC015 FM281200
                       16006KT 4SM BR OVC010=
202401272019 KSEA 272019Z 2720/2824 15007KT 2SM -RA BR SCT004 BKN020 FM272100
                       16008KT 5SM -RA BR OVC030 FM280300 17008KT
                       6SM -RA OVC035 FM280900 16005KT 4SM -RA
                       BR OVC015 FM281200 16006KT 4SM BR OVC010=
202401271720 TAF KSEA 271720Z 2718/2824 12010KT 5SM -RA BR FEW025 BKN030 FM272100
                       16008KT 5SM -RA BR OVC030 FM280300 17008KT
                       6SM -RA OVC035 FM280900 16005KT 4SM -RA
                       BR OVC015 FM281200 16006KT 4SM BR OVC010=
202401271517 KSEA 271517Z 2715/2818 11008KT 5SM -RA BR BKN050 OVC070 FM272100
                       16008KT 5SM BR OVC015 FM280300 17008KT 3SM
                       -RA BKN006 OVC012 FM280900 16005KT 4SM -RA
                       BR OVC006=
202401271335 KSEA 271335Z 2714/2818 14008KT P6SM OVC060 FM271500 11008KT 5SM
                       -RA OVC025 FM272100 16008KT 5SM BR OVC016
                       FM280300 17008KT 3SM -RA BKN006 OVC012 FM280900
                       16005KT 4SM -RA BR OVC006=
202401271131 TAF KSEA 271131Z 2712/2818 14008KT P6SM OVC025 FM271400 11008KT
                       5SM -RA OVC020 FM272100 16008KT 5SM BR OVC012
                       FM280300 17008KT 3SM -RA BKN006 OVC012 FM280900
                       16005KT 4SM -RA BR OVC006=
202401270858 KSEA 270858Z 2709/2812 14008KT P6SM OVC020 FM271400 11008KT 5SM
                       -RA OVC020 FM272100 16008KT 5SM BR OVC012
                       FM280300 16008KT 3SM -RA BKN006 OVC012=
202401270540 TAF KSEA 270540Z 2706/2812 14008KT 3SM -RA OVC014 FM270800 14008KT
                       4SM BR SCT008 OVC014 FM271400 11008KT 5SM
                       -RA OVC020 FM272100 16008KT 5SM BR OVC012
                       FM280300 16008KT 3SM -RA BKN006 OVC012=
202401270309 KSEA 270309Z 2703/2806 14008KT 4SM -RA OVC025 FM270800 14008KT
                       P6SM OVC015 FM271200 11006KT 5SM -RA OVC020
                       FM272000 16009KT 5SM BR OVC012=
202401262331 TAF KSEA 262331Z 2700/2806 VRB03KT P6SM -SHRA BKN040 OVC050 FM270300
                       11007KT 6SM -RA OVC025 FM270800 12005KT
                       P6SM OVC015 FM271200 11006KT 5SM -RA OVC020
                       FM272000 16009KT 5SM BR OVC012=
202401262100 KSEA 262100Z 2621/2724 13006KT P6SM BKN050 OVC100 FM262200 13006KT
                       P6SM -SHRA OVC050 FM270200 11007KT 6SM -RA
                       OVC025 FM270600 12005KT P6SM OVC015 FM271500
                       11006KT 5SM -RA OVC012=
202401261739 TAF KSEA 261739Z 2618/2724 13006KT P6SM FEW050 BKN080 BKN100 FM262200
                       13006KT P6SM -SHRA OVC050 FM270200 11007KT
                       6SM -RA OVC025 FM270600 12005KT P6SM OVC015
                       FM271500 11006KT 5SM -RA OVC012=
202401261403 KSEA 261403Z 2614/2718 14006KT P6SM OVC100 FM261600 13007KT P6SM
                       -SHRA OVC060 FM262200 13006KT P6SM OVC035
                       FM270000 12005KT 5SM -RA OVC025 FM270600
                       12005KT 6SM -RA OVC015 FM270900 14006KT
                       6SM -RA OVC010=
202401261120 TAF KSEA 261120Z 2612/2718 14006KT P6SM OVC045 FM261600 13007KT
                       P6SM -SHRA OVC035 FM270000 12005KT 5SM -RA
                       OVC025 FM270600 12005KT 6SM -RA OVC015 FM270900
                       14006KT 6SM -RA OVC010=
202401260857 KSEA 260857Z 2609/2712 14005KT P6SM OVC035 FM261200 12006KT P6SM
                       -SHRA OVC045 FM262100 09007KT P6SM -SHRA
                       OVC035 FM270200 12005KT P6SM -RA OVC025=
202401260521 TAF KSEA 260521Z 2606/2712 18007KT P6SM -SHRA OVC025 FM260700 16005KT
                       P6SM OVC035 FM261200 12006KT P6SM -SHRA
                       OVC045 FM262100 09007KT P6SM -SHRA OVC035
                       FM270200 12005KT P6SM -RA OVC025=
202401260309 KSEA 260309Z 2603/2706 18007KT P6SM VCSH OVC025 FM260600 16005KT
                       P6SM OVC035 FM261200 12006KT P6SM -SHRA
                       OVC045 FM262100 09007KT P6SM -SHRA OVC035=
202401252326 TAF KSEA 252326Z 2600/2706 18010KT P6SM -SHRA BKN028 OVC035 FM260300
                       18007KT P6SM VCSH OVC025 FM260600 16005KT
                       P6SM OVC035 FM261200 12006KT P6SM -SHRA
                       OVC045 FM262100 09007KT P6SM -SHRA OVC035=
202401252051 KSEA 252051Z 2521/2624 16010KT P6SM -SHRA BKN035 OVC050 FM260000
                       18007KT P6SM -SHRA OVC025 FM260600 16005KT
                       P6SM OVC035 FM261200 12006KT P6SM OVC035=
202401251758 KSEA 251758Z 2518/2624 16010G20KT P6SM -SHRA BKN035 OVC050 FM260000
                       18007KT P6SM -SHRA OVC025 FM260600 16005KT
                       P6SM OVC035 FM261200 12006KT P6SM OVC035=
202401251729 TAF KSEA 251729Z 2518/2624 16010G20KT P6SM -SHRA BKN030 OVC035
                       FM260000 18007KT P6SM -SHRA OVC025 FM260600
                       16005KT P6SM OVC035 FM261200 12006KT P6SM
                       OVC035=
202401251645 KSEA 251645Z 2517/2618 17011G20KT P6SM -SHRA OVC035 FM251800 18009KT
                       P6SM -SHRA OVC025 FM260000 18007KT 6SM -SHRA
                       BR OVC020 FM260600 16005KT 6SM BR OVC020=
202401251454 KSEA 251454Z 2515/2618 17011KT P6SM -SHRA OVC035 FM251800 18009KT
                       P6SM -SHRA OVC025 FM260000 18007KT 6SM -SHRA
                       BR OVC020 FM260600 16005KT 6SM BR OVC020=
202401251120 TAF KSEA 251120Z 2512/2618 17008KT P6SM -SHRA OVC035 FM251500 17011KT
                       P6SM -SHRA OVC030 FM251800 18009KT P6SM
                       -SHRA OVC025 FM260000 18007KT 6SM -SHRA
                       BR OVC020 FM260600 16005KT 6SM BR OVC020=
202401250851 KSEA 250851Z 2509/2612 13008KT P6SM VCSH OVC050 FM251100 17012KT
                       P6SM -SHRA OVC035 FM251500 16009KT P6SM
                       -SHRA OVC025 FM260000 18007KT 6SM -RA BR
                       OVC015=
202401250539 TAF KSEA 250539Z 2506/2612 18008KT P6SM VCSH OVC050 FM251200 17012KT
                       P6SM -SHRA OVC035 FM251500 16009KT P6SM
                       -SHRA OVC025 FM260000 18007KT 6SM -RA BR
                       OVC015=
202401250349 KSEA 250349Z 2504/2606 18008KT P6SM VCSH OVC035 FM251200 17012KT
                       P6SM -RA OVC025 FM251900 16009KT P6SM -SHRA
                       OVC025 FM252300 18008KT 6SM -RA BR OVC015=
202401242331 TAF KSEA 242331Z 2500/2606 16010KT P6SM -SHRA BKN035 OVC050 FM250300
                       18008KT P6SM VCSH OVC035 FM251200 17012KT
                       P6SM -RA OVC025 FM251900 16009KT P6SM -SHRA
                       OVC025 FM252300 18008KT 6SM -RA BR OVC015=
202401241959 KSEA 241959Z 2420/2524 17009KT P6SM VCSH BKN025 OVC030 FM242300
                       16007KT P6SM -SHRA OVC030 FM250300 18008KT
                       P6SM VCSH OVC035 FM251200 17012KT P6SM -RA
                       OVC025 FM251900 16009KT P6SM -SHRA OVC030=
202401241725 TAF KSEA 241725Z 2418/2524 VRB05KT P6SM -RA OVC045 FM242000 15009KT
                       P6SM -SHRA BKN035 OVC040 FM242300 16007KT
                       P6SM -SHRA OVC035 FM250600 18008KT P6SM
                       VCSH OVC035 FM251200 17012KT P6SM -RA OVC025
                       FM251900 16009KT P6SM -SHRA OVC030=
202401241655 KSEA 241655Z 2417/2518 VRB05KT P6SM -RA OVC045 FM242000 15009KT
                       P6SM -SHRA BKN020 OVC030 FM242300 16007KT
                       P6SM -SHRA OVC025 FM250600 18008KT P6SM
                       VCSH OVC035 FM251400 17012KT P6SM -RA OVC025=
202401241442 KSEA 241442Z 2415/2518 12007KT P6SM -RA OVC045 FM242000 15009KT
                       P6SM -SHRA BKN020 OVC030 FM242300 16007KT
                       P6SM -SHRA OVC025 FM250600 18008KT P6SM
                       VCSH OVC035 FM251400 17012KT P6SM -RA OVC025=
202401241120 TAF KSEA 241120Z 2412/2518 12007KT P6SM -RA BKN090 OVC100 FM241500
                       12008KT P6SM -RA OVC030 FM242000 15009KT
                       P6SM -SHRA BKN020 OVC030 FM242300 16007KT
                       P6SM -SHRA OVC025 FM250600 18008KT P6SM
                       VCSH OVC035 FM251400 17012KT P6SM -RA OVC025=
202401241006 KSEA 241006Z 2410/2512 11005KT P6SM VCSH BKN080 BKN110 FM241200
                       13008KT P6SM -RA OVC035 FM241500 12008KT
                       P6SM -RA OVC025 FM242000 15009KT P6SM -SHRA
                       BKN015 OVC030 FM242300 16007KT P6SM -SHRA
                       OVC025 FM250600 18008KT P6SM VCSH OVC050=
202401240852 KSEA 240852Z 2409/2512 12007KT P6SM SCT060 BKN200 FM241000 11005KT
                       P6SM VCSH BKN020 OVC050 FM241200 13008KT
                       P6SM -RA OVC025 FM242000 15009KT P6SM -SHRA
                       BKN015 OVC030 FM242300 16007KT P6SM -SHRA
                       OVC025 FM250600 18008KT P6SM VCSH OVC050=
202401240521 TAF KSEA 240521Z 2406/2512 13007KT P6SM SCT060 BKN200 FM241000
                       11005KT P6SM VCSH BKN020 OVC050 FM241200
                       13008KT P6SM -RA OVC025 FM242000 15009KT
                       P6SM -SHRA BKN015 OVC030 FM242300 16007KT
                       P6SM -SHRA OVC025 FM250600 18008KT P6SM
                       VCSH OVC050=
202401240311 KSEA 240311Z 2403/2506 20005KT P6SM SCT045 BKN060 FM241000 11005KT
                       P6SM VCSH BKN020 OVC050 FM241300 13008KT
                       4SM -RA BR OVC025 FM242000 15009KT 4SM -RA
                       BR BKN015 OVC030 FM242300 16007KT 6SM -RA
                       OVC025=
202401232324 TAF KSEA 232324Z 2400/2506 19006KT P6SM SCT025 OVC050 FM240300
                       15003KT P6SM BKN040 OVC070 FM241000 11005KT
                       P6SM VCSH BKN020 OVC050 FM241300 13008KT
                       4SM -RA BR OVC025 FM242000 15009KT 4SM -RA
                       BR BKN015 OVC030 FM242300 16007KT 6SM -RA
                       OVC025=
202401232122 KSEA 232122Z 2321/2424 20013G18KT P6SM FEW010 SCT040 FM232300 19006KT
                       P6SM SCT025 OVC050 FM241000 11005KT P6SM
                       VCSH BKN020 OVC050 FM241300 13008KT 4SM
                       -RA BR OVC025 FM242000 15009KT 4SM -RA BR
                       BKN020 OVC030=
202401231931 KSEA 231931Z 2320/2424 20010KT P6SM FEW010 SCT040 FM232300 19006KT
                       P6SM SCT025 OVC050 FM241000 11005KT P6SM
                       VCSH BKN020 OVC050 FM241300 13008KT 4SM
                       -RA BR OVC025 FM242000 15009KT 4SM -RA BR
                       BKN020 OVC030=
202401231729 TAF KSEA 231729Z 2318/2424 17008KT P6SM BKN015 OVC040 FM231900
                       20009KT P6SM BKN020 OVC040 FM232300 19006KT
                       P6SM SCT025 OVC050 FM241000 11005KT P6SM
                       VCSH BKN020 OVC050 FM241300 13008KT 4SM
                       -RA BR OVC025 FM242000 15009KT 4SM -RA BR
                       BKN020 OVC030=
202401231451 KSEA 231451Z 2315/2418 17008KT P6SM -SHRA BKN010 OVC015 FM231900
                       20009KT P6SM VCSH OVC025 FM232300 19006KT
                       P6SM BKN030 OVC050 FM241000 11005KT P6SM
                       VCSH OVC030=
202401231134 TAF KSEA 231134Z 2312/2418 15008KT P6SM -SHRA BKN015 OVC025 FM231500
                       17008KT P6SM -SHRA BKN010 OVC015 FM231900
                       20009KT P6SM VCSH OVC025 FM232300 19006KT
                       P6SM BKN030 OVC050 FM241000 11005KT P6SM
                       VCSH OVC030=
202401230854 KSEA 230854Z 2309/2412 14008KT P6SM VCSH BKN010 OVC020 FM231200
                       18008KT P6SM -RA BKN008 OVC015 FM231900
                       20009KT P6SM VCSH BKN015 OVC025 FM232300
                       19006KT P6SM BKN030 OVC050 FM240700 13005KT
                       P6SM BKN035 OVC050=
202401230521 TAF KSEA 230521Z 2306/2412 15006KT P6SM VCSH BKN010 OVC020 FM231200
                       18008KT P6SM -RA BKN008 OVC015 FM231900
                       20009KT P6SM VCSH BKN015 OVC025 FM232300
                       19006KT P6SM BKN030 OVC050 FM240700 13005KT
                       P6SM BKN035 OVC050=
202401230218 KSEA 230218Z 2302/2406 18006KT P6SM VCSH FEW009 OVC020
                      TEMPO 2302/2306 SCT020 OVC035 FM230800 15006KT
                       P6SM VCSH FEW010 OVC015 FM231400 17008KT
                       P6SM VCSH BKN015 OVC020 FM231900 17006KT
                       P6SM VCSH OVC020 FM232300 19008KT P6SM BKN015
                       OVC025=
202401222333 TAF KSEA 222333Z 2300/2406 20011KT P6SM VCSH FEW009 OVC020 FM230400
                       15004KT P6SM VCSH OVC019 FM230800 15006KT
                       P6SM VCSH FEW010 OVC015 FM231400 17008KT
                       P6SM VCSH BKN015 OVC020 FM231900 17006KT
                       P6SM VCSH OVC020 FM232300 19008KT P6SM BKN015
                       OVC025=
202401222002 KSEA 222002Z 2220/2324 17009KT 4SM -RA BR FEW007 OVC015
                      TEMPO 2220/2221 2SM -RA BR BKN009 FM222300
                       17008KT 6SM BR VCSH BKN015 OVC020 FM230800
                       15006KT 6SM -RA BR FEW010 OVC015 FM231400
                       17008KT 6SM -RA BR OVC025 FM231900 17006KT
                       P6SM -RA OVC030=
202401221901 KSEA 221901Z 2219/2324 11007KT P6SM -RA OVC030
                      TEMPO 2219/2220 1SM -RA BR OVC025 FM222000
                       17009KT 4SM -RA BR FEW007 OVC015 FM222300
                       17008KT 6SM BR VCSH BKN015 OVC020 FM230800
                       15006KT 6SM -RA BR FEW010 OVC015 FM231400
                       17008KT 6SM -RA BR OVC025 FM231900 17006KT
                       P6SM -RA OVC030=
202401221813 KSEA 221813Z 2218/2324 11007KT P6SM -RA OVC030 FM222000 17009KT
                       4SM -RA BR FEW007 OVC015 FM222300 17008KT
                       6SM BR VCSH BKN015 OVC020 FM230800 15006KT
                       6SM -RA BR FEW010 OVC015 FM231400 17008KT
                       6SM -RA BR OVC025 FM231900 17006KT P6SM
                       -RA OVC030=
202401221722 TAF KSEA 221722Z 2218/2324 11007KT P6SM -RA BKN040 OVC050 FM222000
                       17009KT 4SM -RA BR FEW007 OVC015 FM222300
                       17008KT 6SM BR VCSH BKN015 OVC020 FM230800
                       15006KT 6SM -RA BR FEW010 OVC015 FM231400
                       17008KT 6SM -RA BR OVC025 FM231900 17006KT
                       P6SM -RA OVC030=
202401221558 KSEA 221558Z 2216/2318 11007KT P6SM -RA BKN040 OVC050 FM222000
                       17009KT 4SM -RA BR FEW007 OVC015 FM222300
                       17008KT 6SM BR VCSH BKN015 OVC020 FM230800
                       15006KT 6SM -RA BR FEW010 OVC015=
202401221123 TAF KSEA 221123Z 2212/2318 09007KT P6SM -RA FEW030 OVC060 FM221600
                       13008KT P6SM -RA SCT020 OVC025 FM222000
                       17009KT 4SM -RA BR FEW007 OVC015 FM222300
                       17008KT 6SM BR VCSH BKN015 OVC020 FM230800
                       15006KT 6SM -RA BR FEW010 OVC015=
202401220859 KSEA 220859Z 2209/2312 09007KT P6SM -RA FEW030 OVC060 FM221500
                       13008KT P6SM -RA SCT020 OVC025 FM221900
                       17009KT 4SM -RA BR FEW007 OVC015 FM222300
                       18008KT 6SM BR VCSH BKN015 OVC020 FM230800
                       18006KT 6SM -RA BR FEW010 OVC015=
202401220528 TAF KSEA 220528Z 2206/2312 11007KT P6SM -RA FEW030 OVC040 FM221300
                       13008KT P6SM -RA SCT020 OVC025 FM221900
                       17009KT 4SM -RA BR FEW007 OVC015 FM222300
                       18008KT 6SM BR VCSH BKN015 OVC020 FM230800
                       18006KT 6SM -RA BR FEW010 OVC015=
202401220253 KSEA 220253Z 2203/2306 11006KT P6SM -RA FEW030 OVC040 FM221500
                       13010KT P6SM -RA BKN020 OVC025 FM222100
                       18011KT P6SM -RA OVC015 FM230000 18008KT
                       P6SM OVC015=
202401212320 TAF KSEA 212320Z 2200/2306 13008KT P6SM -RA BKN040 OVC050 FM220300
                       11006KT P6SM -RA OVC030 FM220700 09007KT
                       P6SM -RA OVC015 FM221500 12010KT P6SM -RA
                       OVC020 FM230000 18008KT P6SM OVC015=
202401211727 TAF KSEA 211727Z 2118/2224 11006KT P6SM -RA OVC040 FM212000 12008KT
                       P6SM -RA OVC030 FM220300 11006KT P6SM -RA
                       SCT015 OVC025 FM220700 09007KT P6SM -RA
                       OVC025 FM221500 12010KT P6SM -RA OVC020=
202401211400 KSEA 211400Z 2114/2218 12009KT P6SM -RA SCT020 OVC040 FM211600
                       11008KT P6SM -RA FEW015 OVC025 FM212000
                       12008KT 6SM -RA BR OVC020 FM220300 11006KT
                       P6SM VCSH SCT015 OVC025 FM220700 09007KT
                       P6SM -SHRA SCT020 OVC030 FM221100 12009KT
                       P6SM -RA OVC020=
202401211122 TAF KSEA 211122Z 2112/2218 12009KT P6SM -RA SCT020 OVC040 FM211600
                       11008KT P6SM -RA FEW015 OVC025 FM212000
                       12008KT 6SM -RA BR OVC020 FM220300 11006KT
                       P6SM VCSH SCT015 OVC025 FM220700 09007KT
                       P6SM -SHRA SCT020 OVC030=
202401210851 KSEA 210851Z 2109/2212 12011KT P6SM -RA OVC045 FM211200 12009KT
                       6SM -RA FEW015 OVC025 FM211800 11008KT P6SM
                       -RA BKN025 OVC030 FM212100 12008KT 6SM -RA
                       BR OVC020 FM220600 11006KT P6SM VCSH SCT015
                       OVC025=
202401210524 TAF KSEA 210524Z 2106/2212 11009KT P6SM -RA BKN035 OVC050 FM210900
                       12009KT 6SM -RA FEW015 OVC025 FM211800 11008KT
                       P6SM -RA BKN025 OVC030 FM212100 12008KT
                       6SM -RA BR OVC020 FM220600 11006KT P6SM
                       VCSH SCT015 OVC025=
202401210254 KSEA 210254Z 2103/2206 21003KT P6SM -RA SCT040 BKN060 OVC100 FM210500
                       11005KT P6SM -RA BKN040 OVC050 FM210900
                       11005KT 6SM -RA OVC025 FM212000 11005KT
                       4SM -RA BR OVC015=
202401202320 TAF KSEA 202320Z 2100/2206 30005KT P6SM FEW060 SCT110 BKN200
                      TEMPO 2100/2102 10005KT FM210200 11005KT
                       P6SM BKN060 OVC100 FM210500 11005KT P6SM
                       -RA OVC050 FM210700 11005KT 6SM -RA OVC025
                       FM212000 11005KT 4SM -RA BR OVC015=
202401202210 KSEA 202210Z 2022/2124 34005KT P6SM FEW060 SCT110 BKN200 FM210000
                       14005KT P6SM SCT060 BKN120 OVC200 FM210200
                       11005KT P6SM OVC050 FM210500 11005KT P6SM
                       -RA OVC050 FM210700 12007KT P6SM -RA OVC015=
202401202106 KSEA 202106Z 2021/2124 03005KT P6SM FEW060 SCT110 BKN200 FM202200
                       10005KT P6SM SCT070 OVC120 FM210200 11005KT
                       P6SM OVC050 FM210500 11005KT P6SM -RA OVC050
                       FM210700 12007KT P6SM -RA OVC015=
202401201802 KSEA 201802Z 2018/2124 00000KT P6SM BCFG FEW001 SCT060 BKN120 FM202000
                       04006KT P6SM OVC120 FM202200 10005KT P6SM
                       SCT070 OVC120 FM210200 11005KT P6SM OVC050
                       FM210500 11005KT P6SM -RA OVC050 FM210700
                       12007KT P6SM -RA OVC015=
202401201720 TAF KSEA 201720Z 2018/2124 00000KT 1/4SM FG VV001
                      TEMPO 2018/2020 P6SM BCFG SCT001 FM202000
                       04006KT P6SM OVC120 FM202200 10005KT P6SM
                       SCT070 OVC120 FM210200 11005KT P6SM OVC050
                       FM210500 11005KT P6SM -RA OVC050 FM210700
                       12007KT P6SM -RA OVC015=
202401201549 KSEA 201549Z 2016/2118 17004KT P6SM SCT001 BKN120 BKN170
                      TEMPO 2016/2018 3/4SM BCFG BKN001 FM202000
                       04006KT P6SM OVC060 FM210200 11005KT P6SM
                       OVC035 FM210700 11005KT P6SM -RA OVC025=
202401201416 KSEA 201416Z 2014/2118 VRB04KT P6SM BKN150 FM201500 10007KT P6SM
                       OVC080 FM202000 04006KT P6SM OVC060 FM210200
                       11005KT P6SM OVC035 FM210700 11005KT P6SM
                       -RA OVC025=
202401201120 TAF KSEA 201120Z 2012/2118 VRB03KT P6SM BKN130 FM201500 10007KT
                       P6SM OVC080 FM202000 04006KT P6SM OVC060
                       FM210200 11005KT P6SM OVC035 FM210700 11005KT
                       P6SM -RA OVC025=
202401200902 KSEA 200902Z 2009/2112 06006KT P6SM BKN130 FM201200 14006KT P6SM
                       OVC090 FM201500 10007KT P6SM OVC080 FM202000
                       04006KT P6SM OVC060 FM210200 10005KT P6SM
                       OVC035 FM210400 11005KT P6SM OVC025 FM210700
                       11005KT 6SM -RA OVC025=
202401200534 TAF KSEA 200534Z 2006/2112 09006KT P6SM BKN180 FM201200 14006KT
                       P6SM OVC090 FM201500 10007KT P6SM OVC080
                       FM202000 04006KT P6SM OVC060 FM210200 10005KT
                       P6SM OVC035 FM210400 11005KT P6SM OVC025
                       FM210700 11005KT 6SM -RA OVC025=
202401200257 KSEA 200257Z 2003/2106 36005KT P6SM BKN150 FM200500 07005KT P6SM
                       BKN150 FM201000 10005KT P6SM OVC070 FM201600
                       07007KT P6SM OVC060 FM202000 02005KT P6SM
                       OVC050=
202401192321 TAF KSEA 192321Z 2000/2106 16007KT P6SM VCSH BKN080 OVC100 FM200200
                       08005KT P6SM OVC070 FM201000 10005KT P6SM
                       OVC070 FM201600 07007KT P6SM OVC060 FM202000
                       02005KT P6SM OVC050=
202401192106 KSEA 192106Z 1921/2024 16007KT P6SM VCSH BKN080 OVC100 FM200200
                       08005KT P6SM OVC070 FM201000 10005KT P6SM
                       OVC050 FM201600 07007KT P6SM OVC060 FM202000
                       02005KT P6SM OVC050=
202401191725 TAF KSEA 191725Z 1918/2024 13009KT P6SM OVC070 FM192000 12006KT
                       P6SM VCSH BKN080 OVC100 FM200200 08005KT
                       P6SM OVC070 FM201000 10005KT P6SM OVC050
                       FM201600 07007KT P6SM OVC060=
202401191621 KSEA 191621Z 1916/2018 10009KT P6SM OVC070 FM192000 12006KT P6SM
                       VCSH OVC050 FM200200 08005KT P6SM OVC050
                       FM201000 10005KT P6SM OVC025=
202401191410 KSEA 191410Z 1914/2018 06007KT P6SM OVC080 FM191600 10009KT P6SM
                       OVC035 FM192000 12006KT P6SM VCSH OVC030
                       FM200200 08005KT P6SM OVC035 FM201000 10005KT
                       P6SM OVC025=
202401191120 TAF KSEA 191120Z 1912/2018 08010KT P6SM VCSH OVC070 FM191600 12009KT
                       P6SM OVC035 FM192000 14006KT P6SM VCSH OVC030
                       FM200200 08005KT P6SM OVC035 FM201000 10005KT
                       P6SM OVC025=
202401190904 KSEA 190904Z 1909/2012 10006KT P6SM -RA OVC070 FM191100 08007KT
                       5SM BR VCSH OVC035 FM191600 09009KT P6SM
                       VCSH OVC025 FM192000 12006KT P6SM OVC025
                       FM200200 08005KT P6SM OVC030=
202401190539 TAF KSEA 190539Z 1906/2012 10012KT 6SM -RA BKN050 OVC070 FM191000
                       08009KT 5SM BR VCSH OVC035 FM191600 09009KT
                       P6SM VCSH OVC025 FM192000 12006KT P6SM OVC025
                       FM200200 08005KT P6SM OVC030=
202401190302 KSEA 190302Z 1903/2006 10012KT P6SM -RA FEW035 OVC045
                      TEMPO 1903/1904 10015G20KT 6SM -RA BR BKN030
                       FM190400 06008KT 5SM -RA BR OVC020 FM191100
                       08009KT 5SM -RA BR OVC020 FM191600 09009KT
                       6SM -SHRA OVC025 FM192200 07006KT 6SM -SHRA
                       OVC035=
202401190141 KSEA 190141Z 1902/2006 10010KT 6SM -RA FEW035 OVC050
                      TEMPO 1902/1904 10015G25KT -RA BR BKN030
                       FM190400 06008KT 5SM -RA BR OVC020 FM191100
                       08009KT 5SM -RA BR OVC020 FM191600 09009KT
                       6SM -SHRA OVC025 FM192200 07006KT 6SM -SHRA
                       OVC035=
202401182336 TAF KSEA 182336Z 1900/2006 10010KT 4SM -RA BR FEW007 OVC025 FM190400
                       06008KT 5SM -RA BR OVC020 FM191100 08009KT
                       5SM -RA BR OVC020 FM191600 09009KT 6SM -SHRA
                       OVC025 FM192200 07006KT 6SM -SHRA OVC035=
202401182104 KSEA 182104Z 1821/1924 09015KT 4SM -RA BR FEW007 OVC025 FM190000
                       08010KT 4SM -RA BR OVC020 FM190600 06008KT
                       5SM -RA BR OVC015 FM191100 08009KT 5SM -RA
                       BR OVC020 FM191600 09009KT 6SM -SHRA OVC050=
202401181737 TAF KSEA 181737Z 1818/1924 09009G20KT 6SM -RA BR BKN015 OVC030
                       FM182100 08013KT 4SM -RA BR OVC025 FM190000
                       08010KT 4SM -RA BR OVC020 FM190600 06008KT
                       5SM -RA BR OVC015 FM191100 08009KT 5SM -RA
                       BR OVC020 FM191600 09009KT 6SM -SHRA OVC050=
202401181525 KSEA 181525Z 1815/1918 09009G20KT P6SM -RA SCT003 OVC025 FM182100
                       08013KT 4SM -RA BR OVC020 FM190600 06008KT
                       5SM -RA BR OVC010 FM191100 08009KT 5SM -RA
                       BR OVC020=
202401181349 KSEA 181349Z 1814/1918 04005KT 4SM BR FEW002 OVC035 FM181500 07008KT
                       P6SM -RA SCT003 OVC025 FM182100 08012KT
                       4SM -RA BR OVC020 FM190600 06008KT 5SM -RA
                       BR OVC010=
202401181228 KSEA 181228Z 1812/1918 04005KT 4SM BR FEW002 OVC030
                      TEMPO 1812/1815 1/2SM FG VV001 FM181500 07008KT
                       P6SM -RA SCT003 OVC015 FM182100 08012KT
                       4SM -RA BR OVC020 FM190600 06008KT 5SM -RA
                       BR OVC010=
202401181125 TAF KSEA 181125Z 1812/1918 04005KT 1/2SM FG VV001 FM181500 07008KT
                       P6SM -RA SCT003 OVC015 FM182100 08012KT
                       4SM -RA BR OVC020 FM190600 06008KT 5SM -RA
                       BR OVC010=
202401180959 KSEA 180959Z 1810/1912 07005KT P6SM SCT020 BKN035
                      TEMPO 1810/1814 1/2SM FG VV001 FM181500 07008KT
                       P6SM -RA OVC015 FM182100 08010G16KT 4SM
                       -RA BR OVC015 FM190600 06010KT 2SM -RA BR
                       OVC008=
202401180902 KSEA 180902Z 1809/1912 07005KT P6SM SCT020 BKN035 FM181500 07008KT
                       P6SM -RA OVC015 FM182100 08010G16KT 4SM
                       -RA BR OVC015 FM190600 06010KT 2SM -RA BR
                       OVC008=
202401180534 TAF KSEA 180534Z 1806/1912 15004KT P6SM BKN018 OVC023 FM181000
                       07007KT P6SM OVC015 FM181500 07008KT P6SM
                       -RA OVC015 FM182100 08010G16KT 4SM -RA BR
                       OVC015 FM190600 06010KT 2SM -RA BR OVC008=
202401180118 KSEA 180118Z 1801/1906 09007KT P6SM VCSH FEW005 OVC021 FM180500
                       06006KT P6SM OVC015 FM181000 07007KT 2SM
                       BR OVC007 FM181500 07010G16KT P6SM -SHRA
                       OVC010 FM182100 08007KT P6SM -SHRA OVC007=
202401172329 TAF KSEA 172329Z 1800/1906 09005KT 2SM -RA BR BKN003 OVC020 FM180500
                       06006KT 2SM BR VCSH BKN007 OVC010 FM181000
                       07007KT 2SM BR OVC007 FM181500 07010G16KT
                       P6SM -SHRA OVC010 FM182100 08007KT P6SM
                       -SHRA OVC007=
202401172257 KSEA 172257Z 1723/1824 09005KT 2SM -RA BR BKN003 OVC020 FM180300
                       06006KT 6SM BR VCSH BKN011 FM181400 07010G16KT
                       P6SM -SHRA OVC015 FM182000 08007KT P6SM
                       -SHRA OVC010=
202401172101 KSEA 172101Z 1721/1824 02013KT 5SM -RA BR BKN004 OVC010 FM172300
                       16010KT 5SM -RA BR OVC010 FM180300 06006KT
                       6SM BR VCSH BKN011 FM181400 07010G16KT P6SM
                       -SHRA OVC015 FM182000 08007KT P6SM -SHRA
                       OVC010=
202401171959 KSEA 171959Z 1720/1824 34008G15KT 5SM -RA BR BKN002 OVC010 FM172100
                       34010KT 5SM -RA BR OVC007 FM172300 16010KT
                       5SM -RA BR OVC010 FM180300 06006KT 6SM BR
                       VCSH BKN011 FM181400 07010G16KT P6SM -SHRA
                       OVC015 FM182000 08007KT P6SM -SHRA OVC010=
202401171957 KSEA 171957Z 1720/1824 34008G15KT 3SM -RA BR OVC007 FM172300 16010KT
                       5SM -RA BR OVC010 FM180300 06006KT 6SM BR
                       VCSH BKN011 FM181400 07010G16KT P6SM -SHRA
                       OVC015 FM182000 08007KT P6SM -SHRA OVC010=
202401171902 KSEA 171902Z 1719/1824 14009KT 3/4SM -RA BR OVC002 FM172000 18010KT
                       3SM -RA BR OVC007 FM172200 19010KT 5SM -RA
                       BR OVC010 FM180300 06006KT 6SM BR VCSH BKN011
                       FM181400 07010G16KT P6SM -SHRA OVC015 FM182000
                       08007KT P6SM -SHRA OVC010=
202401171735 TAF KSEA 171735Z 1718/1824 14009KT 1SM -RA BR BKN004 OVC008 FM172000
                       18010KT 3SM -RA BR OVC007 FM172200 19010KT
                       5SM -RA BR OVC010 FM180300 06006KT 6SM BR
                       VCSH BKN011 FM181400 07010G16KT P6SM -SHRA
                       OVC015 FM182000 08007KT P6SM -SHRA OVC010=
202401171657 KSEA 171657Z 1717/1818 14009KT 4SM -RA BR OVC010
                      TEMPO 1717/1718 1SM -RA BR BKN004 FM172100
                       19010KT 5SM -RA BR OVC008 FM180500 06006KT
                       6SM BR VCSH BKN011 FM181400 07010G16KT P6SM
                       OVC015=
202401171619 KSEA 171619Z 1716/1818 14009KT 4SM -RA BR OVC010
                      TEMPO 1716/1717 1SM -RA BR BKN004 FM172100
                       19010KT 5SM -RA BR OVC008 FM180500 06006KT
                       6SM BR VCSH BKN011 FM181400 07010G16KT P6SM
                       OVC015=
202401171357 KSEA 171357Z 1714/1818 13007KT 4SM BR VCSH BKN007 OVC022 FM171600
                       14009KT 4SM -RA BR OVC010 FM172100 19010KT
                       5SM -RA BR OVC008 FM180500 06006KT 6SM BR
                       VCSH BKN011 FM181400 07010G16KT P6SM OVC015=
202401171132 TAF KSEA 171132Z 1712/1818 13006KT 6SM BR VCSH SCT005 BKN013 OVC025
                       FM171800 14009KT 6SM -RA BR OVC011 FM172100
                       19010KT 5SM -RA BR OVC008 FM180500 06006KT
                       6SM BR VCSH BKN011 FM181400 07010G16KT P6SM
                       OVC015=
202401170859 KSEA 170859Z 1709/1812 12007KT 4SM -RA BR OVC010 FM171200 13008KT
                       P6SM VCSH OVC009 FM171800 13011KT P6SM OVC015
                       FM172100 19010KT 5SM -RA BR OVC010=
202401170638 KSEA 170638Z 1707/1812 09005KT 5SM -RA BR SCT014 BKN017 OVC040
                       TEMPO 1707/1709 -FZRA BR OVC015 FM170900
                       13008KT P6SM VCSH OVC015 FM171200 13008KT
                       P6SM OVC015 FM171800 13011KT P6SM OVC015
                       FM172100 19010KT P6SM OVC015=
202401170530 TAF KSEA 170530Z 1706/1812 09005KT 6SM -RA SCT014 BKN022 OVC035
                       TEMPO 1706/1709 -FZRA BR OVC010 FM171000
                       13008KT P6SM VCSH OVC015 FM171200 13008KT
                       P6SM OVC015 FM171800 13011KT P6SM OVC015
                       FM172100 19010KT P6SM OVC015=
202401170306 KSEA 170306Z 1703/1806 10005KT P6SM SCT030 BKN045 OVC150 FM170400
                       10006KT 5SM -RASN BR OVC020
                      TEMPO 1704/1708 -FZRA BR OVC010 FM170800
                       13008KT 6SM -RA BR OVC009 FM171200 17007KT
                       5SM -RA BR OVC015 FM171600 18009KT 5SM -RA
                       BR OVC020 FM172100 19010KT 2SM -RA BR OVC010=
202401162340 TAF KSEA 162340Z 1700/1806 10005KT P6SM BKN200 FM170300 10006KT
                       5SM -RASN BR OVC020
                      TEMPO 1704/1708 -FZRA BR OVC010 FM170800
                       13008KT 6SM -RA BR OVC009 FM171200 17007KT
                       5SM -RA BR OVC015 FM171600 18009KT 5SM -RA
                       BR OVC020 FM172100 19010KT 2SM -RA BR OVC010=
202401162106 KSEA 162106Z 1621/1724 12005KT P6SM OVC150 FM170000 10005KT P6SM
                       OVC050 FM170300 10006KT 5SM -RASN BR OVC025
                       TEMPO 1704/1708 -FZRA BR OVC015 FM170800
                       13005KT 6SM -RA BR OVC010 FM171200 17007KT
                       5SM -RA BR OVC009 FM171600 18008KT 5SM -RA
                       BR OVC007=
202401161838 KSEA 161838Z 1619/1724 11007KT P6SM BKN200 FM162000 10006KT P6SM
                       OVC100 FM170000 10005KT P6SM OVC050 FM170300
                       10006KT 5SM -RASN BR OVC025
                      TEMPO 1704/1708 -FZRA BR OVC015 FM170800
                       13005KT 6SM -RA BR OVC010 FM171200 17007KT
                       5SM -RA BR OVC009 FM171600 18008KT 5SM -RA
                       BR OVC007=
202401161735 TAF KSEA 161735Z 1618/1724 11007KT P6SM BKN200 FM162000 10006KT
                       P6SM OVC100 FM170000 10005KT P6SM OVC050
                       FM170300 10006KT 5SM -RASN BR OVC025 FM170800
                       13005KT 6SM -RA BR OVC010 FM171200 17007KT
                       5SM -RA BR OVC009 FM171600 18008KT 5SM -RA
                       BR OVC007=
202401161538 KSEA 161538Z 1616/1718 11007KT P6SM BKN200 FM162000 10006KT P6SM
                       OVC100 FM170000 10005KT P6SM OVC050 FM170300
                       10006KT 5SM -RASN BR OVC027 FM170600 11005KT
                       6SM -RA BR OVC010=
202401161133 TAF KSEA 161133Z 1612/1718 07007KT P6SM SCT200 FM161600 09005KT
                       P6SM BKN200 FM162000 10006KT P6SM OVC100
                       FM170000 10005KT P6SM OVC050 FM170300 10006KT
                       5SM -RASN BR OVC027 FM170600 11005KT 6SM
                       -RA BR OVC010=
202401160852 KSEA 160852Z 1609/1712 09008KT P6SM SCT250 FM161500 14005KT P6SM
                       OVC250 FM162000 17006KT P6SM OVC150 FM170000
                       14005KT P6SM OVC050 FM170300 10006KT 5SM
                       RASN OVC025
                      PROB30 1703/1706 FZRASN FM170800 12005KT
                       5SM RA OVC010=
202401160531 TAF KSEA 160531Z 1606/1712 09008KT P6SM SCT250 FM161500 14005KT
                       P6SM OVC250 FM162000 17006KT P6SM OVC150
                       FM170000 14005KT P6SM OVC050 FM170300 10006KT
                       5SM RASN OVC025
                      PROB30 1703/1706 FZRASN FM170800 12005KT
                       5SM RA OVC010=
202401160318 KSEA 160318Z 1603/1706 10005KT P6SM BKN250 FM161800 15005KT P6SM
                       OVC200 FM170000 14005KT P6SM OVC050 FM170300
                       12006KT 5SM RASN OVC025
                      PROB30 1703/1706 FZRA=
202401152322 TAF KSEA 152322Z 1600/1706 10005KT P6SM BKN200 FM160600 12005KT
                       P6SM BKN200 FM161800 15005KT P6SM OVC200
                       FM170000 14005KT P6SM OVC050 FM170300 12006KT
                       5SM RASN OVC025
                      PROB30 1703/1706 FZRA=
202401152056 KSEA 152056Z 1521/1624 09008KT P6SM BKN200 FM161200 12005KT P6SM
                       BKN200=
202401151727 TAF KSEA 151727Z 1518/1624 04007KT P6SM BKN200 FM160600 07008KT
                       P6SM BKN200 FM161200 12005KT P6SM BKN200=
202401151132 TAF KSEA 151132Z 1512/1618 05007KT P6SM SCT200 FM151800 06009KT
                       P6SM SCT200 FM160600 07008KT P6SM SCT200=
202401150900 KSEA 150900Z 1509/1612 06007KT P6SM BKN250 FM151500 04009KT P6SM
                       SCT200 FM160200 08005KT P6SM SCT150=
202401150536 TAF KSEA 150536Z 1506/1612 08007KT P6SM BKN250 FM151500 04009KT
                       P6SM SCT200 FM160200 08005KT P6SM SCT150=
202401150303 KSEA 150303Z 1503/1606 05005KT P6SM BKN250 FM151200 04008G18KT
                       P6SM BKN200=
202401142334 TAF KSEA 142334Z 1500/1606 36005KT P6SM BKN200 FM150200 04005KT
                       P6SM BKN200 FM151200 04008G18KT P6SM BKN200=
202401142058 KSEA 142058Z 1421/1524 07005G15KT P6SM SCT120 BKN200 FM142200 36005KT
                       P6SM BKN200 FM150200 04005KT P6SM BKN200
                       FM151200 05008G18KT P6SM BKN200=
202401141730 TAF KSEA 141730Z 1418/1524 06005KT P6SM BKN200 FM142200 35005KT
                       P6SM BKN200 FM150200 04005KT P6SM BKN200
                       FM151100 08009KT P6SM BKN200=
202401141126 TAF KSEA 141126Z 1412/1518 07007KT P6SM SCT200 FM141800 06005KT
                       P6SM BKN200 FM142200 35005KT P6SM SCT060
                       BKN200 FM150300 04005KT P6SM SCT050 BKN200
                       FM150900 05006KT P6SM SCT025 BKN200=
202401140913 KSEA 140913Z 1409/1512 07007KT P6SM SCT200 FM141400 11007KT P6SM
                       SCT070 BKN250 FM142200 01005KT P6SM BKN050
                       FM150300 04005KT P6SM SCT030 BKN250 FM150600
                       05005KT P6SM SCT025 BKN200=
202401140520 TAF KSEA 140520Z 1406/1512 08009KT P6SM BKN200 FM141400 11007KT
                       P6SM SCT070 BKN250 FM142200 01005KT P6SM
                       BKN050 FM150300 04005KT P6SM SCT030 BKN250
                       FM150600 05005KT P6SM SCT025 BKN200=
202401140301 KSEA 140301Z 1403/1506 08007KT P6SM BKN200 FM141600 11007KT P6SM
                       SCT030 BKN060 FM142000 33005KT P6SM SCT030
                       BKN050 FM150000 01005KT P6SM SCT030 BKN250=
202401132320 TAF KSEA 132320Z 1400/1506 05010KT P6SM BKN250 FM140700 06008KT
                       P6SM BKN070 FM141500 07007KT P6SM SCT030
                       BKN050 FM142000 33005KT P6SM SCT030 BKN050
                       FM150000 01005KT P6SM SCT030 BKN250=
202401132057 KSEA 132057Z 1321/1424 08015KT P6SM BKN220 FM140000 05014KT P6SM
                       BKN250 FM140700 06008KT P6SM BKN070 FM141500
                       07007KT P6SM SCT030 BKN050 FM142000 33005KT
                       P6SM SCT030 BKN050=
202401131730 TAF KSEA 131730Z 1318/1424 05009KT P6SM BKN220 FM140000 05014KT
                       P6SM BKN250 FM140700 06008KT P6SM BKN070
                       FM141500 07007KT P6SM SCT020 BKN040=
202401131137 TAF KSEA 131137Z 1312/1418 09013G20KT P6SM SCT200 FM131600 07012G18KT
                       P6SM SCT150 BKN200 FM140000 05014G21KT P6SM
                       BKN090 OVC120 FM140700 06008KT P6SM BKN070
                       FM141500 07007KT P6SM SCT020 BKN040=
202401130902 KSEA 130902Z 1309/1412 07013G20KT P6SM BKN200 FM131200 09013G22KT
                       P6SM BKN120 OVC200 FM131500 07012G18KT P6SM
                       SCT050 OVC120 FM140000 04012KT P6SM BKN050
                       OVC250 FM140700 05009KT P6SM BKN035=
202401130542 TAF KSEA 130542Z 1306/1412 03010KT P6SM SCT250 FM131000 06010KT
                       P6SM SCT200 FM131500 04012KT P6SM SCT050
                       OVC250 FM140000 04012KT P6SM BKN050 OVC250
                       FM140700 05009KT P6SM BKN035=
202401130336 KSEA 130336Z 1304/1406 02010KT P6SM FEW030 SCT200 FM130600 05007KT
                       P6SM SCT250 FM131000 06010KT P6SM BKN040
                       FM131700 04010KT P6SM SCT040 OVC250 FM132200
                       03012KT P6SM SCT040 BKN080=
202401122320 TAF KSEA 122320Z 1300/1406 01012KT P6SM SCT060 SCT200 FM130100
                       02010KT P6SM SCT100 SCT250 FM130600 05007KT
                       P6SM SCT250 FM131000 06010KT P6SM BKN040
                       FM131700 04010KT P6SM SCT040 OVC250 FM132200
                       03012KT P6SM SCT040 BKN080=
202401122057 KSEA 122057Z 1221/1324 01015KT P6SM SCT020 OVC060 FM122200 01012KT
                       P6SM SCT060 BKN150 FM130100 02010KT P6SM
                       SCT100 SCT250 FM130600 05007KT P6SM SCT250
                       FM131000 06010KT P6SM BKN040 FM131700 04010KT
                       P6SM SCT040 OVC250=
202401121727 TAF KSEA 121727Z 1218/1324 01015KT P6SM SCT020 OVC060 FM122100
                       01012KT P6SM SCT060 BKN150 FM130100 02010KT
                       P6SM SCT100 SCT250 FM130600 05007KT P6SM
                       SCT250 FM131000 08010KT P6SM BKN040=
202401121453 KSEA 121453Z 1215/1318 01015KT P6SM OVC050 FM122000 01012KT P6SM
                       SCT040 BKN120 FM130100 02010KT P6SM BKN040
                       OVC100 FM130600 05007KT P6SM SCT250 FM131000
                       08010KT P6SM FEW250=
202401121121 TAF KSEA 121121Z 1212/1318 01015G25KT P6SM OVC060 FM121500 02014KT
                       P6SM OVC050 FM122000 01012KT P6SM SCT040
                       BKN120 FM130100 02010KT P6SM BKN040 OVC100
                       FM130600 05007KT P6SM SCT250 FM131000 08010KT
                       P6SM FEW250=
202401120811 KSEA 120811Z 1208/1312 35008KT P6SM -SN OVC045 FM121100 01010KT
                       P6SM OVC035 FM121500 02008KT P6SM OVC030
                       FM121800 01010KT P6SM SCT040 BKN120 FM130100
                       02012KT P6SM BKN040 OVC100=
202401120541 TAF KSEA 120541Z 1206/1312 35008KT P6SM FEW012 OVC045 FM121100
                       01010KT P6SM OVC035 FM121500 02008KT P6SM
                       OVC030 FM121800 01010KT P6SM SCT040 BKN120
                       FM130100 02012KT P6SM BKN040 OVC100=
202401120246 KSEA 120246Z 1203/1306 35012KT P6SM BKN015 OVC035
                      TEMPO 1203/1205 35012G18KT 4SM -SN BKN020
                       FM120500 35012KT P6SM BKN015 OVC035 FM121000
                       01010KT P6SM BKN010 OVC020 FM121500 02008KT
                       P6SM BKN020 OVC030 FM121800 01010KT P6SM
                       BKN030 OVC060=
202401120148 KSEA 120148Z 1202/1306 35012G18KT P6SM BKN015 OVC035 FM120500 35012KT
                       P6SM BKN015 OVC035 FM121000 01010KT P6SM
                       BKN010 OVC020 FM121500 02008KT P6SM BKN020
                       OVC030 FM121800 01010KT P6SM BKN030 OVC060=
202401112337 TAF KSEA 112337Z 1200/1306 35015G23KT P6SM OVC035
                      TEMPO 1200/1203 -SNRA BKN015 OVC020 FM120300
                       35013KT P6SM VCSH BKN015 OVC025 FM121000
                       01010KT P6SM BKN010 OVC020 FM121500 02008KT
                       P6SM BKN020 OVC030 FM121800 01010KT P6SM
                       BKN030 OVC060=
202401112123 KSEA 112123Z 1121/1224 25012G20KT P6SM BKN018 OVC070 FM112300 35015G23KT
                       P6SM OVC035
                      TEMPO 1123/1203 -SNRA BKN015 OVC025 FM120300
                       35013KT P6SM VCSH BKN015 OVC025 FM121000
                       01010KT P6SM BKN010 OVC020 FM121500 02008KT
                       P6SM BKN020 OVC030 FM121800 01010KT P6SM
                       BKN030 OVC050=
202401111934 KSEA 111934Z 1120/1224 22010KT P6SM BKN060 OVC090 FM112200 35015G23KT
                       P6SM OVC035
                      TEMPO 1122/1202 -SNRA BKN015 OVC025 FM120200
                       35013KT P6SM VCSH BKN015 OVC025 FM121000
                       01010KT P6SM BKN010 OVC020 FM121500 02008KT
                       P6SM BKN020 OVC030 FM121800 01010KT P6SM
                       BKN030 OVC050=
202401111759 TAF KSEA 111759Z 1118/1224 VRB04KT P6SM SCT015 BKN060 OVC080
                      TEMPO 1118/1120 -RASN BKN020 OVC030 FM112000
                       35015G23KT P6SM OVC030
                      TEMPO 1122/1202 -RASN BKN015 OVC025 FM120200
                       35013KT P6SM VCSH BKN015 OVC025 FM121000
                       01010KT P6SM BKN010 OVC020 FM121500 02008KT
                       P6SM BKN020 OVC030 FM121800 01010KT P6SM
                       BKN030 OVC050=
202401111659 KSEA 111659Z 1117/1218 27004KT P6SM BKN060 OVC080 FM111800 VRB03KT
                       P6SM SCT015 BKN030 OVC060
                      TEMPO 1118/1120 -RASN BKN020 OVC030 FM112000
                       35015G23KT P6SM OVC030
                      TEMPO 1122/1202 -RASN BKN015 OVC025 FM120200
                       35013KT P6SM VCSH BKN015 OVC025 FM121000
                       35014KT P6SM VCSH BKN010 OVC020=
202401111336 KSEA 111336Z 1114/1218 26006KT P6SM FEW015 OVC040 FM111500 27004KT
                       P6SM BKN030 OVC040 FM111900 25011G18KT P6SM
                       -RASN SCT030 BKN040 FM112200 32015G23KT
                       P6SM -RASN SCT020 OVC030 FM120200 35013KT
                       P6SM VCSH BKN015 OVC025 FM121000 35014KT
                       P6SM VCSH BKN010 OVC020=
202401111135 TAF KSEA 111135Z 1112/1218 22011KT P6SM OVC015 FM111600 20008KT
                       P6SM BKN030 OVC040 FM111900 25011G18KT P6SM
                       -RASN SCT030 BKN040 FM112200 32015G23KT
                       P6SM -RASN SCT020 OVC030 FM120200 35013KT
                       P6SM VCSH BKN015 OVC025 FM121000 35014KT
                       P6SM VCSH BKN010 OVC020=
202401111010 KSEA 111010Z 1110/1212 18010KT P6SM OVC009 FM111200 22011KT P6SM
                       SCT025 BKN035 FM111900 25011G18KT P6SM -RASN
                       OVC030 FM112200 32015G23KT P6SM -RASN SCT020
                       OVC030 FM120100 35013KT P6SM VCSH BKN015
                       OVC025=
202401110858 KSEA 110858Z 1109/1212 18010KT P6SM BKN025 OVC035 FM111200 22011KT
                       P6SM SCT025 BKN035 FM111900 25011G18KT P6SM
                       -RASN OVC030 FM112200 32015G23KT P6SM -RASN
                       SCT020 OVC030 FM120100 35013KT P6SM VCSH
                       BKN015 OVC025=
202401110536 TAF KSEA 110536Z 1106/1212 18007KT 6SM BR SCT010 BKN015 OVC020
                       TEMPO 1106/1109 4SM BR BKN005 FM111200 22011KT
                       P6SM SCT025 BKN035 FM111900 25011G18KT P6SM
                       -RASN OVC030 FM112200 32015G23KT P6SM -RASN
                       SCT020 OVC030 FM120100 35013KT P6SM VCSH
                       BKN015 OVC025=
202401110255 KSEA 110255Z 1103/1206 18007KT P6SM BKN020 OVC035
                      TEMPO 1103/1105 SCT015 BKN035 FM111200 20015G22KT
                       P6SM BKN035 FM111700 21014G20KT P6SM -SHRA
                       OVC030 FM112200 27018G26KT P6SM -SNRA OVC025=
202401102340 TAF KSEA 102340Z 1100/1206 30005KT P6SM -SHRA FEW015 OVC030 FM110300
                       18007KT P6SM OVC025 FM111200 20015G22KT
                       P6SM BKN035 FM111700 21014G20KT P6SM -SHRA
                       OVC030 FM112200 27018G26KT P6SM -SNRA OVC025=
202401102159 KSEA 102159Z 1022/1124 16006KT P6SM VCSH SCT013 OVC020 FM102300
                       31005KT P6SM -SHRA FEW015 OVC030 FM110300
                       18007KT P6SM OVC020 FM111000 20010KT P6SM
                       OVC025 FM111700 21014G20KT P6SM VCSH OVC030=
202401102053 KSEA 102053Z 1021/1124 16006KT P6SM VCSH SCT013 OVC020 FM102200
                       31005KT P6SM -SHRA OVC015 FM110300 18007KT
                       P6SM OVC020 FM111000 20010KT P6SM OVC025
                       FM111700 21014G20KT P6SM VCSH OVC030=
202401101742 TAF KSEA 101742Z 1018/1124 16009KT P6SM VCSH BKN007 OVC015 FM101900
                       20007KT P6SM VCSH BKN010 OVC015 FM102200
                       31005KT P6SM -SHRA OVC015 FM110300 18007KT
                       P6SM OVC020 FM111000 20010KT P6SM OVC025
                       FM111700 21014G20KT P6SM VCSH OVC030=
202401101518 KSEA 101518Z 1015/1118 20009KT P6SM -RA BKN007 OVC015
                      TEMPO 1015/1017 3SM -RA BR OVC003 FM101700
                       20007KT 5SM -SHRA BR BKN010 OVC015 FM102200
                       31005KT P6SM -SHRA OVC015 FM110300 18007KT
                       P6SM OVC015 FM111000 20010KT P6SM VCSH OVC020=
202401101358 KSEA 101358Z 1014/1118 20009KT P6SM -RA BKN007 OVC015
                      TEMPO 1014/1015 4SM -RA BR OVC006 FM101500
                       20007KT 5SM -SHRA BR BKN010 OVC015 FM102200
                       31005KT P6SM -SHRA OVC015 FM110300 18007KT
                       P6SM OVC015 FM111000 20010KT P6SM VCSH OVC020=
202401101259 KSEA 101259Z 1013/1118 20009KT P6SM -RA BKN007 OVC015
                      TEMPO 1013/1014 4SM BR OVC006 FM101500 20007KT
                       5SM -SHRA BR BKN010 OVC015 FM102200 31005KT
                       P6SM -SHRA OVC015 FM110300 18007KT P6SM
                       OVC015 FM111000 20010KT P6SM VCSH OVC020=
202401101129 TAF KSEA 101129Z 1012/1118 20009KT P6SM -RA BKN007 OVC015 FM101500
                       20007KT 5SM -SHRA BR BKN010 OVC015 FM102200
                       31005KT P6SM -SHRA OVC015 FM110300 18007KT
                       P6SM OVC015 FM111000 20010KT P6SM VCSH OVC020=
202401100904 KSEA 100904Z 1009/1112 20012G19KT P6SM VCSH OVC010 FM101000 20009KT
                       P6SM BKN007 OVC015 FM101500 20007KT 5SM
                       -SHRA BR BKN010 OVC015 FM102200 31005KT
                       P6SM -SHRA OVC015 FM110400 21007KT P6SM
                       VCSH OVC015=
202401100527 TAF KSEA 100527Z 1006/1112 20012G19KT P6SM VCSH OVC020
                      TEMPO 1006/1008 SCT020 FM101000 20009KT P6SM
                       BKN007 OVC015 FM101500 20007KT 5SM -SHRA
                       BR BKN010 OVC015 FM102200 31005KT P6SM -SHRA
                       OVC015 FM110400 21007KT P6SM VCSH OVC015=
202401100255 KSEA 100255Z 1003/1106 20015G25KT P6SM VCSH SCT020 OVC040
                      TEMPO 1003/1005 BKN020 FM100800 20007KT P6SM
                       VCSH OVC025 FM101000 20009KT P6SM BKN007
                       OVC015 FM101500 22009KT P6SM -SHRA OVC015
                       FM102100 VRB05KT P6SM -SHRA OVC020=
202401092328 TAF KSEA 092328Z 1000/1106 21022G30KT P6SM VCSH OVC020 FM100300
                       20018G28KT P6SM VCSH SCT025 OVC040 FM100900
                       20011KT P6SM VCSH OVC025 FM101300 20011KT
                       P6SM -SHRA OVC020 FM102100 VRB05KT P6SM
                       -SHRA OVC020=
202401092058 KSEA 092058Z 0921/1024 21026G34KT P6SM -SHRA OVC020 FM100300 20020G28KT
                       P6SM VCSH SCT025 OVC040 FM100900 20011KT
                       P6SM VCSH OVC025 FM101300 20011KT P6SM -SHRA
                       OVC020=
202401091725 TAF KSEA 091725Z 0918/1024 21020G30KT P6SM -RA SCT015 BKN025 OVC030
                       FM092200 21026G34KT P6SM -SHRA OVC025 FM100300
                       20020G28KT P6SM VCSH SCT025 OVC040 FM100900
                       20011KT P6SM VCSH OVC025 FM101300 20011KT
                       P6SM -SHRA OVC020=
202401091526 KSEA 091526Z 0915/1018 21025G35KT P6SM -SHRA BKN020 OVC030 FM092200
                       21026G34KT 6SM -SHRA OVC025 FM100300 20017G25KT
                       P6SM VCSH SCT025 OVC040 FM100900 20011KT
                       P6SM VCSH OVC025 FM101300 20008KT P6SM -SHRA
                       OVC020=
202401091447 KSEA 091447Z 0915/1018 21025G35KT P6SM -SHRA FEW025 OVC035 FM092200
                       21026G34KT 6SM -SHRA OVC025 FM100300 20017G25KT
                       P6SM VCSH SCT025 OVC040 FM100900 20011KT
                       P6SM VCSH OVC025 FM101300 20008KT P6SM -SHRA
                       OVC020=
202401091141 TAF KSEA 091141Z 0912/1018 22020G33KT P6SM -SHRA OVC030 FM091500
                       21025G35KT P6SM -SHRA BKN015 OVC025 FM092200
                       21026G34KT 6SM -SHRA OVC025 FM100300 20017G25KT
                       P6SM VCSH SCT025 OVC040 FM100900 20011KT
                       P6SM VCSH OVC025 FM101300 20008KT P6SM -SHRA
                       OVC020=
202401090959 KSEA 090959Z 0910/1012 22020G33KT P6SM -SHRA OVC030 FM091500 21025G35KT
                       P6SM -SHRA BKN015 OVC025 FM092200 21025G35KT
                       P6SM VCSH OVC025 FM100300 20017G25KT P6SM
                       VCSH SCT025 OVC040 FM100900 20011KT P6SM
                       VCSH OVC015=
202401090836 KSEA 090836Z 0909/1012 18017G27KT 3SM RA BR BKN015 OVC020 WS020/21040KT
                       TEMPO 0909/0910 TSRA SCT021CB FM091000 22020G33KT
                       P6SM -RA OVC025 FM091500 21025G35KT P6SM
                       -SHRA BKN015 OVC025 FM092200 21025G35KT
                       P6SM VCSH OVC025 FM100300 20017G25KT P6SM
                       VCSH SCT025 OVC040 FM100900 20011KT P6SM
                       VCSH OVC015=
202401090533 TAF KSEA 090533Z 0906/1012 18017G27KT 3SM RA BR BKN015 OVC020 WS020/21040KT
                       FM090900 22020G33KT P6SM -RA OVC025 FM091500
                       21025G35KT P6SM -SHRA BKN015 OVC025 FM092200
                       21025G35KT P6SM VCSH OVC025 FM100300 20017G25KT
                       P6SM VCSH SCT025 OVC040 FM100900 20011KT
                       P6SM VCSH OVC015=
202401090243 KSEA 090243Z 0903/1006 17008KT 3SM -RA BR SCT007 OVC015
                      TEMPO 0903/0904 1 1/2SM -RA BR BKN007 FM090400
                       18014G22KT 5SM -RA BR OVC015 WS020/21040KT
                       FM090900 20020G30KT P6SM -RA OVC020 FM091500
                       21025G35KT P6SM -SHRA BKN025 OVC040 FM092200
                       21025G35KT P6SM VCSH OVC025 FM100300 20020G30KT
                       P6SM SCT025 OVC040=
202401082320 TAF KSEA 082320Z 0900/1006 12007KT 2SM -RA BR SCT003 OVC013
                      TEMPO 0900/0904 1 1/2SM -RA BR BKN003 FM090400
                       18014G22KT 5SM -RA BR OVC012 WS020/21040KT
                       FM090900 20020G30KT P6SM -RA OVC020 FM091500
                       21025G35KT P6SM -SHRA BKN025 OVC040 FM092200
                       21025G35KT P6SM VCSH OVC025 FM100300 20020G30KT
                       P6SM SCT025 OVC040=
202401082219 KSEA 082219Z 0822/0924 14005KT 2SM -RA BR SCT005 OVC012
                      TEMPO 0822/0902 1 1/2SM -RA BR BKN003 FM090400
                       18014G22KT 5SM -RA BR OVC012 WS020/21040KT
                       FM090900 20020G30KT 6SM -RA BR OVC020 FM091500
                       21025G35KT P6SM -SHRA BKN025 OVC040 FM092200
                       21025G35KT P6SM VCSH OVC025=
202401082109 KSEA 082109Z 0821/0924 12005KT 4SM -RA BR FEW005 SCT015 OVC020
                       TEMPO 0821/0824 2SM -RA BR BKN015 FM090400
                       18014G22KT 5SM -RA BR OVC012 WS020/21040KT
                       FM090900 20020G30KT 6SM -RA BR OVC020 FM091500
                       21025G35KT P6SM -SHRA BKN025 OVC040 FM092200
                       21025G35KT P6SM VCSH OVC025=
202401081929 KSEA 081929Z 0819/0924 10006KT P6SM -RA FEW005 BKN025 OVC040 FM090400
                       18014G22KT 5SM -RA BR OVC012 WS020/21040KT
                       FM090900 20020G30KT 6SM -RA BR OVC020 FM091500
                       21025G35KT P6SM -SHRA BKN025 OVC040 FM092200
                       21025G35KT P6SM VCSH OVC025=
202401081722 TAF KSEA 081722Z 0818/0924 12008KT 5SM -RA BR FEW005 BKN014 OVC023
                       FM081900 13008KT 5SM -RA BR OVC014 FM090400
                       18014G22KT 5SM -RA BR OVC012 WS020/21040KT
                       FM090900 20020G30KT 6SM -RA BR OVC020 FM091500
                       21025G35KT P6SM -SHRA BKN025 OVC040 FM092200
                       21025G35KT P6SM VCSH OVC025=
202401081138 TAF KSEA 081138Z 0812/0918 15006KT P6SM BKN017 OVC035 FM081300
                       15007KT 6SM -RA BR BKN014 OVC025 FM081900
                       13008KT 6SM -RA BR OVC012 FM090400 18014G22KT
                       5SM -RA BR OVC012 WS020/21040KT FM090900
                       20020G30KT 6SM -RA BR OVC020 FM091500 21025G35KT
                       P6SM -SHRA BKN025 OVC040=
202401080910 KSEA 080910Z 0809/0912 15006KT P6SM VCSH BKN020 OVC030 FM081300
                       15007KT 6SM -RA BR BKN012 OVC020 FM090400
                       18015G23KT 4SM -RA BR OVC015 FM090900 22021G35KT
                       6SM -RA BR OVC020=
202401080525 TAF KSEA 080525Z 0806/0912 12003KT P6SM VCSH BKN020 OVC030 FM080900
                       13006KT P6SM VCSH BKN015 OVC020 FM081300
                       15007KT 6SM -RA BR BKN010 OVC015 FM090400
                       18015G23KT 4SM -RA BR OVC015 FM090900 22021G35KT
                       6SM -RA BR OVC020=
202401080407 KSEA 080407Z 0804/0906 05004KT P6SM VCSH FEW010 OVC025 FM080900
                       13006KT P6SM FEW007 OVC020 FM081400 15007KT
                       P6SM -RA OVC015 FM090400 18015KT 6SM -RA
                       BR OVC014=
202401080251 KSEA 080251Z 0803/0906 08004KT P6SM SCT035 OVC050 FM080900 14006KT
                       P6SM OVC022 FM081400 15007KT P6SM -RA OVC015
                       FM090400 18015KT 6SM -RA BR OVC014=
202401072334 TAF KSEA 072334Z 0800/0906 20004KT P6SM BKN035 BKN050 FM080900
                       14006KT P6SM OVC022 FM081400 15007KT P6SM
                       -RA OVC015 FM090400 18015KT 6SM -RA BR OVC014=
202401072129 KSEA 072129Z 0721/0824 20004KT P6SM BKN035 BKN050 FM080900 14006KT
                       P6SM OVC022 FM081400 15007KT P6SM -RA OVC015=
202401071909 KSEA 071909Z 0719/0824 16002KT P6SM -SHRA SCT012 OVC021 FM072100
                       18005KT P6SM BKN035 BKN050 FM080900 14006KT
                       P6SM OVC022 FM081400 15007KT P6SM -RA OVC015=
202401071732 TAF KSEA 071732Z 0718/0824 16005KT P6SM SCT025 OVC035 FM072000
                       18005KT P6SM BKN035 BKN050 FM080900 14006KT
                       P6SM OVC022 FM081400 15007KT P6SM -RA OVC015=
202401071121 TAF KSEA 071121Z 0712/0818 VRB04KT P6SM VCSH SCT013 BKN025 OVC040
                       TEMPO 0712/0716 3SM BR FM072000 18005KT
                       P6SM BKN035 BKN050 FM080900 14006KT P6SM
                       OVC022 FM081400 15007KT P6SM -RA OVC015=
202401070900 KSEA 070900Z 0709/0812 VRB03KT 6SM BR VCSH SCT015 BKN025 OVC040
                       FM071200 VRB04KT P6SM BKN015 OVC025 FM072000
                       16005KT P6SM BKN035 OVC050 FM080900 18006KT
                       P6SM -RA OVC015=
202401070526 TAF KSEA 070526Z 0706/0812 VRB04KT 4SM -SHRA BR FEW001 BKN025 OVC035
                       FM070800 VRB04KT 5SM BR VCSH OVC015 FM072000
                       16005KT P6SM BKN035 OVC050 FM080900 18006KT
                       P6SM -RA OVC015=
202401070350 KSEA 070350Z 0704/0806 03005KT P6SM VCSH SCT030 BKN040 FM070800
                       VRB04KT P6SM BKN010 OVC020 FM071800 22006KT
                       P6SM SCT025 BKN040=
202401070207 KSEA 070207Z 0702/0806 03005KT P6SM VCSH BKN020 BKN040 FM070300
                       04005KT P6SM VCSH SCT025 BKN040 FM070900
                       16005KT P6SM BKN010 OVC022 FM071800 22006KT
                       P6SM SCT025 BKN040=
202401070104 KSEA 070104Z 0701/0806 32008KT P6SM VCTS BKN020 OVC035CB
                      TEMPO 0701/0703 2SM RA BR OVC015 FM070300
                       34006KT P6SM BKN025 FM070900 16005KT P6SM
                       BKN010 OVC022 FM071800 22006KT P6SM SCT025
                       BKN040=
202401070025 KSEA 070025Z 0700/0806 14004KT P6SM VCSH BKN022 BKN035
                      TEMPO 0700/0702 4SM SHRA BR OVC015 FM070300
                       34006KT P6SM BKN025 FM070900 16005KT P6SM
                       BKN010 OVC022 FM071800 22006KT P6SM SCT025
                       BKN040=
202401062336 TAF KSEA 062336Z 0700/0806 14011KT P6SM VCSH BKN022 BKN035 FM070300
                       34006KT P6SM BKN025 FM070900 16005KT P6SM
                       BKN010 OVC022 FM071800 22006KT P6SM SCT025
                       BKN040=
202401062059 KSEA 062059Z 0621/0724 14011KT P6SM VCSH BKN022 BKN035 FM070300
                       34006KT P6SM BKN025 FM070900 16005KT P6SM
                       BKN010 OVC022 FM071800 22006KT P6SM SCT025
                       BKN040=
202401061729 TAF KSEA 061729Z 0618/0724 07003KT P6SM VCSH BKN018 OVC024 FM061900
                       22007KT P6SM VCSH BKN022 BKN040 FM070300
                       34006KT P6SM BKN025 FM070900 16005KT P6SM
                       BKN010 OVC022 FM071800 22006KT P6SM SCT025
                       BKN040=
202401061422 KSEA 061422Z 0614/0718 29007KT P6SM VCSH SCT008 BKN022 BKN035 FM061800
                       24007KT P6SM VCSH BKN022 BKN040 FM070300
                       34006KT P6SM BKN025 FM070900 16005KT P6SM
                       BKN010 OVC022=
202401061219 KSEA 061219Z 0612/0718 21012G18KT 6SM -SHRA BR SCT012 OVC022 FM061330
                       32007KT P6SM VCSH BKN020 BKN035 FM061800
                       24007KT P6SM VCSH BKN022 BKN040 FM070300
                       34006KT P6SM BKN025 FM070900 16005KT P6SM
                       BKN010 OVC022=
202401061134 TAF KSEA 061134Z 0612/0718 21007KT P6SM -SHRA SCT014 OVC024 FM061330
                       32007KT P6SM VCSH BKN020 BKN035 FM061800
                       24007KT P6SM VCSH BKN022 BKN040 FM070300
                       34006KT P6SM BKN025 FM070900 16005KT P6SM
                       BKN010 OVC022=
202401060811 KSEA 060811Z 0608/0712 18011KT P6SM -RA BKN025 OVC035 FM061200
                       31007KT P6SM VCSH OVC015 FM061800 24007KT
                       P6SM OVC020 FM070300 20006KT P6SM OVC030=
202401060520 TAF KSEA 060520Z 0606/0712 18015G24KT P6SM -RA BKN025 OVC035 FM060800
                       20012G21KT P6SM -RA OVC020 FM061200 31010KT
                       P6SM VCSH OVC015 FM061800 24007KT P6SM OVC020
                       FM070300 20006KT P6SM OVC030=
202401060258 KSEA 060258Z 0603/0706 18015G24KT P6SM -RA BKN020 OVC030 FM060800
                       20012G21KT P6SM -RA OVC015 FM061200 20010KT
                       P6SM OVC020 FM061800 24007KT P6SM SCT020
                       OVC030 FM070300 20006KT P6SM OVC020=
202401052330 TAF KSEA 052330Z 0600/0706 20013G22KT P6SM -RA OVC025 FM060300
                       18015G24KT P6SM -RA SCT010 OVC020 FM060800
                       20012G21KT P6SM -RA OVC015 FM061200 20010KT
                       P6SM OVC020 FM061800 24007KT P6SM SCT020
                       OVC030=
202401052058 KSEA 052058Z 0521/0624 19010G16KT P6SM BKN040 BKN060 OVC120 FM052300
                       20013G21KT P6SM -RA OVC030 FM060300 18017G26KT
                       P6SM -RA SCT015 OVC027 FM060800 20014G22KT
                       6SM -RA BR OVC015 FM061200 20010KT P6SM
                       OVC020=
202401051758 KSEA 051758Z 0518/0624 19010G16KT P6SM SCT020 OVC040 FM052300 20013G21KT
                       P6SM -RA OVC030 FM060300 18017G26KT P6SM
                       -RA SCT015 OVC027 FM060800 20014G22KT 6SM
                       -RA BR OVC015 FM061200 20010KT P6SM OVC020=
202401051725 TAF KSEA 051725Z 0518/0624 19010G16KT P6SM SCT020 OVC050 FM052300
                       20013G21KT P6SM -RA OVC030 FM060300 18017G26KT
                       P6SM -RA SCT015 OVC027 FM060800 20014G22KT
                       6SM -RA BR OVC015 FM061200 20010KT P6SM
                       OVC020=
202401051359 KSEA 051359Z 0514/0618 19011KT P6SM VCSH BKN010 BKN025 FM051700
                       19010G16KT P6SM BKN015 BKN030 FM052300 20013G21KT
                       P6SM -RA OVC030 FM060300 18015G25KT P6SM
                       -RA SCT015 OVC027 FM060800 20014G22KT 6SM
                       -RA BR OVC015=
202401051135 TAF KSEA 051135Z 0512/0618 19011KT P6SM VCSH SCT025 BKN040
                      TEMPO 0512/0514 -SHRA BKN025 FM051700 19012G18KT
                       P6SM SCT025 OVC035 FM052300 20013G21KT P6SM
                       -RA OVC030 FM060300 18015G25KT P6SM -RA
                       SCT015 OVC027 FM060800 20014G22KT 6SM -RA
                       BR OVC015=
202401050910 KSEA 050910Z 0509/0612 18009KT P6SM SCT020 BKN040 FM051800 19012G20KT
                       P6SM SCT025 OVC035 FM052200 20016G25KT P6SM
                       -RA OVC020 FM060300 18012KT P6SM -RA SCT020
                       OVC030=
202401050704 KSEA 050704Z 0507/0612 18007KT P6SM BKN009 OVC020 FM051800 19012G20KT
                       P6SM SCT025 OVC035 FM052200 20016G25KT P6SM
                       -RA OVC020 FM060300 18012KT P6SM -RA SCT020
                       OVC030=
202401050539 TAF KSEA 050539Z 0506/0612 14006KT P6SM BKN035 FM050900 19008KT
                       P6SM BKN010 OVC020 FM051800 19012G20KT P6SM
                       SCT025 OVC035 FM052200 20016G25KT P6SM -RA
                       OVC020 FM060300 18012KT P6SM -RA SCT020
                       OVC030=
202401050304 KSEA 050304Z 0503/0606 14006KT P6SM SCT005 SCT035 OVC050 FM050600
                       20008KT P6SM BKN025 OVC035 FM051000 19011G18KT
                       6SM -RA BR BKN015 OVC020 FM051800 19012G20KT
                       P6SM SCT025 OVC035 FM052300 20016G25KT P6SM
                       BKN020 OVC030=
202401042336 TAF KSEA 042336Z 0500/0606 VRB05KT 2SM BR VCSH BKN003 OVC010 FM050200
                       20008KT 4SM BR VCSH BKN018 OVC025 FM050600
                       21008KT P6SM BKN022 OVC035 FM051000 19011G18KT
                       6SM -RA BR BKN015 OVC020 FM051800 19012G20KT
                       P6SM SCT025 OVC035 FM052300 20016G25KT P6SM
                       BKN020 OVC030=
202401042229 KSEA 042229Z 0422/0524 VRB05KT 1SM BR BKN003 OVC015 FM050200 20008KT
                       6SM BR VCSH BKN018 OVC025 FM050600 21008KT
                       P6SM BKN022 OVC035 FM051500 18011KT P6SM
                       -RA OVC020=
202401042228 KSEA 042228Z 0422/0524 VRB05KT 1SM BR BKN009 OVC015 FM050200 20008KT
                       6SM BR VCSH BKN018 OVC025 FM050600 21008KT
                       P6SM BKN022 OVC035 FM051500 18011KT P6SM
                       -RA OVC020=
202401042101 KSEA 042101Z 0421/0524 VRB05KT 3SM BR BKN009 OVC015 FM042300 20008KT
                       6SM BR VCSH BKN018 OVC025 FM050300 21008KT
                       P6SM BKN022 OVC035 FM051500 18011KT P6SM
                       -RA OVC020=
202401041728 TAF KSEA 041728Z 0418/0524 17008KT 6SM BR OVC025 FM042200 20008KT
                       P6SM VCSH BKN018 OVC025 FM050300 21008KT
                       P6SM BKN022 OVC035 FM051500 18011KT P6SM
                       -RA OVC020=
202401041134 TAF KSEA 041134Z 0412/0518 17008KT P6SM -RA SCT022 OVC030 FM041700
                       17008KT 6SM -RA BR SCT010 OVC017 FM042200
                       20008KT P6SM VCSH BKN018 OVC025 FM050300
                       21008KT P6SM BKN022 OVC035 FM051600 18010KT
                       P6SM -RA OVC020=
202401040900 KSEA 040900Z 0409/0512 18010KT P6SM -RA BKN025 OVC040 FM041200
                       17010KT P6SM -RA OVC022 FM041700 18008KT
                       6SM BR SCT008 OVC015 FM042300 20008KT P6SM
                       OVC015=
202401040523 TAF KSEA 040523Z 0406/0512 18010KT P6SM -SHRA SCT030 OVC080 FM041200
                       15010KT P6SM -RA OVC025 FM041700 18008KT
                       6SM BR SCT008 OVC015 FM042300 20008KT P6SM
                       OVC015=
202401040307 KSEA 040307Z 0403/0506 18011KT P6SM -SHRA SCT030 OVC080 FM041200
                       15010KT P6SM -RA OVC025 FM041700 18008KT
                       6SM BR SCT008 OVC015 FM042300 20008KT P6SM
                       OVC015=
202401032350 KSEA 032350Z 0400/0506 19007KT P6SM SCT010 OVC020 FM041200 15010KT
                       P6SM -RA OVC025 FM041700 18008KT 6SM BR
                       SCT008 OVC015 FM042300 20008KT P6SM OVC015=
202401032332 TAF KSEA 032332Z 0400/0506 19007KT 2SM -RA BR BKN008 OVC015 FM040200
                       18008KT P6SM SCT020 OVC030 FM041200 15010KT
                       P6SM -RA OVC025 FM041700 18008KT 6SM BR
                       SCT008 OVC015 FM042300 20008KT P6SM OVC015=
202401032249 KSEA 032249Z 0323/0424 19007KT 2SM -RA BR BKN008 OVC015 FM040100
                       18008KT P6SM SCT020 OVC030 FM041200 15010KT
                       P6SM -RA SCT030 OVC060 FM041700 18008KT
                       P6SM OVC025=
202401032157 KSEA 032157Z 0322/0424 19007KT 3SM -RA BR FEW009 BKN020 OVC030
                       FM040100 18008KT P6SM SCT020 OVC030 FM041200
                       15010KT P6SM -RA SCT030 OVC060 FM041700
                       18008KT P6SM OVC025=
202401032155 KSEA 032155Z 0322/0424 19007KT 3SM -RA BR FEW009 SCT015 OVC030
                       FM040200 18008KT P6SM SCT020 OVC030 FM041200
                       15010KT P6SM -RA SCT030 OVC060 FM041700
                       18008KT P6SM OVC025=
202401032059 KSEA 032059Z 0321/0424 19007KT P6SM -SHRA FEW010 OVC040 FM040000
                       18008KT P6SM SCT020 OVC030 FM041200 15010KT
                       P6SM -RA SCT030 OVC060 FM041700 18008KT
                       P6SM OVC025=
202401031922 KSEA 031922Z 0319/0424 VRB05KT P6SM FEW050 BKN080 BKN150 FM032100
                       15006KT 5SM -SHRA OVC040 FM040200 18008KT
                       P6SM SCT020 OVC030 FM041200 15010KT P6SM
                       -RA SCT030 OVC060 FM041700 18008KT P6SM
                       OVC025=
202401031738 TAF KSEA 031738Z 0318/0424 17008KT P6SM BKN060 BKN110 BKN220 FM032100
                       13006KT 5SM -SHRA OVC040 FM040200 18008KT
                       P6SM SCT020 OVC030 FM041200 15010KT P6SM
                       -RA SCT030 OVC060 FM041700 18008KT P6SM
                       OVC025=
202401031631 KSEA 031631Z 0317/0418 13006KT P6SM SCT060 OVC090 FM031800 13006KT
                       P6SM OVC060 FM032000 13006KT 5SM -SHRA OVC040
                       FM040200 18006KT P6SM SCT015 OVC025 FM041200
                       15008KT P6SM SCT030 OVC060 FM041700 18008KT
                       P6SM -RA OVC025=
202401031505 KSEA 031505Z 0315/0418 13006KT P6SM SCT060 OVC090 FM031800 13006KT
                       P6SM OVC060 FM032000 13006KT 5SM -RA OVC040
                       FM040200 18006KT P6SM SCT015 OVC025 FM041200
                       15008KT P6SM SCT030 OVC060 FM041700 18008KT
                       P6SM -RA OVC025=
202401031140 TAF KSEA 031140Z 0312/0418 00000KT P6SM SCT060 OVC090 FM031600
                       13006KT P6SM OVC060 FM032000 13006KT 5SM
                       -RA OVC040 FM040200 18006KT P6SM SCT015
                       OVC025 FM041200 15008KT P6SM SCT030 OVC060
                       FM041700 18008KT P6SM -RA OVC025=
202401030917 KSEA 030917Z 0309/0412 22004KT P6SM -SHRA BKN060 OVC090 FM031100
                       13006KT P6SM SCT025 BKN060 OVC090
                      TEMPO 0314/0318 BKN025 OVC060 FM031900 19008KT
                       P6SM -RA OVC025=
202401030532 TAF KSEA 030532Z 0306/0412 08003KT P6SM OVC060 FM030800 12004KT
                       P6SM OVC025 FM031400 12005KT 5SM BR OVC020
                       FM031900 19007KT P6SM OVC025=
202401030308 KSEA 030308Z 0303/0406 08003KT P6SM OVC060 FM030800 12004KT P6SM
                       OVC025 FM031400 12005KT 5SM BR OVC020 FM031900
                       19007KT P6SM OVC025=
202401022336 TAF KSEA 022336Z 0300/0406 10010KT P6SM -RA BKN060 OVC070 FM030300
                       11006KT P6SM SCT020 OVC035 FM030800 12004KT
                       P6SM OVC025 FM031400 12005KT 5SM BR OVC020
                       FM031900 19007KT P6SM OVC025=
202401022101 KSEA 022101Z 0221/0324 12008KT P6SM -RA OVC045 FM030300 11006KT
                       P6SM SCT020 OVC035 FM030800 12004KT P6SM
                       OVC020=
202401021801 KSEA 021801Z 0218/0324 VRB02KT 5SM -RA BR FEW003 BKN045 OVC070
                       FM022000 06006KT 5SM -RA BR OVC040 FM030300
                       11006KT P6SM SCT020 OVC035 FM030800 12004KT
                       P6SM OVC020=
202401021729 TAF KSEA 021729Z 0218/0324 VRB02KT P6SM -RA FEW010 BKN060 OVC080
                       FM022000 06006KT 5SM -RA BR OVC040 FM030300
                       11006KT P6SM SCT020 OVC035 FM030800 12004KT
                       P6SM OVC020=
202401021337 KSEA 021337Z 0214/0318 09003KT P6SM SCT002 BKN150
                      TEMPO 0215/0217 5SM BR FM021800 06006KT P6SM
                       OVC070 FM022000 06006KT P6SM -RA OVC040
                       FM030600 11006KT P6SM SCT020 OVC035 FM031000
                       11006KT P6SM OVC011=
202401021135 TAF KSEA 021135Z 0212/0318 09003KT P6SM BKN150 FM021400 09003KT
                       1/2SM FG VV001 FM021800 06006KT 2SM BR BKN003
                       FM022000 06006KT P6SM -RA OVC040 FM030600
                       11006KT P6SM SCT020 OVC035 FM031000 11006KT
                       P6SM OVC011=
202401020910 KSEA 020910Z 0209/0312 00000KT P6SM OVC100 FM021200 10006KT 6SM
                       BR BKN045 FM022000 05007KT P6SM -SHRA OVC025
                       FM030000 06005KT P6SM -SHRA OVC035 FM030300
                       09007KT P6SM OVC035=
202401020529 TAF KSEA 020529Z 0206/0312 10003KT 6SM BR BKN160 FM020800 09004KT
                       5SM BR OVC100 FM021200 10006KT 6SM BR BKN045
                       FM022000 05007KT P6SM -SHRA OVC025 FM030000
                       06005KT P6SM -SHRA OVC035 FM030300 09007KT
                       P6SM OVC035=
202401020304 KSEA 020304Z 0203/0306 16003KT P6SM SCT180 FM021200 10006KT 6SM
                       BR BKN045 FM022000 05007KT P6SM -SHRA OVC025
                       FM030000 06005KT P6SM -SHRA OVC035=
202401012329 TAF KSEA 012329Z 0200/0306 VRB03KT P6SM FEW060 FEW140 BKN240 FM020300
                       10005KT P6SM BKN240 FM021200 10006KT 6SM
                       BR BKN045 FM022000 05007KT P6SM -SHRA OVC025=
202401012053 KSEA 012053Z 0121/0224 VRB03KT P6SM FEW002 BKN060 FM020000 10006KT
                       P6SM BKN150 FM020900 10006KT 6SM BR BKN045=
202401011729 TAF KSEA 011729Z 0118/0224 17004KT 6SM BR FEW001 BKN050 FM012000
                       17004KT P6SM BKN060 BKN250 FM012200 13003KT
                       P6SM BKN250 FM020000 10006KT P6SM BKN150
                       FM020900 10006KT 6SM BR BKN045=
202401011559 KSEA 011559Z 0116/0218 18003KT 3SM BCFG FEW001 BKN050 FM011800
                       17004KT 6SM BR BKN010 FM012000 17004KT P6SM
                       BKN025 BKN250 FM012200 13003KT P6SM BKN250
                       FM020000 10006KT P6SM BKN150=
202401011446 KSEA 011446Z 0115/0218 04006KT 3/4SM BR OVC004
                      TEMPO 0115/0117 1/2SM FG OVC002 FM011800
                       17004KT 6SM BR BKN010 FM012000 17004KT P6SM
                       BKN025 BKN250 FM012200 13003KT P6SM BKN250
                       FM020000 10006KT P6SM BKN150=
202401011307 KSEA 011307Z 0113/0218 05006KT 3/4SM BR OVC004
                      TEMPO 0113/0117 1/4SM FG OVC002 FM011800
                       17004KT 6SM BR BKN010 FM012000 17004KT P6SM
                       BKN025 BKN250 FM012200 13003KT P6SM BKN250
                       FM020000 10006KT P6SM BKN150=
202401011143 TAF KSEA 011143Z 0112/0218 VRB03KT P6SM BCFG SCT005 SCT220
                      TEMPO 0113/0114 1SM BR BKN004 FM011400 VRB03KT
                       1/2SM FG OVC003 FM011800 17004KT P6SM BKN010
                       FM012000 17004KT P6SM BKN025 BKN250 FM012200
                       13003KT P6SM BKN250 FM020000 10006KT P6SM
                       BKN150=
202401011051 KSEA 011051Z 0111/0212 10003KT P6SM BCFG SCT007 SCT220 FM011300
                       07004KT 1/2SM FG OVC003 FM011900 07004KT
                       P6SM BKN070 FM012200 VRB03KT P6SM BKN250
                       FM020000 01005KT P6SM BKN250=
202401010858 KSEA 010858Z 0109/0212 VRB03KT P6SM BKN200 FM011000 10003KT P6SM
                       SCT007 SCT250 FM011400 07004KT 1/2SM FG
                       BKN004 FM011900 07004KT P6SM BKN070 FM012200
                       VRB03KT P6SM BKN250 FM020000 01005KT P6SM
                       BKN250=
202401010520 TAF KSEA 010520Z 0106/0212 08003KT P6SM SCT002 BKN200 FM011000
                       09004KT P6SM SCT007 SCT250 FM011400 07004KT
                       1/2SM FG BKN004 FM011900 07004KT P6SM BKN070
                       FM012200 VRB03KT P6SM BKN250 FM020000 01005KT
                       P6SM BKN250=
202401010258 KSEA 010258Z 0103/0206 36004KT P6SM FEW025 BKN200 FM011000 09004KT
                       P6SM SCT007 SCT250 FM011400 07004KT 2SM
                       BR BKN004 FM011900 07004KT P6SM BKN070 FM012200
                       VRB03KT P6SM BKN250=